sequenceNumber,corporateNumber,process,correct,updateDate,changeDate,name,nameImageId,kind,prefectureName,cityName,streetNumber,addressImageId,prefectureCode,cityCode,postCode,addressOutside,addressOutsideImageId,closeDate,closeCause,successorCorporateNumber,changeCause,assignmentDate,latest,enName,enPrefectureName,enCityName,enAddressOutside,furigana,hihyoji
18,1010001253454,新規,0,2025-03-27,2025-03-27,なにかしら株式会社,,株式会社,東京都,中央区,日本橋人形町１丁目１番２２号グランピアビル７階,,13,102,1030013,,,,,,,2025-03-27,1,,,,,ナニカシラ,0
19,1010001253462,新規,0,2025-03-27,2025-03-27,株式会社ピースソリューション,,株式会社,東京都,文京区,水道１丁目１２番１号,,13,105,1120005,,,,,,,2025-03-27,1,,,,,ピースソリューション,0
20,1010001253504,新規,0,2025-03-27,2025-03-27,株式会社アベニール,,株式会社,東京都,文京区,水道２丁目４－３－７０４号室,,13,105,1120005,,,,,,,2025-03-27,1,,,,,アベニール,0
21,1010001253512,新規,0,2025-03-27,2025-03-27,株式会社友美堂美術,,株式会社,東京都,千代田区,神田多町２丁目１１番地２７第１９岡崎ビル１階,,13,101,1010046,,,,,,,2025-03-27,1,,,,,ユウビドウビジュツ,0
22,1010001253529,新規,0,2025-03-27,2025-03-27,株式会社ＭＩＹＡＢＩ,,株式会社,東京都,中央区,晴海２丁目３番３０－３７１４号,,13,102,1040053,,,,,,,2025-03-27,1,,,,,ミヤビ,0
24,1010003046823,新規,0,2025-03-27,2025-03-27,ニチラン合同会社,,合同会社,東京都,文京区,本駒込５丁目３５番４号亀田ビル３０２,,13,105,1130021,,,,,,,2025-03-27,1,,,,,ニチラン,0
26,1010005039809,新規,0,2025-03-27,2025-03-27,一般社団法人未来へつなぐ日本,,その他の設立登記法人,東京都,千代田区,三番町７番地１,,13,101,1020075,,,,,,,2025-03-27,1,,,,,ミライヘツナグニッポン,0
28,1010103002544,新規,0,2025-03-27,2025-03-27,ブロスコフ・アセットマネジメント合同会社,,合同会社,東京都,八王子市,川町１２８番地２１３,,13,201,1930821,,,,,,,2025-03-27,1,,,,,ブロスコフアセットマネジメント,0
33,1010401189158,新規,0,2025-03-27,2025-03-27,株式会社アウトプットモンスター,,株式会社,東京都,港区,南青山１丁目８番１０号,,13,103,1070062,,,,,,,2025-03-27,1,,,,,アウトプットモンスター,0
37,1010403034683,新規,0,2025-03-27,2025-03-27,合同会社ＵＢＬＡＮＣＨＥ,,合同会社,東京都,港区,南青山３丁目１番３６号青山丸竹ビル６Ｆ,,13,103,1070062,,,,,,,2025-03-27,1,,,,,ユーブランシュ,0
38,1010403034717,新規,0,2025-03-27,2025-03-27,霊源寺合同会社,,合同会社,東京都,港区,六本木１丁目９番１０号アークヒルズ仙石山森タワー４０階エイペックスグループジャパン株式会社内,,13,103,1060032,,,,,,,2025-03-27,1,,,,,レイゲンジ,0
39,1010403034725,新規,0,2025-03-27,2025-03-27,伶合同会社,,合同会社,東京都,港区,高輪１丁目４－６－１４０３,,13,103,1080074,,,,,,,2025-03-27,1,,,,,レイ,0
43,1010503007754,新規,0,2025-03-27,2025-03-27,合同会社ｂｌｏｏｍ,,合同会社,東京都,台東区,浅草橋５丁目２ー３鈴和ビル２階,,13,106,1110053,,,,,,,2025-03-27,1,,,,,ブルーム,0
48,1010801035952,新規,0,2025-03-27,2025-03-27,株式会社ネクスティブ,,株式会社,東京都,大田区,大森西６丁目１７－１７,,13,111,1430015,,,,,,,2025-03-27,1,,,,,ネクスティブ,0
51,1010901057079,新規,0,2025-03-27,2025-03-27,ｆｌｅｕｒ株式会社,,株式会社,東京都,世田谷区,大蔵６丁目１８番７－４０８号,,13,112,1570074,,,,,,,2025-03-27,1,,,,,フルール,0
54,1011001168411,新規,0,2025-03-27,2025-03-27,株式会社Ｖａｓｃｕｌｏｉｄ,,株式会社,東京都,渋谷区,渋谷２丁目１９－１５宮益坂ビルディング６０９,,13,113,1500002,,,,,,,2025-03-27,1,,,,,バスキュロイド,0
55,1011001168452,新規,0,2025-03-27,2025-03-27,株式会社Ｓｏｕｎｄ　Ｍａｔｒｉｘ,,株式会社,東京都,渋谷区,広尾５丁目１０番３号,,13,113,1500012,,,,,,,2025-03-27,1,,,,,サウンドマトリックス,0
61,1011301030452,新規,0,2025-03-27,2025-03-27,株式会社エバーグリーン,,株式会社,東京都,杉並区,方南１丁目５２番９号,,13,115,1680062,,,,,,,2025-03-27,1,,,,,エバーグリーン,0
63,1011303005477,新規,0,2025-03-27,2025-03-27,合同会社Ｒａｉｎｂｏｗ　Ｉｎｔｅｒｎａｔｉｏｎａｌ,,合同会社,東京都,杉並区,和田３丁目５６番１２号モンテハイツ５階５０１号室,,13,115,1660012,,,,,,,2025-03-27,1,,,,,レインボーインターナショナル,0
64,1011401026945,新規,0,2025-03-27,2025-03-27,株式会社ＶＩＶＡ　ＡＲＥＩＮＴ,,株式会社,東京都,板橋区,富士見町５－２－３０２,,13,119,1740062,,,,,,,2025-03-27,1,,,,,ビバアレイント,0
76,1020001161978,新規,0,2025-03-27,2025-03-27,明月商事株式会社,,株式会社,神奈川県,横浜市中区,伊勢佐木町４丁目１２１ライオンズマンション伊勢佐木町４０１号,,14,104,2310045,,,,,,,2025-03-27,1,,,,,メイゲツショウジ,0
77,1020001162027,新規,0,2025-03-27,2025-03-27,ＡＰＥＸＡ　ＥＮＥＲＧＹ株式会社,,株式会社,神奈川県,川崎市中原区,井田３丁目９番１－３０１号,,14,133,2110035,,,,,,,2025-03-27,1,,,,,アペクシアエナジー,0
82,1021001084797,新規,0,2025-03-27,2025-03-27,株式会社ちとせ,,株式会社,神奈川県,茅ヶ崎市,東海岸北３丁目５番１４号Ｃ．ｃｕｌｌｅ３０３,,14,207,2530053,,,,,,,2025-03-27,1,,,,,チトセ,0
89,1030001165581,新規,0,2025-03-27,2025-03-27,株式会社ＡＸＥＬ,,株式会社,埼玉県,さいたま市岩槻区,大字尾ヶ崎１８５６番地,,11,110,3390027,,,,,,,2025-03-27,1,,,,,アクセル,0
90,1030001165598,新規,0,2025-03-27,2025-03-27,Ｈａｒｕｋｅｎ株式会社,,株式会社,埼玉県,所沢市,大字上安松１０８６リスタ所沢２１３,,11,208,3590025,,,,,,,2025-03-27,1,,,,,ハルケン,0
97,1030003026419,新規,0,2025-03-27,2025-03-27,ＢＲ　ＴＲＡＤＩＮＧ合同会社,,合同会社,埼玉県,加須市,花崎３丁目１３番地１１ハイツヤマグチ２０１号,,11,210,3470032,,,,,,,2025-03-27,1,,,,,ビーアールトレーディング,0
98,1030005022093,新規,0,2025-03-27,2025-03-27,一般社団法人無溶接工法協会,,その他の設立登記法人,埼玉県,川口市,八幡木３丁目２９番地の１５,,11,203,3340012,,,,,,,2025-03-27,1,,,,,ムヨウセツコウホウキョウカイ,0
102,1040003027176,新規,0,2025-03-27,2025-03-27,豊宏合同会社,,合同会社,千葉県,成田市,松子２６２番地５,,12,211,2870234,,,,,,,2025-03-27,1,,,,,トヨヒロ,0
103,1050001056399,新規,0,2025-03-27,2025-03-27,株式会社セキトソー,,株式会社,茨城県,古河市,上辺見４２４番地１,,08,204,3060234,,,,,,,2025-03-27,1,,,,,セキトソー,0
105,1050003009140,新規,0,2025-03-27,2025-03-27,合同会社ＨＩＲＵＫＩ　ＩＮＴＥＲＮＡＴＩＯＮＡＬ,,合同会社,茨城県,常総市,豊岡町乙２１９２番地２,,08,211,3030041,,,,,,,2025-03-27,1,,,,,ヒルキインターナショナル,0
106,1050005013578,新規,0,2025-03-27,2025-03-27,特定非営利活動法人デジ活ひろば,,その他の設立登記法人,茨城県,稲敷郡美浦村,大字土屋１９７２番地２７５,,08,442,3000426,,,,,,,2025-03-27,1,,,,,デジカツヒロバ,0
108,1070001042760,新規,0,2025-03-27,2025-03-27,ジャパン電設株式会社,,株式会社,群馬県,館林市,富士見町３番４２号,,10,207,3740027,,,,,,,2025-03-27,1,,,,,ジャパンデンセツ,0
120,1100001038441,新規,0,2025-03-27,2025-03-27,Ｗｅｌｌ‐ｂｅｉｎｇ　Ｄｏｇ株式会社,,株式会社,長野県,佐久市,小田井３２５番地２,,20,217,3850009,,,,,,,2025-03-27,1,,,,,ウエルビーイングドッグ,0
130,1120001273945,新規,0,2025-03-27,2025-03-27,東瀛春暁株式会社,00138479,株式会社,大阪府,大阪市平野区,長吉六反３丁目１７番２５号３Ｆ－Ｈ,,27,126,5470012,,,,,,,2025-03-27,1,,,,,トウインシュンギョウ,0
131,1120001274010,新規,0,2025-03-27,2025-03-27,環宇株式会社,,株式会社,大阪府,大阪市阿倍野区,桃ケ池町２丁目１１－２－２０１号,,27,119,5450012,,,,,,,2025-03-27,1,,,,,カンウ,0
134,1120105009989,新規,0,2025-03-27,2025-03-27,一般社団法人日中文化国際交流協会,,その他の設立登記法人,大阪府,泉佐野市,市場東２丁目４番６号,,27,213,5980005,,,,,,,2025-03-27,1,,,,,ニッチュウブンカコクサイコウリュウキョウカイ,0
139,1120901050626,新規,0,2025-03-27,2025-03-27,株式会社イノベクト,,株式会社,大阪府,茨木市,大池２丁目２３番３号,,27,211,5670826,,,,,,,2025-03-27,1,,,,,イノベクト,0
140,1120901050634,新規,0,2025-03-27,2025-03-27,株式会社エスエスケイ国際貿易,,株式会社,大阪府,高槻市,春日町８番４８号サニーパーク春日２０４号,,27,207,5690053,,,,,,,2025-03-27,1,,,,,エスエスケイコクサイボウエキ,0
142,1122001039005,新規,0,2025-03-27,2025-03-27,ＨＣＩマネジメント株式会社,,株式会社,大阪府,東大阪市,永和３丁目１３番６号,,27,227,5770809,,,,,,,2025-03-27,1,,,,,エイチシーアイマネジメント,0
143,1122001039013,新規,0,2025-03-27,2025-03-27,大炎演繹株式会社,,株式会社,大阪府,東大阪市,若江西新町４丁目６番１０－３０５号,,27,227,5780944,,,,,,,2025-03-27,1,,,,,タイエンエンエキ,0
144,1122003003149,新規,0,2025-03-27,2025-03-27,ＧＤ　ｓｕｐｐｌｉｅｒｓ合同会社,,合同会社,大阪府,東大阪市,長堂１丁目１１番３１号ナニワマンションＧ－５,,27,227,5770056,,,,,,,2025-03-27,1,,,,,ジーディーサプライヤーズ,0
148,1130005017315,新規,0,2025-03-27,2025-03-27,一般社団法人タートルズ,,その他の設立登記法人,京都府,京都市右京区,花園中御門町３番地の２３,,26,108,6168054,,,,,,,2025-03-27,1,,,,,タートルズ,0
152,1140001137891,新規,0,2025-03-27,2025-03-27,コージーフロウ株式会社,,株式会社,兵庫県,神戸市中央区,東川崎町１丁目５－７神戸情報文化ビル１階,,28,110,6500044,,,,,,,2025-03-27,1,,,,,コージーフロウ,0
153,1140003021796,新規,0,2025-03-27,2025-03-27,合同会社優和商事,,合同会社,兵庫県,淡路市,仁井１０８８番地,,28,226,6561731,,,,,,,2025-03-27,1,,,,,ユウワショウジ,0
154,1140003021846,新規,0,2025-03-27,2025-03-27,合同会社ｔｏｏｎｏｓｉｓ,,合同会社,兵庫県,姫路市,継４２４－６,,28,201,6728004,,,,,,,2025-03-27,1,,,,,トゥーノーシス,0
155,1140005027420,新規,0,2025-03-27,2025-03-27,医療法人森井眼科クリニック,,その他の設立登記法人,兵庫県,神戸市東灘区,御影中町１丁目６番９号ウエダビル２，３階,,28,101,6580054,,,,,,,2025-03-27,1,,,,,モリイガンカクリニック,0
157,1160001026622,新規,0,2025-03-27,2025-03-27,株式会社Ｋ’ｓ　Ｈｏｍｅ,,株式会社,滋賀県,野洲市,三上２２２３番地４１,,25,210,5202323,,,,,,,2025-03-27,1,,,,,ケーズホーム,0
167,1180001166037,新規,0,2025-03-27,2025-03-27,長江株式会社,,株式会社,愛知県,名古屋市西区,五才美町６番地メゾンヤスフク５０１号,,23,104,4520806,,,,,,,2025-03-27,1,,,,,チョウコウ,0
171,1180003028202,新規,0,2025-03-27,2025-03-27,合同会社Ｋａｌｅｉｄｏｔｏｎｅ,,合同会社,愛知県,名古屋市中村区,名駅４丁目２４番５号第２森ビル４０１,,23,105,4500002,,,,,,,2025-03-27,1,,,,,カレイドトーン,0
172,1180003028210,新規,0,2025-03-27,2025-03-27,アキゾラ合同会社,,合同会社,愛知県,名古屋市中村区,名駅４丁目２４番５号第２森ビル４０１,,23,105,4500002,,,,,,,2025-03-27,1,,,,,アキゾラ,0
173,1180005020999,新規,0,2025-03-27,2025-03-27,医療法人心花会,,その他の設立登記法人,愛知県,名古屋市千種区,丘上町２丁目４９番地の４,,23,101,4640837,,,,,,,2025-03-27,1,,,,,シンカカイ,0
177,1200001043571,新規,0,2025-03-27,2025-03-27,株式会社ＣＴＫ,,株式会社,岐阜県,関市,下之保２３６１番地２,,21,205,5013521,,,,,,,2025-03-27,1,,,,,シーティーケー,0
182,1230001020799,新規,0,2025-03-27,2025-03-27,にこ農園株式会社,,株式会社,富山県,黒部市,宇奈月町明日９８０番地,,16,207,9380171,,,,,,,2025-03-27,1,,,,,ニコノウエン,0
185,1240001064705,新規,0,2025-03-27,2025-03-27,株式会社ｎｉｎｅｔｙ　ｏｎｅ,,株式会社,広島県,広島市安佐北区,白木町大字志路５９３４番地４,,34,106,7391303,,,,,,,2025-03-27,1,,,,,ナインティワン,0
191,1250003003684,新規,0,2025-03-27,2025-03-27,Ｅｎ　Ｌｉｎｋ合同会社,,合同会社,山口県,防府市,中西１２番４０号,,35,206,7470005,,,,,,,2025-03-27,1,,,,,エンリンク,0
195,1260003005102,新規,0,2025-03-27,2025-03-27,合同会社光泉,,合同会社,岡山県,津山市,川崎７５番地８,,33,203,7080841,,,,,,,2025-03-27,1,,,,,コウセン,0
201,1290001109439,新規,0,2025-03-27,2025-03-27,株式会社ＳＩＥＫ,,株式会社,福岡県,朝倉郡筑前町,上高場１８７７番地１,,40,447,8380821,,,,,,,2025-03-27,1,,,,,シーク,0
202,1290001109471,新規,0,2025-03-27,2025-03-27,ＪＴ貿易株式会社,,株式会社,福岡県,福岡市早良区,曙２丁目９－３ポルトス西新４０１号室,,40,137,8140004,,,,,,,2025-03-27,1,,,,,ジェーティーボウエキ,0
211,1310003004973,新規,0,2025-03-27,2025-03-27,燦知工貿合同会社,,合同会社,長崎県,長崎市,小浦町６６番１号２棟４０４,,42,201,8500067,,,,,,,2025-03-27,1,,,,,サンチコウボウ,0
212,1320001021012,新規,0,2025-03-27,2025-03-27,株式会社ＬＩＶＥＲＡＬ　ＷＯＲＫＳ,,株式会社,大分県,国東市,安岐町下原２１５５番地１２,,44,214,8730231,,,,,,,2025-03-27,1,,,,,リブラルワークス,0
215,1330001033007,新規,0,2025-03-27,2025-03-27,株式会社ハル,,株式会社,熊本県,上益城郡山都町,金内７２４番地６,,43,447,8613451,,,,,,,2025-03-27,1,,,,,ハル,0
216,1330003010912,新規,0,2025-03-27,2025-03-27,合同会社ｅａｓｙ,,合同会社,熊本県,菊池市,隈府１０８３番地１５,,43,210,8611331,,,,,,,2025-03-27,1,,,,,イージー,0
222,1380001035188,新規,0,2025-03-27,2025-03-27,七海株式会社,,株式会社,福島県,いわき市,平字十五町目１８番地の８,,07,204,9708026,,,,,,,2025-03-27,1,,,,,ナナミ,0
224,1380003005998,新規,0,2025-03-27,2025-03-27,合同会社ＮＩＭＡＩＢＡＳＨＩ,,合同会社,福島県,相馬郡飯舘村,二枚橋字本町２６８番地,,07,564,9601634,,,,,,,2025-03-27,1,,,,,ニマイバシ,0
230,1450001014572,新規,0,2025-03-27,2025-03-27,株式会社Ｓａｒａｓｖａｔｉ,,株式会社,北海道,上川郡鷹栖町,北野東四条２丁目２番１１号,,01,452,0711224,,,,,,,2025-03-27,1,,,,,サラスヴァティー,0
232,1450005004446,新規,0,2025-03-27,2025-03-27,一般社団法人いかすい,,その他の設立登記法人,北海道,空知郡上富良野町,大町１丁目３番３号,,01,460,0710561,,,,,,,2025-03-27,1,,,,,イカスイ,0
233,1460005001590,新規,0,2025-03-27,2025-03-27,一般社団法人太平洋建設工業共済会,,その他の設立登記法人,北海道,釧路市,浦見６丁目３番８号,,01,206,0850835,,,,,,,2025-03-27,1,,,,,タイヘイヨウケンセツコウギョウキョウサイカイ,0
236,1700150129526,新規,0,2025-03-27,2025-03-27,Ｏｌａｄａｎｃｅ（ＨＯＮＧＫＯＮＧ）Ｌｉｍｉｔｅｄ,,外国会社等,,,,,,,,ＵＮＩＴ　１００３　１０／Ｆ　ＴＯＷＥＲ　２　ＳＩＬＶＥＲＣＯＲＤ　３０　ＣＡＮＴＯＮ　ＲＯＡＤ　ＴＳＩＭ　ＳＨＡ　ＴＳＵＩ　ＫＬ,,,,,,2025-03-27,1,,,,,オーラダンスホンコンリミテツド,0
237,1700150129708,新規,0,2025-03-27,2025-03-27,Ｈａｎｇ　Ｚｈｏｕ　Ｙａ　Ａｎ　Ｄｉａｎ　Ｚｉ　Ｓｈａｎｇ　Ｗｕ　Ｙｏｕ　Ｘｉａｎ　Ｇｏｎｇ　Ｓｉ,,外国会社等,,,,,,,,Ｓｈａｎｌｉｗａｎｇ　Ｖｉｌｌａｇｅ，Ｓｕｏｑｉａｎ　Ｔｏｗｎ　Ｉｎｓｉｄｅ　ｔｈｅ　ｆａｃｔｏｒｙ　ｂｕｉｌｄｉｎｇ　ｏｆ　Ｘｉｍｅｎｇ　Ｉｎｄｕｓｔｒｙ（Ｈａｎｇｚｈｏｕ）Ｃｏ．Ｘｉａｏｓｈａｎ　Ｄｉｓｔｒｉｃｔ，Ｈａｎｇｚｈｏｕ，Ｚｈｅｊｉａｎｇ　Ｐｒｏｖｉｎｃｅ，Ｃｈｉｎａ，３１１２５４,,,,,,2025-03-27,1,,,,,ハンジョウヤーアンディエンズーシャンウーヨウシエンゴンスー,0
238,1700150129724,新規,0,2025-03-27,2025-03-27,ＩＳＫ　ＢＩＯＳＣＩＥＮＣＥＳ　ＩＮＤＩＡ　ＰＲＩＶＡＴＥ　ＬＩＭＩＴＥＤ,,外国会社等,,,,,,,,Ｕｎｉｔ　Ｎｏ．９０１，Ｅｒｏｓ　Ｃｏｒｐｏｒａｔｅ　Ｔｏｗｅｒ，Ｎｅｈｒｕ　Ｐｌａｃｅ，Ｎｅｗ　Ｄｅｌｈｉ　１１０　０１９，Ｉｎｄｉａ,,,,,,2025-03-27,1,,,,,アイエスケーバイオサイエンスインデイアプライベートリミテツド,0
239,1700150129732,新規,0,2025-03-27,2025-03-27,Ｄｉｃｅ　Ｔｅｃｈｎｏｌｏｇｙ　Ｌｔｄ,,外国会社等,,,,,,,,Ｂｕｉｌｄｉｎｇ　６，Ｃｈｉｓｗｉｃｋ　Ｐａｒｋ，５６６Ｃｈｉｓｗｉｃｋ　Ｈｉｇｈ　Ｒｏａｄ，Ｌｏｎｄｏｎ，Ｕｎｉｔｅｄ　Ｋｉｎｇｄｏｍ，Ｗ４　５ＨＲ,,,,,,2025-03-27,1,,,,,ダイステクノロジー,0
240,1700150129740,新規,0,2025-03-27,2025-03-27,Ｇａｎｚｈｏｕ　Ｓｅｎｍａｉ　Ｃｒｏｓｓ　ｂｏｒｄｅｒ　Ｅ－ｃｏｍｍｅｒｃｅ　Ｃｏ．，Ｌｔｄ,,外国会社等,,,,,,,,１－６０９，１ｓｔ　Ｓｔｒｅｅｔ，Ｓｈｕｉ　Ｎａｎ　Ａｖｅｎｕｅ，Ｄｏｎｇｓｈａｎ　Ｔｏｗｎ　ＧＡＮＺＨＯＵ　ＪＩＡＮＧＸＩ　３４１２００　ＣＮ,,,,,,2025-03-27,1,,,,,ガンジョウセンマイクワジーンディエンズーシャーンウーヨウシエンゴーンスー,0
252,2010001253511,新規,0,2025-03-27,2025-03-27,株式会社山崎屋,00138469,株式会社,東京都,中央区,日本橋茅場町１丁目１２番６号,,13,102,1030025,,,,,,,2025-03-27,1,,,,,ヤマザキヤ,0
266,2010401189000,新規,0,2025-03-27,2025-03-27,Ｕｍｅ　Ｄｅｓｉｇｎ　Ｌａｂ．株式会社,,株式会社,東京都,港区,北青山１丁目３－３三橋ビル３階,,13,103,1070061,,,,,,,2025-03-27,1,,,,,ウメデザインラボ,0
267,2010401189082,新規,0,2025-03-27,2025-03-27,株式会社Ｅｔｏｉｌｅ　ｄｅ　Ｂｅａｕｔｅ,,株式会社,東京都,港区,南麻布１丁目８番２１－４０９号,,13,103,1060047,,,,,,,2025-03-27,1,,,,,エトワールドボーテ,0
273,2010501053840,新規,0,2025-03-27,2025-03-27,株式会社センターワン,,株式会社,東京都,台東区,千束２丁目２０番７号関口ビル２階,,13,106,1110031,,,,,,,2025-03-27,1,,,,,センターワン,0
275,2010603011465,新規,0,2025-03-27,2025-03-27,合同会社Ｍｉｓｔｙ　ｒａｇｅ,,合同会社,東京都,墨田区,押上３丁目７番９―１０３号,,13,107,1310045,,,,,,,2025-03-27,1,,,,,ミスティレイジ,0
276,2010605004434,新規,0,2025-03-27,2025-03-27,一般社団法人共同監護機構,,その他の設立登記法人,東京都,墨田区,太平４丁目１５―３―１００３,,13,107,1300012,,,,,,,2025-03-27,1,,,,,キョウドウカンゴキコウ,0
280,2010803005333,新規,0,2025-03-27,2025-03-27,Ｓｕｎ　Ｓｕｎ　Ｇｌｏｂａｌ合同会社,,合同会社,東京都,大田区,池上２丁目２０番４号,,13,111,1460082,,,,,,,2025-03-27,1,,,,,サンサングローバル,0
288,2011001168377,新規,0,2025-03-27,2025-03-27,スイッチ株式会社,,株式会社,東京都,渋谷区,神南１丁目１１－４ＦＰＧリンクス神南５階,,13,113,1500041,,,,,,,2025-03-27,1,,,,,スイッチ,0
289,2011001168575,新規,0,2025-03-27,2025-03-27,株式会社ＰｒｏｄｕｃｔＸ,,株式会社,東京都,渋谷区,渋谷２丁目１９－１５宮益坂ビルディング６０９,,13,113,1500002,,,,,,,2025-03-27,1,,,,,プロダクトエックス,0
290,2011001168749,新規,0,2025-03-27,2025-03-27,株式会社Ｋａｇａｍｉ,,株式会社,東京都,渋谷区,渋谷２丁目１９‐１５宮益坂ビルディング６０９,,13,113,1500002,,,,,,,2025-03-27,1,,,,,カガミ,0
293,2011101111088,新規,0,2025-03-27,2025-03-27,株式会社Ｓ＆Ｎ　ｐａｒｔｎｅｒｓ,,株式会社,東京都,新宿区,西新宿５丁目５番１号ザ・パークハウス西新宿タワー６０－２６０８号室,,13,104,1600023,,,,,,,2025-03-27,1,,,,,エスアンドエヌパートナーズ,0
296,2011103015691,新規,0,2025-03-27,2025-03-27,Ｃｏｍｆｙ　Ｆｏｏｄｓ　Ｊａｐａｎ合同会社,,合同会社,東京都,新宿区,新宿１丁目３６番２号新宿第七葉山ビル３階,,13,104,1600022,,,,,,,2025-03-27,1,,,,,コンフィフーズジャパン,0
299,2011303005476,新規,0,2025-03-27,2025-03-27,まじめ合同会社,,合同会社,東京都,杉並区,阿佐谷南３丁目２５－１６,,13,115,1660004,,,,,,,2025-03-27,1,,,,,マジメ,0
303,2011403004634,新規,0,2025-03-27,2025-03-27,合同会社ＷＯＬＤＥＳＩＧＮ,,合同会社,東京都,板橋区,大山金井町２７－１１－３０３,,13,119,1730024,,,,,,,2025-03-27,1,,,,,ウォルデザイン,0
306,2011601028526,新規,0,2025-03-27,2025-03-27,パンダオーバーシーズ株式会社,,株式会社,東京都,練馬区,南大泉５丁目１８番１７号泉ビル３０２,,13,120,1780064,,,,,,,2025-03-27,1,,,,,パンダオーバーシーズ,0
309,2012303002133,新規,0,2025-03-27,2025-03-27,合同会社ケイコーポレーション,,合同会社,東京都,町田市,広袴４丁目２－１８,,13,209,1950056,,,,,,,2025-03-27,1,,,,,ケイコーポレーション,0
330,2021003015790,新規,0,2025-03-27,2025-03-27,北条送運合同会社,,合同会社,神奈川県,小田原市,栄町１丁目４－２第１２松本ビル５階,,14,206,2500011,,,,,,,2025-03-27,1,,,,,ホウジョウソウウン,0
333,2030001165564,新規,0,2025-03-27,2025-03-27,カタヤ株式会社,,株式会社,埼玉県,三郷市,新和５丁目３４０番地,,11,237,3410034,,,,,,,2025-03-27,1,,,,,カタヤ,0
337,2030003026392,新規,0,2025-03-27,2025-03-27,Ｊ・Ｓ・Ｙ　ＩＮＴＥＲＮＡＴＩＯＮＡＬ合同会社,,合同会社,埼玉県,久喜市,菖蒲町三箇１０１０－１サンライフ菖蒲Ａ棟１０１号室,,11,232,3460104,,,,,,,2025-03-27,1,,,,,ジェーエスワイインターナショナル,0
338,2030003026426,新規,0,2025-03-27,2025-03-27,三元中央商貿合同会社,,合同会社,埼玉県,川口市,西川口３丁目２－６－３,,11,203,3320021,,,,,,,2025-03-27,1,,,,,ミツゲンチュウオショウボウ,0
343,2040003027167,新規,0,2025-03-27,2025-03-27,合同会社ＫＳＣ,,合同会社,千葉県,船橋市,印内町６５６番地プランドール西船橋５０１号,,12,204,2730025,,,,,,,2025-03-27,1,,,,,ケーエスシー,0
344,2040003027175,新規,0,2025-03-27,2025-03-27,リノベセト合同会社,,合同会社,千葉県,いすみ市,岬町椎木６３７,,12,238,2994501,,,,,,,2025-03-27,1,,,,,リノベセト,0
351,2080001026828,新規,0,2025-03-27,2025-03-27,株式会社ドーントレス,,株式会社,静岡県,静岡市駿河区,弥生町４番１号,,22,102,4228009,,,,,,,2025-03-27,1,,,,,ドーントレス,0
356,2100001038424,新規,0,2025-03-27,2025-03-27,雪絆株式会社,,株式会社,長野県,飯山市,大字飯山１１４９２番地３３１,,20,213,3892253,,,,,,,2025-03-27,1,,,,,,0
365,2120001273630,新規,0,2025-03-27,2025-03-27,優良株式会社,,株式会社,大阪府,大阪市浪速区,難波中３丁目９番３－３０４号,,27,111,5560011,,,,,,,2025-03-27,1,,,,,ユウリョウ,0
366,2120001273977,新規,0,2025-03-27,2025-03-27,ＳＬ株式会社,,株式会社,大阪府,大阪市住吉区,苅田９丁目７番９号,,27,120,5580011,,,,,,,2025-03-27,1,,,,,エスエル,0
367,2120001273993,新規,0,2025-03-27,2025-03-27,株式会社ＮＣＳ,,株式会社,大阪府,大阪市淀川区,西宮原１丁目４番２３号ＰＡＲＫＨＩＬＬＳ新大阪Ｏａｓｉｓ４０６,,27,123,5320004,,,,,,,2025-03-27,1,,,,,エヌシーエス,0
368,2120001274026,新規,0,2025-03-27,2025-03-27,株式会社Ｏｎｔｒａｃｋ,,株式会社,大阪府,寝屋川市,上神田１丁目１６番２５号,,27,215,5720052,,,,,,,2025-03-27,1,,,,,オントラック,0
369,2120001274050,新規,0,2025-03-27,2025-03-27,エイメイ株式会社,,株式会社,大阪府,大阪市平野区,西脇２丁目９番２５号,,27,126,5470035,,,,,,,2025-03-27,1,,,,,エイメイ,0
370,2120001274117,新規,0,2025-03-27,2025-03-27,株式会社エヌ・ジョイング,,株式会社,大阪府,守口市,八雲西町２丁目１５番１９号,,27,209,5700006,,,,,,,2025-03-27,1,,,,,エヌジョイング,0
379,2120103006351,新規,0,2025-03-27,2025-03-27,あみくす合同会社,,合同会社,大阪府,堺市北区,金岡町１２８０－１３,,27,146,5918022,,,,,,,2025-03-27,1,,,,,アミクス,0
381,2120901050625,新規,0,2025-03-27,2025-03-27,株式会社ＣＯＮＮＯＣ,,株式会社,大阪府,豊中市,夕日丘３丁目９番１９号,,27,203,5610864,,,,,,,2025-03-27,1,,,,,コンノック,0
382,2120903005602,新規,0,2025-03-27,2025-03-27,ハルハウス合同会社,,合同会社,大阪府,吹田市,山手町３丁目３番１,,27,205,5640073,,,,,,,2025-03-27,1,,,,,ハルハウス,0
383,2122003003148,新規,0,2025-03-27,2025-03-27,合同会社グリップ,,合同会社,大阪府,八尾市,福万寺町南１丁目３０番地の１２,,27,212,5810843,,,,,,,2025-03-27,1,,,,,グリップ,0
388,2130001079267,新規,0,2025-03-27,2025-03-27,株式会社ダイナモホールディングス,,株式会社,京都府,京都市右京区,西院西貝川町７４番地２,,26,108,6150056,,,,,,,2025-03-27,1,,,,,ダイナモホールディングス,0
389,2130001079275,新規,0,2025-03-27,2025-03-27,株式会社ススム,,株式会社,京都府,京都市南区,上鳥羽北花名町５,,26,107,6018127,,,,,,,2025-03-27,1,,,,,ススム,0
390,2130003010312,新規,0,2025-03-27,2025-03-27,合同会社Ｄｏｒｉ’ｓ,,合同会社,京都府,京都市北区,上賀茂朝霧ケ原町１０番地５５,,26,101,6030000,,,,,,,2025-03-27,1,,,,,ドリーズ,0
410,2230003002398,新規,0,2025-03-27,2025-03-27,母笑夢合同会社,,合同会社,富山県,南砺市,遊部川原５３番,,16,210,9391622,,,,,,,2025-03-27,1,,,,,ポエム,0
412,2240005015918,新規,0,2025-03-27,2025-03-27,一般社団法人二代目野良チーズ隊,,その他の設立登記法人,広島県,広島市安芸区,矢野東７丁目２０番１４号,,34,107,7360083,,,,,,,2025-03-27,1,,,,,ニダイメノラチーズタイ,0
419,2290001109314,新規,0,2025-03-27,2025-03-27,株式会社Ｒｕｒｉ,,株式会社,福岡県,福岡市中央区,天神２丁目２番１２号Ｔ＆Ｊビルディング７Ｆ,,40,133,8100001,,,,,,,2025-03-27,1,,,,,ルリ,0
420,2290001109363,新規,0,2025-03-27,2025-03-27,ＧＬＣＪＡＰＡＮ国際開発株式会社,,株式会社,福岡県,福岡市博多区,東比恵２丁目１３番１号,,40,132,8120007,,,,,,,2025-03-27,1,,,,,ジーエルシージャパンコクサイカイハツ,0
421,2290001109454,新規,0,2025-03-27,2025-03-27,株式会社Ｎｏ　Ａｎｓｗｅｒ,,株式会社,福岡県,福岡市中央区,天神４丁目６－２８天神ファーストビル７階,,40,133,8100001,,,,,,,2025-03-27,1,,,,,ノーアンサー,0
422,2290001109462,新規,0,2025-03-27,2025-03-27,株式会社ＶＩＳＩＯＮＦＵＫＵＯＫＡ,,株式会社,福岡県,福岡市中央区,大名２丁目９番１７号ＡＲＩＳＴＯ大名１０－Ａ,,40,133,8100041,,,,,,,2025-03-27,1,,,,,,0
425,2290003016582,新規,0,2025-03-27,2025-03-27,合同会社ＶＩＮＣＵＬＵＭ,,合同会社,福岡県,福岡市東区,多の津４丁目１４－２５,,40,131,8130034,,,,,,,2025-03-27,1,,,,,ウィンクルム,0
426,2290003016590,新規,0,2025-03-27,2025-03-27,合同会社海老原,,合同会社,福岡県,飯塚市,相田７５番地１６５,,40,205,8200052,,,,,,,2025-03-27,1,,,,,エビハラ,0
427,2290003016599,新規,0,2025-03-27,2025-03-27,合同会社カラフルビーンズ,,合同会社,福岡県,太宰府市,高雄１丁目３６９５番１,,40,221,8180122,,,,,,,2025-03-27,1,,,,,カラフルビーンズ,0
430,2310003004972,新規,0,2025-03-27,2025-03-27,星朗朗工貿合同会社,,合同会社,長崎県,長崎市,小浦町６６番１号２棟５０４,,42,201,8500067,,,,,,,2025-03-27,1,,,,,セイロウロウコウボウ,0
446,2380001035179,新規,0,2025-03-27,2025-03-27,株式会社倖有土建,,株式会社,福島県,郡山市,池ノ台８‐２,,07,203,9638875,,,,,,,2025-03-27,1,,,,,コウユウドケン,0
447,2380001035187,新規,0,2025-03-27,2025-03-27,株式会社ＯＲＩＺＺＯＮＴＥ,,株式会社,福島県,郡山市,中町８番７号,,07,203,9638004,,,,,,,2025-03-27,1,,,,,オリゾンテ,0
450,2380003005997,新規,0,2025-03-27,2025-03-27,合同会社御神楽岳環境事業,,合同会社,福島県,大沼郡金山町,大字小栗山字宇津野２３１１番地の１,,07,445,9680012,,,,,,,2025-03-27,1,,,,,ミカグラダケカンキョウジギョウ,0
451,2380005012942,新規,0,2025-03-27,2025-03-27,医療法人むらおか内科・糖尿病内科・耳鼻咽喉科クリニック,,その他の設立登記法人,福島県,福島市,松川町字天王原８９番地,,07,201,9601241,,,,,,,2025-03-27,1,,,,,ムラオカナイカトウニョウビョウナイカジビインコウカクリニック,0
458,2430001094021,新規,0,2025-03-27,2025-03-27,株式会社とまでん,,株式会社,北海道,苫小牧市,桜木町１丁目２４番２２号,,01,213,0530832,,,,,,,2025-03-27,1,,,,,トマデン,0
459,2430003017434,新規,0,2025-03-27,2025-03-27,合同会社佐藤太郎,,合同会社,北海道,石狩市,厚田区聚富２８３番１２５,,01,235,0613441,,,,,,,2025-03-27,1,,,,,サトウタロウ,0
462,2700150129665,新規,0,2025-03-27,2025-03-27,ＡＩＣＥＰ，Ｅ．Ｐ．Ｅ．,,外国会社等,,,,,,,,Ｒｕａ　Ｊｕｌｉｏ　Ｄｉｎｉｓ，７４８－８ｏ，Ｌａｄｏ　Ｄｉｒｅｉｔｏ．，４０５０　０１２　Ｏｐｏｒｔｏ,,,,,,2025-03-27,1,,,,,エイアイシーイーピーイーピーイー,0
463,2700150129707,新規,0,2025-03-27,2025-03-27,Ｄｏｎｇｇｕａｎ　Ｊｉｎｇｙｕｈｏｎｇ　Ｔｒａｄｉｎｇ　Ｃｏ．，Ｌｔｄ,,外国会社等,,,,,,,,Ｒｏｏｍ　６０９，Ｎｏ．１８　Ｌｉａｎｇｕｘｉｎ　Ｒｏａｄ，Ｗａｎｊｉａｎｇ　Ｓｔｒｅｅｔ，Ｄｏｎｇｇｕａｎ　Ｃｉｔｙ，Ｇｕａｎｇｄｏｎｇ　Ｐｒｏｖｉｎｃｅ,,,,,,2025-03-27,1,,,,,ドングワンシージンイーホンマオイーヨウシエンゴンスー,0
464,2700150129723,新規,0,2025-03-27,2025-03-27,ＩＦＬＹＴＥＫ（ＨＯＮＧ　ＫＯＮＧ）ＣＯＭＰＡＮＹ　ＬＩＭＩＴＥＤ,,外国会社等,,,,,,,,中国香港１５１グローセスターロードワンチャイキャピタルセンター１１０１－１フロア,,,,,,2025-03-27,1,,,,,アイフライテツクホンコンカンパニーリミテツド,0
465,2700150129731,新規,0,2025-03-27,2025-03-27,Ｄｏｏｓａｎ　Ｂｏｂｃａｔ　Ｉｎｃ．,,外国会社等,神奈川県,横浜市港北区,新横浜３丁目１７－５,,14,109,2220033,１５５　Ｊｅｏｎｇｊａｉｌ－ｒｏ　Ｂｕｎｄａｎｇ－ｇｕ，Ｓｅｏｎｇｎａｍ－ｓｉ，Ｇｙｅｏｎｇｇｉ－ｄｏ，Ｓｏｕｔｈ　Ｋｏｒｅａ,,,,,,2025-03-27,1,,,,,ドウサンボブキヤツト,0
476,3010001253527,新規,0,2025-03-27,2025-03-27,磨心株式会社,,株式会社,東京都,中央区,銀座１丁目１２番４号Ｎ＆ＥＢＬＤ．６Ｆ,,13,102,1040061,,,,,,,2025-03-27,1,,,,,マシン,0
482,3010003046870,新規,0,2025-03-27,2025-03-27,合同会社スプリング５,,合同会社,東京都,千代田区,丸の内１丁目４番１号東京共同会計事務所内,,13,101,1000005,,,,,,,2025-03-27,1,,,,,スプリングファイブ,0
483,3010003046879,新規,0,2025-03-27,2025-03-27,合同会社ＴＡＭＡＫＩ,,合同会社,東京都,千代田区,四番町６番地１１－１００４号,,13,101,1020081,,,,,,,2025-03-27,1,,,,,タマキ,0
489,3010401189123,新規,0,2025-03-27,2025-03-27,紅彩企画株式会社,,株式会社,東京都,港区,三田２丁目９番２号ＭＡビル三田二丁目５階,,13,103,1080073,,,,,,,2025-03-27,1,,,,,コウサイキカク,0
490,3010401189180,新規,0,2025-03-27,2025-03-27,株式会社ＩＴＬＩＴ,,株式会社,東京都,港区,北青山１丁目３番３号三橋ビル３階,,13,103,1070061,,,,,,,2025-03-27,1,,,,,アイティリット,0
494,3010403034723,新規,0,2025-03-27,2025-03-27,スパコ合同会社,,合同会社,東京都,港区,高輪２丁目１３－１品川泉岳寺オフィス１９号室,,13,103,1080074,,,,,,,2025-03-27,1,,,,,スパコ,0
497,3010601067013,新規,0,2025-03-27,2025-03-27,株式会社ＳＯＲＡ,,株式会社,東京都,墨田区,緑４丁目２４番１９号日神パレス錦糸町１１０１号室,,13,107,1300021,,,,,,,2025-03-27,1,,,,,ソラ,0
502,3010701047369,新規,0,2025-03-27,2025-03-27,株式会社Ｗｏｒｌｄ　Ｍｅｄ,,株式会社,東京都,品川区,旗の台４丁目９番８号,,13,109,1420064,,,,,,,2025-03-27,1,,,,,ワールドメッド,0
508,3010903009803,新規,0,2025-03-27,2025-03-27,合同会社ケイエスプランニング,,合同会社,東京都,世田谷区,成城５丁目１８番３号レポス成城３０１,,13,112,1570066,,,,,,,2025-03-27,1,,,,,ケイエスプランニング,0
511,3011001168401,新規,0,2025-03-27,2025-03-27,株式会社スピーチア,,株式会社,東京都,渋谷区,恵比寿西２丁目４－８ウィンド恵比寿８階,,13,113,1500021,,,,,,,2025-03-27,1,,,,,スピーチア,0
512,3011001168418,新規,0,2025-03-27,2025-03-27,株式会社ＳＡＮＬＩＶＥ,,株式会社,東京都,渋谷区,恵比寿西２丁目４番８号ウィンド恵比寿ビル８Ｆ,,13,113,1500021,,,,,,,2025-03-27,1,,,,,サンライブ,0
514,3011003021161,新規,0,2025-03-27,2025-03-27,合同会社ブルースカイクリエイティブ,,合同会社,東京都,渋谷区,桜丘町２３番１７号シティコート桜丘４０８,,13,113,1500031,,,,,,,2025-03-27,1,,,,,ブルースカイクリエイティブ,0
515,3011003021211,新規,0,2025-03-27,2025-03-27,Ａｍｏｒａ合同会社,,合同会社,東京都,渋谷区,道玄坂１丁目１０番８号渋谷道玄坂東急ビル２Ｆ－Ｃ,,13,113,1500043,,,,,,,2025-03-27,1,,,,,アモラ,0
519,3011101111054,新規,0,2025-03-27,2025-03-27,メガセル株式会社,,株式会社,東京都,新宿区,新宿２丁目１９番１号ＢＹＧＳ７階,,13,104,1600022,,,,,,,2025-03-27,1,,,,,メガセル,0
520,3011101111104,新規,0,2025-03-27,2025-03-27,株式会社アイ・ストリーム,,株式会社,東京都,新宿区,大久保２丁目３２番２２号,,13,104,1690072,,,,,,,2025-03-27,1,,,,,アイストリーム,0
524,3011301030450,新規,0,2025-03-27,2025-03-27,株式会社ロイテール,,株式会社,東京都,杉並区,松庵２丁目２１番１４号,,13,115,1670054,,,,,,,2025-03-27,1,,,,,ロイテール,0
528,3011803006758,新規,0,2025-03-27,2025-03-27,ぽこちゃ合同会社,,合同会社,東京都,葛飾区,白鳥２丁目１６番２２－５０２号ワコー白鳥マンション,,13,122,1250063,,,,,,,2025-03-27,1,,,,,ポコチャ,0
530,3012701018770,新規,0,2025-03-27,2025-03-27,株式会社ＳｏｕｎｄＦｏｒｅｓｔ,,株式会社,東京都,小平市,上水南町２丁目４番２０号グランファミーユ２０４号室,,13,211,1870021,,,,,,,2025-03-27,1,,,,,サウンドフォレスト,0
537,3020003028158,新規,0,2025-03-27,2025-03-27,ボーダー合同会社,,合同会社,神奈川県,横浜市西区,浅間町１丁目４番３号ウィザードビル４０２,,14,103,2200072,,,,,,,2025-03-27,1,,,,,ボーダー,0
539,3021003015798,新規,0,2025-03-27,2025-03-27,合同会社ＡＳＡ　ＴＲＡＤＩＮＧ,,合同会社,神奈川県,愛甲郡清川村,煤ヶ谷８６０番地１－２０３号,,14,402,2430112,,,,,,,2025-03-27,1,,,,,エーエスエートレーディング,0
543,3030001165571,新規,0,2025-03-27,2025-03-27,株式会社ブリックスジャパン,,株式会社,埼玉県,さいたま市中央区,上落合７丁目７番４０－１４０１号,,11,105,3380001,,,,,,,2025-03-27,1,,,,,ブリックスジャパン,0
544,3030001165605,新規,0,2025-03-27,2025-03-27,株式会社ブレイク,,株式会社,埼玉県,さいたま市岩槻区,美園東１丁目２６番地６８,,11,110,3390028,,,,,,,2025-03-27,1,,,,,ブレイク,0
547,3030003026417,新規,0,2025-03-27,2025-03-27,ＡＨＭＡＤ　ＴＲＡＤＩＮＧ合同会社,,合同会社,埼玉県,羽生市,大字秀安４０３番地１谷島第３６貸地,,11,216,3480032,,,,,,,2025-03-27,1,,,,,アハマドトレーディング,0
551,3040001137966,新規,0,2025-03-27,2025-03-27,株式会社天誉,,株式会社,千葉県,松戸市,根本１１７番地の１－７０５号室,,12,207,2710077,,,,,,,2025-03-27,1,,,,,テンヨ,0
552,3040001137999,新規,0,2025-03-27,2025-03-27,株式会社ＣＥＬＬ,,株式会社,千葉県,千葉市花見川区,宮野木台１丁目２４番３５号,,12,102,2620015,,,,,,,2025-03-27,1,,,,,セル,0
555,3040003027158,新規,0,2025-03-27,2025-03-27,Ｉｎｎｏｖａ　Ｊａｐａｎ合同会社,,合同会社,千葉県,白井市,西白井３丁目１３番地３６,,12,232,2701408,,,,,,,2025-03-27,1,,,,,イノーバジャパン,0
556,3040003027174,新規,0,2025-03-27,2025-03-27,ＡＰＰ　ＩＮＴＥＲＮＡＴＩＯＮＡＬ合同会社,,合同会社,千葉県,船橋市,小室町１１１２－１３,,12,204,2701471,,,,,,,2025-03-27,1,,,,,エーピーピーインターナショナル,0
558,3060002041257,新規,0,2025-03-27,2025-03-27,有限会社若次,,有限会社,栃木県,宇都宮市,池上町４番１９号,,09,201,3200801,,,,,,,2025-03-27,1,,,,,ワカジ,0
560,3070001042767,新規,0,2025-03-27,2025-03-27,株式会社ＳＴＡＲ　ＦＩＥＬＤ,,株式会社,群馬県,前橋市,荒牧町２丁目４７番地１０,,10,201,3710044,,,,,,,2025-03-27,1,,,,,スターフィールド,0
561,3070003005838,新規,0,2025-03-27,2025-03-27,ＧＥ　ｃｏｎｎｅｃｔ合同会社,,合同会社,群馬県,前橋市,横手町８０２番地１２,,10,201,3792145,,,,,,,2025-03-27,1,,,,,ジーイーコネクト,0
565,3090001019193,新規,0,2025-03-27,2025-03-27,デグチホームズ株式会社,,株式会社,山梨県,南都留郡富士河口湖町,長浜１９５０番地２,,19,430,4010331,,,,,,,2025-03-27,1,,,,,デグチホームズ,0
567,3100001038398,新規,0,2025-03-27,2025-03-27,株式会社Ｖｅｎｔｕｒｏｖｅ,,株式会社,長野県,松本市,大手１丁目９－６－５０４,,20,202,3900874,,,,,,,2025-03-27,1,,,,,ベンチュローブ,0
573,3120001274009,新規,0,2025-03-27,2025-03-27,悦木株式会社,,株式会社,大阪府,大阪市城東区,野江３丁目２５番６－４０２号室,,27,118,5360006,,,,,,,2025-03-27,1,,,,,エツテン,0
574,3120001274025,新規,0,2025-03-27,2025-03-27,亭華株式会社,,株式会社,大阪府,大阪市西成区,聖天下１丁目４番２９号１０２号室,,27,122,5570012,,,,,,,2025-03-27,1,,,,,テイカ,0
577,3120003028949,新規,0,2025-03-27,2025-03-27,はく蓮寺舎合同会社,,合同会社,大阪府,大阪市天王寺区,上本町５丁目７－１９,,27,109,5430001,,,,,,,2025-03-27,1,,,,,ハクレンジシャ,0
578,3120003028965,新規,0,2025-03-27,2025-03-27,Ｂｅａｖｅｒ　Ｅｄｇｅ合同会社,,合同会社,大阪府,大阪市西成区,玉出東１丁目１１番２３号,,27,122,5570043,,,,,,,2025-03-27,1,,,,,ビーバーエッジ,0
579,3120003029039,新規,0,2025-03-27,2025-03-27,ＢｅｅＦｉｌｍ合同会社,,合同会社,大阪府,大阪市西区,九条南２丁目２６番２０‐１３０３号,,27,106,5500025,,,,,,,2025-03-27,1,,,,,ビーフィルム,0
580,3120103006350,新規,0,2025-03-27,2025-03-27,合同会社ｇｒｅｅｎ,,合同会社,大阪府,富田林市,富田林町１８－１７,,27,214,5840033,,,,,,,2025-03-27,1,,,,,グリーン,0
581,3120901050640,新規,0,2025-03-27,2025-03-27,事業共創承継株式会社,,株式会社,大阪府,豊中市,刀根山４丁目７番７５号,,27,203,5600045,,,,,,,2025-03-27,1,,,,,ジギョウキョウソウショウケイ,0
583,3122001039011,新規,0,2025-03-27,2025-03-27,株式会社海之山,,株式会社,大阪府,東大阪市,若江西新町４丁目６番１０－３０３号,,27,227,5780944,,,,,,,2025-03-27,1,,,,,ウミノヤマ,0
587,3130003010311,新規,0,2025-03-27,2025-03-27,湯の花合同会社,,合同会社,京都府,亀岡市,＿田野町芦ノ山流田１番地の４,00138467,26,206,6210034,,,,,,,2025-03-27,1,,,,,ユノハナ,0
589,3140001137915,新規,0,2025-03-27,2025-03-27,株式会社クリアホーム,,株式会社,兵庫県,尼崎市,潮江２丁目２３番８号,,28,202,6610976,,,,,,,2025-03-27,1,,,,,クリアホーム,0
592,3180001166019,新規,0,2025-03-27,2025-03-27,株式会社ＲｅＳＴＡＲＴ,,株式会社,愛知県,名古屋市瑞穂区,堀田通７丁目１４番地２,,23,108,4670862,,,,,,,2025-03-27,1,,,,,リスタート,0
593,3180001166027,新規,0,2025-03-27,2025-03-27,株式会社クランプ,,株式会社,愛知県,名古屋市千種区,菊坂町１丁目２番地,,23,101,4640836,,,,,,,2025-03-27,1,,,,,クランプ,0
594,3180001166068,新規,0,2025-03-27,2025-03-27,ＲＡＳＥＮ株式会社,,株式会社,愛知県,名古屋市昭和区,鶴舞１丁目２番３２号,,23,107,4660064,,,,,,,2025-03-27,1,,,,,ラセン,0
595,3180003028200,新規,0,2025-03-27,2025-03-27,合同会社ＮｅＸｕＳ,,合同会社,愛知県,名古屋市中区,大須１丁目７－１４ＩＭビル２階,,23,106,4600011,,,,,,,2025-03-27,1,,,,,ネクサス,0
596,3180005021005,新規,0,2025-03-27,2025-03-27,医療法人道栄会,,その他の設立登記法人,愛知県,名古屋市名東区,猪高台２丁目４１０番地２,,23,115,4650028,,,,,,,2025-03-27,1,,,,,ドウエイカイ,0
597,3180301039650,新規,0,2025-03-27,2025-03-27,三之信株式会社,,株式会社,愛知県,豊田市,細谷町５丁目１６,,23,211,4710853,,,,,,,2025-03-27,1,,,,,サンノシン,0
607,3240001064711,新規,0,2025-03-27,2025-03-27,株式会社水都広島,,株式会社,広島県,広島市中区,大手町１丁目１－２０相生橋ビル７階Ａ号室,,34,101,7300051,,,,,,,2025-03-27,1,,,,,スイトヒロシマ,0
613,3260001040041,新規,0,2025-03-27,2025-03-27,株式会社Ｄｅｎｔ　Ａｘｉｓ,,株式会社,岡山県,玉野市,迫間２０９４番地９,,33,204,7060142,,,,,,,2025-03-27,1,,,,,デントアクシス,0
616,3260003005109,新規,0,2025-03-27,2025-03-27,ＦＵＴＥＣＴ合同会社,,合同会社,岡山県,総社市,小寺１９８１番地グレイス１０５号,,33,208,7191155,,,,,,,2025-03-27,1,,,,,フューテクト,0
623,3290001109461,新規,0,2025-03-27,2025-03-27,株式会社ＡＩＸ,,株式会社,福岡県,福岡市中央区,大名２丁目９番１７号ＡＲＩＳＴＯ大名１０－Ａ,,40,133,8100041,,,,,,,2025-03-27,1,,,,,エーアイエックス,0
626,3290003016581,新規,0,2025-03-27,2025-03-27,Ｍ．Ｍ．Ｇ合同会社,,合同会社,福岡県,福岡市博多区,美野島４丁目１－２２,,40,132,8120017,,,,,,,2025-03-27,1,,,,,エムエムジー,0
629,3300001014123,新規,0,2025-03-27,2025-03-27,株式会社多久自動車教習所,,株式会社,佐賀県,多久市,東多久町大字別府１９８０番地,,41,204,8460012,,,,,,,2025-03-27,1,,,,,タクジドウシャキョウシュウショ,0
632,3320001021019,新規,0,2025-03-27,2025-03-27,株式会社かなこや,,株式会社,大分県,大分市,法勝台２丁目５番３号,,44,201,8700171,,,,,,,2025-03-27,1,,,,,カナコヤ,0
640,3350003004885,新規,0,2025-03-27,2025-03-27,ＣＯＭ合同会社,,合同会社,宮崎県,宮崎市,大字細江４０３６番地５６,,45,201,8802116,,,,,,,2025-03-27,1,,,,,シーオーエム,0
646,3380001035178,新規,0,2025-03-27,2025-03-27,株式会社ＪＡＮＩＮＡＹＡＴ　ＴＲＡＤＩＮＧ,,株式会社,福島県,岩瀬郡鏡石町,大池５６番地,,07,342,9690401,,,,,,,2025-03-27,1,,,,,ジャンイナヤトトレーディング,0
647,3380001035186,新規,0,2025-03-27,2025-03-27,株式会社Ｋ　Ｆｏｒｃｅ,,株式会社,福島県,西白河郡西郷村,大字小田倉字原中２１６番地１,,07,461,9618061,,,,,,,2025-03-27,1,,,,,ケーフォース,0
650,3380003005988,新規,0,2025-03-27,2025-03-27,合同会社壱匠,,合同会社,福島県,福島市,渡利字七社宮９０番地の１,,07,201,9608141,,,,,,,2025-03-27,1,,,,,イッショウ,0
657,3430001094020,新規,0,2025-03-27,2025-03-27,株式会社ＰＳＭＫ,,株式会社,北海道,札幌市中央区,南十七条西１８丁目１番３２号,,01,101,0640917,,,,,,,2025-03-27,1,,,,,ピーエスエムケー,0
663,3450001014570,新規,0,2025-03-27,2025-03-27,Ｈ．Ｆトレデイング株式会社,,株式会社,北海道,上川郡比布町,緑町１丁目１９３番６４,,01,455,0780344,,,,,,,2025-03-27,1,,,,,エイチエフトレデイング,0
666,3700150129706,新規,0,2025-03-27,2025-03-27,ｓｈｅｎｚｈｅｎｓｈｉｂｉｎｃｈｉｋｅｊｉｙｏｕｘｉａｎｇｏｎｇｓｉ,,外国会社等,,,,,,,,ｓｈｅｎｚｈｅｎｓｈｉｌｏｎｇｈｕａｑｕｄａｌａｎｇｊｉｅｄａｏｈｕａｒｏｎｇｓｈｅｑｕｓａｎｈｅｈｕａｑｉａｏｙｉｑｕ９９ｈａｏ２０６,,,,,,2025-03-27,1,,,,,シェンジェンシービンチーコージーヨウシエンゴンスー,0
667,3700150129722,新規,0,2025-03-27,2025-03-27,Ｃｌａｒｉｏｎ　Ｅｖｅｎｔｓ　ＰＴＥ．ＬＴＤ,,外国会社等,,,,,,,,７８　Ｓｈｅｎｔｏｎ　Ｗａｙ，＃２０－０３　Ｌｉｐｐｏ　Ｃｅｎｔｒｅ，Ｓｉｎｇａｐｏｒｅ,,,,,,2025-03-27,1,,,,,クラリオンイベンツプライベートリミテツド,0
668,3700150129730,新規,0,2025-03-27,2025-03-27,福豆有限公司,,外国会社等,,,,,,,,中華人民共和国香港特別行政区金鐘夏愨道１８號海富中心第１座１０樓１００１室,,,,,,2025-03-27,1,,,,,フクマメユウゲンコウシ,0
669,3700150129739,新規,0,2025-03-27,2025-03-27,Ｓｈｅｎｚｈｅｎｓｈｉ　Ｄａｇｏｕ　Ｚｈｉｎｅｎｇｓｈｅｂｅｉｊｉｓｈｕ　Ｙｏｕｘｉａｎｇｏｎｇｓｉ,,外国会社等,,,,,,,,Ｂａｏｎｅｎｇ　Ｔｅｃｈｎｏｌｏｇｙ　Ｐａｒｋ（Ｓｏｕｔｈ　Ｄｉｓｔｒｉｃｔ）Ｐｈａｓｅ　Ｉ，Ｂｌｏｃｋ　Ａ，Ｂｕｉｌｄｉｎｇ　Ａ７（Ｂｕｉｌｄｉｎｇ　Ｄ），１９０８，Ｇａｎｇｔｏｕ　Ｃｏｍｍｕｎｉｔｙ，Ｂａｎｔｉａｎ　Ｓｔｒｅｅｔ，Ｑｉｎｇｈｕ　Ｉｎｄｕｓｔｒｉａｌ　Ｐａｒｋ，Ｓｈｅｎｚｈｅｎ，Ｇｕａｎｇｄｏｎｇ　Ｐｒｏｖｉｎｃｅ,,,,,,2025-03-27,1,,,,,シェンジェンシーダーゴウジーノンショーベイジーシューヨウシエンゴンスー,0
680,4010001253410,新規,0,2025-03-27,2025-03-27,株式会社ｓｏｐｈｉａ,,株式会社,東京都,中央区,晴海２丁目３番２号,,13,102,1040053,,,,,,,2025-03-27,1,,,,,ソフィア,0
681,4010001253435,新規,0,2025-03-27,2025-03-27,丸紅コンシューマープラットフォーム株式会社,,株式会社,東京都,千代田区,大手町１丁目４番２号,,13,101,1000004,,,,,,,2025-03-27,1,,,,,マルベニコンシューマープラットフォーム,0
682,4010001253501,新規,0,2025-03-27,2025-03-27,株式会社国土強靭化ＧＸ,,株式会社,東京都,中央区,銀座１丁目１６番１号東貨ビル２階,,13,102,1040061,,,,,,,2025-03-27,1,,,,,コクドキョウジンカジーエックス,0
683,4010001253542,新規,0,2025-03-27,2025-03-27,株式会社ＫＯＮＩＹＡ,,株式会社,東京都,中央区,銀座６丁目１３番１６号銀座ＷａｌｌビルＵＣＦ５０１,,13,102,1040061,,,,,,,2025-03-27,1,,,,,コニヤ,0
685,4010003046861,新規,0,2025-03-27,2025-03-27,合同会社ＣＪファンド・Ｂ,,合同会社,東京都,千代田区,神田錦町１丁目２１番１号,,13,101,1010054,,,,,,,2025-03-27,1,,,,,シージェーファンドビー,0
692,4010401189155,新規,0,2025-03-27,2025-03-27,株式会社スポーツトラベルジャパン,,株式会社,東京都,港区,赤坂４丁目１３番５号,,13,103,1070052,,,,,,,2025-03-27,1,,,,,スポーツトラベルジャパン,0
695,4010403034722,新規,0,2025-03-27,2025-03-27,合同会社ＳｉｇｎａｌＫ,,合同会社,東京都,港区,北青山１丁目３番３号三橋ビル３階,,13,103,1070061,,,,,,,2025-03-27,1,,,,,シグナルケー,0
701,4010601067020,新規,0,2025-03-27,2025-03-27,株式会社Ｂｒｕｓｈ　ｕｐ　Ｈｏｍｅ,,株式会社,東京都,墨田区,東向島２丁目４番１号－１０１,,13,107,1310032,,,,,,,2025-03-27,1,,,,,ブラッシュアップホーム,0
703,4010705003747,新規,0,2025-03-27,2025-03-27,医療法人社団大井町矯正歯科,,その他の設立登記法人,東京都,品川区,大井１丁目１５番４号清田ビル１Ｆ,,13,109,1400014,,,,,,,2025-03-27,1,,,,,オオイマチキョウセイシカ,0
711,4011001168391,新規,0,2025-03-27,2025-03-27,株式会社ＯＴＨＥＲ　ＳＴＵＤＩＯ,,株式会社,東京都,渋谷区,渋谷２丁目１９－１５宮益坂ビルディング６０９,,13,113,1500002,,,,,,,2025-03-27,1,,,,,アザースタジオ,0
712,4011001168400,新規,0,2025-03-27,2025-03-27,Ｋ　Ｌｉｎｋｓ株式会社,,株式会社,東京都,目黒区,緑が丘２丁目２番２号,,13,110,1520034,,,,,,,2025-03-27,1,,,,,ケーリンクス,0
713,4011001168466,新規,0,2025-03-27,2025-03-27,株式会社シノベートテック,,株式会社,東京都,渋谷区,道玄坂１丁目１０番８号渋谷道玄坂東急ビル２Ｆ－Ｃ,,13,113,1500043,,,,,,,2025-03-27,1,,,,,シノベートテック,0
714,4011001168532,新規,0,2025-03-27,2025-03-27,オプテラ株式会社,,株式会社,東京都,渋谷区,渋谷２丁目１９番１５号宮益坂ビルディング,,13,113,1500002,,,,,,,2025-03-27,1,,,,,オプテラ,0
716,4011003021210,新規,0,2025-03-27,2025-03-27,合同会社ＯＦＦｉｃｅ‐Ｋ‐Ｐｌａｎｎｉｎｇ,,合同会社,東京都,目黒区,五本木２丁目５１番１４号,,13,110,1530053,,,,,,,2025-03-27,1,,,,,オフィスーケープランニング,0
717,4011003021251,新規,0,2025-03-27,2025-03-27,合同会社かみのごえん,,合同会社,東京都,渋谷区,渋谷１丁目１５番１５－５０７号テラス渋谷美竹,,13,113,1500002,,,,,,,2025-03-27,1,,,,,カミノゴエン,0
722,4011201026218,新規,0,2025-03-27,2025-03-27,株式会社ＭＴＰ,,株式会社,東京都,中野区,野方６丁目６－２－５３０５,,13,114,1650027,,,,,,,2025-03-27,1,,,,,エムティーピー,0
723,4011303005474,新規,0,2025-03-27,2025-03-27,ギブマイ合同会社,,合同会社,東京都,杉並区,高円寺北３丁目１番９号青田ビル２０１,,13,115,1660002,,,,,,,2025-03-27,1,,,,,ギブマイ,0
744,4020001161967,新規,0,2025-03-27,2025-03-27,株式会社アイディーエムス,,株式会社,神奈川県,横浜市青葉区,藤が丘１丁目３番地７ヒロック藤が丘ＩＩ－１０５,00138468,14,117,2270043,,,,,,,2025-03-27,1,,,,,アイディーエムス,0
745,4020001162032,新規,0,2025-03-27,2025-03-27,株式会社ファーストビルド,,株式会社,神奈川県,横浜市金沢区,谷津町１１１番地１２,,14,108,2360016,,,,,,,2025-03-27,1,,,,,ファーストビルド,0
751,4021001084786,新規,0,2025-03-27,2025-03-27,株式会社ランパレード,,株式会社,神奈川県,相模原市中央区,南橋本３丁目４－２９ヴィラ南橋本６０１号室,,14,152,2520253,,,,,,,2025-03-27,1,,,,,ランパレード,0
754,4030001165595,新規,0,2025-03-27,2025-03-27,株式会社ファミリア,,株式会社,埼玉県,秩父市,柳田町２番１７号,,11,207,3680015,,,,,,,2025-03-27,1,,,,,ファミリア,0
760,4030003026416,新規,0,2025-03-27,2025-03-27,合同会社ＤＴＤ,,合同会社,埼玉県,深谷市,西大沼２０４番地１レオパレスソレイユ１０３号,,11,218,3660829,,,,,,,2025-03-27,1,,,,,ディーティーディー,0
762,4030005022090,新規,0,2025-03-27,2025-03-27,一般財団法人こころの里,,その他の設立登記法人,埼玉県,久喜市,鷲宮中央１丁目１８番１１号平和ハイツ１０２号,,11,232,3400216,,,,,,,2025-03-27,1,,,,,ココロノサト,0
764,4040001137998,新規,0,2025-03-27,2025-03-27,株式会社ＴＣＴＩＭＥＳ,,株式会社,千葉県,市川市,欠真間１丁目３番４－２０６号,,12,203,2720142,,,,,,,2025-03-27,1,,,,,ティーシータイムズ,0
765,4040001138006,新規,0,2025-03-27,2025-03-27,株式会社ヨコマエ,,株式会社,千葉県,市川市,加藤新田２０２番地１ヴェレーナシティ行徳Ｉ街区３０３号,00138475,12,203,2720124,,,,,,,2025-03-27,1,,,,,ヨコマエ,0
766,4040001138030,新規,0,2025-03-27,2025-03-27,株式会社ＮＲＳ,,株式会社,千葉県,木更津市,高柳１丁目１１番９号,,12,206,2920014,,,,,,,2025-03-27,1,,,,,エヌアールエス,0
770,4040003027165,新規,0,2025-03-27,2025-03-27,合同会社ＷＩＮｘＷＩＮ,,合同会社,千葉県,印西市,東の原１丁目５－１２,,12,231,2701336,,,,,,,2025-03-27,1,,,,,ウィンウィン,0
772,4050001056396,新規,0,2025-03-27,2025-03-27,ＩＮＦＯＲＭＡＴＩＯＮ　ＮＩＰＰＯＮ株式会社,,株式会社,茨城県,つくば市,吾妻１丁目５番７号イワロイネットホテルつくばビル２Ｆ,,08,220,3050031,,,,,,,2025-03-27,1,,,,,インフォメーションニッポン,0
776,4080003003419,新規,0,2025-03-27,2025-03-27,合同会社ＦＵＪＩ‐ＳＡＮ　ＭＯＴＯＲＳ＆ＴＲＡＤＩＮＧ,,合同会社,静岡県,榛原郡吉田町,川尻１４２８－７７,,22,424,4210302,,,,,,,2025-03-27,1,,,,,フジサンモーターアンドトレーディング,0
797,4120001273967,新規,0,2025-03-27,2025-03-27,サンキン株式会社,,株式会社,大阪府,大阪市阿倍野区,昭和町４丁目１番１６号,,27,119,5450011,,,,,,,2025-03-27,1,,,,,サンキン,0
798,4120001273975,新規,0,2025-03-27,2025-03-27,株式会社日和,,株式会社,大阪府,大阪市福島区,吉野１丁目１７番６号ホープアベニュー野田２階,,27,103,5530006,,,,,,,2025-03-27,1,,,,,ヒヨリ,0
799,4120001274008,新規,0,2025-03-27,2025-03-27,方美株式会社,,株式会社,大阪府,大阪市東住吉区,住道矢田９丁目１４番２－１０１号室,,27,121,5460022,,,,,,,2025-03-27,1,,,,,ホウビ,0
800,4120001274032,新規,0,2025-03-27,2025-03-27,星野株式会社,,株式会社,大阪府,大阪市西淀川区,中島１丁目３５番１７１－３号,,27,113,5550041,,,,,,,2025-03-27,1,,,,,ホシノ,0
801,4120001274123,新規,0,2025-03-27,2025-03-27,株式会社はぴ,,株式会社,大阪府,大阪市浪速区,元町３丁目１３番２３号サムティ難波グレイス４階,,27,111,5560016,,,,,,,2025-03-27,1,,,,,ハピ,0
804,4120003028948,新規,0,2025-03-27,2025-03-27,合同会社後藤マシン,,合同会社,大阪府,寝屋川市,打上新町１番１６号,,27,215,5720859,,,,,,,2025-03-27,1,,,,,ゴトウマシン,0
805,4120003029021,新規,0,2025-03-27,2025-03-27,ＺｅｒｏＳｏｌ合同会社,,合同会社,大阪府,大阪市港区,磯路２丁目２２番２０－１１２号,,27,107,5520003,,,,,,,2025-03-27,1,,,,,ゼロソル,0
806,4120005024854,新規,0,2025-03-27,2025-03-27,大阪水上レジャー安全振興事業協同組合,,その他の設立登記法人,大阪府,大阪市此花区,常吉２丁目１３番１８号,,27,104,5540052,,,,,,,2025-03-27,1,,,,,オオサカスイジョウレジャーアンゼンシンコウジギョウ,0
812,4120903005600,新規,0,2025-03-27,2025-03-27,３１０合同会社,,合同会社,大阪府,箕面市,森町北１丁目７番５号,,27,220,5630256,,,,,,,2025-03-27,1,,,,,サンイチゼロ,0
822,4140001137690,新規,0,2025-03-27,2025-03-27,株式会社Ｒａｐｐｏｒｔ,,株式会社,兵庫県,加古川市,平岡町土山２３０番地の５,,28,210,6750104,,,,,,,2025-03-27,1,,,,,ラポール,0
823,4140001137889,新規,0,2025-03-27,2025-03-27,株式会社本田工務店,,株式会社,兵庫県,神戸市北区,鈴蘭台東町５丁目５番６号,,28,109,6511112,,,,,,,2025-03-27,1,,,,,ホンダコウムテン,0
824,4140001137906,新規,0,2025-03-27,2025-03-27,株式会社ＦＡＳＴ,,株式会社,兵庫県,宝塚市,逆瀬川１丁目６番１４号,,28,214,6650035,,,,,,,2025-03-27,1,,,,,ファスト,0
831,4140003021810,新規,0,2025-03-27,2025-03-27,昊瀛合同会社,00138477,合同会社,兵庫県,神戸市北区,道場町生野字南山１１７２番地７７３,,28,109,6511503,,,,,,,2025-03-27,1,,,,,コウエイ,0
832,4140003021835,新規,0,2025-03-27,2025-03-27,合同会社アヴェニール,,合同会社,兵庫県,加古川市,上荘町小野１３１番地の２,,28,210,6751218,,,,,,,2025-03-27,1,,,,,アヴェニール,0
833,4140005027418,新規,0,2025-03-27,2025-03-27,社会福祉法人よつ葉会,,その他の設立登記法人,兵庫県,尼崎市,東難波町３丁目２１番３１－１号,,28,202,6600892,,,,,,,2025-03-27,1,,,,,ヨツバカイ,0
840,4160003003435,新規,0,2025-03-27,2025-03-27,合同会社ブロンボ,,合同会社,滋賀県,長浜市,高月町松尾６９番地,,25,203,5290274,,,,,,,2025-03-27,1,,,,,ブロンボ,0
843,4180001166067,新規,0,2025-03-27,2025-03-27,株式会社デジタル・デジタル,,株式会社,愛知県,名古屋市中川区,愛知町２３－６,,23,110,4540807,,,,,,,2025-03-27,1,,,,,デジタルデジタル,0
847,4180003028216,新規,0,2025-03-27,2025-03-27,合同会社フューチャークリエイト,,合同会社,愛知県,名古屋市千種区,向陽町１丁目８番地,,23,101,4640062,,,,,,,2025-03-27,1,,,,,フューチャークリエイト,0
860,4240003007130,新規,0,2025-03-27,2025-03-27,リバイブ合同会社,,合同会社,広島県,広島市中区,中町９番２４号１Ｆ,,34,101,7300037,,,,,,,2025-03-27,1,,,,,リバイブ,0
868,4290001109460,新規,0,2025-03-27,2025-03-27,Ｕ‐Ｖｉｓｉｏｎ株式会社,,株式会社,福岡県,福岡市博多区,博多駅前１丁目２３番２号ＰａｒｋＦｒｏｎｔ博多駅前一丁目５Ｆ－Ｂ,,40,132,8120011,,,,,,,2025-03-27,1,,,,,ユービジョン,0
869,4290003016597,新規,0,2025-03-27,2025-03-27,合同会社エンヴィー,,合同会社,福岡県,福岡市中央区,大名１丁目９番５２号,,40,133,8100041,,,,,,,2025-03-27,1,,,,,エンヴィー,0
872,4290801031384,新規,0,2025-03-27,2025-03-27,株式会社水江商店,,株式会社,福岡県,直方市,大字感田１６９番地１１,,40,204,8220001,,,,,,,2025-03-27,1,,,,,ミズエショウテン,0
878,4320001021018,新規,0,2025-03-27,2025-03-27,株式会社臼杵クリエイト,,株式会社,大分県,臼杵市,野津町大字王子２６１１番地,,44,206,8750215,,,,,,,2025-03-27,1,,,,,ウスキクリエイト,0
889,4350003004884,新規,0,2025-03-27,2025-03-27,九州電気管理合同会社,,合同会社,宮崎県,北諸県郡三股町,大字樺山１９２４番地１０４,,45,341,8891901,,,,,,,2025-03-27,1,,,,,キュウシュウデンキカンリ,0
892,4370003006994,新規,0,2025-03-27,2025-03-27,合同会社ＵＮＣ,,合同会社,宮城県,仙台市青葉区,一番町１丁目１番３０号南町通有楽館ビル５Ｆ,,04,101,9800811,,,,,,,2025-03-27,1,,,,,アンク,0
893,4370003007002,新規,0,2025-03-27,2025-03-27,合同会社しちふくさん,,合同会社,宮城県,仙台市青葉区,折立３丁目３－１６,,04,101,9893161,,,,,,,2025-03-27,1,,,,,シチフクサン,0
897,4380001035185,新規,0,2025-03-27,2025-03-27,株式会社カンノ自工,,株式会社,福島県,伊達郡桑折町,大字成田字元宿１２番地の３,,07,301,9691652,,,,,,,2025-03-27,1,,,,,カンノジコウ,0
910,4440005002794,新規,0,2025-03-27,2025-03-27,一般社団法人北部渡島地域交通,,その他の設立登記法人,北海道,久遠郡せたな町,北檜山区北檜山７８番地,,01,371,0494501,,,,,,,2025-03-27,1,,,,,ホクブオシマチイキコウツウ,0
913,4470003002835,新規,0,2025-03-27,2025-03-27,あすな合同会社,,合同会社,香川県,丸亀市,綾歌町富熊１１３５,,37,202,7612407,,,,,,,2025-03-27,1,,,,,ゴウドウガイシャ,0
914,4480003002248,新規,0,2025-03-27,2025-03-27,オカエリハブＤＡＯ合同会社,,合同会社,徳島県,美馬市,脇町大字脇町１２３番地,,36,207,7793610,,,,,,,2025-03-27,1,,,,,オカエリハブダオ,0
915,4480005007071,新規,0,2025-03-27,2025-03-27,医療法人ほり歯科クリニック,,その他の設立登記法人,徳島県,徳島市,不動西町１丁目５５９番地の５,,36,201,7700064,,,,,,,2025-03-27,1,,,,,ホリシカクリニック,0
918,4700150129705,新規,0,2025-03-27,2025-03-27,ｒｏｎｇｊｉａｙｉｌｉａｏｋｅｊｉ（ｊｉｔｕａｎ）ｙｏｕｘｉａｎｇｏｎｇｓｉ,,外国会社等,,,,,,,,ｊｉａｎｇｘｉｓｈｅｎｇｙｉｎｇｔａｎｓｈｉｙｕｊｉａｎｇｘｉａｎｙｕｊｉａｎｇｇｏｎｇｙｅｙｕａｎｑｕ,,,,,,2025-03-27,1,,,,,ロンジャーイーリャオコージージートワンヨウシエンゴンスー,0
919,4700150129721,新規,0,2025-03-27,2025-03-27,Ｅｘｉｔ　Ｇａｍｅｓ，Ｉｎｃ．,,外国会社等,,,,,,,,１１１　ＳＷ　５ｔｈ　Ａｖｅ．ＳＴＥ　３１５０，Ｐｏｒｔｌａｎｄ，ＯＲ　９７２０４，Ｕ．Ｓ．Ａ．,,,,,,2025-03-27,1,,,,,イグジツトゲームズインク,0
920,4700150129738,新規,0,2025-03-27,2025-03-27,Ｚｈａｎｊｉａｎｇｓｈｉ　Ｌｉｎｇｃｈｅｎ　Ｔｅｃｈｎｏｌｏｇｙ　Ｃｏ．，Ｌｔｄ．,,外国会社等,,,,,,,,Ｒｏｏｍ　９０６，Ｊｉｎｄｅ　Ａｐａｒｔｍｅｎｔ　Ｎｏ．２９　Ｊｉｎｄｅ　Ｒｏａｄ　Ｍａｚｈａｎｇ　Ｄｉｓｔｒｉｃｔ，Ｚｈａｎｊｉａｎｇ　Ｃｉｔｙ　Ｇｕａｎｇｄｏｎｇ　Ｐｒｏｖｉｎｃｅ，Ｃｈｉｎａ,,,,,,2025-03-27,1,,,,,ジャンジャンシーリンチェンコージーヨウシエンゴンスー,0
928,5010001252989,新規,0,2025-03-27,2025-03-27,万有幸福株式会社,,株式会社,東京都,中央区,日本橋浜町２丁目５５－７日本橋パークサイドビル５Ｆ,,13,102,1030007,,,,,,,2025-03-27,1,,,,,バンユウコウフク,0
929,5010001253228,新規,0,2025-03-27,2025-03-27,株式会社ＴＫＦ　Ｓｃｈｏｏｌ,,株式会社,東京都,中央区,晴海３丁目１０－１Ｄａｉｗａ晴海ビル,,13,102,1040053,,,,,,,2025-03-27,1,,,,,ティーケーエフスクール,0
930,5010003046828,新規,0,2025-03-27,2025-03-27,日本都市海資合同会社,,合同会社,東京都,中央区,銀座１丁目１２番４号Ｎ＆ＥＢＬＤ．６Ｆ,,13,102,1040061,,,,,,,2025-03-27,1,,,,,ニホントシカイシ,0
931,5010003046869,新規,0,2025-03-27,2025-03-27,合同会社となみＸ,,合同会社,東京都,千代田区,丸の内１丁目４番１号東京共同会計事務所内,,13,101,1000005,,,,,,,2025-03-27,1,,,,,トナミエックス,0
933,5010101016583,新規,0,2025-03-27,2025-03-27,株式会社スマッシュ,,株式会社,東京都,八王子市,鑓水２丁目８３番地２－１３０３,,13,201,1920375,,,,,,,2025-03-27,1,,,,,スマッシュ,0
942,5010401188734,新規,0,2025-03-27,2025-03-27,ウラナウ株式会社,,株式会社,東京都,港区,南青山３丁目１－３６青山丸竹ビル６Ｆ,,13,103,1070062,,,,,,,2025-03-27,1,,,,,ウラナウ,0
943,5010401189146,新規,0,2025-03-27,2025-03-27,ワンラックス株式会社,,株式会社,東京都,港区,虎ノ門５丁目１３番１虎ノ門４０ＭＴビル７Ｆ,,13,103,1050001,,,,,,,2025-03-27,1,,,,,ワンラックス,0
957,5010603011470,新規,0,2025-03-27,2025-03-27,ＹＡＲ　ＺＡＲ　ＡＵＮＧ合同会社,,合同会社,東京都,墨田区,向島４丁目３番８号グレイス向島５０２,,13,107,1310033,,,,,,,2025-03-27,1,,,,,ヤーザーアウン,0
960,5010801035965,新規,0,2025-03-27,2025-03-27,株式会社マーケティング・アンド・ビヨンド,,株式会社,東京都,大田区,南馬込６丁目１１番５号,,13,111,1430025,,,,,,,2025-03-27,1,,,,,マーケティングアンドビヨンド,0
968,5010901056969,新規,0,2025-03-27,2025-03-27,プラータ株式会社,,株式会社,東京都,世田谷区,駒沢５丁目１７番１６号,,13,112,1540012,,,,,,東京都港区芝浦四丁目２０番２－３２０１号コンセプトフィルム株式会社（1011001064197）及び東京都港区芝浦四丁目２０番２－３２０１号株式会社アプローズ（6011001008042）の合併により設立,2025-03-27,1,,,,,プラータ,0
979,5011001168399,新規,0,2025-03-27,2025-03-27,株式会社あいもか,,株式会社,東京都,渋谷区,道玄坂１丁目１０番８号渋谷道玄坂東急ビル２Ｆ－Ｃ,,13,113,1500043,,,,,,,2025-03-27,1,,,,,アイモカ,0
989,5011201026233,新規,0,2025-03-27,2025-03-27,Ｂｕｃｋｗｈｅａｔ　Ｋｉｎｇ　Ｊａｐａｎ株式会社,,株式会社,東京都,中野区,中央５丁目４４番６号グランドパレス中野２０１,,13,114,1640011,,,,,,,2025-03-27,1,,,,,バックウィートキングジャパン,0
991,5011205002684,新規,0,2025-03-27,2025-03-27,医療法人社団晴風会,,その他の設立登記法人,東京都,中野区,中央１丁目２５番５－１０６号ＭＫマンション,,13,114,1640011,,,,,,,2025-03-27,1,,,,,セイフウカイ,0
993,5011301030457,新規,0,2025-03-27,2025-03-27,ミライチズ株式会社,,株式会社,東京都,杉並区,南荻窪３丁目２９－２０,,13,115,1670052,,,,,,,2025-03-27,1,,,,,ミライチズ,0
998,5012401042920,新規,0,2025-03-27,2025-03-27,ＳＯＫＫＥＮ株式会社,,株式会社,東京都,武蔵野市,吉祥寺本町２丁目８番４号－ｉ－ｏｆｆｉｃｅ吉祥寺,,13,203,1800004,,,,,,,2025-03-27,1,,,,,ソッケン,0
1005,5020001161999,新規,0,2025-03-27,2025-03-27,株式会社Ｒａｉｎｂｏｗ　Ｐｒｅｃｉｓｉｏｎ,,株式会社,神奈川県,横浜市港北区,新吉田東３丁目１６番１３号,,14,109,2230058,,,,,,,2025-03-27,1,,,,,レインボウプリシジョン,0
1007,5021001084802,新規,0,2025-03-27,2025-03-27,株式会社ｓｅａｗａｒｄ,,株式会社,神奈川県,藤沢市,鵠沼海岸５丁目１３番１３号,,14,205,2510037,,,,,,,2025-03-27,1,,,,,シーワード,0
1010,5030001165553,新規,0,2025-03-27,2025-03-27,株式会社ワイビー,,株式会社,埼玉県,入間市,高倉１丁目４番１０号,,11,225,3580021,,,,,,,2025-03-27,1,,,,,ワイビー,0
1011,5030001165561,新規,0,2025-03-27,2025-03-27,株式会社ミヤナガ建設,,株式会社,埼玉県,戸田市,笹目１丁目２９番地の２５,,11,224,3350034,,,,,,,2025-03-27,1,,,,,ミヤナガケンセツ,0
1012,5030001165586,新規,0,2025-03-27,2025-03-27,株式会社ＤＯＶＥＲ,,株式会社,埼玉県,和光市,白子２丁目２６番１－４号,,11,229,3510101,,,,,,,2025-03-27,1,,,,,ドーバー,0
1015,5030003026407,新規,0,2025-03-27,2025-03-27,Ｎｕｕｄｅｌｑｉｎ合同会社,,合同会社,埼玉県,草加市,新栄４丁目１０００番地新栄町団地４－３－３０３,,11,221,3400056,,,,,,,2025-03-27,1,,,,,ヌウデルチン,0
1020,5040001137997,新規,0,2025-03-27,2025-03-27,ワトワール株式会社,,株式会社,千葉県,松戸市,八ケ崎２丁目３４番地の２,,12,207,2700023,,,,,,,2025-03-27,1,,,,,ワトワール,0
1021,5040001138005,新規,0,2025-03-27,2025-03-27,ＳＨ　Ｇｌｏｂａｌ　Ｃｏｎｓｔｒｕｃｔｉｏｎ株式会社,,株式会社,千葉県,袖ケ浦市,久保田２２５８,,12,229,2990242,,,,,,,2025-03-27,1,,,,,エスエイチグローバルコンストラクション,0
1024,5050001056379,新規,0,2025-03-27,2025-03-27,株式会社茨城穀物,,株式会社,茨城県,かすみがうら市,牛渡１０６番地１,,08,230,3000213,,,,,,,2025-03-27,1,,,,,イバラキコクモツ,0
1025,5050001056387,新規,0,2025-03-27,2025-03-27,Ｂ　ｒｅ‐ｂｏｒｎ株式会社,,株式会社,茨城県,ひたちなか市,大字東石川２６１３番地８５,,08,221,3120052,,,,,,,2025-03-27,1,,,,,ビーリボーン,0
1026,5050001056404,新規,0,2025-03-27,2025-03-27,株式会社ｉ　Ｌｉｎｋ,,株式会社,茨城県,下妻市,村岡１１０２番地２,,08,210,3040824,,,,,,,2025-03-27,1,,,,,アイリンク,0
1032,5080001026825,新規,0,2025-03-27,2025-03-27,株式会社ＭＯＮＯＫＵＲＯ,,株式会社,静岡県,静岡市葵区,柚木１００４―９０２,,22,101,4200821,,,,,,,2025-03-27,1,,,,,モノクロ,0
1047,5120001273990,新規,0,2025-03-27,2025-03-27,桜富楽株式会社,,株式会社,大阪府,大阪市中央区,平野町１丁目８番１３号平野町八千代ビル３３１号,,27,128,5410046,,,,,,,2025-03-27,1,,,,,オウフラク,0
1048,5120001274023,新規,0,2025-03-27,2025-03-27,ケンコービル株式会社,,株式会社,大阪府,大阪市北区,南森町１丁目１番２５号,,27,127,5300054,,,,,,,2025-03-27,1,,,,,ケンコービル,0
1049,5120001274097,新規,0,2025-03-27,2025-03-27,テクニカ設計株式会社,,株式会社,大阪府,大阪市淀川区,西中島３丁目１番４号プロジェクトビル８０２号室,,27,123,5320011,,,,,,,2025-03-27,1,,,,,テクニカセッケイ,0
1050,5120001274130,新規,0,2025-03-27,2025-03-27,双吉株式会社,,株式会社,大阪府,大阪市住之江区,御崎１丁目１１番１９号インキュセンタービル４０５号室,,27,125,5590013,,,,,,,2025-03-27,1,,,,,フタヨシ,0
1053,5120003028947,新規,0,2025-03-27,2025-03-27,合同会社なぎさ,,合同会社,大阪府,大阪市北区,南森町２丁目１番２３号,,27,127,5300054,,,,,,,2025-03-27,1,,,,,ナギサ,0
1054,5120003028955,新規,0,2025-03-27,2025-03-27,ＹＯＫＵＫＩＴＡ合同会社,,合同会社,大阪府,大阪市北区,西天満５丁目９番１０号,,27,127,5300047,,,,,,,2025-03-27,1,,,,,ヨクキタ,0
1055,5120003028963,新規,0,2025-03-27,2025-03-27,合同会社ＹＡＢＵＦＯＯＤ,,合同会社,大阪府,大阪市西区,阿波座１丁目２番２－４０２号,,27,106,5500011,,,,,,,2025-03-27,1,,,,,ヤブフード,0
1057,5120005024853,新規,0,2025-03-27,2025-03-27,一般社団法人日本華韻文化芸術協会,,その他の設立登記法人,大阪府,大阪市東住吉区,駒川５丁目６番６－２０１号,,27,121,5460043,,,,,,,2025-03-27,1,,,,,ニホンカインブンカゲイジュツキョウカイ,0
1066,5130001079256,新規,0,2025-03-27,2025-03-27,株式会社Ｍｉｃｈｅｌ　Ｄｅｓｉｇｎ,,株式会社,京都府,京都市上京区,堀川通上立売半丁下る山名町８１８番地１クラウンハイム京都西陣９０１号,,26,102,6028422,,,,,,,2025-03-27,1,,,,,ミシェルデザイン,0
1067,5130001079264,新規,0,2025-03-27,2025-03-27,株式会社ＦＡＣ,,株式会社,京都府,京都市上京区,東三本木通丸太町上る上之町４９３番地１－Ｂ号,,26,102,6020863,,,,,,,2025-03-27,1,,,,,エフエーシー,0
1068,5130001079280,新規,0,2025-03-27,2025-03-27,九米株式会社,,株式会社,京都府,京都市中京区,猪熊通三条上る姉猪熊町３３６番地,,26,104,6048324,,,,,,,2025-03-27,1,,,,,キュウベイ,0
1071,5140001137888,新規,0,2025-03-27,2025-03-27,ワラコー株式会社,,株式会社,兵庫県,明石市,藤江１８５７番地の４,,28,203,6730044,,,,,,,2025-03-27,1,,,,,ワラコー,0
1073,5140003021818,新規,0,2025-03-27,2025-03-27,合同会社ＡＬＰＨＡサービス,,合同会社,兵庫県,西宮市,甲子園四番町１２－１１アリコヴェール甲子園２０１号,,28,204,6638174,,,,,,,2025-03-27,1,,,,,アルファーサービス,0
1074,5140003021826,新規,0,2025-03-27,2025-03-27,万報合同会社,,合同会社,兵庫県,神戸市西区,岩岡町岩岡１５１－１,,28,111,6512401,,,,,,,2025-03-27,1,,,,,マンホウ,0
1080,5160001026610,新規,0,2025-03-27,2025-03-27,株式会社千翔,,株式会社,滋賀県,近江八幡市,十王町３９９番地５,,25,204,5230063,,,,,,,2025-03-27,1,,,,,センショウ,0
1081,5160003003434,新規,0,2025-03-27,2025-03-27,合同会社オフレンド,,合同会社,滋賀県,野洲市,小篠原６３５番地５,,25,210,5202331,,,,,,,2025-03-27,1,,,,,オフレンド,0
1086,5180001166058,新規,0,2025-03-27,2025-03-27,リッチスマイル株式会社,,株式会社,愛知県,名古屋市中村区,稲上町１丁目６６番地の１ＣｏｕｒｔＳｑｕａｒｅ,,23,105,4530066,,,,,,,2025-03-27,1,,,,,リッチスマイル,0
1087,5180001166066,新規,0,2025-03-27,2025-03-27,株式会社ＫＯＭＹＯ,,株式会社,愛知県,一宮市,萩原町西御堂字郷西切８０９番地３号,,23,203,4910365,,,,,,,2025-03-27,1,,,,,コウミョウ,0
1091,5180005021003,新規,0,2025-03-27,2025-03-27,医療法人大葉郷,,その他の設立登記法人,愛知県,あま市,新居屋郷１１１番地１,,23,237,4901105,,,,,,,2025-03-27,1,,,,,ダイヨウゴウ,0
1092,5180005021011,新規,0,2025-03-27,2025-03-27,一般社団法人尾州クラブ,,その他の設立登記法人,愛知県,一宮市,千秋町加茂字新出東２５番地３,,23,203,4910801,,,,,,,2025-03-27,1,,,,,ビシュウクラブ,0
1097,5200005013740,新規,0,2025-03-27,2025-03-27,一般社団法人鉄分マイスター普及協会,,その他の設立登記法人,岐阜県,岐阜市,五反田町１０オフィスＫＯ－ＫＥＮ,,21,201,5008328,,,,,,,2025-03-27,1,,,,,テツブンマイスターフキュウキョウカイ,0
1108,5250001021057,新規,0,2025-03-27,2025-03-27,勇貴工業株式会社,,株式会社,山口県,防府市,勝間１丁目５番３５号,,35,206,7470822,,,,,,,2025-03-27,1,,,,,ユウキコウギョウ,0
1113,5260003005107,新規,0,2025-03-27,2025-03-27,合同会社エムテック,,合同会社,岡山県,岡山市北区,庭瀬９７４－６－２号,,33,101,7010153,,,,,,,2025-03-27,1,,,,,エムテック,0
1116,5290003016596,新規,0,2025-03-27,2025-03-27,益合同会社,,合同会社,福岡県,福岡市中央区,今泉２丁目１－７０ロマネスク天神第２－５０６室,,40,133,8100021,,,,,,,2025-03-27,1,,,,,エキ,0
1118,5290801031375,新規,0,2025-03-27,2025-03-27,盛友貿易株式会社,,株式会社,福岡県,北九州市若松区,大字小竹２３７３番地１,,40,103,8080108,,,,,,,2025-03-27,1,,,,,セイユウボウエキ,0
1123,5320001021009,新規,0,2025-03-27,2025-03-27,株式会社ＬｏｕｉｓＮｕｔｓ,,株式会社,大分県,大分市,長浜町３丁目６番８－４１１号,,44,201,8700023,,,,,,,2025-03-27,1,,,,,ルイナッツ,0
1127,5350001019454,新規,0,2025-03-27,2025-03-27,株式会社Ｋｉｉｔｏｓ,,株式会社,宮崎県,児湯郡新富町,大字新田１０１０６番地１,,45,402,8891406,,,,,,,2025-03-27,1,,,,,キートス,0
1131,5370001052387,新規,0,2025-03-27,2025-03-27,株式会社みち,,株式会社,宮城県,仙台市青葉区,吉成１丁目２３－７,,04,101,9893205,,,,,,,2025-03-27,1,,,,,ミチ,0
1132,5370003006993,新規,0,2025-03-27,2025-03-27,グエンヴアンテー合同会社,,合同会社,宮城県,仙台市若林区,穀町２０番地,,04,103,9840807,,,,,,,2025-03-27,1,,,,,グエンヴアンテー,0
1133,5370003007001,新規,0,2025-03-27,2025-03-27,合同会社Ｒｅｓｏｌｖｅ,,合同会社,宮城県,仙台市宮城野区,新田東２丁目１２－３ナイスサンソレイユ小鶴新田８０１,,04,102,9830039,,,,,,,2025-03-27,1,,,,,リゾルブ,0
1144,5430003017448,新規,0,2025-03-27,2025-03-27,合同会社ＳＯＲＡｉｓ,,合同会社,北海道,千歳市,北栄２丁目２５番９号,,01,224,0660036,,,,,,,2025-03-27,1,,,,,ソライス,0
1145,5430005015193,新規,0,2025-03-27,2025-03-27,医療法人誠明会,,その他の設立登記法人,北海道,札幌市東区,北十一条東８丁目１番３号,,01,103,0650011,,,,,,,2025-03-27,1,,,,,セイメイカイ,0
1148,5500001026212,新規,0,2025-03-27,2025-03-27,株式会社松田商店,,株式会社,愛媛県,今治市,中日吉町３丁目２番２７号,,38,202,7940055,,,,,,,2025-03-27,1,,,,,マツダショウテン,0
1149,5700150129704,新規,0,2025-03-27,2025-03-27,Ｆｏｓｈａｎ　Ｈｕｉｚａｏｙｏｕｐｉｎ　Ｆｕｒｎｉｔｕｒｅ　Ｃｏ．，Ｌｔｄ,,外国会社等,,,,,,,,９０１Ａ１，Ｂｕｉｌｄｉｎｇ　５，Ｗａｎｙａｎｇ　Ｗａｎｚｈｏｎｇ　Ｐａｒｋ，Ｎｏ．２　Ｈｕａｂａｏ　Ｅａｓｔ　Ｒｏａｄ，Ｘｉｎｈｕａ　Ｗｅｓｔ　Ｖｉｌｌａｇｅ，Ｌｏｎｇｊｉａｎｇ　Ｔｏｗｎ，Ｓｈｕｎｄｅ　Ｄｉｓｔｒｉｃｔ，Ｆｏｓｈａｎ　Ｃｉｔｙ,,,,,,2025-03-27,1,,,,,フォーシャンシーフイザオヨウピンジャージーヨウシエンゴンスー,0
1150,5700150129720,新規,0,2025-03-27,2025-03-27,Ｃｉｒｃｌｅ　ｘ　Ｓｑｕａｒｅ,,外国会社等,大阪府,大阪市城東区,諏訪４丁目２０番１６号,,27,118,5360021,４０　Ｂｏｕｌｅｖａｒｄ　Ｆｒａｎ＿ｏｉｓ　Ｇｒｏｓｓｏ　０６０００　Ｎｉｃｅ,00138433,,,,,2025-03-27,1,,,,,サークルアンドスクエア,0
1151,5700150129737,新規,0,2025-03-27,2025-03-27,Ｓｈｅｎｚｈｅｎｓｈｉ　Ｋａｚｈａｍｉ　Ｚｈｉｎｅｎｇｓｈｅｂｅｉ　Ｃｏ．Ｌｔｄ．,,外国会社等,,,,,,,,Ｒｏｏｍ　２０６，Ｎｏ．６，Ｓｈａｎｇｗｅｉ　Ｎｏｒｔｈ　１ｓｔ　Ａｌｌｅｙ，Ｚｈａｎｇｋｅｎｇｊｉｎｇ　Ｃｏｍｍｕｎｉｔｙ，Ｇｕａｎｈｕ　Ｓｕｂｄｉｓｔｒｉｃｔ，Ｌｏｎｇｈｕａ　Ｄｉｓｔｒｉｃｔ，Ｓｈｅｎｚｈｅｎ　Ｃｉｔｙ，Ｇｕａｎｇｄｏｎｇ　Ｐｒｏｖｉｎｃｅ，Ｃｈｉｎａ　５１８１１０,,,,,,2025-03-27,1,,,,,シェンジェンシーカージャーミージーノンショーベイヨウシエンゴンスー,0
1156,6010001253458,新規,0,2025-03-27,2025-03-27,日賀株式会社,,株式会社,東京都,中央区,八丁堀２丁目３０番１６号,,13,102,1040032,,,,,,,2025-03-27,1,,,,,ヒガ,0
1157,6010001253508,新規,0,2025-03-27,2025-03-27,株式会社風,,株式会社,東京都,中央区,銀座８丁目６番４号村喜茂竹ビル２階,,13,102,1040061,,,,,,,2025-03-27,1,,,,,カゼ,0
1158,6010001253516,新規,0,2025-03-27,2025-03-27,鵬天株式会社,,株式会社,東京都,文京区,音羽１丁目２３－１２第一晃和堂ビル４１６号室,,13,105,1120013,,,,,,,2025-03-27,1,,,,,ホウテン,0
1159,6010001253524,新規,0,2025-03-27,2025-03-27,株式会社壱和不動産,,株式会社,東京都,文京区,湯島３丁目１３番８号湯島不二ビル８０２号室,,13,105,1130034,,,,,,,2025-03-27,1,,,,,イチワフドウサン,0
1161,6010003046868,新規,0,2025-03-27,2025-03-27,ＴＯＫ１Ｇ合同会社,,合同会社,東京都,千代田区,丸の内１丁目４番１号東京共同会計事務所内,,13,101,1000005,,,,,,,2025-03-27,1,,,,,トックワンジー,0
1162,6010003046884,新規,0,2025-03-27,2025-03-27,Ｔｏｋｙｏ　Ａｐａｒｔｍｅｎｔ　Ｈｏｔｅｌ１合同会社,,合同会社,東京都,千代田区,霞が関３丁目２番５号,,13,101,1000013,,,,,,,2025-03-27,1,,,,,トウキョウアパートメントホテルワン,0
1163,6010101016582,新規,0,2025-03-27,2025-03-27,塗ＲＡＹ株式会社,,株式会社,東京都,八王子市,楢原町１１４４番地１第一橋本ビル２０２号,,13,201,1930803,,,,,,,2025-03-27,1,,,,,トライ,0
1172,6010401189095,新規,0,2025-03-27,2025-03-27,株式会社世光コーポレーション,,株式会社,東京都,港区,新橋４丁目１４番１号新橋ＡＵＮＢＬＤＧ４階,,13,103,1050004,,,,,,,2025-03-27,1,,,,,セイコウコーポレーション,0
1173,6010401189178,新規,0,2025-03-27,2025-03-27,禾縁株式会社,,株式会社,東京都,港区,芝２丁目２８－１１－５０１室,,13,103,1050014,,,,,,,2025-03-27,1,,,,,カエン,0
1174,6010403034679,新規,0,2025-03-27,2025-03-27,Ｈｅｎａｎｏｖａ合同会社,,合同会社,東京都,港区,南青山３丁目１番３６号青山丸竹ビル６Ｆ,,13,103,1070062,,,,,,,2025-03-27,1,,,,,ヘナノヴァ,0
1176,6010405024174,新規,0,2025-03-27,2025-03-27,一般社団法人Ｓｈｏｋｕ,,その他の設立登記法人,東京都,港区,麻布十番３丁目８番６－４０３号,,13,103,1060045,,,,,,,2025-03-27,1,,,,,ショク,0
1179,6010503007758,新規,0,2025-03-27,2025-03-27,合同会社ＫＭ,,合同会社,東京都,台東区,元浅草４丁目７番１５号中澤第一ビル１階,,13,106,1110041,,,,,,,2025-03-27,1,,,,,ケイエム,0
1186,6010801035956,新規,0,2025-03-27,2025-03-27,株式会社フルブルーム,,株式会社,東京都,大田区,東六郷２丁目７番２号,,13,111,1440046,,,,,,,2025-03-27,1,,,,,フルブルーム,0
1187,6010801035964,新規,0,2025-03-27,2025-03-27,株式会社ＰＥＣＫ,,株式会社,東京都,大田区,西嶺町２２番９号,,13,111,1450075,,,,,,,2025-03-27,1,,,,,ペック,0
1189,6010903009800,新規,0,2025-03-27,2025-03-27,合同会社トップリーディング,,合同会社,東京都,世田谷区,等々力６丁目７番２１－１０４号,,13,112,1580082,,,,,,,2025-03-27,1,,,,,トップリーディング,0
1192,6011001168415,新規,0,2025-03-27,2025-03-27,株式会社２ｎｄ　ＳＴＡＲ　ＰＲＯＤＵＣＴＩＯＮ,,株式会社,東京都,渋谷区,恵比寿西２丁目４番８号ウィンド恵比寿ビル８Ｆ,,13,113,1500021,,,,,,,2025-03-27,1,,,,,セカンドスタープロダクション,0
1193,6011001168423,新規,0,2025-03-27,2025-03-27,株式会社ピースプロダクト,,株式会社,東京都,渋谷区,代々木４丁目５１番２－３０４号レフィール参宮橋ヒルズ,,13,113,1510053,,,,,,,2025-03-27,1,,,,,ピースプロダクト,0
1194,6011001168448,新規,0,2025-03-27,2025-03-27,ＳＡＶＥ株式会社,,株式会社,東京都,渋谷区,神南１丁目１１番４号,,13,113,1500041,,,,,,,2025-03-27,1,,,,,セイブ,0
1195,6011001168745,新規,0,2025-03-27,2025-03-27,ベルタワー株式会社,,株式会社,東京都,渋谷区,恵比寿４丁目２０番２－１２０１号,,13,113,1500013,,,,,,,2025-03-27,1,,,,,ベルタワー,0
1204,6011601028522,新規,0,2025-03-27,2025-03-27,ノア株式会社,,株式会社,東京都,練馬区,桜台２丁目１番５号さくらマンション３０２号,,13,120,1760002,,,,,,,2025-03-27,1,,,,,ノア,0
1212,6012403007037,新規,0,2025-03-27,2025-03-27,麓嵐合同会社,,合同会社,東京都,多摩市,一ノ宮１丁目２４番地の１,,13,224,2060002,,,,,,,2025-03-27,1,,,,,ロクラン,0
1218,6020001161998,新規,0,2025-03-27,2025-03-27,ロゼオ株式会社,,株式会社,神奈川県,横浜市栄区,飯島町１６８１番地１フローレンスパレス本郷台ヒルズ７０６,,14,115,2440842,,,,,,,2025-03-27,1,,,,,ロゼオ,0
1219,6020001162047,新規,0,2025-03-27,2025-03-27,株式会社ＦＵＭＡ,,株式会社,神奈川県,横浜市金沢区,六浦東３丁目６番８号,,14,108,2360037,,,,,,,2025-03-27,1,,,,,フウマ,0
1221,6020003028122,新規,0,2025-03-27,2025-03-27,合同会社ＳｙｎｃＨｏｍｅ,,合同会社,神奈川県,横浜市青葉区,荏田町４６６番地３,,14,117,2250013,,,,,,,2025-03-27,1,,,,,シンクホーム,0
1229,6030001165602,新規,0,2025-03-27,2025-03-27,株式会社天元台山荘,,株式会社,埼玉県,朝霞市,北原２丁目４－７グリナード細田４０２,,11,227,3510036,,,,,,,2025-03-27,1,,,,,テンゲンダイサンソウ,0
1236,6040001138004,新規,0,2025-03-27,2025-03-27,１３株式会社,,株式会社,千葉県,印西市,高花６丁目１１番地１６,,12,231,2701342,,,,,,,2025-03-27,1,,,,,サーティーン,0
1237,6040001138012,新規,0,2025-03-27,2025-03-27,株式会社ＬｉｂｅＲａｌ,,株式会社,千葉県,鎌ケ谷市,西佐津間２丁目５番３１号,,12,224,2730134,,,,,,,2025-03-27,1,,,,,リベラル,0
1238,6040001138020,新規,0,2025-03-27,2025-03-27,ＡＴＡＢＩＧ　ＴＲＡＤＩＮＧ株式会社,,株式会社,千葉県,四街道市,みそら３丁目１７番１０号,,12,228,2840023,,,,,,,2025-03-27,1,,,,,アタビックトレーディング,0
1241,6040005022690,新規,0,2025-03-27,2025-03-27,一般社団法人アマテラスシンギングボウルアソシエ,,その他の設立登記法人,千葉県,船橋市,八木が谷２丁目２１番１号,,12,204,2740802,,,,,,,2025-03-27,1,,,,,アマテラスシンギングボウルアソシエ,0
1244,6050001056394,新規,0,2025-03-27,2025-03-27,株式会社Ａｉｍａｂｌｅ,,株式会社,茨城県,龍ケ崎市,川原代町１３３１番地３,,08,208,3010005,,,,,,,2025-03-27,1,,,,,エマーブル,0
1245,6050001056411,新規,0,2025-03-27,2025-03-27,ナンティカーン株式会社,,株式会社,茨城県,稲敷市,浮島６９７７番地５９－４号室,,08,229,3000641,,,,,,,2025-03-27,1,,,,,ナンティカーン,0
1247,6050003009144,新規,0,2025-03-27,2025-03-27,合同会社オフランド,,合同会社,茨城県,日立市,桜川町２丁目２１番１８号,,08,202,3160002,,,,,,,2025-03-27,1,,,,,オフランド,0
1250,6060003005489,新規,0,2025-03-27,2025-03-27,合同会社倶に,,合同会社,栃木県,下野市,緑２丁目１－２,,09,216,3290433,,,,,,,2025-03-27,1,,,,,トモニ,0
1253,6080103003283,新規,0,2025-03-27,2025-03-27,ＩＫ合同会社,,合同会社,静岡県,熱海市,下多賀１８８番地の２８,,22,205,4130102,,,,,,,2025-03-27,1,,,,,,0
1263,6100003008058,新規,0,2025-03-27,2025-03-27,フィットサポーティング合同会社,,合同会社,長野県,諏訪郡原村,１７２１７番地１０７６,,20,363,3910100,,,,,,,2025-03-27,1,,,,,フィットサポーティング,0
1272,6120001274014,新規,0,2025-03-27,2025-03-27,株式会社バンクルエージェント,,株式会社,大阪府,大阪市北区,長柄中３丁目３番１号,,27,127,5310062,,,,,,,2025-03-27,1,,,,,バンクルエージェント,0
1273,6120001274022,新規,0,2025-03-27,2025-03-27,株式会社セブンリーフ,,株式会社,大阪府,大阪市東淀川区,東中島２丁目８番６号新大阪駅前ビル８０１号室,,27,114,5330033,,,,,,,2025-03-27,1,,,,,セブンリーフ,0
1274,6120001274047,新規,0,2025-03-27,2025-03-27,株式会社クリンクル,,株式会社,大阪府,大阪市西成区,長橋３丁目６番３２号グランパシフィック長橋スクエアＩＩ３０３号,00138478,27,122,5570025,,,,,,,2025-03-27,1,,,,,クリンクル,0
1275,6120001274121,新規,0,2025-03-27,2025-03-27,株式会社アニーコーポレーション,,株式会社,大阪府,大阪市住之江区,粉浜西１丁目１番４号トモエビル１階,,27,125,5590007,,,,,,,2025-03-27,1,,,,,アニーコーポレーション,0
1277,6120003028995,新規,0,2025-03-27,2025-03-27,合同会社アストラ,,合同会社,大阪府,大阪市中央区,高津１丁目８番１０号１Ｆ,,27,128,5420072,,,,,,,2025-03-27,1,,,,,アストラ,0
1286,6120903005598,新規,0,2025-03-27,2025-03-27,東西エアコンサービス合同会社,,合同会社,大阪府,高槻市,大冠町２丁目４３番１号アーバンライフ・フミ１０３号,,27,207,5690031,,,,,,,2025-03-27,1,,,,,トウセイエアコンサービス,0
1287,6130001079263,新規,0,2025-03-27,2025-03-27,株式会社クエストワン,,株式会社,京都府,宇治市,五ケ庄日皆田２５番地の８８,,26,204,6110011,,,,,,,2025-03-27,1,,,,,クエストワン,0
1289,6140001137895,新規,0,2025-03-27,2025-03-27,株式会社みやうち不動産販売,,株式会社,兵庫県,神戸市灘区,水道筋３丁目３番地,,28,102,6570831,,,,,,,2025-03-27,1,,,,,ミヤウチフドウサンハンバイ,0
1290,6140001137904,新規,0,2025-03-27,2025-03-27,株式会社なかの鉄工所,,株式会社,兵庫県,尼崎市,若王寺２丁目４０番１０号,,28,202,6610974,,,,,,,2025-03-27,1,,,,,ナカノテッコウショ,0
1311,6180003028180,新規,0,2025-03-27,2025-03-27,合同会社レイドエイト,,合同会社,愛知県,名古屋市中村区,名駅３丁目４－１０アルティメイト名駅１ｓｔ２階,,23,105,4500002,,,,,,,2025-03-27,1,,,,,レイドエイト,0
1314,6200003006745,新規,0,2025-03-27,2025-03-27,中村自動車合同会社,,合同会社,岐阜県,羽島市,足近町南之川３７５番地８,,21,209,5016205,,,,,,,2025-03-27,1,,,,,ナカムラジドウシャ,0
1332,6330003010908,新規,0,2025-03-27,2025-03-27,ＨＡＰＰＹ合同会社,,合同会社,熊本県,熊本市中央区,本山２丁目２番４号,,43,101,8600821,,,,,,,2025-03-27,1,,,,,ハッピー,0
1348,6360003014798,新規,0,2025-03-27,2025-03-27,グレイスセレモニー合同会社,,合同会社,沖縄県,糸満市,潮崎町４丁目２１－１,,47,210,9010364,,,,,,,2025-03-27,1,,,,,グレイスセレモニー,0
1350,6370001052378,新規,0,2025-03-27,2025-03-27,ブレイドリテラシー株式会社,,株式会社,宮城県,仙台市宮城野区,出花２丁目１１８番地の１,,04,102,9830012,,,,,,,2025-03-27,1,,,,,ブレイドリテラシー,0
1351,6370003007000,新規,0,2025-03-27,2025-03-27,合同会社Ｆｒｏｎｔ　Ｌｉｎｅ,,合同会社,宮城県,遠田郡涌谷町,字長柄町３０番地,,04,501,9870143,,,,,,,2025-03-27,1,,,,,フロントライン,0
1352,6380001035183,新規,0,2025-03-27,2025-03-27,株式会社畑鉾,,株式会社,福島県,郡山市,片平町字西大町３９番地,,07,203,9630211,,,,,,,2025-03-27,1,,,,,ハタホコ,0
1354,6380003006001,新規,0,2025-03-27,2025-03-27,合同会社まんまーる,,合同会社,福島県,福島市,大笹生字太平２６３－１,,07,201,9600251,,,,,,,2025-03-27,1,,,,,マンマール,0
1356,6420005007950,新規,0,2025-03-27,2025-03-27,農事組合法人こめの里,,その他の設立登記法人,青森県,北津軽郡中泊町,大字田茂木字鳴見２４２番地８,,02,387,0370318,,,,,,,2025-03-27,1,,,,,コメノサト,0
1364,6430001094018,新規,0,2025-03-27,2025-03-27,株式会社めぐみ企画プラス,,株式会社,北海道,札幌市豊平区,中の島一条１丁目７番２０号,,01,105,0620921,,,,,,,2025-03-27,1,,,,,メグミキカクプラス,0
1369,6460105002311,新規,0,2025-03-27,2025-03-27,うらほろのスポーツと文化活動を未来につなぐ一般社団法人,,その他の設立登記法人,北海道,十勝郡浦幌町,字時和１７番地５,,01,649,0895634,,,,,,,2025-03-27,1,,,,,ウラホロノスポーツトブンカカツドウヲミライニツナグ,0
1372,6700150105539,新規,0,2025-03-27,2021-10-29,やまとことば,,その他,埼玉県,さいたま市中央区,鈴谷７丁目６－２－１１０６,,11,105,3380013,,,,,,,2021-10-29,1,,,,,ヤマトコトバ,0
1373,6700150129703,新規,0,2025-03-27,2025-03-27,Ｓｈｅｎｚｈｅｎ　ｆｅｎｇｇｕｙａ　ｔｅｃｈｎｏｌｏｇｙ　ｃｏ．，ｌｔｄ,,外国会社等,,,,,,,,Ｒｏｏｍ　３０３，Ｂｕｉｌｄｉｎｇ　２，Ｓｏｕｔｈｅｒｎ　Ｄｉｇｉｔａｌ　Ｉｎｎｏｖａｔｉｏｎ　Ｉｎｄｕｓｔｒｉａｌ　Ｂａｓｅ，Ｎｏ．８０，Ｐｕｘｉａ　Ｒｏａｄ，Ｌｉｕｙｕｅ　Ｎｏｒｔｈ　Ｃｏｍｍｕｎｉｔｙ，Ｈｅｎｇｇａｎｇ　Ｓｔｒｅｅｔ，Ｌｏｎｇｇａｎｇ　Ｄｉｓｔｒｉｃｔ，Ｓｈｅｎｚｈｅｎ,,,,,,2025-03-27,1,,,,,シェンジェンシーフォングーヤーコージーヨウシエンゴンスー,0
1374,6700150129728,新規,0,2025-03-27,2025-03-27,ＭＬＯｐｓ　＆　Ｃｌｏｕｄ　ＤＢ　ＬＬＣ,,外国会社等,大阪府,高槻市,八幡町３－１９－１０２,,27,207,5690051,３０　Ｎ　Ｇｏｕｌｄ　Ｓｔ　Ｓｔｅ　２５２４５　Ｓｈｅｒｉｄａｎ，ＷＹ　８２８０１,,,,,,2025-03-27,1,,,,,エムエルオープスアンドクラウドデイービーエルエルシー,0
1375,6700150129736,新規,0,2025-03-27,2025-03-27,Ｋａｉｊｅｔ　Ｔｅｃｈｎｏｌｏｇｙ　Ｉｎｔｅｒｎａｔｉｏｎａｌ　Ｃｏｒｐｏｒａｔｉｏｎ,,外国会社等,,,,,,,,８Ｆ．，Ｎｏ．１０９，Ｚｈｏｎｇｃｈｅｎｇ　Ｒｄ．，Ｔｕｃｈｅｎｇ　Ｄｉｓｔ．，Ｎｅｗ　Ｔａｉｐｅｉ　Ｃｉｔｙ　２３６，Ｔａｉｗａｎ（Ｒ．Ｏ．Ｃ．）,,,,,,2025-03-27,1,,,,,カイジェットテクノロジーインタナショナルコーポレーション,0
1381,7010001253515,新規,0,2025-03-27,2025-03-27,株式会社オサカナアトリエ,,株式会社,東京都,千代田区,神田和泉町１番地６－１６ヤマトビル４０５,,13,101,1010024,,,,,,,2025-03-27,1,,,,,オサカナアトリエ,0
1385,7010003046867,新規,0,2025-03-27,2025-03-27,ＴＯＫ１Ｆ合同会社,,合同会社,東京都,千代田区,丸の内１丁目４番１号東京共同会計事務所内,,13,101,1000005,,,,,,,2025-03-27,1,,,,,トックワンエフ,0
1393,7010401189111,新規,0,2025-03-27,2025-03-27,株式会社ＦａｉｒｙＦｉｅｌｄ,,株式会社,東京都,港区,芝大門２丁目１２番５号８０３号室,,13,103,1050012,,,,,,,2025-03-27,1,,,,,フェアリーフィールド,0
1394,7010401189128,新規,0,2025-03-27,2025-03-27,株式会社みんなの,,株式会社,東京都,港区,三田１丁目６番３号シティータワー麻布十番２１１１,,13,103,1080073,,,,,,,2025-03-27,1,,,,,ミンナノ,0
1406,7010801035947,新規,0,2025-03-27,2025-03-27,株式会社躍龍,,株式会社,東京都,大田区,南久が原２丁目１１番１１号,,13,111,1460084,,,,,,,2025-03-27,1,,,,,ヤクリュウ,0
1407,7010801035963,新規,0,2025-03-27,2025-03-27,株式会社オーヤマ住宅資材販売,,株式会社,東京都,大田区,西糀谷３丁目４３番３号,,13,111,1440034,,,,,,,2025-03-27,1,,,,,オーヤマジュウタクシザイハンバイ,0
1409,7010805003165,新規,0,2025-03-27,2025-03-27,医療法人社団北嶺すとうクリニック,,その他の設立登記法人,東京都,大田区,北嶺町１１番８号第２田ノ原屋ビル３階,,13,111,1450073,,,,,,,2025-03-27,1,,,,,キタミネストウクリニック,0
1412,7010901057073,新規,0,2025-03-27,2025-03-27,株式会社次世代学習研究所,,株式会社,東京都,世田谷区,上野毛３丁目５番５号,,13,112,1580093,,,,,,,2025-03-27,1,,,,,ジセダイガクシュウケンキュウジョ,0
1413,7010905004757,新規,0,2025-03-27,2025-03-27,医療法人社団アドレ会,,その他の設立登記法人,東京都,世田谷区,桜丘２丁目２７番１１号レフィーノＫＭビル３階,,13,112,1560054,,,,,,,2025-03-27,1,,,,,アドレカイ,0
1418,7011001168711,新規,0,2025-03-27,2025-03-27,株式会社ネヴルス,,株式会社,東京都,渋谷区,道玄坂１丁目１０番８号渋谷道玄坂東急ビル２Ｆ‐Ｃ,,13,113,1500043,,,,,,,2025-03-27,1,,,,,ネヴルス,0
1419,7011003021208,新規,0,2025-03-27,2025-03-27,合同会社ＡＴＯＳ,,合同会社,東京都,渋谷区,幡ヶ谷３丁目３９番１２号渋谷ウェストビル１階,,13,113,1510072,,,,,,,2025-03-27,1,,,,,アトス,0
1423,7011201026231,新規,0,2025-03-27,2025-03-27,株式会社ＨＲ　Ｓｍｉｌｅ,,株式会社,東京都,中野区,大和町２丁目２５番４号,,13,114,1650034,,,,,,,2025-03-27,1,,,,,エイチアールスマイル,0
1425,7011401026931,新規,0,2025-03-27,2025-03-27,ＹＴ　ＳＴＵＤＩＯ株式会社,,株式会社,東京都,板橋区,仲宿６３番地７号ＯＥｏｆｆｉｃｅＢｌｄｇ．２０３号,,13,119,1730005,,,,,,,2025-03-27,1,,,,,ワイティステュディオ,0
1426,7011401026948,新規,0,2025-03-27,2025-03-27,株式会社としまや駐輪場,,株式会社,東京都,板橋区,赤塚新町１丁目２１番１号,,13,119,1750093,,,,,,,2025-03-27,1,,,,,トシマヤチュウリンジョウ,0
1432,7011601028521,新規,0,2025-03-27,2025-03-27,株式会社暮らすデザイン,,株式会社,東京都,練馬区,下石神井５丁目１番３６号,,13,120,1770042,,,,,,,2025-03-27,1,,,,,クラスデザイン,0
1433,7011701028173,新規,0,2025-03-27,2025-03-27,星博株式会社,,株式会社,東京都,江戸川区,江戸川６丁目４０番１４－２０９号,,13,123,1340013,,,,,,,2025-03-27,1,,,,,セイハク,0
1434,7011701028198,新規,0,2025-03-27,2025-03-27,株式会社ＦＬｅＣ,,株式会社,東京都,江戸川区,一之江３丁目２番２３号,,13,123,1320024,,,,,,,2025-03-27,1,,,,,フレック,0
1435,7011703004172,新規,0,2025-03-27,2025-03-27,Ｓ．Ｈブランドプレイス合同会社,,合同会社,東京都,江戸川区,平井７丁目５番２３－１０９,,13,123,1320035,,,,,,,2025-03-27,1,,,,,エスエッチブランドプレイス,0
1451,7020001162013,新規,0,2025-03-27,2025-03-27,株式会社ｏｗｎｅｒＳ,,株式会社,神奈川県,川崎市多摩区,登戸２５８３番地１２－２,,14,135,2140014,,,,,,,2025-03-27,1,,,,,オーナーズ,0
1454,7020005016743,新規,0,2025-03-27,2025-03-27,行政書士法人ＡＮＹＶＩＳＡ　ＪＡＰＡＮ,,その他の設立登記法人,神奈川県,川崎市幸区,中幸町３丁目３１番２ＤＡＩＫＹＯ・ＫＥＮＫＩ・ＫＡＷＡＳＡＫＩ・ＢＬＤＧ８階,,14,132,2120012,,,,,,,2025-03-27,1,,,,,エニービザジャパン,0
1466,7030001165592,新規,0,2025-03-27,2025-03-27,＿一株式会社,00138476,株式会社,埼玉県,八潮市,大字新町５８番地７,,11,234,3400807,,,,,,,2025-03-27,1,,,,,キンイチ,0
1467,7030001165601,新規,0,2025-03-27,2025-03-27,株式会社ブライト,,株式会社,埼玉県,さいたま市大宮区,宮町２丁目９３－２,,11,103,3300802,,,,,,,2025-03-27,1,,,,,ブライト,0
1468,7030003026388,新規,0,2025-03-27,2025-03-27,ＭＳファクトリー合同会社,,合同会社,埼玉県,川越市,今成２丁目４１番２３号,,11,201,3501105,,,,,,,2025-03-27,1,,,,,エムエスファクトリー,0
1469,7030003026405,新規,0,2025-03-27,2025-03-27,合同会社ｆａｍｉｔｙ,,合同会社,埼玉県,戸田市,喜沢１丁目２番地の１８,,11,224,3350013,,,,,,,2025-03-27,1,,,,,ファミティー,0
1470,7030003026421,新規,0,2025-03-27,2025-03-27,合同会社クリアーシー,,合同会社,埼玉県,川口市,芝４丁目１１番２９号,,11,203,3330866,,,,,,,2025-03-27,1,,,,,クリアーシー,0
1472,7030005022088,新規,0,2025-03-27,2025-03-27,医療法人蓬順会,,その他の設立登記法人,埼玉県,川越市,的場北１丁目１５番地１０三上ビル１階,,11,201,3501102,,,,,,,2025-03-27,1,,,,,ホウジュンカイ,0
1477,7040001137995,新規,0,2025-03-27,2025-03-27,株式会社イーコネ商事,,株式会社,千葉県,松戸市,五香４丁目４４番５号,,12,207,2702213,,,,,,,2025-03-27,1,,,,,イーコネショウジ,0
1478,7040001138003,新規,0,2025-03-27,2025-03-27,株式会社ＲＡＭＬ,,株式会社,千葉県,松戸市,新松戸３丁目１３８番地の１,,12,207,2700034,,,,,,,2025-03-27,1,,,,,ラメル,0
1479,7040001138011,新規,0,2025-03-27,2025-03-27,株式会社ＢＳ,,株式会社,千葉県,千葉市中央区,新宿１丁目８番５号サンハイツ千葉２０１号,,12,101,2600021,,,,,,,2025-03-27,1,,,,,ビーエス,0
1482,7040003027170,新規,0,2025-03-27,2025-03-27,松戸平田会計合同会社,,合同会社,千葉県,松戸市,松戸１３３０番地４メゾン弘文３０２,,12,207,2710092,,,,,,,2025-03-27,1,,,,,マツドヒラタカイケイ,0
1483,7040003027204,新規,0,2025-03-27,2025-03-27,Ｃ．ＨＬＡＮＫＡ合同会社,,合同会社,千葉県,山武郡横芝光町,宮川字鶴巻３５５６番地９,,12,410,2891727,,,,,,,2025-03-27,1,,,,,シーエイチランカ,0
1485,7050001056393,新規,0,2025-03-27,2025-03-27,株式会社いろどりの家,,株式会社,茨城県,つくば市,花畑３丁目３０番５号メゾン藤・花畑３０１号室,,08,220,3003261,,,,,,,2025-03-27,1,,,,,イロドリノイエ,0
1497,7100001038444,新規,0,2025-03-27,2025-03-27,株式会社ＦＯＲＭＵＬＡ,,株式会社,長野県,諏訪郡富士見町,落合桜ケ丘１０７１６,,20,362,3990214,,,,,,,2025-03-27,1,,,,,フォーミュラー,0
1500,7110001039103,新規,0,2025-03-27,2025-03-27,株式会社桑原重機,,株式会社,新潟県,南魚沼市,今町１６４番地１,,15,226,9497313,,,,,,,2025-03-27,1,,,,,クワバラジュウキ,0
1509,7120001273873,新規,0,2025-03-27,2025-03-27,株式会社戸根福祉システム,,株式会社,大阪府,大阪市北区,梅田１丁目１－３大阪駅前第３ビル２９階１－１－１号室,,27,127,5300001,,,,,,,2025-03-27,1,,,,,トネフクシシステム,0
1510,7120001273972,新規,0,2025-03-27,2025-03-27,株式会社トト,,株式会社,大阪府,大阪市西淀川区,御幣島２丁目２０番７号,,27,113,5550012,,,,,,,2025-03-27,1,,,,,トト,0
1512,7120003029035,新規,0,2025-03-27,2025-03-27,合同会社ｈａｎａｕｔａ,,合同会社,大阪府,大阪市西区,靱本町３丁目１番２１‐１００５号,,27,106,5500004,,,,,,,2025-03-27,1,,,,,ハナウタ,0
1513,7120101071351,新規,0,2025-03-27,2025-03-27,君澤四季旅行株式会社,,株式会社,大阪府,高石市,高師浜２丁目１０番７号,,27,225,5920004,,,,,,,2025-03-27,1,,,,,キミサワシキリョコウ,0
1515,7122001039008,新規,0,2025-03-27,2025-03-27,ＵＬテート株式会社,,株式会社,大阪府,八尾市,安中町８丁目３番３号マンション矢作,,27,212,5810085,,,,,,,2025-03-27,1,,,,,ユーエルテート,0
1525,7130001079279,新規,0,2025-03-27,2025-03-27,株式会社ＥＡＡインターナショナル,,株式会社,京都府,京田辺市,興戸南落延２７番地２（２０３号室）,,26,211,6100332,,,,,,,2025-03-27,1,,,,,イーエーエーインターナショナル,0
1526,7130003010316,新規,0,2025-03-27,2025-03-27,かえる合同会社,,合同会社,京都府,京都市下京区,間之町通上珠数屋町下る打越町３１６番地１,,26,106,6008151,,,,,,,2025-03-27,1,,,,,カエル,0
1529,7140003021840,新規,0,2025-03-27,2025-03-27,セレストアドバイザリー合同会社,,合同会社,兵庫県,西宮市,段上町４丁目１０番５－１０２号,,28,204,6638006,,,,,,,2025-03-27,1,,,,,セレストアドバイザリー,0
1543,7200005013739,新規,0,2025-03-27,2025-03-27,一般社団法人ＡＣＴＩＯＮ,,その他の設立登記法人,岐阜県,加茂郡富加町,大平賀島ノ前４１７－１,,21,502,5013307,,,,,,,2025-03-27,1,,,,,アクション,0
1558,7290001109383,新規,0,2025-03-27,2025-03-27,ＳＡＫＵＲＡ　ＢＬＯＯＭＩＮＧ株式会社,,株式会社,福岡県,福岡市中央区,天神２丁目３番１０号天神パインクレスト７１９号室,,40,133,8100001,,,,,,,2025-03-27,1,,,,,サクラブルーミング,0
1560,7290003016578,新規,0,2025-03-27,2025-03-27,合同会社ホープリンクス,,合同会社,福岡県,飯塚市,中４７５－３,,40,205,8200065,,,,,,,2025-03-27,1,,,,,ホープリンクス,0
1561,7290005019686,新規,0,2025-03-27,2025-03-27,行政書士法人アップパートナーズ,,その他の設立登記法人,福岡県,福岡市博多区,博多駅東２丁目６番１号九勧筑紫通ビル１０階司法書士法人ハートトラスト内,,40,132,8120013,,,,,,,2025-03-27,1,,,,,アップパートナーズ,0
1562,7320001021015,新規,0,2025-03-27,2025-03-27,Ａ．二八堂株式会社,,株式会社,大分県,大分市,城南南１丁目２番６号,,44,201,8700825,,,,,,,2025-03-27,1,,,,,アドットニハチドウ,0
1563,7330001033001,新規,0,2025-03-27,2025-03-27,青松株式会社,,株式会社,熊本県,熊本市東区,長嶺南３丁目７番４２号,,43,102,8618039,,,,,,,2025-03-27,1,,,,,アオマツ,0
1573,7360001034970,新規,0,2025-03-27,2025-03-27,株式会社彩葉,,株式会社,沖縄県,那覇市,真嘉比３丁目２０番７号１Ｆ,,47,201,9020068,,,,,,,2025-03-27,1,,,,,サイヨウ,0
1574,7380001035182,新規,0,2025-03-27,2025-03-27,株式会社ラフデザインワークス,,株式会社,福島県,郡山市,虎丸町１０番３号，２階,,07,203,9638014,,,,,,,2025-03-27,1,,,,,ラフデザインワークス,0
1575,7380001035190,新規,0,2025-03-27,2025-03-27,株式会社Ｔｒｅｓｓ＆Ｃｏ．,,株式会社,福島県,いわき市,平字三倉６３番地の３,,07,204,9708026,,,,,,,2025-03-27,1,,,,,トレスアンドカンパニー,0
1576,7390001017931,新規,0,2025-03-27,2025-03-27,株式会社安達ファーム,,株式会社,山形県,山形市,大字吉野宿２４５番地,,06,201,9900883,,,,,,,2025-03-27,1,,,,,アダチファーム,0
1597,7480001012790,新規,0,2025-03-27,2025-03-27,株式会社ＳＨＡＦＩ　ＧＲＯＵＰ,,株式会社,徳島県,阿波市,吉野町西条字庄境５４番地１Ｂ,,36,206,7711402,,,,,,,2025-03-27,1,,,,,シャフィグループ,0
1600,7500005008774,新規,0,2025-03-27,2025-03-27,ＮＰＯ法人さんかくひさえだ,,その他の設立登記法人,愛媛県,松山市,安城寺町１２５－３,,38,201,7918006,,,,,,,2025-03-27,1,,,,,サンカクヒサエダ,0
1603,7700150129636,新規,0,2025-03-27,2025-03-27,Ｌｅｍｕｒｉａｎ　Ｇｏｄｄｅｓｓ　ＬＬＣ,,外国会社等,,,,,,,,アメリカ合衆国ハワイ州ホノルル市ワイアナエ、マイオラ通り８４－８４９,,,,,,2025-03-27,1,,,,,レムリアンゴツデスエルエルシー,0
1604,7700150129702,新規,0,2025-03-27,2025-03-27,Ｓｈｅｎｚｈｅｎ　Ｊｉｎｔａｉ　Ｐｅｎｇｃｈｅｎｇ　Ｔｅｃｈｎｏｌｏｇｙ　Ｃｏ．，Ｌｔｄ．,,外国会社等,,,,,,,,Ｒｏｏｍ　３０２，Ｂｕｉｌｄｉｎｇ　２，Ｓｏｕｔｈｅｒｎ　Ｄｉｇｉｔａｌ　Ｉｎｎｏｖａｔｉｏｎ　Ｉｎｄｕｓｔｒｉａｌ　Ｂａｓｅ，Ｎｏ．８０，Ｐｕｘｉａ　Ｒｏａｄ，Ｌｉｕｙｕｅ　Ｎｏｒｔｈ　Ｃｏｍｍｕｎｉｔｙ，Ｈｅｎｇｇａｎｇ　Ｓｔｒｅｅｔ，Ｌｏｎｇｇａｎｇ　Ｄｉｓｔｒｉｃｔ，Ｓｈｅｎｚｈｅｎ,,,,,,2025-03-27,1,,,,,シェンジェンシージンタイポンチョンコージーヨウシエンゴンスー,0
1605,7700150129727,新規,0,2025-03-27,2025-03-27,光景集団有限公司,,外国会社等,,,,,,,,英国領バージン諸島トルトルーラ、ロードタウン、サーフランシスドレイクハイウェイ３０７６、エレンスケルトンビルディング４階,,,,,,2025-03-27,1,,,,,コウケイシユウダンユウゲンコウジ,0
1606,7700150129735,新規,0,2025-03-27,2025-03-27,ＪＡＳＰＥＲ　ＰＥＴ　ＣＡＲＥ　ＰＲＯＤＵＣＴＳ，ＩＮＣ．,,外国会社等,,,,,,,,１３　Ｆ．，Ｎｏ．９６，Ｘｉｎｇｄｅ　Ｒｄ．，Ｓａｎｃｈｏｎｇ　Ｄｉｓｔ．，Ｎｅｗ　Ｔａｉｐｅｉ　Ｃｉｔｙ　２４１５５８，Ｔａｉｗａｎ（Ｒ．Ｏ．Ｃ．）,,,,,,2025-03-27,1,,,,,ジャスパーペットケアープロダクツインク,0
1613,8010001253167,新規,0,2025-03-27,2025-03-27,株式会社ｓｗｉｍｙ,,株式会社,東京都,千代田区,鍛冶町１丁目４－６東京神田ビル３階,,13,101,1010044,,,,,,,2025-03-27,1,,,,,スイミー,0
1614,8010001253514,新規,0,2025-03-27,2025-03-27,株式会社ＢｅｅＰＯ,,株式会社,東京都,千代田区,神田須田町２丁目３－１２・１２ＫＡＮＤＡ１００２号室,,13,101,1010041,,,,,,,2025-03-27,1,,,,,ビーポ,0
1615,8010001253522,新規,0,2025-03-27,2025-03-27,株式会社マルマンメディカル,,株式会社,東京都,中央区,日本橋蛎殻町１丁目３７番１２－１３０２号,,13,102,1030014,,,,,,,2025-03-27,1,,,,,マルマンメディカル,0
1620,8010003046874,新規,0,2025-03-27,2025-03-27,Ｓｔａｒ　ｓｅｅｄ合同会社,,合同会社,東京都,中央区,銀座１丁目１２番４号Ｎ＆ＥＢＬＤ．６Ｆ,,13,102,1040061,,,,,,,2025-03-27,1,,,,,スターシード,0
1621,8010003046908,新規,0,2025-03-27,2025-03-27,マカロンプロパティ合同会社,,合同会社,東京都,千代田区,丸の内１丁目４番１号東京共同会計事務所内,,13,101,1000005,,,,,,,2025-03-27,1,,,,,マカロンプロパティ,0
1625,8010401189127,新規,0,2025-03-27,2025-03-27,２４Ｃ株式会社,,株式会社,東京都,港区,南麻布１丁目６番６－４０２号,,13,103,1060047,,,,,,,2025-03-27,1,,,,,トゥーフォーシー,0
1626,8010401189176,新規,0,2025-03-27,2025-03-27,ＫＡＭＡＴＡＮＩ　ＳＴＵＤＩＯ株式会社,,株式会社,東京都,港区,赤坂１丁目７番３号,,13,103,1070052,,,,,,,2025-03-27,1,,,,,カマタニスタジオ,0
1627,8010401189192,新規,0,2025-03-27,2025-03-27,イメージ・システムズ・ジャパン株式会社,,株式会社,東京都,港区,六本木１丁目１０番３号,,13,103,1060032,,,,,,,2025-03-27,1,,,,,イメージシステムズジャパン,0
1629,8010403034702,新規,0,2025-03-27,2025-03-27,Ｖｉｎｔａｇｅ　ｂｒａｎｄ　ｓｈｏｐ　ｔｏｋｙｏ合同会社,,合同会社,東京都,港区,北青山１丁目３番１号アールキューブ青山３階,,13,103,1070061,,,,,,,2025-03-27,1,,,,,ヴィンテージブランドショップトウキョウ,0
1630,8010403034735,新規,0,2025-03-27,2025-03-27,パシフィコ・エナジー第１１合同会社,,合同会社,東京都,港区,六本木３丁目２番１号六本木グランドタワー,,13,103,1060032,,,,,,,2025-03-27,1,,,,,パシフィコエナジーダイジュウイチ,0
1631,8010405024180,新規,0,2025-03-27,2025-03-27,ＭＦ４ＪＰＮ６特定目的会社,,その他の設立登記法人,東京都,港区,虎ノ門３丁目２２番１０－２０１号,,13,103,1050001,,,,,,,2025-03-27,1,,,,,エムエフフォージェイピーエヌシックス,0
1633,8010601067009,新規,0,2025-03-27,2025-03-27,株式会社カームアイズ,,株式会社,東京都,江東区,佐賀１丁目１番１２号,,13,108,1350031,,,,,,,2025-03-27,1,,,,,カームアイズ,0
1635,8010603011468,新規,0,2025-03-27,2025-03-27,Ｄ＆Ｄ合同会社,,合同会社,東京都,江東区,南砂５丁目３番７号１階,,13,108,1360076,,,,,,,2025-03-27,1,,,,,ディーアンドディー,0
1636,8010801035962,新規,0,2025-03-27,2025-03-27,ＨＴ株式会社,,株式会社,東京都,大田区,上池台３丁目２９番１７号,,13,111,1450064,,,,,,,2025-03-27,1,,,,,エイチティー,0
1649,8011001168413,新規,0,2025-03-27,2025-03-27,株式会社ＰｌｕｓＢ,,株式会社,東京都,渋谷区,本町１丁目１７番１２号,,13,113,1510071,,,,,,,2025-03-27,1,,,,,プラスビー,0
1653,8011003021207,新規,0,2025-03-27,2025-03-27,合同会社ＦＩＧＡＲＯ＆ｃｏ．,,合同会社,東京都,渋谷区,渋谷２丁目１９番１５号宮益坂ビルディング６０９号室,,13,113,1500002,,,,,,,2025-03-27,1,,,,,フィガロアンドコー,0
1654,8011003021272,新規,0,2025-03-27,2025-03-27,ＫＮアセットマネージメント合同会社,,合同会社,東京都,目黒区,目黒本町５丁目３０番２４号,,13,110,1520002,,,,,,,2025-03-27,1,,,,,ケーエヌアセットマネジメント,0
1655,8011003021314,新規,0,2025-03-27,2025-03-27,合同会社Ｒｅａｌｉｚｅ,,合同会社,東京都,渋谷区,道玄坂１丁目１０番８号渋谷道玄坂東急ビル２Ｆ－Ｃ,,13,113,1500043,,,,,,,2025-03-27,1,,,,,リアライズ,0
1660,8011101111099,新規,0,2025-03-27,2025-03-27,株式会社ｅｎ,,株式会社,東京都,新宿区,中井１丁目９番１７号Ｙ’ｓＣｏｕｒｔＮａｋａｉ３０１,,13,104,1610035,,,,,,,2025-03-27,1,,,,,エン,0
1661,8011103015694,新規,0,2025-03-27,2025-03-27,Ｂｅｓｐｏｋｅ２合同会社,,合同会社,東京都,新宿区,新宿５丁目１４番１２号天翔オフィス新宿三丁目３０５号室,,13,104,1600022,,,,,,,2025-03-27,1,,,,,ビスポークスクエア,0
1662,8011301030454,新規,0,2025-03-27,2025-03-27,出雲株式会社,,株式会社,東京都,杉並区,天沼１丁目４０番１１号,,13,115,1670032,,,,,,,2025-03-27,1,,,,,イズモ,0
1665,8011501031871,新規,0,2025-03-27,2025-03-27,Ｆｒｅｅｄｏｍ　Ｓｙｓｔｅｍｓ　Ｊａｐａｎ株式会社,,株式会社,東京都,荒川区,南千住５丁目４１番１２－１０１室,,13,118,1160003,,,,,,,2025-03-27,1,,,,,フリーダムシステムズジャパン,0
1675,8011801045844,新規,0,2025-03-27,2025-03-27,株式会社栄光,,株式会社,東京都,足立区,谷在家２丁目３番１号－１０７号,,13,121,1230863,,,,,,,2025-03-27,1,,,,,,0
1676,8011803006761,新規,0,2025-03-27,2025-03-27,友誠合同会社,,合同会社,東京都,葛飾区,西新小岩４丁目４３－１,,13,122,1240025,,,,,,,2025-03-27,1,,,,,ユウセイ,0
1677,8012301014307,新規,0,2025-03-27,2025-03-27,株式会社Ｑｕａｎｔａｒｉｓ　Ｌａｂ,,株式会社,東京都,町田市,中町１丁目４番２号,,13,209,1940021,,,,,,,2025-03-27,1,,,,,クオンタリスラボ,0
1695,8020003028137,新規,0,2025-03-27,2025-03-27,サンライズ合同会社,,合同会社,神奈川県,横浜市金沢区,寺前２丁目１９番１０－１号,,14,108,2360014,,,,,,,2025-03-27,1,,,,,サンライズ,0
1696,8020005016750,新規,0,2025-03-27,2025-03-27,医療法人プレナス,,その他の設立登記法人,神奈川県,川崎市高津区,溝口２丁目１４－３１ＭＭＢ３階,,14,134,2130001,,,,,,,2025-03-27,1,,,,,プレナス,0
1700,8021001084808,新規,0,2025-03-27,2025-03-27,株式会社ＫＩＮＧ　ＥＮＴＥＲＰＲＩＳＥＳ,,株式会社,神奈川県,相模原市南区,相模台７丁目１８番１３,,14,153,2520321,,,,,,,2025-03-27,1,,,,,キングエンタープライゼス,0
1701,8021003015760,新規,0,2025-03-27,2025-03-27,合同会社ＦＧビバレッジ,,合同会社,神奈川県,茅ヶ崎市,中海岸４丁目１５番１９号,,14,207,2530055,,,,,,,2025-03-27,1,,,,,エフジービバレッジ,0
1702,8021003015785,新規,0,2025-03-27,2025-03-27,合同会社ＫＡＴＳＵＭＩＹＡ,,合同会社,神奈川県,相模原市中央区,上溝６丁目１番１９号,,14,152,2520243,,,,,,,2025-03-27,1,,,,,カツミヤ,0
1706,8030001165575,新規,0,2025-03-27,2025-03-27,株式会社ＦＡＩＴＨ総合探偵事務所,,株式会社,埼玉県,川口市,西川口１丁目５番２０号４階Ａ－１９号室,,11,203,3320021,,,,,,,2025-03-27,1,,,,,フェイスソウゴウタンテイジムショ,0
1707,8030001165600,新規,0,2025-03-27,2025-03-27,マタタ株式会社,,株式会社,埼玉県,新座市,野火止６丁目３番１１号,,11,230,3520011,,,,,,,2025-03-27,1,,,,,マタタ,0
1710,8030003026404,新規,0,2025-03-27,2025-03-27,合同会社Ｋ‐Ｓｔｙｌｅ,,合同会社,埼玉県,川越市,大字笠幡３７０４番地２０,,11,201,3501175,,,,,,,2025-03-27,1,,,,,ケースタイル,0
1711,8040001138002,新規,0,2025-03-27,2025-03-27,株式会社Ｓｋｅｌｔｏｎ,,株式会社,千葉県,浦安市,明海５丁目３番Ａ－６０２号,,12,227,2790014,,,,,,,2025-03-27,1,,,,,スケルトン,0
1712,8040001138010,新規,0,2025-03-27,2025-03-27,株式会社リノキノホールディングス,,株式会社,千葉県,松戸市,八ケ崎８丁目１６番地の１,,12,207,2700023,,,,,,,2025-03-27,1,,,,,リノキノホールディングス,0
1713,8040001138035,新規,0,2025-03-27,2025-03-27,株式会社ＳＵＮ　ＩＫＫＩ,,株式会社,千葉県,鎌ケ谷市,新鎌ケ谷３丁目１２－１３,,12,224,2730107,,,,,,,2025-03-27,1,,,,,サンイッキ,0
1721,8050001056392,新規,0,2025-03-27,2025-03-27,株式会社シルバ,,株式会社,茨城県,常総市,水海道森下町４４２４番地,,08,211,3030005,,,,,,,2025-03-27,1,,,,,シルバ,0
1722,8050003009142,新規,0,2025-03-27,2025-03-27,Ｅａｓｔｅｒｎ　Ｄｅｅｐ合同会社,,合同会社,茨城県,筑西市,倉持１１４５,,08,227,3004515,,,,,,,2025-03-27,1,,,,,イースタンディープ,0
1723,8060001038051,新規,0,2025-03-27,2025-03-27,Ｌｅｇａｌ‐ａｒｋｓ株式会社,,株式会社,栃木県,栃木市,旭町１９番１６号,,09,203,3280035,,,,,,,2025-03-27,1,,,,,リーガルアークス,0
1725,8070001042754,新規,0,2025-03-27,2025-03-27,株式会社マル・グローバル,,株式会社,群馬県,伊勢崎市,連取３０７７番地５,,10,204,3720000,,,,,,,2025-03-27,1,,,,,マルグローバル,0
1729,8080101025402,新規,0,2025-03-27,2025-03-27,株式会社テスネット,,株式会社,静岡県,伊豆市,下白岩１４８７－３,,22,222,4102501,,,,,,,2025-03-27,1,,,,,テスネット,0
1737,8100003008056,新規,0,2025-03-27,2025-03-27,合同会社エムズコーヒーラボ,,合同会社,長野県,北佐久郡軽井沢町,大字長倉５５４３番地４,,20,321,3890111,,,,,,,2025-03-27,1,,,,,エムズコーヒーラボ,0
1745,8120001273831,新規,0,2025-03-27,2025-03-27,株式会社Ｒａｐｐｏｒｔ＆Ｃｏ．,,株式会社,大阪府,大阪市城東区,東中浜３丁目２番２３号,,27,118,5360023,,,,,,,2025-03-27,1,,,,,ラポールアンドカンパニー,0
1746,8120001273963,新規,0,2025-03-27,2025-03-27,霖曦株式会社,,株式会社,大阪府,大阪市住吉区,苅田２丁目７番１３－１０２号,,27,120,5580011,,,,,,,2025-03-27,1,,,,,リンキ,0
1747,8120001273971,新規,0,2025-03-27,2025-03-27,株式会社Ａｌｌ‐Ｉｎ,,株式会社,大阪府,門真市,小路町９番１９号,,27,223,5710058,,,,,,,2025-03-27,1,,,,,オールイン,0
1748,8120001274012,新規,0,2025-03-27,2025-03-27,ＰＡＹ　ＦＯＲＷＡＲＤ株式会社,,株式会社,大阪府,枚方市,楠葉並木１丁目４３番９号,,27,210,5731118,,,,,,,2025-03-27,1,,,,,ペイフォワード,0
1749,8120001274061,新規,0,2025-03-27,2025-03-27,東和株式会社,,株式会社,大阪府,大阪市住吉区,大領５丁目２番２４号サンフラワー大領５０１号室,,27,120,5580001,,,,,,,2025-03-27,1,,,,,トウワ,0
1750,8120001274094,新規,0,2025-03-27,2025-03-27,星耀株式会社,,株式会社,大阪府,大阪市西成区,橘３丁目１１番１９号,,27,122,5570051,,,,,,,2025-03-27,1,,,,,セイヨウ,0
1751,8120001274111,新規,0,2025-03-27,2025-03-27,イワックス株式会社,,株式会社,大阪府,大阪市浪速区,湊町１丁目４番１号ＯＣＡＴビル１階,,27,111,5560017,,,,,,,2025-03-27,1,,,,,イワックス,0
1755,8120003028952,新規,0,2025-03-27,2025-03-27,合同会社エスケイ・インターナショナル,,合同会社,大阪府,大阪市東住吉区,湯里４丁目７番７号,,27,121,5460013,,,,,,,2025-03-27,1,,,,,エスケイインターナショナル,0
1758,8120901050628,新規,0,2025-03-27,2025-03-27,株式会社Ｆｉｘｅｓｓ,,株式会社,大阪府,茨木市,野々宮２丁目１１番１１号,,27,211,5670847,,,,,,,2025-03-27,1,,,,,フィクセス,0
1759,8120901050644,新規,0,2025-03-27,2025-03-27,株式会社Ｐｕｌｃｈｒａ　ｍｕｌｉｅｒ,,株式会社,大阪府,吹田市,岸部北２丁目１９－１８－３０１,,27,205,5640001,,,,,,,2025-03-27,1,,,,,プルクラムーリエ,0
1762,8122001039007,新規,0,2025-03-27,2025-03-27,Ｃセッツプロパティ株式会社,,株式会社,大阪府,八尾市,本町２丁目３番６号イースタンビル,,27,212,5810003,,,,,,,2025-03-27,1,,,,,シーセッツプロパティ,0
1769,8130001079278,新規,0,2025-03-27,2025-03-27,株式会社笑顔の芽,,株式会社,京都府,木津川市,木津南後背３７－２８,,26,214,6190214,,,,,,,2025-03-27,1,,,,,エガオノメ,0
1772,8130003010307,新規,0,2025-03-27,2025-03-27,合同会社ヴァリノール,,合同会社,京都府,京都市中京区,鉾田町２９９－２,,26,104,6040902,,,,,,,2025-03-27,1,,,,,ヴァリノール,0
1773,8130005017317,新規,0,2025-03-27,2025-03-27,一般社団法人葵京会,,その他の設立登記法人,京都府,京都市下京区,西洞院通正面下る鍛冶屋町４４９番地１,,26,106,6008329,,,,,,,2025-03-27,1,,,,,キキョウカイ,0
1776,8140001137869,新規,0,2025-03-27,2025-03-27,徳宝株式会社,,株式会社,兵庫県,神戸市中央区,栄町通３丁目６－２７－３３０２号室,,28,110,6500023,,,,,,,2025-03-27,1,,,,,トクホウ,0
1777,8140001137893,新規,0,2025-03-27,2025-03-27,株式会社大蔵,,株式会社,兵庫県,三田市,南が丘１丁目５０番３号,,28,219,6691535,,,,,,,2025-03-27,1,,,,,タイゾウ,0
1778,8140001137902,新規,0,2025-03-27,2025-03-27,株式会社ユニステップ,,株式会社,兵庫県,宝塚市,長尾町１番９号,,28,214,6650873,,,,,,,2025-03-27,1,,,,,ユニステップ,0
1781,8150001027986,新規,0,2025-03-27,2025-03-27,ＨＡＲＵＹＯ株式会社,,株式会社,奈良県,橿原市,内膳町３丁目７番２８号２号室,,29,205,6340804,,,,,,,2025-03-27,1,,,,,ハルヨ,0
1794,8180001166047,新規,0,2025-03-27,2025-03-27,株式会社ＳＴＵＤＩＯ　ＬＡＺＯＳ,,株式会社,愛知県,春日井市,稲口町３丁目５番地１８,,23,206,4860905,,,,,,,2025-03-27,1,,,,,スタジオラソス,0
1795,8180001166063,新規,0,2025-03-27,2025-03-27,株式会社キキョウリンク,,株式会社,愛知県,名古屋市熱田区,大宝１丁目１番１号ヴェルクレート日比野Ａ棟,,23,109,4560062,,,,,,,2025-03-27,1,,,,,キキョウリンク,0
1796,8180001166071,新規,0,2025-03-27,2025-03-27,株式会社ナレッジマーケティング,,株式会社,愛知県,名古屋市中村区,名駅４丁目２４番５号第２森ビル４０１,,23,105,4500002,,,,,,,2025-03-27,1,,,,,ナレッジマーケティング,0
1798,8180003028187,新規,0,2025-03-27,2025-03-27,合同会社ＫＯＹＯＳＡＭＯ,,合同会社,愛知県,名古屋市西区,児玉２丁目１７番１８号ー２５,,23,104,4510066,,,,,,,2025-03-27,1,,,,,コヨサモ,0
1805,8260001040037,新規,0,2025-03-27,2025-03-27,出製陶株式会社,,株式会社,岡山県,備前市,伊部９３１番地２,,33,211,7050001,,,,,,,2025-03-27,1,,,,,イズルセイトウ,0
1807,8270001009171,新規,0,2025-03-27,2025-03-27,株式会社パラドックス,,株式会社,鳥取県,米子市,尾高町１０５番地,,31,202,6830814,,,,,,,2025-03-27,1,,,,,パラドックス,0
1816,8290001109457,新規,0,2025-03-27,2025-03-27,株式会社ＳＶＪ,,株式会社,福岡県,筑紫野市,大字永岡２２８番地１－８０２号,,40,217,8180066,,,,,,,2025-03-27,1,,,,,エスブイジェイ,0
1820,8290003016593,新規,0,2025-03-27,2025-03-27,合同会社ｍｏｊｕｋｕ,,合同会社,福岡県,福岡市中央区,平尾２丁目５－８,,40,133,8100014,,,,,,,2025-03-27,1,,,,,モジュク,0
1821,8290003016602,新規,0,2025-03-27,2025-03-27,合同会社ｈｉｋｅｉ,,合同会社,福岡県,福岡市博多区,博多駅前１丁目２３番２号ＰａｒｋＦｒｏｎｔ博多駅前１丁目５Ｆ－Ｂ,,40,132,8120011,,,,,,,2025-03-27,1,,,,,,0
1822,8290005019685,新規,0,2025-03-27,2025-03-27,一般社団法人碧樹Ｂｉｏ　Ｓｏｃｉｅｔｙ,,その他の設立登記法人,福岡県,福岡市南区,野多目３丁目１番１号九州がんセンター内研修棟,,40,134,8111347,,,,,,,2025-03-27,1,,,,,ヘキジュバイオソサイエティー,0
1828,8320001021014,新規,0,2025-03-27,2025-03-27,株式会社ＳＫ　ＤＥＳＩＧＮ,,株式会社,大分県,大分市,望みが丘３６番地の１１,,44,201,8700270,,,,,,,2025-03-27,1,,,,,エスケーデザイン,0
1832,8360003014796,新規,0,2025-03-27,2025-03-27,合同会社ググラック,,合同会社,沖縄県,島尻郡南風原町,字兼城７２,,47,350,9011111,,,,,,,2025-03-27,1,,,,,ググラック,0
1837,8380001035181,新規,0,2025-03-27,2025-03-27,株式会社スマートコネクト,,株式会社,福島県,伊達市,保原町字四丁目１１番地１,,07,213,9600627,,,,,,,2025-03-27,1,,,,,スマートコネクト,0
1838,8420001019064,新規,0,2025-03-27,2025-03-27,株式会社ひつじ雲,,株式会社,青森県,弘前市,大字桜ケ丘１丁目８番地１３,,02,202,0368241,,,,,,,2025-03-27,1,,,,,ヒツジグモ,0
1839,8430001094008,新規,0,2025-03-27,2025-03-27,株式会社ｃｈｉｃ,,株式会社,北海道,千歳市,東雲町２丁目８番地ラコンフォルト２０５,,01,224,0660042,,,,,,,2025-03-27,1,,,,,シック,0
1840,8430001094016,新規,0,2025-03-27,2025-03-27,ＭＫＲ株式会社,,株式会社,北海道,札幌市白石区,東米里２５０２番４,,01,104,0030876,,,,,,,2025-03-27,1,,,,,エムケーアール,0
1841,8430001094024,新規,0,2025-03-27,2025-03-27,株式会社大谷商店,,株式会社,北海道,千歳市,福住１丁目２番地の６,,01,224,0660053,,,,,,,2025-03-27,1,,,,,オオタニショウテン,0
1843,8430003017429,新規,0,2025-03-27,2025-03-27,合同会社クッシー・プランニング,,合同会社,北海道,浦河郡浦河町,大通４丁目８番地２,,01,607,0570013,,,,,,,2025-03-27,1,,,,,クッシープランニング,0
1844,8430003017437,新規,0,2025-03-27,2025-03-27,合同会社ＡＫＥＭａトータルオフィス,,合同会社,北海道,滝川市,黄金町西３丁目３‐２８,,01,225,0730011,,,,,,,2025-03-27,1,,,,,アケマトータルオフィス,0
1846,8430005015190,新規,0,2025-03-27,2025-03-27,特定非営利活動法人ｎａｈｉｙａ,,その他の設立登記法人,北海道,札幌市東区,北十八条東１６丁目４番１－５０１号,,01,103,0650018,,,,,,,2025-03-27,1,,,,,ナヒヤ,0
1852,8500005008773,新規,0,2025-03-27,2025-03-27,一般社団法人鳥生地域食堂れんこん,,その他の設立登記法人,愛媛県,今治市,南鳥生町１丁目７番４号,,38,202,7940802,,,,,,,2025-03-27,1,,,,,トリウチイキショクドウレンコン,0
1853,8700150129321,新規,0,2025-03-27,2025-03-27,Ｓｅｒａｔｏ　Ｌｉｍｉｔｅｄ,,外国会社等,,,,,,,,Ｌｅｖｅｌ　２，８　Ｂｒｏｗｎ　Ｓｔｒｅｅｔ，Ｐｏｎｓｏｎｂｙ，Ａｕｃｋｌａｎｄ　１０１１，Ｎｅｗ　Ｚｅａｌａｎｄ,,,,,,2025-03-27,1,,,,,セラトリミテツド,0
1854,8700150129726,新規,0,2025-03-27,2025-03-27,ＨＯＯＬＡＩ　ＧＡＭＥ　ＬＩＭＩＴＥＤ,,外国会社等,,,,,,,,ＲＯＯＭ４０１，４／Ｆ．，ＷＡＮＣＨＡＩＣＥＮＴＲＡＬＢＵＩＬＤＩＮＧ，８９ＬＯＣＫＨＡＲＴ　ＲＯＡＤ，ＷＡＮＣＨＡＩ，ＨＫ,,,,,,2025-03-27,1,,,,,フーライゲームリミテツド,0
1855,8700150129734,新規,0,2025-03-27,2025-03-27,Ｅｖｅｒｎｏｔｅ　Ｃｏｒｐｏｒａｔｉｏｎ,,外国会社等,,,,,,,,４２３１　Ｂａｌｂｏａ　Ａｖｅ，＃１００８　Ｓａｎ　Ｄｉｅｇｏ　ＣＡ　９２１１７　Ｕｎｉｔｅｄ　Ｓｔａｔｅｓ,,,,,,2025-03-27,1,,,,,エバーノートコーポレーシヨン,0
1866,9010001253447,新規,0,2025-03-27,2025-03-27,ＳＭＣ０３０１株式会社,,株式会社,東京都,千代田区,丸の内１丁目１番２号,,13,101,1000005,,,,,,,2025-03-27,1,,,,,エスエムシーゼロサンゼロイチ,0
1867,9010001253455,新規,0,2025-03-27,2025-03-27,株式会社ＡＤ　ＰＲＯＤＵＣＴＳ,,株式会社,東京都,文京区,白山１丁目２１番７号,,13,105,1130001,,,,,,,2025-03-27,1,,,,,エィーディープロダクツ,0
1868,9010001253513,新規,0,2025-03-27,2025-03-27,株式会社Ｍ＆Ｋプラス,,株式会社,東京都,中央区,勝どき１丁目８番１－２９０５号,,13,102,1040054,,,,,,,2025-03-27,1,,,,,エムアンドケイプラス,0
1871,9010003046840,新規,0,2025-03-27,2025-03-27,ＭＵＮＫＨ光合同会社,,合同会社,東京都,中央区,銀座１丁目２２番１１号銀座大竹ビジデンス２Ｆ,,13,102,1040061,,,,,,,2025-03-27,1,,,,,ムンフヒカリ,0
1872,9010003046907,新規,0,2025-03-27,2025-03-27,マカロンホールディング合同会社,,合同会社,東京都,千代田区,丸の内１丁目４番１号東京共同会計事務所内,,13,101,1000005,,,,,,,2025-03-27,1,,,,,マカロンホールディング,0
1879,9010401189084,新規,0,2025-03-27,2025-03-27,サンダージャパン株式会社,,株式会社,東京都,港区,虎ノ門３丁目１５－５アルトヴィラ虎ノ門３０６,,13,103,1050001,,,,,,,2025-03-27,1,,,,,サンダージャパン,0
1880,9010401189159,新規,0,2025-03-27,2025-03-27,Ｓａｌｅｓ　Ｂｕｉｌｄｅｒ株式会社,,株式会社,東京都,港区,南青山３丁目１番３６号青山丸竹ビル６Ｆ,,13,103,1070062,,,,,,,2025-03-27,1,,,,,セールスビルダー,0
1881,9010403034692,新規,0,2025-03-27,2025-03-27,合同会社ＳＭＩＬＥ　ＣＲＥＡＴＩＯＮ,,合同会社,東京都,港区,南青山５丁目１２番１８号南青山ドミシル３０１,,13,103,1070062,,,,,,,2025-03-27,1,,,,,スマイルクリエーション,0
1882,9010403034701,新規,0,2025-03-27,2025-03-27,合同会社ＫＴＯ,,合同会社,東京都,港区,赤坂９丁目１番７赤坂レジデンシャルホテル３５５号室,,13,103,1070052,,,,,,,2025-03-27,1,,,,,ケーティーオー,0
1883,9010403034718,新規,0,2025-03-27,2025-03-27,霊源寺不動産合同会社,,合同会社,東京都,港区,六本木１丁目９番１０号アークヒルズ仙石山森タワー４０階エイペックスグループジャパン株式会社内,,13,103,1060032,,,,,,,2025-03-27,1,,,,,レイゲンジフドウサン,0
1884,9010403034734,新規,0,2025-03-27,2025-03-27,ＦＬＯＷ　Ｄｉｇｉｔａｌ　Ｊａｐａｎ合同会社,,合同会社,東京都,港区,虎ノ門２丁目６番１号,,13,103,1050001,,,,,,,2025-03-27,1,,,,,フロウデジタルジャパン,0
1902,9010801035961,新規,0,2025-03-27,2025-03-27,株式会社Ｕ３,,株式会社,東京都,大田区,南馬込３丁目２番８号,,13,111,1430025,,,,,,,2025-03-27,1,,,,,ユースリー,0
1908,9011001168395,新規,0,2025-03-27,2025-03-27,８０８株式会社,,株式会社,東京都,渋谷区,神宮前６丁目３５－３コープオリンピア７１６,,13,113,1500001,,,,,,,2025-03-27,1,,,,,エイトオーエイト,0
1909,9011001168420,新規,0,2025-03-27,2025-03-27,株式会社ａｏ　Ｎｅｘｕｓ,,株式会社,東京都,目黒区,上目黒３丁目９－５,,13,110,1530051,,,,,,,2025-03-27,1,,,,,アオネクサス,0
1910,9011001168734,新規,0,2025-03-27,2025-03-27,株式会社３３ｉｎｔｅｒｎａｔｉｏｎａｌ,,株式会社,東京都,渋谷区,千駄ヶ谷３丁目６２－７,,13,113,1510051,,,,,,,2025-03-27,1,,,,,サーティースリーインターナショナル,0
1911,9011003021197,新規,0,2025-03-27,2025-03-27,合同会社まがたま,,合同会社,東京都,目黒区,下目黒１丁目１番１４号コノトラビル７Ｆ,,13,110,1530064,,,,,,,2025-03-27,1,,,,,マガタマ,0
1913,9011501031862,新規,0,2025-03-27,2025-03-27,株式会社あゆみや,,株式会社,東京都,北区,田端新町１丁目１２番７号佐藤ビル１Ｆ,,13,117,1140012,,,,,,,2025-03-27,1,,,,,アユミヤ,0
1921,9012801023847,新規,0,2025-03-27,2025-03-27,株式会社オープンマインド,,株式会社,東京都,国立市,西１丁目８番地の２,,13,215,1860005,,,,,,,2025-03-27,1,,,,,オープンマインド,0
1922,9013103001426,新規,0,2025-03-27,2025-03-27,Ｊ．Ｂ．Ｃｏｒｐｏｒａｔｉｏｎ合同会社,,合同会社,東京都,福生市,大字熊川１６５８番地１４村越コーポ２０３号室,,13,218,1970003,,,,,,,2025-03-27,1,,,,,ジェイビーコーポレーション,0
1926,9020001162036,新規,0,2025-03-27,2025-03-27,株式会社ＩＣ　Ａｓｓｅｔ　Ｍａｎａｇｅｍｅｎｔ,,株式会社,神奈川県,横浜市中区,桜木町１丁目１番地８,,14,104,2310062,,,,,,,2025-03-27,1,,,,,アイシーアセットマネジメント,0
1927,9020001162044,新規,0,2025-03-27,2025-03-27,株式会社ＳＲビル,,株式会社,神奈川県,横浜市港北区,篠原町１１１３番地,,14,109,2220026,,,,,,,2025-03-27,1,,,,,エスアールビル,0
1938,9030001165616,新規,0,2025-03-27,2025-03-27,株式会社ＯＳＫ山下システム開発,,株式会社,埼玉県,上尾市,西宮下４丁目４３５番地１シャーメゾン１４８Ｄ１０１,,11,219,3620043,,,,,,,2025-03-27,1,,,,,オーエスケーヤマシタシステムカイハツ,0
1946,9030005022094,新規,0,2025-03-27,2025-03-27,医療法人社団祐智会,,その他の設立登記法人,埼玉県,越谷市,宮前１丁目５番地２１,,11,222,3430014,,,,,,,2025-03-27,1,,,,,ユウチカイ,0
1953,9040001137936,新規,0,2025-03-27,2025-03-27,株式会社迪の途中,,株式会社,千葉県,野田市,尾崎１７１９－１,,12,208,2700235,,,,,,,2025-03-27,1,,,,,ミチノトチュウ,0
1954,9040001138001,新規,0,2025-03-27,2025-03-27,リアール株式会社,,株式会社,千葉県,船橋市,三咲１丁目３－８７,,12,204,2740812,,,,,,,2025-03-27,1,,,,,リアール,0
1959,9040003027185,新規,0,2025-03-27,2025-03-27,オトオフィス合同会社,,合同会社,千葉県,市川市,北国分２丁目２４番１７号,,12,203,2720836,,,,,,,2025-03-27,1,,,,,オトオフィス,0
1961,9050001056391,新規,0,2025-03-27,2025-03-27,株式会社ユニオンブックス,,株式会社,茨城県,龍ケ崎市,姫宮町２５３番地１－１Ｆ－Ｄ,,08,208,3010017,,,,,,,2025-03-27,1,,,,,ユニオンブックス,0
1962,9050003009141,新規,0,2025-03-27,2025-03-27,ＬＭ　ＴＲＡＤＩＮＧ合同会社,,合同会社,茨城県,常総市,大塚戸町７９０番地１,,08,211,3030045,,,,,,,2025-03-27,1,,,,,エルエムトレーディング,0
1963,9050005013587,新規,0,2025-03-27,2025-03-27,医療法人ゆずの木会,,その他の設立登記法人,茨城県,取手市,寺田４７２５番地１,,08,217,3020021,,,,,,,2025-03-27,1,,,,,ユズノキカイ,0
1979,9120001273500,新規,0,2025-03-27,2025-03-27,株式会社ａｏｍａ,,株式会社,大阪府,大阪市中央区,久太郎町３丁目４番２号,,27,128,5410056,,,,,,,2025-03-27,1,,,,,アオマ,0
1980,9120001273946,新規,0,2025-03-27,2025-03-27,徽盛堂株式会社,,株式会社,大阪府,大阪市此花区,島屋２丁目６番１８号２Ｆ,,27,104,5540024,,,,,,,2025-03-27,1,,,,,キセイドウ,0
1981,9120001273970,新規,0,2025-03-27,2025-03-27,ＦＯＸ株式会社,,株式会社,大阪府,大阪市東淀川区,東中島４丁目１番１１－７０１号,,27,114,5330033,,,,,,,2025-03-27,1,,,,,フォックス,0
1982,9120001273987,新規,0,2025-03-27,2025-03-27,勁野国際株式会社,,株式会社,大阪府,大阪市中央区,内平野町２丁目４番５号内平野町中央ビル７階,,27,128,5400037,,,,,,,2025-03-27,1,,,,,ケイヤコクサイ,0
1983,9120001274028,新規,0,2025-03-27,2025-03-27,株式会社先進貿易,,株式会社,大阪府,大阪市中央区,高津３丁目１４番３４号,,27,128,5420072,,,,,,,2025-03-27,1,,,,,ソンジンボウエキ,0
1993,9120901050619,新規,0,2025-03-27,2025-03-27,株式会社美津和,,株式会社,大阪府,吹田市,大字佐井寺３６９３番地,,27,205,5640000,,,,,,,2025-03-27,1,,,,,ミツワ,0
1995,9122001039006,新規,0,2025-03-27,2025-03-27,ｋｏＹｏ株式会社,,株式会社,大阪府,東大阪市,池島町３丁目８番２１号,,27,227,5798064,,,,,,,2025-03-27,1,,,,,コーヨ,0
2008,9140001137802,新規,0,2025-03-27,2025-03-27,大阪ロボットプログラミング学習株式会社,,株式会社,兵庫県,三田市,けやき台４丁目２１番地１２,,28,219,6691321,,,,,,,2025-03-27,1,,,,,オオサカロボットプログラミングガクシュウ,0
2009,9140001137868,新規,0,2025-03-27,2025-03-27,ＬｕｍｉｎｏｕｓＺｅｓｔ株式会社,,株式会社,兵庫県,神戸市中央区,筒井町３丁目３番１２号ライオンズマンション生田川東１００４,,28,110,6510071,,,,,,,2025-03-27,1,,,,,,0
2010,9140001137892,新規,0,2025-03-27,2025-03-27,株式会社ＢＲＵＮ　ＤＯＮＵＴＳ,,株式会社,兵庫県,神戸市灘区,桜口町５丁目１番１号ウェルブ六甲５番街１１８,,28,102,6570036,,,,,,,2025-03-27,1,,,,,ブランドーナツ,0
2016,9140003021830,新規,0,2025-03-27,2025-03-27,Ａｎｄｉｃｏｎ合同会社,,合同会社,兵庫県,神戸市東灘区,住吉本町１丁目１３－２２－３０８,,28,101,6580051,,,,,,,2025-03-27,1,,,,,アンドアイコン,0
2021,9180001166070,新規,0,2025-03-27,2025-03-27,株式会社ＷＡＮ,,株式会社,愛知県,名古屋市中区,千代田３丁目２４番２０号フジビル,,23,106,4600012,,,,,,,2025-03-27,1,,,,,ワン,0
2028,9180003028203,新規,0,2025-03-27,2025-03-27,クラブエージェント合同会社,,合同会社,愛知県,名古屋市瑞穂区,大喜町１丁目５番地７,,23,108,4670822,,,,,,,2025-03-27,1,,,,,クラブエージェント,0
2031,9200005013737,新規,0,2025-03-27,2025-03-27,一般社団法人ロビンホールディングス,,その他の設立登記法人,岐阜県,岐阜市,正木中４丁目１０番３５号,,21,201,5020882,,,,,,,2025-03-27,1,,,,,ロビンホールディングス,0
2047,9260001040044,新規,0,2025-03-27,2025-03-27,スタートラインデザイン株式会社,,株式会社,岡山県,岡山市南区,並木町１丁目５番３号,,33,104,7028058,,,,,,,2025-03-27,1,,,,,スタートラインデザイン,0
2053,9290001109464,新規,0,2025-03-27,2025-03-27,株式会社ＳＵＮ　ＴＯＵＲ,,株式会社,福岡県,福岡市中央区,草香江２丁目１３－２０－４０４,,40,133,8100045,,,,,,,2025-03-27,1,,,,,サンツアー,0
2054,9290003016592,新規,0,2025-03-27,2025-03-27,ｆｕｔｕｒ合同会社,,合同会社,福岡県,福岡市中央区,天神４丁目６－２８天神ファーストビル７階,,40,133,8100001,,,,,,,2025-03-27,1,,,,,フュテュール,0
2055,9290005019684,新規,0,2025-03-27,2025-03-27,土地家屋調査士法人東測,,その他の設立登記法人,福岡県,福岡市博多区,麦野１丁目１番１０号,,40,132,8120882,,,,,,,2025-03-27,1,,,,,トウソク,0
2058,9300001014126,新規,0,2025-03-27,2025-03-27,ＤＫホールディングス株式会社,,株式会社,佐賀県,唐津市,浜玉町平原甲１３４１－１,,41,202,8495112,,,,,,,2025-03-27,1,,,,,ディーケーホールディングス,0
2060,9310001019512,新規,0,2025-03-27,2025-03-27,株式会社エステート・プラス,,株式会社,長崎県,雲仙市,愛野町乙２１４４番地１,,42,213,8540302,,,,,,,2025-03-27,1,,,,,エステートプラス,0
2061,9310003004974,新規,0,2025-03-27,2025-03-27,三友合同会社,,合同会社,長崎県,長崎市,出島町１２番１号ひまわりビル２Ｆ,,42,201,8500862,,,,,,,2025-03-27,1,,,,,サンユウ,0
2063,9320001021013,新規,0,2025-03-27,2025-03-27,株式会社ＯＴＧ講習センター,,株式会社,大分県,大分市,大字皆春４７１番地の４,,44,201,8700131,,,,,,,2025-03-27,1,,,,,オーティージーコウシュウセンター,0
2071,9370003006998,新規,0,2025-03-27,2025-03-27,ＮＳＫ合同会社,,合同会社,宮城県,仙台市青葉区,立町１４番３号パリスビル３０３,,04,101,9800822,,,,,,,2025-03-27,1,,,,,エヌエスケー,0
2075,9380001035180,新規,0,2025-03-27,2025-03-27,株式会社ＹＯＵ＆ＡＩ,,株式会社,福島県,会津若松市,大町１丁目６番１７号田崎ビル３Ｆ,,07,202,9650042,,,,,,,2025-03-27,1,,,,,ユーアンドアイ,0
2078,9380003005999,新規,0,2025-03-27,2025-03-27,ＢＥＥＲ　ＭＡＲＴ合同会社,,合同会社,福島県,二本松市,向原２６８番地７サンハイツ２０２号,,07,210,9640916,,,,,,,2025-03-27,1,,,,,ビアマート,0
2083,9430001093990,新規,0,2025-03-27,2025-03-27,ユーロゲート株式会社,,株式会社,北海道,札幌市西区,発寒八条１４丁目５１６番地２９３,,01,107,0630828,,,,,,,2025-03-27,1,,,,,ユーロゲート,0
2085,9430003017436,新規,0,2025-03-27,2025-03-27,合同会社ｗｉｔｈ　ｍｅ,,合同会社,北海道,札幌市手稲区,星置三条７丁目６番１５号,,01,109,0060853,,,,,,,2025-03-27,1,,,,,ウィズミー,0
2093,9700150129527,新規,0,2025-03-27,2025-03-27,Ｓｕｚｈｏｕ　Ｚｈｏｕｔｏｎｇｗｅｎ　Ｔｒａｄｉｎｇ　Ｃｏ．，Ｌｔｄ．,,外国会社等,,,,,,,,５０２，Ｃｈｉｎａ　Ａｕｔｏ　Ｚｅｒｏ　Ｂｕｉｌｄｉｎｇ，Ｎｏ．１９，Ａｉｇｅｈａｏ　Ｒｏａｄ，Ｗｅｉｔａｎｇ　Ｔｏｗｎ，Ｘｉａｎｇｃｈｅｎｇ　Ｄｉｓｔｒｉｃｔ，Ｓｕｚｈｏｕ，Ｃｈｉｎａ,,,,,,2025-03-27,1,,,,,ソシユウシユウドウブンボウエキユウゲンコウシ,0
2094,9700150129634,新規,0,2025-03-27,2025-03-27,Ｓｕｚｈｏｕ　Ｚｈｉｊｉａ　ｂｒａｎｄ　ｍａｎａｇｅｍｅｎｔ　Ｃｏ．Ｌｔｄ,,外国会社等,,,,,,,,Ｒｏｏｍ　９０１，７１０　Ｚｈｏｎｇｙｕａｎ　ｒｄ，Ｓｕｚｈｏｕ　ｉｎｄｕｓｔｒｉａｌ　ｐａｒｋ，Ｓｕｚｈｏｕ，Ｊｉａｎｇｓｕ，Ｃｈｉｎａ,,,,,,2025-03-27,1,,,,,ソシユウチカヒンハイカンリユウゲンコウシ,0
2095,9700150129717,新規,0,2025-03-27,2025-03-27,Ｇｕａｎｇｚｈｏｕｑｉｎｇｙｉｍａｏｙｉｙｏｕｘｉａｎｇｏｎｇｓｉ,,外国会社等,,,,,,,,Ｇｕａｎｇｄｏｎｇｓｈｅｎｇｇｕａｎｇｚｈｏｕｓｈｉｚｅｎｇｃｈｅｎｇｑｕｘｉｎｔａｎｇｚｈｅｎｍａｏｓｈａｎｄａｄａｏ６２ｈａｏｚｈｉ２（ｃｈａｎｇｆａｎｇＡ２）ｗｕｌｏｕ５１７,,,,,,2025-03-27,1,,,,,グワンジョウチンイーマオイーヨウシエンゴンスー,0
2096,9700150129725,新規,0,2025-03-27,2025-03-27,ＲＥＮＡＵＬＴ　ＳＡ,,外国会社等,,,,,,,,１２２－１２２　Ｂｉｓ　Ａｖｅｎｕｅ　ｄｕ　Ｇｅｎｅｒａｌ　Ｌｅｃｌｅｒｃ　９２１００　Ｂｏｕｌｏｇｎｅ－Ｂｉｌｌａｎｃｏｕｒｔ,,,,,,2025-03-27,1,,,,,ルノー,0
2097,9700150129733,新規,0,2025-03-27,2025-03-27,Ｔｈｅ　Ｆｏｕｎｄｅｒｓ　Ｉｎｃ．,,外国会社等,,,,,,,,８Ｆ，１０Ｆ，Ｐａｒｎａｓ　Ｔｏｗｅｒ，５２１，Ｔｅｈｅｒａｎ－ｒｏ，Ｇａｎｇｎａｍ－ｇｕ，Ｓｅｏｕｌ，Ｒｅｐｕｂｌｉｃ　ｏｆ　Ｋｏｒｅａ,,,,,,2025-03-27,1,,,,,ザフアウンダーズインク,0
2098,9700150129741,新規,0,2025-03-27,2025-03-27,ｇａｎｚｈｏｕｑｕｇｕａｎｇｇｕａｎｇｄｉａｎｚｉｓｈａｎｇｗｕｙｏｕｘｉａｎｇｏｎｇｓｉ,,外国会社等,,,,,,,,ｚｈａｎｇｇｏｎｇｑｕｙａｎｇｇｏｎｇｌｕ１ｈａｏｊｉｎｚｕｎｈｕａｙｕａｎ１２ｈａｏｌｏｕ６ｈａｏｃｈｅｋｕ　ｇａｎｚｈｏｕｓｈｉ　ｊｉａｎｇｘｉｓｈｅｎｇ　３４１０００　ＣＮ,,,,,,2025-03-27,1,,,,,ガンジョウチュイグワーングワーンディエンズーシャーンウーヨウシエンゴーンスー,0
