sequenceNumber,corporateNumber,process,correct,updateDate,changeDate,name,nameImageId,kind,prefectureName,cityName,streetNumber,addressImageId,prefectureCode,cityCode,postCode,addressOutside,addressOutsideImageId,closeDate,closeCause,successorCorporateNumber,changeCause,assignmentDate,latest,enName,enPrefectureName,enCityName,enAddressOutside,furigana,hihyoji
8,1010002040001,登記記録の閉鎖等,0,2025-05-09,2025-04-07,有限会社オフィスアールワン,,有限会社,東京都,文京区,弥生２丁目２０番６号,,13,105,1130032,,,2025-04-07,清算の結了等,,,2015-10-05,1,,,,,オフィスアールワン,0
20,1010401008433,登記記録の閉鎖等,0,2025-05-09,2025-05-01,株式会社クリア,,株式会社,東京都,世田谷区,代沢４丁目５番１７号,,13,112,1550032,,,2025-05-01,合併による解散等,2010901033335,令和７年５月１日東京都世田谷区代沢四丁目５番１７号株式会社方丈（2010901033335）に合併し解散,2015-10-05,1,,,,,クリア,0
24,1010401146951,登記記録の閉鎖等,0,2025-05-09,2025-04-30,Ｏｎｅ　Ｂｅｙｏｎｄ株式会社,,株式会社,東京都,世田谷区,玉川田園調布１丁目１０番７号,,13,112,1580085,,,2025-04-30,清算の結了等,,,2019-07-24,1,,,,,ワンビヨンド,0
72,1013102003208,登記記録の閉鎖等,0,2025-05-09,2025-05-07,有限会社山河建設,,有限会社,東京都,西多摩郡瑞穂町,大字殿ケ谷８３１番地６,,13,303,1901212,,,2025-05-07,清算の結了等,,,2015-10-05,1,,,,,サンガケンセツ,0
76,1020001021604,登記記録の閉鎖等,0,2025-05-09,2025-05-01,株式会社フォレスタ,,株式会社,神奈川県,横浜市港北区,新横浜２丁目５番２２号エクセレントプラザ新横浜５０２号,,14,109,2220033,,,2025-05-01,清算の結了等,,,2015-10-05,1,,,,,フォレスタ,0
106,1030002006883,登記記録の閉鎖等,0,2025-05-09,2025-05-02,有限会社眞後螺子製作所,,有限会社,埼玉県,さいたま市見沼区,染谷３丁目４６７番地,,11,104,3370026,,,2025-05-02,清算の結了等,,,2015-10-05,1,,,,,シンゴネジセイサクショ,0
107,1030002056937,登記記録の閉鎖等,0,2025-05-09,2025-04-30,有限会社オクタルプロダクツ,,有限会社,埼玉県,上尾市,大字瓦葺１９５４－１７,,11,219,3620022,,,2025-04-30,清算の結了等,,,2015-10-05,1,,,,,オクタルプロダクツ,0
126,1050002037794,登記記録の閉鎖等,0,2025-05-09,2025-04-28,有限会社塚本興商,00023193,有限会社,茨城県,牛久市,女化町３４３番地,,08,219,3001214,,,2025-04-28,清算の結了等,,,2015-10-05,1,,,,,ツカモトコウショウ,0
129,1060001009769,登記記録の閉鎖等,0,2025-05-09,2025-04-30,関東食研株式会社,,株式会社,栃木県,真岡市,小林６３２番地２,,09,209,3214321,,,2025-04-30,清算の結了等,,,2015-10-05,1,,,,,カントウショッケン,0
166,1120005016292,登記記録の閉鎖等,0,2025-05-09,2025-05-07,ＮＰＯ法人環境と福祉に貢献する会,,その他の設立登記法人,大阪府,枚方市,津田山手２丁目１８番１号,,27,210,5730128,,,2025-05-07,清算の結了等,,,2015-10-05,1,,,,,カンキョウトフクシニコウケンスルカイ,0
177,1130001020090,登記記録の閉鎖等,0,2025-05-09,2025-05-02,株式会社閻浮提,,株式会社,京都府,京都市下京区,松原通大宮西入坊門町８４５番地,,26,106,6008388,,,2025-05-02,清算の結了等,,,2015-10-05,1,,,,,エンブダイ,0
189,1140001136927,登記記録の閉鎖等,0,2025-05-09,2025-04-28,株式会社Ｃａｒｅ拓,,株式会社,兵庫県,高砂市,米田町米田３５８番２,,28,216,6760805,,,2025-04-28,清算の結了等,,,2025-01-06,1,,,,,ケアヒラク,0
207,1170002005673,登記記録の閉鎖等,0,2025-05-09,2025-05-07,有限会社ハシモト商会,,有限会社,和歌山県,和歌山市,吹屋町２丁目９３番地,,30,201,6408324,,,2025-05-07,清算の結了等,,,2015-10-05,1,,,,,ハシモトショウカイ,0
221,1180005014860,登記記録の閉鎖等,0,2025-05-09,2025-05-08,特定非営利活動法人中部コーチング連盟,,その他の設立登記法人,愛知県,名古屋市瑞穂区,薩摩町１丁目３１番地の２,00133056,23,108,4670812,,,2025-05-08,清算の結了等,,,2015-10-05,1,,,,,チュウブコーチングレンメイ,0
222,1180301017518,登記記録の閉鎖等,0,2025-05-09,2025-05-07,株式会社プラスケア,,株式会社,愛知県,高浜市,八幡町４丁目８番地５２,,23,227,4441302,,,2025-05-07,清算の結了等,,,2015-10-05,1,,,,,プラスケア,0
226,1180302003723,登記記録の閉鎖等,0,2025-05-09,2025-04-28,有限会社トキオ,,有限会社,愛知県,岡崎市,戸崎町字辻２３番地３,00074889,23,202,4440840,,,2025-04-28,清算の結了等,,,2015-10-05,1,,,,,トキオ,0
233,1200002000373,登記記録の閉鎖等,0,2025-05-09,2025-05-01,有限会社位田総研,,有限会社,岐阜県,岐阜市,西川手８丁目３８番地,,21,201,5008258,,,2025-05-01,清算の結了等,,,2015-10-05,1,,,,,イダソウケン,0
236,1200005013678,登記記録の閉鎖等,0,2025-05-09,2025-05-01,一般社団法人いろいろ,,その他の設立登記法人,岐阜県,各務原市,尾崎西町５丁目９番地,,21,213,5040004,,,2025-05-01,清算の結了等,,,2024-11-05,1,,,,,イロイロ,0
264,1320003002621,登記記録の閉鎖等,0,2025-05-09,2025-04-28,ＢＲＩＤＧＥ合同会社,,合同会社,大分県,臼杵市,大字臼杵６５２番地陶山ビル２階,,44,206,8750041,,,2025-04-28,清算の結了等,,,2017-06-15,1,,,,,ブリッジ,0
266,1330002027263,登記記録の閉鎖等,0,2025-05-09,2025-04-30,有限会社太陽,,有限会社,熊本県,八代市,松江城町３番１３号,,43,202,8660862,,,2025-04-30,清算の結了等,,,2015-10-05,1,,,,,タイヨウ,0
280,1410001012984,登記記録の閉鎖等,0,2025-05-09,2025-05-01,株式会社きららライフクリエーション,,株式会社,秋田県,秋田市,大町２丁目５番１号,,05,201,0100921,,,2025-05-01,合併による解散等,2410002002356,令和７年５月１日秋田市大町二丁目５番１号株式会社きららホールディングス（2410002002356）に合併し解散,2021-10-06,1,,,,,キララライフクリエーション,0
284,1430001046618,登記記録の閉鎖等,0,2025-05-09,2025-04-30,株式会社ヒマワリ靴店,,株式会社,北海道,岩見沢市,二条西３丁目３番地,,01,210,0680022,,,2025-04-30,清算の結了等,,,2015-10-05,1,,,,,ヒマワリクツテン,0
302,1480001005420,登記記録の閉鎖等,0,2025-05-09,2025-04-30,株式会社サンテック,,株式会社,徳島県,徳島市,上八万町西山１３３３番地,,36,201,7708041,,,2025-04-30,清算の結了等,,,2015-10-05,1,,,,,サンテック,0
315,2010002007296,登記記録の閉鎖等,0,2025-05-09,2025-04-15,有限会社池久洋服店,,有限会社,東京都,千代田区,神田小川町３丁目１６番地,,13,101,1010052,,,2025-04-15,清算の結了等,,,2015-10-05,1,,,,,イケキュウヨウフクテン,0
325,2010401051572,登記記録の閉鎖等,0,2025-05-09,2025-04-30,ＡＭＣＯエンジニアリング株式会社,,株式会社,長崎県,長崎市,弁天町１番１１号,,42,201,8528002,,,2025-04-30,合併による解散等,6020001024833,令和７年４月１日横浜市西区岡野二丁目８番１３号日本フィールド＆マリンエンジニアリング株式会社（6020001024833）に合併し解散,2015-10-05,1,,,,,アムコエンジニアリング,0
330,2010401095140,登記記録の閉鎖等,0,2025-05-09,2025-04-07,株式会社トップス,,株式会社,東京都,港区,赤坂７丁目１１番１０号,,13,103,1070052,,,2025-04-07,清算の結了等,,,2015-10-05,1,,,,,,0
332,2010401148815,登記記録の閉鎖等,0,2025-05-09,2025-04-17,株式会社ＤＯＩ　ＴＲＵＳＴ,,株式会社,東京都,世田谷区,奥沢８丁目２６番５号,,13,112,1580083,,,2025-04-17,合併による解散等,5010401019360,令和７年３月２０日東京都渋谷区恵比寿西一丁目３３番６号ＪＰ　ｎｏｉｅ恵比寿西１Ｆ株式会社ＤＯＩ　ＨＯＬＤＩＮＧＳ（5010401019360）に合併し解散,2019-10-30,1,,,,,ドイトラスト,0
336,2010402031210,登記記録の閉鎖等,0,2025-05-09,2025-04-07,有限会社ブレインキャスト,,有限会社,東京都,港区,南青山２丁目２番１５号,,13,103,1070062,,,2025-04-07,清算の結了等,,,2015-10-05,1,,,,,,0
338,2010405018221,登記記録の閉鎖等,0,2025-05-09,2025-04-07,東京さくらホールディング２一般社団法人,,その他の設立登記法人,東京都,港区,虎ノ門３丁目２２番１０－２０１号,,13,103,1050001,,,2025-04-07,清算の結了等,,,2019-10-31,1,,,,,トウキョウサクラホールディングツー,0
339,2010501005833,登記記録の閉鎖等,0,2025-05-09,2025-04-15,株式会社ティスコ,,株式会社,埼玉県,川越市,大字大仙波３４０番地１,,11,201,3500032,,,2025-04-15,合併による解散等,8010001250016,令和７年４月１日東京都千代田区大手町一丁目３番１号ＮＣＣＡＰ１‐２株式会社（8010001250016）に合併し解散,2015-10-05,1,,,,,ティスコ,0
362,2011101007939,登記記録の閉鎖等,0,2025-05-09,2025-04-11,株式会社サンテック,,株式会社,東京都,新宿区,新宿２丁目５番１１号,,13,104,1600022,,,2025-04-11,清算の結了等,,,2015-10-05,1,,,,,サンテック,0
387,2012805001500,登記記録の閉鎖等,0,2025-05-09,2025-04-24,一般社団法人環境事業整備機構,,その他の設立登記法人,東京都,立川市,羽衣町２丁目４５番１１号,,13,202,1900021,,,2025-04-24,清算の結了等,,,2015-10-05,1,,,,,カンキョウジギョウセイビキコウ,0
390,2020001057060,登記記録の閉鎖等,0,2025-05-09,2025-04-30,株式会社システムマーク,,株式会社,神奈川県,横浜市港南区,日限山３丁目２９番３号,,14,111,2330015,,,2025-04-30,清算の結了等,,,2015-10-05,1,,,,,システムマーク,0
393,2020001120041,登記記録の閉鎖等,0,2025-05-09,2025-04-30,株式会社ＢＥＬＬ,,株式会社,神奈川県,横浜市港北区,綱島西４丁目６番５号,,14,109,2230053,,,2025-04-30,合併による解散等,1020001086597,令和７年４月３０日横浜市港北区綱島西四丁目６番５号株式会社マルコウ（1020001086597）に合併し解散,2017-02-21,1,,,,,ベル,0
395,2020001153396,登記記録の閉鎖等,0,2025-05-09,2025-04-22,株式会社Ａ‐ＺＡＮ,,株式会社,神奈川県,横浜市中区,仲尾台７９番地ヒルトップテラス１０１号室,,14,104,2310839,,,2025-04-22,清算の結了等,,,2023-09-06,1,,,,,エイザン,0
401,2020002008038,登記記録の閉鎖等,0,2025-05-09,2025-04-18,有限会社小山設備事務所,,有限会社,神奈川県,横浜市金沢区,野島町４番１号,,14,108,2360025,,,2025-04-18,清算の結了等,,,2015-10-05,1,,,,,コヤマセツビジムショ,0
402,2020002048546,登記記録の閉鎖等,0,2025-05-09,2025-04-30,有限会社魚政,,有限会社,神奈川県,横浜市保土ケ谷区,権太坂１丁目４９番１１号,,14,106,2400026,,,2025-04-30,清算の結了等,,,2015-10-05,1,,,,,ウオマサ,0
407,2021001025024,登記記録の閉鎖等,0,2025-05-09,2025-05-07,株式会社荻窪屋根工事,,株式会社,神奈川県,大和市,深見東２丁目１番２４号,,14,213,2420012,,,2025-05-07,清算の結了等,,,2015-10-05,1,,,,,オギクボヤネコウジ,0
434,2040001073221,登記記録の閉鎖等,0,2025-05-09,2025-05-01,株式会社匠コーポレーション,,株式会社,千葉県,浦安市,堀江１丁目３３番６号,,12,227,2790041,,,2025-05-01,清算の結了等,,,2015-10-05,1,,,,,タクミコーポレーション,0
444,2040005001054,登記記録の閉鎖等,0,2025-05-09,2025-04-18,医療法人社団四輝会,,その他の設立登記法人,千葉県,千葉市美浜区,磯辺６丁目５番３号,,12,106,2610012,,,2025-04-18,清算の結了等,,,2015-10-05,1,,,,,シキカイ,0
445,2050001034172,登記記録の閉鎖等,0,2025-05-09,2025-04-28,根柄株式会社,,株式会社,茨城県,石岡市,嘉良寿理２０７番地,,08,205,3150114,,,2025-04-28,清算の結了等,,,2015-10-05,1,,,,,ネガラ,0
453,2060001022333,登記記録の閉鎖等,0,2025-05-09,2025-04-25,株式会社清英,,株式会社,栃木県,宇都宮市,平松本町３２５－４,,09,201,3210932,,,2025-04-25,清算の結了等,,,2015-10-05,1,,,,,セイエイ,0
456,2070001015435,登記記録の閉鎖等,0,2025-05-09,2025-04-30,株式会社メタルメガ炭素研究所,,株式会社,群馬県,伊勢崎市,山王町３０３番地,,10,204,3720831,,,2025-04-30,清算の結了等,,,2015-10-05,1,,,,,メタルメガタンソケンキュウショ,0
459,2070002014667,登記記録の閉鎖等,0,2025-05-09,2025-05-01,有限会社エキスパート東邦,,有限会社,群馬県,安中市,中宿１４４３番地,,10,211,3790115,,,2025-05-01,清算の結了等,,,2015-10-05,1,,,,,エキスパートトウホウ,0
467,2080402000621,登記記録の閉鎖等,0,2025-05-09,2025-04-30,有限会社飯田モータース,,有限会社,静岡県,浜松市中央区,篠ケ瀬町１２６２番地の２丸日マンション３０１号,,22,138,4350042,,,2025-04-30,清算の結了等,,,2015-10-05,1,,,,,イイダモータース,0
468,2100001035487,登記記録の閉鎖等,0,2025-05-09,2025-05-02,医療ソリューション株式会社,,株式会社,長野県,北佐久郡軽井沢町,大字長倉２８８５番地１４,,20,321,3890111,,,2025-05-02,清算の結了等,,,2022-07-06,1,,,,,イリョウソリューション,0
475,2120001001479,登記記録の閉鎖等,0,2025-05-09,2025-05-01,ベルスタッフ大阪販売株式会社,,株式会社,大阪府,大阪市鶴見区,鶴見３丁目６番２１号,,27,124,5380053,,,2025-05-01,合併による解散等,6120001063243,令和７年５月１日大阪府守口市八雲東町一丁目２１番１０号近畿いすゞ自動車販売株式会社（6120001063243）に合併し解散,2015-10-05,1,,,,,ベルスタッフオオサカハンバイ,0
476,2120001049320,登記記録の閉鎖等,0,2025-05-09,2025-05-01,オートスタッフ大阪株式会社,,株式会社,大阪府,大阪市西淀川区,中島２丁目１０番１５０号,,27,113,5550041,,,2025-05-01,合併による解散等,6120001063243,令和７年５月１日大阪府守口市八雲東町一丁目２１番１０号近畿いすゞ自動車販売株式会社（6120001063243）に合併し解散,2015-10-05,1,,,,,オートスタッフオオサカ,0
502,2130002034543,登記記録の閉鎖等,0,2025-05-09,2025-05-01,有限会社秀吉丸,00038010,有限会社,京都府,舞鶴市,字魚屋２９６番地,,26,202,6240923,,,2025-05-01,清算の結了等,,,2015-10-05,1,,,,,ヒデヨシマル,0
504,2140001073129,登記記録の閉鎖等,0,2025-05-09,2025-05-01,ハウスプラウド株式会社,,株式会社,大阪府,大阪市阿倍野区,帝塚山１丁目１７番１７号,,27,119,5450037,,,2025-05-01,清算の結了等,,,2015-10-05,1,,,,,ハウスプラウド,0
505,2140001074218,登記記録の閉鎖等,0,2025-05-09,2025-04-30,株式会社Ｒｏｓｅ　ｂｌａｎｃｈｅ,,株式会社,兵庫県,神戸市中央区,旭通４丁目１－３－２０１１,,28,110,6510095,,,2025-04-30,清算の結了等,,,2015-10-05,1,,,,,ローズブランシュ,0
519,2170005003062,登記記録の閉鎖等,0,2025-05-09,2025-05-07,農事組合法人打田町近代化施設園芸組合,,その他の設立登記法人,和歌山県,紀の川市,西大井５５１番地の１,,30,208,6496417,,,2025-05-07,清算の結了等,,,2015-10-05,1,,,,,ウチタチョウキンダイカシセツエンゲイクミアイ,0
531,2180002027220,登記記録の閉鎖等,0,2025-05-09,2025-05-01,有限会社エスアンドケイ,,有限会社,愛知県,名古屋市中村区,太閤通９丁目１９番地,,23,105,4530811,,,2025-05-01,清算の結了等,,,2015-10-05,1,,,,,エスアンドケイ,0
569,2320001000915,登記記録の閉鎖等,0,2025-05-09,2025-04-28,株式会社キュウレイ,,株式会社,大分県,大分市,弁天町二丁目５番３８号,,44,201,8700100,,,2025-04-28,清算の結了等,,,2015-10-05,1,,,,,,0
570,2320002003470,登記記録の閉鎖等,0,2025-05-09,2025-04-24,有限会社秀栄建設,,有限会社,大分県,大分市,大字端登３５８１番地,,44,201,8797502,,,2025-04-24,清算の結了等,,,2015-10-05,1,,,,,,0
574,2330002015655,登記記録の閉鎖等,0,2025-05-09,2025-04-30,有限会社ツインサークル,,有限会社,熊本県,熊本市東区,健軍４丁目１４番４号,,43,102,8620911,,,2025-04-30,清算の結了等,,,2015-10-05,1,,,,,ツインサークル,0
579,2340003002783,登記記録の閉鎖等,0,2025-05-09,2025-05-02,Ｕｉｓｅｔｈ合同会社,,合同会社,鹿児島県,肝属郡錦江町,神川３５９８番地,,46,490,8932301,,,2025-05-02,清算の結了等,,,2019-03-18,1,,,,,ユアース,0
587,2400005002949,登記記録の閉鎖等,0,2025-05-09,2025-04-01,公益財団法人総合花巻病院,,その他の設立登記法人,岩手県,花巻市,御田屋町４番５６号,,03,205,0250082,,,2025-04-01,合併による解散等,5400005008480,令和７年４月１日岩手県花巻市御田屋町４番５６号一般社団法人花巻共立会（3400005008433）と合併して岩手県花巻市御田屋町４番５６号公益社団法人花巻共立会（5400005008480）を設立し解散,2015-10-05,1,,,,,ソウゴウハナマキビョウイン,0
607,3010001072407,登記記録の閉鎖等,0,2025-05-09,2025-04-15,三菱商事天然ガス開発株式会社,,株式会社,東京都,千代田区,丸の内２丁目３番１号,,13,101,1000005,,,2025-04-15,清算の結了等,,,2015-10-05,1,,,,,ミツビシショウジテンネンガスカイハツ,0
609,3010001146730,登記記録の閉鎖等,0,2025-05-09,2025-04-15,株式会社ＩＰサーチ,,株式会社,東京都,千代田区,丸の内２丁目１番１号,,13,101,1000005,,,2025-04-15,清算の結了等,,,2015-10-05,1,,,,,アイピーサーチ,0
624,3010401093358,登記記録の閉鎖等,0,2025-05-09,2025-04-07,商船三井オーシャンエキスパート株式会社,,株式会社,東京都,港区,虎ノ門２丁目１番１号,,13,103,1050001,,,2025-04-07,合併による解散等,8010401005309,令和７年４月１日東京都港区虎ノ門二丁目１番１号商船三井マリテックス株式会社（8010401005309）に合併し解散,2015-10-05,1,"MOL Ocean Expert Co., Ltd.",Tokyo,"2-1-1, Toranomon, Minato-ku",,ショウセンミツイオーシャンエキスパート,0
633,3010405018220,登記記録の閉鎖等,0,2025-05-09,2025-04-07,東京さくらホールディング１一般社団法人,,その他の設立登記法人,東京都,港区,虎ノ門３丁目２２番１０－２０１号,,13,103,1050001,,,2025-04-07,清算の結了等,,,2019-10-31,1,,,,,トウキョウサクラホールディングワン,0
637,3010701025077,登記記録の閉鎖等,0,2025-05-09,2025-04-30,オーディーエヌユー株式会社,,株式会社,神奈川県,横浜市港南区,大久保１丁目１５番１１号,,14,111,2330007,,,2025-04-30,清算の結了等,,,2015-10-05,1,,,,,オーディーエヌユー,0
655,3011001158435,登記記録の閉鎖等,0,2025-05-09,2025-04-04,株式会社ＪＡＪ,,株式会社,東京都,渋谷区,広尾５丁目４番１２号大成鋼機ビル５０３号室,,13,113,1500012,,,2025-04-04,清算の結了等,,,2023-11-27,1,,,,,ジェイエージェイ,0
658,3011003017036,登記記録の閉鎖等,0,2025-05-09,2025-04-04,合同会社Ａｒｔｉｓｔ　Ｐａｔｈｗａｙ,,合同会社,東京都,渋谷区,渋谷２丁目１９－１５宮益坂ビルディング６０９,,13,113,1500002,,,2025-04-04,清算の結了等,,,2023-06-21,1,,,,,アーティストパスウェイ,0
668,3011102015031,登記記録の閉鎖等,0,2025-05-09,2025-04-16,有限会社トヨダ事務所,,有限会社,東京都,千代田区,神田小川町３丁目６番１０号４０６,,13,101,1010052,,,2025-04-16,清算の結了等,,,2015-10-05,1,,,,,トヨダジムショ,0
690,3020001060385,登記記録の閉鎖等,0,2025-05-09,2025-04-30,株式会社トライテック,,株式会社,神奈川県,横浜市青葉区,新石川３丁目３２番地２,,14,117,2250003,,,2025-04-30,清算の結了等,,,2015-10-05,1,,,,,トライテック,0
692,3020001086406,登記記録の閉鎖等,0,2025-05-09,2025-04-30,鶴見駅前コンタクト株式会社,,株式会社,神奈川県,横浜市鶴見区,鶴見中央１丁目２番１号,,14,101,2300051,,,2025-04-30,清算の結了等,,,2015-10-05,1,,,,,ツルミエキマエコンタクト,0
711,3021002011187,登記記録の閉鎖等,0,2025-05-09,2025-04-28,有限会社三藤,,有限会社,神奈川県,茅ヶ崎市,常盤町６番７１号,,14,207,2530032,,,2025-04-28,清算の結了等,,,2015-10-05,1,,,,,サントウ,0
718,3030001050344,登記記録の閉鎖等,0,2025-05-09,2025-04-18,株式会社住宅物販総合サービス,,株式会社,埼玉県,新座市,畑中１丁目１１番３号,,11,230,3520012,,,2025-04-18,清算の結了等,,,2015-10-05,1,,,,,ジュウタクブッパンソウゴウサービス,0
743,3050003005195,登記記録の閉鎖等,0,2025-05-09,2025-04-28,合同会社新屋企業,,合同会社,茨城県,神栖市,柳川３９６７番地,,08,232,3140252,,,2025-04-28,清算の結了等,,,2020-05-26,1,,,,,アラヤキギョウ,0
759,3120001048908,登記記録の閉鎖等,0,2025-05-09,2025-04-21,大阪電機株式会社,,株式会社,大阪府,大阪市浪速区,塩草３丁目５番１号,,27,111,5560024,,,2025-04-21,清算の結了等,,,2015-10-05,1,,,,,オオサカデンキ,0
787,3120102014486,登記記録の閉鎖等,0,2025-05-09,2025-04-30,有限会社ヒサギ,,有限会社,大阪府,松原市,天美東９丁目１番７号,,27,217,5800032,,,2025-04-30,清算の結了等,,,2015-10-05,1,,,,,ヒサギ,0
807,3140005015274,登記記録の閉鎖等,0,2025-05-09,2025-04-28,特定非営利活動法人野里まちづくりの会,,その他の設立登記法人,兵庫県,姫路市,鍛冶町５２番地３,,28,201,6700002,,,2025-04-28,清算の結了等,,,2015-10-05,1,,,,,ノザトマチヅクリノカイ,0
813,3170001008196,登記記録の閉鎖等,0,2025-05-09,2025-05-01,株式会社佐倉,,株式会社,和歌山県,岩出市,中迫１７６番地の１,,30,209,6496215,,,2025-05-01,合併による解散等,9170001001311,令和７年５月１日和歌山市広瀬通丁二丁目２６番地株式会社佐倉幸保商店（9170001001311）に合併し解散,2015-10-05,1,,,,,サクラ,0
818,3180001098575,登記記録の閉鎖等,0,2025-05-09,2025-04-30,株式会社向島建商,,株式会社,愛知県,弥富市,佐古木４丁目５１９番地の３,,23,235,4980006,,,2025-04-30,清算の結了等,,,2015-10-05,1,,,,,ムコウジマケンショウ,0
840,3200001042811,登記記録の閉鎖等,0,2025-05-09,2025-05-02,株式会社増尾商店,,株式会社,岐阜県,恵那市,岩村町２９９番地,,21,210,5097403,,,2025-05-02,清算の結了等,,,2024-09-05,1,,,,,マスオショウテン,0
851,3240001062707,登記記録の閉鎖等,0,2025-05-09,2025-05-07,株式会社Ｃｙｂｒｉｄ,,株式会社,広島県,広島市中区,大手町１丁目１－２０相生橋ビル７階Ａ号室,,34,101,7300051,,,2025-05-07,清算の結了等,,,2024-01-24,1,,,,,サイブリッド,0
861,3290001080646,登記記録の閉鎖等,0,2025-05-09,2025-04-23,株式会社八玉,,株式会社,福岡県,福岡市西区,福重５丁目１番４３号,,40,135,8190022,,,2025-04-23,清算の結了等,,,2018-02-26,1,,,,,,0
879,3350002016873,登記記録の閉鎖等,0,2025-05-09,2025-05-01,有限会社松田鮮魚店,,有限会社,宮崎県,日南市,飫肥５丁目４番６４号,,45,204,8892535,,,2025-05-01,清算の結了等,,,2015-10-05,1,,,,,マツダセンギョテン,0
888,3370005009245,登記記録の閉鎖等,0,2025-05-09,2025-04-22,特定非営利活動法人Ｌａｔｅｒａｌ　Ｐａｓｓ,,その他の設立登記法人,宮城県,仙台市青葉区,花京院２丁目１－６５いちご花京院ビル６Ｆ,,04,101,9800013,,,2025-04-22,清算の結了等,,,2017-05-24,1,,,,,ラテラルパス,0
892,3380001031607,登記記録の閉鎖等,0,2025-05-09,2025-04-30,株式会社ヴェルア,,株式会社,東京都,練馬区,石神井町８丁目４２番１２－２０５号,,13,120,1770041,,,2025-04-30,清算の結了等,,,2021-02-26,1,,,,,ヴェルア,0
896,3380003003389,登記記録の閉鎖等,0,2025-05-09,2025-04-28,合同会社ジャパンネイチャーリサーチ,,合同会社,福島県,郡山市,田村町上行合字北川田１８番地の３,,07,203,9630724,,,2025-04-28,清算の結了等,,,2015-10-05,1,,,,,ジャパンネイチャーリサーチ,0
900,3400005008433,登記記録の閉鎖等,0,2025-05-09,2025-04-01,一般社団法人花巻共立会,,その他の設立登記法人,岩手県,花巻市,御田屋町４番５６号,,03,205,0250082,,,2025-04-01,合併による解散等,5400005008480,令和７年４月１日岩手県花巻市御田屋町４番５６号公益財団法人総合花巻病院（2400005002949）と合併して岩手県花巻市御田屋町４番５６号公益社団法人花巻共立会（5400005008480）を設立し解散,2024-08-20,1,,,,,ハナマキキョウリツカイ,0
913,3450001012079,登記記録の閉鎖等,0,2025-05-09,2025-05-07,株式会社旭川旅行サロン,,株式会社,北海道,旭川市,東光五条４丁目３番１号,,01,204,0788345,,,2025-05-07,清算の結了等,,,2017-05-18,1,,,,,,0
916,3470002003876,登記記録の閉鎖等,0,2025-05-09,2025-05-02,有限会社スミダ化粧品店,,有限会社,香川県,高松市,東山崎町２４４番地４,,37,201,7610312,,,2025-05-02,清算の結了等,,,2015-10-05,1,,,,,スミダケショウヒンテン,0
921,3500002005992,登記記録の閉鎖等,0,2025-05-09,2025-05-02,有限会社豊栄産業,,有限会社,愛媛県,松山市,市坪北２丁目９番５号,,38,201,7900946,,,2025-05-02,清算の結了等,,,2015-10-05,1,,,,,ホウエイサンギョウ,0
924,4010001126772,登記記録の閉鎖等,0,2025-05-09,2025-04-15,株式会社しばや,,株式会社,東京都,中央区,京橋２丁目１２番９号５５－１京橋,,13,102,1040031,,,2025-04-15,清算の結了等,,,2015-10-05,1,,,,,シバヤ,0
929,4010001215377,登記記録の閉鎖等,0,2025-05-09,2025-04-15,スリードアーズ株式会社,,株式会社,東京都,中央区,銀座１丁目８番１９号,,13,102,1040061,,,2025-04-15,清算の結了等,,,2021-01-25,1,,,,,スリードアーズ,0
935,4010005024626,登記記録の閉鎖等,0,2025-05-09,2025-05-02,Ｇｌａｓｓ　Ｃｉｔｙ　Ｊａｐａｎ　Ｈｏｌｄｉｎｇ特定目的会社,,その他の設立登記法人,東京都,千代田区,霞が関３丁目２番５号霞が関ビル,,13,101,1000013,,,2025-05-02,清算の結了等,,,2015-11-12,1,,,,,グラスシティジャパンホールディング,0
943,4010403023527,登記記録の閉鎖等,0,2025-05-09,2025-04-07,合同会社ＹＵＫＯＮ,,合同会社,東京都,港区,高輪２丁目６番２２号１階,,13,103,1080074,,,2025-04-07,清算の結了等,,,2020-08-18,1,,,,,ユーコン,0
958,4010901043712,登記記録の閉鎖等,0,2025-05-09,2025-04-18,株式会社Ａｘｉａ　Ａｒｃ,,株式会社,神奈川県,横浜市青葉区,梅が丘２１番地１２アベニュー２１－２０６,,14,117,2270052,,,2025-04-18,清算の結了等,,,2019-02-27,1,,,,,アクシアアーク,0
970,4011003008736,登記記録の閉鎖等,0,2025-05-09,2025-05-02,フェニックス合同会社,,合同会社,香川県,高松市,中新町１２番地１,,37,201,7600056,,,2025-05-02,清算の結了等,,,2018-05-01,1,,,,,フェニックス,0
978,4011105006794,登記記録の閉鎖等,0,2025-05-09,2025-04-21,一般社団法人ビラボ,,その他の設立登記法人,福島県,田村郡三春町,大字平沢字担橋２２２－３,,07,521,9637771,,,2025-04-21,清算の結了等,,,2015-10-05,1,,,,,ビラボ,0
998,4013201017997,登記記録の閉鎖等,0,2025-05-09,2025-04-07,株式会社アーク・フィルムズ,,株式会社,東京都,港区,赤坂２丁目１７番５５号,,13,103,1070052,,,2025-04-07,清算の結了等,,,2015-10-05,1,,,,,アークフィルムズ,0
1019,4021002027785,登記記録の閉鎖等,0,2025-05-09,2025-04-30,有限会社アルシステム,,有限会社,神奈川県,相模原市南区,大野台４丁目１番１８－１号,,14,153,2520331,,,2025-04-30,清算の結了等,,,2015-10-05,1,,,,,アルシステム,0
1036,4030002014388,登記記録の閉鎖等,0,2025-05-09,2025-05-01,与野商事株式会社,,株式会社,埼玉県,さいたま市大宮区,桜木町１丁目１番地６,,11,103,3300854,,,2025-05-01,合併による解散等,1030001005952,令和７年５月１日埼玉県さいたま市大宮区桜木町一丁目１番地６東栄商事株式会社（1030001005952）に合併し解散,2015-10-05,1,,,,,ヨノショウジ,0
1047,4040002064382,登記記録の閉鎖等,0,2025-05-09,2025-04-18,有限会社森島商事,,有限会社,千葉県,佐倉市,大作２丁目５番地５,,12,212,2850802,,,2025-04-18,清算の結了等,,,2015-10-05,1,,,,,モリシマショウジ,0
1079,4110005007430,登記記録の閉鎖等,0,2025-05-09,2025-04-01,神林商工会,,その他の設立登記法人,新潟県,村上市,岩船駅前５０番地１４,,15,212,9593449,,,2025-04-01,合併による解散等,4110005007835,令和７年４月１日新潟県村上市羽ヶ榎１０４番地４４荒川商工会（4110005007835）に合併し解散,2015-10-05,1,,,,,カミハヤシ,0
1081,4120001112720,登記記録の閉鎖等,0,2025-05-09,2025-04-21,株式会社ＲＵＮ　ＰＬＡＮＮＩＮＧ,,株式会社,大阪府,大阪市中央区,南本町２丁目１番８号,,27,128,5410054,,,2025-04-21,清算の結了等,,,2015-10-05,1,,,,,,0
1123,4140001056040,登記記録の閉鎖等,0,2025-05-09,2025-04-24,株式会社ナギサ建築工芸,,株式会社,兵庫県,豊岡市,栃江字福井１０４４番地の４,,28,209,6680083,,,2025-04-24,清算の結了等,,,2015-10-05,1,,,,,ナギサケンチクコウゲイ,0
1137,4180001069179,登記記録の閉鎖等,0,2025-05-09,2025-04-28,なベ音株式会社,,株式会社,愛知県,名古屋市千種区,今池５丁目２番６号,,23,101,4640850,,,2025-04-28,清算の結了等,,,2015-10-05,1,,,,,ナベネ,0
1140,4180001113630,登記記録の閉鎖等,0,2025-05-09,2025-05-02,あおいファミリー株式会社,,株式会社,愛知県,名古屋市天白区,原３丁目７０５番地コーポ原２Ａ号室,,23,116,4680015,,,2025-05-02,合併による解散等,1220001018282,令和７年４月１日石川県金沢市広岡三丁目３番７７号株式会社リハス（1220001018282）に合併し解散,2015-10-05,1,,,,,アオイファミリー,0
1155,4190003000999,登記記録の閉鎖等,0,2025-05-09,2025-04-28,合名会社平木製菓,,合名会社,三重県,伊賀市,上野忍町２５９６番地,,24,216,5180854,,,2025-04-28,清算の結了等,,,2015-10-05,1,,,,,ヒラキセイカ,0
1160,4200002022885,登記記録の閉鎖等,0,2025-05-09,2025-05-01,有限会社伊藤ビジネス,,有限会社,岐阜県,多治見市,上野町５丁目５６番地,,21,204,5070027,,,2025-05-01,清算の結了等,,,2015-10-05,1,,,,,イトウビジネス,0
1162,4220001022067,登記記録の閉鎖等,0,2025-05-09,2025-05-07,株式会社ＪＡＭＡＮＡＩ,,株式会社,石川県,金沢市,玉鉾２丁目５０２番地トラスティビル３０１号室,,17,201,9218002,,,2025-05-07,清算の結了等,,,2018-01-15,1,,,,,ジャマナイ,0
1166,4240001028517,登記記録の閉鎖等,0,2025-05-09,2025-05-01,株式会社古川造園,,株式会社,広島県,大竹市,北栄４番１９号,,34,211,7390604,,,2025-05-01,清算の結了等,,,2015-10-05,1,,,,,フルカワゾウエン,0
1172,4250001018236,登記記録の閉鎖等,0,2025-05-09,2025-05-07,株式会社エフケイケイ企画,,株式会社,山口県,防府市,大字新田３８１番地の２,,35,206,7470825,,,2025-05-07,清算の結了等,,,2020-04-10,1,,,,,エフケイケイキカク,0
1187,4310001011044,登記記録の閉鎖等,0,2025-05-09,2025-05-01,株式会社五島エルピーガスセンター,,株式会社,長崎県,五島市,岐宿町岐宿３１３３番地,,42,211,8530701,,,2025-05-01,合併による解散等,5290001057832,令和７年４月１日福岡県糟屋郡志免町別府東三丁目１番７号株式会社ホームエネルギー九州（5290001057832）に合併し解散,2015-10-05,1,,,,,ゴトウエルピーガスセンター,0
1226,4430002065259,登記記録の閉鎖等,0,2025-05-09,2025-04-30,有限会社亀山組,,有限会社,北海道,登別市,桜木町６丁目７番地４,,01,230,0590023,,,2025-04-30,清算の結了等,,,2015-10-05,1,,,,,カメヤマグミ,0
1240,4490002004509,登記記録の閉鎖等,0,2025-05-09,2025-05-08,有限会社文巽堂,00006572,有限会社,高知県,高知市,新本町２丁目４番１９号,,39,201,7800062,,,2025-05-08,清算の結了等,,,2015-10-05,1,,,,,,0
1247,5010001202226,登記記録の閉鎖等,0,2025-05-09,2025-05-01,株式会社ＡＢＳ,,株式会社,東京都,千代田区,六番町１番７号,,13,101,1020085,,,2025-05-01,合併による解散等,9010001027297,令和７年５月１日東京都千代田区六番町１番７号株式会社Ａｏｂａ‐ＢＢＴ（9010001027297）に合併し解散,2019-07-08,1,,,,,エービーエス,0
1296,5011101103900,登記記録の閉鎖等,0,2025-05-09,2025-04-14,株式会社ＮＳＱ,,株式会社,東京都,新宿区,西新宿６丁目３番１号,,13,104,1600023,,,2025-04-14,合併による解散等,2011101090976,令和７年４月１日東京都新宿区西新宿六丁目３番１号株式会社しまうまプリント（2011101090976）に合併し解散,2023-08-07,1,,,,,エヌエスキュー,0
1301,5011301015037,登記記録の閉鎖等,0,2025-05-09,2025-04-21,株式会社ひかり,,株式会社,東京都,杉並区,宮前１丁目１４番１６号アートイン杉並１０６,,13,115,1680081,,,2025-04-21,清算の結了等,,,2015-10-05,1,,,,,,0
1327,5020001109255,登記記録の閉鎖等,0,2025-05-09,2025-04-18,株式会社ウチダ,,株式会社,神奈川県,横浜市戸塚区,上矢部町１４番地１モア・ステージ戸塚１０５号,,14,110,2450053,,,2025-04-18,清算の結了等,,,2015-10-05,1,,,,,ウチダ,0
1337,5020002013373,登記記録の閉鎖等,0,2025-05-09,2025-05-01,有限会社秋水,,有限会社,神奈川県,横浜市青葉区,美しが丘１丁目１４番地たまプラーザ団地１街区２号棟５０８号,,14,117,2250002,,,2025-05-01,清算の結了等,,,2015-10-05,1,,,,,シュウスイ,0
1341,5020003023685,登記記録の閉鎖等,0,2025-05-09,2025-05-01,ＫＭＳＩ合同会社,,合同会社,神奈川県,横浜市都筑区,東山田町１３５９番地１２,,14,118,2240024,,,2025-05-01,清算の結了等,,,2023-04-10,1,,,,,ケイエムエスアイ,0
1371,5040005000425,登記記録の閉鎖等,0,2025-05-09,2025-04-17,千葉県鮮魚商協同組合連合会,,その他の設立登記法人,千葉県,千葉市中央区,富士見２丁目２２番２号,,12,101,2600015,,,2025-04-17,清算の結了等,,,2015-10-05,1,,,,,チバケンセンギョショウ,0
1372,5040005003510,登記記録の閉鎖等,0,2025-05-09,2025-04-21,特定非営利活動法人ポロニア・ネットワーク,,その他の設立登記法人,千葉県,八千代市,大和田新田４６９番地８８,,12,221,2760046,,,2025-04-21,清算の結了等,,,2015-10-05,1,,,,,ポロニアネットワーク,0
1381,5050005002973,登記記録の閉鎖等,0,2025-05-09,2025-04-28,医療法人本橋会本橋眼科,,その他の設立登記法人,茨城県,土浦市,川口２丁目３番１５号,,08,203,3000033,,,2025-04-28,清算の結了等,,,2015-10-05,1,,,,,モトハシカイモトハシガンカ,0
1389,5080403000378,登記記録の閉鎖等,0,2025-05-09,2025-04-30,合名会社丸政製材所,,合名会社,静岡県,浜松市中央区,下飯田町６２番地,,22,138,4350027,,,2025-04-30,清算の結了等,,,2015-10-05,1,,,,,マルセイセイザイショ,0
1390,5080403004750,登記記録の閉鎖等,0,2025-05-09,2025-04-30,合同会社ＳＫリゾート,,合同会社,静岡県,浜松市中央区,領家３丁目１３番３号,,22,138,4300852,,,2025-04-30,清算の結了等,,,2023-03-09,1,,,,,エスケーリゾート,0
1397,5110005012801,登記記録の閉鎖等,0,2025-05-09,2025-04-01,川口町商工会,,その他の設立登記法人,新潟県,長岡市,東川口１９７４番地２０,,15,202,9497504,,,2025-04-01,合併による解散等,3110005017208,令和７年４月１日新潟県長岡市関原町三丁目字上浦甲５７番地関原地区商工会（8110005011115）、新潟県長岡市青葉台一丁目甲１２０番８二和地区商工会（8110005011123）、新潟県長岡市浦７１５番地１１越路町商工会（9110005011378）、新潟県長岡市山古志竹沢乙４６１番地山古志商工会（8110005011379）、新潟県長岡市小国町法坂７３８番地１小国町商工会（8110005012138）と合併して新潟県長岡市浦７１５番地１１長岡南商工会（3110005017208）を設立し解散,2015-10-05,1,,,,,カワグチマチ,0
1403,5120001214747,登記記録の閉鎖等,0,2025-05-09,2025-05-01,株式会社織仁,,株式会社,大阪府,大阪市中央区,谷町２丁目７番４号スリースリーズビル３階,,27,128,5400012,,,2025-05-01,合併による解散等,4120001130524,令和７年５月１日大阪市中央区久太郎町三丁目５番１３号又一ビルディング７階株式会社ソヴリックコーポレーション（4120001130524）に合併し解散,2018-07-19,1,,,,,オリジン,0
1438,5122001017808,登記記録の閉鎖等,0,2025-05-09,2025-05-02,梅沢建築株式会社,,株式会社,大阪府,八尾市,垣内１丁目１６６番地,,27,212,5810881,,,2025-05-02,清算の結了等,,,2015-10-05,1,,,,,ウメザワケンチク,0
1440,5130001050621,登記記録の閉鎖等,0,2025-05-09,2025-05-02,株式会社テクノコーポレーション,,株式会社,滋賀県,大津市,中央２丁目３番１３－１４０４号,,25,201,5200043,,,2025-05-02,清算の結了等,,,2015-10-05,1,,,,,テクノコーポレーション,0
1443,5140001113740,登記記録の閉鎖等,0,2025-05-09,2025-05-01,株式会社Ｈ・Ｇ・Ｆ,,株式会社,兵庫県,加古川市,平岡町二俣６５１番地の２ジークレフ加古川東３０６号,,28,210,6750111,,,2025-05-01,清算の結了等,,,2019-05-23,1,,,,,エイチジーエフ,0
1455,5180001028035,登記記録の閉鎖等,0,2025-05-09,2025-04-30,株式会社グランツ,,株式会社,愛知県,名古屋市緑区,武路町８１０番地,,23,114,4580917,,,2025-04-30,清算の結了等,,,2015-10-05,1,,,,,グランツ,0
1463,5180002089456,登記記録の閉鎖等,0,2025-05-09,2025-04-30,有限会社氷室商店,,有限会社,愛知県,津島市,金町４１番地,,23,208,4960824,,,2025-04-30,清算の結了等,,,2015-10-05,1,,,,,ヒムロショウテン,0
1465,5180003022622,登記記録の閉鎖等,0,2025-05-09,2025-05-01,ジジ合同会社,,合同会社,愛知県,名古屋市西区,名駅２丁目３４番１７号セントラル名古屋内,,23,104,4510045,,,2025-05-01,清算の結了等,,,2021-06-17,1,,,,,ジジ,0
1485,5230001010516,登記記録の閉鎖等,0,2025-05-09,2025-05-01,株式会社東亜製作所,,株式会社,富山県,高岡市,長慶寺７８５番地,,16,202,9330951,,,2025-05-01,清算の結了等,,,2015-10-05,1,,,,,トウアセイサクショ,0
1522,5330001016032,登記記録の閉鎖等,0,2025-05-09,2025-05-01,株式会社寅家,,株式会社,熊本県,人吉市,願成寺町１４１１番地の５,,43,203,8680022,,,2025-05-01,合併による解散等,2330001000939,令和７年５月１日熊本市南区流通団地二丁目５番地株式会社木村（2330001000939）に合併し解散,2015-10-05,1,,,,,トラヤ,0
1541,5380001018370,登記記録の閉鎖等,0,2025-05-09,2025-04-21,会津菱農株式会社,,株式会社,福島県,河沼郡会津坂下町,字福原前甲４０９８番地６,,07,421,9696500,,,2025-04-21,清算の結了等,,,2015-10-05,1,,,,,,0
1548,5390002009632,登記記録の閉鎖等,0,2025-05-09,2025-04-23,有限会社富樫砂利,,有限会社,山形県,鶴岡市,切添町３番１７号,,06,203,9970022,,,2025-04-23,清算の結了等,,,2015-10-05,1,,,,,トガシジャリ,0
1554,5430001057314,登記記録の閉鎖等,0,2025-05-09,2025-04-30,株式会社白川電器店,,株式会社,北海道,登別市,新川町１丁目６番地１１,,01,230,0590015,,,2025-04-30,清算の結了等,,,2015-10-05,1,,,,,シラカワデンキテン,0
1565,5430003007003,登記記録の閉鎖等,0,2025-05-09,2025-04-30,合同会社オフィスディー,,合同会社,北海道,苫小牧市,春日町３丁目６番８号,,01,213,0530031,,,2025-04-30,清算の結了等,,,2015-10-05,1,,,,,オフィスディー,0
1571,5450002012803,登記記録の閉鎖等,0,2025-05-09,2025-05-02,有限会社水橋重機工業,,有限会社,北海道,紋別市,渚滑町５丁目２５番地の３０,,01,219,0995171,,,2025-05-02,清算の結了等,,,2015-10-05,1,,,,,ミズハシジュウキコウギョウ,0
1573,5470001005640,登記記録の閉鎖等,0,2025-05-09,2025-05-01,株式会社アルファーシステム,,株式会社,香川県,高松市,番町１丁目２番２６号トキワ番町ビル２階,,37,201,7600017,,,2025-05-01,清算の結了等,,,2015-10-05,1,,,,,アルファーシステム,0
1595,6010002007367,登記記録の閉鎖等,0,2025-05-09,2025-04-15,有限会社伊藤商店,,有限会社,東京都,千代田区,神田多町２丁目８番地,,13,101,1010046,,,2025-04-15,清算の結了等,,,2015-10-05,1,,,,,イトウショウテン,0
1596,6010003027463,登記記録の閉鎖等,0,2025-05-09,2025-04-15,とらジャポン合同会社,,合同会社,東京都,文京区,本郷２丁目１９番２－１１０２号,,13,105,1130033,,,2025-04-15,清算の結了等,,,2018-05-09,1,,,,,トラジャポン,0
1599,6010401005327,登記記録の閉鎖等,0,2025-05-09,2025-04-07,株式会社ＭＯＬシップテック,,株式会社,東京都,港区,虎ノ門２丁目１番１号,,13,103,1050001,,,2025-04-07,合併による解散等,8010401005309,令和７年４月１日東京都港区虎ノ門二丁目１番１号商船三井マリテックス株式会社（8010401005309）に合併し解散,2015-10-05,1,,,,,エムオーエルシップテック,0
1608,6010405021881,登記記録の閉鎖等,0,2025-05-09,2025-04-07,一般社団法人兵庫夢前ソーラー,,その他の設立登記法人,東京都,港区,六本木３丁目２番１号六本木グランドタワー,,13,103,1060032,,,2025-04-07,清算の結了等,,,2023-03-01,1,,,,,ヒョウゴユメサキソーラー,0
1621,6010901052083,登記記録の閉鎖等,0,2025-05-09,2025-05-01,株式会社ＡＳＡ大蔵,,株式会社,東京都,世田谷区,砧１丁目１９番６号,,13,112,1570073,,,2025-05-01,合併による解散等,3010901041386,令和７年５月１日東京都世田谷区喜多見七丁目３番３号株式会社ＡＳＡ成城（3010901041386）に合併し解散,2022-12-05,1,,,,,エーエスエーオオクラ,0
1650,6011601017335,登記記録の閉鎖等,0,2025-05-09,2025-04-24,株式会社心弦社,,株式会社,神奈川県,小田原市,久野４７１－２小田原サニータウン１１１９号,,14,206,2500055,,,2025-04-24,清算の結了等,,,2015-10-05,1,,,,,シンゲンシャ,0
1654,6011703003927,登記記録の閉鎖等,0,2025-05-09,2025-04-25,合同会社ベルキ,,合同会社,東京都,江戸川区,東葛西４丁目３７－７－５１２,,13,123,1340084,,,2025-04-25,清算の結了等,,,2024-08-06,1,,,,,ベルキ,0
1657,6011801044658,登記記録の閉鎖等,0,2025-05-09,2025-05-01,賦雲株式会社,,株式会社,東京都,足立区,西新井本町４丁目２１－９,,13,121,1230845,,,2025-05-01,清算の結了等,,,2024-08-13,1,,,,,フウン,0
1667,6013103001081,登記記録の閉鎖等,0,2025-05-09,2025-05-07,天海合同会社,,合同会社,東京都,羽村市,小作台５丁目２２番地４ロイヤルハイツＩＩ４０５,00124668,13,227,2050001,,,2025-05-07,清算の結了等,,,2021-10-26,1,,,,,テンカイ,0
1688,6021003003692,登記記録の閉鎖等,0,2025-05-09,2025-04-28,合同会社平和工業,,合同会社,神奈川県,相模原市緑区,城山町川尻小松４２３４番地５号,,14,151,2520100,,,2025-04-28,清算の結了等,,,2015-10-05,1,,,,,,0
1702,6030002010963,登記記録の閉鎖等,0,2025-05-09,2025-05-01,蓮沼商事株式会社,,株式会社,埼玉県,さいたま市見沼区,大字蓮沼前田４８９番地,,11,104,3370015,,,2025-05-01,合併による解散等,1030001005952,令和７年５月１日埼玉県さいたま市大宮区桜木町一丁目１番地６東栄商事株式会社（1030001005952）に合併し解散,2015-10-05,1,,,,,ハスヌマショウジ,0
1727,6060002034803,登記記録の閉鎖等,0,2025-05-09,2025-04-28,有限会社はっぴーらいふ,,有限会社,栃木県,下都賀郡壬生町,大字壬生甲３７４５番地２,,09,361,3210214,,,2025-04-28,清算の結了等,,,2015-10-05,1,,,,,ハッピーライフ,0
1739,6080403005062,登記記録の閉鎖等,0,2025-05-09,2025-04-28,合同会社Ｅｚｕ,,合同会社,静岡県,磐田市,笠梅１５２４番地１４,,22,211,4380011,,,2025-04-28,清算の結了等,,,2024-07-23,1,,,,,イーゼットユー,0
1755,6120001136701,登記記録の閉鎖等,0,2025-05-09,2025-04-17,株式会社ジェイクサービス,,株式会社,大阪府,大阪市浪速区,大国１丁目１２番１９号,,27,111,5560014,,,2025-04-17,清算の結了等,,,2015-10-05,1,,,,,,0
1757,6120001232871,登記記録の閉鎖等,0,2025-05-09,2025-05-01,ｏｆｆｉｃｅ　Ｏ株式会社,,株式会社,大阪府,大阪市東成区,東小橋２丁目９番１５号,,27,115,5370024,,,2025-05-01,合併による解散等,3120001122654,令和７年５月１日大阪市東成区東小橋三丁目２番７号ファイブ・イー・ライフ株式会社（3120001122654）に合併し解散,2020-11-06,1,,,,,オフィスオー,0
1780,6120901018445,登記記録の閉鎖等,0,2025-05-09,2025-04-14,千里山不動産株式会社,,株式会社,大阪府,吹田市,千里山松が丘５番３号,,27,205,5650843,,,2025-04-14,清算の結了等,,,2015-10-05,1,,,,,センリヤマフドウサン,0
1810,6180001020040,登記記録の閉鎖等,0,2025-05-09,2025-04-28,株式会社千喜紙工,,株式会社,愛知県,名古屋市中川区,高畑５丁目２４４番地,,23,110,4540911,,,2025-04-28,清算の結了等,,,2015-10-05,1,,,,,チキシコウ,0
1821,6180301033618,登記記録の閉鎖等,0,2025-05-09,2025-05-01,株式会社和子,,株式会社,愛知県,安城市,篠目町古林畔１００番地２,,23,212,4460073,,,2025-05-01,清算の結了等,,,2020-04-09,1,,,,,カズコ,0
1834,6230005002517,登記記録の閉鎖等,0,2025-05-09,2025-05-01,特定非営利活動法人神通さくら野会,,その他の設立登記法人,富山県,富山市,八尾町西神通８８２番地１,,16,201,9392311,,,2025-05-01,清算の結了等,,,2015-10-05,1,,,,,ジンヅウサクラノカイ,0
1838,6240005001237,登記記録の閉鎖等,0,2025-05-09,2025-05-08,医療法人サツキ会,,その他の設立登記法人,広島県,広島市佐伯区,五月が丘２丁目７番２５号,,34,108,7315101,,,2025-05-08,清算の結了等,,,2015-10-05,1,,,,,サツキカイ,0
1857,6340001022862,登記記録の閉鎖等,0,2025-05-09,2025-05-02,株式会社ピュアリティ＆プライム,,株式会社,鹿児島県,霧島市,国分郡田９００番地１７,,46,218,8994305,,,2025-05-02,清算の結了等,,,2020-05-21,1,,,,,ピュアリティアンドプライム,0
1859,6340002012805,登記記録の閉鎖等,0,2025-05-09,2025-05-01,有限会社四元自動車,,有限会社,鹿児島県,日置市,吹上町中原２７６８番地３,,46,216,8993301,,,2025-05-01,清算の結了等,,,2015-10-05,1,,,,,ヨツモトジドウシャ,0
1870,6430001076692,登記記録の閉鎖等,0,2025-05-09,2025-05-01,株式会社ミツル,,株式会社,北海道,北広島市,輪厚中央１丁目１４番地１５,,01,234,0611268,,,2025-05-01,合併による解散等,8430001049416,令和７年５月１日札幌市中央区南一条西十一丁目１番地株式会社四季の旅（8430001049416）に合併し解散,2018-06-04,1,,,,,ミツル,0
1892,7010001183225,登記記録の閉鎖等,0,2025-05-09,2025-04-07,不動産の窓口株式会社,,株式会社,東京都,港区,麻布十番２丁目２０－７高木ビル１階,,13,103,1060045,,,2025-04-07,清算の結了等,,,2017-05-02,1,,,,,フドウサンノマドグチ,0
1893,7010001187556,登記記録の閉鎖等,0,2025-05-09,2025-04-07,株式会社ＳＯＯＭＰＡＹ,,株式会社,東京都,港区,新橋２丁目１６番１号,,13,103,1050004,,,2025-04-07,清算の結了等,,,2017-11-09,1,,,,,スムペイ,0
1913,7010405021880,登記記録の閉鎖等,0,2025-05-09,2025-04-07,一般社団法人岡山備前ソーラー,,その他の設立登記法人,東京都,港区,六本木３丁目２番１号六本木グランドタワー,,13,103,1060032,,,2025-04-07,清算の結了等,,,2023-03-01,1,,,,,オカヤマビゼンソーラー,0
1914,7010501023582,登記記録の閉鎖等,0,2025-05-09,2025-04-18,株式会社不二自転車製作所,,株式会社,東京都,台東区,下谷１丁目１１番１４号,,13,106,1100004,,,2025-04-18,清算の結了等,,,2015-10-05,1,,,,,フジジテンシャセイサクショ,0
1917,7010702008481,登記記録の閉鎖等,0,2025-05-09,2025-04-11,有限会社八百甚,,有限会社,東京都,品川区,南大井４丁目２番９号,,13,109,1400013,,,2025-04-11,清算の結了等,,,2015-10-05,1,,,,,ヤオジン,0
1925,7011001147062,登記記録の閉鎖等,0,2025-05-09,2025-04-03,Ｋ．６２７株式会社,,株式会社,東京都,渋谷区,道玄坂１丁目２１番１号,,13,113,1500043,,,2025-04-03,清算の結了等,,,2022-04-21,1,,,,,ケーロクニーナナ,0
1936,7011301003923,登記記録の閉鎖等,0,2025-05-09,2025-04-28,株式会社大輝,,株式会社,東京都,杉並区,和泉４丁目１８番２９号,,13,115,1680063,,,2025-04-28,清算の結了等,,,2015-10-05,1,,,,,ダイキ,0
1937,7011301015927,登記記録の閉鎖等,0,2025-05-09,2025-04-28,株式会社エスケイ美装,,株式会社,東京都,杉並区,方南１丁目２３番３号,,13,115,1680062,,,2025-04-28,清算の結了等,,,2015-10-05,1,,,,,エスケイビソウ,0
1956,7011802029632,登記記録の閉鎖等,0,2025-05-09,2025-05-07,有限会社キューブ,,有限会社,東京都,葛飾区,亀有５丁目３７番１３号,,13,122,1250061,,,2025-05-07,合併による解散等,5110001019486,令和７年４月１日東京都台東区東上野三丁目１３番２号株式会社山下商会（5110001019486）に合併し解散,2015-10-05,1,,,,,キューブ,0
1976,7020001075529,登記記録の閉鎖等,0,2025-05-09,2025-04-17,株式会社フジハイテックス,,株式会社,神奈川県,川崎市多摩区,宿河原５丁目３０番１０号,,14,135,2140021,,,2025-04-17,合併による解散等,8010701009026,令和７年４月１日東京都品川区上大崎四丁目５番３７号ＨＤホールディングス株式会社（8010701009026）に合併し解散,2015-10-05,1,,,,,フジハイテックス,0
1977,7020001089446,登記記録の閉鎖等,0,2025-05-09,2025-04-18,シャムロッククリエイティブ株式会社,,株式会社,神奈川県,横浜市青葉区,荏子田１丁目２番地５－Ｂ２０１,,14,117,2250005,,,2025-04-18,清算の結了等,,,2015-10-05,1,,,,,シャムロッククリエイティブ,0
2006,7030001135083,登記記録の閉鎖等,0,2025-05-09,2025-05-02,株式会社ほわいとケア,,株式会社,埼玉県,川口市,大字赤井６４１番地の１１,,11,203,3340073,,,2025-05-02,清算の結了等,,,2020-02-13,1,,,,,ホワイトケア,0
2007,7030001152013,登記記録の閉鎖等,0,2025-05-09,2025-05-07,オーバーン株式会社,,株式会社,埼玉県,さいたま市北区,日進町２丁目７６４番地２ホワイトパレス大宮４０８号室,,11,102,3310823,,,2025-05-07,合併による解散等,3011001156620,令和７年３月２８日東京都渋谷区円山町５－５Ｎａｖｉ渋谷Ｖ３Ｆ株式会社Ｕｃｈｉｗａ（3011001156620）に合併し解散,2023-01-18,1,,,,,オーバーン,0
2031,7060002023037,登記記録の閉鎖等,0,2025-05-09,2025-04-28,有限会社五関工務店,,有限会社,栃木県,那須郡那須町,大字蓑沢６２０番地２,,09,407,3293437,,,2025-04-28,清算の結了等,,,2015-10-05,1,,,,,ゴセキコウムテン,0
2032,7060003004449,登記記録の閉鎖等,0,2025-05-09,2025-04-28,アクア合同会社,,合同会社,栃木県,大田原市,北野上９４３番地５,,09,210,3240231,,,2025-04-28,清算の結了等,,,2023-02-27,1,,,,,アクア,0
2049,7110002019715,登記記録の閉鎖等,0,2025-05-09,2025-04-23,有限会社沖野畜産,,有限会社,新潟県,燕市,中島字上表２０６２－２番地,,15,213,9590105,,,2025-04-23,清算の結了等,,,2015-10-05,1,,,,,オキノチクサン,0
2086,7120105008424,登記記録の閉鎖等,0,2025-05-09,2025-04-30,医療法人康正会,,その他の設立登記法人,大阪府,堺市堺区,香ヶ丘町１丁９番２９号,,27,141,5900011,,,2025-04-30,清算の結了等,,,2015-12-11,1,,,,,コウセイカイ,0
2094,7122001030437,登記記録の閉鎖等,0,2025-05-09,2025-05-01,株式会社六花,,株式会社,奈良県,北葛城郡広陵町,大字平尾６１０番地１,,29,426,6350822,,,2025-05-01,清算の結了等,,,2017-03-27,1,,,,,ロッカ,0
2099,7130001037600,登記記録の閉鎖等,0,2025-05-09,2025-04-28,ライズプラス株式会社,,株式会社,京都府,京都市伏見区,深草向ケ原町９０－３６,,26,109,6120817,,,2025-04-28,清算の結了等,,,2015-10-05,1,,,,,ライズプラス,0
2115,7140002003476,登記記録の閉鎖等,0,2025-05-09,2025-05-01,有限会社富永商事,,有限会社,兵庫県,神戸市灘区,中原通７丁目３番１号,,28,102,6570825,,,2025-05-01,清算の結了等,,,2015-10-05,1,,,,,トミナガショウジ,0
2125,7170002002525,登記記録の閉鎖等,0,2025-05-09,2025-05-07,津村商事有限会社,,有限会社,和歌山県,和歌山市,小雑賀２９３番地の４,,30,201,6410007,,,2025-05-07,清算の結了等,,,2015-10-05,1,,,,,ツムラショウジ,0
2138,7190001025970,登記記録の閉鎖等,0,2025-05-09,2025-04-28,株式会社Ｍ　ＣＵＢＩＣ,,株式会社,三重県,北牟婁郡紀北町,大原３５４番地２,,24,543,5193202,,,2025-04-28,清算の結了等,,,2018-11-01,1,,,,,エムキュービック,0
2142,7200005002270,登記記録の閉鎖等,0,2025-05-09,2025-05-02,医療法人社団けやき会,,その他の設立登記法人,岐阜県,各務原市,那加柄山町１０３番地５,,21,213,5040005,,,2025-05-02,清算の結了等,,,2015-10-05,1,,,,,ケヤキカイ,0
2148,7230001017617,登記記録の閉鎖等,0,2025-05-09,2025-05-01,株式会社山谷新聞販売店,,株式会社,富山県,富山市,大町２５９番地１,,16,201,9398073,,,2025-05-01,清算の結了等,,,2018-10-10,1,,,,,ヤマタニシンブンハンバイテン,0
2180,7380002000078,登記記録の閉鎖等,0,2025-05-09,2025-05-01,有限会社相沢水道工業所,,有限会社,福島県,福島市,飯坂町平野字東六角７番地,,07,201,9600231,,,2025-05-01,清算の結了等,,,2015-10-05,1,,,,,アイザワスイドウコウギョウショ,0
2181,7380002018640,登記記録の閉鎖等,0,2025-05-09,2025-04-21,有限会社リオン,,有限会社,福島県,西白河郡泉崎村,大字泉崎字向宿８番地,,07,464,9690101,,,2025-04-21,清算の結了等,,,2015-10-05,1,,,,,,0
2183,7390002000580,登記記録の閉鎖等,0,2025-05-09,2025-04-24,有限会社奥山産業,,有限会社,山形県,山形市,大字切畑２２７番地の１,,06,201,9902233,,,2025-04-24,清算の結了等,,,2015-10-05,1,,,,,オクヤマサンギョウ,0
2262,8011001140297,登記記録の閉鎖等,0,2025-05-09,2025-04-04,株式会社ミラリブ,,株式会社,東京都,渋谷区,神宮前６丁目２３－４桑野ビル２階,,13,113,1500001,,,2025-04-04,清算の結了等,,,2021-05-19,1,,,,,ミラリブ,0
2270,8011502009611,登記記録の閉鎖等,0,2025-05-09,2025-05-07,高文建装有限会社,00055923,有限会社,東京都,荒川区,東日暮里４丁目２０番５号,,13,118,1160014,,,2025-05-07,清算の結了等,,,2015-10-05,1,,,,,コウブンケンソウ,0
2271,8011601002938,登記記録の閉鎖等,0,2025-05-09,2025-04-28,甚永商事株式会社,,株式会社,東京都,練馬区,旭丘１丁目３９番８－２０１号,,13,120,1760005,,,2025-04-28,清算の結了等,,,2015-10-05,1,,,,,ジンエイショウジ,0
2273,8011605000343,登記記録の閉鎖等,0,2025-05-09,2025-04-25,医療法人社団広萌会,,その他の設立登記法人,東京都,練馬区,田柄４丁目６番２１号,,13,120,1790073,,,2025-04-25,清算の結了等,,,2015-10-05,1,,,,,コウホウカイ,0
2313,8021002052697,登記記録の閉鎖等,0,2025-05-09,2025-05-01,有限会社鳴沢,,有限会社,神奈川県,小田原市,国府津２００６番地の２０,,14,206,2560812,,,2025-05-01,清算の結了等,,,2015-10-05,1,,,,,ナルサワ,0
2316,8030001095608,登記記録の閉鎖等,0,2025-05-09,2025-05-02,株式会社進幸堂,,株式会社,埼玉県,戸田市,笹目７丁目９番２９号,,11,224,3350034,,,2025-05-02,清算の結了等,,,2015-10-05,1,,,,,シンコウドウ,0
2317,8030001111075,登記記録の閉鎖等,0,2025-05-09,2025-05-02,株式会社Ｇｒｏｗｒｉｎｇ,,株式会社,埼玉県,さいたま市桜区,町谷４丁目２７番３号,,11,106,3380836,,,2025-05-02,清算の結了等,,,2015-10-26,1,,,,,,0
2339,8040002086183,登記記録の閉鎖等,0,2025-05-09,2025-04-21,有限会社ファースト,,有限会社,千葉県,銚子市,豊里台２丁目１１１０番地４０３,,12,202,2880874,,,2025-04-21,清算の結了等,,,2015-10-05,1,,,,,ファースト,0
2364,8070002007756,登記記録の閉鎖等,0,2025-05-09,2025-04-30,有限会社ファインフォダ,,有限会社,群馬県,前橋市,市之関町４５１番地１,,10,201,3710245,,,2025-04-30,清算の結了等,,,2015-10-05,1,,,,,ファインフォダ,0
2366,8080001012120,登記記録の閉鎖等,0,2025-05-09,2025-05-01,株式会社レンズＣＬＵＢ,,株式会社,静岡県,静岡市葵区,御幸町７－１２ヤマムラビル御幸町５階,,22,101,4200857,,,2025-05-01,清算の結了等,,,2015-10-05,1,,,,,レンズクラブ,0
2368,8080002001114,登記記録の閉鎖等,0,2025-05-09,2025-05-01,大国有限会社,,有限会社,静岡県,静岡市駿河区,曲金７丁目８番５０号,,22,102,4228006,,,2025-05-01,清算の結了等,,,2015-10-05,1,,,,,オオクニ,0
2385,8110005011115,登記記録の閉鎖等,0,2025-05-09,2025-04-01,関原地区商工会,,その他の設立登記法人,新潟県,長岡市,関原町３丁目字上浦甲５７番地,,15,202,9402035,,,2025-04-01,合併による解散等,3110005017208,令和７年４月１日新潟県長岡市青葉台一丁目甲１２０番８二和地区商工会（8110005011123）、新潟県長岡市浦７１５番地１１越路町商工会（9110005011378）、新潟県長岡市山古志竹沢乙４６１番地山古志商工会（8110005011379）、新潟県長岡市東川口１９７４番地２０川口町商工会（5110005012801）、新潟県長岡市小国町法坂７３８番地１小国町商工会（8110005012138）と合併して新潟県長岡市浦７１５番地１１長岡南商工会（3110005017208）を設立し解散,2015-10-05,1,,,,,セキハラチク,0
2386,8110005011123,登記記録の閉鎖等,0,2025-05-09,2025-04-01,二和地区商工会,,その他の設立登記法人,新潟県,長岡市,青葉台１丁目甲１２０番８,,15,202,9402145,,,2025-04-01,合併による解散等,3110005017208,令和７年４月１日新潟県長岡市関原町三丁目字上浦甲５７番地関原地区商工会（8110005011115）、新潟県長岡市浦７１５番地１１越路町商工会（9110005011378）、新潟県長岡市山古志竹沢乙４６１番地山古志商工会（8110005011379）、新潟県長岡市東川口１９７４番地２０川口町商工会（5110005012801）、新潟県長岡市小国町法坂７３８番地１小国町商工会（8110005012138）と合併して新潟県長岡市浦７１５番地１１長岡南商工会（3110005017208）を設立し解散,2015-10-05,1,,,,,フタワチク,0
2387,8110005011379,登記記録の閉鎖等,0,2025-05-09,2025-04-01,山古志商工会,,その他の設立登記法人,新潟県,長岡市,山古志竹沢乙４６１番地,,15,202,9470204,,,2025-04-01,合併による解散等,3110005017208,令和７年４月１日新潟県長岡市関原町三丁目字上浦甲５７番地関原地区商工会（8110005011115）、新潟県長岡市青葉台一丁目甲１２０番８二和地区商工会（8110005011123）、新潟県長岡市浦７１５番地１１越路町商工会（9110005011378）、新潟県長岡市東川口１９７４番地２０川口町商工会（5110005012801）、新潟県長岡市小国町法坂７３８番地１小国町商工会（8110005012138）と合併して新潟県長岡市浦７１５番地１１長岡南商工会（3110005017208）を設立し解散,2015-10-05,1,,,,,ヤマコシ,0
2388,8110005012138,登記記録の閉鎖等,0,2025-05-09,2025-04-01,小国町商工会,,その他の設立登記法人,新潟県,長岡市,小国町法坂７３８番地１,,15,202,9495213,,,2025-04-01,合併による解散等,3110005017208,令和７年４月１日新潟県長岡市関原町三丁目字上浦甲５７番地関原地区商工会（8110005011115）、新潟県長岡市青葉台一丁目甲１２０番８二和地区商工会（8110005011123）、新潟県長岡市浦７１５番地１１越路町商工会（9110005011378）、新潟県長岡市山古志竹沢乙４６１番地山古志商工会（8110005011379）、新潟県長岡市東川口１９７４番地２０川口町商工会（5110005012801）と合併して新潟県長岡市浦７１５番地１１長岡南商工会（3110005017208）を設立し解散,2015-10-05,1,,,,,オグニマチ,0
2393,8120001179500,登記記録の閉鎖等,0,2025-05-09,2025-04-30,株式会社ビューティフルライフ・ナビ,,株式会社,大阪府,大阪市中央区,森ノ宮中央１丁目１４番１号,,27,128,5400003,,,2025-04-30,合併による解散等,2120001146753,令和７年４月３０日大阪市中央区森ノ宮中央一丁目１４番１号株式会社ブレイクスルー（2120001146753）に合併し解散,2015-10-05,1,,,,,ビユーテイフルライフナビ,0
2394,8120001210306,登記記録の閉鎖等,0,2025-05-09,2025-05-01,株式会社関西インバウンド事業推進協議会,,株式会社,大阪府,大阪市北区,堂島１丁目１番２５号新山本ビル６Ｆ,,27,127,5300003,,,2025-05-01,合併による解散等,4120001182722,令和７年５月１日大阪市北区堂島一丁目１番２５号株式会社Ｏｎｅ　Ｏｓａｋａリバークルーズ（4120001182722）に合併し解散,2017-12-22,1,,,,,カンサイインバウンドジギョウスイシンキョウギカイ,0
2404,8120003023730,登記記録の閉鎖等,0,2025-05-09,2025-04-18,合同会社オフィスＹ．Ｙ,,合同会社,大阪府,大阪市北区,梅田１丁目２番２号大阪駅前第２ビル１２－１２,,27,127,5300001,,,2025-04-18,清算の結了等,,,2023-03-29,1,,,,,オフィスワイワイ,0
2417,8120902005366,登記記録の閉鎖等,0,2025-05-09,2025-04-22,有限会社ウィッシュ・エステート,,有限会社,大阪府,吹田市,山田東２丁目１７番２号,,27,205,5650821,,,2025-04-22,清算の結了等,,,2015-10-05,1,,,,,ウィッシュエステート,0
2420,8122001038479,登記記録の閉鎖等,0,2025-05-09,2025-05-01,株式会社ＦＵＬＬＷＡ,,株式会社,大阪府,八尾市,龍華町１丁目４番２－２８０１号,,27,212,5810069,,,2025-05-01,清算の結了等,,,2024-10-01,1,,,,,フルワ,0
2425,8130001068339,登記記録の閉鎖等,0,2025-05-09,2025-05-02,株式会社騰駕建築事務所,,株式会社,京都府,京都市下京区,松原通大宮西入坊門町８４５番地,,26,106,6008388,,,2025-05-02,清算の結了等,,,2021-01-05,1,,,,,トウガケンチクジムショ,0
2462,8180005017345,登記記録の閉鎖等,0,2025-05-09,2025-05-07,特定非営利活動法人グローバル・ヴィレッジ愛知,,その他の設立登記法人,愛知県,日進市,岩崎町新ラ田８７番地２５０,,23,230,4700131,,,2025-05-07,清算の結了等,,,2017-06-15,1,,,,,グローバルヴィレッジアイチ,0
2484,8240005007851,登記記録の閉鎖等,0,2025-05-09,2025-05-07,医療法人社団八木小児科医院,,その他の設立登記法人,広島県,福山市,今津町５丁目１番３１号,,34,207,7290111,,,2025-05-07,清算の結了等,,,2015-10-05,1,,,,,ヤギショウニカイイン,0
2485,8250001014859,登記記録の閉鎖等,0,2025-05-09,2025-04-30,株式会社Ｓ．Ｈ．ＯＦＦＩＣＥ．河村,,株式会社,山口県,周南市,大字呼坂９番地の５８,,35,215,7450612,,,2025-04-30,清算の結了等,,,2015-10-05,1,,,,,エスエッチオフィスカワムラ,0
2494,8280001003818,登記記録の閉鎖等,0,2025-05-09,2025-05-01,株式会社リーバン,,株式会社,島根県,松江市,宍道町伊志見７１番地１９,,32,201,6990407,,,2025-05-01,合併による解散等,5010001144955,令和７年３月３１日東京都中央区新富一丁目１８番１号株式会社バディネット（5010001144955）に合併し解散,2015-10-05,1,,,,,リーバン,0
2505,8300001013938,登記記録の閉鎖等,0,2025-05-09,2025-05-08,株式会社島崎商会,00136658,株式会社,佐賀県,佐賀市,嘉瀬町大字中原１７８０番地１,,41,201,8400861,,,2025-05-08,清算の結了等,,,2024-10-17,1,,,,,シマザキショウカイ,0
2511,8320002005866,登記記録の閉鎖等,0,2025-05-09,2025-04-30,有限会社フジカメラ,,有限会社,大分県,大分市,中春日町７番２号,,44,201,8700039,,,2025-04-30,清算の結了等,,,2024-12-10,1,,,,,,0
2512,8330001010552,登記記録の閉鎖等,0,2025-05-09,2025-05-01,株式会社エコ・ハウスビューティラボラトリー,,株式会社,熊本県,熊本市北区,植木町宮原１１６番地,,43,105,8610111,,,2025-05-01,清算の結了等,,,2015-10-05,1,,,,,エコハウスビューティラボラトリー,0
2515,8340002010303,登記記録の閉鎖等,0,2025-05-09,2025-05-01,米澤建設有限会社,,有限会社,鹿児島県,鹿児島市,小野２丁目１３番４８号,,46,201,8900021,,,2025-05-01,清算の結了等,,,2015-10-05,1,,,,,ヨネザワケンセツ,0
2518,8350005002742,登記記録の閉鎖等,0,2025-05-09,2025-04-23,特定非営利活動法人ひむかの会,,その他の設立登記法人,宮崎県,日向市,鶴町１丁目５－１２,,45,206,8830052,,,2025-04-23,清算の結了等,,,2015-10-05,1,,,,,ヒムカノカイ,0
2541,8500003000906,登記記録の閉鎖等,0,2025-05-09,2025-04-23,合資会社大西繁一製紙所,,合資会社,愛媛県,四国中央市,寒川町１３３５番地１,,38,213,7990431,,,2025-04-23,清算の結了等,,,2015-10-05,1,,,,,,0
2563,9010502001123,登記記録の閉鎖等,0,2025-05-09,2025-04-14,有限会社岩商,,有限会社,東京都,台東区,千束３丁目２番１号,,13,106,1110031,,,2025-04-14,清算の結了等,,,2015-10-05,1,,,,,,0
2570,9010603010717,登記記録の閉鎖等,0,2025-05-09,2025-04-28,ＬＯＵＴＳ　ＲＩＳＥ　ＢＥＡＵＴＹ合同会社,,合同会社,東京都,墨田区,本所２丁目１６－２プライムメゾン浅草イースト３０６,,13,107,1300004,,,2025-04-28,清算の結了等,,,2024-03-22,1,,,,,ロータスライズビューティ,0
2574,9010801007481,登記記録の閉鎖等,0,2025-05-09,2025-04-24,株式会社テイケーアール,,株式会社,東京都,大田区,大森西３丁目２８番５号,,13,111,1430015,,,2025-04-24,清算の結了等,,,2015-10-05,1,,,,,テイケーアール,0
2617,9013202006755,登記記録の閉鎖等,0,2025-05-09,2025-04-04,有限会社ヨシノランドリー,,有限会社,東京都,目黒区,五本木３丁目４番３号,,13,110,1530053,,,2025-04-04,清算の結了等,,,2015-10-05,1,,,,,ヨシノランドリー,0
2621,9020001103007,登記記録の閉鎖等,0,2025-05-09,2025-04-18,ＷＡＶＥ株式会社,,株式会社,神奈川県,横浜市港北区,新横浜２丁目１４番地８号,,14,109,2220033,,,2025-04-18,清算の結了等,,,2015-10-05,1,,,,,ウエイブ,0
2628,9020002062929,登記記録の閉鎖等,0,2025-05-09,2025-04-30,日向山動物病院有限会社,,有限会社,神奈川県,横浜市泉区,和泉町７３１５番地の１５,,14,116,2450016,,,2025-04-30,清算の結了等,,,2015-10-05,1,,,,,ヒナタヤマドウブツビョウイン,0
2629,9020002090987,登記記録の閉鎖等,0,2025-05-09,2025-04-30,有限会社山中製作所,,有限会社,神奈川県,川崎市高津区,新作４丁目１７番２号,,14,134,2130014,,,2025-04-30,清算の結了等,,,2015-10-05,1,,,,,ヤマナカセイサクショ,0
2638,9021001077637,登記記録の閉鎖等,0,2025-05-09,2025-05-01,株式会社Ｒ・Ｍ　ＳＴＹＬＥ,,株式会社,神奈川県,相模原市中央区,相模原７丁目５番９号,,14,152,2520231,,,2025-05-01,合併による解散等,9021001072547,令和７年５月１日神奈川県相模原市中央区千代田一丁目６番８号オアシス相模原ビル１Ｆ株式会社ツムググループ（9021001072547）に合併し解散,2022-12-07,1,,,,,アールエムスタイル,0
2647,9030001113748,登記記録の閉鎖等,0,2025-05-09,2025-05-02,株式会社世亜,,株式会社,埼玉県,さいたま市大宮区,仲町２丁目５３ＫＯＨＷＡビル１Ｆ,,11,103,3300845,,,2025-05-02,清算の結了等,,,2016-04-13,1,,,,,,0
2654,9030002006109,登記記録の閉鎖等,0,2025-05-09,2025-05-01,桜木商事株式会社,,株式会社,埼玉県,さいたま市大宮区,桜木町１丁目３番地４,,11,103,3300854,,,2025-05-01,合併による解散等,1030001005952,令和７年５月１日埼玉県さいたま市大宮区桜木町一丁目１番地６東栄商事株式会社（1030001005952）に合併し解散,2015-10-05,1,,,,,サクラギショウジ,0
2676,9050001027236,登記記録の閉鎖等,0,2025-05-09,2025-04-30,株式会社平成商事,,株式会社,茨城県,鹿嶋市,大字浜津賀４３９番地１,,08,222,3112203,,,2025-04-30,清算の結了等,,,2015-10-05,1,,,,,ヘイセイショウジ,0
2691,9070001037010,登記記録の閉鎖等,0,2025-05-09,2025-05-01,ＣＯＳＭＩＣ　ＤＩＮＩＮＧ＆ＡＳＳＯＣＩＡＴＥＳ株式会社,,株式会社,群馬県,前橋市,小相木町７５６番地,,10,201,3710831,,,2025-05-01,清算の結了等,,,2020-07-09,1,,,,,コスミックダイニングアンドアソシエイツ,0
2693,9080001013968,登記記録の閉鎖等,0,2025-05-09,2025-04-21,株式会社ジャコム,,株式会社,静岡県,榛原郡吉田町,大幡１５６３番地の１,,22,424,4210305,,,2025-04-21,清算の結了等,,,2015-10-05,1,,,,,,0
2697,9080101002441,登記記録の閉鎖等,0,2025-05-09,2025-05-01,リサイクルマートドットコム株式会社,,株式会社,静岡県,沼津市,岡一色４８８番地の３,,22,203,4100012,,,2025-05-01,合併による解散等,1080101003273,令和７年５月１日静岡県三島市松本６８番地の１レマコム株式会社（1080101003273）に合併し解散,2015-10-05,1,,,,,リサイクルマートドットコム,0
2707,9110005011378,登記記録の閉鎖等,0,2025-05-09,2025-04-01,越路町商工会,,その他の設立登記法人,新潟県,長岡市,浦７１５番地１１,,15,202,9495406,,,2025-04-01,合併による解散等,3110005017208,令和７年４月１日新潟県長岡市関原町三丁目字上浦甲５７番地関原地区商工会（8110005011115）、新潟県長岡市青葉台一丁目甲１２０番８二和地区商工会（8110005011123）、新潟県長岡市山古志竹沢乙４６１番地山古志商工会（8110005011379）、新潟県長岡市東川口１９７４番地２０川口町商工会（5110005012801）、新潟県長岡市小国町法坂７３８番地１小国町商工会（8110005012138）と合併して新潟県長岡市浦７１５番地１１長岡南商工会（3110005017208）を設立し解散,2015-10-05,1,,,,,コシジマチ,0
2708,9120001019250,登記記録の閉鎖等,0,2025-05-09,2025-04-18,株式会社レストランパコダ,,株式会社,大阪府,大阪市生野区,桃谷５丁目１２番３０号,,27,116,5440034,,,2025-04-18,清算の結了等,,,2015-10-05,1,,,,,レストランパコダ,0
2729,9120003023481,登記記録の閉鎖等,0,2025-05-09,2025-04-21,合同会社ティーエー,,合同会社,大阪府,大阪市中央区,中寺１丁目２番－２３－３０２号,,27,128,5420065,,,2025-04-21,清算の結了等,,,2023-02-24,1,,,,,ティーエー,0
2759,9140003020799,登記記録の閉鎖等,0,2025-05-09,2025-04-30,ＯｌｉｖｅＮ合同会社,,合同会社,兵庫県,芦屋市,岩園町１８番１９号,,28,206,6590013,,,2025-04-30,清算の結了等,,,2024-07-10,1,,,,,オリーブン,0
2761,9150005009039,登記記録の閉鎖等,0,2025-05-09,2025-05-02,一般社団法人マザーワークマネジメント,,その他の設立登記法人,奈良県,橿原市,八木町３丁目７番１９号,,29,205,6340078,,,2025-05-02,清算の結了等,,,2019-01-11,1,,,,,マザーワークマネジメント,0
2766,9160002006533,登記記録の閉鎖等,0,2025-05-09,2025-05-01,三秀理研有限会社,,有限会社,滋賀県,米原市,長岡９３９番地の４,,25,214,5210242,,,2025-05-01,清算の結了等,,,2015-10-05,1,,,,,サンシュウリケン,0
2777,9180001062237,登記記録の閉鎖等,0,2025-05-09,2025-05-01,株式会社西岡金型,,株式会社,愛知県,名古屋市南区,白雲町７５番地の６,,23,112,4570025,,,2025-05-01,清算の結了等,,,2015-10-05,1,,,,,ニシオカカナガタ,0
2778,9180001082078,登記記録の閉鎖等,0,2025-05-09,2025-04-30,石田技研株式会社,,株式会社,愛知県,一宮市,瀬部字夏目塚１３番地,00072345,23,203,4910001,,,2025-04-30,清算の結了等,,,2015-10-05,1,,,,,イシダギケン,0
2791,9180302024118,登記記録の閉鎖等,0,2025-05-09,2025-04-30,有限会社山和,,有限会社,愛知県,みよし市,打越町東屋敷２４番地,,23,236,4700213,,,2025-04-30,清算の結了等,,,2015-10-05,1,,,,,ヤマワ,0
2815,9260005008054,登記記録の閉鎖等,0,2025-05-09,2025-04-24,特定非営利活動法人介護福祉サポートセンターせとうち,,その他の設立登記法人,岡山県,瀬戸内市,邑久町福谷２１７番地,,33,212,7014502,,,2025-04-24,清算の結了等,,,2015-10-05,1,,,,,カイゴフクシサポートセンターセトウチ,0
2818,9290001105587,登記記録の閉鎖等,0,2025-05-09,2025-04-23,株式会社ＳＹ　Ｂｅａｕｔｙ,,株式会社,福岡県,福岡市西区,今宿３丁目２番５５号,,40,135,8190167,,,2025-04-23,清算の結了等,,,2024-05-09,1,,,,,エスワイビューティー,0
2842,9400002000833,登記記録の閉鎖等,0,2025-05-09,2025-04-17,有限会社兼平商事,,有限会社,岩手県,盛岡市,高松２丁目２９番３２号,,03,201,0200114,,,2025-04-17,清算の結了等,,,2015-10-05,1,,,,,カネヒラショウジ,0
2849,9430001061378,登記記録の閉鎖等,0,2025-05-09,2025-05-01,株式会社エリアサービス,,株式会社,北海道,札幌市豊平区,福住三条１０丁目６番２号,,01,105,0620043,,,2025-05-01,清算の結了等,,,2015-10-05,1,,,,,エリアサービス,0
2853,9430002035538,登記記録の閉鎖等,0,2025-05-09,2025-04-30,有限会社共生,,有限会社,北海道,余市郡余市町,大川町４丁目５７番地１,,01,408,0460004,,,2025-04-30,清算の結了等,,,2015-10-05,1,,,,,キョウセイ,0
