sequenceNumber,corporateNumber,process,correct,updateDate,changeDate,name,nameImageId,kind,prefectureName,cityName,streetNumber,addressImageId,prefectureCode,cityCode,postCode,addressOutside,addressOutsideImageId,closeDate,closeCause,successorCorporateNumber,changeCause,assignmentDate,latest,enName,enPrefectureName,enCityName,enAddressOutside,furigana,hihyoji
13,1010401183664,新規,0,2024-07-11,2024-07-11,日威運動用品株式会社,,株式会社,東京都,港区,赤坂２丁目８番１４－４０７号,,13,103,1070052,,,,,,,2024-07-11,1,,,,,ニチエイウンドウヨウヒン,0
14,1010401183755,新規,0,2024-07-11,2024-07-11,株式会社日本広告創研,,株式会社,東京都,港区,赤坂８丁目６番２７号スカイプラザ赤坂２１１号室,,13,103,1070052,,,,,,,2024-07-11,1,,,,,ニホンコウコクソウケン,0
15,1010403033000,新規,0,2024-07-11,2024-07-11,合同会社ＹＯＺＡ　Ｉｎｖｅｓｔｍｅｎｔｓ,,合同会社,東京都,港区,浜松町２丁目２番１５号浜松町ダイヤビル２Ｆ,,13,103,1050013,,,,,,,2024-07-11,1,,,,,ヨザインベストメンツ,0
17,1010503007515,新規,0,2024-07-11,2024-07-11,Ｑｕｅｅｎ合同会社,,合同会社,東京都,台東区,元浅草１丁目６番１２号ＧＯＧＯオフィス御徒町８０６号室,,13,106,1110041,,,,,,,2024-07-11,1,,,,,クイーン,0
19,1010602021284,新規,0,2024-07-11,2024-07-11,有限会社モトキ,,有限会社,東京都,墨田区,東向島５丁目１６番２０号,,13,107,1310032,,,,,,,2024-07-11,1,,,,,,0
20,1010605004344,新規,0,2024-07-11,2024-07-11,一般社団法人フォレスト,,その他の設立登記法人,東京都,江東区,永代１丁目９－２ＫＳ－３ビル２Ｆ,,13,108,1350034,,,,,,,2024-07-11,1,,,,,フォレスト,0
21,1010701046265,新規,0,2024-07-11,2024-07-11,日昇不動産株式会社,,株式会社,東京都,品川区,西中延１丁目５番２２－２０２号,,13,109,1420054,,,,,,,2024-07-11,1,,,,,ニッショウフドウサン,0
25,1010903009210,新規,0,2024-07-11,2024-07-11,合同会社ＲＫパートナーズ,,合同会社,東京都,世田谷区,奥沢２丁目２２番１０号,,13,112,1580083,,,,,,,2024-07-11,1,,,,,アールケーパートナーズ,0
27,1011001162983,新規,0,2024-07-11,2024-07-11,株式会社ＮＮ,,株式会社,東京都,渋谷区,渋谷２丁目１９‐１５宮益坂ビルディング６０９,,13,113,1500002,,,,,,,2024-07-11,1,,,,,エヌエヌ,0
28,1011001163263,新規,0,2024-07-11,2024-07-11,ポンペット株式会社,,株式会社,東京都,渋谷区,広尾１丁目１３番１３－１１０１号ネベル恵比寿,,13,113,1500012,,,,,,,2024-07-11,1,,,,,ポンペット,0
29,1011001163346,新規,0,2024-07-11,2024-07-11,株式会社ＪＭコーポレーション,,株式会社,東京都,渋谷区,代官山町８番７号Ｄａｉｗａ代官山ビル１階,,13,113,1500034,,,,,,,2024-07-11,1,,,,,ジェーエムコーポレーション,0
30,1011003019554,新規,0,2024-07-11,2024-07-11,合同会社ＨＥＡＲＴ‐ｍｏｎｙ,,合同会社,東京都,渋谷区,神宮前６丁目２３番４号桑野ビル２階,,13,113,1500001,,,,,,,2024-07-11,1,,,,,ハーモニー,0
33,1011201025627,新規,0,2024-07-11,2024-07-11,株式会社Ｄａｉｊｏｂｕ,,株式会社,東京都,中野区,白鷺２丁目２２－１８,,13,114,1650035,,,,,,,2024-07-11,1,,,,,ダイジョウブ,0
38,1012303002019,新規,0,2024-07-11,2024-07-11,合同会社Ｌ．Ｃ．Ｃ,,合同会社,東京都,町田市,山崎町１３４３－２フラワーＭ＆Ｔ内,,13,209,1950074,,,,,,,2024-07-11,1,,,,,エルシーシー,0
40,1013101009461,新規,0,2024-07-11,2024-07-11,株式会社ＳＫ商事,,株式会社,東京都,あきる野市,雨間１９３４番地６,,13,228,1970825,,,,,,,2024-07-11,1,,,,,エスケーショウジ,0
46,1020001158198,新規,0,2024-07-11,2024-07-11,株式会社フィジータイム,,株式会社,神奈川県,横浜市鶴見区,下末吉２丁目９－１９,,14,101,2300012,,,,,,,2024-07-11,1,,,,,フィジータイム,0
49,1021001082702,新規,0,2024-07-11,2024-07-11,恵清商事株式会社,,株式会社,神奈川県,鎌倉市,玉縄５丁目１２－７,,14,204,2470071,,,,,,,2024-07-11,1,,,,,エシンショウジ,0
53,1021003014760,新規,0,2024-07-11,2024-07-11,合同会社ソレイユエナジー２号,,合同会社,神奈川県,茅ヶ崎市,茅ヶ崎１丁目２番４７号,,14,207,2530041,,,,,,,2024-07-11,1,,,,,ソレイユエナジーニゴウ,0
60,1030001161399,新規,0,2024-07-11,2024-07-11,松源産業株式会社,,株式会社,埼玉県,川口市,並木２丁目１５番１５－３０７号,,11,203,3320034,,,,,,,2024-07-11,1,,,,,マツゲンサンギョウ,0
61,1030001161408,新規,0,2024-07-11,2024-07-11,株式会社ＩＣ,,株式会社,埼玉県,熊谷市,広瀬２２７－１０,,11,202,3600833,,,,,,,2024-07-11,1,,,,,アイシー,0
72,1040001134486,新規,0,2024-07-11,2024-07-11,株式会社ニュウ,,株式会社,千葉県,千葉市中央区,中央３丁目１０番６号,,12,101,2600013,,,,,,,2024-07-11,1,,,,,ニュウ,0
79,1060001037266,新規,0,2024-07-11,2024-07-11,株式会社Ｒｅｓｔｉｔｃｈ,,株式会社,栃木県,宇都宮市,竹林町５９１－１,,09,201,3210974,,,,,,,2024-07-11,1,,,,,リステッチ,0
83,1080003003256,新規,0,2024-07-11,2024-07-11,秋山通信工業合同会社,,合同会社,静岡県,静岡市清水区,二の丸町７番２１号コープハイツ二の丸２０１,,22,103,4240811,,,,,,,2024-07-11,1,,,,,アキヤマツウシンコウギョウ,0
88,1100001037666,新規,0,2024-07-11,2024-07-11,空き家ＤＩＹ株式会社,,株式会社,長野県,松本市,大字蟻ケ崎２４６０番地４１,,20,202,3900861,,,,,,,2024-07-11,1,,,,,アキヤディアイワイ,0
89,1100005013192,新規,0,2024-07-11,2024-07-11,一般社団法人こころケアセンター,,その他の設立登記法人,長野県,須坂市,大字井上２４１７番地,,20,207,3820045,,,,,,,2024-07-11,1,,,,,ココロケアセンター,0
98,1120001266651,新規,0,2024-07-11,2024-07-11,株式会社きらきら,,株式会社,大阪府,大阪市西成区,岸里３丁目１番２７号泉陽ビル５Ｆ,,27,122,5570041,,,,,,,2024-07-11,1,,,,,キラキラ,0
99,1120001266701,新規,0,2024-07-11,2024-07-11,株式会社エミーナケア,,株式会社,大阪府,枚方市,杉山手３丁目３２番７号,,27,210,5730118,,,,,,,2024-07-11,1,,,,,エミーナケア,0
104,1120101069954,新規,0,2024-07-11,2024-07-11,株式会社ＣＲＡＦＴＥＤ　ＪＡＰＡＮ,,株式会社,大阪府,大阪狭山市,大野西７００番地１,,27,231,5890016,,,,,,,2024-07-11,1,,,,,クラフテッドジャパン,0
105,1120101069970,新規,0,2024-07-11,2024-07-11,大金株式会社,,株式会社,大阪府,堺市中区,八田北町２４０番地９,,27,142,5998262,,,,,,,2024-07-11,1,,,,,ダイキン,0
106,1120101069979,新規,0,2024-07-11,2024-07-11,株式会社クラフト,,株式会社,大阪府,貝塚市,石才１６番地９,,27,208,5970082,,,,,,,2024-07-11,1,,,,,クラフト,0
126,1140001135078,新規,0,2024-07-11,2024-07-11,ＭＡＡＮ　ＴＲＡＤＩＮＧ株式会社,,株式会社,兵庫県,神戸市長田区,苅藻通２丁目３－１３,,28,106,6530032,,,,,,,2024-07-11,1,,,,,,0
127,1140001135086,新規,0,2024-07-11,2024-07-11,株式会社夢大,,株式会社,兵庫県,姫路市,小姓町３５番地１船場西ビル４１１,,28,201,6700043,,,,,,,2024-07-11,1,,,,,ユメダイ,0
128,1140001135103,新規,0,2024-07-11,2024-07-11,株式会社下村屋,,株式会社,兵庫県,神戸市中央区,東雲通１丁目４番１０号パールメゾン１０１号,,28,110,6510079,,,,,,,2024-07-11,1,,,,,シモムラヤ,0
131,1140003020815,新規,0,2024-07-11,2024-07-11,Ａ‐Ｓｈｉｎ　Ｔｒａｄｉｎｇ合同会社,,合同会社,兵庫県,宍粟市,山崎町五十波６９１,,28,227,6712515,,,,,,,2024-07-11,1,,,,,エイシントレーディング,0
135,1170003002075,新規,0,2024-07-11,2024-07-11,合同会社Ｇｏｅｎ,,合同会社,和歌山県,橋本市,さつき台１丁目２６番地の７,,30,203,6480075,,,,,,,2024-07-11,1,,,,,ゴエン,0
141,1180301038811,新規,0,2024-07-11,2024-07-11,日本テクニカル・サービス株式会社,,株式会社,愛知県,豊川市,小桜町１８番地,,23,207,4420021,,,,,,,2024-07-11,1,,,,,ニホンテクニカルサービス,0
145,1190001031487,新規,0,2024-07-11,2024-07-11,株式会社高岡青果輸送,,株式会社,三重県,多気郡明和町,大字山大淀３２番地２,,24,442,5150303,,,,,,,2024-07-11,1,,,,,タカオカセイカユソウ,0
146,1190003004739,新規,0,2024-07-11,2024-07-11,ＪＡＰＡＮ　ＰＡＲＴＮＥＲ合同会社,,合同会社,三重県,桑名郡木曽岬町,大字富田子３６７番地の１ケー・エステートビル３０２号室,,24,303,4980813,,,,,,,2024-07-11,1,,,,,ジャパンパートナー,0
147,1200001042689,新規,0,2024-07-11,2024-07-11,ｏｒｉｅｎｓ株式会社,,株式会社,岐阜県,岐阜市,則武中１丁目２１番１５号,,21,201,5020932,,,,,,,2024-07-11,1,,,,,オリエンス,0
155,1240003006762,新規,0,2024-07-11,2024-07-11,ＦＧ合同会社,,合同会社,広島県,広島市中区,広瀬町３番２０号,,34,101,7300804,,,,,,,2024-07-11,1,,,,,エフジー,0
159,1250001020723,新規,0,2024-07-11,2024-07-11,＿和商事株式会社,00135548,株式会社,山口県,岩国市,周東町西長野１５６番地４,,35,208,7420425,,,,,,,2024-07-11,1,,,,,キンワショウジ,0
161,1250003003536,新規,0,2024-07-11,2024-07-11,合同会社ＫＯＵＴＡ,,合同会社,山口県,下関市,向洋町２丁目１番Ｂ－２０２号アーベインヒルズ向洋,,35,201,7500041,,,,,,,2024-07-11,1,,,,,コウタ,0
168,1290001106386,新規,0,2024-07-11,2024-07-11,株式会社ランジャスト,,株式会社,福岡県,福岡市南区,大橋１丁目８番１号,,40,134,8150033,,,,,,,2024-07-11,1,,,,,ランジャスト,0
169,1290001106428,新規,0,2024-07-11,2024-07-11,株式会社大石塗装,,株式会社,福岡県,大野城市,若草３丁目１８番１号ステラ若草Ａ１０２号,,40,219,8160981,,,,,,,2024-07-11,1,,,,,オオイシトソウ,0
172,1320003004411,新規,0,2024-07-11,2024-07-11,合同会社タクオー,,合同会社,大分県,別府市,天満町１４番２２号,,44,202,8740906,,,,,,,2024-07-11,1,,,,,タクオー,0
173,1330001032231,新規,0,2024-07-11,2024-07-11,株式会社新野工業,,株式会社,熊本県,熊本市西区,小島下町３４８４番地４,,43,103,8615284,,,,,,,2024-07-11,1,,,,,ニイノコウギョウ,0
176,1330003010466,新規,0,2024-07-11,2024-07-11,合同会社ＶＩＭ,,合同会社,熊本県,八代市,三江湖町１４２２番地７（１２）三江湖団地,,43,202,8695163,,,,,,,2024-07-11,1,,,,,ヴィム,0
179,1360003014150,新規,0,2024-07-11,2024-07-11,合同会社あいしてる,,合同会社,沖縄県,宜野湾市,愛知３丁目１３－１６ＬｕｃｅＡｌｂａ１０２,,47,205,9012206,,,,,,,2024-07-11,1,,,,,アイシテル,0
183,1400001016730,新規,0,2024-07-11,2024-07-11,株式会社岩手産業統計所,,株式会社,岩手県,盛岡市,中央通１丁目７番３５号コアフィールドモリオカ１階,,03,201,0200021,,,,,,,2024-07-11,1,,,,,イワテサンギョウトウケイジョ,0
185,1410001013867,新規,0,2024-07-11,2024-07-11,株式会社マイステージ,,株式会社,秋田県,大館市,城西町１番５３号,,05,204,0170865,,,,,,,2024-07-11,1,,,,,マイステージ,0
186,1410001013875,新規,0,2024-07-11,2024-07-11,株式会社ＰＵＧ,,株式会社,秋田県,秋田市,将軍野南３丁目２－４,,05,201,0110936,,,,,,,2024-07-11,1,,,,,,0
190,1430001092240,新規,0,2024-07-11,2024-07-11,株式会社Ｓａｉ,,株式会社,北海道,砂川市,空知太西三条５丁目１－４,,01,226,0730173,,,,,,,2024-07-11,1,,,,,サイ,0
191,1430003016544,新規,0,2024-07-11,2024-07-11,アレイズ合同会社,,合同会社,北海道,札幌市西区,二十四軒四条２丁目３番１３－２０５号,,01,107,0630804,,,,,,,2024-07-11,1,,,,,アレイズ,0
192,1430003016552,新規,0,2024-07-11,2024-07-11,合同会社ミークル,,合同会社,北海道,札幌市手稲区,前田三条３丁目９番２１号,,01,109,0060813,,,,,,,2024-07-11,1,,,,,ミークル,0
196,1480001012540,新規,0,2024-07-11,2024-07-11,株式会社柏新水産,,株式会社,徳島県,板野郡松茂町,長原２２６番地２,,36,401,7710216,,,,,,,2024-07-11,1,,,,,カシワシンスイサン,0
205,2010001246432,新規,0,2024-07-11,2024-07-11,株式会社明和,,株式会社,東京都,文京区,千石３丁目３番３号千石明穂ハイツ１０４－Ａ,,13,105,1120011,,,,,,,2024-07-11,1,,,,,メイワ,0
209,2010005038495,新規,0,2024-07-11,2024-07-11,一般財団法人ヘルステック共創振興財団,,その他の設立登記法人,東京都,中央区,日本橋小伝馬町１４番７号,,13,102,1030001,,,,,,,2024-07-11,1,,,,,ヘルステックキョウソウシンコウザイダン,0
220,2010401183655,新規,0,2024-07-11,2024-07-11,Ａｄｖｅｃｔｕｓ　Ｊａｐａｎ株式会社,,株式会社,東京都,港区,新橋６丁目１３番１０号ＰＭＯ新橋６Ｆ,,13,103,1050004,,,,,,,2024-07-11,1,,,,,アドベクタスジャパン,0
222,2010501052594,新規,0,2024-07-11,2024-07-11,志行株式会社,,株式会社,東京都,台東区,鳥越２丁目８番４号,,13,106,1110054,,,,,,,2024-07-11,1,,,,,シユキ,0
226,2010701046264,新規,0,2024-07-11,2024-07-11,株式会社ＳＡＭＯＥＤＯ’Ｓ,,株式会社,東京都,品川区,上大崎３丁目１１番１２号,,13,109,1410021,,,,,,,2024-07-11,1,,,,,サモエドーズ,0
228,2010801035233,新規,0,2024-07-11,2024-07-11,株式会社ＭＡＤＣＬＡＳＳ,,株式会社,東京都,大田区,田園調布２丁目２７－４,,13,111,1450071,,,,,,,2024-07-11,1,,,,,マッドクラス,0
233,2010901055627,新規,0,2024-07-11,2024-07-11,株式会社ＭｏｎｏＬｕｃｅ,,株式会社,東京都,世田谷区,池尻２丁目３３番地１５号１２０５,,13,112,1540001,,,,,,,2024-07-11,1,,,,,モノラス,0
236,2011001163171,新規,0,2024-07-11,2024-07-11,Ｉｎｃｏｕｎｔｒｙ株式会社,,株式会社,東京都,渋谷区,笹塚２丁目２３番６号ＳＩＤＥＰＬＡＣＥ・ＳＡＳＡＺＵＫＡ１００１,,13,113,1510073,,,,,,,2024-07-11,1,,,,,インカントリー,0
237,2011001163238,新規,0,2024-07-11,2024-07-11,Ｆｕｔｕｒｌｙ株式会社,,株式会社,東京都,渋谷区,道玄坂１丁目１０番８号渋谷道玄坂東急ビル２Ｆ－Ｃ,,13,113,1500043,,,,,,,2024-07-11,1,,,,,フューチャリー,0
238,2011001163345,新規,0,2024-07-11,2024-07-11,株式会社Ｔｕｍｕｇｉｉ,,株式会社,東京都,渋谷区,道玄坂１丁目１０番８号渋谷道玄坂東急ビル２Ｆ－Ｃ,,13,113,1500043,,,,,,,2024-07-11,1,,,,,ツムギ,0
239,2011003019545,新規,0,2024-07-11,2024-07-11,合同会社ライドオン,,合同会社,東京都,渋谷区,恵比寿西２丁目４番８号ウインド恵比寿ビル８Ｆ,,13,113,1500021,,,,,,,2024-07-11,1,,,,,ライドオン,0
255,2011801044521,新規,0,2024-07-11,2024-07-11,株式会社むねや,,株式会社,東京都,葛飾区,新小岩４丁目１０番１号,,13,122,1240024,,,,,,,2024-07-11,1,,,,,,0
258,2012703003029,新規,0,2024-07-11,2024-07-11,合同会社わんにゃんこねくとくらぶ,,合同会社,東京都,西東京市,富士町５丁目６－１２－店舗１号室,,13,229,2020014,,,,,,,2024-07-11,1,,,,,ワンニャンコネクトクラブ,0
260,2013103001358,新規,0,2024-07-11,2024-07-11,合同会社Ｖｉｔａ　ｇｒｅｅｎ,,合同会社,東京都,青梅市,滝ノ上町１２２８番地の５サンテラス青梅２０２室,,13,205,1980085,,,,,,,2024-07-11,1,,,,,ビタグリーン,0
265,2013301052797,新規,0,2024-07-11,2024-07-11,株式会社アイリンク,,株式会社,東京都,豊島区,東池袋１丁目３２番７号大樹生命池袋ビル６階,,13,116,1700013,,,,,,,2024-07-11,1,,,,,アイリンク,0
268,2013305003615,新規,0,2024-07-11,2024-07-11,一般社団法人絡合会,,その他の設立登記法人,東京都,豊島区,長崎４丁目４３番１号,,13,116,1710051,,,,,,,2024-07-11,1,,,,,ラクゴウカイ,0
271,2020001158107,新規,0,2024-07-11,2024-07-11,株式会社ＮＹＳコーポレーション,,株式会社,神奈川県,横浜市神奈川区,大口通３５番地,,14,102,2210002,,,,,,,2024-07-11,1,,,,,エヌワイエスコーポレーション,0
272,2020001158131,新規,0,2024-07-11,2024-07-11,ＪＱＣ株式会社,,株式会社,神奈川県,横浜市保土ケ谷区,天王町２丁目４２番地２天王町団地２棟１２１１号,,14,106,2400003,,,,,,,2024-07-11,1,,,,,ジェーキューシー,0
273,2020003026484,新規,0,2024-07-11,2024-07-11,Ｖｉｌｌａｇｅ　ｏｆ　Ｆｏｒｔｕｎｅ合同会社,,合同会社,神奈川県,川崎市麻生区,五力田３丁目１９番１－３０１号,,14,137,2150025,,,,,,,2024-07-11,1,,,,,ヴィレッジオブフォーチュン,0
274,2021001082718,新規,0,2024-07-11,2024-07-11,株式会社逗葉管工,,株式会社,神奈川県,三浦郡葉山町,長柄９８４番地の１１,,14,301,2400113,,,,,,,2024-07-11,1,,,,,ズヨウカンコウ,0
276,2021003014743,新規,0,2024-07-11,2024-07-11,データセンターコンサルタンシーサービシーズジャパン合同会社,,合同会社,神奈川県,鎌倉市,台１８１５番地２,,14,204,2470061,,,,,,,2024-07-11,1,,,,,データセンターコンサルタンシーサービシーズジャパン,0
277,2021003014768,新規,0,2024-07-11,2024-07-11,合同会社ソレイユエナジー１０号,,合同会社,神奈川県,茅ヶ崎市,茅ヶ崎１丁目２番４７号,,14,207,2530041,,,,,,,2024-07-11,1,,,,,ソレイユエナジージュウゴウ,0
283,2030001161398,新規,0,2024-07-11,2024-07-11,オーシャンビー株式会社,,株式会社,埼玉県,戸田市,美女木北３丁目２番地の１（レーベンハイム戸田ソラリエ６１８号室）,,11,224,3350038,,,,,,,2024-07-11,1,,,,,オーシャンビー,0
286,2030003024677,新規,0,2024-07-11,2024-07-11,Ａ＆Ｈ合同会社,,合同会社,埼玉県,さいたま市大宮区,高鼻町１丁目４００番地２,,11,103,3300803,,,,,,,2024-07-11,1,,,,,エーアンドエイチ,0
287,2030003024693,新規,0,2024-07-11,2024-07-11,合同会社ＲＥＡＣＨＯＵＴ　ＰＬＵＳ,,合同会社,埼玉県,さいたま市見沼区,大字蓮沼１０１３番地１,,11,104,3370015,,,,,,,2024-07-11,1,,,,,リーチアウトプラス,0
293,2040001134485,新規,0,2024-07-11,2024-07-11,株式会社成,,株式会社,千葉県,南房総市,白浜町白浜２９９２番地,,12,234,2950102,,,,,,,2024-07-11,1,,,,,ナル,0
295,2080001008306,新規,0,2024-07-11,2024-07-11,株式会社シバダクト,,株式会社,静岡県,静岡市清水区,長崎６８６番地の１,,22,103,4240065,,,,,,,2024-07-11,1,,,,,,0
313,2120001266361,新規,0,2024-07-11,2024-07-11,株式会社榮和ホールディングス,,株式会社,大阪府,大阪市北区,梅田１丁目１番３号,,27,127,5300001,,,,,,,2024-07-11,1,,,,,エイワホールディングス,0
314,2120001266519,新規,0,2024-07-11,2024-07-11,ＭＦプロパティ株式会社,,株式会社,大阪府,大阪市中央区,内淡路町１丁目４番１号,,27,128,5400038,,,,,,,2024-07-11,1,,,,,エムエフプロパティ,0
315,2120001266576,新規,0,2024-07-11,2024-07-11,株式会社海豊,,株式会社,大阪府,大阪市西成区,山王２丁目５番１８号１階,,27,122,5570001,,,,,,,2024-07-11,1,,,,,カイホウ,0
316,2120001266642,新規,0,2024-07-11,2024-07-11,星河株式会社,,株式会社,大阪府,大阪市港区,八幡屋３丁目５－１－２０２室,,27,107,5520014,,,,,,,2024-07-11,1,,,,,セイガ,0
320,2120003027010,新規,0,2024-07-11,2024-07-11,ＡＵ合同会社,,合同会社,大阪府,大阪市生野区,生野東４丁目７番２３号,,27,116,5440025,,,,,,,2024-07-11,1,,,,,アウ,0
321,2120003027019,新規,0,2024-07-11,2024-07-11,合同会社クレアユース,,合同会社,大阪府,大阪市東成区,東小橋１丁目１３番１６号シャトーＯＭ玉造１Ｆ,,27,115,5370024,,,,,,,2024-07-11,1,,,,,クレアユース,0
323,2120101069953,新規,0,2024-07-11,2024-07-11,株式会社ＵＮＴＹ　Ｗｏｒｋ,,株式会社,大阪府,岸和田市,作才町１２４番地エクセル江坂２－Ｄ,,27,202,5960826,,,,,,,2024-07-11,1,,,,,ユニティワーク,0
324,2120101069978,新規,0,2024-07-11,2024-07-11,株式会社ＢＡＲＲＥＬ,,株式会社,大阪府,堺市堺区,市之町東２丁２番２２号松永ビル２階,,27,141,5900952,,,,,,,2024-07-11,1,,,,,バーレル,0
326,2120105009880,新規,0,2024-07-11,2024-07-11,医療法人ＭＣＭ会,,その他の設立登記法人,大阪府,堺市東区,西野４６１番地６松井ビル１Ｆ１０１,,27,143,5998125,,,,,,,2024-07-11,1,,,,,エムシーエムカイ,0
329,2120903005255,新規,0,2024-07-11,2024-07-11,合同会社ＡＣＡＲＩＳＥ,,合同会社,大阪府,吹田市,岸部中４丁目６－１５アリヴィラ１０２号,,27,205,5640002,,,,,,,2024-07-11,1,,,,,アクアライズ,0
330,2122003002934,新規,0,2024-07-11,2024-07-11,合同会社えんぴつ,,合同会社,大阪府,東大阪市,若江北町３丁目４－２８,,27,227,5780945,,,,,,,2024-07-11,1,,,,,エンピツ,0
343,2140001135085,新規,0,2024-07-11,2024-07-11,ＲＩＳＩＮＧ　ＪＡＰＡＮ株式会社,,株式会社,兵庫県,神戸市北区,有野町唐櫃４－１－３,,28,109,6511331,,,,,,,2024-07-11,1,,,,,ライジングジャパン,0
344,2140001135119,新規,0,2024-07-11,2024-07-11,株式会社ＺＡＢ,,株式会社,兵庫県,明石市,大久保町西島８１３番地の１,,28,203,6740065,,,,,,,2024-07-11,1,,,,,,0
373,2200005013644,新規,0,2024-07-11,2024-07-11,行政書士法人あおぞら合同事務所,,その他の設立登記法人,岐阜県,岐阜市,六条片田１丁目１４番２号,,21,201,5008355,,,,,,,2024-07-11,1,,,,,アオゾラゴウドウジムショ,0
377,2230001020435,新規,0,2024-07-11,2024-07-11,株式会社レイブン,,株式会社,富山県,富山市,住友町１０番１２号,,16,201,9318454,,,,,,,2024-07-11,1,,,,,レイブン,0
388,2290001106419,新規,0,2024-07-11,2024-07-11,株式会社梅田,,株式会社,福岡県,宗像市,牟田尻２０２０番地,,40,220,8113503,,,,,,,2024-07-11,1,,,,,ウメダ,0
389,2290001106427,新規,0,2024-07-11,2024-07-11,株式会社ｂｌｉｓｓ,,株式会社,福岡県,福岡市博多区,博多駅中央街８番１号ＪＲＪＰ博多ビル３階,,40,132,8120012,,,,,,,2024-07-11,1,,,,,ブリス,0
390,2290001106476,新規,0,2024-07-11,2024-07-11,株式会社ＣＯＺＭＡＮ,,株式会社,福岡県,福岡市早良区,野芥２丁目６番７－１０２号,,40,137,8140171,,,,,,,2024-07-11,1,,,,,コズマン,0
392,2290003015535,新規,0,2024-07-11,2024-07-11,合同会社バイタル,,合同会社,福岡県,福岡市東区,香椎照葉１丁目３番３－１１０３号ヴェルデコートＩ区３番館,00135553,40,131,8130017,,,,,,,2024-07-11,1,,,,,バイタル,0
403,2330001032230,新規,0,2024-07-11,2024-07-11,株式会社明日花,,株式会社,熊本県,熊本市南区,良町４丁目１番５３号,,43,104,8620969,,,,,,,2024-07-11,1,,,,,アスカ,0
407,2360001033928,新規,0,2024-07-11,2024-07-11,日本インフォテクノロジー株式会社,,株式会社,沖縄県,那覇市,泊２丁目１番地１８Ｔ＆Ｃ泊ビル５階,,47,201,9000012,,,,,,,2024-07-11,1,,,,,ニホンインフォテクノロジー,0
422,2430001092223,新規,0,2024-07-11,2024-07-11,株式会社中央工務店,,株式会社,北海道,札幌市中央区,南十八条西７丁目１番２０－３０２号,,01,101,0640918,,,,,,,2024-07-11,1,,,,,チュウオウコウムテン,0
424,2430003016551,新規,0,2024-07-11,2024-07-11,合同会社ジェイク,,合同会社,北海道,札幌市手稲区,前田三条３丁目９番２１号,,01,109,0060813,,,,,,,2024-07-11,1,,,,,ジェイク,0
429,2700150126241,新規,0,2024-07-11,2024-06-26,朝日丘地区コミュニティ会議,,その他,愛知県,豊田市,御幸町１丁目８０朝日丘交流館内,,23,211,4710852,,,,,,,2024-06-26,1,,,,,アサヒガオカチクコミユニテイカイギ,0
440,3010001246365,新規,0,2024-07-11,2024-07-11,株式会社Ｍａｒｕｔｓｕｋｅ,,株式会社,東京都,千代田区,九段南１丁目５番６号りそな九段ビル５ＦＫＳフロア,,13,101,1020074,,,,,,,2024-07-11,1,,,,,マルツケ,0
441,3010001246464,新規,0,2024-07-11,2024-07-11,資詠科技株式会社,,株式会社,東京都,中央区,銀座１丁目１２番４号Ｎ＆ＥＢＬＤ．６Ｆ,,13,102,1040061,,,,,,,2024-07-11,1,,,,,シエイカギ,0
446,3010005038486,新規,0,2024-07-11,2024-07-11,Ｊ　Ｂｒｉｄｇｅ国際監査法人,,その他の設立登記法人,東京都,中央区,日本橋２丁目１番３号,,13,102,1030027,,,,,,,2024-07-11,1,,,,,ジェイブリッジコクサイ,0
448,3010101016230,新規,0,2024-07-11,2024-07-11,株式会社Ｊａｃｋ,,株式会社,東京都,八王子市,絹ケ丘１丁目３９番６号,,13,201,1920912,,,,,,,2024-07-11,1,,,,,ジャック,0
453,3010403032966,新規,0,2024-07-11,2024-07-11,合同会社メゾンケーピー,,合同会社,東京都,港区,赤坂３丁目１０番１２－１３０１号,,13,103,1070052,,,,,,,2024-07-11,1,,,,,メゾンケーピー,0
454,3010403032999,新規,0,2024-07-11,2024-07-11,合同会社Ｂｅａｎｓ,,合同会社,東京都,港区,白金台５丁目５番８号,,13,103,1080071,,,,,,,2024-07-11,1,,,,,ビーンズ,0
459,3010501052585,新規,0,2024-07-11,2024-07-11,金中華株式会社,,株式会社,東京都,台東区,上野６丁目７‐１６川久保ビル４０９号,,13,106,1100005,,,,,,,2024-07-11,1,,,,,キンチュウカ,0
460,3010503007513,新規,0,2024-07-11,2024-07-11,合同会社いりや広告,,合同会社,東京都,台東区,竜泉２丁目６番１７号,,13,106,1100012,,,,,,,2024-07-11,1,,,,,イリヤコウコク,0
463,3010701046263,新規,0,2024-07-11,2024-07-11,株式会社Ｃｏｍｉｏ,,株式会社,東京都,品川区,東大井１丁目１番８号ＢＲＡＮＣＨ２０５,,13,109,1400011,,,,,,,2024-07-11,1,,,,,コミオ,0
464,3010901055634,新規,0,2024-07-11,2024-07-11,株式会社Ｉ’ＬＬ,,株式会社,東京都,世田谷区,池尻４丁目９番２３－１０４号,,13,112,1540001,,,,,,,2024-07-11,1,,,,,アイル,0
466,3010903009217,新規,0,2024-07-11,2024-07-11,ＣＡＬＩＣＯ　ＡＵＤＩＯ合同会社,,合同会社,東京都,世田谷区,奥沢４丁目９－９第二小幡ビル２Ｆ,,13,112,1580083,,,,,,,2024-07-11,1,,,,,キャリコオーディオ,0
469,3011001163187,新規,0,2024-07-11,2024-07-11,クライミングウォント株式会社,,株式会社,東京都,渋谷区,神泉町１０番１５号アネックス神泉３０１,,13,113,1500045,,,,,,,2024-07-11,1,,,,,クライミングウォント,0
470,3011003019552,新規,0,2024-07-11,2024-07-11,Ｌｏｆｔ　Ｇｙｍ合同会社,,合同会社,東京都,目黒区,下目黒１丁目１番１４号コノトラビル７Ｆ,,13,110,1530064,,,,,,,2024-07-11,1,,,,,ロフトジム,0
473,3011005010575,新規,0,2024-07-11,2024-07-11,一般社団法人日本音声ＡＩ学習データ認証サービス機構,,その他の設立登記法人,東京都,渋谷区,渋谷３丁目５番１６号,,13,113,1500002,,,,,,,2024-07-11,1,,,,,,0
486,3011801044529,新規,0,2024-07-11,2024-07-11,株式会社大栄国際,,株式会社,東京都,葛飾区,西新小岩５丁目２８番２０－１０５号,,13,122,1240025,,,,,,,2024-07-11,1,,,,,ダイエイコクサイ,0
495,3020001158080,新規,0,2024-07-11,2024-07-11,柿澤商事株式会社,,株式会社,神奈川県,横浜市都筑区,池辺町４０３５番地１３パークシティＬａＬａ横浜７３５号,,14,118,2240053,,,,,,,2024-07-11,1,,,,,カキサワショウジ,0
496,3020001158106,新規,0,2024-07-11,2024-07-11,株式会社三田技研,,株式会社,神奈川県,横浜市港北区,下田町３丁目１９番１４号,,14,109,2230064,,,,,,,2024-07-11,1,,,,,ミタギケン,0
497,3020001158130,新規,0,2024-07-11,2024-07-11,株式会社Ｓｕｒｐａｓｓ,,株式会社,神奈川県,横浜市中区,翁町１丁目３番地１０ニッセンビル６階,,14,104,2310028,,,,,,,2024-07-11,1,,,,,サーパス,0
498,3020003026483,新規,0,2024-07-11,2024-07-11,ＴＲＡＣＫＳ合同会社,,合同会社,神奈川県,横浜市青葉区,桂台２丁目１６番地３８,,14,117,2270034,,,,,,,2024-07-11,1,,,,,トラックス,0
499,3020003026491,新規,0,2024-07-11,2024-07-11,合同会社３Ｃ,,合同会社,神奈川県,横浜市都筑区,中川中央１丁目２３番１６号ボヌールＢＬＤ４階,,14,118,2240003,,,,,,,2024-07-11,1,,,,,スリーシー,0
500,3020003026525,新規,0,2024-07-11,2024-07-11,ＡＣテクノシェア合同会社,,合同会社,神奈川県,横浜市港北区,日吉１丁目７番２６号,,14,109,2230061,,,,,,,2024-07-11,1,,,,,エーシーテクノシェア,0
508,3021003014767,新規,0,2024-07-11,2024-07-11,合同会社ソレイユエナジー９号,,合同会社,神奈川県,茅ヶ崎市,茅ヶ崎１丁目２番４７号,,14,207,2530041,,,,,,,2024-07-11,1,,,,,ソレイユエナジーキュウゴウ,0
515,3030001161397,新規,0,2024-07-11,2024-07-11,株式会社ＡＴＡＲＩＭＥ,,株式会社,埼玉県,さいたま市大宮区,下町１丁目４３番地８ＣＯＴＴＯＮ・ＣＡＮＤＹ・ＳＨＩＭＯＣＨＯ５階,,11,103,3300844,,,,,,,2024-07-11,1,,,,,アタリメ,0
516,3030001161406,新規,0,2024-07-11,2024-07-11,株式会社ほけんウィズＹｏｕ,,株式会社,埼玉県,上尾市,大字瓦葺２４１９番地８,,11,219,3620022,,,,,,,2024-07-11,1,,,,,ホケンウィズユー,0
517,3030001161414,新規,0,2024-07-11,2024-07-11,株式会社エルロシナンテ,,株式会社,埼玉県,さいたま市大宮区,桜木町２丁目３大宮マルイ７階,,11,103,3300854,,,,,,,2024-07-11,1,,,,,エルロシナンテ,0
520,3030003024684,新規,0,2024-07-11,2024-07-11,合同会社Ｏｖｅｒ　Ｗｈｅｌｍｉｎｇ,,合同会社,埼玉県,加須市,中央１丁目１４番１７号,,11,210,3470055,,,,,,,2024-07-11,1,,,,,オーバーウェルミング,0
525,3040001134484,新規,0,2024-07-11,2024-07-11,シンヨウフーズ株式会社,,株式会社,千葉県,山武市,松尾町借毛本郷７４０番地,,12,237,2891537,,,,,,,2024-07-11,1,,,,,シンヨウフーズ,0
526,3040001134501,新規,0,2024-07-11,2024-07-11,株式会社増子,,株式会社,千葉県,船橋市,前貝塚町２５５番地２０,,12,204,2730042,,,,,,,2024-07-11,1,,,,,マスコ,0
527,3040001134526,新規,0,2024-07-11,2024-07-11,株式会社鴻,,株式会社,千葉県,松戸市,松戸１７４３番地の１楓雅２４－２０５号,,12,207,2710092,,,,,,,2024-07-11,1,,,,,ヒロ,0
529,3040003025384,新規,0,2024-07-11,2024-07-11,合同会社ＡＬＬＩＡ,,合同会社,千葉県,八千代市,勝田台４丁目１７番地１グレイス勝田台西棟１０３号室,,12,221,2760023,,,,,,,2024-07-11,1,,,,,アリア,0
533,3050003008520,新規,0,2024-07-11,2024-07-11,ＫＡＳＨＭＩＲ　ＴＲＡＤＩＮＧ合同会社,,合同会社,茨城県,筑西市,藤ケ谷２０９１番地,,08,227,3080112,,,,,,,2024-07-11,1,,,,,カシミールトレーディング,0
536,3080003003246,新規,0,2024-07-11,2024-07-11,合同会社空と雲,,合同会社,静岡県,静岡市清水区,江尻台町９－１１,,22,103,4240044,,,,,,,2024-07-11,1,,,,,ソラトクモ,0
542,3090001018781,新規,0,2024-07-11,2024-07-11,侑愛会株式会社,,株式会社,山梨県,甲府市,小瀬町１番地,,19,201,4000836,,,,,,,2024-07-11,1,,,,,ユウアイカイ,0
549,3120001266534,新規,0,2024-07-11,2024-07-11,株式会社ＬＨＨ,,株式会社,大阪府,大阪市中央区,船場中央３丁目１－７船場センタービル７号館,,27,128,5410055,,,,,,,2024-07-11,1,,,,,エルエイチエイチ,0
550,3120001266600,新規,0,2024-07-11,2024-07-11,データクラウド株式会社,,株式会社,大阪府,大阪市北区,梅田１丁目１－３大阪駅前第３ビル２９階１－１－１,,27,127,5300001,,,,,,,2024-07-11,1,,,,,データクラウド,0
551,3120001266641,新規,0,2024-07-11,2024-07-11,啓陽株式会社,,株式会社,大阪府,大阪市生野区,新今里４丁目７番７号セゾン寿１０２,,27,116,5440001,,,,,,,2024-07-11,1,,,,,ケイヨウ,0
552,3120001266666,新規,0,2024-07-11,2024-07-11,共同技研株式会社,,株式会社,大阪府,大阪市中央区,南船場２丁目４番８号,,27,128,5420081,,,,,,,2024-07-11,1,,,,,キョウドウギケン,0
553,3120001266724,新規,0,2024-07-11,2024-07-11,中南商事株式会社,,株式会社,大阪府,枚方市,車塚１丁目１－１輝きプラザきらら６階１０号室,,27,210,5731159,,,,,,,2024-07-11,1,,,,,チュウナンショウジ,0
555,3120003027018,新規,0,2024-07-11,2024-07-11,合同会社両道会,,合同会社,大阪府,大阪市住吉区,苅田９丁目２番２１号７階,,27,120,5580011,,,,,,,2024-07-11,1,,,,,リョウドウカイ,0
558,3120101069969,新規,0,2024-07-11,2024-07-11,株式会社ティクレ,,株式会社,大阪府,河内長野市,小塩町１９８番地,,27,216,5860035,,,,,,,2024-07-11,1,,,,,ティクレ,0
561,3120901049443,新規,0,2024-07-11,2024-07-11,株式会社ファーストページ,,株式会社,大阪府,箕面市,箕面８丁目１５番２９号,,27,220,5620001,,,,,,,2024-07-11,1,,,,,ファーストページ,0
562,3120901049451,新規,0,2024-07-11,2024-07-11,株式会社グランディール,,株式会社,大阪府,豊中市,曽根南町２丁目１５番８号,,27,203,5610804,,,,,,,2024-07-11,1,,,,,グランディール,0
565,3122001038260,新規,0,2024-07-11,2024-07-11,株式会社ユーベルハイム,,株式会社,大阪府,八尾市,刑部１丁目３６４番地１０１,,27,212,5810015,,,,,,,2024-07-11,1,,,,,ユーベルハイム,0
574,3160003003238,新規,0,2024-07-11,2024-07-11,合同会社ｃｏｒｅ,,合同会社,滋賀県,高島市,新旭町深溝９０１,,25,212,5201503,,,,,,,2024-07-11,1,,,,,コア,0
575,3170003002073,新規,0,2024-07-11,2024-07-11,合同会社ｃｏｎｃｅｐｔｅｒ,,合同会社,和歌山県,和歌山市,弘西６６番地８,,30,201,6496339,,,,,,,2024-07-11,1,,,,,コンセプター,0
589,3180001162348,新規,0,2024-07-11,2024-07-11,株式会社ハーモニクス,,株式会社,愛知県,名古屋市緑区,鳴海町字有松裏１４９の２３,,23,114,4580824,,,,,,,2024-07-11,1,,,,,ハーモニクス,0
593,3180301038834,新規,0,2024-07-11,2024-07-11,株式会社ＫＹＮＹ,,株式会社,愛知県,岡崎市,六名南２丁目７番地５メゾン夢１０１,,23,202,4440845,,,,,,,2024-07-11,1,,,,,キニー,0
595,3180303006178,新規,0,2024-07-11,2024-07-11,合同会社ＴＫ　ｓｔｏｃｋ,,合同会社,愛知県,岡崎市,定国町字下川原２８番地３,,23,202,4440216,,,,,,,2024-07-11,1,,,,,ティーケーストック,0
597,3200001042695,新規,0,2024-07-11,2024-07-11,株式会社ＡｄｄＬｉｆｅ,,株式会社,岐阜県,高山市,石浦町４丁目９０番地２,,21,203,5060825,,,,,,,2024-07-11,1,,,,,アドライフ,0
600,3210001019825,新規,0,2024-07-11,2024-07-11,株式会社ＡＩｓｙｓＦＫＩ,,株式会社,福井県,福井市,下江守町第５４号２番地４５,,18,201,9188037,,,,,,,2024-07-11,1,,,,,アイシスフクイ,0
605,3250003003534,新規,0,2024-07-11,2024-07-11,河崎工業合同会社,,合同会社,山口県,下関市,彦島江の浦町４丁目６番１６号シャーメゾンアミスターＩＶ２０１号,00135552,35,201,7500075,,,,,,,2024-07-11,1,,,,,カワサキコウギョウ,0
616,3290001106426,新規,0,2024-07-11,2024-07-11,株式会社バディワーク福岡,,株式会社,福岡県,福岡市西区,内浜２丁目１１番２号,,40,135,8190005,,,,,,,2024-07-11,1,,,,,バディワークフクオカ,0
618,3290003015468,新規,0,2024-07-11,2024-07-11,合同会社ポクスンア,,合同会社,福岡県,福岡市博多区,堅粕３丁目１８－３２プレスタイル博多ＥＡＳＴ９０５,,40,132,8120043,,,,,,,2024-07-11,1,,,,,ポクスンア,0
619,3290003015559,新規,0,2024-07-11,2024-07-11,合同会社３９ＦＡＲＭ,,合同会社,福岡県,春日市,上白水７丁目２６番地２号室,,40,218,8160844,,,,,,,2024-07-11,1,,,,,サンキュウファーム,0
632,3350001019076,新規,0,2024-07-11,2024-07-11,株式会社寛ぎの手,,株式会社,宮崎県,宮崎市,神宮東１丁目１番６５号ヴァンデュールパレス神宮東１８０５号,,45,201,8800056,,,,,,,2024-07-11,1,,,,,クツロギノテ,0
634,3350003004704,新規,0,2024-07-11,2024-07-11,合同会社Ｍｏｋｕｓａｒａ,,合同会社,宮崎県,宮崎市,佐土原町上田島４０８４番地２,,45,201,8800301,,,,,,,2024-07-11,1,,,,,モクサラ,0
638,3360001033927,新規,0,2024-07-11,2024-07-11,株式会社ブリッジ沖縄,,株式会社,沖縄県,糸満市,字糸満１６１２番地ＴｗｉｎＢｒｉｄｇｅ糸満２０２号室,,47,210,9010361,,,,,,,2024-07-11,1,,,,,ブリッジオキナワ,0
639,3360003014149,新規,0,2024-07-11,2024-07-11,合同会社儀保設備,,合同会社,沖縄県,島尻郡南風原町,字津嘉山１３９４－５,,47,350,9011117,,,,,,,2024-07-11,1,,,,,ギボセツビ,0
641,3370001051515,新規,0,2024-07-11,2024-07-11,株式会社アローメディカル,,株式会社,宮城県,仙台市青葉区,貝ケ森６丁目１２－１８,,04,101,9810942,,,,,,,2024-07-11,1,,,,,アローメディカル,0
649,3410001013873,新規,0,2024-07-11,2024-07-11,株式会社ＨＫカンパニー,,株式会社,秋田県,秋田市,仁井田本町２丁目１２番２０号,,05,201,0101421,,,,,,,2024-07-11,1,,,,,,0
650,3410003003955,新規,0,2024-07-11,2024-07-11,合同会社Ｕ,,合同会社,秋田県,雄勝郡羽後町,西馬音内字本町４７番地,,05,463,0121131,,,,,,,2024-07-11,1,,,,,ユー,0
653,3420005007912,新規,0,2024-07-11,2024-07-11,一般社団法人全国障害児・者相談支援事業協会,,その他の設立登記法人,青森県,弘前市,大字若葉２丁目７－１,,02,202,0368255,,,,,,,2024-07-11,1,,,,,ゼンコクショウガイジシャソウダンシエンジギョウキョウカイ,0
654,3430001092230,新規,0,2024-07-11,2024-07-11,株式会社Ａｗａｔｅｃｈ,,株式会社,北海道,札幌市中央区,北五条西１１丁目１５－４,,01,101,0600005,,,,,,,2024-07-11,1,,,,,アワテック,0
655,3430001092239,新規,0,2024-07-11,2024-07-11,スルターントレーディング株式会社,,株式会社,北海道,芦別市,上芦別町３８番地の３４８,00135551,01,216,0791371,,,,,,,2024-07-11,1,,,,,スルターントレーディング,0
657,3430003016550,新規,0,2024-07-11,2024-07-11,合同会社Ｎａｇｉ,,合同会社,北海道,札幌市中央区,南二十八条西９丁目４番２１－１号,,01,101,0640928,,,,,,,2024-07-11,1,,,,,ナギ,0
660,3470001020286,新規,0,2024-07-11,2024-07-11,株式会社ＴＡＳＴＥ　ＴＨＥ　ＩＳＬＡＮＤ,,株式会社,香川県,小豆郡小豆島町,西村甲９２番地２,,37,324,7614434,,,,,,,2024-07-11,1,,,,,テイストザアイランド,0
661,3480001012539,新規,0,2024-07-11,2024-07-11,株式会社大西農業社,,株式会社,徳島県,徳島市,名東町２丁目５４０番地,,36,201,7700047,,,,,,,2024-07-11,1,,,,,オオニシノウギョウシャ,0
662,3480002016282,新規,0,2024-07-11,2024-07-11,吉田商事有限会社,,有限会社,徳島県,徳島市,城東町２丁目２番３９号,,36,201,7700862,,,,,,,2024-07-11,1,,,,,,0
663,3480003002158,新規,0,2024-07-11,2024-07-11,合同会社ベストプランニング,,合同会社,徳島県,美馬市,脇町字拝原１２６６,,36,207,7793601,,,,,,,2024-07-11,1,,,,,ベストプランニング,0
670,4010001246439,新規,0,2024-07-11,2024-07-11,Ｆｕｓｉｏｎ　Ｍｏｄｅ株式会社,,株式会社,東京都,中央区,晴海５丁目４番５ー３０１号,,13,102,1040053,,,,,,,2024-07-11,1,,,,,フュージョンモード,0
671,4010001246463,新規,0,2024-07-11,2024-07-11,ホビーハンター株式会社,,株式会社,東京都,千代田区,神田佐久間町３丁目２８星野ビル５１０号,,13,101,1010025,,,,,,,2024-07-11,1,,,,,ホビーハンター,0
673,4010005038493,新規,0,2024-07-11,2024-07-11,一般社団法人ＧＸ総合研究所,,その他の設立登記法人,東京都,千代田区,丸の内２丁目６番１号,,13,101,1000005,,,,,,,2024-07-11,1,,,,,ジーエックスソウゴウケンキュウジョ,0
677,4010403032981,新規,0,2024-07-11,2024-07-11,合同会社モコモコ,,合同会社,東京都,港区,六本木４丁目３番１１号・六本木ユニハウス２２３,,13,103,1060032,,,,,,,2024-07-11,1,,,,,モコモコ,0
680,4010501052592,新規,0,2024-07-11,2024-07-11,株式会社Ｔｏｒｍｅｎｔａ,,株式会社,東京都,台東区,浅草６丁目２４番５－１０２号,,13,106,1110032,,,,,,,2024-07-11,1,,,,,トルメンタ,0
681,4010503007512,新規,0,2024-07-11,2024-07-11,合同会社あらた,,合同会社,東京都,台東区,竜泉２丁目６番１７号,,13,106,1100012,,,,,,,2024-07-11,1,,,,,アラタ,0
683,4010601065544,新規,0,2024-07-11,2024-07-11,あい株式会社,,株式会社,東京都,江東区,有明３丁目７番２６号有明フロンティアビルＢ棟９階,,13,108,1350063,,,,,,,2024-07-11,1,,,,,アイ,0
686,4010703007254,新規,0,2024-07-11,2024-07-11,ＭＡＳＡＥ合同会社,,合同会社,東京都,品川区,東品川３丁目９番１６―８０２号,,13,109,1400002,,,,,,,2024-07-11,1,,,,,マサエ,0
691,4011001163269,新規,0,2024-07-11,2024-07-11,株式会社ＴＯＫＩＮＯＥ,,株式会社,東京都,渋谷区,円山町５番５号Ｎａｖｉ渋谷Ｖ３階,,13,113,1500044,,,,,,,2024-07-11,1,,,,,トキノエ,0
693,4011003019527,新規,0,2024-07-11,2024-07-11,ＲＯＧＥＲ　ＮＩＮＥ　ＪＡＰＡＮ合同会社,,合同会社,東京都,渋谷区,代々木４丁目３１番４号,,13,113,1510053,,,,,,,2024-07-11,1,,,,,ロジャーナインジャパン,0
697,4011205002611,新規,0,2024-07-11,2024-07-11,一般社団法人ＳＯＣＩＡＬ　ＷＯＲＫＥＥＥＲＺ,,その他の設立登記法人,東京都,中野区,中央５丁目１７番１７号アネスタ新中野１０２,,13,114,1640011,,,,,,,2024-07-11,1,,,,,ソーシャルワーカーズ,0
707,4012401042079,新規,0,2024-07-11,2024-07-11,ＰｕｌｓｅＳｔｒａｉｎ株式会社,,株式会社,東京都,三鷹市,牟礼５丁目１４番３２号ヴェルドミール武蔵野１０１,,13,204,1810002,,,,,,,2024-07-11,1,,,,,パルストレイン,0
712,4012803003455,新規,0,2024-07-11,2024-07-11,合同会社ＦＯＱＵＳ,,合同会社,東京都,東大和市,高木１丁目５－１サンライト高木２０１,,13,220,2070005,,,,,,,2024-07-11,1,,,,,フォーカス,0
714,4013301052804,新規,0,2024-07-11,2024-07-11,湘晋株式会社,,株式会社,東京都,豊島区,南大塚２丁目１番１０号,,13,116,1700005,,,,,,,2024-07-11,1,,,,,ショウシン,0
720,4020001158121,新規,0,2024-07-11,2024-07-11,株式会社イーテック,,株式会社,神奈川県,横浜市中区,長者町２丁目５番地１４セントラルビル７０３,,14,104,2310033,,,,,,,2024-07-11,1,,,,,イーテック,0
721,4020003026490,新規,0,2024-07-11,2024-07-11,ＧＥＴ　ＰＥＡＣＨ合同会社,,合同会社,神奈川県,横浜市西区,浅間町１丁目４番３号ウィザードビル４０２,,14,103,2200072,,,,,,,2024-07-11,1,,,,,ゲットピーチ,0
726,4021001082724,新規,0,2024-07-11,2024-07-11,株式会社湘南ファイナンシャルコンサルティング,,株式会社,神奈川県,逗子市,新宿１丁目６―５マリンテラス逗子海岸１０１,,14,208,2490007,,,,,,,2024-07-11,1,,,,,ショウナンファイナンシャルコンサルティング,0
727,4021003014766,新規,0,2024-07-11,2024-07-11,合同会社ソレイユエナジー８号,,合同会社,神奈川県,茅ヶ崎市,茅ヶ崎１丁目２番４７号,,14,207,2530041,,,,,,,2024-07-11,1,,,,,ソレイユエナジーハチゴウ,0
730,4030001161405,新規,0,2024-07-11,2024-07-11,株式会社プランエー,,株式会社,埼玉県,桶川市,若宮１丁目４番３０－１００１号,,11,231,3630022,,,,,,,2024-07-11,1,,,,,プランエー,0
731,4030003024683,新規,0,2024-07-11,2024-07-11,合同会社幸一,,合同会社,埼玉県,川口市,芝下２丁目９番２５－２号,,11,203,3330848,,,,,,,2024-07-11,1,,,,,コウイチ,0
732,4040001134500,新規,0,2024-07-11,2024-07-11,ＤＡＧＴＡＳ株式会社,,株式会社,千葉県,松戸市,小金原２丁目９番地の４５,,12,207,2700021,,,,,,,2024-07-11,1,,,,,ダグタス,0
736,4060001037288,新規,0,2024-07-11,2024-07-11,株式会社ｉ‐ＰＯＷＥＲ　ＪＡＰＡＮ,,株式会社,栃木県,宇都宮市,下田原町２３８番地５,,09,201,3291115,,,,,,,2024-07-11,1,,,,,アイパワージャパン,0
753,4120001266657,新規,0,2024-07-11,2024-07-11,嘉濠商貿株式会社,,株式会社,大阪府,大阪市城東区,関目５丁目１９番９号関目花博公館２０３Ｂ,,27,118,5360008,,,,,,,2024-07-11,1,,,,,カゴウショウボウ,0
754,4120001266748,新規,0,2024-07-11,2024-07-11,株式会社ワンビジョン,,株式会社,大阪府,大阪市住之江区,安立１丁目１３－１３,,27,125,5590003,,,,,,,2024-07-11,1,,,,,ワンビジョン,0
756,4120003027000,新規,0,2024-07-11,2024-07-11,合同会社ＭＡＳＡＫＡＴＵ,,合同会社,大阪府,大阪市生野区,生野西１丁目１０番３４号,,27,116,5440024,,,,,,,2024-07-11,1,,,,,マサカツ,0
758,4120005024417,新規,0,2024-07-11,2024-07-11,医療法人燦崇会,,その他の設立登記法人,大阪府,大阪市北区,太融寺町６番８号阪急産業梅田ビル９階,,27,127,5300051,,,,,,,2024-07-11,1,,,,,サンスウカイ,0
761,4120101069919,新規,0,2024-07-11,2024-07-11,株式会社Ｈｉ．,,株式会社,大阪府,貝塚市,東山１丁目１４－１７,,27,208,5970046,,,,,,,2024-07-11,1,,,,,ハイ,0
762,4120101069968,新規,0,2024-07-11,2024-07-11,株式会社ＬＩＶ　Ｓｕｐｐｏｒｔ,,株式会社,大阪府,貝塚市,橋本１１６番地２,,27,208,5970043,,,,,,,2024-07-11,1,,,,,リブサポート,0
763,4120101069976,新規,0,2024-07-11,2024-07-11,明珠株式会社,,株式会社,大阪府,泉佐野市,湊４丁目４－２２,,27,213,5980063,,,,,,,2024-07-11,1,,,,,メイジュ,0
766,4120901049450,新規,0,2024-07-11,2024-07-11,誠瑞株式会社,,株式会社,大阪府,豊中市,豊南町東３丁目３－３－２０６号室,,27,203,5610814,,,,,,,2024-07-11,1,,,,,セイズイ,0
774,4130001077442,新規,0,2024-07-11,2024-07-11,株式会社ベルやまだ,,株式会社,京都府,京都市北区,大将軍東鷹司町２３１番地,,26,101,6038333,,,,,,,2024-07-11,1,,,,,ベルヤマダ,0
786,4140001135083,新規,0,2024-07-11,2024-07-11,株式会社トゥーライブ,,株式会社,兵庫県,丹波市,柏原町南多田２２０番地１,,28,223,6693301,,,,,,,2024-07-11,1,,,,,トゥーライブ,0
787,4140001135091,新規,0,2024-07-11,2024-07-11,株式会社ビーギフト,,株式会社,兵庫県,丹波篠山市,川原２１１番地２,,28,221,6692512,,,,,,,2024-07-11,1,,,,,ビーギフト,0
788,4140001135100,新規,0,2024-07-11,2024-07-11,株式会社ＬＡＫＩ　ＣＯＲＰＯＲＡＴＩＯＮ,,株式会社,兵庫県,神戸市灘区,大石南町３丁目３－５,,28,102,6570852,,,,,,,2024-07-11,1,,,,,ラキコーポレーション,0
791,4140003020812,新規,0,2024-07-11,2024-07-11,積み上げプラス合同会社,,合同会社,兵庫県,神戸市中央区,磯辺通１丁目１番１８号カサベラ国際プラザビル７０７,,28,110,6510084,,,,,,,2024-07-11,1,,,,,ツミアゲプラス,0
795,4160001026066,新規,0,2024-07-11,2024-07-11,Ｙｕ‐ｓｈｉｎ警備株式会社,,株式会社,滋賀県,甲賀市,水口町山７１０番地１５,,25,209,5280067,,,,,,,2024-07-11,1,,,,,ユーシンケイビ,0
796,4160003003237,新規,0,2024-07-11,2024-07-11,ここいいな合同会社,,合同会社,滋賀県,東近江市,聖和町３‐９,,25,213,5270036,,,,,,,2024-07-11,1,,,,,ココイイナ,0
799,4180001162306,新規,0,2024-07-11,2024-07-11,株式会社ｅ．ｃ．ｖ．,,株式会社,愛知県,名古屋市中区,平和２丁目１４番１７号,,23,106,4600021,,,,,,,2024-07-11,1,,,,,イーシーブイ,0
800,4180001162347,新規,0,2024-07-11,2024-07-11,株式会社Ｐｌｕｓ　Ｐｏｗｅｒ,,株式会社,愛知県,名古屋市緑区,徳重２丁目１２０３番地の７,,23,114,4580815,,,,,,,2024-07-11,1,,,,,プラスパワー,0
803,4180003027069,新規,0,2024-07-11,2024-07-11,合同会社コネクト,,合同会社,愛知県,名古屋市港区,稲永１丁目１０－２ＹＳＫ港Ｆ,,23,111,4550842,,,,,,,2024-07-11,1,,,,,コネクト,0
804,4180301038825,新規,0,2024-07-11,2024-07-11,Ｓｉｍｐｌｅ　Ｋｎａｒｃｈ株式会社,,株式会社,愛知県,豊橋市,神野新田町字ヤノ割２番地の３,,23,201,4418077,,,,,,,2024-07-11,1,,,,,シンプルナーチ,0
811,4200001042694,新規,0,2024-07-11,2024-07-11,株式会社タダフミ,,株式会社,岐阜県,岐阜市,吉野町６丁目８,,21,201,5008844,,,,,,,2024-07-11,1,,,,,タダフミ,0
812,4200003006425,新規,0,2024-07-11,2024-07-11,ウインズ合同会社,,合同会社,岐阜県,岐阜市,茜部新所３丁目１２０番地５ビラ茜２０３,,21,201,5008263,,,,,,,2024-07-11,1,,,,,ウインズ,0
814,4210001019824,新規,0,2024-07-11,2024-07-11,ＩＮＴＥＲＡＣＴ株式会社,,株式会社,福井県,福井市,灯明寺３丁目４６１６番地２,,18,201,9100063,,,,,,,2024-07-11,1,,,,,インターアクト,0
835,4290001106400,新規,0,2024-07-11,2024-07-11,株式会社Ｊｏｙｃｏｄｅ,,株式会社,福岡県,福岡市中央区,天神３丁目１０番３２号１０Ｆ,,40,133,8100001,,,,,,,2024-07-11,1,,,,,ジョイコード,0
837,4290005019441,新規,0,2024-07-11,2024-07-11,一般社団法人韓國福岡青年會議所,,その他の設立登記法人,福岡県,福岡市博多区,博多駅南３丁目１５－２８福岡県遊技会館２０２,,40,132,8120016,,,,,,,2024-07-11,1,,,,,カンコクフクオカセイネンカイギショ,0
848,4330003010447,新規,0,2024-07-11,2024-07-11,合同会社自然環境保全研究所,,合同会社,熊本県,熊本市東区,秋津町秋田３０６６番地５５,,43,102,8612105,,,,,,,2024-07-11,1,,,,,シゼンカンキョウホゼンケンキュウジョ,0
852,4350003004703,新規,0,2024-07-11,2024-07-11,合同会社ヒルソウ,,合同会社,宮崎県,宮崎市,大字赤江１３７０番地１セントヒルズマリーナ宮崎弐番館３０８号,,45,201,8800912,,,,,,,2024-07-11,1,,,,,ヒルソウ,0
853,4360001033926,新規,0,2024-07-11,2024-07-11,株式会社ホウシン,,株式会社,沖縄県,那覇市,前島３丁目２５－２泊ポートビル５階,,47,201,9000016,,,,,,,2024-07-11,1,,,,,ホウシン,0
854,4370001051514,新規,0,2024-07-11,2024-07-11,株式会社エスアイホーム,,株式会社,宮城県,多賀城市,下馬２丁目８番２２号,,04,209,9850835,,,,,,,2024-07-11,1,,,,,エスアイホーム,0
860,4410001013864,新規,0,2024-07-11,2024-07-11,株式会社ＴＧＣ,,株式会社,秋田県,秋田市,牛島南２丁目１７番１７号,,05,201,0100066,,,,,,,2024-07-11,1,,,,,ティージーシー,0
861,4410001013872,新規,0,2024-07-11,2024-07-11,アベ建工株式会社,,株式会社,秋田県,山本郡三種町,芦崎字芦崎４１５番地１,,05,348,0182405,,,,,,,2024-07-11,1,,,,,アベケンコウ,0
867,4430001092238,新規,0,2024-07-11,2024-07-11,株式会社Ｓｅｒｖａｎｔ　Ｗｉｔｈ,,株式会社,北海道,札幌市白石区,北郷九条８丁目５番５号,,01,104,0030839,,,,,,,2024-07-11,1,,,,,サーバントウイズ,0
869,4430003016541,新規,0,2024-07-11,2024-07-11,合同会社ＳＬ,,合同会社,北海道,札幌市北区,北二十七条西４丁目２－２０ＭＩＮＴ２７４　４０２号室,,01,102,0010027,,,,,,,2024-07-11,1,,,,,エスエル,0
870,4470003002678,新規,0,2024-07-11,2024-07-11,コトラ合同会社,,合同会社,香川県,小豆郡小豆島町,苗羽甲１７６８番地４,,37,324,7614421,,,,,,,2024-07-11,1,,,,,コトラ,0
881,5010401183066,新規,0,2024-07-11,2024-07-11,ＨＡＲＵＫＡ株式会社,,株式会社,東京都,港区,新橋２丁目１６－１,,13,103,1050004,,,,,,,2024-07-11,1,,,,,ハルカ,0
882,5010401183735,新規,0,2024-07-11,2024-07-11,株式会社Ｍｅｄｏｍ,,株式会社,東京都,港区,南麻布３丁目４番５－１０１号,,13,103,1060047,,,,,,,2024-07-11,1,,,,,メドム,0
883,5010403032997,新規,0,2024-07-11,2024-07-11,合同会社ＩＧ２,,合同会社,東京都,港区,赤坂９丁目７番２号ミッドタウン・イースト４階,,13,103,1070052,,,,,,,2024-07-11,1,,,,,アイジーツー,0
884,5010403033005,新規,0,2024-07-11,2024-07-11,合同会社春日井,,合同会社,東京都,港区,東新橋１丁目１０番１－１１１２号,,13,103,1050021,,,,,,,2024-07-11,1,,,,,カスガイ,0
885,5010501052567,新規,0,2024-07-11,2024-07-11,株式会社Ｌ‐ｓｔｒｅｅｔ,,株式会社,東京都,台東区,根岸３丁目１６番１７－９０２号,,13,106,1100003,,,,,,,2024-07-11,1,,,,,エルストリート,0
886,5010501052575,新規,0,2024-07-11,2024-07-11,株式会社プロトラクターズ,,株式会社,東京都,台東区,上野６丁目１番６号御徒町グリーンハイツ１００５号,,13,106,1100005,,,,,,,2024-07-11,1,,,,,プロトラクターズ,0
887,5010601065535,新規,0,2024-07-11,2024-07-11,株式会社セイレイ,,株式会社,東京都,江東区,南砂２丁目１番１５－１２０２号,,13,108,1360076,,,,,,,2024-07-11,1,,,,,セイレイ,0
889,5010801035230,新規,0,2024-07-11,2024-07-11,ＡＬＩＣＥ　ＪＡＰＡＮ株式会社,,株式会社,東京都,大田区,田園調布１丁目１２番１－４０９号,,13,111,1450071,,,,,,,2024-07-11,1,,,,,アリスジャパン,0
896,5011001163243,新規,0,2024-07-11,2024-07-11,株式会社ＣｏｍＣａｒｅ,,株式会社,東京都,目黒区,自由が丘２丁目９番２４号自由が丘コンコード２０３号室,,13,110,1520035,,,,,,,2024-07-11,1,,,,,コムケア,0
897,5011001163276,新規,0,2024-07-11,2024-07-11,株式会社ＭａＲｏｃｋ,,株式会社,東京都,渋谷区,道玄坂１丁目１０番８号渋谷道玄坂東急ビル２Ｆ－Ｃ,,13,113,1500043,,,,,,,2024-07-11,1,,,,,マロック,0
915,5012401042078,新規,0,2024-07-11,2024-07-11,株式会社Ｓｉｅｒｒａ,,株式会社,東京都,調布市,西つつじケ丘４丁目２３１７‐５０４,,13,208,1820006,,,,,,,2024-07-11,1,,,,,シエラ,0
917,5012703003042,新規,0,2024-07-11,2024-07-11,アールリンク合同会社,,合同会社,東京都,東村山市,栄町３丁目３７番地４号ルフォン久米川７１０,,13,213,1890013,,,,,,,2024-07-11,1,,,,,アールリンク,0
919,5013101009458,新規,0,2024-07-11,2024-07-11,株式会社藤電気,,株式会社,東京都,青梅市,二俣尾２丁目４１６番地の６,,13,205,1980171,,,,,,,2024-07-11,1,,,,,フジデンキ,0
925,5020001158062,新規,0,2024-07-11,2024-07-11,株式会社ｔａｏ　ｔａｂｌｅ,,株式会社,神奈川県,横浜市神奈川区,西神奈川１丁目８番地１４,,14,102,2210822,,,,,,,2024-07-11,1,,,,,タオテーブル,0
926,5020001158070,新規,0,2024-07-11,2024-07-11,株式会社ＣＯＣＯＬＯＬＡ,,株式会社,神奈川県,横浜市神奈川区,金港町５－１４クアドリフォリオ８階,,14,102,2210056,,,,,,,2024-07-11,1,,,,,ココロラ,0
927,5020001158120,新規,0,2024-07-11,2024-07-11,ミライ株式会社,,株式会社,神奈川県,川崎市川崎区,砂子２丁目６－１１保栄ビル２Ｆ,,14,131,2100006,,,,,,,2024-07-11,1,,,,,ミライ,0
934,5021001082715,新規,0,2024-07-11,2024-07-11,株式会社ＢＵＮＤ,,株式会社,神奈川県,南足柄市,関本７２番地４,,14,217,2500105,,,,,,,2024-07-11,1,,,,,ブンド,0
937,5021003014765,新規,0,2024-07-11,2024-07-11,合同会社ソレイユエナジー７号,,合同会社,神奈川県,茅ヶ崎市,茅ヶ崎１丁目２番４７号,,14,207,2530041,,,,,,,2024-07-11,1,,,,,ソレイユエナジーナナゴウ,0
944,5030001161354,新規,0,2024-07-11,2024-07-11,株式会社Ｊ＆１,,株式会社,埼玉県,朝霞市,根岸台３丁目１８番３２号,,11,227,3510005,,,,,,,2024-07-11,1,,,,,ジェーアンドワン,0
945,5030001161412,新規,0,2024-07-11,2024-07-11,株式会社向日葵,,株式会社,埼玉県,比企郡鳩山町,大字小用４４６番地７,,11,348,3500323,,,,,,,2024-07-11,1,,,,,ヒマワリ,0
948,5030003024690,新規,0,2024-07-11,2024-07-11,合同会社ＳＥＲＥＮＩＴＹ,,合同会社,埼玉県,川口市,坂下町４丁目１番２号山田荘２号,,11,203,3340003,,,,,,,2024-07-11,1,,,,,セレニティ,0
949,5030005021760,新規,0,2024-07-11,2024-07-11,一般社団法人ＡｎｇｅｌＤｅｎｔａｌ．Ｏ＆Ｌ,,その他の設立登記法人,埼玉県,所沢市,元町２８－９－１０６,,11,208,3591121,,,,,,,2024-07-11,1,,,,,エンジェルデンタルオーアンドエル,0
951,5040003025325,新規,0,2024-07-11,2024-07-11,晶奈屋合同会社,,合同会社,千葉県,いすみ市,日在６１２番地３,,12,238,2980002,,,,,,,2024-07-11,1,,,,,アキナヤ,0
952,5040003025382,新規,0,2024-07-11,2024-07-11,合同会社ＡＬＢＡ,,合同会社,千葉県,白井市,桜台２丁目１２番３棟,,12,232,2701412,,,,,,,2024-07-11,1,,,,,アルバ,0
953,5040003025390,新規,0,2024-07-11,2024-07-11,合同会社翠碧,,合同会社,千葉県,大網白里市,上貝塚４６３番地１７,,12,239,2993265,,,,,,,2024-07-11,1,,,,,スイヘキ,0
957,5050001055083,新規,0,2024-07-11,2024-07-11,ＴＵＮＩＨＯＮ　Ｍｅｄｉａ株式会社,,株式会社,茨城県,水戸市,泉町２丁目２－３３水戸泉町ビル７Ｆ７２２号室,,08,201,3100026,,,,,,,2024-07-11,1,,,,,トゥニホンメディア,0
958,5050001055091,新規,0,2024-07-11,2024-07-11,ＰＲＡＮＡＫＨＯＮ　ＪＡＰＡＮ株式会社,,株式会社,茨城県,桜川市,富士見台１丁目４３－４３シルバービル２階北号室,,08,231,3091212,,,,,,,2024-07-11,1,,,,,プラナコーンジャパン,0
962,5060001037295,新規,0,2024-07-11,2024-07-11,株式会社嘉園,,株式会社,栃木県,下都賀郡壬生町,大字壬生丁５９番地１,,09,361,3210216,,,,,,,2024-07-11,1,,,,,カソノ,0
968,5090003002600,新規,0,2024-07-11,2024-07-11,合同会社ＭＫプロパティ,,合同会社,山梨県,大月市,御太刀２丁目７番３０号,,19,206,4010012,,,,,,,2024-07-11,1,,,,,エムケープロパティ,0
990,5120001266656,新規,0,2024-07-11,2024-07-11,新華株式会社,,株式会社,大阪府,大阪市住吉区,杉本２丁目３１番５号アスカ藤１０１号室,,27,120,5580022,,,,,,,2024-07-11,1,,,,,シンカ,0
991,5120001266664,新規,0,2024-07-11,2024-07-11,リフィルオンライン株式会社,,株式会社,大阪府,大阪市西区,靱本町２丁目４番１号下村ビル７階,,27,106,5500004,,,,,,,2024-07-11,1,,,,,リフィルオンライン,0
992,5120001266697,新規,0,2024-07-11,2024-07-11,シッポウ株式会社,,株式会社,大阪府,大阪市北区,天満４丁目５番３号,,27,127,5300043,,,,,,,2024-07-11,1,,,,,シッポウ,0
993,5120001266706,新規,0,2024-07-11,2024-07-11,株式会社バイカル,,株式会社,大阪府,大阪市中央区,天満橋京町２－６天満橋八千代ビル別館２階Ｂ号室,,27,128,5400032,,,,,,,2024-07-11,1,,,,,バイカル,0
994,5120001266747,新規,0,2024-07-11,2024-07-11,株式会社ＥＤＧＹＮＯＲＤ,,株式会社,大阪府,大阪市北区,天満２丁目２－１９サンナカノビル４０３,,27,127,5300043,,,,,,,2024-07-11,1,,,,,エッジノール,0
995,5120101069967,新規,0,2024-07-11,2024-07-11,知榮．株式会社,,株式会社,大阪府,貝塚市,橋本１１６番地２,,27,208,5970043,,,,,,,2024-07-11,1,,,,,チエイ,0
1003,5130003009681,新規,0,2024-07-11,2024-07-11,幸橋合同会社,,合同会社,京都府,京都市下京区,西七条名倉町２８番地,,26,106,6008887,,,,,,,2024-07-11,1,,,,,コウバシ,0
1013,5160001026065,新規,0,2024-07-11,2024-07-11,株式会社ビジョンクリエイターズ,,株式会社,滋賀県,大津市,におの浜２丁目２番３－５１１号,,25,201,5200801,,,,,,,2024-07-11,1,,,,,ビジョンクリエイターズ,0
1017,5180001162239,新規,0,2024-07-11,2024-07-11,株式会社クリエイティブ,,株式会社,愛知県,名古屋市守山区,天子田３丁目８０７番地,,23,113,4630037,,,,,,,2024-07-11,1,,,,,クリエイティブ,0
1018,5180001162288,新規,0,2024-07-11,2024-07-11,コウセイマテリアル株式会社,,株式会社,愛知県,津島市,金柳町字神様田１６５番地１,,23,208,4960014,,,,,,,2024-07-11,1,,,,,コウセイマテリアル,0
1019,5180003027076,新規,0,2024-07-11,2024-07-11,合同会社Ｍｅｉｔｏ,,合同会社,愛知県,名古屋市中村区,名駅３丁目４―１０アルティ名駅１ｓｔ２階,,23,105,4500002,,,,,,,2024-07-11,1,,,,,メイト,0
1026,5210001019823,新規,0,2024-07-11,2024-07-11,株式会社ツバキベジムーブ,,株式会社,福井県,小浜市,多田第５４号１３番地の１,,18,204,9170026,,,,,,,2024-07-11,1,,,,,ツバキベジムーブ,0
1041,5280003001863,新規,0,2024-07-11,2024-07-11,合同会社ＯＮＢＥＬＵ,,合同会社,島根県,出雲市,斐川町富村４６９番地３,,32,203,6990621,,,,,,,2024-07-11,1,,,,,オンベル,0
1046,5290001106408,新規,0,2024-07-11,2024-07-11,株式会社ｗｈｉｚ,,株式会社,福岡県,福岡市南区,曰佐２丁目２７番２７号,,40,134,8111313,,,,,,,2024-07-11,1,,,,,ウィズ,0
1055,5330001032244,新規,0,2024-07-11,2024-07-11,株式会社こうじつ宅建,,株式会社,熊本県,熊本市東区,東野２丁目１３番２２号,,43,102,8612106,,,,,,,2024-07-11,1,,,,,コウジツタッケン,0
1060,5340003004538,新規,0,2024-07-11,2024-07-11,楽合同会社,,合同会社,鹿児島県,鹿屋市,田崎町２２４７番地７,,46,203,8930037,,,,,,,2024-07-11,1,,,,,ラク,0
1071,5360001033917,新規,0,2024-07-11,2024-07-11,株式会社やんばるリンクス,,株式会社,沖縄県,国頭郡大宜味村,字田嘉里５３５番地,,47,302,9051301,,,,,,,2024-07-11,1,,,,,ヤンバルリンクス,0
1072,5360003014147,新規,0,2024-07-11,2024-07-11,合同会社メディカルサポートホールディングス,,合同会社,沖縄県,那覇市,真嘉比１丁目２６番８号、４０２,,47,201,9020068,,,,,,,2024-07-11,1,,,,,メディカルサポートホールディングス,0
1083,5410001013871,新規,0,2024-07-11,2024-07-11,株式会社児玉信長商店,,株式会社,秋田県,山本郡三種町,鹿渡字二本柳４３番地１,,05,348,0182104,,,,,,,2024-07-11,1,,,,,コダマノブナガショウテン,0
1090,5430003016549,新規,0,2024-07-11,2024-07-11,合同会社リージョナルリンク,,合同会社,北海道,美唄市,字美唄１２１０番地９,,01,215,0720000,,,,,,,2024-07-11,1,,,,,リージョナルリンク,0
1093,5470003002677,新規,0,2024-07-11,2024-07-11,合同会社ＥＣＬＡＮ,,合同会社,香川県,さぬき市,鴨庄２５０４番地８,,37,206,7692102,,,,,,,2024-07-11,1,,,,,,0
1105,6010001246511,新規,0,2024-07-11,2024-07-11,株式会社スマイルエージェント,,株式会社,東京都,千代田区,神田美土代町３－４ニュー楓ビル４階,,13,101,1010053,,,,,,,2024-07-11,1,,,,,スマイルエージェント,0
1106,6010001246569,新規,0,2024-07-11,2024-07-11,株式会社Ｎｏｎｂｉｒｉ,,株式会社,東京都,中央区,新川１丁目１４―９シティハイツ東京日本橋１０１,,13,102,1040033,,,,,,,2024-07-11,1,,,,,ノンビリ,0
1110,6010003044277,新規,0,2024-07-11,2024-07-11,ＹｕＬｉｆｅ　Ｊａｐａｎ合同会社,,合同会社,東京都,千代田区,内幸町２丁目２番２号富国生命ビルＡ＆Ｓフィナンシャルアドバイザリー株式会社内,,13,101,1000011,,,,,,,2024-07-11,1,,,,,ユーライフジャパン,0
1111,6010005038500,新規,0,2024-07-11,2024-07-11,ＢＳＰ監査法人,,その他の設立登記法人,東京都,千代田区,九段南１丁目６番５号九段会館テラス３階,,13,101,1020074,,,,,,,2024-07-11,1,,,,,ビーエスピー,0
1112,6010103002390,新規,0,2024-07-11,2024-07-11,合同会社興凰会,,合同会社,東京都,八王子市,越野２３番地２ダイアパレス京王堀之内壱番館３０４号,,13,201,1920361,,,,,,,2024-07-11,1,,,,,コウオウカイ,0
1121,6010401183610,新規,0,2024-07-11,2024-07-11,ＴＡ　Ｅｄｕｃａｔｉｏｎ株式会社,,株式会社,東京都,港区,六本木７丁目２番２８－６０５号,,13,103,1060032,,,,,,,2024-07-11,1,,,,,ティーエーエデュケーション,0
1122,6010401183668,新規,0,2024-07-11,2024-07-11,ＮＯＭＵ株式会社,,株式会社,東京都,港区,麻布十番１丁目１１番１１号ブライトマン麻布十番ビル５階,,13,103,1060045,,,,,,,2024-07-11,1,,,,,ノム,0
1123,6010401183692,新規,0,2024-07-11,2024-07-11,Ｂｌｉｓｓ　Ｔｅｃｈｎｏｌｏｇｉｅｓ株式会社,,株式会社,東京都,港区,赤坂９丁目２番１３号,,13,103,1070052,,,,,,,2024-07-11,1,,,,,ブリステクノロジー,0
1124,6010401183726,新規,0,2024-07-11,2024-07-11,ＣｙａａＳ株式会社,,株式会社,東京都,港区,赤坂５丁目２番３３号,,13,103,1070052,,,,,,,2024-07-11,1,,,,,サイアース,0
1126,6010403032996,新規,0,2024-07-11,2024-07-11,合同会社ＩＧ１,,合同会社,東京都,港区,赤坂９丁目７番２号ミッドタウン・イースト４階,,13,103,1070052,,,,,,,2024-07-11,1,,,,,アイジーワン,0
1136,6010901055631,新規,0,2024-07-11,2024-07-11,Ｐｈｉｌｋｏｓ株式会社,,株式会社,東京都,世田谷区,宮坂１丁目４１番２２号２０２,,13,112,1560051,,,,,,,2024-07-11,1,,,,,フィルコス,0
1137,6010903009214,新規,0,2024-07-11,2024-07-11,合同会社ＫＲカンパニー,,合同会社,東京都,世田谷区,玉堤１丁目１１番１０号,,13,112,1580087,,,,,,,2024-07-11,1,,,,,ケーアールカンパニー,0
1138,6011001163226,新規,0,2024-07-11,2024-07-11,株式会社森代川,,株式会社,東京都,渋谷区,神宮前１丁目２３番２８号,,13,113,1500001,,,,,,,2024-07-11,1,,,,,シンダイセン,0
1139,6011001163234,新規,0,2024-07-11,2024-07-11,株式会社ミリタンイ,,株式会社,東京都,渋谷区,渋谷２丁目１９－１５宮益坂ビルディング６０９,,13,113,1500002,,,,,,,2024-07-11,1,,,,,ミリタンイ,0
1140,6011001163259,新規,0,2024-07-11,2024-07-11,株式会社ＳＰＡＲＫ,,株式会社,東京都,渋谷区,渋谷２丁目１９－１５宮益坂ビルディング６０９,,13,113,1500002,,,,,,,2024-07-11,1,,,,,スパーク,0
1141,6011001163358,新規,0,2024-07-11,2024-07-11,株式会社ＭＡＧＡ　ＴＯＰ,,株式会社,東京都,渋谷区,千駄ヶ谷５丁目５－３コーポ松岡２０１,,13,113,1510051,,,,,,,2024-07-11,1,,,,,マガトップ,0
1142,6011003019541,新規,0,2024-07-11,2024-07-11,合同会社ＶＯＩ,,合同会社,東京都,渋谷区,神山町９－２０ガーデンシャガ２０３,,13,113,1500047,,,,,,,2024-07-11,1,,,,,ボイ,0
1146,6011101107990,新規,0,2024-07-11,2024-07-11,開誠一級建築士事務所株式会社,,株式会社,東京都,新宿区,四谷三栄町１１番１６号,,13,104,1600008,,,,,,,2024-07-11,1,,,,,カイセイイッキュウケンチクシジムショ,0
1152,6011305002988,新規,0,2024-07-11,2024-07-11,一般社団法人一歩,,その他の設立登記法人,東京都,杉並区,堀ノ内３丁目２番１３号,,13,115,1660013,,,,,,,2024-07-11,1,,,,,イッポ,0
1154,6011401026255,新規,0,2024-07-11,2024-07-11,曦晨株式会社,,株式会社,東京都,板橋区,栄町１８－７－４０２号,,13,119,1730015,,,,,,,2024-07-11,1,,,,,キシン,0
1162,6012801023321,新規,0,2024-07-11,2024-07-11,株式会社ネクサスリアルエステート,,株式会社,東京都,国立市,東１丁目１７番地の２０サンライズ２１ビル４０２,,13,215,1860002,,,,,,,2024-07-11,1,,,,,ネクサスリアルエステート,0
1164,6013301052760,新規,0,2024-07-11,2024-07-11,福道株式会社,,株式会社,東京都,豊島区,東池袋１丁目１７番３号ウェルシャン池袋２０４,,13,116,1700013,,,,,,,2024-07-11,1,,,,,フクミチ,0
1165,6013301052793,新規,0,2024-07-11,2024-07-11,株式会社コティー,,株式会社,東京都,豊島区,東池袋１丁目９番１０号,,13,116,1700013,,,,,,,2024-07-11,1,,,,,コティー,0
1170,6020001158111,新規,0,2024-07-11,2024-07-11,株式会社ＦＧアセット,,株式会社,神奈川県,横浜市青葉区,美しが丘西３丁目４１番地１７,,14,117,2250001,,,,,,,2024-07-11,1,,,,,エフジーアセット,0
1171,6020001158152,新規,0,2024-07-11,2024-07-11,株式会社２５６,,株式会社,神奈川県,川崎市川崎区,駅前本町２４－２サンリバーオオモリ２０８,,14,131,2100007,,,,,,,2024-07-11,1,,,,,ニーゴーロク,0
1173,6020003026480,新規,0,2024-07-11,2024-07-11,フォレコン合同会社,,合同会社,神奈川県,川崎市高津区,二子２丁目５番４８号キャッスルくらや４０３,,14,134,2130002,,,,,,,2024-07-11,1,,,,,フォレコン,0
1174,6020003026497,新規,0,2024-07-11,2024-07-11,合同会社ＭＹＬＩＢ,,合同会社,神奈川県,横浜市保土ケ谷区,岩井町５３横尾ビル保土ヶ谷マンション２０１号室,,14,106,2400023,,,,,,,2024-07-11,1,,,,,マイリブ,0
1175,6020003026547,新規,0,2024-07-11,2024-07-11,合同会社ウィズサイド,,合同会社,神奈川県,川崎市幸区,新塚越１番地２サウザンドシティ６－３０３,,14,132,2120027,,,,,,,2024-07-11,1,,,,,ウィズサイド,0
1187,6021003014756,新規,0,2024-07-11,2024-07-11,合同会社ふくろう,,合同会社,神奈川県,大和市,下和田１０８６番地５,,14,213,2420015,,,,,,,2024-07-11,1,,,,,フクロウ,0
1188,6021003014764,新規,0,2024-07-11,2024-07-11,合同会社ソレイユエナジー６号,,合同会社,神奈川県,茅ヶ崎市,茅ヶ崎１丁目２番４７号,,14,207,2530041,,,,,,,2024-07-11,1,,,,,ソレイユエナジーロクゴウ,0
1192,6030001161353,新規,0,2024-07-11,2024-07-11,株式会社ＳｍａｒｔＷｏｒｋｓ,,株式会社,埼玉県,川口市,西川口１丁目５－２０－４階Ｂ－２９号室,,11,203,3320021,,,,,,,2024-07-11,1,,,,,スマートワークス,0
1193,6030001161386,新規,0,2024-07-11,2024-07-11,株式会社ＦＫＤマシナリー,,株式会社,埼玉県,北足立郡伊奈町,内宿台５丁目２６７番地,,11,301,3620812,,,,,,,2024-07-11,1,,,,,エフケーディーマシナリー,0
1194,6030001161394,新規,0,2024-07-11,2024-07-11,株式会社埼京テクニカル,,株式会社,埼玉県,久喜市,北広島１２７番地５,,11,232,3491111,,,,,,,2024-07-11,1,,,,,サイケイテクニカル,0
1195,6030001161403,新規,0,2024-07-11,2024-07-11,株式会社フライトアイランド,,株式会社,埼玉県,さいたま市西区,西大宮３丁目５３番地４１,,11,101,3310078,,,,,,,2024-07-11,1,,,,,フライトアイランド,0
1196,6030001161411,新規,0,2024-07-11,2024-07-11,ＢＲＩＧＨＴ　ＬＩＧＨＴ株式会社,,株式会社,埼玉県,北足立郡伊奈町,学園１丁目１０番地１,,11,301,3620813,,,,,,,2024-07-11,1,,,,,ブライトライト,0
1199,6030003024698,新規,0,2024-07-11,2024-07-11,合同会社ＩＢＣｐｒｏ,,合同会社,埼玉県,狭山市,新狭山２丁目５－２１,,11,215,3501331,,,,,,,2024-07-11,1,,,,,アイビーシープロ,0
1220,6100001037645,新規,0,2024-07-11,2024-07-11,株式会社ＫＵＲＥ,,株式会社,長野県,長野市,大字上駒沢６８５番地１,,20,201,3810082,,,,,,,2024-07-11,1,,,,,クレ,0
1230,6120001266713,新規,0,2024-07-11,2024-07-11,株式会社ＧＲＡＮＤＥ,,株式会社,大阪府,大阪市浪速区,大国３丁目８番１６号,,27,111,5560014,,,,,,,2024-07-11,1,,,,,グランデ,0
1231,6120001266746,新規,0,2024-07-11,2024-07-11,株式会社ベネフィトル,,株式会社,大阪府,大阪市北区,芝田１丁目１番４号阪急ターミナルビル１６Ｆ,,27,127,5300012,,,,,,,2024-07-11,1,,,,,ベネフィトル,0
1232,6120003027015,新規,0,2024-07-11,2024-07-11,弥栄工業合同会社,,合同会社,大阪府,大阪市鶴見区,茨田大宮３丁目１７番８号,,27,124,5380031,,,,,,,2024-07-11,1,,,,,ヤサカコウギョウ,0
1234,6120101069958,新規,0,2024-07-11,2024-07-11,株式会社ＷＯＮＤＥＲ　ＰＡＲＡＤＥ,,株式会社,大阪府,堺市堺区,北波止町４２番地５２,,27,141,5900986,,,,,,,2024-07-11,1,,,,,ワンダーパレード,0
1235,6120105009877,新規,0,2024-07-11,2024-07-11,医療法人理仁会,,その他の設立登記法人,大阪府,和泉市,府中町２丁目１番３号南海和泉府中ビル２Ｆ,,27,219,5940071,,,,,,,2024-07-11,1,,,,,リジンカイ,0
1247,6140001135040,新規,0,2024-07-11,2024-07-11,天日株式会社,,株式会社,兵庫県,神戸市東灘区,向洋町中１丁目１７番地２９階Ｅ号室,,28,101,6580032,,,,,,,2024-07-11,1,,,,,テンニチ,0
1248,6140001135098,新規,0,2024-07-11,2024-07-11,株式会社耀,,株式会社,兵庫県,宝塚市,高司３丁目１番８号,,28,214,6650051,,,,,,,2024-07-11,1,,,,,カガヤキ,0
1249,6140001135107,新規,0,2024-07-11,2024-07-11,株式会社カネヨシホームサービス,,株式会社,兵庫県,神戸市灘区,八幡町３丁目１番１２号－３Ｆ,,28,102,6570051,,,,,,,2024-07-11,1,,,,,カネヨシホームサービス,0
1252,6140003020802,新規,0,2024-07-11,2024-07-11,ＴＨＡＮＨ　ＮＧＨＩＡ合同会社,,合同会社,兵庫県,明石市,林崎町１丁目７番８号２階,,28,203,6730033,,,,,,,2024-07-11,1,,,,,タインギア,0
1265,6180301038815,新規,0,2024-07-11,2024-07-11,株式会社壮健,,株式会社,愛知県,みよし市,黒笹１丁目１番地４,,23,236,4700231,,,,,,,2024-07-11,1,,,,,ソウケン,0
1266,6180301038831,新規,0,2024-07-11,2024-07-11,株式会社マイプレイス,,株式会社,愛知県,岡崎市,針崎町字フロ１９番地７,,23,202,4440827,,,,,,,2024-07-11,1,,,,,マイプレイス,0
1268,6180303006175,新規,0,2024-07-11,2024-07-11,合同会社ｓｔａｎｄ　ｇｅａｒ,,合同会社,愛知県,刈谷市,新富町３丁目３６番地１アーバンヒルズ８０１号,,23,210,4480045,,,,,,,2024-07-11,1,,,,,スタンドギア,0
1277,6200001042692,新規,0,2024-07-11,2024-07-11,株式会社ＳＫＹ,,株式会社,岐阜県,岐阜市,東川手３丁目１７番地１,,21,201,5008257,,,,,,,2024-07-11,1,,,,,スカイ,0
1283,6240001063504,新規,0,2024-07-11,2024-07-11,株式会社Ｆｌａｗｌｅｓｓ,,株式会社,広島県,福山市,東手城町１丁目１４番２０号,,34,207,7210962,,,,,,,2024-07-11,1,,,,,フローレス,0
1289,6280003001862,新規,0,2024-07-11,2024-07-11,合同会社曽田屋,,合同会社,島根県,雲南市,大東町須賀２９５番地８,,32,209,6991205,,,,,,,2024-07-11,1,,,,,ソタヤ,0
1302,6300005007203,新規,0,2024-07-11,2024-07-11,社会保険労務士法人横尾会計,,その他の設立登記法人,佐賀県,佐賀市,神園３丁目４番２４号,,41,201,8400806,,,,,,,2024-07-11,1,,,,,ヨコオカイケイ,0
1305,6320001020579,新規,0,2024-07-11,2024-07-11,株式会社Ｍｏｄｅｒｎ　Ｂｏｙ,,株式会社,大分県,大分市,中春日町１２番３０号,,44,201,8700039,,,,,,,2024-07-11,1,,,,,,0
1306,6320005010171,新規,0,2024-07-11,2024-07-11,ＫＳＨ国際人材協同組合,,その他の設立登記法人,大分県,由布市,湯布院町川上３０４７の３番地,,44,213,8795102,,,,,,,2024-07-11,1,,,,,ケーエスエイチコクサイジンザイ,0
1315,6360003014146,新規,0,2024-07-11,2024-07-11,合同会社龍翔工務店,,合同会社,沖縄県,那覇市,首里久場川町２丁目１４９番地２階,,47,201,9030807,,,,,,,2024-07-11,1,,,,,リュウショウコウムテン,0
1317,6370001051479,新規,0,2024-07-11,2024-07-11,ＲｅＷｉＬＬ株式会社,,株式会社,宮城県,仙台市青葉区,国分町１丁目７番１８号,,04,101,9800803,,,,,,,2024-07-11,1,,,,,リウィル,0
1329,6430001092228,新規,0,2024-07-11,2024-07-11,ｍｉｎａ　ｍｉｎａ株式会社,,株式会社,北海道,札幌市東区,北二十三条東１６丁目１番６－２０１号,,01,103,0650023,,,,,,,2024-07-11,1,,,,,ミナミナ,0
1332,6430003016548,新規,0,2024-07-11,2024-07-11,合同会社Ｃｒｏ,,合同会社,北海道,札幌市中央区,北二条東７丁目８２ラポール永山公園１階,,01,101,0600032,,,,,,,2024-07-11,1,,,,,シロ,0
1339,6470001020291,新規,0,2024-07-11,2024-07-11,株式会社瀬尾技建,,株式会社,香川県,高松市,木太町２４１９番地１７,,37,201,7600080,,,,,,,2024-07-11,1,,,,,セオギケン,0
1351,7010001246460,新規,0,2024-07-11,2024-07-11,日本薬粧株式会社,,株式会社,東京都,文京区,千石４丁目１４番９号,,13,105,1120011,,,,,,,2024-07-11,1,,,,,ニホンヤクショウ,0
1352,7010001246510,新規,0,2024-07-11,2024-07-11,株式会社ａｌｏｐｏｎｏ,,株式会社,東京都,中央区,銀座１丁目１２－４Ｎ＆ＥＢＬＤ．７階,,13,102,1040061,,,,,,,2024-07-11,1,,,,,アロポノ,0
1356,7010401183675,新規,0,2024-07-11,2024-07-11,Ａｉｒ　ｐｌｕｓ株式会社,,株式会社,東京都,港区,南青山４丁目１８番１１号フォレストヒルズイーストウィング２Ｆ,,13,103,1070062,,,,,,,2024-07-11,1,,,,,エアプラス,0
1357,7010401183758,新規,0,2024-07-11,2024-07-11,株式会社ＨＵＮＤＲＥＤ　ＣＲＥＡＴＩＶＥ　ＳＴＵＤＩＯ,,株式会社,東京都,港区,北青山１丁目３番１号アールキューブ青山３階,,13,103,1070061,,,,,,,2024-07-11,1,,,,,ハンドレッドクリエイティブスタジオ,0
1365,7010503007518,新規,0,2024-07-11,2024-07-11,合同会社ＢＡＮＳＩＩＲＯ,,合同会社,東京都,台東区,松が谷４丁目２５－８第２山口ビル４０１,,13,106,1110036,,,,,,,2024-07-11,1,,,,,バンシーロ,0
1368,7010701046268,新規,0,2024-07-11,2024-07-11,株式会社プログレス,,株式会社,東京都,品川区,南大井３丁目２０番５号ＳＵ大森ビル４０２,,13,109,1400013,,,,,,,2024-07-11,1,,,,,プログレス,0
1379,7011001163068,新規,0,2024-07-11,2024-07-11,株式会社Ｒｌａｂｏ,,株式会社,東京都,渋谷区,富ヶ谷２丁目１４－１３－５０４,,13,113,1510063,,,,,,,2024-07-11,1,,,,,アールラボ,0
1380,7011001163266,新規,0,2024-07-11,2024-07-11,株式会社珊瑚プラットフォームズ,,株式会社,東京都,渋谷区,円山町５番５号,,13,113,1500044,,,,,,,2024-07-11,1,,,,,サンゴプラットフォームズ,0
1384,7011003019532,新規,0,2024-07-11,2024-07-11,合同会社スペーストリマス,,合同会社,東京都,渋谷区,神宮前６丁目２３番４号桑野ビル２階,,13,113,1500001,,,,,,,2024-07-11,1,,,,,スペーストリマス,0
1396,7012401042076,新規,0,2024-07-11,2024-07-11,株式会社エムジーエム,,株式会社,東京都,三鷹市,新川６丁目８番１号,,13,204,1810004,,,,,,,2024-07-11,1,,,,,エムジーエム,0
1405,7020001158085,新規,0,2024-07-11,2024-07-11,株式会社Ｌｉｇｈｔｎｉｎｇ,,株式会社,神奈川県,川崎市多摩区,生田７丁目１７－１アラメゾンＢ－１０１号室,,14,135,2140038,,,,,,,2024-07-11,1,,,,,ライトニング,0
1406,7020001158127,新規,0,2024-07-11,2024-07-11,株式会社角田電設,,株式会社,神奈川県,横浜市港北区,小机町２４６番地１,,14,109,2220036,,,,,,,2024-07-11,1,,,,,ツノダデンセツ,0
1410,7020003026538,新規,0,2024-07-11,2024-07-11,合同会社孝信,,合同会社,神奈川県,横浜市鶴見区,尻手１丁目６番２１―７０１号,,14,101,2300003,,,,,,,2024-07-11,1,,,,,コウシン,0
1413,7021001082705,新規,0,2024-07-11,2024-07-11,株式会社Ｒｅ・ｓｅｎｓｅ,,株式会社,神奈川県,座間市,栗原中央２丁目１５番１３号,,14,216,2520014,,,,,,,2024-07-11,1,,,,,リセンス,0
1415,7021003014763,新規,0,2024-07-11,2024-07-11,合同会社ソレイユエナジー５号,,合同会社,神奈川県,茅ヶ崎市,茅ヶ崎１丁目２番４７号,,14,207,2530041,,,,,,,2024-07-11,1,,,,,ソレイユエナジーゴゴウ,0
1419,7030001161410,新規,0,2024-07-11,2024-07-11,株式会社メディカルトラック,,株式会社,埼玉県,川越市,新宿町３丁目１５番地６,,11,201,3501124,,,,,,,2024-07-11,1,,,,,メディカルトラック,0
1421,7030003024631,新規,0,2024-07-11,2024-07-11,Ａｅｒｏｐｌｅｘ合同会社,,合同会社,埼玉県,所沢市,北中２丁目２９４番地の２０,,11,208,3591101,,,,,,,2024-07-11,1,,,,,エアロプレックス,0
1422,7030003024689,新規,0,2024-07-11,2024-07-11,合同会社ＭＡＲＳ,,合同会社,埼玉県,さいたま市南区,南浦和３丁目２９番１２－３０５号,,11,108,3360017,,,,,,,2024-07-11,1,,,,,マーズ,0
1430,7040001134489,新規,0,2024-07-11,2024-07-11,六幸株式会社,,株式会社,千葉県,木更津市,請西南５丁目２５番地１８,,12,206,2920807,,,,,,,2024-07-11,1,,,,,ロッコウ,0
1438,7060005010222,新規,0,2024-07-11,2024-07-11,特定非営利活動法人那須こどもホスピスプロジェクト,,その他の設立登記法人,栃木県,那須郡那須町,大字高久甲４４５３番地４１５,,09,407,3250001,,,,,,,2024-07-11,1,,,,,ナスコドモホスピスプロジェクト,0
1444,7080401027306,新規,0,2024-07-11,2024-07-11,ＢＥＭＳＴＵＤＩＯ　ＳＡＫＵＲＡ株式会社,,株式会社,静岡県,磐田市,岡７６１－２アールエヌビル,,22,211,4380204,,,,,,,2024-07-11,1,,,,,ベムスタジオサクラ,0
1448,7090001018803,新規,0,2024-07-11,2024-07-11,株式会社葵心,,株式会社,山梨県,笛吹市,石和町下平井１２６２,,19,211,4060027,,,,,,,2024-07-11,1,,,,,キシン,0
1458,7120001266745,新規,0,2024-07-11,2024-07-11,日本リスク管理センター株式会社,,株式会社,大阪府,大阪市中央区,城見２丁目２番２２号,,27,128,5400001,,,,,,,2024-07-11,1,,,,,ニホンリスクカンリセンター,0
1459,7120001266761,新規,0,2024-07-11,2024-07-11,株式会社ＴＡＧＳ,,株式会社,大阪府,大阪市中央区,高麗橋１丁目５番２号,,27,128,5410043,,,,,,,2024-07-11,1,,,,,タグス,0
1462,7120003026998,新規,0,2024-07-11,2024-07-11,Ｇｒｅｅｎ　Ｒｏｃｋ　Ｍａｎａｇｅｍｅｎｔ合同会社,,合同会社,大阪府,大阪市福島区,福島１丁目２番４号,,27,103,5530003,,,,,,,2024-07-11,1,,,,,グリーンロックマネジメント,0
1464,7120101069965,新規,0,2024-07-11,2024-07-11,株式会社やわらぎ,,株式会社,大阪府,貝塚市,三ツ松１４６９番地３,,27,208,5970105,,,,,,,2024-07-11,1,,,,,ヤワラギ,0
1466,7120901049448,新規,0,2024-07-11,2024-07-11,ＪＷＡＮ株式会社,,株式会社,大阪府,吹田市,江坂町５丁目１１番１０号サンシャイン緑地公園３０１号室,,27,205,5640063,,,,,,,2024-07-11,1,,,,,ジェーワン,0
1479,7140001134883,新規,0,2024-07-11,2024-07-11,株式会社ＡＢＣ,,株式会社,兵庫県,神戸市垂水区,歌敷山３丁目１１－２８,,28,108,6550037,,,,,,,2024-07-11,1,,,,,エービーシー,0
1480,7140001135106,新規,0,2024-07-11,2024-07-11,株式会社オクトパス,,株式会社,兵庫県,神戸市西区,池上４丁目２８番地６号シティ池上４０１,,28,111,6512111,,,,,,,2024-07-11,1,,,,,オクトパス,0
1483,7140003020792,新規,0,2024-07-11,2024-07-11,合同会社ＨＡＳＥＴＡＩ,,合同会社,兵庫県,神戸市中央区,御幸通３丁目２－１９、１４０３号,,28,110,6510087,,,,,,,2024-07-11,1,,,,,ハセタイ,0
1487,7180001162352,新規,0,2024-07-11,2024-07-11,株式会社ＴＨＩ,,株式会社,愛知県,名古屋市中川区,澄池町２１番３号－２,,23,110,4540806,,,,,,,2024-07-11,1,,,,,ティーエイチアイ,0
1488,7180301038822,新規,0,2024-07-11,2024-07-11,株式会社震興東川,,株式会社,愛知県,西尾市,山下町泡原１７番地２御幸ＮＹモール１０５,,23,213,4450877,,,,,,,2024-07-11,1,,,,,シンコウトウセン,0
1489,7180301038830,新規,0,2024-07-11,2024-07-11,株式会社ＶＢＬｉｎｋ,,株式会社,愛知県,豊川市,赤坂台２６３番地,,23,207,4410204,,,,,,,2024-07-11,1,,,,,ブイビィリンク,0
1519,7290001106406,新規,0,2024-07-11,2024-07-11,株式会社松栄工業,,株式会社,福岡県,飯塚市,綱分１６０９番地１１,,40,205,8200101,,,,,,,2024-07-11,1,,,,,ショウエイコウギョウ,0
1524,7330003010452,新規,0,2024-07-11,2024-07-11,合同会社ＣｏａｔＤｒｏ,,合同会社,熊本県,熊本市北区,鶴羽田１丁目８－４７－１ＭＣＲ３８７Ｂ－９,,43,105,8615517,,,,,,,2024-07-11,1,,,,,コートドロー,0
1529,7360003014145,新規,0,2024-07-11,2024-07-11,合同会社居宅介護支援Ｒとんちゃー,,合同会社,沖縄県,宜野湾市,新城２丁目３９番３号,,47,205,9012201,,,,,,,2024-07-11,1,,,,,キョタクカイゴシエンアールトンチャー,0
1540,7420001018785,新規,0,2024-07-11,2024-07-11,株式会社ｍｍｍ,,株式会社,青森県,青森市,造道３丁目１番１６号,,02,201,0300911,,,,,,,2024-07-11,1,,,,,,0
1542,7430001092243,新規,0,2024-07-11,2024-07-11,Ｇｉｎｇｅｒｂｒｅａｄ　ｂｙ　ＧＲＡＮＴ株式会社,,株式会社,北海道,札幌市北区,北三十八条西７丁目１番２０号アドゥスィールＩＩ１０１号,00135549,01,102,0010038,,,,,,,2024-07-11,1,,,,,ジンジャーブレットバイグラント,0
1561,8010001246567,新規,0,2024-07-11,2024-07-11,ＳＥＢ　Ｌａｂｏ株式会社,,株式会社,東京都,中央区,日本橋小伝馬町４番２号日本法令小伝馬町ビル１階,,13,102,1030001,,,,,,,2024-07-11,1,,,,,エスイービーラボ,0
1563,8010003044267,新規,0,2024-07-11,2024-07-11,合同会社愛國社,,合同会社,東京都,千代田区,神田須田町１丁目７番８号ＶＯＲＴ秋葉原４２Ｆ,,13,101,1010041,,,,,,,2024-07-11,1,,,,,アイコクシャ,0
1567,8010103002389,新規,0,2024-07-11,2024-07-11,合同会社ＲＵＩ,,合同会社,東京都,八王子市,八日町３－１パークホームズ八王子７１３,,13,201,1920071,,,,,,,2024-07-11,1,,,,,ルイ,0
1569,8010401183609,新規,0,2024-07-11,2024-07-11,株式会社鳳凰,,株式会社,東京都,港区,南青山４丁目１７－３３グランカーサ南青山２Ｆ,,13,103,1070062,,,,,,,2024-07-11,1,,,,,ホウオウ,0
1570,8010401183633,新規,0,2024-07-11,2024-07-11,株式会社Ｍ．ＹＯＲＫ,,株式会社,東京都,港区,三田４丁目１９番２７号高輪パームビル２０２号室,,13,103,1080073,,,,,,,2024-07-11,1,,,,,エムヨーク,0
1571,8010401183749,新規,0,2024-07-11,2024-07-11,株式会社ＢＵＺＺチケ,,株式会社,東京都,港区,赤坂２丁目１３番１号ルーセント赤坂７階,,13,103,1070052,,,,,,,2024-07-11,1,,,,,バズチケ,0
1575,8010503007517,新規,0,2024-07-11,2024-07-11,継華貿易合同会社,,合同会社,東京都,台東区,台東２丁目３１番１０号,,13,106,1100016,,,,,,,2024-07-11,1,,,,,ケイカボウエキ,0
1580,8010803005014,新規,0,2024-07-11,2024-07-11,合同会社Ｔ．Ｋ東京,,合同会社,東京都,大田区,田園調布２丁目１４番４号レオパレスエトワール田園調布２１０,,13,111,1450071,,,,,,,2024-07-11,1,,,,,ティーケートウキョウ,0
1583,8010903009220,新規,0,2024-07-11,2024-07-11,ハーラジャパン合同会社,,合同会社,東京都,世田谷区,代田６丁目１２番２４号,,13,112,1550033,,,,,,,2024-07-11,1,,,,,ハーラジャパン,0
1593,8011001163174,新規,0,2024-07-11,2024-07-11,ＳＴＡＹＧＥ　ＮＸＴ　Ｌａｂ株式会社,,株式会社,東京都,渋谷区,東１丁目２９番３号渋谷ブリッジＢ棟,,13,113,1500011,,,,,,,2024-07-11,1,,,,,ステージネクストラボ,0
1597,8011201025629,新規,0,2024-07-11,2024-07-11,東洋愛華株式会社,,株式会社,東京都,中野区,大和町４丁目５２－３,,13,114,1650034,,,,,,,2024-07-11,1,,,,,トウヨウアイワ,0
1603,8011703003883,新規,0,2024-07-11,2024-07-11,ＡＬＥ合同会社,,合同会社,東京都,江戸川区,東小岩５丁目２０番１１号２Ｆ,,13,123,1330052,,,,,,,2024-07-11,1,,,,,アレ,0
1607,8011801044508,新規,0,2024-07-11,2024-07-11,株式会社Ｆｉｒｓｔ　ｗｉｌｌ,,株式会社,東京都,足立区,中央本町２丁目１３番１－９１９号,,13,121,1200011,,,,,,,2024-07-11,1,,,,,ファーストウィル,0
1609,8012305002092,新規,0,2024-07-11,2024-07-11,桜花税理士法人,,その他の設立登記法人,東京都,町田市,中町１丁目２２番４号,,13,209,1940021,,,,,,,2024-07-11,1,,,,,オウカ,0
1611,8012401042083,新規,0,2024-07-11,2024-07-11,ＷＯＲＬＤＦＩＲＳＴ株式会社,,株式会社,東京都,武蔵野市,桜堤１丁目５－８－３,,13,203,1800021,,,,,,,2024-07-11,1,,,,,ワールドファースト,0
1613,8013305003618,新規,0,2024-07-11,2024-07-11,特定非営利活動法人クレッシェンド,,その他の設立登記法人,東京都,豊島区,高松３丁目３番１－５２４号,,13,116,1710042,,,,,,,2024-07-11,1,,,,,クレッシェンド,0
1625,8021001082712,新規,0,2024-07-11,2024-07-11,株式会社野口架設,,株式会社,神奈川県,海老名市,本郷４０５９番地８,,14,215,2430417,,,,,,,2024-07-11,1,,,,,ノグチカセツ,0
1633,8021003014754,新規,0,2024-07-11,2024-07-11,コネクト合同会社,,合同会社,神奈川県,平塚市,出縄２２１番地の２,,14,203,2540915,,,,,,,2024-07-11,1,,,,,コネクト,0
1634,8021003014762,新規,0,2024-07-11,2024-07-11,合同会社ソレイユエナジー４号,,合同会社,神奈川県,茅ヶ崎市,茅ヶ崎１丁目２番４７号,,14,207,2530041,,,,,,,2024-07-11,1,,,,,ソレイユエナジーヨンゴウ,0
1640,8030001161351,新規,0,2024-07-11,2024-07-11,ＳｕｎＪｏｙ株式会社,,株式会社,埼玉県,川口市,川口４丁目４番８号,,11,203,3320015,,,,,,,2024-07-11,1,,,,,サンジョイ,0
1641,8030001161392,新規,0,2024-07-11,2024-07-11,株式会社真,,株式会社,埼玉県,草加市,小山２丁目６番４０号,,11,221,3400045,,,,,,,2024-07-11,1,,,,,シン,0
1642,8030001161401,新規,0,2024-07-11,2024-07-11,株式会社コマチ,,株式会社,埼玉県,川口市,柳崎２丁目２４番２２号,,11,203,3330861,,,,,,,2024-07-11,1,,,,,コマチ,0
1652,8040001134488,新規,0,2024-07-11,2024-07-11,株式会社文化不動産,,株式会社,千葉県,木更津市,江川１３４１番地１１,,12,206,2920063,,,,,,,2024-07-11,1,,,,,ブンカフドウサン,0
1656,8040003025396,新規,0,2024-07-11,2024-07-11,むすびテック合同会社,,合同会社,千葉県,松戸市,松戸１４３２番地,,12,207,2710092,,,,,,,2024-07-11,1,,,,,ムスビテック,0
1657,8040005022441,新規,0,2024-07-11,2024-07-11,一般財団法人銚子円卓会議,,その他の設立登記法人,千葉県,銚子市,中央町１２番地の１３,,12,202,2880041,,,,,,,2024-07-11,1,,,,,チョウシエンタクカイギ,0
1677,8090001018810,新規,0,2024-07-11,2024-07-11,株式会社ラクアン,,株式会社,山梨県,山梨市,下石森７０６－２,,19,205,4050015,,,,,,,2024-07-11,1,,,,,ラクアン,0
1683,8110003005449,新規,0,2024-07-11,2024-07-11,合同会社ダイチュー,,合同会社,新潟県,長岡市,城内町２丁目６番地２２ホクエンビル３Ｆ,,15,202,9400061,,,,,,,2024-07-11,1,,,,,ダイチュー,0
1692,8120001266620,新規,0,2024-07-11,2024-07-11,株式会社京東,,株式会社,大阪府,大阪市東住吉区,東田辺３丁目１－１－１Ｆ－Ｋ,,27,121,5460032,,,,,,,2024-07-11,1,,,,,キョウトウ,0
1693,8120001266629,新規,0,2024-07-11,2024-07-11,大阪テックホライズンズ株式会社,,株式会社,大阪府,大阪市淀川区,木川西１丁目９番１４号,,27,123,5320013,,,,,,,2024-07-11,1,,,,,オオサカテックホライズンズ,0
1694,8120001266686,新規,0,2024-07-11,2024-07-11,ＳＤ　ＪＡＰＡＮ株式会社,,株式会社,大阪府,大阪市中央区,内本町２丁目４番１０号ネオハイツ内本町２０９号,,27,128,5400026,,,,,,,2024-07-11,1,,,,,エスディージャパン,0
1695,8120001266694,新規,0,2024-07-11,2024-07-11,株式会社グラッド・マネジメント,,株式会社,大阪府,守口市,滝井元町２丁目３番１６号,,27,209,5700065,,,,,,,2024-07-11,1,,,,,グラッドマネジメント,0
1696,8120001266711,新規,0,2024-07-11,2024-07-11,株式会社ｍ’ｓ,,株式会社,大阪府,大阪市北区,中崎西１丁目１０番５号,,27,127,5300015,,,,,,,2024-07-11,1,,,,,エムズ,0
1697,8120001266752,新規,0,2024-07-11,2024-07-11,Ｙｏｉｓａ株式会社,,株式会社,大阪府,大阪市中央区,南船場４丁目９番１２－３０７号,,27,128,5420081,,,,,,,2024-07-11,1,,,,,ヨイサ,0
1701,8120101069964,新規,0,2024-07-11,2024-07-11,株式会社一歩会,,株式会社,大阪府,堺市南区,赤坂台５丁１６番２８号,,27,145,5900144,,,,,,,2024-07-11,1,,,,,イッポカイ,0
1703,8120103005942,新規,0,2024-07-11,2024-07-11,合同会社リハティスプラス,,合同会社,大阪府,河内長野市,楠ケ丘９番６号,,27,216,5860039,,,,,,,2024-07-11,1,,,,,リハティスプラス,0
1706,8120903005241,新規,0,2024-07-11,2024-07-11,ＰＹＵＡＳＡ合同会社,,合同会社,大阪府,箕面市,牧落３丁目１１－５－２０３,,27,220,5620004,,,,,,,2024-07-11,1,,,,,ピュアサ,0
1707,8120903005258,新規,0,2024-07-11,2024-07-11,合同会社日本流通,,合同会社,大阪府,高槻市,真上町２丁目１６番３９号,,27,207,5691121,,,,,,,2024-07-11,1,,,,,ニホンリュウツウ,0
1710,8130001077455,新規,0,2024-07-11,2024-07-11,株式会社シフ,,株式会社,京都府,京都市上京区,宮垣町９１番地１０２,,26,102,6020853,,,,,,,2024-07-11,1,,,,,シフ,0
1719,8140001135096,新規,0,2024-07-11,2024-07-11,株式会社イベントプランニングおもち,,株式会社,兵庫県,神戸市中央区,中山手通４丁目１０番８号,,28,110,6500004,,,,,,,2024-07-11,1,,,,,イベントプランニングオモチ,0
1720,8140001135105,新規,0,2024-07-11,2024-07-11,シデンエアフォース株式会社,,株式会社,兵庫県,明石市,本町１丁目２番２３号Ｋ’ｓビル５Ｆ,,28,203,6730892,,,,,,,2024-07-11,1,,,,,シデンエアフォース,0
1721,8140001135113,新規,0,2024-07-11,2024-07-11,Ｓ．ｄｅｓｉｇｎ株式会社,,株式会社,兵庫県,尼崎市,潮江１丁目４番２－１７０４号,,28,202,6610976,,,,,,,2024-07-11,1,,,,,エスデザイン,0
1722,8140001135121,新規,0,2024-07-11,2024-07-11,株式会社フェニックス,,株式会社,兵庫県,神戸市長田区,日吉町４丁目１番１号マル井ビル４階－Ｄ,,28,106,6530039,,,,,,,2024-07-11,1,,,,,フェニックス,0
1724,8140003020800,新規,0,2024-07-11,2024-07-11,合同会社リアル・ワン・アセットマネジメント,,合同会社,兵庫県,西宮市,老松町１７番６０－４号,,28,204,6620085,,,,,,,2024-07-11,1,,,,,リアルワンアセットマネジメント,0
1731,8170001018216,新規,0,2024-07-11,2024-07-11,株式会社Ｍａｇｉｃ,,株式会社,和歌山県,御坊市,藤田町吉田７３９番地１２,,30,205,6491342,,,,,,,2024-07-11,1,,,,,マジック,0
1735,8180003026975,新規,0,2024-07-11,2024-07-11,合同会社Ｂｅｌｌ　Ｆｏｒｅｓｔ,,合同会社,愛知県,名古屋市中区,千代田２丁目１９番２０号トーカンマンション鶴舞３０７,,23,106,4600012,,,,,,,2024-07-11,1,,,,,ベルフォレスト,0
1750,8240001063510,新規,0,2024-07-11,2024-07-11,株式会社ＴｏｙＢｏｘ,,株式会社,広島県,広島市安佐南区,西原３丁目１９－７－１０２号,,34,105,7310113,,,,,,,2024-07-11,1,,,,,トイボックス,0
1751,8240001063519,新規,0,2024-07-11,2024-07-11,建築屋ｓｈｉｎｓｅｉｇｕｍｉ株式会社,,株式会社,広島県,東広島市,志和町奥屋９０６番地１,,34,212,7390266,,,,,,,2024-07-11,1,,,,,ケンチクヤシンセイグミ,0
1752,8250001020725,新規,0,2024-07-11,2024-07-11,株式会社長府断熱,,株式会社,山口県,下関市,熊野町１丁目９番３５号,,35,201,7510852,,,,,,,2024-07-11,1,,,,,チョウフダンネツ,0
1759,8290001106371,新規,0,2024-07-11,2024-07-11,リージョナルインベストメント福岡株式会社,,株式会社,福岡県,福岡市博多区,下川端町３番１号,,40,132,8120027,,,,,,,2024-07-11,1,,,,,リージョナルインベストメントフクオカ,0
1765,8360001033930,新規,0,2024-07-11,2024-07-11,株式会社ＳＫＭＫ,,株式会社,沖縄県,宮古島市,平良字東仲宗根３４１番地２,,47,214,9060007,,,,,,,2024-07-11,1,,,,,エスケイエムケイ,0
1766,8360003014152,新規,0,2024-07-11,2024-07-11,Ｂａｌａｎｃｅｄ　Ｌｉｖｉｎｇ　Ｊａｐａｎ合同会社,,合同会社,沖縄県,中頭郡北谷町,字宮城１番地４７７,,47,326,9040113,,,,,,,2024-07-11,1,,,,,バランスドリビングジャパン,0
1769,8370001051502,新規,0,2024-07-11,2024-07-11,株式会社Ｓｕｇａｒ,,株式会社,宮城県,名取市,下余田字成田２１３番地の２,,04,207,9811223,,,,,,,2024-07-11,1,,,,,シュガー,0
1773,8380001034670,新規,0,2024-07-11,2024-07-11,ハナカゼ株式会社,,株式会社,福島県,いわき市,郷ケ丘４丁目２０番地の１４リアンＤ,,07,204,9708045,,,,,,,2024-07-11,1,,,,,,0
1781,8430001092242,新規,0,2024-07-11,2024-07-11,株式会社ＥＨＰ,,株式会社,北海道,札幌市豊平区,平岸三条８丁目６番１号信和リッチ２階,,01,105,0620933,,,,,,,2024-07-11,1,,,,,イーエイチピー,0
1783,8430003016546,新規,0,2024-07-11,2024-07-11,カミウタロクシ合同会社,,合同会社,北海道,歌志内市,字上歌３９番地８,,01,227,0730401,,,,,,,2024-07-11,1,,,,,カミウタロクシ,0
1793,9010001246467,新規,0,2024-07-11,2024-07-11,ノーブルクラウン株式会社,,株式会社,東京都,中央区,銀座６丁目１３番１６号銀座ＷａｌｌビルＵＣＦ５０１,,13,102,1040061,,,,,,,2024-07-11,1,,,,,ノーブルクラウン,0
1804,9010401183509,新規,0,2024-07-11,2024-07-11,株式会社アシスト,,株式会社,東京都,港区,南青山３丁目１番３６号青山丸竹ビル６Ｆ,,13,103,1070062,,,,,,,2024-07-11,1,,,,,アシスト,0
1805,9010401183632,新規,0,2024-07-11,2024-07-11,株式会社Ｍａｒｋｅｔｉｎｇ　Ｂｒａｉｎ,,株式会社,東京都,港区,南青山２丁目２番１５号ＷｉｎＡｏｙａｍａビルＵＣＦ６３５,,13,103,1070062,,,,,,,2024-07-11,1,,,,,マーケティングブレイン,0
1818,9010801035227,新規,0,2024-07-11,2024-07-11,株式会社Ｃｒｏｓｓｈａｔｃｈｉｎｇ,,株式会社,東京都,大田区,上池台１丁目１０番５号,,13,111,1450064,,,,,,,2024-07-11,1,,,,,クロスハッチング,0
1820,9010903009211,新規,0,2024-07-11,2024-07-11,合同会社エイチアンドエルエステート,,合同会社,東京都,世田谷区,玉川台１丁目４－１１,,13,112,1580096,,,,,,,2024-07-11,1,,,,,エイチアンドエルエステート,0
1827,9011003019547,新規,0,2024-07-11,2024-07-11,合同会社ダイキプラス,,合同会社,東京都,渋谷区,神宮前６丁目２３番４号桑野ビル２階,,13,113,1500001,,,,,,,2024-07-11,1,,,,,ダイキプラス,0
1834,9011501030914,新規,0,2024-07-11,2024-07-11,三彩鱗株式会社,,株式会社,東京都,荒川区,西日暮里２丁目２８番６－３０４号,,13,118,1160013,,,,,,,2024-07-11,1,,,,,サンサイリン,0
1840,9011803006331,新規,0,2024-07-11,2024-07-11,Ｒ‐ＴＲＡＤＩＮＧ合同会社,,合同会社,東京都,葛飾区,堀切２丁目６６番１９－２０５号,,13,122,1240006,,,,,,,2024-07-11,1,,,,,アールトレーディング,0
1844,9012705002410,新規,0,2024-07-11,2024-07-11,一般社団法人ＰＴＲ　ＪＡＰＡＮ,,その他の設立登記法人,東京都,小平市,鈴木町１丁目４００番地の１,,13,211,1870011,,,,,,,2024-07-11,1,,,,,ピーティアールジャパン,0
1848,9020001158067,新規,0,2024-07-11,2024-07-11,株式会社Ｙ＆Ｋ,,株式会社,神奈川県,横浜市保土ケ谷区,岩井町１２３番地２保土ケ谷駅前ハイツ２棟５１０号,,14,106,2400023,,,,,,,2024-07-11,1,,,,,ワイアンドケイ,0
1849,9020001158083,新規,0,2024-07-11,2024-07-11,株式会社エムズインターナショナル,,株式会社,神奈川県,横浜市港北区,新横浜２丁目２番地の１５,,14,109,2220033,,,,,,,2024-07-11,1,,,,,エムズインターナショナル,0
1850,9020001158091,新規,0,2024-07-11,2024-07-11,相鉄不動産投資顧問株式会社,,株式会社,神奈川県,横浜市西区,南幸２丁目１番２２号,,14,103,2200005,,,,,,,2024-07-11,1,,,,,ソウテツフドウサントウシコモン,0
1852,9020003026494,新規,0,2024-07-11,2024-07-11,一期一会合同会社,,合同会社,神奈川県,川崎市川崎区,南町１０番地１９メリス川崎２０１,,14,131,2100015,,,,,,,2024-07-11,1,,,,,イチゴイチエ,0
1858,9021003014761,新規,0,2024-07-11,2024-07-11,合同会社ソレイユエナジー３号,,合同会社,神奈川県,茅ヶ崎市,茅ヶ崎１丁目２番４７号,,14,207,2530041,,,,,,,2024-07-11,1,,,,,ソレイユエナジーサンゴウ,0
1862,9030001161391,新規,0,2024-07-11,2024-07-11,株式会社ライフリープ,,株式会社,埼玉県,さいたま市西区,大字指扇３２１８番地８サンハイツＮｏ．２－１０３,00135556,11,101,3310047,,,,,,,2024-07-11,1,,,,,ライフリープ,0
1863,9030001161400,新規,0,2024-07-11,2024-07-11,株式会社ＧＬＯＷＩＮ,,株式会社,埼玉県,入間市,久保稲荷１丁目４番５号,,11,225,3580024,,,,,,,2024-07-11,1,,,,,グロウイン,0
1864,9030001161409,新規,0,2024-07-11,2024-07-11,株式会社クレセントムーン,,株式会社,埼玉県,三郷市,戸ケ崎３丁目３９７番地７,,11,237,3410044,,,,,,,2024-07-11,1,,,,,クレセントムーン,0
1867,9030003024687,新規,0,2024-07-11,2024-07-11,ＫＩグリーン合同会社,,合同会社,埼玉県,さいたま市桜区,西堀７丁目５番１号５０３,,11,106,3380832,,,,,,,2024-07-11,1,,,,,,0
1868,9030003024695,新規,0,2024-07-11,2024-07-11,合同会社誠葉工業,,合同会社,埼玉県,狭山市,狭山４２番７号,,11,215,3501334,,,,,,,2024-07-11,1,,,,,セイハコウギョウ,0
1872,9040001134495,新規,0,2024-07-11,2024-07-11,株式会社エードットアイ,,株式会社,千葉県,長生郡一宮町,一宮２３８番地２１,,12,421,2994301,,,,,,,2024-07-11,1,,,,,エードットアイ,0
1876,9040003025370,新規,0,2024-07-11,2024-07-11,合同会社Ｃｒａｆｔ　Ｃｕｉｓｉｎｅ,,合同会社,千葉県,市川市,南大野２丁目２８番４号,,12,203,2720804,,,,,,,2024-07-11,1,,,,,クラフトキュイジン,0
1896,9100001037618,新規,0,2024-07-11,2024-07-11,株式会社ＪＡＤＥ　ＧＲＯＵＰ,,株式会社,長野県,北安曇郡白馬村,大字北城３０２０番地８３７,,20,485,3999301,,,,,,,2024-07-11,1,,,,,ジェイドグループ,0
1898,9110001038565,新規,0,2024-07-11,2024-07-11,株式会社ＭｏＲｕｂｉｉ,,株式会社,新潟県,小千谷市,城内４丁目１番５５号西沢ビル３０１,,15,208,9470028,,,,,,,2024-07-11,1,,,,,モルビィ,0
1900,9110005017111,新規,0,2024-07-11,2024-07-11,一般社団法人ズバッと解決上越,,その他の設立登記法人,新潟県,上越市,大字三田新田４７４番地１,,15,222,9420053,,,,,,,2024-07-11,1,,,,,ズバットカイケツジョウエツ,0
1909,9120001266644,新規,0,2024-07-11,2024-07-11,＿和株式会社,00135547,株式会社,大阪府,大阪市中央区,大手通２丁目３番９号,,27,128,5400021,,,,,,,2024-07-11,1,,,,,カワ,0
1910,9120001266660,新規,0,2024-07-11,2024-07-11,ＹＬＯ株式会社,,株式会社,大阪府,大阪市住之江区,御崎１丁目１１番１９－３０１,,27,125,5590013,,,,,,,2024-07-11,1,,,,,ワイエルオー,0
1911,9120001266669,新規,0,2024-07-11,2024-07-11,株式会社Ｓｕｎｎｙ　Ｇａｔｅｓ,,株式会社,大阪府,大阪市中央区,淡路町２丁目２番６－２０３号サンマイン北浜,,27,128,5410047,,,,,,,2024-07-11,1,,,,,サニーゲーツ,0
1912,9120001266677,新規,0,2024-07-11,2024-07-11,株式会社ｏｆｆｉｃｅＮＴ,,株式会社,大阪府,大阪市阿倍野区,天王寺町南３丁目１１番２３号ジェイグラン阿倍野Ｅａｓｔ９０４,,27,119,5450002,,,,,,,2024-07-11,1,,,,,オフィスエヌティー,0
1913,9120001266710,新規,0,2024-07-11,2024-07-11,株式会社スリーエスリード,,株式会社,大阪府,大阪市北区,南森町２丁目１番２０号,,27,127,5300054,,,,,,,2024-07-11,1,,,,,スリーエスリード,0
1914,9120003026988,新規,0,2024-07-11,2024-07-11,合同会社くろまめ,,合同会社,大阪府,大阪市東成区,神路１丁目４－２,,27,115,5370003,,,,,,,2024-07-11,1,,,,,クロマメ,0
1915,9120003027004,新規,0,2024-07-11,2024-07-11,合同会社ＯＧスタイル,,合同会社,大阪府,大阪市住吉区,万代東１丁目５番２２号,,27,120,5580056,,,,,,,2024-07-11,1,,,,,オージースタイル,0
1916,9120003027012,新規,0,2024-07-11,2024-07-11,合同会社ＳＡリンク,,合同会社,大阪府,大阪市北区,梅田１丁目２番２号大阪駅前第２ビル１２－１２,,27,127,5300001,,,,,,,2024-07-11,1,,,,,エスエーリンク,0
1919,9120101069955,新規,0,2024-07-11,2024-07-11,株式会社碧,,株式会社,大阪府,堺市中区,深阪４丁１６番２号,,27,142,5998253,,,,,,,2024-07-11,1,,,,,アオ,0
1920,9120101069963,新規,0,2024-07-11,2024-07-11,株式会社ＮＭＳ,,株式会社,大阪府,堺市中区,八田北町９６１番地,,27,142,5998262,,,,,,,2024-07-11,1,,,,,エヌエムエス,0
1926,9122001038263,新規,0,2024-07-11,2024-07-11,株式会社ＩＲＯＤＯＲＩＳＴ,,株式会社,大阪府,東大阪市,西鴻池町１丁目３番３号,,27,227,5780976,,,,,,,2024-07-11,1,,,,,イロドリスト,0
1927,9130003009694,新規,0,2024-07-11,2024-07-11,ＪＴＷ総合サービス合同会社,,合同会社,京都府,亀岡市,篠町見晴５丁目５番２号,,26,206,6210824,,,,,,,2024-07-11,1,,,,,ジェーティーダブリューソウゴウサービス,0
1934,9150005009609,新規,0,2024-07-11,2024-07-11,一般社団法人ＳＥＶＥＮ奈良スポーツクラブ,,その他の設立登記法人,奈良県,奈良市,押熊町２０８番地の１２,,29,201,6310011,,,,,,,2024-07-11,1,,,,,セブンナラスポーツクラブ,0
1936,9170001018215,新規,0,2024-07-11,2024-07-11,株式会社ＩＮＢＥＸ,,株式会社,和歌山県,和歌山市,井辺２４８番地,,30,201,6408302,,,,,,,2024-07-11,1,,,,,インベックス,0
1937,9180001162301,新規,0,2024-07-11,2024-07-11,株式会社ＷｏｎｄｅｒｗａｌｌＪａｐａｎ,,株式会社,愛知県,愛知郡東郷町,大字春木字千子５４５－５９,,23,302,4700162,,,,,,,2024-07-11,1,,,,,ワンダーウォールジャパン,0
1939,9180303006172,新規,0,2024-07-11,2024-07-11,合同会社まほろば,,合同会社,愛知県,豊橋市,菰口町５丁目７６番地（５０１）,,23,201,4418011,,,,,,,2024-07-11,1,,,,,マホロバ,0
1950,9230001020437,新規,0,2024-07-11,2024-07-11,株式会社秀泉,,株式会社,富山県,高岡市,本郷１丁目４番１号,,16,202,9330947,,,,,,,2024-07-11,1,,,,,シュウセン,0
1962,9290001106379,新規,0,2024-07-11,2024-07-11,株式会社トライアルＧＯ,,株式会社,福岡県,福岡市東区,多の津１丁目１２番２号,,40,131,8130034,,,,,,,2024-07-11,1,,,,,トライアルゴー,0
1963,9290001106420,新規,0,2024-07-11,2024-07-11,株式会社アーバンステイ,,株式会社,福岡県,福岡市中央区,春吉３丁目２１－８春野南ビル３階,,40,133,8100003,,,,,,,2024-07-11,1,,,,,アーバンステイ,0
1991,9400001016715,新規,0,2024-07-11,2024-07-11,株式会社陸奥こめ工房,,株式会社,岩手県,北上市,藤沢１３地割１０６－５,,03,206,0240013,,,,,,,2024-07-11,1,,,,,ミチノクコメコウボウ,0
1992,9400003003298,新規,0,2024-07-11,2024-07-11,ネビラキ合同会社,,合同会社,岩手県,和賀郡西和賀町,川尻４０地割５７番地３,,03,366,0295512,,,,,,,2024-07-11,1,,,,,ネビラキ,0
1994,9420001018791,新規,0,2024-07-11,2024-07-11,株式会社ＯＮＥＭＡＫＥ．ＣＯ,,株式会社,青森県,青森市,浪岡福田１丁目１１番地３,,02,201,0381306,,,,,,,2024-07-11,1,,,,,ワンメイクコー,0
1996,9430001092241,新規,0,2024-07-11,2024-07-11,株式会社ベル,,株式会社,北海道,札幌市東区,北四十七条東２丁目１番３号,,01,103,0070847,,,,,,,2024-07-11,1,,,,,ベル,0
2002,9480001012541,新規,0,2024-07-11,2024-07-11,株式会社大西商店,,株式会社,徳島県,鳴門市,大津町大代１２２３番地,,36,202,7720041,,,,,,,2024-07-11,1,,,,,オオニシショウテン,0
2003,9480003002160,新規,0,2024-07-11,2024-07-11,合同会社ＭＡＫＩＨＡＲＵ,,合同会社,徳島県,阿南市,那賀川町工地２７３番地２２,,36,204,7791236,,,,,,,2024-07-11,1,,,,,マキハル,0
