sequenceNumber,corporateNumber,process,correct,updateDate,changeDate,name,nameImageId,kind,prefectureName,cityName,streetNumber,addressImageId,prefectureCode,cityCode,postCode,addressOutside,addressOutsideImageId,closeDate,closeCause,successorCorporateNumber,changeCause,assignmentDate,latest,enName,enPrefectureName,enCityName,enAddressOutside,furigana,hihyoji
11,1010001246350,新規,0,2024-07-16,2024-07-16,翼搏株式会社,,株式会社,東京都,千代田区,神田小川町１丁目１０－２ＡＴＥＬＩＥＲＹＯＵＲＳ小川町２０４,,13,101,1010052,,,,,,,2024-07-16,1,,,,,ヨクハク,0
12,1010001246400,新規,0,2024-07-16,2024-07-16,株式会社ＬｅａｎＷｏｒｋｓ,,株式会社,東京都,文京区,本郷５丁目１番１１号ＫＩＩＨＯＵＳＥ２０２,,13,105,1130033,,,,,,,2024-07-16,1,,,,,リーンワークス,0
15,1010003044315,新規,0,2024-07-16,2024-07-16,合同会社ＭＩＲＡＷＩＮＧ,,合同会社,東京都,中央区,銀座１丁目１２番４号Ｎ＆ＥＢＬＤ６階,,13,102,1040061,,,,,,,2024-07-16,1,,,,,ミラウィング,0
25,1010401183821,新規,0,2024-07-16,2024-07-16,株式会社ｉｎｏｃｏｒｉ,,株式会社,東京都,港区,南青山３丁目１番３６号青山丸竹ビル６Ｆ,,13,103,1070062,,,,,,,2024-07-16,1,,,,,イノコリ,0
26,1010401183838,新規,0,2024-07-16,2024-07-16,株式会社ＮＪ,,株式会社,東京都,港区,浜松町２丁目２番１５号浜松町ダイヤビル２Ｆ,,13,103,1050013,,,,,,,2024-07-16,1,,,,,エヌジェー,0
28,1010403032992,新規,0,2024-07-16,2024-07-16,ｍｉｎｔａｒｃ合同会社,,合同会社,東京都,港区,北青山１丁目３番１号アールキューブ青山３階,,13,103,1070061,,,,,,,2024-07-16,1,,,,,ミントアーク,0
29,1010403033009,新規,0,2024-07-16,2024-07-16,ＧＶＳＪ１４合同会社,,合同会社,東京都,港区,六本木３丁目１６番２６号,,13,103,1060032,,,,,,,2024-07-16,1,,,,,ジーブイエスジェイフォーティーン,0
30,1010403033017,新規,0,2024-07-16,2024-07-16,ＧＶＳＪ２２合同会社,,合同会社,東京都,港区,六本木３丁目１６番２６号,,13,103,1060032,,,,,,,2024-07-16,1,,,,,ジーブイエスジェイトゥエンティトゥー,0
31,1010403033025,新規,0,2024-07-16,2024-07-16,ＧＶＳＪ３０合同会社,,合同会社,東京都,港区,六本木３丁目１６番２６号,,13,103,1060032,,,,,,,2024-07-16,1,,,,,ジーブイエスジェイサーティ,0
32,1010403033033,新規,0,2024-07-16,2024-07-16,Ａｏｍｏｒｉ‐１ＢＥＳＳ合同会社,,合同会社,東京都,港区,元麻布３丁目１番６号,,13,103,1060046,,,,,,,2024-07-16,1,,,,,アオモリワンベス,0
33,1010405023412,新規,0,2024-07-16,2024-07-16,一般社団法人教育ＡＩ活用協会,,その他の設立登記法人,東京都,港区,新橋２丁目２０番１５新橋駅前ビル１号館６０１号室,,13,103,1050004,,,,,,,2024-07-16,1,,,,,キョウイクエーアイカツヨウキョウカイ,0
39,1010603010955,新規,0,2024-07-16,2024-07-16,ＳＯＲＴＩＥ　ＴＯＫＹＯ合同会社,,合同会社,東京都,江東区,南砂５丁目８－１３－１４０５,,13,108,1360076,,,,,,,2024-07-16,1,,,,,ソルティトウキョウ,0
45,1010701046281,新規,0,2024-07-16,2024-07-16,株式会社ＬＩＦＥＫＮＯＣＫ,,株式会社,東京都,品川区,西品川１丁目１－１住友不動産大崎ガーデンタワー９Ｆトンネル東京株式会社ＬＩＦＥＫＮＯＣＫ,,13,109,1410033,,,,,,,2024-07-16,1,,,,,ライフノック,0
46,1010703007257,新規,0,2024-07-16,2024-07-16,合同会社Ｅｄｅｎｃｅ,,合同会社,東京都,品川区,西五反田８丁目６―６パールハイツ２０１,,13,109,1410031,,,,,,,2024-07-16,1,,,,,エデンス,0
58,1011001163362,新規,0,2024-07-16,2024-07-16,株式会社ＫＩＭ,,株式会社,東京都,渋谷区,恵比寿南３丁目１０番６号ミヤケホームズ２０１,,13,113,1500022,,,,,,,2024-07-16,1,,,,,ケーアイエム,0
63,1011101107970,新規,0,2024-07-16,2024-07-16,株式会社ＢＫ　ＬＩＮＥ,,株式会社,東京都,新宿区,水道町３番１４号３階,,13,104,1620811,,,,,,,2024-07-16,1,,,,,ビーケーライン,0
64,1011101108011,新規,0,2024-07-16,2024-07-16,株式会社Ｒｏｍａｘ,,株式会社,東京都,新宿区,西新宿３丁目３番１３号西新宿水間ビル６階,,13,104,1600023,,,,,,,2024-07-16,1,,,,,ロマックス,0
65,1011105011087,新規,0,2024-07-16,2024-07-16,一般社団法人ＴＵ００４,,その他の設立登記法人,東京都,新宿区,四谷２丁目９番地１５東京ユナイテッド綜合事務所内,,13,104,1600004,,,,,,,2024-07-16,1,,,,,ティーユーゼロゼロフォー,0
73,1011803006339,新規,0,2024-07-16,2024-07-16,合同会社ルキー,,合同会社,東京都,足立区,大谷田１丁目２番１４号,,13,121,1200001,,,,,,,2024-07-16,1,,,,,ルキー,0
75,1012401042065,新規,0,2024-07-16,2024-07-16,Ｔｈｅｏｓ　Ｒｅｓｏｒｔｓ株式会社,,株式会社,東京都,三鷹市,井の頭１丁目１３－３９，ムーンシャトル三鷹台１０２号室,,13,204,1810001,,,,,,,2024-07-16,1,,,,,セオスリゾーツ,0
77,1012403006662,新規,0,2024-07-16,2024-07-16,合同会社アクティブフットワーク,,合同会社,東京都,小金井市,緑町５丁目１４番２６－３０６号プレシス小金井緑町,,13,210,1840003,,,,,,,2024-07-16,1,,,,,アクティブフットワーク,0
78,1013301052781,新規,0,2024-07-16,2024-07-16,株式会社マリーン,,株式会社,東京都,豊島区,目白２丁目１６番２０号,,13,116,1710031,,,,,,,2024-07-16,1,,,,,マリーン,0
80,1013303007222,新規,0,2024-07-16,2024-07-16,合同会社ＰＥＡＲ,,合同会社,東京都,豊島区,池袋本町４丁目１８番２号アルンハイム１０５号,,13,116,1700011,,,,,,,2024-07-16,1,,,,,ピアー,0
87,1021003014769,新規,0,2024-07-16,2024-07-16,Ｆ・プレミアムマネジメント合同会社,,合同会社,神奈川県,平塚市,入野２５１番地の１,,14,203,2591216,,,,,,,2024-07-16,1,,,,,エフプレミアムマネジメント,0
92,1030001161424,新規,0,2024-07-16,2024-07-16,株式会社３１４,,株式会社,埼玉県,川口市,大字里９６５番地の３,,11,203,3340005,,,,,,,2024-07-16,1,,,,,サンイチヨン,0
96,1030003024686,新規,0,2024-07-16,2024-07-16,合同会社ハレノート,,合同会社,埼玉県,朝霞市,栄町２丁目６番１３号,,11,227,3510012,,,,,,,2024-07-16,1,,,,,ハレノート,0
101,1040001134503,新規,0,2024-07-16,2024-07-16,株式会社レイムス,,株式会社,千葉県,船橋市,新高根１丁目７番１７号,,12,204,2740814,,,,,,,2024-07-16,1,,,,,レイムス,0
102,1040001134593,新規,0,2024-07-16,2024-07-16,株式会社Ｗｅ　ｒｏａｄ,,株式会社,千葉県,柏市,南増尾４丁目３２番７号,,12,217,2770054,,,,,,,2024-07-16,1,,,,,ウィーロード,0
107,1070001041952,新規,0,2024-07-16,2024-07-16,株式会社タカショウ,,株式会社,群馬県,渋川市,伊香保町伊香保６１－６,,10,208,3770102,,,,,,,2024-07-16,1,,,,,,0
114,1080003003248,新規,0,2024-07-16,2024-07-16,合同会社Ｇｒｅｅｎ,,合同会社,静岡県,静岡市駿河区,下川原２丁目２４番１２号コンシェールカエ２０２,,22,102,4210113,,,,,,,2024-07-16,1,,,,,グリーン,0
116,1080101024889,新規,0,2024-07-16,2024-07-16,株式会社ＴＯＫＥＮ,,株式会社,静岡県,三島市,南町５番２２号,,22,206,4110842,,,,,,,2024-07-16,1,,,,,トーケン,0
122,1110003005455,新規,0,2024-07-16,2024-07-16,ＲＵＦ合同会社,,合同会社,新潟県,新潟市北区,嘉山２丁目２番３３号,,15,101,9503322,,,,,,,2024-07-16,1,,,,,ルフ,0
124,1110005017110,新規,0,2024-07-16,2024-07-16,一般社団法人ＥＯ　Ｈｏｋｕｒｉｋｕ,,その他の設立登記法人,新潟県,新潟市中央区,東大通１丁目７番７号ＩＭＡＩＩＩビル３階,00135589,15,103,9500087,,,,,,,2024-07-16,1,,,,,イーオーホクリク,0
131,1120001266676,新規,0,2024-07-16,2024-07-16,株式会社ＴＴＳ,,株式会社,大阪府,大阪市福島区,玉川３丁目７番１６号,,27,103,5530004,,,,,,,2024-07-16,1,,,,,ティーティーエス,0
132,1120001266718,新規,0,2024-07-16,2024-07-16,ヒトラボエージェント株式会社,,株式会社,大阪府,大阪市福島区,吉野３丁目１４番１３号ギャラージュ野田１号室,,27,103,5530006,,,,,,,2024-07-16,1,,,,,ヒトラボエージェント,0
133,1120001266759,新規,0,2024-07-16,2024-07-16,東順株式会社,,株式会社,大阪府,大阪市西成区,南津守４丁目１－６３第３Ａハイツ１０５号室,,27,122,5570063,,,,,,,2024-07-16,1,,,,,トウジュン,0
134,1120001266791,新規,0,2024-07-16,2024-07-16,株式会社ＶＩＢＬＡ,,株式会社,大阪府,大阪市旭区,大宮４丁目２２番１０号カルム大宮２０３,,27,117,5350002,,,,,,,2024-07-16,1,,,,,ビブラ,0
135,1120001266817,新規,0,2024-07-16,2024-07-16,株式会社ＭＲＳＫ,,株式会社,大阪府,大阪市天王寺区,堂ケ芝２丁目１６番１３－１３０３号,,27,109,5430033,,,,,,,2024-07-16,1,,,,,エムアールエスケー,0
136,1120001266858,新規,0,2024-07-16,2024-07-16,株式会社フライテック,,株式会社,大阪府,大阪市中央区,北久宝寺町４丁目３番８号,,27,128,5410057,,,,,,,2024-07-16,1,,,,,フライテック,0
137,1120001266874,新規,0,2024-07-16,2024-07-16,アイシー株式会社,,株式会社,大阪府,大阪市住吉区,我孫子２丁目７番２４号,,27,120,5580014,,,,,,,2024-07-16,1,,,,,アイシー,0
138,1120003027028,新規,0,2024-07-16,2024-07-16,オンコンパス合同会社,,合同会社,大阪府,大阪市天王寺区,空堀町１１番１０号,,27,109,5430012,,,,,,,2024-07-16,1,,,,,オンコンパス,0
146,1120901049461,新規,0,2024-07-16,2024-07-16,株式会社エース,,株式会社,大阪府,吹田市,岸部中１丁目１６番２２号,,27,205,5640002,,,,,,,2024-07-16,1,,,,,エース,0
155,1140001135160,新規,0,2024-07-16,2024-07-16,株式会社ＪＵＳＴストローク,,株式会社,兵庫県,西宮市,武庫川町１番１号１号館１０階脳神経外科学講座,,28,204,6638131,,,,,,,2024-07-16,1,,,,,ジャストストローク,0
158,1140005027148,新規,0,2024-07-16,2024-07-16,一般社団法人ｔｈｅ　ｓｏｕｒｃｅ　ｏｆ　ｍｉｚｕｂｅ,,その他の設立登記法人,兵庫県,西宮市,南越木岩町１１－２２,,28,204,6620075,,,,,,,2024-07-16,1,,,,,ザソースオブミズベ,0
159,1150003003315,新規,0,2024-07-16,2024-07-16,合同会社ＭＡＨＯＲＡ,,合同会社,奈良県,生駒郡斑鳩町,法隆寺西１丁目７番４１号,,29,344,6360114,,,,,,,2024-07-16,1,,,,,マホラ,0
167,1180001162201,新規,0,2024-07-16,2024-07-16,株式会社ＫＡＭ．ＴＲＡＤＩＮＧ,,株式会社,愛知県,名古屋市港区,藤高１丁目２２３番地,,23,111,4550854,,,,,,,2024-07-16,1,,,,,カムトレーディング,0
168,1180001162325,新規,0,2024-07-16,2024-07-16,豪盈株式会社,,株式会社,愛知県,名古屋市中村区,賑町１０番地の１１,,23,105,4530025,,,,,,,2024-07-16,1,,,,,ゴウエイ,0
169,1180001162333,新規,0,2024-07-16,2024-07-16,株式会社三河屋,,株式会社,愛知県,名古屋市瑞穂区,明前町１３番３３号,,23,108,4670852,,,,,,,2024-07-16,1,,,,,ミカワヤ,0
170,1180001162341,新規,0,2024-07-16,2024-07-16,株式会社ＷＩＳＥ,,株式会社,愛知県,清須市,西市場１丁目６番地２４,,23,233,4520941,,,,,,,2024-07-16,1,,,,,ワイズ,0
174,1180003027063,新規,0,2024-07-16,2024-07-16,合同会社ＤＥＣＯ,,合同会社,愛知県,名古屋市名東区,扇町２丁目１－２ヴィアーレ星ヶ丘の森４０４,,23,115,4650076,,,,,,,2024-07-16,1,,,,,デコ,0
183,1200001042706,新規,0,2024-07-16,2024-07-16,ＫＡＺＭＩ　ＫＯＫＵＳＡＩ株式会社,,株式会社,岐阜県,関市,西本郷通７丁目１２－２エクセル２０３号室,,21,205,5013803,,,,,,,2024-07-16,1,,,,,カズミコクサイ,0
189,1220001026095,新規,0,2024-07-16,2024-07-16,株式会社白山童子,,株式会社,石川県,金沢市,高畠１丁目３５３番地,,17,201,9218001,,,,,,,2024-07-16,1,,,,,ハクサンドウジ,0
192,1240001063517,新規,0,2024-07-16,2024-07-16,株式会社伝導,,株式会社,広島県,広島市西区,東観音町７番１号１Ｆ,,34,104,7330032,,,,,,,2024-07-16,1,,,,,デンドウ,0
193,1240001063525,新規,0,2024-07-16,2024-07-16,株式会社セトウチホールディングス,,株式会社,広島県,竹原市,東野町１５８番地３,,34,203,7250004,,,,,,,2024-07-16,1,,,,,セトウチホールディングス,0
194,1240001063533,新規,0,2024-07-16,2024-07-16,株式会社ゲートステーションあきおおた,,株式会社,広島県,山県郡安芸太田町,大字加計２３９番地１,,34,368,7313501,,,,,,,2024-07-16,1,,,,,ゲートステーションアキオオタ,0
197,1240003006754,新規,0,2024-07-16,2024-07-16,合同会社ミライズ,,合同会社,広島県,広島市中区,平野町２番３１－６０３号,,34,101,7300047,,,,,,,2024-07-16,1,,,,,ミライズ,0
208,1290001106361,新規,0,2024-07-16,2024-07-16,株式会社ソコナラ,,株式会社,福岡県,福岡市中央区,天神２丁目５番２８号天神西通りセンタービル,,40,133,8100001,,,,,,,2024-07-16,1,,,,,ソコナラ,0
209,1290001106493,新規,0,2024-07-16,2024-07-16,株式会社ＤＥＮＫＥＮ,,株式会社,福岡県,福岡市博多区,諸岡２丁目１２番１５号コンフォートビル２Ｆ,,40,132,8120894,,,,,,,2024-07-16,1,,,,,デンケン,0
210,1290003015560,新規,0,2024-07-16,2024-07-16,合同会社ウエストビレッジ,,合同会社,福岡県,飯塚市,幸袋７８１―１０４,,40,205,8200066,,,,,,,2024-07-16,1,,,,,,0
216,1290005019444,新規,0,2024-07-16,2024-07-16,一般社団法人ＨＩＲＯＫＡＷＡ社会福祉士事務所,,その他の設立登記法人,福岡県,八女郡広川町,大字新代１８３４番地２１,,40,544,8340115,,,,,,,2024-07-16,1,,,,,ヒロカワシャカイフクシシジムショ,0
227,1330003010474,新規,0,2024-07-16,2024-07-16,合同会社オクスト,,合同会社,熊本県,熊本市南区,田井島３丁目１０番１８号アクアＣ１０１,,43,104,8620965,,,,,,,2024-07-16,1,,,,,オクスト,0
228,1340001026653,新規,0,2024-07-16,2024-07-16,株式会社アジャスト,,株式会社,鹿児島県,南さつま市,金峰町浦之名１９８８－１,,46,220,8993516,,,,,,,2024-07-16,1,,,,,アジャスト,0
229,1340003004541,新規,0,2024-07-16,2024-07-16,幸野成一建築研究所合同会社,,合同会社,鹿児島県,鹿児島市,小原町４２番２０号,,46,201,8910111,,,,,,,2024-07-16,1,,,,,コウノセイイチケンチクケンキュウジョ,0
233,1360001033937,新規,0,2024-07-16,2024-07-16,株式会社フーズ・リンク,,株式会社,沖縄県,うるま市,字具志川６５２番地,,47,213,9042223,,,,,,,2024-07-16,1,,,,,フーズリンク,0
245,1410003003957,新規,0,2024-07-16,2024-07-16,Ａ　Ｄｅｓｉｇｎ合同会社,,合同会社,秋田県,秋田市,広面字二ツ屋４０－１,,05,201,0100041,,,,,,,2024-07-16,1,,,,,エーデザイン,0
253,1450003002518,新規,0,2024-07-16,2024-07-16,合同会社Ｌｕｃｅ,,合同会社,北海道,富良野市,春日町１１番２５号ツインハイツＡ　２Ｆ,,01,229,0760054,,,,,,,2024-07-16,1,,,,,ルーチェ,0
258,1470005006572,新規,0,2024-07-16,2024-07-16,一般社団法人笠島まち並保存活用会,,その他の設立登記法人,香川県,丸亀市,本島町泊５０６番地１,,37,202,7630223,,,,,,,2024-07-16,1,,,,,カサシママチナミホゾンカツヨウカイ,0
264,1700150126449,新規,0,2024-07-16,2024-07-16,Ｅｌｉｔｅ　Ｌｅｇｅｎｄ　Ｏｕｔｆｉｔｔｅｒｓ　Ｃｏ．，Ｌｔｄ．Ｘｉａｍｅｎ,,外国会社等,,,,,,,,Ｆｕｊｉａｎ，Ｘｉａｍｅｎ，Ｓｉｍｉｎｇ，Ｆｅｎｇｈｕａｎｇｘｉｌｉ　２　Ｈａｏ　３０６　Ｓｈｉ,,,,,,2024-07-16,1,,,,,イーリーオーァジュンホゥワイヨーンピンヨウシエンゴーンスー,0
273,2010001246498,新規,0,2024-07-16,2024-07-16,株式会社ＢＬＵＥ　ＣＡＮＶＡＳ,,株式会社,東京都,中央区,日本橋室町１丁目１１番１２号日本橋水野ビル７階,,13,102,1030022,,,,,,,2024-07-16,1,,,,,ブルーキャンバス,0
274,2010001246531,新規,0,2024-07-16,2024-07-16,株式会社メイキングザロード,,株式会社,東京都,中央区,銀座３丁目３番１４号,,13,102,1040061,,,,,,,2024-07-16,1,,,,,メイキングザロード,0
280,2010003044306,新規,0,2024-07-16,2024-07-16,合同会社Ｍｉｒａｎｏｖａｓ,,合同会社,東京都,中央区,日本橋室町１丁目１１番１２号日本橋水野ビル７階,,13,102,1030022,,,,,,,2024-07-16,1,,,,,ミラノヴァス,0
295,2010403033008,新規,0,2024-07-16,2024-07-16,ＧＶＳＪ１３合同会社,,合同会社,東京都,港区,六本木３丁目１６番２６号,,13,103,1060032,,,,,,,2024-07-16,1,,,,,ジーブイエスジェイサーティーン,0
296,2010403033016,新規,0,2024-07-16,2024-07-16,ＧＶＳＪ２１合同会社,,合同会社,東京都,港区,六本木３丁目１６番２６号,,13,103,1060032,,,,,,,2024-07-16,1,,,,,ジーブイエスジェイトゥエンティワン,0
297,2010403033024,新規,0,2024-07-16,2024-07-16,ＧＶＳＪ２９合同会社,,合同会社,東京都,港区,六本木３丁目１６番２６号,,13,103,1060032,,,,,,,2024-07-16,1,,,,,ジーブイエスジェイトゥエンティナイン,0
299,2010405023378,新規,0,2024-07-16,2024-07-16,一般社団法人トリプルアイズ推進団,,その他の設立登記法人,東京都,港区,芝浦３丁目４番１号グランパークタワー３２階,,13,103,1080023,,,,,,,2024-07-16,1,,,,,トリプルアイズスイシンダン,0
300,2010701046272,新規,0,2024-07-16,2024-07-16,株式会社ＴＯＮＡＲＩＹＡ,,株式会社,東京都,品川区,東五反田５丁目２２番３７号,,13,109,1410022,,,,,,,2024-07-16,1,,,,,トナリヤ,0
302,2010703007256,新規,0,2024-07-16,2024-07-16,合同会社ＩＳＡＩ　ＴＥＣＨ,,合同会社,東京都,品川区,平塚２丁目１０－１０－２０１,,13,109,1420051,,,,,,,2024-07-16,1,,,,,イサイテック,0
309,2011001163254,新規,0,2024-07-16,2024-07-16,株式会社縁ＪＯＹ,,株式会社,東京都,渋谷区,道玄坂１丁目１６－６二葉ビル８ｂ,,13,113,1500043,,,,,,,2024-07-16,1,,,,,エンジョイ,0
312,2011003019529,新規,0,2024-07-16,2024-07-16,合同会社Ｉｎｆｉｎｉｔｙ　Ｅｄｇｅ,,合同会社,東京都,渋谷区,渋谷２丁目１９－１５宮益坂ビルディング６０９,,13,113,1500002,,,,,,,2024-07-16,1,,,,,インフィニティエッジ,0
320,2011101108027,新規,0,2024-07-16,2024-07-16,トラストヴィレッジ株式会社,,株式会社,東京都,新宿区,四谷４丁目２２番地１７グランドゥールオークラ３０３,,13,104,1600004,,,,,,,2024-07-16,1,,,,,トラストヴィレッジ,0
321,2011101108035,新規,0,2024-07-16,2024-07-16,ＨＣＨ株式会社,,株式会社,東京都,新宿区,若松町３３番６号菱和パレス若松町２０２,,13,104,1620056,,,,,,,2024-07-16,1,,,,,エイチシーエイチ,0
322,2011101108043,新規,0,2024-07-16,2024-07-16,Ｌｕｍｉｎｏｕｓ株式会社,,株式会社,東京都,新宿区,西新宿５丁目１０番４号フロンティア１－Ｂ,,13,104,1600023,,,,,,,2024-07-16,1,,,,,ルミナス,0
323,2011101108051,新規,0,2024-07-16,2024-07-16,株式会社ＯＧＴ会計センター,,株式会社,東京都,新宿区,北新宿１丁目３５番３号リュミエールノーヴァ２０１,,13,104,1690074,,,,,,,2024-07-16,1,,,,,オージーティーカイケイセンター,0
324,2011103014677,新規,0,2024-07-16,2024-07-16,合同会社ＲＥＰＬＡＹＳ,,合同会社,東京都,新宿区,新宿７丁目１２番１号新宿平和ビル１階,,13,104,1600022,,,,,,,2024-07-16,1,,,,,リプレイス,0
325,2011105011086,新規,0,2024-07-16,2024-07-16,一般社団法人ＴＵ００３,,その他の設立登記法人,東京都,新宿区,四谷２丁目９番地１５東京ユナイテッド綜合事務所内,,13,104,1600004,,,,,,,2024-07-16,1,,,,,ティーユーゼロゼロスリー,0
326,2011105011094,新規,0,2024-07-16,2024-07-16,一般社団法人日本おもちゃ病院協会,,その他の設立登記法人,東京都,新宿区,愛住町１２番地小澤ビル１－Ａ,,13,104,1600005,,,,,,,2024-07-16,1,,,,,ニホンオモチャビョウインキョウカイ,0
332,2011501030929,新規,0,2024-07-16,2024-07-16,株式会社ＫＯＫＩ,,株式会社,東京都,荒川区,荒川７丁目３４番７エールハイツ町屋７０３号,,13,118,1160002,,,,,,,2024-07-16,1,,,,,コウキ,0
340,2013301052723,新規,0,2024-07-16,2024-07-16,ウェア環境株式会社,,株式会社,東京都,豊島区,巣鴨３丁目３０番６－５０１号,,13,116,1700002,,,,,,,2024-07-16,1,,,,,ウェアカンキョウ,0
341,2013303007221,新規,0,2024-07-16,2024-07-16,Ｂｕｄｄｈａ合同会社,,合同会社,東京都,豊島区,目白４丁目１２番１０号ミハマＩＩ１０１号,00135581,13,116,1710031,,,,,,,2024-07-16,1,,,,,ブッダ,0
343,2020001158057,新規,0,2024-07-16,2024-07-16,株式会社人材教育研究所,,株式会社,神奈川県,横浜市南区,中里４丁目９番１９号,,14,105,2320063,,,,,,,2024-07-16,1,,,,,ジンザイキョウイクケンキュウジョ,0
344,2020001158073,新規,0,2024-07-16,2024-07-16,株式会社ＲＴＴＴ,,株式会社,神奈川県,横浜市港南区,日野２丁目２６－９,,14,111,2340051,,,,,,,2024-07-16,1,,,,,アールトライティー,0
345,2020001158180,新規,0,2024-07-16,2024-07-16,株式会社花海,,株式会社,神奈川県,横浜市南区,大岡４丁目２６番８－１号,,14,105,2320061,,,,,,,2024-07-16,1,,,,,ハナカイ,0
346,2020001158222,新規,0,2024-07-16,2024-07-16,芯辰株式会社,,株式会社,神奈川県,横浜市鶴見区,向井町２丁目６８番３３号,,14,101,2300037,,,,,,,2024-07-16,1,,,,,シンシン,0
358,2030001161357,新規,0,2024-07-16,2024-07-16,株式会社イトープランニング,,株式会社,埼玉県,富士見市,ふじみ野西１丁目２３番地３モリスふじみ野２０４,,11,235,3540035,,,,,,,2024-07-16,1,,,,,イトープランニング,0
359,2030001161365,新規,0,2024-07-16,2024-07-16,ＫＥＮＳＡＫＩ株式会社,,株式会社,埼玉県,さいたま市大宮区,宮町２丁目９３－２Ｃ５１,,11,103,3300802,,,,,,,2024-07-16,1,,,,,ケンサキ,0
360,2030001161423,新規,0,2024-07-16,2024-07-16,株式会社コープロジスティクス東京,,株式会社,埼玉県,和光市,白子３丁目１２番４９号,,11,229,3510101,,,,,,,2024-07-16,1,,,,,コープロジスティクストウキョウ,0
362,2030005021763,新規,0,2024-07-16,2024-07-16,一般社団法人穂の風,,その他の設立登記法人,埼玉県,越谷市,千間台西５丁目５番地８,,11,222,3430041,,,,,,,2024-07-16,1,,,,,ホノカ,0
373,2060003005154,新規,0,2024-07-16,2024-07-16,合同会社Ｌｉｆｅ　Ｇａｍｅｓ,,合同会社,栃木県,宇都宮市,清原台４丁目２６番２５号,,09,201,3213223,,,,,,,2024-07-16,1,,,,,ライフゲームズ,0
376,2080001026381,新規,0,2024-07-16,2024-07-16,株式会社Ｇｏｌｄ　Ｃｏｌｌａｒ,,株式会社,静岡県,静岡市駿河区,富士見台１丁目１１番６号コーポ鈴木２０２号,,22,102,4228026,,,,,,,2024-07-16,1,,,,,ゴールドカラー,0
380,2080101024888,新規,0,2024-07-16,2024-07-16,シムワークス株式会社,,株式会社,静岡県,富士市,水戸島本町１０番２５号ダイアパレスステーションサイド富士６０３号,,22,210,4160924,,,,,,,2024-07-16,1,,,,,シムワークス,0
381,2090001018808,新規,0,2024-07-16,2024-07-16,加賀見桃農園株式会社,,株式会社,山梨県,山梨市,三ヶ所１３０３番地１,,19,205,4050011,,,,,,,2024-07-16,1,,,,,カガミモモノウエン,0
393,2120001266774,新規,0,2024-07-16,2024-07-16,株式会社リヒター,,株式会社,大阪府,大阪市中央区,東心斎橋１丁目９番１９－３０７号,,27,128,5420083,,,,,,,2024-07-16,1,,,,,リヒター,0
394,2120001266782,新規,0,2024-07-16,2024-07-16,東の秀株式会社,,株式会社,大阪府,大阪市淀川区,宮原１丁目１８番１１－８０５号,,27,123,5320003,,,,,,,2024-07-16,1,,,,,ヒガシノシュウ,0
395,2120001266808,新規,0,2024-07-16,2024-07-16,株式会社安井企画,,株式会社,大阪府,大阪市中央区,島之内１丁目１５番２５－９０３号,,27,128,5420082,,,,,,,2024-07-16,1,,,,,ヤスイキカク,0
396,2120001266849,新規,0,2024-07-16,2024-07-16,株式会社Ａｈｏｍｅ総合サービス,,株式会社,大阪府,大阪市旭区,清水１丁目１７番１７号２Ｆ,,27,117,5350021,,,,,,,2024-07-16,1,,,,,エーホームソウゴウサービス,0
400,2120003027027,新規,0,2024-07-16,2024-07-16,合同会社ＦＵＲＵＴＡ,,合同会社,大阪府,大阪市東成区,東小橋３丁目６番９－３０１号,,27,115,5370024,,,,,,,2024-07-16,1,,,,,フルタ,0
406,2120103005948,新規,0,2024-07-16,2024-07-16,合同会社ＫＳＧ,,合同会社,大阪府,堺市西区,太平寺１６９番地４,,27,144,5938314,,,,,,,2024-07-16,1,,,,,ケーエスジー,0
418,2130003009692,新規,0,2024-07-16,2024-07-16,合同会社ＩＮＦＩＬ,,合同会社,京都府,京都市下京区,大黒町２２７番地第２キョートビル４０２,,26,106,6008043,,,,,,,2024-07-16,1,,,,,インフィル,0
427,2180001162258,新規,0,2024-07-16,2024-07-16,ＡＤＡＭＳコンサルティング株式会社,,株式会社,愛知県,名古屋市中村区,名駅３丁目２８番１２号大名古屋ビルヂング１１階,,23,105,4500002,,,,,,,2024-07-16,1,,,,,アダムスコンサルティング,0
428,2180001162290,新規,0,2024-07-16,2024-07-16,株式会社マローネ,,株式会社,愛知県,名古屋市千種区,今池１丁目１１番１号－１,,23,101,4640850,,,,,,,2024-07-16,1,,,,,マローネ,0
429,2180001162316,新規,0,2024-07-16,2024-07-16,株式会社ミライノカタチ本部,,株式会社,愛知県,名古屋市名東区,一社３丁目１０８番地,,23,115,4650093,,,,,,,2024-07-16,1,,,,,ミライノカタチホンブ,0
430,2180001162324,新規,0,2024-07-16,2024-07-16,株式会社ＮＹサポート,,株式会社,愛知県,あま市,新居屋高島５６シャトー甚目寺５０３,,23,237,4901105,,,,,,,2024-07-16,1,,,,,エヌワイサポート,0
431,2180001162332,新規,0,2024-07-16,2024-07-16,兜アセットマネジメント株式会社,,株式会社,愛知県,名古屋市北区,大曽根３丁目１０番７号,,23,103,4620825,,,,,,,2024-07-16,1,,,,,カブトアセットマネジメント,0
437,2180003027038,新規,0,2024-07-16,2024-07-16,合同会社迅維,,合同会社,愛知県,名古屋市東区,東桜２丁目３－７東カン名古屋キャステール３５２,,23,102,4610005,,,,,,,2024-07-16,1,,,,,ジンイ,0
438,2180003027087,新規,0,2024-07-16,2024-07-16,合同会社２４,,合同会社,愛知県,清須市,一場１２５２番地ファミールガーデン２０３,,23,233,4520931,,,,,,,2024-07-16,1,,,,,トゥエンティーフォー,0
439,2180301038835,新規,0,2024-07-16,2024-07-16,株式会社ＥＮＳＨＯＷ,,株式会社,愛知県,豊田市,東梅坪町１０丁目５番地８,,23,211,4710071,,,,,,,2024-07-16,1,,,,,エンショウ,0
441,2200001042696,新規,0,2024-07-16,2024-07-16,日本電通株式会社,,株式会社,岐阜県,安八郡安八町,牧１７４７‐３番地,,21,383,5030125,,,,,,,2024-07-16,1,,,,,ニホンデンツウ,0
442,2200001042705,新規,0,2024-07-16,2024-07-16,株式会社マツダ装飾,,株式会社,岐阜県,揖斐郡池田町,萩原６７８番地の２,,21,404,5032416,,,,,,,2024-07-16,1,,,,,マツダソウショク,0
443,2210001019826,新規,0,2024-07-16,2024-07-16,株式会社Ｍａｒｉｅｌｅ,,株式会社,福井県,福井市,松本１丁目７番１０号,,18,201,9100003,,,,,,,2024-07-16,1,,,,,マリエール,0
445,2220001026094,新規,0,2024-07-16,2024-07-16,ポテンシル株式会社,,株式会社,石川県,金沢市,光が丘３丁目２２番地,,17,201,9218142,,,,,,,2024-07-16,1,,,,,ポテンシル,0
459,2290001106526,新規,0,2024-07-16,2024-07-16,三栄ホールディングス株式会社,,株式会社,福岡県,福岡市博多区,博多駅南２丁目９番１１号,,40,132,8120016,,,,,,,2024-07-16,1,,,,,サンエイホールディングス,0
473,2350001019085,新規,0,2024-07-16,2024-07-16,ながともふぁーむ株式会社,,株式会社,宮崎県,宮崎市,大字加江田４５０９番地,,45,201,8892161,,,,,,,2024-07-16,1,,,,,ナガトモファーム,0
477,2360001033936,新規,0,2024-07-16,2024-07-16,株式会社Ｏｎｅ　Ｓｈｏｔ,,株式会社,沖縄県,島尻郡南風原町,字本部８０番地,,47,350,9011112,,,,,,,2024-07-16,1,,,,,ワンショット,0
478,2360003014133,新規,0,2024-07-16,2024-07-16,ｆｒｅｅｓｉａ合同会社,,合同会社,沖縄県,宜野湾市,愛知３丁目８番地１５－２０１号ＨＱＤＭＨｅｒｏ,,47,205,9012206,,,,,,,2024-07-16,1,,,,,フリージア,0
479,2360003014158,新規,0,2024-07-16,2024-07-16,ｌｉｅｎｓ合同会社,,合同会社,沖縄県,石垣市,浜崎町２丁目６番地８シティーコート丸栄１０２,,47,207,9070013,,,,,,,2024-07-16,1,,,,,リアン,0
482,2360005007069,新規,0,2024-07-16,2024-07-16,一般社団法人プランギア,,その他の設立登記法人,沖縄県,宜野湾市,長田１丁目１３番９号,,47,205,9012212,,,,,,,2024-07-16,1,,,,,プランギア,0
489,2370001051516,新規,0,2024-07-16,2024-07-16,株式会社損害鑑定,,株式会社,宮城県,仙台市若林区,六丁の目中町１６番３３号,,04,103,9840012,,,,,,,2024-07-16,1,,,,,ソンガイカンテイ,0
497,2400005008426,新規,0,2024-07-16,2024-07-16,特定非営利活動法人ＹＯＵＴＨ　ＳＤＧｓ　ＳＩＰ,,その他の設立登記法人,岩手県,奥州市,水沢羽田町字芦ヶ沢１８３番地３,,03,215,0230132,,,,,,,2024-07-16,1,,,,,ユースエスディジーズシップ,0
501,2430001092264,新規,0,2024-07-16,2024-07-16,きたケンコー株式会社,,株式会社,北海道,恵庭市,京町７８番地１,,01,231,0611444,,,,,,,2024-07-16,1,,,,,キタケンコー,0
502,2460001005925,新規,0,2024-07-16,2024-07-16,株式会社レイズ,,株式会社,北海道,釧路郡釧路町,木場１丁目１０番地７,,01,661,0880622,,,,,,,2024-07-16,1,,,,,レイズ,0
506,2470001020295,新規,0,2024-07-16,2024-07-16,株式会社東功エンジニアリング,,株式会社,香川県,観音寺市,柞田町乙２４８番地１,,37,205,7680040,,,,,,,2024-07-16,1,,,,,トウコウエンジニアリング,0
514,2700150126448,新規,0,2024-07-16,2024-07-16,ＣＬＯＵＤＳＷＡＹ　ＰＴＥ．ＬＴＤ,,外国会社等,,,,,,,,１１１　ＳＯＭＥＲＳＥＴ　ＲＯＡＤ　＃０５－２１　１１１　ＳＯＭＥＲＳＥＴ　ＳＩＮＧＡＰＯＲＥ,,,,,,2024-07-16,1,,,,,クラウドスウェーピーティーイーエルティーディー,0
520,3010001246274,新規,0,2024-07-16,2024-07-16,株式会社南方ホールディングス,,株式会社,東京都,千代田区,五番町６番地２ホーマットホライゾンビル７階,,13,101,1020076,,,,,,,2024-07-16,1,,,,,ミナミガタホールディングス,0
521,3010001246522,新規,0,2024-07-16,2024-07-16,株式会社Ｓｕｐｅｒ　Ｓｐｅｅｄ,,株式会社,東京都,中央区,銀座１丁目１２番４号Ｎ＆ＥＢＬＤ．６Ｆ,,13,102,1040061,,,,,,,2024-07-16,1,,,,,スーパースピード,0
522,3010001246588,新規,0,2024-07-16,2024-07-16,株式会社ａｒｉｓ,,株式会社,東京都,千代田区,九段南２丁目３番２７号,,13,101,1020074,,,,,,,2024-07-16,1,,,,,アリス,0
524,3010003044263,新規,0,2024-07-16,2024-07-16,バイオペレット合同会社,,合同会社,東京都,千代田区,飯田橋１丁目３番２号,,13,101,1020072,,,,,,,2024-07-16,1,,,,,バイオペレット,0
527,3010401183794,新規,0,2024-07-16,2024-07-16,株式会社Ｓａｎｄ６１,,株式会社,東京都,港区,六本木１丁目６番１号,,13,103,1060032,,,,,,,2024-07-16,1,,,,,サンドロクイチ,0
528,3010401183828,新規,0,2024-07-16,2024-07-16,株式会社イーチキャリア,,株式会社,東京都,港区,赤坂１丁目３番５号赤坂アビタシオンビル３階３０６号室,,13,103,1070052,,,,,,,2024-07-16,1,,,,,イーチキャリア,0
529,3010401183836,新規,0,2024-07-16,2024-07-16,ソルター・ブラザーズ・アセット・マネジメント・ジャパン株式会社,,株式会社,東京都,港区,港南４丁目６番４号,,13,103,1080075,,,,,,,2024-07-16,1,,,,,ソルターブラザーズアセットマネジメントジャパン,0
532,3010403033007,新規,0,2024-07-16,2024-07-16,ＧＶＳＪ１２合同会社,,合同会社,東京都,港区,六本木３丁目１６番２６号,,13,103,1060032,,,,,,,2024-07-16,1,,,,,ジーブイエスジェイトゥエルヴ,0
533,3010403033015,新規,0,2024-07-16,2024-07-16,ＧＶＳＪ２０合同会社,,合同会社,東京都,港区,六本木３丁目１６番２６号,,13,103,1060032,,,,,,,2024-07-16,1,,,,,ジーブイエスジェイトゥエンティ,0
534,3010403033023,新規,0,2024-07-16,2024-07-16,ＧＶＳＪ２８合同会社,,合同会社,東京都,港区,六本木３丁目１６番２６号,,13,103,1060032,,,,,,,2024-07-16,1,,,,,ジーブイエスジェイトゥエンティエイト,0
541,3010705003649,新規,0,2024-07-16,2024-07-16,一般社団法人ｈａｐｐｙ　ｃｈｉｌｄｒｅｎ,,その他の設立登記法人,東京都,品川区,上大崎２丁目２３番７号ホテルプリンセスガーデン,,13,109,1410021,,,,,,,2024-07-16,1,,,,,ハッピーチルドレン,0
556,3011005010583,新規,0,2024-07-16,2024-07-16,一般社団法人Ｏｐｅｎ　Ａｒｔ　Ｌａｂ,,その他の設立登記法人,東京都,渋谷区,東１丁目２５－２丸橋ビル４階,,13,113,1500011,,,,,,,2024-07-16,1,,,,,オープンアートラボ,0
559,3011101108034,新規,0,2024-07-16,2024-07-16,Ｆｉｖｅｓ　ＪＰＲＥ株式会社,,株式会社,東京都,新宿区,北新宿１丁目２２番７号４０１号室,,13,104,1690074,,,,,,,2024-07-16,1,,,,,ファイブズジェイピーアールイー,0
560,3011101108042,新規,0,2024-07-16,2024-07-16,株式会社ＬＥＫＫＥＲ,,株式会社,東京都,新宿区,西新宿３丁目３番１３号西新宿水間ビル６階,,13,104,1600023,,,,,,,2024-07-16,1,,,,,ラッカー,0
562,3011103014676,新規,0,2024-07-16,2024-07-16,合同会社大山会計事務所,,合同会社,東京都,新宿区,新宿３丁目４番８号,,13,104,1600022,,,,,,,2024-07-16,1,,,,,オオヤマカイケイジムショ,0
564,3011105011093,新規,0,2024-07-16,2024-07-16,一般社団法人社会的養育地域支援ネットワーク,,その他の設立登記法人,東京都,新宿区,新宿５丁目１番１号ローヤルマンションビル４０４号,,13,104,1600022,,,,,,,2024-07-16,1,,,,,シャカイテキヨウイクチイキシエンネットワーク,0
565,3011201025633,新規,0,2024-07-16,2024-07-16,株式会社Ｍ　Ｈｏｕｓｉｎｇ,,株式会社,東京都,中野区,中央４丁目６番１２号新中野マンション６１６,,13,114,1640011,,,,,,,2024-07-16,1,,,,,エムハウジング,0
567,3011401026258,新規,0,2024-07-16,2024-07-16,Ｔｓｌ株式会社,,株式会社,東京都,板橋区,幸町１番１０号ライオンズマンション大山幸町３０３号室,,13,119,1730034,,,,,,,2024-07-16,1,,,,,ティーエスエル,0
568,3011403004443,新規,0,2024-07-16,2024-07-16,合同会社オリオン,,合同会社,東京都,板橋区,高島平９丁目１０番１号,,13,119,1750082,,,,,,,2024-07-16,1,,,,,オリオン,0
574,3012703003036,新規,0,2024-07-16,2024-07-16,合同会社ブックハウス・エイチディ,,合同会社,東京都,東村山市,野口町３丁目３４番地２５号,,13,213,1890022,,,,,,,2024-07-16,1,,,,,ブックハウスエイチディ,0
575,3013301052821,新規,0,2024-07-16,2024-07-16,株式会社ＨＩＳＲＯＵＴＥ,,株式会社,東京都,豊島区,南池袋１丁目１１番１９－１２０２号,,13,116,1710022,,,,,,,2024-07-16,1,,,,,ヒヅルート,0
580,3020001158072,新規,0,2024-07-16,2024-07-16,株式会社やさいーと,,株式会社,神奈川県,横浜市鶴見区,上の宮１丁目３６番８号,,14,101,2300075,,,,,,,2024-07-16,1,,,,,ヤサイート,0
581,3020001158097,新規,0,2024-07-16,2024-07-16,株式会社バタース,,株式会社,神奈川県,川崎市川崎区,宮本町３－９,,14,131,2100004,,,,,,,2024-07-16,1,,,,,バタース,0
582,3020001158246,新規,0,2024-07-16,2024-07-16,ＪＴＯコンサルティング株式会社,,株式会社,神奈川県,横浜市西区,北幸２丁目１０番４８号むつみビル３階,,14,103,2200004,,,,,,,2024-07-16,1,,,,,ジェーティオーコンサルティング,0
583,3020001158262,新規,0,2024-07-16,2024-07-16,株式会社小林ハートケア,,株式会社,神奈川県,横浜市磯子区,森６丁目１８‐４‐４２２号,,14,107,2350023,,,,,,,2024-07-16,1,,,,,コバヤシハートケア,0
584,3020001158270,新規,0,2024-07-16,2024-07-16,株式会社ＧＲＥＥＮＴＩＧＥＲ,,株式会社,神奈川県,横浜市港北区,小机町４４８番地,,14,109,2220036,,,,,,,2024-07-16,1,,,,,グリーンタイガー,0
597,3021001082725,新規,0,2024-07-16,2024-07-16,株式会社スローモ,,株式会社,神奈川県,中郡大磯町,高麗３丁目１０－６,,14,341,2550001,,,,,,,2024-07-16,1,,,,,スローモ,0
598,3021001082741,新規,0,2024-07-16,2024-07-16,正盛国際株式会社,,株式会社,神奈川県,鎌倉市,台１５１５番地５,,14,204,2470061,,,,,,,2024-07-16,1,,,,,マサモリコクサイ,0
599,3030001161422,新規,0,2024-07-16,2024-07-16,株式会社シミズ,,株式会社,埼玉県,春日部市,南２丁目５番２０－１号,,11,214,3440064,,,,,,,2024-07-16,1,,,,,シミズ,0
600,3030001161447,新規,0,2024-07-16,2024-07-16,株式会社徳永建築設計,,株式会社,埼玉県,さいたま市北区,日進町１丁目７５番地７,,11,102,3310823,,,,,,,2024-07-16,1,,,,,トクナガケンチクセッケイ,0
601,3030001161455,新規,0,2024-07-16,2024-07-16,株式会社ＮＥＸＴ,,株式会社,埼玉県,さいたま市浦和区,元町２丁目１７番１４号,,11,107,3300073,,,,,,,2024-07-16,1,,,,,ネクスト,0
605,3030003024701,新規,0,2024-07-16,2024-07-16,合同会社アン・ソレイユ,,合同会社,埼玉県,白岡市,西１丁目１番６,,11,246,3490205,,,,,,,2024-07-16,1,,,,,アンソレイユ,0
608,3040001134492,新規,0,2024-07-16,2024-07-16,株式会社ｉ‐ＴＯＷＮ,,株式会社,千葉県,鎌ケ谷市,北初富５番５号,,12,224,2730126,,,,,,,2024-07-16,1,,,,,アイタウン,0
609,3040001134542,新規,0,2024-07-16,2024-07-16,株式会社Ｒｉｎｇ,,株式会社,千葉県,東金市,東岩崎６－１篠原ビル４階,,12,213,2830068,,,,,,,2024-07-16,1,,,,,リング,0
610,3040001134567,新規,0,2024-07-16,2024-07-16,ＡＪ　ＴＲＡＤＩＮＧ株式会社,,株式会社,千葉県,四街道市,みそら２丁目３１番４号,,12,228,2840023,,,,,,,2024-07-16,1,,,,,エイジェイトレーディング,0
613,3040003025392,新規,0,2024-07-16,2024-07-16,合同会社ＮＵ,,合同会社,千葉県,柏市,中央２丁目４番１９号,,12,217,2770023,,,,,,,2024-07-16,1,,,,,エヌユー,0
617,3060001037297,新規,0,2024-07-16,2024-07-16,株式会社ＭＩＮＡＴＯ,,株式会社,栃木県,栃木市,大平町西野田２０１１番地１７,,09,203,3294421,,,,,,,2024-07-16,1,,,,,ミナト,0
619,3070001041950,新規,0,2024-07-16,2024-07-16,株式会社ライトワーク,,株式会社,群馬県,利根郡みなかみ町,大字湯宿温泉小字湯川原５９８番地１,,10,449,3791300,,,,,,,2024-07-16,1,,,,,ライトワーク,0
620,3070001041959,新規,0,2024-07-16,2024-07-16,株式会社友栄組,,株式会社,群馬県,藤岡市,藤岡１４２７番地１,,10,209,3750024,,,,,,,2024-07-16,1,,,,,トモエグミ,0
622,3080101024887,新規,0,2024-07-16,2024-07-16,株式会社スペース１７８,,株式会社,静岡県,賀茂郡河津町,湯ケ野５８番地,,22,302,4130507,,,,,,,2024-07-16,1,,,,,スペースイナバ,0
623,3080103003096,新規,0,2024-07-16,2024-07-16,合同会社ＳＨＩＮＯＲＩ,,合同会社,静岡県,駿東郡清水町,徳倉１７０２番地の３,,22,341,4110917,,,,,,,2024-07-16,1,,,,,シノリ,0
652,3120001266740,新規,0,2024-07-16,2024-07-16,株式会社エスポワール,,株式会社,大阪府,大阪市北区,豊崎２丁目９番１３－１２０１号,,27,127,5310072,,,,,,,2024-07-16,1,,,,,エスポワール,0
653,3120001266765,新規,0,2024-07-16,2024-07-16,株式会社ａｃｏｒｎ,,株式会社,大阪府,大阪市北区,樋之口町２番１３号ジオナ天神橋４０４,,27,127,5300032,,,,,,,2024-07-16,1,,,,,エイコーン,0
654,3120001266781,新規,0,2024-07-16,2024-07-16,逆流工房株式会社,,株式会社,大阪府,大阪市東淀川区,小松１丁目１０番１８号３階Ｂ－８号室,,27,114,5330004,,,,,,,2024-07-16,1,,,,,ギャクリュウコウボウ,0
655,3120001266798,新規,0,2024-07-16,2024-07-16,瑞久株式会社,,株式会社,大阪府,大阪市生野区,新今里３丁目４番１７号ＯＧビル３０４Ｂ,,27,116,5440001,,,,,,,2024-07-16,1,,,,,スイキュウ,0
656,3120001266856,新規,0,2024-07-16,2024-07-16,株式会社アイリスフォーム,,株式会社,大阪府,門真市,御堂町１９番９－６号,,27,223,5710064,,,,,,,2024-07-16,1,,,,,アイリスフォーム,0
657,3120003027034,新規,0,2024-07-16,2024-07-16,合同会社Ｌａｔｅ　ｆｌｏｗｅｒ,,合同会社,大阪府,大阪市都島区,片町１丁目８番１７号Ａｌｌｉｅｒ大阪城北４０３号,,27,102,5340025,,,,,,,2024-07-16,1,,,,,レイトフラワー,0
666,3122001038269,新規,0,2024-07-16,2024-07-16,株式会社岩本建装,,株式会社,大阪府,柏原市,片山町１３番３号,,27,221,5820020,,,,,,,2024-07-16,1,,,,,イワモトケンソウ,0
668,3130001077443,新規,0,2024-07-16,2024-07-16,株式会社三浦企画,,株式会社,京都府,京都市中京区,御池通東洞院東入笹屋町４３６永和御池ビル６０６号,,26,104,6048187,,,,,,,2024-07-16,1,,,,,ミウラキカク,0
676,3140003020821,新規,0,2024-07-16,2024-07-16,合同会社えど企画,,合同会社,兵庫県,神戸市東灘区,住吉山手７丁目１０－２,,28,101,6580063,,,,,,,2024-07-16,1,,,,,エドキカク,0
679,3140005027146,新規,0,2024-07-16,2024-07-16,一般社団法人日本金石漢方生物技術研究所,,その他の設立登記法人,兵庫県,神戸市兵庫区,島上町２丁目１－３０,,28,105,6520833,,,,,,,2024-07-16,1,,,,,ニホンカネイシカンポウセイブツギジュツケンキュウジョ,0
680,3140005027154,新規,0,2024-07-16,2024-07-16,一般社団法人若王寺農会土地管理会,,その他の設立登記法人,兵庫県,尼崎市,若王寺２丁目１４番２号若王寺福祉会館,,28,202,6610974,,,,,,,2024-07-16,1,,,,,ナコウジノウカイトチカンリカイ,0
681,3160001026075,新規,0,2024-07-16,2024-07-16,株式会社Ｋ　ｐａｉｎｔ,,株式会社,滋賀県,米原市,上野１１０８番地,,25,214,5210312,,,,,,,2024-07-16,1,,,,,ケイペイント,0
685,3180001162216,新規,0,2024-07-16,2024-07-16,昊泓株式会社,,株式会社,愛知県,北名古屋市,片場八瀬の木１９番４０１号室,,23,234,4810002,,,,,,,2024-07-16,1,,,,,ウコ,0
686,3180001162323,新規,0,2024-07-16,2024-07-16,株式会社アイ・ビー・シー,,株式会社,愛知県,北名古屋市,熊之庄堤下１６６番地,,23,234,4810006,,,,,,,2024-07-16,1,,,,,アイビーシー,0
687,3180001162331,新規,0,2024-07-16,2024-07-16,株式会社ＮＡプログレイス不動産,,株式会社,愛知県,名古屋市中区,錦３丁目１５番１５号,,23,106,4600003,,,,,,,2024-07-16,1,,,,,エヌエープログレイスフドウサン,0
691,3180003027086,新規,0,2024-07-16,2024-07-16,合同会社サモテク,,合同会社,愛知県,名古屋市中区,丸の内２丁目１６番８号名古屋プレミアム医療モール丸の内２階,,23,106,4600002,,,,,,,2024-07-16,1,,,,,サモテク,0
692,3180003027094,新規,0,2024-07-16,2024-07-16,合同会社ホワイトスペース,,合同会社,愛知県,名古屋市中区,錦３丁目８‐１９ライフ錦ビル４０２,,23,106,4600003,,,,,,,2024-07-16,1,,,,,ホワイトスペース,0
699,3200001042704,新規,0,2024-07-16,2024-07-16,株式会社３９,,株式会社,岐阜県,大垣市,林町６丁目８０番地１２０,,21,202,5030015,,,,,,,2024-07-16,1,,,,,サンキュー,0
700,3200001042712,新規,0,2024-07-16,2024-07-16,株式会社はじミート,,株式会社,岐阜県,美濃加茂市,山手町３丁目１０８番地,,21,211,5050036,,,,,,,2024-07-16,1,,,,,ハジミート,0
707,3240001063523,新規,0,2024-07-16,2024-07-16,株式会社ＰｏｉｎｔＳｙｎｃ,,株式会社,広島県,竹原市,東野町１５８番地３,,34,203,7250004,,,,,,,2024-07-16,1,,,,,ポイントシンク,0
709,3260001039265,新規,0,2024-07-16,2024-07-16,株式会社Ｓ・３,,株式会社,岡山県,総社市,駅前２丁目１２番１２号,,33,208,7191136,,,,,,,2024-07-16,1,,,,,エストレ,0
715,3290001106368,新規,0,2024-07-16,2024-07-16,シンプルツーバイフォー株式会社,,株式会社,福岡県,久留米市,御井旗崎３丁目１１番１号,,40,203,8390841,,,,,,,2024-07-16,1,,,,,シンプルツーバイフォー,0
716,3290001106376,新規,0,2024-07-16,2024-07-16,株式会社ＯＮＥ,,株式会社,福岡県,福岡市東区,青葉６丁目４４番１１号,,40,131,8130025,,,,,,,2024-07-16,1,,,,,ワン,0
717,3290001106384,新規,0,2024-07-16,2024-07-16,シルクエンタープライズ株式会社,,株式会社,福岡県,久留米市,花畑３丁目１９番地３,,40,203,8300039,,,,,,,2024-07-16,1,,,,,シルクエンタープライズ,0
725,3310001019113,新規,0,2024-07-16,2024-07-16,株式会社ＬＵＭＩＮＯＵＳ,,株式会社,長崎県,長崎市,清水町１１－１,,42,201,8528041,,,,,,,2024-07-16,1,,,,,ルミナス,0
726,3330001032254,新規,0,2024-07-16,2024-07-16,アレスカＧＰ株式会社,,株式会社,熊本県,熊本市中央区,新屋敷１丁目１４番３５号,,43,101,8620975,,,,,,,2024-07-16,1,,,,,アレスカジーピー,0
731,3350001019084,新規,0,2024-07-16,2024-07-16,ラエリア株式会社,,株式会社,宮崎県,都城市,上川東４丁目５９７５番地１,,45,202,8850012,,,,,,,2024-07-16,1,,,,,ラエリア,0
733,3360001033935,新規,0,2024-07-16,2024-07-16,株式会社ＯＮＥＬＩＧＨＴ与那原,,株式会社,沖縄県,那覇市,おもろまち１丁目１番２５号リュークスタワー西棟２００４,,47,201,9000006,,,,,,,2024-07-16,1,,,,,ワンライトヨナバル,0
737,3370001051507,新規,0,2024-07-16,2024-07-16,株式会社ＩＳＨＩＮＯ,,株式会社,宮城県,岩沼市,桜２丁目１番１２号２Ｆ,,04,211,9892433,,,,,,,2024-07-16,1,,,,,イシノ,0
748,3400001016729,新規,0,2024-07-16,2024-07-16,株式会社長野商店,,株式会社,岩手県,奥州市,水沢佐倉河字五反町９２番地１、２階,,03,215,0230003,,,,,,,2024-07-16,1,,,,,ナガノショウテン,0
749,3400002017577,新規,0,2024-07-16,2024-07-16,葛巻運送有限会社,,有限会社,岩手県,岩手郡葛巻町,葛巻第１５地割１番地の１,,03,302,0285402,,,,,,,2024-07-16,1,,,,,クズマキウンソウ,0
763,3490001010814,新規,0,2024-07-16,2024-07-16,株式会社ｈｕｍｍｉｎｇｂｉｒｄ,,株式会社,高知県,安芸市,本町５丁目１１番２号,,39,203,7840004,,,,,,,2024-07-16,1,,,,,,0
764,3490003001910,新規,0,2024-07-16,2024-07-16,合同会社ＬＢＥ,,合同会社,高知県,高知市,南久保１５番３８号,,39,201,7810087,,,,,,,2024-07-16,1,,,,,,0
769,3700150126447,新規,0,2024-07-16,2024-07-16,小値賀土地改良区,,その他,長崎県,北松浦郡小値賀町,笛吹郷２３８５番地２,,42,383,8574701,,,,,,,2024-07-16,1,,,,,オヂカトチカイリヨウク,0
770,3700150126455,新規,0,2024-07-16,2024-07-16,ＬＧＣ　Ｊａｐａｎ　Ｌｉｍｉｔｅｄ,,外国会社等,神奈川県,横浜市中区,住吉町２丁目２２番地松栄関内ビル２階,,14,104,2310013,英国ミドルセックス、テディントン、クイーンズ・ロード、エルジーシー,,,,,,2024-07-16,1,,,,,エルジーシージヤパンリミテツド,0
777,4010001246579,新規,0,2024-07-16,2024-07-16,株式会社ＣｒｏｗＡＩ,,株式会社,東京都,文京区,本郷６丁目２５番１４号,,13,105,1130033,,,,,,,2024-07-16,1,,,,,クロウエーアイ,0
783,4010401183447,新規,0,2024-07-16,2024-07-16,ＵｎｔｒｏＤ株式会社,,株式会社,東京都,港区,虎ノ門２丁目２番１号,,13,103,1050001,,,,,,,2024-07-16,1,,,,,アントロッド,0
784,4010401183769,新規,0,2024-07-16,2024-07-16,ＢＪ　ＰＡＲＴＮＥＲＳ株式会社,,株式会社,東京都,港区,赤坂４丁目１３番８－５１０号,,13,103,1070052,,,,,,,2024-07-16,1,,,,,ビージェイパートナーズ,0
785,4010401183827,新規,0,2024-07-16,2024-07-16,株式会社クロスデザイン,,株式会社,東京都,港区,北青山１丁目３－１アールキューブ青山３Ｆ,,13,103,1070061,,,,,,,2024-07-16,1,,,,,クロスデザイン,0
786,4010401183835,新規,0,2024-07-16,2024-07-16,ＤＲＥＡＭ　ＣＡＭＰ株式会社,,株式会社,東京都,港区,元赤坂１丁目２番７号赤坂Ｋタワー４階,,13,103,1070051,,,,,,,2024-07-16,1,,,,,ドリームキャンプ,0
787,4010401183843,新規,0,2024-07-16,2024-07-16,株式会社空を翔ける,,株式会社,東京都,港区,六本木７丁目７番７号Ｔｒｉ－ＳｅｖｅｎＲｏｐｐｏｎｇｉ８Ｆ,,13,103,1060032,,,,,,,2024-07-16,1,,,,,ソラヲカケル,0
788,4010403033006,新規,0,2024-07-16,2024-07-16,ＧＶＳＪ１１合同会社,,合同会社,東京都,港区,六本木３丁目１６番２６号,,13,103,1060032,,,,,,,2024-07-16,1,,,,,ジーブイエスジェイイレブン,0
789,4010403033014,新規,0,2024-07-16,2024-07-16,ＧＶＳＪ１９合同会社,,合同会社,東京都,港区,六本木３丁目１６番２６号,,13,103,1060032,,,,,,,2024-07-16,1,,,,,ジーブイエスジェイナインティーン,0
790,4010403033022,新規,0,2024-07-16,2024-07-16,ＧＶＳＪ２７合同会社,,合同会社,東京都,港区,六本木３丁目１６番２６号,,13,103,1060032,,,,,,,2024-07-16,1,,,,,ジーブイエスジェイトゥエンティセブン,0
806,4011001163293,新規,0,2024-07-16,2024-07-16,株式会社原宿自動車,,株式会社,東京都,渋谷区,神宮前４丁目２２番７号,,13,113,1500001,,,,,,,2024-07-16,1,,,,,ハラジュクジドウシャ,0
807,4011001163302,新規,0,2024-07-16,2024-07-16,ｙｏｕｒ　ｉｄ株式会社,,株式会社,東京都,渋谷区,千駄ヶ谷３丁目５１番１０号,,13,113,1510051,,,,,,,2024-07-16,1,,,,,ユアアイデイー,0
808,4011001163384,新規,0,2024-07-16,2024-07-16,Ｇ‐Ｎｅｘａ　Ｓｏｌｕｔｉｏｎｓ株式会社,,株式会社,東京都,渋谷区,渋谷２丁目１９－１５宮益坂ビルディング６０９,,13,113,1500002,,,,,,,2024-07-16,1,,,,,ジーネクサソリューションズ,0
811,4011005010582,新規,0,2024-07-16,2024-07-16,一般社団法人心安会,,その他の設立登記法人,東京都,目黒区,大岡山１丁目７番８号,,13,110,1520033,,,,,,,2024-07-16,1,,,,,ウラヤスカイ,0
813,4011101108000,新規,0,2024-07-16,2024-07-16,株式会社ふくろうプロダクション,,株式会社,東京都,新宿区,新宿２丁目１６番地９号新宿五城ビル７階,,13,104,1600022,,,,,,,2024-07-16,1,,,,,フクロウプロダクション,0
814,4011101108009,新規,0,2024-07-16,2024-07-16,株式会社カラー堂,,株式会社,東京都,新宿区,上落合１丁目１６番１３号１Ｆ,,13,104,1610034,,,,,,,2024-07-16,1,,,,,カラードウ,0
815,4011101108025,新規,0,2024-07-16,2024-07-16,株式会社ＵＴＡＩＴＥ,,株式会社,東京都,新宿区,西新宿２丁目６番１号新宿住友ビル１８階グロース新宿,,13,104,1600023,,,,,,,2024-07-16,1,,,,,ウタイテ,0
816,4011103014675,新規,0,2024-07-16,2024-07-16,Ｓａｋｕｒａ　Ｓｅｒｖｉｃｅｓ合同会社,,合同会社,東京都,新宿区,西新宿３丁目３番１３号西新宿水間ビル６階,,13,104,1600023,,,,,,,2024-07-16,1,,,,,サクラサービス,0
818,4011201025632,新規,0,2024-07-16,2024-07-16,株式会社ハナコ,,株式会社,東京都,中野区,本町４丁目４８番１７号新中野駅上プラザ９０２,,13,114,1640012,,,,,,,2024-07-16,1,,,,,ハナコ,0
825,4012401042095,新規,0,2024-07-16,2024-07-16,株式会社Ｃｈａｉｎｏｎ,,株式会社,東京都,府中市,若松町４丁目２番地の８サァラ府中２０９号室,,13,206,1830005,,,,,,,2024-07-16,1,,,,,シェノン,0
827,4013101009467,新規,0,2024-07-16,2024-07-16,株式会社わたぼうし,,株式会社,東京都,西多摩郡檜原村,５２３‐５,,13,307,1900200,,,,,,,2024-07-16,1,,,,,,0
830,4013301052820,新規,0,2024-07-16,2024-07-16,くろふね株式会社,,株式会社,東京都,豊島区,池袋２丁目３６番１号,,13,116,1710014,,,,,,,2024-07-16,1,,,,,クロフネ,0
833,4020001158088,新規,0,2024-07-16,2024-07-16,株式会社ＮＡＳＡ,,株式会社,神奈川県,川崎市高津区,蟹ケ谷３番地５,,14,134,2130025,,,,,,,2024-07-16,1,,,,,ナサ,0
834,4020001158113,新規,0,2024-07-16,2024-07-16,株式会社ｐｏｉｎｔ　ｏｎｅ,,株式会社,神奈川県,横浜市南区,大岡３丁目１２番６号,,14,105,2320061,,,,,,,2024-07-16,1,,,,,ポイントワン,0
837,4020003026474,新規,0,2024-07-16,2024-07-16,合同会社３４５ｆＡｍ,,合同会社,神奈川県,川崎市高津区,久地４丁目２２番３号ウィング８・２０１,,14,134,2130032,,,,,,,2024-07-16,1,,,,,ミジンコファミリー,0
838,4020003026482,新規,0,2024-07-16,2024-07-16,合同会社藤原酒谷設計事務所,,合同会社,神奈川県,横浜市金沢区,釜利谷東１丁目２４－８,,14,108,2360042,,,,,,,2024-07-16,1,,,,,フジワラサカタニセッケイジムショ,0
839,4020003026540,新規,0,2024-07-16,2024-07-16,合同会社メゾンハル,,合同会社,神奈川県,横浜市港北区,大曽根台１番１１号,,14,109,2220004,,,,,,,2024-07-16,1,,,,,メゾンハル,0
842,4021001082732,新規,0,2024-07-16,2024-07-16,株式会社クレセント・ベイ,,株式会社,神奈川県,小田原市,板橋７３０番地８,,14,206,2500034,,,,,,,2024-07-16,1,,,,,クレセントベイ,0
843,4021001082740,新規,0,2024-07-16,2024-07-16,アート企畫スタジオ株式会社,,株式会社,神奈川県,横須賀市,馬堀町１丁目１７番１２号,,14,201,2390802,,,,,,,2024-07-16,1,,,,,アートキカクスタジオ,0
848,4021003014758,新規,0,2024-07-16,2024-07-16,合同会社ロガー,,合同会社,神奈川県,三浦郡葉山町,堀内１７７９番地の２,,14,301,2400112,,,,,,,2024-07-16,1,,,,,ロガー,0
849,4021003014774,新規,0,2024-07-16,2024-07-16,ｂｅ‐ｏｎｅ合同会社,,合同会社,神奈川県,藤沢市,善行坂２丁目１番５８,,14,205,2510876,,,,,,,2024-07-16,1,,,,,ビーワン,0
852,4030001161421,新規,0,2024-07-16,2024-07-16,株式会社伊部工務店,,株式会社,埼玉県,川口市,南鳩ヶ谷７丁目１０番１８号イイジマハイツ３０３号,,11,203,3340013,,,,,,,2024-07-16,1,,,,,イベコウムテン,0
853,4030001161446,新規,0,2024-07-16,2024-07-16,Ｃｅｎｔｕｒｙ　Ｌｉｎｋ株式会社,,株式会社,埼玉県,川口市,南町２丁目２番４号,,11,203,3320026,,,,,,,2024-07-16,1,,,,,センチュリーリンク,0
854,4030001161454,新規,0,2024-07-16,2024-07-16,株式会社ウインスタート,,株式会社,埼玉県,草加市,高砂２丁目１８－３２－９０２,,11,221,3400015,,,,,,,2024-07-16,1,,,,,ウインスタート,0
863,4040001134095,新規,0,2024-07-16,2024-07-16,株式会社ラクアイ,,株式会社,千葉県,松戸市,松戸１０９７番地の１リラヴェールレジデンス１０４号,,12,207,2710092,,,,,,,2024-07-16,1,,,,,ラクアイ,0
864,4040001134541,新規,0,2024-07-16,2024-07-16,株式会社経営デザイン研究所,,株式会社,千葉県,千葉市美浜区,打瀬２丁目１－２公園西の街１－５０２,,12,106,2610013,,,,,,,2024-07-16,1,,,,,ケイエイデザインケンキュウショ,0
865,4040001134574,新規,0,2024-07-16,2024-07-16,株式会社ＳＵＭＨＯＭＥ,,株式会社,千葉県,鎌ケ谷市,道野辺本町１丁目２番３３号サン・イースト３０２,,12,224,2730137,,,,,,,2024-07-16,1,,,,,サムホーム,0
868,4040005022445,新規,0,2024-07-16,2024-07-16,一般社団法人未来キャリアデザイン,,その他の設立登記法人,千葉県,市川市,南八幡２丁目２１－２、６０６,,12,203,2720023,,,,,,,2024-07-16,1,,,,,ミライキャリアデザイン,0
880,4080101024886,新規,0,2024-07-16,2024-07-16,株式会社喜和,,株式会社,静岡県,伊東市,鎌田５５６番地の１,,22,208,4140054,,,,,,,2024-07-16,1,,,,,キワ,0
882,4090003002601,新規,0,2024-07-16,2024-07-16,合同会社フリープラネッツ,,合同会社,山梨県,南都留郡山中湖村,平野３７７７番地の３エーブル山中湖６１２号,,19,425,4010502,,,,,,,2024-07-16,1,,,,,フリープラネッツ,0
889,4100003007656,新規,0,2024-07-16,2024-07-16,合同会社まんまる,,合同会社,長野県,松本市,蟻ケ崎４丁目４―１１,,20,202,3900861,,,,,,,2024-07-16,1,,,,,マンマル,0
899,4120001266780,新規,0,2024-07-16,2024-07-16,逆流茶会株式会社,,株式会社,大阪府,大阪市東淀川区,小松１丁目１０番１８号４階Ｃ－７号室,,27,114,5330004,,,,,,,2024-07-16,1,,,,,ギャクリュウチャカイ,0
900,4120001266789,新規,0,2024-07-16,2024-07-16,生元株式会社,,株式会社,大阪府,大阪市中央区,千日前１丁目５番１３号１階,,27,128,5420074,,,,,,,2024-07-16,1,,,,,ショウゲン,0
901,4120001266839,新規,0,2024-07-16,2024-07-16,株式会社トータルサポート,,株式会社,大阪府,大阪市東住吉区,駒川１丁目１８番２６号奏住庵１０２号室,,27,121,5460043,,,,,,,2024-07-16,1,,,,,トータルサポート,0
902,4120001266847,新規,0,2024-07-16,2024-07-16,株式会社黒白黒,,株式会社,大阪府,大阪市中央区,鎗屋町２丁目２－９ＲＥ－ＬＡＢ大阪中央ビル２階,,27,128,5400027,,,,,,,2024-07-16,1,,,,,オセロ,0
906,4120003027025,新規,0,2024-07-16,2024-07-16,合同会社ゴーウェル,,合同会社,大阪府,大阪市鶴見区,今津南２丁目４番３８－１１１０号,,27,124,5380043,,,,,,,2024-07-16,1,,,,,ゴーウェル,0
915,4130001077450,新規,0,2024-07-16,2024-07-16,株式会社エリス,,株式会社,京都府,京都市北区,西賀茂水垣町８１－２０１,,26,101,6038827,,,,,,,2024-07-16,1,,,,,エリス,0
923,4140005027153,新規,0,2024-07-16,2024-07-16,一般社団法人日本ゼロカーボン・ウェルフェア協議会,,その他の設立登記法人,兵庫県,赤穂市,加里屋９８番地１６,,28,212,6780239,,,,,,,2024-07-16,1,,,,,ニホンゼロカーボンウェルフェアキョウギカイ,0
933,4180001162165,新規,0,2024-07-16,2024-07-16,株式会社１ＷＤ,,株式会社,愛知県,江南市,今市場町美和１３３,,23,217,4838188,,,,,,,2024-07-16,1,,,,,ワンダブリューディー,0
934,4180001162330,新規,0,2024-07-16,2024-07-16,Ｔｏｔａｌ　Ｉｎｔｅｒｉｏｒ　Ｋ’ｓ株式会社,,株式会社,愛知県,春日井市,朝宮町１丁目３０番地１０,,23,206,4860846,,,,,,,2024-07-16,1,,,,,トータルインテリアケイズ,0
935,4180003027085,新規,0,2024-07-16,2024-07-16,合同会社ＮＩＮＥ,,合同会社,愛知県,丹羽郡扶桑町,大字高雄字柳前１３４番地１,,23,362,4800102,,,,,,,2024-07-16,1,,,,,ナイン,0
936,4180301038833,新規,0,2024-07-16,2024-07-16,ローカルミリング株式会社,,株式会社,愛知県,安城市,篠目町古林畔９８－１,,23,212,4460073,,,,,,,2024-07-16,1,,,,,ローカルミリング,0
937,4180303006177,新規,0,2024-07-16,2024-07-16,合同会社優杜,,合同会社,愛知県,額田郡幸田町,大字永野字小割８６番地,,23,501,4440121,,,,,,,2024-07-16,1,,,,,ユウト,0
945,4220003003791,新規,0,2024-07-16,2024-07-16,合同会社アラジ,,合同会社,石川県,金沢市,旭町２丁目１９番４１号（アイビーシーズン・１０８号）,,17,201,9200941,,,,,,,2024-07-16,1,,,,,アラジ,0
947,4230003002248,新規,0,2024-07-16,2024-07-16,合同会社テクノ,,合同会社,富山県,高岡市,二塚１２４８番地,,16,202,9330816,,,,,,,2024-07-16,1,,,,,テクノ,0
961,4290801030700,新規,0,2024-07-16,2024-07-16,株式会社ＬＩＭ,,株式会社,福岡県,北九州市八幡西区,陣原３丁目２４番１１号,,40,109,8070821,,,,,,,2024-07-16,1,,,,,リム,0
962,4290803004776,新規,0,2024-07-16,2024-07-16,合同会社ブルズホーン,,合同会社,福岡県,北九州市八幡西区,熊手３丁目１番４－５０１,,40,109,8060028,,,,,,,2024-07-16,1,,,,,ブルズホーン,0
965,4320003004409,新規,0,2024-07-16,2024-07-16,合同会社ＡＸＩＯ,,合同会社,大分県,大分市,横塚１丁目９番３８号リジエール森Ｃ,,44,201,8700254,,,,,,,2024-07-16,1,,,,,アクシオ,0
966,4330001032237,新規,0,2024-07-16,2024-07-16,株式会社Ｓ‐ｃａｌｃｕ　ｂｕｓｉｎｅｓｓ,,株式会社,熊本県,熊本市中央区,神水本町１８９番３,,43,101,8620955,,,,,,,2024-07-16,1,,,,,エスカルクビジネス,0
977,4360003014156,新規,0,2024-07-16,2024-07-16,合同会社成上建設工業,,合同会社,沖縄県,うるま市,字平良川２９７番地３,,47,213,9042221,,,,,,,2024-07-16,1,,,,,セイジョウケンセツコウギョウ,0
990,4430001092254,新規,0,2024-07-16,2024-07-16,株式会社ワイズリアルティ,,株式会社,北海道,札幌市中央区,南四条西１８丁目１番１０－２０２号,,01,101,0640804,,,,,,,2024-07-16,1,,,,,ワイズリアルティ,0
992,4430005015021,新規,0,2024-07-16,2024-07-16,農事組合法人森農園,,その他の設立登記法人,北海道,札幌市白石区,北郷五条３丁目２－３４ローザンハイツ１０２,,01,104,0030835,,,,,,,2024-07-16,1,,,,,モリノウエン,0
1009,4500001025751,新規,0,2024-07-16,2024-07-16,株式会社Ｍｙｃ,,株式会社,愛媛県,新居浜市,吉岡町４番４号,,38,205,7920843,,,,,,,2024-07-16,1,,,,,エムワイシー,0
1012,4700150126454,新規,0,2024-07-16,2024-07-16,ＮＩＳＡ　ＡＵＴＯ　ＬＡＮＫＡ,,外国会社等,茨城県,日立市,金沢町４丁目６０番地オフィス３,,08,202,3160015,スリランカ民主社会主義共和国、ウクウェラ、マナンボダ、Ｎｏ．５３,,,,,,2024-07-16,1,,,,,ニサオートランカ,0
1024,5010001246479,新規,0,2024-07-16,2024-07-16,株式会社ライトハウス,,株式会社,東京都,中央区,銀座１丁目１２－４Ｎ＆ＥＢＬＤ．７階,,13,102,1040061,,,,,,,2024-07-16,1,,,,,ライトハウス,0
1025,5010001246561,新規,0,2024-07-16,2024-07-16,ＳＧｃｒｅａｔｅ株式会社,,株式会社,東京都,中央区,銀座１丁目１２－４Ｎ＆ＥＢＬＤ．７階,,13,102,1040061,,,,,,,2024-07-16,1,,,,,エスジークリエイト,0
1026,5010003044245,新規,0,2024-07-16,2024-07-16,合同会社ＭＣＣ,,合同会社,東京都,中央区,銀座１丁目１２番４号Ｎ＆Ｅ・ＢＬＤ．６Ｆ,,13,102,1040061,,,,,,,2024-07-16,1,,,,,エムシーシー,0
1027,5010003044303,新規,0,2024-07-16,2024-07-16,カタヤマアサヒ合同会社,,合同会社,東京都,千代田区,神田和泉町１番地６－１６ヤマトビル４０５,,13,101,1010024,,,,,,,2024-07-16,1,,,,,カタヤマアサヒ,0
1028,5010005038518,新規,0,2024-07-16,2024-07-16,一般社団法人花屋敷ホールディング,,その他の設立登記法人,東京都,千代田区,丸の内３丁目１番１号東京共同会計事務所内,,13,101,1000005,,,,,,,2024-07-16,1,,,,,ハナヤシキホールディング,0
1029,5010105002274,新規,0,2024-07-16,2024-07-16,一般社団法人ダディの遊び場,,その他の設立登記法人,東京都,八王子市,台町１丁目２４－２４,,13,201,1930931,,,,,,,2024-07-16,1,,,,,ダディノアソビバ,0
1038,5010401183529,新規,0,2024-07-16,2024-07-16,株式会社マルベリー,,株式会社,東京都,港区,芝５丁目２９番３－３０１号,,13,103,1080014,,,,,,,2024-07-16,1,,,,,マルベリー,0
1039,5010401183743,新規,0,2024-07-16,2024-07-16,株式会社エイジングケアマネジメント,,株式会社,東京都,港区,南青山２丁目２番１５号,,13,103,1070062,,,,,,,2024-07-16,1,,,,,エイジングケアマネジメント,0
1040,5010401183818,新規,0,2024-07-16,2024-07-16,株式会社インテグレート,,株式会社,東京都,港区,六本木７丁目１５番１７号ユニ六本木９階,,13,103,1060032,,,,,,,2024-07-16,1,,,,,インテグレート,0
1048,5010403033013,新規,0,2024-07-16,2024-07-16,ＧＶＳＪ１８合同会社,,合同会社,東京都,港区,六本木３丁目１６番２６号,,13,103,1060032,,,,,,,2024-07-16,1,,,,,ジーブイエスジェイエイティーン,0
1049,5010403033021,新規,0,2024-07-16,2024-07-16,ＧＶＳＪ２６合同会社,,合同会社,東京都,港区,六本木３丁目１６番２６号,,13,103,1060032,,,,,,,2024-07-16,1,,,,,ジーブイエスジェイトゥエンティシックス,0
1058,5010701046278,新規,0,2024-07-16,2024-07-16,株式会社シェルム,,株式会社,東京都,品川区,東五反田４丁目２番１３号,,13,109,1410022,,,,,,,2024-07-16,1,,,,,シェルム,0
1062,5010903009198,新規,0,2024-07-16,2024-07-16,ＭＡＴＳＵ合同会社,,合同会社,東京都,世田谷区,玉川４丁目３番１０－４０４号,,13,112,1580094,,,,,,,2024-07-16,1,,,,,マツ,0
1072,5011003019591,新規,0,2024-07-16,2024-07-16,合同会社Ｔｏｂｉｒａｔｏｒｙ　Ｊａｐａｎ,,合同会社,東京都,目黒区,中目黒３丁目６番２号中目黒Ｆ・Ｓビル５階,,13,110,1530061,,,,,,,2024-07-16,1,,,,,トビラトリージャパン,0
1077,5011101107926,新規,0,2024-07-16,2024-07-16,株式会社ＦＵＫＡＲＩ,,株式会社,東京都,新宿区,下落合４丁目６番１７号フィリップ下落合,,13,104,1610033,,,,,,,2024-07-16,1,,,,,フカリ,0
1078,5011101108049,新規,0,2024-07-16,2024-07-16,株式会社有田貴美江事務所,,株式会社,東京都,新宿区,新宿７丁目２６番１１－１５０４号,,13,104,1600022,,,,,,,2024-07-16,1,,,,,アリタキミエジムショ,0
1080,5011103014682,新規,0,2024-07-16,2024-07-16,Ｄ合同会社,,合同会社,東京都,新宿区,歌舞伎町２丁目１９番１２－２０４号,,13,104,1600021,,,,,,,2024-07-16,1,,,,,ディー,0
1086,5011501030918,新規,0,2024-07-16,2024-07-16,株式会社ＳＡＩ,,株式会社,東京都,荒川区,南千住４丁目９番７号,,13,118,1160003,,,,,,,2024-07-16,1,,,,,エスエーアイ,0
1087,5011501030926,新規,0,2024-07-16,2024-07-16,株式会社雅ビル管理,,株式会社,東京都,北区,浮間４丁目１２番１８－１０５号,,13,117,1150051,,,,,,,2024-07-16,1,,,,,ミヤビビルカンリ,0
1092,5011801044535,新規,0,2024-07-16,2024-07-16,株式会社翔飛,,株式会社,東京都,葛飾区,新小岩４丁目２１番４号,,13,122,1240024,,,,,,,2024-07-16,1,,,,,ショウト,0
1097,5011803006343,新規,0,2024-07-16,2024-07-16,合同会社シルシャ,,合同会社,東京都,葛飾区,堀切２丁目１８番４号,,13,122,1240006,,,,,,,2024-07-16,1,,,,,シルシャ,0
1098,5012401042094,新規,0,2024-07-16,2024-07-16,グリムスタジオ株式会社,,株式会社,東京都,武蔵野市,境南町２丁目１９番１１号ベルデュール武蔵野２０３,,13,203,1800023,,,,,,,2024-07-16,1,,,,,グリムスタジオ,0
1101,5013101009466,新規,0,2024-07-16,2024-07-16,坂本電設株式会社,,株式会社,東京都,福生市,加美平３丁目１２番地１４,,13,218,1970012,,,,,,,2024-07-16,1,,,,,,0
1107,5020001158087,新規,0,2024-07-16,2024-07-16,株式会社ハチロー,,株式会社,神奈川県,横浜市旭区,本村町５７番地５９,,14,112,2410024,,,,,,,2024-07-16,1,,,,,ハチロー,0
1108,5020001158104,新規,0,2024-07-16,2024-07-16,Ｌａｒｇｏ株式会社,,株式会社,神奈川県,横浜市神奈川区,金港町５番地１４クアドリフォリオ８階,,14,102,2210056,,,,,,,2024-07-16,1,,,,,ラルゴ,0
1109,5020001158112,新規,0,2024-07-16,2024-07-16,株式会社ＳＴ　ｈｏｍｅ　ｗｏｒｋｓ,,株式会社,神奈川県,横浜市都筑区,川和町６１番地５７,,14,118,2240057,,,,,,,2024-07-16,1,,,,,エスティーホームワークス,0
1110,5020001158260,新規,0,2024-07-16,2024-07-16,Ｍａｖｅｒｉｃｋ　Ｒｅｓｉｄｅｎｔｉａｌ　Ｃｏｎｓｕｌｔａｎｔｓ株式会社,,株式会社,神奈川県,横浜市西区,みなとみらい４丁目４番２号横浜ブルーアベニュー１２階,,14,103,2200012,,,,,,,2024-07-16,1,,,,,マーヴェリックレジデンシャルコンサルタンツ,0
1122,5030001161395,新規,0,2024-07-16,2024-07-16,株式会社樹,,株式会社,埼玉県,さいたま市緑区,大字寺山１０１３番地３,,11,109,3360976,,,,,,,2024-07-16,1,,,,,イツキ,0
1123,5030001161404,新規,0,2024-07-16,2024-07-16,株式会社ｉｌｌ　Ｐｌａｎｅｔ　Ｆａｃｔｏｒｙ,,株式会社,埼玉県,加須市,道目５１８番地１,,11,210,3491157,,,,,,,2024-07-16,1,,,,,イルプラネットファクトリー,0
1124,5030001161437,新規,0,2024-07-16,2024-07-16,ＫＬＥＡＧＩＥＮＥ可力浄株式会社,,株式会社,埼玉県,春日部市,南３丁目３番地１２,,11,214,3440064,,,,,,,2024-07-16,1,,,,,クレアギネカリキジョウ,0
1125,5030001161453,新規,0,2024-07-16,2024-07-16,株式会社中村工務店,,株式会社,埼玉県,さいたま市大宮区,宮町２丁目９３－２,,11,103,3300802,,,,,,,2024-07-16,1,,,,,ナカムラコウムテン,0
1126,5030003024716,新規,0,2024-07-16,2024-07-16,合同会社ワイズ,,合同会社,埼玉県,さいたま市桜区,桜田２丁目８－８さいたま市桜田自治会館１階Ａ,,11,106,3380833,,,,,,,2024-07-16,1,,,,,ワイズ,0
1131,5040001134508,新規,0,2024-07-16,2024-07-16,株式会社エル・エス・ピー,,株式会社,千葉県,佐倉市,鏑木町２丁目７番地１２,,12,212,2850025,,,,,,,2024-07-16,1,,,,,エルエスピー,0
1134,5040003025416,新規,0,2024-07-16,2024-07-16,合同会社ＦＲＡＧＤＥ,,合同会社,千葉県,印旛郡栄町,安食３４５６―２スタンツィオーネＡＪＩＫＩ３０２,,12,329,2701516,,,,,,,2024-07-16,1,,,,,フレグディ,0
1144,5060001037304,新規,0,2024-07-16,2024-07-16,坂本荷役株式会社,,株式会社,栃木県,足利市,福富町１８３５番地１,,09,202,3260331,,,,,,,2024-07-16,1,,,,,サカモトニヤク,0
1153,5070001041949,新規,0,2024-07-16,2024-07-16,株式会社ＢＡＢＡ　ＢＡＺＡＡＲ,,株式会社,群馬県,館林市,日向町１４３０番地,,10,207,3740076,,,,,,,2024-07-16,1,,,,,バババザール,0
1162,5110003005451,新規,0,2024-07-16,2024-07-16,合同会社Ｆ＆Ｉ,,合同会社,新潟県,魚沼市,小平尾４７８番地１,,15,225,9460101,,,,,,,2024-07-16,1,,,,,エフアンドアイ,0
1180,5120001266730,新規,0,2024-07-16,2024-07-16,株式会社成松企画,,株式会社,大阪府,大阪市西区,靱本町１丁目１０番７－１３１１号,,27,106,5500004,,,,,,,2024-07-16,1,,,,,ナリマツキカク,0
1181,5120001266739,新規,0,2024-07-16,2024-07-16,株式会社ユウワビエル,,株式会社,大阪府,大阪市城東区,鴫野東２丁目５番２２号,,27,118,5360013,,,,,,,2024-07-16,1,,,,,ユウワビエル,0
1182,5120001266805,新規,0,2024-07-16,2024-07-16,英和株式会社,,株式会社,大阪府,大阪市旭区,赤川１丁目５番１３号天理マンション３０１,,27,117,5350005,,,,,,,2024-07-16,1,,,,,エイワ,0
1183,5120001266846,新規,0,2024-07-16,2024-07-16,株式会社ＭＫホールディングス,,株式会社,大阪府,大阪市都島区,御幸町２丁目１０番１１号,,27,102,5340012,,,,,,,2024-07-16,1,,,,,エムケイホールディングス,0
1185,5120003027032,新規,0,2024-07-16,2024-07-16,合同会社オクコーポレーション,,合同会社,大阪府,大阪市北区,梅田２丁目５番１３号桜橋第１ビル３０４号,,27,127,5300001,,,,,,,2024-07-16,1,,,,,オクコーポレーション,0
1186,5120005024424,新規,0,2024-07-16,2024-07-16,一般社団法人丸光管財人団,,その他の設立登記法人,大阪府,大阪市中央区,北久宝寺町２丁目５番５号,,27,128,5410057,,,,,,,2024-07-16,1,,,,,マルミツカンザイニンダン,0
1191,5120901049458,新規,0,2024-07-16,2024-07-16,株式会社Ｌｉｂｅｒｔｙ　Ｐｒｏｍｏｔｉｏｎ,,株式会社,大阪府,豊中市,東豊中町３丁目３１番３１号,,27,203,5600003,,,,,,,2024-07-16,1,,,,,リバティプロモーション,0
1195,5122005003762,新規,0,2024-07-16,2024-07-16,一般社団法人介護総合支援センター,,その他の設立登記法人,大阪府,東大阪市,菱江１丁目２７番１号,,27,227,5780984,,,,,,,2024-07-16,1,,,,,カイゴソウゴウシエンセンター,0
1197,5130001077441,新規,0,2024-07-16,2024-07-16,宸宏株式会社,,株式会社,京都府,京都市左京区,田中樋ノ口町５番地３０１,,26,103,6068222,,,,,,,2024-07-16,1,,,,,シンコウ,0
1207,5140005027144,新規,0,2024-07-16,2024-07-16,特定非営利活動法人日本救命防災普及協会,,その他の設立登記法人,兵庫県,尼崎市,塚口町４丁目１２番地の１５ベルフルール耕土３０３号,,28,202,6610002,,,,,,,2024-07-16,1,,,,,ニホンキュウメイボウサイフキュウキョウカイ,0
1217,5180001162296,新規,0,2024-07-16,2024-07-16,ロマックスホテルマネジメント株式会社,,株式会社,愛知県,犬山市,大字犬山字東余坂３５番地,,23,215,4840081,,,,,,,2024-07-16,1,,,,,ロマックスホテルマネジメント,0
1222,5180301038832,新規,0,2024-07-16,2024-07-16,株式会社トヨカワ薬局,,株式会社,愛知県,豊川市,豊川町伊呂通３１番地第２,,23,207,4420033,,,,,,,2024-07-16,1,,,,,トヨカワヤッキョク,0
1224,5190001031491,新規,0,2024-07-16,2024-07-16,ｔｋ．ｆｏｒｅｓｔ株式会社,,株式会社,三重県,松阪市,石津町３３番地１７,,24,204,5150006,,,,,,,2024-07-16,1,,,,,ティーケーフォレスト,0
1231,5240001063513,新規,0,2024-07-16,2024-07-16,株式会社ＴＡＫＵＳＨＯＵ,,株式会社,広島県,呉市,川尻町東１丁目１３番２５号,,34,202,7372607,,,,,,,2024-07-16,1,,,,,タクショウ,0
1233,5260001039255,新規,0,2024-07-16,2024-07-16,株式会社セブンスヘブン,,株式会社,岡山県,津山市,沼３４５番地５１,,33,203,7080824,,,,,,,2024-07-16,1,,,,,セブンスヘブン,0
1234,5270003001641,新規,0,2024-07-16,2024-07-16,合同会社糸白見ミライズ,,合同会社,鳥取県,八頭郡若桜町,大字糸白見１３７番地,,31,325,6800743,,,,,,,2024-07-16,1,,,,,イトシロミミライズ,0
1240,5290001106366,新規,0,2024-07-16,2024-07-16,株式会社Ｗｉｎ‐Ｂｒｉｇｈｔ,,株式会社,福岡県,久留米市,梅満町２８３番地１ブライトリー１０５号,,40,203,8300048,,,,,,,2024-07-16,1,,,,,ウィンブライト,0
1241,5290001106498,新規,0,2024-07-16,2024-07-16,株式会社ＮＹＣ,,株式会社,福岡県,福岡市中央区,西中洲１０番３号,,40,133,8100002,,,,,,,2024-07-16,1,,,,,エヌワイシー,0
1242,5290801030699,新規,0,2024-07-16,2024-07-16,株式会社アールエム,,株式会社,福岡県,遠賀郡遠賀町,大字別府４０２８番地の２アルカディアＩＶ２０１号,00135576,40,384,8114331,,,,,,,2024-07-16,1,,,,,アールエム,0
1247,5300003002149,新規,0,2024-07-16,2024-07-16,合同会社ライデンキャピタル,,合同会社,佐賀県,唐津市,坊主町５２０番地１２,,41,202,8470056,,,,,,,2024-07-16,1,,,,,ライデンキャピタル,0
1250,5320003004424,新規,0,2024-07-16,2024-07-16,合同会社リトルスター,,合同会社,大分県,大分市,大字三芳字庄原１２３７番地,,44,201,8700030,,,,,,,2024-07-16,1,,,,,リトルスター,0
1256,5350003004702,新規,0,2024-07-16,2024-07-16,合同会社エテルノ,,合同会社,宮崎県,延岡市,中川原町３丁目６６,,45,203,8820031,,,,,,,2024-07-16,1,,,,,エテルノ,0
1258,5360001033941,新規,0,2024-07-16,2024-07-16,株式会社サーク,,株式会社,沖縄県,沖縄市,東２丁目２３番１号,,47,211,9042154,,,,,,,2024-07-16,1,,,,,サーク,0
1260,5370001051513,新規,0,2024-07-16,2024-07-16,株式会社ＳＨＭ,,株式会社,宮城県,仙台市泉区,南光台５丁目２０番９号,,04,105,9818003,,,,,,,2024-07-16,1,,,,,エスエイチエム,0
1261,5370005010812,新規,0,2024-07-16,2024-07-16,一般社団法人メーデルキッズ保育園,,その他の設立登記法人,宮城県,多賀城市,東田中２丁目４０－３２－２０４,,04,209,9850863,,,,,,,2024-07-16,1,,,,,メーデルキッズホイクエン,0
1265,5390005009076,新規,0,2024-07-16,2024-07-16,一般社団法人ナースリハネット,,その他の設立登記法人,山形県,山形市,馬見ケ崎３丁目２１番１１号,,06,201,9900810,,,,,,,2024-07-16,1,,,,,ナースリハネット,0
1269,5430001092261,新規,0,2024-07-16,2024-07-16,株式会社リーオ・ブランコ,,株式会社,北海道,日高郡新ひだか町,静内中野町４丁目２番地,,01,610,0560006,,,,,,,2024-07-16,1,,,,,リーオブランコ,0
1271,5430005015020,新規,0,2024-07-16,2024-07-16,農事組合法人森サポート,,その他の設立登記法人,北海道,札幌市白石区,北郷五条３丁目２－３４ローザンハイツ１０２,,01,104,0030835,,,,,,,2024-07-16,1,,,,,モリサポート,0
1275,5450001014362,新規,0,2024-07-16,2024-07-16,Ｕ‐ＬＩＶＥ株式会社,,株式会社,北海道,空知郡中富良野町,字中富良野基線北８号,,01,461,0710704,,,,,,,2024-07-16,1,,,,,ユーライブ,0
1281,5490003001909,新規,0,2024-07-16,2024-07-16,合同会社ＹｕＲｉＫａｎ,,合同会社,高知県,香南市,野市町本村１３３１番地１,,39,211,7815201,,,,,,,2024-07-16,1,,,,,ユリカン,0
1285,5700150126453,新規,0,2024-07-16,2024-07-16,ＳＡＨＡＮ　ＡＵＴＯ,,外国会社等,茨城県,日立市,金沢町４丁目６０番地オフィス４,,08,202,3160015,スリランカ民主社会主義共和国、アンバテンナ、キャンディロード、Ｎｏ．１０１,,,,,,2024-07-16,1,,,,,サハンオート,0
1298,6010001246552,新規,0,2024-07-16,2024-07-16,ＴＩＧＥＲ　ＧＡＴＥ　ＣＡＰＩＴＡＬ株式会社,,株式会社,東京都,中央区,日本橋浜町２丁目１０番７－８０２号,,13,102,1030007,,,,,,,2024-07-16,1,,,,,タイガーゲートキャピタル,0
1299,6010001246560,新規,0,2024-07-16,2024-07-16,ゼンコウジャパン株式会社,,株式会社,東京都,中央区,日本橋人形町２丁目１５番３号人形町藤和ビル７階,,13,102,1030013,,,,,,,2024-07-16,1,,,,,ゼンコウジャパン,0
1300,6010003044302,新規,0,2024-07-16,2024-07-16,合同会社ｔｏｍ　ｓｙｓｔｅｍｓ,,合同会社,東京都,中央区,銀座１丁目１２番４号Ｎ＆ＥＢＬＤ．６Ｆ,,13,102,1040061,,,,,,,2024-07-16,1,,,,,トムシステムズ,0
1306,6010403033004,新規,0,2024-07-16,2024-07-16,Ｎｅｘｔ　Ｍａｒｋｅｔｉｎｇ合同会社,,合同会社,東京都,港区,南青山３丁目１番３６号青山丸竹ビル６Ｆ,,13,103,1070062,,,,,,,2024-07-16,1,,,,,ネクストマーケティング,0
1307,6010403033012,新規,0,2024-07-16,2024-07-16,ＧＶＳＪ１７合同会社,,合同会社,東京都,港区,六本木３丁目１６番２６号,,13,103,1060032,,,,,,,2024-07-16,1,,,,,ジーブイエスジェイセブンティーン,0
1308,6010403033020,新規,0,2024-07-16,2024-07-16,ＧＶＳＪ２５合同会社,,合同会社,東京都,港区,六本木３丁目１６番２６号,,13,103,1060032,,,,,,,2024-07-16,1,,,,,ジーブイエスジェイトゥエンティファイブ,0
1309,6010403033045,新規,0,2024-07-16,2024-07-16,ＣＢＴＫ合同会社,,合同会社,東京都,港区,六本木４丁目８番１－１１０２号,,13,103,1060032,,,,,,,2024-07-16,1,,,,,シービーティーケー,0
1313,6010501052566,新規,0,2024-07-16,2024-07-16,ＣＳＩインターフュージョンジャパン株式会社,,株式会社,東京都,台東区,台東２丁目２７番３号ＮＳＫビル１０Ｆ,,13,106,1100016,,,,,,,2024-07-16,1,,,,,シーエスアイインターフュージョンジャパン,0
1333,6011103014673,新規,0,2024-07-16,2024-07-16,合同会社Ｍ＆Ｋ,,合同会社,東京都,新宿区,若松町７番１－８０１号,,13,104,1620056,,,,,,,2024-07-16,1,,,,,エムアンドケー,0
1341,6011501030917,新規,0,2024-07-16,2024-07-16,精炭テクノ株式会社,,株式会社,東京都,荒川区,西日暮里２丁目３２番１０号グロリアス東京３階,,13,118,1160013,,,,,,,2024-07-16,1,,,,,セイタンテクノ,0
1342,6011503006147,新規,0,2024-07-16,2024-07-16,合同会社クルヴァコンサルティング,,合同会社,東京都,北区,上十条５丁目６番２－３０３号エスペランサＶＩＩ,00135583,13,117,1140034,,,,,,,2024-07-16,1,,,,,クルヴァコンサルティング,0
1345,6011801044542,新規,0,2024-07-16,2024-07-16,株式会社Ｒ・ｃｒ,,株式会社,東京都,葛飾区,細田５丁目９番７号グレースステージ１０１,,13,122,1240021,,,,,,,2024-07-16,1,,,,,アールシーアール,0
1348,6012401042085,新規,0,2024-07-16,2024-07-16,株式会社コスモファーレ,,株式会社,東京都,府中市,本町４丁目１０番地の１５、１０１,,13,206,1830027,,,,,,,2024-07-16,1,,,,,コスモファーレ,0
1350,6013101009465,新規,0,2024-07-16,2024-07-16,株式会社ＡＺＣＯＭＰＡＮＹ,,株式会社,東京都,羽村市,小作台５丁目６番地１０芦澤ビル２０２号室,,13,227,2050001,,,,,,,2024-07-16,1,,,,,エーゼットカンパニー,0
1351,6013103001354,新規,0,2024-07-16,2024-07-16,合同会社カチュール,,合同会社,東京都,あきる野市,引田３７３－２２,,13,228,1970834,,,,,,,2024-07-16,1,,,,,カチュール,0
1356,6021001082648,新規,0,2024-07-16,2024-07-16,株式会社水道屋のはせがわ,,株式会社,神奈川県,大和市,草柳３丁目２０番地１０,,14,213,2420026,,,,,,,2024-07-16,1,,,,,スイドウヤノハセガワ,0
1363,6021003014772,新規,0,2024-07-16,2024-07-16,合同会社ＹｔｏＭ,,合同会社,神奈川県,逗子市,小坪３丁目１９－７,,14,208,2490008,,,,,,,2024-07-16,1,,,,,ワイトゥーエム,0
1367,6030001161428,新規,0,2024-07-16,2024-07-16,株式会社ＢＢＧ,,株式会社,埼玉県,桶川市,大字五町臺１６１番地の１,00135579,11,231,3630004,,,,,,,2024-07-16,1,,,,,ビービージィ,0
1368,6030001161436,新規,0,2024-07-16,2024-07-16,ＮＪ商事株式会社,,株式会社,埼玉県,川口市,西青木３丁目１３番１１号,,11,203,3320035,,,,,,,2024-07-16,1,,,,,エヌジェイショウジ,0
1369,6030001161444,新規,0,2024-07-16,2024-07-16,株式会社ＦｏｒＷａｒｄ,,株式会社,埼玉県,さいたま市緑区,大字下野田４０９－１サンティエアヴニールＦ,,11,109,3360962,,,,,,,2024-07-16,1,,,,,フォワード,0
1372,6030002069174,新規,0,2024-07-16,2024-07-16,有限会社プラッツ,,有限会社,埼玉県,春日部市,粕壁６６９５番地,,11,214,3440061,,,,,,,2024-07-16,1,,,,,プラッツ,0
1375,6030003024707,新規,0,2024-07-16,2024-07-16,エムアイトレーディング合同会社,,合同会社,埼玉県,蕨市,中央３丁目１０番７号,,11,223,3350004,,,,,,,2024-07-16,1,,,,,エムアイトレーディング,0
1390,6040001134341,新規,0,2024-07-16,2024-07-16,株式会社エーエム,,株式会社,千葉県,八千代市,ゆりのき台４丁目１７番地３,,12,221,2760042,,,,,,,2024-07-16,1,,,,,エーエム,0
1391,6040001134358,新規,0,2024-07-16,2024-07-16,株式会社シエ・ケン,,株式会社,千葉県,千葉市中央区,本町１丁目４番１号,,12,101,2600012,,,,,,,2024-07-16,1,,,,,シエケン,0
1392,6040001134498,新規,0,2024-07-16,2024-07-16,株式会社ＳＫＹ興業,,株式会社,千葉県,船橋市,本町２丁目２２番５－８０２号,,12,204,2730005,,,,,,,2024-07-16,1,,,,,エスケイワイコウギョウ,0
1394,6040003025398,新規,0,2024-07-16,2024-07-16,ノースアイランド合同会社,,合同会社,千葉県,千葉市若葉区,桜木３丁目１３番２２号グランドゥール桜木ＩＩ２０２号,00135584,12,104,2640028,,,,,,,2024-07-16,1,,,,,ノースアイランド,0
1400,6050001055090,新規,0,2024-07-16,2024-07-16,チャンソンジャパン株式会社,,株式会社,茨城県,水戸市,城南３丁目１０番１７号,,08,201,3100803,,,,,,,2024-07-16,1,,,,,チャンソンジャパン,0
1402,6060001037303,新規,0,2024-07-16,2024-07-16,渡辺商運株式会社,,株式会社,栃木県,佐野市,犬伏上町２２３１番地３,,09,204,3270806,,,,,,,2024-07-16,1,,,,,ワタナベショウウン,0
1407,6070001041956,新規,0,2024-07-16,2024-07-16,株式会社斉藤塗装,,株式会社,群馬県,桐生市,浜松町１丁目１１番１２号,,10,203,3760007,,,,,,,2024-07-16,1,,,,,サイトウトソウ,0
1425,6110001038568,新規,0,2024-07-16,2024-07-16,株式会社ＬＡｌａｔｏｎｅ,,株式会社,新潟県,柏崎市,日吉町９番２０号Ｍビル２０３号,,15,205,9450043,,,,,,,2024-07-16,1,,,,,ララトーン,0
1426,6110003005450,新規,0,2024-07-16,2024-07-16,合同会社グローアース,,合同会社,新潟県,佐渡市,金井新保乙４０７番地１,,15,224,9521208,,,,,,,2024-07-16,1,,,,,グローアース,0
1437,6120001266696,新規,0,2024-07-16,2024-07-16,株式会社Ｓｔａｒｔ　Ｕｐ　Ｃｒｅａｔ,,株式会社,大阪府,大阪市阿倍野区,阪南町５丁目１１－２５長正ビル５０１,,27,119,5450021,,,,,,,2024-07-16,1,,,,,スタートアップクリエイト,0
1438,6120001266762,新規,0,2024-07-16,2024-07-16,株式会社ｌｉｍ,,株式会社,大阪府,大阪市住之江区,北加賀屋５丁目６－２４フリード北加賀屋１Ｆ,,27,125,5590011,,,,,,,2024-07-16,1,,,,,リム,0
1439,6120001266770,新規,0,2024-07-16,2024-07-16,株式会社ＳＨＯＮＡＮトランスポート,,株式会社,大阪府,門真市,新橋町１７番８号,,27,223,5710048,,,,,,,2024-07-16,1,,,,,ショウナントランスポート,0
1443,6120005024423,新規,0,2024-07-16,2024-07-16,医療法人恵篤会,,その他の設立登記法人,大阪府,大阪市都島区,東野田町２丁目３番１９号ＭＦＫ京橋駅前ビル４階,,27,102,5340024,,,,,,,2024-07-16,1,,,,,ケイトクカイ,0
1445,6120105009885,新規,0,2024-07-16,2024-07-16,医療法人尾崎会,00135574,その他の設立登記法人,大阪府,松原市,天美東２丁目１３５番地の２松原天美クリニックビル２Ｆ,,27,217,5800032,,,,,,,2024-07-16,1,,,,,オザキカイ,0
1446,6120905006628,新規,0,2024-07-16,2024-07-16,一般社団法人これからも,,その他の設立登記法人,大阪府,池田市,天神２丁目１番６－Ａ―１０２号,,27,204,5630031,,,,,,,2024-07-16,1,,,,,コレカラモ,0
1467,6180001162329,新規,0,2024-07-16,2024-07-16,株式会社ミズタ,,株式会社,愛知県,知多市,日長字中森谷４１番地,,23,224,4780041,,,,,,,2024-07-16,1,,,,,ミズタ,0
1468,6180001162337,新規,0,2024-07-16,2024-07-16,株式会社Ｋ２,,株式会社,愛知県,名古屋市北区,中味鋺１丁目８４４番地フィルエテルネル３０２号,,23,103,4620015,,,,,,,2024-07-16,1,,,,,ケーツー,0
1469,6180001162378,新規,0,2024-07-16,2024-07-16,株式会社ＹＧグローバル,,株式会社,愛知県,東海市,大田町天尾崎１０２４番地,,23,222,4770031,,,,,,,2024-07-16,1,,,,,ワイジーグローバル,0
1476,6180003027067,新規,0,2024-07-16,2024-07-16,合同会社ＥＡＲＴＨ,,合同会社,愛知県,名古屋市東区,泉２丁目１６番２１号ラ・クール泉４０３号,,23,102,4610001,,,,,,,2024-07-16,1,,,,,アース,0
1479,6180303006183,新規,0,2024-07-16,2024-07-16,合同会社ＯＺ,,合同会社,愛知県,豊橋市,松葉町１丁目３１番地レッドビル４Ｆ,,23,201,4400897,,,,,,,2024-07-16,1,,,,,オズ,0
1482,6190001031490,新規,0,2024-07-16,2024-07-16,株式会社すずのね会,,株式会社,三重県,鈴鹿市,白子１丁目３番１３号,,24,207,5100243,,,,,,,2024-07-16,1,,,,,スズノネカイ,0
1485,6200001042718,新規,0,2024-07-16,2024-07-16,ナカヨシ株式会社,,株式会社,岐阜県,大垣市,安井町５丁目２８番地１２,,21,202,5030837,,,,,,,2024-07-16,1,,,,,ナカヨシ,0
1496,6240003006766,新規,0,2024-07-16,2024-07-16,速億合同会社,,合同会社,広島県,東広島市,八本松町吉川２４６番地７－１,,34,212,7390152,,,,,,,2024-07-16,1,,,,,ソクオク,0
1497,6250001020735,新規,0,2024-07-16,2024-07-16,株式会社まさき,,株式会社,山口県,宇部市,大字東岐波３９８５番地１,,35,202,7550241,,,,,,,2024-07-16,1,,,,,マサキ,0
1510,6300003002148,新規,0,2024-07-16,2024-07-16,合同会社ＴＫパートナーズ,,合同会社,佐賀県,佐賀市,兵庫南２丁目１７番３－８０２号,,41,201,8490918,,,,,,,2024-07-16,1,,,,,ティーケーパートナーズ,0
1514,6320001020595,新規,0,2024-07-16,2024-07-16,ハンドアール株式会社,,株式会社,大分県,大分市,大字市１１３１番地サーパスわさだ３０１号,,44,201,8701151,,,,,,,2024-07-16,1,,,,,ハンドアール,0
1521,6340001026640,新規,0,2024-07-16,2024-07-16,ｖｏｌｃａｎｏ株式会社,,株式会社,鹿児島県,鹿児島市,上本町１１番１５号,,46,201,8920818,,,,,,,2024-07-16,1,,,,,ボルケーノ,0
1528,6370001051512,新規,0,2024-07-16,2024-07-16,株式会社ｂｌｏｏｍ,,株式会社,宮城県,仙台市青葉区,二日町１６番２号ラ・レジダンス・ド仙台１１０２,,04,101,9800802,,,,,,,2024-07-16,1,,,,,ブルーム,0
1533,6410001013870,新規,0,2024-07-16,2024-07-16,株式会社ＺＥＮ,,株式会社,秋田県,横手市,鍛冶町３番２５号,,05,203,0130031,,,,,,,2024-07-16,1,,,,,ゼン,0
1534,6420003002953,新規,0,2024-07-16,2024-07-16,合同会社Ｋｏｄａｍａ　Ｓｙｓｔｅｍｓ,,合同会社,青森県,青森市,中央２丁目２番２０号アシスト青森マンション３０１号,,02,201,0300822,,,,,,,2024-07-16,1,,,,,,0
1540,6462501001004,新規,0,2024-07-16,2024-07-16,株式会社しるべ,,株式会社,北海道,標津郡中標津町,東三条北１丁目６三条ビル２Ｆ,,01,692,0861043,,,,,,,2024-07-16,1,,,,,シルベ,0
1541,6462505000290,新規,0,2024-07-16,2024-07-16,一般社団法人テトラソリューション,,その他の設立登記法人,北海道,野付郡別海町,別海旭町１１番地,,01,691,0860202,,,,,,,2024-07-16,1,,,,,テトラソリューション,0
1546,6480001012544,新規,0,2024-07-16,2024-07-16,株式会社高田商店,,株式会社,徳島県,小松島市,日開野町字加々三松２５番地の１,,36,203,7730010,,,,,,,2024-07-16,1,,,,,タカダショウテン,0
1552,6700150126452,新規,0,2024-07-16,2024-07-16,ＳＵＭＡ　ＴＲＡＤＩＮＧ,,外国会社等,茨城県,日立市,金沢町４丁目６０番地オフィス２,,08,202,3160015,スリランカ民主社会主義共和国、ポルゴッラ、マダワラロード、Ｎｏ．１７３,,,,,,2024-07-16,1,,,,,スマトレーデイング,0
1566,7010001246485,新規,0,2024-07-16,2024-07-16,ＹＴＫグループホールディングス株式会社,,株式会社,東京都,中央区,日本橋室町１丁目１１番１２号日本橋水野ビル７階,,13,102,1030022,,,,,,,2024-07-16,1,,,,,ワイティケーグループホールディングス,0
1570,7010003044276,新規,0,2024-07-16,2024-07-16,合同会社ボンドプロパティ１,,合同会社,東京都,千代田区,内神田１丁目３番７号４０１あすな会計事務所内,,13,101,1010047,,,,,,,2024-07-16,1,,,,,ボンドプロパティワン,0
1577,7010105002280,新規,0,2024-07-16,2024-07-16,一般財団法人ＨＡＫＵＥＩ,,その他の設立登記法人,東京都,八王子市,長房町４４６番地５７,,13,201,1930824,,,,,,,2024-07-16,1,,,,,ハクエイ,0
1596,7010401183840,新規,0,2024-07-16,2024-07-16,ＲｅｒａＡｓｓｅｔコンサルティング株式会社,,株式会社,東京都,港区,南青山３丁目１番３６号青山丸竹ビル６Ｆ,,13,103,1070062,,,,,,,2024-07-16,1,,,,,レラアセットコンサルティング,0
1599,7010403033011,新規,0,2024-07-16,2024-07-16,ＧＶＳＪ１６合同会社,,合同会社,東京都,港区,六本木３丁目１６番２６号,,13,103,1060032,,,,,,,2024-07-16,1,,,,,ジーブイエスジェイシックスティーン,0
1600,7010403033036,新規,0,2024-07-16,2024-07-16,Ｓｏｕｒｃｅ　Ｄｉｎｅｒ合同会社,,合同会社,東京都,港区,高輪１丁目２３番２３－２５０９号,,13,103,1080074,,,,,,,2024-07-16,1,,,,,ソースダイナー,0
1604,7010601065533,新規,0,2024-07-16,2024-07-16,潤吉株式会社,,株式会社,東京都,墨田区,両国２丁目１７番１７号両国ダイヤハイツ２０２－Ｚ,,13,107,1300026,,,,,,,2024-07-16,1,,,,,ウルヨシ,0
1621,7011001163299,新規,0,2024-07-16,2024-07-16,Ｕｌｔｒａ　Ｔｅｎｄｅｎｃｙ　Ｊａｐａｎ株式会社,,株式会社,東京都,目黒区,碑文谷６丁目８番８号,,13,110,1520003,,,,,,,2024-07-16,1,,,,,ウルトラテンデンシージャパン,0
1626,7011003019573,新規,0,2024-07-16,2024-07-16,合同会社ｓｕｒｉｄｇｅ,,合同会社,東京都,渋谷区,道玄坂１丁目１０番８号渋谷道玄坂東急ビル２Ｆ－Ｃ,,13,113,1500043,,,,,,,2024-07-16,1,,,,,スリッジ,0
1627,7011101108014,新規,0,2024-07-16,2024-07-16,Ｋキャピタルマネジメント株式会社,,株式会社,東京都,新宿区,新宿４丁目３番２０号,,13,104,1600022,,,,,,,2024-07-16,1,,,,,ケーキャピタルマネジメント,0
1628,7011101108039,新規,0,2024-07-16,2024-07-16,ＧｌｏｂａｌＭａｔｃｈ株式会社,,株式会社,東京都,新宿区,新宿５丁目２－１７，ルジェンテ新宿御苑前９０４,,13,104,1600022,,,,,,,2024-07-16,1,,,,,グローバルマッチ,0
1629,7011101108047,新規,0,2024-07-16,2024-07-16,日本和健株式会社,,株式会社,東京都,新宿区,新宿２丁目１２番１３号新宿アントレサロンビル２階,,13,104,1600022,,,,,,,2024-07-16,1,,,,,ニホンワケン,0
1635,7011503006146,新規,0,2024-07-16,2024-07-16,合同会社アタッカンテ,,合同会社,東京都,北区,上十条５丁目６番２－３０３号エスペランサＶＩＩ,00135582,13,117,1140034,,,,,,,2024-07-16,1,,,,,アタッカンテ,0
1638,7011801044541,新規,0,2024-07-16,2024-07-16,株式会社ユグドラシル,,株式会社,東京都,葛飾区,東四つ木３丁目１９－４,,13,122,1240014,,,,,,,2024-07-16,1,,,,,ユグドラシル,0
1643,7011803006333,新規,0,2024-07-16,2024-07-16,ＮＫアセット合同会社,,合同会社,東京都,葛飾区,堀切６丁目２６番１１号,,13,122,1240006,,,,,,,2024-07-16,1,,,,,エヌケーアセット,0
1645,7012403006665,新規,0,2024-07-16,2024-07-16,合同会社ケアーライズ,,合同会社,東京都,府中市,南町４丁目４３番地の３０モナーク府中中河原１１０,,13,206,1830026,,,,,,,2024-07-16,1,,,,,ケアーライズ,0
1654,7020001158102,新規,0,2024-07-16,2024-07-16,ＪＶＨ株式会社,,株式会社,神奈川県,横浜市青葉区,榎が丘６番地１０クリオ青葉台３０４,,14,117,2270063,,,,,,,2024-07-16,1,,,,,ジェーブイエイチ,0
1655,7020003026488,新規,0,2024-07-16,2024-07-16,合同会社ａｍａｎｅ,,合同会社,神奈川県,横浜市青葉区,市ケ尾町３７８番地,,14,117,2250024,,,,,,,2024-07-16,1,,,,,アマネ,0
1660,7021001082713,新規,0,2024-07-16,2024-07-16,株式会社ととのうおうち,,株式会社,神奈川県,横須賀市,東逸見町２丁目７２番地,,14,201,2380045,,,,,,,2024-07-16,1,,,,,トトノウオウチ,0
1661,7021001082738,新規,0,2024-07-16,2024-07-16,シンコー電装株式会社,,株式会社,神奈川県,横須賀市,馬堀町１丁目２番５号,,14,201,2390802,,,,,,,2024-07-16,1,,,,,シンコーデンソウ,0
1662,7021001082746,新規,0,2024-07-16,2024-07-16,株式会社ニッセイホールディングス,,株式会社,神奈川県,藤沢市,下土棚１７４５番地の１,,14,205,2520807,,,,,,,2024-07-16,1,,,,,ニッセイホールディングス,0
1666,7030001161369,新規,0,2024-07-16,2024-07-16,株式会社店舗コンサル,,株式会社,埼玉県,北本市,中丸１丁目１２１番地１,,11,233,3640013,,,,,,,2024-07-16,1,,,,,テンポコンサル,0
1667,7030001161419,新規,0,2024-07-16,2024-07-16,株式会社ＫＢＫ,,株式会社,埼玉県,秩父郡小鹿野町,小鹿野１２２番地３,,11,365,3680105,,,,,,,2024-07-16,1,,,,,ケイビーケイ,0
1668,7030001161435,新規,0,2024-07-16,2024-07-16,株式会社丸八一太郎青果,,株式会社,埼玉県,飯能市,山手町１７番２－１２号,,11,209,3570031,,,,,,,2024-07-16,1,,,,,マルハチイチタロウセイカ,0
1672,7030003024664,新規,0,2024-07-16,2024-07-16,彼岸合同会社,,合同会社,埼玉県,坂戸市,仲町１４－１３サンハイツＩＩＩの１０１,00135578,11,239,3500227,,,,,,,2024-07-16,1,,,,,ヒガン,0
1673,7030003024697,新規,0,2024-07-16,2024-07-16,合同会社福香,,合同会社,埼玉県,所沢市,緑町４丁目３５番１５－５０８号アコール新所沢イースト,,11,208,3591111,,,,,,,2024-07-16,1,,,,,フッコウ,0
1674,7030003024714,新規,0,2024-07-16,2024-07-16,合同会社Ｂｅ　Ｍｅ,,合同会社,埼玉県,所沢市,大字荒幡１０１８番地の４,,11,208,3591133,,,,,,,2024-07-16,1,,,,,ビーミー,0
1679,7040001134398,新規,0,2024-07-16,2024-07-16,株式会社Ｆ　Ｔｅｃｈ　Ｊａｐａｎ,,株式会社,千葉県,千葉市美浜区,幕張西３丁目６番海浜幕張コーポ１－１０２,,12,106,2610026,,,,,,,2024-07-16,1,,,,,エフテックジャパン,0
1680,7040001134539,新規,0,2024-07-16,2024-07-16,株式会社若葉設備,,株式会社,千葉県,千葉市若葉区,愛生町１５７番地１６,,12,104,2640031,,,,,,,2024-07-16,1,,,,,ワカバセツビ,0
1682,7040005022442,新規,0,2024-07-16,2024-07-16,成田市場輸出事業協同組合,,その他の設立登記法人,千葉県,成田市,天神峰８０番地１,,12,211,2860102,,,,,,,2024-07-16,1,,,,,ナリタシジョウユシュツ,0
1683,7050003008533,新規,0,2024-07-16,2024-07-16,合同会社Ｒｕ　ａｎｇｅ,,合同会社,茨城県,つくば市,北条１５６３番地２,,08,220,3004231,,,,,,,2024-07-16,1,,,,,ルアンジュ,0
1686,7060001037302,新規,0,2024-07-16,2024-07-16,株式会社ＫＡＲＩＮ,,株式会社,栃木県,那須塩原市,三島２丁目８番地１８スモールマロン１０２号,,09,213,3292752,,,,,,,2024-07-16,1,,,,,カリン,0
1704,7120001266687,新規,0,2024-07-16,2024-07-16,株式会社ＧＤＳ　ｐｌｕｓ,,株式会社,大阪府,大阪市北区,梅田１丁目１２番１７号,,27,127,5300001,,,,,,,2024-07-16,1,,,,,ジーディーエスプラス,0
1705,7120001266729,新規,0,2024-07-16,2024-07-16,株式会社Ｂ・Ｓｃｉｅｎｃｅ,,株式会社,大阪府,大阪市中央区,南本町２丁目３番１２号エッジ本町,,27,128,5410054,,,,,,,2024-07-16,1,,,,,ビサイエンス,0
1706,7120001266828,新規,0,2024-07-16,2024-07-16,清越株式会社,,株式会社,大阪府,大阪市淀川区,十三元今里１丁目１０番２０号,,27,123,5320028,,,,,,,2024-07-16,1,,,,,セイエツ,0
1710,7120105009884,新規,0,2024-07-16,2024-07-16,医療法人カハラ会,,その他の設立登記法人,大阪府,岸和田市,春木若松町７番３０号,,27,202,5960006,,,,,,,2024-07-16,1,,,,,カハラカイ,0
1722,7140003020801,新規,0,2024-07-16,2024-07-16,Ｍｉｌｉｔｉａ　Ｃａｐｉｔａｌ　Ｊａｐａｎｅｓｅ　Ｒｅｓｅａｒｃｈ合同会社,,合同会社,兵庫県,尼崎市,武庫之荘１丁目２０番３号ソリオ武庫之荘３０６,,28,202,6610035,,,,,,,2024-07-16,1,,,,,ミリティアキャピタルジャパニーズリサーチ,0
1723,7140003020818,新規,0,2024-07-16,2024-07-16,合同会社Ｊａｎｅ　ｈａｓｈｉ,,合同会社,兵庫県,尼崎市,塚口本町２丁目３番１８号,,28,202,6610001,,,,,,,2024-07-16,1,,,,,ジェーンハシ,0
1724,7140003020826,新規,0,2024-07-16,2024-07-16,ブランカジャパン合同会社,,合同会社,兵庫県,神戸市中央区,磯辺通１丁目１番１８号カサベラ国際プラザビル７０７号室,,28,110,6510084,,,,,,,2024-07-16,1,,,,,ブランカジャパン,0
1726,7150001027418,新規,0,2024-07-16,2024-07-16,ＴＲＦ株式会社,,株式会社,奈良県,橿原市,中町２００番地の１０７,,29,205,6340009,,,,,,,2024-07-16,1,,,,,ティーアールエフ,0
1731,7180001162328,新規,0,2024-07-16,2024-07-16,絆ＨＯＭＥ株式会社,00135580,株式会社,愛知県,海部郡大治町,大字三本木字堅田９番地１,,23,424,4901142,,,,,,,2024-07-16,1,,,,,キズナホーム,0
1732,7180001162344,新規,0,2024-07-16,2024-07-16,株式会社ディーダブル,,株式会社,愛知県,名古屋市北区,楠１丁目１７１８番地の１,,23,103,4620012,,,,,,,2024-07-16,1,,,,,ディーダブル,0
1733,7180001162369,新規,0,2024-07-16,2024-07-16,株式会社ＤＫエステート,,株式会社,愛知県,名古屋市緑区,鳴海町字白山１１７番地の２,,23,114,4580801,,,,,,,2024-07-16,1,,,,,ディケーエステート,0
1734,7180001162377,新規,0,2024-07-16,2024-07-16,Ｈｉｂａｒｉ財託株式会社,,株式会社,愛知県,清須市,西枇杷島町日の出３６番地,,23,233,4520034,,,,,,,2024-07-16,1,,,,,ヒバリザイタク,0
1739,7180003027041,新規,0,2024-07-16,2024-07-16,合同会社Ｓｈｉｎｒａ,,合同会社,愛知県,半田市,板山町４丁目３番地の３カーサエスタ弐番館１０２号,,23,205,4750936,,,,,,,2024-07-16,1,,,,,シンラ,0
1740,7180003027066,新規,0,2024-07-16,2024-07-16,合同会社ＰＥＡＣＥ,,合同会社,愛知県,名古屋市中区,千代田１丁目１３番１６号プレサンス久屋大通公園セラフィ６０１号,,23,106,4600012,,,,,,,2024-07-16,1,,,,,ピース,0
1741,7180003027082,新規,0,2024-07-16,2024-07-16,合同会社ｎｅｕｒｏ　ｐｉｃｋ,,合同会社,愛知県,名古屋市昭和区,御器所町１８号館３階,,23,107,4660061,,,,,,,2024-07-16,1,,,,,ニューロピック,0
1749,7180303006182,新規,0,2024-07-16,2024-07-16,合同会社ｖｏｉｘ　ｓｏｕｎｄ,,合同会社,愛知県,西尾市,一色町味浜中長割４７番地,,23,213,4440422,,,,,,,2024-07-16,1,,,,,ヴォイックスサウンド,0
1753,7200001042700,新規,0,2024-07-16,2024-07-16,株式会社エリコーポレーション,,株式会社,岐阜県,美濃加茂市,深田町３丁目１５番１３号,,21,211,5050043,,,,,,,2024-07-16,1,,,,,エリコーポレーション,0
1765,7240001063536,新規,0,2024-07-16,2024-07-16,株式会社ＩＳＬＡＮＤ,,株式会社,広島県,広島市中区,河原町３番１４号,,34,101,7300856,,,,,,,2024-07-16,1,,,,,アイランド,0
1767,7260001039261,新規,0,2024-07-16,2024-07-16,株式会社西崎工業,00135575,株式会社,岡山県,岡山市南区,若葉町２３番７号,,33,104,7028047,,,,,,,2024-07-16,1,,,,,ニシザキコウギョウ,0
1770,7260003004817,新規,0,2024-07-16,2024-07-16,合同会社ＵＳＨＩＭＡＲＯＢＩ,,合同会社,岡山県,瀬戸内市,牛窓町牛窓３０６１番地,,33,212,7014302,,,,,,,2024-07-16,1,,,,,ウシマロビ,0
1771,7270001009016,新規,0,2024-07-16,2024-07-16,株式会社飛遊創建,,株式会社,鳥取県,西伯郡伯耆町,大殿１８５８番地１,,31,390,6894121,,,,,,,2024-07-16,1,,,,,ヒユウソウケン,0
1773,7290001106397,新規,0,2024-07-16,2024-07-16,株式会社はらぐちでんき,,株式会社,福岡県,久留米市,善導寺町与田１０６番地５,,40,203,8390823,,,,,,,2024-07-16,1,,,,,ハラグチデンキ,0
1774,7290001106455,新規,0,2024-07-16,2024-07-16,Ｆｒａｎｃｅ　Ｌａｒｏｍｅ株式会社,,株式会社,福岡県,福岡市博多区,下呉服町６－３クリオラベルヴィ呉服町イースト１３０３号室,,40,132,8120034,,,,,,,2024-07-16,1,,,,,フランスラローム,0
1777,7290005019439,新規,0,2024-07-16,2024-07-16,一般社団法人モア,,その他の設立登記法人,福岡県,福岡市中央区,大名２丁目１１－２５新栄ビル４Ｆ,,40,133,8100041,,,,,,,2024-07-16,1,,,,,モア,0
1784,7320003004422,新規,0,2024-07-16,2024-07-16,合同会社リバーブ,,合同会社,大分県,佐伯市,大字上岡２６３２番地１,,44,205,8760045,,,,,,,2024-07-16,1,,,,,,0
1788,7330005010806,新規,0,2024-07-16,2024-07-16,一般財団法人熊本市公共交通公社,,その他の設立登記法人,熊本県,熊本市中央区,大江５丁目１番４０号,,43,101,8620971,,,,,,,2024-07-16,1,,,,,クマモトシコウキョウコウツウコウシャ,0
1816,7430005015019,新規,0,2024-07-16,2024-07-16,農事組合法人森ファーム,,その他の設立登記法人,北海道,札幌市白石区,北郷五条３丁目２－３４ローザンハイツ１０２,,01,104,0030835,,,,,,,2024-07-16,1,,,,,モリファーム,0
1818,7470003002683,新規,0,2024-07-16,2024-07-16,合同会社ＫＫＹｃｏｍｐａｎｙ,,合同会社,香川県,三豊市,仁尾町仁尾丁４６５番地４,,37,208,7691407,,,,,,,2024-07-16,1,,,,,ケーケーワイカンパニー,0
1820,7700150126451,新規,0,2024-07-16,2024-07-16,ＬＵＷＡ　ＥＮＴＥＲＰＲＩＳＥＳ,,外国会社等,茨城県,日立市,金沢町４丁目６０番地オフィス１,,08,202,3160015,スリランカ民主社会主義共和国、マダワラ、マタレロード、Ｎｏ．３,,,,,,2024-07-16,1,,,,,ルワエンタープライズ,0
1831,8010003044259,新規,0,2024-07-16,2024-07-16,ＢＥＣＯＭＭＥＮＴ合同会社,,合同会社,東京都,中央区,銀座６丁目１３番１６号銀座ＷａｌｌビルＵＣＦ５階,,13,102,1040061,,,,,,,2024-07-16,1,,,,,ビーコメント,0
1832,8010101016234,新規,0,2024-07-16,2024-07-16,株式会社上東野装業,,株式会社,東京都,八王子市,四谷町５７６番地４,,13,201,1930813,,,,,,,2024-07-16,1,,,,,カミトウノソウギョウ,0
1838,8010403033010,新規,0,2024-07-16,2024-07-16,ＧＶＳＪ１５合同会社,,合同会社,東京都,港区,六本木３丁目１６番２６号,,13,103,1060032,,,,,,,2024-07-16,1,,,,,ジーブイエスジェイフィフティーン,0
1839,8010403033019,新規,0,2024-07-16,2024-07-16,ＧＶＳＪ２４合同会社,,合同会社,東京都,港区,六本木３丁目１６番２６号,,13,103,1060032,,,,,,,2024-07-16,1,,,,,ジーブイエスジェイトゥエンティフォー,0
1840,8010403033035,新規,0,2024-07-16,2024-07-16,Ｍｉｙａｎｏｓａｗａ‐１ＢＥＳＳ合同会社,,合同会社,東京都,港区,元麻布３丁目１番６号,,13,103,1060046,,,,,,,2024-07-16,1,,,,,ミヤノサワワンベス,0
1849,8010701046275,新規,0,2024-07-16,2024-07-16,ニュートレヴファーマ株式会社,,株式会社,東京都,品川区,西五反田２丁目２５番１号,,13,109,1410031,,,,,,,2024-07-16,1,,,,,ニュートレヴファーマ,0
1853,8010901055646,新規,0,2024-07-16,2024-07-16,株式会社ＢＩＮＫＹ,,株式会社,東京都,世田谷区,南烏山６丁目４－１８宇多川ビルＢ１Ｆ,,13,112,1570062,,,,,,,2024-07-16,1,,,,,ビンキー,0
1862,8011001163257,新規,0,2024-07-16,2024-07-16,株式会社ＤＯＮ　ＤＯ　ＤＯＮ,,株式会社,東京都,渋谷区,渋谷２丁目１９－１５宮益坂ビルディング６０９,,13,113,1500002,,,,,,,2024-07-16,1,,,,,ドンドドン,0
1863,8011001163281,新規,0,2024-07-16,2024-07-16,株式会社Ｈａｒｍｏｎｙｓｔ,,株式会社,東京都,渋谷区,広尾５丁目１９番９号金田ビル,,13,113,1500012,,,,,,,2024-07-16,1,,,,,ハーモニスト,0
1870,8011101108021,新規,0,2024-07-16,2024-07-16,株式会社ＨＫＲ,,株式会社,東京都,新宿区,西新宿６丁目２０番７－３１０６号,,13,104,1600023,,,,,,,2024-07-16,1,,,,,エイチケーアール,0
1877,8011703003900,新規,0,2024-07-16,2024-07-16,エイムグローバル合同会社,,合同会社,東京都,江戸川区,中央２丁目１９番２３号,,13,123,1320021,,,,,,,2024-07-16,1,,,,,エイムグローバル,0
1883,8013301052817,新規,0,2024-07-16,2024-07-16,株式会社Ｈａｎｎａｈ’ｓ,,株式会社,東京都,豊島区,目白２丁目４番２号アレーロメジロ３０２号,,13,116,1710031,,,,,,,2024-07-16,1,,,,,ハンナズ,0
1884,8013303007224,新規,0,2024-07-16,2024-07-16,みず合同会社,,合同会社,東京都,豊島区,巣鴨１丁目４１－１１コクエイビル２０１,,13,116,1700002,,,,,,,2024-07-16,1,,,,,ミズ,0
1889,8020001158068,新規,0,2024-07-16,2024-07-16,田中電気株式会社,,株式会社,神奈川県,横浜市都筑区,佐江戸町２１５４番地,,14,118,2240054,,,,,,,2024-07-16,1,,,,,タナカデンキ,0
1890,8020001158126,新規,0,2024-07-16,2024-07-16,燕屋株式会社,,株式会社,神奈川県,川崎市川崎区,渡田１丁目１３番６－１号,,14,131,2100837,,,,,,,2024-07-16,1,,,,,ツバメヤ,0
1900,8021003014770,新規,0,2024-07-16,2024-07-16,合同会社まる靖運送,,合同会社,神奈川県,愛甲郡愛川町,半原５４４番地の３,,14,401,2430307,,,,,,,2024-07-16,1,,,,,マルヤスウンソウ,0
1901,8021003014779,新規,0,2024-07-16,2024-07-16,Ａ　Ｙ　ＭＯＴＯＲＳ合同会社,,合同会社,神奈川県,伊勢原市,板戸７９０番地の２７コンサートワン１０３,,14,214,2591145,,,,,,,2024-07-16,1,,,,,エイワイモータース,0
1913,8030003024705,新規,0,2024-07-16,2024-07-16,貴匠合同会社,,合同会社,埼玉県,蕨市,塚越２丁目１４－１５蕨北野マンションＡ棟１０２号室,,11,223,3350002,,,,,,,2024-07-16,1,,,,,タカショウ,0
1914,8030003024713,新規,0,2024-07-16,2024-07-16,ＫＨＡＴＲＩ合同会社,,合同会社,埼玉県,川口市,大字東本郷１６５４番地１,,11,203,3340063,,,,,,,2024-07-16,1,,,,,カトリ,0
1919,8040001134496,新規,0,2024-07-16,2024-07-16,株式会社フレイ,,株式会社,千葉県,松戸市,二十世紀が丘萩町３４６番地,,12,207,2710086,,,,,,,2024-07-16,1,,,,,フレイ,0
1920,8040001134538,新規,0,2024-07-16,2024-07-16,株式会社ＳａｋａｔａＤｅｓｉｇｎｅｒｓ,,株式会社,千葉県,八千代市,大和田新田１９２番地３,,12,221,2760046,,,,,,,2024-07-16,1,,,,,サカタデザイナーズ,0
1925,8040003025405,新規,0,2024-07-16,2024-07-16,合同会社エヌ・エム企画,,合同会社,千葉県,浦安市,舞浜３丁目２３番７号,,12,227,2790031,,,,,,,2024-07-16,1,,,,,エヌエムキカク,0
1930,8050003008540,新規,0,2024-07-16,2024-07-16,ＢＳＲ　ＴＲＡＤＩＮＧ合同会社,,合同会社,茨城県,結城郡八千代町,大字平塚４８０７－３３９,,08,521,3003561,,,,,,,2024-07-16,1,,,,,ビーエスアールトレーディング,0
1934,8060003005157,新規,0,2024-07-16,2024-07-16,合同会社Ｌｅｖｅｌ４,,合同会社,栃木県,宇都宮市,西川田本町２丁目６－１８,,09,201,3210158,,,,,,,2024-07-16,1,,,,,レベルフォー,0
1940,8080101024890,新規,0,2024-07-16,2024-07-16,株式会社なないろ,,株式会社,静岡県,賀茂郡南伊豆町,下小野２４３番地,,22,304,4150323,,,,,,,2024-07-16,1,,,,,ナナイロ,0
1955,8120001266802,新規,0,2024-07-16,2024-07-16,株式会社亜臨界マテリアル,,株式会社,大阪府,大阪市西区,新町１丁目２１－８－５０４,,27,106,5500013,,,,,,,2024-07-16,1,,,,,アリンカイマテリアル,0
1956,8120001266810,新規,0,2024-07-16,2024-07-16,Ｑｕａｎｔｕｍ　Ｃａｐｉｔａｌ株式会社,,株式会社,大阪府,大阪市阿倍野区,西田辺二丁目６番３号（５Ａ）,,27,119,5450000,,,,,,,2024-07-16,1,,,,,クオンタムキャピタル,0
1957,8120001266819,新規,0,2024-07-16,2024-07-16,ワンデザイン株式会社,,株式会社,大阪府,大阪市中央区,南船場４丁目６番２２号,,27,128,5420081,,,,,,,2024-07-16,1,,,,,ワンデザイン,0
1960,8120003027013,新規,0,2024-07-16,2024-07-16,Ｇ＆Ｉ合同会社,,合同会社,大阪府,大阪市中央区,高津３丁目９番５号,,27,128,5420072,,,,,,,2024-07-16,1,,,,,ジーアンドアイ,0
1961,8120005024421,新規,0,2024-07-16,2024-07-16,一般社団法人ともえみファミリーサポート,,その他の設立登記法人,大阪府,大阪市北区,梅田１丁目１１番４号大阪駅前第４ビル１２Ｆ,,27,127,5300001,,,,,,,2024-07-16,1,,,,,トモエミファミリーサポート,0
1964,8120103005950,新規,0,2024-07-16,2024-07-16,ＡＳＫ合同会社,,合同会社,大阪府,藤井寺市,藤ケ丘３丁目３－３２,,27,226,5830017,,,,,,,2024-07-16,1,,,,,アスク,0
1975,8140003020767,新規,0,2024-07-16,2024-07-16,西藤環境防災合同会社,,合同会社,兵庫県,宝塚市,山本台３丁目８番１２号,,28,214,6650885,,,,,,,2024-07-16,1,,,,,ニシトウカンキョウボウサイ,0
1978,8150001027425,新規,0,2024-07-16,2024-07-16,株式会社ＵｐＣｌｏｓｅ,,株式会社,奈良県,奈良市,大宮町１丁目４番２１－８０４号,,29,201,6308115,,,,,,,2024-07-16,1,,,,,アップクローズ,0
1980,8160001026070,新規,0,2024-07-16,2024-07-16,株式会社ポラリス,,株式会社,滋賀県,守山市,勝部５丁目７－３１アルファスマート守山勝部９０７号,,25,207,5240041,,,,,,,2024-07-16,1,,,,,,0
1987,8180001162335,新規,0,2024-07-16,2024-07-16,ＢａｍＢｏｏ　Ｂａｓｅ株式会社,,株式会社,愛知県,瀬戸市,東寺山町１５５番地,,23,204,4890928,,,,,,,2024-07-16,1,,,,,バンブーベース,0
1990,8180003027073,新規,0,2024-07-16,2024-07-16,合同会社Ｏ．Ｋ．Ｇ　ＭＯＴＯＲ,,合同会社,愛知県,名古屋市港区,宝神４丁目２３０３番地の５,,23,111,4550832,,,,,,,2024-07-16,1,,,,,オーケージーモーター,0
2010,8240001063527,新規,0,2024-07-16,2024-07-16,株式会社Ｎ・ＦＲＥＥ,,株式会社,広島県,広島市安佐南区,緑井７丁目６番１－１０４号,,34,105,7310103,,,,,,,2024-07-16,1,,,,,エヌフリー,0
2011,8240001063535,新規,0,2024-07-16,2024-07-16,株式会社将興業,,株式会社,広島県,廿日市市,永原１１１６番地５,,34,213,7380201,,,,,,,2024-07-16,1,,,,,マサコウギョウ,0
2014,8270001009015,新規,0,2024-07-16,2024-07-16,株式会社アモホールディングス,,株式会社,鳥取県,米子市,旗ヶ崎４丁目４番３４号,,31,202,6830845,,,,,,,2024-07-16,1,,,,,アモホールディングス,0
2018,8290001106339,新規,0,2024-07-16,2024-07-16,株式会社千歳,,株式会社,福岡県,福岡市東区,舞松原５丁目１０番６号,,40,131,8130042,,,,,,,2024-07-16,1,,,,,チトセ,0
2024,8310001019109,新規,0,2024-07-16,2024-07-16,株式会社蓮進工業,,株式会社,長崎県,長崎市,みなと坂１丁目１５番２号,,42,201,8500079,,,,,,,2024-07-16,1,,,,,レンシンコウギョウ,0
2026,8320001020593,新規,0,2024-07-16,2024-07-16,株式会社ＳＬｉｎｋ,,株式会社,大分県,中津市,大字東浜５６３番地１,,44,203,8710006,,,,,,,2024-07-16,1,,,,,エスリンク,0
2028,8320003004413,新規,0,2024-07-16,2024-07-16,合同会社婆皿,,合同会社,大分県,大分市,生石３丁目１番２９号西の丸ビル４０２,,44,201,8700003,,,,,,,2024-07-16,1,,,,,,0
2030,8330001032209,新規,0,2024-07-16,2024-07-16,株式会社Ｋ・アソシエート,,株式会社,熊本県,合志市,豊岡２０００番地２７１４,,43,216,8611115,,,,,,,2024-07-16,1,,,,,ケーアソシエート,0
2031,8330003010468,新規,0,2024-07-16,2024-07-16,合同会社ｆｏｒｅｔｂｉｏ,,合同会社,熊本県,宇城市,三角町波多３１０９番地４０,,43,213,8693205,,,,,,,2024-07-16,1,,,,,フォレビオ,0
2036,8340001026630,新規,0,2024-07-16,2024-07-16,テオリアワークス株式会社,,株式会社,鹿児島県,日置市,吹上町湯之浦２３６０番地,,46,216,8993303,,,,,,,2024-07-16,1,,,,,テオリアワークス,0
2037,8340001026655,新規,0,2024-07-16,2024-07-16,株式会社インフラット,,株式会社,鹿児島県,姶良市,平松５７９８番地２,,46,225,8995652,,,,,,,2024-07-16,1,,,,,インフラット,0
2039,8340003004543,新規,0,2024-07-16,2024-07-16,合同会社Ｎｏ３,,合同会社,鹿児島県,鹿児島市,南林寺町２０番２８号スイートエリア南林寺３０２号,,46,201,8920834,,,,,,,2024-07-16,1,,,,,ナンバースリー,0
2042,8350003004708,新規,0,2024-07-16,2024-07-16,合同会社ＳＡＳＡｙｅｌｌ工業,,合同会社,宮崎県,都城市,五十町１７７２番地１,,45,202,8850084,,,,,,,2024-07-16,1,,,,,ササエルコウギョウ,0
2051,8410001013877,新規,0,2024-07-16,2024-07-16,ＭＯＲＩＹＡ株式会社,,株式会社,秋田県,秋田市,土崎港中央２丁目６番１９－３号,,05,201,0110946,,,,,,,2024-07-16,1,,,,,モリヤ,0
2057,8430001092259,新規,0,2024-07-16,2024-07-16,株式会社ＳＯＹＡ,,株式会社,北海道,札幌市北区,北三十七条西６丁目１番２２号,,01,102,0010037,,,,,,,2024-07-16,1,,,,,ソウヤ,0
2059,8460305002019,新規,0,2024-07-16,2024-07-16,特定非営利活動法人はこぶね,,その他の設立登記法人,北海道,網走市,潮見７丁目１番１０号,,01,211,0930042,,,,,,,2024-07-16,1,,,,,ハコブネ,0
2060,8460403000246,新規,0,2024-07-16,2024-07-16,ふくろう水産合同会社,,合同会社,北海道,根室市,千島町１丁目４４番地４,,01,223,0870018,,,,,,,2024-07-16,1,,,,,フクロウスイサン,0
2065,8500001025707,新規,0,2024-07-16,2024-07-16,株式会社岩崎農園,,株式会社,愛媛県,新居浜市,庄内町１丁目４番８号,,38,205,7920811,,,,,,,2024-07-16,1,,,,,イワサキノウエン,0
2068,8700150126450,新規,0,2024-07-16,2024-07-16,ＲＯＢＯＲＯＣＫ　ＩＮＶＩＳＩＯＮ（ＨＫ）ＬＩＭＩＴＥＤ,,外国会社等,,,,,,,,ＲＭ　５１１，５／Ｆ，ＭＩＮＧ　ＳＡＮＧ　ＩＮＤ　ＢＬＤＧ，１９－２１　ＨＩＮＧ　ＹＩＰ　ＳＴ　ＨＫ　ＫＷＵＮ　ＴＯＮＧ　９９９０７７　ＨＫ,,,,,,2024-07-16,1,,,,,シートウチイディーヨウシエンゴーンスー,0
2078,9010001246459,新規,0,2024-07-16,2024-07-16,ＰａｙＰａｙ　ＳＣ株式会社,,株式会社,東京都,千代田区,紀尾井町１番３号,,13,101,1020094,,,,,,,2024-07-16,1,,,,,ペイペイエスシー,0
2079,9010001246500,新規,0,2024-07-16,2024-07-16,株式会社ストラテジー,,株式会社,東京都,千代田区,九段北４丁目１番５号,,13,101,1020073,,,,,,,2024-07-16,1,,,,,ストラテジー,0
2080,9010001246574,新規,0,2024-07-16,2024-07-16,株式会社とべとべくさ,,株式会社,東京都,中央区,八丁堀１丁目４番５号幸和ビル１階,,13,102,1040032,,,,,,,2024-07-16,1,,,,,トベトベクサ,0
2081,9010001246599,新規,0,2024-07-16,2024-07-16,株式会社大都エンターテインメント,,株式会社,東京都,中央区,京橋３丁目１番１号東京スクエアガーデン,,13,102,1040031,,,,,,,2024-07-16,1,,,,,ダイトエンターテインメント,0
2087,9010003044282,新規,0,2024-07-16,2024-07-16,Ｔａｊｉｍｉ合同会社,,合同会社,東京都,中央区,京橋２丁目１２番６号ＡＯＪ税理士法人内,,13,102,1040031,,,,,,,2024-07-16,1,,,,,タジミ,0
2091,9010105002279,新規,0,2024-07-16,2024-07-16,一般社団法人Ａ‐ｓｋ・Ｋｉｃｋ　Ｂｏｘ　Ｄａｎｃｅ,,その他の設立登記法人,東京都,八王子市,久保山町２丁目４６番地２－３－４０１,,13,201,1920023,,,,,,,2024-07-16,1,,,,,アスカキックボックスダンス,0
2098,9010401183797,新規,0,2024-07-16,2024-07-16,ＡＲＩＳＡ８株式会社,,株式会社,東京都,港区,赤坂４丁目８番１９号赤坂フロントタウン３階,,13,103,1070052,,,,,,,2024-07-16,1,,,,,アリサエイト,0
2099,9010403033018,新規,0,2024-07-16,2024-07-16,ＧＶＳＪ２３合同会社,,合同会社,東京都,港区,六本木３丁目１６番２６号,,13,103,1060032,,,,,,,2024-07-16,1,,,,,ジーブイエスジェイトゥエンティスリー,0
2100,9010403033034,新規,0,2024-07-16,2024-07-16,Ｋｉｔａｍｉ‐１ＢＥＳＳ合同会社,,合同会社,東京都,港区,元麻布３丁目１番６号,,13,103,1060046,,,,,,,2024-07-16,1,,,,,キタミワンベス,0
2101,9010405023405,新規,0,2024-07-16,2024-07-16,ＥＳＲ‐ＬＯＧＯＳ　ＲＥＩＴ　ＴＭＫ２特定目的会社,,その他の設立登記法人,東京都,港区,虎ノ門３丁目２２番１０－２０１号,,13,103,1050001,,,,,,,2024-07-16,1,,,,,イーエスアールロゴスリートティーエムケーツー,0
2110,9010701046274,新規,0,2024-07-16,2024-07-16,株式会社ＲＩＲＯＴＴＡＨ,,株式会社,東京都,品川区,小山２丁目１６－１６,,13,109,1420062,,,,,,,2024-07-16,1,,,,,リロッタ,0
2113,9010803005021,新規,0,2024-07-16,2024-07-16,輪田合同会社,,合同会社,東京都,大田区,羽田空港１丁目１番４号,,13,111,1440041,,,,,,,2024-07-16,1,,,,,ワダ,0
2122,9011101108029,新規,0,2024-07-16,2024-07-16,株式会社ＲＦＣ商社,,株式会社,東京都,新宿区,百人町２丁目７番１６－６０５号,,13,104,1690073,,,,,,,2024-07-16,1,,,,,アールエフシーショウシャ,0
2123,9011101108061,新規,0,2024-07-16,2024-07-16,Ｍｅｎｔｅｎ株式会社,,株式会社,東京都,新宿区,西新宿５丁目８番２号惠徳ビル,,13,104,1600023,,,,,,,2024-07-16,1,,,,,メンテン,0
2124,9011103014638,新規,0,2024-07-16,2024-07-16,ダルワザー合同会社,,合同会社,東京都,新宿区,西早稲田２丁目２１番８号,,13,104,1690051,,,,,,,2024-07-16,1,,,,,ダルワザー,0
2125,9011103014679,新規,0,2024-07-16,2024-07-16,サバラン合同会社,,合同会社,東京都,新宿区,高田馬場４丁目２番２６－３０２号,,13,104,1690075,,,,,,,2024-07-16,1,,,,,サバラン,0
2128,9011201025636,新規,0,2024-07-16,2024-07-16,株式会社木の葉,,株式会社,東京都,中野区,南台３丁目５番８号,,13,114,1640014,,,,,,,2024-07-16,1,,,,,コノハ,0
2133,9011801044531,新規,0,2024-07-16,2024-07-16,櫻泉株式会社,,株式会社,東京都,葛飾区,新小岩４丁目７番６号２Ｆ,,13,122,1240024,,,,,,,2024-07-16,1,,,,,サクライズミ,0
2134,9012401042090,新規,0,2024-07-16,2024-07-16,株式会社Ｄｉｇｇ　Ｄｅｅ,,株式会社,東京都,多摩市,豊ヶ丘３丁目３番地２,,13,224,2060031,,,,,,,2024-07-16,1,,,,,ディグディー,0
2137,9012403006663,新規,0,2024-07-16,2024-07-16,Ｍｉｎｉｍａｒｉｐ合同会社,,合同会社,東京都,武蔵野市,吉祥寺本町４丁目３１－６－４１６,,13,203,1800004,,,,,,,2024-07-16,1,,,,,ミニマリップ,0
2140,9013301052782,新規,0,2024-07-16,2024-07-16,株式会社スノー,,株式会社,東京都,豊島区,目白２丁目１６番２０号,,13,116,1710031,,,,,,,2024-07-16,1,,,,,スノー,0
2148,9020001158075,新規,0,2024-07-16,2024-07-16,株式会社アットニュー,,株式会社,神奈川県,川崎市中原区,市ノ坪４４９番地３シティタワー武蔵小杉２４１２,,14,133,2110016,,,,,,,2024-07-16,1,,,,,アットニュー,0
2149,9020001158166,新規,0,2024-07-16,2024-07-16,株式会社新井ホールディングス,,株式会社,神奈川県,横浜市中区,尾上町１丁目８番地,,14,104,2310015,,,,,,,2024-07-16,1,,,,,アライホールディングス,0
2163,9021001082728,新規,0,2024-07-16,2024-07-16,株式会社リバアス,,株式会社,神奈川県,横須賀市,鴨居３丁目３１番１０号,,14,201,2390813,,,,,,,2024-07-16,1,,,,,リバアス,0
2169,9030001161433,新規,0,2024-07-16,2024-07-16,ＳＫ株式会社,,株式会社,埼玉県,児玉郡美里町,大字駒衣字市場３６－３,,11,381,3670119,,,,,,,2024-07-16,1,,,,,エスケー,0
2170,9030001161441,新規,0,2024-07-16,2024-07-16,株式会社ＥＮＧＩＮＥ　ＳＴＡＲ,,株式会社,埼玉県,川口市,前川４丁目１５番９号,,11,203,3330842,,,,,,,2024-07-16,1,,,,,エンジンスター,0
2176,9030003024704,新規,0,2024-07-16,2024-07-16,合同会社ゼロスタープロダクション,,合同会社,埼玉県,草加市,草加３丁目８番２０－３０１号,,11,221,3400043,,,,,,,2024-07-16,1,,,,,ゼロスタープロダクション,0
2180,9040001134537,新規,0,2024-07-16,2024-07-16,株式会社笑歩,,株式会社,千葉県,船橋市,二和東５丁目２７番１５号,,12,204,2740805,,,,,,,2024-07-16,1,,,,,エフ,0
2181,9040001134545,新規,0,2024-07-16,2024-07-16,株式会社シモンズ,,株式会社,千葉県,市川市,中国分５丁目２０番１３号,,12,203,2720835,,,,,,,2024-07-16,1,,,,,シモンズ,0
2182,9040001134561,新規,0,2024-07-16,2024-07-16,長木ジャパン株式会社,,株式会社,千葉県,千葉市中央区,千葉港７番２号ライオンズマンション千葉グランドタワー１９０９号,,12,101,2600026,,,,,,,2024-07-16,1,,,,,ナガキジャパン,0
2186,9050003008498,新規,0,2024-07-16,2024-07-16,Ｃ‐ＡＭＵＳＥ合同会社,,合同会社,茨城県,坂東市,長谷２２２５番３号,,08,228,3060642,,,,,,,2024-07-16,1,,,,,シーアミューズ,0
2189,9070001041961,新規,0,2024-07-16,2024-07-16,ＪＮＧ株式会社,,株式会社,群馬県,館林市,千代田町３番３４号,,10,207,3740028,,,,,,,2024-07-16,1,,,,,ジェイエヌジー,0
2193,9080103003099,新規,0,2024-07-16,2024-07-16,シーナリー・リゾート駿河合同会社,,合同会社,静岡県,駿東郡長泉町,東野６４６番地の２,,22,342,4110931,,,,,,,2024-07-16,1,,,,,シーナリーリゾートスルガ,0
2196,9090001018826,新規,0,2024-07-16,2024-07-16,株式会社ｎａｋａｎｏｇｕｍｉ,,株式会社,山梨県,北杜市,高根町清里３５４５番地２８７３,,19,209,4070301,,,,,,,2024-07-16,1,,,,,ナカノグミ,0
2212,9120001266776,新規,0,2024-07-16,2024-07-16,株式会社アクトラスホーム,,株式会社,大阪府,大阪市阿倍野区,昭和町４丁目１２番１４号,,27,119,5450011,,,,,,,2024-07-16,1,,,,,アクトラスホーム,0
2213,9120001266818,新規,0,2024-07-16,2024-07-16,株式会社ヒヤクホールディングス,,株式会社,大阪府,大阪市西区,江戸堀３丁目５番９号,,27,106,5500002,,,,,,,2024-07-16,1,,,,,ヒヤクホールディングス,0
2219,9120901049421,新規,0,2024-07-16,2024-07-16,株式会社福満エンジニアリング,,株式会社,大阪府,豊中市,岡町２－５－３０１,,27,203,5610885,,,,,,,2024-07-16,1,,,,,フクミツエンジニアリング,0
2220,9120901049462,新規,0,2024-07-16,2024-07-16,株式会社Ｗｅｅｋｌｙ,,株式会社,大阪府,豊中市,寺内１丁目７番１－４０２号,,27,203,5610872,,,,,,,2024-07-16,1,,,,,ウィークリー,0
2237,9150001027424,新規,0,2024-07-16,2024-07-16,株式会社奈良みやげ百貨,,株式会社,奈良県,奈良市,春日野町２３番地,,29,201,6308212,,,,,,,2024-07-16,1,,,,,ナラミヤゲヒャッカ,0
2240,9170003002076,新規,0,2024-07-16,2024-07-16,合同会社うめぼし,,合同会社,和歌山県,田辺市,中辺路町川合１５４７番地の２,,30,206,6461417,,,,,,,2024-07-16,1,,,,,ウメボシ,0
2241,9180001162318,新規,0,2024-07-16,2024-07-16,株式会社ＥＬＣＯＭＥ,,株式会社,愛知県,名古屋市中村区,大門町２１番地の５,,23,105,4530027,,,,,,,2024-07-16,1,,,,,イーロコム,0
2242,9180001162334,新規,0,2024-07-16,2024-07-16,株式会社ＡＲＣＡＲ,,株式会社,愛知県,名古屋市名東区,牧の原３丁目８０８番地の２,,23,115,4650072,,,,,,,2024-07-16,1,,,,,アーカー,0
2243,9180001162350,新規,0,2024-07-16,2024-07-16,株式会社渡辺コンサルタンツ,,株式会社,愛知県,名古屋市昭和区,曙町２丁目２番地の６,,23,107,4660003,,,,,,,2024-07-16,1,,,,,ワタナベコンサルタンツ,0
2244,9180003027056,新規,0,2024-07-16,2024-07-16,合同会社ＴＨ,,合同会社,愛知県,名古屋市北区,柳原４丁目４番４号中杉ビル５０４号室,,23,103,4620845,,,,,,,2024-07-16,1,,,,,ティエイチ,0
2245,9180003027064,新規,0,2024-07-16,2024-07-16,合同会社スタジオアサリ,,合同会社,愛知県,名古屋市中村区,名駅３丁目４－１０アルティメイト名駅１ｓｔ２階,,23,105,4500002,,,,,,,2024-07-16,1,,,,,スタジオアサリ,0
2246,9180301038837,新規,0,2024-07-16,2024-07-16,株式会社スリーラボ,,株式会社,愛知県,豊川市,一宮町幸１９２,,23,207,4411231,,,,,,,2024-07-16,1,,,,,スリーラボ,0
2249,9190001031488,新規,0,2024-07-16,2024-07-16,株式会社ＭＥＲＡＫＩ　ＭＯＴＯＲＳ,,株式会社,三重県,鈴鹿市,岡田２丁目４番２０号パレスＳＳＡ－１Ａ,,24,207,5130027,,,,,,,2024-07-16,1,,,,,メラキモータース,0
2251,9200001042707,新規,0,2024-07-16,2024-07-16,株式会社中納輝工,,株式会社,岐阜県,各務原市,鵜沼朝日町３丁目１１１番地１,,21,213,5090145,,,,,,,2024-07-16,1,,,,,ナカノウキコウ,0
2252,9200003006429,新規,0,2024-07-16,2024-07-16,ＨＲＢ合同会社,,合同会社,岐阜県,各務原市,鵜沼東町３丁目１０３番地,,21,213,5090126,,,,,,,2024-07-16,1,,,,,エイチアールビー,0
2260,9260001039227,新規,0,2024-07-16,2024-07-16,株式会社精電社ＨＤ,,株式会社,岡山県,玉野市,玉原３丁目３番１０号,,33,204,7060014,,,,,,,2024-07-16,1,,,,,セイデンシャホールディング,0
2263,9290001106404,新規,0,2024-07-16,2024-07-16,キリン産業株式会社,,株式会社,福岡県,福岡市東区,香椎照葉７丁目５番３－６０５号,,40,131,8130017,,,,,,,2024-07-16,1,,,,,キリンサンギョウ,0
2264,9290001106503,新規,0,2024-07-16,2024-07-16,ユナイテイト株式会社,,株式会社,福岡県,朝倉郡筑前町,上高場字犬竹９７３番５,,40,447,8380821,,,,,,,2024-07-16,1,,,,,ユナイテイト,0
2271,9320001020576,新規,0,2024-07-16,2024-07-16,株式会社クロスコネクト,,株式会社,大分県,大分市,舞鶴町１丁目３番３０号ＳＴビル４０３号,,44,201,8700044,,,,,,,2024-07-16,1,,,,,,0
2274,9330001032257,新規,0,2024-07-16,2024-07-16,株式会社Ｅ・Ｍ・Ｆ,,株式会社,熊本県,熊本市北区,植木町味取９０番地,,43,105,8610105,,,,,,,2024-07-16,1,,,,,イーエムエフ,0
2275,9340001026646,新規,0,2024-07-16,2024-07-16,奄美きょらふぁーむ株式会社,,株式会社,鹿児島県,奄美市,名瀬大字西仲勝１２２２番地３,,46,222,8940772,,,,,,,2024-07-16,1,,,,,アマミキョラファーム,0
2277,9340003004542,新規,0,2024-07-16,2024-07-16,合同会社Ｉｎｆｉｎｉｔｙ,,合同会社,鹿児島県,霧島市,国分下井２４１５番地４,,46,218,8994463,,,,,,,2024-07-16,1,,,,,インフィニティ,0
2281,9350001019087,新規,0,2024-07-16,2024-07-16,株式会社笑生,,株式会社,宮崎県,日南市,吾田西３丁目１０番２３号,,45,204,8892536,,,,,,,2024-07-16,1,,,,,エガオ,0
2284,9360001033938,新規,0,2024-07-16,2024-07-16,株式会社上等,,株式会社,沖縄県,宜野湾市,大山７丁目１１番７－４０１号ライオンズ宜野湾セントフィールズ,,47,205,9012223,,,,,,,2024-07-16,1,,,,,ジョウトウ,0
2288,9390001017681,新規,0,2024-07-16,2024-07-16,株式会社山形良縁,,株式会社,山形県,山形市,相生町５－４１ＤＭビル相生町２０３号室,,06,201,9900055,,,,,,,2024-07-16,1,,,,,ヤマガタリョウエン,0
2304,9450003002502,新規,0,2024-07-16,2024-07-16,合同会社プロフィット,,合同会社,北海道,上川郡東神楽町,ひじり野北一条４丁目１―２,,01,453,0711521,,,,,,,2024-07-16,1,,,,,プロフィット,0
2305,9450003002519,新規,0,2024-07-16,2024-07-16,合同会社小石川工業,,合同会社,北海道,旭川市,五条通２３丁目２１９７番地２９,,01,204,0788215,,,,,,,2024-07-16,1,,,,,コイシカワコウギョウイ,0
2308,9700150004135,新規,0,2024-07-16,2015-10-09,国際アミノ酸科学協会,,その他,東京都,千代田区,一ツ橋１丁目１－１パレスサイドビル　株式会社毎日学術フォーラム内,,13,101,1000003,,,,,,,2015-10-09,1,,,,,コクサイアミノサンカガクキヨウカイ,0
