sequenceNumber,corporateNumber,process,correct,updateDate,changeDate,name,nameImageId,kind,prefectureName,cityName,streetNumber,addressImageId,prefectureCode,cityCode,postCode,addressOutside,addressOutsideImageId,closeDate,closeCause,successorCorporateNumber,changeCause,assignmentDate,latest,enName,enPrefectureName,enCityName,enAddressOutside,furigana,hihyoji
1,1010001022941,登記記録の閉鎖等,0,2024-04-22,2024-04-08,株式会社地域科学研究会,,株式会社,東京都,千代田区,平河町２丁目３番１０号,,13,101,1020093,,,2024-04-08,清算の結了等,,,2015-10-05,1,,,,,チイキカガクケンキュウカイ,0
6,1010001187883,登記記録の閉鎖等,0,2024-04-22,2024-04-08,株式会社ＯＵＮホールディングス,,株式会社,東京都,千代田区,丸の内１丁目９番２号,,13,101,1000005,,,2024-04-08,清算の結了等,,,2017-11-24,1,,,,,オーユーエヌホールディングス,0
18,1010005036112,登記記録の閉鎖等,0,2024-04-22,2024-04-15,一般社団法人百道浜開発,,その他の設立登記法人,東京都,千代田区,丸の内３丁目１番１号東京共同会計事務所内,,13,101,1000005,,,2024-04-15,清算の結了等,,,2023-01-11,1,,,,,モモチハマカイハツ,0
31,1010601033066,登記記録の閉鎖等,0,2024-04-22,2024-04-17,株式会社ヒラタ,,株式会社,東京都,足立区,扇３丁目２番１号,,13,121,1230873,,,2024-04-17,清算の結了等,,,2015-10-05,1,,,,,ヒラタ,0
35,1010802007109,登記記録の閉鎖等,0,2024-04-22,2024-04-11,有限会社島敏商事,,有限会社,東京都,大田区,北嶺町１番６号,,13,111,1450073,,,2024-04-11,清算の結了等,,,2015-10-05,1,,,,,シマトシショウジ,0
38,1010905001306,登記記録の閉鎖等,0,2024-04-22,2024-04-01,社会福祉法人櫂,,その他の設立登記法人,東京都,世田谷区,上馬３丁目７番８号トーヨーＢＬＤＧ,,13,112,1540011,,,2024-04-01,合併による解散等,8010905001308,令和６年４月１日東京都世田谷区若林五丁目２番９号社会福祉法人藍（8010905001308）に合併し解散,2015-10-05,1,,,,,カイ,0
47,1011201016618,登記記録の閉鎖等,0,2024-04-22,2024-04-17,株式会社Ｂ．Ｃ．Ｍｅｍｂｅｒｓ,,株式会社,東京都,千代田区,神田練塀町３富士ソフト秋葉原ビル１２ＦＤＭＭ．ｍａｋｅＡＫＩＢＡＢａｓｅ２６０９,,13,101,1010022,,,2024-04-17,合併による解散等,7180001058889,令和６年４月１日名古屋市中区錦一丁目５番１３号株式会社フリースタイル（7180001058889）に合併し解散,2015-10-05,1,,,,,ビーシーメンバーズ,0
59,1012402004007,登記記録の閉鎖等,0,2024-04-22,2024-04-11,有限会社永安,,有限会社,東京都,国分寺市,南町２丁目１番４１号,,13,214,1850021,,,2024-04-11,清算の結了等,,,2015-10-05,1,,,,,エイアン,0
77,1020002055683,登記記録の閉鎖等,0,2024-04-22,2024-04-15,ジャパン工業有限会社,,有限会社,神奈川県,横浜市旭区,二俣川２丁目２１番地,,14,112,2410821,,,2024-04-15,清算の結了等,,,2015-10-05,1,,,,,ジャパンコウギョウ,0
79,1020002073677,登記記録の閉鎖等,0,2024-04-22,2024-04-11,有限会社フルタ,,有限会社,神奈川県,横浜市中区,南仲通５丁目５７番地,,14,104,2310006,,,2024-04-11,清算の結了等,,,2015-10-05,1,,,,,フルタ,0
111,1060002034394,登記記録の閉鎖等,0,2024-04-22,2024-04-12,有限会社関根建設,,有限会社,栃木県,下都賀郡壬生町,元町１３番１０号,,09,361,3210223,,,2024-04-12,清算の結了等,,,2015-10-05,1,,,,,セキネケンセツ,0
117,1080402021239,登記記録の閉鎖等,0,2024-04-22,2024-04-16,有限会社松下ＩＮＧ,,有限会社,静岡県,磐田市,西貝塚１５６６番地１,,22,211,4380026,,,2024-04-16,清算の結了等,,,2015-10-05,1,,,,,マツシタイング,0
124,1120001000481,登記記録の閉鎖等,0,2024-04-22,2024-04-12,株式会社サワイ,,株式会社,大阪府,大阪市旭区,高殿４丁目４番２３号,,27,117,5350031,,,2024-04-12,清算の結了等,,,2015-10-05,1,,,,,サワイ,0
139,1120001253930,登記記録の閉鎖等,0,2024-04-22,2024-04-11,エコワンダー株式会社,,株式会社,大阪府,大阪市住吉区,杉本１丁目５番２２－３０１号,,27,120,5580022,,,2024-04-11,清算の結了等,,,2023-04-12,1,,,,,エコワンダー,0
149,1120103004059,登記記録の閉鎖等,0,2024-04-22,2024-04-17,三祐商事合同会社,,合同会社,大阪府,羽曳野市,野々上５丁目１６番９号,,27,222,5830871,,,2024-04-17,清算の結了等,,,2021-02-26,1,,,,,サンユウショウジ,0
150,1120105008561,登記記録の閉鎖等,0,2024-04-22,2024-04-01,社会福祉法人健徳会,,その他の設立登記法人,大阪府,堺市北区,常磐町３丁１３番５号,,27,146,5918001,,,2024-04-01,合併による解散等,4120105005382,令和６年４月１日大阪府河内長野市小山田町４４８番地の２社会福祉法人博光福祉会（4120105005382）に合併し解散,2016-09-07,1,,,,,ケントクカイ,0
162,1140002026838,登記記録の閉鎖等,0,2024-04-22,2024-04-16,有限会社コーシン,,有限会社,兵庫県,尼崎市,東七松町１丁目１５番２０号,,28,202,6600051,,,2024-04-16,清算の結了等,,,2015-10-05,1,,,,,コーシン,0
176,1180002070147,登記記録の閉鎖等,0,2024-04-22,2024-04-05,有限会社山本塗装,,有限会社,愛知県,小牧市,新町３丁目２１１番地,,23,219,4850013,,,2024-04-05,清算の結了等,,,2015-10-05,1,,,,,ヤマモトトソウ,0
177,1180003023194,登記記録の閉鎖等,0,2024-04-22,2024-04-10,レガリーノコンサルタント合同会社,,合同会社,愛知県,愛知郡東郷町,春木台２丁目４番地,,23,302,4700161,,,2024-04-10,清算の結了等,,,2021-11-17,1,,,,,レガリーノコンサルタント,0
179,1180302022434,登記記録の閉鎖等,0,2024-04-22,2024-04-10,有限会社鈴木電工,,有限会社,愛知県,豊田市,小坂町１０丁目２９番地４,,23,211,4710035,,,2024-04-10,清算の結了等,,,2015-10-05,1,,,,,スズキデンコウ,0
183,1190001003841,登記記録の閉鎖等,0,2024-04-22,2024-04-16,株式会社アプリシエイト,,株式会社,三重県,津市,片田新町１０４番地１４,,24,201,5140083,,,2024-04-16,清算の結了等,,,2015-10-05,1,,,,,アプリシエイト,0
190,1210005008041,登記記録の閉鎖等,0,2024-04-22,2024-03-29,医療法人寿人堂,,その他の設立登記法人,福井県,鯖江市,三六町１丁目２番６号,,18,207,9160021,,,2024-03-29,合併による解散等,6210005006890,令和６年３月２９日福井県越前市塚町２１４番地医療法人笠原病院（6210005006890）に合併し解散,2015-10-05,1,,,,,ジュジンドウ,0
197,1240002015698,登記記録の閉鎖等,0,2024-04-22,2024-04-18,有限会社松村製作所,,有限会社,広島県,広島市安佐北区,落合南２丁目１６番７号,,34,106,7391732,,,2024-04-18,清算の結了等,,,2015-10-05,1,,,,,マツムラセイサクショ,0
201,1240005004467,登記記録の閉鎖等,0,2024-04-22,2024-03-22,圓泉寺,,その他の設立登記法人,広島県,山県郡北広島町,大塚２２１５番地,,34,369,7312107,,,2024-03-22,合併による解散等,9240005004468,令和６年３月２２日広島県山県郡北広島町大朝１９９１番地圓立寺（9240005004468）に合併し解散,2015-10-05,1,,,,,エンセンジ,0
210,1290001090250,登記記録の閉鎖等,0,2024-04-22,2024-04-01,株式会社Ｄジェント,,株式会社,福岡県,福岡市中央区,高砂２丁目６番２号,,40,133,8100011,,,2024-04-01,合併による解散等,2290001034529,令和６年４月１日福岡市中央区高砂二丁目６番２号株式会社Ｊフォスター（2290001034529）に合併し解散,2020-09-15,1,,,,,ディージェント,0
223,1300002004546,登記記録の閉鎖等,0,2024-04-22,2024-04-16,有限会社グリコ,,有限会社,佐賀県,小城市,三日月町織島１９００番地１,,41,208,8450023,,,2024-04-16,清算の結了等,,,2015-10-05,1,,,,,グリコ,0
239,1360001021157,登記記録の閉鎖等,0,2024-04-22,2024-04-02,株式会社琉通工エンジニアリング,,株式会社,沖縄県,中頭郡西原町,字小那覇１２７５番地,,47,329,9030103,,,2024-04-02,合併による解散等,3360001002246,令和６年４月１日沖縄県那覇市安里三丁目４番１２号琉球通信工事株式会社（3360001002246）に合併し解散,2016-08-09,1,,,,,リュウツウコウエンジニアリング,0
250,1380002000488,登記記録の閉鎖等,0,2024-04-22,2024-04-11,有限会社ゆきうさぎ,,有限会社,福島県,福島市,丸子字芳堀１３番２,,07,201,9600111,,,2024-04-11,清算の結了等,,,2015-10-05,1,,,,,ユキウサギ,0
251,1380002002559,登記記録の閉鎖等,0,2024-04-22,2024-04-11,有限会社長沢魚店,,有限会社,福島県,福島市,仲間町２番１４号,,07,201,9608105,,,2024-04-11,清算の結了等,,,2015-10-05,1,,,,,ナガサワウオテン,0
256,1400002008850,登記記録の閉鎖等,0,2024-04-22,2024-04-08,有限会社エクステリアホーム畠山,,有限会社,岩手県,花巻市,上根子字法領１２０番地１５,,03,205,0250043,,,2024-04-08,清算の結了等,,,2015-10-05,1,,,,,エクステリアホームハタケヤマ,0
258,1420001006481,登記記録の閉鎖等,0,2024-04-22,2024-04-17,新北菱林産株式会社,,株式会社,青森県,八戸市,大字河原木字青森谷地３番地,,02,203,0391161,,,2024-04-17,合併による解散等,8010001008769,令和６年４月１日東京都墨田区両国二丁目１０番１４号三菱製紙株式会社（8010001008769）に合併し解散,2015-10-05,1,,,,,シンホクリョウリンサン,0
281,2010001168296,登記記録の閉鎖等,0,2024-04-22,2024-04-01,リケンベッツファーマ株式会社,,株式会社,埼玉県,川口市,元郷４丁目１番８号,,11,203,3320011,,,2024-04-01,合併による解散等,2011401004099,令和６年４月１日埼玉県入間郡越生町大字成瀬８２９番地６田村製薬株式会社（2011401004099）に合併し解散,2015-10-05,1,,,,,リケンベッツファーマ,0
283,2010001210446,登記記録の閉鎖等,0,2024-04-22,2024-04-05,ＴＣＨＣホールディングス株式会社,,株式会社,東京都,千代田区,霞が関３丁目２番５号,,13,101,1000013,,,2024-04-05,清算の結了等,,,2020-06-24,1,,,,,ティーシーエイチシーホールディングス,0
291,2010002019259,登記記録の閉鎖等,0,2024-04-22,2024-04-08,有限会社久助,,有限会社,東京都,中央区,日本橋人形町２丁目２１番１１号,,13,102,1030013,,,2024-04-08,清算の結了等,,,2015-10-05,1,,,,,キュウスケ,0
295,2010102004169,登記記録の閉鎖等,0,2024-04-22,2024-04-19,有限会社高倉輸送,,有限会社,東京都,八王子市,石川町１１８番地３,,13,201,1920032,,,2024-04-19,清算の結了等,,,2015-10-05,1,,,,,,0
300,2010401169530,登記記録の閉鎖等,0,2024-04-22,2024-04-02,株式会社プロジェクトテクノロジーズ,,株式会社,東京都,港区,麻布台１丁目３番１号,,13,103,1060041,,,2024-04-02,合併による解散等,3011301020559,令和６年４月１日東京都港区麻布台一丁目３番１号株式会社アルトワイズ（3011301020559）に合併し解散,2022-09-05,1,,,,,プロジェクトテクノロジーズ,0
320,2010701020401,登記記録の閉鎖等,0,2024-04-22,2024-04-05,株式会社レスターコミュニケーションズ,,株式会社,東京都,港区,港南２丁目１０番９号,,13,103,1080075,,,2024-04-05,合併による解散等,7010701022780,令和６年４月１日東京都港区港南二丁目１０番９号株式会社レスター（7010701022780）に合併し解散,2015-10-05,1,,,,,レスターコミュニケーションズ,0
333,2011001127168,登記記録の閉鎖等,0,2024-04-22,2024-04-16,ＯｎｅＯｃｅａｎ株式会社,,株式会社,兵庫県,神戸市中央区,小野柄通４丁目１番２２号アーバンエース三宮ビル９Ｆ,,28,110,6510088,,,2024-04-16,清算の結了等,,,2019-03-26,1,,,,,ワンオーシャン,0
338,2011101082916,登記記録の閉鎖等,0,2024-04-22,2024-04-11,株式会社あいかん社,,株式会社,神奈川県,横浜市磯子区,下町２番２１号,,14,107,2350004,,,2024-04-11,清算の結了等,,,2018-01-22,1,,,,,アイカンシャ,0
340,2011102019280,登記記録の閉鎖等,0,2024-04-22,2024-04-10,ルトリート有限会社,,有限会社,東京都,新宿区,納戸町３３番地荻野ビル,,13,104,1620837,,,2024-04-10,清算の結了等,,,2015-10-05,1,,,,,ルトリート,0
349,2011401013463,登記記録の閉鎖等,0,2024-04-22,2024-04-11,株式会社オクタ,,株式会社,東京都,板橋区,氷川町４３番９号,,13,119,1730013,,,2024-04-11,清算の結了等,,,2015-10-05,1,,,,,オクタ,0
356,2011701019169,登記記録の閉鎖等,0,2024-04-22,2024-04-09,株式会社ライコウ,,株式会社,東京都,江戸川区,瑞江２丁目３１番９号,,13,123,1320011,,,2024-04-09,清算の結了等,,,2015-10-05,1,,,,,ライコウ,0
359,2011705001230,登記記録の閉鎖等,0,2024-04-22,2024-04-11,特定非営利活動法人小さな思い,,その他の設立登記法人,東京都,江戸川区,中葛西３丁目２０番２１号,,13,123,1340083,,,2024-04-11,清算の結了等,,,2015-10-05,1,,,,,チイサナオモイ,0
389,2030001006074,登記記録の閉鎖等,0,2024-04-22,2024-04-15,株式会社ＴＳＭ,,株式会社,埼玉県,さいたま市大宮区,高鼻町１丁目８７番地,,11,103,3300803,,,2024-04-15,清算の結了等,,,2015-10-05,1,,,,,ティーエスエム,0
413,2070001017885,登記記録の閉鎖等,0,2024-04-22,2024-04-17,株式会社美容室ジョー,,株式会社,群馬県,渋川市,渋川２０７１番地３２,,10,208,3770008,,,2024-04-17,清算の結了等,,,2015-10-05,1,,,,,ビヨウシツジョー,0
430,2120001206763,登記記録の閉鎖等,0,2024-04-22,2024-04-15,リズムテラス株式会社,,株式会社,大阪府,大阪市福島区,福島１丁目１番１２号堂島リバーフォーラム３階,,27,103,5530003,,,2024-04-15,清算の結了等,,,2017-07-11,1,,,,,リズムテラス,0
467,2180001034928,登記記録の閉鎖等,0,2024-04-22,2024-04-08,株式会社音楽堂,,株式会社,愛知県,江南市,山尻町大桑１７７番地,,23,217,4838032,,,2024-04-08,清算の結了等,,,2015-10-05,1,,,,,オンガクドウ,0
470,2180001125941,登記記録の閉鎖等,0,2024-04-22,2024-04-05,株式会社サンテス,,株式会社,愛知県,名古屋市港区,小碓３丁目１０１,,23,111,4550801,,,2024-04-05,清算の結了等,,,2016-12-20,1,,,,,サンテス,0
477,2180002052276,登記記録の閉鎖等,0,2024-04-22,2024-04-09,株式会社ユタカエナジー,,株式会社,愛知県,西春日井郡豊山町,大字豊場字城屋敷１４２番地,,23,342,4800202,,,2024-04-09,清算の結了等,,,2015-10-05,1,,,,,ユタカエナジー,0
478,2180002069477,登記記録の閉鎖等,0,2024-04-22,2024-04-05,有限会社寺井精工,,有限会社,愛知県,小牧市,西島町２７番地の３,,23,219,4850078,,,2024-04-05,清算の結了等,,,2015-10-05,1,,,,,テライセイコウ,0
482,2180302007079,登記記録の閉鎖等,0,2024-04-22,2024-04-09,河口運送有限会社,,有限会社,愛知県,豊橋市,東細谷町字深田４５番地の３,,23,201,4413112,,,2024-04-09,清算の結了等,,,2015-10-05,1,,,,,カワグチウンソウ,0
483,2180303005726,登記記録の閉鎖等,0,2024-04-22,2024-04-08,ＳＧ商会合同会社,,合同会社,愛知県,新城市,野田字観音５６番地１,,23,221,4411343,,,2024-04-08,清算の結了等,,,2023-05-29,1,,,,,エスジーショウカイ,0
496,2220002000817,登記記録の閉鎖等,0,2024-04-22,2024-04-11,有限会社アイムプランニング,,有限会社,石川県,金沢市,寺町３丁目６番１５号,,17,201,9218033,,,2024-04-11,清算の結了等,,,2015-10-05,1,,,,,アイムプランニング,0
520,2290802006503,登記記録の閉鎖等,0,2024-04-22,2024-04-12,森永工業有限会社,,有限会社,福岡県,北九州市小倉北区,東篠崎１丁目１３番２号,,40,106,8020072,,,2024-04-12,清算の結了等,,,2015-10-05,1,,,,,モリナガコウギョウ,0
525,2310002000097,登記記録の閉鎖等,0,2024-04-22,2024-04-12,秋口景観設計有限会社,,有限会社,長崎県,長崎市,鳴見町３１番地８,,42,201,8512214,,,2024-04-12,清算の結了等,,,2015-10-05,1,,,,,アキグチケイカンセッケイ,0
545,2360001023755,登記記録の閉鎖等,0,2024-04-22,2024-04-01,株式会社かねひで総合研究所,,株式会社,沖縄県,那覇市,旭町１１２番地１,,47,201,9000029,,,2024-04-01,合併による解散等,6360001000742,令和６年４月１日沖縄県那覇市旭町１１２番地１金秀ホールディングス株式会社（6360001000742）に合併し解散,2018-04-04,1,,,,,カネヒデソウゴウケンキュウジョ,0
594,3010005029304,登記記録の閉鎖等,0,2024-04-22,2024-04-12,一般社団法人ＣＣＦ名古屋,,その他の設立登記法人,東京都,中央区,日本橋１丁目４番１号,,13,102,1030027,,,2024-04-12,清算の結了等,,,2018-11-05,1,,,,,シーシーエフナゴヤ,0
595,3010005030559,登記記録の閉鎖等,0,2024-04-22,2024-04-12,ＨＬＣホールディング特定目的会社,,その他の設立登記法人,東京都,千代田区,丸の内３丁目１番１号東京共同会計事務所内,,13,101,1000005,,,2024-04-12,清算の結了等,,,2019-08-02,1,,,,,エイチエルシーホールディング,0
608,3010601016647,登記記録の閉鎖等,0,2024-04-22,2024-04-11,株式会社吉岡商店,00051504,株式会社,東京都,墨田区,八広４丁目４３番９号,,13,107,1310041,,,2024-04-11,清算の結了等,,,2015-10-05,1,,,,,ヨシオカショウテン,0
619,3010901054586,登記記録の閉鎖等,0,2024-04-22,2024-04-15,株式会社ＬＩＮＫ,,株式会社,東京都,世田谷区,北沢１丁目４５番７号,,13,112,1550031,,,2024-04-15,合併による解散等,8011001099336,令和６年４月１５日東京都世田谷区代沢五丁目２９番１４号株式会社ＭＯＤＥ　ＬＩＮＫ（8011001099336）に合併し解散,2024-01-31,1,,,,,リンク,0
639,3011601023682,登記記録の閉鎖等,0,2024-04-22,2024-04-16,サンネクアニメーション株式会社,,株式会社,東京都,三鷹市,上連雀４丁目３番１号宮沢ビル２Ｆ,,13,204,1810012,,,2024-04-16,清算の結了等,,,2019-10-08,1,,,,,サンネクアニメーション,0
643,3012302002661,登記記録の閉鎖等,0,2024-04-22,2024-04-12,有限会社セキヤスポーツ,,有限会社,東京都,町田市,金森４丁目３番５号,,13,209,1940012,,,2024-04-12,清算の結了等,,,2015-10-05,1,,,,,セキヤスポーツ,0
648,3012802003804,登記記録の閉鎖等,0,2024-04-22,2024-04-10,有限会社三浦防災設備,,有限会社,東京都,昭島市,大神町２丁目５番２０号,,13,207,1960013,,,2024-04-10,清算の結了等,,,2015-10-05,1,,,,,ミウラボウサイセツビ,0
652,3020001067406,登記記録の閉鎖等,0,2024-04-22,2024-04-02,株式会社アヴァンス,,株式会社,神奈川県,川崎市宮前区,野川台１丁目２番３号,,14,136,2160043,,,2024-04-02,合併による解散等,8021001026041,令和６年４月１日神奈川県大和市西鶴間一丁目９番１８号薬樹株式会社（8021001026041）に合併し解散,2015-10-05,1,,,,,アヴァンス,0
656,3020002039833,登記記録の閉鎖等,0,2024-04-22,2024-04-11,有限会社日吉サッシ,,有限会社,神奈川県,横浜市鶴見区,獅子ケ谷２丁目３４番５０号,,14,101,2300073,,,2024-04-11,清算の結了等,,,2015-10-05,1,,,,,ヒヨシサッシ,0
668,3030001008219,登記記録の閉鎖等,0,2024-04-22,2024-04-15,株式会社みやま典礼,,株式会社,埼玉県,さいたま市大宮区,高鼻町１丁目８７番地,,11,103,3300803,,,2024-04-15,清算の結了等,,,2015-10-05,1,,,,,ミヤマテンレイ,0
671,3030001097039,登記記録の閉鎖等,0,2024-04-22,2024-04-12,株式会社ＨＡＳ－ＥＬ　ＦＯＯＤＳ,,株式会社,埼玉県,狭山市,大字青柳７１７番地の１,,11,215,3501301,,,2024-04-12,合併による解散等,4030002036382,令和６年４月１日埼玉県狭山市中新田１１５８番地の１株式会社ハス日本商事（4030002036382）に合併し解散,2015-10-05,1,,,,,ハセルフーズ,0
685,3040001105428,登記記録の閉鎖等,0,2024-04-22,2024-04-15,株式会社タナロ,,株式会社,東京都,台東区,蔵前４丁目３０番２－９０１号,,13,106,1110051,,,2024-04-15,清算の結了等,,,2018-07-13,1,,,,,タナロ,0
706,3110002026491,登記記録の閉鎖等,0,2024-04-22,2024-04-16,有限会社山善,,有限会社,新潟県,糸魚川市,大字能生１９４１番３,,15,216,9491352,,,2024-04-16,清算の結了等,,,2015-10-05,1,,,,,ヤマゼン,0
707,3120001060359,登記記録の閉鎖等,0,2024-04-22,2024-04-15,株式会社あべにゅー,,株式会社,大阪府,大阪市淀川区,西中島７丁目１番３号,,27,123,5320011,,,2024-04-15,清算の結了等,,,2015-10-05,1,,,,,アベニュー,0
719,3120001220623,登記記録の閉鎖等,0,2024-04-22,2024-04-17,加美東株式会社,,株式会社,大阪府,大阪市平野区,加美東６丁目１１番４号,,27,126,5470002,,,2024-04-17,清算の結了等,,,2019-04-24,1,,,,,カミヒガシ,0
728,3120002049129,登記記録の閉鎖等,0,2024-04-22,2024-04-15,有限会社根日女の湯,,有限会社,大阪府,大阪市西区,京町堀２丁目１０番２０号,,27,106,5500003,,,2024-04-15,清算の結了等,,,2015-10-05,1,,,,,ネヒメノユ,0
744,3140002004560,登記記録の閉鎖等,0,2024-04-22,2024-04-15,有限会社三秀設計,,有限会社,兵庫県,神戸市西区,竜が岡５丁目１０番地の４,,28,111,6512412,,,2024-04-15,清算の結了等,,,2015-10-05,1,,,,,サンシュウセッケイ,0
748,3140005018054,登記記録の閉鎖等,0,2024-04-22,2024-04-17,医療法人社団林泌尿器科,,その他の設立登記法人,兵庫県,川西市,中央町８番８号,,28,217,6660016,,,2024-04-17,清算の結了等,,,2015-10-05,1,,,,,ハヤシヒニョウキカ,0
753,3180001085961,登記記録の閉鎖等,0,2024-04-22,2024-04-05,テクノ緑化株式会社,,株式会社,愛知県,稲沢市,大矢町地蔵堂５２番地１,,23,220,4928412,,,2024-04-05,清算の結了等,,,2015-10-05,1,,,,,テクノリョッカ,0
762,3180002080029,登記記録の閉鎖等,0,2024-04-22,2024-04-04,有限会社トラスティ,,有限会社,愛知県,一宮市,大和町妙興寺字中之町３番地２,,23,203,4910922,,,2024-04-04,清算の結了等,,,2015-10-05,1,,,,,トラスティ,0
773,3220001010618,登記記録の閉鎖等,0,2024-04-22,2024-04-10,富岳宅建株式会社,,株式会社,石川県,金沢市,幸町１８番１１号,,17,201,9200968,,,2024-04-10,清算の結了等,,,2015-10-05,1,,,,,フガクタッケン,0
780,3260005010676,登記記録の閉鎖等,0,2024-04-22,2024-04-08,一般社団法人Ｖｉｌｌａｇｅ　Ｂａｎｋ　Ｋａｓａｏｋａ,,その他の設立登記法人,岡山県,笠岡市,茂平１６０番地１,,33,205,7140062,,,2024-04-08,清算の結了等,,,2019-11-12,1,,,,,ヴィレッジバンクカサオカ,0
783,3280001003442,登記記録の閉鎖等,0,2024-04-22,2024-04-01,直江石油株式会社,,株式会社,島根県,出雲市,斐川町直江４６６４番地１,,32,203,6990631,,,2024-04-01,合併による解散等,3280001005653,令和６年４月１日島根県雲南市木次町里方１０７２番地１株式会社エヌウェーブ（3280001005653）に合併し解散,2015-10-05,1,,,,,ナオエセキユ,0
795,3290001103786,登記記録の閉鎖等,0,2024-04-22,2024-04-01,株式会社シニア英語,,株式会社,福岡県,福岡市南区,大橋２丁目２５－１０ロマネスク大橋３０２号室,,40,134,8150033,,,2024-04-01,清算の結了等,,,2023-11-27,1,,,,,シニアエイゴ,0
797,3290801008697,登記記録の閉鎖等,0,2024-04-22,2024-04-11,九州システム・センサー株式会社,,株式会社,福岡県,北九州市小倉北区,浅野２丁目１番２１号駅西幹線ビル３０４号,,40,106,8020001,,,2024-04-11,清算の結了等,,,2015-10-05,1,,,,,キュウシュウシステムセンサー,0
812,3340003002312,登記記録の閉鎖等,0,2024-04-22,2024-04-12,合同会社むすひ,,合同会社,鹿児島県,鹿児島郡三島村,大字硫黄島３９番地,,46,303,8900901,,,2024-04-12,清算の結了等,,,2017-05-08,1,,,,,ムスヒ,0
824,3380003002259,登記記録の閉鎖等,0,2024-04-22,2024-04-10,學建合同会社,,合同会社,福島県,郡山市,片平町字的場５番地の１,,07,203,9630211,,,2024-04-10,清算の結了等,,,2015-10-05,1,,,,,ガッケン,0
825,3400002000491,登記記録の閉鎖等,0,2024-04-22,2024-04-08,有限会社馬内電設,,有限会社,岩手県,盛岡市,厨川２丁目４番４３号,,03,201,0200124,,,2024-04-08,清算の結了等,,,2015-10-05,1,,,,,マウチデンセツ,0
829,3410001006373,登記記録の閉鎖等,0,2024-04-22,2024-03-27,株式会社秋田イマイ,,株式会社,秋田県,北秋田市,川井字才ノ神６２番地の４,,05,213,0184211,,,2024-03-27,合併による解散等,4480001009757,令和６年３月１日徳島県板野郡藍住町富吉字富吉２１番地株式会社五郎八（4480001009757）に合併し解散,2015-10-05,1,,,,,アキタイマイ,0
830,3410001006522,登記記録の閉鎖等,0,2024-04-22,2024-04-08,アンデス縫製株式会社,,株式会社,秋田県,鹿角市,十和田錦木字前谷地３６番地,,05,209,0185336,,,2024-04-08,清算の結了等,,,2015-10-05,1,,,,,アンデスホウセイ,0
838,3430001040569,登記記録の閉鎖等,0,2024-04-22,2024-04-15,株式会社ＹＭＳ,,株式会社,北海道,札幌市中央区,大通東７丁目１２番地１９,,01,101,0600041,,,2024-04-15,清算の結了等,,,2015-10-05,1,,,,,ワイエムエス,0
845,3430002020462,登記記録の閉鎖等,0,2024-04-22,2024-04-12,有限会社山口,,有限会社,北海道,札幌市東区,北四十四条東７丁目８２３番地,,01,103,0070844,,,2024-04-12,清算の結了等,,,2015-10-05,1,,,,,ヤマグチ,0
850,3440002000851,登記記録の閉鎖等,0,2024-04-22,2024-04-16,有限会社海峡社,,有限会社,北海道,函館市,豊川町１０番１７号,,01,202,0400065,,,2024-04-16,清算の結了等,,,2015-10-05,1,,,,,カイキョウイシャ,0
854,3470001018363,登記記録の閉鎖等,0,2024-04-22,2024-04-12,株式会社ＳＯＲＡＵＭＩ,,株式会社,香川県,善通寺市,上吉田町８丁目５番１９号ｆｏｒｅｓｔビル,,37,204,7650011,,,2024-04-12,清算の結了等,,,2021-01-25,1,,,,,ソラウミ,0
856,3480001001624,登記記録の閉鎖等,0,2024-04-22,2024-04-15,那住商事株式会社,00005781,株式会社,徳島県,徳島市,問屋町１５５番地,,36,201,7708056,,,2024-04-15,清算の結了等,,,2015-10-05,1,,,,,ナズミショウジ,0
868,4010001130840,登記記録の閉鎖等,0,2024-04-22,2024-04-01,第一アルコール株式会社,,株式会社,東京都,中野区,中野４丁目１０番２号,,13,114,1640001,,,2024-04-01,合併による解散等,8010001034939,令和６年４月１日東京都中野区中野四丁目１０番２号メルシャン株式会社（8010001034939）に合併し解散,2015-10-05,1,,,,,ダイイチアルコール,0
901,4010701020374,登記記録の閉鎖等,0,2024-04-22,2024-04-18,株式会社エイアンドエイ綜合設計,,株式会社,東京都,品川区,上大崎３丁目３番６号,,13,109,1410021,,,2024-04-18,清算の結了等,,,2015-10-05,1,,,,,エイアンドエイソウゴウセッケイ,0
906,4011001053569,登記記録の閉鎖等,0,2024-04-22,2024-04-09,株式会社ラピースエージェント,,株式会社,東京都,大田区,田園調布４丁目６番９号,,13,111,1450071,,,2024-04-09,合併による解散等,5011001067873,令和６年３月３１日東京都大田区田園調布四丁目６番９号株式会社Ｌａｐｅａｃｅ　Ｄｒｅａｍ（5011001067873）に合併し解散,2015-10-05,1,,,,,ラピースエージェント,0
920,4011401005764,登記記録の閉鎖等,0,2024-04-22,2024-04-11,北斗電研株式会社,,株式会社,東京都,板橋区,中台１丁目４９番１５号,,13,119,1740064,,,2024-04-11,清算の結了等,,,2015-10-05,1,,,,,ホクトデンケン,0
936,4011803003531,登記記録の閉鎖等,0,2024-04-22,2024-04-18,ＧＴ　ＡＤＶＡＮＣＥ合同会社,,合同会社,東京都,葛飾区,亀有５丁目４２番１－３０１号レクセルマンション亀有,,13,122,1250061,,,2024-04-18,清算の結了等,,,2018-12-07,1,,,,,ジーティーアドバンス,0
946,4013305002887,登記記録の閉鎖等,0,2024-04-22,2024-04-09,一般社団法人命理コンサルタント協会,,その他の設立登記法人,東京都,豊島区,西池袋３丁目２９番３号梅本ビル４Ｄ,,13,116,1710021,,,2024-04-09,清算の結了等,,,2019-03-01,1,,,,,メイリコンサルタントキョウカイ,0
955,4020002077386,登記記録の閉鎖等,0,2024-04-22,2024-04-11,有限会社アマネ,,有限会社,神奈川県,横浜市保土ケ谷区,上菅田町５１２番地,,14,106,2400051,,,2024-04-11,清算の結了等,,,2015-10-05,1,,,,,アマネ,0
983,4040001027448,登記記録の閉鎖等,0,2024-04-22,2024-04-10,株式会社フジショク,,株式会社,千葉県,松戸市,高塚新田２６３番地の３,,12,207,2702222,,,2024-04-10,合併による解散等,8040001130669,令和６年４月１日千葉市美浜区中瀬一丁目１０番地２株式会社シー・ワイ・ピー・２（8040001130669）に合併し解散,2015-10-05,1,,,,,フジショク,0
1006,4110001023522,登記記録の閉鎖等,0,2024-04-22,2024-04-15,株式会社三浦ペット,,株式会社,新潟県,長岡市,三ツ郷屋２丁目１番地１４,,15,202,9402111,,,2024-04-15,清算の結了等,,,2015-10-05,1,,,,,ミウラペット,0
1028,4120002024592,登記記録の閉鎖等,0,2024-04-22,2024-04-19,有限会社イマイ,,有限会社,大阪府,大阪市東淀川区,淡路５丁目１７番１１号,,27,114,5330032,,,2024-04-19,清算の結了等,,,2015-10-05,1,,,,,イマイ,0
1066,4170005000248,登記記録の閉鎖等,0,2024-04-22,2024-04-17,和歌山県マツダ自動車協同組合,,その他の設立登記法人,和歌山県,和歌山市,築港２丁目６番地,,30,201,6408287,,,2024-04-17,清算の結了等,,,2015-10-05,1,,,,,ワカヤマケンマツダジドウシャ,0
1078,4190005010336,登記記録の閉鎖等,0,2024-04-22,2024-04-17,特定非営利活動法人あわてんぼう,,その他の設立登記法人,三重県,伊賀市,猿野１３３２番地の１,,24,216,5181414,,,2024-04-17,清算の結了等,,,2015-10-05,1,,,,,,0
1095,4290005013601,登記記録の閉鎖等,0,2024-04-22,2024-04-04,特定非営利活動法人子どもと保育研究所ぷろほ,,その他の設立登記法人,福岡県,福岡市中央区,警固１丁目１３番１５－４０４号,,40,133,8100023,,,2024-04-04,清算の結了等,,,2015-10-05,1,,,,,,0
1110,4340003001494,登記記録の閉鎖等,0,2024-04-22,2024-04-16,合同会社幸乃木,,合同会社,鹿児島県,曽於市,財部町下財部２３２１番地２,,46,217,8994103,,,2024-04-16,清算の結了等,,,2015-10-05,1,,,,,コウノキ,0
1124,4380001020393,登記記録の閉鎖等,0,2024-04-22,2024-04-15,株式会社ブレインフードサービス,,株式会社,福島県,いわき市,平下荒川字諏訪下５６番地の３,,07,204,9708032,,,2024-04-15,合併による解散等,7380001014772,令和６年４月１日福島県いわき市平下荒川字諏訪下５６番地の３株式会社ブレイン（7380001014772）に合併し解散,2015-10-05,1,,,,,ブレインフードサービス,0
1126,4380002029203,登記記録の閉鎖等,0,2024-04-22,2024-04-12,有限会社門馬設備工業所,,有限会社,福島県,南相馬市,原町区上渋佐字原田１９５番地,,07,212,9750034,,,2024-04-12,清算の結了等,,,2015-10-05,1,,,,,モンマセツビコウギョウショ,0
1129,4400502000536,登記記録の閉鎖等,0,2024-04-22,2024-04-09,有限会社中村屋,,有限会社,岩手県,一関市,大手町３番９号,,03,209,0210884,,,2024-04-09,清算の結了等,,,2015-10-05,1,,,,,ナカムラヤ,0
1137,4430002066380,登記記録の閉鎖等,0,2024-04-22,2024-04-11,有限会社丸清三栄総業,,有限会社,北海道,札幌市中央区,大通東８丁目１番地９２アヴァンセ大通９０１号,,01,101,0600041,,,2024-04-11,清算の結了等,,,2015-10-05,1,,,,,マルセイサンエイソウギョウ,0
1154,5010001131516,登記記録の閉鎖等,0,2024-04-22,2024-04-09,株式会社やじきたフーズ,,株式会社,東京都,千代田区,外神田３丁目６番９号,,13,101,1010021,,,2024-04-09,清算の結了等,,,2015-10-05,1,,,,,ヤジキタフーズ,0
1185,5010501027511,登記記録の閉鎖等,0,2024-04-22,2024-04-15,株式会社ハピネット・マーケティング,,株式会社,東京都,台東区,駒形２丁目４番５号,,13,106,1110043,,,2024-04-15,合併による解散等,5010501011416,令和６年４月１日東京都台東区駒形二丁目４番５号株式会社ハピネット（5010501011416）に合併し解散,2015-10-05,1,,,,,ハピネットマーケティング,0
1207,5011401013691,登記記録の閉鎖等,0,2024-04-22,2024-04-10,株式会社プラン・ドゥー,,株式会社,東京都,板橋区,徳丸１丁目１７番７号,,13,119,1750083,,,2024-04-10,清算の結了等,,,2015-10-05,1,,,,,プランドゥー,0
1218,5011802013811,登記記録の閉鎖等,0,2024-04-22,2024-04-17,有限会社進拓工業,,有限会社,東京都,足立区,西新井１丁目３８番１７号,,13,121,1230841,,,2024-04-17,清算の結了等,,,2015-10-05,1,,,,,シンタクコウギョウ,0
1223,5012802007340,登記記録の閉鎖等,0,2024-04-22,2024-04-10,有限会社エイテック,,有限会社,東京都,昭島市,美堀町１丁目９番２号,,13,207,1960001,,,2024-04-10,清算の結了等,,,2015-10-05,1,,,,,エイテック,0
1229,5013401005314,登記記録の閉鎖等,0,2024-04-22,2024-04-11,エソテリック株式会社,,株式会社,東京都,多摩市,落合１丁目４７番地,,13,224,2060033,,,2024-04-11,合併による解散等,7013401005312,令和６年４月１日東京都多摩市落合一丁目４７番地ティアック株式会社（7013401005312）に合併し解散,2015-10-05,1,,,,,エソテリック,0
1237,5020001130252,登記記録の閉鎖等,0,2024-04-22,2024-04-12,ヒロタカコーポレーション株式会社,,株式会社,神奈川県,川崎市川崎区,駅前本町１１番地２川崎フロンティアビル４階,,14,131,2100007,,,2024-04-12,清算の結了等,,,2019-03-07,1,,,,,ヒロタカコーポレーション,0
1239,5020002022507,登記記録の閉鎖等,0,2024-04-22,2024-04-15,有限会社丸昭,,有限会社,神奈川県,横浜市旭区,二俣川２丁目２１番地,,14,112,2410821,,,2024-04-15,清算の結了等,,,2015-10-05,1,,,,,マルショウ,0
1242,5020003021755,登記記録の閉鎖等,0,2024-04-22,2024-04-11,合同会社わっしょい,,合同会社,神奈川県,川崎市宮前区,宮崎１丁目５番１号ヴェルドーミール３１３,,14,136,2160033,,,2024-04-11,清算の結了等,,,2022-05-11,1,,,,,ワッショイ,0
1248,5030001107852,登記記録の閉鎖等,0,2024-04-22,2024-04-16,丸武冷鮮株式会社,,株式会社,埼玉県,さいたま市岩槻区,大字岩槻６９１９番地１,,11,110,3390061,,,2024-04-16,清算の結了等,,,2015-10-05,1,,,,,マルタケレイセン,0
1252,5030002008125,登記記録の閉鎖等,0,2024-04-22,2024-04-15,有限会社太陽設計,,有限会社,埼玉県,さいたま市南区,白幡４丁目７番５号６０６,,11,108,3360022,,,2024-04-15,清算の結了等,,,2015-10-05,1,,,,,タイヨウセッケイ,0
1270,5060002024433,登記記録の閉鎖等,0,2024-04-22,2024-04-11,有限会社エムディエス,,有限会社,栃木県,那須塩原市,三区町５３０番地１１２,,09,213,3292745,,,2024-04-11,清算の結了等,,,2015-10-05,1,,,,,エムディエス,0
1285,5100002018158,登記記録の閉鎖等,0,2024-04-22,2024-04-05,有限会社西沢鉄工所,,有限会社,長野県,中野市,大字中野１５０９番地の４,,20,211,3830013,,,2024-04-05,清算の結了等,,,2015-10-05,1,,,,,ニシザワテッコウジョ,0
1288,5120001003712,登記記録の閉鎖等,0,2024-04-22,2024-04-15,株式会社太閤バフ製造所,,株式会社,大阪府,大阪市西成区,玉出中２丁目１４番７号,,27,122,5570044,,,2024-04-15,清算の結了等,,,2015-10-05,1,,,,,タイコウバフセイゾウショ,0
1295,5120001208294,登記記録の閉鎖等,0,2024-04-22,2024-04-15,株式会社エコスタイルパワープラント２号,,株式会社,大阪府,大阪市中央区,道修町１丁目４番６号,,27,128,5410045,,,2024-04-15,清算の結了等,,,2017-09-25,1,,,,,エコスタイルパワープラントニゴウ,0
1303,5120002013669,登記記録の閉鎖等,0,2024-04-22,2024-04-12,堀富産業有限会社,,有限会社,大阪府,大阪市天王寺区,勝山４丁目８番１８号,,27,109,5430043,,,2024-04-12,清算の結了等,,,2015-10-05,1,,,,,ホリトミサンギョウ,0
1304,5120002018131,登記記録の閉鎖等,0,2024-04-22,2024-03-29,有限会社マイセム,,有限会社,大阪府,大阪市住吉区,苅田８丁目２番１８号,,27,120,5580011,,,2024-03-29,清算の結了等,,,2015-10-05,1,,,,,マイセム,0
1311,5120005013996,登記記録の閉鎖等,0,2024-04-22,2024-04-01,医療法人門真クリニック,,その他の設立登記法人,大阪府,門真市,新橋町２番１２号,,27,223,5710048,,,2024-04-01,合併による解散等,4120005013997,令和６年４月１日大阪府守口市河原町３番１２号医療法人清水会（4120005013997）に合併し解散,2015-10-05,1,,,,,カドマクリニック,0
1313,5120101058961,登記記録の閉鎖等,0,2024-04-22,2024-04-18,株式会社ＴＳＵＪＩＭＯＴＯ,,株式会社,大阪府,羽曳野市,野々上５丁目８３番地の１１７,,27,222,5830871,,,2024-04-18,清算の結了等,,,2018-11-06,1,,,,,ツジモト,0
1327,5140002069486,登記記録の閉鎖等,0,2024-04-22,2024-04-15,有限会社北淡みやび,,有限会社,兵庫県,淡路市,室津２３９４番地の１の２,,28,226,6561606,,,2024-04-15,清算の結了等,,,2015-10-05,1,,,,,ホクダンミヤビ,0
1331,5150001001977,登記記録の閉鎖等,0,2024-04-22,2024-04-19,株式会社ビジネスシヨツプヤマト,,株式会社,奈良県,奈良市,神殿町３４４番地の１,,29,201,6308441,,,2024-04-19,清算の結了等,,,2015-10-05,1,,,,,ビジネスショップヤマト,0
1334,5170001000060,登記記録の閉鎖等,0,2024-04-22,2024-04-19,株式会社アコタ,,株式会社,和歌山県,和歌山市,久右衛門丁５１番地,,30,201,6408244,,,2024-04-19,清算の結了等,,,2015-10-05,1,,,,,アコタ,0
1335,5170001005869,登記記録の閉鎖等,0,2024-04-22,2024-04-19,株式会社かねさ商会,,株式会社,和歌山県,海南市,下津町黒田１２０番地の１,,30,202,6490122,,,2024-04-19,清算の結了等,,,2015-10-05,1,,,,,カネサショウカイ,0
1337,5180001086462,登記記録の閉鎖等,0,2024-04-22,2024-04-05,株式会社丸芳住建,,株式会社,愛知県,一宮市,千秋町加茂字井ノロ４番地３１,,23,203,4910801,,,2024-04-05,清算の結了等,,,2015-10-05,1,,,,,マルヨシジュウケン,0
1349,5180301029897,登記記録の閉鎖等,0,2024-04-22,2024-04-10,株式会社ｌｅａｖｅｓ,,株式会社,愛知県,蒲郡市,竹谷町迫６４番地１,,23,214,4430046,,,2024-04-10,清算の結了等,,,2016-12-27,1,,,,,,0
1351,5190001011535,登記記録の閉鎖等,0,2024-04-22,2024-04-16,株式会社大台木材センター,,株式会社,三重県,多気郡大台町,新田１１６番地３,,24,443,5192423,,,2024-04-16,清算の結了等,,,2015-10-05,1,,,,,オオダイモクザイセンター,0
1352,5190002014207,登記記録の閉鎖等,0,2024-04-22,2024-04-17,有限会社ナガモリ,,有限会社,三重県,松阪市,鎌田町４０３番地の２１,,24,204,5150005,,,2024-04-17,清算の結了等,,,2015-10-05,1,,,,,ナガモリ,0
1354,5190005000121,登記記録の閉鎖等,0,2024-04-22,2024-04-01,社会福祉法人島井福祉会,,その他の設立登記法人,三重県,津市,半田字四十九山１４４２番の１番地,,24,201,5140823,,,2024-04-01,合併による解散等,6190005000112,令和６年４月１日三重県津市新町一丁目８番１３号社会福祉法人清泉福祉会（6190005000112）に合併し解散,2015-10-05,1,,,,,シマイフクシカイ,0
1360,5210005007361,登記記録の閉鎖等,0,2024-04-22,2024-04-16,法教寺,,その他の設立登記法人,福井県,越前市,春山町２１号１０番地,,18,209,9150206,,,2024-04-16,清算の結了等,,,2015-10-05,1,,,,,ホウキョウジ,0
1361,5230002014326,登記記録の閉鎖等,0,2024-04-22,2024-04-16,有限会社オオデ技研,,有限会社,富山県,射水市,津幡江６５５番地２,,16,211,9340038,,,2024-04-16,清算の結了等,,,2015-10-05,1,,,,,オオデギケン,0
1364,5240005006963,登記記録の閉鎖等,0,2024-04-22,2024-04-01,学校法人光塩学園,,その他の設立登記法人,広島県,廿日市市,可愛１１番８号,,34,213,7380016,,,2024-04-01,合併による解散等,9240005001572,令和６年４月１日広島市中区幟町４番４２号学校法人広島信望愛学園（9240005001572）に合併し解散,2015-10-05,1,,,,,コウエンガクエン,0
1389,5330005002672,登記記録の閉鎖等,0,2024-04-22,2024-04-01,医療法人菊陽会,,その他の設立登記法人,熊本県,菊池郡菊陽町,新山２丁目８番２３号,,43,404,8691109,,,2024-04-01,合併による解散等,7330005001103,令和６年４月１日熊本市中央区新町二丁目２番６号社会医療法人愛育会（7330005001103）に合併し解散,2015-10-05,1,,,,,キクヨウカイ,0
1409,5400002007436,登記記録の閉鎖等,0,2024-04-22,2024-04-09,有限会社セブンソーイング,,有限会社,岩手県,岩手郡岩手町,大字江刈内第１０地割１１番地,,03,303,0284303,,,2024-04-09,清算の結了等,,,2015-10-05,1,,,,,セブンソーイング,0
1415,5420002001354,登記記録の閉鎖等,0,2024-04-22,2024-04-11,有限会社里村会計センター,,有限会社,青森県,青森市,松原３丁目２番１号,,02,201,0300813,,,2024-04-11,清算の結了等,,,2015-10-05,1,,,,,サトムラカイケイセンター,0
1434,5460102003222,登記記録の閉鎖等,0,2024-04-22,2024-04-16,有限会社丸栄商事,,有限会社,北海道,帯広市,西二十五条南２丁目２０番地２６,,01,207,0802475,,,2024-04-16,清算の結了等,,,2015-10-05,1,,,,,マルエイショウジ,0
1440,6010001018423,登記記録の閉鎖等,0,2024-04-22,2024-04-10,新成企業株式会社,,株式会社,東京都,千代田区,神田須田町１丁目１番地,,13,101,1010041,,,2024-04-10,合併による解散等,7010001018422,令和６年４月１日東京都千代田区鍛冶町一丁目８番３号新成梱包株式会社（7010001018422）に合併し解散,2015-10-05,1,,,,,シンセイキギョウ,0
1465,6010403019639,登記記録の閉鎖等,0,2024-04-22,2024-04-08,合同会社悠然,,合同会社,東京都,港区,高輪３丁目１０番３０－３１８号,,13,103,1080074,,,2024-04-08,清算の結了等,,,2018-11-08,1,,,,,ユウゼン,0
1495,6011401013179,登記記録の閉鎖等,0,2024-04-22,2024-04-11,株式会社パル・コーポレーション,,株式会社,神奈川県,横浜市中区,本牧原１５－１３－５０４,,14,104,2310821,,,2024-04-11,清算の結了等,,,2015-10-05,1,,,,,パルコーポレーション,0
1525,6020001115938,登記記録の閉鎖等,0,2024-04-22,2024-04-10,株式会社ボランチ,,株式会社,神奈川県,横浜市鶴見区,東寺尾５丁目５番１４,,14,101,2300077,,,2024-04-10,清算の結了等,,,2016-04-26,1,,,,,ボランチ,0
1535,6030001022423,登記記録の閉鎖等,0,2024-04-22,2024-04-15,株式会社サンリョウ,,株式会社,埼玉県,戸田市,大字新曽１３２９番地の９,,11,224,3350021,,,2024-04-15,清算の結了等,,,2015-10-05,1,,,,,サンリョウ,0
1541,6030002098768,登記記録の閉鎖等,0,2024-04-22,2024-04-12,有限会社笠原鴎文堂,00017530,有限会社,埼玉県,川口市,鳩ヶ谷本町２丁目２番２号,,11,203,3340002,,,2024-04-12,清算の結了等,,,2015-10-05,1,,,,,カサハラオウブンドウ,0
1544,6040001027454,登記記録の閉鎖等,0,2024-04-22,2024-04-10,株式会社フジックス,,株式会社,千葉県,松戸市,高塚新田２６３番地の３,,12,207,2702222,,,2024-04-10,合併による解散等,8040001130669,令和６年４月１日千葉市美浜区中瀬一丁目１０番地２株式会社シー・ワイ・ピー・２（8040001130669）に合併し解散,2015-10-05,1,,,,,フジックス,0
1547,6040001072459,登記記録の閉鎖等,0,2024-04-22,2024-04-10,株式会社パワーズ,,株式会社,千葉県,野田市,上花輪新町３７番地の２５,,12,208,2780034,,,2024-04-10,清算の結了等,,,2015-10-05,1,,,,,パワーズ,0
1556,6040002028220,登記記録の閉鎖等,0,2024-04-22,2024-04-10,有限会社ひろし屋,,有限会社,千葉県,船橋市,本町４丁目５番１６号,,12,204,2730005,,,2024-04-10,清算の結了等,,,2015-10-05,1,,,,,ヒロシヤ,0
1562,6060001001515,登記記録の閉鎖等,0,2024-04-22,2024-04-11,株式会社倉田商事,,株式会社,栃木県,宇都宮市,新町１丁目１番１０号,,09,201,3200831,,,2024-04-11,清算の結了等,,,2015-10-05,1,,,,,クラタショウジ,0
1564,6070002030660,登記記録の閉鎖等,0,2024-04-22,2024-04-12,有限会社ひまわり薬局,,有限会社,群馬県,邑楽郡大泉町,朝日１丁目８番７号,,10,524,3700514,,,2024-04-12,清算の結了等,,,2015-10-05,1,,,,,ヒマワリヤッキョク,0
1572,6080402013438,登記記録の閉鎖等,0,2024-04-22,2024-04-18,有限会社ＹＳＳ,,有限会社,静岡県,浜松市浜名区,都田町４２００番地,,22,139,4312102,,,2024-04-18,清算の結了等,,,2015-10-05,1,,,,,ワイエスエス,0
1579,6120001018684,登記記録の閉鎖等,0,2024-04-22,2024-04-16,株式会社フジ中商店,,株式会社,大阪府,大阪市生野区,桃谷３丁目１７番３３号,,27,116,5440034,,,2024-04-16,清算の結了等,,,2015-10-05,1,,,,,フジナカショウテン,0
1585,6120001145355,登記記録の閉鎖等,0,2024-04-22,2024-04-12,日本プラント開発株式会社,,株式会社,大阪府,大阪市中央区,谷町１丁目７番３号,,27,128,5400012,,,2024-04-12,清算の結了等,,,2015-10-05,1,,,,,ニホンプラントカイハツ,0
1595,6120001225883,登記記録の閉鎖等,0,2024-04-22,2024-04-15,株式会社エコスタイルパワープラント４号,,株式会社,大阪府,大阪市中央区,道修町１丁目４番６号,,27,128,5410045,,,2024-04-15,清算の結了等,,,2019-12-18,1,,,,,エコスタイルパワープラントヨンゴウ,0
1610,6120101049448,登記記録の閉鎖等,0,2024-04-22,2024-04-18,株式会社イー・ケア,,株式会社,大阪府,松原市,南新町５丁目１番４０号,,27,217,5800023,,,2024-04-18,清算の結了等,,,2015-10-05,1,,,,,イーケア,0
1631,6140002044348,登記記録の閉鎖等,0,2024-04-22,2024-04-15,有限会社ＭＩＲＩＳＥ,,有限会社,大阪府,堺市南区,赤坂台５丁２４番２－２号,,27,145,5900144,,,2024-04-15,清算の結了等,,,2015-10-05,1,,,,,ミライズ,0
1638,6170005006623,登記記録の閉鎖等,0,2024-04-22,2024-04-17,農事組合法人山田山みかん生産組合,,その他の設立登記法人,和歌山県,有田郡湯浅町,大字山田３９１番地,,30,361,6430001,,,2024-04-17,清算の結了等,,,2017-11-06,1,,,,,ヤマダヤマミカンセイサンクミアイ,0
1640,6180001101773,登記記録の閉鎖等,0,2024-04-22,2024-04-04,株式会社スウィートホーム,,株式会社,愛知県,半田市,青山３丁目１０番地１,,23,205,4750836,,,2024-04-04,清算の結了等,,,2015-10-05,1,,,,,スウィートホーム,0
1645,6180002080513,登記記録の閉鎖等,0,2024-04-22,2024-04-15,有限会社桂技研,,有限会社,三重県,桑名市,野田５丁目７番地４,,24,205,5110904,,,2024-04-15,清算の結了等,,,2015-10-05,1,,,,,カツラギケン,0
1654,6180303005193,登記記録の閉鎖等,0,2024-04-22,2024-04-10,合同会社遇見不動産,,合同会社,愛知県,豊橋市,曙町字宮前２３番地２,00125158,23,201,4418151,,,2024-04-10,清算の結了等,,,2021-12-16,1,,,,,,0
1655,6180305007774,登記記録の閉鎖等,0,2024-04-22,2024-03-26,八橋神社,,その他の設立登記法人,愛知県,北設楽郡設楽町,八橋字道上４０番地の１１,,23,561,4412311,,,2024-03-26,合併による解散等,1180305007770,令和６年３月２６日愛知県北設楽郡設楽町田口字向木屋２５番地の３白山神社（1180305007770）に合併し解散,2015-10-05,1,,,,,,0
1703,6310002018904,登記記録の閉鎖等,0,2024-04-22,2024-04-15,有限会社市山建設,,有限会社,長崎県,壱岐市,芦辺町諸吉大石触４７２番地１０,00096144,42,210,8115316,,,2024-04-15,清算の結了等,,,2015-10-05,1,,,,,イチヤマケンセツ,0
1713,6340002019858,登記記録の閉鎖等,0,2024-04-22,2024-04-12,有限会社ドリームスマイル,,有限会社,鹿児島県,鹿児島市,千日町２－１４－１階,,46,201,8920843,,,2024-04-12,合併による解散等,4013301030768,令和６年４月１日東京都豊島区西池袋一丁目１０番２－３０２号株式会社フォーユー（4013301030768）に合併し解散,2015-10-05,1,,,,,ドリームスマイル,0
1722,6370001016812,登記記録の閉鎖等,0,2024-04-22,2024-04-04,デライトアイ株式会社,,株式会社,宮城県,仙台市太白区,人来田１丁目１５番１１号,,04,104,9820222,,,2024-04-04,清算の結了等,,,2015-10-05,1,,,,,デライトアイ,0
1724,6370002017784,登記記録の閉鎖等,0,2024-04-22,2024-04-11,有限会社ＭＩＸ,,有限会社,宮城県,仙台市太白区,長町５丁目１３番２号,,04,104,9820011,,,2024-04-11,清算の結了等,,,2015-10-05,1,,,,,ミックス,0
1726,6380002026834,登記記録の閉鎖等,0,2024-04-22,2024-04-12,有限会社らら,,有限会社,福島県,いわき市,植田町東荒田２２番地の５３,,07,204,9748261,,,2024-04-12,清算の結了等,,,2015-10-05,1,,,,,ララ,0
1729,6400001009110,登記記録の閉鎖等,0,2024-04-22,2024-04-09,ダイコー物流サービス株式会社,,株式会社,岩手県,盛岡市,永井２４地割５０番地１０８,,03,201,0200834,,,2024-04-09,清算の結了等,,,2015-10-05,1,,,,,ダイコーブツリュウサービス,0
1733,6430001086584,登記記録の閉鎖等,0,2024-04-22,2024-04-12,株式会社ロズ,,株式会社,北海道,札幌市中央区,南八条西９丁目７５８－８シャルム９Ｂ３０３号,,01,101,0640808,,,2024-04-12,清算の結了等,,,2022-06-06,1,,,,,ロズ,0
1744,6470001009780,登記記録の閉鎖等,0,2024-04-22,2024-04-11,株式会社アルビノ,,株式会社,香川県,観音寺市,昭和町１丁目８番３５号,,37,205,7680066,,,2024-04-11,清算の結了等,,,2015-10-05,1,,,,,,0
1769,7010102005699,登記記録の閉鎖等,0,2024-04-22,2024-04-15,有限会社ビーエムカラーワークス,,有限会社,東京都,八王子市,台町２丁目１９番１０号,,13,201,1930931,,,2024-04-15,清算の結了等,,,2015-10-05,1,,,,,ビーエムカラーワークス,0
1770,7010401018518,登記記録の閉鎖等,0,2024-04-22,2024-04-08,株式会社ダイトービジネスアンドサービス,,株式会社,東京都,港区,芝浦２丁目１番１３号,,13,103,1080023,,,2024-04-08,清算の結了等,,,2015-10-05,1,,,,,ダイトービジネスアンドサービス,0
1802,7011002019772,登記記録の閉鎖等,0,2024-04-22,2024-04-19,有限会社オフィス松田,,有限会社,神奈川県,横須賀市,小矢部３丁目２番１号,,14,201,2380026,,,2024-04-19,清算の結了等,,,2015-10-05,1,,,,,オフィスマツダ,0
1817,7011802008132,登記記録の閉鎖等,0,2024-04-22,2024-04-17,有限会社山田モールド,,有限会社,東京都,葛飾区,奥戸１丁目４番１５号,,13,122,1240022,,,2024-04-17,清算の結了等,,,2015-10-05,1,,,,,ヤマダモールド,0
1843,7020005010515,登記記録の閉鎖等,0,2024-04-22,2024-04-11,ＮＰＯ法人Ｃｒｅａｔｉｖｅ　Ａｓｓｏｃｉａｔｉｏｎ,,その他の設立登記法人,神奈川県,横浜市港北区,大豆戸町２００－５０３号,,14,109,2220032,,,2024-04-11,清算の結了等,,,2015-10-05,1,,,,,クリエイティブアソシエイション,0
1849,7030001155107,登記記録の閉鎖等,0,2024-04-22,2024-04-02,株式会社Ｐｉｇｕｉｎ,,株式会社,埼玉県,川口市,並木２丁目４０－１５ライオンズマンション川口並木二丁目４０５号,,11,203,3320034,,,2024-04-02,清算の結了等,,,2023-07-31,1,,,,,ピギン,0
1859,7040001090492,登記記録の閉鎖等,0,2024-04-22,2024-04-11,成鴻株式会社,,株式会社,千葉県,千葉市稲毛区,小仲台６丁目１８番１－６１９号,,12,103,2630043,,,2024-04-11,清算の結了等,,,2015-10-05,1,,,,,セイコウ,0
1866,7040001128391,登記記録の閉鎖等,0,2024-04-22,2024-04-11,青いとんぼ株式会社,,株式会社,千葉県,いすみ市,楽町７３番地２,,12,238,2980122,,,2024-04-11,清算の結了等,,,2023-05-16,1,,,,,アオイトンボ,0
1869,7040002067119,登記記録の閉鎖等,0,2024-04-22,2024-04-10,高弥住宅有限会社,,有限会社,千葉県,木更津市,高柳２丁目５番２６号,,12,206,2920014,,,2024-04-10,清算の結了等,,,2015-10-05,1,,,,,タカヤジュウタク,0
1883,7080401005798,登記記録の閉鎖等,0,2024-04-22,2024-04-17,株式会社ラヴィ友の会,,株式会社,静岡県,浜松市中央区,尾張町１２５番地の２６,,22,138,4300949,,,2024-04-17,清算の結了等,,,2015-10-05,1,,,,,ラヴィトモノカイ,0
1889,7110001030739,登記記録の閉鎖等,0,2024-04-22,2024-04-11,株式会社中条ジャムコ,,株式会社,新潟県,胎内市,清水９番地１１３,,15,227,9592600,,,2024-04-11,合併による解散等,1110001018194,令和６年４月１日新潟県村上市坪根字上坪根３４１番地１株式会社ジャムコエアクラフトインテリアズ（1110001018194）に合併し解散,2015-10-05,1,,,,,ナカジョウジャムコ,0
1900,7120001214968,登記記録の閉鎖等,0,2024-04-22,2024-04-10,株式会社リンクスアップ,,株式会社,大阪府,大阪市北区,東天満１丁目２番１－１９０８号,,27,127,5300044,,,2024-04-10,清算の結了等,,,2018-07-27,1,,,,,リンクスアップ,0
1911,7120002002595,登記記録の閉鎖等,0,2024-04-22,2024-04-10,有限会社ユリヤ,,有限会社,大阪府,大阪市西成区,鶴見橋３丁目２番２２号,,27,122,5570031,,,2024-04-10,清算の結了等,,,2015-10-05,1,,,,,ユリヤ,0
1912,7120002026520,登記記録の閉鎖等,0,2024-04-22,2024-04-12,岡本商事有限会社,,有限会社,大阪府,大阪市淀川区,新北野１丁目３番４－１３０５号,,27,123,5320025,,,2024-04-12,清算の結了等,,,2015-10-05,1,,,,,オカモトショウジ,0
1926,7120901024450,登記記録の閉鎖等,0,2024-04-22,2024-04-15,大生木工株式会社,,株式会社,大阪府,豊中市,原田南２丁目９番７号,,27,203,5610805,,,2024-04-15,清算の結了等,,,2015-10-05,1,,,,,タイセイモッコウ,0
1936,7140001006653,登記記録の閉鎖等,0,2024-04-22,2024-04-11,株式会社オーハシ,,株式会社,兵庫県,神戸市中央区,港島中町６丁目１４番地ポートピアプラザＥ棟４１４号,,28,110,6500046,,,2024-04-11,清算の結了等,,,2015-10-05,1,,,,,オーハシ,0
1937,7140001017535,登記記録の閉鎖等,0,2024-04-22,2024-04-17,三和実業株式会社,,株式会社,兵庫県,神戸市中央区,北長狭通５丁目７番２０号,,28,110,6500012,,,2024-04-17,清算の結了等,,,2015-10-05,1,,,,,ミワジツギョウ,0
1959,7180003022570,登記記録の閉鎖等,0,2024-04-22,2024-04-09,ＳｔｉｒＬｏｇｉｃ合同会社,,合同会社,愛知県,弥富市,西中地町中島４３番地１２,,23,235,4980001,,,2024-04-09,清算の結了等,,,2021-06-02,1,,,,,ステアロジック,0
1967,7190002004008,登記記録の閉鎖等,0,2024-04-22,2024-04-16,有限会社Ｋ＆Ａ,,有限会社,三重県,津市,羽所町７００番地,,24,201,5140009,,,2024-04-16,清算の結了等,,,2015-10-05,1,,,,,ケイアンドエー,0
1969,7200001005129,登記記録の閉鎖等,0,2024-04-22,2024-04-18,丸秀服部不動産株式会社,,株式会社,岐阜県,岐阜市,高砂町５丁目６番地,,21,201,5008407,,,2024-04-18,清算の結了等,,,2015-10-05,1,,,,,マルヒデハットリフドウサン,0
1974,7230002005843,登記記録の閉鎖等,0,2024-04-22,2024-04-16,昭和機械有限会社,,有限会社,富山県,中新川郡上市町,新屋６７番地,,16,322,9300471,,,2024-04-16,清算の結了等,,,2015-10-05,1,,,,,ショウワキカイ,0
1993,7300002000787,登記記録の閉鎖等,0,2024-04-22,2024-04-18,有限会社ゼーミックス,,有限会社,佐賀県,佐賀市,巨勢町大字牛島３１７番地１１,,41,201,8400008,,,2024-04-18,清算の結了等,,,2015-10-05,1,,,,,ゼーミックス,0
1995,7320001018201,登記記録の閉鎖等,0,2024-04-22,2024-04-05,株式会社ＡＲＴＹ,,株式会社,大分県,大分市,羽屋３丁目５番５２号,,44,201,8700854,,,2024-04-05,清算の結了等,,,2021-02-12,1,,,,,アーティー,0
1997,7320202000759,登記記録の閉鎖等,0,2024-04-22,2024-04-05,有限会社山内マネジメント,,有限会社,大分県,津久見市,立花町６番４８号,,44,207,8792434,,,2024-04-05,清算の結了等,,,2015-10-05,1,,,,,ヤマウチマネジメント,0
2005,7330005002332,登記記録の閉鎖等,0,2024-04-22,2024-04-01,医療法人社団ソフィア愛育会,,その他の設立登記法人,熊本県,熊本市中央区,水道町９番５－１号,,43,101,8600844,,,2024-04-01,合併による解散等,7330005001103,令和６年４月１日熊本市中央区新町二丁目２番６号社会医療法人愛育会（7330005001103）に合併し解散,2015-10-05,1,,,,,シャダンソフィアアイイクカイ,0
2009,7350003002027,登記記録の閉鎖等,0,2024-04-22,2024-04-15,合同会社ライフサポートムサシ,,合同会社,宮崎県,延岡市,北浦町宮野浦４５３番地,,45,203,8890303,,,2024-04-15,清算の結了等,,,2015-10-05,1,,,,,ライフサポートムサシ,0
2014,7360005003286,登記記録の閉鎖等,0,2024-04-22,2024-04-01,社会福祉法人翠泉会,,その他の設立登記法人,沖縄県,名護市,字我部祖河８２９番地,,47,209,9051155,,,2024-04-01,合併による解散等,3360005001450,令和６年４月１日沖縄県那覇市首里石嶺町四丁目３９０番地社会福祉法人偕生会（3360005001450）に合併し解散,2015-10-05,1,,,,,スイセンカイ,0
2015,7370001043970,登記記録の閉鎖等,0,2024-04-22,2024-04-11,株式会社やねとかべやさん,,株式会社,福島県,福島市,野田町字中ノ町１１１番地,,07,201,9608055,,,2024-04-11,清算の結了等,,,2019-01-30,1,,,,,ヤネトカベヤサン,0
2036,7430001086014,登記記録の閉鎖等,0,2024-04-22,2024-04-11,株式会社Ｔｓｏｒｏ,,株式会社,北海道,札幌市中央区,南二条西１２丁目３２３番地８,,01,101,0600062,,,2024-04-11,清算の結了等,,,2022-02-24,1,,,,,テゾーロ,0
2046,7480002012006,登記記録の閉鎖等,0,2024-04-22,2024-04-15,有限会社ロードナインコーポレーション,,有限会社,徳島県,板野郡松茂町,住吉字住吉開拓２番地の３,,36,401,7710218,,,2024-04-15,清算の結了等,,,2015-10-05,1,,,,,ロードナインコーポレーション,0
2047,7480002015735,登記記録の閉鎖等,0,2024-04-22,2024-04-15,有限会社二宮製菓,,有限会社,徳島県,三好市,池田町マチ２２２４番地,,36,208,7780002,,,2024-04-15,清算の結了等,,,2015-10-05,1,,,,,ニノミヤセイカ,0
2050,7500001022432,登記記録の閉鎖等,0,2024-04-22,2024-04-12,あゆみファーム西条株式会社,,株式会社,愛媛県,西条市,丹原町高松５００番地,,38,206,7910524,,,2024-04-12,清算の結了等,,,2019-12-20,1,,,,,アユミファームサイジョウ,0
2073,8010003034383,登記記録の閉鎖等,0,2024-04-22,2024-04-08,合同会社ＤＳＢ－６,,合同会社,東京都,中央区,日本橋１丁目４番１号,,13,102,1030027,,,2024-04-08,清算の結了等,,,2021-03-11,1,,,,,ディーエスビーシックス,0
2075,8010101010914,登記記録の閉鎖等,0,2024-04-22,2024-04-19,こしょね株式会社,,株式会社,東京都,八王子市,大谷町８９０番地９,,13,201,1920034,,,2024-04-19,清算の結了等,,,2015-10-05,1,,,,,,0
2076,8010401077810,登記記録の閉鎖等,0,2024-04-22,2024-04-17,株式会社ペーパーメディア研究所,,株式会社,神奈川県,茅ヶ崎市,中海岸４丁目６番２６号,,14,207,2530055,,,2024-04-17,清算の結了等,,,2015-10-05,1,,,,,ペーパーメディアケンキュウジョ,0
2087,8010701030816,登記記録の閉鎖等,0,2024-04-22,2024-04-05,株式会社レスターエレクトロニクス,,株式会社,東京都,港区,港南２丁目１０番９号,,13,103,1080075,,,2024-04-05,合併による解散等,7010701022780,令和６年４月１日東京都港区港南二丁目１０番９号株式会社レスター（7010701022780）に合併し解散,2015-10-05,1,,,,,レスターエレクトロニクス,0
2123,8020005005191,登記記録の閉鎖等,0,2024-04-22,2024-04-09,学校法人矢沢学園,,その他の設立登記法人,神奈川県,横浜市港北区,篠原北１丁目３番３６号,,14,109,2220021,,,2024-04-09,清算の結了等,,,2015-10-05,1,,,,,ヤザワガクエン,0
2160,8050001005498,登記記録の閉鎖等,0,2024-04-22,2024-04-15,明伸ニューテクノロジー株式会社,,株式会社,茨城県,水戸市,元石川町８５５番地,,08,201,3100843,,,2024-04-15,清算の結了等,,,2015-10-05,1,,,,,メイシンニューテクノロジー,0
2166,8060001024539,登記記録の閉鎖等,0,2024-04-22,2024-04-12,株式会社アピティー,,株式会社,栃木県,宇都宮市,西川田町９４０番地２４,,09,201,3210151,,,2024-04-12,清算の結了等,,,2015-10-05,1,,,,,アピティー,0
2177,8110002011547,登記記録の閉鎖等,0,2024-04-22,2024-04-18,株式会社ロジス新潟,,株式会社,新潟県,新潟市中央区,船場町２丁目３４３６番地１,,15,103,9518035,,,2024-04-18,合併による解散等,4220001007357,令和６年４月１日石川県金沢市湊一丁目１５番地２ユニベール株式会社（4220001007357）に合併し解散,2015-10-05,1,,,,,ロジスニイガタ,0
2179,8120001024490,登記記録の閉鎖等,0,2024-04-22,2024-04-12,株式会社トミヤ,,株式会社,大阪府,大阪市天王寺区,大道２丁目１１番２号,,27,109,5430052,,,2024-04-12,清算の結了等,,,2015-10-05,1,,,,,トミヤ,0
2187,8120001205685,登記記録の閉鎖等,0,2024-04-22,2024-04-12,株式会社サンテクノ,,株式会社,大阪府,大阪市北区,中津７丁目９番１１号,,27,127,5310071,,,2024-04-12,清算の結了等,,,2017-05-22,1,,,,,サンテクノ,0
2197,8120005009397,登記記録の閉鎖等,0,2024-04-22,2024-04-01,医療法人松乃会,,その他の設立登記法人,大阪府,大阪市西成区,天下茶屋１丁目１７番３６号,,27,122,5570014,,,2024-04-01,合併による解散等,9120005012004,令和６年４月１日大阪市西成区天下茶屋一丁目１８番２４号社会医療法人杏樹会（9120005012004）に合併し解散,2015-10-05,1,,,,,マツノカイ,0
2200,8120105005230,登記記録の閉鎖等,0,2024-04-22,2024-04-01,社会福祉法人好老会,,その他の設立登記法人,大阪府,藤井寺市,惣社２丁目５番１５号,,27,226,5830005,,,2024-04-01,合併による解散等,3120105004253,令和６年４月１日大阪府松原市阿保三丁目１４番２２号社会福祉法人聖徳会（3120105004253）に合併し解散,2015-10-05,1,,,,,コウロウカイ,0
2216,8140001058396,登記記録の閉鎖等,0,2024-04-22,2024-04-17,ＫＷＳ管理株式会社,,株式会社,兵庫県,姫路市,延末２９５番地姫路市中央卸売市場内,,28,201,6700966,,,2024-04-17,清算の結了等,,,2015-10-05,1,,,,,,0
2222,8140002006916,登記記録の閉鎖等,0,2024-04-22,2024-04-16,有限会社赤川総合研究所,,有限会社,兵庫県,神戸市東灘区,住吉本町２丁目１６番２－３０１号,,28,101,6580051,,,2024-04-16,清算の結了等,,,2015-10-05,1,,,,,アカガワソウゴウケンキュウショ,0
2223,8140002041137,登記記録の閉鎖等,0,2024-04-22,2024-04-16,有限会社重松鉄工,,有限会社,兵庫県,尼崎市,潮江５丁目２番１５－３０５号,,28,202,6610976,,,2024-04-16,清算の結了等,,,2015-10-05,1,,,,,シゲマツテッコウ,0
2230,8180001025590,登記記録の閉鎖等,0,2024-04-22,2024-04-09,三西建設株式会社,,株式会社,愛知県,名古屋市西区,城西５丁目２０番１４号,,23,104,4510031,,,2024-04-09,清算の結了等,,,2015-10-05,1,,,,,サンセイケンセツ,0
2238,8180002031852,登記記録の閉鎖等,0,2024-04-22,2024-04-08,有限会社ディールンデ,,有限会社,愛知県,名古屋市東区,芳野３丁目２番２６号ヴィークタワー東白壁１６０１号室,,23,102,4610027,,,2024-04-08,清算の結了等,,,2015-10-05,1,,,,,ディールンデ,0
2241,8180003025300,登記記録の閉鎖等,0,2024-04-22,2024-04-01,合同会社ＫＥＴＴＬＥ,,合同会社,愛知県,長久手市,喜婦嶽１７０１ラフォーレブランシュ１０６,,23,238,4801117,,,2024-04-01,清算の結了等,,,2023-06-05,1,,,,,ケトル,0
2262,8250001001840,登記記録の閉鎖等,0,2024-04-22,2024-04-17,株式会社アーム,,株式会社,山口県,防府市,栄町１丁目３番１９号,,35,206,7470035,,,2024-04-17,清算の結了等,,,2015-10-05,1,,,,,アーム,0
2272,8280001005137,登記記録の閉鎖等,0,2024-04-22,2024-04-17,丸共建材株式会社,,株式会社,島根県,益田市,幸町１番１０号,,32,204,6980021,,,2024-04-17,合併による解散等,5290801003457,令和６年４月１日北九州市小倉北区宇佐町二丁目９番２７号株式会社ホームコア（5290801003457）に合併し解散,2015-10-05,1,,,,,マルキョウケンザイ,0
2288,8320001007764,登記記録の閉鎖等,0,2024-04-22,2024-04-05,株式会社九州イチタン,,株式会社,大分県,宇佐市,院内町櫛野８９５番地,,44,211,8720312,,,2024-04-05,合併による解散等,8070001019587,令和６年４月１日群馬県太田市新道町７４番地株式会社イチタン（8070001019587）に合併し解散,2015-10-05,1,,,,,キュウシュウイチタン,0
2295,8330005005367,登記記録の閉鎖等,0,2024-04-22,2024-04-01,医療法人社団松橋愛育会,,その他の設立登記法人,熊本県,宇城市,松橋町松橋字中原６８９番地１,,43,213,8690502,,,2024-04-01,合併による解散等,7330005001103,令和６年４月１日熊本市中央区新町二丁目２番６号社会医療法人愛育会（7330005001103）に合併し解散,2015-10-05,1,,,,,シャダンマツバセアイイクカイ,0
2297,8340002003967,登記記録の閉鎖等,0,2024-04-22,2024-04-18,有限会社小島板金塗装工業,,有限会社,鹿児島県,鹿児島市,中山１丁目２７番１号,,46,201,8910108,,,2024-04-18,清算の結了等,,,2015-10-05,1,,,,,コジマバンキントソウコウギョウ,0
2301,8380001001704,登記記録の閉鎖等,0,2024-04-22,2024-04-11,株式会社ＭＴ企画,,株式会社,福島県,福島市,土湯温泉町字杉ノ下６３番地,,07,201,9602157,,,2024-04-11,清算の結了等,,,2015-10-05,1,,,,,エムティーキカク,0
2306,8400002008761,登記記録の閉鎖等,0,2024-04-22,2024-04-08,有限会社石ケ森カッティングセンター,,有限会社,岩手県,花巻市,大迫町亀ケ森第４６地割３１番地,,03,205,0283204,,,2024-04-08,清算の結了等,,,2015-10-05,1,,,,,イシガモリカッティングセンター,0
2308,8400601000763,登記記録の閉鎖等,0,2024-04-22,2024-04-08,株式会社水沢クロス開発,,株式会社,岩手県,奥州市,水沢字横町９５番地,,03,215,0230801,,,2024-04-08,清算の結了等,,,2015-10-05,1,,,,,ミズサワクロスカイハツ,0
2311,8430002014955,登記記録の閉鎖等,0,2024-04-22,2024-04-16,有限会社西屋ラヂェーター,,有限会社,北海道,札幌市北区,新川四条１１丁目７番３０号,,01,102,0010924,,,2024-04-16,清算の結了等,,,2015-10-05,1,,,,,ニシヤラヂェーター,0
2334,9010001073597,登記記録の閉鎖等,0,2024-04-22,2024-04-08,エフアンドシーエーティー株式会社,,株式会社,東京都,渋谷区,恵比寿３丁目２９番１０号,,13,113,1500013,,,2024-04-08,清算の結了等,,,2015-10-05,1,,,,,エフアンドシーエーティー,0
2358,9010005033432,登記記録の閉鎖等,0,2024-04-22,2024-04-15,一般社団法人ＮＲＴグロース１７,,その他の設立登記法人,東京都,中央区,八丁堀４丁目２番１０号ＡＯＪ税理士法人内,,13,102,1040032,,,2024-04-15,清算の結了等,,,2021-06-01,1,,,,,エヌアールティーグロースセブンティーン,0
2381,9010701030435,登記記録の閉鎖等,0,2024-04-22,2024-04-05,株式会社バイテックエネスタ,,株式会社,東京都,港区,港南２丁目１０番９号,,13,103,1080075,,,2024-04-05,合併による解散等,7010701022780,令和６年４月１日東京都港区港南二丁目１０番９号株式会社レスター（7010701022780）に合併し解散,2015-10-05,1,,,,,バイテックエネスタ,0
2389,9011001014938,登記記録の閉鎖等,0,2024-04-22,2024-04-10,株式会社テスコム,,株式会社,東京都,千代田区,九段北４丁目１番２８号,,13,101,1020073,,,2024-04-10,合併による解散等,1011001014953,令和６年４月１日東京都千代田区九段北四丁目１番２８号テスコム電機株式会社（1011001014953）に合併し解散,2015-10-05,1,,,,,テスコム,0
2400,9011401014034,登記記録の閉鎖等,0,2024-04-22,2024-04-11,拓信システム株式会社,,株式会社,東京都,板橋区,徳丸４丁目２１番５号,,13,119,1750083,,,2024-04-11,清算の結了等,,,2015-10-05,1,,,,,タクシンシステム,0
2417,9013301049853,登記記録の閉鎖等,0,2024-04-22,2024-04-09,株式会社Ｅコミュニティ,,株式会社,東京都,豊島区,東池袋１丁目１７番１１号パークハイツ池袋１１０５号,,13,116,1700013,,,2024-04-09,清算の結了等,,,2022-10-26,1,,,,,イーコミュニティ,0
2425,9020003013369,登記記録の閉鎖等,0,2024-04-22,2024-04-11,合同会社あいかん社,,合同会社,神奈川県,横浜市磯子区,下町２番２１号,,14,107,2350004,,,2024-04-11,清算の結了等,,,2017-10-04,1,,,,,アイカンシャ,0
2436,9030001123904,登記記録の閉鎖等,0,2024-04-22,2024-04-15,株式会社ＳＥＶＥＮ’Ｓ　ＮＥＸＴ,,株式会社,埼玉県,さいたま市大宮区,三橋４丁目２６１番地８,,11,103,3300856,,,2024-04-15,清算の結了等,,,2018-01-17,1,,,,,セブンズネクスト,0
2447,9040002026493,登記記録の閉鎖等,0,2024-04-22,2024-04-10,拓進興業有限会社,,有限会社,千葉県,船橋市,潮見町１９番５,,12,204,2730016,,,2024-04-10,清算の結了等,,,2015-10-05,1,,,,,タクシンコウギョウ,0
2461,9100001006168,登記記録の閉鎖等,0,2024-04-22,2024-04-05,株式会社新生製作所,,株式会社,長野県,千曲市,大字屋代４３１０番地の１,,20,218,3870007,,,2024-04-05,清算の結了等,,,2015-10-05,1,,,,,シンセイセイサクショ,0
2463,9110001028491,登記記録の閉鎖等,0,2024-04-22,2024-04-18,ユニベールリビングサービス株式会社,,株式会社,新潟県,新潟市中央区,船場町２丁目３４３６番地１,,15,103,9518035,,,2024-04-18,合併による解散等,4220001007357,令和６年４月１日石川県金沢市湊一丁目１５番地２ユニベール株式会社（4220001007357）に合併し解散,2015-10-05,1,,,,,ユニベールリビングサービス,0
2470,9120001099425,登記記録の閉鎖等,0,2024-04-22,2024-04-18,イースター株式会社,,株式会社,大阪府,大阪市中央区,南本町４丁目５番７号,,27,128,5410054,,,2024-04-18,清算の結了等,,,2015-10-05,1,,,,,イースター,0
2474,9120001150468,登記記録の閉鎖等,0,2024-04-22,2024-04-17,株式会社ビルテックスミヤタ,,株式会社,大阪府,枚方市,星丘２丁目２１番１１号,,27,210,5730013,,,2024-04-17,清算の結了等,,,2015-10-05,1,,,,,ビルテックスミヤタ,0
2482,9120001245945,登記記録の閉鎖等,0,2024-04-22,2024-04-16,ＧＹＷ株式会社,,株式会社,大阪府,枚方市,出口６丁目１番１－６２４号,,27,210,5730065,,,2024-04-16,清算の結了等,,,2022-05-19,1,,,,,ジーワイダブリュー,0
2483,9120001252322,登記記録の閉鎖等,0,2024-04-22,2024-04-16,東琳株式会社,,株式会社,大阪府,大阪市港区,市岡元町２丁目６番１１－３０１号,,27,107,5520002,,,2024-04-16,清算の結了等,,,2023-02-08,1,,,,,トウリン,0
2498,9120005010734,登記記録の閉鎖等,0,2024-04-22,2024-04-01,医療法人槐樹会,,その他の設立登記法人,大阪府,大阪市西成区,太子１丁目１４番５号,,27,122,5570002,,,2024-04-01,合併による解散等,9120005012004,令和６年４月１日大阪市西成区天下茶屋一丁目１８番２４号社会医療法人杏樹会（9120005012004）に合併し解散,2015-10-05,1,,,,,エンジュカイ,0
2500,9120101038101,登記記録の閉鎖等,0,2024-04-22,2024-04-18,株式会社クリエイト関西,,株式会社,大阪府,貝塚市,澤７９５番地の５,,27,208,5970062,,,2024-04-18,清算の結了等,,,2015-10-05,1,,,,,クリエイトカンサイ,0
2505,9120901007610,登記記録の閉鎖等,0,2024-04-22,2024-04-18,株式会社徳永鉄筋,00033333,株式会社,大阪府,吹田市,豊津町３７番７号,,27,205,5640051,,,2024-04-18,清算の結了等,,,2015-10-05,1,,,,,トクナガテッキン,0
2507,9122001002186,登記記録の閉鎖等,0,2024-04-22,2024-04-18,株式会社グローバルフーズ,,株式会社,大阪府,大阪市生野区,中川５丁目１２番７号,,27,116,5440005,,,2024-04-18,清算の結了等,,,2015-10-05,1,,,,,グローバルフーズ,0
2510,9130001045493,登記記録の閉鎖等,0,2024-04-22,2024-04-18,株式会社Ｊｏ－ｃａｒ,,株式会社,京都府,舞鶴市,字十倉１０７番地の１,,26,202,6240825,,,2024-04-18,清算の結了等,,,2015-10-05,1,,,,,,0
2513,9140001031690,登記記録の閉鎖等,0,2024-04-22,2024-04-16,グリーンサプライズ株式会社,,株式会社,兵庫県,神戸市西区,櫨谷町寺谷１２４２番地の５５,,28,111,6512231,,,2024-04-16,清算の結了等,,,2015-10-05,1,,,,,グリーンサプライズ,0
2524,9150005000996,登記記録の閉鎖等,0,2024-04-22,2024-04-01,大和肉鶏農業協同組合,,その他の設立登記法人,奈良県,橿原市,城殿町４５９番地,,29,205,6340033,,,2024-04-01,合併による解散等,3150005009127,令和６年４月１日奈良県橿原市城殿町４５９番地奈良県畜産農業協同組合（3150005009127）に合併し解散,2015-10-05,1,,,,,ヤマトニクドリ,0
2536,9180301013872,登記記録の閉鎖等,0,2024-04-22,2024-04-08,株式会社刈谷ドライクリーニングセンター,,株式会社,愛知県,刈谷市,銀座２丁目６８番地,,23,210,4480845,,,2024-04-08,清算の結了等,,,2015-10-05,1,,,,,カリヤドライクリーニングセンター,0
2541,9190001007703,登記記録の閉鎖等,0,2024-04-22,2024-04-15,働く人の店株式会社グロウ,,株式会社,三重県,伊勢市,御薗町王中島７６９番地,,24,203,5160803,,,2024-04-15,清算の結了等,,,2015-10-05,1,,,,,ハタラクヒトノミセカブグロウ,0
2542,9190002008238,登記記録の閉鎖等,0,2024-04-22,2024-04-12,有限会社岩田石油店,,有限会社,三重県,伊勢市,岩渕２丁目２番２５号,,24,203,5160037,,,2024-04-12,清算の結了等,,,2015-10-05,1,,,,,イワタセキユテン,0
2543,9190005010389,登記記録の閉鎖等,0,2024-04-22,2024-04-17,特定非営利活動法人労働問題研究所,,その他の設立登記法人,三重県,津市,上浜町３丁目１５番地２ディアホームズ志とも５０４号,,24,201,5140008,,,2024-04-17,清算の結了等,,,2015-10-05,1,,,,,,0
2548,9210001016817,登記記録の閉鎖等,0,2024-04-22,2024-04-18,株式会社エイヴァー,,株式会社,福井県,福井市,春山２丁目２番５号,,18,201,9100019,,,2024-04-18,合併による解散等,4220001007357,令和６年４月１日石川県金沢市湊一丁目１５番地２ユニベール株式会社（4220001007357）に合併し解散,2017-07-07,1,,,,,エイヴァー,0
2552,9240002044748,登記記録の閉鎖等,0,2024-04-22,2024-04-19,有限会社ソーイングさえ,,有限会社,広島県,福山市,神辺町大字新湯野５２番地の１７,,34,207,7202122,,,2024-04-19,清算の結了等,,,2015-10-05,1,,,,,,0
2558,9260002001053,登記記録の閉鎖等,0,2024-04-22,2024-04-10,有限会社上田ホーム,,有限会社,岡山県,岡山市北区,田原１４６番地,,33,101,7011132,,,2024-04-10,清算の結了等,,,2015-10-05,1,,,,,ウエダホーム,0
2565,9290001064701,登記記録の閉鎖等,0,2024-04-22,2024-04-01,株式会社リペアエンジ,,株式会社,福岡県,福岡市早良区,百道浜２丁目３番３３号,,40,137,8140001,,,2024-04-01,合併による解散等,6290001092671,令和６年４月１日福岡市早良区東入部五丁目１５番７号株式会社ヤマウ（6290001092671）に合併し解散,2015-10-05,1,,,,,リペアエンジ,0
2568,9290002027632,登記記録の閉鎖等,0,2024-04-22,2024-04-01,有限会社三喜,,有限会社,福岡県,福岡市西区,北原１丁目１３番２０号,,40,135,8190379,,,2024-04-01,合併による解散等,3290001055383,令和６年４月１日福岡県嘉穂郡桂川町大字寿命４４番地１株式会社功洋（3290001055383）に合併し解散,2015-10-05,1,,,,,ミキ,0
2575,9290802025785,登記記録の閉鎖等,0,2024-04-22,2024-04-12,有限会社ジャパンダストサービス,,有限会社,福岡県,田川郡川崎町,大字池尻３２１番地の１,,40,605,8270002,,,2024-04-12,清算の結了等,,,2015-10-05,1,,,,,ジャパンダストサービス,0
2599,9380001014234,登記記録の閉鎖等,0,2024-04-22,2024-04-16,クレハスタッフサービス株式会社,,株式会社,福島県,いわき市,錦町落合１３５番地,,07,204,9748232,,,2024-04-16,合併による解散等,6010001042662,令和６年４月１日東京都中央区日本橋浜町三丁目３番２号クレハサービス株式会社（6010001042662）に合併し解散,2015-10-05,1,,,,,クレハスタッフサービス,0
2602,9380002024050,登記記録の閉鎖等,0,2024-04-22,2024-04-10,有限会社新清企画,,有限会社,福島県,いわき市,鹿島町久保字木船１番地の２０,,07,204,9718144,,,2024-04-10,清算の結了等,,,2015-10-05,1,,,,,シンセイキカク,0
2603,9390002012871,登記記録の閉鎖等,0,2024-04-22,2024-04-09,三晃興業有限会社,,有限会社,山形県,米沢市,中田町５５８番地の１,,06,202,9920011,,,2024-04-09,清算の結了等,,,2015-10-05,1,,,,,サンコウコウギョウ,0
2609,9430002020382,登記記録の閉鎖等,0,2024-04-22,2024-04-15,有限会社ヤマイシ大商建機,,有限会社,北海道,札幌市白石区,北郷六条９丁目１番６号,,01,104,0030836,,,2024-04-15,清算の結了等,,,2015-10-05,1,,,,,,0
2619,9480003001170,登記記録の閉鎖等,0,2024-04-22,2024-04-16,合同会社シンボク,,合同会社,徳島県,徳島市,助任本町５丁目５０番地,,36,201,7700816,,,2024-04-16,清算の結了等,,,2017-12-13,1,,,,,シンボク,0
