sequenceNumber,corporateNumber,process,correct,updateDate,changeDate,name,nameImageId,kind,prefectureName,cityName,streetNumber,addressImageId,prefectureCode,cityCode,postCode,addressOutside,addressOutsideImageId,closeDate,closeCause,successorCorporateNumber,changeCause,assignmentDate,latest,enName,enPrefectureName,enCityName,enAddressOutside,furigana,hihyoji
4,1010001236070,新規,0,2023-06-13,2023-06-13,ニュービン株式会社,,株式会社,東京都,中央区,日本橋兜町１７番２号兜町第６葉山ビル４階,,13,102,1030026,,,,,,,2023-06-13,1,,,,,ニュービン,0
5,1010001236079,新規,0,2023-06-13,2023-06-13,株式会社ディーインベストメント,,株式会社,東京都,中央区,銀座１丁目１２番４号Ｎ＆ＥＢＬＤ．６Ｆ,,13,102,1040061,,,,,,,2023-06-13,1,,,,,ディーインベストメント,0
9,1010003040826,新規,0,2023-06-13,2023-06-13,合同会社アクアポイント,,合同会社,東京都,中央区,銀座１丁目１２番４号Ｎ＆Ｅ・ＢＬＤ．７階,,13,102,1040061,,,,,,,2023-06-13,1,,,,,アクアポイント,0
10,1010003040842,新規,0,2023-06-13,2023-06-13,日向合同会社,,合同会社,東京都,中央区,銀座４丁目３番２号銀座白亜ビル５階,,13,102,1040061,,,,,,,2023-06-13,1,,,,,ヒュウガ,0
11,1010003040859,新規,0,2023-06-13,2023-06-13,東洋トラスト合同会社,,合同会社,東京都,中央区,銀座１丁目２２番１１号銀座大竹ビジデンス２階,,13,102,1040061,,,,,,,2023-06-13,1,,,,,トウヨウトラスト,0
12,1010005036822,新規,0,2023-06-13,2023-06-13,一般社団法人メディカルブリッジ,,その他の設立登記法人,東京都,千代田区,神田小川町１丁目８番地フタバビル３階,,13,101,1010052,,,,,,,2023-06-13,1,,,,,メディカルブリッジ,0
25,1010601063245,新規,0,2023-06-13,2023-06-13,匯京株式会社,,株式会社,東京都,江東区,深川１丁目１番２号協和ビル２階４９号室,,13,108,1350033,,,,,,,2023-06-13,1,,,,,カイケイ,0
31,1010801034046,新規,0,2023-06-13,2023-06-13,株式会社ＭＩＳＯＮＯ,,株式会社,東京都,大田区,東嶺町４３番１４号,,13,111,1450074,,,,,,,2023-06-13,1,,,,,ミソノ,0
38,1011001154980,新規,0,2023-06-13,2023-06-13,株式会社Ｅｎｖｉｒｏｎｍｅｎｔ,,株式会社,東京都,渋谷区,神宮前５丁目４７番１０号ＯＤ表参道ビル３階,,13,113,1500001,,,,,,,2023-06-13,1,,,,,エンバイロメント,0
39,1011001155054,新規,0,2023-06-13,2023-06-13,株式会社フォースイッチ,,株式会社,東京都,渋谷区,渋谷２丁目１９番１５号宮益坂ビルディング６０９,,13,113,1500002,,,,,,,2023-06-13,1,,,,,フォースイッチ,0
40,1011001155079,新規,0,2023-06-13,2023-06-13,株式会社東京事務所,,株式会社,東京都,渋谷区,東２丁目６番１８号プライムハウス２０３号,,13,113,1500011,,,,,,,2023-06-13,1,,,,,トウキョウジムショ,0
42,1011005010107,新規,0,2023-06-13,2023-06-13,一般財団法人子ども文庫の会,,その他の設立登記法人,東京都,渋谷区,元代々木町４９番２３－２０２号,,13,113,1510062,,,,,,,2023-06-13,1,,,,,コドモブンコノカイ,0
51,1011101103227,新規,0,2023-06-13,2023-06-13,おうちでマーラータン株式会社,,株式会社,東京都,新宿区,大久保３丁目８番３号２９Ｆ,,13,104,1690072,,,,,,,2023-06-13,1,,,,,オウチデマーラータン,0
52,1011101103251,新規,0,2023-06-13,2023-06-13,ＴＲＥリゾーツ株式会社,,株式会社,東京都,新宿区,西新宿６丁目１５番１－２９０２号,,13,104,1600023,,,,,,,2023-06-13,1,,,,,ティーアールイーリゾーツ,0
59,1011303004792,新規,0,2023-06-13,2023-06-13,合同会社山口会計,,合同会社,東京都,杉並区,井草２丁目２４番６号,,13,115,1670021,,,,,,,2023-06-13,1,,,,,,0
61,1011401025195,新規,0,2023-06-13,2023-06-13,Ｃｌｏｕｄサイエンス株式会社,,株式会社,東京都,板橋区,舟渡１丁目１２番１１号,,13,119,1740041,,,,,,,2023-06-13,1,,,,,クラウドサイエンス,0
63,1011701026331,新規,0,2023-06-13,2023-06-13,藤沢第四期株式会社,,株式会社,東京都,江戸川区,中葛西５丁目２０番９号ＳＵＮＧＩＯＩＡＮｏｒｔｈ１０１,,13,123,1340083,,,,,,,2023-06-13,1,,,,,フジサワダイヨンキ,0
70,1013303006653,新規,0,2023-06-13,2023-06-13,ＷｒｉｔｉｎｇＷｒｉｔｅ合同会社,,合同会社,東京都,豊島区,南池袋３丁目１８－４９，ナチュレ東池袋２０３号室,,13,116,1710022,,,,,,,2023-06-13,1,,,,,ライティングライト,0
73,1020001152069,新規,0,2023-06-13,2023-06-13,株式会社ＫＹＴ,,株式会社,神奈川県,川崎市中原区,木月４丁目４２番８号ネクストステージＢ,,14,133,2110025,,,,,,,2023-06-13,1,,,,,ケーワイティー,0
77,1020003024043,新規,0,2023-06-13,2023-06-13,ＰＲＡＮＡＢ合同会社,,合同会社,神奈川県,横浜市鶴見区,東寺尾東台１１－２,,14,101,2300018,,,,,,,2023-06-13,1,,,,,プラナブ,0
82,1021001079310,新規,0,2023-06-13,2023-06-13,株式会社岩崎電気商会,,株式会社,神奈川県,伊勢原市,石田３０６番地の１－１０３,,14,214,2591116,,,,,,,2023-06-13,1,,,,,イワサキデンキショウカイ,0
83,1021001079319,新規,0,2023-06-13,2023-06-13,株式会社三星商会,,株式会社,神奈川県,相模原市南区,古淵３丁目１１番１６号古淵シティビル４０８,,14,153,2520344,,,,,,,2023-06-13,1,,,,,ミツボシショウカイ,0
102,1040001128802,新規,0,2023-06-13,2023-06-13,株式会社ファーストアップ,,株式会社,千葉県,四街道市,池花２丁目２１番１号,,12,228,2840014,,,,,,,2023-06-13,1,,,,,ファーストアップ,0
103,1040001128819,新規,0,2023-06-13,2023-06-13,株式会社Ｍｉｒａｋｕｕ,,株式会社,千葉県,鎌ケ谷市,中沢１０２５番地２４,,12,224,2730118,,,,,,,2023-06-13,1,,,,,ミラクー,0
106,1040003022788,新規,0,2023-06-13,2023-06-13,合同会社シーダ企画,,合同会社,千葉県,船橋市,湊町１丁目１８番３号,,12,204,2730011,,,,,,,2023-06-13,1,,,,,シーダキカク,0
119,1070003004981,新規,0,2023-06-13,2023-06-13,合同会社ＭＷＲ,,合同会社,群馬県,太田市,世良田町１０５８番地１,,10,205,3700426,,,,,,,2023-06-13,1,,,,,,0
123,1090001018172,新規,0,2023-06-13,2023-06-13,株式会社Ｎｏｉｉ,,株式会社,山梨県,富士吉田市,上暮地４丁目５番２号,,19,202,4030001,,,,,,,2023-06-13,1,,,,,ノイ,0
124,1090003002331,新規,0,2023-06-13,2023-06-13,合同会社ブランドゥファンド,,合同会社,山梨県,北杜市,高根町清里３５４５－４０７０清里の森２－７－５,,19,209,4070301,,,,,,,2023-06-13,1,,,,,ブランドゥファンド,0
126,1100001036503,新規,0,2023-06-13,2023-06-13,株式会社りのべる,,株式会社,長野県,松本市,大字島立８５７番地１,,20,202,3900852,,,,,,,2023-06-13,1,,,,,リノベル,0
127,1100001036511,新規,0,2023-06-13,2023-06-13,株式会社パワーズ,,株式会社,長野県,諏訪市,大字豊田２８３７番地１,,20,206,3920016,,,,,,,2023-06-13,1,,,,,パワーズ,0
131,1110003005083,新規,0,2023-06-13,2023-06-13,合同会社Ｋ・Ｓ・Ｋ,,合同会社,新潟県,長岡市,古正寺１丁目３０７３番地サーパス古正寺４０８号室,,15,202,9402106,,,,,,,2023-06-13,1,,,,,ケーエスケー,0
137,1120001255258,新規,0,2023-06-13,2023-06-13,株式会社Ｌｉｎｋ,,株式会社,大阪府,大阪市西区,西本町１丁目４番１号オリックス本町ビル４階,,27,106,5500005,,,,,,,2023-06-13,1,,,,,リンク,0
138,1120001255530,新規,0,2023-06-13,2023-06-13,日本映画Ｖｉｓｉｏｎ株式会社,,株式会社,大阪府,大阪市大正区,三軒家西３丁目４番１６号中山ビル４０５Ｂ,,27,108,5510001,,,,,,,2023-06-13,1,,,,,ニホンエイガビジョン,0
139,1120001255638,新規,0,2023-06-13,2023-06-13,株式会社バイザストック,,株式会社,大阪府,守口市,八雲西町１丁目４５番１５－１０３号,,27,209,5700006,,,,,,,2023-06-13,1,,,,,バイザストック,0
140,1120001255646,新規,0,2023-06-13,2023-06-13,株式会社Ａｒｋ,,株式会社,大阪府,大阪市北区,大淀中５丁目１４番１号,,27,127,5310076,,,,,,,2023-06-13,1,,,,,アーク,0
142,1120003024272,新規,0,2023-06-13,2023-06-13,アドテックス合同会社,,合同会社,大阪府,大阪市生野区,巽東２丁目９番２５号プロスパーイースト３０１号,00130825,27,116,5440014,,,,,,,2023-06-13,1,,,,,アドテックス,0
143,1120003024289,新規,0,2023-06-13,2023-06-13,合同会社クローバー電力,,合同会社,大阪府,枚方市,宇山町２番１８号,,27,210,5731143,,,,,,,2023-06-13,1,,,,,クローバーデンリョク,0
147,1120901047647,新規,0,2023-06-13,2023-06-13,安信商事株式会社,,株式会社,大阪府,茨木市,彩都あさぎ６丁目８番９号,,27,211,5670085,,,,,,,2023-06-13,1,,,,,アンシンショウジ,0
148,1120901047655,新規,0,2023-06-13,2023-06-13,天遊株式会社,,株式会社,大阪府,吹田市,千里山西６丁目６２番Ａ－１０４号,,27,205,5650851,,,,,,,2023-06-13,1,,,,,テンユウ,0
149,1120903004687,新規,0,2023-06-13,2023-06-13,ミライズ合同会社,,合同会社,大阪府,高槻市,紫町３番１号ジェイグラン高槻１０５,,27,207,5691125,,,,,,,2023-06-13,1,,,,,ミライズ,0
154,1130001074541,新規,0,2023-06-13,2023-06-13,ＫＹＯＥＩ‐ＦＡ株式会社,,株式会社,京都府,京都市西京区,大枝中山町１番地４２３,,26,111,6101104,,,,,,,2023-06-13,1,,,,,キョウエイエフエイ,0
155,1130005016795,新規,0,2023-06-13,2023-06-13,一般社団法人みんなの居場所かむはぴ,,その他の設立登記法人,京都府,向日市,寺戸町中垣内２７番地,,26,208,6170002,,,,,,,2023-06-13,1,,,,,ミンナノイバショカムハピ,0
160,1140001130392,新規,0,2023-06-13,2023-06-13,株式会社ＬＩＡＩＳＯＮ,,株式会社,兵庫県,小野市,天神町９４６番地の２,,28,218,6751316,,,,,,,2023-06-13,1,,,,,リエゾン,0
161,1140001130459,新規,0,2023-06-13,2023-06-13,株式会社Ｋ・Ｍ,,株式会社,兵庫県,西宮市,南甲子園２丁目６番１０－２０１号,,28,204,6638153,,,,,,,2023-06-13,1,,,,,ケーエム,0
162,1140001130475,新規,0,2023-06-13,2023-06-13,株式会社あわいち,,株式会社,兵庫県,淡路市,佐野６０５番地２,,28,226,6562212,,,,,,,2023-06-13,1,,,,,アワイチ,0
163,1140001130517,新規,0,2023-06-13,2023-06-13,スローライフ株式会社,,株式会社,兵庫県,加古川市,加古川町寺家町６２１ＪＡビル２Ｆ,,28,210,6750066,,,,,,,2023-06-13,1,,,,,スローライフ,0
166,1140003019196,新規,0,2023-06-13,2023-06-13,合同会社Ｗ　ＢＥＩＮＧ,,合同会社,兵庫県,尼崎市,西大物町１２番５５－３３０３号,,28,202,6600827,,,,,,,2023-06-13,1,,,,,ダブルビーイング,0
168,1160003002902,新規,0,2023-06-13,2023-06-13,合同会社ヴィレクール,,合同会社,滋賀県,大津市,中央３丁目４番１６号,,25,201,5200043,,,,,,,2023-06-13,1,,,,,ヴィレクール,0
178,1180301037474,新規,0,2023-06-13,2023-06-13,株式会社Ｂ・ＢＲＡＶＥ,,株式会社,愛知県,豊田市,亀首町東畑５８番地８,,23,211,4700375,,,,,,,2023-06-13,1,,,,,ビーブレイブ,0
181,1190001030489,新規,0,2023-06-13,2023-06-13,株式会社星輝グローバル,,株式会社,三重県,四日市市,赤堀３丁目１２番２２号,,24,202,5100826,,,,,,,2023-06-13,1,,,,,セイキグローバル,0
184,1200001041393,新規,0,2023-06-13,2023-06-13,ＬＩＶＥ　Ａ　ＬＩＦＥ株式会社,,株式会社,岐阜県,本巣市,小柿４９番地４,,21,218,5010463,,,,,,,2023-06-13,1,,,,,ライブアライフ,0
185,1200001041402,新規,0,2023-06-13,2023-06-13,株式会社丸共,,株式会社,岐阜県,美濃加茂市,田島町１丁目１４番地,,21,211,5050032,,,,,,,2023-06-13,1,,,,,マルキョウ,0
189,1220001025460,新規,0,2023-06-13,2023-06-13,株式会社西高工業,,株式会社,石川県,能美市,来丸町６０番地,,17,211,9231244,,,,,,,2023-06-13,1,,,,,ニシタカコウギョウ,0
197,1240001061669,新規,0,2023-06-13,2023-06-13,Ｇナチュラルハーベスト株式会社,,株式会社,広島県,福山市,春日町浦上２７２６番地４,,34,207,7210902,,,,,,,2023-06-13,1,,,,,ジーナチュラルハーベスト,0
213,1290001101908,新規,0,2023-06-13,2023-06-13,株式会社新生設備設計,,株式会社,福岡県,福岡市東区,二又瀬新町９番２０－５０３号,,40,131,8120065,,,,,,,2023-06-13,1,,,,,シンセイセツビセッケイ,0
214,1290001101916,新規,0,2023-06-13,2023-06-13,株式会社ナチュラルエステート,,株式会社,福岡県,朝倉市,一木１１４８番地の１,,40,228,8380065,,,,,,,2023-06-13,1,,,,,ナチュラルエステート,0
223,1300001013333,新規,0,2023-06-13,2023-06-13,鈴乃和株式会社,,株式会社,佐賀県,唐津市,木綿町１９６７－２船越ビル１Ｆ,,41,202,8470044,,,,,,,2023-06-13,1,,,,,リンノワ,0
226,1330001030961,新規,0,2023-06-13,2023-06-13,株式会社不動産法人Ｚ,,株式会社,熊本県,熊本市南区,近見８丁目６番２９号,,43,104,8614101,,,,,,,2023-06-13,1,,,,,フドウサンホウジンゼット,0
238,1360003013061,新規,0,2023-06-13,2023-06-13,合同会社ブルームスマイル,,合同会社,沖縄県,那覇市,与儀１丁目２２番１５号グランツ１－４０２,,47,201,9020076,,,,,,,2023-06-13,1,,,,,ブルームスマイル,0
241,1370001050072,新規,0,2023-06-13,2023-06-13,グリーンベース株式会社,,株式会社,宮城県,亘理郡山元町,高瀬字宿原９７番地２,00130831,04,362,9892202,,,,,,,2023-06-13,1,,,,,グリーンベース,0
243,1370003006171,新規,0,2023-06-13,2023-06-13,合同会社Ｆｉｒｍａｍｅｎｔ,,合同会社,宮城県,仙台市青葉区,向田３－３,,04,101,9893215,,,,,,,2023-06-13,1,,,,,ファーマメント,0
246,1380001033778,新規,0,2023-06-13,2023-06-13,株式会社聡愛,,株式会社,福島県,福島市,大森字西ノ内８８番地の２,,07,201,9601101,,,,,,,2023-06-13,1,,,,,ソウア,0
262,1450003002344,新規,0,2023-06-13,2023-06-13,合同会社勇伸,,合同会社,北海道,枝幸郡枝幸町,南浜町１３４５番地６９,,01,514,0985804,,,,,,,2023-06-13,1,,,,,ユウシン,0
265,1460301005155,新規,0,2023-06-13,2023-06-13,株式会社セカンドレグ,,株式会社,北海道,北見市,美山町南８丁目４５番地４９,,01,208,0900068,,,,,,,2023-06-13,1,,,,,セカンドレグ,0
274,1700150114354,新規,0,2023-06-13,2023-06-13,Ａｖｏｌｏｎ　Ａｅｒｏｓｐａｃｅ　ＡＯＥ　４０　Ｌｉｍｉｔｅｄ,,外国会社等,,,,,,,,Ｎｕｍｂｅｒ　Ｏｎｅ　Ｂａｌｌｓｂｒｉｄｇｅ　Ｂｕｉｌｄｉｎｇ　１，Ｓｈｅｌｂｏｕｒｎｅ　Ｒｏａｄ　Ｂａｌｌｓｂｒｉｄｇｅ，Ｄｕｂｌｉｎ　４　Ｄ０４　ＦＰ６５　Ｉｒｅｌａｎｄ,,,,,,2023-06-13,1,,,,,アヴオロンエアロスパースエーオーイーフオーテイーリミテツド,0
275,1700150114627,新規,0,2023-06-13,2023-06-13,Ｅｌｅｃｔｒｏ　Ｓｃｉｅｎｔｉｆｉｃ　Ｉｎｄｕｓｔｒｉｅｓ，Ｉｎｃ．,,外国会社等,,,,,,,,１４５２３　ＳＷ　Ｍｉｌｌｉｋａｎ　Ｗａｙ　Ｂｅａｖｅｒｔｏｎ，ＯＲ　９７００５　ＵＳＡ,,,,,,2023-06-13,1,,,,,エレクトロサイエンテイフイツクインダストリーズインク,0
277,1700150117308,新規,0,2023-06-13,2023-06-13,Ｐｏｓｔｔａ　Ｔｅｃｈｎｏｌｏｇｙ　ＩＮＣ,,外国会社等,,,,,,,,Ｒｏｏｍ　２５５　Ｕｎｉｔ　１３　Ｂｕｉｌｄｉｎｇ　１８　３６　Ｓｏｕｔｈ　１８ｔｈ　Ａｖｅｎｕｅ　Ｓｕｉｔｅ　Ａ　Ａｄａｍｓ　Ｂｒｉｇｈｔｏｎ　ＣＯ　ＵＳＡ,,,,,,2023-06-13,1,,,,,ポスターテクノロジーインク,0
285,2010001236029,新規,0,2023-06-13,2023-06-13,楽求国際貿易株式会社,,株式会社,東京都,千代田区,神田佐久間町３丁目２８番地星野ビル５１０,,13,101,1010025,,,,,,,2023-06-13,1,,,,,ラクキュウコクサイボウエキ,0
289,2010003040841,新規,0,2023-06-13,2023-06-13,合同会社春山建設,,合同会社,東京都,千代田区,神田須田町２丁目２番１３号,,13,101,1010041,,,,,,,2023-06-13,1,,,,,ハルヤマケンセツ,0
292,2010005036821,新規,0,2023-06-13,2023-06-13,一般社団法人ＯＬＢこども基金,,その他の設立登記法人,東京都,千代田区,紀尾井町３番１０号,,13,101,1020094,,,,,,,2023-06-13,1,,,,,オーエルビーコドモキキン,0
295,2010401174951,新規,0,2023-06-13,2023-06-13,株式会社Ｅ‐ＰＯＷＥＲ,,株式会社,東京都,港区,西麻布２丁目２６番７号,,13,103,1060031,,,,,,,2023-06-13,1,,,,,イーパワー,0
296,2010401175000,新規,0,2023-06-13,2023-06-13,ＧＲＥＥＮ　ＧＯＬＤ　ＪＡＰＡＮ株式会社,,株式会社,東京都,港区,南青山２丁目１０番１１号,,13,103,1070062,,,,,,,2023-06-13,1,,,,,グリーンゴールドジャパン,0
297,2010401175066,新規,0,2023-06-13,2023-06-13,ＮＴＴイノベーティブデバイス株式会社,,株式会社,東京都,港区,港南１丁目２番７０号,,13,103,1080075,,,,,,,2023-06-13,1,,,,,エヌティティイノベーティブデバイス,0
307,2010601063252,新規,0,2023-06-13,2023-06-13,和光医科株式会社,,株式会社,東京都,墨田区,緑２丁目８番９号,,13,107,1300021,,,,,,,2023-06-13,1,,,,,ワコウイカ,0
308,2010601063260,新規,0,2023-06-13,2023-06-13,株式会社盛ホールディングス,,株式会社,東京都,江東区,塩浜１丁目４番３３－８３９号,,13,108,1350043,,,,,,,2023-06-13,1,,,,,セイホールディングス,0
310,2010703006729,新規,0,2023-06-13,2023-06-13,夜明けのホールディングス合同会社,,合同会社,東京都,品川区,中延５丁目１４番２７号,,13,109,1420053,,,,,,,2023-06-13,1,,,,,ヨアケノホールディングス,0
313,2010901053234,新規,0,2023-06-13,2023-06-13,株式会社ｍａｔｏｍａ,,株式会社,東京都,世田谷区,大原１丁目４８番１３号,,13,112,1560041,,,,,,,2023-06-13,1,,,,,マトマ,0
316,2010903008236,新規,0,2023-06-13,2023-06-13,合同会社リプレイ,,合同会社,東京都,世田谷区,等々力７丁目１４番２－２０３号,,13,112,1580082,,,,,,,2023-06-13,1,,,,,リプレイ,0
324,2011001155020,新規,0,2023-06-13,2023-06-13,株式会社ＫＵＭＯ＆Ｃｏ,,株式会社,東京都,渋谷区,初台１丁目５１番地１号初台センタービル２１１,,13,113,1510061,,,,,,,2023-06-13,1,,,,,クモアンドコー,0
325,2011001155029,新規,0,2023-06-13,2023-06-13,株式会社ブーストアップエンターテインメント,,株式会社,東京都,渋谷区,桜丘町２３番１７号シティコート桜丘４０８,,13,113,1500031,,,,,,,2023-06-13,1,,,,,ブーストアップエンターテインメント,0
326,2011001155037,新規,0,2023-06-13,2023-06-13,Ｌｉｖｅｆｏｒ株式会社,,株式会社,東京都,渋谷区,猿楽町１８番８号,,13,113,1500033,,,,,,,2023-06-13,1,,,,,リブフォー,0
327,2011001155053,新規,0,2023-06-13,2023-06-13,くりとんたん株式会社,,株式会社,東京都,渋谷区,渋谷２丁目１９番１５号宮益坂ビルディング６０９,,13,113,1500002,,,,,,,2023-06-13,1,,,,,クリトンタン,0
329,2011003016971,新規,0,2023-06-13,2023-06-13,合同会社Ｓａｎｔｒａ,,合同会社,東京都,渋谷区,円山町１５番６号アーバンコート渋谷２０２,,13,113,1500044,,,,,,,2023-06-13,1,,,,,サントラ,0
330,2011003016988,新規,0,2023-06-13,2023-06-13,スパイラルハウス合同会社,,合同会社,東京都,目黒区,下目黒４丁目１６番１号,,13,110,1530064,,,,,,,2023-06-13,1,,,,,スパイラルハウス,0
331,2011003016996,新規,0,2023-06-13,2023-06-13,合同会社ＶＯＤＣＡ,,合同会社,東京都,渋谷区,神宮前２丁目３３－１２ビラ・ビアンカ２０１,,13,113,1500001,,,,,,,2023-06-13,1,,,,,ウォッカ,0
332,2011101103234,新規,0,2023-06-13,2023-06-13,株式会社キーストン総研,,株式会社,東京都,新宿区,西新宿７丁目７番２５号ワコーレ新宿第二ビル４０１号,,13,104,1600023,,,,,,,2023-06-13,1,,,,,キーストンソウケン,0
333,2011101103242,新規,0,2023-06-13,2023-06-13,株式会社Ｌｏｙａｌｔｙ,,株式会社,東京都,新宿区,西新宿３丁目３番１３号西新宿水間ビル６階,,13,104,1600023,,,,,,,2023-06-13,1,,,,,ロイヤリティ,0
334,2011103013142,新規,0,2023-06-13,2023-06-13,合同会社ティー・テクノフィールド,,合同会社,東京都,新宿区,下落合２丁目５番３号千成ビル２０３,,13,104,1610033,,,,,,,2023-06-13,1,,,,,ティーテクノフィールド,0
346,2011401025203,新規,0,2023-06-13,2023-06-13,ＮＯＡＨ株式会社,,株式会社,東京都,板橋区,弥生町３－３メゾトーネＭ３０１室,,13,119,1730021,,,,,,,2023-06-13,1,,,,,ノア,0
349,2011405002248,新規,0,2023-06-13,2023-06-13,一般社団法人居住支援・困難者支援ラボ,,その他の設立登記法人,東京都,板橋区,成増１丁目２９番７－８０５号,,13,119,1750094,,,,,,,2023-06-13,1,,,,,キョジュウシエンコンナンシャシエンラボ,0
353,2011603003948,新規,0,2023-06-13,2023-06-13,ＴＯＦＵ合同会社,,合同会社,東京都,練馬区,南田中５丁目１０番３２号－２０５号室,,13,120,1770035,,,,,,,2023-06-13,1,,,,,トウフ,0
357,2011801042558,新規,0,2023-06-13,2023-06-13,株式会社ＵｎｉＣａｌｕ．,,株式会社,東京都,足立区,伊興１丁目２０番９号,,13,121,1210823,,,,,,,2023-06-13,1,,,,,ユニカル,0
369,2020001152027,新規,0,2023-06-13,2023-06-13,大成商会株式会社,,株式会社,神奈川県,横浜市南区,永楽町１丁目７番地２伊勢佐木町ダイカンプラザＣｉｔｙＩＩ１１０５号,00130827,14,105,2320031,,,,,,,2023-06-13,1,,,,,タイセイショウカイ,0
378,2021001079318,新規,0,2023-06-13,2023-06-13,株式会社大谷商店,,株式会社,神奈川県,相模原市中央区,横山４丁目２３番１５号江上マンション１０３号,,14,152,2520242,,,,,,,2023-06-13,1,,,,,オオタニショウテン,0
380,2021003013183,新規,0,2023-06-13,2023-06-13,Ｈ＆Ａ　ＦＯＯＤＩＥＳ合同会社,,合同会社,神奈川県,横須賀市,太田和１丁目３０番７号ベルヴィオーラ１０２,,14,201,2380311,,,,,,,2023-06-13,1,,,,,エイチアンドエーフーディーズ,0
381,2021003013200,新規,0,2023-06-13,2023-06-13,アトリエＮＹ合同会社,,合同会社,神奈川県,三浦市,南下浦町上宮田３４４４番地２,,14,210,2380101,,,,,,,2023-06-13,1,,,,,アトリエエヌワイ,0
384,2030001154443,新規,0,2023-06-13,2023-06-13,株式会社雅建装,,株式会社,埼玉県,春日部市,米島８０５番地１０,,11,214,3440115,,,,,,,2023-06-13,1,,,,,ミヤビケンソウ,0
396,2040001128792,新規,0,2023-06-13,2023-06-13,株式会社宇井復旧,,株式会社,千葉県,香取郡多古町,島２３４８番地,,12,347,2892243,,,,,,,2023-06-13,1,,,,,ウイフッキュウ,0
397,2040001128801,新規,0,2023-06-13,2023-06-13,株式会社ＧＲＡＳＩＭ,,株式会社,千葉県,我孫子市,柴崎台１丁目２番１号,,12,222,2701176,,,,,,,2023-06-13,1,,,,,グラシム,0
398,2040001128818,新規,0,2023-06-13,2023-06-13,２ＳＵＮ貿易株式会社,,株式会社,千葉県,流山市,松ケ丘４丁目５０５番地の２４,,12,220,2700141,,,,,,,2023-06-13,1,,,,,ニサンボウエキ,0
402,2040003022770,新規,0,2023-06-13,2023-06-13,合同会社オフィスサポート,,合同会社,千葉県,印西市,戸神台２丁目１－１－５０４,,12,231,2701349,,,,,,,2023-06-13,1,,,,,オフィスサポート,0
406,2050001052983,新規,0,2023-06-13,2023-06-13,株式会社日本開発,,株式会社,茨城県,坂東市,逆井２２６０番地３,,08,228,3060501,,,,,,,2023-06-13,1,,,,,ニホンカイハツ,0
411,2060001036069,新規,0,2023-06-13,2023-06-13,宇都宮子育て支援株式会社,,株式会社,栃木県,宇都宮市,錦２丁目７番２号ポケットオフィスＮＩＳＨＩＫＩ,,09,201,3210967,,,,,,,2023-06-13,1,,,,,ウツノミヤコソダテシエン,0
412,2060003004602,新規,0,2023-06-13,2023-06-13,合同会社アヴニール,,合同会社,栃木県,小山市,東城南２丁目５－６グランオッツ３棟２０３,,09,208,3230829,,,,,,,2023-06-13,1,,,,,アヴニール,0
417,2070003004980,新規,0,2023-06-13,2023-06-13,合同会社ヒセイ,,合同会社,群馬県,伊勢崎市,下植木町１１番１－１Ｆ,,10,204,3720024,,,,,,,2023-06-13,1,,,,,ヒセイ,0
421,2080103002826,新規,0,2023-06-13,2023-06-13,合同会社Ｂ＆Ｈプランニング,,合同会社,静岡県,沼津市,原１７２１番地の１１コチビル１階西,,22,203,4100312,,,,,,,2023-06-13,1,,,,,ビーアンドエイチプランニング,0
423,2080403004803,新規,0,2023-06-13,2023-06-13,合同会社きらめき,,合同会社,静岡県,磐田市,明ケ島原３１番地１,,22,211,4380019,,,,,,,2023-06-13,1,,,,,キラメキ,0
429,2110001037607,新規,0,2023-06-13,2023-06-13,株式会社クリーンエステック,,株式会社,新潟県,阿賀野市,北本町１２番１４－３号,,15,223,9592015,,,,,,,2023-06-13,1,,,,,クリーンエステック,0
441,2120001255496,新規,0,2023-06-13,2023-06-13,ＩＯＩ株式会社,,株式会社,大阪府,大阪市天王寺区,上本町３丁目１番１９－１２０１号,,27,109,5430001,,,,,,,2023-06-13,1,,,,,イマイ,0
442,2120001255587,新規,0,2023-06-13,2023-06-13,纂贏株式会社,,株式会社,大阪府,大阪市大正区,三軒家西３丁目４番１６号中山ビル３０４Ｂ,,27,108,5510001,,,,,,,2023-06-13,1,,,,,サンエイ,0
443,2120001255612,新規,0,2023-06-13,2023-06-13,大阪建機サービス株式会社,,株式会社,大阪府,大阪市港区,市岡３丁目６番２０号,,27,107,5520012,,,,,,,2023-06-13,1,,,,,オオサカケンキサービス,0
444,2120001255620,新規,0,2023-06-13,2023-06-13,株式会社ＧｏＬａＺｏ,,株式会社,大阪府,大阪市東淀川区,瑞光２丁目８－１９－６０２,,27,114,5330005,,,,,,,2023-06-13,1,,,,,ゴラッソ,0
445,2120001255637,新規,0,2023-06-13,2023-06-13,株式会社古越斎,,株式会社,大阪府,大阪市中央区,南本町１丁目５番地２サンコービル１００８号,,27,128,5410054,,,,,,,2023-06-13,1,,,,,コエザイ,0
448,2120005023676,新規,0,2023-06-13,2023-06-13,一般社団法人道,,その他の設立登記法人,大阪府,大阪市中央区,南船場２丁目７番２４号ＪＵＳＴ南船場８０１,,27,128,5420081,,,,,,,2023-06-13,1,,,,,タオ,0
449,2120101067726,新規,0,2023-06-13,2023-06-13,時語株式会社,,株式会社,大阪府,阪南市,舞４丁目３０番６号,,27,232,5990224,,,,,,,2023-06-13,1,,,,,トキゴ,0
451,2120901047654,新規,0,2023-06-13,2023-06-13,Ｅ　Ｏｎｅ　Ｔｅｃｈ株式会社,,株式会社,大阪府,摂津市,鳥飼下３丁目４７番９号,,27,224,5660071,,,,,,,2023-06-13,1,,,,,イーワンテック,0
452,2120901047662,新規,0,2023-06-13,2023-06-13,Ｒｉｃｏｒｄｉ株式会社,,株式会社,大阪府,池田市,西本町６番１７号メゾンクレール６０１,,27,204,5630059,,,,,,,2023-06-13,1,,,,,リコルディ,0
453,2120903004686,新規,0,2023-06-13,2023-06-13,合同会社ｂａｓｅ,,合同会社,大阪府,摂津市,鳥飼上１丁目３番１２号,,27,224,5660062,,,,,,,2023-06-13,1,,,,,ベース,0
460,2140001130466,新規,0,2023-06-13,2023-06-13,株式会社ＴＳＣ,,株式会社,兵庫県,神戸市中央区,生田町３丁目２－１０ルナコーポ１Ｆ,,28,110,6510092,,,,,,,2023-06-13,1,,,,,ティーエスシー,0
461,2140001130490,新規,0,2023-06-13,2023-06-13,株式会社コロン,,株式会社,兵庫県,明石市,二見町東二見７３２番地の１８,,28,203,6740092,,,,,,,2023-06-13,1,,,,,コロン,0
462,2140001130524,新規,0,2023-06-13,2023-06-13,ホワイト・システム株式会社,,株式会社,兵庫県,神戸市北区,花山台２１番４号,,28,109,6511205,,,,,,,2023-06-13,1,,,,,ホワイトシステム,0
473,2150005009490,新規,0,2023-06-13,2023-06-13,一般財団法人日本文化振興財団みやび,,その他の設立登記法人,奈良県,橿原市,白橿町２丁目２２１１番地１,,29,205,6340051,,,,,,,2023-06-13,1,,,,,ニホンブンカシンコウザイダンミヤビ,0
482,2180301037473,新規,0,2023-06-13,2023-06-13,株式会社Ｍ’ｓアート,,株式会社,愛知県,刈谷市,一ツ木町鵜島１番地２４９,,23,210,4480003,,,,,,,2023-06-13,1,,,,,エムズアート,0
488,2210003001658,新規,0,2023-06-13,2023-06-13,福井くにみ風力合同会社,,合同会社,福井県,福井市,中央１丁目２０番２５号,,18,201,9100006,,,,,,,2023-06-13,1,,,,,フクイクニミフウリョク,0
490,2230001019881,新規,0,2023-06-13,2023-06-13,株式会社坂井板金工業,,株式会社,富山県,富山市,藤木２１０５番地１２,,16,201,9300936,,,,,,,2023-06-13,1,,,,,サカイバンキンコウギョウ,0
493,2240001061676,新規,0,2023-06-13,2023-06-13,株式会社エフビーエム,,株式会社,広島県,広島市安佐南区,古市２丁目２番２５号ＦＫビル３階,,34,105,7310123,,,,,,,2023-06-13,1,,,,,エフビーエム,0
501,2280001008962,新規,0,2023-06-13,2023-06-13,株式会社ＳｔｉＬｅ,,株式会社,島根県,益田市,種村町イ１７８０番地１,,32,204,6993504,,,,,,,2023-06-13,1,,,,,スタイル,0
502,2280005007556,新規,0,2023-06-13,2023-06-13,一般社団法人千翔企画,,その他の設立登記法人,島根県,松江市,和多見町９７番地ザ・チャイムビル３０１,,32,201,6900005,,,,,,,2023-06-13,1,,,,,センショウキカク,0
507,2290001101907,新規,0,2023-06-13,2023-06-13,株式会社キャラメル,,株式会社,福岡県,福岡市南区,清水３丁目１７番７号,,40,134,8150031,,,,,,,2023-06-13,1,,,,,キャラメル,0
508,2290001101915,新規,0,2023-06-13,2023-06-13,株式会社ナチュラルリアルティ,,株式会社,福岡県,朝倉市,一木１１４８番地の１,,40,228,8380065,,,,,,,2023-06-13,1,,,,,ナチュラルリアルティ,0
511,2290003014017,新規,0,2023-06-13,2023-06-13,サイドサポート合同会社,,合同会社,福岡県,福岡市博多区,博多駅前１丁目２３番２号５Ｆ－Ｂ,,40,132,8120011,,,,,,,2023-06-13,1,,,,,サイドサポート,0
512,2290005019063,新規,0,2023-06-13,2023-06-13,弁護士法人若杉法律事務所,,その他の設立登記法人,福岡県,福岡市中央区,大名２丁目１１番２５号新栄ビル５階,,40,133,8100041,,,,,,,2023-06-13,1,,,,,ワカスギホウリツジムショ,0
514,2290801029595,新規,0,2023-06-13,2023-06-13,株式会社寿２,,株式会社,福岡県,北九州市小倉南区,石田南２丁目４番１号,,40,107,8020836,,,,,,,2023-06-13,1,,,,,コトブキツー,0
515,2300001013332,新規,0,2023-06-13,2023-06-13,株式会社久輝工業,,株式会社,佐賀県,伊万里市,二里町八谷搦１２０４番地１ネオス伊万里ザ・スクエア２０３号室,,41,205,8480031,,,,,,,2023-06-13,1,,,,,ヒサキコウギョウ,0
526,2330003009879,新規,0,2023-06-13,2023-06-13,合同会社光昭,,合同会社,熊本県,熊本市東区,錦ケ丘２３番５号的場ビル１０２,,43,102,8620912,,,,,,,2023-06-13,1,,,,,コウショウ,0
528,2360001032153,新規,0,2023-06-13,2023-06-13,株式会社ＯＫＮＷ,,株式会社,沖縄県,那覇市,牧志３丁目１３番１１号アリエッタミオナ７０１,,47,201,9000013,,,,,,,2023-06-13,1,,,,,オキナワ,0
533,2370003006170,新規,0,2023-06-13,2023-06-13,合同会社ｔｅｒｒａ,,合同会社,宮城県,仙台市太白区,山田上ノ台町６番１０号,,04,104,9820815,,,,,,,2023-06-13,1,,,,,テラ,0
539,2420003002742,新規,0,2023-06-13,2023-06-13,合同会社ひのまるＴＯＳＯ,,合同会社,青森県,青森市,筒井３丁目１４－２１,,02,201,0300944,,,,,,,2023-06-13,1,,,,,ヒノマルトソウ,0
550,2700150114287,新規,0,2023-06-13,2023-06-13,Ｌａｆｃａｄｉｏ　Ｌｅａｓｉｎｇ　Ｊａｐａｎ　Ｌｉｍｉｔｅｄ,,外国会社等,,,,,,,,５１－５２　Ｆｉｔｚｗｉｌｌｉａｍ　Ｓｑｕａｒｅ　Ｗｅｓｔ，Ｄｕｂｌｉｎ２，Ｄｕｂｌｉｎ，Ｉｒｅｌａｎｄ,,,,,,2023-06-13,1,,,,,ラフカデイオリーシングジヤパンリミテツド,0
551,2700150114353,新規,0,2023-06-13,2023-06-13,ＡｖｏｌｏｎＬｅａｓｉｎｇＩｒｅｌａｎｄ３Ｌｉｍｉｔｅｄ,,外国会社等,,,,,,,,Ｎｕｍｂｅｒ　Ｏｎｅ　Ｂａｌｌｓｂｒｉｄｇｅ　Ｂｕｉｌｄｉｎｇ　１，Ｓｈｅｌｂｏｕｒｎｅ　Ｒｏａｄ　Ｂａｌｌｓｂｒｉｄｇｅ，Ｄｕｂｌｉｎ　４　Ｄ０４　ＦＰ６５　Ｉｒｅｌａｎｄ,,,,,,2023-06-13,1,,,,,アヴオロンリーシングアイルランドスリーリミテツド,0
552,2700150117307,新規,0,2023-06-13,2023-06-13,ＴＯＰＳＯＮＥ　ＩＮＣ．,,外国会社等,,,,,,,,１３１　ＢＡＹ　２３　ＲＤ　ＳＴ　ＢＲＯＯＫＬＹＮ　ＮＹ　１１２１４　ＵＳ,,,,,,2023-06-13,1,,,,,トップソゥンインコーポレイティド,0
555,3010001235921,新規,0,2023-06-13,2023-06-13,株式会社ベルフィーダ,,株式会社,東京都,千代田区,神田東松下町２５番地,,13,101,1010042,,,,,,,2023-06-13,1,,,,,ベルフィーダ,0
556,3010001236093,新規,0,2023-06-13,2023-06-13,株式会社Ｆｉｎｇ’ｓ,,株式会社,東京都,文京区,小石川２丁目１番２号ユニオン小石川第１ビル３０１号,,13,105,1120002,,,,,,,2023-06-13,1,,,,,フィングス,0
557,3010003040857,新規,0,2023-06-13,2023-06-13,Ｉｎｆｉｎｉｔｙ　Ｊａｐａｎ　Ｋｙｏｔｏ１合同会社,,合同会社,東京都,千代田区,丸の内３丁目１番１号東京共同会計事務所内,,13,101,1000005,,,,,,,2023-06-13,1,,,,,インフィニティジャパンキョウトワン,0
566,3010401174991,新規,0,2023-06-13,2023-06-13,株式会社ポンテ,,株式会社,東京都,港区,南青山５丁目４番３５－１００６号,,13,103,1070062,,,,,,,2023-06-13,1,,,,,ポンテ,0
567,3010401175008,新規,0,2023-06-13,2023-06-13,バイオソリューションホールディングス株式会社,,株式会社,東京都,港区,麻布永坂町１番地一番地ハウス２Ａ,,13,103,1060043,,,,,,,2023-06-13,1,,,,,バイオソリューションホールディングス,0
580,3010901053233,新規,0,2023-06-13,2023-06-13,ＳＨホールディングス株式会社,,株式会社,東京都,世田谷区,玉川田園調布２丁目９番１４号,,13,112,1580085,,,,,,,2023-06-13,1,,,,,エスエイチホールディングス,0
581,3010901053241,新規,0,2023-06-13,2023-06-13,株式会社マンモスロック,,株式会社,東京都,世田谷区,上用賀１丁目１番１－２０１号,,13,112,1580098,,,,,,,2023-06-13,1,,,,,マンモスロック,0
592,3011001154756,新規,0,2023-06-13,2023-06-13,株式会社りん,,株式会社,東京都,渋谷区,富ヶ谷１丁目３３番５号,,13,113,1510063,,,,,,,2023-06-13,1,,,,,リン,0
593,3011001154946,新規,0,2023-06-13,2023-06-13,ａｍａｉｎ株式会社,,株式会社,東京都,目黒区,下目黒３丁目７－８ガラステージ目黒３０４,,13,110,1530064,,,,,,,2023-06-13,1,,,,,アメイン,0
594,3011003016987,新規,0,2023-06-13,2023-06-13,ＡＲ＆Ｓ合同会社,,合同会社,東京都,渋谷区,神宮前２丁目３３－１８－２０５,,13,113,1500001,,,,,,,2023-06-13,1,,,,,エーアールアンドエス,0
599,3011101103209,新規,0,2023-06-13,2023-06-13,株式会社オリンポス,,株式会社,東京都,新宿区,中落合１丁目１２番８号ＧＲＡＮＰＡＳＥＯ新宿中井１０３,,13,104,1610032,,,,,,,2023-06-13,1,,,,,オリンポス,0
604,3011103013141,新規,0,2023-06-13,2023-06-13,合同会社浅草インベスターズ,,合同会社,東京都,新宿区,西新宿８丁目５番１号,,13,104,1600023,,,,,,,2023-06-13,1,,,,,アサクサインベスターズ,0
606,3011203004107,新規,0,2023-06-13,2023-06-13,ルーヴ合同会社,,合同会社,東京都,中野区,弥生町４丁目２６番４号ルフォン中野富士見町７０３,,13,114,1640013,,,,,,,2023-06-13,1,,,,,ルーヴ,0
609,3011303004799,新規,0,2023-06-13,2023-06-13,合同会社スタジオオクロック,,合同会社,東京都,杉並区,荻窪３丁目４７－６,,13,115,1670051,,,,,,,2023-06-13,1,,,,,スタジオオクロック,0
618,3012401040620,新規,0,2023-06-13,2023-06-13,株式会社ＧＲＥＥ‐Ｔ,,株式会社,東京都,三鷹市,新川６丁目２９－１８,,13,204,1810004,,,,,,,2023-06-13,1,,,,,グリート,0
620,3012801022425,新規,0,2023-06-13,2023-06-13,Ｎｏａ’ｓ　ａｒｃｈｅ株式会社,,株式会社,東京都,昭島市,宮沢町５１２番地１パークホームズ昭島中神４２８号,,13,207,1960024,,,,,,,2023-06-13,1,,,,,ノアズアルシェ,0
621,3012801022433,新規,0,2023-06-13,2023-06-13,株式会社聚昴,,株式会社,東京都,立川市,富士見町６丁目６３番２３号,,13,202,1900013,,,,,,,2023-06-13,1,,,,,シュウコウ,0
623,3013301050916,新規,0,2023-06-13,2023-06-13,株式会社ＪＥＶ　Ｅｄｕｃａｔｉｏｎ,,株式会社,東京都,豊島区,南大塚３丁目５５番１号,,13,116,1700005,,,,,,,2023-06-13,1,,,,,ジェブエドゥケーション,0
629,3020001152018,新規,0,2023-06-13,2023-06-13,株式会社ＡＮＭＥＬ,,株式会社,神奈川県,横浜市西区,北幸２丁目１０番地２８むつみビル３Ｆ,,14,103,2200004,,,,,,,2023-06-13,1,,,,,アンメル,0
630,3020001152042,新規,0,2023-06-13,2023-06-13,株式会社ウィリディス・マリス,,株式会社,神奈川県,横浜市保土ケ谷区,川辺町２番地５パークタワー横濱星川１５０２号,,14,106,2400001,,,,,,,2023-06-13,1,,,,,ウィリディスマリス,0
639,3021001079317,新規,0,2023-06-13,2023-06-13,株式会社ｌｕｃｋｗｅａｖｅ,,株式会社,神奈川県,相模原市南区,相武台２丁目２番２号,,14,153,2520324,,,,,,,2023-06-13,1,,,,,ラックウィーブ,0
640,3021001079325,新規,0,2023-06-13,2023-06-13,株式会社レ・シュー,,株式会社,神奈川県,鎌倉市,西鎌倉１丁目１番１０号,,14,204,2480035,,,,,,,2023-06-13,1,,,,,レシュー,0
644,3021003013199,新規,0,2023-06-13,2023-06-13,合同会社松栄建設,,合同会社,神奈川県,横須賀市,久里浜３丁目２４番１０号アローネ久里浜３０２,,14,201,2390831,,,,,,,2023-06-13,1,,,,,ショウエイケンセツ,0
652,3030005021291,新規,0,2023-06-13,2023-06-13,一般社団法人未来システム研究所,,その他の設立登記法人,埼玉県,草加市,松原５丁目３番８－８０１号,,11,221,3400041,,,,,,,2023-06-13,1,,,,,ミライシステムケンキュウジョ,0
661,3040001128800,新規,0,2023-06-13,2023-06-13,株式会社ユニファ・テック,,株式会社,千葉県,市川市,八幡２丁目９番１５号ブラッサムフォーラム市川,,12,203,2720021,,,,,,,2023-06-13,1,,,,,ユニファテック,0
665,3040005022033,新規,0,2023-06-13,2023-06-13,一般社団法人ＭＳＳ,,その他の設立登記法人,千葉県,千葉市中央区,新宿２丁目１番２１号,,12,101,2600021,,,,,,,2023-06-13,1,,,,,エムエスエス,0
669,3050001052990,新規,0,2023-06-13,2023-06-13,株式会社横田ハウス,,株式会社,茨城県,稲敷郡阿見町,大字荒川本郷９３８番地,,08,443,3001152,,,,,,,2023-06-13,1,,,,,ヨコタハウス,0
688,3110001037606,新規,0,2023-06-13,2023-06-13,株式会社Ａｓ,,株式会社,新潟県,新潟市南区,鷲ノ木新田１２４番地,,15,106,9501407,,,,,,,2023-06-13,1,,,,,アズ,0
702,3120001255487,新規,0,2023-06-13,2023-06-13,株式会社ＡＩ．ＴＯＯＰ,,株式会社,大阪府,大阪市北区,梅田１丁目２番２号大阪駅前第２ビル１２－１２,,27,127,5300001,,,,,,,2023-06-13,1,,,,,アイトープ,0
703,3120001255603,新規,0,2023-06-13,2023-06-13,株式会社Ｗｏｒｌｄ　Ｂｒｉｄｇｅ,,株式会社,大阪府,大阪市中央区,南久宝寺町１丁目９－６エスエルビル３０２号,,27,128,5410058,,,,,,,2023-06-13,1,,,,,ワールドブリッジ,0
704,3120001255611,新規,0,2023-06-13,2023-06-13,スカイレンタカー京阪株式会社,,株式会社,大阪府,大阪市東淀川区,上新庄２丁目１番７号,,27,114,5330006,,,,,,,2023-06-13,1,,,,,スカイレンタカーケイハン,0
705,3120001255628,新規,0,2023-06-13,2023-06-13,株式会社Ｐ＆Ｐ　Ｃｒｅａｔｉｏｎ,,株式会社,大阪府,大阪市東住吉区,今川６丁目４番２１号,,27,121,5460003,,,,,,,2023-06-13,1,,,,,ピーアンドピークリエーション,0
706,3120001255652,新規,0,2023-06-13,2023-06-13,株式会社ＩＫＤ,,株式会社,大阪府,門真市,東田町１５番２７号,,27,223,5710034,,,,,,,2023-06-13,1,,,,,アイケイディー,0
707,3120001255693,新規,0,2023-06-13,2023-06-13,株式会社エフラインスポーツ,,株式会社,大阪府,大阪市西成区,北津守３丁目４番５号,,27,122,5570061,,,,,,,2023-06-13,1,,,,,エフラインスポーツ,0
709,3120003024262,新規,0,2023-06-13,2023-06-13,合同会社ワンオフ,,合同会社,大阪府,交野市,星田西２丁目４４番１号,,27,230,5760015,,,,,,,2023-06-13,1,,,,,ワンオフ,0
710,3120003024270,新規,0,2023-06-13,2023-06-13,合同会社喜楽,,合同会社,大阪府,枚方市,東田宮１丁目３－２０,,27,210,5730023,,,,,,,2023-06-13,1,,,,,キラク,0
711,3120003024279,新規,0,2023-06-13,2023-06-13,ＳＫ合同会社,,合同会社,大阪府,大阪市中央区,南船場２丁目１０番３０号ＮＬＣ心斎橋アースビル,,27,128,5420081,,,,,,,2023-06-13,1,,,,,エスケー,0
712,3120005023642,新規,0,2023-06-13,2023-06-13,一般社団法人日本ＳＮＳムービークリエイター協会,,その他の設立登記法人,大阪府,大阪市中央区,常盤町２丁目１番７号,,27,128,5400028,,,,,,,2023-06-13,1,,,,,ニホンエスエヌエスムービークリエイターキョウカイ,0
715,3120101067725,新規,0,2023-06-13,2023-06-13,株式会社マイン,,株式会社,大阪府,泉北郡忠岡町,忠岡中３丁目４番１５号,,27,341,5950812,,,,,,,2023-06-13,1,,,,,マイン,0
721,3130005016793,新規,0,2023-06-13,2023-06-13,一般社団法人地球社会レジリエンスセンター,,その他の設立登記法人,京都府,京都市左京区,吉田本町３６番地１京都大学国際科学イノベーション棟１０４ベンチャーインキュベーションセンター内,,26,103,6068317,,,,,,,2023-06-13,1,,,,,チキュウシャカイレジリエンスセンター,0
729,3140001130465,新規,0,2023-06-13,2023-06-13,株式会社メイプル,,株式会社,兵庫県,揖保郡太子町,佐用岡２４番地４,,28,464,6711575,,,,,,,2023-06-13,1,,,,,メイプル,0
730,3140001130481,新規,0,2023-06-13,2023-06-13,株式会社ＷＫＴ,,株式会社,兵庫県,姫路市,飾磨区清水７４番地２,,28,201,6728051,,,,,,,2023-06-13,1,,,,,ダブリューケーティー,0
731,3140001130515,新規,0,2023-06-13,2023-06-13,株式会社タスク,,株式会社,兵庫県,尼崎市,御園１丁目９番２号,,28,202,6610984,,,,,,,2023-06-13,1,,,,,タスク,0
732,3140001130523,新規,0,2023-06-13,2023-06-13,株式会社Ｙ＆Ｋｃｈｅｆｓ,,株式会社,兵庫県,姫路市,辻井１丁目３番４４－５号,00130832,28,201,6700083,,,,,,,2023-06-13,1,,,,,ワイアンドケイシェフズ,0
748,3180001156746,新規,0,2023-06-13,2023-06-13,株式会社ｐｕｒｅ　ｓｏｕｌ,,株式会社,愛知県,名古屋市中区,栄４丁目９番１０号,,23,106,4600008,,,,,,,2023-06-13,1,,,,,ピュアソウル,0
766,3230001019880,新規,0,2023-06-13,2023-06-13,株式会社ＴＲＵＥ‐ＨＥＡＲＴ,,株式会社,富山県,富山市,富岡町４３２番地４,,16,201,9300928,,,,,,,2023-06-13,1,,,,,トゥルーハート,0
769,3240003006158,新規,0,2023-06-13,2023-06-13,合同会社ｃｏｍｏｒｅｂｉ　ｆａｒｍ,,合同会社,広島県,尾道市,因島大浜町５０４－５,,34,205,7222101,,,,,,,2023-06-13,1,,,,,コモレビファーム,0
774,3250001020143,新規,0,2023-06-13,2023-06-13,ＴＣ株式会社,,株式会社,山口県,防府市,清水町１４番２８号,,35,206,7470842,,,,,,,2023-06-13,1,,,,,ティーシー,0
776,3260003004333,新規,0,2023-06-13,2023-06-13,ＬｉｔｔＤｅｓｉｇｎ合同会社,,合同会社,岡山県,津山市,上河原１１７０番地３,,33,203,7080002,,,,,,,2023-06-13,1,,,,,リットデザイン,0
783,3290001101815,新規,0,2023-06-13,2023-06-13,株式会社ティフォックス,,株式会社,福岡県,大野城市,旭ケ丘２丁目２番１５号,,40,219,8160953,,,,,,,2023-06-13,1,,,,,ティフォックス,0
784,3290001101880,新規,0,2023-06-13,2023-06-13,株式会社ｓｙｎｃ,,株式会社,福岡県,福岡市中央区,薬院１丁目８番２０－７０５号,,40,133,8100022,,,,,,,2023-06-13,1,,,,,シンク,0
785,3290001101914,新規,0,2023-06-13,2023-06-13,株式会社ナチュラルアセットマネジメント,,株式会社,福岡県,朝倉市,一木１１４８番地の１,,40,228,8380065,,,,,,,2023-06-13,1,,,,,ナチュラルアセットマネジメント,0
788,3290003014016,新規,0,2023-06-13,2023-06-13,スキルシェア合同会社,,合同会社,福岡県,福岡市中央区,天神２丁目２番１２号７階,,40,133,8100001,,,,,,,2023-06-13,1,,,,,スキルシェア,0
790,3290801029611,新規,0,2023-06-13,2023-06-13,株式会社加藤,,株式会社,福岡県,田川市,大字伊田４４５９番地１２,,40,206,8250002,,,,,,,2023-06-13,1,,,,,カトウ,0
792,3300001013331,新規,0,2023-06-13,2023-06-13,株式会社ムラカミミニポンプ,,株式会社,佐賀県,神埼市,神埼町竹３４６８番地３,,41,210,8420011,,,,,,,2023-06-13,1,,,,,ムラカミミニポンプ,0
805,3360003013010,新規,0,2023-06-13,2023-06-13,合同会社ＭＡＩＣＯＭ,,合同会社,沖縄県,宮古島市,平良字久貝３７－１エコビエント和１－Ａ,,47,214,9060015,,,,,,,2023-06-13,1,,,,,マイコム,0
815,3420001018293,新規,0,2023-06-13,2023-06-13,株式会社ＴＡＮＯＳＩＭ．,,株式会社,青森県,五所川原市,大字広田字下り松２６番地３,,02,205,0370023,,,,,,,2023-06-13,1,,,,,タノシム,0
820,3470001019659,新規,0,2023-06-13,2023-06-13,青進工業株式会社,,株式会社,香川県,丸亀市,津森町６２３番地２,,37,202,7630052,,,,,,,2023-06-13,1,,,,,セイシンコウギョウ,0
821,3480001012126,新規,0,2023-06-13,2023-06-13,株式会社香川鉄筋,,株式会社,徳島県,板野郡上板町,西分字キ々木１２番地１５,,36,405,7711330,,,,,,,2023-06-13,1,,,,,カガワテッキン,0
823,3490001010509,新規,0,2023-06-13,2023-06-13,須崎水産加工株式会社,,株式会社,高知県,須崎市,赤崎町１番２０号,,39,206,7850037,,,,,,,2023-06-13,1,,,,,スサキスイサンカコウ,0
826,3700150113437,新規,0,2023-06-13,2023-06-13,セシェイカホールディングスリミテッド,,外国会社等,東京都,新宿区,歌舞伎町２丁目８－３,,13,104,1600021,Ｐ．Ｏ．ＢＯＸ９５７ＯｆｆｉｃｅＩｎｃｏｒｐｏｒａｔｉｏｎｓＣｅｎｔｅｒＲｏａｄＴｏｗｎＴｏｒｔｏｌａＢ．Ｖ．Ｉ．,,,,,,2023-06-13,1,,,,,セシエイカホールデイングスリミテツド,0
827,3700150113503,新規,0,2023-06-13,2023-06-13,ＨｅｕｎｇＡＬｉｎｅＣＯ．，Ｌｔｄ,,外国会社等,,,,,,,,３Ｆ，ＨＡＥＮＡＭ２ＢＵＩＬＤＩＮＧ，１２，ＳＥＪＯＮＧ－ＤＡＥＲＯ１２－ＧＩＬ，ＪＵＮＧ－ＧＵ，ＳＥＯＵＬＨＥＵＮＧＡＬＩＮＥＣＯ．，ＬＴＤ．,,,,,,2023-06-13,1,,,,,ヒユンガエーラインコーポリミテツド,0
828,3700150115160,新規,0,2023-06-13,2023-06-13,ＡＴＨＥＮＡ　ＡＶＩＡＴＩＯＮ　ＬＥＡＳＩＮＧ　ＵＫ　ＬＴＤ,,外国会社等,,,,,,,,Ｓｕｉｔｅ　１，７ｔｈ　Ｆｌｏｏｒ　５０　Ｂｒｏａｄｗａｙ　Ｌｏｎｄｏｎ　ＳＷ１Ｈ０ＢＬ,,,,,,2023-06-13,1,,,,,アテナアビエーシヨンリーシングユーケーリミテツド,0
830,3700150117306,新規,0,2023-06-13,2023-06-13,ＵＴＯＰＢＲＡＮＤ　ＭＡＲＫＥＴＩＮＧ　ＣＯ．，ＬＴＤ,,外国会社等,,,,,,,,Ｄｉｎｇｆｕｚｈｕａｎｇｂｅｉｌｉ　１ｈａｏｙｕａｎ２３ｈａｏｌｏｕ　９－９０１－５２　Ｃｈａｏｙａｎｇ　Ｑｕ　Ｂｅｉｊｉｎｇ　Ｃｈｉｎａ,,,,,,2023-06-13,1,,,,,ユートップブランドマーケティングカブシキカイシャ,0
846,4010001236019,新規,0,2023-06-13,2023-06-13,株式会社クロスアップ,,株式会社,東京都,中央区,日本橋室町１丁目１１番１２号日本橋水野ビル７階,,13,102,1030022,,,,,,,2023-06-13,1,,,,,クロスアップ,0
849,4010003040856,新規,0,2023-06-13,2023-06-13,Ｉｎｆｉｎｉｔｙ　Ｊａｐａｎ　Ｔｏｋｙｏ２合同会社,,合同会社,東京都,千代田区,丸の内３丁目１番１号東京共同会計事務所内,,13,101,1000005,,,,,,,2023-06-13,1,,,,,インフィニティジャパントウキョウツー,0
860,4010401174933,新規,0,2023-06-13,2023-06-13,Ｓｕｐｅｒｂ株式会社,,株式会社,東京都,港区,南麻布２丁目８番１－２０１号,,13,103,1060047,,,,,,,2023-06-13,1,,,,,スパーブ,0
861,4010401174974,新規,0,2023-06-13,2023-06-13,Ｇｅｍｍｙｏ　Ｊａｐａｎ株式会社,,株式会社,東京都,港区,赤坂２丁目２３番１号アークヒルズ・フロントタワーＩｎＣｏｎｔｒｏｌ内,,13,103,1070052,,,,,,,2023-06-13,1,,,,,ジェミオジャパン,0
863,4010403030309,新規,0,2023-06-13,2023-06-13,合同会社Ｋａｗａｉｉｎｏ,,合同会社,東京都,港区,北青山１丁目３－１アールキューブ青山３Ｆ,,13,103,1070061,,,,,,,2023-06-13,1,,,,,カワイイノ,0
864,4010403030317,新規,0,2023-06-13,2023-06-13,合同会社Ａｋａｔｓｕｋｉ,,合同会社,東京都,港区,芝３丁目１４－１４シャッツクヴェレ芝３０１,,13,103,1050014,,,,,,,2023-06-13,1,,,,,アカツキ,0
866,4010405022196,新規,0,2023-06-13,2023-06-13,一般財団法人こどもたちと共に歩む会,,その他の設立登記法人,東京都,港区,赤坂８丁目１１番３８－１１０２号,,13,103,1070052,,,,,,,2023-06-13,1,,,,,コドモタチトトモニアユムカイ,0
867,4010501050588,新規,0,2023-06-13,2023-06-13,安申株式会社,,株式会社,東京都,台東区,台東２丁目３０番１１号ＧＲＥＷ秋葉原ＢＬＤ７階,,13,106,1100016,,,,,,,2023-06-13,1,,,,,アンシン,0
868,4010601063259,新規,0,2023-06-13,2023-06-13,らしく株式会社,,株式会社,東京都,墨田区,江東橋４丁目２７番１４号錦糸町楽天地ビル３階ＢＩＺｃｏｍｆｏｒｔ錦糸町５４番,,13,107,1300022,,,,,,,2023-06-13,1,,,,,ラシク,0
869,4010601063267,新規,0,2023-06-13,2023-06-13,錦＿株式会社,00130828,株式会社,東京都,墨田区,東駒形２丁目２番１３東駒形二丁目ビル２０７号室,,13,107,1300005,,,,,,,2023-06-13,1,,,,,キンキ,0
880,4010901053232,新規,0,2023-06-13,2023-06-13,ＹＮ３株式会社,,株式会社,東京都,世田谷区,野沢３丁目７番１１号ロイヤルスパークル柿の木坂３０２,,13,112,1540003,,,,,,,2023-06-13,1,,,,,ワイエヌスリー,0
889,4011001155043,新規,0,2023-06-13,2023-06-13,株式会社ＨＡＭＡＣＨＩ,,株式会社,東京都,渋谷区,神宮前６丁目２３番４号桑野ビル２階,,13,113,1500001,,,,,,,2023-06-13,1,,,,,ハマチ,0
890,4011001155051,新規,0,2023-06-13,2023-06-13,ユーバリュー株式会社,,株式会社,東京都,渋谷区,神宮前６丁目２３番４号桑野ビル２階,,13,113,1500001,,,,,,,2023-06-13,1,,,,,ユーバリュー,0
892,4011003016961,新規,0,2023-06-13,2023-06-13,合同会社Ｆ．ワークス,,合同会社,東京都,渋谷区,桜丘町２３番１７号シティコート桜丘４０８,,13,113,1500031,,,,,,,2023-06-13,1,,,,,エフワークス,0
893,4011003016994,新規,0,2023-06-13,2023-06-13,アイズウェル合同会社,,合同会社,東京都,目黒区,平町２丁目２番１４号,,13,110,1520032,,,,,,,2023-06-13,1,,,,,アイズウェル,0
896,4011101103232,新規,0,2023-06-13,2023-06-13,株式会社ＨＹＡＫＵ‐ＳＨＩＫＩ,,株式会社,東京都,新宿区,歌舞伎町２丁目２４番７号エコロ新宿第２ビル５０１号室,,13,104,1600021,,,,,,,2023-06-13,1,,,,,ヒャクシキ,0
898,4011105010689,新規,0,2023-06-13,2023-06-13,一般社団法人気候変動と文化財,,その他の設立登記法人,東京都,新宿区,津久戸町１番１号,,13,104,1620821,,,,,,,2023-06-13,1,,,,,キコウヘンドウトブンカザイ,0
899,4011201024709,新規,0,2023-06-13,2023-06-13,株式会社投資活動,,株式会社,東京都,中野区,本町１丁目５番１７－１０１号,,13,114,1640012,,,,,,,2023-06-13,1,,,,,トウシカツドウ,0
902,4011301028774,新規,0,2023-06-13,2023-06-13,ＲＫ　ＲＡＣＩＮＧ株式会社,,株式会社,東京都,杉並区,西荻北４丁目１２番９号イズハウス２Ｆ,,13,115,1670042,,,,,,,2023-06-13,1,,,,,アールケーレーシング,0
903,4011401025201,新規,0,2023-06-13,2023-06-13,株式会社ファーストフィールド,,株式会社,東京都,板橋区,熊野町１２番１５号,,13,119,1730025,,,,,,,2023-06-13,1,,,,,ファーストフィールド,0
904,4011501029416,新規,0,2023-06-13,2023-06-13,株式会社ＦＳ不動産管理,,株式会社,東京都,北区,王子３丁目１５番４号,,13,117,1140002,,,,,,,2023-06-13,1,,,,,エフエスフドウサンカンリ,0
909,4011701026329,新規,0,2023-06-13,2023-06-13,株式会社ビットサニー,,株式会社,東京都,江戸川区,松江７丁目１８番６号,,13,123,1320025,,,,,,,2023-06-13,1,,,,,ビットサニー,0
926,4020001152041,新規,0,2023-06-13,2023-06-13,株式会社高田庭苑,,株式会社,神奈川県,川崎市高津区,久末１５６６番地１,,14,134,2130026,,,,,,,2023-06-13,1,,,,,タカダテイエン,0
929,4020003024040,新規,0,2023-06-13,2023-06-13,ユーティージー合同会社,,合同会社,神奈川県,横浜市都筑区,仲町台１丁目７番１８号ビューロー仲町台３０４号,,14,118,2240041,,,,,,,2023-06-13,1,,,,,ユーティージー,0
932,4021001079308,新規,0,2023-06-13,2023-06-13,株式会社ヴィラント,,株式会社,神奈川県,小田原市,堀之内２０２番地の６,,14,206,2500853,,,,,,,2023-06-13,1,,,,,ヴィラント,0
933,4021001079316,新規,0,2023-06-13,2023-06-13,株式会社ＡＮＫ,,株式会社,神奈川県,相模原市南区,磯部１９５２番地２９,,14,153,2520327,,,,,,,2023-06-13,1,,,,,アンク,0
955,4060001036083,新規,0,2023-06-13,2023-06-13,山惠株式会社,,株式会社,栃木県,小山市,大字東野田２２７３番地,,09,208,3230817,,,,,,,2023-06-13,1,,,,,ヤマケイ,0
959,4080003002998,新規,0,2023-06-13,2023-06-13,合同会社サクラサク,,合同会社,静岡県,静岡市駿河区,東新田１丁目１３番９号,,22,102,4210112,,,,,,,2023-06-13,1,,,,,サクラサク,0
966,4090003002329,新規,0,2023-06-13,2023-06-13,ベリーホーム合同会社,,合同会社,山梨県,甲府市,丸の内２丁目２‐１ＣＲＯＳＳ５００、１Ｆ,,19,201,4000031,,,,,,,2023-06-13,1,,,,,ベリーホーム,0
984,4120001255528,新規,0,2023-06-13,2023-06-13,向遠株式会社,,株式会社,大阪府,大阪市大正区,三軒家西３丁目４番１６号中山ビル３０３Ｃ,,27,108,5510001,,,,,,,2023-06-13,1,,,,,コウエン,0
985,4120001255569,新規,0,2023-06-13,2023-06-13,Ｇｒａｎ　ｅｓｔａｔｅ株式会社,,株式会社,大阪府,大阪市福島区,大開１丁目１９番１号,,27,103,5530007,,,,,,,2023-06-13,1,,,,,グランエステート,0
986,4120001255585,新規,0,2023-06-13,2023-06-13,株式会社ＫＡＭＵ,,株式会社,大阪府,大阪市此花区,高見３丁目１３番１４号,,27,104,5540001,,,,,,,2023-06-13,1,,,,,カム,0
987,4120001255610,新規,0,2023-06-13,2023-06-13,株式会社ハーツ,,株式会社,大阪府,大阪市北区,梅田１丁目２番２号大阪駅前第２ビル１２－１２,,27,127,5300001,,,,,,,2023-06-13,1,,,,,ハーツ,0
988,4120001255619,新規,0,2023-06-13,2023-06-13,株式会社ＫＩＹＯＳＥ,,株式会社,大阪府,大阪市浪速区,恵美須西３丁目１５番５号マンションぐっど５０８室,,27,111,5560003,,,,,,,2023-06-13,1,,,,,キヨセ,0
989,4120001255627,新規,0,2023-06-13,2023-06-13,新耀永通株式会社,,株式会社,大阪府,大阪市東淀川区,下新庄５丁目２２－２２－３０３,,27,114,5330021,,,,,,,2023-06-13,1,,,,,シンヨウウエイツウ,0
990,4120003024286,新規,0,2023-06-13,2023-06-13,合同会社ＳＨＷオフィス,,合同会社,大阪府,大阪市旭区,高殿６丁目１６番７号,,27,117,5350031,,,,,,,2023-06-13,1,,,,,エスエイチダブルオフィス,0
991,4120005023682,新規,0,2023-06-13,2023-06-13,一般社団法人大阪観光・舟運事業組合,,その他の設立登記法人,大阪府,大阪市北区,堂島１丁目１番２５号新山本ビル６Ｆ,,27,127,5300003,,,,,,,2023-06-13,1,,,,,オオサカカンコウシュウウンジギョウクミアイ,0
995,4120101067732,新規,0,2023-06-13,2023-06-13,株式会社Ｌｉｆｅ　Ｐｌａｎ,,株式会社,大阪府,堺市中区,堀上町３１７番地５,,27,142,5998261,,,,,,,2023-06-13,1,,,,,ライフプラン,0
996,4120901047652,新規,0,2023-06-13,2023-06-13,株式会社正大,,株式会社,大阪府,吹田市,広芝町９番２８号江坂三生ビル３Ｆ,,27,205,5640052,,,,,,,2023-06-13,1,,,,,セイダイ,0
997,4120901047660,新規,0,2023-06-13,2023-06-13,株式会社Ｒｅａｌ　Ｎｅｅｄｓ,,株式会社,大阪府,箕面市,西小路４丁目４番３号,,27,220,5620003,,,,,,,2023-06-13,1,,,,,リアルニーズ,0
998,4120903004692,新規,0,2023-06-13,2023-06-13,Ｕ‐ＤＡＴＡ合同会社,,合同会社,大阪府,豊中市,新千里東町３丁目７番１－６０５号,,27,203,5600082,,,,,,,2023-06-13,1,,,,,ユーデータ,0
1001,4122001037055,新規,0,2023-06-13,2023-06-13,ＬＰＪ株式会社,,株式会社,大阪府,東大阪市,日下町４丁目３番４４号,,27,227,5798003,,,,,,,2023-06-13,1,,,,,エルピージェイ,0
1002,4122001037071,新規,0,2023-06-13,2023-06-13,株式会社ＳＨＯ,,株式会社,大阪府,東大阪市,足代北２丁目１番１３号,,27,227,5770058,,,,,,,2023-06-13,1,,,,,ショウ,0
1012,4140001130464,新規,0,2023-06-13,2023-06-13,株式会社ＤａｔａＤｅｃｉｓｉｏｎ,,株式会社,兵庫県,神戸市垂水区,塩屋町１丁目５番１１－１０２号,,28,108,6550872,,,,,,,2023-06-13,1,,,,,データデシジョン,0
1019,4140003019177,新規,0,2023-06-13,2023-06-13,Ｔ．ｃｒｕｉｓｅ合同会社,,合同会社,兵庫県,洲本市,安乎町宮野原５９３番地,,28,205,6562126,,,,,,,2023-06-13,1,,,,,ティクルーズ,0
1043,4240001061674,新規,0,2023-06-13,2023-06-13,株式会社Ｔａｋａｈａｓｈｉ,,株式会社,広島県,福山市,松永町２丁目１９番５５号,,34,207,7290104,,,,,,,2023-06-13,1,,,,,タカハシ,0
1046,4260003004332,新規,0,2023-06-13,2023-06-13,合同会社スカイノア,,合同会社,岡山県,岡山市北区,大元１丁目１１番２２号,,33,101,7000924,,,,,,,2023-06-13,1,,,,,スカイノア,0
1053,4290001101707,新規,0,2023-06-13,2023-06-13,ネコスケ株式会社,,株式会社,福岡県,福岡市早良区,次郎丸５丁目１３番５６号ｆｉｋａ次郎丸３０１号室,,40,137,8140165,,,,,,,2023-06-13,1,,,,,ネコスケ,0
1054,4290001101921,新規,0,2023-06-13,2023-06-13,株式会社Ｗ　Ｗｈａｌｅ,,株式会社,福岡県,福岡市東区,香椎照葉４丁目２－１セントラル・パーク壱番館１４１２,,40,131,8130017,,,,,,,2023-06-13,1,,,,,ホワイトホエール,0
1056,4290003014015,新規,0,2023-06-13,2023-06-13,合同会社ＭＧＥ,,合同会社,福岡県,福岡市博多区,中洲５丁目１－１９エンクレスト福岡１３０１,,40,132,8100801,,,,,,,2023-06-13,1,,,,,エムジーイー,0
1059,4290005019061,新規,0,2023-06-13,2023-06-13,ＮＰＯ法人Ｋｉｄｓ　Ｆｕｔｕｒｅ　Ｐａｓｓｐｏｒｔ,,その他の設立登記法人,福岡県,福岡市博多区,千代１丁目２０番３１号,,40,132,8120044,,,,,,,2023-06-13,1,,,,,キッズフューチャーパスポート,0
1061,4300001013330,新規,0,2023-06-13,2023-06-13,株式会社ニイケ,,株式会社,佐賀県,佐賀市,鬼丸町１５番７号,,41,201,8400021,,,,,,,2023-06-13,1,,,,,ニイケ,0
1077,4360001032151,新規,0,2023-06-13,2023-06-13,株式会社ＪＳ　ＷＯＲＫＳ．ＣＯ,,株式会社,沖縄県,那覇市,古波蔵３丁目７番２－２０２号室,,47,201,9000024,,,,,,,2023-06-13,1,,,,,ジェイエスワークスドットシーオー,0
1078,4360003013059,新規,0,2023-06-13,2023-06-13,合同会社団栗,,合同会社,沖縄県,那覇市,字与儀２１４番地２,,47,201,9020076,,,,,,,2023-06-13,1,,,,,ドングリ,0
1079,4370003006169,新規,0,2023-06-13,2023-06-13,合同会社建築の相談所,,合同会社,宮城県,仙台市青葉区,二日町１６番２－８０７号,,04,101,9800802,,,,,,,2023-06-13,1,,,,,ケンチクノソウダンジョ,0
1084,4380003005483,新規,0,2023-06-13,2023-06-13,合同会社スリークアドバンス,,合同会社,福島県,郡山市,緑町９番１２号,,07,203,9638023,,,,,,,2023-06-13,1,,,,,スリークアドバンス,0
1088,4410001013518,新規,0,2023-06-13,2023-06-13,株式会社ＬＹＮＤＡ,,株式会社,秋田県,秋田市,東通８丁目１番１７号,,05,201,0100003,,,,,,,2023-06-13,1,,,,,リンダ,0
1096,4480001012125,新規,0,2023-06-13,2023-06-13,タカラネクスト株式会社,,株式会社,徳島県,徳島市,徳島本町３丁目６番地,,36,201,7700854,,,,,,,2023-06-13,1,,,,,,0
1103,4700150115151,新規,0,2023-06-13,2023-06-13,Ｃｏｎｃｅｎｔｒｉｘ　ＳＲＥＶ　Ｓｉｎｇａｐｏｒｅ　Ｐｔｅ．Ｌｔｄ．,,外国会社等,,,,,,,,８０　Ｐａｓｉｒ　Ｐａｎｊａｎｇ　Ｒｏａｄ　＃１５－８３　ｔｏ　８４　Ｍａｐｌｅｔｒｅｅ　Ｂｕｓｉｎｅｓｓ　Ｃｉｔｙ　１１７３７２　Ｓｉｎｇａｐｏｒｅ,,,,,,2023-06-13,1,,,,,コンセントリクスエスレブシンガポールピーテイーイーエルテイーデイー,0
1110,5010001235911,新規,0,2023-06-13,2023-06-13,株式会社Ｒｏｃｋ＆Ｃｏｍｐａｎｙ,,株式会社,東京都,文京区,本郷６丁目２５番１４号,,13,105,1130033,,,,,,,2023-06-13,1,,,,,ロックアンドカンパニー,0
1116,5010003040839,新規,0,2023-06-13,2023-06-13,合同会社アンカー環境ソリューションズ,,合同会社,東京都,千代田区,一ツ橋２丁目４番３号,,13,101,1010003,,,,,,,2023-06-13,1,,,,,アンカーカンキョウソリューションズ,0
1117,5010003040847,新規,0,2023-06-13,2023-06-13,ＫａｒｍＳ合同会社,,合同会社,東京都,中央区,新川１丁目６番１２号,,13,102,1040033,,,,,,,2023-06-13,1,,,,,カームス,0
1118,5010003040855,新規,0,2023-06-13,2023-06-13,Ｉｎｆｉｎｉｔｙ　Ｊａｐａｎ　Ｔｏｋｙｏ１合同会社,,合同会社,東京都,千代田区,丸の内３丁目１番１号東京共同会計事務所内,,13,101,1000005,,,,,,,2023-06-13,1,,,,,インフィニティジャパントウキョウワン,0
1119,5010005036827,新規,0,2023-06-13,2023-06-13,一般社団法人ＪＰＡ３,,その他の設立登記法人,東京都,千代田区,丸の内３丁目１番１号東京共同会計事務所内,,13,101,1000005,,,,,,,2023-06-13,1,,,,,ジェイピーエースリー,0
1121,5010103002152,新規,0,2023-06-13,2023-06-13,合同会社スミビ,,合同会社,東京都,八王子市,元本郷町４丁目１４番２３－１０７号,,13,201,1920051,,,,,,,2023-06-13,1,,,,,スミビ,0
1140,5010401174949,新規,0,2023-06-13,2023-06-13,クレド・コンストラクションマネジメント株式会社,,株式会社,東京都,港区,虎ノ門１丁目１７番１号虎ノ門ヒルズビジネスタワー,,13,103,1050001,,,,,,,2023-06-13,1,,,,,クレドコンストラクションマネジメント,0
1142,5010403030308,新規,0,2023-06-13,2023-06-13,合同会社ＴＯＫ,,合同会社,東京都,港区,南青山３丁目１番３６号青山丸竹ビル６Ｆ,,13,103,1070062,,,,,,,2023-06-13,1,,,,,ティーオーケー,0
1149,5010901053223,新規,0,2023-06-13,2023-06-13,株式会社メルク,,株式会社,東京都,世田谷区,桜丘４丁目５番１０号バームハイツ千歳船橋３０５,,13,112,1560054,,,,,,,2023-06-13,1,,,,,メルク,0
1168,5011001155034,新規,0,2023-06-13,2023-06-13,株式会社ＵＳｔｒａｄ,,株式会社,東京都,目黒区,中央町２丁目３番６号ＩＺビル１０２,,13,110,1520001,,,,,,,2023-06-13,1,,,,,アストラッド,0
1169,5011001155042,新規,0,2023-06-13,2023-06-13,株式会社ＳＵＮＡＢＡ,,株式会社,東京都,渋谷区,神宮前４丁目２６番２８号２Ｆ,,13,113,1500001,,,,,,,2023-06-13,1,,,,,スナバ,0
1188,5011501029423,新規,0,2023-06-13,2023-06-13,株式会社８８ＣＯＭＰＡＮＹ,,株式会社,東京都,荒川区,西日暮里５丁目１１番２号,,13,118,1160013,,,,,,,2023-06-13,1,,,,,ハチハチカンパニー,0
1193,5011701026328,新規,0,2023-06-13,2023-06-13,株式会社ゴールドバンク,,株式会社,東京都,江戸川区,中葛西７丁目４－１０クレスト中葛西１０１,,13,123,1340083,,,,,,,2023-06-13,1,,,,,ゴールドバンク,0
1195,5012301013484,新規,0,2023-06-13,2023-06-13,ＲＡＣＥＩ株式会社,,株式会社,東京都,町田市,木曽西２丁目５番地６,,13,209,1940037,,,,,,,2023-06-13,1,,,,,レイシー,0
1198,5012801022431,新規,0,2023-06-13,2023-06-13,株式会社ＡＭＡＲＡ,,株式会社,東京都,日野市,程久保６５０番地,,13,212,1910042,,,,,,,2023-06-13,1,,,,,アマラ,0
1204,5013301050914,新規,0,2023-06-13,2023-06-13,株式会社ガーリック・ホリック,,株式会社,東京都,豊島区,北大塚２丁目２９番３号,,13,116,1700004,,,,,,,2023-06-13,1,,,,,ガーリックホリック,0
1211,5020001152016,新規,0,2023-06-13,2023-06-13,緑桜株式会社,,株式会社,神奈川県,横浜市中区,桜木町１丁目１０１番地１クロスゲート７階,,14,104,2310062,,,,,,,2023-06-13,1,,,,,ミドリザクラ,0
1212,5020001152040,新規,0,2023-06-13,2023-06-13,株式会社カスタニエ,,株式会社,神奈川県,横浜市青葉区,あざみ野４丁目２３番地７,,14,117,2250011,,,,,,,2023-06-13,1,,,,,カスタニエ,0
1219,5021001079307,新規,0,2023-06-13,2023-06-13,株式会社コピュラ,,株式会社,神奈川県,平塚市,紅谷町８－１６,,14,203,2540043,,,,,,,2023-06-13,1,,,,,コピュラ,0
1220,5021001079315,新規,0,2023-06-13,2023-06-13,株式会社Ｓｗｉｔｃｈ,,株式会社,神奈川県,茅ヶ崎市,浜竹１丁目４番２５号,,14,207,2530021,,,,,,,2023-06-13,1,,,,,スウィッチ,0
1224,5021003013164,新規,0,2023-06-13,2023-06-13,合同会社タルカリワロ相模原,,合同会社,神奈川県,相模原市緑区,寸沢嵐１７４３,,14,151,2520176,,,,,,,2023-06-13,1,,,,,タルカリワロサガミハラ,0
1225,5021003013214,新規,0,2023-06-13,2023-06-13,マインドセット合同会社,,合同会社,神奈川県,小田原市,小八幡３丁目７番５２‐２号,,14,206,2560815,,,,,,,2023-06-13,1,,,,,マインドセット,0
1231,5030001154449,新規,0,2023-06-13,2023-06-13,株式会社ベースワークス,,株式会社,埼玉県,本庄市,児玉町児玉１４３７番地１,,11,211,3670212,,,,,,,2023-06-13,1,,,,,ベースワークス,0
1240,5040001128724,新規,0,2023-06-13,2023-06-13,ＩＫＯＩ株式会社,,株式会社,千葉県,習志野市,鷺沼５丁目５番１８号,,12,216,2750014,,,,,,,2023-06-13,1,,,,,イコイ,0
1241,5040001128823,新規,0,2023-06-13,2023-06-13,株式会社ＳＡＤＡＪＡＰＡＮ,,株式会社,千葉県,野田市,柏寺２５８番地６,,12,208,2700214,,,,,,,2023-06-13,1,,,,,サダジャパン,0
1246,5040003022784,新規,0,2023-06-13,2023-06-13,イモーテル合同会社,,合同会社,千葉県,四街道市,山梨４１７番地,,12,228,2840022,,,,,,,2023-06-13,1,,,,,イモーテル,0
1250,5040005022031,新規,0,2023-06-13,2023-06-13,一般財団法人ＹＯＬＯ,,その他の設立登記法人,千葉県,鎌ケ谷市,軽井沢２０１２番地９４号,,12,224,2730131,,,,,,,2023-06-13,1,,,,,ヨーロー,0
1259,5060001036082,新規,0,2023-06-13,2023-06-13,株式会社ＨＡＬＵＨＡＬＯ,,株式会社,栃木県,小山市,粟宮１丁目２番２９号,,09,208,3290201,,,,,,,2023-06-13,1,,,,,ハルハロ,0
1264,5070002037764,新規,0,2023-06-13,2023-06-13,有限会社箕浦商店,,有限会社,群馬県,高崎市,並榎町５３２番地１,,10,202,3700802,,,,,,,2023-06-13,1,,,,,ミノウラショウテン,0
1272,5090003002328,新規,0,2023-06-13,2023-06-13,合同会社Ｍａｃｈｅｖａ,,合同会社,山梨県,甲府市,城東３丁目１５番１９号,,19,201,4000861,,,,,,,2023-06-13,1,,,,,マチェバ,0
1274,5100001036516,新規,0,2023-06-13,2023-06-13,久松エイジェント株式会社,,株式会社,長野県,茅野市,中大塩２２番地４４,,20,214,3910215,,,,,,,2023-06-13,1,,,,,ヒサマツエイジェント,0
1276,5100003007060,新規,0,2023-06-13,2023-06-13,合同会社日星ｗｏｒｋｓ,,合同会社,長野県,岡谷市,銀座２丁目１番５号,,20,204,3940022,,,,,,,2023-06-13,1,,,,,ニッセイワークス,0
1279,5110001037604,新規,0,2023-06-13,2023-06-13,株式会社加藤板金,,株式会社,新潟県,南魚沼市,下薬師堂７９番地１０,,15,226,9497125,,,,,,,2023-06-13,1,,,,,カトウバンキン,0
1280,5110003005088,新規,0,2023-06-13,2023-06-13,合同会社ＳＫＹｇａｒｄｅｎ,,合同会社,新潟県,南蒲原郡田上町,大字羽生田１９番地１,,15,361,9591512,,,,,,,2023-06-13,1,,,,,スカイガーデン,0
1296,5120001255452,新規,0,2023-06-13,2023-06-13,株式会社朝倉組,,株式会社,大阪府,大阪市北区,西天満３丁目１０番４号,,27,127,5300047,,,,,,,2023-06-13,1,,,,,アサクラグミ,0
1297,5120001255592,新規,0,2023-06-13,2023-06-13,可期株式会社,,株式会社,大阪府,大阪市北区,大淀南２丁目２番９－４５０２号,,27,127,5310075,,,,,,,2023-06-13,1,,,,,カキ,0
1298,5120001255626,新規,0,2023-06-13,2023-06-13,株式会社エンリッチ,,株式会社,大阪府,大阪市中央区,玉造２丁目２５番１号アバンティオ玉造５階,,27,128,5400004,,,,,,,2023-06-13,1,,,,,エンリッチ,0
1299,5120001255659,新規,0,2023-06-13,2023-06-13,株式会社サン・クエスト,,株式会社,大阪府,大阪市平野区,平野東４丁目３番１０号,,27,126,5470043,,,,,,,2023-06-13,1,,,,,サンクエスト,0
1300,5120001255691,新規,0,2023-06-13,2023-06-13,Ｅサービス株式会社,,株式会社,大阪府,大阪市西淀川区,千舟３丁目９番２２号,,27,113,5550013,,,,,,,2023-06-13,1,,,,,イーサービス,0
1304,5120003024269,新規,0,2023-06-13,2023-06-13,宇梵合同会社,,合同会社,大阪府,大阪市東成区,大今里南１丁目１８番７号大宝今里ロイヤルハイツ３０７号室,,27,115,5370013,,,,,,,2023-06-13,1,,,,,ウボン,0
1305,5120003024277,新規,0,2023-06-13,2023-06-13,Ｈｅｅｊｉｎ　Ｓｔｏｒｅ合同会社,,合同会社,大阪府,大阪市浪速区,下寺３丁目３番１０－７Ｃ号,,27,111,5560001,,,,,,,2023-06-13,1,,,,,ヒジンストア,0
1306,5120005023673,新規,0,2023-06-13,2023-06-13,一般社団法人アクアフロンティア,,その他の設立登記法人,大阪府,大阪市港区,弁天４丁目５－２１,,27,107,5520007,,,,,,,2023-06-13,1,,,,,アクアフロンティア,0
1308,5120101067715,新規,0,2023-06-13,2023-06-13,アドヴァンスグループホールディングス株式会社,,株式会社,大阪府,堺市堺区,北旅籠町東１丁１番１０号,,27,141,5900923,,,,,,,2023-06-13,1,,,,,アドヴァンスグループホールディングス,0
1313,5130001074513,新規,0,2023-06-13,2023-06-13,株式会社ＳＨＯＷ　ＭＥ,,株式会社,京都府,京都市中京区,壬生東檜町３４番地２,,26,104,6048843,,,,,,,2023-06-13,1,,,,,ショウミー,0
1326,5140003019143,新規,0,2023-06-13,2023-06-13,合同会社Ｐｈａｒｍｉｘ　Ｌａｂｏ,,合同会社,兵庫県,神戸市西区,学園東町４丁目１１－７,,28,111,6512102,,,,,,,2023-06-13,1,,,,,ファーミクスラボ,0
1330,5150001026479,新規,0,2023-06-13,2023-06-13,ＣＡＮＡＴＡ　Ｄｅｓｉｇｎ株式会社,,株式会社,奈良県,橿原市,醍醐町２７５番地の１,,29,205,6340072,,,,,,,2023-06-13,1,,,,,カナタデザイン,0
1332,5160001025109,新規,0,2023-06-13,2023-06-13,株式会社桜水道,,株式会社,滋賀県,大津市,石山寺５丁目６番１０号,,25,201,5200861,,,,,,,2023-06-13,1,,,,,サクラスイドウ,0
1340,5190003004355,新規,0,2023-06-13,2023-06-13,合同会社ＨＯＳＨＯフォレストリー＆ファーム,,合同会社,三重県,津市,西丸之内３５番３号トレゾァ４０１号,,24,201,5140035,,,,,,,2023-06-13,1,,,,,ホーショーフォレストリーアンドファーム,0
1341,5200001041398,新規,0,2023-06-13,2023-06-13,ハピネスコーポレーション株式会社,,株式会社,岐阜県,美濃加茂市,西町３丁目２８５番地１,,21,211,5050046,,,,,,,2023-06-13,1,,,,,ハピネスコーポレーション,0
1342,5200005013492,新規,0,2023-06-13,2023-06-13,一般社団法人郡上福祉協力会,,その他の設立登記法人,岐阜県,郡上市,八幡町新町９５１番地,,21,219,5014226,,,,,,,2023-06-13,1,,,,,グジョウフクシキョウリョクカイ,0
1352,5240001061673,新規,0,2023-06-13,2023-06-13,株式会社風天サーキュラーパワー,,株式会社,広島県,福山市,南手城町１丁目１７番１１号,,34,207,7210963,,,,,,,2023-06-13,1,,,,,フウテンサーキュラーパワー,0
1353,5240001061681,新規,0,2023-06-13,2023-06-13,株式会社キャンディーエイト,,株式会社,広島県,広島市西区,草津東２丁目８番２５号,,34,104,7330861,,,,,,,2023-06-13,1,,,,,キャンディーエイト,0
1354,5240003006156,新規,0,2023-06-13,2023-06-13,合同会社ＭＭＭマネージメント,,合同会社,広島県,広島市中区,十日市町１丁目６番２８－３０２号,,34,101,7300805,,,,,,,2023-06-13,1,,,,,エムエムエムマネージメント,0
1375,5290001101846,新規,0,2023-06-13,2023-06-13,株式会社グロスペリティ,,株式会社,福岡県,福岡市東区,香椎２丁目３７番１号,,40,131,8130011,,,,,,,2023-06-13,1,,,,,グロスペリティ,0
1380,5290005019060,新規,0,2023-06-13,2023-06-13,医療法人愛貴会,,その他の設立登記法人,福岡県,福岡市西区,小戸１丁目１６番２６号,,40,135,8190001,,,,,,,2023-06-13,1,,,,,アイキカイ,0
1381,5290801029584,新規,0,2023-06-13,2023-06-13,株式会社寿１,,株式会社,福岡県,北九州市小倉南区,石田南２丁目４番１号,,40,107,8020836,,,,,,,2023-06-13,1,,,,,コトブキワン,0
1392,5370001050069,新規,0,2023-06-13,2023-06-13,株式会社泉成,,株式会社,宮城県,仙台市泉区,八乙女中央５丁目９－２、２０１号室,,04,105,9813135,,,,,,,2023-06-13,1,,,,,センナリ,0
1393,5370001050077,新規,0,2023-06-13,2023-06-13,株式会社ピクニック,,株式会社,宮城県,仙台市若林区,荒井東１丁目６番地の６－２Ｆ,,04,103,9840030,,,,,,,2023-06-13,1,,,,,ピクニック,0
1395,5370003006168,新規,0,2023-06-13,2023-06-13,ＨＣ‐Ｓｏｆｔｗａｒｅ合同会社,,合同会社,宮城県,仙台市宮城野区,福室２丁目８番１７号福室マンション３１４号,,04,102,9830005,,,,,,,2023-06-13,1,,,,,エイチシーソフトウェア,0
1396,5370005010639,新規,0,2023-06-13,2023-06-13,医療法人名取たにぐちクリニック,,その他の設立登記法人,宮城県,名取市,杜せきのした２丁目５番地の７,,04,207,9811227,,,,,,,2023-06-13,1,,,,,ナトリタニグチクリニック,0
1416,5470003002446,新規,0,2023-06-13,2023-06-13,ＳＢ貿易合同会社,,合同会社,香川県,丸亀市,福島町８２番地きさらぎハイツ２０３号,,37,202,7630044,,,,,,,2023-06-13,1,,,,,エスビーボウエキ,0
1418,5480001012124,新規,0,2023-06-13,2023-06-13,株式会社ＺＵ,,株式会社,徳島県,徳島市,沖浜東１丁目５番地コーポハマダ２－５Ｇ,,36,201,7708053,,,,,,,2023-06-13,1,,,,,ズ,0
1425,5700150113435,新規,0,2023-06-13,2023-06-13,Ｓｈｉｎａｎｏ　Ａｖｉａｔｉｏｎ　Ｌｅａｓｉｎｇ　Ｌｉｍｉｔｅｄ,,外国会社等,,,,,,,,３２　Ｍｏｌｅｓｗｏｒｔｈ　Ｓｔｒｅｅｔ，Ｄｕｂｌｉｎ　２,,,,,,2023-06-13,1,,,,,シナノアビエーシヨンリーシングリミテツド,0
1426,5700150113880,新規,0,2023-06-13,2023-06-13,Ｐａｎａｓｏｎｉｃ　Ａｕｔｏｍｏｔｉｖｅ　Ｓｙｓｔｅｍｓ　Ｅｕｒｏｐｅ　ＧｍｂＨ,,外国会社等,,,,,,,,Ｒｏｂｅｒｔ－Ｂｏｓｃｈ－Ｓｔｒａｓｓｅ　２７－２９，Ｄ－６３２２５　Ｌａｎｇｅｎ，Ｇｅｒｍａｎｙ,,,,,,2023-06-13,1,,,,,パナソニツクオートモーテイブシステムズヨーロツパゲーエムベーハー,0
1427,5700150115159,新規,0,2023-06-13,2023-06-13,ＡＴＨＥＮＡ３　ＡＶＩＡＴＩＯＮ　ＬＥＡＳＩＮＧ　ＬＩＭＩＴＥＤ,,外国会社等,,,,,,,,５ｔｈ　ｆｌｏｏｒ，Ｔｈｅ　ｅｘｃｈａｎｇｅ　Ｇｅｏｒｇｅ’ｓ　Ｄｏｃｋ，ＩＦＳＣ　Ｄｕｂｌｉｎ　１　Ｉｒｅｌａｎｄ　Ｄ０１　Ｗ３Ｐ９,,,,,,2023-06-13,1,,,,,アテナスリーアヴイエーシヨンリーシングリミテツド,0
1428,5700150117312,新規,0,2023-06-13,2023-06-13,ｓｈｅｎｚｈｅｎ　ｘｉｎｙｉｔｏｎｇ　ｋｅｊｉｙｏｕｘｉａｎｇｏｎｇｓｉ,,外国会社等,,,,,,,,Ｌｏｎｇｇａｎｇ　Ｄｉｓｔｒｉｃｔ，Ｌａｗｎ　Ｒｏａｄ　Ｌｉｃｈａｎｇ　Ｃｏｍｍｕｎｉｔｙ，２０１，Ｎｏ．１３　Ｓｈｅｎｚｈｅｎ，Ｇｕａｎｇｄｏｎｇ　Ｐｒｏｖｉｎｃｅ，Ｃｈｉｎａ,,,,,,2023-06-13,1,,,,,シンセンキンイトンケジユーシャンゴンシー,0
1441,6010001235695,新規,0,2023-06-13,2023-06-13,ナチュラルメディカルアロマ株式会社,,株式会社,東京都,中央区,勝どき５丁目３番地１号勝どきザタワー４９１０,,13,102,1040054,,,,,,,2023-06-13,1,,,,,ナチュラルメディカルアロマ,0
1442,6010001236066,新規,0,2023-06-13,2023-06-13,ＸＥＮＥＳＴホールディングス株式会社,,株式会社,東京都,中央区,日本橋本石町３丁目３番１０号ダイワビル４階,,13,102,1030021,,,,,,,2023-06-13,1,,,,,ゼネストホールディングス,0
1443,6010001236116,新規,0,2023-06-13,2023-06-13,株式会社アセット市ヶ谷,,株式会社,東京都,千代田区,九段南４丁目６番１号,,13,101,1020074,,,,,,,2023-06-13,1,,,,,アセットイチガヤ,0
1458,6010403030281,新規,0,2023-06-13,2023-06-13,ＣｕｒｅＢｏｄｙ合同会社,,合同会社,東京都,港区,麻布十番２丁目７番５号カスタリア２０４,,13,103,1060045,,,,,,,2023-06-13,1,,,,,キュアボディ,0
1478,6011003016984,新規,0,2023-06-13,2023-06-13,Ｂｅｙｏｎｄｏｏｒ合同会社,,合同会社,東京都,渋谷区,渋谷３丁目６番１６号エメラルドアオキビル５Ｆ,,13,113,1500002,,,,,,,2023-06-13,1,,,,,ビヨンドア,0
1479,6011003016992,新規,0,2023-06-13,2023-06-13,Ｓｈａｄｏｇ合同会社,,合同会社,東京都,渋谷区,神泉町１０番１５号アネックス神泉３０１,,13,113,1500045,,,,,,,2023-06-13,1,,,,,シャドッグ,0
1486,6011203004104,新規,0,2023-06-13,2023-06-13,合同会社イガラシ,,合同会社,東京都,中野区,中央４丁目３８番５号,,13,114,1640011,,,,,,,2023-06-13,1,,,,,イガラシ,0
1499,6012805003204,新規,0,2023-06-13,2023-06-13,一般社団法人和装美研究の会,,その他の設立登記法人,東京都,立川市,一番町２丁目３６番地の１,,13,202,1900033,,,,,,,2023-06-13,1,,,,,ワソウビケンキュウノカイ,0
1500,6013101009192,新規,0,2023-06-13,2023-06-13,株式会社サンクチュアリ,,株式会社,東京都,青梅市,新町３丁目４１番地の７,,13,205,1980024,,,,,,,2023-06-13,1,,,,,サンクチュアリ,0
1502,6013301050896,新規,0,2023-06-13,2023-06-13,株式会社ＮＡＮＤＡ,,株式会社,東京都,豊島区,池袋３丁目４９－２メゾンコレーユ１０２号室,,13,116,1710014,,,,,,,2023-06-13,1,,,,,ナンダ,0
1503,6013301050913,新規,0,2023-06-13,2023-06-13,株式会社Ａｎｉｍｉ,,株式会社,東京都,豊島区,南大塚２丁目３８番１号リードシー大塚ビル３階,,13,116,1700005,,,,,,,2023-06-13,1,,,,,アニミ,0
1511,6020001152056,新規,0,2023-06-13,2023-06-13,株式会社クラフトワークス,,株式会社,神奈川県,横浜市金沢区,富岡西４丁目５番１６号,,14,108,2360052,,,,,,,2023-06-13,1,,,,,クラフトワークス,0
1520,6020003024047,新規,0,2023-06-13,2023-06-13,ＥＣＤＬ合同会社,,合同会社,神奈川県,川崎市幸区,北加瀬１丁目８番１号３０６,,14,132,2120057,,,,,,,2023-06-13,1,,,,,イーシーディーエル,0
1528,6021001079306,新規,0,2023-06-13,2023-06-13,株式会社オサナイ塗装,,株式会社,神奈川県,茅ヶ崎市,菱沼１丁目６番１１号,,14,207,2530011,,,,,,,2023-06-13,1,,,,,オサナイトソウ,0
1529,6021001079314,新規,0,2023-06-13,2023-06-13,ｇａｔｅｗａｙ株式会社,,株式会社,神奈川県,厚木市,上依知２７８番地４,,14,212,2430801,,,,,,,2023-06-13,1,,,,,ゲイトウェイ,0
1530,6021001079322,新規,0,2023-06-13,2023-06-13,株式会社秋真流商事,,株式会社,神奈川県,綾瀬市,深谷中８丁目１番６号,,14,218,2521107,,,,,,,2023-06-13,1,,,,,アキマルショウジ,0
1536,6021003013205,新規,0,2023-06-13,2023-06-13,合同会社ＬＩＮＧＺ,,合同会社,神奈川県,愛甲郡愛川町,中津３６１番地の３,,14,401,2430303,,,,,,,2023-06-13,1,,,,,リングス,0
1542,6030003021919,新規,0,2023-06-13,2023-06-13,ＬＩＦＲＥＥＬＹ合同会社,,合同会社,埼玉県,越谷市,瓦曽根１丁目１８番地２２号ベルーフ館３０３号室,,11,222,3430821,,,,,,,2023-06-13,1,,,,,リフリー,0
1551,6040001128806,新規,0,2023-06-13,2023-06-13,株式会社Ｋ＆Ｙ,,株式会社,千葉県,松戸市,本町一丁目１８番地,,12,207,2710091,,,,,,,2023-06-13,1,,,,,ケーアンドワイ,0
1554,6040003022783,新規,0,2023-06-13,2023-06-13,富川合同会社,,合同会社,千葉県,千葉市稲毛区,小仲台７丁目２４番９－２０７号,,12,103,2630043,,,,,,,2023-06-13,1,,,,,トミカワ,0
1561,6050003007552,新規,0,2023-06-13,2023-06-13,ＦＵＮＣ合同会社,,合同会社,茨城県,つくば市,春日４丁目２３番地７プレジデントふれあい３０２号,,08,220,3050821,,,,,,,2023-06-13,1,,,,,ファンク,0
1563,6060001036081,新規,0,2023-06-13,2023-06-13,株式会社Ｍｉｓｏｇｉ,,株式会社,栃木県,鹿沼市,下永野６００番地１,,09,205,3280212,,,,,,,2023-06-13,1,,,,,ミソギ,0
1565,6070001040537,新規,0,2023-06-13,2023-06-13,Ｊａｐａｎ　Ｈｅａｒｔｓ株式会社,,株式会社,群馬県,館林市,大谷町３００１－３６,,10,207,3740054,,,,,,,2023-06-13,1,,,,,ジャパンハーツ,0
1568,6090001018168,新規,0,2023-06-13,2023-06-13,株式会社遊,,株式会社,山梨県,甲府市,新田町２番２８号,,19,201,4000066,,,,,,,2023-06-13,1,,,,,ユウ,0
1570,6100001036507,新規,0,2023-06-13,2023-06-13,ビエリモ株式会社,,株式会社,長野県,上田市,常田３丁目１５－１信州大学繊維学部内ＡＲＥＣ重量機器設置室,,20,203,3860018,,,,,,,2023-06-13,1,,,,,ビエリモ,0
1571,6100001036515,新規,0,2023-06-13,2023-06-13,株式会社清和製作所,,株式会社,長野県,千曲市,大字八幡２４８８番地１,,20,218,3870023,,,,,,,2023-06-13,1,,,,,セイワセイサクショ,0
1586,6120001255393,新規,0,2023-06-13,2023-06-13,クオーレ労務経営株式会社,,株式会社,大阪府,大阪市阿倍野区,帝塚山１丁目１０番３２－３０６号,,27,119,5450037,,,,,,,2023-06-13,1,,,,,クオーレロウムケイエイ,0
1587,6120001255484,新規,0,2023-06-13,2023-06-13,株式会社Ａｗａ,,株式会社,大阪府,大阪市中央区,宗右衛門町５－１２ニュージャパンビル５階５０３,,27,128,5420084,,,,,,,2023-06-13,1,,,,,アワ,0
1588,6120001255617,新規,0,2023-06-13,2023-06-13,株式会社ＨＯＰＥ,,株式会社,大阪府,大阪市北区,中津６丁目１１番１０号,,27,127,5310071,,,,,,,2023-06-13,1,,,,,ホープ,0
1589,6120001255625,新規,0,2023-06-13,2023-06-13,株式会社Ｃａｎｖａｓ,,株式会社,大阪府,大阪市北区,梅田１丁目１－３大阪駅前第３ビル２９階１－１－１号室,,27,127,5300001,,,,,,,2023-06-13,1,,,,,キャンバス,0
1590,6120001255633,新規,0,2023-06-13,2023-06-13,株式会社とまり木,,株式会社,大阪府,大阪市北区,梅田１丁目２番２号大阪駅前第２ビル１２－１２,,27,127,5300001,,,,,,,2023-06-13,1,,,,,トマリギ,0
1592,6120003024243,新規,0,2023-06-13,2023-06-13,文育合同会社,,合同会社,大阪府,大阪市此花区,四貫島２丁目３番１－４０１号,,27,104,5540014,,,,,,,2023-06-13,1,,,,,ブンイク,0
1593,6120003024276,新規,0,2023-06-13,2023-06-13,ＫＩＥＮ　ＩＣＦＩＸ合同会社,,合同会社,大阪府,大阪市西成区,太子１丁目１５番３－３０１号,,27,122,5570002,,,,,,,2023-06-13,1,,,,,キエンアイシフィス,0
1594,6120003024284,新規,0,2023-06-13,2023-06-13,トータルサービスゼン合同会社,,合同会社,大阪府,大阪市東成区,大今里１丁目２３－１８レオパレス大今里１０４号,,27,115,5370012,,,,,,,2023-06-13,1,,,,,トータルサービスゼン,0
1610,6140001130371,新規,0,2023-06-13,2023-06-13,暁綜合建設株式会社,,株式会社,兵庫県,神戸市灘区,桜ヶ丘町１５－６５－７０６,,28,102,6570021,,,,,,,2023-06-13,1,,,,,アカツキソウゴウケンセツ,0
1611,6140001130462,新規,0,2023-06-13,2023-06-13,株式会社ＵＳ,,株式会社,兵庫県,宝塚市,千種１丁目６番１０号,,28,214,6650072,,,,,,,2023-06-13,1,,,,,アス,0
1612,6140001130470,新規,0,2023-06-13,2023-06-13,株式会社Ｄｅｅ　ＣＲＡＮＥ,,株式会社,兵庫県,尼崎市,武庫之荘６丁目１６番１０号,,28,202,6610035,,,,,,,2023-06-13,1,,,,,ディークレイン,0
1613,6140001130479,新規,0,2023-06-13,2023-06-13,株式会社ＮＡＯ,,株式会社,兵庫県,加西市,北条町東南２０５番地の１,,28,220,6752324,,,,,,,2023-06-13,1,,,,,ナオ,0
1614,6140001130520,新規,0,2023-06-13,2023-06-13,株式会社アサカワ,,株式会社,兵庫県,神戸市中央区,熊内町８丁目７番９号,,28,110,6510056,,,,,,,2023-06-13,1,,,,,アカサワ,0
1620,6150003002980,新規,0,2023-06-13,2023-06-13,合同会社ナレッジ,,合同会社,奈良県,吉野郡大淀町,大字下渕６６番地吉野総合ビル３階３号室,,29,442,6380821,,,,,,,2023-06-13,1,,,,,ナレッジ,0
1622,6160003002897,新規,0,2023-06-13,2023-06-13,合同会社ｄｒｅａｍ,,合同会社,滋賀県,野洲市,冨波甲１００８番地１,,25,210,5202351,,,,,,,2023-06-13,1,,,,,ドリーム,0
1623,6170003001881,新規,0,2023-06-13,2023-06-13,合同会社来夢,,合同会社,和歌山県,和歌山市,吉田３６３番地吉田第三坂本ビル３０１号室,,30,201,6408343,,,,,,,2023-06-13,1,,,,,クルム,0
1648,6240001061672,新規,0,2023-06-13,2023-06-13,株式会社茜運送,,株式会社,広島県,呉市,神原町１９番１７号,,34,202,7370026,,,,,,,2023-06-13,1,,,,,アカネウンソウ,0
1657,6260003004330,新規,0,2023-06-13,2023-06-13,合同会社タックン,,合同会社,岡山県,岡山市中区,四御神１９９番地２（Ａ１０１）,,33,102,7038201,,,,,,,2023-06-13,1,,,,,タックン,0
1658,6270001008794,新規,0,2023-06-13,2023-06-13,株式会社ひまとゆ,,株式会社,鳥取県,米子市,新開２丁目１３番４７号,,31,202,6830801,,,,,,,2023-06-13,1,,,,,ヒマトユ,0
1666,6290001101903,新規,0,2023-06-13,2023-06-13,株式会社野見山電工,,株式会社,福岡県,春日市,宝町４丁目１番地１０３号,,40,218,8160807,,,,,,,2023-06-13,1,,,,,ノミヤマデンコウ,0
1667,6290001101911,新規,0,2023-06-13,2023-06-13,株式会社豊源,,株式会社,福岡県,福岡市中央区,高砂１丁目２４番１６－１００２号,,40,133,8100011,,,,,,,2023-06-13,1,,,,,ホウゲン,0
1668,6290001101928,新規,0,2023-06-13,2023-06-13,興和システムソリューションズ株式会社,,株式会社,福岡県,福岡市南区,屋形原１丁目２番１０号,,40,134,8111351,,,,,,,2023-06-13,1,,,,,コウワシステムソリューションズ,0
1676,6290803004436,新規,0,2023-06-13,2023-06-13,ＯＦＦＩＣＥ　ＹＥＬＬ合同会社,,合同会社,福岡県,北九州市戸畑区,銀座１丁目２番２８号,,40,105,8040076,,,,,,,2023-06-13,1,,,,,オフィスエール,0
1677,6300001013329,新規,0,2023-06-13,2023-06-13,株式会社トラストテック,,株式会社,佐賀県,三養基郡上峰町,大字坊所２７２４番地トップフィールドＡ棟２０１号,,41,345,8490123,,,,,,,2023-06-13,1,,,,,トラストテック,0
1681,6320001019836,新規,0,2023-06-13,2023-06-13,株式会社Ｃｈｅｅｒ‐ｆｕｌ,,株式会社,大分県,大分市,大字宮崎９３２番地光吉フロントテラス２０３,,44,201,8701133,,,,,,,2023-06-13,1,,,,,チアフル,0
1682,6330001030957,新規,0,2023-06-13,2023-06-13,アクトピア株式会社,,株式会社,熊本県,熊本市中央区,花畑町１番１４号Ａ＆Ｍ　ＨＡＮＡＢＡＴＡ３０１号,,43,101,8600806,,,,,,,2023-06-13,1,,,,,アクトピア,0
1685,6350001018406,新規,0,2023-06-13,2023-06-13,明月堂株式会社,,株式会社,宮崎県,日南市,南郷町東町２番地７,,45,204,8893207,,,,,,,2023-06-13,1,,,,,メイゲツドウ,0
1689,6360001032141,新規,0,2023-06-13,2023-06-13,ＫＡＮＮＡ株式会社,,株式会社,沖縄県,浦添市,西原６丁目１５番３号,,47,208,9012101,,,,,,,2023-06-13,1,,,,,カナ,0
1692,6370001050068,新規,0,2023-06-13,2023-06-13,株式会社糸,,株式会社,宮城県,登米市,南方町高石５番地３２,,04,212,9870401,,,,,,,2023-06-13,1,,,,,ミャク,0
1693,6370001050076,新規,0,2023-06-13,2023-06-13,株式会社リバネス,,株式会社,宮城県,白石市,郡山字平成３７番地,,04,206,9890203,,,,,,,2023-06-13,1,,,,,リバネス,0
1697,6380001033781,新規,0,2023-06-13,2023-06-13,株式会社タダミ,,株式会社,福島県,南会津郡只見町,大字只見字沖１５０９番地,,07,367,9680421,,,,,,,2023-06-13,1,,,,,タダミ,0
1703,6420001018299,新規,0,2023-06-13,2023-06-13,株式会社ジェーテック,,株式会社,青森県,青森市,自由ケ丘２丁目１８番地２,,02,201,0300941,,,,,,,2023-06-13,1,,,,,ジェーテック,0
1716,6470003002445,新規,0,2023-06-13,2023-06-13,合同会社香川農笑,,合同会社,香川県,高松市,檀紙町１３９３番地２,,37,201,7618041,,,,,,,2023-06-13,1,,,,,カガワノウショウ,0
1720,6700150117311,新規,0,2023-06-13,2023-06-13,ｓｈｅｎｚｈｅｎ　ｓｈｉ　ｓｈｅｎｈａｏｄａ　ｄｉａｎｚｉ　ｙｏｕｘｉａｎ　ｇｏｎｇｓｉ,,外国会社等,,,,,,,,３１８　１－３Ｆ　Ｓｈａｎｇｙｅｑｕｎ　ＢＬＫ　Ｗａｎｊｕｎｈｕｉ　Ｂｕｓｉｎｅｓｓ　ＡＰＴ　Ｘｉｘｉａｎｇ　Ｓｔｒｅｅｔ　Ｂａｏａｎ　Ｄｉｓｔｒｉｃｔ　Ｓｈｅｎｚｈｅｎ　ｃｉｔｙ　Ｇｕａｎｇｄｏｎｇ　５１８１０２　ＣＮ,,,,,,2023-06-13,1,,,,,シェンジェンシーシェンハオダーディエンズーヨウシエンゴンスー,0
1733,7010005036825,新規,0,2023-06-13,2023-06-13,一般社団法人農林水産協会,,その他の設立登記法人,東京都,中央区,日本橋浜町２丁目３３番５号マリオン浜町ビル７階ＪＡＣ内,,13,102,1030007,,,,,,,2023-06-13,1,,,,,ノウリンスイサンキョウカイ,0
1736,7010401175004,新規,0,2023-06-13,2023-06-13,株式会社ＥｎｖｉｒｏＶｉｌｌａｇｅ,,株式会社,東京都,港区,芝浦２丁目２番１５号,,13,103,1080023,,,,,,,2023-06-13,1,,,,,エンヴァイロヴィレッジ,0
1737,7010401175029,新規,0,2023-06-13,2023-06-13,メイブンスティード株式会社,,株式会社,東京都,港区,六本木７丁目７番７号トライセブンロッポンギ８階,,13,103,1060032,,,,,,,2023-06-13,1,,,,,メイブンスティード,0
1739,7010403030231,新規,0,2023-06-13,2023-06-13,合同会社シンクレティ,,合同会社,東京都,港区,海岸１丁目９－１４－１２０１,,13,103,1050022,,,,,,,2023-06-13,1,,,,,シンクレティ,0
1740,7010405022235,新規,0,2023-06-13,2023-06-13,一般社団法人日本伝承会,,その他の設立登記法人,東京都,港区,三田２丁目１２番５号,,13,103,1080073,,,,,,,2023-06-13,1,,,,,ニホンデンショウカイ,0
1741,7010501050585,新規,0,2023-06-13,2023-06-13,リューツウ不動産株式会社,,株式会社,東京都,台東区,上野５丁目２６番４号オフィスＲ７階,,13,106,1100005,,,,,,,2023-06-13,1,,,,,リューツウフドウサン,0
1744,7010601063256,新規,0,2023-06-13,2023-06-13,株式会社司工務店,,株式会社,東京都,江東区,辰巳１丁目５番６号クレヴィア辰巳ブライトステージ４０３,,13,108,1350053,,,,,,,2023-06-13,1,,,,,ツカサコウムテン,0
1748,7010701044404,新規,0,2023-06-13,2023-06-13,株式会社ＩＧｃｏｎｎｅｃｔ,,株式会社,東京都,品川区,東大井２丁目２３番４－１００５号,,13,109,1400011,,,,,,,2023-06-13,1,,,,,アイジーコネクト,0
1756,7010901053238,新規,0,2023-06-13,2023-06-13,Ｌｉｎｏ　Ｌｉｆｅ株式会社,,株式会社,東京都,世田谷区,三宿２丁目２５番１４号２５１４ｍｉｓｙｕｋｕ２号室,,13,112,1540005,,,,,,,2023-06-13,1,,,,,リノライフ,0
1767,7011101103238,新規,0,2023-06-13,2023-06-13,Ｓｏｌｄａｔ株式会社,,株式会社,東京都,新宿区,下落合３丁目１９番２号,,13,104,1610033,,,,,,,2023-06-13,1,,,,,ソルダ,0
1768,7011103013146,新規,0,2023-06-13,2023-06-13,Ａｉｒ合同会社,,合同会社,東京都,新宿区,余丁町６番３５号,,13,104,1620055,,,,,,,2023-06-13,1,,,,,エアー,0
1770,7011203004103,新規,0,2023-06-13,2023-06-13,合同会社ＬＩＣＯＬＩＮＫ,,合同会社,東京都,中野区,中野３丁目２３番４６号エルシオン１０３,,13,114,1640001,,,,,,,2023-06-13,1,,,,,リコリンク,0
1773,7011401025198,新規,0,2023-06-13,2023-06-13,株式会社旭総業,,株式会社,東京都,板橋区,前野町６丁目１０番４－１０８号,,13,119,1740063,,,,,,,2023-06-13,1,,,,,アサヒソウギョウ,0
1776,7011501029421,新規,0,2023-06-13,2023-06-13,株式会社島田設備,,株式会社,東京都,北区,神谷２丁目４１番１－４０１号モナークマンション赤羽,,13,117,1150043,,,,,,,2023-06-13,1,,,,,シマダセツビ,0
1780,7011701026318,新規,0,2023-06-13,2023-06-13,高野電設株式会社,,株式会社,東京都,江戸川区,西一之江２丁目１５番１９号,,13,123,1320023,,,,,,,2023-06-13,1,,,,,タカノデンセツ,0
1782,7011801042561,新規,0,2023-06-13,2023-06-13,株式会社モンチッチ,,株式会社,東京都,葛飾区,西新小岩５丁目３番２７号,,13,122,1240025,,,,,,,2023-06-13,1,,,,,モンチッチ,0
1785,7012401040633,新規,0,2023-06-13,2023-06-13,株式会社キャリアマッチ,,株式会社,東京都,府中市,寿町３丁目５番１号アトラス府中７０４,,13,206,1830056,,,,,,,2023-06-13,1,,,,,キャリアマッチ,0
1786,7013301050912,新規,0,2023-06-13,2023-06-13,東栄Ｆｕｋｕｙａｍａ株式会社,,株式会社,東京都,豊島区,北大塚２丁目４番７号桜坂ハイツ８０２号,,13,116,1700004,,,,,,,2023-06-13,1,,,,,トウエイフクヤマ,0
1794,7020001152022,新規,0,2023-06-13,2023-06-13,株式会社ＴＭＨ,,株式会社,神奈川県,横浜市鶴見区,馬場２丁目３－６,,14,101,2300076,,,,,,,2023-06-13,1,,,,,ティーエムエイチ,0
1796,7020003024054,新規,0,2023-06-13,2023-06-13,合同会社アーク設計,,合同会社,神奈川県,横浜市鶴見区,駒岡４丁目１６番３５号,,14,101,2300071,,,,,,,2023-06-13,1,,,,,アークセッケイ,0
1797,7021001079305,新規,0,2023-06-13,2023-06-13,株式会社ラディッシュ,,株式会社,神奈川県,平塚市,御殿１丁目２番４１－２号,,14,203,2540061,,,,,,,2023-06-13,1,,,,,ラディッシュ,0
1798,7021001079313,新規,0,2023-06-13,2023-06-13,株式会社Ｂｕｌｌ　Ｖｉｌｌａｇｅ,,株式会社,神奈川県,相模原市中央区,淵野辺３丁目６番２０号信栄ビルＢ１０２,,14,152,2520206,,,,,,,2023-06-13,1,,,,,ブルビレッジ,0
1803,7021003013204,新規,0,2023-06-13,2023-06-13,合同会社ＰＫアセットマネジメント,,合同会社,神奈川県,茅ヶ崎市,香川３丁目２２番１４－２号,,14,207,2530082,,,,,,,2023-06-13,1,,,,,ピーケーアセットマネジメント,0
1816,7040001128796,新規,0,2023-06-13,2023-06-13,ツツミ株式会社,,株式会社,千葉県,船橋市,本中山７丁目１５番１号原木中山サンクス１０１室,,12,204,2730035,,,,,,,2023-06-13,1,,,,,ツツミ,0
1817,7040001128821,新規,0,2023-06-13,2023-06-13,株式会社オレンジリーフコンサルティング,,株式会社,千葉県,流山市,おおたかの森西１丁目２０番地の１－１２１５,,12,220,2700128,,,,,,,2023-06-13,1,,,,,オレンジリーフコンサルティング,0
1822,7040005022038,新規,0,2023-06-13,2023-06-13,一般社団法人船橋ＦＣスポーツクラブ,,その他の設立登記法人,千葉県,船橋市,習志野台７丁目８番３５号サウスウイング２０３号,,12,204,2740063,,,,,,,2023-06-13,1,,,,,フナバシエフシースポーツクラブ,0
1833,7060003004597,新規,0,2023-06-13,2023-06-13,合同会社ＫＩＮＵ,,合同会社,栃木県,宇都宮市,鶴田町３０６７－２,,09,201,3200851,,,,,,,2023-06-13,1,,,,,キヌ,0
1838,7080401026530,新規,0,2023-06-13,2023-06-13,株式会社ＨＡＭ,,株式会社,静岡県,浜松市中区,鍛冶町１４０Ｃビル４階,,22,131,4300933,,,,,,,2023-06-13,1,,,,,ハム,0
1842,7100003007059,新規,0,2023-06-13,2023-06-13,合同会社ダシナファーム,,合同会社,長野県,飯田市,駄科３３６番地３,,20,205,3992561,,,,,,,2023-06-13,1,,,,,ダシナファーム,0
1859,7120001255616,新規,0,2023-06-13,2023-06-13,ユーソン産業株式会社,,株式会社,大阪府,大阪市中央区,北久宝寺町３丁目６番１号本町南ガーデンシティ７階,,27,128,5410057,,,,,,,2023-06-13,1,,,,,ユーソンサンギョウ,0
1860,7120001255624,新規,0,2023-06-13,2023-06-13,株式会社プロスペラス,,株式会社,大阪府,大阪市西区,阿波座１丁目１１番１８号昭和本町ビル４１１号室,,27,106,5500011,,,,,,,2023-06-13,1,,,,,プロスペラス,0
1861,7120001255649,新規,0,2023-06-13,2023-06-13,吉家リソース株式会社,,株式会社,大阪府,大阪市東成区,玉津２丁目１８番４３号,,27,115,5370023,,,,,,,2023-06-13,1,,,,,ヨシヤリソース,0
1862,7120001255698,新規,0,2023-06-13,2023-06-13,ＭＩＯ株式会社,,株式会社,大阪府,寝屋川市,成田町８番４号,,27,215,5720004,,,,,,,2023-06-13,1,,,,,ミオ,0
1866,7120003024184,新規,0,2023-06-13,2023-06-13,合同会社Ｗ,,合同会社,大阪府,大阪市北区,梅田１丁目２番２号大阪駅前第二ビル１２－１２,,27,127,5300001,,,,,,,2023-06-13,1,,,,,ダブリュー,0
1867,7120003024267,新規,0,2023-06-13,2023-06-13,合同会社ＢＫ‐Ｆｏｏｄ,,合同会社,大阪府,大阪市中央区,島之内１丁目２２番１２号ロイヤルハイツ寿,,27,128,5420082,,,,,,,2023-06-13,1,,,,,ビーケーフード,0
1868,7120003024275,新規,0,2023-06-13,2023-06-13,リンリン合同会社,,合同会社,大阪府,大阪市住吉区,南住吉１丁目８番２２－４０１号,,27,120,5580041,,,,,,,2023-06-13,1,,,,,リンリン,0
1869,7120003024283,新規,0,2023-06-13,2023-06-13,ＨＡＬＯ　ＪＡＰＡＮ合同会社,,合同会社,大阪府,大阪市住吉区,長居東３丁目１１－１７能祖ビル２Ｂ,,27,120,5580004,,,,,,,2023-06-13,1,,,,,ハロジャパン,0
1871,7120101067705,新規,0,2023-06-13,2023-06-13,近畿産業株式会社,,株式会社,大阪府,貝塚市,近木９６０番地,,27,208,5970001,,,,,,,2023-06-13,1,,,,,キンキサンギョウ,0
1877,7120901047633,新規,0,2023-06-13,2023-06-13,タカツキ昆布株式会社,,株式会社,大阪府,高槻市,南庄所町１０番６号,,27,207,5690063,,,,,,,2023-06-13,1,,,,,タカツキコンブ,0
1878,7120901047666,新規,0,2023-06-13,2023-06-13,株式会社ＭＥＲＡＫＩ,,株式会社,大阪府,吹田市,円山町５３番６４号,,27,205,5640061,,,,,,,2023-06-13,1,,,,,メラキ,0
1879,7120903004681,新規,0,2023-06-13,2023-06-13,合同会社ライト,,合同会社,大阪府,豊中市,北桜塚３丁目２番３５号,,27,203,5600022,,,,,,,2023-06-13,1,,,,,ライト,0
1888,7140001130461,新規,0,2023-06-13,2023-06-13,株式会社神戸三田アニマルクリニック,,株式会社,兵庫県,三田市,沢谷７８３番地,,28,219,6691335,,,,,,,2023-06-13,1,,,,,コウベサンダアニマルクリニック,0
1893,7170005007018,新規,0,2023-06-13,2023-06-13,農事組合法人味心,,その他の設立登記法人,和歌山県,紀の川市,上丹生谷２４１番地の２,,30,208,6496522,,,,,,,2023-06-13,1,,,,,アジゴコロ,0
1897,7180003025367,新規,0,2023-06-13,2023-06-13,合同会社ＭＯＥＴ,,合同会社,愛知県,名古屋市中川区,中郷２丁目５３番地の１シティハイツいぶき２０６号,,23,110,4540921,,,,,,,2023-06-13,1,,,,,モエ,0
1907,7190001030491,新規,0,2023-06-13,2023-06-13,ＭＴＳ株式会社,,株式会社,三重県,松阪市,東町２１６番地２,,24,204,5150012,,,,,,,2023-06-13,1,,,,,エムティーエス,0
1909,7200001041396,新規,0,2023-06-13,2023-06-13,株式会社ｆｕｊｉｇｒｏｕｐ,,株式会社,岐阜県,高山市,八軒町２丁目４０番地１０,,21,203,5060012,,,,,,,2023-06-13,1,,,,,フジグループ,0
1911,7220001025455,新規,0,2023-06-13,2023-06-13,株式会社音斗,,株式会社,石川県,金沢市,新保本４丁目１１番地,,17,201,9218062,,,,,,,2023-06-13,1,,,,,オト,0
1919,7240001061663,新規,0,2023-06-13,2023-06-13,株式会社ｒｏｏｔ,,株式会社,広島県,広島市西区,己斐本町１丁目５番８号,,34,104,7330812,,,,,,,2023-06-13,1,,,,,ルート,0
1920,7240003006179,新規,0,2023-06-13,2023-06-13,ファイン・フーズカンパニー合同会社,,合同会社,広島県,福山市,多治米町２丁目１４番８号,,34,207,7200824,,,,,,,2023-06-13,1,,,,,ファインフーズカンパニー,0
1922,7250003003290,新規,0,2023-06-13,2023-06-13,合同会社ＨＡＹＡＳＨＩ企画,,合同会社,山口県,宇部市,東小羽山町１丁目３番２号,,35,202,7550082,,,,,,,2023-06-13,1,,,,,ハヤシキカク,0
1926,7260001038032,新規,0,2023-06-13,2023-06-13,株式会社ＳＡグループ,,株式会社,岡山県,岡山市北区,青江４丁目１０－２２,,33,101,7000941,,,,,,,2023-06-13,1,,,,,エスエーグループ,0
1934,7290001101869,新規,0,2023-06-13,2023-06-13,株式会社ＰＩＣＮＩＣ,,株式会社,福岡県,福岡市中央区,赤坂１丁目１４番２２号,,40,133,8100042,,,,,,,2023-06-13,1,,,,,ピクニック,0
1938,7290005019059,新規,0,2023-06-13,2023-06-13,一般社団法人パーソナル・ビューティ・デザイン協会,,その他の設立登記法人,福岡県,福岡市中央区,薬院１丁目６番２５－４０２号,,40,133,8100022,,,,,,,2023-06-13,1,,,,,パーソナルビューティデザインキョウカイ,0
1940,7290803004435,新規,0,2023-06-13,2023-06-13,合同会社Ｃｌｉｐ,,合同会社,福岡県,京都郡苅田町,大字苅田６１８番地１,,40,621,8000365,,,,,,,2023-06-13,1,,,,,クリップ,0
1942,7310001018466,新規,0,2023-06-13,2023-06-13,株式会社クレインヴィレッジ,,株式会社,長崎県,佐世保市,三浦町２番１号アルファビル２Ｆ２０７号,,42,202,8570863,,,,,,,2023-06-13,1,,,,,クレインヴィレッジ,0
1945,7330001030956,新規,0,2023-06-13,2023-06-13,株式会社えにし,,株式会社,熊本県,八代市,植柳新町２丁目２号２番地,,43,202,8660084,,,,,,,2023-06-13,1,,,,,エニシ,0
1946,7330001030964,新規,0,2023-06-13,2023-06-13,ＩＲＯＮＳ　ｄｅｓｉｇｎ　ｊａｐａｎ株式会社,,株式会社,熊本県,熊本市東区,御領１丁目１番９８号,,43,102,8618035,,,,,,,2023-06-13,1,,,,,アイアンズデザインジャパン,0
1962,7420001018298,新規,0,2023-06-13,2023-06-13,グローイングバンブ株式会社,,株式会社,青森県,青森市,大字筒井字桜川３８番地,,02,201,0300944,,,,,,,2023-06-13,1,,,,,,0
1968,7460101007395,新規,0,2023-06-13,2023-06-13,株式会社大桜重機,,株式会社,北海道,中川郡池田町,字西一条１１丁目２番地５３,,01,644,0830021,,,,,,,2023-06-13,1,,,,,ダイオウジュウキ,0
1970,7470003002444,新規,0,2023-06-13,2023-06-13,合同会社ケーエムシー,,合同会社,香川県,善通寺市,吉原町１６８８番地１,,37,204,7650061,,,,,,,2023-06-13,1,,,,,ケーエムシー,0
1973,7490003001790,新規,0,2023-06-13,2023-06-13,合同会社８１サービス,,合同会社,高知県,香南市,野市町西野５２６番地１,,39,211,7815232,,,,,,,2023-06-13,1,,,,,エイトワンサービス,0
1982,7700150114357,新規,0,2023-06-13,2023-06-13,Ａｖｏｌｏｎ　Ａｅｒｏｓｐａｃｅ（Ｉｒｅｌａｎｄ）ＡＯＥ４９　Ｌｉｍｉｔｅｄ,,外国会社等,,,,,,,,Ｎｕｍｂｅｒ　Ｏｎｅ　Ｂａｌｌｓｂｒｉｄｇｅ　Ｂｕｉｌｄｉｎｇ　１，Ｓｈｅｌｂｏｕｒｎｅ　Ｒｏａｄ　Ｂａｌｌｓｂｒｉｄｇｅ，Ｄｕｂｌｉｎ　４　Ｄ０４　ＦＰ６５　Ｉｒｅｌａｎｄ,,,,,,2023-06-13,1,,,,,アヴオロンエアロスペースアイルランドエーオーイーヨンジユウキユウリミテツド,0
1983,7700150114506,新規,0,2023-06-13,2023-06-13,Ａｒｌｏ　Ｔｅｃｈｎｏｌｏｇｉｅｓ　Ｉｎｔｅｒｎａｔｉｏｎａｌ　Ｌｉｍｉｔｅｄ,,外国会社等,,,,,,,,Ｕｎｉｔ　３，Ｕｎｉｖｅｒｓｉｔｙ　ｔｅｃｈｎｏｌｏｇｙ　ｃｅｎｔｅｒ，ｃｕｒｒａｈｅｅｎ　ｒｏａｄ，ｂｉｓｈｏｐｓｔｏｗｎ，Ｃｏｒｋ，Ｉｒｅｌａｎｄ,,,,,,2023-06-13,1,,,,,アーロテクノロジーインターナシヨナルリミテツド,0
1984,7700150117310,新規,0,2023-06-13,2023-06-13,Ｓｈｅｎｚｈｅｎ　Ｌａｎ　Ｚｈｕｏ　Ｙｕｅ　Ｅｌｅｃｔｒｏｎｉｃｓ　Ｔｅｃｈｎｏｌｏｇｙ　Ｃｏ．，,,外国会社等,,,,,,,,２ｎｄ　４０６　ｓｅｃｏｎｄ　ｒｏｗ　ｏｆ　Ｙａｎｔｉａｎ　Ｎｅｗ　Ｔｈｒｅｅ　Ｖｉｌｌａｇｅ　Ｂａｏ’ａｎ　Ｘｉｘｉａｎｇ　Ｄｉｓｔｒｉｃｔ　Ｓｈｅｎｚｈｅｎ　Ｇｕａｎｇ　ｄｏｎｇ　５１８１０２　ＣＮ,,,,,,2023-06-13,1,,,,,シェンジェンシーランジュオユエディエンズーコージーヨウシエンゴンスー,0
1998,8010001236072,新規,0,2023-06-13,2023-06-13,株式会社Ｎｅｘｔｅｐ,,株式会社,東京都,千代田区,神田小川町１丁目９番９号リンデンハウス２０１,,13,101,1010052,,,,,,,2023-06-13,1,,,,,ネクステップ,0
1999,8010001236089,新規,0,2023-06-13,2023-06-13,株式会社スターフェリー,,株式会社,東京都,中央区,日本橋室町１丁目１１番１２号日本橋水野ビル７階,,13,102,1030022,,,,,,,2023-06-13,1,,,,,スターフェリー,0
2000,8010001236130,新規,0,2023-06-13,2023-06-13,Ｋａｌｅ株式会社,,株式会社,東京都,千代田区,永田町２丁目１４番２号山王グランドビル３階スリーアイズキャピタル株式会社内,,13,101,1000014,,,,,,,2023-06-13,1,,,,,カレ,0
2001,8010003040852,新規,0,2023-06-13,2023-06-13,ＥＴＴＮ合同会社,,合同会社,東京都,中央区,銀座１丁目１２番４号Ｎ＆ＥＢＬＤ．６Ｆ,,13,102,1040061,,,,,,,2023-06-13,1,,,,,イーティーティーエヌ,0
2006,8010401174995,新規,0,2023-06-13,2023-06-13,株式会社カラーコレクション,,株式会社,東京都,港区,芝２丁目３番１２号芝シムラビル８Ｆ,,13,103,1050014,,,,,,,2023-06-13,1,,,,,カラーコレクション,0
2008,8010501050592,新規,0,2023-06-13,2023-06-13,軽齢日本株式会社,,株式会社,東京都,台東区,台東１丁目２４番９号ブライト秋葉原Ｂ１Ｆ,,13,106,1100016,,,,,,,2023-06-13,1,,,,,ケイレイニホン,0
2014,8010801034023,新規,0,2023-06-13,2023-06-13,Ａ‐Ｓｈｉｐ株式会社,,株式会社,東京都,大田区,大森本町１丁目６－２－１２１９大森パークホームズベイサイドコート,,13,111,1430011,,,,,,,2023-06-13,1,,,,,エースシップ,0
2019,8010901053237,新規,0,2023-06-13,2023-06-13,株式会社ハウジングリリース,,株式会社,東京都,世田谷区,駒沢１丁目４番１４号,,13,112,1540012,,,,,,,2023-06-13,1,,,,,ハウジングリリース,0
2025,8011003016990,新規,0,2023-06-13,2023-06-13,合同会社Ｆｒｕｉｔ　ｃａｔ,,合同会社,東京都,渋谷区,西原１丁目１０－１３,,13,113,1510066,,,,,,,2023-06-13,1,,,,,フルーツキャット,0
2037,8011301028779,新規,0,2023-06-13,2023-06-13,株式会社アーバンアクティブジャパン,,株式会社,東京都,杉並区,下高井戸４丁目３５番２６号メゾン杉Ｂ１０１号,,13,115,1680073,,,,,,,2023-06-13,1,,,,,アーバンアクティブジャパン,0
2043,8011601026854,新規,0,2023-06-13,2023-06-13,株式会社磯村建設,,株式会社,東京都,練馬区,北町２丁目３５番２号,,13,120,1790081,,,,,,,2023-06-13,1,,,,,イソムラケンセツ,0
2044,8011701026317,新規,0,2023-06-13,2023-06-13,ＥＩＧＨＴ株式会社,,株式会社,東京都,江戸川区,西葛西２丁目１８番３－５０１号,,13,123,1340088,,,,,,,2023-06-13,1,,,,,エイト,0
2045,8011801042569,新規,0,2023-06-13,2023-06-13,新諾株式会社,,株式会社,東京都,足立区,栗原３丁目２６番１号２Ｆ,,13,121,1230842,,,,,,,2023-06-13,1,,,,,シンダク,0
2048,8012401040624,新規,0,2023-06-13,2023-06-13,株式会社ＦＬＡ‐ＧＲＩＴ,,株式会社,東京都,三鷹市,下連雀６丁目１７番５号,,13,204,1810013,,,,,,,2023-06-13,1,,,,,フラグリット,0
2053,8012403006020,新規,0,2023-06-13,2023-06-13,合同会社ＨＰアシスト,,合同会社,東京都,三鷹市,下連雀１丁目２２番７号２０２,,13,204,1810013,,,,,,,2023-06-13,1,,,,,エイチピーアシスト,0
2055,8012801022437,新規,0,2023-06-13,2023-06-13,株式会社ａｓｆａｃｔ,,株式会社,東京都,立川市,栄町２丁目５２番地の３６,,13,202,1900003,,,,,,,2023-06-13,1,,,,,アズファクト,0
2065,8020001152070,新規,0,2023-06-13,2023-06-13,株式会社ＶｉＶｉ,,株式会社,神奈川県,横浜市南区,吉野町１丁目２番地,,14,105,2320014,,,,,,,2023-06-13,1,,,,,ヴィヴィ,0
2080,8021001079304,新規,0,2023-06-13,2023-06-13,株式会社ＴＲＩＰＬＥ・Ｍ・ＣＯＲＰＯＲＡＴＩＯＮ,,株式会社,神奈川県,小田原市,下堀１０６－４,,14,206,2500871,,,,,,,2023-06-13,1,,,,,トリプルエムコーポレーション,0
2081,8021001079312,新規,0,2023-06-13,2023-06-13,株式会社ＧＦＭ企画,,株式会社,神奈川県,小田原市,中村原２４０番地３７,,14,206,2560803,,,,,,,2023-06-13,1,,,,,ジーエフエムキカク,0
2082,8021001079320,新規,0,2023-06-13,2023-06-13,株式会社サンロジ,,株式会社,神奈川県,平塚市,ふじみ野２丁目１５番８号,,14,203,2591211,,,,,,,2023-06-13,1,,,,,サンロジ,0
2091,8030001154322,新規,0,2023-06-13,2023-06-13,株式会社栄晋内装,,株式会社,埼玉県,川口市,鳩ヶ谷緑町１丁目３番４－２０２号,,11,203,3340015,,,,,,,2023-06-13,1,,,,,エイシンナイソウ,0
2094,8030003021941,新規,0,2023-06-13,2023-06-13,ＹＡＤＯＫＡＲＩ合同会社,,合同会社,埼玉県,鶴ヶ島市,大字五味ヶ谷６７番地２４,,11,241,3502202,,,,,,,2023-06-13,1,,,,,ヤドカリ,0
2101,8040001128804,新規,0,2023-06-13,2023-06-13,株式会社ステラ,,株式会社,千葉県,流山市,南流山２丁目２番地の７渋谷ビル２０９号室,,12,220,2700163,,,,,,,2023-06-13,1,,,,,ステラ,0
2103,8040003022781,新規,0,2023-06-13,2023-06-13,祥福合同会社,,合同会社,千葉県,流山市,松ケ丘５丁目７０２番地の３４,,12,220,2700141,,,,,,,2023-06-13,1,,,,,ショウフク,0
2115,8050003007575,新規,0,2023-06-13,2023-06-13,合同会社Ｓｕｂａｓｉ　ｍｏｔｏｒｓ,,合同会社,茨城県,筑西市,玉戸１５２３－１０７武井住宅リバティ１０－１０６号室,,08,227,3080847,,,,,,,2023-06-13,1,,,,,スバシモーターズ,0
2125,8090001018166,新規,0,2023-06-13,2023-06-13,株式会社石坂,,株式会社,山梨県,南アルプス市,和泉９８４番地１,,19,208,4000413,,,,,,,2023-06-13,1,,,,,イシザカ,0
2129,8100001036513,新規,0,2023-06-13,2023-06-13,株式会社どんぐり,,株式会社,長野県,北佐久郡御代田町,大字御代田２５６８番地２７,,20,323,3890206,,,,,,,2023-06-13,1,,,,,ドングリ,0
2131,8100003007058,新規,0,2023-06-13,2023-06-13,合同会社Ｓｔａｉｎｅｄ‐Ｇ,,合同会社,長野県,茅野市,北山４０２６ステンドグラス,,20,214,3910301,,,,,,,2023-06-13,1,,,,,ステンドジー,0
2135,8110003005085,新規,0,2023-06-13,2023-06-13,Ｍ’ｓＴＲＡＩＬ合同会社,,合同会社,新潟県,長岡市,今井２丁目１６６番地ハイツビギン１Ｆ,,15,202,9401166,,,,,,,2023-06-13,1,,,,,エムズトレイル,0
2150,8120001255474,新規,0,2023-06-13,2023-06-13,株式会社ｇｉｖｅｒ,,株式会社,大阪府,大阪市平野区,長吉長原１丁目１番５３号,,27,126,5470016,,,,,,,2023-06-13,1,,,,,ギヴァー,0
2151,8120001255532,新規,0,2023-06-13,2023-06-13,日本泓曄株式会社,,株式会社,大阪府,大阪市大正区,三軒家西３丁目４番１６号中山ビル３０８Ａ,,27,108,5510001,,,,,,,2023-06-13,1,,,,,ニホンコウハ,0
2152,8120001255557,新規,0,2023-06-13,2023-06-13,Ｔａｋｅｃｈｉｙｏ株式会社,,株式会社,大阪府,大阪市北区,梅田１丁目２番２号大阪駅前第２ビル１２－１２,,27,127,5300001,,,,,,,2023-06-13,1,,,,,タケチヨ,0
2153,8120001255565,新規,0,2023-06-13,2023-06-13,アキラ株式会社,,株式会社,大阪府,大阪市北区,同心２丁目３番１３号,,27,127,5300035,,,,,,,2023-06-13,1,,,,,アキラ,0
2154,8120001255581,新規,0,2023-06-13,2023-06-13,小森株式会社,,株式会社,大阪府,大阪市住之江区,安立２丁目１０番１４号三坂ビル３０２号室,,27,125,5590003,,,,,,,2023-06-13,1,,,,,コモリ,0
2155,8120001255623,新規,0,2023-06-13,2023-06-13,株式会社ファストブレイク,,株式会社,大阪府,大阪市此花区,春日出北２丁目８番６号,,27,104,5540021,,,,,,,2023-06-13,1,,,,,ファストブレイク,0
2156,8120001255648,新規,0,2023-06-13,2023-06-13,清航株式会社,,株式会社,大阪府,大阪市中央区,日本橋１丁目２５－１６－５０３,,27,128,5420073,,,,,,,2023-06-13,1,,,,,セイコウ,0
2159,8120003024274,新規,0,2023-06-13,2023-06-13,合同会社シンワテクニカル,,合同会社,大阪府,大阪市福島区,福島７丁目１３－２,,27,103,5530003,,,,,,,2023-06-13,1,,,,,シンワテクニカル,0
2161,8120005023670,新規,0,2023-06-13,2023-06-13,一般社団法人なみはや講談協会,,その他の設立登記法人,大阪府,大阪市天王寺区,筆ケ崎町２番５０－５１６号,,27,109,5430027,,,,,,,2023-06-13,1,,,,,ナミハヤコウダンキョウカイ,0
2162,8120005023679,新規,0,2023-06-13,2023-06-13,一般社団法人馬子屋,,その他の設立登記法人,大阪府,大阪市北区,芝田２丁目８－１１共栄ビル３階,,27,127,5300012,,,,,,,2023-06-13,1,,,,,マゴヤ,0
2165,8120101067695,新規,0,2023-06-13,2023-06-13,株式会社Ｑ,,株式会社,大阪府,堺市中区,東八田３４０番地５,,27,142,5998275,,,,,,,2023-06-13,1,,,,,キュー,0
2166,8120103005273,新規,0,2023-06-13,2023-06-13,合同会社中井エステート,,合同会社,大阪府,阪南市,尾崎町１５３番地の１５,,27,232,5990201,,,,,,,2023-06-13,1,,,,,ナカイエステート,0
2168,8120901047665,新規,0,2023-06-13,2023-06-13,株式会社Ｌｏｔｕｓ,,株式会社,大阪府,茨木市,南耳原１丁目６番３１号アヴニール０１０７号,,27,211,5670004,,,,,,,2023-06-13,1,,,,,ロータス,0
2174,8130001074535,新規,0,2023-06-13,2023-06-13,ＳＥＥＤ　Ｔｅｃｈｎｏｌｏｇｙ株式会社,,株式会社,京都府,京都市右京区,嵯峨柳田町３５番地４３,,26,108,6168363,,,,,,,2023-06-13,1,,,,,シードテクノロジー,0
2176,8130003008788,新規,0,2023-06-13,2023-06-13,合同会社プレイス,,合同会社,京都府,京都市上京区,中町通丸太町下る駒之町５６１番地４河原町スカイマンション３０６,,26,102,6020872,,,,,,,2023-06-13,1,,,,,プレイス,0
2191,8140001130452,新規,0,2023-06-13,2023-06-13,ｅｐｉｃｅプランニング株式会社,,株式会社,兵庫県,神戸市垂水区,桃山台４丁目２番地の１１,,28,108,6550854,,,,,,,2023-06-13,1,,,,,エピスプランニング,0
2195,8140003019198,新規,0,2023-06-13,2023-06-13,合同会社アオ次,,合同会社,兵庫県,尼崎市,南武庫之荘２丁目１１番１０－１０６号,,28,202,6610033,,,,,,,2023-06-13,1,,,,,アオジ,0
2196,8160005011201,新規,0,2023-06-13,2023-06-13,一般社団法人仁秀グループ,,その他の設立登記法人,滋賀県,草津市,野路１丁目８－１８エルミナｅｅビルディング１００４号,,25,206,5250059,,,,,,,2023-06-13,1,,,,,ジンシュウグループ,0
2202,8180001156741,新規,0,2023-06-13,2023-06-13,株式会社海南製作所,,株式会社,愛知県,弥富市,鯏浦町上六４１番地７,,23,235,4980023,,,,,,,2023-06-13,1,,,,,カイナンセイサクショ,0
2205,8180301037476,新規,0,2023-06-13,2023-06-13,中部開発株式会社,,株式会社,愛知県,碧南市,源氏町１丁目１５番地４,,23,209,4470886,,,,,,,2023-06-13,1,,,,,チュウブカイハツ,0
2208,8190001030490,新規,0,2023-06-13,2023-06-13,株式会社宮本電器,,株式会社,三重県,伊賀市,馬場１１３番地の１,,24,216,5181313,,,,,,,2023-06-13,1,,,,,ミヤモトデンキ,0
2209,8190003004352,新規,0,2023-06-13,2023-06-13,合同会社リライフ,,合同会社,三重県,津市,久居一色町２２３番地４０,,24,201,5141253,,,,,,,2023-06-13,1,,,,,リライフ,0
2219,8240001061662,新規,0,2023-06-13,2023-06-13,株式会社キムラ,,株式会社,広島県,福山市,南手城町３丁目１０番１９号,,34,207,7210963,,,,,,,2023-06-13,1,,,,,キムラ,0
2220,8240001061670,新規,0,2023-06-13,2023-06-13,株式会社Ｐｌｕｓ　Ｔａｓｋ,,株式会社,広島県,広島市東区,牛田東２丁目１６－２０牛田東コープマンション１０３,,34,102,7320063,,,,,,,2023-06-13,1,,,,,プラスタスク,0
2221,8240001061679,新規,0,2023-06-13,2023-06-13,株式会社ｇｒａｓｐｅｄｉａ,,株式会社,広島県,広島市南区,宇品御幸３丁目２番６号,,34,103,7340015,,,,,,,2023-06-13,1,,,,,グラスペディア,0
2222,8240003006178,新規,0,2023-06-13,2023-06-13,合同会社桑田組,00130833,合同会社,広島県,福山市,駅家町大字近田１６６番地１,,34,207,7201133,,,,,,,2023-06-13,1,,,,,クワダグミ,0
2236,8290001101901,新規,0,2023-06-13,2023-06-13,株式会社重山,,株式会社,福岡県,福岡市中央区,赤坂１丁目１１－２０－８ｂｉｔＡＫＡＳＡＫＡ,,40,133,8100042,,,,,,,2023-06-13,1,,,,,ジュウサン,0
2245,8310001018465,新規,0,2023-06-13,2023-06-13,株式会社ａｉｒ,,株式会社,長崎県,東彼杵郡川棚町,百津郷２９６番地１８２,,42,322,8593605,,,,,,,2023-06-13,1,,,,,エアー,0
2249,8330003009881,新規,0,2023-06-13,2023-06-13,合同会社大心メンテ,,合同会社,熊本県,八代市,建馬町２番１１号,,43,202,8660045,,,,,,,2023-06-13,1,,,,,ダイシンメンテ,0
2253,8360001032164,新規,0,2023-06-13,2023-06-13,株式会社南城エステート,,株式会社,沖縄県,島尻郡与那原町,字与那原３０６７番地の１,,47,348,9011303,,,,,,,2023-06-13,1,,,,,ナンジョウエステート,0
2255,8370001050074,新規,0,2023-06-13,2023-06-13,フードベース株式会社,,株式会社,宮城県,仙台市若林区,卸町２丁目６番地の４,,04,103,9840015,,,,,,,2023-06-13,1,,,,,フードベース,0
2268,8410003003810,新規,0,2023-06-13,2023-06-13,合同会社運動,,合同会社,秋田県,南秋田郡五城目町,字七倉１１６番地１４,,05,361,0181721,,,,,,,2023-06-13,1,,,,,ウンドウ,0
2275,8430003015176,新規,0,2023-06-13,2023-06-13,合同会社ローカルケアアラインメント,,合同会社,北海道,札幌市厚別区,厚別中央五条４丁目８番１２－７０３号,,01,108,0040055,,,,,,,2023-06-13,1,,,,,ローカルケアアラインメント,0
2278,8460103001536,新規,0,2023-06-13,2023-06-13,合同会社つなぐ,,合同会社,北海道,帯広市,自由が丘６丁目１番地１３,,01,207,0802476,,,,,,,2023-06-13,1,,,,,ツナグ,0
2280,8470003002443,新規,0,2023-06-13,2023-06-13,合同会社Ｒｉｓｅ,,合同会社,香川県,高松市,新田町甲４５９番地１３,,37,201,7610102,,,,,,,2023-06-13,1,,,,,ライズ,0
2284,8700150114216,新規,0,2023-06-13,2023-06-13,ＮＥＳＴＲＡＤＥ　Ｓ．Ａ．,,外国会社等,,,,,,,,Ｒｕｅ　ｄ’Ｅｎｔｒｅ－ｄｅｕｘ－Ｖｉｌｌｅｓ　１０　１８１４　Ｌａ　Ｔｏｕｒ－ｄｅ―Ｐｅｉｌｚ，Ｓｗｉｔｚｅｒｌａｎｄ,,,,,,2023-06-13,1,,,,,ネストレイドエスエー,0
2285,8700150114356,新規,0,2023-06-13,2023-06-13,Ａｖｏｌｏｎ　Ａｅｒｏｓｐａｃｅ（Ｉｒｅｌａｎｄ）ＡＯＥ４８　Ｌｉｍｉｔｅｄ,,外国会社等,,,,,,,,Ｎｕｍｂｅｒ　Ｏｎｅ　Ｂａｌｌｓｂｒｉｄｇｅ　Ｂｕｉｌｄｉｎｇ　１，Ｓｈｅｌｂｏｕｒｎｅ　Ｒｏａｄ　Ｂａｌｌｓｂｒｉｄｇｅ，Ｄｕｂｌｉｎ　４　Ｄ０４　ＦＰ６５　Ｉｒｅｌａｎｄ,,,,,,2023-06-13,1,,,,,アヴオロンエアロスペースアイルランドエーオーイーヨンジユウハチリミテツド,0
2286,8700150114835,新規,0,2023-06-13,2023-06-13,ＢＯＣ　Ａｖｉａｔｉｏｎ（ＵＫ）Ｌｉｍｉｔｅｄ,,外国会社等,,,,,,,,ｃ／ｏ　Ｃｏｇｅｎｃｙ　Ｇｌｏｂａｌ（ＵＫ）　Ｌｉｍｉｔｅｄ，５　Ｌｌｏｙｄｓ　Ａｖｅｎｕｅ，Ｕｎｉｔ　４ＣＬ，Ｌｏｎｄｏｎ，Ｅｎｇｌａｎｄ,,,,,,2023-06-13,1,,,,,ビーオーシーアビエーシヨンユーケーリミテツド,0
2287,8700150115841,新規,0,2023-06-13,2023-06-13,ＮＵＳｋｉｎＥｎｔｅｒｐｒｉｓｅｓＰｒｏｄｕｃｔｓ．Ｉｎｃ．,,外国会社等,,,,,,,,７５　Ｗｅｓｔ　Ｃｅｎｔｅｒ　Ｓｔｒｅｅｔ　Ｐｒｏｖｏ，ＵＴ　８４６０１　Ｕｎｉｔｅｄ　Ｓｔａｔｅｓ,,,,,,2023-06-13,1,,,,,ニユースキンエンタープライゼスプロダクツインク,0
2293,9010001236063,新規,0,2023-06-13,2023-06-13,株式会社ＨＡＧＡＩ,,株式会社,東京都,千代田区,西神田２丁目５番７号,,13,101,1010065,,,,,,,2023-06-13,1,,,,,ハガイ,0
2298,9010105002221,新規,0,2023-06-13,2023-06-13,一般社団法人みんなの居場所つくり隊縁楽結,,その他の設立登記法人,東京都,八王子市,兵衛１丁目１５番１号プロメテール１０３号室,,13,201,1920918,,,,,,,2023-06-13,1,,,,,ミンナノイバショツクリタイエンジョイン,0
2307,9010401175002,新規,0,2023-06-13,2023-06-13,株式会社ＶＯＬＴ,,株式会社,東京都,港区,赤坂８丁目１２番２８号パレス赤坂５０２,,13,103,1070052,,,,,,,2023-06-13,1,,,,,ボルト,0
2308,9010401175019,新規,0,2023-06-13,2023-06-13,株式会社ラリンド,,株式会社,東京都,港区,六本木５丁目１３番１４号メゾン麻布６０６号室,,13,103,1060032,,,,,,,2023-06-13,1,,,,,ラリンド,0
2309,9010401175027,新規,0,2023-06-13,2023-06-13,株式会社リセンシャル,,株式会社,東京都,港区,麻布十番３丁目４番６号,,13,103,1060045,,,,,,,2023-06-13,1,,,,,リセンシャル,0
2311,9010403030337,新規,0,2023-06-13,2023-06-13,ｓｂｉｃｅ合同会社,,合同会社,東京都,港区,浜松町２丁目２番１５号浜松町ダイヤビル２Ｆ,,13,103,1050013,,,,,,,2023-06-13,1,,,,,スバイス,0
2315,9010701044410,新規,0,2023-06-13,2023-06-13,バイオＸ株式会社,,株式会社,東京都,品川区,東五反田１丁目２番１５号,,13,109,1410022,,,,,,,2023-06-13,1,,,,,バイオエックス,0
2319,9010801034047,新規,0,2023-06-13,2023-06-13,株式会社明るい未来ラボ,,株式会社,東京都,大田区,山王４丁目２８番５号ヴィレッヂ山王Ａ棟２,,13,111,1430023,,,,,,,2023-06-13,1,,,,,アカルイミライラボ,0
2323,9010901053228,新規,0,2023-06-13,2023-06-13,株式会社ＵＴＥＫＩ,,株式会社,東京都,世田谷区,奥沢７丁目８番９号,,13,112,1580083,,,,,,,2023-06-13,1,,,,,ウテキ,0
2324,9010901053236,新規,0,2023-06-13,2023-06-13,株式会社豊喜コンサルティング,,株式会社,東京都,世田谷区,玉川４丁目３５番３号,,13,112,1580094,,,,,,,2023-06-13,1,,,,,ホウキコンサルティング,0
2329,9011001155014,新規,0,2023-06-13,2023-06-13,株式会社リアティー,,株式会社,東京都,渋谷区,道玄坂１丁目１０番８号渋谷道玄坂東急ビル２Ｆ－Ｃ,,13,113,1500043,,,,,,,2023-06-13,1,,,,,リアティー,0
2330,9011003016957,新規,0,2023-06-13,2023-06-13,合同会社サバイバルグランピング,,合同会社,東京都,渋谷区,猿楽町１４番２８－４０６号,,13,113,1500033,,,,,,,2023-06-13,1,,,,,サバイバルグランピング,0
2331,9011003016998,新規,0,2023-06-13,2023-06-13,Ｏｐｅｎ　Ｓａｌｅｓ合同会社,,合同会社,東京都,渋谷区,代々木３丁目５５－１０－１０３,,13,113,1510053,,,,,,,2023-06-13,1,,,,,オープンセールス,0
2347,9011401025196,新規,0,2023-06-13,2023-06-13,ＨＰＣサイエンス株式会社,,株式会社,東京都,板橋区,舟渡１丁目１２番１１号,,13,119,1740041,,,,,,,2023-06-13,1,,,,,エイチピーシーサイエンス,0
2348,9011401025205,新規,0,2023-06-13,2023-06-13,卓康株式会社,,株式会社,東京都,板橋区,桜川２丁目４－４パークサイドコート桜川３０４号室,,13,119,1740075,,,,,,,2023-06-13,1,,,,,タクヤス,0
2350,9011501029411,新規,0,2023-06-13,2023-06-13,ライフステップクリエーション株式会社,,株式会社,東京都,北区,滝野川７丁目２１番３－３０８号,,13,117,1140023,,,,,,,2023-06-13,1,,,,,ライフステップクリエーション,0
2353,9011605002529,新規,0,2023-06-13,2023-06-13,一般社団法人大規模言語モデル産業応用コンソーシアム,,その他の設立登記法人,東京都,練馬区,石神井町５丁目１６番１０号,,13,120,1770041,,,,,,,2023-06-13,1,,,,,ダイキボゲンゴモデルサンギョウオウヨウコンソーシアム,0
2354,9011701026324,新規,0,2023-06-13,2023-06-13,株式会社優勝ゴリラ,,株式会社,東京都,江戸川区,西葛西２丁目１６番１５号－８０２,,13,123,1340088,,,,,,,2023-06-13,1,,,,,ユウショウゴリラ,0
2359,9011801042551,新規,0,2023-06-13,2023-06-13,東運株式会社,,株式会社,東京都,足立区,西新井本町５丁目２番４－１０２号,,13,121,1230845,,,,,,,2023-06-13,1,,,,,トウウン,0
2365,9012401040623,新規,0,2023-06-13,2023-06-13,株式会社ＴＯＵＲＭＡＬＩＮＥ,,株式会社,東京都,小金井市,貫井北町３丁目２９番２１号,,13,210,1840015,,,,,,,2023-06-13,1,,,,,トルマリン,0
2368,9013301050919,新規,0,2023-06-13,2023-06-13,株式会社Ｒ＆Ｔ,,株式会社,東京都,豊島区,池袋２丁目４３番３号,,13,116,1710014,,,,,,,2023-06-13,1,,,,,アールアンドティー,0
2374,9020001152045,新規,0,2023-06-13,2023-06-13,株式会社イルマダムス,,株式会社,神奈川県,横浜市港南区,港南５丁目１６番５号,,14,111,2330003,,,,,,,2023-06-13,1,,,,,イルマダムス,0
2386,9021001079311,新規,0,2023-06-13,2023-06-13,株式会社大熊設備工業,,株式会社,神奈川県,綾瀬市,深谷中４丁目２７番５０号サンビレッジ綾瀬Ｂ―２０１,,14,218,2521107,,,,,,,2023-06-13,1,,,,,オオクマセツビコウギョウ,0
2387,9030001154180,新規,0,2023-06-13,2023-06-13,株式会社Ｇｅａｒｎｅｔ　Ｊａｐａｎ,,株式会社,埼玉県,川越市,東田町４番地２７７,,11,201,3501114,,,,,,,2023-06-13,1,,,,,ギアネットジャパン,0
2388,9030001154271,新規,0,2023-06-13,2023-06-13,株式会社ＹＩレストレーション,,株式会社,埼玉県,さいたま市南区,辻２丁目３番２７号小山ハイツ３号室,00130826,11,108,3360026,,,,,,,2023-06-13,1,,,,,ワイアイレストレーション,0
2410,9040001128803,新規,0,2023-06-13,2023-06-13,大治株式会社,,株式会社,千葉県,鎌ケ谷市,新鎌ケ谷２丁目８番１７号,,12,224,2730107,,,,,,,2023-06-13,1,,,,,ダイジ,0
2411,9040001128811,新規,0,2023-06-13,2023-06-13,株式会社Ｃｌｏｖｅｒ,,株式会社,千葉県,南房総市,市部７５９番地１,,12,234,2992226,,,,,,,2023-06-13,1,,,,,クローバー,0
2416,9040003022780,新規,0,2023-06-13,2023-06-13,ナノイノベーション合同会社,,合同会社,千葉県,浦安市,今川２丁目５番４０号レジデンスＭ＆Ｙ２０５,,12,227,2790022,,,,,,,2023-06-13,1,,,,,ナノイノベーション,0
2417,9040003022789,新規,0,2023-06-13,2023-06-13,合同会社ＡＱＵＡ商会,,合同会社,千葉県,富里市,七栄６５４番地３１５,,12,233,2860221,,,,,,,2023-06-13,1,,,,,アクアショウカイ,0
2418,9040003022797,新規,0,2023-06-13,2023-06-13,ＷＯＮＤＥＲ　ＳＥＡＳＯＮ合同会社,,合同会社,千葉県,船橋市,本町７丁目２３番１０号,,12,204,2730005,,,,,,,2023-06-13,1,,,,,ワンダーシーズン,0
2423,9050003007574,新規,0,2023-06-13,2023-06-13,合同会社幸栄冷熱サービス,,合同会社,茨城県,龍ケ崎市,若柴町２９１０番地３,,08,208,3010041,,,,,,,2023-06-13,1,,,,,,0
2424,9060001036079,新規,0,2023-06-13,2023-06-13,株式会社ＨＥＬＩＭ,,株式会社,栃木県,宇都宮市,江曽島本町３番３１号サニーガーデン１０３,,09,201,3210101,,,,,,,2023-06-13,1,,,,,ヘリム,0
2425,9060003004604,新規,0,2023-06-13,2023-06-13,ＳＵＮＣＴＵＳ　ＡＲＣＨ　ＢＲＥＷＩＮＧ合同会社,,合同会社,栃木県,日光市,稲荷町３丁目３２５番地,,09,206,3211411,,,,,,,2023-06-13,1,,,,,サンクタスアーチブルーイング,0
2433,9080101024072,新規,0,2023-06-13,2023-06-13,株式会社ＦＯＵＲ　ＳＴＡＲＳ,,株式会社,静岡県,御殿場市,印野１７９１番地の４,,22,215,4120008,,,,,,,2023-06-13,1,,,,,フォアスターズ,0
2435,9090003002332,新規,0,2023-06-13,2023-06-13,合同会社ＧＯＬＤ・いち,,合同会社,山梨県,甲府市,貢川本町５番１４号,,19,201,4000048,,,,,,,2023-06-13,1,,,,,ゴールドイチ,0
2436,9100001036495,新規,0,2023-06-13,2023-06-13,株式会社ＩＴＳＵＫＡ,,株式会社,長野県,上高井郡小布施町,大字雁田６０５,,20,541,3810211,,,,,,,2023-06-13,1,,,,,イツカ,0
2437,9100001036504,新規,0,2023-06-13,2023-06-13,株式会社ＪＳＰＧ,,株式会社,長野県,駒ヶ根市,赤穂２３番地１７０,,20,210,3994117,,,,,,,2023-06-13,1,,,,,ジェイエスピージー,0
2438,9100001036512,新規,0,2023-06-13,2023-06-13,小諸ウイングス株式会社,,株式会社,長野県,小諸市,荒町２丁目４番５号,,20,208,3840014,,,,,,,2023-06-13,1,,,,,コモロウイングス,0
2452,9120001255457,新規,0,2023-06-13,2023-06-13,株式会社ＭＩＳＯＫＡ,,株式会社,大阪府,大阪市中央区,今橋２丁目５番８号,,27,128,5410042,,,,,,,2023-06-13,1,,,,,ミソカ,0
2453,9120001255481,新規,0,2023-06-13,2023-06-13,株式会社みのり,,株式会社,大阪府,大阪市平野区,加美南５丁目１－１４リッツ３番館２０２号,,27,126,5470003,,,,,,,2023-06-13,1,,,,,ミノリ,0
2454,9120001255531,新規,0,2023-06-13,2023-06-13,嘉合株式会社,,株式会社,大阪府,大阪市大正区,三軒家西３丁目４番１６号中山ビル２１１Ａ,,27,108,5510001,,,,,,,2023-06-13,1,,,,,カアイ,0
2455,9120001255580,新規,0,2023-06-13,2023-06-13,株式会社アンセムユー,,株式会社,大阪府,大阪市北区,天神橋５丁目５番１６号,,27,127,5300041,,,,,,,2023-06-13,1,,,,,アンセムユー,0
2456,9120001255589,新規,0,2023-06-13,2023-06-13,株式会社景光商事,,株式会社,大阪府,大阪市中央区,高麗橋２丁目２番２号日宝北浜ビル５Ｆ６号室,,27,128,5410043,,,,,,,2023-06-13,1,,,,,カゲミツショウジ,0
2457,9120001255614,新規,0,2023-06-13,2023-06-13,イーコムウィズ株式会社,,株式会社,大阪府,大阪市大正区,三軒家西３丁目４番１６号中山ビル４０７Ｂ,,27,108,5510001,,,,,,,2023-06-13,1,,,,,イーコムウィズ,0
2458,9120001255622,新規,0,2023-06-13,2023-06-13,株式会社トレードインクジャパン,,株式会社,大阪府,大阪市北区,梅田１丁目１番３号大阪駅前第３ビル２９階１－１－１号室,,27,127,5300001,,,,,,,2023-06-13,1,,,,,トレードインクジャパン,0
2459,9120001255630,新規,0,2023-06-13,2023-06-13,株式会社ベビーマッサージたんぽぽ,,株式会社,大阪府,大阪市東淀川区,淡路３丁目６－２３ジョリメゾン１０１,,27,114,5330032,,,,,,,2023-06-13,1,,,,,ベビーマッサージタンポポ,0
2460,9120001255655,新規,0,2023-06-13,2023-06-13,春秋テック株式会社,,株式会社,大阪府,大阪市浪速区,浪速東１丁目１０番１０－１００５号,,27,111,5560025,,,,,,,2023-06-13,1,,,,,ハルアキテック,0
2461,9120001255663,新規,0,2023-06-13,2023-06-13,Ｋｉｎｇ　Ｒｏｏｍ３３株式会社,,株式会社,大阪府,大阪市中央区,内淡路町１丁目１番５－５０１号,,27,128,5400038,,,,,,,2023-06-13,1,,,,,キングルームサーティースリー,0
2465,9120003024273,新規,0,2023-06-13,2023-06-13,ロベーラ合同会社,,合同会社,大阪府,大阪市城東区,中央３丁目１番２９号サンハイツ白井８０５,,27,118,5360005,,,,,,,2023-06-13,1,,,,,ロベーラ,0
2469,9120901047656,新規,0,2023-06-13,2023-06-13,パニー株式会社,,株式会社,大阪府,豊中市,春日町３丁目９番３７号Ｇ－２１号,,27,203,5600052,,,,,,,2023-06-13,1,,,,,パニー,0
2471,9130001074526,新規,0,2023-06-13,2023-06-13,株式会社ＷＩＥ．Ｒ,,株式会社,京都府,京都市中京区,御池通高倉西入高宮町２１６番地グランフォルム御池,,26,104,6040835,,,,,,,2023-06-13,1,,,,,ウイイドットアール,0
2473,9130005016796,新規,0,2023-06-13,2023-06-13,特定非営利活動法人ＭｉｎｔＧｒｅｅｎ,,その他の設立登記法人,京都府,木津川市,木津町宮ノ内１６番地,,26,214,6190217,,,,,,,2023-06-13,1,,,,,ミントグリーン,0
2479,9140001130492,新規,0,2023-06-13,2023-06-13,株式会社ＲＡＦＵ,,株式会社,兵庫県,神戸市長田区,長田町３丁目２番１９号ルミナスハイツ長田２０１号,,28,106,6530812,,,,,,,2023-06-13,1,,,,,ラフ,0
2483,9140003019189,新規,0,2023-06-13,2023-06-13,合同会社ＡＴＯＫ,,合同会社,兵庫県,西宮市,深津町６番３２－３０３号,,28,204,6638203,,,,,,,2023-06-13,1,,,,,エートック,0
2489,9160005011200,新規,0,2023-06-13,2023-06-13,一般社団法人畜産応援プロジェクト,,その他の設立登記法人,滋賀県,大津市,打出浜３番３７号,,25,201,5200806,,,,,,,2023-06-13,1,,,,,チクサンオウエンプロジェクト,0
2492,9180005020240,新規,0,2023-06-13,2023-06-13,ＪＩＣ支援協同組合,,その他の設立登記法人,愛知県,名古屋市東区,東桜１丁目１４番１２号イースタンビル本館４０９号室,,23,102,4610005,,,,,,,2023-06-13,1,,,,,ジェイアイシーシエン,0
2512,9240001061661,新規,0,2023-06-13,2023-06-13,丸屋機工株式会社,,株式会社,広島県,福山市,南手城町４丁目２０番７号,,34,207,7210963,,,,,,,2023-06-13,1,,,,,マルヤキコウ,0
2514,9260001038030,新規,0,2023-06-13,2023-06-13,株式会社ＨＯＰＥ・ＯＮＥ,,株式会社,岡山県,岡山市中区,桑野７５０番地８,,33,102,7028002,,,,,,,2023-06-13,1,,,,,ホープワン,0
2517,9280001008964,新規,0,2023-06-13,2023-06-13,株式会社薬屋ヤマバヤシ,,株式会社,島根県,邑智郡美郷町,粕淵２５２番地５,,32,448,6994600,,,,,,,2023-06-13,1,,,,,クスリヤヤマバヤシ,0
2523,9290001101925,新規,0,2023-06-13,2023-06-13,株式会社ＡＬＬ　ＭＩＧＨＴ,,株式会社,福岡県,福岡市中央区,清川２丁目１番３１号１Ｆ,,40,133,8100005,,,,,,,2023-06-13,1,,,,,オールマイト,0
2526,9290005019065,新規,0,2023-06-13,2023-06-13,医療法人井上歯科医院,,その他の設立登記法人,福岡県,福岡市博多区,寿町２丁目４番２２号,,40,132,8120884,,,,,,,2023-06-13,1,,,,,イノウエシカイイン,0
2530,9300003001980,新規,0,2023-06-13,2023-06-13,合同会社ＴＡＫＡＺＯＥ,,合同会社,佐賀県,佐賀市,本庄町大字鹿子１４１０番地,,41,201,8400025,,,,,,,2023-06-13,1,,,,,,0
2537,9330001030962,新規,0,2023-06-13,2023-06-13,ルミノ株式会社,,株式会社,熊本県,熊本市東区,戸島２丁目６番６２号,,43,102,8618041,,,,,,,2023-06-13,1,,,,,ルミノ,0
2541,9360003012997,新規,0,2023-06-13,2023-06-13,名護観光合同会社,,合同会社,沖縄県,名護市,大北３丁目２０－１７アンドバーテラス２０３,,47,209,9050019,,,,,,,2023-06-13,1,,,,,ナゴカンコウ,0
2547,9370001050073,新規,0,2023-06-13,2023-06-13,株式会社ＳＫ・マネジメント・ラボ,,株式会社,宮城県,仙台市若林区,卸町２丁目６番地の４,,04,103,9840015,,,,,,,2023-06-13,1,,,,,エスケーマネジメントラボ,0
2548,9370001050081,新規,0,2023-06-13,2023-06-13,株式会社春コーポレーション,,株式会社,宮城県,柴田郡柴田町,東船迫２丁目１番１０－Ｃ棟,,04,323,9891631,,,,,,,2023-06-13,1,,,,,ハルコーポレーション,0
2550,9370005010643,新規,0,2023-06-13,2023-06-13,医療法人なりかわ内科脳神経内科クリニック,,その他の設立登記法人,宮城県,仙台市泉区,泉中央南５番６号,,04,105,9813126,,,,,,,2023-06-13,1,,,,,ナリカワナイカノウシンケイナイカカクリニック,0
2553,9380001033779,新規,0,2023-06-13,2023-06-13,ティエイチ株式会社,,株式会社,福島県,福島市,上名倉字松北１２番地の３,,07,201,9602155,,,,,,,2023-06-13,1,,,,,ティエイチ,0
2555,9380003005470,新規,0,2023-06-13,2023-06-13,合同会社ディアマン,,合同会社,福島県,郡山市,清水台２丁目８番１６号,,07,203,9638005,,,,,,,2023-06-13,1,,,,,ディアマン,0
2577,9700150114355,新規,0,2023-06-13,2023-06-13,Ａｖｏｌｏｎ　Ａｅｒｏｓｐａｃｅ（Ｉｒｅｌａｎｄ）ＡＯＥ４７　Ｌｉｍｉｔｅｄ,,外国会社等,,,,,,,,Ｎｕｍｂｅｒ　Ｏｎｅ　Ｂａｌｌｓｂｒｉｄｇｅ　Ｂｕｉｌｄｉｎｇ　１，Ｓｈｅｌｂｏｕｒｎｅ　Ｒｏａｄ　Ｂａｌｌｓｂ,,,,,,2023-06-13,1,,,,,アヴオロンエアロスペースアイルランドエーオーイーヨンジユウナナリミテツド,0
2578,9700150115840,新規,0,2023-06-13,2023-06-13,Ｗｅｓｔｗｏｏｄ　Ｓｈｉｐｐｉｎｇ　Ｌｉｎｅｓ,,外国会社等,,,,,,,,１０１９３９ｔｈＡｖｅｎｕｅＳＥ，Ｓｕｉｔｅ２１０，Ｐｕｙａｌｌｕｐ，Ｗａｓｈｉｎｇｔｏｎ９８３７４,,,,,,2023-06-13,1,,,,,ウエストウツドシツピングラインズ,0
2579,9700150117309,新規,0,2023-06-13,2023-06-13,Ｓｕｐｅｒ　Ｈｉｇｈ－Ｄｅｆｉｎｉｔｉｏｎ　ｅｌｅｃｔｒｏｎｉｃｓ　Ｉｎｃ,,外国会社等,,,,,,,,Ｓｕｉｔｅ　Ａ　Ｂｒｉｇｈｔｏｎ　Ｒｏｏｍ　３６　ｂｕｉｌｄｉｎｇ　１８　３７Ｓ　１７ＴＨ　Ｂｒｉｇｈｔｏｎ　Ｃｏｌｏｒａｄｏ　ＵＳＡ,,,,,,2023-06-13,1,,,,,スーパーハイデフィニションエレクトロニクスインコーポレイテッド,0
