sequenceNumber,corporateNumber,process,correct,updateDate,changeDate,name,nameImageId,kind,prefectureName,cityName,streetNumber,addressImageId,prefectureCode,cityCode,postCode,addressOutside,addressOutsideImageId,closeDate,closeCause,successorCorporateNumber,changeCause,assignmentDate,latest,enName,enPrefectureName,enCityName,enAddressOutside,furigana,hihyoji
21,1010401157981,登記記録の閉鎖等,0,2021-12-22,2021-12-14,株式会社ＴＥＣＨ－Ｘ,,株式会社,東京都,港区,南青山２丁目２番１５号ＷＩＮ青山５３１,,13,103,1070062,,,2021-12-14,清算の結了等,,,2021-02-03,1,,,,,テックエックス,0
24,1010402010454,登記記録の閉鎖等,0,2021-12-22,2021-12-15,有限会社濱光一事務所,00050934,有限会社,東京都,品川区,上大崎１丁目１０番１２号,,13,109,1410021,,,2021-12-15,清算の結了等,,,2015-10-05,1,,,,,ハマコウイチジムショ,0
54,1011401006261,登記記録の閉鎖等,0,2021-12-22,2021-12-20,株式会社睦設備,,株式会社,東京都,板橋区,大山西町２７番１０号,,13,119,1730033,,,2021-12-20,清算の結了等,,,2015-10-05,1,,,,,ムツミセツビ,0
81,1020002031692,登記記録の閉鎖等,0,2021-12-22,2021-12-17,有限会社宮崎商店,,有限会社,神奈川県,横浜市南区,南吉田町３丁目３６番地,,14,105,2320012,,,2021-12-17,清算の結了等,,,2015-10-05,1,,,,,ミヤザキショウテン,0
82,1020002060592,登記記録の閉鎖等,0,2021-12-22,2021-12-20,有限会社青葉電材,,有限会社,神奈川県,横浜市中区,山元町１丁目４５番地,,14,104,2310851,,,2021-12-20,清算の結了等,,,2015-10-05,1,,,,,アオバデンザイ,0
138,1090001012126,登記記録の閉鎖等,0,2021-12-22,2021-12-20,株式会社望月,,株式会社,山梨県,南巨摩郡富士川町,鰍沢２５１１番地,,19,368,4000601,,,2021-12-20,清算の結了等,,,2015-10-05,1,,,,,モチヅキ,0
143,1110002024951,登記記録の閉鎖等,0,2021-12-22,2021-12-20,有限会社長崎石材,00070954,有限会社,新潟県,妙高市,大崎町１番１１号,,15,217,9440006,,,2021-12-20,清算の結了等,,,2015-10-05,1,,,,,ナガサキセキザイ,0
144,1110002033052,登記記録の閉鎖等,0,2021-12-22,2021-12-20,有限会社田村印刷,,有限会社,新潟県,南魚沼市,市野江甲９２番地,,15,226,9497317,,,2021-12-20,清算の結了等,,,2015-10-05,1,,,,,タムラインサツ,0
152,1120001145120,登記記録の閉鎖等,0,2021-12-22,2021-12-21,株式会社ＲＩＳＥ　ＧＲＯＵＰ,,株式会社,大阪府,大阪市平野区,喜連西１丁目１０番４－６０１号,,27,126,5470026,,,2021-12-21,清算の結了等,,,2015-10-05,1,,,,,ライズグループ,0
165,1130002011766,登記記録の閉鎖等,0,2021-12-22,2021-12-15,有限会社京都経営協会,,有限会社,京都府,京都市右京区,山ノ内養老町３番地の１４,,26,108,6150081,,,2021-12-15,清算の結了等,,,2015-10-05,1,,,,,キョウトケイエイキョウカイ,0
169,1140001006295,登記記録の閉鎖等,0,2021-12-22,2021-12-17,株式会社ハヴァナイストリップ,,株式会社,兵庫県,神戸市中央区,上筒井通３丁目２番５号,,28,110,6510061,,,2021-12-17,清算の結了等,,,2015-10-05,1,,,,,ハヴァナイストリップ,0
178,1160005003378,登記記録の閉鎖等,0,2021-12-22,2021-12-21,協同組合長浜観光物産協会,,その他の設立登記法人,滋賀県,長浜市,八幡東町６３２番地,,25,203,5260031,,,2021-12-21,清算の結了等,,,2015-10-05,1,,,,,ナガハマカンコウブッサンキョウカイ,0
186,1180001067160,登記記録の閉鎖等,0,2021-12-22,2021-12-17,株式会社アオイコーポレーション,,株式会社,愛知県,名古屋市名東区,上社１丁目６０５番地,,23,115,4650025,,,2021-12-17,清算の結了等,,,2015-10-05,1,,,,,アオイコーポレーション,0
198,1190002001316,登記記録の閉鎖等,0,2021-12-22,2021-12-20,有限会社フォンテ・エム,,有限会社,三重県,津市,広明町１２１番地の２,,24,201,5140006,,,2021-12-20,清算の結了等,,,2015-10-05,1,,,,,フォンテエム,0
200,1210001001909,登記記録の閉鎖等,0,2021-12-22,2021-12-16,株式会社鈴木,,株式会社,福井県,吉田郡永平寺町,松岡春日１丁目２４番地,,18,322,9101133,,,2021-12-16,清算の結了等,,,2015-10-05,1,,,,,スズキ,0
202,1220001009067,登記記録の閉鎖等,0,2021-12-22,2021-12-17,金沢工芸株式会社,,株式会社,石川県,白山市,松本町１１１４番地,,17,210,9240057,,,2021-12-17,清算の結了等,,,2015-10-05,1,,,,,カナザワコウゲイ,0
205,1220001011568,登記記録の閉鎖等,0,2021-12-22,2021-12-20,株式会社ジュウソウ,,株式会社,石川県,金沢市,矢木３丁目２２５番地,,17,201,9218066,,,2021-12-20,清算の結了等,,,2015-10-05,1,,,,,ジュウソウ,0
212,1240001021887,登記記録の閉鎖等,0,2021-12-22,2021-12-17,株式会社三資堂,,株式会社,広島県,広島市佐伯区,杉並台１６番地１３,,34,108,7380514,,,2021-12-17,清算の結了等,,,2015-10-05,1,,,,,サンシドウ,0
235,1380001015058,登記記録の閉鎖等,0,2021-12-22,2021-12-17,株式会社知音,,株式会社,福島県,いわき市,平字紅葉町４０番地の１,,07,204,9708026,,,2021-12-17,清算の結了等,,,2015-10-05,1,,,,,チイン,0
239,1380002000232,登記記録の閉鎖等,0,2021-12-22,2021-12-17,有限会社東建設,,有限会社,福島県,福島市,笹木野字下屋敷７番地,,07,201,9608057,,,2021-12-17,清算の結了等,,,2015-10-05,1,,,,,,0
247,1400601001058,登記記録の閉鎖等,0,2021-12-22,2021-12-17,株式会社リフレイン,,株式会社,神奈川県,横浜市都筑区,荏田南２丁目１３番１０－３０８号,,14,118,2240007,,,2021-12-17,清算の結了等,,,2015-10-05,1,,,,,リフレイン,0
248,1420002006472,登記記録の閉鎖等,0,2021-12-22,2021-12-16,有限会社奥羽保険不動産サービス,,有限会社,青森県,八戸市,城下４丁目１２番５号,,02,203,0310072,,,2021-12-16,清算の結了等,,,2015-10-05,1,,,,,オウウホケンフドウサンサービス,0
250,1420002018526,登記記録の閉鎖等,0,2021-12-22,2021-12-16,有限会社中吉工務店,,有限会社,青森県,上北郡七戸町,字森ノ上１３０番地１２,,02,402,0392827,,,2021-12-16,清算の結了等,,,2015-10-05,1,,,,,ナカキチコウムテン,0
259,1440002005968,登記記録の閉鎖等,0,2021-12-22,2021-12-20,有限会社トータル機工,,有限会社,北海道,函館市,日吉町１丁目７番１０号,,01,202,0410841,,,2021-12-20,清算の結了等,,,2015-10-05,1,,,,,トータルキコウ,0
268,1470005000617,登記記録の閉鎖等,0,2021-12-22,2021-12-21,医療法人社団ふじさわ医院,,その他の設立登記法人,香川県,高松市,上福岡町２０４７番地１３,,37,201,7600077,,,2021-12-21,清算の結了等,,,2015-10-05,1,,,,,フジサワイイン,0
280,2010001001795,登記記録の閉鎖等,0,2021-12-22,2021-12-17,株式会社鍛冶商,,株式会社,東京都,千代田区,岩本町２丁目７番６号ＳＡＧＡＭＩビル二階,,13,101,1010032,,,2021-12-17,清算の結了等,,,2015-10-05,1,,,,,カジショウ,0
292,2010002045668,登記記録の閉鎖等,0,2021-12-22,2021-12-17,有限会社紫香楽インベストメント,,有限会社,滋賀県,甲賀市,信楽町長野１５３２番地２,,25,209,5291851,,,2021-12-17,合併による解散等,3140001077104,令和３年１２月２日兵庫県加東市新定字流尾２０６３番３株式会社東条の森（3140001077104）に合併し解散,2015-10-05,1,,,,,,0
299,2010401046977,登記記録の閉鎖等,0,2021-12-22,2021-12-15,株式会社ミュージックバンク,,株式会社,東京都,港区,六本木２丁目２番５号,,13,103,1060032,,,2021-12-15,清算の結了等,,,2015-10-05,1,,,,,,0
300,2010401071001,登記記録の閉鎖等,0,2021-12-22,2021-12-15,株式会社イニジオ,,株式会社,東京都,港区,赤坂３丁目９番１号,,13,103,1070052,,,2021-12-15,清算の結了等,,,2015-10-05,1,,,,,,0
332,2011501018684,登記記録の閉鎖等,0,2021-12-22,2021-11-29,義株式会社,,株式会社,東京都,北区,王子本町２丁目１番７－７０３号,,13,117,1140022,,,2021-11-29,清算の結了等,,,2015-10-05,1,,,,,ギ,0
339,2011803003995,登記記録の閉鎖等,0,2021-12-22,2021-12-20,江洋トレーディング合同会社,,合同会社,東京都,葛飾区,新宿２丁目９番１５－５０１号メゾンドリバージュ,,13,122,1250051,,,2021-12-20,清算の結了等,,,2020-02-05,1,,,,,コウヨウトレーディング,0
348,2013202004336,登記記録の閉鎖等,0,2021-12-22,2021-12-09,有限会社デビュ,,有限会社,東京都,目黒区,緑が丘２丁目１６番１９号,,13,110,1520034,,,2021-12-09,清算の結了等,,,2015-10-05,1,,,,,デビュ,0
351,2020001001737,登記記録の閉鎖等,0,2021-12-22,2021-12-17,ヨコハマ・エム・アンド・エム・トレーディング株式会社,,株式会社,神奈川県,横浜市瀬谷区,三ツ境１１１番地７パークヒルズ三ツ境Ｂ４０２,,14,114,2460022,,,2021-12-17,清算の結了等,,,2015-10-05,1,,,,,ヨコハマエムアンドエムトレーディング,0
353,2020001078503,登記記録の閉鎖等,0,2021-12-22,2021-12-20,株式会社ソレイユ,,株式会社,神奈川県,川崎市多摩区,菅仙谷２丁目１１番４号,,14,135,2140006,,,2021-12-20,清算の結了等,,,2015-10-05,1,,,,,ソレイユ,0
360,2020002070062,登記記録の閉鎖等,0,2021-12-22,2021-12-17,有限会社ピュアカンパニー,,有限会社,神奈川県,横浜市緑区,霧が丘２丁目１４番地１１ヴィバーチェ霧が丘５０５号,,14,113,2260016,,,2021-12-17,清算の結了等,,,2015-10-05,1,,,,,ピュアカンパニー,0
363,2021001006437,登記記録の閉鎖等,0,2021-12-22,2021-12-21,西原紙業株式会社,,株式会社,神奈川県,高座郡寒川町,田端２０５０番地１,,14,321,2530114,,,2021-12-21,清算の結了等,,,2015-10-05,1,,,,,ニシハラシギョウ,0
367,2021002023464,登記記録の閉鎖等,0,2021-12-22,2021-12-17,有限会社葉留日野,,有限会社,神奈川県,相模原市緑区,大山町９番１６号,,14,151,2520146,,,2021-12-17,清算の結了等,,,2015-10-05,1,,,,,ハルヒノ,0
379,2030003013275,登記記録の閉鎖等,0,2021-12-22,2021-12-21,ＡＳコンシェルジュ合同会社,,合同会社,埼玉県,新座市,石神５丁目１番３１号,,11,230,3520033,,,2021-12-21,清算の結了等,,,2019-03-27,1,,,,,エーエスコンシェルジュ,0
386,2040001068543,登記記録の閉鎖等,0,2021-12-22,2021-12-16,株式会社幸健,,株式会社,千葉県,柏市,しいの木台５丁目３０番地１,,12,217,2770945,,,2021-12-16,清算の結了等,,,2015-10-05,1,,,,,コウケン,0
387,2040002025353,登記記録の閉鎖等,0,2021-12-22,2021-12-16,有限会社松尾電気工業,,有限会社,千葉県,船橋市,大穴南２丁目１６番３０号,,12,204,2740067,,,2021-12-16,清算の結了等,,,2015-10-05,1,,,,,マツオデンキコウギョウ,0
393,2050001015461,登記記録の閉鎖等,0,2021-12-22,2021-12-16,株式会社オグラ測量設計,,株式会社,茨城県,つくば市,小田３１７３番地,,08,220,3004223,,,2021-12-16,清算の結了等,,,2015-10-05,1,,,,,オグラソクリョウセッケイ,0
395,2060001009157,登記記録の閉鎖等,0,2021-12-22,2021-12-16,株式会社トノスホールディングス,,株式会社,栃木県,宇都宮市,松が峰２丁目６番３号ヴィラホーエー２０９号,,09,201,3200807,,,2021-12-16,清算の結了等,,,2015-10-05,1,,,,,トノスホールディングス,0
402,2080102019284,登記記録の閉鎖等,0,2021-12-22,2021-12-16,有限会社アンドー,,有限会社,静岡県,伊東市,猪戸１丁目１番１４号,,22,208,4140004,,,2021-12-16,清算の結了等,,,2015-10-05,1,,,,,アンドー,0
403,2080401010720,登記記録の閉鎖等,0,2021-12-22,2021-12-15,株式会社マルニ黒柳酒店,,株式会社,静岡県,浜松市北区,三ヶ日町都筑２２１２番地の１,,22,135,4311402,,,2021-12-15,清算の結了等,,,2015-10-05,1,,,,,マルニクロヤナギサケテン,0
414,2120001102203,登記記録の閉鎖等,0,2021-12-22,2021-12-14,テクノティーアンドエイチ株式会社,,株式会社,大阪府,大阪市大正区,南恩加島５丁目７番９－２０１号,,27,108,5510021,,,2021-12-14,清算の結了等,,,2015-10-05,1,,,,,テクノティーアンドエイチ,0
426,2120102004158,登記記録の閉鎖等,0,2021-12-22,2021-12-15,有限会社フヂタ薬局,,有限会社,大阪府,堺市西区,浜寺石津町中４丁１０番２１号,,27,144,5928334,,,2021-12-15,清算の結了等,,,2015-10-05,1,,,,,フヂタヤッキョク,0
437,2130002017944,登記記録の閉鎖等,0,2021-12-22,2021-12-17,近畿住研有限会社,,有限会社,京都府,京都市右京区,太秦蜂岡町１８番地,,26,108,6168162,,,2021-12-17,清算の結了等,,,2015-10-05,1,,,,,キンキジュウケン,0
452,2180002055683,登記記録の閉鎖等,0,2021-12-22,2021-12-17,ＴＥＮＯＮ株式会社,,株式会社,愛知県,名古屋市中区,新栄２丁目４番５号東和パークビル西館４０２,,23,106,4600007,,,2021-12-17,清算の結了等,,,2015-10-05,1,,,,,,0
462,2230001008463,登記記録の閉鎖等,0,2021-12-22,2021-12-17,株式会社栄和モータース,,株式会社,富山県,南砺市,松原１２９４番地の２,,16,210,9391518,,,2021-12-17,清算の結了等,,,2015-10-05,1,,,,,エイワモータース,0
468,2250002008964,登記記録の閉鎖等,0,2021-12-22,2021-12-17,有限会社幸隆,,有限会社,山口県,下関市,長府中浜町８番２５号,,35,201,7520975,,,2021-12-17,清算の結了等,,,2015-10-05,1,,,,,コウリュウ,0
474,2290001049428,登記記録の閉鎖等,0,2021-12-22,2021-12-14,株式会社ハンドメーク,,株式会社,福岡県,久留米市,東合川５丁目１番３号,,40,203,8390809,,,2021-12-14,清算の結了等,,,2017-01-18,1,,,,,,0
481,2300005003783,登記記録の閉鎖等,0,2021-12-22,2021-12-16,慈眼寺,,その他の設立登記法人,佐賀県,嬉野市,塩田町大字久間甲４２６７番地,,41,209,8491401,,,2021-12-16,清算の結了等,,,2015-10-05,1,,,,,ジゲンジ,0
493,2380002015031,登記記録の閉鎖等,0,2021-12-22,2021-12-16,有限会社先崎製材所,,有限会社,福島県,田村郡小野町,大字小野新町字中通９０番地,,07,522,9633401,,,2021-12-16,清算の結了等,,,2015-10-05,1,,,,,,0
529,3010101003699,登記記録の閉鎖等,0,2021-12-22,2021-12-16,株式会社松屋,,株式会社,東京都,八王子市,中野上町３丁目５番１０号,,13,201,1920041,,,2021-12-16,清算の結了等,,,2015-10-05,1,,,,,マツヤ,0
549,3011001114041,登記記録の閉鎖等,0,2021-12-22,2021-12-09,株式会社Ｎｅｘｔ－Ｃｌａｎ,,株式会社,東京都,渋谷区,幡ヶ谷２丁目６番６号,,13,113,1510072,,,2021-12-09,清算の結了等,,,2016-12-14,1,,,,,ネクストクラン,0
567,3011201015205,登記記録の閉鎖等,0,2021-12-22,2021-12-17,株式会社中嶋デザイン事務所,,株式会社,東京都,中野区,若宮３丁目２１番３号,,13,114,1650033,,,2021-12-17,清算の結了等,,,2015-10-05,1,,,,,ナカジマデザインジムショ,0
573,3011601020457,登記記録の閉鎖等,0,2021-12-22,2021-12-20,株式会社エルビーツー,,株式会社,東京都,練馬区,桜台１丁目８番２号ニュー桜台ビル１階Ｆ号,,13,120,1760002,,,2021-12-20,清算の結了等,,,2015-11-06,1,,,,,,0
578,3011803003276,登記記録の閉鎖等,0,2021-12-22,2021-12-21,ａｍａｔｅｒｒａ合同会社,,合同会社,東京都,葛飾区,柴又４丁目２１－１２,,13,122,1250052,,,2021-12-21,清算の結了等,,,2018-04-24,1,,,,,アマテラ,0
595,3020002081744,登記記録の閉鎖等,0,2021-12-22,2021-12-20,有限会社飄現舎,,有限会社,神奈川県,川崎市幸区,下平間１４３番地グレース新川崎４０４,,14,132,2120053,,,2021-12-20,清算の結了等,,,2015-10-05,1,,,,,ヒョウゲンシャ,0
597,3021001046085,登記記録の閉鎖等,0,2021-12-22,2021-12-20,株式会社コネクトウィズ,,株式会社,神奈川県,藤沢市,鵠沼橘１丁目１番２号Ｆ．Ｉ．Ｃ鵠沼ビル３Ｆ,00012679,14,205,2510024,,,2021-12-20,清算の結了等,,,2015-10-05,1,,,,,コネクトウィズ,0
606,3030001029248,登記記録の閉鎖等,0,2021-12-22,2021-12-15,株式会社ワイズプランニング,,株式会社,埼玉県,所沢市,向陽町２０７８番地の１（８１３号）,,11,208,3591103,,,2021-12-15,清算の結了等,,,2015-10-05,1,,,,,ワイズプランニング,0
619,3030002079168,登記記録の閉鎖等,0,2021-12-22,2021-12-20,有限会社ユニオン設計,,有限会社,埼玉県,入間郡三芳町,大字北永井７８６番地２６,,11,324,3540044,,,2021-12-20,清算の結了等,,,2015-10-05,1,,,,,ユニオンセッケイ,0
620,3030002107845,登記記録の閉鎖等,0,2021-12-22,2021-12-20,有限会社矢島機械工業,,有限会社,埼玉県,川口市,飯塚４丁目１１番２４号,,11,203,3320023,,,2021-12-20,清算の結了等,,,2015-10-05,1,,,,,ヤジマキカイコウギョウ,0
626,3040001001115,登記記録の閉鎖等,0,2021-12-22,2021-12-16,オオクラ産業株式会社,,株式会社,千葉県,千葉市中央区,長洲１丁目１番１０号,,12,101,2600854,,,2021-12-16,清算の結了等,,,2015-10-05,1,,,,,オオクラサンギョウ,0
644,3070001003827,登記記録の閉鎖等,0,2021-12-22,2021-12-20,ハイブリッドコンサルティング株式会社,,株式会社,群馬県,前橋市,富士見町石井７３８番地２０,,10,201,3710105,,,2021-12-20,清算の結了等,,,2015-10-05,1,,,,,ハイブリッドコンサルティング,0
652,3070005007907,登記記録の閉鎖等,0,2021-12-22,2021-12-17,特定非営利活動法人相会縁結び協会,,その他の設立登記法人,群馬県,太田市,東長岡町１４９０番地,,10,205,3730812,,,2021-12-17,清算の結了等,,,2015-10-05,1,,,,,アイアイエンムスビキョウカイ,0
653,3080102014648,登記記録の閉鎖等,0,2021-12-22,2021-12-16,日東金属有限会社,,有限会社,静岡県,富士市,横割５丁目５番２号,,22,210,4160944,,,2021-12-16,清算の結了等,,,2015-10-05,1,,,,,ニットウキンゾク,0
656,3080402017061,登記記録の閉鎖等,0,2021-12-22,2021-12-16,多治見メナード販売有限会社,,有限会社,静岡県,浜松市東区,西塚町３０９番地の１２,00080163,22,132,4350044,,,2021-12-16,清算の結了等,,,2015-10-05,1,,,,,タジミメナードハンバイ,0
663,3120001079168,登記記録の閉鎖等,0,2021-12-22,2021-12-15,甲東株式会社,,株式会社,大阪府,大阪市中央区,難波１丁目９番１４号,,27,128,5420076,,,2021-12-15,清算の結了等,,,2015-10-05,1,,,,,コウトウ,0
667,3120001103448,登記記録の閉鎖等,0,2021-12-22,2021-12-21,木原医科工業株式会社,,株式会社,奈良県,生駒市,光陽台１２２番地,,29,209,6300247,,,2021-12-21,清算の結了等,,,2015-10-05,1,,,,,キハライカコウギョウ,0
699,3140001111325,登記記録の閉鎖等,0,2021-12-22,2021-12-17,株式会社タケダグローバルサービス,,株式会社,兵庫県,養父市,船谷１５１番地,,28,222,6670135,,,2021-12-17,清算の結了等,,,2018-09-28,1,,,,,タケダグローバルサービス,0
722,3180302015766,登記記録の閉鎖等,0,2021-12-22,2021-12-17,有限会社平野ベンヂン,,有限会社,愛知県,蒲郡市,三谷町九舗５４番地,,23,214,4430021,,,2021-12-17,清算の結了等,,,2015-10-05,1,,,,,ヒラノベンヂン,0
727,3190002004671,登記記録の閉鎖等,0,2021-12-22,2021-12-21,有限会社酒井農機店,,有限会社,三重県,亀山市,天神２丁目１番３号,,24,210,5190142,,,2021-12-21,清算の結了等,,,2015-10-05,1,,,,,サカイノウキテン,0
728,3190002022194,登記記録の閉鎖等,0,2021-12-22,2021-12-21,有限会社三重大和マネキン紹介所,,有限会社,三重県,四日市市,ときわ２丁目９番２４号,,24,202,5100834,,,2021-12-21,清算の結了等,,,2015-10-05,1,,,,,ミエダイワマネキンショウカイショ,0
748,3240002014087,登記記録の閉鎖等,0,2021-12-22,2021-12-17,有限会社サコダコーポレーション,,有限会社,広島県,広島市中区,榎町１番２３－５０２号,,34,101,7300851,,,2021-12-17,清算の結了等,,,2015-10-05,1,,,,,サコダコーポレーション,0
755,3250002005077,登記記録の閉鎖等,0,2021-12-22,2021-12-16,有限会社高橋ボーリング,,有限会社,山口県,宇部市,上町１丁目４番１０号,,35,202,7550051,,,2021-12-16,清算の結了等,,,2015-10-05,1,,,,,タカハシボーリング,0
759,3270002007575,登記記録の閉鎖等,0,2021-12-22,2021-12-20,有限会社足立建設,,有限会社,鳥取県,境港市,上道町７７番地３,,31,204,6840033,,,2021-12-20,清算の結了等,,,2015-10-05,1,,,,,アダチケンセツ,0
760,3280002007608,登記記録の閉鎖等,0,2021-12-22,2021-12-20,有限会社さゝ井屋,,有限会社,島根県,大田市,大田町大田ハ１０４番地,,32,205,6940064,,,2021-12-20,清算の結了等,,,2015-10-05,1,,,,,ササイヤ,0
761,3290001051845,登記記録の閉鎖等,0,2021-12-22,2021-12-13,株式会社平田鈑金塗装工場,,株式会社,福岡県,久留米市,藤光町７６９番地５,,40,203,8300054,,,2021-12-13,清算の結了等,,,2015-10-05,1,,,,,ヒラタバンキントソウコウジョウ,0
774,3310005001868,登記記録の閉鎖等,0,2021-12-22,2021-12-21,医療法人永石眼科医院,,その他の設立登記法人,長崎県,西彼杵郡時津町,浦郷４４３番地５,,42,308,8512105,,,2021-12-21,清算の結了等,,,2015-10-05,1,,,,,ナガイシガンカイイン,0
782,3350001001579,登記記録の閉鎖等,0,2021-12-22,2021-12-15,株式会社本田工業,,株式会社,宮崎県,宮崎市,下北方町俣萩６９２番地１,,45,201,8800035,,,2021-12-15,清算の結了等,,,2021-05-17,1,,,,,ホンダコウギョウ,0
785,3350001012246,登記記録の閉鎖等,0,2021-12-22,2021-12-14,株式会社グループホーム入田,,株式会社,宮崎県,東諸県郡綾町,大字入野３２６３番地２,,45,383,8801301,,,2021-12-14,清算の結了等,,,2015-10-05,1,,,,,グループホームニュウタ,0
792,3370202004486,登記記録の閉鎖等,0,2021-12-22,2021-12-17,有限会社はぎのや,,有限会社,宮城県,栗原市,築館薬師４丁目８番５号,,04,213,9872252,,,2021-12-17,清算の結了等,,,2015-10-05,1,,,,,ハギノヤ,0
803,3420001007412,登記記録の閉鎖等,0,2021-12-22,2021-12-17,株式会社イーストワーク,,株式会社,青森県,八戸市,大字大久保字大塚７１番地１,,02,203,0310833,,,2021-12-17,清算の結了等,,,2015-10-05,1,,,,,イーストワーク,0
806,3430001042730,登記記録の閉鎖等,0,2021-12-22,2021-12-21,株式会社越田商店,,株式会社,北海道,石狩郡当別町,園生５４番地,,01,303,0610227,,,2021-12-21,清算の結了等,,,2015-10-05,1,,,,,コシダショウテン,0
822,3460001001246,登記記録の閉鎖等,0,2021-12-22,2021-12-21,中井工業株式会社,,株式会社,北海道,釧路市,新富町１０番２１号,,01,206,0850004,,,2021-12-21,清算の結了等,,,2015-10-05,1,,,,,ナカイコウギョウ,0
839,4010001155185,登記記録の閉鎖等,0,2021-12-22,2021-12-16,株式会社和,,株式会社,東京都,文京区,小日向２丁目１９番１６－３０４号,,13,105,1120006,,,2021-12-16,清算の結了等,,,2015-10-05,1,,,,,カズ,0
841,4010001191619,登記記録の閉鎖等,0,2021-12-22,2021-12-08,株式会社スリーズ,,株式会社,東京都,目黒区,下目黒２丁目２３番１８号目黒山手通ビル８階,,13,110,1530064,,,2021-12-08,合併による解散等,7011001128475,令和３年１２月１日東京都目黒区下目黒二丁目２３番１８号目黒山手通ビル８階株式会社Ｓｔｕｄｉｏ　ｂｅｔａ（7011001128475）に合併し解散,2018-05-15,1,,,,,スリーズ,0
849,4010102007302,登記記録の閉鎖等,0,2021-12-22,2021-12-20,吉音精穀有限会社,,有限会社,東京都,八王子市,北野町１９１番地,,13,201,1920906,,,2021-12-20,清算の結了等,,,2015-10-05,1,,,,,ヨシオトセイコク,0
850,4010401022514,登記記録の閉鎖等,0,2021-12-22,2021-12-15,日本技研コンサルタント株式会社,,株式会社,東京都,港区,赤坂６丁目１番２０号,,13,103,1070052,,,2021-12-15,清算の結了等,,,2015-10-05,1,,,,,ニホンギケンコンサルタント,0
861,4010403023898,登記記録の閉鎖等,0,2021-12-22,2021-12-14,合同会社エンジョイギバー,,合同会社,東京都,港区,赤坂３丁目１１番１５号・ＶＯＲＴ赤坂見附４階,,13,103,1070052,,,2021-12-14,清算の結了等,,,2020-10-15,1,,,,,エンジョイギバー,0
864,4010405017741,登記記録の閉鎖等,0,2021-12-22,2021-12-17,特定非営利活動法人スマートアカウンティング推進機構,,その他の設立登記法人,東京都,港区,芝４丁目１６番１－７１４号,,13,103,1080014,,,2021-12-17,清算の結了等,,,2019-06-04,1,,,,,スマートアカウンティングスイシンキコウ,0
868,4010501008306,登記記録の閉鎖等,0,2021-12-22,2021-12-21,株式会社ジーウッドコーポレーション,,株式会社,東京都,台東区,柳橋２丁目２２番２号,,13,106,1110052,,,2021-12-21,清算の結了等,,,2015-10-05,1,,,,,,0
873,4010901044157,登記記録の閉鎖等,0,2021-12-22,2021-12-15,株式会社白金メディカルサポート,,株式会社,東京都,港区,南青山５丁目１７番２号,,13,103,1070062,,,2021-12-15,清算の結了等,,,2019-05-15,1,,,,,シロカネメディカルサポート,0
874,4010902005942,登記記録の閉鎖等,0,2021-12-22,2021-12-20,有限会社近藤企画,,有限会社,岐阜県,郡上市,八幡町市島４９番地７,,21,219,5014202,,,2021-12-20,清算の結了等,,,2015-10-05,1,,,,,コンドウキカク,0
877,4011001027837,登記記録の閉鎖等,0,2021-12-22,2021-12-10,株式会社ティーアール・フーズ,,株式会社,東京都,渋谷区,桜丘町２４番４号,,13,113,1500031,,,2021-12-10,清算の結了等,,,2015-10-05,1,,,,,ティーアールフーズ,0
895,4011801006478,登記記録の閉鎖等,0,2021-12-22,2021-12-21,株式会社エル・アイ・エス,,株式会社,東京都,足立区,柳原２丁目５０番７号,,13,121,1200022,,,2021-12-21,清算の結了等,,,2015-10-05,1,,,,,エルアイエス,0
902,4011802023571,登記記録の閉鎖等,0,2021-12-22,2021-12-21,有限会社藍舎,,有限会社,東京都,葛飾区,堀切１丁目２４番１７号,,13,122,1240006,,,2021-12-21,清算の結了等,,,2015-10-05,1,,,,,アイシャ,0
912,4013202000762,登記記録の閉鎖等,0,2021-12-22,2021-12-07,有限会社市来麻袋商店,,有限会社,東京都,目黒区,自由が丘３丁目９番１０号,,13,110,1520035,,,2021-12-07,清算の結了等,,,2015-10-05,1,,,,,イチキマタイショウテン,0
939,4030002114345,登記記録の閉鎖等,0,2021-12-22,2021-12-17,有限会社武蔵野いけばなバレーセンター,,有限会社,埼玉県,熊谷市,筑波２丁目２８番地,,11,202,3600037,,,2021-12-17,清算の結了等,,,2015-10-05,1,,,,,ムサシノイケバナバレーセンター,0
956,4040002020344,登記記録の閉鎖等,0,2021-12-22,2021-12-15,有限会社あらゐ洋装店,,有限会社,千葉県,船橋市,本町３丁目９番１号,,12,204,2730005,,,2021-12-15,清算の結了等,,,2015-10-05,1,,,,,アライヨウソウテン,0
967,4060002022867,登記記録の閉鎖等,0,2021-12-22,2021-12-17,旅館山本荘有限会社,,有限会社,栃木県,那須塩原市,板室８７４番地,,09,213,3250111,,,2021-12-17,清算の結了等,,,2015-10-05,1,,,,,リョカンヤマモトソウ,0
970,4070001010426,登記記録の閉鎖等,0,2021-12-22,2021-12-17,イゲタ工業株式会社,,株式会社,群馬県,高崎市,新保町１６１４番地,,10,202,3700018,,,2021-12-17,清算の結了等,,,2015-10-05,1,,,,,イゲタコウギョウ,0
1028,4140001038880,登記記録の閉鎖等,0,2021-12-22,2021-12-17,株式会社川上産業,,株式会社,兵庫県,たつの市,御津町苅屋２５５番地の８,,28,229,6711321,,,2021-12-17,清算の結了等,,,2015-10-05,1,,,,,カワカミサンギョウ,0
1034,4140001113634,登記記録の閉鎖等,0,2021-12-22,2021-12-17,Ｋ－ＷＥＳＴ株式会社,,株式会社,兵庫県,神戸市灘区,岩屋北町１丁目５－６臼口ビル２０１,,28,102,6570846,,,2021-12-17,清算の結了等,,,2019-05-13,1,,,,,ケーウエスト,0
1042,4150001019277,登記記録の閉鎖等,0,2021-12-22,2021-12-21,株式会社ナオヨシコーポレーション,,株式会社,奈良県,生駒市,元町１丁目８番９号,,29,209,6300257,,,2021-12-21,清算の結了等,,,2015-10-05,1,,,,,ナオヨシコーポレーション,0
1045,4180001000399,登記記録の閉鎖等,0,2021-12-22,2021-12-15,株式会社小島建商,,株式会社,愛知県,名古屋市守山区,森孝２丁目８２０番地,,23,113,4630035,,,2021-12-15,清算の結了等,,,2015-10-05,1,,,,,コジマケンショウ,0
1051,4180001037433,登記記録の閉鎖等,0,2021-12-22,2021-12-10,大栄住宅株式会社,,株式会社,愛知県,名古屋市中区,栄２丁目９番５号,,23,106,4600008,,,2021-12-10,清算の結了等,,,2015-10-05,1,,,,,,0
1058,4180002068683,登記記録の閉鎖等,0,2021-12-22,2021-12-16,有限会社エムエム総合保険サービス,,有限会社,愛知県,小牧市,大字大草字年上坂６１１９番地の１２,,23,219,4850802,,,2021-12-16,清算の結了等,,,2015-10-05,1,,,,,エムエムソウゴウホケンサービス,0
1061,4180301017746,登記記録の閉鎖等,0,2021-12-22,2021-12-17,株式会社山海,,株式会社,愛知県,刈谷市,桜町１丁目７番地,,23,210,4480028,,,2021-12-17,清算の結了等,,,2015-10-05,1,,,,,サンカイ,0
1062,4180301029733,登記記録の閉鎖等,0,2021-12-22,2021-12-17,銀シャリ銀ブル株式会社,,株式会社,愛知県,碧南市,宮後町４丁目１８番地１,,23,209,4470856,,,2021-12-17,清算の結了等,,,2016-11-01,1,,,,,ギンシャリギンブル,0
1066,4190002004885,登記記録の閉鎖等,0,2021-12-22,2021-12-20,丸五木材有限会社,,有限会社,三重県,亀山市,関町新所７２２番地の１,,24,210,5191111,,,2021-12-20,清算の結了等,,,2015-10-05,1,,,,,マルゴモクザイ,0
1083,4290802003069,登記記録の閉鎖等,0,2021-12-22,2021-12-21,有限会社秀和ハウス,,有限会社,福岡県,北九州市小倉南区,大字山本３７８番地の１,,40,107,8030264,,,2021-12-21,清算の結了等,,,2015-10-05,1,,,,,シュウワハウス,0
1087,4310002002397,登記記録の閉鎖等,0,2021-12-22,2021-12-21,有限会社住工,,有限会社,長崎県,長崎市,三原１丁目１７番１号,,42,201,8528123,,,2021-12-21,清算の結了等,,,2015-10-05,1,,,,,ジュウコウ,0
1088,4310002018988,登記記録の閉鎖等,0,2021-12-22,2021-12-20,有限会社サロンド久美,,有限会社,長崎県,壱岐市,郷ノ浦町本村触７０７番地６,,42,210,8115133,,,2021-12-20,清算の結了等,,,2015-10-05,1,,,,,サロンドクミ,0
1091,4330002030850,登記記録の閉鎖等,0,2021-12-22,2021-12-16,有限会社市房林業,,有限会社,熊本県,球磨郡湯前町,２５６３番地の１,,43,506,8680600,,,2021-12-16,清算の結了等,,,2015-10-05,1,,,,,イチフサリンギョウ,0
1092,4340005008109,登記記録の閉鎖等,0,2021-12-22,2021-12-21,一般社団法人にしうら児童クラブ,,その他の設立登記法人,鹿児島県,姶良市,蒲生町西浦８１５番地,,46,225,8995306,,,2021-12-21,清算の結了等,,,2015-10-05,1,,,,,ニシウラジドウクラブ,0
1097,4370001043437,登記記録の閉鎖等,0,2021-12-22,2021-12-16,ブレインイノベーション株式会社,,株式会社,宮城県,仙台市青葉区,荒巻字青葉六丁目６番４０号,,04,101,9800845,,,2021-12-16,清算の結了等,,,2018-08-17,1,,,,,ブレインイノベーション,0
1114,4470002004709,登記記録の閉鎖等,0,2021-12-22,2021-12-20,有限会社つるや食堂,,有限会社,香川県,高松市,郷東町５８７番地１７７,,37,201,7618031,,,2021-12-20,清算の結了等,,,2015-10-05,1,,,,,ツルヤショクドウ,0
1121,5010001159706,登記記録の閉鎖等,0,2021-12-22,2021-12-15,Ｃｒｏｓｓｉｎｇ　ｖｉａ　Ｊａｐａｎ株式会社,,株式会社,東京都,中央区,日本橋浜町２丁目１６番６号ハウスジェントウル３０２号室,,13,102,1030007,,,2021-12-15,清算の結了等,,,2015-10-05,1,,,,,クロッシングビアジャパン,0
1122,5010001165539,登記記録の閉鎖等,0,2021-12-22,2021-12-20,株式会社マスターズセーヌ,,株式会社,東京都,千代田区,丸の内２丁目２番３号,,13,101,1000005,,,2021-12-20,清算の結了等,,,2015-10-05,1,,,,,マスターズセーヌ,0
1149,5010405015141,登記記録の閉鎖等,0,2021-12-22,2021-12-14,一般社団法人ＳＳ,,その他の設立登記法人,東京都,港区,虎ノ門２丁目１０番１号ストラテジック・パートナーズ株式会社内,,13,103,1050001,,,2021-12-14,清算の結了等,,,2016-09-26,1,,,,,エスエス,0
1160,5010703003590,登記記録の閉鎖等,0,2021-12-22,2021-12-20,合同会社神田パートナーズ２号,,合同会社,東京都,千代田区,神田猿楽町２丁目６番７号,,13,101,1010064,,,2021-12-20,清算の結了等,,,2017-05-09,1,,,,,カンダパートナーズニゴウ,0
1174,5011301006110,登記記録の閉鎖等,0,2021-12-22,2021-12-20,株式会社フォレストイン,,株式会社,東京都,杉並区,西荻北１丁目８番２４－３０３号,,13,115,1670042,,,2021-12-20,清算の結了等,,,2015-10-05,1,,,,,フォレストイン,0
1186,5011802000958,登記記録の閉鎖等,0,2021-12-22,2021-12-21,有限会社植村プラスチックス,,有限会社,東京都,葛飾区,立石８丁目４６番１９号,,13,122,1240012,,,2021-12-21,清算の結了等,,,2015-10-05,1,,,,,ウエムラプラスチックス,0
1188,5012401003872,登記記録の閉鎖等,0,2021-12-22,2021-12-17,株式会社東栄保険センター,,株式会社,東京都,国立市,富士見台３丁目８番１３号富士見台ストア内,,13,215,1860003,,,2021-12-17,清算の結了等,,,2015-10-05,1,,,,,トウエイホケンセンター,0
1201,5020001092823,登記記録の閉鎖等,0,2021-12-22,2021-12-20,株式会社アルーザ,,株式会社,神奈川県,横浜市金沢区,富岡西７丁目２０番２４号,,14,108,2360052,,,2021-12-20,清算の結了等,,,2015-10-05,1,,,,,アルーザ,0
1203,5020001125723,登記記録の閉鎖等,0,2021-12-22,2021-12-17,シンコースポーツ神奈川株式会社,,株式会社,神奈川県,川崎市麻生区,万福寺１丁目２番３号,,14,137,2150004,,,2021-12-17,清算の結了等,,,2018-04-09,1,,,,,シンコースポーツカナガワ,0
1205,5020002060358,登記記録の閉鎖等,0,2021-12-22,2021-12-07,Ｈａｎｎａ　Ｃａｐｉｔａｌ　Ｈｏｌｄｉｎｇｓ有限会社,,有限会社,東京都,渋谷区,鉢山町１０番１号,,13,113,1500035,,,2021-12-07,清算の結了等,,,2015-10-05,1,,,,,ハナキャピタルホールディングス,0
1222,5030001138550,登記記録の閉鎖等,0,2021-12-22,2021-12-17,株式会社味菜さいたま,,株式会社,埼玉県,越谷市,南越谷４丁目７番地７－２０２号,,11,222,3430845,,,2021-12-17,合併による解散等,6040001101985,令和３年１２月１日千葉県市川市市川二丁目２８番１３号アイ・シービル１階株式会社味菜（6040001101985）に合併し解散,2020-10-07,1,,,,,アジサイサイタマ,0
1227,5030002114807,登記記録の閉鎖等,0,2021-12-22,2021-12-20,有限会社新国設計,,有限会社,埼玉県,熊谷市,樋春２０７０番地５６,00017963,11,202,3600112,,,2021-12-20,清算の結了等,,,2015-10-05,1,,,,,ニイクニセッケイ,0
1241,5050001023461,登記記録の閉鎖等,0,2021-12-22,2021-12-16,株式会社中島工業所,,株式会社,茨城県,日立市,桜川町１丁目４番１２号,,08,202,3160002,,,2021-12-16,清算の結了等,,,2015-10-05,1,,,,,ナカジマコウギョウショ,0
1248,5060001026389,登記記録の閉鎖等,0,2021-12-22,2021-12-17,株式会社康永,,株式会社,東京都,大田区,東嶺町４１番２４号,,13,111,1450074,,,2021-12-17,清算の結了等,,,2015-10-05,1,,,,,コウエイ,0
1258,5070005001817,登記記録の閉鎖等,0,2021-12-22,2021-12-21,事業協同組合群馬県ＧＢＸ工業会,,その他の設立登記法人,群馬県,前橋市,小屋原町１０４４番地の６,,10,201,3792121,,,2021-12-21,清算の結了等,,,2015-10-05,1,,,,,グンマケンジービーエックスコウギョウカイ,0
1264,5080101014465,登記記録の閉鎖等,0,2021-12-22,2021-12-15,株式会社下田海南荘,,株式会社,静岡県,下田市,柿崎３番８号,,22,219,4150013,,,2021-12-15,清算の結了等,,,2015-10-05,1,,,,,シモダカイナンソウ,0
1289,5120001090370,登記記録の閉鎖等,0,2021-12-22,2021-12-20,三田産業株式会社,,株式会社,大阪府,大阪市中央区,島之内１丁目４番２８号,,27,128,5420082,,,2021-12-20,清算の結了等,,,2015-10-05,1,,,,,ミタサンギョウ,0
1293,5120001157558,登記記録の閉鎖等,0,2021-12-22,2021-12-14,昭和開発株式会社,,株式会社,大阪府,門真市,末広町１０番４号,,27,223,5710030,,,2021-12-14,清算の結了等,,,2015-10-05,1,,,,,,0
1297,5120001177110,登記記録の閉鎖等,0,2021-12-22,2021-12-20,株式会社延田プライム,,株式会社,大阪府,大阪市中央区,心斎橋筋２丁目１番６号,,27,128,5420085,,,2021-12-20,合併による解散等,3122001019698,令和３年１２月２０日大阪市中央区心斎橋筋二丁目１番６号株式会社延田エンタープライズ（3122001019698）に合併し解散,2015-10-05,1,,,,,ノブタプライム,0
1305,5120002005328,登記記録の閉鎖等,0,2021-12-22,2021-12-10,有限会社オカド商工,,有限会社,大阪府,大阪市東住吉区,田辺３丁目２２番１７号,,27,121,5460031,,,2021-12-10,清算の結了等,,,2015-10-05,1,,,,,オカドショウコウ,0
1318,5120905000243,登記記録の閉鎖等,0,2021-12-22,2021-12-21,医療法人井下外科クリニック,,その他の設立登記法人,大阪府,茨木市,新郡山２丁目２番３３号,,27,211,5670074,,,2021-12-21,清算の結了等,,,2015-10-05,1,,,,,イノシタゲカクリニック,0
1340,5170001000300,登記記録の閉鎖等,0,2021-12-22,2021-12-17,ウインナック株式会社,,株式会社,和歌山県,和歌山市,雑賀崎２０１７番地の３,,30,201,6410062,,,2021-12-17,合併による解散等,7170001003813,令和３年１２月１６日和歌山市西浜７８９番地の３アクロナイネン株式会社（7170001003813）に合併し解散,2015-10-05,1,,,,,ウインナック,0
1343,5180001100966,登記記録の閉鎖等,0,2021-12-22,2021-12-16,株式会社大雄サービス,,株式会社,愛知県,名古屋市北区,鳩岡町１丁目２番地,,23,103,4620025,,,2021-12-16,清算の結了等,,,2015-10-05,1,,,,,ダイユウサービス,0
1355,5180302005716,登記記録の閉鎖等,0,2021-12-22,2021-12-20,有限会社寿メカニック,,有限会社,愛知県,岡崎市,寿町１番地２,,23,202,4442116,,,2021-12-20,清算の結了等,,,2015-10-05,1,,,,,コトブキメカニック,0
1357,5190001015404,登記記録の閉鎖等,0,2021-12-22,2021-12-21,株式会社大洋リース,,株式会社,三重県,四日市市,三重３丁目９４番地,,24,202,5120912,,,2021-12-21,清算の結了等,,,2015-10-05,1,,,,,タイヨウリース,0
1364,5200005008402,登記記録の閉鎖等,0,2021-12-22,2021-12-20,医療法人松井小児内科医院,,その他の設立登記法人,岐阜県,土岐市,泉大島町２丁目１７番地,,21,212,5095136,,,2021-12-20,清算の結了等,,,2015-10-05,1,,,,,マツイショウニナイカイイン,0
1376,5260001019983,登記記録の閉鎖等,0,2021-12-22,2021-12-17,津山自動車興業株式会社,,株式会社,岡山県,津山市,瓜生原６３７番地の１,,33,203,7080844,,,2021-12-17,清算の結了等,,,2015-10-05,1,,,,,ツヤマジドウシャコウギョウ,0
1390,5290801016517,登記記録の閉鎖等,0,2021-12-22,2021-12-13,株式会社三和,,株式会社,福岡県,田川郡川崎町,大字田原３２２番地の１５,,40,605,8270004,,,2021-12-13,清算の結了等,,,2017-05-12,1,,,,,,0
1416,5380003004476,登記記録の閉鎖等,0,2021-12-22,2021-12-17,ユニゾンコンサルティング合同会社,,合同会社,福島県,郡山市,喜久田町字菖蒲池２１番地２６,,07,203,9630551,,,2021-12-17,清算の結了等,,,2019-06-06,1,,,,,ユニゾンコンサルティング,0
1434,5450002009394,登記記録の閉鎖等,0,2021-12-22,2021-12-21,有限会社はら塗装,,有限会社,北海道,富良野市,北の峰町４番２１号,,01,229,0760034,,,2021-12-21,清算の結了等,,,2015-10-05,1,,,,,ハラトソウ,0
1458,6010002013943,登記記録の閉鎖等,0,2021-12-22,2021-12-21,有限会社富士印刷所,,有限会社,東京都,千代田区,富士見２丁目３番５号,,13,101,1020071,,,2021-12-21,清算の結了等,,,2015-10-05,1,,,,,フジインサツジョ,0
1459,6010003027034,登記記録の閉鎖等,0,2021-12-22,2021-12-17,ＴＲＹレジデンス１合同会社,,合同会社,東京都,千代田区,丸の内３丁目１番１号東京共同会計事務所内,,13,101,1000005,,,2021-12-17,清算の結了等,,,2018-02-26,1,,,,,ティーアールワイレジデンスワン,0
1477,6010602021619,登記記録の閉鎖等,0,2021-12-22,2021-12-16,有限会社タケウチ,,有限会社,東京都,江東区,永代２丁目３６番９号,,13,108,1350034,,,2021-12-16,清算の結了等,,,2015-10-05,1,,,,,タケウチ,0
1490,6011002032339,登記記録の閉鎖等,0,2021-12-22,2021-12-06,有限会社Ｍｅｌｔｙ,,有限会社,東京都,渋谷区,神宮前１丁目１４番２９号,,13,113,1500001,,,2021-12-06,清算の結了等,,,2015-10-05,1,,,,,メルティ,0
1491,6011003008577,登記記録の閉鎖等,0,2021-12-22,2021-12-07,ワイズウッズ・ファイブ合同会社,,合同会社,東京都,渋谷区,代官山町２０番９号,,13,113,1500034,,,2021-12-07,清算の結了等,,,2018-03-09,1,,,,,ワイズウッズファイブ,0
1496,6011302007197,登記記録の閉鎖等,0,2021-12-22,2021-12-16,有限会社ハートピア,,有限会社,東京都,杉並区,成田東１丁目４３番２３号,,13,115,1660015,,,2021-12-16,清算の結了等,,,2015-10-05,1,,,,,,0
1498,6011602020825,登記記録の閉鎖等,0,2021-12-22,2021-12-20,有限会社アシスト,,有限会社,東京都,練馬区,大泉町１丁目４０番８号,,13,120,1780062,,,2021-12-20,清算の結了等,,,2015-10-05,1,,,,,アシスト,0
1499,6011702016186,登記記録の閉鎖等,0,2021-12-22,2021-12-20,有限会社ｍｋｃ,,有限会社,東京都,江戸川区,南葛西２丁目２４番１８号,00056803,13,123,1340085,,,2021-12-20,清算の結了等,,,2015-10-05,1,,,,,エムケーシー,0
1500,6011801009207,登記記録の閉鎖等,0,2021-12-22,2021-12-21,株式会社ソフィア・ソフト,,株式会社,東京都,足立区,綾瀬２丁目２４番地８号,,13,121,1200005,,,2021-12-21,清算の結了等,,,2015-10-05,1,,,,,ソフィアソフト,0
1506,6012803000756,登記記録の閉鎖等,0,2021-12-22,2021-12-17,合同会社ワンズリサーチ,,合同会社,東京都,立川市,柏町４丁目１９番地の１５,,13,202,1900004,,,2021-12-17,清算の結了等,,,2015-10-05,1,,,,,ワンズリサーチ,0
1508,6013202001057,登記記録の閉鎖等,0,2021-12-22,2021-12-07,栄咲商事有限会社,,有限会社,東京都,目黒区,鷹番１丁目１０番１０号,,13,110,1520004,,,2021-12-07,清算の結了等,,,2015-10-05,1,,,,,エザキショウジ,0
1522,6020002096178,登記記録の閉鎖等,0,2021-12-22,2021-12-20,有限会社大木商店,,有限会社,神奈川県,川崎市川崎区,日進町１６番地９,,14,131,2100024,,,2021-12-20,清算の結了等,,,2015-10-05,1,,,,,オオキショウテン,0
1547,6050002008650,登記記録の閉鎖等,0,2021-12-22,2021-12-16,有限会社足崎製作所,,有限会社,茨城県,ひたちなか市,大字足崎１５１２番地の９,,08,221,3120003,,,2021-12-16,清算の結了等,,,2015-10-05,1,,,,,タラザキセイサクショ,0
1549,6060002009185,登記記録の閉鎖等,0,2021-12-22,2021-12-17,山形通信有限会社,,有限会社,栃木県,宇都宮市,下戸祭１丁目１１番１７号,,09,201,3200055,,,2021-12-17,清算の結了等,,,2015-10-05,1,,,,,ヤマガタツウシン,0
1570,6120001227260,登記記録の閉鎖等,0,2021-12-22,2021-12-17,仲和貿易株式会社,,株式会社,大阪府,大阪市住吉区,我孫子東３丁目１４番３号ウノアビコ４０１号,,27,120,5580013,,,2021-12-17,清算の結了等,,,2020-02-18,1,,,,,ナカワボウエキ,0
1575,6120002066286,登記記録の閉鎖等,0,2021-12-22,2021-12-20,有限会社大商薬品,,有限会社,大阪府,大阪市旭区,高殿２丁目１５番８号,,27,117,5350031,,,2021-12-20,清算の結了等,,,2015-10-05,1,,,,,ダイショウヤクヒン,0
1583,6120901032140,登記記録の閉鎖等,0,2021-12-22,2021-12-10,テラフェスタ株式会社,,株式会社,大阪府,吹田市,江坂町１丁目１６番１７号,,27,205,5640063,,,2021-12-10,合併による解散等,1120901017609,令和３年１２月１０日大阪府吹田市江坂町一丁目１６番１７号株式会社ＳＮＫエンタテインメント（1120901017609）に合併し解散,2015-10-05,1,,,,,テラフェスタ,0
1584,6120901041257,登記記録の閉鎖等,0,2021-12-22,2021-12-20,株式会社Ａｎｆａｎｇ,,株式会社,京都府,乙訓郡大山崎町,字円明寺小字東ノ口２６番地３、３０５号,,26,303,6180091,,,2021-12-20,清算の結了等,,,2019-05-10,1,,,,,アンファング,0
1622,6180001100965,登記記録の閉鎖等,0,2021-12-22,2021-12-16,株式会社大雄,,株式会社,愛知県,名古屋市北区,鳩岡町１丁目２番地,,23,103,4620025,,,2021-12-16,清算の結了等,,,2015-10-05,1,,,,,ダイユウ,0
1626,6180002004496,登記記録の閉鎖等,0,2021-12-22,2021-12-17,有限会社スタジオマインド,,有限会社,愛知県,名古屋市千種区,池園町２丁目２番地,,23,101,4640818,,,2021-12-17,清算の結了等,,,2015-10-05,1,,,,,スタジオマインド,0
1627,6180002008547,登記記録の閉鎖等,0,2021-12-22,2021-12-17,有限会社西岡設計事務所,,有限会社,愛知県,名古屋市港区,小碓４丁目１１５番地２,,23,111,4550801,,,2021-12-17,清算の結了等,,,2015-10-05,1,,,,,,0
1630,6180002073896,登記記録の閉鎖等,0,2021-12-22,2021-12-16,有限会社虹の樹舎,,有限会社,愛知県,尾張旭市,三郷町栄１０番地クレスト三郷８Ｄ号室,,23,226,4880015,,,2021-12-16,清算の結了等,,,2015-10-05,1,,,,,ニジノキシャ,0
1645,6230001019085,登記記録の閉鎖等,0,2021-12-22,2021-12-15,池田工機株式会社,,株式会社,富山県,高岡市,戸出１６５０番地,,16,202,9330000,,,2021-12-15,清算の結了等,,,2021-11-11,1,,,,,,0
1648,6240001001661,登記記録の閉鎖等,0,2021-12-22,2021-12-17,株式会社オオサコプランニング,,株式会社,広島県,広島市安佐南区,長束６丁目４番２６－６号,,34,105,7310135,,,2021-12-17,清算の結了等,,,2015-10-05,1,,,,,オオサコプランニング,0
1652,6240002029677,登記記録の閉鎖等,0,2021-12-22,2021-12-17,有限会社吉川木工所,,有限会社,広島県,山県郡北広島町,阿坂３３４１番地,,34,369,7311222,,,2021-12-17,清算の結了等,,,2021-10-26,1,,,,,キッカワモッコウショ,0
1654,6250001008144,登記記録の閉鎖等,0,2021-12-22,2021-12-21,アイティエス株式会社,,株式会社,山口県,萩市,川上５０２６番地,,35,204,7580141,,,2021-12-21,清算の結了等,,,2015-10-05,1,,,,,アイティエス,0
1665,6290801026523,登記記録の閉鎖等,0,2021-12-22,2021-12-20,コクラ商会株式会社,,株式会社,福岡県,北九州市小倉南区,上葛原２丁目２０番１号２Ｆ,00119834,40,107,8000255,,,2021-12-20,清算の結了等,,,2020-05-26,1,,,,,コクラショウカイ,0
1668,6300003000787,登記記録の閉鎖等,0,2021-12-22,2021-12-15,合同会社ＮＡＯ＆ＫＥＩ,,合同会社,佐賀県,佐賀市,大和町大字梅野９４番地７,,41,201,8400203,,,2021-12-15,清算の結了等,,,2015-10-05,1,,,,,ナオアンドケイ,0
1672,6320002002601,登記記録の閉鎖等,0,2021-12-22,2021-12-21,コーノ建設有限会社,,有限会社,大分県,大分市,富士見が丘西３丁目１７番６号,,44,201,8701177,,,2021-12-21,清算の結了等,,,2015-10-05,1,,,,,コーノケンセツ,0
1695,6390005007310,登記記録の閉鎖等,0,2021-12-22,2021-12-17,特定非営利活動法人きずな,,その他の設立登記法人,山形県,米沢市,本町３丁目１番５５号,,06,202,9920037,,,2021-12-17,清算の結了等,,,2015-10-05,1,,,,,,0
1705,6460301004739,登記記録の閉鎖等,0,2021-12-22,2021-12-20,株式会社ＳＡＩＴＯＨ　ＭＥＤＩＣＡＬ　ＨＯＬＤＩＮＧＳ,,株式会社,北海道,網走市,桂町２丁目４５番地の１－６０２,,01,211,0930041,,,2021-12-20,清算の結了等,,,2018-09-25,1,,,,,サイトウメディカルホールディングス,0
1706,6470001009269,登記記録の閉鎖等,0,2021-12-22,2021-12-20,株式会社生コン輸送,,株式会社,香川県,坂出市,林田町２４８１番地３,,37,203,7620012,,,2021-12-20,清算の結了等,,,2015-10-05,1,,,,,ナマコンユソウ,0
1736,7010405014785,登記記録の閉鎖等,0,2021-12-22,2021-12-15,ＧＬＰツインシティ特定目的会社,,その他の設立登記法人,東京都,港区,東新橋１丁目５番２号汐留シティセンター,,13,103,1050021,,,2021-12-15,清算の結了等,,,2016-05-11,1,,,,,ジーエルピーツインシティ,0
1744,7010601009242,登記記録の閉鎖等,0,2021-12-22,2021-12-10,岩田株式会社,,株式会社,東京都,墨田区,立花５丁目２３番１号,,13,107,1310043,,,2021-12-10,清算の結了等,,,2015-10-05,1,,,,,イワタ,0
1759,7011001045877,登記記録の閉鎖等,0,2021-12-22,2021-12-07,日栄空調株式会社,,株式会社,東京都,渋谷区,本町２丁目３番１号,,13,113,1510071,,,2021-12-07,清算の結了等,,,2015-10-05,1,,,,,ニチエイクウチョウ,0
1761,7011001132345,登記記録の閉鎖等,0,2021-12-22,2021-12-08,株式会社Ｓｏｌｅ,,株式会社,東京都,目黒区,下目黒２丁目２３番１８号目黒山手通ビル８階,,13,110,1530064,,,2021-12-08,合併による解散等,7011001128475,令和３年１２月１日東京都目黒区下目黒二丁目２３番１８号目黒山手通ビル８階株式会社Ｓｔｕｄｉｏ　ｂｅｔａ（7011001128475）に合併し解散,2020-02-12,1,,,,,ソール,0
1780,7012402005552,登記記録の閉鎖等,0,2021-12-22,2021-12-20,有限会社マローゼ,,有限会社,東京都,小金井市,貫井北町３丁目６番３１号,,13,210,1840015,,,2021-12-20,清算の結了等,,,2015-10-05,1,,,,,マローゼ,0
1818,7030001049713,登記記録の閉鎖等,0,2021-12-22,2021-12-20,共和情報株式会社,,株式会社,埼玉県,朝霞市,根岸台６丁目６番１７号,,11,227,3510005,,,2021-12-20,清算の結了等,,,2015-10-05,1,,,,,キョウワジョウホウ,0
1827,7030001128789,登記記録の閉鎖等,0,2021-12-22,2021-12-15,株式会社日和里,,株式会社,埼玉県,川越市,大字砂８８５番地２,,11,201,3501133,,,2021-12-15,清算の結了等,,,2018-12-20,1,,,,,ヒヨリ,0
1830,7030002017405,登記記録の閉鎖等,0,2021-12-22,2021-12-20,有限会社佐野テクノコンサルタント,,有限会社,埼玉県,さいたま市見沼区,大字大谷１４９番地１７,,11,104,3370014,,,2021-12-20,清算の結了等,,,2015-10-05,1,,,,,サノテクノコンサルタント,0
1852,7070001024646,登記記録の閉鎖等,0,2021-12-22,2021-12-17,ネクスト株式会社,,株式会社,群馬県,高崎市,吉井町南陽台２丁目２番地５,,10,202,3702101,,,2021-12-17,清算の結了等,,,2015-10-05,1,,,,,ネクスト,0
1855,7080001011998,登記記録の閉鎖等,0,2021-12-22,2021-12-17,株式会社ＢＥＣＫ,,株式会社,静岡県,静岡市葵区,宮ケ崎町３０番地,,22,101,4200868,,,2021-12-17,清算の結了等,,,2015-10-05,1,,,,,ベック,0
1858,7080005004387,登記記録の閉鎖等,0,2021-12-22,2021-12-17,特定非営利活動法人コスモス,,その他の設立登記法人,静岡県,静岡市駿河区,登呂４丁目４番２３号,,22,102,4228033,,,2021-12-17,清算の結了等,,,2015-10-05,1,,,,,コスモス,0
1865,7100002030846,登記記録の閉鎖等,0,2021-12-22,2021-12-15,有限会社アプル設計,,有限会社,長野県,岡谷市,川岸中２丁目３番６号,,20,204,3940047,,,2021-12-15,清算の結了等,,,2015-10-05,1,,,,,アプルセッケイ,0
1866,7110003002323,登記記録の閉鎖等,0,2021-12-22,2021-12-20,合資会社若井菓子餅店,,合資会社,新潟県,魚沼市,小出島１２４番地１０８,,15,225,9460011,,,2021-12-20,清算の結了等,,,2015-10-05,1,,,,,ワカイカシモチテン,0
1869,7110005013021,登記記録の閉鎖等,0,2021-12-22,2021-12-20,小千谷２１企業組合,,その他の設立登記法人,新潟県,小千谷市,大字西吉谷乙４９３番１,,15,208,9470018,,,2021-12-20,清算の結了等,,,2015-10-05,1,,,,,オヂヤニジュウイチ,0
1885,7120101033756,登記記録の閉鎖等,0,2021-12-22,2021-12-16,モリ販売株式会社,,株式会社,大阪府,河内長野市,松ケ丘中町１４５６番地の２,,27,216,5860006,,,2021-12-16,清算の結了等,,,2015-10-05,1,,,,,モリハンバイ,0
1914,7180001032258,登記記録の閉鎖等,0,2021-12-22,2021-12-21,橋戸工機株式会社,,株式会社,愛知県,名古屋市西区,十方町１６８番地,,23,104,4520837,,,2021-12-21,清算の結了等,,,2015-10-05,1,,,,,ハシドコウキ,0
1932,7180302017148,登記記録の閉鎖等,0,2021-12-22,2021-12-20,有限会社ブレーン,,有限会社,愛知県,安城市,朝日町２３番３号,,23,212,4460031,,,2021-12-20,清算の結了等,,,2015-10-05,1,,,,,ブレーン,0
1942,7230001008673,登記記録の閉鎖等,0,2021-12-22,2021-12-16,株式会社横山工務店,,株式会社,富山県,砺波市,庄川町大反保３６４８番地,,16,208,9391300,,,2021-12-16,清算の結了等,,,2015-10-05,1,,,,,ヨコヤマコウムテン,0
1966,7300003000753,登記記録の閉鎖等,0,2021-12-22,2021-12-15,合同会社ミネルヴァ,,合同会社,佐賀県,小城市,小城町栗原４０１番地２,,41,208,8450013,,,2021-12-15,清算の結了等,,,2015-10-05,1,,,,,ミネルヴァ,0
1967,7310001003666,登記記録の閉鎖等,0,2021-12-22,2021-12-20,株式会社プラネットシーアール,,株式会社,長崎県,長崎市,栄町４番１８号,,42,201,8500875,,,2021-12-20,清算の結了等,,,2015-10-05,1,,,,,プラネットシーアール,0
1970,7310003003103,登記記録の閉鎖等,0,2021-12-22,2021-12-20,合同会社友友,,合同会社,長崎県,諫早市,黒崎町３７４番地２,,42,204,8540033,,,2021-12-20,清算の結了等,,,2016-02-09,1,,,,,ユウユウ,0
1982,7360002011317,登記記録の閉鎖等,0,2021-12-22,2021-12-17,有限会社伊元メディカルサービス,,有限会社,沖縄県,沖縄市,泡瀬４丁目３９番１２号,,47,211,9042172,,,2021-12-17,清算の結了等,,,2015-10-05,1,,,,,イモトメディカルサービス,0
1993,7380002029836,登記記録の閉鎖等,0,2021-12-22,2021-12-16,有限会社猪狩鉄工所,,有限会社,福島県,双葉郡浪江町,大字牛渡字竹の花１４番地,,07,547,9791526,,,2021-12-16,清算の結了等,,,2015-10-05,1,,,,,,0
1995,7390002011330,登記記録の閉鎖等,0,2021-12-22,2021-12-17,有限会社佐々木建設,,有限会社,山形県,最上郡最上町,大字向町７１３番地,,06,362,9996101,,,2021-12-17,清算の結了等,,,2015-10-05,1,,,,,ササキケンセツ,0
1996,7400002009174,登記記録の閉鎖等,0,2021-12-22,2021-12-20,有限会社オールクリーニング,,有限会社,岩手県,北上市,藤沢１８地割９１番地,,03,206,0240013,,,2021-12-20,清算の結了等,,,2015-10-05,1,,,,,オールクリーニング,0
2001,7430002018222,登記記録の閉鎖等,0,2021-12-22,2021-12-20,有限会社北朝サービスセンター,,有限会社,北海道,小樽市,奥沢１丁目１７番４号,,01,203,0470013,,,2021-12-20,清算の結了等,,,2015-10-05,1,,,,,ホクチョウサービスセンター,0
2002,7460105001312,登記記録の閉鎖等,0,2021-12-22,2021-12-01,医療法人啓仁会,,その他の設立登記法人,北海道,上川郡清水町,御影本通５丁目９番地,,01,636,0890354,,,2021-12-01,合併による解散等,6430005006365,令和３年１２月１日北海道帯広市川西町基線２８番地１医療法人社団あすなろ会（6430005006365）に合併し解散,2015-10-05,1,,,,,ケイジンカイ,0
2008,7490002005446,登記記録の閉鎖等,0,2021-12-22,2021-12-21,有限会社友商,,有限会社,高知県,高知市,大津乙１３番地２,,39,201,7815103,,,2021-12-21,清算の結了等,,,2015-10-05,1,,,,,,0
2009,7490005003240,登記記録の閉鎖等,0,2021-12-22,2021-12-03,天理教尾中分教会,,その他の設立登記法人,高知県,高岡郡佐川町,本郷耕２２７６番地イ,,39,402,7891221,,,2021-12-03,合併による解散等,1490005003238,令和３年１２月３日高知県高岡郡佐川町甲１８４９番地天理教佐川分教会（1490005003238）に合併し解散,2015-10-05,1,,,,,,0
2020,8010401075517,登記記録の閉鎖等,0,2021-12-22,2021-12-15,株式会社丸久,,株式会社,東京都,港区,高輪３丁目２５番２７号,,13,103,1080074,,,2021-12-15,清算の結了等,,,2015-10-05,1,,,,,,0
2027,8010405014784,登記記録の閉鎖等,0,2021-12-22,2021-12-15,ＧＬＰ八千代２特定目的会社,,その他の設立登記法人,東京都,港区,東新橋１丁目５番２号汐留シティセンター,,13,103,1050021,,,2021-12-15,清算の結了等,,,2016-05-11,1,,,,,ジーエルピーヤチヨツー,0
2035,8010602011329,登記記録の閉鎖等,0,2021-12-22,2021-12-15,有限会社サンワレザー,,有限会社,東京都,墨田区,東墨田３丁目９番５号,,13,107,1310042,,,2021-12-15,清算の結了等,,,2015-10-05,1,,,,,サンワレザー,0
2079,8013301009783,登記記録の閉鎖等,0,2021-12-22,2021-12-16,ハタ管理株式会社,,株式会社,東京都,中央区,銀座４丁目４番５号,,13,102,1040061,,,2021-12-16,合併による解散等,1010001041173,令和３年１２月１６日東京都中央区銀座四丁目４番５号籏興行株式会社（1010001041173）に合併し解散,2015-10-05,1,,,,,ハタカンリ,0
2087,8020001020995,登記記録の閉鎖等,0,2021-12-22,2021-12-20,株式会社テレシス・ワン,,株式会社,神奈川県,横浜市港北区,新横浜１丁目２９番７号ミオカステーロ新横浜６０１,,14,109,2220033,,,2021-12-20,清算の結了等,,,2015-10-05,1,,,,,テレシスワン,0
2089,8020002054365,登記記録の閉鎖等,0,2021-12-22,2021-12-17,有限会社レン・デザイン・スタジオ,,有限会社,神奈川県,横浜市鶴見区,豊岡町６番１２－２１１号,,14,101,2300062,,,2021-12-17,清算の結了等,,,2015-10-05,1,,,,,レンデザインスタジオ,0
2095,8021001065683,登記記録の閉鎖等,0,2021-12-22,2021-12-17,株式会社相和,,株式会社,神奈川県,相模原市緑区,大島字下沖原１７５２番地,,14,151,2520135,,,2021-12-17,合併による解散等,4021001073970,令和３年１２月１７日神奈川県相模原市緑区大島字下沖原１７５２番地株式会社相和メディカル（4021001073970）に合併し解散,2018-09-20,1,,,,,ソウワ,0
2102,8030001072631,登記記録の閉鎖等,0,2021-12-22,2021-12-21,株式会社雅,,株式会社,埼玉県,鴻巣市,袋１８２番地２,,11,217,3690131,,,2021-12-21,清算の結了等,,,2015-10-05,1,,,,,ミヤビ,0
2117,8030002091283,登記記録の閉鎖等,0,2021-12-22,2021-12-21,有限会社山伸,,有限会社,埼玉県,吉川市,大字保５５８番地８,,11,243,3420041,,,2021-12-21,清算の結了等,,,2015-10-05,1,,,,,,0
2118,8030002111883,登記記録の閉鎖等,0,2021-12-22,2021-12-17,有限会社海,,有限会社,埼玉県,川口市,三ツ和２丁目３５番地の１,,11,203,3340011,,,2021-12-17,清算の結了等,,,2015-10-05,1,,,,,ウミ,0
2121,8030003013105,登記記録の閉鎖等,0,2021-12-22,2021-12-20,合同会社ティーケイ,,合同会社,埼玉県,坂戸市,大字石井２８９８番地１３（若葉台マンション８０３）,,11,239,3500212,,,2021-12-20,清算の結了等,,,2019-02-18,1,,,,,ティーケイ,0
2136,8050002030082,登記記録の閉鎖等,0,2021-12-22,2021-12-17,有限会社會澤商事,,有限会社,茨城県,日立市,下土木内町１３１番地６,,08,202,3191232,,,2021-12-17,清算の結了等,,,2015-10-05,1,,,,,アイザワショウジ,0
2139,8050005011641,登記記録の閉鎖等,0,2021-12-22,2021-12-16,一般社団法人日本動画マーケティング協会,,その他の設立登記法人,茨城県,水戸市,大塚町１８６６番地の２６７,,08,201,3114143,,,2021-12-16,清算の結了等,,,2015-10-05,1,,,,,ニホンドウガマーケティングキョウカイ,0
2147,8070002032060,登記記録の閉鎖等,0,2021-12-22,2021-12-17,有限会社日栄建築,,有限会社,群馬県,太田市,由良町９９７番地の７,,10,205,3730036,,,2021-12-17,清算の結了等,,,2015-10-05,1,,,,,ニチエイケンチク,0
2148,8070002035030,登記記録の閉鎖等,0,2021-12-22,2021-12-17,有限会社沼田コンタクトレンズ,,有限会社,群馬県,沼田市,東倉内町２８２番地４,,10,206,3780043,,,2021-12-17,清算の結了等,,,2015-10-05,1,,,,,ヌマタコンタクトレンズ,0
2153,8080102003704,登記記録の閉鎖等,0,2021-12-22,2021-12-21,有限会社エムズ・カーボディ,,有限会社,静岡県,沼津市,大諏訪６３６番地,,22,203,4100873,,,2021-12-21,清算の結了等,,,2015-10-05,1,,,,,エムズカーボディ,0
2154,8080102016697,登記記録の閉鎖等,0,2021-12-22,2021-12-20,有限会社小林電気,,有限会社,静岡県,富士宮市,富士見ケ丘６９３番地,,22,207,4180014,,,2021-12-20,清算の結了等,,,2015-10-05,1,,,,,コバヤシデンキ,0
2156,8080401010517,登記記録の閉鎖等,0,2021-12-22,2021-12-17,株式会社山中製作所,,株式会社,静岡県,浜松市浜北区,寺島９３３番地,,22,136,4340035,,,2021-12-17,清算の結了等,,,2015-10-05,1,,,,,ヤマナカセイサクショ,0
2181,8120101051237,登記記録の閉鎖等,0,2021-12-22,2021-12-17,株式会社トライワンズ,,株式会社,沖縄県,那覇市,宇栄原２丁目１３番１６号キューブエイトＩＩＡ棟,00119601,47,201,9010153,,,2021-12-17,清算の結了等,,,2015-10-05,1,,,,,トライワンズ,0
2199,8140002012229,登記記録の閉鎖等,0,2021-12-22,2021-12-17,有限会社丸庄青果,,有限会社,兵庫県,神戸市兵庫区,中之島１丁目１番１号,,28,105,6520844,,,2021-12-17,清算の結了等,,,2015-10-05,1,,,,,,0
2200,8140002028027,登記記録の閉鎖等,0,2021-12-22,2021-12-20,有限会社メディア・コミュニケーション,,有限会社,兵庫県,芦屋市,浜風町８番３－３号,,28,206,6590032,,,2021-12-20,清算の結了等,,,2015-10-05,1,,,,,メディアコミュニケーション,0
2211,8180002064860,登記記録の閉鎖等,0,2021-12-22,2021-12-17,有限会社永和,,有限会社,愛知県,春日井市,稲口町３丁目３番地,,23,206,4860905,,,2021-12-17,清算の結了等,,,2015-10-05,1,,,,,エイワ,0
2216,8210001017650,登記記録の閉鎖等,0,2021-12-22,2021-12-17,株式会社ＲＩＫＵ,,株式会社,福井県,福井市,板垣５丁目１１０２番地,,18,201,9188104,,,2021-12-17,清算の結了等,,,2019-08-01,1,,,,,リク,0
2220,8220001018540,登記記録の閉鎖等,0,2021-12-22,2021-12-17,株式会社清美,,株式会社,石川県,金沢市,大手町１１番２９号,,17,201,9200912,,,2021-12-17,清算の結了等,,,2015-10-05,1,,,,,キヨミ,0
2223,8240005009253,登記記録の閉鎖等,0,2021-12-22,2021-12-17,福山市漁業協同組合,,その他の設立登記法人,広島県,福山市,水呑町３７６９番地,,34,207,7200832,,,2021-12-17,清算の結了等,,,2015-10-05,1,,,,,フクヤマシ,0
2228,8280001004915,登記記録の閉鎖等,0,2021-12-22,2021-12-21,株式会社エムアンドアイ,,株式会社,島根県,浜田市,西村町１４５０番地４２,,32,202,6971337,,,2021-12-21,清算の結了等,,,2015-10-05,1,,,,,エムアンドアイ,0
2236,8290802019565,登記記録の閉鎖等,0,2021-12-22,2021-12-16,有限会社料亭旅館浜風,,有限会社,福岡県,北九州市若松区,大字有毛２７１０番地の１,,40,103,8080123,,,2021-12-16,清算の結了等,,,2015-10-05,1,,,,,リョウテイリョカンハマカゼ,0
2256,8380002029141,登記記録の閉鎖等,0,2021-12-22,2021-12-16,有限会社丸商,,有限会社,福島県,南相馬市,原町区栄町２丁目７５番地の１,,07,212,9750003,,,2021-12-16,清算の結了等,,,2015-10-05,1,,,,,マルショウ,0
2257,8410001006864,登記記録の閉鎖等,0,2021-12-22,2021-12-16,株式会社秋田エスエス商運大館,,株式会社,秋田県,大館市,二井田字前田野３７番地２６－１Ｆ,,05,204,0185751,,,2021-12-16,清算の結了等,,,2015-10-05,1,,,,,アキタエスエスショウウンオオダテ,0
2263,8430002034929,登記記録の閉鎖等,0,2021-12-22,2021-12-20,有限会社三立工務店,,有限会社,北海道,札幌市北区,篠路町上篠路８１番地３９,,01,102,0028052,,,2021-12-20,清算の結了等,,,2015-10-05,1,,,,,サンリツコウムテン,0
2289,9010001199376,登記記録の閉鎖等,0,2021-12-22,2021-12-14,ミネルヴァサーチ株式会社,,株式会社,東京都,千代田区,二番町９番３号ＴＨＥＢＡＳＥ麹町Ｗ─１１７,,13,101,1020084,,,2021-12-14,清算の結了等,,,2019-03-18,1,,,,,ミネルヴァサーチ,0
2324,9010901034698,登記記録の閉鎖等,0,2021-12-22,2021-12-20,株式会社きんせい堂,,株式会社,東京都,世田谷区,南烏山４丁目１０番２号,,13,112,1570062,,,2021-12-20,合併による解散等,7012701013520,令和３年１２月１６日東京都東村山市栄町一丁目１番地２２株式会社きんせい堂（7012701013520）に合併し解散,2015-10-05,1,,,,,,0
2334,9011001136022,登記記録の閉鎖等,0,2021-12-22,2021-12-08,株式会社ｗｅｒｏａｓｔ,,株式会社,東京都,目黒区,下目黒２丁目２３番１８号目黒山手通ビル８階,,13,110,1530064,,,2021-12-08,合併による解散等,7011001128475,令和３年１２月１日東京都目黒区下目黒二丁目２３番１８号目黒山手通ビル８階株式会社Ｓｔｕｄｉｏ　ｂｅｔａ（7011001128475）に合併し解散,2020-09-29,1,,,,,ウィーロースト,0
2337,9011101079856,登記記録の閉鎖等,0,2021-12-22,2021-12-20,株式会社ＮＩＢプランニング,,株式会社,東京都,世田谷区,三軒茶屋１丁目３６番１１号,,13,112,1540024,,,2021-12-20,清算の結了等,,,2017-03-14,1,,,,,エヌアイビープランニング,0
2352,9012401008876,登記記録の閉鎖等,0,2021-12-22,2021-12-20,株式会社アークホームズ,,株式会社,東京都,狛江市,和泉本町２丁目３２番１４号,,13,219,2010003,,,2021-12-20,清算の結了等,,,2015-10-05,1,,,,,,0
2365,9021001033350,登記記録の閉鎖等,0,2021-12-22,2021-12-14,和幸商事株式会社,,株式会社,神奈川県,小田原市,鴨宮７番地１,,14,206,2500874,,,2021-12-14,清算の結了等,,,2015-10-05,1,,,,,,0
2367,9021002060195,登記記録の閉鎖等,0,2021-12-22,2021-12-20,有限会社ワイアンドワイズ,,有限会社,神奈川県,平塚市,撫子原３番３６号,,14,203,2540825,,,2021-12-20,清算の結了等,,,2015-10-05,1,,,,,ワイアンドワイズ,0
2369,9030001035447,登記記録の閉鎖等,0,2021-12-22,2021-12-13,株式会社ノブ工芸,,株式会社,埼玉県,草加市,青柳２丁目２０番１６号,,11,221,3400002,,,2021-12-13,清算の結了等,,,2021-01-14,1,,,,,,0
2374,9030001054001,登記記録の閉鎖等,0,2021-12-22,2021-12-21,株式会社環境サポート,,株式会社,埼玉県,さいたま市南区,鹿手袋３丁目２３番２７号４０１,,11,108,3360031,,,2021-12-21,清算の結了等,,,2015-10-05,1,,,,,カンキョウサポート,0
2385,9030002116361,登記記録の閉鎖等,0,2021-12-22,2021-12-16,有限会社アイミックス,,有限会社,埼玉県,深谷市,明戸９８１番地２,,11,218,3660024,,,2021-12-16,清算の結了等,,,2015-10-05,1,,,,,アイミックス,0
2393,9040002034620,登記記録の閉鎖等,0,2021-12-22,2021-12-17,有限会社シャラント,,有限会社,千葉県,市川市,南大野１丁目４３番１３号,,12,203,2720804,,,2021-12-17,清算の結了等,,,2015-10-05,1,,,,,シャラント,0
2402,9050002019918,登記記録の閉鎖等,0,2021-12-22,2021-12-17,有限会社シバサキ金型,,有限会社,茨城県,坂東市,長須２５７０番地,,08,228,3060645,,,2021-12-17,清算の結了等,,,2015-10-05,1,,,,,シバサキカナガタ,0
2415,9080001024008,登記記録の閉鎖等,0,2021-12-22,2021-12-20,株式会社ＭＵＧＥＮ,,株式会社,静岡県,静岡市葵区,平和１丁目１４番２号,,22,101,4200876,,,2021-12-20,清算の結了等,,,2021-03-02,1,,,,,ムゲン,0
2418,9080005001192,登記記録の閉鎖等,0,2021-12-22,2021-12-20,医療法人社団杞葉会,,その他の設立登記法人,静岡県,静岡市駿河区,八幡２丁目３番９号,,22,102,4228076,,,2021-12-20,清算の結了等,,,2015-10-05,1,,,,,キヨウカイ,0
2432,9120001018517,登記記録の閉鎖等,0,2021-12-22,2021-12-17,株式会社花村,,株式会社,大阪府,大阪市天王寺区,勝山２丁目１番２６号ロータリービルド四天王寺,,27,109,5430043,,,2021-12-17,清算の結了等,,,2015-10-05,1,,,,,ハナムラ,0
2456,9140001038315,登記記録の閉鎖等,0,2021-12-22,2021-12-16,カネヰ醤油株式会社,,株式会社,兵庫県,たつの市,龍野町上川原８１番地,,28,229,6794172,,,2021-12-16,清算の結了等,,,2015-10-05,1,,,,,カネイショウユ,0
2464,9140002063650,登記記録の閉鎖等,0,2021-12-22,2021-12-01,有限会社スギウエル,,有限会社,兵庫県,伊丹市,奥畑１丁目１０８番地の１,,28,207,6640025,,,2021-12-01,清算の結了等,,,2015-10-05,1,,,,,スギウエル,0
2498,9200001010606,登記記録の閉鎖等,0,2021-12-22,2021-12-17,株式会社フジパック,,株式会社,岐阜県,瑞穂市,田之上１７４番地２,,21,216,5010304,,,2021-12-17,清算の結了等,,,2015-10-05,1,,,,,フジパック,0
2529,9320005009649,登記記録の閉鎖等,0,2021-12-22,2021-12-17,大分技能育成食品加工業協同組合,,その他の設立登記法人,大分県,佐伯市,城南町２９番地１５号,,44,205,8760834,,,2021-12-17,清算の結了等,,,2018-12-25,1,,,,,オオイタギノウイクセイショクヒンカコウギョウ,0
2540,9370001045890,登記記録の閉鎖等,0,2021-12-22,2021-12-16,株式会社Ｔｏｍｏ,,株式会社,宮城県,東松島市,あおい３丁目１８番地７,,04,214,9810506,,,2021-12-16,清算の結了等,,,2020-07-02,1,,,,,トモ,0
2549,9380002017228,登記記録の閉鎖等,0,2021-12-22,2021-12-16,有限会社本田印刷,,有限会社,福島県,本宮市,本宮字仲町１４番地,,07,214,9691124,,,2021-12-16,清算の結了等,,,2015-10-05,1,,,,,,0
2555,9380005012176,登記記録の閉鎖等,0,2021-12-22,2021-12-14,一般社団法人会津喜多方検定協会,,その他の設立登記法人,福島県,喜多方市,字畑台３３０４番地１,,07,208,9660035,,,2021-12-14,清算の結了等,,,2019-06-07,1,,,,,アイヅキタカタケンテイキョウカイ,0
2558,9400001006501,登記記録の閉鎖等,0,2021-12-22,2021-12-20,株式会社北光開発,,株式会社,岩手県,北上市,新穀町２丁目４番８号,,03,206,0240092,,,2021-12-20,清算の結了等,,,2015-10-05,1,,,,,ホッコウカイハツ,0
2571,9470002001841,登記記録の閉鎖等,0,2021-12-22,2021-12-21,有限会社香川ペット葬儀社,,有限会社,香川県,高松市,飯田町１０２０番地６,,37,201,7618033,,,2021-12-21,清算の結了等,,,2015-10-05,1,,,,,カガワペットソウギシャ,0
2572,9480002012409,登記記録の閉鎖等,0,2021-12-22,2021-12-17,有限会社ＱＵＥＥＮ　ＡＮＮＥ　ＨＩＬＬ,,有限会社,徳島県,板野郡北島町,中村字寺裏８番地１,,36,402,7710203,,,2021-12-17,清算の結了等,,,2015-10-05,1,,,,,,0
