sequenceNumber,corporateNumber,process,correct,updateDate,changeDate,name,nameImageId,kind,prefectureName,cityName,streetNumber,addressImageId,prefectureCode,cityCode,postCode,addressOutside,addressOutsideImageId,closeDate,closeCause,successorCorporateNumber,changeCause,assignmentDate,latest,enName,enPrefectureName,enCityName,enAddressOutside,furigana,hihyoji
7,1010001255830,新規,0,2025-06-13,2025-06-13,鼎盛貿易株式会社,,株式会社,東京都,中央区,銀座１丁目１２番４号Ｎ＆ＥＢＬＤ．７階,,13,102,1040061,,,,,,,2025-06-13,1,,,,,ディンシェンマウイ,0
8,1010001255905,新規,0,2025-06-13,2025-06-13,リン株式会社,,株式会社,東京都,千代田区,神田佐久間町１丁目８－４アルテール秋葉原８０３,,13,101,1010025,,,,,,,2025-06-13,1,,,,,リン,0
9,1010001255913,新規,0,2025-06-13,2025-06-13,高明能源株式会社,,株式会社,東京都,中央区,築地４丁目２番７－６０１号,,13,102,1040045,,,,,,,2025-06-13,1,,,,,コウメイノウゲン,0
10,1010001256003,新規,0,2025-06-13,2025-06-13,未来ワークス株式会社,,株式会社,東京都,千代田区,五番町１２番地７,,13,101,1020076,,,,,,,2025-06-13,1,,,,,ミライワークス,0
13,1010003047656,新規,0,2025-06-13,2025-06-13,合同会社ＯＭ泉,,合同会社,東京都,中央区,日本橋１丁目４番１号日本橋一丁目ビルディング,,13,102,1030027,,,,,,,2025-06-13,1,,,,,オーエムイズミ,0
26,1010401191048,新規,0,2025-06-13,2025-06-13,ＯＴＢ株式会社,,株式会社,東京都,港区,三田３丁目４番地３号,,13,103,1080073,,,,,,,2025-06-13,1,,,,,オーティービー,0
27,1010401191064,新規,0,2025-06-13,2025-06-13,株式会社夕飯,,株式会社,東京都,港区,東新橋２丁目６番６号汐留ＡＺビル２階,,13,103,1050021,,,,,,,2025-06-13,1,,,,,ユウハン,0
28,1010403035351,新規,0,2025-06-13,2025-06-13,Ｇｅｎｅｃｉａｌ合同会社,,合同会社,東京都,港区,南青山３丁目１番３６号青山丸竹ビル６Ｆ,,13,103,1070062,,,,,,,2025-06-13,1,,,,,ジェネシャル,0
29,1010403035368,新規,0,2025-06-13,2025-06-13,合同会社ＶｅｒｉｔＩＤ,,合同会社,東京都,港区,浜松町２丁目２－１５浜松町ダイヤビル２Ｆ,,13,103,1050013,,,,,,,2025-06-13,1,,,,,ヴェリットアイディー,0
30,1010405024352,新規,0,2025-06-13,2025-06-13,一般社団法人ＢｌｕｅＬａｂｏ,,その他の設立登記法人,東京都,港区,南青山２丁目１３番７号マトリス２Ｆ,,13,103,1070062,,,,,,,2025-06-13,1,,,,,ブルーラボ,0
37,1010801036249,新規,0,2025-06-13,2025-06-13,株式会社桑の葉,,株式会社,東京都,大田区,山王２丁目７番１５－１０１号,,13,111,1430023,,,,,,,2025-06-13,1,,,,,クワノハ,0
42,1011003021923,新規,0,2025-06-13,2025-06-13,Ｔｅｃｈ　Ａｄｖａｎｃｅ合同会社,,合同会社,東京都,渋谷区,道玄坂１丁目１０番８号渋谷道玄坂東急ビル２Ｆ－Ｃ,,13,113,1500043,,,,,,,2025-06-13,1,,,,,テックアドバンス,0
49,1011101112038,新規,0,2025-06-13,2025-06-13,株式会社トランジェ,,株式会社,東京都,新宿区,高田馬場１丁目２８番１０号,,13,104,1690075,,,,,,,2025-06-13,1,,,,,トランジェ,0
57,1011801046295,新規,0,2025-06-13,2025-06-13,株式会社ＢＥＡＣＮＯＲ,,株式会社,東京都,足立区,六町１丁目１６番２５号テラス・六町１０１号,,13,121,1210073,,,,,,,2025-06-13,1,,,,,ビークノア,0
59,1012703003293,新規,0,2025-06-13,2025-06-13,ＳｅｒｖＴｒｅｅ合同会社,,合同会社,東京都,東久留米市,浅間町３丁目２０番５号,,13,222,2030012,,,,,,,2025-06-13,1,,,,,サーブツリー,0
62,1013303007718,新規,0,2025-06-13,2025-06-13,合同会社ＴＯＫＹＯ　ＧＲＯＯＶＥ,,合同会社,東京都,豊島区,西池袋１丁目９番１１号,,13,116,1710021,,,,,,,2025-06-13,1,,,,,,0
74,1020001163306,新規,0,2025-06-13,2025-06-13,株式会社ＢＲＥＭＥＮ,,株式会社,神奈川県,川崎市高津区,北野川４番９号,,14,134,2130028,,,,,,,2025-06-13,1,,,,,ブレーメン,0
75,1020001163347,新規,0,2025-06-13,2025-06-13,ＢｌｕｅＯｐｔｉｍａ株式会社,,株式会社,神奈川県,横浜市中区,住吉町２丁目２２番地松栄関内ビル２階ＥＣＯＶＩＳＡＫＩＡＴａｘＣｏｎｓｕｌｔａｎｔｓ内,,14,104,2310013,,,,,,,2025-06-13,1,,,,,ブルーオプティマ,0
76,1020001163371,新規,0,2025-06-13,2025-06-13,株式会社ＯＣＧ,,株式会社,神奈川県,横浜市南区,前里町１丁目４番地３黄金町駅前ビル３階,,14,105,2320004,,,,,,,2025-06-13,1,,,,,オーシージー,0
77,1020001163413,新規,0,2025-06-13,2025-06-13,株式会社ＳＥＡ,,株式会社,神奈川県,横浜市金沢区,柴町７－１４,,14,108,2360012,,,,,,,2025-06-13,1,,,,,シー,0
81,1020003028688,新規,0,2025-06-13,2025-06-13,合同会社ｅｍｐａｓｓ,,合同会社,神奈川県,横浜市都筑区,牛久保西２丁目２５番Ｍ－３０３号,,14,118,2240015,,,,,,,2025-06-13,1,,,,,エンパス,0
82,1020003028705,新規,0,2025-06-13,2025-06-13,Ｍｉｔｏｓ合同会社,,合同会社,神奈川県,川崎市川崎区,貝塚１丁目４番１３号６Ｆ,,14,131,2100014,,,,,,,2025-06-13,1,,,,,ミトス,0
87,1021001085515,新規,0,2025-06-13,2025-06-13,株式会社いちごワークス,,株式会社,神奈川県,鎌倉市,笛田２丁目１１,,14,204,2480027,,,,,,,2025-06-13,1,,,,,イチゴワークス,0
88,1021001085531,新規,0,2025-06-13,2025-06-13,株式会社大一環境,,株式会社,神奈川県,藤沢市,用田２６５５番地の１,,14,205,2520821,,,,,,,2025-06-13,1,,,,,ダイイチカンキョウ,0
95,1030001167090,新規,0,2025-06-13,2025-06-13,株式会社岡安輿運,,株式会社,埼玉県,川越市,大字下広谷３３５番地１,,11,201,3500804,,,,,,,2025-06-13,1,,,,,オカヤスコウウン,0
96,1030001167108,新規,0,2025-06-13,2025-06-13,株式会社ＭＬ３１,,株式会社,埼玉県,八潮市,大字木曽根１４６４番地,,11,234,3400813,,,,,,,2025-06-13,1,,,,,エムエルサンジュウイチ,0
104,1040001139221,新規,0,2025-06-13,2025-06-13,株式会社光増毛イルミネイトプラス,,株式会社,千葉県,鎌ケ谷市,鎌ケ谷９丁目５番３８号,,12,224,2730105,,,,,,,2025-06-13,1,,,,,ヒカリゾウモウイルミネイトプラス,0
108,1040003027812,新規,0,2025-06-13,2025-06-13,４ｐｘ合同会社,,合同会社,千葉県,柏市,若柴２８１番地４０中央１７４街区１柏の葉ヒュッゲＥ－３号,,12,217,2770871,,,,,,,2025-06-13,1,,,,,フォーピーエックス,0
113,1050003009339,新規,0,2025-06-13,2025-06-13,ＳＡＤＩＱ　ＴＲＡＤＩＮＧ合同会社,,合同会社,茨城県,坂東市,幸田字南開１９１６番１,,08,228,3060606,,,,,,,2025-06-13,1,,,,,サディクトレーディング,0
114,1050003009347,新規,0,2025-06-13,2025-06-13,ＨＡＲＯＯＮ　ＴＲＡＤＩＮＧ合同会社,,合同会社,茨城県,坂東市,沓掛１３８９－１グリーンハイツ１号棟,,08,228,3060515,,,,,,,2025-06-13,1,,,,,ハルーントレーディング,0
118,1060001038289,新規,0,2025-06-13,2025-06-13,シンワ企画株式会社,,株式会社,栃木県,小山市,大字横倉６２４番地１,,09,208,3230813,,,,,,,2025-06-13,1,,,,,シンワキカク,0
120,1070001043032,新規,0,2025-06-13,2025-06-13,株式会社メゾンクルエラ,,株式会社,群馬県,伊勢崎市,連取本町１５番地２,,10,204,3720817,,,,,,,2025-06-13,1,,,,,メゾンクルエラ,0
125,1070003005955,新規,0,2025-06-13,2025-06-13,合同会社Ｒｉｐｔｕｓ,,合同会社,群馬県,高崎市,剣崎町１１５２番地１ブランズ剣崎２０２,,10,202,3700883,,,,,,,2025-06-13,1,,,,,リプタス,0
126,1080001026985,新規,0,2025-06-13,2025-06-13,株式会社ＹＵＲＴ,,株式会社,静岡県,焼津市,坂本２６２番地の４,,22,212,4250004,,,,,,,2025-06-13,1,,,,,ユルト,0
138,1120001276717,新規,0,2025-06-13,2025-06-13,株式会社小林商事,,株式会社,大阪府,大阪市北区,西天満５丁目１番１９－５０２号,,27,127,5300047,,,,,,,2025-06-13,1,,,,,コバヤシショウジ,0
139,1120001276774,新規,0,2025-06-13,2025-06-13,株式会社ＨＥＳ,,株式会社,大阪府,寝屋川市,北大利町１１番１７号,,27,215,5720032,,,,,,,2025-06-13,1,,,,,エイチイーエス,0
140,1120001276816,新規,0,2025-06-13,2025-06-13,Ｈａｒｖｅｓｔ株式会社,,株式会社,大阪府,大阪市大正区,小林東３丁目１番１５号２０１号室,,27,108,5510011,,,,,,,2025-06-13,1,,,,,ハーベスト,0
141,1120001276832,新規,0,2025-06-13,2025-06-13,タマゴ株式会社,,株式会社,大阪府,大阪市西区,江戸堀３丁目２番２７号,,27,106,5500002,,,,,,,2025-06-13,1,,,,,タマゴ,0
142,1120001276849,新規,0,2025-06-13,2025-06-13,株式会社リンク,,株式会社,大阪府,大阪市都島区,善源寺町２丁目２番２－１０２号,,27,102,5340015,,,,,,,2025-06-13,1,,,,,リンク,0
144,1120003029635,新規,0,2025-06-13,2025-06-13,合同会社中商店,,合同会社,大阪府,大阪市西区,立売堀１丁目６番１３号南本町天祥ビル２号館２０９,,27,106,5500012,,,,,,,2025-06-13,1,,,,,ナカショウテン,0
145,1120003029684,新規,0,2025-06-13,2025-06-13,合同会社ａａｔｗｏ,,合同会社,大阪府,門真市,新橋町１６－６－１０１号室,,27,223,5710048,,,,,,,2025-06-13,1,,,,,エーツー,0
146,1120003029742,新規,0,2025-06-13,2025-06-13,ＣＴＮＮ合同会社,,合同会社,大阪府,大阪市西成区,鶴見橋１丁目２－１－１Ｆ,,27,122,5570031,,,,,,,2025-06-13,1,,,,,シーティーエヌエヌ,0
147,1120003029759,新規,0,2025-06-13,2025-06-13,ＬＣＭ合同会社,,合同会社,大阪府,大阪市浪速区,敷津西１丁目１番７号,,27,111,5560015,,,,,,,2025-06-13,1,,,,,エルシーエム,0
150,1120101071852,新規,0,2025-06-13,2025-06-13,株式会社ｚｅｒｏ　ｏｎｅ,,株式会社,大阪府,堺市堺区,榎元町３丁２番１号,,27,141,5900027,,,,,,,2025-06-13,1,,,,,ゼロワン,0
151,1120101071860,新規,0,2025-06-13,2025-06-13,株式会社藤正,,株式会社,大阪府,岸和田市,南町１３番２号,,27,202,5960067,,,,,,,2025-06-13,1,,,,,フジショウ,0
152,1120101071893,新規,0,2025-06-13,2025-06-13,株式会社ウルス,,株式会社,大阪府,堺市西区,浜寺元町５－７８８－１０,,27,144,5930000,,,,,,,2025-06-13,1,,,,,ウルス,0
157,1120901051054,新規,0,2025-06-13,2025-06-13,株式会社八輝,,株式会社,大阪府,高槻市,南平台１丁目６－２０－２,,27,207,5691042,,,,,,,2025-06-13,1,,,,,ヤコウ,0
159,1122001039343,新規,0,2025-06-13,2025-06-13,株式会社サマディエアー,,株式会社,大阪府,東大阪市,菱屋東１丁目８番３号ＡＺＴＯ菱屋東Ｋ号,,27,227,5780948,,,,,,,2025-06-13,1,,,,,サマディエアー,0
163,1130001079879,新規,0,2025-06-13,2025-06-13,株式会社ティースター,,株式会社,京都府,京都市伏見区,中島河原田町３１番地１グランデュール鴨川Ｉ番館２０３,00139562,26,109,6128469,,,,,,,2025-06-13,1,,,,,ティースター,0
171,1140001138923,新規,0,2025-06-13,2025-06-13,株式会社ＤＩＮ　ＭＵＨＡＭＭＡＤ,,株式会社,兵庫県,神戸市東灘区,渦森台１丁目５４－１０３渦森コーポＢ棟５０３,,28,101,6580066,,,,,,,2025-06-13,1,,,,,ディンムハンマド,0
172,1140001138956,新規,0,2025-06-13,2025-06-13,株式会社Ｚｅｒｏ　Ｃｌｏｕｄ,,株式会社,兵庫県,神戸市中央区,磯辺通１丁目１番１８号カサベラ国際プラザビル７０７号室,,28,110,6510084,,,,,,,2025-06-13,1,,,,,ゼロクラウド,0
177,1140003022191,新規,0,2025-06-13,2025-06-13,合同会社ＣｒｏｓｓＰｈｙｓｉｏ,,合同会社,兵庫県,神戸市東灘区,御影本町６丁目１５番１０号,,28,101,6580046,,,,,,,2025-06-13,1,,,,,クロスフィジオ,0
178,1140003022217,新規,0,2025-06-13,2025-06-13,合同会社ＪＰ　ＰＬＡＮＴ,,合同会社,兵庫県,尼崎市,栗山町２丁目２２－２５,,28,202,6610013,,,,,,,2025-06-13,1,,,,,ジェイピープラント,0
181,1150005009707,新規,0,2025-06-13,2025-06-13,一般社団法人あわい環境デザイン,,その他の設立登記法人,奈良県,生駒市,西白庭台１丁目２番地１,,29,209,6300137,,,,,,,2025-06-13,1,,,,,アワイカンキョウデザイン,0
192,1180001167308,新規,0,2025-06-13,2025-06-13,三浦商店株式会社,,株式会社,愛知県,名古屋市昭和区,小桜町２丁目１６番地,,23,107,4660012,,,,,,,2025-06-13,1,,,,,ミウラショウテン,0
197,1180003028623,新規,0,2025-06-13,2025-06-13,Ｇａｕｒｉｓｈａｎｋａｒ合同会社,,合同会社,愛知県,名古屋市中村区,佐古前町１６番６号,,23,105,4530018,,,,,,,2025-06-13,1,,,,,ガウリサンカル,0
212,1220003004058,新規,0,2025-06-13,2025-06-13,合同会社７８０４４,,合同会社,石川県,野々市市,粟田５丁目４７８番地,,17,212,9218823,,,,,,,2025-06-13,1,,,,,ナガレボシ,0
224,1250003003750,新規,0,2025-06-13,2025-06-13,合同会社ＲＩＭ,,合同会社,山口県,周南市,今宿町３丁目４番地,,35,215,7450074,,,,,,,2025-06-13,1,,,,,リム,0
230,1290001110371,新規,0,2025-06-13,2025-06-13,株式会社ＫＨＤ,,株式会社,福岡県,福岡市博多区,上川端町５番１０７号シャトー川端４０３号室,,40,132,8120026,,,,,,,2025-06-13,1,,,,,ケーエイチディー,0
232,1290003016922,新規,0,2025-06-13,2025-06-13,合同会社ミラシア,,合同会社,福岡県,福岡市中央区,天神４丁目９番１０号第２正友ビル,,40,133,8100001,,,,,,,2025-06-13,1,,,,,ミラシア,0
233,1290003016971,新規,0,2025-06-13,2025-06-13,合同会社レディオマーシャル,,合同会社,福岡県,福岡市中央区,天神２丁目２番１２号ＴＡＮＤＪビルディング７Ｆ,,40,133,8100001,,,,,,,2025-06-13,1,,,,,レディオマーシャル,0
234,1290003016988,新規,0,2025-06-13,2025-06-13,ＹＹサービス合同会社,,合同会社,福岡県,福岡市博多区,千代１丁目２番２３号,,40,132,8120044,,,,,,,2025-06-13,1,,,,,ワイワイサービス,0
235,1290801031627,新規,0,2025-06-13,2025-06-13,株式会社マリンケアーズ,,株式会社,福岡県,北九州市八幡東区,大蔵１丁目１番１－５０６号,,40,108,8050048,,,,,,,2025-06-13,1,,,,,マリンケアーズ,0
236,1300003002301,新規,0,2025-06-13,2025-06-13,合同会社ＦＩＶＥ　ＳＣＡＰＥ,,合同会社,佐賀県,三養基郡上峰町,大字坊所２４３１番地グリーンローズ一番館３０１,,41,345,8490123,,,,,,,2025-06-13,1,,,,,ファイブスケープ,0
244,1350003004953,新規,0,2025-06-13,2025-06-13,合同会社さくらヒルズ,,合同会社,宮崎県,宮崎市,霧島３丁目６７番地,,45,201,8800032,,,,,,,2025-06-13,1,,,,,サクラヒルズ,0
248,1360001035330,新規,0,2025-06-13,2025-06-13,Ｅｓｔａｔｅ絆株式会社,,株式会社,沖縄県,宜野湾市,普天間２丁目５番１０号２階１号室,,47,205,9012202,,,,,,,2025-06-13,1,,,,,エステートキズナ,0
250,1360003015017,新規,0,2025-06-13,2025-06-13,合同会社ネオフィーロ沖縄,,合同会社,沖縄県,中頭郡北中城村,字大城１７６番地２,,47,327,9012314,,,,,,,2025-06-13,1,,,,,ネオフィーロオキナワ,0
251,1370001052705,新規,0,2025-06-13,2025-06-13,スパークプランニング仙台株式会社,,株式会社,宮城県,仙台市宮城野区,原町１丁目１番７３－６０３号,,04,102,9830841,,,,,,,2025-06-13,1,,,,,スパークプランニングセンダイ,0
252,1370003007137,新規,0,2025-06-13,2025-06-13,合同会社ＤａｉｓｙＨｏｍｅ,,合同会社,宮城県,仙台市青葉区,花壇３番１－３１７号,,04,101,9800815,,,,,,,2025-06-13,1,,,,,デイジーホーム,0
253,1370003007145,新規,0,2025-06-13,2025-06-13,ＳＯＷＤＡＮＥ合同会社,,合同会社,宮城県,仙台市青葉区,一番町１丁目８－１０京成壱番町ビル５０３,,04,101,9800811,,,,,,,2025-06-13,1,,,,,ソダネ,0
276,1430001094641,新規,0,2025-06-13,2025-06-13,ｌｅｏｎ株式会社,,株式会社,北海道,樺戸郡新十津川町,字中央５１４番地５,,01,432,0731103,,,,,,,2025-06-13,1,,,,,レオン,0
282,1450001014647,新規,0,2025-06-13,2025-06-13,株式会社涼光,,株式会社,北海道,留萌市,東雲町２丁目９－６アルソス１２０２号室,,01,212,0770011,,,,,,,2025-06-13,1,,,,,リョウコウ,0
289,1462505000295,新規,0,2025-06-13,2025-06-13,一般社団法人別海ブランドストーリー,,その他の設立登記法人,北海道,野付郡別海町,別海常盤町２４９番地の４,,01,691,0860205,,,,,,,2025-06-13,1,,,,,ベツカイブランドストーリー,0
290,1470001020759,新規,0,2025-06-13,2025-06-13,株式会社Ａ．Ｏ．建設,,株式会社,香川県,三豊市,高瀬町下勝間１２５１番地２５９,,37,208,7670011,,,,,,,2025-06-13,1,,,,,エーオーケンセツ,0
291,1480001012862,新規,0,2025-06-13,2025-06-13,株式会社翔,,株式会社,徳島県,小松島市,芝生町字東居屋敷１２番地の２,,36,203,7730009,,,,,,,2025-06-13,1,,,,,ショウ,0
292,1490001011079,新規,0,2025-06-13,2025-06-13,株式会社四万十甘熟みかん園,,株式会社,高知県,四万十市,双海８９２番地１,,39,210,7870153,,,,,,,2025-06-13,1,,,,,シマントカンジュクミカンエン,0
293,1500003003535,新規,0,2025-06-13,2025-06-13,合同会社学習塾愛媛アカデミー,,合同会社,愛媛県,松山市,宮西２丁目５番１９号,,38,201,7900065,,,,,,,2025-06-13,1,,,,,ガクシュウジュクエヒメアカデミー,0
294,1700150131036,新規,0,2025-06-13,2025-06-13,ＤｏｎｇＧｕａｎＳｈｉＱｉＸｉｎＺｈｅＳｈａｎｇＭａｏＹｏｕＸｉａｎＧｏｎｇＳｉ,,外国会社等,,,,,,,,Ｈｕｍｅｎｚｈｅｎｂｅｉｄｉｍｉａｏｑｉｘｉａｎｇ７ｈａｏ２０１ｆａｎｇ　Ｄｏｎｇｇｕａｎｓｈｉ　Ｇｕａｎｇｄｏｎｇｓｈｅｎｇ,,,,,,2025-06-13,1,,,,,ドングゥアンシチシンゼイシャンマオユウゲンコウシ,0
299,2010001255978,新規,0,2025-06-13,2025-06-13,株式会社Ｓｕｚｕｍｅｙａ,,株式会社,東京都,中央区,築地６丁目２１－１,,13,102,1040045,,,,,,,2025-06-13,1,,,,,スズメヤ,0
303,2010003047671,新規,0,2025-06-13,2025-06-13,上野合同会社,,合同会社,東京都,千代田区,神田小川町３丁目２６番８号神田小川町三丁目ビル６階,,13,101,1010052,,,,,,,2025-06-13,1,,,,,ウエノ,0
319,2010401190949,新規,0,2025-06-13,2025-06-13,株式会社ＧｅＳｔｅｌｌａｒ,,株式会社,東京都,港区,赤坂９丁目４－１檜町ザタワー,,13,103,1070052,,,,,,,2025-06-13,1,,,,,ジーステラ,0
320,2010401191063,新規,0,2025-06-13,2025-06-13,株式会社ロマンスグループ,,株式会社,東京都,港区,北青山１丁目３－３三橋ビル３階,,13,103,1070061,,,,,,,2025-06-13,1,,,,,ロマンスグループ,0
327,2010403035350,新規,0,2025-06-13,2025-06-13,合同会社ＥＡＣＹ,,合同会社,東京都,港区,新橋４丁目１４番１新橋ＡＵＮＢＬＤＧ４階,,13,103,1050004,,,,,,,2025-06-13,1,,,,,イーシー,0
358,2011103015997,新規,0,2025-06-13,2025-06-13,合同会社Ｎコミ,,合同会社,東京都,新宿区,西新宿３丁目３番１３号西新宿水間ビル２Ｆ,,13,104,1600023,,,,,,,2025-06-13,1,,,,,エヌコミ,0
359,2011103016013,新規,0,2025-06-13,2025-06-13,ｍｏｅｖ合同会社,,合同会社,東京都,新宿区,新宿１丁目２３番６号,,13,104,1600022,,,,,,,2025-06-13,1,,,,,ムーエブ,0
360,2011501032198,新規,0,2025-06-13,2025-06-13,株式会社クラブ,,株式会社,東京都,北区,浮間５丁目１７番２４－９０５号,,13,117,1150051,,,,,,,2025-06-13,1,,,,,クラブ,0
372,2011803006916,新規,0,2025-06-13,2025-06-13,合同会社冬羽,,合同会社,東京都,足立区,皿沼１丁目４番２号,,13,121,1230862,,,,,,,2025-06-13,1,,,,,トウウ,0
379,2012803003738,新規,0,2025-06-13,2025-06-13,ＴＭＲＴＣ合同会社,,合同会社,東京都,日野市,日野本町３丁目１３－１高木ビル１Ｆ,,13,212,1910011,,,,,,,2025-06-13,1,,,,,ティーエムアールティーシー,0
380,2013301054422,新規,0,2025-06-13,2025-06-13,株式会社都多,,株式会社,東京都,豊島区,池袋３丁目４８番６号,,13,116,1710014,,,,,,,2025-06-13,1,,,,,ツタ,0
384,2020001163346,新規,0,2025-06-13,2025-06-13,株式会社鵬程万里,,株式会社,神奈川県,川崎市川崎区,本町１丁目５番地４アドヴァンス川崎駅前６０３,,14,131,2100001,,,,,,,2025-06-13,1,,,,,ホウテイバンリ,0
385,2020001163354,新規,0,2025-06-13,2025-06-13,株式会社ＯＰＰＯＲＴＵＮＩＴＹ　ＬＩＶＥ,,株式会社,神奈川県,横浜市青葉区,美しが丘４丁目１番１１号,,14,117,2250002,,,,,,,2025-06-13,1,,,,,オポチュニティーライブ,0
386,2020001163404,新規,0,2025-06-13,2025-06-13,株式会社ＳｑｕａｒｅＫｎｏｔ,,株式会社,神奈川県,横浜市鶴見区,向井町１丁目３６番地４,,14,101,2300037,,,,,,,2025-06-13,1,,,,,スクエアノット,0
387,2020001163412,新規,0,2025-06-13,2025-06-13,株式会社三共ホームズ,,株式会社,神奈川県,横浜市戸塚区,舞岡町３３５７－９,,14,110,2440813,,,,,,,2025-06-13,1,,,,,サンキョウホームズ,0
391,2021001085423,新規,0,2025-06-13,2025-06-13,わんだにゃー株式会社,,株式会社,神奈川県,藤沢市,石川６丁目３番地の２７,,14,205,2520815,,,,,,,2025-06-13,1,,,,,ワンダニャー,0
392,2021001085506,新規,0,2025-06-13,2025-06-13,株式会社デンタルメンテナンス,,株式会社,神奈川県,相模原市南区,麻溝台８丁目３２番２２号,,14,153,2520328,,,,,,,2025-06-13,1,,,,,デンタルメンテナンス,0
402,2030001167008,新規,0,2025-06-13,2025-06-13,株式会社ネットでしょ,,株式会社,埼玉県,草加市,青柳４丁目７－１７,,11,221,3400002,,,,,,,2025-06-13,1,,,,,ネットデショ,0
403,2030001167032,新規,0,2025-06-13,2025-06-13,株式会社ノア・アグリテックジャパン,,株式会社,埼玉県,深谷市,武蔵野３４１１番地,,11,218,3691241,,,,,,,2025-06-13,1,,,,,ノアアグリテックジャパン,0
404,2030001167073,新規,0,2025-06-13,2025-06-13,株式会社Ｔｏｍｏｈｉｓａ　Ｃｏｍｐａｎｙ,,株式会社,埼玉県,さいたま市北区,吉野町１丁目３８７番地１４サンライフ吉野２０１号室,,11,102,3310811,,,,,,,2025-06-13,1,,,,,トモヒサカンパニー,0
406,2030003026962,新規,0,2025-06-13,2025-06-13,合同会社プラチナサービス,,合同会社,埼玉県,戸田市,上戸田４丁目２番６－９０１号,,11,224,3350022,,,,,,,2025-06-13,1,,,,,プラチナサービス,0
407,2030003026987,新規,0,2025-06-13,2025-06-13,合同会社上雲,,合同会社,埼玉県,さいたま市大宮区,桜木町２丁目３番地大宮マルイ７階,,11,103,3300854,,,,,,,2025-06-13,1,,,,,ウエクモ,0
412,2030005022191,新規,0,2025-06-13,2025-06-13,ＮＰＯ法人にじいろおくるみ,,その他の設立登記法人,埼玉県,戸田市,大字新曽２５４３番地の１,,11,224,3350021,,,,,,,2025-06-13,1,,,,,ニジイロオクルミ,0
423,2040001139220,新規,0,2025-06-13,2025-06-13,ファーストラスト・ファクトリ株式会社,,株式会社,千葉県,千葉市中央区,松波２丁目１８番８号新葉ビル３Ｆ－Ａ,,12,101,2600044,,,,,,,2025-06-13,1,,,,,ファーストラストファクトリ,0
425,2050001056811,新規,0,2025-06-13,2025-06-13,一霖株式会社,,株式会社,茨城県,鉾田市,徳宿１６９６番地２,,08,234,3111503,,,,,,,2025-06-13,1,,,,,イチリン,0
429,2060005010350,新規,0,2025-06-13,2025-06-13,労働者協同組合ＳＣ企画,,その他の設立登記法人,栃木県,栃木市,富士見町３番２７号,,09,203,3280044,,,,,,,2025-06-13,1,,,,,エスシーキカク,0
435,2080001026984,新規,0,2025-06-13,2025-06-13,株式会社ＳｉｌｖｅｒＲａｂｂｉｔ,,株式会社,静岡県,静岡市駿河区,池田１０２８番地,,22,102,4228005,,,,,,,2025-06-13,1,,,,,シルバーラビット,0
436,2080003003478,新規,0,2025-06-13,2025-06-13,合同会社ファーマメント,,合同会社,静岡県,藤枝市,高洲６３番地の２２,,22,214,4260046,,,,,,,2025-06-13,1,,,,,ファーマメント,0
437,2080005007700,新規,0,2025-06-13,2025-06-13,弁護士法人新静岡駅前法律事務所,,その他の設立登記法人,静岡県,静岡市葵区,御幸町３－２１ペガサート３階Ｎｏ．３０４,,22,101,4200857,,,,,,,2025-06-13,1,,,,,シンシズオカエキマエホウリツジムショ,0
439,2080101025564,新規,0,2025-06-13,2025-06-13,株式会社Ｆｒａｇｒａｎｔｉａ,,株式会社,静岡県,富士市,松本１７０番地の４,,22,210,4160903,,,,,,,2025-06-13,1,,,,,フレグランティア,0
440,2080405007746,新規,0,2025-06-13,2025-06-13,一般社団法人Ｆａｃｔｏｒｙ　Ｐｒｉｄｅ　Ａｓｓｏｃｉａｔｉｏｎ,,その他の設立登記法人,静岡県,掛川市,下垂木２３６１番地,,22,213,4360222,,,,,,,2025-06-13,1,,,,,ファクトリープライドアソシエーション,0
446,2120001276798,新規,0,2025-06-13,2025-06-13,ＦＯＲＥＳＥＥ　ＡＳＳＥＴＳ株式会社,,株式会社,大阪府,大阪市都島区,中野町４丁目３番６号Ｈ２Ｈ大阪桜之宮邸５Ｅ－４,,27,102,5340027,,,,,,,2025-06-13,1,,,,,フォーシーアセッツ,0
452,2120101071884,新規,0,2025-06-13,2025-06-13,Ａ　ＬＩＮＥ株式会社,,株式会社,大阪府,和泉市,下宮町２０９,,27,219,5941121,,,,,,,2025-06-13,1,,,,,エーライン,0
453,2120101071892,新規,0,2025-06-13,2025-06-13,紀洋設備工業株式会社,,株式会社,大阪府,貝塚市,森３８１番地１,,27,208,5970044,,,,,,,2025-06-13,1,,,,,キヨウセツビコウギョウ,0
454,2120101071901,新規,0,2025-06-13,2025-06-13,株式会社リヴァ・ウエスト,,株式会社,大阪府,岸和田市,藤井町２丁目１８番９号,,27,202,5960046,,,,,,,2025-06-13,1,,,,,リヴァウエスト,0
457,2120103006517,新規,0,2025-06-13,2025-06-13,正栄商貿合同会社,,合同会社,大阪府,岸和田市,天神山町２丁目９番６号２０３号室,,27,202,5960834,,,,,,,2025-06-13,1,,,,,ショウエイショウボウ,0
462,2120903005718,新規,0,2025-06-13,2025-06-13,ＳＯＬＵＣＩＡ合同会社,,合同会社,大阪府,豊中市,豊南町西２丁目２番１０の１号,,27,203,5610816,,,,,,,2025-06-13,1,,,,,ソルシア,0
467,2130001079878,新規,0,2025-06-13,2025-06-13,株式会社オフィスＫＯＭＩ,,株式会社,京都府,長岡京市,今里川原１－５７,,26,209,6170814,,,,,,,2025-06-13,1,,,,,オフィスコミ,0
479,2140001138897,新規,0,2025-06-13,2025-06-13,株式会社Ａｚｕｌ,,株式会社,兵庫県,川西市,水明台３丁目３番地の３３,,28,217,6660116,,,,,,,2025-06-13,1,,,,,アズール,0
480,2140001138922,新規,0,2025-06-13,2025-06-13,株式会社ＨＪクラウン,,株式会社,兵庫県,西宮市,馬場町２番３２号シンヨコビル２階北,,28,204,6620915,,,,,,,2025-06-13,1,,,,,,0
494,2180001167273,新規,0,2025-06-13,2025-06-13,絶好調株式会社,,株式会社,愛知県,名古屋市中区,栄３丁目１９番２０号ＧＬ栄ビル１Ｆ,,23,106,4600008,,,,,,,2025-06-13,1,,,,,ゼッコウチョウ,0
496,2180301039908,新規,0,2025-06-13,2025-06-13,株式会社キャンパスサービス,,株式会社,愛知県,額田郡幸田町,大字菱池字銘鍛治１６１番地,,23,501,4440113,,,,,,,2025-06-13,1,,,,,キャンパスサービス,0
502,2200001043892,新規,0,2025-06-13,2025-06-13,株式会社えもん,,株式会社,岐阜県,中津川市,中津川３２７３番地の２６,,21,206,5080001,,,,,,,2025-06-13,1,,,,,エモン,0
509,2270001009219,新規,0,2025-06-13,2025-06-13,株式会社ゆらり,,株式会社,鳥取県,鳥取市,岩吉１９４－６,,31,201,6800931,,,,,,,2025-06-13,1,,,,,ユラリ,0
518,2310001019650,新規,0,2025-06-13,2025-06-13,晴川株式会社,,株式会社,長崎県,長崎市,江平２丁目８番１８号,,42,201,8528101,,,,,,,2025-06-13,1,,,,,ハレカワ,0
521,2330001033294,新規,0,2025-06-13,2025-06-13,株式会社ＧＯ吾ＨＡＰＰＹフード,,株式会社,熊本県,熊本市西区,上熊本１丁目３番１７号,,43,103,8600079,,,,,,,2025-06-13,1,,,,,ゴーゴーハッピーフード,0
522,2330001033303,新規,0,2025-06-13,2025-06-13,株式会社ごとう屋,,株式会社,熊本県,阿蘇市,狩尾１３９８番地,,43,214,8692235,,,,,,,2025-06-13,1,,,,,ゴトウヤ,0
524,2340001027428,新規,0,2025-06-13,2025-06-13,株式会社アイランドフィルムズ,,株式会社,鹿児島県,熊毛郡屋久島町,尾之間１１０９番地３,,46,505,8914404,,,,,,,2025-06-13,1,,,,,アイランドフィルムズ,0
528,2350001019589,新規,0,2025-06-13,2025-06-13,株式会社賢山,,株式会社,宮崎県,えびの市,大字西郷２７０番地,,45,209,8894241,,,,,,,2025-06-13,1,,,,,ケンザン,0
534,2370001052704,新規,0,2025-06-13,2025-06-13,株式会社カーライフ,,株式会社,宮城県,大崎市,古川西館３丁目４－１５,,04,215,9896156,,,,,,,2025-06-13,1,,,,,カーライフ,0
535,2370003007144,新規,0,2025-06-13,2025-06-13,合同会社ＬＥ　ＬＩＥＮ,,合同会社,宮城県,柴田郡大河原町,字新青川１１番地７南棟,,04,321,9891264,,,,,,,2025-06-13,1,,,,,ルリアン,0
543,2390001018018,新規,0,2025-06-13,2025-06-13,株式会社マルカ東根,,株式会社,山形県,東根市,大字野田５８０番地,,06,211,9993775,,,,,,,2025-06-13,1,,,,,マルカヒガシネ,0
548,2420001019177,新規,0,2025-06-13,2025-06-13,株式会社ｏｍｎｉ,,株式会社,青森県,青森市,古川１丁目１７番５号,,02,201,0300862,,,,,,,2025-06-13,1,,,,,オムニ,0
551,2430001094649,新規,0,2025-06-13,2025-06-13,株式会社クレア,,株式会社,北海道,札幌市豊平区,月寒東三条１９丁目１３番５－１０２号,,01,105,0620053,,,,,,,2025-06-13,1,,,,,クレア,0
552,2430003017764,新規,0,2025-06-13,2025-06-13,合同会社エムケーオフィス,,合同会社,北海道,札幌市白石区,平和通２丁目南６番３４－１１０号,,01,104,0030028,,,,,,,2025-06-13,1,,,,,エムケーオフィス,0
555,2470001020758,新規,0,2025-06-13,2025-06-13,株式会社ｅｓｔ,,株式会社,香川県,高松市,亀井町８番地１・４階,,37,201,7600050,,,,,,,2025-06-13,1,,,,,,0
556,2470003002903,新規,0,2025-06-13,2025-06-13,合同会社ＲＩＯ,,合同会社,香川県,観音寺市,大野原町大野原５４２９－１,,37,205,7691611,,,,,,,2025-06-13,1,,,,,,0
559,2700150131035,新規,0,2025-06-13,2025-06-13,ＭＡＴＬＡＢ　ＰＴＹＬＴＤ,,外国会社等,,,,,,,,３９Ｍｕｌｈａｌｌ　ｄｒｉｖｅ　Ｓｔ．Ａｌｂａｎｓ　Ｍｅｌｂｏｕｒｎｅ，Ｖｉｃｔｏｒｉａ３０２１　Ａｕｓｔｒａｌｉａ,,,,,,2025-06-13,1,,,,,マトラボ,0
565,3010001255952,新規,0,2025-06-13,2025-06-13,株式会社ピースクリエイション,,株式会社,東京都,千代田区,有楽町１丁目１３番２号第一生命日比谷ファースト,,13,101,1000006,,,,,,,2025-06-13,1,,,,,ピースクリエイション,0
567,3010003047670,新規,0,2025-06-13,2025-06-13,恵比寿合同会社,,合同会社,東京都,千代田区,神田小川町３丁目２６番８号神田小川町三丁目ビル６階,,13,101,1010052,,,,,,,2025-06-13,1,,,,,エビス,0
576,3010401190824,新規,0,2025-06-13,2025-06-13,株式会社ジーグラビティ,,株式会社,東京都,港区,虎ノ門３丁目１７番１号,,13,103,1050001,,,,,,,2025-06-13,1,,,,,ジーグラビティ,0
577,3010401190832,新規,0,2025-06-13,2025-06-13,Ｗｅａｌｔｈ　Ｌｉｎｋ株式会社,,株式会社,東京都,港区,愛宕２丁目５番１号愛宕グリーンヒルズＭＯＲＩタワー３４階,,13,103,1050002,,,,,,,2025-06-13,1,,,,,ウェルスリンク,0
578,3010401191038,新規,0,2025-06-13,2025-06-13,Ａｌｇｉｏｎ株式会社,,株式会社,東京都,港区,南青山３丁目１番３６号青山丸竹ビル６Ｆ,,13,103,1070062,,,,,,,2025-06-13,1,,,,,アルジオン,0
579,3010401191079,新規,0,2025-06-13,2025-06-13,Ｅｄｇｅ＆Ｔａｌｅｎｔ　Ｗｏｒｋｓ株式会社,,株式会社,東京都,港区,赤坂２丁目１４－５Ｄａｉｗａ赤坂ビル７Ｆ,,13,103,1070052,,,,,,,2025-06-13,1,,,,,エッジアンドタレントワークス,0
588,3010703007759,新規,0,2025-06-13,2025-06-13,Ｈｉｌｌ　Ｈｕｅｓ合同会社,,合同会社,東京都,品川区,南品川５丁目１０番２７号,,13,109,1400004,,,,,,,2025-06-13,1,,,,,ヒルヒューズ,0
590,3010805003185,新規,0,2025-06-13,2025-06-13,一般社団法人セレナケアメディカ,,その他の設立登記法人,東京都,大田区,上池台５丁目１６番５号,,13,111,1450064,,,,,,,2025-06-13,1,,,,,セレナケアメディカ,0
596,3011001170142,新規,0,2025-06-13,2025-06-13,株式会社ＦＯＵＲ　ＯＵＲ,,株式会社,東京都,目黒区,目黒２丁目１２番１０－Ｂ２０２号,,13,110,1530063,,,,,,,2025-06-13,1,,,,,フォーアワー,0
597,3011003021698,新規,0,2025-06-13,2025-06-13,合同会社スイッチメディア,,合同会社,東京都,渋谷区,道玄坂１丁目１０番８号渋谷道玄坂東急ビル２Ｆ－Ｃ,,13,113,1500043,,,,,,,2025-06-13,1,,,,,スイッチメディア,0
599,3011101112060,新規,0,2025-06-13,2025-06-13,株式会社ラスク,,株式会社,東京都,新宿区,早稲田南町３０番地,,13,104,1620043,,,,,,,2025-06-13,1,,,,,ラスク,0
600,3011103015996,新規,0,2025-06-13,2025-06-13,Ｂｌｕｅｂｉｒｄ　Ｈｏｕｓｉｎｇ合同会社,,合同会社,東京都,新宿区,西新宿３丁目３番１３号西新宿水間ビル６階,,13,104,1600023,,,,,,,2025-06-13,1,,,,,ブルーバードハウジング,0
610,3012401043210,新規,0,2025-06-13,2025-06-13,株式会社Ｌｅｉｏｍａｎｏ,,株式会社,東京都,武蔵野市,吉祥寺本町２丁目８番４号ｉ－Ｏｆｆｉｃｅ吉祥寺,,13,203,1800004,,,,,,,2025-06-13,1,,,,,レイオマノ,0
611,3012405005124,新規,0,2025-06-13,2025-06-13,一般社団法人国際人権啓発センター,,その他の設立登記法人,東京都,武蔵野市,御殿山１丁目１１番１２－１０７号吉祥寺御殿山ＨＯＵＳＥ,,13,203,1800005,,,,,,,2025-06-13,1,,,,,コクサイジンケンケイハツセンター,0
614,3013301054363,新規,0,2025-06-13,2025-06-13,日栄商事株式会社,,株式会社,東京都,豊島区,高田３丁目７－１７安斎ビル２０８号室,,13,116,1710033,,,,,,,2025-06-13,1,,,,,ニチエイショウジ,0
615,3013301054413,新規,0,2025-06-13,2025-06-13,明翔株式会社,,株式会社,東京都,豊島区,池袋２丁目７１－９エクセルコート２０２,,13,116,1710014,,,,,,,2025-06-13,1,,,,,メイショウ,0
620,3020001163329,新規,0,2025-06-13,2025-06-13,株式会社ＬＥグランテック,,株式会社,神奈川県,横浜市金沢区,幸浦２丁目１０－４,,14,108,2360003,,,,,,,2025-06-13,1,,,,,エルイーグランテック,0
621,3020001163345,新規,0,2025-06-13,2025-06-13,株式会社宮結興業,,株式会社,神奈川県,川崎市幸区,戸手１丁目１番３－２０２号,,14,132,2120005,,,,,,,2025-06-13,1,,,,,ミヤユイコウギョウ,0
622,3020001163361,新規,0,2025-06-13,2025-06-13,株式会社ミコユニバース,,株式会社,神奈川県,横浜市中区,海岸通１丁目３番海事ビル３階,,14,104,2310002,,,,,,,2025-06-13,1,,,,,ミコユニバース,0
626,3020003028711,新規,0,2025-06-13,2025-06-13,アーチーズ・プロパティーズ合同会社,,合同会社,神奈川県,横浜市旭区,中沢１丁目４９番地２８,,14,112,2410814,,,,,,,2025-06-13,1,,,,,アーチーズプロパティーズ,0
627,3021001085505,新規,0,2025-06-13,2025-06-13,アートスタイル不動産株式会社,,株式会社,神奈川県,綾瀬市,小園１７２番地６,,14,218,2521121,,,,,,,2025-06-13,1,,,,,アートスタイルフドウサン,0
630,3021003016144,新規,0,2025-06-13,2025-06-13,合名会社夢見鳥もなか,,合名会社,神奈川県,鎌倉市,台４丁目１６番１６号,,14,204,2470061,,,,,,,2025-06-13,1,,,,,ユメミドリモナカ,0
639,3030003026986,新規,0,2025-06-13,2025-06-13,ＶＡＬＬＥＡＧＬＥ合同会社,,合同会社,埼玉県,北足立郡伊奈町,栄６丁目１４番地５号,,11,301,3620805,,,,,,,2025-06-13,1,,,,,バレイグル,0
640,3030003026994,新規,0,2025-06-13,2025-06-13,合同会社アート印刷研究所,,合同会社,埼玉県,川口市,芝２丁目１７番２６号,,11,203,3330866,,,,,,,2025-06-13,1,,,,,アートインサツケンキュウジョ,0
645,3040001139236,新規,0,2025-06-13,2025-06-13,株式会社宏悦,,株式会社,千葉県,印西市,西の原４丁目２００番地１９２,,12,231,2701334,,,,,,,2025-06-13,1,,,,,コウエツ,0
646,3040001139310,新規,0,2025-06-13,2025-06-13,株式会社ふるさとモア,,株式会社,千葉県,八千代市,八千代台北８丁目７番地６号,,12,221,2760031,,,,,,,2025-06-13,1,,,,,フルサトモア,0
651,3040003027802,新規,0,2025-06-13,2025-06-13,嘉匯合同会社,,合同会社,千葉県,鎌ケ谷市,南鎌ケ谷１丁目８番２７号１０２号室,,12,224,2730106,,,,,,,2025-06-13,1,,,,,カカイ,0
652,3040003027810,新規,0,2025-06-13,2025-06-13,合同会社ひまりな,,合同会社,千葉県,千葉市中央区,南町２丁目１７番１６－１４０１号,,12,101,2600842,,,,,,,2025-06-13,1,,,,,ヒマリナ,0
653,3040003027819,新規,0,2025-06-13,2025-06-13,合同会社日本健康粧品研究所,,合同会社,千葉県,千葉市花見川区,長作町１２３１－５－５０９,,12,102,2620044,,,,,,,2025-06-13,1,,,,,ニホンケンコウショウヒンケンキュウジョ,0
656,3050001056810,新規,0,2025-06-13,2025-06-13,里程株式会社,,株式会社,茨城県,鉾田市,鉾田２３３２番,,08,234,3111517,,,,,,,2025-06-13,1,,,,,リテイ,0
657,3050005013642,新規,0,2025-06-13,2025-06-13,一般社団法人ｍｉｋｋｅ,,その他の設立登記法人,茨城県,守谷市,百合ケ丘３丁目２５９２番地の１４,,08,224,3020110,,,,,,,2025-06-13,1,,,,,ミッケ,0
659,3060003005574,新規,0,2025-06-13,2025-06-13,合同会社カイト,,合同会社,栃木県,足利市,江川町４３４－１,,09,202,3260067,,,,,,,2025-06-13,1,,,,,カイト,0
661,3070001043030,新規,0,2025-06-13,2025-06-13,ＤＮ＆Ｈ株式会社,,株式会社,群馬県,藤岡市,中栗須３２３番地１５,,10,209,3750015,,,,,,,2025-06-13,1,,,,,ディーエヌアンドエイチ,0
668,3110001039354,新規,0,2025-06-13,2025-06-13,株式会社ｓｎｏｗｒｉｓｅ,,株式会社,新潟県,南魚沼郡湯沢町,大字土樽４３番地１６－８０２号,00139563,15,461,9496103,,,,,,,2025-06-13,1,,,,,スノーライズ,0
669,3110003005791,新規,0,2025-06-13,2025-06-13,ノマス合同会社,,合同会社,新潟県,南魚沼郡湯沢町,大字湯沢２１２５番ラヴィ湯沢２０５室,,15,461,9496101,,,,,,,2025-06-13,1,,,,,ノマス,0
677,3120001276806,新規,0,2025-06-13,2025-06-13,源一株式会社,,株式会社,大阪府,大阪市西成区,岸里東１丁目２２－１－１０１号室,,27,122,5570042,,,,,,,2025-06-13,1,,,,,ゲンイチ,0
678,3120001276822,新規,0,2025-06-13,2025-06-13,ＴＫ株式会社,,株式会社,大阪府,大阪市中央区,南本町１丁目６番７号,,27,128,5410054,,,,,,,2025-06-13,1,,,,,ティーケー,0
679,3120001276847,新規,0,2025-06-13,2025-06-13,千里馬株式会社,,株式会社,大阪府,大阪市住吉区,南住吉１丁目８番２２－３０１号,,27,120,5580041,,,,,,,2025-06-13,1,,,,,センリマ,0
680,3120001276855,新規,0,2025-06-13,2025-06-13,株式会社リユースキャピタル,,株式会社,大阪府,大阪市北区,中崎西４丁目３番３２号ＡＲＣＡ梅田１０階,,27,127,5300015,,,,,,,2025-06-13,1,,,,,リユースキャピタル,0
681,3120001276871,新規,0,2025-06-13,2025-06-13,株式会社ＭｕｓｕＢｅｅ,,株式会社,大阪府,大阪市北区,梅田１丁目２番２号大阪駅前第２ビル１２－１２,,27,127,5300001,,,,,,,2025-06-13,1,,,,,ムスビー,0
682,3120003029716,新規,0,2025-06-13,2025-06-13,合同会社ＴＯＭ　ＦＯＯＤ,,合同会社,大阪府,大阪市生野区,新今里４丁目１０－３－１０２号,,27,116,5440001,,,,,,,2025-06-13,1,,,,,トムフッド,0
683,3120003029757,新規,0,2025-06-13,2025-06-13,合同会社Ｓｕｎｒｉｓｅ＆Ｃｏ．,,合同会社,大阪府,大阪市中央区,南船場３丁目２番２２号おおきに南船場ビル２０５,,27,128,5420081,,,,,,,2025-06-13,1,,,,,サンライズアンドコー,0
686,3120103006516,新規,0,2025-06-13,2025-06-13,ｍｏｔｏ　ＴＲＡＤＩＮＧ合同会社,,合同会社,大阪府,松原市,上田２丁目１４番１２号,,27,217,5800016,,,,,,,2025-06-13,1,,,,,モトトレーディング,0
689,3120901051052,新規,0,2025-06-13,2025-06-13,Ｋ・Ｐ・Ｙ株式会社,,株式会社,大阪府,箕面市,箕面４丁目８－５０－１４,,27,220,5620001,,,,,,,2025-06-13,1,,,,,ケーピーワイ,0
699,3130003010501,新規,0,2025-06-13,2025-06-13,合同会社ＣＲＥＡＴＥ,,合同会社,京都府,京都市下京区,朱雀宝蔵町４４番地協栄ビル２階京都朱雀スタジオＡＰ３１０合同会社ＣＲＥＡＴＥ,,26,106,6008846,,,,,,,2025-06-13,1,,,,,クリエイト,0
702,3140001138896,新規,0,2025-06-13,2025-06-13,株式会社ＴＡＦホールディングス,,株式会社,兵庫県,南あわじ市,広田中筋１１３９番地１,,28,224,6560131,,,,,,,2025-06-13,1,,,,,タフホールディングス,0
703,3140001138921,新規,0,2025-06-13,2025-06-13,株式会社Ｍｉｒｉｎａ,,株式会社,兵庫県,たつの市,揖保川町片島９５２番地７,,28,229,6711651,,,,,,,2025-06-13,1,,,,,ミリナ,0
715,3180001167314,新規,0,2025-06-13,2025-06-13,株式会社Ｎｅｘｔｅｃｈ,,株式会社,愛知県,名古屋市南区,南野２丁目４６番地,,23,112,4570068,,,,,,,2025-06-13,1,,,,,ネクステック,0
718,3180003028596,新規,0,2025-06-13,2025-06-13,徒手療法大学合同会社,,合同会社,愛知県,名古屋市中区,千代田４丁目２３番２２号プラセシオン東別院１３０４号,,23,106,4600012,,,,,,,2025-06-13,1,,,,,トシュリョウホウダイガク,0
719,3180003028605,新規,0,2025-06-13,2025-06-13,メヌエット合同会社,,合同会社,愛知県,名古屋市千種区,内山３丁目２８番６号マンション森２Ａ,,23,101,4640075,,,,,,,2025-06-13,1,,,,,メヌエット,0
720,3180003028613,新規,0,2025-06-13,2025-06-13,ＣＪ　Ｔｒａｄｉｎｇ合同会社,,合同会社,愛知県,弥富市,三稲１丁目１０番２,,23,235,4980054,,,,,,,2025-06-13,1,,,,,シージェイトレーディング,0
724,3180301039907,新規,0,2025-06-13,2025-06-13,株式会社ＳＫ,,株式会社,愛知県,豊田市,今町１丁目７０番地１６,,23,211,4710823,,,,,,,2025-06-13,1,,,,,エスケー,0
730,3190001032302,新規,0,2025-06-13,2025-06-13,株式会社Ｒａｙ　Ｏｒｉｇｉｎ,,株式会社,三重県,津市,大門６番５号プライム津大門６０１,,24,201,5140027,,,,,,,2025-06-13,1,,,,,レイオリジン,0
739,3240003007255,新規,0,2025-06-13,2025-06-13,サン府中クラブ合同会社,,合同会社,広島県,安芸郡府中町,本町１丁目１２番３号,,34,302,7350006,,,,,,,2025-06-13,1,,,,,サンフチュウクラブ,0
742,3250003003749,新規,0,2025-06-13,2025-06-13,合同会社Ｆｉｌｌ　Ｇｏｌｄ　Ｊａｐａｎ,,合同会社,山口県,山陽小野田市,くし山１丁目９－１,,35,216,7560080,,,,,,,2025-06-13,1,,,,,フィルゴールドジャパン,0
748,3290001110279,新規,0,2025-06-13,2025-06-13,Ｔ＆Ｊグローリー株式会社,,株式会社,福岡県,久留米市,大善寺町黒田５３番地１,,40,203,8300075,,,,,,,2025-06-13,1,,,,,ティーアンドジェイグローリー,0
749,3290803005081,新規,0,2025-06-13,2025-06-13,合同会社かのん,,合同会社,福岡県,北九州市戸畑区,浅生２丁目８－１７,,40,105,8040062,,,,,,,2025-06-13,1,,,,,カノン,0
750,3300001014222,新規,0,2025-06-13,2025-06-13,株式会社栄医科器械,,株式会社,佐賀県,佐賀市,大和町大字久池井２１６６番地２Ｂ棟３,,41,201,8400202,,,,,,,2025-06-13,1,,,,,サカイイカキカイ,0
756,3330001033302,新規,0,2025-06-13,2025-06-13,株式会社ナガタ自動車,,株式会社,熊本県,天草市,久玉町５７１１番地３７,,43,215,8631902,,,,,,,2025-06-13,1,,,,,ナガタジドウシャ,0
757,3330005010925,新規,0,2025-06-13,2025-06-13,一般社団法人海岸漂着ゴミ資源化研究会,,その他の設立登記法人,熊本県,熊本市西区,城山下代４丁目５番８号,,43,103,8600066,,,,,,,2025-06-13,1,,,,,カイガンヒョウチャクゴミシゲンカケンキュウカイ,0
765,3360001035329,新規,0,2025-06-13,2025-06-13,株式会社ＦＭＮ,,株式会社,沖縄県,那覇市,松島１丁目１１番１１号ＮＦレジデンス真嘉比１０１,,47,201,9020069,,,,,,,2025-06-13,1,,,,,エフエムエヌ,0
766,3360001035345,新規,0,2025-06-13,2025-06-13,株式会社よなみね組,,株式会社,沖縄県,糸満市,字北波平２４９番地,,47,210,9010312,,,,,,,2025-06-13,1,,,,,ヨナミネグミ,0
768,3360003015015,新規,0,2025-06-13,2025-06-13,合同会社Ｎａｋａ７８１３,,合同会社,沖縄県,浦添市,城間４丁目１７番９－２０５号ｓｏｐｒａｔｉａｒ,,47,208,9012133,,,,,,,2025-06-13,1,,,,,ナカナナハチイチサン,0
770,3370001052694,新規,0,2025-06-13,2025-06-13,ＳＢＭ株式会社,,株式会社,宮城県,塩竈市,東玉川町４番３号ＯＭレジデンス塩釜駅前４１０号,,04,203,9850036,,,,,,,2025-06-13,1,,,,,エスビーエム,0
771,3370003007143,新規,0,2025-06-13,2025-06-13,合同会社ＳＴＵＤＩＯ　ＹＵＭＢＯ,,合同会社,宮城県,仙台市青葉区,中央２丁目１１番１９号仙南ビル４階－Ａ,,04,101,9800021,,,,,,,2025-06-13,1,,,,,スタジオユンボ,0
772,3370005010979,新規,0,2025-06-13,2025-06-13,医療法人エナメディカル,,その他の設立登記法人,宮城県,登米市,石越町南郷字矢作１４１番地２,,04,212,9894703,,,,,,,2025-06-13,1,,,,,エナメディカル,0
781,3420005007961,新規,0,2025-06-13,2025-06-13,税理士法人細越小原会計事務所,,その他の設立登記法人,青森県,八戸市,江陽２丁目１３番３３号,,02,203,0310801,,,,,,,2025-06-13,1,,,,,ホソゴエオバラカイケイジムショ,0
783,3430001094672,新規,0,2025-06-13,2025-06-13,株式会社グランディア,,株式会社,北海道,札幌市中央区,南二条西５丁目６－１－９１０,,01,101,0600062,,,,,,,2025-06-13,1,,,,,グランディア,0
788,3470001020757,新規,0,2025-06-13,2025-06-13,株式会社楽宿,,株式会社,香川県,高松市,香川町大野２６０番地８,,37,201,7611701,,,,,,,2025-06-13,1,,,,,,0
791,3700150131034,新規,0,2025-06-13,2025-06-13,ＹＵＥＣＯＲＰ．,,外国会社等,,,,,,,,Ｐａｌｍ　Ｇｒｏｖｅ　Ｈｏｕｓｅ，Ｐ．Ｏ．Ｂｏｘ４３８，Ｒｏａｄ　Ｔｏｗｎ，Ｔｏｒｔｏｌａ，Ｂｒｉｔｉｓｈ　Ｖｉｒｇｉｎ　Ｉｓｌａｎｄｓ,,,,,,2025-06-13,1,,,,,ユーコープ,0
799,4010001255984,新規,0,2025-06-13,2025-06-13,株式会社ＬａｎｄＭ,,株式会社,東京都,中央区,銀座１丁目１２番４号Ｎ＆ＥＢＬＤ．６Ｆ,,13,102,1040061,,,,,,,2025-06-13,1,,,,,ランドエム,0
803,4010003047678,新規,0,2025-06-13,2025-06-13,合同会社こでまりプロジェクト,,合同会社,東京都,千代田区,神田和泉町１番地６の１６ヤマトビル４０５,,13,101,1010024,,,,,,,2025-06-13,1,,,,,コデマリプロジェクト,0
816,4010401191029,新規,0,2025-06-13,2025-06-13,ＫＩＣＨＩＴＴＯ株式会社,,株式会社,東京都,港区,北青山１丁目３番１号アールキューブ青山３階,,13,103,1070061,,,,,,,2025-06-13,1,,,,,キチット,0
817,4010401191037,新規,0,2025-06-13,2025-06-13,株式会社朝吹,,株式会社,東京都,港区,赤坂４丁目５番２１－６０５号,,13,103,1070052,,,,,,,2025-06-13,1,,,,,アサブキ,0
818,4010401191053,新規,0,2025-06-13,2025-06-13,株式会社ＳＢインターナショナル,,株式会社,東京都,港区,新橋１丁目１８番２１号,,13,103,1050004,,,,,,,2025-06-13,1,,,,,エスビーインターナショナル,0
819,4010401191078,新規,0,2025-06-13,2025-06-13,ａｎｄｓ株式会社,,株式会社,東京都,港区,北青山１丁目３－３三橋ビル３階,,13,103,1070061,,,,,,,2025-06-13,1,,,,,アンズ,0
844,4010703007758,新規,0,2025-06-13,2025-06-13,合同会社ＡＫホーム,,合同会社,東京都,品川区,南品川５丁目１０番２７号,,13,109,1400004,,,,,,,2025-06-13,1,,,,,エイケイホーム,0
851,4010901057563,新規,0,2025-06-13,2025-06-13,イノーディア株式会社,,株式会社,東京都,世田谷区,砧６丁目６番１２号,,13,112,1570073,,,,,,,2025-06-13,1,,,,,イノーディア,0
853,4010903010009,新規,0,2025-06-13,2025-06-13,合同会社ＲＫ　Ｐａｒｔｎｅｒｓ,,合同会社,東京都,世田谷区,深沢１丁目３０番１２号,,13,112,1580081,,,,,,,2025-06-13,1,,,,,アールケーパートナーズ,0
858,4011001170091,新規,0,2025-06-13,2025-06-13,日・用・美株式会社,,株式会社,東京都,渋谷区,広尾５丁目４番１６号,,13,113,1500012,,,,,,,2025-06-13,1,,,,,,0
859,4011001170100,新規,0,2025-06-13,2025-06-13,株式会社ｐｒａｉ,,株式会社,東京都,渋谷区,神南１丁目１１－４ＦＰＧリンクス神南５階,,13,113,1500041,,,,,,,2025-06-13,1,,,,,プライ,0
860,4011001170158,新規,0,2025-06-13,2025-06-13,株式会社Ｗｕｎｉ,,株式会社,東京都,渋谷区,恵比寿２丁目８番４号ＥＸ恵比寿西ビル５階,,13,113,1500013,,,,,,,2025-06-13,1,,,,,ウニ,0
861,4011003021598,新規,0,2025-06-13,2025-06-13,合同会社Ｙｕｋａｒｉｍｉ,,合同会社,東京都,渋谷区,神南１丁目１１－４ＦＰＧリンクス神南５階,,13,113,1500041,,,,,,,2025-06-13,1,,,,,ユカリミ,0
862,4011003021813,新規,0,2025-06-13,2025-06-13,エメラルド合同会社,,合同会社,東京都,渋谷区,道玄坂１丁目１０番８号渋谷道玄坂東急ビル２Ｆ－Ｃ,,13,113,1500043,,,,,,,2025-06-13,1,,,,,エメラルド,0
867,4011103015987,新規,0,2025-06-13,2025-06-13,合同会社Ｋ２,,合同会社,東京都,新宿区,西新宿３丁目３番１３号西新宿水間ビル６階,,13,104,1600023,,,,,,,2025-06-13,1,,,,,ケーツー,0
873,4011601028730,新規,0,2025-06-13,2025-06-13,鑑真株式会社,,株式会社,東京都,練馬区,北町５丁目５－７かぼちゃの馬車平和台Ｖ２０１号室,,13,120,1790081,,,,,,,2025-06-13,1,,,,,ガンシン,0
875,4011701028374,新規,0,2025-06-13,2025-06-13,ＰＥＣＯＰＥＣＯ株式会社,,株式会社,東京都,江戸川区,南小岩３丁目１３番７号,,13,123,1330056,,,,,,,2025-06-13,1,,,,,ペコペコ,0
877,4011801046318,新規,0,2025-06-13,2025-06-13,株式会社Ｏｗｎ　Ｂ,,株式会社,東京都,葛飾区,西新小岩５丁目１６番６号,,13,122,1240025,,,,,,,2025-06-13,1,,,,,オウンビー,0
880,4012405005123,新規,0,2025-06-13,2025-06-13,一般社団法人ストロークプラス,,その他の設立登記法人,東京都,府中市,幸町３丁目５番地の８西東京国際イノベーション共創拠点２階,,13,206,1830054,,,,,,,2025-06-13,1,,,,,ストロークプラス,0
887,4020001163303,新規,0,2025-06-13,2025-06-13,株式会社おるきな,,株式会社,神奈川県,川崎市中原区,小杉町１丁目５４７番地２６,,14,133,2110063,,,,,,,2025-06-13,1,,,,,オルキナ,0
888,4020001163369,新規,0,2025-06-13,2025-06-13,株式会社海風,,株式会社,神奈川県,川崎市宮前区,宮前平３丁目１１－２３宮前平中央ハイツ３０６,,14,136,2160006,,,,,,,2025-06-13,1,,,,,ウミカゼ,0
889,4020001163385,新規,0,2025-06-13,2025-06-13,株式会社アール・ド・ダンス,,株式会社,神奈川県,横浜市西区,北幸２丁目１１番４７－５１０号,,14,103,2200004,,,,,,,2025-06-13,1,,,,,アールドダンス,0
896,4020003028702,新規,0,2025-06-13,2025-06-13,グランデ・リッツ合同会社,,合同会社,神奈川県,横浜市保土ケ谷区,今井町４４４番地５８,,14,106,2400035,,,,,,,2025-06-13,1,,,,,グランデリッツ,0
905,4021001085512,新規,0,2025-06-13,2025-06-13,株式会社ＢＭファシリティーズ,,株式会社,神奈川県,厚木市,水引２丁目７番１３号ＳＵ１０３,,14,212,2430004,,,,,,,2025-06-13,1,,,,,ビーエムファシリティーズ,0
908,4021003016143,新規,0,2025-06-13,2025-06-13,合同会社レラブルアーキワークス,,合同会社,神奈川県,茅ヶ崎市,新栄町７番５号ＣｈｉｇａｓａｋｉＢｉｚ－ｎａｚ３Ｆ,,14,207,2530044,,,,,,,2025-06-13,1,,,,,レラブルアーキワークス,0
914,4030001167030,新規,0,2025-06-13,2025-06-13,株式会社大井工業,,株式会社,埼玉県,朝霞市,宮戸３丁目２０番５８号,,11,227,3510031,,,,,,,2025-06-13,1,,,,,オオイコウギョウ,0
915,4030001167096,新規,0,2025-06-13,2025-06-13,株式会社菊川電設,,株式会社,埼玉県,所沢市,東所沢和田１丁目１８番地の６シティハイムグリーンヒル２０５,,11,208,3590023,,,,,,,2025-06-13,1,,,,,キクカワデンセツ,0
919,4030003026911,新規,0,2025-06-13,2025-06-13,ＫＡＬＩＫＡ合同会社,,合同会社,埼玉県,さいたま市北区,日進町２丁目１３０６－５ベルビア日進第３－２階２０３号室,,11,102,3310823,,,,,,,2025-06-13,1,,,,,カリカ,0
920,4030003026977,新規,0,2025-06-13,2025-06-13,ＥＹ．ＴＲＩＢＥ合同会社,,合同会社,埼玉県,熊谷市,上之１３７９－８野辺ハイツ上之Ｅ１０１,,11,202,3600012,,,,,,,2025-06-13,1,,,,,イーワイトライブ,0
921,4030003026985,新規,0,2025-06-13,2025-06-13,合同会社関東工建,,合同会社,埼玉県,草加市,瀬崎７丁目２４－７－１Ｆ,,11,221,3400022,,,,,,,2025-06-13,1,,,,,カントウコウケン,0
929,4040001139235,新規,0,2025-06-13,2025-06-13,株式会社ＭＩＲＩＤＥ,,株式会社,千葉県,鎌ケ谷市,南鎌ケ谷１丁目２番２３－３号,,12,224,2730106,,,,,,,2025-06-13,1,,,,,ミライド,0
931,4040003027842,新規,0,2025-06-13,2025-06-13,ＫＹＢ合同会社,,合同会社,千葉県,市川市,八幡２丁目９番１５号,,12,203,2720021,,,,,,,2025-06-13,1,,,,,ケーワイビー,0
934,4060001038278,新規,0,2025-06-13,2025-06-13,株式会社ＩＲ,,株式会社,栃木県,下野市,緑４丁目２番地７,,09,216,3290433,,,,,,,2025-06-13,1,,,,,アイアール,0
935,4060001038286,新規,0,2025-06-13,2025-06-13,株式会社ＷＩＬＬ　ＬＩＦＥ　ＨＯＭＥ,,株式会社,栃木県,宇都宮市,瑞穂１丁目１７－３,,09,201,3210921,,,,,,,2025-06-13,1,,,,,ウィルライフホーム,0
969,4120001276813,新規,0,2025-06-13,2025-06-13,福潤株式会社,,株式会社,大阪府,大阪市西成区,萩之茶屋２丁目６－４ニューかめや１２３,,27,122,5570004,,,,,,,2025-06-13,1,,,,,フクジュン,0
970,4120001276854,新規,0,2025-06-13,2025-06-13,株式会社ニーズネクスト,,株式会社,大阪府,大阪市住吉区,苅田７丁目１番２０号,,27,120,5580011,,,,,,,2025-06-13,1,,,,,ニーズネクスト,0
971,4120001276862,新規,0,2025-06-13,2025-06-13,株式会社尾上萬ホールディングス,,株式会社,大阪府,大阪市中央区,材木町２番１４号,,27,128,5400010,,,,,,,2025-06-13,1,,,,,オノエマンホールディングス,0
972,4120001276912,新規,0,2025-06-13,2025-06-13,株式会社ＬＩＲＨａ,,株式会社,大阪府,枚方市,津田南町２丁目９番１０号,,27,210,5730124,,,,,,,2025-06-13,1,,,,,リルハ,0
977,4120003029756,新規,0,2025-06-13,2025-06-13,合同会社ＯＦＦＩＣＥ岡市,,合同会社,大阪府,大阪市住吉区,帝塚山中１丁目５番７号,,27,120,5580053,,,,,,,2025-06-13,1,,,,,オフィスオカイチ,0
979,4120101071882,新規,0,2025-06-13,2025-06-13,ＪＵＭＡ　ＴＲＡＤＩＮＧ株式会社,,株式会社,大阪府,富田林市,大字伏見堂７番地１,,27,214,5840055,,,,,,,2025-06-13,1,,,,,ジュマトレーディング,0
982,4120103006523,新規,0,2025-06-13,2025-06-13,合同会社Ｃｉｅｌ,,合同会社,大阪府,富田林市,錦織南１丁目６－２１,,27,214,5840067,,,,,,,2025-06-13,1,,,,,シエル,0
986,4120901051051,新規,0,2025-06-13,2025-06-13,株式会社侑建築,,株式会社,大阪府,高槻市,栄町２丁目４８番１４号,,27,207,5690825,,,,,,,2025-06-13,1,,,,,ユウケンチク,0
993,4140001138904,新規,0,2025-06-13,2025-06-13,株式会社ＥＬＥＣＸ,,株式会社,兵庫県,神戸市西区,伊川谷町潤和６番地の６９,,28,111,6512124,,,,,,,2025-06-13,1,,,,,エレックス,0
994,4140001138937,新規,0,2025-06-13,2025-06-13,瑞安株式会社,,株式会社,兵庫県,神戸市兵庫区,上三条町１番２３号、２０１号室,,28,105,6520013,,,,,,,2025-06-13,1,,,,,ズイアン,0
996,4140003022189,新規,0,2025-06-13,2025-06-13,ＢＯＳＨＩ合同会社,,合同会社,兵庫県,神戸市西区,春日台７丁目１２番地の１２,,28,111,6512276,,,,,,,2025-06-13,1,,,,,ボシ,0
997,4140003022197,新規,0,2025-06-13,2025-06-13,ＯＮＥ　ＢＥＡＮＳ合同会社,,合同会社,兵庫県,丹波篠山市,西古佐１４８番地５,,28,221,6692221,,,,,,,2025-06-13,1,,,,,ワンビーンズ,0
1010,4180001167271,新規,0,2025-06-13,2025-06-13,株式会社９４＆コンサルティング,,株式会社,愛知県,丹羽郡扶桑町,大字南山名字野田浦４５番地,,23,362,4800105,,,,,,,2025-06-13,1,,,,,キュウヨアンドコンサルティング,0
1013,4180003028620,新規,0,2025-06-13,2025-06-13,Ｃｈａｎｉｅ　Ｎａｉｌ　Ｓｐａ合同会社,,合同会社,愛知県,名古屋市中区,新栄１丁目６番２０号ＯＪビル５Ａ号室,,23,106,4600007,,,,,,,2025-06-13,1,,,,,チャニネイルスパ,0
1019,4200001043899,新規,0,2025-06-13,2025-06-13,株式会社長屋空調,,株式会社,岐阜県,岐阜市,下土居２丁目５番２７号,,21,201,5020858,,,,,,,2025-06-13,1,,,,,ナガヤクウチョウ,0
1021,4210003001929,新規,0,2025-06-13,2025-06-13,合同会社ＰＯＲＣＯ・ＲＯＳＳＯ,,合同会社,福井県,坂井市,春江町江留下高道７９番地８,,18,210,9190418,,,,,,,2025-06-13,1,,,,,ポルコロッソ,0
1036,4290001110311,新規,0,2025-06-13,2025-06-13,株式会社パーフェクション,,株式会社,福岡県,久留米市,山本町耳納１８０４番地１,,40,203,8390826,,,,,,,2025-06-13,1,,,,,パーフェクション,0
1060,4360001035344,新規,0,2025-06-13,2025-06-13,株式会社ＨＭ,,株式会社,沖縄県,那覇市,久米１丁目８番１２号,,47,201,9000033,,,,,,,2025-06-13,1,,,,,エイチエム,0
1061,4370001052710,新規,0,2025-06-13,2025-06-13,株式会社Ｓｙカーズ,,株式会社,宮城県,大崎市,岩出山上野目字中川原５０番地,,04,215,9896403,,,,,,,2025-06-13,1,,,,,エスアイカーズ,0
1063,4390001018016,新規,0,2025-06-13,2025-06-13,株式会社夢バナナ１０４６,,株式会社,山形県,山形市,大字漆山３６９番地,,06,201,9902161,,,,,,,2025-06-13,1,,,,,ユメバナナイチゼロヨンロク,0
1067,4400005008498,新規,0,2025-06-13,2025-06-13,特定非営利活動法人動物福祉団体あにふぁ,,その他の設立登記法人,岩手県,紫波郡紫波町,草刈字中嶋５９番地,,03,321,0283325,,,,,,,2025-06-13,1,,,,,ドウブツフクシダンタイアニファ,0
1070,4410001014185,新規,0,2025-06-13,2025-06-13,メガトラウト株式会社,,株式会社,秋田県,仙北市,田沢湖潟字蛭児堂９８番地２,,05,215,0141203,,,,,,,2025-06-13,1,,,,,メガトラウト,0
1074,4420001019175,新規,0,2025-06-13,2025-06-13,ライキン・アグロ株式会社,,株式会社,青森県,弘前市,大字高杉字神原２５０番地１１,,02,202,0368302,,,,,,,2025-06-13,1,,,,,ライキンアグロ,0
1076,4420003003128,新規,0,2025-06-13,2025-06-13,合同会社サトマチ不動産,,合同会社,青森県,八戸市,長根１丁目１番３号グランドキャッスル２０６号室,,02,203,0310077,,,,,,,2025-06-13,1,,,,,サトマチフドウサン,0
1080,4430003017770,新規,0,2025-06-13,2025-06-13,ＫＮソリューション合同会社,,合同会社,北海道,札幌市西区,発寒五条７丁目２番１６号ルヌアージュ宮の沢４０１号,,01,107,0630825,,,,,,,2025-06-13,1,,,,,ケーエヌソリューション,0
1081,4430005015252,新規,0,2025-06-13,2025-06-13,一般社団法人未来キャリア支援機構,,その他の設立登記法人,北海道,札幌市中央区,大通西６丁目６番地１号北海道医師会館３Ｆ,,01,101,0600042,,,,,,,2025-06-13,1,,,,,ミライキャリアシエンキコウ,0
1088,4700150131033,新規,0,2025-06-13,2025-06-13,ＳＨＡＨＥＥＤ　ＬＡＮＫＡ　ＥＮＴＥＲＰＲＩＳＥＳ,,外国会社等,千葉県,富里市,十倉９０４番地４３十倉オフィス３,,12,233,2860212,スリランカ民主社会主義共和国、アクラナ、デマタガステンナ、Ｎｏ．１１９,,,,,,2025-06-13,1,,,,,シヤヒードランカエンタープライズ,0
1096,5010001255819,新規,0,2025-06-13,2025-06-13,株式会社ゆうしゅん,,株式会社,東京都,中央区,日本橋堀留町１丁目１１－９ピカデリーサーカス第３ビル１Ｆ,,13,102,1030012,,,,,,,2025-06-13,1,,,,,ユウシュン,0
1097,5010001255868,新規,0,2025-06-13,2025-06-13,ＪＡＣＫ　ＵＰ株式会社,,株式会社,東京都,中央区,銀座１丁目１２番４号Ｎ＆ＥＢＬＤ．６階,,13,102,1040061,,,,,,,2025-06-13,1,,,,,ジャックアップ,0
1098,5010001255991,新規,0,2025-06-13,2025-06-13,株式会社ＡＩＭＩＮＤ,,株式会社,東京都,中央区,銀座１丁目１２－４Ｎ＆ＥＢＬＤ．７階,,13,102,1040061,,,,,,,2025-06-13,1,,,,,アイマインド,0
1111,5010401191011,新規,0,2025-06-13,2025-06-13,株式会社ＮＥＸＵＳ不動産,,株式会社,東京都,港区,浜松町２丁目７番１６号第３小森谷ビル１０階,,13,103,1050013,,,,,,,2025-06-13,1,,,,,ネクサスフドウサン,0
1116,5010601067457,新規,0,2025-06-13,2025-06-13,クリーンプロテック株式会社,,株式会社,東京都,墨田区,堤通１丁目１１番５号,,13,107,1310034,,,,,,,2025-06-13,1,,,,,クリーンプロテック,0
1125,5010703007757,新規,0,2025-06-13,2025-06-13,合同会社ＳＫ企画,,合同会社,東京都,品川区,南品川５丁目１０番２７号,,13,109,1400004,,,,,,,2025-06-13,1,,,,,エスケイキカク,0
1131,5010901057554,新規,0,2025-06-13,2025-06-13,株式会社グロースピット,,株式会社,東京都,世田谷区,上馬１丁目２４－１１コスモ上馬３０４号室,,13,112,1540011,,,,,,,2025-06-13,1,,,,,グロースピット,0
1145,5011001169819,新規,0,2025-06-13,2025-06-13,株式会社ｉｍａｌｏｇｙ,,株式会社,東京都,渋谷区,桜丘町２９番３１号清桜ハイツ６０４号室,,13,113,1500031,,,,,,,2025-06-13,1,,,,,イマロジー,0
1147,5011003021795,新規,0,2025-06-13,2025-06-13,コール合同会社,,合同会社,東京都,渋谷区,恵比寿西２丁目８番４号ＥＸ恵比寿西ビル５階,,13,113,1500021,,,,,,,2025-06-13,1,,,,,コール,0
1148,5011003021812,新規,0,2025-06-13,2025-06-13,合同会社ユウセイアセット,,合同会社,東京都,目黒区,目黒本町２丁目１７番１７号,,13,110,1520002,,,,,,,2025-06-13,1,,,,,ユウセイアセット,0
1149,5011003021894,新規,0,2025-06-13,2025-06-13,ｋｅｎｓａｕｒｕｓ合同会社,,合同会社,東京都,渋谷区,道玄坂１丁目１０番８号渋谷道玄坂東急ビル２Ｆ－Ｃ,,13,113,1500043,,,,,,,2025-06-13,1,,,,,ケンサウルス,0
1150,5011101111886,新規,0,2025-06-13,2025-06-13,株式会社令和製薬,,株式会社,東京都,新宿区,高田馬場１丁目２８－５水上ビル５Ｆ,,13,104,1690075,,,,,,,2025-06-13,1,,,,,レイワセイヤク,0
1151,5011101112067,新規,0,2025-06-13,2025-06-13,株式会社ビルト,,株式会社,東京都,新宿区,愛住町２番地１０２,,13,104,1600005,,,,,,,2025-06-13,1,,,,,ビルト,0
1152,5011103015986,新規,0,2025-06-13,2025-06-13,琵琶池開発合同会社,,合同会社,東京都,新宿区,西新宿２丁目１番１号新宿三井ビル４３階,,13,104,1600023,,,,,,,2025-06-13,1,,,,,ビワイケカイハツ,0
1155,5011403004730,新規,0,2025-06-13,2025-06-13,メイリース合同会社,,合同会社,東京都,板橋区,小茂根１丁目１１－８－２０１,,13,119,1730037,,,,,,,2025-06-13,1,,,,,メイリース,0
1163,5011703004281,新規,0,2025-06-13,2025-06-13,合同会社ＫＡＳＡＭＡ,,合同会社,東京都,江戸川区,一之江７丁目２８番６号ＳＴＡＧＥ２０２,,13,123,1320024,,,,,,,2025-06-13,1,,,,,カサマ,0
1164,5011801046309,新規,0,2025-06-13,2025-06-13,順意株式会社,,株式会社,東京都,足立区,小台１丁目６番５号３０１号室,,13,121,1200046,,,,,,,2025-06-13,1,,,,,ジュンイ,0
1166,5012401043241,新規,0,2025-06-13,2025-06-13,株式会社ｍ．ｃｒａｆｔ,,株式会社,東京都,武蔵野市,吉祥寺本町２丁目８－４,,13,203,1800004,,,,,,,2025-06-13,1,,,,,エムクラフト,0
1170,5012403007186,新規,0,2025-06-13,2025-06-13,合同会社じぶん日和,,合同会社,東京都,調布市,深大寺東町３丁目２６番地２６,,13,208,1820012,,,,,,,2025-06-13,1,,,,,ジブンビヨリ,0
1172,5012801024031,新規,0,2025-06-13,2025-06-13,株式会社けん幸工房,,株式会社,東京都,昭島市,福島町３丁目１１番１０号,,13,207,1960031,,,,,,,2025-06-13,1,,,,,ケンコウコウボウ,0
1173,5013103001454,新規,0,2025-06-13,2025-06-13,Ｄｉｇｉｔａｌ　Ｍｆｇ合同会社,,合同会社,東京都,青梅市,千ヶ瀬町１丁目７－１－１００７,,13,205,1980043,,,,,,,2025-06-13,1,,,,,デジタルマニュファクチャリング,0
1177,5020001163343,新規,0,2025-06-13,2025-06-13,株式会社ｅｎｒｉｃｈコンサルティング,,株式会社,神奈川県,横浜市神奈川区,鶴屋町２丁目１２番１号横浜カリオカビル２Ｆ,,14,102,2210835,,,,,,,2025-06-13,1,,,,,エンリッチコンサルティング,0
1178,5020001163368,新規,0,2025-06-13,2025-06-13,株式会社ＷＡＲＭ　ＳＨＡＲＥ,,株式会社,神奈川県,横浜市港北区,新羽町８４１－１０２,,14,109,2230057,,,,,,,2025-06-13,1,,,,,ウォームシェア,0
1181,5020003028684,新規,0,2025-06-13,2025-06-13,Ｐｅａｃｅ合同会社,,合同会社,神奈川県,川崎市川崎区,大島４丁目１９－１１,,14,131,2100834,,,,,,,2025-06-13,1,,,,,ピース,0
1192,5021003016118,新規,0,2025-06-13,2025-06-13,合同会社ＳＫＩアセット,,合同会社,神奈川県,相模原市南区,豊町６番１６号,,14,153,2520305,,,,,,,2025-06-13,1,,,,,エスケイアイアセット,0
1193,5021003016167,新規,0,2025-06-13,2025-06-13,ＨａＬ合同会社,,合同会社,神奈川県,横須賀市,久里浜７丁目３１―１久里浜海岸マリーナタウン９０１,,14,201,2390831,,,,,,,2025-06-13,1,,,,,ハル,0
1199,5030001167046,新規,0,2025-06-13,2025-06-13,株式会社山越,,株式会社,埼玉県,入間郡三芳町,大字藤久保６４９１－Ｂ号室,,11,324,3540041,,,,,,,2025-06-13,1,,,,,ヤマコシ,0
1200,5030001167070,新規,0,2025-06-13,2025-06-13,ミライスト株式会社,,株式会社,埼玉県,さいたま市西区,大字高木１２３番地３５,,11,101,3310071,,,,,,,2025-06-13,1,,,,,ミライスト,0
1201,5030001167079,新規,0,2025-06-13,2025-06-13,グローバルアンブレラ株式会社,,株式会社,埼玉県,さいたま市大宮区,堀の内町１丁目３７６番地２,,11,103,3300804,,,,,,,2025-06-13,1,,,,,グローバルアンブレラ,0
1202,5030001167087,新規,0,2025-06-13,2025-06-13,株式会社Ｈ２,,株式会社,埼玉県,上尾市,上町１丁目６番２号,,11,219,3620037,,,,,,,2025-06-13,1,,,,,エイチツー,0
1206,5030003026968,新規,0,2025-06-13,2025-06-13,パーデック合同会社,,合同会社,埼玉県,さいたま市緑区,大字中尾１２９７番地アリエッタ２０１,,11,109,3360932,,,,,,,2025-06-13,1,,,,,パーデック,0
1207,5030003026992,新規,0,2025-06-13,2025-06-13,合同会社かえで,,合同会社,埼玉県,比企郡鳩山町,楓ヶ丘３丁目１８番１８号,,11,348,3500314,,,,,,,2025-06-13,1,,,,,カエデ,0
1211,5040001139093,新規,0,2025-06-13,2025-06-13,株式会社あづみ野,,株式会社,千葉県,千葉市若葉区,西都賀３丁目１番８号ハックベリー都賀１Ｆ,,12,104,2640026,,,,,,,2025-06-13,1,,,,,アヅミノ,0
1212,5040001139201,新規,0,2025-06-13,2025-06-13,株式会社ＧＯＴＯ企画,,株式会社,千葉県,八千代市,平戸１１９０番地,,12,221,2760017,,,,,,,2025-06-13,1,,,,,ゴートゥーキカク,0
1213,5040001139218,新規,0,2025-06-13,2025-06-13,リナラボ株式会社,,株式会社,千葉県,勝浦市,興津１１８２番７,,12,218,2995245,,,,,,,2025-06-13,1,,,,,リナラボ,0
1214,5040001139226,新規,0,2025-06-13,2025-06-13,ＮａＮａ株式会社,,株式会社,千葉県,南房総市,御庄１３１６番地１,,12,234,2940803,,,,,,,2025-06-13,1,,,,,ナナ,0
1219,5070001042988,新規,0,2025-06-13,2025-06-13,株式会社ＳＵＢＡＲＵ　ｎｗ　Ｓｉｇｈｔ,,株式会社,群馬県,太田市,飯田町１１８３番地１,,10,205,3730851,,,,,,,2025-06-13,1,,,,,スバルニューサイト,0
1222,5080003003475,新規,0,2025-06-13,2025-06-13,Ｍｔ．ＦｕｊｉＤｅｓｉｇｎＨａｒｂｏｒ合同会社,,合同会社,静岡県,静岡市駿河区,馬渕１丁目１３－２４,,22,102,4228063,,,,,,,2025-06-13,1,,,,,フジサンデザインハーバー,0
1224,5080101025553,新規,0,2025-06-13,2025-06-13,株式会社Ｌｉｔｅｒｒａｃｅ,,株式会社,静岡県,沼津市,下香貫牛臥３０１４番地の３,,22,203,4100822,,,,,,,2025-06-13,1,,,,,リテラス,0
1226,5080403005286,新規,0,2025-06-13,2025-06-13,合同会社わんこのおうち,,合同会社,静岡県,浜松市中央区,中央３丁目１５番３１－２５０２号,,22,138,4300929,,,,,,,2025-06-13,1,,,,,ワンコノオウチ,0
1228,5090001019324,新規,0,2025-06-13,2025-06-13,株式会社あしびなぁ,,株式会社,山梨県,南アルプス市,下今諏訪３９８番地７,,19,208,4000212,,,,,,,2025-06-13,1,,,,,アシビナァ,0
1231,5110001039344,新規,0,2025-06-13,2025-06-13,株式会社長福丸,,株式会社,新潟県,糸魚川市,大字能生小泊２６２１番地,,15,216,9491351,,,,,,,2025-06-13,1,,,,,チョウフクマル,0
1232,5110001039352,新規,0,2025-06-13,2025-06-13,株式会社ウィンズ,,株式会社,新潟県,新潟市北区,下土地亀１５７番地,,15,101,9503346,,,,,,,2025-06-13,1,,,,,ウィンズ,0
1246,5120001276845,新規,0,2025-06-13,2025-06-13,株式会社Ｇｓｔｏｎｅ,,株式会社,大阪府,大阪市天王寺区,東高津町１－２４,,27,109,5430021,,,,,,,2025-06-13,1,,,,,ジーストーン,0
1247,5120103006522,新規,0,2025-06-13,2025-06-13,合同会社ＡＬＯ,,合同会社,大阪府,堺市美原区,小平尾９５４番地３２,,27,147,5870021,,,,,,,2025-06-13,1,,,,,アロ,0
1250,5120901051059,新規,0,2025-06-13,2025-06-13,株式会社一珈,,株式会社,大阪府,池田市,緑丘２丁目１番２１３号,,27,204,5630026,,,,,,,2025-06-13,1,,,,,イチカ,0
1255,5130001079867,新規,0,2025-06-13,2025-06-13,Ｃｏｎｃｉｅｒｇｅ　Ｍｅｄｉｃｉｎｅ　Ｊａｐａｎ株式会社,,株式会社,京都府,京都市東山区,鷲尾町５１２番地,,26,105,6050072,,,,,,,2025-06-13,1,,,,,,0
1271,5140001138829,新規,0,2025-06-13,2025-06-13,株式会社ＣＳプランニング,,株式会社,兵庫県,神戸市垂水区,舞多聞西６丁目１番３号,,28,108,6550051,,,,,,,2025-06-13,1,,,,,シーエスプランニング,0
1272,5140001138894,新規,0,2025-06-13,2025-06-13,株式会社天命,,株式会社,兵庫県,神戸市東灘区,御影山手２丁目１１番１１号,,28,101,6580065,,,,,,,2025-06-13,1,,,,,テンメイ,0
1273,5140001138928,新規,0,2025-06-13,2025-06-13,亜来株式会社,,株式会社,兵庫県,神戸市長田区,梅ヶ香町１丁目１６番１１号,,28,106,6530021,,,,,,,2025-06-13,1,,,,,アライ,0
1277,5140003022188,新規,0,2025-06-13,2025-06-13,ＡＬＬＵＲＥ　Ｆｉｒｓｔ合同会社,,合同会社,兵庫県,淡路市,久留麻１８番地３県営久留麻住宅１－４０６,,28,226,6562311,,,,,,,2025-06-13,1,,,,,アリュールファースト,0
1279,5150001028194,新規,0,2025-06-13,2025-06-13,藤井企画株式会社,,株式会社,奈良県,奈良市,富雄北１丁目４番１６号,,29,201,6310076,,,,,,,2025-06-13,1,,,,,フジイキカク,0
1282,5160001026825,新規,0,2025-06-13,2025-06-13,株式会社橘田ゲーミング,,株式会社,滋賀県,彦根市,長曽根南町５５０番地３フラット５５０－１０３号室,,25,202,5220052,,,,,,,2025-06-13,1,,,,,キッタゲーミング,0
1286,5170003002229,新規,0,2025-06-13,2025-06-13,合同会社八百万屋,,合同会社,和歌山県,田辺市,中辺路町栗栖川４６番地,,30,206,6461421,,,,,,,2025-06-13,1,,,,,ヤオヨロズヤ,0
1295,5180301039905,新規,0,2025-06-13,2025-06-13,平松総建株式会社,,株式会社,愛知県,豊川市,宿町弥重１２３番地２,,23,207,4410101,,,,,,,2025-06-13,1,,,,,ヒラマツソウケン,0
1306,5240001065071,新規,0,2025-06-13,2025-06-13,株式会社インテリアエステート,,株式会社,広島県,広島市安佐南区,西原７丁目８番４号,,34,105,7310113,,,,,,,2025-06-13,1,,,,,インテリアエステート,0
1311,5290001110285,新規,0,2025-06-13,2025-06-13,株式会社タイガーワンカンパニー,,株式会社,福岡県,福岡市東区,二又瀬新町９番３３号,,40,131,8120065,,,,,,,2025-06-13,1,,,,,タイガーワンカンパニー,0
1315,5290801031623,新規,0,2025-06-13,2025-06-13,株式会社ＳＨＯＲＹＵ,,株式会社,福岡県,北九州市小倉南区,湯川１丁目７番７号１Ｆ,,40,107,8000257,,,,,,,2025-06-13,1,,,,,ショウリュウ,0
1320,5340001027433,新規,0,2025-06-13,2025-06-13,鹿児島情報流通サービス株式会社,,株式会社,鹿児島県,鹿児島市,鴨池新町３番８－８０３号,,46,201,8900064,,,,,,,2025-06-13,1,,,,,カゴシマジョウホウリュウツウサービス,0
1327,5360001035293,新規,0,2025-06-13,2025-06-13,ＣＨＥＥＳＡ株式会社,,株式会社,沖縄県,那覇市,松山１丁目１７番４４号八重洲第３ビル１０２,,47,201,9000032,,,,,,,2025-06-13,1,,,,,チーサ,0
1328,5360001035319,新規,0,2025-06-13,2025-06-13,株式会社一途,,株式会社,沖縄県,宜野湾市,我如古１丁目５４－７－３０５,,47,205,9012214,,,,,,,2025-06-13,1,,,,,イット,0
1329,5360005007248,新規,0,2025-06-13,2025-06-13,一般社団法人沖縄県しろあり対策協会,,その他の設立登記法人,沖縄県,沖縄市,海邦２丁目２６番４８号コーポ海邦１階,,47,211,9042162,,,,,,,2025-06-13,1,,,,,オキナワケンシロアリタイサクキョウカイ,0
1330,5370001052692,新規,0,2025-06-13,2025-06-13,株式会社太陽,,株式会社,宮城県,仙台市太白区,大谷地１１番１１号,,04,104,9820035,,,,,,,2025-06-13,1,,,,,タイヨウ,0
1338,5400003003467,新規,0,2025-06-13,2025-06-13,合同会社咲ｓｅｅｄ,,合同会社,岩手県,一関市,花泉町涌津字下原２４９番４号幸花コーポレイション１０５号室,,03,209,0293205,,,,,,,2025-06-13,1,,,,,サクシード,0
1339,5400005008497,新規,0,2025-06-13,2025-06-13,一般社団法人岩手県言語聴覚士会,,その他の設立登記法人,岩手県,盛岡市,津志田２６地割３０番地１,,03,201,0200835,,,,,,,2025-06-13,1,,,,,イワテケンゲンゴチョウカクシカイ,0
1354,5430001094654,新規,0,2025-06-13,2025-06-13,株式会社村上建業,,株式会社,北海道,札幌市豊平区,福住二条１１丁目４番３号,,01,105,0620042,,,,,,,2025-06-13,1,,,,,ムラカミケンギョウ,0
1355,5430001094679,新規,0,2025-06-13,2025-06-13,Ｅｎｄｐｏｉｎｔ株式会社,,株式会社,北海道,札幌市豊平区,美園九条１丁目５番６号,,01,105,0620009,,,,,,,2025-06-13,1,,,,,エンドポイント,0
1363,6010001255982,新規,0,2025-06-13,2025-06-13,株式会社讃州庵,,株式会社,東京都,中央区,築地３丁目１２番５号＋ＳＨＩＦＴＴＳＵＫＩＪＩ７Ｆ,,13,102,1040045,,,,,,,2025-06-13,1,,,,,サンシュウアン,0
1364,6010001255990,新規,0,2025-06-13,2025-06-13,Ｒｏｏｔ　Ｆｏｗａｒｄ　Ｊａｐａｎ株式会社,,株式会社,東京都,中央区,銀座１丁目１２－４Ｎ＆ＥＢＬＤ．７階,,13,102,1040061,,,,,,,2025-06-13,1,,,,,ルーツフォワードジャパン,0
1365,6010005040200,新規,0,2025-06-13,2025-06-13,一般社団法人くにぎわ,,その他の設立登記法人,東京都,千代田区,丸の内１丁目４番１号東京共同会計事務所内,,13,101,1000005,,,,,,,2025-06-13,1,,,,,クニギワ,0
1375,6010401190904,新規,0,2025-06-13,2025-06-13,株式会社ＰＲ　ＴＥＡＭ,,株式会社,東京都,港区,芝５丁目３２番１２号,,13,103,1080014,,,,,,,2025-06-13,1,,,,,ピーアールチーム,0
1376,6010401190978,新規,0,2025-06-13,2025-06-13,株式会社Ｚタレント,,株式会社,東京都,港区,北青山１丁目３番３号三橋ビル３階,,13,103,1070061,,,,,,,2025-06-13,1,,,,,ゼットタレント,0
1377,6010401191019,新規,0,2025-06-13,2025-06-13,ｉｐｒ株式会社,,株式会社,東京都,港区,南青山３丁目１番３６号青山丸竹ビル６Ｆ,,13,103,1070062,,,,,,,2025-06-13,1,,,,,アイピーアール,0
1378,6010403035339,新規,0,2025-06-13,2025-06-13,合同会社ＬＩＣＨＴ,,合同会社,東京都,港区,白金６丁目７番４号,,13,103,1080072,,,,,,,2025-06-13,1,,,,,リヒト,0
1389,6010901057553,新規,0,2025-06-13,2025-06-13,スタシオ株式会社,,株式会社,東京都,世田谷区,用賀４丁目９－１２Ａｓｔａｇｅ用賀Ｂ１,,13,112,1580097,,,,,,,2025-06-13,1,,,,,スタシオ,0
1390,6010901057561,新規,0,2025-06-13,2025-06-13,ぽけっトイレ株式会社,,株式会社,東京都,世田谷区,北沢４丁目１５番１号,,13,112,1550031,,,,,,,2025-06-13,1,,,,,ポケットイレ,0
1395,6011001170098,新規,0,2025-06-13,2025-06-13,株式会社Ｘｈｏｍｉｅｓ,,株式会社,東京都,渋谷区,広尾１丁目１５番６号ＢＲ恵比寿ＡＫビル４Ｆ,,13,113,1500012,,,,,,,2025-06-13,1,,,,,エックスホーミーズ,0
1398,6011101112017,新規,0,2025-06-13,2025-06-13,裕喜国際株式会社,,株式会社,東京都,新宿区,百人町１丁目２１番４号新宿オリンピックマンション２０２,,13,104,1690073,,,,,,,2025-06-13,1,,,,,ユウキコクサイ,0
1399,6011101112066,新規,0,2025-06-13,2025-06-13,株式会社ＭＤ１,,株式会社,東京都,新宿区,西新宿２丁目６番１号新宿住友ビル１８階グロース新宿,,13,104,1600023,,,,,,,2025-06-13,1,,,,,エムディーワン,0
1407,6011401027162,新規,0,2025-06-13,2025-06-13,株式会社キャンピング・ナウ,,株式会社,東京都,板橋区,舟渡１丁目１３番１０号アイ・タワー２Ｆ板橋区立企業活性化センター内シェアードオフィス６号,,13,119,1740041,,,,,,,2025-06-13,1,,,,,キャンピングナウ,0
1413,6011801046308,新規,0,2025-06-13,2025-06-13,ＫＳＧ株式会社,,株式会社,東京都,葛飾区,西新小岩３丁目３７番２８号,,13,122,1240025,,,,,,,2025-06-13,1,,,,,ケーエスジー,0
1414,6011801046316,新規,0,2025-06-13,2025-06-13,株式会社アキ,,株式会社,東京都,足立区,竹の塚７丁目１番３号,,13,121,1210813,,,,,,,2025-06-13,1,,,,,アキ,0
1418,6012401043050,新規,0,2025-06-13,2025-06-13,株式会社ｓｏｉ　ｄｅｓｉｇｎ,,株式会社,東京都,調布市,西つつじケ丘４丁目２３番地神代団地３５－１０５,,13,208,1820006,,,,,,,2025-06-13,1,,,,,ソーイデザイン,0
1436,6020001163383,新規,0,2025-06-13,2025-06-13,株式会社シンクラウド,,株式会社,神奈川県,横浜市西区,北幸２丁目１０番４８号むつみビル３階,,14,103,2200004,,,,,,,2025-06-13,1,,,,,シンクラウド,0
1438,6020003028683,新規,0,2025-06-13,2025-06-13,ＢＩＧ　ＢＲＯＴＨＥＲＳ　ＡＮＤ　ＴＨＥ　ＥＭＰＯＷＥＲＩＮＧ　ＣＯＭＰＡＮＹ合同会社,,合同会社,神奈川県,横浜市神奈川区,大野町１番地２５－１５０１号,,14,102,2210055,,,,,,,2025-06-13,1,,,,,ビッグブラザーズアンドジエンパワリングカンパニー,0
1455,6030001167078,新規,0,2025-06-13,2025-06-13,株式会社ＧＯＬＤ　ＰＩＮＥ,,株式会社,埼玉県,さいたま市緑区,大字中尾１０３番地１４,,11,109,3360932,,,,,,,2025-06-13,1,,,,,ゴールドパイン,0
1456,6030001167086,新規,0,2025-06-13,2025-06-13,株式会社ＡＩ‐ＤＥＮＯＶＡ,,株式会社,埼玉県,戸田市,氷川町１丁目２番８号,,11,224,3350027,,,,,,,2025-06-13,1,,,,,アイデノヴァ,0
1457,6030001167111,新規,0,2025-06-13,2025-06-13,株式会社Ｔｈｅ　Ｃｏｍｍｕｎｉｃａｔｉｏｎ　Ｃｏｍｐａｎｙ,,株式会社,埼玉県,三郷市,中央１丁目３番地２三郷中央センターマークス９２０号室,,11,237,3410038,,,,,,,2025-06-13,1,,,,,ザコミュニケーションカンパニー,0
1471,6040001139183,新規,0,2025-06-13,2025-06-13,ＷＩＮＴＥＣ株式会社,,株式会社,千葉県,我孫子市,柴崎台３丁目２２番２４号,,12,222,2701176,,,,,,,2025-06-13,1,,,,,ウィンテック,0
1472,6040001139324,新規,0,2025-06-13,2025-06-13,株式会社ＴＨＲＥＥＳ,,株式会社,千葉県,松戸市,松戸新田３―３―１０２６,,12,207,2702241,,,,,,,2025-06-13,1,,,,,スリーズ,0
1474,6050001056790,新規,0,2025-06-13,2025-06-13,前原太兵衛株式会社,,株式会社,茨城県,稲敷市,浮島４４６６番地,,08,229,3000641,,,,,,,2025-06-13,1,,,,,マエバラタヘエ,0
1476,6060001038301,新規,0,2025-06-13,2025-06-13,株式会社ＭＭソリューション,,株式会社,栃木県,宇都宮市,岩曽町１４２８番地５４４,,09,201,3210973,,,,,,,2025-06-13,1,,,,,エムエムソリューション,0
1478,6060003005605,新規,0,2025-06-13,2025-06-13,合同会社Ｒｅｍｏｕｎｔ,,合同会社,栃木県,足利市,山川町７１－２,,09,202,3260021,,,,,,,2025-06-13,1,,,,,リマウント,0
1479,6070001043028,新規,0,2025-06-13,2025-06-13,株式会社森達,,株式会社,群馬県,邑楽郡邑楽町,大字中野１３３２－１,,10,525,3700603,,,,,,,2025-06-13,1,,,,,モリタツ,0
1484,6080101025560,新規,0,2025-06-13,2025-06-13,株式会社サンコーエンジニアリング,,株式会社,静岡県,沼津市,青野３８７番地,,22,203,4100307,,,,,,,2025-06-13,1,,,,,サンコーエンジニアリング,0
1487,6080403005285,新規,0,2025-06-13,2025-06-13,ニベ企画合同会社,,合同会社,静岡県,浜松市中央区,三組町１６２番２号,,22,138,4328017,,,,,,,2025-06-13,1,,,,,ニベキカク,0
1489,6100001038692,新規,0,2025-06-13,2025-06-13,株式会社まっしろクリエイティブ,,株式会社,長野県,東筑摩郡朝日村,大字西洗馬１５５６－３４,,20,451,3901101,,,,,,,2025-06-13,1,,,,,マッシロクリエイティブ,0
1492,6100003008231,新規,0,2025-06-13,2025-06-13,合同会社三川舎,,合同会社,長野県,北安曇郡松川村,２７５９番地,,20,482,3998501,,,,,,,2025-06-13,1,,,,,,0
1494,6110001039351,新規,0,2025-06-13,2025-06-13,株式会社新潟中古農機,,株式会社,新潟県,見附市,鳥屋脇町１９番地１,,15,211,9540044,,,,,,,2025-06-13,1,,,,,ニイガタチュウコノウキ,0
1503,6120001276729,新規,0,2025-06-13,2025-06-13,ＬＵＭＩＮＡ株式会社,,株式会社,大阪府,大阪市中央区,平野町１丁目８番１３号平野町八千代ビル３階３５２,,27,128,5410046,,,,,,,2025-06-13,1,,,,,ルミナ,0
1504,6120001276794,新規,0,2025-06-13,2025-06-13,霖沐株式会社,,株式会社,大阪府,大阪市東住吉区,東田辺３丁目１－１－３Ｆ－Ｇ,,27,121,5460032,,,,,,,2025-06-13,1,,,,,リンモク,0
1505,6120001276803,新規,0,2025-06-13,2025-06-13,株式会社Ｋｉｎｄ　Ｏｎｅ,,株式会社,大阪府,大阪市西区,北堀江１丁目１７番１１号,,27,106,5500014,,,,,,,2025-06-13,1,,,,,カインドワン,0
1506,6120001276836,新規,0,2025-06-13,2025-06-13,福多多株式会社,,株式会社,大阪府,大阪市淀川区,十三本町１丁目１８－７－９０３,,27,123,5320024,,,,,,,2025-06-13,1,,,,,フクタタ,0
1507,6120001276844,新規,0,2025-06-13,2025-06-13,日本徳川商事株式会社,,株式会社,大阪府,大阪市住吉区,遠里小野４丁目５番２－２０２号室,,27,120,5580032,,,,,,,2025-06-13,1,,,,,ニホントクガワショウジ,0
1508,6120001276852,新規,0,2025-06-13,2025-06-13,ＭＩＱＴＯＲＡ株式会社,,株式会社,大阪府,大阪市中央区,南久宝寺町４丁目１－２御堂筋ダイビル４Ｆ,,27,128,5410058,,,,,,,2025-06-13,1,,,,,ミクトラ,0
1512,6120103006521,新規,0,2025-06-13,2025-06-13,ＮＨＬ合同会社,,合同会社,大阪府,富田林市,錦織東１丁目６番５号－２０１号,,27,214,5840069,,,,,,,2025-06-13,1,,,,,エヌエイチエル,0
1518,6122001039173,新規,0,2025-06-13,2025-06-13,株式会社ＫＤＭ,,株式会社,大阪府,東大阪市,下小阪３丁目１３番１２号２階１号室,,27,227,5770803,,,,,,,2025-06-13,1,,,,,ケーディーエム,0
1524,6130001079882,新規,0,2025-06-13,2025-06-13,株式会社にくに,,株式会社,京都府,京都市西京区,嵐山東一川町３番地１９,,26,111,6160002,,,,,,,2025-06-13,1,,,,,ニクニ,0
1530,6140001138794,新規,0,2025-06-13,2025-06-13,株式会社ｗｅｌｔｓｃｈｍｅｒｚ,,株式会社,兵庫県,神戸市西区,井吹台東町４丁目５番地の１０,,28,111,6512242,,,,,,,2025-06-13,1,,,,,ヴェルトシュメルツ,0
1531,6140001138811,新規,0,2025-06-13,2025-06-13,株式会社ＫＨＡＮ　ＣＯＭＰＡＮＹ,,株式会社,兵庫県,高砂市,春日野町６番１４号,,28,216,6760814,,,,,,,2025-06-13,1,,,,,カーンカンパニー,0
1532,6140001138902,新規,0,2025-06-13,2025-06-13,パイオニアミック精工株式会社,,株式会社,兵庫県,姫路市,花田町加納原田９０６番地,,28,201,6710252,,,,,,,2025-06-13,1,,,,,パイオニアミックセイコウ,0
1533,6140001138919,新規,0,2025-06-13,2025-06-13,株式会社Ｅｂｅｌｌａ,,株式会社,兵庫県,神戸市長田区,菅原通２丁目１００－１－３０２,,28,106,6530015,,,,,,,2025-06-13,1,,,,,エベラ,0
1534,6140001138927,新規,0,2025-06-13,2025-06-13,リアン・エテルネル株式会社,,株式会社,兵庫県,神戸市兵庫区,西柳原町９番７－３０４号,,28,105,6520806,,,,,,,2025-06-13,1,,,,,リアンエテルネル,0
1547,6170003002228,新規,0,2025-06-13,2025-06-13,合同会社Ｎｕｒｓｅ　ｆａｂｒｉｃ,,合同会社,和歌山県,岩出市,桜台３８８番地,,30,209,6496203,,,,,,,2025-06-13,1,,,,,ナースファブリック,0
1553,6180003028627,新規,0,2025-06-13,2025-06-13,橘資産管理合同会社,,合同会社,愛知県,名古屋市熱田区,熱田西町１番１７号,,23,109,4560036,,,,,,,2025-06-13,1,,,,,タチバナシサンカンリ,0
1555,6180301039904,新規,0,2025-06-13,2025-06-13,株式会社とみや,,株式会社,愛知県,刈谷市,泉田町法知山１００番地４,,23,210,4480004,,,,,,,2025-06-13,1,,,,,トミヤ,0
1558,6200003006877,新規,0,2025-06-13,2025-06-13,合同会社トリプルエイト,,合同会社,岐阜県,多治見市,大薮町字八幡前１０１５番地２,,21,204,5070068,,,,,,,2025-06-13,1,,,,,トリプルエイト,0
1559,6210001020210,新規,0,2025-06-13,2025-06-13,株式会社グランファーム,,株式会社,福井県,越前市,平林町第１１号７番地,,18,209,9150044,,,,,,,2025-06-13,1,,,,,グランファーム,0
1565,6240001065070,新規,0,2025-06-13,2025-06-13,ＳＥＷＡ株式会社,,株式会社,広島県,世羅郡世羅町,大字安田３９１番地２,,34,462,7221202,,,,,,,2025-06-13,1,,,,,セワ,0
1576,6280003001953,新規,0,2025-06-13,2025-06-13,合同会社てごして本舗,,合同会社,島根県,安来市,広瀬町下山佐１９４４,,32,206,6920412,,,,,,,2025-06-13,1,,,,,テゴシテホンポ,0
1578,6290801031622,新規,0,2025-06-13,2025-06-13,株式会社東亜ＨＤ,,株式会社,福岡県,北九州市小倉北区,木町１丁目２番１－１０１０号,,40,106,8030851,,,,,,,2025-06-13,1,,,,,トウアホールディングス,0
1579,6290801031630,新規,0,2025-06-13,2025-06-13,株式会社Ｅｃｌａｔ,,株式会社,福岡県,北九州市八幡西区,則松７丁目８番１６号,,40,109,8070831,,,,,,,2025-06-13,1,,,,,エクラ,0
1590,6330001033308,新規,0,2025-06-13,2025-06-13,株式会社ハラコン,,株式会社,熊本県,熊本市東区,小山２丁目１４番３号,,43,102,8618045,,,,,,,2025-06-13,1,,,,,ハラコン,0
1591,6330003011030,新規,0,2025-06-13,2025-06-13,合同会社Ｃａｌｍａ,,合同会社,熊本県,八代市,妙見町２４２５番地,,43,202,8660802,,,,,,,2025-06-13,1,,,,,カルマ,0
1592,6330005010922,新規,0,2025-06-13,2025-06-13,農事組合法人菊池チキンファーム,,その他の設立登記法人,熊本県,菊池市,原４４５５番地４０,,43,210,8611441,,,,,,,2025-06-13,1,,,,,キクチチキンファーム,0
1595,6340001027432,新規,0,2025-06-13,2025-06-13,株式会社アクア,,株式会社,鹿児島県,鹿児島市,易居町３－３Ｇｒｅｃｅ１０２号室,,46,201,8920815,,,,,,,2025-06-13,1,,,,,アクア,0
1598,6350001019593,新規,0,2025-06-13,2025-06-13,農業法人ヤマコー株式会社,,株式会社,宮崎県,宮崎市,橘通西５丁目６番５７号山崎ビル５Ｆ,00139559,45,201,8800001,,,,,,,2025-06-13,1,,,,,ノウギョウホウジンヤマコー,0
1601,6360001035301,新規,0,2025-06-13,2025-06-13,ＮＳＫホールディングス株式会社,,株式会社,沖縄県,那覇市,港町２丁目６番１８号南西海運ビル７Ｆ,,47,201,9000001,,,,,,,2025-06-13,1,,,,,エヌエスケイホールディングス,0
1602,6360005007247,新規,0,2025-06-13,2025-06-13,一般社団法人沖縄アニメーションフェスティバル,,その他の設立登記法人,沖縄県,浦添市,伊祖３丁目４番１２号伊々寿スポット３０２号室,,47,208,9012132,,,,,,,2025-06-13,1,,,,,オキナワアニメーションフェスティバル,0
1603,6370001052709,新規,0,2025-06-13,2025-06-13,株式会社ＯｎｅＢｅ,,株式会社,宮城県,仙台市青葉区,木町８番１０コーポセナ１０３号,,04,101,9810932,,,,,,,2025-06-13,1,,,,,ワンビー,0
1617,6430001094661,新規,0,2025-06-13,2025-06-13,株式会社Ｅｌｅｐｈａｎｔ,,株式会社,北海道,札幌市白石区,北郷四条６丁目１番１４号,,01,104,0030834,,,,,,,2025-06-13,1,,,,,エレファント,0
1618,6430001094678,新規,0,2025-06-13,2025-06-13,株式会社華月,,株式会社,北海道,札幌市中央区,南四条西６丁目８番地晴ばれビル５階,,01,101,0640804,,,,,,,2025-06-13,1,,,,,カゲツ,0
1633,7010001255924,新規,0,2025-06-13,2025-06-13,華仁株式会社,,株式会社,東京都,千代田区,神田平河町１番地,,13,101,1010027,,,,,,,2025-06-13,1,,,,,カジン,0
1634,7010001255981,新規,0,2025-06-13,2025-06-13,株式会社バキ,,株式会社,東京都,中央区,築地３丁目１２番５号＋ＳＨＩＦＴＴＳＵＫＩＪＩ７Ｆ,,13,102,1040045,,,,,,,2025-06-13,1,,,,,バキ,0
1644,7010401191018,新規,0,2025-06-13,2025-06-13,株式会社Ｈｉｋａｒｉ　Ｃｒｅａｔｉｏｎ,,株式会社,東京都,港区,芝浦４丁目１１－１７中野スプリングビル４階Ｃ,,13,103,1080023,,,,,,,2025-06-13,1,,,,,ヒカリクリエーション,0
1645,7010401191034,新規,0,2025-06-13,2025-06-13,株式会社１０４６,,株式会社,東京都,港区,南青山４丁目１７番３３号グランカーサ南青山２Ｆ,,13,103,1070062,,,,,,,2025-06-13,1,,,,,ワンオーフォーシックス,0
1646,7010401191042,新規,0,2025-06-13,2025-06-13,株式会社ベンチャークライアント,,株式会社,東京都,港区,北青山１丁目３番３号三橋ビル３階,,13,103,1070061,,,,,,,2025-06-13,1,,,,,ベンチャークライアント,0
1647,7010401191050,新規,0,2025-06-13,2025-06-13,株式会社築福不動産,,株式会社,東京都,港区,六本木３丁目３番１０号,,13,103,1060032,,,,,,,2025-06-13,1,,,,,チクフクフドウサン,0
1648,7010401191091,新規,0,2025-06-13,2025-06-13,株式会社大川・大澤事務所,,株式会社,東京都,港区,南青山３丁目１番３６号青山丸竹ビル６Ｆ,,13,103,1070062,,,,,,,2025-06-13,1,,,,,オオカワオオサワジムショ,0
1650,7010403035346,新規,0,2025-06-13,2025-06-13,合同会社ＭＡＷＣ,,合同会社,東京都,港区,南青山４丁目６番２号,,13,103,1070062,,,,,,,2025-06-13,1,,,,,エムエーダブリューシー,0
1664,7010901057560,新規,0,2025-06-13,2025-06-13,株式会社Ｌ７,,株式会社,東京都,世田谷区,等々力４丁目２４－１４コンポジット等々力１０１,,13,112,1580082,,,,,,,2025-06-13,1,,,,,エルナナ,0
1669,7011001169874,新規,0,2025-06-13,2025-06-13,株式会社Ａｉｍｓ,,株式会社,東京都,渋谷区,桜丘町１５番８号高木産業会館３１７,,13,113,1500031,,,,,,,2025-06-13,1,,,,,,0
1673,7011101112057,新規,0,2025-06-13,2025-06-13,株式会社ＣＯＭＰＬＥＴＥ,,株式会社,東京都,新宿区,西早稲田１丁目１番１号ヨートー早稲田ビル４階,,13,104,1690051,,,,,,,2025-06-13,1,,,,,コンプリート,0
1675,7011301030645,新規,0,2025-06-13,2025-06-13,株式会社ＨＣＨ,,株式会社,東京都,杉並区,高井戸東３丁目９番３２号プレミアコンフォート高井戸４０９,,13,115,1680072,,,,,,,2025-06-13,1,,,,,エイチシーエイチ,0
1676,7011401027137,新規,0,2025-06-13,2025-06-13,Ｏｔｔｏｃａｓｔ株式会社,,株式会社,東京都,板橋区,小茂根１丁目３－１５,,13,119,1730037,,,,,,,2025-06-13,1,,,,,オットキャスト,0
1677,7011401027153,新規,0,2025-06-13,2025-06-13,株式会社昴ワークス,,株式会社,東京都,板橋区,成増５丁目５－１５,,13,119,1750094,,,,,,,2025-06-13,1,,,,,スバルワークス,0
1683,7011703004288,新規,0,2025-06-13,2025-06-13,合同会社ＬＩＶＥ　ＳＴＲＯＮＧ,,合同会社,東京都,江戸川区,中葛西５丁目４１番１０号プレイス葛西６階,,13,123,1340083,,,,,,,2025-06-13,1,,,,,ライブストロング,0
1689,7011801046315,新規,0,2025-06-13,2025-06-13,株式会社ロッキー,,株式会社,東京都,足立区,足立３丁目１３番２５号,,13,121,1200015,,,,,,,2025-06-13,1,,,,,ロッキー,0
1697,7012401043207,新規,0,2025-06-13,2025-06-13,株式会社リフォテラス,,株式会社,東京都,三鷹市,北野２丁目６番１２号オレンジヒルＧ,,13,204,1810003,,,,,,,2025-06-13,1,,,,,リフォテラス,0
1700,7013101009712,新規,0,2025-06-13,2025-06-13,ＰＲＯＭＯＮ株式会社,,株式会社,東京都,あきる野市,下代継２５番地３,,13,228,1970831,,,,,,,2025-06-13,1,,,,,プロモン,0
1707,7020001163317,新規,0,2025-06-13,2025-06-13,株式会社ＡＧＥＮＣＹ,,株式会社,神奈川県,横浜市西区,みなとみらい３丁目３番１号ＫＤＸ横浜みなとみらいタワー８階,,14,103,2200012,,,,,,,2025-06-13,1,,,,,エイジェンシー,0
1714,7020003028600,新規,0,2025-06-13,2025-06-13,アンクルズ合同会社,,合同会社,神奈川県,横浜市青葉区,大場町３６３番地１７,,14,117,2250023,,,,,,,2025-06-13,1,,,,,アンクルズ,0
1730,7030001166979,新規,0,2025-06-13,2025-06-13,株式会社ｍｉｎｉ　ｃｏｒｐｏｒａｔｉｏｎ,,株式会社,埼玉県,新座市,栗原４丁目３－２４－１,,11,230,3520035,,,,,,,2025-06-13,1,,,,,ミニコーポレーション,0
1731,7030001167052,新規,0,2025-06-13,2025-06-13,株式会社ごえん,,株式会社,埼玉県,所沢市,狭山ケ丘１丁目３００７番地の１５,,11,208,3591161,,,,,,,2025-06-13,1,,,,,ゴエン,0
1732,7030001167085,新規,0,2025-06-13,2025-06-13,株式会社ＴＲＩＡＮＧＬＥ,,株式会社,埼玉県,和光市,新倉１丁目１９番１６号ブランドール和光１０６,,11,229,3510115,,,,,,,2025-06-13,1,,,,,トライアングル,0
1733,7030001167093,新規,0,2025-06-13,2025-06-13,株式会社新,,株式会社,埼玉県,川口市,長蔵１丁目１１番１１号,,11,203,3330807,,,,,,,2025-06-13,1,,,,,アラタ,0
1734,7030001167110,新規,0,2025-06-13,2025-06-13,株式会社ＯＮＥ・Ｄ,,株式会社,埼玉県,さいたま市緑区,美園４丁目１－２センターフィールド浦和美園壱番街４０２,,11,109,3360967,,,,,,,2025-06-13,1,,,,,ワンド,0
1737,7030003026974,新規,0,2025-06-13,2025-06-13,合同会社ＳＴリハビリ,,合同会社,埼玉県,さいたま市大宮区,堀の内町１丁目８番レクセル大宮４０５号,,11,103,3300804,,,,,,,2025-06-13,1,,,,,エスティリハビリ,0
1738,7030003026990,新規,0,2025-06-13,2025-06-13,合同会社スリーエスリノベーション,,合同会社,埼玉県,川口市,桜町３丁目１５番１８号ＳＡＫＵＲＡ３１５１８Ａ号室,,11,203,3340001,,,,,,,2025-06-13,1,,,,,スリーエスリノベーション,0
1743,7040001139224,新規,0,2025-06-13,2025-06-13,株式会社ＨＡＲＡくっちーな,,株式会社,千葉県,松戸市,三ケ月１３３５番地新松戸美笠ハイツ３０４号,,12,207,2700026,,,,,,,2025-06-13,1,,,,,ハラクッチーナ,0
1744,7040001139232,新規,0,2025-06-13,2025-06-13,株式会社ＣＡＬＬ,,株式会社,千葉県,船橋市,三咲５丁目２８番２０号,,12,204,2740812,,,,,,,2025-06-13,1,,,,,コール,0
1752,7060003005595,新規,0,2025-06-13,2025-06-13,ＦＵＫＵＪＵＤＯ合同会社,,合同会社,栃木県,鹿沼市,万町９３９－２,,09,205,3220043,,,,,,,2025-06-13,1,,,,,フクジュドウ,0
1754,7070003005958,新規,0,2025-06-13,2025-06-13,徳昇国際サポート合同会社,,合同会社,群馬県,高崎市,山名町２５０２番地３,,10,202,3701213,,,,,,,2025-06-13,1,,,,,トクショウコクサイサポート,0
1761,7080403005284,新規,0,2025-06-13,2025-06-13,ＤｉｇｉＴｏｍｏ合同会社,,合同会社,静岡県,袋井市,田町１丁目１－１５ＢＩＲＤＳ,,22,216,4370063,,,,,,,2025-06-13,1,,,,,デジトモ,0
1779,7120001276827,新規,0,2025-06-13,2025-06-13,ＭｅｔａＬｉｎｋ株式会社,,株式会社,大阪府,大阪市中央区,南船場３丁目２番２２号おおきに南船場ビル２０５,,27,128,5420081,,,,,,,2025-06-13,1,,,,,メタリンク,0
1780,7120001276835,新規,0,2025-06-13,2025-06-13,黒馬堂株式会社,,株式会社,大阪府,大阪市城東区,関目５丁目１９番９号関目花博公館４０３Ａ,,27,118,5360008,,,,,,,2025-06-13,1,,,,,クロバドウ,0
1781,7120001276851,新規,0,2025-06-13,2025-06-13,楽の居株式会社,,株式会社,大阪府,大阪市阿倍野区,北畠３丁目１０番５号,,27,119,5450035,,,,,,,2025-06-13,1,,,,,ラクノキョ,0
1782,7120001276868,新規,0,2025-06-13,2025-06-13,株式会社優悠,,株式会社,大阪府,大阪市淀川区,西中島４丁目５番８号,,27,123,5320011,,,,,,,2025-06-13,1,,,,,ユウユウ,0
1784,7120003029704,新規,0,2025-06-13,2025-06-13,盛沢合同会社,,合同会社,大阪府,寝屋川市,萱島東１丁目９番２１－３０３号,,27,215,5720824,,,,,,,2025-06-13,1,,,,,モリサワ,0
1785,7120101071888,新規,0,2025-06-13,2025-06-13,株式会社大心,,株式会社,大阪府,岸和田市,西之内町１２番４１号,,27,202,5960044,,,,,,,2025-06-13,1,,,,,ダイシン,0
1795,7120901051057,新規,0,2025-06-13,2025-06-13,株式会社ｉｍ．,,株式会社,大阪府,茨木市,豊原町９番２０－１３１８号,,27,211,5670053,,,,,,,2025-06-13,1,,,,,アイエム,0
1812,7130003010547,新規,0,2025-06-13,2025-06-13,合同会社ＯＭＬ３６５,,合同会社,京都府,京都市北区,紫竹西南町５６番地５,,26,101,6038206,,,,,,,2025-06-13,1,,,,,オムエルサンロクゴ,0
1814,7140001138868,新規,0,2025-06-13,2025-06-13,株式会社ヒロコーポレーション,,株式会社,兵庫県,神戸市西区,池上５丁目１２番地の１２,,28,111,6512111,,,,,,,2025-06-13,1,,,,,ヒロコーポレーション,0
1818,7140003022186,新規,0,2025-06-13,2025-06-13,合同会社中原,,合同会社,兵庫県,尼崎市,尾浜町１丁目３２番１－８１６号,,28,202,6610022,,,,,,,2025-06-13,1,,,,,ナカハラ,0
1819,7140003022211,新規,0,2025-06-13,2025-06-13,神戸エナジー合同会社,,合同会社,兵庫県,姫路市,御国野町御着２８７番地,,28,201,6710232,,,,,,,2025-06-13,1,,,,,コウベエナジー,0
1827,7180001167269,新規,0,2025-06-13,2025-06-13,株式会社アンエイドウ,,株式会社,愛知県,春日井市,柏井町５丁目１５６番地,,23,206,4860927,,,,,,,2025-06-13,1,,,,,アンエイドウ,0
1828,7180001167277,新規,0,2025-06-13,2025-06-13,盛澤株式会社,,株式会社,愛知県,名古屋市中区,新栄１丁目１２番２１号ロイヤルビル瓦町４階,,23,106,4600007,,,,,,,2025-06-13,1,,,,,モリザワ,0
1829,7180001167302,新規,0,2025-06-13,2025-06-13,株式会社日光建業,,株式会社,愛知県,あま市,小路２丁目６番地２４,,23,237,4901106,,,,,,,2025-06-13,1,,,,,ニッコウケンギョウ,0
1830,7180001167310,新規,0,2025-06-13,2025-06-13,株式会社ＮＯＲＭＡＬ,,株式会社,愛知県,名古屋市千種区,今池１丁目６－１３今池スタービル１ＦＮＯＲＭＡＬ,,23,101,4640850,,,,,,,2025-06-13,1,,,,,ノーマル,0
1838,7200005013771,新規,0,2025-06-13,2025-06-13,一般社団法人ａｒｉｎｏｍａｍａ,,その他の設立登記法人,岐阜県,岐阜市,西秋沢２丁目２０４番地２,,21,201,5011184,,,,,,,2025-06-13,1,,,,,アリノママ,0
1851,7290001110291,新規,0,2025-06-13,2025-06-13,株式会社ワンヘルス,,株式会社,福岡県,福岡市東区,下原１丁目９番６－２０７号,,40,131,8130002,,,,,,,2025-06-13,1,,,,,ワンヘルス,0
1855,7330001033298,新規,0,2025-06-13,2025-06-13,株式会社ＪＰホールディングス九州,,株式会社,熊本県,熊本市北区,徳王１丁目６番５２号ＴＫＵぷらざ,,43,105,8615525,,,,,,,2025-06-13,1,,,,,ジェイピーホールディングスキュウシュウ,0
1863,7370003007148,新規,0,2025-06-13,2025-06-13,合同会社ｓｏｒａｎｏｎｉｗａ,,合同会社,宮城県,仙台市若林区,舟丁６３番地の２ＳＡＳＨＩＮ河原町１０３,,04,103,9840806,,,,,,,2025-06-13,1,,,,,ソラノニワ,0
1878,7420001019180,新規,0,2025-06-13,2025-06-13,株式会社ｒｅｆｒａｉｎ,,株式会社,青森県,弘前市,大字高田２丁目８番地１１,,02,202,0368084,,,,,,,2025-06-13,1,,,,,リフレイン,0
1882,7430001094660,新規,0,2025-06-13,2025-06-13,株式会社トノシス,,株式会社,北海道,札幌市清田区,平岡公園東１丁目６番７号,,01,110,0040882,,,,,,,2025-06-13,1,,,,,トノシス,0
1883,7430001094669,新規,0,2025-06-13,2025-06-13,Ｍｕｇ　Ｈｕｎｔ　Ｄｏｌｌａｒｓ株式会社,,株式会社,北海道,札幌市豊平区,月寒中央通１１丁目１番３号,,01,105,0620020,,,,,,,2025-06-13,1,,,,,マグハントダラーズ,0
1886,7450003002677,新規,0,2025-06-13,2025-06-13,ホクヨウ通信合同会社,,合同会社,北海道,旭川市,南一条通２２丁目１９７４番地の１８０,,01,204,0788331,,,,,,,2025-06-13,1,,,,,ホクヨウツウシン,0
1887,7470001020761,新規,0,2025-06-13,2025-06-13,株式会社ＳＹ,,株式会社,香川県,高松市,屋島西町２０１４番地２,,37,201,7610113,,,,,,,2025-06-13,1,,,,,エスワイ,0
1899,8010001255907,新規,0,2025-06-13,2025-06-13,株式会社Ｓｕｂｍｏｎｔｅ　Ｇｒｏｕｐ,,株式会社,東京都,文京区,本郷４丁目１６番６号,,13,105,1130033,,,,,,,2025-06-13,1,,,,,サブモンテグループ,0
1900,8010001255923,新規,0,2025-06-13,2025-06-13,株式会社嘉好,,株式会社,東京都,中央区,日本橋蛎殻町２丁目１１番２号,,13,102,1030014,,,,,,,2025-06-13,1,,,,,カヨシ,0
1901,8010001255931,新規,0,2025-06-13,2025-06-13,ＯｍｎｉＰｒｏ株式会社,,株式会社,東京都,中央区,日本橋室町１丁目１１番１２号日本橋水野ビル７階,,13,102,1030022,,,,,,,2025-06-13,1,,,,,オムニプロ,0
1902,8010001255956,新規,0,2025-06-13,2025-06-13,ＨＴソリューション株式会社,,株式会社,東京都,中央区,湊１丁目６番２－３０３号,,13,102,1040043,,,,,,,2025-06-13,1,,,,,エイチティーソリューション,0
1904,8010003047666,新規,0,2025-06-13,2025-06-13,合同会社ＡＩＲＩＯ,,合同会社,東京都,中央区,銀座１丁目１２－４Ｎ＆ＥＢＬＤ．７階,,13,102,1040061,,,,,,,2025-06-13,1,,,,,アイリオ,0
1913,8010401190984,新規,0,2025-06-13,2025-06-13,郵船不動産株式会社,,株式会社,東京都,港区,西新橋３丁目２３番５号,,13,103,1050003,,,,,,,2025-06-13,1,,,,,ユウセンフドウサン,0
1914,8010401190992,新規,0,2025-06-13,2025-06-13,株式会社インキュパートナーズ,,株式会社,東京都,港区,北青山１丁目３番３号三橋ビル３階,,13,103,1070061,,,,,,,2025-06-13,1,,,,,インキュパートナーズ,0
1915,8010401191041,新規,0,2025-06-13,2025-06-13,外交騎行倶楽部株式会社,,株式会社,東京都,港区,六本木５丁目１３番地１２号エスティメゾン麻布永坂７０２,,13,103,1060032,,,,,,,2025-06-13,1,,,,,ガイコウキコウクラブ,0
1918,8010405024429,新規,0,2025-06-13,2025-06-13,一般社団法人和悠会,,その他の設立登記法人,東京都,港区,新橋６丁目１３番９号１階,,13,103,1050004,,,,,,,2025-06-13,1,,,,,ワユウカイ,0
1923,8010701047819,新規,0,2025-06-13,2025-06-13,株式会社ＨＥＬＥ,,株式会社,東京都,品川区,西五反田６丁目２５番１５－１００２号,,13,109,1410031,,,,,,,2025-06-13,1,,,,,ヘレ,0
1926,8010903010005,新規,0,2025-06-13,2025-06-13,Ｂｅｌｌｉｎ合同会社,,合同会社,東京都,世田谷区,瀬田５丁目１２―９,,13,112,1580095,,,,,,,2025-06-13,1,,,,,ベリン,0
1929,8011001170501,新規,0,2025-06-13,2025-06-13,Ｎｏｖａｎ株式会社,,株式会社,東京都,渋谷区,宇田川町１４番１３号宇田川町ビルディング３階,,13,113,1500042,,,,,,,2025-06-13,1,,,,,ノヴァン,0
1930,8011003021719,新規,0,2025-06-13,2025-06-13,合同会社メディアダイレクト,,合同会社,東京都,渋谷区,渋谷１丁目１－６エムエフ青山３０１,,13,113,1500002,,,,,,,2025-06-13,1,,,,,メディアダイレクト,0
1932,8011101112080,新規,0,2025-06-13,2025-06-13,東宿建投株式会社,,株式会社,東京都,新宿区,上落合１丁目７番１３号２階,,13,104,1610034,,,,,,,2025-06-13,1,,,,,トウシンケントウ,0
1943,8011801046314,新規,0,2025-06-13,2025-06-13,ＹＮＹ株式会社,,株式会社,東京都,足立区,西新井本町３丁目６－２７,,13,121,1230845,,,,,,,2025-06-13,1,,,,,ワイエヌワイ,0
1948,8012801024029,新規,0,2025-06-13,2025-06-13,株式会社エヌエフシー,,株式会社,東京都,昭島市,宮沢町４９７番地１０,,13,207,1960024,,,,,,,2025-06-13,1,,,,,エヌエフシー,0
1961,8020001163159,新規,0,2025-06-13,2025-06-13,Ｋｏｓｈｅｒ　Ｆｏｏｄｓ　Ｊａｐａｎ株式会社,,株式会社,神奈川県,横浜市鶴見区,北寺尾４丁目１２番１６号,,14,101,2300074,,,,,,,2025-06-13,1,,,,,コーシャフーズジャパン,0
1962,8020001163340,新規,0,2025-06-13,2025-06-13,ＹＴコンサルティング株式会社,,株式会社,神奈川県,横浜市港北区,日吉本町２丁目４３番６－２号,,14,109,2230062,,,,,,,2025-06-13,1,,,,,ワイティーコンサルティング,0
1963,8020001163365,新規,0,2025-06-13,2025-06-13,むぎ工房株式会社,,株式会社,神奈川県,横浜市神奈川区,白幡上町１０番６,,14,102,2210075,,,,,,,2025-06-13,1,,,,,ムギコウボウ,0
1964,8020001163373,新規,0,2025-06-13,2025-06-13,株式会社ｂｌｏｏｍｉｎｇｏｏｄ,,株式会社,神奈川県,横浜市青葉区,青葉台１丁目２４番３号,,14,117,2270062,,,,,,,2025-06-13,1,,,,,ブルーミングッド,0
1967,8020003028707,新規,0,2025-06-13,2025-06-13,合同会社ＮＯＸＳ,,合同会社,神奈川県,横浜市神奈川区,羽沢町１６１５ヴェルドミール羽沢１０３,,14,102,2210863,,,,,,,2025-06-13,1,,,,,ノックス,0
1968,8021001085517,新規,0,2025-06-13,2025-06-13,株式会社ＡＯＩ　Ｇｒｏｕｐ,,株式会社,神奈川県,平塚市,虹ケ浜３番５号,,14,203,2540823,,,,,,,2025-06-13,1,,,,,アオイグループ,0
1976,8030001167076,新規,0,2025-06-13,2025-06-13,株式会社アールクリーンサポート,,株式会社,埼玉県,入間郡毛呂山町,目白台４丁目７番地１４,,11,326,3500439,,,,,,,2025-06-13,1,,,,,アールクリーンサポート,0
1977,8030001167092,新規,0,2025-06-13,2025-06-13,株式会社ＳＡＮＫＹＯ,,株式会社,埼玉県,八潮市,大字木曽根１２０６番地１,,11,234,3400813,,,,,,,2025-06-13,1,,,,,サンキョウ,0
1979,8030003026965,新規,0,2025-06-13,2025-06-13,Ｂｅｅ合同会社,,合同会社,埼玉県,新座市,西堀２丁目２番２９号グリーンパーク３０５号室,,11,230,3520031,,,,,,,2025-06-13,1,,,,,ビー,0
1986,8040001139215,新規,0,2025-06-13,2025-06-13,株式会社Ｔ２Ｒ,,株式会社,千葉県,千葉市美浜区,磯辺５丁目１５番４棟１０５号,,12,106,2610012,,,,,,,2025-06-13,1,,,,,ティーツゥーアール,0
1987,8040001139223,新規,0,2025-06-13,2025-06-13,千楽観光株式会社,,株式会社,千葉県,成田市,駒井野字板橋１４３３番４,,12,211,2860121,,,,,,,2025-06-13,1,,,,,センラクカンコウ,0
1988,8040001139231,新規,0,2025-06-13,2025-06-13,株式会社Ａｆｆｉｎｉｔｙ,,株式会社,千葉県,八千代市,大和田新田４１０番地１,,12,221,2760046,,,,,,,2025-06-13,1,,,,,アフィニティ,0
1990,8040003027789,新規,0,2025-06-13,2025-06-13,合同会社カモスミ,,合同会社,千葉県,印西市,戸神１０３７番地５,,12,231,2701348,,,,,,,2025-06-13,1,,,,,カモスミ,0
2003,8080001026987,新規,0,2025-06-13,2025-06-13,弘文堂株式会社,,株式会社,静岡県,焼津市,西小川３丁目１５番地の５,,22,212,4250036,,,,,,,2025-06-13,1,,,,,コウブンドウ,0
2017,8120001276628,新規,0,2025-06-13,2025-06-13,カオリコード株式会社,,株式会社,大阪府,大阪市住吉区,長居西１丁目１２番２８号,,27,120,5580002,,,,,,,2025-06-13,1,,,,,カオリコード,0
2018,8120001276801,新規,0,2025-06-13,2025-06-13,株式会社ＦＵＫ心斎橋,,株式会社,大阪府,大阪市中央区,東心斎橋２丁目８番２９号,,27,128,5420083,,,,,,,2025-06-13,1,,,,,エフユーケーシンサイバシ,0
2019,8120001276850,新規,0,2025-06-13,2025-06-13,Ｂｏｒｎ　ＪＰ株式会社,,株式会社,大阪府,大阪市港区,南市岡１丁目８番２２号２０１Ｄ,,27,107,5520011,,,,,,,2025-06-13,1,,,,,ボーンジェイピー,0
2025,8120101071887,新規,0,2025-06-13,2025-06-13,株式会社戸田ＫＯＵ,,株式会社,大阪府,松原市,三宅中５丁目２番２６号,,27,217,5800046,,,,,,,2025-06-13,1,,,,,トダコウ,0
2027,8120901050883,新規,0,2025-06-13,2025-06-13,株式会社シード,,株式会社,大阪府,摂津市,鳥飼上３丁目１９番２８号,,27,224,5660062,,,,,,,2025-06-13,1,,,,,シード,0
2031,8130001079815,新規,0,2025-06-13,2025-06-13,Ｌｉｓａｓ株式会社,,株式会社,京都府,京都市下京区,五条通室町西入上る小田原町２３９番地２,,26,106,6008430,,,,,,,2025-06-13,1,,,,,リサス,0
2032,8130001079906,新規,0,2025-06-13,2025-06-13,株式会社モネリス,,株式会社,京都府,京都市伏見区,中島北ノ口町１番地３０５号,,26,109,6128451,,,,,,,2025-06-13,1,,,,,モネリス,0
2033,8130001079914,新規,0,2025-06-13,2025-06-13,藍森株式会社,,株式会社,京都府,京都市伏見区,深草直違橋北１丁目４７７番地１８－２１０室,,26,109,6120869,,,,,,,2025-06-13,1,,,,,ランモリ,0
2043,8140001138925,新規,0,2025-06-13,2025-06-13,ＮＮＴパートナー株式会社,,株式会社,兵庫県,神戸市灘区,王子町１丁目１－３,,28,102,6570838,,,,,,,2025-06-13,1,,,,,エヌエヌティパートナー,0
2044,8140003022193,新規,0,2025-06-13,2025-06-13,百楽屋合同会社,,合同会社,兵庫県,明石市,魚住町金ケ崎１１６１－１,,28,203,6740071,,,,,,,2025-06-13,1,,,,,ヒャクラクヤ,0
2051,8140005027538,新規,0,2025-06-13,2025-06-13,特定非営利活動法人心の絆,,その他の設立登記法人,兵庫県,神戸市兵庫区,上沢通６丁目４番９－７０２号,,28,105,6520046,,,,,,,2025-06-13,1,,,,,ココロノキズナ,0
2057,8180001167318,新規,0,2025-06-13,2025-06-13,株式会社エフ・ティー,,株式会社,愛知県,名古屋市中区,新栄町３丁目５番地エムティービル,,23,106,4600004,,,,,,,2025-06-13,1,,,,,エフティー,0
2061,8180003028600,新規,0,2025-06-13,2025-06-13,合同会社ｈａｍｉｉｄａｓｈｉ,,合同会社,愛知県,名古屋市中村区,名駅４丁目２４番５号第２森ビル４０１,,23,105,4500002,,,,,,,2025-06-13,1,,,,,ハミダシ,0
2064,8180301039877,新規,0,2025-06-13,2025-06-13,株式会社ＫＭＴ設計,,株式会社,愛知県,豊田市,東保見町根川５１番地１,,23,211,4700345,,,,,,,2025-06-13,1,,,,,ケイエムティセッケイ,0
2065,8180301039910,新規,0,2025-06-13,2025-06-13,株式会社ＥＬＣ,,株式会社,愛知県,岡崎市,河原町１１番地１８,,23,202,4442118,,,,,,,2025-06-13,1,,,,,イーエルコネクト,0
2071,8220001026741,新規,0,2025-06-13,2025-06-13,ＲＵＮ不動産株式会社,,株式会社,石川県,金沢市,本多町３丁目１０番１５号,,17,201,9200964,,,,,,,2025-06-13,1,,,,,ランフドウサン,0
2073,8230003002442,新規,0,2025-06-13,2025-06-13,合同会社Ｉｃｈｉｖｅ,,合同会社,富山県,富山市,文京町２丁目７‐１,,16,201,9300876,,,,,,,2025-06-13,1,,,,,イチブ,0
2078,8240003007242,新規,0,2025-06-13,2025-06-13,合同会社ＩＮＫ　ＪＵＮＫＩＥＳ,,合同会社,広島県,福山市,神辺町字湯野１７８番地１,,34,207,7202121,,,,,,,2025-06-13,1,,,,,インクジャンキーズ,0
2079,8250001021194,新規,0,2025-06-13,2025-06-13,株式会社Ｔ‐ＮＥＸＴ,,株式会社,山口県,萩市,大字堀内２５８番地４４,,35,204,7580057,,,,,,,2025-06-13,1,,,,,ティーネクスト,0
2091,8290001110398,新規,0,2025-06-13,2025-06-13,株式会社セールスポイントジャパン,,株式会社,福岡県,福岡市中央区,天神２丁目２番１２号ＴアンドＪビルディング７Ｆ,,40,133,8100001,,,,,,,2025-06-13,1,,,,,セールスポイントジャパン,0
2094,8290003016981,新規,0,2025-06-13,2025-06-13,合同会社ＩＷ．ＴＪ,,合同会社,福岡県,福岡市南区,長丘３丁目１９番２３号,,40,134,8150075,,,,,,,2025-06-13,1,,,,,アイダブルティジェー,0
2098,8320001021162,新規,0,2025-06-13,2025-06-13,株式会社プロジェクトインシュアランス,,株式会社,大分県,大分市,三佐３丁目１０１番地鶴崎司法会館３０２号室,,44,201,8700108,,,,,,,2025-06-13,1,,,,,プロジェクトインシュアランス,0
2100,8330001033297,新規,0,2025-06-13,2025-06-13,株式会社フジタ,,株式会社,熊本県,荒尾市,増永２０００番地２２,,43,204,8640032,,,,,,,2025-06-13,1,,,,,フジタ,0
2105,8330003011061,新規,0,2025-06-13,2025-06-13,合同会社夢叶,,合同会社,熊本県,天草市,本渡町広瀬１７６－１０１,,43,215,8630001,,,,,,,2025-06-13,1,,,,,ユメカナ,0
2111,8340003004873,新規,0,2025-06-13,2025-06-13,和田坂クリーン合同会社,,合同会社,鹿児島県,鹿児島市,坂之上１丁目２番１２号,,46,201,8910150,,,,,,,2025-06-13,1,,,,,ワダザカクリーン,0
2113,8350003004955,新規,0,2025-06-13,2025-06-13,合同会社間設計所,,合同会社,宮崎県,宮崎市,佐土原町下田島２０３１２－１１,,45,201,8800211,,,,,,,2025-06-13,1,,,,,アイダセッケイショ,0
2116,8360001035349,新規,0,2025-06-13,2025-06-13,株式会社仲里工業,,株式会社,沖縄県,中頭郡中城村,字北上原５４８番地,,47,328,9012423,,,,,,,2025-06-13,1,,,,,ナカザトコウギョウ,0
2118,8370001052715,新規,0,2025-06-13,2025-06-13,株式会社いちほ,,株式会社,宮城県,名取市,愛の杜１丁目１５番地の１２,,04,207,9811230,,,,,,,2025-06-13,1,,,,,イチホ,0
2119,8370003007139,新規,0,2025-06-13,2025-06-13,合同会社Ｔｉｍｅ,,合同会社,宮城県,仙台市青葉区,国分町２丁目１０番１７号花久ビル５階,,04,101,9800803,,,,,,,2025-06-13,1,,,,,タイム,0
2122,8380001035388,新規,0,2025-06-13,2025-06-13,株式会社ＰＯＷＥＲ’Ｓ,,株式会社,福島県,郡山市,朝日２丁目１９番２１号あさひ１番街５号棟,,07,203,9638024,,,,,,,2025-06-13,1,,,,,パワーズ,0
2128,8420003003132,新規,0,2025-06-13,2025-06-13,合同会社Ｓｎｏｗ　Ｄｅｗ,,合同会社,青森県,青森市,港町２丁目５番３号,,02,201,0300901,,,,,,,2025-06-13,1,,,,,スノーデュー,0
2132,8430001094651,新規,0,2025-06-13,2025-06-13,株式会社ＩＮＡＺＯ,,株式会社,北海道,札幌市中央区,南十条西１１丁目１番６５号,,01,101,0640810,,,,,,,2025-06-13,1,,,,,イナゾー,0
2133,8430001094676,新規,0,2025-06-13,2025-06-13,株式会社喜寿,,株式会社,北海道,札幌市中央区,南七条西４丁目プラザ７．４浅井ビル３階,,01,101,0640807,,,,,,,2025-06-13,1,,,,,キジュ,0
2135,8430003017775,新規,0,2025-06-13,2025-06-13,合同会社Ｔ＆Ｎ,,合同会社,北海道,札幌市中央区,双子山２丁目１番１号,,01,101,0640946,,,,,,,2025-06-13,1,,,,,ティーアンドエヌ,0
2136,8470001020760,新規,0,2025-06-13,2025-06-13,株式会社ベリーリンク,,株式会社,香川県,高松市,春日町５４９番地２,,37,201,7610101,,,,,,,2025-06-13,1,,,,,,0
2138,8480001012864,新規,0,2025-06-13,2025-06-13,株式会社Ａｕｇｅｎ　Ｂｌｉｃｋ,,株式会社,徳島県,阿南市,富岡町寿通１１５番地２,,36,204,7740030,,,,,,,2025-06-13,1,,,,,,0
2139,8490001011080,新規,0,2025-06-13,2025-06-13,株式会社スリーパス,,株式会社,高知県,高知市,春野町南ケ丘６丁目６番地５,,39,201,7810314,,,,,,,2025-06-13,1,,,,,スリーパス,0
2140,8500003003537,新規,0,2025-06-13,2025-06-13,クリムゾン・ハピネス合同会社,,合同会社,愛媛県,松山市,古三津２丁目２番７号,,38,201,7918067,,,,,,,2025-06-13,1,,,,,クリムゾンハピネス,0
2141,8700150131038,新規,0,2025-06-13,2025-06-13,ｇｕａｎｇｚｈｏｕｓｈｉｋａｄｅｎｇｄｉｌｉｕｐｉｊｕｙｏｕｘｉａｎｇｏｎｇｓｉ,,外国会社等,,,,,,,,ｇｕａｎｇｚｈｏｕｓｈｉｈｕａｄｕｑｕｓｈｉｌｉｎｇｚｈｅｎｈｅｃｈｅｎｇｃｕｎｔｕａｎｊｉｅｗｕｊｉｎｇｊｉｎｇｈｅｚｕｏｓｈｅｔｕａｎｊｉｅｌｕｘｉＢｄｏｎｇｃｈａｎｇｆａｎｇｓａｎｃｅｎｇ,,,,,,2025-06-13,1,,,,,グゥアンゾウシカデェンディリュウピジュユウゲンコウシ,0
2154,9010001255807,新規,0,2025-06-13,2025-06-13,株式会社Ｆｅｌｉｃｉｔｙ　Ｃａｐｉｔａｌ,,株式会社,東京都,千代田区,平河町２丁目１６番９号,,13,101,1020093,,,,,,,2025-06-13,1,,,,,フェリシティキャピタル,0
2155,9010001255823,新規,0,2025-06-13,2025-06-13,クロスリンク株式会社,,株式会社,東京都,中央区,日本橋室町１丁目１１番１２号日本橋水野ビル７階,,13,102,1030022,,,,,,,2025-06-13,1,,,,,クロスリンク,0
2156,9010001255914,新規,0,2025-06-13,2025-06-13,雲＿能源科技株式会社,00139568,株式会社,東京都,中央区,築地４丁目２番７－６０１号,,13,102,1040045,,,,,,,2025-06-13,1,,,,,ウィンチャージノウゲンカギ,0
2157,9010001255988,新規,0,2025-06-13,2025-06-13,ＮＩＮＥ　ＧＲＯＵＰ株式会社,,株式会社,東京都,中央区,銀座７丁目８番１７号虎屋銀座ビル９階,,13,102,1040061,,,,,,,2025-06-13,1,,,,,ナイングループ,0
2158,9010001255996,新規,0,2025-06-13,2025-06-13,株式会社ＨＥＣ,,株式会社,東京都,千代田区,外神田２丁目１番４号大京ビル松住町別館４０２号,,13,101,1010021,,,,,,,2025-06-13,1,,,,,エッチイーシー,0
2169,9010401190728,新規,0,2025-06-13,2025-06-13,株式会社エポックエンターテインメント,,株式会社,東京都,港区,新橋５丁目１２番１１号天翔新橋５丁目ビル９０７,,13,103,1050004,,,,,,,2025-06-13,1,,,,,エポックエンターテインメント,0
2170,9010401190991,新規,0,2025-06-13,2025-06-13,株式会社ＡＳＹマーケティング,,株式会社,東京都,港区,赤坂１丁目１２番３２号アーク森ビル１９階,,13,103,1070052,,,,,,,2025-06-13,1,,,,,エーエスワイマーケティング,0
2171,9010401191032,新規,0,2025-06-13,2025-06-13,株式会社景屋,,株式会社,東京都,港区,新橋２丁目９番１７号第二常盤ビル４階Ｂ号室,,13,103,1050004,,,,,,,2025-06-13,1,,,,,ケイヤ,0
2174,9010403035344,新規,0,2025-06-13,2025-06-13,山羊山スタジオス合同会社,,合同会社,東京都,港区,北青山１丁目３番１号,,13,103,1070061,,,,,,,2025-06-13,1,,,,,ヤギヤマスタジオス,0
2188,9011001169534,新規,0,2025-06-13,2025-06-13,Ｐｉｘｏｒａ株式会社,,株式会社,東京都,渋谷区,神宮前３丁目２５－６神宮前ウィンテルビル３Ｆ,,13,113,1500001,,,,,,,2025-06-13,1,,,,,ピクソラ,0
2189,9011001170129,新規,0,2025-06-13,2025-06-13,ネオ・アーキテクト株式会社,,株式会社,東京都,渋谷区,恵比寿西２丁目８番４号ＥＸ恵比寿西ビル５階,,13,113,1500021,,,,,,,2025-06-13,1,,,,,ネオアーキテクト,0
2190,9011001170260,新規,0,2025-06-13,2025-06-13,株式会社實珈業,,株式会社,東京都,渋谷区,本町２丁目２８番４号,,13,113,1510071,,,,,,,2025-06-13,1,,,,,ジツコウギョウ,0
2191,9011001170368,新規,0,2025-06-13,2025-06-13,株式会社アムール,,株式会社,東京都,渋谷区,笹塚１丁目５６番７号,,13,113,1510073,,,,,,,2025-06-13,1,,,,,アムール,0
2194,9011003021899,新規,0,2025-06-13,2025-06-13,Ｓｏｕｌ　Ｓｏｉｌ　Ｓｔａｔｉｏｎ合同会社,,合同会社,東京都,目黒区,下目黒１丁目１番１４号コノトラビル７Ｆ,,13,110,1530064,,,,,,,2025-06-13,1,,,,,ソウルソイルステーション,0
2197,9011101112063,新規,0,2025-06-13,2025-06-13,ＧｒｏＮｅｘｔ株式会社,,株式会社,東京都,新宿区,四谷４丁目１６番地３川辺新宿御苑前ビル５階,,13,104,1600004,,,,,,,2025-06-13,1,,,,,グローネクスト,0
2198,9011101112179,新規,0,2025-06-13,2025-06-13,株式会社Ｑｕｌａｌｉｍｓｔｅｌｌａ,,株式会社,東京都,新宿区,西新宿３丁目３番１３号西新宿水間ビル２Ｆ,,13,104,1600023,,,,,,,2025-06-13,1,,,,,クラリムステラ,0
2201,9011201026428,新規,0,2025-06-13,2025-06-13,株式会社ｓｕｎｒｉｓｅｓ,,株式会社,東京都,中野区,鷺宮４丁目２番１４号,,13,114,1650032,,,,,,,2025-06-13,1,,,,,サンライズィズ,0
2206,9011601028726,新規,0,2025-06-13,2025-06-13,株式会社コキア,,株式会社,東京都,練馬区,練馬１丁目２０番８号日建練馬ビル２Ｆ,,13,120,1760001,,,,,,,2025-06-13,1,,,,,コキア,0
2209,9011703004286,新規,0,2025-06-13,2025-06-13,合同会社Ｇａｎｇａ　Ｊａｍｕｎａ,,合同会社,東京都,江戸川区,西小岩１丁目３０番５号ＢＢＩ・ＢＬＤ４０２,,13,123,1330057,,,,,,,2025-06-13,1,,,,,ガンガザムナ,0
2214,9011801046313,新規,0,2025-06-13,2025-06-13,ＸＤ株式会社,,株式会社,東京都,葛飾区,堀切７丁目２７－７名橋ビル２０２号室,,13,122,1240006,,,,,,,2025-06-13,1,,,,,エックスディー,0
2217,9012701018914,新規,0,2025-06-13,2025-06-13,株式会社みらいえ,,株式会社,東京都,小平市,大沼町３丁目２５番１－５号,,13,211,1870001,,,,,,,2025-06-13,1,,,,,ミライエ,0
2228,9020001163323,新規,0,2025-06-13,2025-06-13,ウェルラボ株式会社,,株式会社,神奈川県,川崎市川崎区,小田１丁目２４－７,,14,131,2100846,,,,,,,2025-06-13,1,,,,,ウェルラボ,0
2229,9020001163356,新規,0,2025-06-13,2025-06-13,株式会社ＰＩＰＩ,,株式会社,神奈川県,川崎市宮前区,有馬９丁目２番７－６０６号,,14,136,2160003,,,,,,,2025-06-13,1,,,,,ピピ,0
2230,9020001163364,新規,0,2025-06-13,2025-06-13,株式会社Ｉｎｎｏｓｔａｒｉｏｒ,,株式会社,神奈川県,横浜市神奈川区,金港町５－１４クアドリフォリオ８階,,14,102,2210056,,,,,,,2025-06-13,1,,,,,イノステリア,0
2231,9020001163380,新規,0,2025-06-13,2025-06-13,株式会社サードウェイ,,株式会社,神奈川県,横浜市西区,北幸１丁目５－１０ＪＰＲ横浜ビル８階５０５号,,14,103,2200004,,,,,,,2025-06-13,1,,,,,サードウェイ,0
2232,9020001163389,新規,0,2025-06-13,2025-06-13,株式会社日本住宅設備,,株式会社,神奈川県,横浜市西区,浅間町１丁目４番３号ウィザードビル４０２,,14,103,2200072,,,,,,,2025-06-13,1,,,,,ニホンジュウタクセツビ,0
2235,9020003028656,新規,0,2025-06-13,2025-06-13,合同会社Ｉｎｎｅｒ　Ｄｅｓｉｇｎ,,合同会社,神奈川県,横浜市青葉区,荏田北１丁目１７番地４４,,14,117,2250015,,,,,,,2025-06-13,1,,,,,インナーデザイン,0
2236,9020003028714,新規,0,2025-06-13,2025-06-13,ファンデックス・マネージメント合同会社,,合同会社,神奈川県,横浜市金沢区,能見台１丁目３５番地２,,14,108,2360057,,,,,,,2025-06-13,1,,,,,ファンデックスマネージメント,0
2238,9021001085458,新規,0,2025-06-13,2025-06-13,株式会社ＷＧａｒｄｅｎｉａ,,株式会社,神奈川県,鎌倉市,七里ガ浜１丁目１－１ＷＥＥＫＥＮＤＨＯＵＳＥＡＬＬＥＹ１０３,,14,204,2480026,,,,,,,2025-06-13,1,,,,,ダブルガーデニア,0
2239,9021001085508,新規,0,2025-06-13,2025-06-13,株式会社あいきゅ,,株式会社,神奈川県,三浦郡葉山町,下山口１１３５番地の１,,14,301,2400116,,,,,,,2025-06-13,1,,,,,アイキュ,0
2250,9030001167091,新規,0,2025-06-13,2025-06-13,株式会社Ａｃａｃｉａ,,株式会社,埼玉県,さいたま市西区,プラザ９９番８号,,11,101,3310063,,,,,,,2025-06-13,1,,,,,アカシア,0
2251,9030001167100,新規,0,2025-06-13,2025-06-13,株式会社杉本内装,,株式会社,埼玉県,三郷市,花和田６８番地１サニーレジデンスＳ３－１,,11,237,3410041,,,,,,,2025-06-13,1,,,,,スギモトナイソウ,0
2256,9030003026980,新規,0,2025-06-13,2025-06-13,合同会社ＹＣＧ,,合同会社,埼玉県,吉川市,きよみ野４丁目１－１,,11,243,3420058,,,,,,,2025-06-13,1,,,,,ワイシージー,0
2257,9030003026989,新規,0,2025-06-13,2025-06-13,合同会社ＴＹＭ,,合同会社,埼玉県,さいたま市大宮区,北袋町１丁目６０１番地２Ｆ３７２,,11,103,3300835,,,,,,,2025-06-13,1,,,,,ティーワイエム,0
2266,9040001139222,新規,0,2025-06-13,2025-06-13,株式会社ＨＯＳＯ,,株式会社,千葉県,市原市,五井２５５９番地７,,12,219,2900056,,,,,,,2025-06-13,1,,,,,ホソ,0
2267,9040001139230,新規,0,2025-06-13,2025-06-13,株式会社２ＷａｙＬａｂ,,株式会社,千葉県,香取市,高萩１６５４番地１２７,,12,236,2870101,,,,,,,2025-06-13,1,,,,,ツーウェイラボ,0
2270,9050001056813,新規,0,2025-06-13,2025-06-13,株式会社２４,,株式会社,茨城県,常陸大宮市,石沢９１１番地の４,,08,225,3192135,,,,,,,2025-06-13,1,,,,,,0
2271,9050005013629,新規,0,2025-06-13,2025-06-13,一般社団法人こどもアドボカシーセンターいばらき,,その他の設立登記法人,茨城県,水戸市,梅香２丁目１番３９号,,08,201,3100022,,,,,,,2025-06-13,1,,,,,コドモアドボカシーセンターイバラキ,0
2275,9070001043033,新規,0,2025-06-13,2025-06-13,株式会社伊勢崎プリオ,,株式会社,群馬県,伊勢崎市,昭和町３８２７番地,,10,204,3720014,,,,,,,2025-06-13,1,,,,,イセサキプリオ,0
2276,9080001026986,新規,0,2025-06-13,2025-06-13,株式会社Ｔｅｒｓｕｓ　ＧＮＳＳ　ＪＡＰＡＮ,,株式会社,静岡県,静岡市葵区,城北１０６番地の１,,22,101,4200805,,,,,,,2025-06-13,1,,,,,テルサスジーエヌエスエスジャパン,0
2281,9110001039349,新規,0,2025-06-13,2025-06-13,株式会社鶴商倉庫,,株式会社,新潟県,新潟市北区,太夫浜１８５０番地２,,15,101,9503112,,,,,,,2025-06-13,1,,,,,ツルショウソウコ,0
2291,9120001276759,新規,0,2025-06-13,2025-06-13,傾城奧裕一心株式会社,,株式会社,大阪府,大阪市東成区,大今里３丁目１５番６号ＩｍａｚａｔｏＴｏｗｅｒ４０６Ｂ,,27,115,5370012,,,,,,,2025-06-13,1,,,,,ケイジョオクユイッシン,0
2292,9120001276791,新規,0,2025-06-13,2025-06-13,株式会社ＮＯＶＡＲ,,株式会社,大阪府,大阪市住吉区,万代２丁目２番４－２０５号,,27,120,5580055,,,,,,,2025-06-13,1,,,,,ノヴァー,0
2293,9120001276809,新規,0,2025-06-13,2025-06-13,ＥＡＳＹＷＡＹ国際株式会社,,株式会社,大阪府,大阪市生野区,新今里１丁目１０－２６コウビル１０１号,,27,116,5440001,,,,,,,2025-06-13,1,,,,,イージーウェイコクサイ,0
2296,9120003029743,新規,0,2025-06-13,2025-06-13,彼女咲き合同会社,,合同会社,大阪府,大阪市中央区,常盤町１丁目１－９－３０５,,27,128,5400028,,,,,,,2025-06-13,1,,,,,カノジョサキ,0
2299,9120005024981,新規,0,2025-06-13,2025-06-13,一般社団法人オーラルスマイルズ,,その他の設立登記法人,大阪府,大阪市中央区,道修町２丁目４番１号北浜クラフト７０１,,27,128,5410045,,,,,,,2025-06-13,1,,,,,オーラルスマイルズ,0
2303,9120101071886,新規,0,2025-06-13,2025-06-13,株式会社Ｔｒｉｕｍｐｈ,,株式会社,大阪府,泉大津市,豊中町３丁目１４番３０－２１２号,,27,206,5950023,,,,,,,2025-06-13,1,,,,,トライアンフ,0
2304,9120101071894,新規,0,2025-06-13,2025-06-13,グラン・アクト株式会社,,株式会社,大阪府,高石市,綾園３丁目１４番３号,,27,225,5920014,,,,,,,2025-06-13,1,,,,,グランアクト,0
2308,9120905006740,新規,0,2025-06-13,2025-06-13,一般社団法人日本フードスタディーズカレッジ,,その他の設立登記法人,大阪府,池田市,石橋３丁目１０番１８号,,27,204,5630032,,,,,,,2025-06-13,1,,,,,ニホンフードスタディーズカレッジ,0
2314,9130001079839,新規,0,2025-06-13,2025-06-13,シブタニホールディングス株式会社,,株式会社,京都府,綾部市,岡安町流田３番地,,26,203,6230114,,,,,,,2025-06-13,1,,,,,シブタニホールディングス,0
2317,9130003010545,新規,0,2025-06-13,2025-06-13,こもリビ合同会社,,合同会社,京都府,京田辺市,同志社山手４丁目２番地４,,26,211,6100315,,,,,,,2025-06-13,1,,,,,コモリビ,0
2323,9140001138908,新規,0,2025-06-13,2025-06-13,株式会社パーカーパートナーズ,,株式会社,兵庫県,西宮市,豊楽町１０番８号,,28,204,6620072,,,,,,,2025-06-13,1,,,,,パーカーパートナーズ,0
2324,9140001138932,新規,0,2025-06-13,2025-06-13,Ｇｏｌｄｅｎ　Ｒｉｖｅｒ株式会社,,株式会社,兵庫県,西宮市,青木町１１番１０号クリアメモリー２０５号,,28,204,6620862,,,,,,,2025-06-13,1,,,,,ゴールデンリバー,0
2325,9140001138957,新規,0,2025-06-13,2025-06-13,株式会社ＨＡＮＺＯ,,株式会社,兵庫県,西宮市,津門大塚町７番１号,,28,204,6638241,,,,,,,2025-06-13,1,,,,,ハンゾウ,0
2327,9140003022192,新規,0,2025-06-13,2025-06-13,合同会社テオ,,合同会社,兵庫県,加東市,河高４００４,,28,228,6790221,,,,,,,2025-06-13,1,,,,,テオ,0
2328,9140003022218,新規,0,2025-06-13,2025-06-13,合同会社Ｍｉｌ　Ｓｕｐｐｏｒｔ　Ｓｅｒｖｉｃｅ,,合同会社,兵庫県,三田市,小野１２９６番地２０,,28,219,6691504,,,,,,,2025-06-13,1,,,,,ミルサポートサービス,0
2344,9180001167242,新規,0,2025-06-13,2025-06-13,ＡＡＡ　Ｓｏｌｕｔｉｏｎｓ株式会社,,株式会社,愛知県,名古屋市瑞穂区,本願寺町３丁目２６番地シティコーポ本願寺２０２号,,23,108,4670814,,,,,,,2025-06-13,1,,,,,トリプルエーソリューションズ,0
2345,9180001167283,新規,0,2025-06-13,2025-06-13,丈山グリーンワークス株式会社,,株式会社,愛知県,瀬戸市,東拝戸町９８番地の５０,,23,204,4890027,,,,,,,2025-06-13,1,,,,,ジョウザングリーンワークス,0
2350,9180003028590,新規,0,2025-06-13,2025-06-13,合同会社ＳＡ,,合同会社,愛知県,名古屋市北区,上飯田南町４丁目１番地市営上飯田南荘７棟２１２号,,23,103,4620804,,,,,,,2025-06-13,1,,,,,サ,0
2351,9180003028632,新規,0,2025-06-13,2025-06-13,Ｌ．Ｈ．Ｊ　ＥＮＴＥＲＰＲＩＳＥＳ合同会社,,合同会社,愛知県,名古屋市港区,十一屋３丁目７７番地千年荘２号室,,23,111,4550831,,,,,,,2025-06-13,1,,,,,エルエイチジェーエンタープライズ,0
2367,9290001110372,新規,0,2025-06-13,2025-06-13,株式会社ヒュッゲエステート,,株式会社,福岡県,福岡市中央区,舞鶴３丁目２番地５号アイビル６０５,,40,133,8100073,,,,,,,2025-06-13,1,,,,,ヒュッゲエステート,0
2368,9290001110389,新規,0,2025-06-13,2025-06-13,株式会社ｙｏｕ,,株式会社,福岡県,福岡市西区,大字飯氏８５８番地３,,40,135,8190371,,,,,,,2025-06-13,1,,,,,ユウ,0
2372,9290003016948,新規,0,2025-06-13,2025-06-13,合同会社ｈａｎａｎｅ,,合同会社,福岡県,福岡市博多区,那珂２丁目１０‐２５カーサトモエ３０１,,40,132,8120893,,,,,,,2025-06-13,1,,,,,ハナネ,0
2373,9290801031628,新規,0,2025-06-13,2025-06-13,株式会社レジェンドスリー,,株式会社,福岡県,北九州市小倉北区,木町４丁目７番１０号,,40,106,8030851,,,,,,,2025-06-13,1,,,,,レジェンドスリー,0
2376,9320003004692,新規,0,2025-06-13,2025-06-13,合同会社むらさき,,合同会社,大分県,大分市,大字下郡３３５番地の９９,,44,201,8700951,,,,,,,2025-06-13,1,,,,,ムラサキ,0
2377,9330001033247,新規,0,2025-06-13,2025-06-13,豊福村じねん農場株式会社,,株式会社,熊本県,宇城市,松橋町西下郷４５００番地１,,43,213,8690534,,,,,,,2025-06-13,1,,,,,トヨフクムラジネンノウジョウ,0
2379,9350001019590,新規,0,2025-06-13,2025-06-13,株式会社ＡＳＡＭＩ　ＴＡＩＲＡ,,株式会社,宮崎県,都城市,祝吉２丁目３番地７,,45,202,8850019,,,,,,,2025-06-13,1,,,,,アサミタイラ,0
2382,9360001035331,新規,0,2025-06-13,2025-06-13,株式会社さんさん開発,,株式会社,沖縄県,浦添市,城間３丁目１８番２号ＣｉｔｙＨｏｕｓｅ３１８・１０２号,,47,208,9012133,,,,,,,2025-06-13,1,,,,,サンサンカイハツ,0
2384,9360005007244,新規,0,2025-06-13,2025-06-13,沖縄ＳＤＧｓ食糧計画協同組合,,その他の設立登記法人,沖縄県,名護市,字我部祖河１７４番１号,,47,209,9051155,,,,,,,2025-06-13,1,,,,,オキナワエスディージーズショクリョウケイカク,0
2388,9370003007138,新規,0,2025-06-13,2025-06-13,ＩＷＣ合同会社,,合同会社,宮城県,仙台市青葉区,千代田町７番８号パル千代田１０１,,04,101,9810936,,,,,,,2025-06-13,1,,,,,アイダブリューシー,0
2402,9430001094650,新規,0,2025-06-13,2025-06-13,株式会社ＮＥＲＵＷＡＩ,,株式会社,北海道,札幌市西区,二十四軒二条４丁目５番８－２０２号,,01,107,0630802,,,,,,,2025-06-13,1,,,,,ネルワイ,0
2404,9430003017774,新規,0,2025-06-13,2025-06-13,合同会社ひとまちＬＡＢＯ,,合同会社,北海道,札幌市中央区,南十五条西８丁目２－３３,,01,101,0640915,,,,,,,2025-06-13,1,,,,,ヒトマチラボ,0
2409,9480003002276,新規,0,2025-06-13,2025-06-13,フラットクロス合同会社,,合同会社,徳島県,板野郡松茂町,中喜来字福有開拓１７番地,,36,401,7710212,,,,,,,2025-06-13,1,,,,,フラットクロス,0
2410,9500003003536,新規,0,2025-06-13,2025-06-13,合同会社ＷＡＹＡ,,合同会社,愛媛県,今治市,桜井甲９３８番地２,,38,202,7991524,,,,,,,2025-06-13,1,,,,,ワヤ,0
2412,9700150131037,新規,0,2025-06-13,2025-06-13,ｚｈｕｈａｉｈｅｎｇｑｉｎｘｉｎｑｕａｏｆｕｔｏｎｇｘｉｎｘｉｊｉｓｈｕｙｏｕｘｉａｎｇｏｎｇｓｉ,,外国会社等,,,,,,,,ＺｈｕｈａｉＳｈｉＨｅｎｇｑｉｎＸｉｎｑｕＢａｏｈｕａＬｕ６Ｈａｏ１０５Ｓｈｉ－２２０７,,,,,,2025-06-13,1,,,,,ズハイヘンチンシンクアオフトンシンシジスウユウゲンコウシ,0
