sequenceNumber,corporateNumber,process,correct,updateDate,changeDate,name,nameImageId,kind,prefectureName,cityName,streetNumber,addressImageId,prefectureCode,cityCode,postCode,addressOutside,addressOutsideImageId,closeDate,closeCause,successorCorporateNumber,changeCause,assignmentDate,latest,enName,enPrefectureName,enCityName,enAddressOutside,furigana,hihyoji
32,1010501032234,登記記録の閉鎖等,0,2025-10-15,2025-10-01,株式会社イメディアリネン,,株式会社,東京都,台東区,池之端１丁目５番２号,,13,106,1100008,,,2025-10-01,合併による解散等,7010501032237,令和７年１０月１日東京都台東区池之端一丁目５番２号塩沢リネンサプライ株式会社（7010501032237）に合併し解散,2015-10-05,1,,,,,イメディアリネン,0
35,1010502022829,登記記録の閉鎖等,0,2025-10-15,2025-09-25,有限会社ピーウィン,,有限会社,神奈川県,横浜市南区,永田山王台１８番３号,,14,105,2320074,,,2025-09-25,清算の結了等,,,2015-10-05,1,,,,,ピーウイン,0
40,1010701026341,登記記録の閉鎖等,0,2025-10-15,2025-09-09,オーマイグラス株式会社,,株式会社,東京都,港区,六本木７丁目１０番２５号,,13,103,1060032,,,2025-09-09,合併による解散等,6010401189789,令和７年９月９日東京都港区六本木七丁目１０番２５号オーマイグラス株式会社（6010401189789）に合併し解散,2015-10-05,1,,,,,オーマイグラス,0
50,1011001150154,登記記録の閉鎖等,0,2025-10-15,2025-09-10,株式会社カラビナワークス,,株式会社,東京都,渋谷区,恵比寿西２丁目３番１１号メゾン・ド・エビス４０８,,13,113,1500021,,,2025-09-10,清算の結了等,,,2022-10-11,1,,,,,カラビナワークス,0
60,1011101089160,登記記録の閉鎖等,0,2025-10-15,2025-10-08,株式会社ＺｅＢｒａｎｄ,,株式会社,東京都,新宿区,下宮比町２番２７号,,13,104,1620822,,,2025-10-08,合併による解散等,7120001040217,令和７年１０月１日大阪市浪速区敷津東二丁目６番２５号株式会社モリサワ（7120001040217）に合併し解散,2019-10-08,1,,,,,ズィブランド,0
83,1012401001649,登記記録の閉鎖等,0,2025-10-15,2025-10-02,株式会社ミドリ,,株式会社,東京都,府中市,幸町２丁目１３番地７,,13,206,1830054,,,2025-10-02,清算の結了等,,,2015-10-05,1,,,,,ミドリ,0
85,1012402020185,登記記録の閉鎖等,0,2025-10-15,2025-10-01,有限会社三田村,,有限会社,東京都,三鷹市,新川１丁目１４番１３号,,13,204,1810004,,,2025-10-01,清算の結了等,,,2015-10-05,1,,,,,ミタムラ,0
95,1013302016216,登記記録の閉鎖等,0,2025-10-15,2025-10-06,有限会社アルビルド,,有限会社,東京都,豊島区,目白２丁目１８番１５号,,13,116,1710031,,,2025-10-06,清算の結了等,,,2015-10-05,1,,,,,アルビルド,0
96,1020001018575,登記記録の閉鎖等,0,2025-10-15,2025-09-30,ビルダー商事株式会社,,株式会社,神奈川県,横浜市鶴見区,小野町２５番地,,14,101,2300046,,,2025-09-30,清算の結了等,,,2015-10-05,1,,,,,ビルダーショウジ,0
99,1020001084808,登記記録の閉鎖等,0,2025-10-15,2025-09-29,株式会社コミュ・コンサルティング,,株式会社,神奈川県,横浜市旭区,鶴ケ峰本町２丁目４４番６－７０２号,,14,112,2410021,,,2025-09-29,清算の結了等,,,2015-10-05,1,,,,,コミュコンサルティング,0
120,1030001057069,登記記録の閉鎖等,0,2025-10-15,2025-10-01,環境開発株式会社,,株式会社,埼玉県,富士見市,関沢１丁目７番３０号,,11,235,3540025,,,2025-10-01,合併による解散等,6030001046430,令和７年１０月１日埼玉県富士見市大字水子４３７０番地１株式会社東洋産業（6030001046430）に合併し解散,2015-10-05,1,,,,,,0
148,1100001005359,登記記録の閉鎖等,0,2025-10-15,2025-10-01,株式会社シューズスター,,株式会社,新潟県,加茂市,寿町１２番２号,,15,209,9591384,,,2025-10-01,合併による解散等,1110002018458,令和７年１０月１日新潟県加茂市駅前５番１８号株式会社ミナトシューズ（1110002018458）に合併し解散,2015-10-05,1,,,,,シューズスター,0
152,1110001005069,登記記録の閉鎖等,0,2025-10-15,2025-10-02,株式会社ピーエムテクノ,,株式会社,新潟県,新潟市東区,平和町１４番地,,15,102,9500035,,,2025-10-02,合併による解散等,7110001008388,令和７年１０月１日新潟県新潟市東区小金町三丁目１番１号株式会社ダイヤメット（7110001008388）に合併し解散,2015-10-05,1,,,,,ピーエムテクノ,0
164,1120001264944,登記記録の閉鎖等,0,2025-10-15,2025-10-01,株式会社Ｆｏｒｔｕｎａ,,株式会社,大阪府,大阪市淀川区,西中島３丁目１７番５号,,27,123,5320011,,,2025-10-01,清算の結了等,,,2024-05-17,1,,,,,フォルトゥナ,0
174,1120005013397,登記記録の閉鎖等,0,2025-10-15,2025-10-06,特定非営利活動法人地域通貨ねやがわ,,その他の設立登記法人,大阪府,寝屋川市,東大利町１１番１号,,27,215,5720042,,,2025-10-06,清算の結了等,,,2015-10-05,1,,,,,チイキツウカネヤガワ,0
199,1170005000044,登記記録の閉鎖等,0,2025-10-15,2025-10-01,和歌山県農業協同組合連合会,,その他の設立登記法人,和歌山県,和歌山市,美園町５丁目１番地の１,,30,201,6408331,,,2025-10-01,合併による解散等,3170005007145,令和７年１０月１日和歌山市美園町五丁目１番地の１和歌山県農業協同組合（3170005007145）に権利義務を承継し解散,2015-10-05,1,,,,,ワカヤマケン,0
200,1180001069801,登記記録の閉鎖等,0,2025-10-15,2025-09-30,株式会社エクストリーム,,株式会社,愛知県,名古屋市千種区,田代本通１丁目１９番,,23,101,4640827,,,2025-09-30,清算の結了等,,,2015-10-05,1,,,,,エクストリーム,0
207,1180002015044,登記記録の閉鎖等,0,2025-10-15,2025-09-24,有限会社森産業,,有限会社,愛知県,名古屋市南区,元桜田町３丁目１５番地の３桜台ハイツ１０７号,,23,112,4570032,,,2025-09-24,清算の結了等,,,2015-10-05,1,,,,,モリサンギョウ,0
216,1190002021322,登記記録の閉鎖等,0,2025-10-15,2025-10-07,有限会社中商,,有限会社,三重県,四日市市,楠町北五味塚２０２８番地,,24,202,5100103,,,2025-10-07,清算の結了等,,,2015-10-05,1,,,,,,0
220,1200003005941,登記記録の閉鎖等,0,2025-10-15,2025-10-10,合同会社丸正,,合同会社,岐阜県,関市,小瀬１０１３番地２,,21,205,5013265,,,2025-10-10,清算の結了等,,,2023-05-08,1,,,,,マルセイ,0
221,1210001019819,登記記録の閉鎖等,0,2025-10-15,2025-10-08,株式会社遺心,,株式会社,福井県,坂井市,丸岡町新間第５号４番地７,,18,210,9100352,,,2025-10-08,清算の結了等,,,2024-07-05,1,,,,,イシン,0
234,1240002040507,登記記録の閉鎖等,0,2025-10-15,2025-10-06,鋼和工業有限会社,,有限会社,広島県,福山市,川口町５丁目２１番１９号,,34,207,7200822,,,2025-10-06,清算の結了等,,,2015-10-05,1,,,,,コウワコウギョウ,0
236,1240005005201,登記記録の閉鎖等,0,2025-10-15,2025-10-06,福田生産森林組合,,その他の設立登記法人,広島県,庄原市,比和町三河内２７７０番地の２,,34,210,7270311,,,2025-10-06,清算の結了等,,,2015-10-05,1,,,,,フクダ,0
241,1260005010975,登記記録の閉鎖等,0,2025-10-15,2025-10-14,特定非営利活動法人ホームスタディーサポート,,その他の設立登記法人,岡山県,岡山市中区,国富４丁目４番８－８号,,33,102,7038236,,,2025-10-14,清算の結了等,,,2021-09-30,1,,,,,ホームスタディーサポート,0
243,1290002042795,登記記録の閉鎖等,0,2025-10-15,2025-09-16,有限会社司工業,,有限会社,福岡県,筑紫野市,針摺東４丁目８番２０号,00111703,40,217,8180081,,,2025-09-16,清算の結了等,,,2015-10-05,1,,,,,ツカサコウギョウ,0
250,1340002014780,登記記録の閉鎖等,0,2025-10-15,2025-09-30,有限会社南日本新聞大口販売所,,有限会社,鹿児島県,伊佐市,大口里３０２８番地,,46,224,8952511,,,2025-09-30,清算の結了等,,,2015-10-05,1,,,,,ミナミニホンシンブンオオクチハンバイショ,0
270,1440002008574,登記記録の閉鎖等,0,2025-10-15,2025-10-07,有限会社トキワ商会,,有限会社,北海道,二海郡八雲町,東雲町１０７番地９,,01,346,0493105,,,2025-10-07,清算の結了等,,,2015-10-05,1,,,,,トキワショウカイ,0
273,1490001003571,登記記録の閉鎖等,0,2025-10-15,2025-10-09,四国昇降機サービス株式会社,,株式会社,高知県,高知市,天神町１１番１３号,,39,201,7808012,,,2025-10-09,合併による解散等,7240001059534,令和７年１０月１日広島市中区富士見町８番２４号ジャパンエレベーターサービス中四国株式会社（7240001059534）に合併し解散,2015-10-05,1,,,,,シコクショウコウキサービス,0
274,1490001005089,登記記録の閉鎖等,0,2025-10-15,2025-10-09,株式会社パシフィックメディカル,,株式会社,高知県,宿毛市,幸町５番１２号,,39,208,7880003,,,2025-10-09,合併による解散等,4010401082351,令和７年９月１日東京都港区六本木六丁目１０番１号株式会社メドレー（4010401082351）に合併し解散,2015-10-05,1,,,,,パシフィックメディカル,0
276,1500001023997,登記記録の閉鎖等,0,2025-10-15,2025-10-09,株式会社マリーノ,,株式会社,愛媛県,新居浜市,外山町１６番３２号,,38,205,7920823,,,2025-10-09,清算の結了等,,,2022-02-10,1,,,,,マリーノ,0
305,2010502002615,登記記録の閉鎖等,0,2025-10-15,2025-10-02,有限会社雷門米穀店,,有限会社,東京都,台東区,浅草３丁目１２番８号,,13,106,1110032,,,2025-10-02,清算の結了等,,,2015-10-05,1,,,,,カミナリモンベイコクテン,0
308,2010701021903,登記記録の閉鎖等,0,2025-10-15,2025-10-06,はなぜん株式会社,,株式会社,東京都,品川区,西五反田２丁目５番１４号,,13,109,1410031,,,2025-10-06,清算の結了等,,,2015-10-05,1,,,,,ハナゼン,0
321,2011002002196,登記記録の閉鎖等,0,2025-10-15,2025-09-11,有限会社大橋デザイン事務所,,有限会社,東京都,渋谷区,千駄ヶ谷３丁目７番３号,,13,113,1510051,,,2025-09-11,清算の結了等,,,2015-10-05,1,,,,,オオハシデザインジムショ,0
340,2011503005549,登記記録の閉鎖等,0,2025-10-15,2025-10-07,芳澤貿易合同会社,,合同会社,東京都,北区,浮間３丁目６－１３クレストガーデンレジデンス４１１室,,13,117,1150051,,,2025-10-07,清算の結了等,,,2023-04-06,1,,,,,ヨシザワボウエキ,0
342,2011601016737,登記記録の閉鎖等,0,2025-10-15,2025-10-01,株式会社高塚,00056157,株式会社,東京都,練馬区,関町北３丁目４２番３号,,13,120,1770051,,,2025-10-01,清算の結了等,,,2015-10-05,1,,,,,タカツカ,0
349,2012702012781,登記記録の閉鎖等,0,2025-10-15,2025-10-08,有限会社岸測量,,有限会社,東京都,小平市,学園西町２丁目１３番２６号レクセルマンション一橋学園２０５,,13,211,1870045,,,2025-10-08,清算の結了等,,,2015-10-05,1,,,,,キシソクリョウ,0
357,2020001016454,登記記録の閉鎖等,0,2025-10-15,2025-10-02,株式会社ロリエ商会,,株式会社,神奈川県,横浜市西区,南幸１丁目５番１号,,14,103,2200005,,,2025-10-02,清算の結了等,,,2015-10-05,1,,,,,,0
360,2020001103590,登記記録の閉鎖等,0,2025-10-15,2025-09-30,株式会社ＣＯＭ－ＰＡＳＳ,,株式会社,神奈川県,横浜市保土ケ谷区,新井町２３９番地,,14,106,2400053,,,2025-09-30,清算の結了等,,,2015-10-05,1,,,,,,0
371,2020002042292,登記記録の閉鎖等,0,2025-10-15,2025-10-01,有限会社クラバットハウス横濱,,有限会社,神奈川県,横浜市南区,睦町１丁目６番２号,,14,105,2320041,,,2025-10-01,清算の結了等,,,2015-10-05,1,,,,,クラバットハウスヨコハマ,0
387,2030001002833,登記記録の閉鎖等,0,2025-10-15,2025-10-06,株式会社合同会計,,株式会社,埼玉県,さいたま市大宮区,櫛引町１丁目２５８番地,,11,103,3300851,,,2025-10-06,清算の結了等,,,2015-10-05,1,,,,,ゴウドウカイケイ,0
397,2030002118620,登記記録の閉鎖等,0,2025-10-15,2025-10-06,有限会社みちのくマシナリー事業所,,有限会社,埼玉県,熊谷市,肥塚４８３番地５,,11,202,3600015,,,2025-10-06,清算の結了等,,,2015-10-05,1,,,,,ミチノクマシナリー,0
408,2050002037892,登記記録の閉鎖等,0,2025-10-15,2025-09-30,有限会社フオーカス二十一,,有限会社,茨城県,牛久市,神谷１丁目１６番地６,,08,219,3001216,,,2025-09-30,清算の結了等,,,2015-10-05,1,,,,,フオーカスニジュウイチ,0
412,2060002007291,登記記録の閉鎖等,0,2025-10-15,2025-10-08,株式会社オータニ農場,,株式会社,栃木県,宇都宮市,平出工業団地３７番３,,09,201,3210905,,,2025-10-08,清算の結了等,,,2015-10-05,1,,,,,オータニノウジョウ,0
422,2080402006214,登記記録の閉鎖等,0,2025-10-15,2025-10-03,有限会社浜松丸万,,有限会社,静岡県,浜松市中央区,肴町３１６番地の７,,22,138,4300932,,,2025-10-03,清算の結了等,,,2015-10-05,1,,,,,ハママツマルマン,0
424,2090002004402,登記記録の閉鎖等,0,2025-10-15,2025-10-06,成島商事有限会社,,有限会社,山梨県,中央市,成島２３６８番地,,19,214,4093815,,,2025-10-06,清算の結了等,,,2015-10-05,1,,,,,ナルシマショウジ,0
426,2110001030644,登記記録の閉鎖等,0,2025-10-15,2025-10-07,ＤＥ愛ＥＭＩＡＳ株式会社,,株式会社,新潟県,新潟市東区,南紫竹１丁目８番１号,,15,102,9500854,,,2025-10-07,清算の結了等,,,2015-10-05,1,,,,,,0
428,2120001047159,登記記録の閉鎖等,0,2025-10-15,2025-10-02,株式会社古田デザイン事務所,,株式会社,大阪府,大阪市西区,西本町１丁目９番１８号,,27,106,5500005,,,2025-10-02,清算の結了等,,,2015-10-05,1,,,,,フルタデザインジムショ,0
429,2120001113191,登記記録の閉鎖等,0,2025-10-15,2025-10-01,株式会社プロキュバイネット,,株式会社,大阪府,大阪市中央区,上本町西１丁目２番１６号,,27,128,5420062,,,2025-10-01,合併による解散等,8120001077522,令和７年９月３０日大阪市中央区上本町西一丁目２番１６号株式会社日伝（8120001077522）に合併し解散,2015-10-05,1,,,,,プロキュバイネット,0
434,2120001200527,登記記録の閉鎖等,0,2025-10-15,2025-10-02,株式会社ＦＭＳプランナー,,株式会社,大阪府,枚方市,津田駅前１丁目６番４０号,,27,210,5730125,,,2025-10-02,清算の結了等,,,2016-09-06,1,,,,,,0
454,2120101029271,登記記録の閉鎖等,0,2025-10-15,2025-10-01,石津建設株式会社,,株式会社,大阪府,堺市西区,上５６６番地,,27,144,5938311,,,2025-10-01,清算の結了等,,,2015-10-05,1,,,,,イシヅケンセツ,0
474,2130002000033,登記記録の閉鎖等,0,2025-10-15,2025-10-10,有限会社アオヤマ,,有限会社,京都府,京都市右京区,嵯峨天龍寺油掛町１１番地６１,,26,108,6168346,,,2025-10-10,清算の結了等,,,2015-10-05,1,,,,,アオヤマ,0
475,2130002027943,登記記録の閉鎖等,0,2025-10-15,2025-10-06,有限会社パワーグラフィカ,,有限会社,京都府,宇治市,五ケ庄北ノ庄２５番地の１６,,26,204,6110011,,,2025-10-06,清算の結了等,,,2015-10-05,1,,,,,パワーグラフィカ,0
477,2140001061447,登記記録の閉鎖等,0,2025-10-15,2025-10-06,株式会社プラスワン,,株式会社,兵庫県,姫路市,同心町３６番地２,,28,201,6700856,,,2025-10-06,清算の結了等,,,2015-10-05,1,,,,,プラスワン,0
484,2140001120566,登記記録の閉鎖等,0,2025-10-15,2025-10-02,株式会社森鼻タイル,,株式会社,兵庫県,淡路市,釜口１５９８番地３,,28,226,6562334,,,2025-10-02,清算の結了等,,,2021-03-02,1,,,,,モリハナタイル,0
497,2160002010392,登記記録の閉鎖等,0,2025-10-15,2025-10-06,有限会社和泉,,有限会社,滋賀県,近江八幡市,桜宮町２１９番地の１３,,25,204,5230893,,,2025-10-06,清算の結了等,,,2015-10-05,1,,,,,イズミ,0
507,2180002028648,登記記録の閉鎖等,0,2025-10-15,2025-10-01,有限会社ナゴヤ商会,,有限会社,東京都,豊島区,駒込１丁目４３番１４号,,13,116,1700003,,,2025-10-01,合併による解散等,9010701023315,令和７年１０月１日東京都豊島区駒込一丁目４３番１４号株式会社アイ・アンド・ピー（9010701023315）に合併し解散,2015-10-05,1,,,,,ナゴヤショウカイ,0
532,2270001003452,登記記録の閉鎖等,0,2025-10-15,2025-10-09,永瀬石油株式会社,,株式会社,鳥取県,米子市,尾高町４７番地,,31,202,6830814,,,2025-10-09,合併による解散等,2010001126403,令和７年１０月１日東京都中央区新富一丁目１８番８号出光リテール販売株式会社（2010001126403）に合併し解散,2015-10-05,1,,,,,ナガセセキユ,0
535,2290001038538,登記記録の閉鎖等,0,2025-10-15,2025-10-10,ＳＨＩＮＫＡ　Ｆｏｒｃｅ福岡株式会社,,株式会社,福岡県,糟屋郡宇美町,大字井野字野間２２６番地の１,,40,341,8112104,,,2025-10-10,合併による解散等,3330001009681,令和７年１０月１日熊本県合志市竹迫２３０番地ＳＨＩＮＫＡ　Ｆｏｒｃｅ株式会社（3330001009681）に合併し解散,2015-10-05,1,,,,,シンカフォースフクオカ,0
539,2330001018106,登記記録の閉鎖等,0,2025-10-15,2025-10-01,株式会社ＴＲＹ工房,,株式会社,熊本県,球磨郡錦町,大字西１８５番地７８,,43,501,8680303,,,2025-10-01,清算の結了等,,,2015-10-05,1,,,,,トライコウボウ,0
540,2330002021694,登記記録の閉鎖等,0,2025-10-15,2025-10-03,有限会社柿原電気商会,,有限会社,熊本県,荒尾市,大正町２丁目１番４号,,43,204,8640054,,,2025-10-03,清算の結了等,,,2015-10-05,1,,,,,カキハラデンキショウカイ,0
552,2380005004394,登記記録の閉鎖等,0,2025-10-15,2025-10-01,一般社団法人福島県酪農ヘルパー協会,,その他の設立登記法人,福島県,本宮市,仁井田字一里壇１７番地,,07,214,9691103,,,2025-10-01,清算の結了等,,,2015-10-05,1,,,,,フクシマケンラクノウヘルパーキョウカイ,0
554,2400002004106,登記記録の閉鎖等,0,2025-10-15,2025-10-01,有限会社ヒースランドいわて,,有限会社,岩手県,滝沢市,巣子１２２８番地５２,,03,216,0200611,,,2025-10-01,清算の結了等,,,2015-10-05,1,,,,,ヒースランドイワテ,0
592,3010005013679,登記記録の閉鎖等,0,2025-10-15,2025-10-10,特定非営利活動法人デンマークの食と暮らし研究所,,その他の設立登記法人,東京都,千代田区,有楽町１丁目７番１号有楽町電気ビル南館１２階,,13,101,1000006,,,2025-10-10,清算の結了等,,,2015-10-05,1,,,,,デンマークノショクトクラシケンキュウジョ,0
594,3010005034964,登記記録の閉鎖等,0,2025-10-15,2025-10-10,福知山ロジスティクス特定目的会社,,その他の設立登記法人,東京都,中央区,日本橋１丁目４番１号,,13,102,1030027,,,2025-10-10,清算の結了等,,,2022-05-10,1,,,,,フクチヤマロジスティクス,0
596,3010103002014,登記記録の閉鎖等,0,2025-10-15,2025-10-08,１９９９店合同会社,,合同会社,東京都,八王子市,本郷町２－３グランドール八王子１０３号室,,13,201,1920052,,,2025-10-08,清算の結了等,,,2022-10-28,1,,,,,イチキューキューキューテン,0
603,3010401174216,登記記録の閉鎖等,0,2025-10-15,2025-10-07,ＧＵＹ株式会社,,株式会社,埼玉県,北葛飾郡杉戸町,清地３丁目９番１２号,,11,464,3450025,,,2025-10-07,清算の結了等,,,2023-05-10,1,,,,,ガイ,0
632,3011001121830,登記記録の閉鎖等,0,2025-10-15,2025-09-11,ＥＬＩＴＥ株式会社,,株式会社,東京都,渋谷区,渋谷２丁目１０番１５号,,13,113,1500002,,,2025-09-11,清算の結了等,,,2018-04-25,1,,,,,エリート,0
641,3011101002105,登記記録の閉鎖等,0,2025-10-15,2025-10-01,伊那木材株式会社,,株式会社,東京都,台東区,浅草橋３丁目１９番１１号,,13,106,1110053,,,2025-10-01,合併による解散等,5011101002078,令和７年１０月１日東京都台東区浅草橋三丁目１９番１１号株式会社伊那（5011101002078）に合併し解散,2015-10-05,1,,,,,イナモクザイ,0
643,3011101091759,登記記録の閉鎖等,0,2025-10-15,2025-10-06,株式会社エイルコンサルティング,,株式会社,埼玉県,蓮田市,蓮田４丁目１４１番地５,,11,238,3490115,,,2025-10-06,清算の結了等,,,2020-07-06,1,,,,,エイルコンサルティング,0
658,3011303002159,登記記録の閉鎖等,0,2025-10-15,2025-10-07,ＭＡＳＡ＆Ｃｏ．合同会社,,合同会社,東京都,杉並区,南荻窪１丁目４２番８号ライオンズステージ荻窪レジデンス２０６,,13,115,1670052,,,2025-10-07,清算の結了等,,,2015-10-05,1,,,,,マサアンドカンパニー,0
665,3011601028285,登記記録の閉鎖等,0,2025-10-15,2025-10-07,高光株式会社,,株式会社,東京都,新宿区,大久保２丁目１４番１６号西大久保イレブン３０７号室,,13,104,1690072,,,2025-10-07,清算の結了等,,,2024-12-17,1,,,,,タカミツ,0
685,3013202003691,登記記録の閉鎖等,0,2025-10-15,2025-10-06,有限会社盛美,,有限会社,東京都,品川区,小山６丁目４番８号,,13,109,1420062,,,2025-10-06,清算の結了等,,,2015-10-05,1,,,,,セイビ,0
690,3013402004432,登記記録の閉鎖等,0,2025-10-15,2025-09-30,有限会社ほけん工房,,有限会社,東京都,日野市,平山３丁目１１番６号,,13,212,1910043,,,2025-09-30,清算の結了等,,,2015-10-05,1,,,,,ホケンコウボウ,0
691,3020001004045,登記記録の閉鎖等,0,2025-10-15,2025-09-25,株式会社鈴木一級建築設計事務所,,株式会社,神奈川県,横浜市港南区,野庭町６７９番地７,,14,111,2340056,,,2025-09-25,清算の結了等,,,2015-10-05,1,,,,,スズキイッキュウケンチクセッケイジムショ,0
695,3020001055914,登記記録の閉鎖等,0,2025-10-15,2025-09-29,株式会社ベル・フィオレ,,株式会社,神奈川県,横浜市都筑区,茅ケ崎南５丁目２２番２号,,14,118,2240037,,,2025-09-29,清算の結了等,,,2015-10-05,1,,,,,ベルフィオレ,0
697,3020001084517,登記記録の閉鎖等,0,2025-10-15,2025-09-30,シティネット株式会社,,株式会社,神奈川県,横浜市瀬谷区,橋戸１丁目２２番地の１２,,14,114,2460037,,,2025-09-30,清算の結了等,,,2015-10-05,1,,,,,シティネット,0
711,3021002050219,登記記録の閉鎖等,0,2025-10-15,2025-09-30,有限会社ピュアメッセージ,,有限会社,神奈川県,足柄下郡湯河原町,城堀７１番地,,14,384,2590305,,,2025-09-30,清算の結了等,,,2015-10-05,1,,,,,ピュアメッセージ,0
712,3021002051290,登記記録の閉鎖等,0,2025-10-15,2025-09-29,有限会社岡伸,,有限会社,神奈川県,小田原市,栢山２５７８番地の１,,14,206,2500852,,,2025-09-29,清算の結了等,,,2015-10-05,1,,,,,オカシン,0
716,3030001076983,登記記録の閉鎖等,0,2025-10-15,2025-10-07,福留工業株式会社,,株式会社,埼玉県,川口市,大字小谷場４２２番地,,11,203,3330857,,,2025-10-07,清算の結了等,,,2015-10-05,1,,,,,フクトメコウギョウ,0
721,3030002028133,登記記録の閉鎖等,0,2025-10-15,2025-10-07,有限会社新井舗道,,有限会社,埼玉県,所沢市,東所沢２丁目１９番地の１６,,11,208,3590021,,,2025-10-07,清算の結了等,,,2015-10-05,1,,,,,アライホドウ,0
722,3030002074870,登記記録の閉鎖等,0,2025-10-15,2025-10-06,有限会社橋本平商店,,有限会社,埼玉県,川越市,大字池辺３９１番地,,11,201,3501171,,,2025-10-06,清算の結了等,,,2015-10-05,1,,,,,ハシモトタイラショウテン,0
731,3040002048130,登記記録の閉鎖等,0,2025-10-15,2025-10-08,有限会社日高,,有限会社,千葉県,松戸市,中根長津町２８０番地,,12,207,2710054,,,2025-10-08,合併による解散等,5011801011361,令和７年１０月１日東京都足立区中央本町二丁目２２番１６号株式会社日高製粉機製作所（5011801011361）に合併し解散,2015-10-05,1,,,,,,0
741,3070002008759,登記記録の閉鎖等,0,2025-10-15,2025-10-03,有限会社井田鋼業,,有限会社,群馬県,高崎市,下佐野町７０７番地,,10,202,3700855,,,2025-10-03,清算の結了等,,,2015-10-05,1,,,,,イダコウギョウ,0
742,3070002020573,登記記録の閉鎖等,0,2025-10-15,2025-10-08,森加工有限会社,,有限会社,群馬県,伊勢崎市,境保泉１１７９番地の２,,10,204,3700128,,,2025-10-08,清算の結了等,,,2015-10-05,1,,,,,モリカコウ,0
745,3080402003920,登記記録の閉鎖等,0,2025-10-15,2025-10-03,有限会社静岡県ペットパーク,,有限会社,静岡県,浜松市中央区,湖東町２３７３番地の６,,22,138,4311103,,,2025-10-03,清算の結了等,,,2015-10-05,1,,,,,シズオカケンペットパーク,0
751,3100002018267,登記記録の閉鎖等,0,2025-10-15,2025-10-08,有限会社町田商事,,有限会社,長野県,中野市,大字岩船２６５番地,,20,211,3830041,,,2025-10-08,清算の結了等,,,2015-10-05,1,,,,,マチダショウジ,0
752,3110001018003,登記記録の閉鎖等,0,2025-10-15,2025-10-09,株式会社タカエンジニアリング,,株式会社,新潟県,柏崎市,大字劔１００７番地１７,,15,205,9450105,,,2025-10-09,清算の結了等,,,2015-10-05,1,,,,,タカエンジニアリング,0
753,3110001021444,登記記録の閉鎖等,0,2025-10-15,2025-10-10,株式会社ＲＯＵＴＥ,,株式会社,新潟県,十日町市,姿甲２９１８番地,,15,210,9498561,,,2025-10-10,清算の結了等,,,2015-10-05,1,,,,,ルート,0
776,3120101029270,登記記録の閉鎖等,0,2025-10-15,2025-10-01,株式会社秀栄,,株式会社,大阪府,堺市西区,上５６６番地,,27,144,5938311,,,2025-10-01,清算の結了等,,,2015-10-05,1,,,,,シュウエイ,0
784,3130005002752,登記記録の閉鎖等,0,2025-10-15,2025-10-07,公益財団法人国際茶道文化協会,,その他の設立登記法人,東京都,新宿区,市谷加賀町２丁目５番２３号,,13,104,1620062,,,2025-10-07,合併による解散等,4130005002751,令和７年１０月１日京都市上京区小川通寺之内上る本法寺前町６１３番地一般財団法人今日庵（4130005002751）に合併し解散,2015-10-05,1,,,,,コクサイチャドウブンカキョウカイ,0
798,3160002002182,登記記録の閉鎖等,0,2025-10-15,2025-10-01,有限会社ヤナギ建設,,有限会社,滋賀県,大津市,今堅田２丁目８番３０号,,25,201,5200241,,,2025-10-01,清算の結了等,,,2015-10-05,1,,,,,ヤナギケンセツ,0
803,3180001050684,登記記録の閉鎖等,0,2025-10-15,2025-09-29,株式会社エクサス,,株式会社,愛知県,名古屋市中区,上前津２丁目３番１１号長崎屋ビル,,23,106,4600013,,,2025-09-29,清算の結了等,,,2015-10-05,1,,,,,エクサス,0
808,3180001132326,登記記録の閉鎖等,0,2025-10-15,2025-09-11,株式会社Ｒ＆Ｙ,,株式会社,東京都,港区,浜松町２丁目２番１５号浜松町ダイヤビル２Ｆ,,13,103,1050013,,,2025-09-11,清算の結了等,,,2018-05-21,1,,,,,アールアンドワイ,0
816,3180002009952,登記記録の閉鎖等,0,2025-10-15,2025-09-30,有限会社徳寿産業,,有限会社,愛知県,名古屋市瑞穂区,村上町２丁目２４番地の１４,,23,108,4670008,,,2025-09-30,清算の結了等,,,2015-10-05,1,,,,,トクジュサンギョウ,0
823,3220001016598,登記記録の閉鎖等,0,2025-10-15,2025-10-03,株式会社輪島チップセンター,,株式会社,石川県,輪島市,鳳至町畠田１１７番地の５,,17,204,9280079,,,2025-10-03,清算の結了等,,,2015-10-05,1,,,,,ワジマチップセンター,0
841,3290003004306,登記記録の閉鎖等,0,2025-10-15,2025-09-12,マエダ装工合同会社,,合同会社,福岡県,福岡市早良区,有田４丁目３３番４号,,40,137,8140033,,,2025-09-12,清算の結了等,,,2015-10-05,1,,,,,マエダソウコウ,0
843,3310001014122,登記記録の閉鎖等,0,2025-10-15,2025-10-08,株式会社正栄開発,,株式会社,長崎県,大村市,水主町１丁目７４７番地３５,,42,205,8560827,,,2025-10-08,清算の結了等,,,2016-03-15,1,,,,,ショウエイカイハツ,0
863,3400002006852,登記記録の閉鎖等,0,2025-10-15,2025-10-01,有限会社小笠原土木,,有限会社,岩手県,紫波郡矢巾町,大字赤林第１７地割２３番地３,,03,322,0283611,,,2025-10-01,清算の結了等,,,2015-10-05,1,,,,,オガサワラドボク,0
877,3430002050518,登記記録の閉鎖等,0,2025-10-15,2025-10-01,有限会社オートリペア,,有限会社,北海道,岩見沢市,大和二条４丁目１１番地,,01,210,0680852,,,2025-10-01,清算の結了等,,,2015-10-05,1,,,,,オートリペア,0
890,4010001003443,登記記録の閉鎖等,0,2025-10-15,2025-10-01,株式会社新晃,,株式会社,東京都,文京区,湯島１丁目９番１４－２０３号,,13,105,1130034,,,2025-10-01,清算の結了等,,,2015-10-05,1,,,,,シンコウ,0
909,4010003036061,登記記録の閉鎖等,0,2025-10-15,2025-09-25,Ｌａｖｉ　Ｃａｐｉｔａｌ合同会社,,合同会社,東京都,千代田区,霞が関３丁目２番５号,,13,101,1000013,,,2025-09-25,清算の結了等,,,2021-11-01,1,,,,,ラビキャピタル,0
943,4010701024846,登記記録の閉鎖等,0,2025-10-15,2025-10-01,ソルナ株式会社,,株式会社,東京都,中央区,築地２丁目９－４,,13,102,1040045,,,2025-10-01,合併による解散等,6010001254373,令和７年１０月１日東京都中央区銀座一丁目１２番４号Ｎ＆Ｅ・ＢＬＤ．６Ｆソルナホールディングス株式会社（6010001254373）に合併し解散,2015-10-05,1,,,,,ソルナ,0
949,4010901027013,登記記録の閉鎖等,0,2025-10-15,2025-10-09,南光企業株式会社,,株式会社,東京都,世田谷区,池尻４丁目２２番１３－４０４号,,13,112,1540001,,,2025-10-09,清算の結了等,,,2015-10-05,1,,,,,ナンコウキギョウ,0
960,4011001068501,登記記録の閉鎖等,0,2025-10-15,2025-10-01,株式会社ハグス,,株式会社,茨城県,下妻市,長塚９３５番地１,,08,210,3040056,,,2025-10-01,合併による解散等,1050001015090,令和７年１０月１日茨城県下妻市長塚９３５番地１株式会社伸盛（1050001015090）に合併し解散,2015-10-05,1,,,,,,0
985,4011401010789,登記記録の閉鎖等,0,2025-10-15,2025-10-08,ワールドネット株式会社,,株式会社,東京都,板橋区,弥生町３２番８号白扇ビル,,13,119,1730021,,,2025-10-08,清算の結了等,,,2015-10-05,1,,,,,ワールドネット,0
1008,4012803001979,登記記録の閉鎖等,0,2025-10-15,2025-09-30,合同会社ＡＮＥＭＯＮＥ,,合同会社,東京都,国立市,富士見台２丁目２８番地１６,,13,215,1860003,,,2025-09-30,清算の結了等,,,2019-02-25,1,,,,,アネモネ,0
1012,4020001014852,登記記録の閉鎖等,0,2025-10-15,2025-09-30,株式会社斎藤紙工所,,株式会社,神奈川県,横浜市西区,中央２丁目３７番６号,,14,103,2200051,,,2025-09-30,清算の結了等,,,2015-10-05,1,,,,,サイトウシコウジョ,0
1015,4020001063180,登記記録の閉鎖等,0,2025-10-15,2025-10-02,横浜営繕協会株式会社,,株式会社,神奈川県,横浜市港北区,大倉山３丁目６番１号,,14,109,2220037,,,2025-10-02,清算の結了等,,,2015-10-05,1,,,,,ヨコハマエイゼンキョウカイ,0
1017,4020001129576,登記記録の閉鎖等,0,2025-10-15,2025-10-03,株式会社トリニティ,,株式会社,神奈川県,横浜市港北区,新横浜２丁目２番地の１５,,14,109,2220033,,,2025-10-03,清算の結了等,,,2019-01-21,1,,,,,トリニティ,0
1019,4020001143775,登記記録の閉鎖等,0,2025-10-15,2025-10-01,株式会社トッチ,,株式会社,神奈川県,横浜市青葉区,荏田西２丁目２６番地２ユーワヒルズＡ２０２,,14,117,2250014,,,2025-10-01,清算の結了等,,,2021-11-04,1,,,,,トッチ,0
1026,4020002095677,登記記録の閉鎖等,0,2025-10-15,2025-09-30,有限会社伊藤機械製作所,,有限会社,神奈川県,川崎市川崎区,田島町２番１８号,,14,131,2100853,,,2025-09-30,清算の結了等,,,2015-10-05,1,,,,,イトウキカイセイサクショ,0
1040,4030001145556,登記記録の閉鎖等,0,2025-10-15,2025-09-26,ワン＆セブン株式会社,,株式会社,東京都,千代田区,神田小川町２丁目１番地,,13,101,1010052,,,2025-09-26,清算の結了等,,,2021-11-26,1,,,,,ワンアンドセブン,0
1042,4030001157205,登記記録の閉鎖等,0,2025-10-15,2025-10-07,那須商事株式会社,,株式会社,埼玉県,越谷市,川柳町３丁目２８７番地１号,,11,222,3430827,,,2025-10-07,清算の結了等,,,2023-11-16,1,,,,,ナスショウジ,0
1044,4030002071743,登記記録の閉鎖等,0,2025-10-15,2025-10-07,有限会社ブライトテクノ,,有限会社,埼玉県,春日部市,備後東６丁目８番４０号,,11,214,3440032,,,2025-10-07,清算の結了等,,,2015-10-05,1,,,,,ブライトテクノ,0
1069,4080402020130,登記記録の閉鎖等,0,2025-10-15,2025-10-03,有限会社興豊電気工事,,有限会社,静岡県,磐田市,長森３８番地,,22,211,4380836,,,2025-10-03,清算の結了等,,,2015-10-05,1,,,,,コウホウデンキコウジ,0
1070,4080402020238,登記記録の閉鎖等,0,2025-10-15,2025-10-03,有限会社仲村配管,,有限会社,静岡県,磐田市,立野２０１１番地１１,,22,211,4380821,,,2025-10-03,清算の結了等,,,2015-10-05,1,,,,,ナカムラハイカン,0
1074,4100002000802,登記記録の閉鎖等,0,2025-10-15,2025-10-09,有限会社エポツク信州,,有限会社,長野県,長野市,大字徳間３３５０番地,,20,201,3810041,,,2025-10-09,清算の結了等,,,2015-10-05,1,,,,,エポツクシンシュウ,0
1077,4120001015931,登記記録の閉鎖等,0,2025-10-15,2025-10-02,株式会社橋本金型製作所,,株式会社,大阪府,大阪市城東区,今福東２丁目６番１４号,,27,118,5360002,,,2025-10-02,清算の結了等,,,2015-10-05,1,,,,,ハシモトカナガタセイサクショ,0
1079,4120001086816,登記記録の閉鎖等,0,2025-10-15,2025-10-06,株式会社日美,,株式会社,大阪府,大阪市中央区,南本町２丁目４番３号丸全ビル,,27,128,5410054,,,2025-10-06,合併による解散等,4120001090033,令和７年１０月１日大阪市中央区南本町二丁目４番３号丸全株式会社（4120001090033）に合併し解散,2015-10-05,1,,,,,ニチビ,0
1094,4120002073821,登記記録の閉鎖等,0,2025-10-15,2025-10-01,有限会社オギノアルミ工業,,有限会社,大阪府,枚方市,茄子作北町３４番４号,,27,210,5730083,,,2025-10-01,清算の結了等,,,2015-10-05,1,,,,,オギノアルミコウギョウ,0
1108,4130001033692,登記記録の閉鎖等,0,2025-10-15,2025-09-18,株式会社サカイ,,株式会社,京都府,宇治市,槇島町十八５０番地の１,,26,204,6110041,,,2025-09-18,清算の結了等,,,2025-07-31,1,,,,,サカイ,0
1127,4180001043464,登記記録の閉鎖等,0,2025-10-15,2025-09-30,株式会社メイセイ,,株式会社,愛知県,名古屋市緑区,大高町字西正地３３番地,,23,114,4598001,,,2025-09-30,清算の結了等,,,2015-10-05,1,,,,,メイセイ,0
1129,4180001066250,登記記録の閉鎖等,0,2025-10-15,2025-09-29,株式会社ＳＴＡＲＴ・ＯＮＥ,,株式会社,愛知県,名古屋市西区,江向町１丁目５８番地２,,23,104,4510013,,,2025-09-29,清算の結了等,,,2015-10-05,1,,,,,スタートワン,0
1131,4180001084418,登記記録の閉鎖等,0,2025-10-15,2025-09-30,株式会社マルミポリエチレン,,株式会社,愛知県,一宮市,開明字杁西郭１５番地,,23,203,4940001,,,2025-09-30,清算の結了等,,,2015-10-05,1,,,,,マルミポリエチレン,0
1158,4240001034218,登記記録の閉鎖等,0,2025-10-15,2025-10-06,株式会社ケーブル・ジョイ,,株式会社,広島県,府中市,元町４２３番地の８,,34,208,7260003,,,2025-10-06,合併による解散等,2240001010501,令和７年１０月１日広島市中区土橋町７番１号株式会社ちゅピＣＯＭ（2240001010501）に合併し解散,2015-10-05,1,,,,,ケーブルジョイ,0
1162,4240002028268,登記記録の閉鎖等,0,2025-10-15,2025-10-06,有限会社東広島メディカルサービス,,有限会社,広島県,東広島市,西条町吉行２２１４番地,,34,212,7390002,,,2025-10-06,合併による解散等,3240003002438,令和７年１０月１日広島県東広島市西条中央六丁目３１番３５号ウエストポンド６０５号ｉ・ＤＥＡ合同会社（3240003002438）に合併し解散,2015-10-05,1,,,,,ヒガシヒロシマメディカルサービス,0
1163,4250001013344,登記記録の閉鎖等,0,2025-10-15,2025-10-01,株式会社ＭＥＤＡＫＡ,,株式会社,山口県,周南市,二番町２丁目４１２４番地５,,35,215,7450002,,,2025-10-01,合併による解散等,9250002019229,令和７年１０月１日山口県岩国市麻里布町六丁目６番１４号株式会社めだか（9250002019229）に合併し解散,2015-10-05,1,,,,,メダカ,0
1170,4260001034174,登記記録の閉鎖等,0,2025-10-15,2025-10-01,株式会社スマイルプロジェクト,,株式会社,岡山県,総社市,総社２丁目１９番１２号,,33,208,7191126,,,2025-10-01,清算の結了等,,,2020-04-03,1,,,,,スマイルプロジェクト,0
1176,4290001057098,登記記録の閉鎖等,0,2025-10-15,2025-09-30,深見積算株式会社,,株式会社,福岡県,春日市,千歳町１丁目１番地１ライオンズマンション春日７０７号,,40,218,8160805,,,2025-09-30,清算の結了等,,,2015-10-05,1,,,,,フカミセキサン,0
1178,4290001066099,登記記録の閉鎖等,0,2025-10-15,2025-09-16,きめら企画株式会社,,株式会社,福岡県,小郡市,希みが丘５丁目３番地２４,,40,216,8380107,,,2025-09-16,清算の結了等,,,2015-10-05,1,,,,,キメラキカク,0
1179,4290001082708,登記記録の閉鎖等,0,2025-10-15,2025-10-09,ＹＧＬ株式会社,,株式会社,福岡県,福岡市博多区,博多駅東２丁目１３番３４号,,40,132,8120013,,,2025-10-09,合併による解散等,7330001001065,令和７年１０月１日熊本市東区小山町１９２２番地５九州栄孝エキスプレス株式会社（7330001001065）に合併し解散,2018-09-11,1,,,,,ワイジーエル,0
1184,4290801007938,登記記録の閉鎖等,0,2025-10-15,2025-10-01,伸和株式会社,,株式会社,東京都,台東区,駒形１丁目４番１８号,,13,106,1110043,,,2025-10-01,合併による解散等,8010501022427,令和７年１０月１日東京都台東区駒形一丁目４番１８号ムーブ株式会社（8010501022427）に合併し解散,2015-10-05,1,,,,,シンワ,0
1185,4290801026236,登記記録の閉鎖等,0,2025-10-15,2025-10-08,北九州液酸株式会社,,株式会社,福岡県,北九州市若松区,向洋町１０番地２,,40,103,8080002,,,2025-10-08,合併による解散等,6120001236559,令和７年１０月１日大阪市中央区南船場二丁目１２番８号エア・ウォーター・ガスプロダクツ株式会社（6120001236559）に合併し解散,2020-02-03,1,,,,,キタキュウシュウエキサン,0
1200,4340002009101,登記記録の閉鎖等,0,2025-10-15,2025-10-03,株式会社丸竹工業,,株式会社,鹿児島県,鹿児島市,東開町３番地８６,,46,201,8910115,,,2025-10-03,清算の結了等,,,2015-10-05,1,,,,,マルタケコウギョウ,0
1231,4500001015950,登記記録の閉鎖等,0,2025-10-15,2025-10-09,株式会社華月,,株式会社,愛媛県,宇和島市,三間町北増穂６７２番地,,38,203,7981111,,,2025-10-09,清算の結了等,,,2015-10-05,1,,,,,カゲツ,0
1252,5010005005278,登記記録の閉鎖等,0,2025-10-15,2025-10-10,特定非営利活動法人ネパール治水砂防技術交流会,,その他の設立登記法人,東京都,千代田区,平河町２丁目７番４号砂防会館別館,,13,101,1020093,,,2025-10-10,清算の結了等,,,2015-10-05,1,,,,,ネパールチスイサボウギジュツコウリュウカイ,0
1260,5010401185888,登記記録の閉鎖等,0,2025-10-15,2025-10-07,株式会社ゆい,,株式会社,東京都,港区,南青山２丁目２９－８,,13,103,1070062,,,2025-10-07,合併による解散等,5010401065685,令和７年９月１日東京都渋谷区代々木一丁目３８番２号株式会社ベビーカレンダー（5010401065685）に合併し解散,2024-10-23,1,,,,,ユイ,0
1278,5010802003120,登記記録の閉鎖等,0,2025-10-15,2025-10-07,有限会社おしやれの店アコ,,有限会社,東京都,大田区,矢口１丁目１５番１１号,,13,111,1460093,,,2025-10-07,清算の結了等,,,2015-10-05,1,,,,,オシヤレノミセアコ,0
1294,5011003011029,登記記録の閉鎖等,0,2025-10-15,2025-09-09,合同会社文,,合同会社,東京都,新宿区,西新宿６丁目５番１号新宿アイランドタワー２階,,13,104,1600023,,,2025-09-09,清算の結了等,,,2020-04-01,1,,,,,モン,0
1299,5011101102860,登記記録の閉鎖等,0,2025-10-15,2025-09-30,桂建材株式会社,,株式会社,東京都,国分寺市,東元町２丁目９番４号－１６,,13,214,1850022,,,2025-09-30,清算の結了等,,,2023-05-15,1,,,,,カツラケンザイ,0
1300,5011101105723,登記記録の閉鎖等,0,2025-10-15,2025-10-08,株式会社ワールドウィン・プロパティ,,株式会社,東京都,中央区,京橋３丁目７－５,,13,102,1040031,,,2025-10-08,合併による解散等,6120901026596,令和７年１０月１日大阪市中央区高麗橋三丁目２番７号株式会社ＴＡＫＵＴＯ（6120901026596）に合併し解散,2024-01-10,1,,,,,ワールドウィンプロパティ,0
1302,5011102010906,登記記録の閉鎖等,0,2025-10-15,2025-09-08,有限会社フェミニストセラピィなかま,,有限会社,東京都,新宿区,四谷三栄町６番５号木原ビル,,13,104,1600008,,,2025-09-08,清算の結了等,,,2015-10-05,1,,,,,フェミニストセラピィナカマ,0
1312,5011303003717,登記記録の閉鎖等,0,2025-10-15,2025-10-06,合同会社リデアテクノロジー,,合同会社,東京都,杉並区,宮前３丁目３５番１５号,,13,115,1680081,,,2025-10-06,清算の結了等,,,2020-07-27,1,,,,,リデアテクノロジー,0
1347,5020001144913,登記記録の閉鎖等,0,2025-10-15,2025-09-29,ＹＭＲＲＡ株式会社,,株式会社,神奈川県,横浜市戸塚区,上倉田町９０８番地,,14,110,2440816,,,2025-09-29,清算の結了等,,,2022-01-24,1,,,,,ワイエムアールアールエイ,0
1354,5020002066504,登記記録の閉鎖等,0,2025-10-15,2025-10-01,有限会社ティープラス,,有限会社,神奈川県,横浜市港南区,下永谷１丁目３０番５２号,,14,111,2330016,,,2025-10-01,清算の結了等,,,2015-10-05,1,,,,,ティープラス,0
1355,5020002070737,登記記録の閉鎖等,0,2025-10-15,2025-10-02,有限会社ゼットンデザイン,,有限会社,神奈川県,横浜市鶴見区,鶴見中央４丁目３４番１３－５０４号,,14,101,2300051,,,2025-10-02,清算の結了等,,,2015-10-05,1,,,,,ゼットンデザイン,0
1356,5020002090801,登記記録の閉鎖等,0,2025-10-15,2025-10-01,有限会社三ッ橋エンジニアリング,,有限会社,神奈川県,横浜市都筑区,東山田町１７４１番地５,,14,118,2240024,,,2025-10-01,清算の結了等,,,2015-10-05,1,,,,,ミツハシエンジニアリング,0
1365,5030001023620,登記記録の閉鎖等,0,2025-10-15,2025-10-06,株式会社新井商店,,株式会社,埼玉県,所沢市,寿町６番４号,,11,208,3591122,,,2025-10-06,清算の結了等,,,2015-10-05,1,,,,,アライショウテン,0
1377,5030002062444,登記記録の閉鎖等,0,2025-10-15,2025-10-06,株式会社モビメントホールディングス,,株式会社,埼玉県,志木市,本町５丁目２１番５４－１０２号,,11,228,3530004,,,2025-10-06,清算の結了等,,,2015-10-05,1,,,,,モビメントホールディングス,0
1378,5030002107216,登記記録の閉鎖等,0,2025-10-15,2025-10-06,有限会社丸木木工所,,有限会社,埼玉県,川口市,東領家１丁目２１番１７号,,11,203,3320003,,,2025-10-06,清算の結了等,,,2015-10-05,1,,,,,マルキモッコウショ,0
1379,5030002114063,登記記録の閉鎖等,0,2025-10-15,2025-10-07,有限会社ファーストサイエンス,,有限会社,埼玉県,熊谷市,中奈良１１２９番地２,,11,202,3600801,,,2025-10-07,清算の結了等,,,2015-10-05,1,,,,,ファーストサイエンス,0
1386,5040002004081,登記記録の閉鎖等,0,2025-10-15,2025-09-24,有限会社巧彩社,,有限会社,千葉県,千葉市花見川区,三角町８１番地１,,12,102,2620011,,,2025-09-24,清算の結了等,,,2015-10-05,1,,,,,コウサイシャ,0
1396,5040002063169,登記記録の閉鎖等,0,2025-10-15,2025-09-11,有限会社オプトライン,,有限会社,千葉県,八街市,中央１３番地１８,,12,230,2891116,,,2025-09-11,清算の結了等,,,2015-10-05,1,,,,,オプトライン,0
1402,5080001015142,登記記録の閉鎖等,0,2025-10-15,2025-10-07,ヒキノ通商株式会社,,株式会社,静岡県,焼津市,小土６７６番地の２,,22,212,4250086,,,2025-10-07,清算の結了等,,,2015-10-05,1,,,,,ヒキノツウショウ,0
1409,5110001027365,登記記録の閉鎖等,0,2025-10-15,2025-09-30,株式会社ナカガワ,,株式会社,宮城県,柴田郡村田町,大字村田字西田４３番地１,,04,322,9891305,,,2025-09-30,清算の結了等,,,2015-10-05,1,,,,,ナカガワ,0
1455,5140001089733,登記記録の閉鎖等,0,2025-10-15,2025-10-06,株式会社セフィル,,株式会社,兵庫県,川西市,清和台西４丁目３番地の３１,,28,217,6660143,,,2025-10-06,清算の結了等,,,2015-10-05,1,,,,,セフィル,0
1524,5260002013556,登記記録の閉鎖等,0,2025-10-15,2025-10-03,有限会社クロノ,,有限会社,岡山県,岡山市北区,青江４丁目３番７号,,33,101,7000941,,,2025-10-03,清算の結了等,,,2015-10-05,1,,,,,クロノ,0
1526,5290003015318,登記記録の閉鎖等,0,2025-10-15,2025-09-16,合同会社ＢＵＳ,,合同会社,福岡県,福岡市中央区,高砂１丁目２２番１０－６０１号恵比須ヒルズ,,40,133,8100011,,,2025-09-16,清算の結了等,,,2024-07-10,1,,,,,バス,0
1533,5330005000791,登記記録の閉鎖等,0,2025-10-15,2025-10-01,熊本県畜産農業協同組合連合会,,その他の設立登記法人,熊本県,熊本市東区,桜木６丁目３番５４号,,43,102,8612101,,,2025-10-01,合併による解散等,2330005000761,令和７年１０月１日熊本市東区桜木六丁目３番５４号熊本県畜産農業協同組合（2330005000761）に権利義務を承継し解散,2015-10-05,1,,,,,クマモトケンチクサン,0
1540,5360001027381,登記記録の閉鎖等,0,2025-10-15,2025-10-09,株式会社リンク＆コミュニティー沖縄,,株式会社,沖縄県,浦添市,屋富祖３丁目７番３号－３０１,,47,208,9012127,,,2025-10-09,清算の結了等,,,2020-06-30,1,,,,,リンクアンドコミュニティーオキナワ,0
1551,5380003000327,登記記録の閉鎖等,0,2025-10-15,2025-09-30,合資会社アマルティ,,合資会社,福島県,福島市,瀬上町字桜町２丁目４番地の５,,07,201,9600101,,,2025-09-30,清算の結了等,,,2015-10-05,1,,,,,アマルティ,0
1553,5390001006853,登記記録の閉鎖等,0,2025-10-15,2025-10-09,酒田ソーイング株式会社,,株式会社,山形県,酒田市,卸町４番地の６,,06,204,9980823,,,2025-10-09,清算の結了等,,,2015-10-05,1,,,,,サカタソーイング,0
1560,5400501000932,登記記録の閉鎖等,0,2025-10-15,2025-09-30,株式会社アズ,,株式会社,岩手県,一関市,花泉町油島字花欠２３番地３,,03,209,0293207,,,2025-09-30,清算の結了等,,,2015-10-05,1,,,,,アズ,0
1561,5430001043231,登記記録の閉鎖等,0,2025-10-15,2025-09-30,清水電設株式会社,,株式会社,北海道,江別市,ゆめみ野東町１１番地の１０,,01,217,0670065,,,2025-09-30,清算の結了等,,,2015-10-05,1,,,,,シミズデンセツ,0
1575,5440003001070,登記記録の閉鎖等,0,2025-10-15,2025-10-06,Ｈｏｋｋａｉｄｏ　Ｂｅｓｔ　Ｆｏｏｄｓ合同会社,,合同会社,北海道,函館市,末広町１０番１８号,,01,202,0400053,,,2025-10-06,清算の結了等,,,2015-10-05,1,,,,,ホッカイドウベストフーズ,0
1581,5480002002000,登記記録の閉鎖等,0,2025-10-15,2025-10-09,四国エレベーターサービス株式会社,,株式会社,徳島県,徳島市,幸町１丁目４４番地,,36,201,7700847,,,2025-10-09,合併による解散等,7240001059534,令和７年１０月１日広島市中区富士見町８番２４号ジャパンエレベーターサービス中四国株式会社（7240001059534）に合併し解散,2015-10-05,1,,,,,シコクエレベーターサービス,0
1583,5490002008467,登記記録の閉鎖等,0,2025-10-15,2025-10-10,有限会社樽宮商店,00006642,有限会社,高知県,四万十市,中村京町４丁目１２番地,,39,210,7870021,,,2025-10-10,清算の結了等,,,2015-10-05,1,,,,,タルミヤショウテン,0
1610,6010005024145,登記記録の閉鎖等,0,2025-10-15,2025-10-07,一般社団法人医療介護の安定と地域経済活性化フォーラム,,その他の設立登記法人,東京都,品川区,東品川２丁目２番２０号天王洲オーシャンスクエア２２階,,13,109,1400002,,,2025-10-07,清算の結了等,,,2015-10-05,1,,,,,イリョウカイゴノアンテイトチイキケイザイカッセイカフォーラム,0
1614,6010401125777,登記記録の閉鎖等,0,2025-10-15,2025-10-10,薬樹Ｒ＆Ｄ株式会社,,株式会社,東京都,港区,新橋１丁目４番４号ＦＡＤ１５ビル８階,,13,103,1050004,,,2025-10-10,合併による解散等,9021001056797,令和７年１０月１日神奈川県大和市西鶴間一丁目１０番１３号ライオンズプラザ鶴間９０１号室株式会社ＫＯＭＯＲＩ（9021001056797）に合併し解散,2016-07-12,1,,,,,ヤクジュアールアンドディー,0
1628,6010505003086,登記記録の閉鎖等,0,2025-10-15,2025-09-29,一般社団法人介護技能実習プログラム委員会,,その他の設立登記法人,東京都,台東区,台東２丁目２７番３号ＮＳＫビル１０Ｆ,,13,106,1100016,,,2025-09-29,清算の結了等,,,2019-12-18,1,,,,,カイゴギノウジッシュウプログラムイインカイ,0
1635,6010801030899,登記記録の閉鎖等,0,2025-10-15,2025-10-09,ロジスネクスト東京株式会社,,株式会社,東京都,大田区,平和島６丁目１番１号,,13,111,1430006,,,2025-10-09,合併による解散等,8120001229206,令和７年１０月１日大阪府守口市大日東町３５番２号ロジスネクストジャパン株式会社（8120001229206）に合併し解散,2020-05-20,1,,,,,ロジスネクストトウキョウ,0
1658,6011301022668,登記記録の閉鎖等,0,2025-10-15,2025-10-07,株式会社オフィスサンズ,,株式会社,東京都,杉並区,高井戸西２丁目１７番４号,,13,115,1680071,,,2025-10-07,清算の結了等,,,2016-11-07,1,,,,,オフィスサンズ,0
1659,6011302005779,登記記録の閉鎖等,0,2025-10-15,2025-10-03,有限会社タナカアートサイン,,有限会社,東京都,杉並区,下井草１丁目２０番２０号,,13,115,1670022,,,2025-10-03,清算の結了等,,,2015-10-05,1,,,,,タナカアートサイン,0
1673,6012802007637,登記記録の閉鎖等,0,2025-10-15,2025-09-29,有限会社アットモル,,有限会社,東京都,昭島市,中神町１３７１番地１２６,,13,207,1960022,,,2025-09-29,清算の結了等,,,2015-10-05,1,,,,,,0
1676,6013202014380,登記記録の閉鎖等,0,2025-10-15,2025-10-09,有限会社オフィスカシ,,有限会社,東京都,八王子市,南大沢１丁目１３番地の１３,,13,201,1920364,,,2025-10-09,清算の結了等,,,2015-10-05,1,,,,,オフィスカシ,0
1692,6020002011797,登記記録の閉鎖等,0,2025-10-15,2025-10-03,有限会社三豊,,有限会社,神奈川県,横浜市戸塚区,汲沢町６８７番地,,14,110,2450062,,,2025-10-03,清算の結了等,,,2015-10-05,1,,,,,ミトヨ,0
1694,6020002054227,登記記録の閉鎖等,0,2025-10-15,2025-09-30,有限会社ティームフジヤマ,,有限会社,神奈川県,横浜市港北区,箕輪町１丁目３０番１－２０３号,,14,109,2230051,,,2025-09-30,清算の結了等,,,2015-10-05,1,,,,,ティームフジヤマ,0
1696,6020002069497,登記記録の閉鎖等,0,2025-10-15,2025-09-30,有限会社守屋,,有限会社,神奈川県,横浜市港北区,仲手原２丁目１９番４１号,,14,109,2220023,,,2025-09-30,清算の結了等,,,2015-10-05,1,,,,,モリヤ,0
1705,6021001019344,登記記録の閉鎖等,0,2025-10-15,2025-09-29,株式会社アトランティックツアー,,株式会社,神奈川県,厚木市,栄町１丁目１０番７号日神パレステージ本厚木グランビュー４０３,,14,212,2430017,,,2025-09-29,清算の結了等,,,2015-10-05,1,,,,,アトランティックツアー,0
1721,6040001124169,登記記録の閉鎖等,0,2025-10-15,2025-10-08,千葉液酸株式会社,,株式会社,千葉県,千葉市稲毛区,六方町２１０番地３,,12,103,2630004,,,2025-10-08,合併による解散等,6120001236559,令和７年１０月１日大阪市中央区南船場二丁目１２番８号エア・ウォーター・ガスプロダクツ株式会社（6120001236559）に合併し解散,2022-07-08,1,,,,,チバエキサン,0
1772,6120901002820,登記記録の閉鎖等,0,2025-10-15,2025-10-09,株式会社エクセル,,株式会社,東京都,足立区,加平２丁目１１番６号,,13,121,1210055,,,2025-10-09,合併による解散等,2030001097312,令和７年１０月１日埼玉県三郷市早稲田八丁目９番地１号棟１０３号ループ株式会社（2030001097312）に合併し解散,2015-10-05,1,,,,,エクセル,0
1791,6140001081177,登記記録の閉鎖等,0,2025-10-15,2025-10-01,株式会社みなと開発,,株式会社,兵庫県,三木市,平田１２０番地の１,,28,215,6730405,,,2025-10-01,合併による解散等,8140001036039,令和７年１０月１日兵庫県三木市平田１２０番地の１株式会社秋山住研（8140001036039）に合併し解散,2015-10-05,1,,,,,ミナトカイハツ,0
1792,6140001136113,登記記録の閉鎖等,0,2025-10-15,2025-10-08,株式会社エコリンググロース,,株式会社,鹿児島県,鹿児島市,宇宿３丁目２８番１７号天翔ビル３０２号,,46,201,8900073,,,2025-10-08,合併による解散等,5140001063969,令和７年１０月１日兵庫県姫路市御国野町御着３５２番地株式会社エコリング（5140001063969）に合併し解散,2024-10-16,1,,,,,エコリンググロース,0
1803,6170002005413,登記記録の閉鎖等,0,2025-10-15,2025-10-10,有限会社設計工房ウエナカ,,有限会社,和歌山県,和歌山市,井辺２５４番地の５,,30,201,6408302,,,2025-10-10,清算の結了等,,,2015-10-05,1,,,,,セッケイコウボウウエナカ,0
1804,6180001057735,登記記録の閉鎖等,0,2025-10-15,2025-10-01,株式会社柳電工事,,株式会社,愛知県,北名古屋市,徳重本郷２５９番地,,23,234,4810038,,,2025-10-01,清算の結了等,,,2015-10-05,1,,,,,ヤナデンコウジ,0
1818,6180301028510,登記記録の閉鎖等,0,2025-10-15,2025-09-26,ファーストトラック株式会社,,株式会社,愛知県,岡崎市,戸崎町字牛転１０番地２エスポアクレメント光ヶ丘弐番館２０３,,23,202,4440840,,,2025-09-26,清算の結了等,,,2015-10-16,1,,,,,ファーストトラック,0
1820,6180301034368,登記記録の閉鎖等,0,2025-10-15,2025-10-02,ワールドキャピタル株式会社,,株式会社,愛知県,岡崎市,若松東１丁目２番１４ＴＵＩＮ１０２,,23,202,4440822,,,2025-10-02,清算の結了等,,,2020-12-03,1,"WORLD CAPITAL CO., LTD.",,,,ワールドキャピタル,0
1827,6220001005516,登記記録の閉鎖等,0,2025-10-15,2025-10-08,株式会社ビ．ビ．シ,,株式会社,石川県,白山市,鶴来桑島町１３１番地２,,17,210,9202166,,,2025-10-08,清算の結了等,,,2015-10-05,1,,,,,,0
1829,6220002007172,登記記録の閉鎖等,0,2025-10-15,2025-10-09,有限会社厚生食堂,,有限会社,石川県,金沢市,金石北１丁目１番４０号,,17,201,9200338,,,2025-10-09,清算の結了等,,,2015-10-05,1,,,,,コウセイショクドウ,0
1841,6280002010204,登記記録の閉鎖等,0,2025-10-15,2025-10-09,有限会社博世館,,有限会社,島根県,益田市,あけぼの西町７番地５,,32,204,6980025,,,2025-10-09,清算の結了等,,,2025-07-31,1,,,,,,0
1842,6290001088983,登記記録の閉鎖等,0,2025-10-15,2025-10-09,ロジスネクスト九州株式会社,,株式会社,福岡県,福岡市博多区,金の隈１丁目３８番２４号,,40,132,8120863,,,2025-10-09,合併による解散等,8120001229206,令和７年１０月１日大阪府守口市大日東町３５番２号ロジスネクストジャパン株式会社（8120001229206）に合併し解散,2020-05-29,1,,,,,ロジスネクストキュウシュウ,0
1866,6370102002546,登記記録の閉鎖等,0,2025-10-15,2025-09-30,有限会社フェアリィテイルズ,,有限会社,宮城県,白石市,字本町７番地,,04,206,9890275,,,2025-09-30,清算の結了等,,,2015-10-05,1,,,,,フェアリィテイルズ,0
1868,6380003004426,登記記録の閉鎖等,0,2025-10-15,2025-10-02,合同会社プライムプライズ,,合同会社,福島県,いわき市,平字五色町２１番地の３,,07,204,9708026,,,2025-10-02,清算の結了等,,,2019-03-06,1,,,,,プライムプライズ,0
1871,6390002010507,登記記録の閉鎖等,0,2025-10-15,2025-10-07,有限会社美容室ハーモニー,,有限会社,山形県,鶴岡市,千石町２番１５号,,06,203,9970813,,,2025-10-07,清算の結了等,,,2015-10-05,1,,,,,ビヨウシツハーモニー,0
1872,6400002000695,登記記録の閉鎖等,0,2025-10-15,2025-10-01,有限会社小川商店,,有限会社,岩手県,盛岡市,上田３丁目７番２２号,,03,201,0200066,,,2025-10-01,清算の結了等,,,2015-10-05,1,,,,,オガワショウテン,0
1890,6430005012660,登記記録の閉鎖等,0,2025-10-15,2025-09-08,一般社団法人再生事業支援開発,,その他の設立登記法人,東京都,新宿区,市谷仲之町４－３９,,13,104,1620064,,,2025-09-08,清算の結了等,,,2015-12-15,1,,,,,サイセイジギョウシエンカイハツ,0
1893,6470001018039,登記記録の閉鎖等,0,2025-10-15,2025-10-09,ロジスネクスト四国株式会社,,株式会社,香川県,高松市,中新町１１番地１三甲高松ビル６０３号室,,37,201,7600056,,,2025-10-09,合併による解散等,8120001229206,令和７年１０月１日大阪府守口市大日東町３５番２号ロジスネクストジャパン株式会社（8120001229206）に合併し解散,2020-05-19,1,,,,,ロジスネクストシコク,0
1896,6490001000639,登記記録の閉鎖等,0,2025-10-15,2025-10-08,高知第一薬品株式会社,,株式会社,高知県,高知市,南御座７番１４号,,39,201,7810084,,,2025-10-08,合併による解散等,5190001026302,令和７年９月１日三重県津市西丸之内３６番２５号株式会社メディカル一光（5190001026302）に合併し解散,2015-10-05,1,,,,,,0
1899,7010001025328,登記記録の閉鎖等,0,2025-10-15,2025-10-09,株式会社ナユタ,,株式会社,東京都,中央区,八重洲２丁目１－１ＹＡＮＭＡＲＴＯＫＹＯ１２階,,13,102,1040028,,,2025-10-09,合併による解散等,4030001057322,令和７年１０月１日長野県駒ヶ根市中沢３１７５番地１日本ビューテック株式会社（4030001057322）に合併し解散,2015-10-05,1,,,,,ナユタ,0
1924,7010601013260,登記記録の閉鎖等,0,2025-10-15,2025-10-01,房総産業株式会社,,株式会社,東京都,墨田区,墨田１丁目６番７号,,13,107,1310031,,,2025-10-01,合併による解散等,1010601013877,令和７年１０月１日東京都墨田区墨田一丁目６番７号ナガセケンコー株式会社（1010601013877）に合併し解散,2015-10-05,1,,,,,ボウソウサンギョウ,0
1925,7010601031774,登記記録の閉鎖等,0,2025-10-15,2025-10-06,株式会社エムアイジェー,,株式会社,埼玉県,北葛飾郡松伏町,大字松伏２０１６番地４,,11,465,3430111,,,2025-10-06,清算の結了等,,,2015-10-05,1,,,,,エムアイジェー,0
1926,7010601063470,登記記録の閉鎖等,0,2025-10-15,2025-10-09,株式会社キャプティエンジニアリング,,株式会社,東京都,墨田区,堤通１丁目１９番９号,,13,107,1310034,,,2025-10-09,合併による解散等,6010401021555,令和７年１０月１日東京都港区芝一丁目４番７号ユナイテッドエンジニアリング株式会社（6010401021555）に合併し解散,2023-07-20,1,,,,,キャプティエンジニアリング,0
1959,7011105005125,登記記録の閉鎖等,0,2025-10-15,2025-09-08,公益社団法人日本和紙絵画芸術協会,,その他の設立登記法人,東京都,新宿区,高田馬場１丁目１６番１４号ロ－ヤルハイツ１０５号,,13,104,1690075,,,2025-09-08,清算の結了等,,,2015-10-05,1,,,,,ニホンワシカイガゲイジュツキョウカイ,0
1968,7011502002443,登記記録の閉鎖等,0,2025-10-15,2025-10-08,有限会社三菊木工所,,有限会社,東京都,北区,滝野川３丁目４７番４号,,13,117,1140023,,,2025-10-08,清算の結了等,,,2015-10-05,1,,,,,サンギクモッコウショ,0
1981,7020001074464,登記記録の閉鎖等,0,2025-10-15,2025-09-26,本田ビルヂング株式会社,,株式会社,東京都,町田市,森野１丁目３０番８号ノアビル６階,,13,209,1940022,,,2025-09-26,清算の結了等,,,2015-10-05,1,,,,,ホンダビルヂング,0
2018,7040003016628,登記記録の閉鎖等,0,2025-10-15,2025-09-11,フォレスト建物合同会社,,合同会社,千葉県,富里市,日吉台６丁目２７番地８,,12,233,2860201,,,2025-09-11,清算の結了等,,,2020-12-14,1,,,,,フォレストタテモノ,0
2024,7060001005102,登記記録の閉鎖等,0,2025-10-15,2025-10-10,ジョイコム株式会社,,株式会社,栃木県,宇都宮市,インターパーク２丁目１４番地１０,,09,201,3210118,,,2025-10-10,合併による解散等,6430001050730,令和７年１０月１日北海道小樽市新光一丁目１１番１号株式会社エムデジ（6430001050730）に合併し解散,2015-10-05,1,,,,,ジョイコム,0
2025,7060002017039,登記記録の閉鎖等,0,2025-10-15,2025-10-08,有限会社ウエキ,,有限会社,栃木県,真岡市,並木町４丁目８番地２,,09,209,3214361,,,2025-10-08,清算の結了等,,,2015-10-05,1,,,,,ウエキ,0
2042,7080402014609,登記記録の閉鎖等,0,2025-10-15,2025-10-02,有限会社佐藤工務店,,有限会社,静岡県,浜松市中央区,富塚町４６６７番地の９,,22,138,4328002,,,2025-10-02,清算の結了等,,,2015-10-05,1,,,,,サトウコウムテン,0
2049,7110002031463,登記記録の閉鎖等,0,2025-10-15,2025-10-09,有限会社アイ・ディー・サポート,,有限会社,新潟県,見附市,本所１丁目７番５７号,,15,211,9540051,,,2025-10-09,清算の結了等,,,2015-10-05,1,,,,,,0
2051,7110003001044,登記記録の閉鎖等,0,2025-10-15,2025-10-06,ＧＡＴＴＯ合同会社,,合同会社,新潟県,新発田市,日渡７２番地５,,15,206,9570072,,,2025-10-06,清算の結了等,,,2015-10-05,1,,,,,ガット,0
2057,7120001249733,登記記録の閉鎖等,0,2025-10-15,2025-09-25,株式会社アドバンス,,株式会社,大阪府,大阪市西区,江戸堀２丁目１番１号,,27,106,5500002,,,2025-09-25,清算の結了等,,,2022-10-25,1,,,,,アドバンス,0
2075,7130001024929,登記記録の閉鎖等,0,2025-10-15,2025-10-10,株式会社エムヴァック,,株式会社,京都府,京都市右京区,鳴滝蓮花寺町１番地１２,,26,108,6168232,,,2025-10-10,清算の結了等,,,2015-10-05,1,,,,,エムヴァック,0
2084,7140001093064,登記記録の閉鎖等,0,2025-10-15,2025-10-10,株式会社しき島ガスワン,,株式会社,兵庫県,加古川市,別府町港町１番地の２,,28,210,6750136,,,2025-10-10,合併による解散等,9030001003544,令和７年１０月１日埼玉県さいたま市大宮区桜木町一丁目１１番地５株式会社サイサン（9030001003544）に合併し解散,2015-10-05,1,,,,,シキシマガスワン,0
2086,7140001095738,登記記録の閉鎖等,0,2025-10-15,2025-09-30,株式会社金丸塗装工業,,株式会社,兵庫県,神戸市長田区,上池田３丁目１１番９号,,28,106,6530827,,,2025-09-30,清算の結了等,,,2015-10-05,1,,,,,カナマルトソウコウギョウ,0
2094,7160002000075,登記記録の閉鎖等,0,2025-10-15,2025-10-01,有限会社東設備工業,,有限会社,滋賀県,大津市,大平２丁目２４番１５号,,25,201,5200867,,,2025-10-01,清算の結了等,,,2015-10-05,1,,,,,アヅマセツビコウギョウ,0
2096,7160002014661,登記記録の閉鎖等,0,2025-10-15,2025-10-03,有限会社ジャングルジム,,有限会社,滋賀県,守山市,勝部１丁目１番２１－４０２号,,25,207,5240041,,,2025-10-03,清算の結了等,,,2015-10-05,1,,,,,ジャングルジム,0
2099,7170001007161,登記記録の閉鎖等,0,2025-10-15,2025-10-08,株式会社山本建商,,株式会社,和歌山県,有田郡湯浅町,大字湯浅１９５８番地,,30,361,6430004,,,2025-10-08,清算の結了等,,,2015-10-05,1,,,,,ヤマモトケンショウ,0
2103,7180001027588,登記記録の閉鎖等,0,2025-10-15,2025-09-30,横田企業株式会社,,株式会社,愛知県,名古屋市西区,名駅１丁目１番１６号,,23,104,4510045,,,2025-09-30,清算の結了等,,,2015-10-05,1,,,,,ヨコタキギョウ,0
2104,7180001089447,登記記録の閉鎖等,0,2025-10-15,2025-09-29,株式会社石黒,,株式会社,愛知県,一宮市,浅井町河田字郷前２７番地４,,23,203,4910142,,,2025-09-29,清算の結了等,,,2015-10-05,1,,,,,イシグロ,0
2114,7180002079991,登記記録の閉鎖等,0,2025-10-15,2025-09-30,有限会社ピー・ピー・ケイ,,有限会社,愛知県,一宮市,祐久字屋敷裏１５３番地,,23,203,4940017,,,2025-09-30,清算の結了等,,,2015-10-05,1,,,,,ピーピーケイ,0
2115,7180003009758,登記記録の閉鎖等,0,2025-10-15,2025-10-01,合資会社野々川工業所,,合資会社,愛知県,名古屋市北区,上飯田通３丁目７番地,,23,103,4620808,,,2025-10-01,清算の結了等,,,2015-10-05,1,,,,,ノノガワコウギョウショ,0
2148,7340001008002,登記記録の閉鎖等,0,2025-10-15,2025-10-06,株式会社黒酢の杜,,株式会社,鹿児島県,霧島市,福山町福山１４７番地１,,46,218,8994501,,,2025-10-06,合併による解散等,5340001001941,令和７年１０月１日鹿児島市錦江町１１番６号株式会社サメシマ（5340001001941）に合併し解散,2015-10-05,1,,,,,クロスノモリ,0
2149,7340002000486,登記記録の閉鎖等,0,2025-10-15,2025-10-02,有限会社尾堂造園,,有限会社,鹿児島県,日置市,伊集院町土橋１１８１番地１,,46,216,8992516,,,2025-10-02,清算の結了等,,,2015-10-05,1,,,,,オドウゾウエン,0
2165,7380002026478,登記記録の閉鎖等,0,2025-10-15,2025-10-02,有限会社八洲エンジニアリング,,有限会社,福島県,いわき市,泉町下川字大剣１番地の９３,,07,204,9718183,,,2025-10-02,清算の結了等,,,2015-10-05,1,,,,,ヤシマエンジニアリング,0
2189,8010001010980,登記記録の閉鎖等,0,2025-10-15,2025-09-29,株式会社イットーソフトウェア,,株式会社,東京都,中野区,東中野２丁目７番１４号,,13,114,1640003,,,2025-09-29,清算の結了等,,,2015-10-05,1,,,,,イットーソフトウェア,0
2191,8010001020690,登記記録の閉鎖等,0,2025-10-15,2025-10-01,株式会社成和ネクタイ研究所,,株式会社,東京都,千代田区,九段南２丁目２番３号,,13,101,1020074,,,2025-10-01,合併による解散等,3010001020687,令和７年１０月１日東京都千代田区九段南二丁目２番３号成和株式会社（3010001020687）に合併し解散,2015-10-05,1,,,,,セイワネクタイケンキュウショ,0
2197,8010003031728,登記記録の閉鎖等,0,2025-10-15,2025-10-01,ＢｉｄＭａｔｈ　Ｊａｐａｎ合同会社,,合同会社,東京都,千代田区,九段南１丁目５番６号りそな九段ビル５階,,13,101,1020074,,,2025-10-01,清算の結了等,,,2020-02-27,1,,,,,ビッドマスジャパン,0
2203,8010401137580,登記記録の閉鎖等,0,2025-10-15,2025-09-04,リグ・ウェイ株式会社,,株式会社,東京都,港区,六本木２丁目３番７－１５０２号,,13,103,1060032,,,2025-09-04,清算の結了等,,,2018-04-09,1,,,,,リグウェイ,0
2207,8010501026519,登記記録の閉鎖等,0,2025-10-15,2025-10-01,株式会社東菱ビジネスサービス,,株式会社,東京都,台東区,北上野１丁目９番１２号,,13,106,1100014,,,2025-10-01,合併による解散等,6010501016562,令和７年１０月１日東京都台東区北上野二丁目８番７号三菱電機住環境システムズ株式会社（6010501016562）に合併し解散,2015-10-05,1,,,,,トウリョウビジネスサービス,0
2215,8010701007500,登記記録の閉鎖等,0,2025-10-15,2025-10-07,株式会社日管舎,,株式会社,東京都,品川区,西品川２丁目８番７号,,13,109,1410033,,,2025-10-07,清算の結了等,,,2015-10-05,1,,,,,ニッカンシャ,0
2216,8010701025790,登記記録の閉鎖等,0,2025-10-15,2025-10-10,株式会社テクノグローバル研究所,,株式会社,東京都,渋谷区,神宮前６丁目３４番２０号,,13,113,1500001,,,2025-10-10,合併による解散等,4010401107827,令和７年１０月１日東京都世田谷区玉堤一丁目８番３号株式会社ＧＥＮアセットマネジメント（4010401107827）に合併し解散,2015-10-05,1,,,,,テクノグローバルケンキュウジョ,0
2218,8010702013308,登記記録の閉鎖等,0,2025-10-15,2025-09-25,有限会社ヘアーメイクアンテナ,,有限会社,神奈川県,川崎市中原区,丸子通１丁目６６５番２号,,14,133,2110006,,,2025-09-25,清算の結了等,,,2015-10-05,1,,,,,ヘアーメイクアンテナ,0
2228,8011001147680,登記記録の閉鎖等,0,2025-10-15,2025-09-11,ネクレスシステム開発株式会社,,株式会社,東京都,渋谷区,南平台町１６番２９号グリーン南平台ビル６Ｆ,,13,113,1500036,,,2025-09-11,清算の結了等,,,2022-05-25,1,,,,,ネクレスシステムカイハツ,0
2241,8011301024927,登記記録の閉鎖等,0,2025-10-15,2025-10-06,株式会社アクアプラネット,,株式会社,東京都,杉並区,高円寺南４丁目３４番１２号１０１,,13,115,1660003,,,2025-10-06,清算の結了等,,,2019-03-27,1,,,,,アクアプラネット,0
2261,8020001070388,登記記録の閉鎖等,0,2025-10-15,2025-09-24,株式会社ヨコヤマ,,株式会社,神奈川県,川崎市中原区,上丸子山王町１丁目１３９８番地,,14,133,2110002,,,2025-09-24,清算の結了等,,,2015-10-05,1,,,,,ヨコヤマ,0
2268,8020002006259,登記記録の閉鎖等,0,2025-10-15,2025-09-30,有限会社スクリーンクラフト,,有限会社,神奈川県,横浜市港北区,大倉山５丁目３３番１号,,14,109,2220037,,,2025-09-30,清算の結了等,,,2015-10-05,1,,,,,スクリーンクラフト,0
2277,8020005013426,登記記録の閉鎖等,0,2025-10-15,2025-09-29,一般社団法人住まい・暮らし環境づくり,,その他の設立登記法人,神奈川県,横浜市鶴見区,市場富士見町５番１号,,14,101,2300026,,,2025-09-29,清算の結了等,,,2017-12-18,1,,,,,スマイクラシカンキョウヅクリ,0
2278,8021001034928,登記記録の閉鎖等,0,2025-10-15,2025-09-30,株式会社Ｔ＆Ｔエンジニアリング,,株式会社,神奈川県,足柄上郡山北町,山北３００番地,,14,364,2580113,,,2025-09-30,清算の結了等,,,2015-10-05,1,,,,,ティーアンドティーエンジニアリング,0
2283,8021002017519,登記記録の閉鎖等,0,2025-10-15,2025-09-29,有限会社あすなろ,,有限会社,神奈川県,相模原市南区,御園５丁目５番２号,,14,153,2520317,,,2025-09-29,清算の結了等,,,2015-10-05,1,,,,,アスナロ,0
2288,8030001148992,登記記録の閉鎖等,0,2025-10-15,2025-10-06,株式会社Ｆｕｎ　ｔｉｍｅ,,株式会社,埼玉県,さいたま市北区,宮原町４丁目１０１－５メイプルウェルズＢ１０１,,11,102,3310812,,,2025-10-06,清算の結了等,,,2022-07-11,1,,,,,ファンタイム,0
2293,8030002009319,登記記録の閉鎖等,0,2025-10-15,2025-10-01,有限会社電化のファミリー,,有限会社,埼玉県,さいたま市見沼区,大字蓮沼９２８番地の６,,11,104,3370015,,,2025-10-01,清算の結了等,,,2015-10-05,1,,,,,デンカノファミリー,0
2299,8040001051345,登記記録の閉鎖等,0,2025-10-15,2025-09-12,株式会社フジミテック,,株式会社,千葉県,木更津市,ほたる野１丁目２６番地９,,12,206,2920038,,,2025-09-12,清算の結了等,,,2015-10-05,1,,,,,フジミテック,0
2305,8040005008977,登記記録の閉鎖等,0,2025-10-15,2025-09-08,特定非営利活動法人たけのこ,,その他の設立登記法人,千葉県,袖ケ浦市,野里１４３６番地８２,,12,229,2990211,,,2025-09-08,清算の結了等,,,2015-10-05,1,,,,,タケノコ,0
2324,8080402003825,登記記録の閉鎖等,0,2025-10-15,2025-10-02,有限会社昭和コピーサービス,,有限会社,静岡県,浜松市中央区,高林３丁目１０番８号,,22,138,4300907,,,2025-10-02,清算の結了等,,,2015-10-05,1,,,,,ショウワコピーサービス,0
2327,8100002019855,登記記録の閉鎖等,0,2025-10-15,2025-10-08,有限会社ケーティークレーン販売,,有限会社,長野県,松本市,大手１丁目２番１３－８０４号,,20,202,3900874,,,2025-10-08,清算の結了等,,,2015-10-05,1,,,,,ケーティークレーンハンバイ,0
2328,8110001034879,登記記録の閉鎖等,0,2025-10-15,2025-10-09,ロジスネクスト関信越株式会社,,株式会社,新潟県,新潟市江南区,東早通３丁目１番３７号,,15,104,9500148,,,2025-10-09,合併による解散等,8120001229206,令和７年１０月１日大阪府守口市大日東町３５番２号ロジスネクストジャパン株式会社（8120001229206）に合併し解散,2020-05-25,1,,,,,ロジスネクストカンシンエツ,0
2335,8120001136385,登記記録の閉鎖等,0,2025-10-15,2025-10-02,株式会社ＺＥＲＯ,,株式会社,大阪府,大阪市中央区,久太郎町３丁目１番１５号,,27,128,5410056,,,2025-10-02,清算の結了等,,,2015-10-05,1,,,,,ゼロ,0
2375,8160005010822,登記記録の閉鎖等,0,2025-10-15,2025-10-08,一般社団法人なな,,その他の設立登記法人,滋賀県,近江八幡市,千僧供町６１７番地１,,25,204,5230016,,,2025-10-08,清算の結了等,,,2020-04-27,1,,,,,ナナ,0
2377,8170002011608,登記記録の閉鎖等,0,2025-10-15,2025-10-09,有限会社ひかり調剤薬局,,有限会社,和歌山県,新宮市,井の沢１１番１３号,,30,207,6470045,,,2025-10-09,合併による解散等,3120001105881,令和７年１０月１日大阪市中央区久太郎町二丁目２番７号株式会社ヘルシーワーク（3120001105881）に合併し解散,2015-10-05,1,,,,,ヒカリチョウザイヤッキョク,0
2387,8180002003926,登記記録の閉鎖等,0,2025-10-15,2025-09-30,有限会社川澄商店,,有限会社,愛知県,名古屋市天白区,塩釜口２丁目４１４番地,,23,116,4680073,,,2025-09-30,清算の結了等,,,2015-10-05,1,,,,,カワスミショウテン,0
2389,8180002075429,登記記録の閉鎖等,0,2025-10-15,2025-09-29,有限会社ＺＥＲＯ,,有限会社,愛知県,小牧市,中央１丁目１９０番地,,23,219,4850029,,,2025-09-29,清算の結了等,,,2015-10-05,1,,,,,ゼロ,0
2390,8180003014963,登記記録の閉鎖等,0,2025-10-15,2025-09-30,合同会社ホビーボックス,,合同会社,愛知県,あま市,小路２丁目６番地７,,23,237,4901106,,,2025-09-30,清算の結了等,,,2015-10-05,1,,,,,ホビーボックス,0
2391,8180003026001,登記記録の閉鎖等,0,2025-10-15,2025-10-01,合同会社アロマニエール,,合同会社,愛知県,名古屋市緑区,松が根台７８番地の１,,23,114,4580843,,,2025-10-01,清算の結了等,,,2023-11-14,1,,,,,アロマニエール,0
2400,8190002018626,登記記録の閉鎖等,0,2025-10-15,2025-10-03,有限会社のりの,,有限会社,三重県,桑名市,大字立田町５００番地２２,,24,205,5110842,,,2025-10-03,清算の結了等,,,2015-10-05,1,,,,,ノリノ,0
2402,8190005011669,登記記録の閉鎖等,0,2025-10-15,2025-10-07,アクロス事業協同組合,,その他の設立登記法人,三重県,多気郡大台町,栃原１５２９－１,,24,443,5192424,,,2025-10-07,清算の結了等,,,2022-02-14,1,,,,,アクロス,0
2403,8200001025877,登記記録の閉鎖等,0,2025-10-15,2025-10-03,株式会社飛騨工務店,00076744,株式会社,岐阜県,下呂市,萩原町羽根４０４番地,,21,220,5092506,,,2025-10-03,清算の結了等,,,2015-10-05,1,,,,,ヒダコウムテン,0
2404,8210002007709,登記記録の閉鎖等,0,2025-10-15,2025-10-10,有限会社エイエム,,有限会社,福井県,坂井市,丸岡町八ケ郷第２６号１４番地１,,18,210,9100224,,,2025-10-10,合併による解散等,4260001039677,令和７年１０月１日岡山県倉敷市児島下の町九丁目１２番コ２号株式会社ＳｏＢａＮｉホールディングス（4260001039677）に合併し解散,2015-10-05,1,,,,,エイエム,0
2407,8240001000587,登記記録の閉鎖等,0,2025-10-15,2025-10-07,株式会社天津石油店,,株式会社,広島県,広島市南区,荒神町５番１３号,,34,103,7320807,,,2025-10-07,清算の結了等,,,2015-10-05,1,,,,,アマツセキユテン,0
2409,8240002026094,登記記録の閉鎖等,0,2025-10-15,2025-10-08,有限会社平住宅,,有限会社,広島県,広島市西区,草津東１丁目３番１１号,,34,104,7330861,,,2025-10-08,清算の結了等,,,2015-10-05,1,,,,,ヒラジュウタク,0
2422,8300002006635,登記記録の閉鎖等,0,2025-10-15,2025-10-09,有限会社スミレ,,有限会社,佐賀県,武雄市,武雄町大字武雄４６０４番地３,,41,206,8430022,,,2025-10-09,清算の結了等,,,2015-10-05,1,,,,,スミレ,0
2427,8310001013978,登記記録の閉鎖等,0,2025-10-15,2025-10-09,株式会社タイセン地所,,株式会社,長崎県,佐世保市,白岳町４３４番地２アーベンハウスＡ２０３,,42,202,8571164,,,2025-10-09,清算の結了等,,,2015-12-18,1,,,,,タイセンチショ,0
2431,8330003008966,登記記録の閉鎖等,0,2025-10-15,2025-10-01,恭栄堂丸福合同会社,,合同会社,熊本県,玉名市,大倉１４０７－８,,43,206,8650023,,,2025-10-01,清算の結了等,,,2021-07-07,1,,,,,キョウエイドウマルフク,0
2433,8340001010865,登記記録の閉鎖等,0,2025-10-15,2025-10-02,せとうち緑地株式会社,,株式会社,鹿児島県,大島郡瀬戸内町,大字古仁屋字大湊６番地６,,46,525,8941503,,,2025-10-02,合併による解散等,7340002021763,令和７年１０月１日鹿児島県大島郡瀬戸内町大字古仁屋字大湊６番地６株式会社ニシナ電器（7340002021763）に合併し解散,2015-10-05,1,,,,,セトウチリョクチ,0
2453,8380002014795,登記記録の閉鎖等,0,2025-10-15,2025-09-30,有限会社菓子処とみづか,,有限会社,福島県,田村市,船引町今泉字田中８２番地,,07,211,9634311,,,2025-09-30,清算の結了等,,,2015-10-05,1,,,,,カシドコロトミヅカ,0
2457,8410001012623,登記記録の閉鎖等,0,2025-10-15,2025-10-10,みたね食糧株式会社,,株式会社,秋田県,山本郡三種町,鵜川字西本田２５２番地,,05,348,0182401,,,2025-10-10,清算の結了等,,,2020-09-15,1,,,,,ミタネショクリョウ,0
2458,8410002013323,登記記録の閉鎖等,0,2025-10-15,2025-10-10,武内興業有限会社,,有限会社,秋田県,横手市,平鹿町浅舞字五味川３４番地,,05,203,0130105,,,2025-10-10,清算の結了等,,,2015-10-05,1,,,,,タケウチコウギョウ,0
2468,8430002015672,登記記録の閉鎖等,0,2025-10-15,2025-10-01,有限会社長谷川タイル工業,,有限会社,北海道,札幌市西区,発寒十三条３丁目５番５号,,01,107,0630833,,,2025-10-01,清算の結了等,,,2015-10-05,1,,,,,ハセガワタイルコウギョウ,0
2476,8470002006387,登記記録の閉鎖等,0,2025-10-15,2025-10-07,松原商事有限会社,,有限会社,香川県,高松市,鶴市町５２８番地１２,,37,201,7618032,,,2025-10-07,清算の結了等,,,2015-10-05,1,,,,,マツバラショウジ,0
2480,8500001022497,登記記録の閉鎖等,0,2025-10-15,2025-10-09,株式会社千華,,株式会社,愛媛県,宇和島市,三間町北増穂６７２番地,,38,203,7981111,,,2025-10-09,清算の結了等,,,2020-01-29,1,,,,,センカ,0
2485,9010001048731,登記記録の閉鎖等,0,2025-10-15,2025-09-25,第一石油販売株式会社,,株式会社,東京都,中央区,日本橋蛎殻町１丁目１番９号,,13,102,1030014,,,2025-09-25,清算の結了等,,,2015-10-05,1,,,,,ダイイチセキユハンバイ,0
2504,9010403016906,登記記録の閉鎖等,0,2025-10-15,2025-09-30,株式会社Ｇｏｌｄ　Ｃａｔｓ,,株式会社,神奈川県,横浜市西区,みなとみらい４丁目４番２号横浜ブルーアベニュー１２Ｆ,,14,103,2200012,,,2025-09-30,清算の結了等,,,2017-07-25,1,,,,,ゴールドキャッツ,0
2518,9010802005501,登記記録の閉鎖等,0,2025-10-15,2025-10-06,有限会社コンノ電設,,有限会社,東京都,大田区,東雪谷２丁目１７番１４号,,13,111,1450065,,,2025-10-06,清算の結了等,,,2015-10-05,1,,,,,コンノデンセツ,0
2519,9010901011094,登記記録の閉鎖等,0,2025-10-15,2025-10-09,北都工業株式会社,,株式会社,東京都,世田谷区,世田谷２丁目２９番１号,,13,112,1540017,,,2025-10-09,清算の結了等,,,2015-10-05,1,,,,,ホクトコウギョウ,0
2538,9011103013400,登記記録の閉鎖等,0,2025-10-15,2025-09-08,合同会社ジュリエット音楽教室,,合同会社,東京都,新宿区,西新宿３丁目３番地１３号西新宿水間ビル２Ｆ,,13,104,1600023,,,2025-09-08,清算の結了等,,,2023-08-28,1,,,,,ジュリエットオンガクキョウシツ,0
2546,9011501032035,登記記録の閉鎖等,0,2025-10-15,2025-10-07,鏡水印佳株式会社,,株式会社,東京都,北区,浮間３丁目１番５５号３０３号室,,13,117,1150051,,,2025-10-07,清算の結了等,,,2025-05-12,1,,,,,キョウスイインカ,0
2548,9011602005955,登記記録の閉鎖等,0,2025-10-15,2025-10-01,有限会社大京ホーム,,有限会社,東京都,練馬区,旭町３丁目９番２２号,,13,120,1790071,,,2025-10-01,清算の結了等,,,2015-10-05,1,,,,,ダイキョウホーム,0
2549,9011602020475,登記記録の閉鎖等,0,2025-10-15,2025-10-06,有限会社ウィーズ,,有限会社,埼玉県,和光市,下新倉４丁目２４番１号津上ハイツ２０１,,11,229,3510111,,,2025-10-06,清算の結了等,,,2015-10-05,1,,,,,ウィーズ,0
2566,9020001061997,登記記録の閉鎖等,0,2025-10-15,2025-10-07,株式会社フリーオーシャン,,株式会社,東京都,大田区,上池台５丁目２９番４号,,13,111,1450064,,,2025-10-07,清算の結了等,,,2015-10-05,1,,,,,フリーオーシャン,0
2570,9020001092076,登記記録の閉鎖等,0,2025-10-15,2025-09-30,株式会社Ｅｎｇｉｎｉｕｓ　ＴＫ,,株式会社,神奈川県,横浜市青葉区,鴨志田町５３３番地グリーンヒル鴨志田東団地７棟１０６号,,14,117,2270033,,,2025-09-30,清算の結了等,,,2015-10-05,1,,,,,エンジニアスティーケー,0
2571,9020001106455,登記記録の閉鎖等,0,2025-10-15,2025-10-01,株式会社フジレイ,,株式会社,神奈川県,川崎市高津区,子母口８００番地１カーサ８００－１０３,,14,134,2130023,,,2025-10-01,清算の結了等,,,2015-10-05,1,,,,,フジレイ,0
2573,9020001144199,登記記録の閉鎖等,0,2025-10-15,2025-09-22,株式会社クリエイティブシティ,,株式会社,神奈川県,横浜市神奈川区,鶴屋町３丁目３３番地の８アーバンセンター横浜ウエスト３Ｆ,,14,102,2210835,,,2025-09-22,合併による解散等,8020001146691,令和７年９月２１日横浜市神奈川区鶴屋町三丁目３３番地の８アーバンセンター横浜ウエスト３Ｆ株式会社プリフロップ（8020001146691）に合併し解散,2021-12-03,1,,,,,クリエイティブシティ,0
2589,9020003026346,登記記録の閉鎖等,0,2025-10-15,2025-09-29,合同会社アライエンド,,合同会社,神奈川県,横浜市旭区,中白根２丁目９番２２号,,14,112,2410004,,,2025-09-29,清算の結了等,,,2024-06-19,1,,,,,アライエンド,0
2596,9021002062431,登記記録の閉鎖等,0,2025-10-15,2025-09-25,有限会社相原トレード,,有限会社,神奈川県,横須賀市,上町１丁目８１番地,,14,201,2380017,,,2025-09-25,清算の結了等,,,2015-10-05,1,,,,,アイハラトレード,0
2597,9021002066473,登記記録の閉鎖等,0,2025-10-15,2025-09-29,有限会社富貴園,,有限会社,神奈川県,横須賀市,林２丁目１番３号,,14,201,2380315,,,2025-09-29,清算の結了等,,,2015-10-05,1,,,,,,0
2598,9030001002884,登記記録の閉鎖等,0,2025-10-15,2025-10-06,株式会社梢,00014427,株式会社,埼玉県,さいたま市大宮区,浅間町１丁目２９番地,,11,103,3300842,,,2025-10-06,清算の結了等,,,2015-10-05,1,,,,,コズエ,0
2601,9030001095813,登記記録の閉鎖等,0,2025-10-15,2025-10-09,株式会社エコライティング・ジャパン,,株式会社,埼玉県,川越市,大字鹿飼８５１番地２,,11,201,3500834,,,2025-10-09,合併による解散等,5240001046055,令和７年１０月１日広島県福山市蔵王町１６２番地１株式会社ケンセイサービス（5240001046055）に合併し解散,2015-10-05,1,,,,,エコライティングジャパン,0
2602,9030001110951,登記記録の閉鎖等,0,2025-10-15,2025-10-07,株式会社宮原商店,,株式会社,埼玉県,川越市,大字藤間１１３３番地４７,,11,201,3501142,,,2025-10-07,清算の結了等,,,2015-10-21,1,,,,,ミヤハラショウテン,0
2606,9030002041923,登記記録の閉鎖等,0,2025-10-15,2025-10-06,有限会社長谷川運送,,有限会社,埼玉県,羽生市,東７丁目１４番地６,,11,216,3480052,,,2025-10-06,清算の結了等,,,2015-10-05,1,,,,,ハセガワウンソウ,0
2607,9030002048571,登記記録の閉鎖等,0,2025-10-15,2025-10-06,有限会社片原建築,,有限会社,埼玉県,三郷市,早稲田１丁目１４番地１５,,11,237,3410018,,,2025-10-06,清算の結了等,,,2015-10-05,1,,,,,カタハラケンチク,0
2609,9030002059775,登記記録の閉鎖等,0,2025-10-15,2025-10-06,有限会社小林硝子工業所,,有限会社,埼玉県,志木市,中宗岡１丁目１５番２１号,,11,228,3530002,,,2025-10-06,清算の結了等,,,2015-10-05,1,,,,,コバヤシガラスコウギョウショ,0
2640,9080402013501,登記記録の閉鎖等,0,2025-10-15,2025-10-14,有限会社ＡＢｅｃｏ,,有限会社,静岡県,浜松市中央区,雄踏町山崎３６９１番地の１,,22,138,4310101,,,2025-10-14,清算の結了等,,,2015-10-05,1,,,,,,0
2653,9120001132771,登記記録の閉鎖等,0,2025-10-15,2025-10-02,株式会社上辻,00029141,株式会社,大阪府,大阪市平野区,長吉六反４丁目２番５７号,,27,126,5470012,,,2025-10-02,清算の結了等,,,2015-10-05,1,,,,,カミツジ,0
2670,9120101031477,登記記録の閉鎖等,0,2025-10-15,2025-10-02,株式会社坂田,,株式会社,大阪府,南河内郡太子町,大字葉室１３５７番地の３,,27,381,5830994,,,2025-10-02,清算の結了等,,,2015-10-05,1,,,,,サカタ,0
2701,9140005019047,登記記録の閉鎖等,0,2025-10-15,2025-10-02,公益財団法人プラザ・コム,,その他の設立登記法人,兵庫県,宝塚市,売布東の町１２番７号,,28,214,6650867,,,2025-10-02,清算の結了等,,,2015-10-05,1,,,,,プラザコム,0
2728,9180005015950,登記記録の閉鎖等,0,2025-10-15,2025-10-10,一般社団法人インフラ管理支援研究所,,その他の設立登記法人,愛知県,名古屋市中村区,名駅５丁目４番１４号,,23,105,4500002,,,2025-10-10,清算の結了等,,,2015-10-05,1,,,,,インフラカンリシエンケンキュウショ,0
2734,9180303004317,登記記録の閉鎖等,0,2025-10-15,2025-10-01,合同会社ブラインドトラスト,,合同会社,愛知県,岡崎市,羽根町字貴登野４１番地８,,23,202,4440813,,,2025-10-01,清算の結了等,,,2019-05-21,1,,,,,ブラインドトラスト,0
2737,9210001012238,登記記録の閉鎖等,0,2025-10-15,2025-10-08,山丸製紙株式会社,,株式会社,福井県,越前市,新在家町第１２号８番地,,18,209,9150232,,,2025-10-08,清算の結了等,,,2015-10-05,1,,,,,ヤママルセイシ,0
2739,9210005007259,登記記録の閉鎖等,0,2025-10-15,2025-10-08,上宮寺,,その他の設立登記法人,福井県,越前市,瓜生町３３字上岸ノ上２６－２,,18,209,9150096,,,2025-10-08,清算の結了等,,,2015-10-05,1,,,,,ジョウグウジ,0
2744,9230002008456,登記記録の閉鎖等,0,2025-10-15,2025-10-07,有限会社大倉工業,,有限会社,富山県,下新川郡朝日町,細野５５１番地,,16,343,9380166,,,2025-10-07,清算の結了等,,,2015-10-05,1,,,,,オオクラコウギョウ,0
2746,9240001025063,登記記録の閉鎖等,0,2025-10-15,2025-10-07,帝釈峡タクシー株式会社,,株式会社,広島県,庄原市,東城町川西４７１番地６,,34,210,7295125,,,2025-10-07,清算の結了等,,,2015-10-05,1,,,,,タイシャクキョウタクシー,0
2753,9260001034186,登記記録の閉鎖等,0,2025-10-15,2025-10-01,福助マリン玉野株式会社,,株式会社,兵庫県,相生市,那波野７７６番地の１,,28,208,6780011,,,2025-10-01,合併による解散等,9140001039932,令和７年１０月１日兵庫県相生市那波野７７６番地の１福助機工株式会社（9140001039932）に合併し解散,2020-04-13,1,,,,,フクスケマリンタマノ,0
2756,9260002021992,登記記録の閉鎖等,0,2025-10-15,2025-10-02,株式会社吉川化学工業所,,株式会社,大阪府,大阪市中央区,北久宝寺町２丁目１番７号本町和光ビル内,,27,128,5410057,,,2025-10-02,清算の結了等,,,2015-10-05,1,,,,,ヨシカワカガクコウギョウショ,0
2757,9260002023568,登記記録の閉鎖等,0,2025-10-15,2025-10-02,有限会社佳秀,,有限会社,岡山県,総社市,泉４番地の１７,,33,208,7191106,,,2025-10-02,清算の結了等,,,2015-10-05,1,,,,,カシュウ,0
2765,9300003000792,登記記録の閉鎖等,0,2025-10-15,2025-10-10,合同会社Ｄｒｅａｍ,,合同会社,佐賀県,佐賀市,巨勢町大字牛島４２３番地１１サンパーク巨勢町２０６号,,41,201,8400008,,,2025-10-10,清算の結了等,,,2015-10-05,1,,,,,ドリーム,0
2767,9310005002860,登記記録の閉鎖等,0,2025-10-15,2025-10-08,一般社団法人佐世保釜墓地戦歿者護持会,,その他の設立登記法人,長崎県,佐世保市,針尾西町２６７番地,,42,202,8593453,,,2025-10-08,清算の結了等,,,2015-10-05,1,,,,,サセボガマボチセンボツシャゴジカイ,0
2779,9370001018418,登記記録の閉鎖等,0,2025-10-15,2025-10-01,株式会社ユニコン,,株式会社,宮城県,黒川郡大衡村,大衡字平林２０番地１９,,04,424,9813602,,,2025-10-01,清算の結了等,,,2015-10-05,1,,,,,ユニコン,0
2793,9410001003282,登記記録の閉鎖等,0,2025-10-15,2025-10-01,株式会社ＵＭＮファーマ,,株式会社,秋田県,秋田市,御所野湯本４丁目２番３号,,05,201,0101415,,,2025-10-01,清算の結了等,,,2015-10-05,1,,,,,ユーエムエヌファーマ,0
2802,9430002015853,登記記録の閉鎖等,0,2025-10-15,2025-10-01,有限会社バックアップ　,,有限会社,北海道,札幌市西区,福井３丁目３番１７号,,01,107,0630012,,,2025-10-01,清算の結了等,,,2015-10-05,1,,,,,バックアップ,0
2803,9430002045801,登記記録の閉鎖等,0,2025-10-15,2025-09-30,有限会社ダスキン江別,,有限会社,北海道,江別市,野幌住吉町３番地２,,01,217,0690816,,,2025-09-30,清算の結了等,,,2015-10-05,1,,,,,ダスキンエベツ,0
2811,9480002009446,登記記録の閉鎖等,0,2025-10-15,2025-10-10,有限会社望月鉄工所,,有限会社,徳島県,吉野川市,川島町三ツ島字森２７７番地,,36,205,7793307,,,2025-10-10,清算の結了等,,,2015-10-05,1,,,,,モチヅキテッコウショ,0
