sequenceNumber,corporateNumber,process,correct,updateDate,changeDate,name,nameImageId,kind,prefectureName,cityName,streetNumber,addressImageId,prefectureCode,cityCode,postCode,addressOutside,addressOutsideImageId,closeDate,closeCause,successorCorporateNumber,changeCause,assignmentDate,latest,enName,enPrefectureName,enCityName,enAddressOutside,furigana,hihyoji
8,1010001238711,新規,0,2023-09-22,2023-09-22,株式会社Ｂｌｕｅ　Ｃｏｎｔｒａｉｌ,,株式会社,東京都,千代田区,九段南４丁目８番８－３０３号,,13,101,1020074,,,,,,,2023-09-22,1,,,,,ブルーコントレイル,0
9,1010003041725,新規,0,2023-09-22,2023-09-22,合同会社ＨＯＮＯＲ　ＷＡＹ,,合同会社,東京都,中央区,日本橋箱崎町１７番８号,,13,102,1030015,,,,,,,2023-09-22,1,,,,,オナーウェイ,0
17,1010401177113,新規,0,2023-09-22,2023-09-22,パリシャンビューテ株式会社,,株式会社,東京都,港区,東麻布２丁目８番１１－３０５号,,13,103,1060044,,,,,,,2023-09-22,1,,,,,パリシャンビューテ,0
18,1010401177261,新規,0,2023-09-22,2023-09-22,ＳＨＡＫＥ　Ｅｎｔｅｒｔａｉｎｍｅｎｔ株式会社,,株式会社,東京都,港区,六本木７丁目１５番７号,,13,103,1060032,,,,,,,2023-09-22,1,,,,,シークエンターテインメント,0
19,1010401177311,新規,0,2023-09-22,2023-09-22,株式会社Ｇｒｏｗｔｈ　Ｐａｓｓｉｏｎ　Ｐｌａｎｎｉｎｇ,,株式会社,東京都,港区,赤坂３丁目９番４号赤坂扇やビル８Ａ,,13,103,1070052,,,,,,,2023-09-22,1,,,,,グロースパッションプランニング,0
25,1010601063823,新規,0,2023-09-22,2023-09-22,株式会社ＭＹウェルネス,,株式会社,東京都,江東区,白河３丁目３番７号,,13,108,1350021,,,,,,,2023-09-22,1,,,,,エムワイウェルネス,0
26,1010603010369,新規,0,2023-09-22,2023-09-22,合同会社サクセス,,合同会社,東京都,墨田区,立花４丁目３５－３,,13,107,1310043,,,,,,,2023-09-22,1,,,,,サクセス,0
30,1010903008468,新規,0,2023-09-22,2023-09-22,合同会社Ｍｉｓｈｕｋｕ　Ｉｎｔｅｒｎａｔｉｏｎａｌ,,合同会社,東京都,世田谷区,池尻２丁目３番地１３番２１１号室,,13,112,1540001,,,,,,,2023-09-22,1,,,,,ミシュクインターナショナル,0
37,1011003017541,新規,0,2023-09-22,2023-09-22,合同会社ＧＯＡＴ,,合同会社,東京都,渋谷区,猿楽町９番８号ＵＲＢＡＮＰＡＲＫ代官山ＩＩ４０９,00131994,13,113,1500033,,,,,,,2023-09-22,1,,,,,ゴート,0
40,1011301029032,新規,0,2023-09-22,2023-09-22,株式会社ＭＯＴＨＥＲ,,株式会社,東京都,杉並区,桃井２丁目８－２１,,13,115,1670034,,,,,,,2023-09-22,1,,,,,マザー,0
41,1011501029807,新規,0,2023-09-22,2023-09-22,株式会社ＤＤ　Ａｓｉａ,,株式会社,東京都,荒川区,西日暮里５丁目３３番２号,,13,118,1160013,,,,,,,2023-09-22,1,,,,,ディーディーアジア,0
43,1011601027132,新規,0,2023-09-22,2023-09-22,株式会社さいとうコンシェルジュ,,株式会社,東京都,練馬区,桜台５丁目４４番１８号,,13,120,1760002,,,,,,,2023-09-22,1,,,,,サイトウコンシェルジュ,0
45,1011803005844,新規,0,2023-09-22,2023-09-22,合同会社ＴＲＩＵＭＰＨ　ＹＯＳＨＩ,,合同会社,東京都,足立区,梅田３丁目２９－１,,13,121,1230851,,,,,,,2023-09-22,1,,,,,トライアンフヨシ,0
48,1012701017849,新規,0,2023-09-22,2023-09-22,株式会社プランニングサポート,,株式会社,東京都,東村山市,廻田町３丁目６番地５３,,13,213,1890025,,,,,,,2023-09-22,1,,,,,プランニングサポート,0
49,1012801022641,新規,0,2023-09-22,2023-09-22,株式会社遠藤屋,,株式会社,東京都,武蔵村山市,大南２丁目４番地の２光栄マンション１Ｆ,,13,223,2080013,,,,,,,2023-09-22,1,,,,,エンドウヤ,0
60,1021001080243,新規,0,2023-09-22,2023-09-22,株式会社オケアノース,,株式会社,神奈川県,藤沢市,鵠沼海岸６丁目１７番１７号,00132001,14,205,2510037,,,,,,,2023-09-22,1,,,,,オケアノース,0
63,1021003013597,新規,0,2023-09-22,2023-09-22,合同会社そらのまちづくり協議会,,合同会社,神奈川県,厚木市,毛利台２丁目２４番２号,,14,212,2430037,,,,,,,2023-09-22,1,,,,,ソラノマチヅクリキョウギカイ,0
71,1030001156060,新規,0,2023-09-22,2023-09-22,株式会社ＴＲＹ,,株式会社,埼玉県,八潮市,八潮４丁目２１番地３,,11,234,3400815,,,,,,,2023-09-22,1,,,,,トライ,0
72,1030001156250,新規,0,2023-09-22,2023-09-22,株式会社アライ,,株式会社,埼玉県,さいたま市北区,日進町２丁目１６９５番地７,,11,102,3310823,,,,,,,2023-09-22,1,,,,,アライ,0
78,1040001130155,新規,0,2023-09-22,2023-09-22,株式会社ＴＥＮＧＯ,,株式会社,千葉県,千葉市花見川区,こてはし台４丁目１０番２３号,,12,102,2620005,,,,,,,2023-09-22,1,,,,,テンゴ,0
82,1040003023373,新規,0,2023-09-22,2023-09-22,合同会社くまたび,,合同会社,千葉県,君津市,山滝野７０９番地,,12,225,2920501,,,,,,,2023-09-22,1,,,,,クマタビ,0
85,1040005022126,新規,0,2023-09-22,2023-09-22,集荷連携事業協同組合,,その他の設立登記法人,千葉県,香取市,佐原ロ２１１６番地,,12,236,2870001,,,,,,,2023-09-22,1,,,,,シュウカレンケイ,0
90,1070001040896,新規,0,2023-09-22,2023-09-22,株式会社富士リサイクル,,株式会社,群馬県,伊勢崎市,間野谷町９０番地１,,10,204,3792201,,,,,,,2023-09-22,1,,,,,フジリサイクル,0
94,1100001036800,新規,0,2023-09-22,2023-09-22,株式会社Ｎ２　ｃｏｎｎｅｃｔ,,株式会社,長野県,長野市,大字鶴賀上千歳町１１３７－２３長野１１３７ビル２階ＢＰＮ,,20,201,3800821,,,,,,,2023-09-22,1,,,,,エヌツーコネクト,0
116,1120001258145,新規,0,2023-09-22,2023-09-22,株式会社リベレーション,,株式会社,大阪府,大阪市阿倍野区,阪南町５丁目２１番２５号,,27,119,5450021,,,,,,,2023-09-22,1,,,,,リベレーション,0
117,1120001258211,新規,0,2023-09-22,2023-09-22,株式会社ヤマダグリーン,,株式会社,大阪府,大阪市生野区,巽西３丁目６番１８号,00132006,27,116,5440012,,,,,,,2023-09-22,1,,,,,ヤマダグリーン,0
118,1120003024900,新規,0,2023-09-22,2023-09-22,Ｈ＆Ｊ　Ｃｏｍｐａｎｙ合同会社,,合同会社,大阪府,大阪市生野区,桃谷４丁目７番２２号,,27,116,5440034,,,,,,,2023-09-22,1,,,,,エイチアンドジェイカンパニー,0
122,1120101068246,新規,0,2023-09-22,2023-09-22,株式会社三栄ルーフ,,株式会社,大阪府,堺市中区,大野芝町３０７番地２,,27,142,5998233,,,,,,,2023-09-22,1,,,,,サンエイルーフ,0
123,1120903004836,新規,0,2023-09-22,2023-09-22,合同会社グッドライフ,,合同会社,大阪府,豊中市,北桜塚３丁目８番２６－１０２号,,27,203,5600022,,,,,,,2023-09-22,1,,,,,グッドライフ,0
125,1130001075226,新規,0,2023-09-22,2023-09-22,株式会社親和イノウエ工務,,株式会社,京都府,京都市西京区,川島玉頭町４番地,,26,111,6158193,,,,,,,2023-09-22,1,,,,,シンワイノウエコウム,0
131,1140001131705,新規,0,2023-09-22,2023-09-22,株式会社Ｎ‐Ｔｗｏ,,株式会社,兵庫県,高砂市,中島１丁目２番１２号,,28,216,6760001,,,,,,,2023-09-22,1,,,,,エヌトゥー,0
132,1140001131713,新規,0,2023-09-22,2023-09-22,きら香ぶどう酒醸造株式会社,,株式会社,兵庫県,神戸市中央区,神若通１丁目４番１８－１号,,28,110,6510067,,,,,,,2023-09-22,1,,,,,キラカブドウシュジョウゾウ,0
134,1140003019584,新規,0,2023-09-22,2023-09-22,合同会社ライフテック,,合同会社,兵庫県,宝塚市,逆瀬台１丁目１１番５－７０７号,,28,214,6650024,,,,,,,2023-09-22,1,,,,,ライフテック,0
136,1150001026730,新規,0,2023-09-22,2023-09-22,株式会社ＮＫ建設工房,,株式会社,奈良県,天理市,西長柄町５３３番地,,29,204,6320063,,,,,,,2023-09-22,1,,,,,エヌケーケンセツコウボウ,0
147,1180001158100,新規,0,2023-09-22,2023-09-22,株式会社スタークラフト,,株式会社,愛知県,名古屋市中区,錦３丁目１４番３１号タチバナビルＢ１,,23,106,4600003,,,,,,,2023-09-22,1,,,,,スタークラフト,0
148,1180001158109,新規,0,2023-09-22,2023-09-22,株式会社ベースツーワン,,株式会社,愛知県,名古屋市千種区,内山１丁目６番１号（ロイヤルアーク千種内山公園１３０２号）,,23,101,4640075,,,,,,,2023-09-22,1,,,,,ベースツーワン,0
149,1180001158133,新規,0,2023-09-22,2023-09-22,株式会社ＢＬＵＥ　ＢＥＡＲ,,株式会社,愛知県,名古屋市西区,城西３丁目２０番８号,,23,104,4510031,,,,,,,2023-09-22,1,,,,,ブルーベア,0
156,1180003025752,新規,0,2023-09-22,2023-09-22,オープンイノベーターズ合同会社,,合同会社,愛知県,名古屋市中区,栄５丁目２６番３９号ＧＳ栄ビル３Ｆ,,23,106,4600008,,,,,,,2023-09-22,1,,,,,オープンイノベーターズ,0
161,1210003001700,新規,0,2023-09-22,2023-09-22,合同会社甚右エ門,,合同会社,福井県,小浜市,加茂第７９号１８番地,,18,204,9170223,,,,,,,2023-09-22,1,,,,,ジンウエモン,0
162,1220003003588,新規,0,2023-09-22,2023-09-22,ＳＫＩＰ合同会社,,合同会社,石川県,白山市,千代野南２丁目３番地７,,17,210,9240074,,,,,,,2023-09-22,1,,,,,スキップ,0
164,1230005009335,新規,0,2023-09-22,2023-09-22,一般社団法人富山県若者生きづらさ寄りそいネットワーク協議会,,その他の設立登記法人,富山県,富山市,西公文名町９番９,,16,201,9398003,,,,,,,2023-09-22,1,,,,,ワカモノイキヅラサヨリソイネットワークキョウギカイ,0
166,1240001062163,新規,0,2023-09-22,2023-09-22,株式会社結び,,株式会社,広島県,広島市中区,大手町５丁目３番１２号,,34,101,7300051,,,,,,,2023-09-22,1,,,,,ムスビ,0
176,1290001103111,新規,0,2023-09-22,2023-09-22,株式会社ＯＮＣＥ,,株式会社,福岡県,福岡市西区,富士見１丁目１９番地,,40,135,8190387,,,,,,,2023-09-22,1,,,,,ワンス,0
179,1290005019155,新規,0,2023-09-22,2023-09-22,行政書士法人Ｌｕｘｅｎｔ,,その他の設立登記法人,福岡県,福岡市博多区,祇園町６番２６号,,40,132,8120038,,,,,,,2023-09-22,1,,,,,ラクセント,0
189,1350001018575,新規,0,2023-09-22,2023-09-22,株式会社ＥＲＡ,,株式会社,宮崎県,宮崎市,吾妻町１５１番地８,,45,201,8800864,,,,,,,2023-09-22,1,,,,,エラ,0
193,1370001050444,新規,0,2023-09-22,2023-09-22,株式会社リードリーフ,,株式会社,宮城県,仙台市宮城野区,岩切字洞ノ口９６番地,,04,102,9830821,,,,,,,2023-09-22,1,,,,,リードリーフ,0
205,1440001009326,新規,0,2023-09-22,2023-09-22,株式会社ＲＯＹＡＬＤＥＳＩＧＮ,,株式会社,北海道,函館市,鍛治２丁目１５番２０号,,01,202,0410852,,,,,,,2023-09-22,1,,,,,ロイヤルデザイン,0
210,1480001012219,新規,0,2023-09-22,2023-09-22,株式会社ＲＥＶＩＡ,,株式会社,徳島県,徳島市,秋田町１丁目１０番地アトラスＩＩ４Ｆ,00131993,36,201,7700934,,,,,,,2023-09-22,1,,,,,レヴィア,0
215,1700150120575,新規,0,2023-09-22,2023-09-22,Ｃｏｒｅ　Ｖｉｓｉｏｎ　Ｉｎｖｅｓｔｍｅｎｔ　Ｌｉｍｉｔｅｄ,,外国会社等,,,,,,,,ＯＭＣ　ｃｈａｍｂｅｒｓ，Ｗｉｃｋｈａｍｓ　Ｃａｙ１，ＲｏａｄＴｏｗｎ，Ｔｏｒｔｏｌａ，Ｂｒｉｔｉｓｈ　Ｖｉｒｇｉｎ　Ｉｓｌａｎｄｓ,,,,,,2023-09-22,1,,,,,コアビジヨンインベストメントリミテツド,0
216,1700150120617,新規,0,2023-09-22,2023-09-22,Ｙｉｎｇ　Ｊｉａｎ　Ｅｎｔｅｒｐｒｉｓｅ　Ｃｏ．，Ｌｔｄ．,,外国会社等,,,,,,,,３Ｆ　Ｎｏ．１１　Ｌａｎｅ８５　Ｇｏｎｇｓｈａｎｇ　Ｒｄ　Ｗｕｇｕ　Ｄｉｓｔ　Ｎｅｗ　Ｔａｉｐｅｉ　Ｃｉｔｙ　Ｔａｉｗａｎ,,,,,,2023-09-22,1,,,,,インジェンエンタプライズカンパニーリミテッド,0
229,2010001238594,新規,0,2023-09-22,2023-09-22,株式会社メディトワ,,株式会社,東京都,千代田区,神田錦町３丁目２２－８小笠原ビル３Ｆ,,13,101,1010054,,,,,,,2023-09-22,1,,,,,メディトワ,0
230,2010001238628,新規,0,2023-09-22,2023-09-22,金田商事株式会社,,株式会社,東京都,中央区,日本橋人形町２丁目９－４,,13,102,1030013,,,,,,,2023-09-22,1,,,,,キンダショウジ,0
231,2010001238636,新規,0,2023-09-22,2023-09-22,株式会社Ａｋａｔｓｕｋｉ,,株式会社,東京都,中央区,築地２丁目６番８号,,13,102,1040045,,,,,,,2023-09-22,1,,,,,アカツキ,0
232,2010001238669,新規,0,2023-09-22,2023-09-22,株式会社ｌａ　ｍｅｒ,,株式会社,東京都,中央区,八重洲２丁目１番１号１２階,,13,102,1040028,,,,,,,2023-09-22,1,,,,,ラメール,0
233,2010001238677,新規,0,2023-09-22,2023-09-22,株式会社Ｓｕｐｅｒｂ,,株式会社,東京都,千代田区,内幸町１丁目１番１号帝国ホテルタワー,,13,101,1000011,,,,,,,2023-09-22,1,,,,,スパーブ,0
235,2010003041724,新規,0,2023-09-22,2023-09-22,サステナブルローンファンド１９号合同会社,,合同会社,東京都,中央区,八丁堀４丁目２番１０号ＡＯＪ税理士法人内,,13,102,1040032,,,,,,,2023-09-22,1,,,,,サステナブルローンファンドジュウキュウゴウ,0
249,2010501051084,新規,0,2023-09-22,2023-09-22,株式会社Ｐｒｏｇｒｅｓｓ,,株式会社,東京都,台東区,東上野３丁目１５番１３号スエヒロビル４階,,13,106,1100015,,,,,,,2023-09-22,1,,,,,プログレス,0
250,2010501051092,新規,0,2023-09-22,2023-09-22,尚通環宇株式会社,,株式会社,東京都,台東区,松が谷４丁目２７番１８号Ｃ室,,13,106,1110036,,,,,,,2023-09-22,1,,,,,ショウツウカンウ,0
256,2010601063822,新規,0,2023-09-22,2023-09-22,株式会社メディセック,,株式会社,東京都,江東区,永代２丁目３１番１３号,,13,108,1350034,,,,,,,2023-09-22,1,,,,,メディセック,0
257,2010601063830,新規,0,2023-09-22,2023-09-22,Ｎｅｔｌｙ株式会社,,株式会社,東京都,江東区,東砂４丁目５番２号－１Ｆ,,13,108,1360074,,,,,,,2023-09-22,1,,,,,ネットリー,0
261,2010603010368,新規,0,2023-09-22,2023-09-22,ロメオブルワリー合同会社,,合同会社,東京都,墨田区,押上２丁目１２番３号,,13,107,1310045,,,,,,,2023-09-22,1,,,,,ロメオブルワリー,0
262,2010703006877,新規,0,2023-09-22,2023-09-22,芳蓮堂合同会社,,合同会社,東京都,品川区,南品川５丁目２番３号,,13,109,1400004,,,,,,,2023-09-22,1,,,,,ホウレンドウ,0
264,2010801034359,新規,0,2023-09-22,2023-09-22,株式会社ＭＩＰ,,株式会社,東京都,大田区,東馬込２丁目３番６－２０３号クレストコート馬込,,13,111,1430022,,,,,,,2023-09-22,1,,,,,ミップ,0
270,2011003017598,新規,0,2023-09-22,2023-09-22,合同会社Ｓｔｒｉｄｅ,,合同会社,東京都,渋谷区,神宮前６丁目２３番４号桑野ビル２階,,13,113,1500001,,,,,,,2023-09-22,1,,,,,ストライド,0
276,2011103013497,新規,0,2023-09-22,2023-09-22,合同会社Ｗｉｎｓ,,合同会社,東京都,新宿区,西新宿３丁目５番１２－３１０号,,13,104,1600023,,,,,,,2023-09-22,1,,,,,ウィンズ,0
277,2011201024933,新規,0,2023-09-22,2023-09-22,株式会社ａｉｒ,,株式会社,東京都,中野区,上高田５丁目３７番１号リビラガーデン１０２,,13,114,1640002,,,,,,,2023-09-22,1,,,,,エアー,0
278,2011403004122,新規,0,2023-09-22,2023-09-22,合同会社ＹＭＤ,,合同会社,東京都,板橋区,三園１丁目２０番１７号,,13,119,1750091,,,,,,,2023-09-22,1,,,,,ワイエムディー,0
279,2011601027123,新規,0,2023-09-22,2023-09-22,株式会社ひなたＳｕｐｐｏｒｔ　ｓｔｕｄｉｏ,,株式会社,東京都,練馬区,中村北２丁目１８－６Ｎｏｒｄｍａｇｎｏｌｉａ０１０１,,13,120,1760023,,,,,,,2023-09-22,1,,,,,ヒナタサポートスタジオ,0
280,2011603004062,新規,0,2023-09-22,2023-09-22,合同会社ミライ,,合同会社,東京都,練馬区,北町２丁目２５番１４－２０５号,,13,120,1790081,,,,,,,2023-09-22,1,,,,,ミライ,0
287,2012801022640,新規,0,2023-09-22,2023-09-22,株式会社高水商事,,株式会社,東京都,国分寺市,高木町１丁目２６番地１１,,13,214,1850036,,,,,,,2023-09-22,1,,,,,タカミズショウジ,0
289,2013101009254,新規,0,2023-09-22,2023-09-22,株式会社ライジングアイディ,,株式会社,東京都,青梅市,河辺町３丁目１０８９－８アークブリス１０２,,13,205,1980036,,,,,,,2023-09-22,1,,,,,ライジングアイディ,0
293,2013301051378,新規,0,2023-09-22,2023-09-22,株式会社キーストーン,,株式会社,東京都,豊島区,巣鴨３丁目２９番８号,,13,116,1700002,,,,,,,2023-09-22,1,,,,,キーストーン,0
304,2020001153594,新規,0,2023-09-22,2023-09-22,株式会社ソーシエホールディングス,,株式会社,神奈川県,横浜市神奈川区,栄町５番地１横浜クリエーションスクエア１４階,,14,102,2210052,,,,,,,2023-09-22,1,,,,,ソーシエホールディングス,0
310,2021001080226,新規,0,2023-09-22,2023-09-22,株式会社エクスポット,,株式会社,神奈川県,相模原市中央区,千代田３丁目３番１７号,,14,152,2520237,,,,,,,2023-09-22,1,,,,,エクスポット,0
311,2021001080234,新規,0,2023-09-22,2023-09-22,株式会社Ｐ＆Ｗ,,株式会社,神奈川県,茅ヶ崎市,代官町５－１メゾンドピアＩＩ１０１,00131998,14,207,2530015,,,,,,,2023-09-22,1,,,,,ピーアンドダブル,0
312,2021001080242,新規,0,2023-09-22,2023-09-22,株式会社あすなろ訪問介護,,株式会社,神奈川県,横須賀市,鶴が丘２丁目９番１号,,14,201,2380056,,,,,,,2023-09-22,1,,,,,アスナロホウモンカイゴ,0
313,2021001080250,新規,0,2023-09-22,2023-09-22,株式会社Ｃ‐Ｊｏｉｎｔ,,株式会社,神奈川県,相模原市中央区,淵野辺３丁目４番１号クリオ淵野辺六番館１２０８号室,,14,152,2520206,,,,,,,2023-09-22,1,,,,,シージョイント,0
317,2021003013596,新規,0,2023-09-22,2023-09-22,合同会社ＯＮＥ　ＬＩＮＫ,,合同会社,神奈川県,相模原市緑区,上九沢１７１９番地６メゾンベール５番館２０２,,14,151,2520136,,,,,,,2023-09-22,1,,,,,ワンリンク,0
321,2030001156101,新規,0,2023-09-22,2023-09-22,株式会社Ｓａｕｎａ綱,,株式会社,埼玉県,草加市,手代１丁目３番５号アップルハイツＩＩ‐２０１号,00131995,11,221,3400021,,,,,,,2023-09-22,1,,,,,サウナツナ,0
324,2030003022549,新規,0,2023-09-22,2023-09-22,合同会社Ｒ＆Ｒ,,合同会社,埼玉県,さいたま市南区,大字太田窪２６０８番地２４,,11,108,3360015,,,,,,,2023-09-22,1,,,,,アールアンドアール,0
326,2040001130105,新規,0,2023-09-22,2023-09-22,株式会社ＡＩＲＩＳＵ,,株式会社,千葉県,船橋市,三山２丁目２０番２１号,,12,204,2740072,,,,,,,2023-09-22,1,,,,,アイリス,0
327,2040001130170,新規,0,2023-09-22,2023-09-22,株式会社Ｍ’ｚ　Ｌｉｎｋ,,株式会社,千葉県,鎌ケ谷市,新鎌ケ谷３丁目３番３７－３０５号,,12,224,2730107,,,,,,,2023-09-22,1,,,,,エムズリンク,0
328,2040003023372,新規,0,2023-09-22,2023-09-22,合同会社ＵＴＡ,,合同会社,千葉県,市川市,新井１丁目４番７号,,12,203,2720144,,,,,,,2023-09-22,1,,,,,ユーティーエー,0
332,2050001053511,新規,0,2023-09-22,2023-09-22,株式会社愛丸,,株式会社,茨城県,古河市,高野１１９０,,08,204,3060214,,,,,,,2023-09-22,1,,,,,アイマル,0
334,2050003007804,新規,0,2023-09-22,2023-09-22,チー合同会社,,合同会社,茨城県,かすみがうら市,坂１８８６－１,,08,230,3000214,,,,,,,2023-09-22,1,,,,,チー,0
339,2080001025870,新規,0,2023-09-22,2023-09-22,株式会社ｓｅｅｄ,,株式会社,静岡県,静岡市清水区,宮加三７４０番地の４セジュールオリエ３１１,,22,103,4240911,,,,,,,2023-09-22,1,,,,,シード,0
346,2100001036782,新規,0,2023-09-22,2023-09-22,長野テクトロングループ株式会社,,株式会社,長野県,長野市,篠ノ井塩崎２３０４番地１,,20,201,3888014,,,,,,,2023-09-22,1,,,,,ナガノテクトロングループ,0
368,2120001258037,新規,0,2023-09-22,2023-09-22,鯤鵬株式会社,,株式会社,大阪府,大阪市住吉区,長居東４丁目１５－２１－４０３,,27,120,5580004,,,,,,,2023-09-22,1,,,,,コンホウ,0
369,2120001258152,新規,0,2023-09-22,2023-09-22,株式会社ＢＡＫＵ,,株式会社,大阪府,守口市,西郷通３丁目１３番５号,,27,209,5700034,,,,,,,2023-09-22,1,,,,,バク,0
370,2120001258169,新規,0,2023-09-22,2023-09-22,株式会社ＧＴ‐ＰＬＡＮ,,株式会社,大阪府,寝屋川市,香里北之町２－６－３０２,,27,215,5720080,,,,,,,2023-09-22,1,,,,,ジーティープラン,0
371,2120001258210,新規,0,2023-09-22,2023-09-22,株式会社サウナ開発,,株式会社,大阪府,大阪市北区,梅田１丁目２番２号大阪駅前第２ビル１２－１２,,27,127,5300001,,,,,,,2023-09-22,1,,,,,サウナカイハツ,0
372,2120001258235,新規,0,2023-09-22,2023-09-22,銘清株式会社,,株式会社,大阪府,大阪市城東区,永田４丁目６番３号新深江橋ハイツ５０２号室,,27,118,5360022,,,,,,,2023-09-22,1,,,,,メイセイ,0
373,2120001258243,新規,0,2023-09-22,2023-09-22,株式会社ニングループ,,株式会社,大阪府,大阪市生野区,小路２丁目１１番７号,,27,116,5440002,,,,,,,2023-09-22,1,,,,,ニングループ,0
376,2120003024916,新規,0,2023-09-22,2023-09-22,合同会社Ｙｕ,,合同会社,大阪府,大阪市港区,夕凪２丁目１８番４１－１０１０号,,27,107,5520004,,,,,,,2023-09-22,1,,,,,ユウ,0
377,2120003024924,新規,0,2023-09-22,2023-09-22,ワイルドプラン合同会社,,合同会社,大阪府,交野市,私市１丁目２１５番地の９,,27,230,5760033,,,,,,,2023-09-22,1,,,,,ワイルドプラン,0
378,2120003024932,新規,0,2023-09-22,2023-09-22,合同会社Ｉｗｏｎ＆Ｃｏ．,,合同会社,大阪府,大阪市東成区,東今里３丁目２１番地１３号,,27,115,5370011,,,,,,,2023-09-22,1,,,,,イウォンアンドコー,0
385,2120101068245,新規,0,2023-09-22,2023-09-22,株式会社Ｇｅｎｕｉｎｅ,,株式会社,大阪府,堺市堺区,翁橋町１丁２番２号,,27,141,5900061,,,,,,,2023-09-22,1,,,,,ジェニュイン,0
386,2122001037387,新規,0,2023-09-22,2023-09-22,株式会社光通商,,株式会社,大阪府,八尾市,老原４丁目９３番地の１メロディーハウス２０１号,,27,212,5810092,,,,,,,2023-09-22,1,,,,,ヒカリツウショウ,0
399,2140003019583,新規,0,2023-09-22,2023-09-22,合同会社ｓｕｎｆｌｏｗｅｒ,,合同会社,兵庫県,神戸市中央区,山本通２丁目９番１９号旧スタデニック邸,,28,110,6500003,,,,,,,2023-09-22,1,,,,,サンフラワー,0
408,2180001158173,新規,0,2023-09-22,2023-09-22,株式会社蒼希,,株式会社,愛知県,名古屋市南区,弥次ヱ町４丁目７２番地の１,,23,112,4570821,,,,,,,2023-09-22,1,,,,,ソウキ,0
412,2180301037837,新規,0,2023-09-22,2023-09-22,株式会社ＰＯＷＥＲ　ＰＥＡＣＥ,,株式会社,愛知県,豊田市,広美町郷西６９番地１,,23,211,4701215,,,,,,,2023-09-22,1,,,,,パワーピース,0
422,2230001020022,新規,0,2023-09-22,2023-09-22,株式会社夕立,,株式会社,富山県,氷見市,柳田８８６番地１サニーレジデンスＩ．１０３号,00132005,16,205,9350031,,,,,,,2023-09-22,1,,,,,ユウダチ,0
426,2240001062162,新規,0,2023-09-22,2023-09-22,株式会社３６ｈｏｍｅ,,株式会社,広島県,広島市南区,宇品御幸２丁目１６番４号第１０幸ビル１階,,34,103,7340015,,,,,,,2023-09-22,1,,,,,サンロクホーム,0
434,2290001103077,新規,0,2023-09-22,2023-09-22,株式会社ＷｅｓｔＧａｔｅ,,株式会社,福岡県,福岡市博多区,博多駅前３丁目２７番２２号,,40,132,8120011,,,,,,,2023-09-22,1,,,,,ウエストゲート,0
435,2290001103110,新規,0,2023-09-22,2023-09-22,株式会社ＫＡＥＲＵ,,株式会社,福岡県,福岡市早良区,梅林６丁目２４番３７号,,40,137,8140172,,,,,,,2023-09-22,1,,,,,カエル,0
438,2300001013472,新規,0,2023-09-22,2023-09-22,株式会社ジプルス,,株式会社,佐賀県,佐賀市,久保泉町大字川久保２１２１番地６５,,41,201,8490901,,,,,,,2023-09-22,1,,,,,ジプルス,0
444,2340001025910,新規,0,2023-09-22,2023-09-22,大島ボーリング株式会社,,株式会社,鹿児島県,奄美市,名瀬朝仁新町２５－３４－１,,46,222,8940041,,,,,,,2023-09-22,1,,,,,オオシマボーリング,0
447,2340005009661,新規,0,2023-09-22,2023-09-22,一般社団法人自然とともに学ぶそお,,その他の設立登記法人,鹿児島県,曽於市,末吉町上町７丁目４番地１,,46,217,8998609,,,,,,,2023-09-22,1,,,,,シゼントトモニマナブソオ,0
449,2350005006179,新規,0,2023-09-22,2023-09-22,医療法人ＹＭ会,,その他の設立登記法人,宮崎県,東諸県郡国富町,大字本庄４０３３番地,,45,382,8801101,,,,,,,2023-09-22,1,,,,,ワイエムカイ,0
451,2360003013283,新規,0,2023-09-22,2023-09-22,Ｌａｃａｒ　Ｂｒｏｔｈｅｒｓ合同会社,,合同会社,沖縄県,中頭郡読谷村,字渡具知４３２番地５、２Ｆ,,47,324,9040315,,,,,,,2023-09-22,1,,,,,ラカーブラザーズ,0
455,2370001050435,新規,0,2023-09-22,2023-09-22,株式会社穏優,,株式会社,宮城県,仙台市泉区,館７丁目１番地の３４,,04,105,9813214,,,,,,,2023-09-22,1,,,,,オンユウ,0
456,2370001050443,新規,0,2023-09-22,2023-09-22,株式会社英電工社,,株式会社,宮城県,仙台市宮城野区,萩野町２丁目５番地の６レーベンコートＢ１０２,,04,102,9830043,,,,,,,2023-09-22,1,,,,,ハナブサデンコウシャ,0
466,2410001013602,新規,0,2023-09-22,2023-09-22,株式会社大仙ボーリング,,株式会社,秋田県,大仙市,大曲丸子町１１番２０号,,05,212,0140041,,,,,,,2023-09-22,1,,,,,ダイセンボーリング,0
476,2440001009325,新規,0,2023-09-22,2023-09-22,株式会社フォーキャスト,,株式会社,北海道,函館市,大手町１８－７ＮＥＷＰＯＲＴＢＬＤＧ．,,01,202,0400064,,,,,,,2023-09-22,1,,,,,,0
477,2460101007441,新規,0,2023-09-22,2023-09-22,十勝大成株式会社,,株式会社,北海道,帯広市,西二十一条南４丁目５番地２６,,01,207,0802471,,,,,,,2023-09-22,1,,,,,トカチタイセイ,0
479,2480001012218,新規,0,2023-09-22,2023-09-22,株式会社レブ,,株式会社,徳島県,小松島市,横須町１３番６８号,,36,203,7730006,,,,,,,2023-09-22,1,,,,,レブ,0
480,2500001025209,新規,0,2023-09-22,2023-09-22,ソラスミソン株式会社,,株式会社,愛媛県,松山市,水泥町７２０番地の３,,38,201,7910244,,,,,,,2023-09-22,1,,,,,ソラスミソン,0
483,2500003003105,新規,0,2023-09-22,2023-09-22,合同会社ｆｉｅｌｄ　ｄｏｏｒｓ,,合同会社,愛媛県,西条市,丹原町長野７０４番地１,,38,206,7910521,,,,,,,2023-09-22,1,,,,,フィールドドアーズ,0
487,2700150120574,新規,0,2023-09-22,2023-09-22,ＣＨＯＯＫＡＤＯＯ　ＰＴＹ　ＬＴＤ,,外国会社等,,,,,,,,２１　Ｙｅｒｒａｎｙａ　Ｒｏｗ　Ｙａｒｏｏｍｎａ　ＯＬＤ　４５７３　Ａｕｓｔｒａｌｉａ,,,,,,2023-09-22,1,,,,,チユーカドウーピーテイーワイリミテツド,0
488,2700150120616,新規,0,2023-09-22,2023-09-22,Ｓｈｅｎｚｈｅｎｓｈｉ　Ｄｅｎｕｏｘｉｎｄｉａｎｚｉ　ｙｏｕｘｉａｎｇｏｎｇｓｉ,,外国会社等,,,,,,,,Ｌｏｎｇｇａｎｇｑｕ　Ｂａｎｔｉａｎｊｉｅｄａｏ　Ｘｉｎｘｕｅｓｈｅｑｕ　Ｓｈａｎｇｘｕｅｋｅｊｉｃｈｅｎｇ　Ｙｉｌｕｓａｎｈａｏ　Ａ　ｄｏｎｇ　１０１　Ｓｈｅｎｚｈｅｎ,,,,,,2023-09-22,1,,,,,シンセンシデヌオシンデンシユウゲンコウシ,0
494,3010001238619,新規,0,2023-09-22,2023-09-22,ＥＺＡＫＩ株式会社,,株式会社,東京都,中央区,銀座８丁目７番２号,,13,102,1040061,,,,,,,2023-09-22,1,,,,,エザキ,0
497,3010005037273,新規,0,2023-09-22,2023-09-22,一般社団法人ＮＰＯ支援協議会,,その他の設立登記法人,東京都,中央区,京橋１丁目３番１号八重洲口大栄ビル,,13,102,1040031,,,,,,,2023-09-22,1,,,,,エヌピーオーシエンキョウギカイ,0
512,3010401177268,新規,0,2023-09-22,2023-09-22,Ａｎｚｙ　Ｅｎｔｅｒｐｒｉｓｅ株式会社,,株式会社,東京都,港区,南青山３丁目１番３６号青山丸竹ビル６Ｆ,,13,103,1070062,,,,,,,2023-09-22,1,,,,,アンジーエンタープライズ,0
516,3010403030978,新規,0,2023-09-22,2023-09-22,Ｗａｋｅ　ｕｐ　ＮＩＰＰＯＮ合同会社,,合同会社,東京都,港区,北青山１丁目３番１号アールキューブ青山３階,,13,103,1070061,,,,,,,2023-09-22,1,,,,,ウェイクアップニッポン,0
518,3010405022486,新規,0,2023-09-22,2023-09-22,一般社団法人ビジネスデータＡＩ研究所,,その他の設立登記法人,東京都,港区,新橋２丁目２０－１５新橋駅前ビル１号館５０９－１,,13,103,1050004,,,,,,,2023-09-22,1,,,,,ビジネスデータエーアイケンキュウジョ,0
519,3010405022536,新規,0,2023-09-22,2023-09-22,一般社団法人ＢＳＴ１,,その他の設立登記法人,東京都,港区,西新橋１丁目２番９号メンターキャピタル税理士法人内,,13,103,1050003,,,,,,,2023-09-22,1,,,,,ビーエスティーワン,0
520,3010501051067,新規,0,2023-09-22,2023-09-22,株式会社光琳,,株式会社,東京都,台東区,西浅草１丁目３－１４,,13,106,1110035,,,,,,,2023-09-22,1,,,,,コウリン,0
521,3010505003452,新規,0,2023-09-22,2023-09-22,入谷センチュリープラザ２１管理組合法人,,その他の設立登記法人,東京都,台東区,入谷１丁目２１番４号,,13,106,1100013,,,,,,,2023-09-22,1,,,,,イリヤセンチュリープラザトゥエンティワン,0
524,3010801034358,新規,0,2023-09-22,2023-09-22,株式会社ＮＥＸＴ,,株式会社,東京都,大田区,大森北４丁目８番２号リベルテ大森５０１,,13,111,1430016,,,,,,,2023-09-22,1,,,,,ネクスト,0
529,3010903008433,新規,0,2023-09-22,2023-09-22,合同会社ファビュラス,,合同会社,東京都,世田谷区,代田１丁目３０番６－２０１号,,13,112,1550033,,,,,,,2023-09-22,1,,,,,ファビュラス,0
539,3011001157024,新規,0,2023-09-22,2023-09-22,株式会社ＢＡＬＬＥＳＴＥＲＯＳ,,株式会社,東京都,渋谷区,渋谷３丁目１番９号ＹＡＺＡＷＡビル３階,,13,113,1500002,,,,,,,2023-09-22,1,,,,,バレステロス,0
543,3011003017531,新規,0,2023-09-22,2023-09-22,スカイクリエーター合同会社,,合同会社,東京都,渋谷区,神宮前６丁目２３番４号桑野ビル２階,,13,113,1500001,,,,,,,2023-09-22,1,,,,,スカイクリエーター,0
552,3011301029022,新規,0,2023-09-22,2023-09-22,株式会社ピーピーピー・ステージ,,株式会社,東京都,杉並区,下高井戸２丁目１番７号ロノプラザ４０１,,13,115,1680073,,,,,,,2023-09-22,1,,,,,ピーピーピーステージ,0
554,3011403004121,新規,0,2023-09-22,2023-09-22,合同会社エルライズ,,合同会社,東京都,板橋区,若木１丁目２７番１－１０５号パーク・エステート上板橋,,13,119,1740065,,,,,,,2023-09-22,1,,,,,エルライズ,0
556,3011503005770,新規,0,2023-09-22,2023-09-22,光明興産合同会社,,合同会社,東京都,荒川区,西日暮里５丁目２番１５号,,13,118,1160013,,,,,,,2023-09-22,1,,,,,コウミョウコウサン,0
557,3011801043076,新規,0,2023-09-22,2023-09-22,株式会社レガシス,,株式会社,東京都,足立区,千住１丁目４番１号,,13,121,1200034,,,,,,,2023-09-22,1,,,,,レガシス,0
562,3013101009253,新規,0,2023-09-22,2023-09-22,株式会社ＡＱＵＳＥＴ,,株式会社,東京都,青梅市,塩船６７番地の７,,13,205,1980011,,,,,,,2023-09-22,1,,,,,アクセット,0
573,3020001153585,新規,0,2023-09-22,2023-09-22,株式会社リ・プラス,,株式会社,神奈川県,横浜市港南区,上大岡東１丁目２８番７号,,14,111,2330001,,,,,,,2023-09-22,1,,,,,リプラス,0
575,3020003024644,新規,0,2023-09-22,2023-09-22,合同会社ＯＳ,,合同会社,神奈川県,横浜市南区,睦町２丁目１８０番地１３シャンブル・ドウ・ヨコハマ２０３,,14,105,2320041,,,,,,,2023-09-22,1,,,,,オーエス,0
577,3020005016128,新規,0,2023-09-22,2023-09-22,ＭＩＮＡＮＯＢＡ　ＶＩＬＬＡＧＥ団地管理組合法人,,その他の設立登記法人,神奈川県,横浜市青葉区,大場町１２０８番地２７,,14,117,2250023,,,,,,,2023-09-22,1,,,,,ミナノバビレッジ,0
583,3021003013595,新規,0,2023-09-22,2023-09-22,合同会社ＨＥＬＰ,,合同会社,神奈川県,相模原市緑区,千木良８８４番地１,,14,151,2520174,,,,,,,2023-09-22,1,,,,,ヘルプ,0
590,3030001155795,新規,0,2023-09-22,2023-09-22,株式会社ＢＵＩ　ＴＲＡＭ,,株式会社,埼玉県,深谷市,矢島９２６番地２,,11,218,3660839,,,,,,,2023-09-22,1,,,,,ブイチャン,0
591,3030001155820,新規,0,2023-09-22,2023-09-22,株式会社Ｂｏｄｙ　Ｌａｂ,,株式会社,埼玉県,春日部市,梅田本町１丁目８番３号,,11,214,3440053,,,,,,,2023-09-22,1,,,,,ボディラボ,0
592,3030001156117,新規,0,2023-09-22,2023-09-22,株式会社小沼総合防災,,株式会社,埼玉県,幸手市,大字幸手２２８６番地２,,11,240,3400113,,,,,,,2023-09-22,1,,,,,コヌマソウゴウボウサイ,0
593,3030003022515,新規,0,2023-09-22,2023-09-22,合同会社ＤＢカンパニー,,合同会社,埼玉県,所沢市,上新井５丁目５１番地３,,11,208,3591142,,,,,,,2023-09-22,1,,,,,ディービーカンパニー,0
594,3040001130129,新規,0,2023-09-22,2023-09-22,カントーコーポレーション株式会社,,株式会社,千葉県,千葉市美浜区,磯辺４丁目１番３号,,12,106,2610012,,,,,,,2023-09-22,1,,,,,カントーコーポレーション,0
595,3040001130137,新規,0,2023-09-22,2023-09-22,株式会社栄升,,株式会社,千葉県,松戸市,五香南１丁目１５番７百楽門ビル２０７号室,,12,207,2702212,,,,,,,2023-09-22,1,,,,,エイショウ,0
598,3040003023371,新規,0,2023-09-22,2023-09-22,合同会社翔りサポート,,合同会社,千葉県,木更津市,請西東３丁目１７番地１２,,12,206,2920806,,,,,,,2023-09-22,1,,,,,カケリサポート,0
604,3050001053502,新規,0,2023-09-22,2023-09-22,株式会社さくらグリーン,,株式会社,茨城県,つくば市,桜３丁目３０番地７,,08,220,3050003,,,,,,,2023-09-22,1,,,,,サクラグリーン,0
611,3070003005103,新規,0,2023-09-22,2023-09-22,合同会社ＰＲＯＤＩＡ,,合同会社,群馬県,桐生市,堤町１丁目２番２６号,,10,203,3760042,,,,,,,2023-09-22,1,,,,,プロデイア,0
621,3110001037861,新規,0,2023-09-22,2023-09-22,株式会社前山研磨,,株式会社,新潟県,燕市,吉田宮小路７１０番地,,15,213,9590267,,,,,,,2023-09-22,1,,,,,マエヤマケンマ,0
629,3120001258127,新規,0,2023-09-22,2023-09-22,トンボ貿易株式会社,,株式会社,大阪府,大阪市淀川区,三津屋北１丁目３６番１０号シティテラス神崎川駅前４１６号室,,27,123,5320032,,,,,,,2023-09-22,1,,,,,トンボボウエキ,0
630,3120001258184,新規,0,2023-09-22,2023-09-22,Ａｅｏｌｉａ　Ｈｏｌｄｉｎｇｓ株式会社,,株式会社,大阪府,大阪市西区,立売堀５丁目３番１８号,,27,106,5500012,,,,,,,2023-09-22,1,,,,,エオリアホールディングス,0
631,3120001258201,新規,0,2023-09-22,2023-09-22,株式会社はるか介護センター,,株式会社,大阪府,大阪市阿倍野区,阿倍野筋５丁目３番１３号,,27,119,5450052,,,,,,,2023-09-22,1,,,,,ハルカカイゴセンター,0
632,3120001258218,新規,0,2023-09-22,2023-09-22,株式会社ＢｅＡｔ,,株式会社,大阪府,大阪市天王寺区,石ケ辻町１６番１８－１４０１号,00131999,27,109,5430031,,,,,,,2023-09-22,1,,,,,ビート,0
633,3120001258291,新規,0,2023-09-22,2023-09-22,株式会社ネオアドバンスジャパン,,株式会社,大阪府,大阪市北区,西天満１丁目８番９－２２０４号,,27,127,5300047,,,,,,,2023-09-22,1,,,,,ネオアドバンスジャパン,0
642,3120003024931,新規,0,2023-09-22,2023-09-22,ＬＬＣ資源合同会社,,合同会社,大阪府,大阪市淀川区,十三東３丁目７番２６号,,27,123,5320023,,,,,,,2023-09-22,1,,,,,エルエルシーシゲン,0
651,3120903004842,新規,0,2023-09-22,2023-09-22,合同会社フォーピース,,合同会社,大阪府,豊中市,東寺内町１２番１２－４０２号,,27,203,5610871,,,,,,,2023-09-22,1,,,,,フォーピース,0
652,3122001037386,新規,0,2023-09-22,2023-09-22,株式会社Ｌｉｂｅｒｔｅ,,株式会社,大阪府,東大阪市,稲葉３丁目４番２６号ＡＺＴＯ東大阪稲葉Ｂ号室,,27,227,5780925,,,,,,,2023-09-22,1,,,,,リベルテ,0
653,3122001037394,新規,0,2023-09-22,2023-09-22,株式会社ＳＥＩＥＩ,,株式会社,大阪府,八尾市,光南町２丁目１番１２－３０２号,,27,212,5810007,,,,,,,2023-09-22,1,,,,,セイエイ,0
658,3130001075240,新規,0,2023-09-22,2023-09-22,向陽会計センター株式会社,,株式会社,京都府,京都市下京区,七条通油小路東入大黒町２２７番地第２キョートビル４０２,,26,106,6008223,,,,,,,2023-09-22,1,,,,,コウヨウカイケイセンター,0
661,3140001131694,新規,0,2023-09-22,2023-09-22,株式会社ＧＥＮＪＩ,,株式会社,兵庫県,姫路市,大津区平松５４番地１Ｍａｙ’ｓＡ－１０２,,28,201,6711145,,,,,,,2023-09-22,1,,,,,ゲンジ,0
664,3140003019582,新規,0,2023-09-22,2023-09-22,合同会社こばや志,,合同会社,兵庫県,姫路市,五軒邸２丁目６５番地,,28,201,6700854,,,,,,,2023-09-22,1,,,,,コバヤシ,0
674,3180001158115,新規,0,2023-09-22,2023-09-22,株式会社丸星,,株式会社,愛知県,名古屋市守山区,桜坂５丁目４０９番地,,23,113,4630018,,,,,,,2023-09-22,1,,,,,マルボシ,0
675,3180001158131,新規,0,2023-09-22,2023-09-22,株式会社ＫＩＭＵＫＥＮ,,株式会社,愛知県,名古屋市中村区,岩塚町字小池１番地の６２ザ・パークハウス八田７１０号,,23,105,4530862,,,,,,,2023-09-22,1,,,,,キムケン,0
676,3180001158148,新規,0,2023-09-22,2023-09-22,株式会社Ｎａｌｕｎａｍｉ．運送,,株式会社,愛知県,名古屋市中川区,八家町３丁目１番地,,23,110,4540835,,,,,,,2023-09-22,1,,,,,ナルナミウンソウ,0
681,3180003025767,新規,0,2023-09-22,2023-09-22,椿町再開発合同会社,,合同会社,愛知県,名古屋市中区,丸の内３丁目６番１１号,,23,106,4600002,,,,,,,2023-09-22,1,,,,,ツバキマチサイカイハツ,0
683,3180301037836,新規,0,2023-09-22,2023-09-22,エスクラフト株式会社,,株式会社,愛知県,みよし市,新前田２丁目１番地７,,23,236,4700228,,,,,,,2023-09-22,1,,,,,エスクラフト,0
684,3180303005840,新規,0,2023-09-22,2023-09-22,合同会社縁,,合同会社,愛知県,岡崎市,上地４丁目１番地１８,,23,202,4440823,,,,,,,2023-09-22,1,,,,,エン,0
688,3190003004448,新規,0,2023-09-22,2023-09-22,合同会社Ｓｅｉ,,合同会社,三重県,南牟婁郡御浜町,大字阿田和１７５３番地,,24,561,5195204,,,,,,,2023-09-22,1,,,,,セイ,0
689,3190005011863,新規,0,2023-09-22,2023-09-22,一般社団法人ｋｉｃｃａ,,その他の設立登記法人,三重県,鳥羽市,鳥羽４丁目１５番２０号,,24,211,5170011,,,,,,,2023-09-22,1,,,,,キッカ,0
692,3220001025608,新規,0,2023-09-22,2023-09-22,株式会社ＬＡＳＴＥ,,株式会社,石川県,白山市,桑島四号８７番地１３,,17,210,9202502,,,,,,,2023-09-22,1,,,,,ラスタ,0
693,3240001062161,新規,0,2023-09-22,2023-09-22,マークスラッシュ株式会社,,株式会社,広島県,広島市中区,本川町２丁目５番１７号,,34,101,7300802,,,,,,,2023-09-22,1,,,,,マークスラッシュ,0
697,3250003003352,新規,0,2023-09-22,2023-09-22,合同会社エイショウ,,合同会社,山口県,周南市,三笹町２番３号,,35,215,7460004,,,,,,,2023-09-22,1,,,,,エイショウ,0
701,3260003004440,新規,0,2023-09-22,2023-09-22,合同会社日向,,合同会社,岡山県,岡山市北区,今２丁目１１番１４号ダイアパレスパークサイド今４０１,,33,101,7000975,,,,,,,2023-09-22,1,,,,,ヒュウガ,0
706,3290001103084,新規,0,2023-09-22,2023-09-22,ＤＭエステート株式会社,,株式会社,福岡県,福岡市中央区,大名２丁目９番３４号,,40,133,8100041,,,,,,,2023-09-22,1,,,,,ディーエムエステート,0
707,3290001103101,新規,0,2023-09-22,2023-09-22,株式会社創環,,株式会社,福岡県,福岡市博多区,博多駅前２丁目１９番１７号トーカン博多第５ビル３１２号室,,40,132,8120011,,,,,,,2023-09-22,1,,,,,ソウカン,0
715,3300001013471,新規,0,2023-09-22,2023-09-22,株式会社東馬ホールディングス,,株式会社,佐賀県,神埼市,千代田町直鳥１７３８番地,,41,210,8420053,,,,,,,2023-09-22,1,,,,,トウマホールディングス,0
720,3330003009985,新規,0,2023-09-22,2023-09-22,合同会社ＣＯＮＴＲＡＢＡＮＤＯ,,合同会社,熊本県,菊池市,野間口７６０番地１,,43,210,8611324,,,,,,,2023-09-22,1,,,,,コントラバンド,0
723,3340005009660,新規,0,2023-09-22,2023-09-22,一般社団法人まんまる,,その他の設立登記法人,鹿児島県,鹿児島市,唐湊１丁目１１番１号,,46,201,8900081,,,,,,,2023-09-22,1,,,,,マンマル,0
750,3700150119707,新規,0,2023-09-22,2023-09-01,フォーミュラＥｎｊｏｙ協会,,その他,三重県,鈴鹿市,稲生町７９９２番地,,24,207,5100201,,,,,,,2023-09-01,1,,,,,フオーミユラエンジヨイキヨウカイ,0
751,3700150120573,新規,0,2023-09-22,2023-09-22,Ｎａｎｃｈａｎｇ　Ｆｅｎｇｚｅ　Ａｕｔｏｍｏｔｉｖｅ　Ｓｕｐｐｌｉｅｓ　Ｃｏ．，Ｌｔｄ．,,外国会社等,,,,,,,,Ｗａｎｇｃｈｅｎｇ　Ｎｅｗ　Ｄｉｓｔｒｉｃｔ，Ｘｉｎｊｉａｎ　Ｄｉｓｔｒｉｃｔ，Ｓｔｏｒｅ　Ｈ０３，Ｆｅｎｇｚｅ　Ｇａｒｄｅｎ，Ｈｕａｎｇｘｉ，Ｘｕｃｕｎ．Ｎａｎｃｈａｎｇ　Ｃｉｔｙ，Ｊｉａｎｇｘｉ　Ｐｒｏｖｉｎｃｅ，３３０１００，ＣＮ,,,,,,2023-09-22,1,,,,,ナンシヨウシホウザワキシヤヨウヒンユウゲンコウシ,0
752,3700150120598,新規,0,2023-09-22,2023-09-22,カルトール・セキュリティ・プリント・グループ・リミテッド,,外国会社等,東京都,渋谷区,渋谷１丁目１１番３号正栄ビル４階,,13,113,1500002,英国、ウェストミッドランズ、ウルバーハンプトン、ヴァリアントウェイ、ユニットＧ３,,,,,,2023-09-22,1,,,,,カルトールセキユリテイプリントグループリミテツド,0
753,3700150120607,新規,0,2023-09-22,2023-09-22,東京都かわらぶき技能推進協議会,,その他,東京都,千代田区,飯田橋１丁目７－１１ダン・リーガルビル３階,,13,101,1020072,,,,,,,2023-09-22,1,,,,,トウキョウトカワラブキギノウスイシンキョウギカイ,0
754,3700150120615,新規,0,2023-09-22,2023-09-22,ｓｈｅｎｚｈｅｎｓｈｉｍｉａｏｌｉａｎｂａｏｋｅｊｉ　ｙｏｕｘｉａｎｇｏｎｇｓｉ,,外国会社等,,,,,,,,４Ｂ　ＢｌｏｃｋＣ　Ｂ＆Ｃ　Ｂｌｏｃｋ１　ＢａｏｎｅｎｇＣｉｔｙＭａｎｓｉｏｎ　Ｎｏ．２１ＮｏｎｇｌｉｎＲｏａｄ　ＺｈｕｙｕａｎＣｏｍｍｕｎｉｔｙ　ＸｉａｎｇｍｉｈｕＳｔｒｅｅｔ　Ｆｕｔｉａｎｄｉｓｔｒｉｃｔ　Ｇｕａｎｇｄｏｎｇ　Ｓｈｅｎｚｈｅｎ,,,,,,2023-09-22,1,,,,,シンセンシミャオレンバオカギユウゲンコウシ,0
765,4010001238064,新規,0,2023-09-22,2023-09-22,株式会社Ｂｒｉｇｈｔ　Ｌｉｎｋ,,株式会社,東京都,千代田区,神田神保町２丁目１０番地ＵＢｉｚ神田神保町,,13,101,1010051,,,,,,,2023-09-22,1,,,,,ブライトリンク,0
766,4010001238675,新規,0,2023-09-22,2023-09-22,アステス株式会社,,株式会社,東京都,千代田区,内神田３丁目１０番９号,,13,101,1010047,,,,,,,2023-09-22,1,,,,,アステス,0
767,4010001238709,新規,0,2023-09-22,2023-09-22,株式会社アクシオビズ,,株式会社,東京都,文京区,湯島２丁目１４番４号,,13,105,1130034,,,,,,,2023-09-22,1,,,,,アクシオビズ,0
769,4010003041722,新規,0,2023-09-22,2023-09-22,ＴＷＦ　Ｍａｒｋｅｔｉｎｇ合同会社,,合同会社,東京都,中央区,銀座１丁目１２番４号Ｎ＆ＥＢＬＤ．６Ｆ,,13,102,1040061,,,,,,,2023-09-22,1,,,,,ティーダブリューエフマーケティング,0
770,4010003041747,新規,0,2023-09-22,2023-09-22,Ｅｎｉｓｈｉ　Ａｓａｋｕｓａ合同会社,,合同会社,東京都,中央区,銀座２丁目１０番８号マニエラ銀座ビル４階,,13,102,1040061,,,,,,,2023-09-22,1,,,,,エニシアサクサ,0
779,4010401177267,新規,0,2023-09-22,2023-09-22,Ａｓａｎｔｅｃｈ株式会社,,株式会社,東京都,港区,南青山２丁目２番１５号,,13,103,1070062,,,,,,,2023-09-22,1,,,,,アサンテック,0
780,4010401177291,新規,0,2023-09-22,2023-09-22,Ａｕｔｏｃｏａｃｈ　Ｊａｐａｎ株式会社,,株式会社,東京都,港区,麻布十番３丁目１０番１２号,,13,103,1060045,,,,,,,2023-09-22,1,,,,,オートコーチジャパン,0
781,4010403030977,新規,0,2023-09-22,2023-09-22,原田秀一合同会社,,合同会社,東京都,港区,三田２丁目１番２８号,,13,103,1080073,,,,,,,2023-09-22,1,,,,,ハラダヒデカズ,0
784,4010501051082,新規,0,2023-09-22,2023-09-22,株式会社ＩＮｅｘｕｓ,,株式会社,東京都,台東区,雷門２丁目１番３号,,13,106,1110034,,,,,,,2023-09-22,1,,,,,アイネクサス,0
785,4010501051090,新規,0,2023-09-22,2023-09-22,耀恒国際株式会社,,株式会社,東京都,台東区,松が谷４丁目２７番１８号Ａ室,,13,106,1110036,,,,,,,2023-09-22,1,,,,,ヨウコウコクサイ,0
786,4010601063762,新規,0,2023-09-22,2023-09-22,株式会社ブリーズ,,株式会社,東京都,江東区,東砂７丁目１７番１７－７０３号,,13,108,1360074,,,,,,,2023-09-22,1,,,,,ブリーズ,0
800,4011001157007,新規,0,2023-09-22,2023-09-22,株式会社佐伯ポインティ,,株式会社,東京都,渋谷区,渋谷２丁目１９－１５宮益坂ビルディング６０９,,13,113,1500002,,,,,,,2023-09-22,1,,,,,サエキポインティ,0
801,4011001157064,新規,0,2023-09-22,2023-09-22,株式会社ｔｗｏ　ｓａｎｄ　ｔｒｉｇｇｅｒ,,株式会社,東京都,渋谷区,上原１丁目１番８号代々木公園セントウエストテラス４０１,,13,113,1510064,,,,,,,2023-09-22,1,,,,,トゥーサンドトリガー,0
802,4011001157114,新規,0,2023-09-22,2023-09-22,株式会社Ｆ　ＰＬＵＳ,,株式会社,東京都,渋谷区,神宮前６丁目２３番４号桑野ビル２階,,13,113,1500001,,,,,,,2023-09-22,1,,,,,エフプラス,0
803,4011003017547,新規,0,2023-09-22,2023-09-22,Ｌｉｍｏｗ　Ｈａｎｄｅｌ合同会社,,合同会社,東京都,渋谷区,宇田川町１－１２パークコート渋谷ザ・タワー１６１２号室,,13,113,1500042,,,,,,,2023-09-22,1,,,,,リモウハンデル,0
805,4011101104445,新規,0,2023-09-22,2023-09-22,株式会社Ｆａｒｔｉｒｅ,,株式会社,東京都,新宿区,赤城下町４５番地ＫＢＣ、Ｂ－３号,,13,104,1620803,,,,,,,2023-09-22,1,,,,,ファルティーレ,0
808,4011403004120,新規,0,2023-09-22,2023-09-22,合同会社ＳＺ,,合同会社,東京都,板橋区,板橋４丁目３番２－１４０２号,,13,119,1730004,,,,,,,2023-09-22,1,,,,,エスゼット,0
809,4011501029804,新規,0,2023-09-22,2023-09-22,日本坂崎製薬株式会社,,株式会社,東京都,荒川区,南千住３丁目２７－２浅草ビル５０８,,13,118,1160003,,,,,,,2023-09-22,1,,,,,ニホンサカザキセイヤク,0
812,4011603004060,新規,0,2023-09-22,2023-09-22,合同会社ＧＬＯＢＡＬ　ＩＴ　ＴＥＣＨＮＯＬＯＧＹ,,合同会社,東京都,練馬区,三原台３丁目２－３８,,13,120,1770031,,,,,,,2023-09-22,1,,,,,グローバルアイティテクノロジー,0
813,4011703003598,新規,0,2023-09-22,2023-09-22,合同会社ＦＡＣＴ,,合同会社,東京都,江戸川区,東葛西６丁目１７番１４号９０３,,13,123,1340084,,,,,,,2023-09-22,1,,,,,ファクト,0
814,4011801043059,新規,0,2023-09-22,2023-09-22,株式会社ＴＴＧＲＯＵＰ,,株式会社,東京都,足立区,竹の塚３丁目１５番５号,,13,121,1210813,,,,,,,2023-09-22,1,,,,,ティティグループ,0
815,4011801043067,新規,0,2023-09-22,2023-09-22,ｌｉｆｅ　ｃｈａｎｇｉｎｇ株式会社,,株式会社,東京都,足立区,扇２丁目２５番１－４０６号,,13,121,1230873,,,,,,,2023-09-22,1,,,,,ライフチェンジング,0
816,4012401041023,新規,0,2023-09-22,2023-09-22,株式会社東宝ハウス調布,,株式会社,東京都,調布市,小島町１丁目３６番地１６,,13,208,1820026,,,,,,,2023-09-22,1,,,,,トウホウハウスチョウフ,0
837,4020003024643,新規,0,2023-09-22,2023-09-22,合同会社ＷＲＳ,,合同会社,神奈川県,横浜市中区,長者町５丁目６８番１ロワール関内エナジス１０１,,14,104,2310033,,,,,,,2023-09-22,1,,,,,ダブルアールズ,0
845,4021001080240,新規,0,2023-09-22,2023-09-22,株式会社ＦｕｎＳｗｅｌｌｓ,,株式会社,神奈川県,茅ヶ崎市,東海岸北１丁目２番８号,,14,207,2530053,,,,,,,2023-09-22,1,,,,,ファンスウェルズ,0
846,4021001080249,新規,0,2023-09-22,2023-09-22,大谷グループホールディングス株式会社,,株式会社,神奈川県,横須賀市,三春町２丁目１番地４第一大谷ビル２Ｆ,,14,201,2380014,,,,,,,2023-09-22,1,,,,,オオタニグループホールディングス,0
847,4021001080257,新規,0,2023-09-22,2023-09-22,ｕｌｕ株式会社,,株式会社,神奈川県,平塚市,出縄２００番地３,,14,203,2540915,,,,,,,2023-09-22,1,,,,,ウル,0
855,4030001156090,新規,0,2023-09-22,2023-09-22,株式会社明希工業,,株式会社,埼玉県,朝霞市,幸町２丁目８番３７号,,11,227,3510015,,,,,,,2023-09-22,1,,,,,メイキコウギョウ,0
856,4030001156099,新規,0,2023-09-22,2023-09-22,株式会社わはな,,株式会社,埼玉県,行田市,持田３丁目３１番３３号,,11,206,3610056,,,,,,,2023-09-22,1,,,,,ワハナ,0
857,4030001156140,新規,0,2023-09-22,2023-09-22,株式会社すまいピース,,株式会社,埼玉県,朝霞市,本町２丁目４番２６号サジェス２１ビル４階,,11,227,3510011,,,,,,,2023-09-22,1,,,,,スマイピース,0
858,4030001156173,新規,0,2023-09-22,2023-09-22,完璧株式会社,,株式会社,埼玉県,川口市,柳崎５丁目１９番３９号,,11,203,3330861,,,,,,,2023-09-22,1,,,,,カンペキ,0
859,4030001156207,新規,0,2023-09-22,2023-09-22,株式会社新栄建装,,株式会社,埼玉県,入間郡三芳町,大字竹間沢４１２番地１０,,11,324,3540043,,,,,,,2023-09-22,1,,,,,シンエイケンソウ,0
864,4030003022480,新規,0,2023-09-22,2023-09-22,ＨＹＨ合同会社,,合同会社,埼玉県,加須市,花崎４丁目２３番地１３号,,11,210,3470032,,,,,,,2023-09-22,1,,,,,エイチワイエイチ,0
871,4040001130136,新規,0,2023-09-22,2023-09-22,建物管理株式会社,,株式会社,千葉県,いすみ市,大原３００３番地,,12,238,2980004,,,,,,,2023-09-22,1,,,,,タテモノカンリ,0
885,4050001053518,新規,0,2023-09-22,2023-09-22,株式会社ＮＥＴＨＵ　ＩＮＴＥＲＮＡＴＩＯＮＡＬ,,株式会社,茨城県,結城市,大字小田林１６９８番地７,,08,207,3070007,,,,,,,2023-09-22,1,,,,,ネテインターナショナル,0
886,4080001025869,新規,0,2023-09-22,2023-09-22,株式会社日新栞盈工業,,株式会社,静岡県,榛原郡吉田町,住吉３６７番地の５グランドパレス１０３,,22,424,4210301,,,,,,,2023-09-22,1,,,,,ニッシンカンエイコウギョウ,0
909,4120001257598,新規,0,2023-09-22,2023-09-22,賀通日本貿易株式会社,,株式会社,大阪府,大阪市天王寺区,筆ケ崎町５番３９号,,27,109,5430027,,,,,,,2023-09-22,1,,,,,ガツウニホンボウエキ,0
910,4120001258126,新規,0,2023-09-22,2023-09-22,株式会社アーバンメディカル,,株式会社,大阪府,大阪市天王寺区,国分町７番１５号,,27,109,5430044,,,,,,,2023-09-22,1,,,,,アーバンメディカル,0
911,4120001258134,新規,0,2023-09-22,2023-09-22,端木株式会社,,株式会社,大阪府,大阪市西成区,玉出中２丁目１４番９号玉出エキスポマンション５０６号室,,27,122,5570044,,,,,,,2023-09-22,1,,,,,モトキ,0
912,4120001258142,新規,0,2023-09-22,2023-09-22,株式会社アーラ,,株式会社,大阪府,大阪市平野区,長吉六反３丁目３番５号,,27,126,5470012,,,,,,,2023-09-22,1,,,,,アーラ,0
913,4120001258200,新規,0,2023-09-22,2023-09-22,株式会社三友建立,,株式会社,大阪府,大阪市西区,川口３丁目３番３号３Ｆ,,27,106,5500021,,,,,,,2023-09-22,1,,,,,ミツトモケンリツ,0
914,4120001258217,新規,0,2023-09-22,2023-09-22,Ｋ＆Ｒ株式会社,,株式会社,大阪府,大阪市東住吉区,中野４丁目１３番１３号,,27,121,5460012,,,,,,,2023-09-22,1,,,,,ケイアンドアール,0
915,4120001258233,新規,0,2023-09-22,2023-09-22,株式会社セカンド,,株式会社,大阪府,大阪市生野区,勝山北１丁目１５番３号メゾン勝山３０３号,,27,116,5440033,,,,,,,2023-09-22,1,,,,,セカンド,0
916,4120001258241,新規,0,2023-09-22,2023-09-22,ＧＬＯＶＥ株式会社,,株式会社,大阪府,大阪市西成区,玉出西２丁目１６番２０－３０３号,,27,122,5570045,,,,,,,2023-09-22,1,,,,,グローブ,0
919,4120003024939,新規,0,2023-09-22,2023-09-22,合同会社フジヤマ工務店,,合同会社,大阪府,大阪市中央区,神崎町２番１５号２Ｆ,,27,128,5400016,,,,,,,2023-09-22,1,,,,,フジヤマコウムテン,0
923,4120101068235,新規,0,2023-09-22,2023-09-22,株式会社ＲＥＢＯＲＮ　ＦＡＣＴＯＲＹ,,株式会社,大阪府,富田林市,富田林町１３番１号,,27,214,5840033,,,,,,,2023-09-22,1,,,,,リボーンファクトリー,0
924,4120101068243,新規,0,2023-09-22,2023-09-22,株式会社ジーズワークス,,株式会社,大阪府,堺市中区,平井５２０番地３,,27,142,5998251,,,,,,,2023-09-22,1,,,,,ジーズワークス,0
925,4120103005450,新規,0,2023-09-22,2023-09-22,合同会社のがみ,,合同会社,大阪府,岸和田市,田治米町５１３,,27,202,5960805,,,,,,,2023-09-22,1,,,,,ノガミ,0
933,4130001075256,新規,0,2023-09-22,2023-09-22,株式会社ミレ,,株式会社,京都府,木津川市,相楽台５丁目８番４号,,26,214,6190223,,,,,,,2023-09-22,1,,,,,ミレ,0
934,4130001075314,新規,0,2023-09-22,2023-09-22,近畿総合開発株式会社,,株式会社,京都府,木津川市,州見台１丁目１６番地４,,26,214,6190216,,,,,,,2023-09-22,1,,,,,キンキソウゴウカイハツ,0
935,4130003008998,新規,0,2023-09-22,2023-09-22,合同会社国際人材ネットワーク,,合同会社,京都府,京都市伏見区,深草直違橋７丁目２６６番地１,,26,109,6120889,,,,,,,2023-09-22,1,,,,,コクサイジンザイネットワーク,0
939,4140001131685,新規,0,2023-09-22,2023-09-22,株式会社前田,,株式会社,兵庫県,たつの市,新宮町北村１６４番地,,28,229,6794323,,,,,,,2023-09-22,1,,,,,マエダ,0
940,4140001131702,新規,0,2023-09-22,2023-09-22,優衣株式会社,,株式会社,兵庫県,尼崎市,南塚口町８丁目３４番２０号第一塚口マンション１０５号室,00132009,28,202,6610012,,,,,,,2023-09-22,1,,,,,ユイ,0
941,4140001131719,新規,0,2023-09-22,2023-09-22,株式会社キャラバンス,,株式会社,兵庫県,神戸市灘区,弓木町４丁目３番１－Ｅ２００３号,,28,102,6570026,,,,,,,2023-09-22,1,,,,,キャラバンス,0
944,4170001017790,新規,0,2023-09-22,2023-09-22,株式会社宮本工業,,株式会社,和歌山県,和歌山市,吐前６８５番地８,,30,201,6496275,,,,,,,2023-09-22,1,,,,,ミヤモトコウギョウ,0
947,4180001158130,新規,0,2023-09-22,2023-09-22,株式会社ペットセレブ,,株式会社,愛知県,名古屋市昭和区,白金１丁目１番４号プレザント白金７０１号,,23,107,4660058,,,,,,,2023-09-22,1,,,,,ペットセレブ,0
952,4180003025758,新規,0,2023-09-22,2023-09-22,合同会社Ｚｙｎ,,合同会社,愛知県,清須市,春日午５３番地３,,23,233,4520961,,,,,,,2023-09-22,1,,,,,ジン,0
953,4180003025766,新規,0,2023-09-22,2023-09-22,合同会社Ｍｏｓｅｆｕｌｌ,,合同会社,愛知県,尾張旭市,三郷町中井田１９２番地１,,23,226,4880014,,,,,,,2023-09-22,1,,,,,モーゼフル,0
959,4190001030750,新規,0,2023-09-22,2023-09-22,株式会社Ｙ＆Ｙ,,株式会社,三重県,桑名市,馬道１丁目６２番地２,,24,205,5110822,,,,,,,2023-09-22,1,,,,,ワイアンドワイ,0
964,4220001025607,新規,0,2023-09-22,2023-09-22,株式会社ロブレス,,株式会社,石川県,加賀市,作見町ニ２１番地３,,17,206,9220423,,,,,,,2023-09-22,1,,,,,ロブレス,0
965,4230005009340,新規,0,2023-09-22,2023-09-22,一般社団法人高岡市造園土木協会,,その他の設立登記法人,富山県,高岡市,博労本町１番１４号,,16,202,9330935,,,,,,,2023-09-22,1,,,,,タカオカシゾウエンドボクキョウカイ,0
969,4240001062160,新規,0,2023-09-22,2023-09-22,金子サービス株式会社,,株式会社,広島県,広島市安芸区,瀬野西５丁目２２番２３号,,34,107,7390313,,,,,,,2023-09-22,1,,,,,,0
987,4290003014378,新規,0,2023-09-22,2023-09-22,合同会社脱炭素マーケティング１０号,,合同会社,福岡県,福岡市中央区,舞鶴２丁目２番７号２Ａ,,40,133,8100073,,,,,,,2023-09-22,1,,,,,ダツタンソマーケティングジュウゴウ,0
990,4290803004504,新規,0,2023-09-22,2023-09-22,九州クリエイト合同会社,,合同会社,福岡県,北九州市小倉南区,星和台１丁目１３番１９号,,40,107,8020973,,,,,,,2023-09-22,1,,,,,キュウシュウクリエイト,0
992,4300003002026,新規,0,2023-09-22,2023-09-22,合同会社リファイン,,合同会社,佐賀県,杵島郡白石町,大字福田２２２７番地１,,41,425,8491112,,,,,,,2023-09-22,1,,,,,リファイン,0
1004,4350001018572,新規,0,2023-09-22,2023-09-22,株式会社Ｓ’ＩＳＭ,,株式会社,宮崎県,宮崎市,大字島之内５６２１番地８,,45,201,8800121,,,,,,,2023-09-22,1,,,,,エスイズム,0
1016,4370001050433,新規,0,2023-09-22,2023-09-22,株式会社アーツ,,株式会社,宮城県,大崎市,鹿島台平渡字庄兵衛３８番地１－１０３,,04,215,9894103,,,,,,,2023-09-22,1,,,,,アーツ,0
1021,4390003002141,新規,0,2023-09-22,2023-09-22,合同会社ハイペリオン,,合同会社,山形県,南陽市,宮内２８３３番地の１０３,,06,213,9920472,,,,,,,2023-09-22,1,,,,,ハイペリオン,0
1037,4700150120572,新規,0,2023-09-22,2023-09-22,ＵＲＢＡＮ　ＯＲＣＨＡＲＤ　ＰＴＹ　ＬＴＤ,,外国会社等,,,,,,,,オーストラリア連邦西オーストラリア州ノースフリーマントル、コークヒルストリート１ユニット５０,,,,,,2023-09-22,1,,,,,アーバンオーチヤードピーテイーワイリミテツド,0
1038,4700150120606,新規,0,2023-09-22,2023-09-22,東京都瓦工事業組合青年部連合会,,その他,東京都,千代田区,飯田橋１丁目７－１１ダン・リーガルビル３階,,13,101,1020072,,,,,,,2023-09-22,1,,,,,トウキョウトカワラコウジギョウクミアイセイネンブレンゴウカイ,0
1039,4700150120614,新規,0,2023-09-22,2023-09-22,ＳＨＥＮＺＨＥＮＪＵＮＳＨＵＮＤＩＡＮＺＩ　ＹＯＵＸＩＡＮＧＯＧＮＳＩ,,外国会社等,,,,,,,,ｃａｉｔｉａｎｌｕ２００８ｈａｏｒｕｎｈｅｎｇｄａｘｉａ２７０１ｆｕｔｉａｎｊｉｅｄａｏｆｕｓｈａｎｓｈｅｑｕ　ｓｈｅｎｚｈｅｎ　ｆｕｔｉａｎｑｕ,,,,,,2023-09-22,1,,,,,シンセンジュンスンデンシユウゲンコウシ,0
1048,5010001238641,新規,0,2023-09-22,2023-09-22,株式会社ＷＯＲＬＤ　ＤＥＳＩＧＮＥＲＳ,,株式会社,東京都,中央区,日本橋室町１丁目１１番１２号,,13,102,1030022,,,,,,,2023-09-22,1,,,,,ワールドデザイナーズ,0
1049,5010001238682,新規,0,2023-09-22,2023-09-22,ダックスオフィスパートナーズ株式会社,,株式会社,東京都,中央区,日本橋３丁目２番１４号,,13,102,1030027,,,,,,,2023-09-22,1,,,,,ダックスオフィスパートナーズ,0
1050,5010001238708,新規,0,2023-09-22,2023-09-22,株式会社ボイクス,,株式会社,東京都,中央区,銀座７丁目１２番４－３０２号,,13,102,1040061,,,,,,,2023-09-22,1,,,,,ボイクス,0
1055,5010003041721,新規,0,2023-09-22,2023-09-22,Ｎ‐ＳＭＹインベストメント合同会社,,合同会社,東京都,千代田区,大手町２丁目２番２号アーバンネット大手町ビル,,13,101,1000004,,,,,,,2023-09-22,1,,,,,エヌエスエムワイインベストメント,0
1057,5010005037305,新規,0,2023-09-22,2023-09-22,一般社団法人ＯＭ伏見,,その他の設立登記法人,東京都,中央区,日本橋１丁目４番１号日本橋一丁目ビルディング,,13,102,1030027,,,,,,,2023-09-22,1,,,,,オーエムフシミ,0
1063,5010401177233,新規,0,2023-09-22,2023-09-22,株式会社ＳＨＥ’Ｅ,,株式会社,東京都,港区,芝浦４丁目１５番１号,,13,103,1080023,,,,,,,2023-09-22,1,,,,,シー,0
1064,5010401177241,新規,0,2023-09-22,2023-09-22,スペースクラフト＆アイ株式会社,,株式会社,東京都,港区,南青山３丁目１番３１号,,13,103,1070062,,,,,,,2023-09-22,1,,,,,スペースクラフトアンドアイ,0
1067,5010403030976,新規,0,2023-09-22,2023-09-22,ＡＴＳ合同会社,,合同会社,東京都,港区,北青山１丁目３－１アールキューブ青山３Ｆ,,13,103,1070061,,,,,,,2023-09-22,1,,,,,エーティエス,0
1070,5010501051081,新規,0,2023-09-22,2023-09-22,翠竹株式会社,,株式会社,東京都,台東区,浅草橋３丁目３１番１号,,13,106,1110053,,,,,,,2023-09-22,1,,,,,スイチク,0
1072,5010601063828,新規,0,2023-09-22,2023-09-22,秦和株式会社,,株式会社,東京都,江東区,亀戸４丁目４９番１３－１階,,13,108,1360071,,,,,,,2023-09-22,1,,,,,シンワ,0
1075,5010703006841,新規,0,2023-09-22,2023-09-22,合同会社ゼンツ,,合同会社,東京都,品川区,東大井２丁目２１番８―３０１号,,13,109,1400011,,,,,,,2023-09-22,1,,,,,ゼンツ,0
1076,5010803004687,新規,0,2023-09-22,2023-09-22,合同会社豊松物産,,合同会社,東京都,大田区,仲池上１丁目１２番２号昌栄ハイム２０５号室,,13,111,1460081,,,,,,,2023-09-22,1,,,,,ホウショウブッサン,0
1083,5011005010219,新規,0,2023-09-22,2023-09-22,一般社団法人森野会計事務所,,その他の設立登記法人,東京都,渋谷区,渋谷３丁目１３番９号８Ｆ,,13,113,1500002,,,,,,,2023-09-22,1,,,,,,0
1087,5011103013511,新規,0,2023-09-22,2023-09-22,合同会社Ａｓｈ,,合同会社,東京都,新宿区,西新宿３丁目９番７号フロンティア新宿タワー２４０９号室,,13,104,1600023,,,,,,,2023-09-22,1,,,,,,0
1089,5011303004913,新規,0,2023-09-22,2023-09-22,合同会社夢工房,,合同会社,東京都,杉並区,浜田山１丁目２番３号,,13,115,1680065,,,,,,,2023-09-22,1,,,,,ユメコウボウ,0
1090,5011501029786,新規,0,2023-09-22,2023-09-22,ＷＬ株式会社,,株式会社,東京都,荒川区,荒川１丁目５２－３,,13,118,1160002,,,,,,,2023-09-22,1,,,,,ダブルエル,0
1091,5011503005769,新規,0,2023-09-22,2023-09-22,合同会社サクセス,,合同会社,東京都,荒川区,荒川３丁目４－６,,13,118,1160002,,,,,,,2023-09-22,1,,,,,サクセス,0
1093,5011601027137,新規,0,2023-09-22,2023-09-22,株式会社カッパ大帝國,,株式会社,東京都,練馬区,高松１丁目３０番９号グレースコート高松２１５,,13,120,1790075,,,,,,,2023-09-22,1,,,,,カッパダイテイコク,0
1095,5011801043066,新規,0,2023-09-22,2023-09-22,株式会社ＪｕｎＣｔｉｏＮ,,株式会社,東京都,足立区,千住寿町２６番１２号,,13,121,1200033,,,,,,,2023-09-22,1,,,,,ジャンクション,0
1099,5012401041022,新規,0,2023-09-22,2023-09-22,ｋ．ａ．ｔ．株式会社,,株式会社,東京都,調布市,入間町１丁目４０番地３０セボン成城１０６,,13,208,1820004,,,,,,,2023-09-22,1,,,,,ケイエイティ,0
1103,5012703002795,新規,0,2023-09-22,2023-09-22,合同会社縁筆,,合同会社,東京都,小平市,天神町２丁目１２－２５,,13,211,1870004,,,,,,,2023-09-22,1,,,,,エンピツ,0
1104,5012801022638,新規,0,2023-09-22,2023-09-22,株式会社Ｂ‐ＳＴＹＬＥ,,株式会社,東京都,立川市,砂川町８丁目７５番地の９,,13,202,1900031,,,,,,,2023-09-22,1,,,,,ビースタイル,0
1105,5013101009251,新規,0,2023-09-22,2023-09-22,株式会社ＳＨＩＦＴ　ＲＣ,,株式会社,東京都,あきる野市,入野２７０番地６,,13,228,1900161,,,,,,,2023-09-22,1,,,,,シフトアールシー,0
1111,5020001153600,新規,0,2023-09-22,2023-09-22,株式会社想花,,株式会社,神奈川県,横浜市旭区,本宿町５７－１ベルハイツＢ１０１,,14,112,2410023,,,,,,,2023-09-22,1,,,,,オモイバナ,0
1116,5021001080223,新規,0,2023-09-22,2023-09-22,株式会社Ｇｌａｎｚ　Ｗｏｒｋｓ,,株式会社,神奈川県,厚木市,下依知２丁目３番３号,,14,212,2430806,,,,,,,2023-09-22,1,,,,,グランツワークス,0
1117,5021001080256,新規,0,2023-09-22,2023-09-22,株式会社ワンエイト,,株式会社,神奈川県,相模原市南区,若松２丁目９番４号シャインウェーブ１０２,,14,153,2520334,,,,,,,2023-09-22,1,,,,,ワンエイト,0
1120,5021003013593,新規,0,2023-09-22,2023-09-22,合同会社ジーズバンク,,合同会社,神奈川県,小田原市,栄町２丁目１２番１０号ＳｑｕａｒｅＯ２・１階,,14,206,2500011,,,,,,,2023-09-22,1,,,,,ジーズバンク,0
1121,5021003013602,新規,0,2023-09-22,2023-09-22,合同会社ＯＩＳＯ１８６０,,合同会社,神奈川県,中郡大磯町,大磯１８６０番地１,,14,341,2550003,,,,,,,2023-09-22,1,,,,,オオイソイチハチロクマル,0
1130,5030001156057,新規,0,2023-09-22,2023-09-22,株式会社ＣＨＩＥＮＯＷＡ,,株式会社,埼玉県,朝霞市,本町２丁目４番２４号,,11,227,3510011,,,,,,,2023-09-22,1,,,,,チエノワ,0
1131,5030001156107,新規,0,2023-09-22,2023-09-22,株式会社渡辺気制,,株式会社,埼玉県,北葛飾郡杉戸町,倉松５丁目７番１８号,,11,464,3450034,,,,,,,2023-09-22,1,,,,,ワタナベキセイ,0
1140,5040001130168,新規,0,2023-09-22,2023-09-22,Ｓ＆Ｓ　ＥＮＴＥＲＰＲＩＳＥＳ株式会社,,株式会社,千葉県,柏市,手賀１４２５－１,,12,217,2701465,,,,,,,2023-09-22,1,,,,,エスアンドエスエンタープライセス,0
1141,5040001130184,新規,0,2023-09-22,2023-09-22,株式会社ＬＩＦＩＸ,,株式会社,千葉県,千葉市美浜区,幕張西１丁目１番２３号プレシス幕張本郷９０１号,,12,106,2610026,,,,,,,2023-09-22,1,,,,,リフィックス,0
1142,5040003023378,新規,0,2023-09-22,2023-09-22,合同会社ジャン,,合同会社,千葉県,浦安市,堀江５丁目１６番２４号コーポ武井（２０２）,,12,227,2790041,,,,,,,2023-09-22,1,,,,,ジャン,0
1154,5080001025868,新規,0,2023-09-22,2023-09-22,株式会社ＣＩＥＬＯ　ｂｅａｕｔｙ,,株式会社,静岡県,静岡市葵区,与左衛門新田３９番地の４,,22,101,4212115,,,,,,,2023-09-22,1,,,,,シエロビューティー,0
1159,5080401026739,新規,0,2023-09-22,2023-09-22,株式会社くめた農園,,株式会社,静岡県,掛川市,上西郷７６８番地の１,,22,213,4360342,,,,,,,2023-09-22,1,,,,,クメタノウエン,0
1160,5080401026747,新規,0,2023-09-22,2023-09-22,株式会社Ｇ３,,株式会社,静岡県,浜松市東区,笠井新田町１１４３番地,,22,132,4313105,,,,,,,2023-09-22,1,,,,,ジースリー,0
1161,5080403004866,新規,0,2023-09-22,2023-09-22,合同会社Ｔ’ｓ,,合同会社,静岡県,浜松市南区,若林町１３１０－４,,22,134,4328051,,,,,,,2023-09-22,1,,,,,ティーズ,0
1162,5090005007589,新規,0,2023-09-22,2023-09-22,土地家屋調査士法人アトラス,,その他の設立登記法人,山梨県,南都留郡富士河口湖町,小立３８７６番地,,19,430,4010302,,,,,,,2023-09-22,1,,,,,アトラス,0
1163,5100001036805,新規,0,2023-09-22,2023-09-22,株式会社ｉｎｆｉｔ,,株式会社,長野県,長野市,三輪１丁目１番１２－８０１号ポレスター三輪セントラルレジデンス,,20,201,3800803,,,,,,,2023-09-22,1,,,,,インフィット,0
1186,5120001258059,新規,0,2023-09-22,2023-09-22,世嘉知庫株式会社,,株式会社,大阪府,大阪市都島区,東野田町１丁目２１－８都島エンビィハイム２０１号室,,27,102,5340024,,,,,,,2023-09-22,1,,,,,ヨカチコ,0
1187,5120001258133,新規,0,2023-09-22,2023-09-22,ＯＣＥＡＮ　ＤＥＳＩＧＮ株式会社,,株式会社,大阪府,大阪市住吉区,遠里小野６丁目１７－１８プロスピロティー住吉３０３号,,27,120,5580032,,,,,,,2023-09-22,1,,,,,オーシャンデザイン,0
1188,5120001258141,新規,0,2023-09-22,2023-09-22,ＴＵＭＵＧＩ株式会社,,株式会社,大阪府,守口市,東郷通１丁目６番１３号,,27,209,5700041,,,,,,,2023-09-22,1,,,,,ツムギ,0
1189,5120001258174,新規,0,2023-09-22,2023-09-22,ＹＯＲＯＫＯＢＩ株式会社,,株式会社,大阪府,大阪市住之江区,南加賀屋３丁目８番２６号Ｙ．Ｓ．ビル６階,,27,125,5590015,,,,,,,2023-09-22,1,,,,,ヨロコビ,0
1190,5120001258208,新規,0,2023-09-22,2023-09-22,株式会社ＭＡＳＨ　ＷＯＲＫＳ,,株式会社,大阪府,大阪市西区,新町１丁目３３番１１号藤和新町コープ６０３号,,27,106,5500013,,,,,,,2023-09-22,1,,,,,マッシュワークス,0
1191,5120001258224,新規,0,2023-09-22,2023-09-22,Ｎｅａｌｔｈｙ株式会社,,株式会社,大阪府,大阪市北区,豊崎３丁目１６番１６－５０９号,,27,127,5310072,,,,,,,2023-09-22,1,,,,,ネルシー,0
1194,5120003024863,新規,0,2023-09-22,2023-09-22,Ｋ‐ＬＩＮＥ合同会社,,合同会社,大阪府,大阪市浪速区,恵美須西１丁目４－１３－６０２,,27,111,5560003,,,,,,,2023-09-22,1,,,,,ケーライン,0
1195,5120003024896,新規,0,2023-09-22,2023-09-22,于楽合同会社,,合同会社,大阪府,大阪市住吉区,長居東４丁目１５－２１－４０５,,27,120,5580004,,,,,,,2023-09-22,1,,,,,ウラク,0
1197,5120101068242,新規,0,2023-09-22,2023-09-22,株式会社スペース,,株式会社,大阪府,泉佐野市,鶴原１２０５番地,,27,213,5980071,,,,,,,2023-09-22,1,,,,,スペース,0
1199,5120103005441,新規,0,2023-09-22,2023-09-22,カイト合同会社,,合同会社,大阪府,松原市,高見の里５丁目４９５メゾン川口１０５,,27,217,5800021,,,,,,,2023-09-22,1,,,,,カイト,0
1205,5130001075271,新規,0,2023-09-22,2023-09-22,株式会社ＮＥＸＴＯＮＥ,,株式会社,京都府,京都市伏見区,中島前山町２２番地,,26,109,6128464,,,,,,,2023-09-22,1,,,,,ネクストワン,0
1207,5140001131684,新規,0,2023-09-22,2023-09-22,株式会社Ｓｍｉｌｅ　Ｄａｙｓ,,株式会社,兵庫県,神戸市垂水区,小束山本町３丁目１番１－２０１号,,28,108,6550003,,,,,,,2023-09-22,1,,,,,スマイルデイズ,0
1208,5140001131726,新規,0,2023-09-22,2023-09-22,株式会社ＳＵＣＲＥＲ,,株式会社,兵庫県,神戸市中央区,雲井通４丁目１－１１、１０１号,,28,110,6510096,,,,,,,2023-09-22,1,,,,,シュクレ,0
1209,5140005026749,新規,0,2023-09-22,2023-09-22,一般社団法人あおぞら,,その他の設立登記法人,兵庫県,丹波市,青垣町東芦田９８１番地,,28,223,6693801,,,,,,,2023-09-22,1,,,,,アオゾラ,0
1211,5150003003071,新規,0,2023-09-22,2023-09-22,シカジロウ合同会社,,合同会社,奈良県,奈良市,学園大和町５丁目７０９番地の９８,,29,201,6310041,,,,,,,2023-09-22,1,,,,,シカジロウ,0
1215,5160003002980,新規,0,2023-09-22,2023-09-22,合同会社浅井の農家たかぎし,,合同会社,滋賀県,長浜市,八島町８７１番地,,25,203,5260252,,,,,,,2023-09-22,1,,,,,アザイノノウカタカギシ,0
1228,5180303005839,新規,0,2023-09-22,2023-09-22,合同会社ストーリークラフト,,合同会社,愛知県,岡崎市,井田町字茨坪３４番地７３６,,23,202,4440077,,,,,,,2023-09-22,1,,,,,ストーリークラフト,0
1245,5290001103099,新規,0,2023-09-22,2023-09-22,株式会社ワタナベ,,株式会社,福岡県,飯塚市,平恒９５２番地１１,,40,205,8200073,,,,,,,2023-09-22,1,,,,,ワタナベ,0
1261,5330003009983,新規,0,2023-09-22,2023-09-22,合同会社ぴえん,,合同会社,熊本県,熊本市中央区,花畑町１０－１８花畑プラネットビル２Ｆ,,43,101,8600806,,,,,,,2023-09-22,1,,,,,ピエン,0
1263,5340001025882,新規,0,2023-09-22,2023-09-22,株式会社Ｒｉｍｅファシリティ,,株式会社,鹿児島県,伊佐市,大口里２９７３番地２,,46,224,8952511,,,,,,,2023-09-22,1,,,,,ライムファシリティ,0
1264,5340001025916,新規,0,2023-09-22,2023-09-22,株式会社Ｎａｌｕ,,株式会社,鹿児島県,鹿児島市,東千石町８番５号,,46,201,8920842,,,,,,,2023-09-22,1,,,,,ナル,0
1268,5370001050432,新規,0,2023-09-22,2023-09-22,デスクキューブ株式会社,,株式会社,宮城県,仙台市太白区,袋原４丁目２番２６号,,04,104,9811102,,,,,,,2023-09-22,1,,,,,デスクキューブ,0
1269,5370001050440,新規,0,2023-09-22,2023-09-22,株式会社伏見建設,,株式会社,宮城県,仙台市宮城野区,蒲生１丁目１１４番地の３サンコート鈴富Ｂ１０２,,04,102,9830002,,,,,,,2023-09-22,1,,,,,フシミケンセツ,0
1280,5410003003846,新規,0,2023-09-22,2023-09-22,合同会社本間設備,,合同会社,秋田県,仙北郡美郷町,畑屋字前田３３番地,,05,434,0191531,,,,,,,2023-09-22,1,,,,,ホンマセツビ,0
1291,5490003001818,新規,0,2023-09-22,2023-09-22,合同会社ホームアシストこうち,,合同会社,高知県,宿毛市,桜町１番１号,,39,208,7880006,,,,,,,2023-09-22,1,,,,,ホームアシストコウチ,0
1293,5700150118517,新規,0,2023-09-22,2023-09-22,Ｋｏｎｇ　Ｈｏｎｇ　Ｆａｍｏｕｓ　Ｔｒａｄｉｎｇ　Ｃｏｍｐａｎｙ　Ｌｉｍｉｔｅｄ,,外国会社等,,,,,,,,ＯＦＦＩＣＥ　５，８／Ｆ　ＭＥＧＡ　ＣＵＢＥ，８　ＷＡＮＧ　ＫＷＯＮＧ　ＲＯＡＤ，ＫＯＷＬＯＯＮ　ＢＡＹ　ＫＯＷＬＯＯＮ　ＨＯＮＧ　ＫＯＮＧ,,,,,,2023-09-22,1,,,,,ホンコンフェイマストレーディングカンパニーリミテッド,0
1294,5700150120571,新規,0,2023-09-22,2023-09-22,ｄｅｎｇｚｈｏｕｓｈｉｃｈａｎｇｃｈａｎｇｈａｎｇｈａｎｇｓｈａｎｇｍａｏ　ｙｏｕｘｉａｎｇｏｎｇｓｉ,,外国会社等,,,,,,,,ｈｅｎａｎｓｈｅｎｇ　ｎａｎｙａｎｇｓｈｉ　ｄｅｎｇｚｈｏｕｓｈｉ　ｒａｎｇｄｏｎｇｚｈｅｎｒａｎｇｄｏｎｇｊｕｗｅｉｈｕｉｒａｎｇｄｏｎｇ２６１ｈａｏ　Ｃｈｉｎａ,,,,,,2023-09-22,1,,,,,トウシュウシチャンチャンハンハンシャンマオユウゲンコウシ,0
1295,5700150120588,新規,0,2023-09-22,2023-09-22,岡山市表町一丁目１番地区市街地再開発組合,,その他,岡山県,岡山市北区,表町１丁目１番２号,,33,101,7000822,,,,,,,2023-09-22,1,,,,,オカヤマシオモテチヨウイツチヨウメイチバンチクシガイチサイカイハツクミアイ,0
1296,5700150120605,新規,0,2023-09-22,2023-09-22,東京都瓦工事業組合連合会,,その他,東京都,千代田区,飯田橋１丁目７－１１ダン・リーガルビル３階,,13,101,1020072,,,,,,,2023-09-22,1,,,,,トウキョウトカワラコウジギョウクミアイレンゴウカイ,0
1297,5700150120613,新規,0,2023-09-22,2023-09-22,ｓｈｅｎｚｈｅｎｓｈｉｈｅｃｈｕａｎｇｙｉｐｉｎｋｅｊｉ　ｙｏｕｘｉａｎｇｏｎｇｓｉ,,外国会社等,,,,,,,,Ｒｏｏｍ　１０４，Ｎｏ．３７，Ｅｒｐａｉ　Ｎｅｗ　Ｖｉｌｌａｇｅ，Ｘｉａｃｕｎ　Ｃｏｍｍｕｎｉｔｙ，Ｇｏｎｇｍｉｎｇ　Ｓｔｒｅｅｔ，Ｇｕａｎｇｍｉｎｇ　Ｄｉｓｔｒｉｃｔ，Ｓｈｅｎｚｈｅｎ　Ｃｉｔｙ,,,,,,2023-09-22,1,,,,,シンセンシヘチワンイピンカギユウゲンコウシ,0
1302,6010001238624,新規,0,2023-09-22,2023-09-22,樹心ＦＰコンサルタント株式会社,,株式会社,東京都,千代田区,神田淡路町１丁目９番地５天翔御茶ノ水ビル２１１,,13,101,1010063,,,,,,,2023-09-22,1,,,,,ジュシンエフピーコンサルタント,0
1303,6010001238673,新規,0,2023-09-22,2023-09-22,Ｃｏｌｌｅｃｔｉｖｅ　Ｓｏｕｌｓ株式会社,,株式会社,東京都,中央区,日本橋兜町１７－２兜町第６葉山ビル４Ｆ,,13,102,1030026,,,,,,,2023-09-22,1,,,,,コレクティブソウルズ,0
1304,6010001238707,新規,0,2023-09-22,2023-09-22,フーズイノベーション株式会社,,株式会社,東京都,中央区,日本橋茅場町１丁目１２－６ＦＦ日本橋茅場町ビル地下１階,,13,102,1030025,,,,,,,2023-09-22,1,,,,,フーズイノベーション,0
1307,6010003041695,新規,0,2023-09-22,2023-09-22,Ｂｅｓｔ　Ｂｒｉｌｌａｎｚ合同会社,,合同会社,東京都,中央区,銀座６丁目１０番１号１３Ｆ,,13,102,1040061,,,,,,,2023-09-22,1,,,,,ベストブリランツ,0
1308,6010003041720,新規,0,2023-09-22,2023-09-22,Ｓｏｎｎｅｎｂｌｕｍｅ第四発電所合同会社,,合同会社,東京都,文京区,本郷５丁目３３番１０号,,13,105,1130033,,,,,,,2023-09-22,1,,,,,ゾーネンブルーメダイヨンハツデンショ,0
1309,6010003041737,新規,0,2023-09-22,2023-09-22,ロンビージャパン合同会社,,合同会社,東京都,千代田区,岩本町２丁目４番３号,,13,101,1010032,,,,,,,2023-09-22,1,,,,,ロンビージャパン,0
1319,6010401177265,新規,0,2023-09-22,2023-09-22,株式会社きぼうびん,,株式会社,東京都,港区,浜松町２丁目２番１５号浜松町ダイヤビル２Ｆ,,13,103,1050013,,,,,,,2023-09-22,1,,,,,キボウビン,0
1321,6010405022483,新規,0,2023-09-22,2023-09-22,一般社団法人日本空気と水の衛生推進機構,,その他の設立登記法人,東京都,港区,新橋２丁目９番１６号,,13,103,1050004,,,,,,,2023-09-22,1,,,,,ニホンクウキトミズノエイセイスイシンキコウ,0
1322,6010405022525,新規,0,2023-09-22,2023-09-22,一般社団法人ガラス再資源化協議会,,その他の設立登記法人,東京都,港区,六本木３丁目４番２４号六本木足立ビル２０３号,,13,103,1060032,,,,,,,2023-09-22,1,,,,,ガラスサイシゲンカキョウギカイ,0
1327,6010501051080,新規,0,2023-09-22,2023-09-22,新未来建装株式会社,,株式会社,東京都,台東区,清川１丁目２４番２号尾谷ビル２Ｆ,,13,106,1110022,,,,,,,2023-09-22,1,,,,,シンミライケンソウ,0
1328,6010501051097,新規,0,2023-09-22,2023-09-22,サイドマウンテン株式会社,,株式会社,東京都,台東区,蔵前３丁目１２番８号,,13,106,1110051,,,,,,,2023-09-22,1,,,,,サイドマウンテン,0
1329,6010501051106,新規,0,2023-09-22,2023-09-22,スカイロケットカンパニー株式会社,,株式会社,東京都,台東区,竜泉２丁目７番７－１７１０号東京ビューマークス,,13,106,1100012,,,,,,,2023-09-22,1,,,,,スカイロケットカンパニー,0
1330,6010601063802,新規,0,2023-09-22,2023-09-22,和栄興産株式会社,,株式会社,東京都,墨田区,向島４丁目１番１－３０１号,,13,107,1310033,,,,,,,2023-09-22,1,,,,,,0
1331,6010601063819,新規,0,2023-09-22,2023-09-22,アイカ株式会社,,株式会社,東京都,江東区,亀戸１丁目３９－１ハピーハイツ７０４,,13,108,1360071,,,,,,,2023-09-22,1,,,,,アイカ,0
1333,6010603010372,新規,0,2023-09-22,2023-09-22,７１．５ＪＡＰＡＮ合同会社,,合同会社,東京都,江東区,亀戸６丁目１７番２号５階,,13,108,1360071,,,,,,,2023-09-22,1,,,,,ナナジュウイチテンゴジャパン,0
1337,6010701044883,新規,0,2023-09-22,2023-09-22,株式会社豊和,,株式会社,東京都,品川区,旗の台３丁目１５番１－３１３号,,13,109,1420064,,,,,,,2023-09-22,1,,,,,ホウワ,0
1338,6010703006865,新規,0,2023-09-22,2023-09-22,合同会社ＮｏｒｔｈＴｏＳｏｕｔｈ,,合同会社,東京都,品川区,西五反田５丁目２３－１１,,13,109,1410031,,,,,,,2023-09-22,1,,,,,ノーストゥサウス,0
1341,6010901053858,新規,0,2023-09-22,2023-09-22,株式会社世田谷商会,,株式会社,東京都,世田谷区,大原２丁目１７番６号,,13,112,1560041,,,,,,,2023-09-22,1,,,,,セタガヤショウカイ,0
1346,6011001157013,新規,0,2023-09-22,2023-09-22,株式会社こけし,,株式会社,東京都,渋谷区,神宮前２丁目３０－５－２０６,,13,113,1500001,,,,,,,2023-09-22,1,,,,,コケシ,0
1350,6011103013510,新規,0,2023-09-22,2023-09-22,合同会社ＱＡＴ,,合同会社,東京都,新宿区,新宿３丁目３４番１３号三経２５ビル４階,,13,104,1600022,,,,,,,2023-09-22,1,,,,,キューエーティー,0
1351,6011201024913,新規,0,2023-09-22,2023-09-22,ＬＲＺ株式会社,,株式会社,東京都,中野区,弥生町６丁目１２番３号,,13,114,1640013,,,,,,,2023-09-22,1,,,,,エルアールゼット,0
1353,6011301029028,新規,0,2023-09-22,2023-09-22,ＷＥＬＬＴＥＣ株式会社,,株式会社,東京都,杉並区,上井草２丁目２０番２号,,13,115,1670023,,,,,,,2023-09-22,1,,,,,ウェルテック,0
1355,6011303004912,新規,0,2023-09-22,2023-09-22,合同会社オフィスはじめ,,合同会社,東京都,杉並区,成田西１丁目２１番３号プルミエ浜田山１０１,,13,115,1660016,,,,,,,2023-09-22,1,,,,,オフィスハジメ,0
1359,6011403004119,新規,0,2023-09-22,2023-09-22,合同会社ＮＥＸ’ＳＭＡ,,合同会社,東京都,板橋区,赤塚６丁目３９番２１号ラメールオプランタン３０１,,13,119,1750092,,,,,,,2023-09-22,1,,,,,ネクスマ,0
1360,6011501029802,新規,0,2023-09-22,2023-09-22,株式会社Ｔｗｅｌｖｅ　Ａｘｉｓ,,株式会社,東京都,北区,赤羽台２丁目３番５号棟３０２号室,,13,117,1150053,,,,,,,2023-09-22,1,,,,,トゥエルブアクシス,0
1361,6011503005768,新規,0,2023-09-22,2023-09-22,ジェイパック合同会社,,合同会社,東京都,荒川区,東日暮里２丁目１２番１０号,,13,118,1160014,,,,,,,2023-09-22,1,,,,,ジェイパック,0
1367,6011801042777,新規,0,2023-09-22,2023-09-22,株式会社メイク,,株式会社,東京都,葛飾区,東金町６丁目１８番１９号,,13,122,1250041,,,,,,,2023-09-22,1,,,,,メイク,0
1368,6011801043065,新規,0,2023-09-22,2023-09-22,株式会社アルメール,,株式会社,東京都,足立区,綾瀬６丁目３１番１２号,,13,121,1200005,,,,,,,2023-09-22,1,,,,,アルメール,0
1378,6020001153599,新規,0,2023-09-22,2023-09-22,株式会社Ｃｈａｉｎ　Ｏｆ　Ｈａｐｐｉｎｅｓｓ,,株式会社,神奈川県,川崎市麻生区,白山４丁目１番３号新ゆりグリーンプラザ商店街２２号,,14,137,2150014,,,,,,,2023-09-22,1,,,,,チェインオブハピネス,0
1383,6021001080239,新規,0,2023-09-22,2023-09-22,Ｇｏｌｄ　Ｗｅｌｌ株式会社,,株式会社,神奈川県,相模原市南区,当麻２３１８番地,,14,153,2520336,,,,,,,2023-09-22,1,,,,,ゴールドウェル,0
1384,6021003013592,新規,0,2023-09-22,2023-09-22,Ｐｏｌａｒｉｓｔｕｒｅ合同会社,,合同会社,神奈川県,藤沢市,打戻２７８１番地の２,,14,205,2520824,,,,,,,2023-09-22,1,,,,,ポラリスチャー,0
1390,6030001155818,新規,0,2023-09-22,2023-09-22,山井国際株式会社,,株式会社,埼玉県,川越市,今成２丁目１－２３,,11,201,3501105,,,,,,,2023-09-22,1,,,,,ヤマイコクサイ,0
1391,6030001155999,新規,0,2023-09-22,2023-09-22,株式会社ｏｆｆｉｃｅ‐ｉｎｎｏｖａｔｉｏｎ,,株式会社,埼玉県,新座市,栗原４丁目９番４号,,11,230,3520035,,,,,,,2023-09-22,1,,,,,オフィスイノベーション,0
1392,6030001156106,新規,0,2023-09-22,2023-09-22,株式会社高橋興業,00131997,株式会社,埼玉県,川口市,大字峯９０１番地和幸ビル３０６,,11,203,3340056,,,,,,,2023-09-22,1,,,,,タカハシコウギョウ,0
1393,6030001156205,新規,0,2023-09-22,2023-09-22,株式会社Ｄｉｘ,,株式会社,埼玉県,草加市,吉町３丁目６番４６－３０５号,,11,221,3400017,,,,,,,2023-09-22,1,,,,,ディックス,0
1401,6030003022487,新規,0,2023-09-22,2023-09-22,合同会社ＪＡＮＰ,,合同会社,埼玉県,川越市,脇田町１６番地１３,,11,201,3501122,,,,,,,2023-09-22,1,,,,,ジャンプ,0
1403,6030005021388,新規,0,2023-09-22,2023-09-22,一般社団法人イーシェイプ,,その他の設立登記法人,埼玉県,川口市,戸塚６丁目１１番２３号梅の木ハウス１０１,,11,203,3330811,,,,,,,2023-09-22,1,,,,,イーシェイプ,0
1410,6040001130159,新規,0,2023-09-22,2023-09-22,株式会社Ｕ＆Ｋ,,株式会社,千葉県,船橋市,習志野台８丁目３２番１８－１号,,12,204,2740063,,,,,,,2023-09-22,1,,,,,ユーアンドケー,0
1419,6050001053516,新規,0,2023-09-22,2023-09-22,株式会社ＢＥＡＮＳ,,株式会社,茨城県,高萩市,東本町４丁目７４番地の５,,08,214,3180014,,,,,,,2023-09-22,1,,,,,ビーンズ,0
1421,6070001040891,新規,0,2023-09-22,2023-09-22,株式会社ｍｒ２,,株式会社,群馬県,高崎市,柴崎町１１６９番地,,10,202,3700035,,,,,,,2023-09-22,1,,,,,エムアールツー,0
1425,6080001025867,新規,0,2023-09-22,2023-09-22,株式会社Ｐａｎｇａｅａ,,株式会社,静岡県,静岡市葵区,両替町２丁目６番地の２,,22,101,4200032,,,,,,,2023-09-22,1,,,,,パンゲア,0
1426,6080401026746,新規,0,2023-09-22,2023-09-22,株式会社テイケン,,株式会社,静岡県,浜松市南区,倉松町１５１６番地の２,,22,134,4328064,,,,,,,2023-09-22,1,,,,,テイケン,0
1444,6120003024904,新規,0,2023-09-22,2023-09-22,デビッド合同会社,,合同会社,大阪府,大阪市港区,市岡元町１丁目６－１１フレンドリー一番館３０５号室,,27,107,5520002,,,,,,,2023-09-22,1,,,,,デビッド,0
1445,6120003024912,新規,0,2023-09-22,2023-09-22,合同会社ＺＴＮ,,合同会社,大阪府,大阪市淀川区,西中島６丁目６－６ＮＬＣ１１号館７階,,27,123,5320011,,,,,,,2023-09-22,1,,,,,ジトラネット,0
1446,6120003024929,新規,0,2023-09-22,2023-09-22,合同会社エル,,合同会社,大阪府,大阪市住吉区,苅田１０丁目８番３号,,27,120,5580011,,,,,,,2023-09-22,1,,,,,エル,0
1447,6120005023887,新規,0,2023-09-22,2023-09-22,一般社団法人ＫＹＯＵＪＯ福祉会,,その他の設立登記法人,大阪府,大阪市東淀川区,東中島１丁目１７番５－６１８号,,27,114,5330033,,,,,,,2023-09-22,1,,,,,キョウジョフクシカイ,0
1448,6120103005440,新規,0,2023-09-22,2023-09-22,合同会社ＴＴ　Ｌｉｅｎ,,合同会社,大阪府,堺市中区,堀上町１２７番地２グローリオス堀上１０６号,,27,142,5998261,,,,,,,2023-09-22,1,,,,,ティーティーリアン,0
1449,6120103005449,新規,0,2023-09-22,2023-09-22,合同会社Ａｚｉｚ　ｔｒａｄｉｎｇ,,合同会社,大阪府,富田林市,大字伏見堂７番地１,,27,214,5840055,,,,,,,2023-09-22,1,,,,,アジズトレーディング,0
1454,6130001075221,新規,0,2023-09-22,2023-09-22,株式会社日本メンテ十字舎,,株式会社,京都府,京田辺市,松井ケ丘３丁目４番地４,,26,211,6100353,,,,,,,2023-09-22,1,,,,,ニホンメンテジュウジシャ,0
1462,6140001131634,新規,0,2023-09-22,2023-09-22,株式会社有道理,,株式会社,兵庫県,赤穂市,加里屋中洲５丁目３３番地,,28,212,6780233,,,,,,,2023-09-22,1,,,,,ユウドウリ,0
1463,6140001131667,新規,0,2023-09-22,2023-09-22,Ｃｅｎｏｔｅ株式会社,,株式会社,兵庫県,西宮市,若草町２丁目１４番１５号,,28,204,6638181,,,,,,,2023-09-22,1,,,,,セノーテ,0
1464,6140001131683,新規,0,2023-09-22,2023-09-22,株式会社アシマヤ,,株式会社,兵庫県,川西市,東多田１丁目２５番１６号２０３,,28,217,6660122,,,,,,,2023-09-22,1,,,,,アシマヤ,0
1465,6140001131691,新規,0,2023-09-22,2023-09-22,Ｖａｌｕｅ　ｗａｙ株式会社,,株式会社,兵庫県,神戸市中央区,浪花町５６番地起業プラザひょうご内,,28,110,6500035,,,,,,,2023-09-22,1,,,,,バリューウェイ,0
1470,6160001025355,新規,0,2023-09-22,2023-09-22,小林国際貿易株式会社,,株式会社,滋賀県,野洲市,北野１丁目６番３号,,25,210,5202361,,,,,,,2023-09-22,1,,,,,コバヤシコクサイボウエキ,0
1474,6170001017789,新規,0,2023-09-22,2023-09-22,株式会社Ｈ＆Ｋ建設,,株式会社,和歌山県,岩出市,新田広芝４４２番地,,30,209,6496212,,,,,,,2023-09-22,1,,,,,エイチアンドケイケンセツ,0
1478,6180001158112,新規,0,2023-09-22,2023-09-22,株式会社ＡｍａＺｉｎｇ,,株式会社,愛知県,名古屋市東区,東大曽根町１６番１５号,,23,102,4610022,,,,,,,2023-09-22,1,,,,,アメイジング,0
1479,6180001158120,新規,0,2023-09-22,2023-09-22,株式会社スクリティオ,,株式会社,愛知県,名古屋市中村区,名駅５丁目３１番１０号リンクス名駅ビル５階,,23,105,4500002,,,,,,,2023-09-22,1,,,,,スクリティオ,0
1480,6180001158161,新規,0,2023-09-22,2023-09-22,株式会社ｌｅｆ,,株式会社,愛知県,海部郡大治町,大字西條字坂牧島１７番地の１,,23,424,4901144,,,,,,,2023-09-22,1,,,,,エルイーエフ,0
1486,6180003025772,新規,0,2023-09-22,2023-09-22,ＭＩＡ合同会社,,合同会社,愛知県,名古屋市東区,東桜２丁目３番７号（東カン名古屋キャステール９０８号）,,23,102,4610005,,,,,,,2023-09-22,1,,,,,ミア,0
1488,6180301037833,新規,0,2023-09-22,2023-09-22,株式会社達磨,,株式会社,愛知県,豊田市,平瀬町薬師前１４番地２１,,23,211,4443251,,,,,,,2023-09-22,1,,,,,ダルマ,0
1489,6190001030749,新規,0,2023-09-22,2023-09-22,株式会社ｇ‐ｅｉｍ,,株式会社,三重県,松阪市,立野町１３２９番地１９,,24,204,5150054,,,,,,,2023-09-22,1,,,,,ジーエイム,0
1492,6200001041752,新規,0,2023-09-22,2023-09-22,株式会社Ｙ・Ｇ,,株式会社,岐阜県,関市,栄町４丁目５番６０－２０５号,,21,205,5013253,,,,,,,2023-09-22,1,,,,,ワイジー,0
1495,6210005010109,新規,0,2023-09-22,2023-09-22,医療法人西ウイミンズクリニック,,その他の設立登記法人,福井県,福井市,木田２丁目２１０２番地,,18,201,9188105,,,,,,,2023-09-22,1,,,,,ニシウイミンズクリニック,0
1513,6290001103115,新規,0,2023-09-22,2023-09-22,株式会社サニーサイド,,株式会社,福岡県,福岡市南区,大橋３丁目５番１１－４０４号,,40,134,8150033,,,,,,,2023-09-22,1,,,,,サニーサイド,0
1520,6290801029889,新規,0,2023-09-22,2023-09-22,株式会社ＴＫＴ　ＬＡＢＯ,,株式会社,福岡県,北九州市戸畑区,中本町１０番１７－１３０６号,,40,105,8040061,,,,,,,2023-09-22,1,,,,,タクトラボ,0
1527,6310001018616,新規,0,2023-09-22,2023-09-22,酒舗ひらどご屋株式会社,,株式会社,長崎県,長崎市,平戸小屋町８番１２号,,42,201,8528006,,,,,,,2023-09-22,1,,,,,シュホヒラドゴヤ,0
1529,6320003004183,新規,0,2023-09-22,2023-09-22,合同会社ベルクロ,,合同会社,大分県,別府市,大字鶴見４５４８番地の１３３フローラ荘園２０５号,,44,202,8740840,,,,,,,2023-09-22,1,,,,,ベルクロ,0
1538,6360003013313,新規,0,2023-09-22,2023-09-22,合同会社原電設,,合同会社,沖縄県,那覇市,首里石嶺町２丁目５３番地７,,47,201,9030804,,,,,,,2023-09-22,1,,,,,ハラデンセツ,0
1561,6450001014097,新規,0,2023-09-22,2023-09-22,株式会社ＪＤＩ,,株式会社,北海道,旭川市,四条通６丁目３番地１２２第９中野プラザ１Ｆ,,01,204,0700034,,,,,,,2023-09-22,1,,,,,ジェイディーアイ,0
1562,6450003002389,新規,0,2023-09-22,2023-09-22,合同会社イッシン,,合同会社,北海道,上川郡当麻町,五条東３丁目９番１４号,,01,454,0781315,,,,,,,2023-09-22,1,,,,,イッシン,0
1566,6490001010596,新規,0,2023-09-22,2023-09-22,株式会社ユウショウ,,株式会社,高知県,高知市,一宮しなね１丁目８－１３－３,,39,201,7818131,,,,,,,2023-09-22,1,,,,,ユウショウ,0
1569,6700150118508,新規,0,2023-09-22,2023-09-22,ｇｕａｎｇｚｈｏｕｈｕｉｃｈｅｎｇｄｉａｎｚｉｓｈａｎｇｗｕｙｏｕｘｉａｎｇｏｎｇｓｉ,,外国会社等,,,,,,,,４０６　Ｆａｎｇ　４　Ｈａｏ　Ｊｉ　Ｃｈａｎｇ　Ｄｏｎｇ　Ｍｅｎ　Ｊｉｅ，Ｂａｉ　Ｙｕｎ　Ｑｕ　Ｇｕａｎｇ　Ｚｈｏｕ　Ｇｕａｎｇ　Ｄｏｎｇ　５１００００　ＣＮ,,,,,,2023-09-22,1,,,,,グァンジョウホイチョンディエンズーシャンウヨウシェンゴンス,0
1570,6700150120570,新規,0,2023-09-22,2023-09-22,ｗｅｎｚｈｏｕｄａｐｕｗｅｉｇｕｏｊｉｍａｏｙｉｙｏｕｘｉａｎｇｏｎｇｓｉ,,外国会社等,,,,,,,,Ｒｕｉａｎ　Ｔａｎｇｘｉａｚｈｅｎ　ｃｈｕａｎｇｒｕｎｊｉａｙｕａｎ　Ａ－１５０１　Ｗｅｎｚｈｏｕｓｈｉ　Ｚｈｅｊｉａｎｇ　Ｐｒｏｖｉｎｃｅ　３２５２０４　ＣＮ,,,,,,2023-09-22,1,,,,,ウェンジョウシダープーウェイグオジマオイーヨウシェンゴンスー,0
1571,6700150120604,新規,0,2023-09-22,2023-09-22,ｑｕａｎｚｈｏｕｍｅｉｊｉｍａｏｙｉｙｏｕｘｉａｎｇｏｎｇｓｉ,,外国会社等,,,,,,,,ｃｈｅｎｇ　ｘｉａｎｇ　ｚｈｅｎ　ｃｈａｎｇ　ａｎ　ｊｉｅ　１５　ｈａｏ　ｙｏｎｇ　ｌｏｎｇ　ｇｕｏ　ｊｉ　ｃｈｅｎｇ　４　ｈａｏ　ｌｏｕ　１７０３　ｓｈｉ　ｑｕａｎ　ｚｈｏｕ　ｓｈｉ　ａｎ　ｘｉ　ｘｉａｎ　ｆｕ　ｊｉａｎ　ｓｈｅｎｇ　３６２４００　ＣＮ,,,,,,2023-09-22,1,,,,,チュエンジョウメイジーマオイーヨウシエンゴンスー,0
1574,7010001238648,新規,0,2023-09-22,2023-09-22,株式会社東上コンサルティング,,株式会社,東京都,中央区,銀座１丁目２７番８号セントラルビル７０３号,,13,102,1040061,,,,,,,2023-09-22,1,,,,,トウジョウコンサルティング,0
1577,7010003041744,新規,0,2023-09-22,2023-09-22,モリヘルスケア合同会社,,合同会社,東京都,中央区,銀座１丁目２２番１１号銀座大竹ビジデンス２Ｆ,,13,102,1040061,,,,,,,2023-09-22,1,,,,,モリヘルスケア,0
1579,7010005037294,新規,0,2023-09-22,2023-09-22,一般社団法人イオタ,,その他の設立登記法人,東京都,中央区,日本橋１丁目４番１号,,13,102,1030027,,,,,,,2023-09-22,1,,,,,イオタ,0
1585,7010401177272,新規,0,2023-09-22,2023-09-22,ＡＤＡデジタル・アナリティクス株式会社,,株式会社,東京都,港区,浜松町２丁目２番１５号浜松町ダイヤビル２Ｆ,,13,103,1050013,,,,,,,2023-09-22,1,,,,,エーディーエーデジタルアナリティクス,0
1586,7010401177355,新規,0,2023-09-22,2023-09-22,タベレル株式会社,,株式会社,東京都,港区,虎ノ門４丁目１番２８号,,13,103,1050001,,,,,,,2023-09-22,1,,,,,タベレル,0
1587,7010401177363,新規,0,2023-09-22,2023-09-22,株式会社ｓｏｓｈｉｊｉ,,株式会社,東京都,港区,北青山３丁目５番９号,,13,103,1070061,,,,,,,2023-09-22,1,,,,,ソシジ,0
1588,7010403030974,新規,0,2023-09-22,2023-09-22,ＩＧＡ合同会社,,合同会社,東京都,港区,西麻布３丁目１８番９号,,13,103,1060031,,,,,,,2023-09-22,1,,,,,イガ,0
1589,7010405022490,新規,0,2023-09-22,2023-09-22,医療法人社団ＦＡＣＥ　ＡＮＤ　ＳＭＩＬＥ,,その他の設立登記法人,東京都,港区,麻布十番２丁目１８番８号ＡＢＡアサミビル５階,,13,103,1060045,,,,,,,2023-09-22,1,,,,,フェイスアンドスマイル,0
1591,7010601063826,新規,0,2023-09-22,2023-09-22,株式会社タツキ商事,,株式会社,東京都,江東区,富岡１丁目２３番１５号,,13,108,1350047,,,,,,,2023-09-22,1,,,,,タツキショウジ,0
1593,7010701044882,新規,0,2023-09-22,2023-09-22,ＡＭＡＧＥＳ株式会社,,株式会社,東京都,品川区,東五反田５丁目４番２６－３０４号,,13,109,1410022,,,,,,,2023-09-22,1,,,,,アメイジィズ,0
1600,7010901053865,新規,0,2023-09-22,2023-09-22,株式会社ＴｈｉｎｋＰｕｎｋｓ,,株式会社,東京都,世田谷区,太子堂１丁目３番３６－５０７号,,13,112,1540004,,,,,,,2023-09-22,1,,,,,シンクパンクス,0
1601,7010903008462,新規,0,2023-09-22,2023-09-22,合同会社ＳＭＨ,,合同会社,東京都,世田谷区,喜多見６丁目６番９号,,13,112,1570067,,,,,,,2023-09-22,1,,,,,エスエムエイチ,0
1614,7011001157012,新規,0,2023-09-22,2023-09-22,株式会社リッタ,,株式会社,東京都,渋谷区,恵比寿１丁目１５番９号日宝恵比寿ビル４０３,,13,113,1500013,,,,,,,2023-09-22,1,,,,,リッタ,0
1615,7011001157086,新規,0,2023-09-22,2023-09-22,ＹＴＢヤマダ株式会社,,株式会社,東京都,渋谷区,恵比寿西２丁目１９番３号,,13,113,1500021,,,,,,,2023-09-22,1,,,,,ワイティービーヤマダ,0
1616,7011001157094,新規,0,2023-09-22,2023-09-22,ＪＵＮ　ＹＯＹＯＧＩ株式会社,,株式会社,東京都,渋谷区,代々木２丁目３３番１－２０１号,,13,113,1510053,,,,,,,2023-09-22,1,,,,,ジュンヨヨギ,0
1617,7011003017560,新規,0,2023-09-22,2023-09-22,レメディライトワークス合同会社,,合同会社,東京都,渋谷区,代々木５丁目３９番２号パレス代々木３０２,,13,113,1510053,,,,,,,2023-09-22,1,,,,,レメディライトワークス,0
1618,7011003017569,新規,0,2023-09-22,2023-09-22,合同会社ＦＩＪ店舗,,合同会社,東京都,渋谷区,渋谷３丁目１３番９号８Ｆ,,13,113,1500002,,,,,,,2023-09-22,1,,,,,エフアイジェイテンポ,0
1621,7011201024929,新規,0,2023-09-22,2023-09-22,株式会社富士キャピタル,,株式会社,東京都,中野区,中央５丁目１７番１０号,,13,114,1640011,,,,,,,2023-09-22,1,,,,,フジキャピタル,0
1622,7011301029027,新規,0,2023-09-22,2023-09-22,株式会社東山,,株式会社,東京都,杉並区,高円寺南２丁目３７番１４－６０１号,,13,115,1660003,,,,,,,2023-09-22,1,,,,,トウヤマ,0
1623,7011303004911,新規,0,2023-09-22,2023-09-22,合同会社アルシャイン,,合同会社,東京都,杉並区,高円寺南４丁目７番３号サンシャイン高円寺８０３号,,13,115,1660003,,,,,,,2023-09-22,1,,,,,アルシャイン,0
1628,7011601027135,新規,0,2023-09-22,2023-09-22,株式会社瑞鴻,,株式会社,東京都,練馬区,中村北３丁目２３番６号２Ｆ,,13,120,1760023,,,,,,,2023-09-22,1,,,,,ズイコウ,0
1630,7011801043064,新規,0,2023-09-22,2023-09-22,ＳＳＫ株式会社,,株式会社,東京都,足立区,千住４丁目３０番３号メゾネットＴ＆ＳＡｒｏｏｍ,,13,121,1200034,,,,,,,2023-09-22,1,,,,,エスエスケー,0
1633,7012701017851,新規,0,2023-09-22,2023-09-22,株式会社Ｇｅｎｇｏ　Ｄｅｓｉｇｎ　Ｓｔｕｄｉｏ,,株式会社,東京都,東村山市,諏訪町２丁目２０－２,,13,213,1890021,,,,,,,2023-09-22,1,,,,,ゲンゴデザインスタジオ,0
1634,7012703002802,新規,0,2023-09-22,2023-09-22,合同会社ｒｅａｌｉｚｅ,,合同会社,東京都,東久留米市,前沢４丁目３番１４号,,13,222,2030032,,,,,,,2023-09-22,1,,,,,リアライズ,0
1642,7020001153607,新規,0,2023-09-22,2023-09-22,木匠ＪＡＰＡＮ株式会社,,株式会社,神奈川県,横浜市港北区,高田西５丁目１番８号,,14,109,2230066,,,,,,,2023-09-22,1,,,,,キショウジャパン,0
1647,7021001080221,新規,0,2023-09-22,2023-09-22,株式会社植安総建,,株式会社,神奈川県,秦野市,曽屋４８１４番地の７,,14,211,2570031,,,,,,,2023-09-22,1,,,,,ウエヤスソウケン,0
1648,7021001080238,新規,0,2023-09-22,2023-09-22,Ｇｏｏｄｆｅｌｌａｓ株式会社,,株式会社,神奈川県,伊勢原市,高森１１３２－２エスポワール２０１,,14,214,2591114,,,,,,,2023-09-22,1,,,,,グッドフェローズ,0
1654,7021003013591,新規,0,2023-09-22,2023-09-22,合同会社エンジョイヴィレッジ１号,,合同会社,神奈川県,鎌倉市,由比ガ浜１丁目３番１号,,14,204,2480014,,,,,,,2023-09-22,1,,,,,エンジョイヴィレッジイチゴウ,0
1659,7030001155817,新規,0,2023-09-22,2023-09-22,株式会社ＦＧドリーム,,株式会社,埼玉県,富士見市,渡戸１丁目１３番３５号,,11,235,3540032,,,,,,,2023-09-22,1,,,,,エフジードリーム,0
1660,7030001155825,新規,0,2023-09-22,2023-09-22,株式会社ＷＤ,,株式会社,埼玉県,さいたま市浦和区,本太１丁目８番９号,,11,107,3300052,,,,,,,2023-09-22,1,,,,,ダブルディ,0
1661,7030001156146,新規,0,2023-09-22,2023-09-22,豊栄株式会社,,株式会社,埼玉県,本庄市,東台５丁目１番４５号,,11,211,3670021,,,,,,,2023-09-22,1,,,,,ホウエイ,0
1665,7030003022552,新規,0,2023-09-22,2023-09-22,Ｔ３合同会社,,合同会社,埼玉県,川口市,戸塚南５丁目１５番４７号シャーメゾン東川口２０１号,,11,203,3330817,,,,,,,2023-09-22,1,,,,,ティースリー,0
1668,7040001130109,新規,0,2023-09-22,2023-09-22,株式会社Ｇｒｅｅｎ　Ｂｅａｔ,,株式会社,千葉県,千葉市美浜区,高洲２丁目１０番１－１１８号,,12,106,2610004,,,,,,,2023-09-22,1,,,,,グリーンビート,0
1669,7040001130166,新規,0,2023-09-22,2023-09-22,株式会社ＹＵＴＡＫＵＲＡ,,株式会社,千葉県,鎌ケ谷市,南鎌ケ谷４丁目６番６４－９号,,12,224,2730106,,,,,,,2023-09-22,1,,,,,ユタクラ,0
1670,7040001130174,新規,0,2023-09-22,2023-09-22,株式会社創美,,株式会社,千葉県,千葉市中央区,宮崎町７２６番地７キャッスル蘇我４１８号,,12,101,2600805,,,,,,,2023-09-22,1,,,,,ソウビ,0
1676,7070003005108,新規,0,2023-09-22,2023-09-22,合同会社よろずやとも,,合同会社,群馬県,桐生市,広沢町２丁目３３２０番地４,,10,203,3760013,,,,,,,2023-09-22,1,,,,,ヨロズヤトモ,0
1677,7080001025866,新規,0,2023-09-22,2023-09-22,株式会社ハートフルケア,,株式会社,静岡県,静岡市駿河区,稲川３丁目１番２０号,,22,102,4228062,,,,,,,2023-09-22,1,,,,,ハートフルケア,0
1685,7110001037858,新規,0,2023-09-22,2023-09-22,株式会社金子薬局,,株式会社,新潟県,新潟市中央区,姥ケ山５丁目１０番１５号,,15,103,9500923,,,,,,,2023-09-22,1,,,,,カネコヤッキョク,0
1694,7120001258148,新規,0,2023-09-22,2023-09-22,株式会社ＪＫＳ,,株式会社,大阪府,大阪市生野区,小路東１丁目１５番１２号,,27,116,5440003,,,,,,,2023-09-22,1,,,,,ジェイケイエス,0
1695,7120001258230,新規,0,2023-09-22,2023-09-22,株式会社メディカルエステート,,株式会社,大阪府,門真市,舟田町５番３２号,,27,223,5710021,,,,,,,2023-09-22,1,,,,,メディカルエステート,0
1699,7120101068249,新規,0,2023-09-22,2023-09-22,株式会社いろは,,株式会社,大阪府,松原市,天美東７丁目２番２８号サエラアマミ１階,,27,217,5800032,,,,,,,2023-09-22,1,,,,,イロハ,0
1701,7120103005448,新規,0,2023-09-22,2023-09-22,合同会社一咲,,合同会社,大阪府,堺市北区,野遠町４８４番地１イ,,27,146,5918013,,,,,,,2023-09-22,1,,,,,イチサキ,0
1711,7140001131708,新規,0,2023-09-22,2023-09-22,林商事株式会社,,株式会社,兵庫県,尼崎市,北城内５９番地の３,,28,202,6600826,,,,,,,2023-09-22,1,,,,,ハヤシショウジ,0
1715,7170001017788,新規,0,2023-09-22,2023-09-22,株式会社ボンラポール,,株式会社,和歌山県,岩出市,川尻２４７番地の２２,,30,209,6496231,,,,,,,2023-09-22,1,,,,,ボンラポール,0
1730,7180001158128,新規,0,2023-09-22,2023-09-22,株式会社ＬｉｎＫｓ,,株式会社,愛知県,名古屋市天白区,元八事４丁目２６０番地の１,,23,116,4680066,,,,,,,2023-09-22,1,,,,,リンクス,0
1731,7180001158136,新規,0,2023-09-22,2023-09-22,株式会社カメラのサンヨー,,株式会社,愛知県,名古屋市昭和区,檀溪通１丁目３２番地,,23,107,4660842,,,,,,,2023-09-22,1,,,,,カメラノサンヨー,0
1732,7180001158144,新規,0,2023-09-22,2023-09-22,ローマグループ株式会社,,株式会社,愛知県,名古屋市中区,栄４丁目２番１０号ＫＵＲＩビル９Ｆ,,23,106,4600008,,,,,,,2023-09-22,1,,,,,ローマグループ,0
1733,7180001158160,新規,0,2023-09-22,2023-09-22,株式会社ｓａｔ,,株式会社,愛知県,名古屋市中川区,荒子１丁目１１０番地アクティブ中西Ｄ,,23,110,4540869,,,,,,,2023-09-22,1,,,,,サット,0
1749,7200001041751,新規,0,2023-09-22,2023-09-22,大樹総業株式会社,,株式会社,岐阜県,羽島郡笠松町,田代８４２番地の４,,21,303,5016062,,,,,,,2023-09-22,1,,,,,ダイジュソウギョウ,0
1752,7210001019474,新規,0,2023-09-22,2023-09-22,株式会社Ｒｅｆ,,株式会社,福井県,福井市,松本２丁目１０番１３号,,18,201,9100003,,,,,,,2023-09-22,1,,,,,レフ,0
1755,7230001020026,新規,0,2023-09-22,2023-09-22,ＤＶＭ株式会社,,株式会社,富山県,射水市,七美２丁目２番地６,,16,211,9330252,,,,,,,2023-09-22,1,,,,,デーブイエム,0
1756,7230005009338,新規,0,2023-09-22,2023-09-22,特定非営利活動法人北陸のおなかの医療を良くする会,,その他の設立登記法人,富山県,富山市,杉谷２６３０番地,,16,201,9300152,,,,,,,2023-09-22,1,,,,,ホクリクノオナカノイリョウヲヨクスルカイ,0
1758,7240001062158,新規,0,2023-09-22,2023-09-22,株式会社ワークス,,株式会社,広島県,広島市中区,大手町５丁目７番２７号ザ・ガーデンプレイス大手町３０３号室,,34,101,7300051,,,,,,,2023-09-22,1,,,,,ワークス,0
1764,7260005011282,新規,0,2023-09-22,2023-09-22,一般社団法人ＴＡＴＥＬＩ,,その他の設立登記法人,岡山県,岡山市南区,浦安本町７８番地７６,,33,104,7028026,,,,,,,2023-09-22,1,,,,,タテリ,0
1786,7330003009981,新規,0,2023-09-22,2023-09-22,合同会社ＴＨＡＮＫ,,合同会社,熊本県,熊本市南区,富合町平原６９５番地,,43,104,8614154,,,,,,,2023-09-22,1,,,,,サンク,0
1793,7400001016386,新規,0,2023-09-22,2023-09-22,株式会社ＬｕｍｉｎｏｕｓＯｎｅ,,株式会社,岩手県,盛岡市,大通１丁目９－５シュプリームサンシャイン３０３号室,,03,201,0200022,,,,,,,2023-09-22,1,,,,,ルミナスワン,0
1803,7480001012221,新規,0,2023-09-22,2023-09-22,株式会社ユウヒ工業,,株式会社,徳島県,鳴門市,撫養町木津字嬉谷１３３４番地３,,36,202,7720004,,,,,,,2023-09-22,1,,,,,ユウヒコウギョウ,0
1807,7700150118523,新規,0,2023-09-22,2023-09-22,Ｉｍｅｒｙｓ　Ｇｒａｐｈｉｔｅ　＆　Ｃａｒｂｏｎ　Ｓｗｉｔｚｅｒｌａｎｄ　Ｌｔｄ．,,外国会社等,,,,,,,,ＣＨ－６７４３　Ｂｏｄｉｏ，Ｓｗｉｔｚｅｒｌａｎｄ,,,,,,2023-09-22,1,,,,,イメリスグラフアイトアンドカーボンスウイザーランドリミテツド,0
1808,7700150120594,新規,0,2023-09-22,2023-09-22,ＥＡＳＴ　ＲＯＹＡＬ　ＰＴＹ　ＬＴＤ,,外国会社等,茨城県,坂東市,山２０３２番地１,,08,228,3060502,ボツワナ共和国、ハボローネ、モゴディトシャネ、Ｐ，Ｏ．Ｂｏｘ４０５４,,,,,,2023-09-22,1,,,,,イーストロイヤルプロプライエタリリミテツド,0
1809,7700150120603,新規,0,2023-09-22,2023-09-22,ｆｕｊｉａｎｑｕａｎｚｈｏｕｍａｎｙｕａｎｍａｏｙｉｙｏｕｘｉａｎｇｏｎｇｓｉ,,外国会社等,,,,,,,,ｊｉｎｊｉａｎｇｓｈｉｃｈｉｄｉａｎｚｈｅｎｄｏｎｇｓｈａｎｃｕｎｄｏｎｇｓｈａｎｇｏｎｇｙｅｑｕ３０ｈａｏ２１４ｓｈｉ　ｑｕａｎｚｈｏｕｓｈｉ　ｆｕｊｉａｎｓｈｅｎｇ　３６２２１２　ＣＮ,,,,,,2023-09-22,1,,,,,フージエンチュエンジョウマンユエンマオイーヨウシエンゴンスー,0
1810,8000020418668,新規,0,2023-09-22,2023-09-22,多久小城医療組合,,地方公共団体,佐賀県,多久市,北多久町大字小侍７番地１,,41,204,8460002,,,,,,,2023-09-22,1,,,,,タクオギイリョウクミアイ,0
1815,8010001238655,新規,0,2023-09-22,2023-09-22,株式会社Ｒｕｓｈ　Ｂ,,株式会社,東京都,千代田区,神田和泉町１番地６－１６ヤマトビル４０５,,13,101,1010024,,,,,,,2023-09-22,1,,,,,ラッシュビー,0
1816,8010001238688,新規,0,2023-09-22,2023-09-22,株式会社ｉＶｉｃｏｎ　Ｊａｐａｎ,,株式会社,東京都,千代田区,内幸町１丁目３番１号幸ビルディング９階,,13,101,1000011,,,,,,,2023-09-22,1,,,,,アイビーコンジャパン,0
1817,8010001238705,新規,0,2023-09-22,2023-09-22,株式会社ＩＺＡＮＡＭＩスポーツ,,株式会社,東京都,千代田区,鍛冶町１丁目６番１７号合同ビル６０１号,,13,101,1010044,,,,,,,2023-09-22,1,,,,,イザナミスポーツ,0
1822,8010003041719,新規,0,2023-09-22,2023-09-22,Ｓｏｎｎｅｎｂｌｕｍｅ第三発電所合同会社,,合同会社,東京都,文京区,本郷５丁目３３番１０号,,13,105,1130033,,,,,,,2023-09-22,1,,,,,ゾーネンブルーメダイサンハツデンショ,0
1836,8010501051070,新規,0,2023-09-22,2023-09-22,株式会社アイ・リスタ,,株式会社,東京都,台東区,駒形２丁目６番７号ＡＩ．Ｂビル１階,,13,106,1110043,,,,,,,2023-09-22,1,,,,,アイリスタ,0
1837,8010603010370,新規,0,2023-09-22,2023-09-22,嘉恵合同会社,,合同会社,東京都,墨田区,向島４丁目３－８グレイス向島２０１－Ｄ,,13,107,1310033,,,,,,,2023-09-22,1,,,,,カケイ,0
1841,8010803004692,新規,0,2023-09-22,2023-09-22,合同会社ＴＹクリーン,,合同会社,東京都,大田区,北嶺町４０番３号ソレーユドミール２０３,,13,111,1450073,,,,,,,2023-09-22,1,,,,,ティーワイクリーン,0
1844,8010901053823,新規,0,2023-09-22,2023-09-22,ＥＮＣＯＲＥ株式会社,,株式会社,東京都,世田谷区,玉川台２丁目２２－２０－３０１,,13,112,1580096,,,,,,,2023-09-22,1,,,,,アンコール,0
1860,8011001157028,新規,0,2023-09-22,2023-09-22,株式会社プロナウン,,株式会社,東京都,渋谷区,渋谷２丁目１９番１５号宮益坂ビルディング６０９,,13,113,1500002,,,,,,,2023-09-22,1,,,,,プロナウン,0
1868,8011801043030,新規,0,2023-09-22,2023-09-22,株式会社シンクロテック,,株式会社,東京都,足立区,西新井本町２丁目７番６号,,13,121,1230845,,,,,,,2023-09-22,1,,,,,シンクロテック,0
1869,8011801043071,新規,0,2023-09-22,2023-09-22,ボッティンキット日本株式会社,,株式会社,東京都,葛飾区,立石８丁目５３番１８号,,13,122,1240012,,,,,,,2023-09-22,1,,,,,ボッティンキットニッポン,0
1870,8011803005846,新規,0,2023-09-22,2023-09-22,合同会社マスラック,,合同会社,東京都,葛飾区,東新小岩５丁目１９－４,,13,122,1240023,,,,,,,2023-09-22,1,,,,,マスラック,0
1874,8012701017850,新規,0,2023-09-22,2023-09-22,株式会社ＨＯＮＯＲ,,株式会社,東京都,小平市,上水本町５丁目２０番２号,,13,211,1870022,,,,,,,2023-09-22,1,,,,,アーナー,0
1876,8012703002801,新規,0,2023-09-22,2023-09-22,合同会社長井ライフ,,合同会社,東京都,清瀬市,梅園２丁目１番１４号,,13,221,2040024,,,,,,,2023-09-22,1,,,,,ナガイライフ,0
1877,8012803003187,新規,0,2023-09-22,2023-09-22,合同会社ナナトニ,,合同会社,東京都,武蔵村山市,伊奈平６丁目４５番地の１－１０２,,13,223,2080023,,,,,,,2023-09-22,1,,,,,ナナトニ,0
1880,8020001153606,新規,0,2023-09-22,2023-09-22,株式会社ＭＡＹＤＡＹ,,株式会社,神奈川県,川崎市宮前区,宮崎３丁目１３番地１２,,14,136,2160033,,,,,,,2023-09-22,1,,,,,メイデイ,0
1882,8020003024631,新規,0,2023-09-22,2023-09-22,ステートメント合同会社,,合同会社,神奈川県,川崎市川崎区,渡田向町２２番３－５０４,,14,131,2100841,,,,,,,2023-09-22,1,,,,,ステートメント,0
1884,8021001080253,新規,0,2023-09-22,2023-09-22,株式会社コントロールルーム,,株式会社,神奈川県,大和市,下鶴間５４４番地７,,14,213,2420001,,,,,,,2023-09-22,1,,,,,コントロールルーム,0
1887,8021003013590,新規,0,2023-09-22,2023-09-22,合同会社Ｓ‐Ｇ．Ｏ．Ａ．Ｔ,,合同会社,神奈川県,茅ヶ崎市,松風台１３番４号,,14,207,2530005,,,,,,,2023-09-22,1,,,,,エスゴート,0
1891,8030001155840,新規,0,2023-09-22,2023-09-22,株式会社志賀経営研究所,,株式会社,埼玉県,さいたま市大宮区,宮町１丁目５銀座ビル７階,,11,103,3300802,,,,,,,2023-09-22,1,,,,,シガケイエイケンキュウショ,0
1892,8030001155857,新規,0,2023-09-22,2023-09-22,ＰＨＡＭ株式会社,,株式会社,埼玉県,北葛飾郡松伏町,大字大川戸２４１２番地,,11,465,3430106,,,,,,,2023-09-22,1,,,,,ファム,0
1893,8030001155997,新規,0,2023-09-22,2023-09-22,株式会社真永,,株式会社,埼玉県,所沢市,東所沢和田２丁目２５番地の２２ニューブライトマンション４０２,,11,208,3590023,,,,,,,2023-09-22,1,,,,,シンエイ,0
1894,8030001156070,新規,0,2023-09-22,2023-09-22,株式会社イノベイトライズ,,株式会社,埼玉県,川口市,青木４丁目１９番７号ビエナ青木３０３,,11,203,3320031,,,,,,,2023-09-22,1,,,,,イノベイトライズ,0
1896,8030005021394,新規,0,2023-09-22,2023-09-22,特定非営利活動法人かんよう,,その他の設立登記法人,埼玉県,深谷市,上柴町西１丁目２３番地１８,,11,218,3660052,,,,,,,2023-09-22,1,,,,,カンヨウ,0
1899,8040001130140,新規,0,2023-09-22,2023-09-22,株式会社ａｌｌ,,株式会社,千葉県,浦安市,富士見３丁目６番１号,,12,227,2790043,,,,,,,2023-09-22,1,,,,,オール,0
1900,8040001130157,新規,0,2023-09-22,2023-09-22,株式会社Ｊａｐａｎ　Ｔｒａｄｅ　Ｓｅｃｕｒｉｔｙ,,株式会社,千葉県,柏市,みどり台４丁目１３番１２号,,12,217,2770884,,,,,,,2023-09-22,1,,,,,ジャパントレードセキュリティ,0
1901,8040001130165,新規,0,2023-09-22,2023-09-22,株式会社ハルトモ,,株式会社,千葉県,船橋市,上山町２丁目３０４番地１５,,12,204,2730046,,,,,,,2023-09-22,1,,,,,ハルトモ,0
1902,8040003023375,新規,0,2023-09-22,2023-09-22,合同会社ていくおふ,,合同会社,千葉県,佐倉市,井野１３９９番地６５,,12,212,2850855,,,,,,,2023-09-22,1,,,,,テイクオフ,0
1907,8070003005107,新規,0,2023-09-22,2023-09-22,合同会社つくろう,,合同会社,群馬県,前橋市,元総社町６７番地朝日印刷工業株式会社内,,10,201,3710846,,,,,,,2023-09-22,1,,,,,ツクロウ,0
1909,8080401026744,新規,0,2023-09-22,2023-09-22,株式会社圧電セラミックス応用研究所,,株式会社,静岡県,浜松市中区,海老塚２丁目２５番１０５号,,22,131,4328033,,,,,,,2023-09-22,1,,,,,アツデンセラミックスオウヨウケンキュウジョ,0
1913,8100001036793,新規,0,2023-09-22,2023-09-22,アディスタ株式会社,,株式会社,長野県,茅野市,北山４０２６番地１７５９－８Ｒ棟１０７号,,20,214,3910301,,,,,,,2023-09-22,1,,,,,アディスタ,0
1914,8100001036802,新規,0,2023-09-22,2023-09-22,株式会社Ａｍｂｅｒ,,株式会社,長野県,長野市,三輪１丁目１番１２－８０１号ポレスター三輪セントラルレジデンス,,20,201,3800803,,,,,,,2023-09-22,1,,,,,アンバー,0
1915,8110001037857,新規,0,2023-09-22,2023-09-22,株式会社Ｕ‐ＦＯＲＥＳＴ,,株式会社,新潟県,新潟市西区,大野町２６９７番２,,15,107,9501111,,,,,,,2023-09-22,1,,,,,ユーフォレスト,0
1917,8110005016997,新規,0,2023-09-22,2023-09-22,一般社団法人国際エシカルライフアドバイザー協会,,その他の設立登記法人,新潟県,村上市,堀片６番５号,,15,212,9580833,,,,,,,2023-09-22,1,,,,,コクサイエシカルライフアドバイザーキョウカイ,0
1927,8120001258072,新規,0,2023-09-22,2023-09-22,華生株式会社,,株式会社,大阪府,大阪市住之江区,浜口東２丁目７－１８,,27,125,5590002,,,,,,,2023-09-22,1,,,,,カショウ,0
1928,8120001258196,新規,0,2023-09-22,2023-09-22,エムケイトップ株式会社,,株式会社,大阪府,大阪市中央区,伏見町３丁目１番１－３４０６号,,27,128,5410044,,,,,,,2023-09-22,1,,,,,エムケイトップ,0
1929,8120001258279,新規,0,2023-09-22,2023-09-22,株式会社ＭＡＫＡＮ,,株式会社,大阪府,大阪市中央区,博労町１丁目７番１号ＳＩＬＶＥＲ－ＢＡＣＫ・Ｇ－１ビル,,27,128,5410059,,,,,,,2023-09-22,1,,,,,マカン,0
1930,8120003024935,新規,0,2023-09-22,2023-09-22,ＭＯＮＯＮＯＶ合同会社,,合同会社,大阪府,交野市,星田西３丁目１２番６号,,27,230,5760015,,,,,,,2023-09-22,1,,,,,モノノフ,0
1934,8120101068248,新規,0,2023-09-22,2023-09-22,株式会社ＳＰ．ＢＯＮＤ,,株式会社,大阪府,堺市西区,平岡町１５番地１－１０３号,,27,144,5938307,,,,,,,2023-09-22,1,,,,,エスピーボンド,0
1939,8130001075244,新規,0,2023-09-22,2023-09-22,株式会社シンセイ自動車,,株式会社,京都府,京都市伏見区,堀詰町５４５番地６,,26,109,6128317,,,,,,,2023-09-22,1,,,,,シンセイジドウシャ,0
1941,8130003008961,新規,0,2023-09-22,2023-09-22,ｔｓｕ‐ｋａ合同会社,,合同会社,京都府,京都市伏見区,日野田頬町３６番地４３,,26,109,6011424,,,,,,,2023-09-22,1,,,,,ツーカー,0
1942,8130003008978,新規,0,2023-09-22,2023-09-22,合同会社飛鳥,,合同会社,京都府,京都市下京区,七条御所ノ内北町１０番地メゾン御所ノ内１０１,,26,106,6008861,,,,,,,2023-09-22,1,,,,,アスカ,0
1943,8130003009002,新規,0,2023-09-22,2023-09-22,合同会社ツインフィールド,,合同会社,京都府,京都市下京区,東洞院通五条下る三丁目和泉町５２９番地,,26,106,6000000,,,,,,,2023-09-22,1,,,,,ツインフィールド,0
1945,8140001131707,新規,0,2023-09-22,2023-09-22,株式会社あひる商会,,株式会社,兵庫県,芦屋市,大原町９番２－１１０１号,,28,206,6590092,,,,,,,2023-09-22,1,,,,,アヒルショウカイ,0
1946,8140001131731,新規,0,2023-09-22,2023-09-22,株式会社ＩＰＰＯＩＰＰＯ,,株式会社,兵庫県,川西市,見野２丁目２７番４号,,28,217,6660105,,,,,,,2023-09-22,1,,,,,イッポイッポ,0
1952,8150003003069,新規,0,2023-09-22,2023-09-22,Ｎａｔｕｒａｌ　Ｂｅａｕｔｙ　Ｊａｐａｎ合同会社,,合同会社,奈良県,奈良市,登美ヶ丘３丁目１番８号,,29,201,6310004,,,,,,,2023-09-22,1,,,,,ナチュラルビューティージャパン,0
1953,8160001025353,新規,0,2023-09-22,2023-09-22,福山化成工業株式会社,,株式会社,滋賀県,東近江市,御園町５５４番地,,25,213,5270056,,,,,,,2023-09-22,1,,,,,フクヤマカセイコウギョウ,0
1961,8180001158044,新規,0,2023-09-22,2023-09-22,株式会社元設計,,株式会社,愛知県,名古屋市名東区,藤里町１２０１番地（藤の木団地４棟４０２号）,,23,115,4650036,,,,,,,2023-09-22,1,,,,,ハジメセッケイ,0
1962,8180001158119,新規,0,2023-09-22,2023-09-22,株式会社ＯＡＳＩＳ,,株式会社,愛知県,犬山市,大字上野字郷１３７６番地,,23,215,4840077,,,,,,,2023-09-22,1,,,,,オアシス,0
1963,8180003025770,新規,0,2023-09-22,2023-09-22,合同会社アイズ,,合同会社,愛知県,名古屋市守山区,瀬古東１丁目４２０番地,,23,113,4630090,,,,,,,2023-09-22,1,,,,,アイズ,0
1965,8180301037823,新規,0,2023-09-22,2023-09-22,株式会社笑福企画,,株式会社,愛知県,豊川市,篠束町郷中４８番地,,23,207,4410102,,,,,,,2023-09-22,1,,,,,ショウフクキカク,0
1966,8180305009513,新規,0,2023-09-22,2023-09-22,医療法人一咲,,その他の設立登記法人,愛知県,刈谷市,中手町２丁目４１９番地,,23,210,4480049,,,,,,,2023-09-22,1,,,,,イッサキ,0
1974,8240001062157,新規,0,2023-09-22,2023-09-22,株式会社アイエスティ,,株式会社,広島県,広島市西区,庚午中３丁目１３番６号,,34,104,7330822,,,,,,,2023-09-22,1,,,,,アイエスティ,0
1986,8290001103105,新規,0,2023-09-22,2023-09-22,株式会社リファメディカル,,株式会社,福岡県,福岡市城南区,神松寺１丁目１４番１０号,,40,136,8140121,,,,,,,2023-09-22,1,,,,,リファメディカル,0
1994,8310001018614,新規,0,2023-09-22,2023-09-22,グローバルエンジニアリング株式会社,,株式会社,長崎県,長崎市,さくらの里１丁目８番２０号,,42,201,8512207,,,,,,,2023-09-22,1,,,,,グローバルエンジニアリング,0
1996,8310003004637,新規,0,2023-09-22,2023-09-22,ｗａｒｍ　ｉｎｔｅｒｅｓｔ合同会社,,合同会社,長崎県,長崎市,ダイヤランド１丁目１番８号,,42,201,8500963,,,,,,,2023-09-22,1,,,,,ワームインテレスト,0
2003,8360001032577,新規,0,2023-09-22,2023-09-22,株式会社友利企画,,株式会社,沖縄県,中頭郡中城村,字北上原８８８,,47,328,9012423,,,,,,,2023-09-22,1,,,,,トモリキカク,0
2005,8360003013286,新規,0,2023-09-22,2023-09-22,合同会社ＰＲＩＭＥ,,合同会社,沖縄県,名護市,字仲尾７６,,47,209,9051153,,,,,,,2023-09-22,1,,,,,プライム,0
2008,8370003006297,新規,0,2023-09-22,2023-09-22,ＮｅｘｔＱＭ　Ｊａｐａｎ合同会社,,合同会社,宮城県,仙台市若林区,南材木町３番地ブランドール河原町プラザ１０２,,04,103,9840805,,,,,,,2023-09-22,1,,,,,ネクストキューエムジャパン,0
2016,8420001018413,新規,0,2023-09-22,2023-09-22,株式会社リンクパワー,,株式会社,青森県,青森市,浜館２丁目１番地１,,02,201,0300947,,,,,,,2023-09-22,1,,,,,リンクパワー,0
2022,8440003001547,新規,0,2023-09-22,2023-09-22,ＨＡＮＤＳ合同会社,,合同会社,北海道,函館市,西桔梗町７１４番地５６,,01,202,0410824,,,,,,,2023-09-22,1,,,,,ハンズ,0
2029,8700150119801,新規,0,2023-09-22,2023-09-05,上温品まちづくり協議会,,その他,広島県,広島市東区,上温品１丁目２４－１,,34,102,7320032,,,,,,,2023-09-05,1,,,,,カミヌクシナマチヅクリキヨウギカイ,0
2030,8700150120602,新規,0,2023-09-22,2023-09-22,Ｓｈｅｎ　Ｚｈｅｎ　Ｓｈｉ　Ｂａｏ　Ｘｉｎ　ＷａｎｇＬｕｏ　ＫｅＪｉ　Ｙｏｕ　Ｘｉａｎ　Ｇｏｎｇｓｉ,,外国会社等,,,,,,,,Ｓｈｅｎ　Ｚｈｅｎ　Ｓｈｉ　Ｌｏｎｇ　Ｇａｎｇ　Ｑｕ　Ｂａｎ　Ｔｉａｎ　Ｊｉｅ　Ｄａｏ　Ｈｅ　Ｂｅｉ　Ｃｕｎ　Ｊｉｎ　Ｆａｎｇ　Ｈｕａ　Ｄｉａｎ　Ｓｈａｎｇ　Ｃｈａｎ　Ｙｅ　Ｙｕａｎ　２　Ｄｏｎｇ　３０３,,,,,,2023-09-22,1,,,,,シェンジェンシーバオシンワンルオコージーヨウシエンゴンスー,0
2031,8700150120610,新規,0,2023-09-22,2023-09-22,ＴＥＬＥＡＤＡＰＴ　ＩＮＣ．,,外国会社等,,,,,,,,１３１５　Ｇｒｅｇ　Ｓｔｒｅｅｔ，Ｓｕｉｔｅ　１１０　Ｓｐａｒｋｓ，ＮＶ　８９４３１　ＵＳＡ,,,,,,2023-09-22,1,,,,,テレダプトインク,0
2036,9010001238662,新規,0,2023-09-22,2023-09-22,ＢＲＧ株式会社,,株式会社,東京都,千代田区,丸の内１丁目１番２号,,13,101,1000005,,,,,,,2023-09-22,1,,,,,ビーアールジー,0
2037,9010001238679,新規,0,2023-09-22,2023-09-22,株式会社ＡＲＴＥＲＡ,,株式会社,東京都,中央区,銀座１丁目１２番４号Ｎ＆ＥＢＬＤ．７階,,13,102,1040061,,,,,,,2023-09-22,1,,,,,アルテラ,0
2038,9010003041734,新規,0,2023-09-22,2023-09-22,合同会社ブレイニーソフトウェア,,合同会社,東京都,中央区,銀座１丁目１２－４Ｎ＆ＥＢＬＤ．７階,,13,102,1040061,,,,,,,2023-09-22,1,,,,,ブレイニーソフトウェア,0
2039,9010003041742,新規,0,2023-09-22,2023-09-22,合同会社ＨｉＪｏＪｏ．ｃｏｍ１１,,合同会社,東京都,千代田区,霞が関３丁目２番５号,,13,101,1000013,,,,,,,2023-09-22,1,,,,,ヒジョージョードットコムイレブン,0
2040,9010005037284,新規,0,2023-09-22,2023-09-22,東条ロジ一般社団法人,,その他の設立登記法人,東京都,中央区,銀座１丁目６番１１号アースタックス税理士法人内,,13,102,1040061,,,,,,,2023-09-22,1,,,,,トウジョウロジ,0
2041,9010005037301,新規,0,2023-09-22,2023-09-22,一般社団法人相続土地管財,,その他の設立登記法人,東京都,中央区,銀座１丁目１２番４号Ｎ＆ＥＢＬＤ．６Ｆ,,13,102,1040061,,,,,,,2023-09-22,1,,,,,ソウゾクトチカンザイ,0
2047,9010401177238,新規,0,2023-09-22,2023-09-22,新日本コンサルティングムーブ株式会社,,株式会社,東京都,港区,北青山１丁目３番１号アールキューブ青山３階,,13,103,1070061,,,,,,,2023-09-22,1,,,,,シンニホンコンサルティングムーブ,0
2048,9010401177246,新規,0,2023-09-22,2023-09-22,株式会社ＺＥＡＬアセットマネジメント,,株式会社,東京都,港区,新橋５丁目１４番１０号,,13,103,1050004,,,,,,,2023-09-22,1,,,,,ジールアセットマネジメント,0
2049,9010401177254,新規,0,2023-09-22,2023-09-22,株式会社ライブ,,株式会社,東京都,港区,北青山１丁目３番１号アールキューブ青山３階,,13,103,1070061,,,,,,,2023-09-22,1,,,,,ライブ,0
2050,9010401177262,新規,0,2023-09-22,2023-09-22,株式会社ＬＥＯＮＳ,,株式会社,東京都,港区,麻布十番３丁目１０番５号ＴＨＥＣＩＴＹ麻布十番ＩＩＣＲＯＳＳ６階,00131992,13,103,1060045,,,,,,,2023-09-22,1,,,,,レオンズ,0
2051,9010401177295,新規,0,2023-09-22,2023-09-22,株式会社Ｓｕｎ,,株式会社,東京都,港区,六本木３丁目７番１－２１１３号,,13,103,1060032,,,,,,,2023-09-22,1,,,,,サン,0
2052,9010401177312,新規,0,2023-09-22,2023-09-22,株式会社未来創造,,株式会社,東京都,港区,南麻布４丁目５番６３号,,13,103,1060047,,,,,,,2023-09-22,1,,,,,ミライソウゾウ,0
2053,9010401177320,新規,0,2023-09-22,2023-09-22,ＣＭＬ＆ＦＲＩＥＮＤＳ株式会社,,株式会社,東京都,港区,新橋４丁目７番４号ＳＴトミタ２階,,13,103,1050004,,,,,,,2023-09-22,1,,,,,シーエムエルアンドフレンズ,0
2055,9010403031021,新規,0,2023-09-22,2023-09-22,合同会社エクシードビジョン,,合同会社,東京都,港区,芝５丁目２９番２２号ライオンズマンションフェリス三田４１０,,13,103,1080014,,,,,,,2023-09-22,1,,,,,エクシードビジョン,0
2056,9010405022480,新規,0,2023-09-22,2023-09-22,弁理士法人制野国際特許事務所,,その他の設立登記法人,東京都,港区,南青山２丁目６番６号,,13,103,1070062,,,,,,,2023-09-22,1,,,,,セイノコクサイトッキョジムショ,0
2057,9010501051086,新規,0,2023-09-22,2023-09-22,一創株式会社,,株式会社,東京都,台東区,上野３丁目１６番２号天翔上野末広町ビル３１３,,13,106,1100005,,,,,,,2023-09-22,1,,,,,イチソウ,0
2061,9010701044880,新規,0,2023-09-22,2023-09-22,ＴＳＴ株式会社,,株式会社,東京都,品川区,東大井３丁目１１番５－４０３号,,13,109,1400011,,,,,,,2023-09-22,1,,,,,ティーエスティー,0
2062,9010703006879,新規,0,2023-09-22,2023-09-22,３６５合同会社,,合同会社,東京都,品川区,荏原１丁目３－１９,,13,109,1420063,,,,,,,2023-09-22,1,,,,,サンロクゴ,0
2064,9010803004691,新規,0,2023-09-22,2023-09-22,合同会社ＹＭ２,,合同会社,東京都,大田区,南六郷２丁目３７番３－５０３号,,13,111,1440045,,,,,,,2023-09-22,1,,,,,ワイエムツー,0
2065,9010901053855,新規,0,2023-09-22,2023-09-22,岩波商事株式会社,,株式会社,東京都,世田谷区,代沢４丁目４０番１０号Ｅ,,13,112,1550032,,,,,,,2023-09-22,1,,,,,イワナミショウジ,0
2066,9010901053863,新規,0,2023-09-22,2023-09-22,ＢＥＡＵＴＹ　ＯＦ　ＴＨＥ　ＳＡＩＮＴＳ株式会社,,株式会社,東京都,世田谷区,上馬５丁目３－１８,,13,112,1540011,,,,,,,2023-09-22,1,,,,,,0
2067,9010901053871,新規,0,2023-09-22,2023-09-22,株式会社ＩｍｐｒｅｓｓｉｏｎＢｌｕｅ,,株式会社,東京都,世田谷区,赤堤２丁目１７－４,,13,112,1560044,,,,,,,2023-09-22,1,,,,,インプレッションブルー,0
2085,9011301029025,新規,0,2023-09-22,2023-09-22,株式会社長松,,株式会社,東京都,杉並区,高円寺南２丁目３７番１４－６０１号,,13,115,1660003,,,,,,,2023-09-22,1,,,,,ナガマツ,0
2089,9011401025469,新規,0,2023-09-22,2023-09-22,株式会社志村コンサルタントオフィス,,株式会社,東京都,板橋区,志村１丁目３番１５－３０１号,,13,119,1740056,,,,,,,2023-09-22,1,,,,,シムラコンサルタントオフィス,0
2091,9011501029808,新規,0,2023-09-22,2023-09-22,株式会社亜細亜人材教育,,株式会社,東京都,北区,王子２丁目２３番１号１００１室,,13,117,1140002,,,,,,,2023-09-22,1,,,,,アジアジンザイキョウイク,0
2096,9011803005845,新規,0,2023-09-22,2023-09-22,セイバー合同会社,,合同会社,東京都,足立区,西新井６丁目４０番５号,,13,121,1230841,,,,,,,2023-09-22,1,,,,,セイバー,0
2098,9012801022642,新規,0,2023-09-22,2023-09-22,株式会社大明,,株式会社,東京都,東大和市,向原４丁目４番地の１５,,13,220,2070013,,,,,,,2023-09-22,1,,,,,ダイメイ,0
2109,9021001080228,新規,0,2023-09-22,2023-09-22,株式会社マサル,,株式会社,神奈川県,相模原市南区,相南１丁目２番３号,,14,153,2520312,,,,,,,2023-09-22,1,,,,,マサル,0
2117,9030001156103,新規,0,2023-09-22,2023-09-22,ＴＯＢＡ株式会社,,株式会社,埼玉県,川口市,大字赤山１３８４番地の１－４０６号,,11,203,3330825,,,,,,,2023-09-22,1,,,,,トバ,0
2123,9030003022559,新規,0,2023-09-22,2023-09-22,富士防災ソリューションズ合同会社,,合同会社,埼玉県,新座市,畑中２丁目１４番７号,,11,230,3520012,,,,,,,2023-09-22,1,,,,,フジボウサイソリューションズ,0
2124,9030003022600,新規,0,2023-09-22,2023-09-22,合同会社Ｆｏｒｅｖｅｒ　Ｍｅｍｏｒｉｅｓ,,合同会社,埼玉県,上尾市,日の出３丁目９番１４－１３号,,11,219,3620032,,,,,,,2023-09-22,1,,,,,フォーエヴァーメモリーズ,0
2129,9040001130164,新規,0,2023-09-22,2023-09-22,Ｌｕｃｉａｚ株式会社,,株式会社,千葉県,松戸市,八ケ崎７丁目４６番地の３０,,12,207,2700023,,,,,,,2023-09-22,1,,,,,ルシアス,0
2135,9050001053513,新規,0,2023-09-22,2023-09-22,株式会社ライフ＆ホーム,,株式会社,茨城県,つくば市,下広岡１０６１番地５３さくらテナントＩ－１０１,00132000,08,220,3050042,,,,,,,2023-09-22,1,,,,,ライフアンドホーム,0
2137,9060001036368,新規,0,2023-09-22,2023-09-22,金平株式会社,,株式会社,栃木県,足利市,常盤町７５番１３,,09,202,3260026,,,,,,,2023-09-22,1,,,,,キンヘイ,0
2143,9070003005106,新規,0,2023-09-22,2023-09-22,ＣＭ合同会社,,合同会社,群馬県,安中市,東上磯部８０６番地１０ベルエアパレスＡ棟２０２号,,10,211,3790128,,,,,,,2023-09-22,1,,,,,シエム,0
2148,9080401026743,新規,0,2023-09-22,2023-09-22,株式会社エスティエム,,株式会社,静岡県,浜松市西区,篠原町２０１６７番地の１,,22,133,4310201,,,,,,,2023-09-22,1,,,,,エスティエム,0
2149,9100001036801,新規,0,2023-09-22,2023-09-22,森岡コンサルティング株式会社,,株式会社,長野県,諏訪郡富士見町,立沢１番地４０７,,20,362,3990212,,,,,,,2023-09-22,1,,,,,モリオカコンサルティング,0
2152,9110001037856,新規,0,2023-09-22,2023-09-22,株式会社ＮＯ．３,,株式会社,新潟県,新潟市中央区,弁天１丁目４番４号,,15,103,9500901,,,,,,,2023-09-22,1,,,,,ナンバースリー,0
2159,9120001258162,新規,0,2023-09-22,2023-09-22,ＶＥＲＲＩＥＳ　ＪＡＰＡＮ株式会社,,株式会社,大阪府,大阪市生野区,小路２丁目１７番１６号,,27,116,5440002,,,,,,,2023-09-22,1,,,,,ベリーズジャパン,0
2160,9120001258195,新規,0,2023-09-22,2023-09-22,株式会社瑞鶴,,株式会社,大阪府,大阪市淀川区,西中島２丁目８－３ヴェリテ新大阪リバーサイド１００２号,,27,123,5320011,,,,,,,2023-09-22,1,,,,,ズイカク,0
2165,9120003024926,新規,0,2023-09-22,2023-09-22,合同会社ＦＯＯＤＰＬＡＮ,,合同会社,大阪府,大阪市中央区,難波４丁目８－２大幸センタービル３０７号,,27,128,5420076,,,,,,,2023-09-22,1,,,,,フードプラン,0
2167,9120101068222,新規,0,2023-09-22,2023-09-22,リテック商事株式会社,,株式会社,大阪府,羽曳野市,はびきの５丁目２４番１７号,,27,222,5830872,,,,,,,2023-09-22,1,,,,,リテックショウジ,0
2169,9120903004837,新規,0,2023-09-22,2023-09-22,合同会社ＭＥＲＡＫＩ,,合同会社,大阪府,池田市,伏尾台１丁目１８１番,,27,204,5630017,,,,,,,2023-09-22,1,,,,,メラキ,0
2173,9122001037389,新規,0,2023-09-22,2023-09-22,株式会社ピンクラベル,,株式会社,大阪府,東大阪市,高井田中４丁目２番１６号,,27,227,5770065,,,,,,,2023-09-22,1,,,,,ピンクラベル,0
2176,9130001075235,新規,0,2023-09-22,2023-09-22,伊凡株式会社,,株式会社,京都府,京都市左京区,二条通川端東入ル三筋目大文字町１５８番,,26,103,6060000,,,,,,,2023-09-22,1,,,,,イボン,0
2177,9130003008993,新規,0,2023-09-22,2023-09-22,合同会社ＴＫＭ,,合同会社,京都府,京都市中京区,鍋屋町２２０番地ＦＯＲＵＭ木屋町先斗町５Ｆ,,26,104,6048015,,,,,,,2023-09-22,1,,,,,ティーケーエム,0
2184,9140001131672,新規,0,2023-09-22,2023-09-22,ＭＩＲＯ株式会社,,株式会社,兵庫県,神戸市東灘区,御影中町６丁目４－４ダイドーメゾン御影ＩＩ３０７号,00132007,28,101,6580054,,,,,,,2023-09-22,1,,,,,ミロウ,0
2185,9140001131689,新規,0,2023-09-22,2023-09-22,株式会社ジプライド,,株式会社,兵庫県,加古川市,加古川町中津２１９番地の２１,,28,210,6750068,,,,,,,2023-09-22,1,,,,,ジプライド,0
2186,9140001131697,新規,0,2023-09-22,2023-09-22,福実株式会社,00132008,株式会社,兵庫県,たつの市,揖西町土師９５８番地２,,28,229,6794017,,,,,,,2023-09-22,1,,,,,フクミ,0
2187,9140001131730,新規,0,2023-09-22,2023-09-22,株式会社ＰＲＯＧＲＥＳＳＩＶＥ　ＳＴＡＦＦ　ＳＥＲＶＩＣＥ,,株式会社,兵庫県,神戸市中央区,磯辺通２丁目１－２－２Ｆ,,28,110,6510084,,,,,,,2023-09-22,1,,,,,,0
2191,9140003019585,新規,0,2023-09-22,2023-09-22,合同会社ＫＡＮＥＰＯ,,合同会社,兵庫県,加古川市,神野町西条６４４番地,,28,210,6750009,,,,,,,2023-09-22,1,,,,,カネポ,0
2198,9180001158092,新規,0,2023-09-22,2023-09-22,ニッケンアドバンス株式会社,,株式会社,愛知県,稲沢市,坂田町北畑２７番地２,,23,220,4928454,,,,,,,2023-09-22,1,,,,,ニッケンアドバンス,0
2199,9180001158150,新規,0,2023-09-22,2023-09-22,株式会社樹奈,,株式会社,愛知県,名古屋市港区,宝神４丁目８０６番地の３,,23,111,4550832,,,,,,,2023-09-22,1,,,,,ジュナ,0
2206,9180003025753,新規,0,2023-09-22,2023-09-22,はなまるサービス合同会社,,合同会社,愛知県,春日井市,町屋町３８００番地３,,23,206,4860809,,,,,,,2023-09-22,1,,,,,ハナマルサービス,0
2207,9180301037847,新規,0,2023-09-22,2023-09-22,株式会社ビーワイ経営,,株式会社,愛知県,碧南市,松本町１９６番地１アーク東栄３０２,,23,209,4470878,,,,,,,2023-09-22,1,,,,,ビーワイケイエイ,0
2219,9210001019472,新規,0,2023-09-22,2023-09-22,株式会社ノウプラス,,株式会社,福井県,あわら市,山十楽第１１号１１番地,,18,208,9190816,,,,,,,2023-09-22,1,,,,,ノウプラス,0
2221,9220001025610,新規,0,2023-09-22,2023-09-22,株式会社国際雇用支援機関,,株式会社,石川県,金沢市,芳斉１丁目１４番１５号,,17,201,9200862,,,,,,,2023-09-22,1,,,,,コクサイコヨウシエンキカン,0
2222,9220003003589,新規,0,2023-09-22,2023-09-22,合同会社ＮＥＥＤＺ,,合同会社,石川県,小松市,矢田野町ト４番地１,,17,203,9230342,,,,,,,2023-09-22,1,,,,,ニーズ,0
2224,9220005008784,新規,0,2023-09-22,2023-09-22,特定非営利活動法人綴る,,その他の設立登記法人,石川県,金沢市,菊川２丁目１９番６号,,17,201,9200967,,,,,,,2023-09-22,1,,,,,ツヅル,0
2230,9240003006318,新規,0,2023-09-22,2023-09-22,合同会社ＡＫＡＬＡ,,合同会社,広島県,廿日市市,串戸２丁目２０番５－１０２号,,34,213,7380033,,,,,,,2023-09-22,1,,,,,,0
2232,9250001020286,新規,0,2023-09-22,2023-09-22,株式会社ＹＹホールディングス,,株式会社,山口県,下松市,大字平田４６０番地,,35,207,7440021,,,,,,,2023-09-22,1,,,,,ワイワイホールディングス,0
2239,9260001038328,新規,0,2023-09-22,2023-09-22,株式会社中藤工業,,株式会社,岡山県,倉敷市,玉島勇崎１２３４番地１,,33,202,7138125,,,,,,,2023-09-22,1,,,,,ナカトウコウギョウ,0
2240,9260003004443,新規,0,2023-09-22,2023-09-22,ノア合同会社,,合同会社,岡山県,岡山市北区,岡町１９－１ヤマダビル,,33,101,7000867,,,,,,,2023-09-22,1,,,,,ノア,0
2246,9290001103104,新規,0,2023-09-22,2023-09-22,株式会社Ｚ‐Ｓｔｙｌｅ,,株式会社,福岡県,筑紫野市,針摺東１丁目２１番１８号,00131996,40,217,8180081,,,,,,,2023-09-22,1,,,,,ジースタイル,0
2247,9290001103120,新規,0,2023-09-22,2023-09-22,株式会社Ｓｅａ　Ｂｅａｎｓ,,株式会社,福岡県,糟屋郡篠栗町,大字田中４７番地５,,40,342,8112416,,,,,,,2023-09-22,1,,,,,シービーンズ,0
2252,9320001020015,新規,0,2023-09-22,2023-09-22,恭玄株式会社,,株式会社,大分県,大分市,古ケ鶴２丁目３番２３号,,44,201,8700935,,,,,,,2023-09-22,1,,,,,キョウゲン,0
2257,9330001031291,新規,0,2023-09-22,2023-09-22,株式会社うらら,,株式会社,熊本県,熊本市中央区,北千反畑町１番３５号１Ｆ,,43,101,8600855,,,,,,,2023-09-22,1,,,,,ウララ,0
2268,9360001032584,新規,0,2023-09-22,2023-09-22,株式会社ａｎｕ,,株式会社,沖縄県,那覇市,おもろまち１丁目１番２５－８１２号,,47,201,9000006,,,,,,,2023-09-22,1,,,,,アニュ,0
2271,9370005010692,新規,0,2023-09-22,2023-09-22,朝日プラザ花京院管理組合法人,,その他の設立登記法人,宮城県,仙台市青葉区,花京院１丁目１番５２号,,04,101,9800013,,,,,,,2023-09-22,1,,,,,アサヒプラザカキョウイン,0
2274,9390001017376,新規,0,2023-09-22,2023-09-22,株式会社エポック,,株式会社,山形県,山形市,江南１丁目４番２３号,,06,201,9900863,,,,,,,2023-09-22,1,,,,,エポック,0
2295,9500001025210,新規,0,2023-09-22,2023-09-22,株式会社ＢＡＳＥ　ＧＲＯＵＰ,,株式会社,愛媛県,松山市,鹿峰２１３,,38,201,7992461,,,,,,,2023-09-22,1,,,,,ベイスグループ,0
2302,9700150119874,新規,0,2023-09-22,2023-09-06,深谷市農業再生協議会,,その他,埼玉県,深谷市,仲町１１－１,,11,218,3660822,,,,,,,2023-09-06,1,,,,,フカヤシノウギヨウサイセイキヨウギカイ,0
2303,9700150120576,新規,0,2023-09-22,2023-09-22,ＶＴ　Ｃｏ．，Ｌｔｄ,,外国会社等,,,,,,,,大韓民国京幾道坡州市産業団地ギル１３９,,,,,,2023-09-22,1,,,,,ヴイテイーカンパニーリミテツド,0
2304,9700150120601,新規,0,2023-09-22,2023-09-22,Ｓｈｅｎｚｈｅｎｓｈｉ　Ｈｕａｙｕｅ　Ｘｉａｎｇｆｅｉ　Ｋｅｊｉ　Ｙｏｕｘｉａｎ　Ｇｏｎｇｓｉ,,外国会社等,,,,,,,,Ｓｈｅｎｚｈｅｎｓｈｉ　Ｌｏｎｇｇａｎｇｑｕ　ｌｏｎｇｇａｎｇｊｉｅｄａｏ　ｎａｎｌｉａｎｓｈｅｑｕ　ｌｏｎｇｇａｎｇｄａｄａｏ（ｌｏｎｇｇａｎｇｄｕａｎ）４０１２ｈａｏ　ｘｉａｎｇｑｉａｎｄａｓｈａ　７０１,,,,,,2023-09-22,1,,,,,シェンジェンシーフワーユエシャンフェイコージーヨウシエンゴンスー,0
