sequenceNumber,corporateNumber,process,correct,updateDate,changeDate,name,nameImageId,kind,prefectureName,cityName,streetNumber,addressImageId,prefectureCode,cityCode,postCode,addressOutside,addressOutsideImageId,closeDate,closeCause,successorCorporateNumber,changeCause,assignmentDate,latest,enName,enPrefectureName,enCityName,enAddressOutside,furigana,hihyoji
13,1010001238232,新規,0,2023-09-08,2023-09-08,ニッポン・ミドルイースト・コネクション株式会社,,株式会社,東京都,中央区,銀座７丁目１３番２１号銀座ｓｉｎｒｏｋｕｓｙｕビル２階,,13,102,1040061,,,,,,,2023-09-08,1,,,,,ニッポンミドルイーストコネクション,0
14,1010001238257,新規,0,2023-09-08,2023-09-08,株式会社Ｇｌｏｗｉｎ,,株式会社,東京都,千代田区,神田小川町２丁目１番地,,13,101,1010052,,,,,,,2023-09-08,1,,,,,グローイン,0
15,1010003041543,新規,0,2023-09-08,2023-09-08,合同会社ＫＳプランニング,,合同会社,東京都,中央区,日本橋兜町１７番２号兜町第６葉山ビル４Ｆ,,13,102,1030026,,,,,,,2023-09-08,1,,,,,ケーエスプランニング,0
18,1010101015804,新規,0,2023-09-08,2023-09-08,株式会社市川保温工業,,株式会社,東京都,八王子市,長房町１０６番地３,,13,201,1930824,,,,,,,2023-09-08,1,,,,,イチカワホオンコウギョウ,0
19,1010103002206,新規,0,2023-09-08,2023-09-08,合同会社さぷりんぐ,,合同会社,東京都,八王子市,諏訪町３８８番地２パレス中芳２０１,,13,201,1930812,,,,,,,2023-09-08,1,,,,,サプリング,0
26,1010401176965,新規,0,2023-09-08,2023-09-08,クワンリップル株式会社,,株式会社,東京都,港区,白金１丁目２５番１１－１５０４号,,13,103,1080072,,,,,,,2023-09-08,1,,,,,クワンリップル,0
27,1010401176981,新規,0,2023-09-08,2023-09-08,ＬＳ‐ＳＨＩＰ第４７号株式会社,,株式会社,東京都,港区,六本木１丁目６番１号,,13,103,1060032,,,,,,,2023-09-08,1,,,,,エルエスシップダイヨンジュウナナゴウ,0
28,1010401177006,新規,0,2023-09-08,2023-09-08,株式会社Ｃｒｅａｔｉｖｅ　Ｌｉｆｅ,,株式会社,東京都,港区,南青山２丁目２番１５号,,13,103,1070062,,,,,,,2023-09-08,1,,,,,クリエイティブライフ,0
29,1010401177014,新規,0,2023-09-08,2023-09-08,株式会社ＥＮＩＮＡＬ,,株式会社,東京都,港区,西麻布４丁目１１番２８－４０３号,,13,103,1060031,,,,,,,2023-09-08,1,,,,,エニナル,0
38,1010801034310,新規,0,2023-09-08,2023-09-08,オールラウンドリアルティ株式会社,,株式会社,東京都,大田区,山王２丁目８番１号山王アーバンライフ１１０６,,13,111,1430023,,,,,,,2023-09-08,1,,,,,オールラウンドリアルティ,0
44,1010905004531,新規,0,2023-09-08,2023-09-08,一般社団法人クチコミマーケティング協会,,その他の設立登記法人,東京都,世田谷区,奥沢６丁目２７－７－１Ｆ,,13,112,1580083,,,,,,,2023-09-08,1,,,,,クチコミマーケティングキョウカイ,0
54,1011001156770,新規,0,2023-09-08,2023-09-08,株式会社Ｔ２,,株式会社,東京都,目黒区,上目黒４丁目３番１９号カルム中目黒４０２,,13,110,1530051,,,,,,,2023-09-08,1,,,,,ティーツー,0
56,1011003017509,新規,0,2023-09-08,2023-09-08,合同会社Ｈｏｒｋｓ＆Ｏｗｌｓ,,合同会社,東京都,目黒区,中根１丁目１３－１８リバーレ自由が丘２０１,,13,110,1520031,,,,,,,2023-09-08,1,,,,,ホークスアンドアウルズ,0
61,1011105010774,新規,0,2023-09-08,2023-09-08,社会保険労務士法人プレナパートナーズ,,その他の設立登記法人,東京都,新宿区,新宿１丁目３６番２号新宿第七葉山ビル３階,,13,104,1600022,,,,,,,2023-09-08,1,,,,,プレナパートナーズ,0
65,1011401025435,新規,0,2023-09-08,2023-09-08,株式会社Ｇｓｗｅｅｐ,,株式会社,東京都,板橋区,赤塚５丁目７番１３号志幸８１リリアン３０１,,13,119,1750092,,,,,,,2023-09-08,1,,,,,ジースウィープ,0
68,1011403004107,新規,0,2023-09-08,2023-09-08,合同会社ＣｈａｎｇＹｉｍ,,合同会社,東京都,板橋区,南常盤台１丁目２８番５号,,13,119,1740072,,,,,,,2023-09-08,1,,,,,チャングイム,0
74,1011603004047,新規,0,2023-09-08,2023-09-08,合同会社ＪＹオフィス,,合同会社,東京都,練馬区,西大泉６丁目６番２１号,,13,120,1780065,,,,,,,2023-09-08,1,,,,,ジェイワイオフィス,0
77,1011701026579,新規,0,2023-09-08,2023-09-08,株式会社エム・ワイ,,株式会社,東京都,江戸川区,一之江３丁目５番７号ガーデン・プラザＩＩ１０１,00131838,13,123,1320024,,,,,,,2023-09-08,1,,,,,エムワイ,0
80,1012403006167,新規,0,2023-09-08,2023-09-08,合同会社青栞舎,,合同会社,東京都,調布市,西つつじケ丘４丁目１６番地１フレ・ジュノウ２０３,,13,208,1820006,,,,,,,2023-09-08,1,,,,,セイカンシャ,0
86,1013303006785,新規,0,2023-09-08,2023-09-08,合同会社Ｈａｐｐｙｃｒｅａｔｉｏｎ,,合同会社,東京都,豊島区,池袋本町４丁目４６番１１号プラウドシティ池袋本町３４２号,,13,116,1700011,,,,,,,2023-09-08,1,,,,,ハッピークリエーション,0
96,1020001153406,新規,0,2023-09-08,2023-09-08,株式会社Ｕ‐ＷＡＣＯＮＦＩＤＯ,,株式会社,神奈川県,横浜市中区,元町４丁目１６８番地ＢＩＺｃｏｍｆｏｒｔ元町ビル,,14,104,2310861,,,,,,,2023-09-08,1,,,,,ユーワコンフィード,0
97,1020001153414,新規,0,2023-09-08,2023-09-08,ｃｏｖｅ株式会社,,株式会社,神奈川県,川崎市宮前区,潮見台８－１０－６０７,,14,136,2160013,,,,,,,2023-09-08,1,,,,,コーブ,0
98,1020001153422,新規,0,2023-09-08,2023-09-08,株式会社ユーロオートモーティブ,,株式会社,神奈川県,川崎市宮前区,神木本町１丁目９番２９号,,14,136,2160031,,,,,,,2023-09-08,1,,,,,ユーロオートモーティブ,0
103,1020003024547,新規,0,2023-09-08,2023-09-08,合同会社プライムイート,,合同会社,神奈川県,横浜市金沢区,町屋町１７番８－２０６号,,14,108,2360022,,,,,,,2023-09-08,1,,,,,プライムイート,0
104,1020003024555,新規,0,2023-09-08,2023-09-08,合同会社バックオフィス,,合同会社,神奈川県,横浜市神奈川区,栄町１５番地７ネオマイム横浜ポートサイド２０３号,,14,102,2210052,,,,,,,2023-09-08,1,,,,,バックオフィス,0
107,1021001080094,新規,0,2023-09-08,2023-09-08,株式会社Ｔ‐Ｓｔｙｌｅ,,株式会社,神奈川県,平塚市,千石河岸４４番１２号,,14,203,2540803,,,,,,,2023-09-08,1,,,,,ティースタイル,0
108,1021001080103,新規,0,2023-09-08,2023-09-08,株式会社ココタス,,株式会社,神奈川県,茅ヶ崎市,共恵１丁目１番４号,,14,207,2530056,,,,,,,2023-09-08,1,,,,,ココタス,0
110,1021003013548,新規,0,2023-09-08,2023-09-08,トーネ合同会社,,合同会社,神奈川県,厚木市,毛利台２丁目１０番２号,,14,212,2430037,,,,,,,2023-09-08,1,,,,,トーネ,0
117,1030001155814,新規,0,2023-09-08,2023-09-08,株式会社ビジマーチ,,株式会社,埼玉県,川口市,大字東内野５６番地の１００,,11,203,3330821,,,,,,,2023-09-08,1,,,,,ビジマーチ,0
120,1030003022442,新規,0,2023-09-08,2023-09-08,合同会社花形商事,,合同会社,埼玉県,和光市,新倉２丁目２１－６０,,11,229,3510115,,,,,,,2023-09-08,1,,,,,ハナガタショウジ,0
121,1030003022475,新規,0,2023-09-08,2023-09-08,合同会社ｔａｕｔ　ｌｉｎｅ,,合同会社,埼玉県,上尾市,井戸木２丁目９－１９,,11,219,3620071,,,,,,,2023-09-08,1,,,,,トートライン,0
122,1030003022483,新規,0,2023-09-08,2023-09-08,イキシア合同会社,,合同会社,埼玉県,草加市,苗塚町１１１番地７,,11,221,3400036,,,,,,,2023-09-08,1,,,,,イキシア,0
126,1040001130015,新規,0,2023-09-08,2023-09-08,株式会社山鐵,,株式会社,千葉県,千葉市花見川区,浪花町３番地２２－１０５,,12,102,2620024,,,,,,,2023-09-08,1,,,,,ヤマテツ,0
127,1040001130023,新規,0,2023-09-08,2023-09-08,アクティブ・ジャパン株式会社,,株式会社,千葉県,流山市,西初石１丁目７７６番地の３５,,12,220,2700121,,,,,,,2023-09-08,1,,,,,アクティブジャパン,0
129,1040003023274,新規,0,2023-09-08,2023-09-08,合同会社ペア,,合同会社,千葉県,船橋市,習志野台１丁目２６番７－３０８号,,12,204,2740063,,,,,,,2023-09-08,1,,,,,ペア,0
130,1040003023282,新規,0,2023-09-08,2023-09-08,合同会社Ｂグローバル,,合同会社,千葉県,八街市,八街へ２１４－４０,,12,230,2891113,,,,,,,2023-09-08,1,,,,,,0
133,1050001053438,新規,0,2023-09-08,2023-09-08,株式会社タカシン,,株式会社,茨城県,笠間市,下郷３２６４番地,,08,216,3190202,,,,,,,2023-09-08,1,,,,,タカシン,0
135,1050003007771,新規,0,2023-09-08,2023-09-08,合同会社クレイジーアグリジャパン,,合同会社,茨城県,笠間市,大古山高野田４６３番２９,,08,216,3091724,,,,,,,2023-09-08,1,,,,,クレイジーアグリジャパン,0
136,1050005013322,新規,0,2023-09-08,2023-09-08,医療法人和貴会,,その他の設立登記法人,茨城県,水戸市,内原町字竹ノ内１４０６番１１,,08,201,3190315,,,,,,,2023-09-08,1,,,,,ワキカイ,0
139,1060003004710,新規,0,2023-09-08,2023-09-08,合同会社Ｒ‐ＢＯＸ吉田,,合同会社,栃木県,足利市,田中町７７８番地,,09,202,3260822,,,,,,,2023-09-08,1,,,,,アールボックスヨシダ,0
144,1070001040839,新規,0,2023-09-08,2023-09-08,清水プロパティ株式会社,,株式会社,群馬県,太田市,飯田町７２２番地５,,10,205,3730851,,,,,,,2023-09-08,1,,,,,シミズプロパティ,0
152,1080401026718,新規,0,2023-09-08,2023-09-08,株式会社カスタムハウス,,株式会社,静岡県,浜松市東区,上西町１００９番地,,22,132,4350048,,,,,,,2023-09-08,1,,,,,カスタムハウス,0
153,1080403004861,新規,0,2023-09-08,2023-09-08,合同会社ワム,,合同会社,静岡県,浜松市中区,常盤町１４４番地の６常盤町レジデンス１４０９,,22,131,4300917,,,,,,,2023-09-08,1,,,,,ワム,0
154,1090001018313,新規,0,2023-09-08,2023-09-08,株式会社岡村,,株式会社,山梨県,上野原市,コモアしおつ３丁目４番１号,,19,212,4090126,,,,,,,2023-09-08,1,,,,,オカムラ,0
155,1090003002380,新規,0,2023-09-08,2023-09-08,合同会社たろう,,合同会社,山梨県,南都留郡道志村,下善之木１０２５１,,19,422,4020222,,,,,,,2023-09-08,1,,,,,タロウ,0
163,1110003005158,新規,0,2023-09-08,2023-09-08,ミラスＺＸ合同会社,,合同会社,新潟県,新潟市南区,味方３６５番地,,15,106,9501261,,,,,,,2023-09-08,1,,,,,ミラスゼットエックス,0
173,1120001257923,新規,0,2023-09-08,2023-09-08,ＣＬＥＶＥＲ株式会社,,株式会社,大阪府,大阪市城東区,関目５丁目２１番１７号,,27,118,5360008,,,,,,,2023-09-08,1,,,,,クレバー,0
174,1120001257931,新規,0,2023-09-08,2023-09-08,西條電子工業株式会社,,株式会社,大阪府,大阪市北区,天満２丁目７番１号,,27,127,5300043,,,,,,,2023-09-08,1,,,,,サイジョウデンシコウギョウ,0
175,1120001257948,新規,0,2023-09-08,2023-09-08,Ｄａｍｏ株式会社,,株式会社,大阪府,大阪市西成区,岸里東２丁目１４－１６,,27,122,5570042,,,,,,,2023-09-08,1,,,,,ダモ,0
177,1120003024850,新規,0,2023-09-08,2023-09-08,ＨＩＮＡ合同会社,,合同会社,大阪府,大阪市西成区,松３丁目１１番２２号１０１号室,,27,122,5570034,,,,,,,2023-09-08,1,,,,,ヒナ,0
180,1120901048042,新規,0,2023-09-08,2023-09-08,株式会社ウィルヘルスジャパン,,株式会社,大阪府,豊中市,浜３丁目１９番１３号,,27,203,5610817,,,,,,,2023-09-08,1,,,,,ウィルヘルスジャパン,0
183,1122001037339,新規,0,2023-09-08,2023-09-08,小木曽電設株式会社,,株式会社,大阪府,八尾市,桂町２丁目６１番地の７,,27,212,5810823,,,,,,,2023-09-08,1,,,,,コギソデンセツ,0
188,1130001075110,新規,0,2023-09-08,2023-09-08,株式会社松原古美術,,株式会社,京都府,京都市下京区,油小路通高辻下る麓町６２９番地アルモード京都高辻７０２号,,26,106,6008467,,,,,,,2023-09-08,1,,,,,マツバラコビジュツ,0
189,1130001075127,新規,0,2023-09-08,2023-09-08,株式会社ＫＳＩ,,株式会社,京都府,京都市右京区,嵯峨野秋街道町１１番地４３,,26,108,6168314,,,,,,,2023-09-08,1,,,,,ケイエスアイ,0
196,1140001131440,新規,0,2023-09-08,2023-09-08,株式会社シンダイ,,株式会社,兵庫県,朝来市,和田山町玉置６８９番地,,28,225,6695213,,,,,,,2023-09-08,1,,,,,シンダイ,0
197,1140001131449,新規,0,2023-09-08,2023-09-08,株式会社ＫＮＫ,,株式会社,兵庫県,神戸市垂水区,舞多聞西１丁目１２番１号,,28,108,6550051,,,,,,,2023-09-08,1,,,,,ケイエヌケイ,0
198,1140001131473,新規,0,2023-09-08,2023-09-08,株式会社ＥＭＡ,,株式会社,兵庫県,姫路市,佃町１番地１ＯＡ．ＦＬＡＴ２０１,,28,201,6728049,,,,,,,2023-09-08,1,,,,,イーエムエー,0
199,1140001131498,新規,0,2023-09-08,2023-09-08,ＳＨＩＮＴＥＣＨ株式会社,,株式会社,兵庫県,神戸市須磨区,北落合４丁目２８番１３号,,28,107,6540151,,,,,,,2023-09-08,1,,,,,シンテック,0
200,1140001131507,新規,0,2023-09-08,2023-09-08,株式会社てらぎ家畜医院,,株式会社,兵庫県,美方郡新温泉町,丹土５９６番地２,,28,586,6696813,,,,,,,2023-09-08,1,,,,,テラギカチクイイン,0
201,1140001131515,新規,0,2023-09-08,2023-09-08,きちまる農園株式会社,,株式会社,兵庫県,南あわじ市,賀集福井７１番地３,,28,224,6560516,,,,,,,2023-09-08,1,,,,,キチマルノウエン,0
202,1140001131531,新規,0,2023-09-08,2023-09-08,株式会社ＫＯＮＩＫＥＮ,,株式会社,兵庫県,小野市,上本町１３５番地の１０,,28,218,6751379,,,,,,,2023-09-08,1,,,,,コニケン,0
203,1140001131556,新規,0,2023-09-08,2023-09-08,株式会社ＡＰＰＲＥＮＤＲＥ,,株式会社,兵庫県,神戸市垂水区,北舞子１丁目１－１１,,28,108,6550045,,,,,,,2023-09-08,1,,,,,アプランドル,0
204,1140002004364,新規,0,2023-09-08,2023-09-08,有限会社近畿碓永輸送センター,,有限会社,兵庫県,神戸市西区,岩岡町野中内山２番地の１,,28,111,6512405,,,,,,,2023-09-08,1,,,,,,0
205,1140003019510,新規,0,2023-09-08,2023-09-08,合同会社再度山荘,,合同会社,兵庫県,神戸市中央区,神戸港地方字再度谷６３番地,,28,110,6500007,,,,,,,2023-09-08,1,,,,,フタタビサンソウ,0
206,1140003019535,新規,0,2023-09-08,2023-09-08,ＩＣ合同会社,,合同会社,兵庫県,伊丹市,池尻７丁目３１ハイツモーニンググローリー１０１号室,,28,207,6640027,,,,,,,2023-09-08,1,,,,,アイシー,0
210,1150003003059,新規,0,2023-09-08,2023-09-08,合同会社やま建築,,合同会社,奈良県,香芝市,穴虫２８７１番地８８,,29,210,6390252,,,,,,,2023-09-08,1,,,,,ヤマケンチク,0
220,1180001157894,新規,0,2023-09-08,2023-09-08,株式会社ＣＯＮＣＩＡＴＥ,,株式会社,愛知県,名古屋市守山区,大字吉根字太鼓ケ根３２１１番地の３４８,,23,113,4630004,,,,,,,2023-09-08,1,,,,,コンシエイト,0
221,1180001157969,新規,0,2023-09-08,2023-09-08,株式会社Ｋｏｈｏｌａ,,株式会社,愛知県,一宮市,萩原町滝字内田７８８番地１,,23,203,4910372,,,,,,,2023-09-08,1,,,,,コホラ,0
222,1180001157977,新規,0,2023-09-08,2023-09-08,株式会社Ｇｇ,,株式会社,愛知県,尾張旭市,旭ケ丘町旭ケ丘５６２４番地１,,23,226,4880083,,,,,,,2023-09-08,1,,,,,ジージー,0
226,1180003025703,新規,0,2023-09-08,2023-09-08,合同会社ＳＴＹ,,合同会社,愛知県,一宮市,松降２丁目２－１,,23,203,4910042,,,,,,,2023-09-08,1,,,,,エスティワイ,0
230,1200001041699,新規,0,2023-09-08,2023-09-08,株式会社みつお,,株式会社,岐阜県,岐阜市,光明町２丁目５第二田中ビル６０５,,21,201,5008868,,,,,,,2023-09-08,1,,,,,ミツオ,0
231,1200001041708,新規,0,2023-09-08,2023-09-08,株式会社ＶＥＣＴＯＲ　ＤｅＳＩＧＮ,,株式会社,岐阜県,本巣市,下真桑１１８７番地５,,21,218,5010466,,,,,,,2023-09-08,1,,,,,ベクトルデザイン,0
233,1200003006080,新規,0,2023-09-08,2023-09-08,合同会社中屋工業所,,合同会社,岐阜県,大垣市,上石津町下多良２０３番地,,21,202,5031621,,,,,,,2023-09-08,1,,,,,ナカヤコウギョウショ,0
238,1240003006291,新規,0,2023-09-08,2023-09-08,合同会社融運,,合同会社,広島県,広島市西区,己斐本町２丁目１３番１７号,,34,104,7330812,,,,,,,2023-09-08,1,,,,,ロンユン,0
241,1270003001562,新規,0,2023-09-08,2023-09-08,合同会社ナタラツ,,合同会社,鳥取県,鳥取市,国府町高岡６８０番地５,,31,201,6800131,,,,,,,2023-09-08,1,,,,,ナタラツ,0
247,1290801029860,新規,0,2023-09-08,2023-09-08,株式会社ＭＡＲＫ　ＳＴＥＬＬＡ,,株式会社,福岡県,北九州市八幡西区,大浦１丁目１１番２１－１０１号,,40,109,8070874,,,,,,,2023-09-08,1,,,,,マークステラ,0
254,1320003004171,新規,0,2023-09-08,2023-09-08,合同会社まつだ,,合同会社,大分県,杵築市,大字南杵築２６９４－２,,44,210,8730002,,,,,,,2023-09-08,1,,,,,マツダ,0
266,1360003013235,新規,0,2023-09-08,2023-09-08,クエーサーエージェンシー合同会社,,合同会社,沖縄県,糸満市,西崎１丁目２７番１３－２号,,47,210,9010305,,,,,,,2023-09-08,1,,,,,クエーサーエージェンシー,0
268,1370001050361,新規,0,2023-09-08,2023-09-08,株式会社Ｍｉｒｉｚ　Ｌｉｎｋｓ,,株式会社,宮城県,仙台市若林区,卸町２丁目１５－２・５Ｆ・１０号室,,04,103,9840015,,,,,,,2023-09-08,1,,,,,ミライズリンクス,0
284,1430001089939,新規,0,2023-09-08,2023-09-08,株式会社村上工業,,株式会社,北海道,札幌市北区,新川西四条４丁目６番１６号,,01,102,0010934,,,,,,,2023-09-08,1,,,,,ムラカミコウギョウ,0
289,1430003015422,新規,0,2023-09-08,2023-09-08,合同会社レゾナ,,合同会社,北海道,札幌市西区,八軒八条東２丁目２番２０－３０５号,,01,107,0630868,,,,,,,2023-09-08,1,,,,,レゾナ,0
296,1700150116342,新規,0,2023-09-08,2023-09-08,ｓｈｅｎｚｈｅｎｓｈｉｚｏｎｇｂａｎｇｋｅｊｉｙｏｕｘｉａｎｇｏｎｇｓｉ,,外国会社等,,,,,,,,＃１　Ｆｌｏｏｒ　＃１　Ｂｕｉｌｄｉｎｇ，Ｙｉｊｉａｙａｎｇ　Ｉｎｄｕｓｔｒｉａｌ　Ｐａｒｋ，Ｈｕａｍｉｎｇ　Ｒｏａｄ，Ｌａｎｇｋｏｕ　Ｃｏｍｍｕｎｉｔｙ，Ｄａｌａｎｇ　Ｓｔｒｅｅｔ，Ｌｏｎｇｈｕａ　Ｄｉｓｔｒｉｃｔ，Ｓｈｅｎｚｈｅｎ，Ｇｕａｎｇｄｏｎｇ，Ｃｈｉｎａ,,,,,,2023-09-08,1,,,,,シンセンシゾンバンテクノロジーユウゲンカイシャ,0
297,1700150119964,新規,0,2023-09-08,2023-09-08,ＷｅｎＳｈｕｉ　ＨｅＹａｎＭａｏＭａｏＹｉ　ＹｏｕＸｉａｎＧｏｎｇＳｉ,,外国会社等,,,,,,,,ｓｈａｎｘｉｓｈｅｎｇ　ｌｖｌｉａｎｇｓｈｉ　ｗｅｎｓｈｕｉｘｉａｎｆｅｎｇｃｈｅｎｇｚｈｅｎｘｉｊｉｅｃｕｎｊｉｎｆｅｎｇｊｉａｙｕａｎ３ｈａｏｌｏｕ１ｄａｎｙｕａｎ１５０３,,,,,,2023-09-08,1,,,,,ブンスイヘヤンマオマオイユウゲンコウシ,0
298,1700150119972,新規,0,2023-09-08,2023-09-08,ｎｉｎｇｂｏ　ｈｏｎｇｃｈｕａｎｇｚｈａｏｍｉｎｇｑｉｊｕ　ｙｏｕｘｉａｎｇｏｎｇｓｉ,,外国会社等,,,,,,,,５９７　Ｙｏｕｊｉａ　Ｖｉｌｌａｇｅ，Ｘｉｄｉａｎ　Ｔｏｗｎ，Ｎｉｎｇｈａｉ　Ｃｏｕｎｔｙ，Ｎｉｎｇｂｏ　Ｃｉｔｙ，Ｚｈｅｊｉａｎｇ　Ｐｒｏｖｉｎｃｅ．,,,,,,2023-09-08,1,,,,,ニンボホンツァンザオミンキグユウゲンコウシ,0
299,1700150119980,新規,0,2023-09-08,2023-09-08,Ｇｕａｎｇｄｏｎｇ　Ｃｈｅｎｇｙｕ　Ｐｒｏｐｅｒｔｙ　Ｓｅｒｖｉｃｅ　Ｃｏ．，Ｌｔｄ,,外国会社等,,,,,,,,ｈａｉｂｉｎｄｏｎｇｅｒｌｕ８ｈａｏｓｈｏｕｃｅｎｇ０１ｈａｏｓｈａｎｇｐｕ　ｚｈａｎｊｉａｎｇｓｈｉｚｈａｎｊｉａｎｇｋａｉｆａｑｕ,,,,,,2023-09-08,1,,,,,カントンチェンユプロパティーサービスカンパニーリミテッド,0
300,1700150119989,新規,0,2023-09-08,2023-09-08,ｂｅｉｊｉｎｇｄｉａｎｊｉａｎｋｅｊｉｙｏｕｘｉａｎｇｏｎｇｓｉ,,外国会社等,,,,,,,,ｂｅｉｊｉｎｇｓｈｉｈａｉｄｉａｎｑｕｚｈｉｑｉａｎｇｂｅｉｙｕａｎ３０ｈａｏｌｏｕ２ｃｅｎｇ２１０,,,,,,2023-09-08,1,,,,,ベイジンディエンジエンコージーヨウシエンゴンスー,0
301,1700150119997,新規,0,2023-09-08,2023-09-08,Ｌｅｎｇｓｈｕｉｊｉａｎｇ　Ｙｉｊｉａｎｇ　Ｎｅｔｗｏｒｋ　ｔｅｃｈｎｏｌｏｇｙ　Ｃｏ．，ＬＴＤ,,外国会社等,,,,,,,,Ｒｏｏｍ　１３３５，１３／Ｆ，Ｆｉｌｍ　ａｎｄ　Ｔｅｌｅｖｉｓｉｏｎ　Ｉｎｔｅｒｎａｔｉｏｎａｌ　Ｂｕｓｉｎｅｓｓ　Ｃｅｎｔｅｒ　Ｂｕｉｌｄｉｎｇ，Ｓｔｉｉｄｕ　Ｍｉｄｄｌｅ　Ｒｏａｄ，Ｌｅｎｇｓｈｕｉｊｉａｎｇ　Ｓｔｒｅｅｔ，Ｌｅｎｇｓｈｕｉｊｉａｎｇ　Ｃｉｔｙ,,,,,,2023-09-08,1,,,,,ロンシュイジャンシーイージャンワンルオコージーヨウシエンゴンスー,0
302,1700150120006,新規,0,2023-09-08,2023-09-08,ｓｈａｎｇｈａｉｘｉａｏｍｏｗａｎｇｌｕｏｋｅｊｉｙｏｕｘｉａｎｇｏｎｇｓｉ,,外国会社等,,,,,,,,ｓｈａｎｇｈａｉｓｈｉｃｈｏｎｇｍｉｎｇｑｕｍｉａｏｚｈｅｎｈｏｎｇｈａｉｇｏｎｇｌｕ９８ｈａｏ８８２１ｓｈｉ,,,,,,2023-09-08,1,,,,,シャンハイシャオモーワンルオコージーヨウシエンゴンスー,0
303,1700150120014,新規,0,2023-09-08,2023-09-08,ｆｕｚｈｏｕｂａｎａｎａｍａｏｙｉｙｏｕｘｉａｎｇｏｎｇｓｉ,,外国会社等,,,,,,,,ｆｕｊｉａｎｓｈｅｎｇｆｕｚｈｏｕｓｈｉｆｕｑｉｎｇｓｈｉｙｉｎｘｉｊｉｅｄａｏｆｕｑｉｎｇｗａｎｄａｇｕａｎｇｃｈａｎｇＡ１ｚｕｏ２３１６ｓｈｉ,,,,,,2023-09-08,1,,,,,フクシユウバナナボウエキユウゲンコウシ,0
311,2010003041633,新規,0,2023-09-08,2023-09-08,合同会社和扇堂,,合同会社,東京都,中央区,入船２丁目１０番８号,,13,102,1040042,,,,,,,2023-09-08,1,,,,,ワセンドウ,0
314,2010101015803,新規,0,2023-09-08,2023-09-08,株式会社マルキ,,株式会社,東京都,八王子市,楢原町１８１１番地７,,13,201,1930803,,,,,,,2023-09-08,1,,,,,マルキ,0
315,2010101015811,新規,0,2023-09-08,2023-09-08,株式会社ＬＩＡＮＴ,,株式会社,東京都,八王子市,元八王子町２丁目２０３０,,13,201,1930826,,,,,,,2023-09-08,1,,,,,ライアント,0
316,2010103002205,新規,0,2023-09-08,2023-09-08,合同会社アトリエ・エリン,,合同会社,東京都,八王子市,南陽台２丁目１２番８号,,13,201,1920371,,,,,,,2023-09-08,1,,,,,アトリエエリン,0
323,2010401176915,新規,0,2023-09-08,2023-09-08,Ｏｎｅｂｂｉｔ株式会社,,株式会社,東京都,港区,芝５丁目２６番２４号,,13,103,1080014,,,,,,,2023-09-08,1,,,,,ワンビット,0
324,2010401176980,新規,0,2023-09-08,2023-09-08,ＬＳ‐ＳＨＩＰ第４６号株式会社,,株式会社,東京都,港区,六本木１丁目６番１号,,13,103,1060032,,,,,,,2023-09-08,1,,,,,エルエスシップダイヨンジュウロクゴウ,0
325,2010401177013,新規,0,2023-09-08,2023-09-08,株式会社Ｓａｋｅ　Ｖｅｒｓｅ,,株式会社,東京都,港区,麻布十番１丁目５－２６麻布十番シティマンション３０１,,13,103,1060045,,,,,,,2023-09-08,1,,,,,サケバース,0
326,2010401177021,新規,0,2023-09-08,2023-09-08,株式会社りんごぷろじぇくと,,株式会社,東京都,港区,新橋５丁目２４番８号パークハビオ新橋１３０４,,13,103,1050004,,,,,,,2023-09-08,1,,,,,リンゴプロジェクト,0
327,2010401177087,新規,0,2023-09-08,2023-09-08,株式会社ＳＡＭＵＲＡＩ不動産,,株式会社,東京都,港区,三田１丁目３番地４０号天翔オフィス麻布十番７０３号室,,13,103,1080073,,,,,,,2023-09-08,1,,,,,サムライフドウサン,0
344,2010901053787,新規,0,2023-09-08,2023-09-08,株式会社ベルテンポ,,株式会社,東京都,世田谷区,船橋３丁目１７番１２号－４１５号,,13,112,1560055,,,,,,,2023-09-08,1,,,,,ベルテンポ,0
345,2010903008442,新規,0,2023-09-08,2023-09-08,和泉電器合同会社,,合同会社,東京都,世田谷区,北沢５丁目１３番７号フェアロージュ北沢１０３,,13,112,1550031,,,,,,,2023-09-08,1,,,,,イズミデンキ,0
353,2011001156786,新規,0,2023-09-08,2023-09-08,株式会社アーク人財紹介センター,,株式会社,東京都,渋谷区,幡ヶ谷２丁目１３番６号富士ビル３－Ｂ,,13,113,1510072,,,,,,,2023-09-08,1,,,,,アークジンザイショウカイセンター,0
354,2011001156803,新規,0,2023-09-08,2023-09-08,株式会社Ｓｐａｃｅ２１,,株式会社,東京都,渋谷区,道玄坂１丁目１０番８号渋谷道玄坂東急ビル２Ｆ－Ｃ,,13,113,1500043,,,,,,,2023-09-08,1,,,,,スペースニジュウイチ,0
355,2011001156828,新規,0,2023-09-08,2023-09-08,Ｎｐｒｏ株式会社,,株式会社,東京都,目黒区,平町１丁目２４番１３号,,13,110,1520032,,,,,,,2023-09-08,1,,,,,エヌプロ,0
360,2011101104265,新規,0,2023-09-08,2023-09-08,丸桜商事株式会社,,株式会社,東京都,新宿区,上落合３丁目１９番地２１号１０６,,13,104,1610034,,,,,,,2023-09-08,1,,,,,マルオウショウジ,0
361,2011101104273,新規,0,2023-09-08,2023-09-08,利多商事株式会社,,株式会社,東京都,新宿区,西新宿３丁目３番１３号西新宿水間ビル６階,,13,104,1600023,,,,,,,2023-09-08,1,,,,,リタショウジ,0
364,2011105010773,新規,0,2023-09-08,2023-09-08,一般社団法人伊那ＶａｌｌｅｙＳｕｐｐｏｒｔｅｒ会,,その他の設立登記法人,東京都,新宿区,新宿１丁目１２番１２号,,13,104,1600022,,,,,,,2023-09-08,1,,,,,イナバレーサポーターカイ,0
370,2011603004046,新規,0,2023-09-08,2023-09-08,合同会社ピアチェーレ,,合同会社,東京都,練馬区,谷原３丁目５番９号,,13,120,1770032,,,,,,,2023-09-08,1,,,,,ピアチェーレ,0
371,2011703003591,新規,0,2023-09-08,2023-09-08,合同会社Ｋ＆Ｋ,,合同会社,東京都,江戸川区,本一色３丁目４１番７号,,13,123,1330044,,,,,,,2023-09-08,1,,,,,ケイアンドケイ,0
381,2012801022624,新規,0,2023-09-08,2023-09-08,サイフスコンサルティング株式会社,,株式会社,東京都,日野市,多摩平２丁目５－１ＰｌａｎＴ,,13,212,1910062,,,,,,,2023-09-08,1,,,,,サイフスコンサルティング,0
382,2012803003176,新規,0,2023-09-08,2023-09-08,合同会社ＯＩ,,合同会社,東京都,国立市,青柳３丁目２６番地の５４センチュリー国立４０３,,13,215,1860013,,,,,,,2023-09-08,1,,,,,オーアイ,0
396,2020001153363,新規,0,2023-09-08,2023-09-08,エイトワン株式会社,,株式会社,神奈川県,横浜市神奈川区,東神奈川１丁目９番地４―５０２号,,14,102,2210044,,,,,,,2023-09-08,1,,,,,エイトワン,0
397,2020001153413,新規,0,2023-09-08,2023-09-08,株式会社Ｊａｐａｎ　Ｓａｋｅ　Ｍｅｒｃｈａｎｔ,,株式会社,神奈川県,横浜市港南区,丸山台３丁目２０番２４号,,14,111,2330013,,,,,,,2023-09-08,1,,,,,ジャパンサケマーチャント,0
404,2020003024488,新規,0,2023-09-08,2023-09-08,合同会社ＵＰ　ＦＲＯＮＴ,,合同会社,神奈川県,川崎市高津区,二子１丁目２１番３号セキュリオ二子玉川１０１,,14,134,2130002,,,,,,,2023-09-08,1,,,,,アップフロント,0
405,2020003024554,新規,0,2023-09-08,2023-09-08,合同会社八木電力,,合同会社,神奈川県,横浜市青葉区,新石川４丁目９番地２４,,14,117,2250003,,,,,,,2023-09-08,1,,,,,ヤギデンリョク,0
409,2021001080093,新規,0,2023-09-08,2023-09-08,Ｋ‐Ｔｅｃｈｓ株式会社,,株式会社,神奈川県,足柄下郡箱根町,仙石原６２４番１号,,14,382,2500631,,,,,,,2023-09-08,1,,,,,ケイテックス,0
410,2021001080102,新規,0,2023-09-08,2023-09-08,株式会社ＷＯＲＴＨ　ＲＥＡＬＴＹ,,株式会社,神奈川県,横須賀市,浦賀５丁目２３番２号,,14,201,2390822,,,,,,,2023-09-08,1,,,,,ワースリアルティ,0
411,2021001080110,新規,0,2023-09-08,2023-09-08,サムライカージャパン株式会社,,株式会社,神奈川県,相模原市南区,麻溝台７丁目２２番１５号,,14,153,2520328,,,,,,,2023-09-08,1,,,,,サムライカージャパン,0
412,2021001080119,新規,0,2023-09-08,2023-09-08,株式会社ヤマムラアート,,株式会社,神奈川県,相模原市緑区,寸沢嵐２５０４番地,,14,151,2520176,,,,,,,2023-09-08,1,,,,,ヤマムラアート,0
419,2030001155697,新規,0,2023-09-08,2023-09-08,株式会社ＫＵＮＡ,,株式会社,埼玉県,草加市,松原５丁目５番２－１号,,11,221,3400041,,,,,,,2023-09-08,1,,,,,クナ,0
420,2030001155805,新規,0,2023-09-08,2023-09-08,株式会社雅工業,,株式会社,埼玉県,八潮市,大字南川崎５３１番地４,,11,234,3400814,,,,,,,2023-09-08,1,,,,,ミヤビコウギョウ,0
421,2030001155821,新規,0,2023-09-08,2023-09-08,株式会社シンゴー,,株式会社,埼玉県,川口市,大字新堀６２０番地の１メゾン新郷５２３号,,11,203,3340061,,,,,,,2023-09-08,1,,,,,シンゴー,0
422,2030001155945,新規,0,2023-09-08,2023-09-08,株式会社神明アグリイノベーション,,株式会社,埼玉県,加須市,下樋遣川４０８番地,,11,210,3470005,,,,,,,2023-09-08,1,,,,,シンメイアグリイノベーション,0
426,2030003022409,新規,0,2023-09-08,2023-09-08,天美合同会社,,合同会社,埼玉県,川口市,西川口１丁目３５－７－９０９号ホーユウコンフォルト,,11,203,3320021,,,,,,,2023-09-08,1,,,,,テンビ,0
432,2040001129948,新規,0,2023-09-08,2023-09-08,株式会社梅澤緑化土木,,株式会社,千葉県,東金市,山田５０６番地４,,12,213,2830823,,,,,,,2023-09-08,1,,,,,ウメザワリョクカドボク,0
433,2040001129989,新規,0,2023-09-08,2023-09-08,株式会社アルクレール,,株式会社,千葉県,松戸市,稔台７丁目７番地の２０,,12,207,2702231,,,,,,,2023-09-08,1,,,,,アルクレール,0
434,2040001130006,新規,0,2023-09-08,2023-09-08,三合株式会社,,株式会社,千葉県,千葉市中央区,祐光２丁目１１－１２ＳＫマンション４１１,,12,101,2600007,,,,,,,2023-09-08,1,,,,,ミアイ,0
438,2040003023273,新規,0,2023-09-08,2023-09-08,合同会社リンク,,合同会社,千葉県,船橋市,習志野台１丁目２６番７－３０８号,,12,204,2740063,,,,,,,2023-09-08,1,,,,,リンク,0
439,2040003023281,新規,0,2023-09-08,2023-09-08,合同会社Ｅｖｅｒ　Ｆｒｅｅ,,合同会社,千葉県,船橋市,本町６丁目１８－１９第３山中ビル４０１,,12,204,2730005,,,,,,,2023-09-08,1,,,,,エバーフリー,0
440,2040003023298,新規,0,2023-09-08,2023-09-08,ＹＨ合同会社,,合同会社,千葉県,柏市,中央１丁目２番２５号矢羽根ビル５０１号,,12,217,2770023,,,,,,,2023-09-08,1,,,,,ワイエイチ,0
443,2050001053404,新規,0,2023-09-08,2023-09-08,ナカタカ建築株式会社,,株式会社,茨城県,古河市,関戸１７７１番地１０マイルストーンＩＶ２０２,00131841,08,204,3060205,,,,,,,2023-09-08,1,,,,,ナカタカケンチク,0
444,2050001053412,新規,0,2023-09-08,2023-09-08,株式会社丸将,,株式会社,茨城県,つくば市,古来５２４番地９,,08,220,3050021,,,,,,,2023-09-08,1,,,,,マルショウ,0
445,2050003007779,新規,0,2023-09-08,2023-09-08,合同会社給与計算代行社,,合同会社,茨城県,水戸市,柳町２丁目３番７号,,08,201,3100817,,,,,,,2023-09-08,1,,,,,キュウヨケイサンダイコウシャ,0
448,2060001036309,新規,0,2023-09-08,2023-09-08,株式会社野村工業,,株式会社,栃木県,真岡市,石島８５２番地４,,09,209,3214507,,,,,,,2023-09-08,1,,,,,ノムラコウギョウ,0
452,2070001040838,新規,0,2023-09-08,2023-09-08,ＣＲＯＷＮ　ＴＲＡＤＩＮＧ株式会社,,株式会社,群馬県,桐生市,新里町新川２７５４番地１０,,10,203,3760121,,,,,,,2023-09-08,1,,,,,クラウントレーディング,0
453,2070001040846,新規,0,2023-09-08,2023-09-08,株式会社Ｔ‐ＮＥＸＴ,,株式会社,群馬県,みどり市,笠懸町西鹿田５５２番地１,,10,212,3792314,,,,,,,2023-09-08,1,,,,,ティーネクスト,0
457,2080401026717,新規,0,2023-09-08,2023-09-08,株式会社ソルリス,,株式会社,静岡県,浜松市中区,文丘町６‐１３メイプルコート文丘２Ｄ,,22,131,4328004,,,,,,,2023-09-08,1,,,,,ソルリス,0
481,2120001257930,新規,0,2023-09-08,2023-09-08,株式会社ＳＨＩＭＡ,,株式会社,大阪府,大阪市淀川区,塚本６丁目３番３３－２１７号,,27,123,5320026,,,,,,,2023-09-08,1,,,,,シマ,0
482,2120001257939,新規,0,2023-09-08,2023-09-08,株式会社ヘソホールディングス,,株式会社,大阪府,大阪市福島区,大開１丁目１５番２６号,,27,103,5530007,,,,,,,2023-09-08,1,,,,,ヘソホールディングス,0
483,2120001257947,新規,0,2023-09-08,2023-09-08,株式会社センズビルド,,株式会社,大阪府,枚方市,杉山手２丁目１２番１４号,,27,210,5730118,,,,,,,2023-09-08,1,,,,,センズビルド,0
484,2120001257955,新規,0,2023-09-08,2023-09-08,株式会社岩見事務所,,株式会社,大阪府,大阪市中央区,本町３丁目５番２号,,27,128,5410053,,,,,,,2023-09-08,1,,,,,イワミジムショ,0
485,2120001257996,新規,0,2023-09-08,2023-09-08,ＬＣホールディングス株式会社,,株式会社,大阪府,大阪市中央区,西心斎橋１丁目５番５号アーバンＢＬＤ心斎橋６階,,27,128,5420086,,,,,,,2023-09-08,1,,,,,エルシーホールディングス,0
503,2130001075092,新規,0,2023-09-08,2023-09-08,株式会社Ｓ＆Ｍ　ＨＯＬＤＩＮＧＳ,,株式会社,京都府,木津川市,山城町上狛天竺堂１６番地,,26,214,6190204,,,,,,,2023-09-08,1,,,,,エスアンドエムホールディングス,0
504,2130001075101,新規,0,2023-09-08,2023-09-08,明利貿易株式会社,,株式会社,京都府,向日市,上植野町脇田２番地,,26,208,6170006,,,,,,,2023-09-08,1,,,,,メリボウエキ,0
505,2130001075118,新規,0,2023-09-08,2023-09-08,ｏｎｅ‐Ａ株式会社,,株式会社,京都府,京都市西京区,御陵峰ケ堂町２丁目７番地１１７,,26,111,6101103,,,,,,,2023-09-08,1,,,,,ワンエース,0
508,2130003008950,新規,0,2023-09-08,2023-09-08,Ｂ＆Ｓ合同会社,,合同会社,京都府,京都市伏見区,深草善導寺町１３番地１仙光ハイムＡ２０３,,26,109,6128433,,,,,,,2023-09-08,1,,,,,ビーアンドエス,0
509,2140001131448,新規,0,2023-09-08,2023-09-08,株式会社ＷＩＺＰＩＴ,,株式会社,兵庫県,芦屋市,山手町３１番２０号,,28,206,6590096,,,,,,,2023-09-08,1,,,,,ウィズピット,0
510,2140001131464,新規,0,2023-09-08,2023-09-08,株式会社奥田,,株式会社,兵庫県,豊岡市,但東町赤花３８８番地の６,,28,209,6680352,,,,,,,2023-09-08,1,,,,,オクダ,0
511,2140001131480,新規,0,2023-09-08,2023-09-08,株式会社ミライズホーム,,株式会社,兵庫県,明石市,大久保町大窪２６８５番地の６パフィオ大久保２０２,,28,203,6740051,,,,,,,2023-09-08,1,,,,,ミライズホーム,0
512,2140001131497,新規,0,2023-09-08,2023-09-08,株式会社Ｉ．ｓｏｌａｒｅ,,株式会社,兵庫県,姫路市,広畑区吾妻町１丁目１７番地１エミネントグレイスＡ１０１号,,28,201,6711154,,,,,,,2023-09-08,1,,,,,アイソラーレ,0
513,2140001131514,新規,0,2023-09-08,2023-09-08,株式会社タナカ,,株式会社,兵庫県,豊岡市,日高町祢布２４番地の７,,28,209,6695305,,,,,,,2023-09-08,1,,,,,タナカ,0
514,2140001131522,新規,0,2023-09-08,2023-09-08,ジアトランティックオーシャン株式会社,,株式会社,兵庫県,芦屋市,東山町２４番３２－２号,,28,206,6590091,,,,,,,2023-09-08,1,,,,,ジアトランティックオーシャン,0
515,2140001131539,新規,0,2023-09-08,2023-09-08,株式会社ケイケイ,,株式会社,兵庫県,神戸市北区,藤原台南町１丁目７番２０号,,28,109,6511303,,,,,,,2023-09-08,1,,,,,ケイケイ,0
516,2140001131547,新規,0,2023-09-08,2023-09-08,ＪＳワールド株式会社,,株式会社,兵庫県,神戸市中央区,北長狭通３丁目５－６,,28,110,6500012,,,,,,,2023-09-08,1,,,,,ジェイエスワールド,0
533,2180001157877,新規,0,2023-09-08,2023-09-08,株式会社たくみ防水工業,,株式会社,愛知県,名古屋市西区,大野木４丁目２０９番地,,23,104,4520803,,,,,,,2023-09-08,1,,,,,タクミボウスイコウギョウ,0
534,2180001157968,新規,0,2023-09-08,2023-09-08,株式会社ＮＥＸＴ,,株式会社,愛知県,名古屋市名東区,照が丘２１３番地の１,,23,115,4650042,,,,,,,2023-09-08,1,,,,,ネクスト,0
541,2180003025719,新規,0,2023-09-08,2023-09-08,合同会社ＮＴＮ,,合同会社,愛知県,名古屋市中区,栄４丁目４番１７号エムコット栄ビル２階Ｂ号室,,23,106,4600008,,,,,,,2023-09-08,1,,,,,エヌティーエヌ,0
544,2180305009510,新規,0,2023-09-08,2023-09-08,ＮＰＯ法人ロイヤルアニマルボンド・安城,,その他の設立登記法人,愛知県,安城市,小川町天神５５番地７,,23,212,4441162,,,,,,,2023-09-08,1,,,,,ロイヤルアニマルボンドアンジョウ,0
545,2190001030728,新規,0,2023-09-08,2023-09-08,株式会社ホスタ,,株式会社,三重県,四日市市,釆女町９３８番地１,,24,202,5100954,,,,,,,2023-09-08,1,,,,,ホスタ,0
547,2210001019462,新規,0,2023-09-08,2023-09-08,ＦＡシステム株式会社,,株式会社,福井県,坂井市,坂井町下新庄第１２号２２番地１,,18,210,9190521,,,,,,,2023-09-08,1,,,,,エフエーシステム,0
566,2290001102979,新規,0,2023-09-08,2023-09-08,株式会社Ｃｒｏｓｓｏｖｅｒ,,株式会社,福岡県,福岡市博多区,博多駅前１丁目２３番２号パークフロント博多駅前１丁目,,40,132,8120011,,,,,,,2023-09-08,1,,,,,クロスオーバー,0
571,2290003014339,新規,0,2023-09-08,2023-09-08,合同会社資産運用参謀本部,,合同会社,福岡県,宗像市,泉ヶ丘１丁目６番地４,,40,220,8114142,,,,,,,2023-09-08,1,,,,,シサンウンヨウサンボウホンブ,0
572,2290003014347,新規,0,2023-09-08,2023-09-08,合同会社クラウド,,合同会社,福岡県,糸島市,蔵持７０３番地９,,40,230,8191141,,,,,,,2023-09-08,1,,,,,クラウド,0
576,2310001018594,新規,0,2023-09-08,2023-09-08,株式会社ＲｏＣ長崎,,株式会社,長崎県,諫早市,久山町１２６２パティオ久山Ｂ１０３号,,42,204,8540066,,,,,,,2023-09-08,1,,,,,アールオーシーナガサキ,0
587,2380001033959,新規,0,2023-09-08,2023-09-08,猪狩工務店株式会社,,株式会社,福島県,いわき市,小川町柴原字大社１６番地１,,07,204,9793111,,,,,,,2023-09-08,1,,,,,イガリコウムテン,0
596,2380005012744,新規,0,2023-09-08,2023-09-08,こめっこ協同組合,,その他の設立登記法人,福島県,郡山市,逢瀬町河内字篭原３,00131850,07,203,9630212,,,,,,,2023-09-08,1,,,,,コメッコ,0
602,2430001089938,新規,0,2023-09-08,2023-09-08,株式会社中野工業,,株式会社,北海道,札幌市白石区,菊水元町八条２丁目２番２号,,01,104,0030828,,,,,,,2023-09-08,1,,,,,ナカノコウギョウ,0
603,2430003015405,新規,0,2023-09-08,2023-09-08,Ａｄｍｉｘ　Ｎｉｓｅｋｏ合同会社,,合同会社,北海道,岩内郡岩内町,字野束２５８番地２０２,,01,402,0450024,,,,,,,2023-09-08,1,,,,,アドミックスニセコ,0
604,2430003015413,新規,0,2023-09-08,2023-09-08,合同会社天翔興業,,合同会社,北海道,札幌市東区,北四十七条東１５丁目３－２８－１０２,,01,103,0070847,,,,,,,2023-09-08,1,,,,,テンショウコウギョウ,0
605,2430003015421,新規,0,2023-09-08,2023-09-08,合同会社フェニックス,,合同会社,北海道,札幌市南区,南三十八条西１１丁目９番１０号,,01,106,0050038,,,,,,,2023-09-08,1,,,,,フェニックス,0
606,2440003001536,新規,0,2023-09-08,2023-09-08,合同会社ＩＲＪ,,合同会社,北海道,函館市,高盛町１３番２号,,01,202,0400024,,,,,,,2023-09-08,1,,,,,,0
610,2500005008639,新規,0,2023-09-08,2023-09-08,特定非営利活動法人優樹,,その他の設立登記法人,愛媛県,松山市,立花５丁目２番３１号,,38,201,7900966,,,,,,,2023-09-08,1,,,,,ユウキ,0
611,2700150119963,新規,0,2023-09-08,2023-09-08,Ｓａｎｆｅｎｇ　Ｇｌｏｂａｌ　Ｔｒａｄｉｎｇ　Ｃｏ．，Ｌｉｍｉｔｅｄ,,外国会社等,,,,,,,,ＲＯＯＭ　５１７　ＮＥＷ　ＣＩＴＹ　ＣＥＮＴＲＥ　２　ＬＥＩ　ＹＵＥ　ＭＵＮ　ＲＯＡＤ　ＫＷＵＮ　ＴＯＮＧ　ＫＬ　ＨＯＮＧＫＯＮＧ　９９９０７７　ＨＫ　　　　,,,,,,2023-09-08,1,,,,,サンフェググローバルトレーディングカンパニーリミテッド,0
612,2700150119971,新規,0,2023-09-08,2023-09-08,ｄｏｎｇｇｕａｎｂｏｍｏｎａｋｅｊｉ　ｙｏｕｘｉａｎｇｏｎｇｓｉ,,外国会社等,,,,,,,,Ｄｏｎｇｃｈｅｎｇｊｉｅｄａｏｄｏｎｇｃｈｅｎｇｇｕａｎｇｍｉｎｇｌｕ１７ｈａｏ１ｄｏｎｇ５５７ｓｈｉ　Ｄｏｎｇｇｕａｎ　Ｇｕａｎｇｄｏｎｇ,,,,,,2023-09-08,1,,,,,トンガンシボモナカギユウゲンコウシ,0
613,2700150119988,新規,0,2023-09-08,2023-09-08,ＣＯＩＮＮＯＶＡ（Ｇｕａｎｇｚｈｏｕ）Ｔｅｃｈｎｏｌｏｇｙ　ＣＯ．，ＬＴＤ,,外国会社等,,,,,,,,Ｎｏ．１６，Ｆｕｒｏｎｇ　Ｒｏａｄ，Ｓｈｉｌｉｎｇ　Ｔｏｗｎ　Ｈｕａｄｕ　Ｄｉｓｔｒｉｃｔ　Ｇｕａｎｇｚｈｏｕ　Ｃｉｔｙ　Ｇｕａｎｇｄｏｎｇ　Ｐｒｏｖｉｎｃｅ　５１０８５０　ＣＮ,,,,,,2023-09-08,1,,,,,ジョンチュワンリーグワンジョウコージーヨウシエンゴンスー,0
614,2700150119996,新規,0,2023-09-08,2023-09-08,Ｌｅｎｇｓｈｕｉｊｉａｎｇ　Ｋａｉｚｈｅｎ　ｎｅｔｗｏｒｋ　ｔｅｃｈｎｏｌｏｇｙ　Ｃｏ．，ＬＴＤ,,外国会社等,,,,,,,,Ｒｏｏｍ　１３３５－９，１３ｔｈ　Ｆｌｏｏｒ，Ｆｉｌｍ　ａｎｄ　Ｔｅｌｅｖｉｓｉｏｎ　Ｉｎｔｅｒｎａｔｉｏｎａｌ　Ｂｕｓｉｎｅｓｓ　Ｃｅｎｔｅｒ　Ｂｕｉｌｄｉｎｇ，Ｓｔｉｉｄｕ　Ｍｉｄｄｌｅ　Ｒｏａｄ，Ｌｅｎｇｓｈｕｉｊｉａｎｇ　Ｓｔｒｅｅｔ，Ｌｅｎｇｓｈｕｉｊｉａｎｇ　Ｃｉｔｙ,,,,,,2023-09-08,1,,,,,ロンシュイジャンシーカイジェンワンルオコージーヨウシエンゴンスー,0
615,2700150120005,新規,0,2023-09-08,2023-09-08,ＳＨＥＮＺＨＥＮ　ＢＡＯＬＡＩＹＥ　ＴＥＣＨＮＯＬＯＧＹ　ＣＯ．，ＬＴＤ,,外国会社等,,,,,,,,Ｂ３０１，Ｂｕｉｌｄｉｎｇ　Ｎｏ．３，Ｊｉｎｐｅｎｇ　Ｉｎｄｕｓｔｒｉａｌ　Ｐａｒｋ，Ｘｉｎｘｕｅ　Ｃｏｍｍｕｎｉｔｙ，Ｂａｎｔｉａｎ　Ｓｔｒｅｅｔ，Ｌｏｎｇｇａｎｇ　Ｄｉｓｔ．，,,,,,,2023-09-08,1,,,,,シェンジェンバオライイエコージーヨウシエンゴンスー,0
616,2700150120013,新規,0,2023-09-08,2023-09-08,ＳＨＥＮＨＥ　ＩＮＴＥＲＮＡＴＩＯＮＡＬ　ＨＯＬＤＩＮＧ　ＧＲＯＵＰ　ＣＯ．，ＬＩＭＩＴＥＤ,,外国会社等,,,,,,,,ＨＫ，９９９０７７，Ｈ．Ｋ．，ＷＡＮ　ＣＨＡＩ，ＦＬＡＴ／ＲＭ　Ａ　１２／Ｆ　ＺＪ　３００，３００　ＬＯＣＫＨＡＲＴ　ＲＯＡＤ,,,,,,2023-09-08,1,,,,,シンヘイインターナシヨナルホールデインググループカンパニリミテツド,0
617,2700150120046,新規,0,2023-09-08,2023-09-08,Ｐ．Ｇ．ＧＬＯＢＡＬ　ＧＥＮＥＲＡＬ　ＴＲＡＤＩＮＧ　ＰＲＩＶＡＴＥ　ＬＩＭＩＴＥＤ,,外国会社等,神奈川県,大和市,福田２４３２－１２第１鶴屋租－Ｃ,,14,213,2420024,スリランカ民主社会主義共和国アヌラダプラ・ネルムクラマ・ヤサシリガマ、ＮＯ．１８,,,,,,2023-09-08,1,,,,,ピギグロバルゲネラルトレーデイングプライベートリミテツド,0
618,2700150120062,新規,0,2023-09-08,2023-09-08,株式会社　ジェイワイプロジェクト,,外国会社等,東京都,江戸川区,清新町１丁目１－６－２２０３,,13,123,1340087,大韓民国ソウル特別市鍾路区碑峰路９２（旧基洞、旧基洞サムイクビラ）,,,,,,2023-09-08,1,,,,,カブシキガイシヤジエイワイプロジエクト,0
621,3010001238370,新規,0,2023-09-08,2023-09-08,株式会社エッセンスクライアント,,株式会社,東京都,文京区,千石２丁目３５番９－１０４号,,13,105,1120011,,,,,,,2023-09-08,1,,,,,エッセンスクライアント,0
626,3010101015802,新規,0,2023-09-08,2023-09-08,株式会社ＵＴＩＬＩＴＹ,,株式会社,東京都,八王子市,中野町３００４番地２６,,13,201,1920015,,,,,,,2023-09-08,1,,,,,ユーティリティ,0
627,3010101015810,新規,0,2023-09-08,2023-09-08,株式会社さくら,,株式会社,東京都,八王子市,城山手１丁目９番８号,,13,201,1930825,,,,,,,2023-09-08,1,,,,,,0
630,3010401176947,新規,0,2023-09-08,2023-09-08,ＴＡＭＡＲＡ　Ｊａｐａｎ株式会社,,株式会社,東京都,港区,東麻布１丁目２３番５号ＰＭＣビル２Ｆ,,13,103,1060044,,,,,,,2023-09-08,1,,,,,タマラジャパン,0
631,3010401176996,新規,0,2023-09-08,2023-09-08,Ｄｈｙａｎａ　Ｃｏｎｓｕｌｔｉｎｇ株式会社,,株式会社,東京都,港区,南青山３丁目１番３６号青山丸竹ビル６Ｆ,,13,103,1070062,,,,,,,2023-09-08,1,,,,,ディヤーナコンサルティング,0
632,3010401177020,新規,0,2023-09-08,2023-09-08,株式会社ＡＦＣコンサルティング,,株式会社,東京都,港区,北青山１丁目３番１号アールキューブ青山３階,,13,103,1070061,,,,,,,2023-09-08,1,,,,,エーエフシーコンサルティング,0
638,3010403030870,新規,0,2023-09-08,2023-09-08,紫明会合同会社,,合同会社,東京都,港区,赤坂９丁目６番２８号,,13,103,1070052,,,,,,,2023-09-08,1,,,,,シメイカイ,0
640,3010405022429,新規,0,2023-09-08,2023-09-08,一般社団法人Ｊａｐａｎ　Ｈｅａｌｔｈｃａｒｅ　Ｉｎｎｏｖａｔｉｏｎ　Ｈｕｂ,,その他の設立登記法人,東京都,港区,北青山１丁目３番１号アールキューブ青山３階,,13,103,1070061,,,,,,,2023-09-08,1,,,,,ジャパンヘルスケアイノベーションハブ,0
642,3010501051026,新規,0,2023-09-08,2023-09-08,株式会社ＣＥＬＡＤＯＮ　ＭＡＦＩＡ　ＪＡＰＡＮ,,株式会社,東京都,台東区,浅草２丁目２３番１号,,13,106,1110032,,,,,,,2023-09-08,1,,,,,セラドンマフィアジャパン,0
644,3010505003444,新規,0,2023-09-08,2023-09-08,医療法人社団らしく,,その他の設立登記法人,東京都,台東区,日本堤２丁目３８番３号桶田ビル１階,,13,106,1110021,,,,,,,2023-09-08,1,,,,,ラシク,0
646,3010603010350,新規,0,2023-09-08,2023-09-08,Ｇ３ＮＥＲＡＩＴ合同会社,,合同会社,東京都,江東区,千石１丁目１３番１８－１０１号,,13,108,1350015,,,,,,,2023-09-08,1,,,,,ジェネレイト,0
647,3010701044829,新規,0,2023-09-08,2023-09-08,株式会社ＭＩＫＡＤＯ,,株式会社,東京都,品川区,大井１丁目４２番１２号,,13,109,1400014,,,,,,,2023-09-08,1,,,,,ミカド,0
649,3010705003533,新規,0,2023-09-08,2023-09-08,医療法人社団亮栄会,,その他の設立登記法人,東京都,品川区,小山６丁目６番８号パレスパインツリー１階,,13,109,1420062,,,,,,,2023-09-08,1,,,,,リョウエイカイ,0
659,3011001156744,新規,0,2023-09-08,2023-09-08,株式会社カケハシ,,株式会社,東京都,渋谷区,渋谷２丁目１９－１５宮益坂ビルディング６０９,,13,113,1500002,,,,,,,2023-09-08,1,,,,,カケハシ,0
660,3011001156793,新規,0,2023-09-08,2023-09-08,株式会社コスメルウイングス,,株式会社,東京都,渋谷区,広尾５丁目１７番１０号,,13,113,1500012,,,,,,,2023-09-08,1,,,,,コスメルウイングス,0
663,3011101104264,新規,0,2023-09-08,2023-09-08,株式会社オーシャントレイル,,株式会社,東京都,新宿区,西新宿３丁目３番１３号西新宿水間ビル６階,,13,104,1600023,,,,,,,2023-09-08,1,,,,,オーシャントレイル,0
665,3011401025425,新規,0,2023-09-08,2023-09-08,株式会社堪能や,,株式会社,東京都,板橋区,板橋２丁目６５番８号ＭＳビル５階,,13,119,1730004,,,,,,,2023-09-08,1,,,,,タンノウヤ,0
667,3011501029739,新規,0,2023-09-08,2023-09-08,ＴＯＲＥＤＯＯＲ　ＪＡＰＡＮ株式会社,,株式会社,東京都,荒川区,荒川５丁目２５番３号ＳＡＹＧＡＰＬＥＳＡＮ３０４,,13,118,1160002,,,,,,,2023-09-08,1,,,,,トレードアジャパン,0
668,3011501029747,新規,0,2023-09-08,2023-09-08,翔産業株式会社,,株式会社,東京都,荒川区,東日暮里５丁目３９番１２号そーけん日暮里マンション３０２,,13,118,1160014,,,,,,,2023-09-08,1,,,,,カケルサンギョウ,0
669,3011601027114,新規,0,2023-09-08,2023-09-08,株式会社キャベッジ,,株式会社,東京都,練馬区,春日町３丁目１５－２０,,13,120,1790074,,,,,,,2023-09-08,1,,,,,キャベッジ,0
672,3011703003590,新規,0,2023-09-08,2023-09-08,昌源合同会社,,合同会社,東京都,江戸川区,松島４丁目４１－９－２０３号,,13,123,1320031,,,,,,,2023-09-08,1,,,,,ショウゲン,0
677,3011801043019,新規,0,2023-09-08,2023-09-08,株式会社ＫＯＫＯＤＡ,,株式会社,東京都,足立区,千住中居町２番７号,,13,121,1200035,,,,,,,2023-09-08,1,,,,,ココダ,0
680,3011803005818,新規,0,2023-09-08,2023-09-08,大琳貿易合同会社,,合同会社,東京都,葛飾区,立石６丁目３５番１１号,,13,122,1240012,,,,,,,2023-09-08,1,,,,,ダイリンボウエキ,0
684,3012401040967,新規,0,2023-09-08,2023-09-08,株式会社メントリ,,株式会社,東京都,三鷹市,牟礼３丁目９番６－４３０号,,13,204,1810002,,,,,,,2023-09-08,1,,,,,メントリ,0
685,3012401040975,新規,0,2023-09-08,2023-09-08,オフィスシラタ株式会社,,株式会社,東京都,調布市,深大寺東町７丁目２８番地４４,,13,208,1820012,,,,,,,2023-09-08,1,,,,,オフィスシラタ,0
686,3012403006165,新規,0,2023-09-08,2023-09-08,ＫＮコンサルティング合同会社,,合同会社,東京都,三鷹市,下連雀３丁目９番３‐５０３号,,13,204,1810013,,,,,,,2023-09-08,1,,,,,ケイエヌコンサルティング,0
699,3020001153370,新規,0,2023-09-08,2023-09-08,株式会社ワークウィンドウズ,,株式会社,神奈川県,横浜市戸塚区,汲沢５丁目２０番地６,,14,110,2450061,,,,,,,2023-09-08,1,,,,,ワークウィンドウズ,0
700,3020001153412,新規,0,2023-09-08,2023-09-08,Ｆｅｓｔｉｎａ　Ｌｅｎｔｅ　Ｇｌｏｂａｌ株式会社,,株式会社,神奈川県,横浜市青葉区,榎が丘４１－２１,,14,117,2270063,,,,,,,2023-09-08,1,,,,,フェスティナレンテグローバル,0
701,3020001153420,新規,0,2023-09-08,2023-09-08,株式会社Ｆａｂｕｌｏｕｓ,,株式会社,神奈川県,横浜市鶴見区,豊岡町３番２号,,14,101,2300062,,,,,,,2023-09-08,1,,,,,ファビュラス,0
707,3020003024529,新規,0,2023-09-08,2023-09-08,ＰＭＷｏｒｋｓ合同会社,,合同会社,神奈川県,川崎市麻生区,向原３丁目２０番５号,,14,137,2150007,,,,,,,2023-09-08,1,,,,,ピーエムワークス,0
712,3021001080101,新規,0,2023-09-08,2023-09-08,ＰｉｘｅｌＢｏａｒｄ株式会社,,株式会社,神奈川県,小田原市,栄町１丁目１４番２８号,,14,206,2500011,,,,,,,2023-09-08,1,,,,,ピクセルボード,0
713,3021001080118,新規,0,2023-09-08,2023-09-08,株式会社スナッグ,,株式会社,神奈川県,鎌倉市,常盤１０１６番地,,14,204,2480022,,,,,,,2023-09-08,1,,,,,スナッグ,0
717,3030001155622,新規,0,2023-09-08,2023-09-08,株式会社ＲＩＺＩＮＧ　ＳＯＮ,,株式会社,埼玉県,所沢市,和ケ原１丁目１５９番地の１２,,11,208,3591162,,,,,,,2023-09-08,1,,,,,ライジングサン,0
718,3030001155639,新規,0,2023-09-08,2023-09-08,星の連株式会社,,株式会社,埼玉県,川口市,西川口１丁目８番８－５０２号トワイズ西川口,,11,203,3320021,,,,,,,2023-09-08,1,,,,,ホシノレン,0
719,3030001155705,新規,0,2023-09-08,2023-09-08,株式会社フジミツ,,株式会社,埼玉県,春日部市,粕壁７０２３番地,,11,214,3440061,,,,,,,2023-09-08,1,,,,,フジミツ,0
720,3030001155746,新規,0,2023-09-08,2023-09-08,株式会社Ｋ．Ｐｅａｋ　ｗｏｒｋｅｒ,,株式会社,埼玉県,さいたま市中央区,下落合４丁目１番１０号,,11,105,3380002,,,,,,,2023-09-08,1,,,,,ケーピークワーカー,0
721,3030001155762,新規,0,2023-09-08,2023-09-08,株式会社ＡＮＹ　ＧＡＴＥ,,株式会社,埼玉県,川口市,差間３丁目１１番３－１号,,11,203,3330816,,,,,,,2023-09-08,1,,,,,エニーゲート,0
722,3030001155770,新規,0,2023-09-08,2023-09-08,株式会社ＮＩ‐ＹＯＮ,,株式会社,埼玉県,川越市,大字寺尾５１番地１（シャトーカワノ３号棟２０６号室）,,11,201,3501141,,,,,,,2023-09-08,1,,,,,ニーヨン,0
723,3030001155829,新規,0,2023-09-08,2023-09-08,株式会社Ｒ＆Ｙ,,株式会社,埼玉県,新座市,西堀１丁目１１番１５－１号,,11,230,3520031,,,,,,,2023-09-08,1,,,,,アールアンドワイ,0
724,3030001155928,新規,0,2023-09-08,2023-09-08,株式会社ＣＯＮＮＥＣＴＩＯＮＳ‐Ｋ,,株式会社,埼玉県,川口市,本蓮２丁目１４番２１号,00131853,11,203,3340076,,,,,,,2023-09-08,1,,,,,コネクションズケイ,0
726,3030003022416,新規,0,2023-09-08,2023-09-08,ライト防災合同会社,,合同会社,埼玉県,所沢市,大字牛沼１４２番地の１グリーンパレスＡ－１０２,,11,208,3590026,,,,,,,2023-09-08,1,,,,,ライトボウサイ,0
731,3040001129996,新規,0,2023-09-08,2023-09-08,株式会社アレイズ,,株式会社,千葉県,野田市,清水４３４番地の７４,,12,208,2780043,,,,,,,2023-09-08,1,,,,,アレイズ,0
742,3040003023264,新規,0,2023-09-08,2023-09-08,合同会社ポルンガ,,合同会社,千葉県,柏市,藤ケ谷新田２９番地１,,12,217,2770932,,,,,,,2023-09-08,1,,,,,ポルンガ,0
743,3040003023280,新規,0,2023-09-08,2023-09-08,合同会社ワタナベ産業,,合同会社,千葉県,佐倉市,江原台１丁目３１番地７,,12,212,2850825,,,,,,,2023-09-08,1,,,,,ワタナベサンギョウ,0
746,3050001053411,新規,0,2023-09-08,2023-09-08,株式会社彩技工,,株式会社,茨城県,筑西市,寺上野９７８番地１,,08,227,3004525,,,,,,,2023-09-08,1,,,,,サイギコウ,0
752,3060001036299,新規,0,2023-09-08,2023-09-08,株式会社錦堂,,株式会社,栃木県,宇都宮市,今泉町１２５番地２,,09,201,3210962,,,,,,,2023-09-08,1,,,,,ニシキドウ,0
759,3070003005086,新規,0,2023-09-08,2023-09-08,合同会社新部組,,合同会社,群馬県,太田市,新田市野井町９４番地１ソシアルビル新田１０３,,10,205,3700314,,,,,,,2023-09-08,1,,,,,ニイベグミ,0
762,3090003002379,新規,0,2023-09-08,2023-09-08,合同会社コーリングテック,,合同会社,山梨県,笛吹市,石和町上平井２６０番地３,,19,211,4060025,,,,,,,2023-09-08,1,,,,,コーリングテック,0
766,3100003007178,新規,0,2023-09-08,2023-09-08,合同会社テクトニスト,,合同会社,長野県,上田市,小島１８４番地１セレスＡ－１号,,20,203,3861322,,,,,,,2023-09-08,1,,,,,テクトニスト,0
770,3110003005156,新規,0,2023-09-08,2023-09-08,合同会社ＡＲＩＳＡＫＡ,,合同会社,新潟県,新潟市西区,松海が丘３丁目１２番６号,,15,107,9502075,,,,,,,2023-09-08,1,,,,,,0
781,3120001257822,新規,0,2023-09-08,2023-09-08,ＳＫＹ　ＤＲＯＮＥ株式会社,,株式会社,大阪府,大阪市東住吉区,矢田４丁目７番１７号エルグランド１０３号,,27,121,5460023,,,,,,,2023-09-08,1,,,,,スカイドローン,0
782,3120001257946,新規,0,2023-09-08,2023-09-08,グローバルトレード株式会社,,株式会社,大阪府,大阪市浪速区,幸町１丁目１－５－６０２,,27,111,5560021,,,,,,,2023-09-08,1,,,,,グローバルトレード,0
783,3120001258060,新規,0,2023-09-08,2023-09-08,タンロンビジネスサポート株式会社,,株式会社,大阪府,大阪市北区,梅田１丁目２番２号大阪駅前第２ビル１２－１２,,27,127,5300001,,,,,,,2023-09-08,1,,,,,タンロンビジネスサポート,0
785,3120003024774,新規,0,2023-09-08,2023-09-08,合同会社アドベンチャー,,合同会社,大阪府,大阪市西成区,千本中２丁目７－２８,,27,122,5570054,,,,,,,2023-09-08,1,,,,,アドベンチャー,0
790,3120903004826,新規,0,2023-09-08,2023-09-08,合同会社ＤｅｌｉｇｈｔＹｏｕ,,合同会社,大阪府,豊中市,岡上の町１丁目８番１４号,,27,203,5600023,,,,,,,2023-09-08,1,,,,,ディライトユー,0
794,3130001075042,新規,0,2023-09-08,2023-09-08,株式会社紫匠庵,,株式会社,京都府,京都市北区,紫野門前町４５番地,,26,101,6038216,,,,,,,2023-09-08,1,,,,,シショウアン,0
795,3130001075109,新規,0,2023-09-08,2023-09-08,株式会社キョウリン,,株式会社,京都府,京都市西京区,桂稲荷山町４－１９,,26,111,6158025,,,,,,,2023-09-08,1,,,,,キョウリン,0
801,3140001131439,新規,0,2023-09-08,2023-09-08,株式会社Ｂａｒｊａｃ,,株式会社,兵庫県,姫路市,田寺東４丁目２６番３号,,28,201,6700081,,,,,,,2023-09-08,1,,,,,バルジャック,0
802,3140001131447,新規,0,2023-09-08,2023-09-08,ＩＫ　ＴＲＡＤＩＮＧ株式会社,,株式会社,兵庫県,神戸市中央区,北野町３丁目１３番１４号新北野荘１１号,,28,110,6500002,,,,,,,2023-09-08,1,,,,,アイケートレーディング,0
803,3140001131455,新規,0,2023-09-08,2023-09-08,株式会社Ｆ　ＣＲＥＥＴＥ,,株式会社,兵庫県,宍粟市,山崎町春安３番地１,,28,227,6712551,,,,,,,2023-09-08,1,,,,,エフクリート,0
804,3140001131488,新規,0,2023-09-08,2023-09-08,株式会社ライフコアリンク,,株式会社,兵庫県,南あわじ市,市青木９６番１,,28,224,6560462,,,,,,,2023-09-08,1,,,,,ライフコアリンク,0
805,3140001131496,新規,0,2023-09-08,2023-09-08,株式会社神戸新聞しかま専売所,,株式会社,兵庫県,姫路市,亀山１８４番地の７,,28,201,6700973,,,,,,,2023-09-08,1,,,,,コウベシンブンシカマセンバイショ,0
806,3140001131505,新規,0,2023-09-08,2023-09-08,株式会社シンハライト,,株式会社,兵庫県,姫路市,広畑区則直９８番地２７,,28,201,6711105,,,,,,,2023-09-08,1,,,,,シンハライト,0
807,3140001131513,新規,0,2023-09-08,2023-09-08,株式会社エコジロー,,株式会社,兵庫県,豊岡市,宮井１２３７番地,,28,209,6680085,,,,,,,2023-09-08,1,,,,,エコジロー,0
808,3140001131587,新規,0,2023-09-08,2023-09-08,株式会社ＴＯＭＯＨＡＲＵ,,株式会社,兵庫県,神戸市灘区,篠原中町５丁目７番３０号,,28,102,6570066,,,,,,,2023-09-08,1,,,,,トモハル,0
810,3140003019491,新規,0,2023-09-08,2023-09-08,Ｔｎｏｔｅ合同会社,,合同会社,兵庫県,神戸市灘区,桜ヶ丘町１５番５５－８１５号,,28,102,6570021,,,,,,,2023-09-08,1,,,,,ティーノート,0
811,3140003019509,新規,0,2023-09-08,2023-09-08,合同会社ＧＬＡＭＯＲ　ＳＴＹＬＥ,,合同会社,兵庫県,神戸市中央区,山本通２丁目３番３号,,28,110,6500003,,,,,,,2023-09-08,1,,,,,グラマースタイル,0
813,3150001026704,新規,0,2023-09-08,2023-09-08,株式会社ＭＡＴＫＡ,,株式会社,奈良県,香芝市,旭ケ丘１丁目６番地１５,,29,210,6390266,,,,,,,2023-09-08,1,,,,,マトカ,0
817,3160001025317,新規,0,2023-09-08,2023-09-08,丸晴商運株式会社,,株式会社,滋賀県,大津市,雄琴３丁目１１番１２号,,25,201,5200101,,,,,,,2023-09-08,1,,,,,マルセイショウウン,0
829,3180001157934,新規,0,2023-09-08,2023-09-08,株式会社リップレコーズ,,株式会社,愛知県,名古屋市西区,菊井１丁目１５番８号,,23,104,4510044,,,,,,,2023-09-08,1,,,,,リップレコーズ,0
830,3180001157950,新規,0,2023-09-08,2023-09-08,株式会社順興産業,,株式会社,愛知県,一宮市,佐千原字城ノ内１番地５,,23,203,4910124,,,,,,,2023-09-08,1,,,,,ジュンコウサンギョウ,0
831,3180001157959,新規,0,2023-09-08,2023-09-08,株式会社Ｓｔａｒｆｉｅｌｄ,,株式会社,愛知県,一宮市,大和町馬引字郷未申２２７９番地１,,23,203,4910931,,,,,,,2023-09-08,1,,,,,スターフィールド,0
837,3180003025718,新規,0,2023-09-08,2023-09-08,トライネクスト合同会社,,合同会社,愛知県,名古屋市北区,喜惣治２丁目１３７番地,,23,103,4620065,,,,,,,2023-09-08,1,,,,,トライネクスト,0
844,3200001041697,新規,0,2023-09-08,2023-09-08,株式会社沙秀院,,株式会社,岐阜県,羽島市,上中町沖１３５０－１,,21,209,5016318,,,,,,,2023-09-08,1,,,,,サシュウイン,0
848,3210001019461,新規,0,2023-09-08,2023-09-08,株式会社Ｍ　ＰＯＯＬ,,株式会社,福井県,福井市,板垣２丁目１４２３,,18,201,9188104,,,,,,,2023-09-08,1,,,,,エムプール,0
853,3240005015644,新規,0,2023-09-08,2023-09-08,医療法人ＦＲ,,その他の設立登記法人,広島県,広島市東区,戸坂大上４丁目３０番１１号,,34,102,7320014,,,,,,,2023-09-08,1,,,,,エフアール,0
854,3250001020275,新規,0,2023-09-08,2023-09-08,祐徳総建株式会社,,株式会社,山口県,周南市,城ケ丘１丁目１１番１号,,35,215,7450807,,,,,,,2023-09-08,1,,,,,ユウトクソウケン,0
855,3260001038300,新規,0,2023-09-08,2023-09-08,株式会社桑名塗建,,株式会社,岡山県,倉敷市,中島１９６７番地４,,33,202,7100803,,,,,,,2023-09-08,1,,,,,クワナトケン,0
861,3280001009035,新規,0,2023-09-08,2023-09-08,株式会社ＲＡＭ,,株式会社,島根県,出雲市,小山町３４６番地３ｉｚｕｍｏＴＥＲＲＡＣＥＢ－２,,32,203,6930051,,,,,,,2023-09-08,1,,,,,ラム,0
866,3290001102978,新規,0,2023-09-08,2023-09-08,株式会社デザイン工房絵屋,,株式会社,福岡県,福岡市博多区,博多駅前３丁目７番３号,,40,132,8120011,,,,,,,2023-09-08,1,,,,,デザインコウボウエヤ,0
867,3290001102986,新規,0,2023-09-08,2023-09-08,株式会社集プロジェクト,,株式会社,福岡県,福岡市博多区,美野島１丁目１４番１２号,,40,132,8120017,,,,,,,2023-09-08,1,,,,,ツドイプロジェクト,0
868,3290003014338,新規,0,2023-09-08,2023-09-08,福岡ファームトレード合同会社,,合同会社,福岡県,糸島市,志摩師吉７２８番地１,,40,230,8191314,,,,,,,2023-09-08,1,,,,,フクオカファームトレード,0
869,3290801029867,新規,0,2023-09-08,2023-09-08,シナプス株式会社,,株式会社,福岡県,北九州市八幡西区,藤原３丁目１６番７号,,40,109,8070873,,,,,,,2023-09-08,1,,,,,シナプス,0
876,3340001025876,新規,0,2023-09-08,2023-09-08,株式会社中村自動車,,株式会社,鹿児島県,指宿市,山川成川３９７４番地１,,46,210,8910516,,,,,,,2023-09-08,1,,,,,ナカムラジドウシャ,0
885,3360003013266,新規,0,2023-09-08,2023-09-08,合同会社あふそ屋,,合同会社,沖縄県,那覇市,字天久７９８－１０末吉アパート３０１,,47,201,9000005,,,,,,,2023-09-08,1,,,,,アフソヤ,0
886,3360003013274,新規,0,2023-09-08,2023-09-08,Ｒ＆Ｄコンサルティング合同会社,,合同会社,沖縄県,宜野湾市,宜野湾３丁目２０番２４号,,47,205,9012211,,,,,,,2023-09-08,1,,,,,アールアンドディーコンサルティング,0
896,3430001089895,新規,0,2023-09-08,2023-09-08,バランス株式会社,,株式会社,北海道,札幌市手稲区,前田八条１８丁目５－２１－１Ｆ,,01,109,0060818,,,,,,,2023-09-08,1,,,,,バランス,0
897,3450001014091,新規,0,2023-09-08,2023-09-08,株式会社浜谷総業,,株式会社,北海道,稚内市,はまなす５丁目１番１３号,,01,214,0970011,,,,,,,2023-09-08,1,,,,,ハマヤソウギョウ,0
906,3700150119293,新規,0,2023-09-08,2023-08-25,日本ジャージー登録協会,,その他,東京都,中野区,本町４丁目３８－１３,,13,114,1640012,,,,,,,2023-08-25,1,,,,,ニホンジヤージートウロクキヨウカイ,0
907,3700150119962,新規,0,2023-09-08,2023-09-08,ｄｏｎｇｇｕａｎｓｈｉｙｉｎｚｈｏｕｈｕｗａｉｙｏｎｇｐｉｎｙｏｕｘｉａｎｇｏｎｇｓｉ,,外国会社等,,,,,,,,Ｒｏｏｍ　６０１，Ｂｕｉｌｄｉｎｇ　３，Ｎｏ．７，Ｈｅｎｇｓｈａｎ　Ｄａｊｉ　３ｒｄ　Ｒｏａｄ，Ｓｈｉ　Ｐａｉ　Ｔｏｗｎ，Ｄｏｎｇｇｕａｎ　Ｃｉｔｙ，Ｇｕａｎｇｄｏｎｇ　Ｐｒｏｖｉｎｃｅ，Ｃｈｉｎａ　　　　,,,,,,2023-09-08,1,,,,,ドンワンシインジョウフゥワイヨンピンヨウシェンゴンス,0
908,3700150119970,新規,0,2023-09-08,2023-09-08,ｃｈａｎｇｓｈａｓｈｉ　ｘｉｎｑｉｃｈａｎｇｄｉａｎｚｉｓｈａｎｇｗｕ　ｙｏｕｘｉａｎｇｏｎｇｓｉ,,外国会社等,,,,,,,,Ｈｕｎａｎｓｈｅｎｇｃｈａｎｇｓｈａｓｈｉｙｕｅｌｕｑｕｙｕｅｌｕｊｉｅｄａｏｘｕｊｉａｚｈｏｕｌｕ１０６ｈａｏｄｉｅｒｑｉＡｑｕＤ１ｄｏｎｇ１３１１ｈａｏ,,,,,,2023-09-08,1,,,,,チャンシャーシシンチチャンデンシショウムユウゲンコウシ,0
909,3700150119979,新規,0,2023-09-08,2023-09-08,ｚｉｊｉｅｋｕｂａｉｋｅｊｉ（ｓｈｅｎｚｈｅｎ）ｙｏｕｘｉａｎｇｏｎｇｓｉ,,外国会社等,,,,,,,,ｎａｎｓｈａｎｙｕｎｇｕｃｈｕａｎｇｘｉｎｃｈａｎｙｅｙｕａｎｓｈａｎｓｈｕｉｌｏｕＢ５０５　ｎａｎｓｈａｎｑｕｔａｏｙｕａｎｊｉｅｄａｏｐｉｎｇｓｈａｎｓｈｅｑｕｌｉｕｘｉａｎｄａｄａｏ４０９３ｈａｏ　Ｓｈｅｎｚｈｅｎ,,,,,,2023-09-08,1,,,,,ジジエクバイカギシンセンユウゲンコウシ,0
910,3700150119987,新規,0,2023-09-08,2023-09-08,Ｓｈｉｑｉｎｇ（Ｇａｏ　Ｍｉ）　ｄｉａｎｚｉｓｈａｎｇｗｕｙｏｕｘｉａｎｚｅｒｅｎｇｏｎｇｓｉ,,外国会社等,,,,,,,,Ｎｏ．６，Ｌａｎｅ　１３　Ｎｏｒｔｈ，Ｑｉａｎｂｕｋｏｕ　Ｖｉｌｌａｇｅ，Ｃｈａｏｙａｎｇ　Ｓｔｒｅｅｔ，Ｇａｏｍｉ　Ｃｉｔｙ，Ｗｅｉｆａｎｇ　Ｃｉｔｙ，Ｓｈａｎｄｏｎｇ　Ｐｒｏｖｉｎｃｅ,,,,,,2023-09-08,1,,,,,シーチンガオミーディエンズーシャンウーヨウシエンゾーレンゴンスー,0
911,3700150119995,新規,0,2023-09-08,2023-09-08,ｓｈｅｎｚｈｅｎｓｈｉｘｉｎｙｕａｎｔｏｎｏｎｇｎｅｎｇｙｕａｎｙｏｕｘｉａｎｇｏｎｇｓｉ,,外国会社等,,,,,,,,Ｎｏｒｔｈｅａｓｔ　ｏｆ　Ｆｌｏｏｒ　５，Ｂｕｉｌｄｉｎｇ　１，Ｗａｎｇｙｅ　Ｉｎｄｕｓｔｒｉａｌ　Ｐｌａｎｔ，Ｂａｏｔｉａｎ　３ｒｄ　Ｒｏａｄ，Ｘｉｘｉａｎｇ，Ｂａｏ’ａｎ　Ｄｉｓｔｒｉｃｔ，Ｓｈｅｎｚｈｅｎ　Ｃｈｉｎａ,,,,,,2023-09-08,1,,,,,シンセンシシンゲンツウノウゲンユウゲンカイシャ,0
912,3700150120004,新規,0,2023-09-08,2023-09-08,Ｘｉａｎｇｙａｎｇ　Ｑｉａｙｉ　ｔｒａｄｉｎｇ　Ｃｏ．，ＬＴＤ,,外国会社等,,,,,,,,６０１　Ｈａｎｋｏｕ　Ｒｏａｄ，Ｌａｏｈｅｋｏｕ　Ｃｉｔｙ，Ｘｉａｎｇｙａｎｇ　Ｃｉｔｙ，Ｈｕｂｅｉ　Ｐｒｏｖｉｎｃｅ,,,,,,2023-09-08,1,,,,,シャンヤンシーチャーフェイシャンマオヨウシエンゴンスー,0
913,3700150120012,新規,0,2023-09-08,2023-09-08,Ｆｕｚｈｏｕ　Ｙｉｚｈｏｎｇｒｅｎ　Ｔｒａｄｉｎｇ　Ｃｏ．，Ｌｔｄ,,外国会社等,,,,,,,,ｆｕｊｉａｎｓｈｅｎｇｆｕｚｈｏｕｓｈｉｆｕｑｉｎｇｓｈｉｙｉｎｘｉｊｉｅｄａｏｆｕｑｉｎｇｗａｎｄａｇｕａｎｇｃｈａｎｇＡ１ｚｕｏ１３０７ｓｈｉ,,,,,,2023-09-08,1,,,,,フクシユウイチユウニントレーデイングカンパニリミテツド,0
914,3700150120020,新規,0,2023-09-08,2023-09-08,Ｓｕｚｈｏｕｄａｏｙｕａｎｌｉａｎｇｊｉｔｉｙｕｇｕａｎｌｉｙｏｕｘｉａｎｇｏｎｇｓｉ,,外国会社等,,,,,,,,ｔａｉｈｕｘｉｌｕ　１１８８ｈａｏ　７ｄｏｎｇ　３０９，ｇｕｓｕｑｕ，ｓｕｚｈｏｕｓｈｉ，ｊｉａｎｇｓｕ，２１５０２６，ＣＮ,,,,,,2023-09-08,1,,,,,ソシユウドウエンリヨウキタイイクカンリユウゲンコウシ,0
915,3700150120061,新規,0,2023-09-08,2023-09-08,Ｓ　ａｎｄ　Ｒ　Ｓｈｏｅｓ　Ｃｅｎｔｒｅ,,外国会社等,埼玉県,鴻巣市,栄町２－１５塚越ビルＡ,,11,217,3650055,ネパール、カトマンズ大都市、第２５区、クスンビヤラクシュミ、タヒティ,,,,,,2023-09-08,1,,,,,エスアンドアルシユーズセントル,0
931,4010001238320,新規,0,2023-09-08,2023-09-08,株式会社スマイルマーク,,株式会社,東京都,中央区,銀座１丁目１２番４号Ｎ＆ＤＢＬＤ．６Ｆ,,13,102,1040061,,,,,,,2023-09-08,1,,,,,スマイルマーク,0
936,4010003041607,新規,0,2023-09-08,2023-09-08,合同会社ＡＣＯ,,合同会社,東京都,中央区,八重洲１丁目１番８号八重洲ＫＴビル５階,,13,102,1030028,,,,,,,2023-09-08,1,,,,,エーシーオー,0
941,4010401176979,新規,0,2023-09-08,2023-09-08,ＬＳ‐ＳＨＩＰ第４５号株式会社,,株式会社,東京都,港区,六本木１丁目６番１号,,13,103,1060032,,,,,,,2023-09-08,1,,,,,エルエスシップダイヨンジュウゴゴウ,0
951,4010801034316,新規,0,2023-09-08,2023-09-08,株式会社エスポワール,,株式会社,東京都,大田区,鵜の木３丁目３０－５セジョリ鵜の木２２２号室,,13,111,1460091,,,,,,,2023-09-08,1,,,,,エスポワール,0
952,4010901053777,新規,0,2023-09-08,2023-09-08,オフィス・エフ株式会社,,株式会社,東京都,世田谷区,松原５丁目４番４号,,13,112,1560043,,,,,,,2023-09-08,1,,,,,オフィスエフ,0
963,4011001156751,新規,0,2023-09-08,2023-09-08,株式会社サムシックコスメティックジャパン,,株式会社,東京都,渋谷区,桜丘町２３番１７号シティコート桜丘４０８,,13,113,1500031,,,,,,,2023-09-08,1,,,,,サムシックコスメティックジャパン,0
964,4011001156801,新規,0,2023-09-08,2023-09-08,株式会社モノグラフ,,株式会社,東京都,渋谷区,渋谷２丁目１９番１５号宮益坂ビルディング６０９,,13,113,1500002,,,,,,,2023-09-08,1,,,,,モノグラフ,0
965,4011001156834,新規,0,2023-09-08,2023-09-08,株式会社Ｍａｒｂｌｅ,,株式会社,東京都,渋谷区,上原１丁目３２番５号ロイヤルテラス５０２,,13,113,1510064,,,,,,,2023-09-08,1,,,,,マーブル,0
966,4011001156875,新規,0,2023-09-08,2023-09-08,株式会社ＩＰリッチ,,株式会社,東京都,渋谷区,渋谷２丁目１９番１５－６０９号宮益坂ビルディング,,13,113,1500002,,,,,,,2023-09-08,1,,,,,アイピーリッチ,0
967,4011001156883,新規,0,2023-09-08,2023-09-08,株式会社ドットフィールズ,,株式会社,東京都,渋谷区,道玄坂１丁目１０番８号渋谷道玄坂東急ビル２Ｆ－Ｃ,,13,113,1500043,,,,,,,2023-09-08,1,,,,,ドットフィールズ,0
976,4011401025432,新規,0,2023-09-08,2023-09-08,東昇株式会社,,株式会社,東京都,板橋区,成増５丁目１７番９号１０１号室,,13,119,1750094,,,,,,,2023-09-08,1,,,,,トウショウ,0
981,4011501029738,新規,0,2023-09-08,2023-09-08,株式会社エス・アイ・シー,,株式会社,東京都,荒川区,西日暮里２丁目１０番２－２０１号,,13,118,1160013,,,,,,,2023-09-08,1,,,,,エスアイシー,0
984,4011603004052,新規,0,2023-09-08,2023-09-08,Ｌｉｆｅ　Ｐａｒｔｎｅｒ合同会社,,合同会社,東京都,練馬区,旭町１丁目１９－８,,13,120,1790071,,,,,,,2023-09-08,1,,,,,ライフパートナー,0
988,4011801043018,新規,0,2023-09-08,2023-09-08,株式会社リブホーム,,株式会社,東京都,葛飾区,亀有３丁目１１番７号小松ビル３階,,13,122,1250061,,,,,,,2023-09-08,1,,,,,リブホーム,0
991,4011803005825,新規,0,2023-09-08,2023-09-08,合同会社シークエンス,,合同会社,東京都,葛飾区,堀切１丁目２番１７号ワコーレ堀切菖蒲園ＩＩ,00131852,13,122,1240006,,,,,,,2023-09-08,1,,,,,シークエンス,0
993,4012403006164,新規,0,2023-09-08,2023-09-08,合同会社ＨｅａｄＦｉｒｓｔ,,合同会社,東京都,武蔵野市,中町３丁目５－１１－１０１,,13,203,1800006,,,,,,,2023-09-08,1,,,,,ヘッドファースト,0
1001,4013305003514,新規,0,2023-09-08,2023-09-08,一般社団法人Ｍｅｄｉａｌ,,その他の設立登記法人,東京都,豊島区,南池袋１丁目１６番２０号ぬかりやビル６階,,13,116,1710022,,,,,,,2023-09-08,1,,,,,メディアル,0
1008,4020001153411,新規,0,2023-09-08,2023-09-08,株式会社ＫＩＯＮＵＳ,,株式会社,神奈川県,横浜市戸塚区,平戸町５８２番地１２コスモ東戸塚グランパルクＢ棟３０６号,,14,110,2440803,,,,,,,2023-09-08,1,,,,,キオナス,0
1012,4020003024552,新規,0,2023-09-08,2023-09-08,合同会社春山,,合同会社,神奈川県,横浜市鶴見区,生麦１丁目１番５－４０４号,,14,101,2300052,,,,,,,2023-09-08,1,,,,,ハルヤマ,0
1014,4021001080100,新規,0,2023-09-08,2023-09-08,株式会社ピカ・クリーンズ,,株式会社,神奈川県,相模原市南区,上鶴間３丁目１３番７号,,14,153,2520302,,,,,,,2023-09-08,1,,,,,ピカクリーンズ,0
1015,4021001080109,新規,0,2023-09-08,2023-09-08,株式会社シモダ・エフ・リーガル,,株式会社,神奈川県,藤沢市,鵠沼橘１丁目３番１２～９０６号,00131842,14,205,2510024,,,,,,,2023-09-08,1,,,,,シモダエフリーガル,0
1016,4021001080117,新規,0,2023-09-08,2023-09-08,株式会社遠藤塗装,,株式会社,神奈川県,小田原市,城山２丁目２０番１号,,14,206,2500045,,,,,,,2023-09-08,1,,,,,エンドウトソウ,0
1021,4021003013553,新規,0,2023-09-08,2023-09-08,合同会社右折,,合同会社,神奈川県,鎌倉市,小町１丁目６－２,,14,204,2480006,,,,,,,2023-09-08,1,,,,,ウセツ,0
1025,4030001155638,新規,0,2023-09-08,2023-09-08,真栄建設株式会社,,株式会社,埼玉県,八潮市,大瀬３丁目３番地１９ラ・クレセント２０１,,11,234,3400822,,,,,,,2023-09-08,1,,,,,シンエイケンセツ,0
1026,4030001155654,新規,0,2023-09-08,2023-09-08,和善桜株式会社,,株式会社,埼玉県,川口市,西川口１丁目３５番１３－２０２号スカイコート西川口第３,,11,203,3320021,,,,,,,2023-09-08,1,,,,,ワゼンオウ,0
1027,4030001155662,新規,0,2023-09-08,2023-09-08,株式会社我夢,,株式会社,埼玉県,狭山市,大字北入曽１９３－４,,11,215,3501315,,,,,,,2023-09-08,1,,,,,ワム,0
1028,4030001155670,新規,0,2023-09-08,2023-09-08,株式会社マリン,,株式会社,埼玉県,北葛飾郡松伏町,田中１丁目１０－４５,,11,465,3430117,,,,,,,2023-09-08,1,,,,,マリン,0
1029,4030001155720,新規,0,2023-09-08,2023-09-08,株式会社Ｌａｃｈｅｎａｌｉａ,,株式会社,埼玉県,川口市,桜町１丁目１３番１７－８０４号,,11,203,3340001,,,,,,,2023-09-08,1,,,,,ラケナリア,0
1030,4030001155844,新規,0,2023-09-08,2023-09-08,株式会社雄治ガーデン,,株式会社,埼玉県,さいたま市岩槻区,宮町２丁目２番３４号,,11,110,3390065,,,,,,,2023-09-08,1,,,,,ユウジガーデン,0
1031,4030001155935,新規,0,2023-09-08,2023-09-08,株式会社Ｓｍｉｌｅ　Ｆｕｔｕｒｅ　Ｆｒｏｎｔｉｅｒｓ,,株式会社,埼玉県,さいたま市北区,土呂町２丁目２８番地１１ラフィナート花風１０１,,11,102,3310804,,,,,,,2023-09-08,1,,,,,スマイルフューチャーフロンティアーズ,0
1032,4030001155992,新規,0,2023-09-08,2023-09-08,皓月株式会社,,株式会社,埼玉県,川口市,西青木１丁目９番１７号山本ビル３０３号室,,11,203,3320035,,,,,,,2023-09-08,1,,,,,コウツキ,0
1039,4040001130004,新規,0,2023-09-08,2023-09-08,東京ライト株式会社,,株式会社,千葉県,習志野市,谷津３丁目１番４３－１１０１号,,12,216,2750026,,,,,,,2023-09-08,1,,,,,トウキョウライト,0
1040,4040001130012,新規,0,2023-09-08,2023-09-08,程品旅行日本株式会社,,株式会社,千葉県,印西市,小林大門下３丁目１０番地１４,,12,231,2701316,,,,,,,2023-09-08,1,,,,,テイヒンリョコウニホン,0
1041,4040001130020,新規,0,2023-09-08,2023-09-08,大輝建装株式会社,,株式会社,千葉県,柏市,南増尾７丁目９－５南増尾ビル３階,,12,217,2770054,,,,,,,2023-09-08,1,,,,,ダイキケンソウ,0
1049,4050005013328,新規,0,2023-09-08,2023-09-08,特定非営利活動法人那珂フットボールクラブ,,その他の設立登記法人,茨城県,那珂市,福田１７４１番地１５,,08,226,3110118,,,,,,,2023-09-08,1,,,,,ナカフットボールクラブ,0
1050,4060001036315,新規,0,2023-09-08,2023-09-08,株式会社カシバン,,株式会社,栃木県,真岡市,上谷貝３１７番地１,,09,209,3214541,,,,,,,2023-09-08,1,,,,,カシバン,0
1055,4070001040811,新規,0,2023-09-08,2023-09-08,株式会社アルタワスルトレーディング,,株式会社,群馬県,伊勢崎市,赤堀鹿島町８６１番地１リヴィエールヨコツカ赤堀Ｂ１０４,,10,204,3792202,,,,,,,2023-09-08,1,,,,,アルタワスルトレーディング,0
1063,4090001018319,新規,0,2023-09-08,2023-09-08,Ｍ’ｓ　ＰＬＡＮＮＩＮＧ株式会社,,株式会社,山梨県,中巨摩郡昭和町,紙漉阿原２－１,,19,384,4093861,,,,,,,2023-09-08,1,,,,,エムズプランニング,0
1073,4110001037836,新規,0,2023-09-08,2023-09-08,Ｓｔａｔｉｃｅ　ｃｏｒｐｏｒａｔｉｏｎ株式会社,,株式会社,新潟県,新潟市中央区,下大川前通４ノ町２２３０番地１１０Ｄｉａｘ２０２号室,,15,103,9518052,,,,,,,2023-09-08,1,,,,,スターチスコーポレーション,0
1090,4120001257870,新規,0,2023-09-08,2023-09-08,株式会社宮崎設備,,株式会社,大阪府,大阪市住吉区,上住吉１丁目９番２５－４０２号,,27,120,5580046,,,,,,,2023-09-08,1,,,,,ミヤザキセツビ,0
1091,4120001257929,新規,0,2023-09-08,2023-09-08,株式会社クリアス,,株式会社,大阪府,大阪市浪速区,難波中１丁目１３番８号,,27,111,5560011,,,,,,,2023-09-08,1,,,,,クリアス,0
1092,4120001257945,新規,0,2023-09-08,2023-09-08,日本再生医療株式会社,,株式会社,大阪府,大阪市浪速区,幸町１丁目１－５－６０２,,27,111,5560021,,,,,,,2023-09-08,1,,,,,ニホンサイセイイリョウ,0
1093,4120001257961,新規,0,2023-09-08,2023-09-08,株式会社サラカリ,,株式会社,大阪府,大阪市西区,靱本町３丁目３－３サウザント岡崎橋ビル９Ｆ,,27,106,5500004,,,,,,,2023-09-08,1,,,,,サラカリ,0
1102,4122001037344,新規,0,2023-09-08,2023-09-08,なごみ株式会社,,株式会社,大阪府,大東市,朋来２丁目５番３５号,,27,218,5740034,,,,,,,2023-09-08,1,,,,,ナゴミ,0
1103,4130001075108,新規,0,2023-09-08,2023-09-08,株式会社ＴＯＢＩＲＡ,,株式会社,京都府,京都市中京区,壬生馬場町１番地６北浅ハイツ３０８,,26,104,6048805,,,,,,,2023-09-08,1,,,,,トビラ,0
1104,4130001075124,新規,0,2023-09-08,2023-09-08,株式会社シーベクトル,,株式会社,京都府,長岡京市,金ケ原平井８番地２,,26,209,6170856,,,,,,,2023-09-08,1,,,,,シーベクトル,0
1105,4130003008940,新規,0,2023-09-08,2023-09-08,合同会社仙北屋,,合同会社,京都府,京都市伏見区,羽束師鴨川町２３０－１４,,26,109,6128484,,,,,,,2023-09-08,1,,,,,センボクヤ,0
1106,4130003008949,新規,0,2023-09-08,2023-09-08,Ｃｏｎｓｉｄｅｒａｔｉｏｎ合同会社,,合同会社,京都府,京都市山科区,御陵下御廟野町２０番地１０,,26,110,6078426,,,,,,,2023-09-08,1,,,,,コンシダレーション,0
1107,4130005016867,新規,0,2023-09-08,2023-09-08,特定非営利活動法人ウーマンズココロラボ,,その他の設立登記法人,京都府,京都市西京区,御陵大枝山町５丁目２６番地４,,26,111,6101102,,,,,,,2023-09-08,1,,,,,ウーマンズココロラボ,0
1110,4140001131454,新規,0,2023-09-08,2023-09-08,株式会社オールマーケット,,株式会社,兵庫県,姫路市,安富町瀬川３９６番地,,28,201,6712424,,,,,,,2023-09-08,1,,,,,オールマーケット,0
1111,4140001131479,新規,0,2023-09-08,2023-09-08,株式会社森蔭工業,,株式会社,兵庫県,高砂市,梅井１丁目７番２１号,,28,216,6760074,,,,,,,2023-09-08,1,,,,,モリカゲコウギョウ,0
1112,4140001131529,新規,0,2023-09-08,2023-09-08,西自動車整備工場株式会社,,株式会社,兵庫県,朝来市,山東町粟鹿５６９番地,,28,225,6695125,,,,,,,2023-09-08,1,,,,,ニシジドウシャセイビコウジョウ,0
1116,4140003019508,新規,0,2023-09-08,2023-09-08,リレーションズジャパン合同会社,,合同会社,兵庫県,宝塚市,玉瀬字大岩谷１番地５２,,28,214,6691231,,,,,,,2023-09-08,1,,,,,リレーションズジャパン,0
1131,4170005007037,新規,0,2023-09-08,2023-09-08,一般財団法人高野山ウェルビーイング,,その他の設立登記法人,和歌山県,伊都郡高野町,大字高野山７９５番地,,30,344,6480211,,,,,,,2023-09-08,1,,,,,コウヤサンウェルビーイング,0
1141,4180001157917,新規,0,2023-09-08,2023-09-08,Ｙｏｕｒ　Ｄａｙ株式会社,,株式会社,愛知県,名古屋市昭和区,隼人町５番地の１カトレヤビル１－Ｄ号,,23,107,4660833,,,,,,,2023-09-08,1,,,,,ユアデイ,0
1142,4180001157925,新規,0,2023-09-08,2023-09-08,株式会社ＦＹＣ,,株式会社,愛知県,名古屋市中村区,名駅３丁目４－１０アルティメイト名駅１ｓｔ２階,,23,105,4500002,,,,,,,2023-09-08,1,,,,,エフワイシー,0
1143,4180001157958,新規,0,2023-09-08,2023-09-08,株式会社ウェブネス,,株式会社,愛知県,名古屋市瑞穂区,妙音通３丁目３３番地,,23,108,4670842,,,,,,,2023-09-08,1,,,,,ウェブネス,0
1144,4180001157966,新規,0,2023-09-08,2023-09-08,株式会社咲,,株式会社,愛知県,名古屋市西区,比良２丁目１５２番地の２,,23,104,4520802,,,,,,,2023-09-08,1,,,,,サク,0
1146,4180003025717,新規,0,2023-09-08,2023-09-08,Ｋサービス合同会社,,合同会社,愛知県,稲沢市,祖父江町三丸渕孫治前１番２８,,23,220,4950021,,,,,,,2023-09-08,1,,,,,ケイサービス,0
1148,4180301037802,新規,0,2023-09-08,2023-09-08,株式会社亀蔦キルン工業,,株式会社,愛知県,碧南市,久沓町３丁目５４番地,,23,209,4470065,,,,,,,2023-09-08,1,,,,,カメツタキルンコウギョウ,0
1151,4190001030701,新規,0,2023-09-08,2023-09-08,株式会社ビーエムティエージェンシー,,株式会社,三重県,名張市,春日丘３番町９９番地,,24,208,5180455,,,,,,,2023-09-08,1,,,,,ビーエムティエージェンシー,0
1152,4190005011862,新規,0,2023-09-08,2023-09-08,中部ブリッジ協同組合,,その他の設立登記法人,三重県,鈴鹿市,伊船町７１７番地の３,,24,207,5190323,,,,,,,2023-09-08,1,,,,,チュウブブリッジ,0
1153,4200001041705,新規,0,2023-09-08,2023-09-08,シエルテーレ株式会社,,株式会社,岐阜県,岐阜市,一日市場北町１２番２４号ハイツ・イマージュ１０１号,,21,201,5010102,,,,,,,2023-09-08,1,,,,,シエルテーレ,0
1166,4290001102977,新規,0,2023-09-08,2023-09-08,株式会社ファミット,,株式会社,福岡県,福岡市博多区,博多駅南３丁目２０番２号,,40,132,8120016,,,,,,,2023-09-08,1,,,,,ファミット,0
1167,4290001102993,新規,0,2023-09-08,2023-09-08,株式会社スプリード,,株式会社,福岡県,糟屋郡篠栗町,和田１丁目９番２７号,,40,342,8112414,,,,,,,2023-09-08,1,,,,,スプリード,0
1170,4290003014337,新規,0,2023-09-08,2023-09-08,合同会社カゲヤマホールディングス,,合同会社,福岡県,福岡市中央区,大名２丁目４番２２号,,40,133,8100041,,,,,,,2023-09-08,1,,,,,カゲヤマホールディングス,0
1173,4310003004632,新規,0,2023-09-08,2023-09-08,合同会社山口建装,,合同会社,長崎県,対馬市,上対馬町西泊１６２―５住設アパート１号,,42,209,8171703,,,,,,,2023-09-08,1,,,,,ヤマグチケンソウ,0
1177,4340001025891,新規,0,2023-09-08,2023-09-08,株式会社ザイベテック,,株式会社,鹿児島県,志布志市,志布志町帖６９３１番地１６,,46,221,8997102,,,,,,,2023-09-08,1,,,,,ザイベテック,0
1188,4380001033957,新規,0,2023-09-08,2023-09-08,株式会社ＳＫサービス,,株式会社,福島県,いわき市,小名浜花畑町１６番地の２６,,07,204,9718162,,,,,,,2023-09-08,1,,,,,エスケイサービス,0
1198,4430001089936,新規,0,2023-09-08,2023-09-08,株式会社総夢,,株式会社,北海道,札幌市中央区,南五条西１５丁目２－３－５０３,,01,101,0640805,,,,,,,2023-09-08,1,,,,,ソウム,0
1201,4430003015403,新規,0,2023-09-08,2023-09-08,合同会社キッズパトロール,,合同会社,北海道,札幌市中央区,南十三条西１７丁目１番２０号,,01,101,0640913,,,,,,,2023-09-08,1,,,,,キッズパトロール,0
1207,4490001010581,新規,0,2023-09-08,2023-09-08,共立自動車板金塗装株式会社,,株式会社,高知県,四万十市,佐岡３２番地,,39,210,7870009,,,,,,,2023-09-08,1,,,,,キョウリツジドウシャバンキントソウ,0
1210,4500001025181,新規,0,2023-09-08,2023-09-08,株式会社フィールド,,株式会社,愛媛県,松山市,南梅本町甲１７８番地６,,38,201,7910245,,,,,,,2023-09-08,1,,,,,フィールド,0
1211,4700150118559,新規,0,2023-09-08,2023-09-08,ｓｈｅｎｚｈｅｎｓｈｉｗｅｉｔｅｌｉｄｉａｎｙｕａｎｙｏｕｘｉａｎｇｏｎｇｓｉ,,外国会社等,,,,,,,,ｂａｏａｎｑｕ　ｘｉｘｉａｎｇｊｉｅｄａｏ　ｈｅｚｈｏｕｘｉｎｇｏｎｇｙｅｑｕＣｄｏｎｇ　ｓｉｌｏｕ　ｄｏｎｇｃｅｓｈｅｎｚｈｅｎｓｈｉ　ｇｕａｎｇｄｏｎｇｓｈｅｎｇ，Ｃｈｉｎａ,,,,,,2023-09-08,1,,,,,シンセンシウエイトリーデンゲンユウゲンカイシャ,0
1212,4700150119961,新規,0,2023-09-08,2023-09-08,Ｑｉｎｇｄａｏ　Ｏｒｉｅｎｔ　Ｅｎｔｅｒｐｒｉｓｅ　Ｃｏ．，Ｌｔｄ,,外国会社等,,,,,,,,ｑｉｎｇ　ｄａｏ　ｓｈｉ　ｊｉａｏ　ｚｈｏｕ　ｓｈｉ　ｙａｎｇ　ｈｅ　ｚｈｅｎ　ａｉ　ｓｈａｎｇｏｎｇｙｅｙｕａｎ　ｑｉｎｇｄａｏ　ｓｈａｎｄｏｎｇ　ｚｈｏｎｇｇｕｏ　２６６０００　ＣＮ　　　　,,,,,,2023-09-08,1,,,,,チンダオオリエントエンタープライズシーオーエルティディ,0
1213,4700150119978,新規,0,2023-09-08,2023-09-08,ｂｉｋｅｈｕｌｉａｎｗａｎｇｌｕｏ（ｓｈｅｎｚｈｅｎ）ｙｏｕｘｉａｎｇｏｎｇｓｉ,,外国会社等,,,,,,,,ｙｕａｎｓｈａｎｊｉｅｄａｏａｎｌｉａｎｇｓｈｅｑｕａｎｙｅｌｕ１９－１ｈａｏ２０１　ｌｏｎｇｇａｎｇｑｕ　ｓｈｅｎｚｈｅｎｓｈｉ,,,,,,2023-09-08,1,,,,,ビケフレンワンロシンセンユウゲンコウシ,0
1214,4700150119986,新規,0,2023-09-08,2023-09-08,Ｓｈｅｎｚｈｅｎｓｈｉ　Ｘｕｎｂａｎｇ　ｅｌｅｃｔｒｏｎｉｃ　ｃｏｍｍｅｒｃｅ　Ｃｏ．，ＬＴＤ,,外国会社等,,,,,,,,Ｎｏ．３０１，Ｎｏ．１４，Ｌａｎｅ　６，Ｇｕａｎｇｙａｙｕａｎ，Ｗｕｈｅ　Ｃｏｍｍｕｎｉｔｙ，Ｂａｎｔｉａｎ　Ｓｔｒｅｅｔ，Ｌｏｎｇｇａｎｇ　Ｄｉｓｔｒｉｃｔ，Ｓｈｅｎｚｈｅｎ,,,,,,2023-09-08,1,,,,,シェンジェンシーシンバンディエンズーシャンウーヨウシエンゴンスー,0
1215,4700150119994,新規,0,2023-09-08,2023-09-08,ｓｈｅｎｚｈｅｎｈａｉｃｈｕａｎｇｄｉａｎｓｈａｎｇｋｅｊｉｙｏｕｘｉａｎｇｏｎｇｓｉ,,外国会社等,,,,,,,,Ｍｉｎｌｅ　Ｃｏｍｍｕｎｉｔｙ，Ｍｉｎｚｈｉ　Ｓｔｒｅｅｔ，Ｌｏｎｇｈｕａ　Ｄｉｓｔｒｉｃｔ　１２０９，Ｂｕｉｌｄｉｎｇ　Ｅ，Ｐｈａｓｅ　２，Ｇａｌａｘｙ　ＷＯＲＬＤ　Ｓｈｅｎｚｈｅｎ　Ｇｕａｎｇｄｏｎｇ　Ｃｈｉｎａ,,,,,,2023-09-08,1,,,,,シンセンカイソウデンショウテクノロジーユウゲンカイシャ,0
1216,4700150120003,新規,0,2023-09-08,2023-09-08,Ｈｕｎａｎ　Ｃｈｅｎｍｏ　ｎｅｔｗｏｒｋ　ｔｅｃｈｎｏｌｏｇｙ　Ｃｏ．，ＬＴＤ,,外国会社等,,,,,,,,Ｒｏｏｍ　２０２，Ｒｏｏｍ　１０，Ｂｕｉｌｄｉｎｇ　Ｎｏ．３０，Ｇｒｏｕｐ　４，Ｙａｎｇｊｉａ　Ｎｅｉｇｈｂｏｒｈｏｏｄ　Ｃｏｍｍｉｔｔｅｅ，Ｚｈｏｎｇｌｉａｎ　Ｔｏｗｎｓｈｉｐ，Ｌｅｎｇｓｈｕｉｊｉａｎｇ　Ｃｉｔｙ,,,,,,2023-09-08,1,,,,,フーナンションチェンモーワンルオコージーヨウシエンゴンスー,0
1217,4700150120011,新規,0,2023-09-08,2023-09-08,ｓｈｅｎｚｈｅｎｄｉｂｏｅｎｋｅｊｉｙｏｕｘｉａｎｇｏｎｇｓｉ,,外国会社等,,,,,,,,Ｒｏｏｍ　Ａ１４０９，Ｎｉｕｌａｎｑｉａｎ　Ｂｕｉｌｄｉｎｇ，Ｍｉｎｚｈｉ　Ａｖｅｎｕｅ，Ｘｉｎｎｉｕ　Ｃｏｍｍｕｎｉｔｙ，Ｍｉｎｚｈｉ　Ｓｔｒｅｅｔ，Ｌｏｎｇｈｕａ　Ｄｉｓｔｒｉｃｔ，Ｓｈｅｎｚｈｅｎ,,,,,,2023-09-08,1,,,,,シンセンタイハクオンカギユウゲンコウシ,0
1218,4700150120044,新規,0,2023-09-08,2023-09-08,Ｓｕｒｉｅ　Ｓｕｐｐｌｉｅｒｓ＆Ｃｌｅａｎｅｒｓ,,外国会社等,栃木県,栃木市,岩舟町新里１３０４番地５６号室,,09,203,3294316,ネパール、カトマンズ大都市、第０９区、ナガルジュン、ドゥンガナガルコロニー,,,,,,2023-09-08,1,,,,,スリサプライヤーアンドクリーナー,0
1225,5010001238360,新規,0,2023-09-08,2023-09-08,株式会社ＡＥＧＯ,,株式会社,東京都,中央区,銀座１丁目１２－４Ｎ＆ＥＢＬＤ．７階,,13,102,1040061,,,,,,,2023-09-08,1,,,,,エゴ,0
1226,5010003041580,新規,0,2023-09-08,2023-09-08,Ａ合同会社,,合同会社,東京都,中央区,日本橋３丁目２番１４,,13,102,1030027,,,,,,,2023-09-08,1,,,,,エー,0
1227,5010003041622,新規,0,2023-09-08,2023-09-08,合同会社ＪＤＩＰ‐１１,,合同会社,東京都,千代田区,九段北３丁目２番４号,,13,101,1020073,,,,,,,2023-09-08,1,,,,,ジェイディーアイピーイレブン,0
1230,5010101015800,新規,0,2023-09-08,2023-09-08,株式会社美成,,株式会社,東京都,八王子市,小門町６１－９,,13,201,1920054,,,,,,,2023-09-08,1,,,,,ビセイ,0
1231,5010101015809,新規,0,2023-09-08,2023-09-08,誠優株式会社,,株式会社,東京都,八王子市,下柚木２丁目１８番地１サンテラス柚木２０６,,13,201,1920372,,,,,,,2023-09-08,1,,,,,セイユウ,0
1232,5010101015817,新規,0,2023-09-08,2023-09-08,ハーモニージオスペシャルアナリティクス株式会社,,株式会社,東京都,八王子市,南町２－５－２０３,,13,201,1920072,,,,,,,2023-09-08,1,,,,,ハーモニージオスペシャルアナリティクス,0
1243,5010401176937,新規,0,2023-09-08,2023-09-08,株式会社Ｆｌｏａｔ　Ｅｎｇｉｎｅｅｒｉｎｇ,,株式会社,東京都,港区,芝４丁目７番６号芝ビルディング７０４,,13,103,1080014,,,,,,,2023-09-08,1,,,,,フロートエンジニアリング,0
1244,5010401177159,新規,0,2023-09-08,2023-09-08,Ｓ．Ｒ．Ｙ株式会社,,株式会社,東京都,港区,六本木４丁目１０番１０号,,13,103,1060032,,,,,,,2023-09-08,1,,,,,エスアールワイ,0
1251,5010403030877,新規,0,2023-09-08,2023-09-08,ＭＯＣＨＩ合同会社,,合同会社,東京都,港区,三田５丁目２番２２号１５０３,,13,103,1080073,,,,,,,2023-09-08,1,,,,,モチ,0
1260,5010701044819,新規,0,2023-09-08,2023-09-08,ベンタス株式会社,,株式会社,東京都,品川区,東品川３丁目６番７号ＫＤＸレジデンス品川シーサイド４１９,,13,109,1400002,,,,,,,2023-09-08,1,,,,,ベンタス,0
1262,5010703006858,新規,0,2023-09-08,2023-09-08,合同会社エバーフリー,,合同会社,東京都,品川区,平塚１丁目７番１６号２０６,,13,109,1420051,,,,,,,2023-09-08,1,,,,,エバーフリー,0
1275,5011001156858,新規,0,2023-09-08,2023-09-08,株式会社Ｐｏｌｌｙ,,株式会社,東京都,渋谷区,道玄坂１丁目１０番８号渋谷道玄坂東急ビル２Ｆ－Ｃ,,13,113,1500043,,,,,,,2023-09-08,1,,,,,ポリー,0
1276,5011001156932,新規,0,2023-09-08,2023-09-08,株式会社ゼロタレワークス,,株式会社,東京都,渋谷区,恵比寿１丁目２１番１０号,,13,113,1500013,,,,,,,2023-09-08,1,,,,,ゼロタレワークス,0
1278,5011101104262,新規,0,2023-09-08,2023-09-08,株式会社テクノコア,,株式会社,東京都,新宿区,新宿２丁目１２番１３号新宿アントレサロンビル２階,,13,104,1600022,,,,,,,2023-09-08,1,,,,,テクノコア,0
1280,5011401025431,新規,0,2023-09-08,2023-09-08,株式会社Ｂｌｕｅｐｒｉｎｔ,,株式会社,東京都,板橋区,南常盤台１丁目２０番９号,,13,119,1740072,,,,,,,2023-09-08,1,,,,,ブループリント,0
1282,5011501029745,新規,0,2023-09-08,2023-09-08,株式会社Ｄｉｇｉｃｒａ,,株式会社,東京都,北区,赤羽２丁目６９－２千秀ビル７Ｆ,,13,117,1150045,,,,,,,2023-09-08,1,,,,,デジクラ,0
1285,5011701026575,新規,0,2023-09-08,2023-09-08,株式会社金華,,株式会社,東京都,江戸川区,本一色２丁目５番４号,,13,123,1330044,,,,,,,2023-09-08,1,,,,,キンカ,0
1290,5011801043009,新規,0,2023-09-08,2023-09-08,ＰＭＤ株式会社,,株式会社,東京都,葛飾区,新小岩２丁目１－１８エスポワール新小岩１０１号,,13,122,1240024,,,,,,,2023-09-08,1,,,,,ピーエムディー,0
1292,5012301013583,新規,0,2023-09-08,2023-09-08,株式会社ｓｔｍ,,株式会社,東京都,町田市,相原町２６９１番地２４,,13,209,1940211,,,,,,,2023-09-08,1,,,,,エスティーエム,0
1301,5020001153336,新規,0,2023-09-08,2023-09-08,株式会社Ｔｈｅ　Ｈｏｍｅ,,株式会社,神奈川県,横浜市神奈川区,新町２番地２－７０７,,14,102,2210043,,,,,,,2023-09-08,1,,,,,ザホーム,0
1302,5020001153410,新規,0,2023-09-08,2023-09-08,ＴＩＶマーケティング株式会社,,株式会社,神奈川県,横浜市保土ケ谷区,鎌谷町２９９番地３９,,14,106,2400063,,,,,,,2023-09-08,1,,,,,ティーアイブイ,0
1303,5020001153419,新規,0,2023-09-08,2023-09-08,株式会社ＡＬＥＶＩＵＳ,,株式会社,神奈川県,横浜市青葉区,新石川３丁目３３番地１４－２０１,,14,117,2250003,,,,,,,2023-09-08,1,,,,,アレヴィウス,0
1307,5020003024551,新規,0,2023-09-08,2023-09-08,合同会社Ｍ・Ｍ・Ｃ,,合同会社,神奈川県,川崎市川崎区,川中島１丁目２２－９,,14,131,2100803,,,,,,,2023-09-08,1,,,,,エムエムシー,0
1309,5021001080099,新規,0,2023-09-08,2023-09-08,株式会社ｅｓｏｒａ,,株式会社,神奈川県,相模原市緑区,西橋本３丁目８番１０号,,14,151,2520131,,,,,,,2023-09-08,1,,,,,エソラ,0
1310,5021001080108,新規,0,2023-09-08,2023-09-08,株式会社Ｄｅｃｕｔｒｙ,,株式会社,神奈川県,横須賀市,若松町３丁目１１番地,,14,201,2380007,,,,,,,2023-09-08,1,,,,,ディクトリー,0
1315,5030001155694,新規,0,2023-09-08,2023-09-08,株式会社ＲｅＳｔｅｌｌａｒ,,株式会社,埼玉県,新座市,北野３丁目１６番６号,,11,230,3520003,,,,,,,2023-09-08,1,,,,,リステラ,0
1316,5030001155777,新規,0,2023-09-08,2023-09-08,株式会社Ｌｕｇｉａ　Ｘ,,株式会社,埼玉県,新座市,西堀２丁目１５番２０号,,11,230,3520031,,,,,,,2023-09-08,1,,,,,ルギアエックス,0
1317,5030001155810,新規,0,2023-09-08,2023-09-08,株式会社ＩＷＡＴＡエンタープライズ,,株式会社,埼玉県,所沢市,西狭山ケ丘１丁目２５８－２７,,11,208,3591163,,,,,,,2023-09-08,1,,,,,イワタエンタープライズ,0
1318,5030001156016,新規,0,2023-09-08,2023-09-08,株式会社ルミスリーク,,株式会社,埼玉県,戸田市,大字新曽１７３２番地の１（アーデル戸田５０５号室）,,11,224,3350021,,,,,,,2023-09-08,1,,,,,ルミスリーク,0
1331,5040003023279,新規,0,2023-09-08,2023-09-08,合同会社輝,,合同会社,千葉県,四街道市,物井１５５７番地１,,12,228,2840012,,,,,,,2023-09-08,1,,,,,カガヤキ,0
1333,5050001053401,新規,0,2023-09-08,2023-09-08,株式会社ＭｙＷａｙ,,株式会社,茨城県,坂東市,岩井４４５９番地,,08,228,3060631,,,,,,,2023-09-08,1,,,,,マイウェイ,0
1338,5060001036314,新規,0,2023-09-08,2023-09-08,嶋田農産株式会社,,株式会社,栃木県,足利市,稲岡町８１番地１,,09,202,3294212,,,,,,,2023-09-08,1,,,,,シマダノウサン,0
1340,5060003004707,新規,0,2023-09-08,2023-09-08,美辰合同会社,,合同会社,栃木県,宇都宮市,東宿郷２丁目８番６号２０２号室,,09,201,3210953,,,,,,,2023-09-08,1,,,,,ビシン,0
1342,5060005010125,新規,0,2023-09-08,2023-09-08,一般社団法人とちぎ子ども医療支援プロジェクト,,その他の設立登記法人,栃木県,宇都宮市,新町２丁目１番１０号,,09,201,3200831,,,,,,,2023-09-08,1,,,,,トチギコドモイリョウシエンプロジェクト,0
1353,5080401026722,新規,0,2023-09-08,2023-09-08,株式会社Ｅ＆Ｃ,,株式会社,静岡県,浜松市中区,海老塚２丁目２３番地１６の１号,,22,131,4328033,,,,,,,2023-09-08,1,,,,,イーアンドシー,0
1356,5090001018318,新規,0,2023-09-08,2023-09-08,株式会社渡辺農園,,株式会社,山梨県,甲州市,塩山下萩原１８０７番地乙内２,,19,213,4040024,,,,,,,2023-09-08,1,,,,,ワタナベノウエン,0
1369,5120001257705,新規,0,2023-09-08,2023-09-08,株式会社ＫＩＹＯＬＡＣＡ,,株式会社,大阪府,大阪市北区,梅田１丁目１－３大阪駅前第３ビル２９階１－１－１号室,,27,127,5300001,,,,,,,2023-09-08,1,,,,,キヨラカ,0
1370,5120001257928,新規,0,2023-09-08,2023-09-08,株式会社ＭＩＫＵＲＯＤＯ,,株式会社,大阪府,大阪市中央区,安土町２丁目３番１３号大阪国際ビルディング３１階,,27,128,5410052,,,,,,,2023-09-08,1,,,,,ミクロド,0
1376,5120003024855,新規,0,2023-09-08,2023-09-08,ＪＰｋｏｓｅｎ合同会社,,合同会社,大阪府,大阪市中央区,南本町４丁目５番７東亜ビル５階,,27,128,5410054,,,,,,,2023-09-08,1,,,,,ジェーピーコセン,0
1379,5120005023871,新規,0,2023-09-08,2023-09-08,ＡＳＴ協同組合,,その他の設立登記法人,大阪府,大阪市淀川区,西中島３丁目８番１５号,,27,123,5320011,,,,,,,2023-09-08,1,,,,,エーエスティー,0
1383,5120101068176,新規,0,2023-09-08,2023-09-08,セブンセールスパートナー株式会社,,株式会社,大阪府,松原市,天美南５丁目７－１８－１２０１,,27,217,5800033,,,,,,,2023-09-08,1,,,,,セブンセールスパートナー,0
1389,5122003002659,新規,0,2023-09-08,2023-09-08,スタイル合同会社,,合同会社,大阪府,柏原市,旭ケ丘３丁目６番１３号,,27,221,5820026,,,,,,,2023-09-08,1,,,,,スタイル,0
1392,5130001075107,新規,0,2023-09-08,2023-09-08,ＭＳ．ＩＤＥＡＳ株式会社,,株式会社,京都府,京都市左京区,下鴨貴船町４９－２貴船マンション２０６号室,,26,103,6060813,,,,,,,2023-09-08,1,,,,,ミスアイディアス,0
1393,5130001075123,新規,0,2023-09-08,2023-09-08,株式会社ＯＫＩ,,株式会社,京都府,京都市中京区,西ノ京西中合町６１番地,,26,104,6048441,,,,,,,2023-09-08,1,,,,,オキ,0
1397,5130005016866,新規,0,2023-09-08,2023-09-08,特定非営利活動法人つむぎ,,その他の設立登記法人,京都府,南丹市,日吉町胡麻中奥２番地,,26,213,6290311,,,,,,,2023-09-08,1,,,,,ツムギ,0
1401,5140001131478,新規,0,2023-09-08,2023-09-08,株式会社オートガレージタイヨー,,株式会社,兵庫県,姫路市,三条町２丁目４１番地,,28,201,6728041,,,,,,,2023-09-08,1,,,,,オートガレージタイヨー,0
1402,5140001131494,新規,0,2023-09-08,2023-09-08,株式会社インテリオン,,株式会社,兵庫県,神戸市東灘区,住吉東町４丁目７番２４－２０２号,,28,101,6580052,,,,,,,2023-09-08,1,,,,,インテリオン,0
1403,5140001131511,新規,0,2023-09-08,2023-09-08,株式会社ＷＯＲＫＥＲＺ　ＥＸＩＴ,,株式会社,兵庫県,神戸市西区,櫨谷町長谷２０１,,28,111,6512235,,,,,,,2023-09-08,1,,,,,ワーカーズイグジット,0
1404,5140001131544,新規,0,2023-09-08,2023-09-08,ｒｕｒｉｋｏ．ｍｅ株式会社,,株式会社,兵庫県,尼崎市,武庫之荘２丁目９番１－５０２号,,28,202,6610035,,,,,,,2023-09-08,1,,,,,ルリコドットミー,0
1407,5140005026740,新規,0,2023-09-08,2023-09-08,ＮＰＯ法人ＰｉｎｉｏｎＧｅａｒ,,その他の設立登記法人,兵庫県,神戸市兵庫区,永沢町４丁目４番５号,,28,105,6520816,,,,,,,2023-09-08,1,,,,,ピニオンギアー,0
1410,5150005009505,新規,0,2023-09-08,2023-09-08,一般社団法人かぐや姫会,,その他の設立登記法人,奈良県,北葛城郡広陵町,馬見北７丁目６番１５号,,29,426,6350831,,,,,,,2023-09-08,1,,,,,カグヤヒメカイ,0
1438,5180001157858,新規,0,2023-09-08,2023-09-08,株式会社ＩＴＣ,,株式会社,愛知県,名古屋市千種区,富士見台１丁目１３番地の１,,23,101,4640015,,,,,,,2023-09-08,1,,,,,アイティーシー,0
1439,5180001157874,新規,0,2023-09-08,2023-09-08,株式会社ＡＩＺＮＥＸＴ,,株式会社,愛知県,知多郡阿久比町,大字草木字花吹５３番地,,23,441,4702211,,,,,,,2023-09-08,1,,,,,アイズネクスト,0
1440,5180001157908,新規,0,2023-09-08,2023-09-08,株式会社ＡｒｏｚａＲｅｎａ,,株式会社,愛知県,名古屋市中区,錦１丁目１７番１３号名興ビル１階,,23,106,4600003,,,,,,,2023-09-08,1,,,,,アロザレーナ,0
1441,5180001157916,新規,0,2023-09-08,2023-09-08,三英地所株式会社,,株式会社,愛知県,一宮市,千秋町町屋字東出１１番地,,23,203,4910813,,,,,,,2023-09-08,1,,,,,サンエイチショ,0
1442,5180001157940,新規,0,2023-09-08,2023-09-08,株式会社ｔｅｎ,,株式会社,愛知県,名古屋市名東区,上社２丁目２２０番地１ダイアパレス上社第３　９０２,,23,115,4650025,,,,,,,2023-09-08,1,,,,,テン,0
1443,5180001157965,新規,0,2023-09-08,2023-09-08,株式会社ｍｏｆｉｅ,,株式会社,愛知県,名古屋市緑区,滝ノ水１丁目２４０７番地,,23,114,4580021,,,,,,,2023-09-08,1,,,,,モフィー,0
1448,5180003025716,新規,0,2023-09-08,2023-09-08,合同会社ＰＦＳ,,合同会社,愛知県,弥富市,加稲３丁目５４番地,,23,235,4980047,,,,,,,2023-09-08,1,,,,,ピーエフエス,0
1449,5180003025724,新規,0,2023-09-08,2023-09-08,Ｌｈａｓｏ合同会社,,合同会社,愛知県,名古屋市西区,枇杷島３丁目５番４号コーポ早川１階,,23,104,4510053,,,,,,,2023-09-08,1,,,,,ラッソ,0
1450,5180303005822,新規,0,2023-09-08,2023-09-08,合同会社でぶちゃん,,合同会社,愛知県,豊田市,陣中町１丁目２０番地９,,23,211,4710079,,,,,,,2023-09-08,1,,,,,デブチャン,0
1452,5190001030700,新規,0,2023-09-08,2023-09-08,株式会社リンクス,,株式会社,三重県,四日市市,貝塚町１４５番地３０,,24,202,5100873,,,,,,,2023-09-08,1,,,,,リンクス,0
1453,5190001030709,新規,0,2023-09-08,2023-09-08,株式会社みつしま真珠,,株式会社,三重県,志摩市,志摩町和具１３２４番地１,,24,215,5170703,,,,,,,2023-09-08,1,,,,,ミツシマシンジュ,0
1455,5190003004438,新規,0,2023-09-08,2023-09-08,合同会社ＧｒｏｗＲｉｃｈＪａｐａｎ,,合同会社,三重県,四日市市,西伊倉町６番１５号,,24,202,5100831,,,,,,,2023-09-08,1,,,,,グローリッチジャパン,0
1458,5200001041704,新規,0,2023-09-08,2023-09-08,株式会社明昇建光,,株式会社,岐阜県,安八郡輪之内町,塩喰６０２番地,,21,382,5030236,,,,,,,2023-09-08,1,,,,,メイショウケンコウ,0
1462,5220001025597,新規,0,2023-09-08,2023-09-08,株式会社Ｗｏｌｋｉｄｓ,,株式会社,石川県,金沢市,法光寺町１６２番地５,,17,201,9203132,,,,,,,2023-09-08,1,,,,,ウォルキッズ,0
1468,5260001038298,新規,0,2023-09-08,2023-09-08,株式会社Ｙｉｅ,,株式会社,岡山県,都窪郡早島町,早島３８７番地１,,33,423,7010304,,,,,,,2023-09-08,1,,,,,イエ,0
1475,5290001102893,新規,0,2023-09-08,2023-09-08,株式会社Ｐｅｔｉｔｅ　Ｓｔｙｌｅ,,株式会社,福岡県,大野城市,南ケ丘４丁目８番１号,,40,219,8160964,,,,,,,2023-09-08,1,,,,,プティットスタイル,0
1478,5290003014344,新規,0,2023-09-08,2023-09-08,ＴｅＳｏｒｏ合同会社,,合同会社,福岡県,宗像市,光岡５４２番地１,,40,220,8113414,,,,,,,2023-09-08,1,,,,,テゾーロ,0
1479,5290005019143,新規,0,2023-09-08,2023-09-08,一般社団法人福岡県トライアスロン連合,,その他の設立登記法人,福岡県,筑紫野市,武蔵４丁目１番５３号,,40,217,8180052,,,,,,,2023-09-08,1,,,,,,0
1485,5310005008705,新規,0,2023-09-08,2023-09-08,農事組合法人希望種,,その他の設立登記法人,長崎県,西彼杵郡長与町,岡郷３００８,,42,307,8512121,,,,,,,2023-09-08,1,,,,,キボウノタネ,0
1487,5320001019993,新規,0,2023-09-08,2023-09-08,株式会社エムクリエイト,,株式会社,大分県,別府市,石垣東１丁目１番１２－３０１号レスコ石垣東,,44,202,8740919,,,,,,,2023-09-08,1,,,,,エムクリエイト,0
1493,5330001031238,新規,0,2023-09-08,2023-09-08,株式会社宿コンシェルジュ,,株式会社,熊本県,熊本市中央区,安政町４－１９ＴＭ１０ビル７階,,43,101,8600801,,,,,,,2023-09-08,1,,,,,ヤドコンシェルジュ,0
1494,5340001025890,新規,0,2023-09-08,2023-09-08,株式会社ｃｓ　ｄｅｓｉｇｎ,,株式会社,鹿児島県,鹿児島市,唐湊４丁目１７番１－６０６号,,46,201,8900081,,,,,,,2023-09-08,1,,,,,シーエスデザイン,0
1495,5340003004249,新規,0,2023-09-08,2023-09-08,合同会社セントラル,,合同会社,鹿児島県,鹿児島市,吉野町８４１２番地７８,,46,201,8920871,,,,,,,2023-09-08,1,,,,,セントラル,0
1496,5340005009650,新規,0,2023-09-08,2023-09-08,一般社団法人ＳＨＯＢＩ会,,その他の設立登記法人,鹿児島県,鹿児島市,中町７番地１０,,46,201,8920827,,,,,,,2023-09-08,1,,,,,ショウビカイ,0
1498,5360001032489,新規,0,2023-09-08,2023-09-08,ＤａｙＤａｙＧｏｏｄＤａｙｓ株式会社,,株式会社,沖縄県,浦添市,城間２丁目６番８－２０６号,,47,208,9012133,,,,,,,2023-09-08,1,,,,,デイデイグッデイス,0
1503,5380003005565,新規,0,2023-09-08,2023-09-08,合同会社グレンベル,,合同会社,福島県,伊達市,保原町字久保４７番地３,,07,213,9600602,,,,,,,2023-09-08,1,,,,,グレンベル,0
1519,5470001019806,新規,0,2023-09-08,2023-09-08,株式会社サナブリア,,株式会社,香川県,高松市,扇町１丁目２７番２０号,,37,201,7600013,,,,,,,2023-09-08,1,,,,,サナブリア,0
1527,5500001025180,新規,0,2023-09-08,2023-09-08,株式会社竹村商事,,株式会社,愛媛県,東温市,下林甲２７８８番地,,38,215,7910222,,,,,,,2023-09-08,1,,,,,タケムラショウジ,0
1529,5700150116124,新規,0,2023-09-08,2023-09-08,ｇｕａｎｇｚｈｏｕａｉｗｅｉｄｉａｎｚｉｓｈａｎｇｗｕｙｏｕｘｉａｎｇｏｎｓｉ　　　　,,外国会社等,,,,,,,,ｎａｎｓｈａｑｕ　ｆｅｎｇｚｅｄｏｎｇｌｕ　１０６ｈａｏ　ｚｉｂｉａｎｙｉｈａｏｌｏｕ　Ｘ１３０１－Ｇ０２３９６８　ｇｕａｎｇｚｈｏｕｓｈｉ　ｇｕａｎｇｄｏｎｇｓｈｅｎｇ　５１００００　ＣＮ　　　　,,,,,,2023-09-08,1,,,,,グァンジョウアイウェイディエンズシャンウヨウシェンゴンス,0
1530,5700150116693,新規,0,2023-09-08,2023-09-08,ｆｏｓｈａｎｓｈｉ　ｙｉｚｅｄａ　ｍａｏｙｉ　ｙｏｕｘｉａｎ　ｇｏｎｇｓｉ　　　　　　,,外国会社等,,,,,,,,ｎａｎｈａｉｑｕ　ｓｈｉｓｈａｎｚｈｅｎ　ｌｕｏｃｕｎ　ｈｅｇｕｉｌｕ　５ｈａｏ　ｂａｎｇｏｎｇｚｏｎｇｈｅｌｏｕ　４ｌｏｕ　ｚｉｂｉａｎ　７－９　ｆｏｓｈａｎｓｈｉ　ｇｕａｎｇ　ｄｏｎｇ　ｓｈｅｎｇ　５２８２２６　ＣＮ,,,,,,2023-09-08,1,,,,,フォーシャンシイーザーダマオイーヨウシエンゴンス,0
1531,5700150119894,新規,0,2023-09-08,2023-09-07,京都コスモスパーク管理組合,,その他,京都府,京都市右京区,京北下宇津町１,,26,108,6010266,,,,,,,2023-09-07,1,,,,,キヨウトコスモスパークカンリクミアイ,0
1532,5700150119960,新規,0,2023-09-08,2023-09-08,ＳＴＡＲＷＯＲＫ　ＤＩＲＥＣＴ　ＣＯ．，ＬＴＤ．,,外国会社等,,,,,,,,１８Ｆ．－２，Ｎｏ．２３６，Ｓｈｉｚｈｅｎｇ　Ｎ．２ｎｄ　Ｒｄ．，Ｔａｉｃｈｕｎｇ　ＣｉｔｙＸｉｔｕｎ　Ｄｉｓｔ４０７６０７ＴＷ　　　　,,,,,,2023-09-08,1,,,,,スターワークダイレクトカンパニーリミテッド,0
1533,5700150119969,新規,0,2023-09-08,2023-09-08,ＳｈｅｎＺｈｅｎ　Ｂｌｕｅｖａｌｌｅｙ　Ｔｒａｄｉｎｇ　Ｃｏ．，Ｌｔｄ．,,外国会社等,,,,,,,,Ｒｏｏｍ　１０２，Ｎｏ．４，Ｌｉｕｘｉａｎｇ，Ｐｒｉｖａｔｅ　Ｒｅｓｉｄｅｎｔｉａｌ　Ａｒｅａ／Ｎｏ．３，Ｌｉｕｘｉａｎｇ，Ｐｒｉｖａｔｅ　Ｒｅｓｉｄｅｎｔｉａｌ　Ａｒｅａ，Ｗｕｈｅ　Ｃｏｍｍｕｎｉｔｙ，Ｂａｎｔｉａｎ　Ｓｔｒｅｅｔ，Ｌｏｎｇｇａｎｇ　Ｄｉｓｔｒｉｃｔ，Ｓｈｅｎｚｈｅｎ,,,,,,2023-09-08,1,,,,,シンセンブルーバリートレーディングカンパニーリミテッド,0
1534,5700150119977,新規,0,2023-09-08,2023-09-08,ｓｈａｏｘｉｎｇ　ｆａｗｅｎｎｉｆａｎｇｚｈｉｐｉｎ　ｙｏｕｘｉａｎｇｏｎｇｓｉ,,外国会社等,,,,,,,,ｚｈｅｊｉａｎｇｓｈｅｎｇ　ｓｈａｏｘｉｎｇｓｈｉ　ｋｅｑｉａｏｑｕ　ｑｉａｎｑｉｎｇｊｉｅｄａｏｌａｏｄｏｎｇｃｕｎ１ｚｈｕａｎｇｓｉｌｏｕ,,,,,,2023-09-08,1,,,,,ショウコウファウェンニファンジピンユウゲンコウシ,0
1535,5700150119985,新規,0,2023-09-08,2023-09-08,ＳｈｅｎＺｈｅｎＳｈｉＸｉｎＭｉｎｇＫｅＪｉＹｏｕＸｉａｎＧｏｎｇＳｉ,,外国会社等,,,,,,,,ｓｈｅｎｚｈｅｎｓｈｉｆｕｔｉａｎｑｕｓｈａｔｏｕｊｉｅｄａｏｔｉａｎａｎｓｈｅｑｕｔａｉｒａｎｌｉｕｌｕｔａｉｒａｎｋｅｊｉｙｕａｎ２１３ｄｏｎｇｑｉｃｅｎｇ７Ｃ４０Ｈ,,,,,,2023-09-08,1,,,,,シェンジェンシーシンミンコージーヨウシエンゴンスー,0
1536,5700150119993,新規,0,2023-09-08,2023-09-08,ｓｈａｎｔｏｕｓｈｉｑｉｓｕｗａｎｇｌｕｏｋｅｊｉｙｏｕｘｉａｎｇｏｎｇｓｉ,,外国会社等,,,,,,,,Ｎｏ．１７，Ｂｕｉｌｄｉｎｇ　Ｃ，Ｎａｎｙｏｎｇ　Ｆａｃｔｏｒｙ　Ａｒｅａ，Ｓｏｕｔｈ　ｏｆ　Ｈｅｚｈｏｎｇ　Ｒｏａｄ，Ｈａｏｊｉａｎｇ　Ｄｉｓｔｒｉｃｔ，Ｓｈａｎｔｏｕ　Ｃｉｔｙ，Ｇｕａｎｇｄｏｎｇ　Ｐｒｏｖｉｎｃｅ　Ｃｈｉｎａ,,,,,,2023-09-08,1,,,,,シャントシチスオネットワークテクノロジー,0
1537,5700150120002,新規,0,2023-09-08,2023-09-08,Ｈｕｂｅｉ　Ｊｉａｏ　Ｊｉａ　ｔｒａｄｉｎｇ　Ｃｏ．，ＬＴＤ,,外国会社等,,,,,,,,Ｎｏ．１５５，Ｇｒｏｕｐ　３，Ｙｏｎｇｘｉ　Ｖｉｌｌａｇｅ，Ｍｅｉｃｈｕａｎ　Ｔｏｗｎ，Ｗｕｘｕｅ　Ｃｉｔｙ，Ｈｕａｎｇｇａｎｇ　Ｃｉｔｙ，Ｈｕｂｅｉ　Ｐｒｏｖｉｎｃｅ,,,,,,2023-09-08,1,,,,,フーベイションジャオジャーシャンマオヨウシエンゴンスー,0
1538,5700150120010,新規,0,2023-09-08,2023-09-08,ｓｈｅｎｚｈｅｎｓｈｉｑｉａｎｌｕｄｉａｎｚｉｓｈａｎｇｗｕｙｏｕｘｉａｎｇｏｎｇｓｉ,,外国会社等,,,,,,,,１０１，Ｂｕｉｌｄｉｎｇ　Ｃ１０，Ｎｏ．１６９　Ｐｉｎｇｘｉｎ　Ｎｏｒｔｈ　Ｒｏａｄ，Ｈｅｈｕａ　Ｃｏｍｍｕｎｉｔｙ，Ｐｉｎｇｈｕ　Ｓｔｒｅｅｔ，Ｌｏｎｇｇａｎｇ　Ｄｉｓｔｒｉｃｔ，Ｓｈｅｎｚｈｅｎ，Ｇｕａｎｇｄｏｎｇ，５１８０００　ＣＮ,,,,,,2023-09-08,1,,,,,シェンジェンシーチエンルーディエンズーシャンウーヨウシエンゴンスー,0
1539,5700150120019,新規,0,2023-09-08,2023-09-08,ｓｈｅｎｚｈｅｎｓｈｉ　ｃｈｅｎｊｉｎｇ　ｋｅｊｉ　ｙｏｕｘｉａｎｇｏｎｇｓｉ,,外国会社等,,,,,,,,ｌｏｎｇｇａｎｇｑｕ　ｊｉｈｕａｊｉｅｄａｏ　ｓｈｕｉｊｉｎｇｓｈｅｑｕ　ｓｈａｎｇｓｈｕｉｊｉｎｇ　ｚｏｎｇｈｅｌｏｕ６０２　ｌｏｎｇｇａｎｇｑｕ　ｊｉｈｕａｊｉｅｄａｏ　ｓｈｕｉｊｉｎｇｓｈｅｑｕ　ｓｈａｎｇｓｈｕｉｊｉｎｇ　ｓｈｅｎ　ｚｈｅｎ　ｇｕａｎｇｄｏｎｇ,,,,,,2023-09-08,1,,,,,シンセンシシンケイテクノロジーユウゲンコウシ,0
1547,6010001238129,新規,0,2023-09-08,2023-09-08,株式会社ベストパートナーズジャパン,,株式会社,東京都,中央区,銀座１丁目２２番１１号銀座大竹ビジデンス２Ｆ,,13,102,1040061,,,,,,,2023-09-08,1,,,,,ベストパートナーズジャパン,0
1548,6010001238319,新規,0,2023-09-08,2023-09-08,株式会社アソビオール,,株式会社,東京都,中央区,銀座７丁目１７番１８号,,13,102,1040061,,,,,,,2023-09-08,1,,,,,アソビオール,0
1549,6010001238351,新規,0,2023-09-08,2023-09-08,エヌビービーハリファクスリース株式会社,,株式会社,東京都,中央区,日本橋浜町３丁目３番２号,,13,102,1030007,,,,,,,2023-09-08,1,,,,,エヌビービーハリファクスリース,0
1558,6010005037254,新規,0,2023-09-08,2023-09-08,一般社団法人パレット信用ホールディングス,,その他の設立登記法人,東京都,千代田区,丸の内３丁目１番１号東京共同会計事務所内,,13,101,1000005,,,,,,,2023-09-08,1,,,,,パレットシンヨウホールディングス,0
1560,6010101015808,新規,0,2023-09-08,2023-09-08,株式会社Ｍ＆縁,,株式会社,東京都,八王子市,西寺方町１００１番地７２,,13,201,1920153,,,,,,,2023-09-08,1,,,,,エムアンドエン,0
1570,6010401177109,新規,0,2023-09-08,2023-09-08,ＪａｐＭａｌ株式会社,,株式会社,東京都,港区,南青山２丁目２－８ＤＦビル２Ｆ,,13,103,1070062,,,,,,,2023-09-08,1,,,,,ジャプマル,0
1579,6010901053800,新規,0,2023-09-08,2023-09-08,株式会社Ｙ＆Ｒ,,株式会社,東京都,世田谷区,弦巻１丁目１６番２号,,13,112,1540016,,,,,,,2023-09-08,1,,,,,ワイアンドアール,0
1582,6010905004527,新規,0,2023-09-08,2023-09-08,一般社団法人ＪＯＡＡ,,その他の設立登記法人,東京都,世田谷区,梅丘１丁目１９－１１－３Ｆ,,13,112,1540022,,,,,,,2023-09-08,1,,,,,ジェイオーエイエイ,0
1591,6011001156766,新規,0,2023-09-08,2023-09-08,株式会社アパッチ,,株式会社,東京都,目黒区,青葉台１丁目８番１号,,13,110,1530042,,,,,,,2023-09-08,1,,,,,アパッチ,0
1592,6011001156808,新規,0,2023-09-08,2023-09-08,株式会社ｊｕｅｍｏｎ　ｄｅｓｉｇｎ,,株式会社,東京都,渋谷区,恵比寿１丁目１５番９号日宝恵比寿ビル４０３,,13,113,1500013,,,,,,,2023-09-08,1,,,,,ジュウエモンデザイン,0
1593,6011001156873,新規,0,2023-09-08,2023-09-08,株式会社グッドリバー,,株式会社,東京都,渋谷区,富ヶ谷１丁目３３番１４号,,13,113,1510063,,,,,,,2023-09-08,1,,,,,グッドリバー,0
1598,6011101104261,新規,0,2023-09-08,2023-09-08,株式会社ＴＡＲＯＨＯＲＯ,,株式会社,東京都,新宿区,新宿５丁目２－１６市川ビル２０３,,13,104,1600022,,,,,,,2023-09-08,1,,,,,タロホロ,0
1601,6011201024905,新規,0,2023-09-08,2023-09-08,株式会社佐藤企画,,株式会社,東京都,中野区,中央４丁目３１番１４号コーポふじ,,13,114,1640011,,,,,,,2023-09-08,1,,,,,サトウキカク,0
1603,6011401025430,新規,0,2023-09-08,2023-09-08,株式会社ＮＩＮＥ’ｓ,,株式会社,東京都,板橋区,大山町２４番４号安藤ビル１Ｆ,,13,119,1730023,,,,,,,2023-09-08,1,,,,,ナインズ,0
1605,6011601027103,新規,0,2023-09-08,2023-09-08,株式会社Ｎａｃｙ,,株式会社,東京都,練馬区,関町南１丁目６番３６号,,13,120,1770053,,,,,,,2023-09-08,1,,,,,ナーシー,0
1611,6011801043008,新規,0,2023-09-08,2023-09-08,再生医学株式会社,,株式会社,東京都,葛飾区,亀有３丁目５４－６,,13,122,1250061,,,,,,,2023-09-08,1,,,,,サイセイイガク,0
1612,6011801043016,新規,0,2023-09-08,2023-09-08,ＣＯＴＯ株式会社,,株式会社,東京都,足立区,竹の塚５丁目３６番１８－２０３号,,13,121,1210813,,,,,,,2023-09-08,1,,,,,コト,0
1613,6011801043032,新規,0,2023-09-08,2023-09-08,ｆｃｓ株式会社,,株式会社,東京都,葛飾区,堀切６丁目２７番１８号１階,,13,122,1240006,,,,,,,2023-09-08,1,,,,,エフシーエス,0
1617,6012401040980,新規,0,2023-09-08,2023-09-08,株式会社爾今,,株式会社,東京都,武蔵野市,吉祥寺南町３丁目２７番２２号,,13,203,1800003,,,,,,,2023-09-08,1,,,,,ジコン,0
1618,6012401040989,新規,0,2023-09-08,2023-09-08,株式会社ＳＨＩＭＩＺＵ運輸,,株式会社,東京都,府中市,幸町２丁目１０番地２０,,13,206,1830054,,,,,,,2023-09-08,1,,,,,シミズウンユ,0
1629,6020005016125,新規,0,2023-09-08,2023-09-08,土地家屋調査士法人篠原事務所,,その他の設立登記法人,神奈川県,横浜市港北区,綱島西３丁目７番２２号,,14,109,2230053,,,,,,,2023-09-08,1,,,,,シノハラジムショ,0
1633,6021001080098,新規,0,2023-09-08,2023-09-08,株式会社ＳＣＲＵＭ,,株式会社,神奈川県,横須賀市,三春町２丁目３２番地,,14,201,2380014,,,,,,,2023-09-08,1,,,,,スクラム,0
1634,6021001080107,新規,0,2023-09-08,2023-09-08,水上通信株式会社,,株式会社,神奈川県,海老名市,中新田３丁目１７番４１号,,14,215,2430422,,,,,,,2023-09-08,1,,,,,ミズカミツウシン,0
1638,6030001155677,新規,0,2023-09-08,2023-09-08,ＬＡＮ株式会社,,株式会社,埼玉県,蕨市,南町３丁目１７番１号,,11,223,3350003,,,,,,,2023-09-08,1,,,,,ラン,0
1639,6030001155891,新規,0,2023-09-08,2023-09-08,株式会社ＵＭインベスト,,株式会社,埼玉県,さいたま市中央区,本町東２丁目５番１０号デルフィ与野本町１階,,11,105,3380003,,,,,,,2023-09-08,1,,,,,ユーエムインベスト,0
1640,6030001155974,新規,0,2023-09-08,2023-09-08,株式会社ベジパル,,株式会社,埼玉県,所沢市,東住吉７番８号,,11,208,3591124,,,,,,,2023-09-08,1,,,,,ベジパル,0
1649,6030003022454,新規,0,2023-09-08,2023-09-08,合同会社Ｃａｒｅ，ｓ,,合同会社,埼玉県,草加市,谷塚町１５０４番地１,,11,221,3400023,,,,,,,2023-09-08,1,,,,,ケアーズ,0
1650,6030003022462,新規,0,2023-09-08,2023-09-08,合同会社パオ,,合同会社,埼玉県,狭山市,入間川２丁目２６番１０号メゾン狭山２０３,,11,215,3501305,,,,,,,2023-09-08,1,,,,,パオ,0
1653,6040001129944,新規,0,2023-09-08,2023-09-08,ＵＳコーポレーション株式会社,,株式会社,千葉県,千葉市稲毛区,宮野木町１７３７番地２３,,12,103,2630054,,,,,,,2023-09-08,1,,,,,ユーエスコーポレーション,0
1654,6040001130019,新規,0,2023-09-08,2023-09-08,株式会社コスモパルス,,株式会社,千葉県,市川市,新浜１丁目１５番９号,,12,203,2720136,,,,,,,2023-09-08,1,,,,,コスモパルス,0
1658,6040003023278,新規,0,2023-09-08,2023-09-08,合同会社ヒート,,合同会社,千葉県,船橋市,習志野台８丁目５４番１－３１３号,,12,204,2740063,,,,,,,2023-09-08,1,,,,,ヒート,0
1659,6040003023303,新規,0,2023-09-08,2023-09-08,高良土建合同会社,00131854,合同会社,千葉県,市原市,うるいど南３丁目３番地６,,12,219,2900170,,,,,,,2023-09-08,1,,,,,タカラドケン,0
1664,6050001053433,新規,0,2023-09-08,2023-09-08,篠田防災株式会社,,株式会社,茨城県,神栖市,須田４８３番地,,08,232,3140253,,,,,,,2023-09-08,1,,,,,シノダボウサイ,0
1666,6050005013326,新規,0,2023-09-08,2023-09-08,一般社団法人かみす相続支援センター,,その他の設立登記法人,茨城県,神栖市,筒井１６５９番地１８サニーサイドビル,,08,232,3140132,,,,,,,2023-09-08,1,,,,,カミスソウゾクシエンセンター,0
1670,6060003004706,新規,0,2023-09-08,2023-09-08,農業生産法人エトワール合同会社,,合同会社,栃木県,足利市,通２丁目２６５６番地３,,09,202,3260814,,,,,,,2023-09-08,1,,,,,ノウギョウセイサンホウジンエトワール,0
1674,6070001040818,新規,0,2023-09-08,2023-09-08,株式会社ＴＪ,,株式会社,群馬県,伊勢崎市,本町７番６号,,10,204,3720047,,,,,,,2023-09-08,1,,,,,ティージェイ,0
1675,6070003005091,新規,0,2023-09-08,2023-09-08,ＯＧＩＷＡＲＡ合同会社,,合同会社,群馬県,伊勢崎市,堤下町４１番地,,10,204,3720004,,,,,,,2023-09-08,1,,,,,オギワラ,0
1678,6080401026721,新規,0,2023-09-08,2023-09-08,株式会社セールスイネーブルメント,,株式会社,静岡県,浜松市浜北区,沼３３０番地の５,,22,136,4340037,,,,,,,2023-09-08,1,,,,,セールスイネーブルメント,0
1679,6090001018309,新規,0,2023-09-08,2023-09-08,株式会社Ｎｉｃｅ　ａｎｄ　ｓｕｎｎｙ,,株式会社,山梨県,南巨摩郡富士川町,天神中條５５０番地１,,19,368,4000503,,,,,,,2023-09-08,1,,,,,ナイスアンドサニー,0
1680,6090005007588,新規,0,2023-09-08,2023-09-08,医療法人社団アルプス腎クリニック,,その他の設立登記法人,山梨県,南アルプス市,上今諏訪７３２番地２,,19,208,4000211,,,,,,,2023-09-08,1,,,,,アルプスジンクリニック,0
1681,6100001036770,新規,0,2023-09-08,2023-09-08,やまびこファーム株式会社,,株式会社,長野県,上伊那郡箕輪町,大字中箕輪１８５０番地,,20,383,3994601,,,,,,,2023-09-08,1,,,,,ヤマビコファーム,0
1696,6120001257308,新規,0,2023-09-08,2023-09-08,ＬＤコンシェル株式会社,,株式会社,大阪府,大阪市東淀川区,東中島１丁目１７－５,,27,114,5330033,,,,,,,2023-09-08,1,,,,,エルディーコンシェル,0
1697,6120001257877,新規,0,2023-09-08,2023-09-08,株式会社ディプラス,,株式会社,大阪府,大阪市都島区,都島北通２丁目１５番５号,,27,102,5340014,,,,,,,2023-09-08,1,,,,,ディプラス,0
1698,6120001257927,新規,0,2023-09-08,2023-09-08,株式会社たぬきネット,,株式会社,大阪府,大阪市北区,梅田１丁目２番２号大阪駅前第２ビル１２－１２,,27,127,5300001,,,,,,,2023-09-08,1,,,,,タヌキネット,0
1699,6120001257951,新規,0,2023-09-08,2023-09-08,株式会社ＴＫトラスト,,株式会社,大阪府,大阪市北区,中津６丁目１３番２０号,,27,127,5310071,,,,,,,2023-09-08,1,,,,,ティーケートラスト,0
1700,6120001258033,新規,0,2023-09-08,2023-09-08,株式会社湊,,株式会社,大阪府,大阪市北区,東天満１丁目１１－１３,,27,127,5300044,,,,,,,2023-09-08,1,,,,,ミナト,0
1706,6122001037342,新規,0,2023-09-08,2023-09-08,エンカン株式会社,,株式会社,大阪府,八尾市,上之島町北２丁目５番１３号,,27,212,5810845,,,,,,,2023-09-08,1,,,,,エンカン,0
1708,6130001075114,新規,0,2023-09-08,2023-09-08,株式会社ステイゴールド京都,,株式会社,京都府,京都市山科区,小山北林町３４番地の５,,26,110,6078115,,,,,,,2023-09-08,1,,,,,ステイゴールドキョウト,0
1709,6130003008947,新規,0,2023-09-08,2023-09-08,合同会社一心重設,,合同会社,京都府,京都市右京区,太秦乾町３３番地１６,,26,108,6168176,,,,,,,2023-09-08,1,,,,,イッシンジュウセツ,0
1710,6140001131444,新規,0,2023-09-08,2023-09-08,株式会社板垣圧送,,株式会社,兵庫県,豊岡市,庄境１０９８番地１,,28,209,6680873,,,,,,,2023-09-08,1,,,,,イタガキアッソウ,0
1711,6140001131460,新規,0,2023-09-08,2023-09-08,みなと土地株式会社,,株式会社,兵庫県,神戸市中央区,山本通４丁目１番３号,,28,110,6500003,,,,,,,2023-09-08,1,,,,,ミナトトチ,0
1712,6140001131519,新規,0,2023-09-08,2023-09-08,株式会社リミレス,,株式会社,兵庫県,姫路市,佃町６２番地リッチウォーク市役所前Ａ２０３号室,,28,201,6728049,,,,,,,2023-09-08,1,,,,,リミレス,0
1714,6140003019506,新規,0,2023-09-08,2023-09-08,ＭＡＹ合同会社,,合同会社,兵庫県,尼崎市,西昆陽２丁目３３番２８号,,28,202,6610047,,,,,,,2023-09-08,1,,,,,エムエーワイ,0
1715,6140005026723,新規,0,2023-09-08,2023-09-08,一般社団法人Ｆｕｔｕｒｅ　ｆｏｒ　Ｋｉｄｓ,,その他の設立登記法人,兵庫県,明石市,大久保町松陰山手１５１,,28,203,6740050,,,,,,,2023-09-08,1,,,,,フューチャーフォーキッズ,0
1725,6180001157923,新規,0,2023-09-08,2023-09-08,株式会社グラッド,,株式会社,愛知県,稲沢市,井堀下郷町８１番地１０,,23,220,4928464,,,,,,,2023-09-08,1,,,,,グラッド,0
1726,6180001157948,新規,0,2023-09-08,2023-09-08,株式会社Ｇ．Ｎ．Ｓ,,株式会社,愛知県,春日井市,東野町７丁目１番地３８,,23,206,4860817,,,,,,,2023-09-08,1,,,,,ジーエヌエス,0
1727,6180001157964,新規,0,2023-09-08,2023-09-08,ｋｕｍｉｉ　ｊａｐａｎ株式会社,,株式会社,愛知県,名古屋市守山区,鳥羽見１丁目２１－２,,23,113,4630076,,,,,,,2023-09-08,1,,,,,クミージャパン,0
1728,6180001157989,新規,0,2023-09-08,2023-09-08,株式会社フルチャーム,,株式会社,愛知県,名古屋市西区,牛島町６－１名古屋ルーセントタワー４０階,,23,104,4510046,,,,,,,2023-09-08,1,,,,,フルチャーム,0
1735,6180003025715,新規,0,2023-09-08,2023-09-08,みらい人材ゼミナール合同会社,,合同会社,愛知県,北名古屋市,鹿田３０５６番地ＬＭＮＣ師勝　２０４号,,23,234,4810004,,,,,,,2023-09-08,1,,,,,ミライジンザイゼミナール,0
1736,6180003025723,新規,0,2023-09-08,2023-09-08,合同会社ＮＯＲＡＮＥＫＯ,,合同会社,愛知県,名古屋市中村区,名駅４丁目２４番５号第２森ビル４０１,,23,105,4500002,,,,,,,2023-09-08,1,,,,,ノラネコ,0
1744,6190001030708,新規,0,2023-09-08,2023-09-08,長井鉄工所株式会社,,株式会社,三重県,志摩市,阿児町鵜方２８２２番地１４５,,24,215,5170501,,,,,,,2023-09-08,1,,,,,ナガイテッコウショ,0
1745,6190001030724,新規,0,2023-09-08,2023-09-08,ＦＣＨＤ株式会社,,株式会社,三重県,伊勢市,岩渕１丁目１５番７－２号,,24,203,5160037,,,,,,,2023-09-08,1,,,,,エフシーエイチディー,0
1750,6190003004437,新規,0,2023-09-08,2023-09-08,合同会社ＴＲＩＡＮＧＬＥ２ＮＤ,,合同会社,三重県,伊勢市,本町１３－４,,24,203,5160074,,,,,,,2023-09-08,1,,,,,トライアングルセカンド,0
1752,6200001041703,新規,0,2023-09-08,2023-09-08,株式会社ハチロク企画,,株式会社,岐阜県,岐阜市,北八ツ寺町１５番地大前ビルＤ１,,21,201,5008824,,,,,,,2023-09-08,1,,,,,ハチロクキカク,0
1770,6260001038297,新規,0,2023-09-08,2023-09-08,株式会社アクシス興産,,株式会社,岡山県,岡山市南区,西高崎６６番地３８,,33,104,7091204,,,,,,,2023-09-08,1,,,,,アクシスコウサン,0
1776,6290001102991,新規,0,2023-09-08,2023-09-08,マクロエナジー株式会社,,株式会社,福岡県,福津市,あけぼの２番地の１８,,40,224,8113220,,,,,,,2023-09-08,1,,,,,マクロエナジー,0
1778,6290003014343,新規,0,2023-09-08,2023-09-08,合同会社Ｒ‐ＬＩＦＥ,,合同会社,福岡県,福岡市西区,西の丘３丁目２８番７号,,40,135,8190046,,,,,,,2023-09-08,1,,,,,アールライフ,0
1780,6320003004167,新規,0,2023-09-08,2023-09-08,合同会社光板金,,合同会社,大分県,別府市,朝見１丁目１０番４０号,,44,202,8740812,,,,,,,2023-09-08,1,,,,,ヒカリバンキン,0
1785,6340001025881,新規,0,2023-09-08,2023-09-08,株式会社松田解体商事,,株式会社,鹿児島県,大島郡徳之島町,徳和瀬１２１５番地３,,46,530,8917111,,,,,,,2023-09-08,1,,,,,マツダカイタイショウジ,0
1791,6360001032513,新規,0,2023-09-08,2023-09-08,ゴリラコーポレーション株式会社,,株式会社,沖縄県,浦添市,伊祖３丁目４０番３号,,47,208,9012132,,,,,,,2023-09-08,1,,,,,ゴリラコーポレーション,0
1792,6360001032521,新規,0,2023-09-08,2023-09-08,琉球コンサルティングファーム株式会社,,株式会社,沖縄県,那覇市,牧志２丁目１６番４６号,,47,201,9000013,,,,,,,2023-09-08,1,,,,,リュウキュウコンサルティングファーム,0
1794,6370001050381,新規,0,2023-09-08,2023-09-08,ＴＡＩＲＩＫＵ　ＴＲＡＤＩＮＧ株式会社,,株式会社,宮城県,仙台市太白区,青山２丁目８番１１号,,04,104,9820834,,,,,,,2023-09-08,1,,,,,タイリクトレーディング,0
1797,6380001033955,新規,0,2023-09-08,2023-09-08,九頭馬株式会社,,株式会社,福島県,郡山市,島１丁目９番１８号,,07,203,9638034,,,,,,,2023-09-08,1,,,,,キュウトウマ,0
1799,6380003005564,新規,0,2023-09-08,2023-09-08,合同会社テルミット,,合同会社,福島県,福島市,岡島字砂入６６番地市住３－４号,,07,201,9608201,,,,,,,2023-09-08,1,,,,,テルミット,0
1803,6400001016370,新規,0,2023-09-08,2023-09-08,株式会社受皿,,株式会社,岩手県,北上市,さくら通り５丁目１０番１２号,,03,206,0240084,,,,,,,2023-09-08,1,,,,,ウケザラ,0
1814,6430001089926,新規,0,2023-09-08,2023-09-08,株式会社ＳＴＪ,,株式会社,北海道,札幌市東区,北六条東８丁目１番３－１１０７号,,01,103,0650006,,,,,,,2023-09-08,1,,,,,エスティージェイ,0
1816,6430003015426,新規,0,2023-09-08,2023-09-08,Ｍ‐ＴＡＸ　ＳＡＰＰＯＲＯ合同会社,,合同会社,北海道,札幌市北区,北二十条西５丁目２‐５０‐６０４,,01,102,0010020,,,,,,,2023-09-08,1,,,,,エムタックスサッポロ,0
1821,6500003003101,新規,0,2023-09-08,2023-09-08,合同会社セブンコンサルタント,,合同会社,愛媛県,松山市,祇園町１番３６号－３１０,,38,201,7900965,,,,,,,2023-09-08,1,,,,,セブンコンサルタント,0
1822,6700150119968,新規,0,2023-09-08,2023-09-08,ＳＨＥＮＺＨＥＮＳＨＩ　ＺＨＥＮＧＱＩＢＡＮＧＷＥＮＨＵＡＣＨＵＡＮＢＯ　ＹＯＵＸＩＡＮＧＯＮＧＳＩ,,外国会社等,,,,,,,,ＳＨＥＮＺＨＥＮＳＨＩＬＯＮＧＨＵＡＱＵＤＡＬＡＮＧＪＩＥＤＡＯＬＯＮＧＰＩＮＧＳＨＥＱＵＭＡＮＨＡＩＮＩＮＧＮＡＮＱＵ６ＤＯＮＧ２２Ｅ,,,,,,2023-09-08,1,,,,,シンセンシゼンチバンブンカツァンボユウゲンコウシ,0
1823,6700150119976,新規,0,2023-09-08,2023-09-08,ｔａｉｙｕａｎｔｅｆｅｉｄｉａｎｚｉｓｈａｎｇｗｕ　ｙｏｕｘｉａｎｇｏｎｇｓｉ,,外国会社等,,,,,,,,ｓｈａｎｘｉｓｈｅｎｇｔａｉｙｕａｎｓｈｉ　ｊｉｎｙｕａｎｑｕ　ｘｉｚｈｏｎｇｈｕａｎｎａｎｄｕａｎ１９９ｈａｏｓｈｉｄａｉｗａｎｇｃｈｕａｎｇｃｈａｎｙｅｙｕａｎ０２５８ｈａｏ,,,,,,2023-09-08,1,,,,,タイゲンテフェイデンシショウムユウゲンコウシ,0
1824,6700150119984,新規,0,2023-09-08,2023-09-08,ｈａｎｇｚｈｏｕｌｕｏｙｉｓｈａｎｇｍａｏ　ｙｏｕｘｉａｎｇｏｎｇｓｉ,,外国会社等,,,,,,,,Ｒｏｏｍ　４５０，Ｎｏ．４０１，Ｎｏ．２０５，Ｗｅｓｔ　Ｓｅｃｔｉｏｎ　ｏｆ　Ｏｕｈｕａｚｈｏｕ　Ｓｔｒｅｅｔ　Ｘｉｎｇｑｉａｏ，Ｌｉｎｐｉｎｇ　Ｄｉｓｔｒｉｃｔ　Ｈａｎｇｚｈｏｕ　Ｚｈｅｊｉａｎｇ,,,,,,2023-09-08,1,,,,,コウシュウルオイシャンマオユウゲンコウシ,0
1825,6700150119992,新規,0,2023-09-08,2023-09-08,Ｓｈｅｎｚｈｅｎｌａｎｈｕｚｈｉｎｅｎｇｋｅｊｉｙｏｕｘｉａｎｇｏｎｇｓｉ,,外国会社等,,,,,,,,２－３０７，Ｊａｅｍａｏ　Ｉｎｄｕｓｔｒｉａｌ　Ｐａｒｋ，Ｎｏ．１２，Ｂａｏｊｉ　Ｒｏａｄ，Ｘｉａｎｇｊｉａｏｔａｎｇ　Ｃｏｍｍｕｎｉｔｙ，Ｚａｉｍａｏ　Ｉｎｄｕｓｔｒｉａｌ　Ｐａｒｋ　２，Ｓｈｅｎｚｈｅｎ，Ｇｕａｎｇｄｏｎｇ,,,,,,2023-09-08,1,,,,,シンセンランコチノウカギユウゲンコウシ,0
1826,6700150120001,新規,0,2023-09-08,2023-09-08,Ｌｅｎｇｓｈｕｉｊｉａｎｇ　Ｆｅｎｇｅｒ　ｎｅｔｗｏｒｋ　ｔｅｃｈｎｏｌｏｇｙ　Ｃｏ．，ＬＴＤ,,外国会社等,,,,,,,,Ｒｏｏｍ　１３２７－１４，１３ｔｈ　Ｆｌｏｏｒ，Ｆｉｌｍ　ａｎｄ　Ｔｅｌｅｖｉｓｉｏｎ　Ｉｎｔｅｒｎａｔｉｏｎａｌ　Ｂｕｓｉｎｅｓｓ　Ｃｅｎｔｅｒ　Ｂｕｉｌｄｉｎｇ，Ｓｔｉｉｄｕ　Ｍｉｄｄｌｅ　Ｒｏａｄ，Ｌｅｎｇｓｈｕｉｊｉａｎｇ　Ｓｔｒｅｅｔ，Ｌｅｎｇｓｈｕｉｊｉａｎｇ　Ｃｉｔｙ,,,,,,2023-09-08,1,,,,,ロンシュイジャンシーフォンアーワンルオコージーヨウシエンゴンスー,0
1827,6700150120018,新規,0,2023-09-08,2023-09-08,ｆｕｊｉａｎｓｈｅｎｇｙｉｈｕｃｈａｙｅｙｏｕｘｉａｎｇｏｎｇｓｉ,,外国会社等,,,,,,,,ｆｕｊｉａｎｓｈｅｎｇｆｕｚｈｏｕｓｈｉｆｕｑｉｎｇｓｈｉｙｉｎｘｉｊｉｅｄａｏｒｏｎｇｑｉａｏｃｈｅｎｇ２８ｈａｏｌｏｕ９ｃｅｎｇ９０２ｄａｎｙｕａｎ,,,,,,2023-09-08,1,,,,,フクケンシヨウワンポツトテイーユウゲンコウシ,0
1828,6700150120042,新規,0,2023-09-08,2023-09-08,ＳＨＩＮ　ＡＵＴＯ　ＰＡＲＴＳ　ＴＲＡＤＥＲＳ　ＰＶＴ　ＬＴＤ,,外国会社等,大阪府,大東市,中垣内２丁目１２番地１１号エステートよしみ２０５,,27,218,5740013,スリランカ民主社会主義共和国、ディーガラ、ラトゥゴハ、パンゴッラマダ、１７,,,,,,2023-09-08,1,,,,,シンオートパーツトレーダースピーヴイテイエルテイデイ,0
1839,7010001238284,新規,0,2023-09-08,2023-09-08,株式会社Ｗｅｌｌｔｅｃｈ　Ｈｅａｌｔｈｃａｒｅ,,株式会社,東京都,中央区,銀座１丁目１２番４号Ｎ＆ＥＢＬＤ．６Ｆ,,13,102,1040061,,,,,,,2023-09-08,1,,,,,ウェルテックヘルスケア,0
1840,7010001238350,新規,0,2023-09-08,2023-09-08,エヌビービーサウスポートリース株式会社,,株式会社,東京都,中央区,日本橋浜町３丁目３番２号,,13,102,1030007,,,,,,,2023-09-08,1,,,,,エヌビービーサウスポートリース,0
1842,7010003041620,新規,0,2023-09-08,2023-09-08,Ｌｕｕｐ車両管理１号合同会社,,合同会社,東京都,千代田区,神田佐久間町３丁目２１番地２４ＡＫＩＨＡＢＡＲＡＣＥＮＴＲＡＬＳＱＵＡＲＥ４階,,13,101,1010025,,,,,,,2023-09-08,1,,,,,ループシャリョウカンリイチゴウ,0
1843,7010101015807,新規,0,2023-09-08,2023-09-08,株式会社エスアイシーネクスト,,株式会社,東京都,八王子市,打越町１５２３番地１５２,,13,201,1920911,,,,,,,2023-09-08,1,,,,,エスアイシーネクスト,0
1853,7010401176976,新規,0,2023-09-08,2023-09-08,ＬＳ‐Ａｖｉａｔｉｏｎ第５８号株式会社,,株式会社,東京都,港区,六本木１丁目６番１号,,13,103,1060032,,,,,,,2023-09-08,1,,,,,エルエスアビエーションダイゴジュウハチゴウ,0
1854,7010401177009,新規,0,2023-09-08,2023-09-08,株式会社Ｃｏｌｌｅｃｔｉｖｅ　Ｐａｔｈ,,株式会社,東京都,港区,南麻布３丁目２０番１号,,13,103,1060047,,,,,,,2023-09-08,1,,,,,コレクティブパス,0
1867,7010801034313,新規,0,2023-09-08,2023-09-08,株式会社ＹｏｕＧｏプロデュース,,株式会社,東京都,大田区,山王２丁目６番６－１０１号,,13,111,1430023,,,,,,,2023-09-08,1,,,,,ユーゴープロデュース,0
1869,7010901053758,新規,0,2023-09-08,2023-09-08,ＢＹＳＵ株式会社,,株式会社,東京都,世田谷区,野沢４丁目２番６－３０６号,,13,112,1540003,,,,,,,2023-09-08,1,,,,,バイス,0
1872,7010903008421,新規,0,2023-09-08,2023-09-08,合同会社インテュイティブコンサルティング,,合同会社,東京都,世田谷区,砧３丁目９番２５号,,13,112,1570073,,,,,,,2023-09-08,1,,,,,インテュイティブコンサルティング,0
1881,7011001156798,新規,0,2023-09-08,2023-09-08,株式会社ＯＡＲ　ＦＲＥＥ,,株式会社,東京都,目黒区,平町２丁目１３－５,,13,110,1520032,,,,,,,2023-09-08,1,,,,,オールフリー,0
1882,7011001156807,新規,0,2023-09-08,2023-09-08,株式会社ココナラリーガルコネクト,,株式会社,東京都,渋谷区,桜丘町１２番１０号,,13,113,1500031,,,,,,,2023-09-08,1,,,,,ココナラリーガルコネクト,0
1883,7011001156848,新規,0,2023-09-08,2023-09-08,株式会社巧販売,,株式会社,東京都,目黒区,自由が丘２丁目１６番１２号ＲＪ３,,13,110,1520035,,,,,,,2023-09-08,1,,,,,タクミハンバイ,0
1886,7011005010209,新規,0,2023-09-08,2023-09-08,一般社団法人サステナブル芸術創造機構,,その他の設立登記法人,東京都,渋谷区,道玄坂１丁目２０番３号コエル渋谷１２Ｆ,,13,113,1500043,,,,,,,2023-09-08,1,,,,,サステナブルゲイジュツソウゾウキコウ,0
1890,7011101104269,新規,0,2023-09-08,2023-09-08,不動産総研株式会社,,株式会社,東京都,新宿区,高田馬場３丁目１番５号サンパティオ高田馬場２１８号室,,13,104,1690075,,,,,,,2023-09-08,1,,,,,フドウサンソウケン,0
1891,7011105010769,新規,0,2023-09-08,2023-09-08,一般社団法人次世代独立起業家等事業構築支援協議会,,その他の設立登記法人,東京都,新宿区,新宿１丁目３６番２号新宿第七葉山ビル３階,,13,104,1600022,,,,,,,2023-09-08,1,,,,,ジセダイドクリツキギョウカトウジギョウコウチクシエンキョウギカイ,0
1897,7011501029735,新規,0,2023-09-08,2023-09-08,株式会社ＲＡＹ,,株式会社,東京都,荒川区,東尾久６丁目３６番１３号コーポ，プリン３０１,,13,118,1160012,,,,,,,2023-09-08,1,,,,,レイ,0
1903,7011601027110,新規,0,2023-09-08,2023-09-08,株式会社ＪＫ,,株式会社,東京都,練馬区,大泉学園町２丁目１８番２５号,,13,120,1780061,,,,,,,2023-09-08,1,,,,,ジェイケイ,0
1904,7011701026573,新規,0,2023-09-08,2023-09-08,奥山企画株式会社,,株式会社,東京都,江戸川区,臨海町５丁目３番１－１００３号,,13,123,1340086,,,,,,,2023-09-08,1,,,,,オクヤマキカク,0
1905,7011801043015,新規,0,2023-09-08,2023-09-08,ＤＸアーキテクト株式会社,,株式会社,東京都,葛飾区,細田３丁目６番１３－３０２号,,13,122,1240021,,,,,,,2023-09-08,1,,,,,ディーエックスアーキテクト,0
1914,7012801022611,新規,0,2023-09-08,2023-09-08,明越株式会社,,株式会社,東京都,東大和市,清原４丁目９番地の２１,,13,220,2070011,,,,,,,2023-09-08,1,,,,,アケコシ,0
1915,7013301051282,新規,0,2023-09-08,2023-09-08,佐藤工業株式会社,,株式会社,東京都,豊島区,池袋１丁目１５－１５Ｅ＆Ｎレジデンス３０２,,13,116,1700014,,,,,,,2023-09-08,1,,,,,サトウコウギョウ,0
1916,7013301051308,新規,0,2023-09-08,2023-09-08,株式会社ＡＢＧ,,株式会社,東京都,豊島区,南池袋２丁目８番９号,,13,116,1710022,,,,,,,2023-09-08,1,,,,,エービージー,0
1925,7020001153359,新規,0,2023-09-08,2023-09-08,ＳＳＳ株式会社,,株式会社,神奈川県,横浜市中区,真砂町４丁目４３番地,,14,104,2310016,,,,,,,2023-09-08,1,,,,,スリエス,0
1926,7020001153409,新規,0,2023-09-08,2023-09-08,株式会社Ｓｅｃｏｎｄ,,株式会社,神奈川県,横浜市港南区,下永谷２丁目２４番Ｂ－２０４号,,14,111,2330016,,,,,,,2023-09-08,1,,,,,セカンド,0
1927,7020001153417,新規,0,2023-09-08,2023-09-08,株式会社Ｉ・Ｎ・Ｏ,,株式会社,神奈川県,川崎市高津区,久本３丁目６番１－１０１３号,,14,134,2130011,,,,,,,2023-09-08,1,,,,,アイエヌオー,0
1935,7021001080097,新規,0,2023-09-08,2023-09-08,株式会社ナカオ住建,,株式会社,神奈川県,大和市,中央林間西４丁目２８番３号１０６,,14,213,2420008,,,,,,,2023-09-08,1,,,,,ナカオジュウケン,0
1936,7021001080106,新規,0,2023-09-08,2023-09-08,株式会社ＦＴＥ　Ｓｙｓｔｅｍ,,株式会社,神奈川県,小田原市,成田７１７番地２,,14,206,2500862,,,,,,,2023-09-08,1,,,,,エフティーイーシステム,0
1937,7021001080114,新規,0,2023-09-08,2023-09-08,株式会社かずみ,,株式会社,神奈川県,厚木市,妻田東３丁目２９番１１号,,14,212,2430813,,,,,,,2023-09-08,1,,,,,カズミ,0
1938,7021001080130,新規,0,2023-09-08,2023-09-08,株式会社ベイファーム,,株式会社,神奈川県,厚木市,小野１０５３番地,,14,212,2430125,,,,,,,2023-09-08,1,,,,,ベイファーム,0
1939,7021001080139,新規,0,2023-09-08,2023-09-08,株式会社エム＆スリー,,株式会社,神奈川県,座間市,相武台３丁目４１番１０－４１３号,,14,216,2520011,,,,,,,2023-09-08,1,,,,,エムアンドスリー,0
1941,7021003013550,新規,0,2023-09-08,2023-09-08,合同会社ＦＨＢ,,合同会社,神奈川県,鎌倉市,梶原１丁目５番１７号,,14,204,2470063,,,,,,,2023-09-08,1,,,,,エフエイチビー,0
1947,7030001155619,新規,0,2023-09-08,2023-09-08,株式会社クレセール,,株式会社,埼玉県,新座市,栗原６丁目３番３号１０２号室,,11,230,3520035,,,,,,,2023-09-08,1,,,,,クレセール,0
1948,7030001155643,新規,0,2023-09-08,2023-09-08,オール株式会社,,株式会社,埼玉県,北足立郡伊奈町,学園２丁目１２１番地３,,11,301,3620813,,,,,,,2023-09-08,1,,,,,オール,0
1949,7030001155668,新規,0,2023-09-08,2023-09-08,株式会社ＫＴＯ,,株式会社,埼玉県,越谷市,北越谷５丁目５番１８号,,11,222,3430026,,,,,,,2023-09-08,1,,,,,ケーティーオー,0
1950,7030001155916,新規,0,2023-09-08,2023-09-08,株式会社ＮＩＣＫ,,株式会社,埼玉県,さいたま市岩槻区,大字黒谷２０７５番地２３,,11,110,3390033,,,,,,,2023-09-08,1,,,,,ニック,0
1951,7030001155924,新規,0,2023-09-08,2023-09-08,ライフサポートジャパン株式会社,,株式会社,埼玉県,さいたま市桜区,西堀２丁目６番１６－３号,,11,106,3380832,,,,,,,2023-09-08,1,,,,,ライフサポートジャパン,0
1952,7030001155981,新規,0,2023-09-08,2023-09-08,ＭＸ　ＰＡＲＴＮＥＲＳ株式会社,,株式会社,埼玉県,所沢市,小手指町２丁目１４４２番８,,11,208,3591141,,,,,,,2023-09-08,1,,,,,エムエックスパートナーズ,0
1954,7030003022412,新規,0,2023-09-08,2023-09-08,ＭＡＪＨＩ合同会社,,合同会社,埼玉県,鴻巣市,本町３丁目３番８－３１１号シティーホームズ鴻巣本町,,11,217,3650038,,,,,,,2023-09-08,1,,,,,マジ,0
1955,7030003022445,新規,0,2023-09-08,2023-09-08,ＲＡＤＨＥＹ　ＲＡＤＨＥＹ合同会社,,合同会社,埼玉県,川口市,青木５丁目２０番１８号,,11,203,3320031,,,,,,,2023-09-08,1,,,,,ラディラディ,0
1957,7030005021379,新規,0,2023-09-08,2023-09-08,特定非営利活動法人タビナガおじさんおばさん,,その他の設立登記法人,埼玉県,新座市,北野２丁目１６番２号,,11,230,3520003,,,,,,,2023-09-08,1,,,,,タビナガオジサンオバサン,0
1963,7040001130018,新規,0,2023-09-08,2023-09-08,株式会社Ｇｉｇａｃ,,株式会社,千葉県,千葉市中央区,仁戸名町１０９－１２,,12,101,2600801,,,,,,,2023-09-08,1,,,,,ギガク,0
1964,7040001130034,新規,0,2023-09-08,2023-09-08,株式会社ジッツー,,株式会社,千葉県,松戸市,新松戸７丁目２１４番地青桐ハウス２号室,,12,207,2700034,,,,,,,2023-09-08,1,,,,,ジッツー,0
1968,7040003023269,新規,0,2023-09-08,2023-09-08,村木合同会社,,合同会社,千葉県,市川市,大洲４丁目２１番２０号メゾンドール市川２０３号,,12,203,2720032,,,,,,,2023-09-08,1,,,,,ムラキ,0
1969,7040003023277,新規,0,2023-09-08,2023-09-08,合同会社ツリー,,合同会社,千葉県,船橋市,習志野台８丁目５４番１－３１３号,,12,204,2740063,,,,,,,2023-09-08,1,,,,,ツリー,0
1970,7040003023293,新規,0,2023-09-08,2023-09-08,萬屋産業合同会社,,合同会社,千葉県,松戸市,西馬橋３丁目３２番地の２３,,12,207,2710044,,,,,,,2023-09-08,1,,,,,ヨロズヤサンギョウ,0
1971,7040003023302,新規,0,2023-09-08,2023-09-08,ＫＫＳ合同会社,,合同会社,千葉県,松戸市,金ケ作４０２－８４,,12,207,2702251,,,,,,,2023-09-08,1,,,,,ケーケーエス,0
1974,7050005013325,新規,0,2023-09-08,2023-09-08,医療法人佑心会,,その他の設立登記法人,茨城県,つくば市,東新井２４番地１９,,08,220,3050033,,,,,,,2023-09-08,1,,,,,ユウシンカイ,0
1976,7060001036312,新規,0,2023-09-08,2023-09-08,信冨電工株式会社,,株式会社,栃木県,真岡市,南高岡９０４番地１,,09,209,3214314,,,,,,,2023-09-08,1,,,,,シントミデンコウ,0
1990,7080003003052,新規,0,2023-09-08,2023-09-08,合同会社オフィスナカムラ,,合同会社,静岡県,焼津市,西小川２丁目１２番地の７,,22,212,4250036,,,,,,,2023-09-08,1,,,,,オフィスナカムラ,0
1994,7080105006358,新規,0,2023-09-08,2023-09-08,一般財団法人獺政治学研究所,,その他の設立登記法人,静岡県,熱海市,咲見町４番４号,,22,205,4130019,,,,,,,2023-09-08,1,,,,,カワウソセイジガクケンキュウジョ,0
1998,7090001018308,新規,0,2023-09-08,2023-09-08,株式会社コリブリ,,株式会社,山梨県,南都留郡山中湖村,平野５０６番地山中湖レストセンター,,19,425,4010502,,,,,,,2023-09-08,1,,,,,コリブリ,0
2025,7120003024853,新規,0,2023-09-08,2023-09-08,合同会社ＡＬＥＳＤＥＳＩＧＮ,,合同会社,大阪府,大阪市北区,梅田１丁目２番２号大阪駅前第２ビル１２－１２,,27,127,5300001,,,,,,,2023-09-08,1,,,,,アレスデザイン,0
2027,7120101068182,新規,0,2023-09-08,2023-09-08,株式会社Ｌｅｇａｒｅ,,株式会社,大阪府,堺市中区,八田寺町１５７－１２,,27,142,5998267,,,,,,,2023-09-08,1,,,,,レガーレ,0
2033,7122001037333,新規,0,2023-09-08,2023-09-08,株式会社Ｚ,,株式会社,大阪府,東大阪市,菱屋西１丁目１番７号,,27,227,5770807,,,,,,,2023-09-08,1,,,,,ゼット,0
2034,7122001037341,新規,0,2023-09-08,2023-09-08,株式会社ＡＳＡＨＩ,,株式会社,大阪府,八尾市,八尾木北５丁目１６０番地,,27,212,5810016,,,,,,,2023-09-08,1,,,,,アサヒ,0
2035,7122005003703,新規,0,2023-09-08,2023-09-08,一般社団法人ピッコレマニ,,その他の設立登記法人,大阪府,東大阪市,日下町４丁目４番１４号,,27,227,5798003,,,,,,,2023-09-08,1,,,,,ピッコレマニ,0
2040,7130003008946,新規,0,2023-09-08,2023-09-08,グローアド合同会社,,合同会社,京都府,京都市下京区,大寿町３８６レガーロ河原町１０３,,26,106,6008039,,,,,,,2023-09-08,1,,,,,グローアド,0
2047,7140001131419,新規,0,2023-09-08,2023-09-08,株式会社エスピー技研,,株式会社,兵庫県,三田市,狭間が丘２丁目９番地６,,28,219,6691545,,,,,,,2023-09-08,1,,,,,エスピーギケン,0
2048,7140001131476,新規,0,2023-09-08,2023-09-08,株式会社大前電工,,株式会社,兵庫県,淡路市,生穂１５３９番地,,28,226,6562223,,,,,,,2023-09-08,1,,,,,オオマエデンコウ,0
2049,7140001131484,新規,0,2023-09-08,2023-09-08,株式会社小松電空設備,,株式会社,兵庫県,明石市,大久保町高丘６丁目１７番地の７,,28,203,6740057,,,,,,,2023-09-08,1,,,,,コマツデンクウセツビ,0
2050,7140001131492,新規,0,2023-09-08,2023-09-08,株式会社２４ｍｍＷｏｒｋｓ,,株式会社,兵庫県,神戸市中央区,生田町２丁目１番１０号新神戸都マンション６０２,,28,110,6510092,,,,,,,2023-09-08,1,,,,,ニジュウヨンミリワークス,0
2051,7140003019496,新規,0,2023-09-08,2023-09-08,宮崎企画合同会社,,合同会社,兵庫県,宝塚市,宝梅２丁目６番３４号,,28,214,6650013,,,,,,,2023-09-08,1,,,,,ミヤザキキカク,0
2052,7140003019505,新規,0,2023-09-08,2023-09-08,辰和合同会社,,合同会社,兵庫県,神戸市中央区,加納町２丁目７－２０すみれマンション２０６号室,,28,110,6500001,,,,,,,2023-09-08,1,,,,,タツワ,0
2053,7140003019513,新規,0,2023-09-08,2023-09-08,合同会社クローバー,,合同会社,兵庫県,姫路市,飾磨区付城１丁目４２７番地ザックス英賀保Ａ棟１０１,,28,201,6728082,,,,,,,2023-09-08,1,,,,,クローバー,0
2055,7150001026700,新規,0,2023-09-08,2023-09-08,Ｈｉ‐ＦＡＢＲＩＣＫ室内装飾創造株式会社,,株式会社,奈良県,桜井市,大字辻１４０番地,00131839,29,206,6330083,,,,,,,2023-09-08,1,,,,,ハイファブリックシツナイソウショクソウゾウ,0
2064,7180001157906,新規,0,2023-09-08,2023-09-08,株式会社アプライアンス,,株式会社,愛知県,春日井市,惣中町１丁目５１番地,,23,206,4860949,,,,,,,2023-09-08,1,,,,,アプライアンス,0
2069,7180003025714,新規,0,2023-09-08,2023-09-08,合同会社シー・エム,,合同会社,愛知県,知多郡東浦町,大字石浜字須賀１２番地の２１,,23,442,4702103,,,,,,,2023-09-08,1,,,,,シーエム,0
2070,7180003025722,新規,0,2023-09-08,2023-09-08,合同会社ＥＬＰＩＳ,,合同会社,愛知県,名古屋市緑区,亀が洞３丁目１３０４番地,,23,114,4580804,,,,,,,2023-09-08,1,,,,,エルピス,0
2071,7180003025730,新規,0,2023-09-08,2023-09-08,合同会社ｉｎＳｐａｒｋ,,合同会社,愛知県,名古屋市中区,栄３丁目３２－２３青木ビル西館３Ｆ,,23,106,4600008,,,,,,,2023-09-08,1,,,,,インスパーク,0
2072,7180301037808,新規,0,2023-09-08,2023-09-08,株式会社ＮＭＥ,,株式会社,愛知県,岡崎市,稲熊町字１丁目７３番地,,23,202,4440071,,,,,,,2023-09-08,1,,,,,エヌエムイー,0
2074,7190001030707,新規,0,2023-09-08,2023-09-08,株式会社岩城真珠,,株式会社,三重県,志摩市,志摩町和具１９３６番地２,,24,215,5170703,,,,,,,2023-09-08,1,,,,,イワキシンジュ,0
2087,7290001102966,新規,0,2023-09-08,2023-09-08,株式会社１２３開発,,株式会社,福岡県,久留米市,荘島町１４番地８,,40,203,8300042,,,,,,,2023-09-08,1,,,,,イチニイサンカイハツ,0
2088,7290001102974,新規,0,2023-09-08,2023-09-08,株式会社ＳＨＯＹＯ,,株式会社,福岡県,久留米市,城島町芦塚５６７－２,00131840,40,203,8300201,,,,,,,2023-09-08,1,,,,,ショウヨウ,0
2089,7290001102990,新規,0,2023-09-08,2023-09-08,株式会社Ｔｅｎｏｒ　Ｆｏｏｄ　Ｔｒａｄｉｎｇ,,株式会社,福岡県,福岡市博多区,博多駅東１丁目１番３３号はかた近代ビル７階,,40,132,8120013,,,,,,,2023-09-08,1,,,,,テノールフードトレーディング,0
2090,7290001102999,新規,0,2023-09-08,2023-09-08,株式会社ｆｉｌｕｍ‐ＣＧ,,株式会社,福岡県,糸島市,前原駅南２丁目１５番１７号,,40,230,8191138,,,,,,,2023-09-08,1,,,,,フィルムシージー,0
2105,7320001019991,新規,0,2023-09-08,2023-09-08,株式会社石川企画,,株式会社,大分県,別府市,野口元町１１番２３号,,44,202,8740933,,,,,,,2023-09-08,1,,,,,イシカワキカク,0
2106,7330001031244,新規,0,2023-09-08,2023-09-08,株式会社コンテナハウスヴィラくろかわ,,株式会社,熊本県,阿蘇郡南小国町,大字満願寺６７７６番地１,,43,423,8692402,,,,,,,2023-09-08,1,,,,,コンテナハウスビラクロカワ,0
2108,7340001025889,新規,0,2023-09-08,2023-09-08,株式会社桑原建装,,株式会社,鹿児島県,鹿児島市,小山田町３５１２番地５,,46,201,8911231,,,,,,,2023-09-08,1,,,,,クワハラケンソウ,0
2122,7430001089941,新規,0,2023-09-08,2023-09-08,株式会社ラボ・スタイル,,株式会社,北海道,札幌市清田区,清田二条１丁目２番１０号,,01,110,0040842,,,,,,,2023-09-08,1,,,,,ラボスタイル,0
2128,7430005014771,新規,0,2023-09-08,2023-09-08,特定非営利活動法人ｎｉｃｏｎ,,その他の設立登記法人,北海道,札幌市手稲区,新発寒六条１０丁目６番５号,,01,109,0060806,,,,,,,2023-09-08,1,,,,,ニコン,0
2132,7490001010587,新規,0,2023-09-08,2023-09-08,株式会社海土,,株式会社,高知県,室戸市,室戸岬町５８１４番地１４,,39,202,7817101,,,,,,,2023-09-08,1,,,,,カイド,0
2136,7500003003100,新規,0,2023-09-08,2023-09-08,合同会社うさぎの耳,,合同会社,愛媛県,西条市,丹原町池田１７８８番地１,,38,206,7910508,,,,,,,2023-09-08,1,,,,,ウサギノミミ,0
2137,7700150119959,新規,0,2023-09-08,2023-09-08,Ｓｈｅｎｚｈｅｎ　Ｙｏｕｙｏｕｂａｏ　Ｉｎｄｕｓｔｒｉａｌ　Ｃｏ．，Ｌｔｄ,,外国会社等,,,,,,,,３０１Ｂｕｉｌｄｉｎｇ６６ＬｉｙｕａｎＮｅｗＶｉｌｌａｇｅＬｏｎｇｙｕａｎＣｏｍｍｕｎｉｔｙＬｏｎｇｈｕａＳｔｒｅｅｔ　ＬｏｎｇｈｕａＤｉｓｔｒｉｃｔ　Ｓｈｅｎｚｈｅｎ,,,,,,2023-09-08,1,,,,,シンセンヨヨバオインダストリアルカンパニーリミテッド,0
2138,7700150119967,新規,0,2023-09-08,2023-09-08,Ｘｉａｍｅｎ　ＪＸＤ　Ｅ－ｃｏｍｍｅｒｃｅ　Ｃｏ．，Ｌｔｄ,,外国会社等,,,,,,,,Ｒｏｏｍ　５０８Ｂ，Ａｒｅａ　Ｂ，Ｎｏ．１７８，Ｘｉｎｆｅｎｇ　Ｒｏａｄ　Ｍｅｔａ　Ｉｎｔｅｌｌｅｃｔｕａｌ　Ｓｐａｃｅ，Ｔｏｒｃｈ　Ｈｉｇｈ－Ｔｅｃｈｎｉｃ　Ｚｏｎｅ　Ｘｉａｍｅｎ,,,,,,2023-09-08,1,,,,,シャメンジェイエックスディーイーコマースカンパニーリミテッド,0
2139,7700150119975,新規,0,2023-09-08,2023-09-08,ｌｉｎｇｄｏｎｇｈｕｌｉａｎｗａｎｇｌｕｏ（ｓｈｅｎｚｈｅｎ）ｙｏｕｘｉａｎｇｏｎｇｓｉ,,外国会社等,,,,,,,,ｙｕａｎｓｈａｎｊｉｅｄａｏａｎｌｉａｎｇｓｈｅｑｕａｎｙｅｌｕ１９ｈａｏ３２１　ｌｏｎｇｇａｎｇｑｕ　ｓｈｅｎｚｈｅｎｓｈｉ,,,,,,2023-09-08,1,,,,,リンドンホレンワンロシンセンユウゲンコウシ,0
2140,7700150119983,新規,0,2023-09-08,2023-09-08,ｆｅｉｆａｎｈｕｌｉａｎｗａｎｇｌｕｏ　ｓｈｅｎｚｈｅｎ　ｙｏｕｘｉａｎｇｏｎｇｓｉ,,外国会社等,,,,,,,,３０２　Ｎｏ．１９　Ａｎｙｅ　Ｒｏａｄ　Ａｎｌｉａｎｇ　Ｃｏｍｍｕｎｉｔｙ　Ｙｕａｎｓｈａｎ　Ｓｔｒｅｅｔ　Ｌｏｎｇｇａｎｇ　Ｄｉｓｔｒｉｃｔ　Ｓｈｅｎｚｈｅｎ,,,,,,2023-09-08,1,,,,,フェイファンホレンワンロシンセンユウゲンコウシ,0
2141,7700150119991,新規,0,2023-09-08,2023-09-08,Ｈｕａｎｇｇａｎｇ　Ｔｕｏｍａｓｈｉ　Ｔｒａｄｉｎｇ　Ｃｏ．，Ｌｔｄ．,,外国会社等,,,,,,,,Ｈｕｂｅｉ　Ｈｕａｎｇｇａｎｇ　ＨｏｎｇａｎｘｉａｎＪｉｎｇｊｉｋａｉｆａｑｕ　Ｘｉｎｘｉｎｇｃｈａｎｙｅｙｕａｎ，Ｊｉｎｓｅｊｉａｙｕａｎ　６＆１　Ｄｕｏｃｅｎｇ　１－１－５－２,,,,,,2023-09-08,1,,,,,フアンガントゥオマーシーシャンマオヨウシエンゴンスー,0
2142,7700150120000,新規,0,2023-09-08,2023-09-08,ｑｕａｎｚｈｏｕｙｉｇｕｏｄｉａｎｚｉｓｈａｎｇｗｕｙｏｕｘｉａｎｇｏｎｇｓｉ,,外国会社等,,,,,,,,ｙｏｎｇｃｈｕｎｘｉａｎｓｈｉｇｕｚｈｅｎｔａｏｘｉｎｇｓｈｅｑｕｊｕｗｅｉｈｕｉ３５５－１ｈａｏ，ｑｕａｎｚｈｏｕｓｈｉ，ｆｕｊｉａｎｓｈｅｎｇ,,,,,,2023-09-08,1,,,,,センシュウイカデンシショウムユウゲンコウシ,0
2143,7700150120009,新規,0,2023-09-08,2023-09-08,ＺＨＥＪＩＡＮＧ　ＨＡＥＲＳ　ＶＡＣＵＵＭ　ＣＯＮＴＡＩＮＥＲＳ　ＣＯ．，ＬＴＤ．,,外国会社等,,,,,,,,Ｎｏ．１　ＨＡＥＲＳ　ＲＯＡＤ　ＥＣＯＮＯＭＩＣ　ＤＥＶＥＬＯＰＭＥＮＴ　ＺＯＮＥ，ＹＯＮＧＫＡＮＧ，ＺＨＥＪＩＡＮＧ,,,,,,2023-09-08,1,,,,,ジョージャンハーアースージェンコンチーミングーフェンヨウシエンゴンスー,0
2144,7700150120017,新規,0,2023-09-08,2023-09-08,ｆｕｚｈｏｕｓａｎｂｅｎｇｚｉｍａｏｙｉｙｏｕｘｉａｎｇｏｎｇｓｉ,,外国会社等,,,,,,,,ｆｕｊｉａｎｓｈｅｎｇｆｕｚｈｏｕｓｈｉｆｕｑｉｎｇｓｈｉｙａｎｇｘｉａｊｉｅｄａｏｈｕｉｃｈｅｎｇｔｉａｎｙｕｅ２ｈａｏｌｏｕ２８０２ｓｈｉ,,,,,,2023-09-08,1,,,,,フクシユウサンバンシボウエキユウゲンコウシ,0
2153,8010001238291,新規,0,2023-09-08,2023-09-08,ＮｕｔＴｅｃｈ株式会社,,株式会社,東京都,中央区,日本橋室町１丁目１１番１２号日本橋水野ビル７階,,13,102,1030022,,,,,,,2023-09-08,1,,,,,ナッツテック,0
2154,8010001238309,新規,0,2023-09-08,2023-09-08,株式会社チェスナットソリューションズ,,株式会社,東京都,千代田区,神田駿河台１丁目５番６号コトー駿河台１１３号室,,13,101,1010062,,,,,,,2023-09-08,1,,,,,チェスナットソリューションズ,0
2156,8010003041611,新規,0,2023-09-08,2023-09-08,ＮＥＸＴ　ＷｅｂＤｅｓｉｇｎ合同会社,,合同会社,東京都,中央区,銀座１丁目１２番４号Ｎ＆ＥＢＬＤ．６Ｆ,,13,102,1040061,,,,,,,2023-09-08,1,,,,,ネクストウェブデザイン,0
2157,8010005037236,新規,0,2023-09-08,2023-09-08,一般社団法人アジア持続可能開発戦略研究所,,その他の設立登記法人,東京都,千代田区,一番町１３番地６,,13,101,1020082,,,,,,,2023-09-08,1,,,,,アジアジゾクカノウカイハツセンリャクケンキュウジョ,0
2158,8010101015806,新規,0,2023-09-08,2023-09-08,株式会社おおたに,,株式会社,東京都,八王子市,大谷町４１０番地１,,13,201,1920034,,,,,,,2023-09-08,1,,,,,オオタニ,0
2159,8010101015814,新規,0,2023-09-08,2023-09-08,ＴＫ‐ＴＨＲＥＥ株式会社,,株式会社,東京都,八王子市,緑町１８３番地８,,13,201,1930932,,,,,,,2023-09-08,1,,,,,ティーケースリー,0
2164,8010401176934,新規,0,2023-09-08,2023-09-08,Ｘ　ＬＩＶＥ株式会社,,株式会社,東京都,港区,六本木１丁目４－５アークヒルズサウスタワー１６階,,13,103,1060032,,,,,,,2023-09-08,1,,,,,エックスライブ,0
2165,8010401176975,新規,0,2023-09-08,2023-09-08,ＬＳ‐Ａｖｉａｔｉｏｎ第５７号株式会社,,株式会社,東京都,港区,六本木１丁目６番１号,,13,103,1060032,,,,,,,2023-09-08,1,,,,,エルエスアビエーションダイゴジュウナナゴウ,0
2166,8010401177008,新規,0,2023-09-08,2023-09-08,株式会社ＩＣＢ,,株式会社,東京都,港区,北青山１丁目３番１号アールキューブ青山３Ｆ,,13,103,1070061,,,,,,,2023-09-08,1,,,,,アイシービー,0
2167,8010401177016,新規,0,2023-09-08,2023-09-08,株式会社スズノ,,株式会社,東京都,港区,海岸３丁目２０番２０号ヨコソーレインボータワー１３階,,13,103,1080022,,,,,,,2023-09-08,1,,,,,スズノ,0
2171,8010403030874,新規,0,2023-09-08,2023-09-08,合同会社ＮＮＳ,,合同会社,東京都,港区,六本木２丁目４番１３号パレステュディオ六本木ＥａｓｔＩＩ３０５号,00131837,13,103,1060032,,,,,,,2023-09-08,1,,,,,エヌエヌエス,0
2173,8010405022481,新規,0,2023-09-08,2023-09-08,一般社団法人クリーンアセット,,その他の設立登記法人,東京都,港区,虎ノ門３丁目２２番１０－２０１号,,13,103,1050001,,,,,,,2023-09-08,1,,,,,クリーンアセット,0
2175,8010501050964,新規,0,2023-09-08,2023-09-08,エコライフ株式会社,,株式会社,東京都,台東区,上野６丁目７－１６川久保ビル８１２号室,,13,106,1100005,,,,,,,2023-09-08,1,,,,,エコライフ,0
2177,8010601063734,新規,0,2023-09-08,2023-09-08,株式会社ＵＮＩＴ　ＯＮＥ,,株式会社,東京都,江東区,塩浜２丁目２４番１０－１０８号,,13,108,1350043,,,,,,,2023-09-08,1,,,,,ユニットワン,0
2179,8010701044799,新規,0,2023-09-08,2023-09-08,株式会社もとはし企画,,株式会社,東京都,品川区,上大崎３丁目１４番１７－９０５号,,13,109,1410021,,,,,,,2023-09-08,1,,,,,モトハシキカク,0
2185,8010901053781,新規,0,2023-09-08,2023-09-08,株式会社企画人事,,株式会社,東京都,世田谷区,太子堂５丁目２０－３,,13,112,1540004,,,,,,,2023-09-08,1,,,,,キカクジンジ,0
2186,8010901053798,新規,0,2023-09-08,2023-09-08,ＬＯＵＲＤＥＳ　ＤＥＶＥＬＯＰＭＥＮＴ株式会社,,株式会社,東京都,世田谷区,梅丘１丁目４７番６号,,13,112,1540022,,,,,,,2023-09-08,1,,,,,ルルドデベロッポメント,0
2192,8011001156707,新規,0,2023-09-08,2023-09-08,株式会社ｎａｎａｌａ,,株式会社,東京都,目黒区,目黒本町２丁目４番１６号－２０２,,13,110,1520002,,,,,,,2023-09-08,1,,,,,ナナラ,0
2193,8011001156797,新規,0,2023-09-08,2023-09-08,株式会社ＧＩＮＥＳ,,株式会社,東京都,目黒区,平町２丁目１３－５,,13,110,1520032,,,,,,,2023-09-08,1,,,,,ギネス,0
2194,8011001156806,新規,0,2023-09-08,2023-09-08,株式会社ＯＴＯＮＯＭＩＫＩ,,株式会社,東京都,渋谷区,道玄坂１丁目１０番８号渋谷道玄坂東急ビル２Ｆ－Ｃ,,13,113,1500043,,,,,,,2023-09-08,1,,,,,オトノミキ,0
2198,8011003017510,新規,0,2023-09-08,2023-09-08,合同会社ＨＳＲＣ,,合同会社,東京都,渋谷区,恵比寿南２丁目３番１４号８８ｉｓｈｉｋａｗａ４０２,,13,113,1500022,,,,,,,2023-09-08,1,,,,,エイチエスアールシー,0
2204,8011101104227,新規,0,2023-09-08,2023-09-08,株式会社かがやき賃貸,,株式会社,東京都,新宿区,新宿５丁目１８番２０号,,13,104,1600022,,,,,,,2023-09-08,1,,,,,カガヤキチンタイ,0
2205,8011101104301,新規,0,2023-09-08,2023-09-08,株式会社トラスト・フォーエバー,,株式会社,東京都,新宿区,歌舞伎町２丁目９番１８号ライオンズプラザ新宿５１９,,13,104,1600021,,,,,,,2023-09-08,1,,,,,トラストフォーエバー,0
2216,8011401025420,新規,0,2023-09-08,2023-09-08,株式会社豊住芸術企画,,株式会社,東京都,板橋区,本町３８番６号,,13,119,1730001,,,,,,,2023-09-08,1,,,,,トヨズミゲイジュツキカク,0
2218,8011403004109,新規,0,2023-09-08,2023-09-08,合同会社ＨＳ,,合同会社,東京都,板橋区,成増１丁目９－８フォーネサーラ２０１,,13,119,1750094,,,,,,,2023-09-08,1,,,,,エイチエス,0
2228,8011801043014,新規,0,2023-09-08,2023-09-08,芝田建設工業株式会社,,株式会社,東京都,足立区,東和２丁目２２－９シティーハウス弐番館,,13,121,1200003,,,,,,,2023-09-08,1,,,,,シバタケンセツコウギョウ,0
2233,8012401040987,新規,0,2023-09-08,2023-09-08,株式会社ウッドボックスラボ,,株式会社,東京都,三鷹市,下連雀３丁目３８－４三鷹産業プラザ地下１階ＭｂａｓｅＢＢ２,,13,204,1810013,,,,,,,2023-09-08,1,,,,,ウッドボックスラボ,0
2234,8012405004897,新規,0,2023-09-08,2023-09-08,医療法人社団ＴＨＲＥＥ‐Ｕ,,その他の設立登記法人,東京都,三鷹市,新川５丁目１０番２号太陽ライフビル１階,,13,204,1810004,,,,,,,2023-09-08,1,,,,,スリーユー,0
2236,8012801022610,新規,0,2023-09-08,2023-09-08,株式会社ユニオンサポートコンサルティング,,株式会社,東京都,立川市,曙町２丁目３２番２号中山本社ビル６階ＡＣ号,00131851,13,202,1900012,,,,,,,2023-09-08,1,,,,,ユニオンサポートコンサルティング,0
2237,8012801022619,新規,0,2023-09-08,2023-09-08,株式会社Ａ‐ｓｔｙｌｅ　ｐｌｕｓ,,株式会社,東京都,日野市,万願寺４丁目３２番地の４グランテージ２０５,,13,212,1910024,,,,,,,2023-09-08,1,,,,,エースタイルプラス,0
2238,8012805003227,新規,0,2023-09-08,2023-09-08,医療法人社団Ｐｌｕｓ　Ｏｎｅ,,その他の設立登記法人,東京都,日野市,東豊田２丁目１６番地の３,,13,212,1910052,,,,,,,2023-09-08,1,,,,,プラスワン,0
2239,8013101009240,新規,0,2023-09-08,2023-09-08,ダンデライオン株式会社,,株式会社,東京都,福生市,本町１３５番地,,13,218,1970022,,,,,,,2023-09-08,1,,,,,ダンデライオン,0
2243,8013303006787,新規,0,2023-09-08,2023-09-08,東京スカイ合同会社,,合同会社,東京都,豊島区,北大塚３丁目１８‐１８,,13,116,1700004,,,,,,,2023-09-08,1,,,,,トウキョウスカイ,0
2250,8020001153408,新規,0,2023-09-08,2023-09-08,株式会社まるかん商会,,株式会社,神奈川県,横浜市中区,本牧和田１４番１０号,,14,104,2310827,,,,,,,2023-09-08,1,,,,,マルカンショウカイ,0
2251,8020001153416,新規,0,2023-09-08,2023-09-08,株式会社ＪＱＳホールディングス,,株式会社,神奈川県,横浜市港南区,大久保１丁目１８－４荒川ビル２階,,14,111,2330007,,,,,,,2023-09-08,1,,,,,ジェイキューエスホールディングス,0
2258,8020003024549,新規,0,2023-09-08,2023-09-08,合同会社Ｄｙｎａ　Ｍｉｘ,,合同会社,神奈川県,川崎市宮前区,犬蔵３丁目９－１６アビダスたまプラーザ２０６,,14,136,2160011,,,,,,,2023-09-08,1,,,,,ダイナミックス,0
2262,8020005016115,新規,0,2023-09-08,2023-09-08,一般財団法人小川賢太郎奨学財団,,その他の設立登記法人,神奈川県,横浜市戸塚区,平戸町１０８７番地１,,14,110,2440803,,,,,,,2023-09-08,1,,,,,オガワケンタロウショウガクザイダン,0
2268,8021001080105,新規,0,2023-09-08,2023-09-08,株式会社ｒｉｌｕｘ,,株式会社,神奈川県,高座郡寒川町,岡田１丁目６－２サンライズロイヤル湘南２０１号室,,14,321,2530105,,,,,,,2023-09-08,1,,,,,リラクス,0
2269,8021003013541,新規,0,2023-09-08,2023-09-08,合同会社ＲＮ,,合同会社,神奈川県,藤沢市,辻堂東海岸１丁目１０－１８,,14,205,2510045,,,,,,,2023-09-08,1,,,,,アールエヌ,0
2273,8030001155667,新規,0,2023-09-08,2023-09-08,世新株式会社,,株式会社,埼玉県,比企郡ときがわ町,大字瀬戸元下１１０番地１３,,11,349,3550359,,,,,,,2023-09-08,1,,,,,セシン,0
2274,8030001155700,新規,0,2023-09-08,2023-09-08,株式会社デンコー,,株式会社,埼玉県,春日部市,東中野１４１９番地１００,,11,214,3440114,,,,,,,2023-09-08,1,,,,,デンコー,0
2275,8030001155799,新規,0,2023-09-08,2023-09-08,旭昇商事株式会社,,株式会社,埼玉県,蕨市,中央４丁目１番１４号ハイム矢野Ｈ号,,11,223,3350004,,,,,,,2023-09-08,1,,,,,コクショウショウジ,0
2276,8030001155824,新規,0,2023-09-08,2023-09-08,株式会社Ｍａｓａｋｉ　Ｃｈｉｂａ　Ｄｅｓｉｇｎｓ,,株式会社,埼玉県,所沢市,大字下安松４４２番地の７,,11,208,3590024,,,,,,,2023-09-08,1,,,,,マサキチバデザイン,0
2277,8030001155849,新規,0,2023-09-08,2023-09-08,ＴＵフードプランニング株式会社,,株式会社,埼玉県,川越市,脇田町７番地１６,,11,201,3501122,,,,,,,2023-09-08,1,,,,,ティーユーフードプランニング,0
2280,8030003022444,新規,0,2023-09-08,2023-09-08,合同会社サキア,,合同会社,埼玉県,川口市,西川口１丁目２０番１５号西川口ハイツ２０３,,11,203,3320021,,,,,,,2023-09-08,1,,,,,サキア,0
2281,8030003022477,新規,0,2023-09-08,2023-09-08,合同会社Ｔａｏ,,合同会社,埼玉県,越谷市,レイクタウン１丁目３３番地５,,11,222,3430828,,,,,,,2023-09-08,1,,,,,タオ,0
2287,8040001130000,新規,0,2023-09-08,2023-09-08,株式会社イチジョウホーム,,株式会社,千葉県,柏市,亀甲台町１丁目５番１０号,,12,217,2770031,,,,,,,2023-09-08,1,,,,,イチジョウホーム,0
2288,8040001130025,新規,0,2023-09-08,2023-09-08,株式会社ｖｉｖｉ,,株式会社,千葉県,千葉市中央区,鵜の森町１２番１号京葉ビル２Ｆ,,12,101,2600816,,,,,,,2023-09-08,1,,,,,ヴィヴィ,0
2292,8040003023276,新規,0,2023-09-08,2023-09-08,合同会社ベル,,合同会社,千葉県,船橋市,習志野台８丁目５４番１－３１３号,,12,204,2740063,,,,,,,2023-09-08,1,,,,,ベル,0
2293,8040003023292,新規,0,2023-09-08,2023-09-08,Ｓａｉｇｏｎ　Ｃｏｒｎｅｒ合同会社,,合同会社,千葉県,船橋市,湊町２丁目１－１８新堀ギタービル船橋１／Ｂ１Ｆ号室,,12,204,2730011,,,,,,,2023-09-08,1,,,,,サイゴンコーナー,0
2296,8050001053407,新規,0,2023-09-08,2023-09-08,株式会社三共,,株式会社,茨城県,稲敷市,三島１０３２番地,,08,229,3000722,,,,,,,2023-09-08,1,,,,,サンキョウ,0
2297,8050001053423,新規,0,2023-09-08,2023-09-08,株式会社ＫＥＮＳ,,株式会社,茨城県,笠間市,鯉淵６２５６番地８２,,08,216,3091703,,,,,,,2023-09-08,1,,,,,ケンズ,0
2298,8050005013324,新規,0,2023-09-08,2023-09-08,行政書士法人きらめき事務所,,その他の設立登記法人,茨城県,取手市,取手２丁目５番２０号,,08,217,3020004,,,,,,,2023-09-08,1,,,,,キラメキジムショ,0
2309,8080003003051,新規,0,2023-09-08,2023-09-08,ハートワーク合同会社,,合同会社,静岡県,焼津市,三ケ名８２１－１,,22,212,4250071,,,,,,,2023-09-08,1,,,,,ハートワーク,0
2312,8090001018307,新規,0,2023-09-08,2023-09-08,株式会社ＤＹＳサービス,,株式会社,山梨県,笛吹市,春日居町鎮目２９番地３春日居ライフピアマンション７３３号,,19,211,4060015,,,,,,,2023-09-08,1,,,,,ディーワイエスサービス,0
2316,8100003007165,新規,0,2023-09-08,2023-09-08,合同会社ＳＡＮＫＡ,,合同会社,長野県,安曇野市,穂高有明７６９３－３,,20,220,3998301,,,,,,,2023-09-08,1,,,,,サンカ,0
2318,8110001037832,新規,0,2023-09-08,2023-09-08,株式会社ＹＵＵＮＡ,,株式会社,新潟県,新発田市,住吉町３丁目１‐２４,,15,206,9570061,,,,,,,2023-09-08,1,,,,,ユウナ,0
2326,8120001257776,新規,0,2023-09-08,2023-09-08,峻松株式会社,,株式会社,大阪府,大阪市中央区,松屋町９番２０号ローレルステート松屋町５０７Ｂ,,27,128,5420067,,,,,,,2023-09-08,1,,,,,シュンマツ,0
2327,8120001257859,新規,0,2023-09-08,2023-09-08,株式会社アレイオン,,株式会社,大阪府,大阪市中央区,農人橋２丁目１番５号,,27,128,5400011,,,,,,,2023-09-08,1,,,,,アレイオン,0
2328,8120001257925,新規,0,2023-09-08,2023-09-08,株式会社ポルテプラン,,株式会社,大阪府,大阪市西区,京町堀１丁目１６番２２号牧野ビル３０７,,27,106,5500003,,,,,,,2023-09-08,1,,,,,ポルテプラン,0
2329,8120001257974,新規,0,2023-09-08,2023-09-08,日信天成株式会社,,株式会社,大阪府,大阪市生野区,中川西１丁目１７－１０テンシンビル２Ａ号室,,27,116,5440032,,,,,,,2023-09-08,1,,,,,ニッシンテンセイ,0
2336,8120103005422,新規,0,2023-09-08,2023-09-08,合同会社Ｆ‐ＡＳＳＥＴＳ,,合同会社,大阪府,堺市堺区,西湊町３丁３番２１号,,27,141,5900835,,,,,,,2023-09-08,1,,,,,エフアセッツ,0
2342,8122001037340,新規,0,2023-09-08,2023-09-08,株式会社アメジスト,,株式会社,大阪府,東大阪市,横沼町１丁目４番６号,,27,227,5770808,,,,,,,2023-09-08,1,,,,,アメジスト,0
2346,8130001075120,新規,0,2023-09-08,2023-09-08,株式会社デイサービスセンターあさひ,,株式会社,京都府,亀岡市,南つつじケ丘大葉台１丁目１６番６号,,26,206,6210846,,,,,,,2023-09-08,1,,,,,デイサービスセンターアサヒ,0
2347,8130001075129,新規,0,2023-09-08,2023-09-08,株式会社Ａｎｙｔｉｍｅ　Ｂｅａｕｔｙ　Ｃｌｉｎｉｃ,,株式会社,京都府,京都市下京区,高辻大宮町１０３大宮高辻ビル４階,,26,106,6000000,,,,,,,2023-09-08,1,,,,,エニータイムビューティークリニック,0
2351,8140001131475,新規,0,2023-09-08,2023-09-08,三大水産株式会社,,株式会社,兵庫県,淡路市,仮屋３２２番地３,,28,226,6562331,,,,,,,2023-09-08,1,,,,,サンダイスイサン,0
2352,8140001131491,新規,0,2023-09-08,2023-09-08,株式会社ｋｕｋｕｓｉｎｉ,,株式会社,兵庫県,南あわじ市,志知飯山寺１９３番地２,,28,224,6560323,,,,,,,2023-09-08,1,,,,,ククシーニ,0
2356,8140003019504,新規,0,2023-09-08,2023-09-08,匠電通合同会社,,合同会社,兵庫県,加東市,天神２９８番地ヴィラプラセール２０１号,,28,228,6731311,,,,,,,2023-09-08,1,,,,,タクミデンツウ,0
2367,8180001157888,新規,0,2023-09-08,2023-09-08,株式会社泉屋,,株式会社,愛知県,名古屋市瑞穂区,陽明町２丁目２０番地の７,,23,108,4670026,,,,,,,2023-09-08,1,,,,,イズミヤ,0
2368,8180001157921,新規,0,2023-09-08,2023-09-08,株式会社ＴＨＯＷ,,株式会社,愛知県,あま市,七宝町桂角田２５番地,,23,237,4970004,,,,,,,2023-09-08,1,,,,,ソウ,0
2369,8180001157954,新規,0,2023-09-08,2023-09-08,株式会社ケイグレース,,株式会社,愛知県,名古屋市中区,栄５丁目２６番３９号ＧＳ栄ビル３階,,23,106,4600008,,,,,,,2023-09-08,1,,,,,ケイグレース,0
2370,8180001157970,新規,0,2023-09-08,2023-09-08,ＡＵＲＡ株式会社,,株式会社,愛知県,日進市,梅森町上松３５１番地３,,23,230,4700132,,,,,,,2023-09-08,1,,,,,オーラ,0
2376,8180003025705,新規,0,2023-09-08,2023-09-08,合同会社ＵｎｉｔｅＬｏｇｉ,,合同会社,愛知県,小牧市,外堀３丁目１７番地,,23,219,4850039,,,,,,,2023-09-08,1,,,,,ユナイトロジ,0
2377,8180003025713,新規,0,2023-09-08,2023-09-08,合同会社和,,合同会社,愛知県,名古屋市瑞穂区,大喜町３丁目５番地,,23,108,4670822,,,,,,,2023-09-08,1,,,,,ワ,0
2378,8180003025721,新規,0,2023-09-08,2023-09-08,合同会社ＡＳＵＫＡ,,合同会社,愛知県,名古屋市中区,栄４丁目８番３１号,,23,106,4600008,,,,,,,2023-09-08,1,,,,,アスカ,0
2380,8180005020349,新規,0,2023-09-08,2023-09-08,やまと社会保険労務士法人,,その他の設立登記法人,愛知県,弥富市,五明町小赤津外２０４８番地１０,,23,235,4980014,,,,,,,2023-09-08,1,,,,,ヤマト,0
2381,8180301037798,新規,0,2023-09-08,2023-09-08,株式会社梅木商会,,株式会社,愛知県,西尾市,吉良町小山田市場３１番地１,,23,213,4440511,,,,,,,2023-09-08,1,,,,,ウメキショウカイ,0
2383,8180303005828,新規,0,2023-09-08,2023-09-08,スタジオアビス合同会社,,合同会社,愛知県,蒲郡市,三谷町八舗３番地１,,23,214,4430021,,,,,,,2023-09-08,1,,,,,スタジオアビス,0
2409,8290001102866,新規,0,2023-09-08,2023-09-08,ＳＡＮＷＡ　ＢＵＳ株式会社,,株式会社,福岡県,福岡市東区,香住ヶ丘６丁目２３番１４号,,40,131,8130003,,,,,,,2023-09-08,1,,,,,サンワバス,0
2410,8290001102973,新規,0,2023-09-08,2023-09-08,株式会社ｓｃｅｌｔａ,,株式会社,福岡県,福岡市中央区,天神２丁目３番３６号ｉｂｂｆｕｋｕｏｋａ５０１号室,,40,133,8100001,,,,,,,2023-09-08,1,,,,,シェルタ,0
2412,8290003014341,新規,0,2023-09-08,2023-09-08,産直苺農家合同会社,,合同会社,福岡県,福岡市中央区,天神２丁目３番１０号天神パインクレスト７１９号,,40,133,8100001,,,,,,,2023-09-08,1,,,,,サンチョクイチゴノウカ,0
2419,8310001018597,新規,0,2023-09-08,2023-09-08,株式会社マボロシサウナ,,株式会社,長崎県,長崎市,国分町１番１８号,,42,201,8500951,,,,,,,2023-09-08,1,,,,,マボロシサウナ,0
2430,8370001050355,新規,0,2023-09-08,2023-09-08,株式会社ＮＡ,,株式会社,宮城県,仙台市太白区,四郎丸字神明９４番地の３,,04,104,9811101,,,,,,,2023-09-08,1,,,,,エヌエイ,0
2437,8400001016369,新規,0,2023-09-08,2023-09-08,株式会社２１世紀ＨＤ,,株式会社,岩手県,北上市,さくら通り５丁目１０番１２号,,03,206,0240084,,,,,,,2023-09-08,1,,,,,ニジュウイッセーキエイチディー,0
2438,8400003003142,新規,0,2023-09-08,2023-09-08,合同会社カワナミ,,合同会社,岩手県,北上市,柳原町５丁目１１－１ＨＩＲＡＮＯナイス１１Ｄ棟,,03,206,0240083,,,,,,,2023-09-08,1,,,,,カワナミ,0
2442,8430001089899,新規,0,2023-09-08,2023-09-08,株式会社Ｍｓ,,株式会社,北海道,苫小牧市,桜木町２丁目３番１５号,,01,213,0530832,,,,,,,2023-09-08,1,,,,,エムズ,0
2447,8430003015416,新規,0,2023-09-08,2023-09-08,合同会社らる畑,,合同会社,北海道,札幌市中央区,大通西２３丁目２－２５,,01,101,0640820,,,,,,,2023-09-08,1,,,,,ラルバタケ,0
2448,8430005014770,新規,0,2023-09-08,2023-09-08,特定非営利活動法人ＳＥＴＢ,,その他の設立登記法人,北海道,札幌市手稲区,手稲本町四条４丁目１番２４号,,01,109,0060024,,,,,,,2023-09-08,1,,,,,セトブ,0
2457,8462501000185,新規,0,2023-09-08,2023-09-08,中標津製材株式会社,,株式会社,北海道,標津郡中標津町,東四条南１丁目１番地,,01,692,0861004,,,,,,,2023-09-08,1,,,,,ナカシベツセイザイ,0
2462,8470003002484,新規,0,2023-09-08,2023-09-08,りょうどろーん合同会社,,合同会社,香川県,坂出市,大屋冨町１７６８番地１,,37,203,7620015,,,,,,,2023-09-08,1,,,,,リョウドローン,0
2465,8480003002021,新規,0,2023-09-08,2023-09-08,合同会社阿波良場,,合同会社,徳島県,徳島市,新南福島１丁目１番１４号,,36,201,7700867,,,,,,,2023-09-08,1,,,,,アワヨクバ,0
2466,8490001010578,新規,0,2023-09-08,2023-09-08,布山林業株式会社,,株式会社,高知県,宿毛市,野地４９９番地３,,39,208,7880036,,,,,,,2023-09-08,1,,,,,ヌノヤマリンギョウ,0
2467,8490001010586,新規,0,2023-09-08,2023-09-08,株式会社ＳＡＫＵＲＡ　ｃｌｕｂ,,株式会社,高知県,高岡郡檮原町,川井６９８２,,39,405,7850635,,,,,,,2023-09-08,1,,,,,サクラクラブ,0
2472,8700150106130,新規,0,2023-09-08,2021-12-08,劇団石,,その他,滋賀県,彦根市,新海浜２丁目１０－１３,,25,202,5211136,,,,,,,2021-12-08,1,,,,,ゲキダントル,0
2473,8700150118274,新規,0,2023-09-08,2023-09-08,ｓｈｅｎｚｈｅｎｓｈｉｙｏｕｓｈｕｎｔｏｎｇｋｅｊｉｙｏｕｘｉａｎｇｏｎｇｓｉ,,外国会社等,,,,,,,,Ｈｅｚｈｏｕ　Ｖｉｌｌａｇｅ　Ｉｎｄｕｓｔｒｉａｌ　ＺｏｎｅＮｏ．６　Ｆａｃｔｏｒｙ　Ｂｕｉｌｄｉｎｇ　４０１Ｈｅｚｈｏｕ　Ｃｏｍｍｕｎｉｔｙ，Ｈａｎｇｃｈｅｎｇ　Ｓｔｒｅｅｔ，Ｂａｏａｎ　Ｄｉｓｔｒｉｃｔ，ＳｈｅｎｚｈｅｎＣｈｉｎａ,,,,,,2023-09-08,1,,,,,シンセンシトモジュンツウユウゲンカイシャ,0
2474,8700150119207,新規,0,2023-09-08,2023-09-08,Ｂｅｓｔｏｒｅ　Ｔｅｃｈｎｏｌｏｇｙ　Ｌｉｍｉｔｅｄ,,外国会社等,,,,,,,,ＲＭ　８，１１／Ｆ，ＷＡＮＧ　ＦＡＩ　ＩＮＤＵＳＴＲＩＡＬ　ＢＵＩＬＤＩＮＧ，２９　ＬＵＫ　ＨＯＰ　ＳＴＲＥＥＴ　ＳＡＮ　ＰＯ　ＫＯＮＧ，ＫＬＨｏｎｇ　Ｋｏｎｇ,,,,,,2023-09-08,1,,,,,ベストアテクノロジーリミテッド,0
2475,8700150119958,新規,0,2023-09-08,2023-09-08,ＨＫ　ＬＹＫＯＳ　ＴＥＣＨＮＯＬＯＧＹ　ＣＯ．，ＬＩＭＩＴＥＤ,,外国会社等,,,,,,,,ＲＭ　１６０５Ｆ，ＨＯ　ＫＩＮＧ　ＣＯＭＭＥＲＣＩＡＬ　ＣＥＮＴＲＥ，２－１６　ＦＡ　ＹＵＥＮ　ＳＴＲＥＥＴ，ＭＯＮＧＫＯＫ，ＫＯＷＬＯＯＮ，ＨＯＮＧＫＯＮＧ,,,,,,2023-09-08,1,,,,,ホンコンライコクシカギユウゲンコウシ,0
2476,8700150119966,新規,0,2023-09-08,2023-09-08,ｃｈａｎｇｓｈａｓｈｉ　ｃｈｏｎｇｆｅｉｄｉａｎｚｉｓｈａｎｇｗｕ　ｙｏｕｘｉａｎｇｏｎｇｓｉ,,外国会社等,,,,,,,,Ｈｕｎａｎｓｈｅｎｇｃｈａｎｇｓｈａｓｈｉｙｕｅｌｕｑｕｙｕｅｌｕｊｉｅｄａｏｘｕｊｉａｚｈｏｕｌｕ１０６ｈａｏｄｉｅｒｑｉＡｑｕＤ１ｄｏｎｇ１２１２ｈａｏ,,,,,,2023-09-08,1,,,,,チャンサシツオンフェイデンシショウムユウゲンコウシ,0
2477,8700150119974,新規,0,2023-09-08,2023-09-08,ｓｈｅｎｚｈｅｎｓｈｉ　ｒｏｎｇｙｕｐｉｆａ　ｙｏｕｘｉａｎｇｏｎｇｓｉ,,外国会社等,,,,,,,,Ｎｏ．３０３，Ｂｕｉｌｄｉｎｇ　１，Ｄｏｎｇｆａｎｇ　Ｍｉｎｇ　Ｉｎｄｕｓｔｒｉａｌ　Ｃｉｔｙ，Ｎｏ．３３　Ｘｉｎ’ａｎ　Ｓｔｒｅｅｔ，Ｂａｏａｎ　Ｄｉｓｔｒｉｃｔ，Ｓｈｅｎｚｈｅｎ　Ｃｉｔｙ,,,,,,2023-09-08,1,,,,,シンセンシヨンユピファユウゲンコウシ,0
2478,8700150119982,新規,0,2023-09-08,2023-09-08,ＳｈｅｎＺｈｅｎＳｈｉ　ＳｈｉＣｈａｎｇＫｅＪｉ　ＹｏｕＸｉａｎＧｏｎｇＳｉ,,外国会社等,,,,,,,,Ｈｅｎｇｇａｎｇｊｉｅｄａｏ　Ｌｉｕｙｕｅｓｈｅｑｕ　Ｐｕｓｈａｌｕ８６ｈａｏ　Ｘｉｎｃｈｅｎｇｇｕａｎｇｃｈａｎｇ　Ａ１３１７　Ｓｈｅｎｚｈｅｎｓｈｉ　Ｌｏｎｇｇａｎｇｑｕ,,,,,,2023-09-08,1,,,,,シンセンシシチャンカギユウゲンコウシ,0
2479,8700150119990,新規,0,2023-09-08,2023-09-08,ＳＯＨＯＤＡ　ＬＩＭＩＴＥＤ,,外国会社等,,,,,,,,ＲＭ　２８，ＵＮＩＴ　Ａ１，２／Ｆ．，ＰＨＡＳＥ　１，ＫＡＩＳＥＲ，ＥＳＴＡＴＥ，ＮＯ．４１　ＭＡＮ　ＹＵＥ　ＳＴＲＥＥＴ，ＨＵＮＧＨＯＭ，ＫＬＮ，ＨＯＮＧＫＯＮＧ　ＨＯＮＧ　ＫＯＮＧ　９９９０７７　ＨＫ,,,,,,2023-09-08,1,,,,,スオハオダーコージーヨウシエンゴンスー,0
2480,8700150119999,新規,0,2023-09-08,2023-09-08,Ｌｅｎｇｓｈｕｉｊｉａｎｇ　Ｃｉｔｙ　ｓｐｅｅｄ　ｔｏｎ　ｎｅｔｗｏｒｋ　ｔｅｃｈｎｏｌｏｇｙ　Ｃｏ．，ＬＴＤ,,外国会社等,,,,,,,,Ｒｏｏｍ　１３３２－５，１３ｔｈ　Ｆｌｏｏｒ，Ｆｉｌｍ　ａｎｄ　Ｔｅｌｅｖｉｓｉｏｎ　Ｉｎｔｅｒｎａｔｉｏｎａｌ　Ｂｕｓｉｎｅｓｓ　Ｃｅｎｔｅｒ　Ｂｕｉｌｄｉｎｇ，Ｓｔｉｉｄｕ　Ｍｉｄｄｌｅ　Ｒｏａｄ，Ｌｅｎｇｓｈｕｉｊｉａｎｇ　Ｓｔｒｅｅｔ，Ｌｅｎｇｓｈｕｉｊｉａｎｇ　Ｃｉｔｙ,,,,,,2023-09-08,1,,,,,ロンシュイジャンシースードゥンワンルオコージーヨウシエンゴンスー,0
2481,8700150120008,新規,0,2023-09-08,2023-09-08,ｔａｉｙｕａｎｃｈａｎｐｕｐｏｄｉａｎｚｉｓｈａｎｇｗｕｙｏｕｘｉａｎｇｏｎｇｓｉ,,外国会社等,,,,,,,,ｓｈａｎｘｉｓｈｅｎｇｔａｉｙｕａｎｓｈｉｗａｎｂａｉｌｉｎｑｕｎａｎｈａｎｊｉｅｄａｏｘｉｙｕａｎｎａｎｌｕｃｈｅｎｊｉｎｇｊｉａｙｕａｎＣ－２－５ｃｅｎｇ５０６ｓｈｉ,,,,,,2023-09-08,1,,,,,タイユエンチャンプーポーディエンズーチャンピンヨウシエンゴンスー,0
2482,8700150120016,新規,0,2023-09-08,2023-09-08,ｎｉｎｇｃｈｕａｎｇｗｅｉｓｈｉａｎｆａｎｇｊｉｓｈｕｙｏｕｘｉａｎｇｏｎｇｓｉ,,外国会社等,,,,,,,,Ｓｈｅｎｚｈｅｎｓｈｉｌｏｎｇｈｕａｑｕｆｕｃｈｅｎｇｊｉｅｄａｏｄａｓｈｕｉｋｅｎｇｓｈｅｑｕｄａｓａｎｃｕｎ２０８ｈａｏ２０８－３,,,,,,2023-09-08,1,,,,,ソウイシセキユリテイテクノロジーユウゲンコウシ,0
2483,8700150120049,新規,0,2023-09-08,2023-09-08,ＡＵＴＯ　ＰＩＬＯＴ　ｐｒｉＶＡＴＥ　ＬＩＭＩＴＥＤ,,外国会社等,神奈川県,厚木市,下川入４４６番地１サニーハイツ１０１,,14,212,2430206,スリランカ民主社会主義共和国ウエスタン州カルタラサウス、シェイクヌールディーンロード６,,,,,,2023-09-08,1,,,,,オートパイロツトプライベートリミテツド,0
2496,9010001238233,新規,0,2023-09-08,2023-09-08,株式会社Ａｐｐ　Ｏｒｄｅｒ,,株式会社,東京都,中央区,東日本橋２丁目１１番５号,,13,102,1030004,,,,,,,2023-09-08,1,,,,,アプリオーダー,0
2497,9010001238316,新規,0,2023-09-08,2023-09-08,株式会社マインドポジジョン経営研究所,,株式会社,東京都,中央区,東日本橋２丁目２８番４号日本橋ＣＥＴビル２階,,13,102,1030004,,,,,,,2023-09-08,1,,,,,マインドポジジョンケイエイケンキュウジョ,0
2498,9010001238324,新規,0,2023-09-08,2023-09-08,株式会社ドイル,,株式会社,東京都,千代田区,神田和泉町１番地６－１６ヤマトビル４０５,,13,101,1010024,,,,,,,2023-09-08,1,,,,,ドイル,0
2499,9010001238349,新規,0,2023-09-08,2023-09-08,東娯株式会社,,株式会社,東京都,中央区,銀座８丁目２－１ニッタビル８Ｆ,,13,102,1040061,,,,,,,2023-09-08,1,,,,,トウゴ,0
2503,9010101015805,新規,0,2023-09-08,2023-09-08,株式会社小宮山重機,,株式会社,東京都,八王子市,下恩方町６３９番地３,,13,201,1920154,,,,,,,2023-09-08,1,,,,,コミヤマジュウキ,0
2509,9010401176982,新規,0,2023-09-08,2023-09-08,Ｌｅｍｕ　Ｈａｒｍｏｎｙ株式会社,,株式会社,東京都,港区,赤坂４丁目８番１９号赤坂フロントタウン３階,,13,103,1070052,,,,,,,2023-09-08,1,,,,,レムハーモニー,0
2510,9010403030873,新規,0,2023-09-08,2023-09-08,Ｌｉｎｋａｇｅ合同会社,,合同会社,東京都,港区,高輪２丁目１６番３６号７０３号室,,13,103,1080074,,,,,,,2023-09-08,1,,,,,リンケージ,0
2515,9010501050963,新規,0,2023-09-08,2023-09-08,ライフワーク株式会社,,株式会社,東京都,台東区,上野６丁目７－１６川久保ビル８２１号室,,13,106,1100005,,,,,,,2023-09-08,1,,,,,ライフワーク,0
2517,9010601063709,新規,0,2023-09-08,2023-09-08,ＢＩＧ　ＬＩＦＥ　ＴＲＡＤＥ株式会社,,株式会社,東京都,江東区,有明３丁目７－２６－Ｂ棟９Ｆ,,13,108,1350063,,,,,,,2023-09-08,1,,,,,ビックライフトレード,0
2518,9010601063758,新規,0,2023-09-08,2023-09-08,棕業株式会社,,株式会社,東京都,墨田区,向島４丁目１－１－２０２,,13,107,1310033,,,,,,,2023-09-08,1,,,,,ソウギョウ,0
2532,9010901053764,新規,0,2023-09-08,2023-09-08,株式会社ｎｏｍｏ,,株式会社,東京都,世田谷区,玉川４丁目３－１４－３０４,,13,112,1580094,,,,,,,2023-09-08,1,,,,,ノモ,0
2537,9011001156796,新規,0,2023-09-08,2023-09-08,株式会社ＫＯＥＤＯ,,株式会社,東京都,目黒区,平町２丁目１３－５,,13,110,1520032,,,,,,,2023-09-08,1,,,,,コエド,0
2538,9011001156813,新規,0,2023-09-08,2023-09-08,ＩＬＹ．Ｉｎｎｏｖａｔｉｏｎ　Ｐａｒｔｎｅｒｓ株式会社,,株式会社,東京都,渋谷区,広尾５丁目２３－６長谷部第１０ビル２階,,13,113,1500012,,,,,,,2023-09-08,1,,,,,アイリーイノベーションパートナーズ,0
2539,9011001156870,新規,0,2023-09-08,2023-09-08,株式会社ＰＩＮＥＳ　ＣＯＭＰＡＮＹ,,株式会社,東京都,渋谷区,渋谷２丁目１９－１５宮益坂ビルディング６０９,,13,113,1500002,,,,,,,2023-09-08,1,,,,,パインズカンパニー,0
2540,9011001156912,新規,0,2023-09-08,2023-09-08,アリアスレッド株式会社,,株式会社,東京都,渋谷区,神宮前６丁目２３番４号桑野ビル２階,,13,113,1500001,,,,,,,2023-09-08,1,,,,,アリアスレッド,0
2544,9011003017476,新規,0,2023-09-08,2023-09-08,渋谷ＩＴサポートエージェンシー合同会社,,合同会社,東京都,渋谷区,神宮前６丁目２３番４号,,13,113,1500001,,,,,,,2023-09-08,1,,,,,シブヤアイティーサポートエージェンシー,0
2552,9011501029717,新規,0,2023-09-08,2023-09-08,Ｋａｓｕｍｉｒａ株式会社,,株式会社,東京都,北区,東田端２丁目９番１７号マンション西新宿２１６号室,,13,117,1140013,,,,,,,2023-09-08,1,,,,,カスミラ,0
2553,9011503005749,新規,0,2023-09-08,2023-09-08,オバラ防災合同会社,,合同会社,東京都,北区,田端新町２丁目１番１３号４０２号室,,13,117,1140012,,,,,,,2023-09-08,1,,,,,オバラボウサイ,0
2556,9011803005812,新規,0,2023-09-08,2023-09-08,Ｊ＆Ｆ合同会社,,合同会社,東京都,葛飾区,亀有４丁目２番１１号,,13,122,1250061,,,,,,,2023-09-08,1,,,,,ジェイアンドエフ,0
2559,9012701017833,新規,0,2023-09-08,2023-09-08,株式会社ＳＵＫＥ,,株式会社,東京都,清瀬市,竹丘２丁目３０番４号,,13,221,2040023,,,,,,,2023-09-08,1,,,,,スケ,0
2561,9012803003178,新規,0,2023-09-08,2023-09-08,合同会社ａｌｏｎｇ,,合同会社,東京都,立川市,錦町１丁目４－４サニービル２階Ｃｓ－１８５,,13,202,1900022,,,,,,,2023-09-08,1,,,,,アロング,0
2571,9013301051306,新規,0,2023-09-08,2023-09-08,株式会社ＺＥＡＬＩＳＴ,,株式会社,東京都,豊島区,南池袋１丁目１６－２０ぬかりやビル６階,,13,116,1710022,,,,,,,2023-09-08,1,,,,,ジーリスト,0
2581,9020001153415,新規,0,2023-09-08,2023-09-08,横浜山手コンサルティング株式会社,,株式会社,神奈川県,横浜市中区,桜木町１丁目１０１番地１クロスゲート７階,,14,104,2310062,,,,,,,2023-09-08,1,,,,,ヨコハマヤマテコンサルティング,0
2582,9020001153423,新規,0,2023-09-08,2023-09-08,株式会社雪柳,,株式会社,神奈川県,横浜市神奈川区,三ツ沢中町１８－１－５,,14,102,2210851,,,,,,,2023-09-08,1,,,,,ユキヤナギ,0
2584,9020003024548,新規,0,2023-09-08,2023-09-08,合同会社さきい,,合同会社,神奈川県,横浜市中区,弥生町２丁目１９番地１バースシティ横浜大通り公園２０１号,,14,104,2310058,,,,,,,2023-09-08,1,,,,,サキイ,0
2586,9021001080095,新規,0,2023-09-08,2023-09-08,株式会社ＥＢＳ,,株式会社,神奈川県,平塚市,宝町１１番１号平塚フジビル５階,,14,203,2540034,,,,,,,2023-09-08,1,,,,,イービーエス,0
2587,9021001080104,新規,0,2023-09-08,2023-09-08,株式会社楓外構,,株式会社,神奈川県,茅ヶ崎市,浜須賀１４番６－１３号,,14,207,2530035,,,,,,,2023-09-08,1,,,,,カエデガイコウ,0
2588,9021001080112,新規,0,2023-09-08,2023-09-08,株式会社わーくぷらす,,株式会社,神奈川県,座間市,東原５丁目３番５０号,,14,216,2520004,,,,,,,2023-09-08,1,,,,,ワークプラス,0
2593,9030001155443,新規,0,2023-09-08,2023-09-08,センパイナース株式会社,,株式会社,埼玉県,所沢市,北野新町１丁目４－１９,,11,208,3591155,,,,,,,2023-09-08,1,,,,,センパイナース,0
2594,9030001155625,新規,0,2023-09-08,2023-09-08,株式会社ヒロジョイ,,株式会社,埼玉県,さいたま市南区,南浦和２丁目４－１４セザール南浦和２０６号,,11,108,3360017,,,,,,,2023-09-08,1,,,,,ヒロジョイ,0
2595,9030001155690,新規,0,2023-09-08,2023-09-08,株式会社ＨＯＰＥ,,株式会社,埼玉県,越谷市,北越谷５丁目５番１８号,,11,222,3430026,,,,,,,2023-09-08,1,,,,,ホープ,0
2596,9030001155716,新規,0,2023-09-08,2023-09-08,七海株式会社,,株式会社,埼玉県,川口市,飯塚２丁目１番３９－２６０２号,,11,203,3320023,,,,,,,2023-09-08,1,,,,,ナナウミ,0
2597,9030001155807,新規,0,2023-09-08,2023-09-08,株式会社ジュライハウス,,株式会社,埼玉県,富士見市,鶴瀬西３丁目２２番３０号,,11,235,3540026,,,,,,,2023-09-08,1,,,,,ジュライハウス,0
2598,9030001155823,新規,0,2023-09-08,2023-09-08,株式会社ワークス,,株式会社,埼玉県,本庄市,児玉町児玉６０３番地１１,,11,211,3670212,,,,,,,2023-09-08,1,,,,,ワークス,0
2601,9030003022410,新規,0,2023-09-08,2023-09-08,合同会社Ｒ＆Ａ,,合同会社,埼玉県,春日部市,大場１１０３番地２上原第２ビル２０１,,11,214,3440021,,,,,,,2023-09-08,1,,,,,アールアンドエー,0
2602,9030003022419,新規,0,2023-09-08,2023-09-08,ＹＵＨＡＮＡ７７合同会社,,合同会社,埼玉県,和光市,白子３丁目３６番２４号,,11,229,3510101,,,,,,,2023-09-08,1,,,,,ユハナセブンティーセブン,0
2603,9030003022435,新規,0,2023-09-08,2023-09-08,合同会社ｂａｇｕｅ,,合同会社,埼玉県,朝霞市,栄町３丁目２番１－３０６号,,11,227,3510012,,,,,,,2023-09-08,1,,,,,バーグ,0
2604,9030003022451,新規,0,2023-09-08,2023-09-08,ＪＡＰＡＮＥＳＥ　ＰＵＲＶＥＹＯＲ合同会社,,合同会社,埼玉県,川越市,大字下広谷９９５番地９５,,11,201,3500804,,,,,,,2023-09-08,1,,,,,ジャパニーズパーベイヤー,0
2605,9030003022476,新規,0,2023-09-08,2023-09-08,合同会社ミドリクレーン,,合同会社,埼玉県,さいたま市緑区,大字三室２１３８番地１２１,,11,109,3360911,,,,,,,2023-09-08,1,,,,,ミドリクレーン,0
2608,9040001130008,新規,0,2023-09-08,2023-09-08,株式会社ＳＰＹＳ,,株式会社,千葉県,富津市,田倉３２６番地,,12,226,2991731,,,,,,,2023-09-08,1,,,,,スパイス,0
2609,9040001130016,新規,0,2023-09-08,2023-09-08,株式会社はぴくる,,株式会社,千葉県,木更津市,港南台１丁目４１番地４,,12,206,2920827,,,,,,,2023-09-08,1,,,,,ハピクル,0
2611,9040003023250,新規,0,2023-09-08,2023-09-08,Ｘ合同会社,,合同会社,千葉県,南房総市,白浜町白浜３５４２ＢＣ白浜１１０２＜Ｌｅｇｅｎｄ＞＃Ｒ０１,,12,234,2950102,,,,,,,2023-09-08,1,,,,,クロス,0
2612,9040003023275,新規,0,2023-09-08,2023-09-08,合同会社スタイル,,合同会社,千葉県,船橋市,習志野台１丁目２６番７－３０８号,,12,204,2740063,,,,,,,2023-09-08,1,,,,,スタイル,0
2613,9040003023300,新規,0,2023-09-08,2023-09-08,合同会社ケセラ,,合同会社,千葉県,千葉市美浜区,打瀬２丁目１４番地パティオス１１番街１０８号,,12,106,2610013,,,,,,,2023-09-08,1,,,,,ケセラ,0
2614,9050001053414,新規,0,2023-09-08,2023-09-08,関東住宅検査協会株式会社,,株式会社,茨城県,小美玉市,山野１６５１番地９１,,08,236,3113413,,,,,,,2023-09-08,1,,,,,カントウジュウタクケンサキョウカイ,0
2615,9050001053422,新規,0,2023-09-08,2023-09-08,株式会社タキテック,,株式会社,茨城県,日立市,多賀町４丁目７番３８号,,08,202,3160003,,,,,,,2023-09-08,1,,,,,タキテック,0
2617,9050005013323,新規,0,2023-09-08,2023-09-08,医療法人松丸歯科クリニック,,その他の設立登記法人,茨城県,水戸市,千波町２８９１番地２１,,08,201,3100851,,,,,,,2023-09-08,1,,,,,クリニック,0
2619,9060001036302,新規,0,2023-09-08,2023-09-08,グランメゾン株式会社,,株式会社,栃木県,佐野市,免鳥町８４６番地１,,09,204,3270041,,,,,,,2023-09-08,1,,,,,グランメゾン,0
2620,9060001036327,新規,0,2023-09-08,2023-09-08,株式会社Ｓｈｉｍ．Ｃｒａｆｔ,,株式会社,栃木県,真岡市,荒町２１９１,,09,209,3214305,,,,,,,2023-09-08,1,,,,,シムクラフト,0
2628,9080401026719,新規,0,2023-09-08,2023-09-08,株式会社スマイルサンクス,,株式会社,静岡県,浜松市中区,中島３丁目１９番１５号,,22,131,4300856,,,,,,,2023-09-08,1,,,,,スマイルサンクス,0
2645,9120001257775,新規,0,2023-09-08,2023-09-08,Ｂｅｒｅｎｄ株式会社,,株式会社,大阪府,大阪市大正区,三軒家西３丁目４番１６号中山ビル１０２９,,27,108,5510001,,,,,,,2023-09-08,1,,,,,ベレント,0
2646,9120001257866,新規,0,2023-09-08,2023-09-08,ＹＰ　ｃａｒｂｉｄｅ株式会社,,株式会社,大阪府,大阪市中央区,西心斎橋２丁目１６番９－７０３号,,27,128,5420086,,,,,,,2023-09-08,1,,,,,ワイピーカーバイド,0
2647,9120001257924,新規,0,2023-09-08,2023-09-08,株式会社タンスイ,,株式会社,大阪府,守口市,祝町５番９号,,27,209,5700071,,,,,,,2023-09-08,1,,,,,タンスイ,0
2648,9120001257932,新規,0,2023-09-08,2023-09-08,株式会社とわスターズ,,株式会社,大阪府,大阪市城東区,野江３丁目２５番２７号,,27,118,5360006,,,,,,,2023-09-08,1,,,,,トワスターズ,0
2649,9120005023876,新規,0,2023-09-08,2023-09-08,司法書士法人市田利夫事務所,,その他の設立登記法人,大阪府,大阪市北区,浪花町１３番３８号千代田ビル北館９階,,27,127,5300022,,,,,,,2023-09-08,1,,,,,イチダトシオジムショ,0
2651,9120101068131,新規,0,2023-09-08,2023-09-08,株式会社健翔,,株式会社,大阪府,泉佐野市,南中樫井１０６８番地１０,,27,213,5980035,,,,,,,2023-09-08,1,,,,,ケンショウ,0
2653,9120901048051,新規,0,2023-09-08,2023-09-08,株式会社サーフィテック,,株式会社,大阪府,高槻市,津之江町３丁目８番５号,,27,207,5690822,,,,,,,2023-09-08,1,,,,,サーフィテック,0
2656,9122001037348,新規,0,2023-09-08,2023-09-08,株式会社Ｃａｖｅ　Ｒｉｄｇｅ,,株式会社,大阪府,東大阪市,中鴻池町２丁目２番１０－１１０２号,,27,227,5780975,,,,,,,2023-09-08,1,,,,,ケイヴリッジ,0
2657,9122003002663,新規,0,2023-09-08,2023-09-08,ワークサポート合同会社,,合同会社,大阪府,東大阪市,足代北２丁目１３番７号ミュゼ布施２０５号,,27,227,5770058,,,,,,,2023-09-08,1,,,,,ワークサポート,0
2659,9130001075053,新規,0,2023-09-08,2023-09-08,文献ラボ株式会社,,株式会社,京都府,京都市下京区,七条通油小路東入大黒町２２７番地第２キョートビル４０２,,26,106,6008223,,,,,,,2023-09-08,1,,,,,ブンケンラボ,0
2660,9130001075103,新規,0,2023-09-08,2023-09-08,株式会社白岩功果園,,株式会社,京都府,京丹後市,久美浜町平田９７０番地,,26,212,6293432,,,,,,,2023-09-08,1,,,,,シライワコウカエン,0
2661,9130003008969,新規,0,2023-09-08,2023-09-08,合同会社マツバ,,合同会社,京都府,京都市山科区,東野八反畑町２１番地２０,,26,110,6078145,,,,,,,2023-09-08,1,,,,,マツバ,0
2665,9140001131458,新規,0,2023-09-08,2023-09-08,株式会社ＴＡＭＯＹＡ,,株式会社,兵庫県,高砂市,米田町神爪１１０番地の１,,28,216,6760808,,,,,,,2023-09-08,1,,,,,タモヤ,0
2666,9140001131490,新規,0,2023-09-08,2023-09-08,株式会社さかもと,,株式会社,兵庫県,三木市,吉川町みなぎ台２丁目２９番地の１１,,28,215,6731117,,,,,,,2023-09-08,1,,,,,サカモト,0
2667,9140001131499,新規,0,2023-09-08,2023-09-08,株式会社ＰＩＮＥＣＯＮＥＳ,,株式会社,兵庫県,神戸市兵庫区,水木通２丁目２番９－２０４号,,28,105,6520802,,,,,,,2023-09-08,1,,,,,パインコーンズ,0
2668,9140001131508,新規,0,2023-09-08,2023-09-08,株式会社Ｂｅｌｌｅ　Ｃｒｅａｔｉｏｎ,,株式会社,兵庫県,加古川市,加古川町稲屋７０番地８,,28,210,6750034,,,,,,,2023-09-08,1,,,,,ベルクリエーション,0
2669,9140001131516,新規,0,2023-09-08,2023-09-08,Ｍｉｌｉａｒｉｕｍ株式会社,,株式会社,兵庫県,姫路市,夢前町宮置３９６番地７２,,28,201,6712121,,,,,,,2023-09-08,1,,,,,ミリアリウム,0
2670,9140001131581,新規,0,2023-09-08,2023-09-08,株式会社ＦＲＩＳＭ,,株式会社,兵庫県,明石市,魚住町中尾１０３２番地,,28,203,6740082,,,,,,,2023-09-08,1,,,,,フリズム,0
2671,9140003019494,新規,0,2023-09-08,2023-09-08,合同会社Ｂｉｇ　Ｕｐ,,合同会社,兵庫県,神戸市垂水区,霞ヶ丘６丁目８番２５号,,28,108,6550039,,,,,,,2023-09-08,1,,,,,ビッグアップ,0
2672,9140003019511,新規,0,2023-09-08,2023-09-08,トーナ合同会社,,合同会社,兵庫県,尼崎市,猪名寺３丁目２番２４号,,28,202,6610981,,,,,,,2023-09-08,1,,,,,トーナ,0
2680,9180001157846,新規,0,2023-09-08,2023-09-08,株式会社ａｌｏａｌｏ,,株式会社,愛知県,東海市,名和町向イ山４７番地の１Ｂ号,,23,222,4760002,,,,,,,2023-09-08,1,,,,,アロアロ,0
2681,9180001157937,新規,0,2023-09-08,2023-09-08,株式会社Ｔ＆Ｉ,,株式会社,愛知県,犬山市,上坂町５丁目２１２番地,,23,215,4840059,,,,,,,2023-09-08,1,,,,,ティーアンドアイ,0
2690,9190001030705,新規,0,2023-09-08,2023-09-08,株式会社ＡＺＵＭＡホールディングス,,株式会社,三重県,四日市市,野田１丁目８番３８号,,24,202,5100815,,,,,,,2023-09-08,1,,,,,アズマホールディングス,0
2691,9190001030713,新規,0,2023-09-08,2023-09-08,株式会社ベリーベリー,,株式会社,三重県,津市,一身田上津部田１４７０番地２６,,24,201,5140061,,,,,,,2023-09-08,1,,,,,ベリーベリー,0
2694,9200001041709,新規,0,2023-09-08,2023-09-08,大進株式会社,,株式会社,岐阜県,揖斐郡大野町,大字公郷６６１番地１,,21,403,5010555,,,,,,,2023-09-08,1,,,,,ダイシン,0
2699,9220001025593,新規,0,2023-09-08,2023-09-08,株式会社篠田楽器,,株式会社,石川県,金沢市,鳴和２丁目１番８号ハウス代官山ビル１ＦＡ―２,,17,201,9200804,,,,,,,2023-09-08,1,,,,,シノダガッキ,0
2702,9240001062081,新規,0,2023-09-08,2023-09-08,株式会社ＭＩＫＯＹＡ,,株式会社,広島県,福山市,西新涯町２丁目１番１３－２０２号,,34,207,7210958,,,,,,,2023-09-08,1,,,,,ミコヤ,0
2720,9290801029861,新規,0,2023-09-08,2023-09-08,株式会社Ｒｅ‐ｓｔａｒｔ,,株式会社,福岡県,北九州市八幡西区,光明１丁目８番５号１Ｆ,,40,109,8070824,,,,,,,2023-09-08,1,,,,,リスタート,0
2722,9310001018596,新規,0,2023-09-08,2023-09-08,株式会社Ｍａｋｅ　Ｍａｊｉｃ,,株式会社,長崎県,大村市,大里町１５４２番地２８,,42,205,8560845,,,,,,,2023-09-08,1,,,,,メイクマジック,0
2724,9320003004172,新規,0,2023-09-08,2023-09-08,合同会社ＨＩ企画,,合同会社,大分県,大分市,大字上宗方８０２番地の１７１,,44,201,8701152,,,,,,,2023-09-08,1,,,,,エイチアイキカク,0
2738,9380001033960,新規,0,2023-09-08,2023-09-08,株式会社ハウスパル吉田,,株式会社,福島県,本宮市,本宮字兼谷１番地３４,,07,214,9691141,,,,,,,2023-09-08,1,,,,,ハウスパルヨシダ,0
2747,9430001089907,新規,0,2023-09-08,2023-09-08,株式会社Ｎｅｘｔｅｒａ　ｇｅａｒ,,株式会社,北海道,札幌市清田区,美しが丘二条８丁目１１番１１号,,01,110,0040812,,,,,,,2023-09-08,1,,,,,ネクステラギア,0
2748,9430001089923,新規,0,2023-09-08,2023-09-08,株式会社ＮＩＧＨＴ　ＰＡＲＡＤＥ,,株式会社,北海道,札幌市東区,北十九条東２１丁目２番３－４０３号室,,01,103,0650019,,,,,,,2023-09-08,1,,,,,ナイトパレード,0
2749,9430001089956,新規,0,2023-09-08,2023-09-08,株式会社Ｎソフト,,株式会社,北海道,札幌市豊平区,平岸六条１２丁目３－２６,,01,105,0620936,,,,,,,2023-09-08,1,,,,,エヌソフト,0
2753,9460101007435,新規,0,2023-09-08,2023-09-08,株式会社リネクト,,株式会社,北海道,中川郡幕別町,札内青葉町１６番地の９,,01,643,0890541,,,,,,,2023-09-08,1,,,,,リネクト,0
2756,9490003001814,新規,0,2023-09-08,2023-09-08,合同会社ゆりかご,,合同会社,高知県,長岡郡本山町,本山８７０番３号,,39,341,7813601,,,,,,,2023-09-08,1,,,,,ユリカゴ,0
2757,9500001025177,新規,0,2023-09-08,2023-09-08,株式会社ｄｉｍａｒａｙ,,株式会社,愛媛県,松山市,三杉町９番２７号,,38,201,7918065,,,,,,,2023-09-08,1,,,,,ダイマレイ,0
2758,9500001025185,新規,0,2023-09-08,2023-09-08,株式会社ＹＯＵＨＩ,,株式会社,愛媛県,松山市,小栗５丁目６番４０号－８０１号,,38,201,7900036,,,,,,,2023-09-08,1,,,,,ユウヒ,0
2759,9700150119206,新規,0,2023-09-08,2023-09-08,Ｎｉｎｇｂｏ　Ｙｉｎｚｈｏｕ　Ｒｕｎｐｉｎｇ　Ｔｒａｄｉｎｇ　Ｃｏ．Ｌｔｄ．,,外国会社等,,,,,,,,Ｎｉｎｇｂｏ　Ｓｈｉ　Ｙｉｎｚｈｏｕ　Ｑｕ　Ｔｉａｎ　Ｔｏｎｇ　Ｂｅｉ　Ｌｕ　９３３　Ｈａｏ　Ｈｅ　Ｂａｎｇ　Ｄａ　Ｓｈａ　Ａ　Ｚｕｏ　９０６　Ｓｈｉ　Ｎｉｎｇｂｏ　Ｚｈｅｊｉａｎｇ　Ｙｉｎｚｈｏｕ　Ｑｕ　Ｚｈｏｎｇ　Ｇｕｏ　３１５０００,,,,,,2023-09-08,1,,,,,ニンインジョウルンピントレーディングカンパニーリミテッド,0
2760,9700150119965,新規,0,2023-09-08,2023-09-08,ＪＩＡＸＩＮＧ　ＱＩＡＮＭＵＹＩＮＧ　ＴＲＡＤＩＮＧ　ＣＯ　ＬＴＤ,,外国会社等,,,,,,,,ＦＬ　７－１，Ｎｏ．２２４２－２２５０　Ｅｒｈｕａｎ　Ｗｅｓｔ　Ｒｏａｄ　Ｅｃｏｎｏｍｉｃ　ａｎｄ　Ｔｅｃｈｎｏｌｏｇｉｃａｌ　Ｄｅｖｅｌｏｐｍｅｎｔ　Ｚｏｎｅ　Ｊｉａｘｉｎｇ　Ｚｈｅｊｉａｎｇ,,,,,,2023-09-08,1,,,,,ジアシンチャンムイントレーディングカンパニーリミテッド,0
2761,9700150119973,新規,0,2023-09-08,2023-09-08,ｈｅｂｅｉｘｉｏｎｇａｎｍａｎｑｉｎｉｍａｏｙｉ　ｙｏｕｘｉａｎｇｏｎｇｓｉ,,外国会社等,,,,,,,,ＨＥＢＥＩＳＨＥＮＧＢＡＯＤＩＮＧＳＨＩＡＮＸＩＮＸＩＡＮＤＡＺＨＡＮＧＺＨＵＡＮＧＣＵＮＨＯＵＴＯＵＷＡＮＨＵＴＯＮＧ５２ＨＡＯ,,,,,,2023-09-08,1,,,,,カホクションアンマンチニマオイユウゲンコウシ,0
2762,9700150119981,新規,0,2023-09-08,2023-09-08,Ｇｏｏｄｅｎｏｕｇｈ（Ｎｉｎｇｂｏ）Ｔｅｃｈｎｏｌｏｇｙ　Ｃｏ．，Ｌｔｄ,,外国会社等,,,,,,,,Ｓｈｏｕｎａｎ　Ｓｔｒｅｅｔ　Ｙｉｎｚｈｏｕ　Ｄｉｓｔｒｉｃｔ　Ｒｍ．１１０２－４　Ｎｏ．１３５７　Ｚｈｏｎｇｄｕａｎ　Ｙｉｎｘｉａｎ　Ａｖｅ．Ｎｉｎｇｂｏ　Ｚｈｅｊｉａｎｇ,,,,,,2023-09-08,1,,,,,グッドイナフニンボテクノロジーカンパニーリミテッド,0
2763,9700150119998,新規,0,2023-09-08,2023-09-08,ｓｈｅｎｚｈｅｎｍｕｙｉｋｅｊｉｙｏｕｘｉａｎｇｏｎｇｓｉ,,外国会社等,,,,,,,,２０８，７８　Ｆｕｘｉｎｇ　Ｓｔｒｅｅｔ，Ｈｅｈｕａ　Ｃｏｍｍｕｎｉｔｙ，Ｐｉｎｇｈｕ　Ｓｔｒｅｅｔ，Ｌｏｎｇｇａｎｇ　Ｄｉｓｔｒｉｃｔ，Ｓｈｅｎｚｈｅｎ,,,,,,2023-09-08,1,,,,,シンセンモクイカギユウゲンコウシ,0
2764,9700150120007,新規,0,2023-09-08,2023-09-08,ｆｏ　ｓｈａｎ　ｐｕ　ｓｈｉ　ｊｉａｎ　ｃａｉ　ｙｏｕ　ｘｉａｎ　ｇｏｎｇ　ｓｉ,,外国会社等,,,,,,,,ＣｈａｎＣｈｅｎｇＱｕ　ＮａｎＺｈｕａｎｇＺｈｅｎ　ｊｉＨｕａＸｉＬｕ　１６８Ｈａｏ　ＣｉＨａｉＧｕｏｊｉＴａｏＣｉｉａｏＹｉｚｈｏｎｇＸｉｎ　ＢＱｕ　Ｄｉ　９Ｚｕｏ　Ｄｉ　３０９Ｈａｏ　ＦｏＳｈａｎＳｈｉ　ＧｕａｎｇＤｏｎｇＳｈｅｎｇ　５２８０６１　ＣＮ,,,,,,2023-09-08,1,,,,,フォーシャンプーシージエンツァイヨウシエンゴンスー,0
2765,9700150120015,新規,0,2023-09-08,2023-09-08,Ｓｈａｎｇｈａｉ　Ｑｉａｎｚｈｕｏ　Ｎｅｔｗｏｒｋ　Ｔｅｃｈｎｏｌｏｇｙ　Ｃｏ．，Ｌｔｄ．,,外国会社等,,,,,,,,Ｒｏｏｍ　１３００５，３ｒｄ　Ｆｌｏｏｒ，Ｂｕｉｌｄｉｎｇ　６，Ｎｏ．６３３　Ｓｈａｎｇｆｅｎｇ　Ｒｏａｄ，Ｐｕｄｏｎｇ　Ｎｅｗ　Ａｒｅａ，Ｓｈａｎｇｈａｉ,,,,,,2023-09-08,1,,,,,シヤンハイセンタクネツトワークテクノロジーユウゲンコウシ,0
2766,9700150120048,新規,0,2023-09-08,2023-09-08,Ｃｒｅａｔｉｖｅ　Ａｕｔｏｐｒｉｎｔ,,外国会社等,千葉県,八街市,八街ほ１０４０番地２オフィス２０１号,,12,230,2891115,インド共和国、タミルナドゥ、チェンナイ、サウザンドライツ、グラムアッバスアリカン７ｔｈストリート、４－１,,,,,,2023-09-08,1,,,,,クリエイテイブオートプリント,0
