sequenceNumber,corporateNumber,process,correct,updateDate,changeDate,name,nameImageId,kind,prefectureName,cityName,streetNumber,addressImageId,prefectureCode,cityCode,postCode,addressOutside,addressOutsideImageId,closeDate,closeCause,successorCorporateNumber,changeCause,assignmentDate,latest,enName,enPrefectureName,enCityName,enAddressOutside,furigana,hihyoji
2,1010001105696,登記記録の閉鎖等,0,2021-09-07,2021-09-01,株式会社ネクストポリシー,,株式会社,東京都,千代田区,内神田１丁目１３番１号,,13,101,1010047,,,2021-09-01,合併による解散等,8010001084281,令和３年９月１日東京都千代田区内神田一丁目１３番１号株式会社素材機能研究所（8010001084281）に合併し解散,2015-10-05,1,,,,,ネクストポリシー,0
9,1010001212550,登記記録の閉鎖等,0,2021-09-07,2021-09-01,株式会社ＡＰホールディングス,,株式会社,東京都,千代田区,神田司町２丁目２番７号,,13,101,1010048,,,2021-09-01,合併による解散等,7010001009909,令和３年９月１日東京都千代田区神田司町二丁目２番７号株式会社アセットパートナーズ（7010001009909）に合併し解散,2020-09-30,1,,,,,エーピーホールディングス,0
38,1010605001250,登記記録の閉鎖等,0,2021-09-07,2021-08-30,公益財団法人ＪＫＡオートレース労働組合,,その他の設立登記法人,東京都,港区,港南１丁目２番７０号品川シーズンテラス２５階,,13,103,1080075,,,2021-08-30,清算の結了等,,,2015-10-05,1,,,,,コウエキザイダンホウジンジェーケーエーオートレース,0
62,1011401002500,登記記録の閉鎖等,0,2021-09-07,2021-09-03,三京建運株式会社,,株式会社,東京都,板橋区,大山東町５番地２,,13,119,1730014,,,2021-09-03,清算の結了等,,,2015-10-05,1,,,,,サンキョウケンウン,0
64,1011402017571,登記記録の閉鎖等,0,2021-09-07,2021-09-02,有限会社三浦テクノラボ,,有限会社,東京都,板橋区,大谷口上町８５番３号,,13,119,1730032,,,2021-09-02,清算の結了等,,,2015-10-05,1,,,,,,0
84,1013302008171,登記記録の閉鎖等,0,2021-09-07,2021-08-31,有限会社畑下商店,,有限会社,東京都,豊島区,巣鴨１丁目２１番７号,,13,116,1700002,,,2021-08-31,清算の結了等,,,2015-10-05,1,,,,,ハタシタショウテン,0
88,1020001124794,登記記録の閉鎖等,0,2021-09-07,2021-09-01,三友国際不動産株式会社,,株式会社,神奈川県,川崎市幸区,中幸町４丁目２６番地１・２０３,,14,132,2120012,,,2021-09-01,清算の結了等,,,2018-01-26,1,,,,,,0
89,1020001127062,登記記録の閉鎖等,0,2021-09-07,2021-09-02,株式会社ヤスムロ,,株式会社,神奈川県,横浜市磯子区,中浜町１３番２号,,14,107,2350014,,,2021-09-02,清算の結了等,,,2018-07-05,1,,,,,ヤスムロ,0
97,1020003005150,登記記録の閉鎖等,0,2021-09-07,2021-09-01,合同会社瀬谷まごころケアセンター,,合同会社,神奈川県,横浜市瀬谷区,南瀬谷１丁目５１番地２,,14,114,2460034,,,2021-09-01,清算の結了等,,,2015-10-05,1,,,,,セヤマゴコロケアセンター,0
112,1040001024753,登記記録の閉鎖等,0,2021-09-07,2021-08-31,株式会社内建装,,株式会社,千葉県,船橋市,二和東６丁目２番１２－２０２号,,12,204,2740805,,,2021-08-31,清算の結了等,,,2015-10-05,1,,,,,,0
135,1070001020089,登記記録の閉鎖等,0,2021-09-07,2021-09-01,双葉オート株式会社,,株式会社,群馬県,太田市,西矢島町１６０番地の１,,10,205,3730823,,,2021-09-01,合併による解散等,5070001020093,令和３年９月１日群馬県太田市西長岡町１５２４番地株式会社太田双葉カントリークラブ（5070001020093）に合併し解散,2015-10-05,1,,,,,フタバオート,0
139,1080002017546,登記記録の閉鎖等,0,2021-09-07,2021-09-02,有限会社佐野鉄工所,,有限会社,静岡県,藤枝市,平島３７７番地の３,,22,214,4260011,,,2021-09-02,清算の結了等,,,2015-10-05,1,,,,,サノテッコウジョ,0
154,1120001040016,登記記録の閉鎖等,0,2021-09-07,2021-09-01,株式会社丸石,,株式会社,大阪府,大阪市浪速区,幸町２丁目８番４号,,27,111,5560021,,,2021-09-01,清算の結了等,,,2015-10-05,1,,,,,,0
191,1122001029666,登記記録の閉鎖等,0,2021-09-07,2021-09-03,株式会社グッドライフサービス,,株式会社,大阪府,東大阪市,御厨２丁目１番３０号,,27,227,5770032,,,2021-09-03,清算の結了等,,,2016-06-06,1,,,,,グッドライフサービス,0
215,1180001122683,登記記録の閉鎖等,0,2021-09-07,2021-09-01,シオンライフサポート株式会社,,株式会社,愛知県,名古屋市東区,東桜１丁目１０番９号,,23,102,4610005,,,2021-09-01,清算の結了等,,,2016-03-31,1,,,,,シオンライフサポート,0
222,1180301025966,登記記録の閉鎖等,0,2021-09-07,2021-09-03,Ｉ　Ｌｉｆｅプランニング株式会社,,株式会社,愛知県,西尾市,吉良町寺嶋五反田２４番地１,,23,213,4440533,,,2021-09-03,清算の結了等,,,2015-10-05,1,,,,,アイライフプランニング,0
244,1260001003834,登記記録の閉鎖等,0,2021-09-07,2021-09-06,株式会社創半地所,,株式会社,岡山県,岡山市北区,大元上町１２番８号,,33,101,7000925,,,2021-09-06,清算の結了等,,,2015-10-05,1,,,,,ソウハンジショ,0
247,1260001032684,登記記録の閉鎖等,0,2021-09-07,2021-09-03,株式会社Ｇ＆Ｋ,,株式会社,岡山県,岡山市中区,倉田２９５番地１５,,33,102,7038265,,,2021-09-03,清算の結了等,,,2018-12-11,1,,,,,ジーアンドケー,0
248,1260001033807,登記記録の閉鎖等,0,2021-09-07,2021-09-06,株式会社片藤土地開発,,株式会社,岡山県,岡山市北区,神田町２丁目５－３８　２Ｆ,,33,101,7000935,,,2021-09-06,清算の結了等,,,2019-12-04,1,,,,,カタフジトチカイハツ,0
298,1400002010006,登記記録の閉鎖等,0,2021-09-07,2021-09-02,有限会社若葉エステート,,有限会社,岩手県,北上市,九年橋１丁目７番２３号,,03,206,0240063,,,2021-09-02,清算の結了等,,,2015-10-05,1,,,,,ワカバエステート,0
299,1410002006671,登記記録の閉鎖等,0,2021-09-07,2021-09-06,有限会社サン・サービス,,有限会社,秋田県,由利本荘市,石脇字田中１２４番地の１,,05,210,0150011,,,2021-09-06,清算の結了等,,,2015-10-05,1,,,,,,0
307,1430001065592,登記記録の閉鎖等,0,2021-09-07,2021-08-31,株式会社ｅ・Ｋ,,株式会社,北海道,千歳市,清流２丁目８番５号,,01,224,0660081,,,2021-08-31,清算の結了等,,,2015-10-05,1,,,,,,0
312,1430001082308,登記記録の閉鎖等,0,2021-09-07,2021-08-31,株式会社ＮＫサービス,,株式会社,北海道,札幌市豊平区,西岡三条４丁目５－１,,01,105,0620033,,,2021-08-31,合併による解散等,8430001031687,令和３年８月３１日札幌市豊平区西岡三条四丁目５番１号野崎興業株式会社（8430001031687）に合併し解散,2020-09-10,1,,,,,エヌケーサービス,0
322,1480005006407,登記記録の閉鎖等,0,2021-09-07,2021-08-31,特定非営利活動法人空き家・空き土地管理サポートセンター,,その他の設立登記法人,徳島県,徳島市,南前川町４丁目１４番地船橋設計ビル１階,,36,201,7700808,,,2021-08-31,清算の結了等,,,2015-10-05,1,,,,,アキヤアキトチカンリサポートセンター,0
325,1500001009559,登記記録の閉鎖等,0,2021-09-07,2021-09-02,株式会社アケヒ商店,,株式会社,愛媛県,新居浜市,土橋２丁目８番１８号,,38,205,7920043,,,2021-09-02,清算の結了等,,,2015-10-05,1,,,,,アケヒショウテン,0
356,2010405013783,登記記録の閉鎖等,0,2021-09-07,2021-08-30,ＲＥＮＥ一般社団法人,,その他の設立登記法人,東京都,港区,虎ノ門４丁目１番２８号,,13,103,1050001,,,2021-08-30,清算の結了等,,,2015-10-05,1,,,,,レネ,0
359,2010603008379,登記記録の閉鎖等,0,2021-09-07,2021-08-23,合同会社エキスパート,,合同会社,東京都,墨田区,錦糸１丁目２番１号アルカセントラル１４階,,13,107,1300013,,,2021-08-23,清算の結了等,,,2020-06-11,1,,,,,エキスパート,0
384,2011401021796,登記記録の閉鎖等,0,2021-09-07,2021-09-03,株式会社近藤工務店,,株式会社,東京都,板橋区,小豆沢４丁目４番１２号,,13,119,1740051,,,2021-09-03,清算の結了等,,,2019-05-09,1,,,,,コンドウコウムテン,0
387,2011502016019,登記記録の閉鎖等,0,2021-09-07,2021-09-02,有限会社プランニングセンター・ボーン,,有限会社,東京都,荒川区,南千住６丁目２９番２－４０２号ガーデンホーム南千住ＥＸＰｌａｚａ,,13,118,1160003,,,2021-09-02,清算の結了等,,,2015-10-05,1,,,,,プランニングセンターボーン,0
399,2013301019482,登記記録の閉鎖等,0,2021-09-07,2021-08-31,株式会社メタルウェーブ,,株式会社,東京都,豊島区,上池袋４丁目３９番３号,,13,116,1700012,,,2021-08-31,清算の結了等,,,2015-10-05,1,,,,,メタルウエーブ,0
421,2030002053339,登記記録の閉鎖等,0,2021-09-07,2021-08-30,有限会社大澤,,有限会社,埼玉県,上尾市,中妻２丁目１２番地の２,,11,219,3620072,,,2021-08-30,清算の結了等,,,2015-10-05,1,,,,,オオサワ,0
423,2030005010584,登記記録の閉鎖等,0,2021-09-07,2021-08-25,特定非営利活動法人中小企業経営支援協会,,その他の設立登記法人,埼玉県,越谷市,大成町７丁目７８番地,,11,222,3430825,,,2021-08-25,清算の結了等,,,2015-10-05,1,,,,,チュウショウキギョウケイエイシエンキョウカイ,0
446,2070001022555,登記記録の閉鎖等,0,2021-09-07,2021-09-01,株式会社メイビー,,株式会社,群馬県,太田市,龍舞町５１０７番地,,10,205,3730806,,,2021-09-01,合併による解散等,9070001022557,令和３年９月１日群馬県太田市龍舞町５１０７番地株式会社小江戸観光（9070001022557）に合併し解散,2015-10-05,1,,,,,メイビー,0
451,2070005000895,登記記録の閉鎖等,0,2021-09-07,2021-08-31,嶺寺間養蚕農業協同組合,,その他の設立登記法人,群馬県,前橋市,嶺町４８番地,,10,201,3710125,,,2021-08-31,清算の結了等,,,2015-10-05,1,,,,,ミネテラマヨウサン,0
500,2140001086452,登記記録の閉鎖等,0,2021-09-07,2021-09-01,河岸商事株式会社,,株式会社,兵庫県,姫路市,別所町別所１９１０番地,,28,201,6710221,,,2021-09-01,合併による解散等,9140002054047,令和３年９月１日兵庫県姫路市別所町別所１９１０番地株式会社河岸製作所（9140002054047）に合併し解散,2015-10-05,1,,,,,カワギシショウジ,0
516,2170005002361,登記記録の閉鎖等,0,2021-09-07,2021-08-31,特定非営利活動法人紀州レンジャーズ,,その他の設立登記法人,和歌山県,有田市,野３８５番地の２,,30,204,6490314,,,2021-08-31,清算の結了等,,,2015-10-05,1,,,,,キシュウレンジャーズ,0
566,2280001002354,登記記録の閉鎖等,0,2021-09-07,2021-07-15,株式会社島根エレテック,,株式会社,島根県,松江市,西津田４丁目７番１０号,,32,201,6900017,,,2021-07-15,合併による解散等,6240001006941,令和３年７月１日広島市西区草津東一丁目１番２９号株式会社広島エレテック（6240001006941）に合併し解散,2015-10-05,1,,,,,シマネエレテック,0
571,2290005008066,登記記録の閉鎖等,0,2021-09-07,2021-09-01,医療法人医聖会諫山医院,,その他の設立登記法人,福岡県,嘉穂郡桂川町,大字豆田４０４番地,,40,421,8200608,,,2021-09-01,清算の結了等,,,2015-10-05,1,,,,,イセイカイイサヤマイイン,0
573,2290805007449,登記記録の閉鎖等,0,2021-09-07,2021-08-25,川崎町商店街振興協同組合,,その他の設立登記法人,福岡県,田川郡川崎町,大字川崎３５１番地の１０豊前川崎商工会議所内,,40,605,8270003,,,2021-08-25,清算の結了等,,,2015-10-05,1,,,,,カワサキマチショウテンガイシンコウ,0
575,2310002009270,登記記録の閉鎖等,0,2021-09-07,2021-09-03,有限会社浦川商事,,有限会社,長崎県,佐世保市,下京町８番８号,,42,202,8570875,,,2021-09-03,清算の結了等,,,2015-10-05,1,,,,,ウラカワショウジ,0
578,2320005009820,登記記録の閉鎖等,0,2021-09-07,2021-08-31,ＮＰＯ法人大分県脊柱靭帯骨化症友の会,,その他の設立登記法人,大分県,別府市,大字鶴見４２３０番地の１４４,,44,202,8740840,,,2021-08-31,清算の結了等,,,2020-09-29,1,,,,,オオイタケンセキチュウジンタイコッカショウトモノカイ,0
594,2360001017195,登記記録の閉鎖等,0,2021-09-07,2021-07-01,株式会社タマダ,,株式会社,沖縄県,那覇市,天久１丁目６番１号,,47,201,9000005,,,2021-07-01,合併による解散等,1360001005787,令和３年７月１日沖縄県那覇市天久一丁目８番１７号２ＦＴＮＯコンセプト株式会社（1360001005787）に合併し解散,2015-10-05,1,,,,,タマダ,0
606,2390001013051,登記記録の閉鎖等,0,2021-09-07,2021-09-01,株式会社マルミチ培土,,株式会社,山形県,東田川郡庄内町,余目新田字向町７７番地７,,06,428,9997714,,,2021-09-01,合併による解散等,6390001007982,令和３年９月１日山形県鶴岡市藤浪一丁目７８番地１株式会社羽黒（6390001007982）に合併し解散,2015-10-05,1,,,,,マルミチバイド,0
612,2430001000573,登記記録の閉鎖等,0,2021-09-07,2021-09-01,株式会社アサヅマ産業,,株式会社,北海道,札幌市中央区,南七条西６丁目１０３３番地,,01,101,0640807,,,2021-09-01,合併による解散等,5430001000570,令和３年９月１日札幌市中央区南七条西六丁目１０３３番地株式会社アサヅマ（5430001000570）に合併し解散,2015-10-05,1,,,,,アサヅマサンギョウ,0
627,2470001012771,登記記録の閉鎖等,0,2021-09-07,2021-09-03,株式会社おひさまハウスコーポレーション,,株式会社,香川県,高松市,東山崎町９７１番地,,37,201,7610312,,,2021-09-03,清算の結了等,,,2015-10-05,1,,,,,オヒサマハウスコーポレーション,0
628,2470002007548,登記記録の閉鎖等,0,2021-09-07,2021-09-03,有限会社六合二路,,有限会社,香川県,高松市,番町３丁目２番２０号,,37,201,7600017,,,2021-09-03,清算の結了等,,,2015-10-05,1,,,,,ロクゴウニロ,0
629,2470002009346,登記記録の閉鎖等,0,2021-09-07,2021-09-03,有限会社植原商店,,有限会社,香川県,高松市,香川町浅野８７２番地,,37,201,7611703,,,2021-09-03,清算の結了等,,,2015-10-05,1,,,,,ウエハラショウテン,0
656,3010401150844,登記記録の閉鎖等,0,2021-09-07,2021-08-17,株式会社カルプ,,株式会社,東京都,港区,浜松町２丁目２番１５号浜松町ダイヤビル２Ｆ,,13,103,1050013,,,2021-08-17,清算の結了等,,,2020-02-12,1,,,,,カルプ,0
659,3010403012142,登記記録の閉鎖等,0,2021-09-07,2021-09-02,合同会社キャピタルソリューション,,合同会社,神奈川県,横浜市戸塚区,戸塚町３４３３番地３,,14,110,2440003,,,2021-09-02,清算の結了等,,,2015-10-05,1,,,,,キャピタルソリューション,0
676,3011101000991,登記記録の閉鎖等,0,2021-09-07,2021-09-02,株式会社アドベンチャーロード,,株式会社,東京都,北区,岩淵町３８番地１６号,,13,117,1150041,,,2021-09-02,清算の結了等,,,2015-10-05,1,,,,,,0
741,3040001083574,登記記録の閉鎖等,0,2021-09-07,2021-08-31,みかど型枠株式会社,,株式会社,千葉県,千葉市若葉区,高品町９２１番地１８,,12,104,2640024,,,2021-08-31,清算の結了等,,,2015-10-05,1,,,,,ミカドカタワク,0
743,3040001106095,登記記録の閉鎖等,0,2021-09-07,2021-09-01,株式会社億盛商事,,株式会社,千葉県,佐倉市,井野１３９１番地４レックスハイム志津６０６号,,12,212,2850855,,,2021-09-01,清算の結了等,,,2018-09-19,1,,,,,オクセイショウジ,0
757,3070001020095,登記記録の閉鎖等,0,2021-09-07,2021-09-01,双葉産業株式会社,,株式会社,群馬県,太田市,西長岡町１５２４番地,,10,205,3730001,,,2021-09-01,合併による解散等,5070001020093,令和３年９月１日群馬県太田市西長岡町１５２４番地株式会社太田双葉カントリークラブ（5070001020093）に合併し解散,2015-10-05,1,,,,,フタバサンギョウ,0
758,3080401018589,登記記録の閉鎖等,0,2021-09-07,2021-09-03,株式会社ＣＣＲ,,株式会社,静岡県,浜松市中区,元浜町２５６番地,,22,131,4300942,,,2021-09-03,清算の結了等,,,2015-10-05,1,,,,,シーシーアール,0
759,3090002010201,登記記録の閉鎖等,0,2021-09-07,2021-09-01,有限会社幸伸,,有限会社,山梨県,都留市,大幡３５９６番地,,19,204,4020045,,,2021-09-01,清算の結了等,,,2015-10-05,1,,,,,,0
763,3100003002864,登記記録の閉鎖等,0,2021-09-07,2021-09-01,合資会社熊谷美容院,,合資会社,長野県,上伊那郡飯島町,飯島１１８１番地６,,20,384,3993702,,,2021-09-01,清算の結了等,,,2015-10-05,1,,,,,クマガイビヨウイン,0
767,3110002029593,登記記録の閉鎖等,0,2021-09-07,2021-09-01,有限会社ワカツキ工業,,有限会社,新潟県,長岡市,千歳２丁目４番３号,,15,202,9400082,,,2021-09-01,清算の結了等,,,2015-10-05,1,,,,,ワカツキコウギョウ,0
770,3110005009519,登記記録の閉鎖等,0,2021-09-07,2021-07-13,白山神社,,その他の設立登記法人,新潟県,上越市,名立区峠１２０４番地,,15,222,9491615,,,2021-07-13,合併による解散等,9110005009513,令和３年７月１３日新潟県上越市名立区池田５５８番地宗教法人白山神社（9110005009513）に合併し解散,2015-10-05,1,,,,,ハクサンジンジャ,0
773,3120001006915,登記記録の閉鎖等,0,2021-09-07,2021-09-01,アプコ株式会社,,株式会社,大阪府,大阪市都島区,高倉町１丁目５番１１号,,27,102,5340011,,,2021-09-01,清算の結了等,,,2015-10-05,1,,,,,,0
779,3120001204709,登記記録の閉鎖等,0,2021-09-07,2021-09-01,株式会社ヤマショク,,株式会社,大阪府,大阪市平野区,平野北１丁目７番２１号,,27,126,5470041,,,2021-09-01,清算の結了等,,,2017-04-03,1,,,,,,0
799,3120901009694,登記記録の閉鎖等,0,2021-09-07,2021-09-06,大誠塗裝株式会社,,株式会社,大阪府,摂津市,鳥飼上３丁目５番９号,,27,224,5660062,,,2021-09-06,清算の結了等,,,2015-10-05,1,,,,,タイセイトソウ,0
811,3130002014131,登記記録の閉鎖等,0,2021-09-07,2021-09-01,有限会社関弘広告社,,有限会社,京都府,京都市伏見区,京町４丁目１４０番地の１１,,26,109,6128083,,,2021-09-01,清算の結了等,,,2015-10-05,1,,,,,カンコウコウコクシャ,0
831,3180001029844,登記記録の閉鎖等,0,2021-09-07,2021-09-01,株式会社神田,,株式会社,愛知県,名古屋市中村区,深川町３丁目４０番地,,23,105,4530805,,,2021-09-01,清算の結了等,,,2015-10-05,1,,,,,カンダ,0
838,3180002004391,登記記録の閉鎖等,0,2021-09-07,2021-08-31,有限会社澁谷タイル工業,,有限会社,愛知県,名古屋市千種区,仲田１丁目１１番１９号,,23,101,4640074,,,2021-08-31,清算の結了等,,,2015-10-05,1,,,,,シブヤタイルコウギョウ,0
840,3180002074014,登記記録の閉鎖等,0,2021-09-07,2021-09-01,有限会社ソーケー,,有限会社,愛知県,一宮市,今伊勢町馬寄字川田１６番地,,23,203,4910051,,,2021-09-01,合併による解散等,7180001083219,令和３年９月１日愛知県一宮市今伊勢町馬寄字川田１６番地東洋毛糸紡績株式会社（7180001083219）に合併し解散,2015-10-05,1,,,,,ソーケー,0
858,3200002013076,登記記録の閉鎖等,0,2021-09-07,2021-09-06,有限会社日の出商事,,有限会社,岐阜県,大垣市,北切石町３丁目２０番地,,21,202,5030915,,,2021-09-06,合併による解散等,3200001014166,令和３年９月５日岐阜県大垣市日の出町一丁目５番地株式会社日の丸繊維（3200001014166）に合併し解散,2015-10-05,1,,,,,ヒノデショウジ,0
861,3220002007869,登記記録の閉鎖等,0,2021-09-07,2021-09-01,有限会社浅野川テレビ,,有限会社,石川県,金沢市,東山３丁目６番１２号,,17,201,9200831,,,2021-09-01,清算の結了等,,,2015-10-05,1,,,,,アサノガワテレビ,0
868,3240002031545,登記記録の閉鎖等,0,2021-09-07,2021-09-02,有限会社長尾ステンレス,,有限会社,広島県,庄原市,新庄町２６０番地の１２,,34,210,7270004,,,2021-09-02,清算の結了等,,,2015-10-05,1,,,,,ナガオステンレス,0
872,3260002028333,登記記録の閉鎖等,0,2021-09-07,2021-09-03,有限会社小谷会計センター,,有限会社,岡山県,津山市,田町７２番地,,33,203,7080052,,,2021-09-03,清算の結了等,,,2015-10-05,1,,,,,コダニカイケイ,0
883,3300001010741,登記記録の閉鎖等,0,2021-09-07,2021-09-01,株式会社ラボ,,株式会社,佐賀県,佐賀市,新中町８番１４－１０１号,,41,201,8490924,,,2021-09-01,清算の結了等,,,2017-03-28,1,,,,,ラボ,0
884,3310002002258,登記記録の閉鎖等,0,2021-09-07,2021-09-03,新観光開発有限会社,,有限会社,長崎県,長崎市,かき道４丁目４１番１５号,,42,201,8510115,,,2021-09-03,清算の結了等,,,2015-10-05,1,,,,,シンカンコウカイハツ,0
888,3330003004111,登記記録の閉鎖等,0,2021-09-07,2021-09-02,シャンテ合資会社,,合資会社,熊本県,天草市,本渡町本渡９８３番地,,43,215,8630003,,,2021-09-02,清算の結了等,,,2015-10-05,1,,,,,シャンテ,0
891,3350001014886,登記記録の閉鎖等,0,2021-09-07,2021-09-01,株式会社Ｓｏｇｏオフィス,,株式会社,宮崎県,宮崎市,千草町１番２２号,,45,201,8800006,,,2021-09-01,合併による解散等,7350001001410,令和３年９月１日宮崎市千草町１番２２号株式会社ピー・エー・エル（7350001001410）に合併し解散,2017-08-18,1,,,,,ソウゴウオフィス,0
919,3430001001843,登記記録の閉鎖等,0,2021-09-07,2021-09-01,株式会社ヴァーナル北海道,,株式会社,北海道,札幌市中央区,南一条西１１丁目３２７番地９,,01,101,0600061,,,2021-09-01,合併による解散等,2430001018970,令和３年９月１日札幌市中央区南一条西十一丁目３２７番地９株式会社天然生活（2430001018970）に合併し解散,2015-10-05,1,,,,,ヴァーナルホッカイドウ,0
940,4010001063009,登記記録の閉鎖等,0,2021-09-07,2021-08-31,株式会社テイジンアソシアリテイル,,株式会社,東京都,中央区,銀座４丁目３番１０号,,13,102,1040061,,,2021-08-31,清算の結了等,,,2015-10-05,1,,,,,テイジンアソシアリテイル,0
957,4010401029880,登記記録の閉鎖等,0,2021-09-07,2021-08-30,株式会社山耕,,株式会社,東京都,港区,白金５丁目１２番２１号,,13,103,1080072,,,2021-08-30,清算の結了等,,,2015-10-05,1,,,,,ヤマコウ,0
968,4010403018799,登記記録の閉鎖等,0,2021-09-07,2021-08-26,合同会社ＨＡＣＨＩ,,合同会社,東京都,港区,虎ノ門４丁目１－３４－１２０４,,13,103,1050001,,,2021-08-26,清算の結了等,,,2018-06-18,1,,,,,ハチ,0
992,4011301001632,登記記録の閉鎖等,0,2021-09-07,2021-08-30,関東土地株式会社,,株式会社,東京都,港区,虎ノ門４丁目１番９号,,13,103,1050001,,,2021-08-30,清算の結了等,,,2015-10-05,1,,,,,カントウトチ,0
1006,4011803001873,登記記録の閉鎖等,0,2021-09-07,2021-08-30,合同会社福来,,合同会社,東京都,葛飾区,東新小岩８丁目４番２４号,,13,122,1240023,,,2021-08-30,清算の結了等,,,2015-10-05,1,,,,,フックル,0
1045,4040001093325,登記記録の閉鎖等,0,2021-09-07,2021-08-31,株式会社Ｓ　ＯＮＥ　ＰＲＩＤＥ,,株式会社,千葉県,千葉市中央区,富士見１丁目１３番３号進栄ビル８Ｆ,,12,101,2600015,,,2021-08-31,清算の結了等,,,2015-12-18,1,,,,,エスワンプライド,0
1067,4070001016497,登記記録の閉鎖等,0,2021-09-07,2021-08-31,福島株式会社,,株式会社,群馬県,桐生市,三吉町１丁目４番１６号,,10,203,3760005,,,2021-08-31,清算の結了等,,,2015-10-05,1,,,,,フクシマ,0
1069,4070002018484,登記記録の閉鎖等,0,2021-09-07,2021-08-31,有限会社氏原鉄工,,有限会社,群馬県,伊勢崎市,柴町３９１番地９,,10,204,3720824,,,2021-08-31,清算の結了等,,,2015-10-05,1,,,,,ウジハラテッコウ,0
1071,4070005008078,登記記録の閉鎖等,0,2021-09-07,2021-09-01,一般社団法人太田商工振興連合会,,その他の設立登記法人,群馬県,太田市,東本町１６番３１号,,10,205,3730026,,,2021-09-01,清算の結了等,,,2015-10-05,1,,,,,オオタショウコウシンコウレンゴウカイ,0
1081,4100005010278,登記記録の閉鎖等,0,2021-09-07,2021-09-02,特定非営利活動法人自治支援ＮＰＯ南信州大地の和,,その他の設立登記法人,長野県,飯田市,上郷飯沼３１４０番地４,,20,205,3950002,,,2021-09-02,清算の結了等,,,2015-10-05,1,,,,,ジチシエンエヌピーオーミナミシンシュウダイチノワ,0
1091,4120001073178,登記記録の閉鎖等,0,2021-09-07,2021-09-01,アイジェイビーフーズ株式会社,,株式会社,大阪府,大阪市東成区,大今里西２丁目３－２,,27,115,5370014,,,2021-09-01,清算の結了等,,,2015-10-05,1,,,,,,0
1092,4120001077096,登記記録の閉鎖等,0,2021-09-07,2021-08-31,株式会社ガル設計,,株式会社,大阪府,大阪市住吉区,帝塚山中４丁目５番５号,,27,120,5580053,,,2021-08-31,清算の結了等,,,2015-10-05,1,,,,,ガルセッケイ,0
1095,4120001168110,登記記録の閉鎖等,0,2021-09-07,2021-09-01,株式会社エヌファースト,,株式会社,大阪府,大阪市阿倍野区,松崎町４丁目１番１３号,,27,119,5450053,,,2021-09-01,清算の結了等,,,2015-10-05,1,,,,,,0
1134,4140005001315,登記記録の閉鎖等,0,2021-09-07,2021-07-09,天理教西灘分教会,,その他の設立登記法人,兵庫県,神戸市灘区,五毛通２丁目３番２号,,28,102,6570814,,,2021-07-09,合併による解散等,6140005001305,令和３年７月９日神戸市垂水区歌敷山一丁目５番３６号天理教名田分教会（6140005001305）に合併し解散,2015-10-05,1,,,,,,0
1227,4310003003304,登記記録の閉鎖等,0,2021-09-07,2021-09-02,合同会社シスター,,合同会社,長崎県,長崎市,麹屋町５番１０－４０２,00110503,42,201,8500871,,,2021-09-02,清算の結了等,,,2017-06-12,1,,,,,シスター,0
1230,4330001027261,登記記録の閉鎖等,0,2021-09-07,2021-09-01,株式会社コムセンスホールディングス,,株式会社,熊本県,熊本市西区,田崎町４８４番地２９,,43,103,8600058,,,2021-09-01,合併による解散等,3330001008485,令和３年９月１日熊本市西区春日三丁目１５番６０号ＪＲ熊本白川ビル４Ｆ株式会社ローカル（3330001008485）に合併し解散,2020-03-06,1,,,,,コムセンスホールディングス,0
1234,4340001019076,登記記録の閉鎖等,0,2021-09-07,2021-08-31,コステム株式会社,,株式会社,鹿児島県,鹿児島市,南林寺町１３番１２号（３０１号）,,46,201,8920834,,,2021-08-31,清算の結了等,,,2016-02-04,1,,,,,コステム,0
1241,4350001013994,登記記録の閉鎖等,0,2021-09-07,2021-09-01,株式会社ＴＯＭＯＲＲＯＷ九州,,株式会社,宮崎県,都城市,小松原町１０号４番地都城ＮＳプラザビル１階,,45,202,8850022,,,2021-09-01,合併による解散等,3350003002419,令和３年９月１日宮崎県日南市中央通一丁目１０番地３株式会社Ｆ企画不動産（3350003002419）に合併し解散,2016-04-25,1,,,,,トゥモローキュウシュウ,0
1247,4360001024000,登記記録の閉鎖等,0,2021-09-07,2021-08-30,株式会社インパクト,,株式会社,沖縄県,島尻郡南風原町,字神里５３６番地,,47,350,9011114,,,2021-08-30,清算の結了等,,,2018-05-21,1,,,,,インパクト,0
1253,4370003004180,登記記録の閉鎖等,0,2021-09-07,2021-08-31,Ｂｏｌｕラボ合同会社,,合同会社,宮城県,石巻市,前谷地字中埣１３８番地２,,04,202,9871101,,,2021-08-31,清算の結了等,,,2018-07-03,1,,,,,ボルラボ,0
1269,4430002050153,登記記録の閉鎖等,0,2021-09-07,2021-09-01,有限会社美唄義肢製作所,,有限会社,北海道,美唄市,東七条北４丁目７番９号,,01,215,0720801,,,2021-09-01,清算の結了等,,,2015-10-05,1,,,,,ビバイギシセイサクショ,0
1274,4460101000452,登記記録の閉鎖等,0,2021-09-07,2021-09-02,株式会社キヨハラ建業,,株式会社,北海道,中川郡幕別町,寿町８８番地４,,01,643,0890605,,,2021-09-02,清算の結了等,,,2015-10-05,1,,,,,,0
1290,5010001074649,登記記録の閉鎖等,0,2021-09-07,2021-09-01,株式会社アイサーヴ,,株式会社,東京都,千代田区,二番町１番地番町ハイム３１３,,13,101,1020084,,,2021-09-01,清算の結了等,,,2015-10-05,1,,,,,アイサーヴ,0
1310,5010005027025,登記記録の閉鎖等,0,2021-09-07,2021-08-31,ＯＣ＆Ａｓｓｏｃｉａｔｅｓ社会保険労務士法人,,その他の設立登記法人,東京都,千代田区,紀尾井町３－１２紀尾井町ビル,,13,101,1020094,,,2021-08-31,清算の結了等,,,2017-06-29,1,OC & Associates HR Co.,Tokyo,"Kioicho Building 17F 3-12 Kioicho, Chiyoda ku",,オーシーアンドアソシエイツ,0
1357,5011102016011,登記記録の閉鎖等,0,2021-09-07,2021-08-24,有限会社測友舎,,有限会社,東京都,新宿区,西新宿４丁目１６番３－２０５号,,13,104,1600023,,,2021-08-24,清算の結了等,,,2015-10-05,1,,,,,ソクユウシャ,0
1360,5011103008734,登記記録の閉鎖等,0,2021-09-07,2021-08-25,合同会社ＰＲＯ　ＲＩＧＭＡ,,合同会社,埼玉県,上尾市,愛宕１丁目５－５,,11,219,3620034,,,2021-08-25,清算の結了等,,,2019-04-19,1,,,,,プロリグマ,0
1362,5011202002860,登記記録の閉鎖等,0,2021-09-07,2021-09-01,株式会社システムハウスわが家,,株式会社,東京都,中野区,東中野１丁目３５番１号,,13,114,1640003,,,2021-09-01,合併による解散等,2010401151298,令和３年７月１日東京都港区虎ノ門二丁目３番１７号ＩＴｂｏｏｋテクノロジー株式会社（2010401151298）に合併し解散,2015-10-05,1,,,,,システムハウスワガヤ,0
1407,5021001024634,登記記録の閉鎖等,0,2021-09-07,2021-09-01,株式会社ラスティックトゥエンティーセブン,,株式会社,山梨県,南都留郡山中湖村,平野５０８－５７１,,19,425,4010502,,,2021-09-01,清算の結了等,,,2015-10-05,1,,,,,,0
1411,5021002020756,登記記録の閉鎖等,0,2021-09-07,2021-09-01,有限会社佐野不動産鑑定事務所,,有限会社,神奈川県,相模原市中央区,弥栄１丁目２番８号,,14,152,2520229,,,2021-09-01,清算の結了等,,,2015-10-05,1,,,,,サノフドウサンカンテイジムショ,0
1426,5030002030021,登記記録の閉鎖等,0,2021-09-07,2021-08-27,有限会社ダイショウ,,有限会社,埼玉県,所沢市,元町１６番１号,,11,208,3591121,,,2021-08-27,清算の結了等,,,2015-10-05,1,,,,,,0
1450,5070002023302,登記記録の閉鎖等,0,2021-09-07,2021-09-01,有限会社グリーン調剤,,有限会社,群馬県,桐生市,堤町３丁目７番２０号,,10,203,3760042,,,2021-09-01,合併による解散等,2070001017183,令和３年９月１日群馬県桐生市相生町五丁目４０９番地の１４株式会社クスリのわかば（2070001017183）に合併し解散,2015-10-05,1,,,,,グリーンチョウザイ,0
1467,5120001019361,登記記録の閉鎖等,0,2021-09-07,2021-09-01,株式会社あうん,,株式会社,大阪府,大阪市平野区,瓜破東１丁目５番６６号,,27,126,5470022,,,2021-09-01,清算の結了等,,,2015-10-05,1,,,,,,0
1482,5120002074125,登記記録の閉鎖等,0,2021-09-07,2021-09-01,有限会社コメダ電器,,有限会社,大阪府,枚方市,禁野本町１丁目８番３０号,,27,210,5731197,,,2021-09-01,清算の結了等,,,2015-10-05,1,,,,,コメダデンキ,0
1484,5120002082202,登記記録の閉鎖等,0,2021-09-07,2021-08-31,有限会社エム・ティ・大幸,,有限会社,大阪府,大阪市中央区,神崎町２番２１号,,27,128,5400016,,,2021-08-31,合併による解散等,7120001083083,令和３年８月３１日大阪市中央区神崎町２番２１号ダイキインターナショナル株式会社（7120001083083）に合併し解散,2015-10-05,1,,,,,エムティタイコウ,0
1523,5140002050479,登記記録の閉鎖等,0,2021-09-07,2021-09-01,有限会社広岡土地,,有限会社,兵庫県,姫路市,北平野南の町１番１２－１０３号,,28,201,6700887,,,2021-09-01,清算の結了等,,,2015-10-05,1,,,,,ヒロオカトチ,0
1535,5180002074689,登記記録の閉鎖等,0,2021-09-07,2021-08-31,有限会社タナベ包装,,有限会社,愛知県,丹羽郡大口町,伝右２丁目３２２番地,,23,361,4800126,,,2021-08-31,清算の結了等,,,2015-10-05,1,,,,,タナベホウソウ,0
1558,5260001006593,登記記録の閉鎖等,0,2021-09-07,2021-09-01,メーデル株式会社,,株式会社,岡山県,岡山市北区,下中野７１２番地の１０６,,33,101,7000973,,,2021-09-01,合併による解散等,1260001018931,令和３年９月１日岡山県高梁市津川町今津３３５番地備北興業株式会社（1260001018931）に合併し解散,2015-10-05,1,,,,,メーデル,0
1563,5280002006921,登記記録の閉鎖等,0,2021-09-07,2021-09-03,有限会社江都開発コンサルタント,,有限会社,島根県,出雲市,知井宮町２９３番地,,32,203,6930033,,,2021-09-03,清算の結了等,,,2015-10-05,1,,,,,コウトカイハツコンサルタント,0
1568,5290002040498,登記記録の閉鎖等,0,2021-09-07,2021-08-23,有限会社旭屋呉服店,,有限会社,福岡県,春日市,春日原北町３丁目７５番地の４,,40,218,8160802,,,2021-08-23,清算の結了等,,,2015-10-05,1,,,,,アサヒヤゴフクテン,0
1581,5330001025495,登記記録の閉鎖等,0,2021-09-07,2021-09-02,株式会社Ｔｓｕｋｕｒｕ,,株式会社,熊本県,熊本市南区,近見２丁目４番２９号,,43,104,8614101,,,2021-09-02,清算の結了等,,,2018-07-10,1,,,,,ツクル,0
1593,5370001008942,登記記録の閉鎖等,0,2021-09-07,2021-09-01,株式会社大富企画,,株式会社,宮城県,仙台市青葉区,二日町１０番１５号,,04,101,9800802,,,2021-09-01,清算の結了等,,,2015-10-05,1,,,,,タイトミキカク,0
1595,5380001012200,登記記録の閉鎖等,0,2021-09-07,2021-09-01,株式会社ＴＫサポート,,株式会社,福島県,いわき市,平字倉前１１２番地の４,,07,204,9708026,,,2021-09-01,合併による解散等,6380001013676,令和３年９月１日福島県いわき市平字作町二丁目１番地の１０株式会社東日本地建（6380001013676）に合併し解散,2015-10-05,1,,,,,ティーケーサポート,0
1603,5390005007286,登記記録の閉鎖等,0,2021-09-07,2021-09-01,医療法人社団周治会,,その他の設立登記法人,山形県,長井市,九野本８０５番地１６,,06,209,9930041,,,2021-09-01,清算の結了等,,,2015-10-05,1,,,,,シュウチカイ,0
1613,5430002012284,登記記録の閉鎖等,0,2021-09-07,2021-08-31,有限会社高本製作所,,有限会社,北海道,札幌市中央区,南六条西２２丁目２番１２号,,01,101,0640806,,,2021-08-31,清算の結了等,,,2015-10-05,1,,,,,タカモトセイサクショ,0
1623,6010001154805,登記記録の閉鎖等,0,2021-09-07,2021-08-31,タップ・マイ・ゲーム株式会社,,株式会社,東京都,中央区,日本橋本町３丁目３番６号ワカ末ビル７階,,13,102,1030023,,,2021-08-31,清算の結了等,,,2015-10-05,1,,,,,,0
1628,6010401032908,登記記録の閉鎖等,0,2021-09-07,2021-08-30,株式会社ソシオ・ダイナミックス,,株式会社,東京都,港区,六本木３丁目１４番９号,,13,103,1060032,,,2021-08-30,清算の結了等,,,2015-10-05,1,,,,,ソシオダイナミックス,0
1645,6010905001128,登記記録の閉鎖等,0,2021-09-07,2021-09-01,特定非営利活動法人エンジェルグループ,,その他の設立登記法人,東京都,世田谷区,北沢２丁目２７番１２号,,13,112,1550031,,,2021-09-01,清算の結了等,,,2015-10-05,1,,,,,エンジェルグループ,0
1653,6011005008071,登記記録の閉鎖等,0,2021-09-07,2021-09-02,税理士法人ケップル,,その他の設立登記法人,東京都,渋谷区,神泉町１０－１０ＶＯＲＴ渋谷神泉７階,,13,113,1500045,,,2021-09-02,清算の結了等,,,2019-05-16,1,,,,,ケップル,0
1666,6012401024447,登記記録の閉鎖等,0,2021-09-07,2021-09-01,株式会社メイク,,株式会社,東京都,世田谷区,給田３丁目１３番２７号,,13,112,1570064,,,2021-09-01,清算の結了等,,,2015-10-05,1,,,,,,0
1677,6013401000801,登記記録の閉鎖等,0,2021-09-07,2021-08-31,株式会社吉河電機,,株式会社,東京都,府中市,寿町１丁目１番地の３,,13,206,1830056,,,2021-08-31,合併による解散等,1012401005071,令和３年８月３１日東京都府中市寿町一丁目１番地の３ピエゾン株式会社（1012401005071）に合併し解散,2015-10-05,1,,,,,ヨシカワデンキ,0
1678,6020001040731,登記記録の閉鎖等,0,2021-09-07,2021-09-01,株式会社メガウェーブ,,株式会社,神奈川県,横浜市泉区,中田南２丁目１６番２１号,,14,116,2450014,,,2021-09-01,清算の結了等,,,2015-10-05,1,,,,,メガウェーブ,0
1686,6020005009731,登記記録の閉鎖等,0,2021-09-07,2021-08-31,特定非営利活動法人血液検査を推進し家庭と社会を守る会,,その他の設立登記法人,神奈川県,横浜市緑区,竹山３丁目２番地２竹山団地３２１２棟１２４５号,,14,113,2260005,,,2021-08-31,清算の結了等,,,2015-10-05,1,,,,,ケツエキケンサヲスイシンシカテイトシャカイヲマモルカイ,0
1703,6040001018486,登記記録の閉鎖等,0,2021-09-07,2021-08-31,株式会社ビーアイ・コーポレーション,,株式会社,千葉県,船橋市,芝山６丁目６２番１２号,,12,204,2740816,,,2021-08-31,清算の結了等,,,2015-10-05,1,,,,,ビーアイコーポレーション,0
1719,6050001014063,登記記録の閉鎖等,0,2021-09-07,2021-08-31,株式会社大日工業,,株式会社,茨城県,坂東市,菅谷字中島１４６９番地５,,08,228,3060505,,,2021-08-31,清算の結了等,,,2015-10-05,1,,,,,ダイニチコウギョウ,0
1720,6050001026414,登記記録の閉鎖等,0,2021-09-07,2021-09-01,株式会社のぞみ,,株式会社,茨城県,北相馬郡利根町,大字布川２０８０番地２０,,08,564,3001622,,,2021-09-01,清算の結了等,,,2015-10-05,1,,,,,ノゾミ,0
1732,6070001024531,登記記録の閉鎖等,0,2021-09-07,2021-08-31,株式会社有,,株式会社,群馬県,高崎市,上並榎町５０３番地１,,10,202,3700801,,,2021-08-31,清算の結了等,,,2015-10-05,1,,,,,ユウ,0
1752,6100002018958,登記記録の閉鎖等,0,2021-09-07,2021-09-02,有限会社イー・シー・プランニング,,有限会社,長野県,佐久市,中込１６８３番地１,,20,217,3850051,,,2021-09-02,清算の結了等,,,2015-10-05,1,,,,,イーシープランニング,0
1754,6100002029096,登記記録の閉鎖等,0,2021-09-07,2021-09-03,有限会社矢崎鉄平石,,有限会社,長野県,諏訪市,大字四賀１５１番地,,20,206,3920012,,,2021-09-03,清算の結了等,,,2015-10-05,1,,,,,ヤザキテッペイセキ,0
1782,6120902020219,登記記録の閉鎖等,0,2021-09-07,2021-09-03,有限会社リブラ・コーポレーション,,有限会社,大阪府,豊中市,千里園３丁目１５番１８号,,27,203,5600046,,,2021-09-03,清算の結了等,,,2015-10-05,1,,,,,リブラコーポレーション,0
1793,6140001051015,登記記録の閉鎖等,0,2021-09-07,2021-08-31,富士ブロツク工業株式会社,,株式会社,兵庫県,尼崎市,西立花町３丁目４番３号,,28,202,6600054,,,2021-08-31,清算の結了等,,,2015-10-05,1,,,,,フジブロックコウギョウ,0
1811,6140005015619,登記記録の閉鎖等,0,2021-09-07,2021-09-01,特定非営利活動法人あおぞら福祉会,,その他の設立登記法人,兵庫県,三田市,須磨田字野寺５３５番地３,,28,219,6691352,,,2021-09-01,清算の結了等,,,2015-10-05,1,,,,,アオゾラフクシカイ,0
1818,6180001004274,登記記録の閉鎖等,0,2021-09-07,2021-09-02,昭和産業株式会社,,株式会社,愛知県,名古屋市千種区,今池５丁目３番６号サンパーク今池,,23,101,4640850,,,2021-09-02,清算の結了等,,,2015-10-05,1,,,,,ショウワサンギョウ,0
1819,6180001005719,登記記録の閉鎖等,0,2021-09-07,2021-08-31,ヤサカ住宅株式会社,,株式会社,愛知県,名古屋市千種区,吹上２丁目３番１５号,,23,101,4640856,,,2021-08-31,清算の結了等,,,2015-10-05,1,,,,,ヤサカジュウタク,0
1864,6230001012874,登記記録の閉鎖等,0,2021-09-07,2021-09-01,山田建設工業株式会社,,株式会社,富山県,射水市,土合１３１２番地の１,,16,211,9390251,,,2021-09-01,清算の結了等,,,2015-10-05,1,,,,,ヤマダケンセツコウギョウ,0
1883,6290002012273,登記記録の閉鎖等,0,2021-09-07,2021-08-23,有限会社ニシキュウ,,有限会社,福岡県,福岡市中央区,鳥飼１丁目４番１４号５０１,,40,133,8100053,,,2021-08-23,清算の結了等,,,2015-10-05,1,,,,,ニシキュウ,0
1897,6330002020197,登記記録の閉鎖等,0,2021-09-07,2021-09-01,有限会社村上,,有限会社,熊本県,上益城郡益城町,大字広崎６６２番地２,,43,443,8612236,,,2021-09-01,清算の結了等,,,2015-10-05,1,,,,,ムラカミ,0
1900,6340002023851,登記記録の閉鎖等,0,2021-09-07,2021-09-01,有限会社鳥原製材所,,有限会社,鹿児島県,枕崎市,桜山町１５６番地,,46,204,8980061,,,2021-09-01,清算の結了等,,,2015-10-05,1,,,,,トリハラセイザイショ,0
1901,6350002018768,登記記録の閉鎖等,0,2021-09-07,2021-09-02,有限会社ワイサービス,,有限会社,宮崎県,えびの市,大字大明司１０５０番地５,,45,209,8894311,,,2021-09-02,清算の結了等,,,2015-10-05,1,,,,,ワイサービス,0
1918,6430001010123,登記記録の閉鎖等,0,2021-09-07,2021-08-27,滝本食品株式会社,,株式会社,北海道,札幌市中央区,宮の森一条１１丁目３番７号,,01,101,0640951,,,2021-08-27,清算の結了等,,,2015-10-05,1,,,,,タキモトショクヒン,0
1919,6430001078573,登記記録の閉鎖等,0,2021-09-07,2021-08-31,株式会社マクレス,,株式会社,北海道,札幌市中央区,北四条西２４丁目２－１２－３０３,,01,101,0640824,,,2021-08-31,合併による解散等,8430001065875,令和３年８月３１日札幌市中央区北四条西二十四丁目１番２４－４０５号株式会社英仁（8430001065875）に合併し解散,2019-03-25,1,,,,,マクレス,0
1923,6430002001542,登記記録の閉鎖等,0,2021-09-07,2021-08-31,有限会社石井板金,,有限会社,北海道,札幌市北区,太平十条２丁目２番２３号,,01,102,0028010,,,2021-08-31,清算の結了等,,,2015-10-05,1,,,,,イシイバンキン,0
1932,6500002017358,登記記録の閉鎖等,0,2021-09-07,2021-09-03,有限会社米今商店,,有限会社,愛媛県,新居浜市,泉宮町８番２３号,,38,205,7920021,,,2021-09-03,清算の結了等,,,2015-10-05,1,,,,,ヨネイマショウテン,0
1947,7010001204451,登記記録の閉鎖等,0,2021-09-07,2021-09-02,ＥＬＩＴＥ　ＧＲＯＵＰ　ＡＳＩＡ株式会社,,株式会社,東京都,中央区,日本橋本町３丁目３番６号日本橋ワカ末ビル７Ｆ,,13,102,1030023,,,2021-09-02,清算の結了等,,,2019-10-08,1,,,,,エリートグループアジア,0
1963,7010401123706,登記記録の閉鎖等,0,2021-09-07,2021-08-27,株式会社クリーンアシスト,,株式会社,東京都,港区,六本木７丁目３番８号,,13,103,1060032,,,2021-08-27,清算の結了等,,,2016-03-14,1,,,,,クリーンアシスト,0
1973,7010405017813,登記記録の閉鎖等,0,2021-09-07,2021-08-30,一般社団法人ＤＲＨＦ６,,その他の設立登記法人,東京都,港区,元赤坂１丁目１番７号,,13,103,1070051,,,2021-08-30,清算の結了等,,,2019-06-24,1,,,,,ディーアールエイチエフシックス,0
1978,7010901013844,登記記録の閉鎖等,0,2021-09-07,2021-09-01,伊藤精機株式会社,,株式会社,東京都,世田谷区,桜丘４丁目１４番３０号,,13,112,1560054,,,2021-09-01,清算の結了等,,,2015-10-05,1,,,,,イトウセイキ,0
2006,7012401024446,登記記録の閉鎖等,0,2021-09-07,2021-09-01,株式会社エン,,株式会社,東京都,世田谷区,給田３丁目１３番２７号,,13,112,1570064,,,2021-09-01,清算の結了等,,,2015-10-05,1,,,,,,0
2011,7012702003487,登記記録の閉鎖等,0,2021-09-07,2021-09-06,有限会社ホクエイ防災電設,,有限会社,東京都,東村山市,本町２丁目１９番地７０,,13,213,1890014,,,2021-09-06,清算の結了等,,,2015-10-05,1,,,,,ホクエイボウサイデンセツ,0
2029,7020002048228,登記記録の閉鎖等,0,2021-09-07,2021-09-01,有限会社クリエイティブヘルパーズ,,有限会社,神奈川県,横浜市港南区,日野南２丁目１０番１０号,,14,111,2340055,,,2021-09-01,清算の結了等,,,2015-10-05,1,,,,,クリエイティブヘルパーズ,0
2031,7020002061908,登記記録の閉鎖等,0,2021-09-07,2021-09-01,有限会社オカダコーポレーション,,有限会社,神奈川県,横浜市泉区,緑園６丁目５２番地の２５,,14,116,2450002,,,2021-09-01,清算の結了等,,,2015-10-05,1,,,,,オカダコーポレーション,0
2043,7040001019558,登記記録の閉鎖等,0,2021-09-07,2021-08-31,株式会社カミングホーム,,株式会社,千葉県,船橋市,北本町１丁目７番８号,,12,204,2730864,,,2021-08-31,清算の結了等,,,2015-10-05,1,,,,,カミングホーム,0
2055,7040002065007,登記記録の閉鎖等,0,2021-09-07,2021-08-31,有限会社ハルモニアハウス,,有限会社,千葉県,四街道市,もねの里３丁目２２番２７号,,12,228,2840016,,,2021-08-31,清算の結了等,,,2015-10-05,1,,,,,ハルモニアハウス,0
2079,7080402007975,登記記録の閉鎖等,0,2021-09-07,2021-09-03,有限会社水島サイザー,,有限会社,静岡県,浜松市南区,若林町２１８８番地の１,,22,134,4328051,,,2021-09-03,清算の結了等,,,2015-10-05,1,,,,,ミズシマサイザー,0
2080,7090001009959,登記記録の閉鎖等,0,2021-09-07,2021-09-01,株式会社ビラサービス,,株式会社,山梨県,富士吉田市,下吉田５丁目１５番４５号,,19,202,4030004,,,2021-09-01,清算の結了等,,,2015-10-05,1,,,,,,0
2088,7110002034152,登記記録の閉鎖等,0,2021-09-07,2021-08-31,有限会社新潟サクシード,,有限会社,新潟県,南魚沼市,浦佐４７１番地５,,15,226,9497302,,,2021-08-31,清算の結了等,,,2015-10-05,1,,,,,ニイガタサクシード,0
2091,7120001048391,登記記録の閉鎖等,0,2021-09-07,2021-08-31,株式会社リカー・フーズにしむら,,株式会社,大阪府,大阪市西区,北堀江４丁目８番１９号,,27,106,5500014,,,2021-08-31,清算の結了等,,,2015-10-05,1,,,,,リカーフーズニシムラ,0
2092,7120001060727,登記記録の閉鎖等,0,2021-09-07,2021-09-01,株式会社市来工務店,,株式会社,大阪府,大阪市北区,大淀南３丁目１０番９号,,27,127,5310075,,,2021-09-01,清算の結了等,,,2015-10-05,1,,,,,,0
2097,7120001133219,登記記録の閉鎖等,0,2021-09-07,2021-09-01,株式会社プロジェ・ジャパン,,株式会社,大阪府,大阪市中央区,久太郎町３丁目３番９号,,27,128,5410056,,,2021-09-01,清算の結了等,,,2015-10-05,1,,,,,,0
2099,7120001200233,登記記録の閉鎖等,0,2021-09-07,2021-09-01,アセプト株式会社,,株式会社,大阪府,大阪市旭区,新森７丁目４番２０号,,27,117,5350022,,,2021-09-01,清算の結了等,,,2016-08-19,1,,,,,,0
2100,7120001203459,登記記録の閉鎖等,0,2021-09-07,2021-08-31,株式会社ＡＣＡマネージメント,,株式会社,大阪府,大阪市東淀川区,下新庄５丁目７番８号,,27,114,5330021,,,2021-08-31,清算の結了等,,,2017-02-06,1,,,,,エーシーエーマネージメント,0
2127,7122001029586,登記記録の閉鎖等,0,2021-09-07,2021-09-01,ハッピーフィールド株式会社,,株式会社,大阪府,東大阪市,友井５丁目５番４０号,,27,227,5770816,,,2021-09-01,清算の結了等,,,2016-05-11,1,,,,,ハッピーフィールド,0
2130,7130001036965,登記記録の閉鎖等,0,2021-09-07,2021-09-02,山田川金糸株式会社,,株式会社,京都府,相楽郡精華町,大字山田小字上川原３６番地,,26,366,6190231,,,2021-09-02,清算の結了等,,,2015-10-05,1,,,,,ヤマダガワキンシ,0
2137,7140001113020,登記記録の閉鎖等,0,2021-09-07,2021-09-01,ダイワテレコム株式会社,,株式会社,兵庫県,川西市,清和台西３丁目４番地の６７,,28,217,6660143,,,2021-09-01,合併による解散等,8140001004895,令和３年９月１日神戸市西区大沢一丁目４番地の１昭神電設株式会社（8140001004895）に合併し解散,2019-03-15,1,,,,,ダイワテレコム,0
2160,7180001085264,登記記録の閉鎖等,0,2021-09-07,2021-09-01,サンファインウール株式会社,,株式会社,愛知県,一宮市,八幡５丁目１番１０８号,,23,203,4910903,,,2021-09-01,清算の結了等,,,2015-10-05,1,,,,,サンファインウール,0
2161,7180001088762,登記記録の閉鎖等,0,2021-09-07,2021-08-31,株式会社アイビジョン,,株式会社,愛知県,名古屋市中区,丸の内２丁目１７番１３号ＮＫ丸の内ビル２階,,23,106,4600002,,,2021-08-31,清算の結了等,,,2015-10-05,1,,,,,アイビジョン,0
2163,7180001093606,登記記録の閉鎖等,0,2021-09-07,2021-08-31,株式会社ソーワ,,株式会社,愛知県,豊明市,新田町下一ノ割７２番地４,,23,229,4701112,,,2021-08-31,合併による解散等,1180002064017,令和３年８月３１日愛知県豊明市新田町下一ノ割７２番地４ＳＡＮＥＩ株式会社（1180002064017）に合併し解散,2015-10-05,1,,,,,ソーワ,0
2175,7180002045028,登記記録の閉鎖等,0,2021-09-07,2021-09-02,有限会社ムラセ経営コンサルタンツ,,有限会社,愛知県,名古屋市中区,大井町４番２２号,,23,106,4600015,,,2021-09-02,清算の結了等,,,2015-10-05,1,,,,,ムラセケイエイコンサルタンツ,0
2181,7180302001093,登記記録の閉鎖等,0,2021-09-07,2021-09-02,有限会社玉雲閣,,有限会社,愛知県,岡崎市,六供町字西茶臼２３番地,,23,202,4440072,,,2021-09-02,清算の結了等,,,2015-10-05,1,,,,,ギョクウンカク,0
2182,7180302001309,登記記録の閉鎖等,0,2021-09-07,2021-09-03,佐藤組有限会社,,有限会社,愛知県,岡崎市,橋目町字御小屋西２４番地１,,23,202,4440909,,,2021-09-03,清算の結了等,,,2015-10-05,1,,,,,サトウグミ,0
2189,7200002024251,登記記録の閉鎖等,0,2021-09-07,2021-09-01,有限会社ヤマヤ柳屋,,有限会社,岐阜県,中津川市,付知町６９５６番地の８,,21,206,5080351,,,2021-09-01,清算の結了等,,,2015-10-05,1,,,,,ヤマヤヤナギヤ,0
2191,7220002010266,登記記録の閉鎖等,0,2021-09-07,2021-09-02,有限会社今田空調設備,,有限会社,石川県,小松市,符津町い７番地１,,17,203,9230302,,,2021-09-02,清算の結了等,,,2015-10-05,1,,,,,イマダクウチョウセツビ,0
2206,7260002014057,登記記録の閉鎖等,0,2021-09-07,2021-09-03,有限会社グローバルメディア岡山,,有限会社,岡山県,岡山市北区,北長瀬本町８番６２号,,33,101,7000961,,,2021-09-03,清算の結了等,,,2015-10-05,1,,,,,グローバルメディアオカヤマ,0
2208,7260002033627,登記記録の閉鎖等,0,2021-09-07,2021-09-01,有限会社エステック,,有限会社,岡山県,真庭市,三崎５０５番５,,33,214,7193226,,,2021-09-01,合併による解散等,5260001022723,令和３年９月１日岡山県真庭市久世１７３４番地山陽精機株式会社（5260001022723）に合併し解散,2015-10-05,1,,,,,エステック,0
2241,7330001024561,登記記録の閉鎖等,0,2021-09-07,2021-09-01,株式会社コムセンスダイニング,,株式会社,熊本県,熊本市西区,田崎町４８４番地２９,,43,103,8600058,,,2021-09-01,合併による解散等,3330001008485,令和３年９月１日熊本市西区春日三丁目１５番６０号ＪＲ熊本白川ビル４Ｆ株式会社ローカル（3330001008485）に合併し解散,2017-09-21,1,,,,,コムセンスダイニング,0
2267,7430001005007,登記記録の閉鎖等,0,2021-09-07,2021-08-30,株式会社グラン,,株式会社,北海道,札幌市中央区,北五条西２８丁目１番地,,01,101,0640825,,,2021-08-30,合併による解散等,2430001003254,令和３年８月３０日札幌市中央区北五条西二十八丁目１番地株式会社オガワ（2430001003254）に合併し解散,2015-10-05,1,,,,,グラン,0
2288,8010001052908,登記記録の閉鎖等,0,2021-09-07,2021-09-01,南明商事株式会社,,株式会社,東京都,中央区,築地７丁目１０番１１号,,13,102,1040045,,,2021-09-01,合併による解散等,7010001040392,令和３年９月１日東京都中央区築地七丁目１０番１１号勝鬨酒販株式会社（7010001040392）に合併し解散,2015-10-05,1,,,,,ナンメイショウジ,0
2294,8010001151750,登記記録の閉鎖等,0,2021-09-07,2021-08-31,株式会社ジェイプラス,,株式会社,東京都,中央区,入船３丁目１番４号,,13,102,1040042,,,2021-08-31,清算の結了等,,,2015-10-05,1,,,,,ジェイプラス,0
2336,8011101009013,登記記録の閉鎖等,0,2021-09-07,2021-08-30,シチズンプラザ株式会社,,株式会社,東京都,新宿区,高田馬場４丁目２９番２７号,,13,104,1690075,,,2021-08-30,清算の結了等,,,2015-10-05,1,,,,,シチズンプラザ,0
2357,8012401007722,登記記録の閉鎖等,0,2021-09-07,2021-09-01,斉藤石油株式会社,,株式会社,東京都,調布市,小島町３丁目７２番地１,,13,208,1820026,,,2021-09-01,清算の結了等,,,2015-10-05,1,,,,,サイトウセキユ,0
2358,8012401019585,登記記録の閉鎖等,0,2021-09-07,2021-08-30,株式会社ＯＳＣ,,株式会社,東京都,武蔵野市,吉祥寺北町１丁目３１番４号,,13,203,1800001,,,2021-08-30,清算の結了等,,,2015-10-05,1,,,,,,0
2370,8020001129787,登記記録の閉鎖等,0,2021-09-07,2021-09-01,のぞみ東京株式会社,,株式会社,神奈川県,横浜市中区,山下町２３番地日土地山下町ビル９階,,14,104,2310023,,,2021-09-01,合併による解散等,4020001086446,令和３年９月１日神奈川県横浜市中区山下町２３番地日土地山下町ビル９階のぞみ株式会社（4020001086446）に合併し解散,2019-02-06,1,,,,,ノゾミトウキョウ,0
2400,8040001094600,登記記録の閉鎖等,0,2021-09-07,2021-08-31,株式会社みかど工務店,,株式会社,千葉県,千葉市若葉区,高品町９２１番地１８,,12,104,2640024,,,2021-08-31,清算の結了等,,,2016-04-01,1,,,,,ミカドコウムテン,0
2403,8040002097858,登記記録の閉鎖等,0,2021-09-07,2021-09-01,有限会社アオキ造園,,有限会社,千葉県,野田市,関宿町１２２５番地,,12,208,2700206,,,2021-09-01,清算の結了等,,,2015-10-05,1,,,,,アオキゾウエン,0
2404,8040002101082,登記記録の閉鎖等,0,2021-09-07,2021-08-30,有限会社三橋コンタクトレンズ,,有限会社,千葉県,鴨川市,横渚４３７番地,,12,223,2960001,,,2021-08-30,清算の結了等,,,2015-10-05,1,,,,,ミツハシコンタクトレンズ,0
2408,8050001001051,登記記録の閉鎖等,0,2021-09-07,2021-09-02,サンケイボウル株式会社,,株式会社,茨城県,水戸市,千波町３８２番地１９,,08,201,3100851,,,2021-09-02,清算の結了等,,,2015-10-05,1,,,,,サンケイボウル,0
2409,8050001013113,登記記録の閉鎖等,0,2021-09-07,2021-09-01,株式会社雪村ヒューマン,,株式会社,茨城県,土浦市,卸町１丁目７番７号,,08,203,3000847,,,2021-09-01,清算の結了等,,,2015-10-05,1,,,,,ユキムラヒューマン,0
2447,8110001009468,登記記録の閉鎖等,0,2021-09-07,2021-09-01,株式会社共和代行,,株式会社,新潟県,新潟市東区,津島屋７丁目１４５番地,,15,102,9500801,,,2021-09-01,清算の結了等,,,2015-10-05,1,,,,,キョウワダイコウ,0
2449,8110005014027,登記記録の閉鎖等,0,2021-09-07,2021-08-31,瓜生屋生産森林組合,,その他の設立登記法人,新潟県,佐渡市,新穂瓜生屋６９７番地３,,15,224,9520106,,,2021-08-31,清算の結了等,,,2015-10-05,1,,,,,ウリュウヤ,0
2454,8120001131080,登記記録の閉鎖等,0,2021-09-07,2021-09-02,アプリ株式会社,,株式会社,大阪府,羽曳野市,古市６丁目１２番１９号,,27,222,5830852,,,2021-09-02,清算の結了等,,,2015-10-05,1,,,,,アプリ,0
2464,8120002024069,登記記録の閉鎖等,0,2021-09-07,2021-08-31,有限会社堤下不動産,,有限会社,大阪府,大阪市西淀川区,野里２丁目６番２０号,,27,113,5550024,,,2021-08-31,清算の結了等,,,2015-10-05,1,,,,,テイカフドウサン,0
2475,8120901018055,登記記録の閉鎖等,0,2021-09-07,2021-09-06,石倉システム株式会社,,株式会社,大阪府,摂津市,新在家１丁目３０番２０号,,27,224,5660055,,,2021-09-06,清算の結了等,,,2015-10-05,1,,,,,,0
2517,8180001135506,登記記録の閉鎖等,0,2021-09-07,2021-09-01,カノン株式会社,,株式会社,愛知県,江南市,高屋町西町３０番地,,23,217,4838066,,,2021-09-01,清算の結了等,,,2019-02-21,1,,,,,カノン,0
2523,8180002078811,登記記録の閉鎖等,0,2021-09-07,2021-09-01,有限会社日健開発,,有限会社,愛知県,一宮市,奥町字宮南１８２番地,,23,203,4910201,,,2021-09-01,清算の結了等,,,2015-10-05,1,,,,,ニッケンカイハツ,0
2529,8190001020590,登記記録の閉鎖等,0,2021-09-07,2021-09-03,株式会社ケアサービスたんぽぽ,,株式会社,三重県,志摩市,阿児町神明字中田８７８番地１０２,,24,215,5170502,,,2021-09-03,清算の結了等,,,2015-10-05,1,,,,,ケアサービスタンポポ,0
2532,8200001033302,登記記録の閉鎖等,0,2021-09-07,2021-09-03,株式会社クリーンエネルギー武雄,,株式会社,岐阜県,関市,日ノ出町１丁目１１番地,,21,205,5013873,,,2021-09-03,清算の結了等,,,2016-09-29,1,,,,,クリーンエネルギータケオ,0
2536,8230001015066,登記記録の閉鎖等,0,2021-09-07,2021-09-01,株式会社タイヨー紙工,,株式会社,富山県,中新川郡立山町,利田１８３番地１,,16,323,9300275,,,2021-09-01,合併による解散等,6230001001539,令和３年９月１日富山県中新川郡立山町利田１８３番地１株式会社タイヨーパッケージ（6230001001539）に合併し解散,2015-10-05,1,,,,,タイヨーシコウ,0
2553,8270002005228,登記記録の閉鎖等,0,2021-09-07,2021-08-18,有限会社荒尾商事,,有限会社,鳥取県,米子市,西福原４丁目１０番１４号,,31,202,6830805,,,2021-08-18,清算の結了等,,,2015-10-05,1,,,,,アラオショウジ,0
2560,8300005006491,登記記録の閉鎖等,0,2021-09-07,2021-08-31,特定非営利活動法人アジアパシフィックアライアンス・ジャパン,,その他の設立登記法人,佐賀県,佐賀市,松原１丁目３番５号まるなかビル６階,,41,201,8400831,,,2021-08-31,清算の結了等,,,2015-11-18,1,,,,,アジアパシフィックアライアンスジャパン,0
2562,8310002000562,登記記録の閉鎖等,0,2021-09-07,2021-09-03,有限会社岩丸,,有限会社,長崎県,長崎市,尾上町２番６号,,42,201,8500058,,,2021-09-03,清算の結了等,,,2015-10-05,1,,,,,イワマル,0
2576,8350002000360,登記記録の閉鎖等,0,2021-09-07,2021-09-03,有限会社いしかわ内装,,有限会社,宮崎県,宮崎市,大塚台西３丁目２５番地１４,,45,201,8802105,,,2021-09-03,清算の結了等,,,2015-10-05,1,,,,,イシカワナイソウ,0
2587,8370001041222,登記記録の閉鎖等,0,2021-09-07,2021-09-01,株式会社食育パートナーズ,,株式会社,宮城県,仙台市青葉区,下愛子字観音堂２８番地,,04,101,9893125,,,2021-09-01,清算の結了等,,,2017-04-06,1,,,,,ショクイクパートナーズ,0
2597,8400002009116,登記記録の閉鎖等,0,2021-09-07,2021-09-02,有限会社岩手カーサービス,,有限会社,岩手県,北上市,成田２８地割１６番地２,,03,206,0240003,,,2021-09-02,清算の結了等,,,2015-10-05,1,,,,,イワテカーサービス,0
2603,8430003008320,登記記録の閉鎖等,0,2021-09-07,2021-08-16,Ｅａｒｔｈ　Ｃｌｏｕｄホールディングス合同会社,,合同会社,北海道,札幌市西区,山の手三条１０丁目２番１８号,,01,107,0630003,,,2021-08-16,清算の結了等,,,2017-04-05,1,,,,,アースクラウドホールディングス,0
2619,9010001089404,登記記録の閉鎖等,0,2021-09-07,2021-09-01,シューテックオカモト株式会社,,株式会社,東京都,文京区,本郷３丁目２７番１２号,,13,105,1130033,,,2021-09-01,合併による解散等,8010001001559,令和３年９月１日東京都文京区本郷三丁目２７番１２号オカモト通商株式会社（8010001001559）に合併し解散,2015-10-05,1,,,,,シューテックオカモト,0
2622,9010001159826,登記記録の閉鎖等,0,2021-09-07,2021-09-02,株式会社ＦＡＭ,,株式会社,東京都,千代田区,永田町２丁目１４番３号,,13,101,1000014,,,2021-09-02,合併による解散等,9010001157029,令和３年９月１日東京都千代田区神田錦町二丁目４番６号株式会社エフエーエイチ（9010001157029）に合併し解散,2015-10-05,1,,,,,,0
2632,9010005027608,登記記録の閉鎖等,0,2021-09-07,2021-09-01,一般社団法人桑名ロジ,,その他の設立登記法人,東京都,千代田区,内神田２丁目６番１１号,,13,101,1010047,,,2021-09-01,清算の結了等,,,2017-10-19,1,,,,,クワナロジ,0
2643,9010403020940,登記記録の閉鎖等,0,2021-09-07,2021-08-30,合同会社東京ホテルマネジメント６,,合同会社,東京都,港区,元赤坂１丁目１番７号,,13,103,1070051,,,2021-08-30,清算の結了等,,,2019-06-24,1,,,,,トウキョウホテルマネジメントシックス,0
2646,9010501005496,登記記録の閉鎖等,0,2021-09-07,2021-09-01,株式会社渋谷製作所,,株式会社,東京都,台東区,東上野３丁目１１番６号,,13,106,1100015,,,2021-09-01,清算の結了等,,,2015-10-05,1,,,,,シブヤセイサクショ,0
2651,9010502010140,登記記録の閉鎖等,0,2021-09-07,2021-09-01,有限会社細田ビル管理,,有限会社,東京都,台東区,上野７丁目４番９号,,13,106,1100005,,,2021-09-01,清算の結了等,,,2015-10-05,1,,,,,ホソダビルカンリ,0
2662,9010901026852,登記記録の閉鎖等,0,2021-09-07,2021-09-01,ＰＨＫ２コンサルティング株式会社,,株式会社,東京都,世田谷区,駒沢５丁目１６番１１－３０８号,,13,112,1540012,,,2021-09-01,清算の結了等,,,2015-10-05,1,,,,,ピーエイチケーツーコンサルティング,0
2671,9011101048308,登記記録の閉鎖等,0,2021-09-07,2021-08-23,株式会社オーソプランニング,,株式会社,東京都,渋谷区,神宮前１丁目２３番８－２０５号ブリスベージュ神宮前,,13,113,1500001,,,2021-08-23,清算の結了等,,,2015-10-05,1,,,,,オーソプランニング,0
2677,9011501008340,登記記録の閉鎖等,0,2021-09-07,2021-09-03,パン・リビング株式会社,,株式会社,東京都,荒川区,東日暮里２丁目２９番２号,,13,118,1160014,,,2021-09-03,清算の結了等,,,2015-10-05,1,,,,,パンリビング,0
2686,9012701008709,登記記録の閉鎖等,0,2021-09-07,2021-09-03,パンピー食品株式会社,,株式会社,東京都,小平市,天神町４丁目１番１号,,13,211,1870004,,,2021-09-03,清算の結了等,,,2015-10-05,1,,,,,パンピーショクヒン,0
2687,9012701009814,登記記録の閉鎖等,0,2021-09-07,2021-09-06,株式会社ＰＲＯＢＥ,,株式会社,東京都,清瀬市,旭が丘２丁目２番４－４０４号,,13,221,2040002,,,2021-09-06,清算の結了等,,,2015-10-05,1,,,,,プローヴ,0
2709,9020001134266,登記記録の閉鎖等,0,2021-09-07,2021-09-01,のぞみ千葉株式会社,,株式会社,神奈川県,横浜市中区,山下町２３番地日土地山下町ビル９階,,14,104,2310023,,,2021-09-01,合併による解散等,4020001086446,令和３年９月１日神奈川県横浜市中区山下町２３番地日土地山下町ビル９階のぞみ株式会社（4020001086446）に合併し解散,2020-01-06,1,,,,,ノゾミチバ,0
2718,9021002024654,登記記録の閉鎖等,0,2021-09-07,2021-09-01,有限会社ミューコム,,有限会社,神奈川県,相模原市緑区,相原５丁目４番１２号,,14,151,2520141,,,2021-09-01,清算の結了等,,,2015-10-05,1,,,,,ミューコム,0
2721,9021002056904,登記記録の閉鎖等,0,2021-09-07,2021-09-01,有限会社上林デザイン企画,,有限会社,神奈川県,平塚市,明石町二丁目２７番地ハイホーム湘南平塚５０１号室,,14,203,2540042,,,2021-09-01,清算の結了等,,,2015-10-05,1,,,,,カミバヤシデザインキカク,0
2739,9040003005554,登記記録の閉鎖等,0,2021-09-07,2021-09-01,ゴールデンバウム合同会社,,合同会社,千葉県,市川市,北国分３丁目２０番５号,,12,203,2720836,,,2021-09-01,清算の結了等,,,2015-10-05,1,,,,,ゴールデンバウム,0
2751,9060002009001,登記記録の閉鎖等,0,2021-09-07,2021-08-30,有限会社モトショップホシノ,,有限会社,栃木県,宇都宮市,野沢町３７８番地１,,09,201,3200071,,,2021-08-30,清算の結了等,,,2015-10-05,1,,,,,,0
2754,9070001024256,登記記録の閉鎖等,0,2021-09-07,2021-08-31,株式会社ナスカ,,株式会社,群馬県,邑楽郡大泉町,大字寄木戸１２０番地の２,,10,524,3700535,,,2021-08-31,合併による解散等,5070001034341,令和３年８月３１日群馬県邑楽郡大泉町坂田五丁目１番２号株式会社サイマ（5070001034341）に合併し解散,2015-10-05,1,,,,,ナスカ,0
2758,9070002031400,登記記録の閉鎖等,0,2021-09-07,2021-09-01,ユウクリエイティブ株式会社,,株式会社,群馬県,太田市,飯塚町１４３４番地１,,10,205,3730817,,,2021-09-01,合併による解散等,2070001018710,令和３年９月１日群馬県太田市飯塚町１４３４番地１イトイ株式会社（2070001018710）に合併し解散,2015-10-05,1,,,,,ユウクリエイティブ,0
2760,9070002034535,登記記録の閉鎖等,0,2021-09-07,2021-09-01,有限会社ダーリングハーバー,,有限会社,群馬県,太田市,龍舞町５１０７番地,,10,205,3730806,,,2021-09-01,合併による解散等,9070001022557,令和３年９月１日群馬県太田市龍舞町５１０７番地株式会社小江戸観光（9070001022557）に合併し解散,2015-10-05,1,,,,,ダーリングハーバー,0
2767,9080402006876,登記記録の閉鎖等,0,2021-09-07,2021-09-03,福岡設計有限会社,,有限会社,静岡県,浜松市南区,若林町２２１３番地の７,,22,134,4328051,,,2021-09-03,清算の結了等,,,2015-10-05,1,,,,,フクオカセッケイ,0
2781,9120001001092,登記記録の閉鎖等,0,2021-09-07,2021-08-31,ベルモントマンション株式会社,,株式会社,大阪府,大阪市旭区,高殿４丁目２０番１号,,27,117,5350031,,,2021-08-31,清算の結了等,,,2015-10-05,1,,,,,ベルモントマンション,0
2788,9120001155830,登記記録の閉鎖等,0,2021-09-07,2021-09-01,三郷金属工業株式会社,,株式会社,大阪府,守口市,寺方本通２丁目１３番１７号,,27,209,5700048,,,2021-09-01,清算の結了等,,,2015-10-05,1,,,,,,0
2802,9120002075458,登記記録の閉鎖等,0,2021-09-07,2021-09-01,有限会社ファニッシュ,,有限会社,大阪府,交野市,私市５丁目１８番１９号,,27,230,5760033,,,2021-09-01,清算の結了等,,,2015-10-05,1,,,,,ファニッシュ,0
2811,9120901016462,登記記録の閉鎖等,0,2021-09-07,2021-09-06,株式会社ケンコウ,,株式会社,大阪府,吹田市,山田南６番３号,,27,205,5650823,,,2021-09-06,清算の結了等,,,2015-10-05,1,,,,,ケンコウ,0
2843,9150005005401,登記記録の閉鎖等,0,2021-09-07,2021-07-12,天理教修二分教会,,その他の設立登記法人,奈良県,磯城郡田原本町,大字大安寺３６８番地の４,,29,363,6360248,,,2021-07-12,合併による解散等,2150005005390,令和３年７月１２日奈良県磯城郡田原本町大字多３４６番地天理教和修分教会（2150005005390）に合併し解散,2015-10-05,1,,,,,テンリキョウシュウニブンキョウカイ,0
2846,9170002005765,登記記録の閉鎖等,0,2021-09-07,2021-09-06,有限会社ティー・テック,,有限会社,和歌山県,和歌山市,吹屋町３丁目３１番地の３４,,30,201,6408324,,,2021-09-06,清算の結了等,,,2015-10-05,1,,,,,ティーテック,0
2860,9180002090988,登記記録の閉鎖等,0,2021-09-07,2021-09-01,有限会社ピュアー,,有限会社,愛知県,海部郡蟹江町,今本町通２０番地,,23,425,4970000,,,2021-09-01,合併による解散等,7180002051224,令和３年９月１日名古屋市東区泉二丁目２６番２号キョーワ薬局株式会社（7180002051224）に合併し解散,2015-10-05,1,,,,,ピュアー,0
2872,9200002023838,登記記録の閉鎖等,0,2021-09-07,2021-09-03,有限会社すずむら木工,,有限会社,岐阜県,恵那市,中野方町１７９番地の５,,21,210,5098231,,,2021-09-03,清算の結了等,,,2015-10-05,1,,,,,スズムラモッコウ,0
2875,9220005005261,登記記録の閉鎖等,0,2021-09-07,2021-09-01,特定非営利活動法人清寿会,,その他の設立登記法人,石川県,七尾市,矢田町卯部５番地,,17,202,9260014,,,2021-09-01,清算の結了等,,,2015-10-05,1,,,,,セイジュカイ,0
2885,9240003005138,登記記録の閉鎖等,0,2021-09-07,2021-09-01,合同会社陽喜,,合同会社,広島県,福山市,坪生町２丁目３番１５号,,34,207,7210903,,,2021-09-01,清算の結了等,,,2021-06-11,1,,,,,ヨウキ,0
2891,9270001007389,登記記録の閉鎖等,0,2021-09-07,2021-08-24,株式会社ｅｉｇｈｔ,,株式会社,鳥取県,米子市,末広町３１１,,31,202,6830043,,,2021-08-24,清算の結了等,,,2017-10-19,1,,,,,エイト,0
2905,9340002006093,登記記録の閉鎖等,0,2021-09-07,2021-09-02,有限会社谷山コンピューター会計,,有限会社,鹿児島県,鹿児島市,荒田１丁目３５番１４号,,46,201,8900054,,,2021-09-02,清算の結了等,,,2015-10-05,1,,,,,タニヤマコンピューターカイケイ,0
2913,9380001027450,登記記録の閉鎖等,0,2021-09-07,2021-08-31,ＭＹ　ＡＬＬ株式会社,,株式会社,福島県,郡山市,駅前２丁目１０番１９号エリート３１ビル５Ｆ,,07,203,9638002,,,2021-08-31,清算の結了等,,,2016-10-27,1,,,,,マイオール,0
2927,9430002020622,登記記録の閉鎖等,0,2021-09-07,2021-09-01,有限会社山大誠屋,,有限会社,北海道,札幌市中央区,北一条東１１丁目２２番地,,01,101,0600031,,,2021-09-01,清算の結了等,,,2015-10-05,1,,,,,ヤマダイマコトヤ,0
2936,9490002005502,登記記録の閉鎖等,0,2021-09-07,2021-09-02,有限会社横山製麩所,,有限会社,高知県,高知市,愛宕町２丁目１５番１１号,,39,201,7800051,,,2021-09-02,清算の結了等,,,2015-10-05,1,,,,,,0
2941,9500002007843,登記記録の閉鎖等,0,2021-09-07,2021-09-06,有限会社愛媛ビルサービス,,有限会社,愛媛県,松山市,美沢１丁目１番２３号,,38,201,7918022,,,2021-09-06,清算の結了等,,,2015-10-05,1,,,,,エヒメビルサービス,0
