sequenceNumber,corporateNumber,process,correct,updateDate,changeDate,name,nameImageId,kind,prefectureName,cityName,streetNumber,addressImageId,prefectureCode,cityCode,postCode,addressOutside,addressOutsideImageId,closeDate,closeCause,successorCorporateNumber,changeCause,assignmentDate,latest,enName,enPrefectureName,enCityName,enAddressOutside,furigana,hihyoji
13,1010001226369,新規,0,2022-05-09,2022-05-09,ｋａｆｅｉｄｏ株式会社,,株式会社,東京都,中央区,日本橋小舟町３番５号,,13,102,1030024,,,,,,,2022-05-09,1,,,,,カフェイド,0
14,1010001226443,新規,0,2022-05-09,2022-05-09,株式会社ティー・エム,,株式会社,東京都,中央区,日本橋本町３丁目１番４号,,13,102,1030023,,,,,,,2022-05-09,1,,,,,ティーエム,0
16,1010003037566,新規,0,2022-05-09,2022-05-09,ＲＢソーラーブルック合同会社,,合同会社,東京都,中央区,八丁堀４丁目２番１０号ＡＯＪ税理士法人内,,13,102,1040032,,,,,,,2022-05-09,1,,,,,,0
17,1010003037590,新規,0,2022-05-09,2022-05-09,合同会社Ｃ２,,合同会社,東京都,中央区,銀座１丁目２２番１１号,,13,102,1040061,,,,,,,2022-05-09,1,,,,,シーツー,0
18,1010003037632,新規,0,2022-05-09,2022-05-09,合同会社リライブ,,合同会社,東京都,中央区,銀座１丁目１２－４Ｎ＆Ｅ．ＢＬＤ．７階,,13,102,1040061,,,,,,,2022-05-09,1,,,,,リライブ,0
21,1010105002162,新規,0,2022-05-09,2022-05-09,一般社団法人ＳＤＧｓイベント実行委員会,,その他の設立登記法人,東京都,八王子市,元八王子町３丁目２５０３番地１第２英光マンション２０３号,,13,201,1930826,,,,,,,2022-05-09,1,,,,,エスディージーズイベントジッコウイインカイ,0
29,1010401167205,新規,0,2022-05-09,2022-05-09,株式会社ＷＥＢ３ＲＥＳＥＡＲＣＨ　ＬＡＢ,,株式会社,東京都,港区,西麻布１丁目１２番９－８０２号,,13,103,1060031,,,,,,,2022-05-09,1,,,,,ウェブスリーリサーチラボ,0
31,1010403027613,新規,0,2022-05-09,2022-05-09,Ｏｎｅ　Ａｓｉａ　Ｍｕｓｉｃ合同会社,,合同会社,東京都,港区,高輪２丁目２番２１－５０４号,,13,103,1080074,,,,,,,2022-05-09,1,,,,,ワンアジアミュージック,0
32,1010405020938,新規,0,2022-05-09,2022-05-09,一般社団法人自然共生化社会研究会,,その他の設立登記法人,東京都,港区,赤坂９丁目５番１５号,,13,103,1070052,,,,,,,2022-05-09,1,,,,,シゼンキョウセイカシャカイケンキュウカイ,0
36,1010701042586,新規,0,2022-05-09,2022-05-09,株式会社ｔａａｃｈｉ,,株式会社,東京都,品川区,大井１丁目２４番１０号,,13,109,1400014,,,,,,,2022-05-09,1,,,,,ターチ,0
41,1010801032933,新規,0,2022-05-09,2022-05-09,リビングスタイルアーキテクト株式会社,,株式会社,東京都,大田区,田園調布１丁目１４番１５号,,13,111,1450071,,,,,,,2022-05-09,1,,,,,リビングスタイルアーキテクト,0
45,1010901050810,新規,0,2022-05-09,2022-05-09,株式会社ＮＡＫｗｏｒｋｓ,,株式会社,東京都,世田谷区,新町２丁目８番５号,,13,112,1540014,,,,,,,2022-05-09,1,,,,,エヌエーケーワークス,0
47,1011001147299,新規,0,2022-05-09,2022-05-09,株式会社Ｒａｉｎｂｏｗ　Ｃｉｒｃｌｅ,,株式会社,東京都,渋谷区,円山町５番５号Ｎａｖｉ渋谷Ｖ３階,00126477,13,113,1500044,,,,,,,2022-05-09,1,,,,,レインボーサークル,0
48,1011001147332,新規,0,2022-05-09,2022-05-09,Ｊａｄｅ　Ｊａｐａｎ株式会社,,株式会社,東京都,渋谷区,神宮前４丁目９番５号オカニワ表参道ビル２Ｆ,,13,113,1500001,,,,,,,2022-05-09,1,,,,,ジェイドジャパン,0
50,1011003014588,新規,0,2022-05-09,2022-05-09,Ｍ．Ｃｏｒｐｏｒａｔｉｏｎ合同会社,,合同会社,東京都,目黒区,自由が丘１丁目２２―４,,13,110,1520035,,,,,,,2022-05-09,1,,,,,エムコーポレーション,0
62,1011101098649,新規,0,2022-05-09,2022-05-09,太洋建設株式会社,,株式会社,東京都,新宿区,高田馬場３丁目１８番２号,,13,104,1690075,,,,,,,2022-05-09,1,,,,,タイヨウケンセツ,0
63,1011101098772,新規,0,2022-05-09,2022-05-09,株式会社シビルデザイン,,株式会社,東京都,新宿区,榎町３５番地三四郎ビル４階,,13,104,1620806,,,,,,,2022-05-09,1,,,,,シビルデザイン,0
67,1011603003593,新規,0,2022-05-09,2022-05-09,ＦＵＮ企画合同会社,,合同会社,東京都,練馬区,春日町２丁目５番３０－２０１号,,13,120,1790074,,,,,,,2022-05-09,1,,,,,ファンキカク,0
69,1012401039160,新規,0,2022-05-09,2022-05-09,株式会社ＯＮＥ　ＣｒｅａＳｏｎ,,株式会社,東京都,三鷹市,新川６丁目１６番５号,,13,204,1810004,,,,,,,2022-05-09,1,,,,,ワンクリーズン,0
70,1012401039177,新規,0,2022-05-09,2022-05-09,株式会社ＳＨＯＷＨＡＫＵ,,株式会社,東京都,三鷹市,大沢１丁目１８番１０号,,13,204,1810015,,,,,,,2022-05-09,1,,,,,ショウハク,0
71,1012803002765,新規,0,2022-05-09,2022-05-09,合同会社Ｃｏｌｏｕｒ,,合同会社,東京都,東大和市,清水５丁目１００３番地の４２,,13,220,2070004,,,,,,,2022-05-09,1,,,,,,0
72,1013103001128,新規,0,2022-05-09,2022-05-09,合同会社ｔａｎａｋａ　ｃｏｍｐａｎｙ,,合同会社,東京都,青梅市,大門３丁目６番地の９,,13,205,1980014,,,,,,,2022-05-09,1,,,,,タナカカンパニー,0
78,1020001146450,新規,0,2022-05-09,2022-05-09,株式会社Ｗｏｒｋｅｒ,,株式会社,神奈川県,川崎市川崎区,浜町１丁目１１番１－３０１号,,14,131,2100851,,,,,,,2022-05-09,1,,,,,ワーカー,0
80,1020003021718,新規,0,2022-05-09,2022-05-09,みなとみらい鍼灸ラボ合同会社,,合同会社,神奈川県,横浜市中区,根岸町２丁目８５番地５ハートビートベース横濱根岸６４９号室,,14,104,2310836,,,,,,,2022-05-09,1,,,,,ミナトミライシンキュウラボ,0
81,1020003021734,新規,0,2022-05-09,2022-05-09,リアクト合同会社,,合同会社,神奈川県,横浜市旭区,左近山１７１番地７左近山団地４街区１４棟１０１号,,14,112,2410831,,,,,,,2022-05-09,1,,,,,リアクト,0
82,1020003021742,新規,0,2022-05-09,2022-05-09,合同会社武蔵,,合同会社,神奈川県,横浜市鶴見区,下末吉２丁目２４番３－３１８号,,14,101,2300012,,,,,,,2022-05-09,1,,,,,ムサシ,0
89,1021001075846,新規,0,2022-05-09,2022-05-09,神無月株式会社,,株式会社,神奈川県,相模原市中央区,陽光台２丁目１３番６－２号,,14,152,2520226,,,,,,,2022-05-09,1,,,,,カンナヅキ,0
90,1021001075895,新規,0,2022-05-09,2022-05-09,未来・総合株式会社,,株式会社,神奈川県,藤沢市,大庭５４３２番地の１０ラ・ヴィ・クレールＩ・２０３,00126467,14,205,2510861,,,,,,,2022-05-09,1,,,,,ミライソウゴウ,0
91,1021001075912,新規,0,2022-05-09,2022-05-09,ＴＳプランニング株式会社,,株式会社,神奈川県,海老名市,河原口２丁目２９番１８－５０４号,,14,215,2430433,,,,,,,2022-05-09,1,,,,,ティーエスプランニング,0
95,1021005012507,新規,0,2022-05-09,2022-05-09,医療法人社団聖心会,,その他の設立登記法人,神奈川県,大和市,大和東１丁目３番１５号太陽ビル第２０－５階,,14,213,2420017,,,,,,,2022-05-09,1,,,,,ミココロカイ,0
108,1040001123308,新規,0,2022-05-09,2022-05-09,株式会社ナカガミ,,株式会社,千葉県,千葉市美浜区,打瀬１丁目２番地３セントラルパーク・ウエストシータワー２５０５号,,12,106,2610013,,,,,,,2022-05-09,1,,,,,ナカガミ,0
109,1040001123316,新規,0,2022-05-09,2022-05-09,株式会社ＪＩｎｄｕｓｔｒｉｅｓ,,株式会社,千葉県,船橋市,北本町２丁目５２－２９,,12,204,2730864,,,,,,,2022-05-09,1,,,,,ジェイインダストリーズ,0
117,1040003019925,新規,0,2022-05-09,2022-05-09,合同会社レイタカ,,合同会社,千葉県,船橋市,三咲２丁目４－３４,,12,204,2740812,,,,,,,2022-05-09,1,,,,,レイタカ,0
120,1040005021581,新規,0,2022-05-09,2022-05-09,一般社団法人ｍｏｇｍｏｇ　ｅｎｇｉｎｅ,,その他の設立登記法人,千葉県,松戸市,五香西２丁目３０番地の２６,,12,207,2702218,,,,,,,2022-05-09,1,,,,,モグモグエンジン,0
121,1040005021598,新規,0,2022-05-09,2022-05-09,医療法人社団ＹＧＣ,,その他の設立登記法人,千葉県,八千代市,緑が丘西１丁目１５番４号,,12,221,2760040,,,,,,,2022-05-09,1,,,,,ワイジーシー,0
122,1050001051045,新規,0,2022-05-09,2022-05-09,株式会社Ｋ‐ＴＥＣ,,株式会社,茨城県,水戸市,鯉淵町１７１５番地１２,,08,201,3190323,,,,,,,2022-05-09,1,,,,,ケーテック,0
125,1060001034833,新規,0,2022-05-09,2022-05-09,株式会社若菜畜産,,株式会社,栃木県,栃木市,大平町下高島５８６番地,,09,203,3294414,,,,,,,2022-05-09,1,,,,,ワカナチクサン,0
127,1060003004066,新規,0,2022-05-09,2022-05-09,合同会社サウヴ,,合同会社,栃木県,足利市,福居町１５９９番地１レナジア福居３０２,,09,202,3260338,,,,,,,2022-05-09,1,,,,,サウヴ,0
128,1070001039195,新規,0,2022-05-09,2022-05-09,株式会社みなかみＳＯＵＬ,,株式会社,群馬県,利根郡みなかみ町,須川９９０番地１,,10,449,3791418,,,,,,,2022-05-09,1,,,,,ミナカミソウル,0
129,1070003004478,新規,0,2022-05-09,2022-05-09,合同会社山口,,合同会社,群馬県,高崎市,上佐野町３番地３,,10,202,3700857,,,,,,,2022-05-09,1,,,,,ヤマグチ,0
131,1080001024915,新規,0,2022-05-09,2022-05-09,株式会社エイチワーカー,,株式会社,静岡県,静岡市清水区,八坂北１丁目２番３５号,,22,103,4240023,,,,,,,2022-05-09,1,,,,,エイチワーカー,0
133,1080101023255,新規,0,2022-05-09,2022-05-09,株式会社田勝鋼業,,株式会社,静岡県,富士宮市,中央町８番９号,,22,207,4180065,,,,,,,2022-05-09,1,,,,,デンショウコウギョウ,0
134,1080101023263,新規,0,2022-05-09,2022-05-09,株式会社柳屋自動車,,株式会社,静岡県,富士市,南松野２０１１,,22,210,4213303,,,,,,,2022-05-09,1,,,,,ヤナギヤジドウシャ,0
136,1080103002579,新規,0,2022-05-09,2022-05-09,合同会社大事な人へ,,合同会社,静岡県,田方郡函南町,平井１７５３番地の１３７３,,22,325,4190107,,,,,,,2022-05-09,1,,,,,ダイジナヒトヘ,0
139,1080401025785,新規,0,2022-05-09,2022-05-09,株式会社うちマッチ,,株式会社,静岡県,浜松市中区,萩丘４丁目２０番２４号,,22,131,4338121,,,,,,,2022-05-09,1,,,,,ウチマッチ,0
158,1120001245498,新規,0,2022-05-09,2022-05-09,豊運株式会社,,株式会社,大阪府,大阪市天王寺区,空清町４－１１杉野ビル本館２０５号室,,27,109,5430018,,,,,,,2022-05-09,1,,,,,ホウウン,0
159,1120001245589,新規,0,2022-05-09,2022-05-09,ＰＳ株式会社,,株式会社,大阪府,大阪市北区,中之島２丁目３番３３号大阪三井物産ビル１３階,,27,127,5300005,,,,,,,2022-05-09,1,,,,,ピーエス,0
160,1120001245622,新規,0,2022-05-09,2022-05-09,株式会社ソデモリ,,株式会社,大阪府,大阪市西区,南堀江２丁目５番３号ＢＲＡＶＩ南堀江４０１号,,27,106,5500015,,,,,,,2022-05-09,1,,,,,ソデモリ,0
161,1120001245647,新規,0,2022-05-09,2022-05-09,株式会社Ｐｅｏｐｌｅ　Ｗａｔｃｈｅｒｓ,,株式会社,大阪府,大阪市北区,浪花町１３－３３浪花町ビル４階,,27,127,5300022,,,,,,,2022-05-09,1,,,,,ピープルウォッチャーズ,0
162,1120001245663,新規,0,2022-05-09,2022-05-09,株式会社Ｎａｏ　Ｇａｍｅｓ,,株式会社,大阪府,大阪市城東区,鴫野西５丁目２１番１９号,,27,118,5360014,,,,,,,2022-05-09,1,,,,,ナオゲームス,0
163,1120001245696,新規,0,2022-05-09,2022-05-09,株式会社茨木建設,,株式会社,大阪府,大阪市都島区,毛馬町５丁目１番１０号,,27,102,5340001,,,,,,,2022-05-09,1,,,,,イバラキケンセツ,0
164,1120001245713,新規,0,2022-05-09,2022-05-09,榊原不動産株式会社,00126473,株式会社,大阪府,大阪市西成区,玉出西２丁目１３番２７号,,27,122,5570045,,,,,,,2022-05-09,1,,,,,サカキバラフドウサン,0
165,1120001245721,新規,0,2022-05-09,2022-05-09,株式会社パーソナルフロンティア,,株式会社,大阪府,大阪市北区,大深町３番１号,,27,127,5300011,,,,,,,2022-05-09,1,,,,,パーソナルフロンティア,0
166,1120001245762,新規,0,2022-05-09,2022-05-09,株式会社Ｖｅｒｔｅｘ　Ｊａｐａｎ,,株式会社,大阪府,大阪市北区,西天満３丁目４番５号西天満ワークビル５０４号室,,27,127,5300047,,,,,,,2022-05-09,1,,,,,バーテックスジャパン,0
176,1120901045923,新規,0,2022-05-09,2022-05-09,株式会社ＤＩＣＥ,,株式会社,大阪府,豊中市,本町３丁目１番２０号１Ｆ,,27,203,5600021,,,,,,,2022-05-09,1,,,,,ダイス,0
178,1120905006319,新規,0,2022-05-09,2022-05-09,一般社団法人日本口腔顎顔面再生医療センター,,その他の設立登記法人,大阪府,吹田市,千里山西１丁目１６番５－３０４号,,27,205,5650851,,,,,,,2022-05-09,1,,,,,ニホンコウクウガクガンメンサイセイイリョウセンター,0
180,1122001035821,新規,0,2022-05-09,2022-05-09,株式会社サンキュースマイル,,株式会社,大阪府,東大阪市,新上小阪８番２－４１１号,,27,227,5770813,,,,,,,2022-05-09,1,,,,,サンキュースマイル,0
182,1130001071687,新規,0,2022-05-09,2022-05-09,Ｂｉｚｉｏｎ株式会社,,株式会社,京都府,京都市北区,紫竹西高縄町１７番地,,26,101,6038205,,,,,,,2022-05-09,1,,,,,ビジオン,0
191,1140001125913,新規,0,2022-05-09,2022-05-09,株式会社オンテック,,株式会社,兵庫県,西脇市,西脇９３１番地の２１,,28,213,6770015,,,,,,,2022-05-09,1,,,,,オンテック,0
197,1140003017662,新規,0,2022-05-09,2022-05-09,Ｉ・Ｃ・Ｙ合同会社,,合同会社,兵庫県,三田市,すずかけ台３丁目５番地４・１０棟６０２号,,28,219,6691322,,,,,,,2022-05-09,1,,,,,アイシーワイ,0
199,1170001017083,新規,0,2022-05-09,2022-05-09,株式会社あい薬局,,株式会社,和歌山県,日高郡由良町,大字里３４９番地の１,,30,383,6491111,,,,,,,2022-05-09,1,,,,,アイヤッキョク,0
200,1170001017091,新規,0,2022-05-09,2022-05-09,株式会社ｔａｒｏｍｏｎｗｏｒｌｄ,,株式会社,和歌山県,伊都郡かつらぎ町,大字妙寺５番地の３,,30,341,6497113,,,,,,,2022-05-09,1,,,,,タロモンワールド,0
206,1180001151162,新規,0,2022-05-09,2022-05-09,株式会社匠仁,,株式会社,愛知県,江南市,高屋町十六田１８１番地ハイビスカス２０１号,,23,217,4838064,,,,,,,2022-05-09,1,,,,,ショウジン,0
207,1180001151170,新規,0,2022-05-09,2022-05-09,株式会社Ｎ‐ライン,,株式会社,愛知県,瀬戸市,上水野町１２０番地,,23,204,4890062,,,,,,,2022-05-09,1,,,,,エヌライン,0
208,1180001151229,新規,0,2022-05-09,2022-05-09,Ｅｑｕａｌ株式会社,,株式会社,愛知県,名古屋市中区,錦３丁目１８番６号シャイン山清ビル３Ａ,,23,106,4600003,,,,,,,2022-05-09,1,,,,,イコール,0
209,1180001151237,新規,0,2022-05-09,2022-05-09,株式会社ＴＲＵＥ,,株式会社,愛知県,名古屋市瑞穂区,片坂町１丁目９番地,,23,108,4670052,,,,,,,2022-05-09,1,,,,,トゥルー,0
210,1180001151253,新規,0,2022-05-09,2022-05-09,株式会社エールマン,,株式会社,愛知県,名古屋市守山区,小幡４丁目８番８号,,23,113,4630011,,,,,,,2022-05-09,1,,,,,エールマン,0
214,1180301036195,新規,0,2022-05-09,2022-05-09,株式会社ＨＯＴ,,株式会社,愛知県,岡崎市,柱町字東荒子１０９番地５,,23,202,4440834,,,,,,,2022-05-09,1,,,,,ホット,0
217,1180303005322,新規,0,2022-05-09,2022-05-09,合同会社シエル,,合同会社,愛知県,刈谷市,東刈谷町２丁目１３番地１グレイステラス２０５号,,23,210,4480807,,,,,,,2022-05-09,1,,,,,シエル,0
219,1200001040024,新規,0,2022-05-09,2022-05-09,福生興業株式会社,,株式会社,岐阜県,瑞穂市,馬場上光町３丁目７５番地,,21,216,5010203,,,,,,,2022-05-09,1,,,,,フクセイコウギョウ,0
220,1200001040032,新規,0,2022-05-09,2022-05-09,株式会社田邉建装,,株式会社,岐阜県,大垣市,船町４丁目６０番地,,21,202,5030923,,,,,,,2022-05-09,1,,,,,タナベケンソウ,0
221,1200001040040,新規,0,2022-05-09,2022-05-09,株式会社ＲＥＭＩＸ,,株式会社,岐阜県,羽島市,正木町須賀赤松３００番地,,21,209,5016215,,,,,,,2022-05-09,1,,,,,リミックス,0
222,1200001040057,新規,0,2022-05-09,2022-05-09,北川工業株式会社,,株式会社,岐阜県,岐阜市,西改田松の木４７番地１６,,21,201,5011159,,,,,,,2022-05-09,1,,,,,キタガワコウギョウ,0
224,1200003005553,新規,0,2022-05-09,2022-05-09,合同会社陽だまり,,合同会社,岐阜県,可児郡御嵩町,伏見２６２番地２,,21,521,5050125,,,,,,,2022-05-09,1,,,,,ヒダマリ,0
231,1210005010030,新規,0,2022-05-09,2022-05-09,農事組合法人清水谷集落営農組合,,その他の設立登記法人,福井県,今立郡池田町,清水谷第５２号２３番地,,18,382,9102507,,,,,,,2022-05-09,1,,,,,シミズダニシュウラクエイノウクミアイ,0
235,1220003003274,新規,0,2022-05-09,2022-05-09,合同会社とく事務所,,合同会社,石川県,金沢市,押野２丁目１２５番地１,,17,201,9218056,,,,,,,2022-05-09,1,,,,,トクジムショ,0
238,1240001059705,新規,0,2022-05-09,2022-05-09,アールジービー株式会社,,株式会社,広島県,広島市佐伯区,五日市町大字下河内５０９番地２,,34,108,7315152,,,,,,,2022-05-09,1,,,,,アールジービー,0
241,1260001036826,新規,0,2022-05-09,2022-05-09,Ｈｉ　ｃｏｒｅホールディングス株式会社,,株式会社,岡山県,久米郡美咲町,大戸下７０９番地の２,,33,666,7081546,,,,,,,2022-05-09,1,,,,,ハイコアホールディングス,0
242,1260001036842,新規,0,2022-05-09,2022-05-09,株式会社小郡総合開発,,株式会社,岡山県,岡山市中区,浜３６７番地,,33,102,7038256,,,,,,,2022-05-09,1,,,,,オゴオリソウゴウカイハツ,0
248,1290001097452,新規,0,2022-05-09,2022-05-09,ドクターホワイト株式会社,,株式会社,福岡県,福岡市早良区,荒江２丁目８番１号,,40,137,8140021,,,,,,,2022-05-09,1,,,,,ドクターホワイト,0
249,1290001097460,新規,0,2022-05-09,2022-05-09,株式会社トータル・システム・サポート,,株式会社,福岡県,筑後市,大字中牟田６００番地,,40,211,8330024,,,,,,,2022-05-09,1,,,,,トータルシステムサポート,0
250,1290001097469,新規,0,2022-05-09,2022-05-09,Ｒｅ‐スクエア株式会社,,株式会社,福岡県,福岡市東区,香椎３丁目５番３６号,,40,131,8130011,,,,,,,2022-05-09,1,,,,,アールイースクエア,0
257,1290803004119,新規,0,2022-05-09,2022-05-09,合同会社若東,,合同会社,福岡県,北九州市門司区,栄町７番３号,,40,101,8010863,,,,,,,2022-05-09,1,,,,,ジャクトウ,0
258,1300001012913,新規,0,2022-05-09,2022-05-09,株式会社ペロル,,株式会社,佐賀県,唐津市,北波多徳須恵３６９番地,,41,202,8471201,,,,,,,2022-05-09,1,,,,,ペロル,0
259,1310001017853,新規,0,2022-05-09,2022-05-09,ＲＥＶＩＣＥ株式会社,,株式会社,長崎県,佐世保市,清水町４番１０－２号,,42,202,8570036,,,,,,,2022-05-09,1,,,,,リバイス,0
260,1310003004354,新規,0,2022-05-09,2022-05-09,合同会社カーネリアン,,合同会社,長崎県,壱岐市,勝本町本宮仲触１９９番地,,42,210,8115546,,,,,,,2022-05-09,1,,,,,カーネリアン,0
261,1320001019056,新規,0,2022-05-09,2022-05-09,株式会社Ｙｏｕｐｌｕｓ,,株式会社,大分県,大分市,府内町１丁目４番２４号,,44,201,8700021,,,,,,,2022-05-09,1,,,,,ユープラス,0
262,1320003003801,新規,0,2022-05-09,2022-05-09,ルートプラン合同会社,,合同会社,大分県,豊後大野市,朝地町梨小１３８１番地１,,44,212,8796334,,,,,,,2022-05-09,1,,,,,ルートプラン,0
265,1330001029698,新規,0,2022-05-09,2022-05-09,株式会社４７６８,,株式会社,熊本県,熊本市北区,梶尾町１５８７番地５,,43,105,8615512,,,,,,,2022-05-09,1,,,,,ヨンナナロクハチ,0
266,1330003009351,新規,0,2022-05-09,2022-05-09,合同会社さばい,,合同会社,熊本県,熊本市南区,出仲間６丁目１２番３５号,,43,104,8620963,,,,,,,2022-05-09,1,,,,,サバイ,0
268,1330005010514,新規,0,2022-05-09,2022-05-09,ＮＰＯ法人テクたまご,,その他の設立登記法人,熊本県,熊本市東区,東町４丁目８番１６－１０５号,,43,102,8620901,,,,,,,2022-05-09,1,,,,,テクタマゴ,0
271,1340001024698,新規,0,2022-05-09,2022-05-09,株式会社ＭＡＴＨＥＲｕＢＡ,,株式会社,鹿児島県,鹿児島市,春山町１５０９番地１０,,46,201,8992704,,,,,,,2022-05-09,1,,,,,マザルバ,0
273,1350001017726,新規,0,2022-05-09,2022-05-09,株式会社塩月左官工業,,株式会社,宮崎県,宮崎市,大字小松２６４番地３,,45,201,8802112,,,,,,,2022-05-09,1,,,,,シオツキサカンコウギョウ,0
274,1350001017734,新規,0,2022-05-09,2022-05-09,ＳＴＳフォレスト株式会社,,株式会社,宮崎県,串間市,大字西方３７０２－５,,45,207,8880001,,,,,,,2022-05-09,1,,,,,エスティーエスフォレスト,0
278,1360001030348,新規,0,2022-05-09,2022-05-09,株式会社ＯＳＶ,,株式会社,沖縄県,浦添市,勢理客１丁目７番１３号（１０１）,,47,208,9012122,,,,,,,2022-05-09,1,,,,,オーエスブイ,0
279,1360001030356,新規,0,2022-05-09,2022-05-09,株式会社フォルテシモ,,株式会社,沖縄県,那覇市,首里山川町２丁目７番地２（３Ｆ）,,47,201,9030825,,,,,,,2022-05-09,1,,,,,,0
280,1360001030372,新規,0,2022-05-09,2022-05-09,マイメディカル株式会社,,株式会社,沖縄県,那覇市,三原１丁目２６番１号メゾンみはら２０１,,47,201,9020063,,,,,,,2022-05-09,1,,,,,マイメディカル,0
283,1370001048496,新規,0,2022-05-09,2022-05-09,株式会社Ｔｒｕｍｐ　Ｍｉｙａｇｉ,,株式会社,宮城県,大崎市,古川穂波４丁目１３番６号,,04,215,9896136,,,,,,,2022-05-09,1,,,,,トランプミヤギ,0
284,1370001048538,新規,0,2022-05-09,2022-05-09,テクノアート株式会社,,株式会社,宮城県,宮城郡利府町,沢乙東１番地９,,04,406,9810124,,,,,,,2022-05-09,1,,,,,テクノアート,0
285,1370003005677,新規,0,2022-05-09,2022-05-09,合同会社タマロン,,合同会社,宮城県,仙台市泉区,天神沢１丁目４０番２号,,04,105,9813105,,,,,,,2022-05-09,1,,,,,タマロン,0
286,1370003005685,新規,0,2022-05-09,2022-05-09,鈴木開発合同会社,,合同会社,宮城県,仙台市泉区,寺岡３丁目４番３号,,04,105,9813204,,,,,,,2022-05-09,1,,,,,スズキカイハツ,0
288,1380001032788,新規,0,2022-05-09,2022-05-09,大和田建築株式会社,,株式会社,福島県,福島市,永井川字沢田４３番地の１,,07,201,9601102,,,,,,,2022-05-09,1,,,,,,0
290,1400001015872,新規,0,2022-05-09,2022-05-09,ＮＳＫトラスト株式会社,,株式会社,岩手県,花巻市,西大通り１丁目３２番５号,,03,205,0250091,,,,,,,2022-05-09,1,,,,,エヌエスケートラスト,0
295,1420003002512,新規,0,2022-05-09,2022-05-09,合同会社ＤＡＤＡｅｔｒ,,合同会社,青森県,むつ市,新町１４番３号,,02,208,0350051,,,,,,,2022-05-09,1,,,,,ダダエトレ,0
297,1430001086531,新規,0,2022-05-09,2022-05-09,坂本サッシ建材株式会社,,株式会社,北海道,余市郡余市町,沢町３丁目６番地,,01,408,0460022,,,,,,,2022-05-09,1,,,,,サカモトサッシケンザイ,0
302,1500001024186,新規,0,2022-05-09,2022-05-09,株式会社和丸水産,,株式会社,愛媛県,宇和島市,遊子２９１２番地,,38,203,7980103,,,,,,,2022-05-09,1,,,,,カズマルスイサン,0
303,1500001024194,新規,0,2022-05-09,2022-05-09,株式会社矢野かんきつ園,,株式会社,愛媛県,八幡浜市,真網代丙２２２番地,,38,204,7968053,,,,,,,2022-05-09,1,,,,,ヤノカンキツエン,0
304,1500003002826,新規,0,2022-05-09,2022-05-09,合同会社ワールドブリッジ２１,,合同会社,愛媛県,松山市,平和通１丁目６－６松山福音センター１Ｆ,,38,201,7900807,,,,,,,2022-05-09,1,,,,,ワールドブリッジニジュウイチ,0
305,1700150108570,新規,0,2022-05-09,2022-05-09,ＨＡＫＵＢＡ　ＯＮＥ　ＬＩＭＩＴＥＤ,,外国会社等,長野県,北安曇郡小谷村,大字千国乙５０８,,20,486,3999422,９／Ｆ　Ａｍｔｅｌ　Ｂｌｄｇ，１４８　Ｄｅｓ　Ｖｏｅｕｘ　Ｒｄ　Ｃｅｎｔｒａｌ，Ｃｅｎｔｒａｌ，Ｈｏｎｇ　Ｋｏｎｇ,,,,,,2022-05-09,1,,,,,ハクバワンリミテツド,0
316,2010001226327,新規,0,2022-05-09,2022-05-09,渡邊萬次郎商店株式会社,,株式会社,東京都,千代田区,麹町５丁目１番地,,13,101,1020083,,,,,,,2022-05-09,1,,,,,ワタナベマンジロウショウテン,0
317,2010001226335,新規,0,2022-05-09,2022-05-09,株式会社フリーク,,株式会社,東京都,千代田区,神田松永町２２番地６階,,13,101,1010023,,,,,,,2022-05-09,1,,,,,フリーク,0
328,2010005034965,新規,0,2022-05-09,2022-05-09,一般社団法人ビー・ファイン,,その他の設立登記法人,東京都,中央区,日本橋室町１丁目１１番１０号Ｋａｍａｙａビル３階,,13,102,1030022,,,,,,,2022-05-09,1,,,,,ビーファイン,0
338,2010401167179,新規,0,2022-05-09,2022-05-09,株式会社Ｍ＆Ｅアセットマネジメント,,株式会社,東京都,港区,港南２丁目５番３号,,13,103,1080075,,,,,,,2022-05-09,1,,,,,エムアンドイーアセットマネジメント,0
339,2010401167204,新規,0,2022-05-09,2022-05-09,株式会社Ｓａｋｅ　ＲＤ,,株式会社,東京都,港区,新橋５丁目１２－１１天翔新橋５丁目ビル９階９１０号室,,13,103,1050004,,,,,,,2022-05-09,1,,,,,サケアールディー,0
340,2010401167229,新規,0,2022-05-09,2022-05-09,ＫＭ　Ｐａｃｉｆｉｃ　Ｊａｐａｎ株式会社,,株式会社,東京都,港区,港南２丁目１６番４号品川グランドセントラルタワー８階,,13,103,1080075,,,,,,,2022-05-09,1,,,,,ケーエムパシフィックジャパン,0
341,2010401167237,新規,0,2022-05-09,2022-05-09,事業承継ＪＡＰＡＮ株式会社,,株式会社,東京都,港区,虎ノ門４丁目３番１号,,13,103,1050001,,,,,,,2022-05-09,1,,,,,ジギョウショウケイジャパン,0
353,2011001147182,新規,0,2022-05-09,2022-05-09,ＰＥＡＣＥ　ＪＡＰＡＮ株式会社,,株式会社,東京都,渋谷区,渋谷１丁目１番３号,,13,113,1500002,,,,,,,2022-05-09,1,,,,,ピースジャパン,0
354,2011001147298,新規,0,2022-05-09,2022-05-09,株式会社ＧＵＤ　ｓｅｒｖｉｃｅ,,株式会社,東京都,渋谷区,猿楽町２９番１８号ヒルサイドテラスＢ棟６号室,,13,113,1500033,,,,,,,2022-05-09,1,,,,,グッドサービス,0
355,2011001147315,新規,0,2022-05-09,2022-05-09,株式会社ＷＹＭ,,株式会社,東京都,渋谷区,渋谷１丁目１１番１号ＣＯＩ西青山ビル６Ｆ,,13,113,1500002,,,,,,,2022-05-09,1,,,,,,0
356,2011001147331,新規,0,2022-05-09,2022-05-09,株式会社ライフソリューションジャパン,,株式会社,東京都,渋谷区,初台１丁目５２番１号,,13,113,1510061,,,,,,,2022-05-09,1,,,,,ライフソリューションジャパン,0
360,2011003014587,新規,0,2022-05-09,2022-05-09,オンエイ合同会社,,合同会社,東京都,渋谷区,神宮前６丁目２３番４号桑野ビル２階,,13,113,1500001,,,,,,,2022-05-09,1,,,,,オンエイ,0
361,2011003014629,新規,0,2022-05-09,2022-05-09,ＡＫＩＮＯホームリンク合同会社,,合同会社,東京都,渋谷区,千駄ヶ谷３丁目１４番２号ふじもとビル３Ｆ,,13,113,1510051,,,,,,,2022-05-09,1,,,,,アキノホームリンク,0
366,2011101098771,新規,0,2022-05-09,2022-05-09,株式会社ｓｅｒｐｅｎｓ,,株式会社,東京都,新宿区,西新宿６丁目１１番３－２３０５号,,13,104,1600023,,,,,,,2022-05-09,1,,,,,セルペンス,0
370,2011601025944,新規,0,2022-05-09,2022-05-09,株式会社光鈴社,,株式会社,東京都,練馬区,豊玉北４丁目６番１４－２０１号,,13,120,1760012,,,,,,,2022-05-09,1,,,,,コウリンシャ,0
373,2011701025290,新規,0,2022-05-09,2022-05-09,株式会社ｂｒｉｌｏ,,株式会社,東京都,江戸川区,船堀２丁目２１番１１号アイフィールド船堀３０３,,13,123,1340091,,,,,,,2022-05-09,1,,,,,ブリーロ,0
374,2011801040669,新規,0,2022-05-09,2022-05-09,株式会社ｒｅｎ,,株式会社,東京都,足立区,鹿浜７丁目１７番地１号,,13,121,1230864,,,,,,,2022-05-09,1,,,,,レン,0
376,2012401039168,新規,0,2022-05-09,2022-05-09,株式会社豊田組,,株式会社,東京都,狛江市,東和泉１丁目１番１５‐１０５号,,13,219,2010014,,,,,,,2022-05-09,1,,,,,トヨダグミ,0
378,2012801021551,新規,0,2022-05-09,2022-05-09,株式会社ハヤブサ内装,,株式会社,東京都,昭島市,福島町２丁目３０番１５号,,13,207,1960031,,,,,,,2022-05-09,1,,,,,ハヤブサナイソウ,0
383,2020001146383,新規,0,2022-05-09,2022-05-09,株式会社ＡＤＤＣＬＡＳＳ,,株式会社,神奈川県,横浜市旭区,中尾２丁目８番３号,,14,112,2410815,,,,,,,2022-05-09,1,,,,,アドクラス,0
385,2020003021725,新規,0,2022-05-09,2022-05-09,合同会社ＢＯＯＫ　ＴＲＵＣＫ,,合同会社,神奈川県,横浜市旭区,若葉台３丁目２番４２０号,,14,112,2410801,,,,,,,2022-05-09,1,,,,,ブックトラック,0
390,2021001075845,新規,0,2022-05-09,2022-05-09,株式会社ＹＫＭホームプラン,,株式会社,神奈川県,相模原市南区,下溝３４１２番地１７,,14,153,2520335,,,,,,,2022-05-09,1,,,,,ワイケーエムホームプラン,0
391,2021001075911,新規,0,2022-05-09,2022-05-09,テンポスマイル株式会社,,株式会社,神奈川県,海老名市,国分北２丁目２０番１２号,,14,215,2430406,,,,,,,2022-05-09,1,,,,,テンポスマイル,0
398,2030005020856,新規,0,2022-05-09,2022-05-09,司法書士法人ふじなわ事務所,,その他の設立登記法人,埼玉県,坂戸市,南町３１番２１号,,11,239,3500233,,,,,,,2022-05-09,1,,,,,フジナワジムショ,0
402,2040001123182,新規,0,2022-05-09,2022-05-09,株式会社Ｖｏｙａｇｅｒ,,株式会社,千葉県,市川市,福栄４丁目１番１２－３０５号,,12,203,2720137,,,,,,,2022-05-09,1,,,,,ボイジャー,0
403,2040001123249,新規,0,2022-05-09,2022-05-09,クレサス株式会社,,株式会社,千葉県,四街道市,もねの里５丁目２３－２８,,12,228,2840016,,,,,,,2022-05-09,1,,,,,クレサス,0
410,2040003019965,新規,0,2022-05-09,2022-05-09,合同会社大土,,合同会社,千葉県,袖ケ浦市,川原井１４１９番地,,12,229,2990201,,,,,,,2022-05-09,1,,,,,ダイド,0
414,2060001034832,新規,0,2022-05-09,2022-05-09,株式会社ファーストインターフェース,,株式会社,栃木県,那須塩原市,東原字天蚕場５番地８－２階,,09,213,3250034,,,,,,,2022-05-09,1,,,,,ファーストインターフェース,0
415,2060001034840,新規,0,2022-05-09,2022-05-09,株式会社ＡＯＴＥＣ,,株式会社,栃木県,足利市,高松町４５９番地８,,09,202,3260325,,,,,,,2022-05-09,1,,,,,アオテック,0
418,2070003004477,新規,0,2022-05-09,2022-05-09,合同会社ＲＳ　Ｃａｒｂｏｎ,,合同会社,群馬県,邑楽郡邑楽町,大字中野７９８番地,,10,525,3700603,,,,,,,2022-05-09,1,,,,,アールエスカーボン,0
420,2080001024922,新規,0,2022-05-09,2022-05-09,株式会社ＡＣリサイクル,,株式会社,静岡県,静岡市葵区,美川町１７番地の１４,,22,101,4200875,,,,,,,2022-05-09,1,,,,,エーシーリサイクル,0
421,2080101023262,新規,0,2022-05-09,2022-05-09,株式会社ＯＭＣ静岡,,株式会社,静岡県,富士市,厚原９８４番地の１,,22,210,4190201,,,,,,,2022-05-09,1,,,,,オーエムシーシズオカ,0
436,2120001245522,新規,0,2022-05-09,2022-05-09,株式会社ＣＨＩＣ,,株式会社,大阪府,大阪市浪速区,下寺３丁目１番６号,,27,111,5560001,,,,,,,2022-05-09,1,,,,,シーエッチアイシー,0
437,2120001245547,新規,0,2022-05-09,2022-05-09,株式会社富士総合事務所,,株式会社,大阪府,大阪市浪速区,敷津東３丁目６番８号ライフステージヨシダ７１２号,,27,111,5560012,,,,,,,2022-05-09,1,,,,,フジソウゴウジムショ,0
438,2120001245571,新規,0,2022-05-09,2022-05-09,億町株式会社,,株式会社,大阪府,大阪市阿倍野区,阪南町１丁目５２番１１ー１００６号,,27,119,5450021,,,,,,,2022-05-09,1,,,,,オクチョウ,0
439,2120001245596,新規,0,2022-05-09,2022-05-09,株式会社ボナ,,株式会社,大阪府,大阪市生野区,巽南２丁目１１－１４オオミヤビル１Ｆ,00126472,27,116,5440015,,,,,,,2022-05-09,1,,,,,ボナ,0
440,2120001245670,新規,0,2022-05-09,2022-05-09,株式会社龍栄,,株式会社,大阪府,大阪市中央区,南船場１丁目６番１４号２階,,27,128,5420081,,,,,,,2022-05-09,1,,,,,リュウエイ,0
442,2120003021599,新規,0,2022-05-09,2022-05-09,旭溢駅合同会社,,合同会社,大阪府,大阪市中央区,瓦屋町２丁目１８番７号コンフォートマンション３０５号室,,27,128,5420066,,,,,,,2022-05-09,1,,,,,キョクアイエキ,0
444,2120105009559,新規,0,2022-05-09,2022-05-09,一般社団法人ＫｌａｎｇＨａｕｓクラングハオス,,その他の設立登記法人,大阪府,高石市,加茂２丁目２番７号,,27,225,5920011,,,,,,,2022-05-09,1,,,,,クラングハオス,0
446,2120901045922,新規,0,2022-05-09,2022-05-09,株式会社Ｆｉｘ‐ｏｎｅ,,株式会社,大阪府,豊中市,長興寺北１丁目５番２０－１０３号,,27,203,5610875,,,,,,,2022-05-09,1,,,,,フィックスワン,0
448,2122001035829,新規,0,2022-05-09,2022-05-09,Ｌｉｎｋ株式会社,,株式会社,大阪府,東大阪市,吉田１丁目９番８号,,27,227,5780924,,,,,,,2022-05-09,1,,,,,リンク,0
449,2122001035837,新規,0,2022-05-09,2022-05-09,株式会社ＨＤＮ,,株式会社,大阪府,東大阪市,花園東町１丁目１７番１５号,,27,227,5780931,,,,,,,2022-05-09,1,,,,,エイチディーエヌ,0
457,2140001125879,新規,0,2022-05-09,2022-05-09,株式会社田中製作所,,株式会社,兵庫県,姫路市,飾磨区中島３丁目１６１番地ビレッジ中島２０２号,,28,201,6728035,,,,,,,2022-05-09,1,,,,,タナカセイサクショ,0
458,2140001125929,新規,0,2022-05-09,2022-05-09,株式会社ＴＡＳＵＫＩ,,株式会社,兵庫県,神戸市中央区,御幸通８丁目１－６神戸国際会館２２階,,28,110,6510087,,,,,,,2022-05-09,1,,,,,タスキ,0
459,2140001125937,新規,0,2022-05-09,2022-05-09,株式会社起源ホールディングス,,株式会社,兵庫県,伊丹市,山田２丁目６番２３号,,28,207,6640874,,,,,,,2022-05-09,1,,,,,キゲンホールディングス,0
461,2150001025525,新規,0,2022-05-09,2022-05-09,株式会社桜の心,,株式会社,奈良県,桜井市,大字北音羽２番地の１,,29,206,6330022,,,,,,,2022-05-09,1,,,,,サクラノココロ,0
463,2170001017090,新規,0,2022-05-09,2022-05-09,株式会社宮本土木工業,,株式会社,和歌山県,田辺市,秋津町６７６番地の２,,30,206,6460005,,,,,,,2022-05-09,1,,,,,ミヤモトドボクコウギョウ,0
486,2200001040056,新規,0,2022-05-09,2022-05-09,株式会社松井鐵筋,,株式会社,岐阜県,岐阜市,西中島５丁目５番１９号,,21,201,5020916,,,,,,,2022-05-09,1,,,,,マツイテッキン,0
501,2220003003273,新規,0,2022-05-09,2022-05-09,ＴＲＹサービス合同会社,,合同会社,石川県,小松市,犬丸町丁７６番地１０,,17,203,9230015,,,,,,,2022-05-09,1,,,,,トライサービス,0
502,2230001019353,新規,0,2022-05-09,2022-05-09,株式会社蓮,,株式会社,富山県,富山市,婦中町萩島８０番地３,,16,201,9392723,,,,,,,2022-05-09,1,,,,,レン,0
511,2240001059737,新規,0,2022-05-09,2022-05-09,ＣＥＮＴＲＡＬ株式会社,,株式会社,広島県,呉市,広徳丸町１番５４号,,34,202,7370102,,,,,,,2022-05-09,1,,,,,セントラル,0
512,2240001059745,新規,0,2022-05-09,2022-05-09,株式会社Ｍｅｄｌａｒｋｓ,,株式会社,広島県,東広島市,鏡山３丁目１０番３１号,,34,212,7390046,,,,,,,2022-05-09,1,,,,,メドラークス,0
513,2240001059753,新規,0,2022-05-09,2022-05-09,株式会社瓢箪堂,00126484,株式会社,広島県,広島市安佐南区,長楽寺３丁目３番４３号,,34,105,7310143,,,,,,,2022-05-09,1,,,,,ヒョウタンドウ,0
523,2260003003897,新規,0,2022-05-09,2022-05-09,合同会社コジマプラント,,合同会社,岡山県,倉敷市,児島上の町４丁目１１番６０号,,33,202,7110907,,,,,,,2022-05-09,1,,,,,コジマプラント,0
526,2290001097419,新規,0,2022-05-09,2022-05-09,株式会社水良組,,株式会社,福岡県,嘉麻市,平１４１６番地１８,,40,227,8200203,,,,,,,2022-05-09,1,,,,,スイラグミ,0
527,2290001097435,新規,0,2022-05-09,2022-05-09,オーケービレッジ株式会社,,株式会社,福岡県,小郡市,寺福童４３６－５,,40,216,8380138,,,,,,,2022-05-09,1,,,,,オーケービレッジ,0
528,2290001097443,新規,0,2022-05-09,2022-05-09,株式会社ＵＭ,,株式会社,福岡県,福岡市中央区,天神１丁目９－１７福岡天神フコク生命ビル１５階,,40,133,8100001,,,,,,,2022-05-09,1,,,,,ユーエム,0
530,2290003012482,新規,0,2022-05-09,2022-05-09,合同会社アクティブ,,合同会社,福岡県,春日市,天神山２丁目１４７番地１,,40,218,8160855,,,,,,,2022-05-09,1,,,,,アクティブ,0
531,2290801028523,新規,0,2022-05-09,2022-05-09,株式会社ドローンエア,,株式会社,福岡県,北九州市小倉北区,宇佐町１丁目８番１７号,,40,106,8020016,,,,,,,2022-05-09,1,,,,,ドローンエア,0
535,2300001012912,新規,0,2022-05-09,2022-05-09,株式会社ミヤハラ農園,,株式会社,佐賀県,武雄市,武内町大字梅野乙１８９９３番地,,41,206,8492341,,,,,,,2022-05-09,1,,,,,ミヤハラノウエン,0
537,2310001017852,新規,0,2022-05-09,2022-05-09,株式会社あい,,株式会社,長崎県,佐世保市,吉岡町５５番地９３,,42,202,8570143,,,,,,,2022-05-09,1,,,,,アイ,0
540,2320001019047,新規,0,2022-05-09,2022-05-09,株式会社ｍｔｌ,,株式会社,大分県,大分市,高城西町３１番５号,,44,201,8700154,,,,,,,2022-05-09,1,,,,,エムティエル,0
542,2320003003800,新規,0,2022-05-09,2022-05-09,合同会社ＬＥＡＤＩＮＧ,,合同会社,大分県,中津市,島田本町５８番地ＭＫコスモ３階３０１号室,,44,203,8710036,,,,,,,2022-05-09,1,,,,,リード,0
543,2330001029706,新規,0,2022-05-09,2022-05-09,ＥＬ株式会社,,株式会社,熊本県,熊本市中央区,下通２丁目７番３２号シャワーヴァレービル１Ｆ,,43,101,8600807,,,,,,,2022-05-09,1,,,,,イーエル,0
548,2340001024722,新規,0,2022-05-09,2022-05-09,株式会社アトラス,,株式会社,鹿児島県,鹿児島市,山田町３５１３番地,,46,201,8910104,,,,,,,2022-05-09,1,,,,,アトラス,0
556,2360001030355,新規,0,2022-05-09,2022-05-09,ラクリーン株式会社,,株式会社,沖縄県,国頭郡本部町,字山川８７０番地１,,47,308,9050205,,,,,,,2022-05-09,1,,,,,ラクリーン,0
557,2360001030363,新規,0,2022-05-09,2022-05-09,Ｇｒａｃｅ　Ｃｏｍｐａｎｙ株式会社,,株式会社,沖縄県,那覇市,西２丁目１３番１７号３階,,47,201,9000036,,,,,,,2022-05-09,1,,,,,グレースカンパニー,0
558,2360001030388,新規,0,2022-05-09,2022-05-09,大和サンエイト株式会社,,株式会社,沖縄県,宜野湾市,大山２丁目３１番２９号三商ビル２階,,47,205,9012223,,,,,,,2022-05-09,1,,,,,ダイワサンエイト,0
560,2370001048529,新規,0,2022-05-09,2022-05-09,株式会社創館,,株式会社,宮城県,仙台市宮城野区,仙台港北１丁目５番地の２,,04,102,9830007,,,,,,,2022-05-09,1,,,,,ソウカン,0
561,2370001048537,新規,0,2022-05-09,2022-05-09,株式会社里山エンジニアリング,,株式会社,宮城県,柴田郡川崎町,大字前川字松葉森山２５番地８,,04,324,9891501,,,,,,,2022-05-09,1,,,,,サトヤマエンジニアリング,0
563,2380001032787,新規,0,2022-05-09,2022-05-09,株式会社ミスターＫ,,株式会社,福島県,福島市,笹木野字街道北２７番地の７,,07,201,9608057,,,,,,,2022-05-09,1,,,,,ミスターケー,0
564,2380001032795,新規,0,2022-05-09,2022-05-09,株式会社高橋組,,株式会社,福島県,郡山市,駅前２丁目３－７エリート３０ビル２Ｆ３Ｆ,,07,203,9638002,,,,,,,2022-05-09,1,,,,,タカハシグミ,0
565,2380005012579,新規,0,2022-05-09,2022-05-09,一般社団法人ふるさと物件管理センター,,その他の設立登記法人,福島県,田村郡小野町,大字小野新町字中通１２２,,07,522,9633401,,,,,,,2022-05-09,1,,,,,,0
569,2410003003650,新規,0,2022-05-09,2022-05-09,ゆりほんパック合同会社,,合同会社,秋田県,由利本荘市,花畑町４丁目１９番地,,05,210,0150075,,,,,,,2022-05-09,1,,,,,ユリホンパック,0
572,2430001086530,新規,0,2022-05-09,2022-05-09,遠山電気株式会社,,株式会社,北海道,恵庭市,駒場町２丁目１０番２４号,,01,231,0611417,,,,,,,2022-05-09,1,,,,,トオヤマデンキ,0
575,2430003013862,新規,0,2022-05-09,2022-05-09,合同会社Ｂｅｓｉｔｅ,,合同会社,北海道,札幌市白石区,東札幌二条１丁目１番２５－１００３,,01,104,0030002,,,,,,,2022-05-09,1,,,,,ビーサイト,0
576,2430005014462,新規,0,2022-05-09,2022-05-09,一般社団法人北海道個人タクシー観光協会,,その他の設立登記法人,北海道,札幌市中央区,南四条西２２丁目２番３号３階,,01,101,0640804,,,,,,,2022-05-09,1,,,,,ホッカイドウコジンタクシーカンコウキョウカイ,0
583,2480001011731,新規,0,2022-05-09,2022-05-09,株式会社美馬建設,,株式会社,徳島県,阿南市,中大野町南傍示１５６番地,,36,204,7740048,,,,,,,2022-05-09,1,,,,,ミマケンセツ,0
585,2500001024202,新規,0,2022-05-09,2022-05-09,株式会社Ｋｅｉｗａ,,株式会社,愛媛県,四国中央市,妻鳥町２５４７番地３,,38,213,7990113,,,,,,,2022-05-09,1,,,,,ケイワ,0
599,3010001226334,新規,0,2022-05-09,2022-05-09,株式会社ミニミニデザイン,,株式会社,東京都,千代田区,丸の内１丁目８番３号,,13,101,1000005,,,,,,,2022-05-09,1,,,,,ミニミニデザイン,0
600,3010001226367,新規,0,2022-05-09,2022-05-09,株式会社正木総合研究所,,株式会社,東京都,千代田区,外神田２丁目３番１－４０５号,,13,101,1010021,,,,,,,2022-05-09,1,,,,,マサキソウゴウケンキュウジョ,0
609,3010403027603,新規,0,2022-05-09,2022-05-09,合同会社Ｌｏｔｕｓ　Ｂｌｕｅ,,合同会社,東京都,港区,虎ノ門１丁目５番８号,,13,103,1050001,,,,,,,2022-05-09,1,,,,,ロータスブルー,0
612,3010503006580,新規,0,2022-05-09,2022-05-09,合同会社ＢＥＬＬＥ,,合同会社,東京都,台東区,上野７丁目１０番７号４０１,,13,106,1100005,,,,,,,2022-05-09,1,,,,,ベレ,0
632,3011001147297,新規,0,2022-05-09,2022-05-09,株式会社ＹＳコーポレーション,,株式会社,東京都,目黒区,目黒本町５丁目３２番１５号２０３号室,,13,110,1520002,,,,,,,2022-05-09,1,,,,,ワイエスコーポレーション,0
633,3011001147322,新規,0,2022-05-09,2022-05-09,株式会社オトフィー,,株式会社,東京都,渋谷区,神宮前３丁目２５番１８号ＴＨＥＳＨＡＲＥ４０５,,13,113,1500001,,,,,,,2022-05-09,1,,,,,オトフィー,0
634,3011001147330,新規,0,2022-05-09,2022-05-09,株式会社ＩＳＥエンジニアリング不動産,,株式会社,東京都,渋谷区,渋谷２丁目１９番１５号宮益坂ビルディング６０９,,13,113,1500002,,,,,,,2022-05-09,1,,,,,イセエンジニアリングフドウサン,0
635,3011001147339,新規,0,2022-05-09,2022-05-09,ｍａ‐ａｉ株式会社,,株式会社,東京都,目黒区,東が丘１丁目１６番１７号泰山館３１１,,13,110,1520021,,,,,,,2022-05-09,1,,,,,マアイ,0
636,3011001147347,新規,0,2022-05-09,2022-05-09,イノケート株式会社,,株式会社,東京都,目黒区,五本木２丁目５番１９－２０７号,,13,110,1530053,,,,,,,2022-05-09,1,,,,,イノケート,0
641,3011003014611,新規,0,2022-05-09,2022-05-09,合同会社Ａｃａｌｉ　ｍａ　ｃｈｅｒｉ,,合同会社,東京都,渋谷区,広尾５丁目１９番１－５０２号ＨＩＲＯＯＶＩＬＬＡＧＥ,,13,113,1500012,,,,,,,2022-05-09,1,,,,,アカリマシエリ,0
644,3011101098705,新規,0,2022-05-09,2022-05-09,株式会社ＡＱＵＡ　ＣＰＣ,,株式会社,東京都,新宿区,新宿４丁目２番１２号,,13,104,1600022,,,,,,,2022-05-09,1,,,,,アクアシーピーシー,0
645,3011101098762,新規,0,2022-05-09,2022-05-09,ＰｒｉｍｏＰｉｎｇｕｉｎｏ株式会社,,株式会社,東京都,新宿区,西新宿３丁目２番９号新宿ワシントンホテルビル本館２階,,13,104,1600023,,,,,,,2022-05-09,1,,,,,プリモピングイーノ,0
646,3011101098770,新規,0,2022-05-09,2022-05-09,株式会社アクティブ,,株式会社,東京都,新宿区,西新宿３丁目９－７フロンティア新宿タワーオフィス,,13,104,1600023,,,,,,,2022-05-09,1,,,,,アクティブ,0
650,3011103011731,新規,0,2022-05-09,2022-05-09,合同会社ＤＡＴＯＵ,,合同会社,東京都,新宿区,北町２４番１号シャリエ神楽坂６０２,,13,104,1620834,,,,,,,2022-05-09,1,,,,,ダートー,0
656,3011601025943,新規,0,2022-05-09,2022-05-09,株式会社村町,,株式会社,東京都,練馬区,中村北２丁目１０番４号ブランズ練馬中村北４０３,,13,120,1760023,,,,,,,2022-05-09,1,,,,,ムラマチ,0
658,3011803005074,新規,0,2022-05-09,2022-05-09,Ｋ＆Ｓ合同会社,,合同会社,東京都,足立区,西綾瀬２丁目９番１９号,,13,121,1200014,,,,,,,2022-05-09,1,,,,,ケイアンドエス,0
659,3011805003175,新規,0,2022-05-09,2022-05-09,ＮＰＯ法人ＴＥＡＭ虹,,その他の設立登記法人,東京都,足立区,一ツ家１丁目１８番２０号,,13,121,1210075,,,,,,,2022-05-09,1,,,,,チームニジ,0
660,3012801021542,新規,0,2022-05-09,2022-05-09,株式会社タケミナ,,株式会社,東京都,日野市,三沢２丁目５５番地の８,,13,212,1910032,,,,,,,2022-05-09,1,,,,,タケミナ,0
672,3020001146390,新規,0,2022-05-09,2022-05-09,株式会社Ｌ　ｐｌａｎｎｉｎｇ,,株式会社,神奈川県,横浜市青葉区,新石川２丁目２２番地５,,14,117,2250003,,,,,,,2022-05-09,1,,,,,エルプランニング,0
673,3020001146399,新規,0,2022-05-09,2022-05-09,株式会社インターリアルエステート,,株式会社,神奈川県,横浜市神奈川区,大口仲町３５番地４,,14,102,2210003,,,,,,,2022-05-09,1,,,,,インターリアルエステート,0
674,3020001146449,新規,0,2022-05-09,2022-05-09,株式会社カワコシ工業,,株式会社,神奈川県,川崎市川崎区,浜町２丁目８番１２－５０９号,,14,131,2100851,,,,,,,2022-05-09,1,,,,,カワコシコウギョウ,0
677,3021001075860,新規,0,2022-05-09,2022-05-09,株式会社アグリアン,,株式会社,神奈川県,足柄上郡中井町,遠藤１９６の１番地,,14,361,2590141,,,,,,,2022-05-09,1,,,,,アグリアン,0
687,3040001123215,新規,0,2022-05-09,2022-05-09,ＡＳＫ　ＩＮＴＥＲＮＡＴＩＯＮＡＬ株式会社,,株式会社,千葉県,白井市,根１７８０番地の１４８,,12,232,2701431,,,,,,,2022-05-09,1,,,,,エーエスケーインターナショナル,0
688,3040001123223,新規,0,2022-05-09,2022-05-09,アルファフィッター株式会社,,株式会社,千葉県,君津市,常代３丁目１２番１９号,,12,225,2991121,,,,,,,2022-05-09,1,,,,,アルファフィッター,0
689,3040001123297,新規,0,2022-05-09,2022-05-09,株式会社ＬＩＢＥＲＯ,,株式会社,千葉県,八街市,八街ほ３３３番地２５,,12,230,2891115,,,,,,,2022-05-09,1,,,,,リベロ,0
697,3050001051043,新規,0,2022-05-09,2022-05-09,株式会社ＤＴプレコン,,株式会社,茨城県,常陸大宮市,小場字仲戸４９５６番,,08,225,3192132,,,,,,,2022-05-09,1,,,,,ディーティープレコン,0
701,3080001024913,新規,0,2022-05-09,2022-05-09,株式会社東海フロンティア,,株式会社,静岡県,静岡市葵区,山崎１丁目３４－１－１０１,,22,101,4211213,,,,,,,2022-05-09,1,,,,,トウカイフロンティア,0
704,3080101023261,新規,0,2022-05-09,2022-05-09,株式会社エムワークス,,株式会社,静岡県,駿東郡清水町,伏見６２６番地の２,,22,341,4110907,,,,,,,2022-05-09,1,,,,,エムワークス,0
705,3080105006254,新規,0,2022-05-09,2022-05-09,一般社団法人美夢,,その他の設立登記法人,静岡県,富士市,日乃出町５番地,,22,210,4170056,,,,,,,2022-05-09,1,,,,,ビーム,0
710,3100003006527,新規,0,2022-05-09,2022-05-09,合同会社Ｙｏｕ　ｔｏｏ,,合同会社,長野県,長野市,三輪９丁目１７－１アートヒルズ１０２号室,,20,201,3800803,,,,,,,2022-05-09,1,,,,,ユーツー,0
721,3120001245595,新規,0,2022-05-09,2022-05-09,漆宝国際株式会社,00126474,株式会社,大阪府,大阪市西成区,花園南１丁目７－２１－２０１号,,27,122,5570015,,,,,,,2022-05-09,1,,,,,シチホウコクサイ,0
722,3120001245620,新規,0,2022-05-09,2022-05-09,株式会社Ｄｏｚｅｎｒｏｓｅ,,株式会社,大阪府,大阪市港区,三先２丁目２０番６２号,,27,107,5520016,,,,,,,2022-05-09,1,,,,,ダズンローズ,0
723,3120001245645,新規,0,2022-05-09,2022-05-09,アミナ株式会社,,株式会社,大阪府,大阪市北区,西天満３丁目６番２２号日宝北大阪屋ビル８０６号室,,27,127,5300047,,,,,,,2022-05-09,1,,,,,アミナ,0
724,3120001245736,新規,0,2022-05-09,2022-05-09,ＡＦＦＩＮＩＴＥＳ株式会社,,株式会社,大阪府,大阪市北区,小松原町４番１１号,,27,127,5300018,,,,,,,2022-05-09,1,,,,,アフェニテ,0
729,3120101034642,新規,0,2022-05-09,2022-05-09,峠本建設株式会社,,株式会社,大阪府,河内長野市,旭ケ丘１６番１４号,,27,216,5860084,,,,,,,2022-05-09,1,,,,,タオモトケンセツ,0
733,3120101065539,新規,0,2022-05-09,2022-05-09,黒木内装株式会社,,株式会社,大阪府,泉南市,信達市場４２５番地の１１,,27,228,5900504,,,,,,,2022-05-09,1,,,,,クロキナイソウ,0
735,3120105009558,新規,0,2022-05-09,2022-05-09,一般社団法人ＯＮＣ,,その他の設立登記法人,大阪府,堺市堺区,東湊町１丁４９番地５,,27,141,5900829,,,,,,,2022-05-09,1,,,,,オーエヌシー,0
739,3122001035828,新規,0,2022-05-09,2022-05-09,株式会社オーサ,,株式会社,大阪府,八尾市,大竹５丁目３８番地,,27,212,5810854,,,,,,,2022-05-09,1,,,,,オーサ,0
740,3122001035836,新規,0,2022-05-09,2022-05-09,株式会社Ｒｅｖｅ,,株式会社,大阪府,東大阪市,古箕輪１丁目４番２３号シャーメゾン箕輪Ａ２０１,,27,227,5780915,,,,,,,2022-05-09,1,,,,,レーヴ,0
741,3130001071685,新規,0,2022-05-09,2022-05-09,京都八百旬株式会社,,株式会社,京都府,京都市下京区,西七条南衣田町６９番地,,26,106,6008884,,,,,,,2022-05-09,1,,,,,キョウトヤオシュン,0
742,3130001071702,新規,0,2022-05-09,2022-05-09,株式会社榛葉建設,,株式会社,京都府,京都市山科区,上花山講田町５６番地１グレースコート洛２－Ｂ,,26,110,6078463,,,,,,,2022-05-09,1,,,,,シンバケンセツ,0
743,3130001071710,新規,0,2022-05-09,2022-05-09,株式会社大将,,株式会社,京都府,京都市中京区,西ノ京南壺井町６番地２,,26,104,6048473,,,,,,,2022-05-09,1,,,,,タイショウ,0
749,3140001125944,新規,0,2022-05-09,2022-05-09,パールキャット株式会社,,株式会社,兵庫県,神戸市東灘区,北青木３丁目８番１１号,,28,101,6580014,,,,,,,2022-05-09,1,,,,,パールキャット,0
750,3140001125952,新規,0,2022-05-09,2022-05-09,株式会社Ｂ＆Ｒ商事,,株式会社,兵庫県,三田市,東本庄六瀬４６９７番地１,,28,219,6691357,,,,,,,2022-05-09,1,,,,,ビーアンドアールショウジ,0
751,3140003017652,新規,0,2022-05-09,2022-05-09,あかりホーム合同会社,,合同会社,兵庫県,神戸市灘区,摩耶海岸通１丁目１番５－２０５号,,28,102,6570855,,,,,,,2022-05-09,1,,,,,アカリホーム,0
753,3140005026164,新規,0,2022-05-09,2022-05-09,姫路セントラル行政書士法人,,その他の設立登記法人,兵庫県,姫路市,東延末１丁目４３番地,,28,201,6700965,,,,,,,2022-05-09,1,,,,,ヒメジセントラル,0
755,3150003002678,新規,0,2022-05-09,2022-05-09,合同会社Ｃｏｃｏａ,,合同会社,奈良県,奈良市,五条３丁目２１番１３号レスポワールＩ１０２号室,,29,201,6308033,,,,,,,2022-05-09,1,,,,,ココア,0
759,3160003002561,新規,0,2022-05-09,2022-05-09,合同会社フェーリス,,合同会社,滋賀県,大津市,弥生町４番３号,,25,201,5200115,,,,,,,2022-05-09,1,,,,,フェーリス,0
774,3180003023795,新規,0,2022-05-09,2022-05-09,Ｈ．Ａ．Ｐ合同会社,,合同会社,愛知県,東海市,名和町南玄蕃２１番地１２,,23,222,4760002,,,,,,,2022-05-09,1,,,,,エイチエイピイ,0
784,3200003005551,新規,0,2022-05-09,2022-05-09,合同会社ステップ,,合同会社,岐阜県,岐阜市,東鶉６丁目１３０番地７,,21,201,5008281,,,,,,,2022-05-09,1,,,,,ステップ,0
787,3220001024824,新規,0,2022-05-09,2022-05-09,株式会社リンクス,,株式会社,石川県,白山市,水島町３５０番地,,17,210,9240855,,,,,,,2022-05-09,1,,,,,リンクス,0
798,3240001059744,新規,0,2022-05-09,2022-05-09,株式会社ＫＡＥＤＥ　ＤＥＳＩＧＮ,,株式会社,広島県,広島市西区,古江上１丁目７１４番地２,,34,104,7330875,,,,,,,2022-05-09,1,,,,,カエデデザイン,0
799,3240001059752,新規,0,2022-05-09,2022-05-09,株式会社アケヨル,,株式会社,広島県,広島市西区,楠木町２丁目１１番１０－４０２号,,34,104,7330002,,,,,,,2022-05-09,1,,,,,アケヨル,0
803,3260001036816,新規,0,2022-05-09,2022-05-09,株式会社痩身サロンＪａｓｍｉｎｅ,,株式会社,岡山県,倉敷市,西阿知町１０１８－２,,33,202,7100807,,,,,,,2022-05-09,1,,,,,ソウシンサロンジャスミン,0
807,3270003001404,新規,0,2022-05-09,2022-05-09,合同会社りりーふ,,合同会社,鳥取県,米子市,東福原８丁目１１番１９号,,31,202,6830802,,,,,,,2022-05-09,1,,,,,リリーフ,0
811,3290001097351,新規,0,2022-05-09,2022-05-09,ナガタ・エンタープライズ株式会社,,株式会社,福岡県,福津市,４０２４番地,,40,224,8113213,,,,,,,2022-05-09,1,,,,,ナガタエンタープライズ,0
812,3290001097384,新規,0,2022-05-09,2022-05-09,株式会社リサイクルテクノロジーズ,,株式会社,福岡県,福岡市博多区,博多駅前２丁目１番１号,,40,132,8120011,,,,,,,2022-05-09,1,,,,,リサイクルテクノロジーズ,0
813,3290001097392,新規,0,2022-05-09,2022-05-09,株式会社ＣＲＡＷＬ　ＵＰ,,株式会社,福岡県,福岡市博多区,店屋町４番８－４０９号,,40,132,8120025,,,,,,,2022-05-09,1,,,,,クロールアップ,0
814,3290001097401,新規,0,2022-05-09,2022-05-09,株式会社丸山建設,,株式会社,福岡県,八女郡広川町,大字日吉６９９番地３,,40,544,8340111,,,,,,,2022-05-09,1,,,,,マルヤマケンセツ,0
815,3290001097426,新規,0,2022-05-09,2022-05-09,ｅｌｍｏｒｙａ株式会社,,株式会社,福岡県,福岡市中央区,天神１丁目９番１７号,,40,133,8100001,,,,,,,2022-05-09,1,,,,,エルモリア,0
816,3290001097450,新規,0,2022-05-09,2022-05-09,ｓｈｏｕｊｉｎ株式会社,,株式会社,福岡県,筑紫野市,二日市中央１丁目８番１５号,,40,217,8180072,,,,,,,2022-05-09,1,,,,,ショージン,0
817,3290001097459,新規,0,2022-05-09,2022-05-09,株式会社ＳｐａｒｋｙＷｏｒｋｓ,,株式会社,福岡県,福岡市東区,香椎駅東４丁目３０番２３－１号ラヴィアンローズ２０５号,,40,131,8130012,,,,,,,2022-05-09,1,,,,,スパーキーワークス,0
818,3290001097467,新規,0,2022-05-09,2022-05-09,株式会社高倉ブリキ店,00126483,株式会社,福岡県,福岡市城南区,東油山２丁目１８番１７－１０３号,,40,136,8140155,,,,,,,2022-05-09,1,,,,,タカクラブリキテン,0
819,3290001097483,新規,0,2022-05-09,2022-05-09,株式会社ＴＯＲＡＮＯＫＯ,,株式会社,福岡県,福岡市早良区,原７丁目１１番８号,,40,137,8140022,,,,,,,2022-05-09,1,,,,,トラノコ,0
823,3290003012465,新規,0,2022-05-09,2022-05-09,合同会社Ｅ＆Ｒ,,合同会社,福岡県,春日市,春日原北町４丁目１８番地２－１２０１号,,40,218,8160802,,,,,,,2022-05-09,1,,,,,イーアンドアール,0
824,3290003012481,新規,0,2022-05-09,2022-05-09,合同会社ポノ,,合同会社,福岡県,太宰府市,大字内山３７０番地４,,40,221,8180115,,,,,,,2022-05-09,1,,,,,ポノ,0
825,3290005018675,新規,0,2022-05-09,2022-05-09,税理士法人あいの法務会計,,その他の設立登記法人,福岡県,福岡市中央区,舞鶴３丁目１番３０号,,40,133,8100073,,,,,,,2022-05-09,1,,,,,アイノホウムカイケイ,0
826,3290801028522,新規,0,2022-05-09,2022-05-09,株式会社インテリア神,,株式会社,福岡県,北九州市小倉南区,蜷田若園３丁目６番４号,,40,107,8020814,,,,,,,2022-05-09,1,,,,,インテリアジン,0
829,3310001017851,新規,0,2022-05-09,2022-05-09,Ｄｏｕｂａｒａ不動産株式会社,,株式会社,長崎県,諫早市,上野町１０番４号,,42,204,8540042,,,,,,,2022-05-09,1,,,,,ドウバラフドウサン,0
831,3320001019054,新規,0,2022-05-09,2022-05-09,みずほファーム株式会社,,株式会社,大分県,国東市,国東町北江字高尾２９６６番地の１,,44,214,8730501,,,,,,,2022-05-09,1,,,,,ミズホファーム,0
833,3330001029688,新規,0,2022-05-09,2022-05-09,株式会社バンディエライズ,,株式会社,熊本県,上益城郡山都町,北中島２６２４番地,,43,447,8613455,,,,,,,2022-05-09,1,,,,,バンディエライズ,0
835,3340001024696,新規,0,2022-05-09,2022-05-09,株式会社三輝,,株式会社,鹿児島県,姶良市,加治木町新生町３４７番地,,46,225,8995223,,,,,,,2022-05-09,1,,,,,サンキ,0
836,3340001024713,新規,0,2022-05-09,2022-05-09,株式会社古川建設工業,,株式会社,鹿児島県,鹿児島市,草牟田２丁目２６番９５－１０２号,,46,201,8900014,,,,,,,2022-05-09,1,,,,,フルカワケンセツコウギョウ,0
837,3340001024721,新規,0,2022-05-09,2022-05-09,こうら畜産株式会社,,株式会社,鹿児島県,薩摩川内市,祁答院町藺牟田６０１５番３,00126468,46,215,8951502,,,,,,,2022-05-09,1,,,,,コウラチクサン,0
843,3340003003772,新規,0,2022-05-09,2022-05-09,合同会社ＥＫＶｉｓｏｎ,,合同会社,鹿児島県,日置市,伊集院町大田８３２番地グリナージュ２０１,,46,216,8992521,,,,,,,2022-05-09,1,,,,,イーケーヴィジョン,0
844,3340003003780,新規,0,2022-05-09,2022-05-09,合同会社パーレイ,,合同会社,鹿児島県,鹿児島市,谷山中央６丁目２５番１２号,,46,201,8910141,,,,,,,2022-05-09,1,,,,,パーレイ,0
846,3360001030354,新規,0,2022-05-09,2022-05-09,株式会社南解,,株式会社,沖縄県,浦添市,大平１丁目３０番１０－１０１号,,47,208,9012113,,,,,,,2022-05-09,1,,,,,ナンカイ,0
848,3360005006648,新規,0,2022-05-09,2022-05-09,一般社団法人つくしの会,,その他の設立登記法人,沖縄県,浦添市,安波茶２丁目１番３号２階,,47,208,9012114,,,,,,,2022-05-09,1,,,,,ツクシノカイ,0
851,3370003005683,新規,0,2022-05-09,2022-05-09,合同会社リハビタ,,合同会社,宮城県,仙台市泉区,高森３丁目４番３４５ベルシティ泉水３０３号,,04,105,9813203,,,,,,,2022-05-09,1,,,,,リハビタ,0
854,3380001032778,新規,0,2022-05-09,2022-05-09,株式会社ＥＬＤＲＡ,,株式会社,福島県,福島市,宮代字宝田前３１番地の１,,07,201,9600116,,,,,,,2022-05-09,1,,,,,エルドラ,0
863,3430003013886,新規,0,2022-05-09,2022-05-09,合同会社北匠企画,,合同会社,北海道,札幌市北区,新琴似十一条６丁目２番１０号,,01,102,0010911,,,,,,,2022-05-09,1,,,,,ホクショウキカク,0
865,3450003002202,新規,0,2022-05-09,2022-05-09,合同会社夢を叶えるゾウ,,合同会社,北海道,上川郡鷹栖町,北一条３丁目１０番１０号,,01,452,0711211,,,,,,,2022-05-09,1,,,,,ユメヲカナエルゾウ,0
866,3460001005692,新規,0,2022-05-09,2022-05-09,株式会社テシカガタウンラボ,,株式会社,北海道,川上郡弟子屈町,泉３丁目９番１２号,,01,665,0883212,,,,,,,2022-05-09,1,,,,,テシカガタウンラボ,0
867,3460003000898,新規,0,2022-05-09,2022-05-09,アエンダラプ合同会社,,合同会社,北海道,釧路郡釧路町,河畔６丁目１０番地,,01,661,0882143,,,,,,,2022-05-09,1,,,,,アエンダラプ,0
868,3460301005062,新規,0,2022-05-09,2022-05-09,株式会社スマイルサポートゆたか,,株式会社,北海道,北見市,東陵町１４０番地２７,,01,208,0900061,,,,,,,2022-05-09,1,,,,,スマイルサポトユタカ,0
870,3470001019064,新規,0,2022-05-09,2022-05-09,株式会社谷口電気設備,,株式会社,香川県,仲多度郡琴平町,下櫛梨２０４番地１,,37,403,7660007,,,,,,,2022-05-09,1,,,,,タニグチデンキセツビ,0
874,3500001024201,新規,0,2022-05-09,2022-05-09,株式会社遊山,,株式会社,愛媛県,今治市,南高下町２丁目２番３３号,,38,202,7940811,,,,,,,2022-05-09,1,,,,,ユウザン,0
876,3700150108569,新規,0,2022-05-09,2022-05-09,Ｍｉｔｓｕｂｉｓｈｉ　Ｈｅａｖｙ　Ｉｎｄｕｓｔｒｉｅｓ　Ｉｎｄｉａ　Ｐｒｉｖａｔｅ　Ｌｔｄ,,外国会社等,,,,,,,,４０２，４ｔｈＦｌｏｏｒ，Ｗｏｒｌｄｍａｒｋ２，ＡｓｓｅｔＡｒｅａＢ，Ａｅｒｏｃｉｔｙ，Ｈｏｓｐｉｔａｌｉｔｙ　Ｄｉｓｔｒｉｃｔ，ＮｅｗＤｅｌｈｉ,,,,,,2022-05-09,1,,,,,ミツビシヘビーインダストリーズインデイアプライベートリミテツド,0
881,4010001226382,新規,0,2022-05-09,2022-05-09,株式会社ＴＫ,,株式会社,東京都,中央区,日本橋室町２丁目４番３号,,13,102,1030022,,,,,,,2022-05-09,1,,,,,ティーケイ,0
882,4010001226390,新規,0,2022-05-09,2022-05-09,Ｌｉｆｔｉｎｇ　Ｈｏｌｄｉｎｇｓ　ＢｉｄＣｏ株式会社,,株式会社,東京都,千代田区,丸の内１丁目１１番１号パシフィックセンチュリープレイス丸の内,,13,101,1000005,,,,,,,2022-05-09,1,,,,,リフティングホールディングスビッドコー,0
884,4010003037555,新規,0,2022-05-09,2022-05-09,合同会社ピース,,合同会社,東京都,中央区,銀座１丁目２２番１１号銀座大竹ビジデンス２階,,13,102,1040061,,,,,,,2022-05-09,1,,,,,ピース,0
885,4010003037605,新規,0,2022-05-09,2022-05-09,合同会社へやさが,,合同会社,東京都,千代田区,神田佐久間町１丁目１４番地,,13,101,1010025,,,,,,,2022-05-09,1,,,,,ヘヤサガ,0
887,4010101015165,新規,0,2022-05-09,2022-05-09,Ｙ’ｓグループ株式会社,,株式会社,東京都,八王子市,めじろ台３丁目２６番地１２,,13,201,1930833,,,,,,,2022-05-09,1,,,,,ワイズグループ,0
888,4010103001907,新規,0,2022-05-09,2022-05-09,天馬日本合同会社,,合同会社,東京都,八王子市,散田町２丁目７－２４,,13,201,1930832,,,,,,,2022-05-09,1,,,,,テンマニホン,0
896,4010401166880,新規,0,2022-05-09,2022-05-09,株式会社スポーツサプリラボ,,株式会社,東京都,港区,芝２丁目３０番６号ファインラック芝６０１,,13,103,1050014,,,,,,,2022-05-09,1,,,,,スポーツサプリラボ,0
897,4010401167227,新規,0,2022-05-09,2022-05-09,株式会社亜細亜不動産,,株式会社,東京都,港区,赤坂６丁目４番２２号三沖ビル５階,,13,103,1070052,,,,,,,2022-05-09,1,,,,,アジアフドウサン,0
903,4010501048789,新規,0,2022-05-09,2022-05-09,株式会社ＡＫＳ,,株式会社,東京都,台東区,千束４丁目１７番１７号,,13,106,1110031,,,,,,,2022-05-09,1,,,,,エーケーエス,0
912,4010903007319,新規,0,2022-05-09,2022-05-09,水上タカオ合同会社,,合同会社,東京都,世田谷区,成城６丁目３０番５号,,13,112,1570066,,,,,,,2022-05-09,1,,,,,ミズカミタカオ,0
921,4011001147296,新規,0,2022-05-09,2022-05-09,ＬＯＭＢＹ株式会社,,株式会社,東京都,渋谷区,南平台町１３－１５,,13,113,1500036,,,,,,,2022-05-09,1,,,,,ロンビー,0
922,4011003014627,新規,0,2022-05-09,2022-05-09,合同会社Ｔｒｕｅ　Ｒｏｍａｎｃｅ　Ｃｒｅａｔｉｖｅ,,合同会社,東京都,渋谷区,神南１丁目２０－７川原ビル４階,,13,113,1500041,,,,,,,2022-05-09,1,,,,,,0
926,4011101098729,新規,0,2022-05-09,2022-05-09,株式会社クロスポット,,株式会社,東京都,新宿区,新宿３丁目１７番２１号川元ビル地下１階,,13,104,1600022,,,,,,,2022-05-09,1,,,,,クロスポット,0
928,4011103011722,新規,0,2022-05-09,2022-05-09,合同会社ＡＮＯＴＨＥＲ　ＳＥＮＳＥ,,合同会社,東京都,新宿区,西新宿３丁目３番１３号西新宿水間ビル６階,,13,104,1600023,,,,,,,2022-05-09,1,,,,,アナザーセンス,0
934,4011601025942,新規,0,2022-05-09,2022-05-09,株式会社Ｎｅｒｉｍａ発信,,株式会社,東京都,練馬区,大泉学園町８丁目２番地２３号,,13,120,1780061,,,,,,,2022-05-09,1,,,,,ネリマハッシン,0
935,4011701025289,新規,0,2022-05-09,2022-05-09,イキルタメノ株式会社,,株式会社,東京都,江戸川区,北葛西５丁目２９番１２号,,13,123,1340081,,,,,,,2022-05-09,1,,,,,イキルタメノ,0
940,4012403005348,新規,0,2022-05-09,2022-05-09,ＯＰＩＺ合同会社,,合同会社,東京都,武蔵野市,西久保１丁目４８番１３号,,13,203,1800013,,,,,,,2022-05-09,1,,,,,オピツ,0
945,4012801021541,新規,0,2022-05-09,2022-05-09,株式会社ＳＡＶＥＹ,,株式会社,東京都,国分寺市,西町３丁目１４番地７,,13,214,1850035,,,,,,,2022-05-09,1,,,,,セイヴィー,0
946,4013101008907,新規,0,2022-05-09,2022-05-09,株式会社Ｍｉｌｉｆｅ,,株式会社,東京都,西多摩郡瑞穂町,大字二本木６５８番地９,,13,303,1901201,,,,,,,2022-05-09,1,,,,,,0
952,4020001146282,新規,0,2022-05-09,2022-05-09,横浜富士商事株式会社,,株式会社,神奈川県,横浜市中区,桜木町１丁目１０１番地１クロスゲート７階,,14,104,2310062,,,,,,,2022-05-09,1,,,,,,0
953,4020001146324,新規,0,2022-05-09,2022-05-09,ティーアンドエス株式会社,,株式会社,神奈川県,横浜市中区,豊浦町４番地２号ダイワコーポレーション３階西,,14,104,2310814,,,,,,,2022-05-09,1,,,,,ティーアンドエス,0
954,4020001146415,新規,0,2022-05-09,2022-05-09,株式会社ＭＭＳ　ｍａｋｅ　ｃｒｅａｔｉｏｎ,,株式会社,神奈川県,横浜市中区,太田町５丁目６１番地１ＢＲＩＣＫＳ馬車道舘３階,,14,104,2310011,,,,,,,2022-05-09,1,,,,,エムエムエスメイククリエイション,0
957,4021001075892,新規,0,2022-05-09,2022-05-09,株式会社ＨＡＬＥプラス,,株式会社,神奈川県,藤沢市,善行７丁目９番２７号,,14,205,2510871,,,,,,,2022-05-09,1,,,,,ハレプラス,0
959,4021005012512,新規,0,2022-05-09,2022-05-09,特定非営利活動法人ふぁしり,,その他の設立登記法人,神奈川県,伊勢原市,沼目３丁目１９番５号,,14,214,2591126,,,,,,,2022-05-09,1,,,,,ファシリ,0
971,4040001123206,新規,0,2022-05-09,2022-05-09,株式会社Ｉｎｖｅｎｔｉｖｅ,,株式会社,千葉県,習志野市,藤崎５丁目６番１９－２０２号,,12,216,2750017,,,,,,,2022-05-09,1,,,,,インベンティブ,0
980,4040003019947,新規,0,2022-05-09,2022-05-09,矢切ブルワリー合同会社,,合同会社,千葉県,松戸市,下矢切１５３番地の１,,12,207,2710096,,,,,,,2022-05-09,1,,,,,ヤギリブルワリー,0
981,4040003019963,新規,0,2022-05-09,2022-05-09,合同会社Ｗ・Ｓ・Ｇ,,合同会社,千葉県,八千代市,大和田新田９５０－１ルーチェ緑が丘Ａ棟３０６,,12,221,2760046,,,,,,,2022-05-09,1,,,,,ワクワクシェイクハンドグループ,0
983,4040005021595,新規,0,2022-05-09,2022-05-09,医療法人社団千成会,,その他の設立登記法人,千葉県,四街道市,もねの里６丁目１０番１１号,,12,228,2840016,,,,,,,2022-05-09,1,,,,,チナリカイ,0
987,4050001051026,新規,0,2022-05-09,2022-05-09,ＪＭＣホールディングス株式会社,,株式会社,茨城県,水戸市,けやき台３丁目３５番地の１,,08,201,3100842,,,,,,,2022-05-09,1,,,,,ジェイエムシーホールディングス,0
988,4050001051059,新規,0,2022-05-09,2022-05-09,株式会社張替設備工業,,株式会社,茨城県,猿島郡境町,大字伏木１３５９番地２７,,08,546,3060416,,,,,,,2022-05-09,1,,,,,ハリガエセツビコウギョウ,0
991,4050003006548,新規,0,2022-05-09,2022-05-09,ｖｉｌｌｏｓｔ合同会社,,合同会社,茨城県,つくばみらい市,紫峰ヶ丘２丁目２２－９－２０１,,08,235,3002359,,,,,,,2022-05-09,1,,,,,ヴィロスト,0
994,4070001039192,新規,0,2022-05-09,2022-05-09,株式会社矢島興産,,株式会社,群馬県,太田市,新田早川町３１４番地,,10,205,3700344,,,,,,,2022-05-09,1,,,,,ヤジマコウサン,0
997,4070003004475,新規,0,2022-05-09,2022-05-09,合同会社篠原電機,,合同会社,群馬県,太田市,龍舞町１９０５－２,,10,205,3730806,,,,,,,2022-05-09,1,,,,,シノハラデンキ,0
999,4080001024912,新規,0,2022-05-09,2022-05-09,寺尾建材株式会社,,株式会社,静岡県,牧之原市,松本８２番地１１,,22,226,4210513,,,,,,,2022-05-09,1,,,,,テラオケンザイ,0
1000,4080101023260,新規,0,2022-05-09,2022-05-09,アイティーオーＳ・ＦＩＴ株式会社,,株式会社,静岡県,富士市,宮島１４８３番地の２,,22,210,4160945,,,,,,,2022-05-09,1,,,,,アイティーオーエスフィット,0
1001,4080101023269,新規,0,2022-05-09,2022-05-09,株式会社ＡＳサポート,,株式会社,静岡県,沼津市,大岡２４９３番地の１,,22,203,4100022,,,,,,,2022-05-09,1,,,,,エーエスサポート,0
1003,4080105006253,新規,0,2022-05-09,2022-05-09,社会保険労務士法人オフィスＡＬＰＡＣＡ,,その他の設立登記法人,静岡県,三島市,本町１３番７号,,22,206,4110855,,,,,,,2022-05-09,1,,,,,オフィスアルパカ,0
1015,4120001245586,新規,0,2022-05-09,2022-05-09,株式会社ＰＡＩＮＴ‐ＣＬＵＢ,,株式会社,大阪府,大阪市東住吉区,湯里６丁目１３番９号,,27,121,5460013,,,,,,,2022-05-09,1,,,,,ペイントクラブ,0
1016,4120001245603,新規,0,2022-05-09,2022-05-09,株式会社Ａ２４,,株式会社,大阪府,大阪市淀川区,西中島３丁目１６番１７－２Ｆ３号,,27,123,5320011,,,,,,,2022-05-09,1,,,,,エニシ,0
1017,4120001245628,新規,0,2022-05-09,2022-05-09,株式会社ＦＦＣ,,株式会社,大阪府,大阪市北区,小松原町２番４号,,27,127,5300018,,,,,,,2022-05-09,1,,,,,エフエフシー,0
1018,4120001245636,新規,0,2022-05-09,2022-05-09,株式会社スタックオファー,,株式会社,大阪府,大阪市北区,東天満２丁目２番５号第二新興ビル７階,,27,127,5300044,,,,,,,2022-05-09,1,,,,,スタックオファー,0
1019,4120001245652,新規,0,2022-05-09,2022-05-09,株式会社ＲＡＩＳＥ,,株式会社,大阪府,門真市,北島町２番１７号,,27,223,5710026,,,,,,,2022-05-09,1,,,,,レイズ,0
1020,4120001245660,新規,0,2022-05-09,2022-05-09,株式会社リワイズ,,株式会社,大阪府,大阪市西区,北堀江２丁目１２番１３号５０１,,27,106,5500014,,,,,,,2022-05-09,1,,,,,リワイズ,0
1021,4120001245710,新規,0,2022-05-09,2022-05-09,株式会社ＲＯＫＵＭＡＲＵ,,株式会社,大阪府,大阪市淀川区,十三東２丁目１０番１０号,,27,123,5320023,,,,,,,2022-05-09,1,,,,,ロクマル,0
1022,4120001245743,新規,0,2022-05-09,2022-05-09,株式会社ｇｒｅｅｎ　ｌｅａｆ,,株式会社,大阪府,大阪市中央区,東心斎橋１丁目２番１－３５０２号,,27,128,5420083,,,,,,,2022-05-09,1,,,,,グリーンリーフ,0
1024,4120101065521,新規,0,2022-05-09,2022-05-09,株式会社ＲＶ　ＷＯＲＫＳ,,株式会社,大阪府,堺市堺区,戎之町西１丁１番２５号,,27,141,5900948,,,,,,,2022-05-09,1,,,,,アールブイワークス,0
1031,4120901045920,新規,0,2022-05-09,2022-05-09,シンクティンク株式会社,,株式会社,大阪府,箕面市,箕面２丁目１１番５３号,,27,220,5620001,,,,,,,2022-05-09,1,,,,,シンクティンク,0
1032,4122001035835,新規,0,2022-05-09,2022-05-09,株式会社Ｃｌｏｕｄ　Ｖａｌｕｅ　Ｂａｎｋ,,株式会社,大阪府,東大阪市,吉田５丁目１７番２０号,,27,227,5780924,,,,,,,2022-05-09,1,,,,,クラウドバリューバンク,0
1036,4130001071692,新規,0,2022-05-09,2022-05-09,株式会社うづまき,,株式会社,京都府,京都市中京区,壬生松原町５３番地４,,26,104,6048823,,,,,,,2022-05-09,1,,,,,ウヅマキ,0
1039,4140001125919,新規,0,2022-05-09,2022-05-09,株式会社ＳＫＧ,,株式会社,兵庫県,明石市,本町１丁目７番７号ミルキーウェイ２０２号,,28,203,6730892,,,,,,,2022-05-09,1,,,,,エスケージー,0
1040,4140001125927,新規,0,2022-05-09,2022-05-09,ｎｅｕｔｒｅ株式会社,,株式会社,兵庫県,神戸市灘区,琵琶町３丁目３番１０号２階,,28,102,6570041,,,,,,,2022-05-09,1,,,,,ニュートル,0
1041,4140001125935,新規,0,2022-05-09,2022-05-09,株式会社ＫＥＹＲＩＳＥ,,株式会社,兵庫県,西宮市,上ケ原四番町４番４８号,,28,204,6620894,,,,,,,2022-05-09,1,,,,,キーライズ,0
1046,4140003017651,新規,0,2022-05-09,2022-05-09,合同会社ＫＯＭＥＴＳＵＢＵ,,合同会社,兵庫県,淡路市,岩屋７０番地１０,,28,226,6562401,,,,,,,2022-05-09,1,,,,,コメツブ,0
1049,4170001017080,新規,0,2022-05-09,2022-05-09,株式会社財経百花,,株式会社,和歌山県,日高郡みなべ町,気佐藤５０８番地,,30,391,6450011,,,,,,,2022-05-09,1,,,,,ザイケイヒャッカ,0
1050,4170001017097,新規,0,2022-05-09,2022-05-09,株式会社松林,,株式会社,和歌山県,日高郡日高川町,大字小熊２３６４番地６,,30,392,6491323,,,,,,,2022-05-09,1,,,,,マツバヤシ,0
1057,4180001151151,新規,0,2022-05-09,2022-05-09,株式会社ロジ・ブリッジ,,株式会社,愛知県,尾張旭市,桜ケ丘町１丁目６番地４,,23,226,4880859,,,,,,,2022-05-09,1,,,,,ロジブリッジ,0
1058,4180001151176,新規,0,2022-05-09,2022-05-09,株式会社アイベックス,,株式会社,愛知県,名古屋市千種区,千種通７丁目１０１番地オオクラビル４Ｆ,,23,101,4640855,,,,,,,2022-05-09,1,,,,,アイベックス,0
1059,4180001151250,新規,0,2022-05-09,2022-05-09,株式会社Ｆｏｒｅｓｔ　Ｆａｃｔｏｒｙ,,株式会社,愛知県,一宮市,大宮４丁目９番２８号,,23,203,4910044,,,,,,,2022-05-09,1,,,,,フォレストファクトリー,0
1065,4200001040062,新規,0,2022-05-09,2022-05-09,８Ｂｏｒｎ株式会社,,株式会社,岐阜県,岐阜市,上川手５４５番地１,,21,201,5008245,,,,,,,2022-05-09,1,,,,,エイトボーン,0
1070,4220001024831,新規,0,2022-05-09,2022-05-09,ＥＡＲＴＨ　ＣＲＥＡＴＥ株式会社,,株式会社,石川県,加賀市,大聖寺上福田町ハ１０番地,,17,206,9220004,,,,,,,2022-05-09,1,,,,,アースクリエイト,0
1071,4220005008665,新規,0,2022-05-09,2022-05-09,一般社団法人Ａｄｖａｎｃｅｄ　Ａｒｔほくりく,,その他の設立登記法人,石川県,金沢市,中村町９番１９号（ヴィラＮ１・１０１号）,,17,201,9218022,,,,,,,2022-05-09,1,,,,,アドバンスドアート,0
1073,4230001019351,新規,0,2022-05-09,2022-05-09,株式会社田山商店,,株式会社,富山県,氷見市,触坂２３９番地,,16,205,9350266,,,,,,,2022-05-09,1,,,,,タヤマショウテン,0
1084,4240003005605,新規,0,2022-05-09,2022-05-09,合同会社アイズ,,合同会社,広島県,福山市,住吉町３番２５号,,34,207,7200809,,,,,,,2022-05-09,1,,,,,アイズ,0
1087,4260001036823,新規,0,2022-05-09,2022-05-09,株式会社Ｒｅｓｔａｒｔ,,株式会社,岡山県,岡山市南区,福島３丁目３番２－２号,,33,104,7028044,,,,,,,2022-05-09,1,,,,,リスタート,0
1088,4260001036831,新規,0,2022-05-09,2022-05-09,株式会社しほコンタクト,,株式会社,岡山県,倉敷市,寿町１０番２７号,,33,202,7100813,,,,,,,2022-05-09,1,,,,,シホコンタクト,0
1090,4280003001609,新規,0,2022-05-09,2022-05-09,ＨＡＷＰＯＫ合同会社,,合同会社,島根県,益田市,高津１丁目１８番２０号,,32,204,6980041,,,,,,,2022-05-09,1,,,,,,0
1095,4290001097425,新規,0,2022-05-09,2022-05-09,株式会社アールテック,,株式会社,福岡県,福岡市東区,多の津５丁目１番６号,,40,131,8130034,,,,,,,2022-05-09,1,,,,,アールテック,0
1096,4290001097433,新規,0,2022-05-09,2022-05-09,大坪建設株式会社,,株式会社,福岡県,福岡市西区,小戸３丁目５４番２９号,,40,135,8190001,,,,,,,2022-05-09,1,,,,,オオツボケンセツ,0
1097,4290001097482,新規,0,2022-05-09,2022-05-09,ＡＣＣＵ　ＬＥＡＤ株式会社,,株式会社,福岡県,福岡市博多区,住吉２丁目１３－６,,40,132,8120018,,,,,,,2022-05-09,1,,,,,アキューリード,0
1101,4290003012472,新規,0,2022-05-09,2022-05-09,グリーン曽田合同会社,,合同会社,福岡県,福岡市早良区,大字西１３８２番地,,40,137,8111131,,,,,,,2022-05-09,1,,,,,グリーンソダ,0
1103,4290005018666,新規,0,2022-05-09,2022-05-09,社会福祉法人豊生会,,その他の設立登記法人,福岡県,大野城市,大城４丁目１５２番地９,,40,219,8160911,,,,,,,2022-05-09,1,,,,,ユタカカイ,0
1106,4290801028496,新規,0,2022-05-09,2022-05-09,株式会社池田商店,,株式会社,福岡県,遠賀郡芦屋町,山鹿３２番３６号,,40,381,8070141,,,,,,,2022-05-09,1,,,,,イケダショウテン,0
1107,4300001012910,新規,0,2022-05-09,2022-05-09,株式会社ＳＰＡＤＡ,,株式会社,佐賀県,唐津市,北波多徳須恵１１９３番地２,,41,202,8471201,,,,,,,2022-05-09,1,,,,,スパーダ,0
1109,4300003001837,新規,0,2022-05-09,2022-05-09,エムテック合同会社,,合同会社,佐賀県,佐賀市,神園５丁目６番３６号,,41,201,8400806,,,,,,,2022-05-09,1,,,,,エムテック,0
1110,4310001017850,新規,0,2022-05-09,2022-05-09,株式会社清組,,株式会社,長崎県,長崎市,花園町７番２２－４０１号,,42,201,8528024,,,,,,,2022-05-09,1,,,,,セイグミ,0
1114,4310003004351,新規,0,2022-05-09,2022-05-09,合同会社ｆｕｔｕｒｅ,,合同会社,長崎県,佐世保市,須田尾町３９９－１３,,42,202,8570831,,,,,,,2022-05-09,1,,,,,フューチャー,0
1116,4320001019053,新規,0,2022-05-09,2022-05-09,株式会社ｍｉｚｋｅｎ,,株式会社,大分県,大分市,大字駄原２２０８番地の３,,44,201,8700100,,,,,,,2022-05-09,1,,,,,ミズケン,0
1119,4330001029712,新規,0,2022-05-09,2022-05-09,株式会社松本電設,,株式会社,熊本県,山鹿市,鹿央町岩原２５５８番地,,43,208,8610561,,,,,,,2022-05-09,1,,,,,マツモトデンセツ,0
1124,4340001024695,新規,0,2022-05-09,2022-05-09,ｗｅａｌｔｈ株式会社,,株式会社,鹿児島県,大島郡瀬戸内町,古仁屋瀬久井西１９番地８,,46,525,8941510,,,,,,,2022-05-09,1,,,,,ウェルス,0
1125,4340001024720,新規,0,2022-05-09,2022-05-09,福吉設備工業株式会社,,株式会社,鹿児島県,鹿児島市,慈眼寺町２８番１６号,,46,201,8910146,,,,,,,2022-05-09,1,,,,,フクヨシセツビコウギョウ,0
1126,4350001017723,新規,0,2022-05-09,2022-05-09,株式会社小笠園,,株式会社,宮崎県,西臼杵郡五ヶ瀬町,大字三ヶ所２２４５番地,,45,443,8821203,,,,,,,2022-05-09,1,,,,,オガサエン,0
1127,4350003004075,新規,0,2022-05-09,2022-05-09,合同会社ＯＡＳＩＳ,,合同会社,宮崎県,日向市,曽根町１丁目１０８番地,,45,206,8830011,,,,,,,2022-05-09,1,,,,,オアシス,0
1128,4360001030312,新規,0,2022-05-09,2022-05-09,ＣＯＣＯＲＯＺＡＳＨＩ株式会社,,株式会社,沖縄県,うるま市,字塩屋４５０番地１,,47,213,9042231,,,,,,,2022-05-09,1,,,,,ココロザシ,0
1129,4360001030353,新規,0,2022-05-09,2022-05-09,株式会社西表でしか,,株式会社,沖縄県,八重山郡竹富町,字上原１０番地の７２７,,47,381,9071541,,,,,,,2022-05-09,1,,,,,イリオモテデシカ,0
1131,4360003011995,新規,0,2022-05-09,2022-05-09,合同会社Ｅｎｄｅａｖｏｕｒ,,合同会社,沖縄県,沖縄市,安慶田５丁目４番２３号ファミール３０１号,,47,211,9040012,,,,,,,2022-05-09,1,,,,,エンデバー,0
1132,4360003012003,新規,0,2022-05-09,2022-05-09,合同会社Ｕｐ７０,,合同会社,沖縄県,浦添市,牧港５丁目５番５号グランシャリオ牧港２０２号室,,47,208,9012131,,,,,,,2022-05-09,1,,,,,アップセブンティー,0
1133,4370001048527,新規,0,2022-05-09,2022-05-09,株式会社大宮住建,,株式会社,宮城県,柴田郡川崎町,大字川内字七曲山１７２番地２２,,04,324,9891503,,,,,,,2022-05-09,1,,,,,オオミヤジュウケン,0
1142,4390001016886,新規,0,2022-05-09,2022-05-09,株式会社ＭｏｔｏＶｅｔ,,株式会社,山形県,寒河江市,元町３丁目４番地の１,,06,206,9910053,,,,,,,2022-05-09,1,,,,,モトベット,0
1146,4400005008242,新規,0,2022-05-09,2022-05-09,農事組合法人宮古飼料組合,,その他の設立登記法人,岩手県,宮古市,長沢第６地割１０１－１,,03,202,0270034,,,,,,,2022-05-09,1,,,,,ミヤコシリョウクミアイ,0
1148,4450001013695,新規,0,2022-05-09,2022-05-09,株式会社伊藤板金工業,,株式会社,北海道,紋別郡興部町,字興部２０５番地の８,,01,561,0981600,,,,,,,2022-05-09,1,,,,,イトウバンキンコウギョウ,0
1150,4460301005061,新規,0,2022-05-09,2022-05-09,株式会社エスケード,,株式会社,北海道,網走市,字昭和９番地の１８,,01,211,0993117,,,,,,,2022-05-09,1,,,,,エスケード,0
1153,4460303000762,新規,0,2022-05-09,2022-05-09,合同会社クレド,,合同会社,北海道,常呂郡訓子府町,字高園１２３番地２,,01,549,0991405,,,,,,,2022-05-09,1,,,,,クレド,0
1156,4470001019063,新規,0,2022-05-09,2022-05-09,エスタシオン株式会社,,株式会社,香川県,高松市,鬼無町佐藤４９番地３,,37,201,7618023,,,,,,,2022-05-09,1,,,,,エスタシオン,0
1157,4470001019071,新規,0,2022-05-09,2022-05-09,Ｋａｒｍａｎ株式会社,,株式会社,香川県,高松市,国分寺町新居２００４番地１６,,37,201,7690101,,,,,,,2022-05-09,1,,,,,カーマン,0
1159,4480001011721,新規,0,2022-05-09,2022-05-09,株式会社加茂谷おおかみプロジェクト,,株式会社,徳島県,阿南市,深瀬町岡崎５２番地２,,36,204,7715179,,,,,,,2022-05-09,1,,,,,カモダニオオカミプロジェクト,0
1160,4490001010169,新規,0,2022-05-09,2022-05-09,四国建設アシスト株式会社,,株式会社,高知県,四万十市,不破１番地５８,,39,210,7870017,,,,,,,2022-05-09,1,,,,,シコクケンセツアシスト,0
1161,4500003002823,新規,0,2022-05-09,2022-05-09,グリーンリベット合同会社,,合同会社,愛媛県,大洲市,米津甲４５６番地,,38,207,7950043,,,,,,,2022-05-09,1,,,,,グリーンリベット,0
1163,4700150108568,新規,0,2022-05-09,2022-05-09,ＹＡＭＡＳＨＩＮ　ＡＭＥＲＩＣＡ　ＩＮＣ．,,外国会社等,,,,,,,,１８９２　Ｓｏｕｔｈ　Ｅｌｍｈｕｒｓｔ　Ｒｏａｄ，Ｍｔ．Ｐｒｏｓｐｅｃｔ，Ｉｌｌｉｎｏｉｓ　６００５６，Ｕ．Ｓ．Ａ,,,,,,2022-05-09,1,,,,,ヤマシンアメリカインク,0
1173,5010001226332,新規,0,2022-05-09,2022-05-09,株式会社ボイジャー,,株式会社,東京都,中央区,晴海３丁目６番８－３９０４号,,13,102,1040053,,,,,,,2022-05-09,1,,,,,ボイジャー,0
1174,5010001226365,新規,0,2022-05-09,2022-05-09,トキリン株式会社,,株式会社,東京都,中央区,銀座８丁目１５番１０号８１２号,,13,102,1040061,,,,,,,2022-05-09,1,,,,,トキリン,0
1177,5010003037570,新規,0,2022-05-09,2022-05-09,ＲＢソーラーリーフ合同会社,,合同会社,東京都,中央区,八丁堀４丁目２番１０号ＡＯＪ税理士法人内,,13,102,1040032,,,,,,,2022-05-09,1,,,,,アールビーソーラーリーフ,0
1178,5010005034962,新規,0,2022-05-09,2022-05-09,ＥＳＲ２５・２一般社団法人,,その他の設立登記法人,東京都,中央区,日本橋１丁目４番１号日本橋一丁目ビルディング,,13,102,1030027,,,,,,,2022-05-09,1,,,,,イーエスアールニジュウゴニ,0
1184,5010401167069,新規,0,2022-05-09,2022-05-09,株式会社かよせんせい,,株式会社,東京都,港区,南青山２丁目２番１５号,,13,103,1070062,,,,,,,2022-05-09,1,,,,,カヨセンセイ,0
1185,5010401167176,新規,0,2022-05-09,2022-05-09,株式会社和楽ｃｏｒｐｏｒａｔｉｏｎ,,株式会社,東京都,港区,西麻布１丁目４番７号クレド西麻布１０１,,13,103,1060031,,,,,,,2022-05-09,1,,,,,ワラクコーポレーション,0
1186,5010401167218,新規,0,2022-05-09,2022-05-09,株式会社ＣＯＰＵＳ　ＣＯＮＴＥＮＴＳ　ＬＡＢ,,株式会社,東京都,港区,赤坂５丁目５番１８号,,13,103,1070052,,,,,,,2022-05-09,1,,,,,コーパスコンテンツラボ,0
1188,5010403027642,新規,0,2022-05-09,2022-05-09,合同会社ツインシティリーシングツー,,合同会社,東京都,港区,六本木６丁目１０番１号六本木ヒルズ森タワー,,13,103,1060032,,,,,,,2022-05-09,1,,,,,ツインシティリーシングツー,0
1193,5010501048796,新規,0,2022-05-09,2022-05-09,株式会社エモリゼ,,株式会社,東京都,台東区,三筋１丁目７番３号,,13,106,1110055,,,,,,,2022-05-09,1,,,,,エモリゼ,0
1203,5010803004159,新規,0,2022-05-09,2022-05-09,ＱＬＯＯＰ合同会社,,合同会社,東京都,大田区,南六郷２丁目２３番８号,,13,111,1440045,,,,,,,2022-05-09,1,,,,,クループ,0
1204,5010803004167,新規,0,2022-05-09,2022-05-09,合同会社ばりゅー,,合同会社,東京都,大田区,石川町２丁目１６番８－３０２号,,13,111,1450061,,,,,,,2022-05-09,1,,,,,バリュー,0
1208,5010901050815,新規,0,2022-05-09,2022-05-09,鼎燭堂株式会社,,株式会社,東京都,世田谷区,北沢２丁目１３番１１号Ｆａｂｕｌｏｕｓ下北沢３０９号室,,13,112,1550031,,,,,,,2022-05-09,1,,,,,カナエショクドウ,0
1211,5010903007359,新規,0,2022-05-09,2022-05-09,合同会社与一商事,,合同会社,東京都,世田谷区,松原３丁目１７番４号,,13,112,1560043,,,,,,,2022-05-09,1,,,,,ヨイチショウジ,0
1216,5011001147213,新規,0,2022-05-09,2022-05-09,株式会社アンフィニ,,株式会社,東京都,渋谷区,千駄ヶ谷４丁目４番８号,,13,113,1510051,,,,,,,2022-05-09,1,,,,,アンフィニ,0
1217,5011001147329,新規,0,2022-05-09,2022-05-09,株式会社リンケージグループ,,株式会社,東京都,渋谷区,神宮前６丁目２３番４号,,13,113,1500001,,,,,,,2022-05-09,1,,,,,リンケージグループ,0
1218,5011001147353,新規,0,2022-05-09,2022-05-09,株式会社Ｔ．Ｉコーポレーション,,株式会社,東京都,渋谷区,渋谷２丁目１９番１５－６０９号宮益坂ビルディング,,13,113,1500002,,,,,,,2022-05-09,1,,,,,ティーアイコーポレーション,0
1226,5011101098645,新規,0,2022-05-09,2022-05-09,株式会社ｐａｐａｒａｚｚｉ,,株式会社,東京都,新宿区,山吹町２６１－５トリオタワーセントラル２Ｆ－ｆ,,13,104,1620801,,,,,,,2022-05-09,1,,,,,パパラッチ,0
1227,5011101098728,新規,0,2022-05-09,2022-05-09,株式会社ＷＩＬＬ,,株式会社,東京都,新宿区,四谷１丁目２３番地９ＹＯＫＢＵＩＬＤ３０１号室,,13,104,1600004,,,,,,,2022-05-09,1,,,,,ウィル,0
1228,5011101098760,新規,0,2022-05-09,2022-05-09,ｋｅｙｍｏｖｅ株式会社,,株式会社,東京都,新宿区,西新宿３丁目３番１３号西新宿水間ビル６階,,13,104,1600023,,,,,,,2022-05-09,1,,,,,キームーブ,0
1229,5011103011721,新規,0,2022-05-09,2022-05-09,シンエイコーポレーション合同会社,,合同会社,東京都,新宿区,西落合１丁目３０番１８号,,13,104,1610031,,,,,,,2022-05-09,1,,,,,シンエイコーポレーション,0
1232,5011301027759,新規,0,2022-05-09,2022-05-09,栗本金属工業株式会社,,株式会社,東京都,杉並区,天沼２丁目７番７号マンション大竹３０１,,13,115,1670032,,,,,,,2022-05-09,1,,,,,クリモトキンゾクコウギョウ,0
1238,5011701025288,新規,0,2022-05-09,2022-05-09,Ｏｕｔ‐Ｌｏｏｐ株式会社,,株式会社,東京都,江戸川区,一之江３丁目２番３８号ブリリア一之江２０１号室,,13,123,1320024,,,,,,,2022-05-09,1,,,,,アウトループ,0
1239,5012401039181,新規,0,2022-05-09,2022-05-09,株式会社ＩＭ　ＴＲＵＳＴ,,株式会社,東京都,府中市,四谷２丁目７７番地の２０,,13,206,1830035,,,,,,,2022-05-09,1,,,,,アイエムトラスト,0
1240,5012701017044,新規,0,2022-05-09,2022-05-09,株式会社ＡＬＬ不動産,,株式会社,東京都,清瀬市,中里４丁目１１３９番地５,,13,221,2040003,,,,,,,2022-05-09,1,,,,,オールフドウサン,0
1247,5013103001132,新規,0,2022-05-09,2022-05-09,合同会社特掃社,,合同会社,東京都,青梅市,小曾木２丁目６４３番地１号,,13,205,1980003,,,,,,,2022-05-09,1,,,,,,0
1248,5013301049015,新規,0,2022-05-09,2022-05-09,ＢＬＯＯＭＥＲＹ株式会社,,株式会社,東京都,豊島区,千早１丁目４番１３号,,13,116,1710044,,,,,,,2022-05-09,1,,,,,ブルーマリ,0
1257,5020001146389,新規,0,2022-05-09,2022-05-09,株式会社香山電化,,株式会社,神奈川県,川崎市多摩区,生田１丁目２番６号,,14,135,2140038,,,,,,,2022-05-09,1,,,,,,0
1258,5020001146406,新規,0,2022-05-09,2022-05-09,株式会社テンスタジオ,,株式会社,神奈川県,川崎市中原区,井田杉山町１６番１０号,,14,133,2110036,,,,,,,2022-05-09,1,,,,,テンスタジオ,0
1264,5021001075925,新規,0,2022-05-09,2022-05-09,株式会社ＡＢＣ,,株式会社,神奈川県,相模原市南区,東林間６丁目１５番１３号,,14,153,2520311,,,,,,,2022-05-09,1,,,,,エービーシー,0
1265,5021001075933,新規,0,2022-05-09,2022-05-09,株式会社ケーズプランニング,,株式会社,神奈川県,相模原市中央区,光が丘１丁目１０番６５号,,14,152,2520227,,,,,,,2022-05-09,1,,,,,ケーズプランニング,0
1274,5030001148013,新規,0,2022-05-09,2022-05-09,株式会社ＺＩＯ,,株式会社,埼玉県,川口市,大字新堀１１５５番地の２,,11,203,3340061,,,,,,,2022-05-09,1,,,,,ジオ,0
1288,5040001123205,新規,0,2022-05-09,2022-05-09,株式会社フカボリ不動産,,株式会社,千葉県,旭市,ニの６３５６番地２３,,12,215,2892504,,,,,,,2022-05-09,1,,,,,フカボリフドウサン,0
1289,5040001123221,新規,0,2022-05-09,2022-05-09,株式会社Ｓｔｅｌｌｉｆｙ,,株式会社,千葉県,浦安市,美浜５丁目２番３０６号,,12,227,2790011,,,,,,,2022-05-09,1,,,,,ステリファイ,0
1290,5040001123262,新規,0,2022-05-09,2022-05-09,株式会社新栄塗装,,株式会社,千葉県,四街道市,吉岡１６９３番地１２,,12,228,2840032,,,,,,,2022-05-09,1,,,,,シンエイトソウ,0
1291,5040001123304,新規,0,2022-05-09,2022-05-09,株式会社Ｒ＆Ｓ,,株式会社,千葉県,印西市,大森２５３２番地２,,12,231,2701327,,,,,,,2022-05-09,1,,,,,アールアンドエス,0
1296,5060003004062,新規,0,2022-05-09,2022-05-09,バスティ合同会社,,合同会社,栃木県,宇都宮市,大曽１丁目５－５ＳＥＡＢＩＲＤビル２階２－Ａ号室,,09,201,3200014,,,,,,,2022-05-09,1,,,,,バスティ,0
1297,5070001039200,新規,0,2022-05-09,2022-05-09,株式会社Ｈｏｔ　ｓｈｏｔ　ｐｌｕｓ,,株式会社,群馬県,高崎市,下小塙町１３４３番地７,,10,202,3700076,,,,,,,2022-05-09,1,,,,,ホットショットプラス,0
1306,5080101023268,新規,0,2022-05-09,2022-05-09,株式会社ｇｕｒｅｆａ,,株式会社,静岡県,富士市,富士見台７丁目７番地の１５,,22,210,4170851,,,,,,,2022-05-09,1,,,,,グレファ,0
1307,5080401025798,新規,0,2022-05-09,2022-05-09,株式会社耕青ファーム,,株式会社,静岡県,浜松市西区,大人見町１２番地の５８５,,22,133,4311112,,,,,,,2022-05-09,1,,,,,コウセイファーム,0
1319,5120001245593,新規,0,2022-05-09,2022-05-09,マックスパワー株式会社,,株式会社,大阪府,大阪市北区,池田町１７番１７－４０２号,,27,127,5300033,,,,,,,2022-05-09,1,,,,,マックスパワー,0
1320,5120001245635,新規,0,2022-05-09,2022-05-09,株式会社ファミリー,,株式会社,大阪府,大阪市西成区,萩之茶屋２丁目１０番４号１Ｆ,,27,122,5570004,,,,,,,2022-05-09,1,,,,,ファミリー,0
1321,5120001245643,新規,0,2022-05-09,2022-05-09,安然株式会社,,株式会社,大阪府,大阪市浪速区,浪速東３丁目９番１５号,,27,111,5560025,,,,,,,2022-05-09,1,,,,,アンゼン,0
1322,5120001245651,新規,0,2022-05-09,2022-05-09,株式会社トゥライ,,株式会社,大阪府,大阪市西区,千代崎１丁目２６番８号,,27,106,5500023,,,,,,,2022-05-09,1,,,,,トゥライ,0
1323,5120001245676,新規,0,2022-05-09,2022-05-09,株式会社スロー,,株式会社,大阪府,寝屋川市,下神田町２１番３０号３０２,,27,215,5720054,,,,,,,2022-05-09,1,,,,,スロー,0
1324,5120001245701,新規,0,2022-05-09,2022-05-09,巽プラタナス株式会社,,株式会社,大阪府,門真市,下島町１９番９号,,27,223,5710075,,,,,,,2022-05-09,1,,,,,タツミプラタナス,0
1333,5120003021596,新規,0,2022-05-09,2022-05-09,合同会社美仁,,合同会社,大阪府,大阪市西淀川区,出来島３丁目２番サンラフレ出来島２号棟６０７号室,,27,113,5550031,,,,,,,2022-05-09,1,,,,,ビジン,0
1334,5120003021613,新規,0,2022-05-09,2022-05-09,合同会社Ｍ．ＬＡＢＯ,,合同会社,大阪府,大阪市北区,梅田１丁目１－３大阪駅前第３ビル２９階１－１－１号室,,27,127,5300001,,,,,,,2022-05-09,1,,,,,エムラボ,0
1335,5120003021621,新規,0,2022-05-09,2022-05-09,合同会社リアン,,合同会社,大阪府,大阪市淀川区,十三本町２丁目１－２６十三ＮＬＣビル５Ｆ,,27,123,5320024,,,,,,,2022-05-09,1,,,,,リアン,0
1340,5122001035834,新規,0,2022-05-09,2022-05-09,潤光建機材株式会社,,株式会社,大阪府,柏原市,大県２丁目５番９－３０５号,,27,221,5820018,,,,,,,2022-05-09,1,,,,,ジュンコウケンキザイ,0
1341,5122001035850,新規,0,2022-05-09,2022-05-09,株式会社大谷商店,,株式会社,大阪府,八尾市,沼２丁目１３４番地,,27,212,5810036,,,,,,,2022-05-09,1,,,,,オオタニショウテン,0
1345,5130001071709,新規,0,2022-05-09,2022-05-09,株式会社ＴＹＭＹ,,株式会社,京都府,京都市東山区,＿園町北側３０３番地,00126479,26,105,6050000,,,,,,,2022-05-09,1,,,,,タイミー,0
1352,5140001125876,新規,0,2022-05-09,2022-05-09,株式会社あゆみ,,株式会社,兵庫県,西宮市,甲東園１丁目１番６号,,28,204,6620812,,,,,,,2022-05-09,1,,,,,アユミ,0
1353,5140001125942,新規,0,2022-05-09,2022-05-09,株式会社福井工業,,株式会社,兵庫県,伊丹市,南野２丁目５番２５－１号,,28,207,6640865,,,,,,,2022-05-09,1,,,,,フクイコウギョウ,0
1358,5140005026162,新規,0,2022-05-09,2022-05-09,一般社団法人ＫＯＢＥ　ＰＡＩＲ　ＴＲＡＷＬＩＮＧＳ,,その他の設立登記法人,兵庫県,神戸市垂水区,平磯３丁目１－１０（神戸市漁業協同組合内）,,28,108,6550892,,,,,,,2022-05-09,1,,,,,コウベペアトローリングス,0
1359,5150001025514,新規,0,2022-05-09,2022-05-09,株式会社誠江,,株式会社,奈良県,奈良市,古市町１８３２番地の１,,29,201,6308424,,,,,,,2022-05-09,1,,,,,セイコウ,0
1361,5170001017096,新規,0,2022-05-09,2022-05-09,株式会社ランナー,,株式会社,和歌山県,和歌山市,磯の浦６６３番地,,30,201,6400114,,,,,,,2022-05-09,1,,,,,ランナー,0
1374,5180301036191,新規,0,2022-05-09,2022-05-09,株式会社Ｌｉｂｅｒｔｉｎｅ,,株式会社,愛知県,刈谷市,板倉町１丁目３番地１エスポワール板倉４０１号,,23,210,4480801,,,,,,,2022-05-09,1,,,,,リバティーン,0
1380,5200001040037,新規,0,2022-05-09,2022-05-09,株式会社ＥＮＴＡＬＥ,,株式会社,岐阜県,加茂郡坂祝町,酒倉９９３番地,,21,501,5050074,,,,,,,2022-05-09,1,,,,,エンターレ,0
1381,5200001040045,新規,0,2022-05-09,2022-05-09,株式会社谷口木材,,株式会社,岐阜県,飛騨市,神岡町山田１４１０番地,,21,217,5061156,,,,,,,2022-05-09,1,,,,,タニグチモクザイ,0
1382,5200001040061,新規,0,2022-05-09,2022-05-09,まちアーキ不動産株式会社,,株式会社,岐阜県,岐阜市,山吹町５丁目４２番地,,21,201,5020905,,,,,,,2022-05-09,1,,,,,マチアーキフドウサン,0
1385,5210001018916,新規,0,2022-05-09,2022-05-09,株式会社アイボリックス,,株式会社,福井県,福井市,東森田１丁目６０２,,18,201,9100138,,,,,,,2022-05-09,1,,,,,アイボリックス,0
1389,5230001019350,新規,0,2022-05-09,2022-05-09,株式会社トップフード,,株式会社,富山県,高岡市,波岡１８４番地３,,16,202,9330958,,,,,,,2022-05-09,1,,,,,トップフード,0
1394,5240001059742,新規,0,2022-05-09,2022-05-09,株式会社Ｅａｇｌｅ,,株式会社,広島県,広島市南区,向洋新町１丁目１１番１６－２０２号,,34,103,7340055,,,,,,,2022-05-09,1,,,,,イーグル,0
1395,5240001059750,新規,0,2022-05-09,2022-05-09,ＨＳＣ株式会社,,株式会社,広島県,広島市中区,榎町１－１４坪井ビル４０３号室,,34,101,7300851,,,,,,,2022-05-09,1,,,,,エイチエスシー,0
1399,5260001036839,新規,0,2022-05-09,2022-05-09,株式会社勇工業,,株式会社,岡山県,倉敷市,水島福崎町８番２０号港ビル４階,,33,202,7128056,,,,,,,2022-05-09,1,,,,,イサミコウギョウ,0
1402,5260003003903,新規,0,2022-05-09,2022-05-09,合同会社小僧,,合同会社,岡山県,津山市,野村２５４番地,,33,203,7081116,,,,,,,2022-05-09,1,,,,,コゾウ,0
1404,5260005011086,新規,0,2022-05-09,2022-05-09,特定非営利活動法人ねっこ,,その他の設立登記法人,岡山県,岡山市東区,東平島１８番地７,,33,103,7090631,,,,,,,2022-05-09,1,,,,,ネッコ,0
1410,5290001097408,新規,0,2022-05-09,2022-05-09,株式会社ＴＯＮＥＲＩ,,株式会社,福岡県,福岡市東区,箱崎６丁目１１番１４号,,40,131,8120053,,,,,,,2022-05-09,1,,,,,トネリ,0
1411,5290001097424,新規,0,2022-05-09,2022-05-09,タナケン株式会社,,株式会社,福岡県,久留米市,城南町１２番地２６,,40,203,8300022,,,,,,,2022-05-09,1,,,,,タナケン,0
1412,5290001097432,新規,0,2022-05-09,2022-05-09,千代田エネルギーソリューションズ株式会社,,株式会社,福岡県,福岡市博多区,堅粕５丁目１番１２号,,40,132,8120043,,,,,,,2022-05-09,1,,,,,チヨダエネルギーソリューションズ,0
1413,5290001097440,新規,0,2022-05-09,2022-05-09,株式会社ＢＬＵＥ　ＷＩＮＧ,,株式会社,福岡県,福岡市早良区,原６丁目１１－６アムール飯倉ＩＩ４０８,00126470,40,137,8140022,,,,,,,2022-05-09,1,,,,,ブルーウィング,0
1414,5290001097449,新規,0,2022-05-09,2022-05-09,レリビ株式会社,,株式会社,福岡県,福岡市博多区,須崎町１番７号須崎石蔵ビル２０１,,40,132,8120028,,,,,,,2022-05-09,1,,,,,レリビ,0
1415,5300001012918,新規,0,2022-05-09,2022-05-09,株式会社枝吉春喜建築設計事務所,,株式会社,佐賀県,佐賀市,嘉瀬町大字扇町２４６１番地１６,,41,201,8400862,,,,,,,2022-05-09,1,,,,,エダヨシハルキケンチクセッケイジムショ,0
1422,5320001019044,新規,0,2022-05-09,2022-05-09,ジェイ・ウッド株式会社,,株式会社,大分県,由布市,湯布院町川西１２００番地１３５,,44,213,8795113,,,,,,,2022-05-09,1,,,,,ジェイウッド,0
1423,5320001019052,新規,0,2022-05-09,2022-05-09,株式会社ＢＧＶ,,株式会社,大分県,別府市,北浜１丁目６番１７号,,44,202,8740920,,,,,,,2022-05-09,1,,,,,ビージーブイ,0
1426,5330005010519,新規,0,2022-05-09,2022-05-09,土地家屋調査士法人坂本事務所,,その他の設立登記法人,熊本県,熊本市東区,戸島１丁目１３番７号,,43,102,8618041,,,,,,,2022-05-09,1,,,,,サカモトジムショ,0
1428,5340001024694,新規,0,2022-05-09,2022-05-09,株式会社ｍｉｃｈｉ,,株式会社,鹿児島県,鹿児島市,東千石町１８番７号,,46,201,8920842,,,,,,,2022-05-09,1,,,,,ミチ,0
1429,5340001024703,新規,0,2022-05-09,2022-05-09,フードテックソリューションズ株式会社,,株式会社,鹿児島県,鹿児島市,浜町２番２号,,46,201,8920812,,,,,,,2022-05-09,1,,,,,フードテックソリューションズ,0
1432,5350001017730,新規,0,2022-05-09,2022-05-09,株式会社カワノミート,,株式会社,宮崎県,児湯郡新富町,大字新田１６２８９番地３,,45,402,8891406,,,,,,,2022-05-09,1,,,,,カワノミート,0
1434,5360001030344,新規,0,2022-05-09,2022-05-09,株式会社ＦＵＫＵＯＫＡ,,株式会社,沖縄県,島尻郡八重瀬町,字友寄９０３番地３８,,47,362,9010411,,,,,,,2022-05-09,1,,,,,フクオカ,0
1437,5360003011994,新規,0,2022-05-09,2022-05-09,合同会社喜久,,合同会社,沖縄県,那覇市,久茂地２丁目２１番２２号メゾンＫ４０１,,47,201,9000015,,,,,,,2022-05-09,1,,,,,キキュウ,0
1438,5370001048534,新規,0,2022-05-09,2022-05-09,株式会社桜畑商店,,株式会社,宮城県,名取市,増田３丁目３番１７－１００１号,,04,207,9811224,,,,,,,2022-05-09,1,,,,,サクラバタショウテン,0
1440,5380001032801,新規,0,2022-05-09,2022-05-09,株式会社藤,,株式会社,福島県,いわき市,好間町北好間字清水１３番地の１,,07,204,9701145,,,,,,,2022-05-09,1,,,,,フジ,0
1444,5400001015877,新規,0,2022-05-09,2022-05-09,株式会社アンド・アイ,,株式会社,岩手県,盛岡市,津志田中央３丁目２７番２０号,,03,201,0200838,,,,,,,2022-05-09,1,,,,,アンドアイ,0
1456,5450001013694,新規,0,2022-05-09,2022-05-09,株式会社ハイル興業,,株式会社,北海道,旭川市,永山十条１５丁目５番１９号,,01,204,0798420,,,,,,,2022-05-09,1,,,,,ハイルコウギョウ,0
1461,5460303000761,新規,0,2022-05-09,2022-05-09,合同会社海風堂,,合同会社,北海道,網走郡大空町,女満別東一条１丁目１番１５号,,01,564,0992311,,,,,,,2022-05-09,1,,,,,カイフウドウ,0
1462,5470001019070,新規,0,2022-05-09,2022-05-09,株式会社開進サービス,,株式会社,香川県,善通寺市,与北町２６１１番地１,,37,204,7650040,,,,,,,2022-05-09,1,,,,,カイシンサービス,0
1464,5480001011729,新規,0,2022-05-09,2022-05-09,株式会社アークレア,,株式会社,徳島県,阿波市,吉野町西条字庄境１８０番地１１,,36,206,7711402,,,,,,,2022-05-09,1,,,,,アークレア,0
1465,5490001010168,新規,0,2022-05-09,2022-05-09,株式会社東和建設,,株式会社,高知県,安芸市,川北乙１７２３番地１０,,39,203,7840044,,,,,,,2022-05-09,1,,,,,トウワケンセツ,0
1467,5500001024190,新規,0,2022-05-09,2022-05-09,株式会社成松寿建設,,株式会社,愛媛県,松山市,山西町８２２－９,,38,201,7918026,,,,,,,2022-05-09,1,,,,,ナリマツケンセツ,0
1468,5500003002822,新規,0,2022-05-09,2022-05-09,合同会社木村農園,,合同会社,愛媛県,松山市,東垣生町９３番地１,,38,201,7918043,,,,,,,2022-05-09,1,,,,,キムラノウエン,0
1469,5700150108567,新規,0,2022-05-09,2022-05-09,ＮｅｔＥａｓｅ　Ｉｎｔｅｒａｃｔｉｖｅ　Ｅｎｔｅｒｔａｉｎｍｅｎｔ　Ｐｔｅ．Ｌｔｄ．,,外国会社等,,,,,,,,Ｗｉｃｋｈａｍｓ　Ｃａｙ　ＩＩ，Ｒｏａｄ　Ｔｏｗｎ，Ｔｏｒｔｏｌａ，ＶＧ１１１０，Ｂｒｉｔｉｓｈ　Ｖｉｒｇｉｎ　Ｉｓｌａｎｄ,,,,,,2022-05-09,1,,,,,ネツトイースインタラクテイブエンタテインメント,0
1474,6010001226364,新規,0,2022-05-09,2022-05-09,株式会社ＭＡＭＥＺＯ,,株式会社,東京都,中央区,銀座７丁目１３番６号サガミビル２階,,13,102,1040061,,,,,,,2022-05-09,1,,,,,マメゾー,0
1478,6010003037594,新規,0,2022-05-09,2022-05-09,イー・コンサルティング合同会社,,合同会社,東京都,中央区,銀座６丁目１３番９号ｂｉｚｃｕｂｅ,,13,102,1040061,,,,,,,2022-05-09,1,,,,,イーコンサルティング,0
1481,6010005034961,新規,0,2022-05-09,2022-05-09,ＥＳＲ２５・１一般社団法人,,その他の設立登記法人,東京都,中央区,日本橋１丁目４番１号日本橋一丁目ビルディング,,13,102,1030027,,,,,,,2022-05-09,1,,,,,イーエスアールニジュウゴイチ,0
1484,6010103001905,新規,0,2022-05-09,2022-05-09,合同会社ＡＭＳ,,合同会社,東京都,八王子市,別所１丁目５４番地,,13,201,1920363,,,,,,,2022-05-09,1,,,,,エーエムエス,0
1494,6010401167183,新規,0,2022-05-09,2022-05-09,株式会社Ｔｒｉｌｌ,,株式会社,東京都,港区,六本木３丁目８番８号ＷＯＯビル３Ｆ,,13,103,1060032,,,,,,,2022-05-09,1,,,,,トリル,0
1495,6010401167209,新規,0,2022-05-09,2022-05-09,株式会社Ｌａｕｇｈｋｙ,,株式会社,東京都,港区,浜松町２丁目２番１５号浜松町ダイヤビル２Ｆ,,13,103,1050013,,,,,,,2022-05-09,1,,,,,ラフキー,0
1496,6010403027641,新規,0,2022-05-09,2022-05-09,合同会社ツインシティリーシングワン,,合同会社,東京都,港区,六本木６丁目１０番１号六本木ヒルズ森タワー,,13,103,1060032,,,,,,,2022-05-09,1,,,,,ツインシティリーシングワン,0
1498,6010501048787,新規,0,2022-05-09,2022-05-09,株式会社グラッヴ,,株式会社,東京都,台東区,上野４丁目３番８号三浦ビルＢ１,,13,106,1100005,,,,,,,2022-05-09,1,,,,,グラッヴ,0
1506,6010803004158,新規,0,2022-05-09,2022-05-09,デジタルブレイク合同会社,,合同会社,東京都,大田区,東馬込１丁目２５番７－２０１号,,13,111,1430022,,,,,,,2022-05-09,1,,,,,デジタルブレイク,0
1509,6011001147278,新規,0,2022-05-09,2022-05-09,株式会社ＧＣ,,株式会社,東京都,渋谷区,渋谷１丁目１２番８号ＩＬＡ渋谷美竹ビル４０３,,13,113,1500002,,,,,,,2022-05-09,1,,,,,ジーシー,0
1510,6011001147344,新規,0,2022-05-09,2022-05-09,株式会社Ｔセンス,,株式会社,東京都,渋谷区,桜丘町１５番１４号フジビル４０．７Ｆ,,13,113,1500031,,,,,,,2022-05-09,1,,,,,ティーセンス,0
1511,6011005009565,新規,0,2022-05-09,2022-05-09,一般社団法人ウーマンライフデザイン協会,,その他の設立登記法人,東京都,渋谷区,神宮前６丁目１０番９号原宿董友ビル４階,,13,113,1500001,,,,,,,2022-05-09,1,,,,,ウーマンライフデザイン,0
1516,6011101098677,新規,0,2022-05-09,2022-05-09,ＭＳＣホールディングス株式会社,,株式会社,東京都,新宿区,西新宿７丁目１１番１５－３０１号,,13,104,1600023,,,,,,,2022-05-09,1,,,,,エムエスシーホールディングス,0
1517,6011103011720,新規,0,2022-05-09,2022-05-09,合同会社ブリッジステーション,,合同会社,東京都,新宿区,西早稲田１丁目２２番３号,,13,104,1690051,,,,,,,2022-05-09,1,,,,,ブリッジステーション,0
1521,6011301027758,新規,0,2022-05-09,2022-05-09,優町株式会社,,株式会社,東京都,杉並区,天沼２丁目７番７号マンション大竹３０１,,13,115,1670032,,,,,,,2022-05-09,1,,,,,ユウチョウ,0
1522,6011303004400,新規,0,2022-05-09,2022-05-09,４ＧＡＴＥ合同会社,,合同会社,東京都,杉並区,高円寺南４丁目２５番７号,,13,115,1660003,,,,,,,2022-05-09,1,,,,,フォーゲート,0
1524,6011701025287,新規,0,2022-05-09,2022-05-09,株式会社ＢＡＮＡＮＡ,,株式会社,東京都,江戸川区,北小岩７丁目１番１６号,,13,123,1330051,,,,,,,2022-05-09,1,,,,,バナナ,0
1525,6011803005063,新規,0,2022-05-09,2022-05-09,合同会社ブリッジ,,合同会社,東京都,葛飾区,東水元４丁目８番２８号,,13,122,1250033,,,,,,,2022-05-09,1,,,,,ブリッジ,0
1526,6012403005346,新規,0,2022-05-09,2022-05-09,ＡＭＡＮＴＲＡ合同会社,,合同会社,東京都,稲城市,若葉台１丁目１３番地の４２,,13,225,2060824,,,,,,,2022-05-09,1,,,,,アマントラ,0
1527,6012405004734,新規,0,2022-05-09,2022-05-09,一般社団法人アスレティックス・ラボ,,その他の設立登記法人,東京都,府中市,府中町３丁目２番地の１－１階,,13,206,1830055,,,,,,,2022-05-09,1,,,,,アスレティックスラボ,0
1528,6013103001131,新規,0,2022-05-09,2022-05-09,合同会社ガーベラ,,合同会社,東京都,羽村市,小作台３丁目１９番地１６,,13,227,2050001,,,,,,,2022-05-09,1,,,,,,0
1529,6013105001798,新規,0,2022-05-09,2022-05-09,一般社団法人ＤＡＺＢＯＧ,,その他の設立登記法人,東京都,あきる野市,小中野３３９番地７,,13,228,1900165,,,,,,,2022-05-09,1,,,,,ダジボーグ,0
1532,6013301049055,新規,0,2022-05-09,2022-05-09,株式会社アーキシーク,,株式会社,東京都,豊島区,東池袋１丁目３４番５号いちご東池袋ビル６階,,13,116,1700013,,,,,,,2022-05-09,1,,,,,アーキシーク,0
1541,6020001146363,新規,0,2022-05-09,2022-05-09,株式会社ＷＩＮ　ＦＥＥＴ,,株式会社,神奈川県,横浜市都筑区,中川中央１丁目３９番７－７０９号,,14,118,2240003,,,,,,,2022-05-09,1,,,,,ウインフィート,0
1542,6020001146371,新規,0,2022-05-09,2022-05-09,丸源商事株式会社,,株式会社,神奈川県,横浜市中区,鷺山８番地４,,14,104,2310848,,,,,,,2022-05-09,1,,,,,マルゲンショウジ,0
1543,6020001146388,新規,0,2022-05-09,2022-05-09,株式会社ジョイフル,,株式会社,神奈川県,横浜市中区,相生町６丁目１１３番地オーク桜木町ビル７階,,14,104,2310012,,,,,,,2022-05-09,1,,,,,ジョイフル,0
1545,6020003021738,新規,0,2022-05-09,2022-05-09,エスティアセット合同会社,,合同会社,神奈川県,横浜市西区,花咲町６丁目１３８番地１クリオレジダンス横濱ザ・マークス１１０６号,,14,103,2200022,,,,,,,2022-05-09,1,,,,,エスティアセット,0
1546,6020005015523,新規,0,2022-05-09,2022-05-09,ＮＰＯ法人つくしんぼうクラブ,,その他の設立登記法人,神奈川県,横浜市戸塚区,原宿２丁目６０番地３２号,,14,110,2450063,,,,,,,2022-05-09,1,,,,,ツクシンボウクラブ,0
1547,6021001075858,新規,0,2022-05-09,2022-05-09,株式会社トラビス,,株式会社,神奈川県,茅ヶ崎市,十間坂１丁目４番２－３０１号ライブリーＶＩＩＩ,00126469,14,207,2530045,,,,,,,2022-05-09,1,,,,,トラビス,0
1549,6021003011662,新規,0,2022-05-09,2022-05-09,ＴＳＵＮＡＧＵ　ＰＲＯＪＥＣＴ　ＮＥＴ　ＷＯＲＫ合同会社,,合同会社,神奈川県,中郡大磯町,東小磯２２７番地１大磯シーサイドヒルズ１１１号,,14,341,2550004,,,,,,,2022-05-09,1,,,,,ツナグプロジェクトネットワーク,0
1550,6021003011670,新規,0,2022-05-09,2022-05-09,Ｉ＆Ｍ合同会社,,合同会社,神奈川県,厚木市,寿町３丁目６番４号,,14,212,2430003,,,,,,,2022-05-09,1,,,,,アイアンドエム,0
1551,6021005012519,新規,0,2022-05-09,2022-05-09,一般社団法人往診獣医師協会,,その他の設立登記法人,神奈川県,藤沢市,湘南台２丁目２２番１６号向進ビル４０２,,14,205,2520804,,,,,,,2022-05-09,1,,,,,オウシンジュウイシキョウカイ,0
1560,6040001123212,新規,0,2022-05-09,2022-05-09,株式会社西井組,,株式会社,千葉県,市原市,東五所７番地１－１０２,,12,219,2900064,,,,,,,2022-05-09,1,,,,,ニシイグミ,0
1561,6040001123220,新規,0,2022-05-09,2022-05-09,千禧株式会社,,株式会社,千葉県,四街道市,鹿放ケ丘６０４番地１－２０７,,12,228,2840008,,,,,,,2022-05-09,1,,,,,センキ,0
1562,6040001123245,新規,0,2022-05-09,2022-05-09,株式会社Ｓｔｕｄｉｏ　ＴＳＵＭＩＫＩ,,株式会社,千葉県,流山市,市野谷２１３番地の２（運Ａ２１街区４－３）,,12,220,2700137,,,,,,,2022-05-09,1,,,,,スタジオツミキ,0
1571,6050001051065,新規,0,2022-05-09,2022-05-09,株式会社岩佐産業,,株式会社,茨城県,那珂市,額田南郷２３３３番地４,,08,226,3110107,,,,,,,2022-05-09,1,,,,,イワササンギョウ,0
1573,6060001034853,新規,0,2022-05-09,2022-05-09,株式会社アカラ,,株式会社,栃木県,下都賀郡壬生町,表町７番４２号,,09,361,3210224,,,,,,,2022-05-09,1,,,,,アカラ,0
1574,6070001039174,新規,0,2022-05-09,2022-05-09,株式会社Ｓｓｔｙｌｅ,,株式会社,群馬県,館林市,美園町２２番４７号,,10,207,3740039,,,,,,,2022-05-09,1,,,,,エススタイル,0
1575,6070001039190,新規,0,2022-05-09,2022-05-09,Ａ＆Ｋ株式会社,,株式会社,群馬県,高崎市,矢中町１０７６番地１３,,10,202,3701203,,,,,,,2022-05-09,1,,,,,エーアンドケー,0
1579,6070005009990,新規,0,2022-05-09,2022-05-09,一般社団法人ディスカバーリンク,,その他の設立登記法人,群馬県,前橋市,住吉町２丁目３番３号,,10,201,3710021,,,,,,,2022-05-09,1,,,,,,0
1583,6080401025789,新規,0,2022-05-09,2022-05-09,株式会社サンセイ,,株式会社,静岡県,袋井市,松原７８２番地,,22,216,4371117,,,,,,,2022-05-09,1,,,,,サンセイ,0
1585,6100001035285,新規,0,2022-05-09,2022-05-09,株式会社ピノー,,株式会社,長野県,飯田市,鼎西鼎９２２番地１,,20,205,3950026,,,,,,,2022-05-09,1,,,,,ピノー,0
1596,6120001245642,新規,0,2022-05-09,2022-05-09,福至株式会社,,株式会社,大阪府,大阪市平野区,平野市町１丁目１－１３申野オフィス２Ｆ,,27,126,5470042,,,,,,,2022-05-09,1,,,,,フクシ,0
1597,6120001245659,新規,0,2022-05-09,2022-05-09,Ｉ．Ｓ．Ｃ．株式会社,,株式会社,大阪府,大阪市中央区,南船場２丁目７番１１号心斎橋ＥＰビル４階Ａ室,,27,128,5420081,,,,,,,2022-05-09,1,,,,,アイエスシー,0
1598,6120001245667,新規,0,2022-05-09,2022-05-09,株式会社ライズ,,株式会社,大阪府,大阪市中央区,南本町３丁目１番２号,,27,128,5410054,,,,,,,2022-05-09,1,,,,,ライズ,0
1599,6120001245700,新規,0,2022-05-09,2022-05-09,Ｌｉｎｋ　Ｒｅａｌｔｙ株式会社,,株式会社,大阪府,大阪市北区,天神橋４丁目５番７号,,27,127,5300041,,,,,,,2022-05-09,1,,,,,リンクリアルティ,0
1600,6120001245733,新規,0,2022-05-09,2022-05-09,株式会社関西ファシリティーサービス,,株式会社,大阪府,枚方市,長尾家具町１丁目１番地の４,,27,210,5730102,,,,,,,2022-05-09,1,,,,,カンサイファシリティーサービス,0
1603,6120101065560,新規,0,2022-05-09,2022-05-09,株式会社タカラＩＣＴソリューションズ,,株式会社,大阪府,堺市東区,西野５１２番地８,,27,143,5998125,,,,,,,2022-05-09,1,,,,,タカラアイシーティーソリューションズ,0
1605,6120105009555,新規,0,2022-05-09,2022-05-09,一般社団法人Ｌｉｆｅ　Ｓｐｏｒｔｓ　Ａｃａｄｅｍｙ,,その他の設立登記法人,大阪府,和泉市,室堂町４７番地の４,,27,219,5941101,,,,,,,2022-05-09,1,,,,,ライフスポーツアカデミー,0
1607,6120903004138,新規,0,2022-05-09,2022-05-09,合同会社マスト,,合同会社,大阪府,豊能郡能勢町,野間出野３９４番地,,27,322,5630134,,,,,,,2022-05-09,1,,,,,マスト,0
1609,6122001035833,新規,0,2022-05-09,2022-05-09,株式会社共進,,株式会社,大阪府,四條畷市,清滝中町６番１号,,27,229,5750061,,,,,,,2022-05-09,1,,,,,キョウシン,0
1610,6122003002328,新規,0,2022-05-09,2022-05-09,合同会社ハイクア・インターナショナル,,合同会社,大阪府,八尾市,八尾木北１丁目４４番地,,27,212,5810016,,,,,,,2022-05-09,1,,,,,ハイクアインターナショナル,0
1612,6130001071690,新規,0,2022-05-09,2022-05-09,株式会社Ｔｅｓｔｏｓｔｅｒｏｎｅ,,株式会社,京都府,京都市中京区,御池通東洞院東入笹屋町４３６永和御池ビル６０６号,,26,104,6048187,,,,,,,2022-05-09,1,,,,,テストステロン,0
1619,6140001125834,新規,0,2022-05-09,2022-05-09,株式会社ＬＥＯＮ,,株式会社,兵庫県,神戸市須磨区,南町１丁目４番１６－４号,,28,107,6540036,,,,,,,2022-05-09,1,,,,,レオン,0
1620,6140001125867,新規,0,2022-05-09,2022-05-09,株式会社Ｎｅｘｔ　Ｅｘｃｅｅｄ,,株式会社,兵庫県,神戸市灘区,桜口町５丁目１番１号ウェルブ六甲道５番街１番館１１８号,,28,102,6570036,,,,,,,2022-05-09,1,,,,,ネクストエクシード,0
1621,6140001125891,新規,0,2022-05-09,2022-05-09,株式会社スマイルファクトリー,,株式会社,兵庫県,西宮市,西宮浜４丁目９番２－８１０号,,28,204,6620934,,,,,,,2022-05-09,1,,,,,スマイルファクトリー,0
1622,6140001125909,新規,0,2022-05-09,2022-05-09,株式会社関西アドバンス,,株式会社,兵庫県,神戸市西区,平野町中津９２８番地,,28,111,6512257,,,,,,,2022-05-09,1,,,,,カンサイアドバンス,0
1624,6140003017609,新規,0,2022-05-09,2022-05-09,陽葵エステート合同会社,,合同会社,兵庫県,川西市,久代６丁目２番３－５０６号,,28,217,6660024,,,,,,,2022-05-09,1,,,,,ヒマリエステート,0
1625,6140003017658,新規,0,2022-05-09,2022-05-09,合同会社Ｎａｔｕｒａｌ　Ｇｒａｃｅ,,合同会社,兵庫県,朝来市,新井３６４,,28,225,6793431,,,,,,,2022-05-09,1,,,,,ナチュラルグレイス,0
1629,6160001024183,新規,0,2022-05-09,2022-05-09,株式会社太北建設,,株式会社,滋賀県,長浜市,東上坂町１５４７番地,,25,203,5260802,,,,,,,2022-05-09,1,,,,,タキタケンセツ,0
1632,6170003001717,新規,0,2022-05-09,2022-05-09,百間山渓谷キャンプ村管理合同会社,,合同会社,和歌山県,田辺市,熊野２９７,,30,206,6461321,,,,,,,2022-05-09,1,,,,,ヒャッケンザンケイコクキャンプムラカンリ,0
1641,6180001151158,新規,0,2022-05-09,2022-05-09,株式会社ＣＲＥＡＳ,,株式会社,愛知県,名古屋市東区,東桜１丁目３番８号,,23,102,4610005,,,,,,,2022-05-09,1,,,,,クレアス,0
1644,6180301036174,新規,0,2022-05-09,2022-05-09,株式会社ブライト２０３,,株式会社,愛知県,豊田市,挙母町２丁目１,,23,211,4710023,,,,,,,2022-05-09,1,,,,,ブライト,0
1645,6180303005326,新規,0,2022-05-09,2022-05-09,合同会社バンザイ,,合同会社,愛知県,豊橋市,東小田原町６３番地（４０１）,,23,201,4400886,,,,,,,2022-05-09,1,,,,,,0
1651,6200001040036,新規,0,2022-05-09,2022-05-09,Ｃｉｍａ　Ｊａｐａｎ株式会社,,株式会社,岐阜県,瑞穂市,生津８０８番地３２,,21,216,5010211,,,,,,,2022-05-09,1,,,,,シーマジャパン,0
1652,6200001040044,新規,0,2022-05-09,2022-05-09,尾崎鉄筋工業株式会社,00126482,株式会社,岐阜県,安八郡安八町,西結２８００番地の１,,21,383,5030111,,,,,,,2022-05-09,1,,,,,オザキテッキンコウギョウ,0
1653,6200001040052,新規,0,2022-05-09,2022-05-09,株式会社Ｋ‐Ｌｏｇｉｘ,,株式会社,岐阜県,関市,倉知１０８９番地１８,,21,205,5013936,,,,,,,2022-05-09,1,,,,,ケイロジックス,0
1655,6210003001506,新規,0,2022-05-09,2022-05-09,合同会社ミーティア,,合同会社,福井県,あわら市,東善寺第４号１９番地３,,18,208,9104131,,,,,,,2022-05-09,1,,,,,ミーティア,0
1663,6240001059733,新規,0,2022-05-09,2022-05-09,株式会社雄飛,,株式会社,広島県,尾道市,高須町３２２８番地,,34,205,7290141,,,,,,,2022-05-09,1,,,,,ユウヒ,0
1665,6240003005611,新規,0,2022-05-09,2022-05-09,高野の子どもの杜合同会社,,合同会社,広島県,庄原市,高野町新市１０９１番地２,,34,210,7270402,,,,,,,2022-05-09,1,,,,,タカノノコドモノモリ,0
1671,6260001036821,新規,0,2022-05-09,2022-05-09,株式会社仁,,株式会社,岡山県,岡山市東区,金田１０７５番地２０,,33,103,7048196,,,,,,,2022-05-09,1,,,,,ジン,0
1673,6260005011085,新規,0,2022-05-09,2022-05-09,特定非営利活動法人ＰＩＡおかやま,,その他の設立登記法人,岡山県,岡山市中区,江崎４６番地,,33,102,7028005,,,,,,,2022-05-09,1,,,,,ピーアイエイオカヤマ,0
1683,6290001097299,新規,0,2022-05-09,2022-05-09,株式会社Ｔ．Ｉ．Ｅ．,,株式会社,福岡県,福岡市中央区,大名１丁目１番２０号南風ビル６Ｆ,,40,133,8100041,,,,,,,2022-05-09,1,,,,,ティーアイイー,0
1684,6290001097431,新規,0,2022-05-09,2022-05-09,ＴＡＫＡＭＩＹＡコーポレーション株式会社,,株式会社,福岡県,太宰府市,通古賀３丁目１番１４－３０２号,,40,221,8180104,,,,,,,2022-05-09,1,,,,,タカミヤコーポレーション,0
1685,6290001097480,新規,0,2022-05-09,2022-05-09,株式会社聖建設,,株式会社,福岡県,飯塚市,忠隈３２２番地４エルグラン忠隈２号,,40,205,8200071,,,,,,,2022-05-09,1,,,,,ヒジリケンセツ,0
1686,6290003012479,新規,0,2022-05-09,2022-05-09,井上カウンセリングオフィス合同会社,,合同会社,福岡県,福岡市中央区,天神４丁目７番１１号４Ｆ,,40,133,8100001,,,,,,,2022-05-09,1,,,,,イノウエカウンセリングオフィス,0
1697,6330001029710,新規,0,2022-05-09,2022-05-09,株式会社藤吉創建,,株式会社,熊本県,熊本市中央区,九品寺５丁目２番５０－５０５号レクシアシティ九品寺グラナス,,43,101,8620976,,,,,,,2022-05-09,1,,,,,フジヨシソウケン,0
1698,6330001029719,新規,0,2022-05-09,2022-05-09,株式会社ＳＫコーポレーション,,株式会社,熊本県,熊本市北区,太郎迫町４５４番地９,,43,105,8615532,,,,,,,2022-05-09,1,,,,,エスケーコーポレーション,0
1700,6330003009355,新規,0,2022-05-09,2022-05-09,合同会社ＦＡＩＲ,,合同会社,熊本県,熊本市南区,海路口町５２７番地,,43,104,8614124,,,,,,,2022-05-09,1,,,,,フェア,0
1704,6340001024693,新規,0,2022-05-09,2022-05-09,株式会社Ａｎｄｅｎｋｅｎ,,株式会社,鹿児島県,鹿児島市,東開町４番地１１９,,46,201,8910115,,,,,,,2022-05-09,1,,,,,アンデンケン,0
1707,6350005006068,新規,0,2022-05-09,2022-05-09,妙興寺,,その他の設立登記法人,宮崎県,日南市,大字星倉６１０番４,,45,204,8892533,,,,,,,2022-05-09,1,,,,,ミョウコウジ,0
1708,6360001030335,新規,0,2022-05-09,2022-05-09,高和株式会社,,株式会社,沖縄県,浦添市,内間１丁目１２－１８・２０１,,47,208,9012121,,,,,,,2022-05-09,1,,,,,コウワ,0
1709,6360005006645,新規,0,2022-05-09,2022-05-09,医療法人涼音会,,その他の設立登記法人,沖縄県,那覇市,天久２丁目５番３８号,,47,201,9000005,,,,,,,2022-05-09,1,,,,,スズオトカイ,0
1711,6370003005680,新規,0,2022-05-09,2022-05-09,合同会社サイドハンド,,合同会社,宮城県,仙台市宮城野区,大梶１５番１６号,,04,102,9830835,,,,,,,2022-05-09,1,,,,,サイドハンド,0
1717,6380001032783,新規,0,2022-05-09,2022-05-09,株式会社ケアシスト,,株式会社,福島県,須賀川市,深渡戸字上１１番地,,07,207,9620314,,,,,,,2022-05-09,1,,,,,ケアシスト,0
1720,6400001015876,新規,0,2022-05-09,2022-05-09,蔵谷建設株式会社,,株式会社,岩手県,九戸郡洋野町,有家第２地割２６番地,,03,507,0287905,,,,,,,2022-05-09,1,,,,,クラヤケンセツ,0
1721,6400003002930,新規,0,2022-05-09,2022-05-09,合同会社ネオテニー,,合同会社,岩手県,盛岡市,北山１丁目３番３１号,,03,201,0200061,,,,,,,2022-05-09,1,,,,,ネオテニー,0
1726,6430001086527,新規,0,2022-05-09,2022-05-09,株式会社Ｎ’ｓ　ＣＲＥＡＴＥ,,株式会社,北海道,恵庭市,幸町２丁目１１番１５号,,01,231,0611426,,,,,,,2022-05-09,1,,,,,エヌズクリエイト,0
1727,6430001086592,新規,0,2022-05-09,2022-05-09,株式会社ＡＣＥコーポレーション,,株式会社,北海道,札幌市豊平区,平岸四条１１丁目１０番１７号,,01,105,0620934,,,,,,,2022-05-09,1,,,,,エースコーポレーション,0
1730,6480001011728,新規,0,2022-05-09,2022-05-09,株式会社竹内設備,,株式会社,徳島県,板野郡北島町,中村字野畑５番地５,,36,402,7710203,,,,,,,2022-05-09,1,,,,,タケウチセツビ,0
1733,6500001024198,新規,0,2022-05-09,2022-05-09,株式会社ＷｉｎｋＤｏｌｌ,,株式会社,愛媛県,今治市,本町５丁目５番４号,,38,202,7940018,,,,,,,2022-05-09,1,,,,,ウインクドール,0
1734,6700150108566,新規,0,2022-05-09,2022-05-09,ＰａｒｔｎｅｒＲｅ　Ｌｉｆｅ　＆　Ｈｅａｌｔｈ，Ｊａｐａｎ　Ｒｅｐｒｅｓｅｎｔａｔｉｖｅ　Ｏｆｆｉｃｅ,,外国会社等,東京都,千代田区,内幸町１丁目１－１インペリアルホテルタワー１５階,,13,101,1000011,８　Ｔｅｍａｓｅｋ　Ｂｏｕｌｅｖａｒｄ，＃１３－０１／０２，Ｓｕｎｔｅｃ　Ｔｏｗｅｒ　Ｔｈｒｅｅ，Ｓｉｎｇａｐｏｒｅ　０３８９８８,,,,,,2022-05-09,1,,,,,パートナーリーライフアンドヘルスジヤパンリプレゼンタテイブオフイス,0
1742,7010001226306,新規,0,2022-05-09,2022-05-09,株式会社ＳｃｅｎａｒｉｏＮｅｘｔ,,株式会社,東京都,中央区,日本橋堀留町２丁目８番１０－９０２号,,13,102,1030012,,,,,,,2022-05-09,1,,,,,シナリオネクスト,0
1743,7010001226388,新規,0,2022-05-09,2022-05-09,Ｊ‐ＳＴＡＲアセットマネジメント株式会社,,株式会社,東京都,千代田区,丸の内３丁目４番１号新国際ビル６階,,13,101,1000005,,,,,,,2022-05-09,1,,,,,ジェイスターアセットマネジメント,0
1744,7010001226413,新規,0,2022-05-09,2022-05-09,株式会社礒田,,株式会社,東京都,中央区,日本橋人形町２丁目６番１１号,,13,102,1030013,,,,,,,2022-05-09,1,,,,,イソダ,0
1748,7010003037552,新規,0,2022-05-09,2022-05-09,華夏永興合同会社,,合同会社,東京都,千代田区,麹町３丁目１０番地２ＣＩＴＹＳＰＩＲＥ半蔵門４０１号,,13,101,1020083,,,,,,,2022-05-09,1,,,,,カナツエイコウ,0
1749,7010003037569,新規,0,2022-05-09,2022-05-09,ＲＢソーラーデルタ合同会社,,合同会社,東京都,中央区,八丁堀４丁目２番１０号ＡＯＪ税理士法人内,,13,102,1040032,,,,,,,2022-05-09,1,,,,,アールビーソーラデルタ,0
1750,7010003037593,新規,0,2022-05-09,2022-05-09,いわき三和ウィンドエナジー合同会社,,合同会社,東京都,千代田区,神田須田町１丁目２５番地,,13,101,1010041,,,,,,,2022-05-09,1,,,,,イワキミワウィンドエナジー,0
1751,7010003037602,新規,0,2022-05-09,2022-05-09,岩手大船渡自然エネルギー合同会社,,合同会社,東京都,文京区,本郷５丁目３３番１０号,,13,105,1130033,,,,,,,2022-05-09,1,,,,,イワテオオフナトシゼンエネルギー,0
1752,7010005034969,新規,0,2022-05-09,2022-05-09,一般社団法人医釣会,,その他の設立登記法人,東京都,中央区,月島２丁目７番９号２７９月島,,13,102,1040052,,,,,,,2022-05-09,1,,,,,イチョウカイ,0
1755,7010101015170,新規,0,2022-05-09,2022-05-09,株式会社ナカジマ,,株式会社,東京都,八王子市,元八王子町２丁目３３６７番地１８,,13,201,1930826,,,,,,,2022-05-09,1,,,,,ナカジマ,0
1762,7010401167182,新規,0,2022-05-09,2022-05-09,株式会社Ｌｉｔ,,株式会社,東京都,港区,麻布台２丁目３番７号メゾン・ド・ヴィレ麻布台４０５,,13,103,1060041,,,,,,,2022-05-09,1,,,,,リット,0
1763,7010403027590,新規,0,2022-05-09,2022-05-09,合同会社ＡｘＣ,,合同会社,東京都,港区,南青山２丁目２番１５号,,13,103,1070062,,,,,,,2022-05-09,1,,,,,エーバイシー,0
1764,7010403027616,新規,0,2022-05-09,2022-05-09,合同会社ｃｏｎｓｉｄｅｒ,,合同会社,東京都,港区,南青山２丁目２番１５号,,13,103,1070062,,,,,,,2022-05-09,1,,,,,コンシダー,0
1765,7010403027640,新規,0,2022-05-09,2022-05-09,合同会社リアルティジャパンスリー,,合同会社,東京都,港区,六本木６丁目１０番１号六本木ヒルズ森タワー,,13,103,1060032,,,,,,,2022-05-09,1,,,,,リアルティジャパンスリー,0
1767,7010501048794,新規,0,2022-05-09,2022-05-09,株式会社ＰＩＮＫ　ＢＥＲＲＹ,,株式会社,東京都,台東区,西浅草３丁目６番１３号大西ビル１階,,13,106,1110035,,,,,,,2022-05-09,1,,,,,ピンクベリー,0
1768,7010503006577,新規,0,2022-05-09,2022-05-09,Ｓｔ．ｅｌｍｏ合同会社,,合同会社,東京都,台東区,池之端２丁目１番４２号,,13,106,1100008,,,,,,,2022-05-09,1,,,,,セントエルモ,0
1775,7010703006229,新規,0,2022-05-09,2022-05-09,Ｃａｐｉｔａｌ　Ｐｌａｎ合同会社,,合同会社,東京都,品川区,北品川５丁目３番１－２４１１号,,13,109,1410001,,,,,,,2022-05-09,1,,,,,キャピタルプラン,0
1782,7010803004157,新規,0,2022-05-09,2022-05-09,合同会社コスモケア,,合同会社,東京都,大田区,仲六郷４丁目７－１ビィラ仲六郷２０２,,13,111,1440055,,,,,,,2022-05-09,1,,,,,コスモケア,0
1785,7011001147293,新規,0,2022-05-09,2022-05-09,株式会社ＭＫプランニング,,株式会社,東京都,目黒区,大橋１丁目５番１－１５０７号,,13,110,1530044,,,,,,,2022-05-09,1,,,,,エムケープランニング,0
1786,7011001147302,新規,0,2022-05-09,2022-05-09,株式会社ＲＥ１００．ｃｏｍ,,株式会社,東京都,渋谷区,広尾１丁目１番３９号,,13,113,1500012,,,,,,,2022-05-09,1,,,,,アールイーワンハンドレッドドットコム,0
1787,7011001147310,新規,0,2022-05-09,2022-05-09,株式会社Ｒ＆Ｍ,,株式会社,東京都,渋谷区,上原３丁目３２番９号,,13,113,1510064,,,,,,,2022-05-09,1,,,,,アールアンドエム,0
1788,7011001147319,新規,0,2022-05-09,2022-05-09,ＦＵＧＡ　ＴＯＫＹＯ株式会社,,株式会社,東京都,渋谷区,神宮前３丁目５番７号,,13,113,1500001,,,,,,,2022-05-09,1,,,,,フウガトウキョウ,0
1789,7011001147343,新規,0,2022-05-09,2022-05-09,株式会社ＨＴコネクション,,株式会社,東京都,渋谷区,桜丘町１５番１４号フジビル４０．７Ｆ,,13,113,1500031,,,,,,,2022-05-09,1,,,,,エイチティーコネクション,0
1797,7011101098734,新規,0,2022-05-09,2022-05-09,株式会社ＥＫ　ＰＬＵＳ,,株式会社,東京都,新宿区,西新宿６丁目２０番７号コンシェリア西新宿タワーズウエスト３９０９,,13,104,1600023,,,,,,,2022-05-09,1,,,,,イーケイプラス,0
1798,7011101098775,新規,0,2022-05-09,2022-05-09,株式会社ＲＵＲＵＭＯＮＥ　Ｂｅａｕｔｙ　Ｊａｐａｎ,,株式会社,東京都,新宿区,西新宿３丁目３番１３号西新宿水間ビル６階,,13,104,1600023,,,,,,,2022-05-09,1,,,,,ルルモネビューティージャパン,0
1799,7011101098783,新規,0,2022-05-09,2022-05-09,株式会社ベルベット・イースター,,株式会社,東京都,新宿区,西新宿７丁目５番５号Ｐｌａｚａ西新宿ＵＣＦ４階,,13,104,1600023,,,,,,,2022-05-09,1,,,,,ベルベットイースター,0
1801,7011103011728,新規,0,2022-05-09,2022-05-09,合同会社ＡＫＨ,,合同会社,東京都,新宿区,袋町８番地アルファホームズ新神楽坂アスティオン３０１,,13,104,1620828,,,,,,,2022-05-09,1,,,,,エーケーエイチ,0
1802,7011301027757,新規,0,2022-05-09,2022-05-09,株式会社Ｅ‐ＺＯＮＥ,,株式会社,東京都,杉並区,上井草２丁目４４番８号,,13,115,1670023,,,,,,,2022-05-09,1,,,,,イーゾーン,0
1803,7011501028019,新規,0,2022-05-09,2022-05-09,株式会社上原興業,,株式会社,東京都,北区,志茂２丁目１０番１号アツミヤコーポ２－Ｃ号,,13,117,1150042,,,,,,,2022-05-09,1,,,,,ウエハラコウギョウ,0
1805,7011603003596,新規,0,2022-05-09,2022-05-09,合同会社フェスティナ・レンテ,,合同会社,東京都,練馬区,氷川台４丁目４０番１７－３０５号ライオンズマンション氷川台,,13,120,1790084,,,,,,,2022-05-09,1,,,,,フェスティナレンテ,0
1806,7011701025286,新規,0,2022-05-09,2022-05-09,メトロジャパン株式会社,,株式会社,東京都,江戸川区,中葛西５丁目３３番４号,,13,123,1340083,,,,,,,2022-05-09,1,,,,,メトロジャパン,0
1812,7012403005345,新規,0,2022-05-09,2022-05-09,合同会社Ｓ＆Ｋワーカーズ,,合同会社,東京都,武蔵野市,吉祥寺南町２丁目２番５号,,13,203,1800003,,,,,,,2022-05-09,1,,,,,エスアンドケーワーカーズ,0
1814,7013301049021,新規,0,2022-05-09,2022-05-09,コーポレートメディカル株式会社,,株式会社,東京都,豊島区,南池袋２丁目１１－１０－１１０６,,13,116,1710022,,,,,,,2022-05-09,1,,,,,コーポレートメディカル,0
1815,7013301049054,新規,0,2022-05-09,2022-05-09,虎とバター株式会社,,株式会社,東京都,豊島区,要町１丁目１０－７,,13,116,1710043,,,,,,,2022-05-09,1,,,,,トラトバター,0
1819,7020001146362,新規,0,2022-05-09,2022-05-09,株式会社タジマ装業,,株式会社,神奈川県,横浜市旭区,西川島町６１番地３０,,14,112,2410012,,,,,,,2022-05-09,1,,,,,タジマソウギョウ,0
1820,7020001146429,新規,0,2022-05-09,2022-05-09,リア株式会社,,株式会社,神奈川県,川崎市中原区,上平間３２１番地１メゾンコンフォース３０３,,14,133,2110013,,,,,,,2022-05-09,1,,,,,リア,0
1823,7020003021712,新規,0,2022-05-09,2022-05-09,オールコンパス合同会社,,合同会社,神奈川県,横浜市保土ケ谷区,岡沢町２４９番地１３,,14,106,2400062,,,,,,,2022-05-09,1,,,,,オールコンパス,0
1824,7020005015530,新規,0,2022-05-09,2022-05-09,税理士法人横浜西口会計事務所,,その他の設立登記法人,神奈川県,横浜市神奈川区,沢渡１番地２菱興高島台第２ビル４階Ｈ号室,,14,102,2210844,,,,,,,2022-05-09,1,,,,,ヨコハマニシグチカイケイジムショ,0
1829,7021001075857,新規,0,2022-05-09,2022-05-09,ＦＲＯＧＢＯＸ株式会社,,株式会社,神奈川県,秦野市,尾尻４５０番地の３４,,14,211,2570011,,,,,,,2022-05-09,1,,,,,フロッグボックス,0
1830,7021001075915,新規,0,2022-05-09,2022-05-09,株式会社アルティジャーノコネクティング,,株式会社,神奈川県,相模原市緑区,橋本３丁目２７－６Ｓ＆Ｙビル４Ｆ,,14,151,2520143,,,,,,,2022-05-09,1,,,,,アルティジャーノコネクティング,0
1831,7021001075931,新規,0,2022-05-09,2022-05-09,株式会社治工,,株式会社,神奈川県,相模原市緑区,太井３３４番地６,,14,151,2520152,,,,,,,2022-05-09,1,,,,,ハルコウ,0
1838,7030001147970,新規,0,2022-05-09,2022-05-09,株式会社ワンステップ,,株式会社,埼玉県,越谷市,大字増森１７８８番地５,,11,222,3430012,,,,,,,2022-05-09,1,,,,,ワンステップ,0
1840,7030003019243,新規,0,2022-05-09,2022-05-09,高尾グリーンプロジェクト合同会社,,合同会社,埼玉県,狭山市,柏原２２２７番１号,,11,215,3501335,,,,,,,2022-05-09,1,,,,,タカオグリーンプロジェクト,0
1841,7030003019350,新規,0,2022-05-09,2022-05-09,Ｋリアルティ合同会社,,合同会社,埼玉県,さいたま市大宮区,仲町３丁目５０番地２コンフォートマンション仲町第２,,11,103,3300845,,,,,,,2022-05-09,1,,,,,ケーリアルティ,0
1850,7040001123211,新規,0,2022-05-09,2022-05-09,株式会社ＢＴＫ,,株式会社,千葉県,市川市,南八幡５丁目２１番１５－１０２号,,12,203,2720023,,,,,,,2022-05-09,1,,,,,ビーティーケー,0
1851,7040001123228,新規,0,2022-05-09,2022-05-09,株式会社安部設備工業,,株式会社,千葉県,市川市,中国分１丁目１１番４号,,12,203,2720835,,,,,,,2022-05-09,1,,,,,アベセツビコウギョウ,0
1852,7040001123244,新規,0,2022-05-09,2022-05-09,株式会社豊洲ＳＯＵＳＥＩ,,株式会社,千葉県,船橋市,芝山２丁目５－１３－８０５芝山団地８０５号室,,12,204,2740816,,,,,,,2022-05-09,1,,,,,トヨスソウセイ,0
1855,7040003019969,新規,0,2022-05-09,2022-05-09,Ｄｅｖａｌｏｎ合同会社,,合同会社,千葉県,船橋市,北本町１丁目１９番１号,,12,204,2730864,,,,,,,2022-05-09,1,,,,,デバロン,0
1857,7050001051015,新規,0,2022-05-09,2022-05-09,ＰＡＣＩＦＩＣ　ＣＲＥＡＴＥ株式会社,,株式会社,茨城県,ひたちなか市,平磯町９９９番地,,08,221,3111203,,,,,,,2022-05-09,1,,,,,パシフィッククリエイト,0
1858,7050001051048,新規,0,2022-05-09,2022-05-09,株式会社Ｑｃｅｐｔｉｏｎ,,株式会社,茨城県,つくば市,千現２丁目１番６号,,08,220,3050047,,,,,,,2022-05-09,1,,,,,キューセプション,0
1861,7050003006537,新規,0,2022-05-09,2022-05-09,ＰＡＳＡＲ‐Ｉ合同会社,,合同会社,茨城県,筑西市,乙１１１１番地,,08,227,3080041,,,,,,,2022-05-09,1,,,,,パサールアイ,0
1862,7050003006545,新規,0,2022-05-09,2022-05-09,合同会社Ｂｌｕｅ　ｓｋｙ,,合同会社,茨城県,水戸市,河和田１丁目１８４５番地の９,,08,201,3114152,,,,,,,2022-05-09,1,,,,,ブルースカイ,0
1867,7070001039198,新規,0,2022-05-09,2022-05-09,こどものおおいまちづくり株式会社,,株式会社,群馬県,みどり市,笠懸町阿左美１８４８番地４,,10,212,3792311,,,,,,,2022-05-09,1,,,,,コドモノオオイマチヅクリ,0
1870,7080101023266,新規,0,2022-05-09,2022-05-09,株式会社ＵＳＡＭＩプラント,,株式会社,静岡県,富士市,今泉２８０９番地の１８ア・ラ・モード・メゾンＡ－２０２号,,22,210,4170001,,,,,,,2022-05-09,1,,,,,ウサミプラント,0
1873,7080401025788,新規,0,2022-05-09,2022-05-09,株式会社Ａ‐Ｚ,,株式会社,静岡県,浜松市南区,長田町２１７番地の１,,22,134,4300832,,,,,,,2022-05-09,1,,,,,アズ,0
1879,7110001036637,新規,0,2022-05-09,2022-05-09,共進大武商事株式会社,,株式会社,新潟県,五泉市,中名沢乙４０番地３,,15,218,9591751,,,,,,,2022-05-09,1,,,,,キョウシンオオタケショウジ,0
1893,7120001245526,新規,0,2022-05-09,2022-05-09,井ヅツゴム工業株式会社,,株式会社,大阪府,大阪市北区,長柄東通二丁目２９番地,,27,127,5300000,,,,,,,2022-05-09,1,,,,,イヅツゴムコウギョウ,0
1894,7120001245575,新規,0,2022-05-09,2022-05-09,株式会社ＣＨＥＦＩＥＬＤ　ＫＩＭＬ’ＡＲＴ,,株式会社,大阪府,大阪市西成区,北津守４丁目５２番１０号,,27,122,5570061,,,,,,,2022-05-09,1,,,,,シェフィールドキムラート,0
1895,7120001245583,新規,0,2022-05-09,2022-05-09,Ｄｉｂａ株式会社,,株式会社,大阪府,大阪市中央区,上本町西４丁目１番１２－１５０３,,27,128,5420062,,,,,,,2022-05-09,1,,,,,ディーバ,0
1896,7120001245617,新規,0,2022-05-09,2022-05-09,株式会社ｒｏｏｔｓ,,株式会社,大阪府,大阪市西区,阿波座１丁目２番２－１１０９号,,27,106,5500011,,,,,,,2022-05-09,1,,,,,ルーツ,0
1897,7120001245641,新規,0,2022-05-09,2022-05-09,ＸＢＬＯＣＫ株式会社,,株式会社,大阪府,大阪市中央区,南船場４丁目９－１２朝日プラザ心斎橋北７０７号室,,27,128,5420081,,,,,,,2022-05-09,1,,,,,エックスブロック,0
1898,7120001245658,新規,0,2022-05-09,2022-05-09,株式会社ＴＥＮＫＥＮ,,株式会社,大阪府,大阪市北区,天満４丁目１２番９号技研ビル３Ｆ,,27,127,5300043,,,,,,,2022-05-09,1,,,,,テンケン,0
1899,7120001245666,新規,0,2022-05-09,2022-05-09,株式会社サンテック,,株式会社,大阪府,大阪市旭区,大宮４丁目２１番２５号,,27,117,5350002,,,,,,,2022-05-09,1,,,,,サンテック,0
1900,7120001245690,新規,0,2022-05-09,2022-05-09,株式会社アライ工業,,株式会社,大阪府,大阪市北区,黒崎町３番２８号,,27,127,5300023,,,,,,,2022-05-09,1,,,,,アライコウギョウ,0
1905,7120003021603,新規,0,2022-05-09,2022-05-09,合同会社ＦＫＤ,,合同会社,大阪府,大阪市浪速区,難波中３丁目９番１号難波ビルディング６０１号室,,27,111,5560011,,,,,,,2022-05-09,1,,,,,エフケイディー,0
1906,7120003021628,新規,0,2022-05-09,2022-05-09,合同会社２６５,,合同会社,大阪府,大阪市北区,芝田２丁目８番１１号共栄ビル３階,,27,127,5300012,,,,,,,2022-05-09,1,,,,,ニーロクゴ,0
1912,7120101065535,新規,0,2022-05-09,2022-05-09,和泉クレーン株式会社,,株式会社,大阪府,泉南市,樽井４丁目１７番７号,,27,228,5900521,,,,,,,2022-05-09,1,,,,,イズミクレーン,0
1913,7120103004680,新規,0,2022-05-09,2022-05-09,合同会社Ｍｚ,,合同会社,大阪府,堺市堺区,三宝町１丁１０番地１サンメゾン堺１０６号,,27,141,5900906,,,,,,,2022-05-09,1,,,,,エムズ,0
1914,7120901045918,新規,0,2022-05-09,2022-05-09,セドラーズ株式会社,,株式会社,大阪府,箕面市,半町４丁目５番２号,,27,220,5620044,,,,,,,2022-05-09,1,,,,,セドラーズ,0
1915,7120901045926,新規,0,2022-05-09,2022-05-09,ＮＥＷ　ＯＲＤＥＲ株式会社,,株式会社,大阪府,豊中市,東豊中町６丁目１２番２０の２号,,27,203,5600003,,,,,,,2022-05-09,1,,,,,ニューオーダー,0
1916,7120901045950,新規,0,2022-05-09,2022-05-09,株式会社ｏｔｎ,,株式会社,大阪府,吹田市,山田東３丁目２６番７－１０２号,,27,205,5650821,,,,,,,2022-05-09,1,,,,,オーティーエヌ,0
1917,7122001035832,新規,0,2022-05-09,2022-05-09,株式会社エル・オー・ティ,,株式会社,大阪府,東大阪市,弥生町２番５３号グランデュール弥生３１０,,27,227,5798026,,,,,,,2022-05-09,1,,,,,エルオーティ,0
1918,7122003002327,新規,0,2022-05-09,2022-05-09,合同会社Ｆｅｅｌｓ,,合同会社,大阪府,八尾市,恩智中町３丁目１番地茶吉庵蔵サロン内,,27,212,5810883,,,,,,,2022-05-09,1,,,,,フィール,0
1924,7130001071707,新規,0,2022-05-09,2022-05-09,株式会社笠浪興業,,株式会社,京都府,京都市上京区,一条通千本東入伊勢殿構町２７０番地３,,26,102,6028297,,,,,,,2022-05-09,1,,,,,カサナミコウギョウ,0
1925,7130001071715,新規,0,2022-05-09,2022-05-09,株式会社ＩＷＡＩ建築,,株式会社,京都府,京都市伏見区,深草泓ノ壺町１１７番地デトム・ワン城南宮道３０２,,26,109,6128435,,,,,,,2022-05-09,1,,,,,イワイケンチク,0
1926,7130005016468,新規,0,2022-05-09,2022-05-09,一般社団法人ＡＬＬ　ｏｆ　ＡＲＴ,,その他の設立登記法人,京都府,京都市右京区,西院西三蔵町１５－２アソシエビル２０２,,26,108,6150027,,,,,,,2022-05-09,1,,,,,オールオブアート,0
1934,7140005026144,新規,0,2022-05-09,2022-05-09,一般社団法人兵庫県パワーリフティング協会,,その他の設立登記法人,兵庫県,赤穂市,加里屋９８－１６,,28,212,6780239,,,,,,,2022-05-09,1,,,,,ヒョウゴケンパワーリフティングキョウカイ,0
1936,7170001017086,新規,0,2022-05-09,2022-05-09,株式会社あかつき会,,株式会社,和歌山県,田辺市,稲成町１６３４番地の７,,30,206,6460051,,,,,,,2022-05-09,1,,,,,アカツキカイ,0
1944,7180001151090,新規,0,2022-05-09,2022-05-09,株式会社東山プランニング,,株式会社,愛知県,名古屋市西区,名駅１丁目１番１７号名駅ダイヤメイテツビル１１階,,23,104,4510045,,,,,,,2022-05-09,1,,,,,ヒガシヤマプランニング,0
1945,7180001151157,新規,0,2022-05-09,2022-05-09,株式会社あいＳＭＩＬＥ,,株式会社,愛知県,名古屋市瑞穂区,弥富通一丁目６番地,,23,108,4670000,,,,,,,2022-05-09,1,,,,,アイスマイル,0
1948,7180005019755,新規,0,2022-05-09,2022-05-09,特定非営利活動法人絆,,その他の設立登記法人,愛知県,名古屋市西区,牛島町６番１号,,23,104,4510046,,,,,,,2022-05-09,1,,,,,キズナ,0
1968,7240001059732,新規,0,2022-05-09,2022-05-09,株式会社中のせ,,株式会社,広島県,福山市,延広町６番１号,,34,207,7200064,,,,,,,2022-05-09,1,,,,,ナカノセ,0
1969,7240001059740,新規,0,2022-05-09,2022-05-09,株式会社亀の家ツアーズ,,株式会社,広島県,広島市中区,上八丁堀８番１５号,,34,101,7300012,,,,,,,2022-05-09,1,,,,,カメノヤツアーズ,0
1970,7240001059749,新規,0,2022-05-09,2022-05-09,株式会社ＪＩＹＵＵ,,株式会社,広島県,広島市安佐南区,毘沙門台３丁目２１番２７号,,34,105,7310152,,,,,,,2022-05-09,1,,,,,ジユウ,0
1975,7260005011084,新規,0,2022-05-09,2022-05-09,一般社団法人未来サポート,,その他の設立登記法人,岡山県,倉敷市,真備町川辺１３３２番地１,,33,202,7101313,,,,,,,2022-05-09,1,,,,,ミライサポート,0
1976,7280003001606,新規,0,2022-05-09,2022-05-09,合同会社鎌田工業所,,合同会社,島根県,出雲市,塩冶神前２丁目２番２１号,,32,203,6930024,,,,,,,2022-05-09,1,,,,,カマダコウギョウショ,0
1980,7290001097430,新規,0,2022-05-09,2022-05-09,株式会社テックＭ,,株式会社,福岡県,筑紫野市,美しが丘北３丁目１番地１０（２０６号）,,40,217,8180035,,,,,,,2022-05-09,1,,,,,テックエム,0
1981,7290001097447,新規,0,2022-05-09,2022-05-09,株式会社テツ・コンストラクション,,株式会社,福岡県,福岡市中央区,高砂１丁目１番２５－７０５号,,40,133,8100011,,,,,,,2022-05-09,1,,,,,テツコンストラクション,0
1982,7290001097488,新規,0,2022-05-09,2022-05-09,株式会社ＹＡＭＡＮＡＫＡ,,株式会社,福岡県,福岡市東区,千早２丁目４３番８号,,40,131,8130044,,,,,,,2022-05-09,1,,,,,ヤマナカ,0
1984,7290003012478,新規,0,2022-05-09,2022-05-09,フィジカルデザイン合同会社,,合同会社,福岡県,福岡市博多区,上呉服町１１番２６号,,40,132,8120036,,,,,,,2022-05-09,1,,,,,フィジカルデザイン,0
1985,7290801028493,新規,0,2022-05-09,2022-05-09,株式会社小田建設,,株式会社,福岡県,中間市,七重町１５番２４号,,40,215,8090027,,,,,,,2022-05-09,1,,,,,オダケンセツ,0
1986,7290801028510,新規,0,2022-05-09,2022-05-09,清和産業株式会社,,株式会社,福岡県,直方市,大字上頓野１４９２番地,,40,204,8220003,,,,,,,2022-05-09,1,,,,,セイワサンギョウ,0
1991,7310003004357,新規,0,2022-05-09,2022-05-09,合同会社ルチルクォーツ,,合同会社,長崎県,壱岐市,勝本町本宮仲触１９９番地,,42,210,8115546,,,,,,,2022-05-09,1,,,,,ルチルクォーツ,0
1992,7310005008612,新規,0,2022-05-09,2022-05-09,一般社団法人ネコノタメナラ,,その他の設立登記法人,長崎県,東彼杵郡川棚町,中組郷１５０４番地４,,42,322,8593614,,,,,,,2022-05-09,1,,,,,ネコノタメナラ,0
1996,7340001024718,新規,0,2022-05-09,2022-05-09,Ｋａｚｕ．Ｃａｐｉｔａｌ株式会社,,株式会社,鹿児島県,霧島市,国分広瀬２丁目６番２２号,,46,218,8994321,,,,,,,2022-05-09,1,,,,,カズキャピタル,0
1998,7360001030391,新規,0,2022-05-09,2022-05-09,株式会社沖琉煙火,,株式会社,沖縄県,名護市,字名護５５０９番３,,47,209,9050012,,,,,,,2022-05-09,1,,,,,オキリュウエンカ,0
2001,7360003011992,新規,0,2022-05-09,2022-05-09,沖縄物産ドットコム合同会社,,合同会社,沖縄県,那覇市,田原３丁目６番地１小禄市営住宅７－７０３,,47,201,9010156,,,,,,,2022-05-09,1,,,,,オキナワブッサンドットコム,0
2002,7360005006652,新規,0,2022-05-09,2022-05-09,一般社団法人はなまる学童クラブ,,その他の設立登記法人,沖縄県,石垣市,字宮良３１４番地１１ＡＰみち２０２,,47,207,9070243,,,,,,,2022-05-09,1,,,,,ハナマルガクドウクラブ,0
2003,7370001048524,新規,0,2022-05-09,2022-05-09,株式会社ＷＡＤＡ’Ｓ　ＳＴＯＲＥ,,株式会社,宮城県,仙台市若林区,大和町４丁目１１番２２号,,04,103,9840042,,,,,,,2022-05-09,1,,,,,ワダズストア,0
2004,7370001048532,新規,0,2022-05-09,2022-05-09,株式会社トラストデザインワークス,,株式会社,宮城県,仙台市若林区,伊在１丁目１２番地の６ＬＧ六丁の目中央１０７,,04,103,9840038,,,,,,,2022-05-09,1,,,,,トラストデザインワークス,0
2009,7380001032782,新規,0,2022-05-09,2022-05-09,株式会社までい環境,,株式会社,福島県,相馬郡飯舘村,草野字大師堂７７番地２,,07,564,9601801,,,,,,,2022-05-09,1,,,,,マデイカンキョウ,0
2014,7400001015875,新規,0,2022-05-09,2022-05-09,株式会社フリーダムスタイル,,株式会社,岩手県,滝沢市,鵜飼年毛２５３番地２,,03,216,0200678,,,,,,,2022-05-09,1,,,,,フリーダムスタイル,0
2018,7410001013184,新規,0,2022-05-09,2022-05-09,株式会社ノルテカルタ,,株式会社,秋田県,山本郡八峰町,八森字古屋敷１８,,05,349,0182664,,,,,,,2022-05-09,1,,,,,ノルテカルタ,0
2020,7420003002515,新規,0,2022-05-09,2022-05-09,合同会社白扇工業,,合同会社,青森県,青森市,大字小橋字福田２６番地２０,,02,201,0301272,,,,,,,2022-05-09,1,,,,,ハクミコウギョウ,0
2024,7430001086542,新規,0,2022-05-09,2022-05-09,株式会社ウィン,,株式会社,北海道,北広島市,西の里３４８番地４,,01,234,0611102,,,,,,,2022-05-09,1,,,,,ウィン,0
2029,7470001019060,新規,0,2022-05-09,2022-05-09,株式会社ｃｏｌｏｒｓ,,株式会社,香川県,丸亀市,新町４番地２４グランコーポ丸亀３０４,,37,202,7630045,,,,,,,2022-05-09,1,,,,,カラーズ,0
2030,7480001011727,新規,0,2022-05-09,2022-05-09,株式会社成宝土地,,株式会社,徳島県,徳島市,上八万町上中筋５８８番地の１１,,36,201,7708040,,,,,,,2022-05-09,1,,,,,セイホウトチ,0
2031,7500001024206,新規,0,2022-05-09,2022-05-09,株式会社森本塾,,株式会社,愛媛県,西条市,大町１３５８番地２,,38,206,7930030,,,,,,,2022-05-09,1,,,,,モリモトジュク,0
2032,7700150108565,新規,0,2022-05-09,2022-05-09,ＹＡＨＥＥ　ＴＥＣＨＮＯＬＯＧＩＥＳ　ＣＯＲＰ．,,外国会社等,東京都,新宿区,西新宿７丁目５番６号新宿ダイカンプラザ７５６館８０４,,13,104,1600023,１６５１　Ｓ　Ｃａｒｌｏｓ　Ａｖｅ　Ｏｎｔａｒｉｏ　Ｃａｌｉｆｏｒｎｉａ　ＵＳＡ,,,,,,2022-05-09,1,,,,,ヤヒーテクノロジーズコープ,0
2035,8010001226156,新規,0,2022-05-09,2022-05-09,株式会社エンパワー,,株式会社,東京都,千代田区,神田神保町２丁目４－７,,13,101,1010051,,,,,,,2022-05-09,1,,,,,エンパワー,0
2036,8010001226338,新規,0,2022-05-09,2022-05-09,株式会社東京アプリ開発,,株式会社,東京都,文京区,小石川１丁目５番１－３７０８号,,13,105,1120002,,,,,,,2022-05-09,1,,,,,トウキョウアプリカイハツ,0
2037,8010001226370,新規,0,2022-05-09,2022-05-09,株式会社チェスターコンサルティング,,株式会社,東京都,中央区,八重洲１丁目７番２０号八重洲口会館２階,,13,102,1030028,,,,,,,2022-05-09,1,,,,,チェスターコンサルティング,0
2038,8010001226412,新規,0,2022-05-09,2022-05-09,トラスト株式会社,,株式会社,東京都,千代田区,鍛冶町２丁目７番３号,,13,101,1010044,,,,,,,2022-05-09,1,,,,,トラスト,0
2039,8010001226420,新規,0,2022-05-09,2022-05-09,株式会社ＣＣＰ,,株式会社,東京都,千代田区,内幸町１丁目３番１号,,13,101,1000011,,,,,,,2022-05-09,1,,,,,シーシーピー,0
2040,8010003037460,新規,0,2022-05-09,2022-05-09,ｉＤＥＡＬ合同会社,,合同会社,東京都,中央区,勝どき５丁目３番１－３０２２号,,13,102,1040054,,,,,,,2022-05-09,1,,,,,アイデアル,0
2041,8010003037568,新規,0,2022-05-09,2022-05-09,ＲＢソーラーパール合同会社,,合同会社,東京都,中央区,八丁堀４丁目２番１０号ＡＯＪ税理士法人内,,13,102,1040032,,,,,,,2022-05-09,1,,,,,アールビーソーラーパール,0
2042,8010003037626,新規,0,2022-05-09,2022-05-09,合同会社ボランイ,,合同会社,東京都,文京区,関口１丁目２４－６朝日関口マンション６０３号室,,13,105,1120014,,,,,,,2022-05-09,1,,,,,ボランイ,0
2044,8010105002164,新規,0,2022-05-09,2022-05-09,一般社団法人Ｍａｎｕｅｘ　Ｇｒｏｕｐ,,その他の設立登記法人,東京都,八王子市,東町１番１４号橋完ビル２階,,13,201,1920082,,,,,,,2022-05-09,1,,,,,マニュエックスグループ,0
2053,8010401167140,新規,0,2022-05-09,2022-05-09,Ｋ２株式会社,,株式会社,東京都,港区,新橋３丁目２６－４新橋相互ビル９０４,,13,103,1050004,,,,,,,2022-05-09,1,,,,,ケイツー,0
2054,8010401167207,新規,0,2022-05-09,2022-05-09,ｋｅｉｏ　ｃａｒｅｅｒ株式会社,,株式会社,東京都,港区,芝公園１丁目１－１住友不動産御成門タワ－９Ｆ,,13,103,1050011,,,,,,,2022-05-09,1,,,,,ケイオウキャリア,0
2055,8010401167215,新規,0,2022-05-09,2022-05-09,株式会社ネオズアセット,,株式会社,東京都,港区,六本木６丁目２番３１号六本木ヒルズノースタワー１７階,,13,103,1060032,,,,,,,2022-05-09,1,,,,,ネオズアセット,0
2057,8010405020964,新規,0,2022-05-09,2022-05-09,ローガン一般社団法人,,その他の設立登記法人,東京都,港区,六本木１丁目６番１号泉ガーデンタワーＫＰＭＧ税理士法人内,,13,103,1060032,,,,,,,2022-05-09,1,,,,,ローガン,0
2060,8010501048793,新規,0,2022-05-09,2022-05-09,株式会社Ｋ’ｓＴＢＬ,,株式会社,東京都,台東区,東上野１丁目２番３－４０４号デュオ・スカーラ御徒町,,13,106,1100015,,,,,,,2022-05-09,1,,,,,ケイエスティービーエル,0
2064,8010701042596,新規,0,2022-05-09,2022-05-09,ビットバンクエンターテインメント株式会社,,株式会社,東京都,品川区,西五反田７丁目２０番９号,,13,109,1410031,,,,,,,2022-05-09,1,,,,,ビットバンクエンターテインメント,0
2067,8010901050804,新規,0,2022-05-09,2022-05-09,Ｊ＆Ｌインターナショナル株式会社,,株式会社,東京都,世田谷区,北沢５丁目３９番７号,,13,112,1550031,,,,,,,2022-05-09,1,,,,,ジェーアンドエルインターナショナル,0
2072,8011001147276,新規,0,2022-05-09,2022-05-09,株式会社ポナポーナ,,株式会社,東京都,目黒区,自由が丘３丁目１２番８号Ｍａｎｃｙ’ｓ自由が丘１０１,,13,110,1520035,,,,,,,2022-05-09,1,,,,,ポナポーナ,0
2073,8011001147292,新規,0,2022-05-09,2022-05-09,株式会社ＣＮＰ,,株式会社,東京都,目黒区,青葉台２丁目５番１８号コートアビ１０２,,13,110,1530042,,,,,,,2022-05-09,1,,,,,シーエヌピー,0
2074,8011001147301,新規,0,2022-05-09,2022-05-09,株式会社Ｆ．Ｏ．Ｓ,,株式会社,東京都,渋谷区,神宮前１丁目２０番１２号原宿フォース１Ｆ,,13,113,1500001,,,,,,,2022-05-09,1,,,,,エフオーエス,0
2075,8011001147318,新規,0,2022-05-09,2022-05-09,株式会社Ｋｕｌｔｕｒｅ,,株式会社,東京都,渋谷区,桜丘町２０番１号,,13,113,1500031,,,,,,,2022-05-09,1,,,,,カルチャー,0
2076,8011001147350,新規,0,2022-05-09,2022-05-09,株式会社ＶＥＬＣＡ．,,株式会社,東京都,渋谷区,代々木２丁目８番６号新宿駅前サウスビル３階,,13,113,1510053,,,,,,,2022-05-09,1,,,,,ヴェルカ,0
2078,8011003014623,新規,0,2022-05-09,2022-05-09,さくらパートナーズ合同会社,,合同会社,東京都,渋谷区,渋谷２丁目７番１３号,,13,113,1500002,,,,,,,2022-05-09,1,,,,,サクラパートナーズ,0
2079,8011003014631,新規,0,2022-05-09,2022-05-09,合同会社いろどり,,合同会社,東京都,渋谷区,渋谷３丁目１番９号渋谷ＹＡＺＡＷＡビル３階,,13,113,1500002,,,,,,,2022-05-09,1,,,,,イロドリ,0
2080,8011005009563,新規,0,2022-05-09,2022-05-09,一般社団法人サステナビリティ・コンプライアンス支援機構,,その他の設立登記法人,東京都,渋谷区,恵比寿西２丁目６番１４号恵比寿スカイハイツ７１１号,,13,113,1500021,,,,,,,2022-05-09,1,,,,,サステナビリティコンプライアンスシエンキコウ,0
2084,8011101098758,新規,0,2022-05-09,2022-05-09,株式会社ＢＴＳＶ,,株式会社,東京都,新宿区,百人町１丁目１－１３日新ビル３０４,,13,104,1690073,,,,,,,2022-05-09,1,,,,,ビティエスブイ,0
2085,8011101098774,新規,0,2022-05-09,2022-05-09,株式会社大西商事,,株式会社,東京都,新宿区,北新宿１丁目２番１０号ハイツ高松２０１,,13,104,1690074,,,,,,,2022-05-09,1,,,,,オオニシショウジ,0
2089,8011105010248,新規,0,2022-05-09,2022-05-09,一般社団法人日本国際文化芸術協会,,その他の設立登記法人,東京都,新宿区,新宿１丁目２６番１２－９０３号,,13,104,1600022,,,,,,,2022-05-09,1,,,,,ニホンコクサイブンカゲイジュツキョウカイ,0
2093,8011601025939,新規,0,2022-05-09,2022-05-09,Ｂａｍｂｏｏ　Ｄｅｓｉｇｎ株式会社,,株式会社,東京都,練馬区,小竹町２丁目１２－１,,13,120,1760004,,,,,,,2022-05-09,1,,,,,バンブーデザイン,0
2094,8011605002447,新規,0,2022-05-09,2022-05-09,一般社団法人ピアナリウム,,その他の設立登記法人,東京都,練馬区,田柄２丁目２０番１８号,,13,120,1790073,,,,,,,2022-05-09,1,,,,,ピアナリウム,0
2095,8011701025277,新規,0,2022-05-09,2022-05-09,株式会社ＳＫ工業,,株式会社,東京都,江戸川区,西小松川町３２番８号,,13,123,1320032,,,,,,,2022-05-09,1,,,,,エスケーコウギョウ,0
2096,8011701025285,新規,0,2022-05-09,2022-05-09,株式会社篠崎重設,,株式会社,東京都,江戸川区,南篠崎町４丁目２１番２４号,,13,123,1330065,,,,,,,2022-05-09,1,,,,,シノザキジュウセツ,0
2099,8012403005352,新規,0,2022-05-09,2022-05-09,ＲＥＤＰＯＩＮＴ　ＳＯＬＵＴＩＯＮＳ合同会社,,合同会社,東京都,三鷹市,牟礼４丁目３番４５号,,13,204,1810002,,,,,,,2022-05-09,1,,,,,レッドポイントソリューションズ,0
2102,8020001146378,新規,0,2022-05-09,2022-05-09,株式会社Ｆｅクリーンシステム,,株式会社,神奈川県,横浜市港北区,師岡町４１８番地グリーンヒル大倉山Ｂ棟２０７号,,14,109,2220002,,,,,,,2022-05-09,1,,,,,,0
2103,8020001146394,新規,0,2022-05-09,2022-05-09,株式会社仲村フロアー,,株式会社,神奈川県,横浜市港北区,新吉田東６丁目１３番３号,,14,109,2230058,,,,,,,2022-05-09,1,,,,,ナカムラフロアー,0
2104,8020001146428,新規,0,2022-05-09,2022-05-09,株式会社クスノキマネジメントオフィス,,株式会社,神奈川県,横浜市港南区,港南台２丁目２番８－１１０１号,,14,111,2340054,,,,,,,2022-05-09,1,,,,,クスノキマネジメントオフィス,0
2105,8020001146436,新規,0,2022-05-09,2022-05-09,株式会社梅田不動産事務所,,株式会社,神奈川県,横浜市中区,伊勢佐木町４丁目１２１番地５－３０１,,14,104,2310045,,,,,,,2022-05-09,1,,,,,ウメダフドウサンジムショ,0
2110,8021001075823,新規,0,2022-05-09,2022-05-09,株式会社ＧｏｏｄＨｏｍｅｓ,,株式会社,神奈川県,逗子市,逗子４丁目１番１号,,14,208,2490006,,,,,,,2022-05-09,1,,,,,グッドホームズ,0
2111,8021001075864,新規,0,2022-05-09,2022-05-09,やいま株式会社,,株式会社,神奈川県,座間市,ひばりが丘１丁目１３番２０号,,14,216,2520003,,,,,,,2022-05-09,1,,,,,ヤイマ,0
2112,8021001075914,新規,0,2022-05-09,2022-05-09,株式会社優企画,,株式会社,神奈川県,相模原市中央区,上溝５丁目１番８号,,14,152,2520243,,,,,,,2022-05-09,1,,,,,ユウキカク,0
2113,8021001075922,新規,0,2022-05-09,2022-05-09,株式会社アールライト,,株式会社,神奈川県,藤沢市,片瀬海岸３丁目１８番１４号,,14,205,2510035,,,,,,,2022-05-09,1,,,,,アールライト,0
2114,8021001075930,新規,0,2022-05-09,2022-05-09,株式会社真電巧,,株式会社,神奈川県,足柄上郡開成町,延沢１７６６番地１,,14,366,2580026,,,,,,,2022-05-09,1,,,,,シンデンコウ,0
2116,8021003011660,新規,0,2022-05-09,2022-05-09,合同会社Ｏｊｉｍａｙａ,,合同会社,神奈川県,藤沢市,鵠沼石上１丁目７番８号,00126476,14,205,2510025,,,,,,,2022-05-09,1,,,,,オジマヤ,0
2118,8021005012517,新規,0,2022-05-09,2022-05-09,医療法人森緑会,,その他の設立登記法人,神奈川県,小田原市,中町１丁目７番１０号,,14,206,2500005,,,,,,,2022-05-09,1,,,,,シンリョクカイ,0
2136,8040003019968,新規,0,2022-05-09,2022-05-09,合同会社ＹＥＬＬ,,合同会社,千葉県,印西市,東の原１丁目２番地２１,,12,231,2701336,,,,,,,2022-05-09,1,,,,,エール,0
2137,8040003020001,新規,0,2022-05-09,2022-05-09,合同会社Ｖｏｎｇｏｌｅ,,合同会社,千葉県,千葉市稲毛区,山王町３９２番地１１,,12,103,2630002,,,,,,,2022-05-09,1,,,,,ボンゴレ,0
2138,8040005021600,新規,0,2022-05-09,2022-05-09,医療法人社団颯雄会,,その他の設立登記法人,千葉県,千葉市稲毛区,長沼原町７３１番地１７フレスポ稲毛イーストモール１Ｆ,,12,103,2630001,,,,,,,2022-05-09,1,,,,,ソウユウカイ,0
2139,8050001051063,新規,0,2022-05-09,2022-05-09,株式会社Ｓｔｕｄｉｏ．Ｓ,,株式会社,茨城県,守谷市,けやき台２丁目２番地９,,08,224,3020128,,,,,,,2022-05-09,1,,,,,スタジオエス,0
2143,8060005009981,新規,0,2022-05-09,2022-05-09,一般社団法人ハピスマイル,,その他の設立登記法人,栃木県,宇都宮市,菊水町５番１６号サーパス明保野公園６０５号室,,09,201,3200844,,,,,,,2022-05-09,1,,,,,ハピスマイル,0
2154,8080005007455,新規,0,2022-05-09,2022-05-09,ＮＰＯ法人グーニードッグス,,その他の設立登記法人,静岡県,静岡市葵区,昭府１丁目２２番１９－８号,,22,101,4200871,,,,,,,2022-05-09,1,,,,,グーニードッグス,0
2159,8080103002580,新規,0,2022-05-09,2022-05-09,合同会社ＮＴＥ,,合同会社,静岡県,富士市,間門３５番地の１,,22,210,4170806,,,,,,,2022-05-09,1,,,,,エヌティーイー,0
2164,8100003006530,新規,0,2022-05-09,2022-05-09,ＬＡＶＥＮＤＥＲ　ＦＯＲＥＳＴ合同会社,,合同会社,長野県,中野市,大字草間７９９,,20,211,3830053,,,,,,,2022-05-09,1,,,,,ラベンダーフォレスト,0
2179,8120001245566,新規,0,2022-05-09,2022-05-09,株式会社スイッチ,,株式会社,大阪府,大阪市鶴見区,今津中１丁目９番２４号,,27,124,5380042,,,,,,,2022-05-09,1,,,,,スイッチ,0
2180,8120001245616,新規,0,2022-05-09,2022-05-09,株式会社ＮｅｕｖｉｔｉｏｎＪＡＰＡＮ,,株式会社,大阪府,大阪市中央区,南久宝寺町１丁目７番１０－３０１号,,27,128,5410058,,,,,,,2022-05-09,1,,,,,ニュービジョンジャパン,0
2181,8120001245632,新規,0,2022-05-09,2022-05-09,株式会社エイチプロパティ,,株式会社,大阪府,大阪市福島区,吉野１丁目２１番１４号,,27,103,5530006,,,,,,,2022-05-09,1,,,,,エイチプロパティ,0
2182,8120001245673,新規,0,2022-05-09,2022-05-09,株式会社海王電気,,株式会社,大阪府,大阪市鶴見区,今津中４丁目３番４－９１０号,,27,124,5380042,,,,,,,2022-05-09,1,,,,,カイオウデンキ,0
2183,8120001245681,新規,0,2022-05-09,2022-05-09,株式会社アールスリーテクノロジー,,株式会社,大阪府,大阪市中央区,本町２丁目３－４－６Ｆ,,27,128,5410053,,,,,,,2022-05-09,1,,,,,アールスリーテクノロジー,0
2184,8120001245707,新規,0,2022-05-09,2022-05-09,株式会社岩田幸一ギャラリー,,株式会社,大阪府,守口市,大枝東町２番５号,,27,209,5700036,,,,,,,2022-05-09,1,,,,,イワタコウイチギャラリー,0
2185,8120001245731,新規,0,2022-05-09,2022-05-09,クイーン・ビューティー株式会社,,株式会社,大阪府,大阪市中央区,千日前１丁目５番６号,,27,128,5420074,,,,,,,2022-05-09,1,,,,,クイーンビューティー,0
2186,8120001245748,新規,0,2022-05-09,2022-05-09,株式会社Ｅｎｓｙａ,,株式会社,大阪府,大阪市中央区,南船場３丁目１番７号日宝東心斎橋ビル６Ｆ３号室,,27,128,5420081,,,,,,,2022-05-09,1,,,,,エンシャ,0
2191,8120005022945,新規,0,2022-05-09,2022-05-09,社会保険労務士法人アクセス,,その他の設立登記法人,大阪府,大阪市中央区,平野町１丁目８番１３号平野町八千代ビル,,27,128,5410046,,,,,,,2022-05-09,1,,,,,アクセス,0
2195,8120901045917,新規,0,2022-05-09,2022-05-09,株式会社ＣＵＢＥ,,株式会社,大阪府,豊中市,三和町４丁目１０番３１の２号,,27,203,5610828,,,,,,,2022-05-09,1,,,,,キューブ,0
2196,8120901045941,新規,0,2022-05-09,2022-05-09,コラボ株式会社,,株式会社,大阪府,池田市,渋谷１丁目１４－１８,,27,204,5630028,,,,,,,2022-05-09,1,,,,,コラボ,0
2197,8120903004136,新規,0,2022-05-09,2022-05-09,合同会社Ｕｎｉｑｕｅ　Ｐｅｎｔａｇｏｎ,,合同会社,大阪府,豊中市,末広町１丁目７番１０－３０３号,,27,203,5600024,,,,,,,2022-05-09,1,,,,,ユニークペンタゴン,0
2198,8122001035831,新規,0,2022-05-09,2022-05-09,株式会社ＢＲＥＥＤ,,株式会社,大阪府,東大阪市,若江北町２丁目８番２７号,,27,227,5780945,,,,,,,2022-05-09,1,,,,,ブリード,0
2202,8130001071565,新規,0,2022-05-09,2022-05-09,株式会社ＲＩＳＥ　ＯＮＥ,,株式会社,京都府,八幡市,男山笹谷６番地３１６－１０３,,26,210,6148372,,,,,,,2022-05-09,1,,,,,ライズワン,0
2203,8130001071706,新規,0,2022-05-09,2022-05-09,株式会社サイファー,,株式会社,京都府,京都市伏見区,中島前山町７４,,26,109,6128464,,,,,,,2022-05-09,1,,,,,サイファー,0
2204,8130001071714,新規,0,2022-05-09,2022-05-09,株式会社トータルワークス,,株式会社,京都府,京都市左京区,聖護院川原町２８番地,,26,103,6068397,,,,,,,2022-05-09,1,,,,,トータルワークス,0
2209,8140001125907,新規,0,2022-05-09,2022-05-09,株式会社西村商店,,株式会社,兵庫県,神戸市垂水区,天ノ下町１番１－７５９号,,28,108,6550029,,,,,,,2022-05-09,1,,,,,ニシムラショウテン,0
2210,8140001125915,新規,0,2022-05-09,2022-05-09,まえの不動産株式会社,,株式会社,兵庫県,神戸市中央区,元町通４丁目５番１０号明賀元町ビル９０２号室,,28,110,6500022,,,,,,,2022-05-09,1,,,,,マエノフドウサン,0
2211,8140001125923,新規,0,2022-05-09,2022-05-09,株式会社笠松金属工業,,株式会社,兵庫県,加古郡播磨町,東本荘３丁目４番８号,,28,382,6750156,,,,,,,2022-05-09,1,,,,,カサマツキンゾクコウギョウ,0
2212,8140001125931,新規,0,2022-05-09,2022-05-09,株式会社トップサンクス,,株式会社,兵庫県,尼崎市,富松町２丁目３５番８号,,28,202,6610003,,,,,,,2022-05-09,1,,,,,トップサンクス,0
2217,8140005026168,新規,0,2022-05-09,2022-05-09,特定非営利活動法人Ｌｉｅｎ,,その他の設立登記法人,兵庫県,明石市,朝霧東町２丁目１１番２０号,,28,203,6730860,,,,,,,2022-05-09,1,,,,,リアン,0
2221,8160001024181,新規,0,2022-05-09,2022-05-09,株式会社Ｔｒｅｅ　Ｖｉｌｌａｇｅ,,株式会社,滋賀県,蒲生郡日野町,大字下駒月１０４３番地,,25,383,5291633,,,,,,,2022-05-09,1,,,,,ツリービレッジ,0
2222,8170001017102,新規,0,2022-05-09,2022-05-09,株式会社ＯＧＧＹ　ＳＵＮＲＩＳＥ,,株式会社,和歌山県,和歌山市,美園町４丁目４２番地,,30,201,6408331,,,,,,,2022-05-09,1,,,,,オッジーサンライズ,0
2231,8180001151123,新規,0,2022-05-09,2022-05-09,株式会社ＦＩＲＳＴＡＲＴ,,株式会社,愛知県,名古屋市西区,名駅１丁目１番１７号名駅ダイヤメイテツビル１１階,,23,104,4510045,,,,,,,2022-05-09,1,,,,,ファーストアート,0
2232,8180001151148,新規,0,2022-05-09,2022-05-09,株式会社結‐ｍｕｓｕｂｉ,,株式会社,愛知県,愛知郡東郷町,大字諸輪字米ケ廻間１７３－１,,23,302,4700151,,,,,,,2022-05-09,1,,,,,ムスビ,0
2233,8180001151156,新規,0,2022-05-09,2022-05-09,株式会社白血球ｏｆｆｉｃｅ,,株式会社,愛知県,名古屋市瑞穂区,弥富通一丁目６番地,,23,108,4670000,,,,,,,2022-05-09,1,,,,,ハッケッキュウオフィス,0
2234,8180001151172,新規,0,2022-05-09,2022-05-09,株式会社ヒトモア,,株式会社,愛知県,名古屋市中区,錦１丁目７番３４号,,23,106,4600003,,,,,,,2022-05-09,1,,,,,ヒトモア,0
2243,8180301036197,新規,0,2022-05-09,2022-05-09,株式会社オーティーエーコーポレーション,,株式会社,愛知県,刈谷市,小垣江町須賀２２０番地,,23,210,4480813,,,,,,,2022-05-09,1,,,,,オーティーエーコーポレーション,0
2247,8200001040034,新規,0,2022-05-09,2022-05-09,株式会社知念グループ,,株式会社,岐阜県,岐阜市,柳津町上佐波３丁目１１１番地２,,21,201,5016121,,,,,,,2022-05-09,1,,,,,チネングループ,0
2248,8200001040042,新規,0,2022-05-09,2022-05-09,株式会社ＳＧＣ,,株式会社,岐阜県,岐阜市,中鶉２丁目８３番地１,,21,201,5008288,,,,,,,2022-05-09,1,,,,,エスジーシー,0
2249,8200001040050,新規,0,2022-05-09,2022-05-09,株式会社ＴＯＣ,,株式会社,岐阜県,羽島市,竹鼻町飯柄４９８番地１１,,21,209,5016233,,,,,,,2022-05-09,1,,,,,ティーオーシー,0
2253,8220001024828,新規,0,2022-05-09,2022-05-09,株式会社ＭＡＹ　Ｉ,,株式会社,石川県,金沢市,千木町ル１番地８,,17,201,9200001,,,,,,,2022-05-09,1,,,,,メイアイ,0
2256,8230001019348,新規,0,2022-05-09,2022-05-09,株式会社エムズワークス,,株式会社,富山県,射水市,三日曽根４番８号,,16,211,9340016,,,,,,,2022-05-09,1,,,,,エムズワークス,0
2259,8240001059748,新規,0,2022-05-09,2022-05-09,株式会社ＮＯＶＵＳ,,株式会社,広島県,広島市安佐南区,山本新町１丁目１番１６－１－１０１号,,34,105,7310139,,,,,,,2022-05-09,1,,,,,ノーバス,0
2262,8260001036811,新規,0,2022-05-09,2022-05-09,株式会社東洋工産,,株式会社,岡山県,津山市,横山５７７番地,,33,203,7080862,,,,,,,2022-05-09,1,,,,,トウヨウコウサン,0
2268,8260003003900,新規,0,2022-05-09,2022-05-09,ＺＩＲＫＡ合同会社,,合同会社,岡山県,井原市,美星町大倉１６１２番地,,33,207,7141411,,,,,,,2022-05-09,1,,,,,ジルカ,0
2272,8290001097388,新規,0,2022-05-09,2022-05-09,Ｒ　ｂｅａｕｔｙ株式会社,,株式会社,福岡県,大野城市,月の浦２丁目２５番１１号,,40,219,8160983,,,,,,,2022-05-09,1,,,,,アールビューティー,0
2273,8290001097462,新規,0,2022-05-09,2022-05-09,株式会社創学堂,,株式会社,福岡県,福岡市城南区,別府４丁目１３番２９－７１５号,,40,136,8140104,,,,,,,2022-05-09,1,,,,,ソウガクドウ,0
2274,8290001097470,新規,0,2022-05-09,2022-05-09,Ｙホールディングス株式会社,,株式会社,福岡県,福岡市城南区,神松寺２丁目６番１２号,,40,136,8140121,,,,,,,2022-05-09,1,,,,,ワイホールディングス,0
2277,8290801028501,新規,0,2022-05-09,2022-05-09,株式会社吉留工業,00126478,株式会社,福岡県,行橋市,泉中央４丁目８番８号,,40,213,8240034,,,,,,,2022-05-09,1,,,,,ヨシドメコウギョウ,0
2279,8300001012915,新規,0,2022-05-09,2022-05-09,株式会社松尾建設持株会,,株式会社,佐賀県,佐賀市,多布施１丁目４番２７号,,41,201,8400842,,,,,,,2022-05-09,1,,,,,マツオケンセツモチカブカイ,0
2280,8310001017839,新規,0,2022-05-09,2022-05-09,株式会社入江青果,,株式会社,長崎県,佐世保市,黒髪町３６番１５号,,42,202,8571152,,,,,,,2022-05-09,1,,,,,イリエセイカ,0
2281,8310003004356,新規,0,2022-05-09,2022-05-09,合同会社ペリドット,,合同会社,長崎県,壱岐市,勝本町本宮仲触１９９番地,,42,210,8115546,,,,,,,2022-05-09,1,,,,,ペリドット,0
2284,8330003009353,新規,0,2022-05-09,2022-05-09,合同会社なか田,,合同会社,熊本県,熊本市中央区,下通２丁目３番６号,,43,101,8600807,,,,,,,2022-05-09,1,,,,,ナカタ,0
2285,8340001024709,新規,0,2022-05-09,2022-05-09,株式会社マイボンズ,,株式会社,鹿児島県,鹿屋市,上谷町５番４２号,,46,203,8930061,,,,,,,2022-05-09,1,,,,,マイボンズ,0
2286,8340001024717,新規,0,2022-05-09,2022-05-09,株式会社ＦｏｒＳｔｅｌｌａ,,株式会社,鹿児島県,鹿児島市,西千石町６番１６号エルシオン西千石７０１号,,46,201,8920847,,,,,,,2022-05-09,1,,,,,フォルステラ,0
2287,8340005009458,新規,0,2022-05-09,2022-05-09,一般社団法人あくねスポーツプラス,,その他の設立登記法人,鹿児島県,阿久根市,折口４５０４番地３,,46,206,8991601,,,,,,,2022-05-09,1,,,,,アクネスポーツプラス,0
2288,8350005006066,新規,0,2022-05-09,2022-05-09,一般社団法人地球人ＢＡＳＥ,,その他の設立登記法人,宮崎県,北諸県郡三股町,大字樺山３０４４番地１,,45,341,8891901,,,,,,,2022-05-09,1,,,,,チキュウジンベース,0
2290,8360001030341,新規,0,2022-05-09,2022-05-09,株式会社ＣＪホールディングス,,株式会社,沖縄県,島尻郡南風原町,字宮平２３３番地,,47,350,9011104,,,,,,,2022-05-09,1,,,,,シージェイホールディングス,0
2291,8360003011983,新規,0,2022-05-09,2022-05-09,ＮＨＡＴ　ＮＡＭ合同会社,,合同会社,沖縄県,那覇市,辻１丁目２番２号１０１,00126471,47,201,9000037,,,,,,,2022-05-09,1,,,,,ニャットナム,0
2295,8370003005679,新規,0,2022-05-09,2022-05-09,ＨＡＳＨＩＭ　ＴＲＡＤＩＮＧ合同会社,,合同会社,宮城県,仙台市青葉区,山手町９番３２号ＦパレスＦＩＩ－１０５,00126485,04,101,9810967,,,,,,,2022-05-09,1,,,,,ハシムトレーディング,0
2300,8380005012581,新規,0,2022-05-09,2022-05-09,一般社団法人福島県定期巡回・随時対応型訪問介護看護事業連絡会,,その他の設立登記法人,福島県,福島市,松川町字産子内１番地の１,,07,201,9601241,,,,,,,2022-05-09,1,,,,,フクシマケンテイキジュンカイズイジタイオウガタホウモンカイゴカンゴジギョウレンラクカイ,0
2302,8400001015858,新規,0,2022-05-09,2022-05-09,株式会社佐々木組,,株式会社,岩手県,北上市,和賀町藤根１地割１５番地３９,,03,206,0240334,,,,,,,2022-05-09,1,,,,,ササキグミ,0
2303,8400003002929,新規,0,2022-05-09,2022-05-09,Ｗｉｓｔｅｒｉａ　Ｌａｂ．合同会社,,合同会社,岩手県,久慈市,大川目町第２７地割６番地１,,03,207,0280091,,,,,,,2022-05-09,1,,,,,ウィステリアラボ,0
2306,8430001086541,新規,0,2022-05-09,2022-05-09,蓮馬株式会社,,株式会社,北海道,札幌市北区,北三十八条西４丁目１番２２号,,01,102,0010038,,,,,,,2022-05-09,1,,,,,レンマ,0
2307,8430003013857,新規,0,2022-05-09,2022-05-09,ＹＯＵＲ　ＦＡＲＭ合同会社,,合同会社,北海道,夕張郡長沼町,西４線北７番地,,01,428,0691318,,,,,,,2022-05-09,1,,,,,ユアファーム,0
2312,8450001013691,新規,0,2022-05-09,2022-05-09,株式会社ビレッジスカイ,,株式会社,北海道,旭川市,東鷹栖東三条６丁目２１４９番地の１３,,01,204,0718113,,,,,,,2022-05-09,1,,,,,ビレッジスカイ,0
2313,8470001019068,新規,0,2022-05-09,2022-05-09,株式会社輝アシスト,,株式会社,香川県,高松市,一宮町１８３５番地２１,,37,201,7618084,,,,,,,2022-05-09,1,,,,,カガヤキアシスト,0
2317,8500001024188,新規,0,2022-05-09,2022-05-09,株式会社ゴルフ工房ブルドック,,株式会社,愛媛県,松山市,太山寺町２２９１番地１,,38,201,7992662,,,,,,,2022-05-09,1,,,,,ゴルフコウボウブルドック,0
2318,8500001024196,新規,0,2022-05-09,2022-05-09,株式会社Ｂｕｒｓｔ,,株式会社,愛媛県,今治市,高地町２丁目甲２０６５番地３,,38,202,7940051,,,,,,,2022-05-09,1,,,,,バースト,0
2328,9010001226304,新規,0,2022-05-09,2022-05-09,株式会社ベストアシスト,,株式会社,東京都,中央区,東日本橋２丁目１番１２号,,13,102,1030004,,,,,,,2022-05-09,1,,,,,ベストアシスト,0
2329,9010001226320,新規,0,2022-05-09,2022-05-09,タイレル株式会社,,株式会社,東京都,千代田区,麹町３丁目３番地４,,13,101,1020083,,,,,,,2022-05-09,1,,,,,,0
2330,9010001226361,新規,0,2022-05-09,2022-05-09,株式会社ＣｕｂｅＳｋｙ,,株式会社,東京都,中央区,日本橋茅場町２丁目７番１０号,,13,102,1030025,,,,,,,2022-05-09,1,,,,,キューブスカイ,0
2331,9010001226386,新規,0,2022-05-09,2022-05-09,そうめいコミュニケーションプリンティング株式会社,,株式会社,東京都,千代田区,神田須田町１丁目２６番地,,13,101,1010041,,,,,,,2022-05-09,1,,,,,ソウメイコミュニケーションプリンティング,0
2335,9010003037542,新規,0,2022-05-09,2022-05-09,合同会社エフエスアイ,,合同会社,東京都,千代田区,外神田２丁目９番９号,,13,101,1010021,,,,,,,2022-05-09,1,,,,,エフエスアイ,0
2336,9010003037567,新規,0,2022-05-09,2022-05-09,ＲＢソーラーコーラル合同会社,,合同会社,東京都,中央区,八丁堀４丁目２番１０号ＡＯＪ税理士法人内,,13,102,1040032,,,,,,,2022-05-09,1,,,,,,0
2337,9010003037600,新規,0,2022-05-09,2022-05-09,合同会社ｍｏｎｏｌｉｔｈ,,合同会社,東京都,中央区,銀座１丁目２２番１１号,,13,102,1040061,,,,,,,2022-05-09,1,,,,,モノリス,0
2338,9010003037609,新規,0,2022-05-09,2022-05-09,オフィスＫ合同会社,,合同会社,東京都,中央区,日本橋箱崎町１番１６号,,13,102,1030015,,,,,,,2022-05-09,1,,,,,オフィスケイ,0
2339,9010101015169,新規,0,2022-05-09,2022-05-09,株式会社蓮美不動産,,株式会社,東京都,八王子市,平岡町１４番８号,,13,201,1920061,,,,,,,2022-05-09,1,,,,,ハスミフドウサン,0
2349,9010401167206,新規,0,2022-05-09,2022-05-09,ＳＢＩ　Ｍ＆Ａソリューション株式会社,,株式会社,東京都,港区,六本木１丁目６番１号,,13,103,1060032,,,,,,,2022-05-09,1,,,,,エスビーアイエムアンドエーソリューション,0
2350,9010401167263,新規,0,2022-05-09,2022-05-09,メゾメリー株式会社,,株式会社,東京都,港区,浜松町２丁目２番１５号浜松町ダイヤビル２Ｆ,,13,103,1050013,,,,,,,2022-05-09,1,,,,,メゾメリー,0
2352,9010405020963,新規,0,2022-05-09,2022-05-09,ＭＪＣＰ一般社団法人,,その他の設立登記法人,東京都,港区,六本木１丁目６番１号泉ガーデンタワーＫＰＭＧ税理士法人内,,13,103,1060032,,,,,,,2022-05-09,1,,,,,エムジェイシーピー,0
2353,9010501048792,新規,0,2022-05-09,2022-05-09,株式会社ファイブスターズ,,株式会社,東京都,台東区,東上野４丁目２０番５号,,13,106,1100015,,,,,,,2022-05-09,1,,,,,ファイブスターズ,0
2355,9010503006583,新規,0,2022-05-09,2022-05-09,ジャムエー合同会社,,合同会社,東京都,台東区,根岸３丁目１０番５－２０４号セザール根岸,,13,106,1100003,,,,,,,2022-05-09,1,,,,,ジャムエー,0
2360,9010701042587,新規,0,2022-05-09,2022-05-09,株式会社ＥＣＰａｒｋ,,株式会社,東京都,品川区,東品川５丁目９番１５－４１１号,,13,109,1400002,,,,,,,2022-05-09,1,,,,,イーシーパーク,0
2366,9010903007347,新規,0,2022-05-09,2022-05-09,合同会社ＫＵライフサポート,,合同会社,東京都,世田谷区,玉川台２丁目２０番１４号,,13,112,1580096,,,,,,,2022-05-09,1,,,,,ケイユウライフサポート,0
2369,9011001147300,新規,0,2022-05-09,2022-05-09,株式会社トバスコプロダクション,,株式会社,東京都,渋谷区,笹塚１丁目５番６号１０５,,13,113,1510073,,,,,,,2022-05-09,1,,,,,,0
2370,9011001147309,新規,0,2022-05-09,2022-05-09,ＡＤＴ株式会社,,株式会社,東京都,渋谷区,神宮前６丁目２３番４号,,13,113,1500001,,,,,,,2022-05-09,1,,,,,エーディーティー,0
2371,9011001147317,新規,0,2022-05-09,2022-05-09,株式会社Ｈｅｒｍａｎ’ｓ　Ｔａｂｌｅ,,株式会社,東京都,渋谷区,猿楽町９番５号,,13,113,1500033,,,,,,,2022-05-09,1,,,,,ハーマンズテーブル,0
2372,9011001147341,新規,0,2022-05-09,2022-05-09,株式会社ｋｅｙｐｏｉｎｔ,,株式会社,東京都,渋谷区,渋谷３丁目１番９号Ｙａｚａｗａビル４階,,13,113,1500002,,,,,,,2022-05-09,1,,,,,キーポイント,0
2374,9011003014614,新規,0,2022-05-09,2022-05-09,ジタハピ合同会社,,合同会社,東京都,渋谷区,道玄坂１丁目１０番８号渋谷道玄坂東急ビル２Ｆ―Ｃ,,13,113,1500043,,,,,,,2022-05-09,1,,,,,ジタハピ,0
2378,9011101098724,新規,0,2022-05-09,2022-05-09,株式会社ユビクォスジャパン,,株式会社,東京都,新宿区,西新宿３丁目７番１号新宿パークタワーＮ３０階,,13,104,1600023,,,,,,,2022-05-09,1,,,,,ユビクォスジャパン,0
2379,9011101098765,新規,0,2022-05-09,2022-05-09,株式会社ＫＥＮ,,株式会社,東京都,新宿区,歌舞伎町２丁目１０番７号,,13,104,1600021,,,,,,,2022-05-09,1,,,,,ケン,0
2380,9011205002490,新規,0,2022-05-09,2022-05-09,一般社団法人亜細亜の骨,,その他の設立登記法人,東京都,中野区,江古田４丁目３４番２号福神荘１０５,,13,114,1650022,,,,,,,2022-05-09,1,,,,,アジアノホネ,0
2383,9011501028017,新規,0,2022-05-09,2022-05-09,Ｒａｗ　Ｒｏｃｋ株式会社,,株式会社,東京都,荒川区,西尾久７丁目４０番２号,,13,118,1160011,,,,,,,2022-05-09,1,,,,,ローロック,0
2386,9011701025292,新規,0,2022-05-09,2022-05-09,株式会社Ａｓｕｍｉ,,株式会社,東京都,江戸川区,南小岩７丁目７番５号,,13,123,1330056,,,,,,,2022-05-09,1,,,,,アスミ,0
2390,9012401039161,新規,0,2022-05-09,2022-05-09,株式会社ＡＩホーム,,株式会社,東京都,三鷹市,下連雀１丁目３４番６号,,13,204,1810013,,,,,,,2022-05-09,1,,,,,エーアイホーム,0
2392,9012801021545,新規,0,2022-05-09,2022-05-09,株式会社結天,,株式会社,東京都,国分寺市,西元町３丁目１５番１２号,,13,214,1850023,,,,,,,2022-05-09,1,,,,,ユイテン,0
2393,9012803002766,新規,0,2022-05-09,2022-05-09,合同会社ホワイト企画すさき,,合同会社,東京都,国分寺市,富士本２丁目３１番地３,,13,214,1850031,,,,,,,2022-05-09,1,,,,,ホワイトキカクスサキ,0
2397,9013303006142,新規,0,2022-05-09,2022-05-09,合同会社フロンティア,,合同会社,東京都,豊島区,駒込２丁目７番１０号,,13,116,1700003,,,,,,,2022-05-09,1,,,,,フロンティア,0
2405,9020001146352,新規,0,2022-05-09,2022-05-09,藤真商事株式会社,,株式会社,神奈川県,横浜市保土ケ谷区,峰岡町２丁目２１７番地２２,,14,106,2400064,,,,,,,2022-05-09,1,,,,,フジマショウジ,0
2406,9020001146393,新規,0,2022-05-09,2022-05-09,株式会社カブノイエ,,株式会社,神奈川県,横浜市青葉区,市ケ尾町１１７３番地１２,,14,117,2250024,,,,,,,2022-05-09,1,,,,,カブノイエ,0
2412,9021001075871,新規,0,2022-05-09,2022-05-09,株式会社リミナル,,株式会社,神奈川県,藤沢市,南藤沢２１番９,,14,205,2510055,,,,,,,2022-05-09,1,,,,,リミナル,0
2413,9021001075896,新規,0,2022-05-09,2022-05-09,株式会社ＬｉＮＡＣＯ,,株式会社,神奈川県,藤沢市,弥勒寺１番地の３,,14,205,2510016,,,,,,,2022-05-09,1,,,,,リナコ,0
2414,9021001075905,新規,0,2022-05-09,2022-05-09,ＳＦＢマスカット株式会社,,株式会社,神奈川県,茅ヶ崎市,東海岸北５丁目１２番３２号,,14,207,2530053,,,,,,,2022-05-09,1,,,,,エスエフビーマスカット,0
2415,9021001075921,新規,0,2022-05-09,2022-05-09,株式会社スタジオユメノーヴ,,株式会社,神奈川県,鎌倉市,浄明寺４丁目５番３３号,,14,204,2480003,,,,,,,2022-05-09,1,,,,,スタジオユメノーヴ,0
2419,9021003011676,新規,0,2022-05-09,2022-05-09,合同会社ＨＡＮＧＯＵＴ,,合同会社,神奈川県,鎌倉市,山ノ内３０９－９,,14,204,2470062,,,,,,,2022-05-09,1,,,,,ハングアウト,0
2434,9040001123218,新規,0,2022-05-09,2022-05-09,株式会社ＮＩＹＯＮ　ＩＮＴＥＲＮＡＴＩＯＮＡＬ,,株式会社,千葉県,柏市,逆井１２３７番地１,,12,217,2770042,,,,,,,2022-05-09,1,,,,,ニヨンインターナショナル,0
2435,9040001123300,新規,0,2022-05-09,2022-05-09,株式会社ｌｏｙａｕｔｅ,,株式会社,千葉県,四街道市,鹿放ケ丘４１９,,12,228,2840008,,,,,,,2022-05-09,1,,,,,ロヨーテ,0
2441,9070001039196,新規,0,2022-05-09,2022-05-09,株式会社ＧＵＤ　ｃａｒｅ,,株式会社,群馬県,桐生市,天神町１丁目５番１号群馬大学桐生キャンパス,,10,203,3760052,,,,,,,2022-05-09,1,,,,,グッドケア,0
2445,9080101023256,新規,0,2022-05-09,2022-05-09,株式会社ＮＥＸＴ　Ａｕｔｏ　ｓｅｒｖｉｃｅ,,株式会社,静岡県,富士宮市,浅間町５番７号,,22,207,4180032,,,,,,,2022-05-09,1,,,,,ネクストオートサービス,0
2446,9080101023272,新規,0,2022-05-09,2022-05-09,株式会社博重,,株式会社,静岡県,伊豆市,修善寺３４５１番地４０,,22,222,4102416,,,,,,,2022-05-09,1,,,,,ヒロシゲ,0
2451,9080401025786,新規,0,2022-05-09,2022-05-09,株式会社よしのテック,,株式会社,静岡県,浜松市北区,都田町７８５２番地の１,,22,135,4312102,,,,,,,2022-05-09,1,,,,,ヨシノテック,0
2452,9100001035299,新規,0,2022-05-09,2022-05-09,株式会社Ｃｌｏｕｄ　Ｂａｃｋ　Ｏｆｆｉｃｅ,,株式会社,長野県,長野市,大字東和田８４２番地ＣＯＲＥＯＦＦＩＣＥ３０１号室,,20,201,3810038,,,,,,,2022-05-09,1,,,,,クラウドバックオフィス,0
2467,9120001245615,新規,0,2022-05-09,2022-05-09,株式会社シンエイ電工,,株式会社,大阪府,大阪市平野区,長吉出戸７丁目３番３６号,,27,126,5470011,,,,,,,2022-05-09,1,,,,,シンエイデンコウ,0
2468,9120001245623,新規,0,2022-05-09,2022-05-09,ｉｎｆｉｎｉｔｙ株式会社,,株式会社,大阪府,大阪市中央区,農人橋２丁目１番３１号６２８号室,,27,128,5400011,,,,,,,2022-05-09,1,,,,,インフェニティ,0
2469,9120001245648,新規,0,2022-05-09,2022-05-09,株式会社エヴァ・グリーン,,株式会社,大阪府,大阪市中央区,博労町２丁目４番１１号,,27,128,5410059,,,,,,,2022-05-09,1,,,,,エヴァグリーン,0
2470,9120001245656,新規,0,2022-05-09,2022-05-09,株式会社すずらんコンタクト,,株式会社,大阪府,大阪市西区,西本町２丁目１番４号,,27,106,5500005,,,,,,,2022-05-09,1,,,,,スズランコンタクト,0
2471,9120001245664,新規,0,2022-05-09,2022-05-09,株式会社ＷＩＬＬＯＷ　ＭＡＲＫ,,株式会社,大阪府,大阪市淀川区,西中島７丁目１番２９号新大阪ＳＯＮＥビル１階,,27,123,5320011,,,,,,,2022-05-09,1,,,,,ウィローマーク,0
2472,9120001245672,新規,0,2022-05-09,2022-05-09,株式会社ＤＯＩＳＥＫＩ,,株式会社,大阪府,大阪市中央区,平野町３丁目１番８号プロスパー平野町ビル,,27,128,5410046,,,,,,,2022-05-09,1,,,,,ドイセキ,0
2473,9120001245680,新規,0,2022-05-09,2022-05-09,株式会社Ｊ‐Ｔｉｅｓ,,株式会社,大阪府,大阪市平野区,瓜破３丁目２番４０号,,27,126,5470024,,,,,,,2022-05-09,1,,,,,ジェイタイズ,0
2474,9120001245714,新規,0,2022-05-09,2022-05-09,株式会社ＲＹＳＳ,,株式会社,大阪府,大阪市西成区,山王２丁目１０番２４号,,27,122,5570001,,,,,,,2022-05-09,1,,,,,リュース,0
2475,9120001245722,新規,0,2022-05-09,2022-05-09,株式会社ＨＡＣＨＩＣＯ,,株式会社,大阪府,大阪市天王寺区,上之宮町７番１７－１０３号,,27,109,5430037,,,,,,,2022-05-09,1,,,,,ハチコウ,0
2476,9120001245796,新規,0,2022-05-09,2022-05-09,ＳＫブリッジ株式会社,,株式会社,大阪府,大阪市淀川区,西宮原１丁目８番３９号,,27,123,5320004,,,,,,,2022-05-09,1,,,,,エスケーブリッジ,0
2480,9120003021576,新規,0,2022-05-09,2022-05-09,ｓｍａｌｌ　ｓｔａｒ合同会社,,合同会社,大阪府,大阪市中央区,北久宝寺町１丁目２－６－レジェンドール９０３,,27,128,5410057,,,,,,,2022-05-09,1,,,,,スモールスター,0
2482,9120005022944,新規,0,2022-05-09,2022-05-09,一般社団法人日本総合芸術科学アカデミー,,その他の設立登記法人,大阪府,大阪市中央区,南船場１丁目４番１１号モリビル２Ｆ,,27,128,5420081,,,,,,,2022-05-09,1,,,,,ニホンソウゴウゲイジュツカガクアカデミー,0
2489,9120901045916,新規,0,2022-05-09,2022-05-09,株式会社スーパーマーケットファンタジー,,株式会社,大阪府,茨木市,桑田町１５番２９号,,27,211,5670841,,,,,,,2022-05-09,1,,,,,スーパーマーケットファンタジー,0
2490,9120901045924,新規,0,2022-05-09,2022-05-09,株式会社大日堂,,株式会社,大阪府,箕面市,桜ケ丘４丁目１９番３０号,,27,220,5620046,,,,,,,2022-05-09,1,,,,,ダイニチドウ,0
2491,9120901045932,新規,0,2022-05-09,2022-05-09,株式会社ＮＤＫ,,株式会社,大阪府,吹田市,五月が丘南７番１７－３０６号,,27,205,5650832,,,,,,,2022-05-09,1,,,,,エヌディケイ,0
2493,9120903004135,新規,0,2022-05-09,2022-05-09,ＮＩＮ合同会社,,合同会社,大阪府,豊中市,玉井町２丁目７番２４号,,27,203,5600026,,,,,,,2022-05-09,1,,,,,エヌアイエヌ,0
2494,9122001035830,新規,0,2022-05-09,2022-05-09,株式会社三喜工業,,株式会社,大阪府,八尾市,上尾町３丁目３６番地の５,,27,212,5810851,,,,,,,2022-05-09,1,,,,,ミキコウギョウ,0
2495,9122001035839,新規,0,2022-05-09,2022-05-09,ＨａＲｕｍｏｄｏ　Ｔｒａｄｉｎｇ株式会社,,株式会社,大阪府,東大阪市,柏田西１丁目１１番１２号,,27,227,5770835,,,,,,,2022-05-09,1,,,,,ハルモードトレーディング,0
2498,9130001071705,新規,0,2022-05-09,2022-05-09,株式会社宮本工務店,,株式会社,京都府,京都市右京区,嵯峨野東田町９番地６,,26,108,6168326,,,,,,,2022-05-09,1,,,,,ミヤモトコウムテン,0
2499,9130001071713,新規,0,2022-05-09,2022-05-09,株式会社ｔｅｎ,,株式会社,京都府,京都市中京区,御池通富小路東入御池大東町５９０番地御池加納ビル地下１階,,26,104,6040000,,,,,,,2022-05-09,1,,,,,テン,0
2500,9130003007921,新規,0,2022-05-09,2022-05-09,合同会社ｗａｎｔ,,合同会社,京都府,福知山市,字大内４３６,,26,201,6200836,,,,,,,2022-05-09,1,,,,,ウォント,0
2512,9140001125889,新規,0,2022-05-09,2022-05-09,株式会社ｃｏｃｏｍａｐ,,株式会社,兵庫県,川西市,出在家町６番１７－１８号,,28,217,6660011,,,,,,,2022-05-09,1,,,,,ココマップ,0
2513,9140001125914,新規,0,2022-05-09,2022-05-09,株式会社セイワコンサル,,株式会社,兵庫県,川西市,清和台西５丁目１番地の１１８,,28,217,6660143,,,,,,,2022-05-09,1,,,,,セイワコンサル,0
2514,9140001125922,新規,0,2022-05-09,2022-05-09,ａｔ　ＦＯＲＥＳＴ株式会社,,株式会社,兵庫県,神戸市中央区,浪花町５６ＫｉＰ内,,28,110,6500035,,,,,,,2022-05-09,1,,,,,アットフォレスト,0
2515,9140001125930,新規,0,2022-05-09,2022-05-09,株式会社Ｅｇｇ　Ｆａｍｉｌｙ,,株式会社,兵庫県,西宮市,羽衣町７－３０夙川グリーンタウン３Ｆ,,28,204,6620051,,,,,,,2022-05-09,1,,,,,エッグファミリー,0
2516,9140003017655,新規,0,2022-05-09,2022-05-09,ＨＩＲＯ合同会社,,合同会社,兵庫県,神戸市中央区,山本通３丁目６番１３－４０１号,,28,110,6500003,,,,,,,2022-05-09,1,,,,,ヒロ,0
2519,9150001025519,新規,0,2022-05-09,2022-05-09,エヌエー・セラミックス株式会社,,株式会社,奈良県,奈良市,帝塚山３丁目２２番３号,00126475,29,201,6310062,,,,,,,2022-05-09,1,,,,,エヌエーセラミックス,0
2520,9150001025527,新規,0,2022-05-09,2022-05-09,株式会社ＬＡＴＥＬ,,株式会社,奈良県,香芝市,瓦口１７３番地４,,29,210,6390225,,,,,,,2022-05-09,1,,,,,ラーテル,0
2523,9160001024180,新規,0,2022-05-09,2022-05-09,株式会社ＫＴＸ,,株式会社,滋賀県,高島市,安曇川町西万木５５,,25,212,5201212,,,,,,,2022-05-09,1,,,,,ケイティエックス,0
2529,9170001017092,新規,0,2022-05-09,2022-05-09,株式会社Ｐ．Ｃ．ワーカーズ,,株式会社,和歌山県,西牟婁郡上富田町,市ノ瀬２５０６番地の７,,30,404,6492107,,,,,,,2022-05-09,1,,,,,ピーシーワーカーズ,0
2533,9180001151155,新規,0,2022-05-09,2022-05-09,株式会社谷電気,,株式会社,愛知県,名古屋市守山区,大永寺町３０番地の１,,23,113,4630087,,,,,,,2022-05-09,1,,,,,タニデンキ,0
2543,9200001040033,新規,0,2022-05-09,2022-05-09,株式会社ＡＤＶＡＮＣＥ　ＳＵＰＰＯＲＴ,,株式会社,岐阜県,羽島市,舟橋町出須賀３丁目４７番地１,,21,209,5016304,,,,,,,2022-05-09,1,,,,,アドバンスサポート,0
2544,9200001040041,新規,0,2022-05-09,2022-05-09,株式会社ｐ＆ｈ,,株式会社,岐阜県,多治見市,市之倉町８丁目１７番地の２,,21,204,5070814,,,,,,,2022-05-09,1,,,,,ピイアンドエイチ,0
2545,9200003005554,新規,0,2022-05-09,2022-05-09,合同会社渡辺塗装,,合同会社,岐阜県,下呂市,小坂町無数原２３３番地,,21,220,5093107,,,,,,,2022-05-09,1,,,,,ワタナベトソウ,0
2547,9230001019355,新規,0,2022-05-09,2022-05-09,株式会社島大美研,,株式会社,富山県,富山市,石金２丁目４番８号コーヌコピア１０２号,,16,201,9300966,,,,,,,2022-05-09,1,,,,,シマダイビケン,0
2548,9230003001848,新規,0,2022-05-09,2022-05-09,合同会社Ａ・Ｓリアルエステート,,合同会社,富山県,高岡市,横田町２丁目２番２８号,,16,202,9330842,,,,,,,2022-05-09,1,,,,,,0
2549,9240001059722,新規,0,2022-05-09,2022-05-09,株式会社Ｌｕｍｉｅｒｅ,,株式会社,広島県,福山市,山手町７丁目８番１６号,,34,207,7200092,,,,,,,2022-05-09,1,,,,,ルミエール,0
2550,9240001059739,新規,0,2022-05-09,2022-05-09,株式会社大雅,,株式会社,広島県,広島市安佐南区,安東５丁目３２番２号,,34,105,7310153,,,,,,,2022-05-09,1,,,,,タイガ,0
2552,9240003005609,新規,0,2022-05-09,2022-05-09,合同会社フィーカ,,合同会社,広島県,廿日市市,宮内９７３－２－７１４,,34,213,7380034,,,,,,,2022-05-09,1,,,,,フィーカ,0
2555,9260001036810,新規,0,2022-05-09,2022-05-09,株式会社Ｎ・ｇａｒａｇｅ,,株式会社,岡山県,岡山市東区,久保８３番地１,,33,103,7048102,,,,,,,2022-05-09,1,,,,,エヌガレージ,0
2556,9260001036819,新規,0,2022-05-09,2022-05-09,株式会社ＳｅＴ,,株式会社,岡山県,久米郡美咲町,原田１８９７番地１,,33,666,7093717,,,,,,,2022-05-09,1,,,,,エスイーティー,0
2557,9260001036835,新規,0,2022-05-09,2022-05-09,株式会社Ｄｅａｌ,,株式会社,岡山県,倉敷市,川西町１８番１０号ＤｅａｒｅｓｔＢ１０７,,33,202,7100821,,,,,,,2022-05-09,1,,,,,ディアル,0
2558,9260001036843,新規,0,2022-05-09,2022-05-09,株式会社赤磐総合開発,,株式会社,岡山県,岡山市中区,浜３６７番地,,33,102,7038256,,,,,,,2022-05-09,1,,,,,アカイワソウゴウカイハツ,0
2559,9260003003899,新規,0,2022-05-09,2022-05-09,合同会社えみおわす,,合同会社,岡山県,加賀郡吉備中央町,上田西２３２０番地１,,33,681,7092413,,,,,,,2022-05-09,1,,,,,エミオワス,0
2563,9290001097305,新規,0,2022-05-09,2022-05-09,株式会社ＯＯＤＡ,,株式会社,福岡県,福岡市中央区,赤坂１丁目１４番３７号１Ｆ,,40,133,8100042,,,,,,,2022-05-09,1,,,,,ウーダ,0
2564,9290001097420,新規,0,2022-05-09,2022-05-09,株式会社ＹＳＰＬＡＮＮＩＮＧ,,株式会社,福岡県,福岡市早良区,西新５丁目１５番１６－１３０１号,,40,137,8140002,,,,,,,2022-05-09,1,,,,,ワイエスプランニング,0
2565,9290001097445,新規,0,2022-05-09,2022-05-09,株式会社キャットペイントケア,,株式会社,福岡県,久留米市,南２丁目２１番３４号,,40,203,8300051,,,,,,,2022-05-09,1,,,,,キャットペイントケア,0
2566,9290001097461,新規,0,2022-05-09,2022-05-09,ハーメティック株式会社,,株式会社,福岡県,福岡市博多区,博多駅南５丁目２１番３０号,,40,132,8120016,,,,,,,2022-05-09,1,,,,,ハーメティック,0
2567,9290001097478,新規,0,2022-05-09,2022-05-09,株式会社Ｋ‐ＴＲＵＳＴ,,株式会社,福岡県,宗像市,土穴４丁目６番１９号,,40,220,8114183,,,,,,,2022-05-09,1,,,,,ケイトラスト,0
2570,9310001017838,新規,0,2022-05-09,2022-05-09,株式会社こうさか家畜医院,,株式会社,長崎県,松浦市,志佐町浦免６６８番地１,,42,208,8594501,,,,,,,2022-05-09,1,,,,,コウサカカチクイイン,0
2571,9310003004355,新規,0,2022-05-09,2022-05-09,合同会社エメラルド,,合同会社,長崎県,壱岐市,勝本町本宮仲触１９９番地,,42,210,8115546,,,,,,,2022-05-09,1,,,,,,0
2575,9320001019049,新規,0,2022-05-09,2022-05-09,株式会社古田牧場,,株式会社,大分県,中津市,大字東浜６９４番地４,,44,203,8710006,,,,,,,2022-05-09,1,,,,,フルタボクジョウ,0
2576,9320001019057,新規,0,2022-05-09,2022-05-09,株式会社環境品質負荷計画,,株式会社,大分県,大分市,萩原２丁目１番５号アーバンベルデ萩原１０６,,44,201,8700921,,,,,,,2022-05-09,1,,,,,カンキョウヒンシツフカケイカク,0
2578,9330001029708,新規,0,2022-05-09,2022-05-09,株式会社ソイル,,株式会社,熊本県,熊本市西区,小島９丁目１１番３５号,,43,103,8615287,,,,,,,2022-05-09,1,,,,,ソイル,0
2579,9330001029724,新規,0,2022-05-09,2022-05-09,松村建設株式会社,,株式会社,熊本県,熊本市北区,植木町轟１４９９番地,,43,105,8610155,,,,,,,2022-05-09,1,,,,,マツムラケンセツ,0
2581,9330003009352,新規,0,2022-05-09,2022-05-09,合同会社Ｕ‐ＲＥＬＩＮＥ,,合同会社,熊本県,熊本市南区,田迎１丁目１番４８号,,43,104,8620962,,,,,,,2022-05-09,1,,,,,ユーリライン,0
2589,9360001030357,新規,0,2022-05-09,2022-05-09,株式会社きらく,,株式会社,沖縄県,那覇市,久茂地３丁目１８番１２号,,47,201,9000015,,,,,,,2022-05-09,1,,,,,キラク,0
2590,9360001030381,新規,0,2022-05-09,2022-05-09,株式会社南都産業,,株式会社,沖縄県,那覇市,字小禄４２１番３５号３Ｆ,,47,201,9010152,,,,,,,2022-05-09,1,,,,,ナントサンギョウ,0
2592,9360003011990,新規,0,2022-05-09,2022-05-09,合同会社三美クリエイト,,合同会社,沖縄県,那覇市,字上間３３６番地２,,47,201,9020073,,,,,,,2022-05-09,1,,,,,サンビクリエイト,0
2593,9360005006650,新規,0,2022-05-09,2022-05-09,一般社団法人龍心,,その他の設立登記法人,沖縄県,石垣市,字新川２４６番地,,47,207,9070024,,,,,,,2022-05-09,1,,,,,リュウシン,0
2596,9370001048539,新規,0,2022-05-09,2022-05-09,株式会社ピクニック,,株式会社,宮城県,仙台市青葉区,国分町２丁目８番９号,,04,101,9800803,,,,,,,2022-05-09,1,,,,,ピクニック,0
2597,9370005010478,新規,0,2022-05-09,2022-05-09,土地家屋調査士法人あかま事務所,,その他の設立登記法人,宮城県,仙台市宮城野区,宮千代１丁目１８番地の３,,04,102,9830044,,,,,,,2022-05-09,1,,,,,アカマジムショ,0
2599,9380005012580,新規,0,2022-05-09,2022-05-09,一般社団法人福島県小規模多機能型居宅介護事業連絡会,,その他の設立登記法人,福島県,福島市,吉倉字谷地７３番地の１,,07,201,9608165,,,,,,,2022-05-09,1,,,,,フクシマケンショウキボタキノウガタキョタクカイゴジギョウレンラクカイ,0
2600,9390001011247,新規,0,2022-05-09,2022-05-09,白鷹建設株式会社,,株式会社,山形県,西置賜郡白鷹町,大字荒砥甲６９６番地１,,06,402,9920831,,,,,,,2022-05-09,1,,,,,シラタカケンセツ,0
2606,9430001086532,新規,0,2022-05-09,2022-05-09,株式会社北杜建設,,株式会社,北海道,千歳市,北陽８丁目１３番５号,,01,224,0660032,,,,,,,2022-05-09,1,,,,,キタモリケンセツ,0
2607,9430001086540,新規,0,2022-05-09,2022-05-09,株式会社パフュームエステート,,株式会社,北海道,札幌市白石区,北郷一条６丁目１番１５号,,01,104,0030831,,,,,,,2022-05-09,1,,,,,,0
2611,9450001013690,新規,0,2022-05-09,2022-05-09,株式会社Ｎｏｒｔｈ　Ｉｎｎｏｖａｔｉｏｎ　Ｐｒｏｊｅｃｔ,,株式会社,北海道,旭川市,神楽六条１０丁目２番１１号,,01,204,0708006,,,,,,,2022-05-09,1,,,,,ノースイノベーションプロジェクト,0
2618,9470001019059,新規,0,2022-05-09,2022-05-09,株式会社松浦建築,,株式会社,香川県,木田郡三木町,大字氷上３９７０番地１９,,37,341,7610612,,,,,,,2022-05-09,1,,,,,マツウラケンチク,0
2621,9470003002178,新規,0,2022-05-09,2022-05-09,合同会社ハシビロ屋,,合同会社,香川県,高松市,木太町１９４７－４,,37,201,7600080,,,,,,,2022-05-09,1,,,,,ハシビロヤ,0
2623,9480001011733,新規,0,2022-05-09,2022-05-09,株式会社翔彩,,株式会社,徳島県,徳島市,南佐古六番町４番１１号,,36,201,7700036,,,,,,,2022-05-09,1,,,,,トア,0
2624,9500001024195,新規,0,2022-05-09,2022-05-09,株式会社伊藤土木,,株式会社,愛媛県,今治市,新谷乙２２５番地６１,,38,202,7940850,,,,,,,2022-05-09,1,,,,,イトウドボク,0
2625,9500001024204,新規,0,2022-05-09,2022-05-09,エクラ株式会社,,株式会社,愛媛県,松山市,大橋町４２３番地１,,38,201,7911126,,,,,,,2022-05-09,1,,,,,エクラ,0
2626,9500003002827,新規,0,2022-05-09,2022-05-09,合同会社みちしおプロジェクト,,合同会社,愛媛県,越智郡上島町,弓削下弓削４２０番地２,,38,356,7942506,,,,,,,2022-05-09,1,,,,,ミチシオプロジェクト,0
2627,9700150108571,新規,0,2022-05-09,2022-05-09,Ｈｉｔａｃｈｉ　Ａｓｔｅｍｏ　Ｅｕｒｏｐｅ　ＧｍｂＨ,,外国会社等,,,,,,,,Ｔｅｃｎｏｐａｒｋ　ＩＶ　Ｌｏｈｓｔｒａｓｓｅ　２８，８５４４５　Ｓｃｈｗａｉｇ－Ｏｂｅｒｄｉｎｇ，Ｇｅｒｍａｎｙ,,,,,,2022-05-09,1,,,,,ヒタチアステモヨーロツパゲーエムベーハー,0
