sequenceNumber,corporateNumber,process,correct,updateDate,changeDate,name,nameImageId,kind,prefectureName,cityName,streetNumber,addressImageId,prefectureCode,cityCode,postCode,addressOutside,addressOutsideImageId,closeDate,closeCause,successorCorporateNumber,changeCause,assignmentDate,latest,enName,enPrefectureName,enCityName,enAddressOutside,furigana,hihyoji
8,1010001245880,新規,0,2024-06-21,2024-06-21,株式会社ＰＡＬＯＭＡ,,株式会社,東京都,中央区,銀座１丁目１４番１４号銀座中公ビル２階,,13,102,1040061,,,,,,,2024-06-21,1,,,,,パロマ,0
9,1010001245889,新規,0,2024-06-21,2024-06-21,株式会社リンクマイスター,,株式会社,東京都,文京区,湯島２丁目９番７号光山ビル,,13,105,1130034,,,,,,,2024-06-21,1,,,,,リンクマイスター,0
10,1010001245930,新規,0,2024-06-21,2024-06-21,株式会社ミナックル,,株式会社,東京都,文京区,関口１丁目１９番２号第二弥助ビル５階,,13,105,1120014,,,,,,,2024-06-21,1,,,,,ミナックル,0
11,1010001245939,新規,0,2024-06-21,2024-06-21,遠東未来発展株式会社,,株式会社,東京都,中央区,銀座１丁目１２－４Ｎ＆Ｅ、ＢＬＤ．７階,,13,102,1040061,,,,,,,2024-06-21,1,,,,,エントウミライハッテン,0
12,1010001245988,新規,0,2024-06-21,2024-06-21,ＢＥＳＴ　ＨＥＡＬＴＨ日本株式会社,,株式会社,東京都,千代田区,二番町１番地２,,13,101,1020084,,,,,,,2024-06-21,1,,,,,ベストヘルスニッポン,0
15,1010003044067,新規,0,2024-06-21,2024-06-21,合同会社キタラ,,合同会社,東京都,千代田区,霞が関３丁目２番５号,,13,101,1000013,,,,,,,2024-06-21,1,,,,,キタラ,0
16,1010003044117,新規,0,2024-06-21,2024-06-21,合同会社ＯＪＴＨＯＮ,,合同会社,東京都,中央区,銀座１丁目１２番４号Ｎ＆ＥＢＬＤ．６Ｆ,,13,102,1040061,,,,,,,2024-06-21,1,,,,,オジソン,0
19,1010101016208,新規,0,2024-06-21,2024-06-21,株式会社８Ｓｔｒｅａｍ,,株式会社,東京都,八王子市,中野上町１丁目１４番９号ハイツＫ１０１号,,13,201,1920041,,,,,,,2024-06-21,1,,,,,エイトストリーム,0
28,1010401183334,新規,0,2024-06-21,2024-06-21,ＳＳＩ‐ＫＤ２号株式会社,,株式会社,東京都,港区,南青山１丁目１番１号新青山ビル西館７階,,13,103,1070062,,,,,,,2024-06-21,1,,,,,エスエスアイケーディーニゴウ,0
29,1010401183342,新規,0,2024-06-21,2024-06-21,株式会社ａｕｃ,,株式会社,東京都,港区,浜松町２丁目７番１７号イーグル浜松町天翔オフィス浜松町大門５階５５８,,13,103,1050013,,,,,,,2024-06-21,1,,,,,エーユーシー,0
30,1010403032869,新規,0,2024-06-21,2024-06-21,ケーコンサルティング合同会社,,合同会社,東京都,港区,芝３丁目３４番１－１００７号,,13,103,1050014,,,,,,,2024-06-21,1,,,,,ケーコンサルティング,0
32,1010601065407,新規,0,2024-06-21,2024-06-21,株式会社転職促進協会,,株式会社,東京都,墨田区,亀沢４丁目１３番２－６０１号ライオンズマンション錦糸町北斎通り,,13,107,1300014,,,,,,,2024-06-21,1,,,,,テンショクソクシンキョウカイ,0
34,1010603010914,新規,0,2024-06-21,2024-06-21,合同会社黒山羊,,合同会社,東京都,江東区,扇橋１丁目１７番１号,,13,108,1350011,,,,,,,2024-06-21,1,,,,,クロヤギ,0
35,1010701046158,新規,0,2024-06-21,2024-06-21,８０００Ｖｉｎｔａｇｅｓ株式会社,,株式会社,東京都,品川区,南品川２丁目２番１０号南品川Ｎビル２Ｆ,,13,109,1400004,,,,,,,2024-06-21,1,,,,,ハッセンヴィンテージズ,0
38,1010803004996,新規,0,2024-06-21,2024-06-21,レッド合同会社,,合同会社,東京都,大田区,南六郷１丁目５番２０号ＫＩハイツ１０２,,13,111,1440045,,,,,,,2024-06-21,1,,,,,レッド,0
39,1010901055512,新規,0,2024-06-21,2024-06-21,株式会社ＫｔＨファンド,,株式会社,東京都,世田谷区,奥沢３丁目１７番６－１０６号,,13,112,1580083,,,,,,,2024-06-21,1,,,,,ケイツウエイチファンド,0
43,1011001162819,新規,0,2024-06-21,2024-06-21,アクセルブリッジ株式会社,,株式会社,東京都,渋谷区,恵比寿１丁目２１番８号,,13,113,1500013,,,,,,,2024-06-21,1,,,,,アクセルブリッジ,0
44,1011003019422,新規,0,2024-06-21,2024-06-21,合同会社Ｆｕｌｌ　Ｍｏｏｎ,,合同会社,東京都,目黒区,目黒本町５丁目１２番３号,,13,110,1520002,,,,,,,2024-06-21,1,,,,,フルムーン,0
48,1011101107789,新規,0,2024-06-21,2024-06-21,株式会社ＵＮＩＴＥＤ　ｉｎｔｅｒｎａｔｉｏｎａｌ　Ｊａｐａｎ,,株式会社,東京都,新宿区,新宿１丁目３番８号,,13,104,1600022,,,,,,,2024-06-21,1,,,,,ユナイテッドインターナショナルジャパン,0
49,1011101107797,新規,0,2024-06-21,2024-06-21,マイプラ株式会社,,株式会社,東京都,新宿区,大久保１丁目１５番９号グローリア初穂新宿６０７,,13,104,1690072,,,,,,,2024-06-21,1,,,,,マイプラ,0
50,1011103014505,新規,0,2024-06-21,2024-06-21,傲辰国際貿易合同会社,,合同会社,東京都,新宿区,新宿１丁目３６番２号新宿第七葉山ビル３Ｆ,,13,104,1600022,,,,,,,2024-06-21,1,,,,,ゴウタツコクサイボウエキ,0
51,1011303005213,新規,0,2024-06-21,2024-06-21,ランディフィールド合同会社,,合同会社,東京都,杉並区,大宮２丁目２３番５号,,13,115,1680061,,,,,,,2024-06-21,1,,,,,ランディフィールド,0
52,1011401026202,新規,0,2024-06-21,2024-06-21,株式会社ミンダル,,株式会社,東京都,板橋区,舟渡２丁目３４番２１号,,13,119,1740041,,,,,,,2024-06-21,1,,,,,ミンダル,0
56,1011601027834,新規,0,2024-06-21,2024-06-21,宜和株式会社,,株式会社,東京都,練馬区,豊玉南２丁目２２－２サンテラス佐藤２０１号室,,13,120,1760014,,,,,,,2024-06-21,1,,,,,ギワ,0
64,1012401042008,新規,0,2024-06-21,2024-06-21,株式会社ＯＲＩＮＡＳ,,株式会社,東京都,調布市,布田１丁目１４番地６,,13,208,1820024,,,,,,,2024-06-21,1,,,,,オリナス,0
66,1012701018319,新規,0,2024-06-21,2024-06-21,ＬＡＭＰ　Ｇｌｏｂａｌ株式会社,,株式会社,東京都,西東京市,中町３丁目５番７－１号,,13,229,2020013,,,,,,,2024-06-21,1,,,,,ランプグローバル,0
75,1020003026337,新規,0,2024-06-21,2024-06-21,Ｍｉｒｕｓ合同会社,,合同会社,神奈川県,横浜市神奈川区,三ツ沢南町６－２０－２,,14,102,2210854,,,,,,,2024-06-21,1,,,,,ミルス,0
80,1021001082545,新規,0,2024-06-21,2024-06-21,株式会社純,,株式会社,神奈川県,厚木市,森の里青山１４番１２号,,14,212,2430123,,,,,,,2024-06-21,1,,,,,ジュン,0
81,1021001082553,新規,0,2024-06-21,2024-06-21,株式会社ＭＥＣＯＴＯ,,株式会社,神奈川県,中郡大磯町,大磯５５番,,14,341,2550003,,,,,,,2024-06-21,1,,,,,ミコト,0
82,1021003014645,新規,0,2024-06-21,2024-06-21,ＥＫ合同会社,,合同会社,神奈川県,相模原市南区,相模大野６丁目１３番１２号ドミールモリヤマ１０２,,14,153,2520303,,,,,,,2024-06-21,1,,,,,イーケイ,0
83,1021003014661,新規,0,2024-06-21,2024-06-21,合同会社彩雲,,合同会社,神奈川県,足柄上郡山北町,岸１６２９番地１９,,14,364,2580112,,,,,,,2024-06-21,1,,,,,サイウン,0
84,1021005013133,新規,0,2024-06-21,2024-06-21,一般社団法人ソーシャルサポートセンタープリズム,,その他の設立登記法人,神奈川県,相模原市中央区,相模原５丁目４－２６みすきゃんさす相模原３０７,,14,152,2520231,,,,,,,2024-06-21,1,,,,,ソーシャルサポートセンタープリズム,0
94,1040001134156,新規,0,2024-06-21,2024-06-21,株式会社ｔｉｎｙ　ｍｏｕｓｉｅ,,株式会社,千葉県,八千代市,緑が丘２丁目２番地６ウインディア緑が丘２０１,,12,221,2760049,,,,,,,2024-06-21,1,,,,,タイニーマウシー,0
96,1040003025262,新規,0,2024-06-21,2024-06-21,合同会社Ｃｉｔｒｕｓ　Ｔｒｅｅ,,合同会社,千葉県,市原市,潤井戸１２９７―１,,12,219,2900171,,,,,,,2024-06-21,1,,,,,シトラスツリー,0
102,1070001041894,新規,0,2024-06-21,2024-06-21,蒼穹株式会社,,株式会社,群馬県,前橋市,千代田町２丁目１０番２号,,10,201,3710022,,,,,,,2024-06-21,1,,,,,ソウキュウ,0
103,1070003005476,新規,0,2024-06-21,2024-06-21,合同会社ＭＡＴＯＭＥ,,合同会社,群馬県,太田市,台之郷町９３２－２,,10,205,3730801,,,,,,,2024-06-21,1,,,,,マトメ,0
109,1080101024831,新規,0,2024-06-21,2024-06-21,株式会社至誠,,株式会社,静岡県,沼津市,高尾台１２番地の２９,,22,203,4100017,,,,,,,2024-06-21,1,,,,,シセイ,0
116,1110001038498,新規,0,2024-06-21,2024-06-21,株式会社アントレース,,株式会社,新潟県,長岡市,下柳１丁目９番１８号,,15,202,9402013,,,,,,,2024-06-21,1,,,,,アントレース,0
128,1120001265570,新規,0,2024-06-21,2024-06-21,株式会社ローカルマーケティングサポート,,株式会社,大阪府,大阪市西区,京町堀１丁目８－３５四ツ橋鴻池ビル６Ｆ,,27,106,5500003,,,,,,,2024-06-21,1,,,,,ローカルマーケティングサポート,0
129,1120001265892,新規,0,2024-06-21,2024-06-21,株式会社ＴＨＲＥＥ　ＧＯＯＤ,,株式会社,大阪府,大阪市住之江区,浜口東２丁目１２番５－７０１号,,27,125,5590002,,,,,,,2024-06-21,1,,,,,スリーグッド,0
130,1120001265959,新規,0,2024-06-21,2024-06-21,株式会社Ｓｃｒａｔｃｈ,,株式会社,大阪府,大阪市北区,池田町６番８号,,27,127,5300033,,,,,,,2024-06-21,1,,,,,スクラッチ,0
131,1120001266032,新規,0,2024-06-21,2024-06-21,株式会社ＴａｋｅＴｈｒｅｅ,,株式会社,大阪府,大阪市中央区,久太郎町４丁目１－３大阪センタービル６Ｆ－３０９,,27,128,5410056,,,,,,,2024-06-21,1,,,,,テイクスリー,0
132,1120001266040,新規,0,2024-06-21,2024-06-21,ＰＡＮＲＡＥＬ株式会社,,株式会社,大阪府,大阪市中央区,城見２丁目１番６１号ツイン２１ＭＩＤタワー３８階,,27,128,5400001,,,,,,,2024-06-21,1,,,,,パンラエル,0
133,1120001266057,新規,0,2024-06-21,2024-06-21,青山株式会社,,株式会社,大阪府,大阪市生野区,小路東６丁目８番１７号昭和エクセルビュー東大阪１０３－Ｇ２０,,27,116,5440003,,,,,,,2024-06-21,1,,,,,アオヤマ,0
134,1120001266081,新規,0,2024-06-21,2024-06-21,Ｆｏｕｒ　Ｓｅａｓｏｎｓ株式会社,,株式会社,大阪府,大阪市中央区,南船場４丁目１２番８号,,27,128,5420081,,,,,,,2024-06-21,1,,,,,フォシーズンズ,0
135,1120001266098,新規,0,2024-06-21,2024-06-21,株式会社ミライ研究所,,株式会社,大阪府,大阪市西区,新町４丁目１９番１－２０６号,,27,106,5500013,,,,,,,2024-06-21,1,,,,,ミライケンキュウショ,0
136,1120001266107,新規,0,2024-06-21,2024-06-21,株式会社真心,,株式会社,大阪府,大阪市北区,西天満６丁目２－１４－１０５,,27,127,5300047,,,,,,,2024-06-21,1,,,,,マゴコロ,0
137,1120001266115,新規,0,2024-06-21,2024-06-21,株式会社Ｇｙｐｓｏｗ,,株式会社,大阪府,大阪市西区,江戸堀２丁目１番１号江戸堀センタービルＢ１Ｆ,,27,106,5500002,,,,,,,2024-06-21,1,,,,,ジプソウ,0
140,1120003026847,新規,0,2024-06-21,2024-06-21,Ｅｍｍｙｔｒａｄｉｎｇｃｏｍｐａｎｙ合同会社,,合同会社,大阪府,大阪市住吉区,東粉浜２丁目１６番９号ミフク１０１号,,27,120,5580051,,,,,,,2024-06-21,1,,,,,エミートレーディングカンパニー,0
141,1120003026888,新規,0,2024-06-21,2024-06-21,合同会社Ｒｅｖｉｖｅ,,合同会社,大阪府,大阪市中央区,南船場４丁目１０番５号南船場ＳＯＨＯビル７０２,,27,128,5420081,,,,,,,2024-06-21,1,,,,,リバイブ,0
142,1120003026896,新規,0,2024-06-21,2024-06-21,合同会社Ｋａｎｇｏ　ｎｏ友,,合同会社,大阪府,大阪市西淀川区,姫里３丁目１３番１０号,,27,113,5550025,,,,,,,2024-06-21,1,,,,,カンゴノトモ,0
154,1120901049354,新規,0,2024-06-21,2024-06-21,株式会社ツインアローズ,,株式会社,大阪府,吹田市,津雲台６丁目２５番１５号,,27,205,5650862,,,,,,,2024-06-21,1,,,,,ツインアローズ,0
157,1130001077321,新規,0,2024-06-21,2024-06-21,株式会社ｍｉｋｏｍａ,,株式会社,京都府,京都市左京区,高野東開町２０番地カストルム洛北２１３,,26,103,6068107,,,,,,,2024-06-21,1,,,,,ミコマ,0
164,1140001134848,新規,0,2024-06-21,2024-06-21,ＫＡＰ　ＪＡＰＡＮ株式会社,,株式会社,兵庫県,加東市,山国２００４番地１嬉野台団地７－２０１号,,28,228,6731421,,,,,,,2024-06-21,1,,,,,ケエピジャパン,0
169,1140003020732,新規,0,2024-06-21,2024-06-21,合同会社ＬＩＢ,,合同会社,兵庫県,丹波篠山市,吹新３１番地１１,,28,221,6692203,,,,,,,2024-06-21,1,,,,,エルアイビー,0
171,1150001027365,新規,0,2024-06-21,2024-06-21,株式会社今西誠進堂,,株式会社,奈良県,吉野郡吉野町,大字南大野３１１番地,,29,441,6393437,,,,,,,2024-06-21,1,,,,,イマニシセイシンドウ,0
173,1160003003215,新規,0,2024-06-21,2024-06-21,合同会社北財務会計,,合同会社,滋賀県,湖南市,菩提寺北５丁目５番３号,,25,211,5203246,,,,,,,2024-06-21,1,,,,,キタザイムカイケイ,0
178,1180001162060,新規,0,2024-06-21,2024-06-21,Ｇａｔｅ　Ｏｎｅ株式会社,,株式会社,愛知県,名古屋市西区,花の木３丁目１３番８号Ｓｕｇａｒｌｏａｆ　Ｐａｒｋ花の木３０１,,23,104,4510062,,,,,,,2024-06-21,1,,,,,ゲートワン,0
183,1200001042623,新規,0,2024-06-21,2024-06-21,株式会社Ｋｏｅｉ　Ｊａｐａｎ,,株式会社,岐阜県,多治見市,滝呂町２丁目６６番地,,21,204,5070813,,,,,,,2024-06-21,1,,,,,コーエイジャパン,0
193,1240005015786,新規,0,2024-06-21,2024-06-21,一般社団法人神仏習合部,,その他の設立登記法人,広島県,広島市東区,中山中町１７番８号,,34,102,7320026,,,,,,,2024-06-21,1,,,,,シンブツシュウゴウブ,0
197,1270003001637,新規,0,2024-06-21,2024-06-21,合同会社セカンドエフォート,,合同会社,鳥取県,東伯郡琴浦町,大字赤碕１９２０番地５７,,31,371,6892501,,,,,,,2024-06-21,1,,,,,セカンドエフォート,0
198,1280001009202,新規,0,2024-06-21,2024-06-21,株式会社スクローヴ,,株式会社,島根県,松江市,天神町５９番地５（１Ｆ）,,32,201,6900064,,,,,,,2024-06-21,1,,,,,スクローヴ,0
201,1290001106196,新規,0,2024-06-21,2024-06-21,イトシマ株式会社,,株式会社,福岡県,糸島市,志摩馬場８４６番地２,,40,230,8191305,,,,,,,2024-06-21,1,,,,,イトシマ,0
223,1360001033846,新規,0,2024-06-21,2024-06-21,株式会社よんなぁ,,株式会社,沖縄県,那覇市,字国場９１６番地,,47,201,9020075,,,,,,,2024-06-21,1,,,,,ヨンナァ,0
224,1360003014084,新規,0,2024-06-21,2024-06-21,合同会社クガニピ,,合同会社,沖縄県,八重山郡竹富町,字西表９８４番地の１,,47,381,9071542,,,,,,,2024-06-21,1,,,,,クガニピ,0
226,1370001051450,新規,0,2024-06-21,2024-06-21,株式会社３２,,株式会社,宮城県,栗原市,鶯沢北郷半戸六２６番地１,,04,213,9895403,,,,,,,2024-06-21,1,,,,,ミッツ,0
231,1380001034611,新規,0,2024-06-21,2024-06-21,株式会社ＭＭＫ　ＷＯＲＫＳ,,株式会社,福島県,西白河郡矢吹町,大池２５番地,,07,466,9690238,,,,,,,2024-06-21,1,,,,,エムエムケーワークス,0
233,1380005012844,新規,0,2024-06-21,2024-06-21,一般社団法人うめはる,,その他の設立登記法人,福島県,田村郡三春町,大字鷹巣字北之内１００番地の１,,07,521,9637725,,,,,,,2024-06-21,1,,,,,ウメハル,0
242,1430001092067,新規,0,2024-06-21,2024-06-21,ノーザンデリカフーズ株式会社,,株式会社,北海道,小樽市,築港７番８号,,01,203,0470008,,,,,,,2024-06-21,1,,,,,ノーザンデリカフーズ,0
247,1700150000835,新規,0,2024-06-21,2015-10-09,新２１世紀政治経済研究所,,その他,東京都,千代田区,永田町２丁目２－１衆議院第一議員会館１１０１号,,13,101,1000014,,,,,,,2015-10-09,1,,,,,シンニジユウイツセイキセイジケイザイケンキユウシヨ,0
255,2010001245913,新規,0,2024-06-21,2024-06-21,アデッソネクストホールディングス株式会社,,株式会社,東京都,中央区,銀座７丁目１２番４号,,13,102,1040061,,,,,,,2024-06-21,1,,,,,アデッソネクストホールディングス,0
256,2010001245954,新規,0,2024-06-21,2024-06-21,株式会社コタック・エネルギー・パートナーズ,,株式会社,東京都,中央区,銀座８丁目９番１５号銀座ミノリビル８階,,13,102,1040061,,,,,,,2024-06-21,1,,,,,コタックエネルギーパートナーズ,0
270,2010405023337,新規,0,2024-06-21,2024-06-21,一般社団法人ＳａｌｔＹＳ,,その他の設立登記法人,東京都,港区,西麻布１丁目１０番２号,,13,103,1060031,,,,,,,2024-06-21,1,,,,,ソルトワイエス,0
273,2010601065414,新規,0,2024-06-21,2024-06-21,ＩＲ　Ｍａｎａｇｅｍｅｎｔ株式会社,,株式会社,東京都,江東区,東雲１丁目９番４－２２０５号,,13,108,1350062,,,,,,,2024-06-21,1,,,,,アイアールマネジメント,0
283,2011001162842,新規,0,2024-06-21,2024-06-21,株式会社ＣｙＰａｓｓ,,株式会社,東京都,渋谷区,道玄坂１丁目１０番８号渋谷道玄坂東急ビル２Ｆ－Ｃ,,13,113,1500043,,,,,,,2024-06-21,1,,,,,サイパス,0
284,2011001162859,新規,0,2024-06-21,2024-06-21,ｎｅｓｅｖｏ　ＪＰ株式会社,,株式会社,東京都,渋谷区,恵比寿４丁目２０番３号恵比寿ガーデンプレイスタワー１８階,,13,113,1500013,,,,,,,2024-06-21,1,,,,,ネセーヴォジャパン,0
285,2011001162891,新規,0,2024-06-21,2024-06-21,株式会社アトラクレア華,,株式会社,東京都,渋谷区,千駄ヶ谷４丁目６番８－１９０６号,,13,113,1510051,,,,,,,2024-06-21,1,,,,,アトラクレアハナ,0
289,2011101107788,新規,0,2024-06-21,2024-06-21,株式会社Ｅｍｐａｔｈｙ４ｕ,,株式会社,東京都,新宿区,新宿２丁目１１－７第３３宮庭ビル５階,,13,104,1600022,,,,,,,2024-06-21,1,,,,,エンパシーフォーユー,0
290,2011101107796,新規,0,2024-06-21,2024-06-21,株式会社ＧＬＯＢＥエッジ企画,,株式会社,東京都,新宿区,須賀町８番地,,13,104,1600018,,,,,,,2024-06-21,1,,,,,グローブエッジキカク,0
291,2011101107813,新規,0,2024-06-21,2024-06-21,Ｌｕｃｅｎｔ　Ｂｅａｕｔｙ株式会社,,株式会社,東京都,新宿区,西新宿７丁目１－７ダイカンプラザＡ館８１３,,13,104,1600023,,,,,,,2024-06-21,1,,,,,ルセントビューティ,0
293,2011103014578,新規,0,2024-06-21,2024-06-21,合同会社ＭＤＬＨ,,合同会社,東京都,新宿区,西新宿１丁目２６番２号新宿野村ビル３２階,,13,104,1600023,,,,,,,2024-06-21,1,,,,,エムディーエルエイチ,0
294,2011301029774,新規,0,2024-06-21,2024-06-21,株式会社ＳＳＣ＆ＫＥＩＪＯ,,株式会社,東京都,杉並区,久我山３丁目２０番１１号,,13,115,1680082,,,,,,,2024-06-21,1,,,,,エスエスシーアンドケイジョウ,0
295,2011301029782,新規,0,2024-06-21,2024-06-21,株式会社Ｉｓ．ｃｏｍ,,株式会社,東京都,杉並区,善福寺３丁目７番７号,,13,115,1670041,,,,,,,2024-06-21,1,,,,,アイスコム,0
298,2011701027403,新規,0,2024-06-21,2024-06-21,勾雲株式会社,,株式会社,東京都,江戸川区,松島３丁目１４番７－３１０号若林ビル,,13,123,1320031,,,,,,,2024-06-21,1,,,,,コウウン,0
307,2012701018318,新規,0,2024-06-21,2024-06-21,株式会社ＬＩＥＮ,,株式会社,東京都,小平市,美園町１丁目１６番２号（１階）,,13,211,1870041,,,,,,,2024-06-21,1,,,,,リヤン,0
315,2020001157810,新規,0,2024-06-21,2024-06-21,株式会社ＦＭＣ,,株式会社,神奈川県,川崎市多摩区,東生田２丁目５番８号,,14,135,2140031,,,,,,,2024-06-21,1,,,,,エフエムシー,0
321,2021001082544,新規,0,2024-06-21,2024-06-21,株式会社ＨＯＰＥ　ＰＬＡＮＴ,,株式会社,神奈川県,横須賀市,根岸町２丁目２１番１３号佐久間ビル１Ｆ,,14,201,2390807,,,,,,,2024-06-21,1,,,,,ホーププラント,0
322,2021001082552,新規,0,2024-06-21,2024-06-21,株式会社ａｇｏｓｔｏ,,株式会社,神奈川県,相模原市緑区,二本松３丁目５０番４号,,14,151,2520137,,,,,,,2024-06-21,1,,,,,アゴスト,0
324,2021003014669,新規,0,2024-06-21,2024-06-21,合同会社ｈａｒｕｋａｎａ,,合同会社,神奈川県,茅ヶ崎市,松が丘２丁目７－２６,,14,207,2530025,,,,,,,2024-06-21,1,,,,,ハルカナ,0
334,2040001134139,新規,0,2024-06-21,2024-06-21,株式会社ＣＯＺＹ・ｉｎｔｅｒｉｏｒ,,株式会社,千葉県,船橋市,前貝塚町１７１番地１５,,12,204,2730042,,,,,,,2024-06-21,1,,,,,コズィーインテリア,0
335,2040001134163,新規,0,2024-06-21,2024-06-21,株式会社オプティマル,,株式会社,千葉県,白井市,桜台３丁目１１番６号,,12,232,2701412,,,,,,,2024-06-21,1,,,,,オプティマル,0
336,2040001134171,新規,0,2024-06-21,2024-06-21,株式会社ＰＵＲＥＧＯＬＤ,,株式会社,千葉県,千葉市若葉区,千城台東１丁目４番７号はせべビル１階,,12,104,2640002,,,,,,,2024-06-21,1,,,,,ピュアゴールド,0
338,2040003025245,新規,0,2024-06-21,2024-06-21,合同会社ＬＥＴＥＲＴＥ,,合同会社,千葉県,印西市,滝野６丁目１３－７,,12,231,2702329,,,,,,,2024-06-21,1,,,,,リテルテ,0
339,2050003008471,新規,0,2024-06-21,2024-06-21,ＰＡＫ　ＮＩＰＰＯＮ合同会社,,合同会社,茨城県,結城市,大字久保田３０番地１,,08,207,3070012,,,,,,,2024-06-21,1,,,,,パクニッポン,0
342,2060005010219,新規,0,2024-06-21,2024-06-21,土地家屋調査士法人柏崎事務所,00135257,その他の設立登記法人,栃木県,宇都宮市,小幡２丁目３番２８号,,09,201,3200036,,,,,,,2024-06-21,1,,,,,カシワザキジムショ,0
344,2070002037783,新規,0,2024-06-21,2024-06-21,有限会社中澤輪店,,有限会社,群馬県,前橋市,千代田町３丁目３番３５号,,10,201,3710022,,,,,,,2024-06-21,1,,,,,ナカザワリンテン,0
345,2070003005475,新規,0,2024-06-21,2024-06-21,ＷＡＴＡＲＡＳＥ　ＪＩＤＯＳＨＡ合同会社,,合同会社,群馬県,みどり市,東町花輪５３８番地１,,10,212,3760307,,,,,,,2024-06-21,1,,,,,ワタラセジドウシャ,0
355,2120001265974,新規,0,2024-06-21,2024-06-21,株式会社ｗｅａｖｕ,,株式会社,大阪府,大阪市鶴見区,横堤２丁目２３番５号一徳ビル２Ｆ,,27,124,5380052,,,,,,,2024-06-21,1,,,,,ウィーブ,0
356,2120001265999,新規,0,2024-06-21,2024-06-21,Ｂｉｎｋ．賓客株式会社,,株式会社,大阪府,大阪市住吉区,長居３丁目６番２０号ファッション長居ハイツ１Ｂ,,27,120,5580003,,,,,,,2024-06-21,1,,,,,ビンクドットヒンキャク,0
357,2120001266056,新規,0,2024-06-21,2024-06-21,茗熙株式会社,,株式会社,大阪府,大阪市城東区,関目５丁目１９番９号関目花博公館６１１Ｄ,,27,118,5360008,,,,,,,2024-06-21,1,,,,,メイキ,0
358,2120001266064,新規,0,2024-06-21,2024-06-21,株式会社墨尚,,株式会社,大阪府,大阪市平野区,加美北１丁目２３番２７号４０２号室,,27,126,5470001,,,,,,,2024-06-21,1,,,,,ボクショウ,0
359,2120001266097,新規,0,2024-06-21,2024-06-21,旭昇古美術株式会社,,株式会社,大阪府,大阪市阿倍野区,阪南町５丁目２５番１８号オーナーズマンション阪南ＩＩ３０１号,00135254,27,119,5450021,,,,,,,2024-06-21,1,,,,,キョクショウコビジュツ,0
360,2120001266106,新規,0,2024-06-21,2024-06-21,株式会社ＣＡＦＥＴＡＬＥＳ,,株式会社,大阪府,大阪市中央区,久太郎町２丁目５番１９号丸忠第三ビル１階,,27,128,5410056,,,,,,,2024-06-21,1,,,,,カフェタレス,0
361,2120001266130,新規,0,2024-06-21,2024-06-21,恒聖貿易株式会社,,株式会社,大阪府,大阪市生野区,中川西１丁目１７番１０号２Ｃ,,27,116,5440032,,,,,,,2024-06-21,1,,,,,コウセイボウエキ,0
362,2120001266155,新規,0,2024-06-21,2024-06-21,ＪＳ保険株式会社,,株式会社,大阪府,大阪市中央区,南船場２丁目２番４号７Ｆ,,27,128,5420081,,,,,,,2024-06-21,1,,,,,ジェイエスホケン,0
366,2120003026887,新規,0,2024-06-21,2024-06-21,合同会社ＧＯＡＴ,,合同会社,大阪府,大阪市西成区,天下茶屋１丁目１１番９号ＷｉｎｄＢｅｌｌ天下茶屋１０１号,,27,122,5570014,,,,,,,2024-06-21,1,,,,,ゴート,0
367,2120005024385,新規,0,2024-06-21,2024-06-21,特定非営利活動法人こずえのつぼみ,,その他の設立登記法人,大阪府,大阪市東淀川区,下新庄４丁目７番４号ルネ北公園１０５号,,27,114,5330021,,,,,,,2024-06-21,1,,,,,コズエノツボミ,0
381,2140001134863,新規,0,2024-06-21,2024-06-21,株式会社ノベリア・インベストメントマネジメント,,株式会社,兵庫県,宝塚市,千種３丁目５番１８号,,28,214,6650072,,,,,,,2024-06-21,1,,,,,ノベリアインベストメントマネジメント,0
382,2140001134888,新規,0,2024-06-21,2024-06-21,株式会社オレンジカンパニー,,株式会社,兵庫県,尼崎市,武庫町２丁目３番７号,,28,202,6610044,,,,,,,2024-06-21,1,,,,,オレンジカンパニー,0
383,2140003020731,新規,0,2024-06-21,2024-06-21,ＭＴＳ合同会社,,合同会社,兵庫県,神戸市中央区,中山手通１丁目１７番１５号,,28,110,6500004,,,,,,,2024-06-21,1,,,,,エムティーエス,0
390,2150003003289,新規,0,2024-06-21,2024-06-21,合同会社ＭＩＫ,,合同会社,奈良県,奈良市,西登美ヶ丘２丁目１５番,,29,201,6310006,,,,,,,2024-06-21,1,,,,,エムアイケー,0
393,2170001018196,新規,0,2024-06-21,2024-06-21,株式会社ＯＮＥ,,株式会社,和歌山県,橋本市,光陽台２丁目７番地の９,,30,203,6480099,,,,,,,2024-06-21,1,,,,,ワン,0
396,2180001162084,新規,0,2024-06-21,2024-06-21,株式会社新美設備,,株式会社,愛知県,知多郡阿久比町,大字植大字中郷３５番地７,,23,441,4702216,,,,,,,2024-06-21,1,,,,,ニイミセツビ,0
397,2180001162092,新規,0,2024-06-21,2024-06-21,株式会社中川レンタサービス,,株式会社,愛知県,名古屋市中川区,新家１丁目９２０番地,,23,110,4540972,,,,,,,2024-06-21,1,,,,,ナカガワレンタサービス,0
402,2180003026980,新規,0,2024-06-21,2024-06-21,合同会社太功,,合同会社,愛知県,名古屋市東区,泉１丁目２２番３５号チサンマンション桜通久屋８１４号,,23,102,4610001,,,,,,,2024-06-21,1,,,,,タイコウ,0
406,2200001042622,新規,0,2024-06-21,2024-06-21,株式会社ＭＹＫ・ＧＬＯＢＡＬ,,株式会社,岐阜県,大垣市,和合新町１丁目１５番地中村第三ビル２０３,,21,202,5030801,,,,,,,2024-06-21,1,,,,,エムワイケイグローバル,0
412,2220005008865,新規,0,2024-06-21,2024-06-21,一般社団法人かなざわエコライト,,その他の設立登記法人,石川県,金沢市,進和町１９番地２,,17,201,9218006,,,,,,,2024-06-21,1,,,,,カナザワエコライト,0
417,2260001039200,新規,0,2024-06-21,2024-06-21,株式会社ミロヴィア,,株式会社,岡山県,真庭市,多田４３番地２１,,33,214,7193213,,,,,,,2024-06-21,1,,,,,ミロヴィア,0
432,2330001032189,新規,0,2024-06-21,2024-06-21,株式会社ＦＳＫ　ＢＯＯＴＨ,,株式会社,熊本県,熊本市東区,新生１丁目１－９ＦＳＫビル３Ｆ,,43,102,8620908,,,,,,,2024-06-21,1,,,,,エフエスケーブース,0
433,2330005010802,新規,0,2024-06-21,2024-06-21,一般社団法人小山フットボールクラブ,,その他の設立登記法人,熊本県,熊本市東区,小山５丁目１２番１号,,43,102,8618045,,,,,,,2024-06-21,1,,,,,オヤマフットボールクラブ,0
438,2360003014091,新規,0,2024-06-21,2024-06-21,合同会社近生未来,,合同会社,沖縄県,国頭郡恩納村,字喜瀬武原３８０番地,,47,311,9040403,,,,,,,2024-06-21,1,,,,,キンセイミライ,0
439,2370001051425,新規,0,2024-06-21,2024-06-21,株式会社ＳＳＣ,,株式会社,宮城県,仙台市青葉区,八幡５丁目９番３６号八幡広瀬川ロイヤルマンション２０１,,04,101,9800871,,,,,,,2024-06-21,1,,,,,エスエスシー,0
440,2370005010807,新規,0,2024-06-21,2024-06-21,Ｃｏｎｎｅｃｔｉｎｇ　ｔｈｅ　ｄｏｔｓ一般社団法人,,その他の設立登記法人,宮城県,仙台市泉区,高森４丁目２番地の４３２,,04,105,9813203,,,,,,,2024-06-21,1,,,,,コネクティングザドッツ,0
447,2380001034627,新規,0,2024-06-21,2024-06-21,新白河住まいる不動産株式会社,,株式会社,福島県,西白河郡西郷村,字豊作東５番地,,07,461,9618041,,,,,,,2024-06-21,1,,,,,シンシラカワスマイルフドウサン,0
470,2700150126142,新規,0,2024-06-21,2024-06-21,ＣＥＮＴＲＯ　ＭＯＴＯＲＳ,,外国会社等,千葉県,佐倉市,大篠塚２７７番地オフィス６,,12,212,2850806,スリランカ民主社会主義共和国、ガンポラ、メインストリート、Ｎｏ．２／Ａ,,,,,,2024-06-21,1,,,,,セントロモータース,0
477,3010003044057,新規,0,2024-06-21,2024-06-21,合同会社あかつき運営,,合同会社,東京都,千代田区,霞が関３丁目２番５号,,13,101,1000013,,,,,,,2024-06-21,1,,,,,アカツキウンエイ,0
486,3010401183316,新規,0,2024-06-21,2024-06-21,ＡＩＰＡ株式会社,,株式会社,東京都,港区,虎ノ門４丁目３－１－２１Ｆ,,13,103,1050001,,,,,,,2024-06-21,1,,,,,アイパ,0
493,3010601065405,新規,0,2024-06-21,2024-06-21,株式会社Ｔｗｏ　Ｂｏｔｔｌｅｓ,,株式会社,東京都,江東区,東陽５丁目３０番６－５１２号,,13,108,1350016,,,,,,,2024-06-21,1,,,,,トゥーボトルズ,0
514,3011001162734,新規,0,2024-06-21,2024-06-21,株式会社ＮＵＫＡＮＯＢＡ,,株式会社,東京都,渋谷区,恵比寿西２丁目８番４号ＥＸ恵比寿西ビル５階,,13,113,1500021,,,,,,,2024-06-21,1,,,,,ヌカノバ,0
515,3011001162767,新規,0,2024-06-21,2024-06-21,株式会社バイトストリーム,,株式会社,東京都,渋谷区,広尾５丁目１４番２号,,13,113,1500012,,,,,,,2024-06-21,1,,,,,バイトストリーム,0
516,3011001162775,新規,0,2024-06-21,2024-06-21,株式会社金宝堂ホールディングス,,株式会社,東京都,渋谷区,道玄坂２丁目２５番１２号道玄坂通４階,,13,113,1500043,,,,,,,2024-06-21,1,,,,,キンポウドウホールディングス,0
517,3011001162882,新規,0,2024-06-21,2024-06-21,ＴＳテクノロジー株式会社,,株式会社,東京都,渋谷区,代々木５丁目５５番１２号,,13,113,1510053,,,,,,,2024-06-21,1,,,,,ティーエステクノロジー,0
519,3011003019395,新規,0,2024-06-21,2024-06-21,トータルミッション合同会社,,合同会社,東京都,渋谷区,渋谷２丁目１９－１５宮益坂ビルディング６０９,,13,113,1500002,,,,,,,2024-06-21,1,,,,,トータルミッション,0
520,3011003019437,新規,0,2024-06-21,2024-06-21,合同会社ＡｎｙＴｒｕｓｔ,,合同会社,東京都,渋谷区,恵比寿１丁目６番４号ミレニエ恵比寿３０２,,13,113,1500013,,,,,,,2024-06-21,1,,,,,エニートラスト,0
525,3011101107779,新規,0,2024-06-21,2024-06-21,Ｒｅｏ株式会社,,株式会社,東京都,新宿区,大久保１丁目１６番１５号豊生堂マンション３０１,,13,104,1690072,,,,,,,2024-06-21,1,,,,,アールイーオー,0
526,3011101107787,新規,0,2024-06-21,2024-06-21,株式会社ＳＩＭＰＬＥ　ＰＬＡＮ,,株式会社,東京都,新宿区,西新宿３丁目３番１３号西新宿水間ビル２Ｆ,,13,104,1600023,,,,,,,2024-06-21,1,,,,,シンプルプラン,0
527,3011101107795,新規,0,2024-06-21,2024-06-21,株式会社タカトモ,,株式会社,東京都,新宿区,西新宿３丁目３番１３号,,13,104,1600023,,,,,,,2024-06-21,1,,,,,タカトモ,0
529,3011103014569,新規,0,2024-06-21,2024-06-21,ビルベック合同会社,,合同会社,東京都,新宿区,西新宿３丁目３番１３号西新宿水間ビル２Ｆ,,13,104,1600023,,,,,,,2024-06-21,1,,,,,ビルベック,0
531,3011203004412,新規,0,2024-06-21,2024-06-21,合同会社ＴＡＮ,,合同会社,東京都,中野区,東中野３丁目１８番１４号第二ハイム２０２,,13,114,1640003,,,,,,,2024-06-21,1,,,,,ティーエーエヌ,0
532,3011203004420,新規,0,2024-06-21,2024-06-21,合同会社ＡＬＬ　Ｓｉｍｐｌｅｓ,,合同会社,東京都,中野区,大和町１丁目３３番４号フリーデンハイム１０２,,13,114,1650034,,,,,,,2024-06-21,1,,,,,オールシンプルズ,0
533,3011301029773,新規,0,2024-06-21,2024-06-21,株式会社ＰｅａｒＬａｂ．,,株式会社,東京都,杉並区,久我山３丁目２０番１１号,,13,115,1680082,,,,,,,2024-06-21,1,,,,,ペアラボ,0
540,3011403004419,新規,0,2024-06-21,2024-06-21,買う蔵トレーディング合同会社,,合同会社,東京都,板橋区,南常盤台２丁目４番１８号,,13,119,1740072,,,,,,,2024-06-21,1,,,,,カウゾウトレーディング,0
541,3011603004367,新規,0,2024-06-21,2024-06-21,合同会社シーカー,,合同会社,東京都,練馬区,向山３丁目２２番８号,,13,120,1760022,,,,,,,2024-06-21,1,,,,,シーカー,0
542,3011701027402,新規,0,2024-06-21,2024-06-21,Ｓ’ＦＩＮＩＴＹ株式会社,,株式会社,東京都,江戸川区,西葛西８丁目３番５号,,13,123,1340088,,,,,,,2024-06-21,1,,,,,エスフィニティー,0
550,3013301052714,新規,0,2024-06-21,2024-06-21,株式会社ａｎｙ　ｃａｎ　ｄｒｅａｍ,,株式会社,東京都,豊島区,南池袋４丁目１０番２２号レジェンドオブケー１０１号,,13,116,1710022,,,,,,,2024-06-21,1,,,,,エニーキャンドリーム,0
554,3020001157818,新規,0,2024-06-21,2024-06-21,株式会社ベルエキップ,,株式会社,神奈川県,川崎市川崎区,京町２丁目２４番２－１２０４号,,14,131,2100848,,,,,,,2024-06-21,1,,,,,ベルエキップ,0
555,3020001157842,新規,0,2024-06-21,2024-06-21,株式会社ＩＡＣソリューションズ,,株式会社,神奈川県,横浜市西区,北幸２丁目１０番４８号むつみビル３階,,14,103,2200004,,,,,,,2024-06-21,1,,,,,アイエーシーソリューションズ,0
561,3021001082551,新規,0,2024-06-21,2024-06-21,株式会社あしがら警備,,株式会社,神奈川県,南足柄市,関本３６８番地,,14,217,2500105,,,,,,,2024-06-21,1,,,,,アシガラケイビ,0
566,3021003014651,新規,0,2024-06-21,2024-06-21,ＡｓｔｒａＭｅｄｉｃａｌ　Ｉｎｎｏｖａｔｉｏｎｓ合同会社,,合同会社,神奈川県,相模原市緑区,西橋本１丁目２４‐２グランソレイユ橋本８０１,,14,151,2520131,,,,,,,2024-06-21,1,,,,,アストラメディカルイノベーションズ,0
574,3040001134138,新規,0,2024-06-21,2024-06-21,株式会社Ｖａｓｔｎｅｓｓ,,株式会社,千葉県,八千代市,勝田台１丁目１７番２号福島ビル４階,,12,221,2760023,,,,,,,2024-06-21,1,,,,,ヴァストネス,0
575,3040001134146,新規,0,2024-06-21,2024-06-21,株式会社Ｓｏｌｅｉｌ,,株式会社,千葉県,匝瑳市,飯倉台１９番地３６,,12,235,2892148,,,,,,,2024-06-21,1,,,,,ソレイユ,0
578,3040003025260,新規,0,2024-06-21,2024-06-21,合同会社ｆｕｒａｗａ,,合同会社,千葉県,千葉市稲毛区,黒砂台２丁目１０－５－１０３,,12,103,2630041,,,,,,,2024-06-21,1,,,,,フラワ,0
579,3040003025269,新規,0,2024-06-21,2024-06-21,志合同会社,,合同会社,千葉県,船橋市,本町４丁目４３－９－３０２,,12,204,2730005,,,,,,,2024-06-21,1,,,,,ココロザシ,0
601,3120001266022,新規,0,2024-06-21,2024-06-21,＿森株式会社,00135260,株式会社,大阪府,大阪市東淀川区,下新庄５丁目２２番２２号ラフォーレ下新庄３０１号室,,27,114,5330021,,,,,,,2024-06-21,1,,,,,ハクモリ,0
602,3120001266096,新規,0,2024-06-21,2024-06-21,川上商店株式会社,,株式会社,大阪府,大阪市浪速区,元町３丁目６番８号,,27,111,5560016,,,,,,,2024-06-21,1,,,,,カワカミショウテン,0
603,3120001266113,新規,0,2024-06-21,2024-06-21,閏英商事株式会社,,株式会社,大阪府,大阪市淀川区,木川東４丁目５番２２号,,27,123,5320012,,,,,,,2024-06-21,1,,,,,ジュンエイショウジ,0
604,3120001266154,新規,0,2024-06-21,2024-06-21,株式会社アートセキュリティ,,株式会社,大阪府,大阪市西区,京町堀２丁目６番２０－１９０５号,,27,106,5500003,,,,,,,2024-06-21,1,,,,,アートセキュリティ,0
606,3120003026886,新規,0,2024-06-21,2024-06-21,合同会社ＳＦＣ,,合同会社,大阪府,大阪市天王寺区,国分町３番７号シャンピア国分町２０２号,,27,109,5430044,,,,,,,2024-06-21,1,,,,,エスエフシー,0
607,3120003026903,新規,0,2024-06-21,2024-06-21,ＡＳＡ合同会社,,合同会社,大阪府,大阪市淀川区,木川東２丁目１６番１２号ネバーランド西中島１５０１,,27,123,5320012,,,,,,,2024-06-21,1,,,,,アサ,0
609,3120101069820,新規,0,2024-06-21,2024-06-21,岸豊工業株式会社,,株式会社,大阪府,堺市堺区,竜神橋町２丁３番１号ステュディオ堺フェニックス３２０号,,27,141,5900972,,,,,,,2024-06-21,1,,,,,キシトヨコウギョウ,0
618,3120901049360,新規,0,2024-06-21,2024-06-21,株式会社たがけん内装．,,株式会社,大阪府,摂津市,鳥飼西４丁目１６番１号,,27,224,5660072,,,,,,,2024-06-21,1,,,,,タガケンナイソウ,0
620,3122001038211,新規,0,2024-06-21,2024-06-21,株式会社慧安国際,,株式会社,大阪府,八尾市,都塚北２丁目３０番地,00135261,27,212,5810010,,,,,,,2024-06-21,1,,,,,ケイアンコクサイ,0
622,3130001077328,新規,0,2024-06-21,2024-06-21,株式会社ＴＲＵＳＴ,,株式会社,京都府,京都市伏見区,日野西川頬１－２４,,26,109,6011426,,,,,,,2024-06-21,1,,,,,トラスト,0
625,3130003009650,新規,0,2024-06-21,2024-06-21,Ｋ　Ｌａｂ合同会社,,合同会社,京都府,京都市南区,上鳥羽菅田町４番地４０３,,26,107,6018102,,,,,,,2024-06-21,1,,,,,ケイラボ,0
632,3140001134846,新規,0,2024-06-21,2024-06-21,株式会社ユミフーズ,,株式会社,兵庫県,明石市,大久保町ゆりのき通１丁目４番地の２、１－８０３号,,28,203,6740068,,,,,,,2024-06-21,1,,,,,ユミフーズ,0
633,3140001134862,新規,0,2024-06-21,2024-06-21,株式会社Ｒｉｖｅｒ　Ｆｉｅｌｄ,,株式会社,兵庫県,神戸市灘区,備後町３丁目１番４－３０３号,,28,102,6570037,,,,,,,2024-06-21,1,,,,,リバーフィールド,0
634,3140001134870,新規,0,2024-06-21,2024-06-21,株式会社三日月プランニング,,株式会社,兵庫県,西宮市,能登町３－１２,,28,204,6620838,,,,,,,2024-06-21,1,,,,,ミカヅキプランニング,0
635,3140001134879,新規,0,2024-06-21,2024-06-21,株式会社ｂｒｕｎ,,株式会社,兵庫県,西宮市,熊野町４番１８－６０７号,,28,204,6638103,,,,,,,2024-06-21,1,,,,,ブラン,0
642,3140005027121,新規,0,2024-06-21,2024-06-21,パレ塚口北宮の杜管理組合法人,,その他の設立登記法人,兵庫県,伊丹市,南野４丁目９番１４号,,28,207,6640865,,,,,,,2024-06-21,1,,,,,パレツカグチキタミヤノモリ,0
643,3160001026018,新規,0,2024-06-21,2024-06-21,株式会社リバーキャピタル,,株式会社,滋賀県,守山市,立入町２０１番地２９,,25,207,5240031,,,,,,,2024-06-21,1,,,,,リバーキャピタル,0
656,3180001162075,新規,0,2024-06-21,2024-06-21,株式会社中日本企画,,株式会社,愛知県,海部郡蟹江町,桜４丁目４８番地,,23,425,4970038,,,,,,,2024-06-21,1,,,,,ナカニホンキカク,0
657,3180001162083,新規,0,2024-06-21,2024-06-21,株式会社ＫＡＴＯホールディングス,,株式会社,愛知県,名古屋市天白区,土原２丁目５０９番地,,23,116,4680026,,,,,,,2024-06-21,1,,,,,カトウホールディングス,0
658,3180001162109,新規,0,2024-06-21,2024-06-21,株式会社Ｔｈｅ　Ｓｍｉｌｅ,,株式会社,愛知県,春日井市,下市場町４丁目１番地９,,23,206,4860852,,,,,,,2024-06-21,1,,,,,ザスマイル,0
660,3180003026955,新規,0,2024-06-21,2024-06-21,合同会社Ｃｒａｄｌｅ,,合同会社,愛知県,海部郡大治町,大字西條字北屋敷１５７番地,,23,424,4901144,,,,,,,2024-06-21,1,,,,,クレイドル,0
676,3230001020401,新規,0,2024-06-21,2024-06-21,株式会社リバーフィールド,,株式会社,富山県,富山市,大泉本町１丁目１１番１０号,,16,201,9398094,,,,,,,2024-06-21,1,,,,,リバーフィールド,0
681,3240003006736,新規,0,2024-06-21,2024-06-21,アディコジャパン合同会社,,合同会社,広島県,広島市中区,三川町４番１９号４Ｆ,,34,101,7300029,,,,,,,2024-06-21,1,,,,,アディコジャパン,0
686,3260001039199,新規,0,2024-06-21,2024-06-21,株式会社タービン,,株式会社,岡山県,岡山市北区,北長瀬表町２丁目１７番８０号ＢＲＡＮＣＨ岡山北長瀬ハッシュタグ岡山コワーキングスペース,,33,101,7000962,,,,,,,2024-06-21,1,,,,,タービン,0
688,3260005011369,新規,0,2024-06-21,2024-06-21,一般社団法人みやお,,その他の設立登記法人,岡山県,津山市,宮尾６７０番地,,33,203,7094613,,,,,,,2024-06-21,1,,,,,ミヤオ,0
695,3290001106244,新規,0,2024-06-21,2024-06-21,株式会社こるり,,株式会社,福岡県,福岡市中央区,高砂２丁目１－１,,40,133,8100011,,,,,,,2024-06-21,1,,,,,コルリ,0
696,3290001106260,新規,0,2024-06-21,2024-06-21,株式会社ジャクソンマテリアルズ,,株式会社,福岡県,久留米市,青峰２丁目１５番１１号,,40,203,8390853,,,,,,,2024-06-21,1,,,,,ジャクソンマテリアルズ,0
701,3320005010166,新規,0,2024-06-21,2024-06-21,一般社団法人アドベストＥ,,その他の設立登記法人,大分県,大分市,田尻北１番１７号,,44,201,8701140,,,,,,,2024-06-21,1,,,,,アドベストイー,0
703,3330001032171,新規,0,2024-06-21,2024-06-21,東祐株式会社,,株式会社,熊本県,合志市,幾久富１９０９－６８６,,43,216,8611112,,,,,,,2024-06-21,1,,,,,トウユウ,0
707,3350003004679,新規,0,2024-06-21,2024-06-21,合同会社インクリース,,合同会社,宮崎県,都城市,都島町１２５番地８,,45,202,8850083,,,,,,,2024-06-21,1,,,,,インクリース,0
717,3370001051432,新規,0,2024-06-21,2024-06-21,株式会社Ｈ．Ｌ．Ａ,,株式会社,宮城県,仙台市青葉区,昭和町２番２３号ノーヴスアーバンビル５０３,,04,101,9810913,,,,,,,2024-06-21,1,,,,,エイチエルエー,0
718,3370001051440,新規,0,2024-06-21,2024-06-21,株式会社はっぱのおうち,,株式会社,宮城県,仙台市青葉区,川平４丁目１２番２８号,,04,101,9810954,,,,,,,2024-06-21,1,,,,,ハッパノオウチ,0
719,3370001051449,新規,0,2024-06-21,2024-06-21,株式会社ＥＤＤＹ,,株式会社,宮城県,仙台市青葉区,南吉成３丁目８番地の５パークサイド南吉成Ｃ棟２０２,,04,101,9893204,,,,,,,2024-06-21,1,,,,,エディー,0
722,3390003002258,新規,0,2024-06-21,2024-06-21,合同会社ｎａｔｕｒａｌ,,合同会社,山形県,天童市,大字久野本２１３８番地の５,,06,210,9940012,,,,,,,2024-06-21,1,,,,,ナチュラル,0
743,3500003003269,新規,0,2024-06-21,2024-06-21,きのしたアセットマネジメント合同会社,,合同会社,愛媛県,松山市,北井門５丁目２５番２１号,,38,201,7911105,,,,,,,2024-06-21,1,,,,,キノシタアセットマネジメント,0
746,3700150126141,新規,0,2024-06-21,2024-06-21,ＣＡＮＤＡ　ＥＮＴＥＲＰＲＩＳＥＳ,,外国会社等,千葉県,八街市,八街は１番地１４９オフィス１,,12,230,2891107,スリランカ民主社会主義共和国、カトゥガストタ、マダワラロード、Ｎｏ．１４３,,,,,,2024-06-21,1,,,,,カンダエンタープライズ,0
752,4010001245911,新規,0,2024-06-21,2024-06-21,株式会社ＣＵ,,株式会社,東京都,文京区,湯島３丁目２４番１１号湯島北東ビル８階Ｂ,,13,105,1130034,,,,,,,2024-06-21,1,,,,,シーユー,0
753,4010001245960,新規,0,2024-06-21,2024-06-21,秋田管財株式会社,,株式会社,東京都,千代田区,内神田１丁目２番８号,,13,101,1010047,,,,,,,2024-06-21,1,,,,,アキタカンザイ,0
756,4010003044056,新規,0,2024-06-21,2024-06-21,合同会社あかつき,,合同会社,東京都,千代田区,霞が関３丁目２番５号,,13,101,1000013,,,,,,,2024-06-21,1,,,,,アカツキ,0
762,4010403032800,新規,0,2024-06-21,2024-06-21,ユニバーサルビューティーテック合同会社,,合同会社,東京都,港区,南青山３丁目１番３６号青山丸竹ビル６Ｆ,,13,103,1070062,,,,,,,2024-06-21,1,,,,,ユニバーサルビューティーテック,0
763,4010501052485,新規,0,2024-06-21,2024-06-21,遊藝企画株式会社,,株式会社,東京都,台東区,浅草３丁目２３番１０号,,13,106,1110032,,,,,,,2024-06-21,1,,,,,ユウゲイキカク,0
766,4010601065404,新規,0,2024-06-21,2024-06-21,株式会社ノクトル,,株式会社,東京都,江東区,亀戸５丁目６番２１号ＵＩＷ９ＢＬＤＧ．２Ｆ,,13,108,1360071,,,,,,,2024-06-21,1,,,,,ノクトル,0
771,4010803005001,新規,0,2024-06-21,2024-06-21,合同会社ＹＭＲ,,合同会社,東京都,大田区,中央３丁目２１－１２,,13,111,1430024,,,,,,,2024-06-21,1,,,,,ワイエムアール,0
775,4010901055501,新規,0,2024-06-21,2024-06-21,株式会社ひろしまモビリティワールド,,株式会社,東京都,世田谷区,等々力６丁目１３番１０号,,13,112,1580082,,,,,,,2024-06-21,1,,,,,ヒロシマモビリティワールド,0
777,4010903009141,新規,0,2024-06-21,2024-06-21,Ｈｉｎｏｄｅ　Ｓｏｌｕｔｉｏｎｓ合同会社,,合同会社,東京都,世田谷区,桜上水３丁目１７番７号,,13,112,1560045,,,,,,,2024-06-21,1,,,,,ヒノデソリューション,0
778,4010905004628,新規,0,2024-06-21,2024-06-21,一般社団法人菁々塾,,その他の設立登記法人,東京都,世田谷区,太子堂１丁目１２番２７コンフォートテラス１００５号,,13,112,1540004,,,,,,,2024-06-21,1,,,,,セイセイジュク,0
782,4011001162766,新規,0,2024-06-21,2024-06-21,株式会社Ｖｉｖｏｙａｇｅ,,株式会社,東京都,渋谷区,円山町５番５号Ｎａｖｉ渋谷Ｖ３階,,13,113,1500044,,,,,,,2024-06-21,1,,,,,ヴィヴォヤージュ,0
783,4011001162824,新規,0,2024-06-21,2024-06-21,株式会社ＭＥＳ,,株式会社,東京都,渋谷区,恵比寿西２丁目８番４号ＥＸ恵比寿西ビル５階,,13,113,1500021,,,,,,,2024-06-21,1,,,,,エムイーエス,0
786,4011101107778,新規,0,2024-06-21,2024-06-21,株式会社ＵＴＯ　ＥＮＴＥＲＴＡＩＮＭＥＮＴ,,株式会社,東京都,新宿区,西新宿４丁目５番４－９０１号,,13,104,1600023,,,,,,,2024-06-21,1,,,,,ユウトエンターテインメント,0
790,4011103014568,新規,0,2024-06-21,2024-06-21,ＭＤ　ＥＬＥＣＴＲＯＮＩＣＳ　Ｊａｐａｎ合同会社,,合同会社,東京都,新宿区,西新宿１丁目２６番２号新宿野村ビル３２階,,13,104,1600023,,,,,,,2024-06-21,1,,,,,エムディーエレクトロニクスジャパン,0
791,4011103014584,新規,0,2024-06-21,2024-06-21,ＲＫ合同会社,,合同会社,東京都,新宿区,西新宿３丁目３番１３号西新宿水間ビル６階,,13,104,1600023,,,,,,,2024-06-21,1,,,,,アールケー,0
795,4011401026190,新規,0,2024-06-21,2024-06-21,株式会社誠物産,,株式会社,東京都,板橋区,氷川町１９番１－１００２号,,13,119,1730013,,,,,,,2024-06-21,1,,,,,マコトブッサン,0
802,4013301052671,新規,0,2024-06-21,2024-06-21,株式会社グローアップホールディングス,,株式会社,東京都,豊島区,南大塚２丁目４５番８号,,13,116,1700005,,,,,,,2024-06-21,1,,,,,グローアップホールディングス,0
813,4021001082559,新規,0,2024-06-21,2024-06-21,株式会社Ｖｉｖｅｒａ,,株式会社,神奈川県,平塚市,明石町２４番２５－１１０６号,,14,203,2540042,,,,,,,2024-06-21,1,,,,,ヴィヴェラ,0
818,4021003014667,新規,0,2024-06-21,2024-06-21,ＥＺＬ合同会社,,合同会社,神奈川県,鎌倉市,七里ガ浜東３丁目２１番１３号,,14,204,2480025,,,,,,,2024-06-21,1,,,,,イズル,0
824,4040001134062,新規,0,2024-06-21,2024-06-21,株式会社ＲＩＳＥ,,株式会社,千葉県,成田市,並木町４１番地２８６,,12,211,2860045,,,,,,,2024-06-21,1,,,,,ライズ,0
825,4040001134145,新規,0,2024-06-21,2024-06-21,株式会社京葉プラコム,,株式会社,千葉県,流山市,鰭ケ崎１３番地４,,12,220,2700161,,,,,,,2024-06-21,1,,,,,ケイヨウプラコム,0
826,4040001134153,新規,0,2024-06-21,2024-06-21,山倉興業株式会社,,株式会社,千葉県,四街道市,大日２１０６番地３４,,12,228,2840001,,,,,,,2024-06-21,1,,,,,ヤマクラコウギョウ,0
827,4040001134161,新規,0,2024-06-21,2024-06-21,株式会社レオーネ,,株式会社,千葉県,富里市,七栄６４６番地１２３,,12,233,2860221,,,,,,,2024-06-21,1,,,,,レオーネ,0
828,4040001134178,新規,0,2024-06-21,2024-06-21,株式会社庭処高桑,00135256,株式会社,千葉県,船橋市,金杉３丁目１９番３６号,,12,204,2730853,,,,,,,2024-06-21,1,,,,,ニワドコロタカクワ,0
831,4060001037222,新規,0,2024-06-21,2024-06-21,エスエスクリエイト株式会社,,株式会社,栃木県,小山市,駅南町２丁目１８番３号,,09,208,3230822,,,,,,,2024-06-21,1,,,,,エスエスクリエイト,0
836,4070001041891,新規,0,2024-06-21,2024-06-21,株式会社ＴＡＣＨＩＢＡＮＡ．Ｃｏｒｐｏｒａｔｉｏｎ,,株式会社,群馬県,桐生市,境野町６丁目１５４３－１,,10,203,3760002,,,,,,,2024-06-21,1,,,,,タチバナコーポレーション,0
839,4080101024829,新規,0,2024-06-21,2024-06-21,ＤＣＩ　Ｃｏｎｓｕｌｔｉｎｇ株式会社,,株式会社,静岡県,沼津市,添地町１５２番地,,22,203,4100803,,,,,,,2024-06-21,1,,,,,ディーシーアイコンサルティング,0
847,4080401027267,新規,0,2024-06-21,2024-06-21,株式会社西貝商事,,株式会社,静岡県,浜松市中央区,田町３１６番地の３０,,22,138,4300944,,,,,,,2024-06-21,1,,,,,ニシガイショウジ,0
868,4120001265898,新規,0,2024-06-21,2024-06-21,新希望株式会社,,株式会社,大阪府,大阪市淀川区,西三国１丁目１１－２グロースハイツ東三国３０２号室,,27,123,5320006,,,,,,,2024-06-21,1,,,,,シンキボウ,0
869,4120001266129,新規,0,2024-06-21,2024-06-21,リノビジネスサポート株式会社,,株式会社,大阪府,大阪市北区,中崎西１丁目８番２４号アインズビル梅田５０６号室,,27,127,5300015,,,,,,,2024-06-21,1,,,,,リノビジネスサポート,0
870,4120001266137,新規,0,2024-06-21,2024-06-21,株式会社ｅｍ,,株式会社,大阪府,大阪市都島区,中野町５丁目５番１２号,,27,102,5340027,,,,,,,2024-06-21,1,,,,,エム,0
872,4120003026910,新規,0,2024-06-21,2024-06-21,合同会社ＷＥＬＬ,,合同会社,大阪府,大阪市住之江区,御崎１丁目８番１０号,,27,125,5590013,,,,,,,2024-06-21,1,,,,,ウェル,0
877,4120905006621,新規,0,2024-06-21,2024-06-21,一般社団法人アニマルウェルフェア大阪,,その他の設立登記法人,大阪府,豊中市,庄内栄町５丁目１１番５号,,27,203,5610834,,,,,,,2024-06-21,1,,,,,アニマルウェルフェアオオサカ,0
879,4122001038210,新規,0,2024-06-21,2024-06-21,九ゑ株式会社,,株式会社,大阪府,東大阪市,菱江２丁目６－５,,27,227,5780984,,,,,,,2024-06-21,1,,,,,クエ,0
880,4122003002916,新規,0,2024-06-21,2024-06-21,合同会社Ｌｕｍｉｅｒｅ,,合同会社,大阪府,柏原市,大正２丁目８番１号ＳｈａＭａｉｓｏｎＬａｍｅｒ１０２号室,,27,221,5820009,,,,,,,2024-06-21,1,,,,,リュミエール,0
893,4140001134853,新規,0,2024-06-21,2024-06-21,株式会社コンファラボ,,株式会社,兵庫県,神戸市中央区,磯上通４丁目１番１４号三宮スカイビル６階,,28,110,6510086,,,,,,,2024-06-21,1,,,,,コンファラボ,0
894,4140001134861,新規,0,2024-06-21,2024-06-21,株式会社Ｇ’ｓ,,株式会社,兵庫県,神戸市東灘区,岡本９丁目３番４号,,28,101,6580072,,,,,,,2024-06-21,1,,,,,ジーズ,0
898,4140003020738,新規,0,2024-06-21,2024-06-21,合同会社まこと,,合同会社,兵庫県,加古川市,平岡町二俣１０１１Ａ２－２０６,,28,210,6750111,,,,,,,2024-06-21,1,,,,,マコト,0
901,4160001026017,新規,0,2024-06-21,2024-06-21,株式会社ＨＩＲＯスポーツテック,,株式会社,滋賀県,草津市,大路１丁目９番１－４０７号アトラスタワー草津,,25,206,5250032,,,,,,,2024-06-21,1,,,,,ヒロスポーツテック,0
906,4180001162058,新規,0,2024-06-21,2024-06-21,大海株式会社,,株式会社,愛知県,名古屋市港区,港楽２丁目４番６号－２,,23,111,4550014,,,,,,,2024-06-21,1,,,,,タイカイ,0
907,4180001162108,新規,0,2024-06-21,2024-06-21,Ｓｔｙｌｅ　Ｌｏｔｕｓ株式会社,,株式会社,愛知県,名古屋市中区,丸の内３丁目７番２６号－５Ｆ,,23,106,4600002,,,,,,,2024-06-21,1,,,,,スタイルロータス,0
911,4180003026979,新規,0,2024-06-21,2024-06-21,合同会社Ｌｕｓｈ　Ｄｅｓｉｇｎｓ,,合同会社,愛知県,名古屋市中区,栄３丁目２番３号名古屋日興證券ビル４階,,23,106,4600008,,,,,,,2024-06-21,1,,,,,ラッシュデザインズ,0
915,4180301038759,新規,0,2024-06-21,2024-06-21,株式会社ウィステリアフィールド,,株式会社,愛知県,岡崎市,大和町字上河原３３番地１,,23,202,4440931,,,,,,,2024-06-21,1,,,,,ウィステリアフィールド,0
917,4190001031427,新規,0,2024-06-21,2024-06-21,株式会社ＫＯＤＡＭＡ　ＧＲＯＵＰ,,株式会社,三重県,津市,藤方２２５１番地の１,,24,201,5140815,,,,,,,2024-06-21,1,,,,,,0
929,4220005008863,新規,0,2024-06-21,2024-06-21,特定非営利活動法人いしかわ生物多様性ネットワーク,,その他の設立登記法人,石川県,小松市,京町１１番地,,17,203,9230918,,,,,,,2024-06-21,1,,,,,イシカワセイブツタヨウセイネットワーク,0
936,4240003006735,新規,0,2024-06-21,2024-06-21,合同会社ＦｕｋｕＦｕｋｕ,,合同会社,広島県,呉市,上長迫町５番３号,,34,202,7370031,,,,,,,2024-06-21,1,,,,,フクフク,0
945,4280003001856,新規,0,2024-06-21,2024-06-21,合同会社Ｒｕｃｈｉ,,合同会社,島根県,出雲市,佐田町須佐６１６‐１,,32,203,6930503,,,,,,,2024-06-21,1,,,,,ルチ,0
948,4290001106227,新規,0,2024-06-21,2024-06-21,株式会社ＯＧＡＴＡ,,株式会社,福岡県,糟屋郡宇美町,ひばりが丘１丁目２１番１号,,40,341,8112106,,,,,,,2024-06-21,1,,,,,オガタ,0
949,4290001106235,新規,0,2024-06-21,2024-06-21,株式会社ＳＩＯ,,株式会社,福岡県,福岡市博多区,中洲１丁目３番１５号オンリーワンビル２Ｆ,,40,132,8100801,,,,,,,2024-06-21,1,,,,,シオ,0
951,4290003015467,新規,0,2024-06-21,2024-06-21,ジャパンＦＲＰアシスト合同会社,,合同会社,福岡県,太宰府市,青山１丁目３４番１０号,,40,221,8180121,,,,,,,2024-06-21,1,,,,,ジャパンエフアールピーアシスト,0
952,4290003015475,新規,0,2024-06-21,2024-06-21,合同会社リベンジ,,合同会社,福岡県,福岡市中央区,白金１丁目１号３番５０６,,40,133,8100012,,,,,,,2024-06-21,1,,,,,リベンジ,0
964,4350001019026,新規,0,2024-06-21,2024-06-21,株式会社Ｄｒｏｐｓ,,株式会社,宮崎県,宮崎市,城ケ崎４丁目７－２,,45,201,8800917,,,,,,,2024-06-21,1,,,,,ドロップス,0
987,4500001025710,新規,0,2024-06-21,2024-06-21,株式会社Ｌｉｎｏ　Ｄｉａｍｏｎｄ,,株式会社,愛媛県,松山市,中央２丁目５６番地９,,38,201,7918015,,,,,,,2024-06-21,1,,,,,リノダイアモンド,0
989,4700150126140,新規,0,2024-06-21,2024-06-21,ＡＨＡＭＥＤ　ＭＯＴＯＲ　ＴＥＣＨ,,外国会社等,千葉県,八街市,八街は１番地１４９オフィス４,,12,230,2891107,スリランカ民主社会主義共和国、キャンディ、アクラナ、ウッガラ、Ｎｏ．１９３／１Ｂ,,,,,,2024-06-21,1,,,,,アハメドモーターテツク,0
1005,5010001245893,新規,0,2024-06-21,2024-06-21,ＴＫコンサルティング株式会社,,株式会社,東京都,千代田区,九段南１丁目５番６号りそな九段ビル５階ＫＳフロア,,13,101,1020074,,,,,,,2024-06-21,1,,,,,ティケーコンサルティング,0
1006,5010001245902,新規,0,2024-06-21,2024-06-21,ＫＨホールディングス株式会社,,株式会社,東京都,中央区,月島１丁目３番１４号,,13,102,1040052,,,,,,,2024-06-21,1,,,,,ケーエイチホールディングス,0
1011,5010103002375,新規,0,2024-06-21,2024-06-21,喜馬拉雅工務店合同会社,,合同会社,東京都,八王子市,堀之内３丁目２２番地１２ハイツエスポワール１０６室,,13,201,1920355,,,,,,,2024-06-21,1,,,,,ヒマラヤコウムテン,0
1025,5010401183280,新規,0,2024-06-21,2024-06-21,株式会社グロースアドバンテッジ,,株式会社,東京都,港区,東新橋１丁目１番２１号今朝ビル５階,,13,103,1050021,,,,,,,2024-06-21,1,,,,,グロースアドバンテッジ,0
1040,5010803005000,新規,0,2024-06-21,2024-06-21,合同会社フルスブルネン,,合同会社,東京都,大田区,下丸子２丁目２２－６,,13,111,1460092,,,,,,,2024-06-21,1,,,,,フルスブルネン,0
1043,5010901055509,新規,0,2024-06-21,2024-06-21,株式会社勇大,,株式会社,東京都,世田谷区,用賀２丁目２１番１－３１０号,,13,112,1580097,,,,,,,2024-06-21,1,,,,,ユウダイ,0
1047,5011001162699,新規,0,2024-06-21,2024-06-21,株式会社１９５プロモーション,,株式会社,東京都,渋谷区,宇田川町１２番３号,,13,113,1500042,,,,,,,2024-06-21,1,,,,,イチキュウゴプロモーション,0
1048,5011001162708,新規,0,2024-06-21,2024-06-21,株式会社エレフォース,,株式会社,東京都,渋谷区,恵比寿西２丁目４番８号ウィンド恵比寿ビル８Ｆ,,13,113,1500021,,,,,,,2024-06-21,1,,,,,エレフォース,0
1049,5011001162765,新規,0,2024-06-21,2024-06-21,株式会社ライトパス,,株式会社,東京都,渋谷区,道玄坂１丁目１９番１１号,,13,113,1500043,,,,,,,2024-06-21,1,,,,,ライトパス,0
1056,5011101107785,新規,0,2024-06-21,2024-06-21,株式会社ＰＯＫＥＲ　ＳＩＳＴＥＲＳ,,株式会社,東京都,新宿区,歌舞伎町１丁目２２番９号,,13,104,1600021,,,,,,,2024-06-21,1,,,,,ポーカーシスターズ,0
1057,5011101107802,新規,0,2024-06-21,2024-06-21,コミカ株式会社,,株式会社,東京都,新宿区,新宿１丁目３６番２号新宿葉山ビル３階,,13,104,1600022,,,,,,,2024-06-21,1,,,,,コミカ,0
1058,5011103014583,新規,0,2024-06-21,2024-06-21,レーザーネット合同会社,,合同会社,東京都,新宿区,西新宿３丁目３番１３号西新宿水間ビル６階,,13,104,1600023,,,,,,,2024-06-21,1,,,,,レーザーネット,0
1059,5011103014591,新規,0,2024-06-21,2024-06-21,合同会社ウィンウィナー,,合同会社,東京都,新宿区,北新宿１丁目１３番９号高美コーポ４０１,,13,104,1690074,,,,,,,2024-06-21,1,,,,,ウィンウィナー,0
1065,5011501030843,新規,0,2024-06-21,2024-06-21,株式会社高橋社中,,株式会社,東京都,北区,岩淵町３７番４－１１０３号,,13,117,1150041,,,,,,,2024-06-21,1,,,,,タカハシシャチュウ,0
1066,5011701027400,新規,0,2024-06-21,2024-06-21,株式会社ＨＥＡＲＴＳ,,株式会社,東京都,江戸川区,松本１丁目８番１０号,,13,123,1330043,,,,,,,2024-06-21,1,,,,,ハーツ,0
1067,5011703003878,新規,0,2024-06-21,2024-06-21,合同会社ＫＤ企画,,合同会社,東京都,江戸川区,南小岩５丁目１８－１４,,13,123,1330056,,,,,,,2024-06-21,1,,,,,ケーディーキカク,0
1076,5012801023264,新規,0,2024-06-21,2024-06-21,Ｍｉｌａｎ　Ｙｕｚｕ　Ｊａｐａｎ株式会社,,株式会社,東京都,国立市,富士見台１丁目１３番地の９神代マンション２０５,,13,215,1860003,,,,,,,2024-06-21,1,,,,,ミランユズジャパン,0
1077,5012801023272,新規,0,2024-06-21,2024-06-21,株式会社ケイプラスアーキテクト,,株式会社,東京都,国分寺市,南町３丁目２３番１２号,,13,214,1850021,,,,,,,2024-06-21,1,,,,,ケイプラスアーキテクト,0
1079,5012803003438,新規,0,2024-06-21,2024-06-21,合同会社Ｂｅ　Ａｌｒｉｇｈｔ,,合同会社,東京都,日野市,大字上田３８６番地の４ヴィラージュＹ１０１,,13,212,1910014,,,,,,,2024-06-21,1,,,,,,0
1089,5020003026416,新規,0,2024-06-21,2024-06-21,合同会社インフィニットシーティーエル,,合同会社,神奈川県,横浜市南区,中里２丁目１‐２５フラットＫ３０３,,14,105,2320063,,,,,,,2024-06-21,1,,,,,インフィニットシーティーエル,0
1090,5020005016464,新規,0,2024-06-21,2024-06-21,一般社団法人リファインドソリューションズ,,その他の設立登記法人,神奈川県,横浜市西区,北幸１丁目１番８号,,14,103,2200004,,,,,,,2024-06-21,1,,,,,リファインドソリューションズ,0
1103,5030005021736,新規,0,2024-06-21,2024-06-21,一般社団法人アジア太平洋企業発展協力会,,その他の設立登記法人,埼玉県,川口市,西川口５丁目１３番１８－３号,,11,203,3320021,,,,,,,2024-06-21,1,,,,,アジアタイヘイヨウキギョウハッテンキョウリョクカイ,0
1111,5040001134177,新規,0,2024-06-21,2024-06-21,株式会社Ｂｒｉｌｌｉａｎｔ　Ｌｉｆｅ,,株式会社,千葉県,柏市,南逆井３丁目２２番６０号,,12,217,2770043,,,,,,,2024-06-21,1,,,,,ブリリアントライフ,0
1112,5040001134185,新規,0,2024-06-21,2024-06-21,株式会社Ｈｏｌｏｍｕａ,,株式会社,千葉県,習志野市,本大久保４丁目１０－３,,12,216,2750012,,,,,,,2024-06-21,1,,,,,ホロムア,0
1114,5040003025250,新規,0,2024-06-21,2024-06-21,合同会社藤本屋,,合同会社,千葉県,佐倉市,白銀２丁目３４１番地２７,,12,212,2850045,,,,,,,2024-06-21,1,,,,,フジモトヤ,0
1118,5060001037221,新規,0,2024-06-21,2024-06-21,ＪＲＤ商事株式会社,,株式会社,栃木県,下野市,小金井１８１３番地９,,09,216,3290414,,,,,,,2024-06-21,1,,,,,ジェイアールディーショウジ,0
1127,5080101024836,新規,0,2024-06-21,2024-06-21,株式会社心羽美創,,株式会社,静岡県,田方郡函南町,間宮７５５番地の１レフィナードＳ２０５,,22,325,4190123,,,,,,,2024-06-21,1,,,,,シンワビソウ,0
1147,5120001266029,新規,0,2024-06-21,2024-06-21,株式会社ＧＯＮトラスト,,株式会社,大阪府,大阪市東成区,東小橋２丁目１０－２５－３０３,,27,115,5370024,,,,,,,2024-06-21,1,,,,,ゴントラスト,0
1148,5120001266086,新規,0,2024-06-21,2024-06-21,ＲＥＡＮＮ株式会社,,株式会社,大阪府,大阪市中央区,南本町１丁目３番２号三星南本町ビルＭ８２０号室,,27,128,5410054,,,,,,,2024-06-21,1,,,,,リアン,0
1149,5120001266094,新規,0,2024-06-21,2024-06-21,宇城株式会社,,株式会社,大阪府,大阪市生野区,新今里５丁目７－６,,27,116,5440001,,,,,,,2024-06-21,1,,,,,ウキ,0
1150,5120001266111,新規,0,2024-06-21,2024-06-21,プラスモア株式会社,,株式会社,大阪府,大阪市西区,西本町２丁目１番２７号,,27,106,5500005,,,,,,,2024-06-21,1,,,,,プラスモア,0
1156,5120101069819,新規,0,2024-06-21,2024-06-21,株式会社木村組,,株式会社,大阪府,羽曳野市,野４５６番地の４,,27,222,5830884,,,,,,,2024-06-21,1,,,,,キムラグミ,0
1158,5120901049342,新規,0,2024-06-21,2024-06-21,株式会社ＡＫＡＬＡ,,株式会社,大阪府,高槻市,津之江町３丁目２６－８,,27,207,5690822,,,,,,,2024-06-21,1,,,,,アカラ,0
1159,5120901049359,新規,0,2024-06-21,2024-06-21,株式会社Ｌｉｎｋ　Ｅｓｓｅｎｃｅ,,株式会社,大阪府,高槻市,北園町１２番６号,,27,207,5690802,,,,,,,2024-06-21,1,,,,,リンクエッセンス,0
1161,5122003002923,新規,0,2024-06-21,2024-06-21,合同会社秋桜,,合同会社,大阪府,東大阪市,瓜生堂１丁目１４番１３－３１０号,,27,227,5780946,,,,,,,2024-06-21,1,,,,,コスモス,0
1165,5130001077318,新規,0,2024-06-21,2024-06-21,株式会社ｄｏｂ建築,,株式会社,京都府,向日市,物集女町北ノ口６３番地の３２,,26,208,6170001,,,,,,,2024-06-21,1,,,,,ディーオービィーケンチク,0
1166,5130003009649,新規,0,2024-06-21,2024-06-21,合同会社ＰＴＰＭ,,合同会社,京都府,京都市伏見区,深草北蓮池町９１５番地２－４０６号,00135262,26,109,6120035,,,,,,,2024-06-21,1,,,,,ピーティーピーエム,0
1175,5140001134811,新規,0,2024-06-21,2024-06-21,株式会社翔,,株式会社,兵庫県,南あわじ市,榎列小榎列甲２９４番地,,28,224,6560425,,,,,,,2024-06-21,1,,,,,ショウ,0
1176,5140001134836,新規,0,2024-06-21,2024-06-21,株式会社リシェスプロジェ,,株式会社,兵庫県,神戸市須磨区,稲葉町７丁目２番１５号,,28,107,6540044,,,,,,,2024-06-21,1,,,,,リシェスプロジェ,0
1177,5140001134844,新規,0,2024-06-21,2024-06-21,株式会社Ｍ．ＴＯＭＩＴＡ,,株式会社,兵庫県,神戸市灘区,高尾通４丁目１番２５－１０４号,,28,102,6570813,,,,,,,2024-06-21,1,,,,,エムトミタ,0
1178,5140001134869,新規,0,2024-06-21,2024-06-21,株式会社造形工匠,,株式会社,兵庫県,神戸市灘区,篠原中町３丁目４番６－１Ｆ,,28,102,6570066,,,,,,,2024-06-21,1,,,,,ゾウケイコウショウ,0
1188,5150005009604,新規,0,2024-06-21,2024-06-21,一般社団法人細山ホールディングス,,その他の設立登記法人,奈良県,橿原市,内膳町１丁目１番３号,,29,205,6340804,,,,,,,2024-06-21,1,,,,,ホソヤマホールディングス,0
1191,5180001161777,新規,0,2024-06-21,2024-06-21,株式会社Ｆｕｌｌｆｉｌｌ,,株式会社,愛知県,名古屋市中区,橘１丁目２１番５号,,23,106,4600016,,,,,,,2024-06-21,1,,,,,フルフィル,0
1192,5180001162073,新規,0,2024-06-21,2024-06-21,ＶＥＡＶ株式会社,,株式会社,愛知県,名古屋市中区,錦１丁目１７番１３号,,23,106,4600003,,,,,,,2024-06-21,1,,,,,ヴィーヴ,0
1193,5180001162081,新規,0,2024-06-21,2024-06-21,株式会社ＳＨＩＮ‐ＥＩ,,株式会社,愛知県,愛西市,大野町未８７番地１,,23,232,4960922,,,,,,,2024-06-21,1,,,,,シンエイ,0
1217,5290001106218,新規,0,2024-06-21,2024-06-21,株式会社ＨＭ,,株式会社,福岡県,福岡市博多区,山王１丁目１０番１１－７０６号,,40,132,8120015,,,,,,,2024-06-21,1,,,,,エイチエム,0
1218,5290001106226,新規,0,2024-06-21,2024-06-21,株式会社ＭＴＫ,,株式会社,福岡県,朝倉市,入地１８５４－２,,40,228,8381315,,,,,,,2024-06-21,1,,,,,エムティーケー,0
1219,5290001106234,新規,0,2024-06-21,2024-06-21,株式会社ＧＯＬＤ,,株式会社,福岡県,福岡市中央区,春吉２丁目９－２５ラ・レジダンス・ド・レーヌ３０６号室,,40,133,8100003,,,,,,,2024-06-21,1,,,,,ゴールド,0
1223,5290003015466,新規,0,2024-06-21,2024-06-21,合同会社かさぶらんか,,合同会社,福岡県,福岡市博多区,美野島３丁目２０番１６－１２０１号,,40,132,8120017,,,,,,,2024-06-21,1,,,,,カサブランカ,0
1224,5290003015474,新規,0,2024-06-21,2024-06-21,合同会社カイ商店,,合同会社,福岡県,福岡市南区,大楠２丁目１９－２０ピュアドームエレガンテ平尾７０３,,40,134,8150082,,,,,,,2024-06-21,1,,,,,カイショウテン,0
1230,5330001032186,新規,0,2024-06-21,2024-06-21,Ｃａｎｂｅ株式会社,,株式会社,熊本県,人吉市,下城本町１４２６番地１,,43,203,8680015,,,,,,,2024-06-21,1,,,,,キャンビー,0
1238,5370001051439,新規,0,2024-06-21,2024-06-21,株式会社太陽,,株式会社,宮城県,大崎市,田尻沼部字富岡浦６４番地,,04,215,9894308,,,,,,,2024-06-21,1,,,,,タイヨウ,0
1239,5370001051447,新規,0,2024-06-21,2024-06-21,株式会社Ｓ‐ＰＲＩＤＥ,,株式会社,宮城県,宮城郡利府町,花園３丁目４番地１７,,04,406,9810132,,,,,,,2024-06-21,1,,,,,エスプライド,0
1248,5390003002256,新規,0,2024-06-21,2024-06-21,合同会社タスク・ギア,,合同会社,山形県,鶴岡市,平成町６番２８号,,06,203,9971156,,,,,,,2024-06-21,1,,,,,タスクギア,0
1250,5400001016685,新規,0,2024-06-21,2024-06-21,株式会社ジェイパット,,株式会社,岩手県,紫波郡紫波町,紫波中央駅前５丁目１６０－１１,,03,321,0283318,,,,,,,2024-06-21,1,,,,,ジェイパット,0
1251,5420001018770,新規,0,2024-06-21,2024-06-21,株式会社タナカ商会,,株式会社,青森県,青森市,大字野内字菊川７０番地１１,,02,201,0393503,,,,,,,2024-06-21,1,,,,,タナカショウカイ,0
1261,5480001012520,新規,0,2024-06-21,2024-06-21,株式会社Ｗｅｌ‐Ｂ,,株式会社,徳島県,徳島市,明神町６丁目１１番地の２,,36,201,7700938,,,,,,,2024-06-21,1,,,,,ウェルビー,0
1267,5500003003267,新規,0,2024-06-21,2024-06-21,合同会社ちむくくる,,合同会社,愛媛県,松山市,和気町２丁目９２７－１０,,38,201,7992656,,,,,,,2024-06-21,1,,,,,チムククル,0
1272,6010001245356,新規,0,2024-06-21,2024-06-21,Ｔｈｅ　Ｂｅｉｇｅ　Ｇｒｏｕｐ株式会社,,株式会社,東京都,中央区,日本橋本町３丁目７番９号日本橋ＭＯビル６階,,13,102,1030023,,,,,,,2024-06-21,1,,,,,ザベージュグループ,0
1273,6010001245901,新規,0,2024-06-21,2024-06-21,陽光株式会社,,株式会社,東京都,中央区,銀座６丁目１３－７新保ビルハローオフィスＧＩＮＺＡ６０３,,13,102,1040061,,,,,,,2024-06-21,1,,,,,ヨウコウ,0
1274,6010001245918,新規,0,2024-06-21,2024-06-21,株式会社安佑,,株式会社,東京都,千代田区,九段南３丁目５番２号,,13,101,1020074,,,,,,,2024-06-21,1,,,,,アンユウ,0
1275,6010001245934,新規,0,2024-06-21,2024-06-21,ミヒサラ・ランカ株式会社,,株式会社,東京都,千代田区,神田三崎町３丁目５番９号天翔水道橋ビル３階,,13,101,1010061,,,,,,,2024-06-21,1,,,,,,0
1276,6010001245950,新規,0,2024-06-21,2024-06-21,株式会社ＧＢＬ　ＡＳＩＡ,,株式会社,東京都,千代田区,神田和泉町１番地６の１６ヤマトビル４０５,,13,101,1010024,,,,,,,2024-06-21,1,,,,,ジービーエルアジア,0
1279,6010003044112,新規,0,2024-06-21,2024-06-21,合同会社ステラ,,合同会社,東京都,中央区,銀座８丁目１０番５号第四秀和ビル３階,,13,102,1040061,,,,,,,2024-06-21,1,,,,,ステラ,0
1280,6010005038442,新規,0,2024-06-21,2024-06-21,一般社団法人トライアングル,,その他の設立登記法人,東京都,千代田区,丸の内３丁目１番１号東京共同会計事務所内,,13,101,1000005,,,,,,,2024-06-21,1,,,,,トライアングル,0
1282,6010101016211,新規,0,2024-06-21,2024-06-21,株式会社Ｃａｔｎａｐ,,株式会社,東京都,八王子市,堀之内２５６－２０４,,13,201,1920355,,,,,,,2024-06-21,1,,,,,,0
1293,6010405023366,新規,0,2024-06-21,2024-06-21,夕霧一般社団法人,,その他の設立登記法人,東京都,港区,西新橋１丁目１番１号ＥＰコンサルティングサービス内,,13,103,1050003,,,,,,,2024-06-21,1,,,,,ユウギリ,0
1295,6010501052491,新規,0,2024-06-21,2024-06-21,東信商事株式会社,,株式会社,東京都,台東区,根岸２丁目１８－２３,,13,106,1100003,,,,,,,2024-06-21,1,,,,,トウシンショウジ,0
1300,6010901055508,新規,0,2024-06-21,2024-06-21,株式会社プラスワン,,株式会社,東京都,世田谷区,喜多見２丁目３番１２号,,13,112,1570067,,,,,,,2024-06-21,1,,,,,プラスワン,0
1301,6010903009172,新規,0,2024-06-21,2024-06-21,合同会社ＴＭＣ,,合同会社,東京都,世田谷区,船橋６丁目４番５－５０３号,,13,112,1560055,,,,,,,2024-06-21,1,,,,,ティーエムシー,0
1306,6011001162764,新規,0,2024-06-21,2024-06-21,株式会社Ｗｉｔ‐Ｕ,,株式会社,東京都,渋谷区,広尾５丁目１４番２号,,13,113,1500012,,,,,,,2024-06-21,1,,,,,ウィットユー,0
1307,6011001162806,新規,0,2024-06-21,2024-06-21,株式会社トモネ,,株式会社,東京都,渋谷区,神宮前６丁目２３番４号桑野ビル２Ｆ,,13,113,1500001,,,,,,,2024-06-21,1,,,,,トモネ,0
1308,6011001162830,新規,0,2024-06-21,2024-06-21,Ｒａｚｅｒ　Ｊａｐａｎ株式会社,,株式会社,東京都,渋谷区,神宮前６丁目２８－９、東武ビル６Ｆ,,13,113,1500001,,,,,,,2024-06-21,1,,,,,レイザージャパン,0
1309,6011001162913,新規,0,2024-06-21,2024-06-21,株式会社ＮＯＡ,,株式会社,東京都,渋谷区,神宮前６丁目２３番４号桑野ビル２階,,13,113,1500001,,,,,,,2024-06-21,1,,,,,ノア,0
1310,6011003019401,新規,0,2024-06-21,2024-06-21,合同会社コンパッション・リーダーズ,,合同会社,東京都,渋谷区,道玄坂１丁目１０番８号渋谷道玄坂東急ビル２Ｆ－Ｃ,,13,113,1500043,,,,,,,2024-06-21,1,,,,,コンパッションリーダーズ,0
1311,6011003019434,新規,0,2024-06-21,2024-06-21,合同会社ＮｅｔＰｒｏ,,合同会社,東京都,渋谷区,渋谷２丁目１９－１５,,13,113,1500002,,,,,,,2024-06-21,1,,,,,ネットプロ,0
1313,6011005010556,新規,0,2024-06-21,2024-06-21,一般社団法人Ｄｏｔｓ　ｔｏ　Ｃｏｄｅ,,その他の設立登記法人,東京都,渋谷区,道玄坂１丁目１０番８号渋谷道玄坂東急ビル２Ｆ－Ｃ,,13,113,1500043,,,,,,,2024-06-21,1,,,,,ドッツトューコード,0
1314,6011005010572,新規,0,2024-06-21,2024-06-21,一般社団法人メンタルケア振興会,,その他の設立登記法人,東京都,渋谷区,神宮前２丁目５番８号カーデ青山２０１,,13,113,1500001,,,,,,,2024-06-21,1,,,,,メンタルケアシンコウカイ,0
1318,6011101107792,新規,0,2024-06-21,2024-06-21,株式会社Ｒｅ．ｓｔａｒｔ,,株式会社,東京都,新宿区,西新宿６丁目２５－８アトラスタワー西新宿２３０４,,13,104,1600023,,,,,,,2024-06-21,1,,,,,リスタート,0
1322,6011301029779,新規,0,2024-06-21,2024-06-21,株式会社ワッショイエンジニアリング,,株式会社,東京都,杉並区,松ノ木２丁目１６番１４号,,13,115,1660014,,,,,,,2024-06-21,1,,,,,ワッショイエンジニアリング,0
1330,6011701027374,新規,0,2024-06-21,2024-06-21,漢唐株式会社,,株式会社,東京都,江戸川区,本一色３丁目９－１１－１Ｆ,,13,123,1330044,,,,,,,2024-06-21,1,,,,,カントウ,0
1331,6011701027408,新規,0,2024-06-21,2024-06-21,長河恒興日本株式会社,,株式会社,東京都,江戸川区,江戸川６丁目４０番１４－２１０号,,13,123,1340013,,,,,,,2024-06-21,1,,,,,チョウコウコウキョウニホン,0
1333,6011801044410,新規,0,2024-06-21,2024-06-21,ＹＧ　ＪＡＰＡＮ株式会社,,株式会社,東京都,葛飾区,東新小岩２丁目２５番８号セントヒルズ小岩２０２号室,,13,122,1240023,,,,,,,2024-06-21,1,,,,,ワイジージャパン,0
1335,6011803006301,新規,0,2024-06-21,2024-06-21,Ｉｄｅａｌ　Ｐａｒｔｎｅｒｓ合同会社,,合同会社,東京都,足立区,西新井４丁目２６－１７,,13,121,1230841,,,,,,,2024-06-21,1,,,,,アイデアルパートナー,0
1336,6012403006600,新規,0,2024-06-21,2024-06-21,合同会社ハヤカワ,,合同会社,東京都,府中市,朝日町１丁目２３番地の４,,13,206,1830003,,,,,,,2024-06-21,1,,,,,ハヤカワ,0
1337,6012403006633,新規,0,2024-06-21,2024-06-21,合同会社ＡＫＩ,,合同会社,東京都,三鷹市,北野１丁目２番３０号,,13,204,1810003,,,,,,,2024-06-21,1,,,,,アキ,0
1352,6021001082549,新規,0,2024-06-21,2024-06-21,株式会社Ｙ’Ｓホールディングス,,株式会社,神奈川県,大和市,深見西６丁目３番２８号,,14,213,2420018,,,,,,,2024-06-21,1,,,,,,0
1353,6021001082557,新規,0,2024-06-21,2024-06-21,株式会社まると,,株式会社,神奈川県,平塚市,田村５丁目２２番２１－２０１号,,14,203,2540013,,,,,,,2024-06-21,1,,,,,マルト,0
1355,6021003014665,新規,0,2024-06-21,2024-06-21,合同会社ａ＆ｋ,,合同会社,神奈川県,厚木市,長谷１０２９番地７,,14,212,2430036,,,,,,,2024-06-21,1,,,,,エーアンドケー,0
1369,6040003025258,新規,0,2024-06-21,2024-06-21,Ｐｏｌａｒｉｓ合同会社,,合同会社,千葉県,千葉市若葉区,西都賀１丁目２－３１,,12,104,2640026,,,,,,,2024-06-21,1,,,,,ポラリス,0
1372,6050001054902,新規,0,2024-06-21,2024-06-21,株式会社タッチアップ,,株式会社,茨城県,結城郡八千代町,大字菅谷８３４番地１０,,08,521,3003572,,,,,,,2024-06-21,1,,,,,タッチアップ,0
1373,6050001054976,新規,0,2024-06-21,2024-06-21,株式会社英一,,株式会社,茨城県,ひたちなか市,勝田本町１１番１８号,,08,221,3120026,,,,,,,2024-06-21,1,,,,,ヒデイチ,0
1378,6070003005471,新規,0,2024-06-21,2024-06-21,合同会社サウナ薪,,合同会社,群馬県,みどり市,大間々町大間々２４１３番地１,,10,212,3760101,,,,,,,2024-06-21,1,,,,,サウナマキ,0
1386,6090003002590,新規,0,2024-06-21,2024-06-21,合同会社山樽屋,,合同会社,山梨県,北都留郡丹波山村,２０７９番地,,19,443,4090300,,,,,,,2024-06-21,1,,,,,サンダルヤ,0
1401,6120001266069,新規,0,2024-06-21,2024-06-21,メイコウ株式会社,,株式会社,大阪府,大阪市中央区,日本橋２丁目８番１５－７０６号,,27,128,5420073,,,,,,,2024-06-21,1,,,,,メイコウ,0
1402,6120001266077,新規,0,2024-06-21,2024-06-21,昭和ホールディングス株式会社,,株式会社,大阪府,大阪市中央区,北浜東１番２２号,,27,128,5400031,,,,,,,2024-06-21,1,,,,,ショウワホールディングス,0
1403,6120001266085,新規,0,2024-06-21,2024-06-21,株式会社河野設備工業,,株式会社,大阪府,寝屋川市,成田南町１２番１１号,,27,215,5720003,,,,,,,2024-06-21,1,,,,,カワノセツビコウギョウ,0
1404,6120001266102,新規,0,2024-06-21,2024-06-21,株式会社白川商事,,株式会社,大阪府,大阪市北区,中崎３丁目２－５,,27,127,5300016,,,,,,,2024-06-21,1,,,,,シラカワショウジ,0
1425,6140001134843,新規,0,2024-06-21,2024-06-21,株式会社菊正工業,,株式会社,兵庫県,西宮市,石在町３番２２号,,28,204,6620928,,,,,,,2024-06-21,1,,,,,キッセイコウギョウ,0
1429,6140003020736,新規,0,2024-06-21,2024-06-21,合同会社オキシン,,合同会社,兵庫県,神戸市須磨区,竜が台５丁目１２番地の１１,,28,107,6540141,,,,,,,2024-06-21,1,,,,,オキシン,0
1431,6140005027119,新規,0,2024-06-21,2024-06-21,一般社団法人聖心会,,その他の設立登記法人,兵庫県,芦屋市,公光町９番６号新芦屋ビル１階,00135252,28,206,6590065,,,,,,,2024-06-21,1,,,,,セイシンカイ,0
1432,6150001027360,新規,0,2024-06-21,2024-06-21,日商商事株式会社,,株式会社,奈良県,奈良市,上深川町７５７番地の１,,29,201,6320102,,,,,,,2024-06-21,1,,,,,ニッショウショウジ,0
1438,6180001162080,新規,0,2024-06-21,2024-06-21,株式会社ＣＲＳ,,株式会社,愛知県,東海市,名和町石塚４８番地１,,23,222,4760002,,,,,,,2024-06-21,1,,,,,シーアールエス,0
1441,6190001031433,新規,0,2024-06-21,2024-06-21,株式会社ＮＴ商事,,株式会社,三重県,志摩市,阿児町鵜方５０７１番地,,24,215,5170501,,,,,,,2024-06-21,1,,,,,エヌティショウジ,0
1445,6200001042619,新規,0,2024-06-21,2024-06-21,株式会社Ｌｅａｆ,,株式会社,岐阜県,本巣市,小柿１１８１番地（パーシモンＫＡ棟１０１号）,,21,218,5010463,,,,,,,2024-06-21,1,,,,,リーフ,0
1449,6240001063413,新規,0,2024-06-21,2024-06-21,株式会社てらてく,,株式会社,広島県,広島市東区,戸坂惣田１丁目１８番８号,,34,102,7320001,,,,,,,2024-06-21,1,,,,,テラテク,0
1453,6290001106191,新規,0,2024-06-21,2024-06-21,株式会社Ｏ‐Ｏ,,株式会社,福岡県,糸島市,伊都の杜２丁目１０番７号,,40,230,8191130,,,,,,,2024-06-21,1,,,,,オーオー,0
1454,6290001106225,新規,0,2024-06-21,2024-06-21,株式会社ＲＥＡＬＴＹ　ＢＡＮＫ,,株式会社,福岡県,福岡市博多区,博多駅東２丁目８番２５号,,40,132,8120013,,,,,,,2024-06-21,1,,,,,リアルティバンク,0
1456,6290003015473,新規,0,2024-06-21,2024-06-21,合同会社ワイズ,,合同会社,福岡県,福岡市中央区,六本松３丁目５－３５－５０２,,40,133,8100044,,,,,,,2024-06-21,1,,,,,ワイズ,0
1462,6320001020546,新規,0,2024-06-21,2024-06-21,Ｂｅｄｅｌｉｇｈｔ株式会社,,株式会社,大分県,別府市,駅前本町９番７号コモールカフェ別府１６８,,44,202,8740934,,,,,,,2024-06-21,1,,,,,ビーディライト,0
1463,6320001020554,新規,0,2024-06-21,2024-06-21,株式会社ＭＡＤＯＫＡ,,株式会社,大分県,大分市,大道町２丁目３番１２号４Ｆ,,44,201,8700822,,,,,,,2024-06-21,1,,,,,マドカ,0
1464,6320003004398,新規,0,2024-06-21,2024-06-21,合同会社Ｊｏｙｎ,,合同会社,大分県,大分市,大字鴛野７８０番地の１,,44,201,8701121,,,,,,,2024-06-21,1,,,,,ジョイン,0
1469,6340003004512,新規,0,2024-06-21,2024-06-21,合同会社ＳＥＮＳＡＴＩＯＮ,,合同会社,鹿児島県,鹿児島市,千日町３番７号,,46,201,8920843,,,,,,,2024-06-21,1,,,,,センセーション,0
1470,6340005009749,新規,0,2024-06-21,2024-06-21,一般社団法人クロスロード鹿児島中央,,その他の設立登記法人,鹿児島県,鹿児島市,草牟田１丁目８番２２号,,46,201,8900014,,,,,,,2024-06-21,1,,,,,クロスロードカゴシマチュウオウ,0
1473,6360001033841,新規,0,2024-06-21,2024-06-21,株式会社ＴＳＵＨＡ,,株式会社,沖縄県,名護市,字為又２３３番地,,47,209,9050005,,,,,,,2024-06-21,1,,,,,ツハ,0
1474,6360003014088,新規,0,2024-06-21,2024-06-21,合同会社ワイズリンク,,合同会社,沖縄県,浦添市,宮城２丁目１５番５号パティオハウス３０２号,,47,208,9012126,,,,,,,2024-06-21,1,,,,,ワイズリンク,0
1483,6370001051421,新規,0,2024-06-21,2024-06-21,株式会社アルゴバレ,,株式会社,宮城県,仙台市青葉区,旭ケ丘１丁目２番３号,,04,101,9810904,,,,,,,2024-06-21,1,,,,,アルゴバレ,0
1484,6370001051446,新規,0,2024-06-21,2024-06-21,ｓａｍｕｒａｉ株式会社,,株式会社,宮城県,仙台市宮城野区,鶴ケ谷字北畑１７番１号,,04,102,9830824,,,,,,,2024-06-21,1,,,,,サムライ,0
1485,6370001051454,新規,0,2024-06-21,2024-06-21,ライズ株式会社,,株式会社,宮城県,仙台市青葉区,中江１丁目１３番１４号,,04,101,9800001,,,,,,,2024-06-21,1,,,,,ライズ,0
1515,6700150126139,新規,0,2024-06-21,2024-06-21,ＧＡＹＡ　ＭＯＴＯＲＳ,,外国会社等,千葉県,八街市,八街は１番地１４９オフィス３,,12,230,2891107,スリランカ民主社会主義共和国、ディガナ、マダワラロード、Ｎｏ．１０,,,,,,2024-06-21,1,,,,,ガヤモータース,0
1524,7010001245867,新規,0,2024-06-21,2024-06-21,株式会社ＴＯＭＩＹＡＭＡ,,株式会社,東京都,中央区,日本橋小舟町１１－１０ＫＳビル３階,,13,102,1030024,,,,,,,2024-06-21,1,,,,,トミヤマ,0
1525,7010001245900,新規,0,2024-06-21,2024-06-21,株式会社ファミリーエステート,,株式会社,東京都,千代田区,神田淡路町２丁目１０１－３７１０,,13,101,1010063,,,,,,,2024-06-21,1,,,,,ファミリーエステート,0
1526,7010001245958,新規,0,2024-06-21,2024-06-21,Ａｒｃｈｅｒ　Ｐａｒｔｎｅｒｓ株式会社,,株式会社,東京都,千代田区,麹町２丁目１０－３,,13,101,1020083,,,,,,,2024-06-21,1,,,,,アーチャーパートナーズ,0
1527,7010001245990,新規,0,2024-06-21,2024-06-21,株式会社朝日国際,,株式会社,東京都,文京区,１－６－４,,13,105,1120000,,,,,,,2024-06-21,1,,,,,アサヒコクサイ,0
1531,7010003044053,新規,0,2024-06-21,2024-06-21,向陽合同会社,,合同会社,東京都,千代田区,鍛治町二丁目４番５号,,13,101,1000000,,,,,,,2024-06-21,1,,,,,コウヨウ,0
1533,7010101016210,新規,0,2024-06-21,2024-06-21,株式会社スズキテック,,株式会社,東京都,八王子市,中野上町１丁目９番３号,,13,201,1920041,,,,,,,2024-06-21,1,,,,,スズキテック,0
1541,7010401183246,新規,0,2024-06-21,2024-06-21,株式会社５１０アセットマネジメント,,株式会社,東京都,港区,高輪２丁目１４番２３－２０１号,,13,103,1080074,,,,,,,2024-06-21,1,,,,,ゴーイチゼロアセットマネジメント,0
1544,7010403032863,新規,0,2024-06-21,2024-06-21,合同会社江坂ＤＣプロジェクト,,合同会社,東京都,港区,六本木５丁目１３番１２号,,13,103,1060032,,,,,,,2024-06-21,1,,,,,エサカディーシープロジェクト,0
1546,7010405023365,新規,0,2024-06-21,2024-06-21,Ｏｎｔａｒｉｏ一般社団法人,,その他の設立登記法人,東京都,港区,西新橋１丁目１番１号ＥＰコンサルティングサービス内,,13,103,1050003,,,,,,,2024-06-21,1,,,,,オンタリオ,0
1550,7010501052482,新規,0,2024-06-21,2024-06-21,株式会社エクセル,,株式会社,東京都,台東区,浅草６丁目１４番７－１１０１号プレサンスブルーム浅草,,13,106,1110032,,,,,,,2024-06-21,1,,,,,エクセル,0
1554,7010601065426,新規,0,2024-06-21,2024-06-21,株式会社ｍｉｋａｔａカンパニー,,株式会社,東京都,墨田区,錦糸１丁目２－１アルカセントラル１４階,,13,107,1300013,,,,,,,2024-06-21,1,,,,,ミカタカンパニー,0
1558,7010803004999,新規,0,2024-06-21,2024-06-21,合同会社うさぎ,,合同会社,東京都,大田区,西蒲田７丁目６－３－６０１,,13,111,1440051,,,,,,,2024-06-21,1,,,,,ウサギ,0
1559,7010901055507,新規,0,2024-06-21,2024-06-21,株式会社ケーエムエー,,株式会社,東京都,世田谷区,喜多見９丁目１０番１６号,,13,112,1570067,,,,,,,2024-06-21,1,,,,,ケーエムエー,0
1560,7010903009171,新規,0,2024-06-21,2024-06-21,Ｚ３合同会社,,合同会社,東京都,世田谷区,上野毛４丁目３３番１９号,,13,112,1580093,,,,,,,2024-06-21,1,,,,,ゼットスリー,0
1565,7011001162755,新規,0,2024-06-21,2024-06-21,株式会社ケーポータル,,株式会社,東京都,目黒区,自由が丘２丁目１６－１２ＲＪ３,,13,110,1520035,,,,,,,2024-06-21,1,,,,,ケーポータル,0
1566,7011001162912,新規,0,2024-06-21,2024-06-21,ＪＬＵＸ株式会社,,株式会社,東京都,渋谷区,道玄坂１丁目１０番８号渋谷道玄坂東急ビル２Ｆ―Ｃ,,13,113,1500043,,,,,,,2024-06-21,1,,,,,ジェーリュクス,0
1567,7011003019400,新規,0,2024-06-21,2024-06-21,Ｉｎａｂｉｔ合同会社,,合同会社,東京都,渋谷区,神宮前６丁目２３番４号桑野ビル２階,,13,113,1500001,,,,,,,2024-06-21,1,,,,,イナビット,0
1568,7011003019417,新規,0,2024-06-21,2024-06-21,ＷｅｓｔＦｌａｔ合同会社,,合同会社,東京都,渋谷区,道玄坂１丁目１０番８号渋谷道玄坂東急ビル２Ｆ－Ｃ,,13,113,1500043,,,,,,,2024-06-21,1,,,,,ウエストフラット,0
1569,7011003019425,新規,0,2024-06-21,2024-06-21,合同会社ＩＵ,,合同会社,東京都,渋谷区,道玄坂１丁目１０番８号渋谷道玄坂東急ビル２Ｆ－Ｃ,,13,113,1500043,,,,,,,2024-06-21,1,,,,,アイユー,0
1570,7011003019433,新規,0,2024-06-21,2024-06-21,合同会社Ａｂｙｓｓ,,合同会社,東京都,渋谷区,渋谷２丁目１９－１５宮益坂ビルディング６０９,,13,113,1500002,,,,,,,2024-06-21,1,,,,,アビス,0
1575,7011101107783,新規,0,2024-06-21,2024-06-21,ジャストウェイ株式会社,,株式会社,東京都,新宿区,西新宿３丁目３番１３号西新宿水間ビル６階,,13,104,1600023,,,,,,,2024-06-21,1,,,,,ジャストウェイ,0
1576,7011101107791,新規,0,2024-06-21,2024-06-21,株式会社ＫＤ,,株式会社,東京都,新宿区,西新宿１丁目２６番２号新宿野村ビル３２階,,13,104,1600023,,,,,,,2024-06-21,1,,,,,ケーディー,0
1577,7011103014581,新規,0,2024-06-21,2024-06-21,合同会社ａｒｇ,,合同会社,東京都,新宿区,下落合３丁目１２番２３－４０１号,,13,104,1610033,,,,,,,2024-06-21,1,,,,,オーグ,0
1581,7011701027407,新規,0,2024-06-21,2024-06-21,薩尼東京株式会社,,株式会社,東京都,江戸川区,江戸川６丁目４０番１４－２２８号,,13,123,1340013,,,,,,,2024-06-21,1,,,,,サニートウキョウ,0
1584,7011703003868,新規,0,2024-06-21,2024-06-21,合名会社スリーカオス,,合名会社,東京都,江戸川区,西葛西５丁目６番２号,,13,123,1340088,,,,,,,2024-06-21,1,,,,,スリーカオス,0
1586,7011803006291,新規,0,2024-06-21,2024-06-21,ＢＨＡＮＤＡＲＩ合同会社,,合同会社,東京都,葛飾区,東新小岩５丁目１０番６号ドリームハイツ１０１,,13,122,1240023,,,,,,,2024-06-21,1,,,,,バンダリ,0
1593,7021003014664,新規,0,2024-06-21,2024-06-21,合同会社ブレイヴ,,合同会社,神奈川県,相模原市南区,御園４丁目１４－１８－７,,14,153,2520317,,,,,,,2024-06-21,1,,,,,ブレイヴ,0
1604,7040001134134,新規,0,2024-06-21,2024-06-21,株式会社ＡＰＥＸＯＮ,,株式会社,千葉県,柏市,柏２７９番地２３５,,12,217,2770005,,,,,,,2024-06-21,1,,,,,エーペクソン,0
1605,7040001134150,新規,0,2024-06-21,2024-06-21,株式会社エクステリア今井,,株式会社,千葉県,船橋市,芝山５丁目４４番２３号,,12,204,2740816,,,,,,,2024-06-21,1,,,,,エクステリアイマイ,0
1606,7040001134159,新規,0,2024-06-21,2024-06-21,株式会社さくら舎,,株式会社,千葉県,松戸市,六高台７丁目１３０番地の５,,12,207,2702203,,,,,,,2024-06-21,1,,,,,サクラシャ,0
1607,7040003025265,新規,0,2024-06-21,2024-06-21,合同会社中間省略,,合同会社,千葉県,船橋市,北本町２丁目３８番１－１１０号,,12,204,2730864,,,,,,,2024-06-21,1,,,,,チュウカンショウリャク,0
1609,7050001054901,新規,0,2024-06-21,2024-06-21,鈴木造園土木株式会社,,株式会社,茨城県,筑西市,上平塚８０８番地,,08,227,3080067,,,,,,,2024-06-21,1,,,,,スズキゾウエンドボク,0
1617,7110001038501,新規,0,2024-06-21,2024-06-21,スペースサービス株式会社,,株式会社,新潟県,長岡市,与板町与板乙５８７９番地１１,,15,202,9402402,,,,,,,2024-06-21,1,,,,,スペースサービス,0
1618,7110005017105,新規,0,2024-06-21,2024-06-21,佐渡市複業協同組合ＴＯＫＩ　ＣＯＮＮＥＣＴ,,その他の設立登記法人,新潟県,佐渡市,両津湊１４５番地,,15,224,9520014,,,,,,,2024-06-21,1,,,,,サドシフクギョウトキコネクト,0
1626,7120001265994,新規,0,2024-06-21,2024-06-21,株式会社佰田,,株式会社,大阪府,大阪市浪速区,桜川２丁目１２番１７,,27,111,5560022,,,,,,,2024-06-21,1,,,,,ヒャクタ,0
1627,7120001266002,新規,0,2024-06-21,2024-06-21,株式会社ベガ,,株式会社,大阪府,大阪市中央区,東心斎橋１丁目１６番９号第８ＫＳビル,,27,128,5420083,,,,,,,2024-06-21,1,,,,,ベガ,0
1628,7120001266019,新規,0,2024-06-21,2024-06-21,Ｐａｋ　Ａ株式会社,,株式会社,大阪府,大阪市浪速区,元町１丁目１０番６号８階,,27,111,5560016,,,,,,,2024-06-21,1,,,,,パクア,0
1629,7120001266051,新規,0,2024-06-21,2024-06-21,イッシン・インターナショナル株式会社,,株式会社,大阪府,門真市,小路町１５－７トキワパレスＩＩ３Ｂ,00135253,27,223,5710058,,,,,,,2024-06-21,1,,,,,イッシンインターナショナル,0
1630,7120001266101,新規,0,2024-06-21,2024-06-21,株式会社開心,,株式会社,大阪府,大阪市城東区,成育１丁目８－２３－２０５,,27,118,5360007,,,,,,,2024-06-21,1,,,,,カイシン,0
1632,7120003026882,新規,0,2024-06-21,2024-06-21,合同会社オアシス,,合同会社,大阪府,大阪市浪速区,恵美須東１丁目１９番１号,,27,111,5560002,,,,,,,2024-06-21,1,,,,,オアシス,0
1633,7120003026890,新規,0,2024-06-21,2024-06-21,合同会社堂島,,合同会社,大阪府,大阪市北区,角田町９－３６,,27,127,5300017,,,,,,,2024-06-21,1,,,,,ドウジマ,0
1635,7120101069817,新規,0,2024-06-21,2024-06-21,株式会社秋桜,,株式会社,大阪府,堺市南区,豊田９８２番地１,,27,145,5900106,,,,,,,2024-06-21,1,,,,,コスモス,0
1638,7122003002921,新規,0,2024-06-21,2024-06-21,ＹＴ合同会社,,合同会社,大阪府,東大阪市,上小阪４丁目１１－２林ビル３０３号,,27,227,5770806,,,,,,,2024-06-21,1,,,,,ワイティ,0
1642,7130003009655,新規,0,2024-06-21,2024-06-21,合同会社ＦＩＫＡ,,合同会社,京都府,長岡京市,奥海印寺太鼓山７番地２サンライズ３０５,,26,209,6170853,,,,,,,2024-06-21,1,,,,,,0
1645,7140001134801,新規,0,2024-06-21,2024-06-21,株式会社枦段製麺所,,株式会社,兵庫県,宍粟市,波賀町上野９９２番地１,,28,227,6714221,,,,,,,2024-06-21,1,,,,,ハシダンセイメンジョ,0
1646,7140001134818,新規,0,2024-06-21,2024-06-21,加古川レーク株式会社,,株式会社,兵庫県,加古川市,神野町石守７０番２,,28,210,6750005,,,,,,,2024-06-21,1,,,,,カコガワレーク,0
1663,7180001162088,新規,0,2024-06-21,2024-06-21,株式会社ＬＥＭＳ,,株式会社,愛知県,あま市,新居屋字小舟戸１１７番地,,23,237,4901105,,,,,,,2024-06-21,1,,,,,レムス,0
1668,7190001031432,新規,0,2024-06-21,2024-06-21,株式会社ＣＡＮＤＹ　ＴＲＡＮ,,株式会社,三重県,鈴鹿市,若松西５丁目８‐１５‐１０３号,,24,207,5100222,,,,,,,2024-06-21,1,,,,,キャンディーチャン,0
1671,7200003006397,新規,0,2024-06-21,2024-06-21,ＡＦＲＩＰＡＮ合同会社,,合同会社,岐阜県,岐阜市,小西郷１丁目６７番地５,,21,201,5011176,,,,,,,2024-06-21,1,,,,,アフリパン,0
1678,7290001106216,新規,0,2024-06-21,2024-06-21,株式会社ＦＴＷ,,株式会社,福岡県,福岡市博多区,博多駅南４丁目３番１－２０６号ＭＡＳＴ博多駅南,,40,132,8120016,,,,,,,2024-06-21,1,,,,,エフティーダブリュー,0
1679,7290003015464,新規,0,2024-06-21,2024-06-21,合同会社サランセンター福岡,,合同会社,福岡県,福岡市中央区,赤坂３丁目８番２６号赤坂エクセル３０６号,,40,133,8100042,,,,,,,2024-06-21,1,,,,,サランセンターフクオカ,0
1684,7320001020553,新規,0,2024-06-21,2024-06-21,株式会社小島建設,,株式会社,大分県,大分市,古国府５丁目５番２４号,,44,201,8700844,,,,,,,2024-06-21,1,,,,,コジマケンセツ,0
1693,7360003014087,新規,0,2024-06-21,2024-06-21,合同会社ＭＫ知花,,合同会社,沖縄県,中頭郡読谷村,字高志保４３０番地３,,47,324,9040323,,,,,,,2024-06-21,1,,,,,エムケーチバナ,0
1694,7370001051445,新規,0,2024-06-21,2024-06-21,Ｋ‐ｔｅｃｈ株式会社,,株式会社,宮城県,仙台市青葉区,本町１丁目５番地２８号カーニプレイス仙台駅前通６０３号,,04,101,9800014,,,,,,,2024-06-21,1,,,,,ケイテック,0
1697,7380001034630,新規,0,2024-06-21,2024-06-21,株式会社ＡＲＣ,,株式会社,福島県,南会津郡南会津町,田島字北下原甲２２１６番地,,07,368,9670004,,,,,,,2024-06-21,1,,,,,アルク,0
1715,7470003002667,新規,0,2024-06-21,2024-06-21,合同会社ルネ・サポート,,合同会社,香川県,高松市,香西本町４４番地１,,37,201,7618012,,,,,,,2024-06-21,1,,,,,ルネサポート,0
1721,7500001025708,新規,0,2024-06-21,2024-06-21,株式会社真,,株式会社,愛媛県,松山市,山越１丁目１３番２０号,,38,201,7918013,,,,,,,2024-06-21,1,,,,,シン,0
1726,7700150126138,新規,0,2024-06-21,2024-06-21,ＺＩＮＮＡ　ＡＵＴＯ,,外国会社等,千葉県,八街市,八街は１番地１４９オフィス２,,12,230,2891107,スリランカ民主社会主義共和国、カトゥガストタ、キャンディロード、Ｎｏ．２３,,,,,,2024-06-21,1,,,,,ジンナオート,0
1731,8010001245767,新規,0,2024-06-21,2024-06-21,海浜地所株式会社,,株式会社,東京都,千代田区,有楽町２丁目１０番１号東京交通会館３階「ＯＦＦＩＣＥ丸の内」内,,13,101,1000006,,,,,,,2024-06-21,1,,,,,カイヒンジショ,0
1732,8010001245916,新規,0,2024-06-21,2024-06-21,本来株式会社,,株式会社,東京都,文京区,根津２丁目３７番８－２０５号,,13,105,1130031,,,,,,,2024-06-21,1,,,,,ホンライ,0
1733,8010001245957,新規,0,2024-06-21,2024-06-21,株式会社Ｉ＆Ｋ　Ｐａｒｔｎｅｒｓ,,株式会社,東京都,千代田区,鍛冶町２丁目７番４号ヨウコービル５Ｆ,,13,101,1010044,,,,,,,2024-06-21,1,,,,,アイアンドケーパートナーズ,0
1734,8010001245981,新規,0,2024-06-21,2024-06-21,ＶＥＲＹ　ＲＥＡＬ　ＡＩ　ＪＡＰＡＮ株式会社,,株式会社,東京都,千代田区,一番町４番２２－５０２号,,13,101,1020082,,,,,,,2024-06-21,1,,,,,ベリーリアルエーアイジャパン,0
1735,8010001246022,新規,0,2024-06-21,2024-06-21,株式会社プラネットサード,,株式会社,東京都,中央区,日本橋室町１丁目１１番１２号日本橋水野ビル７階,,13,102,1030022,,,,,,,2024-06-21,1,,,,,プラネットサード,0
1737,8010003044119,新規,0,2024-06-21,2024-06-21,ＤＢＦ３合同会社,,合同会社,東京都,千代田区,飯田橋４丁目７番１号結和税理士法人内,,13,101,1020072,,,,,,,2024-06-21,1,,,,,ディビーエフスリー,0
1748,8010401183328,新規,0,2024-06-21,2024-06-21,ＡＩＱＵＩＳ株式会社,,株式会社,東京都,港区,南青山３丁目１番３６号青山丸竹ビル６Ｆ,,13,103,1070062,,,,,,,2024-06-21,1,,,,,アイキス,0
1752,8010405023364,新規,0,2024-06-21,2024-06-21,Ｈｕｒｏｎ一般社団法人,,その他の設立登記法人,東京都,港区,西新橋１丁目１番１号ＥＰコンサルティングサービス内,,13,103,1050003,,,,,,,2024-06-21,1,,,,,ヒューロン,0
1763,8010901055497,新規,0,2024-06-21,2024-06-21,株式会社ＺｉＯＮ,,株式会社,東京都,世田谷区,太子堂１丁目３番３６号,,13,112,1540004,,,,,,,2024-06-21,1,,,,,シオン,0
1764,8010903009162,新規,0,2024-06-21,2024-06-21,ＡＭＡＭＩ合同会社,,合同会社,東京都,世田谷区,太子堂４丁目２９―２アメニティー三軒茶屋４０３,,13,112,1540004,,,,,,,2024-06-21,1,,,,,アマミ,0
1765,8010903009170,新規,0,2024-06-21,2024-06-21,合同会社ＫＹＯ　ＳＭＩＬＥ,,合同会社,東京都,世田谷区,奥沢１丁目４９番８号,,13,112,1580083,,,,,,,2024-06-21,1,,,,,キョウスマイル,0
1767,8011003019399,新規,0,2024-06-21,2024-06-21,合同会社ＭＯＡ,,合同会社,東京都,渋谷区,渋谷２丁目１９－１５宮益坂ビルディング６０９,,13,113,1500002,,,,,,,2024-06-21,1,,,,,モア,0
1768,8011101107790,新規,0,2024-06-21,2024-06-21,ＪＣＥヘルステック株式会社,,株式会社,東京都,新宿区,西新宿３丁目３番１３号,,13,104,1600023,,,,,,,2024-06-21,1,,,,,ジェーシーイーヘルステック,0
1769,8011103014572,新規,0,2024-06-21,2024-06-21,ＳＯＬ合同会社,,合同会社,東京都,新宿区,西新宿３丁目３番１３号西新宿水間ビル６階,,13,104,1600023,,,,,,,2024-06-21,1,,,,,ソル,0
1770,8011303005215,新規,0,2024-06-21,2024-06-21,合同会社Ｂａｕｍ,,合同会社,東京都,杉並区,久我山２丁目２４番１１号,,13,115,1680082,,,,,,,2024-06-21,1,,,,,,0
1772,8011401026204,新規,0,2024-06-21,2024-06-21,嘉年アーバン株式会社,,株式会社,東京都,板橋区,大山町１４番１０メゾン田中２０１号室,,13,119,1730023,,,,,,,2024-06-21,1,,,,,カネンアーバン,0
1776,8011501030840,新規,0,2024-06-21,2024-06-21,一念株式会社,,株式会社,東京都,北区,堀船３丁目２４－４梶原銀座ビル１０５号室,,13,117,1140004,,,,,,,2024-06-21,1,,,,,イチネン,0
1786,8012803003435,新規,0,2024-06-21,2024-06-21,合同会社ａｉｍｅｒ　ｍｏｒｅ,,合同会社,東京都,国立市,北１丁目５番地１,,13,215,1860001,,,,,,,2024-06-21,1,,,,,アイミーモア,0
1796,8021001082547,新規,0,2024-06-21,2024-06-21,株式会社きぬばり,,株式会社,神奈川県,座間市,栗原１３５１番地の４,,14,216,2520013,,,,,,,2024-06-21,1,,,,,キヌバリ,0
1797,8021001082563,新規,0,2024-06-21,2024-06-21,株式会社生粋,,株式会社,神奈川県,相模原市南区,上鶴間４丁目２７番３０号,,14,153,2520302,,,,,,,2024-06-21,1,,,,,キッスイ,0
1805,8040001134141,新規,0,2024-06-21,2024-06-21,株式会社明喜耐震,,株式会社,千葉県,船橋市,松が丘５丁目５番２号,,12,204,2740064,,,,,,,2024-06-21,1,,,,,メイキタイシン,0
1811,8040003025181,新規,0,2024-06-21,2024-06-21,合同会社ＳＰＲＥＡＤ,,合同会社,千葉県,柏市,花野井６２７番地６７北柏シティーコーポ１０１号,,12,217,2770812,,,,,,,2024-06-21,1,,,,,スプレイド,0
1812,8040003025248,新規,0,2024-06-21,2024-06-21,合同会社ＤＡＹＳ　ＩＮＴＥＲＮＡＴＩＯＮＡＬ,,合同会社,千葉県,千葉市稲毛区,長沼原町９４２番地２９４,,12,103,2630001,,,,,,,2024-06-21,1,,,,,デイズインターナショナル,0
1813,8040003025264,新規,0,2024-06-21,2024-06-21,ＴＯＫＹＯ　ＥＸＰＯＲＴＳ合同会社,,合同会社,千葉県,八街市,朝日７１番地７,,12,230,2891101,,,,,,,2024-06-21,1,,,,,トウキョウエキスポーツ,0
1814,8040005022425,新規,0,2024-06-21,2024-06-21,一般社団法人千葉大学腎臓内科同門会,,その他の設立登記法人,千葉県,千葉市中央区,亥鼻１丁目８番１号千葉大学大学院医学研究院腎臓内科学,,12,101,2600856,,,,,,,2024-06-21,1,,,,,チバダイガクジンゾウナイカドウモンカイ,0
1819,8060003005124,新規,0,2024-06-21,2024-06-21,合同会社Ｅｎ．Ｔ,,合同会社,栃木県,宇都宮市,大通り５丁目１－１１,,09,201,3200811,,,,,,,2024-06-21,1,,,,,エント,0
1822,8070001041888,新規,0,2024-06-21,2024-06-21,株式会社ファインヴュー,,株式会社,群馬県,高崎市,藤塚町４９番地１ベルコート藤塚１０１,,10,202,3700875,,,,,,,2024-06-21,1,,,,,ファインヴュー,0
1829,8090001018777,新規,0,2024-06-21,2024-06-21,株式会社Ａ　Ｒ　ＣＯＲＰＯＲＡＴＩＯＮ,,株式会社,山梨県,富士吉田市,下吉田東２丁目２１番２３号,,19,202,4030008,,,,,,,2024-06-21,1,,,,,エーアールコーポレーション,0
1837,8120001265969,新規,0,2024-06-21,2024-06-21,ＴＨＫホールディングス株式会社,,株式会社,大阪府,枚方市,春日野２丁目１番８号,,27,210,5730131,,,,,,,2024-06-21,1,,,,,ティーエイチケーホールディングス,0
1838,8120001266059,新規,0,2024-06-21,2024-06-21,偉隆株式会社,,株式会社,大阪府,大阪市都島区,中野町４丁目３番６号Ｈ２Ｈ大阪桜之宮邸１Ｄ－１,,27,102,5340027,,,,,,,2024-06-21,1,,,,,イリュウ,0
1839,8120001266075,新規,0,2024-06-21,2024-06-21,吉徳株式会社,00135251,株式会社,大阪府,大阪市西区,九条南２丁目１６番６号,,27,106,5500025,,,,,,,2024-06-21,1,,,,,ヨシトク,0
1840,8120001266083,新規,0,2024-06-21,2024-06-21,株式会社Ｃａｒｉｎｏ,,株式会社,大阪府,大阪市中央区,船場中央３丁目３－９船場センタービル９号館,,27,128,5410055,,,,,,,2024-06-21,1,,,,,カリーノ,0
1841,8120001266100,新規,0,2024-06-21,2024-06-21,見熊映像株式会社,,株式会社,大阪府,大阪市西成区,天下茶屋１丁目８－１６シティプラザ花園３０２号室,,27,122,5570014,,,,,,,2024-06-21,1,,,,,ミクマエイゾウ,0
1842,8120001266109,新規,0,2024-06-21,2024-06-21,紫蔚文化株式会社,,株式会社,大阪府,大阪市城東区,関目５丁目１９番９号関目花博公館６１１Ｃ,,27,118,5360008,,,,,,,2024-06-21,1,,,,,シイブンカ,0
1847,8120003026881,新規,0,2024-06-21,2024-06-21,合同会社のみしろ,,合同会社,大阪府,大阪市都島区,東野田町４丁目１８番１２号,,27,102,5340024,,,,,,,2024-06-21,1,,,,,ノミシロ,0
1848,8120003026898,新規,0,2024-06-21,2024-06-21,合同会社ティンク,,合同会社,大阪府,大阪市住吉区,長居東３丁目１番１５－５０３号,,27,120,5580004,,,,,,,2024-06-21,1,,,,,ティンク,0
1856,8120901049348,新規,0,2024-06-21,2024-06-21,最上交通株式会社,,株式会社,大阪府,吹田市,川岸町７番２２号ＧＦ吹田マンション３Ｃ,,27,205,5640037,,,,,,,2024-06-21,1,,,,,サイジョウコウツウ,0
1857,8120901049356,新規,0,2024-06-21,2024-06-21,株式会社Ｋ３,,株式会社,大阪府,池田市,綾羽２丁目１番７－１０３号,,27,204,5630051,,,,,,,2024-06-21,1,,,,,ケースリー,0
1860,8130001077323,新規,0,2024-06-21,2024-06-21,ＭＩＤ株式会社,,株式会社,京都府,京都市下京区,七条通油小路東入大黒町２２７番地第２キョートビル４０２,,26,106,6008223,,,,,,,2024-06-21,1,,,,,エムアイディー,0
1864,8140001134809,新規,0,2024-06-21,2024-06-21,セイエス株式会社,,株式会社,兵庫県,神戸市垂水区,下畑町１０４５－１３,,28,108,6550861,,,,,,,2024-06-21,1,,,,,セイエス,0
1865,8140001134858,新規,0,2024-06-21,2024-06-21,株式会社クラッシーサービス,,株式会社,兵庫県,伊丹市,御願塚７丁目２番２号,,28,207,6640855,,,,,,,2024-06-21,1,,,,,クラッシーサービス,0
1866,8140001134874,新規,0,2024-06-21,2024-06-21,株式会社ゴンドウ,,株式会社,兵庫県,神戸市西区,伊川谷町前開９２３番地アバンダン前開１Ｆ,,28,111,6512108,,,,,,,2024-06-21,1,,,,,ゴンドウ,0
1867,8140001134890,新規,0,2024-06-21,2024-06-21,株式会社ＭＧＣ,,株式会社,兵庫県,伊丹市,柏木町１丁目２２,,28,207,6640863,,,,,,,2024-06-21,1,,,,,エムジーシー,0
1880,8180001162079,新規,0,2024-06-21,2024-06-21,株式会社Ｚｅｎ,,株式会社,愛知県,瀬戸市,坂上町３９番地,,23,204,4890977,,,,,,,2024-06-21,1,,,,,ゼン,0
1887,8180301038763,新規,0,2024-06-21,2024-06-21,株式会社ボーターズ,,株式会社,愛知県,豊橋市,忠興３丁目７番地１９,,23,201,4400004,,,,,,,2024-06-21,1,,,,,ボーターズ,0
1897,8200003006396,新規,0,2024-06-21,2024-06-21,合同会社紬,,合同会社,岐阜県,大垣市,大井３丁目５３番地１,,21,202,5030836,,,,,,,2024-06-21,1,,,,,ツムギ,0
1899,8210001019795,新規,0,2024-06-21,2024-06-21,株式会社かさぜん,,株式会社,福井県,福井市,西学園１丁目１００６番地,,18,201,9188064,,,,,,,2024-06-21,1,,,,,カサゼン,0
1916,8290001106264,新規,0,2024-06-21,2024-06-21,株式会社ＮＰＪ,,株式会社,福岡県,福岡市東区,香椎照葉５丁目１―１２―４５０４センターマークスタワー,,40,131,8130017,,,,,,,2024-06-21,1,,,,,エヌピージェー,0
1917,8320001020552,新規,0,2024-06-21,2024-06-21,株式会社オールアクセスクリーニングサービス,,株式会社,大分県,別府市,末広町６番６号翠翠ハウス１階,,44,202,8740938,,,,,,,2024-06-21,1,,,,,オールアクセスクリーニングサービス,0
1919,8340001026589,新規,0,2024-06-21,2024-06-21,株式会社鹿黒和牛川越,,株式会社,鹿児島県,伊佐市,大口木ノ氏１４４番地４６,,46,224,8952502,,,,,,,2024-06-21,1,,,,,カクワギュウカワゴエ,0
1923,8360001033848,新規,0,2024-06-21,2024-06-21,株式会社プロスペリテ,,株式会社,沖縄県,浦添市,西原６丁目１番５－３０５号Ｙシャルマン,,47,208,9012101,,,,,,,2024-06-21,1,,,,,プロスペリテ,0
1925,8360003014086,新規,0,2024-06-21,2024-06-21,合同会社なかまっくす,,合同会社,沖縄県,沖縄市,住吉１丁目２２番２３号,,47,211,9040003,,,,,,,2024-06-21,1,,,,,ナカマックス,0
1926,8360005007055,新規,0,2024-06-21,2024-06-21,特定非営利活動法人ＨＯＯＫ,,その他の設立登記法人,沖縄県,島尻郡南風原町,字照屋２７７番地９Ａｓｕ・Ｔｉ－ＤＡ１０５,,47,350,9011116,,,,,,,2024-06-21,1,,,,,フック,0
1928,8370001051452,新規,0,2024-06-21,2024-06-21,株式会社錦ファーム,,株式会社,宮城県,仙台市青葉区,錦ケ丘１丁目３番地１,,04,101,9893123,,,,,,,2024-06-21,1,,,,,ニシキファーム,0
1938,8380003005793,新規,0,2024-06-21,2024-06-21,合同会社クレイソフト,,合同会社,福島県,福島市,置賜町８番２７号,,07,201,9608034,,,,,,,2024-06-21,1,,,,,クレイソフト,0
1942,8400001016682,新規,0,2024-06-21,2024-06-21,株式会社ヘルシーピープル,,株式会社,岩手県,盛岡市,門１丁目１８番１７号,,03,201,0200823,,,,,,,2024-06-21,1,,,,,ヘルシーピープル,0
1952,8450003002503,新規,0,2024-06-21,2024-06-21,Ａｄｖｅｎｔｕｒｅ合同会社,,合同会社,北海道,富良野市,北の峰町２８番１３号,,01,229,0760034,,,,,,,2024-06-21,1,,,,,アドベンチャー,0
1959,8700150126129,新規,0,2024-06-21,2024-06-21,原宿パークマンション建替組合,,その他,東京都,千代田区,神田錦町３丁目７番１号,,13,101,1010054,,,,,,,2024-06-21,1,,,,,ハラジユクパークマンシヨンタテカエクミアイ,0
1960,8700150126137,新規,0,2024-06-21,2024-06-21,藤沢市健康と文化の森地区土地区画整理組合,,その他,神奈川県,藤沢市,湘南台２丁目１７－８エスポワール湘南１０２,,14,205,2520804,,,,,,,2024-06-21,1,,,,,フジサワシケンコウトブンカノモリチクトチクカクセイリクミアイ,0
1967,9010001245782,新規,0,2024-06-21,2024-06-21,エヌビーエス株式会社,,株式会社,東京都,千代田区,大手町１丁目３番１号,,13,101,1000004,,,,,,,2024-06-21,1,,,,,エヌビーエス,0
1968,9010001245948,新規,0,2024-06-21,2024-06-21,ＴＨＥ　ＰＥＮ株式会社,,株式会社,東京都,千代田区,麹町５丁目３番地２３,,13,101,1020083,,,,,,,2024-06-21,1,,,,,ザペン,0
1969,9010001245972,新規,0,2024-06-21,2024-06-21,Ｄｅｘｔｅｒｉｔｙ‐ＳＣ　Ｊａｐａｎ株式会社,,株式会社,東京都,千代田区,大手町１丁目６番１号,,13,101,1000004,,,,,,,2024-06-21,1,,,,,デクステリティエスシージャパン,0
1970,9010001245989,新規,0,2024-06-21,2024-06-21,株式会社マネーライフ,,株式会社,東京都,千代田区,神田淡路町２丁目３番地淡路町トーセイビル４Ｆ,,13,101,1010063,,,,,,,2024-06-21,1,,,,,マネーライフ,0
1972,9010101016209,新規,0,2024-06-21,2024-06-21,株式会社清翔,,株式会社,東京都,八王子市,楢原町１０４５番地サンハイムモリック１０１号,,13,201,1930803,,,,,,,2024-06-21,1,,,,,セイショウ,0
1983,9010401182543,新規,0,2024-06-21,2024-06-21,株式会社ＭｉａＬｕｃｅ,,株式会社,東京都,港区,南青山２丁目２番１５号,,13,103,1070062,,,,,,,2024-06-21,1,,,,,ミラルーチェ,0
1984,9010401183277,新規,0,2024-06-21,2024-06-21,株式会社ＭＴＲ　Ａｇｅｎｃｙ,,株式会社,東京都,港区,西新橋３丁目１７番７号,,13,103,1050003,,,,,,,2024-06-21,1,,,,,エムティーアールエージェンシー,0
1986,9010403032853,新規,0,2024-06-21,2024-06-21,合同会社江とう,,合同会社,東京都,港区,白金台３丁目３番５号,,13,103,1080071,,,,,,,2024-06-21,1,,,,,エトウ,0
1988,9010405023363,新規,0,2024-06-21,2024-06-21,梅鉢一般社団法人,,その他の設立登記法人,東京都,港区,西新橋１丁目１番１号ＥＰコンサルティングサービス内,,13,103,1050003,,,,,,,2024-06-21,1,,,,,ウメバチ,0
1991,9010601065416,新規,0,2024-06-21,2024-06-21,株式会社Ｔｏｐ‐ｎｏｔｃｈ,,株式会社,東京都,江東区,大島２丁目５番１－８０１号,,13,108,1360072,,,,,,,2024-06-21,1,,,,,トップナッチ,0
1992,9010603010907,新規,0,2024-06-21,2024-06-21,合同会社たぬたぬ蓄電,,合同会社,東京都,江東区,永代２丁目３３番９－３０２号,,13,108,1350034,,,,,,,2024-06-21,1,,,,,タヌタヌチクデン,0
1996,9010803004997,新規,0,2024-06-21,2024-06-21,合同会社ＮＡＯＫＩ　ｃｏｒｐｏｒａｔｉｏｎ,,合同会社,東京都,大田区,下丸子１丁目５番９号ウェルスクエア下丸子１０３,,13,111,1460092,,,,,,,2024-06-21,1,,,,,ナオキコーポレーション,0
2001,9011003019398,新規,0,2024-06-21,2024-06-21,合同会社ＥＳＲ１,,合同会社,東京都,目黒区,上目黒１丁目２３番１号中目黒アリーナ４０５号室,,13,110,1530051,,,,,,,2024-06-21,1,,,,,イーエスアールワン,0
2002,9011003019415,新規,0,2024-06-21,2024-06-21,合同会社ＳＭＩＬＥ,,合同会社,東京都,渋谷区,道玄坂２丁目８－５ＤＭ渋谷ビル５Ｆ,,13,113,1500043,,,,,,,2024-06-21,1,,,,,スマイル,0
2003,9011005010561,新規,0,2024-06-21,2024-06-21,一般社団法人日本アガスティア協会,,その他の設立登記法人,東京都,渋谷区,富ヶ谷２丁目２６－１６－１０１,,13,113,1510063,,,,,,,2024-06-21,1,,,,,ニホンアガスティアキョウカイ,0
2005,9011101107781,新規,0,2024-06-21,2024-06-21,株式会社エーブリウス,,株式会社,東京都,新宿区,新宿１丁目１５－６オリエント新宿５０２,,13,104,1600022,,,,,,,2024-06-21,1,,,,,エーブリウス,0
2006,9011101107798,新規,0,2024-06-21,2024-06-21,株式会社Ｏｍｏｔｅｎａｓｈｉ,,株式会社,東京都,新宿区,西新宿５丁目８－１－３０１,,13,104,1600023,,,,,,,2024-06-21,1,,,,,オモテナシ,0
2007,9011105011063,新規,0,2024-06-21,2024-06-21,一般社団法人寺子屋ＷＥＢ,,その他の設立登記法人,東京都,新宿区,西新宿３丁目３番１３号西新宿水間ビル２Ｆ,,13,104,1600023,,,,,,,2024-06-21,1,,,,,テラコヤウェブ,0
2009,9011205002607,新規,0,2024-06-21,2024-06-21,一般社団法人映像実演者協議会,,その他の設立登記法人,東京都,中野区,弥生町１丁目３番２号ＣＵＲＶＥ６－７０３,,13,114,1640013,,,,,,,2024-06-21,1,,,,,エイゾウジツエンシャキョウギカイ,0
2016,9011501030831,新規,0,2024-06-21,2024-06-21,株式会社ＭａｘＣｏｄｅ,,株式会社,東京都,北区,王子５丁目１番２－１６１１号,,13,117,1140002,,,,,,,2024-06-21,1,,,,,マックスコード,0
2028,9013301052700,新規,0,2024-06-21,2024-06-21,三和株式会社,,株式会社,東京都,豊島区,東池袋５丁目１－３コート池袋７０１号室,,13,116,1700013,,,,,,,2024-06-21,1,,,,,ミワ,0
2029,9013301052709,新規,0,2024-06-21,2024-06-21,株式会社ＫＩＬＡ　ＳＴＡＲ,,株式会社,東京都,豊島区,南池袋２丁目４９番７号１階,,13,116,1710022,,,,,,,2024-06-21,1,,,,,キラスター,0
2040,9021001082546,新規,0,2024-06-21,2024-06-21,株式会社ゲインキューブ,,株式会社,神奈川県,相模原市緑区,橋本５丁目６番３号クレイン２０１,,14,151,2520143,,,,,,,2024-06-21,1,,,,,ゲインキューブ,0
2041,9021001082554,新規,0,2024-06-21,2024-06-21,株式会社ＯＮＥ’Ｓ‐ＨＥＡＲＴ　ｐｌｕｓ,,株式会社,神奈川県,平塚市,河内１１１番地の３サンハイツ河内２０１号,,14,203,2540903,,,,,,,2024-06-21,1,,,,,ワンズハートプラス,0
2044,9021003014662,新規,0,2024-06-21,2024-06-21,合同会社クオンツ,,合同会社,神奈川県,横須賀市,池田町３丁目２９番４号,,14,201,2390806,,,,,,,2024-06-21,1,,,,,クオンツ,0
2046,9021005013134,新規,0,2024-06-21,2024-06-21,一般社団法人望野文化促進会,,その他の設立登記法人,神奈川県,平塚市,めぐみが丘２丁目１５番１４号,,14,203,2591220,,,,,,,2024-06-21,1,,,,,モチノブンカソクシンカイ,0
2049,9030003024571,新規,0,2024-06-21,2024-06-21,合同会社マルス,,合同会社,埼玉県,富士見市,ふじみ野西２丁目１番地１アイムふじみ野タワー西館１８０２,,11,235,3540035,,,,,,,2024-06-21,1,,,,,マルス,0
2055,9040003025247,新規,0,2024-06-21,2024-06-21,みなみクリプト合同会社,,合同会社,千葉県,市川市,中国分２丁目２１番２３号,,12,203,2720835,,,,,,,2024-06-21,1,,,,,ミナミクリプト,0
2056,9040003025263,新規,0,2024-06-21,2024-06-21,合同会社ＭＴＲ,,合同会社,千葉県,君津市,外箕輪１丁目９番２３号,,12,225,2991173,,,,,,,2024-06-21,1,,,,,エムティーアール,0
2059,9050001054949,新規,0,2024-06-21,2024-06-21,株式会社ＣｏｍｍＵｎｉｔｙ　Ｒｅｓ,,株式会社,茨城県,つくば市,学園の森３丁目２１番地５２,,08,220,3050816,,,,,,,2024-06-21,1,,,,,コミュナイティレス,0
2069,9080101024832,新規,0,2024-06-21,2024-06-21,株式会社伸栄,,株式会社,静岡県,富士市,南町８番４３号,,22,210,4170026,,,,,,,2024-06-21,1,,,,,シンエイ,0
2070,9080401027270,新規,0,2024-06-21,2024-06-21,株式会社Ｌｉｎｏ,,株式会社,静岡県,浜松市中央区,上石田町２２８７エルドラード２０６号室,,22,138,4350001,,,,,,,2024-06-21,1,,,,,リノ,0
2074,9100003007610,新規,0,2024-06-21,2024-06-21,合同会社洋琴人,,合同会社,長野県,下伊那郡高森町,山吹６００４番地５,,20,403,3993101,,,,,,,2024-06-21,1,,,,,ピアノマン,0
2086,9120001266025,新規,0,2024-06-21,2024-06-21,株式会社Ｇ‐ＳＴＡＲ,,株式会社,大阪府,大阪市北区,中之島６丁目１－３８－１３１４号,,27,127,5300005,,,,,,,2024-06-21,1,,,,,ジースター,0
2087,9120001266058,新規,0,2024-06-21,2024-06-21,新志株式会社,,株式会社,大阪府,大阪市大正区,三軒家西３丁目４番１６号中山ビル４０７Ａ,,27,108,5510001,,,,,,,2024-06-21,1,,,,,シンシ,0
2088,9120001266090,新規,0,2024-06-21,2024-06-21,株式会社有工務店,,株式会社,大阪府,大阪市此花区,常吉２丁目１１番２９号,,27,104,5540052,,,,,,,2024-06-21,1,,,,,ユウコウムテン,0
2089,9120001266108,新規,0,2024-06-21,2024-06-21,量子動力株式会社,,株式会社,大阪府,大阪市東成区,深江北３丁目４番２１号エクラ深江橋６１５Ｂ,,27,115,5370001,,,,,,,2024-06-21,1,,,,,リョウシドウリ,0
2090,9120001266149,新規,0,2024-06-21,2024-06-21,株式会社未来和,,株式会社,大阪府,大阪市都島区,都島中通３丁目１７番１７号,,27,102,5340022,,,,,,,2024-06-21,1,,,,,ミライワ,0
2093,9120901049355,新規,0,2024-06-21,2024-06-21,株式会社ナカタ商会,,株式会社,大阪府,吹田市,南吹田４丁目２番１号ラフォーレ南吹田１Ｆ,,27,205,5640043,,,,,,,2024-06-21,1,,,,,ナカタショウカイ,0
2099,9130001077330,新規,0,2024-06-21,2024-06-21,株式会社アクア,,株式会社,京都府,京都市中京区,六角通油小路西入越後町２０３番地,,26,104,6048256,,,,,,,2024-06-21,1,,,,,アクア,0
2104,9140001134873,新規,0,2024-06-21,2024-06-21,株式会社鬼塚商店,00135255,株式会社,兵庫県,神戸市灘区,船寺通４丁目１番１１号,,28,102,6570842,,,,,,,2024-06-21,1,,,,,オニツカショウテン,0
2105,9140001134881,新規,0,2024-06-21,2024-06-21,株式会社Ａｎｄ　Ｓｕｐｐｏｒｔ,,株式会社,兵庫県,宝塚市,米谷２丁目２番２４号,,28,214,6650831,,,,,,,2024-06-21,1,,,,,アンドサポート,0
2108,9140003020733,新規,0,2024-06-21,2024-06-21,合同会社ｙｕｐｏｐｏ,,合同会社,兵庫県,三田市,加茂３９４番地１、５０８号,,28,219,6691311,,,,,,,2024-06-21,1,,,,,ユポポ,0
2112,9150003003290,新規,0,2024-06-21,2024-06-21,合同会社ｊ‐ｓｔ,,合同会社,奈良県,天理市,川原城町８０１番地辻村ビル４０１,00135258,29,204,6320016,,,,,,,2024-06-21,1,,,,,ジェースト,0
2116,9160001026020,新規,0,2024-06-21,2024-06-21,株式会社Ｒｏｎｄｅ,,株式会社,滋賀県,米原市,甲津原４２１番地,,25,214,5210301,,,,,,,2024-06-21,1,,,,,ロンド,0
2117,9160005011316,新規,0,2024-06-21,2024-06-21,一般社団法人日本ボイススタイリスト協会,,その他の設立登記法人,滋賀県,近江八幡市,西生来町２４５番地,,25,204,5230004,,,,,,,2024-06-21,1,,,,,ニホンボイススタイリストキョウカイ,0
2125,9180003026982,新規,0,2024-06-21,2024-06-21,ＤＥＣＯ合同会社,,合同会社,愛知県,名古屋市中川区,松重町４－５松重スカイマンション３‐４０２号,,23,110,4540003,,,,,,,2024-06-21,1,,,,,デコ,0
2128,9180301038754,新規,0,2024-06-21,2024-06-21,株式会社高木,00135259,株式会社,愛知県,豊田市,上度合町大畑１１７番地１,,23,211,4710000,,,,,,,2024-06-21,1,,,,,タカキ,0
2146,9270005005595,新規,0,2024-06-21,2024-06-21,一般社団法人Ａｃｒｏｂａｔ,,その他の設立登記法人,鳥取県,米子市,車尾南１丁目８番３２号,,31,202,6830008,,,,,,,2024-06-21,1,,,,,アクロバット,0
2147,9280001009203,新規,0,2024-06-21,2024-06-21,株式会社貴琳,,株式会社,島根県,浜田市,原町２７番地２,,32,202,6970056,,,,,,,2024-06-21,1,,,,,キリン,0
2150,9290003015462,新規,0,2024-06-21,2024-06-21,合同会社夢幻,,合同会社,福岡県,福岡市中央区,春吉２丁目１８番４号,,40,133,8100003,,,,,,,2024-06-21,1,,,,,ムゲン,0
2151,9290801030654,新規,0,2024-06-21,2024-06-21,株式会社松井建設,,株式会社,福岡県,北九州市八幡西区,金剛３丁目３番２３号,,40,109,8071263,,,,,,,2024-06-21,1,,,,,マツイケンセツ,0
2154,9320001020551,新規,0,2024-06-21,2024-06-21,株式会社ＨＡＹＡＴＡ,,株式会社,大分県,大分市,中津留１丁目２番１４号,,44,201,8700939,,,,,,,2024-06-21,1,,,,,ハヤタ,0
2157,9330003010418,新規,0,2024-06-21,2024-06-21,合同会社ジダイヲツクルー,,合同会社,熊本県,菊池郡菊陽町,大字原水３２８１番地,,43,404,8691102,,,,,,,2024-06-21,1,,,,,ジダイヲツクルー,0
2158,9330003010434,新規,0,2024-06-21,2024-06-21,合同会社エントランド,,合同会社,熊本県,熊本市北区,植木町一木１８８‐１４,,43,105,8610135,,,,,,,2024-06-21,1,,,,,エントランド,0
2159,9350003004681,新規,0,2024-06-21,2024-06-21,合同会社ガイオン,,合同会社,宮崎県,宮崎市,東大淀１丁目６番１３号グリーンひむか３０２号,,45,201,8800901,,,,,,,2024-06-21,1,,,,,ガイオン,0
2162,9360001033847,新規,0,2024-06-21,2024-06-21,株式会社ｍｏｔｔｏ　ｏｋｉｎａｗａ,,株式会社,沖縄県,うるま市,字豊原２７９番地ルアナテラス３階,,47,213,9042233,,,,,,,2024-06-21,1,,,,,モットオキナワ,0
2163,9360003014085,新規,0,2024-06-21,2024-06-21,合資会社南風原交通,,合資会社,沖縄県,島尻郡南風原町,字兼城６４４番地の６,,47,350,9011111,,,,,,,2024-06-21,1,,,,,ハエバルコウツウ,0
2166,9370001051443,新規,0,2024-06-21,2024-06-21,株式会社ミライフガーデン,,株式会社,宮城県,仙台市宮城野区,福田町４丁目９番１２号,,04,102,9830023,,,,,,,2024-06-21,1,,,,,ミライフガーデン,0
2182,9462501001001,新規,0,2024-06-21,2024-06-21,株式会社Ｐｉｖｏｔ,,株式会社,北海道,標津郡中標津町,東二十一条南９丁目１０番地６,,01,692,0861021,,,,,,,2024-06-21,1,,,,,ピボット,0
2186,9480003002152,新規,0,2024-06-21,2024-06-21,合同会社ＢＬＡＣＫ　ＬＡＢＥＬ,,合同会社,徳島県,徳島市,八万町上福万９番地３６－Ｂ棟,,36,201,7708073,,,,,,,2024-06-21,1,,,,,ブラックレーベル,0
