sequenceNumber,corporateNumber,process,correct,updateDate,changeDate,name,nameImageId,kind,prefectureName,cityName,streetNumber,addressImageId,prefectureCode,cityCode,postCode,addressOutside,addressOutsideImageId,closeDate,closeCause,successorCorporateNumber,changeCause,assignmentDate,latest,enName,enPrefectureName,enCityName,enAddressOutside,furigana,hihyoji
6,1010001252984,新規,0,2025-03-13,2025-03-13,Ｍａｐｌｅ　Ｅｓｔａｔｅ株式会社,,株式会社,東京都,千代田区,内幸町１丁目３番１号幸ビルディング９階,,13,101,1000011,,,,,,,2025-03-13,1,,,,,メイプルエステート,0
7,1010001253009,新規,0,2025-03-13,2025-03-13,株式会社イレブン総研,,株式会社,東京都,中央区,銀座１丁目１２番４号Ｎ＆ＥＢＬＤ．６Ｆ,,13,102,1040061,,,,,,,2025-03-13,1,,,,,イレブンソウケン,0
8,1010001253090,新規,0,2025-03-13,2025-03-13,スマイルサークルホールディングス株式会社,,株式会社,東京都,中央区,日本橋蛎殻町１丁目３０番１１号ヨートービル３階,,13,102,1030014,,,,,,,2025-03-13,1,,,,,スマイルサークルホールディングス,0
14,1010003046757,新規,0,2025-03-13,2025-03-13,合同会社ロダン,,合同会社,東京都,中央区,京橋２丁目１２番６号ＡＯＪ税理士法人内,,13,102,1040031,,,,,,,2025-03-13,1,,,,,ロダン,0
16,1010005039759,新規,0,2025-03-13,2025-03-13,一般社団法人江ノ島線鶴間駅前ブリッジ,,その他の設立登記法人,東京都,千代田区,平河町１丁目６番１５号シルスフィア会計事務所内,,13,101,1020093,,,,,,,2025-03-13,1,,,,,エノシマセンツルマエキマエブリッジ,0
24,1010401188754,新規,0,2025-03-13,2025-03-13,フーガ・トラベル株式会社,,株式会社,東京都,港区,赤坂９丁目１番７号,,13,103,1070052,,,,,,,2025-03-13,1,,,,,フーガトラベル,0
25,1010401188845,新規,0,2025-03-13,2025-03-13,株式会社ＡＸＩＡＮＴＥ,,株式会社,東京都,港区,南青山３丁目１番３６号,,13,103,1070062,,,,,,,2025-03-13,1,,,,,アクシアンテ,0
26,1010401188853,新規,0,2025-03-13,2025-03-13,１１１株式会社,,株式会社,東京都,港区,芝浦１丁目１番１号,,13,103,1050023,,,,,,,2025-03-13,1,,,,,トリプルワン,0
27,1010401188861,新規,0,2025-03-13,2025-03-13,Ｙ＆Ｇ株式会社,,株式会社,東京都,港区,麻布十番４丁目４番１号ツイン一の橋２号棟２０５８号,,13,103,1060045,,,,,,,2025-03-13,1,,,,,ワイアンドジー,0
28,1010401188911,新規,0,2025-03-13,2025-03-13,事業承継センター財務会計株式会社,,株式会社,東京都,港区,芝公園３丁目５番８号機械振興会館５１８号,,13,103,1050011,,,,,,,2025-03-13,1,,,,,ジギョウショウケイセンターザイムカイケイ,0
31,1010501053783,新規,0,2025-03-13,2025-03-13,アーツマネージメント株式会社,,株式会社,東京都,台東区,台東１丁目３番１－２０１号,,13,106,1100016,,,,,,,2025-03-13,1,,,,,アーツマネージメント,0
40,1010601066933,新規,0,2025-03-13,2025-03-13,縁星株式会社,,株式会社,東京都,墨田区,横網２丁目６番１１号,,13,107,1300015,,,,,,,2025-03-13,1,,,,,エンセイ,0
41,1010601066941,新規,0,2025-03-13,2025-03-13,株式会社神楽坂ＢＡＳＥ　Ｔｏｋｙｏ,,株式会社,東京都,墨田区,亀沢１丁目２４番５－２０６号,,13,107,1300014,,,,,,,2025-03-13,1,,,,,カグラザカベイストウキョウ,0
43,1010703007587,新規,0,2025-03-13,2025-03-13,ｔｈｅｌｕｄｅｎｓ合同会社,,合同会社,東京都,品川区,西品川１丁目５番３号ルーデンス大崎アネックス１０１,,13,109,1410033,,,,,,,2025-03-13,1,,,,,ザルーデンス,0
44,1010801035894,新規,0,2025-03-13,2025-03-13,株式会社ボン・ドミール,,株式会社,東京都,大田区,大森北５丁目８番２４号ＭａｒｋＦｏｒｅｓｔ４０７,,13,111,1430016,,,,,,,2025-03-13,1,,,,,ボンドミール,0
45,1010801035911,新規,0,2025-03-13,2025-03-13,株式会社まどりＬＡＢＯ,,株式会社,東京都,大田区,南六郷３丁目１０－１６六郷ＢＡＳＥ,,13,111,1440045,,,,,,,2025-03-13,1,,,,,マドリラボ,0
48,1010901056956,新規,0,2025-03-13,2025-03-13,株式会社ＭＩＲＡＩ　ＴＥＲＲＡＣＥ,,株式会社,東京都,世田谷区,中町２丁目２３－１０－３０５,,13,112,1580091,,,,,,,2025-03-13,1,,,,,ミライテラス,0
52,1011001168386,新規,0,2025-03-13,2025-03-13,株式会社ＥＬＡＮ,,株式会社,東京都,渋谷区,千駄ヶ谷４丁目６番８号,,13,113,1510051,,,,,,,2025-03-13,1,,,,,エラン,0
53,1011003021196,新規,0,2025-03-13,2025-03-13,ことり合同会社,,合同会社,東京都,渋谷区,初台１丁目２３番３号ダイヤビル４０１,,13,113,1510061,,,,,,,2025-03-13,1,,,,,コトリ,0
58,1011101110966,新規,0,2025-03-13,2025-03-13,オアシスブリス株式会社,,株式会社,東京都,新宿区,四谷三栄町１１番１９－２０７号,,13,104,1600008,,,,,,,2025-03-13,1,,,,,オアシスブリス,0
59,1011101110974,新規,0,2025-03-13,2025-03-13,株式会社Ｙｏｕ　Ｒｅａｌｌｙ　Ｇｏｏｄ,,株式会社,東京都,新宿区,西新宿３丁目３番１３号西新宿水間ビル２Ｆ,,13,104,1600023,,,,,,,2025-03-13,1,,,,,ユーリアリーグッド,0
60,1011103015610,新規,0,2025-03-13,2025-03-13,Ｌｙｒｉｃｏｄｅ　Ｌａｂ合同会社,,合同会社,東京都,新宿区,西新宿３丁目３番１３号西新宿水間ビル２Ｆ,,13,104,1600023,,,,,,,2025-03-13,1,,,,,リリコードラボ,0
61,1011103015643,新規,0,2025-03-13,2025-03-13,ＬＯＮＤＯＮ合同会社,,合同会社,東京都,新宿区,富久町１５番１号,,13,104,1620067,,,,,,,2025-03-13,1,,,,,ロンドン,0
62,1011103015651,新規,0,2025-03-13,2025-03-13,合同会社かなさん,,合同会社,東京都,新宿区,荒木町３番地三宅ビル１階,,13,104,1600007,,,,,,,2025-03-13,1,,,,,カナサン,0
65,1011401026904,新規,0,2025-03-13,2025-03-13,株式会社フォレスト,,株式会社,東京都,板橋区,小豆沢３丁目１０番１０－２１０号ナイスアーバン志村坂上,,13,119,1740051,,,,,,,2025-03-13,1,,,,,フォレスト,0
73,1012305002124,新規,0,2025-03-13,2025-03-13,医療法人社団三鑚会,,その他の設立登記法人,東京都,町田市,玉川学園２丁目２１番３７号小田急マルシェ玉川学園前２階,,13,209,1940041,,,,,,,2025-03-13,1,,,,,サンサンカイ,0
75,1012403007017,新規,0,2025-03-13,2025-03-13,合同会社ｍｏｆｆ　ｃｌｉｎｉｃ,,合同会社,東京都,稲城市,百村１９３番６号,,13,225,2060804,,,,,,,2025-03-13,1,,,,,モフクリニック,0
77,1012801023821,新規,0,2025-03-13,2025-03-13,株式会社イノワ,,株式会社,東京都,立川市,錦町１丁目１番２０－３０２号,,13,202,1900022,,,,,,,2025-03-13,1,,,,,イノワ,0
81,1013101009643,新規,0,2025-03-13,2025-03-13,株式会社ブルームワンコミュニケーションズ,,株式会社,東京都,あきる野市,二宮１６１０番地３１,,13,228,1970814,,,,,,,2025-03-13,1,,,,,ブルームワンコミュニケーションズ,0
91,1020001161838,新規,0,2025-03-13,2025-03-13,株式会社ポライトマン,,株式会社,神奈川県,横浜市神奈川区,菅田町２３７２番地４,,14,102,2210864,,,,,,,2025-03-13,1,,,,,ポライトマン,0
92,1020001161846,新規,0,2025-03-13,2025-03-13,株式会社Ｅｎｃｅ,,株式会社,神奈川県,横浜市港北区,高田西１丁目９番１３－２号,,14,109,2230066,,,,,,,2025-03-13,1,,,,,エンス,0
96,1020003027574,新規,0,2025-03-13,2025-03-13,合同会社イヅキ,,合同会社,神奈川県,川崎市高津区,子母口３５６－１グランイーグル２２０６,,14,134,2130023,,,,,,,2025-03-13,1,,,,,イヅキ,0
97,1020003027913,新規,0,2025-03-13,2025-03-13,合同会社ＴＨＥ　ＤＡＹ,,合同会社,神奈川県,横浜市南区,前里町４丁目１０１番地１,,14,105,2320004,,,,,,,2025-03-13,1,,,,,ザデイ,0
98,1020003027979,新規,0,2025-03-13,2025-03-13,合同会社ＭＭＣ,,合同会社,神奈川県,横浜市港北区,師岡町１４２番地４,,14,109,2220002,,,,,,,2025-03-13,1,,,,,エムエムシー,0
99,1020003028003,新規,0,2025-03-13,2025-03-13,合同会社Ｃｏｎｎｅｃｔ　Ｗｏｒｋｓ,,合同会社,神奈川県,横浜市港北区,綱島東４丁目６－２２,,14,109,2230052,,,,,,,2025-03-13,1,,,,,コネクトワークス,0
100,1020003028036,新規,0,2025-03-13,2025-03-13,小俣商店合同会社,,合同会社,神奈川県,横浜市中区,簑沢２番,,14,104,2310856,,,,,,,2025-03-13,1,,,,,,0
105,1021001084673,新規,0,2025-03-13,2025-03-13,株式会社吉田石材,,株式会社,神奈川県,藤沢市,城南１丁目２１番１６～３０７号,,14,205,2510057,,,,,,,2025-03-13,1,,,,,ヨシダセキザイ,0
106,1021001084715,新規,0,2025-03-13,2025-03-13,株式会社ＬＯＶＥ,,株式会社,神奈川県,鎌倉市,小袋谷１丁目７番３－５０３号,,14,204,2470055,,,,,,,2025-03-13,1,,,,,ラブ,0
107,1021001084723,新規,0,2025-03-13,2025-03-13,株式会社フロム,,株式会社,神奈川県,厚木市,泉町２番１号ビッグジャパンビル４Ｆ,,14,212,2430013,,,,,,,2025-03-13,1,,,,,フロム,0
112,1030001165350,新規,0,2025-03-13,2025-03-13,株式会社ＴＮｆａｒｍ,,株式会社,埼玉県,三郷市,茂田井５４０番地,,11,237,3410025,,,,,,,2025-03-13,1,,,,,ティーエヌファーム,0
113,1030001165359,新規,0,2025-03-13,2025-03-13,株式会社ＡＳＡＨＩ,,株式会社,埼玉県,川越市,豊田本４丁目１２番地２７,,11,201,3501118,,,,,,,2025-03-13,1,,,,,アサヒ,0
114,1030001165375,新規,0,2025-03-13,2025-03-13,ＭＡＶＣＯＵＴＵＲＥ株式会社,,株式会社,埼玉県,さいたま市岩槻区,大字大野島２４１番地８,,11,110,3390018,,,,,,,2025-03-13,1,,,,,マヴカウチャー,0
115,1030001165383,新規,0,2025-03-13,2025-03-13,株式会社ＡＫＴ白子,,株式会社,埼玉県,川口市,仲町１１番９号,,11,203,3320022,,,,,,,2025-03-13,1,,,,,アクトシラコ,0
116,1030001165391,新規,0,2025-03-13,2025-03-13,株式会社Ｓｃｈｏｏｍｏ,,株式会社,埼玉県,幸手市,東２丁目１６－７,,11,240,3400114,,,,,,,2025-03-13,1,,,,,スクーモ,0
117,1030001165433,新規,0,2025-03-13,2025-03-13,株式会社ｈ‐ｓｔｙｌｅ,,株式会社,埼玉県,さいたま市西区,大字土屋５５６番地１１,,11,101,3310062,,,,,,,2025-03-13,1,,,,,エイチスタイル,0
120,1030003026311,新規,0,2025-03-13,2025-03-13,合同会社Ｔｈｅｒａｐｙ,,合同会社,埼玉県,川口市,朝日２丁目１３－４,,11,203,3320001,,,,,,,2025-03-13,1,,,,,セラピー,0
121,1030003026328,新規,0,2025-03-13,2025-03-13,合同会社ｙｕｒｉｔｏ,,合同会社,埼玉県,さいたま市岩槻区,太田１丁目７番９６－５号,,11,110,3390052,,,,,,,2025-03-13,1,,,,,ユリト,0
122,1030003026336,新規,0,2025-03-13,2025-03-13,合同会社ＲＥＡＬ　ＫＮＯＷＳ,,合同会社,埼玉県,さいたま市桜区,町谷３丁目１２番１０号,,11,106,3380836,,,,,,,2025-03-13,1,,,,,リアルノウズ,0
127,1040003027077,新規,0,2025-03-13,2025-03-13,３ＧＡＴＥ合同会社,,合同会社,千葉県,市原市,椎の木台１丁目１－１４,,12,219,2990128,,,,,,,2025-03-13,1,,,,,スリーゲイト,0
128,1050003009108,新規,0,2025-03-13,2025-03-13,合同会社カナエル,,合同会社,茨城県,牛久市,ひたち野東４丁目１番地８ＦｌｅｅｋＴｏｗｅｒひたち野東１Ｆテナント３,,08,219,3001207,,,,,,,2025-03-13,1,,,,,カナエル,0
133,1070001042728,新規,0,2025-03-13,2025-03-13,株式会社無為建築舎,,株式会社,群馬県,高崎市,箕郷町柏木沢１２６８番地２３,,10,202,3703101,,,,,,,2025-03-13,1,,,,,ムイケンチクシャ,0
135,1080101025367,新規,0,2025-03-13,2025-03-13,株式会社ＴＫ貿易,,株式会社,静岡県,富士宮市,羽鮒２２５０番地の２,,22,207,4190316,,,,,,,2025-03-13,1,,,,,ティーケーボウエキ,0
141,1110001039109,新規,0,2025-03-13,2025-03-13,株式会社住まいリンク,,株式会社,新潟県,新潟市東区,中山６丁目１７番１４号,,15,102,9500861,,,,,,,2025-03-13,1,,,,,スマイリンク,0
148,1120001273607,新規,0,2025-03-13,2025-03-13,梅元株式会社,,株式会社,大阪府,大阪市大正区,三軒家西３丁目４番１６号中山ビル２０２Ｂ,,27,108,5510001,,,,,,,2025-03-13,1,,,,,バイゲン,0
149,1120001273623,新規,0,2025-03-13,2025-03-13,深度互娯株式会社,,株式会社,大阪府,大阪市淀川区,十三本町１丁目１８番８号北野ルーエ,,27,123,5320024,,,,,,,2025-03-13,1,,,,,シンドゴゴ,0
150,1120001273680,新規,0,2025-03-13,2025-03-13,株式会社大都建設,,株式会社,大阪府,大阪市平野区,背戸口２丁目２番１３号,,27,126,5470034,,,,,,,2025-03-13,1,,,,,ダイトケンセツ,0
152,1120003028827,新規,0,2025-03-13,2025-03-13,合同会社ゴーウィズアス,,合同会社,大阪府,大阪市天王寺区,勝山２丁目４－１３パークサイドヴィラ夕陽丘４０３号室,,27,109,5430043,,,,,,,2025-03-13,1,,,,,ゴーウィズアス,0
153,1120003028835,新規,0,2025-03-13,2025-03-13,ＪＡＰＡＮ　ＴＲＡＤＩＴＩＯＮＡＬ　ＭＥＤＩＣＡＬ　ＳＵＰＰＯＲＴ合同会社,,合同会社,大阪府,寝屋川市,木屋町１４番１０号,,27,215,5720087,,,,,,,2025-03-13,1,,,,,ジャパントラディショナルメディカルサポート,0
154,1120003028851,新規,0,2025-03-13,2025-03-13,合同会社ＴＡＭ不動産,,合同会社,大阪府,大阪市阿倍野区,北畠１丁目３－２２,,27,119,5450035,,,,,,,2025-03-13,1,,,,,タムフドウサン,0
160,1122001038956,新規,0,2025-03-13,2025-03-13,ＯＲＩ株式会社,,株式会社,大阪府,柏原市,片山町２０番５号,,27,221,5820020,,,,,,,2025-03-13,1,,,,,オーアールアイ,0
161,1122001038980,新規,0,2025-03-13,2025-03-13,株式会社プロースト,,株式会社,大阪府,東大阪市,若江東町４丁目１番１号,,27,227,5780935,,,,,,,2025-03-13,1,,,,,プロースト,0
169,1140001137693,新規,0,2025-03-13,2025-03-13,株式会社Ｋボヌール,,株式会社,兵庫県,神戸市垂水区,南多聞台４丁目１番２５－６１４号,,28,108,6550043,,,,,,,2025-03-13,1,,,,,ケイボヌール,0
170,1140001137727,新規,0,2025-03-13,2025-03-13,株式会社ＲＥＣＥＳＳ,,株式会社,兵庫県,西宮市,剣谷町３番１０号,,28,204,6620099,,,,,,,2025-03-13,1,,,,,リセス,0
177,1160001026597,新規,0,2025-03-13,2025-03-13,株式会社ｏｓｏｒｏ,,株式会社,滋賀県,草津市,草津１丁目２番３号川源ビル１階１０２号室,,25,206,5250034,,,,,,,2025-03-13,1,,,,,オソロ,0
178,1160001026606,新規,0,2025-03-13,2025-03-13,株式会社ＦＯＭＵ,,株式会社,滋賀県,大津市,一里山３丁目２－６２－１０５,,25,201,5202153,,,,,,,2025-03-13,1,,,,,フォーム,0
179,1160001026614,新規,0,2025-03-13,2025-03-13,なかじまビルホールディングス株式会社,,株式会社,滋賀県,草津市,渋川１丁目２番１５号くさつビル６階,,25,206,5250026,,,,,,,2025-03-13,1,,,,,ナカジマビルホールディングス,0
180,1170001018536,新規,0,2025-03-13,2025-03-13,株式会社トラウト,,株式会社,和歌山県,和歌山市,松江北２丁目７番２０号東ハウス松江ビル３Ｆ,,30,201,6408425,,,,,,,2025-03-13,1,,,,,トラウト,0
185,1180001165807,新規,0,2025-03-13,2025-03-13,株式会社ＴＡＣＴ,,株式会社,愛知県,名古屋市中区,新栄２丁目１４番２８号第７スカイパレス４０７号,,23,106,4600007,,,,,,,2025-03-13,1,,,,,タクト,0
186,1180001165831,新規,0,2025-03-13,2025-03-13,株式会社ＳＫＨＵＢ,,株式会社,愛知県,名古屋市中村区,名駅４丁目２４番５号第２森ビル４０１,,23,105,4500002,,,,,,,2025-03-13,1,,,,,エスケーハブ,0
187,1180001165897,新規,0,2025-03-13,2025-03-13,株式会社ＦＬＯＲＩＳ,,株式会社,愛知県,名古屋市港区,善南町３３－１－２０７,,23,111,4550814,,,,,,,2025-03-13,1,,,,,フロリス,0
188,1180001165939,新規,0,2025-03-13,2025-03-13,株式会社ケーアンドエム,,株式会社,愛知県,愛西市,須依町須賀割２１００番地６リースホーム佐屋ＩＩＡ棟１０２,00138324,23,232,4960902,,,,,,,2025-03-13,1,,,,,ケーアンドエム,0
189,1180001165963,新規,0,2025-03-13,2025-03-13,株式会社Ｋ２,,株式会社,愛知県,名古屋市千種区,今池南２９番１６号,,23,101,4640851,,,,,,,2025-03-13,1,,,,,ケイツー,0
191,1180003028128,新規,0,2025-03-13,2025-03-13,４１６合同会社,,合同会社,愛知県,名古屋市名東区,神里１丁目１０７番地の８,,23,115,4650082,,,,,,,2025-03-13,1,,,,,ヨンイチロク,0
197,1180301039611,新規,0,2025-03-13,2025-03-13,ＬａＬａ株式会社,,株式会社,愛知県,岡崎市,上青野町字稲前東６８番地,,23,202,4440243,,,,,,,2025-03-13,1,,,,,ララ,0
198,1200003006725,新規,0,2025-03-13,2025-03-13,ＬａＬａ　ＡＵＴＯ合同会社,,合同会社,岐阜県,多治見市,笠原町１５７番地４,,21,204,5070901,,,,,,,2025-03-13,1,,,,,ララオート,0
199,1200003006733,新規,0,2025-03-13,2025-03-13,合同会社ラクスト,,合同会社,岐阜県,高山市,昭和町２丁目１番地１１,,21,203,5060053,,,,,,,2025-03-13,1,,,,,ラクスト,0
203,1240003007109,新規,0,2025-03-13,2025-03-13,合同会社富士成,,合同会社,広島県,広島市中区,幟町１３－１５,,34,101,7300016,,,,,,,2025-03-13,1,,,,,フジセイ,0
205,1250001021044,新規,0,2025-03-13,2025-03-13,株式会社栄工務,,株式会社,山口県,宇部市,新天町１丁目３番１９号,,35,202,7550029,,,,,,,2025-03-13,1,,,,,エイコウム,0
210,1260003005093,新規,0,2025-03-13,2025-03-13,ウェルタス合同会社,,合同会社,岡山県,玉野市,八浜町大崎１７００番地５,,33,204,7060224,,,,,,,2025-03-13,1,,,,,ウェルタス,0
211,1260005011453,新規,0,2025-03-13,2025-03-13,医療法人社団実りの森,,その他の設立登記法人,岡山県,岡山市北区,西古松１丁目１２番２８号,,33,101,7000927,,,,,,,2025-03-13,1,,,,,ミノリノモリ,0
213,1290001109348,新規,0,2025-03-13,2025-03-13,株式会社ラックモバイル,,株式会社,福岡県,福岡市博多区,東比恵３丁目１４番２５号,,40,132,8120007,,,,,,,2025-03-13,1,,,,,ラックモバイル,0
215,1320001020988,新規,0,2025-03-13,2025-03-13,株式会社ワンダートリップ,,株式会社,大分県,大分市,長浜町１丁目４番６号塩九升ビル２階,,44,201,8700023,,,,,,,2025-03-13,1,,,,,ワンダートリップ,0
216,1320001020996,新規,0,2025-03-13,2025-03-13,株式会社ＯＲＴＵＳ　ＡＲＣＨＩ,,株式会社,大分県,臼杵市,大字野田２９３番地の３,,44,206,8750062,,,,,,,2025-03-13,1,,,,,オルタスアーキ,0
218,1330001032958,新規,0,2025-03-13,2025-03-13,ＩＴＣ株式会社,,株式会社,熊本県,八代市,松江本町７番４６号（２０３）サンズ松江,,43,202,8660882,,,,,,,2025-03-13,1,,,,,アイティーシー,0
222,1340001027189,新規,0,2025-03-13,2025-03-13,株式会社佐々木組,,株式会社,鹿児島県,鹿児島市,下伊敷２丁目１４番１号,,46,201,8900005,,,,,,,2025-03-13,1,,,,,ササキグミ,0
227,1370001052358,新規,0,2025-03-13,2025-03-13,株式会社ジェイド・エステート,,株式会社,宮城県,仙台市青葉区,一番町３丁目３番１号クラックス仙台４Ｆ,,04,101,9800811,,,,,,,2025-03-13,1,,,,,ジェイドエステート,0
231,1380001035163,新規,0,2025-03-13,2025-03-13,株式会社Ｎａｒｒａｔｉｖｅ　Ｐｒｏｄｕｃｔｉｏｎ,,株式会社,福島県,南相馬市,原町区北長野字北原田１７９番地の６,,07,212,9750072,,,,,,,2025-03-13,1,,,,,ナラティブプロダクション,0
236,1390001017920,新規,0,2025-03-13,2025-03-13,株式会社ＫＲＫ,,株式会社,山形県,東根市,大字松沢５６番地４,,06,211,9993772,,,,,,,2025-03-13,1,,,,,ケーアールケー,0
241,1430001093874,新規,0,2025-03-13,2025-03-13,株式会社ＷＥ‐ｉｎｇ,,株式会社,北海道,札幌市北区,北七条西４丁目１番地１トーカン札幌第一キャステール６０７,,01,102,0600807,,,,,,,2025-03-13,1,,,,,ウイイング,0
242,1430001093890,新規,0,2025-03-13,2025-03-13,株式会社曜辰,,株式会社,北海道,札幌市南区,常盤四条２丁目８８番１６号,,01,106,0050854,,,,,,,2025-03-13,1,,,,,ヨウシン,0
243,1430001093908,新規,0,2025-03-13,2025-03-13,株式会社北海道食販,,株式会社,北海道,夕張郡長沼町,東５線北１８,,01,428,0691317,,,,,,,2025-03-13,1,,,,,ホッカイドウショクハン,0
249,1430003017369,新規,0,2025-03-13,2025-03-13,ｆｏｒ　ｙｏｕｒ　ｓｍｉｌｅ合同会社,,合同会社,北海道,札幌市南区,石山三条５丁目５－２２,,01,106,0050843,,,,,,,2025-03-13,1,,,,,フォーユアースマイル,0
250,1430003017377,新規,0,2025-03-13,2025-03-13,合同会社ＡＫＡＲＩＥ　ＰＬＵＳ,,合同会社,北海道,札幌市中央区,南五条西１丁目２－９－１３０２,,01,101,0640805,,,,,,,2025-03-13,1,,,,,アカリエプラス,0
251,1430003017385,新規,0,2025-03-13,2025-03-13,合同会社１ｅｅｔ,,合同会社,北海道,札幌市中央区,北七条西１９丁目３８－７３サンコート桑園ガーデンヒルズ８０３,,01,101,0600007,,,,,,,2025-03-13,1,,,,,ワンイート,0
253,1460101007681,新規,0,2025-03-13,2025-03-13,株式会社ｍｉｎｏｔａｋｅ,,株式会社,北海道,中川郡池田町,字西三条８丁目３７－１,,01,644,0830023,,,,,,,2025-03-13,1,,,,,ミノタケ,0
254,1470001020627,新規,0,2025-03-13,2025-03-13,株式会社アクティオン,,株式会社,香川県,高松市,塩江町安原上東７５９番地１,,37,201,7611612,,,,,,,2025-03-13,1,,,,,アクティオン,0
257,1500001026190,新規,0,2025-03-13,2025-03-13,白石技建株式会社,,株式会社,愛媛県,松山市,高岡町１６３番地１０,,38,201,7918036,,,,,,,2025-03-13,1,,,,,シライシギケン,0
272,2010001253016,新規,0,2025-03-13,2025-03-13,リミテッドシステム株式会社,,株式会社,東京都,中央区,日本橋室町１丁目１１－２２日本橋水野ビル７階,,13,102,1030022,,,,,,,2025-03-13,1,,,,,リミテッドシステム,0
273,2010001253148,新規,0,2025-03-13,2025-03-13,株式会社Ａｔｏｍａ,,株式会社,東京都,千代田区,麹町３丁目１０番地１２ザ・パークハウス麹町レジデンス５０８号,,13,101,1020083,,,,,,,2025-03-13,1,,,,,アトマ,0
277,2010003046649,新規,0,2025-03-13,2025-03-13,ＮＥＰＣＯエナジーキープワールド合同会社,,合同会社,東京都,中央区,月島２丁目１０番１－１７０９号,,13,102,1040052,,,,,,,2025-03-13,1,,,,,ネプコエナジーキープワールド,0
279,2010005039758,新規,0,2025-03-13,2025-03-13,一般社団法人小田急伊勢原ツーブリッジ,,その他の設立登記法人,東京都,千代田区,平河町１丁目６番１５号シルスフィア会計事務所内,,13,101,1020093,,,,,,,2025-03-13,1,,,,,オダキュウイセハラツーブリッジ,0
283,2010101016561,新規,0,2025-03-13,2025-03-13,明和株式会社,,株式会社,東京都,八王子市,元八王子町３丁目２７５０番地１０４６,,13,201,1930826,,,,,,,2025-03-13,1,,,,,メイワ,0
292,2010401188778,新規,0,2025-03-13,2025-03-13,株式会社Ｓｅｔｏｕｃｈｉ　Ｂｌｕｅ,,株式会社,東京都,港区,西麻布４丁目１２番１９号ウッドヴィル麻布４０５,,13,103,1060031,,,,,,,2025-03-13,1,,,,,セトウチブルー,0
293,2010401188803,新規,0,2025-03-13,2025-03-13,株式会社Ｎｏｂｌｅｓｓｅ,,株式会社,東京都,港区,南青山３丁目１－３６青山丸竹ビル６階,,13,103,1070062,,,,,,,2025-03-13,1,,,,,ノブレス,0
294,2010401188844,新規,0,2025-03-13,2025-03-13,株式会社美寿,,株式会社,東京都,港区,南青山５丁目４番３１号,,13,103,1070062,,,,,,,2025-03-13,1,,,,,ビジュ,0
297,2010501053782,新規,0,2025-03-13,2025-03-13,株式会社ＩＮＯＤ,,株式会社,東京都,台東区,台東１丁目３４番１０号,,13,106,1100016,,,,,,,2025-03-13,1,,,,,イノド,0
303,2010703007603,新規,0,2025-03-13,2025-03-13,合同会社コクラ,,合同会社,東京都,品川区,中延５丁目１０番１２－１０３号,,13,109,1420053,,,,,,,2025-03-13,1,,,,,コクラ,0
307,2010801035910,新規,0,2025-03-13,2025-03-13,ランエンクリエーション株式会社,,株式会社,東京都,大田区,西蒲田７丁目６０番１１号栄寿ビル,,13,111,1440051,,,,,,,2025-03-13,1,,,,,ランエンクリエーション,0
311,2010903009779,新規,0,2025-03-13,2025-03-13,合同会社ルーク,,合同会社,東京都,世田谷区,深沢３丁目３番４号,,13,112,1580081,,,,,,,2025-03-13,1,,,,,ルーク,0
318,2011001168369,新規,0,2025-03-13,2025-03-13,株式会社江原堂,,株式会社,東京都,渋谷区,神宮前６丁目２３番４号桑野ビル２階,,13,113,1500001,,,,,,,2025-03-13,1,,,,,エハラドウ,0
319,2011001168385,新規,0,2025-03-13,2025-03-13,株式会社にしき,,株式会社,東京都,目黒区,八雲３丁目８番１号,,13,110,1520023,,,,,,,2025-03-13,1,,,,,,0
320,2011001168410,新規,0,2025-03-13,2025-03-13,アカラン・ラボ株式会社,,株式会社,東京都,渋谷区,代々木３丁目１番２号メゾン・ド・ステラ１階,,13,113,1510053,,,,,,,2025-03-13,1,,,,,アカランラボ,0
321,2011001168476,新規,0,2025-03-13,2025-03-13,ＳＩプロデュース株式会社,,株式会社,東京都,渋谷区,上原１丁目１７番１５号ピロティーフジイ３０５,,13,113,1510064,,,,,,,2025-03-13,1,,,,,エスアイプロデュース,0
326,2011101110965,新規,0,2025-03-13,2025-03-13,株式会社アンドダブル,,株式会社,東京都,新宿区,西新宿３丁目１４番２２号,,13,104,1600023,,,,,,,2025-03-13,1,,,,,アンドダブル,0
327,2011101110973,新規,0,2025-03-13,2025-03-13,株式会社朋文堂,,株式会社,東京都,新宿区,富久町１－９－６０３,,13,104,1620067,,,,,,,2025-03-13,1,,,,,ホウブンドウ,0
328,2011101110981,新規,0,2025-03-13,2025-03-13,ＵＲＣ株式会社,,株式会社,東京都,新宿区,新宿１丁目９番４号中公ビル御苑グリーンハイツ６０１,,13,104,1600022,,,,,,,2025-03-13,1,,,,,ユーアールシー,0
330,2011103015642,新規,0,2025-03-13,2025-03-13,アイコンコンサルティングホールディングス合同会社,,合同会社,東京都,新宿区,新宿４丁目１番６号,,13,104,1600022,,,,,,,2025-03-13,1,,,,,アイコンコンサルティングホールディングス,0
331,2011103015650,新規,0,2025-03-13,2025-03-13,合同会社エレベーターファンド,,合同会社,東京都,新宿区,西新宿８丁目１１番１号,,13,104,1600023,,,,,,,2025-03-13,1,,,,,エレベーターファンド,0
332,2011301030435,新規,0,2025-03-13,2025-03-13,Ｗａｃｔ　Ｊａｐａｎ株式会社,,株式会社,東京都,杉並区,上高井戸３丁目４－１８,,13,115,1680074,,,,,,,2025-03-13,1,,,,,ワクトジャパン,0
334,2011401026903,新規,0,2025-03-13,2025-03-13,ＹＯＵＹＯＵ株式会社,,株式会社,東京都,板橋区,西台２丁目２５番６号,,13,119,1750045,,,,,,,2025-03-13,1,,,,,ユーユー,0
337,2011505002684,新規,0,2025-03-13,2025-03-13,医療法人社団Ｋ＆Ｍヘルスケア,,その他の設立登記法人,東京都,荒川区,西日暮里１丁目３７番２号グランシャリオ１階,,13,118,1160013,,,,,,,2025-03-13,1,,,,,ケーアンドエムヘルスケア,0
339,2011601028501,新規,0,2025-03-13,2025-03-13,ユニラン株式会社,,株式会社,東京都,練馬区,西大泉１丁目１１番２７号,,13,120,1780065,,,,,,,2025-03-13,1,,,,,ユニラン,0
340,2011603004632,新規,0,2025-03-13,2025-03-13,合同会社草思堂,,合同会社,東京都,練馬区,石神井町３丁目１８番１２号,,13,120,1770041,,,,,,,2025-03-13,1,,,,,ソウシドウ,0
351,2012401042881,新規,0,2025-03-13,2025-03-13,株式会社ｖｉａｃｔ,,株式会社,東京都,武蔵野市,境２丁目１９番２号ジオテラス１０２,,13,203,1800022,,,,,,,2025-03-13,1,,,,,ビアクト,0
354,2012803003647,新規,0,2025-03-13,2025-03-13,ルーナ東京合同会社,,合同会社,東京都,日野市,南平１丁目８－１７,,13,212,1910041,,,,,,,2025-03-13,1,,,,,ルーナトウキョウ,0
357,2013301053911,新規,0,2025-03-13,2025-03-13,株式会社ビスポークアンドファイブス,,株式会社,東京都,豊島区,東池袋１丁目４２番地１２パークビル６Ｆ,,13,116,1700013,,,,,,,2025-03-13,1,,,,,ビスポークアンドファイブス,0
358,2013301053969,新規,0,2025-03-13,2025-03-13,三瀛資産投資株式会社,,株式会社,東京都,豊島区,上池袋２丁目２６番１９号ドエルタケダ２０３,,13,116,1700012,,,,,,,2025-03-13,1,,,,,サンエイシサントウシ,0
366,2020001161820,新規,0,2025-03-13,2025-03-13,ワンビジョン株式会社,,株式会社,神奈川県,横浜市保土ケ谷区,権太坂２丁目１６－１－１０８,,14,106,2400026,,,,,,,2025-03-13,1,,,,,ワンビジョン,0
367,2020001161845,新規,0,2025-03-13,2025-03-13,株式会社未来をつなぐ総研,,株式会社,神奈川県,川崎市川崎区,池田１丁目４番５号２Ｆ,,14,131,2100022,,,,,,,2025-03-13,1,,,,,ミライヲツナグソウケン,0
368,2020001161853,新規,0,2025-03-13,2025-03-13,株式会社本間設備,,株式会社,神奈川県,川崎市多摩区,南生田４丁目３番２８号,,14,135,2140036,,,,,,,2025-03-13,1,,,,,ホンマセツビ,0
369,2020001161894,新規,0,2025-03-13,2025-03-13,株式会社亜星源,,株式会社,神奈川県,横浜市西区,高島２丁目６番３２号,,14,103,2200011,,,,,,,2025-03-13,1,,,,,アセイゲン,0
370,2020001161903,新規,0,2025-03-13,2025-03-13,株式会社ＤＯＪＯ,,株式会社,神奈川県,横浜市青葉区,美しが丘２丁目１３番地１－３０２号,,14,117,2250002,,,,,,,2025-03-13,1,,,,,ドージョー,0
374,2020003028019,新規,0,2025-03-13,2025-03-13,合同会社ＬＥＸＭＵＳＩＣ,,合同会社,神奈川県,川崎市宮前区,南野川３丁目２５番２５号ヒューマンスクエア鷺沼東３１２号室,,14,136,2160042,,,,,,,2025-03-13,1,,,,,,0
375,2020003028027,新規,0,2025-03-13,2025-03-13,合同会社ＡＲＫＯＮＡ,,合同会社,神奈川県,横浜市港北区,菊名７丁目１１番２－３号,,14,109,2220011,,,,,,,2025-03-13,1,,,,,アルコナ,0
376,2020003028035,新規,0,2025-03-13,2025-03-13,合同会社パレッテル居宅介護支援,,合同会社,神奈川県,横浜市戸塚区,上矢部町２４４４番地６,,14,110,2450053,,,,,,,2025-03-13,1,,,,,パレッテルキョタクカイゴシエン,0
381,2021001084672,新規,0,2025-03-13,2025-03-13,株式会社Ｄ‐ａｓｓｏｃｉａｔｅ,,株式会社,神奈川県,鎌倉市,浄明寺６丁目６番１４号,,14,204,2480003,,,,,,,2025-03-13,1,,,,,ディアソシエイト,0
382,2021001084697,新規,0,2025-03-13,2025-03-13,株式会社橘樹,,株式会社,神奈川県,相模原市南区,大野台７丁目１５番２号,,14,153,2520331,,,,,,,2025-03-13,1,,,,,タチバナ,0
383,2021001084714,新規,0,2025-03-13,2025-03-13,株式会社マネジメントバイフィロソフィア,,株式会社,神奈川県,藤沢市,鵠沼松が岡３丁目５番１５号,,14,205,2510038,,,,,,,2025-03-13,1,,,,,マネジメントバイフィロソフィア,0
384,2021001084722,新規,0,2025-03-13,2025-03-13,株式会社Ｇｒｏｗｔｈ,,株式会社,神奈川県,相模原市緑区,向原１丁目７－２４,,14,151,2520104,,,,,,,2025-03-13,1,,,,,グロウス,0
386,2021003015709,新規,0,2025-03-13,2025-03-13,Ｕｎｉｖｅｒｓ　Ａｒｏｍａｔｉｑｕｅ合同会社,,合同会社,神奈川県,鎌倉市,上町屋６１８番地８,,14,204,2470065,,,,,,,2025-03-13,1,,,,,ユニバースアロマティーク,0
387,2021003015725,新規,0,2025-03-13,2025-03-13,合同会社ＳＨＡＢＩＫ商会,,合同会社,神奈川県,藤沢市,遠藤５６２８番地ヨシマサコウギョウ２Ｆ,,14,205,2520816,,,,,,,2025-03-13,1,,,,,シャビックショウカイ,0
388,2021003015733,新規,0,2025-03-13,2025-03-13,合同会社古川源,,合同会社,神奈川県,鎌倉市,扇ガ谷２丁目４－１１,,14,204,2480011,,,,,,,2025-03-13,1,,,,,フルカワゲン,0
393,2030001165358,新規,0,2025-03-13,2025-03-13,大和ｅｎｇｉｎｅｅｒ株式会社,,株式会社,埼玉県,熊谷市,久下１丁目１６２番地５,,11,202,3600026,,,,,,,2025-03-13,1,,,,,ダイワエンジニア,0
396,2030003026285,新規,0,2025-03-13,2025-03-13,ＺＥＳＴ合同会社,,合同会社,埼玉県,さいたま市南区,辻１丁目３番１４－２０２号,00138321,11,108,3360026,,,,,,,2025-03-13,1,,,,,ゼスト,0
397,2030003026310,新規,0,2025-03-13,2025-03-13,合同会社インセンスシーディング,,合同会社,埼玉県,さいたま市桜区,栄和３丁目１７番１－６０５号,,11,106,3380823,,,,,,,2025-03-13,1,,,,,インセンスシーディング,0
398,2030003026327,新規,0,2025-03-13,2025-03-13,合同会社Ｅｓｐｒｉｔ９,,合同会社,埼玉県,さいたま市南区,内谷７丁目１９－７－２,,11,108,3360034,,,,,,,2025-03-13,1,,,,,エスプリヌフ,0
404,2040001137785,新規,0,2025-03-13,2025-03-13,望叶株式会社,,株式会社,千葉県,千葉市若葉区,加曽利町１０６３－１３,,12,104,2640017,,,,,,,2025-03-13,1,,,,,ミカナ,0
405,2040001137793,新規,0,2025-03-13,2025-03-13,栄富株式会社,,株式会社,千葉県,千葉市美浜区,高浜３丁目５番２８棟４０４号,,12,106,2610003,,,,,,,2025-03-13,1,,,,,エイトミ,0
410,2070001042710,新規,0,2025-03-13,2025-03-13,ＷＡＬＯ　ＷＡＬＯ　Ｃｏｍｐａｎｙ株式会社,,株式会社,群馬県,高崎市,寄合町１４番地１,,10,202,3700822,,,,,,,2025-03-13,1,,,,,ワロワロカンパニー,0
413,2080003003412,新規,0,2025-03-13,2025-03-13,合同会社ゆうは,,合同会社,静岡県,島田市,阪本１５０４番地の３２,,22,209,4270111,,,,,,,2025-03-13,1,,,,,ユウハ,0
414,2080101025374,新規,0,2025-03-13,2025-03-13,株式会社Ｆｒｅｅ６Ｓ,,株式会社,静岡県,下田市,須崎１５６５番地の８,,22,219,4150014,,,,,,,2025-03-13,1,,,,,フリーシックス,0
415,2080401027806,新規,0,2025-03-13,2025-03-13,レッツゴー建設株式会社,,株式会社,静岡県,浜松市天竜区,大谷２４番地の３,,22,140,4313305,,,,,,,2025-03-13,1,,,,,レッツゴーケンセツ,0
428,2120001273449,新規,0,2025-03-13,2025-03-13,株式会社ＢＲＩＧＨＴ　ＦＵＴＵＲＥ,,株式会社,大阪府,枚方市,招提元町２丁目５番１３号,,27,210,5731133,,,,,,,2025-03-13,1,,,,,ブライトフューチャー,0
429,2120001273556,新規,0,2025-03-13,2025-03-13,株式会社愛和商会,,株式会社,大阪府,大阪市東淀川区,下新庄３丁目９番２５－７０８号,,27,114,5330021,,,,,,,2025-03-13,1,,,,,アイワショウカイ,0
430,2120001273572,新規,0,2025-03-13,2025-03-13,株式会社心安,,株式会社,大阪府,大阪市西成区,橘１丁目１１－２８－５１０,,27,122,5570051,,,,,,,2025-03-13,1,,,,,シンアン,0
431,2120001273597,新規,0,2025-03-13,2025-03-13,株式会社Ｊ・Ｘ,,株式会社,大阪府,大阪市生野区,鶴橋２丁目１４番２－１０２号室,,27,116,5440031,,,,,,,2025-03-13,1,,,,,ジェイエックス,0
432,2120001273606,新規,0,2025-03-13,2025-03-13,株式会社カネカイ産業,,株式会社,大阪府,大阪市大正区,三軒家西３丁目４番１６号中山ビル４０４Ａ,,27,108,5510001,,,,,,,2025-03-13,1,,,,,カネカイサンギョウ,0
433,2120001273614,新規,0,2025-03-13,2025-03-13,株式会社三宮,,株式会社,大阪府,寝屋川市,大利町１６番２３号,,27,215,5720048,,,,,,,2025-03-13,1,,,,,サンノミヤ,0
439,2120101071216,新規,0,2025-03-13,2025-03-13,柳瀬興業株式会社,,株式会社,大阪府,泉佐野市,日根野１６９１番地の１,,27,213,5980021,,,,,,,2025-03-13,1,,,,,ヤナセコウギョウ,0
442,2120901050583,新規,0,2025-03-13,2025-03-13,株式会社ＳＭＡＲＴ,,株式会社,大阪府,茨木市,西福井３丁目１９番７号の２２,,27,211,5670067,,,,,,,2025-03-13,1,,,,,スマート,0
443,2120901050591,新規,0,2025-03-13,2025-03-13,株式会社Ｑ‐ｗｅｌｌ,,株式会社,大阪府,摂津市,南千里丘５番１３－１７０７号,,27,224,5660021,,,,,,,2025-03-13,1,,,,,キューウェル,0
445,2122001038971,新規,0,2025-03-13,2025-03-13,小龍運株式会社,,株式会社,大阪府,東大阪市,若江西新町４丁目６番１０－３０２号,,27,227,5780944,,,,,,,2025-03-13,1,,,,,ショウリュウウン,0
450,2130001079218,新規,0,2025-03-13,2025-03-13,福汐株式会社,,株式会社,京都府,京都市東山区,渋谷通東大路東入３丁目上馬町５４０番地３Ｆ,,26,105,6050927,,,,,,,2025-03-13,1,,,,,フクシオ,0
453,2130003010287,新規,0,2025-03-13,2025-03-13,合同会社ヒルズ,,合同会社,京都府,京都市中京区,西ノ京上合町２番地,,26,104,6048484,,,,,,,2025-03-13,1,,,,,ヒルズ,0
454,2140001137692,新規,0,2025-03-13,2025-03-13,株式会社ぶるどる,,株式会社,兵庫県,宍粟市,山崎町段８５８－２,,28,227,6712552,,,,,,,2025-03-13,1,,,,,,0
461,2180001165847,新規,0,2025-03-13,2025-03-13,株式会社ケイリープロ,,株式会社,愛知県,一宮市,妙興寺２丁目１番１５号サンコービル３階,,23,203,4910921,,,,,,,2025-03-13,1,,,,,ケイリープロ,0
462,2180001165863,新規,0,2025-03-13,2025-03-13,株式会社竹,,株式会社,愛知県,あま市,下萱津九反田５８番地・メゾンパドトロワ１Ｆ・Ｓｑｕａｒｅ,,23,237,4901114,,,,,,,2025-03-13,1,,,,,タケ,0
463,2180001165962,新規,0,2025-03-13,2025-03-13,株式会社Ｋ１,,株式会社,愛知県,名古屋市千種区,今池南２９番１６号,,23,101,4640851,,,,,,,2025-03-13,1,,,,,ケイワン,0
466,2190001032063,新規,0,2025-03-13,2025-03-13,株式会社伊勢乃,,株式会社,三重県,四日市市,垂坂町３９３番地６,,24,202,5108037,,,,,,,2025-03-13,1,,,,,イセノ,0
468,2200001043521,新規,0,2025-03-13,2025-03-13,株式会社小舟ＮＥＸＴ,,株式会社,岐阜県,高山市,花里町６丁目６－９,,21,203,5060026,,,,,,,2025-03-13,1,,,,,コフネネクスト,0
469,2200003006724,新規,0,2025-03-13,2025-03-13,合同会社Ｔｏｏｎｅ,,合同会社,岐阜県,大垣市,荒川町４７３番地２,,21,202,5030993,,,,,,,2025-03-13,1,,,,,トーン,0
474,2240001064638,新規,0,2025-03-13,2025-03-13,株式会社光星産業,,株式会社,広島県,福山市,古野上町９番２２号,,34,207,7200817,,,,,,,2025-03-13,1,,,,,コウセイサンギョウ,0
475,2240003007108,新規,0,2025-03-13,2025-03-13,Ｍａｒ　Ｍａｒｋｅｔ　Ｊａｐａｎ合同会社,,合同会社,広島県,広島市安佐北区,小河原町１３４３番地２２,,34,106,7391754,,,,,,,2025-03-13,1,,,,,マールマーケットジャパン,0
477,2250001021043,新規,0,2025-03-13,2025-03-13,株式会社プラスデー,,株式会社,山口県,山口市,赤妻町１２番４１号,,35,203,7530067,,,,,,,2025-03-13,1,,,,,プラスデー,0
479,2250003003667,新規,0,2025-03-13,2025-03-13,脱炭人合同会社,,合同会社,山口県,下関市,綾羅木南町３丁目２－１,,35,201,7510848,,,,,,,2025-03-13,1,,,,,ダッタンジン,0
487,2290001109256,新規,0,2025-03-13,2025-03-13,株式会社アクティヴエンターテイメント,,株式会社,福岡県,福岡市東区,土井４丁目１０番２号,,40,131,8130032,,,,,,,2025-03-13,1,,,,,,0
488,2290803004992,新規,0,2025-03-13,2025-03-13,ＵＮＯＢＡ合同会社,,合同会社,福岡県,北九州市小倉南区,企救丘６丁目１４－２,,40,107,8020981,,,,,,,2025-03-13,1,,,,,ウノバ,0
489,2300001014116,新規,0,2025-03-13,2025-03-13,株式会社山浩さきに陶舎,,株式会社,佐賀県,西松浦郡有田町,本町丙１５３０番地２３,,41,401,8440018,,,,,,,2025-03-13,1,,,,,ヤマヒロサキニトウシャ,0
490,2300003002242,新規,0,2025-03-13,2025-03-13,合同会社ＲＡＴＩＯＮＡＬ,,合同会社,佐賀県,三養基郡上峰町,大字坊所２１１３番地１４,,41,345,8490123,,,,,,,2025-03-13,1,,,,,ラショナル,0
493,2320001020995,新規,0,2025-03-13,2025-03-13,向月株式会社,,株式会社,大分県,佐伯市,駅前１丁目７番１号,,44,205,8760803,,,,,,,2025-03-13,1,,,,,,0
496,2330003010894,新規,0,2025-03-13,2025-03-13,合同会社モヤイ,,合同会社,熊本県,熊本市東区,三郎１丁目１４番２４号クレセントコーポ２０２,,43,102,8620922,,,,,,,2025-03-13,1,,,,,モヤイ,0
501,2360001034918,新規,0,2025-03-13,2025-03-13,仲村建装株式会社,,株式会社,沖縄県,豊見城市,字根差部５８７番地,,47,212,9010205,,,,,,,2025-03-13,1,,,,,ナカムラケンソウ,0
504,2370001052357,新規,0,2025-03-13,2025-03-13,株式会社ＯＤＡ,,株式会社,宮城県,大崎市,古川西荒井字東田３４４番地５フラットファイネストＩＩＩ２０１号,00138331,04,215,9896133,,,,,,,2025-03-13,1,,,,,オダ,0
506,2380001035154,新規,0,2025-03-13,2025-03-13,株式会社ＪＭＭ,,株式会社,福島県,本宮市,荒井字瀬戸田１１１番地５,,07,214,9691104,,,,,,,2025-03-13,1,,,,,ジェイエムエム,0
507,2380001035162,新規,0,2025-03-13,2025-03-13,株式会社はなまめ,,株式会社,福島県,東白川郡鮫川村,大字赤坂西野字塩倉８８番地,,07,484,9638407,,,,,,,2025-03-13,1,,,,,ハナマメ,0
516,2430001093857,新規,0,2025-03-13,2025-03-13,株式会社ＹＥＥＮ,,株式会社,北海道,石狩市,緑苑台東三条３丁目８０番地,,01,235,0613223,,,,,,,2025-03-13,1,,,,,ワイイーイーエヌ,0
517,2430001093865,新規,0,2025-03-13,2025-03-13,株式会社リフレイム,,株式会社,北海道,千歳市,清流３丁目７番１号,,01,224,0660081,,,,,,,2025-03-13,1,,,,,リフレイム,0
518,2430001093881,新規,0,2025-03-13,2025-03-13,株式会社ＳＳＳ,,株式会社,北海道,札幌市北区,北二十九条西９丁目２番１８号エスポアール１０２号,,01,102,0010029,,,,,,,2025-03-13,1,,,,,スリーエス,0
519,2430001093915,新規,0,2025-03-13,2025-03-13,株式会社ティーツーソリューションズ,,株式会社,北海道,札幌市豊平区,平岸五条９丁目４番６号ボンズベルク１０３号,,01,105,0620935,,,,,,,2025-03-13,1,,,,,ティーツーソリューションズ,0
522,2430003017368,新規,0,2025-03-13,2025-03-13,合同会社ｍｕｇｉｎｏｈｏ,,合同会社,北海道,札幌市中央区,北四条西２４丁目２番１－１００７号,,01,101,0640824,,,,,,,2025-03-13,1,,,,,ムギノホ,0
523,2430003017376,新規,0,2025-03-13,2025-03-13,合同会社ノットメント,,合同会社,北海道,札幌市北区,新琴似七条９丁目５－１５七番街ビル１階,,01,102,0010907,,,,,,,2025-03-13,1,,,,,ノットメント,0
524,2430003017384,新規,0,2025-03-13,2025-03-13,合同会社ＦＥＲＮＡ,,合同会社,北海道,札幌市中央区,南六条西１８丁目１番１３号,,01,101,0640806,,,,,,,2025-03-13,1,,,,,フェルナ,0
526,2470001020626,新規,0,2025-03-13,2025-03-13,株式会社ｃａｔ　ｂｕｄｄｙ,,株式会社,香川県,さぬき市,鴨庄３３４９番地,,37,206,7692102,,,,,,,2025-03-13,1,,,,,キャットバディ,0
527,2500001026198,新規,0,2025-03-13,2025-03-13,ルストＪＪ株式会社,,株式会社,愛媛県,松山市,大街道３丁目２番地３３,,38,201,7900004,,,,,,,2025-03-13,1,,,,,ルストジェイジェイ,0
530,2700150121713,新規,0,2025-03-13,2025-03-13,Ｊｉａｘｉｎｇ　Ｈａｎｘｉｎ　Ｔｒａｄｉｎｇ　Ｃｏ．，Ｌｔｄ,,外国会社等,,,,,,,,Ｎｏ．４１７１－２７　Ｒ＆Ｄ　Ｂｕｉｌｄｉｎｇ　Ｎｏ．１９８　Ｑｉｎ’ａｎ　Ｒｏａｄ，　Ｃａｏｑｉａｏ　Ｓｔｒｅｅ　Ｊｉａｘｉｎｇ　Ｚｈｅｊｉａｎｇ　３１４２００　ＣＮ,,,,,,2025-03-13,1,,,,,ジャンシンハンシントレーディングカンパニーリミテッド,0
531,2700150128329,新規,0,2025-03-13,2025-03-13,ｈａｅｒｂｉｎｈｅｎｇｍａｏｓｈｅｎｇｍａｏｙｉｙｏｕｘｉａｎｇｏｎｇｓｉ,,外国会社等,,,,,,,,ｌｉｍｉｎｋａｉｆａｑｕｌｉｍｉｎｄａｄａｏ　ｄｏｎｇｙｕａｎｊｉａｔｕｎｇａｉｚａｏｓｉｑｉｇｏｎｇｃｈｅｎｇＤ－Ｂ１２ｄｏｎｇ１ｄａｎｙｕａｎ１ｃｅｎｇ６ｈａｏｈａｅｒｂｉｎｇｓｈｉ　ｈｅｉｌｏｎｇｊｉａｎｇｓｈｅｎｇ,,,,,,2025-03-13,1,,,,,ハルビンヘンマオシエントレーテイングカンパニリミテツド,0
541,3010001252867,新規,0,2025-03-13,2025-03-13,株式会社ＮＫアニメーション,,株式会社,東京都,文京区,本郷３丁目２８番１２号,,13,105,1130033,,,,,,,2025-03-13,1,,,,,エヌケーアニメーション,0
542,3010001253007,新規,0,2025-03-13,2025-03-13,株式会社ＦｉｎＴｒｕｓｔ,,株式会社,東京都,中央区,銀座１丁目１２番４号Ｎ＆Ｅビル６Ｆ,,13,102,1040061,,,,,,,2025-03-13,1,,,,,フィントラスト,0
543,3010001253155,新規,0,2025-03-13,2025-03-13,ボンドアセットジャパン株式会社,,株式会社,東京都,千代田区,丸の内１丁目８番３号丸の内トラストタワー本館２０階,,13,101,1000005,,,,,,,2025-03-13,1,,,,,ボンドアセットジャパン,0
547,3010003046697,新規,0,2025-03-13,2025-03-13,合同会社ｓｅｎｅｃａ,,合同会社,東京都,中央区,日本橋室町１丁目１１番１２号日本橋水野ビル７階,,13,102,1030022,,,,,,,2025-03-13,1,,,,,セネカ,0
548,3010003046722,新規,0,2025-03-13,2025-03-13,合同会社ギガバイト後楽園,,合同会社,東京都,中央区,京橋２丁目１２番６号ＡＯＪ税理士法人内,,13,102,1040031,,,,,,,2025-03-13,1,,,,,ギガバイトコウラクエン,0
549,3010005039716,新規,0,2025-03-13,2025-03-13,外国法事務弁護士法人アルファプラス,,その他の設立登記法人,東京都,千代田区,有楽町１丁目７番１有楽町電気ビルヂング北館１２０３,,13,101,1000006,,,,,,,2025-03-13,1,,,,,アルファプラス,0
550,3010101016560,新規,0,2025-03-13,2025-03-13,つかさ通信株式会社,,株式会社,東京都,八王子市,石川町２４５３番地１,,13,201,1920032,,,,,,,2025-03-13,1,,,,,ツカサツウシン,0
557,3010401188843,新規,0,2025-03-13,2025-03-13,ゼファーウィンドファーム２号株式会社,,株式会社,東京都,港区,海岸１丁目９番１８号,,13,103,1050022,,,,,,,2025-03-13,1,,,,,ゼファーウィンドファームニゴウ,0
560,3010403034582,新規,0,2025-03-13,2025-03-13,あさまインベストメント合同会社,,合同会社,東京都,港区,芝浦１丁目６番４１－２８１６号,,13,103,1050023,,,,,,,2025-03-13,1,,,,,アサマインベストメント,0
566,3010601066931,新規,0,2025-03-13,2025-03-13,株式会社ＡＵＧＥ,,株式会社,東京都,江東区,南砂５丁目１９番３号,,13,108,1360076,,,,,,,2025-03-13,1,,,,,アウヘ,0
567,3010601066948,新規,0,2025-03-13,2025-03-13,株式会社ＳＫＹＴＯ,,株式会社,東京都,江東区,大島１丁目２２番３号チェスナット西大島１０２号室,,13,108,1360072,,,,,,,2025-03-13,1,,,,,スカイト,0
569,3010701047377,新規,0,2025-03-13,2025-03-13,株式会社Ｈ・Ｙ,,株式会社,東京都,品川区,東五反田１丁目２３－６ロゼビル５階Ｂ,,13,109,1410022,,,,,,,2025-03-13,1,,,,,エイチワイ,0
570,3010701047419,新規,0,2025-03-13,2025-03-13,株式会社アナザーページ・ワン,,株式会社,東京都,品川区,二葉４丁目２４番１号,,13,109,1420043,,,,,,,2025-03-13,1,,,,,アナザーページワン,0
573,3010901056979,新規,0,2025-03-13,2025-03-13,桜エステート株式会社,,株式会社,東京都,世田谷区,祖師谷５丁目２６－３,,13,112,1570072,,,,,,,2025-03-13,1,,,,,サクラエステート,0
574,3010901057003,新規,0,2025-03-13,2025-03-13,株式会社ＫＨ,,株式会社,東京都,世田谷区,太子堂２丁目２番１号,,13,112,1540004,,,,,,,2025-03-13,1,,,,,ケーエイチ,0
580,3011001168194,新規,0,2025-03-13,2025-03-13,ソースアップ株式会社,,株式会社,東京都,渋谷区,神南１丁目１１－４ＦＰＧリンクス神南５階,,13,113,1500041,,,,,,,2025-03-13,1,,,,,ソースアップ,0
581,3011001168228,新規,0,2025-03-13,2025-03-13,株式会社ＵＮＩＳＴＡＹ,,株式会社,東京都,渋谷区,本町２丁目３９番１７号,,13,113,1510071,,,,,,,2025-03-13,1,,,,,,0
582,3011001168343,新規,0,2025-03-13,2025-03-13,株式会社アドクラ,,株式会社,東京都,渋谷区,道玄坂１丁目１０番８号渋谷道玄坂東急ビル２Ｆ―Ｃ,,13,113,1500043,,,,,,,2025-03-13,1,,,,,アドクラ,0
583,3011001168368,新規,0,2025-03-13,2025-03-13,ベストメンバー株式会社,,株式会社,東京都,渋谷区,道玄坂１丁目１０番８号渋谷道玄坂東急ビル２Ｆ－Ｃ,,13,113,1500043,,,,,,,2025-03-13,1,,,,,ベストメンバー,0
584,3011005010906,新規,0,2025-03-13,2025-03-13,一般社団法人日本道教協会,,その他の設立登記法人,東京都,渋谷区,千駄ヶ谷２丁目１番８号Ｂａｒｂｉｚｏｎ８番館９階,,13,113,1510051,,,,,,,2025-03-13,1,,,,,ニホンドウキョウキョウカイ,0
585,3011005010930,新規,0,2025-03-13,2025-03-13,一般社団法人美奏会,,その他の設立登記法人,東京都,渋谷区,恵比寿４丁目４番８号第１伊藤ビル６階,,13,113,1500013,,,,,,,2025-03-13,1,,,,,ビソウカイ,0
588,3011101110956,新規,0,2025-03-13,2025-03-13,株式会社ＥＬＥＶＡＴＥ,,株式会社,東京都,新宿区,新宿２丁目１１－２カーサ・ヴェルデ６０２,,13,104,1600022,,,,,,,2025-03-13,1,,,,,エレベート,0
589,3011101110964,新規,0,2025-03-13,2025-03-13,株式会社Ｅｎｇａｇｅ,,株式会社,東京都,新宿区,市谷船河原町１番市ヶ谷エスワンビル５Ｆ,,13,104,1620826,,,,,,,2025-03-13,1,,,,,エンゲージ,0
590,3011101110972,新規,0,2025-03-13,2025-03-13,ジャパン介護ラボラトリー株式会社,,株式会社,東京都,新宿区,西新宿３丁目３番１３号西新宿水間ビル６階,,13,104,1600023,,,,,,,2025-03-13,1,,,,,ジャパンカイゴラボラトリー,0
591,3011101111013,新規,0,2025-03-13,2025-03-13,株式会社マイクロインサイト,,株式会社,東京都,新宿区,西新宿６丁目５番１号新宿アイランドタワー２階,,13,104,1600023,,,,,,,2025-03-13,1,,,,,マイクロインサイト,0
594,3011103015625,新規,0,2025-03-13,2025-03-13,合同会社テクノポリスセンター,,合同会社,東京都,新宿区,四谷２丁目９番地１５東京ユナイテッド綜合事務所内,,13,104,1600004,,,,,,,2025-03-13,1,,,,,テクノポリスセンター,0
596,3011105011366,新規,0,2025-03-13,2025-03-13,一般社団法人ＴＰＣ,,その他の設立登記法人,東京都,新宿区,四谷２丁目９番地１５東京ユナイテッド綜合事務所内,,13,104,1600004,,,,,,,2025-03-13,1,,,,,ティーピーシー,0
597,3011201026185,新規,0,2025-03-13,2025-03-13,三祐不動産株式会社,,株式会社,東京都,中野区,若宮２丁目３０番７号,,13,114,1650033,,,,,,,2025-03-13,1,,,,,サンユウフドウサン,0
598,3011201026193,新規,0,2025-03-13,2025-03-13,株式会社福祉サポート評価研究所,,株式会社,東京都,中野区,若宮１丁目５６番１－３０７号,,13,114,1650033,,,,,,,2025-03-13,1,,,,,フクシサポートヒョウカケンキュウジョ,0
600,3011401026910,新規,0,2025-03-13,2025-03-13,株式会社Ｌｉｅｎ　Ｇａｒａｇｅ,,株式会社,東京都,板橋区,高島平１丁目３８番１１号Ｋ２高島平ビル２０２号,,13,119,1750082,,,,,,,2025-03-13,1,,,,,リアンガレージ,0
605,3011705001881,新規,0,2025-03-13,2025-03-13,一般社団法人ｃｅｎｔｒａｌ経営者協会,,その他の設立登記法人,東京都,江戸川区,南葛西４丁目７番４号,,13,123,1340085,,,,,,,2025-03-13,1,,,,,セントラルケイエイシャキョウカイ,0
606,3011801045790,新規,0,2025-03-13,2025-03-13,未来ワーク株式会社,,株式会社,東京都,葛飾区,柴又３丁目１１－１１カエデ柴又２０４号室,,13,122,1250052,,,,,,,2025-03-13,1,,,,,ミライワーク,0
608,3012401042880,新規,0,2025-03-13,2025-03-13,株式会社ＡＳｆｕｔｕｒｅ,,株式会社,東京都,調布市,小島町２丁目１９番地２８,,13,208,1820026,,,,,,,2025-03-13,1,,,,,アズフューチャー,0
615,3020001161811,新規,0,2025-03-13,2025-03-13,株式会社Ｂｅｎ＆Ｒｉｃｋｙ,,株式会社,神奈川県,横浜市金沢区,能見台通２２番２号,,14,108,2360053,,,,,,,2025-03-13,1,,,,,ベンアンドリッキー,0
616,3020001161852,新規,0,2025-03-13,2025-03-13,株式会社Ｓｅｖｅｎ　Ｓｅａｓ　Ｄｉｎｉｎｇ,,株式会社,神奈川県,横浜市中区,山手町８４番地３－Ｆ５１１号室,,14,104,2310862,,,,,,,2025-03-13,1,,,,,セブンシーズダイニング,0
617,3020001161902,新規,0,2025-03-13,2025-03-13,Ｆｏｕｒ　Ｗａｙ　Ｂｅｔｔｅｒ　Ｈｏｌｄｉｎｇｓ株式会社,,株式会社,神奈川県,横浜市神奈川区,片倉２丁目６７番５号,,14,102,2210865,,,,,,,2025-03-13,1,,,,,フォーウェイベターホールディングス,0
623,3020003028018,新規,0,2025-03-13,2025-03-13,Ｄａｔａ　Ｍｏｓａｉｃ合同会社,,合同会社,神奈川県,横浜市神奈川区,金港町５－１４クアドリフォリオ８階,,14,102,2210056,,,,,,,2025-03-13,1,,,,,データモザイク,0
624,3020003028034,新規,0,2025-03-13,2025-03-13,合同会社にひと,,合同会社,神奈川県,横浜市中区,根岸町３丁目１９８番地２クオス横浜根岸森林公園４０１号室,,14,104,2310836,,,,,,,2025-03-13,1,,,,,ニヒト,0
625,3020003028042,新規,0,2025-03-13,2025-03-13,合同会社Ｔ・Ｈ,,合同会社,神奈川県,横浜市西区,浅間町１丁目４番地４第２小泉ビル２Ｂ,,14,103,2200072,,,,,,,2025-03-13,1,,,,,ティーエイチ,0
632,3021005013305,新規,0,2025-03-13,2025-03-13,医療法人秀成堂,,その他の設立登記法人,神奈川県,足柄上郡大井町,金子１６４３番地１,,14,362,2580019,,,,,,,2025-03-13,1,,,,,シュウセイドウ,0
640,3030001165349,新規,0,2025-03-13,2025-03-13,株式会社上尾ホーム,,株式会社,埼玉県,上尾市,富士見２丁目３番１４号,,11,219,3620041,,,,,,,2025-03-13,1,,,,,アゲオホーム,0
641,3030001165357,新規,0,2025-03-13,2025-03-13,株式会社関東リフォームプラス,,株式会社,埼玉県,戸田市,大字上戸田５番地の１（グリーンフォレスト戸田１２１号室）,,11,224,3350022,,,,,,,2025-03-13,1,,,,,カントウリフォームプラス,0
642,3030001165365,新規,0,2025-03-13,2025-03-13,株式会社さくら企画,,株式会社,埼玉県,鶴ヶ島市,大字五味ヶ谷１１番地４－２０２,,11,241,3502202,,,,,,,2025-03-13,1,,,,,サクラキカク,0
643,3030001165373,新規,0,2025-03-13,2025-03-13,株式会社グランテラスリゾート,,株式会社,埼玉県,川越市,大字安比奈新田１３０－１,,11,201,3501173,,,,,,,2025-03-13,1,,,,,グランテラスリゾート,0
644,3030001165398,新規,0,2025-03-13,2025-03-13,株式会社ティーエス・サービス,,株式会社,埼玉県,狭山市,大字中新田１６０番地の１７,,11,215,3501311,,,,,,,2025-03-13,1,,,,,ティーエスサービス,0
645,3030001165407,新規,0,2025-03-13,2025-03-13,ネクサスロジスティクス株式会社,,株式会社,埼玉県,さいたま市見沼区,東大宮５丁目３０番地１２,,11,104,3370051,,,,,,,2025-03-13,1,,,,,ネクサスロジスティクス,0
654,3030003026284,新規,0,2025-03-13,2025-03-13,星和合同会社,,合同会社,埼玉県,川口市,大字芝３７７３番地の２８,,11,203,3330866,,,,,,,2025-03-13,1,,,,,セイワ,0
655,3030003026292,新規,0,2025-03-13,2025-03-13,Ｂ５Ｃｏｎｓｕｌｔｉｎｇ合同会社,,合同会社,埼玉県,八潮市,大瀬４丁目８番地１,,11,234,3400822,,,,,,,2025-03-13,1,,,,,ビーファイブコンサルティング,0
656,3030003026318,新規,0,2025-03-13,2025-03-13,ＳＩＲＩＵＳ合同会社,,合同会社,埼玉県,さいたま市浦和区,本太３丁目２０－３１－２,,11,107,3300052,,,,,,,2025-03-13,1,,,,,シリウス,0
657,3030003026326,新規,0,2025-03-13,2025-03-13,合同会社ＴｈｒｅｅＥｄｇｅ,,合同会社,埼玉県,桶川市,坂田西３丁目１番地の１８,,11,231,3630018,,,,,,,2025-03-13,1,,,,,スリーエッジ,0
667,3070001042701,新規,0,2025-03-13,2025-03-13,株式会社ＬＯＣＬＥ,,株式会社,群馬県,前橋市,千代田町２丁目１０番２号ＣＯＭＭ,,10,201,3710022,,,,,,,2025-03-13,1,,,,,ロクル,0
668,3070001042718,新規,0,2025-03-13,2025-03-13,株式会社イクリプス,,株式会社,群馬県,高崎市,緑町４丁目１０番地１,,10,202,3700073,,,,,,,2025-03-13,1,,,,,イクリプス,0
671,3070003005813,新規,0,2025-03-13,2025-03-13,合同会社アイカコーポレーション,,合同会社,群馬県,太田市,吉沢町９５１番地１,,10,205,3730019,,,,,,,2025-03-13,1,,,,,アイカコーポレーション,0
672,3080101025373,新規,0,2025-03-13,2025-03-13,株式会社グローバルユニティ,,株式会社,静岡県,三島市,松本２６８‐７エムエスコーポ２０９,,22,206,4110822,,,,,,,2025-03-13,1,,,,,グローバルユニティ,0
675,3110001039107,新規,0,2025-03-13,2025-03-13,株式会社十日町ガーデニング,,株式会社,新潟県,十日町市,中条丁３１０,,15,210,9498611,,,,,,,2025-03-13,1,,,,,トウカマチガーデニング,0
686,3120001273530,新規,0,2025-03-13,2025-03-13,株式会社Ｎ．Ｗ．Ａ,,株式会社,大阪府,大阪市中央区,平野町１丁目７番７－１３０１号,,27,128,5410046,,,,,,,2025-03-13,1,,,,,エヌダブリューエー,0
687,3120001273596,新規,0,2025-03-13,2025-03-13,株式会社ＭＡＮＡ,,株式会社,大阪府,交野市,妙見東４丁目３番２６号,,27,230,5760012,,,,,,,2025-03-13,1,,,,,マナ,0
688,3120001273605,新規,0,2025-03-13,2025-03-13,諾翰投資管理株式会社,,株式会社,大阪府,大阪市中央区,谷町２丁目１番２２号Ｆａｉｒｓｔａｇｅ大手前ビル９０２－Ｃ,,27,128,5400012,,,,,,,2025-03-13,1,,,,,ノカントウシカンリ,0
689,3120001273613,新規,0,2025-03-13,2025-03-13,賢盛株式会社,,株式会社,大阪府,大阪市淀川区,十三東１丁目７番１９号,,27,123,5320023,,,,,,,2025-03-13,1,,,,,ケンセイ,0
690,3120001273893,新規,0,2025-03-13,2025-03-13,カネエトレイルズジャパン株式会社,,株式会社,大阪府,大阪市東淀川区,東中島２丁目１５番１９号,,27,114,5330033,,,,,,,2025-03-13,1,,,,,カネエトレイルズジャパン,0
699,3120105009979,新規,0,2025-03-13,2025-03-13,行政書士法人ライラック,,その他の設立登記法人,大阪府,松原市,阿保６丁目１２番３２号,,27,217,5800043,,,,,,,2025-03-13,1,,,,,ライラック,0
701,3120901050574,新規,0,2025-03-13,2025-03-13,株式会社Ｆａｍｉｌｙ,,株式会社,大阪府,茨木市,沢良宜西１丁目２番１４号大弘沢良宜ビル３－Ａ,,27,211,5670868,,,,,,,2025-03-13,1,,,,,ファミリー,0
702,3120901050582,新規,0,2025-03-13,2025-03-13,株式会社Ｆｏｌｌｏｗ,,株式会社,大阪府,吹田市,垂水町３丁目１４番１９号,,27,205,5640062,,,,,,,2025-03-13,1,,,,,フォロー,0
705,3130001079183,新規,0,2025-03-13,2025-03-13,株式会社白木協栄建装,,株式会社,京都府,八幡市,八幡植松２５－４２,,26,210,6148076,,,,,,,2025-03-13,1,,,,,シラキキョウエイケンソウ,0
712,3140001137675,新規,0,2025-03-13,2025-03-13,カラコ株式会社,,株式会社,兵庫県,伊丹市,西台２丁目７番３－９０４号,,28,207,6640858,,,,,,,2025-03-13,1,,,,,カラコ,0
716,3140003021761,新規,0,2025-03-13,2025-03-13,ネスティファイ合同会社,,合同会社,兵庫県,加古郡播磨町,北本荘３丁目８番２５号２０２,,28,382,6750144,,,,,,,2025-03-13,1,,,,,ネスティファイ,0
719,3160001026612,新規,0,2025-03-13,2025-03-13,株式会社ＴＷＯ　ＬＥＡＰ,,株式会社,滋賀県,長浜市,一の宮町２番３５号,,25,203,5260051,,,,,,,2025-03-13,1,,,,,トゥーリープ,0
722,3180001165854,新規,0,2025-03-13,2025-03-13,株式会社マリノシステムズ,,株式会社,愛知県,名古屋市名東区,上社４丁目４５番地の１,,23,115,4650025,,,,,,,2025-03-13,1,,,,,マリノシステムズ,0
723,3180001165862,新規,0,2025-03-13,2025-03-13,株式会社フィックスホーム,,株式会社,愛知県,名古屋市港区,大西３丁目８１番地の１ワークベース５－Ｂ,,23,111,4550861,,,,,,,2025-03-13,1,,,,,フィックスホーム,0
724,3180001165870,新規,0,2025-03-13,2025-03-13,株式会社リユースリンク,,株式会社,愛知県,名古屋市中区,栄３丁目７番４号トーシンサクラビル１０階,,23,106,4600008,,,,,,,2025-03-13,1,,,,,リユースリンク,0
725,3180001165887,新規,0,2025-03-13,2025-03-13,株式会社まなこみ,,株式会社,愛知県,名古屋市中村区,名駅３丁目２２番４号,,23,105,4500002,,,,,,,2025-03-13,1,,,,,マナコミ,0
726,3180001165920,新規,0,2025-03-13,2025-03-13,Ｔｅｔｒａ　ＭｅｄｉＸ株式会社,,株式会社,愛知県,名古屋市中村区,名駅１丁目１番１号ＪＰタワー名古屋２１階,,23,105,4500002,,,,,,,2025-03-13,1,,,,,テトラメディックス,0
730,3180303006483,新規,0,2025-03-13,2025-03-13,奏楽工房合同会社,,合同会社,愛知県,北設楽郡東栄町,大字下田字大下田１２６番地１,,23,562,4490206,,,,,,,2025-03-13,1,,,,,ソウガクコウボウ,0
731,3180303006491,新規,0,2025-03-13,2025-03-13,トンボワークス合同会社,,合同会社,愛知県,岡崎市,両町２丁目３５番地,,23,202,4440023,,,,,,,2025-03-13,1,,,,,トンボワークス,0
733,3190001032079,新規,0,2025-03-13,2025-03-13,株式会社コヤナギ,,株式会社,三重県,松阪市,大津町６４７番地３,,24,204,5150031,,,,,,,2025-03-13,1,,,,,コヤナギ,0
734,3200001043512,新規,0,2025-03-13,2025-03-13,株式会社シグナリオ,,株式会社,岐阜県,岐阜市,野一色２丁目５番地１５,,21,201,5008226,,,,,,,2025-03-13,1,,,,,シグナリオ,0
735,3200001043529,新規,0,2025-03-13,2025-03-13,株式会社Ａｓｓｅｔ　Ｂａｎｋ,,株式会社,岐阜県,羽島市,福寿町間島３丁目１２４番地－２０５号室,,21,209,5016251,,,,,,,2025-03-13,1,,,,,アセットバンク,0
737,3200005013734,新規,0,2025-03-13,2025-03-13,一般社団法人岐形会,,その他の設立登記法人,岐阜県,各務原市,三井町３丁目３番地２,,21,213,5040941,,,,,,,2025-03-13,1,,,,,ギケイカイ,0
739,3220001026548,新規,0,2025-03-13,2025-03-13,ビッグブリッジ株式会社,,株式会社,石川県,河北郡内灘町,白帆台２丁目１７８番地,,17,365,9200269,,,,,,,2025-03-13,1,,,,,ビッグブリッジ,0
740,3230001020789,新規,0,2025-03-13,2025-03-13,株式会社大間知,,株式会社,富山県,富山市,千石町２丁目７番２号,,16,201,9300066,,,,,,,2025-03-13,1,,,,,オオマチ,0
742,3250001021034,新規,0,2025-03-13,2025-03-13,株式会社ｄｏ,,株式会社,山口県,山口市,湯田温泉３丁目１番１５号湯田第一ビル３０５,,35,203,7530056,,,,,,,2025-03-13,1,,,,,ドゥ,0
743,3250001021050,新規,0,2025-03-13,2025-03-13,株式会社リル,,株式会社,山口県,山口市,小郡令和１丁目１番１号ＫＤＤＩ維新ホール１階,,35,203,7540041,,,,,,,2025-03-13,1,,,,,リル,0
746,3260001040009,新規,0,2025-03-13,2025-03-13,與七工業株式会社,,株式会社,岡山県,岡山市北区,建部町福渡５２２番地６,,33,101,7093111,,,,,,,2025-03-13,1,,,,,ヨシチコウギョウ,0
748,3280001009381,新規,0,2025-03-13,2025-03-13,株式会社テリオス,,株式会社,島根県,松江市,雑賀町１７６番地,,32,201,6900056,,,,,,,2025-03-13,1,,,,,テリオス,0
755,3290001109362,新規,0,2025-03-13,2025-03-13,トランスネット株式会社,,株式会社,福岡県,春日市,小倉１丁目８６番２,,40,218,8160824,,,,,,,2025-03-13,1,,,,,トランスネット,0
765,3340001027179,新規,0,2025-03-13,2025-03-13,株式会社モダンデザイン,,株式会社,鹿児島県,鹿屋市,旭原町２６１５－５,,46,203,8930022,,,,,,,2025-03-13,1,,,,,モダンデザイン,0
767,3340003004770,新規,0,2025-03-13,2025-03-13,合同会社ｕｍ,,合同会社,鹿児島県,鹿児島市,下荒田４丁目５４－３０,,46,201,8900056,,,,,,,2025-03-13,1,,,,,ユーエム,0
768,3340003004779,新規,0,2025-03-13,2025-03-13,ミヤノｐａｉｎｔ合同会社,,合同会社,鹿児島県,薩摩川内市,花木町１１番１号,,46,215,8950064,,,,,,,2025-03-13,1,,,,,ミヤノペイント,0
772,3360003014768,新規,0,2025-03-13,2025-03-13,ＥＭＩＬ合同会社,,合同会社,沖縄県,名護市,字宇茂佐１５０５番地５マンションカトレアＩＩＩ６０２,00138323,47,209,9050006,,,,,,,2025-03-13,1,,,,,エミール,0
775,3380001035145,新規,0,2025-03-13,2025-03-13,株式会社アグリファーム若木,,株式会社,福島県,河沼郡会津坂下町,大字宮古字中西７４番地,,07,421,9696522,,,,,,,2025-03-13,1,,,,,アグリファームワカキ,0
778,3390001017919,新規,0,2025-03-13,2025-03-13,リースターホールディングス株式会社,,株式会社,山形県,山形市,飯田西４丁目５番２２号グロースコート飯田ビル１Ｆ,,06,201,9902331,,,,,,,2025-03-13,1,,,,,リースターホールディングス,0
779,3400003003411,新規,0,2025-03-13,2025-03-13,Ｔｒｅｅｐ合同会社,,合同会社,岩手県,釜石市,小佐野町３丁目２番地２４４シェアヴィラやまとき,,03,211,0260052,,,,,,,2025-03-13,1,,,,,トリープ,0
791,3430001093880,新規,0,2025-03-13,2025-03-13,株式会社ＡＶＡＮＣＥ,,株式会社,北海道,札幌市西区,二十四軒四条５丁目１番８号ＳＡＫＵＲＡ－ＫＯＴＯＮＩ,,01,107,0630804,,,,,,,2025-03-13,1,,,,,アヴァンセ,0
792,3430001093889,新規,0,2025-03-13,2025-03-13,七宝グループ株式会社,,株式会社,北海道,札幌市中央区,南十三条西７丁目２－１－３０４,,01,101,0640913,,,,,,,2025-03-13,1,,,,,シッポウグループ,0
793,3430001093897,新規,0,2025-03-13,2025-03-13,株式会社砂原工業,,株式会社,北海道,札幌市北区,屯田四条７丁目２番５号粟生アパート２号,,01,102,0020854,,,,,,,2025-03-13,1,,,,,スナハラコウギョウ,0
794,3430003017383,新規,0,2025-03-13,2025-03-13,フルクーシュ合同会社,,合同会社,北海道,虻田郡倶知安町,南六条東３丁目２番地２６、０１,,01,400,0440016,,,,,,,2025-03-13,1,,,,,フルクーシュ,0
795,3430003017400,新規,0,2025-03-13,2025-03-13,フィフスアドバンス合同会社,,合同会社,北海道,石狩市,花川南一条２丁目２６５番地,,01,235,0613201,,,,,,,2025-03-13,1,,,,,フィフスアドバンス,0
798,3460301005285,新規,0,2025-03-13,2025-03-13,北縁ｂｒｉｄｇｅ株式会社,,株式会社,北海道,斜里郡斜里町,文光町３５番地１２,,01,545,0994116,,,,,,,2025-03-13,1,,,,,ホクエンブリッジ,0
799,3470005006612,新規,0,2025-03-13,2025-03-13,一般社団法人いきいきライフ協会丸亀,,その他の設立登記法人,香川県,丸亀市,山北町３８６番地５,,37,202,7630072,,,,,,,2025-03-13,1,,,,,イキイキライフキョウカイマルガメ,0
801,3490003001992,新規,0,2025-03-13,2025-03-13,合同会社ガジュマル,,合同会社,高知県,香美市,土佐山田町須江１５１番地３,,39,212,7820055,,,,,,,2025-03-13,1,,,,,ガジュマル,0
802,3500001026197,新規,0,2025-03-13,2025-03-13,株式会社軌橋,,株式会社,愛媛県,松山市,浅海原甲５９１番地,,38,201,7992401,,,,,,,2025-03-13,1,,,,,キキョウ,0
803,3700150122603,新規,0,2025-03-13,2025-03-13,Ｈａｎｇｚｈｏｕ　ｘｉｙｏｕ　Ｇａｒｍｅｎｔ　Ｃｏｍｐａｎｙ　Ｌｔｄ．,,外国会社等,,,,,,,,ｊｉａｎｇ　ｇａｎ　ｑｕ　ｊｉｕ　ｓｈｅｎｇ　ｌｕ　９　ｈａｏ　２５　ｃｈｕａｎｇ　Ｂ　ｚｕｏ　３　ｌｏｕ　３４２　ｓｈｉ　ｈａｎｇ　ｚｈｏｕ　ｊｉａｎｇ　ｇａｎ　ｚｈｅ　ｊｉａｎｇ　３１００１９　ＣＮ,,,,,,2025-03-13,1,,,,,ハンジョウシーヨウガーメントカンパニーリミテッド,0
804,3700150128328,新規,0,2025-03-13,2025-03-13,Ｗｉｎｄｓｏｒ　Ｐｒｏｐｅｌｌｅｒ　ＬＬＣ,,外国会社等,,,,,,,,３２１９　Ｍｏｎｉｅｒ　Ｃｉｒｃｌｅ，Ｒａｎｃｈｏ　Ｃｏｒｄｏｖａ，Ｃａｌｉｆｏｒｎｉａ，９５７４２　ＵＳＡ,,,,,,2025-03-13,1,,,,,ウインザープロペラエルエルシー,0
811,4010001252998,新規,0,2025-03-13,2025-03-13,株式会社メルテックホールディングス,,株式会社,東京都,中央区,日本橋蛎殻町１丁目３０番１１号ヨートービル３階,,13,102,1030014,,,,,,,2025-03-13,1,,,,,メルテックホールディングス,0
812,4010001253006,新規,0,2025-03-13,2025-03-13,株式会社ＰｒｉｍｅＶｉｓｉｏｎ,,株式会社,東京都,千代田区,神田和泉町１番地６－１６ヤマトビル４０５,,13,101,1010024,,,,,,,2025-03-13,1,,,,,プライムビジョン,0
818,4010401188818,新規,0,2025-03-13,2025-03-13,株式会社ＳＳエステート,,株式会社,東京都,港区,港南４丁目６番５－３００４号,,13,103,1080075,,,,,,,2025-03-13,1,,,,,エスエスエステート,0
819,4010401188842,新規,0,2025-03-13,2025-03-13,ゼファーウィンドファーム１号株式会社,,株式会社,東京都,港区,海岸１丁目９番１８号,,13,103,1050022,,,,,,,2025-03-13,1,,,,,ゼファーウィンドファームイチゴウ,0
820,4010401188859,新規,0,2025-03-13,2025-03-13,ＭＹ　ＳＨＩＰＰＩＮＧ　Ａｇｅｎｃｙ株式会社,,株式会社,東京都,港区,虎ノ門１丁目１番２１号新虎ノ門実業会館５Ｆ,,13,103,1050001,,,,,,,2025-03-13,1,,,,,マイシッピングエージェンシー,0
824,4010601066939,新規,0,2025-03-13,2025-03-13,株式会社ウブントゥ,,株式会社,東京都,江東区,潮見２丁目９番１６号,,13,108,1350052,,,,,,,2025-03-13,1,,,,,ウブントゥ,0
825,4010601066955,新規,0,2025-03-13,2025-03-13,ＧＯ　ＥＮＥＲＧＹ　ＡＬＬＩＡＮＣＥＳ　ＪＡＰＡＮ株式会社,,株式会社,東京都,墨田区,緑１丁目２２番８号,,13,107,1300021,,,,,,,2025-03-13,1,,,,,ゴーエナジーアライアンシズジャパン,0
826,4010603011430,新規,0,2025-03-13,2025-03-13,合同会社ＳｕｎＲｉｚｅ,,合同会社,東京都,江東区,豊洲５丁目１番１３号,,13,108,1350061,,,,,,,2025-03-13,1,,,,,サンライズ,0
827,4010701047384,新規,0,2025-03-13,2025-03-13,野村プランニング株式会社,,株式会社,東京都,品川区,西五反田２丁目１８番３－５１２号,,13,109,1410031,,,,,,,2025-03-13,1,,,,,ノムラプランニング,0
829,4010803005323,新規,0,2025-03-13,2025-03-13,ＶｅｒｓａＷｏｒｋｓ合同会社,,合同会社,東京都,大田区,蒲田４丁目２４－１４,,13,111,1440052,,,,,,,2025-03-13,1,,,,,バーサワークス,0
832,4010901056953,新規,0,2025-03-13,2025-03-13,株式会社１２００,,株式会社,東京都,世田谷区,三宿２丁目３８番７号鈴木ビル３０１,,13,112,1540005,,,,,,,2025-03-13,1,,,,,センニヒャク,0
833,4011003021235,新規,0,2025-03-13,2025-03-13,合同会社Ｂｅ‐ｉｍｍｏｒｔａｌｓ,,合同会社,東京都,渋谷区,上原３丁目２４番９号,,13,113,1510064,,,,,,,2025-03-13,1,,,,,ビーイモータルズ,0
838,4011101110880,新規,0,2025-03-13,2025-03-13,新建設グループ株式会社,,株式会社,東京都,新宿区,西新宿１丁目２６番２号新宿野村ビル３２階,,13,104,1600023,,,,,,,2025-03-13,1,,,,,シンケンセツグループ,0
839,4011101110988,新規,0,2025-03-13,2025-03-13,株式会社Ｂｏｌｅｓ,,株式会社,東京都,新宿区,西新宿３丁目３番１３号西新宿水間ビル６階,,13,104,1600023,,,,,,,2025-03-13,1,,,,,ボレス,0
841,4011103015649,新規,0,2025-03-13,2025-03-13,Ｂｉｚ　Ｃａｄｄｉｅ合同会社,,合同会社,東京都,新宿区,西新宿１丁目２０番３号,,13,104,1600023,,,,,,,2025-03-13,1,,,,,ビズキャディー,0
842,4011103015657,新規,0,2025-03-13,2025-03-13,みちのわ合同会社,,合同会社,東京都,新宿区,市谷台町１４番６号,,13,104,1620066,,,,,,,2025-03-13,1,,,,,ミチノワ,0
844,4011203004642,新規,0,2025-03-13,2025-03-13,合同会社ＤＨ,,合同会社,東京都,中野区,野方３丁目１５番９号,,13,114,1650027,,,,,,,2025-03-13,1,,,,,ディーエイチ,0
849,4011501031818,新規,0,2025-03-13,2025-03-13,株式会社理事会ドットコム,,株式会社,東京都,荒川区,西尾久８丁目４４番３０－８２２号コスモデュオスクエア,,13,118,1160011,,,,,,,2025-03-13,1,,,,,リジカイドットコム,0
851,4011801045798,新規,0,2025-03-13,2025-03-13,株式会社ＴＨＣ,,株式会社,東京都,足立区,千住３丁目６ツオード千住壱番館８０１,,13,121,1200034,,,,,,,2025-03-13,1,,,,,ティーエイチシー,0
852,4011803006732,新規,0,2025-03-13,2025-03-13,合同会社高源,00138326,合同会社,東京都,葛飾区,鎌倉１丁目２３番８－２０２号,,13,122,1250053,,,,,,,2025-03-13,1,,,,,タカゲン,0
854,4012703003217,新規,0,2025-03-13,2025-03-13,合同会社ひかり,,合同会社,東京都,小平市,学園東町１丁目４番４１－３０１号,,13,211,1870043,,,,,,,2025-03-13,1,,,,,ヒカリ,0
856,4012801023810,新規,0,2025-03-13,2025-03-13,株式会社ＭＹＬＯ,,株式会社,東京都,立川市,栄町５丁目１３番地の１２,,13,202,1900003,,,,,,,2025-03-13,1,,,,,,0
859,4013301053926,新規,0,2025-03-13,2025-03-13,ＮｅｔＣＨｕ株式会社,,株式会社,東京都,豊島区,高田３丁目７番１７号２０３号室,,13,116,1710033,,,,,,,2025-03-13,1,,,,,ネットチュー,0
862,4020001161769,新規,0,2025-03-13,2025-03-13,恵比寿ホールディングス株式会社,,株式会社,神奈川県,横浜市旭区,上白根町１１０７番地７,,14,112,2410001,,,,,,,2025-03-13,1,,,,,エビスホールディングス,0
863,4020001161810,新規,0,2025-03-13,2025-03-13,Ｏｒｉｅｎｔａｌ８株式会社,,株式会社,神奈川県,川崎市高津区,二子５丁目９番５号２階Ａ号室,,14,134,2130002,,,,,,,2025-03-13,1,,,,,オリエンタルエイト,0
864,4020001161819,新規,0,2025-03-13,2025-03-13,株式会社マラソン不動産,,株式会社,神奈川県,横浜市泉区,和泉町３１０２番地,,14,116,2450016,,,,,,,2025-03-13,1,,,,,マラソンフドウサン,0
865,4020001161835,新規,0,2025-03-13,2025-03-13,株式会社岡部断熱,,株式会社,神奈川県,川崎市高津区,久末１５９３番地６,,14,134,2130026,,,,,,,2025-03-13,1,,,,,オカベダンネツ,0
866,4020003027927,新規,0,2025-03-13,2025-03-13,合同会社向日葵カード,,合同会社,神奈川県,横浜市西区,伊勢町３丁目１４８－４波多野マンション２－２０２,,14,103,2200045,,,,,,,2025-03-13,1,,,,,ヒマワリカード,0
867,4020003028041,新規,0,2025-03-13,2025-03-13,合同会社ＬＩＦＥ　ＳＴＹＬＥ　ＬＡＢ,,合同会社,神奈川県,横浜市金沢区,富岡西３丁目２０－１,,14,108,2360052,,,,,,,2025-03-13,1,,,,,ライフスタイルラボ,0
870,4021001084679,新規,0,2025-03-13,2025-03-13,株式会社はなぶさホームサービス,,株式会社,神奈川県,藤沢市,辻堂１丁目３番１３号江戸惣ビル６階,,14,205,2510047,,,,,,,2025-03-13,1,,,,,ハナブサホームサービス,0
871,4021001084704,新規,0,2025-03-13,2025-03-13,株式会社江成板金,,株式会社,神奈川県,平塚市,幸町２５番地１０,,14,203,2540804,,,,,,,2025-03-13,1,,,,,エナリバンキン,0
872,4021001084712,新規,0,2025-03-13,2025-03-13,豊川商事株式会社,,株式会社,神奈川県,相模原市緑区,大島２７８１番地,,14,151,2520135,,,,,,,2025-03-13,1,,,,,トヨカワショウジ,0
873,4021001084720,新規,0,2025-03-13,2025-03-13,株式会社Ｂｅｙｏｎｄ　Ｔｒａｖｅｌｅｒｓ,,株式会社,神奈川県,相模原市中央区,上溝１３１５番地１８,,14,152,2520243,,,,,,,2025-03-13,1,,,,,ビヤンドトラベラーズ,0
876,4021003015723,新規,0,2025-03-13,2025-03-13,合同会社ａｎｄ　Ｐｅａｃｅ,,合同会社,神奈川県,茅ヶ崎市,旭が丘４番２５－２号,,14,207,2530026,,,,,,,2025-03-13,1,,,,,アンドピース,0
877,4021003015731,新規,0,2025-03-13,2025-03-13,合同会社黒田,,合同会社,神奈川県,鎌倉市,小袋谷２丁目２２－７,,14,204,2470055,,,,,,,2025-03-13,1,,,,,クロダ,0
881,4030001165240,新規,0,2025-03-13,2025-03-13,株式会社ＴＬＡＶＥ,,株式会社,埼玉県,川口市,大字安行原６６０番地４,,11,203,3340057,,,,,,,2025-03-13,1,,,,,トレイヴ,0
882,4030001165364,新規,0,2025-03-13,2025-03-13,株式会社ＳＴ‐Ｔｅｃ,,株式会社,埼玉県,朝霞市,大字上内間木３１９番地の１,,11,227,3510001,,,,,,,2025-03-13,1,,,,,エスティーテック,0
883,4030001165389,新規,0,2025-03-13,2025-03-13,株式会社ＡＵＲＡ工業,,株式会社,埼玉県,加須市,間口１９５７番地１,,11,210,3491145,,,,,,,2025-03-13,1,,,,,アウラコウギョウ,0
884,4030001165406,新規,0,2025-03-13,2025-03-13,Ｍａｕｎａ　Ｋｅａ株式会社,,株式会社,埼玉県,さいたま市北区,宮原町２丁目１８番地３クリーンシャインＩＩＩ８０１,00138319,11,102,3310812,,,,,,,2025-03-13,1,,,,,マウナケア,0
887,4030003026333,新規,0,2025-03-13,2025-03-13,Ｒｏｓｓｏ合同会社,,合同会社,埼玉県,入間市,大字新久８２０番地２８,,11,225,3580031,,,,,,,2025-03-13,1,,,,,ロッソ,0
888,4030003026341,新規,0,2025-03-13,2025-03-13,合同会社サントライ,,合同会社,埼玉県,さいたま市大宮区,桜木町２丁目３番地大宮マルイ７階,,11,103,3300854,,,,,,,2025-03-13,1,,,,,サントライ,0
892,4040001137783,新規,0,2025-03-13,2025-03-13,株式会社ＸＭ,,株式会社,千葉県,千葉市若葉区,中田町２３５７番地４４,,12,104,2650043,,,,,,,2025-03-13,1,,,,,エックスエム,0
897,4040003027025,新規,0,2025-03-13,2025-03-13,合同会社平成企画,,合同会社,千葉県,千葉市中央区,栄町２６番８号ロイヤルハイム千葉４０３号,,12,101,2600016,,,,,,,2025-03-13,1,,,,,ヘイセイキカク,0
905,4080101025364,新規,0,2025-03-13,2025-03-13,株式会社三島バナナ園,,株式会社,静岡県,三島市,川原ケ谷６２番地の３,,22,206,4110022,,,,,,,2025-03-13,1,,,,,ミシマバナナエン,0
911,4100001038397,新規,0,2025-03-13,2025-03-13,株式会社Ｙ’ｓ　Ｐｌａｎｎｉｎｇ,,株式会社,長野県,小県郡青木村,大字当郷１７０番地１,,20,349,3861603,,,,,,,2025-03-13,1,,,,,ワイズプランニング,0
915,4110001039106,新規,0,2025-03-13,2025-03-13,株式会社ＲＩＳＥ,,株式会社,新潟県,上越市,大字下荒浜８２番地４,,15,222,9420022,,,,,,,2025-03-13,1,,,,,ライズ,0
916,4110001039114,新規,0,2025-03-13,2025-03-13,株式会社イシダホーム,,株式会社,新潟県,南魚沼市,一村尾１８５９番地１,,15,226,9497316,,,,,,,2025-03-13,1,,,,,イシダホーム,0
925,4120001273488,新規,0,2025-03-13,2025-03-13,株式会社ＢＯＯ,,株式会社,大阪府,大阪市福島区,野田５丁目１０番２１号,,27,103,5530005,,,,,,,2025-03-13,1,,,,,ブー,0
926,4120001273587,新規,0,2025-03-13,2025-03-13,龍太株式会社,,株式会社,大阪府,大阪市天王寺区,上汐６丁目１番９－１０６号,,27,109,5430002,,,,,,,2025-03-13,1,,,,,リュウタ,0
927,4120001273595,新規,0,2025-03-13,2025-03-13,株式会社ＴｒｅｃＷｏｒｋｓ,,株式会社,大阪府,大阪市中央区,龍造寺町６番２－１１０１号,,27,128,5400014,,,,,,,2025-03-13,1,,,,,トレックワークス,0
928,4120001273604,新規,0,2025-03-13,2025-03-13,株式会社関健,,株式会社,大阪府,大阪市中央区,東平２丁目２番７号２０２室,,27,128,5420063,,,,,,,2025-03-13,1,,,,,カンケン,0
929,4120001273612,新規,0,2025-03-13,2025-03-13,株式会社Ｇｏｌｄ　Ｏｎｅ,,株式会社,大阪府,大阪市旭区,中宮４丁目８番２１号中島マンション３０３,,27,117,5350003,,,,,,,2025-03-13,1,,,,,ゴールドワン,0
930,4120001273653,新規,0,2025-03-13,2025-03-13,株式会社北浜事務所,,株式会社,大阪府,大阪市中央区,北浜１丁目８番１６号大阪証券取引所ビル１０階,,27,128,5410041,,,,,,,2025-03-13,1,,,,,キタハマジムショ,0
931,4120001273694,新規,0,2025-03-13,2025-03-13,ＦＬＥＵＲＳ株式会社,,株式会社,大阪府,大阪市中央区,大手前１丁目７番３１号ＯＭＭ１階ＳｅｒｖｉｃｅＯｆｆｉｃｅＷ天満橋,,27,128,5400008,,,,,,,2025-03-13,1,,,,,フルール,0
932,4120001273868,新規,0,2025-03-13,2025-03-13,株式会社光風,,株式会社,大阪府,大阪市淀川区,西中島６丁目１１番３１号,,27,123,5320011,,,,,,,2025-03-13,1,,,,,コウフウ,0
933,4120003028832,新規,0,2025-03-13,2025-03-13,合同会社ＳＯＢＡＮＩ,,合同会社,大阪府,大阪市北区,梅田２丁目５番１３号桜橋第一ビル３０４号,,27,127,5300001,,,,,,,2025-03-13,1,,,,,ソバニ,0
934,4120003028898,新規,0,2025-03-13,2025-03-13,合同会社オフィスＫＺ,,合同会社,大阪府,枚方市,長尾谷町３丁目２５番６号,,27,210,5730164,,,,,,,2025-03-13,1,,,,,オフィスケイゼット,0
938,4120903005583,新規,0,2025-03-13,2025-03-13,合同会社Ｗｅｂｅｂｕ,,合同会社,大阪府,高槻市,堤町２０番６号,,27,207,5690047,,,,,,,2025-03-13,1,,,,,エブエブ,0
940,4130001079199,新規,0,2025-03-13,2025-03-13,株式会社ＧｒａｃｅＨａｒｍｏｎｙ,,株式会社,京都府,京都市下京区,玉津島町２９４－３１８号室,,26,106,6008427,,,,,,,2025-03-13,1,,,,,グレースハーモニー,0
946,4140001137732,新規,0,2025-03-13,2025-03-13,株式会社シエンラボ,,株式会社,兵庫県,神戸市須磨区,潮見台町２丁目２番１６－１４２号,,28,107,6540075,,,,,,,2025-03-13,1,,,,,シエンラボ,0
947,4140001137815,新規,0,2025-03-13,2025-03-13,株式会社アイ・スマート,,株式会社,兵庫県,三木市,志染町西自由が丘２丁目１１９番地の２,,28,215,6730551,,,,,,,2025-03-13,1,,,,,,0
948,4140003021686,新規,0,2025-03-13,2025-03-13,合同会社エリート国際交流センター,,合同会社,兵庫県,神戸市北区,鈴蘭台東町３丁目２番１号,,28,109,6511112,,,,,,,2025-03-13,1,,,,,エリートコクサイコウリュウセンター,0
949,4140005027401,新規,0,2025-03-13,2025-03-13,一般社団法人保護猫ふみふみ,,その他の設立登記法人,兵庫県,尼崎市,宮内町１丁目１６番地,,28,202,6600877,,,,,,,2025-03-13,1,,,,,ホゴネコフミフミ,0
952,4160001026603,新規,0,2025-03-13,2025-03-13,株式会社Ｐａｒｔｈｅｎｏｎ　ＬＡＢＯ,,株式会社,滋賀県,大津市,粟津町１３番７－３０８号,,25,201,5200832,,,,,,,2025-03-13,1,,,,,パルテノンラボ,0
953,4160001026611,新規,0,2025-03-13,2025-03-13,株式会社青龍社,,株式会社,滋賀県,野洲市,久野部１８７－５－２０３,,25,210,5202353,,,,,,,2025-03-13,1,,,,,セイリュウシャ,0
955,4170001018533,新規,0,2025-03-13,2025-03-13,株式会社想送サポート,,株式会社,和歌山県,有田郡有田川町,大字徳田２９６番地１,,30,366,6430801,,,,,,,2025-03-13,1,,,,,ソウソウサポート,0
957,4180001165829,新規,0,2025-03-13,2025-03-13,株式会社Ｔｈｒｅｅ８電工,,株式会社,愛知県,あま市,七宝町伊福河原１０１番地６,,23,237,4970005,,,,,,,2025-03-13,1,,,,,スリーエイトデンコウ,0
958,4180001165845,新規,0,2025-03-13,2025-03-13,株式会社ＳＨＩＮＧＥＮ,,株式会社,愛知県,北名古屋市,法成寺蚊帳場１１番地,,23,234,4810039,,,,,,,2025-03-13,1,,,,,シンゲン,0
959,4180001165853,新規,0,2025-03-13,2025-03-13,株式会社ＰＣＳ,,株式会社,愛知県,名古屋市昭和区,広路本町４丁目１４番地の３,,23,107,4660841,,,,,,,2025-03-13,1,,,,,ピーシーエス,0
960,4180001165886,新規,0,2025-03-13,2025-03-13,株式会社かるんＰＣ,,株式会社,愛知県,名古屋市中村区,名駅３丁目２２番４号,,23,105,4500002,,,,,,,2025-03-13,1,,,,,カルンピーシー,0
961,4180003028083,新規,0,2025-03-13,2025-03-13,合同会社ＭＴＳ,,合同会社,愛知県,名古屋市名東区,極楽５丁目８番地サクセス極楽２０２号,,23,115,4650053,,,,,,,2025-03-13,1,,,,,エムティーエス,0
966,4190001032078,新規,0,2025-03-13,2025-03-13,株式会社龍の涙,,株式会社,三重県,名張市,栄町２８９１番地９,,24,208,5180719,,,,,,,2025-03-13,1,,,,,リュウノナミダ,0
967,4200001043528,新規,0,2025-03-13,2025-03-13,株式会社エムアンドワイ,,株式会社,岐阜県,羽島市,竹鼻町飯柄７３９番地,,21,209,5016233,,,,,,,2025-03-13,1,,,,,エムアンドワイ,0
968,4200003006730,新規,0,2025-03-13,2025-03-13,合同会社ＮＩＣＯ,,合同会社,岐阜県,可児市,川合８６４番地４,,21,214,5090201,,,,,,,2025-03-13,1,,,,,ニコ,0
969,4210001020096,新規,0,2025-03-13,2025-03-13,株式会社越前宝や,,株式会社,福井県,福井市,新田塚２丁目３４番１６号,,18,201,9100067,,,,,,,2025-03-13,1,,,,,エチゼンタカラヤ,0
970,4210003001895,新規,0,2025-03-13,2025-03-13,合同会社ラクラルテ,,合同会社,福井県,坂井市,丸岡町山口５４－４,,18,210,9100203,,,,,,,2025-03-13,1,,,,,ラクラルテ,0
974,4230001020788,新規,0,2025-03-13,2025-03-13,株式会社ＤＩＡＭＯＮＤ,,株式会社,富山県,富山市,布目８３３番地１,,16,201,9302233,,,,,,,2025-03-13,1,,,,,ダイヤモンド,0
977,4240001064628,新規,0,2025-03-13,2025-03-13,株式会社ＲＩＮＧＯ,,株式会社,広島県,福山市,南蔵王町５丁目１０番１４号,,34,207,7210973,,,,,,,2025-03-13,1,,,,,リンゴ,0
987,4270003001717,新規,0,2025-03-13,2025-03-13,ｈａｋｋｏｕ合同会社,,合同会社,鳥取県,境港市,渡町２２７５番地,,31,204,6840072,,,,,,,2025-03-13,1,,,,,ハッコウ,0
995,4290003016556,新規,0,2025-03-13,2025-03-13,ｂｙｏ合同会社,,合同会社,福岡県,福岡市中央区,春吉２丁目３－１９スプレンコート春吉６０２,,40,133,8100003,,,,,,,2025-03-13,1,,,,,ビーワイオー,0
996,4300003002240,新規,0,2025-03-13,2025-03-13,合同会社Ｔｈｉｎｇｓ,,合同会社,佐賀県,佐賀市,松原１丁目４番１３－８０４号,,41,201,8400831,,,,,,,2025-03-13,1,,,,,シングス,0
1002,4330003010892,新規,0,2025-03-13,2025-03-13,合同会社ポノア,,合同会社,熊本県,熊本市中央区,琴平１丁目１番６号,,43,101,8600813,,,,,,,2025-03-13,1,,,,,ポノア,0
1004,4340001027186,新規,0,2025-03-13,2025-03-13,株式会社まんぜん,,株式会社,鹿児島県,鹿児島市,山田町８８４番地６,,46,201,8910104,,,,,,,2025-03-13,1,,,,,マンゼン,0
1005,4340001027194,新規,0,2025-03-13,2025-03-13,株式会社ＳＫＹＳＩＤＥ,,株式会社,鹿児島県,姶良市,増田４３０番地１,,46,225,8995403,,,,,,,2025-03-13,1,,,,,スカイサイド,0
1010,4370001052355,新規,0,2025-03-13,2025-03-13,輝山株式会社,,株式会社,宮城県,仙台市太白区,八木山本町１丁目１３番５号ロワール八木山１０１号室,,04,104,9820801,,,,,,,2025-03-13,1,,,,,キザン,0
1011,4370003006978,新規,0,2025-03-13,2025-03-13,桜ホームズ合同会社,,合同会社,宮城県,仙台市青葉区,桜ケ丘６丁目３番１号,,04,101,9810961,,,,,,,2025-03-13,1,,,,,サクラホームズ,0
1013,4380001035136,新規,0,2025-03-13,2025-03-13,真和創建株式会社,,株式会社,福島県,郡山市,安積４丁目３３番地,,07,203,9630107,,,,,,,2025-03-13,1,,,,,シンワソウケン,0
1015,4380003005987,新規,0,2025-03-13,2025-03-13,ポルスター合同会社,,合同会社,福島県,郡山市,大町１丁目１４番１４号ラフィネス郡山９０２号,,07,203,9638001,,,,,,,2025-03-13,1,,,,,ポルスター,0
1019,4420001019051,新規,0,2025-03-13,2025-03-13,株式会社ｉｌｌｕｍｉｎａｔｅ,,株式会社,青森県,青森市,西滝３丁目２６―２フロール１階１号室,,02,201,0380014,,,,,,,2025-03-13,1,,,,,イルミネイト,0
1020,4420003003086,新規,0,2025-03-13,2025-03-13,合同会社ＡＲＡＴＡ,,合同会社,青森県,十和田市,東十一番町１４番８－２号,,02,206,0340013,,,,,,,2025-03-13,1,,,,,アラタ,0
1025,4430001093888,新規,0,2025-03-13,2025-03-13,株式会社ナギサ美装,,株式会社,北海道,札幌市清田区,美しが丘三条２丁目４番３号,,01,110,0040813,,,,,,,2025-03-13,1,,,,,ナギサビソウ,0
1026,4430001093913,新規,0,2025-03-13,2025-03-13,株式会社Ｍ’ｓ　ｂｙｗａｙ,,株式会社,北海道,札幌市中央区,大通西１１丁目４番地,,01,101,0600042,,,,,,,2025-03-13,1,,,,,エムズバイウェイ,0
1027,4430001093921,新規,0,2025-03-13,2025-03-13,株式会社亀吉堂,,株式会社,北海道,札幌市清田区,北野七条４丁目１６番２３号,,01,110,0040867,,,,,,,2025-03-13,1,,,,,カメキチドウ,0
1030,4430003017374,新規,0,2025-03-13,2025-03-13,合同会社マインドプランニング,,合同会社,北海道,札幌市東区,北三十七条東２８丁目３－１１,,01,103,0070837,,,,,,,2025-03-13,1,,,,,マインドプランニング,0
1031,4430003017390,新規,0,2025-03-13,2025-03-13,合同会社ＭＩＮＴ,,合同会社,北海道,札幌市豊平区,中の島一条１２丁目９番１号,,01,105,0620921,,,,,,,2025-03-13,1,,,,,ミント,0
1035,4470001020624,新規,0,2025-03-13,2025-03-13,株式会社中野工業,,株式会社,香川県,観音寺市,吉岡町６４５番地１,,37,205,7680021,,,,,,,2025-03-13,1,,,,,ナカノコウギョウ,0
1036,4470001020632,新規,0,2025-03-13,2025-03-13,株式会社ＩＭＡＩ,,株式会社,香川県,観音寺市,大野原町萩原１６２１番地２,,37,205,7691614,,,,,,,2025-03-13,1,,,,,,0
1041,4480001012769,新規,0,2025-03-13,2025-03-13,株式会社ＡＩＨＯＭＥ,,株式会社,徳島県,板野郡板野町,犬伏字蓮花谷５９番地,,36,404,7790108,,,,,,,2025-03-13,1,,,,,アイホーム,0
1042,4490003001991,新規,0,2025-03-13,2025-03-13,合同会社Ｌｉｎ．,,合同会社,高知県,香南市,野市町下井１２９７番地８,,39,211,7815235,,,,,,,2025-03-13,1,,,,,リン,0
1043,4500001026196,新規,0,2025-03-13,2025-03-13,株式会社吉本建設,,株式会社,愛媛県,南宇和郡愛南町,御荘和口３１９番地,,38,506,7984104,,,,,,,2025-03-13,1,,,,,ヨシモトケンセツ,0
1044,4700150123146,新規,0,2025-03-13,2025-03-13,ｓｈｅｎｚｈｅｎｓｈｉｓｈｕｆａｎｇｃｈｕａｎｇｘｉｎｊｉｓｈｕｙｏｕｘｉａｎｇｏｎｇｓｉ,,外国会社等,,,,,,,,ｌｏｎｇｈｕａｑｕｍｉｎｇｚｈｉｊｉｅｄａｏｄａｌｉｎｇｓｈｅｑｕ　ｍｅｉｌｏｎｇｌｕｙｕｚｈｏｎｇｍｅｉｌｕｊｉａｏｈｕｉｃｈｕｇｕａｎｇｈａｏｇｕｏｊｉｚｈｏｎｇｘｉｎＡｚｕｏ１４－Ｅ　Ｓｈｅｎｚｈｅｎ　Ｇｕａｎｇｄｏｎｇ　５１８０００　ＣＮ,,,,,,2025-03-13,1,,,,,シェンジェンシシューファンチュアンシンジシュヨウシエンゴンス,0
1056,5010001253046,新規,0,2025-03-13,2025-03-13,株式会社ソーシャルパス,,株式会社,東京都,中央区,佃１丁目１１番７－３２０３号,,13,102,1040051,,,,,,,2025-03-13,1,,,,,ソーシャルパス,0
1058,5010003046712,新規,0,2025-03-13,2025-03-13,茶畑ソーラー合同会社,,合同会社,東京都,中央区,京橋２丁目１２番６号ＡＯＪ税理士法人内,,13,102,1040031,,,,,,,2025-03-13,1,,,,,チャバタケソーラー,0
1059,5010003046729,新規,0,2025-03-13,2025-03-13,多奈川蓄電所合同会社,,合同会社,東京都,千代田区,丸の内１丁目４番１号東京共同会計事務所内,,13,101,1000005,,,,,,,2025-03-13,1,,,,,タナガワチクデンショ,0
1061,5010005039730,新規,0,2025-03-13,2025-03-13,医療法人社団文京春日こどもクリニック,,その他の設立登記法人,東京都,文京区,小石川１丁目５番１号パークコート文京小石川ザ・タワー３階３０４,,13,105,1120002,,,,,,,2025-03-13,1,,,,,ブンキョウカスガコドモクリニック,0
1062,5010005039739,新規,0,2025-03-13,2025-03-13,一般社団法人ＤＬ狭山日高,,その他の設立登記法人,東京都,千代田区,内神田１丁目３番７号４０１あすな会計事務所内,,13,101,1010047,,,,,,,2025-03-13,1,,,,,ディーエルサヤマヒダカ,0
1066,5010401188742,新規,0,2025-03-13,2025-03-13,株式会社ｆｒｏｍ　Ｂｌｕｅ,,株式会社,東京都,港区,白金台５丁目４番３－１０６号,,13,103,1080071,,,,,,,2025-03-13,1,,,,,フロムブルー,0
1067,5010401188932,新規,0,2025-03-13,2025-03-13,株式会社アルメガ,,株式会社,東京都,港区,赤坂３丁目１４番１号ＳＫビル,,13,103,1070052,,,,,,,2025-03-13,1,,,,,アルメガ,0
1074,5010601066946,新規,0,2025-03-13,2025-03-13,株式会社ＴＩＭＰＡＮＩ　ＨＯＭＥＳ,,株式会社,東京都,墨田区,千歳３丁目６－５プロス森下２０１,,13,107,1300025,,,,,,,2025-03-13,1,,,,,ティンパニーホームズ,0
1077,5010905004750,新規,0,2025-03-13,2025-03-13,一般社団法人ＪＥＴｓｙｓｔｅｍ矯正研究会,,その他の設立登記法人,東京都,世田谷区,奥沢５丁目２４番１０号,,13,112,1580083,,,,,,,2025-03-13,1,,,,,ジェットシステムキョウセイケンキュウカイ,0
1080,5011001168408,新規,0,2025-03-13,2025-03-13,株式会社Ｗａｉｒ　Ｓｏｌｕｔｉｏｎ,,株式会社,東京都,渋谷区,神宮前６丁目２３番４号桑野ビル２階,,13,113,1500001,,,,,,,2025-03-13,1,,,,,ウェアーソリューション,0
1081,5011001168498,新規,0,2025-03-13,2025-03-13,株式会社Ａｍａｚｉｎｇ,,株式会社,東京都,渋谷区,神宮前２丁目１２番１号ウェールビル２階,,13,113,1500001,,,,,,,2025-03-13,1,,,,,アメイジング,0
1086,5011101110946,新規,0,2025-03-13,2025-03-13,株式会社モカプロ,,株式会社,東京都,新宿区,百人町２丁目２７番７号ハンドレッドステイ東京新宿５０５号室,,13,104,1690073,,,,,,,2025-03-13,1,,,,,モカプロ,0
1087,5011101110962,新規,0,2025-03-13,2025-03-13,株式会社摂津ホールディングス,,株式会社,東京都,新宿区,西新宿１丁目２５番１号新宿センタービル４９階,,13,104,1600023,,,,,,,2025-03-13,1,,,,,セッツホールディングス,0
1088,5011101110970,新規,0,2025-03-13,2025-03-13,株式会社ＢＵＩＬＤ　ＮＥＸＴ,,株式会社,東京都,新宿区,西新宿４丁目１７－８－３０５,,13,104,1600023,,,,,,,2025-03-13,1,,,,,ビルドネクスト,0
1089,5011103015656,新規,0,2025-03-13,2025-03-13,合同会社ジェントナレッジ東京,,合同会社,東京都,新宿区,西新宿３丁目３番１３号西新宿水間ビル２Ｆ,,13,104,1600023,,,,,,,2025-03-13,1,,,,,ジェントナレッジトウキョウ,0
1093,5011301030432,新規,0,2025-03-13,2025-03-13,株式会社Ｍｉｒｒｏｒ．,,株式会社,東京都,杉並区,久我山４丁目１１番８号,,13,115,1680082,,,,,,,2025-03-13,1,,,,,ミラードット,0
1098,5011703004158,新規,0,2025-03-13,2025-03-13,合同会社リタ,,合同会社,東京都,江戸川区,南葛西２丁目１４番１９－６０４号レジデンスオークＩＩ,00138339,13,123,1340085,,,,,,,2025-03-13,1,,,,,リタ,0
1100,5011803006731,新規,0,2025-03-13,2025-03-13,合同会社フレッチャワークス,,合同会社,東京都,足立区,関原３丁目１５番８号メゾン大和２０２,,13,121,1230852,,,,,,,2025-03-13,1,,,,,フレッチャワークス,0
1103,5012301014292,新規,0,2025-03-13,2025-03-13,株式会社Ｄｒｅａｍ　Ｃｏｒｐｏｒａｔｉｏｎ,,株式会社,東京都,町田市,木曽西４丁目３５番１４号,,13,209,1940037,,,,,,,2025-03-13,1,,,,,ドリームコーポレーション,0
1110,5013301053925,新規,0,2025-03-13,2025-03-13,株式会社ひかり,,株式会社,東京都,豊島区,南大塚３丁目２８番６－１８０７号,,13,116,1700005,,,,,,,2025-03-13,1,,,,,ヒカリ,0
1112,5020001161883,新規,0,2025-03-13,2025-03-13,株式会社レフォルム,,株式会社,神奈川県,横浜市戸塚区,吉田町１２８２番地１,,14,110,2440817,,,,,,,2025-03-13,1,,,,,レフォルム,0
1113,5020003028032,新規,0,2025-03-13,2025-03-13,はるほのアセット合同会社,,合同会社,神奈川県,横浜市神奈川区,三ツ沢中町３番９号,,14,102,2210851,,,,,,,2025-03-13,1,,,,,ハルホノアセット,0
1116,5021001084678,新規,0,2025-03-13,2025-03-13,株式会社ＳｍｉｌｅＩｎｃ,,株式会社,神奈川県,相模原市緑区,二本松１丁目３６番５号,,14,151,2520137,,,,,,,2025-03-13,1,,,,,スマイルインク,0
1124,5030001165363,新規,0,2025-03-13,2025-03-13,株式会社ａｒｒｏｗ,,株式会社,埼玉県,蕨市,錦町６丁目２番２５号,,11,223,3350005,,,,,,,2025-03-13,1,,,,,アロー,0
1125,5030001165371,新規,0,2025-03-13,2025-03-13,株式会社ＥＬＥＰＨＡＮＴ　ＷＯＲＫＳ,,株式会社,埼玉県,川越市,大字鯨井新田１番地１４,,11,201,3500809,,,,,,,2025-03-13,1,,,,,エレファントワークス,0
1126,5030001165388,新規,0,2025-03-13,2025-03-13,ＭｅｉＮ株式会社,,株式会社,埼玉県,東松山市,元宿２丁目１２番地５,,11,212,3550063,,,,,,,2025-03-13,1,,,,,メイン,0
1127,5030001165396,新規,0,2025-03-13,2025-03-13,謙信株式会社,,株式会社,埼玉県,吉川市,大字保８５８番地２３,,11,243,3420041,,,,,,,2025-03-13,1,,,,,ケンシン,0
1128,5030001165405,新規,0,2025-03-13,2025-03-13,Ｕｎｉｖｅｒｓａｌ　Ｃｏ’ｓ株式会社,,株式会社,埼玉県,さいたま市浦和区,領家１丁目６番１０号,,11,107,3300072,,,,,,,2025-03-13,1,,,,,ユニバーサルコース,0
1130,5030003026340,新規,0,2025-03-13,2025-03-13,みなとコンサルティング合同会社,,合同会社,埼玉県,さいたま市浦和区,仲町３丁目１－１４０１号,,11,107,3300062,,,,,,,2025-03-13,1,,,,,ミナトコンサルティング,0
1134,5030005022073,新規,0,2025-03-13,2025-03-13,ＮＰＯ法人ＬＩＳ,,その他の設立登記法人,埼玉県,志木市,柏町１丁目１１番９号,,11,228,3530007,,,,,,,2025-03-13,1,,,,,リス,0
1138,5040001137782,新規,0,2025-03-13,2025-03-13,株式会社キープアンドセーブ,,株式会社,千葉県,船橋市,夏見５丁目１４－８,,12,204,2730865,,,,,,,2025-03-13,1,,,,,キープアンドセーブ,0
1143,5070001042708,新規,0,2025-03-13,2025-03-13,株式会社ＲａｉｎｂｏｗＰｒｏｊｅｃｔ,,株式会社,群馬県,沼田市,上発知町字迦葉山丙３５０番地１,,10,206,3780071,,,,,,,2025-03-13,1,,,,,レインボウプロジェクト,0
1144,5070001042716,新規,0,2025-03-13,2025-03-13,株式会社南の楽園,,株式会社,群馬県,沼田市,白沢町生枝４番地１,,10,206,3780122,,,,,,,2025-03-13,1,,,,,ミナミノラクエン,0
1149,5080401027803,新規,0,2025-03-13,2025-03-13,株式会社富田製作所,,株式会社,静岡県,浜松市中央区,寺脇町６５６番地の８,,22,138,4300841,,,,,,,2025-03-13,1,,,,,トミタセイサクジョ,0
1151,5110003005699,新規,0,2025-03-13,2025-03-13,合同会社Ａｓｈｉｔａｅ,,合同会社,新潟県,新潟市秋葉区,金津２８５４番地３,,15,105,9560845,,,,,,,2025-03-13,1,,,,,アシタエ,0
1157,5120001273280,新規,0,2025-03-13,2025-03-13,一諾株式会社,,株式会社,大阪府,大阪市大正区,平尾３丁目９番１－３０１号室,,27,108,5510012,,,,,,,2025-03-13,1,,,,,イーノー,0
1158,5120001273603,新規,0,2025-03-13,2025-03-13,亜太研究株式会社,,株式会社,大阪府,大阪市東淀川区,下新庄１丁目７番１３号プレアール下新庄ＩＩ３０３室,00138342,27,114,5330021,,,,,,,2025-03-13,1,,,,,アタケンキュウ,0
1159,5120001273611,新規,0,2025-03-13,2025-03-13,株式会社Ｌｅａｆ,,株式会社,大阪府,大阪市城東区,成育４丁目１０番２３号ハイツキタムラ３０２号,,27,118,5360007,,,,,,,2025-03-13,1,,,,,リーフ,0
1160,5120001273628,新規,0,2025-03-13,2025-03-13,株式会社ケアリンクハウス,,株式会社,大阪府,交野市,私部４丁目５０番２号フジタビル２０１,,27,230,5760052,,,,,,,2025-03-13,1,,,,,ケアリンクハウス,0
1161,5120001273644,新規,0,2025-03-13,2025-03-13,株式会社弥生サービス,,株式会社,大阪府,大阪市生野区,巽北２丁目２０番２４号,00138341,27,116,5440004,,,,,,,2025-03-13,1,,,,,ヤヨイサービス,0
1165,5120005024829,新規,0,2025-03-13,2025-03-13,一般社団法人日本精神医療学会,,その他の設立登記法人,大阪府,大阪市北区,芝田２丁目７番１８号,,27,127,5300012,,,,,,,2025-03-13,1,,,,,ニホンセイシンイリョウガッカイ,0
1175,5120901050589,新規,0,2025-03-13,2025-03-13,株式会社ｃｏｎｎｅｃｔ,,株式会社,大阪府,箕面市,粟生外院３丁目６番２２号（１０１号）,,27,220,5620025,,,,,,,2025-03-13,1,,,,,コネクト,0
1178,5120903005582,新規,0,2025-03-13,2025-03-13,合同会社ミレルヴアンテルナシォナルｍｉｌｌｅ　ｈｅｒｂｅｓ　ｉｎｔｅｒｎａｔｉｏｎａｌｅｓ,,合同会社,大阪府,豊中市,緑丘１丁目２０番７号,,27,203,5600002,,,,,,,2025-03-13,1,,,,,ミレルヴアンテルナシォナルミレルヴアンテルナシォナル,0
1183,5130001079165,新規,0,2025-03-13,2025-03-13,株式会社アテンションプリーズ,,株式会社,京都府,京都市下京区,山王町４８６－２,,26,106,6008134,,,,,,,2025-03-13,1,,,,,アテンションプリーズ,0
1184,5130003010284,新規,0,2025-03-13,2025-03-13,合同会社サーベイ・ワン,,合同会社,京都府,京都市山科区,西野山中鳥井町１３２番地の１１１,,26,110,6078306,,,,,,,2025-03-13,1,,,,,サーベイワン,0
1185,5130005017311,新規,0,2025-03-13,2025-03-13,一般社団法人日本アジア文化テック促進会,,その他の設立登記法人,京都府,京都市左京区,岡崎南御所町３５番地１グランドメゾン京都岡崎２０６号室,,26,103,6068334,,,,,,,2025-03-13,1,,,,,ニホンアジアブンカテックソクシンカイ,0
1189,5140001137715,新規,0,2025-03-13,2025-03-13,株式会社Ｅｎｎｅ,,株式会社,兵庫県,芦屋市,津知町１３番１８号,,28,206,6590075,,,,,,,2025-03-13,1,,,,,エンネ,0
1192,5140005027400,新規,0,2025-03-13,2025-03-13,一般社団法人サステナビリティ・ディスクロージャー・プロジェクト,,その他の設立登記法人,兵庫県,神戸市中央区,港島中町６丁目１４番地ポートピアプラザＡ棟２１０３号,,28,110,6500046,,,,,,,2025-03-13,1,,,,,サステナビリティディスクロージャープロジェクト,0
1194,5150001027956,新規,0,2025-03-13,2025-03-13,株式会社はぐめど,,株式会社,奈良県,奈良市,六条町１１３番４,,29,201,6308041,,,,,,,2025-03-13,1,,,,,ハグメド,0
1195,5160001026602,新規,0,2025-03-13,2025-03-13,ｎバーベキュー株式会社,,株式会社,滋賀県,東近江市,小脇町２４１２番地１シャーメゾンピアンタ１１１号室,,25,213,5270091,,,,,,,2025-03-13,1,,,,,エヌバーベキュー,0
1205,5180001165670,新規,0,2025-03-13,2025-03-13,株式会社Ｔａｚｎａ,,株式会社,愛知県,名古屋市瑞穂区,松月町５丁目１６－３,,23,108,4670004,,,,,,,2025-03-13,1,,,,,タヅナ,0
1206,5180001165811,新規,0,2025-03-13,2025-03-13,株式会社ｂｏｎｄ,,株式会社,愛知県,尾張旭市,二丁目６サンシャイン駅ビル１０１,,23,226,4880000,,,,,,,2025-03-13,1,,,,,ボンド,0
1207,5180001165852,新規,0,2025-03-13,2025-03-13,柏恒産株式会社,,株式会社,愛知県,大府市,中央町７丁目３６９番地,,23,223,4740025,,,,,,,2025-03-13,1,,,,,カシワコウサン,0
1208,5180001165869,新規,0,2025-03-13,2025-03-13,株式会社ＡｙＬＫｙ,,株式会社,愛知県,愛西市,勝幡町塩畑２６０８番地１,,23,232,4968001,,,,,,,2025-03-13,1,,,,,アイルキ,0
1209,5180001165877,新規,0,2025-03-13,2025-03-13,株式会社リスペクト,,株式会社,愛知県,名古屋市守山区,平池東１１１４番地,,23,113,4630809,,,,,,,2025-03-13,1,,,,,リスペクト,0
1210,5180001165885,新規,0,2025-03-13,2025-03-13,株式会社キャリ・サポ,,株式会社,愛知県,名古屋市中村区,名駅３丁目２２番４号,,23,105,4500002,,,,,,,2025-03-13,1,,,,,キャリサポ,0
1211,5180001165893,新規,0,2025-03-13,2025-03-13,株式会社エストラスト,,株式会社,愛知県,大府市,長草町下田ノ松４５番地５,,23,223,4740052,,,,,,,2025-03-13,1,,,,,エストラスト,0
1212,5180001165919,新規,0,2025-03-13,2025-03-13,Ｌｉｎｏ’ａ株式会社,,株式会社,愛知県,北名古屋市,能田旭１１番地５,,23,234,4810003,,,,,,,2025-03-13,1,,,,,リノア,0
1214,5180003028124,新規,0,2025-03-13,2025-03-13,合同会社アクトライフ,,合同会社,愛知県,名古屋市北区,杉村１丁目２５番２３号,,23,103,4620835,,,,,,,2025-03-13,1,,,,,アクトライフ,0
1215,5180005020979,新規,0,2025-03-13,2025-03-13,一般社団法人リンタツ,,その他の設立登記法人,愛知県,名古屋市中区,橘１丁目２８番９号,,23,106,4600016,,,,,,,2025-03-13,1,,,,,リンタツ,0
1216,5180301039608,新規,0,2025-03-13,2025-03-13,株式会社ＥＮＧＡＴＥ,,株式会社,愛知県,豊橋市,広小路３丁目５７番地,,23,201,4400881,,,,,,,2025-03-13,1,,,,,エンゲート,0
1219,5190001032077,新規,0,2025-03-13,2025-03-13,株式会社ｔｅｔｏｔｅ,,株式会社,三重県,伊賀市,川合１３６１番地の１,,24,216,5181315,,,,,,,2025-03-13,1,,,,,テトテ,0
1224,5200001043519,新規,0,2025-03-13,2025-03-13,株式会社ＩＳＯＹＡ,,株式会社,岐阜県,関市,東貸上５番地１,,21,205,5013213,,,,,,,2025-03-13,1,,,,,イソヤ,0
1227,5210001020095,新規,0,2025-03-13,2025-03-13,株式会社共進光学院,,株式会社,福井県,鯖江市,御幸町３丁目５番２６号,,18,207,9160015,,,,,,,2025-03-13,1,,,,,キョウシンヒカリガクイン,0
1231,5220001026554,新規,0,2025-03-13,2025-03-13,株式会社ｔａｋｅあーと,,株式会社,石川県,金沢市,城南１丁目１５番３７－２号,,17,201,9200966,,,,,,,2025-03-13,1,,,,,タケアート,0
1234,5230001020787,新規,0,2025-03-13,2025-03-13,株式会社ふけだ電気,,株式会社,富山県,下新川郡入善町,上飯野５５６番地１,,16,342,9390653,,,,,,,2025-03-13,1,,,,,フケダデンキ,0
1251,5290001109245,新規,0,2025-03-13,2025-03-13,シアター株式会社,,株式会社,福岡県,福岡市博多区,博多駅東１丁目１２番１７号オフィスニューガイヤ博多駅前３階,,40,132,8120013,,,,,,,2025-03-13,1,,,,,シアター,0
1252,5290001109278,新規,0,2025-03-13,2025-03-13,株式会社エイトカラーズ,,株式会社,福岡県,古賀市,美明２丁目１４番１５号,,40,223,8113107,,,,,,,2025-03-13,1,,,,,エイトカラーズ,0
1253,5290001109294,新規,0,2025-03-13,2025-03-13,株式会社アッタ・アンド・パートナーズ,,株式会社,福岡県,福岡市早良区,城西３丁目３番２号,,40,137,8140003,,,,,,,2025-03-13,1,,,,,アッタアンドパートナーズ,0
1259,5320001020984,新規,0,2025-03-13,2025-03-13,株式会社ＭＵＧＥＮ,,株式会社,大分県,中津市,大字牛神２２１番地１　２Ｆ,,44,203,8710015,,,,,,,2025-03-13,1,,,,,ムゲン,0
1260,5320001020992,新規,0,2025-03-13,2025-03-13,株式会社楓,,株式会社,大分県,中津市,大字永添１４０７番地,,44,203,8710162,,,,,,,2025-03-13,1,,,,,カエデ,0
1261,5320003004597,新規,0,2025-03-13,2025-03-13,合同会社ＫＡＴＩ　ＪＡＰＡＮ　ＥＸＰＯＲＴＳ,,合同会社,大分県,別府市,大字鉄輪６６８番地の２アルシオン６０２号室,,44,202,8740000,,,,,,,2025-03-13,1,,,,,ケイティジャパンエクスポーツ,0
1262,5330003010891,新規,0,2025-03-13,2025-03-13,合同会社オブライジングフェロー,,合同会社,熊本県,熊本市中央区,花畑町１番１４号Ａ＆Ｍ　ＨＡＮＡＢＡＴＡ３０１号,,43,101,8600806,,,,,,,2025-03-13,1,,,,,オブライジングフェロー,0
1263,5340001027185,新規,0,2025-03-13,2025-03-13,国土ファーム株式会社,,株式会社,鹿児島県,志布志市,志布志町安楽３２６３－２,,46,221,8997104,,,,,,,2025-03-13,1,,,,,コクドファーム,0
1265,5350005006291,新規,0,2025-03-13,2025-03-13,一般社団法人宮崎ひとり親家庭支援ネットワーク,,その他の設立登記法人,宮崎県,宮崎市,曽師町１１１番地３,,45,201,8800875,,,,,,,2025-03-13,1,,,,,ミヤザキヒトリオヤカテイシエンネットワーク,0
1269,5360001034857,新規,0,2025-03-13,2025-03-13,株式会社ｈｏｐ　ｏｎ,,株式会社,沖縄県,八重山郡竹富町,字上原６５２番地の１,,47,381,9071541,,,,,,,2025-03-13,1,,,,,ホップオン,0
1274,5390001017925,新規,0,2025-03-13,2025-03-13,株式会社シーワイロジ,,株式会社,山形県,天童市,北久野本１丁目５番４７号,,06,210,9940011,,,,,,,2025-03-13,1,,,,,シーワイロジ,0
1287,5430001093912,新規,0,2025-03-13,2025-03-13,株式会社大和田ホールディングス,,株式会社,北海道,札幌市中央区,北一条西７丁目３番地,,01,101,0600001,,,,,,,2025-03-13,1,,,,,オオワダホールディングス,0
1288,5430001093920,新規,0,2025-03-13,2025-03-13,株式会社ＣＯＭＦ,,株式会社,北海道,札幌市白石区,本通１８丁目北１番１号,,01,104,0030027,,,,,,,2025-03-13,1,,,,,コムフ,0
1289,5430003017373,新規,0,2025-03-13,2025-03-13,合同会社５ｓｔａｒｓ,,合同会社,北海道,札幌市中央区,南十八条西１３丁目１番２８号,,01,101,0640918,,,,,,,2025-03-13,1,,,,,ファイブスターズ,0
1290,5450001014560,新規,0,2025-03-13,2025-03-13,オーバーラップ株式会社,,株式会社,北海道,旭川市,末広四条７丁目７番１４号,,01,204,0718134,,,,,,,2025-03-13,1,,,,,オーバーラップ,0
1291,5460101007678,新規,0,2025-03-13,2025-03-13,株式会社シン・ウチ,,株式会社,北海道,河西郡芽室町,東芽室北１線２０番地３０,,01,637,0820004,,,,,,,2025-03-13,1,,,,,シンウチ,0
1299,5700150121710,新規,0,2025-03-13,2025-03-13,ＪＩＡＸＩＮＧ　ＪＩＥ　ＳＨＵＮ　ＬＶ　ＹＯＵ　ＺＨＩ　ＰＩＮ　Ｃｏ．　ＬＴＤ,,外国会社等,,,,,,,,Ｎｏ．　２２９，　Ｊｉａｃｈｕａｎｇ　Ｒｏａｄ，　Ｇａｏｚｈａｏ　Ｓｔｒｅｅｔ，　Ｘｉｕｚｈｏｕ　Ｄｉｓｔｒｉｃｔ　Ｊｉａｘｉｎｇ　Ｃｉｔｙ，　Ｚｈｅｊｉａｎｇ　Ｐｒｏｖｉｎｃｅ　Ｊｉａｘｉｎｇ　Ｚｈｅｊｉａｎｇ　３１４０００　ＣＮ,,,,,,2025-03-13,1,,,,,ジャアシンジエシュンリュヨウジーピンヨカンパニーリミテッド,0
1311,6010001252897,新規,0,2025-03-13,2025-03-13,ａエンタープライズ株式会社,,株式会社,東京都,文京区,湯島３丁目３８－１５伸協ビル２階,,13,105,1130034,,,,,,,2025-03-13,1,,,,,エーエンタープライズ,0
1312,6010001253086,新規,0,2025-03-13,2025-03-13,株式会社Ｐｒｏｆｅｓｓｉｏｎａｌｓ　Ｆｏｒ　Ｉｍｐａｃｔ,,株式会社,東京都,千代田区,平河町２丁目５番３号,,13,101,1020093,,,,,,,2025-03-13,1,,,,,プロフェッショナルフォーインパクト,0
1318,6010005039721,新規,0,2025-03-13,2025-03-13,一般社団法人日本サウンドボディ協会,,その他の設立登記法人,東京都,中央区,銀座７丁目１３番６号サガミビル２Ｆ,,13,102,1040061,,,,,,,2025-03-13,1,,,,,ニホンサウンドボディキョウカイ,0
1326,6010401188790,新規,0,2025-03-13,2025-03-13,株式会社ＷＤＬ,,株式会社,東京都,港区,六本木７丁目７－７Ｔｒｉ－ＳｅｖｅｎＲｏｐｐｎｇｉ８Ｆ,,13,103,1060032,,,,,,,2025-03-13,1,,,,,ダブリューディーエル,0
1327,6010401188832,新規,0,2025-03-13,2025-03-13,ＡＮＪ　ＰＬＵＳ株式会社,,株式会社,東京都,港区,六本木５丁目１８－１９,,13,103,1060032,,,,,,,2025-03-13,1,,,,,エイエヌジェイプラス,0
1328,6010401188840,新規,0,2025-03-13,2025-03-13,株式会社ｔｕｎｉｎｇ,,株式会社,東京都,港区,芝浦４丁目１９番１－１６２３号,,13,103,1080023,,,,,,,2025-03-13,1,,,,,チューニング,0
1331,6010403034588,新規,0,2025-03-13,2025-03-13,合同会社Ｋ＆Ｇ,,合同会社,東京都,港区,浜松町２丁目３－３,,13,103,1050013,,,,,,,2025-03-13,1,,,,,ケーアンドジー,0
1337,6010601066929,新規,0,2025-03-13,2025-03-13,株式会社Ｆａｍｉｌｉａ,,株式会社,東京都,江東区,大島８丁目３８番３号,,13,108,1360072,,,,,,,2025-03-13,1,,,,,ファミリア,0
1338,6010601066937,新規,0,2025-03-13,2025-03-13,オーケイテック株式会社,,株式会社,東京都,墨田区,京島１丁目８番８号,,13,107,1310046,,,,,,,2025-03-13,1,,,,,オーケイテック,0
1339,6010603011429,新規,0,2025-03-13,2025-03-13,合同会社ラポール,,合同会社,東京都,墨田区,押上３丁目１５番７号,,13,107,1310045,,,,,,,2025-03-13,1,,,,,ラポール,0
1341,6010701047382,新規,0,2025-03-13,2025-03-13,Ｓｏｌａｒ　Ｔｅｃｈ株式会社,,株式会社,東京都,品川区,東品川２丁目５番５号ＨａｒｂｏｒＯｎｅビル,,13,109,1400002,,,,,,,2025-03-13,1,,,,,ソーラーテック,0
1349,6011001168480,新規,0,2025-03-13,2025-03-13,株式会社ＩｎＰｒｏｃ,,株式会社,東京都,渋谷区,渋谷２丁目１９―１５宮益坂ビルディング６０９,,13,113,1500002,,,,,,,2025-03-13,1,,,,,インプロック,0
1357,6011101110953,新規,0,2025-03-13,2025-03-13,株式会社ＮｅｘｕｓＸ,,株式会社,東京都,新宿区,西新宿３丁目３番１３号西新宿水間ビル２Ｆ,,13,104,1600023,,,,,,,2025-03-13,1,,,,,ネクサスエックス,0
1358,6011101110961,新規,0,2025-03-13,2025-03-13,Ｃｏｎｄｒａ　Ｔｅｃｈｎｏｌｏｇｉｅｓ株式会社,,株式会社,東京都,新宿区,西新宿３丁目３番１３号西新宿水間ビル２Ｆ,,13,104,1600023,,,,,,,2025-03-13,1,,,,,コンドラテクノロジーズ,0
1359,6011101110978,新規,0,2025-03-13,2025-03-13,ＳＵＮＺ株式会社,,株式会社,東京都,新宿区,山吹町２９３番地第一小久保ビル,,13,104,1620801,,,,,,,2025-03-13,1,,,,,サンズ,0
1360,6011105011363,新規,0,2025-03-13,2025-03-13,一般社団法人ＩＴＧマネジメント,,その他の設立登記法人,東京都,新宿区,西新宿３丁目７番１号,,13,104,1600023,,,,,,,2025-03-13,1,,,,,アイティジーマネジメント,0
1361,6011201026190,新規,0,2025-03-13,2025-03-13,株式会社ルーパ,,株式会社,東京都,中野区,大和町３丁目３９番４号,,13,114,1650034,,,,,,,2025-03-13,1,,,,,ルーパ,0
1363,6011401026899,新規,0,2025-03-13,2025-03-13,株式会社幸せネパール人材センター,,株式会社,東京都,板橋区,舟渡１丁目１３番１０号アイ・タワー２Ｆ板橋区立企業活性化センター内,,13,119,1740041,,,,,,,2025-03-13,1,,,,,シアワセネパールジンザイセンター,0
1366,6012401042878,新規,0,2025-03-13,2025-03-13,株式会社アンクエイト,,株式会社,東京都,小金井市,東町３丁目１７番３号（１９）,,13,210,1840011,,,,,,,2025-03-13,1,,,,,アンクエイト,0
1373,6013303007572,新規,0,2025-03-13,2025-03-13,合同会社バロンワールド,,合同会社,東京都,豊島区,駒込１丁目１９番１号ピアレス駒込３Ｆ,,13,116,1700003,,,,,,,2025-03-13,1,,,,,バロンワールド,0
1377,6020001161684,新規,0,2025-03-13,2025-03-13,株式会社正覚,,株式会社,神奈川県,横浜市鶴見区,生麦１丁目５番２０号２０１号室,,14,101,2300052,,,,,,,2025-03-13,1,,,,,ジョウカク,0
1378,6020001161692,新規,0,2025-03-13,2025-03-13,Ｋホールディングス株式会社,,株式会社,神奈川県,横浜市港北区,新吉田東１丁目６２番１０号,,14,109,2230058,,,,,,,2025-03-13,1,,,,,ケイホールディングス,0
1379,6020001161866,新規,0,2025-03-13,2025-03-13,株式会社Ｌｏｕｇｅ,,株式会社,神奈川県,川崎市多摩区,堰３丁目１４－１６－１０２,,14,135,2140022,,,,,,,2025-03-13,1,,,,,ルージュ,0
1380,6020001161916,新規,0,2025-03-13,2025-03-13,株式会社ＰＬＡＮ　ＮＯＴＥ．,,株式会社,神奈川県,横浜市泉区,和泉町６２０８番地６グリーンハイムいずみ野２３棟１０５号室,,14,116,2450016,,,,,,,2025-03-13,1,,,,,プランノート,0
1383,6020003027982,新規,0,2025-03-13,2025-03-13,合同会社コノシェンツァ,,合同会社,神奈川県,横浜市神奈川区,金港町５－１４クアドリフォリオ８階,,14,102,2210056,,,,,,,2025-03-13,1,,,,,コノシェンツァ,0
1384,6020003028007,新規,0,2025-03-13,2025-03-13,ＫＣＭ合同会社,,合同会社,神奈川県,横浜市中区,福富町仲通３－４石橋ビル２０１,,14,104,2310043,,,,,,,2025-03-13,1,,,,,ケイシーエム,0
1385,6020003028015,新規,0,2025-03-13,2025-03-13,合同会社ＫＴＣ,,合同会社,神奈川県,横浜市神奈川区,金港町５－１４クアドリフォリオ８階,,14,102,2210056,,,,,,,2025-03-13,1,,,,,ケーティーシー,0
1386,6020005016728,新規,0,2025-03-13,2025-03-13,社会保険労務士法人オフィス天晴,,その他の設立登記法人,神奈川県,川崎市多摩区,登戸新町４３５ＭＳビル１階,,14,135,2140013,,,,,,,2025-03-13,1,,,,,オフィスアッパレ,0
1389,6021001084669,新規,0,2025-03-13,2025-03-13,株式会社Ｈｙｇｇｅ,,株式会社,神奈川県,厚木市,田村町１０番１１－１号,,14,212,2430016,,,,,,,2025-03-13,1,,,,,ヒュッゲ,0
1390,6021001084677,新規,0,2025-03-13,2025-03-13,株式会社ＬＥＩ,,株式会社,神奈川県,大和市,中央林間６丁目１３番１９号,,14,213,2420007,,,,,,,2025-03-13,1,,,,,レイ,0
1391,6021001084685,新規,0,2025-03-13,2025-03-13,ウゴク株式会社,,株式会社,神奈川県,三浦郡葉山町,堀内１９１２番地の５,,14,301,2400112,,,,,,,2025-03-13,1,,,,,ウゴク,0
1392,6021001084693,新規,0,2025-03-13,2025-03-13,株式会社Ｒｏｎｎａホールディングス,,株式会社,神奈川県,茅ヶ崎市,東海岸北２丁目１番５８号,,14,207,2530053,,,,,,,2025-03-13,1,,,,,ロナホールディングス,0
1393,6021001084702,新規,0,2025-03-13,2025-03-13,株式会社いずみ,,株式会社,神奈川県,秦野市,南矢名２２５０番地サンブライトいずみ４０１,,14,211,2570003,,,,,,,2025-03-13,1,,,,,イズミ,0
1395,6021003015721,新規,0,2025-03-13,2025-03-13,合同会社Ｅｎｂｒａｉｎ,,合同会社,神奈川県,逗子市,新宿３丁目５番３１号,,14,208,2490007,,,,,,,2025-03-13,1,,,,,エンブレイン,0
1396,6030001165354,新規,0,2025-03-13,2025-03-13,日光山株式会社,,株式会社,埼玉県,さいたま市北区,吉野町１丁目４３８番地２３、１Ｆ,,11,102,3310811,,,,,,,2025-03-13,1,,,,,ニッコウサン,0
1397,6030001165362,新規,0,2025-03-13,2025-03-13,株式会社石村不動産,,株式会社,埼玉県,比企郡滑川町,月の輪５丁目７番地２,,11,341,3550815,,,,,,,2025-03-13,1,,,,,イシムラフドウサン,0
1398,6030001165370,新規,0,2025-03-13,2025-03-13,株式会社ＲｅｅＹｏｕ,,株式会社,埼玉県,さいたま市桜区,大字白鍬６番地１,,11,106,3380811,,,,,,,2025-03-13,1,,,,,リーユー,0
1399,6030001165387,新規,0,2025-03-13,2025-03-13,森宇株式会社,,株式会社,埼玉県,朝霞市,三原１丁目７－１０スカイピア朝霞台１０２号,,11,227,3510025,,,,,,,2025-03-13,1,,,,,シンウ,0
1400,6030001165395,新規,0,2025-03-13,2025-03-13,まるて株式会社,,株式会社,埼玉県,草加市,新善町４１７番地１日神パレステージ草加新田３０６号,,11,221,3400054,,,,,,,2025-03-13,1,,,,,マルテ,0
1401,6030001165420,新規,0,2025-03-13,2025-03-13,株式会社ＫｏｒａｌＰｌａｎｎｉｎｇ,,株式会社,埼玉県,さいたま市南区,四谷３丁目７番１８号,,11,108,3360032,,,,,,,2025-03-13,1,,,,,コーラルプランニング,0
1403,6030003026323,新規,0,2025-03-13,2025-03-13,合同会社レムリア,,合同会社,埼玉県,所沢市,大字上安松４９８番地の２,,11,208,3590025,,,,,,,2025-03-13,1,,,,,レムリア,0
1405,6030005022072,新規,0,2025-03-13,2025-03-13,一般社団法人ＰＣＡＳＡ　ＪＡＰＡＮ子どもの未来を守る会,,その他の設立登記法人,埼玉県,ふじみ野市,鶴ケ舞３丁目１番２１号ビューパレー上福岡３０３,,11,245,3560041,,,,,,,2025-03-13,1,,,,,ピカサジャパンコドモノミライヲマモルカイ,0
1410,6040003027080,新規,0,2025-03-13,2025-03-13,サポアシ合同会社,,合同会社,千葉県,市川市,八幡５丁目１６番４号,,12,203,2720021,,,,,,,2025-03-13,1,,,,,サポアシ,0
1412,6040005022682,新規,0,2025-03-13,2025-03-13,一般社団法人びびっと,,その他の設立登記法人,千葉県,流山市,西初石３丁目１０３番１０号,,12,220,2700121,,,,,,,2025-03-13,1,,,,,ビビット,0
1415,6050005013573,新規,0,2025-03-13,2025-03-13,特定非営利活動法人産後ＴＯＭＯサポ,,その他の設立登記法人,茨城県,つくば市,東光台３丁目１１番地６,,08,220,3002635,,,,,,,2025-03-13,1,,,,,サンゴトモサポ,0
1416,6070001042715,新規,0,2025-03-13,2025-03-13,アイネクスト株式会社,,株式会社,群馬県,みどり市,笠懸町阿左美２１３７番地８,,10,212,3792311,,,,,,,2025-03-13,1,,,,,アイネクスト,0
1417,6070001042723,新規,0,2025-03-13,2025-03-13,株式会社ＥＩＧＨＴ,,株式会社,群馬県,佐波郡玉村町,大字下新田８１２番地３,,10,464,3701132,,,,,,,2025-03-13,1,,,,,エイト,0
1418,6070003005819,新規,0,2025-03-13,2025-03-13,合同会社ＯＲＩＶＥＲ,,合同会社,群馬県,桐生市,新里町新川２７４１番地１,,10,203,3760121,,,,,,,2025-03-13,1,,,,,オリバー,0
1420,6080101025370,新規,0,2025-03-13,2025-03-13,株式会社ＭＨＬ,,株式会社,静岡県,三島市,谷田５９１番地の１シャンペトル１０３,,22,206,4110801,,,,,,,2025-03-13,1,,,,,,0
1424,6110001039104,新規,0,2025-03-13,2025-03-13,株式会社城建設工業,,株式会社,新潟県,新潟市北区,太夫浜新町１丁目２４－３,,15,101,9503111,,,,,,,2025-03-13,1,,,,,ジョウケンセツコウギョウ,0
1430,6120001273478,新規,0,2025-03-13,2025-03-13,株式会社ＴｅｅｎＷｏｒｋｅｒ,,株式会社,大阪府,大阪市北区,梅田１丁目２番２号大阪駅前第２ビル１２－１２,,27,127,5300001,,,,,,,2025-03-13,1,,,,,ティーンワーカー,0
1431,6120001273511,新規,0,2025-03-13,2025-03-13,株式会社Ｐｅｒｓｏｎｉｃａ,,株式会社,大阪府,大阪市城東区,関目５丁目１７番７号,,27,118,5360008,,,,,,,2025-03-13,1,,,,,パーソニカ,0
1432,6120001273544,新規,0,2025-03-13,2025-03-13,Ｃａｐｓｔｏｎｅ株式会社,,株式会社,大阪府,大阪市大正区,三軒家西３丁目４番１６号中山ビル２１１Ｃ,,27,108,5510001,,,,,,,2025-03-13,1,,,,,キャップストーン,0
1433,6120001273593,新規,0,2025-03-13,2025-03-13,天和株式会社,,株式会社,大阪府,大阪市北区,天満４丁目１７－１５－２０２Ａ,,27,127,5300043,,,,,,,2025-03-13,1,,,,,テンワ,0
1434,6120001273651,新規,0,2025-03-13,2025-03-13,株式会社リードステップ,,株式会社,大阪府,大阪市北区,長柄中３丁目１２番５－１０２号,,27,127,5310062,,,,,,,2025-03-13,1,,,,,リードステップ,0
1435,6120001273775,新規,0,2025-03-13,2025-03-13,株式会社Ｙａｙａ,,株式会社,大阪府,大阪市福島区,大開１丁目１番１２－１３０２号,,27,103,5530007,,,,,,,2025-03-13,1,,,,,ヤヤ,0
1437,6120003028731,新規,0,2025-03-13,2025-03-13,合同会社ＪＯＪＯ,,合同会社,大阪府,大阪市平野区,喜連西３丁目１７‐２４,,27,126,5470026,,,,,,,2025-03-13,1,,,,,ジョジョ,0
1438,6120003028847,新規,0,2025-03-13,2025-03-13,ＡＭＡＲ合同会社,,合同会社,大阪府,大阪市淀川区,西宮原１丁目７番１５－５０５号,,27,123,5320004,,,,,,,2025-03-13,1,,,,,アマル,0
1439,6120003028905,新規,0,2025-03-13,2025-03-13,合同会社ファーストフラット,,合同会社,大阪府,大阪市東住吉区,田辺２丁目６‐５,,27,121,5460031,,,,,,,2025-03-13,1,,,,,ファーストフラット,0
1441,6120005024828,新規,0,2025-03-13,2025-03-13,一般社団法人日本睡眠医療学会,,その他の設立登記法人,大阪府,大阪市北区,曾根崎２丁目１２番４号,,27,127,5300057,,,,,,,2025-03-13,1,,,,,ニホンスイミンイリョウガッカイ,0
1448,6120903005581,新規,0,2025-03-13,2025-03-13,合同会社ラーメン総合研究所,,合同会社,大阪府,吹田市,豊津町２１－３９－３０２号,,27,205,5640051,,,,,,,2025-03-13,1,,,,,ラーメンソウゴウケンキュウジョ,0
1449,6122001038943,新規,0,2025-03-13,2025-03-13,晋豊株式会社,,株式会社,大阪府,東大阪市,若江西新町４丁目６番１０－３０１号,,27,227,5780944,,,,,,,2025-03-13,1,,,,,シンホウ,0
1450,6122001038984,新規,0,2025-03-13,2025-03-13,株式会社エツダ工業,,株式会社,大阪府,八尾市,桂町５丁目６番地の１,,27,212,5810823,,,,,,,2025-03-13,1,,,,,エツダコウギョウ,0
1452,6130001079189,新規,0,2025-03-13,2025-03-13,株式会社アズール,,株式会社,京都府,京都市上京区,寺町通広小路上る染殿町６５３番地御所東アーバンライフ４０１号,,26,102,6020844,,,,,,,2025-03-13,1,,,,,アズール,0
1456,6140001137631,新規,0,2025-03-13,2025-03-13,株式会社平原工業,,株式会社,兵庫県,姫路市,飾磨区細江７７８番地Ｂ,,28,201,6728064,,,,,,,2025-03-13,1,,,,,ヒラハラコウギョウ,0
1457,6140001137714,新規,0,2025-03-13,2025-03-13,株式会社フォローカンパニー,,株式会社,兵庫県,南あわじ市,榎列大榎列７８１番地,,28,224,6560426,,,,,,,2025-03-13,1,,,,,フォローカンパニー,0
1458,6140001137730,新規,0,2025-03-13,2025-03-13,株式会社アールズケー,,株式会社,兵庫県,明石市,魚住町錦が丘１丁目４番地の２０,,28,203,6740081,,,,,,,2025-03-13,1,,,,,アールズケー,0
1460,6140003021767,新規,0,2025-03-13,2025-03-13,Ａｓａｎａｇｉ合同会社,,合同会社,兵庫県,西宮市,甲子園口１丁目１７番１３号,,28,204,6638113,,,,,,,2025-03-13,1,,,,,アサナギ,0
1463,6160003003417,新規,0,2025-03-13,2025-03-13,合同会社Ａｒｔｈｒｏｂｏ,,合同会社,滋賀県,大津市,松が丘３丁目８－７,,25,201,5202102,,,,,,,2025-03-13,1,,,,,アルスロンボ,0
1469,6180001165827,新規,0,2025-03-13,2025-03-13,株式会社ＴＨＩＲＴＹ,,株式会社,愛知県,名古屋市緑区,東神の倉３丁目３４０２番地,,23,114,4580808,,,,,,,2025-03-13,1,,,,,サーティー,0
1470,6180001165843,新規,0,2025-03-13,2025-03-13,株式会社ＡＸＹ．ｃ,,株式会社,愛知県,名古屋市熱田区,三本松町１２番２６号,,23,109,4560032,,,,,,,2025-03-13,1,,,,,アクシードットシー,0
1471,6180001165868,新規,0,2025-03-13,2025-03-13,小島電気株式会社,,株式会社,愛知県,名古屋市中川区,応仁町２丁目７３番地,,23,110,4540042,,,,,,,2025-03-13,1,,,,,コジマデンキ,0
1472,6180001165884,新規,0,2025-03-13,2025-03-13,株式会社ジム・サポ,,株式会社,愛知県,名古屋市中村区,名駅３丁目２２番４号,,23,105,4500002,,,,,,,2025-03-13,1,,,,,ジムサポ,0
1473,6180003028115,新規,0,2025-03-13,2025-03-13,合同会社響,,合同会社,愛知県,稲沢市,下津北山１丁目１番地エムズシティ稲沢２０２,,23,220,4928094,,,,,,,2025-03-13,1,,,,,ヒビキ,0
1474,6180003028131,新規,0,2025-03-13,2025-03-13,五徳合同会社,,合同会社,愛知県,海部郡大治町,大字西條字北屋敷１７２番地,,23,424,4901144,,,,,,,2025-03-13,1,,,,,ゴトク,0
1475,6180303006489,新規,0,2025-03-13,2025-03-13,合同会社ＳＰＯＴ・ＦＯＵＲＴＥＣ,,合同会社,愛知県,岡崎市,駒立町字アマヤケ１１番地１,,23,202,4442104,,,,,,,2025-03-13,1,,,,,スポットフォーテック,0
1481,6200001043518,新規,0,2025-03-13,2025-03-13,株式会社ＣＢＥＡ,,株式会社,岐阜県,高山市,松之木町３２３番地８,,21,203,5060802,,,,,,,2025-03-13,1,,,,,シーベア,0
1482,6200001043526,新規,0,2025-03-13,2025-03-13,株式会社スギ,,株式会社,岐阜県,岐阜市,高砂町２丁目４番地メイツ岐阜１４０４号,,21,201,5008407,,,,,,,2025-03-13,1,,,,,スギ,0
1486,6220001026545,新規,0,2025-03-13,2025-03-13,株式会社ソノルクス,,株式会社,石川県,河北郡津幡町,字庄ヘ４４番地１０,,17,361,9290327,,,,,,,2025-03-13,1,,,,,ソノルクス,0
1488,6230001020786,新規,0,2025-03-13,2025-03-13,株式会社松川建築,,株式会社,富山県,南砺市,岩屋２５２番地,,16,210,9320203,,,,,,,2025-03-13,1,,,,,マツカワケンチク,0
1492,6240001064659,新規,0,2025-03-13,2025-03-13,株式会社ＧＲＩＴ,,株式会社,広島県,広島市安佐南区,伴東８丁目５１番６‐２号,,34,105,7313164,,,,,,,2025-03-13,1,,,,,グリット,0
1493,6240003007112,新規,0,2025-03-13,2025-03-13,合同会社Ｕ‐ＩＴパートナー,,合同会社,広島県,広島市東区,戸坂南１丁目１５番１５号,,34,102,7320013,,,,,,,2025-03-13,1,,,,,ユーアイティーパートナー,0
1497,6250005008990,新規,0,2025-03-13,2025-03-13,医療法人よしもと小児科,,その他の設立登記法人,山口県,宇部市,中尾１丁目７番１０号,,35,202,7550073,,,,,,,2025-03-13,1,,,,,ヨシモトショウニカ,0
1501,6290801031358,新規,0,2025-03-13,2025-03-13,株式会社裕神刀,,株式会社,福岡県,北九州市八幡西区,萩原３丁目３番１号,,40,109,8060059,,,,,,,2025-03-13,1,,,,,ユウシントウ,0
1505,6300005007228,新規,0,2025-03-13,2025-03-13,一般社団法人ＭＯＧＭＯＧ食堂,,その他の設立登記法人,佐賀県,佐賀市,木原１丁目８－４,,41,201,8400015,,,,,,,2025-03-13,1,,,,,モグモグショクドウ,0
1511,6320001020991,新規,0,2025-03-13,2025-03-13,株式会社セリカ,,株式会社,大分県,大分市,三佐１丁目２１番３３号,,44,201,8700108,,,,,,,2025-03-13,1,,,,,セリカ,0
1517,6350001019429,新規,0,2025-03-13,2025-03-13,株式会社いわきりホールディングス,,株式会社,宮崎県,宮崎市,鶴島１丁目５番２８号,,45,201,8800014,,,,,,,2025-03-13,1,,,,,イワキリホールディングス,0
1519,6350003004874,新規,0,2025-03-13,2025-03-13,凪の音ブルーイング合同会社,,合同会社,宮崎県,串間市,大字南方４３５７番地,,45,207,8880007,,,,,,,2025-03-13,1,,,,,ナギノネブルーイング,0
1521,6360001034922,新規,0,2025-03-13,2025-03-13,株式会社Ｒｉｖｅｒ,,株式会社,沖縄県,那覇市,古波蔵４丁目１３番５２プレサンスロジェ古波蔵レーヴ６０３,,47,201,9000024,,,,,,,2025-03-13,1,,,,,リバー,0
1526,6380003005985,新規,0,2025-03-13,2025-03-13,合同会社Ｇｌｏｂａｌ　Ｅｄｕｃａｔｉｏｎ　Ｓｙｓｔｅｍ,,合同会社,福島県,須賀川市,向陽町２７５番地,,07,207,9620401,,,,,,,2025-03-13,1,,,,,グローバルエデュケーションシステム,0
1528,6390001017916,新規,0,2025-03-13,2025-03-13,株式会社Ｔｅｃｈ　ＵＰ,,株式会社,山形県,東村山郡中山町,大字長崎２４,,06,302,9900401,,,,,,,2025-03-13,1,,,,,テックアップ,0
1529,6390001017924,新規,0,2025-03-13,2025-03-13,株式会社金山の未来,,株式会社,山形県,最上郡金山町,大字有屋１４００、１Ｆカムロヒュッテ内,,06,361,9995401,,,,,,,2025-03-13,1,,,,,カネヤマノミライ,0
1538,6430001093861,新規,0,2025-03-13,2025-03-13,ＩＮＡＺＵＭＡ株式会社,,株式会社,北海道,札幌市南区,藤野二条６丁目６番２１号,,01,106,0612282,,,,,,,2025-03-13,1,,,,,イナズマ,0
1539,6430001093878,新規,0,2025-03-13,2025-03-13,株式会社ＰＡＮＩＮＡＲＩ,,株式会社,北海道,札幌市中央区,南四条西１４丁目１番６－４０１号,,01,101,0640804,,,,,,,2025-03-13,1,,,,,パニナリ,0
1540,6430001093894,新規,0,2025-03-13,2025-03-13,株式会社道信企画,,株式会社,北海道,札幌市東区,北四十二条東５丁目３番６号,,01,103,0070842,,,,,,,2025-03-13,1,,,,,ドウシンキカク,0
1541,6430001093903,新規,0,2025-03-13,2025-03-13,株式会社Ｏｋｉｋａ,,株式会社,北海道,札幌市清田区,平岡公園東３丁目１６－１３,,01,110,0040882,,,,,,,2025-03-13,1,,,,,オキカ,0
1543,6430003017389,新規,0,2025-03-13,2025-03-13,合同会社ＢＯＮ,,合同会社,北海道,千歳市,幸町３丁目７番地の６インデックス千歳駅前１０３号,,01,224,0660063,,,,,,,2025-03-13,1,,,,,ボン,0
1544,6430003017397,新規,0,2025-03-13,2025-03-13,合同会社ウエルベ,,合同会社,北海道,札幌市北区,新琴似一条３丁目３番１３号,,01,102,0010901,,,,,,,2025-03-13,1,,,,,ウエルベ,0
1548,6470001020622,新規,0,2025-03-13,2025-03-13,株式会社リベロワークス,,株式会社,香川県,高松市,仏生山町甲１６２６番地５,,37,201,7618078,,,,,,,2025-03-13,1,,,,,リベロワークス,0
1549,6470001020630,新規,0,2025-03-13,2025-03-13,株式会社Ｍｏｎｉｅｔｈ,,株式会社,香川県,木田郡三木町,大字平木１１８０番地１５,,37,341,7610702,,,,,,,2025-03-13,1,,,,,,0
1551,6490005006979,新規,0,2025-03-13,2025-03-13,一般社団法人アウラ,,その他の設立登記法人,高知県,高知市,本町１丁目２番５号Ｔ’ｓビル２階,,39,201,7800870,,,,,,,2025-03-13,1,,,,,アウラ,0
1553,6500001026194,新規,0,2025-03-13,2025-03-13,株式会社感食堂,,株式会社,愛媛県,松山市,河野別府５１９番地,,38,201,7992436,,,,,,,2025-03-13,1,,,,,カンショクドウ,0
1555,6700150122583,新規,0,2025-03-13,2025-03-13,ＡＢＴＥＣＫ　ＩＮＴＥＲＮＡＴＩＯＮＡＬ　ＬＩＭＩＴＥＤ,,外国会社等,,,,,,,,ＦＬＡＴ　Ｄ　３１／Ｆ　ＴＯＷＥＲ　７　ＯＣＥＡＮ　ＳＨＯＲＥ　８８　Ｏ　ＫＩＮＧ　ＲＯＡＤ　ＴＳＥＵＮＧ　ＫＷＡＮ　Ｏ　ＮＴ,,,,,,2025-03-13,1,,,,,アプテックインターナショナルリミテッド,0
1556,6700150123136,新規,0,2025-03-13,2025-03-13,Ｓｈｅｎｚｈｅｎ　Ｃｏｍｉｓｏ　Ｄｉｇｉｔａｌ　Ｔｅｃｈｎｏｌｏｇｙ　Ｌｉｍｉｔｅｄ,,外国会社等,,,,,,,,Ｓｏｎｇｇａｎｇ　ｔｏｗｎ　ｈｏｎｅｑｉａｏｔｏｕ　ｃｏｍｍｕｎｉｔｙ　ｘｉａｗｅｉｓｈｕｉ　１３ｔｈ　ｂｕｉｌｄｉｎｇ　１１ｔｈ　ｆｌｏｏｒ　Ｂ　ａｒｅａ　１２ｔｈ　ｆｌｏｏｒ　Ａ　ａｒｅａ　ｓｈｅｎｚｈｅｎ　ｇｕａｎｇｄｏｎｇ　５１８１０５　ＣＮ,,,,,,2025-03-13,1,,,,,シェンジェンコミソデジタルテクノロジーリミテッド,0
1564,7010001253218,新規,0,2025-03-13,2025-03-13,株式会社生命力,,株式会社,東京都,中央区,銀座１丁目２２番１１号銀座大竹ビジデンス２Ｆ,,13,102,1040061,,,,,,,2025-03-13,1,,,,,セイメイリョク,0
1568,7010003046727,新規,0,2025-03-13,2025-03-13,Ｐｌａｃｅｔｏｎ合同会社,,合同会社,東京都,千代田区,東神田１丁目２番２号プライムオフィス４０１,,13,101,1010031,,,,,,,2025-03-13,1,,,,,プレスタン,0
1571,7010005039729,新規,0,2025-03-13,2025-03-13,Ｎｉｌｅ１一般社団法人,,その他の設立登記法人,東京都,中央区,京橋２丁目１２番６号ＡＯＪ税理士法人内,,13,102,1040031,,,,,,,2025-03-13,1,,,,,ナイルワン,0
1579,7010401188856,新規,0,2025-03-13,2025-03-13,ＬＹＰ株式会社,,株式会社,東京都,港区,虎ノ門１丁目１６番６号虎ノ門ＲＡＰＯ－ＴＯビルＵＣＦ７階,,13,103,1050001,,,,,,,2025-03-13,1,,,,,エルワイピー,0
1581,7010403034579,新規,0,2025-03-13,2025-03-13,ショウテック合同会社,,合同会社,東京都,港区,浜松町２丁目２番１５号浜松町ダイヤビル２Ｆ,,13,103,1050013,,,,,,,2025-03-13,1,,,,,ショウテック,0
1586,7010601066936,新規,0,2025-03-13,2025-03-13,株式会社Ｒｅｇｉｎａ　Ｐｒｏｄｕｃｔｉｏｎ,,株式会社,東京都,墨田区,石原４丁目１４－２ａｎｔｉｑｕｅｓ３０２号,,13,107,1300011,,,,,,,2025-03-13,1,,,,,レジーナプロダクション,0
1588,7010603011436,新規,0,2025-03-13,2025-03-13,合同会社みちえらび,,合同会社,東京都,墨田区,業平４丁目１１番１２号,,13,107,1300002,,,,,,,2025-03-13,1,,,,,ミチエラビ,0
1590,7010803005312,新規,0,2025-03-13,2025-03-13,ＫＹＤｅｓｉｇｎ＆Ｐｒｏｐｅｒｔｙ合同会社,,合同会社,東京都,大田区,南馬込５丁目３８番１５号,,13,111,1430025,,,,,,,2025-03-13,1,,,,,ケイワイデザインアンドプロパティ,0
1594,7010901056983,新規,0,2025-03-13,2025-03-13,株式会社Ｃｒａｆｔｓｍａｎ’ｓ　Ｗａｒｅｈｏｕｓｅ,,株式会社,東京都,世田谷区,尾山台２丁目１５番１８号,,13,112,1580086,,,,,,,2025-03-13,1,,,,,クラフツマンズウェアハウス,0
1595,7010901057008,新規,0,2025-03-13,2025-03-13,株式会社西村製作所,,株式会社,東京都,世田谷区,三軒茶屋２丁目６番２号プラザＵＳＡ三軒茶屋１０１,,13,112,1540024,,,,,,,2025-03-13,1,,,,,ニシムラセイサクジョ,0
1597,7010903009758,新規,0,2025-03-13,2025-03-13,合同会社テッセン,,合同会社,東京都,世田谷区,代田３丁目５‐２９,,13,112,1550033,,,,,,,2025-03-13,1,,,,,テッセン,0
1601,7011001168380,新規,0,2025-03-13,2025-03-13,株式会社Ｐｒｏｃｋ,,株式会社,東京都,目黒区,青葉台４丁目７番７号,,13,110,1530042,,,,,,,2025-03-13,1,,,,,プロック,0
1604,7011101110960,新規,0,2025-03-13,2025-03-13,株式会社エンコーポレーション,,株式会社,東京都,新宿区,西新宿３丁目３番１３号西新宿水間ビル２Ｆ,,13,104,1600023,,,,,,,2025-03-13,1,,,,,エンコーポレーション,0
1605,7011101110977,新規,0,2025-03-13,2025-03-13,株式会社アンシェリ,,株式会社,東京都,新宿区,若葉２丁目８番地,,13,104,1600011,,,,,,,2025-03-13,1,,,,,アンシェリ,0
1606,7011101110993,新規,0,2025-03-13,2025-03-13,株式会社ケアリンク,,株式会社,東京都,新宿区,西新宿６丁目５番１号新宿アイランドタワー２階,,13,104,1600023,,,,,,,2025-03-13,1,,,,,ケアリンク,0
1609,7011301030430,新規,0,2025-03-13,2025-03-13,スタジオカリス株式会社,,株式会社,東京都,杉並区,上荻１丁目１８番３号亀屋酒販第２ビル３１２号,,13,115,1670043,,,,,,,2025-03-13,1,,,,,スタジオカリス,0
1614,7011701028149,新規,0,2025-03-13,2025-03-13,株式会社ＧＮＶ,,株式会社,東京都,江戸川区,南篠崎町２丁目３６番１１号,,13,123,1330065,,,,,,,2025-03-13,1,,,,,ジーエヌヴイ,0
1616,7011703004164,新規,0,2025-03-13,2025-03-13,合同会社ｐｉｘｎｅｓｓ,,合同会社,東京都,江戸川区,西葛西３丁目１８―６,,13,123,1340088,,,,,,,2025-03-13,1,,,,,ピクネス,0
1617,7011801045804,新規,0,2025-03-13,2025-03-13,株式会社ラピス,,株式会社,東京都,葛飾区,立石５丁目１５番１７号,,13,122,1240012,,,,,,,2025-03-13,1,,,,,ラピス,0
1619,7012401042877,新規,0,2025-03-13,2025-03-13,株式会社メイプル,,株式会社,東京都,調布市,深大寺北町１丁目３０番地２,,13,208,1820011,,,,,,,2025-03-13,1,,,,,メイプル,0
1622,7013301053923,新規,0,2025-03-13,2025-03-13,プルガティオマーケティング株式会社,,株式会社,東京都,豊島区,東池袋３丁目１番１号,,13,116,1700013,,,,,,,2025-03-13,1,,,,,プルガティオマーケティング,0
1629,7020001161832,新規,0,2025-03-13,2025-03-13,株式会社オルト,,株式会社,神奈川県,横浜市港北区,日吉２丁目１５番２８号日吉第一ＱＳハイム１０５号室,,14,109,2230061,,,,,,,2025-03-13,1,,,,,オルト,0
1631,7020003027965,新規,0,2025-03-13,2025-03-13,ＴＭＡＴ合同会社,,合同会社,神奈川県,横浜市港北区,日吉１丁目３番３０‐２号,,14,109,2230061,,,,,,,2025-03-13,1,,,,,ティーエムエーティー,0
1632,7020003028014,新規,0,2025-03-13,2025-03-13,合同会社ｅｖｅｎ,,合同会社,神奈川県,横浜市神奈川区,金港町５－１４クアドリフォリオ８Ｆ,,14,102,2210056,,,,,,,2025-03-13,1,,,,,イーブン,0
1633,7020003028030,新規,0,2025-03-13,2025-03-13,ひだまりエステート合同会社,,合同会社,神奈川県,横浜市南区,万世町２丁目２４番地グランシティレイディアント横濱コンフォルト１１０４号,,14,105,2320032,,,,,,,2025-03-13,1,,,,,ヒダマリエステート,0
1634,7020003028039,新規,0,2025-03-13,2025-03-13,合同会社ユノック,,合同会社,神奈川県,横浜市都筑区,仲町台１丁目３１番６号－４階,,14,118,2240041,,,,,,,2025-03-13,1,,,,,ユノック,0
1635,7020003028055,新規,0,2025-03-13,2025-03-13,そらうみ合同会社,,合同会社,神奈川県,横浜市南区,大岡５丁目４０番１６－３０６号,,14,105,2320061,,,,,,,2025-03-13,1,,,,,ソラウミ,0
1637,7021001084676,新規,0,2025-03-13,2025-03-13,クリニカルサポート株式会社,,株式会社,神奈川県,厚木市,岡田４丁目２０番１３号,,14,212,2430021,,,,,,,2025-03-13,1,,,,,クリニカルサポート,0
1645,7030001165337,新規,0,2025-03-13,2025-03-13,株式会社ＢｌｏｏｍＳｙｎｃ,,株式会社,埼玉県,川越市,かすみ野１丁目７番地１３,,11,201,3501174,,,,,,,2025-03-13,1,,,,,ブルームシンク,0
1646,7030001165353,新規,0,2025-03-13,2025-03-13,株式会社文秋,,株式会社,埼玉県,川口市,飯塚２丁目２番１０－２０１号ドリームタワーキュアレジデンス,,11,203,3320023,,,,,,,2025-03-13,1,,,,,ブンシュウ,0
1647,7030001165361,新規,0,2025-03-13,2025-03-13,株式会社アイフォーカス,,株式会社,埼玉県,川越市,大字笠幡４９９５番地１２,,11,201,3501175,,,,,,,2025-03-13,1,,,,,アイフォーカス,0
1648,7030001165386,新規,0,2025-03-13,2025-03-13,株式会社Ｅｄｕ　Ｇｌｏｂｅ,,株式会社,埼玉県,川口市,本町２丁目６番２５－５０３号デュアルリンクス川口本町,,11,203,3320012,,,,,,,2025-03-13,1,,,,,エデュグローブ,0
1649,7030001165403,新規,0,2025-03-13,2025-03-13,Ｎｅｏｄｅａｌ株式会社,,株式会社,埼玉県,川口市,元郷１丁目１７番３－２０４号シャルマンコーポ川口,,11,203,3320011,,,,,,,2025-03-13,1,,,,,ニオディール,0
1653,7030003026082,新規,0,2025-03-13,2025-03-13,合同会社近藤興業,,合同会社,埼玉県,吉川市,平沼１丁目８－３３,,11,243,3420056,,,,,,,2025-03-13,1,,,,,コンドウコウギョウ,0
1654,7030003026339,新規,0,2025-03-13,2025-03-13,ＮＨＡＴ　ＮＡＭ合同会社,,合同会社,埼玉県,朝霞市,泉水３丁目１４番１－Ｂ－７０１号,,11,227,3510024,,,,,,,2025-03-13,1,,,,,ニャットナム,0
1657,7040001137780,新規,0,2025-03-13,2025-03-13,株式会社ＫＡＮＫＩ,,株式会社,千葉県,松戸市,大金平４丁目２１４,,12,207,2700006,,,,,,,2025-03-13,1,,,,,カンキ,0
1659,7040003027014,新規,0,2025-03-13,2025-03-13,合同会社メリーゲート,,合同会社,千葉県,松戸市,小金上総町１５番地の１１,,12,207,2700015,,,,,,,2025-03-13,1,,,,,メリーゲート,0
1664,7070001042722,新規,0,2025-03-13,2025-03-13,株式会社ＣＥＮＩＵ,,株式会社,群馬県,みどり市,笠懸町阿左美８０４番地３０,,10,212,3792311,,,,,,,2025-03-13,1,,,,,セニュー,0
1665,7070001042730,新規,0,2025-03-13,2025-03-13,株式会社ぐんま馬会,,株式会社,群馬県,高崎市,井出町１９４番地１,,10,202,3703534,,,,,,,2025-03-13,1,,,,,グンマバエ,0
1668,7080101025378,新規,0,2025-03-13,2025-03-13,株式会社ＭＯＤＥＣＲＥＳＴ,,株式会社,静岡県,伊東市,八幡野１３２４番地の１４,,22,208,4130232,,,,,,,2025-03-13,1,,,,,,0
1673,7100003008024,新規,0,2025-03-13,2025-03-13,ＺＥＵＳ合同会社,,合同会社,長野県,松本市,蟻ケ崎５丁目１番６－１０号Ｂ棟,,20,202,3900861,,,,,,,2025-03-13,1,,,,,ゼウス,0
1675,7110001039111,新規,0,2025-03-13,2025-03-13,株式会社かなめサービス,,株式会社,新潟県,上越市,五智３丁目１６番１２号,,15,222,9420081,,,,,,,2025-03-13,1,,,,,カナメサービス,0
1684,7120001273238,新規,0,2025-03-13,2025-03-13,宏盛株式会社,,株式会社,大阪府,大阪市住吉区,苅田２丁目７番１３号,,27,120,5580011,,,,,,,2025-03-13,1,,,,,コウセイ,0
1685,7120001273452,新規,0,2025-03-13,2025-03-13,Ｄｒｅａｍ　Ｓｅａ株式会社,,株式会社,大阪府,大阪市東住吉区,東田辺３丁目１－１－１Ｆ－Ｆ,,27,121,5460032,,,,,,,2025-03-13,1,,,,,ドリームシー,0
1686,7120001273460,新規,0,2025-03-13,2025-03-13,株式会社上,,株式会社,大阪府,大阪市中央区,南船場３丁目２番２２号おおきに南船場ビル２０５,,27,128,5420081,,,,,,,2025-03-13,1,,,,,ウエ,0
1687,7120001273543,新規,0,2025-03-13,2025-03-13,領格新材料株式会社,,株式会社,大阪府,大阪市都島区,中野町４丁目３番６号Ｈ２Ｈ大阪桜之宮邸３Ｅ－１,,27,102,5340027,,,,,,,2025-03-13,1,,,,,リョウカクシンザイリョウ,0
1688,7120001273584,新規,0,2025-03-13,2025-03-13,株式会社レキップサービス,,株式会社,大阪府,大阪市北区,梅田１丁目１番３号（２３０３号）,,27,127,5300001,,,,,,,2025-03-13,1,,,,,レキップサービス,0
1689,7120001273601,新規,0,2025-03-13,2025-03-13,丸阪技研株式会社,,株式会社,大阪府,大阪市西区,立売堀２丁目１番１４号２階,,27,106,5500012,,,,,,,2025-03-13,1,,,,,マルハンギケン,0
1690,7120001273618,新規,0,2025-03-13,2025-03-13,株式会社Ｋｋ,,株式会社,大阪府,大阪市北区,西天満２丁目５番１２号,,27,127,5300047,,,,,,,2025-03-13,1,,,,,ケイケイ,0
1691,7120001273634,新規,0,2025-03-13,2025-03-13,星辰匯株式会社,,株式会社,大阪府,大阪市北区,本庄東３丁目３番７号マンション淀２０１Ａ,,27,127,5310074,,,,,,,2025-03-13,1,,,,,ホシシンカイ,0
1692,7120003028838,新規,0,2025-03-13,2025-03-13,合同会社りんケア,,合同会社,大阪府,大阪市都島区,都島中通３丁目１３－１１－１０１,,27,102,5340022,,,,,,,2025-03-13,1,,,,,リンケア,0
1693,7120003028862,新規,0,2025-03-13,2025-03-13,合同会社堅,,合同会社,大阪府,大阪市西成区,玉出東１丁目３番４－２０１号,,27,122,5570043,,,,,,,2025-03-13,1,,,,,ケン,0
1700,7120901050587,新規,0,2025-03-13,2025-03-13,株式会社ＳＫＹレンタルスペース,,株式会社,大阪府,摂津市,南千里丘５番１３－１３０２号,,27,224,5660021,,,,,,,2025-03-13,1,,,,,スカイレンタルスペース,0
1703,7122001038975,新規,0,2025-03-13,2025-03-13,ＴＣワークス株式会社,,株式会社,大阪府,八尾市,山賀町５丁目２番１号,,27,212,5810812,,,,,,,2025-03-13,1,,,,,ティーシーワークス,0
1704,7122003003127,新規,0,2025-03-13,2025-03-13,Ｓ＆Ｓライフプラス合同会社,,合同会社,大阪府,東大阪市,大蓮北４丁目４番１５号,,27,227,5770826,,,,,,,2025-03-13,1,,,,,エスアンドエスライフプラス,0
1705,7122003003143,新規,0,2025-03-13,2025-03-13,合同会社Ｏｔｔｏｃｏｄａ,,合同会社,大阪府,八尾市,東本町５丁目１０番６号東本町ＨＹガレージハウス,,27,212,5810004,,,,,,,2025-03-13,1,,,,,オットコーダ,0
1707,7130001079147,新規,0,2025-03-13,2025-03-13,株式会社ＣｉｔＧ,,株式会社,京都府,京都市下京区,大黒町２２７番地第２キョートビル４０２,,26,106,6008043,,,,,,,2025-03-13,1,,,,,シーアイティージー,0
1708,7130001079213,新規,0,2025-03-13,2025-03-13,株式会社パンとエスプレッソと京都,,株式会社,京都府,京都市右京区,嵯峨天龍寺北造路町２９番地２,,26,108,6168374,,,,,,,2025-03-13,1,,,,,パントエスプレッソトキョウト,0
1712,7140001137713,新規,0,2025-03-13,2025-03-13,エフテック株式会社,,株式会社,兵庫県,姫路市,西夢前台１丁目２３番地１７,,28,201,6712214,,,,,,,2025-03-13,1,,,,,エフテック,0
1713,7140001137738,新規,0,2025-03-13,2025-03-13,ＩＣＨＩ株式会社,,株式会社,兵庫県,神戸市中央区,東川崎町５丁目９番１３号,,28,110,6500044,,,,,,,2025-03-13,1,,,,,イチ,0
1726,7180001165859,新規,0,2025-03-13,2025-03-13,丸新商会株式会社,,株式会社,愛知県,海部郡大治町,大字東條字砂島２７番地の２,,23,424,4901134,,,,,,,2025-03-13,1,,,,,マルシンショウカイ,0
1727,7180001165883,新規,0,2025-03-13,2025-03-13,株式会社あおぞら,,株式会社,愛知県,名古屋市中村区,名駅３丁目２２番４号,,23,105,4500002,,,,,,,2025-03-13,1,,,,,アオゾラ,0
1728,7180001165900,新規,0,2025-03-13,2025-03-13,株式会社誠工務店,,株式会社,愛知県,日進市,藤島町長塚２０番地２,,23,230,4700102,,,,,,,2025-03-13,1,,,,,マコトコウムテン,0
1729,7180001165941,新規,0,2025-03-13,2025-03-13,株式会社ＹＵＲＵＭＯＴ,,株式会社,愛知県,一宮市,城崎通７丁目１５番地１,,23,203,4910866,,,,,,,2025-03-13,1,,,,,ユルモット,0
1734,7180303006488,新規,0,2025-03-13,2025-03-13,合同会社ライフアップ,,合同会社,愛知県,豊橋市,中岩田３丁目１１番地３,,23,201,4400832,,,,,,,2025-03-13,1,,,,,ライフアップ,0
1739,7200001043533,新規,0,2025-03-13,2025-03-13,株式会社いとう不動産,,株式会社,岐阜県,多治見市,本町１丁目８０番地１校條ビル２Ｆ,,21,204,5070033,,,,,,,2025-03-13,1,,,,,イトウフドウサン,0
1741,7210001020093,新規,0,2025-03-13,2025-03-13,株式会社ＵＮＯＲＴＨＯＤＯＸ,,株式会社,福井県,福井市,八重巻町１０８番地トリプルエイト２０１,,18,201,9100123,,,,,,,2025-03-13,1,,,,,アンオーソドックス,0
1742,7220001026544,新規,0,2025-03-13,2025-03-13,株式会社ＰＲＯＭＯＴＥ・ＰＬＵＳ,,株式会社,石川県,金沢市,大野町４丁目ル２０番地６,,17,201,9200331,,,,,,,2025-03-13,1,,,,,プロモートプラス,0
1743,7230001020785,新規,0,2025-03-13,2025-03-13,株式会社ブルーアーチ,,株式会社,富山県,富山市,城川原１丁目９番５２号,,16,201,9318325,,,,,,,2025-03-13,1,,,,,ブルーアーチ,0
1747,7240003007111,新規,0,2025-03-13,2025-03-13,昊工業合同会社,,合同会社,広島県,福山市,神辺町字平野７７番地１,,34,207,7202116,,,,,,,2025-03-13,1,,,,,コウコウギョウ,0
1749,7260001040021,新規,0,2025-03-13,2025-03-13,株式会社Ｋｉｒａｋｕ　Ｕｎｙｕ,,株式会社,岡山県,岡山市東区,松新町２６９番地２リバーサイド１０２,,33,103,7048174,,,,,,,2025-03-13,1,,,,,キラクウンユ,0
1752,7260003005096,新規,0,2025-03-13,2025-03-13,合同会社キノシタショウジ,,合同会社,岡山県,瀬戸内市,邑久町尾張３４２番地２,,33,212,7014221,,,,,,,2025-03-13,1,,,,,キノシタショウジ,0
1753,7270001009164,新規,0,2025-03-13,2025-03-13,株式会社山陰コムテック,,株式会社,鳥取県,米子市,淀江町今津２５５番地９,,31,202,6893401,,,,,,,2025-03-13,1,,,,,サンインコムテック,0
1754,7280001009378,新規,0,2025-03-13,2025-03-13,株式会社楽テクラボ,,株式会社,島根県,雲南市,三刀屋町多久和２２０２－６,,32,209,6902512,,,,,,,2025-03-13,1,,,,,ラクテクラボ,0
1761,7290001109301,新規,0,2025-03-13,2025-03-13,株式会社ナルセ,,株式会社,福岡県,春日市,上白水３丁目８３番地,,40,218,8160844,,,,,,,2025-03-13,1,,,,,,0
1764,7290801031357,新規,0,2025-03-13,2025-03-13,株式会社Ａｚｕｒ,,株式会社,福岡県,北九州市小倉北区,馬借１丁目１３番５号１Ｆ,,40,106,8020077,,,,,,,2025-03-13,1,,,,,アズール,0
1766,7330001032977,新規,0,2025-03-13,2025-03-13,株式会社ＰＡＰＵＬＩＣＡ,,株式会社,熊本県,熊本市北区,鶴羽田４丁目６番４１号,,43,105,8615517,,,,,,,2025-03-13,1,,,,,パプリカ,0
1771,7340001027191,新規,0,2025-03-13,2025-03-13,株式会社絆,,株式会社,鹿児島県,鹿児島市,日之出町４１番８号,,46,201,8900086,,,,,,,2025-03-13,1,,,,,キズナ,0
1773,7340005009830,新規,0,2025-03-13,2025-03-13,医療法人ユーカリデンタルクリニック,,その他の設立登記法人,鹿児島県,鹿児島市,中山町２６６５番地,,46,201,8910105,,,,,,,2025-03-13,1,,,,,ユーカリデンタルクリニック,0
1774,7350001019436,新規,0,2025-03-13,2025-03-13,株式会社甲斐技興,,株式会社,宮崎県,宮崎市,清武町今泉乙１８番地,,45,201,8891602,,,,,,,2025-03-13,1,,,,,カイギコウ,0
1776,7350003004873,新規,0,2025-03-13,2025-03-13,デジタルリアクタ合同会社,,合同会社,宮崎県,児湯郡高鍋町,大字北高鍋１０８１番地,,45,401,8840002,,,,,,,2025-03-13,1,,,,,デジタルリアクタ,0
1788,7390001017923,新規,0,2025-03-13,2025-03-13,とがし株式会社,,株式会社,山形県,山形市,あこや町３丁目１４番４７号,,06,201,9900025,,,,,,,2025-03-13,1,,,,,トガシ,0
1789,7400001016972,新規,0,2025-03-13,2025-03-13,株式会社ＨＯＰＥ,,株式会社,岩手県,盛岡市,月が丘３丁目４６番４７号コンフォート月が丘Ｃ号室,,03,201,0200121,,,,,,,2025-03-13,1,,,,,ホープ,0
1799,7430001093869,新規,0,2025-03-13,2025-03-13,株式会社Ｗｈｉｔｅ　Ｖａｌｕｅ,,株式会社,北海道,札幌市西区,西野八条１丁目３－２７,,01,107,0630038,,,,,,,2025-03-13,1,,,,,ホワイトバリュー,0
1800,7430001093877,新規,0,2025-03-13,2025-03-13,ＣＨＩＫＡＩ株式会社,,株式会社,北海道,新冠郡新冠町,字西泊津１３番地１０１,,01,604,0592418,,,,,,,2025-03-13,1,,,,,チカイ,0
1801,7430001093893,新規,0,2025-03-13,2025-03-13,ＨＳＡ株式会社,,株式会社,北海道,小樽市,若松２丁目１番１５号,,01,203,0470017,,,,,,,2025-03-13,1,,,,,エイチエスエー,0
1802,7430001093910,新規,0,2025-03-13,2025-03-13,株式会社ｈｏｒｉｚ,,株式会社,北海道,札幌市北区,北十二条西１丁目２－３ｓｈａｌｏｍ１２２　３０２,,01,102,0010012,,,,,,,2025-03-13,1,,,,,ホライズ,0
1803,7430001093919,新規,0,2025-03-13,2025-03-13,ｍｉｎｕｓ株式会社,,株式会社,北海道,札幌市中央区,南八条西１１丁目２番３０－２０１号,,01,101,0640808,,,,,,,2025-03-13,1,,,,,マイナス,0
1807,7430003017371,新規,0,2025-03-13,2025-03-13,Ｅｚｏ．Ｅｍａｕｘ合同会社,,合同会社,北海道,札幌市北区,新川四条３丁目２番３４号ハイムフォーリバー２０２号,,01,102,0010924,,,,,,,2025-03-13,1,,,,,エゾエマユ,0
1808,7430003017388,新規,0,2025-03-13,2025-03-13,希ノ水合同会社,,合同会社,北海道,室蘭市,中島町２丁目１５番７－５０１号,,01,205,0500074,,,,,,,2025-03-13,1,,,,,キノミ,0
1809,7430003017396,新規,0,2025-03-13,2025-03-13,合同会社カシグルミ,,合同会社,北海道,札幌市中央区,北十条西１５丁目１番４号,,01,101,0600010,,,,,,,2025-03-13,1,,,,,カシグルミ,0
1810,7460101007676,新規,0,2025-03-13,2025-03-13,株式会社ストロンガー,,株式会社,北海道,帯広市,西二十二条南４丁目１９番地１０,,01,207,0802472,,,,,,,2025-03-13,1,,,,,ストロンガー,0
1811,7460103001693,新規,0,2025-03-13,2025-03-13,池間ブルー合同会社,,合同会社,北海道,河東郡音更町,十勝川温泉南１４丁目１番地５２,,01,631,0800263,,,,,,,2025-03-13,1,,,,,イケマブルー,0
1815,7500001026193,新規,0,2025-03-13,2025-03-13,ＴＡＫＥ　ＮＥＸＴ株式会社,,株式会社,愛媛県,松山市,土手内２０１番地２,,38,201,7992432,,,,,,,2025-03-13,1,,,,,タケネクスト,0
1816,7700150122384,新規,0,2025-03-13,2025-03-13,Ｊｉａｎｇｓｕ　Ｆｉｏｒｅｔｔｏ　Ｅｎｔｅｒｐｒｉｓｅ　Ｃｏ．，Ｌｔｄ,,外国会社等,,,,,,,,Ｙｕｎ　Ｈｅ　Ｄｏｎｇ　Ｌｕ　Ｓｈｉ　Ｄａｉ　Ｇｏｎｇ　Ｙｕ　Ａ　Ｚｈｕａｎｇ　５５５　Ｄａｎ　Ｙｕａｎ　２３　Ｃｅｎｇ　２７１０　Ｈａｏ　Ｆａｎｇ　Ｗｕｘｉ　Ｊｉａｎｇｓｕ　２１４０２３　ＣＮ,,,,,,2025-03-13,1,,,,,ジアンスゥフェイオァライドウシイエヨウシエンゴンス,0
1834,8010001253010,新規,0,2025-03-13,2025-03-13,リエタケ株式会社,,株式会社,東京都,文京区,本郷１丁目１６番５号第２島村ビル３階,,13,105,1130033,,,,,,,2025-03-13,1,,,,,リエタケ,0
1835,8010001253051,新規,0,2025-03-13,2025-03-13,株式会社みらいらいふ,,株式会社,東京都,千代田区,神田和泉町１番地６－１６ヤマトビル４０５,,13,101,1010024,,,,,,,2025-03-13,1,,,,,ミライライフ,0
1842,8010005039736,新規,0,2025-03-13,2025-03-13,医療法人社団美映会,,その他の設立登記法人,東京都,文京区,湯島１丁目９番１４号プチモンドお茶の水８階,,13,105,1130034,,,,,,,2025-03-13,1,,,,,ヨシエカイ,0
1844,8010401188806,新規,0,2025-03-13,2025-03-13,株式会社Ｔｅｌｌ,,株式会社,東京都,港区,北青山１丁目３－３三橋ビル３階,,13,103,1070061,,,,,,,2025-03-13,1,,,,,テル,0
1845,8010401188847,新規,0,2025-03-13,2025-03-13,株式会社邦文不動産,,株式会社,東京都,港区,南麻布１丁目６番６号１００１号室,,13,103,1060047,,,,,,,2025-03-13,1,,,,,クニブンフドウサン,0
1846,8010401188954,新規,0,2025-03-13,2025-03-13,ヨロズリファクタリング株式会社,,株式会社,東京都,港区,浜松町２丁目２番１５号浜松町ダイヤビル２Ｆ,,13,103,1050013,,,,,,,2025-03-13,1,,,,,ヨロズリファクタリング,0
1849,8010403034561,新規,0,2025-03-13,2025-03-13,Ａｎｅｕｒｏｚ合同会社,,合同会社,東京都,港区,新橋４丁目１４番１新橋ＡＵＮＢＬＤＧ４階,,13,103,1050004,,,,,,,2025-03-13,1,,,,,アニューロズ,0
1850,8010403034611,新規,0,2025-03-13,2025-03-13,アガキャッスル合同会社,,合同会社,東京都,港区,虎ノ門３丁目２５番５－１２０４号,,13,103,1050001,,,,,,,2025-03-13,1,,,,,アガキャッスル,0
1854,8010603011435,新規,0,2025-03-13,2025-03-13,硝子猫合同会社,,合同会社,東京都,江東区,大島５丁目５１番１１号Ｓｏｌｅｎｎｅ大島２０３室,,13,108,1360072,,,,,,,2025-03-13,1,,,,,ガラスネコ,0
1856,8010901056958,新規,0,2025-03-13,2025-03-13,ＭＴ・ＲＥＣＲＥＡＴＩＯＮ’Ｓ株式会社,,株式会社,東京都,世田谷区,下馬５丁目８－２,,13,112,1540002,,,,,,,2025-03-13,1,,,,,エムティレクリエーションズ,0
1857,8010901056990,新規,0,2025-03-13,2025-03-13,株式会社ＢｅｌｌｅＶｉｅ,,株式会社,東京都,世田谷区,成城２丁目１４番１２号,,13,112,1570066,,,,,,,2025-03-13,1,,,,,ベルヴィー,0
1858,8010901057015,新規,0,2025-03-13,2025-03-13,株式会社Ｍｏａｔ　Ｅｘｐｅｒｉｅｎｃｅ,,株式会社,東京都,世田谷区,松原３丁目１９番１２号,,13,112,1560043,,,,,,,2025-03-13,1,,,,,モートエクスペリエンス,0
1865,8011101110976,新規,0,2025-03-13,2025-03-13,株式会社ＬＯＲＡＮ　ＤＥＳＩＧＮ,,株式会社,東京都,新宿区,高田馬場１丁目３２番１０号,,13,104,1690075,,,,,,,2025-03-13,1,,,,,ロランデザイン,0
1867,8011103015629,新規,0,2025-03-13,2025-03-13,合同会社リベラ,,合同会社,東京都,新宿区,北新宿３丁目１０番１０号,,13,104,1690074,,,,,,,2025-03-13,1,,,,,リベラ,0
1868,8011103015653,新規,0,2025-03-13,2025-03-13,合同会社ホームページシステムズ,,合同会社,東京都,新宿区,西新宿３丁目３番１３号,,13,104,1600023,,,,,,,2025-03-13,1,,,,,ホームページシステムズ,0
1869,8011105011361,新規,0,2025-03-13,2025-03-13,一般社団法人ＣＡＣ　Ｆｏｕｎｄａｔｉｏｎ,,その他の設立登記法人,東京都,新宿区,新宿２丁目１２番１３号,,13,104,1600022,,,,,,,2025-03-13,1,,,,,シーエーシーファウンデーション,0
1874,8011701028148,新規,0,2025-03-13,2025-03-13,株式会社カルマ,,株式会社,東京都,江戸川区,春江町５丁目２２番３７号,,13,123,1340003,,,,,,,2025-03-13,1,,,,,カルマ,0
1888,8020001161930,新規,0,2025-03-13,2025-03-13,株式会社ウィロー,,株式会社,神奈川県,横浜市西区,宮ケ谷５４番地ルピナス横浜三ツ沢公園７０５号,,14,103,2200006,,,,,,,2025-03-13,1,,,,,ウィロー,0
1890,8020003027717,新規,0,2025-03-13,2025-03-13,合同会社Ｐｅａｃｅｆｕｌ　ｔｒｅｅ,,合同会社,神奈川県,横浜市青葉区,荏田町１５５－１３－２０１,,14,117,2250013,,,,,,,2025-03-13,1,,,,,ピースフルツリー,0
1891,8020003028005,新規,0,2025-03-13,2025-03-13,合同会社ファクトフォーカス,,合同会社,神奈川県,横浜市港北区,日吉５丁目２４番２２３０１号,,14,109,2230061,,,,,,,2025-03-13,1,,,,,ファクトフォーカス,0
1892,8020005016734,新規,0,2025-03-13,2025-03-13,医療法人ニューロヘルスケア,,その他の設立登記法人,神奈川県,川崎市麻生区,上麻生４丁目３５番５号,,14,137,2150021,,,,,,,2025-03-13,1,,,,,ニューロヘルスケア,0
1894,8021001084717,新規,0,2025-03-13,2025-03-13,株式会社ゆずりは,,株式会社,神奈川県,相模原市南区,上鶴間本町１丁目３４番２８号,,14,153,2520318,,,,,,,2025-03-13,1,,,,,ユズリハ,0
1898,8021003015711,新規,0,2025-03-13,2025-03-13,ＴＨＹ　Ｎｅｘｕｓ合同会社,,合同会社,神奈川県,厚木市,愛甲西２丁目２３番２号,,14,212,2430028,,,,,,,2025-03-13,1,,,,,ティーエイチワイネクサス,0
1900,8030001165344,新規,0,2025-03-13,2025-03-13,株式会社ＥＮＲＩＣＨ,,株式会社,埼玉県,草加市,長栄１丁目６８３番地５,,11,221,3400051,,,,,,,2025-03-13,1,,,,,エンリッチ,0
1901,8030001165352,新規,0,2025-03-13,2025-03-13,株式会社ＳＭＳＣ,,株式会社,埼玉県,所沢市,小手指元町３丁目１９－７,,11,208,3591147,,,,,,,2025-03-13,1,,,,,エスエムエスシー,0
1902,8030001165377,新規,0,2025-03-13,2025-03-13,モーターホームジャパン株式会社,,株式会社,埼玉県,川越市,清水町４番地２７,,11,201,3501145,,,,,,,2025-03-13,1,,,,,モーターホームジャパン,0
1906,8030003026321,新規,0,2025-03-13,2025-03-13,合同会社ｆｅｎｎｅｃ,,合同会社,埼玉県,所沢市,大字上山口１６０５番地の３,,11,208,3591153,,,,,,,2025-03-13,1,,,,,フェネック,0
1907,8030003026338,新規,0,2025-03-13,2025-03-13,合同会社永興,,合同会社,埼玉県,吉川市,美南２丁目１４番地１レーベン吉川美南サンプレッジ６０５,,11,243,3420038,,,,,,,2025-03-13,1,,,,,エイコウ,0
1908,8030003026346,新規,0,2025-03-13,2025-03-13,速派合同会社,00138327,合同会社,埼玉県,さいたま市南区,文蔵３丁目２８－６－１０２－２０４室,,11,108,3360025,,,,,,,2025-03-13,1,,,,,ソクハ,0
1912,8040003027038,新規,0,2025-03-13,2025-03-13,イエマルプラス合同会社,,合同会社,千葉県,市川市,行徳駅前１丁目１２番１７号,,12,203,2720133,,,,,,,2025-03-13,1,,,,,イエマルプラス,0
1915,8050001056319,新規,0,2025-03-13,2025-03-13,株式会社ＷＩＳＨ,,株式会社,茨城県,日立市,日高町５丁目２番１６号,,08,202,3191414,,,,,,,2025-03-13,1,,,,,ウィッシュ,0
1916,8050001056343,新規,0,2025-03-13,2025-03-13,株式会社エスコナ,,株式会社,茨城県,坂東市,菅谷１３１０－７,,08,228,3060505,,,,,,,2025-03-13,1,,,,,エスコナ,0
1919,8060003005470,新規,0,2025-03-13,2025-03-13,合同会社Ｗａｒｍ　Ｌｉｎｋ,,合同会社,栃木県,栃木市,岩舟町和泉１４３８番地,,09,203,3294303,,,,,,,2025-03-13,1,,,,,ウォームリンク,0
1920,8070001042721,新規,0,2025-03-13,2025-03-13,株式会社相川電気計画,,株式会社,群馬県,太田市,西新町２番地３６,,10,205,3730847,,,,,,,2025-03-13,1,,,,,アイカワデンキケイカク,0
1921,8070003005817,新規,0,2025-03-13,2025-03-13,合同会社ＰＬＡＮＫＴＯＮ,,合同会社,群馬県,高崎市,下之城町４番地１,,10,202,3700854,,,,,,,2025-03-13,1,,,,,プランクトン,0
1922,8080001026806,新規,0,2025-03-13,2025-03-13,株式会社カワグチ建設,,株式会社,静岡県,静岡市清水区,但沼町５０１番地,,22,103,4240303,,,,,,,2025-03-13,1,,,,,カワグチケンセツ,0
1924,8080101025369,新規,0,2025-03-13,2025-03-13,株式会社スクーデリア１,,株式会社,静岡県,富士市,宮島７８６番地の３２,,22,210,4160945,,,,,,,2025-03-13,1,,,,,スクーデリアワン,0
1925,8080103003273,新規,0,2025-03-13,2025-03-13,山崎ユーティライジング合同会社,00138340,合同会社,静岡県,御殿場市,萩原１９５番地の３,,22,215,4120042,,,,,,,2025-03-13,1,,,,,ヤマザキユーティライジング,0
1927,8100001038402,新規,0,2025-03-13,2025-03-13,株式会社ヤガ研,,株式会社,長野県,塩尻市,大門六番町１番１２－３号,,20,215,3990731,,,,,,,2025-03-13,1,,,,,ヤガケン,0
1928,8100003008007,新規,0,2025-03-13,2025-03-13,ＣｅｎｔｒｅＦｏｒｗａｒｄ合同会社,,合同会社,長野県,東御市,田中１７８－２,,20,219,3890516,,,,,,,2025-03-13,1,,,,,センターフォワード,0
1930,8110001039110,新規,0,2025-03-13,2025-03-13,株式会社ＺＥＰＯ,,株式会社,新潟県,新潟市西区,平島１３４６番地２ウェルズ２１平島,,15,107,9502004,,,,,,,2025-03-13,1,,,,,ゼポ,0
1931,8110003005696,新規,0,2025-03-13,2025-03-13,合同会社第一義建工業,,合同会社,新潟県,上越市,寺町３丁目９番３０号,,15,222,9430892,,,,,,,2025-03-13,1,,,,,,0
1940,8120001273286,新規,0,2025-03-13,2025-03-13,東福株式会社,,株式会社,大阪府,大阪市西成区,橘１丁目１１－２８オフィスポート橘３０１号,,27,122,5570051,,,,,,,2025-03-13,1,,,,,トウフク,0
1941,8120001273518,新規,0,2025-03-13,2025-03-13,株式会社９‐Ｂａｌｌ,,株式会社,大阪府,大阪市中央区,高麗橋２丁目１番８－２６０７号,,27,128,5410043,,,,,,,2025-03-13,1,,,,,ナインボール,0
1942,8120001273559,新規,0,2025-03-13,2025-03-13,日光商事株式会社,,株式会社,大阪府,大阪市港区,磯路２丁目７－１０－２０１号室,,27,107,5520003,,,,,,,2025-03-13,1,,,,,ニッコウショウジ,0
1943,8120001273600,新規,0,2025-03-13,2025-03-13,株式会社ＭＫ　Ｄｅｎｔａｌ,,株式会社,大阪府,大阪市城東区,諏訪２丁目８番１８号,,27,118,5360021,,,,,,,2025-03-13,1,,,,,エムケーデンタル,0
1944,8120001273617,新規,0,2025-03-13,2025-03-13,駿信株式会社,,株式会社,大阪府,大阪市中央区,農人橋２丁目１－３５－３１０,,27,128,5400011,,,,,,,2025-03-13,1,,,,,スンシン,0
1945,8120001273765,新規,0,2025-03-13,2025-03-13,Ｓ．Ｉ．Ｎホールディングス株式会社,,株式会社,大阪府,大阪市中央区,南船場１丁目１３番２０号リアライズ南船場ビル５Ｆ,,27,128,5420081,,,,,,,2025-03-13,1,,,,,エスアイエヌホールディングス,0
1957,8120905006700,新規,0,2025-03-13,2025-03-13,一般社団法人未来技能開発機構,,その他の設立登記法人,大阪府,高槻市,東五百住町１丁目２５番１号,,27,207,5690811,,,,,,,2025-03-13,1,,,,,ミライギノウカイハツキコウ,0
1958,8122001038982,新規,0,2025-03-13,2025-03-13,ＣＮＴシステム株式会社,,株式会社,大阪府,東大阪市,岩田町６丁目６番１－２０２号,,27,227,5780941,,,,,,,2025-03-13,1,,,,,シーエヌティシステム,0
1963,8140001137712,新規,0,2025-03-13,2025-03-13,株式会社グレート・クリーン,,株式会社,兵庫県,朝来市,和田山町加都７８番地,,28,225,6695264,,,,,,,2025-03-13,1,,,,,グレートクリーン,0
1965,8140003021798,新規,0,2025-03-13,2025-03-13,合同会社清援,,合同会社,兵庫県,姫路市,網干区浜田２２番地８－２,,28,201,6711242,,,,,,,2025-03-13,1,,,,,セイエン,0
1967,8150001027953,新規,0,2025-03-13,2025-03-13,株式会社ＧＵＩＤＥ,,株式会社,奈良県,香芝市,五位堂３丁目６０２番地４－１００３号,,29,210,6390226,,,,,,,2025-03-13,1,,,,,ガイド,0
1968,8150001027961,新規,0,2025-03-13,2025-03-13,キナコボウ株式会社,,株式会社,奈良県,生駒市,桜ケ丘３番２１号,,29,209,6300211,,,,,,,2025-03-13,1,,,,,キナコボウ,0
1969,8160001026608,新規,0,2025-03-13,2025-03-13,アットデオンズ株式会社,,株式会社,滋賀県,大津市,水明１丁目２０番地６,,25,201,5200531,,,,,,,2025-03-13,1,,,,,アットデオンズ,0
1977,8180001165825,新規,0,2025-03-13,2025-03-13,株式会社Ｐｌｕｍｅ　ｄ’ｏｒ,,株式会社,愛知県,名古屋市東区,泉２丁目２番３０号ヴィアーレ・ジュエリー５０３号,,23,102,4610001,,,,,,,2025-03-13,1,,,,,プリュムドール,0
1978,8180001165833,新規,0,2025-03-13,2025-03-13,株式会社エフエム,,株式会社,愛知県,愛西市,大井町道一１８８番地,,23,232,4960921,,,,,,,2025-03-13,1,,,,,エフエム,0
1979,8180001165882,新規,0,2025-03-13,2025-03-13,株式会社クレビジョン,,株式会社,愛知県,あま市,篠田明田４８番地１,,23,237,4901211,,,,,,,2025-03-13,1,,,,,クレビジョン,0
1980,8180001165908,新規,0,2025-03-13,2025-03-13,株式会社デュアルＫＩＤＳ矯正,,株式会社,愛知県,名古屋市北区,喜惣治１丁目１５７番地,,23,103,4620065,,,,,,,2025-03-13,1,,,,,デュアルキッズキョウセイ,0
1981,8180001165932,新規,0,2025-03-13,2025-03-13,株式会社ＭＮＲ,,株式会社,愛知県,名古屋市名東区,藤里町５０７番地レジデンス藤里１Ｆ,,23,115,4650036,,,,,,,2025-03-13,1,,,,,エムエヌアール,0
1983,8180301039596,新規,0,2025-03-13,2025-03-13,株式会社ＲＥＤ　ＳＨＯＵＬＤＥＲ,,株式会社,愛知県,豊田市,曙町５丁目７２番地,,23,211,4710835,,,,,,,2025-03-13,1,,,,,レッドショルダー,0
1989,8200001043532,新規,0,2025-03-13,2025-03-13,ＮＦＡＳＴホールディングス株式会社,,株式会社,岐阜県,海津市,海津町立野４６１番地１,,21,221,5030617,,,,,,,2025-03-13,1,,,,,エヌファストホールディングス,0
1992,8210001020092,新規,0,2025-03-13,2025-03-13,株式会社Ｊ’ｓ会計,,株式会社,福井県,福井市,若杉３丁目４０１番地１０,,18,201,9188055,,,,,,,2025-03-13,1,,,,,ジェイズカイケイ,0
1996,8220001026543,新規,0,2025-03-13,2025-03-13,株式会社ＫａａＦ,,株式会社,石川県,金沢市,広岡１丁目９番１６号（１１０２）,,17,201,9200031,,,,,,,2025-03-13,1,,,,,カーフ,0
1997,8230001020792,新規,0,2025-03-13,2025-03-13,青鳥寺株式会社,,株式会社,富山県,富山市,根塚町３丁目９番地１２,,16,201,9398204,,,,,,,2025-03-13,1,,,,,セイチョウジ,0
2000,8240001064640,新規,0,2025-03-13,2025-03-13,株式会社ＷＡ・ＫＵＲＵ,,株式会社,広島県,広島市中区,本川町３丁目１番５号,,34,101,7300802,,,,,,,2025-03-13,1,,,,,ワクル,0
2001,8240001064657,新規,0,2025-03-13,2025-03-13,株式会社ヒロヨシ家具工場,,株式会社,広島県,三原市,沼田西町惣定５５番地１０,,34,204,7290474,,,,,,,2025-03-13,1,,,,,ヒロヨシカグコウジョウ,0
2006,8260003005095,新規,0,2025-03-13,2025-03-13,合同会社ＰｉｇｇｙＢａｎｋ,,合同会社,岡山県,岡山市北区,新道３番地８ＰｉｇｇｙＢａｎｋ清輝橋２Ｆ,,33,101,7000863,,,,,,,2025-03-13,1,,,,,ピギーバンク,0
2010,8290001109267,新規,0,2025-03-13,2025-03-13,株式会社あなたの人事課,,株式会社,福岡県,糟屋郡粕屋町,原町１丁目９－８第１１川崎ビル５０１号,,40,349,8112307,,,,,,,2025-03-13,1,,,,,アナタノジンジカ,0
2014,8290801031348,新規,0,2025-03-13,2025-03-13,株式会社ココホーム,,株式会社,福岡県,北九州市小倉北区,緑ケ丘２丁目１２番３６－１０６号,,40,106,8030827,,,,,,,2025-03-13,1,,,,,ココホーム,0
2016,8300005007226,新規,0,2025-03-13,2025-03-13,リバーブ社会保険労務士法人,,その他の設立登記法人,佐賀県,武雄市,武雄町大字昭和１９７番地,,41,206,8430023,,,,,,,2025-03-13,1,,,,,リバーブ,0
2019,8330003010897,新規,0,2025-03-13,2025-03-13,合同会社ｉｃｈｉ　ｐｒａｎｎｉｎｇ,,合同会社,熊本県,熊本市西区,春日８丁目６番１９号,,43,103,8600047,,,,,,,2025-03-13,1,,,,,イチプランニング,0
2027,8350001019435,新規,0,2025-03-13,2025-03-13,株式会社Ｔ‐Ｇｌａｎｚ,,株式会社,宮崎県,東諸県郡国富町,大字嵐田５４１,,45,382,8801103,,,,,,,2025-03-13,1,,,,,ティーグランツ,0
2029,8350003004872,新規,0,2025-03-13,2025-03-13,合同会社ｈ＆ｆ,,合同会社,宮崎県,宮崎市,大字郡司分乙１０９８,,45,201,8800924,,,,,,,2025-03-13,1,,,,,エイチアンドエフ,0
2033,8360001034895,新規,0,2025-03-13,2025-03-13,株式会社響,,株式会社,沖縄県,沖縄市,胡屋５丁目２４番５号,,47,211,9040021,,,,,,,2025-03-13,1,,,,,ヒビキ,0
2034,8360001034920,新規,0,2025-03-13,2025-03-13,株式会社Ｏｌｉｖｅ　ｇｒｏｗ,,株式会社,沖縄県,宜野湾市,新城１丁目２５番１０－６０１号ライオンズマンション新城,,47,205,9012201,,,,,,,2025-03-13,1,,,,,オリーブグロウ,0
2040,8390001017922,新規,0,2025-03-13,2025-03-13,株式会社レギュラー,,株式会社,山形県,山形市,白山３丁目１３番２５号,,06,201,9902446,,,,,,,2025-03-13,1,,,,,レギュラー,0
2044,8430001093901,新規,0,2025-03-13,2025-03-13,株式会社高田工業,,株式会社,北海道,札幌市西区,福井５丁目８番１４号,,01,107,0630012,,,,,,,2025-03-13,1,,,,,タカダコウギョウ,0
2047,8430003017395,新規,0,2025-03-13,2025-03-13,合同会社Ｏ‐ＪＹＯ,,合同会社,北海道,江別市,大麻ひかり町８番地の１９,,01,217,0690847,,,,,,,2025-03-13,1,,,,,オージョ,0
2049,8430005015174,新規,0,2025-03-13,2025-03-13,一般社団法人ＳＵＩＰＲＥ　ＪＡＰＡＮ,,その他の設立登記法人,北海道,札幌市中央区,北一条西２６丁目５番１－６０６号,,01,101,0640821,,,,,,,2025-03-13,1,,,,,スイプレジャパン,0
2050,8460003001041,新規,0,2025-03-13,2025-03-13,合同会社ポートミライＯＮＥ,,合同会社,北海道,釧路郡釧路町,曙４丁目４番地８,,01,661,0880616,,,,,,,2025-03-13,1,,,,,ポートミライワン,0
2056,8480001012773,新規,0,2025-03-13,2025-03-13,ＵＺＵ　ｇｒｏｕｐ株式会社,,株式会社,徳島県,鳴門市,大津町木津野字仲ノ越８４番地５,,36,202,7720031,,,,,,,2025-03-13,1,,,,,ウズグループ,0
2060,8500001026192,新規,0,2025-03-13,2025-03-13,ＴＡＭＡ建築デザインテック株式会社,,株式会社,愛媛県,大洲市,平野町野田１３番地３,,38,207,7950021,,,,,,,2025-03-13,1,,,,,タマケンチクデザインテック,0
2071,9010001252960,新規,0,2025-03-13,2025-03-13,株式会社ＭＬＣ,,株式会社,東京都,中央区,日本橋室町１丁目１１番１２号日本橋水野ビル７階,,13,102,1030022,,,,,,,2025-03-13,1,,,,,エムエルシー,0
2072,9010001253050,新規,0,2025-03-13,2025-03-13,８Ｍ　Ｎｅｔｗｏｒｋｓ株式会社,,株式会社,東京都,中央区,銀座２丁目１５－２ＫＲＧｉｎｚａＩＩ４Ｆ,00138320,13,102,1040061,,,,,,,2025-03-13,1,,,,,ハチエムネットワークス,0
2073,9010001253091,新規,0,2025-03-13,2025-03-13,マセラ株式会社,,株式会社,東京都,中央区,日本橋室町１丁目１１番１２号日本橋水野ビル７階,,13,102,1030022,,,,,,,2025-03-13,1,,,,,マセラ,0
2074,9010001253117,新規,0,2025-03-13,2025-03-13,株式会社Ｋｉｒａｎａｈ,,株式会社,東京都,中央区,新川１丁目２６番１７号,,13,102,1040033,,,,,,,2025-03-13,1,,,,,キラナ,0
2079,9010005039727,新規,0,2025-03-13,2025-03-13,一般社団法人事業主共生連,,その他の設立登記法人,東京都,千代田区,神田和泉町１番地６－１６ヤマトビル４０５,,13,101,1010024,,,,,,,2025-03-13,1,,,,,ジギョウヌシキョウセイレン,0
2080,9010005039743,新規,0,2025-03-13,2025-03-13,東京ＢＴＲ１一般社団法人,,その他の設立登記法人,東京都,千代田区,霞が関３丁目２番５号,,13,101,1000013,,,,,,,2025-03-13,1,,,,,トウキョウビーティーアールワン,0
2081,9010101016563,新規,0,2025-03-13,2025-03-13,株式会社ウェブトラストクリエイティブワークス,,株式会社,東京都,八王子市,台町４丁目４４番２号平野ビル第６－４０１号,,13,201,1930931,,,,,,,2025-03-13,1,,,,,ウェブトラストクリエイティブワークス,0
2084,9010401188846,新規,0,2025-03-13,2025-03-13,株式会社ＩＮＫＵＢＯＩ,,株式会社,東京都,港区,南麻布１丁目６番６号１００１号室,,13,103,1060047,,,,,,,2025-03-13,1,,,,,インクボイ,0
2085,9010401188862,新規,0,2025-03-13,2025-03-13,Ｆｉｒｓｔｅａ株式会社,,株式会社,東京都,港区,東麻布１丁目２６番８号プライム東麻布７Ｆ,,13,103,1060044,,,,,,,2025-03-13,1,,,,,ファスティー,0
2086,9010401188912,新規,0,2025-03-13,2025-03-13,ロカス株式会社,,株式会社,東京都,港区,新橋４丁目３１番３号第３名和ビル,,13,103,1050004,,,,,,,2025-03-13,1,,,,,ロカス,0
2087,9010401188920,新規,0,2025-03-13,2025-03-13,株式会社ＵＧＡＮＤＨＡＲＡ,,株式会社,東京都,港区,南青山５丁目１７番２号,,13,103,1070062,,,,,,,2025-03-13,1,,,,,ウガンダーラ,0
2091,9010403034593,新規,0,2025-03-13,2025-03-13,合同会社赤坂ハウスメイト,,合同会社,東京都,港区,元赤坂１丁目１番７号,,13,103,1070051,,,,,,,2025-03-13,1,,,,,アカサカハウスメイト,0
2096,9010601066934,新規,0,2025-03-13,2025-03-13,株式会社Ａｌｄｅｂａｒａｎ　ｆａｃｔｏｒｙ,,株式会社,東京都,江東区,福住１丁目１５番３号,,13,108,1350032,,,,,,,2025-03-13,1,,,,,アルデバランファクトリー,0
2097,9010601066942,新規,0,2025-03-13,2025-03-13,株式会社テクノロジー教育研究会,,株式会社,東京都,江東区,青海２丁目７番４号ｔｈｅＳＯＨＯ１２１５号室,,13,108,1350064,,,,,,,2025-03-13,1,,,,,テクノロジーキョウイクケンキュウカイ,0
2099,9010603011434,新規,0,2025-03-13,2025-03-13,合同会社ＪｏｙＰｉｘ,,合同会社,東京都,江東区,有明１丁目６番３０―４０８号,,13,108,1350063,,,,,,,2025-03-13,1,,,,,ジョイピクス,0
2100,9010605004428,新規,0,2025-03-13,2025-03-13,医療法人社団丸亀会,,その他の設立登記法人,東京都,江東区,亀戸２丁目３６番１２号エスプリ亀戸４階,,13,108,1360071,,,,,,,2025-03-13,1,,,,,マルカメカイ,0
2104,9010701047371,新規,0,2025-03-13,2025-03-13,ＪＣＴＳ株式会社,,株式会社,東京都,品川区,西五反田２丁目９番７号ドルミ五反田アンメゾン４０７号室,,13,109,1410031,,,,,,,2025-03-13,1,,,,,ジェイシーティーエス,0
2106,9010801035929,新規,0,2025-03-13,2025-03-13,株式会社吉村建材,,株式会社,東京都,大田区,南雪谷５丁目２０番１０－１０５号,,13,111,1450066,,,,,,,2025-03-13,1,,,,,ヨシムラケンザイ,0
2107,9010805003163,新規,0,2025-03-13,2025-03-13,医療法人社団満多会,,その他の設立登記法人,東京都,大田区,多摩川１丁目３４番１０号第２石井ビル１Ｆ,,13,111,1460095,,,,,,,2025-03-13,1,,,,,マンタカイ,0
2108,9010901057006,新規,0,2025-03-13,2025-03-13,株式会社Ｉｎｓｅｔ,,株式会社,東京都,世田谷区,奥沢１丁目２２番５号－４,,13,112,1580083,,,,,,,2025-03-13,1,,,,,インセット,0
2109,9010901057014,新規,0,2025-03-13,2025-03-13,株式会社Ｔｏｋｙｏ村,,株式会社,東京都,世田谷区,世田谷２丁目１５番９号メイプルハウス２０１,,13,112,1540017,,,,,,,2025-03-13,1,,,,,トウキョウムラ,0
2117,9011005010925,新規,0,2025-03-13,2025-03-13,一般社団法人優愛会,,その他の設立登記法人,東京都,目黒区,中根２丁目８番２２号ハイアット２８２２－３０３,,13,110,1520031,,,,,,,2025-03-13,1,,,,,ユウアイカイ,0
2119,9011101110934,新規,0,2025-03-13,2025-03-13,豊＿隆株式会社,00138329,株式会社,東京都,新宿区,中井２丁目７－７エクスクルーシヴ中井Ｂ０１,,13,104,1610035,,,,,,,2025-03-13,1,,,,,ホウシンリュウ,0
2121,9011303005445,新規,0,2025-03-13,2025-03-13,合同会社ＨＩＹＯＲＩ,,合同会社,東京都,杉並区,下高井戸４丁目４３番２１号,,13,115,1680073,,,,,,,2025-03-13,1,,,,,ヒヨリ,0
2125,9011701028171,新規,0,2025-03-13,2025-03-13,株式会社アッカ・イプシロン,,株式会社,東京都,江戸川区,松島４丁目１３番１３号,,13,123,1320031,,,,,,,2025-03-13,1,,,,,アッカイプシロン,0
2132,9012401042883,新規,0,2025-03-13,2025-03-13,株式会社ＡｔｏＺ　Ｊａｐａｎ,,株式会社,東京都,小金井市,本町６丁目９－７－４０８シティホームズ武蔵小金井,,13,210,1840004,,,,,,,2025-03-13,1,,,,,エートゥーゼットジャパン,0
2133,9012701018749,新規,0,2025-03-13,2025-03-13,板元工房株式会社,,株式会社,東京都,東久留米市,南沢３丁目１３番１７号,,13,222,2030023,,,,,,,2025-03-13,1,,,,,イタモトコウボウ,0
2136,9012801023814,新規,0,2025-03-13,2025-03-13,きらくにコンサルティング株式会社,,株式会社,東京都,立川市,錦町１丁目４番２０号ＴＳＣビル５階,,13,202,1900022,,,,,,,2025-03-13,1,,,,,キラクニコンサルティング,0
2148,9020001161839,新規,0,2025-03-13,2025-03-13,株式会社Ｒ,,株式会社,神奈川県,横浜市港南区,東永谷３丁目１５番３０－３１３号,,14,111,2330011,,,,,,,2025-03-13,1,,,,,アール,0
2155,9020003028012,新規,0,2025-03-13,2025-03-13,楽合同会社,,合同会社,神奈川県,川崎市中原区,上新城１丁目１１番８－４０７号,,14,133,2110045,,,,,,,2025-03-13,1,,,,,ガク,0
2157,9021001084666,新規,0,2025-03-13,2025-03-13,株式会社ウィアス,,株式会社,神奈川県,秦野市,鶴巻２２５９番地の７シティ９－２０２,,14,211,2570007,,,,,,,2025-03-13,1,,,,,ウィアス,0
2158,9021001084716,新規,0,2025-03-13,2025-03-13,株式会社Ｗａｔａｎａｂｅ　Ｐｒｏｐｅｒｔｉｅｓ,,株式会社,神奈川県,三浦郡葉山町,堀内９１８番地の９シーサイドコート葉山２１０,,14,301,2400112,,,,,,,2025-03-13,1,,,,,ワタナベプロパティーズ,0
2161,9021003015702,新規,0,2025-03-13,2025-03-13,ｔｏｉｒｏ合同会社,,合同会社,神奈川県,平塚市,宝町２番２号ウェイブ湘南宝町ビル３０１,,14,203,2540034,,,,,,,2025-03-13,1,,,,,トイロ,0
2162,9021003015710,新規,0,2025-03-13,2025-03-13,合同会社小野ケアサポート,,合同会社,神奈川県,横須賀市,吉井４丁目１９番２３号,,14,201,2390804,,,,,,,2025-03-13,1,,,,,オノケアサポート,0
2163,9021003015719,新規,0,2025-03-13,2025-03-13,合同会社Ｍｒ．ＳＫＹ　ＣＯＲＰＯＲＡＴＩＯＮ,,合同会社,神奈川県,横須賀市,日の出町１丁目７番地日の出町ＳＴビル３階,,14,201,2380006,,,,,,,2025-03-13,1,,,,,ミスタースカイコーポレーション,0
2168,9030001165351,新規,0,2025-03-13,2025-03-13,株式会社Ｂｅｓｃｈｅｒｕ,,株式会社,埼玉県,北葛飾郡松伏町,大字松伏２００６番地４,,11,465,3430111,,,,,,,2025-03-13,1,,,,,ベシェール,0
2169,9030001165368,新規,0,2025-03-13,2025-03-13,株式会社ＥＬＥＸ,,株式会社,埼玉県,朝霞市,幸町２丁目２番１９号,,11,227,3510015,,,,,,,2025-03-13,1,,,,,エレックス,0
2170,9030001165418,新規,0,2025-03-13,2025-03-13,金沐国際株式会社,,株式会社,埼玉県,戸田市,喜沢１丁目１８番地の１１サンクレイドル西川口ＩＩ１０２号室,00138328,11,224,3350013,,,,,,,2025-03-13,1,,,,,キンモクコクサイ,0
2175,9030003026312,新規,0,2025-03-13,2025-03-13,合同会社莉音愛,,合同会社,埼玉県,春日部市,南中曽根２６２番地１７７,,11,214,3440048,,,,,,,2025-03-13,1,,,,,リノア,0
2176,9030003026320,新規,0,2025-03-13,2025-03-13,合同会社藤ふく,,合同会社,埼玉県,春日部市,中央１丁目１２－３明生ビル２０１,,11,214,3440067,,,,,,,2025-03-13,1,,,,,フジフク,0
2177,9030003026353,新規,0,2025-03-13,2025-03-13,合同会社ユリサン,,合同会社,埼玉県,さいたま市大宮区,桜木町２丁目３番地大宮マルイ７階,,11,103,3300854,,,,,,,2025-03-13,1,,,,,ユリサン,0
2180,9040001137787,新規,0,2025-03-13,2025-03-13,株式会社ＲＥＩＳ,,株式会社,千葉県,流山市,向小金２丁目２６５－２４,,12,220,2700143,,,,,,,2025-03-13,1,,,,,レイズ,0
2185,9050003009109,新規,0,2025-03-13,2025-03-13,Ｔ‐Ｃｏ．Ｐｒｏｄｕｃｔｉｏｎ合同会社,,合同会社,茨城県,稲敷郡阿見町,大字阿見４２３５番地１２,,08,443,3000331,,,,,,,2025-03-13,1,,,,,ティーコプロダクション,0
2187,9060001038026,新規,0,2025-03-13,2025-03-13,株式会社Ｓｙｏｎ,,株式会社,栃木県,宇都宮市,鶴田町７９９番地５,,09,201,3200851,,,,,,,2025-03-13,1,,,,,ザイオン,0
2193,9070001042712,新規,0,2025-03-13,2025-03-13,株式会社Ｓｔｅｌｌａ,,株式会社,群馬県,前橋市,上増田町６２９番地,,10,201,3792114,,,,,,,2025-03-13,1,,,,,ステラ,0
2199,9080101025376,新規,0,2025-03-13,2025-03-13,株式会社ｌｉｂｅｒｔｙ,,株式会社,静岡県,田方郡函南町,平井字南谷下１７４０番１６９８,,22,325,4190107,,,,,,,2025-03-13,1,,,,,,0
2205,9110001039118,新規,0,2025-03-13,2025-03-13,株式会社ＤｒｉｖｅＳｈａｆｔ,,株式会社,新潟県,長岡市,稲保南１丁目２５２－２０,,15,202,9400878,,,,,,,2025-03-13,1,,,,,ドライブシャフト,0
2216,9120001273285,新規,0,2025-03-13,2025-03-13,春生株式会社,,株式会社,大阪府,大阪市西成区,橘１丁目１１－２８オフィスポート橘４１５号室,,27,122,5570051,,,,,,,2025-03-13,1,,,,,シュンセイ,0
2217,9120001273608,新規,0,2025-03-13,2025-03-13,古徳投資株式会社,00138332,株式会社,大阪府,大阪市城東区,蒲生３丁目１５番１２号セザンヌ藤４０３Ｂ,,27,118,5360016,,,,,,,2025-03-13,1,,,,,コトクトウシ,0
2220,9120005024841,新規,0,2025-03-13,2025-03-13,一般社団法人国際占い研究協会,,その他の設立登記法人,大阪府,大阪市中央区,島之内１丁目４番８－６０４号,,27,128,5420082,,,,,,,2025-03-13,1,,,,,コクサイウラナイケンキュウキョウカイ,0
2222,9120105009981,新規,0,2025-03-13,2025-03-13,一般社団法人みんなで育つＬＡＢＯ,,その他の設立登記法人,大阪府,松原市,天美東６丁目７番１６号,,27,217,5800032,,,,,,,2025-03-13,1,,,,,ミンナデソダツラボ,0
2223,9120903005579,新規,0,2025-03-13,2025-03-13,合同会社東南アジアファンド,,合同会社,大阪府,吹田市,江坂町１丁目１２番４７号,,27,205,5640063,,,,,,,2025-03-13,1,,,,,トウナンアジアファンド,0
2225,9122001038981,新規,0,2025-03-13,2025-03-13,株式会社ＤＡＮＫ,,株式会社,大阪府,東大阪市,足代北２丁目１０番１９－２０１号,,27,227,5770058,,,,,,,2025-03-13,1,,,,,ダンク,0
2228,9130003010272,新規,0,2025-03-13,2025-03-13,合同会社Ｌｉｔｔｌｅ　Ｓｔａｒ　Ｔｗｉｎｓ,,合同会社,京都府,京都市北区,西賀茂南今原町１１９番地の４,,26,101,6038843,,,,,,,2025-03-13,1,,,,,リトルスターツインズ,0
2232,9140001137653,新規,0,2025-03-13,2025-03-13,株式会社Ｍ’ｓエンジ,,株式会社,兵庫県,赤穂市,若草町１０３番地,,28,212,6780243,,,,,,,2025-03-13,1,,,,,エムズエンジ,0
2233,9140001137711,新規,0,2025-03-13,2025-03-13,株式会社Ｈｉｂｉｓｓ　Ｃｒｅａｔｅｓ,,株式会社,兵庫県,加古川市,野口町良野１５８２番地,,28,210,6750017,,,,,,,2025-03-13,1,,,,,ハイビスクリエイツ,0
2237,9150001027960,新規,0,2025-03-13,2025-03-13,株式会社サニープラン,,株式会社,奈良県,奈良市,西木辻町２１６番地,00138325,29,201,6308325,,,,,,,2025-03-13,1,,,,,サニープラン,0
2239,9160001026598,新規,0,2025-03-13,2025-03-13,株式会社若松堅太郎建築設計事務所,00138322,株式会社,滋賀県,彦根市,野口町２３０番地１,,25,202,5220221,,,,,,,2025-03-13,1,,,,,ワカマツケンタロウケンチクセッケイジムショ,0
2240,9160001026607,新規,0,2025-03-13,2025-03-13,株式会社Ｌｉｎｏａ,,株式会社,滋賀県,近江八幡市,西本郷町東二丁目１３番地５,,25,204,5230818,,,,,,,2025-03-13,1,,,,,リノア,0
2247,9180001165816,新規,0,2025-03-13,2025-03-13,株式会社ａ．ｍ,,株式会社,愛知県,名古屋市熱田区,新尾頭１丁目８番５号,,23,109,4560018,,,,,,,2025-03-13,1,,,,,エーエム,0
2248,9180001165865,新規,0,2025-03-13,2025-03-13,株式会社ＭｉＬｕＣｏＣｏ,,株式会社,愛知県,名古屋市西区,貴生町２３番地の３アートプレイスＴ２－１Ｆ,,23,104,4520816,,,,,,,2025-03-13,1,,,,,ミルココ,0
2249,9180001165931,新規,0,2025-03-13,2025-03-13,株式会社いつき,,株式会社,愛知県,名古屋市中区,新栄２丁目８番１３号シャトー秋月１０２号室,,23,106,4600007,,,,,,,2025-03-13,1,,,,,イツキ,0
2250,9180001165964,新規,0,2025-03-13,2025-03-13,株式会社Ｋ３,,株式会社,愛知県,名古屋市千種区,今池南２９番１６号,,23,101,4640851,,,,,,,2025-03-13,1,,,,,ケイスリー,0
2251,9180003028129,新規,0,2025-03-13,2025-03-13,ＭＡＲＣＨ．合同会社,,合同会社,愛知県,名古屋市中区,栄５丁目１４番５号プルマンさかえ１０１号,,23,106,4600008,,,,,,,2025-03-13,1,,,,,マーチ,0
2252,9180003028137,新規,0,2025-03-13,2025-03-13,合同会社ＡＬＮＩＴＡＫ,,合同会社,愛知県,名古屋市昭和区,向山町１丁目３８番地の１（ビラ三秀向山１０４号）,,23,107,4660829,,,,,,,2025-03-13,1,,,,,アルニタク,0
2253,9180003028145,新規,0,2025-03-13,2025-03-13,ヘーゼルナッツ合同会社,,合同会社,愛知県,名古屋市中村区,名駅３丁目４－１０アルティメイト名駅１ｓｔ２階,,23,105,4500002,,,,,,,2025-03-13,1,,,,,ヘーゼルナッツ,0
2258,9190001032065,新規,0,2025-03-13,2025-03-13,株式会社ＩＴＳＵＫＩ　ＦＡＣＴＯＲＹ,,株式会社,三重県,四日市市,鵜の森２丁目２番１２号ＵｒｂａｎＦｏｒｅｓｔＰａｒｋ,,24,202,5100074,,,,,,,2025-03-13,1,,,,,イツキファクトリー,0
2260,9200001043515,新規,0,2025-03-13,2025-03-13,ＮＨＰホールディングス株式会社,,株式会社,岐阜県,岐阜市,六条江東３丁目４番１１号,,21,201,5008356,,,,,,,2025-03-13,1,,,,,エヌエイチピーホールディングス,0
2261,9200001043523,新規,0,2025-03-13,2025-03-13,オーチャードハウス株式会社,,株式会社,岐阜県,高山市,国府町今５０８番地,,21,203,5094104,,,,,,,2025-03-13,1,,,,,オーチャードハウス,0
2262,9200001043531,新規,0,2025-03-13,2025-03-13,株式会社ＪＫ　ＴＲＡＤＩＮＧ,,株式会社,岐阜県,不破郡垂井町,表佐４５５３,,21,361,5032122,,,,,,,2025-03-13,1,,,,,ジェイケイトレーディング,0
2268,9230001020791,新規,0,2025-03-13,2025-03-13,株式会社Ｆｕｌｕｌｕ,,株式会社,富山県,高岡市,立野美鳥町１丁目９８番地１,,16,202,9330326,,,,,,,2025-03-13,1,,,,,フルル,0
2269,9230003002391,新規,0,2025-03-13,2025-03-13,合同会社クレト,,合同会社,富山県,射水市,作道１０番地１,,16,211,9340042,,,,,,,2025-03-13,1,,,,,クレト,0
2274,9260001040003,新規,0,2025-03-13,2025-03-13,株式会社大我,,株式会社,岡山県,津山市,日上１４５７番地の１,,33,203,7080845,,,,,,,2025-03-13,1,,,,,タイガ,0
2284,9290001109266,新規,0,2025-03-13,2025-03-13,株式会社翔屋建装,,株式会社,福岡県,糟屋郡粕屋町,大字仲原２６９５番地１０,,40,349,8112304,,,,,,,2025-03-13,1,,,,,ショウヤケンソウ,0
2289,9330001032983,新規,0,2025-03-13,2025-03-13,株式会社河内商店,,株式会社,熊本県,熊本市西区,河内町岳９３１―１,,43,103,8615344,,,,,,,2025-03-13,1,,,,,カワチショウテン,0
2292,9340003004781,新規,0,2025-03-13,2025-03-13,合同会社Ｌｃｉｅｌ,,合同会社,鹿児島県,鹿児島市,千日町８番１２号第２三木ビル３Ｆ,,46,201,8920843,,,,,,,2025-03-13,1,,,,,ルシエル,0
2293,9340005009829,新規,0,2025-03-13,2025-03-13,一般社団法人鹿児島県マリンスポーツ協会,,その他の設立登記法人,鹿児島県,鹿児島市,小原町１８番１７号,,46,201,8910111,,,,,,,2025-03-13,1,,,,,カゴシマケンマリンスポーツキョウカイ,0
2296,9360003014770,新規,0,2025-03-13,2025-03-13,合同会社ＳＨＲＥＥ,,合同会社,沖縄県,那覇市,久米２丁目１４番８－１０１号,,47,201,9000033,,,,,,,2025-03-13,1,,,,,シリ,0
2297,9360005007186,新規,0,2025-03-13,2025-03-13,一般社団法人じんうむい,,その他の設立登記法人,沖縄県,那覇市,字仲井真２７１番地１コーポラス儀保１０１,,47,201,9020074,,,,,,,2025-03-13,1,,,,,ジンウムイ,0
2309,9420001019055,新規,0,2025-03-13,2025-03-13,株式会社Ｖｉｖａｃｅ,,株式会社,青森県,三戸郡五戸町,字ウルエ長根１６番地６２,,02,442,0391537,,,,,,,2025-03-13,1,,,,,,0
2310,9420005007948,新規,0,2025-03-13,2025-03-13,一般社団法人ＬＩＤＥＡＬ　Ａｏｍｏｒｉ,,その他の設立登記法人,青森県,弘前市,大字駅前町６番地１５ＳＫビル３階,,02,202,0368003,,,,,,,2025-03-13,1,,,,,リディアルアオモリ,0
2311,9430001093875,新規,0,2025-03-13,2025-03-13,株式会社Ａｍｂｅｒｓａｌ　Ｇｒｏｏｖｅ,,株式会社,北海道,札幌市北区,北七条西４丁目１番地１トーカン札幌第一キャステール６０７,,01,102,0600807,,,,,,,2025-03-13,1,,,,,アンバーサルグルーブ,0
2312,9430001093883,新規,0,2025-03-13,2025-03-13,株式会社ポーラスタア,,株式会社,北海道,札幌市西区,発寒六条１４丁目１２番７－３０３号,,01,107,0630826,,,,,,,2025-03-13,1,,,,,ポーラスタア,0
2313,9430001093891,新規,0,2025-03-13,2025-03-13,Ｃｒｅａｔｅ　Ｓｔｕｄｉｏ　Ｒｉｐａｒａ株式会社,,株式会社,北海道,札幌市豊平区,羊ケ丘７－４－１０１,,01,105,0620045,,,,,,,2025-03-13,1,,,,,クリエイトスタジオリパラ,0
2314,9430001093909,新規,0,2025-03-13,2025-03-13,ハルクル株式会社,,株式会社,北海道,札幌市東区,北二十一条東１９丁目３番２５号ラフォーレ元町ＩＩ２０１,00138330,01,103,0650021,,,,,,,2025-03-13,1,,,,,ハルクル,0
2315,9430001093917,新規,0,2025-03-13,2025-03-13,株式会社Ｋ‐Ｃｏｎｎｅｃｔ,,株式会社,北海道,小樽市,長橋２丁目１９番２８号,,01,203,0470036,,,,,,,2025-03-13,1,,,,,ケイーコネクト,0
2316,9430003017378,新規,0,2025-03-13,2025-03-13,合同会社ＭＳＨパートナーズ,,合同会社,北海道,札幌市白石区,本郷通８丁目南５番１１号,,01,104,0030024,,,,,,,2025-03-13,1,,,,,エムエスエイチパートナーズ,0
2317,9430003017386,新規,0,2025-03-13,2025-03-13,合同会社シラカバ不動産,,合同会社,北海道,苫小牧市,しらかば町２丁目６番１４号,,01,213,0530821,,,,,,,2025-03-13,1,,,,,シラカバフドウサン,0
2318,9430003017394,新規,0,2025-03-13,2025-03-13,合同会社オカデン,,合同会社,北海道,余市郡仁木町,然別９１－３,,01,407,0482403,,,,,,,2025-03-13,1,,,,,オカデン,0
2320,9460101007674,新規,0,2025-03-13,2025-03-13,株式会社ラットレース,,株式会社,北海道,帯広市,西二条南９丁目１０番１Ｒｂｕｉｌｄ,,01,207,0800012,,,,,,,2025-03-13,1,,,,,ラットレース,0
2321,9480003002243,新規,0,2025-03-13,2025-03-13,フルスマイルコミュニケーション合同会社,,合同会社,徳島県,鳴門市,撫養町大桑島字濘岩浜４番地１５,,36,202,7720011,,,,,,,2025-03-13,1,,,,,フルスマイルコミュニケーション,0
2322,9480005007067,新規,0,2025-03-13,2025-03-13,一般社団法人四国フードバンク連絡協議会,,その他の設立登記法人,徳島県,徳島市,昭和町３丁目３５－２労働福祉会館ヒューマンわーくぴあ,,36,201,7700942,,,,,,,2025-03-13,1,,,,,シコクフードバンクレンラクキョウギカイ,0
2323,9500001026191,新規,0,2025-03-13,2025-03-13,株式会社ＹＮ,,株式会社,愛媛県,松山市,余戸南４丁目７番１３号,,38,201,7900047,,,,,,,2025-03-13,1,,,,,ワイエヌ,0
2324,9700150123141,新規,0,2025-03-13,2025-03-13,Ｓｈｅｎｚｈｅｎｓｈｉｇｕｏｙｕｇｕｏｊｉｍａｏｙｉｙｏｕｘｉａｎｇｏｎｇｓｉ,,外国会社等,,,,,,,,Ｆｕｈａｉｓｔｒｅｅｔ　ｚａｏｘｉａｓａｎｘｉａｎｇ１８ｈａｏ，Ｑｉａｏｔｏｕｓｈｅｑｕ　Ｓｈｅｎｚｈｅｎ　Ｂａｏ’ａｎ　Ｄｉｓｔｒｉｃｔ　Ｇｕａｎｇｄｏｎｇ　ｐｒｏｖｉｎｃｅ　５１８０００　ＣＮ,,,,,,2025-03-13,1,,,,,シェンジェンシグオユウグオジイマオイイヨウシエンゴンス,0
2325,9700150128330,新規,0,2025-03-13,2025-03-13,Ｓｈｅｎｚｈｅｎ　Ｔｖｉｓｉｏｎ　Ｔｅｃｈｎｏｌｏｇｙ　Ｃｏ．，Ｌｔｄ,,外国会社等,,,,,,,,９０１，Ｂｕｉｌｄｉｎｇ　０４，Ｎｏ．Ａ３，ｔｈｅ　Ｆｏｕｒｔｈ　Ｉｎｄｕｓｔｒｉａｌ　Ｐａｒｋ，Ｈｅｓｈｕｉｋｏｕ　Ｃｏｍｍｕｎｉｔｙ，Ｍａｔｉａｎ　Ｓｔｒｅｅｔ，Ｇｕａｎｇｍｉｎｇ　Ｄｉｓｔｒｉｃｔ，Ｓｈｅｎｚｈｅｎ,,,,,,2025-03-13,1,,,,,シンセンテレジヨンテクノロジーカンパニーリミテツド,0
