sequenceNumber,corporateNumber,process,correct,updateDate,changeDate,name,nameImageId,kind,prefectureName,cityName,streetNumber,addressImageId,prefectureCode,cityCode,postCode,addressOutside,addressOutsideImageId,closeDate,closeCause,successorCorporateNumber,changeCause,assignmentDate,latest,enName,enPrefectureName,enCityName,enAddressOutside,furigana,hihyoji
1,1010001084115,登記記録の閉鎖等,0,2025-02-19,2025-02-03,株式会社ダイヤモンドスター,,株式会社,東京都,千代田区,丸の内２丁目２番１号岸本ビル内,,13,101,1000005,,,2025-02-03,合併による解散等,5010001022161,令和７年２月１日東京都千代田区丸の内二丁目２番１号岸本ビル内株式会社スターレーン（5010001022161）に合併し解散,2015-10-05,1,,,,,ダイヤモンドスター,0
7,1010003044100,登記記録の閉鎖等,0,2025-02-19,2025-02-05,ＵＮＩＴＥＤ　ＥＮＥＲＧＹ　ＥＵＲＯＰＥ合同会社,,合同会社,東京都,中央区,銀座７丁目１７番１８－４０５号ジュエル銀座,,13,102,1040061,,,2025-02-05,清算の結了等,,,2024-06-25,1,,,,,ユナイテッドエナジーヨーロッパ,0
10,1010005001405,登記記録の閉鎖等,0,2025-02-19,2025-02-13,寿司田協力協同組合,,その他の設立登記法人,東京都,中央区,勝どき３丁目６番９号,,13,102,1040054,,,2025-02-13,清算の結了等,,,2015-10-05,1,,,,,スシデンキョウリョク,0
13,1010005031749,登記記録の閉鎖等,0,2025-02-19,2025-02-14,一般社団法人不二徳禅寺,,その他の設立登記法人,東京都,千代田区,神田佐久間町４丁目２２番１号,,13,101,1010025,,,2025-02-14,清算の結了等,,,2020-04-22,1,,,,,フジゼントクジ,0
41,1010603010559,登記記録の閉鎖等,0,2025-02-19,2025-02-12,合同会社イーエムシーツー,,合同会社,東京都,江東区,青海２丁目７番４号ｔｈｅＳＯＨＯ９２８,,13,108,1350064,,,2025-02-12,清算の結了等,,,2024-01-09,1,,,,,イーエムシーツー,0
70,1011103009224,登記記録の閉鎖等,0,2025-02-19,2025-02-10,Ｍリアルティ合同会社,,合同会社,東京都,新宿区,四谷２丁目９番地１５東京ユナイテッド綜合事務所内,,13,104,1600004,,,2025-02-10,清算の結了等,,,2019-11-06,1,,,,,エムリアルティ,0
74,1011603003585,登記記録の閉鎖等,0,2025-02-19,2025-02-10,合同会社セントラル企画,,合同会社,東京都,練馬区,豊玉中２丁目１１番１０号Ｋハイム２０３,,13,120,1760013,,,2025-02-10,清算の結了等,,,2022-04-25,1,,,,,セントラルキカク,0
76,1011801001738,登記記録の閉鎖等,0,2025-02-19,2025-02-13,株式会社三興製作所,,株式会社,埼玉県,三郷市,新和５丁目１１９番地３,,11,237,3410034,,,2025-02-13,清算の結了等,,,2015-10-05,1,,,,,サンコウセイサクショ,0
80,1011802004351,登記記録の閉鎖等,0,2025-02-19,2025-02-10,有限会社関電機商会,,有限会社,東京都,葛飾区,堀切２丁目４５番３号,,13,122,1240006,,,2025-02-10,清算の結了等,,,2015-10-05,1,,,,,セキデンキショウカイ,0
115,1020002080260,登記記録の閉鎖等,0,2025-02-19,2025-02-10,有限会社石井熊吉製作所,,有限会社,茨城県,かすみがうら市,宍倉６１４７番地３８,,08,230,3000121,,,2025-02-10,清算の結了等,,,2015-10-05,1,,,,,イシイクマキチセイサクショ,0
118,1021001034868,登記記録の閉鎖等,0,2025-02-19,2025-02-17,株式会社ＳＴＳ,,株式会社,神奈川県,小田原市,扇町１丁目２８番３０号,,14,206,2500001,,,2025-02-17,清算の結了等,,,2015-10-05,1,,,,,エスティーエス,0
122,1021002032994,登記記録の閉鎖等,0,2025-02-19,2025-02-18,有限会社双葉油機,,有限会社,神奈川県,厚木市,林２丁目１０番１３号,,14,212,2430816,,,2025-02-18,清算の結了等,,,2015-10-05,1,,,,,,0
127,1030002010043,登記記録の閉鎖等,0,2025-02-19,2025-02-13,有限会社成田美装,,有限会社,埼玉県,さいたま市南区,大字大谷口５４１３番地２棟４０３号,,11,108,3360042,,,2025-02-13,清算の結了等,,,2015-10-05,1,,,,,ナリタビソウ,0
128,1030002042350,登記記録の閉鎖等,0,2025-02-19,2025-02-12,有限会社藤田機工,,有限会社,埼玉県,加須市,旗井１丁目１６番地１２,,11,210,3491132,,,2025-02-12,清算の結了等,,,2015-10-05,1,,,,,フジタキコウ,0
136,1040001081316,登記記録の閉鎖等,0,2025-02-19,2025-02-03,株式会社ＣＶＣ,,株式会社,東京都,中央区,銀座６丁目１６番６号２Ｆ,,13,102,1040061,,,2025-02-03,合併による解散等,2010001245491,令和７年１月３１日東京都千代田区麹町三丁目５番２号ＢＵＲＥＸ麹町６１２ファースト株式会社（2010001245491）に合併し解散,2015-10-05,1,,,,,シーブイシー,0
155,1070001035310,登記記録の閉鎖等,0,2025-02-19,2025-02-05,株式会社Ｔａｔｔａ,,株式会社,群馬県,伊勢崎市,南千木町１６５９番地２,,10,204,3720033,,,2025-02-05,合併による解散等,1070001027101,令和７年２月１日群馬県伊勢崎市堀下町１１６４番地株式会社ケアスイッチ（1070001027101）に合併し解散,2018-12-10,1,,,,,タッタ,0
185,1120003014785,登記記録の閉鎖等,0,2025-02-19,2025-02-17,合同会社ＢＲＡＣＥ,,合同会社,大阪府,大阪市東成区,東中本２丁目１－１２－２０２,,27,115,5370021,,,2025-02-17,清算の結了等,,,2018-10-09,1,,,,,ブレイス,0
197,1130001068031,登記記録の閉鎖等,0,2025-02-19,2025-02-17,株式会社ぱぁこ堂,,株式会社,京都府,京都市右京区,西院三蔵町４７－４プレサンス京都西院６０４号室,,26,108,6150021,,,2025-02-17,清算の結了等,,,2020-11-17,1,,,,,パァコドウ,0
217,1180001083760,登記記録の閉鎖等,0,2025-02-19,2025-02-07,株式会社マキタ,,株式会社,愛知県,一宮市,萩原町高松２２４番地,,23,203,4910373,,,2025-02-07,清算の結了等,,,2024-10-16,1,,,,,マキタ,0
220,1180001110993,登記記録の閉鎖等,0,2025-02-19,2025-02-14,株式会社あさくまサクセッション,,株式会社,愛知県,名古屋市天白区,植田西２丁目１４１０番地,,23,116,4680058,,,2025-02-14,合併による解散等,9180001066601,令和７年１月３１日愛知県日進市赤池町西組３２番地株式会社あさくま（9180001066601）に合併し解散,2015-10-05,1,,,,,アサクマサクセッション,0
230,1180005011263,登記記録の閉鎖等,0,2025-02-19,2025-02-07,特定非営利活動法人スポーツフォーラム愛知,,その他の設立登記法人,愛知県,一宮市,浅野字大島９番地２,,23,203,4910871,,,2025-02-07,清算の結了等,,,2015-10-05,1,,,,,スポーツフォーラムアイチ,0
234,1190002014920,登記記録の閉鎖等,0,2025-02-19,2025-02-17,宮前陸運有限会社,,有限会社,三重県,松阪市,五主町３８２番地の１,,24,204,5152102,,,2025-02-17,清算の結了等,,,2015-10-05,1,,,,,,0
237,1200002026369,登記記録の閉鎖等,0,2025-02-19,2025-02-14,有限会社ゆうゆう農園,,有限会社,岐阜県,高山市,匠ケ丘町１番地１５,,21,203,5060057,,,2025-02-14,清算の結了等,,,2015-10-05,1,,,,,ユウユウノウエン,0
257,1290002011791,登記記録の閉鎖等,0,2025-02-19,2025-02-03,有限会社中日商事,,有限会社,福岡県,福岡市中央区,長浜３丁目１１番３号,,40,133,8100072,,,2025-02-03,合併による解散等,3290001009942,令和７年２月１日福岡市中央区長浜三丁目１１番３号株式会社フクカン（3290001009942）に合併し解散,2015-10-05,1,,,,,チュウニチショウジ,0
284,1390001011758,登記記録の閉鎖等,0,2025-02-19,2025-02-17,菊池建設株式会社,,株式会社,山形県,寒河江市,中央工業団地１５８番地の１３,,06,206,9910061,,,2025-02-17,清算の結了等,,,2015-10-05,1,,,,,キクチケンセツ,0
298,1470003001831,登記記録の閉鎖等,0,2025-02-19,2025-02-17,合同会社ケアサポートやました,,合同会社,香川県,高松市,木太町４０７４番地４１,,37,201,7600080,,,2025-02-17,清算の結了等,,,2020-09-10,1,,,,,ケアサポートヤマシタ,0
310,2010001002042,登記記録の閉鎖等,0,2025-02-19,2025-02-04,株式会社キタ・メディア,,株式会社,東京都,文京区,本郷３丁目４１番９号７階,,13,105,1130033,,,2025-02-04,清算の結了等,,,2015-10-05,1,,,,,キタメディア,0
315,2010001212038,登記記録の閉鎖等,0,2025-02-19,2025-02-10,株式会社ユニバーサル・バイオサンプリング,,株式会社,東京都,新宿区,四谷本塩町１４－１３,,13,104,1600003,,,2025-02-10,清算の結了等,,,2020-09-11,1,,,,,ユニバーサルバイオサンプリング,0
328,2010005028521,登記記録の閉鎖等,0,2025-02-19,2025-02-13,一般社団法人ｒｅｎｎｓａ,,その他の設立登記法人,東京都,中央区,銀座７丁目１３番６号サガミビル２階,,13,102,1040061,,,2025-02-13,清算の結了等,,,2018-05-14,1,,,,,レンサ,0
348,2010901026727,登記記録の閉鎖等,0,2025-02-19,2025-02-12,株式会社植野組土建,,株式会社,東京都,世田谷区,南烏山６丁目４番１４－１００３号,,13,112,1570062,,,2025-02-12,清算の結了等,,,2015-10-05,1,,,,,ウエノグミドケン,0
354,2011001113779,登記記録の閉鎖等,0,2025-02-19,2025-01-23,株式会社ＮＩＴＴＴ,,株式会社,東京都,渋谷区,幡ヶ谷３丁目３１－３－６０４,,13,113,1510072,,,2025-01-23,清算の結了等,,,2016-11-25,1,,,,,ニット,0
394,2021003008002,登記記録の閉鎖等,0,2025-02-19,2025-02-18,合同会社グリーンバンク,,合同会社,神奈川県,藤沢市,鵠沼海岸５丁目３番１０号,00115313,14,205,2510037,,,2025-02-18,清算の結了等,,,2018-12-25,1,,,,,グリーンバンク,0
419,2050002043692,登記記録の閉鎖等,0,2025-02-19,2025-02-10,有限会社木戸製作所,,有限会社,茨城県,筑西市,木戸２３３番地の２,,08,227,3080104,,,2025-02-10,清算の結了等,,,2015-10-05,1,,,,,キドセイサクショ,0
444,2110001003542,登記記録の閉鎖等,0,2025-02-19,2025-02-17,東洋包材株式会社,,株式会社,新潟県,新潟市江南区,天野３丁目１９番１６号,,15,104,9501134,,,2025-02-17,清算の結了等,,,2015-10-05,1,,,,,トウヨウホウザイ,0
446,2120001048966,登記記録の閉鎖等,0,2025-02-19,2025-02-17,株式会社大阪旅行企画,,株式会社,大阪府,大阪市西区,新町１丁目３番１２号四ツ橋セントラルビル２０８,,27,106,5500013,,,2025-02-17,清算の結了等,,,2015-10-05,1,,,,,オオサカリョコウキカク,0
449,2120001149995,登記記録の閉鎖等,0,2025-02-19,2025-02-17,株式会社ダイサン,,株式会社,京都府,八幡市,岩田茶屋ノ前２９番地,,26,210,6148251,,,2025-02-17,清算の結了等,,,2015-10-05,1,,,,,ダイサン,0
460,2120101049484,登記記録の閉鎖等,0,2025-02-19,2025-02-12,株式会社リベルタ,,株式会社,大阪府,堺市堺区,大仙西町４丁１２０番地,,27,141,5900821,,,2025-02-12,清算の結了等,,,2015-10-05,1,,,,,リベルタ,0
469,2130001038000,登記記録の閉鎖等,0,2025-02-19,2025-02-17,関東都市開発株式会社,,株式会社,京都府,八幡市,下奈良蜻蛉尻筋１１番地の８,,26,210,6148135,,,2025-02-17,清算の結了等,,,2015-10-05,1,,,,,,0
478,2140002016103,登記記録の閉鎖等,0,2025-02-19,2025-02-14,有限会社美澄,,有限会社,兵庫県,神戸市中央区,二宮町１丁目６番５号,,28,110,6510093,,,2025-02-14,清算の結了等,,,2015-10-05,1,,,,,ミスミ,0
488,2180001161499,登記記録の閉鎖等,0,2025-02-19,2025-02-13,株式会社ｔｒｉｕｍｐｈ,,株式会社,愛知県,半田市,向山町２丁目９８－１,,23,205,4750084,,,2025-02-13,清算の結了等,,,2024-05-17,1,,,,,トライアンフ,0
503,2200001035130,登記記録の閉鎖等,0,2025-02-19,2025-02-18,株式会社チームアニー,,株式会社,岐阜県,本巣市,長屋３４番地３,,21,218,5010412,,,2025-02-18,清算の結了等,,,2018-05-08,1,,,,,チームアニー,0
506,2200002009430,登記記録の閉鎖等,0,2025-02-19,2025-02-14,有限会社栗田建築設計事務所,,有限会社,岐阜県,瑞穂市,本田１０６９番地の７,,21,216,5010236,,,2025-02-14,清算の結了等,,,2015-10-05,1,,,,,クリタケンチクセッケイジムショ,0
511,2250005002279,登記記録の閉鎖等,0,2025-02-19,2025-02-14,大聖院神原教会,,その他の設立登記法人,山口県,宇部市,大字中宇部字沖の山第２番地,,35,202,7550086,,,2025-02-14,清算の結了等,,,2015-10-05,1,,,,,ダイショウインカミハラキョウカイ,0
513,2260002028490,登記記録の閉鎖等,0,2025-02-19,2025-02-10,有限会社新地薬局,,有限会社,岡山県,津山市,山下４２番地,,33,203,7080022,,,2025-02-10,清算の結了等,,,2015-10-05,1,,,,,シンチヤッキョク,0
532,2290801024737,登記記録の閉鎖等,0,2025-02-19,2025-02-10,小倉織物製造株式会社,,株式会社,福岡県,北九州市小倉北区,紺屋町１３番１号,,40,106,8020081,,,2025-02-10,合併による解散等,8290802002455,令和７年２月８日北九州市小倉北区大手町３番１－１０７号株式会社小倉縞縞（8290802002455）に合併し解散,2018-07-04,1,,,,,コクラオリモノセイゾウ,0
555,2360003005685,登記記録の閉鎖等,0,2025-02-19,2025-02-14,合同会社あやかり,,合同会社,沖縄県,中頭郡北谷町,北谷２丁目１０番地１２,,47,326,9040116,,,2025-02-14,清算の結了等,,,2015-10-05,1,,,,,,0
559,2370001018077,登記記録の閉鎖等,0,2025-02-19,2025-02-17,株式会社東放,,株式会社,宮城県,仙台市青葉区,八幡１丁目２番５号,,04,101,9800871,,,2025-02-17,清算の結了等,,,2015-10-05,1,,,,,トウホウ,0
565,2370201003556,登記記録の閉鎖等,0,2025-02-19,2025-02-17,株式会社架懸屋,,株式会社,宮城県,大崎市,鹿島台木間塚字竹谷８９番地,,04,215,9894102,,,2025-02-17,清算の結了等,,,2015-10-05,1,,,,,,0
568,2390002015609,登記記録の閉鎖等,0,2025-02-19,2025-02-17,有限会社コウヨウ不動産,,有限会社,山形県,寒河江市,若葉町１４番地の４,,06,206,9910051,,,2025-02-17,清算の結了等,,,2015-10-05,1,,,,,コウヨウフドウサン,0
572,2430001077439,登記記録の閉鎖等,0,2025-02-19,2025-02-17,株式会社Ｃａｍｅｌｌｉａ,,株式会社,北海道,千歳市,みどり台北１丁目７番１号,,01,224,0660083,,,2025-02-17,清算の結了等,,,2018-10-02,1,,,,,キャメリア,0
574,2430002052754,登記記録の閉鎖等,0,2025-02-19,2025-02-17,有限会社ナベケン工業,,有限会社,北海道,空知郡奈井江町,字奈井江５８３番地６２,,01,424,0790300,,,2025-02-17,清算の結了等,,,2015-10-05,1,,,,,ナベケンコウギョウ,0
582,2490001007134,登記記録の閉鎖等,0,2025-02-19,2025-02-18,株式会社アークリゾート,,株式会社,高知県,室戸市,浮津５５番地,,39,202,7817103,,,2025-02-18,清算の結了等,,,2015-10-05,1,,,,,,0
587,3010001094871,登記記録の閉鎖等,0,2025-02-19,2025-02-04,ＪＡＩＣシードキャピタル株式会社,,株式会社,東京都,千代田区,九段北３丁目２番４号,,13,101,1020073,,,2025-02-04,清算の結了等,,,2015-10-05,1,,,,,ジャイクシードキャピタル,0
589,3010001158998,登記記録の閉鎖等,0,2025-02-19,2025-02-04,株式会社ハイドロサーム,,株式会社,東京都,中央区,新川２丁目５番８号,,13,102,1040033,,,2025-02-04,清算の結了等,,,2015-10-05,1,,,,,ハイドロサーム,0
610,3010102008103,登記記録の閉鎖等,0,2025-02-19,2025-02-18,有限会社アイエスオフィス,,有限会社,東京都,八王子市,大楽寺町４６０番地の２９,,13,201,1930816,,,2025-02-18,清算の結了等,,,2015-10-05,1,,,,,アイエスオフィス,0
633,3010902007725,登記記録の閉鎖等,0,2025-02-19,2025-02-07,有限会社ジョイネックス,,有限会社,東京都,新宿区,西新宿３丁目３番１３西新宿水間ビル６Ｆ,,13,104,1600023,,,2025-02-07,清算の結了等,,,2015-10-05,1,,,,,ジョイネックス,0
634,3011001108679,登記記録の閉鎖等,0,2025-02-19,2025-02-03,株式会社家事代行ひろば,,株式会社,東京都,港区,元麻布３丁目１０番４号リフラット２０１,,13,103,1060046,,,2025-02-03,清算の結了等,,,2015-12-21,1,,,,,カジダイコウヒロバ,0
646,3011103006434,登記記録の閉鎖等,0,2025-02-19,2025-02-10,ＲＬＨファンド合同会社,,合同会社,東京都,新宿区,四谷２丁目９番地１５あると綜合事務所内,,13,104,1600004,,,2025-02-10,清算の結了等,,,2016-08-05,1,,,,,アールエルエイチファンド,0
651,3011301019436,登記記録の閉鎖等,0,2025-02-19,2025-01-15,株式会社ＬＤＨ　ＤＩＧＩＴＡＬ,,株式会社,東京都,目黒区,東山１丁目２番２号,,13,110,1530043,,,2025-01-15,合併による解散等,6013201010538,令和７年１月１日東京都目黒区東山一丁目２番２号株式会社ＬＤＨ　ＪＡＰＡＮ（6013201010538）に合併し解散,2015-10-05,1,,,,,エルディーエイチデジタル,0
653,3011401010716,登記記録の閉鎖等,0,2025-02-19,2025-02-10,株式会社プリントハウス,,株式会社,東京都,板橋区,氷川町３８番３号,,13,119,1730013,,,2025-02-10,清算の結了等,,,2015-10-05,1,,,,,プリントハウス,0
654,3011501012307,登記記録の閉鎖等,0,2025-02-19,2025-02-12,株式会社パーラーあかね,,株式会社,東京都,北区,西が丘１丁目４３番５号,,13,117,1150056,,,2025-02-12,清算の結了等,,,2015-10-05,1,,,,,パーラーアカネ,0
656,3011602005630,登記記録の閉鎖等,0,2025-02-19,2025-02-10,有限会社青晴工芸,,有限会社,東京都,練馬区,大泉学園町６丁目１番２５号,,13,120,1780061,,,2025-02-10,清算の結了等,,,2015-10-05,1,,,,,セイセイコウゲイ,0
657,3011701005829,登記記録の閉鎖等,0,2025-02-19,2025-02-12,株式会社とりはら,,株式会社,東京都,江戸川区,北小岩６丁目４０番１５号,,13,123,1330051,,,2025-02-12,清算の結了等,,,2015-10-05,1,,,,,トリハラ,0
658,3011702007304,登記記録の閉鎖等,0,2025-02-19,2025-02-14,有限会社田田製作所,,有限会社,東京都,江戸川区,中央２丁目２０番１６号,,13,123,1320021,,,2025-02-14,清算の結了等,,,2015-10-05,1,,,,,,0
678,3021002021153,登記記録の閉鎖等,0,2025-02-19,2025-02-17,有限会社シムラ,,有限会社,神奈川県,相模原市中央区,弥栄２丁目１２番１２号,,14,152,2520229,,,2025-02-17,清算の結了等,,,2015-10-05,1,,,,,シムラ,0
683,3030002121144,登記記録の閉鎖等,0,2025-02-19,2025-02-14,有限会社荒舩鉄工所,,有限会社,埼玉県,秩父市,滝の上町８番３５号,,11,207,3680012,,,2025-02-14,清算の結了等,,,2015-10-05,1,,,,,アラフネテッコウジョ,0
686,3040001006790,登記記録の閉鎖等,0,2025-02-19,2025-02-13,平和建工株式会社,,株式会社,千葉県,千葉市中央区,生実町２５５４番地１,,12,101,2600813,,,2025-02-13,清算の結了等,,,2015-10-05,1,,,,,ヘイワケンコウ,0
687,3040001018687,登記記録の閉鎖等,0,2025-02-19,2025-02-12,株式会社マイクロテック・ニチオン,,株式会社,千葉県,船橋市,滝台２丁目１６番５号,,12,204,2740074,,,2025-02-12,清算の結了等,,,2015-10-05,1,,,,,マイクロテックニチオン,0
703,3060001027414,登記記録の閉鎖等,0,2025-02-19,2025-02-17,キョーワ株式会社,,株式会社,栃木県,佐野市,船津川町１７３０番地,,09,204,3270035,,,2025-02-17,清算の結了等,,,2015-10-05,1,,,,,キョーワ,0
714,3110001035477,登記記録の閉鎖等,0,2025-02-19,2025-02-12,株式会社ユナイテッドスタジオパートナーズ,,株式会社,新潟県,上越市,本町２丁目２番２７－１００１,,15,222,9430832,,,2025-02-12,清算の結了等,,,2021-01-26,1,,,,,ユナイテッドスタジオパートナーズ,0
739,3120103005583,登記記録の閉鎖等,0,2025-02-19,2025-02-17,百捷合同会社,,合同会社,大阪府,堺市北区,中百舌鳥町６丁１０００番,,27,146,5918023,,,2025-02-17,清算の結了等,,,2023-12-25,1,,,,,ヒャクショウ,0
741,3130001011047,登記記録の閉鎖等,0,2025-02-19,2025-02-17,太成印刷株式会社,,株式会社,京都府,京都市下京区,麸屋町通五条上る下鱗形町５５２番地１,,26,106,6000000,,,2025-02-17,清算の結了等,,,2015-10-05,1,,,,,,0
755,3160002005210,登記記録の閉鎖等,0,2025-02-19,2025-02-17,有限会社長谷オートサービス工業所,,有限会社,滋賀県,湖南市,岩根３９８０番地,,25,211,5203252,,,2025-02-17,清算の結了等,,,2015-10-05,1,,,,,ハセオートサービスコウギョウショ,0
769,3180003002031,登記記録の閉鎖等,0,2025-02-19,2025-02-12,合資会社菱田鉄工所,,合資会社,愛知県,名古屋市南区,豊３丁目４０番７号,,23,112,4570863,,,2025-02-12,清算の結了等,,,2015-10-05,1,,,,,ヒシダテッコウジョ,0
770,3180301029189,登記記録の閉鎖等,0,2025-02-19,2025-02-12,ＡＷＣ株式会社,,株式会社,愛知県,名古屋市中区,栄５丁目２６番３９号ＧＳ栄ビル３Ｆ,,23,106,4600008,,,2025-02-12,清算の結了等,,,2016-05-12,1,,,,,エイダブリューシー,0
789,3260002003105,登記記録の閉鎖等,0,2025-02-19,2025-02-13,有限会社共和モータース,,有限会社,岡山県,岡山市北区,十日市中町５番２５号,,33,101,7000855,,,2025-02-13,清算の結了等,,,2015-10-05,1,,,,,キョウワモータース,0
796,3290001022045,登記記録の閉鎖等,0,2025-02-19,2025-02-03,レフティ株式会社,,株式会社,福岡県,福岡市博多区,山王２丁目１２番２号,,40,132,8120015,,,2025-02-03,合併による解散等,4290001015964,令和７年２月１日福岡市博多区山王一丁目１５番２２号株式会社ビッグ・マリオン（4290001015964）に合併し解散,2015-10-05,1,,,,,レフティ,0
807,3290002009405,登記記録の閉鎖等,0,2025-02-19,2025-02-05,有限会社アスク,,有限会社,福岡県,福岡市早良区,高取２丁目１４番１２－３０６号,,40,137,8140011,,,2025-02-05,清算の結了等,,,2015-10-05,1,,,,,アスク,0
812,3290802010231,登記記録の閉鎖等,0,2025-02-19,2025-02-17,有限会社ユウアイ電通,,有限会社,福岡県,北九州市門司区,緑ケ丘１０番６号,,40,101,8000043,,,2025-02-17,清算の結了等,,,2015-10-05,1,,,,,ユウアイデンツウ,0
819,3320001004799,登記記録の閉鎖等,0,2025-02-19,2025-02-18,株式会社玉井企画,,株式会社,大分県,大分市,大字松岡１８１７番地,,44,201,8700125,,,2025-02-18,清算の結了等,,,2015-10-05,1,,,,,タマイキカク,0
830,3350001006413,登記記録の閉鎖等,0,2025-02-19,2025-02-14,株式会社スマッシュ,,株式会社,宮崎県,日向市,不動寺３５番地,,45,206,8830037,,,2025-02-14,清算の結了等,,,2015-10-05,1,,,,,スマッシュ,0
832,3360002004613,登記記録の閉鎖等,0,2025-02-19,2025-02-18,有限会社与儀工業,,有限会社,沖縄県,豊見城市,字饒波１０７番地２,,47,212,9010211,,,2025-02-18,清算の結了等,,,2015-10-05,1,,,,,ヨギコウギョウ,0
849,3470001002838,登記記録の閉鎖等,0,2025-02-19,2025-02-18,株式会社ティーアールエス,,株式会社,香川県,高松市,常磐町１丁目８番地２,,37,201,7600054,,,2025-02-18,清算の結了等,,,2015-10-05,1,,,,,ティーアールエス,0
854,3480005006553,登記記録の閉鎖等,0,2025-02-19,2025-02-18,一般社団法人徳島県木の家づくり協会,,その他の設立登記法人,徳島県,徳島市,川内町大松７７１番地の１,,36,201,7710131,,,2025-02-18,清算の結了等,,,2017-04-10,1,,,,,トクシマケンキノイエヅクリキョウカイ,0
861,4010001230748,登記記録の閉鎖等,0,2025-02-19,2025-02-10,株式会社ＭＩＲエンターテインメント,,株式会社,東京都,新宿区,西新宿３丁目３番１３号西新宿水間ビル２Ｆ,,13,104,1600023,,,2025-02-10,清算の結了等,,,2022-11-11,1,,,,,ミールエンターテインメント,0
895,4010901045089,登記記録の閉鎖等,0,2025-02-19,2025-02-06,楽天エナジー株式会社,,株式会社,東京都,世田谷区,玉川１丁目１４番１号,,13,112,1580094,,,2025-02-06,合併による解散等,2010901041404,令和７年２月１日東京都世田谷区玉川一丁目１４番１号楽天モバイル株式会社（2010901041404）に合併し解散,2019-10-24,1,,,,,ラクテンエナジー,0
897,4010902007187,登記記録の閉鎖等,0,2025-02-19,2025-02-12,有限会社シーダーズ,,有限会社,東京都,世田谷区,奥沢３丁目３３番９号,,13,112,1580083,,,2025-02-12,清算の結了等,,,2015-10-05,1,,,,,,0
899,4011001094258,登記記録の閉鎖等,0,2025-02-19,2025-01-15,株式会社ｅｘｐｇ,,株式会社,東京都,目黒区,東山１丁目２番２号,,13,110,1530043,,,2025-01-15,合併による解散等,6013201010538,令和７年１月１日東京都目黒区東山一丁目２番２号株式会社ＬＤＨ　ＪＡＰＡＮ（6013201010538）に合併し解散,2015-10-05,1,,,,,イーエックスピージー,0
914,4011101020056,登記記録の閉鎖等,0,2025-02-19,2025-02-10,株式会社マトイ,,株式会社,東京都,新宿区,神楽坂６丁目２５番１８号,,13,104,1620825,,,2025-02-10,清算の結了等,,,2015-10-05,1,,,,,マトイ,0
915,4011101063385,登記記録の閉鎖等,0,2025-02-19,2025-02-10,バセンジー株式会社,,株式会社,東京都,新宿区,百人町２丁目８番１０号,,13,104,1690073,,,2025-02-10,清算の結了等,,,2015-10-05,1,,,,,バセンジー,0
937,4011802000265,登記記録の閉鎖等,0,2025-02-19,2025-02-14,有限会社浅井硝子建材,,有限会社,東京都,葛飾区,青戸８丁目１１番１５号,,13,122,1250062,,,2025-02-14,清算の結了等,,,2015-10-05,1,,,,,アサイガラスケンザイ,0
960,4021001068913,登記記録の閉鎖等,0,2025-02-19,2025-02-17,株式会社心栄,,株式会社,神奈川県,平塚市,夕陽ケ丘４５番１５号１階,,14,203,2540806,,,2025-02-17,清算の結了等,,,2019-12-25,1,,,,,シンエイ,0
971,4040001034460,登記記録の閉鎖等,0,2025-02-19,2025-02-10,株式会社ＤＥＰＡＲＴＵＲＥＳ,,株式会社,千葉県,千葉市稲毛区,作草部５９２番地２,,12,103,2630000,,,2025-02-10,清算の結了等,,,2015-10-05,1,,,,,デパーチャーズ,0
984,4060001024658,登記記録の閉鎖等,0,2025-02-19,2025-02-17,株式会社Ａ＆Ｍ食品,,株式会社,栃木県,宇都宮市,上戸祭町７４０番地４９,,09,201,3200051,,,2025-02-17,合併による解散等,5060001022108,令和７年２月１日栃木県宇都宮市松原二丁目６番１３号Ａ＆Ｍ株式会社（5060001022108）に合併し解散,2015-10-05,1,,,,,エーアンドエムショクヒン,0
1003,4100002008341,登記記録の閉鎖等,0,2025-02-19,2025-02-13,有限会社カネキ,,有限会社,長野県,須坂市,大字須坂１２６６番地４１,,20,207,3820000,,,2025-02-13,清算の結了等,,,2015-10-05,1,,,,,カネキ,0
1004,4110002005800,登記記録の閉鎖等,0,2025-02-19,2025-02-17,有限会社フレツシユリー新潟,,有限会社,新潟県,新潟市西蒲区,福島１６４８番地１,,15,108,9501344,,,2025-02-17,清算の結了等,,,2015-10-05,1,,,,,フレツシユリーニイガタ,0
1010,4120001215366,登記記録の閉鎖等,0,2025-02-19,2025-02-17,株式会社ＡＣＥ交通サービス,,株式会社,大阪府,大阪市西区,土佐堀１丁目１番３２－１０２,,27,106,5500001,,,2025-02-17,清算の結了等,,,2018-08-15,1,,,,,エースコウツウサービス,0
1052,4180005017778,登記記録の閉鎖等,0,2025-02-19,2025-02-10,特定非営利活動法人コミュネット江南,,その他の設立登記法人,愛知県,江南市,赤童子町大堀１８番地,,23,217,4838221,,,2025-02-10,清算の結了等,,,2018-04-16,1,,,,,コミュネットコウナン,0
1055,4190001016270,登記記録の閉鎖等,0,2025-02-19,2025-02-17,株式会社まめ屋製菓舗,,株式会社,三重県,四日市市,赤堀南町８番１４号,,24,202,5100827,,,2025-02-17,清算の結了等,,,2015-10-05,1,,,,,マメヤセイカホ,0
1057,4190002011527,登記記録の閉鎖等,0,2025-02-19,2025-02-10,有限会社大王園芸,,有限会社,三重県,志摩市,大王町波切３３００番地２,,24,215,5170603,,,2025-02-10,清算の結了等,,,2015-10-05,1,,,,,ダイオウエンゲイ,0
1058,4200001022861,登記記録の閉鎖等,0,2025-02-19,2025-02-17,株式会社キョウリン,,株式会社,岐阜県,多治見市,希望ケ丘３丁目２１番地,,21,204,5070008,,,2025-02-17,清算の結了等,,,2015-10-05,1,,,,,キョウリン,0
1100,4380001009296,登記記録の閉鎖等,0,2025-02-19,2025-01-29,株式会社イージス,,株式会社,福島県,郡山市,富田町字登戸２６番地の１,,07,203,9638041,,,2025-01-29,清算の結了等,,,2015-10-05,1,,,,,,0
1103,4380001032620,登記記録の閉鎖等,0,2025-02-19,2025-02-10,株式会社源絆家,,株式会社,福島県,喜多方市,字小田付道下７１２２番地１,,07,208,9660813,,,2025-02-10,清算の結了等,,,2022-03-04,1,,,,,,0
1105,4390001012233,登記記録の閉鎖等,0,2025-02-19,2025-02-17,ワイデーピー株式会社,,株式会社,山形県,寒河江市,中央工業団地４７番地,,06,206,9910061,,,2025-02-17,清算の結了等,,,2015-10-05,1,,,,,ワイデーピー,0
1107,4430001066431,登記記録の閉鎖等,0,2025-02-19,2025-02-17,株式会社悠希工務,,株式会社,北海道,札幌市手稲区,曙五条２丁目４番１０号,00124191,01,109,0060835,,,2025-02-17,清算の結了等,,,2015-10-05,1,,,,,ユウキコウム,0
1112,4450005003230,登記記録の閉鎖等,0,2025-02-19,2025-02-14,留萌市土地開発公社,,その他の設立登記法人,北海道,留萌市,幸町１丁目１１番地,,01,212,0770031,,,2025-02-14,清算の結了等,,,2015-10-05,1,,,,,ルモイシ,0
1143,5010403027163,登記記録の閉鎖等,0,2025-02-19,2025-01-31,Ｊｅｔｔａ合同会社,,合同会社,東京都,港区,虎ノ門２丁目６番１号,,13,103,1050001,,,2025-01-31,清算の結了等,,,2022-02-25,1,,,,,ジェッタ,0
1153,5010901037779,登記記録の閉鎖等,0,2025-02-19,2025-02-14,株式会社東京ドローン,,株式会社,東京都,あきる野市,小中野１０７番地１,,13,228,1900165,,,2025-02-14,清算の結了等,,,2016-03-16,1,,,,,トウキョウドローン,0
1165,5011101101078,登記記録の閉鎖等,0,2025-02-19,2025-02-12,株式会社ライフ,,株式会社,東京都,新宿区,西落合１丁目８番１１号,,13,104,1610031,,,2025-02-12,清算の結了等,,,2022-12-07,1,,,,,ライフ,0
1166,5011101106663,登記記録の閉鎖等,0,2025-02-19,2025-02-10,タロウロボティクス株式会社,,株式会社,東京都,新宿区,早稲田鶴巻町５１８番地早稲田玉井ビル３階,,13,104,1620041,,,2025-02-10,清算の結了等,,,2024-04-03,1,,,,,タロウロボティクス,0
1180,5011502003402,登記記録の閉鎖等,0,2025-02-19,2025-02-14,有限会社相馬事務所,,有限会社,東京都,北区,西ケ原４丁目５番２号,,13,117,1140024,,,2025-02-14,清算の結了等,,,2015-10-05,1,,,,,ソウマジムショ,0
1195,5013101006595,登記記録の閉鎖等,0,2025-02-19,2025-02-17,株式会社すまいゆ藤間,,株式会社,埼玉県,川越市,大字藤間７４５,,11,201,3501142,,,2025-02-17,合併による解散等,2011801024878,令和７年１月３１日東京都台東区上野六丁目１６番１７朝日生命上野昭和通ビル６階ベストリハ株式会社（2011801024878）に合併し解散,2015-10-05,1,,,,,スマイユフジマ,0
1235,5040002052601,登記記録の閉鎖等,0,2025-02-19,2025-02-12,有限会社和幸,,有限会社,千葉県,流山市,東初石３丁目２４５番地の５６,,12,220,2700114,,,2025-02-12,清算の結了等,,,2015-10-05,1,,,,,ワコウ,0
1246,5060001020103,登記記録の閉鎖等,0,2025-02-19,2025-02-14,株式会社足南シルバーサービス,,株式会社,栃木県,足利市,堀込町１６４８番地１,,09,202,3260831,,,2025-02-14,清算の結了等,,,2015-10-05,1,,,,,アシナンシルバーサービス,0
1253,5080003002205,登記記録の閉鎖等,0,2025-02-19,2025-02-13,合同会社ｄａｗｎ,,合同会社,静岡県,静岡市清水区,押切９３９番地の１６,,22,103,4240008,,,2025-02-13,清算の結了等,,,2018-12-20,1,,,,,ドーン,0
1261,5110005000723,登記記録の閉鎖等,0,2025-02-19,2025-02-18,医療法人社団文田医院,,その他の設立登記法人,新潟県,新潟市中央区,山二ツ２丁目１番１１号,,15,103,9500922,,,2025-02-18,清算の結了等,,,2015-10-05,1,,,,,フミタイイン,0
1273,5120002029079,登記記録の閉鎖等,0,2025-02-19,2025-02-17,有限会社エフィ,,有限会社,大阪府,大阪市北区,天満２丁目６番３－７１６号,,27,127,5300043,,,2025-02-17,清算の結了等,,,2015-10-05,1,,,,,エフィ,0
1282,5130001061643,登記記録の閉鎖等,0,2025-02-19,2025-02-17,株式会社リル・トランスポート,,株式会社,京都府,八幡市,橋本堂ケ原１７番地３９,,26,210,6148344,,,2025-02-17,清算の結了等,,,2018-03-05,1,,,,,,0
1315,5200001025038,登記記録の閉鎖等,0,2025-02-19,2025-02-17,ナカヤユニック株式会社,,株式会社,岐阜県,高山市,石浦町１丁目４６番地,,21,203,5060825,,,2025-02-17,清算の結了等,,,2015-10-05,1,,,,,ナカヤユニック,0
1325,5240001042467,登記記録の閉鎖等,0,2025-02-19,2025-02-17,株式会社ケイエムコーポレーション,,株式会社,広島県,福山市,草戸町５丁目７番３－３号,,34,207,7200831,,,2025-02-17,清算の結了等,,,2015-10-05,1,,,,,ケイエムコーポレーション,0
1347,5290005003865,登記記録の閉鎖等,0,2025-02-19,2025-01-31,特定非営利活動法人ホリスティックメディカルアソシエーション,,その他の設立登記法人,福岡県,福岡市博多区,博多駅前３丁目１２番２１号,,40,132,8120011,,,2025-01-31,清算の結了等,,,2015-10-05,1,,,,,ホリスティックメディカルアソシエーション,0
1360,5350001004885,登記記録の閉鎖等,0,2025-02-19,2025-02-17,株式会社テクノマート,,株式会社,宮崎県,宮崎市,佐土原町東上那珂字石塚１７８８０番地４５,,45,201,8800303,,,2025-02-17,清算の結了等,,,2015-10-05,1,,,,,テクノマート,0
1413,6010403023310,登記記録の閉鎖等,0,2025-02-19,2025-02-17,Ｔｅｅｔｈ　Ａｌｉｇｎｍｅｎｔ　Ｂｒａｉｎ株式会社,,株式会社,東京都,中央区,銀座１丁目１２番４号,,13,102,1040061,,,2025-02-17,合併による解散等,8011001146732,令和７年１月１７日東京都渋谷区渋谷二丁目１９番１５号Ｔｏｋｙｏ　Ｉｎｎｏｖａｔｉｏｎ　Ｉｎｓｔｉｔｕｔｅ株式会社（8011001146732）に合併し解散,2020-07-21,1,,,,,ティースアライメントブレイン,0
1433,6011001001294,登記記録の閉鎖等,0,2025-02-19,2025-02-14,株式会社アトリエサボ,,株式会社,東京都,多摩市,関戸１丁目２０番地の１ブリリアタワー聖蹟桜ヶ丘ブルーミングレジデンス１５０６,,13,224,2060011,,,2025-02-14,清算の結了等,,,2015-10-05,1,,,,,アトリエサボ,0
1441,6011001135852,登記記録の閉鎖等,0,2025-02-19,2025-01-15,株式会社ケアフル,,株式会社,東京都,渋谷区,東１丁目４番１号尚豊ビル３０６,,13,113,1500011,,,2025-01-15,合併による解散等,7011001106274,令和７年１月１日東京都渋谷区東一丁目４番１号尚豊ビル３０６株式会社メディステップ（7011001106274）に合併し解散,2020-09-15,1,,,,,ケアフル,0
1456,6011201019335,登記記録の閉鎖等,0,2025-02-19,2025-02-17,株式会社ＬＵＮＯＮ,,株式会社,東京都,中野区,中野５丁目５１番３号,,13,114,1640001,,,2025-02-17,清算の結了等,,,2016-08-29,1,,,,,ルノン,0
1465,6011602023646,登記記録の閉鎖等,0,2025-02-19,2025-02-10,有限会社エフコーポレーション,,有限会社,東京都,練馬区,石神井町３丁目３０番３０号,,13,120,1770041,,,2025-02-10,清算の結了等,,,2015-10-05,1,,,,,エフコーポレーション,0
1471,6011805003271,登記記録の閉鎖等,0,2025-02-19,2025-02-13,一般社団法人日本四大元素協会,,その他の設立登記法人,東京都,葛飾区,東金町１丁目４５番１２号ＡＳビル２０４,,13,122,1250041,,,2025-02-13,清算の結了等,,,2023-05-10,1,,,,,ニホンシダイゲンソキョウカイ,0
1479,6013202011691,登記記録の閉鎖等,0,2025-02-19,2025-01-30,有限会社セルクル,,有限会社,東京都,目黒区,洗足２丁目１６番１号,,13,110,1520012,,,2025-01-30,清算の結了等,,,2015-10-05,1,,,,,セルクル,0
1524,6060002038119,登記記録の閉鎖等,0,2025-02-19,2025-02-17,有限会社インプラス,,有限会社,栃木県,足利市,寿町７番地３７,,09,202,3260025,,,2025-02-17,清算の結了等,,,2015-10-05,1,,,,,インプラス,0
1531,6080101025115,登記記録の閉鎖等,0,2025-02-19,2025-02-13,株式会社三いし,,株式会社,静岡県,熱海市,水口町１４番１８号,,22,205,4130016,,,2025-02-13,清算の結了等,,,2024-11-14,1,,,,,ミツイシ,0
1533,6080102006106,登記記録の閉鎖等,0,2025-02-19,2025-02-14,有限会社イオン・リサーチ,,有限会社,静岡県,沼津市,新宿町３番地の７,,22,203,4100048,,,2025-02-14,清算の結了等,,,2015-10-05,1,,,,,イオンリサーチ,0
1534,6080102006675,登記記録の閉鎖等,0,2025-02-19,2025-02-14,有限会社魚森,,有限会社,静岡県,御殿場市,川島田６７５番地の１,,22,215,4120045,,,2025-02-14,清算の結了等,,,2015-10-05,1,,,,,ウオモリ,0
1535,6090002001718,登記記録の閉鎖等,0,2025-02-19,2025-02-14,有限会社スズキ輪業,,有限会社,山梨県,甲府市,徳行１丁目１４番１８号,,19,201,4000047,,,2025-02-14,清算の結了等,,,2015-10-05,1,,,,,スズキリンギョウ,0
1561,6130001039317,登記記録の閉鎖等,0,2025-02-19,2025-02-17,株式会社ＯＫＳ,,株式会社,大阪府,枚方市,招提大谷２丁目１８番１号,,27,210,5731153,,,2025-02-17,清算の結了等,,,2015-10-05,1,,,,,オーケーエス,0
1562,6130001048664,登記記録の閉鎖等,0,2025-02-19,2025-02-18,株式会社奥田建設,,株式会社,京都府,京都市上京区,中立売通油小路西入東橋詰町７１番地八木善２１－１０５号,,26,102,6028066,,,2025-02-18,清算の結了等,,,2015-10-05,1,,,,,オクダケンセツ,0
1565,6130001067078,登記記録の閉鎖等,0,2025-02-19,2025-02-17,歴史文化研究所株式会社,,株式会社,京都府,京都市下京区,寺町通松原下る植松町７３３番地,,26,106,6008028,,,2025-02-17,清算の結了等,,,2020-06-10,1,,,,,レキシブンカケンキュウショ,0
1571,6130002011613,登記記録の閉鎖等,0,2025-02-19,2025-02-17,有限会社モンパルカマダ,,有限会社,京都府,京都市南区,八条通壬生東入八条町４５８番地,,26,107,6018471,,,2025-02-17,清算の結了等,,,2015-10-05,1,,,,,モンパルカマダ,0
1586,6160003002526,登記記録の閉鎖等,0,2025-02-19,2025-02-14,合同会社ＫＩ,,合同会社,滋賀県,東近江市,五個荘石塚町２３番地,00126146,25,213,5291444,,,2025-02-14,清算の結了等,,,2022-04-05,1,,,,,ケイアイ,0
1597,6180301022281,登記記録の閉鎖等,0,2025-02-19,2025-02-17,株式会社石川製作所,,株式会社,愛知県,西尾市,南中根町山畑６８番地１,,23,213,4450801,,,2025-02-17,清算の結了等,,,2015-10-05,1,,,,,イシカワセイサクショ,0
1598,6180301031869,登記記録の閉鎖等,0,2025-02-19,2025-02-17,株式会社フロンティア,,株式会社,愛知県,刈谷市,桜町２丁目１番地２ＲＩＳＥ２・２階Ｂ,,23,210,4480028,,,2025-02-17,清算の結了等,,,2018-09-25,1,,,,,フロンティア,0
1600,6190001004934,登記記録の閉鎖等,0,2025-02-19,2025-02-14,株式会社木村苗壽園,00075598,株式会社,三重県,鈴鹿市,石薬師町２４５７番地の３５,,24,207,5130012,,,2025-02-14,清算の結了等,,,2015-10-05,1,,,,,キムラビョウジュエン,0
1619,6260001001759,登記記録の閉鎖等,0,2025-02-19,2025-02-17,株式会社学隆社,,株式会社,大阪府,大阪市天王寺区,清水谷町２０番９号,,27,109,5430011,,,2025-02-17,清算の結了等,,,2015-10-05,1,,,,,ガクリュウシャ,0
1626,6290001080263,登記記録の閉鎖等,0,2025-02-19,2025-02-04,株式会社雲水天和,,株式会社,福岡県,筑紫野市,天拝坂２丁目５－２１,,40,217,8180053,,,2025-02-04,清算の結了等,,,2018-01-17,1,,,,,ウンスイテンホウ,0
1642,6330003001312,登記記録の閉鎖等,0,2025-02-19,2025-02-07,合資会社ワールドカラー熊本,,合資会社,熊本県,熊本市中央区,神水１丁目１９－２１セイケイビル３０１,,43,101,8620954,,,2025-02-07,清算の結了等,,,2015-10-05,1,,,,,ワールドカラークマモト,0
1664,6430001085636,登記記録の閉鎖等,0,2025-02-19,2025-02-17,株式会社ラック,,株式会社,北海道,札幌市中央区,南一条東２丁目５番地１,,01,101,0600051,,,2025-02-17,清算の結了等,,,2021-12-21,1,,,,,ラック,0
1667,6440002005773,登記記録の閉鎖等,0,2025-02-19,2025-02-14,有限会社キッチン・ベーカリー,,有限会社,北海道,函館市,宮前町９番１５号,,01,202,0400073,,,2025-02-14,清算の結了等,,,2015-10-05,1,,,,,キッチンベーカリー,0
1679,6500001023448,登記記録の閉鎖等,0,2025-02-19,2025-02-17,龍美堂株式会社,,株式会社,愛媛県,松山市,生石町５９５番地３,,38,201,7900051,,,2025-02-17,清算の結了等,,,2021-05-21,1,,,,,リュウビドウ,0
1686,7010001164290,登記記録の閉鎖等,0,2025-02-19,2025-02-04,株式会社ルーメンスジャパン,,株式会社,東京都,中央区,八重洲１丁目５番１５号,,13,102,1030028,,,2025-02-04,清算の結了等,,,2015-10-05,1,,,,,ルーメンスジャパン,0
1688,7010001183919,登記記録の閉鎖等,0,2025-02-19,2025-02-04,ダイアモンド・ガス・インターナショナル・ジャパン株式会社,,株式会社,東京都,千代田区,丸の内２丁目３番１号,,13,101,1000005,,,2025-02-04,清算の結了等,,,2017-06-01,1,,,,,ダイアモンドガスインターナショナルジャパン,0
1702,7010401112304,登記記録の閉鎖等,0,2025-02-19,2025-02-04,株式会社エネグル,,株式会社,東京都,千代田区,外神田２丁目１５番２号新神田ビル４階,,13,101,1010021,,,2025-02-04,清算の結了等,,,2015-10-05,1,,,,,エネグル,0
1713,7010402035165,登記記録の閉鎖等,0,2025-02-19,2025-01-31,有限会社ＡＳＣＯＭ,,有限会社,東京都,港区,港南４丁目６番４号,,13,103,1080075,,,2025-01-31,合併による解散等,1080101010352,令和７年１月３１日東京都港区港南四丁目６番４－４０２号株式会社アクセスワン（1080101010352）に合併し解散,2015-10-05,1,,,,,エースコム,0
1718,7010405020602,登記記録の閉鎖等,0,2025-02-19,2025-01-31,一般社団法人ＳＨ０５２,,その他の設立登記法人,東京都,港区,虎ノ門３丁目２２番１０－２０１号,,13,103,1050001,,,2025-01-31,清算の結了等,,,2022-01-20,1,,,,,エスエイチゼロファイブツー,0
1720,7010502007989,登記記録の閉鎖等,0,2025-02-19,2025-02-05,有限会社唐栄,,有限会社,東京都,台東区,橋場１丁目１８番８号,,13,106,1110023,,,2025-02-05,清算の結了等,,,2015-10-05,1,,,,,カラエイ,0
1737,7011001139514,登記記録の閉鎖等,0,2025-02-19,2025-02-12,株式会社Ｃ＆Ｐ,,株式会社,東京都,世田谷区,三軒茶屋１丁目８番８号,,13,112,1540024,,,2025-02-12,清算の結了等,,,2021-04-06,1,,,,,シーアンドピー,0
1758,7012403003340,登記記録の閉鎖等,0,2025-02-19,2025-02-14,ＫＹＭＪアプレイザル合同会社,,合同会社,東京都,武蔵野市,吉祥寺南町３丁目１番２０号,,13,203,1800003,,,2025-02-14,清算の結了等,,,2018-01-31,1,,,,,ケイワイエムジェイアプレイザル,0
1763,7013402003884,登記記録の閉鎖等,0,2025-02-19,2025-02-17,有限会社北基工業,,有限会社,東京都,稲城市,坂浜５４４,,13,225,2060822,,,2025-02-17,清算の結了等,,,2015-10-05,1,,,,,キタモトコウギョウ,0
1804,7050001016298,登記記録の閉鎖等,0,2025-02-19,2025-02-13,株式会社協栄エイアンドアイ,,株式会社,茨城県,つくば市,西大橋５９９番地１,,08,220,3050831,,,2025-02-13,合併による解散等,9040001013939,令和７年２月１日千葉市美浜区中瀬一丁目５番地１イオン保険サービス株式会社（9040001013939）に合併し解散,2015-10-05,1,,,,,キョウエイエイアンドアイ,0
1805,7050001040851,登記記録の閉鎖等,0,2025-02-19,2025-02-12,株式会社藏持電気,,株式会社,茨城県,古河市,大手町１０番３０号,,08,204,3060032,,,2025-02-12,清算の結了等,,,2016-04-22,1,,,,,クラモチデンキ,0
1813,7060002027203,登記記録の閉鎖等,0,2025-02-19,2025-02-14,有限会社ベスト企画,,有限会社,栃木県,矢板市,東町１１７３番地６２,,09,211,3292136,,,2025-02-14,清算の結了等,,,2015-10-05,1,,,,,ベストキカク,0
1819,7080102015865,登記記録の閉鎖等,0,2025-02-19,2025-02-14,有限会社エムワイ,,有限会社,静岡県,富士市,瓜島町１０７番地,,22,210,4170057,,,2025-02-14,清算の結了等,,,2015-10-05,1,,,,,エムワイ,0
1826,7090001000182,登記記録の閉鎖等,0,2025-02-19,2025-02-13,株式会社ＩＭ,,株式会社,山梨県,南アルプス市,上今諏訪６３４番地３,,19,208,4000211,,,2025-02-13,清算の結了等,,,2015-10-05,1,,,,,インターマックス,0
1845,7120001268535,登記記録の閉鎖等,0,2025-02-19,2025-02-05,株式会社キョウドウＰＭＩ,,株式会社,大阪府,大阪市中央区,南船場２丁目４番８号,,27,128,5420081,,,2025-02-05,合併による解散等,2120001078179,令和７年１月３１日大阪市中央区南船場二丁目４番８号株式会社キョウドウ（2120001078179）に合併し解散,2024-09-12,1,,,,,キョウドウピーエムアイ,0
1855,7120101056518,登記記録の閉鎖等,0,2025-02-19,2025-02-18,株式会社Ｐ・Ｐ　ＣＡＭＰＡＮＹ,,株式会社,大阪府,松原市,三宅西２丁目２２番４号,,27,217,5800045,,,2025-02-18,清算の結了等,,,2017-05-11,1,,,,,ピーピーカンパニー,0
1884,7140005023174,登記記録の閉鎖等,0,2025-02-19,2025-01-15,特定非営利活動法人ＬＯＣＡＬ　ＣＲＥＡＴＩＯＮ,,その他の設立登記法人,兵庫県,神戸市兵庫区,湊町４丁目２－１２－２１１,,28,105,6520812,,,2025-01-15,清算の結了等,,,2016-09-29,1,,,,,ローカルクリエーション,0
1902,7180301026273,登記記録の閉鎖等,0,2025-02-19,2025-02-07,ナゴヤ土地開発株式会社,,株式会社,愛知県,蒲郡市,港町１３番１８号蒲郡マリン・イーストＣ,,23,214,4430034,,,2025-02-07,清算の結了等,,,2015-10-05,1,,,,,ナゴヤトチカイハツ,0
1906,7200001019558,登記記録の閉鎖等,0,2025-02-19,2025-02-14,誠建設株式会社,,株式会社,岐阜県,関市,旭ケ丘３丁目１番３号,,21,205,5013829,,,2025-02-14,清算の結了等,,,2015-10-05,1,,,,,マコトケンセツ,0
1916,7250005006275,登記記録の閉鎖等,0,2025-02-19,2025-02-12,圓正寺,,その他の設立登記法人,山口県,岩国市,錦町野谷１４５番地,,35,208,7400725,,,2025-02-12,清算の結了等,,,2015-10-05,1,,,,,エンショウジ,0
1917,7260001027638,登記記録の閉鎖等,0,2025-02-19,2025-02-10,株式会社中塚商事,00003371,株式会社,岡山県,津山市,河辺１２２３番地１,,33,203,7080842,,,2025-02-10,清算の結了等,,,2015-10-05,1,,,,,ナカツカショウジ,0
1918,7280001003091,登記記録の閉鎖等,0,2025-02-19,2025-02-17,株式会社出雲電子計算センター,,株式会社,島根県,出雲市,塩冶有原町６丁目２１番地,,32,203,6930023,,,2025-02-17,清算の結了等,,,2015-10-05,1,,,,,イズモデンシケイサンセンター,0
1919,7290001025960,登記記録の閉鎖等,0,2025-02-19,2025-02-04,株式会社ハリーワン,,株式会社,福岡県,福岡市西区,野方２丁目３８番１２号,,40,135,8190043,,,2025-02-04,清算の結了等,,,2015-10-05,1,,,,,ハリーワン,0
1935,7290805005472,登記記録の閉鎖等,0,2025-02-19,2025-02-13,協同組合福和会,,その他の設立登記法人,福岡県,北九州市戸畑区,南鳥旗町７番１号,,40,105,8040074,,,2025-02-13,清算の結了等,,,2015-10-05,1,,,,,フクワカイ,0
1968,7500002012985,登記記録の閉鎖等,0,2025-02-19,2025-02-14,有限会社天野組,,有限会社,愛媛県,八幡浜市,保内町川之石３番耕地３０４番地３６,,38,204,7960201,,,2025-02-14,清算の結了等,,,2015-10-05,1,,,,,アマノグミ,0
1978,8010001245949,登記記録の閉鎖等,0,2025-02-19,2025-01-29,株式会社ＮＯＡＣＲＥＡＴＥ,,株式会社,東京都,中央区,銀座１丁目１２－４Ｎ＆ＥＢＬＤ．７階,,13,102,1040061,,,2025-01-29,清算の結了等,,,2024-07-04,1,,,,,ノアクリエイト,0
2009,8010501046979,登記記録の閉鎖等,0,2025-02-19,2025-01-17,アドコンタクト株式会社,,株式会社,東京都,台東区,上野７丁目３番９号アルベルゴ上野７２４号室,,13,106,1100005,,,2025-01-17,清算の結了等,,,2021-03-09,1,,,,,アドコンタクト,0
2013,8010601052902,登記記録の閉鎖等,0,2025-02-19,2025-02-05,株式会社ブリエ,,株式会社,東京都,中央区,銀座６丁目６番１号,,13,102,1040061,,,2025-02-05,清算の結了等,,,2018-02-19,1,,,,,ブリエ,0
2019,8010802020410,登記記録の閉鎖等,0,2025-02-19,2025-02-07,有限会社ブルーホール,,有限会社,東京都,大田区,仲池上２丁目２５番４号,,13,111,1460081,,,2025-02-07,清算の結了等,,,2015-10-05,1,,,,,ブルーホール,0
2056,8013201014553,登記記録の閉鎖等,0,2025-02-19,2025-01-15,株式会社ＬＤＨａｐｐａｒｅｌ,,株式会社,東京都,目黒区,東山１丁目２番２号,,13,110,1530043,,,2025-01-15,合併による解散等,6013201010538,令和７年１月１日東京都目黒区東山一丁目２番２号株式会社ＬＤＨ　ＪＡＰＡＮ（6013201010538）に合併し解散,2015-10-05,1,,,,,エルディエイチアパレル,0
2062,8020001131776,登記記録の閉鎖等,0,2025-02-19,2025-01-31,ＩＤＥＡＳ株式会社,,株式会社,神奈川県,横浜市神奈川区,大口仲町１７１番地２グランドメゾン妙蓮寺７０３号,,14,102,2210003,,,2025-01-31,清算の結了等,,,2019-06-28,1,,,,,イデアス,0
2069,8021001068380,登記記録の閉鎖等,0,2025-02-19,2025-02-18,株式会社Ｈｕｇｇｅｒ　Ｍｕｇｇｅｒ　Ｊａｐａｎ,,株式会社,神奈川県,綾瀬市,落合南３丁目１４番２号,,14,218,2521115,,,2025-02-18,清算の結了等,,,2019-10-17,1,,,,,ハガーマガージャパン,0
2072,8030001040935,登記記録の閉鎖等,0,2025-02-19,2025-02-13,株式会社エフワイ総研,,株式会社,埼玉県,三郷市,さつき平２丁目５番１－４０２号,,11,237,3410021,,,2025-02-13,清算の結了等,,,2015-10-05,1,,,,,,0
2079,8040002070303,登記記録の閉鎖等,0,2025-02-19,2025-02-10,有限会社アスターセレーネ,,有限会社,千葉県,君津市,折木沢７０８番地,,12,225,2920533,,,2025-02-10,清算の結了等,,,2015-10-05,1,,,,,アスターセレーネ,0
2089,8090001002418,登記記録の閉鎖等,0,2025-02-19,2025-02-14,友信商事株式会社,,株式会社,山梨県,甲府市,中央２丁目５番２７号,,19,201,4000032,,,2025-02-14,清算の結了等,,,2015-10-05,1,,,,,ユウシンショウジ,0
2093,8090002006657,登記記録の閉鎖等,0,2025-02-19,2025-02-12,有限会社幸栄通信,,有限会社,山梨県,甲斐市,龍地７９８番地の２００,,19,210,4000104,,,2025-02-12,清算の結了等,,,2015-10-05,1,,,,,コウエイツウシン,0
2099,8120001190721,登記記録の閉鎖等,0,2025-02-19,2025-02-14,株式会社佑工業,,株式会社,大阪府,大阪市港区,三先２丁目２０番６９－８０７号,,27,107,5520016,,,2025-02-14,清算の結了等,,,2015-10-05,1,,,,,ユウコウギョウ,0
2109,8120005012054,登記記録の閉鎖等,0,2025-02-19,2025-02-14,税理士法人西野会計事務所,,その他の設立登記法人,大阪府,大阪市中央区,谷町５丁目６番９号ダイアパレス谷町第２ビル５０４号,,27,128,5400012,,,2025-02-14,清算の結了等,,,2015-10-05,1,,,,,ニシノカイケイジムショ,0
2112,8120101051261,登記記録の閉鎖等,0,2025-02-19,2025-02-17,株式会社水商,,株式会社,大阪府,和泉市,室堂町７７３番地の３７,,27,219,5941101,,,2025-02-17,清算の結了等,,,2015-10-05,1,,,,,スイショウ,0
2140,8180005008955,登記記録の閉鎖等,0,2025-02-19,2025-02-14,医療法人光和会,,その他の設立登記法人,愛知県,尾張旭市,庄南町２丁目６番地の７,,23,226,4880823,,,2025-02-14,清算の結了等,,,2015-10-05,1,,,,,コウワカイ,0
2154,8220002005570,登記記録の閉鎖等,0,2025-02-19,2025-02-12,有限会社丸新ステン工業,,有限会社,石川県,金沢市,金市町ニ４６番地５,,17,201,9203134,,,2025-02-12,清算の結了等,,,2015-10-05,1,,,,,マルシンステンコウギョウ,0
2171,8260001034591,登記記録の閉鎖等,0,2025-02-19,2025-02-14,株式会社ＳＰＡＲＫＬＥ,,株式会社,岡山県,岡山市東区,西大寺中野１１０番地２,,33,103,7048191,,,2025-02-14,清算の結了等,,,2020-08-05,1,,,,,スパークリー,0
2201,8370202001421,登記記録の閉鎖等,0,2025-02-19,2025-02-12,有限会社つかさ,,有限会社,宮城県,大崎市,古川南町３丁目４番１９号,,04,215,9896155,,,2025-02-12,清算の結了等,,,2015-10-05,1,,,,,ツカサ,0
2204,8390001006652,登記記録の閉鎖等,0,2025-02-19,2025-02-14,株式会社ユニソン,,株式会社,山形県,酒田市,北里町６番２号,,06,204,9980028,,,2025-02-14,清算の結了等,,,2015-10-05,1,,,,,ユニソン,0
2219,8470003002195,登記記録の閉鎖等,0,2025-02-19,2025-02-17,ステップ合同会社,,合同会社,香川県,仲多度郡多度津町,大字庄９４８番地１Ｄ２０２,,37,404,7640031,,,2025-02-17,清算の結了等,,,2022-06-06,1,,,,,ステップ,0
2220,8480002008283,登記記録の閉鎖等,0,2025-02-19,2025-02-18,有限会社トータルプランニング,,有限会社,徳島県,徳島市,徳島町２丁目２２番地・ＴＩＳビル４Ｆ,,36,201,7700852,,,2025-02-18,清算の結了等,,,2015-10-05,1,,,,,トータルプランニング,0
2223,9010001068952,登記記録の閉鎖等,0,2025-02-19,2025-02-10,株式会社アイ・ファーム,,株式会社,千葉県,千葉市美浜区,幸町１丁目８番１棟５１１号,,12,106,2610001,,,2025-02-10,清算の結了等,,,2015-10-05,1,,,,,アイファーム,0
2245,9010003019004,登記記録の閉鎖等,0,2025-02-19,2025-02-04,ＩＰＲＦ６合同会社,,合同会社,東京都,千代田区,丸の内１丁目４番１号東京共同会計事務所内,,13,101,1000005,,,2025-02-04,清算の結了等,,,2015-10-05,1,,,,,アイピーアールエフシックス,0
2248,9010401114505,登記記録の閉鎖等,0,2025-02-19,2025-02-12,森川インターナショナル株式会社,,株式会社,長野県,千曲市,大字鋳物師屋１５０番地,,20,218,3870015,,,2025-02-12,清算の結了等,,,2015-10-05,1,,,,,モリカワインターナショナル,0
2252,9010401140071,登記記録の閉鎖等,0,2025-02-19,2025-02-03,株式会社Ｄａｎｉｅｌ＆Ｂｏｂ　Ｊａｐａｎ,,株式会社,東京都,港区,芝公園３丁目１番３８号,,13,103,1050011,,,2025-02-03,清算の結了等,,,2018-08-07,1,,,,,ダニエルアンドボブジャパン,0
2261,9010603010865,登記記録の閉鎖等,0,2025-02-19,2025-02-13,Ｃｙｃｒｕｘ　Ｊａｐａｎ合同会社,,合同会社,東京都,江東区,豊洲３丁目４―１―１４０１,,13,108,1350061,,,2025-02-13,清算の結了等,,,2024-06-07,1,,,,,サイクラックスジャパン,0
2266,9010901041496,登記記録の閉鎖等,0,2025-02-19,2025-01-15,株式会社ジョイ,,株式会社,東京都,渋谷区,東１丁目４番１号尚豊ビル３０６,,13,113,1500011,,,2025-01-15,合併による解散等,7011001106274,令和７年１月１日東京都渋谷区東一丁目４番１号尚豊ビル３０６株式会社メディステップ（7011001106274）に合併し解散,2018-02-02,1,,,,,ジョイ,0
2280,9011103008929,登記記録の閉鎖等,0,2025-02-19,2025-02-17,合同会社Ｃｈａｔｅａｕｘ,,合同会社,東京都,新宿区,新宿５丁目１１番３０号・新宿第五葉山ビル３階,,13,104,1600022,,,2025-02-17,合併による解散等,8012403004387,令和７年２月１日東京都武蔵野市関前四丁目２番１４号合同会社シュロス（8012403004387）に合併し解散,2019-07-12,1,,,,,シャトー,0
2281,9011103010224,登記記録の閉鎖等,0,2025-02-19,2025-02-10,ＳＮＺキャピタル合同会社,,合同会社,東京都,新宿区,四谷２丁目９番地１５東京ユナイテッド綜合事務所内,,13,104,1600004,,,2025-02-10,清算の結了等,,,2020-12-09,1,,,,,エスエヌゼットキャピタル,0
2293,9012401039574,登記記録の閉鎖等,0,2025-02-19,2025-02-14,Ｅ４Ｇ株式会社,,株式会社,東京都,調布市,菊野台３丁目２８番地３１,,13,208,1820007,,,2025-02-14,合併による解散等,8010701038297,令和６年１２月１日東京都港区虎ノ門一丁目１０番５号アスエネ株式会社（8010701038297）に合併し解散,2022-08-26,1,,,,,イーフォージー,0
2303,9020001065098,登記記録の閉鎖等,0,2025-02-19,2024-12-26,株式会社カタイ不動産,,株式会社,神奈川県,川崎市麻生区,百合丘１丁目２３番地４,,14,137,2150011,,,2024-12-26,清算の結了等,,,2015-10-05,1,,,,,カタイフドウサン,0
2314,9021002068750,登記記録の閉鎖等,0,2025-02-19,2025-02-17,有限会社カシマサービス,,有限会社,神奈川県,三浦郡葉山町,上山口２６３７番地,,14,301,2400115,,,2025-02-17,清算の結了等,,,2015-10-05,1,,,,,カシマサービス,0
2351,9100002011258,登記記録の閉鎖等,0,2025-02-19,2025-02-12,有限会社マオ,,有限会社,長野県,北佐久郡御代田町,大字馬瀬口字反１６２５番地８３,,20,323,3890207,,,2025-02-12,清算の結了等,,,2015-10-05,1,,,,,マオ,0
2364,9120001252405,登記記録の閉鎖等,0,2025-02-19,2025-02-17,株式会社ニューステップ,,株式会社,大阪府,門真市,大池町３番２号１０３号室,,27,223,5710076,,,2025-02-17,清算の結了等,,,2023-02-09,1,,,,,ニューステップ,0
2386,9140001076109,登記記録の閉鎖等,0,2025-02-19,2025-02-13,小田工業株式会社,,株式会社,兵庫県,加西市,野条町字上薮敷４８１番地の３０,,28,220,6752202,,,2025-02-13,清算の結了等,,,2015-10-05,1,,,,,オダコウギョウ,0
2420,9240001026771,登記記録の閉鎖等,0,2025-02-19,2025-02-17,株式会社オオニシ,,株式会社,広島県,呉市,音戸町鰯浜２丁目１番１２号,00000248,34,202,7371203,,,2025-02-17,清算の結了等,,,2015-10-05,1,,,,,オオニシ,0
2421,9240001054839,登記記録の閉鎖等,0,2025-02-19,2025-02-17,ニッショウクリエイティブ株式会社,,株式会社,広島県,広島市西区,三滝本町１丁目２番１６号,,34,104,7330802,,,2025-02-17,清算の結了等,,,2019-08-27,1,,,,,ニッショウクリエイティブ,0
2423,9250001016375,登記記録の閉鎖等,0,2025-02-19,2025-01-29,株式会社三井田農園,,株式会社,山口県,下関市,豊浦町大字黒井１９４８番地,,35,201,7596312,,,2025-01-29,清算の結了等,,,2017-01-12,1,,,,,,0
2424,9250002011961,登記記録の閉鎖等,0,2025-02-19,2025-02-13,有限会社安岡駅前薬局,,有限会社,山口県,下関市,安岡駅前１丁目１０番３１号,,35,201,7596612,,,2025-02-13,清算の結了等,,,2015-10-05,1,,,,,ヤスオカエキマエヤッキョク,0
2448,9370001016396,登記記録の閉鎖等,0,2025-02-19,2025-02-10,株式会社仙台コピー,,株式会社,宮城県,仙台市青葉区,二日町６番２６号,,04,101,9800802,,,2025-02-10,清算の結了等,,,2015-10-05,1,,,,,センダイコピー,0
2458,9430001031769,登記記録の閉鎖等,0,2025-02-19,2025-02-17,株式会社ｃｌｉｍｂ,,株式会社,北海道,札幌市厚別区,厚別北二条３丁目１番１号,,01,108,0040072,,,2025-02-17,清算の結了等,,,2015-10-05,1,,,,,クライム,0
2462,9430005013359,登記記録の閉鎖等,0,2025-02-19,2025-01-28,一般社団法人なごみ,,その他の設立登記法人,北海道,札幌市白石区,東札幌一条３丁目３番１７号ウエストヴィレッジＩＩ－２０３号,00112905,01,104,0030001,,,2025-01-28,清算の結了等,,,2018-03-29,1,,,,,ナゴミ,0
