sequenceNumber,corporateNumber,process,correct,updateDate,changeDate,name,nameImageId,kind,prefectureName,cityName,streetNumber,addressImageId,prefectureCode,cityCode,postCode,addressOutside,addressOutsideImageId,closeDate,closeCause,successorCorporateNumber,changeCause,assignmentDate,latest,enName,enPrefectureName,enCityName,enAddressOutside,furigana,hihyoji
5,1010001247786,新規,0,2024-09-19,2024-09-19,永福商事株式会社,,株式会社,東京都,文京区,音羽２丁目１１番１２－１００３号,,13,105,1120013,,,,,,,2024-09-19,1,,,,,エイフクショウジ,0
6,1010001248272,新規,0,2024-09-19,2024-09-19,株式会社ＥｍｐａＸ,,株式会社,東京都,千代田区,内幸町１丁目２番１号日土地内幸町ビル５Ｆ,,13,101,1000011,,,,,,,2024-09-19,1,,,,,エンパックス,0
7,1010001248314,新規,0,2024-09-19,2024-09-19,株式会社アカサイスキーム,,株式会社,東京都,中央区,日本橋堀留町１丁目３番１６号ＪＳＢレジデンス＆オフィス日本橋６２３号,,13,102,1030012,,,,,,,2024-09-19,1,,,,,アカサイスキーム,0
8,1010001248347,新規,0,2024-09-19,2024-09-19,３ｃ３株式会社,,株式会社,東京都,千代田区,神田小川町３丁目７番地５,,13,101,1010052,,,,,,,2024-09-19,1,,,,,サンシーサン,0
9,1010001248396,新規,0,2024-09-19,2024-09-19,株式会社Ｌａｚｏｓ,,株式会社,東京都,中央区,日本橋蛎殻町１丁目１９番１号,,13,102,1030014,,,,,,,2024-09-19,1,,,,,ラソス,0
12,1010003044686,新規,0,2024-09-19,2024-09-19,Ｘｌｓｃｏｕｔ　Ｘｌｐａｔ合同会社,,合同会社,東京都,千代田区,丸の内１丁目８番３号丸の内トラストタワー本館２０階,,13,101,1000005,,,,,,,2024-09-19,1,,,,,エクセルスカウトエクセルパット,0
13,1010003044934,新規,0,2024-09-19,2024-09-19,ＪＰＳ第３８号合同会社,,合同会社,東京都,千代田区,霞が関３丁目２番１号,,13,101,1000013,,,,,,,2024-09-19,1,,,,,ジェイピーエスダイサンジュウハチゴウ,0
14,1010003044942,新規,0,2024-09-19,2024-09-19,Ｓｏｎｇ　Ｈｏｌｄｉｎｇｓ合同会社,,合同会社,東京都,中央区,日本橋室町４丁目３番９号,,13,102,1030022,,,,,,,2024-09-19,1,,,,,ソンホールディングス,0
15,1010005038835,新規,0,2024-09-19,2024-09-19,一般社団法人京都向島開発,,その他の設立登記法人,東京都,中央区,日本橋１丁目４番１号,,13,102,1030027,,,,,,,2024-09-19,1,,,,,キョウトムカイジマカイハツ,0
22,1010401185181,新規,0,2024-09-19,2024-09-19,株式会社ＮＡＧＩＮＡ,,株式会社,東京都,港区,白金台４丁目５番９号ラテスト白金台８０５,,13,103,1080071,,,,,,,2024-09-19,1,,,,,ナギナ,0
24,1010403033438,新規,0,2024-09-19,2024-09-19,合同会社シフトアップ,,合同会社,東京都,港区,北青山１丁目３番１号アールキューブ青山３階,,13,103,1070061,,,,,,,2024-09-19,1,,,,,シフトアップ,0
27,1010603011094,新規,0,2024-09-19,2024-09-19,Ｓｅｎｔｉｒ　Ｅｘｃｌｕｓｉｖｅ合同会社,,合同会社,東京都,江東区,東陽３丁目８番５号,,13,108,1350016,,,,,,,2024-09-19,1,,,,,センティアエクスクルーシブ,0
32,1010703007356,新規,0,2024-09-19,2024-09-19,Ｎｏｒｄｌｙｓ合同会社,,合同会社,東京都,品川区,西五反田３丁目８番３号,,13,109,1410031,,,,,,,2024-09-19,1,,,,,ノールリス,0
33,1010901056007,新規,0,2024-09-19,2024-09-19,株式会社ＹＭＨＫ,,株式会社,東京都,世田谷区,祖師谷５丁目４１番３,,13,112,1570072,,,,,,,2024-09-19,1,,,,,ワイエムエイチケー,0
35,1010905004671,新規,0,2024-09-19,2024-09-19,一般社団法人パワーマネジメント,,その他の設立登記法人,東京都,世田谷区,玉川２丁目１４番７号ツインシティーＳ３Ｆ中央ライズアクロスグループ内,,13,112,1580094,,,,,,,2024-09-19,1,,,,,パワーマネジメント,0
42,1011001164724,新規,0,2024-09-19,2024-09-19,株式会社チルシンク,,株式会社,東京都,渋谷区,道玄坂１丁目１０番８号渋谷道玄坂東急ビル２Ｆ－Ｃ,,13,113,1500043,,,,,,,2024-09-19,1,,,,,チルシンク,0
47,1011201025800,新規,0,2024-09-19,2024-09-19,株式会社ローグエイト,,株式会社,東京都,中野区,上鷺宮２丁目２２番５号,,13,114,1650031,,,,,,,2024-09-19,1,,,,,ローグエイト,0
54,1012801023466,新規,0,2024-09-19,2024-09-19,株式会社Ｊｏｙｆｕｌ　Ｉｒｉｓ,,株式会社,東京都,立川市,錦町１丁目１５番３０号ラ・パルフェ・ド・立川Ｎｏ．１－５０４室,,13,202,1900022,,,,,,,2024-09-19,1,,,,,ジョイフルアイリス,0
58,1013301053094,新規,0,2024-09-19,2024-09-19,株式会社タイディングアップ,,株式会社,東京都,豊島区,西池袋３丁目１６－５－２０１,,13,116,1710021,,,,,,,2024-09-19,1,,,,,タイディングアップ,0
67,1020001159287,新規,0,2024-09-19,2024-09-19,株式会社ＮＪＭ１,,株式会社,神奈川県,横浜市西区,南幸１丁目１番１号,,14,103,2200005,,,,,,,2024-09-19,1,,,,,エヌジェイエムワン,0
68,1020001159304,新規,0,2024-09-19,2024-09-19,株式会社トウカセカイ,,株式会社,神奈川県,横浜市瀬谷区,阿久和西３丁目１８番地２,,14,114,2460025,,,,,,,2024-09-19,1,,,,,トウカセカイ,0
72,1020003026907,新規,0,2024-09-19,2024-09-19,合同会社絆,,合同会社,神奈川県,川崎市川崎区,東田町２番地２ＲＴビル４階Ｂ店舗,,14,131,2100005,,,,,,,2024-09-19,1,,,,,キズナ,0
74,1021001083246,新規,0,2024-09-19,2024-09-19,チームデザイン株式会社,,株式会社,神奈川県,相模原市中央区,清新６丁目１２－２１,,14,152,2520216,,,,,,,2024-09-19,1,,,,,チームデザイン,0
75,1021003015008,新規,0,2024-09-19,2024-09-19,ＫＡＩＺＥＮ　ＴＲＡＤＩＮＧ合同会社,,合同会社,神奈川県,座間市,栗原中央３丁目４番９号,,14,216,2520014,,,,,,,2024-09-19,1,,,,,カイゼントレーディング,0
76,1021003015016,新規,0,2024-09-19,2024-09-19,合同会社ＬＩＦＥ　ＥＶＥＮＴ　ＳＵＰＰＯＲＴ,,合同会社,神奈川県,茅ヶ崎市,新栄町７番５号ＣｈｉｇａｓａｋｉＢｉｚ‐ｎａｚ３Ｆ,,14,207,2530044,,,,,,,2024-09-19,1,,,,,ライフイベントサポート,0
81,1030001162406,新規,0,2024-09-19,2024-09-19,株式会社井上ロジスティックス,,株式会社,埼玉県,熊谷市,太井１４８６番地３,,11,202,3600025,,,,,,,2024-09-19,1,,,,,イノウエロジスティックス,0
82,1030001162513,新規,0,2024-09-19,2024-09-19,株式会社ケイル,,株式会社,埼玉県,さいたま市北区,日進町２丁目１２０３番地１,,11,102,3310823,,,,,,,2024-09-19,1,,,,,ケイル,0
89,1040003025824,新規,0,2024-09-19,2024-09-19,合同会社Ａｒｇｅｎｔｕｍ　Ｃａｐｉｔａｌ　Ｍａｎａｇｅｍｅｎｔ,,合同会社,千葉県,千葉市美浜区,打瀬２丁目１４番地パティオス１１番街１０６号,,12,106,2610013,,,,,,,2024-09-19,1,,,,,アージェンタムキャピタルマネージメント,0
90,1040003025832,新規,0,2024-09-19,2024-09-19,合同会社健康な体,,合同会社,千葉県,松戸市,中和倉５８番地の１レオパレスマリリン２０８号,,12,207,2700025,,,,,,,2024-09-19,1,,,,,,0
93,1050003008670,新規,0,2024-09-19,2024-09-19,Ｃｏｒｅ　Ａｒｃｈｉｔｅｃｔ合同会社,,合同会社,茨城県,つくば市,古来１４７１番地５,,08,220,3050021,,,,,,,2024-09-19,1,,,,,コアアーキテクト,0
99,1080001026498,新規,0,2024-09-19,2024-09-19,ベジプロモーション株式会社,,株式会社,静岡県,静岡市葵区,栄町２番地５アークビルディング５０２,,22,101,4200859,,,,,,,2024-09-19,1,,,,,,0
101,1080103003148,新規,0,2024-09-19,2024-09-19,合同会社ＰＦＴＶ,,合同会社,静岡県,沼津市,下香貫下障子３１８０－８,,22,203,4100822,,,,,,,2024-09-19,1,,,,,ピーエフティーブイ,0
104,1080405007672,新規,0,2024-09-19,2024-09-19,一般社団法人見付ＯＫＡクラブ,,その他の設立登記法人,静岡県,磐田市,見付２２９６番地２,,22,211,4380086,,,,,,,2024-09-19,1,,,,,ミツケオカクラブ,0
116,1120001268615,新規,0,2024-09-19,2024-09-19,旭峰株式会社,,株式会社,大阪府,大阪市中央区,龍造寺町８番１２号,,27,128,5400014,,,,,,,2024-09-19,1,,,,,アサミネ,0
117,1120001268672,新規,0,2024-09-19,2024-09-19,株式会社マリネスクリエイト,,株式会社,大阪府,大阪市中央区,南本町４丁目５番７号東亜ビル５階,,27,128,5410054,,,,,,,2024-09-19,1,,,,,マリネスクリエイト,0
118,1120001268706,新規,0,2024-09-19,2024-09-19,Ｍｏｄｅｒｎ　Ｆａｍｉｌｙ　Ｏｆｆｉｃｅ株式会社,,株式会社,大阪府,大阪市中央区,南船場２丁目３番６号第一住建長堀橋駅前ビル８０１,,27,128,5420081,,,,,,,2024-09-19,1,,,,,モダンファミリーオフィス,0
119,1120001268755,新規,0,2024-09-19,2024-09-19,株式会社近畿Ｒｅｕｓｅ　Ｇａｒａｇｅ,,株式会社,大阪府,大阪市大正区,小林東３丁目１８番４号,,27,108,5510011,,,,,,,2024-09-19,1,,,,,キンキリユースガレージ,0
128,1130001077973,新規,0,2024-09-19,2024-09-19,長青株式会社,,株式会社,京都府,京都市南区,西九条南田町１番地４,,26,107,6018441,,,,,,,2024-09-19,1,,,,,チョウセイ,0
136,1140003021094,新規,0,2024-09-19,2024-09-19,合同会社Ｌｉｅｎ,,合同会社,兵庫県,宝塚市,仁川北１丁目１－５８,,28,214,6650061,,,,,,,2024-09-19,1,,,,,リアン,0
143,1180001163298,新規,0,2024-09-19,2024-09-19,株式会社ＡＴ・ＭＩＲＡＩＺ,,株式会社,愛知県,名古屋市昭和区,八事富士見１５０４番地,,23,107,4660812,,,,,,,2024-09-19,1,,,,,エーティーミライズ,0
144,1180003027360,新規,0,2024-09-19,2024-09-19,合同会社フェールシュバル,,合同会社,愛知県,尾張旭市,桜ケ丘町西４０３番地,,23,226,4880857,,,,,,,2024-09-19,1,,,,,フェールシュバル,0
145,1180303006254,新規,0,2024-09-19,2024-09-19,合同会社訪問介護人生らくらく,,合同会社,愛知県,豊橋市,前芝町字西青８３番地１,,23,201,4410152,,,,,,,2024-09-19,1,,,,,ホウモンカイゴジンセイラクラク,0
146,1180303006262,新規,0,2024-09-19,2024-09-19,知ＲアンドＤ合同会社,,合同会社,愛知県,知立市,上重原５丁目１３番地,,23,225,4720058,,,,,,,2024-09-19,1,,,,,チアールアンドディー,0
147,1180303006270,新規,0,2024-09-19,2024-09-19,ＤＲＩＳＥ合同会社,,合同会社,愛知県,西尾市,中畑２丁目６９番地３,,23,213,4440304,,,,,,,2024-09-19,1,,,,,ドライズ,0
148,1190001031652,新規,0,2024-09-19,2024-09-19,株式会社ピース,,株式会社,三重県,津市,垂水２６７０‐６０,,24,201,5140821,,,,,,,2024-09-19,1,,,,,ピース,0
156,1210001019918,新規,0,2024-09-19,2024-09-19,株式会社加藤自動車,,株式会社,福井県,鯖江市,下河端町第５６号３５番地,,18,207,9160038,,,,,,,2024-09-19,1,,,,,カトウジドウシャ,0
158,1220001026211,新規,0,2024-09-19,2024-09-19,株式会社Ｋｅｉ,,株式会社,石川県,金沢市,東山３丁目３番２２号,,17,201,9200831,,,,,,,2024-09-19,1,,,,,ケイ,0
166,1260001039465,新規,0,2024-09-19,2024-09-19,株式会社シーアール拓殖,,株式会社,岡山県,岡山市北区,大内田８２０番地７,,33,101,7010165,,,,,,,2024-09-19,1,,,,,シーアールタクショク,0
175,1290801030884,新規,0,2024-09-19,2024-09-19,株式会社ＣＨＥＣＫホールディングス,,株式会社,福岡県,田川市,大字伊田３４２８番地,,40,206,8250002,,,,,,,2024-09-19,1,,,,,チェックホールディングス,0
176,1290801030892,新規,0,2024-09-19,2024-09-19,株式会社Ｋ’ｓ建設工業,,株式会社,福岡県,北九州市小倉南区,長尾４丁目３２番２０－４０１号,,40,107,8030274,,,,,,,2024-09-19,1,,,,,ケーズケンセツコウギョウ,0
177,1300001013911,新規,0,2024-09-19,2024-09-19,株式会社ランドレック,,株式会社,佐賀県,三養基郡基山町,大字小倉３６６番地３６,,41,341,8410201,,,,,,,2024-09-19,1,,,,,ランドレック,0
189,1420001018873,新規,0,2024-09-19,2024-09-19,株式会社ｃｏｍｐａｎｙ,,株式会社,青森県,八戸市,柏崎１丁目１１―１１メゾン・アマビーレパート２　一階店舗,,02,203,0310081,,,,,,,2024-09-19,1,,,,,カンパニー,0
198,1450005004421,新規,0,2024-09-19,2024-09-19,医療法人心寿会,,その他の設立登記法人,北海道,旭川市,宮下通９丁目２番１７号ツルハビルディング２Ｆ,,01,204,0700030,,,,,,,2024-09-19,1,,,,,シンジュカイ,0
201,1480001012598,新規,0,2024-09-19,2024-09-19,株式会社ファーストプレイス,,株式会社,徳島県,徳島市,東沖洲２丁目１１番地,,36,201,7700873,,,,,,,2024-09-19,1,,,,,ファーストプレイス,0
203,1500003003329,新規,0,2024-09-19,2024-09-19,合同会社優愛,,合同会社,愛媛県,宇和島市,三間町大藤１０４９番地,,38,203,7981101,,,,,,,2024-09-19,1,,,,,ユウアイ,0
206,1700150127174,新規,0,2024-09-19,2024-09-19,從零到一企業有限公司,,外国会社等,大阪府,大阪市中央区,上町Ａ番１０－５０２号,,27,128,5400005,台湾台北市中正区寧波西街１２号３楼,,,,,,2024-09-19,1,,,,,ツオンリンダーイーキギヨウユウゲンコウシ,0
207,1700150127208,新規,0,2024-09-19,2024-09-19,ＭＳＯＩ　ＰＲＯＰＥＲＴＩＥＳ，Ｉｎｃ．,,外国会社等,東京都,調布市,調布ケ丘４丁目４３番１号,,13,208,1820021,アメリカ合衆国、８９１１３ネバダ州、ラスベガス、６９２０エス・シマロンロード・スイート１００,,,,,,2024-09-19,1,,,,,エムエスオーアイプロパテイーズインク,0
208,1700150127216,新規,0,2024-09-19,2024-09-19,ＦＵＪＩ　ＡＵＴＯ　ＬＩＮＥ,,外国会社等,千葉県,八街市,砂５５番地９オフィスＡ,,12,230,2891121,スリランカ民主社会主義共和国、ラトゥコホディーガラ、パンゴッラマダ、Ｎｏ．２２４,,,,,,2024-09-19,1,,,,,フジオートライン,0
209,1700150127224,新規,0,2024-09-19,2024-09-19,Ｎ．Ｒ．Ｓ．Ｓ．ＥＮＴＥＲＰＲＩＳＥＳ,,外国会社等,千葉県,八街市,砂５５番地９オフィス１号,,12,230,2891121,スリランカ民主社会主義共和国、カルエリヤ、アブドゥルカデルマワタ、Ｎｏ．１０Ｂ／２,,,,,,2024-09-19,1,,,,,エヌアールエスエスエンタープライズ,0
210,1700150127232,新規,0,2024-09-19,2024-09-19,Ａ＆Ｔ　ＥＵＲＯＰＥ‐ＳＯＣＩＥＴＡ’ＰＥＲ　ＡＺＩＯＮＩ,,外国会社等,東京都,墨田区,東向島２丁目２３番７号１１０７号室,,13,107,1310032,イタリア共和国マントヴァ県カスティリオーネ・デッレ・スティヴィエーレ、ソルフェリーノ通り２７,,,,,,2024-09-19,1,,,,,エーアンドテイーヨーロツパソシエタパーアツイオニ,0
216,2010001248346,新規,0,2024-09-19,2024-09-19,株式会社ＭＹＳＴＩＣ　ＪＯ．,,株式会社,東京都,中央区,銀座４丁目８番１３号,,13,102,1040061,,,,,,,2024-09-19,1,,,,,ミスティックジョー,0
217,2010001248379,新規,0,2024-09-19,2024-09-19,株式会社マフォロバ準備会社,,株式会社,東京都,中央区,日本橋２丁目５番１号,,13,102,1030027,,,,,,,2024-09-19,1,,,,,,0
218,2010001248387,新規,0,2024-09-19,2024-09-19,ＴＯＷＡエンタープライズ株式会社,,株式会社,東京都,千代田区,外神田６丁目１番５号岩上ビル２階,,13,101,1010021,,,,,,,2024-09-19,1,,,,,トワエンタープライズ,0
225,2010003044909,新規,0,2024-09-19,2024-09-19,合同会社首都圏レジ開発セブンプロジェクト,,合同会社,東京都,千代田区,平河町１丁目６番１５号シルスフィア会計事務所内,,13,101,1020093,,,,,,,2024-09-19,1,,,,,シュトケンレジカイハツセブンプロジェクト,0
226,2010003044917,新規,0,2024-09-19,2024-09-19,浜松不動産合同会社,,合同会社,東京都,千代田区,麹町４丁目５番２１号,,13,101,1020083,,,,,,,2024-09-19,1,,,,,ハママツフドウサン,0
230,2010401185107,新規,0,2024-09-19,2024-09-19,株式会社Ｗａｌｋ　ｉｎ　Ｂｅａｕｔｙ,,株式会社,東京都,港区,南青山３丁目１０番４１号ジュエル青山ビル２０２号,,13,103,1070062,,,,,,,2024-09-19,1,,,,,ウォークインビューティー,0
231,2010401185189,新規,0,2024-09-19,2024-09-19,株式会社ＡＷ,,株式会社,東京都,港区,赤坂６丁目９－１３フレッグ赤坂２０２,,13,103,1070052,,,,,,,2024-09-19,1,,,,,エイダブリュー,0
244,2010803005102,新規,0,2024-09-19,2024-09-19,和海合同会社,,合同会社,東京都,大田区,矢口１丁目１６－１９コスモビルＩＩ３０１,00136353,13,111,1460093,,,,,,,2024-09-19,1,,,,,カズミ,0
247,2010901056006,新規,0,2024-09-19,2024-09-19,株式会社ＢＡＹ　ＬＯＧＩＳＴＩＣＳ,,株式会社,東京都,世田谷区,野毛２丁目１８番１２号－３,,13,112,1580092,,,,,,,2024-09-19,1,,,,,ベイロジスティクス,0
255,2011003020024,新規,0,2024-09-19,2024-09-19,合同会社シンシア,,合同会社,東京都,目黒区,自由が丘１丁目１３番１０号,,13,110,1520035,,,,,,,2024-09-19,1,,,,,シンシア,0
260,2011101108794,新規,0,2024-09-19,2024-09-19,ＵＮＩＴ　Ｘ株式会社,,株式会社,東京都,新宿区,新宿１丁目３４－３第２４スカイビル６０２,,13,104,1600022,,,,,,,2024-09-19,1,,,,,ユニットエックス,0
265,2011103014933,新規,0,2024-09-19,2024-09-19,合同会社ＮＯＶＡ,,合同会社,東京都,新宿区,富久町１５番１号富久クロス３７０５,,13,104,1620067,,,,,,,2024-09-19,1,,,,,ノヴァ,0
267,2011201025799,新規,0,2024-09-19,2024-09-19,株式会社Ｃａｒａｔ,,株式会社,東京都,中野区,中央４丁目４４番１７号荒川ビル３０２,,13,114,1640011,,,,,,,2024-09-19,1,,,,,キャラット,0
275,2011503006217,新規,0,2024-09-19,2024-09-19,宇視科技合同会社,,合同会社,東京都,北区,浮間３丁目２１－１４リエス北赤羽１０５号室,,13,117,1150051,,,,,,,2024-09-19,1,,,,,ウシカギ,0
291,2020001159195,新規,0,2024-09-19,2024-09-19,株式会社Ｒｅ‐ＮＯＡＨ,,株式会社,神奈川県,横浜市港南区,芹が谷２丁目６－２４－１,,14,111,2330006,,,,,,,2024-09-19,1,,,,,リーノア,0
292,2020001159212,新規,0,2024-09-19,2024-09-19,鴻宇株式会社,,株式会社,神奈川県,川崎市川崎区,砂子１丁目１０番地２ソシオ砂子ビル２０２,,14,131,2100006,,,,,,,2024-09-19,1,,,,,コウ,0
303,2030001162479,新規,0,2024-09-19,2024-09-19,株式会社ＣＨｅＦｒｅｅ,,株式会社,埼玉県,春日部市,粕壁東１丁目５番２２号フラワー２Ｆ,,11,214,3440062,,,,,,,2024-09-19,1,,,,,シェフリー,0
313,2040001135418,新規,0,2024-09-19,2024-09-19,株式会社ＥＣＳ,,株式会社,千葉県,松戸市,西馬橋蔵元町１８３,,12,207,2710046,,,,,,,2024-09-19,1,,,,,イーシーエス,0
314,2040001135467,新規,0,2024-09-19,2024-09-19,株式会社ＳＩＬＫ　ＲＯＡＤ,,株式会社,千葉県,佐倉市,表町３丁目１８－７－２－Ｂ,,12,212,2850811,,,,,,,2024-09-19,1,,,,,シルクロード,0
318,2040005022505,新規,0,2024-09-19,2024-09-19,スフィーダ事業協同組合,,その他の設立登記法人,千葉県,市川市,南八幡３丁目２－７グリーンターフ・セゾン２０４,,12,203,2720023,,,,,,,2024-09-19,1,,,,,スフィーダ,0
329,2080001026497,新規,0,2024-09-19,2024-09-19,株式会社モノステップ,,株式会社,静岡県,静岡市駿河区,大和２丁目３－２９－２０３号,,22,102,4228077,,,,,,,2024-09-19,1,,,,,モノステップ,0
330,2080101025011,新規,0,2024-09-19,2024-09-19,八木不動産株式会社,,株式会社,静岡県,沼津市,下香貫楊原７２６番地の２,,22,203,4100822,,,,,,,2024-09-19,1,,,,,ヤギフドウサン,0
331,2080103003147,新規,0,2024-09-19,2024-09-19,合同会社ＡＭＵＺＵリサイクルセンター,,合同会社,静岡県,富士市,比奈６０９番地の１５,,22,210,4170847,,,,,,,2024-09-19,1,,,,,アムズリサイクルセンター,0
333,2080405007671,新規,0,2024-09-19,2024-09-19,一般社団法人Ｃａｒｅｅｒ　Ｖｉｓｉｏｎ　Ｌａｂ,,その他の設立登記法人,静岡県,浜松市浜名区,三ヶ日町都筑２９０５番地の１７,,22,139,4311402,,,,,,,2024-09-19,1,,,,,キャリアビジョンラボ,0
338,2110005017134,新規,0,2024-09-19,2024-09-19,にいがた恋結び協同組合,,その他の設立登記法人,新潟県,新潟市中央区,万代１丁目１番４号万代ファーストハイツ２０４号,,15,103,9500088,,,,,,,2024-09-19,1,,,,,ニイガタコイムスビ,0
344,2120003027555,新規,0,2024-09-19,2024-09-19,合同会社ＮｅｘｔＭａｒｋｅｔ,,合同会社,大阪府,大阪市港区,夕凪１丁目５番１０号,,27,107,5520004,,,,,,,2024-09-19,1,,,,,ネクストマーケット,0
345,2120005024542,新規,0,2024-09-19,2024-09-19,弁護士法人リーズ法律事務所,,その他の設立登記法人,大阪府,大阪市北区,西天満５丁目１－３南森町パークビル７階,,27,127,5300047,,,,,,,2024-09-19,1,,,,,,0
350,2122005003781,新規,0,2024-09-19,2024-09-19,税理士法人ミライエ,,その他の設立登記法人,大阪府,東大阪市,鴻池本町１番１９号,,27,227,5780971,,,,,,,2024-09-19,1,,,,,ミライエ,0
353,2130001077964,新規,0,2024-09-19,2024-09-19,平田商和株式会社,,株式会社,京都府,京都市伏見区,深草下川原町５０番地４オフィスタウン２０９号室,,26,109,6128401,,,,,,,2024-09-19,1,,,,,ヒラタショウワ,0
355,2130003009866,新規,0,2024-09-19,2024-09-19,合同会社幸輝,,合同会社,京都府,亀岡市,篠町馬堀南垣内１３,,26,206,6210823,,,,,,,2024-09-19,1,,,,,サキ,0
362,2140001135845,新規,0,2024-09-19,2024-09-19,株式会社Ｌｉｖｉｖｅｅｎｓ,,株式会社,兵庫県,神戸市東灘区,向洋町中６丁目９神戸ファッションマート,,28,101,6580032,,,,,,,2024-09-19,1,,,,,リバイビーンズ,0
364,2140003021077,新規,0,2024-09-19,2024-09-19,はなかまるふく合同会社,,合同会社,兵庫県,豊岡市,庄境４５２番地,,28,209,6680873,,,,,,,2024-09-19,1,,,,,ハナカマルフク,0
367,2150001027570,新規,0,2024-09-19,2024-09-19,株式会社５４２９,,株式会社,奈良県,橿原市,豊田町１番地の１,,29,205,6340842,,,,,,,2024-09-19,1,,,,,ゴヨンニキュウ,0
373,2180001163297,新規,0,2024-09-19,2024-09-19,株式会社東京リエゾン,,株式会社,愛知県,名古屋市中区,丸の内２丁目３番２１号リヴィエール長者町５階,,23,106,4600002,,,,,,,2024-09-19,1,,,,,トウキョウリエゾン,0
374,2180001163314,新規,0,2024-09-19,2024-09-19,株式会社ｃｒｅａｔｏｒｓ　ｇｒｏｕｐ,,株式会社,愛知県,一宮市,開明字神明郭２９番地２,,23,203,4940001,,,,,,,2024-09-19,1,,,,,クリエーターズグループ,0
378,2180003027368,新規,0,2024-09-19,2024-09-19,合同会社ＤＥＶＩ,,合同会社,愛知県,海部郡大治町,大字西條字城前田１９番１０,,23,424,4901144,,,,,,,2024-09-19,1,,,,,デヴィ,0
379,2180005020775,新規,0,2024-09-19,2024-09-19,医療法人縁健会,,その他の設立登記法人,愛知県,名古屋市西区,上小田井２丁目２２０番地,,23,104,4520821,,,,,,,2024-09-19,1,,,,,エンケンカイ,0
385,2180301039065,新規,0,2024-09-19,2024-09-19,株式会社ＨＤＴ中部センター,,株式会社,愛知県,知立市,谷田町北屋下８９－１－２０１,,23,225,4720013,,,,,,,2024-09-19,1,,,,,エイチディーティーチュウブセンター,0
390,2220001026219,新規,0,2024-09-19,2024-09-19,株式会社アイラボ,,株式会社,石川県,金沢市,南町３番１号（ジョルナーレ南町・７０４号）,,17,201,9200919,,,,,,,2024-09-19,1,,,,,アイラボ,0
393,2230001020534,新規,0,2024-09-19,2024-09-19,株式会社イロトリドリ,,株式会社,富山県,高岡市,戸出町４丁目４番１６号,,16,202,9391104,,,,,,,2024-09-19,1,,,,,イロトリドリ,0
394,2230003002290,新規,0,2024-09-19,2024-09-19,合同会社荒戸運送,,合同会社,富山県,氷見市,下久津呂３５８番地１,,16,205,9350046,,,,,,,2024-09-19,1,,,,,アラトウンソウ,0
400,2260001039472,新規,0,2024-09-19,2024-09-19,Ｍｃｏｒｐｏｒａｔｉｏｎ株式会社,,株式会社,岡山県,倉敷市,連島町西之浦５３７番地１２,,33,202,7128001,,,,,,,2024-09-19,1,,,,,エムコーポレーション,0
402,2260003004895,新規,0,2024-09-19,2024-09-19,合同会社トータルコーディネート,,合同会社,岡山県,岡山市北区,御津国ケ原２５７－１ヴィラナリー国ケ原２号棟３０２号室,,33,101,7092112,,,,,,,2024-09-19,1,,,,,トータルコーディネート,0
409,2290005019492,新規,0,2024-09-19,2024-09-19,一般社団法人日韓宙船Ｐｒｏｊｅｃｔ,,その他の設立登記法人,福岡県,福岡市博多区,博多駅東１丁目１０番２７号４階,,40,132,8120013,,,,,,,2024-09-19,1,,,,,ニッカンソラフネプロジェクト,0
413,2290801030891,新規,0,2024-09-19,2024-09-19,株式会社プロデュース,,株式会社,福岡県,北九州市小倉北区,中井２丁目９番１５号,,40,106,8030836,,,,,,,2024-09-19,1,,,,,プロデュース,0
416,2300001013910,新規,0,2024-09-19,2024-09-19,株式会社ＹｓＴｂＬｉｆｅ,,株式会社,佐賀県,武雄市,朝日町大字甘久４６８番地１７,,41,206,8430001,,,,,,,2024-09-19,1,,,,,ワイエスティービィーライフ,0
424,2340001026801,新規,0,2024-09-19,2024-09-19,株式会社ｓｉｓｉ,,株式会社,鹿児島県,奄美市,名瀬末広町１０番２３号,,46,222,8940027,,,,,,,2024-09-19,1,,,,,シシ,0
427,2380001034800,新規,0,2024-09-19,2024-09-19,株式会社クリエーティブビジョン,,株式会社,福島県,郡山市,土瓜１丁目２２５番地２,,07,203,9630204,,,,,,,2024-09-19,1,,,,,クリエーティブビジョン,0
443,2460303000839,新規,0,2024-09-19,2024-09-19,合同会社橋本商事,,合同会社,北海道,北見市,山下町１丁目１番１０－３０１号,,01,208,0900037,,,,,,,2024-09-19,1,,,,,ハシモトショウジ,0
449,2470001020386,新規,0,2024-09-19,2024-09-19,株式会社扶桑樹,,株式会社,香川県,高松市,高松町２０３９番地２１,,37,201,7610104,,,,,,,2024-09-19,1,,,,,フソウジュ,0
454,2500001025877,新規,0,2024-09-19,2024-09-19,株式会社明創業,,株式会社,愛媛県,松山市,神田町２番２３号,,38,201,7918063,,,,,,,2024-09-19,1,,,,,アキソウギョウ,0
455,2700150127173,新規,0,2024-09-19,2024-09-19,ＭＡＮＥＥＳＨ　ＴＲＡＤＩＮＧ,,外国会社等,千葉県,八街市,八街ほ１０４０番地２オフィス２０２,,12,230,2891115,スリランカ民主社会主義共和国、コロンボ１０、マラダナ、パンチカワッタロード、１９８－１１Ａ,,,,,,2024-09-19,1,,,,,マニーストレーデイング,0
456,2700150127207,新規,0,2024-09-19,2024-09-19,ＴＥＥＺＯ　ＭＯＴＯＲＳ,,外国会社等,千葉県,八街市,砂５５番地９オフィスＢ,,12,230,2891121,スリランカ民主社会主義共和国、キャンディ、マハイヤワロード、Ｎｏ．１２／Ａ,,,,,,2024-09-19,1,,,,,テイーゾモータース,0
457,2700150127215,新規,0,2024-09-19,2024-09-19,ＲＡＮＤＥＮＩＧＡＬＡ　ＭＯＴＯＲＳ,,外国会社等,千葉県,佐倉市,大篠塚２７７番地Ｄ,,12,212,2850806,スリランカ民主社会主義共和国、カトゥガストタ、クルネガラロード、Ｎｏ．４３３,,,,,,2024-09-19,1,,,,,ランデニガラモータース,0
458,2700150127223,新規,0,2024-09-19,2024-09-19,６６トウキョウ２４ジャパン・エルエルシー,,外国会社等,東京都,千代田区,丸の内２丁目１番１号明治安田生命ビル２１階,,13,101,1000005,アメリカ合衆国デラウエア州ウィルミントン、オレンジ・ストリート１２０９、ナショナル・レジスタード・エージェント・インク内,,,,,,2024-09-19,1,,,,,シツクステイーシツクストウキヨウトウエンテイフオージヤパンエルエルシー,0
459,2700150127231,新規,0,2024-09-19,2024-09-19,無錫国際経済技術合作有限公司,,外国会社等,大阪府,大阪市北区,本庄東３丁目７－１－５０７,,27,127,5310074,中華人民共和国江蘇省無錫市新区金城大厦１－９０４,,,,,,2024-09-19,1,,,,,ムシヤクコクサイケイザイギジユツガツサクユウゲンコウシ,0
467,3010001248329,新規,0,2024-09-19,2024-09-19,株式会社ＷＣＰ,,株式会社,東京都,千代田区,大手町１丁目１番１号大手町パークビルディング７Ｆ,,13,101,1000004,,,,,,,2024-09-19,1,,,,,ダブルシーピー,0
468,3010001248337,新規,0,2024-09-19,2024-09-19,株式会社Ｒｕｍｉｘ,,株式会社,東京都,中央区,築地１丁目９番１３号,,13,102,1040045,,,,,,,2024-09-19,1,,,,,ルミックス,0
469,3010001248394,新規,0,2024-09-19,2024-09-19,ＪＩＭＵＲＥＱ　Ｃｏｎｓｕｌｔｉｎｇ株式会社,,株式会社,東京都,中央区,新川１丁目６番１２号ＡＩビル茅場町２０７,,13,102,1040033,,,,,,,2024-09-19,1,,,,,ジムレックコンサルティング,0
471,3010003044908,新規,0,2024-09-19,2024-09-19,合同会社首都圏レジ開発シックスプロジェクト,,合同会社,東京都,千代田区,平河町１丁目６番１５号シルスフィア会計事務所内,,13,101,1020093,,,,,,,2024-09-19,1,,,,,シュトケンレジカイハツシックスプロジェクト,0
472,3010003044949,新規,0,2024-09-19,2024-09-19,合同会社ＱＵＩＣＫ　ＬＯＴＵＳ,,合同会社,東京都,千代田区,神田和泉町１番地６－１６ヤマトビル４０５,,13,101,1010024,,,,,,,2024-09-19,1,,,,,クイックロータス,0
476,3010005038833,新規,0,2024-09-19,2024-09-19,一般社団法人円生会,,その他の設立登記法人,東京都,中央区,銀座６丁目２番１号Ｄａｉｗａ銀座ビル３階,,13,102,1040061,,,,,,,2024-09-19,1,,,,,エンセイカイ,0
481,3010401184925,新規,0,2024-09-19,2024-09-19,ＭＰＨ株式会社,,株式会社,東京都,港区,台場２丁目３番５号台場ガーデンシティビル１１階,,13,103,1350091,,,,,,,2024-09-19,1,,,,,エムピーエイチ,0
482,3010401185106,新規,0,2024-09-19,2024-09-19,株式会社ＰＲＯＪＥＣＴ‐ＣＯＭ,,株式会社,東京都,港区,南青山３丁目１番３号,,13,103,1070062,,,,,,,2024-09-19,1,,,,,プロジェクトコム,0
483,3010401185196,新規,0,2024-09-19,2024-09-19,株式会社グラスルーツ,,株式会社,東京都,港区,西麻布１丁目１－１ＥＤＧＥビル５階,,13,103,1060031,,,,,,,2024-09-19,1,,,,,グラスルーツ,0
484,3010403033452,新規,0,2024-09-19,2024-09-19,アトリエサイバー合同会社,,合同会社,東京都,港区,三田５丁目７番８号５２５号室,,13,103,1080073,,,,,,,2024-09-19,1,,,,,アトリエサイバー,0
488,3010601065933,新規,0,2024-09-19,2024-09-19,錦鯉株式会社,,株式会社,東京都,墨田区,両国２丁目１７番１７号両国ダイヤハイツ２０２－Ｂ,,13,107,1300026,,,,,,,2024-09-19,1,,,,,キンリ,0
491,3010901056005,新規,0,2024-09-19,2024-09-19,株式会社Ｙ２,,株式会社,東京都,世田谷区,梅丘３丁目１０番７号梅ヶ丘ハイム１０３,,13,112,1540022,,,,,,,2024-09-19,1,,,,,ワイツー,0
492,3010903009365,新規,0,2024-09-19,2024-09-19,合同会社知覚開花,,合同会社,東京都,世田谷区,下馬１丁目１９番１１号,,13,112,1540002,,,,,,,2024-09-19,1,,,,,チカクカイカ,0
503,3011003020023,新規,0,2024-09-19,2024-09-19,Ｍｕｓａ　Ｓｅｅ合同会社,,合同会社,東京都,目黒区,下目黒１丁目１番１４号コノトラビル７Ｆ,,13,110,1530064,,,,,,,2024-09-19,1,,,,,ムサシー,0
504,3011003020064,新規,0,2024-09-19,2024-09-19,合同会社ＭＡＮＡＨＯＵシステム,,合同会社,東京都,渋谷区,道玄坂１丁目１０番８号渋谷道玄坂東急ビル２Ｆ－Ｃ,,13,113,1500043,,,,,,,2024-09-19,1,,,,,マナホウシステム,0
517,3011401026448,新規,0,2024-09-19,2024-09-19,京芸株式会社,,株式会社,東京都,板橋区,大山金井町３５－１－１０１号,,13,119,1730024,,,,,,,2024-09-19,1,,,,,キョウゲイ,0
527,3012701018457,新規,0,2024-09-19,2024-09-19,株式会社ＬＥＧＡＬＩＳＳ,,株式会社,東京都,小平市,鈴木町１丁目２５８番地の９,,13,211,1870011,,,,,,,2024-09-19,1,,,,,レガリス,0
528,3012803003514,新規,0,2024-09-19,2024-09-19,合同会社Ｊａｃｋ,,合同会社,東京都,立川市,錦町２丁目１番２８号地下１階,,13,202,1900022,,,,,,,2024-09-19,1,,,,,ジャック,0
532,3013303007303,新規,0,2024-09-19,2024-09-19,Ｍ＆Ｊ合同会社,,合同会社,東京都,豊島区,東池袋４丁目８番１号,,13,116,1700013,,,,,,,2024-09-19,1,,,,,エムアンドジェー,0
542,3020003026946,新規,0,2024-09-19,2024-09-19,合同会社エスプーマ,,合同会社,神奈川県,横浜市西区,浅間町１丁目４番３号ウィザードビル４０２,,14,103,2200072,,,,,,,2024-09-19,1,,,,,エスプーマ,0
543,3021001083269,新規,0,2024-09-19,2024-09-19,株式会社Ｎｅｘｔ　Ｉｎｎｏｖａｔｉｏｎ,,株式会社,神奈川県,相模原市緑区,城山１丁目４番３０号,,14,151,2520116,,,,,,,2024-09-19,1,,,,,ネクストイノベーション,0
546,3021003015022,新規,0,2024-09-19,2024-09-19,合同会社イルマーレ,,合同会社,神奈川県,相模原市南区,新磯野１丁目１０番６号,,14,153,2520325,,,,,,,2024-09-19,1,,,,,イルマーレ,0
555,3040001135441,新規,0,2024-09-19,2024-09-19,株式会社千酒,,株式会社,千葉県,千葉市中央区,登戸４丁目１４番５－１号,,12,101,2600032,,,,,,,2024-09-19,1,,,,,センシュ,0
559,3050001055408,新規,0,2024-09-19,2024-09-19,ｍｏｎｏｔａｌｋ　ｓｔｕｄｉｏ株式会社,,株式会社,茨城県,常陸太田市,東一町２２８８番地,,08,212,3130051,,,,,,,2024-09-19,1,,,,,モノトークスタジオ,0
560,3050001055416,新規,0,2024-09-19,2024-09-19,株式会社いろどり不動産,,株式会社,茨城県,石岡市,国府６丁目４番２０号,,08,205,3150014,,,,,,,2024-09-19,1,,,,,イロドリフドウサン,0
565,3050003008677,新規,0,2024-09-19,2024-09-19,合同会社Ｋ＆Ｋヨシダ,,合同会社,茨城県,水戸市,見川町２１３１番地の１８２６,,08,201,3100913,,,,,,,2024-09-19,1,,,,,ケイアンドケイヨシダ,0
570,3070005010316,新規,0,2024-09-19,2024-09-19,農事組合法人グリーンランド,,その他の設立登記法人,群馬県,前橋市,大渡町１丁目１２番地６,,10,201,3710854,,,,,,,2024-09-19,1,,,,,グリーンランド,0
573,3100003007780,新規,0,2024-09-19,2024-09-19,合同会社龍珠,,合同会社,長野県,長野市,篠ノ井会１０５－３,,20,201,3888004,,,,,,,2024-09-19,1,,,,,リュウジュ,0
575,3110005017133,新規,0,2024-09-19,2024-09-19,社会福祉法人郁心会,,その他の設立登記法人,新潟県,北蒲原郡聖籠町,大字蓮潟３４１２番地６,,15,307,9570106,,,,,,,2024-09-19,1,,,,,イクシンカイ,0
584,3120001268646,新規,0,2024-09-19,2024-09-19,株式会社ＲＥＡＬ,,株式会社,大阪府,大阪市北区,梅田１丁目１番３号大阪駅前第三ビル２９Ｆ１－１－１号室,,27,127,5300001,,,,,,,2024-09-19,1,,,,,リアル,0
585,3120001268662,新規,0,2024-09-19,2024-09-19,株式会社ともだちプロジェクト,,株式会社,大阪府,大阪市北区,曾根崎新地２丁目２番１６号関電不動産西梅田ビル６Ｆ,,27,127,5300002,,,,,,,2024-09-19,1,,,,,トモダチプロジェクト,0
586,3120001268695,新規,0,2024-09-19,2024-09-19,株式会社ＳＵＮツアー,,株式会社,大阪府,大阪市東淀川区,豊里１丁目４－２９第２生島ハイツ２０７,,27,114,5330013,,,,,,,2024-09-19,1,,,,,サンツアー,0
590,3120101070308,新規,0,2024-09-19,2024-09-19,株式会社ＣＬＡＳＴ‐Ｔｅｃｈ,,株式会社,大阪府,堺市美原区,南余部２４０番地１,,27,147,5870052,,,,,,,2024-09-19,1,,,,,クラストテック,0
593,3130001077939,新規,0,2024-09-19,2024-09-19,京都をおもろくする株式会社,,株式会社,京都府,京都市南区,西九条戒光寺町１４－１０,,26,107,6018405,,,,,,,2024-09-19,1,,,,,キョウトヲオモロクスル,0
594,3130001077947,新規,0,2024-09-19,2024-09-19,ＬＣＫ株式会社,,株式会社,京都府,京都市下京区,鶏鉾町４９３番地,,26,106,6008491,,,,,,,2024-09-19,1,,,,,エルシーケイ,0
600,3140001135828,新規,0,2024-09-19,2024-09-19,株式会社ｍａｘｉｍｕｍ,,株式会社,兵庫県,揖保郡太子町,太田１６８８番地１,,28,464,6711511,,,,,,,2024-09-19,1,,,,,マキシマム,0
603,3160001026216,新規,0,2024-09-19,2024-09-19,株式会社ＧＬＡＮＺ,,株式会社,滋賀県,大津市,仰木の里東７丁目１６番８号,,25,201,5200248,,,,,,,2024-09-19,1,,,,,グランツ,0
609,3180001163247,新規,0,2024-09-19,2024-09-19,Ｔｏｏ　Ｍｕｃｈ株式会社,,株式会社,愛知県,名古屋市中村区,椿町１２番１２号,,23,105,4530015,,,,,,,2024-09-19,1,,,,,トゥーマッチ,0
610,3180001163288,新規,0,2024-09-19,2024-09-19,株式会社ＢＲＦ,,株式会社,愛知県,名古屋市中村区,則武１丁目２２番４号,,23,105,4530014,,,,,,,2024-09-19,1,,,,,ビーアールエフ,0
611,3180001163296,新規,0,2024-09-19,2024-09-19,ＥＳＴＥＬＡ株式会社,,株式会社,愛知県,名古屋市北区,成願寺１丁目６番Ａ－２８１０号（ザ・シーン城北）,,23,103,4620021,,,,,,,2024-09-19,1,,,,,エステラ,0
612,3180001163305,新規,0,2024-09-19,2024-09-19,正興商事株式会社,,株式会社,愛知県,名古屋市名東区,梅森坂３丁目４４０６番地の２,,23,115,4650065,,,,,,,2024-09-19,1,,,,,セイコウショウジ,0
613,3180001163313,新規,0,2024-09-19,2024-09-19,Ｍａｙ＆Ｈａｒｖｅｓｔ株式会社,,株式会社,愛知県,北名古屋市,弥勒寺東１丁目３１番地,,23,234,4810031,,,,,,,2024-09-19,1,,,,,メイアンドハーベスト,0
629,3200003006509,新規,0,2024-09-19,2024-09-19,合同会社ＨＭ　Ａｕｔｏ　Ｍｏｔｏｒ,,合同会社,岐阜県,岐阜市,今川７５－１岐北ビル２０３号,,21,201,5011114,,,,,,,2024-09-19,1,,,,,エイチエムオートモーター,0
635,3250001020820,新規,0,2024-09-19,2024-09-19,株式会社グランドスラム,,株式会社,山口県,周南市,大字徳山４７０２番地の５,,35,215,7450851,,,,,,,2024-09-19,1,,,,,グランドスラム,0
639,3260001039471,新規,0,2024-09-19,2024-09-19,株式会社よろずや,,株式会社,岡山県,岡山市北区,建部町田地子２０８番地,,33,101,7093145,,,,,,,2024-09-19,1,,,,,ヨロズヤ,0
643,3260005011402,新規,0,2024-09-19,2024-09-19,行政書士法人川瀬法務事務所,,その他の設立登記法人,岡山県,岡山市北区,撫川１０８７番地５,,33,101,7010164,,,,,,,2024-09-19,1,,,,,カワノセホウムジムショ,0
653,3340001026800,新規,0,2024-09-19,2024-09-19,株式会社フラットカンパニー,,株式会社,鹿児島県,薩摩川内市,平佐町３４５８番地,,46,215,8950012,,,,,,,2024-09-19,1,,,,,フラットカンパニー,0
654,3360003014306,新規,0,2024-09-19,2024-09-19,合同会社ａｃｅ,,合同会社,沖縄県,うるま市,字具志川２８２４番地１サンパレス１‐Ｃ,,47,213,9042223,,,,,,,2024-09-19,1,,,,,エース,0
666,3430001092701,新規,0,2024-09-19,2024-09-19,株式会社Ｎｏｒｔｈ　Ｇｒｉｔ,,株式会社,北海道,札幌市北区,北二十五条西１４丁目５番３８－１０１号,,01,102,0010025,,,,,,,2024-09-19,1,,,,,ノースグリット,0
668,3430003016798,新規,0,2024-09-19,2024-09-19,合同会社駒繋,,合同会社,北海道,札幌市中央区,南八条西１４丁目１番１－２０２号,,01,101,0640808,,,,,,,2024-09-19,1,,,,,コマツナギ,0
670,3440003001626,新規,0,2024-09-19,2024-09-19,合同会社ＲＵＮ,,合同会社,北海道,函館市,陣川町１１０番地１６９,,01,202,0410833,,,,,,,2024-09-19,1,,,,,ラン,0
671,3500001025884,新規,0,2024-09-19,2024-09-19,株式会社ＬＩＢＥＲＡＣＫ,,株式会社,愛媛県,松山市,久米窪田町３３７番地１,,38,201,7911101,,,,,,,2024-09-19,1,,,,,リベラック,0
673,3700150127172,新規,0,2024-09-19,2024-09-19,ＰＳ　Ｍｕｌｔｉ－Ｓｔｒａｔｅｇｙ　Ｉｎｖｅｓｔｍｅｎｔｓ，ＬＬＣ,,外国会社等,,,,,,,,２８０　Ｃａｒｙ　Ａｖｅｎｕｅ，Ｈｉｇｈｌａｎｄ　Ｐａｒｋ，ＩＬ　６００３５，ＵＳＡ,,,,,,2024-09-19,1,,,,,ピーエスマルチストラテジーインベストメンツエルエルシー,0
674,3700150127206,新規,0,2024-09-19,2024-09-19,ＣＡＤＥＲ　ＣＯＲＰＯＲＡＴＩＯＮ,,外国会社等,千葉県,八街市,八街は１番地１４９オフィス８,,12,230,2891107,スリランカ民主社会主義共和国、ガンポラ、ナワラピティヤロード、Ｎｏ．１２８／Ｂ,,,,,,2024-09-19,1,,,,,カデルコーポレーシヨン,0
675,3700150127214,新規,0,2024-09-19,2024-09-19,ＶＩＮＯＫＡ　ＭＯＴＯＲＳ,,外国会社等,千葉県,佐倉市,大篠塚２７７番地Ｂ,,12,212,2850806,スリランカ民主社会主義共和国、マダワラバザール、バンガラゲダラ、Ｎｏ．２３,,,,,,2024-09-19,1,,,,,ビノカモータース,0
676,3700150127222,新規,0,2024-09-19,2024-09-19,ＭＯＴＯＲ　ＭＡＸ　ＥＮＴＥＲＰＲＩＳＥＳ,,外国会社等,千葉県,八街市,八街ほ１０３５番地７６オフィス－２,,12,230,2891115,スリランカ民主社会主義共和国、マヒヤワ、キャンディロード、Ｎｏ．８９／１／Ａ,,,,,,2024-09-19,1,,,,,モーターマツクスエンタープライセス,0
677,3700150127230,新規,0,2024-09-19,2024-09-19,ＰＩＯＮＥＥＲ　ＥＮＴＥＲＰＲＩＳＥＳ,,外国会社等,千葉県,佐倉市,大篠塚２７８番地オフィスＡ,,12,212,2850806,スリランカ民主社会主義共和国、ウクウェラ、マタレロード、Ｎｏ．１９／４,,,,,,2024-09-19,1,,,,,パイオニアエンタープライズ,0
683,4010001248328,新規,0,2024-09-19,2024-09-19,ＳＣ＆Ｃ株式会社,,株式会社,東京都,中央区,日本橋本町４丁目９番２号本栄ビル７階７０１号室,,13,102,1030023,,,,,,,2024-09-19,1,,,,,エスシーアンドシー,0
684,4010001248369,新規,0,2024-09-19,2024-09-19,株式会社ＳＴＵＤＩＯ　ＳＴＲＯＬＥ　Ｆｉｌｍｓ,,株式会社,東京都,文京区,白山２丁目２３番９号ＧＲＡＮＰＡＳＥＯ白山１０４,,13,105,1120001,,,,,,,2024-09-19,1,,,,,スタジオストローレフィルム,0
685,4010001248435,新規,0,2024-09-19,2024-09-19,株式会社浜鈴木,,株式会社,東京都,千代田区,五番町１０番地パルシオ五番町４０３号,,13,101,1020076,,,,,,,2024-09-19,1,,,,,ハマスズキ,0
689,4010003044907,新規,0,2024-09-19,2024-09-19,ＴＭＫコンサルティング合同会社,,合同会社,東京都,千代田区,神田和泉町１番地６－１６ヤマトビル４０５,,13,101,1010024,,,,,,,2024-09-19,1,,,,,ティエムケイコンサルティング,0
690,4010003044923,新規,0,2024-09-19,2024-09-19,合同会社ＭＲＦ１,,合同会社,東京都,千代田区,丸の内１丁目４番１号東京共同会計事務所内,,13,101,1000005,,,,,,,2024-09-19,1,,,,,エムアールエフワン,0
691,4010003044948,新規,0,2024-09-19,2024-09-19,合同会社プロガイド,,合同会社,東京都,中央区,銀座１丁目２２番１１号銀座大竹ビジデンス２Ｆ,,13,102,1040061,,,,,,,2024-09-19,1,,,,,プロガイド,0
701,4010603011050,新規,0,2024-09-19,2024-09-19,日昇商事合同会社,,合同会社,東京都,江東区,有明１丁目６番３０－３００６号,,13,108,1350063,,,,,,,2024-09-19,1,,,,,ニッショウショウジ,0
705,4010901055996,新規,0,2024-09-19,2024-09-19,株式会社ＲＥＮＫＯＮＴＯ,,株式会社,東京都,世田谷区,駒沢４丁目１８番２１号田中ハイツ３０１,,13,112,1540012,,,,,,,2024-09-19,1,,,,,レンコント,0
706,4010901056004,新規,0,2024-09-19,2024-09-19,株式会社平松融合研究所,,株式会社,東京都,世田谷区,若林３丁目１５番１６号,,13,112,1540023,,,,,,,2024-09-19,1,,,,,ヒラマツユウゴウケンキュウショ,0
707,4010901056012,新規,0,2024-09-19,2024-09-19,株式会社ＴＨＥ　ＭＯＯＳＥ,,株式会社,東京都,世田谷区,下馬１丁目４６番４号シーダヴィレッジ３０２,,13,112,1540002,,,,,,,2024-09-19,1,,,,,ザムース,0
708,4010903009356,新規,0,2024-09-19,2024-09-19,合同会社小美玉パワー１号,,合同会社,東京都,世田谷区,玉川２丁目１４番７号ツインシティーＳ３Ｆ中央ライズアクロスグループ内,,13,112,1580094,,,,,,,2024-09-19,1,,,,,オミタマパワーイチゴウ,0
709,4010903009364,新規,0,2024-09-19,2024-09-19,ｋｅｅＰａｙ合同会社,,合同会社,東京都,世田谷区,大原１丁目２５－４エタニティ大原６階,,13,112,1560041,,,,,,,2024-09-19,1,,,,,キーペイ,0
715,4011001164457,新規,0,2024-09-19,2024-09-19,株式会社ｚｅｒｏ,,株式会社,東京都,渋谷区,道玄坂１丁目１０番８号渋谷道玄坂東急ビル２Ｆ－Ｃ,,13,113,1500043,,,,,,,2024-09-19,1,,,,,ゼロ,0
716,4011001164556,新規,0,2024-09-19,2024-09-19,株式会社Ｐｒｏｊｅｃｔ　Ｉｎｎｏｖａｔｉｏｎ,,株式会社,東京都,渋谷区,道玄坂１丁目１０番８号渋谷道玄坂東急ビル２Ｆ－Ｃ,,13,113,1500043,,,,,,,2024-09-19,1,,,,,プロジェクトイノベーション,0
720,4011301030004,新規,0,2024-09-19,2024-09-19,株式会社ファーストエステート,,株式会社,東京都,杉並区,浜田山１丁目７番２６号,,13,115,1680065,,,,,,,2024-09-19,1,,,,,ファーストエステート,0
729,4011801044833,新規,0,2024-09-19,2024-09-19,株式会社ヒューレ,,株式会社,東京都,葛飾区,新小岩２丁目７番６号,,13,122,1240024,,,,,,,2024-09-19,1,,,,,ヒューレ,0
732,4012401042285,新規,0,2024-09-19,2024-09-19,ＨａｎａＲｉ株式会社,,株式会社,東京都,稲城市,矢野口７１２番地の９,,13,225,2060812,,,,,,,2024-09-19,1,,,,,ハナリ,0
733,4012403006750,新規,0,2024-09-19,2024-09-19,合同会社ヘルパーステーションつばさ,,合同会社,東京都,稲城市,平尾４丁目６０番地の７,,13,225,2060823,,,,,,,2024-09-19,1,,,,,ヘルパーステーションツバサ,0
735,4020001159136,新規,0,2024-09-19,2024-09-19,株式会社池田創建,,株式会社,神奈川県,横浜市緑区,長津田町４０７２番地１０ＦｏｒｅｓｔＶ０１０２,00136346,14,113,2260026,,,,,,,2024-09-19,1,,,,,イケダソウケン,0
738,4020003026879,新規,0,2024-09-19,2024-09-19,振袖美容室トリッシュ合同会社,,合同会社,神奈川県,横浜市港北区,新横浜２丁目５番地４京浜建物第二ビル３階,,14,109,2220033,,,,,,,2024-09-19,1,,,,,フリソデビヨウシツトリッシュ,0
739,4020003026929,新規,0,2024-09-19,2024-09-19,合同会社大原工業,,合同会社,神奈川県,川崎市川崎区,観音２丁目１４番８－３０８号,,14,131,2100831,,,,,,,2024-09-19,1,,,,,オオハラコウギョウ,0
744,4021001083235,新規,0,2024-09-19,2024-09-19,株式会社ＢｉｇＳｔｏｎｅ,,株式会社,神奈川県,小田原市,栢山２７８３番地の３,,14,206,2500852,,,,,,,2024-09-19,1,,,,,ビッグストーン,0
752,4030001162469,新規,0,2024-09-19,2024-09-19,庄源株式会社,,株式会社,埼玉県,川口市,青木２丁目１５番４２号,,11,203,3320031,,,,,,,2024-09-19,1,,,,,ショウゲン,0
753,4030001162551,新規,0,2024-09-19,2024-09-19,株式会社ｇｌｏｗ,,株式会社,埼玉県,吉川市,大字平沼字東町裏２８４,,11,243,3420056,,,,,,,2024-09-19,1,,,,,グロー,0
756,4030005021852,新規,0,2024-09-19,2024-09-19,一般社団法人青少年自立促進センター,,その他の設立登記法人,埼玉県,さいたま市北区,植竹町１丁目４３４番地,,11,102,3310813,,,,,,,2024-09-19,1,,,,,セイショウネンジリツソクシンセンター,0
761,4040001135028,新規,0,2024-09-19,2024-09-19,ＥＭＲＡＮ株式会社,,株式会社,千葉県,佐倉市,稲荷台２丁目５－５エクセレントマンション３０２,,12,212,2850864,,,,,,,2024-09-19,1,,,,,エムラン,0
762,4040001135440,新規,0,2024-09-19,2024-09-19,絆不動産株式会社,,株式会社,千葉県,千葉市中央区,生実町９９１番地１,,12,101,2600813,,,,,,,2024-09-19,1,,,,,キズナフドウサン,0
763,4040001135449,新規,0,2024-09-19,2024-09-19,株式会社リケンＨＯＭＥ,,株式会社,千葉県,成田市,赤荻１１１５番地１,,12,211,2860832,,,,,,,2024-09-19,1,,,,,リケンホーム,0
767,4040003025796,新規,0,2024-09-19,2024-09-19,合同会社ＺＡＩＲＡＩ,,合同会社,千葉県,佐倉市,坂戸１０７５－１－１,,12,212,2850078,,,,,,,2024-09-19,1,,,,,ザイライ,0
768,4050001055398,新規,0,2024-09-19,2024-09-19,株式会社コムアス,,株式会社,茨城県,日立市,川尻町７丁目２０番５号,,08,202,3191411,,,,,,,2024-09-19,1,,,,,,0
771,4080001026495,新規,0,2024-09-19,2024-09-19,ＳＨＩＥＬＤＳ‐ＬＩＮＫ株式会社,,株式会社,静岡県,静岡市駿河区,中田４丁目４番１５－１０３号,,22,102,4228041,,,,,,,2024-09-19,1,,,,,シールズリンク,0
776,4110005017132,新規,0,2024-09-19,2024-09-19,一般社団法人スリーエス,,その他の設立登記法人,新潟県,新潟市中央区,紫竹山５丁目７番２３号,,15,103,9500914,,,,,,,2024-09-19,1,,,,,スリーエス,0
783,4120001268653,新規,0,2024-09-19,2024-09-19,株式会社ＳＲＳ,,株式会社,大阪府,枚方市,渚本町７番１２号２Ｆ,,27,210,5731181,,,,,,,2024-09-19,1,,,,,エスアールエス,0
786,4120003027553,新規,0,2024-09-19,2024-09-19,合同会社ＳＡＫＵＲＡ,,合同会社,大阪府,大阪市北区,末広町２－８Ｆｕｊｉｍａｎ南森町８０１,,27,127,5300053,,,,,,,2024-09-19,1,,,,,サクラ,0
789,4120101070298,新規,0,2024-09-19,2024-09-19,株式会社Ｎテック,,株式会社,大阪府,富田林市,喜志町４丁目６番２７号,,27,214,5840005,,,,,,,2024-09-19,1,,,,,エヌテック,0
790,4120103006060,新規,0,2024-09-19,2024-09-19,合同会社ｒｉｔａｒｉｔａ,,合同会社,大阪府,富田林市,昭和町１丁目２番３４号,,27,214,5840092,,,,,,,2024-09-19,1,,,,,リタリタ,0
793,4120901049789,新規,0,2024-09-19,2024-09-19,株式会社Ｔ,,株式会社,大阪府,豊中市,中桜塚１丁目１３－３３,,27,203,5610881,,,,,,,2024-09-19,1,,,,,ティー,0
795,4122001038458,新規,0,2024-09-19,2024-09-19,株式会社ＯＰＷ,,株式会社,大阪府,東大阪市,友井１丁目３番１２号,,27,227,5770816,,,,,,,2024-09-19,1,,,,,オーピーダブリュー,0
797,4130001077938,新規,0,2024-09-19,2024-09-19,株式会社ＡＩＯＮＳ．,,株式会社,京都府,京都市伏見区,深草大亀谷万帖敷町５９０－５,,26,109,6120846,,,,,,,2024-09-19,1,,,,,アイオンズ,0
798,4130001077954,新規,0,2024-09-19,2024-09-19,株式会社ＧＲＸ,,株式会社,京都府,京都市伏見区,京町南８丁目１０８番地,,26,109,6128085,,,,,,,2024-09-19,1,,,,,ジーアールエックス,0
799,4130001077962,新規,0,2024-09-19,2024-09-19,株式会社ＢＲＥＡＫ,,株式会社,京都府,向日市,鶏冠井町東井戸４７－１、３０６号室,,26,208,6170004,,,,,,,2024-09-19,1,,,,,ブレイク,0
801,4130003009864,新規,0,2024-09-19,2024-09-19,合同会社ＰｕｃｈｉＰｌｕｓ,,合同会社,京都府,宇治市,小倉町天王４０－２ヒルズオグラＳ２,,26,204,6110042,,,,,,,2024-09-19,1,,,,,プチプラス,0
802,4140001135819,新規,0,2024-09-19,2024-09-19,株式会社カンキョーマネジメント,,株式会社,兵庫県,姫路市,広畑区早瀬町２丁目４６番地２,,28,201,6711151,,,,,,,2024-09-19,1,,,,,カンキョーマネジメント,0
810,4180003027366,新規,0,2024-09-19,2024-09-19,合同会社ヤマヒロ,,合同会社,愛知県,名古屋市北区,御成通１丁目１３番地,,23,103,4620807,,,,,,,2024-09-19,1,,,,,ヤマヒロ,0
811,4180003027374,新規,0,2024-09-19,2024-09-19,合同会社Ｏｐｅｎ　Ｈｅａｒｔ,,合同会社,愛知県,名古屋市港区,宝神５丁目２６０２番地の２,,23,111,4550832,,,,,,,2024-09-19,1,,,,,オープンハート,0
812,4180301039063,新規,0,2024-09-19,2024-09-19,株式会社ＡＮＫＬＥＸ,,株式会社,愛知県,豊橋市,小池町字西海戸２３番地の２,,23,201,4418042,,,,,,,2024-09-19,1,,,,,アンクレックス,0
827,4260001039470,新規,0,2024-09-19,2024-09-19,株式会社柿内建装,,株式会社,岡山県,津山市,田熊２０７番地１,,33,203,7081113,,,,,,,2024-09-19,1,,,,,カキウチケンソウ,0
834,4290001107349,新規,0,2024-09-19,2024-09-19,屋吉不動産株式会社,,株式会社,福岡県,福岡市東区,土井２丁目２９番１１－２０１号,,40,131,8130032,,,,,,,2024-09-19,1,,,,,ヤキチフドウサン,0
840,4300003002174,新規,0,2024-09-19,2024-09-19,まるよし合同会社,,合同会社,佐賀県,三養基郡基山町,大字長野９０１番地,,41,341,8410202,,,,,,,2024-09-19,1,,,,,マルヨシ,0
845,4340003004605,新規,0,2024-09-19,2024-09-19,合同会社ＨＡＲＡＧＵＣＨＩ,,合同会社,鹿児島県,鹿児島市,城南町４番１１号ヴィラージュ２２５　４０２号,,46,201,8920835,,,,,,,2024-09-19,1,,,,,ハラグチ,0
848,4360001034206,新規,0,2024-09-19,2024-09-19,株式会社ＫＥＮＴＩ,,株式会社,沖縄県,宜野湾市,宇地泊１丁目１４番１８メゾンＲＫ１０２号室,,47,205,9012227,,,,,,,2024-09-19,1,,,,,ケンティ,0
850,4360003014305,新規,0,2024-09-19,2024-09-19,Ａｍｒｄ２３．合同会社,,合同会社,沖縄県,沖縄市,美里４丁目２１番８０６号室美里市営住宅,,47,211,9042153,,,,,,,2024-09-19,1,,,,,アモードニーサンドット,0
855,4380001034798,新規,0,2024-09-19,2024-09-19,株式会社井上創建,,株式会社,福島県,いわき市,勿来町白米酒井原４５番地の１１,,07,204,9790143,,,,,,,2024-09-19,1,,,,,イノウエソウケン,0
871,4500003003334,新規,0,2024-09-19,2024-09-19,ライフデザイン合同会社,,合同会社,愛媛県,松山市,三町２丁目６番３１号,,38,201,7900914,,,,,,,2024-09-19,1,,,,,ライフデザイン,0
874,4700150127205,新規,0,2024-09-19,2024-09-19,ＡＭＡＲＡＫＯＯＮ　ＥＮＴＥＲＰＲＩＳＥＳ,,外国会社等,千葉県,佐倉市,大篠塚２７７番地Ａ,,12,212,2850806,スリランカ民主社会主義共和国、カトゥガストタ、マタレロード、Ｎｏ．２１１,,,,,,2024-09-19,1,,,,,アマラコーンエンタープライズ,0
875,4700150127213,新規,0,2024-09-19,2024-09-19,ＳＨＡＮＴＨＡ　ＥＮＴＥＲＰＲＩＳＥＳ,,外国会社等,千葉県,佐倉市,大篠塚２７７番地Ｃ,,12,212,2850806,スリランカ民主社会主義共和国、キャンディ、アンバテンナ、プージャピティヤロード、Ｎｏ．３３／Ａ,,,,,,2024-09-19,1,,,,,シヤンタエンタープライズ,0
876,4700150127221,新規,0,2024-09-19,2024-09-19,ＳＵＪＥＥＷＡ　ＣＯＮＳＴＲＵＣＴＩＯＮＳ　ＡＮＤ　ＡＵＴＯ　ＭＯＢＩＬＥ,,外国会社等,千葉県,八街市,八街ほ１０４０番地２ファイズ貸事務所２０４号室,,12,230,2891115,スリランカ民主社会主義共和国キャンディ、アンビティヤ、メデバタナ、ワッタ１３／３,,,,,,2024-09-19,1,,,,,スージーワコンストラクシヨンアンドオートモバイル,0
889,5010001248260,新規,0,2024-09-19,2024-09-19,株式会社郷,,株式会社,東京都,中央区,銀座１丁目１２－４Ｎ＆ＥＢＬＤ．７階,,13,102,1040061,,,,,,,2024-09-19,1,,,,,ゴウ,0
890,5010001248335,新規,0,2024-09-19,2024-09-19,株式会社ＤＥＬＩＳＰＥＣＴ,,株式会社,東京都,中央区,日本橋室町１丁目１１番１２号日本橋水野ビル７階,,13,102,1030022,,,,,,,2024-09-19,1,,,,,デリスペクト,0
891,5010001248368,新規,0,2024-09-19,2024-09-19,株式会社ウルトラエイチ,,株式会社,東京都,中央区,新富１丁目６番１号,,13,102,1040041,,,,,,,2024-09-19,1,,,,,ウルトラエイチ,0
892,5010001248392,新規,0,2024-09-19,2024-09-19,株式会社オフィス加藤,,株式会社,東京都,中央区,銀座８丁目３番１１号和恒ビル４階,,13,102,1040061,,,,,,,2024-09-19,1,,,,,オフィスカトウ,0
896,5010003044848,新規,0,2024-09-19,2024-09-19,乙部風力開発合同会社,,合同会社,東京都,中央区,京橋２丁目１２番６号ＡＯＪ税理士法人内,,13,102,1040031,,,,,,,2024-09-19,1,,,,,オトベフウリョクカイハツ,0
897,5010003044947,新規,0,2024-09-19,2024-09-19,合同会社かおるこ,,合同会社,東京都,中央区,銀座１丁目２２番１１号銀座大竹ビジデンス２Ｆ,,13,102,1040061,,,,,,,2024-09-19,1,,,,,カオルコ,0
899,5010401185178,新規,0,2024-09-19,2024-09-19,株式会社ＧＲＯＷＴＨ　ＡＢＲＯＡＤ,,株式会社,東京都,港区,芝５丁目２５－９三田スクエアビル５階,,13,103,1080014,,,,,,,2024-09-19,1,,,,,グロースアブロード,0
900,5010401185203,新規,0,2024-09-19,2024-09-19,株式会社ＢＵＺＺ　ＰＲＯＤＵＣＴＩＯＮＳ,,株式会社,東京都,港区,赤坂２丁目１３番１号,,13,103,1070052,,,,,,,2024-09-19,1,,,,,バズプロダクションズ,0
901,5010401185228,新規,0,2024-09-19,2024-09-19,瀚弗科技株式会社,,株式会社,東京都,港区,赤坂２丁目２３番１号アークヒルズ・フロントタワーＩｎＣｏｎｔｒｏｌ内,,13,103,1070052,,,,,,,2024-09-19,1,,,,,カンフツカギ,0
903,5010403033442,新規,0,2024-09-19,2024-09-19,合同会社ＵＬＵ,,合同会社,東京都,港区,海岸３丁目７－１７－８０１,,13,103,1080022,,,,,,,2024-09-19,1,,,,,ウル,0
904,5010405023581,新規,0,2024-09-19,2024-09-19,一般社団法人御殿場高圧蓄電所,,その他の設立登記法人,東京都,港区,芝大門２丁目１２番３号,,13,103,1050012,,,,,,,2024-09-19,1,,,,,ゴテンバコウアツチクデンショ,0
905,5010501052930,新規,0,2024-09-19,2024-09-19,Ｃｈａｏｓ　Ｔｅｃｈｎｉｃｓ株式会社,,株式会社,東京都,台東区,東上野１丁目１１番７号４階,,13,106,1100015,,,,,,,2024-09-19,1,,,,,カオステクニクス,0
907,5010701046526,新規,0,2024-09-19,2024-09-19,株式会社ステラパレード,,株式会社,東京都,品川区,大崎１丁目１１番２号,,13,109,1410032,,,,,,,2024-09-19,1,,,,,ステラパレード,0
910,5010803005099,新規,0,2024-09-19,2024-09-19,ＨＨＨ合同会社,,合同会社,東京都,大田区,西蒲田６丁目１８番９－１０１号,,13,111,1440051,,,,,,,2024-09-19,1,,,,,トリプルエイチ,0
921,5011001164687,新規,0,2024-09-19,2024-09-19,クレヨン株式会社,,株式会社,東京都,渋谷区,円山町５番５号Ｎａｖｉ渋谷Ｖ３階,,13,113,1500044,,,,,,,2024-09-19,1,,,,,クレヨン,0
922,5011001164695,新規,0,2024-09-19,2024-09-19,株式会社ＣＲＯＮＯ,,株式会社,東京都,目黒区,自由が丘２丁目１１番９号,,13,110,1520035,,,,,,,2024-09-19,1,,,,,クロノ,0
923,5011003019823,新規,0,2024-09-19,2024-09-19,合同会社１０ｍｉｎｕｔｅｓ,,合同会社,東京都,渋谷区,道玄坂１丁目１０番８号渋谷道玄坂東急ビル２Ｆ－Ｃ,,13,113,1500043,,,,,,,2024-09-19,1,,,,,テンミニッツ,0
927,5011101108825,新規,0,2024-09-19,2024-09-19,株式会社Ｏｎｌｙ　Ｉｄｅａ,,株式会社,東京都,新宿区,西新宿３丁目３番１３号西新宿水間ビル２Ｆ,,13,104,1600023,,,,,,,2024-09-19,1,,,,,オンリーアイディア,0
928,5011103014947,新規,0,2024-09-19,2024-09-19,合同会社ＫＩＮＧ,,合同会社,東京都,新宿区,中落合１丁目１５番５号,,13,104,1610032,,,,,,,2024-09-19,1,,,,,キング,0
929,5011201025805,新規,0,2024-09-19,2024-09-19,株式会社イメージ・ロジックＳＡＰＰＯＲＯ,,株式会社,東京都,中野区,本町３丁目３１番１１号Ｄａｉｗａ中野坂上ビル８階,,13,114,1640012,,,,,,,2024-09-19,1,,,,,イメージロジックサッポロ,0
935,5011501031164,新規,0,2024-09-19,2024-09-19,株式会社グリーンパーク３号,,株式会社,東京都,北区,西が丘１丁目２１番１号,,13,117,1150056,,,,,,,2024-09-19,1,,,,,グリーンパークサンゴウ,0
938,5011703003969,新規,0,2024-09-19,2024-09-19,斉順合同会社,,合同会社,東京都,江戸川区,松江２丁目１番１３－２０７号室,,13,123,1320025,,,,,,,2024-09-19,1,,,,,サイジュン,0
943,5012701018455,新規,0,2024-09-19,2024-09-19,株式会社Ｂａｎａｎａ　Ｂｅｎｄｅｒ,,株式会社,東京都,小平市,花小金井６丁目３０番９号カサベルデ２０２号,,13,211,1870002,,,,,,,2024-09-19,1,,,,,バナナベンダー,0
944,5012803003512,新規,0,2024-09-19,2024-09-19,合同会社ＳＡＤＡＯ,,合同会社,東京都,日野市,平山３丁目１－３ジュネスエコー１０１,,13,212,1910043,,,,,,,2024-09-19,1,,,,,サダオ,0
947,5013301053108,新規,0,2024-09-19,2024-09-19,新太株式会社,,株式会社,東京都,豊島区,東池袋１丁目１７－１１－８０２,,13,116,1700013,,,,,,,2024-09-19,1,,,,,シンタイ,0
965,5020001159135,新規,0,2024-09-19,2024-09-19,麻生開発株式会社,,株式会社,神奈川県,川崎市麻生区,上麻生３丁目１３番１号ベルクレエ新百合ヶ丘７０１,,14,137,2150021,,,,,,,2024-09-19,1,,,,,アサオカイハツ,0
966,5020001159275,新規,0,2024-09-19,2024-09-19,株式会社Ｓｉｅｇ,,株式会社,神奈川県,川崎市宮前区,南野川２丁目４２番１８号,,14,136,2160042,,,,,,,2024-09-19,1,,,,,ジーク,0
970,5020003026903,新規,0,2024-09-19,2024-09-19,合同会社Ｎｅｗ　ｗａｖｅ　ｉｔ,,合同会社,神奈川県,横浜市西区,北幸２丁目１０番４８号むつみビル３階,,14,103,2200004,,,,,,,2024-09-19,1,,,,,ニューウェイブイット,0
974,5021001083275,新規,0,2024-09-19,2024-09-19,株式会社クロスカ,,株式会社,神奈川県,横須賀市,池田町１丁目８－３,,14,201,2390806,,,,,,,2024-09-19,1,,,,,クロスカ,0
976,5021003015020,新規,0,2024-09-19,2024-09-19,合同会社ＰＨＵＣ　ＡＮ,,合同会社,神奈川県,相模原市緑区,橋本１丁目３番１９号シュガーハウスＩ２階２２,00136345,14,151,2520143,,,,,,,2024-09-19,1,,,,,フックアン,0
977,5030001162484,新規,0,2024-09-19,2024-09-19,株式会社紫の雲路,,株式会社,埼玉県,さいたま市岩槻区,大字南辻３５番地ボヌール岩槻Ａ－１０７,00136347,11,110,3390062,,,,,,,2024-09-19,1,,,,,ムラサキノクモジ,0
978,5030001162526,新規,0,2024-09-19,2024-09-19,株式会社エイチエムコンサルティング,,株式会社,埼玉県,蓮田市,大字根金１７４７番地１０,,11,238,3490131,,,,,,,2024-09-19,1,,,,,エイチエムコンサルティング,0
983,5030003025094,新規,0,2024-09-19,2024-09-19,Ｙ’ｓ　ＡＧＥＮＴ合同会社,,合同会社,埼玉県,さいたま市大宮区,桜木町２丁目３番地,,11,103,3300854,,,,,,,2024-09-19,1,,,,,ワイズエージェント,0
984,5030003025144,新規,0,2024-09-19,2024-09-19,合同会社ラルピラル,,合同会社,埼玉県,新座市,東北２丁目３９－１０ドゥーセット壱番館６Ｆ,,11,230,3520001,,,,,,,2024-09-19,1,,,,,ラルピラル,0
985,5030005021843,新規,0,2024-09-19,2024-09-19,一般社団法人ＥＬエルカフェ,,その他の設立登記法人,埼玉県,川越市,西小仙波町１丁目３番地１１,,11,201,3500035,,,,,,,2024-09-19,1,,,,,イーエルエルカフェ,0
989,5040003025779,新規,0,2024-09-19,2024-09-19,合同会社エム・シー・エス,,合同会社,千葉県,千葉市美浜区,磯辺３丁目４０番６号,,12,106,2610012,,,,,,,2024-09-19,1,,,,,エムシーエス,0
1000,5080001026494,新規,0,2024-09-19,2024-09-19,株式会社結心,,株式会社,静岡県,静岡市葵区,古庄４丁目１番１８－１０６号,,22,101,4200812,,,,,,,2024-09-19,1,,,,,ユシン,0
1015,5120001268669,新規,0,2024-09-19,2024-09-19,かたちセット株式会社,,株式会社,大阪府,大阪市北区,梅田１丁目１－３大阪駅前第３ビル２９階１－１－１号室,,27,127,5300001,,,,,,,2024-09-19,1,,,,,カタチセット,0
1016,5120003027552,新規,0,2024-09-19,2024-09-19,合同会社ｏｆｆｉｃｅＮＥＯＮ,,合同会社,大阪府,大阪市北区,梅田１丁目２番２号大阪駅前第２ビル１２－１２,,27,127,5300001,,,,,,,2024-09-19,1,,,,,オフィスネオン,0
1017,5120003027585,新規,0,2024-09-19,2024-09-19,合同会社ワンモアシング,,合同会社,大阪府,大阪市北区,梅田１丁目２番２号大阪駅前第２ビル２Ｆ５‐６号室,,27,127,5300001,,,,,,,2024-09-19,1,,,,,ワンモアシング,0
1025,5140003021099,新規,0,2024-09-19,2024-09-19,合同会社ＨＡＳＩ,,合同会社,兵庫県,川西市,出在家町９番１６号,,28,217,6660011,,,,,,,2024-09-19,1,,,,,ハシ,0
1035,5180001163328,新規,0,2024-09-19,2024-09-19,先手海運株式会社,,株式会社,愛知県,常滑市,錦町４丁目５３７番地,,23,216,4790831,,,,,,,2024-09-19,1,,,,,センテカイウン,0
1038,5180003027365,新規,0,2024-09-19,2024-09-19,合同会社マルコシ,,合同会社,愛知県,名古屋市北区,御成通１丁目１３番地,,23,103,4620807,,,,,,,2024-09-19,1,,,,,マルコシ,0
1044,5220003003840,新規,0,2024-09-19,2024-09-19,白山合同会社,,合同会社,石川県,白山市,乙丸町６４６‐２,,17,210,9240826,,,,,,,2024-09-19,1,,,,,ハクサン,0
1049,5240005015832,新規,0,2024-09-19,2024-09-19,医療法人健穂会,,その他の設立登記法人,広島県,広島市東区,牛田東２丁目１２番３６号,,34,102,7320063,,,,,,,2024-09-19,1,,,,,ケンホカイ,0
1053,5260003004892,新規,0,2024-09-19,2024-09-19,合同会社奏和,,合同会社,岡山県,岡山市南区,彦崎２９７６番地１０,,33,104,7091213,,,,,,,2024-09-19,1,,,,,ソウワ,0
1062,5290801030889,新規,0,2024-09-19,2024-09-19,ルクスト株式会社,,株式会社,福岡県,北九州市小倉北区,神岳２丁目６番１１号,,40,106,8020045,,,,,,,2024-09-19,1,,,,,ルクスト,0
1064,5300003002181,新規,0,2024-09-19,2024-09-19,合同会社Ａｓｐｅａｄ,,合同会社,佐賀県,佐賀市,水ヶ江５丁目６番４号,,41,201,8400054,,,,,,,2024-09-19,1,,,,,アスピード,0
1067,5310003004862,新規,0,2024-09-19,2024-09-19,合同会社寿,,合同会社,長崎県,佐世保市,大塔町６４８番地２２７,,42,202,8571161,,,,,,,2024-09-19,1,,,,,コトブキ,0
1069,5320001020720,新規,0,2024-09-19,2024-09-19,株式会社ナガキ,,株式会社,大分県,大分市,新町１８番１７－１１０３号ファーネストマンション春日,,44,201,8700028,,,,,,,2024-09-19,1,,,,,ナガキ,0
1070,5320003004473,新規,0,2024-09-19,2024-09-19,合同会社ムーブフォワード,,合同会社,大分県,大分市,大字津留字六本松１９１６番地１４,,44,201,8700930,,,,,,,2024-09-19,1,,,,,ムーブフォワード,0
1076,5360001034196,新規,0,2024-09-19,2024-09-19,ＩＮＦ株式会社,,株式会社,沖縄県,浦添市,西原１丁目８－１－２０１,,47,208,9012101,,,,,,,2024-09-19,1,,,,,アイエヌエフ,0
1077,5360001034205,新規,0,2024-09-19,2024-09-19,株式会社燦ペイント,,株式会社,沖縄県,宜野湾市,宜野湾３丁目１０番１８－２０４号Ｇ・クレド,,47,205,9012211,,,,,,,2024-09-19,1,,,,,サンペイント,0
1080,5370003006754,新規,0,2024-09-19,2024-09-19,インコア合同会社,,合同会社,宮城県,仙台市太白区,西多賀４丁目２１番２５号,,04,104,9820034,,,,,,,2024-09-19,1,,,,,インコア,0
1087,5390005009084,新規,0,2024-09-19,2024-09-19,農事組合法人鶴岡共乾施設利用組合,,その他の設立登記法人,山形県,鶴岡市,覚岸寺字水上１９６番地１,,06,203,9970052,,,,,,,2024-09-19,1,,,,,ツルオカキョウカンシセツリヨウクミアイ,0
1096,5430001092674,新規,0,2024-09-19,2024-09-19,株式会社Ｓｐｉｒｉｔ,,株式会社,北海道,恵庭市,恵み野西６丁目１０番５,,01,231,0611373,,,,,,,2024-09-19,1,,,,,スピリット,0
1097,5430001092690,新規,0,2024-09-19,2024-09-19,株式会社ＭＫ・ＴＲＵＳＴ,,株式会社,北海道,札幌市北区,新川西三条５丁目８番２６号,,01,102,0010933,,,,,,,2024-09-19,1,,,,,エムケートラスト,0
1098,5430001092699,新規,0,2024-09-19,2024-09-19,株式会社Ｓｔ．Ａｒｋｉｄ,,株式会社,北海道,札幌市中央区,南五条西１５丁目２－３リズム医大前５０３,,01,101,0640805,,,,,,,2024-09-19,1,,,,,エスティーアーキッド,0
1104,5430003016796,新規,0,2024-09-19,2024-09-19,合同会社弘済堂,,合同会社,北海道,札幌市清田区,平岡三条１丁目１５番１６号,,01,110,0040873,,,,,,,2024-09-19,1,,,,,コウサイドウ,0
1107,5700150127204,新規,0,2024-09-19,2024-09-19,ＫＡＮＤＹ　ＴＲＡＤＥＲＳ,,外国会社等,茨城県,古河市,諸川１５９４番地オフィス２号,,08,204,3060126,スリランカ民主社会主義共和国、キャンディ、アクラナ、マタレロード、Ｎｏ．１４８,,,,,,2024-09-19,1,,,,,キヤンデイトレーダーズ,0
1108,5700150127212,新規,0,2024-09-19,2024-09-19,ＭＡＨＲＡ　ＥＮＴＥＲＰＲＩＳＥＳ,,外国会社等,千葉県,八街市,砂５５番地９オフィスＤ,,12,230,2891121,スリランカ民主社会主義共和国、キャンディ、コトゥゴデッラレーン、Ｎｏ．１２／２,,,,,,2024-09-19,1,,,,,マハラエンタープライズ,0
1109,5700150127220,新規,0,2024-09-19,2024-09-19,ＡＵＴＯ　ＳＨＩＦＴ　ＬＡＮＫＡ,,外国会社等,千葉県,八街市,八街ほ１０３５番地７６オフィス－１,,12,230,2891115,スリランカ民主社会主義共和国、マータレー、ワハコッタ、エラマルポタナスクールロード、Ｎｏ．２１／Ｂ,,,,,,2024-09-19,1,,,,,オートシフトランカ,0
1110,5700150127229,新規,0,2024-09-19,2024-09-19,ＲＯＹＡＬ　ＷＩＮＧＳ　ＩＮＴＥＲＮＡＴＩＯＮＡＬ　ＰＶＴ　ＬＴＤ,,外国会社等,千葉県,八街市,沖６０番地２０Ａ,,12,230,2891126,スリランカ民主社会主義共和国、ミーゴダ、オビティガマ、グルゲワスタ、Ｎｏ．４３８／Ｇ／３４／Ｄ２,,,,,,2024-09-19,1,,,,,ロイヤルウイングスインターナシヨナルプライベートリミテツド,0
1118,6010001248326,新規,0,2024-09-19,2024-09-19,株式会社スパイラルキュートホールディングス,,株式会社,東京都,中央区,新川２丁目６番２号,,13,102,1040033,,,,,,,2024-09-19,1,,,,,スパイラルキュートホールディングス,0
1119,6010001248359,新規,0,2024-09-19,2024-09-19,株式会社ＩＢＴ　Ｌａｂ,,株式会社,東京都,中央区,銀座１丁目１２番４号Ｎ＆ＥＢＬＤ．６Ｆ,,13,102,1040061,,,,,,,2024-09-19,1,,,,,アイビーティーラボ,0
1120,6010001248367,新規,0,2024-09-19,2024-09-19,株式会社ソリューション・スペース,,株式会社,東京都,中央区,日本橋室町１丁目１１番１２号日本橋水野ビル７階,,13,102,1030022,,,,,,,2024-09-19,1,,,,,ソリューションスペース,0
1125,6010003044921,新規,0,2024-09-19,2024-09-19,合同会社レブサム,,合同会社,東京都,中央区,銀座１丁目２２番１１号銀座大竹ビジデンス２Ｆ,,13,102,1040061,,,,,,,2024-09-19,1,,,,,レブサム,0
1126,6010003044946,新規,0,2024-09-19,2024-09-19,合同会社デザインワークス,,合同会社,東京都,千代田区,麹町４丁目５番地２０ＫＳビル８階,,13,101,1020083,,,,,,,2024-09-19,1,,,,,デザインワークス,0
1129,6010005038814,新規,0,2024-09-19,2024-09-19,司法書士法人アリス,,その他の設立登記法人,東京都,千代田区,九段南３丁目９番１２号アリスビル２階,,13,101,1020074,,,,,,,2024-09-19,1,,,,,アリス,0
1130,6010005038839,新規,0,2024-09-19,2024-09-19,ＨＫＲＪ　Ｈｏｓｐｉｔａｌｉｔｙ　Ｍａｎａｇｅｍｅｎｔ一般社団法人,,その他の設立登記法人,東京都,千代田区,丸の内３丁目３番１号新東京ビル６階６０３区,,13,101,1000005,,,,,,,2024-09-19,1,,,,,エイチケーアールジェイホスピタリティマネジメント,0
1134,6010401185193,新規,0,2024-09-19,2024-09-19,株式会社Ｍｏｖｉｎｇ　Ｆｏｒｗａｒｄ,,株式会社,東京都,港区,北青山１丁目３番１号アールキューブ青山３Ｆ,,13,103,1070061,,,,,,,2024-09-19,1,,,,,ムービングフォーワード,0
1136,6010405023597,新規,0,2024-09-19,2024-09-19,Ｅｍｐｉｒｅ‐Ｉ特定目的会社,,その他の設立登記法人,東京都,港区,虎ノ門１丁目２番３号虎ノ門清和ビル５階,,13,103,1050001,,,,,,,2024-09-19,1,,,,,エンパイアワン,0
1137,6010601065914,新規,0,2024-09-19,2024-09-19,ボンギンカン株式会社,,株式会社,東京都,江東区,有明１丁目２番１１,,13,108,1350063,,,,,,,2024-09-19,1,,,,,ボンギンカン,0
1139,6010703007351,新規,0,2024-09-19,2024-09-19,合同会社Ａｕｔｈｅｎｔｉｃ,,合同会社,東京都,品川区,戸越５丁目１８番１６号２階,,13,109,1420041,,,,,,,2024-09-19,1,,,,,オーセンティック,0
1140,6010901055994,新規,0,2024-09-19,2024-09-19,地福測量設計株式会社,,株式会社,東京都,世田谷区,喜多見８丁目８番２号,,13,112,1570067,,,,,,,2024-09-19,1,,,,,ジフクソクリョウセッケイ,0
1141,6010901056002,新規,0,2024-09-19,2024-09-19,株式会社グッド・ピーナッツ,,株式会社,東京都,世田谷区,上馬４丁目８番８号ミュゼ駒沢１０２号,,13,112,1540011,,,,,,,2024-09-19,1,,,,,グッドピーナッツ,0
1144,6010903009362,新規,0,2024-09-19,2024-09-19,祥和合同会社,,合同会社,東京都,世田谷区,上祖師谷３丁目２０番１５号,,13,112,1570065,,,,,,,2024-09-19,1,,,,,ヨシカズ,0
1145,6010903009370,新規,0,2024-09-19,2024-09-19,合同会社ＥＮＮ,,合同会社,東京都,世田谷区,宇奈根２丁目５－２－１０４,,13,112,1570068,,,,,,,2024-09-19,1,,,,,エン,0
1155,6011403004507,新規,0,2024-09-19,2024-09-19,合同会社ｒｅｎｚｙｕ,,合同会社,東京都,板橋区,大山金井町２５－１２,,13,119,1730024,,,,,,,2024-09-19,1,,,,,レンジュ,0
1158,6011501031155,新規,0,2024-09-19,2024-09-19,株式会社メディカルＩＴサポート,,株式会社,東京都,北区,田端新町１丁目１４番６号,,13,117,1140012,,,,,,,2024-09-19,1,,,,,メディカルアイティーサポート,0
1159,6011501031163,新規,0,2024-09-19,2024-09-19,株式会社Ｈｅｌｌｏ　Ｍｙａｎｍａｒ,,株式会社,東京都,荒川区,西尾久５丁目２番２号キシマンション西尾久２０５,,13,118,1160011,,,,,,,2024-09-19,1,,,,,ハローミャンマー,0
1163,6011703003968,新規,0,2024-09-19,2024-09-19,ＪＰＳ観光合同会社,,合同会社,東京都,江戸川区,西葛西３丁目２２番１０号－５０１Ｂ号,,13,123,1340088,,,,,,,2024-09-19,1,,,,,ジェーピーエスカンコウ,0
1166,6011805003395,新規,0,2024-09-19,2024-09-19,一般社団法人夜景観光開発,,その他の設立登記法人,東京都,足立区,伊興３丁目７番９－２１２号,,13,121,1210823,,,,,,,2024-09-19,1,,,,,ヤケイカンコウカイハツ,0
1167,6012301014085,新規,0,2024-09-19,2024-09-19,株式会社ＳＨＩＲＯＭＡＫＵ,,株式会社,東京都,町田市,原町田６丁目２５－３第２岡本ビル３階,,13,209,1940013,,,,,,,2024-09-19,1,,,,,シロマク,0
1171,6012401042291,新規,0,2024-09-19,2024-09-19,株式会社東京パートナー,,株式会社,東京都,稲城市,大丸９８８番地の６,,13,225,2060801,,,,,,,2024-09-19,1,,,,,トウキョウパートナー,0
1173,6012803003503,新規,0,2024-09-19,2024-09-19,エイスワン合同会社,,合同会社,東京都,武蔵村山市,緑が丘１４６０番地１１１９－３１３,,13,223,2080012,,,,,,,2024-09-19,1,,,,,エイスワン,0
1190,6021001083266,新規,0,2024-09-19,2024-09-19,株式会社しんわサービス,,株式会社,神奈川県,高座郡寒川町,岡田１丁目６番地３,,14,321,2530105,,,,,,,2024-09-19,1,,,,,シンワサービス,0
1200,6030001162541,新規,0,2024-09-19,2024-09-19,株式会社ＳＷＡＧ,,株式会社,埼玉県,入間市,小谷田１丁目１６番１２号,,11,225,3580026,,,,,,,2024-09-19,1,,,,,スワッグ,0
1205,6030003025102,新規,0,2024-09-19,2024-09-19,ＢＥＥ‐ＧＯ合同会社,,合同会社,埼玉県,入間郡三芳町,大字北永井８３７番地７７,,11,324,3540044,,,,,,,2024-09-19,1,,,,,ビーゴ,0
1212,6040001135430,新規,0,2024-09-19,2024-09-19,未来福祉経営株式会社,,株式会社,千葉県,成田市,新妻１６５番地１,,12,211,2860837,,,,,,,2024-09-19,1,,,,,ミライフクシケイエイ,0
1213,6040001135447,新規,0,2024-09-19,2024-09-19,株式会社アジア農園,,株式会社,千葉県,八街市,八街は６５番地４６,,12,230,2891107,,,,,,,2024-09-19,1,,,,,アジアノウエン,0
1221,6050003008674,新規,0,2024-09-19,2024-09-19,合同会社ｆｒｕｃｔｕｓ,,合同会社,茨城県,つくば市,花畑１丁目５―９，つくばビレッジ３，２０１号,,08,220,3003261,,,,,,,2024-09-19,1,,,,,フラクタス,0
1230,6100001037843,新規,0,2024-09-19,2024-09-19,Ｓａｌａｉ　ｅ　ｃａｖａｌｉｅｒｅ株式会社,,株式会社,長野県,北佐久郡軽井沢町,大字発地２７１番地,,20,321,3890113,,,,,,,2024-09-19,1,,,,,サライエカヴァリエール,0
1232,6100003007778,新規,0,2024-09-19,2024-09-19,スタージェス経理合同会社,,合同会社,長野県,埴科郡坂城町,大字上平１５４５番地２,,20,521,3890605,,,,,,,2024-09-19,1,,,,,スタージェスケイリ,0
1235,6120001268429,新規,0,2024-09-19,2024-09-19,忠貞家宝株式会社,,株式会社,大阪府,大阪市北区,西天満２丁目６番８号堂島ビルヂング６Ｆ新東京国際リーガル内,,27,127,5300047,,,,,,,2024-09-19,1,,,,,チュウチンカホ,0
1236,6120001268635,新規,0,2024-09-19,2024-09-19,株式会社平野動物霊園,,株式会社,大阪府,大阪市平野区,喜連東３丁目５番６５号,,27,126,5470021,,,,,,,2024-09-19,1,,,,,ヒラノドウブツレイエン,0
1244,6120101070305,新規,0,2024-09-19,2024-09-19,株式会社エスケーテック,,株式会社,大阪府,堺市北区,百舌鳥梅北町４丁１６７番地２９,,27,146,5918031,,,,,,,2024-09-19,1,,,,,エスケーテック,0
1245,6120103006059,新規,0,2024-09-19,2024-09-19,オアシス合同会社,,合同会社,大阪府,岸和田市,春木旭町３８－１－２０３号,,27,202,5960005,,,,,,,2024-09-19,1,,,,,オアシス,0
1249,6120903005342,新規,0,2024-09-19,2024-09-19,合同会社ガープ,,合同会社,大阪府,箕面市,森町南３丁目４番２２号,,27,220,5630258,,,,,,,2024-09-19,1,,,,,ガープ,0
1260,6140003021057,新規,0,2024-09-19,2024-09-19,合同会社Ｔｏｗｓｅｒ,,合同会社,兵庫県,尼崎市,久々知西町２丁目３番１８号,,28,202,6610978,,,,,,,2024-09-19,1,,,,,タウザー,0
1261,6140003021098,新規,0,2024-09-19,2024-09-19,合同会社ＡＫグループ,,合同会社,兵庫県,神戸市長田区,駒ヶ林町５丁目１４番１０号,,28,106,6530043,,,,,,,2024-09-19,1,,,,,エーケーグループ,0
1269,6170001018317,新規,0,2024-09-19,2024-09-19,エスワイ管理株式会社,,株式会社,和歌山県,和歌山市,関戸２丁目２番２４号,,30,201,6410035,,,,,,,2024-09-19,1,,,,,エスワイカンリ,0
1281,6180001163310,新規,0,2024-09-19,2024-09-19,株式会社アース,,株式会社,愛知県,北名古屋市,熊之庄登り戸１２番地,,23,234,4810006,,,,,,,2024-09-19,1,,,,,アース,0
1285,6180003027364,新規,0,2024-09-19,2024-09-19,合同会社サプライ,,合同会社,愛知県,名古屋市北区,御成通１丁目１３番地,,23,103,4620807,,,,,,,2024-09-19,1,,,,,サプライ,0
1286,6180301039061,新規,0,2024-09-19,2024-09-19,株式会社ｉｄｅａ,,株式会社,愛知県,豊橋市,下地町字操穴４３番地,,23,201,4400083,,,,,,,2024-09-19,1,,,,,イデア,0
1290,6190001031656,新規,0,2024-09-19,2024-09-19,株式会社ＲＥＳＰＥＣＴ,,株式会社,三重県,津市,雲出本郷町１８０５番地１３９,,24,201,5140304,,,,,,,2024-09-19,1,,,,,リスペクト,0
1310,6290801030888,新規,0,2024-09-19,2024-09-19,株式会社グランドアーク,,株式会社,福岡県,北九州市小倉北区,馬借３丁目３番３７－５０８号,,40,106,8020077,,,,,,,2024-09-19,1,,,,,グランドアーク,0
1328,6400003003326,新規,0,2024-09-19,2024-09-19,月原製作所合同会社,,合同会社,岩手県,滝沢市,穴口１４８番地９２,,03,216,0200633,,,,,,,2024-09-19,1,,,,,ツキハラセイサクショ,0
1329,6410001013937,新規,0,2024-09-19,2024-09-19,株式会社ファミリーテク,,株式会社,秋田県,男鹿市,払戸字大堤１２４番地１,,05,206,0100431,,,,,,,2024-09-19,1,,,,,ファミリーテク,0
1336,6430003016787,新規,0,2024-09-19,2024-09-19,合同会社フラワー住設,,合同会社,北海道,札幌市中央区,南五条西１５丁目２番３号リズム医大前５０３号室,,01,101,0640805,,,,,,,2024-09-19,1,,,,,フラワージュウセツ,0
1344,6700150127211,新規,0,2024-09-19,2024-09-19,ＹＯＯＳＵＦ　ＭＯＴＯＲＳ,,外国会社等,千葉県,八街市,砂５５番地９オフィスＥ,,12,230,2891121,スリランカ民主社会主義共和国、キャンディ、バトゥゴダ、カサワッタ、Ｎｏ．４３３,,,,,,2024-09-19,1,,,,,ユースフモータース,0
1345,6700150127228,新規,0,2024-09-19,2024-09-19,ＳＫＹ　ＭＯＴＯＲＳ,,外国会社等,千葉県,佐倉市,大篠塚２７８番地オフィスＢ号,,12,212,2850806,スリランカ民主社会主義共和国、キャンディ、アクラナ、パッレウェリケティヤ、Ｎｏ．４４／２,,,,,,2024-09-19,1,,,,,スカイモーターズ,0
1346,6700150127236,新規,0,2024-09-19,2024-09-19,Ｓｈｅｎｚｈｅｎ　Ｚｕｏｙｏｕ　Ｈｏｕｓｅｗａｒｅ　Ｓａｌｅｓ　Ｃｏ　Ｌｔｄ,,外国会社等,,,,,,,,ｓｈｅｎｚｈｅｎｓｈｉｌｏｎｇｇａｎｇｑｕｎａｎｗａｎｊｉｅｄａｏｐｉｎｇｊｉｄａｄａｏ１１ｈａｏ１５０２,,,,,,2024-09-19,1,,,,,シェンジェンシーズオヨウジャージーシャオショウヨウシエンゴンスー,0
1353,7010001248325,新規,0,2024-09-19,2024-09-19,株式会社Ｏｒａｎｇｅ　Ａｓｓｅｔ　Ｆｏｒｍａｔｉｏｎ,,株式会社,東京都,中央区,日本橋中洲２番３－１２０４号,,13,102,1030008,,,,,,,2024-09-19,1,,,,,オレンジアセットフォーメーション,0
1356,7010003044895,新規,0,2024-09-19,2024-09-19,スポット求人ナビ合同会社,,合同会社,東京都,中央区,日本橋兜町１７－２兜町第６葉山ビル４Ｆ,,13,102,1030026,,,,,,,2024-09-19,1,,,,,スポットキュウジンナビ,0
1357,7010003044945,新規,0,2024-09-19,2024-09-19,ＳＡＣ合同会社,,合同会社,東京都,文京区,関口１丁目３２番６号,,13,105,1120014,,,,,,,2024-09-19,1,,,,,エスエーシー,0
1363,7010405023571,新規,0,2024-09-19,2024-09-19,医療法人社団たくま,,その他の設立登記法人,東京都,港区,麻布十番１丁目７番１号ＭＧＢ麻布十番ビル４階,,13,103,1060045,,,,,,,2024-09-19,1,,,,,タクマ,0
1373,7010901055977,新規,0,2024-09-19,2024-09-19,株式会社Ｍｉｄｅｎ,,株式会社,東京都,世田谷区,駒沢５丁目１５番５号ＳＡＷＡビル２０１,,13,112,1540012,,,,,,,2024-09-19,1,,,,,ミデン,0
1383,7011001164652,新規,0,2024-09-19,2024-09-19,Ｒａｒｅ　Ｃｏｎｑｕｅｓｔ株式会社,,株式会社,東京都,目黒区,大岡山１丁目１２番２号,,13,110,1520033,,,,,,,2024-09-19,1,,,,,レアコンキスト,0
1385,7011003020028,新規,0,2024-09-19,2024-09-19,合同会社アニトヤ,,合同会社,東京都,渋谷区,神泉町１０番１５号アネックス神泉３０１,,13,113,1500045,,,,,,,2024-09-19,1,,,,,アニトヤ,0
1389,7011101108872,新規,0,2024-09-19,2024-09-19,株式会社リバース,,株式会社,東京都,新宿区,北新宿４丁目１４番２号ハートパーク北新宿３０１,,13,104,1690074,,,,,,,2024-09-19,1,,,,,リバース,0
1397,7011103014945,新規,0,2024-09-19,2024-09-19,合同会社護継,,合同会社,東京都,新宿区,下落合４丁目３－２,,13,104,1610033,,,,,,,2024-09-19,1,,,,,モリツギ,0
1399,7011703003967,新規,0,2024-09-19,2024-09-19,ｋｉｋｉｆｅｓ合同会社,,合同会社,東京都,江戸川区,北小岩４丁目３７番８号プレシャス北小岩２０１,,13,123,1330051,,,,,,,2024-09-19,1,,,,,キキフェス,0
1402,7011803006457,新規,0,2024-09-19,2024-09-19,合同会社Ｆ．Ｓ,,合同会社,東京都,葛飾区,高砂２丁目３０番１３号,,13,122,1250054,,,,,,,2024-09-19,1,,,,,エフエス,0
1415,7013303007308,新規,0,2024-09-19,2024-09-19,健一合同会社,,合同会社,東京都,豊島区,東池袋４丁目３８番７号,,13,116,1700013,,,,,,,2024-09-19,1,,,,,ケンイチ,0
1424,7020001158259,新規,0,2024-09-19,2024-09-19,株式会社ｅｎｊｏｙ　ｃｈｉｃｋｅｎ,,株式会社,神奈川県,横浜市中区,相生町２丁目５２番地金子ビル３階,,14,104,2310012,,,,,,,2024-09-19,1,,,,,エンジョイチキン,0
1425,7020001159182,新規,0,2024-09-19,2024-09-19,株式会社プレイスシップ,,株式会社,神奈川県,横浜市磯子区,中浜町５番９号,,14,107,2350014,,,,,,,2024-09-19,1,,,,,プレイスシップ,0
1426,7020001159265,新規,0,2024-09-19,2024-09-19,株式会社Ｖｅｒｔｅｘ,,株式会社,神奈川県,川崎市中原区,新城１０３８番地,,14,133,2110044,,,,,,,2024-09-19,1,,,,,バーテックス,0
1427,7020001159273,新規,0,2024-09-19,2024-09-19,Ｌｉｂｅｒａｔｅ株式会社,,株式会社,神奈川県,川崎市幸区,新小倉２番７－８２２号,,14,132,2120031,,,,,,,2024-09-19,1,,,,,リベレイト,0
1428,7020001159315,新規,0,2024-09-19,2024-09-19,フォーカルホールディングス株式会社,,株式会社,神奈川県,横浜市中区,元町４丁目１７２番地クリオ横濱元町通り８０２,,14,104,2310861,,,,,,,2024-09-19,1,,,,,フォーカルホールディングス,0
1431,7020003026736,新規,0,2024-09-19,2024-09-19,合同会社ｆａｍｉｌｙ,,合同会社,神奈川県,横浜市西区,久保町２２－２０,,14,103,2200061,,,,,,,2024-09-19,1,,,,,ファミリー,0
1432,7020003026934,新規,0,2024-09-19,2024-09-19,ＥＡＫ合同会社,,合同会社,神奈川県,横浜市神奈川区,金港町５－１４クアドリフォリオ８階,,14,102,2210056,,,,,,,2024-09-19,1,,,,,イーエーケイ,0
1446,7030005021841,新規,0,2024-09-19,2024-09-19,柊税理士法人,,その他の設立登記法人,埼玉県,川越市,大字古谷上３８１９番地,,11,201,3500001,,,,,,,2024-09-19,1,,,,,ヒイラギ,0
1452,7040001135446,新規,0,2024-09-19,2024-09-19,株式会社Ｒ．,,株式会社,千葉県,茂原市,小林２３３０番地１,,12,210,2970074,,,,,,,2024-09-19,1,,,,,アールポイント,0
1453,7040001135454,新規,0,2024-09-19,2024-09-19,株式会社ＧＲＡＮＲＥＶＥ,,株式会社,千葉県,千葉市緑区,おゆみ野中央８丁目１番地１１９,,12,105,2660032,,,,,,,2024-09-19,1,,,,,グランレーヴェ,0
1456,7040003025785,新規,0,2024-09-19,2024-09-19,合同会社菊川蓄電所,,合同会社,千葉県,木更津市,かずさ鎌足１丁目８－１,,12,206,2920818,,,,,,,2024-09-19,1,,,,,キクカワチクデンショ,0
1457,7040003025793,新規,0,2024-09-19,2024-09-19,合同会社Ｄａｎｒａｎ　Ｆａｃｔｏｒｙ,,合同会社,千葉県,市原市,光風台５丁目１８番地,,12,219,2900255,,,,,,,2024-09-19,1,,,,,ダンランファクトリー,0
1466,7080401027454,新規,0,2024-09-19,2024-09-19,株式会社栗ノ木育成所,,株式会社,静岡県,浜松市中央区,神田町５５３番地,,22,138,4328047,,,,,,,2024-09-19,1,,,,,クリノキイクセイショ,0
1473,7100001037850,新規,0,2024-09-19,2024-09-19,ゆぴこの株式会社,,株式会社,長野県,北佐久郡軽井沢町,軽井沢東１４番地１５グリーンコーピアス軽井沢１０３,,20,321,3890104,,,,,,,2024-09-19,1,,,,,ユピコノ,0
1487,7120001268519,新規,0,2024-09-19,2024-09-19,富平株式会社,,株式会社,大阪府,大阪市浪速区,恵美須西１丁目４番３号アメニティハイツ３０２号,,27,111,5560003,,,,,,,2024-09-19,1,,,,,トミヒラ,0
1488,7120001268634,新規,0,2024-09-19,2024-09-19,株式会社リケナ,,株式会社,大阪府,大阪市住吉区,帝塚山西２丁目１２番８号,,27,120,5580052,,,,,,,2024-09-19,1,,,,,リケナ,0
1489,7120001268667,新規,0,2024-09-19,2024-09-19,株式会社ＪＵＮＧＥＴＳＵ,,株式会社,大阪府,大阪市福島区,海老江８丁目６番５号,,27,103,5530001,,,,,,,2024-09-19,1,,,,,ジュンゲツ,0
1490,7120001268691,新規,0,2024-09-19,2024-09-19,中清株式会社,,株式会社,大阪府,大阪市生野区,中川西１丁目１７番１０号,,27,116,5440032,,,,,,,2024-09-19,1,,,,,ナカキヨ,0
1494,7120103006058,新規,0,2024-09-19,2024-09-19,合同会社かがやき,,合同会社,大阪府,泉大津市,東港町４番１６号,,27,206,5950051,,,,,,,2024-09-19,1,,,,,カガヤキ,0
1497,7130001077951,新規,0,2024-09-19,2024-09-19,Ｘ　Ｄｅｃｉｓｉｏｎ株式会社,,株式会社,京都府,京都市中京区,役行者町３７６ＣａｓａＲｅｇｉｏ室町三条２０６号,,26,104,6048174,,,,,,,2024-09-19,1,,,,,クロスディシジョン,0
1505,7140001135840,新規,0,2024-09-19,2024-09-19,株式会社二年五組,,株式会社,兵庫県,神戸市中央区,磯辺通１丁目１番１８号カサベラ国際プラザビル７０７号室,,28,110,6510084,,,,,,,2024-09-19,1,,,,,ニネンゴクミ,0
1511,7170001018316,新規,0,2024-09-19,2024-09-19,株式会社ＣＩＥＮ,,株式会社,和歌山県,橋本市,城山台２丁目６番地の１,,30,203,6480054,,,,,,,2024-09-19,1,,,,,シエン,0
1516,7180001163284,新規,0,2024-09-19,2024-09-19,株式会社ｃｏｎｆａｓ,,株式会社,愛知県,名古屋市緑区,諸の木２丁目２１１３番地,,23,114,4580817,,,,,,,2024-09-19,1,,,,,コンファス,0
1517,7180001163342,新規,0,2024-09-19,2024-09-19,株式会社ｓｈｉｒｏｍｉｇａｍａ,,株式会社,愛知県,瀬戸市,仲郷町８６,,23,204,4890824,,,,,,,2024-09-19,1,,,,,シロミガマ,0
1526,7200003006513,新規,0,2024-09-19,2024-09-19,Ｒ４１ハウス合同会社,,合同会社,岐阜県,可児市,菅刈５３３－３,,21,214,5090262,,,,,,,2024-09-19,1,,,,,アールヨンイチハウス,0
1530,7220001026214,新規,0,2024-09-19,2024-09-19,Ｒｅ．ａｃｔ株式会社,,株式会社,石川県,七尾市,矢田新町イ部６番地９,,17,202,9260015,,,,,,,2024-09-19,1,,,,,リアクト,0
1531,7220003003839,新規,0,2024-09-19,2024-09-19,合同会社Ｋ．Ｓ．Ｐ,,合同会社,石川県,金沢市,米泉町４丁目５７番地２,,17,201,9218044,,,,,,,2024-09-19,1,,,,,ケーエスピー,0
1535,7250001020817,新規,0,2024-09-19,2024-09-19,不動産エビス株式会社,,株式会社,山口県,下松市,美里町２丁目１４番１５号,,35,207,7440073,,,,,,,2024-09-19,1,,,,,フドウサンエビス,0
1538,7280001009262,新規,0,2024-09-19,2024-09-19,株式会社フジイコーポレーション,,株式会社,島根県,松江市,古曽志町７１６番地,,32,201,6900151,,,,,,,2024-09-19,1,,,,,フジイコーポレーション,0
1544,7290801030887,新規,0,2024-09-19,2024-09-19,ＪＩＭＭＹ　ＪＯＥ株式会社,,株式会社,福岡県,北九州市小倉北区,浅野３丁目８番１号ＡＩＭビル６階,,40,106,8020001,,,,,,,2024-09-19,1,,,,,ジミージョー,0
1547,7320001020719,新規,0,2024-09-19,2024-09-19,株式会社酢屋の坂,,株式会社,大分県,別府市,大字南立石２１７２番地の２９,,44,202,8740000,,,,,,,2024-09-19,1,,,,,スヤノサカ,0
1548,7330001032457,新規,0,2024-09-19,2024-09-19,株式会社ＭＩＣＨＩ,,株式会社,熊本県,球磨郡錦町,大字西３２８７－１２１,,43,501,8680303,,,,,,,2024-09-19,1,,,,,ミチ,0
1550,7360001034211,新規,0,2024-09-19,2024-09-19,株式会社ＹＡＭＡ,,株式会社,沖縄県,糸満市,字真栄里２００４番地の９,,47,210,9010362,,,,,,,2024-09-19,1,,,,,ヤマ,0
1551,7370001051734,新規,0,2024-09-19,2024-09-19,株式会社フルメタル板金,,株式会社,宮城県,塩竈市,花立町６番３６号,,04,203,9850023,,,,,,,2024-09-19,1,,,,,フルメタルバンキン,0
1557,7400001016790,新規,0,2024-09-19,2024-09-19,ティーシーシー株式会社,,株式会社,岩手県,北上市,花園町２丁目２番１９号,,03,206,0240035,,,,,,,2024-09-19,1,,,,,ティーシーシー,0
1558,7410003003984,新規,0,2024-09-19,2024-09-19,合同会社ＢｅｅＨａｐＵ,,合同会社,秋田県,横手市,寿町１番３号,,05,203,0130025,,,,,,,2024-09-19,1,,,,,ビーハップー,0
1561,7430001092623,新規,0,2024-09-19,2024-09-19,株式会社ＦＩＢＥＲ,,株式会社,北海道,札幌市中央区,南二十三条西９丁目３番１２－１０１号,,01,101,0640923,,,,,,,2024-09-19,1,,,,,ファイバー,0
1564,7700150127210,新規,0,2024-09-19,2024-09-19,Ｐ　Ｇ　Ｎ　ＭＯＴＯＲＳ,,外国会社等,千葉県,八街市,朝日１９１番地５,,12,230,2891101,スリランカ民主社会主義共和国、中央州、キャンディ地区、キャンディ、アクラナ、ドゥヌウィラロード、Ｎｏ．８２,,,,,,2024-09-19,1,,,,,ピージーエヌモータース,0
1565,7700150127219,新規,0,2024-09-19,2024-09-19,ＳＨＩＭＡ　ＬＡＮＫＡ,,外国会社等,千葉県,八街市,八街は１番地１４９オフィス７,,12,230,2891107,スリランカ民主社会主義共和国、キャンディ、アクラナ、ニーララ、Ｎｏ．８９０／１,,,,,,2024-09-19,1,,,,,シマランカ,0
1566,7700150127227,新規,0,2024-09-19,2024-09-19,ＡＬＩＸ　ＰＶＴ　ＬＴＤ,,外国会社等,千葉県,大網白里市,上谷新田４１８番地６オフィスＡ号,,12,239,2993268,スリランカ民主社会主義共和国、キャンディ、アンバテンナ、クドゥガラ、マタレロード、Ｎｏ．１７２,,,,,,2024-09-19,1,,,,,アリツクスプライベートリミテツド,0
1567,7700150127235,新規,0,2024-09-19,2024-09-19,ＴａｉＹｕａｎＤｏｎｇＤｏｕＫｅＪｉＹｏｕＸｉａｎＧｏｎｇｓｉ,,外国会社等,,,,,,,,Ｒｏｏｍ　６１５，Ｓｈｅｎｇｌｉ　Ｍａｎｓｉｏｎ，Ｎｏ．４２，Ｎｏｒｔｈ　Ｑｉｎｘｉａｎ　Ｓｔｒｅｅｔ，Ｘｉａｏｄｉａｎ　Ｄｉｓｔｒｉｃｔ，Ｔａｉｙｕａｎ　Ｃｉｔｙ，Ｓｈａｎｘｉ　Ｐｒｏｖｉｎｃｅ，Ｐ．Ｒ．Ｃｈｉｎａ,,,,,,2024-09-19,1,,,,,タイユエンドンドウコージーヨウシエンゴンスー,0
1573,8010001248381,新規,0,2024-09-19,2024-09-19,株式会社Ｌａｎｄｇｏｌｄ,,株式会社,東京都,中央区,勝どき６丁目３番２－１３０４号,,13,102,1040054,,,,,,,2024-09-19,1,,,,,ランドゴールド,0
1576,8010003044928,新規,0,2024-09-19,2024-09-19,合同会社エスアイエー,,合同会社,東京都,千代田区,神田和泉町１番地５の６,,13,101,1010024,,,,,,,2024-09-19,1,,,,,エスアイエー,0
1577,8010003044936,新規,0,2024-09-19,2024-09-19,ＪＰＳＢ第１号合同会社,,合同会社,東京都,千代田区,霞が関３丁目２番１号,,13,101,1000013,,,,,,,2024-09-19,1,,,,,ジェイピーエスビーダイイチゴウ,0
1578,8010005038837,新規,0,2024-09-19,2024-09-19,一般社団法人日本病院ＤＸ推進協会,,その他の設立登記法人,東京都,千代田区,内神田１丁目３番９号ＫＴ－ＩＩビル４階,00136354,13,101,1010047,,,,,,,2024-09-19,1,,,,,ニホンビョウインディーエックススイシンキョウカイ,0
1591,8010705003677,新規,0,2024-09-19,2024-09-19,一般社団法人自転車競技推進協会,,その他の設立登記法人,東京都,品川区,上大崎３丁目３番１号自転車総合ビル５階,,13,109,1410021,,,,,,,2024-09-19,1,,,,,ジテンシャキョウギスイシンキョウカイ,0
1596,8010901056000,新規,0,2024-09-19,2024-09-19,株式会社岡祐介写真事務所,,株式会社,東京都,世田谷区,代沢１丁目５番３号,,13,112,1550032,,,,,,,2024-09-19,1,,,,,オカユウスケシャシンジムショ,0
1598,8010903009369,新規,0,2024-09-19,2024-09-19,Ｋｅｎ　Ｍａｒｉｔｉｍｅ　Ｏｆｆｉｃｅ合同会社,,合同会社,東京都,世田谷区,新町３丁目２－３－６０２,,13,112,1540014,,,,,,,2024-09-19,1,,,,,ケンマリタイムオフィス,0
1603,8011001164800,新規,0,2024-09-19,2024-09-19,平野建築計画株式会社,,株式会社,東京都,渋谷区,渋谷２丁目１９番１５号宮益坂ビルディング６０９,,13,113,1500002,,,,,,,2024-09-19,1,,,,,ヒラノケンチクケイカク,0
1608,8011301029991,新規,0,2024-09-19,2024-09-19,ナレッジコンサルタンシー株式会社,,株式会社,東京都,杉並区,上高井戸２丁目１３番１５号,,13,115,1680074,,,,,,,2024-09-19,1,,,,,,0
1610,8011401026435,新規,0,2024-09-19,2024-09-19,株式会社頤和,,株式会社,東京都,板橋区,大山東町３２番１８号ルイ・ステージ大山６０２,,13,119,1730014,,,,,,,2024-09-19,1,,,,,イワ,0
1612,8011801044862,新規,0,2024-09-19,2024-09-19,尚田株式会社,,株式会社,東京都,葛飾区,東金町３丁目１７－１０ＫＢＳＣ－３号,,13,122,1250041,,,,,,,2024-09-19,1,,,,,ナオダ,0
1627,8020001159215,新規,0,2024-09-19,2024-09-19,株式会社エーアンドエイチ設計,,株式会社,神奈川県,川崎市麻生区,百合丘１丁目１６番地１２,,14,137,2150011,,,,,,,2024-09-19,1,,,,,エーアンドエイチセッケイ,0
1628,8020001159264,新規,0,2024-09-19,2024-09-19,株式会社Ｌａｐｌａｃｅ,,株式会社,神奈川県,横浜市港南区,笹下４丁目１０番２０号,,14,111,2340052,,,,,,,2024-09-19,1,,,,,ラプラス,0
1629,8020001159280,新規,0,2024-09-19,2024-09-19,株式会社アイリス,,株式会社,神奈川県,横浜市中区,野毛町３丁目１３３番地１３三幸ビル２０２号室,,14,104,2310064,,,,,,,2024-09-19,1,,,,,アイリス,0
1630,8020001159297,新規,0,2024-09-19,2024-09-19,湘南豆腐株式会社,,株式会社,神奈川県,横浜市西区,戸部町６丁目２１２番地,,14,103,2200042,,,,,,,2024-09-19,1,,,,,ショウナントウフ,0
1633,8020003026925,新規,0,2024-09-19,2024-09-19,合同会社ＫＴ,,合同会社,神奈川県,川崎市高津区,下作延７丁目１１番３２号エステート平瀬２０１,,14,134,2130033,,,,,,,2024-09-19,1,,,,,ケーティー,0
1640,8021005013184,新規,0,2024-09-19,2024-09-19,一般社団法人グレイス・シード,,その他の設立登記法人,神奈川県,茅ヶ崎市,共恵２丁目７番５号,,14,207,2530056,,,,,,,2024-09-19,1,,,,,グレイスシード,0
1646,8030003025133,新規,0,2024-09-19,2024-09-19,ＸＡ合同会社,,合同会社,埼玉県,草加市,青柳３丁目２１番１９号,,11,221,3400002,,,,,,,2024-09-19,1,,,,,エックスエー,0
1658,8050003008680,新規,0,2024-09-19,2024-09-19,清総業合同会社,,合同会社,茨城県,笠間市,大田町２０８－１６,,08,216,3091738,,,,,,,2024-09-19,1,,,,,キヨシソウギョウ,0
1659,8050005013489,新規,0,2024-09-19,2024-09-19,特定非営利活動法人ＤＯＬＰＨＩＮ　ＣＯＭＰＡＧＮＯ　ＰＲＯＪＥＣＴ,,その他の設立登記法人,茨城県,笠間市,福島５１２番地３,,08,216,3190207,,,,,,,2024-09-19,1,,,,,ドルフィンコンパーニョプロジェクト,0
1670,8120001268609,新規,0,2024-09-19,2024-09-19,Ｄｉｇｉｓｐａｒｋ株式会社,,株式会社,大阪府,大阪市西成区,橘１丁目１１－２８オフィスポート橘５１５号室,,27,122,5570051,,,,,,,2024-09-19,1,,,,,デジスパーク,0
1671,8120001268641,新規,0,2024-09-19,2024-09-19,株式会社ユーシード,,株式会社,大阪府,大阪市西区,江之子島１丁目７番３号奥内阿波座駅前ビル２０３号,,27,106,5500006,,,,,,,2024-09-19,1,,,,,ユーシード,0
1672,8120001268666,新規,0,2024-09-19,2024-09-19,株式会社ＮＥＸＴ　ＬＡＮＤＯＯＲ,,株式会社,大阪府,大阪市北区,大淀南２丁目２番９－３０５号,,27,127,5310075,,,,,,,2024-09-19,1,,,,,ネクストランドア,0
1675,8120003027558,新規,0,2024-09-19,2024-09-19,オーラルマネジメントＣＲＥＡＴＥ合同会社,,合同会社,大阪府,大阪市東住吉区,南田辺５丁目２８番２７号,,27,121,5460033,,,,,,,2024-09-19,1,,,,,オーラルマネジメントクリエイト,0
1676,8120005024537,新規,0,2024-09-19,2024-09-19,一般社団法人少年ＰＲＯＪＥＣＴ,,その他の設立登記法人,大阪府,大阪市北区,梅田１丁目２番２号大阪駅前第２ビル１２－１２,,27,127,5300001,,,,,,,2024-09-19,1,,,,,ショウネンプロジェクト,0
1679,8120101070253,新規,0,2024-09-19,2024-09-19,ＦＩＺ　ＧＬＯＢＡＬ株式会社,,株式会社,大阪府,大阪狭山市,池尻中２丁目２番１０号,,27,231,5890007,,,,,,,2024-09-19,1,,,,,フィズグローバル,0
1681,8120901049777,新規,0,2024-09-19,2024-09-19,株式会社ＱＵＥＥＮＳ＆ＣＯ．,,株式会社,大阪府,高槻市,城北町２丁目６番１９号,,27,207,5690071,,,,,,,2024-09-19,1,,,,,クイーンズアンドコー,0
1684,8122003003002,新規,0,2024-09-19,2024-09-19,合同会社サクセス,,合同会社,大阪府,東大阪市,下六万寺町３丁目４番６号,,27,227,5798066,,,,,,,2024-09-19,1,,,,,サクセス,0
1689,8140001135807,新規,0,2024-09-19,2024-09-19,Ｏｐａｌ株式会社,,株式会社,兵庫県,尼崎市,昭和通１丁目１１番１２号大幸ビル１Ｆ,,28,202,6600881,,,,,,,2024-09-19,1,,,,,オパール,0
1690,8140001135815,新規,0,2024-09-19,2024-09-19,ＫＡＮＥＫＯ株式会社,,株式会社,兵庫県,神戸市中央区,磯上通４丁目１番３２号ロイヤル磯上２０９号室,,28,110,6510086,,,,,,,2024-09-19,1,,,,,カネコ,0
1695,8140003021096,新規,0,2024-09-19,2024-09-19,合同会社ダイニチ,,合同会社,兵庫県,西宮市,甲子園口３丁目４番２０号ヌーベル甲子園口３階Ｍ号,,28,204,6638113,,,,,,,2024-09-19,1,,,,,ダイニチ,0
1708,8180001163267,新規,0,2024-09-19,2024-09-19,株式会社ビーズ,,株式会社,愛知県,大府市,横根町平地２８２番地,,23,223,4740011,,,,,,,2024-09-19,1,,,,,ビーズ,0
1709,8180001163300,新規,0,2024-09-19,2024-09-19,株式会社ａｌｏａｌｏ,,株式会社,愛知県,津島市,天王通り６丁目１番地ロクサンビル２０２,,23,208,4960807,,,,,,,2024-09-19,1,,,,,アロアロ,0
1714,8190001031654,新規,0,2024-09-19,2024-09-19,広発貿易株式会社,,株式会社,三重県,四日市市,海山道町１丁目１４２６‐１,,24,202,5100845,,,,,,,2024-09-19,1,,,,,コウハツボウエキ,0
1717,8200001042947,新規,0,2024-09-19,2024-09-19,株式会社ジェナイト,,株式会社,岐阜県,岐阜市,加納本石町３丁目７テイクオフビル３,,21,201,5008466,,,,,,,2024-09-19,1,,,,,ジェナイト,0
1724,8260001039467,新規,0,2024-09-19,2024-09-19,Ｉｎｆｉｎｉｔｙ　Ｔｒａｄｉｎｇ７８６株式会社,,株式会社,岡山県,倉敷市,児島塩生２３７８番地Ｂ棟,,33,202,7110934,,,,,,,2024-09-19,1,,,,,インフィニティトレーディングセブンエイトシックス,0
1725,8260003004898,新規,0,2024-09-19,2024-09-19,合同会社エスキャピタル２,,合同会社,岡山県,岡山市北区,西古松２丁目２６番１６号上杉第７ビル１０２号,,33,101,7000927,,,,,,,2024-09-19,1,,,,,エスキャピタルツー,0
1726,8270001009056,新規,0,2024-09-19,2024-09-19,株式会社えびす,,株式会社,鳥取県,境港市,渡町１２１６番地,,31,204,6840072,,,,,,,2024-09-19,1,,,,,エビス,0
1738,8330003010559,新規,0,2024-09-19,2024-09-19,合同会社グローバル清功,,合同会社,熊本県,荒尾市,増永２４３２番地,,43,204,8640032,,,,,,,2024-09-19,1,,,,,グローバルセイコウ,0
1744,8350001019187,新規,0,2024-09-19,2024-09-19,株式会社ＮＯＨＡ,,株式会社,宮崎県,宮崎市,江南３丁目４番１３号,,45,201,8800944,,,,,,,2024-09-19,1,,,,,ノハ,0
1745,8360001034169,新規,0,2024-09-19,2024-09-19,株式会社ゆるＦｉｔ,,株式会社,沖縄県,浦添市,牧港２丁目２５番３号ラ・カサ・デル・ソル３０１,,47,208,9012131,,,,,,,2024-09-19,1,,,,,ユルフィット,0
1763,8430003016802,新規,0,2024-09-19,2024-09-19,合同会社アグレダス,,合同会社,北海道,札幌市南区,南三十二条西８丁目１番２５号,,01,106,0050032,,,,,,,2024-09-19,1,,,,,アグレダス,0
1764,8460301005248,新規,0,2024-09-19,2024-09-19,株式会社フジヤ運送店,,株式会社,北海道,北見市,小泉４２２番地５,,01,208,0900001,,,,,,,2024-09-19,1,,,,,フジヤウンソウテン,0
1767,8500003003330,新規,0,2024-09-19,2024-09-19,合同会社Ｍ‐ｓｔｙｌｅ,,合同会社,愛媛県,喜多郡内子町,平岡甲４２４番地３,,38,422,7950303,,,,,,,2024-09-19,1,,,,,エムスタイル,0
1769,8700150127218,新規,0,2024-09-19,2024-09-19,Ｗｈｅｅｌｓ　Ｌｉｎｅ,,外国会社等,千葉県,八街市,八街い１３９番地１５,,12,230,2891143,スリランカ民主社会主義共和国、アクラナ、マルワナヒンナ、マタレロード、Ｎｏ．７１５／５,,,,,,2024-09-19,1,,,,,ウイールスライン,0
1770,8700150127226,新規,0,2024-09-19,2024-09-19,Ｅｂｉｎａ　Ａｕｔｏ　Ｍｏｔｏｒｓ,,外国会社等,千葉県,山武市,上横地３１７８番地２Ａ,,12,237,2891313,スリランカ民主社会主義共和国、キャンディ、アクラナ、マルワナヒンナ、Ｎｏ．６２７,,,,,,2024-09-19,1,,,,,エビナオートモータース,0
1771,8700150127234,新規,0,2024-09-19,2024-09-19,ＴａｉＹｕａｎＭａＮｕｏＤｏｕＳｈａｎｇＭａｏＹｏｕＸｉａｎＧｏｎｇＳｉ,,外国会社等,,,,,,,,Ｒｏｏｍ　１６１４，１６／Ｆ，Ｊｉｎｗｅｉ　Ｂｕｉｌｄｉｎｇ，Ｃｈａｎｇｚｈｉ　Ｒｏａｄ，Ｘｉａｏｄｉａｎ　Ｄｉｓｔｒｉｃｔ，Ｔａｉｙｕａｎ　Ｃｉｔｙ，Ｓｈａｎｘｉ　Ｐｒｏｖｉｎｃｅ，Ｃｈｉｎａ,,,,,,2024-09-19,1,,,,,タイユエンマーヌオドウシャンマオヨウシエンゴンスー,0
1778,9010001248273,新規,0,2024-09-19,2024-09-19,Ｋｒｅｓｔ株式会社,,株式会社,東京都,中央区,銀座１丁目１２－４Ｎ＆Ｅビル６Ｆ,,13,102,1040061,,,,,,,2024-09-19,1,,,,,クレスト,0
1779,9010001248389,新規,0,2024-09-19,2024-09-19,Ｐａｕｌ　Ｂａｓｉｃｓ株式会社,,株式会社,東京都,千代田区,西神田２丁目５番８号共和壱五番館,,13,101,1010065,,,,,,,2024-09-19,1,,,,,ポールベイシクス,0
1780,9010001248397,新規,0,2024-09-19,2024-09-19,Ｓｉｓｔｅｍａ　Ｉｎｖｅｓｔｍｅｎｔ　Ｔｅｃｈｎｏｌｏｇｉｅｓ株式会社,,株式会社,東京都,中央区,佃２丁目２番１０－３５０６号,,13,102,1040051,,,,,,,2024-09-19,1,,,,,システマインベストメントテクノロジーズ,0
1781,9010001248406,新規,0,2024-09-19,2024-09-19,株式会社ｂｅｓｔａｘ事業承継,,株式会社,東京都,中央区,日本橋堀留町１丁目１０番１号カクタビル２Ｆ,,13,102,1030012,,,,,,,2024-09-19,1,,,,,ベスタックスジギョウショウケイ,0
1785,9010003044935,新規,0,2024-09-19,2024-09-19,ＪＰＳＰＰＡ第２号合同会社,,合同会社,東京都,千代田区,霞が関３丁目２番１号,,13,101,1000013,,,,,,,2024-09-19,1,,,,,ジェイピーエスピーピーエーダイニゴウ,0
1786,9010003044943,新規,0,2024-09-19,2024-09-19,Ｓｏｎｇ　Ｂｉｄｃｏ合同会社,,合同会社,東京都,中央区,日本橋室町４丁目３番９号,,13,102,1030022,,,,,,,2024-09-19,1,,,,,ソンビドコ,0
1788,9010005038811,新規,0,2024-09-19,2024-09-19,一般社団法人ソイル,,その他の設立登記法人,東京都,千代田区,鍛冶町２丁目７番２号後藤ビル４階,,13,101,1010044,,,,,,,2024-09-19,1,,,,,ソイル,0
1796,9010401185232,新規,0,2024-09-19,2024-09-19,株式会社ＧＯＤ’Ｓ　ＣＨＩＬＤ,,株式会社,東京都,港区,六本木７丁目３番２４号,,13,103,1060032,,,,,,,2024-09-19,1,,,,,ゴッズチャイルド,0
1797,9010403033389,新規,0,2024-09-19,2024-09-19,ＥＭＡＲＩＮＯＪＡＰＡＮ合同会社,,合同会社,東京都,港区,北青山１丁目３番１号アールキューブ青山３階,,13,103,1070061,,,,,,,2024-09-19,1,,,,,エマリノジャパン,0
1799,9010501052927,新規,0,2024-09-19,2024-09-19,ＰＥイノベーション株式会社,,株式会社,東京都,台東区,浅草橋５丁目４番５号ハシモトビル５０１,,13,106,1110053,,,,,,,2024-09-19,1,,,,,ピーイーイノベーション,0
1802,9010703007349,新規,0,2024-09-19,2024-09-19,Ｙ＆Ｇ合同会社,,合同会社,東京都,品川区,上大崎３丁目１－２ブリリアタワーズ目黒ノースレジデンス３８０８号室,,13,109,1410021,,,,,,,2024-09-19,1,,,,,ワイアンドジー,0
1804,9010903009368,新規,0,2024-09-19,2024-09-19,合同会社ｉｒｏｋａｗａ,,合同会社,東京都,世田谷区,池尻４丁目１１番１－２０２号,,13,112,1540001,,,,,,,2024-09-19,1,,,,,イロカワ,0
1805,9010905004672,新規,0,2024-09-19,2024-09-19,税理士法人Ｔｒｉｐｌｅ　ＥＤＧＥ,,その他の設立登記法人,東京都,世田谷区,上野毛１丁目１８番２６号,,13,112,1580093,,,,,,,2024-09-19,1,,,,,トリプルエッジ,0
1812,9011001164691,新規,0,2024-09-19,2024-09-19,ＢＢマーケティング株式会社,,株式会社,東京都,目黒区,碑文谷１丁目２番１０－３１２号シーアイマンション碑文谷,,13,110,1520003,,,,,,,2024-09-19,1,,,,,ビービーマーケティング,0
1813,9011001164717,新規,0,2024-09-19,2024-09-19,株式会社ＣＳＢ,,株式会社,東京都,渋谷区,宇田川町６－２０ＰａｒｋＡｘｉｓ渋谷神南５０１号,,13,113,1500042,,,,,,,2024-09-19,1,,,,,シーエスビー,0
1814,9011001164725,新規,0,2024-09-19,2024-09-19,株式会社コンフォート＆デザイン,,株式会社,東京都,渋谷区,神宮前６丁目２３番４号桑野ビル２階,,13,113,1500001,,,,,,,2024-09-19,1,,,,,コンフォートアンドデザイン,0
1816,9011003020026,新規,0,2024-09-19,2024-09-19,合同会社タスケル,,合同会社,東京都,渋谷区,恵比寿西２丁目４番８号ウィンド恵比寿ビル８Ｆ,,13,113,1500021,,,,,,,2024-09-19,1,,,,,タスケル,0
1817,9011003020050,新規,0,2024-09-19,2024-09-19,合同会社エスガク,,合同会社,東京都,渋谷区,恵比寿１丁目３０番１４－５０２号,,13,113,1500013,,,,,,,2024-09-19,1,,,,,エスガク,0
1820,9011101108730,新規,0,2024-09-19,2024-09-19,株式会社ドバイ総合研究所,,株式会社,東京都,新宿区,新宿１丁目３６番２号新宿第七葉山ビル３階,,13,104,1600022,,,,,,,2024-09-19,1,,,,,ドバイソウゴウケンキュウショ,0
1821,9011103014943,新規,0,2024-09-19,2024-09-19,合同会社ｋｉｎｏｎ,,合同会社,東京都,新宿区,西新宿６丁目五番１号新宿アイランドタワー２Ｆ,,13,104,1600023,,,,,,,2024-09-19,1,,,,,キノン,0
1834,9012405005044,新規,0,2024-09-19,2024-09-19,一般社団法人調布ＬＧＢＴ＆アライの会,,その他の設立登記法人,東京都,調布市,深大寺北町４丁目１３番地５１,,13,208,1820011,,,,,,,2024-09-19,1,,,,,チョウフエルジービーティーアンドアライノカイ,0
1835,9013101009512,新規,0,2024-09-19,2024-09-19,株式会社Ａ　Ｍａｋｅｒ　Ｊａｐａｎ,,株式会社,東京都,あきる野市,山田５９７番地１４,,13,228,1900144,,,,,,,2024-09-19,1,,,,,エーメーカージャパン,0
1837,9013303007314,新規,0,2024-09-19,2024-09-19,ＡＮＡＮ合同会社,,合同会社,東京都,豊島区,東池袋２丁目６０番２１号フラッツ池袋１０４,,13,116,1700013,,,,,,,2024-09-19,1,,,,,アナン,0
1847,9020001159164,新規,0,2024-09-19,2024-09-19,株式会社ａ‐ｐｌｕｓ,,株式会社,神奈川県,横浜市港北区,綱島東３丁目９番１０号,,14,109,2230052,,,,,,,2024-09-19,1,,,,,エープラス,0
1848,9020001159288,新規,0,2024-09-19,2024-09-19,株式会社トキノバ,,株式会社,神奈川県,横浜市青葉区,田奈町７番地２３,,14,117,2270064,,,,,,,2024-09-19,1,,,,,トキノバ,0
1849,9020001159296,新規,0,2024-09-19,2024-09-19,株式会社温故起新,,株式会社,神奈川県,横浜市西区,戸部町６丁目２１２番地,,14,103,2200042,,,,,,,2024-09-19,1,,,,,オンコキシン,0
1854,9020003026908,新規,0,2024-09-19,2024-09-19,合同会社Ｄｕｆｆｌｙｅｒ,,合同会社,神奈川県,川崎市麻生区,多摩美１丁目２９番３号多摩美ハウス１０１,,14,137,2150002,,,,,,,2024-09-19,1,,,,,ダフライヤー,0
1855,9020003026940,新規,0,2024-09-19,2024-09-19,エヌアイディエスジャパン合同会社,,合同会社,神奈川県,横浜市磯子区,磯子台１９番２４号,,14,107,2350019,,,,,,,2024-09-19,1,,,,,エヌアイディエスジャパン,0
1865,9030001162547,新規,0,2024-09-19,2024-09-19,株式会社ケーティーエス,,株式会社,埼玉県,川口市,大字西立野７８７－２,,11,203,3330813,,,,,,,2024-09-19,1,,,,,ケーティーエス,0
1874,9040003025619,新規,0,2024-09-19,2024-09-19,合同会社Ｍ　ｐｒｏｓｐｅｒｉｔａｓ,,合同会社,千葉県,習志野市,屋敷３丁目１番４７号,,12,216,2750004,,,,,,,2024-09-19,1,,,,,エムプロスペリータス,0
1877,9050001055410,新規,0,2024-09-19,2024-09-19,株式会社茨城直販,,株式会社,茨城県,石岡市,東石岡４丁目７番１４号エルディム柴崎Ｂ１０１,,08,205,3150037,,,,,,,2024-09-19,1,,,,,イバラキチョクハン,0
1879,9050003008671,新規,0,2024-09-19,2024-09-19,合同会社Ｌｉｂｒａ,,合同会社,茨城県,日立市,南高野町１丁目３番１７号,,08,202,3191224,,,,,,,2024-09-19,1,,,,,リブラ,0
1896,9110001038714,新規,0,2024-09-19,2024-09-19,株式会社セネカ,,株式会社,新潟県,三条市,桜木町１２番３８号三条ものづくり学校,,15,204,9550844,,,,,,,2024-09-19,1,,,,,セネカ,0
1907,9120001268608,新規,0,2024-09-19,2024-09-19,合田株式会社,,株式会社,大阪府,大阪市西成区,橘１丁目１１番２８号オフィスポート橘５１４号室,,27,122,5570051,,,,,,,2024-09-19,1,,,,,ゴウダ,0
1908,9120001268632,新規,0,2024-09-19,2024-09-19,エルマー株式会社,,株式会社,大阪府,大阪市東成区,中本３丁目１５番１３－８０２号,,27,115,5370022,,,,,,,2024-09-19,1,,,,,エルマー,0
1909,9120001268640,新規,0,2024-09-19,2024-09-19,株式会社ＳＥＮＰＯＵ,,株式会社,大阪府,大阪市北区,梅田１丁目１番３号大阪駅前第３ビル２９階１－１－１号室,,27,127,5300001,,,,,,,2024-09-19,1,,,,,センポウ,0
1910,9120001268673,新規,0,2024-09-19,2024-09-19,株式会社ＰＬＡＮＴ,,株式会社,大阪府,大阪市西成区,花園北１丁目４番１７号メゾン花園北パートＩ,00136348,27,122,5570016,,,,,,,2024-09-19,1,,,,,プラント,0
1915,9120005024536,新規,0,2024-09-19,2024-09-19,協同組合つばめインターナショナル,,その他の設立登記法人,大阪府,大阪市西区,立売堀４丁目６番２０号,,27,106,5500012,,,,,,,2024-09-19,1,,,,,ツバメインターナショナル,0
1929,9140001135780,新規,0,2024-09-19,2024-09-19,株式会社Ｋａｔ,,株式会社,兵庫県,尼崎市,塚口本町７丁目８番７号,,28,202,6610001,,,,,,,2024-09-19,1,,,,,ケイエイティー,0
1932,9180001163299,新規,0,2024-09-19,2024-09-19,蘇信株式会社,,株式会社,愛知県,名古屋市東区,東桜２丁目３番７号東カン名古屋キャステール４１２室,,23,102,4610005,,,,,,,2024-09-19,1,,,,,ソシン,0
1937,9180003027378,新規,0,2024-09-19,2024-09-19,合同会社かんがえ,,合同会社,愛知県,名古屋市昭和区,南分町１丁目３６番地ファミール南分１０１,,23,107,4660849,,,,,,,2024-09-19,1,,,,,カンガエ,0
1939,9190001031645,新規,0,2024-09-19,2024-09-19,株式会社サイナジーリンクス,,株式会社,三重県,四日市市,大字泊村４１１３番地４,,24,202,5100894,,,,,,,2024-09-19,1,,,,,サイナジーリンクス,0
1952,9260003004897,新規,0,2024-09-19,2024-09-19,合同会社エスキャピタル１,,合同会社,岡山県,岡山市北区,西古松２丁目２６番１６号上杉第７ビル１０２号,,33,101,7000927,,,,,,,2024-09-19,1,,,,,エスキャピタルワン,0
1958,9290005019511,新規,0,2024-09-19,2024-09-19,一般社団法人タクティールＪＡＰＡＮ,,その他の設立登記法人,福岡県,太宰府市,青山２丁目２５番３号,,40,221,8180121,,,,,,,2024-09-19,1,,,,,タクティールジャパン,0
1961,9290803004846,新規,0,2024-09-19,2024-09-19,合同会社アルミ,,合同会社,福岡県,北九州市小倉北区,中井口７番１３号中井口ビル１０６,,40,106,8030837,,,,,,,2024-09-19,1,,,,,アルミ,0
1964,9320001020717,新規,0,2024-09-19,2024-09-19,株式会社イノウエ電通,,株式会社,大分県,大分市,大字田尻４８８番地の２サクセスハウス１０２,,44,201,8701143,,,,,,,2024-09-19,1,,,,,イノウエデンツウ,0
1978,9400001016789,新規,0,2024-09-19,2024-09-19,株式会社ＳＴＯＣＫ,,株式会社,岩手県,奥州市,水沢字欠ノ下６１番地３,,03,215,0230021,,,,,,,2024-09-19,1,,,,,ストック,0
1983,9430003016792,新規,0,2024-09-19,2024-09-19,合同会社ｂａｃｋｃｏｕｎｔｒｙ　ｇｌｉｄｅ,,合同会社,北海道,磯谷郡蘭越町,字湯里１８２番地９,,01,394,0481321,,,,,,,2024-09-19,1,,,,,バックカントリーグライド,0
1987,9700150127175,新規,0,2024-09-19,2024-09-19,ＳＵＮ　ＥＭＰＩＲＥ　ＤＥＶＥＬＯＰＭＥＮＴ（ＳＩＮＧＡＰＯＲＥ）ＰＴＥ．ＬＴＤ．,,外国会社等,,,,,,,,１１２　ＲＯＢＩＮＳＯＮ　ＲＯＡＤ　＃０３－０１　ＲＯＢＩＮＳＯＮ　１１２　Ｓｉｎｇａｐｏｒｅ,,,,,,2024-09-19,1,,,,,サンエンパイアデイベロツプメントピーテイイーリミテツド,0
1988,9700150127209,新規,0,2024-09-19,2024-09-19,ＡＵＴＯＭＯＢＥＸ,,外国会社等,千葉県,富里市,立沢新田６１番地３７オフィス３,,12,233,2860215,スリランカ民主社会主義共和国、キャンディ、カトゥガストタロード、Ｎｏ．２８３／Ａ／３,,,,,,2024-09-19,1,,,,,オートモベツクス,0
1989,9700150127217,新規,0,2024-09-19,2024-09-19,ＬＵＣＫＹ　ＭＯＴＯＲＳ,,外国会社等,千葉県,八街市,砂５５番地９オフィスＣ,,12,230,2891121,スリランカ民主社会主義共和国、キャンディ、カトゥガストタ、マダワラバザール、Ｎｏ．１９０／１,,,,,,2024-09-19,1,,,,,ラツキーモータース,0
1990,9700150127225,新規,0,2024-09-19,2024-09-19,Ｃ＆Ｇ　ＥＮＴＥＲＰＲＩＳＥＳ,,外国会社等,千葉県,山武市,上横地３１７８番地３Ａ,,12,237,2891313,スリランカ民主社会主義共和国、ワリヤポラ、プッタラムロード、Ｎｏ．６６／１,,,,,,2024-09-19,1,,,,,シーアンドジーエンタープライズ,0
1991,9700150127233,新規,0,2024-09-19,2024-09-19,亡門坂好高相続財産法人,,その他,山梨県,甲府市,丸の内１丁目１６番１０号トラストワンビル１９　３－Ｂ,,19,201,4000031,,,,,,,2024-09-19,1,,,,,ナキカドサカヨシタカソウゾクザイサンホウジン,0
