sequenceNumber,corporateNumber,process,correct,updateDate,changeDate,name,nameImageId,kind,prefectureName,cityName,streetNumber,addressImageId,prefectureCode,cityCode,postCode,addressOutside,addressOutsideImageId,closeDate,closeCause,successorCorporateNumber,changeCause,assignmentDate,latest,enName,enPrefectureName,enCityName,enAddressOutside,furigana,hihyoji
26,1010001249865,新規,0,2024-11-15,2024-11-15,株式会社ファミリーアセットコンサルティング,,株式会社,東京都,中央区,銀座６丁目１０番１号,,13,102,1040061,,,,,,,2024-11-15,1,,,,,ファミリーアセットコンサルティング,0
27,1010001249898,新規,0,2024-11-15,2024-11-15,株式会社ＡＣ　Ｓｅｃｏｎｄ,,株式会社,東京都,千代田区,麹町３丁目５番地２,,13,101,1020083,,,,,,,2024-11-15,1,,,,,エーシーセカンド,0
28,1010001249907,新規,0,2024-11-15,2024-11-15,株式会社ウイニングウェイエンタープライズ,,株式会社,東京都,中央区,銀座１丁目１２番４号Ｎ＆ＥＢＬＤ６Ｆ,,13,102,1040061,,,,,,,2024-11-15,1,,,,,ウイニングウェイエンタープライズ,0
29,1010001249931,新規,0,2024-11-15,2024-11-15,株式会社アーミーネオン,,株式会社,東京都,中央区,日本橋室町１丁目１１番１２号日本橋水野ビル７階,,13,102,1030022,,,,,,,2024-11-15,1,,,,,アーミーネオン,0
30,1010001249989,新規,0,2024-11-15,2024-11-15,ＳＮＯＫ株式会社,,株式会社,東京都,千代田区,神田三崎町２丁目１０－１１（Ｐｅｇビル）４Ａ－４号室,,13,101,1010061,,,,,,,2024-11-15,1,,,,,スノック,0
45,1010003045404,新規,0,2024-11-15,2024-11-15,合同会社Ｔｈｒｏｗｉｎｇ　Ｌａｂ．,,合同会社,東京都,中央区,銀座１丁目２２番１１号銀座大竹ビジデンス２Ｆ,,13,102,1040061,,,,,,,2024-11-15,1,,,,,スローウィングラボ,0
49,1010005039049,新規,0,2024-11-15,2024-11-15,特定非営利活動法人国際移植者組織トリオ・ジャパン,,その他の設立登記法人,東京都,中央区,八丁堀２丁目２９番５号日興パレス八重洲６０２,,13,102,1040032,,,,,,,2024-11-15,1,,,,,トリオジャパン,0
50,1010005039098,新規,0,2024-11-15,2024-11-15,ＡＡＪ　Ｇ特定目的会社,,その他の設立登記法人,東京都,千代田区,霞が関３丁目２番５号,,13,101,1000013,,,,,,,2024-11-15,1,,,,,エーエージェージー,0
51,1010103002453,新規,0,2024-11-15,2024-11-15,合同会社ネパネットジャパン,,合同会社,東京都,八王子市,緑町２９番地１０２号室,,13,201,1930932,,,,,,,2024-11-15,1,,,,,ネパネットジャパン,0
64,1010401186428,新規,0,2024-11-15,2024-11-15,ｉＸＩ株式会社,,株式会社,東京都,港区,新橋３丁目９番１０号天翔新橋ビル６０７号,,13,103,1050004,,,,,,,2024-11-15,1,,,,,インタートランスフォーメーションインテレクチュアル,0
65,1010401186444,新規,0,2024-11-15,2024-11-15,ＡＥＯＮ　ＳＰＡＣＥ株式会社,,株式会社,東京都,港区,赤坂２丁目２３番１号アークヒルズ・フロントタワーＩｎＣｏｎｔｒｏｌ内,,13,103,1070052,,,,,,,2024-11-15,1,,,,,イオンスペース,0
66,1010401186469,新規,0,2024-11-15,2024-11-15,株式会社ｎｅｘｔ‐ｉｎｎｏｖａｔｉｏｎ,,株式会社,東京都,港区,六本木４丁目３番１１号六本木ユニハウス２２３,,13,103,1060032,,,,,,,2024-11-15,1,,,,,ネクストイノベーション,0
71,1010403033792,新規,0,2024-11-15,2024-11-15,合同会社フリスティエンターテインメント,,合同会社,東京都,港区,浜松町２丁目２番１５号浜松町ダイヤビル２Ｆ,,13,103,1050013,,,,,,,2024-11-15,1,,,,,フリスティエンターテインメント,0
73,1010405023791,新規,0,2024-11-15,2024-11-15,赤坂インベストメンツ特定目的会社,,その他の設立登記法人,東京都,港区,六本木１丁目６番１号泉ガーデンタワー,,13,103,1060032,,,,,,,2024-11-15,1,,,,,アカサカインベストメンツ,0
84,1011001164930,新規,0,2024-11-15,2024-11-15,ＡｓｕＮａｒｏ　ｉｎｖｅｓｔｍｅｎｔ株式会社,,株式会社,東京都,目黒区,五本木１丁目２６番１２号,,13,110,1530053,,,,,,,2024-11-15,1,,,,,アスナロインベストメント,0
85,1011001165912,新規,0,2024-11-15,2024-11-15,株式会社ＢＥＡＴ,,株式会社,東京都,目黒区,中目黒３丁目５番２８－３０４号,,13,110,1530061,,,,,,,2024-11-15,1,,,,,ビート,0
86,1011001165945,新規,0,2024-11-15,2024-11-15,Ｙｏｕｒ　Ｆｉｓｈｉｎｇ　Ｂａｓｅ株式会社,,株式会社,東京都,渋谷区,桜丘町２６番１号セルリアンタワー１５階,,13,113,1500031,,,,,,,2024-11-15,1,,,,,ユアフィッシングベース,0
87,1011003020363,新規,0,2024-11-15,2024-11-15,合同会社Ｆｏｒ　Ｅａｒｔｈ　Ｊａｐａｎ,,合同会社,東京都,渋谷区,渋谷２丁目１９－１５宮益坂ビルディング６０９,,13,113,1500002,,,,,,,2024-11-15,1,,,,,フォーアースジャパン,0
88,1011003020462,新規,0,2024-11-15,2024-11-15,Ｔａｂｕｌａｒ合同会社,,合同会社,東京都,渋谷区,渋谷２丁目１９‐１５宮益坂ビルディング６０９,,13,113,1500002,,,,,,,2024-11-15,1,,,,,タビュラー,0
90,1011101109579,新規,0,2024-11-15,2024-11-15,株式会社ＡＢＨＭ,,株式会社,東京都,新宿区,新宿１丁目３６番２号新宿第七葉山ビル３Ｆ,,13,104,1600022,,,,,,,2024-11-15,1,,,,,エービーエイチエム,0
95,1011201025932,新規,0,2024-11-15,2024-11-15,株式会社ＪｉＧＳＡＷ,,株式会社,東京都,中野区,弥生町２丁目４９－５ザ・パークハビオ１４０７号室,,13,114,1640013,,,,,,,2024-11-15,1,,,,,ジグソウ,0
97,1011301030163,新規,0,2024-11-15,2024-11-15,株式会社Ｌｕａｎａ,,株式会社,東京都,杉並区,方南２丁目１０番１４号,,13,115,1680062,,,,,,,2024-11-15,1,,,,,ルアナ,0
105,1011801045140,新規,0,2024-11-15,2024-11-15,ベルティシー株式会社,,株式会社,東京都,葛飾区,お花茶屋３丁目２番１４号,,13,122,1240003,,,,,,,2024-11-15,1,,,,,ベルティシー,0
106,1011801045157,新規,0,2024-11-15,2024-11-15,株式会社スペルカード,,株式会社,東京都,葛飾区,新小岩３丁目１９番３０号,,13,122,1240024,,,,,,,2024-11-15,1,,,,,スペルカード,0
107,1011801045165,新規,0,2024-11-15,2024-11-15,株式会社Ｙ’ｓＴＲＵＳＴＥＱ,,株式会社,東京都,葛飾区,柴又５丁目２６番２１号,,13,122,1250052,,,,,,,2024-11-15,1,,,,,ワイズトラステック,0
110,1012403006794,新規,0,2024-11-15,2024-11-15,合同会社Ｋｏｒｅａｎ　ｃｌｏｔｈｉｎｇ,,合同会社,東京都,小金井市,本町１丁目６－１７,,13,210,1840004,,,,,,,2024-11-15,1,,,,,コリアンクロジング,0
111,1012701018558,新規,0,2024-11-15,2024-11-15,株式会社田無開発,,株式会社,東京都,西東京市,南町４丁目１５番４号,,13,229,1880012,,,,,,,2024-11-15,1,,,,,タナシカイハツ,0
119,1020001160063,新規,0,2024-11-15,2024-11-15,株式会社ＳＣ,,株式会社,神奈川県,川崎市宮前区,有馬４丁目４番２３－４０３号,,14,136,2160003,,,,,,,2024-11-15,1,,,,,エスシー,0
122,1020003027236,新規,0,2024-11-15,2024-11-15,ＦＵＪＩＭＯＲＩ合同会社,,合同会社,神奈川県,横浜市神奈川区,大野町１－８,,14,102,2210055,,,,,,,2024-11-15,1,,,,,フジモリ,0
128,1030001163429,新規,0,2024-11-15,2024-11-15,株式会社クレッシェンドＫＨ,,株式会社,埼玉県,さいたま市西区,三橋６丁目７７３番地９,,11,101,3310052,,,,,,,2024-11-15,1,,,,,クレッシェンドケイエイチ,0
129,1030001163437,新規,0,2024-11-15,2024-11-15,株式会社カワハラダホールディングス,,株式会社,埼玉県,川口市,戸塚２丁目１番１－１８０８号レーベン東川口ＧＲＡＮＤＥＳＴ,,11,203,3330811,,,,,,,2024-11-15,1,,,,,カワハラダホールディングス,0
130,1030001163445,新規,0,2024-11-15,2024-11-15,株式会社カガワ,,株式会社,埼玉県,蕨市,南町１丁目２７番１号,,11,223,3350003,,,,,,,2024-11-15,1,,,,,カガワ,0
131,1030001163453,新規,0,2024-11-15,2024-11-15,株式会社共栄,,株式会社,埼玉県,所沢市,大字城９３９－６,,11,208,3590013,,,,,,,2024-11-15,1,,,,,キョウエイ,0
135,1030003025478,新規,0,2024-11-15,2024-11-15,合同会社マルエニット,,合同会社,埼玉県,久喜市,菖蒲町三箇８６２番地２,,11,232,3460104,,,,,,,2024-11-15,1,,,,,マルエニット,0
138,1040001136169,新規,0,2024-11-15,2024-11-15,株式会社善創,,株式会社,千葉県,流山市,駒木台３４０番地の７２,,12,220,2700113,,,,,,,2024-11-15,1,,,,,ゼンソウ,0
145,1040003026203,新規,0,2024-11-15,2024-11-15,合同会社ＥＣＯ　ＬＩＦＥ,,合同会社,千葉県,香取郡多古町,次浦１９６７番地７,,12,347,2892313,,,,,,,2024-11-15,1,,,,,エコライフ,0
147,1050001055715,新規,0,2024-11-15,2024-11-15,遊び心を忘れない株式会社,,株式会社,茨城県,水戸市,千波町２３０６番地の３,,08,201,3100851,,,,,,,2024-11-15,1,,,,,アソビゴコロヲワスレナイ,0
148,1050001055731,新規,0,2024-11-15,2024-11-15,株式会社ＯＲＩＧＡＭｉ,,株式会社,茨城県,水戸市,南町１丁目２番２３号,,08,201,3100021,,,,,,,2024-11-15,1,,,,,オリガミ,0
149,1050003008803,新規,0,2024-11-15,2024-11-15,Ｐａｌｅｔｔｅ　Ｓｅｅｄ合同会社,,合同会社,茨城県,日立市,本宮町２丁目６番６号,,08,202,3170054,,,,,,,2024-11-15,1,,,,,パレットシード,0
150,1060001037654,新規,0,2024-11-15,2024-11-15,株式会社ＮＸＳ,,株式会社,栃木県,宇都宮市,古賀志町５２８－２,,09,201,3210341,,,,,,,2024-11-15,1,,,,,ネクサス,0
151,1060003005329,新規,0,2024-11-15,2024-11-15,ＱＡＳＩＭ　ＴＲＡＤＩＮＧ合同会社,,合同会社,栃木県,小山市,大字犬塚５１番地１１７,,09,208,3230811,,,,,,,2024-11-15,1,,,,,カシムトレーディング,0
152,1060005010269,新規,0,2024-11-15,2024-11-15,農事組合法人川崎農場,00137018,その他の設立登記法人,栃木県,宇都宮市,西川田本町４丁目１番１３号新宿コーポ２０２,,09,201,3210158,,,,,,,2024-11-15,1,,,,,,0
155,1070001042364,新規,0,2024-11-15,2024-11-15,ガレージシャイン株式会社,,株式会社,群馬県,北群馬郡吉岡町,大字上野田１３２９番地３２２,,10,345,3703606,,,,,,,2024-11-15,1,,,,,ガレージシャイン,0
156,1070001042372,新規,0,2024-11-15,2024-11-15,株式会社テクノリンク,,株式会社,群馬県,前橋市,亀里町１２５０番地１０,,10,201,3792147,,,,,,,2024-11-15,1,,,,,テクノリンク,0
158,1070003005666,新規,0,2024-11-15,2024-11-15,合同会社トーホー,,合同会社,群馬県,太田市,天良町８１,,10,205,3730051,,,,,,,2024-11-15,1,,,,,トーホー,0
167,1100001038029,新規,0,2024-11-15,2024-11-15,株式会社庄助,,株式会社,長野県,長野市,大字安茂里１７７３番地１貸店舗２号,,20,201,3800941,,,,,,,2024-11-15,1,,,,,ショウスケ,0
168,1110001038837,新規,0,2024-11-15,2024-11-15,株式会社ヨヘイ,,株式会社,新潟県,三条市,荒町１丁目１３番３４号,,15,204,9550083,,,,,,,2024-11-15,1,,,,,ヨヘイ,0
171,1120001270232,新規,0,2024-11-15,2024-11-15,株式会社フォーカス,,株式会社,大阪府,大阪市中央区,本町橋２番２３号,,27,128,5400029,,,,,,,2024-11-15,1,,,,,フォーカス,0
172,1120001270273,新規,0,2024-11-15,2024-11-15,株式会社ＡｎｔｅＢｌｏＣｋｓ,,株式会社,大阪府,大阪市北区,西天満２丁目１１番８号アメリカンビル５階,,27,127,5300047,,,,,,,2024-11-15,1,,,,,アンテブロックス,0
173,1120001270281,新規,0,2024-11-15,2024-11-15,株式会社イッツ,,株式会社,大阪府,大阪市中央区,上町１丁目２１番１６号,,27,128,5400005,,,,,,,2024-11-15,1,,,,,イッツ,0
174,1120001270307,新規,0,2024-11-15,2024-11-15,株式会社ブルーオーシャンズ,,株式会社,大阪府,大阪市中央区,南船場１丁目１１番９号長堀安田ビル６階,,27,128,5420081,,,,,,,2024-11-15,1,,,,,ブルーオーシャンズ,0
175,1120001270315,新規,0,2024-11-15,2024-11-15,嘉禄株式会社,,株式会社,大阪府,大阪市東淀川区,西淡路５丁目１番１号２階２０４－１１号室,,27,114,5330031,,,,,,,2024-11-15,1,,,,,カロク,0
176,1120001270323,新規,0,2024-11-15,2024-11-15,溢品株式会社,,株式会社,大阪府,大阪市阿倍野区,昭和町２丁目１０番６号１０１号室,,27,119,5450011,,,,,,,2024-11-15,1,,,,,イツピン,0
177,1120001270331,新規,0,2024-11-15,2024-11-15,晨熙株式会社,,株式会社,大阪府,大阪市西淀川区,姫里１丁目２１番７号ロマネスク姫島４０６号室,,27,113,5550025,,,,,,,2024-11-15,1,,,,,シンキ,0
179,1120003027944,新規,0,2024-11-15,2024-11-15,ＱＵＹＴ　ＱＵＹＴ合同会社,,合同会社,大阪府,大阪市東成区,神路１丁目１２番２２号マジュールメゾン６０５号,,27,115,5370003,,,,,,,2024-11-15,1,,,,,クイックイッ,0
182,1120901050031,新規,0,2024-11-15,2024-11-15,株式会社ドントシンク,,株式会社,大阪府,吹田市,山田西１丁目２２－Ａ５－２０４,,27,205,5650824,,,,,,,2024-11-15,1,,,,,ドントシンク,0
191,1140001136423,新規,0,2024-11-15,2024-11-15,株式会社ＴＯＭ,,株式会社,兵庫県,神戸市長田区,御蔵通７丁目３６,,28,106,6530014,,,,,,,2024-11-15,1,,,,,トム,0
192,1140001136431,新規,0,2024-11-15,2024-11-15,株式会社００,,株式会社,兵庫県,神戸市中央区,下山手通８丁目７番２２号,,28,110,6500011,,,,,,,2024-11-15,1,,,,,マルマル,0
194,1140003021326,新規,0,2024-11-15,2024-11-15,合同会社ｔｏｍｏ,,合同会社,兵庫県,尼崎市,武庫之荘６丁目２０－１３,,28,202,6610035,,,,,,,2024-11-15,1,,,,,トモ,0
202,1180001164214,新規,0,2024-11-15,2024-11-15,株式会社アースコンサルティング,,株式会社,愛知県,名古屋市西区,城西４丁目２８番１８号清光ビル弁天４Ｆ,,23,104,4510031,,,,,,,2024-11-15,1,,,,,アースコンサルティング,0
209,1180005020834,新規,0,2024-11-15,2024-11-15,一般社団法人結いの会,,その他の設立登記法人,愛知県,名古屋市東区,泉１丁目１９番８号,,23,102,4610001,,,,,,,2024-11-15,1,,,,,ユイノカイ,0
217,1200003006584,新規,0,2024-11-15,2024-11-15,合同会社楠田商会,,合同会社,岐阜県,瑞穂市,祖父江１４４－５,,21,216,5010225,,,,,,,2024-11-15,1,,,,,クスダショウカイ,0
223,1220001026302,新規,0,2024-11-15,2024-11-15,株式会社バンタンプロモーションズ,,株式会社,石川県,金沢市,涌波３丁目５番５７号（赤坂タウンヒル・１Ｅ号）,,17,201,9200953,,,,,,,2024-11-15,1,,,,,バンタンプロモーションズ,0
224,1220001026335,新規,0,2024-11-15,2024-11-15,株式会社グローバルネスト,,株式会社,石川県,金沢市,太陽が丘第７工区２１街区６番地,,17,201,9200000,,,,,,,2024-11-15,1,,,,,グローバルネスト,0
227,1230003002333,新規,0,2024-11-15,2024-11-15,合同会社Ｈａｃｃｉ,,合同会社,富山県,富山市,今泉西部町２‐７,,16,201,9398281,,,,,,,2024-11-15,1,,,,,,0
230,1240001064127,新規,0,2024-11-15,2024-11-15,サンデザイン株式会社,,株式会社,広島県,廿日市市,宮島口上２丁目２０番１号,,34,213,7390413,,,,,,,2024-11-15,1,,,,,サンデザイン,0
232,1250001020896,新規,0,2024-11-15,2024-11-15,株式会社宮崎,00137013,株式会社,山口県,下関市,長府安養寺１丁目１５番１３号,,35,201,7520962,,,,,,,2024-11-15,1,,,,,ミヤザキ,0
233,1250003003593,新規,0,2024-11-15,2024-11-15,合同会社優希,,合同会社,山口県,山陽小野田市,大字小野田１１４３２番地６,,35,216,7560817,,,,,,,2024-11-15,1,,,,,ユウキ,0
236,1260005011420,新規,0,2024-11-15,2024-11-15,一般社団法人みまさか観光局,,その他の設立登記法人,岡山県,美作市,栄町３８番地２,,33,215,7070025,,,,,,,2024-11-15,1,,,,,ミマサカカンコウキョク,0
243,1290001107913,新規,0,2024-11-15,2024-11-15,株式会社Ｋｅｉ‐ｋａ,,株式会社,福岡県,福岡市南区,長丘３丁目３－６－１０１,,40,134,8150075,,,,,,,2024-11-15,1,,,,,ケイカ,0
244,1290001107921,新規,0,2024-11-15,2024-11-15,株式会社Ａｐｅ　Ｆｏｒｔｅ,,株式会社,福岡県,福岡市中央区,天神４丁目６－２８天神ファーストビル７階,,40,133,8100001,,,,,,,2024-11-15,1,,,,,アーペフォルテ,0
245,1290001107938,新規,0,2024-11-15,2024-11-15,株式会社ｉ‐Ｔｅｃｈ,,株式会社,福岡県,福岡市南区,向野２丁目１９－１８アジアンパーク・ストリート２０５,,40,134,8150035,,,,,,,2024-11-15,1,,,,,,0
246,1290001107946,新規,0,2024-11-15,2024-11-15,株式会社アルバリ,,株式会社,福岡県,福岡市東区,三苫１丁目１４－８パークヴィラ１０１,,40,131,8110201,,,,,,,2024-11-15,1,,,,,アルバリ,0
247,1290001107970,新規,0,2024-11-15,2024-11-15,Ｒｅｓｐｅｃ株式会社,,株式会社,福岡県,福岡市西区,下山門２丁目２０－３－３０５,,40,135,8190052,,,,,,,2024-11-15,1,,,,,リスペック,0
250,1290003016055,新規,0,2024-11-15,2024-11-15,合同会社かなた,,合同会社,福岡県,福岡市西区,今宿駅前１丁目１７番２２号,,40,135,8190168,,,,,,,2024-11-15,1,,,,,カナタ,0
258,1330003010631,新規,0,2024-11-15,2024-11-15,合同会社ざ・ぷりんぷりん,,合同会社,熊本県,熊本市中央区,新屋敷２丁目２０番３１号,,43,101,8620975,,,,,,,2024-11-15,1,,,,,ザプリンプリン,0
265,1370001051938,新規,0,2024-11-15,2024-11-15,株式会社ＡＫＤｙ,,株式会社,宮城県,仙台市宮城野区,榴岡４丁目１３－１３カボウ社ビル２０２号室,,04,102,9830852,,,,,,,2024-11-15,1,,,,,エーケーディ,0
266,1370003006824,新規,0,2024-11-15,2024-11-15,合同会社ｉｗｏｒｋｓ,,合同会社,宮城県,柴田郡柴田町,剣崎２丁目４－９,,04,323,9891608,,,,,,,2024-11-15,1,,,,,アイワークス,0
276,1410003004006,新規,0,2024-11-15,2024-11-15,合同会社Ｈ＆Ｃｃａｒａｖａｎ,,合同会社,秋田県,能代市,二ツ井町飛根字羽立９５番地１,,05,202,0183122,,,,,,,2024-11-15,1,,,,,エイチアンドシーキャラバン,0
279,1420003003023,新規,0,2024-11-15,2024-11-15,合同会社Ｂｏｂ．Ｈｅｌｅｎ．,,合同会社,青森県,上北郡野辺地町,字寺ノ沢３２番地１,,02,401,0393118,,,,,,,2024-11-15,1,,,,,ボブヘレン,0
317,2010001249848,新規,0,2024-11-15,2024-11-15,株式会社半蔵門総合企画研究所,,株式会社,東京都,千代田区,平河町１丁目８番２号山京半蔵門パレス,,13,101,1020093,,,,,,,2024-11-15,1,,,,,ハンゾウモンソウゴウキカクケンキュウジョ,0
318,2010001249872,新規,0,2024-11-15,2024-11-15,ＢＯＮ　ＴＯＫＹＯ株式会社,,株式会社,東京都,中央区,銀座１丁目１２番４号Ｎ＆ＥＢＬＤ．７階,,13,102,1040061,,,,,,,2024-11-15,1,,,,,ボントーキョー,0
319,2010001249897,新規,0,2024-11-15,2024-11-15,株式会社Ｓ‐ＴＡＢＩ,,株式会社,東京都,千代田区,神田佐久間河岸７８号第二阿部ビル３階,,13,101,1010026,,,,,,,2024-11-15,1,,,,,エスタビ,0
320,2010001249906,新規,0,2024-11-15,2024-11-15,ＡＩＭ　Ｊａｐａｎ株式会社,,株式会社,東京都,中央区,日本橋堀留町１丁目３番１５号,,13,102,1030012,,,,,,,2024-11-15,1,,,,,エーアイエムジャパン,0
321,2010001249914,新規,0,2024-11-15,2024-11-15,株式会社カウントエイト,,株式会社,東京都,中央区,晴海２丁目３番２号,,13,102,1040053,,,,,,,2024-11-15,1,,,,,カウントエイト,0
322,2010001249947,新規,0,2024-11-15,2024-11-15,株式会社ＢＲＥＡＫＦＡＳＴ　ＭＥＥＴＩＮＧ,,株式会社,東京都,中央区,銀座１丁目２２番１１号銀座大竹ビジデンス２Ｆ,,13,102,1040061,,,,,,,2024-11-15,1,,,,,ブレックファーストミーティング,0
323,2010001249963,新規,0,2024-11-15,2024-11-15,株式会社Ｉｎｔｅｒｌｉｎｋ　Ｔｏｋｙｏ,,株式会社,東京都,千代田区,丸の内１丁目８番３号丸の内トラストタワー本館２０階,,13,101,1000005,,,,,,,2024-11-15,1,,,,,インターリンクトウキョウ,0
324,2010001249971,新規,0,2024-11-15,2024-11-15,株式会社Ｂｌｏｏｍｉｎｇ　Ｒａｃｉｎｇ,,株式会社,東京都,中央区,日本橋箱崎町３６番２号,,13,102,1030015,,,,,,,2024-11-15,1,,,,,ブルーミングレーシング,0
325,2010001249996,新規,0,2024-11-15,2024-11-15,株式会社ＥＬＡＲＡ,,株式会社,東京都,中央区,日本橋久松町１３番６－６０４号,,13,102,1030005,,,,,,,2024-11-15,1,,,,,エララ,0
338,2010003045403,新規,0,2024-11-15,2024-11-15,ＡＡＪ　Ｇ合同会社,,合同会社,東京都,千代田区,霞が関３丁目２番５号,,13,101,1000013,,,,,,,2024-11-15,1,,,,,エーエージェージー,0
339,2010003045452,新規,0,2024-11-15,2024-11-15,Ｗｉｔｈ　ＴＨＡＮＫＳ合同会社,,合同会社,東京都,中央区,日本橋２丁目１２－６,,13,102,1030027,,,,,,,2024-11-15,1,,,,,ウィズサンクス,0
340,2010003045460,新規,0,2024-11-15,2024-11-15,テックスターズ・ジャパン合同会社,,合同会社,東京都,中央区,日本橋１丁目４番１号日本橋一丁目三井ビルディング５階,,13,102,1030027,,,,,,,2024-11-15,1,,,,,テックスターズジャパン,0
341,2010003045477,新規,0,2024-11-15,2024-11-15,合同会社ライラ,,合同会社,東京都,中央区,銀座１丁目２２番１１号,,13,102,1040061,,,,,,,2024-11-15,1,,,,,ライラ,0
342,2010003045493,新規,0,2024-11-15,2024-11-15,合同会社Ｌｉｎｋ,,合同会社,東京都,中央区,銀座１丁目１２番４号Ｎ＆ＥＢＬＤ．６階,,13,102,1040061,,,,,,,2024-11-15,1,,,,,リンク,0
346,2010005039089,新規,0,2024-11-15,2024-11-15,一般社団法人赤坂ホテル,,その他の設立登記法人,東京都,中央区,銀座２丁目１０番８号マニエラ銀座ビル４階,,13,102,1040061,,,,,,,2024-11-15,1,,,,,アカサカホテル,0
347,2010005039097,新規,0,2024-11-15,2024-11-15,Ｒｉｖｕｌｅｔｓ　Ｇｉｎｚａ特定目的会社,,その他の設立登記法人,東京都,千代田区,霞が関３丁目２番５号,,13,101,1000013,,,,,,,2024-11-15,1,,,,,リビュレッツギンザ,0
357,2010401186195,新規,0,2024-11-15,2024-11-15,株式会社ＤＸＧ,,株式会社,東京都,港区,高輪３丁目１５番１３－２０８号,,13,103,1080074,,,,,,,2024-11-15,1,,,,,ディーエックスジー,0
358,2010401186245,新規,0,2024-11-15,2024-11-15,株式会社素粒子,,株式会社,東京都,港区,赤坂１丁目３番５号赤坂アビタシオン８Ｆ－８０６,,13,103,1070052,,,,,,,2024-11-15,1,,,,,ソリュウシ,0
359,2010401186419,新規,0,2024-11-15,2024-11-15,Ｌａｋｅｌｉｎｋ株式会社,,株式会社,東京都,港区,北青山２丁目７番２６号,,13,103,1070061,,,,,,,2024-11-15,1,,,,,レイクリンク,0
360,2010401186435,新規,0,2024-11-15,2024-11-15,ＺＥＲＯＯＮＥ株式会社,,株式会社,東京都,港区,浜松町２丁目２番１５号浜松町ダイヤビル２Ｆ,,13,103,1050013,,,,,,,2024-11-15,1,,,,,ゼロワン,0
363,2010403033783,新規,0,2024-11-15,2024-11-15,ＳＥＩＲＹＵ　ＪＡＰＡＮ合同会社,,合同会社,東京都,港区,三田３丁目１番２３号メザキビル３階,,13,103,1080073,,,,,,,2024-11-15,1,,,,,セイリュウジャパン,0
367,2010803005168,新規,0,2024-11-15,2024-11-15,ＤＰＥ　Ｔｒａｄｉｎｇ合同会社,,合同会社,東京都,大田区,南馬込１丁目２４番１４号,,13,111,1430025,,,,,,,2024-11-15,1,,,,,ディピーイートレーディング,0
375,2011001165928,新規,0,2024-11-15,2024-11-15,株式会社Ｒａｙｌａｃ,,株式会社,東京都,渋谷区,渋谷２丁目１９‐１５宮益坂ビルディング６０９,,13,113,1500002,,,,,,,2024-11-15,1,,,,,レイラック,0
381,2011101109586,新規,0,2024-11-15,2024-11-15,ＴＰ　ＪＡＰＡＮ株式会社,,株式会社,東京都,新宿区,若松町８番８－３０４号,,13,104,1620056,,,,,,,2024-11-15,1,,,,,ティーピージャパン,0
384,2011105011227,新規,0,2024-11-15,2024-11-15,一般社団法人ＮＫＮＧＯ　Ｆｏｒｕｍ,,その他の設立登記法人,東京都,新宿区,大久保２丁目１番８号,,13,104,1690072,,,,,,,2024-11-15,1,,,,,エヌケーエヌジーオーフォーラム,0
385,2011201025931,新規,0,2024-11-15,2024-11-15,株式会社オー・ゼット・イー,,株式会社,東京都,中野区,中央１丁目２０番３３号ドミールタカラ４０３,,13,114,1640011,,,,,,,2024-11-15,1,,,,,オーゼットイー,0
386,2011301030154,新規,0,2024-11-15,2024-11-15,キタサン株式会社,,株式会社,東京都,杉並区,和田１丁目４３－１７,,13,115,1660012,,,,,,,2024-11-15,1,,,,,キタサン,0
392,2011601028204,新規,0,2024-11-15,2024-11-15,株式会社アーチェロ,,株式会社,東京都,練馬区,石神井台３丁目２７番１６－３０８号,,13,120,1770045,,,,,,,2024-11-15,1,,,,,アーチェロ,0
395,2011701027799,新規,0,2024-11-15,2024-11-15,明師傅食品株式会社,,株式会社,東京都,江戸川区,松島３丁目１４番７－２１０号若林ビル,,13,123,1320031,,,,,,,2024-11-15,1,,,,,メイシフショクヒン,0
396,2011701027808,新規,0,2024-11-15,2024-11-15,ＵＮＩＱＵＥ　ＩＮＴＥＲＮＡＴＩＯＮＡＬ株式会社,,株式会社,東京都,江戸川区,南小岩８丁目１２番６号マンション中村ＩＩ－１０２,00137015,13,123,1330056,,,,,,,2024-11-15,1,,,,,ユニークインターナショナル,0
397,2011703004029,新規,0,2024-11-15,2024-11-15,合同会社リスコール,,合同会社,東京都,江戸川区,南小岩６丁目４番１７号,,13,123,1330056,,,,,,,2024-11-15,1,,,,,リスコール,0
398,2011801045164,新規,0,2024-11-15,2024-11-15,株式会社ＤＡＬＵＭＡ,,株式会社,東京都,葛飾区,東新小岩７丁目３０番２０号ハイネス新小岩１０５号室,,13,122,1240023,,,,,,,2024-11-15,1,,,,,ダルマ,0
403,2012401042493,新規,0,2024-11-15,2024-11-15,株式会社Ｒｅｃｈａｒｇｅ,,株式会社,東京都,府中市,白糸台５丁目２８番地１武蔵野台ヒルズ４０１号室,,13,206,1830011,,,,,,,2024-11-15,1,,,,,リチャージ,0
412,2020001160079,新規,0,2024-11-15,2024-11-15,株式会社電湘設備,,株式会社,神奈川県,横浜市西区,浅間町１丁目４－３ウィザードビル４０２,,14,103,2200072,,,,,,,2024-11-15,1,,,,,デンショウセツビ,0
415,2020003027235,新規,0,2024-11-15,2024-11-15,合同会社ワイ・オーファーム,,合同会社,神奈川県,横浜市泉区,緑園３丁目２番地４ガーデンズコート緑園都市４１３号,,14,116,2450002,,,,,,,2024-11-15,1,,,,,ワイオーファーム,0
431,2030001163444,新規,0,2024-11-15,2024-11-15,株式会社永信商事,,株式会社,埼玉県,八潮市,大字西袋６７６番地１９,,11,234,3400833,,,,,,,2024-11-15,1,,,,,エイシンショウジ,0
432,2030001163452,新規,0,2024-11-15,2024-11-15,株式会社中村建装,,株式会社,埼玉県,新座市,野火止５丁目２５番１６号,,11,230,3520011,,,,,,,2024-11-15,1,,,,,ナカムラケンソウ,0
433,2030001163460,新規,0,2024-11-15,2024-11-15,株式会社いろは塗装,,株式会社,埼玉県,坂戸市,大字善能寺２３１番地１,,11,239,3500256,,,,,,,2024-11-15,1,,,,,イロハトソウ,0
437,2030003025460,新規,0,2024-11-15,2024-11-15,合同会社ＫＳＳ,,合同会社,埼玉県,川越市,大字下広谷９６０番地３,,11,201,3500804,,,,,,,2024-11-15,1,,,,,ケイエスエス,0
438,2030003025477,新規,0,2024-11-15,2024-11-15,大林合同会社,,合同会社,埼玉県,三郷市,戸ケ崎２１３２－１－３０１,,11,237,3410044,,,,,,,2024-11-15,1,,,,,オオバヤシ,0
439,2030003025502,新規,0,2024-11-15,2024-11-15,合同会社Ｇｉｖｅｔｅｄ,,合同会社,埼玉県,朝霞市,根岸台３丁目１９－５ハイムスイート朝霞７１０,,11,227,3510005,,,,,,,2024-11-15,1,,,,,ギブテッド,0
446,2040001136176,新規,0,2024-11-15,2024-11-15,株式会社Ｔｏｂａ　Ｋａｒｙａ　Ｊａｐａｎ,,株式会社,千葉県,流山市,大字東深井１７２番地の１－１０６号室,,12,220,2700101,,,,,,,2024-11-15,1,,,,,トバカラヤジャパン,0
448,2040003026202,新規,0,2024-11-15,2024-11-15,ＢＢＴ　ＪＡＰＡＮ合同会社,,合同会社,千葉県,茂原市,七渡１６５０－２,,12,210,2970001,,,,,,,2024-11-15,1,,,,,ビービーティージャパン,0
452,2050001055689,新規,0,2024-11-15,2024-11-15,幸盛株式会社,,株式会社,茨城県,つくば市,二の宮２丁目１－７つくば特許ビル１階Ａ号室,,08,220,3050051,,,,,,,2024-11-15,1,,,,,コウセイ,0
453,2050001055706,新規,0,2024-11-15,2024-11-15,株式会社塗装工房一双,,株式会社,茨城県,水戸市,住吉町５１番地の８,,08,201,3100844,,,,,,,2024-11-15,1,,,,,トソウコウボウイッソウ,0
454,2050001055722,新規,0,2024-11-15,2024-11-15,株式会社ＬＩＦＥＱＵＥＳＴ,,株式会社,茨城県,龍ケ崎市,南中島町４３０番地５,,08,208,3010047,,,,,,,2024-11-15,1,,,,,ライフクエスト,0
457,2060005010268,新規,0,2024-11-15,2024-11-15,農事組合法人川崎ファーム,00137016,その他の設立登記法人,栃木県,宇都宮市,西川田本町４丁目１番１３号新宿コーポ２０２,,09,201,3210158,,,,,,,2024-11-15,1,,,,,,0
467,2090001019005,新規,0,2024-11-15,2024-11-15,株式会社ＡＳＫ,,株式会社,山梨県,甲府市,大里町２１１１－６,,19,201,4000053,,,,,,,2024-11-15,1,,,,,エーエスケイ,0
470,2100001038028,新規,0,2024-11-15,2024-11-15,株式会社Ｃｅｎｔ　Ｒａｐｉｄｅ,,株式会社,長野県,松本市,波田１４１９番地４,,20,202,3901401,,,,,,,2024-11-15,1,,,,,サンラピード,0
480,2120001270264,新規,0,2024-11-15,2024-11-15,株式会社Ｌｙ‐ｇｉＸ,,株式会社,大阪府,交野市,私部７丁目６－３－２０２,,27,230,5760052,,,,,,,2024-11-15,1,,,,,ライジックス,0
481,2120001270322,新規,0,2024-11-15,2024-11-15,株式会社永承,,株式会社,大阪府,大阪市生野区,新今里３丁目７－４－２０２号室,,27,116,5440001,,,,,,,2024-11-15,1,,,,,エイショウ,0
482,2120001270339,新規,0,2024-11-15,2024-11-15,森宝株式会社,,株式会社,大阪府,大阪市阿倍野区,阿倍野筋５丁目１番５号,,27,119,5450052,,,,,,,2024-11-15,1,,,,,シンポウ,0
483,2120003027919,新規,0,2024-11-15,2024-11-15,共コ合同会社,,合同会社,大阪府,大阪市生野区,生野西２丁目１－３３近畿駅前ビル（Ｒｅ：ＺＯＮＥ天王寺寺田町０１）３０９号室,,27,116,5440024,,,,,,,2024-11-15,1,,,,,トモコ,0
484,2120003027976,新規,0,2024-11-15,2024-11-15,ＫＡＭＭ合同会社,,合同会社,大阪府,大阪市福島区,鷺洲５丁目１２番２－９１９号,,27,103,5530002,,,,,,,2024-11-15,1,,,,,ケーエーエムエム,0
486,2120005024617,新規,0,2024-11-15,2024-11-15,一般社団法人ヘルスインナーケア協会,,その他の設立登記法人,大阪府,大阪市西区,南堀江２丁目２番１－１００１号,,27,106,5500015,,,,,,,2024-11-15,1,,,,,ヘルスインナーケアキョウカイ,0
490,2120101070606,新規,0,2024-11-15,2024-11-15,株式会社和建,,株式会社,大阪府,富田林市,向陽台４丁目１１番３２号,,27,214,5840082,,,,,,,2024-11-15,1,,,,,ワケン,0
492,2120103006145,新規,0,2024-11-15,2024-11-15,合同会社ＧＩＦＴＢＡＬＬ,,合同会社,大阪府,泉佐野市,長滝４０４８番地の１０,,27,213,5980034,,,,,,,2024-11-15,1,,,,,ギフトボール,0
494,2120903005420,新規,0,2024-11-15,2024-11-15,ブラボーズコーポレーション合同会社,,合同会社,大阪府,箕面市,小野原東４丁目２２－１２－５０５,,27,220,5620031,,,,,,,2024-11-15,1,,,,,ブラボーズコーポレーション,0
495,2120905006656,新規,0,2024-11-15,2024-11-15,一般社団法人日本ＳＮＳアカデミー協会,,その他の設立登記法人,大阪府,池田市,桃園１丁目７番２号,,27,204,5630045,,,,,,,2024-11-15,1,,,,,ニホンエスエヌエスアカデミーキョウカイ,0
499,2122001038641,新規,0,2024-11-15,2024-11-15,株式会社ＧＳＫハピネス,,株式会社,大阪府,大東市,氷野３丁目６番９号,,27,218,5740062,,,,,,,2024-11-15,1,,,,,ジーエスケーハピネス,0
508,2140001136430,新規,0,2024-11-15,2024-11-15,株式会社ラフィングライフ,,株式会社,兵庫県,加古川市,平岡町二俣８８４番地の９,,28,210,6750111,,,,,,,2024-11-15,1,,,,,ラフィングライフ,0
512,2170005007113,新規,0,2024-11-15,2024-11-15,一般社団法人紀州麻,,その他の設立登記法人,和歌山県,和歌山市,吉田８０１番地,,30,201,6408343,,,,,,,2024-11-15,1,,,,,キシュウアサ,0
518,2180001164031,新規,0,2024-11-15,2024-11-15,株式会社君のハンバーグを食べたい,,株式会社,愛知県,一宮市,八幡２丁目７番地１,,23,203,4910903,,,,,,,2024-11-15,1,,,,,キミノハンバーグヲタベタイ,0
519,2180001164114,新規,0,2024-11-15,2024-11-15,株式会社轍コンサルティング,,株式会社,愛知県,一宮市,大和町毛受字辻畑８６番地１,00137030,23,203,4910932,,,,,,,2024-11-15,1,,,,,ワダチコンサルティング,0
528,2180301039239,新規,0,2024-11-15,2024-11-15,Ｍａｃｈｉｕｍａ株式会社,,株式会社,愛知県,西尾市,新在家町蓮台８番地２,,23,213,4440311,,,,,,,2024-11-15,1,,,,,マチウマ,0
531,2180303006344,新規,0,2024-11-15,2024-11-15,合同会社Ｔａｃｈｉ‐Ｍａｃｈｉ,,合同会社,愛知県,豊橋市,山田二番町３５‐７,,23,201,4418104,,,,,,,2024-11-15,1,,,,,タチマチ,0
533,2190001031800,新規,0,2024-11-15,2024-11-15,豊田冷凍株式会社,,株式会社,三重県,松阪市,小津町８００番地,,24,204,5152114,,,,,,,2024-11-15,1,,,,,トヨダレイトウ,0
540,2220001026326,新規,0,2024-11-15,2024-11-15,古谷不動産株式会社,,株式会社,石川県,金沢市,高尾南３丁目８６番地,,17,201,9218154,,,,,,,2024-11-15,1,,,,,フルタニフドウサン,0
541,2220001026342,新規,0,2024-11-15,2024-11-15,ＥＩＫＯＨ　ＳＭＡＲＴ株式会社,,株式会社,石川県,金沢市,増泉２丁目１６－２２－１号,,17,201,9218025,,,,,,,2024-11-15,1,,,,,エイコースマート,0
546,2240001064126,新規,0,2024-11-15,2024-11-15,株式会社ＬＡＮＫＡ,,株式会社,広島県,広島市南区,段原日出２丁目１０番２２号,,34,103,7320818,,,,,,,2024-11-15,1,,,,,ランカ,0
556,2290001107920,新規,0,2024-11-15,2024-11-15,株式会社シンク,,株式会社,福岡県,福岡市南区,寺塚１丁目１９番８号,,40,134,8150074,,,,,,,2024-11-15,1,,,,,シンク,0
557,2290001107929,新規,0,2024-11-15,2024-11-15,株式会社サンオーネスト,,株式会社,福岡県,福岡市博多区,博多駅前１丁目２３番２号ＰａｒｋＦｒｏｎｔ博多駅前１丁目５Ｆ－Ｂ,,40,132,8120011,,,,,,,2024-11-15,1,,,,,,0
558,2290001107937,新規,0,2024-11-15,2024-11-15,株式会社清盛,,株式会社,福岡県,福岡市早良区,室見５丁目４番１０－４０７号ユーハイム室見,,40,137,8140015,,,,,,,2024-11-15,1,,,,,キヨモリ,0
559,2290001107953,新規,0,2024-11-15,2024-11-15,株式会社Ｙ２,,株式会社,福岡県,福岡市東区,東浜１丁目１１番３０－７０２号,,40,131,8120055,,,,,,,2024-11-15,1,,,,,ワイツー,0
560,2290001107961,新規,0,2024-11-15,2024-11-15,株式会社エイトソリューション,,株式会社,福岡県,福岡市南区,塩原３丁目２２番６号,,40,134,8150032,,,,,,,2024-11-15,1,,,,,エイトソリューション,0
563,2290003016046,新規,0,2024-11-15,2024-11-15,合同会社ｓｉｍｐｌｙ　ｋｉｔｃｈｅｎ,,合同会社,福岡県,福岡市中央区,天神２丁目２番１２号Ｔ＆Ｊビルディング７Ｆ,,40,133,8100001,,,,,,,2024-11-15,1,,,,,シンプリーキッチン,0
564,2290003016062,新規,0,2024-11-15,2024-11-15,合同会社ｗｉｐ,,合同会社,福岡県,古賀市,谷山３６５番地８,,40,223,8113125,,,,,,,2024-11-15,1,,,,,ウィップ,0
565,2290003016087,新規,0,2024-11-15,2024-11-15,合同会社ＧＢＳ,,合同会社,福岡県,福岡市博多区,博多駅前４丁目１４番２３－１３０４号,,40,132,8120011,,,,,,,2024-11-15,1,,,,,ジービーエス,0
568,2290005019484,新規,0,2024-11-15,2024-11-15,一般社団法人福岡県スクールカウンセラー協会,,その他の設立登記法人,福岡県,福岡市中央区,赤坂３丁目９番３４号,,40,133,8100042,,,,,,,2024-11-15,1,,,,,フクオカケンスクールカウンセラーキョウカイ,0
571,2290801031023,新規,0,2024-11-15,2024-11-15,システム株式会社ＤＯＣ,,株式会社,福岡県,北九州市若松区,白山２丁目１１‐１０‐８０８,,40,103,8080035,,,,,,,2024-11-15,1,,,,,システムドック,0
573,2290803004893,新規,0,2024-11-15,2024-11-15,宝華合同会社,,合同会社,福岡県,北九州市小倉北区,砂津２丁目５－１７パレス小倉２０１,,40,106,8020014,,,,,,,2024-11-15,1,,,,,ホウカ,0
579,2330001032651,新規,0,2024-11-15,2024-11-15,エフ・ユー・ティー株式会社,,株式会社,熊本県,熊本市中央区,中央街４－２２アルバ銀座通りビル２Ｆ－８Ｆ,,43,101,8600802,,,,,,,2024-11-15,1,,,,,エフユーティー,0
581,2330003010630,新規,0,2024-11-15,2024-11-15,合同会社ＡＹＸ,,合同会社,熊本県,熊本市中央区,新屋敷２丁目２０番３１号,,43,101,8620975,,,,,,,2024-11-15,1,,,,,エーワイエックス,0
590,2360001034439,新規,0,2024-11-15,2024-11-15,株式会社アスライト,,株式会社,沖縄県,島尻郡南風原町,字宮平３番地１ミルコマンション南風原スカイリベール２０５,,47,350,9011104,,,,,,,2024-11-15,1,,,,,アスライト,0
593,2370001051929,新規,0,2024-11-15,2024-11-15,株式会社Ｇｒａｃｅｒｙ　ｐａｒｔｎｅｒｓ,,株式会社,宮城県,仙台市若林区,新寺１丁目３番２１号イーストビル５階,,04,103,9840051,,,,,,,2024-11-15,1,,,,,グレイスリーパートナーズ,0
594,2370001051937,新規,0,2024-11-15,2024-11-15,ＹＫ企画株式会社,,株式会社,宮城県,仙台市太白区,鹿野３丁目１４－６,,04,104,9820023,,,,,,,2024-11-15,1,,,,,ワイケーキカク,0
595,2370001051945,新規,0,2024-11-15,2024-11-15,株式会社ＴＡＫＥ２,,株式会社,宮城県,仙台市青葉区,中央２丁目２番１０号,,04,101,9800021,,,,,,,2024-11-15,1,,,,,テイクツー,0
596,2370003006823,新規,0,2024-11-15,2024-11-15,合同会社名取フードサービス,,合同会社,宮城県,名取市,小山１丁目１番８号,,04,207,9811233,,,,,,,2024-11-15,1,,,,,ナトリフードサービス,0
598,2380001034899,新規,0,2024-11-15,2024-11-15,株式会社スタイルナイン,,株式会社,福島県,いわき市,小名浜字道珍１５９番地の７２,,07,204,9718101,,,,,,,2024-11-15,1,,,,,スタイルナイン,0
599,2380001034916,新規,0,2024-11-15,2024-11-15,株式会社ＦＡＮＥＴ,,株式会社,福島県,いわき市,中央台高久２丁目３番地の４,,07,204,9708047,,,,,,,2024-11-15,1,,,,,ファネット,0
607,2430003016997,新規,0,2024-11-15,2024-11-15,Ｇ＆Ｍアセット合同会社,,合同会社,北海道,札幌市西区,八軒五条東４丁目５番３５－７０２号,,01,107,0630865,,,,,,,2024-11-15,1,,,,,ジーアンドエムアセット,0
608,2470003002754,新規,0,2024-11-15,2024-11-15,合同会社さんらいと,,合同会社,香川県,三豊市,高瀬町下勝間１２５１－１５１,,37,208,7670011,,,,,,,2024-11-15,1,,,,,,0
611,2700150127883,新規,0,2024-11-15,2024-11-15,ロイヤル・オペラ・ハウス・コヴェント・ガーデン・リミテッド,,外国会社等,,,,,,,,Ｃｏｖｅｎｔ，Ｇａｒｄｅｎ，Ｌｏｎｄｏｎ　ＷＣ２Ｅ　９ＤＤ,,,,,,2024-11-15,1,,,,,ロイヤルオペラハウスコヴエントガーデンリミテツド,0
634,3010001249822,新規,0,2024-11-15,2024-11-15,カコムスＳＩＴ株式会社,,株式会社,東京都,文京区,大塚５丁目７番１２号ＮＫビル新大塚３階,,13,105,1120012,,,,,,,2024-11-15,1,,,,,カコムスエスアイティー,0
635,3010001249847,新規,0,2024-11-15,2024-11-15,株式会社ビズリンクサクセス,,株式会社,東京都,千代田区,丸の内１丁目８－３丸の内トラストタワー本館２０階,,13,101,1000005,,,,,,,2024-11-15,1,,,,,ビズリンクサクセス,0
636,3010001249888,新規,0,2024-11-15,2024-11-15,株式会社ＴＫＪ,,株式会社,東京都,中央区,日本橋人形町１丁目１９番５号,,13,102,1030013,,,,,,,2024-11-15,1,,,,,ティーケージェー,0
637,3010001249905,新規,0,2024-11-15,2024-11-15,株式会社ＥＫＲ　Ａｓｓｅｔ　Ｍａｎａｇｅｍｅｎｔ,,株式会社,東京都,中央区,晴海３丁目１３番２－１００５号,,13,102,1040053,,,,,,,2024-11-15,1,,,,,イーケーアールアセットマネジメント,0
638,3010001249913,新規,0,2024-11-15,2024-11-15,株式会社エルレクスキャピタルマネジメント,,株式会社,東京都,千代田区,丸の内３丁目３番１号新東京ビル４Ｆ,,13,101,1000005,,,,,,,2024-11-15,1,,,,,エルレクスキャピタルマネジメント,0
639,3010001249921,新規,0,2024-11-15,2024-11-15,株式会社ｆｉｌｌ　ｐｌｏｔ,,株式会社,東京都,中央区,佃１丁目１１番９－１８０６号,,13,102,1040051,,,,,,,2024-11-15,1,,,,,フィルプロット,0
640,3010001249946,新規,0,2024-11-15,2024-11-15,株式会社バームジン,,株式会社,東京都,中央区,銀座３丁目９番７号トレランス銀座ビルディング３階,,13,102,1040061,,,,,,,2024-11-15,1,,,,,バームジン,0
641,3010001249995,新規,0,2024-11-15,2024-11-15,株式会社エパスアジング,,株式会社,東京都,中央区,銀座１丁目２２番１１号銀座大竹ビジデンス２階,,13,102,1040061,,,,,,,2024-11-15,1,,,,,エパスアジング,0
657,3010003045468,新規,0,2024-11-15,2024-11-15,合同会社バッテリーランド５,,合同会社,東京都,千代田区,大手町１丁目９番２号大手町フィナンシャルシティグランキューブ１８階１８１２号室,,13,101,1000004,,,,,,,2024-11-15,1,,,,,バッテリーランドファイブ,0
658,3010003045476,新規,0,2024-11-15,2024-11-15,合同会社リフレナ,,合同会社,東京都,中央区,銀座１丁目１２番４号Ｎ＆ＥＢＬＤ．７階,,13,102,1040061,,,,,,,2024-11-15,1,,,,,リフレナ,0
659,3010005039096,新規,0,2024-11-15,2024-11-15,一般社団法人カーディナル１ホールディングス,,その他の設立登記法人,東京都,千代田区,霞が関３丁目２番５号,,13,101,1000013,,,,,,,2024-11-15,1,,,,,カーディナルワンホールディングス,0
670,3010401186491,新規,0,2024-11-15,2024-11-15,株式会社ＢＯＯＫ,,株式会社,東京都,港区,六本木１丁目７番１０号－９０７,,13,103,1060032,,,,,,,2024-11-15,1,,,,,ブック,0
672,3010503007637,新規,0,2024-11-15,2024-11-15,合同会社ＣＯＲＥ,,合同会社,東京都,台東区,台東１丁目２２番４号,,13,106,1100016,,,,,,,2024-11-15,1,,,,,コア,0
684,3011001165902,新規,0,2024-11-15,2024-11-15,株式会社オールラックコネクティング,,株式会社,東京都,渋谷区,道玄坂１丁目１０番８号渋谷道玄坂東急ビル２Ｆ－Ｃ,,13,113,1500043,,,,,,,2024-11-15,1,,,,,オールラックコネクティング,0
685,3011001165943,新規,0,2024-11-15,2024-11-15,早慶ＡＩ株式会社,,株式会社,東京都,渋谷区,渋谷１丁目１２番２号クロスオフィス渋谷８階,,13,113,1500002,,,,,,,2024-11-15,1,,,,,ソウケイエーアイ,0
687,3011003020361,新規,0,2024-11-15,2024-11-15,ＭＥＣＣＨＡＩＩ合同会社,,合同会社,東京都,渋谷区,神宮前６丁目２３番４号桑野ビル２階,,13,113,1500001,,,,,,,2024-11-15,1,,,,,メッチャイイ,0
688,3011003020428,新規,0,2024-11-15,2024-11-15,合同会社Ｐｅｄｅｓｔｒｉａｎ,,合同会社,東京都,渋谷区,上原２丁目３８番１３号ウエハラスタイル,,13,113,1510064,,,,,,,2024-11-15,1,,,,,ペデストリアン,0
690,3011101109585,新規,0,2024-11-15,2024-11-15,多多株式会社,,株式会社,東京都,新宿区,榎町３４－３榎町ビル７階,,13,104,1620806,,,,,,,2024-11-15,1,,,,,タタ,0
691,3011101109619,新規,0,2024-11-15,2024-11-15,株式会社ぺまいる,,株式会社,東京都,新宿区,新宿５丁目１０－１０海老沢ビル２０２,,13,104,1600022,,,,,,,2024-11-15,1,,,,,ペマイル,0
693,3011105011226,新規,0,2024-11-15,2024-11-15,土地家屋調査士法人エンタープライズ・イング,,その他の設立登記法人,東京都,新宿区,四谷４丁目３３番地,,13,104,1600004,,,,,,,2024-11-15,1,,,,,エンタープライズイング,0
706,3011701027807,新規,0,2024-11-15,2024-11-15,フリークス株式会社,,株式会社,東京都,江戸川区,瑞江２丁目７番４号,,13,123,1320011,,,,,,,2024-11-15,1,,,,,フリークス,0
708,3011801045155,新規,0,2024-11-15,2024-11-15,株式会社ｍｕｉＤｅｖ,,株式会社,東京都,足立区,新田１丁目２番２３－９０２号,,13,121,1230865,,,,,,,2024-11-15,1,,,,,,0
709,3011801045163,新規,0,2024-11-15,2024-11-15,株式会社今野工業,,株式会社,東京都,葛飾区,南水元４丁目２５番１－３０５号,,13,122,1250035,,,,,,,2024-11-15,1,,,,,コンノコウギョウ,0
711,3012301014154,新規,0,2024-11-15,2024-11-15,株式会社アルベルトジャパン,,株式会社,東京都,町田市,南大谷５丁目８番４号,,13,209,1940031,,,,,,,2024-11-15,1,,,,,アルベルトジャパン,0
712,3012401042492,新規,0,2024-11-15,2024-11-15,株式会社ＮｅｏＡｓｓｅｔ,,株式会社,東京都,調布市,西つつじケ丘３丁目３２番地２、１２０１号,,13,208,1820006,,,,,,,2024-11-15,1,,,,,ネオアセット,0
714,3013101009559,新規,0,2024-11-15,2024-11-15,株式会社春日空調設備,,株式会社,東京都,あきる野市,草花１３２１番地２,,13,228,1970802,,,,,,,2024-11-15,1,,,,,カスガクウチョウセツビ,0
720,3020001159946,新規,0,2024-11-15,2024-11-15,シリウス株式会社,,株式会社,神奈川県,川崎市麻生区,片平２丁目６番８号コーポラスヤマテ１０１,,14,137,2150023,,,,,,,2024-11-15,1,,,,,シリウス,0
721,3020001160029,新規,0,2024-11-15,2024-11-15,株式会社吉光,,株式会社,神奈川県,横浜市港北区,篠原東３丁目１８番１号,,14,109,2220022,,,,,,,2024-11-15,1,,,,,ヨシミツ,0
722,3020001160078,新規,0,2024-11-15,2024-11-15,株式会社横浜サイバーセキュリティ,,株式会社,神奈川県,横浜市中区,桜木町１丁目１０１番地１クロスゲート７階,,14,104,2310062,,,,,,,2024-11-15,1,,,,,ヨコハマサイバーセキュリティ,0
728,3020003027234,新規,0,2024-11-15,2024-11-15,ＳＯＬＡＺＵジャパン合同会社,,合同会社,神奈川県,横浜市中区,山下町２番地産業貿易センタービル２階,,14,104,2310023,,,,,,,2024-11-15,1,,,,,ソラズジャパン,0
730,3021001083764,新規,0,2024-11-15,2024-11-15,株式会社リタワンプランニング,,株式会社,神奈川県,相模原市南区,御園５丁目１５番５号,,14,153,2520317,,,,,,,2024-11-15,1,,,,,リタワンプランニング,0
731,3021001083780,新規,0,2024-11-15,2024-11-15,株式会社小林設備,,株式会社,神奈川県,横須賀市,芦名２丁目１７番２１号,00137019,14,201,2400104,,,,,,,2024-11-15,1,,,,,コバヤシセツビ,0
732,3021003015237,新規,0,2024-11-15,2024-11-15,合同会社ｖｅｒａｎｉｃｏ,,合同会社,神奈川県,藤沢市,鵠沼海岸７丁目２０―３,,14,205,2510037,,,,,,,2024-11-15,1,,,,,ベラニコ,0
735,3030001163451,新規,0,2024-11-15,2024-11-15,ＨＡＮＡＭＡＫＩ株式会社,,株式会社,埼玉県,さいたま市見沼区,大字中川１４５番地１３３,,11,104,3370043,,,,,,,2024-11-15,1,,,,,ハナマキ,0
736,3030001163468,新規,0,2024-11-15,2024-11-15,株式会社ＴＩＥＮ　ＬＯＮＧ,,株式会社,埼玉県,川口市,前川４丁目１５番９号,,11,203,3330842,,,,,,,2024-11-15,1,,,,,ティエンロン,0
737,3030001163501,新規,0,2024-11-15,2024-11-15,株式会社ビジノベ,,株式会社,埼玉県,さいたま市北区,宮原町３丁目９０１番地１（Ａ－９２６）,,11,102,3310812,,,,,,,2024-11-15,1,,,,,ビジノベ,0
739,3030003025484,新規,0,2024-11-15,2024-11-15,合同会社エヌエスコーポレーション,,合同会社,埼玉県,さいたま市大宮区,北袋町１丁目６０１番地１、Ｂ１３１５,,11,103,3300835,,,,,,,2024-11-15,1,,,,,エヌエスコーポレーション,0
740,3030003025492,新規,0,2024-11-15,2024-11-15,合同会社リノベモ,,合同会社,埼玉県,川口市,西川口３丁目７－１４,,11,203,3320021,,,,,,,2024-11-15,1,,,,,リノベモ,0
752,3040001136159,新規,0,2024-11-15,2024-11-15,株式会社ｓｍａｒｔｐｌｕｓ松戸,,株式会社,千葉県,松戸市,常盤平５丁目２８番５号ジュウェル常盤平１－２号,,12,207,2702261,,,,,,,2024-11-15,1,,,,,スマートプラスマツド,0
753,3040001136167,新規,0,2024-11-15,2024-11-15,株式会社ワイドレンジ,,株式会社,千葉県,柏市,大井１９０３番地４－１０２号室,,12,217,2770902,,,,,,,2024-11-15,1,,,,,ワイドレンジ,0
754,3040001136183,新規,0,2024-11-15,2024-11-15,株式会社フォルトナート,,株式会社,千葉県,松戸市,西馬橋蔵元町１９６番地の１,,12,207,2710046,,,,,,,2024-11-15,1,,,,,フォルトナート,0
755,3040003026127,新規,0,2024-11-15,2024-11-15,ＲＡＶＩ　ＭＯＴＯＲＳ合同会社,,合同会社,千葉県,東金市,薄島９６８番地１１鈴木荘,,12,213,2830031,,,,,,,2024-11-15,1,,,,,ラビーモーターズ,0
756,3040003026168,新規,0,2024-11-15,2024-11-15,合同会社おまかせ,,合同会社,千葉県,市原市,石川３０６－１６７,,12,219,2900511,,,,,,,2024-11-15,1,,,,,オマカセ,0
758,3050001055696,新規,0,2024-11-15,2024-11-15,株式会社ＲＩＧＲＡＣＥ,,株式会社,茨城県,つくば市,島名３７９６番地１（諏訪Ｄ７街区１７）,,08,220,3002655,,,,,,,2024-11-15,1,,,,,リグレイス,0
759,3060005010267,新規,0,2024-11-15,2024-11-15,一般社団法人Ｇｒｅａｔ　Ｐｌａｔｅａｕ,,その他の設立登記法人,栃木県,宇都宮市,陽南１丁目２番２号,,09,201,3200834,,,,,,,2024-11-15,1,,,,,グレートプラトー,0
762,3070001042362,新規,0,2024-11-15,2024-11-15,株式会社ＴＡＫＵＴＡＮＯ,,株式会社,群馬県,藤岡市,東平井５７３番地１,,10,209,3750043,,,,,,,2024-11-15,1,,,,,タクタノ,0
763,3070001042370,新規,0,2024-11-15,2024-11-15,株式会社ハートビート,,株式会社,群馬県,高崎市,寄合町２２番地,,10,202,3700822,,,,,,,2024-11-15,1,,,,,ハートビート,0
771,3100001038035,新規,0,2024-11-15,2024-11-15,株式会社荒井,,株式会社,長野県,長野市,南千歳１丁目１０番地５第一荒井ビル５階,,20,201,3800823,,,,,,,2024-11-15,1,,,,,アライ,0
773,3110003005577,新規,0,2024-11-15,2024-11-15,合同会社Ａｓｐｉｒｅ　Ｕｎｉｏｎ,,合同会社,新潟県,阿賀野市,保田７５０番地４０,,15,223,9592221,,,,,,,2024-11-15,1,,,,,アスパイアユニオン,0
780,3120001270296,新規,0,2024-11-15,2024-11-15,株式会社ＳｕｐｐｏｒｔＲｉｇｈｔ,,株式会社,大阪府,大阪市東住吉区,住道矢田１丁目２６番１４号,,27,121,5460022,,,,,,,2024-11-15,1,,,,,サポートライト,0
781,3120001270313,新規,0,2024-11-15,2024-11-15,株式会社ＤＡＮＳＯＮ５１,,株式会社,大阪府,大阪市西成区,岸里１丁目３番１号ラ・パルフェ・ド・エクロール５０３号,,27,122,5570041,,,,,,,2024-11-15,1,,,,,ダンソンゴーイチ,0
782,3120003027934,新規,0,2024-11-15,2024-11-15,合同会社ＩＷＴＯ,,合同会社,大阪府,大阪市淀川区,十八条２丁目１１－４,,27,123,5320001,,,,,,,2024-11-15,1,,,,,アイダブルティーオー,0
783,3120003027975,新規,0,2024-11-15,2024-11-15,合同会社響碧,,合同会社,大阪府,大阪市住之江区,新北島２丁目１番１３号,,27,125,5590024,,,,,,,2024-11-15,1,,,,,ヒビキアイ,0
785,3120101070522,新規,0,2024-11-15,2024-11-15,弥栄商事株式会社,,株式会社,大阪府,堺市美原区,木材通４丁目１０番２号,,27,147,5870042,,,,,,,2024-11-15,1,,,,,ヤサカショウジ,0
786,3120103006111,新規,0,2024-11-15,2024-11-15,ＨＴ　Ｓｍｉｌｅ合同会社,,合同会社,大阪府,貝塚市,麻生中７５２－６、１０１号,,27,208,5970081,,,,,,,2024-11-15,1,,,,,エチティスマイル,0
787,3120103006144,新規,0,2024-11-15,2024-11-15,合同会社焔,,合同会社,大阪府,堺市美原区,木材通１丁目７番３号,,27,147,5870042,,,,,,,2024-11-15,1,,,,,ホムラ,0
789,3120901050038,新規,0,2024-11-15,2024-11-15,株式会社やさか,,株式会社,大阪府,池田市,石橋２丁目１６番９号,,27,204,5630032,,,,,,,2024-11-15,1,,,,,ヤサカ,0
799,3130001078350,新規,0,2024-11-15,2024-11-15,株式会社たんぽぽ,,株式会社,京都府,京都市右京区,嵯峨天龍寺広道町１８番地,,26,108,6168372,,,,,,,2024-11-15,1,,,,,タンポポ,0
800,3130001078367,新規,0,2024-11-15,2024-11-15,吉泉齋株式会社,,株式会社,京都府,京都市左京区,秋築町２４３番地３,,26,103,6068371,,,,,,,2024-11-15,1,,,,,キチセンサイ,0
803,3140001136438,新規,0,2024-11-15,2024-11-15,株式会社エース,,株式会社,兵庫県,たつの市,揖保川町馬場５０６番地１,,28,229,6711665,,,,,,,2024-11-15,1,,,,,エース,0
806,3150001027677,新規,0,2024-11-15,2024-11-15,フジデジタル株式会社,,株式会社,奈良県,奈良市,北之庄町７２３番地１３,,29,201,6308451,,,,,,,2024-11-15,1,,,,,フジデジタル,0
814,3180001164138,新規,0,2024-11-15,2024-11-15,株式会社ＫＹＲＡ,,株式会社,愛知県,名古屋市千種区,城山新町２丁目８番地,,23,101,4640046,,,,,,,2024-11-15,1,,,,,カイラ,0
819,3180301039246,新規,0,2024-11-15,2024-11-15,株式会社２ＬＤＫ,,株式会社,愛知県,豊橋市,曙町字松並１０１－２６５,,23,201,4418151,,,,,,,2024-11-15,1,,,,,ニーエルディーケー,0
821,3180305009625,新規,0,2024-11-15,2024-11-15,一般社団法人未知,,その他の設立登記法人,愛知県,豊橋市,大橋通３丁目５２番地１,,23,201,4400076,,,,,,,2024-11-15,1,,,,,ミチ,0
825,3210003001855,新規,0,2024-11-15,2024-11-15,合同会社メリオール,,合同会社,福井県,福井市,福１丁目１８１１番地,,18,201,9188027,,,,,,,2024-11-15,1,,,,,メリオール,0
827,3220001026341,新規,0,2024-11-15,2024-11-15,ＥＩＫＯＨ　ｎｅｘｔ株式会社,,株式会社,石川県,金沢市,増泉２丁目１６－２２－１号,,17,201,9218025,,,,,,,2024-11-15,1,,,,,エイコーネクスト,0
828,3220003003891,新規,0,2024-11-15,2024-11-15,合同会社葛新,,合同会社,石川県,金沢市,下涌波町ヘ４８番地１,,17,201,9200176,,,,,,,2024-11-15,1,,,,,カツシン,0
834,3240001064091,新規,0,2024-11-15,2024-11-15,ＰＳＩバイオロジックス株式会社,,株式会社,広島県,広島市南区,霞１丁目２番３号,,34,103,7340037,,,,,,,2024-11-15,1,,,,,ピーエスアイバイオロジックス,0
836,3240005015859,新規,0,2024-11-15,2024-11-15,日立ソリューションズ西日本労働組合,,その他の設立登記法人,広島県,広島市中区,八丁堀３番３３号,,34,101,7300013,,,,,,,2024-11-15,1,,,,,ヒタチソリューションズニシニホン,0
848,3290001107878,新規,0,2024-11-15,2024-11-15,株式会社Ｌｅｇａｍｅ,,株式会社,福岡県,福岡市東区,馬出５丁目２３番１６－３０２号,,40,131,8120054,,,,,,,2024-11-15,1,,,,,レガーメ,0
849,3290001107928,新規,0,2024-11-15,2024-11-15,株式会社Ｌｅｇａｃｙ,,株式会社,福岡県,福岡市博多区,住吉２丁目３番７－９０７号,,40,132,8120018,,,,,,,2024-11-15,1,,,,,,0
850,3290001107969,新規,0,2024-11-15,2024-11-15,エヌグリッド株式会社,,株式会社,福岡県,福岡市博多区,博多駅前１丁目２３番２号ＰａｒｋＦｒｏｎｔ博多駅前１丁目５Ｆ－Ｂ,,40,132,8120011,,,,,,,2024-11-15,1,,,,,エヌグリッド,0
851,3290003016020,新規,0,2024-11-15,2024-11-15,合同会社ＡＣＬ,,合同会社,福岡県,福岡市中央区,大濠１丁目６番１号,,40,133,8100052,,,,,,,2024-11-15,1,,,,,エーシエル,0
852,3290003016053,新規,0,2024-11-15,2024-11-15,合同会社ｃｏｔｏｒｉｃｏ,,合同会社,福岡県,太宰府市,宰府３丁目２－７,,40,221,8180117,,,,,,,2024-11-15,1,,,,,コトリコ,0
853,3290003016061,新規,0,2024-11-15,2024-11-15,合同会社Ｐｏｎｏ,,合同会社,福岡県,那珂川市,今光４丁目５８番１－２０３号,,40,231,8111211,,,,,,,2024-11-15,1,,,,,,0
859,3300005007214,新規,0,2024-11-15,2024-11-15,一般社団法人コバサン,,その他の設立登記法人,佐賀県,西松浦郡有田町,黒川甲１５８２番地２,,41,401,8494165,,,,,,,2024-11-15,1,,,,,コバサン,0
863,3320001020813,新規,0,2024-11-15,2024-11-15,株式会社日本人財事業団,,株式会社,大分県,別府市,大字鶴見２９３０番地８,,44,202,8740840,,,,,,,2024-11-15,1,,,,,ニホンジンザイジギョウダン,0
866,3330003010646,新規,0,2024-11-15,2024-11-15,ネクストジェネレーション合同会社,,合同会社,熊本県,上益城郡甲佐町,大字芝原１２０－８,,43,444,8613244,,,,,,,2024-11-15,1,,,,,ネクストジェネレーション,0
876,3360001034438,新規,0,2024-11-15,2024-11-15,株式会社ＯＫＩ　ＤＡＩＬＹ,,株式会社,沖縄県,南城市,玉城字仲村渠１４７８－８・２階,,47,215,9010602,,,,,,,2024-11-15,1,,,,,オキデイリー,0
879,3370001051944,新規,0,2024-11-15,2024-11-15,トロント株式会社,,株式会社,宮城県,仙台市宮城野区,鶴ケ谷字京原１７１番地,,04,102,9830824,,,,,,,2024-11-15,1,,,,,トロント,0
880,3370003006822,新規,0,2024-11-15,2024-11-15,合同会社エミューの里,,合同会社,宮城県,石巻市,三輪田字新寺前８８番地,,04,202,9860124,,,,,,,2024-11-15,1,,,,,エミューノサト,0
900,3480001012654,新規,0,2024-11-15,2024-11-15,株式会社リ・アーク,,株式会社,徳島県,吉野川市,鴨島町西麻植字大東３７番地１５,,36,205,7760020,,,,,,,2024-11-15,1,,,,,リアーク,0
901,3700150127528,新規,0,2024-11-15,2024-11-15,ＳＥＩＥＩ　Ｉｎｄｕｓｔｒｉｅｓ（Ｔｈａｉｌａｎｄ）Ｃｏ．，Ｌｔｄ,,外国会社等,,,,,,,,９６５　Ｍ００．２　Ｓｏｉ　Ｓｏｋｐｏｏｎｐｈｏｎ　Ｐｈｒａｅｋｋａｓａ　Ｒｄ，Ｔ．Ｐｈｒａｅｋｋａｓａ　Ｒｄ，Ｔ．Ａ．Ｍｕａｎｇ　Ｓａｍｕｔ　ｐｒａｋａｒｎ,,,,,,2024-11-15,1,,,,,セイエイインダストリーズタイランドコーリミテツド,0
902,3700150127882,新規,0,2024-11-15,2024-11-15,ＡＭＡ　Ｄｒｅａｍ　Ｌｉｍｉｔｅｄ,,外国会社等,,,,,,,,２５Ｋ，Ｔｈｅ　Ｍａｎｈａｔｔａｎ．３３　Ｔａｉ　Ｔａｍ　Ｒｏｏｄ，Ｓｔａｎｌｅｙ，Ｈｏｎｇ　Ｋｏｎｇ,,,,,,2024-11-15,1,,,,,エーエムエードリームリミテツド,0
930,4010001249771,新規,0,2024-11-15,2024-11-15,株式会社ＳＰ,,株式会社,東京都,中央区,京橋１丁目６番１３号金葉ビル５階,,13,102,1040031,,,,,,,2024-11-15,1,,,,,エスピー,0
931,4010001249838,新規,0,2024-11-15,2024-11-15,Ｃｌａｒｔｅ　Ｐａｒｔｎｅｒｓ株式会社,,株式会社,東京都,中央区,日本橋２丁目１番１７号丹生ビル２階,,13,102,1030027,,,,,,,2024-11-15,1,,,,,クラルテパートナーズ,0
932,4010001249862,新規,0,2024-11-15,2024-11-15,普時東京株式会社,,株式会社,東京都,中央区,東日本橋３丁目９番１０号ＤＩＮＯ日本橋ビル,,13,102,1030004,,,,,,,2024-11-15,1,,,,,フジトウキョウ,0
933,4010001249870,新規,0,2024-11-15,2024-11-15,株式会社ＬＡＳＴ　ＦＯＲＴ,,株式会社,東京都,千代田区,九段南１丁目５番６号りそな九段ビル５階ＫＳフロア,,13,101,1020074,,,,,,,2024-11-15,1,,,,,ラストフォート,0
934,4010001249912,新規,0,2024-11-15,2024-11-15,宝洋株式会社,,株式会社,東京都,千代田区,神田平河町１番地第３東ビル５ＦイーオフィスＡＫＩＢＡ２番館５１号室,,13,101,1010027,,,,,,,2024-11-15,1,,,,,ホウヨウ,0
935,4010001249920,新規,0,2024-11-15,2024-11-15,株式会社スクラム,,株式会社,東京都,千代田区,一番町６番地３－５１０号,,13,101,1020082,,,,,,,2024-11-15,1,,,,,スクラム,0
936,4010001249945,新規,0,2024-11-15,2024-11-15,株式会社ＭＡＯ,,株式会社,東京都,中央区,築地３丁目７番２号６階,,13,102,1040045,,,,,,,2024-11-15,1,,,,,マオ,0
947,4010003045467,新規,0,2024-11-15,2024-11-15,合同会社バッテリーランド４,,合同会社,東京都,千代田区,大手町１丁目９番２号大手町フィナンシャルシティグランキューブ１８階１８１２号室,,13,101,1000004,,,,,,,2024-11-15,1,,,,,バッテリーランドフォー,0
948,4010003045475,新規,0,2024-11-15,2024-11-15,合同会社共立福祉会,,合同会社,東京都,中央区,日本橋室町１丁目１１番１２号日本橋水野ビル７階,,13,102,1030022,,,,,,,2024-11-15,1,,,,,キョウリツフクシカイ,0
949,4010003045491,新規,0,2024-11-15,2024-11-15,りぶる合同会社,,合同会社,東京都,中央区,銀座１丁目２２番１１号銀座大竹ビジデンス２Ｆ,,13,102,1040061,,,,,,,2024-11-15,1,,,,,リブル,0
951,4010005039087,新規,0,2024-11-15,2024-11-15,一般社団法人モデア会,,その他の設立登記法人,東京都,中央区,京橋２丁目５番１２号,,13,102,1040031,,,,,,,2024-11-15,1,,,,,モデアカイ,0
952,4010005039095,新規,0,2024-11-15,2024-11-15,市川デベロップメント特定目的会社,,その他の設立登記法人,東京都,中央区,日本橋１丁目４番１号日本橋一丁目ビルディング,,13,102,1030027,,,,,,,2024-11-15,1,,,,,イチカワデベロップメント,0
962,4010403033807,新規,0,2024-11-15,2024-11-15,合同会社Ｒｅｗｉｎｇ,,合同会社,東京都,港区,南青山３丁目１番３６号青山丸竹ビル６Ｆ,,13,103,1070062,,,,,,,2024-11-15,1,,,,,レウィング,0
967,4010605004390,新規,0,2024-11-15,2024-11-15,一般社団法人隅田川連盟機構,,その他の設立登記法人,東京都,墨田区,向島２丁目２２番８－５０２号,,13,107,1310033,,,,,,,2024-11-15,1,,,,,スミダガワレンメイキコウ,0
969,4010701046832,新規,0,2024-11-15,2024-11-15,株式会社３９９ｄｏ,,株式会社,東京都,品川区,上大崎１丁目２１番１パークアクシス白金台南１１０２,,13,109,1410021,,,,,,,2024-11-15,1,,,,,サンビャクキュウジュウキュウド,0
970,4010803005166,新規,0,2024-11-15,2024-11-15,Ｊａｐａｎ　Ｎｉｐｐｏｎ　Ｃｏｍｐａｎｙ合同会社,,合同会社,東京都,大田区,池上７丁目２番７号インキュベーションハウス池上,,13,111,1460082,,,,,,,2024-11-15,1,,,,,ジャパンニッポンカンパニー,0
976,4011001165819,新規,0,2024-11-15,2024-11-15,株式会社Ｌｉｆｅ　Ｐｌｕｓ,,株式会社,東京都,渋谷区,東２丁目２４－５渋谷東ビル４Ｆ,,13,113,1500011,,,,,,,2024-11-15,1,,,,,ライフプラス,0
977,4011001165967,新規,0,2024-11-15,2024-11-15,株式会社ウィルエスコート,,株式会社,東京都,渋谷区,恵比寿４丁目２０番３号恵比寿ガーデンプレイスタワー１８階,,13,113,1500013,,,,,,,2024-11-15,1,,,,,ウィルエスコート,0
984,4011101109403,新規,0,2024-11-15,2024-11-15,株式会社ＥＵＲＥＣＡ,,株式会社,東京都,新宿区,南元町１１番地４,,13,104,1600012,,,,,,,2024-11-15,1,,,,,エウレカ,0
985,4011101109568,新規,0,2024-11-15,2024-11-15,株式会社ＭＯＶＥＯＮ,,株式会社,東京都,新宿区,新宿１丁目２番１号８１０号室,,13,104,1600022,,,,,,,2024-11-15,1,,,,,ムーブオン,0
986,4011101109576,新規,0,2024-11-15,2024-11-15,ワイズゲーム株式会社,,株式会社,東京都,新宿区,新宿５丁目４番１号新宿Ｑフラットビル７１０号,,13,104,1600022,,,,,,,2024-11-15,1,,,,,ワイズゲーム,0
987,4011101109634,新規,0,2024-11-15,2024-11-15,ラフター株式会社,,株式会社,東京都,新宿区,西新宿３丁目３番１３号西新宿水間ビル６階,,13,104,1600023,,,,,,,2024-11-15,1,,,,,ラフター,0
990,4011601028185,新規,0,2024-11-15,2024-11-15,三幸農産株式会社,,株式会社,東京都,練馬区,東大泉１丁目３０－４－５階,,13,120,1780063,,,,,,,2024-11-15,1,,,,,サンコウノウサン,0
991,4011701027814,新規,0,2024-11-15,2024-11-15,株式会社ＭＵＧ,,株式会社,東京都,江戸川区,東葛西５丁目１２番６号ＫＡＳＡＩＢＡＳＥ５０１,,13,123,1340084,,,,,,,2024-11-15,1,,,,,マグ,0
999,4012703003126,新規,0,2024-11-15,2024-11-15,合同会社ＹＨＳ,,合同会社,東京都,東村山市,久米川町３丁目９番地１６ラ・カンナＢ－１０１,,13,213,1890003,,,,,,,2024-11-15,1,,,,,ワイエイチエス,0
1002,4013301053372,新規,0,2024-11-15,2024-11-15,洋田産業株式会社,,株式会社,東京都,豊島区,巣鴨３丁目２番１５号,,13,116,1700002,,,,,,,2024-11-15,1,,,,,ヨウダサンギョウ,0
1003,4013301053380,新規,0,2024-11-15,2024-11-15,株式会社ＦＲＥＥ　ＳＴＹＬＥ,,株式会社,東京都,豊島区,東池袋１丁目２６番４号,,13,116,1700013,,,,,,,2024-11-15,1,,,,,フリースタイル,0
1012,4020001160168,新規,0,2024-11-15,2024-11-15,株式会社秦成,,株式会社,神奈川県,横浜市中区,山元町４丁目１７７番地,,14,104,2310851,,,,,,,2024-11-15,1,,,,,シンセイ,0
1025,4021005013221,新規,0,2024-11-15,2024-11-15,特定非営利活動法人住まいるさがみはら,,その他の設立登記法人,神奈川県,相模原市南区,東林間５丁目６番１９号２Ｃ,,14,153,2520311,,,,,,,2024-11-15,1,,,,,スマイルサガミハラ,0
1030,4030001163426,新規,0,2024-11-15,2024-11-15,株式会社ＤＯＴ,,株式会社,埼玉県,川越市,大字下赤坂１２番地４,,11,201,3501155,,,,,,,2024-11-15,1,,,,,ドット,0
1031,4030001163491,新規,0,2024-11-15,2024-11-15,株式会社グローセンス,,株式会社,埼玉県,川口市,末広２丁目９－１４－７,,11,203,3320006,,,,,,,2024-11-15,1,,,,,グローセンス,0
1032,4030001163500,新規,0,2024-11-15,2024-11-15,振豊株式会社,,株式会社,埼玉県,川口市,幸町２丁目４番２号,,11,203,3320016,,,,,,,2024-11-15,1,,,,,シントヨ,0
1034,4030003025483,新規,0,2024-11-15,2024-11-15,合同会社月紬屋,,合同会社,埼玉県,熊谷市,石原３丁目８１番地１,,11,202,3600816,,,,,,,2024-11-15,1,,,,,ツムギヤ,0
1035,4030003025491,新規,0,2024-11-15,2024-11-15,合同会社Ｂｅａｕｔｙ,,合同会社,埼玉県,草加市,青柳７丁目４３－１９,,11,221,3400002,,,,,,,2024-11-15,1,,,,,ビューティー,0
1036,4030003025500,新規,0,2024-11-15,2024-11-15,ＳａｌｅｓＭａｋｅｒ合同会社,,合同会社,埼玉県,川口市,芝新町３番１３－６０３号アルファコート蕨,,11,203,3330851,,,,,,,2024-11-15,1,,,,,セールスメーカー,0
1037,4030003025525,新規,0,2024-11-15,2024-11-15,シティワイズエステート合同会社,,合同会社,埼玉県,川越市,大字下広谷８５２番地１７,,11,201,3500804,,,,,,,2024-11-15,1,,,,,シティワイズエステート,0
1042,4040001136166,新規,0,2024-11-15,2024-11-15,クリカラヒロミ株式会社,,株式会社,千葉県,我孫子市,天王台４丁目３番２９号３Ｆ,,12,222,2701143,,,,,,,2024-11-15,1,,,,,クリカラヒロミ,0
1043,4040001136174,新規,0,2024-11-15,2024-11-15,株式会社ＳＥシステム,,株式会社,千葉県,市川市,八幡４丁目１８番２号,,12,203,2720021,,,,,,,2024-11-15,1,,,,,エスイーシステム,0
1046,4040003026191,新規,0,2024-11-15,2024-11-15,Ｂ＆Ｍ　Ａｕｔｏ合同会社,,合同会社,千葉県,野田市,船形２１３９番地１８,,12,208,2700233,,,,,,,2024-11-15,1,,,,,ビーアンドエムオウト,0
1047,4040003026209,新規,0,2024-11-15,2024-11-15,ＳＨＡＭＭＩ合同会社,,合同会社,千葉県,千葉市花見川区,幕張町６丁目３２４番地４ツインパレスＢ棟１０５号,,12,102,2620032,,,,,,,2024-11-15,1,,,,,シャッミ,0
1051,4050001055720,新規,0,2024-11-15,2024-11-15,ＯＲＩＧＡＭＩ　ＰＥＲＳＥ株式会社,,株式会社,茨城県,守谷市,松前台１丁目３０番地７フォレスト・スクエア２０５,,08,224,3020102,,,,,,,2024-11-15,1,,,,,オリガミパース,0
1052,4050001055729,新規,0,2024-11-15,2024-11-15,株式会社遊愛興業,,株式会社,茨城県,土浦市,東崎町４番１９号,,08,203,3000031,,,,,,,2024-11-15,1,,,,,ユウアイコウギョウ,0
1053,4050003008809,新規,0,2024-11-15,2024-11-15,合同会社ＲＹＵＳＩＮ,,合同会社,茨城県,常総市,大房６７９番地１３,,08,211,3002716,,,,,,,2024-11-15,1,,,,,リュウシン,0
1056,4060005010266,新規,0,2024-11-15,2024-11-15,特定非営利活動法人ｏｍｅｇａ　ｆａｍｉｌｙ,,その他の設立登記法人,栃木県,宇都宮市,天神２丁目４番３９号ウイングステイツ御本丸公園１０１,,09,201,3200816,,,,,,,2024-11-15,1,,,,,オメガファミリー,0
1060,4070003005655,新規,0,2024-11-15,2024-11-15,佐久間辻口建設合同会社,00137017,合同会社,群馬県,邑楽郡大泉町,東小泉１丁目３２番１３　号,,10,524,3700513,,,,,,,2024-11-15,1,,,,,サクマツジグチケンセツ,0
1066,4080101025133,新規,0,2024-11-15,2024-11-15,貴茶株式会社,,株式会社,静岡県,富士市,久沢１７２番地２,,22,210,4190202,,,,,,,2024-11-15,1,,,,,キチャ,0
1068,4080401027564,新規,0,2024-11-15,2024-11-15,株式会社ｐｉｅｃｅ　ｏｆ　ｐｅａｃｅ,,株式会社,静岡県,磐田市,加茂８９９番地９,,22,211,4380804,,,,,,,2024-11-15,1,,,,,ピースオブピース,0
1078,4090001019003,新規,0,2024-11-15,2024-11-15,株式会社アスノライフ,,株式会社,山梨県,甲斐市,西八幡３９８９番地２Ｗ－ｉｎｇＡ２,,19,210,4000117,,,,,,,2024-11-15,1,,,,,アスノライフ,0
1082,4100001038026,新規,0,2024-11-15,2024-11-15,株式会社シノハラ牧場,,株式会社,長野県,南佐久郡佐久穂町,大字畑１１３４番地２７,,20,309,3840701,,,,,,,2024-11-15,1,,,,,シノハラボクジョウ,0
1084,4100003007862,新規,0,2024-11-15,2024-11-15,合同会社ピオニエ,,合同会社,長野県,伊那市,美原７４４８番地２８８,,20,209,3960113,,,,,,,2024-11-15,1,,,,,ピオニエ,0
1090,4120001270304,新規,0,2024-11-15,2024-11-15,株式会社プライムＨＲ,,株式会社,大阪府,枚方市,枚方元町１番２１号,,27,210,5730052,,,,,,,2024-11-15,1,,,,,プライムエイチアール,0
1091,4120001270312,新規,0,2024-11-15,2024-11-15,株式会社エースシステム,,株式会社,大阪府,大阪市西区,立売堀５丁目６番１５号,,27,106,5500012,,,,,,,2024-11-15,1,,,,,エースシステム,0
1092,4120001270320,新規,0,2024-11-15,2024-11-15,スマートソリューション株式会社,,株式会社,大阪府,大阪市中央区,南船場３丁目２番２２号おおきに南船場ビル２０５,,27,128,5420081,,,,,,,2024-11-15,1,,,,,スマートソリューション,0
1093,4120001270329,新規,0,2024-11-15,2024-11-15,株式会社芙蓉,,株式会社,大阪府,大阪市西区,立売堀３丁目４番１３－６０３号,,27,106,5500012,,,,,,,2024-11-15,1,,,,,フヨウ,0
1096,4120003027974,新規,0,2024-11-15,2024-11-15,Ｙ＆Ｓカンパニー合同会社,,合同会社,大阪府,大阪市北区,梅田１丁目１番３号大阪駅前第三ビル２９階１－１－１号室,,27,127,5300001,,,,,,,2024-11-15,1,,,,,ワイアンドエスカンパニー,0
1097,4120003027982,新規,0,2024-11-15,2024-11-15,信徳合同会社,,合同会社,大阪府,大阪市城東区,鴫野西５丁目２０番２５号ユーミーハイツ鴫野２Ｂ号室,,27,118,5360014,,,,,,,2024-11-15,1,,,,,シントク,0
1098,4120003027990,新規,0,2024-11-15,2024-11-15,華商国際リーガルコンサル合同会社,,合同会社,大阪府,大阪市北区,芝田２丁目８－１１共栄ビル３階,,27,127,5300012,,,,,,,2024-11-15,1,,,,,カショウコクサイリーガルコンサル,0
1099,4120005024623,新規,0,2024-11-15,2024-11-15,一般社団法人心晴,,その他の設立登記法人,大阪府,枚方市,香里ケ丘３丁目１１番地の２８,,27,210,5730084,,,,,,,2024-11-15,1,,,,,コハル,0
1112,4130001078366,新規,0,2024-11-15,2024-11-15,イートエンターテインメント株式会社,,株式会社,京都府,京都市左京区,岩倉南池田町９８番地１,,26,103,6060005,,,,,,,2024-11-15,1,,,,,イートエンターテインメント,0
1117,4130003010005,新規,0,2024-11-15,2024-11-15,つむぎ不動産合同会社,,合同会社,京都府,京都市下京区,平居町５５番地１,,26,106,6008118,,,,,,,2024-11-15,1,,,,,ツムギフドウサン,0
1121,4140001136437,新規,0,2024-11-15,2024-11-15,株式会社河田工務店,,株式会社,兵庫県,姫路市,網干区宮内３７５番地１,,28,201,6711222,,,,,,,2024-11-15,1,,,,,カワタコウムテン,0
1122,4140001136445,新規,0,2024-11-15,2024-11-15,ＩＢＫエンタ‐プライズ株式会社,,株式会社,兵庫県,姫路市,飾磨区加茂２４２番地の１,,28,201,6728074,,,,,,,2024-11-15,1,,,,,アイビーケーエンタープライズ,0
1124,4150001027676,新規,0,2024-11-15,2024-11-15,株式会社ＰｅｅｋａＢｏｏ,,株式会社,奈良県,奈良市,秋篠町１０３１番地の１９,,29,201,6310811,,,,,,,2024-11-15,1,,,,,ピーカーブー,0
1132,4180001164120,新規,0,2024-11-15,2024-11-15,株式会社エターナルエステート,,株式会社,愛知県,名古屋市東区,泉１丁目２１番６号１００１号室,,23,102,4610001,,,,,,,2024-11-15,1,,,,,エターナルエステート,0
1133,4180001164145,新規,0,2024-11-15,2024-11-15,飛鳥旅行株式会社,,株式会社,愛知県,名古屋市南区,豊田５丁目２０番５８号,,23,112,4570841,,,,,,,2024-11-15,1,,,,,アスカリョコウ,0
1134,4180001164161,新規,0,2024-11-15,2024-11-15,アクアビルド株式会社,,株式会社,愛知県,名古屋市昭和区,天神町３丁目６アーバン佐々木３６－３Ｃ号,,23,107,4660032,,,,,,,2024-11-15,1,,,,,アクアビルド,0
1138,4180003027614,新規,0,2024-11-15,2024-11-15,合同会社Ｔｗｅｎｔｙｎｉｎｅ,,合同会社,愛知県,名古屋市千種区,穂波町２丁目３５番地,,23,101,4640822,,,,,,,2024-11-15,1,,,,,トゥエンティーナイン,0
1141,4180301039245,新規,0,2024-11-15,2024-11-15,株式会社ＭＩＴＯ不動産,,株式会社,愛知県,豊川市,御津町泙野山下１番地,,23,207,4410313,,,,,,,2024-11-15,1,,,,,ミトフドウサン,0
1144,4180305009624,新規,0,2024-11-15,2024-11-15,司法書士法人オフィススカイ,,その他の設立登記法人,愛知県,豊橋市,東松山町３３番地,,23,201,4400874,,,,,,,2024-11-15,1,,,,,オフィススカイ,0
1145,4190001031798,新規,0,2024-11-15,2024-11-15,マンパワープラス株式会社,,株式会社,三重県,尾鷲市,古戸町７番２６号,,24,209,5193652,,,,,,,2024-11-15,1,,,,,マンパワープラス,0
1146,4190001031807,新規,0,2024-11-15,2024-11-15,株式会社福鰹屋,,株式会社,三重県,四日市市,大字東阿倉川７０３番地１,,24,202,5100805,,,,,,,2024-11-15,1,,,,,フクカツヤ,0
1147,4200005013683,新規,0,2024-11-15,2024-11-15,特定非営利活動法人つきせぬ,,その他の設立登記法人,岐阜県,可児市,下恵土３４３３番地６５２,,21,214,5090203,,,,,,,2024-11-15,1,,,,,ツキセヌ,0
1148,4220001026316,新規,0,2024-11-15,2024-11-15,株式会社ＫＩＴＡＭＵＲＡホールディングス,,株式会社,石川県,金沢市,無量寺町ニ１２番地１１,,17,201,9200332,,,,,,,2024-11-15,1,,,,,キタムラホールディングス,0
1151,4230001020623,新規,0,2024-11-15,2024-11-15,株式会社榎屋,,株式会社,富山県,富山市,上千俵町１０８番地３,,16,201,9398134,,,,,,,2024-11-15,1,,,,,エノキヤ,0
1157,4240001064116,新規,0,2024-11-15,2024-11-15,株式会社ｇｌａｃ,,株式会社,広島県,福山市,南手城町３丁目１０番１８号,,34,207,7210963,,,,,,,2024-11-15,1,,,,,グラック,0
1160,4250003003590,新規,0,2024-11-15,2024-11-15,サンワールドサービス合同会社,,合同会社,山口県,宇部市,大字上宇部２８４２－１３－１０１号,,35,202,7550091,,,,,,,2024-11-15,1,,,,,サンワールドサービス,0
1173,4290001107919,新規,0,2024-11-15,2024-11-15,ＷｉｔｈＬａｂｏ株式会社,,株式会社,福岡県,福岡市中央区,天神２丁目２番１２号Ｔ＆Ｊビルディング７Ｆ,,40,133,8100001,,,,,,,2024-11-15,1,,,,,,0
1174,4290001107968,新規,0,2024-11-15,2024-11-15,宇優株式会社,,株式会社,福岡県,福岡市中央区,薬院４丁目１８番１５号ライオンズマンションマキシム浄水通り９０１号,,40,133,8100022,,,,,,,2024-11-15,1,,,,,ウユウ,0
1175,4290001107976,新規,0,2024-11-15,2024-11-15,住みナース株式会社,,株式会社,福岡県,久留米市,津福本町５５４－８,,40,203,8300047,,,,,,,2024-11-15,1,,,,,スミナース,0
1177,4290003016044,新規,0,2024-11-15,2024-11-15,合同会社エクセルアプリケーション,,合同会社,福岡県,福岡市南区,大楠２丁目２２番１２号,,40,134,8150082,,,,,,,2024-11-15,1,,,,,エクセルアプリケーション,0
1178,4290003016060,新規,0,2024-11-15,2024-11-15,合同会社ＡＮＡＭＩ,,合同会社,福岡県,八女市,井延２３番地２,,40,210,8340026,,,,,,,2024-11-15,1,,,,,アナミ,0
1183,4290801031038,新規,0,2024-11-15,2024-11-15,株式会社ＡＥＧＩＳ,,株式会社,福岡県,北九州市八幡東区,山王３丁目１５番２２号,,40,108,8050017,,,,,,,2024-11-15,1,,,,,イージス,0
1184,4300005007213,新規,0,2024-11-15,2024-11-15,一般社団法人さかしめ,,その他の設立登記法人,佐賀県,佐賀市,蓮池町大字小松３３８番地１０,,41,201,8400004,,,,,,,2024-11-15,1,,,,,サカシメ,0
1190,4310005008813,新規,0,2024-11-15,2024-11-15,医療法人光葉会,,その他の設立登記法人,長崎県,長崎市,新戸町２丁目６番１７号,,42,201,8500954,,,,,,,2024-11-15,1,,,,,ミツバカイ,0
1198,4360001034437,新規,0,2024-11-15,2024-11-15,株式会社八雲,,株式会社,沖縄県,浦添市,宮城４丁目１８－２４フリーベル浦添宮城６０３,,47,208,9012126,,,,,,,2024-11-15,1,,,,,ヤクモ,0
1201,4370001051927,新規,0,2024-11-15,2024-11-15,秋保ハートロックサケ株式会社,,株式会社,宮城県,仙台市青葉区,東勝山３丁目１４番５号,,04,101,9810923,,,,,,,2024-11-15,1,,,,,アキウハートロックサケ,0
1202,4370001051935,新規,0,2024-11-15,2024-11-15,株式会社アライズ,,株式会社,宮城県,石巻市,中里３丁目２番３３号,,04,202,9860815,,,,,,,2024-11-15,1,,,,,アライズ,0
1205,4370003006821,新規,0,2024-11-15,2024-11-15,合同会社ジャストガード,,合同会社,宮城県,仙台市青葉区,二日町９番２３－８０６号,,04,101,9800802,,,,,,,2024-11-15,1,,,,,ジャストガード,0
1210,4380003005888,新規,0,2024-11-15,2024-11-15,合同会社アイケー工業,,合同会社,福島県,郡山市,静西１丁目２６９番地,,07,203,9630232,,,,,,,2024-11-15,1,,,,,アイケーコウギョウ,0
1223,4470003002752,新規,0,2024-11-15,2024-11-15,レガロ合同会社,,合同会社,香川県,高松市,多肥上町１７１８番地１,,37,201,7618076,,,,,,,2024-11-15,1,,,,,レガロ,0
1224,4480001012653,新規,0,2024-11-15,2024-11-15,株式会社ノース,,株式会社,徳島県,徳島市,北沖洲２丁目２番１４号,,36,201,7700872,,,,,,,2024-11-15,1,,,,,ノース,0
1226,4500001025999,新規,0,2024-11-15,2024-11-15,株式会社十色,,株式会社,愛媛県,松山市,鷹子町１０８８番地４,,38,201,7900925,,,,,,,2024-11-15,1,,,,,トイロ,0
1259,5010001249663,新規,0,2024-11-15,2024-11-15,株式会社ＴＥＡ　ＢＬＡＮＫ,,株式会社,東京都,千代田区,神田錦町３丁目１５番地１６錦町ブンカイサン,,13,101,1010054,,,,,,,2024-11-15,1,,,,,ティーブランク,0
1260,5010001249787,新規,0,2024-11-15,2024-11-15,株式会社ＶＩＺＯＲＡ,,株式会社,東京都,中央区,銀座１丁目２０－１５－２Ｆ,,13,102,1040061,,,,,,,2024-11-15,1,,,,,ヴィゾラ,0
1261,5010001249837,新規,0,2024-11-15,2024-11-15,Ｒｅｂｙ’ｓ株式会社,,株式会社,東京都,中央区,勝どき５丁目３番１‐２９２４号,,13,102,1040054,,,,,,,2024-11-15,1,,,,,レビィズ,0
1262,5010001249861,新規,0,2024-11-15,2024-11-15,ＭＥＨＤ株式会社,,株式会社,東京都,中央区,日本橋兜町１５番１２号,,13,102,1030026,,,,,,,2024-11-15,1,,,,,エムイーエイチディー,0
1263,5010001249894,新規,0,2024-11-15,2024-11-15,ＭＫＳ株式会社,,株式会社,東京都,千代田区,四番町４番地９（新東京国際リーガル内）,,13,101,1020081,,,,,,,2024-11-15,1,,,,,エムケーエス,0
1264,5010001249903,新規,0,2024-11-15,2024-11-15,東星コンサルティング株式会社,,株式会社,東京都,中央区,晴海３丁目１３番１－２９０３号,,13,102,1040053,,,,,,,2024-11-15,1,,,,,トウセイコンサルティング,0
1265,5010001249944,新規,0,2024-11-15,2024-11-15,株式会社ＢａｙＢｅ,,株式会社,東京都,中央区,銀座１丁目１２番４号Ｎ＆ＥＢＬＤ．６Ｆ,,13,102,1040061,,,,,,,2024-11-15,1,,,,,ベイビー,0
1280,5010003045466,新規,0,2024-11-15,2024-11-15,合同会社バッテリーランド３,,合同会社,東京都,千代田区,大手町１丁目９番２号大手町フィナンシャルシティグランキューブ１８階１８１２号室,,13,101,1000004,,,,,,,2024-11-15,1,,,,,バッテリーランドスリー,0
1289,5010401186465,新規,0,2024-11-15,2024-11-15,Ｓｕｎｂｉｔｉｏｎ株式会社,,株式会社,東京都,港区,東麻布１丁目１８－９グランシティ麻布９０１,,13,103,1060044,,,,,,,2024-11-15,1,,,,,サンビション,0
1301,5011001165751,新規,0,2024-11-15,2024-11-15,株式会社ＲＥＩ,,株式会社,東京都,渋谷区,道玄坂１丁目１０番８号渋谷道玄坂東急ビル２Ｆ－Ｃ,,13,113,1500043,,,,,,,2024-11-15,1,,,,,レイ,0
1302,5011001165925,新規,0,2024-11-15,2024-11-15,株式会社ＳｙｓＲｉｓｋ,,株式会社,東京都,渋谷区,富ヶ谷２丁目３５番１１号,,13,113,1510063,,,,,,,2024-11-15,1,,,,,シスリスク,0
1303,5011001165941,新規,0,2024-11-15,2024-11-15,沁園春株式会社,,株式会社,東京都,渋谷区,富ヶ谷２丁目１７番１４号ハイシティ代々木公園１０３,,13,113,1510063,,,,,,,2024-11-15,1,,,,,シンエンシュン,0
1304,5011003020450,新規,0,2024-11-15,2024-11-15,合同会社Ｂｕｎｇａｌｏｗ,,合同会社,東京都,渋谷区,渋谷２丁目１９‐１５宮益坂ビルディング６０９,,13,113,1500002,,,,,,,2024-11-15,1,,,,,バンガロー,0
1311,5011101109583,新規,0,2024-11-15,2024-11-15,株式会社アイクテクノロジー,,株式会社,東京都,新宿区,西新宿４丁目５－１０パレステュディオ新宿パークサイド９１６号室,,13,104,1600023,,,,,,,2024-11-15,1,,,,,アイクテクノロジー,0
1314,5011201025920,新規,0,2024-11-15,2024-11-15,優建不動産株式会社,,株式会社,東京都,中野区,東中野１丁目５９番９号２階,,13,114,1640003,,,,,,,2024-11-15,1,,,,,ユウケンフドウサン,0
1315,5011403004557,新規,0,2024-11-15,2024-11-15,合同会社ＫＡＴＳＵ,,合同会社,東京都,板橋区,志村３丁目１６番８号,,13,119,1740056,,,,,,,2024-11-15,1,,,,,カツ,0
1317,5011601028192,新規,0,2024-11-15,2024-11-15,永寿サイエンス株式会社,,株式会社,東京都,練馬区,東大泉６丁目４０番３号,,13,120,1780063,,,,,,,2024-11-15,1,,,,,エイジュサイエンス,0
1318,5011603004514,新規,0,2024-11-15,2024-11-15,合同会社ｈａｐｉｌｉｏｎ,,合同会社,東京都,練馬区,関町北４丁目１６番２７－１０１号,,13,120,1770051,,,,,,,2024-11-15,1,,,,,ハピリオン,0
1319,5011603004522,新規,0,2024-11-15,2024-11-15,リーエンマークス合同会社,,合同会社,東京都,練馬区,高野台３丁目１５番３５号６０２,,13,120,1770033,,,,,,,2024-11-15,1,,,,,リーエンマークス,0
1328,5012303002072,新規,0,2024-11-15,2024-11-15,おおた企画合同会社,,合同会社,東京都,町田市,下小山田町８２６番地７,,13,209,1940202,,,,,,,2024-11-15,1,,,,,,0
1334,5012801023545,新規,0,2024-11-15,2024-11-15,株式会社ＴｒｅｅＧｌｏｂａｌＰａｒｔｎｅｒｓ,,株式会社,東京都,国立市,中１丁目９－８第７叶ビル３Ｆ,,13,215,1860004,,,,,,,2024-11-15,1,,,,,ツリーグローバルパートナーズ,0
1335,5012801023578,新規,0,2024-11-15,2024-11-15,株式会社三橋建工,,株式会社,東京都,国立市,富士見台２丁目７番地の４ドミールフジミ２０３,,13,215,1860003,,,,,,,2024-11-15,1,,,,,ミハシケンコウ,0
1336,5013101009565,新規,0,2024-11-15,2024-11-15,株式会社ＳＩＥＧ,,株式会社,東京都,青梅市,河辺町５丁目１０番地の６キャッスル河辺１１２,,13,205,1980036,,,,,,,2024-11-15,1,,,,,ジーク,0
1340,5013301053388,新規,0,2024-11-15,2024-11-15,ワンピース株式会社,,株式会社,東京都,豊島区,池袋１丁目９番９号,,13,116,1700014,,,,,,,2024-11-15,1,,,,,ワンピース,0
1352,5020001160043,新規,0,2024-11-15,2024-11-15,株式会社オフィスＡＴＧ２,,株式会社,神奈川県,横浜市港北区,新横浜２丁目６番地１,,14,109,2220033,,,,,,,2024-11-15,1,,,,,オフィスエーティージーツー,0
1362,5021001083787,新規,0,2024-11-15,2024-11-15,ラクリスマーケティング株式会社,,株式会社,神奈川県,藤沢市,鵠沼桜が岡１丁目８番９号,,14,205,2510027,,,,,,,2024-11-15,1,,,,,ラクリスマーケティング,0
1372,5030001163441,新規,0,2024-11-15,2024-11-15,株式会社ミライング,,株式会社,埼玉県,越谷市,大字大林４５２番地１２,,11,222,3430021,,,,,,,2024-11-15,1,,,,,ミライング,0
1373,5030001163458,新規,0,2024-11-15,2024-11-15,株式会社Ｂｅｙｏｎｄコンサルティング,,株式会社,埼玉県,川口市,本蓮２丁目１９番１８号２号棟,00137022,11,203,3340076,,,,,,,2024-11-15,1,,,,,ビヨンドコンサルティング,0
1374,5030001163474,新規,0,2024-11-15,2024-11-15,アルティ株式会社,,株式会社,埼玉県,さいたま市中央区,下落合６丁目１２番２０号,,11,105,3380002,,,,,,,2024-11-15,1,,,,,アルティ,0
1379,5030003025482,新規,0,2024-11-15,2024-11-15,ＮＭＴ合同会社,,合同会社,埼玉県,朝霞市,岡３丁目２５番４１号,,11,227,3510007,,,,,,,2024-11-15,1,,,,,エヌエムティ,0
1380,5030003025490,新規,0,2024-11-15,2024-11-15,ＳＡＫＵＲＡ合同会社,,合同会社,埼玉県,坂戸市,泉町３丁目４－１５エイコウハイツＡ２０２号室,,11,239,3500231,,,,,,,2024-11-15,1,,,,,サクラ,0
1388,5040001136173,新規,0,2024-11-15,2024-11-15,ＶＥＲＳＩＴＹ株式会社,,株式会社,千葉県,君津市,人見２丁目１０番地の１,,12,225,2991147,,,,,,,2024-11-15,1,,,,,ワシティ,0
1394,5050003008808,新規,0,2024-11-15,2024-11-15,合同会社Ａ．Ｒ．Ｃ．,,合同会社,茨城県,つくば市,天久保２丁目２番地３２恋瀬荘２０６,,08,220,3050005,,,,,,,2024-11-15,1,,,,,アーク,0
1397,5060003005325,新規,0,2024-11-15,2024-11-15,合同会社Ｒａｙ‐ＡＴトータルヘルス,,合同会社,栃木県,那須郡那珂川町,久那瀬８０番地,,09,411,3240614,,,,,,,2024-11-15,1,,,,,レイアットトータルヘルス,0
1401,5070001042369,新規,0,2024-11-15,2024-11-15,株式会社Ｄｏｔｓ　Ｃｏｍｐａｎｙ,,株式会社,群馬県,高崎市,連雀町８４番地今坂屋ビル２階,,10,202,3700826,,,,,,,2024-11-15,1,,,,,ドッツカンパニー,0
1402,5070001042377,新規,0,2024-11-15,2024-11-15,株式会社Ａｍｉｓ,,株式会社,群馬県,桐生市,境野町２丁目７７２－１０,,10,203,3760002,,,,,,,2024-11-15,1,,,,,アミス,0
1405,5080101025132,新規,0,2024-11-15,2024-11-15,株式会社Ｍｉｌｅｓｔｏｎｅ,,株式会社,静岡県,沼津市,足高３２２番地の１８０,,22,203,4100001,,,,,,,2024-11-15,1,,,,,マイルストーン,0
1414,5080403005146,新規,0,2024-11-15,2024-11-15,合同会社アメジスト,,合同会社,静岡県,浜松市中央区,神田町１６６番地の１,,22,138,4328047,,,,,,,2024-11-15,1,,,,,アメジスト,0
1415,5090001019002,新規,0,2024-11-15,2024-11-15,株式会社オリナス,,株式会社,山梨県,北杜市,小淵沢町１０５１番地１Ｈｏｐｅ巣コ・クリエーション小淵沢８番,,19,209,4080044,,,,,,,2024-11-15,1,,,,,オリナス,0
1426,5120001270278,新規,0,2024-11-15,2024-11-15,株式会社ＹＳ不動産,,株式会社,大阪府,枚方市,養父丘１丁目１８番２２号,,27,210,5731134,,,,,,,2024-11-15,1,,,,,ワイズフドウサン,0
1427,5120001270311,新規,0,2024-11-15,2024-11-15,株式会社パーソナル,,株式会社,大阪府,大阪市西区,立売堀５丁目６番１５号,,27,106,5500012,,,,,,,2024-11-15,1,,,,,パーソナル,0
1435,5120101070594,新規,0,2024-11-15,2024-11-15,株式会社Ｔ‐ＳＰＯＴ,,株式会社,大阪府,堺市堺区,北三国ヶ丘町８丁８番１５‐５０３号,,27,141,5900021,,,,,,,2024-11-15,1,,,,,ティースポット,0
1437,5120901050036,新規,0,2024-11-15,2024-11-15,北摂三興物流株式会社,,株式会社,大阪府,摂津市,鳥飼新町２丁目３１番２９号,,27,224,5660065,,,,,,,2024-11-15,1,,,,,ホクセツサンコウブツリュウ,0
1443,5130001078357,新規,0,2024-11-15,2024-11-15,株式会社レッド・ブリックス,,株式会社,京都府,宮津市,字白柏１３１８,,26,205,6260011,,,,,,,2024-11-15,1,,,,,レッドブリックス,0
1444,5130001078365,新規,0,2024-11-15,2024-11-15,積点株式会社,,株式会社,京都府,京都市東山区,石泉院町３９４－４－２０１,,26,105,6050021,,,,,,,2024-11-15,1,,,,,セキテン,0
1445,5130003010004,新規,0,2024-11-15,2024-11-15,合同会社Ｂｏｏ,,合同会社,京都府,京都市伏見区,向島丸町２０番地６,,26,109,6128131,,,,,,,2024-11-15,1,,,,,ブー,0
1447,5130005017187,新規,0,2024-11-15,2024-11-15,一般社団法人廃‐Ｔｅｋ,,その他の設立登記法人,京都府,京都市左京区,大菊町１２０番地６,,26,103,6068376,,,,,,,2024-11-15,1,,,,,ハイテック,0
1457,5140001136444,新規,0,2024-11-15,2024-11-15,株式会社ｌｏｒｄ,,株式会社,兵庫県,三田市,あかしあ台５丁目３２番１号,,28,219,6691323,,,,,,,2024-11-15,1,,,,,ロード,0
1460,5150001027667,新規,0,2024-11-15,2024-11-15,株式会社ＧＬＡＭ,,株式会社,奈良県,橿原市,葛本町８０７番地の５,,29,205,6340007,,,,,,,2024-11-15,1,,,,,グラム,0
1461,5150001027675,新規,0,2024-11-15,2024-11-15,匠ロジスティクス株式会社,,株式会社,奈良県,葛城市,東室２０３－３,,29,211,6392102,,,,,,,2024-11-15,1,,,,,タクミロジスティクス,0
1467,5180003027613,新規,0,2024-11-15,2024-11-15,合同会社波乃音,,合同会社,愛知県,名古屋市千種区,星が丘元町１１番６号（グランドヒル東山２０１号）,,23,101,4640802,,,,,,,2024-11-15,1,,,,,ナミノネ,0
1499,5290001107827,新規,0,2024-11-15,2024-11-15,Ｇｕａｎ株式会社,,株式会社,福岡県,福岡市城南区,別府４丁目５－１デュレジア別府１３０１,,40,136,8140104,,,,,,,2024-11-15,1,,,,,グアン,0
1500,5290001107892,新規,0,2024-11-15,2024-11-15,株式会社イクモ,,株式会社,福岡県,福岡市早良区,百道浜３丁目３番１号,,40,137,8140001,,,,,,,2024-11-15,1,,,,,イクモ,0
1501,5290001107934,新規,0,2024-11-15,2024-11-15,株式会社さくら,,株式会社,福岡県,久留米市,東町３９７番地４東町シティビル４階,,40,203,8300032,,,,,,,2024-11-15,1,,,,,サクラ,0
1502,5290001107959,新規,0,2024-11-15,2024-11-15,株式会社えむさぽ,,株式会社,福岡県,福岡市中央区,今泉１丁目１２番８号天神ＱＲビル５０２号,,40,133,8100021,,,,,,,2024-11-15,1,,,,,エムサポ,0
1503,5290001107975,新規,0,2024-11-15,2024-11-15,Ｇシステム株式会社,,株式会社,福岡県,大川市,大字本木室字長筬５９４－１,,40,212,8310015,,,,,,,2024-11-15,1,,,,,ジーシステム,0
1504,5290001107983,新規,0,2024-11-15,2024-11-15,株式会社ＪＭＡＧ,,株式会社,福岡県,糸島市,前原中央２丁目３番４８号尾関ビル２階,,40,230,8191116,,,,,,,2024-11-15,1,,,,,ジェイエムエージー,0
1506,5290003016051,新規,0,2024-11-15,2024-11-15,ＨＴコンサルティング合同会社,,合同会社,福岡県,福岡市博多区,博多駅前４丁目１６番６号,,40,132,8120011,,,,,,,2024-11-15,1,,,,,エイチティーコンサルティング,0
1507,5290003016076,新規,0,2024-11-15,2024-11-15,ＭＫメディカル合同会社,,合同会社,福岡県,福岡市早良区,西新７丁目２番２９号アースザレジデンス４０２号,,40,137,8140002,,,,,,,2024-11-15,1,,,,,エムケイメディカル,0
1513,5320005010197,新規,0,2024-11-15,2024-11-15,おおいたダイヤ事業協同組合,,その他の設立登記法人,大分県,別府市,楠町１９番１２号,,44,202,8740943,,,,,,,2024-11-15,1,,,,,オオイタダイヤジギョウ,0
1520,5330003010644,新規,0,2024-11-15,2024-11-15,合同会社Ｇｏｏｄ　Ｆｏｒｔｕｎｅ,,合同会社,熊本県,山鹿市,上吉田１２８３－１,,43,208,8610524,,,,,,,2024-11-15,1,,,,,グッドフォーチュン,0
1524,5360003014460,新規,0,2024-11-15,2024-11-15,合同会社金城企画,,合同会社,沖縄県,那覇市,牧志２丁目１７番２７－４０１号,,47,201,9000013,,,,,,,2024-11-15,1,,,,,キンジョウキカク,0
1526,5370001051901,新規,0,2024-11-15,2024-11-15,株式会社探Ｌａｂ,,株式会社,宮城県,仙台市青葉区,国分町１丁目４番地９ｅｎｓｐａｃｅ,,04,101,9800803,,,,,,,2024-11-15,1,,,,,タンラボ,0
1527,5370001051918,新規,0,2024-11-15,2024-11-15,株式会社やわらか空調,,株式会社,宮城県,仙台市宮城野区,萩野町２丁目２４番９号、２Ｆ,,04,102,9830043,,,,,,,2024-11-15,1,,,,,ヤワラカクウチョウ,0
1528,5370001051926,新規,0,2024-11-15,2024-11-15,株式会社５Ｓｔｒａｎｄｓ　Ｊａｐａｎ,,株式会社,宮城県,仙台市泉区,館３丁目３５番地の６,,04,105,9813214,,,,,,,2024-11-15,1,,,,,ファイブストランドジャパン,0
1529,5370001051934,新規,0,2024-11-15,2024-11-15,株式会社メルヴェーユラピス,,株式会社,宮城県,仙台市宮城野区,小田原山本丁１００番６号,,04,102,9830817,,,,,,,2024-11-15,1,,,,,メルヴェーユラピス,0
1530,5370001051942,新規,0,2024-11-15,2024-11-15,株式会社５２６,,株式会社,宮城県,仙台市太白区,あすと長町３丁目１番６５－５０３号,,04,104,9820007,,,,,,,2024-11-15,1,,,,,ゴーニーロク,0
1532,5370003006820,新規,0,2024-11-15,2024-11-15,合同会社アンデン,,合同会社,宮城県,仙台市青葉区,落合２丁目６番８号ウェルステージ丸浩弐番館４０２号室,,04,101,9893126,,,,,,,2024-11-15,1,,,,,アンデン,0
1547,5500001025998,新規,0,2024-11-15,2024-11-15,株式会社勝昇,,株式会社,愛媛県,松山市,新立町３番１７号,,38,201,7900865,,,,,,,2024-11-15,1,,,,,カッショウ,0
1571,6010001249860,新規,0,2024-11-15,2024-11-15,株式会社アエテルナ,,株式会社,東京都,文京区,本駒込２丁目２８番５３－３０５号,,13,105,1130021,,,,,,,2024-11-15,1,,,,,アエテルナ,0
1572,6010001249869,新規,0,2024-11-15,2024-11-15,株式会社カワシマ商会,,株式会社,東京都,文京区,大塚４丁目４０番１－５０１号,,13,105,1120012,,,,,,,2024-11-15,1,,,,,カワシマショウカイ,0
1573,6010001249877,新規,0,2024-11-15,2024-11-15,株式会社ｏｃ．Ｃｒａｆｔｓｍａｎ,,株式会社,東京都,中央区,銀座１丁目１２番４号Ｎ＆ＥＢＬＤ．６Ｆ,,13,102,1040061,,,,,,,2024-11-15,1,,,,,オーシークラフトマン,0
1574,6010001250001,新規,0,2024-11-15,2024-11-15,株式会社ラポクレア,,株式会社,東京都,中央区,日本橋蛎殻町１丁目３０番１１号ヨートービル３階,,13,102,1030014,,,,,,,2024-11-15,1,,,,,ラポクレア,0
1584,6010003045457,新規,0,2024-11-15,2024-11-15,Ｍａｊｏｒ　Ｌｅａｄｅｒ合同会社,,合同会社,東京都,中央区,銀座１丁目１２－４Ｎ＆ＥＢＬＤ６Ｆ,,13,102,1040061,,,,,,,2024-11-15,1,,,,,メジャーリーダー,0
1585,6010003045465,新規,0,2024-11-15,2024-11-15,合同会社バッテリーランド２,,合同会社,東京都,千代田区,大手町１丁目９番２号大手町フィナンシャルシティグランキューブ１８階１８１２号室,,13,101,1000004,,,,,,,2024-11-15,1,,,,,バッテリーランドツー,0
1586,6010003045473,新規,0,2024-11-15,2024-11-15,合同会社それいゆ,,合同会社,東京都,千代田区,平河町１丁目７番５号ヴィラロイヤル平河１０１号,,13,101,1020093,,,,,,,2024-11-15,1,,,,,ソレイユ,0
1587,6010003045481,新規,0,2024-11-15,2024-11-15,合同会社ｍａｙｕｒａｇｒｉｓｅ,,合同会社,東京都,中央区,銀座３丁目１３番４号銀座スカイビル２０１号,,13,102,1040061,,,,,,,2024-11-15,1,,,,,マユラグリーズ,0
1588,6010003045498,新規,0,2024-11-15,2024-11-15,ブルーインフラＬ号合同会社,,合同会社,東京都,千代田区,紀尾井町４番１号ニューオータニガーデンコート１９階フィンポート税理士法人内,,13,101,1020094,,,,,,,2024-11-15,1,,,,,ブルーインフラエルゴウ,0
1592,6010101016401,新規,0,2024-11-15,2024-11-15,株式会社Ｎｅｚｕｎｏｗａ,,株式会社,東京都,八王子市,元本郷町１丁目９番１５号,,13,201,1920051,,,,,,,2024-11-15,1,,,,,ネヅノワ,0
1601,6010401186308,新規,0,2024-11-15,2024-11-15,サードプレイス株式会社,,株式会社,東京都,港区,南青山２丁目２番１５号,,13,103,1070062,,,,,,,2024-11-15,1,,,,,サードプレイス,0
1602,6010401186407,新規,0,2024-11-15,2024-11-15,Ｓｏａｒ株式会社,,株式会社,東京都,港区,南青山３丁目１番３６号青山丸竹ビル６階,,13,103,1070062,,,,,,,2024-11-15,1,,,,,ソアー,0
1603,6010401186480,新規,0,2024-11-15,2024-11-15,株式会社ビジネス・リサーチデザイン研究所,,株式会社,東京都,港区,白金６丁目１４番１５号シェーネ白金３０１,,13,103,1080072,,,,,,,2024-11-15,1,,,,,ビジネスリサーチデザインケンキュウジョ,0
1605,6010403033788,新規,0,2024-11-15,2024-11-15,ＴｏＦＵＴＵＲＥ合同会社,,合同会社,東京都,港区,南青山２丁目２－１５ＷｉｎＡｏｙａｍａビルＵＣＦ６３５,,13,103,1070062,,,,,,,2024-11-15,1,,,,,トゥーフューチャー,0
1607,6010501053184,新規,0,2024-11-15,2024-11-15,坤禾商事株式会社,,株式会社,東京都,台東区,上野１丁目１０番地８アジア商事上野ビル５Ｆ,,13,106,1100005,,,,,,,2024-11-15,1,,,,,コンカショウジ,0
1616,6011001165957,新規,0,2024-11-15,2024-11-15,株式会社ＧＲＯＯＶＥ　ＣＨＡＳＥ,,株式会社,東京都,目黒区,下目黒１丁目１番１４号,,13,110,1530064,,,,,,,2024-11-15,1,,,,,グルーブチェース,0
1617,6011001165973,新規,0,2024-11-15,2024-11-15,縁の株式会社,,株式会社,東京都,渋谷区,猿楽町１１番１０号１０２,,13,113,1500033,,,,,,,2024-11-15,1,,,,,エンノ,0
1619,6011005010738,新規,0,2024-11-15,2024-11-15,一般社団法人ビジネスＡＩ推進機構,,その他の設立登記法人,東京都,渋谷区,道玄坂１丁目１６－６二葉ビル８Ｂ,,13,113,1500043,,,,,,,2024-11-15,1,,,,,ビジネスエーアイスイシンキコウ,0
1622,6011101109558,新規,0,2024-11-15,2024-11-15,株式会社ＨＥ　ＤＲＥＡＭ,,株式会社,東京都,新宿区,大久保１丁目７番２４号,,13,104,1690072,,,,,,,2024-11-15,1,,,,,ヘドリーム,0
1623,6011101109582,新規,0,2024-11-15,2024-11-15,株式会社ヨンヒャクド,,株式会社,東京都,新宿区,若宮町１３番地１ｋｉｆａｎｎｅｘ１Ｆ,,13,104,1620827,,,,,,,2024-11-15,1,,,,,ヨンヒャクド,0
1624,6011103015176,新規,0,2024-11-15,2024-11-15,合同会社メディプラス,,合同会社,東京都,新宿区,納戸町２１番地１０２,,13,104,1620837,,,,,,,2024-11-15,1,,,,,メディプラス,0
1626,6011301030159,新規,0,2024-11-15,2024-11-15,株式会社ＵＮＩＣＯコンサルティング,,株式会社,東京都,杉並区,本天沼１丁目２２番４号,,13,115,1670031,,,,,,,2024-11-15,1,,,,,ウニココンサルティング,0
1633,6011605002614,新規,0,2024-11-15,2024-11-15,一般社団法人エニワンプロジェクト,,その他の設立登記法人,東京都,練馬区,南大泉３丁目２８番９－３０１号,,13,120,1780064,,,,,,,2024-11-15,1,,,,,エニワンプロジェクト,0
1635,6011801045160,新規,0,2024-11-15,2024-11-15,株式会社ＳＳ１ホールディングス,,株式会社,東京都,葛飾区,新小岩２丁目３４番１０号,,13,122,1240024,,,,,,,2024-11-15,1,,,,,エスエスワンホールディングス,0
1637,6011803006557,新規,0,2024-11-15,2024-11-15,合同会社円笑,,合同会社,東京都,葛飾区,東新小岩４丁目３番４号,,13,122,1240023,,,,,,,2024-11-15,1,,,,,マルショウ,0
1638,6011805003412,新規,0,2024-11-15,2024-11-15,一般社団法人ペットハッピーライフサポート協会,,その他の設立登記法人,東京都,葛飾区,水元２丁目２３番２２号ブルーハイムタナカ３０５,,13,122,1250032,,,,,,,2024-11-15,1,,,,,ペットハッピーライフサポートキョウカイ,0
1640,6012701018561,新規,0,2024-11-15,2024-11-15,野村ホーム株式会社,,株式会社,東京都,東村山市,富士見町２丁目１８番地７,,13,213,1890024,,,,,,,2024-11-15,1,,,,,ノムラホーム,0
1648,6020001160059,新規,0,2024-11-15,2024-11-15,株式会社すみれ企画,,株式会社,神奈川県,横浜市都筑区,中川中央１丁目３０－１プレミアヨコハマ３Ｆ,,14,118,2240003,,,,,,,2024-11-15,1,,,,,スミレキカク,0
1650,6020003027231,新規,0,2024-11-15,2024-11-15,ｓｉｔｙ合同会社,,合同会社,神奈川県,横浜市磯子区,中原２丁目１９番７－２０２号,,14,107,2350036,,,,,,,2024-11-15,1,,,,,シティ,0
1666,6030001163440,新規,0,2024-11-15,2024-11-15,クレージュＹ株式会社,,株式会社,埼玉県,さいたま市南区,内谷７丁目８番１－７０２号,,11,108,3360034,,,,,,,2024-11-15,1,,,,,クレージュワイ,0
1667,6030001163457,新規,0,2024-11-15,2024-11-15,カフー株式会社,,株式会社,埼玉県,熊谷市,上川上５６７番地４９,,11,202,3600004,,,,,,,2024-11-15,1,,,,,カフー,0
1668,6030001163465,新規,0,2024-11-15,2024-11-15,株式会社かもめ薬局,,株式会社,埼玉県,鶴ヶ島市,大字五味ヶ谷１３３４番地１,,11,241,3502202,,,,,,,2024-11-15,1,,,,,カモメヤッキョク,0
1669,6030001163473,新規,0,2024-11-15,2024-11-15,株式会社トリリンガル・モモキッズ,,株式会社,埼玉県,川越市,藤原町２６番地７（スカイヒルズ１０３号室）,,11,201,3501143,,,,,,,2024-11-15,1,,,,,トリリンガルモモキッズ,0
1672,6030003025473,新規,0,2024-11-15,2024-11-15,Ｇａｎｅｓｈａ合同会社,,合同会社,埼玉県,さいたま市浦和区,神明２丁目１６番８号,,11,107,3300065,,,,,,,2024-11-15,1,,,,,ガネーシャ,0
1679,6040001136098,新規,0,2024-11-15,2024-11-15,新輝株式会社,,株式会社,千葉県,柏市,柏７４４番地１２,,12,217,2770005,,,,,,,2024-11-15,1,,,,,シンキ,0
1682,6040003026165,新規,0,2024-11-15,2024-11-15,コースド國際貿易合同会社,,合同会社,千葉県,船橋市,金杉台１丁目２番２棟５０１号,,12,204,2730852,,,,,,,2024-11-15,1,,,,,コースドコクサイボウエキ,0
1683,6040003026207,新規,0,2024-11-15,2024-11-15,グリーン産業合同会社,,合同会社,千葉県,千葉市美浜区,高浜２丁目３番４号,,12,106,2610003,,,,,,,2024-11-15,1,,,,,グリーンサンギョウ,0
1684,6040005022567,新規,0,2024-11-15,2024-11-15,一般社団法人ハートフルジョブワン,,その他の設立登記法人,千葉県,習志野市,東習志野２丁目２０番９号,,12,216,2750001,,,,,,,2024-11-15,1,,,,,ハートフルジョブワン,0
1690,6070001042368,新規,0,2024-11-15,2024-11-15,株式会社ｓｈ．ｉ．ｐ,,株式会社,群馬県,伊勢崎市,豊城町２１４６－１３,,10,204,3720012,,,,,,,2024-11-15,1,,,,,シップ,0
1692,6070003005661,新規,0,2024-11-15,2024-11-15,合同会社ロコレス,,合同会社,群馬県,高崎市,石原町５３９番地,,10,202,3700864,,,,,,,2024-11-15,1,,,,,ロコレス,0
1702,6100001038032,新規,0,2024-11-15,2024-11-15,ＨＡＫＵＢＡリゾート株式会社,,株式会社,長野県,北安曇郡白馬村,大字北城２６４番地,,20,485,3999301,,,,,,,2024-11-15,1,,,,,ハクバリゾート,0
1705,6110001038840,新規,0,2024-11-15,2024-11-15,アワジホールディングス株式会社,,株式会社,新潟県,長岡市,宮栄２丁目７番３２号,,15,202,9401154,,,,,,,2024-11-15,1,,,,,アワジホールディングス,0
1709,6110005017155,新規,0,2024-11-15,2024-11-15,特定非営利活動法人県央地域の未来を考える会,,その他の設立登記法人,新潟県,燕市,道金２８４４番地,,15,213,9591265,,,,,,,2024-11-15,1,,,,,ケンオウチイキノミライヲカンガエルカイ,0
1722,6120001270186,新規,0,2024-11-15,2024-11-15,株式会社Ｓｏｅｌｕ,,株式会社,大阪府,大阪市東淀川区,下新庄４丁目９番２８号,,27,114,5330021,,,,,,,2024-11-15,1,,,,,ソエル,0
1723,6120001270277,新規,0,2024-11-15,2024-11-15,株式会社久和,,株式会社,大阪府,大阪市生野区,新今里２丁目１０－２３－１０１号,,27,116,5440001,,,,,,,2024-11-15,1,,,,,キュウワ,0
1724,6120001270285,新規,0,2024-11-15,2024-11-15,株式会社ｍａｒｋｅｔｃｒｅａｔｅ,,株式会社,大阪府,大阪市北区,梅田１丁目２番２号大阪駅前第２ビル１２－１２,,27,127,5300001,,,,,,,2024-11-15,1,,,,,マーケットクリエイト,0
1725,6120001270327,新規,0,2024-11-15,2024-11-15,東方協和株式会社,,株式会社,大阪府,大阪市中央区,島之内１丁目２番１８号,,27,128,5420082,,,,,,,2024-11-15,1,,,,,トウホウキョウワ,0
1726,6120001270343,新規,0,2024-11-15,2024-11-15,大阪博洋株式会社,,株式会社,大阪府,大阪市東淀川区,柴島３丁目１０番１９号,,27,114,5330024,,,,,,,2024-11-15,1,,,,,オオサカハクヨウ,0
1729,6122001038646,新規,0,2024-11-15,2024-11-15,株式会社Ｂｅｙｏｎｄ,,株式会社,大阪府,八尾市,東山本町１丁目１６番２１号,,27,212,5810847,,,,,,,2024-11-15,1,,,,,ビヨンド,0
1732,6130001078323,新規,0,2024-11-15,2024-11-15,株式会社ＣＩＴＲＩＮＥ,,株式会社,京都府,京都市北区,小山下総町５３－９コルネリオビル２階,,26,101,6038151,,,,,,,2024-11-15,1,,,,,シトリン,0
1733,6130001078356,新規,0,2024-11-15,2024-11-15,株式会社やどりぎ,,株式会社,京都府,京都市左京区,秋築町２３３番地,,26,103,6068371,,,,,,,2024-11-15,1,,,,,ヤドリギ,0
1734,6130001078372,新規,0,2024-11-15,2024-11-15,株式会社ＰＩＧＭＯＮ,,株式会社,京都府,京都市山科区,北花山寺内町１７－６－２０２,,26,110,6078474,,,,,,,2024-11-15,1,,,,,ピグモン,0
1736,6130003010011,新規,0,2024-11-15,2024-11-15,合同会社ＫＯ‐１企画,,合同会社,京都府,与謝郡与謝野町,字三河内１６１２番地,,26,465,6292313,,,,,,,2024-11-15,1,,,,,コウイチキカク,0
1737,6130005017236,新規,0,2024-11-15,2024-11-15,一般社団法人日本在宅ケア急変初期対応システム普及協議会,,その他の設立登記法人,京都府,京都市西京区,桂南巽町１５４番地３,,26,111,6158074,,,,,,,2024-11-15,1,,,,,ニホンザイタクケアキュウヘンショキタイオウシステムフキュウキョウギカイ,0
1743,6140001136443,新規,0,2024-11-15,2024-11-15,株式会社ＢＡＳＥ,,株式会社,兵庫県,尼崎市,東本町４丁目７３番地の９,,28,202,6600824,,,,,,,2024-11-15,1,,,,,ベース,0
1744,6140003021321,新規,0,2024-11-15,2024-11-15,合同会社ｙ．ｂ．,,合同会社,兵庫県,神戸市東灘区,向洋町中５丁目１番地５２１号棟１５０３号室,,28,101,6580032,,,,,,,2024-11-15,1,,,,,ワイビー,0
1781,6220001026330,新規,0,2024-11-15,2024-11-15,株式会社リテンラボ,,株式会社,石川県,小松市,小馬出町２７番地６丸ビル３階３－Ａ,,17,203,9230904,,,,,,,2024-11-15,1,,,,,リテンラボ,0
1783,6220005008903,新規,0,2024-11-15,2024-11-15,一般社団法人のとＦｏｏｄ　Ｓｔｕｄｉｅｓ,,その他の設立登記法人,石川県,珠洲市,片岩町ラ部３４番地,,17,205,9271323,,,,,,,2024-11-15,1,,,,,ノトフードスタディーズ,0
1790,6240001064130,新規,0,2024-11-15,2024-11-15,株式会社ＹＮＡＰ,,株式会社,広島県,福山市,新涯町３丁目２２番２６号,,34,207,7210955,,,,,,,2024-11-15,1,,,,,ワイナップ,0
1799,6260001039650,新規,0,2024-11-15,2024-11-15,日和海運株式会社,,株式会社,岡山県,岡山市北区,撫川３０５番地１,,33,101,7010164,,,,,,,2024-11-15,1,,,,,ニチワカイウン,0
1806,6290001107925,新規,0,2024-11-15,2024-11-15,なごみ建設株式会社,,株式会社,福岡県,飯塚市,高田１７２－１,,40,205,8200079,,,,,,,2024-11-15,1,,,,,ナゴミケンセツ,0
1807,6290001107933,新規,0,2024-11-15,2024-11-15,株式会社最大吉,,株式会社,福岡県,福岡市博多区,博多駅前３丁目１６番１０号興産ビル３Ｆ,,40,132,8120011,,,,,,,2024-11-15,1,,,,,サイダイキチ,0
1808,6290001107958,新規,0,2024-11-15,2024-11-15,株式会社Ｎ‐クレス,,株式会社,福岡県,大野城市,白木原５丁目４番１１号,,40,219,8160943,,,,,,,2024-11-15,1,,,,,エヌクレス,0
1809,6290001107974,新規,0,2024-11-15,2024-11-15,株式会社Ｆ,,株式会社,福岡県,柳川市,間６１８－１,,40,207,8320088,,,,,,,2024-11-15,1,,,,,エフ,0
1810,6290001107990,新規,0,2024-11-15,2024-11-15,株式会社オーケーエー,,株式会社,福岡県,福岡市博多区,東比恵２丁目１７番２３号ローズＭ第１博多２Ｆ,,40,132,8120007,,,,,,,2024-11-15,1,,,,,オーケーエー,0
1811,6290001107999,新規,0,2024-11-15,2024-11-15,株式会社ＡＴＳ,,株式会社,福岡県,福岡市中央区,天神２丁目３番１０－７１９号,,40,133,8100001,,,,,,,2024-11-15,1,,,,,エイティエス,0
1814,6290003016059,新規,0,2024-11-15,2024-11-15,合同会社宇宙企画,,合同会社,福岡県,福岡市東区,名島１丁目２３番１３－１１号名島シーサイドヴィラ,,40,131,8130043,,,,,,,2024-11-15,1,,,,,ウチュウキカク,0
1819,6310001019325,新規,0,2024-11-15,2024-11-15,株式会社榮華,,株式会社,長崎県,諫早市,森山町唐比西１０７６番地１,,42,204,8540208,,,,,,,2024-11-15,1,,,,,ロンファ,0
1824,6330003010643,新規,0,2024-11-15,2024-11-15,合同会社Ｊｏｉｎｔ　Ｒｅｂｏｒｎ　Ｋｅｅｐｅｒ,,合同会社,熊本県,熊本市北区,四方寄町１７３６番地７,,43,105,8615515,,,,,,,2024-11-15,1,,,,,ジョイントリボーンキーパー,0
1826,6340001026938,新規,0,2024-11-15,2024-11-15,株式会社ＭＥＧＵＲＵ,,株式会社,鹿児島県,鹿児島市,唐湊１丁目１９番２５号,,46,201,8900081,,,,,,,2024-11-15,1,,,,,メグル,0
1829,6360001034435,新規,0,2024-11-15,2024-11-15,テクノレイ株式会社,,株式会社,沖縄県,沖縄市,池原１丁目６番１０号,,47,211,9042141,,,,,,,2024-11-15,1,,,,,テクノレイ,0
1833,6370001051925,新規,0,2024-11-15,2024-11-15,株式会社高見,00137021,株式会社,宮城県,仙台市青葉区,五橋２丁目３番７－１００５号,,04,101,9800022,,,,,,,2024-11-15,1,,,,,タカミ,0
1834,6370001051933,新規,0,2024-11-15,2024-11-15,株式会社カツヨシホールディングス,,株式会社,宮城県,仙台市宮城野区,萩野町１丁目２０番地の５,,04,102,9830043,,,,,,,2024-11-15,1,,,,,カツヨシホールディングス,0
1835,6370001051941,新規,0,2024-11-15,2024-11-15,株式会社ｅｓ,,株式会社,宮城県,仙台市青葉区,堤町１丁目６－１０,,04,101,9810912,,,,,,,2024-11-15,1,,,,,エス,0
1841,6380001034904,新規,0,2024-11-15,2024-11-15,詩彩株式会社,,株式会社,福島県,郡山市,桑野３丁目１１番７号オフィスプラザ１０３,,07,203,9638025,,,,,,,2024-11-15,1,,,,,ウタイロ,0
1842,6380001034912,新規,0,2024-11-15,2024-11-15,株式会社清水工務店,,株式会社,福島県,郡山市,三穂田町大谷字東向２番地の１,,07,203,9630127,,,,,,,2024-11-15,1,,,,,シミズコウムテン,0
1843,6380001034920,新規,0,2024-11-15,2024-11-15,株式会社Ｐｌａｙｉｎｇ,,株式会社,福島県,いわき市,内郷御台境町鶴巻１１１番地の２,,07,204,9738409,,,,,,,2024-11-15,1,,,,,プレイング,0
1846,6400001016858,新規,0,2024-11-15,2024-11-15,株式会社藤技空,,株式会社,岩手県,盛岡市,前九年２丁目７番５号,,03,201,0200127,,,,,,,2024-11-15,1,,,,,,0
1848,6410001013994,新規,0,2024-11-15,2024-11-15,株式会社チェルヴス,,株式会社,秋田県,男鹿市,船川港女川字鵜ノ崎１３８番地,,05,206,0100523,,,,,,,2024-11-15,1,,,,,,0
1854,6430001093052,新規,0,2024-11-15,2024-11-15,ライフホールディングス株式会社,,株式会社,北海道,札幌市中央区,北二条西１３丁目１－１０札幌第一会計ビル,,01,101,0600002,,,,,,,2024-11-15,1,,,,,ライフホールディングス,0
1855,6430001093085,新規,0,2024-11-15,2024-11-15,株式会社一歩,,株式会社,北海道,札幌市豊平区,平岸七条１３丁目４番１０号,,01,105,0620937,,,,,,,2024-11-15,1,,,,,イッポ,0
1869,6470001020465,新規,0,2024-11-15,2024-11-15,株式会社油圧倶楽部,00137034,株式会社,香川県,仲多度郡多度津町,堀江３丁目７番１５号,,37,404,7640021,,,,,,,2024-11-15,1,,,,,ユアツクラブ,0
1907,7010001249835,新規,0,2024-11-15,2024-11-15,株式会社パスアンドゴー,,株式会社,東京都,千代田区,岩本町３丁目１１－８ハローオフィス秋葉原２１８,,13,101,1010032,,,,,,,2024-11-15,1,,,,,パスアンドゴー,0
1908,7010001249843,新規,0,2024-11-15,2024-11-15,株式会社Ｎｅｕｓｐｅｃｔｉｖｅ,,株式会社,東京都,中央区,日本橋２丁目２番３号ＲＩＳＨＥビルＵＣＦ４０２,,13,102,1030027,,,,,,,2024-11-15,1,,,,,ニュースペクティブ,0
1909,7010001249901,新規,0,2024-11-15,2024-11-15,株式会社Ｅｄｕｃａｒｅ,,株式会社,東京都,中央区,銀座１丁目１２－４Ｎ＆ＥＢＬＤ．７階,,13,102,1040061,,,,,,,2024-11-15,1,,,,,エデュカーレ,0
1910,7010001249918,新規,0,2024-11-15,2024-11-15,ゲンキ電気株式会社,,株式会社,東京都,千代田区,一ツ橋１丁目１番１号,,13,101,1000003,,,,,,,2024-11-15,1,,,,,ゲンキデンキ,0
1911,7010001249950,新規,0,2024-11-15,2024-11-15,Ｉｎｖｉｎｃｉｂｌｅ　Ｈｏｌｄｉｎｇｓ株式会社,,株式会社,東京都,中央区,晴海５丁目６番５－４０２号,,13,102,1040053,,,,,,,2024-11-15,1,,,,,インビンシブルホールディングス,0
1912,7010001249959,新規,0,2024-11-15,2024-11-15,株式会社Ｂｅｙｏｎｄ　Ｏｐｔｉｃａｌ　Ｔｅｃｈｎｏｌｏｇｉｅｓ,,株式会社,東京都,千代田区,富士見１丁目３番１１号富士見デュープレックスＢ′ｓ４階,,13,101,1020071,,,,,,,2024-11-15,1,,,,,ビヨンドオプティカルテクノロジーズ,0
1913,7010001249967,新規,0,2024-11-15,2024-11-15,株式会社ＭＰＨ,,株式会社,東京都,中央区,日本橋小伝馬町１０番８号ウィンド小伝馬町５Ｆ,,13,102,1030001,,,,,,,2024-11-15,1,,,,,エムピーエイチ,0
1929,7010003045415,新規,0,2024-11-15,2024-11-15,ＭＬ神谷町合同会社,,合同会社,東京都,千代田区,神田小川町３丁目２６番８号神田小川町三丁目ビル６階,,13,101,1010052,,,,,,,2024-11-15,1,,,,,エムエルカミヤチョウ,0
1930,7010003045472,新規,0,2024-11-15,2024-11-15,合同会社ＯＮＥ,,合同会社,東京都,中央区,勝どき４丁目６番１－２２０３号,,13,102,1040054,,,,,,,2024-11-15,1,,,,,ワン,0
1933,7010005039084,新規,0,2024-11-15,2024-11-15,一般社団法人日本文化発信機構,,その他の設立登記法人,東京都,中央区,入船２丁目３番７号築地ＡＩＵビル７Ｆ,,13,102,1040042,,,,,,,2024-11-15,1,,,,,ニホンブンカハッシンキコウ,0
1934,7010005039101,新規,0,2024-11-15,2024-11-15,エス・エー・ケー一般社団法人,,その他の設立登記法人,東京都,千代田区,丸の内１丁目４番１号東京共同会計事務所内,,13,101,1000005,,,,,,,2024-11-15,1,,,,,エスエーケー,0
1947,7010401186380,新規,0,2024-11-15,2024-11-15,ＳＴＫホールディングス株式会社,,株式会社,東京都,港区,元赤坂１丁目１番８号株式会社赤坂国際会計内,,13,103,1070051,,,,,,,2024-11-15,1,,,,,エスティーケーホールディングス,0
1948,7010401186389,新規,0,2024-11-15,2024-11-15,株式会社ジャパンリゾートホテルオペレーションズ,,株式会社,東京都,港区,芝１丁目５番１２号,,13,103,1050014,,,,,,,2024-11-15,1,,,,,ジャパンリゾートホテルオペレーションズ,0
1949,7010401186447,新規,0,2024-11-15,2024-11-15,株式会社ＣＥＮＴＥＲ,,株式会社,東京都,港区,赤坂２丁目２１－４天翔赤坂ＡＮＮＥＸビル４階４０７－Ｈ号室,,13,103,1070052,,,,,,,2024-11-15,1,,,,,センター,0
1951,7010403033779,新規,0,2024-11-15,2024-11-15,白金龍飯店合同会社,,合同会社,東京都,港区,東麻布２丁目５番１号麻布イースト５０７,,13,103,1060044,,,,,,,2024-11-15,1,,,,,ハクキンリュウハンテン,0
1952,7010403033787,新規,0,2024-11-15,2024-11-15,Ｄｉｇｉｔａｌ　Ｉｒｏｎ合同会社,,合同会社,東京都,港区,六本木１丁目９番１０号アークヒルズ仙石山森タワー２６０３,,13,103,1060032,,,,,,,2024-11-15,1,,,,,デジタルアイアン,0
1957,7010701046796,新規,0,2024-11-15,2024-11-15,Ｆｕｒｕｔａ＆Ｃｏｍｐａｎｙ株式会社,,株式会社,東京都,品川区,東五反田４丁目７番８－４０４号,,13,109,1410022,,,,,,,2024-11-15,1,,,,,フルタアンドカンパニー,0
1959,7010801035567,新規,0,2024-11-15,2024-11-15,株式会社グロート,,株式会社,東京都,大田区,西蒲田７丁目４－４小山第二ビル６階,,13,111,1440051,,,,,,,2024-11-15,1,,,,,グロート,0
1968,7011001165634,新規,0,2024-11-15,2024-11-15,Ｔｅｔｒａｚ株式会社,,株式会社,東京都,渋谷区,円山町５番５号Ｎａｖｉ渋谷Ｖ３階,,13,113,1500044,,,,,,,2024-11-15,1,,,,,テトラズ,0
1969,7011001165972,新規,0,2024-11-15,2024-11-15,株式会社煌馬,,株式会社,東京都,渋谷区,南平台町１２番９号南平台サニーハイツ２０７,,13,113,1500036,,,,,,,2024-11-15,1,,,,,コウマ,0
1977,7011101109482,新規,0,2024-11-15,2024-11-15,株式会社ＳＴＵＤＩＯ　ＰＯＬＡＲＩＳ,,株式会社,東京都,新宿区,西新宿３丁目３番１３号西新宿水間ビル２Ｆ,,13,104,1600023,,,,,,,2024-11-15,1,,,,,スタジオポラリス,0
1978,7011101109581,新規,0,2024-11-15,2024-11-15,金橋投資株式会社,,株式会社,東京都,新宿区,四谷三栄町１１番１９－６０１号,,13,104,1600008,,,,,,,2024-11-15,1,,,,,キンバシトウシ,0
1980,7011103015175,新規,0,2024-11-15,2024-11-15,ｍａｂＷａｒｅ合同会社,,合同会社,東京都,新宿区,西新宿３丁目３番１３号西新宿水間ビル６階,,13,104,1600023,,,,,,,2024-11-15,1,,,,,マブウェア,0
1986,7011601028208,新規,0,2024-11-15,2024-11-15,株式会社ＫＩＺＵＮＡ　ＳＰＯＲＴＳ,,株式会社,東京都,練馬区,春日町１丁目３２番１９号,,13,120,1790074,,,,,,,2024-11-15,1,,,,,キズナスポーツ,0
1988,7011701027811,新規,0,2024-11-15,2024-11-15,株式会社ＣｏｍｆｏｒｔＶｉｒｔｕｅＴｅｃｈ,,株式会社,東京都,江戸川区,西葛西６丁目１３－１たかみビル５Ｆ－０５,,13,123,1340088,,,,,,,2024-11-15,1,,,,,コムフォートヴァーチャテック,0
1990,7011705001861,新規,0,2024-11-15,2024-11-15,一般財団法人リタ市民アセット財団,,その他の設立登記法人,東京都,江戸川区,松江１丁目１１－１３（松江の家）,,13,123,1320025,,,,,,,2024-11-15,1,,,,,リタシミンアセットザイダン,0
1996,7011803006556,新規,0,2024-11-15,2024-11-15,合同会社もっか,,合同会社,東京都,葛飾区,四つ木４丁目１９－３４－１階,,13,122,1240011,,,,,,,2024-11-15,1,,,,,モッカ,0
1997,7012301014159,新規,0,2024-11-15,2024-11-15,ビーエルプロ株式会社,,株式会社,東京都,町田市,薬師台２丁目９番地１０,,13,209,1950073,,,,,,,2024-11-15,1,,,,,ビーエルプロ,0
1998,7012305002110,新規,0,2024-11-15,2024-11-15,一般社団法人オーセンティックグリーフケア協会,,その他の設立登記法人,東京都,町田市,金井ヶ丘１丁目２９番１１号,,13,209,1950076,,,,,,,2024-11-15,1,,,,,オーセンティックグリーフケアキョウカイ,0
1999,7012403006830,新規,0,2024-11-15,2024-11-15,合同会社アップスタート,,合同会社,東京都,府中市,押立町２丁目１４－７メゾンドグラシュー２０３,,13,206,1830012,,,,,,,2024-11-15,1,,,,,アップスタート,0
2000,7012701018544,新規,0,2024-11-15,2024-11-15,豊神株式会社,,株式会社,東京都,西東京市,田無町７丁目１７番地４６号,,13,229,1880011,,,,,,,2024-11-15,1,,,,,トヨカミ,0
2001,7012701018560,新規,0,2024-11-15,2024-11-15,株式会社フォーアライド,,株式会社,東京都,西東京市,新町３丁目１０番１６号,,13,229,2020023,,,,,,,2024-11-15,1,,,,,フォーアライド,0
2003,7013101009563,新規,0,2024-11-15,2024-11-15,株式会社ＳＴコンサルタント,,株式会社,東京都,あきる野市,伊奈９４３番地５,,13,228,1900142,,,,,,,2024-11-15,1,,,,,エスティーコンサルタント,0
2004,7013103001386,新規,0,2024-11-15,2024-11-15,ＧＡＺＡＮＢＯ　Ｗｏｒｌｄ合同会社,,合同会社,東京都,青梅市,根ヶ布１丁目６０１－１レジオンス青梅２０３,,13,205,1980004,,,,,,,2024-11-15,1,,,,,ガザンボウワールド,0
2020,7030001163407,新規,0,2024-11-15,2024-11-15,株式会社森興業,,株式会社,埼玉県,北葛飾郡松伏町,大字上赤岩９４２番地,,11,465,3430115,,,,,,,2024-11-15,1,,,,,モリコウギョウ,0
2021,7030001163448,新規,0,2024-11-15,2024-11-15,株式会社ｌａｉｄ‐ｂａｃｋ,,株式会社,埼玉県,所沢市,小手指町１丁目２６番１２号井花屋ビル３０２号室,,11,208,3591141,,,,,,,2024-11-15,1,,,,,レイドバック,0
2022,7030001163472,新規,0,2024-11-15,2024-11-15,アールエスティ株式会社,,株式会社,埼玉県,熊谷市,河原町２丁目１６８番地,,11,202,3600035,,,,,,,2024-11-15,1,,,,,アールエスティ,0
2023,7030001163489,新規,0,2024-11-15,2024-11-15,株式会社一番,,株式会社,埼玉県,川口市,芝中田２丁目７番１８号,,11,203,3330847,,,,,,,2024-11-15,1,,,,,イチバン,0
2024,7030001163497,新規,0,2024-11-15,2024-11-15,関東負荷試験サービス株式会社,,株式会社,埼玉県,狭山市,大字南入曽字西ノ前原１００２番地２,,11,215,3501316,,,,,,,2024-11-15,1,,,,,カントウフカシケンサービス,0
2026,7030003025480,新規,0,2024-11-15,2024-11-15,合同会社ねこの王子様,,合同会社,埼玉県,吉川市,保１丁目３７番４号いちょう通り店舗１Ｆ,,11,243,3420041,,,,,,,2024-11-15,1,,,,,ネコノオウジサマ,0
2030,7040001136171,新規,0,2024-11-15,2024-11-15,Ｌｕｘｅｌｉａ株式会社,,株式会社,千葉県,松戸市,岩瀬６１８番地の８,,12,207,2710076,,,,,,,2024-11-15,1,,,,,ラックスリア,0
2032,7040003026206,新規,0,2024-11-15,2024-11-15,共和ファイナンス合同会社,,合同会社,千葉県,勝浦市,川津１番地１ＣＥＬＥＢＲＡＲ勝浦１３１９,,12,218,2995232,,,,,,,2024-11-15,1,,,,,キョウワファイナンス,0
2037,7050003008756,新規,0,2024-11-15,2024-11-15,合同会社コスメシップ,,合同会社,茨城県,高萩市,有明町１丁目１０２番地,,08,214,3180012,,,,,,,2024-11-15,1,,,,,コスメシップ,0
2042,7070001042367,新規,0,2024-11-15,2024-11-15,株式会社ｆｕｎ,,株式会社,群馬県,伊勢崎市,八寸町５１６０番地１,,10,204,3792236,,,,,,,2024-11-15,1,,,,,,0
2043,7070001042383,新規,0,2024-11-15,2024-11-15,株式会社経営マネジメントセンター,,株式会社,群馬県,渋川市,吹屋６６４番地６０,,10,208,3770203,,,,,,,2024-11-15,1,,,,,ケイエイマネジメントセンター,0
2045,7070003005660,新規,0,2024-11-15,2024-11-15,合同会社かふう,,合同会社,群馬県,高崎市,箕郷町東明屋４３９番地３,,10,202,3703106,,,,,,,2024-11-15,1,,,,,カフウ,0
2069,7120001270061,新規,0,2024-11-15,2024-11-15,ＵＮＩＯＮ　ＳＱＵＡＲＥ株式会社,,株式会社,大阪府,大阪市東住吉区,矢田４丁目９－１５－２０５,,27,121,5460023,,,,,,,2024-11-15,1,,,,,ユニオンスクエア,0
2070,7120001270227,新規,0,2024-11-15,2024-11-15,株式会社アイディーオー,,株式会社,大阪府,門真市,垣内町５番１５号,,27,223,5710065,,,,,,,2024-11-15,1,,,,,アイディーオー,0
2071,7120001270301,新規,0,2024-11-15,2024-11-15,大阪国際オークション株式会社,,株式会社,大阪府,大阪市都島区,中野町５丁目１３番２－７０５号,,27,102,5340027,,,,,,,2024-11-15,1,,,,,オオサカコクサイオークション,0
2072,7120001270367,新規,0,2024-11-15,2024-11-15,株式会社奏建,,株式会社,大阪府,大阪市東淀川区,豊里１丁目１番１９号,,27,114,5330013,,,,,,,2024-11-15,1,,,,,ソウケン,0
2074,7120003027963,新規,0,2024-11-15,2024-11-15,合同会社３Ｐｅａｃｅ,,合同会社,大阪府,大阪市淀川区,西中島２丁目１２番８号７階,,27,123,5320011,,,,,,,2024-11-15,1,,,,,スリーピース,0
2075,7120003027988,新規,0,2024-11-15,2024-11-15,合同会社ｇｒｉｓ,,合同会社,大阪府,大阪市北区,本庄西１丁目１番７－３７０３号,,27,127,5310073,,,,,,,2024-11-15,1,,,,,グリ,0
2082,7130001078355,新規,0,2024-11-15,2024-11-15,ＰＲＯＳＴ株式会社,,株式会社,京都府,京都市伏見区,横大路富ノ森町７０番地１８,,26,109,6128257,,,,,,,2024-11-15,1,,,,,プロスト,0
2083,7130001078371,新規,0,2024-11-15,2024-11-15,株式会社京樸,,株式会社,京都府,京都市左京区,岩倉南池田町７８番地１,,26,103,6060005,,,,,,,2024-11-15,1,,,,,キョウボク,0
2089,7140001136327,新規,0,2024-11-15,2024-11-15,株式会社アリア測量,,株式会社,兵庫県,川辺郡猪名川町,旭ヶ丘１番地２２６,,28,301,6660212,,,,,,,2024-11-15,1,,,,,アリアソクリョウ,0
2090,7140001136426,新規,0,2024-11-15,2024-11-15,金元宝株式会社,,株式会社,兵庫県,神戸市兵庫区,南仲町１番５－３０４号,,28,105,6520841,,,,,,,2024-11-15,1,,,,,キンゲンホウ,0
2091,7140001136434,新規,0,2024-11-15,2024-11-15,株式会社ソレイユ,,株式会社,兵庫県,尼崎市,七松町３丁目２２番１４号,,28,202,6600052,,,,,,,2024-11-15,1,,,,,ソレイユ,0
2097,7150005009635,新規,0,2024-11-15,2024-11-15,ヤマノベコモンズ労働者協同組合,,その他の設立登記法人,奈良県,天理市,萱生町１０２１番地,,29,204,6320042,,,,,,,2024-11-15,1,,,,,ヤマノベコモンズ,0
2098,7160001026360,新規,0,2024-11-15,2024-11-15,片喰機工株式会社,,株式会社,滋賀県,草津市,笠山５丁目３番２９号,,25,206,5250072,,,,,,,2024-11-15,1,,,,,カタバミキコウ,0
2099,7170003002128,新規,0,2024-11-15,2024-11-15,合同会社Ｂｅ　Ｙｏｕｒｓｅｌｆ,,合同会社,和歌山県,伊都郡かつらぎ町,大字笠田東４番地の２ヴィラミューズＩＩＡ２０３号室,00137033,30,341,6497161,,,,,,,2024-11-15,1,,,,,,0
2111,7180301039234,新規,0,2024-11-15,2024-11-15,株式会社ＣＴＵ,,株式会社,愛知県,豊田市,若宮町５丁目３番地３,,23,211,4710026,,,,,,,2024-11-15,1,,,,,シーティーユー,0
2118,7220001026338,新規,0,2024-11-15,2024-11-15,株式会社玉,,株式会社,石川県,かほく市,大崎４字１２番地４７,,17,209,9291127,,,,,,,2024-11-15,1,,,,,ダマ,0
2123,7230001020612,新規,0,2024-11-15,2024-11-15,ＴＹＭアプライアンス株式会社,,株式会社,富山県,富山市,四方東野割町１２番地,,16,201,9302243,,,,,,,2024-11-15,1,,,,,ティーワイエムアプライアンス,0
2127,7240001064121,新規,0,2024-11-15,2024-11-15,株式会社ｌａｉ,,株式会社,広島県,広島市中区,江波本町１５番３１－５０２号,,34,101,7300833,,,,,,,2024-11-15,1,,,,,ライ,0
2134,7290001107866,新規,0,2024-11-15,2024-11-15,ＳＡＫＡ　Ｅｎｅｒｇｙ株式会社,,株式会社,福岡県,福岡市城南区,梅林２丁目１４番１７号,,40,136,8140144,,,,,,,2024-11-15,1,,,,,サカエネルギー,0
2135,7290001107940,新規,0,2024-11-15,2024-11-15,株式会社Ｓｔａｒｋ,,株式会社,福岡県,福岡市中央区,天神４丁目６－２８天神ファーストビル７階,,40,133,8100001,,,,,,,2024-11-15,1,,,,,スターク,0
2136,7290001107973,新規,0,2024-11-15,2024-11-15,ウィルビーファイン株式会社,,株式会社,福岡県,朝倉郡筑前町,下高場１９６０－１０,00137023,40,447,8380211,,,,,,,2024-11-15,1,,,,,ウィルビーファイン,0
2138,7290003016066,新規,0,2024-11-15,2024-11-15,Ｍｙｕｕ合同会社,,合同会社,福岡県,福岡市南区,塩原３丁目２２－１７ラヴェリテ１０２,,40,134,8150032,,,,,,,2024-11-15,1,,,,,ミュウ,0
2139,7290003016074,新規,0,2024-11-15,2024-11-15,合同会社ＫＡＧＵＲＡ,,合同会社,福岡県,福岡市中央区,荒戸１丁目６番３－１００１号,,40,133,8100062,,,,,,,2024-11-15,1,,,,,カグラ,0
2147,7310001019324,新規,0,2024-11-15,2024-11-15,株式会社ＴＳハーツプロダクト,,株式会社,長崎県,佐世保市,鹿子前町１１３番地１８プルミエール鹿子前参番館９０４,,42,202,8580922,,,,,,,2024-11-15,1,,,,,ティーエスハーツプロダクト,0
2162,7360001034426,新規,0,2024-11-15,2024-11-15,ＭＥ　ＢＲＯ株式会社,,株式会社,沖縄県,八重山郡竹富町,字竹富７３３番地の１,,47,381,9071101,,,,,,,2024-11-15,1,,,,,ミブロ,0
2165,7370001051924,新規,0,2024-11-15,2024-11-15,アーティスベイ株式会社,,株式会社,宮城県,多賀城市,笠神５丁目１０－４４,,04,209,9850831,,,,,,,2024-11-15,1,,,,,アーティスベイ,0
2166,7370001051932,新規,0,2024-11-15,2024-11-15,株式会社ＣＲＥＡＳ,,株式会社,宮城県,仙台市青葉区,五橋１丁目７番１５号ピースビル五橋５Ａ,,04,101,9800022,,,,,,,2024-11-15,1,,,,,クレアス,0
2167,7370003006819,新規,0,2024-11-15,2024-11-15,合同会社リリーフ企画,,合同会社,宮城県,多賀城市,大代６丁目５番２号,,04,209,9850832,,,,,,,2024-11-15,1,,,,,リリーフキカク,0
2168,7370003006827,新規,0,2024-11-15,2024-11-15,紫波合同会社,,合同会社,宮城県,仙台市泉区,鶴が丘４丁目２０番地の１６,,04,105,9813109,,,,,,,2024-11-15,1,,,,,シワ,0
2173,7380001034911,新規,0,2024-11-15,2024-11-15,株式会社ＤＥＮＫＵ,,株式会社,福島県,いわき市,小名浜字横町８番地の３,,07,204,9718101,,,,,,,2024-11-15,1,,,,,デンクー,0
2224,8010001249842,新規,0,2024-11-15,2024-11-15,星海株式会社,,株式会社,東京都,中央区,銀座７丁目１５番８号タウンハイツ銀座４０６,,13,102,1040061,,,,,,,2024-11-15,1,,,,,セイカイ,0
2225,8010001249900,新規,0,2024-11-15,2024-11-15,株式会社ＳＥＸＹＩＣＥ,,株式会社,東京都,中央区,築地４丁目４番１５号東銀座ロイアルハイツ６０５号室,,13,102,1040045,,,,,,,2024-11-15,1,,,,,セクシーアイス,0
2226,8010001249909,新規,0,2024-11-15,2024-11-15,株式会社ジャンプゴルフ,,株式会社,東京都,中央区,日本橋蛎殻町１丁目１７番２号ライオンズマンション日本橋２０３,,13,102,1030014,,,,,,,2024-11-15,1,,,,,ジャンプゴルフ,0
2235,8010003045414,新規,0,2024-11-15,2024-11-15,合同会社ＫＥＲ２号,,合同会社,東京都,中央区,京橋２丁目１２番６号ＡＯＪ税理士法人内,,13,102,1040031,,,,,,,2024-11-15,1,,,,,ケーイーアールニゴウ,0
2236,8010003045455,新規,0,2024-11-15,2024-11-15,合同会社ヘルスケアアセット・オメガ,,合同会社,東京都,千代田区,平河町２丁目４番５号,,13,101,1020093,,,,,,,2024-11-15,1,,,,,ヘルスケアアセットオメガ,0
2237,8010003045471,新規,0,2024-11-15,2024-11-15,合同会社ＴＰＣＰ,,合同会社,東京都,中央区,銀座７丁目１３番２０号銀座ＴＨビル９階,,13,102,1040061,,,,,,,2024-11-15,1,,,,,ティーピーシーピー,0
2241,8010005039083,新規,0,2024-11-15,2024-11-15,一般社団法人日中飲食産業交流促進会,,その他の設立登記法人,東京都,文京区,小石川４丁目２０番３号３０１,,13,105,1120002,,,,,,,2024-11-15,1,,,,,ニッチュウインショクサンギョウコウリュウソクシンカイ,0
2242,8010005039091,新規,0,2024-11-15,2024-11-15,Ｍパワー２一般社団法人,,その他の設立登記法人,東京都,千代田区,九段南３丁目７番７号成和綜合会計事務所内,,13,101,1020074,,,,,,,2024-11-15,1,,,,,エムパワーツー,0
2247,8010401186405,新規,0,2024-11-15,2024-11-15,株式会社草思庵,,株式会社,東京都,港区,虎ノ門３丁目７番２０－２０２号,,13,103,1050001,,,,,,,2024-11-15,1,,,,,ソウシアン,0
2249,8010505003563,新規,0,2024-11-15,2024-11-15,一般社団法人日中動漫遊戯促進会,,その他の設立登記法人,東京都,台東区,台東１丁目２９－３イースタンクロスアキバ３１４,,13,106,1100016,,,,,,,2024-11-15,1,,,,,ニッチュウドウマンユウギソクシンカイ,0
2251,8010701046770,新規,0,2024-11-15,2024-11-15,ＳＭＡＲＴ　ＭＯＴＯＲ株式会社,,株式会社,東京都,品川区,東品川２丁目２番４号天王洲ファーストタワー５階,,13,109,1400002,,,,,,,2024-11-15,1,,,,,スマートモーター,0
2262,8011001165889,新規,0,2024-11-15,2024-11-15,株式会社Ａｅｒｏｎａｕｔ,,株式会社,東京都,渋谷区,恵比寿４丁目２０番３号,,13,113,1500013,,,,,,,2024-11-15,1,,,,,エアロノート,0
2263,8011001165955,新規,0,2024-11-15,2024-11-15,寺戸工藝株式会社,,株式会社,東京都,目黒区,下目黒５丁目３２番８号,,13,110,1530064,,,,,,,2024-11-15,1,,,,,テラドコウゲイ,0
2264,8011001166004,新規,0,2024-11-15,2024-11-15,株式会社Ｇｌｏｂａｌ　Ｍａｌｌ,,株式会社,東京都,渋谷区,道玄坂１丁目１９番１１号,,13,113,1500043,,,,,,,2024-11-15,1,,,,,グローバルモール,0
2268,8011101109548,新規,0,2024-11-15,2024-11-15,ＮＨＵ　ＪＡＰＡＮ株式会社,,株式会社,東京都,新宿区,西新宿１丁目４番１１号全研プラザビル,,13,104,1600023,,,,,,,2024-11-15,1,,,,,エヌエイチユージャパン,0
2269,8011101109564,新規,0,2024-11-15,2024-11-15,株式会社叢雲インテグリティ,,株式会社,東京都,新宿区,西新宿３丁目３－１３西新宿水間ビル２Ｆ,,13,104,1600023,,,,,,,2024-11-15,1,,,,,ムラクモインテグリティ,0
2271,8011201025926,新規,0,2024-11-15,2024-11-15,ＴＡＫＩＴＡ　Ｒｅｓｏｒｔ　Ｐｒｏｊｅｃｔ株式会社,,株式会社,東京都,中野区,弥生町６丁目１０番１１号弥生町ビル４階,,13,114,1640013,,,,,,,2024-11-15,1,,,,,タキタリゾートプロジェクト,0
2274,8011501031368,新規,0,2024-11-15,2024-11-15,株式会社Ｊ＆Ｊ,,株式会社,東京都,荒川区,東日暮里６丁目５６－１０ディアハイム２０２室,,13,118,1160014,,,,,,,2024-11-15,1,,,,,ジェイアンドジェイ,0
2278,8011703004023,新規,0,2024-11-15,2024-11-15,Ｔｈｒｅｅ　Ｐｅａｃｅ合同会社,,合同会社,東京都,江戸川区,西葛西７丁目２９－１０西葛西アパートメント２－２０１,,13,123,1340088,,,,,,,2024-11-15,1,,,,,スリーピース,0
2283,8011801045142,新規,0,2024-11-15,2024-11-15,株式会社ＳＫＤ,,株式会社,東京都,足立区,一ツ家３丁目１６番１号,,13,121,1210075,,,,,,,2024-11-15,1,,,,,エスケーディー,0
2286,8012701018568,新規,0,2024-11-15,2024-11-15,株式会社けやきウェルネス,,株式会社,東京都,小平市,小川町１丁目４５９番１０号サルーンマンションオザキ,,13,211,1870032,,,,,,,2024-11-15,1,,,,,ケヤキウェルネス,0
2287,8012703003122,新規,0,2024-11-15,2024-11-15,合同会社ＡＬＬ　ＭＩＧＨＴ,,合同会社,東京都,西東京市,谷戸町１丁目１８－７,,13,229,1880001,,,,,,,2024-11-15,1,,,,,オールマイト,0
2291,8013103001385,新規,0,2024-11-15,2024-11-15,合同会社Ｌａｚｏ,,合同会社,東京都,あきる野市,牛沼５０６－３２,,13,228,1970826,,,,,,,2024-11-15,1,,,,,ラゾ,0
2302,8020001160065,新規,0,2024-11-15,2024-11-15,株式会社１４１,,株式会社,神奈川県,川崎市川崎区,駅前本町１１番地２川崎フロンティアビル４階,,14,131,2100007,,,,,,,2024-11-15,1,,,,,イシイ,0
2303,8020001160073,新規,0,2024-11-15,2024-11-15,株式会社ＳＬＭホールディングス,,株式会社,神奈川県,横浜市神奈川区,金港町５－１４クアドリフォリオ８階,,14,102,2210056,,,,,,,2024-11-15,1,,,,,エスエルエムホールディングス,0
2304,8020001160098,新規,0,2024-11-15,2024-11-15,株式会社ａｍａｉｗａ,,株式会社,神奈川県,川崎市川崎区,大師町四丁目２９番,,14,131,2100816,,,,,,,2024-11-15,1,,,,,アマイワ,0
2310,8021001083776,新規,0,2024-11-15,2024-11-15,株式会社デントサポート,,株式会社,神奈川県,藤沢市,亀井野９１６番地の２１,,14,205,2520813,,,,,,,2024-11-15,1,,,,,デントサポート,0
2311,8021001083784,新規,0,2024-11-15,2024-11-15,Ｂａｎｄｅ株式会社,,株式会社,神奈川県,厚木市,中依知７２－２東邦ハイツ４０９,,14,212,2430805,,,,,,,2024-11-15,1,,,,,バンデ,0
2318,8030001163447,新規,0,2024-11-15,2024-11-15,株式会社ｅｍｐｏｗｅｒ,,株式会社,埼玉県,川口市,南町１丁目１３番２５－９０１号,,11,203,3320026,,,,,,,2024-11-15,1,,,,,エンパワー,0
2319,8030001163455,新規,0,2024-11-15,2024-11-15,株式会社おでん,,株式会社,埼玉県,川口市,柳崎２丁目１７番８号,,11,203,3330861,,,,,,,2024-11-15,1,,,,,オデン,0
2320,8030001163463,新規,0,2024-11-15,2024-11-15,ｐｌｕｓ株式会社,,株式会社,埼玉県,坂戸市,にっさい花みず木３丁目２６－２,,11,239,3500269,,,,,,,2024-11-15,1,,,,,プラス,0
2321,8030001163471,新規,0,2024-11-15,2024-11-15,株式会社種々企画,,株式会社,埼玉県,川口市,飯塚２丁目１４番２２－２号,,11,203,3320023,,,,,,,2024-11-15,1,,,,,シュシュキカク,0
2322,8030001163488,新規,0,2024-11-15,2024-11-15,株式会社エヌ・エーファクトリー,,株式会社,埼玉県,さいたま市岩槻区,大字小溝１２０７,,11,110,3390003,,,,,,,2024-11-15,1,,,,,エヌエーファクトリー,0
2324,8030003025463,新規,0,2024-11-15,2024-11-15,ノモタ合同会社,,合同会社,埼玉県,さいたま市見沼区,大字蓮沼１５８１番地１,,11,104,3370015,,,,,,,2024-11-15,1,,,,,ノモタ,0
2325,8030003025488,新規,0,2024-11-15,2024-11-15,オフィスＫＡＺ合同会社,,合同会社,埼玉県,上尾市,平塚二丁目１９２番地１２,00137025,11,219,3620000,,,,,,,2024-11-15,1,,,,,オフィスカズ,0
2326,8030003025496,新規,0,2024-11-15,2024-11-15,合同会社ＲＨＭ,,合同会社,埼玉県,川越市,大字天沼新田３３３番地１（プリエイーストプラトーＢ－１）,,11,201,3500806,,,,,,,2024-11-15,1,,,,,アールエイチエム,0
2339,8040003026205,新規,0,2024-11-15,2024-11-15,Ｋ‐Ｓｏｌｕｔｉｏｎｓ合同会社,,合同会社,千葉県,市川市,鬼高２丁目６番２２号,,12,203,2720015,,,,,,,2024-11-15,1,,,,,ケイソリューションズ,0
2342,8050001055709,新規,0,2024-11-15,2024-11-15,株式会社ウインドウ,,株式会社,茨城県,筑西市,板橋５１３番地１,,08,227,3080116,,,,,,,2024-11-15,1,,,,,ウインドウ,0
2343,8050001055733,新規,0,2024-11-15,2024-11-15,株式会社トミガレージ,,株式会社,茨城県,つくば市,高崎１５６７番地１,,08,220,3001245,,,,,,,2024-11-15,1,,,,,トミガレージ,0
2347,8060005010270,新規,0,2024-11-15,2024-11-15,一般社団法人栃木スカイモビリティネットワーク,,その他の設立登記法人,栃木県,宇都宮市,中央３丁目１－４栃木県産業会館３階宇都宮ベンチャーズ内,,09,201,3200806,,,,,,,2024-11-15,1,,,,,トチギスカイモビリティネットワーク,0
2352,8070005010328,新規,0,2024-11-15,2024-11-15,一般社団法人ぐんまオペラバレエ振興会,,その他の設立登記法人,群馬県,高崎市,田町９７ＥｖｅｒＧｒｅｅｎＢｌｄｇ．３Ｆ,,10,202,3700824,,,,,,,2024-11-15,1,,,,,グンマオペラバレエシンコウカイ,0
2356,8080003003332,新規,0,2024-11-15,2024-11-15,合同会社アクアマリン,,合同会社,静岡県,静岡市駿河区,高松２丁目１３番３７号マイメジャー高松１０２,,22,102,4228034,,,,,,,2024-11-15,1,,,,,アクアマリン,0
2366,8110001038839,新規,0,2024-11-15,2024-11-15,三和リフォーム株式会社,,株式会社,新潟県,新潟市中央区,米山３丁目２１番７号,,15,103,9500916,,,,,,,2024-11-15,1,,,,,サンワリフォーム,0
2374,8120001270267,新規,0,2024-11-15,2024-11-15,株式会社エクシードセカンド,,株式会社,大阪府,大阪市淀川区,西中島４丁目３番８号,,27,123,5320011,,,,,,,2024-11-15,1,,,,,エクシードセカンド,0
2375,8120001270275,新規,0,2024-11-15,2024-11-15,株式会社リタハート,,株式会社,大阪府,大阪市西区,西本町２丁目５番１１号創建ビル８０２,,27,106,5500005,,,,,,,2024-11-15,1,,,,,リタハート,0
2376,8120001270291,新規,0,2024-11-15,2024-11-15,ＪＳ暁茶株式会社,,株式会社,大阪府,大阪市中央区,南船場２丁目２番４号７Ｆ,,27,128,5420081,,,,,,,2024-11-15,1,,,,,ジェイエスギョウチャ,0
2377,8120001270300,新規,0,2024-11-15,2024-11-15,ナガツマ株式会社,,株式会社,大阪府,大阪市西区,北堀江４丁目８番５号,,27,106,5500014,,,,,,,2024-11-15,1,,,,,ナガツマ,0
2378,8120001270309,新規,0,2024-11-15,2024-11-15,ＰｉｋａＰｉｋａ株式会社,,株式会社,大阪府,大阪市中央区,北久宝寺町３丁目４番１３号おおきにせんば心斎橋筋ビル５Ｆ,,27,128,5410057,,,,,,,2024-11-15,1,,,,,ピカピカ,0
2379,8120001270333,新規,0,2024-11-15,2024-11-15,株式会社ソレイユ,,株式会社,大阪府,大阪市浪速区,湊町２丁目２番１０－３３０４号,,27,111,5560017,,,,,,,2024-11-15,1,,,,,ソレイユ,0
2388,8120101070609,新規,0,2024-11-15,2024-11-15,アース株式会社,,株式会社,大阪府,和泉市,久井町３６９番地,,27,219,5941142,,,,,,,2024-11-15,1,,,,,アース,0
2396,8130001078346,新規,0,2024-11-15,2024-11-15,株式会社若手経営者育成協会,,株式会社,京都府,京都市下京区,七条通油小路東入大黒町２２７番地第２キョートビル４０２,,26,106,6008223,,,,,,,2024-11-15,1,,,,,ワカテケイエイシャイクセイキョウカイ,0
2397,8130001078362,新規,0,2024-11-15,2024-11-15,ピカピカ株式会社,,株式会社,京都府,京都市西京区,大枝北沓掛町１丁目５番地３,,26,111,6101101,,,,,,,2024-11-15,1,,,,,ピカピカ,0
2403,8140001136400,新規,0,2024-11-15,2024-11-15,株式会社ジーベック,,株式会社,兵庫県,姫路市,下手野５丁目２３番４４－２号,,28,201,6700063,,,,,,,2024-11-15,1,,,,,ジーベック,0
2404,8140001136425,新規,0,2024-11-15,2024-11-15,株式会社Ｋ‐ＧＵＡＲＤ,,株式会社,兵庫県,神戸市西区,王塚台６丁目４９番地の２,,28,111,6512135,,,,,,,2024-11-15,1,,,,,ケーガード,0
2405,8140001136433,新規,0,2024-11-15,2024-11-15,株式会社ＡＷＡＪＩ環境整備隊,,株式会社,兵庫県,南あわじ市,市市２０５番地,,28,224,6560474,,,,,,,2024-11-15,1,,,,,アワジカンキョウセイビタイ,0
2406,8140001136441,新規,0,2024-11-15,2024-11-15,株式会社ＧＴＳ,,株式会社,兵庫県,尼崎市,三反田町１丁目１番１０－４１５号,,28,202,6610024,,,,,,,2024-11-15,1,,,,,ジーティエス,0
2412,8150001027680,新規,0,2024-11-15,2024-11-15,株式会社浦辻造園,00137032,株式会社,奈良県,奈良市,中之庄町７３３番地の２,,29,201,6302163,,,,,,,2024-11-15,1,,,,,ウラツジゾウエン,0
2413,8160001026351,新規,0,2024-11-15,2024-11-15,株式会社Ｍａｎａｇｅ,,株式会社,滋賀県,野洲市,小篠原１５０８番地７,,25,210,5202331,,,,,,,2024-11-15,1,,,,,マネージ,0
2430,8220001026337,新規,0,2024-11-15,2024-11-15,株式会社ｍｙｒｅｖｏ９５,,株式会社,石川県,金沢市,片町２丁目１０番４２号,,17,201,9200981,,,,,,,2024-11-15,1,,,,,マイレボキュウジュウゴ,0
2437,8260001039649,新規,0,2024-11-15,2024-11-15,株式会社天満屋テクノファシリティーズ,,株式会社,岡山県,岡山市北区,本町６番３６号,,33,101,7000901,,,,,,,2024-11-15,1,,,,,テンマヤテクノファシリティーズ,0
2443,8290001107741,新規,0,2024-11-15,2024-11-15,ＡＩコンサルティング株式会社,,株式会社,福岡県,福岡市中央区,天神２丁目２番１２号Ｔ＆Ｊビルディング７Ｆ,,40,133,8100001,,,,,,,2024-11-15,1,,,,,エーアイコンサルティング,0
2448,8290003016073,新規,0,2024-11-15,2024-11-15,合同会社Ｃｏｍｐａｓｓ,,合同会社,福岡県,小郡市,美鈴が丘５丁目１６番地２３,,40,216,8380101,,,,,,,2024-11-15,1,,,,,コンパス,0
2458,8320001020809,新規,0,2024-11-15,2024-11-15,株式会社Ｐａｒｋｓおおいた,,株式会社,大分県,杵築市,山香町大字内河野２５４３番地１,,44,210,8791311,,,,,,,2024-11-15,1,,,,,パークスオオイタ,0
2461,8330001032654,新規,0,2024-11-15,2024-11-15,株式会社なないろ食堂,,株式会社,熊本県,熊本市東区,御領２丁目２２番１５号,,43,102,8618035,,,,,,,2024-11-15,1,,,,,ナナイロショクドウ,0
2463,8330003010641,新規,0,2024-11-15,2024-11-15,ＰＬＥＸＩ合同会社,,合同会社,熊本県,合志市,須屋１５８４番地２,,43,216,8611102,,,,,,,2024-11-15,1,,,,,プレクシー,0
2465,8360001034425,新規,0,2024-11-15,2024-11-15,株式会社ＡＵＲＡ,,株式会社,沖縄県,中頭郡北谷町,字桑江６１９番地３メゾン・シュシュ１０２号室,,47,326,9040103,,,,,,,2024-11-15,1,,,,,オーラ,0
2466,8360001034441,新規,0,2024-11-15,2024-11-15,株式会社Ｄｒｅａｍ　ｅｎｇｉｎｅ琉球,,株式会社,沖縄県,那覇市,字安里３８１－１,,47,201,9020067,,,,,,,2024-11-15,1,,,,,ドリームエンジンリュウキュウ,0
2470,8370001051923,新規,0,2024-11-15,2024-11-15,株式会社エイラリークス,,株式会社,宮城県,仙台市青葉区,一番町４丁目４番３３号トレンドビル３階,,04,101,9800811,,,,,,,2024-11-15,1,,,,,エイラリークス,0
2471,8370001051931,新規,0,2024-11-15,2024-11-15,株式会社ｂＩＥＳ’ｉｓ,,株式会社,宮城県,仙台市太白区,長町３丁目３番９号３９ビルディング３０２,,04,104,9820011,,,,,,,2024-11-15,1,,,,,ビーエス,0
2474,8370003006826,新規,0,2024-11-15,2024-11-15,合同会社Ｃ２４,,合同会社,宮城県,仙台市青葉区,大町２丁目１番７－９０３号,,04,101,9800804,,,,,,,2024-11-15,1,,,,,シーツーフォー,0
2475,8380001034877,新規,0,2024-11-15,2024-11-15,株式会社Ｃａｒｓ２５,,株式会社,福島県,郡山市,富久山町久保田字古町２４７番地,,07,203,9638071,,,,,,,2024-11-15,1,,,,,カーズニイゴウ,0
2476,8380001034902,新規,0,2024-11-15,2024-11-15,ＢＨＣフードサービス株式会社,,株式会社,福島県,いわき市,泉町下川字大剣１番９７,,07,204,9718183,,,,,,,2024-11-15,1,,,,,ビーエイチシーフードサービス,0
2477,8380001034910,新規,0,2024-11-15,2024-11-15,株式会社サイトウ,,株式会社,福島県,岩瀬郡鏡石町,諏訪町４１８番地,,07,342,9690402,,,,,,,2024-11-15,1,,,,,サイトウ,0
2478,8380001034919,新規,0,2024-11-15,2024-11-15,株式会社Ｌｏｙａｌｔｙ,,株式会社,福島県,福島市,笹木野字大金谷尻１８番地の２１,,07,201,9608057,,,,,,,2024-11-15,1,,,,,ロイヤリティ,0
2479,8380001034927,新規,0,2024-11-15,2024-11-15,株式会社ＡＢ　ＢＡＪＷＡ　ＡＵＴＯ　ＴＲＡＤＩＮＧ,,株式会社,福島県,白河市,五番町川原９５番地１酒巻コーポＤ－６,,07,205,9610076,,,,,,,2024-11-15,1,,,,,アブバジョアオートトレーディング,0
2482,8380003005892,新規,0,2024-11-15,2024-11-15,合同会社Ｓエーテック,,合同会社,福島県,郡山市,久留米６丁目１０１番地,,07,203,9638846,,,,,,,2024-11-15,1,,,,,エスエーテック,0
2483,8380005012895,新規,0,2024-11-15,2024-11-15,一般社団法人自在ネットワーク,,その他の設立登記法人,福島県,福島市,飯坂町湯野字切湯ノ上１４番地,,07,201,9600211,,,,,,,2024-11-15,1,,,,,ジザイネットワーク,0
2492,8430001093083,新規,0,2024-11-15,2024-11-15,憶郷株式会社,,株式会社,北海道,札幌市北区,北三十二条西４丁目１番２９号ＴＡＯ　ＨＯＵＳＥ１０１室,,01,102,0010032,,,,,,,2024-11-15,1,,,,,オクゴウ,0
2501,8470001020463,新規,0,2024-11-15,2024-11-15,株式会社坂出ネクサス・カンパニー,,株式会社,香川県,坂出市,林田町３３１４番地３,,37,203,7620012,,,,,,,2024-11-15,1,,,,,サカイデネクサスカンパニー,0
2504,8700150125717,新規,0,2024-11-15,2024-06-03,上大岡第一町内会,,その他,神奈川県,横浜市港南区,上大岡西１丁目１３－１２,,14,111,2330002,,,,,,,2024-06-03,1,,,,,カミオオオカダイイチチヨウナイカイ,0
2530,9010001249841,新規,0,2024-11-15,2024-11-15,株式会社ヘリコンシッピングサービス,,株式会社,東京都,中央区,日本橋茅場町１丁目１０番６号マルテービル,,13,102,1030025,,,,,,,2024-11-15,1,,,,,ヘリコンシッピングサービス,0
2531,9010001249866,新規,0,2024-11-15,2024-11-15,株式会社Ｂｉｚコンサルト,,株式会社,東京都,千代田区,神田須田町１丁目７番８号ＶＯＲＴ秋葉原ＩＶ２Ｆ,00137020,13,101,1010041,,,,,,,2024-11-15,1,,,,,ビズコンサルト,0
2532,9010001249908,新規,0,2024-11-15,2024-11-15,株式会社ＧＸソリューションズ,,株式会社,東京都,千代田区,神田和泉町１番地２－７ＳＫ千代田ビル４０２,,13,101,1010024,,,,,,,2024-11-15,1,,,,,ジーエックスソリューションズ,0
2533,9010001249949,新規,0,2024-11-15,2024-11-15,株式会社ライフカプセル,,株式会社,東京都,中央区,銀座１丁目２７番８号セントラルビル７０３号,,13,102,1040061,,,,,,,2024-11-15,1,,,,,ライフカプセル,0
2549,9010003045181,新規,0,2024-11-15,2024-11-15,フジテック合同会社,,合同会社,東京都,中央区,銀座１丁目１２－４Ｎ＆ＥＢＬＤ．７階,,13,102,1040061,,,,,,,2024-11-15,1,,,,,フジテック,0
2550,9010003045454,新規,0,2024-11-15,2024-11-15,合同会社ライトハーモニー,,合同会社,東京都,中央区,築地７丁目７番８－６０１号,,13,102,1040045,,,,,,,2024-11-15,1,,,,,ライトハーモニー,0
2551,9010003045470,新規,0,2024-11-15,2024-11-15,合同会社ＷａｌｋＦｒａｍｅ,,合同会社,東京都,中央区,銀座１丁目１２番４号Ｎ＆ＥＢＬＤ．６Ｆ,,13,102,1040061,,,,,,,2024-11-15,1,,,,,ウォークフレーム,0
2555,9010005039099,新規,0,2024-11-15,2024-11-15,一般社団法人ＩＧＣＡ・ゴッド・カウンセリング協会,,その他の設立登記法人,東京都,千代田区,鍛冶町２丁目４番５号黒江屋鍛冶町ビル４階,,13,101,1010044,,,,,,,2024-11-15,1,,,,,アイジーシーエイゴッドカウンセリングキョウカイ,0
2564,9010401186404,新規,0,2024-11-15,2024-11-15,株式会社トレカマン,,株式会社,東京都,港区,浜松町２丁目２番１５号浜松町ダイヤビル２Ｆ,,13,103,1050013,,,,,,,2024-11-15,1,,,,,トレカマン,0
2565,9010403033793,新規,0,2024-11-15,2024-11-15,イロハモミジ１０合同会社,,合同会社,東京都,港区,西新橋１丁目２番９号メンターキャピタル税理士法人内,,13,103,1050003,,,,,,,2024-11-15,1,,,,,イロハモミジテン,0
2573,9010601066265,新規,0,2024-11-15,2024-11-15,株式会社トライテクノスホールディングス,,株式会社,東京都,墨田区,立川４丁目１３番１号,,13,107,1300023,,,,,,,2024-11-15,1,,,,,トライテクノスホールディングス,0
2577,9010901056321,新規,0,2024-11-15,2024-11-15,株式会社ＣｕｂｅｄＫ,,株式会社,東京都,世田谷区,喜多見３丁目５番５１号,,13,112,1570067,,,,,,,2024-11-15,1,,,,,キューブドケー,0
2583,9011001165962,新規,0,2024-11-15,2024-11-15,セーフティーナビ株式会社,,株式会社,東京都,渋谷区,広尾１丁目１番３９号,,13,113,1500012,,,,,,,2024-11-15,1,,,,,セーフティーナビ,0
2584,9011001165970,新規,0,2024-11-15,2024-11-15,株式会社ＳＯＭＥＬＭＡ,,株式会社,東京都,渋谷区,幡ヶ谷１丁目３１番１８号プレール・ドゥーク渋谷幡ヶ谷６０３号,,13,113,1510072,,,,,,,2024-11-15,1,,,,,ソメルマ,0
2586,9011003020430,新規,0,2024-11-15,2024-11-15,Ｈａｒｍｏｎｅｘｔ合同会社,,合同会社,東京都,目黒区,駒場１丁目２２番９号,,13,110,1530041,,,,,,,2024-11-15,1,,,,,ハーモネクスト,0
2587,9011003020455,新規,0,2024-11-15,2024-11-15,ＷＸ　ＣＡＰＩＴＡＬ合同会社,,合同会社,東京都,渋谷区,恵比寿４丁目３番５号７０４号室アークアウトソーシング株式会社内,,13,113,1500013,,,,,,,2024-11-15,1,,,,,ダブリューエックスキャピタル,0
2591,9011501031359,新規,0,2024-11-15,2024-11-15,株式会社Ｇ．Ｃ．Ｓ　ＳＥＲＶＩＣＥＳ,,株式会社,東京都,北区,田端新町３丁目２６番２号,,13,117,1140012,,,,,,,2024-11-15,1,,,,,ジーシーエスサービシーズ,0
2592,9011503006301,新規,0,2024-11-15,2024-11-15,Ｖ‐ＧＲＯＵＰ合同会社,,合同会社,東京都,北区,赤羽２丁目１９－１０－４０１号,,13,117,1150045,,,,,,,2024-11-15,1,,,,,ヴィグループ,0
2599,9011801045158,新規,0,2024-11-15,2024-11-15,株式会社ＡＭＫＥ,,株式会社,東京都,足立区,西伊興１丁目６番２３号,,13,121,1210824,,,,,,,2024-11-15,1,,,,,エイエムケーイー,0
2601,9012405005060,新規,0,2024-11-15,2024-11-15,一般社団法人慈英会,,その他の設立登記法人,東京都,武蔵野市,吉祥寺本町１丁目３１番１２号第二大栄ビル５階,,13,203,1800004,,,,,,,2024-11-15,1,,,,,ジエイカイ,0
2602,9012701018559,新規,0,2024-11-15,2024-11-15,株式会社スマイルアンドトラスト,,株式会社,東京都,西東京市,東町６丁目７番１５号１Ｆ,,13,229,2020012,,,,,,,2024-11-15,1,,,,,スマイルアンドトラスト,0
2613,9020001160064,新規,0,2024-11-15,2024-11-15,株式会社スタートアップ,,株式会社,神奈川県,川崎市多摩区,登戸１４６５番地１ラポール向ヶ丘遊園２０５,,14,135,2140014,,,,,,,2024-11-15,1,,,,,スタートアップ,0
2614,9020001160072,新規,0,2024-11-15,2024-11-15,コスモバンクホールディングス株式会社,,株式会社,神奈川県,横浜市西区,みなとみらい２丁目２番１号,,14,103,2200012,,,,,,,2024-11-15,1,,,,,コスモバンクホールディングス,0
2631,9030001163264,新規,0,2024-11-15,2024-11-15,ｆｕｔｕｒｅｂｒｉｄｇｅ株式会社,,株式会社,埼玉県,川越市,仙波町４丁目１４番地１４,,11,201,3500034,,,,,,,2024-11-15,1,,,,,フューチャーブリッジ,0
2632,9030001163454,新規,0,2024-11-15,2024-11-15,興業株式会社,,株式会社,埼玉県,川口市,西川口２丁目６番１３号,,11,203,3320021,,,,,,,2024-11-15,1,,,,,コウギョウ,0
2633,9030001163462,新規,0,2024-11-15,2024-11-15,株式会社飯山工業,,株式会社,埼玉県,三郷市,戸ケ崎２丁目５８８番地グランテラス水元公園７０３号,,11,237,3410044,,,,,,,2024-11-15,1,,,,,イイヤマコウギョウ,0
2636,9030003025487,新規,0,2024-11-15,2024-11-15,合同会社中野建築,,合同会社,埼玉県,さいたま市桜区,大字在家１３６番地８号,,11,106,3380813,,,,,,,2024-11-15,1,,,,,ナカノケンチク,0
2644,9040001136137,新規,0,2024-11-15,2024-11-15,株式会社ＫＡＫＥる,,株式会社,千葉県,柏市,明原１丁目１１番１２号恩田コーポ２－３０２号,,12,217,2770843,,,,,,,2024-11-15,1,,,,,カケル,0
2645,9040001136161,新規,0,2024-11-15,2024-11-15,株式会社高澤商事,00137031,株式会社,千葉県,市原市,菊間２８９７番地５３,,12,219,2900007,,,,,,,2024-11-15,1,,,,,タカサワショウジ,0
2650,9040003026204,新規,0,2024-11-15,2024-11-15,合同会社かなた,,合同会社,千葉県,市川市,大野町２丁目９４１番地３,,12,203,2720805,,,,,,,2024-11-15,1,,,,,カナタ,0
2651,9050001055699,新規,0,2024-11-15,2024-11-15,株式会社創興産業,,株式会社,茨城県,つくばみらい市,伊奈東８３番地１,,08,235,3002308,,,,,,,2024-11-15,1,,,,,ソウコウサンギョウ,0
2652,9050001055708,新規,0,2024-11-15,2024-11-15,株式会社ＺＥＮＯ,,株式会社,茨城県,牛久市,刈谷町１丁目１４９番地,,08,219,3001235,,,,,,,2024-11-15,1,,,,,ゼノ,0
2660,9060001037655,新規,0,2024-11-15,2024-11-15,株式会社ぶぅぶぅ,,株式会社,栃木県,さくら市,向河原４０１１番地１,,09,214,3291326,,,,,,,2024-11-15,1,,,,,ブゥブゥ,0
2662,9070001042373,新規,0,2024-11-15,2024-11-15,アクアフィックス株式会社,,株式会社,群馬県,高崎市,宮沢町１７２８－６,,10,202,3703338,,,,,,,2024-11-15,1,,,,,アクアフィックス,0
2663,9070005010327,新規,0,2024-11-15,2024-11-15,一般社団法人ライフリーフ,,その他の設立登記法人,群馬県,高崎市,緑町３丁目１０番地１ベルコートＩＩＩ１階,00137014,10,202,3700073,,,,,,,2024-11-15,1,,,,,ライフリーフ,0
2668,9080401027576,新規,0,2024-11-15,2024-11-15,株式会社Ｎｏｗａ,,株式会社,静岡県,掛川市,下俣南１丁目１番７号,,22,213,4360026,,,,,,,2024-11-15,1,,,,,ノワ,0
2677,9100003007866,新規,0,2024-11-15,2024-11-15,ＣｏＪｉｎ合同会社,,合同会社,長野県,北佐久郡軽井沢町,大字長倉５４１４番地６,,20,321,3890111,,,,,,,2024-11-15,1,,,,,コウジン,0
2678,9110001038838,新規,0,2024-11-15,2024-11-15,村上風力発電株式会社,,株式会社,新潟県,村上市,杉原２番１８号,,15,212,9580831,,,,,,,2024-11-15,1,,,,,ムラカミフウリョクハツデン,0
2684,9120001270266,新規,0,2024-11-15,2024-11-15,株式会社ＬＥＭＯＲＩＯＮ,,株式会社,大阪府,大阪市城東区,関目１丁目８番２２号,,27,118,5360008,,,,,,,2024-11-15,1,,,,,レモリオン,0
2685,9120001270316,新規,0,2024-11-15,2024-11-15,株式会社ＭＥＲＣＩ,,株式会社,大阪府,大阪市住吉区,万代４丁目１２番２１号,,27,120,5580055,,,,,,,2024-11-15,1,,,,,メルシ,0
2686,9120001270324,新規,0,2024-11-15,2024-11-15,株式会社Ｓ＆Ｄ,,株式会社,大阪府,寝屋川市,仁和寺本町２丁目１１番１１号,,27,215,5720076,,,,,,,2024-11-15,1,,,,,エスアンドディー,0
2687,9120001270332,新規,0,2024-11-15,2024-11-15,九九株式会社,,株式会社,大阪府,大阪市城東区,新喜多東２丁目８番２３号ＭｉｘＰａｃｅ１０２号室,,27,118,5360017,,,,,,,2024-11-15,1,,,,,クク,0
2688,9120001270381,新規,0,2024-11-15,2024-11-15,株式会社ｋ　ａｎｄ　ｋ,,株式会社,大阪府,大阪市北区,梅田１丁目２‐２大阪駅前第２ビル１２‐１２,,27,127,5300001,,,,,,,2024-11-15,1,,,,,ケイアンドケイ,0
2694,9120003027986,新規,0,2024-11-15,2024-11-15,ＯＶＥＲＣＯＭＥ合同会社,,合同会社,大阪府,大阪市中央区,南船場４丁目１０－５－４階Ｂ号室左,,27,128,5420081,,,,,,,2024-11-15,1,,,,,オーバーカム,0
2701,9120901049974,新規,0,2024-11-15,2024-11-15,株式会社瑞悦,,株式会社,大阪府,池田市,伏尾町７６－１６バードヒルズ１号館公園４１６室,,27,204,5630011,,,,,,,2024-11-15,1,,,,,ズイエツ,0
2702,9120901050024,新規,0,2024-11-15,2024-11-15,ＡＬＬ　ＭＩＧＨＴ株式会社,,株式会社,大阪府,豊中市,春日町２丁目１３－３８１０１,,27,203,5600052,,,,,,,2024-11-15,1,,,,,オールマイト,0
2704,9130005017241,新規,0,2024-11-15,2024-11-15,特定非営利活動法人だいごスポーツアカデミー,,その他の設立登記法人,京都府,京都市伏見区,醍醐東合場町５－１５,,26,109,6011346,,,,,,,2024-11-15,1,,,,,ダイゴスポーツアカデミー,0
2710,9140001136432,新規,0,2024-11-15,2024-11-15,株式会社Ｒ．Ｉ．Ｈ．Ｙコーポレーション,,株式会社,兵庫県,西宮市,越水町３番３４－４号,,28,204,6620864,,,,,,,2024-11-15,1,,,,,アールアイエイチワイコーポレーション,0
2716,9140005027256,新規,0,2024-11-15,2024-11-15,一般社団法人Ａｃｔｓ,,その他の設立登記法人,兵庫県,伊丹市,荻野７丁目７０番地,,28,207,6640002,,,,,,,2024-11-15,1,,,,,アクト,0
2720,9180001164124,新規,0,2024-11-15,2024-11-15,サンワケミカルホールディングス株式会社,,株式会社,愛知県,愛西市,町方町五軒家東６３番地２,,23,232,4968014,,,,,,,2024-11-15,1,,,,,サンワケミカルホールディングス,0
2725,9180301039249,新規,0,2024-11-15,2024-11-15,株式会社ゴットオフライフ,,株式会社,愛知県,西尾市,山下町泡原４２番地１,,23,213,4450877,,,,,,,2024-11-15,1,,,,,ゴットオフライフ,0
2726,9190001031802,新規,0,2024-11-15,2024-11-15,株式会社ＫＩＳＥ,,株式会社,三重県,伊勢市,吹上１丁目３番２２号２階２Ａ号室・２Ｂ号室,,24,203,5160073,,,,,,,2024-11-15,1,,,,,キセ,0
2730,9220001026336,新規,0,2024-11-15,2024-11-15,日介アセスメント株式会社,,株式会社,石川県,野々市市,御経塚３丁目２８９番地,,17,212,9218801,,,,,,,2024-11-15,1,,,,,ニッカイアセスメント,0
2733,9240001064111,新規,0,2024-11-15,2024-11-15,株式会社ｅ’ｃｌａｔ,,株式会社,広島県,広島市南区,段原２丁目１７番１３号ＵＮビル,,34,103,7320811,,,,,,,2024-11-15,1,,,,,エクラ,0
2743,9290001107567,新規,0,2024-11-15,2024-11-15,株式会社サニックス,,株式会社,福岡県,福岡市博多区,博多駅東１丁目１３番９号,,40,132,8120013,,,,,,,2024-11-15,1,,,,,サニックス,0
2744,9290001107831,新規,0,2024-11-15,2024-11-15,小春日和株式会社,,株式会社,福岡県,福岡市中央区,西公園２－１３アドニス西公園,,40,133,8100061,,,,,,,2024-11-15,1,,,,,コハルビヨリ,0
2745,9290001107988,新規,0,2024-11-15,2024-11-15,株式会社湊,,株式会社,福岡県,春日市,星見ヶ丘５丁目１２０番地,,40,218,8160849,,,,,,,2024-11-15,1,,,,,ミナト,0
2746,9290001108020,新規,0,2024-11-15,2024-11-15,株式会社エニシア,,株式会社,福岡県,太宰府市,朱雀２丁目１７番２３号,,40,221,8180103,,,,,,,2024-11-15,1,,,,,エニシア,0
2748,9290003016048,新規,0,2024-11-15,2024-11-15,ＹＥＮ　ＶＹ合同会社,,合同会社,福岡県,飯塚市,柏の森６６９－１ＹＥビル５０２,,40,205,8200011,,,,,,,2024-11-15,1,,,,,イエンヴイ,0
2754,9310001019322,新規,0,2024-11-15,2024-11-15,タテダス株式会社,,株式会社,長崎県,諫早市,長田町２３３８番地,,42,204,8590301,,,,,,,2024-11-15,1,,,,,タテダス,0
2768,9360003014449,新規,0,2024-11-15,2024-11-15,合同会社海の部屋,,合同会社,沖縄県,島尻郡久米島町,字謝名堂５７２番地の１サントピア久米島Ｂ棟２－Ｅ,,47,361,9013107,,,,,,,2024-11-15,1,,,,,ウミノヘヤ,0
2770,9370001051930,新規,0,2024-11-15,2024-11-15,ルミエージュ株式会社,,株式会社,宮城県,仙台市若林区,新寺１丁目７番１－５１０号,,04,103,9840051,,,,,,,2024-11-15,1,,,,,ルミエージュ,0
2771,9370001051939,新規,0,2024-11-15,2024-11-15,株式会社エートス,,株式会社,宮城県,仙台市太白区,土手内３丁目２－３５メゾンさくらそう２０３号,,04,104,9820026,,,,,,,2024-11-15,1,,,,,エートス,0
2772,9370001051947,新規,0,2024-11-15,2024-11-15,株式会社ＳＳライフ,,株式会社,宮城県,仙台市青葉区,折立４丁目８番２０号ビ・フローラ４－１０１,,04,101,9820261,,,,,,,2024-11-15,1,,,,,エスエスライフ,0
2774,9380001034918,新規,0,2024-11-15,2024-11-15,株式会社せつでん,,株式会社,福島県,伊達郡川俣町,字竹ノ内１２番地の４４,,07,308,9601455,,,,,,,2024-11-15,1,,,,,セツデン,0
2781,9410001013991,新規,0,2024-11-15,2024-11-15,ＫＢＨジャパン株式会社,,株式会社,秋田県,仙北市,角館町中菅沢９４番地７コワーキングスペースＯＲＥＮＣＨＩ,,05,215,0140368,,,,,,,2024-11-15,1,,,,,ケービーエイチジャパン,0
2796,9700150127885,新規,0,2024-11-15,2024-11-15,ＲＯＹＡＬ　ＥＮＴＥＲＰＲＩＳＥＳ,,外国会社等,神奈川県,伊勢原市,板戸７９０番地２７コンサートワン１０４,,14,214,2591145,スリランカ民主社会主義共和国、パンディルプマルタムナル、メインストリート、Ｎｏ．２２４／２,,,,,,2024-11-15,1,,,,,ロイヤルエンタープライズ,0
