sequenceNumber,corporateNumber,process,correct,updateDate,changeDate,name,nameImageId,kind,prefectureName,cityName,streetNumber,addressImageId,prefectureCode,cityCode,postCode,addressOutside,addressOutsideImageId,closeDate,closeCause,successorCorporateNumber,changeCause,assignmentDate,latest,enName,enPrefectureName,enCityName,enAddressOutside,furigana,hihyoji
3,1010001257323,新規,0,2025-08-01,2025-08-01,麻酒記株式会社,,株式会社,東京都,千代田区,神田須田町１丁目３－９ＰＭＯ神田万世橋３階,,13,101,1010041,,,,,,,2025-08-01,1,,,,,マシュキ,0
4,1010001257331,新規,0,2025-08-01,2025-08-01,Ｓ．Ｓ　Ｉｎｔｅｒｎａｔｉｏｎａｌ株式会社,,株式会社,東京都,中央区,銀座１丁目１２番４号Ｎ＆Ｅ・ＢＬＤ．６Ｆ,,13,102,1040061,,,,,,,2025-08-01,1,,,,,エスエスインターナショナル,0
5,1010001257372,新規,0,2025-08-01,2025-08-01,株式会社Ｄｉｇｉｔａｌ　Ａｎａｌｙｔｉｃａ,,株式会社,東京都,中央区,銀座１丁目１２番４号Ｎ＆ＥＢＬＤ．６Ｆ,,13,102,1040061,,,,,,,2025-08-01,1,,,,,デジタルアナリティカ,0
13,1010005040436,新規,0,2025-08-01,2025-08-01,一般社団法人人事共創研究所,,その他の設立登記法人,東京都,中央区,銀座１丁目２２番１１号銀座大竹ビジデンス２Ｆ,,13,102,1040061,,,,,,,2025-08-01,1,,,,,ジンジキョウソウケンキュウジョ,0
14,1010005040460,新規,0,2025-08-01,2025-08-01,一般社団法人江坂ホールディングス,,その他の設立登記法人,東京都,千代田区,丸の内１丁目６番５号,,13,101,1000005,,,,,,,2025-08-01,1,,,,,エサカホールディングス,0
15,1010101016785,新規,0,2025-08-01,2025-08-01,ＳＫＵＤ株式会社,,株式会社,東京都,八王子市,田町２番１号,,13,201,1920064,,,,,,,2025-08-01,1,,,,,スカッド,0
24,1010401192211,新規,0,2025-08-01,2025-08-01,株式会社かぞく＆ｉ,,株式会社,東京都,港区,南青山３丁目１番３６号青山丸竹ビル６Ｆ,,13,103,1070062,,,,,,,2025-08-01,1,,,,,カゾクアンドアイ,0
34,1010601067601,新規,0,2025-08-01,2025-08-01,株式会社Ｓａｈａｂａｔ　Ｊａｐａｎ　Ａｇｅｎｃｙ,,株式会社,東京都,墨田区,江東橋３丁目２番２－２１０号,,13,107,1300022,,,,,,,2025-08-01,1,,,,,サハバットジャパンエージェンシー,0
37,1010703007843,新規,0,2025-08-01,2025-08-01,ミライマーケ合同会社,,合同会社,東京都,品川区,東五反田２丁目１６番１ー３１０号,,13,109,1410022,,,,,,,2025-08-01,1,,,,,ミライマーケ,0
38,1010705003782,新規,0,2025-08-01,2025-08-01,一般社団法人地域振興社,,その他の設立登記法人,東京都,品川区,西五反田３丁目３番２‐１５１１号,,13,109,1410031,,,,,,,2025-08-01,1,,,,,チイキシンコウシャ,0
39,1010803005482,新規,0,2025-08-01,2025-08-01,合同会社ＴＳＹ,,合同会社,東京都,大田区,南馬込６丁目１２番４－２０１号,,13,111,1430025,,,,,,,2025-08-01,1,,,,,ティエスワイ,0
47,1011001171150,新規,0,2025-08-01,2025-08-01,株式会社エーダブルオー,,株式会社,東京都,渋谷区,恵比寿１丁目１３番１号鈴木ビル３Ｆ,,13,113,1500013,,,,,,,2025-08-01,1,,,,,エーダブルオー,0
48,1011001171159,新規,0,2025-08-01,2025-08-01,株式会社リードン・ジャパン,,株式会社,東京都,目黒区,自由が丘１丁目２３番１２号,,13,110,1520035,,,,,,,2025-08-01,1,,,,,リードンジャパン,0
49,1011001171217,新規,0,2025-08-01,2025-08-01,株式会社ＣＤＹ,,株式会社,東京都,渋谷区,神宮前５丁目４６番１号,,13,113,1500001,,,,,,,2025-08-01,1,,,,,シーディーワイ,0
52,1011003022095,新規,0,2025-08-01,2025-08-01,ＡＹＭ．ｍｅｄｉｃｓ合同会社,,合同会社,東京都,目黒区,大橋２丁目１９番６－８２８号,,13,110,1530044,,,,,,,2025-08-01,1,,,,,エーワイエムメディクス,0
57,1011203004777,新規,0,2025-08-01,2025-08-01,合同会社ｓｏｒａＮ,,合同会社,東京都,中野区,南台１丁目３番１３号,,13,114,1640014,,,,,,,2025-08-01,1,,,,,ソラン,0
58,1011301030766,新規,0,2025-08-01,2025-08-01,株式会社ＫＭＣ,,株式会社,東京都,杉並区,阿佐谷南１丁目１７番２６号,,13,115,1660004,,,,,,,2025-08-01,1,,,,,ケイエムシー,0
61,1011403004783,新規,0,2025-08-01,2025-08-01,ピクノス合同会社,,合同会社,東京都,板橋区,桜川２丁目１０番５号,,13,119,1740075,,,,,,,2025-08-01,1,,,,,ピクノス,0
62,1011501032380,新規,0,2025-08-01,2025-08-01,株式会社チームリバー,,株式会社,東京都,荒川区,南千住８丁目８－１－２０１６号,,13,118,1160003,,,,,,,2025-08-01,1,,,,,チームリバー,0
63,1011505002702,新規,0,2025-08-01,2025-08-01,一般社団法人和紙楽,,その他の設立登記法人,東京都,北区,西ケ原１丁目５１番１７号,,13,117,1140024,,,,,,,2025-08-01,1,,,,,ワシラク,0
64,1011601028849,新規,0,2025-08-01,2025-08-01,関東空調エンジニアリング株式会社,,株式会社,東京都,練馬区,氷川台４丁目４７番１８号,,13,120,1790084,,,,,,,2025-08-01,1,,,,,カントウクウチョウエンジニアリング,0
66,1011703004310,新規,0,2025-08-01,2025-08-01,合同会社Ｋ,,合同会社,東京都,江戸川区,南葛西７丁目２―２―５０９,,13,123,1340085,,,,,,,2025-08-01,1,,,,,ケー,0
72,1012701019003,新規,0,2025-08-01,2025-08-01,ＪＤＴＲ株式会社,,株式会社,東京都,西東京市,中町５丁目９番１５号Ｂ－２０５,,13,229,2020013,,,,,,,2025-08-01,1,,,,,ゼデテアル,0
73,1012703003327,新規,0,2025-08-01,2025-08-01,ハナユキ合同会社,,合同会社,東京都,小平市,上水本町１丁目１０番３３－８号,,13,211,1870022,,,,,,,2025-08-01,1,,,,,ハナユキ,0
79,1020001164007,新規,0,2025-08-01,2025-08-01,株式会社ＹＥＬＬＯＷ,,株式会社,神奈川県,横浜市港南区,日限山３丁目１９番１５号,,14,111,2330015,,,,,,,2025-08-01,1,,,,,イエロー,0
80,1020001164114,新規,0,2025-08-01,2025-08-01,株式会社ＶｉｂｅＣｒａｆｔ,,株式会社,神奈川県,横浜市磯子区,杉田９丁目３９番８号,,14,107,2350033,,,,,,,2025-08-01,1,,,,,バイブクラフト,0
81,1020001164122,新規,0,2025-08-01,2025-08-01,株式会社ＣＡＮ　Ｄａｎｃｅ　Ｆａｃｔｏｒｙ,,株式会社,神奈川県,横浜市港北区,高田西４丁目２８番３０号ＭＹＴパラシオ１０６,,14,109,2230066,,,,,,,2025-08-01,1,,,,,カンダンスファクトリー,0
82,1020001164147,新規,0,2025-08-01,2025-08-01,株式会社ＡＳＩＡ　ＳＭ　ＲＩＳＥ,,株式会社,神奈川県,川崎市幸区,古市場２丁目８６リリオムハイツ１０１,,14,132,2120052,,,,,,,2025-08-01,1,,,,,アジアエスエムライズ,0
85,1020003028985,新規,0,2025-08-01,2025-08-01,合同会社ビーコンワン,,合同会社,神奈川県,横浜市青葉区,すみよし台６番地３８,,14,117,2270035,,,,,,,2025-08-01,1,,,,,ビーコンワン,0
86,1020003029001,新規,0,2025-08-01,2025-08-01,合同会社ファインリンクス,,合同会社,神奈川県,横浜市西区,北幸２丁目１０番４８号むつみビル３階,,14,103,2200004,,,,,,,2025-08-01,1,,,,,ファインリンクス,0
87,1021001085936,新規,0,2025-08-01,2025-08-01,株式会社ヴェルデリンク,,株式会社,神奈川県,藤沢市,善行坂２丁目３番１０号,,14,205,2510876,,,,,,,2025-08-01,1,,,,,ヴェルデリンク,0
88,1021001085977,新規,0,2025-08-01,2025-08-01,Ｓｍａｒｔ　Ｄｉｓｃｏｖｅｒｙ株式会社,,株式会社,神奈川県,藤沢市,片瀬海岸２丁目１８―２１リードシー片瀬江ノ島３Ｆ,,14,205,2510035,,,,,,,2025-08-01,1,,,,,スマートディスカバリー,0
96,1030001167933,新規,0,2025-08-01,2025-08-01,株式会社つくも商事,,株式会社,埼玉県,さいたま市北区,宮原町２丁目１番地７,,11,102,3310812,,,,,,,2025-08-01,1,,,,,ツクモショウジ,0
105,1040001139832,新規,0,2025-08-01,2025-08-01,株式会社Ｌａｂｏ　ａｎｄ,,株式会社,千葉県,四街道市,下志津新田２５３４番地１４０,,12,228,2840006,,,,,,,2025-08-01,1,,,,,ラボアンド,0
106,1040001139840,新規,0,2025-08-01,2025-08-01,株式会社トレードポイント,,株式会社,千葉県,千葉市中央区,登戸１丁目１６番７号３階Ｂ,,12,101,2600032,,,,,,,2025-08-01,1,,,,,トレードポイント,0
110,1050003009470,新規,0,2025-08-01,2025-08-01,合同会社うめの香,,合同会社,茨城県,土浦市,荒川沖東３丁目１２番６号,,08,203,3000871,,,,,,,2025-08-01,1,,,,,ウメノカ,0
115,1080001027067,新規,0,2025-08-01,2025-08-01,株式会社アドバンス,,株式会社,静岡県,牧之原市,細江８２２番地,,22,226,4210421,,,,,,,2025-08-01,1,,,,,アドバンス,0
119,1090001019427,新規,0,2025-08-01,2025-08-01,Ｆｌａｍｍｅ　Ｖｉｓｉｏｎｎａｉｒｅ　Ｉｎｓｉｇｈｔ株式会社,,株式会社,山梨県,甲府市,上今井町２６５番地１１,,19,201,4000845,,,,,,,2025-08-01,1,,,,,フラムヴィジョネールインサイト,0
134,1120001278119,新規,0,2025-08-01,2025-08-01,株式会社ＡＣＣＡ,,株式会社,大阪府,大阪市北区,梅田１丁目１－３大阪駅前第３ビル２９階１－１－１号室,,27,127,5300001,,,,,,,2025-08-01,1,,,,,アッカ,0
135,1120001278366,新規,0,2025-08-01,2025-08-01,ＣＯＬＯＲＳ株式会社,,株式会社,大阪府,枚方市,茄子作４丁目２１番１号１０２号室,,27,210,5730071,,,,,,,2025-08-01,1,,,,,カラーズ,0
136,1120001278374,新規,0,2025-08-01,2025-08-01,株式会社ｓｏａｒ,,株式会社,大阪府,大阪市住吉区,山之内１丁目２７番１３号ＱｕｅｅｎｓＷａｙ２０４,,27,120,5580023,,,,,,,2025-08-01,1,,,,,ソアー,0
137,1120001278416,新規,0,2025-08-01,2025-08-01,三曜エナジー株式会社,,株式会社,大阪府,大阪市阿倍野区,播磨町１丁目２３－２２－４０５,,27,119,5450022,,,,,,,2025-08-01,1,,,,,サンヨウエナジー,0
141,1120003030163,新規,0,2025-08-01,2025-08-01,花影エンタープライズ合同会社,,合同会社,大阪府,大阪市中央区,心斎橋筋２丁目２番１１号小川心斎橋ビル２階,,27,128,5420085,,,,,,,2025-08-01,1,,,,,カエイエンタープライズ,0
148,1120103006600,新規,0,2025-08-01,2025-08-01,合同会社Ｓ‐ＬＩＮＫＳ,,合同会社,大阪府,堺市北区,金岡町２０２５番地１１,,27,146,5918022,,,,,,,2025-08-01,1,,,,,エスリンクス,0
151,1120901051260,新規,0,2025-08-01,2025-08-01,株式会社ロマン住設,,株式会社,大阪府,吹田市,春日２丁目２５番１号,,27,205,5650853,,,,,,,2025-08-01,1,,,,,ロマンジュウセツ,0
152,1120901051269,新規,0,2025-08-01,2025-08-01,株式会社Ｐ‐Ｆｕｎ,,株式会社,大阪府,吹田市,千里山西４丁目３７番１－４１０号,,27,205,5650851,,,,,,,2025-08-01,1,,,,,ピーファン,0
160,1130001080192,新規,0,2025-08-01,2025-08-01,株式会社Ｋｎｏｔｔｉａ,,株式会社,京都府,京都市左京区,松ケ崎雲路町６番地１２,,26,103,6060955,,,,,,,2025-08-01,1,,,,,ノッティア,0
161,1130001080234,新規,0,2025-08-01,2025-08-01,株式会社ＣＮＲ,,株式会社,京都府,京都市中京区,二条通東洞院西入る仁王門町２６－１御所南二条ビル２階,,26,104,6040000,,,,,,,2025-08-01,1,,,,,シーエヌアール,0
172,1140001139483,新規,0,2025-08-01,2025-08-01,株式会社ケーオーエスイー,,株式会社,兵庫県,西宮市,苦楽園二番町１６番６１号,,28,204,6620082,,,,,,,2025-08-01,1,,,,,ケーオーエスイー,0
173,1140001139500,新規,0,2025-08-01,2025-08-01,ＴＯＫＡＪ　ＷＩＮＥ　ＧＲＯＵＰ株式会社,,株式会社,兵庫県,神戸市兵庫区,三川口町３丁目３番３号,,28,105,6520815,,,,,,,2025-08-01,1,,,,,トカイワイングループ,0
175,1140003022349,新規,0,2025-08-01,2025-08-01,合同会社ＤＫ,,合同会社,兵庫県,加東市,東古瀬２８１番地１,,28,228,6731423,,,,,,,2025-08-01,1,,,,,ディーケイ,0
176,1140003022357,新規,0,2025-08-01,2025-08-01,ＬＴｂ　Ｆｕｔｕｒｅ　Ｄｅｓｉｇｎ合同会社,,合同会社,兵庫県,西宮市,北六甲台４丁目１８－７,,28,204,6511413,,,,,,,2025-08-01,1,,,,,エルティービーフューチャーデザイン,0
177,1140003022365,新規,0,2025-08-01,2025-08-01,合同会社鉄人１５,,合同会社,兵庫県,尼崎市,田能３丁目２３番５号,,28,202,6610951,,,,,,,2025-08-01,1,,,,,テツジンジュウゴ,0
189,1180001167910,新規,0,2025-08-01,2025-08-01,株式会社ＡＵＮ,,株式会社,愛知県,丹羽郡大口町,余野２丁目１２４,,23,361,4800146,,,,,,,2025-08-01,1,,,,,エーユーエヌ,0
190,1180001167968,新規,0,2025-08-01,2025-08-01,株式会社プライム,,株式会社,愛知県,名古屋市中村区,名駅３丁目４番１０号アルティメイト名駅１ｓｔ２階,,23,105,4500002,,,,,,,2025-08-01,1,,,,,プライム,0
191,1180001167984,新規,0,2025-08-01,2025-08-01,株式会社インフィニティ,,株式会社,愛知県,名古屋市中区,丸の内２丁目１９番３２号パインツリー丸の内,,23,106,4600002,,,,,,,2025-08-01,1,,,,,インフィニティ,0
194,1180003028788,新規,0,2025-08-01,2025-08-01,合同会社ＹＫ,,合同会社,愛知県,あま市,中萱津南宿２７番地２,,23,237,4901113,,,,,,,2025-08-01,1,,,,,ワイケー,0
195,1180003028796,新規,0,2025-08-01,2025-08-01,合同会社ＣＯＲＥ　ＨＥＡＲＴ,,合同会社,愛知県,北名古屋市,沖村六反１７１番地Ａ棟,,23,234,4810043,,,,,,,2025-08-01,1,,,,,コアハート,0
214,1220001026830,新規,0,2025-08-01,2025-08-01,株式会社スプリント,,株式会社,石川県,金沢市,割出町６３８番地３,,17,201,9200062,,,,,,,2025-08-01,1,,,,,スプリント,0
222,1250001021275,新規,0,2025-08-01,2025-08-01,Ｌｉｍｉｔｌｅｓｓ　Ｌｉｖｉｎｇ株式会社,,株式会社,山口県,岩国市,麻里布町６丁目１３番２９号,,35,208,7400018,,,,,,,2025-08-01,1,,,,,リミットレスリビング,0
224,1250003003775,新規,0,2025-08-01,2025-08-01,ほっとケア合同会社,,合同会社,山口県,山口市,宮野下１３６３－５,,35,203,7530011,,,,,,,2025-08-01,1,,,,,ホットケア,0
226,1270003001777,新規,0,2025-08-01,2025-08-01,合同会社亜細亜貿易興行,,合同会社,鳥取県,日野郡江府町,大字下安井２０６番,,31,403,6894412,,,,,,,2025-08-01,1,,,,,アジアボウエキコウギョウ,0
231,1290001110586,新規,0,2025-08-01,2025-08-01,喜平工業株式会社,,株式会社,福岡県,嘉麻市,西郷１６５０番地１,,40,227,8200505,,,,,,,2025-08-01,1,,,,,キヘイコウギョウ,0
232,1290001110859,新規,0,2025-08-01,2025-08-01,株式会社カワセミ相談室,,株式会社,福岡県,春日市,上白水７丁目３１番地,,40,218,8160844,,,,,,,2025-08-01,1,,,,,カワセミソウダンシツ,0
233,1290001110875,新規,0,2025-08-01,2025-08-01,株式会社ＯＮＥホールディングス,,株式会社,福岡県,朝倉市,堤１５５８番地１,,40,228,8380062,,,,,,,2025-08-01,1,,,,,ワンホールディングス,0
234,1290001110900,新規,0,2025-08-01,2025-08-01,Ａ’ｓ　ｒｏｏｍ株式会社,,株式会社,福岡県,太宰府市,大佐野６丁目４番１号,,40,221,8180134,,,,,,,2025-08-01,1,,,,,,0
235,1290801031742,新規,0,2025-08-01,2025-08-01,株式会社リビットジャパン,,株式会社,福岡県,北九州市八幡西区,陣原２丁目８番２号,,40,109,8070821,,,,,,,2025-08-01,1,,,,,リビットジャパン,0
239,1320001021235,新規,0,2025-08-01,2025-08-01,株式会社創志総建,,株式会社,大分県,大分市,宗方台西２番８号,,44,201,8701158,,,,,,,2025-08-01,1,,,,,ソウシソウケン,0
254,1370001052903,新規,0,2025-08-01,2025-08-01,株式会社ＯＭ,,株式会社,宮城県,仙台市太白区,茂庭字新組２５番地の４,,04,104,9820251,,,,,,,2025-08-01,1,,,,,オーエム,0
260,1400601000381,新規,0,2025-08-01,2025-08-01,サンシステム株式会社,,株式会社,岩手県,奥州市,江刺愛宕字三治川原５１番地の５,,03,215,0231131,,,,,,,2025-08-01,1,,,,,サンシステム,0
277,1500001026439,新規,0,2025-08-01,2025-08-01,株式会社リレック,,株式会社,愛媛県,今治市,唐子台東３丁目２番地１０,,38,202,7991531,,,,,,,2025-08-01,1,,,,,リレック,0
278,1700150131622,新規,0,2025-08-01,2025-08-01,ＭＩＮＡＭＩ　ＡＯＹＡＭＡ　ＰＴＥ．ＬＴＤ．,,外国会社等,東京都,港区,六本木１丁目６番１号泉ガーデンタワー,,13,103,1060032,シンガポール共和国ロビンソン７７、＃１３－００、７７ロビンソンロード,,,,,,2025-08-01,1,,,,,ミナミアオヤマピーテイーイーリミテツド,0
282,2010001257248,新規,0,2025-08-01,2025-08-01,株式会社アレンダンドキャピタル,,株式会社,東京都,中央区,日本橋兜町８番１号,,13,102,1030026,,,,,,,2025-08-01,1,,,,,アレンダンドキャピタル,0
283,2010001257272,新規,0,2025-08-01,2025-08-01,Ａｘｏｍｉａ株式会社,,株式会社,東京都,中央区,銀座１丁目２２番１１号,,13,102,1040061,,,,,,,2025-08-01,1,,,,,アクソミア,0
284,2010001257363,新規,0,2025-08-01,2025-08-01,株式会社ＥＳｐｌｕｓ,,株式会社,東京都,中央区,銀座６丁目１４番８号銀座石井ビル,,13,102,1040061,,,,,,,2025-08-01,1,,,,,エスプラス,0
288,2010003048182,新規,0,2025-08-01,2025-08-01,ＳＮｏｏＳｅ合同会社,,合同会社,東京都,文京区,白山４丁目９番１２号バウム白山１０１,,13,105,1120001,,,,,,,2025-08-01,1,,,,,スヌーズ,0
289,2010003048216,新規,0,2025-08-01,2025-08-01,ＭＡＡ　ＢＧＯ　ＳＣＰ合同会社,,合同会社,東京都,中央区,日本橋兜町９番１号,,13,102,1030026,,,,,,,2025-08-01,1,,,,,エムエーエービージーオーエスシーピー,0
297,2010703007842,新規,0,2025-08-01,2025-08-01,ゆめキャピタル合同会社,,合同会社,東京都,品川区,上大崎１丁目６番９号,,13,109,1410021,,,,,,,2025-08-01,1,,,,,ユメキャピタル,0
308,2010901057838,新規,0,2025-08-01,2025-08-01,株式会社サカイホームズ,,株式会社,東京都,世田谷区,三軒茶屋１丁目３５番６号高田ビル２０１号室,,13,112,1540024,,,,,,,2025-08-01,1,,,,,サカイホームズ,0
309,2011001171141,新規,0,2025-08-01,2025-08-01,株式会社ｏｍｏｓｈｉ,,株式会社,東京都,渋谷区,道玄坂１丁目１０番８号渋谷道玄坂東急ビル２Ｆ－Ｃ,,13,113,1500043,,,,,,,2025-08-01,1,,,,,オモシ,0
310,2011003022103,新規,0,2025-08-01,2025-08-01,Ｕｒａｈａ合同会社,,合同会社,東京都,渋谷区,道玄坂１丁目１０番８号渋谷道玄坂東急ビル２Ｆ－Ｃ,,13,113,1500043,,,,,,,2025-08-01,1,,,,,ウラハ,0
311,2011005011095,新規,0,2025-08-01,2025-08-01,一般社団法人自治体財政研究所,,その他の設立登記法人,東京都,目黒区,駒場２丁目１番７－５０２号,,13,110,1530041,,,,,,,2025-08-01,1,,,,,ジチタイザイセイケンキュウジョ,0
317,2011103016161,新規,0,2025-08-01,2025-08-01,合同会社オリエンタルテーブル,,合同会社,東京都,新宿区,大久保２丁目５番５号中村ビル１階,,13,104,1690072,,,,,,,2025-08-01,1,,,,,オリエンタルテーブル,0
323,2011501032371,新規,0,2025-08-01,2025-08-01,株式会社ＫＵＯＫＫＡ,,株式会社,東京都,北区,岸町１丁目１－１０成田ビル２Ｆ,,13,117,1140021,,,,,,,2025-08-01,1,,,,,クオッカ,0
324,2011501032388,新規,0,2025-08-01,2025-08-01,株式会社ＮＥＯＳＰＨＥＲＥ,,株式会社,東京都,北区,田端新町１丁目７－１４ビズフィールド西日暮里１０３,,13,117,1140012,,,,,,,2025-08-01,1,,,,,ネオスフィア,0
341,2020001163957,新規,0,2025-08-01,2025-08-01,株式会社Ｄａｒｎｉｎｇ,,株式会社,神奈川県,横浜市神奈川区,鶴屋町３丁目３２番地１４エクレール横浜西口６１０号室,,14,102,2210835,,,,,,,2025-08-01,1,,,,,ダーニング,0
342,2020001164071,新規,0,2025-08-01,2025-08-01,株式会社Ｆｏｕｒ　Ｄｉｍｅｎｓｉｏｎ　Ｊａｐａｎ,,株式会社,神奈川県,横浜市神奈川区,片倉１丁目８番８号,,14,102,2210865,,,,,,,2025-08-01,1,,,,,フォーディメンションジャパン,0
343,2020001164113,新規,0,2025-08-01,2025-08-01,オーワアセットマネジメント株式会社,,株式会社,神奈川県,川崎市中原区,井田中ノ町３３番５－７０１号リビン元住吉,,14,133,2110034,,,,,,,2025-08-01,1,,,,,オーワアセットマネジメント,0
344,2020001164121,新規,0,2025-08-01,2025-08-01,株式会社ＰａｗＰｒｏｇｒａｍｍｉｎｇ,,株式会社,神奈川県,横浜市鶴見区,東寺尾中台１１番１９号,,14,101,2300017,,,,,,,2025-08-01,1,,,,,パウプログラミング,0
347,2020003028984,新規,0,2025-08-01,2025-08-01,ＦＡ‐Ｊ合同会社,,合同会社,神奈川県,横浜市中区,桜木町港陽ビル４Ｆ,,14,104,2310000,,,,,,,2025-08-01,1,,,,,エフエージェイ,0
366,2030001167750,新規,0,2025-08-01,2025-08-01,一和株式会社,,株式会社,埼玉県,三郷市,高州２丁目１１７,,11,237,3410037,,,,,,,2025-08-01,1,,,,,イチワ,0
373,2030003027317,新規,0,2025-08-01,2025-08-01,ＦＩＧＨＴ合同会社,,合同会社,埼玉県,川口市,元郷４丁目３番６号,,11,203,3320011,,,,,,,2025-08-01,1,,,,,ファイト,0
376,2040001139823,新規,0,2025-08-01,2025-08-01,株式会社ＮＡＭＡＮＡ,,株式会社,千葉県,君津市,上２４０番地１,,12,225,2991107,,,,,,,2025-08-01,1,,,,,ナマナ,0
381,2050003009461,新規,0,2025-08-01,2025-08-01,Ｌｅｔ’ｓ合同会社,,合同会社,茨城県,水戸市,酒門町４２３２―２０,,08,201,3100841,,,,,,,2025-08-01,1,,,,,レッツ,0
383,2060001038437,新規,0,2025-08-01,2025-08-01,ＧｒｏｗＬｉｎｋ株式会社,,株式会社,栃木県,那須塩原市,沓掛２丁目１７－８ミコマーレ２Ｆ,,09,213,3293133,,,,,,,2025-08-01,1,,,,,グローリンク,0
390,2080103003386,新規,0,2025-08-01,2025-08-01,合同会社デコレクティブ,,合同会社,静岡県,駿東郡長泉町,下長窪８７１番地,,22,342,4110934,,,,,,,2025-08-01,1,,,,,デコレクティブ,0
392,2090001019426,新規,0,2025-08-01,2025-08-01,株式会社松の屋,,株式会社,山梨県,韮崎市,本町１丁目２番２０号,,19,207,4070024,,,,,,,2025-08-01,1,,,,,マツノヤ,0
403,2120001278233,新規,0,2025-08-01,2025-08-01,株式会社Ｓｔｅａｍ＆Ｓｔｒａｔｅｇｙ,,株式会社,大阪府,大阪市平野区,平野西５丁目４番１０－６０１号,,27,126,5470033,,,,,,,2025-08-01,1,,,,,スチームアンドストラテジー,0
404,2120001278357,新規,0,2025-08-01,2025-08-01,シンフォニアヘルス株式会社,,株式会社,大阪府,大阪市天王寺区,上本町５丁目３番１４－７０６号,,27,109,5430001,,,,,,,2025-08-01,1,,,,,シンフォニアヘルス,0
405,2120001278381,新規,0,2025-08-01,2025-08-01,株式会社Ｎ‐Ｄｅｓｉｇｎ　Ｌａｂ,,株式会社,大阪府,大阪市福島区,福島５丁目１２番１１号,,27,103,5530003,,,,,,,2025-08-01,1,,,,,エヌデザインラボ,0
406,2120001278423,新規,0,2025-08-01,2025-08-01,アジヨシ株式会社,,株式会社,大阪府,大阪市城東区,野江４丁目９番７号３Ａ号室,,27,118,5360006,,,,,,,2025-08-01,1,,,,,アジヨシ,0
412,2120901051243,新規,0,2025-08-01,2025-08-01,株式会社ＲｅＭｅ,,株式会社,大阪府,吹田市,千里山虹が丘１５番１－５０３号,,27,205,5650846,,,,,,,2025-08-01,1,,,,,リミー,0
413,2120901051251,新規,0,2025-08-01,2025-08-01,株式会社上商会,,株式会社,大阪府,豊中市,城山町１丁目５番１０－５０７号,,27,203,5610803,,,,,,,2025-08-01,1,,,,,ウエショウカイ,0
414,2120901051268,新規,0,2025-08-01,2025-08-01,京地邱株式会社,,株式会社,大阪府,豊中市,服部南町５丁目３番１号,,27,203,5610853,,,,,,,2025-08-01,1,,,,,キョウチキュウ,0
415,2120901051276,新規,0,2025-08-01,2025-08-01,株式会社マノセンス,,株式会社,大阪府,豊中市,本町１丁目１２番３号豊中本町イクスビル３階,,27,203,5600021,,,,,,,2025-08-01,1,,,,,マノセンス,0
416,2120903005783,新規,0,2025-08-01,2025-08-01,ｓｏｌｅｉｌｅ合同会社,,合同会社,大阪府,吹田市,昭和町１番２号,,27,205,5640028,,,,,,,2025-08-01,1,,,,,ソレイル,0
417,2120905006771,新規,0,2025-08-01,2025-08-01,医療法人百優会,,その他の設立登記法人,大阪府,池田市,畑２丁目４番３号エレガンス村上１０１－１号室,,27,204,5630021,,,,,,,2025-08-01,1,,,,,ヒャクユウカイ,0
420,2122001039474,新規,0,2025-08-01,2025-08-01,隆騰株式会社,,株式会社,大阪府,東大阪市,御厨南３丁目４番３１号,,27,227,5770034,,,,,,,2025-08-01,1,,,,,リュウトウ,0
423,2130003010675,新規,0,2025-08-01,2025-08-01,合同会社挑与本願,,合同会社,京都府,亀岡市,篠町広田２丁目２番地１１号,,26,206,6210834,,,,,,,2025-08-01,1,,,,,チョウヨホンガン,0
427,2140001139474,新規,0,2025-08-01,2025-08-01,株式会社夢いまーる,,株式会社,兵庫県,伊丹市,池尻６丁目２８７番地,,28,207,6640027,,,,,,,2025-08-01,1,,,,,ユイマール,0
428,2140003022356,新規,0,2025-08-01,2025-08-01,合同会社ＫＯＫ　ＳＡＲＯＹ　ＧＲＯＵＰ,,合同会社,兵庫県,神戸市中央区,北野町４丁目５番６号神戸北野町テラスハウス１号室,,28,110,6500002,,,,,,,2025-08-01,1,,,,,キョクサロイグループ,0
430,2160003003552,新規,0,2025-08-01,2025-08-01,合同会社ＥＳＳＥＮＣＥ　ＷＩＬＬ,,合同会社,滋賀県,大津市,粟津町４番７石山駅前近江鉄道ビル５階ｂｉｌｌａｇｅＯＴＳＵ１２１,,25,201,5200832,,,,,,,2025-08-01,1,,,,,エッセンスウィル,0
436,2180001167868,新規,0,2025-08-01,2025-08-01,株式会社Ｒｅａｌｉｓｅｒ,,株式会社,愛知県,丹羽郡大口町,秋田３丁目１５９番地１,,23,361,4800132,,,,,,,2025-08-01,1,,,,,レアリゼ,0
437,2180001167892,新規,0,2025-08-01,2025-08-01,株式会社エーアイワークス,,株式会社,愛知県,名古屋市瑞穂区,船原町６丁目２番地,,23,108,4670878,,,,,,,2025-08-01,1,,,,,エーアイワークス,0
438,2180001167926,新規,0,2025-08-01,2025-08-01,株式会社ＮＥＸＴ　ＩＮＮＯＶＡＴＩＯＮ,,株式会社,愛知県,海部郡蟹江町,大字須成字西須成前１８２０番地１,,23,425,4970031,,,,,,,2025-08-01,1,,,,,ネクストイノベーション,0
441,2180003028829,新規,0,2025-08-01,2025-08-01,合同会社ウィン,,合同会社,愛知県,名古屋市東区,東桜２丁目９番３１号プレサンスロジェ高岳駅前１５０２号,,23,102,4610005,,,,,,,2025-08-01,1,,,,,ウィン,0
461,2240001065306,新規,0,2025-08-01,2025-08-01,Ｒｅｄ　ｌｉｐｓ株式会社,,株式会社,広島県,広島市中区,東平塚町３番１６－４０２号,,34,101,7300025,,,,,,,2025-08-01,1,,,,,レッドリップス,0
469,2260001040414,新規,0,2025-08-01,2025-08-01,株式会社スズキデジタルイノベーション中国,,株式会社,岡山県,倉敷市,阿知１丁目７番２号くらしきシティプラザ西ビル８階８０３号室くらしきベンチャーオフィス２号室,,33,202,7100055,,,,,,,2025-08-01,1,,,,,スズキデジタルイノベーションチュウゴク,0
479,2290801031741,新規,0,2025-08-01,2025-08-01,株式会社ワイビーティー,,株式会社,福岡県,北九州市八幡西区,大膳１丁目５番１号,,40,109,8070863,,,,,,,2025-08-01,1,,,,,ワイビーティー,0
485,2320001021242,新規,0,2025-08-01,2025-08-01,株式会社ＥＮＶＩＳＩＯＮ,,株式会社,大分県,別府市,上田の湯町１７番１７号ＡＹビル４０４号,,44,202,8740908,,,,,,,2025-08-01,1,,,,,エンビジョン,0
514,2430001094888,新規,0,2025-08-01,2025-08-01,株式会社アメージング,,株式会社,北海道,札幌市東区,北九条東６丁目２－２８－６０８,,01,103,0600909,,,,,,,2025-08-01,1,,,,,アメージング,0
515,2430001094905,新規,0,2025-08-01,2025-08-01,株式会社ソワネ,,株式会社,北海道,札幌市東区,北十五条東７丁目１－２０ＫＡＮＴＩＮＥ　Ｎ１５ＡＢ室,,01,103,0650015,,,,,,,2025-08-01,1,,,,,ソワネ,0
516,2430003017913,新規,0,2025-08-01,2025-08-01,ＮＰＦ合同会社,,合同会社,北海道,苫小牧市,柏木町５丁目１２番２２号,,01,213,0530823,,,,,,,2025-08-01,1,,,,,エヌピーエフ,0
533,3010001257362,新規,0,2025-08-01,2025-08-01,株式会社ＡＣ‐７,,株式会社,東京都,千代田区,麹町３丁目５番地２,,13,101,1020083,,,,,,,2025-08-01,1,,,,,エーシーセブン,0
534,3010001257370,新規,0,2025-08-01,2025-08-01,ＡＴＯＭパートナーズ株式会社,,株式会社,東京都,千代田区,麹町３丁目５番地４麹町インテリジェントビルＢ－１,,13,101,1020083,,,,,,,2025-08-01,1,,,,,,0
544,3010601067715,新規,0,2025-08-01,2025-08-01,株式会社リボディサポート,,株式会社,東京都,江東区,大島３丁目４番３号タワーレジデンス西大島３階,,13,108,1360072,,,,,,,2025-08-01,1,,,,,リボディサポート,0
545,3010605004482,新規,0,2025-08-01,2025-08-01,一般社団法人日本ＡＤＨＤ協会,,その他の設立登記法人,東京都,江東区,東陽２丁目３番１６－６０７号,,13,108,1350016,,,,,,,2025-08-01,1,,,,,ニホンエーディーエイチディーキョウカイ,0
546,3010701048094,新規,0,2025-08-01,2025-08-01,株式会社キメラテクノロジー,,株式会社,東京都,品川区,中延２丁目９番３号３階,,13,109,1420053,,,,,,,2025-08-01,1,,,,,キメラテクノロジー,0
552,3010801036445,新規,0,2025-08-01,2025-08-01,株式会社ＭＶｉｓｉｏｎ,,株式会社,東京都,大田区,大森西３丁目２９番９号,,13,111,1430015,,,,,,,2025-08-01,1,,,,,エムビジョン,0
554,3010901057845,新規,0,2025-08-01,2025-08-01,株式会社Ｃｒｅｄｏｒａ　Ａｓｓｅｔ　Ｍａｎａｇｅｍｅｎｔ,,株式会社,東京都,世田谷区,北沢１丁目１９番４－４０５号,,13,112,1550031,,,,,,,2025-08-01,1,,,,,クレドラアセットマネジメント,0
558,3011001171132,新規,0,2025-08-01,2025-08-01,株式会社ＳＯ　ＦＩＬＭ,,株式会社,東京都,渋谷区,千駄ヶ谷５丁目２番４号シルクハイツ３０７,,13,113,1510051,,,,,,,2025-08-01,1,,,,,ソーフィルム,0
559,3011001171215,新規,0,2025-08-01,2025-08-01,株式会社ＭｅｄＥｎｔ,,株式会社,東京都,渋谷区,恵比寿西２丁目８番４号ＥＸ恵比寿西ビル５階,,13,113,1500021,,,,,,,2025-08-01,1,,,,,メドエント,0
567,3011301030748,新規,0,2025-08-01,2025-08-01,株式会社ＶａｌｕｅＬｉｎｋｓ,,株式会社,東京都,杉並区,阿佐谷南１丁目１３－４,,13,115,1660004,,,,,,,2025-08-01,1,,,,,バリューリンクス,0
573,3011603004788,新規,0,2025-08-01,2025-08-01,合同会社アンドエム,,合同会社,東京都,練馬区,北町３丁目１７番１５－３０２号,,13,120,1790081,,,,,,,2025-08-01,1,,,,,アンドエム,0
574,3011701028581,新規,0,2025-08-01,2025-08-01,株式会社ウェルシード,,株式会社,東京都,江戸川区,下篠崎町４番１８号,,13,123,1330064,,,,,,,2025-08-01,1,,,,,ウェルシード,0
589,3020001163980,新規,0,2025-08-01,2025-08-01,株式会社ＯＮＥ　ＬＯＶＥ　ＦＯＵＮＤＡＴＩＯＮ,,株式会社,神奈川県,横浜市港南区,大久保２丁目３－１金子荘１０１,,14,111,2330007,,,,,,,2025-08-01,1,,,,,ワンラブファウンデーション,0
590,3020001163989,新規,0,2025-08-01,2025-08-01,株式会社ＹｏｕＭｏｒｅ,,株式会社,神奈川県,横浜市保土ケ谷区,西谷３丁目２０番４０号ベルハイム３０６,,14,106,2400054,,,,,,,2025-08-01,1,,,,,ユーモア,0
591,3020001163997,新規,0,2025-08-01,2025-08-01,パシフィックスパイン株式会社,,株式会社,神奈川県,横浜市港北区,師岡町２９８番地１アドリーム大倉山５０６,,14,109,2220002,,,,,,,2025-08-01,1,,,,,パシフィックスパイン,0
592,3020001164079,新規,0,2025-08-01,2025-08-01,株式会社ＪＬＳ　ＪＡＰＡＮ,,株式会社,神奈川県,横浜市西区,浅間町１丁目４番３号ウィザードビル４０２,,14,103,2200072,,,,,,,2025-08-01,1,,,,,ジェイエルエスジャパン,0
593,3020001164112,新規,0,2025-08-01,2025-08-01,株式会社Ｓｉｉ　Ｍｕａｎｇ,,株式会社,神奈川県,横浜市西区,北幸２丁目１０番４８号むつみビル３階,,14,103,2200004,,,,,,,2025-08-01,1,,,,,シームアン,0
594,3020001164120,新規,0,2025-08-01,2025-08-01,株式会社リンクス,,株式会社,神奈川県,横浜市都筑区,南山田町４１４４番地,,14,118,2240026,,,,,,,2025-08-01,1,,,,,リンクス,0
596,3020003029032,新規,0,2025-08-01,2025-08-01,合同会社ＢｉｔＮｅｓｔ,,合同会社,神奈川県,横浜市都筑区,中川１丁目１６－６－５０２,,14,118,2240001,,,,,,,2025-08-01,1,,,,,ビットネスト,0
597,3020003029049,新規,0,2025-08-01,2025-08-01,合同会社Ｗｉｔ,,合同会社,神奈川県,横浜市瀬谷区,三ツ境１４５番地１,,14,114,2460022,,,,,,,2025-08-01,1,,,,,ウィット,0
601,3021003016367,新規,0,2025-08-01,2025-08-01,合同会社ＡＳＫＩＣＫ,,合同会社,神奈川県,鎌倉市,玉縄１丁目６番地４２シェアハウスひだまりオークツリー玉縄２０１,,14,204,2470071,,,,,,,2025-08-01,1,,,,,アスキック,0
611,3030003027282,新規,0,2025-08-01,2025-08-01,ＪＨＣ合同会社,,合同会社,埼玉県,さいたま市北区,櫛引町２丁目１０８番地１０６号室,,11,102,3310825,,,,,,,2025-08-01,1,,,,,ジェイエイチシー,0
612,3030003027316,新規,0,2025-08-01,2025-08-01,ＳＡＮＡＲＡ合同会社,,合同会社,埼玉県,さいたま市南区,白幡１丁目５番１１号,,11,108,3360022,,,,,,,2025-08-01,1,,,,,サナラ,0
620,3040001139830,新規,0,2025-08-01,2025-08-01,株式会社Ｙ＆Ｎ,,株式会社,千葉県,鎌ケ谷市,北中沢２丁目８番４－１８号,,12,224,2730111,,,,,,,2025-08-01,1,,,,,ワイアンドエヌ,0
624,3040003028148,新規,0,2025-08-01,2025-08-01,ＴＢ合同会社,,合同会社,千葉県,八千代市,米本２１６８－５７－１Ｆ,,12,221,2760015,,,,,,,2025-08-01,1,,,,,ティービー,0
628,3060001038444,新規,0,2025-08-01,2025-08-01,株式会社レッセフェール,,株式会社,栃木県,宇都宮市,元今泉５丁目１番１２号,,09,201,3210954,,,,,,,2025-08-01,1,,,,,レッセフェール,0
630,3070001043179,新規,0,2025-08-01,2025-08-01,株式会社榛名製作所,,株式会社,群馬県,高崎市,高浜町４１１番地の２１,,10,202,3703333,,,,,,,2025-08-01,1,,,,,,0
641,3090001019425,新規,0,2025-08-01,2025-08-01,株式会社つばめホーム,,株式会社,山梨県,都留市,つる５丁目１０番１７号,,19,204,4020056,,,,,,,2025-08-01,1,,,,,ツバメホーム,0
656,3120001278323,新規,0,2025-08-01,2025-08-01,シヴァナ株式会社,,株式会社,大阪府,大阪市北区,曾根崎１丁目４番５号エステムプラザ梅田６０３,,27,127,5300057,,,,,,,2025-08-01,1,,,,,シヴァナ,0
657,3120001278380,新規,0,2025-08-01,2025-08-01,株式会社ＧＲＡＮＴ,,株式会社,大阪府,大阪市西区,新町１丁目１３番９号,,27,106,5500013,,,,,,,2025-08-01,1,,,,,グラント,0
662,3120003030161,新規,0,2025-08-01,2025-08-01,住木工房合同会社,,合同会社,大阪府,大阪市浪速区,難波中２丁目６番４－１３０２号,,27,111,5560011,,,,,,,2025-08-01,1,,,,,ジュウモクコウボウ,0
663,3120005025077,新規,0,2025-08-01,2025-08-01,一般社団法人Ｎサポート,,その他の設立登記法人,大阪府,大阪市天王寺区,大道１丁目１１－２０ＡｘｉｓＬｉｆｅ四天王寺４Ｃ,,27,109,5430052,,,,,,,2025-08-01,1,,,,,エヌサポート,0
666,3120901051259,新規,0,2025-08-01,2025-08-01,株式会社Ｒｅｖａｍｐ　Ｍｏｔｏｒｓ,,株式会社,大阪府,豊中市,熊野町１丁目４番２７号１号,,27,203,5600014,,,,,,,2025-08-01,1,,,,,リヴァンプモータース,0
667,3120901051275,新規,0,2025-08-01,2025-08-01,株式会社Ｌｉｂ,,株式会社,大阪府,池田市,天神２丁目８番１８号,,27,204,5630031,,,,,,,2025-08-01,1,,,,,リブ,0
669,3120903005782,新規,0,2025-08-01,2025-08-01,合同会社Ｍ‐Ｃｌｏｖｅｒ,,合同会社,大阪府,吹田市,千里山東４丁目３８番１２号,,27,205,5650842,,,,,,,2025-08-01,1,,,,,エムクローバー,0
678,3140001139457,新規,0,2025-08-01,2025-08-01,株式会社光和春宝,,株式会社,兵庫県,高砂市,米田町米田１４１番地の１,,28,216,6760805,,,,,,,2025-08-01,1,,,,,コウワシュンポウ,0
679,3140001139473,新規,0,2025-08-01,2025-08-01,株式会社エール,,株式会社,兵庫県,神戸市垂水区,桃山台４丁目８番地の１１,,28,108,6550854,,,,,,,2025-08-01,1,,,,,エール,0
680,3140001139498,新規,0,2025-08-01,2025-08-01,ＬＯＧＩ株式会社,,株式会社,兵庫県,尼崎市,大庄北２丁目１８番１号,,28,202,6600063,,,,,,,2025-08-01,1,,,,,ロジ,0
681,3140001139507,新規,0,2025-08-01,2025-08-01,株式会社オマカセください,,株式会社,兵庫県,養父市,八鹿町国木１３３－１,,28,222,6670044,,,,,,,2025-08-01,1,,,,,オカマセクダサイ,0
684,3140003022355,新規,0,2025-08-01,2025-08-01,合同会社Ｕケア,,合同会社,兵庫県,姫路市,飾磨区今在家１０１５－１１,,28,201,6728079,,,,,,,2025-08-01,1,,,,,ユーケア,0
686,3160001026959,新規,0,2025-08-01,2025-08-01,株式会社平原未来技術研究所,,株式会社,滋賀県,守山市,欲賀町３７２番地１,,25,207,5240063,,,,,,,2025-08-01,1,,,,,ヒラハラミライギジュツケンキュウショ,0
694,3180001167941,新規,0,2025-08-01,2025-08-01,株式会社デフチューン,,株式会社,愛知県,名古屋市中村区,名駅４丁目２４番５号第２森ビル４０１,,23,105,4500002,,,,,,,2025-08-01,1,,,,,デフチューン,0
695,3180001167966,新規,0,2025-08-01,2025-08-01,株式会社ｍｅｄｉＲＡｃｔ,,株式会社,愛知県,瀬戸市,品野町４丁目１０１４番地の５,,23,204,4801207,,,,,,,2025-08-01,1,,,,,メディラクト,0
696,3180001167999,新規,0,2025-08-01,2025-08-01,ワンダフルチタ株式会社,,株式会社,愛知県,半田市,青山４丁目３番地の５,,23,205,4750836,,,,,,,2025-08-01,1,,,,,ワンダフルチタ,0
703,3180003028803,新規,0,2025-08-01,2025-08-01,ＭｅｄｉＬｉｎｋ合同会社,,合同会社,愛知県,春日井市,松新町１丁目４番地ルネック勝川４階,,23,206,4860931,,,,,,,2025-08-01,1,,,,,メディリンク,0
704,3180003028811,新規,0,2025-08-01,2025-08-01,Ｓｈａｈｉｄ　Ｔｒａｄｉｎｇ合同会社,,合同会社,愛知県,弥富市,鳥ケ地１丁目２１１番地,,23,235,4901403,,,,,,,2025-08-01,1,,,,,シャヒドトレーディング,0
711,3180303006673,新規,0,2025-08-01,2025-08-01,和栄貿易合同会社,,合同会社,愛知県,知立市,山屋敷町山屋敷２２番地３３,,23,225,4720022,,,,,,,2025-08-01,1,,,,,ワエイ,0
717,3190003005132,新規,0,2025-08-01,2025-08-01,合同会社高尾レンタル,00140133,合同会社,三重県,松阪市,飯南町深野１９６２番地,,24,204,5151301,,,,,,,2025-08-01,1,,,,,タカオレンタル,0
722,3220003004089,新規,0,2025-08-01,2025-08-01,合同会社ｖｉａ,,合同会社,石川県,金沢市,東山３丁目２番２１号－２階,,17,201,9200831,,,,,,,2025-08-01,1,,,,,ヴィア,0
729,3260001040421,新規,0,2025-08-01,2025-08-01,株式会社心建設,,株式会社,岡山県,倉敷市,茶屋町早沖１０７０番地３,,33,202,7101102,,,,,,,2025-08-01,1,,,,,ココロケンセツ,0
736,3290001110857,新規,0,2025-08-01,2025-08-01,株式会社ＮＡＮＤＡ,,株式会社,福岡県,福岡市南区,野多目４丁目５番３０号,,40,134,8111347,,,,,,,2025-08-01,1,,,,,ナンダ,0
737,3290003017191,新規,0,2025-08-01,2025-08-01,合同会社アン,,合同会社,福岡県,福岡市中央区,六本松４丁目６－３５－５０２,,40,133,8100044,,,,,,,2025-08-01,1,,,,,アン,0
741,3320001021241,新規,0,2025-08-01,2025-08-01,株式会社大分木材商事,,株式会社,大分県,大分市,大字宮河内３８３０番地の１５８,,44,201,8700276,,,,,,,2025-08-01,1,,,,,オオイタモクザイショウジ,0
743,3340001027542,新規,0,2025-08-01,2025-08-01,株式会社ＬＯＣＯＶＥＧＥファーム,,株式会社,鹿児島県,垂水市,田神３４９８番地７,,46,214,8912104,,,,,,,2025-08-01,1,,,,,ロコベジファーム,0
746,3350003004992,新規,0,2025-08-01,2025-08-01,Ｅｖｅｒｇｒｅｅｅｎ合同会社,,合同会社,宮崎県,宮崎市,神宮西１丁目１２２番地２Ｋａｄｅｔｔ１０１,,45,201,8800033,,,,,,,2025-08-01,1,,,,,エバーグリーン,0
747,3370001052901,新規,0,2025-08-01,2025-08-01,Ｊ総建株式会社,,株式会社,宮城県,仙台市宮城野区,燕沢東１丁目１２番１１号－１階,,04,102,9830822,,,,,,,2025-08-01,1,,,,,ジェイソウケン,0
749,3370003007226,新規,0,2025-08-01,2025-08-01,合同会社ＯＨＹリンクサービス,,合同会社,宮城県,塩竈市,栄町１０番２１号,,04,203,9850063,,,,,,,2025-08-01,1,,,,,オーエイチワイリンクサービス,0
754,3410001014244,新規,0,2025-08-01,2025-08-01,株式会社ＰＡＮ‐ＳＥＴ,,株式会社,秋田県,由利本荘市,黒沢字山本１番地,,05,210,0150361,,,,,,,2025-08-01,1,,,,,パンセット,0
761,3430001094895,新規,0,2025-08-01,2025-08-01,ＴｒａｖｅｌｌｅｒｓＬｉｎｋｓ株式会社,,株式会社,北海道,札幌市中央区,北十三条西１６丁目１番１９－１０１号,,01,101,0600013,,,,,,,2025-08-01,1,,,,,トラベラーズリンクス,0
762,3430001094912,新規,0,2025-08-01,2025-08-01,株式会社ファイブハンズ,,株式会社,北海道,札幌市中央区,南二条西１２丁目３２４番地２４,,01,101,0600062,,,,,,,2025-08-01,1,,,,,ファイブハンズ,0
763,3430001094929,新規,0,2025-08-01,2025-08-01,Ｐｒｉｍａ　Ｃｌａｓｓｅ株式会社,,株式会社,北海道,札幌市北区,北二十二条西９丁目３番１７号,,01,102,0010022,,,,,,,2025-08-01,1,,,,,プリマクラッセ,0
765,3430003017920,新規,0,2025-08-01,2025-08-01,Ｋ‐ｃｏｎｎｅｃｔ合同会社,,合同会社,北海道,札幌市中央区,南一条西１６丁目１番地３２３春野ビル３Ｆ,,01,101,0600061,,,,,,,2025-08-01,1,,,,,ケイコネクト,0
766,3430003017961,新規,0,2025-08-01,2025-08-01,合同会社Ｌｉｔｚ,,合同会社,北海道,札幌市東区,北二十四条東８丁目２番１６号,,01,103,0650024,,,,,,,2025-08-01,1,,,,,リッツ,0
767,3460103001730,新規,0,2025-08-01,2025-08-01,合同会社イナリ屋,,合同会社,北海道,帯広市,西十六条南４丁目９番１９号ＫＯハイツＦ号,,01,207,0800026,,,,,,,2025-08-01,1,,,,,イナリヤ,0
771,3500001026445,新規,0,2025-08-01,2025-08-01,株式会社山本電子デバイス,,株式会社,愛媛県,宇和島市,津島町横浦４７９－１,,38,203,7983345,,,,,,,2025-08-01,1,,,,,ヤマモトデンシデバイス,0
774,3700150131595,新規,0,2025-08-01,2025-08-01,Ｂ．Ｄ．Ｇｒｏｕｐ　Ｍａｎ　Ｐｏｗｅｒ　Ｐｒｉｖａｔｅ　Ｌｉｍｉｔｅｄ,,外国会社等,大阪府,大阪市生野区,中川東１丁目９番１２　藤山４Ｆ,,27,116,5440006,ネパール国バグマティ州カトマンズ市トカ自治体第１０区サマクシ,,,,,,2025-08-01,1,,,,,ビデイグループマンパワー,0
775,3700150131620,新規,0,2025-08-01,2025-08-01,ＮｅｘｔＧｅｎ　Ｍｏｔｏｒｓ,,外国会社等,岩手県,一関市,東山町長坂字小田３５番７－２Ｆ,,03,209,0290302,スリランカ民主社会主義共和国、キャンディ、アクラナ、マルワナヒンナ、７６６,,,,,,2025-08-01,1,,,,,ネクストゲンモータース,0
780,4010001257221,新規,0,2025-08-01,2025-08-01,株式会社スタジオ・キール,,株式会社,東京都,千代田区,神田和泉町１番地６－１６ヤマトビル４０５,,13,101,1010024,,,,,,,2025-08-01,1,,,,,スタジオキール,0
781,4010001257287,新規,0,2025-08-01,2025-08-01,インディゴソリューションズ株式会社,,株式会社,東京都,中央区,銀座１丁目２２番１１号銀座大竹ビジデンス２Ｆ,,13,102,1040061,,,,,,,2025-08-01,1,,,,,インディゴソリューションズ,0
782,4010001257320,新規,0,2025-08-01,2025-08-01,株式会社Ｔ・Ｐ,,株式会社,東京都,千代田区,丸の内１丁目１１番１号パシフィックセンチュリープレイス丸の内１３Ｆ,,13,101,1000005,,,,,,,2025-08-01,1,,,,,ティピー,0
783,4010001257361,新規,0,2025-08-01,2025-08-01,株式会社リッカロッカ,,株式会社,東京都,千代田区,神田小川町３丁目１０番地駿台中根ビル４階,,13,101,1010052,,,,,,,2025-08-01,1,,,,,リッカロッカ,0
784,4010001257403,新規,0,2025-08-01,2025-08-01,株式会社Ｂｒｉｄｇｅ　Ｍｅｄｉｃａｌ　Ｃｏｎｓｕｌｔｉｎｇ,,株式会社,東京都,中央区,銀座６丁目６－１銀座風月堂ビル５Ｆ,,13,102,1040061,,,,,,,2025-08-01,1,,,,,ブリッジメディカルコンサルティング,0
785,4010003048131,新規,0,2025-08-01,2025-08-01,合同会社Ｊａｍｉｘ,,合同会社,東京都,中央区,銀座１丁目１２－４Ｎ＆ＥＢＬＤ．７階,,13,102,1040061,,,,,,,2025-08-01,1,,,,,ジャミックス,0
786,4010005040441,新規,0,2025-08-01,2025-08-01,一般社団法人日本老年泌尿器科学会,,その他の設立登記法人,東京都,文京区,本郷２丁目２７番１８号,,13,105,1130033,,,,,,,2025-08-01,1,,,,,ニホンロウネンヒニョウキカガッカイ,0
794,4010403035662,新規,0,2025-08-01,2025-08-01,川崎宮城合同会社,,合同会社,東京都,港区,六本木１丁目１０番３－９０１号スウェーデン大使館ビル内,,13,103,1060032,,,,,,,2025-08-01,1,,,,,カワサキミヤギ,0
795,4010403035729,新規,0,2025-08-01,2025-08-01,甘糟技研合同会社,,合同会社,東京都,港区,白金台２丁目七番三十六号,,13,103,1080071,,,,,,,2025-08-01,1,,,,,アマカスギケン,0
801,4010601067689,新規,0,2025-08-01,2025-08-01,株式会社ステージ,,株式会社,東京都,墨田区,本所４丁目４番１１号,,13,107,1300004,,,,,,,2025-08-01,1,,,,,ステージ,0
802,4010601067706,新規,0,2025-08-01,2025-08-01,ＬＩＶＩＮＡＲＴ株式会社,,株式会社,東京都,墨田区,押上３丁目１４番１号,,13,107,1310045,,,,,,,2025-08-01,1,,,,,リヴィナート,0
804,4010701048069,新規,0,2025-08-01,2025-08-01,株式会社ＴＹＣＯＯＮ,,株式会社,東京都,品川区,北品川４丁目１１番８号,,13,109,1400001,,,,,,,2025-08-01,1,,,,,タイクーン,0
806,4010801036460,新規,0,2025-08-01,2025-08-01,株式会社ＪＴＮデザイニング,,株式会社,東京都,大田区,蒲田４丁目２２番２号,,13,111,1440052,,,,,,,2025-08-01,1,,,,,ジェイティーエヌデザイニング,0
815,4011003022084,新規,0,2025-08-01,2025-08-01,グッドマンジャパン相模原合同会社,,合同会社,東京都,渋谷区,恵比寿１丁目２０番２号７０４号室嶋本公認会計士事務所気付,,13,113,1500013,,,,,,,2025-08-01,1,,,,,グッドマンジャパンサガミハラ,0
816,4011003022101,新規,0,2025-08-01,2025-08-01,合同会社Ｘｉｌｏ,,合同会社,東京都,渋谷区,道玄坂１丁目１０番８号渋谷道玄坂東急ビル２Ｆ－Ｃ,,13,113,1500043,,,,,,,2025-08-01,1,,,,,シロ,0
820,4011501032378,新規,0,2025-08-01,2025-08-01,株式会社ウェブレンド,,株式会社,東京都,北区,浮間１丁目１番７号,,13,117,1150051,,,,,,,2025-08-01,1,,,,,ウェブレンド,0
821,4011501032386,新規,0,2025-08-01,2025-08-01,株式会社トーテック,,株式会社,東京都,北区,岸町１丁目２番１１号,,13,117,1140021,,,,,,,2025-08-01,1,,,,,トーテック,0
822,4011503006628,新規,0,2025-08-01,2025-08-01,吉祥合同会社,,合同会社,東京都,荒川区,東日暮里５丁目３６番１０号三英マンション３Ｂ,,13,118,1160014,,,,,,,2025-08-01,1,,,,,キッショウ,0
824,4011601028854,新規,0,2025-08-01,2025-08-01,株式会社アルエットプロダクション,,株式会社,東京都,練馬区,豊玉北５丁目３２番６号,,13,120,1760012,,,,,,,2025-08-01,1,,,,,アルエットプロダクション,0
827,4012401043408,新規,0,2025-08-01,2025-08-01,株式会社ここのえ,,株式会社,東京都,小金井市,貫井南町５丁目２１番１０号（２８）,,13,210,1840014,,,,,,,2025-08-01,1,,,,,ココノエ,0
829,4012701018984,新規,0,2025-08-01,2025-08-01,株式会社ＳＯＬＩＤ　ＢＡＳＥ,,株式会社,東京都,小平市,小川町１丁目１１１４番地の５,,13,211,1870032,,,,,,,2025-08-01,1,,,,,ソリッドベース,0
831,4013303007789,新規,0,2025-08-01,2025-08-01,合同会社三田,,合同会社,東京都,豊島区,池袋本町１丁目３７番１１号,,13,116,1700011,,,,,,,2025-08-01,1,,,,,サンダ,0
836,4020001164086,新規,0,2025-08-01,2025-08-01,株式会社ジャパン・ネパ,,株式会社,神奈川県,横浜市西区,岡野１丁目２番７－３０６号,,14,103,2200073,,,,,,,2025-08-01,1,,,,,ジャパンネパ,0
839,4020003028818,新規,0,2025-08-01,2025-08-01,合同会社ディアー,,合同会社,神奈川県,横浜市泉区,上飯田町１００５番地１アンジェリークＡ１０１号,,14,116,2450018,,,,,,,2025-08-01,1,,,,,ディアー,0
840,4020003029048,新規,0,2025-08-01,2025-08-01,合同会社Ｈ．Ｈ　ｓｈｒｅｓｔｈａ,,合同会社,神奈川県,川崎市幸区,堀川町７２番地２１ラゾーナ川崎レジデンスＴ１５１１,,14,132,2120013,,,,,,,2025-08-01,1,,,,,エイチドットエイチシュレスタ,0
841,4020003029064,新規,0,2025-08-01,2025-08-01,合同会社ＩＲＥＮＥ,,合同会社,神奈川県,横浜市保土ケ谷区,川辺町６番地１－４０１号,,14,106,2400001,,,,,,,2025-08-01,1,,,,,イレーネ,0
848,4021003016267,新規,0,2025-08-01,2025-08-01,青山商事合同会社,,合同会社,神奈川県,大和市,中央１丁目６番５－４号,,14,213,2420021,,,,,,,2025-08-01,1,,,,,アオヤマショウジ,0
849,4021003016366,新規,0,2025-08-01,2025-08-01,合同会社日本ビズ,,合同会社,神奈川県,厚木市,中町４丁目１４番１号,,14,212,2430018,,,,,,,2025-08-01,1,,,,,ニホンビズ,0
863,4030003027323,新規,0,2025-08-01,2025-08-01,合同会社Ｓｕｎ＆Ｋｉｎｇ,,合同会社,埼玉県,川口市,東川口２丁目２０－２,,11,203,3330801,,,,,,,2025-08-01,1,,,,,サンアンドキング,0
865,4040001139838,新規,0,2025-08-01,2025-08-01,株式会社エバーグリーン,,株式会社,千葉県,柏市,小青田３丁目１８番地１９,,12,217,2770803,,,,,,,2025-08-01,1,,,,,エバーグリーン,0
868,4040003028130,新規,0,2025-08-01,2025-08-01,ＮＧＵＹＥＮ　ＰＨＵＯＮＧ合同会社,,合同会社,千葉県,船橋市,東船橋４丁目３７－５平成ハイツ２０１,,12,204,2730002,,,,,,,2025-08-01,1,,,,,グエンフォン,0
869,4040005022841,新規,0,2025-08-01,2025-08-01,一般社団法人えんぞう,,その他の設立登記法人,千葉県,袖ケ浦市,蔵波台４丁目１２番地５,,12,229,2990245,,,,,,,2025-08-01,1,,,,,エンゾウ,0
872,4050003009468,新規,0,2025-08-01,2025-08-01,宮平インターナショナル合同会社,,合同会社,茨城県,潮来市,日の出７丁目４番地２,,08,223,3112423,,,,,,,2025-08-01,1,,,,,ミヤヒラインターナショナル,0
873,4050005013674,新規,0,2025-08-01,2025-08-01,社会福祉法人無双,,その他の設立登記法人,茨城県,桜川市,明日香４丁目３９番地,,08,231,3091216,,,,,,,2025-08-01,1,,,,,ムソウ,0
875,4060001038427,新規,0,2025-08-01,2025-08-01,中田株式会社,,株式会社,栃木県,佐野市,戸奈良町８７－１,,09,204,3270323,,,,,,,2025-08-01,1,,,,,ナカタ,0
876,4060001038451,新規,0,2025-08-01,2025-08-01,株式会社阿部工業,,株式会社,栃木県,宇都宮市,西の宮１丁目２５番３号,,09,201,3200064,,,,,,,2025-08-01,1,,,,,アベコウギョウ,0
884,4080105006526,新規,0,2025-08-01,2025-08-01,特定非営利活動法人りあん,,その他の設立登記法人,静岡県,伊東市,八幡野９８９番地の８９鎌倉屋ビル１Ｆ,,22,208,4130232,,,,,,,2025-08-01,1,,,,,リアン,0
886,4090001019424,新規,0,2025-08-01,2025-08-01,株式会社アシスト商運,,株式会社,山梨県,甲府市,国母７丁目７番２７号,,19,201,4000043,,,,,,,2025-08-01,1,,,,,アシストショウウン,0
905,4120001277984,新規,0,2025-08-01,2025-08-01,ハルカ株式会社,,株式会社,大阪府,大阪市阿倍野区,丸山通１丁目５－２－２０７,,27,119,5450042,,,,,,,2025-08-01,1,,,,,ハルカ,0
906,4120001278280,新規,0,2025-08-01,2025-08-01,株式会社７０７Ａｎｇｅｌ,,株式会社,大阪府,大阪市中央区,西心斎橋１丁目１０番２８号心斎橋Ｍビル７０７号室,,27,128,5420086,,,,,,,2025-08-01,1,,,,,セブンオーセブンエンジェル,0
907,4120001278297,新規,0,2025-08-01,2025-08-01,スペシャルミー株式会社,,株式会社,大阪府,大阪市北区,大淀南２丁目２番４３－３４０２号,,27,127,5310075,,,,,,,2025-08-01,1,,,,,スペシャルミー,0
908,4120001278306,新規,0,2025-08-01,2025-08-01,株式会社ＤＴＬ　ＳＯＣＩＡＬ‐ＤＥＳＩＧＮ,,株式会社,大阪府,大阪市北区,西天満３丁目１３番２０号,,27,127,5300047,,,,,,,2025-08-01,1,,,,,ディーティーエルソーシャルデザイン,0
909,4120001278314,新規,0,2025-08-01,2025-08-01,株式会社ＴｒｉＶａｌｕｅ,,株式会社,大阪府,大阪市天王寺区,石ケ辻町３－３－２０１,00140130,27,109,5430031,,,,,,,2025-08-01,1,,,,,トライバリュー,0
910,4120001278347,新規,0,2025-08-01,2025-08-01,株式会社パークユニオン,,株式会社,大阪府,大阪市西区,新町３丁目９番２０号,,27,106,5500013,,,,,,,2025-08-01,1,,,,,パークユニオン,0
911,4120001278371,新規,0,2025-08-01,2025-08-01,株式会社ｋｉｒｉｕｍｉｎａ,,株式会社,大阪府,大阪市大正区,平尾４丁目１１番７号共栄ビルＡ２,,27,108,5510012,,,,,,,2025-08-01,1,,,,,キリウミナ,0
912,4120003030160,新規,0,2025-08-01,2025-08-01,ＮＵＭＡ合同会社,,合同会社,大阪府,大阪市東淀川区,豊新５丁目２番２２号５０７号,,27,114,5330014,,,,,,,2025-08-01,1,,,,,ヌマ,0
918,4120103006606,新規,0,2025-08-01,2025-08-01,ＡＫＭ　ｃｏｍｐａｎｙ合同会社,,合同会社,大阪府,大阪狭山市,狭山２丁目９０６番地の５,,27,231,5890005,,,,,,,2025-08-01,1,,,,,エーケーエムカンパニー,0
920,4120901051258,新規,0,2025-08-01,2025-08-01,エターニア株式会社,,株式会社,大阪府,茨木市,駅前１丁目４番２６号,,27,211,5670888,,,,,,,2025-08-01,1,,,,,エターニア,0
921,4120901051266,新規,0,2025-08-01,2025-08-01,ＳＣ株式会社,,株式会社,大阪府,吹田市,江坂町５丁目１１番１０号サンシャイン緑地公園３０１号室,,27,205,5640063,,,,,,,2025-08-01,1,,,,,エスシー,0
936,4140001139480,新規,0,2025-08-01,2025-08-01,株式会社フロンティア,,株式会社,兵庫県,神戸市兵庫区,東出町３丁目１３－１０－１,,28,105,6520823,,,,,,,2025-08-01,1,,,,,フロンティア,0
937,4140001139497,新規,0,2025-08-01,2025-08-01,株式会社夢中,,株式会社,兵庫県,神戸市中央区,中山手通１丁目９番２号ＭＯＺＡＮビル１００４,,28,110,6500004,,,,,,,2025-08-01,1,,,,,ムチュウ,0
943,4160003003550,新規,0,2025-08-01,2025-08-01,メンズケア合同会社,,合同会社,滋賀県,大津市,大門通１３番２９号,,25,201,5200033,,,,,,,2025-08-01,1,,,,,メンズケア,0
946,4170003002262,新規,0,2025-08-01,2025-08-01,合同会社匠,,合同会社,和歌山県,御坊市,薗３０８番地１０グリーンルーフＮ２０１号,,30,205,6440002,,,,,,,2025-08-01,1,,,,,タクミ,0
949,4180001167791,新規,0,2025-08-01,2025-08-01,株式会社Ｓｕｎｎｙ　Ｓｉｄｅ　Ｕｐ,,株式会社,愛知県,名古屋市千種区,青柳町６丁目８番地,,23,101,4640852,,,,,,,2025-08-01,1,,,,,サニーサイドアップ,0
950,4180001167965,新規,0,2025-08-01,2025-08-01,早川ホールディングス株式会社,,株式会社,愛知県,名古屋市守山区,小幡南２丁目２番３４号,,23,113,4630048,,,,,,,2025-08-01,1,,,,,ハヤカワホールディングス,0
951,4180001167998,新規,0,2025-08-01,2025-08-01,株式会社エゴイスト,,株式会社,愛知県,江南市,後飛保町新開２５番地アンクレージュ１０７,,23,217,4838387,,,,,,,2025-08-01,1,,,,,エゴイスト,0
956,4180303006672,新規,0,2025-08-01,2025-08-01,合同会社ワンフォアオール,,合同会社,愛知県,岡崎市,吹矢町７３番地,,23,202,4440862,,,,,,,2025-08-01,1,,,,,ワンフォアオール,0
962,4210001020261,新規,0,2025-08-01,2025-08-01,ＲＩＴＡＹＡ株式会社,,株式会社,福井県,福井市,黒丸町第１１号３４番地６,,18,201,9100052,,,,,,,2025-08-01,1,,,,,リタヤ,0
966,4220003004088,新規,0,2025-08-01,2025-08-01,合同会社クラフトラベル,,合同会社,石川県,金沢市,石引２丁目１６番１４号,,17,201,9200935,,,,,,,2025-08-01,1,,,,,クラフトラベル,0
967,4220005008987,新規,0,2025-08-01,2025-08-01,一般社団法人Ｔ‐Ｗａｂｉｓａｔｏ,,その他の設立登記法人,石川県,鳳珠郡能登町,字鴨川ニ部３５番地２,,17,463,9280308,,,,,,,2025-08-01,1,,,,,ティーワビサト,0
976,4240001065295,新規,0,2025-08-01,2025-08-01,エコサービスくれ株式会社,,株式会社,広島県,呉市,山手１丁目１番３３号,,34,202,7370814,,,,,,,2025-08-01,1,,,,,エコサービスクレ,0
980,4250003003789,新規,0,2025-08-01,2025-08-01,合同会社Ｇｅａ‐Ｓｐａｃｅ,,合同会社,山口県,防府市,多々良２丁目１３－１,,35,206,7470023,,,,,,,2025-08-01,1,,,,,ジースペース,0
982,4270003001774,新規,0,2025-08-01,2025-08-01,合同会社Ｃａｎａｌｅ,,合同会社,鳥取県,鳥取市,吉方町１丁目５８７番地,,31,201,6800062,,,,,,,2025-08-01,1,,,,,カナール,0
986,4290001110864,新規,0,2025-08-01,2025-08-01,ＬａｕｇｈｔｅｒＡｓｓｏｃｉａｔｅｓ株式会社,,株式会社,福岡県,福岡市中央区,春吉１丁目２－１１－３０１,,40,133,8100003,,,,,,,2025-08-01,1,,,,,ラフターアソシエイツ,0
992,4290805009848,新規,0,2025-08-01,2025-08-01,一般社団法人健康教育分析センター,,その他の設立登記法人,福岡県,北九州市小倉北区,浅野３丁目８番１号ＡＩＭビル６階,,40,106,8020001,,,,,,,2025-08-01,1,,,,,ケンコウキョウイクブンセキセンター,0
996,4320001021240,新規,0,2025-08-01,2025-08-01,株式会社ツクミコンサルタント,,株式会社,大分県,津久見市,中央町２番２３号,,44,207,8792441,,,,,,,2025-08-01,1,,,,,ツクミコンサルタント,0
998,4370001052900,新規,0,2025-08-01,2025-08-01,トーナン株式会社,,株式会社,宮城県,東松島市,大曲字筒場９番地１２,,04,214,9810502,,,,,,,2025-08-01,1,,,,,トーナン,0
999,4370001052909,新規,0,2025-08-01,2025-08-01,株式会社佐藤左官,,株式会社,宮城県,柴田郡柴田町,東船迫２丁目１５番地７,,04,323,9891631,,,,,,,2025-08-01,1,,,,,サトウサカン,0
1009,4430001094878,新規,0,2025-08-01,2025-08-01,株式会社宝恵銘珠,,株式会社,北海道,札幌市中央区,南二十二条西８丁目３番６－２号,,01,101,0640922,,,,,,,2025-08-01,1,,,,,ホウケイメイシュ,0
1012,4470005006636,新規,0,2025-08-01,2025-08-01,特定非営利活動法人グリーフサポートてらすば,,その他の設立登記法人,香川県,高松市,由良町３９２番地２,,37,201,7610441,,,,,,,2025-08-01,1,,,,,グリーフサポートテラスバ,0
1014,4500001026436,新規,0,2025-08-01,2025-08-01,株式会社ｕｎ　ｐｌｕｓ,,株式会社,愛媛県,今治市,美保町３丁目１番２号,,38,202,7940012,,,,,,,2025-08-01,1,,,,,アンプリュス,0
1018,4700150131594,新規,0,2025-08-01,2025-08-01,Ｓｅｌｅｃｔ　Ｅｑｕｉｔｙ　Ｇｒｏｕｐ　Ｊａｐａｎ　Ｌｔｄ．,,外国会社等,東京都,港区,虎ノ門４丁目３番１号　城山トラストタワー２７階,,13,103,1050001,英領ケイマン諸島ＫＹ１－１１０８グランド・ケイマン、カマナ・ベイ、ソラリス・アベニュー９４、私書箱１３４８、モーラン・ガバナンス・サービシス・ケイマン・リミテッド,,,,,,2025-08-01,1,,,,,セレクトエクイテイグループジヤパンリミテツド,0
1026,5010001257294,新規,0,2025-08-01,2025-08-01,Ｋａｉｌｏｎ株式会社,,株式会社,東京都,中央区,湊２丁目１１番１号シティタワー銀座東３１９,,13,102,1040043,,,,,,,2025-08-01,1,,,,,カイロン,0
1027,5010001257328,新規,0,2025-08-01,2025-08-01,株式会社プレジャー,,株式会社,東京都,中央区,日本橋室町１丁目１１番１２号日本橋水野ビル７階,,13,102,1030022,,,,,,,2025-08-01,1,,,,,プレジャー,0
1028,5010001257360,新規,0,2025-08-01,2025-08-01,ＡＳＤ　ｃｅｕｔｉｃａｌｓスキン科学研究センター株式会社,,株式会社,東京都,千代田区,有楽町１丁目１３－２第一生命日比谷ファースト１２階,,13,101,1000006,,,,,,,2025-08-01,1,,,,,エーエスディーセウティカルズスキンカガクケンキュウセンター,0
1029,5010001257369,新規,0,2025-08-01,2025-08-01,株式会社ドナルク,,株式会社,東京都,文京区,湯島３丁目４３番８号,,13,105,1130034,,,,,,,2025-08-01,1,,,,,ドナルク,0
1031,5010003048213,新規,0,2025-08-01,2025-08-01,ブルースカイ太陽光発電所合同会社,,合同会社,東京都,千代田区,紀尾井町４番１号ニューオータニガーデンコート１９階フィンポート税理士法人内,,13,101,1020094,,,,,,,2025-08-01,1,,,,,ブルースカイタイヨウコウハツデンショ,0
1033,5010005040465,新規,0,2025-08-01,2025-08-01,ブルースカイ太陽光発電所一般社団法人,,その他の設立登記法人,東京都,千代田区,紀尾井町４番１号ニューオータニガーデンコート１９階フィンポート税理士法人内,,13,101,1020094,,,,,,,2025-08-01,1,,,,,ブルースカイタイヨウコウハツデンショ,0
1046,5010403035661,新規,0,2025-08-01,2025-08-01,川崎宮城土地合同会社,,合同会社,東京都,港区,六本木１丁目１０番３－９０１号スウェーデン大使館ビル内,,13,103,1060032,,,,,,,2025-08-01,1,,,,,カワサキミヤギトチ,0
1047,5010403035736,新規,0,2025-08-01,2025-08-01,合同会社ポーラーベアー,,合同会社,東京都,港区,芝大門２丁目４番６号豊国ビル,,13,103,1050012,,,,,,,2025-08-01,1,,,,,ポーラーベアー,0
1051,5010601067713,新規,0,2025-08-01,2025-08-01,ＣｕｒｒｙＦｒｅａｋ株式会社,,株式会社,東京都,江東区,永代２丁目３１番１４－９０４号,,13,108,1350034,,,,,,,2025-08-01,1,,,,,カレーフリーク,0
1052,5010601067721,新規,0,2025-08-01,2025-08-01,株式会社三舩,,株式会社,東京都,江東区,東雲１丁目１０－１４プラウドシティ東雲キャナルマークス５３５,,13,108,1350062,,,,,,,2025-08-01,1,,,,,ミフネ,0
1054,5010701048101,新規,0,2025-08-01,2025-08-01,株式会社ミラベル,,株式会社,東京都,品川区,大崎５丁目８番５号,,13,109,1410032,,,,,,,2025-08-01,1,,,,,ミラベル,0
1056,5010703007815,新規,0,2025-08-01,2025-08-01,ＳｎｏｗＳｃｏｏｔ合同会社,,合同会社,東京都,品川区,上大崎３丁目９－３５アングルビルディング３号室,,13,109,1410021,,,,,,,2025-08-01,1,,,,,スノースクート,0
1058,5010801036451,新規,0,2025-08-01,2025-08-01,株式会社ＪＯＹＷＡＹ,,株式会社,東京都,大田区,蒲田５丁目８番９号３Ｆ,,13,111,1440052,,,,,,,2025-08-01,1,,,,,ジョイウェイ,0
1060,5011001170594,新規,0,2025-08-01,2025-08-01,株式会社Ｙａｓｈｉｒｏ　Ｍｅｄｉａ　Ｆａｃｔｏｒｙ,,株式会社,東京都,渋谷区,恵比寿西２丁目２１番８－１０１号,,13,113,1500021,,,,,,,2025-08-01,1,,,,,ヤシロメディアファクトリー,0
1061,5011001171147,新規,0,2025-08-01,2025-08-01,株式会社ＳＨＩＳＨＩ　ＤＥＶＥＬＯＰＭＥＮＴ,,株式会社,東京都,目黒区,目黒３丁目９番３－５０２号目黒パークスクエア,,13,110,1530063,,,,,,,2025-08-01,1,,,,,シシデベロップメント,0
1063,5011003022100,新規,0,2025-08-01,2025-08-01,アルファ・ヴェガ・ソリューションズ合同会社,,合同会社,東京都,渋谷区,神宮前６丁目２３番４号,,13,113,1500001,,,,,,,2025-08-01,1,,,,,アルファヴェガソリューションズ,0
1071,5011101112736,新規,0,2025-08-01,2025-08-01,ＨＫＰ株式会社,,株式会社,東京都,新宿区,西新宿６丁目２０－７コンシェリア西新宿タワーズウエスト１１１０,,13,104,1600023,,,,,,,2025-08-01,1,,,,,エイチケーピー,0
1073,5011201026539,新規,0,2025-08-01,2025-08-01,株式会社ｆｏｒｅｓｉｇｈｔ,,株式会社,東京都,中野区,新井５丁目１１番６号ラ・ステージＮＯＲＴＨ中野２０１,,13,114,1650026,,,,,,,2025-08-01,1,,,,,フォーサイト,0
1076,5011501032377,新規,0,2025-08-01,2025-08-01,株式会社ルワ,,株式会社,東京都,荒川区,西日暮里６丁目２４番１―５０２号,,13,118,1160013,,,,,,,2025-08-01,1,,,,,ルワ,0
1077,5011503006627,新規,0,2025-08-01,2025-08-01,合同会社Ｒｅ,,合同会社,東京都,北区,赤羽２丁目５９番１０－３０２号,,13,117,1150045,,,,,,,2025-08-01,1,,,,,リ,0
1081,5011603004786,新規,0,2025-08-01,2025-08-01,Ａｕｒｎｅ合同会社,,合同会社,東京都,練馬区,春日町６丁目１６番１１号フォーチュン光が丘２２７号,,13,120,1790074,,,,,,,2025-08-01,1,,,,,オルネ,0
1087,5012401043407,新規,0,2025-08-01,2025-08-01,株式会社ＯＵＴＰＯＳＴ,,株式会社,東京都,武蔵野市,吉祥寺本町２丁目１０番６号吉田ビル,,13,203,1800004,,,,,,,2025-08-01,1,,,,,アウトポスト,0
1091,5012801024139,新規,0,2025-08-01,2025-08-01,ＭＩＺＵＨＩＫＯ株式会社,,株式会社,東京都,立川市,柴崎町４丁目１８番５号,,13,202,1900023,,,,,,,2025-08-01,1,,,,,ミズヒコ,0
1097,5013301054691,新規,0,2025-08-01,2025-08-01,株式会社エアフォルク,,株式会社,東京都,豊島区,長崎３丁目１６番６号,,13,116,1710051,,,,,,,2025-08-01,1,,,,,エアフォルク,0
1103,5020001164003,新規,0,2025-08-01,2025-08-01,株式会社マナ吉,,株式会社,神奈川県,横浜市青葉区,美しが丘５丁目１０番地４３,,14,117,2250002,,,,,,,2025-08-01,1,,,,,マナキチ,0
1104,5020001164069,新規,0,2025-08-01,2025-08-01,Ｍｏｂｉ　Ｔｅｃｈ株式会社,,株式会社,神奈川県,横浜市中区,桜木町１丁目１０１番地１クロゲート７階,,14,104,2310062,,,,,,,2025-08-01,1,,,,,モビーテック,0
1105,5020001164085,新規,0,2025-08-01,2025-08-01,株式会社ソラリス,,株式会社,神奈川県,横浜市戸塚区,原宿１丁目４７番６号,,14,110,2450063,,,,,,,2025-08-01,1,,,,,ソラリス,0
1106,5020001164119,新規,0,2025-08-01,2025-08-01,森本・興業株式会社,,株式会社,神奈川県,横浜市戸塚区,汲沢８丁目３４番３４－Ａ号,,14,110,2450061,,,,,,,2025-08-01,1,,,,,モリモトコウギョウ,0
1108,5020003029039,新規,0,2025-08-01,2025-08-01,ＣｏｒｅＬｏｇｉｃ合同会社,,合同会社,神奈川県,横浜市栄区,飯島町５７４－３,,14,115,2440842,,,,,,,2025-08-01,1,,,,,コアロジック,0
1109,5020003029055,新規,0,2025-08-01,2025-08-01,合同会社Ｒｅｖａｌｉｓ,,合同会社,神奈川県,川崎市幸区,古川町３８番地,,14,132,2120025,,,,,,,2025-08-01,1,,,,,リヴァリス,0
1110,5020005016943,新規,0,2025-08-01,2025-08-01,一般社団法人職場適合日本語認定協会,,その他の設立登記法人,神奈川県,横浜市港南区,上大岡西１丁目１０番９号ニューパース上大岡９０３号,,14,111,2330002,,,,,,,2025-08-01,1,,,,,ショクバテキゴウニホンゴニンテイキョウカイ,0
1114,5021001085949,新規,0,2025-08-01,2025-08-01,休養総合研究所株式会社,,株式会社,神奈川県,足柄上郡開成町,吉田島３０９４－５,,14,366,2580021,,,,,,,2025-08-01,1,,,,,キュウヨウソウゴウケンキュウジョ,0
1115,5021001085965,新規,0,2025-08-01,2025-08-01,株式会社ウィンヒル,,株式会社,神奈川県,高座郡寒川町,倉見２２３９番地,,14,321,2530101,,,,,,,2025-08-01,1,,,,,ウィンヒル,0
1124,5030003027306,新規,0,2025-08-01,2025-08-01,合同会社ＴＲＹ,,合同会社,埼玉県,久喜市,吉羽２２２１番地６,,11,232,3460014,,,,,,,2025-08-01,1,,,,,トライ,0
1125,5030003027322,新規,0,2025-08-01,2025-08-01,合同会社ブリッジ,,合同会社,埼玉県,坂戸市,千代田４丁目６番２７号,,11,239,3500214,,,,,,,2025-08-01,1,,,,,ブリッジ,0
1131,5040001139829,新規,0,2025-08-01,2025-08-01,株式会社Ｐａｃｉｆｉｃ　Ｓｔａｒ　Ｆａｒｍ,,株式会社,千葉県,銚子市,常世田町３３番地,,12,202,2880824,,,,,,,2025-08-01,1,,,,,パシフィックスターファーム,0
1132,5040001139837,新規,0,2025-08-01,2025-08-01,株式会社ビープレイス,,株式会社,千葉県,習志野市,津田沼４丁目５番１３－３０３号,,12,216,2750016,,,,,,,2025-08-01,1,,,,,ビープレイス,0
1133,5040001139886,新規,0,2025-08-01,2025-08-01,日和ホーム株式会社,,株式会社,千葉県,野田市,中根２０４番地１,,12,208,2780031,,,,,,,2025-08-01,1,,,,,ニチワホーム,0
1138,5050001057006,新規,0,2025-08-01,2025-08-01,ＨＳ　ＩＮＴＥＲＮＡＴＩＯＮＡＬ株式会社,,株式会社,茨城県,猿島郡境町,大字山崎３４２番地１,,08,546,3060413,,,,,,,2025-08-01,1,,,,,エイチエスインターナショナル,0
1139,5050003009467,新規,0,2025-08-01,2025-08-01,ＴａｎａＬｕｋ合同会社,,合同会社,茨城県,神栖市,土合南２丁目４番４号,,08,232,3140345,,,,,,,2025-08-01,1,,,,,タナラック,0
1151,5090001019423,新規,0,2025-08-01,2025-08-01,株式会社Ｎｏｕｊｕ,,株式会社,山梨県,甲斐市,下今井３５６６番地１,,19,210,4000105,,,,,,,2025-08-01,1,,,,,ノウジュ,0
1152,5090001019431,新規,0,2025-08-01,2025-08-01,株式会社ＥＲＤＥ　ＥＮＪＯＹ　ＦＩＲＳＴ,,株式会社,山梨県,甲府市,善光寺２丁目８番１１号,,19,201,4000806,,,,,,,2025-08-01,1,,,,,エルデエンジョイファースト,0
1155,5100001038818,新規,0,2025-08-01,2025-08-01,株式会社Ｅｐｓ,,株式会社,長野県,長野市,吉田４丁目１２番３－４０４号,,20,201,3810043,,,,,,,2025-08-01,1,,,,,イプス,0
1165,5120001277414,新規,0,2025-08-01,2025-08-01,株式会社ＡＬＬ‐ＩＮ,,株式会社,大阪府,大阪市港区,夕凪２丁目１番１号サンファミリー夕凪５０７号,,27,107,5520004,,,,,,,2025-08-01,1,,,,,オールイン,0
1166,5120001278346,新規,0,2025-08-01,2025-08-01,株式会社Ｏｒｉｇａｍｉ　Ｌｉｍｏｕｓｉｎｅｓ,,株式会社,大阪府,大阪市中央区,本町橋８番３－４０３号,,27,128,5400029,,,,,,,2025-08-01,1,,,,,オリガミリムジンズ,0
1167,5120001278362,新規,0,2025-08-01,2025-08-01,超越株式会社,,株式会社,大阪府,大阪市中央区,日本橋１丁目３番１７－４Ａ号室,,27,128,5420073,,,,,,,2025-08-01,1,,,,,チョウエツ,0
1168,5120001278370,新規,0,2025-08-01,2025-08-01,宏信ケミカル株式会社,,株式会社,大阪府,大阪市生野区,巽西３丁目８番４号１０２室,,27,116,5440012,,,,,,,2025-08-01,1,,,,,コウシンケミカル,0
1169,5120001278437,新規,0,2025-08-01,2025-08-01,渾水株式会社,,株式会社,大阪府,大阪市住吉区,沢之町１丁目１－２６和光ハイツ４階４Ａ号室,,27,120,5580031,,,,,,,2025-08-01,1,,,,,コンスイ,0
1172,5120003029739,新規,0,2025-08-01,2025-08-01,合同会社ＡＳＡＣＡＮＡ,,合同会社,大阪府,寝屋川市,梅が丘１丁目１３番１６号２０４号室,,27,215,5720803,,,,,,,2025-08-01,1,,,,,アサカナ,0
1173,5120003030069,新規,0,2025-08-01,2025-08-01,Ｇｈａｌｅ合同会社,,合同会社,大阪府,大阪市阿倍野区,昭和町１丁目８番６号,,27,119,5450011,,,,,,,2025-08-01,1,,,,,ガレ,0
1178,5120103006605,新規,0,2025-08-01,2025-08-01,合同会社彩,,合同会社,大阪府,泉南郡熊取町,五門西３丁目１９番１６号,,27,361,5900415,,,,,,,2025-08-01,1,,,,,アヤ,0
1182,5120901051257,新規,0,2025-08-01,2025-08-01,株式会社テラスフィール,,株式会社,大阪府,高槻市,奈佐原２丁目５番１号,,27,207,5691041,,,,,,,2025-08-01,1,,,,,テラスフィール,0
1183,5120901051281,新規,0,2025-08-01,2025-08-01,株式会社ＡＳＵ,,株式会社,大阪府,茨木市,中津町１番２号,,27,211,5670824,,,,,,,2025-08-01,1,,,,,エーエスユー,0
1184,5120905006769,新規,0,2025-08-01,2025-08-01,一般社団法人日本ダンススタジオ連盟,,その他の設立登記法人,大阪府,豊中市,蛍池東町二丁目５番１号,,27,203,5600000,,,,,,,2025-08-01,1,,,,,,0
1210,5180001167782,新規,0,2025-08-01,2025-08-01,ＺＹ商事株式会社,,株式会社,愛知県,名古屋市港区,港栄２丁目１６番２０号,,23,111,4550015,,,,,,,2025-08-01,1,,,,,ゼットワイショウジ,0
1211,5180001167956,新規,0,2025-08-01,2025-08-01,株式会社プレイロア,,株式会社,愛知県,名古屋市中村区,名駅４丁目２４番５号第２森ビル４０１,,23,105,4500002,,,,,,,2025-08-01,1,,,,,プレイロア,0
1212,5180001167972,新規,0,2025-08-01,2025-08-01,株式会社Ｉｎｔｅｇｒａｌ　Ｂｒａｎｄｉｎｇ,,株式会社,愛知県,名古屋市天白区,向が丘２丁目１５０１番地（アネシア平針５０１号）,,23,116,4680012,,,,,,,2025-08-01,1,,,,,インテグラルブランディング,0
1213,5180001168005,新規,0,2025-08-01,2025-08-01,株式会社Ｔａｋｅ　Ｃａｐｉｔａｌ,,株式会社,愛知県,名古屋市東区,泉１丁目１８番３０号プラウドタワー名古屋久屋大通公園１００８号,,23,102,4610001,,,,,,,2025-08-01,1,,,,,テイクキャピタル,0
1215,5180003028792,新規,0,2025-08-01,2025-08-01,合同会社Ｒｅ　Ｂｉｒｔｈｄａｙ,,合同会社,愛知県,名古屋市中村区,名駅４丁目２４番５号第２森ビル４０１,,23,105,4500002,,,,,,,2025-08-01,1,,,,,リバースデイ,0
1222,5190001032440,新規,0,2025-08-01,2025-08-01,Ｓｈｉｎｗａ株式会社,,株式会社,三重県,亀山市,東町１丁目７番３３号,,24,210,5190125,,,,,,,2025-08-01,1,,,,,シンワ,0
1229,5210001020260,新規,0,2025-08-01,2025-08-01,福海貿易株式会社,,株式会社,福井県,越前市,中津山町第１６号１１番地２,,18,209,9150253,,,,,,,2025-08-01,1,,,,,フクハイボウエキ,0
1232,5220003004087,新規,0,2025-08-01,2025-08-01,フエル合同会社,,合同会社,石川県,白山市,手取町キ２４番地６,,17,210,9290212,,,,,,,2025-08-01,1,,,,,フエル,0
1236,5240001065303,新規,0,2025-08-01,2025-08-01,株式会社クリーンベース,,株式会社,広島県,福山市,南今津町１１４番地１,,34,207,7290115,,,,,,,2025-08-01,1,,,,,クリーンベース,0
1240,5240003007328,新規,0,2025-08-01,2025-08-01,ＶＩＥＴ　ＰＨＡＴ合同会社,,合同会社,広島県,広島市西区,楠木町１丁目１５－１０－３１１号,,34,104,7330002,,,,,,,2025-08-01,1,,,,,ベトファット,0
1241,5240003007336,新規,0,2025-08-01,2025-08-01,合同会社Ｒａｔｂｕｌｌ,,合同会社,広島県,広島市西区,井口２丁目１６番１３－１９号,,34,104,7330842,,,,,,,2025-08-01,1,,,,,ラットブル,0
1245,5260001040394,新規,0,2025-08-01,2025-08-01,株式会社Ｓｈｕｎａ,,株式会社,岡山県,倉敷市,児島小川９丁目１番１５号,,33,202,7110911,,,,,,,2025-08-01,1,,,,,シュナ,0
1254,5290001110789,新規,0,2025-08-01,2025-08-01,株式会社ＶＩＴＡ,,株式会社,福岡県,福岡市早良区,藤崎１丁目１６番２号ハイム藤崎４０５号室,,40,137,8140013,,,,,,,2025-08-01,1,,,,,ビタ,0
1255,5290001110888,新規,0,2025-08-01,2025-08-01,株式会社Ｃａｓａｚａｋｉ　Ｊａｐａｎ,,株式会社,福岡県,福岡市中央区,天神２丁目６番１４号ゆきざきビル,,40,133,8100001,,,,,,,2025-08-01,1,,,,,カサザキジャパン,0
1256,5290001110896,新規,0,2025-08-01,2025-08-01,株式会社Ｏｃｈｏ　Ｏｃｈｏ,,株式会社,福岡県,福岡市中央区,大名１丁目１２番５６号,,40,133,8100041,,,,,,,2025-08-01,1,,,,,オチョオチョ,0
1259,5290003017198,新規,0,2025-08-01,2025-08-01,合同会社ＦｒｅＡＩｚａ,,合同会社,福岡県,福岡市中央区,天神４丁目６－２８いちご天神ノースビル７階,,40,133,8100001,,,,,,,2025-08-01,1,,,,,フリーザ,0
1260,5290803005121,新規,0,2025-08-01,2025-08-01,合同会社ＡＭＡＲＩＥ,,合同会社,福岡県,北九州市小倉北区,上到津３丁目８－１９－１００３,,40,106,8030845,,,,,,,2025-08-01,1,,,,,アマリエ,0
1263,5320001021248,新規,0,2025-08-01,2025-08-01,株式会社別府天神,,株式会社,大分県,別府市,春木町６番５０号,,44,202,8740913,,,,,,,2025-08-01,1,,,,,ベップテンジン,0
1272,5370003007224,新規,0,2025-08-01,2025-08-01,合同会社門脇商店,,合同会社,宮城県,大崎市,古川字上古川７５番地７,,04,215,9896223,,,,,,,2025-08-01,1,,,,,カドワキショウテン,0
1277,5410003004134,新規,0,2025-08-01,2025-08-01,合同会社Ｆｏｒ　Ｈｅａｒｔｓ,,合同会社,秋田県,秋田市,大町６丁目２番５９号,,05,201,0100921,,,,,,,2025-08-01,1,,,,,,0
1284,5430003017919,新規,0,2025-08-01,2025-08-01,合同会社一清興業,,合同会社,北海道,札幌市中央区,南十二条西１２丁目１番２－２０１号,,01,101,0640912,,,,,,,2025-08-01,1,,,,,イッシンコウギョウ,0
1293,5500001026443,新規,0,2025-08-01,2025-08-01,リビング・ハーモニー株式会社,,株式会社,愛媛県,松山市,富久町４３０番地２,,38,201,7918034,,,,,,,2025-08-01,1,,,,,リビングハーモニー,0
1294,5500003003564,新規,0,2025-08-01,2025-08-01,合同会社伊予京都Ｔｒｉｐ,,合同会社,愛媛県,大洲市,大洲３７３,,38,207,7950012,,,,,,,2025-08-01,1,,,,,イヨキョウトリップ,0
1301,6010001257293,新規,0,2025-08-01,2025-08-01,株式会社ファミリービジネス・インスティテュート,,株式会社,東京都,中央区,日本橋１丁目３番１３号東京建物日本橋ビル１１階,,13,102,1030027,,,,,,,2025-08-01,1,,,,,ファミリービジネスインスティテュート,0
1302,6010001257327,新規,0,2025-08-01,2025-08-01,株式会社景兆,,株式会社,東京都,千代田区,神田須田町２丁目１５番地３－２１５ビル２１２号室,,13,101,1010041,,,,,,,2025-08-01,1,,,,,ケイチョウ,0
1303,6010001257351,新規,0,2025-08-01,2025-08-01,株式会社ランダック,,株式会社,東京都,千代田区,神田須田町１丁目７番８号ＶＯＲＴ秋葉原ＩＶ２Ｆ,00140139,13,101,1010041,,,,,,,2025-08-01,1,,,,,ランダック,0
1304,6010001257384,新規,0,2025-08-01,2025-08-01,Ｂｅｉｎｇ　Ｓｔｕｄｉｏ　Ｊａｐａｎ株式会社,,株式会社,東京都,中央区,新富１丁目８番２号ハイツ新富４階,,13,102,1040041,,,,,,,2025-08-01,1,,,,,ビーイングスタジオジャパン,0
1305,6010001257401,新規,0,2025-08-01,2025-08-01,株式会社Ｎｅｘｅｌ　Ｊａｐａｎ,,株式会社,東京都,中央区,銀座１丁目１２－４Ｎ＆ＥＢＬＤ．７階,,13,102,1040061,,,,,,,2025-08-01,1,,,,,ネクセルジャパン,0
1308,6010003048179,新規,0,2025-08-01,2025-08-01,ニセコ１号合同会社,,合同会社,東京都,千代田区,霞が関３丁目２番５号,,13,101,1000013,,,,,,,2025-08-01,1,,,,,ニセコイチゴウ,0
1309,6010003048204,新規,0,2025-08-01,2025-08-01,合同会社ホモデウス,,合同会社,東京都,千代田区,永田町２丁目１１番１号山王パークタワー５階トラスティーズ・コンサルティングＬＬＰ内,,13,101,1000014,,,,,,,2025-08-01,1,,,,,ホモデウス,0
1311,6010005040431,新規,0,2025-08-01,2025-08-01,一般社団法人ポテンシャルラボ,,その他の設立登記法人,東京都,千代田区,九段南３丁目９番１１号マートルコート麹町１３０３,,13,101,1020074,,,,,,,2025-08-01,1,,,,,ポテンシャルラボ,0
1322,6010505003615,新規,0,2025-08-01,2025-08-01,一般財団法人シモジマ財団,,その他の設立登記法人,東京都,台東区,浅草橋５丁目２９番８号,,13,106,1110053,,,,,,,2025-08-01,1,,,,,シモジマザイダン,0
1324,6010601067695,新規,0,2025-08-01,2025-08-01,株式会社アダマス,,株式会社,東京都,江東区,有明１丁目２番１１号,,13,108,1350063,,,,,,,2025-08-01,1,,,,,アダマス,0
1327,6010701048100,新規,0,2025-08-01,2025-08-01,株式会社宝佳,,株式会社,東京都,品川区,南大井６丁目１７番１９号ペリエ大森２０１,,13,109,1400013,,,,,,,2025-08-01,1,,,,,バオジャ,0
1331,6010801036450,新規,0,2025-08-01,2025-08-01,旭山株式会社,,株式会社,東京都,大田区,大森中１丁目２番２５－１００３号,,13,111,1430014,,,,,,,2025-08-01,1,,,,,アサヒヤマ,0
1338,6011001171146,新規,0,2025-08-01,2025-08-01,株式会社クレディ・ブルー,,株式会社,東京都,渋谷区,神南１丁目１１－４ＦＰＧリンクス神南５階,,13,113,1500041,,,,,,,2025-08-01,1,,,,,クレディブルー,0
1339,6011001171162,新規,0,2025-08-01,2025-08-01,株式会社ＫＯＦ,,株式会社,東京都,渋谷区,道玄坂１丁目１０番８号渋谷道玄坂東急ビル２Ｆ－Ｃ,,13,113,1500043,,,,,,,2025-08-01,1,,,,,ケーオーエフ,0
1340,6011001171278,新規,0,2025-08-01,2025-08-01,Ｔｈｅ　Ｖｉｒａｌ　Ｊａｐａｎ株式会社,,株式会社,東京都,渋谷区,神南１丁目１１番４号ＦＰＧリンクス神南５階,,13,113,1500041,,,,,,,2025-08-01,1,,,,,ザバイラルジャパン,0
1342,6011003022099,新規,0,2025-08-01,2025-08-01,ドキューンデザイン合同会社,,合同会社,東京都,渋谷区,神南１丁目１１－４ＦＰＧリンクス神南５階,,13,113,1500041,,,,,,,2025-08-01,1,,,,,ドキューンデザイン,0
1346,6011303005646,新規,0,2025-08-01,2025-08-01,Ｍｏｍｏｐｌａ合同会社,,合同会社,東京都,杉並区,上井草２丁目３８番１０号六法荘,,13,115,1670023,,,,,,,2025-08-01,1,,,,,モモプラ,0
1348,6011501032384,新規,0,2025-08-01,2025-08-01,株式会社Ｓｏｌｕｎｉｔｅ,,株式会社,東京都,北区,滝野川４丁目１５番３－２０１号室,,13,117,1140023,,,,,,,2025-08-01,1,,,,,,0
1349,6011501032392,新規,0,2025-08-01,2025-08-01,和誠友信株式会社,,株式会社,東京都,北区,上十条１丁目１８番６,,13,117,1140034,,,,,,,2025-08-01,1,,,,,ワセイユウシン,0
1350,6011503006626,新規,0,2025-08-01,2025-08-01,雄凱合同会社,00140140,合同会社,東京都,荒川区,南千住１丁目４５－１０,,13,118,1160003,,,,,,,2025-08-01,1,,,,,ユウカイ,0
1356,6012401043422,新規,0,2025-08-01,2025-08-01,株式会社ＫＡＴ‐ｔａｋｅ　ｏｆｆ,,株式会社,東京都,調布市,国領町２丁目２４番地４１,,13,208,1820022,,,,,,,2025-08-01,1,,,,,ケーエーティーテイクオフ,0
1361,6020001164002,新規,0,2025-08-01,2025-08-01,株式会社ａｃｅｓプロダクション,,株式会社,神奈川県,横浜市港北区,仲手原１丁目１６番６－２号,,14,109,2220023,,,,,,,2025-08-01,1,,,,,エーシーイーエスプロダクション,0
1362,6020001164084,新規,0,2025-08-01,2025-08-01,株式会社Ｐｅｇａｖｉｅ,,株式会社,神奈川県,横浜市中区,竹之丸１６２番地１ノブレスヌーブ横浜山手ＩＩ２０４号室,00140131,14,104,2310847,,,,,,,2025-08-01,1,,,,,ペガヴィ,0
1363,6020001164126,新規,0,2025-08-01,2025-08-01,ＬＩＷ株式会社,,株式会社,神奈川県,川崎市高津区,末長１丁目２３番８－３１０号,,14,134,2130013,,,,,,,2025-08-01,1,,,,,リウ,0
1364,6020001164159,新規,0,2025-08-01,2025-08-01,Ｂｏｎｎｅ株式会社,,株式会社,神奈川県,横浜市旭区,本村町９２番地９－３０５,,14,112,2410024,,,,,,,2025-08-01,1,,,,,ボンヌ,0
1370,6020003028972,新規,0,2025-08-01,2025-08-01,合同会社寛和,,合同会社,神奈川県,横浜市旭区,川井本町１７番地の３４,,14,112,2410803,,,,,,,2025-08-01,1,,,,,カンワ,0
1371,6020003028997,新規,0,2025-08-01,2025-08-01,Ｐｅａｃｅ　Ｇｅａｒ合同会社,,合同会社,神奈川県,横浜市西区,東久保町１６－２７－３,,14,103,2200062,,,,,,,2025-08-01,1,,,,,ピースギア,0
1372,6020003029062,新規,0,2025-08-01,2025-08-01,合同会社ＷＨＩＰ,,合同会社,神奈川県,横浜市西区,浅間町１丁目４番３号ウィザードビル４０２,,14,103,2200072,,,,,,,2025-08-01,1,,,,,ホイップ,0
1373,6021003016348,新規,0,2025-08-01,2025-08-01,合同会社Ｎａｔｕｒａｌ　Ｔｒｕｓｔ,,合同会社,神奈川県,中郡二宮町,山西１５９番地２９,,14,342,2590124,,,,,,,2025-08-01,1,,,,,ナチュラルトラスト,0
1384,6030001167697,新規,0,2025-08-01,2025-08-01,株式会社ＰＨＯＴＯＮ,,株式会社,埼玉県,さいたま市緑区,宮本２丁目８番３７号,,11,109,3360916,,,,,,,2025-08-01,1,,,,,フォトン,0
1393,6040001139828,新規,0,2025-08-01,2025-08-01,株式会社コトブキ設備,,株式会社,千葉県,流山市,富士見台１丁目３番地の１１３,,12,220,2700127,,,,,,,2025-08-01,1,,,,,コトブキセツビ,0
1397,6040003028203,新規,0,2025-08-01,2025-08-01,みずほヘルスケアパートナーズ合同会社,,合同会社,千葉県,市川市,新田町五丁目１５番２号,,12,203,2720000,,,,,,,2025-08-01,1,,,,,ミズホヘルスケアパートナーズ,0
1398,6050001057005,新規,0,2025-08-01,2025-08-01,すがはら葬祭株式会社,,株式会社,茨城県,龍ケ崎市,４２０７番地,,08,208,3010000,,,,,,,2025-08-01,1,,,,,スガハラソウサイ,0
1399,6050001057013,新規,0,2025-08-01,2025-08-01,株式会社ＩＳＭ　ＡＩＲ,,株式会社,茨城県,土浦市,右籾２４３８番地２,,08,203,3000837,,,,,,,2025-08-01,1,,,,,イズムエア,0
1401,6050003009466,新規,0,2025-08-01,2025-08-01,合同会社廣瀬建築,,合同会社,茨城県,筑西市,下川島８２４番地３,,08,227,3080855,,,,,,,2025-08-01,1,,,,,ヒロセケンチク,0
1402,6060001038433,新規,0,2025-08-01,2025-08-01,あおい住設工業株式会社,,株式会社,栃木県,宇都宮市,台新田１丁目１３番１２号,,09,201,3210104,,,,,,,2025-08-01,1,,,,,アオイジュウセツコウギョウ,0
1403,6060003005662,新規,0,2025-08-01,2025-08-01,合同会社ＲＩＡＲＩＮＯ,,合同会社,栃木県,那須塩原市,埼玉６番地１３９９グランプレジールＣ－１０５号,,09,213,3250033,,,,,,,2025-08-01,1,,,,,リアリノ,0
1407,6080001027062,新規,0,2025-08-01,2025-08-01,ケンソウシナジーホールディングス株式会社,,株式会社,静岡県,静岡市葵区,西草深町８番８号,,22,101,4200866,,,,,,,2025-08-01,1,,,,,ケンソウシナジーホールディングス,0
1415,6100003008314,新規,0,2025-08-01,2025-08-01,合同会社Ａｒｔ‐Ｌｏｖｉｎｇ,,合同会社,長野県,北佐久郡軽井沢町,大字長倉３０４６番地１４メゾンドゥーズＩＩ－Ｂ,00140134,20,321,3890111,,,,,,,2025-08-01,1,,,,,アートラビング,0
1425,6120001278287,新規,0,2025-08-01,2025-08-01,株式会社ＢＳＣ建設,,株式会社,大阪府,寝屋川市,黒原城内町１１番１０号ラ・エアナ９号室,,27,215,5720050,,,,,,,2025-08-01,1,,,,,ビーエスシーケンセツ,0
1426,6120001278361,新規,0,2025-08-01,2025-08-01,柚彩株式会社,,株式会社,大阪府,大阪市西区,本田３丁目１番１９－５０２号,,27,106,5500022,,,,,,,2025-08-01,1,,,,,ユウサイ,0
1434,6120103006604,新規,0,2025-08-01,2025-08-01,ＴＪきずな合同会社,,合同会社,大阪府,藤井寺市,小山２丁目１８番３５号,,27,226,5830033,,,,,,,2025-08-01,1,,,,,ティージェーキズナ,0
1436,6120901051256,新規,0,2025-08-01,2025-08-01,株式会社ＰＵＮＫ　Ｄｅｓｉｇｎ　Ｃｒｅａｔｅ,,株式会社,大阪府,箕面市,箕面３丁目１番６２号,,27,220,5620001,,,,,,,2025-08-01,1,,,,,パンクデザインクリエイト,0
1437,6120901051297,新規,0,2025-08-01,2025-08-01,株式会社千里設備,,株式会社,大阪府,高槻市,唐崎北１丁目２番５号,,27,207,5690831,,,,,,,2025-08-01,1,,,,,センリセツビ,0
1442,6122003003243,新規,0,2025-08-01,2025-08-01,合同会社ＬＩＶＥｓ,,合同会社,大阪府,四條畷市,二丁通町２４番３－４０１号,,27,229,5750044,,,,,,,2025-08-01,1,,,,,ライブス,0
1447,6140001139454,新規,0,2025-08-01,2025-08-01,Ｍｉｎｔ　Ｊｏｕｒｎｅｙ株式会社,,株式会社,兵庫県,神戸市中央区,磯辺通１丁目１番１８号カサベラ国際プラザビル７０７号室,,28,110,6510084,,,,,,,2025-08-01,1,,,,,ミントジャーニー,0
1449,6140003022377,新規,0,2025-08-01,2025-08-01,ＴＭ合同会社,,合同会社,兵庫県,神戸市垂水区,仲田３丁目４番１号,,28,108,6550034,,,,,,,2025-08-01,1,,,,,ティエム,0
1456,6180001167897,新規,0,2025-08-01,2025-08-01,株式会社ＲＩＭＩＴプラス,,株式会社,愛知県,愛知郡東郷町,大字春木字涼松１８３番地８ネオハイツ東郷９０２,,23,302,4700162,,,,,,,2025-08-01,1,,,,,リミットプラス,0
1457,6180001167930,新規,0,2025-08-01,2025-08-01,暁エステート株式会社,,株式会社,愛知県,東海市,荒尾町天ノ根１０５番地９,,23,222,4760003,,,,,,,2025-08-01,1,,,,,アカツキエステート,0
1460,6180003028800,新規,0,2025-08-01,2025-08-01,合同会社匠テクノロジー,,合同会社,愛知県,名古屋市緑区,桃山２丁目３５－２－３０１,,23,114,4580002,,,,,,,2025-08-01,1,,,,,タクミテクノロジー,0
1461,6180003028809,新規,0,2025-08-01,2025-08-01,Ｍａｘ　Ｂｅａｕｔｙ　Ｌａｂ．合同会社,,合同会社,愛知県,名古屋市中村区,若宮町３丁目１３番地の４（プレサンス名古屋グロウ１３０３）,,23,105,4530023,,,,,,,2025-08-01,1,,,,,マックスビューティーラボ,0
1462,6180005021175,新規,0,2025-08-01,2025-08-01,一般社団法人ライムイエロー,,その他の設立登記法人,愛知県,名古屋市西区,則武新町３丁目６０２番地１,,23,104,4510051,,,,,,,2025-08-01,1,,,,,ライムイエロー,0
1480,6240001065293,新規,0,2025-08-01,2025-08-01,株式会社たびのわ,,株式会社,広島県,府中市,中須町１６７５番地,,34,208,7260012,,,,,,,2025-08-01,1,,,,,タビノワ,0
1481,6240003007335,新規,0,2025-08-01,2025-08-01,合同会社Ｋａｌｅｌｅ,,合同会社,広島県,広島市佐伯区,皆賀４丁目１９番５２号ウエストコート２０３号室,,34,108,7315124,,,,,,,2025-08-01,1,,,,,カレレ,0
1484,6280003001978,新規,0,2025-08-01,2025-08-01,合同会社ＦＰＳｅｒｖｉｃｅｓ,,合同会社,島根県,仁多郡奥出雲町,高尾１８９５番地６,,32,343,6991512,,,,,,,2025-08-01,1,,,,,,0
1488,6290001110771,新規,0,2025-08-01,2025-08-01,株式会社Ｘｅｅｄ　Ｈｏｍｅ,,株式会社,福岡県,福岡市南区,長住７丁目１７番７号,,40,134,8111362,,,,,,,2025-08-01,1,,,,,エクシードホーム,0
1489,6290001110854,新規,0,2025-08-01,2025-08-01,株式会社マウンテン・オブ・ドリーム,,株式会社,福岡県,筑紫野市,俗明院２丁目４番４３号,,40,217,8180067,,,,,,,2025-08-01,1,,,,,マウンテンオブドリーム,0
1490,6290005019811,新規,0,2025-08-01,2025-08-01,税理士法人ブルーム,,その他の設立登記法人,福岡県,福岡市中央区,薬院２丁目５番３号,,40,133,8100022,,,,,,,2025-08-01,1,,,,,ブルーム,0
1495,6320001021247,新規,0,2025-08-01,2025-08-01,株式会社ガリモク,,株式会社,大分県,別府市,大字鶴見４１１８番地の２,,44,202,8740840,,,,,,,2025-08-01,1,,,,,ガリモク,0
1502,6340001027548,新規,0,2025-08-01,2025-08-01,株式会社日野,,株式会社,鹿児島県,霧島市,福山町福沢４６９０番地１,,46,218,8994503,,,,,,,2025-08-01,1,,,,,ヒノ,0
1505,6340003004909,新規,0,2025-08-01,2025-08-01,ワールド福祉サービス隼人合同会社,,合同会社,鹿児島県,霧島市,隼人町真孝１５１番地６,,46,218,8995102,,,,,,,2025-08-01,1,,,,,ワールドフクシサービスハヤト,0
1510,6360003015128,新規,0,2025-08-01,2025-08-01,合同会社マルキヨ味噌,,合同会社,沖縄県,宮古島市,平良字荷川取６５１番地,,47,214,9060008,,,,,,,2025-08-01,1,,,,,,0
1513,6370005010992,新規,0,2025-08-01,2025-08-01,幸友事業協同組合,,その他の設立登記法人,宮城県,仙台市青葉区,五橋１丁目１－５８ダイアパレス仙台中央２２２,,04,101,9800022,,,,,,,2025-08-01,1,,,,,コウユウ,0
1519,6380005012996,新規,0,2025-08-01,2025-08-01,一般社団法人町分アーカルベース,,その他の設立登記法人,福島県,双葉郡川内村,大字上川内字町分２５３番地,,07,544,9791201,,,,,,,2025-08-01,1,,,,,マチワケアーカルベース,0
1522,6390001018071,新規,0,2025-08-01,2025-08-01,鑓新工業株式会社,,株式会社,山形県,山形市,新開３丁目８番地の３,,06,201,9902164,,,,,,,2025-08-01,1,,,,,,0
1526,6430003017918,新規,0,2025-08-01,2025-08-01,ＬＯＭ合同会社,,合同会社,北海道,虻田郡ニセコ町,字本通１４１番地４,,01,395,0481502,,,,,,,2025-08-01,1,,,,,エルオーエム,0
1528,6450001014691,新規,0,2025-08-01,2025-08-01,株式会社ｒｅｓｕｍｅ,,株式会社,北海道,旭川市,流通団地三条５丁目５番地の５,,01,204,0798443,,,,,,,2025-08-01,1,,,,,リジュウム,0
1529,6450005004458,新規,0,2025-08-01,2025-08-01,一般社団法人家族のつながり,,その他の設立登記法人,北海道,旭川市,大町一条１１丁目１８１番地２０１,,01,204,0700841,,,,,,,2025-08-01,1,,,,,カゾクノツナガリ,0
1535,6470003002940,新規,0,2025-08-01,2025-08-01,合同会社ネオグレース,,合同会社,香川県,丸亀市,富士見町１丁目３番２４号,,37,202,7630011,,,,,,,2025-08-01,1,,,,,ネオグレース,0
1536,6480001012908,新規,0,2025-08-01,2025-08-01,株式会社伸弘テクノ,,株式会社,徳島県,板野郡北島町,高房字居内２３番地１,,36,402,7710206,,,,,,,2025-08-01,1,,,,,シンコウテクノ,0
1543,6700150131618,新規,0,2025-08-01,2025-08-01,ｓｈｅｎｚｈｅｎｓｈｉｎａｘｉｎｇｄｉａｎｚｉｓｈａｎｇｗｕｙｏｕｘｉａｎｚｅｒｅｎｇｏｎｇｓｉ,,外国会社等,,,,,,,,Ｍｉｎｇｓｈｉ　Ｉｎｔｅｒｎａｔｉｏｎａｌ，　Ｕｎｉｔ　２，　１５Ｌ－１５Ｋ，　Ｎｏ．　３４，　Ｌａｎｅ　４，　Ｄａｚｈｏｎｇｇａｎｇ　Ｒｏａｄ，　Ｔｈｉｒｄ　Ｉｎｄｕｓｔｒｉａｌ　Ｚｏｎｅ，　Ｓｈａｑｉ　Ｃｏｍｍｕｎｉｔｙ，　Ｘｉｎｑｉａｏ　Ｓｕｂｄｉｓｔｒｉｃｔ，　Ｂａｏａｎ　Ｄｉｓｔｒｉｃｔ，　Ｓｈｅｎｚｈｅｎ，　Ｇｕａｎｇｄｏｎｇ　５１８０００　ＣＮ,,,,,,2025-08-01,1,,,,,シェンジェンシーナーシンディエンズーシャンウーヨウシエンゾーレンゴンスー,0
1550,7010001257061,新規,0,2025-08-01,2025-08-01,ＥＡＲＴＨ株式会社,,株式会社,東京都,中央区,銀座１丁目１２－４Ｎ＆ＥＢＬＤ．７階,,13,102,1040061,,,,,,,2025-08-01,1,,,,,アース,0
1551,7010001257359,新規,0,2025-08-01,2025-08-01,株式会社ＫＳＦＲ１５,,株式会社,東京都,千代田区,内幸町２丁目１番６号,,13,101,1000011,,,,,,,2025-08-01,1,,,,,ケイエスエフアールフィフティーン,0
1552,7010001257367,新規,0,2025-08-01,2025-08-01,カーターアイランド株式会社,,株式会社,東京都,中央区,銀座１丁目１９番１４号銀座ＯＮＥビル６階,,13,102,1040061,,,,,,,2025-08-01,1,,,,,カーターアイランド,0
1553,7010001257375,新規,0,2025-08-01,2025-08-01,株式会社ＬＫＨ　Ｉｎｔｅｒｎａｔｉｏｎａｌ,,株式会社,東京都,中央区,銀座７丁目１７番１８－４０１号,,13,102,1040061,,,,,,,2025-08-01,1,,,,,エルケーエイチインターナショナル,0
1555,7010003048087,新規,0,2025-08-01,2025-08-01,合同会社ＫＥＲ３号,,合同会社,東京都,中央区,京橋２丁目１２番６号ＡＯＪ税理士法人内,,13,102,1040031,,,,,,,2025-08-01,1,,,,,ケーイーアールサンゴウ,0
1556,7010003048095,新規,0,2025-08-01,2025-08-01,合同会社江戸川システム,,合同会社,東京都,千代田区,神田和泉町１番地６－１６ヤマトビル４０５,,13,101,1010024,,,,,,,2025-08-01,1,,,,,エドガワシステム,0
1557,7010003048203,新規,0,2025-08-01,2025-08-01,合同会社出雲エネルギー,,合同会社,東京都,千代田区,永田町２丁目１１番１号山王パークタワー５階トラスティーズ・コンサルティングＬＬＰ内,,13,101,1000014,,,,,,,2025-08-01,1,,,,,イズモエネルギー,0
1558,7010005040447,新規,0,2025-08-01,2025-08-01,再エネ投資機構一般社団法人,,その他の設立登記法人,東京都,千代田区,九段南３丁目７番７号成和綜合会計事務所内,,13,101,1020074,,,,,,,2025-08-01,1,,,,,サイエネトウシキコウ,0
1559,7010101016796,新規,0,2025-08-01,2025-08-01,株式会社ノードベース,,株式会社,東京都,八王子市,川口町２９５４番地２,,13,201,1930801,,,,,,,2025-08-01,1,,,,,ノードベース,0
1568,7010403035726,新規,0,2025-08-01,2025-08-01,合同会社Ｕｎｉｉｆｙ,,合同会社,東京都,港区,南青山３丁目１番３６号青山丸竹ビルディング６階,,13,103,1070062,,,,,,,2025-08-01,1,,,,,ユニファイ,0
1572,7010601067637,新規,0,2025-08-01,2025-08-01,株式会社Ｊ‐ＦＵＮ１６．５,,株式会社,東京都,江東区,福住２丁目２番９号,,13,108,1350032,,,,,,,2025-08-01,1,,,,,ジェイファンジュウロクポイントゴ,0
1573,7010601067694,新規,0,2025-08-01,2025-08-01,株式会社ベイプレシア,,株式会社,東京都,江東区,青海２丁目７番４号８３１号室,,13,108,1350064,,,,,,,2025-08-01,1,,,,,ベイプレシア,0
1574,7010601067703,新規,0,2025-08-01,2025-08-01,モコマ株式会社,,株式会社,東京都,江東区,亀戸２丁目１８番７－２０３号,,13,108,1360071,,,,,,,2025-08-01,1,,,,,モコマ,0
1575,7010601067711,新規,0,2025-08-01,2025-08-01,拓恒株式会社,,株式会社,東京都,墨田区,向島４丁目１番１－２０９号,,13,107,1310033,,,,,,,2025-08-01,1,,,,,タクコウ,0
1576,7010701048090,新規,0,2025-08-01,2025-08-01,株式会社Ｉ＆Ｉコンサルティング,,株式会社,東京都,品川区,小山６丁目２０番４－６０１号,,13,109,1420062,,,,,,,2025-08-01,1,,,,,アイアンドアイコンサルティング,0
1577,7010901057841,新規,0,2025-08-01,2025-08-01,ボールドパス株式会社,,株式会社,東京都,世田谷区,船橋１丁目４２－６－４１１,,13,112,1560055,,,,,,,2025-08-01,1,,,,,ボールドパス,0
1582,7011001171161,新規,0,2025-08-01,2025-08-01,株式会社Ｈｅａｌｔｈｃａｒｅ　Ｂｒｉｄｇｅ,,株式会社,東京都,渋谷区,恵比寿西２丁目８番４号ＥＸ恵比寿西ビル５階,,13,113,1500021,,,,,,,2025-08-01,1,,,,,ヘルスケアブリッジ,0
1583,7011001171186,新規,0,2025-08-01,2025-08-01,ＡＵＧＵＳＴ株式会社,,株式会社,東京都,目黒区,上目黒４丁目３６番２６号－９,,13,110,1530051,,,,,,,2025-08-01,1,,,,,オーガスト,0
1584,7011001171616,新規,0,2025-08-01,2025-08-01,株式会社ピーチメディカルズ,,株式会社,東京都,目黒区,大岡山１丁目２３番１０号,,13,110,1520033,,,,,,,2025-08-01,1,,,,,ピーチメディカルズ,0
1586,7011101112412,新規,0,2025-08-01,2025-08-01,株式会社よしもとセールスプロモーション＆エリアアクション,,株式会社,東京都,新宿区,新宿５丁目１８番２１号,,13,104,1600022,,,,,,,2025-08-01,1,,,,,ヨシモトセールスプロモーションアンドエリアアクション,0
1587,7011101112692,新規,0,2025-08-01,2025-08-01,ＣＯＮＶＥＹＤ株式会社,,株式会社,東京都,新宿区,新宿１丁目３６番２号新宿第七葉山ビル３Ｆ,,13,104,1600022,,,,,,,2025-08-01,1,,,,,コンベイド,0
1588,7011205002699,新規,0,2025-08-01,2025-08-01,一般財団法人ソーシャル・イントラプレナー育成財団,,その他の設立登記法人,東京都,中野区,中野４丁目３番２号,,13,114,1640001,,,,,,,2025-08-01,1,,,,,ソーシャルイントラプレナーイクセイザイダン,0
1591,7011303005653,新規,0,2025-08-01,2025-08-01,プロヴェスト合同会社,,合同会社,東京都,杉並区,高井戸東３丁目１３番２４号,,13,115,1680072,,,,,,,2025-08-01,1,,,,,プロヴェスト,0
1594,7011501032375,新規,0,2025-08-01,2025-08-01,日本＿陽新能源株式会社,00140135,株式会社,東京都,荒川区,南千住３丁目２７－２浅草ビル５０８,,13,118,1160003,,,,,,,2025-08-01,1,,,,,ニホンエンヨウシンノウゲン,0
1595,7011503006625,新規,0,2025-08-01,2025-08-01,合同会社Ｄｒｅａｍｌａｎｄ,,合同会社,東京都,北区,岸町２丁目１０－１７シャトー岸町２０７号室,,13,117,1140021,,,,,,,2025-08-01,1,,,,,ドリームランド,0
1596,7011603004784,新規,0,2025-08-01,2025-08-01,合同会社ＳＰＯＭ,,合同会社,東京都,練馬区,豊玉南３丁目３２番５号,,13,120,1760014,,,,,,,2025-08-01,1,,,,,エスピーオーエム,0
1597,7012401043405,新規,0,2025-08-01,2025-08-01,株式会社ＴＫＧｒａｍ,,株式会社,東京都,三鷹市,下連雀７丁目１７番３３－７０３号,,13,204,1810013,,,,,,,2025-08-01,1,,,,,ティーケーグラム,0
1612,7020001164067,新規,0,2025-08-01,2025-08-01,株式会社エンタリス,,株式会社,神奈川県,横浜市西区,浅間町１丁目４－３ウィザードビル４０２,,14,103,2200072,,,,,,,2025-08-01,1,,,,,エンタリス,0
1613,7020001164075,新規,0,2025-08-01,2025-08-01,株式会社Ｇｒａｉｎ９,,株式会社,神奈川県,川崎市高津区,子母口８１番地ガーディアンケンズ２０８,,14,134,2130023,,,,,,,2025-08-01,1,,,,,グレインナイン,0
1614,7020001164083,新規,0,2025-08-01,2025-08-01,株式会社串田興産,,株式会社,神奈川県,横浜市都筑区,池辺町２６０３番地,,14,118,2240053,,,,,,,2025-08-01,1,,,,,クシダコウサン,0
1615,7020001164125,新規,0,2025-08-01,2025-08-01,株式会社トリブレ,,株式会社,神奈川県,横浜市南区,別所５丁目２１番５－３号,,14,105,2320064,,,,,,,2025-08-01,1,,,,,トリブレ,0
1618,7020003028988,新規,0,2025-08-01,2025-08-01,合同会社Ｔ．Ｉ．Ｃ,,合同会社,神奈川県,横浜市中区,伊勢佐木町２丁目１０－４第三泰信ビル１階北,,14,104,2310045,,,,,,,2025-08-01,1,,,,,ティーアイシー,0
1619,7020003029020,新規,0,2025-08-01,2025-08-01,日本華徳合同会社,,合同会社,神奈川県,横浜市港北区,新横浜３丁目７－７新横浜アリーナ通りビル３Ｆ,,14,109,2220033,,,,,,,2025-08-01,1,,,,,,0
1622,7021001085922,新規,0,2025-08-01,2025-08-01,株式会社ＭＡＮＮ　ＩＮＴＥＲＮＡＴＩＯＮＡＬ,,株式会社,神奈川県,相模原市中央区,田名６０６８番地１７,,14,152,2520244,,,,,,,2025-08-01,1,,,,,マンインターナショナル,0
1623,7021001085930,新規,0,2025-08-01,2025-08-01,タレントグロース・パートナーズ株式会社,,株式会社,神奈川県,藤沢市,南藤沢７－２沢滝ビル２Ｆ,,14,205,2510055,,,,,,,2025-08-01,1,,,,,タレントグロースパートナーズ,0
1624,7021001085963,新規,0,2025-08-01,2025-08-01,株式会社ビッグバインド,,株式会社,神奈川県,藤沢市,遠藤７５２番地の１６,,14,205,2520816,,,,,,,2025-08-01,1,,,,,ビッグバインド,0
1626,7021003016347,新規,0,2025-08-01,2025-08-01,Ｆｕｎａｚｏｋｏ　Ｃｒｅａｔｉｖｅ　Ｋｉｎｇｄｏｍ合同会社,,合同会社,神奈川県,秦野市,千村２６６小野アパート１２１号室,,14,211,2591324,,,,,,,2025-08-01,1,,,,,フナゾコクリエイティブキングダム,0
1635,7030001167936,新規,0,2025-08-01,2025-08-01,Ｍｏｔｅｇｉ　Ａｓｓｅｔ　Ｍａｎａｇｅｍｅｎｔ株式会社,,株式会社,埼玉県,川口市,戸塚南１丁目９番２０－４０５号Ｄ’クラディア川口戸塚ＩＩ,00140128,11,203,3330817,,,,,,,2025-08-01,1,,,,,モテギアセットマネジメント,0
1641,7040001139827,新規,0,2025-08-01,2025-08-01,株式会社アールビーエヌ,,株式会社,千葉県,流山市,向小金２丁目２５６番地５,,12,220,2700143,,,,,,,2025-08-01,1,,,,,アールビーエヌ,0
1642,7040001139835,新規,0,2025-08-01,2025-08-01,アシストフォース株式会社,,株式会社,千葉県,松戸市,金ケ作４１番地の２１－３Ｆ,,12,207,2702251,,,,,,,2025-08-01,1,,,,,アシストフォース,0
1668,7120001278360,新規,0,2025-08-01,2025-08-01,株式会社ＭＩＡ＆ＣＬＡＩＲＥ,,株式会社,大阪府,大阪市東成区,玉津１丁目３－２１－２０１室,,27,115,5370023,,,,,,,2025-08-01,1,,,,,ミアアンドクレア,0
1669,7120001278369,新規,0,2025-08-01,2025-08-01,万和商事株式会社,,株式会社,大阪府,大阪市浪速区,久保吉１丁目－２－１３－１Ｆ,,27,111,5560028,,,,,,,2025-08-01,1,,,,,マンワショウジ,0
1670,7120001278377,新規,0,2025-08-01,2025-08-01,繁花株式会社,,株式会社,大阪府,大阪市西成区,玉出東１丁目７番１４号５０１,,27,122,5570043,,,,,,,2025-08-01,1,,,,,ハンカ,0
1671,7120001278410,新規,0,2025-08-01,2025-08-01,松栄コスモ建設株式会社,,株式会社,大阪府,大阪市浪速区,元町１丁目１１－１０難波コープ３０３号,,27,111,5560016,,,,,,,2025-08-01,1,,,,,ショウエイコスモケンセツ,0
1678,7120003030166,新規,0,2025-08-01,2025-08-01,合同会社ＳＥＥＤ,,合同会社,大阪府,大阪市西淀川区,歌島３丁目３番４４号,,27,113,5550021,,,,,,,2025-08-01,1,,,,,シード,0
1685,7120103006603,新規,0,2025-08-01,2025-08-01,遠東合同会社,,合同会社,大阪府,堺市堺区,神石市之町３０番２１－２０５号,,27,141,5900813,,,,,,,2025-08-01,1,,,,,エントウ,0
1689,7120901051255,新規,0,2025-08-01,2025-08-01,株式会社ＴＳＩ,,株式会社,大阪府,豊中市,服部南町３丁目１０番１９号,,27,203,5610853,,,,,,,2025-08-01,1,,,,,ティーエスアイ,0
1690,7120901051271,新規,0,2025-08-01,2025-08-01,株式会社スコルピオ,,株式会社,大阪府,摂津市,鳥飼下２丁目１２番２－８号,,27,224,5660071,,,,,,,2025-08-01,1,,,,,スコルピオ,0
1696,7122001039478,新規,0,2025-08-01,2025-08-01,株式会社ブレイブ,,株式会社,大阪府,東大阪市,衣摺５丁目１１番１１号,,27,227,5770827,,,,,,,2025-08-01,1,,,,,ブレイブ,0
1698,7122005003843,新規,0,2025-08-01,2025-08-01,一般社団法人柏原東条工業会,,その他の設立登記法人,大阪府,柏原市,国分東条町４３４６番地,,27,221,5820023,,,,,,,2025-08-01,1,,,,,カシワラヒガンジョウコウギョウカイ,0
1710,7140001139486,新規,0,2025-08-01,2025-08-01,株式会社島本屋,,株式会社,兵庫県,姫路市,安田２丁目５４番地,,28,201,6700955,,,,,,,2025-08-01,1,,,,,シマモトヤ,0
1711,7140001139494,新規,0,2025-08-01,2025-08-01,株式会社ＰＥ工房,,株式会社,兵庫県,神戸市須磨区,妙法寺字風早１２３４－５,,28,107,6540121,,,,,,,2025-08-01,1,,,,,ピーイーコウボウ,0
1712,7140001139511,新規,0,2025-08-01,2025-08-01,株式会社ＭｏＭＩＣＫ,,株式会社,兵庫県,神戸市東灘区,向洋町中５丁目４番地の２９,,28,101,6580032,,,,,,,2025-08-01,1,,,,,モーミック,0
1714,7150001028300,新規,0,2025-08-01,2025-08-01,株式会社ＵＭＵＩ,,株式会社,奈良県,奈良市,法蓮町１２６３番地の６,,29,201,6308113,,,,,,,2025-08-01,1,,,,,ウムイ,0
1716,7160003003556,新規,0,2025-08-01,2025-08-01,合同会社ＳＯＲＡ,,合同会社,滋賀県,東近江市,妙法寺町８７７番地８,,25,213,5270046,,,,,,,2025-08-01,1,,,,,ソラ,0
1717,7160003003564,新規,0,2025-08-01,2025-08-01,ＫＤＬＶ合同会社,,合同会社,滋賀県,蒲生郡日野町,大字中在寺大前５１７番地１,,25,383,5291662,,,,,,,2025-08-01,1,,,,,ケーディーエルブイ,0
1725,7180001167789,新規,0,2025-08-01,2025-08-01,株式会社Ｌｙｋｋｅ　Ｄｅｓｉｇｎ,,株式会社,愛知県,小牧市,大字南外山字間島２８番地１,,23,219,4850024,,,,,,,2025-08-01,1,,,,,リュッケデザイン,0
1726,7180001167979,新規,0,2025-08-01,2025-08-01,株式会社ＣＯＮＯＣＯＬＡ,,株式会社,愛知県,名古屋市中川区,蔦元町２丁目５番地の２,,23,110,4540824,,,,,,,2025-08-01,1,,,,,コーノコーラ,0
1730,7180003028799,新規,0,2025-08-01,2025-08-01,食創合同会社,,合同会社,愛知県,名古屋市天白区,原１丁目７２３番地,,23,116,4680015,,,,,,,2025-08-01,1,,,,,ショクソウ,0
1731,7180003028808,新規,0,2025-08-01,2025-08-01,合同会社佐野圭介建築事務所,,合同会社,愛知県,弥富市,東蜆２丁目８２－２,,23,235,4901425,,,,,,,2025-08-01,1,,,,,サノケイスケケンチクジムショ,0
1734,7180301040068,新規,0,2025-08-01,2025-08-01,株式会社中宗,,株式会社,愛知県,岡崎市,中園町字郷中４４番地,,23,202,4440942,,,,,,,2025-08-01,1,,,,,ナカソウ,0
1738,7190001032439,新規,0,2025-08-01,2025-08-01,株式会社漣ホールディングス,,株式会社,三重県,伊勢市,御薗町高向５８６番地１カーサ・フィオーレＩＩＩ２０２号室,00140132,24,203,5160805,,,,,,,2025-08-01,1,,,,,サザナミホールディングス,0
1742,7210001020259,新規,0,2025-08-01,2025-08-01,株式会社タマファーム,,株式会社,福井県,越前市,上真柄町第３８号３番地,,18,209,9150011,,,,,,,2025-08-01,1,,,,,タマファーム,0
1746,7240001065301,新規,0,2025-08-01,2025-08-01,潤信株式会社,,株式会社,広島県,福山市,御船町１丁目１番７号,,34,207,7200042,,,,,,,2025-08-01,1,,,,,ジュンシン,0
1758,7290001110878,新規,0,2025-08-01,2025-08-01,株式会社ＡＩクンテック,,株式会社,福岡県,福岡市博多区,博多駅南３丁目１５－３０ローズマンション第二博多９０６号室,,40,132,8120016,,,,,,,2025-08-01,1,,,,,エーアイクンテック,0
1759,7290001110894,新規,0,2025-08-01,2025-08-01,ＦＬＹＩＮＧ　ＰＨＯＥＮＩＸ株式会社,,株式会社,福岡県,福岡市中央区,白金１丁目１７－１８井上コーポ６０８号室,,40,133,8100012,,,,,,,2025-08-01,1,,,,,フライングフェニックス,0
1769,7320001021246,新規,0,2025-08-01,2025-08-01,株式会社ＲｈＭ,,株式会社,大分県,大分市,府内町２丁目３番２４号前川ビル４階,,44,201,8700021,,,,,,,2025-08-01,1,,,,,リム,0
1770,7320003004728,新規,0,2025-08-01,2025-08-01,合同会社オフィスサカイ,,合同会社,大分県,佐伯市,大字木立５６５４番地１,,44,205,8762121,,,,,,,2025-08-01,1,,,,,オフィスサカイ,0
1772,7340003004916,新規,0,2025-08-01,2025-08-01,合同会社ＷｅｌｌＳＩＡ,,合同会社,鹿児島県,姶良市,平松５３５９番地２,,46,225,8995652,,,,,,,2025-08-01,1,,,,,ウェルシア,0
1777,7380001035496,新規,0,2025-08-01,2025-08-01,ネッツトヨタ郡山ホールディングス株式会社,,株式会社,福島県,郡山市,緑町１７番８号,,07,203,9638023,,,,,,,2025-08-01,1,,,,,ネッツトヨタコオリヤマホールディングス,0
1779,7380005012995,新規,0,2025-08-01,2025-08-01,一般社団法人入倉営農保全組合,,その他の設立登記法人,福島県,耶麻郡磐梯町,大字大谷字入倉６１１１番地,,07,407,9693304,,,,,,,2025-08-01,1,,,,,,0
1785,7430001094867,新規,0,2025-08-01,2025-08-01,ＴＳコネクト株式会社,,株式会社,北海道,札幌市豊平区,中の島二条１０丁目１番２２号,,01,105,0620922,,,,,,,2025-08-01,1,,,,,ティーエスコネクト,0
1786,7430001094909,新規,0,2025-08-01,2025-08-01,オトマリンサービシズ株式会社,,株式会社,北海道,苫小牧市,山手町１丁目８番１４号,,01,213,0530851,,,,,,,2025-08-01,1,,,,,オトマリンサービシズ,0
1787,7430003017917,新規,0,2025-08-01,2025-08-01,合同会社Ａｚ,,合同会社,北海道,札幌市北区,篠路町上篠路１１０番地１７２,,01,102,0028052,,,,,,,2025-08-01,1,,,,,アズ,0
1791,7470001020828,新規,0,2025-08-01,2025-08-01,フジケン株式会社,,株式会社,香川県,丸亀市,飯山町東坂元３６３８番地２,,37,202,7620081,,,,,,,2025-08-01,1,,,,,フジケン,0
1799,7500001026441,新規,0,2025-08-01,2025-08-01,株式会社浜岡工業,,株式会社,愛媛県,松山市,鷹子町４９８番地１グランシャリオ鷹子１０１,,38,201,7900925,,,,,,,2025-08-01,1,,,,,ハマオカコウギョウ,0
1803,7500003003562,新規,0,2025-08-01,2025-08-01,合同会社ＮＡＶＩＧＡＴＩＯＮ,,合同会社,愛媛県,松山市,二番町２丁目７番地１７,,38,201,7900002,,,,,,,2025-08-01,1,,,,,ナビゲーション,0
1805,7700150131617,新規,0,2025-08-01,2025-08-01,ＧＬＯＬＵＸ　ＬＬＣ,,外国会社等,,,,,,,,１６８　ＭＡＳＯＮ　ＷＡＹ　＃Ｂ１　ＣＩＴＹ　ＯＦ　ＩＮＤＵＳＴＲＹ，　ＣＡ　９１７４６，　ＵＳ,,,,,,2025-08-01,1,,,,,ジーエルオーエルユーエックスエルエルシー,0
1818,8010001257259,新規,0,2025-08-01,2025-08-01,株式会社ＶＡＬＵＣＩＡ,,株式会社,東京都,千代田区,神田和泉町１番地２－２２－３Ｆ,,13,101,1010024,,,,,,,2025-08-01,1,,,,,ヴァルシア,0
1819,8010001257309,新規,0,2025-08-01,2025-08-01,株式会社Ｂｅｙｏｎｄ　Ｊａｐａｎ,,株式会社,東京都,文京区,大塚５丁目３番１０号９０６号室,,13,105,1120012,,,,,,,2025-08-01,1,,,,,ビヨンドジャパン,0
1820,8010001257317,新規,0,2025-08-01,2025-08-01,株式会社Ｏ．Ｔ,,株式会社,東京都,中央区,銀座１丁目１２番４号Ｎ＆ＥＢＬＤ．６Ｆ,,13,102,1040061,,,,,,,2025-08-01,1,,,,,オーティー,0
1821,8010001257325,新規,0,2025-08-01,2025-08-01,株式会社サスネンヘルス,,株式会社,東京都,文京区,千石４丁目１４番９号,,13,105,1120011,,,,,,,2025-08-01,1,,,,,サスネンヘルス,0
1822,8010001257358,新規,0,2025-08-01,2025-08-01,株式会社御茶流,,株式会社,東京都,文京区,白山１丁目６番４号文京ＶｅｎｔｕｒｅＢａｓｅＢ０２室,,13,105,1130001,,,,,,,2025-08-01,1,,,,,オチャル,0
1824,8010003048144,新規,0,2025-08-01,2025-08-01,合同会社遊園地エンターテイメント,,合同会社,東京都,中央区,日本橋室町１丁目１１番１２号日本橋水野ビル７階,,13,102,1030022,,,,,,,2025-08-01,1,,,,,ユウエンチエンターテイメント,0
1825,8010003048177,新規,0,2025-08-01,2025-08-01,クムロシティ合同会社,,合同会社,東京都,千代田区,丸の内１丁目９番２号グラントウキョウサウスタワー,,13,101,1000005,,,,,,,2025-08-01,1,,,,,クムロシティ,0
1826,8010003048193,新規,0,2025-08-01,2025-08-01,Ｗａｓａｂｉ　Ｊａｐａｎ合同会社,,合同会社,東京都,中央区,銀座１丁目１２－４Ｎ＆ＥＢＬＤ．７階,,13,102,1040061,,,,,,,2025-08-01,1,,,,,ワサビジャパン,0
1827,8010003048202,新規,0,2025-08-01,2025-08-01,アストロ２ワン合同会社,,合同会社,東京都,中央区,銀座１丁目６番１１号アースタックス税理士法人内,,13,102,1040061,,,,,,,2025-08-01,1,,,,,アストロツーワン,0
1829,8010005040462,新規,0,2025-08-01,2025-08-01,一般社団法人難波東ホールディングス,,その他の設立登記法人,東京都,千代田区,丸の内１丁目６番５号,,13,101,1000005,,,,,,,2025-08-01,1,,,,,ナンバヒガシホールディングス,0
1847,8010601067719,新規,0,2025-08-01,2025-08-01,アーク人材技研株式会社,,株式会社,東京都,墨田区,立花５丁目１６番１号プラムハイツ０７０４号室,,13,107,1310043,,,,,,,2025-08-01,1,,,,,アークジンザイギケン,0
1856,8010903010153,新規,0,2025-08-01,2025-08-01,ＴｒｕｓｔＩｎｓ合同会社,,合同会社,東京都,世田谷区,弦巻４丁目７番４号桜新町テラス６,,13,112,1540016,,,,,,,2025-08-01,1,,,,,トラストインス,0
1862,8011001171136,新規,0,2025-08-01,2025-08-01,株式会社ＭＡＨＯＰ,,株式会社,東京都,渋谷区,神山町９番１０－３０１号,,13,113,1500047,,,,,,,2025-08-01,1,,,,,マホップ,0
1864,8011003022238,新規,0,2025-08-01,2025-08-01,Ｈ＆Ｓ合同会社,,合同会社,東京都,渋谷区,恵比寿西２丁目４番８号ウィンド恵比寿ビル８Ｆ,,13,113,1500021,,,,,,,2025-08-01,1,,,,,エイチエンドエス,0
1865,8011003022246,新規,0,2025-08-01,2025-08-01,ＢＴＡＬＫＳ合同会社,,合同会社,東京都,渋谷区,神宮前６丁目２３番４号桑野ビル２階,,13,113,1500001,,,,,,,2025-08-01,1,,,,,ビートークス,0
1867,8011005011098,新規,0,2025-08-01,2025-08-01,一般社団法人国際同姓同名連盟,,その他の設立登記法人,東京都,渋谷区,神宮前６丁目２３番４号,,13,113,1500001,,,,,,,2025-08-01,1,,,,,コクサイドウセイドウメイレンメイ,0
1872,8011201026544,新規,0,2025-08-01,2025-08-01,株式会社くらし商会,,株式会社,東京都,中野区,沼袋１丁目４２番４号,,13,114,1650025,,,,,,,2025-08-01,1,,,,,クラシショウカイ,0
1878,8011501032374,新規,0,2025-08-01,2025-08-01,株式会社ドリームメーカー,,株式会社,東京都,荒川区,南千住３丁目２７－２浅草ビル５０８,,13,118,1160003,,,,,,,2025-08-01,1,,,,,ドリームメーカー,0
1879,8011501032390,新規,0,2025-08-01,2025-08-01,株式会社レフリノベーション,,株式会社,東京都,北区,田端３丁目４番９号,,13,117,1140014,,,,,,,2025-08-01,1,,,,,レフリノベーション,0
1880,8011501032399,新規,0,2025-08-01,2025-08-01,群英株式会社,,株式会社,東京都,北区,豊島１丁目６番４－３０４号,,13,117,1140003,,,,,,,2025-08-01,1,,,,,グンエイ,0
1881,8011503006624,新規,0,2025-08-01,2025-08-01,トラストブリッジパートナーズ合同会社,,合同会社,東京都,北区,豊島８丁目１５番４－５０８号バームステージ王子神谷,,13,117,1140003,,,,,,,2025-08-01,1,,,,,トラストブリッジパートナーズ,0
1886,8011801046520,新規,0,2025-08-01,2025-08-01,株式会社スケッチ,,株式会社,東京都,葛飾区,南水元３丁目４－３－２０１,,13,122,1250035,,,,,,,2025-08-01,1,,,,,スケッチ,0
1893,8020001163976,新規,0,2025-08-01,2025-08-01,株式会社ＨＱミニスーパー,,株式会社,神奈川県,川崎市川崎区,日進町１番地６８サンスクエア川崎８号棟１０２号室,,14,131,2100024,,,,,,,2025-08-01,1,,,,,エイチキューミニスーパー,0
1894,8020001164041,新規,0,2025-08-01,2025-08-01,和昇株式会社,,株式会社,神奈川県,横浜市神奈川区,子安台１丁目７番１０号子安台第二ビル７５室,,14,102,2210012,,,,,,,2025-08-01,1,,,,,ワショウ,0
1895,8020001164082,新規,0,2025-08-01,2025-08-01,株式会社ｇｒｉｔ,,株式会社,神奈川県,川崎市中原区,下小田中３丁目３番１８号,,14,133,2110041,,,,,,,2025-08-01,1,,,,,グリット,0
1896,8020001164099,新規,0,2025-08-01,2025-08-01,ＡＴ　Ｅｓｔａｔｅ株式会社,,株式会社,神奈川県,横浜市港北区,日吉１丁目１８番２７号,,14,109,2230061,,,,,,,2025-08-01,1,,,,,エーティーエステート,0
1897,8020001164124,新規,0,2025-08-01,2025-08-01,株式会社忠信建設,,株式会社,神奈川県,横浜市南区,宿町２丁目４５番地５レオパレス蒔田２０３,,14,105,2320017,,,,,,,2025-08-01,1,,,,,チュウシンケンセツ,0
1898,8020001164157,新規,0,2025-08-01,2025-08-01,昭和設計事務所株式会社,,株式会社,神奈川県,横浜市西区,花咲町４丁目１２８－１０－４０５,,14,103,2200022,,,,,,,2025-08-01,1,,,,,ショウワセッケイジムショ,0
1900,8020003028970,新規,0,2025-08-01,2025-08-01,合同会社バーニング,,合同会社,神奈川県,横浜市神奈川区,子安通３丁目３９５番地１１０４号,,14,102,2210021,,,,,,,2025-08-01,1,,,,,バーニング,0
1901,8020003028979,新規,0,2025-08-01,2025-08-01,合同会社ｐｏｐｐｙ,,合同会社,神奈川県,川崎市幸区,古市場２丁目９６番地１９,,14,132,2120052,,,,,,,2025-08-01,1,,,,,ポピー,0
1902,8020003029044,新規,0,2025-08-01,2025-08-01,合同会社ＭＩＲＹＯＫＵ１９,,合同会社,神奈川県,川崎市高津区,二子１丁目２３番地１天野マンション４０１号室,,14,134,2130002,,,,,,,2025-08-01,1,,,,,ミリョクイチキュウ,0
1905,8021001085970,新規,0,2025-08-01,2025-08-01,株式会社ＫＥＩ食堂,,株式会社,神奈川県,鎌倉市,津西１丁目４番２０号,,14,204,2480034,,,,,,,2025-08-01,1,,,,,ケイショクドウ,0
1916,8030005022228,新規,0,2025-08-01,2025-08-01,ヴェリタ行政書士法人,,その他の設立登記法人,埼玉県,三郷市,早稲田２丁目４番地７メゾン・ド・ベール早稲田ＩＩＩ１０５,00140129,11,237,3410018,,,,,,,2025-08-01,1,,,,,ヴェリタ,0
1920,8040001139834,新規,0,2025-08-01,2025-08-01,株式会社つばめ,,株式会社,千葉県,船橋市,宮本９丁目１番３－４０３号,,12,204,2730003,,,,,,,2025-08-01,1,,,,,ツバメ,0
1921,8040001139842,新規,0,2025-08-01,2025-08-01,東遠建設株式会社,,株式会社,千葉県,印西市,原山３丁目８番地２４,,12,231,2701341,,,,,,,2025-08-01,1,,,,,トウエンケンセツ,0
1922,8040001139917,新規,0,2025-08-01,2025-08-01,株式会社Ｔｈａｎｋ．結,,株式会社,千葉県,浦安市,東野１丁目２４番２５号,,12,227,2790042,,,,,,,2025-08-01,1,,,,,サンクユウ,0
1925,8040003028110,新規,0,2025-08-01,2025-08-01,合同会社ホワイトメゾン,,合同会社,千葉県,浦安市,海楽１丁目３番２５号オレンジハウス２０２,,12,227,2790003,,,,,,,2025-08-01,1,,,,,ホワイトメゾン,0
1928,8050001056995,新規,0,2025-08-01,2025-08-01,Ｓｅｖｅｎｒｉｎｇｓ株式会社,,株式会社,茨城県,かすみがうら市,下土田４７７,,08,230,3150058,,,,,,,2025-08-01,1,,,,,セブンリングス,0
1929,8050001057003,新規,0,2025-08-01,2025-08-01,株式会社海月堂,,株式会社,茨城県,ひたちなか市,大字足崎１４００番地２６,,08,221,3120003,,,,,,,2025-08-01,1,,,,,カイゲツドウ,0
1931,8050003009464,新規,0,2025-08-01,2025-08-01,合同会社常総都市開発,,合同会社,茨城県,常総市,三坂町１６７５番地１,,08,211,3002506,,,,,,,2025-08-01,1,,,,,ジョウソウトシカイハツ,0
1937,8080001027060,新規,0,2025-08-01,2025-08-01,イトウアセットデザイン株式会社,,株式会社,静岡県,静岡市駿河区,馬渕２丁目１３番２１号,,22,102,4228063,,,,,,,2025-08-01,1,,,,,イトウアセットデザイン,0
1952,8120001278285,新規,0,2025-08-01,2025-08-01,ｒｏｍａｎｔｉｃ　ｓｔｙｌｅ株式会社,,株式会社,大阪府,大阪市住之江区,粉浜１丁目３番２５号サンシティ粉浜２０３号室,,27,125,5590001,,,,,,,2025-08-01,1,,,,,ロマンティックスタイル,0
1953,8120001278302,新規,0,2025-08-01,2025-08-01,株式会社ＳＥＩＷＡ,,株式会社,大阪府,交野市,星田９丁目５１番１４号,,27,230,5760016,,,,,,,2025-08-01,1,,,,,セイワ,0
1954,8120001278384,新規,0,2025-08-01,2025-08-01,和合会株式会社,,株式会社,大阪府,大阪市福島区,海老江１丁目５番３０－６３３号,,27,103,5530001,,,,,,,2025-08-01,1,,,,,ワゴウカイ,0
1956,8120003030140,新規,0,2025-08-01,2025-08-01,合同会社ＵＫ,,合同会社,大阪府,大阪市福島区,福島６丁目３－２－２０２号,,27,103,5530003,,,,,,,2025-08-01,1,,,,,ユーケー,0
1960,8120103006602,新規,0,2025-08-01,2025-08-01,ＫＨＡＮ　ＴＲＡＤＩＮＧ　ＣＯＭＰＡＮＹ合同会社,,合同会社,大阪府,和泉市,福瀬町１４１－１・２階,,27,219,5941123,,,,,,,2025-08-01,1,,,,,カーントレーディングカンパニー,0
1961,8120105010049,新規,0,2025-08-01,2025-08-01,一般社団法人ｅｋｕｂｏ,,その他の設立登記法人,大阪府,松原市,天美東８丁目２番４号,,27,217,5800032,,,,,,,2025-08-01,1,,,,,エクボ,0
1964,8120901051254,新規,0,2025-08-01,2025-08-01,株式会社ＵＮＩＯＮ,,株式会社,大阪府,吹田市,五月が丘北８－１ＰＬＵＭＶＩＬＬＡＧＥｖｏｌ．２－３０２号室,,27,205,5650834,,,,,,,2025-08-01,1,,,,,ユニオン,0
1965,8120901051262,新規,0,2025-08-01,2025-08-01,田原リアルエステートマネジメント株式会社,,株式会社,大阪府,豊中市,曽根南町２丁目１９番１５号,,27,203,5610804,,,,,,,2025-08-01,1,,,,,タハラリアルエステートマネジメント,0
1970,8122001039469,新規,0,2025-08-01,2025-08-01,旭華株式会社,,株式会社,大阪府,柏原市,玉手町１８－６１玉手山グリーンハイツ４０３号室,,27,221,5820028,,,,,,,2025-08-01,1,,,,,キョクカ,0
1973,8122005003842,新規,0,2025-08-01,2025-08-01,医療法人鳳美会,,その他の設立登記法人,大阪府,東大阪市,岩田町３丁目１１番１号いこまやビル１階２階,,27,227,5780941,,,,,,,2025-08-01,1,,,,,ホウビカイ,0
1982,8140001139386,新規,0,2025-08-01,2025-08-01,株式会社アイズクリエイト,,株式会社,兵庫県,三田市,つつじが丘北４丁目２番地２０,,28,219,6691348,,,,,,,2025-08-01,1,,,,,アイズクリエイト,0
1983,8140001139477,新規,0,2025-08-01,2025-08-01,株式会社Ｒｏｕｎｄ　ｆａｃｅ　ｂａｂｙ,,株式会社,兵庫県,神戸市東灘区,向洋町中１丁目４番地１２２号棟４０２号室,,28,101,6580032,,,,,,,2025-08-01,1,,,,,ラウンドフェイスベイビー,0
1984,8140001139510,新規,0,2025-08-01,2025-08-01,株式会社Ｎｏｗ，ｍｅ．,,株式会社,兵庫県,西宮市,高木西町２９番３－２０３号,,28,204,6638032,,,,,,,2025-08-01,1,,,,,ナウミー,0
1985,8140003022350,新規,0,2025-08-01,2025-08-01,合同会社ＤＧ,,合同会社,兵庫県,加東市,東古瀬２８１番地１,,28,228,6731423,,,,,,,2025-08-01,1,,,,,ディージー,0
1986,8140003022359,新規,0,2025-08-01,2025-08-01,未来プラス合同会社,,合同会社,兵庫県,赤穂市,中広９２０番地５０,,28,212,6780232,,,,,,,2025-08-01,1,,,,,ミライプラス,0
1987,8140003022383,新規,0,2025-08-01,2025-08-01,合同会社きむらんど,,合同会社,兵庫県,神戸市灘区,灘北通１丁目３－１,,28,102,6570835,,,,,,,2025-08-01,1,,,,,キムランド,0
1991,8160003003563,新規,0,2025-08-01,2025-08-01,グリーンランド管理運営合同会社,,合同会社,滋賀県,大津市,伊香立上龍華町７０１番地の２５,,25,201,5200362,,,,,,,2025-08-01,1,,,,,グリーンランドカンリウンエイ,0
1996,8180003028798,新規,0,2025-08-01,2025-08-01,ＳＣＥＤＵＳ　ＧＲＯＵＰ合同会社,,合同会社,愛知県,知多市,巽が丘４丁目２４８番地,,23,224,4780012,,,,,,,2025-08-01,1,,,,,セドゥスグループ,0
1997,8180003028815,新規,0,2025-08-01,2025-08-01,松竹表面技術合同会社,,合同会社,愛知県,名古屋市千種区,吹上２丁目５番８号,,23,101,4640856,,,,,,,2025-08-01,1,,,,,ショウチクヒョウメンギジュツ,0
2001,8180301040050,新規,0,2025-08-01,2025-08-01,ＳＵＮ　ＧＲＯＵＰ株式会社,,株式会社,愛知県,高浜市,向町一丁目２１１番地１３,,23,227,4441300,,,,,,,2025-08-01,1,,,,,サングループ,0
2005,8210003001941,新規,0,2025-08-01,2025-08-01,合同会社ｎｉｃｏｎｉｃｏ‐ｈｏｕｓｅ,,合同会社,福井県,坂井市,丸岡町一本田福所３６－３－３,,18,210,9100251,,,,,,,2025-08-01,1,,,,,ニコニコハウス,0
2031,8260003005277,新規,0,2025-08-01,2025-08-01,合同会社ｋｕｎｍａｎ,,合同会社,岡山県,倉敷市,西中新田５２５番地６・１００４号,,33,202,7100833,,,,,,,2025-08-01,1,,,,,クンマン,0
2033,8280001009476,新規,0,2025-08-01,2025-08-01,株式会社ｓｎｐ２８９,,株式会社,島根県,出雲市,湖陵町三部２８８番地２,,32,203,6990813,,,,,,,2025-08-01,1,,,,,スニップニーハチキュウ,0
2045,8340001027554,新規,0,2025-08-01,2025-08-01,Ｓｏｌａｃｅ株式会社,,株式会社,鹿児島県,鹿児島市,郡元２丁目１７番２４号クラヴィエ郡元１０１号,,46,201,8900065,,,,,,,2025-08-01,1,,,,,ソレイス,0
2055,8370003007221,新規,0,2025-08-01,2025-08-01,欣栄合同会社,,合同会社,宮城県,仙台市青葉区,国分町１丁目４番１５号シティハウス一番町ＷＥＳＴ５０２,,04,101,9800803,,,,,,,2025-08-01,1,,,,,シンエイ,0
2059,8380001035487,新規,0,2025-08-01,2025-08-01,株式会社ａｌｉｓｍ,,株式会社,福島県,河沼郡会津坂下町,大字五ノ併字屋敷戊２３６番地,,07,421,9696526,,,,,,,2025-08-01,1,,,,,アルイズム,0
2061,8380005012994,新規,0,2025-08-01,2025-08-01,ネスト協同組合,,その他の設立登記法人,福島県,郡山市,三穂田町富岡字光西寺７５番地,,07,203,9630125,,,,,,,2025-08-01,1,,,,,ネスト,0
2079,8500003003553,新規,0,2025-08-01,2025-08-01,合同会社Ｐａｔｈ　Ｃｒａｆｔｅｄ,,合同会社,愛媛県,伊予郡砥部町,宮内４３２－１０,,38,402,7912120,,,,,,,2025-08-01,1,,,,,パスクラフテッド,0
2083,8700150131616,新規,0,2025-08-01,2025-08-01,ｈａｎｇｚｈｏｕｔｉｎｇｈａｏｘｉｎｘｉｋｅｊｉｙｏｕｘｉａｎｇｏｎｇｓｉ,,外国会社等,,,,,,,,Ｒｏｏｍ　６０１－５，　Ｂｕｉｌｄｉｎｇ　６，　Ｎｏ．　１３２４　Ｗｅｎｙｉ　Ｗｅｓｔ　Ｒｏａｄ，　Ｃａｎｇｑｉａｎ　Ｓｕｂｄｉｓｔｒｉｃｔ，　Ｙｕｈａｎｇ　Ｄｉｓｔｒｉｃｔ，　Ｈａｎｇｚｈｏｕ，　Ｚｈｅｊｉａｎｇ，　３１１１００,,,,,,2025-08-01,1,,,,,ハンジョウティンハオシンシーコージーヨウシエンゴンスー,0
2090,9010001257241,新規,0,2025-08-01,2025-08-01,株式会社Ｍａｔｓｕ　Ａｄｖｉｓｏｒｙ,,株式会社,東京都,中央区,日本橋室町１丁目１１番１２号日本橋水野ビル７階,,13,102,1030022,,,,,,,2025-08-01,1,,,,,マツアドバイザリー,0
2091,9010001257357,新規,0,2025-08-01,2025-08-01,アルゼンジャパン株式会社,,株式会社,東京都,中央区,日本橋３丁目９番１号日本橋三丁目スクエア１１階,,13,102,1030027,,,,,,,2025-08-01,1,,,,,アルゼンジャパン,0
2093,9010003048201,新規,0,2025-08-01,2025-08-01,もくと合同会社,,合同会社,東京都,中央区,日本橋横山町７番１９号第３５イチオクビル３Ｆ３－１８号室,,13,102,1030003,,,,,,,2025-08-01,1,,,,,モクト,0
2094,9010005040461,新規,0,2025-08-01,2025-08-01,一般社団法人中之島ホールディングス,,その他の設立登記法人,東京都,千代田区,丸の内１丁目６番５号,,13,101,1000005,,,,,,,2025-08-01,1,,,,,ナカノシマホールディングス,0
2103,9010405024551,新規,0,2025-08-01,2025-08-01,一般社団法人食用塩公正取引協議会,,その他の設立登記法人,東京都,港区,六本木７丁目１５番１４号塩業ビル９Ｆ,,13,103,1060032,,,,,,,2025-08-01,1,,,,,ショクヨウエンコウセイトリヒキキョウギカイ,0
2107,9010501054353,新規,0,2025-08-01,2025-08-01,東洋ビル株式会社,,株式会社,東京都,台東区,柳橋２丁目２１番１３号東洋ビル７階,,13,106,1110052,,,,,,,2025-08-01,1,,,,,,0
2108,9010601067718,新規,0,2025-08-01,2025-08-01,株式会社Ｎｅｘｌｅａ,,株式会社,東京都,墨田区,錦糸１丁目６番１１－２０６号,,13,107,1300013,,,,,,,2025-08-01,1,,,,,ネクスレア,0
2111,9010703007844,新規,0,2025-08-01,2025-08-01,Ｓａｐｈｉｒｕｓ　Ｔｒａｄｉｎｇ合同会社,,合同会社,東京都,品川区,西五反田８丁目１番１３号ＧＢＳ・Ｄ－１号,,13,109,1410031,,,,,,,2025-08-01,1,,,,,サフィラストレーディング,0
2118,9011001171119,新規,0,2025-08-01,2025-08-01,株式会社ジェニカ,,株式会社,東京都,渋谷区,猿楽町１７番１０号代官山アートビレッジ３階Ｂ代官山ＴＯＫＯ,,13,113,1500033,,,,,,,2025-08-01,1,,,,,ジェニカ,0
2119,9011001171135,新規,0,2025-08-01,2025-08-01,株式会社シナプト,,株式会社,東京都,目黒区,下目黒１丁目４番７号,,13,110,1530064,,,,,,,2025-08-01,1,,,,,シナプト,0
2122,9011003022105,新規,0,2025-08-01,2025-08-01,ＣＹＡＮ合同会社,,合同会社,東京都,渋谷区,宇田川町３５番６号下田ビル３階,,13,113,1500042,,,,,,,2025-08-01,1,,,,,シアン,0
2123,9011005011130,新規,0,2025-08-01,2025-08-01,税理士法人植村会計事務所,,その他の設立登記法人,東京都,渋谷区,道玄坂１丁目１２番１号渋谷マークシティＷ２２階,,13,113,1500043,,,,,,,2025-08-01,1,,,,,ウエムラカイケイジムショ,0
2130,9011203004778,新規,0,2025-08-01,2025-08-01,合同会社ＴＡＫＥ２,,合同会社,東京都,中野区,丸山２丁目７番１３号野方高商コーポ４０１,,13,114,1650021,,,,,,,2025-08-01,1,,,,,テイクツー,0
2133,9011401027291,新規,0,2025-08-01,2025-08-01,アベニア株式会社,,株式会社,東京都,板橋区,小茂根１丁目２７番１号,,13,119,1730037,,,,,,,2025-08-01,1,,,,,アベニア,0
2134,9011501032381,新規,0,2025-08-01,2025-08-01,株式会社ＧＤ＆Ｃｏ,,株式会社,東京都,北区,滝野川７丁目３４番１３－４０１号ランドスクエア板橋,,13,117,1140023,,,,,,,2025-08-01,1,,,,,ジーディーアンドゴー,0
2136,9011701028584,新規,0,2025-08-01,2025-08-01,株式会社Ｔｒｕｅ　Ｐａｒｔｎｅｒｓ,,株式会社,東京都,江戸川区,西小岩５丁目９番５号,,13,123,1330057,,,,,,,2025-08-01,1,,,,,トゥルーパートナーズ,0
2144,9012401043403,新規,0,2025-08-01,2025-08-01,Ｊａｐａｎ　Ｃｏｌｌｅｇｅ株式会社,,株式会社,東京都,狛江市,岩戸北４丁目１１番２０－１０２号,,13,219,2010004,,,,,,,2025-08-01,1,,,,,ジャパンカレッジ,0
2146,9012701019004,新規,0,2025-08-01,2025-08-01,３３ｐｅｒｃｅｎｔ’ｓ株式会社,,株式会社,東京都,小平市,小川町２丁目１９５９－１－Ｂ,,13,211,1870032,,,,,,,2025-08-01,1,,,,,サンジュウサンパーセンツ,0
2147,9020001163950,新規,0,2025-08-01,2025-08-01,株式会社Ｌｉｎｋ　Ｆｅｓｔａ,,株式会社,神奈川県,川崎市川崎区,小川町１５番地１５河本ビル３０２,,14,131,2100023,,,,,,,2025-08-01,1,,,,,リンクフェスタ,0
2148,9020001164098,新規,0,2025-08-01,2025-08-01,株式会社トライＲ,,株式会社,神奈川県,横浜市泉区,上飯田町４００７番地１,,14,116,2450018,,,,,,,2025-08-01,1,,,,,トライアール,0
2149,9020001164123,新規,0,2025-08-01,2025-08-01,株式会社大光技建,,株式会社,神奈川県,横浜市栄区,笠間１丁目２番２８号,,14,115,2470006,,,,,,,2025-08-01,1,,,,,ダイコウギケン,0
2150,9020001164131,新規,0,2025-08-01,2025-08-01,株式会社ルミナス,,株式会社,神奈川県,横浜市西区,浅間町１丁目７－１,,14,103,2200072,,,,,,,2025-08-01,1,,,,,ルミナス,0
2153,9021001085929,新規,0,2025-08-01,2025-08-01,株式会社Ａｎｄａｎｔｅ,,株式会社,神奈川県,藤沢市,片瀬海岸２丁目１８－２１リードシー片瀬江ノ島ビル３Ｆ,,14,205,2510035,,,,,,,2025-08-01,1,,,,,アンダンテ,0
2154,9021001085945,新規,0,2025-08-01,2025-08-01,Ｓｔａｙｔｏｇｏ株式会社,,株式会社,神奈川県,逗子市,桜山６丁目１５－９,,14,208,2490005,,,,,,,2025-08-01,1,,,,,ステイトゥゴー,0
2161,9030001167918,新規,0,2025-08-01,2025-08-01,華羽株式会社,,株式会社,埼玉県,川口市,西青木２丁目１番１０－１０８号西川口ファミリーマンション,,11,203,3320035,,,,,,,2025-08-01,1,,,,,カイ,0
2166,9030003027319,新規,0,2025-08-01,2025-08-01,合同会社ＧＪＰ,,合同会社,埼玉県,坂戸市,八幡２丁目１番２－７号アキュラメゾン坂戸１０２号室,,11,239,3500223,,,,,,,2025-08-01,1,,,,,ジージェイピー,0
2173,9040001139825,新規,0,2025-08-01,2025-08-01,株式会社ｈａｋｕｎａ,,株式会社,千葉県,船橋市,本中山１丁目８番１６号,,12,204,2730035,,,,,,,2025-08-01,1,,,,,ハクナ,0
2174,9040001139833,新規,0,2025-08-01,2025-08-01,株式会社大河,,株式会社,千葉県,野田市,東宝珠花４４２番地,,12,208,2700226,,,,,,,2025-08-01,1,,,,,タイガ,0
2175,9040001139866,新規,0,2025-08-01,2025-08-01,ＭＡＲＳＨＡＬＬ株式会社,,株式会社,千葉県,佐倉市,王子台３丁目６番地３,,12,212,2850837,,,,,,,2025-08-01,1,,,,,マーシャル,0
2176,9040003028159,新規,0,2025-08-01,2025-08-01,合同会社大橋,,合同会社,千葉県,東金市,家徳４４４－１６２アルカサール家徳Ｂ棟１０１号室,,12,213,2830062,,,,,,,2025-08-01,1,,,,,オオハシ,0
2189,9090001019428,新規,0,2025-08-01,2025-08-01,株式会社ＲＥＢＩＴｓ,,株式会社,山梨県,笛吹市,石和町松本９２番地１０,,19,211,4060021,,,,,,,2025-08-01,1,,,,,,0
2198,9120001278284,新規,0,2025-08-01,2025-08-01,株式会社ＰＯＭ,,株式会社,大阪府,大阪市中央区,南船場３丁目１－６グランドール心斎橋４０５,,27,128,5420081,,,,,,,2025-08-01,1,,,,,ポム,0
2199,9120001278292,新規,0,2025-08-01,2025-08-01,株式会社山口電気商会,,株式会社,大阪府,大阪市住之江区,安立４丁目１番４号メゾンＡメッツ３０６,,27,125,5590003,,,,,,,2025-08-01,1,,,,,ヤマグチデンキショウカイ,0
2200,9120001278359,新規,0,2025-08-01,2025-08-01,宸興陽帆株式会社,,株式会社,大阪府,大阪市浪速区,恵美須西２丁目６番１０－３０１号,,27,111,5560003,,,,,,,2025-08-01,1,,,,,シンコウヨウハン,0
2201,9120001278375,新規,0,2025-08-01,2025-08-01,株式会社エクゾディア,,株式会社,大阪府,大阪市中央区,西心斎橋１丁目５番１２号心斎橋アーバンライフ３０８号室,,27,128,5420086,,,,,,,2025-08-01,1,,,,,エクゾディア,0
2202,9120001278383,新規,0,2025-08-01,2025-08-01,Ｔファンド株式会社,,株式会社,大阪府,大阪市北区,曾根崎２丁目１５番３１－５３０４号,,27,127,5300057,,,,,,,2025-08-01,1,,,,,ティーファンド,0
2209,9120901051253,新規,0,2025-08-01,2025-08-01,株式会社大西会計,,株式会社,大阪府,豊中市,本町２丁目２番４０の１号,,27,203,5600021,,,,,,,2025-08-01,1,,,,,オオニシカイケイ,0
2210,9120905006773,新規,0,2025-08-01,2025-08-01,一般社団法人晴れ着でつなぐ,,その他の設立登記法人,大阪府,高槻市,古曽部町１丁目１１番１３－５１８号,,27,207,5691115,,,,,,,2025-08-01,1,,,,,ハレギデツナグ,0
2226,9140001139468,新規,0,2025-08-01,2025-08-01,株式会社ＳＴＳ工業,,株式会社,兵庫県,西宮市,日野町４番１０号,,28,204,6638022,,,,,,,2025-08-01,1,,,,,エスティーエスコウギョウ,0
2227,9140001139476,新規,0,2025-08-01,2025-08-01,株式会社想ｅｎ．,,株式会社,兵庫県,姫路市,飯田７６６番地４,,28,201,6700974,,,,,,,2025-08-01,1,,,,,ソウエン,0
2228,9140001139484,新規,0,2025-08-01,2025-08-01,ＴＫホールディングス株式会社,,株式会社,兵庫県,姫路市,町坪１７６番地１ホーユーパレス姫路４０５号,,28,201,6700984,,,,,,,2025-08-01,1,,,,,ティーケーホールディングス,0
2229,9140001139501,新規,0,2025-08-01,2025-08-01,ロイヤルヴィレッジ株式会社,,株式会社,兵庫県,神戸市兵庫区,西上橘通１丁目４番１,,28,105,6520033,,,,,,,2025-08-01,1,,,,,ロイヤルヴィレッジ,0
2233,9140003022366,新規,0,2025-08-01,2025-08-01,合同会社ドンガプロダクション,,合同会社,兵庫県,神戸市西区,伊川谷町有瀬１１５７伊川谷住宅１１号５０１,,28,111,6512113,,,,,,,2025-08-01,1,,,,,ドンガプロダクション,0
2234,9140003022374,新規,0,2025-08-01,2025-08-01,合同会社オオカミ,,合同会社,兵庫県,西宮市,大屋町１６番４－１０１号,,28,204,6638106,,,,,,,2025-08-01,1,,,,,オオカミ,0
2237,9160001026953,新規,0,2025-08-01,2025-08-01,株式会社石川設備,,株式会社,滋賀県,大津市,見世２丁目５番３号,,25,201,5200004,,,,,,,2025-08-01,1,,,,,イシカワセツビ,0
2240,9160003003554,新規,0,2025-08-01,2025-08-01,合同会社アサヒパートナーズ,,合同会社,滋賀県,近江八幡市,小船木町７３３番地４９,,25,204,5230083,,,,,,,2025-08-01,1,,,,,アサヒパートナーズ,0
2247,9180003028772,新規,0,2025-08-01,2025-08-01,合同会社モフル,,合同会社,愛知県,名古屋市名東区,極楽３丁目４番地,,23,115,4650053,,,,,,,2025-08-01,1,,,,,モフル,0
2248,9180003028780,新規,0,2025-08-01,2025-08-01,合同会社フラッグ,,合同会社,愛知県,名古屋市中区,錦１丁目８番４９号,,23,106,4600003,,,,,,,2025-08-01,1,,,,,フラッグ,0
2249,9180003028797,新規,0,2025-08-01,2025-08-01,アドミネット合同会社,,合同会社,愛知県,長久手市,菖蒲池３０３番地Ｌ’ＡｂｒｉＯＶＯ２０１号,,23,238,4801115,,,,,,,2025-08-01,1,,,,,アドミネット,0
2250,9180003028814,新規,0,2025-08-01,2025-08-01,合同会社ラトリエナカイ,,合同会社,愛知県,名古屋市中川区,百船町１１－２０－１スターシップ１０１,,23,110,4540801,,,,,,,2025-08-01,1,,,,,ラトリエナカイ,0
2255,9190001032437,新規,0,2025-08-01,2025-08-01,株式会社ペイントワン,,株式会社,三重県,伊勢市,小俣町元町１４４２番地１,,24,203,5190503,,,,,,,2025-08-01,1,,,,,ペイントワン,0
2258,9240003007332,新規,0,2025-08-01,2025-08-01,幸便合同会社,,合同会社,広島県,広島市西区,大芝３丁目７番１２－４０４号,,34,104,7330001,,,,,,,2025-08-01,1,,,,,コウビン,0
2259,9250001021276,新規,0,2025-08-01,2025-08-01,株式会社ＫＭ,,株式会社,山口県,下関市,長府宮の内町５番３９－１号,,35,201,7520967,,,,,,,2025-08-01,1,,,,,ケイエム,0
2262,9260001040408,新規,0,2025-08-01,2025-08-01,株式会社ＴｒｉＮａｇａ,,株式会社,岡山県,赤磐市,河本１１４３番地,,33,213,7090821,,,,,,,2025-08-01,1,,,,,トリナーガ,0
2265,9280001009475,新規,0,2025-08-01,2025-08-01,株式会社ボデーショップヤマネ,,株式会社,島根県,出雲市,平野町４４１番地５,,32,203,6930065,,,,,,,2025-08-01,1,,,,,ボデーショップヤマネ,0
2271,9290001110918,新規,0,2025-08-01,2025-08-01,株式会社エイトクロス,,株式会社,福岡県,福岡市博多区,博多駅南３丁目１７番１９－１００３号,,40,132,8120016,,,,,,,2025-08-01,1,,,,,エイトクロス,0
2274,9290803005118,新規,0,2025-08-01,2025-08-01,合同会社ＤＩＶＥＲＳＩＴＹ‐ＣＲＥＡＴＩＯＮ,,合同会社,福岡県,北九州市小倉北区,弁天町５番２－１１０４号,,40,106,8030856,,,,,,,2025-08-01,1,,,,,ダイバーシティクリエーション,0
2282,9320002022893,新規,0,2025-08-01,2025-08-01,一橋産業有限会社,,有限会社,大分県,速見郡日出町,大字藤原２５５７番地の１,,44,341,8791502,,,,,,,2025-08-01,1,,,,,,0
2289,9340003004914,新規,0,2025-08-01,2025-08-01,合同会社メガロ,,合同会社,鹿児島県,霧島市,隼人町見次８７３－３,,46,218,8995117,,,,,,,2025-08-01,1,,,,,メガロ,0
2293,9350001019681,新規,0,2025-08-01,2025-08-01,株式会社青空,,株式会社,宮崎県,日向市,東郷町山陰辛７５１番地１,,45,206,8830106,,,,,,,2025-08-01,1,,,,,アオゾラ,0
2295,9360001035389,新規,0,2025-08-01,2025-08-01,株式会社ＳＣジャパン,,株式会社,沖縄県,名護市,東江３丁目１２番９号,,47,209,9050021,,,,,,,2025-08-01,1,,,,,エスシージャパン,0
2296,9360001035546,新規,0,2025-08-01,2025-08-01,株式会社ｔｏｔｏｎｏｅ,,株式会社,沖縄県,浦添市,西洲２丁目１番地１－１Ｆ,,47,208,9012123,,,,,,,2025-08-01,1,,,,,トトノエ,0
2301,9370003007220,新規,0,2025-08-01,2025-08-01,合同会社ｋｏｚｉｉ,,合同会社,宮城県,黒川郡大和町,吉岡南３丁目１１番地の５,,04,421,9813626,,,,,,,2025-08-01,1,,,,,コジー,0
2313,9420001019220,新規,0,2025-08-01,2025-08-01,株式会社Ｂｌｏｏｍａｒｋ,,株式会社,青森県,青森市,本町２丁目１０番６号,,02,201,0300802,,,,,,,2025-08-01,1,,,,,ブルーマーク,0
2323,9430001094915,新規,0,2025-08-01,2025-08-01,株式会社ハートスタック,,株式会社,北海道,札幌市北区,あいの里三条６丁目１０番１０－４０６号,,01,102,0028073,,,,,,,2025-08-01,1,,,,,ハートスタック,0
2324,9450003002700,新規,0,2025-08-01,2025-08-01,合同会社光栄電設,,合同会社,北海道,旭川市,錦町１７丁目２１５１番地の６９,,01,204,0700824,,,,,,,2025-08-01,1,,,,,コウエイデンセツ,0
2325,9460003001065,新規,0,2025-08-01,2025-08-01,合同会社天叶,,合同会社,北海道,釧路市,阿寒町北新町１丁目３０番２９,,01,206,0850216,,,,,,,2025-08-01,1,,,,,テンキョウ,0
2328,9480002016285,新規,0,2025-08-01,2025-08-01,有限会社渡辺ブロック,,有限会社,徳島県,板野郡北島町,中村字東開３４番地,,36,402,7710203,,,,,,,2025-08-01,1,,,,,ワタナベブロック,0
