sequenceNumber,corporateNumber,process,correct,updateDate,changeDate,name,nameImageId,kind,prefectureName,cityName,streetNumber,addressImageId,prefectureCode,cityCode,postCode,addressOutside,addressOutsideImageId,closeDate,closeCause,successorCorporateNumber,changeCause,assignmentDate,latest,enName,enPrefectureName,enCityName,enAddressOutside,furigana,hihyoji
12,1010001240386,新規,0,2023-11-29,2023-11-29,株式会社ＫＳＦＲ１０,,株式会社,東京都,千代田区,内幸町２丁目１番６号,,13,101,1000011,,,,,,,2023-11-29,1,,,,,ケイエスエフアールテン,0
13,1010001240403,新規,0,2023-11-29,2023-11-29,Ｈａｒｍｏｎｙ　Ａｕｔｏ　Ｊａｐａｎ株式会社,,株式会社,東京都,中央区,銀座８丁目１０番３－４０２号,,13,102,1040061,,,,,,,2023-11-29,1,,,,,ハーモニーオートジャパン,0
15,1010003042285,新規,0,2023-11-29,2023-11-29,合同会社エンブルー投資３号,,合同会社,東京都,千代田区,神田須田町１丁目２４－５ＴＨＥＣＲＯＳＳ神田５階,,13,101,1010041,,,,,,,2023-11-29,1,,,,,エンブルートウシサンゴウ,0
20,1010401178648,新規,0,2023-11-29,2023-11-29,Ｑ＆Ａマーケティング株式会社,,株式会社,東京都,港区,新橋３丁目１６－１２第一横山ビル６階,,13,103,1050004,,,,,,,2023-11-29,1,,,,,キューアンドエーマーケティング,0
21,1010401178788,新規,0,2023-11-29,2023-11-29,株式会社プラウド,,株式会社,東京都,港区,浜松町２丁目２番１５号浜松町ダイヤビル２Ｆ,,13,103,1050013,,,,,,,2023-11-29,1,,,,,プラウド,0
22,1010401178805,新規,0,2023-11-29,2023-11-29,株式会社Ｏｎｅ＆Ｏｎｌｙ,,株式会社,東京都,港区,港南１丁目６－３３～１８０３,,13,103,1080075,,,,,,,2023-11-29,1,,,,,ワンアンドオンリー,0
23,1010403031466,新規,0,2023-11-29,2023-11-29,合同会社ＴＳＭ１６２,,合同会社,東京都,港区,元赤坂１丁目１番７号,,13,103,1070051,,,,,,,2023-11-29,1,,,,,ティーエスエムヒャクロクジュウニ,0
25,1010501051432,新規,0,2023-11-29,2023-11-29,ＳＬ株式会社,,株式会社,東京都,台東区,東上野１丁目９番３号ハローレジデンス東上野２０１,,13,106,1100015,,,,,,,2023-11-29,1,,,,,エスエル,0
28,1010801034558,新規,0,2023-11-29,2023-11-29,株式会社ｃｏａｉｎｅ,,株式会社,東京都,大田区,上池台４丁目１８番２０号,,13,111,1450064,,,,,,,2023-11-29,1,,,,,コアイネ,0
30,1010901054258,新規,0,2023-11-29,2023-11-29,株式会社いきびと,,株式会社,東京都,世田谷区,深沢６丁目２２番１４号,,13,112,1580081,,,,,,,2023-11-29,1,,,,,イキビト,0
35,1011001158049,新規,0,2023-11-29,2023-11-29,株式会社ＲＯＹＡＬ　ＪＡＰＡＮ,,株式会社,東京都,渋谷区,桜丘町２６番１号セルリアンタワー１５階,,13,113,1500031,,,,,,,2023-11-29,1,,,,,ロイヤルジャパン,0
36,1011001158478,新規,0,2023-11-29,2023-11-29,Ｓｕｎｊｏｙ株式会社,,株式会社,東京都,渋谷区,南平台町６番１１号,,13,113,1500036,,,,,,,2023-11-29,1,,,,,サンジョイ,0
38,1011101105289,新規,0,2023-11-29,2023-11-29,株式会社ＯＺＰＡＲＫ,,株式会社,東京都,新宿区,余丁町８番１１号ビジネスワン５０５号室,,13,104,1620055,,,,,,,2023-11-29,1,,,,,オズパーク,0
39,1011103013804,新規,0,2023-11-29,2023-11-29,合同会社ポチニキ,,合同会社,東京都,新宿区,西新宿３丁目３番１３号西新宿水間ビル２Ｆ,,13,104,1600023,,,,,,,2023-11-29,1,,,,,ポチニキ,0
44,1011401025617,新規,0,2023-11-29,2023-11-29,ニューソフトコンサルティング株式会社,,株式会社,東京都,板橋区,南常盤台１丁目４－４－４０１,,13,119,1740072,,,,,,,2023-11-29,1,,,,,ニューソフトコンサルティング,0
45,1011401025641,新規,0,2023-11-29,2023-11-29,株式会社ファイブトラスト,,株式会社,東京都,板橋区,東山町３３番５号,,13,119,1740073,,,,,,,2023-11-29,1,,,,,ファイブトラスト,0
48,1011501030005,新規,0,2023-11-29,2023-11-29,ポイエン科学技術株式会社,,株式会社,東京都,荒川区,南千住３丁目２７－２浅草ビル,,13,118,1160003,,,,,,,2023-11-29,1,,,,,ポイエンカガクテクノロジー,0
49,1011501030054,新規,0,2023-11-29,2023-11-29,維楽日本株式会社,,株式会社,東京都,北区,王子５丁目３０番１－９１６号,,13,117,1140002,,,,,,,2023-11-29,1,,,,,イラクニホン,0
57,1011801043417,新規,0,2023-11-29,2023-11-29,株式会社重商,,株式会社,東京都,足立区,竹の塚１丁目２９番７号庄栄ビル２．４階,00132818,13,121,1210813,,,,,,,2023-11-29,1,,,,,シゲショウ,0
62,1012401041273,新規,0,2023-11-29,2023-11-29,アレソワ株式会社,,株式会社,東京都,府中市,四谷３丁目５２番地の２６,,13,206,1830035,,,,,,,2023-11-29,1,,,,,アレソワ,0
63,1012403006299,新規,0,2023-11-29,2023-11-29,リレル合同会社,,合同会社,東京都,武蔵野市,吉祥寺本町１丁目２０番１号吉祥寺永谷シティプラザ１００２,,13,203,1800004,,,,,,,2023-11-29,1,,,,,リレル,0
68,1013301051668,新規,0,2023-11-29,2023-11-29,株式会社ｂａｍｒｉｂａ,,株式会社,東京都,豊島区,巣鴨３丁目２５－１０バロンハイツ巣鴨２Ｆ,,13,116,1700002,,,,,,,2023-11-29,1,,,,,バンリバ,0
69,1013301051692,新規,0,2023-11-29,2023-11-29,株式会社Ｉ．Ｒ．Ｆ,,株式会社,東京都,豊島区,西池袋１丁目３８番３号５階,,13,116,1710021,,,,,,,2023-11-29,1,,,,,アイアールエフ,0
81,1020003025090,新規,0,2023-11-29,2023-11-29,合同会社岳,,合同会社,神奈川県,川崎市麻生区,王禅寺西２丁目３６番１１－２号,,14,137,2150017,,,,,,,2023-11-29,1,,,,,ガク,0
86,1021003013845,新規,0,2023-11-29,2023-11-29,合同会社いろとりどり,,合同会社,神奈川県,茅ヶ崎市,菱沼１丁目４番３０－２号,,14,207,2530011,,,,,,,2023-11-29,1,,,,,イロトリドリ,0
95,1030001157298,新規,0,2023-11-29,2023-11-29,株式会社Ｄ．Ｍ　ＩＮＴＥＲＮＡＴＩＯＮＡＬ,,株式会社,埼玉県,羽生市,大字稲子３６番地５,,11,216,3480061,,,,,,,2023-11-29,1,,,,,ディエムインターナショナル,0
96,1030001157372,新規,0,2023-11-29,2023-11-29,株式会社ｈｏｔａｔｅ,,株式会社,埼玉県,川口市,本町４丁目５番２６号,,11,203,3320012,,,,,,,2023-11-29,1,,,,,ホタテ,0
97,1030001157380,新規,0,2023-11-29,2023-11-29,株式会社ＶＮＶ　ＩＮＴＥＲＮＡＴＩＯＮＡＬ,,株式会社,埼玉県,さいたま市大宮区,三橋２丁目５３９番地３,,11,103,3300856,,,,,,,2023-11-29,1,,,,,ブイエヌブイインターナショナル,0
98,1030001157389,新規,0,2023-11-29,2023-11-29,思鋭日本株式会社,,株式会社,埼玉県,川口市,西川口１丁目１９番１０号ホワイトハウスＫ２０１,,11,203,3320021,,,,,,,2023-11-29,1,,,,,シエイニホン,0
99,1030001157422,新規,0,2023-11-29,2023-11-29,ＬＩＮＧ　ＬＵＮ技術貿易株式会社,,株式会社,埼玉県,川越市,大字山田６５７番地１０,,11,201,3500822,,,,,,,2023-11-29,1,,,,,リンルンギジュツボウエキ,0
111,1040001131120,新規,0,2023-11-29,2023-11-29,株式会社ＷＩＬＬ　ＢＥフィットネス,,株式会社,千葉県,茂原市,茂原３３９番地２,,12,210,2970026,,,,,,,2023-11-29,1,,,,,ウィルビーフィットネス,0
112,1040001131129,新規,0,2023-11-29,2023-11-29,フォレストサービス株式会社,,株式会社,千葉県,木更津市,大和２丁目６番８号１０３,,12,206,2920805,,,,,,,2023-11-29,1,,,,,フォレストサービス,0
113,1040001131145,新規,0,2023-11-29,2023-11-29,株式会社三陽,,株式会社,千葉県,千葉市稲毛区,園生町１３７番地１,,12,103,2630051,,,,,,,2023-11-29,1,,,,,サンヨウ,0
116,1040003023828,新規,0,2023-11-29,2023-11-29,合同会社すばるコンサルタント,,合同会社,千葉県,成田市,囲護台３丁目２番地３－４０２号室,,12,211,2860035,,,,,,,2023-11-29,1,,,,,スバルコンサルタント,0
118,1050001053875,新規,0,2023-11-29,2023-11-29,株式会社セブンビーロジ,,株式会社,茨城県,古河市,上辺見２６７３番,,08,204,3060234,,,,,,,2023-11-29,1,,,,,セブンビーロジ,0
123,1080001025995,新規,0,2023-11-29,2023-11-29,株式会社四ツ葉ホーム,,株式会社,静岡県,静岡市清水区,梅ヶ谷５２７番地の１,,22,103,4240001,,,,,,,2023-11-29,1,,,,,ヨツバホーム,0
124,1080001026003,新規,0,2023-11-29,2023-11-29,ムッツ株式会社,,株式会社,静岡県,静岡市葵区,三番町２２番地の２１,,22,101,4200073,,,,,,,2023-11-29,1,,,,,ムッツ,0
126,1080401026858,新規,0,2023-11-29,2023-11-29,株式会社Ｗａｋｋａ,,株式会社,静岡県,浜松市西区,馬郡町４０５０番地,,22,133,4310203,,,,,,,2023-11-29,1,,,,,ワッカ,0
128,1100001037006,新規,0,2023-11-29,2023-11-29,株式会社庄村商会,,株式会社,長野県,長野市,篠ノ井塩崎３７７４番地６,,20,201,3888014,,,,,,,2023-11-29,1,,,,,ショウムラショウカイ,0
129,1100001037014,新規,0,2023-11-29,2023-11-29,長野救急警備株式会社,,株式会社,長野県,塩尻市,大字広丘吉田１１４９番地３オフィスオオタ２０３,,20,215,3990701,,,,,,,2023-11-29,1,,,,,ナガノキュウキュウケイビ,0
148,1120001260225,新規,0,2023-11-29,2023-11-29,Ｐａｒｅｔｏ株式会社,,株式会社,大阪府,守口市,寺方錦通２丁目６番２１号,,27,209,5700042,,,,,,,2023-11-29,1,,,,,パレート,0
149,1120001260241,新規,0,2023-11-29,2023-11-29,株式会社ｎｏｕ　ｉｎｃ．,,株式会社,大阪府,大阪市中央区,東心斎橋２丁目４番２９号周防町ギャラクシービル４階,,27,128,5420083,,,,,,,2023-11-29,1,,,,,ノーインク,0
154,1120003025386,新規,0,2023-11-29,2023-11-29,合同会社Ｐａｓａｐａｓ,,合同会社,大阪府,大阪市北区,堂山町１番５号三共梅田ビル７階,,27,127,5300027,,,,,,,2023-11-29,1,,,,,パザパ,0
157,1120005024015,新規,0,2023-11-29,2023-11-29,一般社団法人不動産あんしん相談センター,,その他の設立登記法人,大阪府,大阪市中央区,平野町１丁目７番１号堺筋高橋ビル５Ｆ,,27,128,5410046,,,,,,,2023-11-29,1,,,,,フドウサンアンシンソウダンセンター,0
161,1120103005552,新規,0,2023-11-29,2023-11-29,合同会社ＯＭＯＲＯ,,合同会社,大阪府,堺市中区,楢葉１７０番地２１,,27,142,5998252,,,,,,,2023-11-29,1,,,,,オモロ,0
163,1120903004943,新規,0,2023-11-29,2023-11-29,合同会社トクつむ,,合同会社,大阪府,高槻市,深沢本町１２番４０号,,27,207,5690033,,,,,,,2023-11-29,1,,,,,トクツム,0
172,1140001132505,新規,0,2023-11-29,2023-11-29,株式会社Ｃ・Ｐ・Ｇ貿易,,株式会社,兵庫県,神戸市中央区,脇浜町３丁目２番２号脇浜マンション１Ｆ,,28,110,6510072,,,,,,,2023-11-29,1,,,,,シーピージーボウエキ,0
173,1140001132513,新規,0,2023-11-29,2023-11-29,株式会社ＺＥＥＫ,,株式会社,兵庫県,姫路市,東辻井３丁目８－１１ＤｉｏＭｉｏ東辻井１０２号,00132819,28,201,6700084,,,,,,,2023-11-29,1,,,,,ジーク,0
175,1140003019865,新規,0,2023-11-29,2023-11-29,合同会社コイキルダ,,合同会社,兵庫県,姫路市,大塩町汐咲２丁目１０番地－４０３号,,28,201,6710102,,,,,,,2023-11-29,1,,,,,コイキルダ,0
194,1180003026049,新規,0,2023-11-29,2023-11-29,合同会社塗神,,合同会社,愛知県,岩倉市,大地町蕎麦田２８番地２,,23,228,4820026,,,,,,,2023-11-29,1,,,,,トシン,0
200,1190001030919,新規,0,2023-11-29,2023-11-29,株式会社竹田,,株式会社,三重県,津市,一志町田尻５５２番地１,,24,201,5152516,,,,,,,2023-11-29,1,,,,,タケダ,0
205,1200001041930,新規,0,2023-11-29,2023-11-29,森松Ｔ＆Ｓ準備株式会社,,株式会社,岐阜県,本巣市,見延１４３０番地の８,,21,218,5010413,,,,,,,2023-11-29,1,,,,,モリマツティーアンドエスジュンビ,0
209,1240001062469,新規,0,2023-11-29,2023-11-29,株式会社Ｎｏ．Ｖｉｌｌａｇｅ,,株式会社,広島県,広島市南区,大州２丁目５番２１号,,34,103,7320802,,,,,,,2023-11-29,1,,,,,ナンバービレッジ,0
225,1290001103854,新規,0,2023-11-29,2023-11-29,株式会社トヨタクション,,株式会社,福岡県,久留米市,上津町２１４５番地２,,40,203,8300052,,,,,,,2023-11-29,1,,,,,トヨタクション,0
231,1320001020162,新規,0,2023-11-29,2023-11-29,すばるコンサルティング株式会社,,株式会社,大分県,大分市,中島西３丁目７番９号ナイスモア中島２０１,,44,201,8700047,,,,,,,2023-11-29,1,,,,,スバルコンサルティング,0
233,1330001031514,新規,0,2023-11-29,2023-11-29,株式会社アグリリゾート熊本,,株式会社,熊本県,熊本市中央区,水道町４番１１号,,43,101,8600844,,,,,,,2023-11-29,1,,,,,アグリリゾートクマモト,0
237,1340001026100,新規,0,2023-11-29,2023-11-29,株式会社マサゴ商事,,株式会社,鹿児島県,鹿児島市,真砂本町１２番２－５０１号,,46,201,8900067,,,,,,,2023-11-29,1,,,,,マサゴショウジ,0
240,1350001018674,新規,0,2023-11-29,2023-11-29,株式会社山田産業,,株式会社,宮崎県,日向市,梶木町１丁目６０,,45,206,8830053,,,,,,,2023-11-29,1,,,,,ヤマダサンギョウ,0
243,1360001032872,新規,0,2023-11-29,2023-11-29,株式会社沖縄計装商事,,株式会社,沖縄県,那覇市,泊３丁目５番地７,,47,201,9000012,,,,,,,2023-11-29,1,,,,,オキナワケイソウショウジ,0
245,1360005006947,新規,0,2023-11-29,2023-11-29,特定非営利活動法人沖縄がん教育サポートセンター,,その他の設立登記法人,沖縄県,那覇市,赤嶺２丁目１番地の９,,47,201,9010154,,,,,,,2023-11-29,1,,,,,オキナワガンキョウイクサポートセンター,0
254,1420005007872,新規,0,2023-11-29,2023-11-29,一般社団法人ｒｉｐｐｌｅ,,その他の設立登記法人,青森県,弘前市,大字城南２丁目２番地４,,02,202,0368232,,,,,,,2023-11-29,1,,,,,リップル,0
256,1430001090525,新規,0,2023-11-29,2023-11-29,株式会社ｏｆｆｉｃｅ　Ｒ,,株式会社,北海道,札幌市白石区,本通１２丁目南１番９号,,01,104,0030026,,,,,,,2023-11-29,1,,,,,オフィスアール,0
258,1430002066945,新規,0,2023-11-29,2023-11-29,有限会社浅川牧場,,有限会社,北海道,新冠郡新冠町,字朝日１３１番地,,01,604,0592414,,,,,,,2023-11-29,1,,,,,アサカワボクジョウ,0
260,1480001012301,新規,0,2023-11-29,2023-11-29,株式会社三徳,,株式会社,徳島県,徳島市,津田海岸町４番１号,,36,201,7708001,,,,,,,2023-11-29,1,,,,,サントク,0
261,1490003001838,新規,0,2023-11-29,2023-11-29,合同会社白鷺,,合同会社,高知県,高知市,南はりまや町１丁目７番１９号ＴＡＫＥＤＡビル５階,,39,201,7800833,,,,,,,2023-11-29,1,,,,,シラサギ,0
273,2010001240419,新規,0,2023-11-29,2023-11-29,株式会社ビジネスワンプラス,,株式会社,東京都,千代田区,岩本町１丁目１１－２Ａ－ＲＩＳＥ神田ビル８階,,13,101,1010032,,,,,,,2023-11-29,1,,,,,ビジネスワンプラス,0
275,2010003042284,新規,0,2023-11-29,2023-11-29,合同会社エンブルー投資２号,,合同会社,東京都,千代田区,神田須田町１丁目２４－５ＴＨＥＣＲＯＳＳ神田５階,,13,101,1010041,,,,,,,2023-11-29,1,,,,,エンブルートウシニゴウ,0
276,2010003042318,新規,0,2023-11-29,2023-11-29,合同会社ソーラーオークション,,合同会社,東京都,千代田区,九段北１丁目１３番１号九段中坂ビル４階,,13,101,1020073,,,,,,,2023-11-29,1,,,,,ソーラーオークション,0
278,2010103002262,新規,0,2023-11-29,2023-11-29,Ｃ５Ｈ５ＧａＭｅｓ　Ｊａｐａｎ合同会社,,合同会社,東京都,八王子市,北野町５３４－５ハイツ東山Ａ棟４０５号室,,13,201,1920906,,,,,,,2023-11-29,1,,,,,シーファイブエイチファイブゲームスジャパン,0
290,2010401178787,新規,0,2023-11-29,2023-11-29,クラレス株式会社,,株式会社,東京都,港区,新橋６丁目４番３号ル・グラシエルＢＬＤＧ．７・４２３号室,,13,103,1050004,,,,,,,2023-11-29,1,,,,,クラレス,0
296,2010601064226,新規,0,2023-11-29,2023-11-29,株式会社日本総合住宅,,株式会社,東京都,墨田区,向島３丁目４番１０号２階,,13,107,1310033,,,,,,,2023-11-29,1,,,,,ニホンソウゴウジュウタク,0
299,2010705003567,新規,0,2023-11-29,2023-11-29,一般社団法人復旦大学日本校友会,,その他の設立登記法人,東京都,品川区,西五反田８丁目８番１６号,,13,109,1410031,,,,,,,2023-11-29,1,,,,,フクタンダイガクニホンコウユウカイ,0
305,2011001158469,新規,0,2023-11-29,2023-11-29,株式会社ｃｒｏｓｓ　ｃｏｍｍｅｒｃｅ,,株式会社,東京都,渋谷区,千駄ヶ谷２丁目３－２－２０１,,13,113,1510051,,,,,,,2023-11-29,1,,,,,クロスコマース,0
306,2011001158477,新規,0,2023-11-29,2023-11-29,フードエム株式会社,,株式会社,東京都,渋谷区,円山町５番５号Ｎａｖｉ渋谷Ｖ３階,00132817,13,113,1500044,,,,,,,2023-11-29,1,,,,,フードエム,0
307,2011001158493,新規,0,2023-11-29,2023-11-29,ＬＢＬ株式会社,,株式会社,東京都,渋谷区,渋谷２丁目１９－１５宮益坂ビルディング６０９,,13,113,1500002,,,,,,,2023-11-29,1,,,,,エルビーエル,0
308,2011001158510,新規,0,2023-11-29,2023-11-29,株式会社アイテック,,株式会社,東京都,渋谷区,恵比寿西２丁目８番４号ＥＸ恵比寿西ビル５階,,13,113,1500021,,,,,,,2023-11-29,1,,,,,アイテック,0
309,2011003017994,新規,0,2023-11-29,2023-11-29,合同会社ｉｒｏｄｏｒｉ,,合同会社,東京都,渋谷区,道玄坂１丁目１０番８号渋谷道玄坂東急ビル２Ｆ－Ｃ,,13,113,1500043,,,,,,,2023-11-29,1,,,,,イロドリ,0
310,2011003018002,新規,0,2023-11-29,2023-11-29,合同会社森元気建築設計事務所,,合同会社,東京都,目黒区,下目黒１丁目１番１４号コノトラビル７Ｆ,,13,110,1530064,,,,,,,2023-11-29,1,,,,,モリゲンキケンチクセッケイジムショ,0
311,2011003018010,新規,0,2023-11-29,2023-11-29,合同会社キン,,合同会社,東京都,渋谷区,代々木３丁目４９番６号フォレスト代々木Ｃ３０１,,13,113,1510053,,,,,,,2023-11-29,1,,,,,キン,0
316,2011103013803,新規,0,2023-11-29,2023-11-29,合同会社Ｋｏｒａｓ,,合同会社,東京都,新宿区,新宿２丁目２－１ビューシティ新宿御苑１００７,,13,104,1600022,,,,,,,2023-11-29,1,,,,,コーラス,0
320,2011403004188,新規,0,2023-11-29,2023-11-29,合同会社イーストメディカル,,合同会社,東京都,板橋区,南常盤台１丁目１１番６号レフア南常盤台１０１号室,,13,119,1740072,,,,,,,2023-11-29,1,,,,,イーストメディカル,0
322,2011501030053,新規,0,2023-11-29,2023-11-29,源水株式会社,,株式会社,東京都,北区,浮間１丁目１－１４リムジンビル１１４号室,,13,117,1150051,,,,,,,2023-11-29,1,,,,,ゲンスイ,0
330,2012301013669,新規,0,2023-11-29,2023-11-29,株式会社ＴＡＫＡＨＡＳＨＩ　ＲＥＰＡＩＲ,,株式会社,東京都,町田市,金井ヶ丘１丁目３２番４号,,13,209,1950076,,,,,,,2023-11-29,1,,,,,タカハシリペア,0
332,2012401041272,新規,0,2023-11-29,2023-11-29,クロスビレッジ株式会社,,株式会社,東京都,小金井市,梶野町４丁目１６番１６号,,13,210,1840002,,,,,,,2023-11-29,1,,,,,クロスビレッジ,0
337,2013303006891,新規,0,2023-11-29,2023-11-29,合同会社シェファーズパース,,合同会社,東京都,豊島区,巣鴨５丁目２０番８号,,13,116,1700002,,,,,,,2023-11-29,1,,,,,シェファーズパース,0
342,2020001154642,新規,0,2023-11-29,2023-11-29,株式会社Ｋ‐ｃｏｍｐａｎｙ,,株式会社,神奈川県,横浜市磯子区,岡村４丁目１４番３号,,14,107,2350021,,,,,,,2023-11-29,1,,,,,ケーカンパニー,0
343,2020001154667,新規,0,2023-11-29,2023-11-29,ＧＡＲＤＥＮ　ＣＯＦＦＥＥ株式会社,,株式会社,神奈川県,横浜市旭区,若葉台３丁目７番２号,,14,112,2410801,,,,,,,2023-11-29,1,,,,,ガーデンコーヒー,0
345,2020003024959,新規,0,2023-11-29,2023-11-29,佑コンサルティング合同会社,,合同会社,神奈川県,横浜市西区,浅間町１丁目４番３号ウィザードビル４０２,,14,103,2200072,,,,,,,2023-11-29,1,,,,,タスクコンサルティング,0
346,2020003025073,新規,0,2023-11-29,2023-11-29,合同会社オートメトリックス・サービス,,合同会社,神奈川県,川崎市中原区,新丸子東３丁目１１１１番地１－４１０,,14,133,2110004,,,,,,,2023-11-29,1,,,,,オートメトリックスサービス,0
350,2021001080853,新規,0,2023-11-29,2023-11-29,株式会社ＮＡＯ,,株式会社,神奈川県,藤沢市,白旗３丁目７番２２－２号,,14,205,2510051,,,,,,,2023-11-29,1,,,,,エヌエーオー,0
351,2021001080861,新規,0,2023-11-29,2023-11-29,株式会社ルリアン,,株式会社,神奈川県,相模原市南区,磯部２１９－３,,14,153,2520327,,,,,,,2023-11-29,1,,,,,ルリアン,0
360,2030001157330,新規,0,2023-11-29,2023-11-29,株式会社ＡＩ’ｓ,,株式会社,埼玉県,草加市,谷塚上町６９３番地１,,11,221,3400024,,,,,,,2023-11-29,1,,,,,アイズ,0
361,2030001157388,新規,0,2023-11-29,2023-11-29,株式会社ＫＡＩＳＥＩ,,株式会社,埼玉県,川口市,北原台１丁目１２番２１－３１５号,,11,203,3330815,,,,,,,2023-11-29,1,,,,,カイセイ,0
362,2030001157421,新規,0,2023-11-29,2023-11-29,トップグリット株式会社,,株式会社,埼玉県,さいたま市中央区,上落合２丁目１１番７号びゅうサイトタワー２２０５号,,11,105,3380001,,,,,,,2023-11-29,1,,,,,トップグリット,0
365,2030003023092,新規,0,2023-11-29,2023-11-29,エコノミーホテルサービス合同会社,,合同会社,埼玉県,草加市,新里町１４２２番地ヴィシティ草加弐番館５０５号室,,11,221,3400031,,,,,,,2023-11-29,1,,,,,エコノミーホテルサービス,0
366,2030005021482,新規,0,2023-11-29,2023-11-29,特定非営利活動法人おおぞらネットワーク,,その他の設立登記法人,埼玉県,本庄市,北堀１４２２番地３,,11,211,3670031,,,,,,,2023-11-29,1,,,,,オオゾラネットワーク,0
377,2040001131144,新規,0,2023-11-29,2023-11-29,株式会社ゲームデザインラボ,,株式会社,千葉県,市川市,宮久保２丁目１５番２号,,12,203,2720822,,,,,,,2023-11-29,1,,,,,ゲームデザインラボ,0
379,2040003023819,新規,0,2023-11-29,2023-11-29,合同会社全力舎,,合同会社,千葉県,千葉市花見川区,幕張本郷３丁目３０番４号ライオンズマンション幕張本郷第３－６０２号,,12,102,2620033,,,,,,,2023-11-29,1,,,,,ゼンリョクシャ,0
380,2040003023827,新規,0,2023-11-29,2023-11-29,Ｍ．Ｉ．Ｚ合同会社,,合同会社,千葉県,千葉市稲毛区,山王町２１－１５,,12,103,2630002,,,,,,,2023-11-29,1,,,,,ミズ,0
404,2070001041118,新規,0,2023-11-29,2023-11-29,株式会社照,,株式会社,群馬県,桐生市,新里町新川１４２９番地６,,10,203,3760121,,,,,,,2023-11-29,1,,,,,テル,0
405,2070001041126,新規,0,2023-11-29,2023-11-29,株式会社トラスチック,,株式会社,群馬県,伊勢崎市,豊城町２１０４番地１－１Ｆ,,10,204,3720012,,,,,,,2023-11-29,1,,,,,トラスチック,0
424,2120001260174,新規,0,2023-11-29,2023-11-29,株式会社グリットワン,,株式会社,大阪府,大阪市生野区,巽東１丁目１－１－３２荻田ビル６階,00132821,27,116,5440014,,,,,,,2023-11-29,1,,,,,グリットワン,0
425,2120001260190,新規,0,2023-11-29,2023-11-29,株式会社グローウィングアップ,,株式会社,大阪府,大阪市中央区,上本町西５丁目２番２４－７０１号,,27,128,5420062,,,,,,,2023-11-29,1,,,,,グローウィングアップ,0
426,2120001260208,新規,0,2023-11-29,2023-11-29,大愚株式会社,,株式会社,大阪府,大阪市生野区,生野西１丁目１５番２－３０１号,,27,116,5440024,,,,,,,2023-11-29,1,,,,,ダイグ,0
435,2120101068591,新規,0,2023-11-29,2023-11-29,株式会社ディレクション,,株式会社,大阪府,堺市堺区,浅香山町２丁４－１６－２０３号,,27,141,5900012,,,,,,,2023-11-29,1,,,,,ディレクション,0
436,2120101068617,新規,0,2023-11-29,2023-11-29,株式会社悠栄,,株式会社,大阪府,泉大津市,清水町１３番２８号,,27,206,5950043,,,,,,,2023-11-29,1,,,,,ユウエイ,0
438,2120901048421,新規,0,2023-11-29,2023-11-29,株式会社ＲＥＳＨ,,株式会社,大阪府,吹田市,江の木町１１番３８号,,27,205,5640053,,,,,,,2023-11-29,1,,,,,レッシュ,0
441,2122001037610,新規,0,2023-11-29,2023-11-29,株式会社Ｅｌｅｆａｎｔ,,株式会社,大阪府,東大阪市,小若江３丁目６番９号,,27,227,5770818,,,,,,,2023-11-29,1,,,,,エレファント,0
445,2130001075794,新規,0,2023-11-29,2023-11-29,株式会社瑠璃,,株式会社,京都府,京都市山科区,日ノ岡堤谷町６１番地２９,,26,110,6078494,,,,,,,2023-11-29,1,,,,,ルリ,0
446,2130001075828,新規,0,2023-11-29,2023-11-29,株式会社ＳＰＩＣＥ　ＨＯＬＩＣ,,株式会社,京都府,京都市中京区,烏丸通蛸薬師下る手洗水町６５１番地１,,26,104,6048152,,,,,,,2023-11-29,1,,,,,スパイスホリック,0
457,2180001159080,新規,0,2023-11-29,2023-11-29,株式会社Ｓｕｚｕｗｉｎ,,株式会社,愛知県,瀬戸市,瘤木町３９番地,,23,204,4890879,,,,,,,2023-11-29,1,,,,,スズウィン,0
458,2180001159097,新規,0,2023-11-29,2023-11-29,株式会社沢秋,,株式会社,愛知県,海部郡大治町,大字西條字壱町田２６番地５,,23,424,4901144,,,,,,,2023-11-29,1,,,,,サワアキ,0
459,2180001159130,新規,0,2023-11-29,2023-11-29,株式会社ＵＮＩＬＩＮＫ,,株式会社,愛知県,名古屋市名東区,猪子石１丁目２４０５番地,,23,115,4650021,,,,,,,2023-11-29,1,,,,,ユニリンク,0
463,2180301038059,新規,0,2023-11-29,2023-11-29,株式会社ファーベル,,株式会社,愛知県,豊田市,若草町３丁目２６－２,,23,211,4710061,,,,,,,2023-11-29,1,,,,,ファーベル,0
464,2180301038067,新規,0,2023-11-29,2023-11-29,猫の手株式会社,,株式会社,愛知県,豊橋市,野依町字上地５１番地１,,23,201,4418124,,,,,,,2023-11-29,1,,,,,ネコノテ,0
468,2240001062484,新規,0,2023-11-29,2023-11-29,株式会社ＮＯＺＯＭＩ,,株式会社,広島県,広島市西区,草津新町２丁目９番９－１０４号,,34,104,7330834,,,,,,,2023-11-29,1,,,,,ノゾミ,0
472,2260003004508,新規,0,2023-11-29,2023-11-29,合同会社レアレア,,合同会社,岡山県,岡山市北区,白石５７２番地１０アーバンライフ白石１０５号室,,33,101,7010143,,,,,,,2023-11-29,1,,,,,レアレア,0
477,2290001103837,新規,0,2023-11-29,2023-11-29,株式会社大興,,株式会社,福岡県,久留米市,東町３３番地１,,40,203,8300032,,,,,,,2023-11-29,1,,,,,ダイコウ,0
493,2340001026099,新規,0,2023-11-29,2023-11-29,ＣＢＴＬ　ＪＡＰＡＮ株式会社,,株式会社,鹿児島県,鹿児島市,荒田２丁目７６番地２１,,46,201,8900054,,,,,,,2023-11-29,1,,,,,シービーティーエルジャパン,0
496,2350001018681,新規,0,2023-11-29,2023-11-29,株式会社ＳＤＴテクノ,,株式会社,宮崎県,東臼杵郡門川町,須賀崎５丁目３５番地,,45,421,8890601,,,,,,,2023-11-29,1,,,,,エスディティテクノ,0
503,2380001034156,新規,0,2023-11-29,2023-11-29,株式会社ワイズ建営工業,,株式会社,福島県,郡山市,島２丁目１０番１４号,,07,203,9638034,,,,,,,2023-11-29,1,,,,,ワイズケンエイコウギョウ,0
530,3010003042309,新規,0,2023-11-29,2023-11-29,ボンズリレーション合同会社,,合同会社,東京都,中央区,日本橋兜町１７番２号兜町第６葉山ビル４Ｆ,,13,102,1030026,,,,,,,2023-11-29,1,,,,,ボンズリレーション,0
531,3010003042325,新規,0,2023-11-29,2023-11-29,合同会社ＫＳＧ８,,合同会社,東京都,千代田区,内幸町２丁目１番６号,,13,101,1000011,,,,,,,2023-11-29,1,,,,,ケイエスジーエイト,0
543,3010401178753,新規,0,2023-11-29,2023-11-29,株式会社愛幸,,株式会社,東京都,港区,高輪３丁目２３番１４号,,13,103,1080074,,,,,,,2023-11-29,1,,,,,アイコウ,0
545,3010403031464,新規,0,2023-11-29,2023-11-29,Ａｍｕｎ土地合同会社,,合同会社,東京都,港区,六本木１丁目１０番３－９０１号スウェーデン大使館ビル内,,13,103,1060032,,,,,,,2023-11-29,1,,,,,アムントチ,0
557,3010901054090,新規,0,2023-11-29,2023-11-29,Ｂｉｇ　Ｃｅｄａｒ　Ｅｓｔａｔｅ株式会社,,株式会社,東京都,世田谷区,玉川３丁目２０番２号マノア玉川第３・５０１号室,,13,112,1580094,,,,,,,2023-11-29,1,,,,,ビグシーダーエステート,0
558,3010903008623,新規,0,2023-11-29,2023-11-29,Ａ‐Ｌｉｆｅ合同会社,,合同会社,東京都,世田谷区,成城８丁目１１番１０号,,13,112,1570066,,,,,,,2023-11-29,1,,,,,エーライフ,0
567,3011001158451,新規,0,2023-11-29,2023-11-29,株式会社東京ヨガ企画,,株式会社,東京都,渋谷区,桜丘町２３番１７号シティコート桜丘４０８,,13,113,1500031,,,,,,,2023-11-29,1,,,,,トウキョウヨガキカク,0
568,3011001158468,新規,0,2023-11-29,2023-11-29,株式会社ａｎｄ　ｃｈｅｅｒ,,株式会社,東京都,渋谷区,恵比寿西２丁目８番４号ＥＸ恵比寿西ビル５階,,13,113,1500021,,,,,,,2023-11-29,1,,,,,アンドチア,0
569,3011001158484,新規,0,2023-11-29,2023-11-29,株式会社ＯＯＡＡＣＣ,,株式会社,東京都,渋谷区,神宮前３丁目２７番１４号,,13,113,1500001,,,,,,,2023-11-29,1,,,,,オアシー,0
571,3011003017993,新規,0,2023-11-29,2023-11-29,合同会社瞬景,,合同会社,東京都,渋谷区,道玄坂１丁目１０番８号渋谷道玄坂東急ビル２Ｆ－Ｃ,,13,113,1500043,,,,,,,2023-11-29,1,,,,,シュンケイ,0
572,3011005010286,新規,0,2023-11-29,2023-11-29,一般社団法人ＡＭＩＴＩＥ　ＳＡＮＳ　ＦＲＯＮＴＩＥＲＥＳ,,その他の設立登記法人,東京都,渋谷区,神山町３１番１号,,13,113,1500047,,,,,,,2023-11-29,1,,,,,アミチエソンフロンティエール,0
575,3011101105262,新規,0,2023-11-29,2023-11-29,株式会社Ｄａｎｔｅ,,株式会社,東京都,新宿区,新宿７丁目２６番７－４０４号,,13,104,1600022,,,,,,,2023-11-29,1,,,,,ダンテ,0
576,3011101105270,新規,0,2023-11-29,2023-11-29,株式会社アトランティス,,株式会社,東京都,新宿区,歌舞伎町１丁目９番１０号,,13,104,1600021,,,,,,,2023-11-29,1,,,,,アトランティス,0
577,3011103013785,新規,0,2023-11-29,2023-11-29,Ｔｈｅ　Ｊａｐａｎ　Ｐｌｕｇ合同会社,,合同会社,東京都,新宿区,百人町１丁目２４－８新宿タウンプラザビル３Ｆ－Ｋ,,13,104,1690073,,,,,,,2023-11-29,1,,,,,ザジャパンプラグ,0
580,3011301029204,新規,0,2023-11-29,2023-11-29,株式会社ｄｏｔ,,株式会社,東京都,杉並区,和泉１丁目１３番１９号センチュリーＫＤ３０２,,13,115,1680063,,,,,,,2023-11-29,1,,,,,ドット,0
582,3011403004187,新規,0,2023-11-29,2023-11-29,ＭａｅＮｏｍｅＲｉ合同会社,,合同会社,東京都,板橋区,上板橋１丁目１９番１６号,,13,119,1740076,,,,,,,2023-11-29,1,,,,,マエノメリ,0
585,3011701026800,新規,0,2023-11-29,2023-11-29,株式会社ＭＡＢＯ’Ｓ,,株式会社,東京都,江戸川区,上一色３丁目１１番３－２０１号,,13,123,1330041,,,,,,,2023-11-29,1,,,,,マーボーズ,0
591,3012402014227,新規,0,2023-11-29,2023-11-29,有限会社ランブル,,有限会社,東京都,国立市,西１丁目１７番地の３,,13,215,1860005,,,,,,,2023-11-29,1,,,,,ランブル,0
592,3013101009294,新規,0,2023-11-29,2023-11-29,株式会社カラテア,,株式会社,東京都,青梅市,長淵８丁目１２－７,,13,205,1980052,,,,,,,2023-11-29,1,,,,,,0
594,3013301051658,新規,0,2023-11-29,2023-11-29,宏盛株式会社,,株式会社,東京都,豊島区,池袋２丁目６５－１,,13,116,1710014,,,,,,,2023-11-29,1,,,,,,0
598,3020001154658,新規,0,2023-11-29,2023-11-29,株式会社ＳＨフォクリフトソリューション,,株式会社,神奈川県,横浜市中区,長者町９丁目１４７－２,,14,104,2310033,,,,,,,2023-11-29,1,,,,,エスエイチフォクリフトソリューション,0
599,3020001154674,新規,0,2023-11-29,2023-11-29,ＢＣ株式会社,,株式会社,神奈川県,川崎市川崎区,観音１丁目１８番１０号台義荘２０１号室,,14,131,2100831,,,,,,,2023-11-29,1,,,,,ビーシー,0
600,3020001154682,新規,0,2023-11-29,2023-11-29,ｂｅ　ｉｎｇ株式会社,,株式会社,神奈川県,横浜市中区,桜木町１丁目１０１番地１クロスゲート７階,,14,104,2310062,,,,,,,2023-11-29,1,,,,,,0
604,3020003025080,新規,0,2023-11-29,2023-11-29,ネルクス合同会社,,合同会社,神奈川県,横浜市戸塚区,吉田町１９９８番地８,,14,110,2440817,,,,,,,2023-11-29,1,,,,,ネルクス,0
611,3021001080794,新規,0,2023-11-29,2023-11-29,株式会社湘南ＢＡＳＥ,,株式会社,神奈川県,茅ヶ崎市,新栄町７－５ＣｈｉｇａｓａｋｉＢｉｚ－ｎａｚ３Ｆ,,14,207,2530044,,,,,,,2023-11-29,1,,,,,ショウナンベース,0
623,3030003023034,新規,0,2023-11-29,2023-11-29,合同会社スリール,,合同会社,埼玉県,草加市,氷川町４１３番地９ＦＬＥＸ４１３－２０１号,,11,221,3400034,,,,,,,2023-11-29,1,,,,,スリール,0
624,3040001131011,新規,0,2023-11-29,2023-11-29,昭信咨詢サービス株式会社,,株式会社,千葉県,船橋市,飯山満町３丁目１３７９－２０ベルメゾン薬園台１０２号室,,12,204,2740822,,,,,,,2023-11-29,1,,,,,ショウシンシジュンサービス,0
625,3040001131143,新規,0,2023-11-29,2023-11-29,えむわい株式会社,,株式会社,千葉県,山武市,埴谷４７８番地,,12,237,2891223,,,,,,,2023-11-29,1,,,,,エムワイ,0
629,3040003023826,新規,0,2023-11-29,2023-11-29,合同会社ｔｈｅｏｒｙ,,合同会社,千葉県,船橋市,豊富町６４９番地１７７,,12,204,2740053,,,,,,,2023-11-29,1,,,,,セオリー,0
631,3050001053881,新規,0,2023-11-29,2023-11-29,鵬博株式会社,,株式会社,茨城県,坂東市,矢作８番地の１１,,08,228,3060624,,,,,,,2023-11-29,1,,,,,ホウハク,0
653,3080101024367,新規,0,2023-11-29,2023-11-29,株式会社未来キッチン,,株式会社,静岡県,沼津市,白銀町９－９富創第三ビル１階,,22,203,4100805,,,,,,,2023-11-29,1,,,,,,0
654,3100001037004,新規,0,2023-11-29,2023-11-29,株式会社ナルワンジャパン,,株式会社,長野県,飯山市,大字飯山２３１番地１,,20,213,3892253,,,,,,,2023-11-29,1,,,,,ナルワンジャパン,0
655,3100001037012,新規,0,2023-11-29,2023-11-29,株式会社３２６インベスト,,株式会社,長野県,飯山市,大字飯山１１７３番地７,,20,213,3892253,,,,,,,2023-11-29,1,,,,,サンニーロクインベスト,0
671,3120001260165,新規,0,2023-11-29,2023-11-29,株式会社Ｉ　ｂｅａｕ,,株式会社,大阪府,大阪市中央区,本町２丁目３番８号,,27,128,5410053,,,,,,,2023-11-29,1,,,,,アイボー,0
675,3120003025418,新規,0,2023-11-29,2023-11-29,合同会社ＯＮＥＴＯＰ,,合同会社,大阪府,大阪市東住吉区,南田辺１丁目９－３４南田辺越部興産ビル２０１号,,27,121,5460033,,,,,,,2023-11-29,1,,,,,ワントップ,0
676,3120005024013,新規,0,2023-11-29,2023-11-29,一般社団法人地域活動支援センター共生,,その他の設立登記法人,大阪府,大阪市旭区,新森１丁目７番１１－５０１号,,27,117,5350022,,,,,,,2023-11-29,1,,,,,チイキカツドウシエンセンターキョウセイ,0
682,3120901048412,新規,0,2023-11-29,2023-11-29,株式会社Ｃｏｎｎｅｃｔ　Ｐｌｕｓ,,株式会社,大阪府,吹田市,南金田１丁目１１番３０号,,27,205,5640044,,,,,,,2023-11-29,1,,,,,コネクトプラス,0
683,3120901048420,新規,0,2023-11-29,2023-11-29,株式会社ハロー,,株式会社,大阪府,箕面市,瀬川３丁目４－２９－１０２,,27,220,5620045,,,,,,,2023-11-29,1,,,,,ハロー,0
688,3130001075785,新規,0,2023-11-29,2023-11-29,株式会社Ｍｅｄｉｃａｒｅ,,株式会社,京都府,京都市中京区,烏丸通六角下る七観音町６３４番地,,26,104,6048162,,,,,,,2023-11-29,1,,,,,メディケア,0
689,3130001075810,新規,0,2023-11-29,2023-11-29,株式会社源宏会由良文庫,,株式会社,京都府,綾部市,本町１丁目２０番地,,26,203,6230021,,,,,,,2023-11-29,1,,,,,ゲンコウカイユラブンコ,0
692,3140003019847,新規,0,2023-11-29,2023-11-29,合同会社健伸会,,合同会社,兵庫県,神戸市灘区,烏帽子町３丁目２－６、１階,,28,102,6570042,,,,,,,2023-11-29,1,,,,,ケンシンカイ,0
693,3140003019863,新規,0,2023-11-29,2023-11-29,合同会社平石建設,,合同会社,兵庫県,神戸市北区,北五葉２丁目１１番２－１０６号,,28,109,6511131,,,,,,,2023-11-29,1,,,,,ヒライシケンセツ,0
696,3140005026809,新規,0,2023-11-29,2023-11-29,一般社団法人スペース,,その他の設立登記法人,兵庫県,宝塚市,平井２丁目６番３０号,,28,214,6650816,,,,,,,2023-11-29,1,,,,,スペース,0
710,3180003026039,新規,0,2023-11-29,2023-11-29,合同会社Ｚコーポレーション,,合同会社,愛知県,一宮市,北小渕字東幟７５番地,,23,203,4910013,,,,,,,2023-11-29,1,,,,,ゼットコーポレーション,0
713,3180301038066,新規,0,2023-11-29,2023-11-29,眩や株式会社,,株式会社,愛知県,岡崎市,法性寺町字荒子５４番地１,,23,202,4440206,,,,,,,2023-11-29,1,,,,,マブシヤ,0
715,3180303005915,新規,0,2023-11-29,2023-11-29,合同会社天紫龍,,合同会社,愛知県,岡崎市,上地１丁目５４番地１８,,23,202,4440823,,,,,,,2023-11-29,1,,,,,テンシリュウ,0
723,3240001062467,新規,0,2023-11-29,2023-11-29,株式会社アンスロ,,株式会社,広島県,広島市中区,胡町２番１０号２Ｆ,,34,101,7300021,,,,,,,2023-11-29,1,,,,,アンスロ,0
726,3240003006430,新規,0,2023-11-29,2023-11-29,合同会社高商,,合同会社,広島県,広島市中区,幟町１５番２号,,34,101,7300016,,,,,,,2023-11-29,1,,,,,タカショウ,0
740,3290003014627,新規,0,2023-11-29,2023-11-29,合同会社ｕｎ　ｒｕｂａｎ　ｊａｕｎｅ,,合同会社,福岡県,福岡市中央区,長浜２丁目２番８－１００３号,,40,133,8100072,,,,,,,2023-11-29,1,,,,,アンリュバンジョーヌ,0
744,3300001013538,新規,0,2023-11-29,2023-11-29,株式会社ｔｏｒａ,,株式会社,佐賀県,武雄市,武雄町大字富岡８９１３番地１,,41,206,8430024,,,,,,,2023-11-29,1,,,,,トラ,0
746,3340003004317,新規,0,2023-11-29,2023-11-29,合同会社是枝塗装,,合同会社,鹿児島県,南さつま市,加世田川畑１００４２番地３,,46,220,8970003,,,,,,,2023-11-29,1,,,,,コレエダトソウ,0
758,3370001050673,新規,0,2023-11-29,2023-11-29,株式会社デルタ・ジャパン,,株式会社,宮城県,仙台市青葉区,一番町１丁目１２番３９号旭開発第２ビル７０１号,,04,101,9800811,,,,,,,2023-11-29,1,,,,,デルタジャパン,0
761,3380001034155,新規,0,2023-11-29,2023-11-29,株式会社ａｂｕｎｄａｎｔ,,株式会社,福島県,二本松市,高西８７－１,,07,210,9640817,,,,,,,2023-11-29,1,,,,,アバンダント,0
773,3430001090507,新規,0,2023-11-29,2023-11-29,アドベンチャートラベル・ジャパン株式会社,,株式会社,北海道,登別市,登別温泉町１５４番地,,01,230,0590551,,,,,,,2023-11-29,1,,,,,アドベンチャートラベルジャパン,0
774,3430001090523,新規,0,2023-11-29,2023-11-29,株式会社Ｒｅｎｋａｇｅ,,株式会社,北海道,札幌市中央区,南二十一条西１６丁目３番２１号,,01,101,0640921,,,,,,,2023-11-29,1,,,,,リンケージ,0
776,3430003015692,新規,0,2023-11-29,2023-11-29,Ａｎｔｉ合同会社,,合同会社,北海道,札幌市東区,北四十一条東５丁目２番３５－１０３号,,01,103,0070841,,,,,,,2023-11-29,1,,,,,アンチ,0
788,4010001240359,新規,0,2023-11-29,2023-11-29,ワオスポーツ株式会社,,株式会社,東京都,中央区,晴海４丁目７番４号,,13,102,1040053,,,,,,,2023-11-29,1,,,,,ワオスポーツ,0
789,4010001240367,新規,0,2023-11-29,2023-11-29,Ｒｅａｃｈ　Ｔｅｃｈｎｏｌｏｇｙ　Ｊａｐａｎ株式会社,,株式会社,東京都,中央区,八丁堀４丁目４番４号３階,,13,102,1040032,,,,,,,2023-11-29,1,,,,,リーチテクノロジージャパン,0
793,4010101015900,新規,0,2023-11-29,2023-11-29,ＫＡＩキャピタル株式会社,,株式会社,東京都,八王子市,新町２番５号,,13,201,1920065,,,,,,,2023-11-29,1,,,,,カイキャピタル,0
797,4010401178777,新規,0,2023-11-29,2023-11-29,株式会社やまとダイワ,,株式会社,東京都,港区,高輪２丁目１４番１７号グレイス高輪ビル８階,,13,103,1080074,,,,,,,2023-11-29,1,,,,,ヤマトダイワ,0
800,4010405022642,新規,0,2023-11-29,2023-11-29,一般社団法人Ｗｏｒｌｄ　Ｎｉｈｏｎｇｏ　Ｎｅｔｗｏｒｋ,,その他の設立登記法人,東京都,港区,六本木７丁目３番２４号竜土ハイツｂー１,,13,103,1060032,,,,,,,2023-11-29,1,,,,,ワールドニホンゴネットワーク,0
801,4010405022733,新規,0,2023-11-29,2023-11-29,一般社団法人お台場トリエンナーレ準備委員会,,その他の設立登記法人,東京都,港区,お台場二丁目４番８号,,13,103,1050000,,,,,,,2023-11-29,1,,,,,,0
807,4010701045173,新規,0,2023-11-29,2023-11-29,株式会社ＫＣ技研,,株式会社,東京都,品川区,西五反田８丁目１番５号,,13,109,1410031,,,,,,,2023-11-29,1,,,,,ケーシーギケン,0
808,4010703006974,新規,0,2023-11-29,2023-11-29,合同会社サンデンタル,,合同会社,東京都,品川区,東品川４丁目１２番４号品川シーサイドフォレストオーバルガーデン地下１階,,13,109,1400002,,,,,,,2023-11-29,1,,,,,サンデンタル,0
811,4010803004762,新規,0,2023-11-29,2023-11-29,合同会社構成堂,,合同会社,東京都,大田区,東馬込１丁目３８番２０号,,13,111,1430022,,,,,,,2023-11-29,1,,,,,コウセイドウ,0
812,4010901054255,新規,0,2023-11-29,2023-11-29,株式会社ＳＨＩＯＮ,,株式会社,東京都,世田谷区,経堂２丁目１３番６号－１０１,,13,112,1560052,,,,,,,2023-11-29,1,,,,,シオン,0
822,4011001158475,新規,0,2023-11-29,2023-11-29,株式会社Ｓｕｇａｒｈｏｐｅ,,株式会社,東京都,渋谷区,恵比寿西２丁目８番４号ＥＸ恵比寿西ビル５階,,13,113,1500021,,,,,,,2023-11-29,1,,,,,シュガーホープ,0
823,4011001158500,新規,0,2023-11-29,2023-11-29,株式会社Ａｒｃｈ,,株式会社,東京都,渋谷区,恵比寿西２丁目４－８ウィンド恵比寿ビル８Ｆ,,13,113,1500021,,,,,,,2023-11-29,1,,,,,アーチ,0
829,4011101105261,新規,0,2023-11-29,2023-11-29,株式会社Ｅ４ｕｎ,,株式会社,東京都,新宿区,高田馬場３丁目１番５号,,13,104,1690075,,,,,,,2023-11-29,1,,,,,エフォン,0
830,4011101105278,新規,0,2023-11-29,2023-11-29,株式会社サンミュージックグループホールディングス,,株式会社,東京都,新宿区,左門町４番地,,13,104,1600017,,,,,,,2023-11-29,1,,,,,サンミュージックグループホールディングス,0
834,4011201025070,新規,0,2023-11-29,2023-11-29,株式会社スタジオヤザック,,株式会社,東京都,中野区,中央１丁目３２番８号ユニーブル中野坂上２０２,,13,114,1640011,,,,,,,2023-11-29,1,,,,,スタジオヤザック,0
840,4011501030019,新規,0,2023-11-29,2023-11-29,株式会社龍熙コンサルティング,,株式会社,東京都,荒川区,南千住３丁目４番９号Ｔ－ＳＯＫＯ４０２号室,,13,118,1160003,,,,,,,2023-11-29,1,,,,,リュウキコンサルティング,0
841,4011501030051,新規,0,2023-11-29,2023-11-29,江月株式会社,,株式会社,東京都,荒川区,町屋３丁目２４番２号面川ビル３１２号室,,13,118,1160001,,,,,,,2023-11-29,1,,,,,エツキ,0
842,4011503005860,新規,0,2023-11-29,2023-11-29,合同会社妙法,,合同会社,東京都,荒川区,西日暮里２丁目６番１８－１０１号,,13,118,1160013,,,,,,,2023-11-29,1,,,,,ミョウホウ,0
845,4011701026799,新規,0,2023-11-29,2023-11-29,株式会社ホシヤ,,株式会社,東京都,江戸川区,東葛西１丁目３３番８号,,13,123,1340084,,,,,,,2023-11-29,1,,,,,ホシヤ,0
857,4013301051681,新規,0,2023-11-29,2023-11-29,株式会社オシリス,,株式会社,東京都,豊島区,東池袋１丁目３４－５いちご東池袋ビル６階,,13,116,1700013,,,,,,,2023-11-29,1,,,,,オシリス,0
858,4013303006898,新規,0,2023-11-29,2023-11-29,合同会社ミカサアセット,,合同会社,東京都,豊島区,長崎６丁目２８番１７号,,13,116,1710051,,,,,,,2023-11-29,1,,,,,ミカサアセット,0
867,4020001154640,新規,0,2023-11-29,2023-11-29,株式会社ＭＯＣＯ,,株式会社,神奈川県,横浜市青葉区,榎が丘４５番地５２サニータウンＣ－１０１,,14,117,2270063,,,,,,,2023-11-29,1,,,,,モコ,0
868,4020001154673,新規,0,2023-11-29,2023-11-29,株式会社與時ホールディングス,,株式会社,神奈川県,横浜市鶴見区,東寺尾中台１９番２９－５０７号,,14,101,2300017,,,,,,,2023-11-29,1,,,,,ヨジホールディングス,0
869,4020001154681,新規,0,2023-11-29,2023-11-29,株式会社東亜技建,,株式会社,神奈川県,川崎市幸区,南加瀬４丁目３０番２１－６０２号,,14,132,2120055,,,,,,,2023-11-29,1,,,,,トウアギケン,0
873,4020003024998,新規,0,2023-11-29,2023-11-29,Ｂｌｕｅ　Ｉｇｎｉｔｉｏｎ合同会社,,合同会社,神奈川県,川崎市宮前区,土橋２丁目８－３－３０１,,14,136,2160005,,,,,,,2023-11-29,1,,,,,ブルーイグニッション,0
874,4020003025063,新規,0,2023-11-29,2023-11-29,合同会社スプンティーニ,,合同会社,神奈川県,横浜市西区,浅間町１丁目４番３号ウィザードビル４０２,,14,103,2200072,,,,,,,2023-11-29,1,,,,,スプンティーニ,0
875,4020003025071,新規,0,2023-11-29,2023-11-29,合同会社３１０,,合同会社,神奈川県,横浜市港北区,大倉山６丁目５番１５－２０６号,,14,109,2220037,,,,,,,2023-11-29,1,,,,,スリーワンオー,0
876,4020003025088,新規,0,2023-11-29,2023-11-29,Ｂｌｕｅ　Ｊａｐａｎ合同会社,,合同会社,神奈川県,川崎市幸区,大宮町２８番地２－６０６,,14,132,2120014,,,,,,,2023-11-29,1,,,,,ブルージャパン,0
879,4021001080851,新規,0,2023-11-29,2023-11-29,ＣＯＴＯＣＨＩＬＬ株式会社,,株式会社,神奈川県,藤沢市,亀井野２丁目４５番地の１セジュール湘南２０１,,14,205,2520813,,,,,,,2023-11-29,1,,,,,コトチル,0
892,4030001157246,新規,0,2023-11-29,2023-11-29,ＲＥＬＩＥＦ‐ＪＡＰＡＮ株式会社,,株式会社,埼玉県,新座市,畑中１丁目１２－８,,11,230,3520012,,,,,,,2023-11-29,1,,,,,リリーフジャパン,0
900,4030003023082,新規,0,2023-11-29,2023-11-29,合同会社八宮,,合同会社,埼玉県,秩父郡小鹿野町,小鹿野１８８２番地,,11,365,3680105,,,,,,,2023-11-29,1,,,,,ハチミヤ,0
904,4040001131142,新規,0,2023-11-29,2023-11-29,株式会社マリオステップ,,株式会社,千葉県,千葉市美浜区,幕張西６丁目１０番地９,,12,106,2610026,,,,,,,2023-11-29,1,,,,,マリオステップ,0
905,4040001131150,新規,0,2023-11-29,2023-11-29,株式会社マストコンビニエンス,,株式会社,千葉県,松戸市,中矢切６２４－１－１０３,,12,207,2710095,,,,,,,2023-11-29,1,,,,,マストコンビニエンス,0
912,4050001053880,新規,0,2023-11-29,2023-11-29,株式会社アメクル,,株式会社,茨城県,古河市,上辺見３５０７番地２,,08,204,3060234,,,,,,,2023-11-29,1,,,,,アメクル,0
913,4050003007967,新規,0,2023-11-29,2023-11-29,勤昇合同会社,,合同会社,茨城県,神栖市,神栖３丁目２番１９号,,08,232,3140143,,,,,,,2023-11-29,1,,,,,キンショウ,0
916,4060001036579,新規,0,2023-11-29,2023-11-29,株式会社ｅｓｐｅｊｏｎ,,株式会社,栃木県,宇都宮市,岩曽町１４２８番地５８７ユーリ岩曽Ｃ,,09,201,3210973,,,,,,,2023-11-29,1,,,,,エスペホン,0
926,4070003005176,新規,0,2023-11-29,2023-11-29,合同会社オキマチ自動車,,合同会社,群馬県,高崎市,沖町４８６－１６５,,10,202,3700086,,,,,,,2023-11-29,1,,,,,,0
927,4080105006377,新規,0,2023-11-29,2023-11-29,ライズウィン協同組合,,その他の設立登記法人,静岡県,駿東郡清水町,徳倉４９４番地の５,,22,341,4110917,,,,,,,2023-11-29,1,,,,,ライズウィン,0
928,4090003002436,新規,0,2023-11-29,2023-11-29,合同会社ｎａｎａｏ,,合同会社,山梨県,南巨摩郡身延町,下山２３１－１２８,,19,365,4092522,,,,,,,2023-11-29,1,,,,,ナナオ,0
951,4120001260164,新規,0,2023-11-29,2023-11-29,株式会社ＯＲＡＮＧＥ　ＳＹＳＴＥＭＳ,,株式会社,大阪府,大阪市中央区,本町２丁目３番８号,,27,128,5410053,,,,,,,2023-11-29,1,,,,,オレンジシステムズ,0
952,4120001260172,新規,0,2023-11-29,2023-11-29,株式会社Ｌ＆Ｋ,,株式会社,大阪府,守口市,本町２丁目１番２３－６０３号,,27,209,5700028,,,,,,,2023-11-29,1,,,,,エルアンドケイ,0
953,4120001260247,新規,0,2023-11-29,2023-11-29,金橙株式会社,,株式会社,大阪府,大阪市淀川区,西宮原１丁目７番４－２１３号室,,27,123,5320004,,,,,,,2023-11-29,1,,,,,キントウ,0
954,4120003025383,新規,0,2023-11-29,2023-11-29,合同会社ＸＤＲＥＡＭ,,合同会社,大阪府,大阪市東住吉区,山坂１丁目１９‐２２,,27,121,5460035,,,,,,,2023-11-29,1,,,,,エックスドリーム,0
959,4120101068607,新規,0,2023-11-29,2023-11-29,弘＿株式会社,00132816,株式会社,大阪府,堺市南区,高倉台２丁２８番８号,,27,145,5900117,,,,,,,2023-11-29,1,,,,,コウシン,0
960,4120103005558,新規,0,2023-11-29,2023-11-29,合同会社ホリィ,,合同会社,大阪府,堺市西区,鳳北町８丁４４０番地１エクセル鳳１０５号,,27,144,5938328,,,,,,,2023-11-29,1,,,,,ホリィ,0
964,4122001037600,新規,0,2023-11-29,2023-11-29,株式会社ライズ,,株式会社,大阪府,四條畷市,南野５丁目４番２０号,,27,229,5750021,,,,,,,2023-11-29,1,,,,,ライズ,0
977,4160003003047,新規,0,2023-11-29,2023-11-29,合同会社エス・エー・エム,,合同会社,滋賀県,守山市,浮気町３４番地７,,25,207,5240033,,,,,,,2023-11-29,1,,,,,エスエーエム,0
985,4180001159104,新規,0,2023-11-29,2023-11-29,株式会社ＳＴＡＲＸ,,株式会社,愛知県,名古屋市千種区,茶屋が坂１丁目１８番１７号,,23,101,4640092,,,,,,,2023-11-29,1,,,,,スタークス,0
991,4180003026046,新規,0,2023-11-29,2023-11-29,合同会社アーバンティアーズ,,合同会社,愛知県,名古屋市瑞穂区,弥富通二丁目３０セントフィオーレ５０３,,23,108,4670000,,,,,,,2023-11-29,1,,,,,アーバンティアーズ,0
992,4180003026054,新規,0,2023-11-29,2023-11-29,Ａｔｉｑ　Ｔｒａｄｉｎｇ合同会社,,合同会社,愛知県,岩倉市,八剱町樋口８番地１サンハイツ千代２０３号,,23,228,4820031,,,,,,,2023-11-29,1,,,,,アティクトレーディング,0
996,4180301038057,新規,0,2023-11-29,2023-11-29,株式会社ドリームキャッチャー,,株式会社,愛知県,豊橋市,向草間町字向中３４番地２,,23,201,4418142,,,,,,,2023-11-29,1,,,,,ドリームキャッチャー,0
997,4180301038065,新規,0,2023-11-29,2023-11-29,株式会社ＢＬＵＥ　ＭＯＭＥＮＴ,,株式会社,愛知県,岡崎市,薮田１丁目２番地１１,,23,202,4442137,,,,,,,2023-11-29,1,,,,,ブルーモーメント,0
1000,4190001030916,新規,0,2023-11-29,2023-11-29,株式会社シゴトのトビラ,,株式会社,三重県,鈴鹿市,算所２丁目５番１号,,24,207,5130806,,,,,,,2023-11-29,1,,,,,シゴトノトビラ,0
1008,4240001062466,新規,0,2023-11-29,2023-11-29,株式会社ＩＲＥプレイス,,株式会社,広島県,福山市,南手城町２丁目１５番６号,,34,207,7210963,,,,,,,2023-11-29,1,,,,,アイアールイープレイス,0
1009,4240001062474,新規,0,2023-11-29,2023-11-29,株式会社ＧＡＰＰＡ,,株式会社,広島県,広島市中区,堀川町１－９－５０１,,34,101,7300033,,,,,,,2023-11-29,1,,,,,ガッパ,0
1013,4260001038514,新規,0,2023-11-29,2023-11-29,株式会社ＡＫＵＲＡ,,株式会社,岡山県,岡山市北区,東古松４丁目９番１号ランパス東古松１０１号室,,33,101,7000921,,,,,,,2023-11-29,1,,,,,アクラ,0
1037,4360003013521,新規,0,2023-11-29,2023-11-29,合同会社渡口組,,合同会社,沖縄県,宮古島市,平良字下里７１０番地３,,47,214,9060013,,,,,,,2023-11-29,1,,,,,トグチグミ,0
1039,4370001050664,新規,0,2023-11-29,2023-11-29,株式会社ｍｕｔｕｍｉ,,株式会社,宮城県,仙台市泉区,松森字松木沢５番地の１－Ｂ－１０１,,04,105,9813111,,,,,,,2023-11-29,1,,,,,ムツミ,0
1043,4380001034154,新規,0,2023-11-29,2023-11-29,株式会社ｆｏｕｒ　ｌｉｎｅｓ,,株式会社,福島県,南会津郡下郷町,大字湯野上字居平乙８３２番地,,07,362,9695206,,,,,,,2023-11-29,1,,,,,フォーラインズ,0
1057,4440001009356,新規,0,2023-11-29,2023-11-29,株式会社函中リテール,,株式会社,北海道,函館市,西桔梗町５８９番３３１号,,01,202,0410824,,,,,,,2023-11-29,1,,,,,カンチュウリテール,0
1058,4460001005849,新規,0,2023-11-29,2023-11-29,株式会社白糠サポート,,株式会社,北海道,釧路市,堀川町６番地２９号,,01,206,0850007,,,,,,,2023-11-29,1,,,,,シラヌカサポート,0
1059,4460101007464,新規,0,2023-11-29,2023-11-29,株式会社ほほえみ,,株式会社,北海道,河東郡音更町,木野大通東１３丁目１番地４０－３０３号,,01,631,0800111,,,,,,,2023-11-29,1,,,,,ホホエミ,0
1072,5010001240358,新規,0,2023-11-29,2023-11-29,Ｒｅｍ３ｄｙ　Ｈｅａｌｔｈ　Ｊａｐａｎ株式会社,,株式会社,東京都,千代田区,丸の内１丁目１１－１パシフィックセンチュリープレイス、８Ｆ・１３Ｆ,,13,101,1000005,,,,,,,2023-11-29,1,,,,,レメディーヘルスジャパン,0
1073,5010001240366,新規,0,2023-11-29,2023-11-29,鼎峰株式会社,,株式会社,東京都,千代田区,神田三崎町２丁目１０番１１－２０２Ｂ,,13,101,1010061,,,,,,,2023-11-29,1,,,,,テイホウ,0
1074,5010001240382,新規,0,2023-11-29,2023-11-29,ＢＯＮＳＡＩトラベル株式会社,,株式会社,東京都,中央区,日本橋箱崎町２７番９号オフィスヴェラ日本橋箱崎１階,,13,102,1030015,,,,,,,2023-11-29,1,,,,,ボンサイトラベル,0
1075,5010001240390,新規,0,2023-11-29,2023-11-29,株式会社内神田総合管理,,株式会社,東京都,千代田区,内神田２丁目１４番１２号,,13,101,1010047,,,,,,,2023-11-29,1,,,,,ウチカンダソウゴウカンリ,0
1078,5010003042331,新規,0,2023-11-29,2023-11-29,Ｔｏｋｙｏ　Ｋａｒａｔｅ　Ｔｏｕｒｓ合同会社,,合同会社,東京都,中央区,勝どき６丁目３番２号２６１３号,,13,102,1040054,,,,,,,2023-11-29,1,,,,,トウキョウカラテツアーズ,0
1093,5010401178727,新規,0,2023-11-29,2023-11-29,万瑞国際株式会社,,株式会社,東京都,港区,新橋３丁目９番１０－２０５号,,13,103,1050004,,,,,,,2023-11-29,1,,,,,マンズイコクサイ,0
1095,5010403031462,新規,0,2023-11-29,2023-11-29,合同会社ソピア,,合同会社,東京都,港区,白金１丁目６番１４号４階,,13,103,1080072,,,,,,,2023-11-29,1,,,,,ソピア,0
1097,5010601064215,新規,0,2023-11-29,2023-11-29,ＴＪＫホールディングス株式会社,,株式会社,東京都,江東区,枝川１丁目９番４号,,13,108,1350051,,,,,,,2023-11-29,1,,,,,ティージェーケーホールディングス,0
1100,5010701045164,新規,0,2023-11-29,2023-11-29,株式会社ａｉｎｉ,,株式会社,東京都,品川区,東大井５丁目１０番２号,,13,109,1400011,,,,,,,2023-11-29,1,,,,,アイニィ,0
1101,5010703006973,新規,0,2023-11-29,2023-11-29,合同会社東京鶴亀,,合同会社,東京都,品川区,大崎２丁目９番２－３５１１号,,13,109,1410032,,,,,,,2023-11-29,1,,,,,トウキョウツルカメ,0
1108,5010901054246,新規,0,2023-11-29,2023-11-29,株式会社トライスターワークス,,株式会社,東京都,世田谷区,豪徳寺１丁目５５番２８－３０３号,,13,112,1540021,,,,,,,2023-11-29,1,,,,,トライスターワークス,0
1109,5010901054254,新規,0,2023-11-29,2023-11-29,株式会社ＳＨＩＢＵＩ,,株式会社,東京都,世田谷区,代田２丁目１６番６号エクラシエサンク２０１,,13,112,1550033,,,,,,,2023-11-29,1,,,,,シブイ,0
1111,5010905004544,新規,0,2023-11-29,2023-11-29,一般社団法人次世代税理士研究会,,その他の設立登記法人,東京都,世田谷区,等々力７丁目５番３－１０６号,,13,112,1580082,,,,,,,2023-11-29,1,,,,,ジセダイゼイリシケンキュウカイ,0
1116,5011001158458,新規,0,2023-11-29,2023-11-29,株式会社新井工務店,,株式会社,東京都,渋谷区,上原２丁目３３番１０号,,13,113,1510064,,,,,,,2023-11-29,1,,,,,アライコウムテン,0
1117,5011001158466,新規,0,2023-11-29,2023-11-29,株式会社ＡｎｉＮｏｄｅ,,株式会社,東京都,渋谷区,渋谷２丁目１９－１５宮益坂ビルディング６０９,,13,113,1500002,,,,,,,2023-11-29,1,,,,,アニノード,0
1118,5011001158490,新規,0,2023-11-29,2023-11-29,ＴＭホールディングス株式会社,,株式会社,東京都,渋谷区,広尾１丁目１番２２－２０６号,,13,113,1500012,,,,,,,2023-11-29,1,,,,,ティーエムホールディングス,0
1120,5011003018008,新規,0,2023-11-29,2023-11-29,合同会社ｅｆｕ,,合同会社,東京都,目黒区,上目黒１丁目５番１０－４０８号,,13,110,1530051,,,,,,,2023-11-29,1,,,,,イーエフユー,0
1123,5011101105285,新規,0,2023-11-29,2023-11-29,北極光株式会社,,株式会社,東京都,新宿区,榎町３４－３榎町ビル７階－０２室,,13,104,1620806,,,,,,,2023-11-29,1,,,,,ホッキョクコウ,0
1124,5011101105293,新規,0,2023-11-29,2023-11-29,株式会社Ｓｌｉｃｋ　Ｃｏｄｅ,,株式会社,東京都,新宿区,西新宿３丁目３番１３号西新宿水間ビル２Ｆ,,13,104,1600023,,,,,,,2023-11-29,1,,,,,スリックコード,0
1125,5011103013800,新規,0,2023-11-29,2023-11-29,合同会社サンキューケア,,合同会社,東京都,新宿区,西新宿３丁目５番３号西新宿ダイヤモンドパレス９１４号,,13,104,1600023,,,,,,,2023-11-29,1,,,,,サンキューケア,0
1127,5011205002577,新規,0,2023-11-29,2023-11-29,特定非営利活動法人三原色,,その他の設立登記法人,東京都,中野区,中野４丁目１０番２号中野セントラルパークサウス２階,,13,114,1640001,,,,,,,2023-11-29,1,,,,,サンゲンショク,0
1136,5011603004150,新規,0,2023-11-29,2023-11-29,合同会社Ｇｒａｎｔ,,合同会社,東京都,練馬区,富士見台３丁目８－８,,13,120,1770034,,,,,,,2023-11-29,1,,,,,グラント,0
1137,5011701026798,新規,0,2023-11-29,2023-11-29,株式会社ロイヤル不動産,,株式会社,東京都,江戸川区,南篠崎町２丁目２５番１号,,13,123,1330065,,,,,,,2023-11-29,1,,,,,ロイヤルフドウサン,0
1148,5013301051680,新規,0,2023-11-29,2023-11-29,夢山水株式会社,,株式会社,東京都,豊島区,西池袋５丁目５－２１サータワーグランディア２００５,,13,116,1710021,,,,,,,2023-11-29,1,,,,,ユメサンスイ,0
1149,5013302009240,新規,0,2023-11-29,2023-11-29,有限会社マンシヨン安井,,有限会社,東京都,豊島区,雑司が谷１丁目４８番１３号,,13,116,1710032,,,,,,,2023-11-29,1,,,,,マンシヨンヤスイ,0
1163,5020001154697,新規,0,2023-11-29,2023-11-29,株式会社富士建設,,株式会社,神奈川県,川崎市川崎区,藤崎３丁目４番２－１０２号,,14,131,2100804,,,,,,,2023-11-29,1,,,,,フジケンセツ,0
1165,5020003025079,新規,0,2023-11-29,2023-11-29,ＡＡＭＡ　ＩＮＴＥＲＮＡＴＩＯＮＡＬ合同会社,,合同会社,神奈川県,横浜市西区,久保町２１番２４号,,14,103,2200061,,,,,,,2023-11-29,1,,,,,アマインターナショナル,0
1168,5021001080743,新規,0,2023-11-29,2023-11-29,ハイブリッドステージ株式会社,,株式会社,神奈川県,藤沢市,鵠沼桜が岡３丁目２０番２１号,,14,205,2510027,,,,,,,2023-11-29,1,,,,,ハイブリッドステージ,0
1169,5021001080859,新規,0,2023-11-29,2023-11-29,株式会社彩,,株式会社,神奈川県,平塚市,東豊田５３１番地の２７,,14,203,2540082,,,,,,,2023-11-29,1,,,,,サイ,0
1184,5030001157410,新規,0,2023-11-29,2023-11-29,株式会社ＯＮＥ　ＳＴＥＰ,,株式会社,埼玉県,三郷市,高州２丁目４１９番地,,11,237,3410037,,,,,,,2023-11-29,1,,,,,ワンステップ,0
1185,5030001157419,新規,0,2023-11-29,2023-11-29,株式会社ＹＥＬＬ,,株式会社,埼玉県,八潮市,大字木曽根１１９５－１,,11,234,3400813,,,,,,,2023-11-29,1,,,,,エール,0
1186,5030001157427,新規,0,2023-11-29,2023-11-29,青海貿易株式会社,,株式会社,埼玉県,加須市,東栄１丁目１２番４１号,,11,210,3470064,,,,,,,2023-11-29,1,,,,,アオミボウエキ,0
1197,5040001131125,新規,0,2023-11-29,2023-11-29,株式会社ダブルアール,,株式会社,千葉県,白井市,根１０２９番地の１７,,12,232,2701431,,,,,,,2023-11-29,1,,,,,ダブルアール,0
1200,5040003023808,新規,0,2023-11-29,2023-11-29,ｐｅｎ．合同会社,,合同会社,千葉県,松戸市,新松戸北１丁目１２番地の７,,12,207,2700032,,,,,,,2023-11-29,1,,,,,ペンドット,0
1204,5070001041123,新規,0,2023-11-29,2023-11-29,株式会社ＲＩＳＥ,,株式会社,群馬県,伊勢崎市,今泉町２丁目１１００番地２,,10,204,3720031,,,,,,,2023-11-29,1,,,,,ライズ,0
1211,5080101024365,新規,0,2023-11-29,2023-11-29,株式会社Ｐｌａｉｓｉｒ,,株式会社,静岡県,沼津市,上土町５２ＡＩビルディング１階,,22,203,4100802,,,,,,,2023-11-29,1,,,,,プレジール,0
1214,5080401026862,新規,0,2023-11-29,2023-11-29,木人苑株式会社,,株式会社,静岡県,浜松市中区,高林１丁目１２番１３号,,22,131,4300907,,,,,,,2023-11-29,1,,,,,コトエン,0
1215,5080403004916,新規,0,2023-11-29,2023-11-29,合同会社アイズスタイルプラス,,合同会社,静岡県,浜松市北区,細江町中川７１７２番地の２５０９,,22,135,4311304,,,,,,,2023-11-29,1,,,,,アイズスタイルプラス,0
1221,5100003007283,新規,0,2023-11-29,2023-11-29,シンセリティプランニング合同会社,,合同会社,長野県,松本市,大字新村２２４５番地,,20,202,3901241,,,,,,,2023-11-29,1,,,,,シンセリティプランニング,0
1229,5120001260246,新規,0,2023-11-29,2023-11-29,稲妻株式会社,,株式会社,大阪府,大阪市淀川区,西中島３丁目１番１２－３０１室,,27,123,5320011,,,,,,,2023-11-29,1,,,,,イナヅマ,0
1240,5120103005557,新規,0,2023-11-29,2023-11-29,合同会社Ｓｅｅｄｌｉｎｇ,,合同会社,大阪府,高石市,高師浜１丁目５番２号,,27,225,5920004,,,,,,,2023-11-29,1,,,,,シードリング,0
1246,5130001075791,新規,0,2023-11-29,2023-11-29,マック株式会社,,株式会社,京都府,京都市右京区,梅津南広町４７番地１－１００２,,26,108,6150901,,,,,,,2023-11-29,1,,,,,マック,0
1247,5130001075817,新規,0,2023-11-29,2023-11-29,株式会社秋鶴,,株式会社,京都府,舞鶴市,字和田１１７８番地の１,,26,202,6250085,,,,,,,2023-11-29,1,,,,,シュウカク,0
1249,5130005016940,新規,0,2023-11-29,2023-11-29,一般社団法人ＨＩＭ,,その他の設立登記法人,京都府,京都市南区,久世川原町２０４番地１７,,26,107,6018201,,,,,,,2023-11-29,1,,,,,エイチアイエム,0
1250,5140003019861,新規,0,2023-11-29,2023-11-29,合同会社Ｍａｒｚ,,合同会社,兵庫県,加古川市,尾上町長田１１３番地の７エクセルコートＩ－２０８号,00132820,28,210,6750024,,,,,,,2023-11-29,1,,,,,マーズ,0
1256,5180001159078,新規,0,2023-11-29,2023-11-29,株式会社ＨｉｒｏＰｈｏｔｏ,,株式会社,愛知県,名古屋市北区,西味鋺５丁目２３５番地の２,,23,103,4620016,,,,,,,2023-11-29,1,,,,,ヒロフォト,0
1260,5180003026045,新規,0,2023-11-29,2023-11-29,合同会社キャピタル,,合同会社,愛知県,名古屋市瑞穂区,弥富通二丁目３０セントフィオーレ５０３,,23,108,4670000,,,,,,,2023-11-29,1,,,,,キャピタル,0
1262,5180301038048,新規,0,2023-11-29,2023-11-29,株式会社レビス,,株式会社,愛知県,豊橋市,井原町５８番地の２,,23,201,4400025,,,,,,,2023-11-29,1,,,,,レビス,0
1263,5180301038056,新規,0,2023-11-29,2023-11-29,株式会社吉笑鈴,,株式会社,愛知県,豊田市,広田町谷口６９番地２,,23,211,4730912,,,,,,,2023-11-29,1,,,,,キッショウリン,0
1264,5180301038064,新規,0,2023-11-29,2023-11-29,株式会社ＶＩＶＡライフデザイン,,株式会社,愛知県,西尾市,法光寺町西山２５番地１,,23,213,4450892,,,,,,,2023-11-29,1,,,,,ビバライフデザイン,0
1273,5240001062473,新規,0,2023-11-29,2023-11-29,株式会社ＺＥＯＮＩＣ,,株式会社,広島県,広島市安佐北区,大林町５７１番地１,,34,106,7310202,,,,,,,2023-11-29,1,,,,,ジオニック,0
1274,5240003006429,新規,0,2023-11-29,2023-11-29,合同会社ＬＫＢホールディングス,,合同会社,広島県,広島市中区,中町４番６号オフィス中町２０１,,34,101,7300037,,,,,,,2023-11-29,1,,,,,エルケービーホールディングス,0
1283,5280003001789,新規,0,2023-11-29,2023-11-29,合同会社島根水明,,合同会社,島根県,邑智郡邑南町,上亀谷３９４番１,,32,449,6960224,,,,,,,2023-11-29,1,,,,,シマネスイメイ,0
1290,5290001103842,新規,0,2023-11-29,2023-11-29,株式会社ＲＩＳＥ,,株式会社,福岡県,福岡市南区,大楠２丁目６番１１－２０１号,,40,134,8150082,,,,,,,2023-11-29,1,,,,,ライズ,0
1291,5290001103867,新規,0,2023-11-29,2023-11-29,株式会社祥二建設,,株式会社,福岡県,三潴郡大木町,大字大角１５８９番地１,,40,522,8300403,,,,,,,2023-11-29,1,,,,,ショウジケンセツ,0
1294,5290801030088,新規,0,2023-11-29,2023-11-29,株式会社キュリオス,,株式会社,福岡県,北九州市八幡東区,川淵町４番２０号,,40,108,8050012,,,,,,,2023-11-29,1,,,,,キュリオス,0
1295,5330005010725,新規,0,2023-11-29,2023-11-29,一般社団法人九州インプラント研究会,,その他の設立登記法人,熊本県,熊本市中央区,子飼本町４番１４号,,43,101,8600851,,,,,,,2023-11-29,1,,,,,,0
1297,5340003004315,新規,0,2023-11-29,2023-11-29,シャコンヌ合同会社,,合同会社,鹿児島県,鹿児島市,谷山中央３丁目３９０－３サーパス谷山緑地公園７０１号,,46,201,8910141,,,,,,,2023-11-29,1,,,,,シャコンヌ,0
1298,5350001018679,新規,0,2023-11-29,2023-11-29,株式会社ＹＯＡＳＯＢＩ,,株式会社,宮崎県,宮崎市,中央通８‐９西エビスビル４０３号,,45,201,8800002,,,,,,,2023-11-29,1,,,,,ヨアソビ,0
1301,5360001032877,新規,0,2023-11-29,2023-11-29,株式会社いまどき,,株式会社,沖縄県,那覇市,銘苅３丁目９番２２号ＫＡキャンティービル２階,,47,201,9000004,,,,,,,2023-11-29,1,,,,,イマドキ,0
1310,5390005009043,新規,0,2023-11-29,2023-11-29,一般社団法人ＨＡＫＵＴＡＩ,,その他の設立登記法人,山形県,山形市,本町１丁目５－１９,,06,201,9900043,,,,,,,2023-11-29,1,,,,,ハクタイ,0
1311,5400001016470,新規,0,2023-11-29,2023-11-29,株式会社ベルウッドエステート,,株式会社,岩手県,北上市,村崎野１８地割１３４番地１１,,03,206,0240004,,,,,,,2023-11-29,1,,,,,ベルウッドエステート,0
1318,5440001009355,新規,0,2023-11-29,2023-11-29,株式会社ききょうストア,,株式会社,北海道,函館市,西桔梗町５８９番３３１号,,01,202,0410824,,,,,,,2023-11-29,1,,,,,キキョウストア,0
1320,5460001005848,新規,0,2023-11-29,2023-11-29,株式会社釧路リテール,,株式会社,北海道,釧路市,堀川町６番地２９号,,01,206,0850007,,,,,,,2023-11-29,1,,,,,クシロリテール,0
1323,5700150120456,新規,0,2023-11-29,2023-11-29,ｚｈｕｈａｉｓｈｉｐｅｉｔｉａｎｌｉｚｈｕａｎｇｓｈｉｃａｉｌｉａｏｙｏｕｘｉａｎｇｏｎｇｓｉ,,外国会社等,,,,,,,,ｘｉａｎｇｚｈｏｕｙｉｎｈｕａｌｕ５６６ｈａｏｚｈｕｈａｉｂａｏｙｅｄａｓｈａｄｉｗｕｃｅｎｇ５０１ｓｈｉｚｈｕｈａｉＧｕａｎｇｄｏｎｇ５１９０００ＣＮ,,,,,,2023-11-29,1,,,,,ジュウハイシペイティェンリージュァンシツァイリァオヨウシェンゴンス,0
1324,5700150121990,新規,0,2023-11-29,2023-11-10,ＬＰＧ内燃機関工業会,,その他,千葉県,佐倉市,大篠塚１５７０,,12,212,2850806,,,,,,,2023-11-10,1,,,,,エルピージーナイネンキカンコウギヨウカイ,0
1333,6010001240407,新規,0,2023-11-29,2023-11-29,株式会社ベテルギウス,,株式会社,東京都,千代田区,神田神保町３丁目７－１,,13,101,1010051,,,,,,,2023-11-29,1,,,,,ベテルギウス,0
1334,6010001240415,新規,0,2023-11-29,2023-11-29,株式会社恒遠永傳,,株式会社,東京都,文京区,本駒込５丁目４５番９号４０３号室,,13,105,1130021,,,,,,,2023-11-29,1,,,,,コウエンエイデン,0
1336,6010003042322,新規,0,2023-11-29,2023-11-29,ｃｊ合同会社,,合同会社,東京都,中央区,日本橋大伝馬町４番５号Ｂ１Ｆ,,13,102,1030011,,,,,,,2023-11-29,1,,,,,シージェイ,0
1347,6010501051246,新規,0,2023-11-29,2023-11-29,株式会社Ｋ．Ｉ,,株式会社,東京都,台東区,浅草１丁目２０番３号,,13,106,1110032,,,,,,,2023-11-29,1,,,,,ケードットアイ,0
1351,6010605004265,新規,0,2023-11-29,2023-11-29,一般社団法人研究・イノベーション学会,,その他の設立登記法人,東京都,江東区,深川２丁目６番１１号富岡橋ビル４Ｆ,,13,108,1350033,,,,,,,2023-11-29,1,,,,,ケンキュウイノベーションガッカイ,0
1357,6010901054261,新規,0,2023-11-29,2023-11-29,株式会社オカザキユウヤ,,株式会社,東京都,世田谷区,上馬１丁目４－９グランプルーブ上馬１２０２,,13,112,1540011,,,,,,,2023-11-29,1,,,,,オカザキユウヤ,0
1359,6010903008604,新規,0,2023-11-29,2023-11-29,合同会社ｐａｓｓｅｐｉｅｄＮｏ４,,合同会社,東京都,世田谷区,瀬田１丁目１番１－１０３号,,13,112,1580095,,,,,,,2023-11-29,1,,,,,パスピエヌメロキャトル,0
1360,6010905004543,新規,0,2023-11-29,2023-11-29,一般社団法人日本租税検定協会,,その他の設立登記法人,東京都,世田谷区,松原１丁目２０番１４号,,13,112,1560043,,,,,,,2023-11-29,1,,,,,ニホンソゼイケンテイキョウカイ,0
1363,6011001158465,新規,0,2023-11-29,2023-11-29,ＪＤＩ株式会社,,株式会社,東京都,渋谷区,広尾５丁目１４番２号ＮＩＫＩビル５階,,13,113,1500012,,,,,,,2023-11-29,1,,,,,ジェイディーアイ,0
1364,6011001158498,新規,0,2023-11-29,2023-11-29,ｅＳｐｉｒｅＸ株式会社,,株式会社,東京都,渋谷区,代々木４丁目４９番３号コル代々木１０１,,13,113,1510053,,,,,,,2023-11-29,1,,,,,イースパイアー,0
1365,6011001158515,新規,0,2023-11-29,2023-11-29,株式会社ＴＨＥ　ＲＨＹＴＨＭ,,株式会社,東京都,目黒区,駒場１丁目１番１－７０６号コープ第一駒場,,13,110,1530041,,,,,,,2023-11-29,1,,,,,ザリズム,0
1367,6011003018007,新規,0,2023-11-29,2023-11-29,合同会社ｙａｔｔｅｍｉ,,合同会社,東京都,渋谷区,神宮前６丁目２３番４号桑野ビル２階,,13,113,1500001,,,,,,,2023-11-29,1,,,,,ヤッテミ,0
1372,6011101105251,新規,0,2023-11-29,2023-11-29,羽至株式会社,,株式会社,東京都,新宿区,高田馬場４丁目１８－１０サンハイツ高田馬場９０２号,,13,104,1690075,,,,,,,2023-11-29,1,,,,,ハイタリ,0
1373,6011101105268,新規,0,2023-11-29,2023-11-29,株式会社ＯＮ　Ｔｈｏｕｓａｎｄ,,株式会社,東京都,新宿区,西新宿３丁目３番１３号西新宿水間ビル２Ｆ,,13,104,1600023,,,,,,,2023-11-29,1,,,,,オンサウザンド,0
1374,6011101105301,新規,0,2023-11-29,2023-11-29,ＨＲプロビジョン株式会社,,株式会社,東京都,新宿区,大久保２丁目１番８－３０２号,,13,104,1690072,,,,,,,2023-11-29,1,,,,,エイチアールプロビジョン,0
1384,6011701026797,新規,0,2023-11-29,2023-11-29,東宏株式会社,,株式会社,東京都,江戸川区,松島３丁目３６番３号,,13,123,1320031,,,,,,,2023-11-29,1,,,,,トウコウ,0
1387,6012301013681,新規,0,2023-11-29,2023-11-29,株式会社Ｈ＆Ｌ,,株式会社,東京都,町田市,原町田２丁目７番２２号ＳＫライフ４０５,,13,209,1940013,,,,,,,2023-11-29,1,,,,,ハル,0
1388,6012401041277,新規,0,2023-11-29,2023-11-29,プラス１０株式会社,,株式会社,東京都,府中市,宮西町２丁目１７番７号,,13,206,1830022,,,,,,,2023-11-29,1,,,,,プラステン,0
1390,6012701017976,新規,0,2023-11-29,2023-11-29,株式会社ＳｔｅｐＲａｙ,,株式会社,東京都,西東京市,南町５丁目２８－１５ベラヴィスタ２０２号,,13,229,1880012,,,,,,,2023-11-29,1,,,,,セテップレイ,0
1396,6013301051688,新規,0,2023-11-29,2023-11-29,日新国際株式会社,,株式会社,東京都,豊島区,南池袋２丁目９番１５号フォーディアル南池袋４０１号,,13,116,1710022,,,,,,,2023-11-29,1,,,,,ニッシンコクサイ,0
1408,6020003025078,新規,0,2023-11-29,2023-11-29,合同会社Ａｔｔｒａｐｔ,,合同会社,神奈川県,川崎市川崎区,四谷上町六丁目２４番地,,14,131,2100828,,,,,,,2023-11-29,1,,,,,,0
1409,6021001080817,新規,0,2023-11-29,2023-11-29,株式会社Ｃａｐｅ,,株式会社,神奈川県,茅ヶ崎市,浜竹２丁目５番６号,,14,207,2530021,,,,,,,2023-11-29,1,,,,,ケープ,0
1412,6021003013840,新規,0,2023-11-29,2023-11-29,ＫＮライタル合同会社,,合同会社,神奈川県,鎌倉市,長谷２丁目２２番２７号,,14,204,2480016,,,,,,,2023-11-29,1,,,,,ケーエヌライタル,0
1413,6021005012948,新規,0,2023-11-29,2023-11-29,特定非営利活動法人Ｓｔｕｈｕｂ,,その他の設立登記法人,神奈川県,横須賀市,長坂３丁目２４番５号,,14,201,2400101,,,,,,,2023-11-29,1,,,,,ステュハブ,0
1424,6030001157418,新規,0,2023-11-29,2023-11-29,リパル株式会社,,株式会社,埼玉県,入間市,扇台１丁目５番１２号,,11,225,3580023,,,,,,,2023-11-29,1,,,,,リパル,0
1434,6040001131090,新規,0,2023-11-29,2023-11-29,株式会社ＰＬＩＧＨ,,株式会社,千葉県,千葉市美浜区,磯辺５丁目１番２号ザ・レジデンス検見川浜ガーデンズ１５４号,,12,106,2610012,,,,,,,2023-11-29,1,,,,,ポライ,0
1435,6040001131149,新規,0,2023-11-29,2023-11-29,株式会社トラストエッジホールディングス,,株式会社,千葉県,流山市,江戸川台西２丁目２３０番地,,12,220,2700115,,,,,,,2023-11-29,1,,,,,トラストエッジホールディングス,0
1437,6040003023815,新規,0,2023-11-29,2023-11-29,合同会社Ｕｌｕ,,合同会社,千葉県,印旛郡酒々井町,酒々井９４番地１０,,12,322,2850927,,,,,,,2023-11-29,1,,,,,ウル,0
1438,6040003023823,新規,0,2023-11-29,2023-11-29,合同会社ＭＫＴ,,合同会社,千葉県,市原市,鶴舞４５０番地３,,12,219,2900512,,,,,,,2023-11-29,1,,,,,エムケーティー,0
1439,6050001053887,新規,0,2023-11-29,2023-11-29,株式会社粗食生活,,株式会社,茨城県,土浦市,木田余西台８番６号,,08,203,3000056,,,,,,,2023-11-29,1,,,,,ソショクセイカツ,0
1440,6050003007973,新規,0,2023-11-29,2023-11-29,天李合同会社,,合同会社,茨城県,水戸市,大工町２丁目２－１１,,08,201,3100031,,,,,,,2023-11-29,1,,,,,テンリ,0
1452,6080101024364,新規,0,2023-11-29,2023-11-29,Ａｃｒｅｓ　Ｊａｐａｎ株式会社,,株式会社,静岡県,御殿場市,山之尻１０９５番地の２,,22,215,4120018,,,,,,,2023-11-29,1,,,,,エーカーズジャパン,0
1458,6100003007282,新規,0,2023-11-29,2023-11-29,ＢｒｉｇｈｔＰａｔｈ合同会社,,合同会社,長野県,上田市,踏入２丁目１番１４号ユダビル１Ｆ,,20,203,3860017,,,,,,,2023-11-29,1,,,,,ブライトパス,0
1463,6120001260212,新規,0,2023-11-29,2023-11-29,株式会社河商ホールディングス,,株式会社,大阪府,大阪市西区,千代崎３丁目中２番１号,,27,106,5500023,,,,,,,2023-11-29,1,,,,,カワショウホールディングス,0
1464,6120003025423,新規,0,2023-11-29,2023-11-29,ＺＫホールディングス合同会社,,合同会社,大阪府,大阪市北区,中之島６丁目１番３８号,,27,127,5300005,,,,,,,2023-11-29,1,,,,,ゼットケーホールディングス,0
1465,6120005024019,新規,0,2023-11-29,2023-11-29,一般社団法人福祉助成会,,その他の設立登記法人,大阪府,大阪市中央区,淡路町１丁目３番２号,,27,128,5410047,,,,,,,2023-11-29,1,,,,,フクシジョセイカイ,0
1468,6120905006537,新規,0,2023-11-29,2023-11-29,特定非営利活動法人おくちのけんこう,,その他の設立登記法人,大阪府,茨木市,大手町９番２１号マリンビル３階,,27,211,5670883,,,,,,,2023-11-29,1,,,,,オクチノケンコウ,0
1474,6130001075790,新規,0,2023-11-29,2023-11-29,株式会社ｎｅｕ,,株式会社,京都府,京田辺市,花住坂１丁目１８番地７,,26,211,6100352,,,,,,,2023-11-29,1,,,,,ノイ,0
1475,6130001075808,新規,0,2023-11-29,2023-11-29,株式会社ＣＭ,,株式会社,京都府,京都市東山区,三条通南裏白川筋西入土居之内町４６３番地アルカス京都東山三条１０２,,26,105,6050024,,,,,,,2023-11-29,1,,,,,シーエム,0
1476,6130001075816,新規,0,2023-11-29,2023-11-29,株式会社深草ＹＹＯＳ研究所,,株式会社,京都府,京都市伏見区,深草綿森町１５番地１２,,26,109,6120022,,,,,,,2023-11-29,1,,,,,フカクサワイワイオーエスケンキュウジョ,0
1477,6130001075824,新規,0,2023-11-29,2023-11-29,株式会社ＳＯ‐ＤＡＩ,,株式会社,京都府,京都市伏見区,清水町８８０,,26,109,6128325,,,,,,,2023-11-29,1,,,,,ソーダイ,0
1482,6140001132491,新規,0,2023-11-29,2023-11-29,株式会社Ｖｅｒｎｅ　Ｔｅｃｈｎｏｌｏｇｉｅｓ,,株式会社,兵庫県,伊丹市,大鹿１丁目１０３－１,,28,207,6640899,,,,,,,2023-11-29,1,,,,,ヴェルヌテクノロジーズ,0
1483,6140001132500,新規,0,2023-11-29,2023-11-29,ＶＪＳ株式会社,,株式会社,兵庫県,尼崎市,金楽寺町２丁目３４番２号,,28,202,6600806,,,,,,,2023-11-29,1,,,,,ブイジェイエス,0
1489,6150005009529,新規,0,2023-11-29,2023-11-29,国際人財事業協同組合,,その他の設立登記法人,奈良県,香芝市,下田西１丁目１０－１７アインビル３階,,29,210,6390231,,,,,,,2023-11-29,1,,,,,コクサイジンザイ,0
1508,6180001159003,新規,0,2023-11-29,2023-11-29,麒雪株式会社,,株式会社,愛知県,名古屋市東区,出来町２丁目８番８号,,23,102,4610032,,,,,,,2023-11-29,1,,,,,キセツ,0
1509,6180001159060,新規,0,2023-11-29,2023-11-29,易高株式会社,,株式会社,愛知県,名古屋市東区,東桜２丁目３－７東カン名古屋キャステール１１１５号室,,23,102,4610005,,,,,,,2023-11-29,1,,,,,イコウ,0
1510,6180001159069,新規,0,2023-11-29,2023-11-29,株式会社尊,,株式会社,愛知県,名古屋市中区,栄３丁目１３番２３号,,23,106,4600008,,,,,,,2023-11-29,1,,,,,ミコト,0
1511,6180001159077,新規,0,2023-11-29,2023-11-29,株式会社Ｓ＆Ｕ５,,株式会社,愛知県,丹羽郡扶桑町,大字高雄字北東川３８６番地,,23,362,4800102,,,,,,,2023-11-29,1,,,,,エスアンドユーファイブ,0
1512,6180001159085,新規,0,2023-11-29,2023-11-29,えいと株式会社,,株式会社,愛知県,名古屋市北区,成願寺１丁目６番Ａ－１８０９号,,23,103,4620021,,,,,,,2023-11-29,1,,,,,エイト,0
1513,6180001159093,新規,0,2023-11-29,2023-11-29,スマイルエル株式会社,,株式会社,愛知県,一宮市,長島町５丁目５番地９,,23,203,4910071,,,,,,,2023-11-29,1,,,,,スマイルエル,0
1516,6180003026036,新規,0,2023-11-29,2023-11-29,合同会社ビーシージェイ,,合同会社,愛知県,名古屋市熱田区,六野１丁目３番６号,,23,109,4560023,,,,,,,2023-11-29,1,,,,,ビーシージェイ,0
1517,6180005020433,新規,0,2023-11-29,2023-11-29,国際労働連合協同組合,,その他の設立登記法人,愛知県,名古屋市中村区,名駅３丁目２番４号,,23,105,4500002,,,,,,,2023-11-29,1,,,,,コクサイロウドウレンゴウ,0
1520,6180301038063,新規,0,2023-11-29,2023-11-29,株式会社グローバルサービスＩＧＩＥ,,株式会社,愛知県,知立市,新池３丁目９４番地４,,23,225,4720005,,,,,,,2023-11-29,1,,,,,グローバルサービスイギ,0
1524,6200003006167,新規,0,2023-11-29,2023-11-29,合同会社Ｐｏｌａｒｅ,,合同会社,岐阜県,岐阜市,領下４丁目１００番地３,,21,201,5008241,,,,,,,2023-11-29,1,,,,,ポラーレ,0
1525,6210001019558,新規,0,2023-11-29,2023-11-29,株式会社芦原温泉ホテルマネジメント,,株式会社,福井県,あわら市,温泉５丁目２０１番地,,18,208,9104104,,,,,,,2023-11-29,1,,,,,アワラオンセンホテルマネジメント,0
1536,6240001062472,新規,0,2023-11-29,2023-11-29,株式会社Ｂｒｅａｋｉｎｇ,,株式会社,広島県,広島市東区,温品５丁目２番２７号,,34,102,7320033,,,,,,,2023-11-29,1,,,,,ブレイキング,0
1540,6290001103858,新規,0,2023-11-29,2023-11-29,光泉産業株式会社,,株式会社,福岡県,八女市,本１９７７番地１,,40,210,8340015,,,,,,,2023-11-29,1,,,,,コウセンサンギョウ,0
1544,6310005008729,新規,0,2023-11-29,2023-11-29,一般社団法人ひぜん里山学舎,,その他の設立登記法人,長崎県,大村市,中岳町１９５５－３,,42,205,8560013,,,,,,,2023-11-29,1,,,,,ヒゼンサトヤマガクシャ,0
1549,6330001031518,新規,0,2023-11-29,2023-11-29,株式会社かむい,,株式会社,熊本県,熊本市東区,新南部２丁目１番１２５号,,43,102,8618028,,,,,,,2023-11-29,1,,,,,カムイ,0
1556,6360001032876,新規,0,2023-11-29,2023-11-29,株式会社Ｆ．Ｒ．Ｌｅａｐ,,株式会社,沖縄県,うるま市,字江洲４６４番地４セントラルシティ江洲３０３号,,47,213,9042244,,,,,,,2023-11-29,1,,,,,エフアールリープ,0
1573,6420001018497,新規,0,2023-11-29,2023-11-29,株式会社ＬＩＦＥ．Ｃ,,株式会社,青森県,青森市,緑２丁目１５番地２３,,02,201,0300845,,,,,,,2023-11-29,1,,,,,ライフドットシー,0
1574,6430001090495,新規,0,2023-11-29,2023-11-29,株式会社エルム産業,,株式会社,北海道,札幌市豊平区,福住三条６丁目１番３号,,01,105,0620043,,,,,,,2023-11-29,1,,,,,エルムサンギョウ,0
1575,6430001090520,新規,0,2023-11-29,2023-11-29,株式会社テシゴト,,株式会社,北海道,札幌市東区,北四十四条東１２丁目１番１８号,,01,103,0070844,,,,,,,2023-11-29,1,,,,,テシゴト,0
1577,6430003015698,新規,0,2023-11-29,2023-11-29,合同会社Ｒｅｓｕｌｔ,,合同会社,北海道,札幌市中央区,南十一条西８丁目３番２０－３０１号,,01,101,0640811,,,,,,,2023-11-29,1,,,,,リザルト,0
1578,6440001009354,新規,0,2023-11-29,2023-11-29,株式会社二海リテール,,株式会社,北海道,山越郡長万部町,字長万部４３１番８５,,01,347,0493521,,,,,,,2023-11-29,1,,,,,フタミリテール,0
1580,6460101007470,新規,0,2023-11-29,2023-11-29,株式会社音更サポート,,株式会社,北海道,帯広市,西十八条南１丁目２番３６号,,01,207,0800028,,,,,,,2023-11-29,1,,,,,オトフケサポート,0
1592,7010003042321,新規,0,2023-11-29,2023-11-29,合同会社エンブルー投資５号,,合同会社,東京都,千代田区,神田須田町１丁目２４－５ＴＨＥＣＲＯＳＳ神田５階,,13,101,1010041,,,,,,,2023-11-29,1,,,,,エンブルートウシゴゴウ,0
1594,7010005037575,新規,0,2023-11-29,2023-11-29,一般社団法人ＫＳＧ８,,その他の設立登記法人,東京都,千代田区,内幸町２丁目１番６号,,13,101,1000011,,,,,,,2023-11-29,1,,,,,ケイエスジーエイト,0
1602,7010401178741,新規,0,2023-11-29,2023-11-29,株式会社ソーヨーカイ,,株式会社,東京都,港区,赤坂２丁目１７番１２－１０４号,,13,103,1070052,,,,,,,2023-11-29,1,,,,,ソーヨーカイ,0
1607,7010505003473,新規,0,2023-11-29,2023-11-29,一般社団法人栄和会,,その他の設立登記法人,東京都,台東区,三ノ輪１丁目２８－１２プラザＭ３階３０１号室,,13,106,1100011,,,,,,,2023-11-29,1,,,,,エイワカイ,0
1610,7010601064221,新規,0,2023-11-29,2023-11-29,株式会社ユーファス,,株式会社,東京都,江東区,清澄３丁目６－１９内田ビル３０２,,13,108,1350024,,,,,,,2023-11-29,1,,,,,ユーファス,0
1613,7010701045195,新規,0,2023-11-29,2023-11-29,株式会社がんつ,,株式会社,東京都,品川区,大崎３丁目１番５号ルミネ五反田第２・２０２号室,,13,109,1410032,,,,,,,2023-11-29,1,,,,,ガンツ,0
1614,7010703006971,新規,0,2023-11-29,2023-11-29,ＫＥＩ３合同会社,,合同会社,東京都,品川区,小山台１丁目１６番１４号,,13,109,1420061,,,,,,,2023-11-29,1,,,,,ケイスリー,0
1618,7010901054260,新規,0,2023-11-29,2023-11-29,株式会社エアーズ,,株式会社,東京都,世田谷区,上用賀１丁目１番１４号２０２,,13,112,1580098,,,,,,,2023-11-29,1,,,,,エアーズ,0
1621,7011001158456,新規,0,2023-11-29,2023-11-29,株式会社ふわねこカンパニー,,株式会社,東京都,渋谷区,東１丁目１３－４－５０１,,13,113,1500011,,,,,,,2023-11-29,1,,,,,フワネコカンパニー,0
1622,7011001158464,新規,0,2023-11-29,2023-11-29,ＢＲＯＯＫＬＹＮ　ＤＥＳＩＧＮ株式会社,,株式会社,東京都,渋谷区,渋谷１丁目３番１８号ビラ・モデルナ１０７,,13,113,1500002,,,,,,,2023-11-29,1,,,,,ブルックリンデザイン,0
1623,7011001158480,新規,0,2023-11-29,2023-11-29,株式会社Ｆｒｅｅｌｙ,,株式会社,東京都,渋谷区,恵比寿西２丁目２０番２－６０９号,,13,113,1500021,,,,,,,2023-11-29,1,,,,,フリーリー,0
1624,7011001158522,新規,0,2023-11-29,2023-11-29,Ｖ３株式会社,,株式会社,東京都,渋谷区,東４丁目６番２３号,,13,113,1500011,,,,,,,2023-11-29,1,,,,,ブイスリー,0
1626,7011003017998,新規,0,2023-11-29,2023-11-29,合同会社オクタゴン,,合同会社,東京都,渋谷区,恵比寿西２丁目８番４号ＥＸ恵比寿西ビル５階,,13,113,1500021,,,,,,,2023-11-29,1,,,,,オクタゴン,0
1627,7011003018006,新規,0,2023-11-29,2023-11-29,ＴＯＫＹＯ　ＲＥＴＵＲＮＥＥＳ　ＣＬＵＢ合同会社,,合同会社,東京都,渋谷区,道玄坂１丁目１９－１０Ｊ１ｂｌｄｇ．３Ｆ,,13,113,1500043,,,,,,,2023-11-29,1,,,,,トウキョウリターニーズクラブ,0
1628,7011005010282,新規,0,2023-11-29,2023-11-29,一般社団法人ＨａｔｃｈＥｄｕ,,その他の設立登記法人,東京都,渋谷区,恵比寿西２丁目４番８号ウィンド恵比寿ビル８Ｆ,,13,113,1500021,,,,,,,2023-11-29,1,,,,,ハッチエデュ,0
1632,7011101105283,新規,0,2023-11-29,2023-11-29,株式会社ＮＥＸＴ　ＩＮＮＯＶＡＴＩＯＮ,,株式会社,東京都,新宿区,歌舞伎町２丁目２３－１チェックメイトビル４階Ａ室,,13,104,1600021,,,,,,,2023-11-29,1,,,,,ネクストイノベーション,0
1633,7011101105291,新規,0,2023-11-29,2023-11-29,株式会社ＫＯＯＮＧ　ＪＡＰＡＮ,,株式会社,東京都,新宿区,北新宿１丁目１９番１９号－２０２,,13,104,1690074,,,,,,,2023-11-29,1,,,,,クンジャパン,0
1634,7011103013591,新規,0,2023-11-29,2023-11-29,合同会社スタジオメタ,,合同会社,東京都,新宿区,西新宿３丁目３番１３号西新宿水間ビル２Ｆ,,13,104,1600023,,,,,,,2023-11-29,1,,,,,スタジオメタ,0
1635,7011103013798,新規,0,2023-11-29,2023-11-29,合同会社ＲＳＦ,,合同会社,東京都,新宿区,西早稲田３丁目２９番６－９０５号,,13,104,1690051,,,,,,,2023-11-29,1,,,,,ロイヤルストレートフラッシュ,0
1640,7011501030049,新規,0,2023-11-29,2023-11-29,佳伯宝国際株式会社,,株式会社,東京都,荒川区,町屋３丁目２４番２号面川ビル３１４号室,,13,118,1160001,,,,,,,2023-11-29,1,,,,,カハクホウコクサイ,0
1641,7011501030057,新規,0,2023-11-29,2023-11-29,株式会社Ｒｅｖｉｖｅ,,株式会社,東京都,北区,浮間１丁目１番１４号リムジンビル２０８,,13,117,1150051,,,,,,,2023-11-29,1,,,,,リバイブ,0
1642,7011601027333,新規,0,2023-11-29,2023-11-29,株式会社ぷじ,,株式会社,東京都,練馬区,東大泉３丁目５０－１４コーポ・ユアーズ１０１,,13,120,1780063,,,,,,,2023-11-29,1,,,,,プジ,0
1659,7013301051687,新規,0,2023-11-29,2023-11-29,株式会社玄,,株式会社,東京都,豊島区,巣鴨５丁目２６－１,,13,116,1700002,,,,,,,2023-11-29,1,,,,,ゲン,0
1665,7020001154670,新規,0,2023-11-29,2023-11-29,株式会社イナバ,,株式会社,神奈川県,横浜市中区,本郷町３丁目６８番地ベイフラット本牧２０１号,,14,104,2310843,,,,,,,2023-11-29,1,,,,,イナバ,0
1666,7020001154679,新規,0,2023-11-29,2023-11-29,株式会社ＹＭＫ,,株式会社,神奈川県,川崎市宮前区,有馬７丁目１６番１６号,,14,136,2160003,,,,,,,2023-11-29,1,,,,,ワイエムケイ,0
1670,7020003025077,新規,0,2023-11-29,2023-11-29,Ｐａｎｄｒｂｏｘ合同会社,,合同会社,神奈川県,川崎市川崎区,駅前本町１８番１号メルスサイトー７０２,,14,131,2100007,,,,,,,2023-11-29,1,,,,,パンドラボックス,0
1671,7020003025085,新規,0,2023-11-29,2023-11-29,つむぎパートナーズ合同会社,,合同会社,神奈川県,川崎市中原区,新丸子東３丁目１１００番地１２Ｍ２４１３,,14,133,2110004,,,,,,,2023-11-29,1,,,,,ツムギパートナーズ,0
1673,7021003013856,新規,0,2023-11-29,2023-11-29,合同会社ＣＭＣ,,合同会社,神奈川県,厚木市,上依知３２８－１,,14,212,2430801,,,,,,,2023-11-29,1,,,,,シーエムシー,0
1683,7030001157350,新規,0,2023-11-29,2023-11-29,ＭＡＶＩＥ　Ｃｏｒｐｏｒａｔｉｏｎ株式会社,,株式会社,埼玉県,朝霞市,溝沼４丁目１０番１６－４０５号,,11,227,3510023,,,,,,,2023-11-29,1,,,,,メヴィコーポレーション,0
1684,7030001157383,新規,0,2023-11-29,2023-11-29,アーバントラストホーム株式会社,,株式会社,埼玉県,さいたま市岩槻区,東岩槻１丁目９番地２９－１Ｆ,,11,110,3390005,,,,,,,2023-11-29,1,,,,,アーバントラストホーム,0
1685,7030001157417,新規,0,2023-11-29,2023-11-29,株式会社Ｊｕｂｉｌａｔｉｏｎ,,株式会社,埼玉県,越谷市,宮本町３丁目２１番地２クレスト３－１０１,,11,222,3430806,,,,,,,2023-11-29,1,,,,,ジュビレーション,0
1692,7040001131057,新規,0,2023-11-29,2023-11-29,ディーエスサポート株式会社,,株式会社,千葉県,野田市,目吹１９番地の１,,12,208,2780001,,,,,,,2023-11-29,1,,,,,ディーエスサポート,0
1693,7040001131123,新規,0,2023-11-29,2023-11-29,株式会社ＫＲ,,株式会社,千葉県,船橋市,本町５丁目１２番１７号,,12,204,2730005,,,,,,,2023-11-29,1,,,,,ケーアール,0
1694,7040001131156,新規,0,2023-11-29,2023-11-29,ＥＩＳＨＩＮ　ＭＯＴＯＲＳ株式会社,,株式会社,千葉県,野田市,東高野字松街道８５番地８,,12,208,2700211,,,,,,,2023-11-29,1,,,,,エイシンモータース,0
1696,7040003023822,新規,0,2023-11-29,2023-11-29,合同会社清勝,,合同会社,千葉県,千葉市若葉区,源町１９５番地７,,12,104,2640037,,,,,,,2023-11-29,1,,,,,キヨマサ,0
1698,7040005022211,新規,0,2023-11-29,2023-11-29,一般社団法人こどもたいし,,その他の設立登記法人,千葉県,習志野市,大久保４丁目１２番２９号,,12,216,2750011,,,,,,,2023-11-29,1,,,,,コドモタイシ,0
1704,7070001041113,新規,0,2023-11-29,2023-11-29,株式会社ライブスター,,株式会社,群馬県,高崎市,本町４８番地フレックスビル２階西側,,10,202,3700813,,,,,,,2023-11-29,1,,,,,ライブスター,0
1709,7080101024363,新規,0,2023-11-29,2023-11-29,雲路ジャパン株式会社,,株式会社,静岡県,三島市,川原ケ谷２５０番地の１,,22,206,4110022,,,,,,,2023-11-29,1,,,,,ウンロジャパン,0
1714,7100001037009,新規,0,2023-11-29,2023-11-29,飯島醸造株式会社,,株式会社,長野県,上伊那郡飯島町,本郷１３４１番地,,20,384,3993704,,,,,,,2023-11-29,1,,,,,イイジマジョウゾウ,0
1715,7100003007273,新規,0,2023-11-29,2023-11-29,合同会社訪問リフアクト,,合同会社,長野県,岡谷市,赤羽１丁目４番１１号,,20,204,3940002,,,,,,,2023-11-29,1,,,,,ホウモンリフアクト,0
1716,7110001037998,新規,0,2023-11-29,2023-11-29,株式会社ＭＫ経営,,株式会社,新潟県,新潟市中央区,上大川前通８番町１２５５番地ＬＳビル２階,,15,103,9518068,,,,,,,2023-11-29,1,,,,,エムケーケイエイ,0
1727,7120001260104,新規,0,2023-11-29,2023-11-29,Ｙｕｕｋａａ株式会社,,株式会社,大阪府,大阪市大正区,三軒家西３丁目４番１６号中山ビル１０５３,,27,108,5510001,,,,,,,2023-11-29,1,,,,,ユーキャー,0
1728,7120001260228,新規,0,2023-11-29,2023-11-29,株式会社ＬＥＣ,,株式会社,大阪府,大阪市中央区,南船場１丁目３番１６号,,27,128,5420081,,,,,,,2023-11-29,1,,,,,レック,0
1731,7120003025422,新規,0,2023-11-29,2023-11-29,合同会社ＫＭｃｏｍｐａｎｙ,,合同会社,大阪府,大阪市中央区,玉造１丁目６番１０－６０４号,,27,128,5400004,,,,,,,2023-11-29,1,,,,,ケイエムカンパニー,0
1748,7130001075815,新規,0,2023-11-29,2023-11-29,ヨロコビラボ株式会社,,株式会社,京都府,木津川市,吐師郷和田４５番地１,,26,214,6190221,,,,,,,2023-11-29,1,,,,,ヨロコビラボ,0
1754,7140005026813,新規,0,2023-11-29,2023-11-29,特定非営利活動法人Ａ．Ｉ．Ｃ．ＡＲＭＯＲＩＥＳ,,その他の設立登記法人,兵庫県,伊丹市,緑ケ丘１丁目１２４番地４０２号室,,28,207,6640012,,,,,,,2023-11-29,1,,,,,アイクアーマリーズ,0
1761,7160001025528,新規,0,2023-11-29,2023-11-29,株式会社ぴあノバ,,株式会社,滋賀県,彦根市,野瀬町２１－４ファヌーヴ壱番館１０９,,25,202,5220055,,,,,,,2023-11-29,1,,,,,ピアノバ,0
1762,7170001017904,新規,0,2023-11-29,2023-11-29,株式会社Ａｔｈｅｎａ,,株式会社,和歌山県,和歌山市,吉田６８１番地ＩＳＳビル３階,,30,201,6408343,,,,,,,2023-11-29,1,,,,,アテナ,0
1768,7180001159076,新規,0,2023-11-29,2023-11-29,株式会社８ＧＨ,,株式会社,愛知県,名古屋市中区,栄５丁目３番６号エルマノス栄中駒ビル１１階１１Ｂ号,,23,106,4600008,,,,,,,2023-11-29,1,,,,,エイトグループホールディングス,0
1769,7180001159084,新規,0,2023-11-29,2023-11-29,株式会社ミト,,株式会社,愛知県,名古屋市西区,花原町２０１番地,,23,104,4520809,,,,,,,2023-11-29,1,,,,,ミト,0
1770,7180001159092,新規,0,2023-11-29,2023-11-29,ケーズエニシア株式会社,,株式会社,愛知県,名古屋市北区,駒止町１丁目１６番地,,23,103,4620059,,,,,,,2023-11-29,1,,,,,ケーズエニシア,0
1774,7180005020440,新規,0,2023-11-29,2023-11-29,一般社団法人Ｄ＆Ｆ,,その他の設立登記法人,愛知県,名古屋市千種区,今池３丁目２３番１２号,,23,101,4640850,,,,,,,2023-11-29,1,,,,,ディアンドエフ,0
1776,7180301038062,新規,0,2023-11-29,2023-11-29,加藤工業株式会社,,株式会社,愛知県,安城市,榎前町寒風根１番地２２,,23,212,4441214,,,,,,,2023-11-29,1,,,,,カトウコウギョウ,0
1779,7190001030921,新規,0,2023-11-29,2023-11-29,株式会社ひかりモータース,,株式会社,三重県,度会郡南伊勢町,村山１１３１番地６,,24,472,5161423,,,,,,,2023-11-29,1,,,,,ヒカリモータース,0
1788,7240001062471,新規,0,2023-11-29,2023-11-29,株式会社ＮｏｖｅｌＭｉｘ,,株式会社,広島県,広島市安佐南区,相田４丁目１５番１３－１６号,,34,105,7310141,,,,,,,2023-11-29,1,,,,,ノベルミクス,0
1802,7290001103824,新規,0,2023-11-29,2023-11-29,株式会社エスト,,株式会社,福岡県,筑紫野市,大字諸田２６番地３,,40,217,8180065,,,,,,,2023-11-29,1,,,,,エスト,0
1803,7290001103857,新規,0,2023-11-29,2023-11-29,株式会社ＰＹＴ,,株式会社,福岡県,福岡市博多区,築港本町５－２１－１３０７エンクレストベイ天神ＥＡＳＴ,,40,132,8120021,,,,,,,2023-11-29,1,,,,,ピーワイティー,0
1816,7330003010097,新規,0,2023-11-29,2023-11-29,ＮＲ運送合同会社,,合同会社,熊本県,上益城郡甲佐町,大字船津９２５－１,,43,444,8614611,,,,,,,2023-11-29,1,,,,,エヌアールウンソウ,0
1818,7340001026103,新規,0,2023-11-29,2023-11-29,シーリー株式会社,,株式会社,鹿児島県,鹿児島市,紫原３丁目５３－１３,,46,201,8900082,,,,,,,2023-11-29,1,,,,,シーリー,0
1824,7360001032875,新規,0,2023-11-29,2023-11-29,Ｍｏｂｉ　Ｃｏｎｎｅｃｔ　Ｏｋｉｎａｗａ株式会社,,株式会社,沖縄県,那覇市,泉崎１丁目２０番１号カフーナ旭橋Ａ街区那覇オーパ３階,,47,201,9000021,,,,,,,2023-11-29,1,,,,,モビコネクトオキナワ,0
1831,7410001013655,新規,0,2023-11-29,2023-11-29,アップスタート株式会社,,株式会社,秋田県,秋田市,仁井田潟中町２番３１号,,05,201,0101435,,,,,,,2023-11-29,1,,,,,アップスタート,0
1843,7430003015697,新規,0,2023-11-29,2023-11-29,合同会社ＫＨＦ工業,,合同会社,北海道,札幌市北区,北二十八条西１１丁目２番１２号ＮＯ１２角栄ビル１階,,01,102,0010028,,,,,,,2023-11-29,1,,,,,ケイエイチエフコウギョウ,0
1850,7500003003141,新規,0,2023-11-29,2023-11-29,柳工業合同会社,00132825,合同会社,愛媛県,新居浜市,松原町１番１９号シャルム松原２０３号,,38,205,7920828,,,,,,,2023-11-29,1,,,,,ヤナギコウギョウ,0
1853,7700150122467,新規,0,2023-11-29,2023-11-29,Ｚｏｏｍｇｅｔ　ＬＬＣ,,外国会社等,,,,,,,,３７３３　Ｈｏｗａｒｄ　Ｈｕｇｈｅｓ　Ｐｋｗｙ，Ｓｕｉｔｅ　５００Ｓ，Ｌａｓ　Ｖｅｇａｓ，ＮＶ，ＵＳＡ,,,,,,2023-11-29,1,,,,,ズームゲットエルエルシー,0
1854,8000020478547,新規,0,2023-11-29,2023-11-29,沖縄県北部医療組合,,地方公共団体,沖縄県,名護市,大南１丁目１３番１１号,,47,209,9050015,,,,,,,2023-11-29,1,,,,,オキナワケンホクブイリョウクミアイ,0
1859,8010001240297,新規,0,2023-11-29,2023-11-29,Ｑデザイン株式会社,,株式会社,東京都,中央区,銀座１丁目１２番４号Ｎ＆ＥＢＬＤ．６Ｆ,,13,102,1040061,,,,,,,2023-11-29,1,,,,,キュウデザイン,0
1860,8010001240388,新規,0,2023-11-29,2023-11-29,ＳＥＫＡ　ＭＡＴＥＲＩＡＬ株式会社,,株式会社,東京都,千代田区,丸の内２丁目２番１号岸本ビル７階,,13,101,1000005,,,,,,,2023-11-29,1,,,,,セカマティリアル,0
1865,8010003042312,新規,0,2023-11-29,2023-11-29,東京有明インベストメント合同会社,,合同会社,東京都,千代田区,霞が関３丁目２番５号,,13,101,1000013,,,,,,,2023-11-29,1,,,,,トウキョウアリアケインベストメント,0
1866,8010003042329,新規,0,2023-11-29,2023-11-29,エスティファンドテン合同会社,,合同会社,東京都,千代田区,丸の内３丁目１番１号東京共同会計事務所内,,13,101,1000005,,,,,,,2023-11-29,1,,,,,エスティファンドテン,0
1867,8010003042337,新規,0,2023-11-29,2023-11-29,合同会社若葉,,合同会社,東京都,文京区,本駒込１丁目２８番１７－Ａ８０３号,,13,105,1130021,,,,,,,2023-11-29,1,,,,,ワカバ,0
1877,8010403031294,新規,0,2023-11-29,2023-11-29,合同会社ＭＷＡＮＧＡ,,合同会社,東京都,港区,六本木７丁目３番１３号,,13,103,1060032,,,,,,,2023-11-29,1,,,,,ムワンガ,0
1888,8010901054268,新規,0,2023-11-29,2023-11-29,株式会社ＺＥＮインベストメント,,株式会社,東京都,世田谷区,経堂５丁目３３番１６号エクレールコート経堂７０３号室,,13,112,1560052,,,,,,,2023-11-29,1,,,,,ゼンインベストメント,0
1895,8011001158455,新規,0,2023-11-29,2023-11-29,株式会社ＰｏｌｉｓｈＵ,,株式会社,東京都,渋谷区,恵比寿西２丁目１７－１９－１０１,,13,113,1500021,,,,,,,2023-11-29,1,,,,,ポリッシュ,0
1898,8011003017997,新規,0,2023-11-29,2023-11-29,合同会社安田商会,,合同会社,東京都,目黒区,南２丁目１０番７号,,13,110,1520013,,,,,,,2023-11-29,1,,,,,ヤスダショウカイ,0
1899,8011003018005,新規,0,2023-11-29,2023-11-29,合同会社レオテック,,合同会社,東京都,渋谷区,道玄坂１丁目１０番８号渋谷道玄坂東急ビル２Ｆ－Ｃ,,13,113,1500043,,,,,,,2023-11-29,1,,,,,レオテック,0
1902,8011101105266,新規,0,2023-11-29,2023-11-29,株式会社Ａ‐Ｅ‐Ｇ,,株式会社,東京都,新宿区,歌舞伎町２丁目２２番１３号,,13,104,1600021,,,,,,,2023-11-29,1,,,,,エーイージー,0
1903,8011201025075,新規,0,2023-11-29,2023-11-29,株式会社ｔｗｌ,,株式会社,東京都,中野区,新井３丁目１６番７号,,13,114,1650026,,,,,,,2023-11-29,1,,,,,ティダブリュエル,0
1905,8011301029208,新規,0,2023-11-29,2023-11-29,株式会社フォークボール,,株式会社,東京都,杉並区,下高井戸４丁目３５番２７号,,13,115,1680073,,,,,,,2023-11-29,1,,,,,フォークボール,0
1919,8012305002068,新規,0,2023-11-29,2023-11-29,一般社団法人つるかわ図書コミュニティ施設運営協議会,,その他の設立登記法人,東京都,町田市,鶴川６丁目７番地２－１の１０１,,13,209,1950061,,,,,,,2023-11-29,1,,,,,ツルカワトショコミュニティシセツウンエイキョウギカイ,0
1925,8013301051678,新規,0,2023-11-29,2023-11-29,株式会社晟京,,株式会社,東京都,豊島区,巣鴨５丁目１４－８ハイネス第２巣鴨９０１号,,13,116,1700002,,,,,,,2023-11-29,1,,,,,セイキョウ,0
1926,8013301051686,新規,0,2023-11-29,2023-11-29,株式会社ギャラクシー,,株式会社,東京都,豊島区,池袋４丁目３５番２号,,13,116,1710014,,,,,,,2023-11-29,1,,,,,ギャラクシー,0
1934,8020001154661,新規,0,2023-11-29,2023-11-29,株式会社えんむすび,,株式会社,神奈川県,横浜市戸塚区,汲沢６丁目８番３２号,,14,110,2450061,,,,,,,2023-11-29,1,,,,,エンムスビ,0
1935,8020001154678,新規,0,2023-11-29,2023-11-29,株式会社アシストサービス,,株式会社,神奈川県,横浜市神奈川区,羽沢町９９９番地グリーンヴァレイＡ－２０３号,,14,102,2210863,,,,,,,2023-11-29,1,,,,,アシストサービス,0
1939,8020003025076,新規,0,2023-11-29,2023-11-29,合同会社サムズ,,合同会社,神奈川県,川崎市宮前区,けやき平１番１４－１０２号,,14,136,2160023,,,,,,,2023-11-29,1,,,,,サムズ,0
1946,8021003013847,新規,0,2023-11-29,2023-11-29,合同会社花こみち,,合同会社,神奈川県,藤沢市,鵠沼桜が岡４丁目２番６号,,14,205,2510027,,,,,,,2023-11-29,1,,,,,ハナコミチ,0
1952,8030001157309,新規,0,2023-11-29,2023-11-29,株式会社ＳａｎＬｉｇｈｔ,,株式会社,埼玉県,さいたま市浦和区,北浦和１丁目２４－２６－３０６,,11,107,3300074,,,,,,,2023-11-29,1,,,,,サンライト,0
1953,8030001157408,新規,0,2023-11-29,2023-11-29,株式会社ＴＭＥ・Ｎｅｘｕｓ,,株式会社,埼玉県,所沢市,寿町２７番７－１６１１号コンセールタワー所沢,,11,208,3591122,,,,,,,2023-11-29,1,,,,,ティーエムイーネクサス,0
1954,8030001157416,新規,0,2023-11-29,2023-11-29,株式会社ＨＫサービス,,株式会社,埼玉県,戸田市,喜沢１丁目３１番地の１,,11,224,3350013,,,,,,,2023-11-29,1,,,,,エイチケーサービス,0
1955,8030001157432,新規,0,2023-11-29,2023-11-29,オーガニックアグリテック株式会社,,株式会社,埼玉県,児玉郡上里町,大字勅使河原７１４番地,,11,385,3690311,,,,,,,2023-11-29,1,,,,,オーガニックアグリテック,0
1959,8030005021485,新規,0,2023-11-29,2023-11-29,一般社団法人八潮ＳｐｏｒｔｓＣｌｕｂ,,その他の設立登記法人,埼玉県,八潮市,八潮７丁目１３番地２２,,11,234,3400815,,,,,,,2023-11-29,1,,,,,ヤシオスポーツクラブ,0
1965,8040001131114,新規,0,2023-11-29,2023-11-29,深快国際物流株式会社,,株式会社,千葉県,松戸市,小山７０５番地の１リビオ松戸ヒルズフィールド７１１号,,12,207,2710093,,,,,,,2023-11-29,1,,,,,シンカイコクサイブツリュウ,0
1966,8040001131139,新規,0,2023-11-29,2023-11-29,株式会社ａｇａｐｅ,,株式会社,千葉県,松戸市,中根１０－１－５０９,,12,207,2710053,,,,,,,2023-11-29,1,,,,,アガペー,0
1968,8040003023821,新規,0,2023-11-29,2023-11-29,合同会社彩り,,合同会社,千葉県,船橋市,北本町２丁目６６番２３号,,12,204,2730864,,,,,,,2023-11-29,1,,,,,イロドリ,0
1972,8050001053869,新規,0,2023-11-29,2023-11-29,株式会社藤原工業,,株式会社,茨城県,鹿嶋市,大字港ケ丘２７３番地１１２,,08,222,3140011,,,,,,,2023-11-29,1,,,,,フジハラコウギョウ,0
1978,8070001041112,新規,0,2023-11-29,2023-11-29,株式会社ＵＰＳＴＡＴＥ,,株式会社,群馬県,藤岡市,小林１１３８番地,,10,209,3750021,,,,,,,2023-11-29,1,,,,,アップステート,0
1984,8080103002928,新規,0,2023-11-29,2023-11-29,ＡＤＮＡＡＮ　ＳＨＯＫＡＩ合同会社,,合同会社,静岡県,富士宮市,北山４９６３番地８－３０Ｃ,,22,207,4180112,,,,,,,2023-11-29,1,,,,,アドナーンショウカイ,0
1986,8100001037016,新規,0,2023-11-29,2023-11-29,雅株式会社,,株式会社,長野県,安曇野市,豊科南穂高４１７番地１,,20,220,3998201,,,,,,,2023-11-29,1,,,,,ミヤビ,0
1988,8110001037997,新規,0,2023-11-29,2023-11-29,ＥＦＤ　ＰＲＯＪＥＣＴ株式会社,,株式会社,新潟県,新潟市中央区,西湊町通２ノ町２６８７番地９,,15,103,9518026,,,,,,,2023-11-29,1,,,,,イーエフディープロジェクト,0
1999,8120001260235,新規,0,2023-11-29,2023-11-29,株式会社Ａｌｌｙ,,株式会社,大阪府,大阪市中央区,平野町１丁目３－２コイケビルディング３０２,,27,128,5410046,,,,,,,2023-11-29,1,,,,,アライ,0
2000,8120001260243,新規,0,2023-11-29,2023-11-29,株式会社Ａｒｃ　Ｌｉｆｅ,,株式会社,大阪府,大阪市西区,立売堀４丁目６－２０－６０１,,27,106,5500012,,,,,,,2023-11-29,1,,,,,アークライフ,0
2011,8120901048424,新規,0,2023-11-29,2023-11-29,株式会社ＭｅｄｉＣｏｇ,,株式会社,大阪府,吹田市,江坂町１丁目２２番２８－３０９号,,27,205,5640063,,,,,,,2023-11-29,1,,,,,メディコグ,0
2022,8140001132507,新規,0,2023-11-29,2023-11-29,株式会社バリトロピカルジャパン,,株式会社,兵庫県,三木市,口吉川町保木３５６番地,,28,215,6730742,,,,,,,2023-11-29,1,,,,,バリトロピカルジャパン,0
2027,8170001017903,新規,0,2023-11-29,2023-11-29,株式会社ヴィンテオ,,株式会社,和歌山県,和歌山市,栄谷６２８－３,,30,201,6408441,,,,,,,2023-11-29,1,,,,,ヴィンテオ,0
2038,8180001159091,新規,0,2023-11-29,2023-11-29,株式会社ＭＵＧＨＡＬ　ＩＭＰＥＸ,,株式会社,愛知県,海部郡飛島村,大字梅之郷字中梅８８番地３,,23,427,4901435,,,,,,,2023-11-29,1,,,,,ムガールインペックス,0
2042,8180003026042,新規,0,2023-11-29,2023-11-29,光貿易合同会社,,合同会社,愛知県,名古屋市中村区,荒輪井町２丁目１８番地,,23,105,4530848,,,,,,,2023-11-29,1,,,,,ヒカリボウエキ,0
2043,8180003026050,新規,0,2023-11-29,2023-11-29,合同会社ブルー,,合同会社,愛知県,あま市,中萱津鴻巣１５番地４－Ｂ１０１号,,23,237,4901113,,,,,,,2023-11-29,1,,,,,ブルー,0
2047,8180301038061,新規,0,2023-11-29,2023-11-29,株式会社ネイバー,,株式会社,愛知県,西尾市,米津町雨堀４５番地１,,23,213,4450802,,,,,,,2023-11-29,1,,,,,ネイバー,0
2050,8210005010123,新規,0,2023-11-29,2023-11-29,特定非営利活動法人後見さくら,,その他の設立登記法人,福井県,福井市,順化１丁目２４番４３号ストークビル福井一番館２０１,,18,201,9100023,,,,,,,2023-11-29,1,,,,,コウケンサクラ,0
2051,8230001020124,新規,0,2023-11-29,2023-11-29,株式会社Ｋｏｈ,,株式会社,富山県,富山市,田中町１丁目７番５８号,,16,201,9300985,,,,,,,2023-11-29,1,,,,,コウ,0
2053,8240002034568,新規,0,2023-11-29,2023-11-29,有限会社川本建設,,有限会社,広島県,呉市,蒲刈町田戸１９４９番地,,34,202,7370403,,,,,,,2023-11-29,1,,,,,カワモトケンセツ,0
2067,8290001103831,新規,0,2023-11-29,2023-11-29,株式会社レコルト,,株式会社,福岡県,春日市,上白水３丁目１１９,,40,218,8160844,,,,,,,2023-11-29,1,,,,,レコルト,0
2068,8290001103856,新規,0,2023-11-29,2023-11-29,株式会社福岡ギラソール,,株式会社,福岡県,福岡市博多区,板付５丁目１６番２４号,,40,132,8120888,,,,,,,2023-11-29,1,,,,,フクオカギラソール,0
2075,8330001031524,新規,0,2023-11-29,2023-11-29,株式会社ＭＭＫ,,株式会社,熊本県,熊本市中央区,下通１丁目１１－２１,,43,101,8600807,,,,,,,2023-11-29,1,,,,,エムエムケー,0
2077,8330003010105,新規,0,2023-11-29,2023-11-29,合同会社ｉｎｆｉｎｉｔｅ,,合同会社,熊本県,菊池郡菊陽町,大字津久礼２９５０番地１４,,43,404,8691101,,,,,,,2023-11-29,1,,,,,インフィニット,0
2092,8360001032874,新規,0,2023-11-29,2023-11-29,株式会社ツインズサンセット,,株式会社,沖縄県,中頭郡中城村,字当間７９６番地８,,47,328,9012406,,,,,,,2023-11-29,1,,,,,ツインズサンセット,0
2099,8380005012771,新規,0,2023-11-29,2023-11-29,一般社団法人未来,,その他の設立登記法人,福島県,南相馬市,原町区栄町３丁目２２番地,,07,212,9750003,,,,,,,2023-11-29,1,,,,,ミライ,0
2101,8410001013654,新規,0,2023-11-29,2023-11-29,株式会社秋田新鮮組,,株式会社,秋田県,横手市,睦成字久保目１１０番地,,05,203,0130008,,,,,,,2023-11-29,1,,,,,アキタシンセングミ,0
2106,8430005014837,新規,0,2023-11-29,2023-11-29,一般社団法人ちかくのおとな,,その他の設立登記法人,北海道,札幌市南区,澄川四条２丁目１５番３－１０２号,,01,106,0050004,,,,,,,2023-11-29,1,,,,,チカクノオトナ,0
2109,8460101007469,新規,0,2023-11-29,2023-11-29,株式会社西帯広商事,,株式会社,北海道,帯広市,西十八条南１丁目２番３６号,,01,207,0800028,,,,,,,2023-11-29,1,,,,,ニシオビヒロショウジ,0
2119,8700150120453,新規,0,2023-11-29,2023-11-29,Ｓｈｅｎｚｈｅｎ　Ｙｏｕｔｕｓｈｅｎｇ　Ｄｉａｎｚｉｋｅｊｉ　Ｙｏｕｘｉａｎｇｏｎｇｓｉ,,外国会社等,,,,,,,,４Ｅ－１４７，Ｎｏ１．Ｔｒａｄｅ　Ｓｑｕａｒｅ　ｏｆ　Ｃｈｉｎａ　Ｓｏｕｔｈ　ＣｉｔｙＰｉｎｇｊｉ　Ｎｏｒｔｈ　Ｒｄ，Ｐｉｎｇｈｕ　Ｓｔ，ＬｏｎｇｇｕａｎｇＳｈｅｎｚｈｅｎ　Ｇｕａｎｇｄｏｎｇ５１８０００ＣＮ,,,,,,2023-11-29,1,,,,,シェンジェンヨウトゥーションディェンズーカージヨウシェンゴンス,0
2120,8700150120461,新規,0,2023-11-29,2023-11-29,Ｕ－ｐｌａｙ　Ｃｏｒｐｏｒａｔｉｏｎ,,外国会社等,,,,,,,,Ｎｏ．７，ＦｕＭｉｎ　Ｒｏａｄ　Ｗｕｈｕ　Ａｒｅａ　ｏｆ　Ｃｈｉｎａ（Ａｎｈｕｉ）Ｐｉｌｏｔ　Ｆｒｅｅ　Ｔｒａｄｅ　Ｚｏｎｅ　Ｗｕｈｕ　Ａｎｈｕｉ　２４１０００　ＣＮ,,,,,,2023-11-29,1,,,,,ユープレイコーポレーション,0
2125,9010001240387,新規,0,2023-11-29,2023-11-29,株式会社ＫＳＦＲ１１,,株式会社,東京都,千代田区,内幸町２丁目１番６号,,13,101,1000011,,,,,,,2023-11-29,1,,,,,ケイエスエフアールイレブン,0
2131,9010003042286,新規,0,2023-11-29,2023-11-29,合同会社エンブルー投資４号,,合同会社,東京都,千代田区,神田須田町１丁目２４－５ＴＨＥＣＲＯＳＳ神田５階,,13,101,1010041,,,,,,,2023-11-29,1,,,,,エンブルートウシヨンゴウ,0
2132,9010003042311,新規,0,2023-11-29,2023-11-29,Ｃ．Ｍ．Ｍ合同会社,,合同会社,東京都,千代田区,丸の内３丁目２番２号,,13,101,1000005,,,,,,,2023-11-29,1,,,,,シーエムエム,0
2133,9010003042328,新規,0,2023-11-29,2023-11-29,エスティファンドナイン合同会社,,合同会社,東京都,千代田区,丸の内３丁目１番１号東京共同会計事務所内,,13,101,1000005,,,,,,,2023-11-29,1,,,,,エスティファンドナイン,0
2143,9010403031459,新規,0,2023-11-29,2023-11-29,合同会社黒田,,合同会社,東京都,港区,芝浦４丁目２２番１号,,13,103,1080023,,,,,,,2023-11-29,1,,,,,クロダ,0
2145,9010405022737,新規,0,2023-11-29,2023-11-29,一般社団法人ＴＳＭ１６２,,その他の設立登記法人,東京都,港区,元赤坂１丁目１番７号,,13,103,1070051,,,,,,,2023-11-29,1,,,,,ティーエスエムヒャクロクジュウニ,0
2158,9010901054259,新規,0,2023-11-29,2023-11-29,株式会社Ｐｙｇｍａｌｉｎ,,株式会社,東京都,世田谷区,駒沢３丁目２番１号ヴェルファーレ彩駒沢８Ｆ,,13,112,1540012,,,,,,,2023-11-29,1,,,,,ピグマリン,0
2160,9010903008618,新規,0,2023-11-29,2023-11-29,オハナ・アンド・マハロ合同会社,,合同会社,東京都,世田谷区,等々力４丁目４－２,,13,112,1580082,,,,,,,2023-11-29,1,,,,,オハナアンドマハロ,0
2165,9011001158454,新規,0,2023-11-29,2023-11-29,ターングループ株式会社,,株式会社,東京都,渋谷区,宇田川町３６－６ワールド宇田川ビル６Ｆ,,13,113,1500042,,,,,,,2023-11-29,1,,,,,ターングループ,0
2166,9011001158462,新規,0,2023-11-29,2023-11-29,株式会社スフィーダ,,株式会社,東京都,渋谷区,丸山町５番５号Ｎａｖｉ渋谷Ｖ３階,,13,113,1500000,,,,,,,2023-11-29,1,,,,,スフィーダ,0
2167,9011001158512,新規,0,2023-11-29,2023-11-29,株式会社ｒｋ,,株式会社,東京都,渋谷区,神宮前６丁目２３番４号桑野ビル２階,,13,113,1500001,,,,,,,2023-11-29,1,,,,,アールケー,0
2168,9011003018004,新規,0,2023-11-29,2023-11-29,合同会社Ｐｒｏｐｓ,,合同会社,東京都,渋谷区,笹塚３丁目３４番３号,,13,113,1510073,,,,,,,2023-11-29,1,,,,,プロップス,0
2177,9011501030006,新規,0,2023-11-29,2023-11-29,白沢千里医療科学技術株式会社,,株式会社,東京都,荒川区,南千住３丁目２７－２浅草ビル,,13,118,1160003,,,,,,,2023-11-29,1,,,,,シロサワセンリイリョウカガクテクノロジー,0
2178,9011501030055,新規,0,2023-11-29,2023-11-29,株式会社アセット・オルタナティブズ,,株式会社,東京都,北区,神谷１丁目９－３－１００２,,13,117,1150043,,,,,,,2023-11-29,1,,,,,アセットオルタナティブズ,0
2181,9011701026794,新規,0,2023-11-29,2023-11-29,株式会社ＭＳＫ,,株式会社,東京都,江戸川区,清新町１丁目１番２１－２０１号,,13,123,1340087,,,,,,,2023-11-29,1,,,,,エムエスケー,0
2187,9012801022782,新規,0,2023-11-29,2023-11-29,エンリッチカンパニー株式会社,,株式会社,東京都,日野市,新町５丁目１６番地の１３,,13,212,1910002,,,,,,,2023-11-29,1,,,,,エンリッチカンパニー,0
2194,9020001154652,新規,0,2023-11-29,2023-11-29,株式会社エイテック,,株式会社,神奈川県,横浜市泉区,上飯田町１８９番地,,14,116,2450018,,,,,,,2023-11-29,1,,,,,エイテック,0
2195,9020001154677,新規,0,2023-11-29,2023-11-29,株式会社Ｌｏｇｉｃａｌ　Ｑｕｂｉｔｓ,,株式会社,神奈川県,横浜市戸塚区,矢部町１３５番地４２,,14,110,2440002,,,,,,,2023-11-29,1,,,,,ロジカルキュービッツ,0
2197,9020003025067,新規,0,2023-11-29,2023-11-29,合同会社ＫＥＹＬＡ,,合同会社,神奈川県,横浜市神奈川区,松ケ丘３３番地８,,14,102,2210843,,,,,,,2023-11-29,1,,,,,キーラ,0
2202,9021003013846,新規,0,2023-11-29,2023-11-29,ＮＩＨＯＮ　ＡＵＴＯＭＯＴＩＶＥ合同会社,,合同会社,神奈川県,厚木市,愛名１０２７番地サンシャインハウス２階２１５号室,,14,212,2430038,,,,,,,2023-11-29,1,,,,,ニホンオートモーティブ,0
2209,9030001157407,新規,0,2023-11-29,2023-11-29,ロックフィールズ株式会社,,株式会社,埼玉県,さいたま市大宮区,吉敷町３丁目２２９番地６キシキチョウテラスＢ,,11,103,3300843,,,,,,,2023-11-29,1,,,,,ロックフィールズ,0
2214,9030003023078,新規,0,2023-11-29,2023-11-29,Ｔｉｇｒｏ合同会社,,合同会社,埼玉県,富士見市,水谷東３丁目１０番１０号,,11,235,3540013,,,,,,,2023-11-29,1,,,,,ティグロ,0
2216,9040001131105,新規,0,2023-11-29,2023-11-29,株式会社メディアハーツ,,株式会社,千葉県,船橋市,本町４丁目５番２８号正栄ビル２階,,12,204,2730005,,,,,,,2023-11-29,1,,,,,メディアハーツ,0
2217,9040001131113,新規,0,2023-11-29,2023-11-29,株式会社上信建設,,株式会社,千葉県,市川市,新井３丁目２４番１－３０３号,,12,203,2720144,,,,,,,2023-11-29,1,,,,,ジョウシンケンセツ,0
2218,9040001131121,新規,0,2023-11-29,2023-11-29,株式会社ＢＩＫＥ＆ＲＵＮ,,株式会社,千葉県,柏市,つくしが丘５丁目３番２号,,12,217,2770072,,,,,,,2023-11-29,1,,,,,バイクアンドラン,0
2219,9040001131138,新規,0,2023-11-29,2023-11-29,株式会社プロジェクトエヌ,,株式会社,千葉県,流山市,おおたかの森西１丁目２番３号アゼリアテラス９０２,,12,220,2700128,,,,,,,2023-11-29,1,,,,,プロジェクトエヌ,0
2225,9050001053876,新規,0,2023-11-29,2023-11-29,株式会社杉並スマートファーム,,株式会社,茨城県,石岡市,杉並４丁目３番１７号,,08,205,3150027,,,,,,,2023-11-29,1,,,,,スギナミスマートファーム,0
2230,9060001036590,新規,0,2023-11-29,2023-11-29,株式会社那須横沢ホテルマネジメント,,株式会社,栃木県,那須郡那須町,大字高久乙２２９４番地３,,09,407,3250303,,,,,,,2023-11-29,1,,,,,ナスヨコザワホテルマネジメント,0
2235,9070001041111,新規,0,2023-11-29,2023-11-29,株式会社ラプラス,,株式会社,群馬県,藤岡市,藤岡９１３番地８,,10,209,3750024,,,,,,,2023-11-29,1,,,,,,0
2241,9080102022538,新規,0,2023-11-29,2023-11-29,有限会社大杉屋ふとん店,,有限会社,静岡県,富士宮市,北山２８９８番地,,22,207,4180112,,,,,,,2023-11-29,1,,,,,オオスギヤフトンテン,0
2248,9100001037015,新規,0,2023-11-29,2023-11-29,星月株式会社,,株式会社,長野県,安曇野市,穂高柏原１６７５番地３５,,20,220,3998304,,,,,,,2023-11-29,1,,,,,ホシツキ,0
2268,9120001260234,新規,0,2023-11-29,2023-11-29,信達株式会社,,株式会社,大阪府,大阪市北区,天満２丁目１－１２天満橋ＳＥビル４Ｆ,,27,127,5300043,,,,,,,2023-11-29,1,,,,,シンダチ,0
2269,9120001260242,新規,0,2023-11-29,2023-11-29,株式会社更成,,株式会社,大阪府,大阪市住吉区,我孫子５丁目１番７号,,27,120,5580014,,,,,,,2023-11-29,1,,,,,コウセイ,0
2278,9120101068602,新規,0,2023-11-29,2023-11-29,ニード株式会社,,株式会社,大阪府,堺市北区,南花田町４１７番地３,,27,146,5918011,,,,,,,2023-11-29,1,,,,,ニード,0
2289,9122001037612,新規,0,2023-11-29,2023-11-29,株式会社勝心,,株式会社,大阪府,東大阪市,稲田新町２丁目３７番２４号メゾンドール４０７号,,27,227,5770004,,,,,,,2023-11-29,1,,,,,ショウシン,0
2293,9130001075821,新規,0,2023-11-29,2023-11-29,Ｋｏｍｏｒｉ　Ｃｏｎｓｕｌｔｉｎｇ　Ｆｉｒｍ株式会社,,株式会社,京都府,京都市左京区,松ケ崎小竹藪町２７番地４０,,26,103,6060000,,,,,,,2023-11-29,1,,,,,コモリコンサルティングファーム,0
2300,9140001132514,新規,0,2023-11-29,2023-11-29,株式会社ＣＡＳＡ　ＤＯＬＣＥ＆Ｈ,,株式会社,兵庫県,芦屋市,船戸町三丁目２４番１号ＭＴビル２０１,,28,206,6590093,,,,,,,2023-11-29,1,,,,,カーザドルチェアンドエイチ,0
2301,9140003019866,新規,0,2023-11-29,2023-11-29,大日産業合同会社,,合同会社,兵庫県,姫路市,余部区下余部１０１番地３,,28,201,6711261,,,,,,,2023-11-29,1,,,,,ダイニチサンギョウ,0
2311,9180001159082,新規,0,2023-11-29,2023-11-29,株式会社ピーチベル,,株式会社,愛知県,名古屋市緑区,鹿山１丁目３８番地ローレルコートエスタ鹿山２０１号,,23,114,4580045,,,,,,,2023-11-29,1,,,,,ピーチベル,0
2312,9180001159090,新規,0,2023-11-29,2023-11-29,ユウホーム株式会社,,株式会社,愛知県,瀬戸市,八幡町２８３番地,,23,204,4890862,,,,,,,2023-11-29,1,,,,,ユウホーム,0
2315,9180301038060,新規,0,2023-11-29,2023-11-29,株式会社トヨカイ,,株式会社,愛知県,豊川市,当古町西本郷７１番地の１２,,23,207,4420821,,,,,,,2023-11-29,1,,,,,トヨカイ,0
2333,9260005011297,新規,0,2023-11-29,2023-11-29,一般社団法人岡山こども食堂支援センター,,その他の設立登記法人,岡山県,倉敷市,鶴形２丁目４番２０号宮坂町の家,,33,202,7100056,,,,,,,2023-11-29,1,,,,,オカヤマコドモショクドウシエンセンター,0
2340,9290005019206,新規,0,2023-11-29,2023-11-29,一般社団法人結クリニック,,その他の設立登記法人,福岡県,福岡市城南区,樋井川３丁目２９番２８－１０３号ラヴィタ城南Ａ棟,,40,136,8140153,,,,,,,2023-11-29,1,,,,,ユイクリニック,0
2341,9320001020163,新規,0,2023-11-29,2023-11-29,双日大分農人株式会社,,株式会社,大分県,国東市,武蔵町古市１７０番地３,,44,214,8730412,,,,,,,2023-11-29,1,,,,,ソウジツオオイタノウジン,0
2346,9360003013509,新規,0,2023-11-29,2023-11-29,ＬＵＭＩＮＵＳ合同会社,,合同会社,沖縄県,沖縄市,上地２丁目７番２号２０２,,47,211,9040031,,,,,,,2023-11-29,1,,,,,ルミヌス,0
2348,9380001034141,新規,0,2023-11-29,2023-11-29,株式会社山拳,,株式会社,福島県,郡山市,安積町日出山３丁目８番地,,07,203,9630101,,,,,,,2023-11-29,1,,,,,ヤマケン,0
2349,9380003005628,新規,0,2023-11-29,2023-11-29,合同会社Ｈｉｄａｎｅ,,合同会社,福島県,南相馬市,小高区本町１丁目８７番地,,07,212,9792124,,,,,,,2023-11-29,1,,,,,ヒダネ,0
2359,9430001090501,新規,0,2023-11-29,2023-11-29,ＡＲＩ　ＪＡＰＡＮ株式会社,,株式会社,北海道,札幌市豊平区,平岸六条１３丁目３番７号,,01,105,0620936,,,,,,,2023-11-29,1,,,,,エーアールアイジャパン,0
2360,9430001090526,新規,0,2023-11-29,2023-11-29,株式会社ＧＢ　ＡＲＴ　ＭＡＫＥ,,株式会社,北海道,札幌市中央区,南五条西２丁目１番地１４－６Ｆ,,01,101,0640805,,,,,,,2023-11-29,1,,,,,ジービーアートメイク,0
2369,9700150005868,新規,0,2023-11-29,2015-10-09,創価学会インタナショナル,,その他,東京都,新宿区,左門町１５－３,,13,104,1600017,,,,,,,2015-10-09,1,,,,,ソウカガツカイインタナシヨナル,0
