sequenceNumber,corporateNumber,process,correct,updateDate,changeDate,name,nameImageId,kind,prefectureName,cityName,streetNumber,addressImageId,prefectureCode,cityCode,postCode,addressOutside,addressOutsideImageId,closeDate,closeCause,successorCorporateNumber,changeCause,assignmentDate,latest,enName,enPrefectureName,enCityName,enAddressOutside,furigana,hihyoji
13,1010002044258,登記記録の閉鎖等,0,2022-05-17,2022-04-27,有限会社ボニータ,,有限会社,東京都,文京区,音羽１丁目２０番１６号,,13,105,1120013,,,2022-04-27,清算の結了等,,,2015-10-05,1,,,,,ボニータ,0
15,1010003034126,登記記録の閉鎖等,0,2022-05-17,2022-04-28,合同会社東京レジデンシャル４,,合同会社,東京都,中央区,日本橋１丁目４番１号,,13,102,1030027,,,2022-04-28,清算の結了等,,,2021-02-08,1,,,,,トウキョウレジデンシャルフォー,0
24,1010401105115,登記記録の閉鎖等,0,2022-05-17,2022-04-22,株式会社ＡＣＤ　Ａｓｉａ　Ｐｌｕｓ,,株式会社,東京都,港区,南青山６丁目８番地３号南青山セピアコート３０３,,13,103,1070062,,,2022-04-22,清算の結了等,,,2015-10-05,1,,,,,エーシーディーアジアプラス,0
26,1010401153394,登記記録の閉鎖等,0,2022-05-17,2022-04-25,株式会社Ｋ．Ｔドルフィン,,株式会社,東京都,港区,新橋３丁目１１番８号,,13,103,1050004,,,2022-04-25,清算の結了等,,,2020-06-16,1,,,,,ケイティドルフィン,0
27,1010403020493,登記記録の閉鎖等,0,2022-05-17,2022-04-26,ブルーエナジーブリッジファンドベータ合同会社,,合同会社,東京都,港区,元赤坂１丁目１番７号,,13,103,1070051,,,2022-04-26,清算の結了等,,,2019-04-05,1,,,,,ブルーエナジーブリッジファンドベータ,0
59,1011603002686,登記記録の閉鎖等,0,2022-05-17,2022-05-09,合同会社ＸＴテック・ラボ,,合同会社,埼玉県,川口市,本町３丁目２－７－６１０号,,11,203,3320012,,,2022-05-09,清算の結了等,,,2019-07-17,1,,,,,エックスティーテックラボ,0
70,1020001008584,登記記録の閉鎖等,0,2022-05-17,2022-05-06,株式会社コマツホーム,,株式会社,神奈川県,川崎市宮前区,菅生２丁目５番２５－５０１号,,14,136,2160015,,,2022-05-06,清算の結了等,,,2015-10-05,1,,,,,コマツホーム,0
75,1020002068801,登記記録の閉鎖等,0,2022-05-17,2022-05-02,有限会社エヌ・ジェー・シー・ホーム,,有限会社,神奈川県,横浜市保土ケ谷区,神戸町１１番地５,,14,106,2400005,,,2022-05-02,清算の結了等,,,2015-10-05,1,,,,,エヌジェーシーホーム,0
95,1030001133745,登記記録の閉鎖等,0,2022-05-17,2022-05-11,株式会社横井不動産,,株式会社,埼玉県,本庄市,けや木２丁目２－３リリア本庄ビル１０３号室,,11,211,3670042,,,2022-05-11,清算の結了等,,,2019-11-22,1,,,,,ヨコイフドウサン,0
101,1030002083106,登記記録の閉鎖等,0,2022-05-17,2022-05-09,有限会社印章と文具のすゞき,,有限会社,埼玉県,北本市,東間１丁目１１９番地,,11,233,3640007,,,2022-05-09,清算の結了等,,,2015-10-05,1,,,,,インショウトブングノスズキ,0
105,1040001092098,登記記録の閉鎖等,0,2022-05-17,2022-05-10,株式会社耕筰舎,,株式会社,千葉県,松戸市,五香６丁目２０番地の７クレードミウラ２０１号,,12,207,2702213,,,2022-05-10,清算の結了等,,,2015-10-05,1,,,,,コウサクシャ,0
116,1050001022319,登記記録の閉鎖等,0,2022-05-17,2022-05-11,株式会社ユービルト,,株式会社,茨城県,神栖市,太田７０３番地７４,,08,232,3140254,,,2022-05-11,清算の結了等,,,2015-10-05,1,,,,,ユービルト,0
123,1070001009859,登記記録の閉鎖等,0,2022-05-17,2022-05-02,関東旅行株式会社,,株式会社,群馬県,安中市,中宿５１番地１,,10,211,3790115,,,2022-05-02,清算の結了等,,,2015-10-05,1,,,,,カントウリョコウ,0
126,1080102012249,登記記録の閉鎖等,0,2022-05-17,2022-05-16,有限会社リョーカイ,,有限会社,静岡県,三島市,日の出町４番３５号,,22,206,4110851,,,2022-05-16,清算の結了等,,,2015-10-05,1,,,,,リョーカイ,0
127,1080105002305,登記記録の閉鎖等,0,2022-05-17,2022-05-13,医療法人社団愛育会,,その他の設立登記法人,静岡県,三島市,南本町１３番３６号,,22,206,4110841,,,2022-05-13,清算の結了等,,,2015-10-05,1,,,,,アイイクカイ,0
130,1110001022171,登記記録の閉鎖等,0,2022-05-17,2022-05-11,エスティーティー株式会社,,株式会社,新潟県,長岡市,新産４丁目２番地８,,15,202,9402127,,,2022-05-11,合併による解散等,8370001003874,令和４年４月１日仙台市青葉区五橋一丁目５番３号アーバン興業株式会社（8370001003874）に合併し解散,2015-10-05,1,,,,,エスティーティー,0
142,1120102000026,登記記録の閉鎖等,0,2022-05-17,2022-05-10,有限会社新島工務店,,有限会社,大阪府,堺市中区,土師町５丁７番２号,,27,142,5998238,,,2022-05-10,清算の結了等,,,2015-10-05,1,,,,,ニイジマコウムテン,0
158,1140001056076,登記記録の閉鎖等,0,2022-05-17,2022-05-12,株式会社日乃本錠前豊岡店,,株式会社,兵庫県,豊岡市,九日市上町８１７番地の６,,28,209,6680051,,,2022-05-12,清算の結了等,,,2015-10-05,1,,,,,,0
163,1140003011062,登記記録の閉鎖等,0,2022-05-17,2022-05-12,モービーワン合同会社,,合同会社,兵庫県,西宮市,名塩茶園町４番８号,,28,204,6691144,,,2022-05-12,合併による解散等,6012803001275,令和４年４月３０日東京都国立市富士見台一丁目４８番地の２８合同会社さんすまいる（6012803001275）に合併し解散,2015-11-26,1,,,,,モービーワン,0
189,1200002012641,登記記録の閉鎖等,0,2022-05-17,2022-05-16,有限会社佐竹食品,,有限会社,岐阜県,大垣市,大井３丁目５０番地,,21,202,5030836,,,2022-05-16,清算の結了等,,,2015-10-05,1,,,,,サタケショクヒン,0
196,1220002006393,登記記録の閉鎖等,0,2022-05-17,2022-05-12,有限会社ワイエムコーポレーション,,有限会社,石川県,金沢市,光が丘１丁目１３５番地,,17,201,9218142,,,2022-05-12,清算の結了等,,,2015-10-05,1,,,,,,0
228,1340001012199,登記記録の閉鎖等,0,2022-05-17,2022-05-13,湧水新聞販売株式会社,,株式会社,鹿児島県,姶良郡湧水町,木場１１１１番地,,46,452,8996201,,,2022-05-13,清算の結了等,,,2015-10-05,1,,,,,ユウスイシンブンハンバイ,0
245,1380001004110,登記記録の閉鎖等,0,2022-05-17,2022-05-11,株式会社スペースプロジェクト,,株式会社,福島県,福島市,野田町４丁目５番５号,,07,201,9608055,,,2022-05-11,清算の結了等,,,2015-10-05,1,,,,,,0
291,2010002008410,登記記録の閉鎖等,0,2022-05-17,2022-04-22,有限会社岡田事務所,,有限会社,東京都,港区,南青山２丁目２番１５号,,13,103,1070062,,,2022-04-22,清算の結了等,,,2015-10-05,1,,,,,オカダジムショ,0
297,2010105002005,登記記録の閉鎖等,0,2022-05-17,2022-05-16,一般社団法人ぴーぷる,,その他の設立登記法人,東京都,八王子市,明神町４丁目１番１７号フェミネ八王子６０５,,13,201,1920046,,,2022-05-16,清算の結了等,,,2019-03-20,1,,,,,,0
305,2010401117588,登記記録の閉鎖等,0,2022-05-17,2022-04-21,ＮＧプランニング株式会社,,株式会社,東京都,品川区,西五反田８丁目７番１１号,,13,109,1410031,,,2022-04-21,清算の結了等,,,2015-10-05,1,,,,,エヌジープランニング,0
307,2010401139839,登記記録の閉鎖等,0,2022-05-17,2022-04-25,株式会社幻冬舎ブランドコミック,,株式会社,東京都,港区,西新橋１丁目６番２１号,,13,103,1050003,,,2022-04-25,清算の結了等,,,2018-07-30,1,,,,,ゲントウシャブランドコミック,0
352,2011702012040,登記記録の閉鎖等,0,2022-05-17,2022-05-13,有限会社山本河内屋,,有限会社,東京都,江戸川区,江戸川６丁目３６番地４３,,13,123,1340013,,,2022-05-13,清算の結了等,,,2015-10-05,1,,,,,ヤマモトカワチヤ,0
366,2020002027946,登記記録の閉鎖等,0,2022-05-17,2022-05-09,有限会社フクダクリーニングハウス,,有限会社,神奈川県,横浜市神奈川区,松本町１丁目２番地の３,,14,102,2210841,,,2022-05-09,清算の結了等,,,2015-10-05,1,,,,,フクダクリーニングハウス,0
376,2021002048957,登記記録の閉鎖等,0,2022-05-17,2022-05-12,有限会社自立教育,,有限会社,神奈川県,伊勢原市,白根３９６番地の２４,,14,214,2591147,,,2022-05-12,清算の結了等,,,2015-10-05,1,,,,,ジリツキョウイク,0
414,2050002042439,登記記録の閉鎖等,0,2022-05-17,2022-05-12,有限会社藤巻,,有限会社,茨城県,筑西市,女方９番地３,,08,227,3080854,,,2022-05-12,清算の結了等,,,2015-10-05,1,,,,,フジマキ,0
419,2070002028824,登記記録の閉鎖等,0,2022-05-17,2022-05-09,有限会社北美装タイル,,有限会社,群馬県,太田市,台之郷町１１０１番地,,10,205,3730801,,,2022-05-09,清算の結了等,,,2015-10-05,1,,,,,キタビソウタイル,0
440,2120002015973,登記記録の閉鎖等,0,2022-05-17,2022-05-13,有限会社森本,,有限会社,大阪府,大阪市港区,築港３丁目５番１２号,,27,107,5520021,,,2022-05-13,清算の結了等,,,2015-10-05,1,,,,,モリモト,0
445,2122001022447,登記記録の閉鎖等,0,2022-05-17,2022-05-12,株式会社Ｇｒｅｅｎｔｅｃｈ．タナカ,,株式会社,大阪府,柏原市,田辺２丁目７番３８号,,27,221,5820024,,,2022-05-12,清算の結了等,,,2015-10-05,1,,,,,グリーンテックタナカ,0
447,2130001046093,登記記録の閉鎖等,0,2022-05-17,2022-05-09,株式会社創道,,株式会社,京都府,久世郡久御山町,森村東２３２番地１,,26,322,6130024,,,2022-05-09,清算の結了等,,,2015-10-05,1,,,,,ソウドウ,0
471,2190002008863,登記記録の閉鎖等,0,2022-05-17,2022-05-12,シークレットサービス有限会社,,有限会社,三重県,伊勢市,通町４２番地１,,24,203,5160012,,,2022-05-12,清算の結了等,,,2015-10-05,1,,,,,シークレットサービス,0
475,2210002007219,登記記録の閉鎖等,0,2022-05-17,2022-05-13,有限会社茂平,,有限会社,福井県,坂井市,三国町北本町２丁目２番６号,,18,210,9130046,,,2022-05-13,清算の結了等,,,2015-10-05,1,,,,,モヘイ,0
498,2290002041631,登記記録の閉鎖等,0,2022-05-17,2022-05-11,有限会社アート,,有限会社,福岡県,福岡市南区,警弥郷１丁目１４番８－１０１号,,40,134,8111324,,,2022-05-11,清算の結了等,,,2015-10-05,1,,,,,アート,0
501,2310001016862,登記記録の閉鎖等,0,2022-05-17,2022-05-12,株式会社Ｍａｔｅ　Ｃｒｅａｔｉｏｎ,,株式会社,長崎県,大村市,杭出津１丁目８５６番地,,42,205,8560828,,,2022-05-12,合併による解散等,7290001075279,令和４年５月１日福岡市博多区浦田一丁目５番１９号株式会社Ｍａｔｅ　Ｅｎｔｅｒｐｒｉｓｅ（7290001075279）に合併し解散,2020-09-04,1,,,,,メイトクリエイション,0
560,3010003032342,登記記録の閉鎖等,0,2022-05-17,2022-04-25,ＰＬＣ１３合同会社,,合同会社,東京都,千代田区,丸の内１丁目１１番１号,,13,101,1000005,,,2022-04-25,清算の結了等,,,2020-06-05,1,,,,,ピーエルシーサーティーン,0
577,3010403026134,登記記録の閉鎖等,0,2022-05-17,2022-04-22,ＤＣ　Ｕｎｉｔ０合同会社,,合同会社,東京都,港区,南青山３丁目１番３号スプライン青山東急ビル３階,,13,103,1070062,,,2022-04-22,清算の結了等,,,2021-09-15,1,,,,,ディーシーユニットゼロ,0
579,3010601014931,登記記録の閉鎖等,0,2022-05-17,2022-05-02,株式会社中信理化製作所,,株式会社,東京都,墨田区,文花１丁目３４番２３号,,13,107,1310044,,,2022-05-02,清算の結了等,,,2015-10-05,1,,,,,ナカノブリカセイサクショ,0
598,3011102024569,登記記録の閉鎖等,0,2022-05-17,2022-05-13,有限会社治平,,有限会社,東京都,新宿区,市谷薬王寺町７１番地４６,,13,104,1620063,,,2022-05-13,清算の結了等,,,2015-10-05,1,,,,,ジヘイ,0
599,3011601000839,登記記録の閉鎖等,0,2022-05-17,2022-05-16,内田実業株式会社,,株式会社,東京都,練馬区,平和台３丁目２１番１１号,,13,120,1790083,,,2022-05-16,清算の結了等,,,2015-10-05,1,,,,,ウチダジツギョウ,0
610,3013302006999,登記記録の閉鎖等,0,2022-05-17,2022-05-09,有限会社東日ビルサービス,,有限会社,埼玉県,さいたま市緑区,原山１丁目２７番２５号,,11,109,3360931,,,2022-05-09,清算の結了等,,,2015-10-05,1,,,,,トウニチビルサービス,0
620,3020001117904,登記記録の閉鎖等,0,2022-05-17,2022-05-06,株式会社ゴッドバレー,,株式会社,神奈川県,横浜市旭区,さちが丘６番地１,,14,112,2410822,,,2022-05-06,合併による解散等,2020002046137,令和４年５月１日横浜市旭区さちが丘６番地１株式会社ロードスターカンパニー（2020002046137）に合併し解散,2016-09-21,1,,,,,ゴッドバレー,0
643,3030002122464,登記記録の閉鎖等,0,2022-05-17,2022-05-06,有限会社公伸,,有限会社,埼玉県,秩父市,荒川白久１４７６番地,,11,207,3691912,,,2022-05-06,清算の結了等,,,2015-10-05,1,,,,,コウシン,0
649,3040001062891,登記記録の閉鎖等,0,2022-05-17,2022-05-11,株式会社コシカワ,,株式会社,千葉県,山武郡横芝光町,篠本１３７０番地,,12,410,2891701,,,2022-05-11,清算の結了等,,,2015-10-05,1,,,,,コシカワ,0
650,3040001063353,登記記録の閉鎖等,0,2022-05-17,2022-05-11,株式会社介護華の木,,株式会社,千葉県,旭市,ハの１４３７番地６,,12,215,2892521,,,2022-05-11,清算の結了等,,,2015-10-05,1,,,,,カイゴハナノキ,0
663,3040002104932,登記記録の閉鎖等,0,2022-05-17,2022-05-09,有限会社釜屋茶店,,有限会社,千葉県,印西市,大森８０３番地,,12,231,2701327,,,2022-05-09,清算の結了等,,,2021-11-18,1,,,,,カマヤチャテン,0
664,3040003018396,登記記録の閉鎖等,0,2022-05-17,2022-05-06,ＢＩＲＤＲＥＡＭ合同会社,,合同会社,千葉県,船橋市,本郷町５０７－１ルネ西船橋２棟６１３,,12,204,2730033,,,2022-05-06,清算の結了等,,,2021-08-30,1,,,,,バードリーム,0
666,3040005009831,登記記録の閉鎖等,0,2022-05-17,2022-05-11,特定非営利活動法人村田川の会,,その他の設立登記法人,千葉県,市原市,番場１２２番地,,12,219,2900155,,,2022-05-11,清算の結了等,,,2015-10-05,1,,,,,ムラタカワノカイ,0
674,3070002033377,登記記録の閉鎖等,0,2022-05-17,2022-04-26,コムリンクス有限会社,,有限会社,群馬県,館林市,朝日町２３番２２号,,10,207,3740063,,,2022-04-26,清算の結了等,,,2015-10-05,1,,,,,コムリンクス,0
684,3120001104958,登記記録の閉鎖等,0,2022-05-17,2022-05-16,弥栄貿易株式会社,,株式会社,大阪府,大阪市住之江区,御崎８丁目８番１６号２０３,,27,125,5590013,,,2022-05-16,清算の結了等,,,2015-10-05,1,,,,,ヤサカボウエキ,0
697,3120005022454,登記記録の閉鎖等,0,2022-05-17,2022-05-16,一般社団法人即応桜,,その他の設立登記法人,大阪府,大阪市浪速区,日本橋３丁目４番９号,,27,111,5560005,,,2022-05-16,清算の結了等,,,2021-08-23,1,,,,,ソクオウザクラ,0
715,3140002003265,登記記録の閉鎖等,0,2022-05-17,2022-05-13,有限会社シャローム,,有限会社,兵庫県,神戸市灘区,神ノ木通３丁目２番２号,,28,102,6570057,,,2022-05-13,清算の結了等,,,2015-10-05,1,,,,,シャローム,0
734,3180302008976,登記記録の閉鎖等,0,2022-05-17,2022-05-10,有限会社中村住器,,有限会社,愛知県,豊橋市,緑ケ丘１丁目１７番地の８,,23,201,4400005,,,2022-05-10,清算の結了等,,,2015-10-05,1,,,,,ナカムラジュウキ,0
737,3200001001981,登記記録の閉鎖等,0,2022-05-17,2022-05-12,株式会社小島製作所,,株式会社,岐阜県,岐阜市,小西郷２丁目９７番地,,21,201,5011176,,,2022-05-12,合併による解散等,2010001220370,令和４年４月３０日東京都千代田区内幸町一丁目３番３号内幸町ダイビル株式会社小島製作所（2010001220370）に合併し解散,2015-10-05,1,,,,,コジマセイサクショ,0
766,3290005017925,登記記録の閉鎖等,0,2022-05-17,2022-05-09,一般社団法人地域包括ケアを支える会福岡,,その他の設立登記法人,福岡県,福岡市中央区,大名２丁目４番３０号,,40,133,8100041,,,2022-05-09,清算の結了等,,,2020-10-23,1,,,,,チイキホウカツケアヲササエルカイフクオカ,0
767,3310001011417,登記記録の閉鎖等,0,2022-05-17,2022-05-16,株式会社ヤグチ,,株式会社,長崎県,西彼杵郡時津町,左底郷７１２番地４０,,42,308,8512106,,,2022-05-16,清算の結了等,,,2015-10-05,1,,,,,ヤグチ,0
772,3320005003112,登記記録の閉鎖等,0,2022-05-17,2022-05-13,特定非営利活動法人ゆけむり,,その他の設立登記法人,大分県,別府市,大字野田８１３番地７,,44,202,8740016,,,2022-05-13,清算の結了等,,,2015-10-05,1,,,,,ユケムリ,0
789,3380002014750,登記記録の閉鎖等,0,2022-05-17,2022-05-12,有限会社エンドー自動車販売,,有限会社,福島県,田村郡三春町,大字上舞木字宮ノ前８番地１,,07,521,9637732,,,2022-05-12,清算の結了等,,,2015-10-05,1,,,,,エンドージドウシャハンバイ,0
791,3410002001150,登記記録の閉鎖等,0,2022-05-17,2022-05-12,有限会社神谷製材所,,有限会社,秋田県,秋田市,土崎港中央７丁目６番３５号,,05,201,0110946,,,2022-05-12,清算の結了等,,,2015-10-05,1,,,,,カミヤセイザイショ,0
817,4010001167908,登記記録の閉鎖等,0,2022-05-17,2022-04-25,株式会社ＡＩＫジャパンコーポレーション,,株式会社,東京都,中央区,築地４丁目１０番１６号ＭＳビル４階,,13,102,1040045,,,2022-04-25,清算の結了等,,,2015-10-05,1,,,,,エーアイケージャパンコーポレーション,0
818,4010001180084,登記記録の閉鎖等,0,2022-05-17,2022-05-02,ＭＵＬヘルスケア株式会社,,株式会社,東京都,港区,海岸１丁目２番２０号,,13,103,1050022,,,2022-05-02,清算の結了等,,,2016-12-07,1,,,,,エムユーエルヘルスケア,0
823,4010005024782,登記記録の閉鎖等,0,2022-05-17,2022-05-13,ジニアスパートナーズ一般社団法人,,その他の設立登記法人,東京都,中央区,日本橋１丁目４番１号,,13,102,1030027,,,2022-05-13,清算の結了等,,,2015-12-28,1,,,,,ジニアスパートナーズ,0
824,4010005028148,登記記録の閉鎖等,0,2022-05-17,2022-05-13,一般社団法人継翔レジリートブリッジフォー,,その他の設立登記法人,東京都,千代田区,平河町１丁目６番１５号シルスフィア会計事務所内,,13,101,1020093,,,2022-05-13,清算の結了等,,,2018-02-21,1,,,,,ケイショウレジリートブリッジフォー,0
825,4010005028536,登記記録の閉鎖等,0,2022-05-17,2022-05-13,一般社団法人かしわ台開発,,その他の設立登記法人,東京都,千代田区,平河町１丁目６番１５号シルスフィア会計事務所内,,13,101,1020093,,,2022-05-13,清算の結了等,,,2018-05-17,1,,,,,カシワダイカイハツ,0
826,4010005030442,登記記録の閉鎖等,0,2022-05-17,2022-05-13,パーネル特定目的会社,,その他の設立登記法人,東京都,千代田区,丸の内３丁目１番１号東京共同会計事務所内,,13,101,1000005,,,2022-05-13,清算の結了等,,,2019-07-10,1,,,,,パーネル,0
828,4010101013912,登記記録の閉鎖等,0,2022-05-17,2022-05-06,株式会社Ｋ．Ｋプロダクション,,株式会社,東京都,八王子市,緑町１７２番地８ハウスみどりＡ,,13,201,1930932,,,2022-05-06,清算の結了等,,,2019-10-08,1,,,,,ケーケープロダクション,0
885,4011703002402,登記記録の閉鎖等,0,2022-05-17,2022-05-06,マイクロビジネスプロダクション合同会社,,合同会社,東京都,江戸川区,東葛西９丁目５番１５－５０１号コスモ葛西アステア,,13,123,1340084,,,2022-05-06,清算の結了等,,,2019-11-05,1,,,,,マイクロビジネスプロダクション,0
906,4021001021269,登記記録の閉鎖等,0,2022-05-17,2022-05-12,株式会社フレックス,,株式会社,神奈川県,伊勢原市,東成瀬２９番地７,,14,214,2591117,,,2022-05-12,清算の結了等,,,2015-10-05,1,,,,,フレックス,0
932,4040005006729,登記記録の閉鎖等,0,2022-05-17,2022-05-09,特定非営利活動法人幸の家,,その他の設立登記法人,千葉県,印西市,笠神２５４番地５,,12,231,2702322,,,2022-05-09,清算の結了等,,,2015-10-05,1,,,,,コウノイエ,0
977,4120002066486,登記記録の閉鎖等,0,2022-05-17,2022-05-13,有限会社アーバン・ウィング,,有限会社,大阪府,大阪市住之江区,粉浜西２丁目１７番３０号,,27,125,5590007,,,2022-05-13,清算の結了等,,,2015-10-05,1,,,,,,0
980,4120005015762,登記記録の閉鎖等,0,2022-05-17,2022-03-02,一般財団法人ことわざ能力検定協会,,その他の設立登記法人,大阪府,大阪市北区,梅田２丁目２－２,,27,127,5300001,,,2022-03-02,清算の結了等,,,2015-10-05,1,,,,,コトワザノウリョクケンテイキョウカイ,0
986,4120901017309,登記記録の閉鎖等,0,2022-05-17,2022-05-16,株式会社エムズ,,株式会社,大阪府,吹田市,江坂町２丁目２０番３３号,,27,205,5640063,,,2022-05-16,清算の結了等,,,2015-10-05,1,,,,,エムズ,0
1001,4140002040472,登記記録の閉鎖等,0,2022-05-17,2022-05-13,有限会社亀岡商店,,有限会社,兵庫県,尼崎市,潮江４丁目４番１号,,28,202,6610976,,,2022-05-13,清算の結了等,,,2015-10-05,1,,,,,カメオカショウテン,0
1007,4180001044537,登記記録の閉鎖等,0,2022-05-17,2022-05-12,株式会社ベルソフト,,株式会社,愛知県,名古屋市中村区,則武１丁目４番２号,,23,105,4530014,,,2022-05-12,清算の結了等,,,2015-10-05,1,,,,,ベルソフト,0
1017,4180002043488,登記記録の閉鎖等,0,2022-05-17,2022-05-11,有限会社山盛,,有限会社,愛知県,名古屋市港区,小割通２丁目３番地,,23,111,4550077,,,2022-05-11,清算の結了等,,,2015-10-05,1,,,,,ヤマモリ,0
1018,4180002047992,登記記録の閉鎖等,0,2022-05-17,2022-05-09,有限会社梶田工務店,,有限会社,愛知県,名古屋市千種区,神田町３１番８号,,23,101,4640077,,,2022-05-09,清算の結了等,,,2015-10-05,1,,,,,カジタコウムテン,0
1025,4180301002277,登記記録の閉鎖等,0,2022-05-17,2022-05-09,株式会社ヤマヤシステム,,株式会社,愛知県,岡崎市,井ノ口新町１０番地２シルフィード２０２,,23,202,4442132,,,2022-05-09,清算の結了等,,,2015-10-05,1,,,,,ヤマヤシステム,0
1035,4240001005210,登記記録の閉鎖等,0,2022-05-17,2022-05-13,株式会社すし竹,,株式会社,広島県,広島市安芸区,矢野東２丁目２６番５号,,34,107,7360083,,,2022-05-13,清算の結了等,,,2015-10-05,1,,,,,スシタケ,0
1043,4250001003378,登記記録の閉鎖等,0,2022-05-17,2022-05-12,大幸産業株式会社,,株式会社,山口県,宇部市,昭和町１丁目９番７号,,35,202,7550011,,,2022-05-12,清算の結了等,,,2015-10-05,1,,,,,タイコウサンギョウ,0
1050,4270001004275,登記記録の閉鎖等,0,2022-05-17,2022-05-02,株式会社岸本ビークル,,株式会社,鳥取県,西伯郡伯耆町,大殿４７番地１,,31,390,6894121,,,2022-05-02,合併による解散等,2270001003584,令和４年５月１日鳥取県米子市流通町１５８番２０株式会社松本油店（2270001003584）に合併し解散,2015-10-05,1,,,,,キシモトビークル,0
1051,4270002005421,登記記録の閉鎖等,0,2022-05-17,2022-05-12,有限会社栄光,,有限会社,鳥取県,米子市,冨士見町１丁目３５番地４,,31,202,6830055,,,2022-05-12,清算の結了等,,,2015-10-05,1,,,,,エイコウ,0
1053,4290001008191,登記記録の閉鎖等,0,2022-05-17,2022-05-10,株式会社ストラテジスタッフ二十一,,株式会社,福岡県,福岡市中央区,天神４丁目７番４号,,40,133,8100001,,,2022-05-10,合併による解散等,6290001003091,令和４年３月３１日福岡市中央区天神四丁目７番４号株式会社ＬＢＡコンサルティング（6290001003091）に合併し解散,2015-10-05,1,,,,,ストラテジスタッフニジュウイチ,0
1075,4340001006768,登記記録の閉鎖等,0,2022-05-17,2022-05-11,株式会社エレム・コミュニティ,,株式会社,鹿児島県,鹿児島市,山下町９番１号チャイムズビル４０１号室,,46,201,8920816,,,2022-05-11,合併による解散等,9340001006326,令和４年４月１日東京都港区芝二丁目２６番１１号ＫＱＲＭホールディングス株式会社（9340001006326）に合併し解散,2015-10-05,1,,,,,エレムコミュニティ,0
1124,5010005027628,登記記録の閉鎖等,0,2022-05-17,2022-05-13,一般社団法人久米川開発,,その他の設立登記法人,東京都,千代田区,平河町１丁目６番１５号シルスフィア会計事務所内,,13,101,1020093,,,2022-05-13,清算の結了等,,,2017-10-23,1,,,,,クメガワカイハツ,0
1125,5010005028535,登記記録の閉鎖等,0,2022-05-17,2022-05-13,一般社団法人練馬開発,,その他の設立登記法人,東京都,千代田区,平河町１丁目６番１５号シルスフィア会計事務所内,,13,101,1020093,,,2022-05-13,清算の結了等,,,2018-05-17,1,,,,,ネリマカイハツ,0
1148,5010603008120,登記記録の閉鎖等,0,2022-05-17,2022-05-02,合同会社シェルハウスプランニング,,合同会社,東京都,江東区,潮見２丁目１０番１５－１０１６号,,13,108,1350052,,,2022-05-02,清算の結了等,,,2019-12-19,1,,,,,シェルハウスプランニング,0
1185,5020001013845,登記記録の閉鎖等,0,2022-05-17,2022-05-09,株式会社ミヤマエ,,株式会社,神奈川県,横浜市南区,宿町２丁目４６番地,,14,105,2320017,,,2022-05-09,清算の結了等,,,2015-10-05,1,,,,,ミヤマエ,0
1186,5020001045806,登記記録の閉鎖等,0,2022-05-17,2022-05-09,株式会社ワンズ・コンサルティング,,株式会社,神奈川県,横浜市港北区,富士塚２丁目２８番５６号,,14,109,2220012,,,2022-05-09,清算の結了等,,,2015-10-05,1,,,,,ワンズコンサルティング,0
1187,5020001048775,登記記録の閉鎖等,0,2022-05-17,2022-05-09,株式会社再生工房,,株式会社,神奈川県,横浜市金沢区,富岡西６丁目３４番６号,,14,108,2360052,,,2022-05-09,清算の結了等,,,2015-10-05,1,,,,,,0
1188,5020001052083,登記記録の閉鎖等,0,2022-05-17,2022-05-09,株式会社ガロン,,株式会社,神奈川県,横浜市中区,山下町２９番地山下公園ハイツ６０６号室,,14,104,2310023,,,2022-05-09,清算の結了等,,,2015-10-05,1,,,,,ガロン,0
1216,5040001071321,登記記録の閉鎖等,0,2022-05-17,2022-05-09,株式会社待月,,株式会社,千葉県,野田市,中野台１９４番地,,12,208,2780035,,,2022-05-09,清算の結了等,,,2015-10-05,1,,,,,タイゲツ,0
1219,5040002046958,登記記録の閉鎖等,0,2022-05-17,2022-05-09,有限会社タカオ機工,,有限会社,千葉県,松戸市,栄町４丁目１９９番地,,12,207,2710062,,,2022-05-09,清算の結了等,,,2015-10-05,1,,,,,タカオキコウ,0
1224,5050002041660,登記記録の閉鎖等,0,2022-05-17,2022-05-10,有限会社藤善商店,,有限会社,千葉県,柏市,豊四季台２丁目１番１－６１２号,,12,217,2770845,,,2022-05-10,清算の結了等,,,2015-10-05,1,,,,,フジゼンショウテン,0
1246,5120002049754,登記記録の閉鎖等,0,2022-05-17,2022-05-16,有限会社アイピー・ピー,,有限会社,大阪府,大阪市中央区,玉造２丁目１０番１２－４０１号,,27,128,5400004,,,2022-05-16,清算の結了等,,,2015-10-05,1,,,,,アイピーピー,0
1261,5160001005069,登記記録の閉鎖等,0,2022-05-17,2022-05-12,甲賀開発株式会社,,株式会社,滋賀県,甲賀市,水口町北内貴４００番地,,25,209,5280051,,,2022-05-12,合併による解散等,9040001071978,令和４年５月１日千葉県野田市蕃昌２５７番地株式会社エフ・エス・エル（9040001071978）に合併し解散,2015-10-05,1,,,,,コウガカイハツ,0
1280,5240001042046,登記記録の閉鎖等,0,2022-05-17,2022-05-13,株式会社清美,,株式会社,広島県,福山市,神辺町字道上６３２番地２５,,34,207,7202104,,,2022-05-13,清算の結了等,,,2015-10-05,1,,,,,セイビ,0
1306,5360003007308,登記記録の閉鎖等,0,2022-05-17,2022-04-28,合同会社てぃさが,,合同会社,沖縄県,国頭郡大宜味村,字上原３３番地,,47,302,9051308,,,2022-04-28,清算の結了等,,,2015-10-30,1,,,,,ティサガ,0
1325,5430001045211,登記記録の閉鎖等,0,2022-05-17,2022-05-02,株式会社ノアジャパン,,株式会社,北海道,札幌市西区,八軒九条西４丁目５番１５号,,01,107,0630849,,,2022-05-02,合併による解散等,8430001009015,令和４年５月１日札幌市豊平区平岸七条十四丁目１番３２号株式会社ノアコンツェル（8430001009015）に合併し解散,2015-10-05,1,,,,,ノアジャパン,0
1361,6010403010077,登記記録の閉鎖等,0,2022-05-17,2022-04-22,奈義太陽光発電所合同会社,,合同会社,東京都,港区,赤坂１丁目１１番４４号赤坂インターシティ６階,,13,103,1070052,,,2022-04-22,清算の結了等,,,2015-10-05,1,,,,,ナギタイヨウコウハツデンショ,0
1362,6010403018129,登記記録の閉鎖等,0,2022-05-17,2022-04-25,合同会社ＮＯＳＵＫＥ３ｒｄ,,合同会社,東京都,港区,港南４丁目２番７号,,13,103,1080075,,,2022-04-25,清算の結了等,,,2018-02-23,1,,,,,ノスケサード,0
1365,6010601051914,登記記録の閉鎖等,0,2022-05-17,2022-05-02,株式会社ホープ,,株式会社,東京都,墨田区,両国３丁目２３番１０号,,13,107,1300026,,,2022-05-02,清算の結了等,,,2017-07-14,1,,,,,ホープ,0
1400,6011801033751,登記記録の閉鎖等,0,2022-05-17,2022-05-09,株式会社ＲａｎｄＡ,,株式会社,東京都,足立区,西新井本町４丁目１２番１２号,,13,121,1230845,,,2022-05-09,清算の結了等,,,2017-08-15,1,,,,,アールアンドエー,0
1418,6020001080645,登記記録の閉鎖等,0,2022-05-17,2022-05-10,株式会社フードコンシェルジュ,,株式会社,神奈川県,川崎市宮前区,犬蔵１丁目２３番１３号,,14,136,2160011,,,2022-05-10,清算の結了等,,,2015-10-05,1,,,,,フードコンシェルジュ,0
1431,6021002067623,登記記録の閉鎖等,0,2022-05-17,2022-05-11,有限会社横須賀塗装工業,,有限会社,神奈川県,三浦市,南下浦町上宮田３００７番地１メガロン三浦海岸第２－７０８,,14,210,2380101,,,2022-05-11,清算の結了等,,,2015-10-05,1,,,,,ヨコスカトソウコウギョウ,0
1432,6021003007693,登記記録の閉鎖等,0,2022-05-17,2022-05-12,合同会社フレンド,,合同会社,神奈川県,相模原市南区,上鶴間本町７丁目１１番５号,,14,153,2520318,,,2022-05-12,清算の結了等,,,2018-08-02,1,,,,,フレンド,0
1444,6030002094866,登記記録の閉鎖等,0,2022-05-17,2022-05-09,有限会社ティー・エイチ・エコー,,有限会社,埼玉県,坂戸市,大字石井２８９８番地１３若葉台マンション１１２５,,11,239,3500212,,,2022-05-09,清算の結了等,,,2015-10-05,1,,,,,,0
1462,6070001031189,登記記録の閉鎖等,0,2022-05-17,2022-05-02,元気らいふ株式会社,,株式会社,群馬県,前橋市,亀里町２０１番地１,,10,201,3792147,,,2022-05-02,合併による解散等,4070001002951,令和４年４月３０日群馬県前橋市亀里町２０１番地１前橋園芸株式会社（4070001002951）に合併し解散,2015-10-05,1,,,,,ゲンキライフ,0
1473,6090001005736,登記記録の閉鎖等,0,2022-05-17,2022-05-12,南アルプス菜園株式会社,,株式会社,山梨県,南アルプス市,田島８２０番地,,19,208,4000402,,,2022-05-12,清算の結了等,,,2015-10-05,1,,,,,ミナミアルプスサイエン,0
1496,6120901016192,登記記録の閉鎖等,0,2022-05-17,2022-05-13,株式会社バッハ,,株式会社,大阪府,吹田市,竹谷町２番１－４１３号,,27,205,5650835,,,2022-05-13,清算の結了等,,,2015-10-05,1,,,,,バッハ,0
1505,6140001058621,登記記録の閉鎖等,0,2022-05-17,2022-05-13,株式会社黒河兄弟店,,株式会社,兵庫県,姫路市,阿保乙１５３番地,,28,201,6700944,,,2022-05-13,清算の結了等,,,2015-10-05,1,,,,,クロカワキョウダイテン,0
1512,6160002008714,登記記録の閉鎖等,0,2022-05-17,2022-05-13,有限会社ヤスイ建材,,有限会社,滋賀県,彦根市,出路町９８番地の３,,25,202,5211104,,,2022-05-13,清算の結了等,,,2015-10-05,1,,,,,ヤスイケンザイ,0
1530,6180002083937,登記記録の閉鎖等,0,2022-05-17,2022-05-11,有限会社豊和産業,,有限会社,愛知県,半田市,桐ケ丘５丁目１０９番地の１,,23,205,4750928,,,2022-05-11,清算の結了等,,,2015-10-05,1,,,,,ホウワサンギョウ,0
1539,6210005005637,登記記録の閉鎖等,0,2022-05-17,2022-05-16,一乘寺,,その他の設立登記法人,福井県,大野市,泉町１０番３１号,,18,205,9120086,,,2022-05-16,清算の結了等,,,2015-10-05,1,,,,,イチジョウジ,0
1540,6220001007561,登記記録の閉鎖等,0,2022-05-17,2022-05-13,株式会社ロンスター,,株式会社,石川県,金沢市,池田町四番丁３番地,,17,201,9200986,,,2022-05-13,清算の結了等,,,2015-10-05,1,,,,,ロンスター,0
1541,6220001015028,登記記録の閉鎖等,0,2022-05-17,2022-05-09,株式会社ランドバンク,,株式会社,石川県,金沢市,駅西新町２丁目６番１５号,,17,201,9200027,,,2022-05-09,清算の結了等,,,2015-10-05,1,,,,,ランドバンク,0
1554,6260002010619,登記記録の閉鎖等,0,2022-05-17,2022-05-16,有限会社ワイ・アール・テイ・システム,,有限会社,岡山県,岡山市北区,今保２９５番地２０,,33,101,7010145,,,2022-05-16,清算の結了等,,,2015-10-05,1,,,,,ワイアールテイシステム,0
1562,6290001055471,登記記録の閉鎖等,0,2022-05-17,2022-05-11,株式会社出雲産業,,株式会社,福岡県,糟屋郡志免町,南里３丁目５番７号,,40,343,8112207,,,2022-05-11,清算の結了等,,,2015-10-05,1,,,,,イズモサンギョウ,0
1572,6320002017483,登記記録の閉鎖等,0,2022-05-17,2022-05-13,有限会社リリー美容室,,有限会社,大分県,佐伯市,大手町２丁目３番４号,,44,205,8760831,,,2022-05-13,清算の結了等,,,2015-10-05,1,,,,,リリービヨウシツ,0
1589,6410005004585,登記記録の閉鎖等,0,2022-05-17,2022-05-10,医療法人神岡診療所,,その他の設立登記法人,秋田県,大仙市,神宮寺字本郷下６４番地１,,05,212,0191701,,,2022-05-10,清算の結了等,,,2015-10-05,1,,,,,カミオカシンリョウジョ,0
1601,6430002000049,登記記録の閉鎖等,0,2022-05-17,2022-05-02,アオイ商事有限会社,,有限会社,北海道,札幌市手稲区,金山一条１丁目１０番１号,,01,109,0060041,,,2022-05-02,合併による解散等,9430002005235,令和４年５月１日札幌市手稲区金山一条一丁目１０番１号株式会社金山企画（9430002005235）に合併し解散,2015-10-05,1,,,,,アオイショウウジ,0
1602,6430002007259,登記記録の閉鎖等,0,2022-05-17,2022-05-02,広栄サービス有限会社,,有限会社,北海道,札幌市手稲区,金山一条１丁目１０番１号,,01,109,0060041,,,2022-05-02,合併による解散等,9430002005235,令和４年５月１日札幌市手稲区金山一条一丁目１０番１号株式会社金山企画（9430002005235）に合併し解散,2015-10-05,1,,,,,コウエイサービス,0
1605,6450002009922,登記記録の閉鎖等,0,2022-05-17,2022-05-16,有限会社北米産業,,有限会社,北海道,名寄市,西二条南５丁目１３番地,,01,221,0960012,,,2022-05-16,清算の結了等,,,2015-10-05,1,,,,,,0
1608,6470003001694,登記記録の閉鎖等,0,2022-05-17,2022-04-01,合同会社ＳＭＰ,,合同会社,香川県,丸亀市,山北町３８０番地２,,37,202,7630072,,,2022-04-01,清算の結了等,,,2020-01-06,1,,,,,エスエムピー,0
1626,7010001192770,登記記録の閉鎖等,0,2022-05-17,2022-04-25,ＹＯＯＧＡＭＥ株式会社,,株式会社,東京都,千代田区,神田松永町１７番地１５大野ビル６Ｆ,,13,101,1010023,,,2022-04-25,清算の結了等,,,2018-06-27,1,,,,,ユーゲーム,0
1656,7011001059588,登記記録の閉鎖等,0,2022-05-17,2022-04-25,アルク・ジャパン株式会社,,株式会社,東京都,港区,赤坂２丁目１１番７号ＡＴＴ新館１１階Ｍａｚａｒｓ・Ｊａｐａｎ株式会社内,,13,103,1070052,,,2022-04-25,清算の結了等,,,2015-10-05,1,,,,,アルクジャパン,0
1675,7011501021386,登記記録の閉鎖等,0,2022-05-17,2022-05-16,株式会社日本柔整システム,,株式会社,大阪府,大阪市天王寺区,生玉町１番３０号生玉ビル２０４号,,27,109,5430071,,,2022-05-16,清算の結了等,,,2016-03-07,1,,,,,ニホンジュウセイシステム,0
1680,7011801026779,登記記録の閉鎖等,0,2022-05-17,2022-05-09,株式会社Ｐ＆Ｃ,,株式会社,東京都,足立区,梅田３丁目２６番２１号,,13,121,1230851,,,2022-05-09,清算の結了等,,,2015-10-05,1,,,,,ピーアンドシー,0
1686,7012401033125,登記記録の閉鎖等,0,2022-05-17,2022-04-28,株式会社渋谷ドットコム,,株式会社,東京都,狛江市,元和泉３丁目７番１０号,,13,219,2010013,,,2022-04-28,清算の結了等,,,2017-08-30,1,,,,,シブヤドットコム,0
1688,7012701010930,登記記録の閉鎖等,0,2022-05-17,2022-05-13,株式会社アッシュブーム・コミュニケーションズ,,株式会社,東京都,西東京市,芝久保町２丁目９番１６－２０７号,,13,229,1880014,,,2022-05-13,清算の結了等,,,2015-10-05,1,,,,,アッシュブームコミュニケーションズ,0
1691,7013302018529,登記記録の閉鎖等,0,2022-05-17,2022-05-09,有限会社バニラヴェッチ,,有限会社,東京都,豊島区,南池袋２丁目３１番３号,,13,116,1710022,,,2022-05-09,清算の結了等,,,2015-10-05,1,,,,,バニラヴェッチ,0
1700,7020002085205,登記記録の閉鎖等,0,2022-05-17,2022-05-09,有限会社丸山善工務店,,有限会社,神奈川県,川崎市中原区,上丸子天神町３８９番地,,14,133,2110007,,,2022-05-09,清算の結了等,,,2015-10-05,1,,,,,,0
1703,7021003008245,登記記録の閉鎖等,0,2022-05-17,2022-05-12,合同会社Ｍ’ｓ,,合同会社,神奈川県,相模原市南区,上鶴間本町２丁目２１番１６号,,14,153,2520318,,,2022-05-12,清算の結了等,,,2019-03-19,1,,,,,エムズ,0
1705,7030001099592,登記記録の閉鎖等,0,2022-05-17,2022-05-11,株式会社大塚工房,,株式会社,埼玉県,さいたま市岩槻区,大字高曽根１３０６番地の５,,11,110,3390022,,,2022-05-11,清算の結了等,,,2015-10-05,1,,,,,オオツカコウボウ,0
1708,7030002008065,登記記録の閉鎖等,0,2022-05-17,2022-05-10,有限会社ダイチ,,有限会社,埼玉県,さいたま市浦和区,東高砂町２６番１６号,,11,107,3300055,,,2022-05-10,清算の結了等,,,2015-10-05,1,,,,,ダイチ,0
1711,7030002022140,登記記録の閉鎖等,0,2022-05-17,2022-05-11,有限会社オートガレージ,,有限会社,埼玉県,蓮田市,大字黒浜７０２番地,,11,238,3490101,,,2022-05-11,清算の結了等,,,2015-10-05,1,,,,,オートガレージ,0
1712,7030002071740,登記記録の閉鎖等,0,2022-05-17,2022-05-09,有限会社ドリームマップ,,有限会社,埼玉県,春日部市,粕壁３丁目１０番地１ＢＥＬＩＳＴＡタワー１８０４,,11,214,3440061,,,2022-05-09,清算の結了等,,,2015-10-05,1,,,,,ドリームマップ,0
1713,7030002072383,登記記録の閉鎖等,0,2022-05-17,2022-05-09,有限会社魚福水産,,有限会社,埼玉県,川越市,霞ケ関北１丁目２１番地９,,11,201,3501109,,,2022-05-09,清算の結了等,,,2015-10-05,1,,,,,ウオフクスイサン,0
1718,7030005018359,登記記録の閉鎖等,0,2022-05-17,2022-05-11,特定非営利活動法人ＪＯＹスポーツ,,その他の設立登記法人,埼玉県,八潮市,大字南後谷７６３番地７３,,11,234,3400831,,,2022-05-11,清算の結了等,,,2017-03-01,1,,,,,ジョイスポーツ,0
1721,7040001121693,登記記録の閉鎖等,0,2022-05-17,2022-05-02,株式会社ケセラ,,株式会社,千葉県,千葉市美浜区,高浜３丁目１番２－７１０号,,12,106,2610003,,,2022-05-02,清算の結了等,,,2022-01-11,1,,,,,ケセラ,0
1739,7070003003400,登記記録の閉鎖等,0,2022-05-17,2022-05-11,合同会社磯田商店,,合同会社,群馬県,前橋市,五代町７２３番地２,,10,201,3710132,,,2022-05-11,清算の結了等,,,2019-03-08,1,,,,,イソダショウテン,0
1740,7070005005898,登記記録の閉鎖等,0,2022-05-17,2022-05-09,太平記の里観光物産協同組合,,その他の設立登記法人,群馬県,太田市,東本町１７番６号,,10,205,3730026,,,2022-05-09,清算の結了等,,,2015-10-05,1,,,,,タイヘイキノサトカンコウブッサン,0
1747,7120001010335,登記記録の閉鎖等,0,2022-05-17,2022-05-12,株式会社大長,,株式会社,大阪府,大阪市東住吉区,今林１丁目２番６８号大阪市中央卸売市場東部市場内,,27,121,5460001,,,2022-05-12,清算の結了等,,,2015-10-05,1,,,,,ダイチョウ,0
1777,7140002052465,登記記録の閉鎖等,0,2022-05-17,2022-05-13,有限会社フジオカ,,有限会社,兵庫県,姫路市,飾磨区細江９２６番地の１,,28,201,6728064,,,2022-05-13,清算の結了等,,,2015-10-05,1,,,,,フジオカ,0
1807,7190005003873,登記記録の閉鎖等,0,2022-05-17,2022-05-10,引本水産加工協同組合,,その他の設立登記法人,三重県,北牟婁郡紀北町,引本浦８７５番地の９,,24,543,5193413,,,2022-05-10,清算の結了等,,,2015-10-05,1,,,,,ヒキモトスイサンカコウ,0
1811,7210001018567,登記記録の閉鎖等,0,2022-05-17,2022-05-13,タイヤショップＴＢ－Ｓ福井株式会社,,株式会社,福井県,福井市,森行町３号１１番地,,18,201,9188171,,,2022-05-13,清算の結了等,,,2021-08-10,1,,,,,タイヤショップティービーズフクイ,0
1814,7230001014317,登記記録の閉鎖等,0,2022-05-17,2022-05-16,フォアスタッフ株式会社,,株式会社,富山県,富山市,南田町１丁目２番９－５０５号ダイアパレス南田町,,16,201,9300056,,,2022-05-16,清算の結了等,,,2015-10-05,1,,,,,フォアスタッフ,0
1818,7230002012113,登記記録の閉鎖等,0,2022-05-17,2022-05-13,株式会社マルワハウス,,株式会社,富山県,高岡市,伏木本町６番２５号,,16,202,9330106,,,2022-05-13,清算の結了等,,,2015-10-05,1,,,,,,0
1824,7240002001833,登記記録の閉鎖等,0,2022-05-17,2022-05-13,有限会社上町商店,,有限会社,広島県,広島市安佐北区,安佐町大字鈴張２８０５番地,,34,106,7311141,,,2022-05-13,清算の結了等,,,2015-10-05,1,,,,,ウエマチショウテン,0
1857,7370302000761,登記記録の閉鎖等,0,2022-05-17,2022-05-11,有限会社京呉服さわ藤,,有限会社,宮城県,石巻市,中里１丁目５番１８－１,,04,202,9860815,,,2022-05-11,清算の結了等,,,2015-10-05,1,,,,,キョウゴフクサワフジ,0
1879,7430001065570,登記記録の閉鎖等,0,2022-05-17,2022-05-16,株式会社ＭＧシステム,,株式会社,北海道,札幌市北区,あいの里三条７丁目９番１６号,,01,102,0028073,,,2022-05-16,清算の結了等,,,2015-10-05,1,,,,,,0
1884,7440001007316,登記記録の閉鎖等,0,2022-05-17,2022-05-02,ヤグチダイバー株式会社,,株式会社,北海道,函館市,本町１６番９号,,01,202,0400011,,,2022-05-02,合併による解散等,7440001002449,令和４年４月３０日北海道北斗市七重浜七丁目１０番８号矢口港湾建設株式会社（7440001002449）に合併し解散,2015-10-05,1,,,,,ヤグチダイバー,0
1896,8010001101747,登記記録の閉鎖等,0,2022-05-17,2022-05-11,株式会社加賀美ホールディングス,,株式会社,東京都,新宿区,神楽坂６丁目２６番地,,13,104,1620825,,,2022-05-11,清算の結了等,,,2015-10-05,1,,,,,カガミホールディングス,0
1910,8010005027724,登記記録の閉鎖等,0,2022-05-17,2022-05-13,一般社団法人曳舟開発,,その他の設立登記法人,東京都,千代田区,平河町１丁目６番１５号シルスフィア会計事務所内,,13,101,1020093,,,2022-05-13,清算の結了等,,,2017-11-14,1,,,,,ヒキフネカイハツ,0
1911,8010005028219,登記記録の閉鎖等,0,2022-05-17,2022-05-13,一般社団法人松戸開発,,その他の設立登記法人,東京都,千代田区,平河町１丁目６番１５号シルスフィア会計事務所内,,13,101,1020093,,,2022-05-13,清算の結了等,,,2018-03-08,1,,,,,マツドカイハツ,0
1915,8010401145864,登記記録の閉鎖等,0,2022-05-17,2022-04-25,株式会社Ｌｏｕｉｓ　Ａｓｓｅｔ　Ｍａｎａｇｅｍｅｎｔ,,株式会社,東京都,港区,六本木４丁目２番３５号,,13,103,1060032,,,2022-04-25,清算の結了等,,,2019-05-31,1,,,,,ルイアセットマネジメント,0
1917,8010403010067,登記記録の閉鎖等,0,2022-05-17,2022-04-22,にかほ太陽光発電所合同会社,,合同会社,東京都,港区,赤坂１丁目１１番４４号赤坂インターシティ６階,,13,103,1070052,,,2022-04-22,清算の結了等,,,2015-10-05,1,,,,,,0
1923,8010601036921,登記記録の閉鎖等,0,2022-05-17,2022-05-02,株式会社あし柄,,株式会社,東京都,江東区,住吉１丁目１５番１３号,,13,108,1350002,,,2022-05-02,清算の結了等,,,2015-10-05,1,,,,,アシガラ,0
1968,8012401033033,登記記録の閉鎖等,0,2022-05-17,2022-05-12,株式会社アルデ,,株式会社,大阪府,吹田市,南金田２丁目１５番１５－１００３号,,27,205,5640044,,,2022-05-12,合併による解散等,2040002095314,令和４年４月２８日千葉県柏市豊四季１００８番１号株式会社ＷＩＴＳ（2040002095314）に合併し解散,2017-08-03,1,,,,,アルデ,0
1989,8021002002933,登記記録の閉鎖等,0,2022-05-17,2022-05-16,有限会社セイルワークスジャパン,,有限会社,大阪府,大阪市浪速区,元町３丁目１２番１２－１０５号,,27,111,5560016,,,2022-05-16,清算の結了等,,,2015-10-05,1,,,,,セイルワークスジャパン,0
1993,8021003008046,登記記録の閉鎖等,0,2022-05-17,2022-05-12,合同会社結月,,合同会社,神奈川県,相模原市南区,御園５丁目７番２９号,,14,153,2520317,,,2022-05-12,清算の結了等,,,2019-01-11,1,,,,,ユヅキ,0
2009,8040001092934,登記記録の閉鎖等,0,2022-05-17,2022-05-09,株式会社Ａｍｉｄａｓ　ｃｏｒｐｏｒａｔｉｏｎ,,株式会社,千葉県,船橋市,古和釜町７７７番地１０,,12,204,2740061,,,2022-05-09,清算の結了等,,,2015-11-24,1,,,,,アミダスコーポレーション,0
2023,8070001006924,登記記録の閉鎖等,0,2022-05-17,2022-05-09,株式会社小林住宅,,株式会社,群馬県,高崎市,上並榎町２２９番地の１５,,10,202,3700801,,,2022-05-09,清算の結了等,,,2015-10-05,1,,,,,コバヤシジュウタク,0
2026,8070003002343,登記記録の閉鎖等,0,2022-05-17,2022-05-11,グリーン発電合同会社,,合同会社,群馬県,前橋市,金丸町３４２番地３,,10,201,3710121,,,2022-05-11,清算の結了等,,,2015-10-05,1,,,,,グリーンハツデン,0
2085,8180002079660,登記記録の閉鎖等,0,2022-05-17,2022-05-11,有限会社カトケン,,有限会社,愛知県,一宮市,千秋町加茂字本郷７６番地の２,,23,203,4910801,,,2022-05-11,清算の結了等,,,2015-10-05,1,,,,,カトケン,0
2086,8180002086021,登記記録の閉鎖等,0,2022-05-17,2022-05-11,有限会社苅屋加茂,,有限会社,愛知県,常滑市,苅屋町４丁目８０番地,,23,216,4790819,,,2022-05-11,清算の結了等,,,2015-10-05,1,,,,,カリヤカモ,0
2089,8190001012472,登記記録の閉鎖等,0,2022-05-17,2022-05-11,日東株式会社,,株式会社,三重県,桑名市,長島町高座字弥八１０１番の１,,24,205,5111104,,,2022-05-11,清算の結了等,,,2015-10-05,1,,,,,ニットウ,0
2090,8200001023170,登記記録の閉鎖等,0,2022-05-17,2022-05-13,株式会社アクア,,株式会社,岐阜県,可児郡御嵩町,古屋敷７４６番地１１,,21,521,5050123,,,2022-05-13,清算の結了等,,,2015-10-05,1,,,,,アクア,0
2091,8200001024689,登記記録の閉鎖等,0,2022-05-17,2022-05-13,株式会社あん・クラフト,,株式会社,岐阜県,高山市,上岡本町３丁目３７６番地,,21,203,5060055,,,2022-05-13,清算の結了等,,,2015-10-05,1,,,,,アンクラフト,0
2116,8290801012257,登記記録の閉鎖等,0,2022-05-17,2022-05-16,千石物産株式会社,,株式会社,福岡県,北九州市若松区,浜町１丁目１９番９号,,40,103,8080024,,,2022-05-16,清算の結了等,,,2015-10-05,1,,,,,,0
2123,8320002001824,登記記録の閉鎖等,0,2022-05-17,2022-05-13,有限会社鶴洋機工,,有限会社,大分県,大分市,牧３丁目６番２３号,,44,201,8700924,,,2022-05-13,清算の結了等,,,2015-10-05,1,,,,,カクヨウキコウ,0
2124,8330001006699,登記記録の閉鎖等,0,2022-05-17,2022-04-22,セイキ管財株式会社,,株式会社,熊本県,熊本市東区,御領６丁目４番５０号,,43,102,8618035,,,2022-04-22,合併による解散等,4330001002504,令和４年４月１日熊本市東区御領六丁目４番５０号セイキ管財株式会社（4330001002504）に合併し解散,2015-10-05,1,,,,,セイキカンザイ,0
2161,8430002036867,登記記録の閉鎖等,0,2022-05-17,2022-05-06,有限会社札幌損害保険センター,,有限会社,北海道,札幌市北区,屯田六条９丁目４番１２号,,01,102,0020856,,,2022-05-06,清算の結了等,,,2015-10-05,1,,,,,サッポロソンガイホケンセンター,0
2173,9010001108584,登記記録の閉鎖等,0,2022-05-17,2022-04-25,ＡＧＵジャパン株式会社,,株式会社,東京都,中央区,日本橋人形町３丁目３番１５号,,13,102,1030013,,,2022-04-25,清算の結了等,,,2015-10-05,1,,,,,エージーユージャパン,0
2188,9010005029348,登記記録の閉鎖等,0,2022-05-17,2022-05-13,一般社団法人豊田開発,,その他の設立登記法人,東京都,千代田区,平河町１丁目６番１５号シルスフィア会計事務所内,,13,101,1020093,,,2022-05-13,清算の結了等,,,2018-11-13,1,,,,,トヨダカイハツ,0
2191,9010401110479,登記記録の閉鎖等,0,2022-05-17,2022-04-25,株式会社ヒューリックス,,株式会社,東京都,港区,北青山２丁目７番２０号,,13,103,1070061,,,2022-04-25,清算の結了等,,,2015-10-05,1,,,,,ヒューリックス,0
2221,9011105009719,登記記録の閉鎖等,0,2022-05-17,2022-05-13,一般財団法人ＡＴＯＰＡ文化財団,,その他の設立登記法人,東京都,新宿区,西新宿６丁目１５番１－２７１９号,,13,104,1600023,,,2022-05-13,清算の結了等,,,2021-03-05,1,,,,,アトパブンカザイダン,0
2227,9011802028954,登記記録の閉鎖等,0,2022-05-17,2022-05-09,有限会社佐藤塗装企画,,有限会社,東京都,足立区,東伊興３丁目２１番１７号,,13,121,1210801,,,2022-05-09,清算の結了等,,,2015-10-05,1,,,,,サトウトソウキカク,0
2228,9012301000347,登記記録の閉鎖等,0,2022-05-17,2022-05-13,株式会社エイビーワイ,,株式会社,東京都,八王子市,別所１丁目３８番地の２,,13,201,1920363,,,2022-05-13,清算の結了等,,,2015-10-05,1,,,,,エイビーワイ,0
2238,9020001024624,登記記録の閉鎖等,0,2022-05-17,2022-05-02,株式会社明建,,株式会社,神奈川県,横浜市神奈川区,入江２丁目１０番８号,,14,102,2210014,,,2022-05-02,清算の結了等,,,2015-10-05,1,,,,,,0
2260,9030001067779,登記記録の閉鎖等,0,2022-05-17,2022-05-09,ライズ株式会社,,株式会社,埼玉県,越谷市,神明町２丁目１７０番地,,11,222,3430805,,,2022-05-09,清算の結了等,,,2015-10-05,1,,,,,ライズ,0
2262,9030001085277,登記記録の閉鎖等,0,2022-05-17,2022-05-09,株式会社持田石材店,,株式会社,埼玉県,熊谷市,村岡４８９番地,,11,202,3600162,,,2022-05-09,清算の結了等,,,2015-10-05,1,,,,,モチダセキザイテン,0
2263,9030001103303,登記記録の閉鎖等,0,2022-05-17,2022-05-10,株式会社ミヌマ興業,,株式会社,埼玉県,さいたま市見沼区,片柳２丁目１０４番,,11,104,3370024,,,2022-05-10,清算の結了等,,,2015-10-05,1,,,,,ミヌマコウギョウ,0
2299,9070002008051,登記記録の閉鎖等,0,2022-05-17,2022-05-09,有限会社東山地所,,有限会社,群馬県,前橋市,総社町総社３６０１番地１２,,10,201,3710852,,,2022-05-09,清算の結了等,,,2015-10-05,1,,,,,ヒガシヤマジショ,0
2302,9080101022753,登記記録の閉鎖等,0,2022-05-17,2022-05-13,株式会社稲垣商事,,株式会社,静岡県,富士市,鈴川中町３１番１号,,22,210,4170013,,,2022-05-13,清算の結了等,,,2021-09-07,1,,,,,イナガキショウジ,0
2303,9080102014007,登記記録の閉鎖等,0,2022-05-17,2022-05-12,有限会社佐野建機,,有限会社,静岡県,富士市,松岡１４５６番地の２３,,22,210,4160909,,,2022-05-12,清算の結了等,,,2015-10-05,1,,,,,サノケンキ,0
2304,9090001011392,登記記録の閉鎖等,0,2022-05-17,2022-05-10,株式会社クリスタルコート,,株式会社,山梨県,北杜市,小淵沢町９６３３番地１,,19,209,4080044,,,2022-05-10,清算の結了等,,,2015-10-05,1,,,,,クリスタルコート,0
2307,9090005001695,登記記録の閉鎖等,0,2022-05-17,2022-05-09,特定非営利活動法人みーんなあつまれ,,その他の設立登記法人,山梨県,甲斐市,下今井２４７２番地２,,19,210,4000105,,,2022-05-09,清算の結了等,,,2015-10-05,1,,,,,ミーンナアツマレ,0
2311,9100002016744,登記記録の閉鎖等,0,2022-05-17,2022-05-13,有限会社快晴,,有限会社,長野県,埴科郡坂城町,大字中之条２２５１番地１,,20,521,3890602,,,2022-05-13,清算の結了等,,,2015-10-05,1,,,,,カイセイ,0
2312,9100002017230,登記記録の閉鎖等,0,2022-05-17,2022-05-13,有限会社てるみ,,有限会社,長野県,飯山市,大字照里１５５５番地１,,20,213,3892413,,,2022-05-13,清算の結了等,,,2015-10-05,1,,,,,テルミ,0
2315,9120001194639,登記記録の閉鎖等,0,2022-05-17,2022-05-16,株式会社アビリティカンパニー,,株式会社,大阪府,大阪市住之江区,平林北２丁目２番１６号５０３号室,,27,125,5590026,,,2022-05-16,清算の結了等,,,2015-11-25,1,,,,,アビリティカンパニー,0
2321,9120002046789,登記記録の閉鎖等,0,2022-05-17,2022-05-12,有限会社ジェミニ,,有限会社,大阪府,大阪市淀川区,田川３丁目６番８号,,27,123,5320027,,,2022-05-12,清算の結了等,,,2015-10-05,1,,,,,ジェミニ,0
2322,9120003013499,登記記録の閉鎖等,0,2022-05-17,2022-05-13,合同会社セルクル,,合同会社,大阪府,大阪市西区,北堀江２丁目１番２号パークヒルズ北堀江ラモーダ４０１号,,27,106,5500014,,,2022-05-13,清算の結了等,,,2017-11-08,1,,,,,セルクル,0
2339,9140001051053,登記記録の閉鎖等,0,2022-05-17,2022-05-13,文化自動車部品工業株式会社,,株式会社,兵庫県,尼崎市,大西町３丁目２番２９号,,28,202,6610023,,,2022-05-13,清算の結了等,,,2015-10-05,1,,,,,ブンカジドウシャブヒンコウギョウ,0
2343,9140001112862,登記記録の閉鎖等,0,2022-05-17,2022-05-11,株式会社松井,,株式会社,兵庫県,神戸市須磨区,東落合３丁目１８番１号,,28,107,6540152,,,2022-05-11,清算の結了等,,,2019-02-28,1,,,,,マツイ,0
2346,9160001003606,登記記録の閉鎖等,0,2022-05-17,2022-05-13,株式会社ＰＩリサーチ,,株式会社,滋賀県,大津市,青山３丁目７番７号,,25,201,5202101,,,2022-05-13,清算の結了等,,,2015-10-05,1,,,,,ピーアイリサーチ,0
2347,9160001009776,登記記録の閉鎖等,0,2022-05-17,2022-05-12,株式会社エフィード,,株式会社,滋賀県,東近江市,五個荘和田町４２９番地１,,25,213,5291412,,,2022-05-12,清算の結了等,,,2015-10-05,1,,,,,エフィード,0
2348,9160001012061,登記記録の閉鎖等,0,2022-05-17,2022-05-13,株式会社松井工務店,,株式会社,滋賀県,高島市,マキノ町高木浜１丁目１９番地の９,,25,212,5201813,,,2022-05-13,清算の結了等,,,2015-10-05,1,,,,,マツイコウムテン,0
2359,9180001139745,登記記録の閉鎖等,0,2022-05-17,2022-05-11,株式会社ヨコミゾエムシー,,株式会社,愛知県,江南市,古知野町日の出１５５番地３,,23,217,4838214,,,2022-05-11,清算の結了等,,,2020-01-21,1,,,,,ヨコミゾエムシー,0
2365,9180003022643,登記記録の閉鎖等,0,2022-05-17,2022-05-10,合同会社Ａｌｏｗａｙ,,合同会社,愛知県,名古屋市千種区,千種通６丁目２５番地（センチュリースクエア千種１３０３号）,,23,101,4640855,,,2022-05-10,清算の結了等,,,2021-06-21,1,,,,,アロウェイ,0
2372,9200002007460,登記記録の閉鎖等,0,2022-05-17,2022-05-16,有限会社紫妃プランニング,,有限会社,岐阜県,各務原市,那加住吉町５丁目４４番地の１,,21,213,5040907,,,2022-05-16,清算の結了等,,,2015-10-05,1,,,,,シキプランニング,0
2374,9220001022806,登記記録の閉鎖等,0,2022-05-17,2022-05-13,株式会社アトラス工業,,株式会社,石川県,白山市,横江町３０３番地２,,17,210,9240011,,,2022-05-13,清算の結了等,,,2019-04-09,1,,,,,アトラスコウギョウ,0
2398,9310005002514,登記記録の閉鎖等,0,2022-05-17,2022-05-06,佐世保市衣料品商業協同組合,,その他の設立登記法人,長崎県,佐世保市,塩浜町１番１８号,,42,202,8570876,,,2022-05-06,清算の結了等,,,2015-10-05,1,,,,,サセボシイリョウヒンショウギョウ,0
2407,9340002026240,登記記録の閉鎖等,0,2022-05-17,2022-05-13,有限会社長倉商店,,有限会社,鹿児島県,鹿児島市,鴨池１丁目３１番地４財宝鴨池ビル２階,,46,201,8900063,,,2022-05-13,合併による解散等,8340001014544,令和４年５月１日鹿児島県垂水市浜平城内５８８番地株式会社財宝（8340001014544）に合併し解散,2015-10-05,1,,,,,ナガクラショウテン,0
