sequenceNumber,corporateNumber,process,correct,updateDate,changeDate,name,nameImageId,kind,prefectureName,cityName,streetNumber,addressImageId,prefectureCode,cityCode,postCode,addressOutside,addressOutsideImageId,closeDate,closeCause,successorCorporateNumber,changeCause,assignmentDate,latest,enName,enPrefectureName,enCityName,enAddressOutside,furigana,hihyoji
1,1010001007273,登記記録の閉鎖等,0,2024-12-02,2024-11-18,株式会社マキノ出版,,株式会社,東京都,中央区,日本橋茅場町３丁目４番２号,,13,102,1030025,,,2024-11-18,清算の結了等,,,2015-10-05,1,,,,,マキノシュッパン,0
6,1010003037847,登記記録の閉鎖等,0,2024-12-02,2024-11-18,合同会社ＣＲＥＭＬファンド４,,合同会社,東京都,中央区,京橋１丁目１４番９号株式会社えいえん堂内,,13,102,1040031,,,2024-11-18,清算の結了等,,,2022-06-08,1,,,,,シーアールイーエムエルファンドフォー,0
11,1010401151588,登記記録の閉鎖等,0,2024-12-02,2024-11-13,ダブルシャープ・パートナーズ株式会社,,株式会社,東京都,港区,赤坂２丁目９番１１号,,13,103,1070052,,,2024-11-13,清算の結了等,,,2020-03-09,1,,,,,ダブルシャープパートナーズ,0
15,1010602027595,登記記録の閉鎖等,0,2024-12-02,2024-11-28,有限会社八興酵素,,有限会社,東京都,墨田区,京島１丁目３８番１－１１０５号,,13,107,1310046,,,2024-11-28,清算の結了等,,,2015-10-05,1,,,,,ハッコウコウソ,0
18,1010702006458,登記記録の閉鎖等,0,2024-12-02,2024-11-27,有限会社長谷川工業所,,有限会社,東京都,品川区,豊町３丁目１１番１号,,13,109,1420042,,,2024-11-27,清算の結了等,,,2015-10-05,1,,,,,ハセガワコウギョウショ,0
57,1012401017612,登記記録の閉鎖等,0,2024-12-02,2024-11-29,株式会社焼肉洞,,株式会社,東京都,武蔵野市,吉祥寺本町１丁目９番９号,,13,203,1800004,,,2024-11-29,清算の結了等,,,2015-10-05,1,,,,,ヤキニクドウ,0
60,1012702006248,登記記録の閉鎖等,0,2024-12-02,2024-11-11,有限会社岩田設備事務所,,有限会社,東京都,東久留米市,八幡町３丁目６番３７号,,13,222,2030042,,,2024-11-11,清算の結了等,,,2015-10-05,1,,,,,イワタセツビジムショ,0
61,1012801017022,登記記録の閉鎖等,0,2024-12-02,2024-11-25,株式会社ライフセンスグループジャパン,,株式会社,東京都,武蔵野市,吉祥寺本町１丁目２０番１号吉祥寺永谷プラザ１００２,,13,203,1800004,,,2024-11-25,清算の結了等,,,2016-01-18,1,,,,,ライフセンスグループジャパン,0
64,1013303000516,登記記録の閉鎖等,0,2024-12-02,2024-11-20,合資会社東亜クリーニング,,合資会社,東京都,豊島区,雑司が谷２丁目５番２２号,,13,116,1710032,,,2024-11-20,清算の結了等,,,2015-10-05,1,,,,,トウアクリーニング,0
73,1020002070344,登記記録の閉鎖等,0,2024-12-02,2024-11-20,有限会社フリーハンド,,有限会社,神奈川県,横浜市青葉区,たちばな台１丁目５番地４４,,14,117,2270046,,,2024-11-20,清算の結了等,,,2015-10-05,1,,,,,フリーハンド,0
88,1030001093808,登記記録の閉鎖等,0,2024-12-02,2024-11-28,瑞恵商事株式会社,,株式会社,埼玉県,さいたま市南区,曲本１丁目１９番６号,,11,108,3360033,,,2024-11-28,清算の結了等,,,2015-10-05,1,,,,,,0
105,1060002037637,登記記録の閉鎖等,0,2024-12-02,2024-11-27,有限会社山崎住設,,有限会社,栃木県,足利市,菅田町１７番地２,,09,202,3260007,,,2024-11-27,清算の結了等,,,2015-10-05,1,,,,,ヤマサキジュウセツ,0
107,1070001019602,登記記録の閉鎖等,0,2024-12-02,2024-11-27,大東運輸株式会社,,株式会社,群馬県,太田市,飯田町７６５,,10,205,3730851,,,2024-11-27,清算の結了等,,,2015-10-05,1,,,,,ダイトウウンユ,0
118,1100002006232,登記記録の閉鎖等,0,2024-12-02,2024-11-26,有限会社大道橋商店,,有限会社,長野県,長野市,豊野町豊野４１６番地,,20,201,3891105,,,2024-11-26,清算の結了等,,,2024-09-04,1,,,,,ダイドウバシショウテン,0
139,1130003006286,登記記録の閉鎖等,0,2024-12-02,2024-11-28,京揚投資管理合同会社,,合同会社,京都府,京都市下京区,葛籠屋町５１４,,26,106,6008085,,,2024-11-28,清算の結了等,,,2019-11-20,1,,,,,ケイヨウトウシカンリ,0
141,1140001057801,登記記録の閉鎖等,0,2024-12-02,2024-11-25,一山石材工業株式会社,,株式会社,兵庫県,高砂市,曽根町２７０６番地の６,,28,216,6760082,,,2024-11-25,清算の結了等,,,2015-10-05,1,,,,,イチヤマセキザイコウギョウ,0
143,1140001097327,登記記録の閉鎖等,0,2024-12-02,2024-11-27,株式会社コウエイ,,株式会社,兵庫県,尼崎市,小中島１丁目１９番９号１階,,28,202,6610972,,,2024-11-27,清算の結了等,,,2015-10-05,1,,,,,コウエイ,0
158,1180005016246,登記記録の閉鎖等,0,2024-12-02,2024-11-25,一般社団法人中部事業承継紹介センター,,その他の設立登記法人,愛知県,名古屋市中村区,名駅１丁目１番１号ＪＰタワー名古屋２３階,,23,105,4500002,,,2024-11-25,清算の結了等,,,2015-10-05,1,,,,,チュウブジギョウショウケイショウカイセンター,0
164,1200002020561,登記記録の閉鎖等,0,2024-12-02,2024-11-28,有限会社はらしな,,有限会社,岐阜県,多治見市,金山町２７番地の１,,21,204,5070832,,,2024-11-28,清算の結了等,,,2015-10-05,1,,,,,ハラシナ,0
167,1230003000808,登記記録の閉鎖等,0,2024-12-02,2024-11-27,四六三電気合同会社,,合同会社,富山県,中新川郡上市町,稗田１３番地２２,00079207,16,322,9300362,,,2024-11-27,清算の結了等,,,2015-10-05,1,,,,,シロサデンキ,0
192,1290801023186,登記記録の閉鎖等,0,2024-12-02,2024-11-05,株式会社ツナギテ,,株式会社,福岡県,福岡市中央区,長浜２丁目５番２２号,,40,133,8100072,,,2024-11-05,清算の結了等,,,2017-01-11,1,,,,,ツナギテ,0
204,1330005008137,登記記録の閉鎖等,0,2024-12-02,2024-11-25,税理士法人ひまわり,,その他の設立登記法人,熊本県,熊本市中央区,水前寺６丁目４６番２１号,,43,101,8620950,,,2024-11-25,清算の結了等,,,2015-10-05,1,,,,,ヒマワリ,0
212,1370601003041,登記記録の閉鎖等,0,2024-12-02,2024-11-22,株式会社Ｍｙｔ．Ｐｒｏｄｕｃｔｓ,,株式会社,宮城県,多賀城市,山王字東町浦３番地の２,,04,209,9850852,,,2024-11-22,清算の結了等,,,2015-10-05,1,,,,,エムワイティプロダクツ,0
215,1430002058034,登記記録の閉鎖等,0,2024-12-02,2024-11-28,有限会社一興商事,,有限会社,北海道,苫小牧市,新富町１丁目７番２７号,,01,213,0530805,,,2024-11-28,清算の結了等,,,2015-10-05,1,,,,,イッコウショウジ,0
219,1470001010033,登記記録の閉鎖等,0,2024-12-02,2024-11-26,株式会社日東自動車,,株式会社,香川県,観音寺市,流岡町９６３番地９,,37,205,7680014,,,2024-11-26,清算の結了等,,,2015-10-05,1,,,,,ニットウジドウシャ,0
220,1470002005379,登記記録の閉鎖等,0,2024-12-02,2024-11-28,有限会社ハウスリフォームアサクラ,,有限会社,香川県,高松市,高松町１３２６番地３,,37,201,7610104,,,2024-11-28,清算の結了等,,,2015-10-05,1,,,,,ハウスリフォームアサクラ,0
223,1490002008280,登記記録の閉鎖等,0,2024-12-02,2024-11-26,有限会社西南ホーム,,有限会社,高知県,四万十市,中村東町３丁目６番２４号,,39,210,7870023,,,2024-11-26,清算の結了等,,,2015-10-05,1,,,,,セイナンホーム,0
224,1490005001984,登記記録の閉鎖等,0,2024-12-02,2024-11-27,特定非営利活動法人食と健康を学ぶ会,,その他の設立登記法人,高知県,高知市,みづき３丁目１７０３番地,,39,201,7800976,,,2024-11-27,清算の結了等,,,2015-10-05,1,,,,,ショクトケンコウヲマナブカイ,0
236,2010401066190,登記記録の閉鎖等,0,2024-12-02,2024-11-26,株式会社コムストック・グループ,,株式会社,東京都,台東区,根岸３丁目１７番７号,,13,106,1100003,,,2024-11-26,合併による解散等,4120002048055,令和６年１１月２０日大阪市北区天神橋二丁目３番１０号サンハイム南森町９０２号室株式会社ハーク（4120002048055）に合併し解散,2015-10-05,1,,,,,コムストックグループ,0
243,2010403025599,登記記録の閉鎖等,0,2024-12-02,2024-11-14,合同会社ｔｉｅ,,合同会社,東京都,港区,南青山２丁目２番１５号,,13,103,1070062,,,2024-11-14,清算の結了等,,,2021-06-28,1,,,,,タイ,0
246,2010601010469,登記記録の閉鎖等,0,2024-12-02,2024-11-27,株式会社工藤製作所,,株式会社,東京都,墨田区,横川４丁目１番１８号,,13,107,1300003,,,2024-11-27,清算の結了等,,,2015-10-05,1,,,,,クドウセイサクジョ,0
252,2010805000530,登記記録の閉鎖等,0,2024-12-02,2024-11-22,東京都城南金属プレス工業協同組合,,その他の設立登記法人,東京都,大田区,京浜島２丁目１０番２号,,13,111,1430003,,,2024-11-22,清算の結了等,,,2015-10-05,1,,,,,トウキョウトジョウナンキンゾクプレスコウギョウ,0
264,2011001125080,登記記録の閉鎖等,0,2024-12-02,2024-11-18,ＯＧＩイノベーション株式会社,,株式会社,東京都,目黒区,五本木２丁目４５番１号,,13,110,1530053,,,2024-11-18,清算の結了等,,,2018-11-09,1,,,,,オージーアイ,0
270,2011002016568,登記記録の閉鎖等,0,2024-12-02,2024-11-12,有限会社同心社,,有限会社,東京都,渋谷区,宇田川町４番８号,,13,113,1500042,,,2024-11-12,清算の結了等,,,2015-10-05,1,,,,,ドウシンシャ,0
288,2013301026280,登記記録の閉鎖等,0,2024-12-02,2024-11-21,株式会社リコアド,,株式会社,東京都,豊島区,南池袋２丁目２６番５号,,13,116,1710022,,,2024-11-21,清算の結了等,,,2015-10-05,1,,,,,リコアド,0
292,2020001051880,登記記録の閉鎖等,0,2024-12-02,2024-11-19,チノール株式会社,,株式会社,神奈川県,横浜市神奈川区,栄町５番地１,,14,102,2210052,,,2024-11-19,清算の結了等,,,2015-10-05,1,,,,,チノール,0
302,2021002029833,登記記録の閉鎖等,0,2024-12-02,2024-11-28,有限会社澤田造園土木,,有限会社,神奈川県,相模原市緑区,牧野１９４番地,,14,151,2520186,,,2024-11-28,清算の結了等,,,2015-10-05,1,,,,,サワダゾウエンドボク,0
311,2030001080680,登記記録の閉鎖等,0,2024-12-02,2024-11-28,株式会社ビッグナイン,,株式会社,東京都,足立区,古千谷本町１丁目８番１０号,,13,121,1210832,,,2024-11-28,清算の結了等,,,2015-10-05,1,,,,,ビッグナイン,0
327,2040002097260,登記記録の閉鎖等,0,2024-12-02,2024-11-27,有限会社泰聖住興,,有限会社,千葉県,野田市,上花輪１２９６番地,,12,208,2780033,,,2024-11-27,清算の結了等,,,2015-10-05,1,,,,,タイセイジュウコウ,0
332,2050002033586,登記記録の閉鎖等,0,2024-12-02,2024-11-25,有限会社リュウキ,,有限会社,茨城県,龍ケ崎市,貝原塚町２８０４番地,,08,208,3010856,,,2024-11-25,清算の結了等,,,2015-10-05,1,,,,,リュウキ,0
336,2080001000691,登記記録の閉鎖等,0,2024-12-02,2024-11-27,遠藤家庭用品株式会社,,株式会社,静岡県,静岡市葵区,流通センター８番１０号,,22,101,4200922,,,2024-11-27,清算の結了等,,,2015-10-05,1,,,,,エンドウカテイヨウヒン,0
340,2100002032871,登記記録の閉鎖等,0,2024-12-02,2024-11-25,有限会社しんこう社,,有限会社,長野県,伊那市,高遠町西高遠８３１番地,,20,209,3960211,,,2024-11-25,清算の結了等,,,2015-10-05,1,,,,,シンコウシャ,0
342,2110001026337,登記記録の閉鎖等,0,2024-12-02,2024-11-27,株式会社シー・オール,,株式会社,新潟県,南魚沼市,宮３２６番地,,15,226,9496775,,,2024-11-27,清算の結了等,,,2015-10-05,1,,,,,シーオール,0
353,2120005008520,登記記録の閉鎖等,0,2024-12-02,2024-11-29,特定非営利活動法人まゆみ基金,,その他の設立登記法人,大阪府,大阪市中央区,南船場１丁目１６番２３号,,27,128,5420081,,,2024-11-29,清算の結了等,,,2015-10-05,1,,,,,マユミキキン,0
355,2120902009645,登記記録の閉鎖等,0,2024-12-02,2024-11-26,有限会社イーブレイン,,有限会社,大阪府,高槻市,宮田町３丁目９番１号,,27,207,5691142,,,2024-11-26,清算の結了等,,,2015-10-05,1,,,,,イーブレイン,0
358,2122001027990,登記記録の閉鎖等,0,2024-12-02,2024-11-27,株式会社アシスト,,株式会社,大阪府,東大阪市,玉串元町２丁目１０番３０号,,27,227,5780933,,,2024-11-27,清算の結了等,,,2015-10-05,1,,,,,アシスト,0
368,2140002063343,登記記録の閉鎖等,0,2024-12-02,2024-11-28,有限会社大黒美術塗装工芸所,,有限会社,兵庫県,伊丹市,北伊丹２丁目５２番地の１,,28,207,6640831,,,2024-11-28,清算の結了等,,,2015-10-05,1,,,,,,0
374,2170005003070,登記記録の閉鎖等,0,2024-12-02,2024-11-26,長山ショッピングセンター協同組合,,その他の設立登記法人,和歌山県,紀の川市,貴志川町長山２７７番地１０８,,30,208,6400416,,,2024-11-26,清算の結了等,,,2015-10-05,1,,,,,ナガヤマショッピングセンター,0
382,2180002001753,登記記録の閉鎖等,0,2024-12-02,2024-11-25,有限会社吉田裁断,,有限会社,愛知県,名古屋市守山区,脇田町１５０５番地,,23,113,4630024,,,2024-11-25,清算の結了等,,,2015-10-05,1,,,,,ヨシダサイダン,0
384,2180003024522,登記記録の閉鎖等,0,2024-12-02,2024-11-25,合同会社ＷＬＭ,,合同会社,愛知県,名古屋市中区,新栄２丁目４６番３１号ＧＲＡＮＤＵＫＥ新栄ｌｕｎｏ１３０４号,,23,106,4600007,,,2024-11-25,清算の結了等,,,2022-11-22,1,,,,,ダブリューエルエム,0
390,2190002019241,登記記録の閉鎖等,0,2024-12-02,2024-11-28,有限会社市川住宅設計事務所,,有限会社,三重県,四日市市,鹿間町３９６番地,,24,202,5121113,,,2024-11-28,清算の結了等,,,2015-10-05,1,,,,,イチカワジュウタクセッケイジムショ,0
393,2200002002014,登記記録の閉鎖等,0,2024-12-02,2024-11-28,有限会社佐藤保険事務所,,有限会社,岐阜県,岐阜市,木ノ本町３丁目４番地,,21,201,5008867,,,2024-11-28,清算の結了等,,,2015-10-05,1,,,,,サトウホケンジムショ,0
417,2290002005355,登記記録の閉鎖等,0,2024-12-02,2024-10-30,有限会社適塾,,有限会社,福岡県,福岡市東区,舞松原２丁目１０番７号,,40,131,8130042,,,2024-10-30,清算の結了等,,,2015-10-05,1,,,,,テキジュク,0
420,2290002047100,登記記録の閉鎖等,0,2024-12-02,2024-11-01,有限会社鹿野電気商会,,有限会社,福岡県,八女市,室岡５３５番地,,40,210,8340066,,,2024-11-01,清算の結了等,,,2015-10-05,1,,,,,カノデンキショウカイ,0
421,2290003009611,登記記録の閉鎖等,0,2024-12-02,2024-11-01,合同会社友好,,合同会社,福岡県,筑後市,大字新溝３１６番地,,40,211,8330006,,,2024-11-01,清算の結了等,,,2020-01-06,1,,,,,ユウコウ,0
429,2310001017290,登記記録の閉鎖等,0,2024-12-02,2024-11-26,株式会社リース,,株式会社,長崎県,諫早市,小豆崎町７２０番地６,,42,204,8590311,,,2024-11-26,清算の結了等,,,2021-06-04,1,,,,,,0
441,2370201003077,登記記録の閉鎖等,0,2024-12-02,2024-11-25,株式会社マルコーストアー,,株式会社,宮城県,栗原市,栗駒岩ケ崎下町裏１０９番地,,04,213,9895301,,,2024-11-25,清算の結了等,,,2015-10-05,1,,,,,マルコーストアー,0
445,2390002016020,登記記録の閉鎖等,0,2024-12-02,2024-11-25,有限会社矢口設備,,有限会社,山形県,西村山郡河北町,谷地己１１６番地の１号乙地,,06,321,9993511,,,2024-11-25,清算の結了等,,,2015-10-05,1,,,,,ヤグチセツビ,0
449,2430002047580,登記記録の閉鎖等,0,2024-12-02,2024-11-28,有限会社五徳春日湯,,有限会社,北海道,千歳市,春日町１丁目１番３号,,01,224,0660065,,,2024-11-28,清算の結了等,,,2015-10-05,1,,,,,ゴトクカスガユ,0
455,3010001133415,登記記録の閉鎖等,0,2024-12-02,2024-11-25,株式会社ＲＥＶＯＮ,,株式会社,東京都,渋谷区,千駄ヶ谷３丁目５９番４号,,13,113,1510051,,,2024-11-25,清算の結了等,,,2015-10-05,1,,,,,リヴォン,0
474,3011001071092,登記記録の閉鎖等,0,2024-12-02,2024-11-25,ＪＡＰＡＮ　ＥＶＥＲＹ　ＴＲＡＶＥＬ株式会社,,株式会社,長野県,飯山市,大字飯山字八坊塚１１４９２－３４０,,20,213,3892253,,,2024-11-25,清算の結了等,,,2015-10-05,1,,,,,ジャパンエブリトラベル,0
488,3011301026705,登記記録の閉鎖等,0,2024-12-02,2024-11-18,株式会社エヌエスティ,,株式会社,東京都,千代田区,岩本町１丁目１３番５号サン・チカビル２階,,13,101,1010032,,,2024-11-18,清算の結了等,,,2021-03-24,1,,,,,エヌエスティ,0
501,3013201017833,登記記録の閉鎖等,0,2024-12-02,2024-11-14,ＴＡＮＩＴ株式会社,,株式会社,東京都,目黒区,上目黒４丁目３３番１１号,,13,110,1530051,,,2024-11-14,清算の結了等,,,2015-10-05,1,,,,,タニット,0
514,3020002098185,登記記録の閉鎖等,0,2024-12-02,2024-11-19,東神機工有限会社,,有限会社,神奈川県,川崎市川崎区,伊勢町８番１７号,,14,131,2100805,,,2024-11-19,清算の結了等,,,2015-10-05,1,,,,,,0
518,3021001011023,登記記録の閉鎖等,0,2024-12-02,2024-11-28,株式会社アーク精工,,株式会社,神奈川県,相模原市中央区,淵野辺１丁目１９番２０号,,14,152,2520206,,,2024-11-28,清算の結了等,,,2015-10-05,1,,,,,アークセイコウ,0
560,3120101062214,登記記録の閉鎖等,0,2024-12-02,2024-11-27,株式会社ＹＳＫ,,株式会社,大阪府,泉南郡熊取町,大久保中１丁目１５番２０号セピアコートタナカ２０２号,,27,361,5900403,,,2024-11-27,清算の結了等,,,2020-08-24,1,,,,,ワイエスケイ,0
568,3130001022556,登記記録の閉鎖等,0,2024-12-02,2024-11-28,巻田商事株式会社,,株式会社,京都府,京都市中京区,西ノ京栂尾町１１９番地,,26,104,6048415,,,2024-11-28,清算の結了等,,,2015-10-05,1,,,,,マキタショウジ,0
570,3130001047330,登記記録の閉鎖等,0,2024-12-02,2024-11-28,株式会社インター・ビュー,,株式会社,京都府,京都市下京区,中堂寺北町１番地８７,,26,106,6008812,,,2024-11-28,清算の結了等,,,2015-10-05,1,,,,,,0
589,3180305008718,登記記録の閉鎖等,0,2024-12-02,2024-11-29,一般社団法人シグマ,,その他の設立登記法人,愛知県,豊田市,生駒町大坪１７番地,,23,211,4730928,,,2024-11-29,清算の結了等,,,2017-11-13,1,,,,,シグマ,0
593,3190002022863,登記記録の閉鎖等,0,2024-12-02,2024-11-28,有限会社デーエム・ジェー,,有限会社,三重県,四日市市,桜台２丁目５番地の５８７,,24,202,5121214,,,2024-11-28,清算の結了等,,,2015-10-05,1,,,,,デーエムジェー,0
612,3290002001519,登記記録の閉鎖等,0,2024-12-02,2024-11-01,有限会社英文社印刷所,,有限会社,福岡県,福岡市南区,寺塚２丁目１４番１号,,40,134,8150074,,,2024-11-01,清算の結了等,,,2015-10-05,1,,,,,エイブンシャインサツ,0
613,3290002014388,登記記録の閉鎖等,0,2024-12-02,2024-11-05,有限会社エスアイ商事,,有限会社,福岡県,福岡市博多区,上呉服町２番１号,,40,132,8120036,,,2024-11-05,清算の結了等,,,2015-10-05,1,,,,,エスアイショウジ,0
619,3290002046514,登記記録の閉鎖等,0,2024-12-02,2024-11-05,有限会社藤田緑化,,有限会社,福岡県,飯塚市,鯰田１３５５番地１２,,40,205,8200001,,,2024-11-05,清算の結了等,,,2015-10-05,1,,,,,フジタリョクカ,0
622,3290003002664,登記記録の閉鎖等,0,2024-12-02,2024-11-01,合名会社高山鮮魚店,00093696,合名会社,福岡県,久留米市,原古賀町２２番地の２,,40,203,8300046,,,2024-11-01,清算の結了等,,,2015-10-05,1,,,,,タカヤマセンギョテン,0
627,3290803003060,登記記録の閉鎖等,0,2024-12-02,2024-11-28,合同会社満天,,合同会社,福岡県,遠賀郡芦屋町,大字芦屋１５５番地２,,40,381,8070133,,,2024-11-28,清算の結了等,,,2018-02-08,1,,,,,マンテン,0
632,3310003003214,登記記録の閉鎖等,0,2024-12-02,2024-11-26,合同会社へごの里,,合同会社,長崎県,平戸市,朶の原町３９３番地１,,42,207,8595375,,,2024-11-26,清算の結了等,,,2016-11-22,1,,,,,ヘゴノサト,0
642,3370001002773,登記記録の閉鎖等,0,2024-12-02,2024-11-22,株式会社小川商店,,株式会社,宮城県,仙台市若林区,若林５丁目８番２８号,,04,103,9840826,,,2024-11-22,清算の結了等,,,2015-10-05,1,,,,,オガワショウテン,0
654,3490002000541,登記記録の閉鎖等,0,2024-12-02,2024-11-29,有限会社内田コンタクトレンズ,,有限会社,高知県,高知市,塚ノ原６番地１,,39,201,7800952,,,2024-11-29,清算の結了等,,,2015-10-05,1,,,,,ウチダコンタクトレンズ,0
659,3500002018598,登記記録の閉鎖等,0,2024-12-02,2024-11-26,有限会社高須無線,00008144,有限会社,愛媛県,今治市,常盤町７丁目１番３５号,,38,202,7940015,,,2024-11-26,清算の結了等,,,2015-10-05,1,,,,,タカスムセン,0
660,3500002019209,登記記録の閉鎖等,0,2024-12-02,2024-11-22,有限会社みやこミート,,有限会社,愛媛県,今治市,玉川町三反地甲２１７番地６,,38,202,7940101,,,2024-11-22,清算の結了等,,,2015-10-05,1,,,,,ミヤコミート,0
670,4010401185534,登記記録の閉鎖等,0,2024-12-02,2024-11-12,ＬＮＳホールディングス２株式会社,,株式会社,東京都,港区,浜松町２丁目４番１号,,13,103,1050013,,,2024-11-12,合併による解散等,4010401184338,令和６年１１月１２日東京都港区浜松町二丁目４番１号ＬＮＳホールディングス株式会社（4010401184338）に合併し解散,2024-10-15,1,,,,,エルエヌエスホールディングスツー,0
680,4011001069557,登記記録の閉鎖等,0,2024-12-02,2024-11-25,株式会社弘勝,,株式会社,東京都,渋谷区,笹塚３丁目１２番５号,,13,113,1510073,,,2024-11-25,清算の結了等,,,2015-10-05,1,,,,,コウショウ,0
697,4011101086816,登記記録の閉鎖等,0,2024-12-02,2024-11-19,株式会社ＶＡＲ　ＬＩＶＥ　ＪＡＰＡＮ,,株式会社,東京都,中央区,築地６丁目１５番６号,,13,102,1040045,,,2024-11-19,清算の結了等,,,2019-02-13,1,,,,,ブイエーアールライブジャパン,0
709,4011601019985,登記記録の閉鎖等,0,2024-12-02,2024-11-27,Ｓエージェント株式会社,,株式会社,埼玉県,坂戸市,大字多和目８９６番地１０,,11,239,3500246,,,2024-11-27,清算の結了等,,,2015-10-05,1,,,,,エスエージェント,0
717,4012402004284,登記記録の閉鎖等,0,2024-12-02,2024-11-15,有限会社水村建具店,,有限会社,東京都,国分寺市,西元町２丁目１５番１４号,,13,214,1850023,,,2024-11-15,清算の結了等,,,2015-10-05,1,,,,,,0
719,4013202006363,登記記録の閉鎖等,0,2024-12-02,2024-11-11,有限会社目黒機械彫刻所,,有限会社,東京都,目黒区,下目黒４丁目２０番２７号,,13,110,1530064,,,2024-11-11,清算の結了等,,,2015-10-05,1,,,,,メグロキカイチョウコクショ,0
720,4013301005010,登記記録の閉鎖等,0,2024-12-02,2024-11-20,株式会社五月商会,,株式会社,東京都,豊島区,南大塚２丁目１番３号,00066836,13,116,1700005,,,2024-11-20,清算の結了等,,,2015-10-05,1,,,,,サツキショウカイ,0
722,4013302008920,登記記録の閉鎖等,0,2024-12-02,2024-11-20,有限会社豊永紙器,,有限会社,東京都,豊島区,高田１丁目６番１３号,,13,116,1710033,,,2024-11-20,清算の結了等,,,2015-10-05,1,,,,,ホウエイシキ,0
724,4020001000175,登記記録の閉鎖等,0,2024-12-02,2024-11-28,株式会社佐々木土建,,株式会社,神奈川県,鎌倉市,寺分３丁目７番７号,,14,204,2470064,,,2024-11-28,清算の結了等,,,2015-10-05,1,,,,,ササキドケン,0
726,4020001059427,登記記録の閉鎖等,0,2024-12-02,2024-11-20,株式会社光青果,,株式会社,神奈川県,横浜市青葉区,美しが丘１丁目１２番１号Ａ－２０４,,14,117,2250002,,,2024-11-20,清算の結了等,,,2015-10-05,1,,,,,ヒカリセイカ,0
752,4030001128899,登記記録の閉鎖等,0,2024-12-02,2024-11-28,株式会社Ｌｕｃｋｙ　ｉｓｌａｎｄ,,株式会社,埼玉県,戸田市,笹目２丁目１４番１３号,,11,224,3350034,,,2024-11-28,清算の結了等,,,2018-12-28,1,,,,,ラッキーアイランド,0
758,4030002017341,登記記録の閉鎖等,0,2024-12-02,2024-11-22,有限会社慎和商事,,有限会社,埼玉県,さいたま市中央区,八王子３丁目１０番８号,,11,105,3380006,,,2024-11-22,清算の結了等,,,2015-10-05,1,,,,,シンワショウジ,0
759,4030002110583,登記記録の閉鎖等,0,2024-12-02,2024-11-28,有限会社アンジュ,,有限会社,埼玉県,川口市,桜町１丁目１３番１７－６０４号,,11,203,3340001,,,2024-11-28,清算の結了等,,,2015-10-05,1,,,,,アンジュ,0
766,4040005022172,登記記録の閉鎖等,0,2024-12-02,2024-11-27,行政書士法人サイオン,,その他の設立登記法人,千葉県,松戸市,本町１－２３Ｗ松戸７Ｆ,,12,207,2710091,,,2024-11-27,清算の結了等,,,2023-10-24,1,,,,,サイオン,0
767,4050001048823,登記記録の閉鎖等,0,2024-12-02,2024-11-26,株式会社日和システム研究所,,株式会社,茨城県,水戸市,中央１丁目３番３８号,,08,201,3100805,,,2024-11-26,清算の結了等,,,2021-03-11,1,,,,,ニチワシステムケンキュウジョ,0
769,4060002023329,登記記録の閉鎖等,0,2024-12-02,2024-11-07,株式会社ラーメン天華,,株式会社,東京都,渋谷区,桜丘町１番１号渋谷サクラステージＳＨＩＢＵＹＡタワー,,13,113,1500031,,,2024-11-07,合併による解散等,1012301012548,令和６年１１月１日東京都渋谷区桜丘町１番１号渋谷サクラステージＳＨＩＢＵＹＡタワー株式会社ギフト（1012301012548）に合併し解散,2015-10-05,1,,,,,ラーメンテンカ,0
783,4120001158160,登記記録の閉鎖等,0,2024-12-02,2024-11-21,前田産業株式会社,,株式会社,大阪府,門真市,千石東町２番１０の５号,,27,223,5710013,,,2024-11-21,清算の結了等,,,2015-10-05,1,,,,,マエダサンギョウ,0
793,4120105001191,登記記録の閉鎖等,0,2024-12-02,2024-11-27,大阪下水道ブロック協同組合,,その他の設立登記法人,大阪府,堺市堺区,大仙中町７番３号阪和コンクリート工業株式会社内,,27,141,5900801,,,2024-11-27,清算の結了等,,,2015-10-05,1,,,,,オオサカゲスイドウブロック,0
801,4130002001426,登記記録の閉鎖等,0,2024-12-02,2024-11-28,有限会社ふじた,,有限会社,京都府,京都市右京区,太秦青木ケ原町３番地３,,26,108,6168171,,,2024-11-28,清算の結了等,,,2015-10-05,1,,,,,,0
820,4190001018250,登記記録の閉鎖等,0,2024-12-02,2024-11-28,ＭＣ塩浜エネルギーサービス株式会社,,株式会社,三重県,四日市市,東邦町１番地,,24,202,5100848,,,2024-11-28,清算の結了等,,,2015-10-05,1,,,,,エムシーシオハマエネルギーサービス,0
821,4190001025817,登記記録の閉鎖等,0,2024-12-02,2024-11-28,株式会社成栄,,株式会社,三重県,津市,安濃町光明寺２８番地４,,24,201,5142315,,,2024-11-28,清算の結了等,,,2018-08-28,1,,,,,ナルエイ,0
822,4190001029347,登記記録の閉鎖等,0,2024-12-02,2024-11-27,株式会社Ｋｕｒｏｋｏ,,株式会社,三重県,度会郡玉城町,日向１８３番３号,,24,461,5190405,,,2024-11-27,清算の結了等,,,2022-04-20,1,,,,,クロコ,0
824,4200001042769,登記記録の閉鎖等,0,2024-12-02,2024-11-26,岐阜信託株式会社,,株式会社,岐阜県,岐阜市,神田町１丁目８番地の３,,21,201,5008833,,,2024-11-26,清算の結了等,,,2024-08-26,1,,,,,ギフシンタク,0
825,4210002004305,登記記録の閉鎖等,0,2024-12-02,2024-11-28,有限会社みはらしや,,有限会社,福井県,吉田郡永平寺町,鳴鹿山鹿第１号２番地,,18,322,9101201,,,2024-11-28,清算の結了等,,,2015-10-05,1,,,,,ミハラシヤ,0
830,4260002002758,登記記録の閉鎖等,0,2024-12-02,2024-11-29,有限会社川口運送,,有限会社,岡山県,岡山市中区,倉富３７４番地の１０,,33,102,7038264,,,2024-11-29,清算の結了等,,,2015-10-05,1,,,,,カワグチウンソウ,0
831,4270001000340,登記記録の閉鎖等,0,2024-12-02,2024-11-29,株式会社仁風,,株式会社,鳥取県,鳥取市,吉方１４７番地,,31,201,6800842,,,2024-11-29,清算の結了等,,,2015-10-05,1,,,,,ジンプウ,0
839,4290002046612,登記記録の閉鎖等,0,2024-12-02,2024-11-01,有限会社第一通商,,有限会社,福岡県,嘉麻市,山野２１５７番地の９,,40,227,8200202,,,2024-11-01,清算の結了等,,,2015-10-05,1,,,,,ダイイチツウショウ,0
840,4290003003802,登記記録の閉鎖等,0,2024-12-02,2024-11-01,合同会社ゆきしろ,,合同会社,福岡県,宗像市,日の里５丁目３番地８７－３７棟４０４号,,40,220,8113425,,,2024-11-01,清算の結了等,,,2015-10-05,1,,,,,ユキシロ,0
855,4380002008512,登記記録の閉鎖等,0,2024-12-02,2024-11-08,有限会社オマタ産業,,有限会社,福島県,郡山市,芳賀３丁目３番１４号,,07,203,9638813,,,2024-11-08,清算の結了等,,,2015-10-05,1,,,,,オマタサンギョウ,0
856,4390002015350,登記記録の閉鎖等,0,2024-12-02,2024-11-26,有限会社ケーケーエス,,有限会社,山形県,西置賜郡白鷹町,大字荒砥乙１９３４番地の１,,06,402,9920832,,,2024-11-26,清算の結了等,,,2015-10-05,1,,,,,ケーケーエス,0
857,4410001011752,登記記録の閉鎖等,0,2024-12-02,2024-11-26,株式会社ウェルワーク,,株式会社,秋田県,由利本荘市,岩谷町字大宮田１５８番地２,,05,210,0180711,,,2024-11-26,清算の結了等,,,2018-01-24,1,,,,,ウェルワーク,0
866,4450002004586,登記記録の閉鎖等,0,2024-12-02,2024-11-20,有限会社ビープラニング,,有限会社,北海道,旭川市,七条通１３丁目６０番地１９,,01,204,0700037,,,2024-11-20,合併による解散等,4450001002913,令和６年９月３０日北海道旭川市七条通十三丁目６０番地１９株式会社北海道録画センター（4450001002913）に合併し解散,2015-10-05,1,,,,,ビープラニング,0
871,4500001000250,登記記録の閉鎖等,0,2024-12-02,2024-11-27,愛寿医薬株式会社,,株式会社,愛媛県,松山市,森松町１０２６番地１,,38,201,7911113,,,2024-11-27,清算の結了等,,,2015-10-05,1,,,,,アイジュイヤク,0
875,5010001172758,登記記録の閉鎖等,0,2024-12-02,2024-11-18,レールコンサルティング株式会社,,株式会社,東京都,中央区,日本橋１丁目１３番１号,,13,102,1030027,,,2024-11-18,清算の結了等,,,2016-01-22,1,,,,,レールコンサルティング,0
883,5010005015384,登記記録の閉鎖等,0,2024-12-02,2024-11-26,公益財団法人日本呼吸器財団,,その他の設立登記法人,東京都,文京区,湯島２丁目４番３号,,13,105,1130034,,,2024-11-26,清算の結了等,,,2015-10-05,1,,,,,ニホンコキュウキザイダン,0
886,5010401091632,登記記録の閉鎖等,0,2024-12-02,2024-11-13,株式会社ハーツ・コミュニケーションズ,,株式会社,東京都,港区,南青山３丁目４番４号ＣＡＳＡＢＩＡＮＣＡ４０２,,13,103,1070062,,,2024-11-13,清算の結了等,,,2015-10-05,1,,,,,,0
900,5010602030323,登記記録の閉鎖等,0,2024-12-02,2024-11-28,有限会社カドヤプランニング,,有限会社,東京都,墨田区,業平４丁目１２番３号,,13,107,1300002,,,2024-11-28,清算の結了等,,,2015-10-05,1,,,,,カドヤプランニング,0
910,5011001116696,登記記録の閉鎖等,0,2024-12-02,2024-11-18,株式会社Ｔ．Ｍ．Ｋｉｄｓ,,株式会社,東京都,目黒区,東山１丁目２番２号,,13,110,1530043,,,2024-11-18,清算の結了等,,,2017-06-07,1,,,,,ティーエムキッズ,0
924,5011703003721,登記記録の閉鎖等,0,2024-12-02,2024-11-27,合同会社アスター,,合同会社,東京都,江戸川区,西葛西６丁目１３番１号西葛西たかみビル５Ｆ,,13,123,1340088,,,2024-11-27,清算の結了等,,,2024-01-24,1,,,,,アスター,0
957,5021001014313,登記記録の閉鎖等,0,2024-12-02,2024-11-28,株式会社洋文堂,,株式会社,神奈川県,相模原市中央区,清新８丁目８番８号,,14,152,2520216,,,2024-11-28,清算の結了等,,,2015-10-05,1,,,,,ヨウブンドウ,0
958,5021001029609,登記記録の閉鎖等,0,2024-12-02,2024-11-28,株式会社相実技建,,株式会社,神奈川県,海老名市,さつき町９番地（２４－１０６）,,14,215,2430421,,,2024-11-28,清算の結了等,,,2015-10-05,1,,,,,ソウジツギケン,0
964,5030001060597,登記記録の閉鎖等,0,2024-12-02,2024-11-28,関東中濃株式会社,,株式会社,埼玉県,本庄市,児玉町児玉１４４６番地１,,11,211,3670212,,,2024-11-28,清算の結了等,,,2015-10-05,1,,,,,,0
983,5080001021727,登記記録の閉鎖等,0,2024-12-02,2024-11-25,株式会社アブソラボ,,株式会社,静岡県,島田市,横井２丁目２２番３５号大河原運送株式会社内,,22,209,4270024,,,2024-11-25,清算の結了等,,,2017-08-02,1,,,,,アブソラボ,0
1009,5130001070215,登記記録の閉鎖等,0,2024-12-02,2024-11-28,株式会社バリューアップ,,株式会社,京都府,京都市南区,西九条唐戸町１２番地２,,26,107,6018447,,,2024-11-28,清算の結了等,,,2021-10-07,1,,,,,バリューアップ,0
1010,5130001073449,登記記録の閉鎖等,0,2024-12-02,2024-11-28,株式会社ＭＩＺＵＥ,,株式会社,京都府,京都市伏見区,深草西浦町４丁目５６番地１－２０１,,26,109,6120029,,,2024-11-28,清算の結了等,,,2023-01-12,1,,,,,ミズエ,0
1038,5180301012903,登記記録の閉鎖等,0,2024-12-02,2024-11-25,沢玉建設株式会社,,株式会社,愛知県,半田市,有楽町５丁目７１番地,,23,205,4750837,,,2024-11-25,清算の結了等,,,2015-10-05,1,,,,,サワタマケンセツ,0
1042,5180302000717,登記記録の閉鎖等,0,2024-12-02,2024-11-26,有限会社オフィス・ジャパン,,有限会社,愛知県,岡崎市,稲熊町字後田２２番地８,,23,202,4440071,,,2024-11-26,清算の結了等,,,2015-10-05,1,,,,,オフイスジャパン,0
1046,5200001005824,登記記録の閉鎖等,0,2024-12-02,2024-11-28,株式会社リンデン,,株式会社,岐阜県,岐阜市,神田町１丁目１０番地の１４,,21,201,5008833,,,2024-11-28,清算の結了等,,,2015-10-05,1,,,,,リンデン,0
1051,5200002021481,登記記録の閉鎖等,0,2024-12-02,2024-11-28,有限会社二明商店,,有限会社,岐阜県,土岐市,泉北山町４丁目７番地,,21,212,5095171,,,2024-11-28,清算の結了等,,,2015-10-05,1,,,,,ニメイショウテン,0
1057,5240001021314,登記記録の閉鎖等,0,2024-12-02,2024-11-29,株式会社未来食研,,株式会社,広島県,広島市中区,銀山町１０番１２号,,34,101,7300022,,,2024-11-29,清算の結了等,,,2015-10-05,1,,,,,ミライショクケン,0
1076,5290002050365,登記記録の閉鎖等,0,2024-12-02,2024-11-05,有限会社森山タクシー,,有限会社,福岡県,久留米市,大善寺町夜明３８３番地１,,40,203,8300074,,,2024-11-05,清算の結了等,,,2015-10-05,1,,,,,モリヤマタクシー,0
1077,5290005017171,登記記録の閉鎖等,0,2024-12-02,2024-11-12,ウェルアップ事業協同組合,,その他の設立登記法人,福岡県,福岡市中央区,天神５丁目５番８号,,40,133,8100001,,,2024-11-12,清算の結了等,,,2019-01-31,1,,,,,ウェルアップ,0
1079,5290802001311,登記記録の閉鎖等,0,2024-12-02,2024-11-26,有限会社大阪屋疊製造販売所,,有限会社,福岡県,北九州市戸畑区,中原西３丁目４番６号,,40,105,8040011,,,2024-11-26,清算の結了等,,,2015-10-05,1,,,,,オオサカヤタタミセイゾウハンバイショ,0
1081,5310001004435,登記記録の閉鎖等,0,2024-12-02,2024-11-27,株式会社トラスト,,株式会社,長崎県,長崎市,松原町２３４９番地４,,42,201,8510131,,,2024-11-27,清算の結了等,,,2015-10-05,1,,,,,,0
1085,5330001025743,登記記録の閉鎖等,0,2024-12-02,2024-11-27,株式会社エイシン,,株式会社,熊本県,菊池郡菊陽町,大字津久礼７６番地３,,43,404,8691101,,,2024-11-27,清算の結了等,,,2018-10-04,1,,,,,エイシン,0
1095,5410001003311,登記記録の閉鎖等,0,2024-12-02,2024-11-11,株式会社ベルナルド,,株式会社,秋田県,秋田市,寺内油田２丁目８番２５号,,05,201,0110903,,,2024-11-11,清算の結了等,,,2015-10-05,1,,,,,,0
1106,5490002000341,登記記録の閉鎖等,0,2024-12-02,2024-11-28,有限会社天山電工,,有限会社,高知県,高知市,北秦泉寺１４０番地１３,,39,201,7800022,,,2024-11-28,清算の結了等,,,2015-10-05,1,,,,,アマヤマデンコウ,0
1109,6010001081578,登記記録の閉鎖等,0,2024-12-02,2024-11-13,エイコー産業株式会社,,株式会社,東京都,港区,新橋２丁目１６番１号,,13,103,1050004,,,2024-11-13,清算の結了等,,,2015-10-05,1,,,,,,0
1113,6010001168012,登記記録の閉鎖等,0,2024-12-02,2024-11-18,スエックジャパン株式会社,,株式会社,東京都,千代田区,丸の内２丁目４番１号丸の内ビルディング９階,,13,101,1000005,,,2024-11-18,清算の結了等,,,2015-10-05,1,SUEK Japan Corporation,Tokyo,"2-4-1, Marunouchi, Chiyoda ku",,スエックジャパン,0
1121,6010401024285,登記記録の閉鎖等,0,2024-12-02,2024-11-13,株式会社花衣,,株式会社,東京都,港区,南青山５丁目４番３５号,,13,103,1070062,,,2024-11-13,清算の結了等,,,2015-10-05,1,,,,,,0
1122,6010401030176,登記記録の閉鎖等,0,2024-12-02,2024-11-15,株式会社ゆうせん企画,,株式会社,東京都,港区,麻布十番１丁目７番８号宮下ビルディング３０３,,13,103,1060045,,,2024-11-15,清算の結了等,,,2015-10-05,1,,,,,ユウセンキカク,0
1129,6010403027146,登記記録の閉鎖等,0,2024-12-02,2024-11-07,ＥＳＲ２７合同会社,,合同会社,東京都,港区,浜松町１丁目２０番１０号ライオネス浜松町５０６号室,,13,103,1050013,,,2024-11-07,清算の結了等,,,2022-02-24,1,,,,,イーエスアールニジュウナナ,0
1140,6010802006832,登記記録の閉鎖等,0,2024-12-02,2024-11-21,有限会社新興プラント,,有限会社,東京都,大田区,西糀谷２丁目１７番５号,,13,111,1440034,,,2024-11-21,清算の結了等,,,2015-10-05,1,,,,,シンコウプラント,0
1148,6011001147947,登記記録の閉鎖等,0,2024-12-02,2024-11-12,株式会社ｋｏｃｈ,,株式会社,東京都,渋谷区,神宮前６丁目２３番４号・桑野ビル２階,,13,113,1500001,,,2024-11-12,清算の結了等,,,2022-06-06,1,,,,,コッホ,0
1169,6011801024016,登記記録の閉鎖等,0,2024-12-02,2024-11-25,株式会社セキュリティ・ワークス,,株式会社,東京都,豊島区,池袋４丁目１番１１号－２階,,13,116,1710014,,,2024-11-25,清算の結了等,,,2015-10-05,1,,,,,セキュリティワークス,0
1177,6013205000205,登記記録の閉鎖等,0,2024-12-02,2024-11-12,医療法人社団隆永会,,その他の設立登記法人,東京都,目黒区,緑が丘３丁目４番７号,,13,110,1520034,,,2024-11-12,清算の結了等,,,2015-10-05,1,,,,,リュウエイカイ,0
1178,6013301026896,登記記録の閉鎖等,0,2024-12-02,2024-11-05,株式会社ＩＮＧＥＮＴ,,株式会社,東京都,新宿区,西新宿６丁目９番１号オークコート４０５号,,13,104,1600023,,,2024-11-05,清算の結了等,,,2015-10-05,1,,,,,,0
1183,6020002012077,登記記録の閉鎖等,0,2024-12-02,2024-11-20,スガノ商事有限会社,,有限会社,神奈川県,横浜市戸塚区,矢部町１３５番地３４,,14,110,2440002,,,2024-11-20,清算の結了等,,,2015-10-05,1,,,,,スガノショウジ,0
1186,6020003015673,登記記録の閉鎖等,0,2024-12-02,2024-11-27,合同会社Ｊ．Ｏ,,合同会社,埼玉県,入間市,東町３丁目１番２７号メゾンイースト１０６,,11,225,3580002,,,2024-11-27,清算の結了等,,,2019-02-22,1,,,,,ジェイオー,0
1196,6021001070438,登記記録の閉鎖等,0,2024-12-02,2024-11-28,ル・クール株式会社,,株式会社,神奈川県,秦野市,南矢名２丁目２６番２１号,,14,211,2570003,,,2024-11-28,清算の結了等,,,2020-07-27,1,,,,,,0
1203,6030002058169,登記記録の閉鎖等,0,2024-12-02,2024-11-28,有限会社一成,,有限会社,埼玉県,朝霞市,岡２丁目１０番３号,,11,227,3510007,,,2024-11-28,清算の結了等,,,2015-10-05,1,,,,,イッセイ,0
1205,6030002110219,登記記録の閉鎖等,0,2024-12-02,2024-11-25,有限会社光立,,有限会社,埼玉県,川口市,江戸袋１丁目１４番１１号,,11,203,3340075,,,2024-11-25,清算の結了等,,,2015-10-05,1,,,,,コウリツ,0
1221,6040003017494,登記記録の閉鎖等,0,2024-12-02,2024-11-27,ＲｅＰｕｂｌｉｃ　Ｗａｔｅｒ合同会社,,合同会社,千葉県,柏市,西原１丁目１６番４号,,12,217,2770885,,,2024-11-27,清算の結了等,,,2021-04-12,1,,,,,リパブリックウォーター,0
1227,6050002020184,登記記録の閉鎖等,0,2024-12-02,2024-11-26,有限会社馬立グリーン,,有限会社,茨城県,坂東市,馬立１２６１番地１,,08,228,3060605,,,2024-11-26,清算の結了等,,,2015-10-05,1,,,,,マダテグリーン,0
1232,6060001037344,登記記録の閉鎖等,0,2024-12-02,2024-11-27,株式会社ルート,,株式会社,栃木県,下野市,小金井１丁目３４－７,,09,216,3290414,,,2024-11-27,清算の結了等,,,2024-08-02,1,,,,,ルート,0
1243,6100002013661,登記記録の閉鎖等,0,2024-12-02,2024-11-22,上田製パン有限会社,,有限会社,長野県,上田市,諏訪形１３３５番地１,,20,203,3860032,,,2024-11-22,清算の結了等,,,2015-10-05,1,,,,,ウエダセイパン,0
1247,6110005006752,登記記録の閉鎖等,0,2024-12-02,2024-11-25,株式会社良寛,,株式会社,新潟県,三島郡出雲崎町,大字大門２６０番地１,,15,405,9494352,,,2024-11-25,清算の結了等,,,2015-10-05,1,,,,,リョウカン,0
1262,6120901022117,登記記録の閉鎖等,0,2024-12-02,2024-11-26,株式会社マリマ物流,,株式会社,大阪府,箕面市,船場東２丁目３番５６号,,27,220,5620035,,,2024-11-26,清算の結了等,,,2015-10-05,1,,,,,マリマブツリュウ,0
1266,6130002016843,登記記録の閉鎖等,0,2024-12-02,2024-11-28,蝶屋商事有限会社,,有限会社,京都府,京都市中京区,木屋町通二条下ル二丁目上樵木町４９４番地の１,,26,104,6040000,,,2024-11-28,清算の結了等,,,2015-10-05,1,,,,,チョウヤショウジ,0
1269,6140001030357,登記記録の閉鎖等,0,2024-12-02,2024-11-28,株式会社グレース,,株式会社,兵庫県,神戸市須磨区,大池町５丁目１７番１－３００６号,,28,107,6540026,,,2024-11-28,清算の結了等,,,2015-10-05,1,,,,,グレース,0
1286,6180302020235,登記記録の閉鎖等,0,2024-12-02,2024-11-26,有限会社ベルテック,,有限会社,愛知県,碧南市,石橋町５丁目７２番地,,23,209,4470858,,,2024-11-26,清算の結了等,,,2015-10-05,1,,,,,ベルテック,0
1292,6240001011859,登記記録の閉鎖等,0,2024-12-02,2024-11-29,株式会社ヤシマ測器,,株式会社,広島県,広島市東区,光町２丁目２番１３号,,34,102,7320052,,,2024-11-29,清算の結了等,,,2015-10-05,1,,,,,ヤシマソッキ,0
1300,6290001043385,登記記録の閉鎖等,0,2024-12-02,2024-11-06,株式会社トリプルスリー,,株式会社,福岡県,太宰府市,向佐野４丁目１１番８号,,40,221,8180135,,,2024-11-06,清算の結了等,,,2015-10-05,1,,,,,トリプルスリー,0
1302,6290001073861,登記記録の閉鎖等,0,2024-12-02,2024-11-01,株式会社４ｏＲ,,株式会社,福岡県,福岡市中央区,平尾２丁目２１番８－１１０１号,,40,133,8100014,,,2024-11-01,清算の結了等,,,2016-05-10,1,,,,,フォーオーアール,0
1345,7010001128997,登記記録の閉鎖等,0,2024-12-02,2024-11-28,株式会社ＭＩＥＳＴＩＬＯ,,株式会社,埼玉県,ふじみ野市,うれし野２丁目１７－１８サンデュエルふじみ野７０１号,,11,245,3560056,,,2024-11-28,清算の結了等,,,2015-10-05,1,,,,,ミエスティロ,0
1357,7010003035127,登記記録の閉鎖等,0,2024-12-02,2024-11-18,合同会社ＣＲＥＭＬファンド３,,合同会社,東京都,中央区,京橋１丁目１４番９号株式会社えいえん堂内,,13,102,1040031,,,2024-11-18,清算の結了等,,,2021-06-28,1,,,,,シーアールイーエムエルファンドスリー,0
1361,7010005031685,登記記録の閉鎖等,0,2024-12-02,2024-11-26,特定非営利活動法人Ｄｉｇｉｔａｌ　Ｓｕｓｔａｉｎａｂｌｅ　Ｖｉｌｌａｇｅ,,その他の設立登記法人,東京都,千代田区,神田淡路町２丁目９－１１東酒類ビル７階,,13,101,1010063,,,2024-11-26,清算の結了等,,,2020-04-06,1,,,,,デジタルサスティナブルビレッジ,0
1385,7011001117998,登記記録の閉鎖等,0,2024-12-02,2024-11-18,トレイ株式会社,,株式会社,東京都,渋谷区,千駄ヶ谷４丁目８番４－１５０２号,,13,113,1510051,,,2024-11-18,清算の結了等,,,2017-08-24,1,,,,,トレイ,0
1390,7011001141321,登記記録の閉鎖等,0,2024-12-02,2024-11-18,株式会社ＳＮＴ,,株式会社,東京都,千代田区,岩本町１丁目１３番５号ＴＲＵＳＴＶＡＬＵＥ岩本町２階,,13,101,1010032,,,2024-11-18,清算の結了等,,,2021-06-23,1,,,,,エスエヌティ,0
1403,7011801042487,登記記録の閉鎖等,0,2024-12-02,2024-11-27,株式会社西北のもり,,株式会社,東京都,足立区,伊興本町１丁目３番１１号第一佐藤ビル２０１号,,13,121,1210807,,,2024-11-27,清算の結了等,,,2023-05-30,1,,,,,セイホクノモリ,0
1409,7012802006019,登記記録の閉鎖等,0,2024-12-02,2024-11-15,有限会社ドリアン,,有限会社,東京都,東大和市,南街５丁目３５番地の１,,13,220,2070014,,,2024-11-15,清算の結了等,,,2015-10-05,1,,,,,ドリアン,0
1449,7070001007353,登記記録の閉鎖等,0,2024-12-02,2024-11-29,クリーンテックジャパン株式会社,,株式会社,群馬県,高崎市,金古町２１４５番地１,,10,202,3703511,,,2024-11-29,清算の結了等,,,2015-10-05,1,,,,,クリーンテックジャパン,0
1452,7080001012724,登記記録の閉鎖等,0,2024-12-02,2024-11-27,ＴＡＴＳＵＭＩＹＡ　ＦＲＥＳＨ株式会社,,株式会社,静岡県,静岡市葵区,平和３丁目１０－２９,,22,101,4200876,,,2024-11-27,清算の結了等,,,2015-10-05,1,,,,,タツミヤフレッシュ,0
1465,7120002055263,登記記録の閉鎖等,0,2024-12-02,2024-11-27,有限会社セレスコスメティックス関西,,有限会社,兵庫県,宝塚市,すみれガ丘２丁目２番１－１２０８号,,28,214,6650847,,,2024-11-27,清算の結了等,,,2015-10-05,1,,,,,セレスコスメティックスカンサイ,0
1484,7140005016483,登記記録の閉鎖等,0,2024-12-02,2024-11-27,特定非営利活動法人つどい場さくらちゃん,,その他の設立登記法人,兵庫県,西宮市,今在家町１番３号,,28,204,6620972,,,2024-11-27,清算の結了等,,,2015-10-05,1,,,,,ツドイバサクラチャン,0
1488,7160001007063,登記記録の閉鎖等,0,2024-12-02,2024-11-29,株式会社マルホ建設,,株式会社,滋賀県,米原市,枝折３６２番地の２,,25,214,5210032,,,2024-11-29,清算の結了等,,,2015-10-05,1,,,,,,0
1509,7220002016668,登記記録の閉鎖等,0,2024-12-02,2024-11-28,有限会社橋本製作所,,有限会社,石川県,河北郡津幡町,字中橋ロ１９番地１,,17,361,9290331,,,2024-11-28,清算の結了等,,,2015-10-05,1,,,,,ハシモトセイサクショ,0
1510,7240001007906,登記記録の閉鎖等,0,2024-12-02,2024-11-29,株式会社中原松雲堂,,株式会社,広島県,広島市中区,十日市町２丁目１０番１８号,,34,101,7300805,,,2024-11-29,清算の結了等,,,2015-10-05,1,,,,,ナカハラショウウンドウ,0
1514,7290001046676,登記記録の閉鎖等,0,2024-12-02,2024-10-31,ＧＥＲＣＥ株式会社,,株式会社,福岡県,福岡市中央区,六本松３丁目１１番２７－１２０１号,,40,133,8100044,,,2024-10-31,清算の結了等,,,2015-10-05,1,,,,,ガース,0
1523,7290002016083,登記記録の閉鎖等,0,2024-12-02,2024-11-05,有限会社大日商事,,有限会社,福岡県,福岡市博多区,半道橋１丁目２番２８号,,40,132,8120897,,,2024-11-05,清算の結了等,,,2015-10-05,1,,,,,ダイニチショウジ,0
1529,7330001021988,登記記録の閉鎖等,0,2024-12-02,2024-11-25,株式会社ｆｌｏｓ　ｖｉｔａ,,株式会社,熊本県,山鹿市,南島１３６１番地５,,43,208,8610535,,,2024-11-25,清算の結了等,,,2015-10-05,1,,,,,フロスヴィータ,0
1536,7350002017901,登記記録の閉鎖等,0,2024-12-02,2024-11-27,有限会社第一食品,,有限会社,宮崎県,小林市,堤４１４９番地３,,45,205,8860003,,,2024-11-27,清算の結了等,,,2015-10-05,1,,,,,ダイイチショクヒン,0
1542,7370401000662,登記記録の閉鎖等,0,2024-12-02,2024-11-22,株式会社金崎工業,,株式会社,宮城県,登米市,登米町寺池道場２１５番地１,,04,212,9870702,,,2024-11-22,清算の結了等,,,2015-10-05,1,,,,,カネザキコウギョウ,0
1543,7370803000161,登記記録の閉鎖等,0,2024-12-02,2024-11-18,合同会社ファースト・リーダー,,合同会社,宮城県,名取市,愛島笠島字北東宮下８４番地,,04,207,9811238,,,2024-11-18,清算の結了等,,,2015-10-05,1,,,,,ファーストリーダー,0
1560,7470001001349,登記記録の閉鎖等,0,2024-12-02,2024-11-22,クリスタル・ジャパン株式会社,,株式会社,香川県,高松市,香西本町１６５番地１,,37,201,7618012,,,2024-11-22,清算の結了等,,,2015-10-05,1,,,,,クリスタルジャパン,0
1561,7470002016098,登記記録の閉鎖等,0,2024-12-02,2024-11-27,有限会社中田食品工業所,,有限会社,香川県,観音寺市,観音寺町甲１１４６番地２,,37,205,7680060,,,2024-11-27,清算の結了等,,,2015-10-05,1,,,,,ナカタショクヒンコウギョウショ,0
1565,7500001018760,登記記録の閉鎖等,0,2024-12-02,2024-11-27,株式会社Ｔ＆Ｓエージェント,,株式会社,愛媛県,松山市,平田町２５０番地１,,38,201,7918001,,,2024-11-27,清算の結了等,,,2015-10-05,1,,,,,ティーアンドエスエージェント,0
1571,8010001064399,登記記録の閉鎖等,0,2024-12-02,2024-11-19,株式会社チョティワラ,,株式会社,東京都,中央区,月島４丁目６番１３号,,13,102,1040052,,,2024-11-19,清算の結了等,,,2015-10-05,1,,,,,チョティワラ,0
1573,8010001201068,登記記録の閉鎖等,0,2024-12-02,2024-11-15,株式会社ＧＰＣジャパン,,株式会社,東京都,千代田区,六番町２番地８番町Ｍビル３Ｆ,,13,101,1020085,,,2024-11-15,清算の結了等,,,2019-05-28,1,,,,,ジーピーシージャパン,0
1598,8011101019838,登記記録の閉鎖等,0,2024-12-02,2024-11-28,株式会社マン,,株式会社,群馬県,太田市,西新町１１３番地６,,10,205,3730847,,,2024-11-28,清算の結了等,,,2015-10-05,1,,,,,マン,0
1644,8030002104739,登記記録の閉鎖等,0,2024-12-02,2024-11-27,有限会社ダスキンサンエート,,有限会社,埼玉県,川口市,差間３丁目３番３０号,,11,203,3330816,,,2024-11-27,清算の結了等,,,2015-10-05,1,,,,,ダスキンサンエート,0
1649,8040001112923,登記記録の閉鎖等,0,2024-12-02,2024-11-26,有隣株式会社,,株式会社,千葉県,東金市,道庭１１９３番地１１７,,12,213,2830003,,,2024-11-26,清算の結了等,,,2020-03-23,1,,,,,ユウリン,0
1652,8050002018193,登記記録の閉鎖等,0,2024-12-02,2024-11-26,有限会社大竹製作所,,有限会社,茨城県,結城郡八千代町,大字磯６２３番地の４,,08,521,3003562,,,2024-11-26,清算の結了等,,,2015-10-05,1,,,,,オオタケセイシャクショ,0
1653,8050002024010,登記記録の閉鎖等,0,2024-12-02,2024-11-27,有限会社須長工業,,有限会社,茨城県,古河市,古河５７３番地２,,08,204,3060016,,,2024-11-27,清算の結了等,,,2015-10-05,1,,,,,スナガコウギョウ,0
1654,8060001035239,登記記録の閉鎖等,0,2024-12-02,2024-11-22,株式会社ＱＵＡＲＩＳ,,株式会社,宮城県,仙台市青葉区,中央２丁目１１番２３号,,04,101,9800021,,,2024-11-22,清算の結了等,,,2022-09-06,1,,,,,クオリス,0
1671,8120002025422,登記記録の閉鎖等,0,2024-12-02,2024-11-22,有限会社トミタ計器製作所,,有限会社,大阪府,大阪市東淀川区,淡路４丁目１７番７号,,27,114,5330032,,,2024-11-22,清算の結了等,,,2015-10-05,1,,,,,トミタケイキセイサクショタ,0
1695,8180001076502,登記記録の閉鎖等,0,2024-12-02,2024-11-25,株式会社松永,,株式会社,愛知県,小牧市,大字二重堀４６７番地,,23,219,4850021,,,2024-11-25,清算の結了等,,,2015-10-05,1,,,,,マツナガ,0
1700,8180001151619,登記記録の閉鎖等,0,2024-12-02,2024-11-22,株式会社ＤＬＩＭ,,株式会社,愛知県,名古屋市中村区,名駅３丁目２番２２号,,23,105,4500002,,,2024-11-22,清算の結了等,,,2022-06-06,1,,,,,ドリーム,0
1707,8180005017997,登記記録の閉鎖等,0,2024-12-02,2024-11-25,一般社団法人ＹＥＬＬＣＯ,,その他の設立登記法人,愛知県,名古屋市東区,泉１丁目１４番２３号,,23,102,4610001,,,2024-11-25,清算の結了等,,,2018-10-05,1,,,,,エルコ,0
1710,8180302006538,登記記録の閉鎖等,0,2024-12-02,2024-11-26,ウエーブサービス有限会社,,有限会社,愛知県,豊橋市,住吉町１８５番地,,23,201,4400052,,,2024-11-26,清算の結了等,,,2015-10-05,1,,,,,ウエーブサービス,0
1716,8200003000696,登記記録の閉鎖等,0,2024-12-02,2024-11-28,合資会社藤屋,,合資会社,岐阜県,岐阜市,昭和町２丁目３番地,,21,201,5008865,,,2024-11-28,清算の結了等,,,2015-10-05,1,,,,,フジヤ,0
1720,8240001024405,登記記録の閉鎖等,0,2024-12-02,2024-11-28,株式会社植敷組,,株式会社,広島県,三次市,西酒屋町１１９７番地１,,34,209,7280022,,,2024-11-28,清算の結了等,,,2015-10-05,1,,,,,ウエシキグミ,0
1724,8240002022003,登記記録の閉鎖等,0,2024-12-02,2024-11-28,有限会社マツバラ興産,,有限会社,広島県,広島市中区,十日市町１丁目１番１４－１１０２号,,34,101,7300805,,,2024-11-28,清算の結了等,,,2015-10-05,1,,,,,マツバラコウサン,0
1726,8250005008543,登記記録の閉鎖等,0,2024-12-02,2024-11-27,アイアール協同組合,,その他の設立登記法人,山口県,下松市,大字末武中３３番地２５３,,35,207,7440023,,,2024-11-27,清算の結了等,,,2020-01-14,1,,,,,アイアール,0
1734,8290001091721,登記記録の閉鎖等,0,2024-12-02,2024-11-06,株式会社サントゥゲザー,,株式会社,福岡県,久留米市,東合川４丁目１番１５号エステート神道１０２号,,40,203,8390809,,,2024-11-06,清算の結了等,,,2021-01-26,1,,,,,サントゥゲザー,0
1746,8370402002153,登記記録の閉鎖等,0,2024-12-02,2024-11-22,有限会社丸昭建設,,有限会社,宮城県,登米市,中田町上沼字金谷１２８番地,,04,212,9870602,,,2024-11-22,清算の結了等,,,2015-10-05,1,,,,,マルショウケンセツ,0
1757,8490002003754,登記記録の閉鎖等,0,2024-12-02,2024-11-28,南国美装有限会社,,有限会社,高知県,高知市,薊野南町２８番８号,,39,201,7810014,,,2024-11-28,清算の結了等,,,2015-10-05,1,,,,,ナンゴクビソウ,0
1764,9010001049176,登記記録の閉鎖等,0,2024-12-02,2024-11-14,株式会社太洋社,,株式会社,東京都,中央区,銀座２丁目２番２０号,,13,102,1040061,,,2024-11-14,清算の結了等,,,2015-10-05,1,,,,,タイヨウシャ,0
1777,9010005017864,登記記録の閉鎖等,0,2024-12-02,2024-11-19,一般社団法人日本国際人材育成協会,,その他の設立登記法人,東京都,中央区,佃１丁目８－９坂ビル５０２,,13,102,1040051,,,2024-11-19,清算の結了等,,,2015-10-05,1,,,,,ニホンコクサイジンザイイクセイキョウカイ,0
1782,9010401125824,登記記録の閉鎖等,0,2024-12-02,2024-11-15,ＩＥＹＡＳＵ株式会社,,株式会社,東京都,渋谷区,渋谷２丁目１５番１号,,13,113,1500002,,,2024-11-15,合併による解散等,2011001058413,令和６年１０月３１日東京都渋谷区渋谷二丁目１５番１号株式会社ビズリーチ（2011001058413）に合併し解散,2016-07-20,1,,,,,イエヤス,0
1800,9011001020671,登記記録の閉鎖等,0,2024-12-02,2024-11-15,株式会社クリーンキープ,,株式会社,東京都,渋谷区,幡ヶ谷１丁目３０番１号,,13,113,1510072,,,2024-11-15,清算の結了等,,,2015-10-05,1,,,,,クリーンキープ,0
1815,9011203003680,登記記録の閉鎖等,0,2024-12-02,2024-11-27,合同会社ＹＯＲＯＺＵ,,合同会社,茨城県,取手市,野々井８７２番２７号,,08,217,3020032,,,2024-11-27,清算の結了等,,,2021-11-01,1,,,,,ヨロズ,0
1823,9011702006663,登記記録の閉鎖等,0,2024-12-02,2024-11-27,有限会社大和工芸印刷,,有限会社,東京都,江戸川区,南小岩３丁目９番１号,,13,123,1330056,,,2024-11-27,清算の結了等,,,2015-10-05,1,,,,,ダイワコウゲイインサツ,0
1826,9011802011943,登記記録の閉鎖等,0,2024-12-02,2024-11-26,有限会社クイックジョイ本坊,,有限会社,東京都,足立区,綾瀬６丁目３９番１号,,13,121,1200005,,,2024-11-26,清算の結了等,,,2015-10-05,1,,,,,クイックジョイホンボウ,0
1849,9021003008846,登記記録の閉鎖等,0,2024-12-02,2024-11-28,Ｔｏｒｉセラアロマ研究所合同会社,,合同会社,神奈川県,横須賀市,湘南国際村１丁目２１番２４号,,14,201,2400107,,,2024-11-28,清算の結了等,,,2019-11-06,1,,,,,トリセラアロマケンキュウジョ,0
1850,9030001023773,登記記録の閉鎖等,0,2024-12-02,2024-11-27,株式会社エム・シー・エス,,株式会社,埼玉県,所沢市,大字坂之下９７３番地の２,,11,208,3590012,,,2024-11-27,清算の結了等,,,2015-10-05,1,,,,,エムシーエス,0
1853,9030001065626,登記記録の閉鎖等,0,2024-12-02,2024-11-27,株式会社タケウチテック,,株式会社,埼玉県,吉川市,大字木売３７０番地１,,11,243,3420045,,,2024-11-27,清算の結了等,,,2015-10-05,1,,,,,タケウチテック,0
1877,9100001027874,登記記録の閉鎖等,0,2024-12-02,2024-11-26,株式会社湖岳,,株式会社,長野県,岡谷市,中央町３丁目５番１号,,20,204,3940027,,,2024-11-26,清算の結了等,,,2015-10-05,1,,,,,コタケ,0
1879,9100002029267,登記記録の閉鎖等,0,2024-12-02,2024-11-26,有限会社朱明,,有限会社,長野県,茅野市,塚原１丁目１４番４３号,,20,214,3910002,,,2024-11-26,清算の結了等,,,2015-10-05,1,,,,,シュメイ,0
1918,9170005003601,登記記録の閉鎖等,0,2024-12-02,2024-11-25,田辺市栄町商店街振興組合,,その他の設立登記法人,和歌山県,田辺市,栄町１５番地,,30,206,6460048,,,2024-11-25,清算の結了等,,,2015-10-05,1,,,,,タナベシサカエマチ,0
1939,9230002008002,登記記録の閉鎖等,0,2024-12-02,2024-11-27,有限会社かどや,,有限会社,富山県,黒部市,生地５５７番地,,16,207,9380066,,,2024-11-27,清算の結了等,,,2015-10-05,1,,,,,カドヤ,0
1941,9240001045557,登記記録の閉鎖等,0,2024-12-02,2024-11-29,株式会社はぜや,,株式会社,広島県,広島市中区,大手町３丁目３番１７号,,34,101,7300051,,,2024-11-29,清算の結了等,,,2015-10-05,1,,,,,ハゼヤ,0
1944,9250002002928,登記記録の閉鎖等,0,2024-12-02,2024-11-29,有限会社オーアイコンサルティング,,有限会社,山口県,防府市,大字西浦２５４４番地の１,,35,206,7470835,,,2024-11-29,清算の結了等,,,2015-10-05,1,,,,,オーアイコンサルティング,0
1962,9290003001578,登記記録の閉鎖等,0,2024-12-02,2024-11-05,安心食品合同会社,,合同会社,福岡県,福岡市西区,福重５丁目１８番２７号,,40,135,8190022,,,2024-11-05,清算の結了等,,,2015-10-05,1,,,,,アンシンショクヒン,0
1968,9320001006261,登記記録の閉鎖等,0,2024-12-02,2024-11-29,株式会社呉服のまる勝,,株式会社,大分県,別府市,北的ケ浜町３番５号,,44,202,8740928,,,2024-11-29,清算の結了等,,,2015-10-05,1,,,,,ゴフクノマルカツ,0
1979,9360003009135,登記記録の閉鎖等,0,2024-12-02,2024-11-26,合同会社バリュー沖縄,,合同会社,沖縄県,中頭郡北谷町,桑江１丁目７番１２号,,47,326,9040103,,,2024-11-26,清算の結了等,,,2018-10-19,1,,,,,バリューオキナワ,0
1991,9410001011715,登記記録の閉鎖等,0,2024-12-02,2024-11-27,株式会社穂,,株式会社,秋田県,秋田市,飯島新町３丁目１２番６号,,05,201,0110947,,,2024-11-27,清算の結了等,,,2017-12-13,1,,,,,ミノリ,0
1993,9430001021605,登記記録の閉鎖等,0,2024-12-02,2024-11-29,北海道映像記録株式会社,,株式会社,北海道,札幌市中央区,南八条西１５丁目４番１号,,01,101,0640808,,,2024-11-29,清算の結了等,,,2015-10-05,1,,,,,ホッカイドウエイゾウキロク,0
2000,9470001017459,登記記録の閉鎖等,0,2024-12-02,2024-11-27,株式会社茶寮おおみやけ,,株式会社,香川県,香川郡直島町,８５５番地,,37,364,7613110,,,2024-11-27,清算の結了等,,,2019-05-21,1,,,,,サリョウオオミヤケ,0
2002,9470002006816,登記記録の閉鎖等,0,2024-12-02,2024-11-29,有限会社宮西製麺所,,有限会社,香川県,高松市,円座町１４２番地,,37,201,7618044,,,2024-11-29,清算の結了等,,,2015-10-05,1,,,,,ミヤニシセイメンジョ,0
