sequenceNumber,corporateNumber,process,correct,updateDate,changeDate,name,nameImageId,kind,prefectureName,cityName,streetNumber,addressImageId,prefectureCode,cityCode,postCode,addressOutside,addressOutsideImageId,closeDate,closeCause,successorCorporateNumber,changeCause,assignmentDate,latest,enName,enPrefectureName,enCityName,enAddressOutside,furigana,hihyoji
3,1010002008428,登記記録の閉鎖等,0,2025-12-04,2025-11-17,有限会社小野寺印刷罫線,,有限会社,東京都,千代田区,神田猿楽町１丁目４番１１号,,13,101,1010064,,,2025-11-17,清算の結了等,,,2015-10-05,1,,,,,オノデラインサツケイセン,0
10,1010005033514,登記記録の閉鎖等,0,2025-12-04,2025-12-02,写楽特定目的会社,,その他の設立登記法人,東京都,千代田区,霞が関３丁目２番５号,,13,101,1000013,,,2025-12-02,清算の結了等,,,2021-06-18,1,,,,,シャラク,0
11,1010401074434,登記記録の閉鎖等,0,2025-12-04,2025-11-12,株式会社リスタ,,株式会社,東京都,港区,新橋６丁目１７番１５号,,13,103,1050004,,,2025-11-12,清算の結了等,,,2015-10-05,1,,,,,リスタ,0
14,1010401164144,登記記録の閉鎖等,0,2025-12-04,2025-11-11,Ｂｌｕｅｗａｖｅｓ　Ｍｏｂｉｌｉｔｙ　Ｉｎｎｏｖａｔｉｏｎ　Ｊａｐａｎ株式会社,,株式会社,東京都,港区,芝大門２丁目１２番１０号Ｔ＆Ｇ浜松町ビル６階,,13,103,1050012,,,2025-11-11,清算の結了等,,,2021-12-13,1,,,,,ブルーウェイブスモビリティイノベーションジャパン,0
34,1010803005037,登記記録の閉鎖等,0,2025-12-04,2025-11-25,合同会社Ｈａｒｖｅｓｔｆｕｌ,,合同会社,東京都,大田区,蒲田２丁目２３番１－３０１号,,13,111,1440052,,,2025-11-25,清算の結了等,,,2024-07-29,1,,,,,ハーベストフル,0
38,1010901046858,登記記録の閉鎖等,0,2025-12-04,2025-11-28,ＴＡＫＩ　ａｇｅｎｃｙ株式会社,,株式会社,東京都,世田谷区,等々力３丁目３０番１３号,,13,112,1580082,,,2025-11-28,清算の結了等,,,2020-08-20,1,,,,,タキエージェンシー,0
70,1012303002142,登記記録の閉鎖等,0,2025-12-04,2025-11-18,合同会社馬場企画,,合同会社,東京都,町田市,金井２丁目３４番地８,,13,209,1950072,,,2025-11-18,清算の結了等,,,2025-04-15,1,,,,,ババキカク,0
116,1070001006732,登記記録の閉鎖等,0,2025-12-04,2025-12-01,群馬流通サービス株式会社,,株式会社,群馬県,高崎市,八島町５８番地１,,10,202,3700849,,,2025-12-01,清算の結了等,,,2015-10-05,1,,,,,グンマリュウツウサービス,0
123,1070002020443,登記記録の閉鎖等,0,2025-12-04,2025-12-01,清光有限会社,,有限会社,群馬県,伊勢崎市,境小此木４５９番地２,,10,204,3700135,,,2025-12-01,清算の結了等,,,2015-10-05,1,,,,,セイコウ,0
125,1080101016077,登記記録の閉鎖等,0,2025-12-04,2025-12-01,ホメオパシージャパン株式会社,,株式会社,静岡県,熱海市,伊豆山１１７０番地の１７,,22,205,4130002,,,2025-12-01,合併による解散等,4080101016025,令和７年１２月１日静岡県田方郡函南町平井１７４１番地の６１日本豊受自然農株式会社（4080101016025）に合併し解散,2015-10-05,1,,,,,ホメオパシージャパン,0
137,1120001087040,登記記録の閉鎖等,0,2025-12-04,2025-12-01,野村オートリース株式会社,,株式会社,大阪府,大阪市淀川区,西中島４丁目１０番６号,,27,123,5320011,,,2025-12-01,合併による解散等,1120001097972,令和７年１２月１日大阪市淀川区西中島四丁目１０番６号株式会社イチネン（1120001097972）に合併し解散,2015-10-05,1,,,,,ノムラオートリース,0
140,1120001209189,登記記録の閉鎖等,0,2025-12-04,2025-12-01,株式会社ＡＵＲＡ,,株式会社,大阪府,大阪市北区,本庄東１丁目１番１５号,,27,127,5310074,,,2025-12-01,清算の結了等,,,2017-10-27,1,,,,,アウラ,0
155,1120903003739,登記記録の閉鎖等,0,2025-12-04,2025-11-27,合同会社ＧＥＡＲ　ＴＡＩＬＯＲ社,,合同会社,大阪府,池田市,畑１丁目１８番１２号,,27,204,5630021,,,2025-11-27,清算の結了等,,,2021-07-09,1,,,,,ギアーテイラーシャ,0
159,1130001031195,登記記録の閉鎖等,0,2025-12-04,2025-12-03,株式会社アンビ,,株式会社,京都府,長岡京市,下海印寺方丸３４番地１,,26,209,6170845,,,2025-12-03,清算の結了等,,,2015-10-05,1,,,,,アンビ,0
160,1130001042944,登記記録の閉鎖等,0,2025-12-04,2025-12-01,株式会社岡崎工務所,00036441,株式会社,京都府,京丹後市,丹後町間人１９３９番地の１,,26,212,6270201,,,2025-12-01,清算の結了等,,,2015-10-05,1,,,,,オカザキコウムショ,0
164,1140001025411,登記記録の閉鎖等,0,2025-12-04,2025-12-01,株式会社高倉工務店,,株式会社,兵庫県,神戸市西区,櫨谷町長谷８４番地の１１３,,28,111,6512235,,,2025-12-01,清算の結了等,,,2015-10-05,1,,,,,タカクラコウムテン,0
166,1140001064946,登記記録の閉鎖等,0,2025-12-04,2025-12-01,三井エステート株式会社,,株式会社,兵庫県,姫路市,南駅前町８２番地,,28,201,6700962,,,2025-12-01,清算の結了等,,,2015-10-05,1,,,,,ミツイエステート,0
182,1180005020768,登記記録の閉鎖等,0,2025-12-04,2025-12-01,一般社団法人よりそうホットライン,,その他の設立登記法人,愛知県,名古屋市東区,代官町３９番１８号日本陶磁器センタービル５階,,23,102,4610002,,,2025-12-01,合併による解散等,4180005018132,令和７年１２月１日名古屋市東区代官町３９番１８号日本陶磁器センタービル５階一般社団法人中部ＳＤＧｓ推進センター（4180005018132）に合併し解散,2024-09-17,1,,,,,ヨリソウホットライン,0
187,1180303000240,登記記録の閉鎖等,0,2025-12-04,2025-11-28,合資会社ホキ仁,,合資会社,愛知県,岡崎市,康生通西３丁目１５番地２岡崎ウィズスクエア９０６,,23,202,4440059,,,2025-11-28,清算の結了等,,,2015-10-05,1,,,,,ホキジン,0
188,1190001015085,登記記録の閉鎖等,0,2025-12-04,2025-11-27,伸栄肥料株式会社,,株式会社,三重県,四日市市,高角町２８０１番地,,24,202,5120923,,,2025-11-27,清算の結了等,,,2015-10-05,1,,,,,シンエイヒリョウ,0
203,1240005003254,登記記録の閉鎖等,0,2025-12-04,2025-12-02,特定非営利活動法人ライフ,,その他の設立登記法人,広島県,広島市安佐南区,西原６丁目１８番２１－２０１号,,34,105,7310113,,,2025-12-02,清算の結了等,,,2015-10-05,1,,,,,ライフ,0
208,1260001037287,登記記録の閉鎖等,0,2025-12-04,2025-12-01,株式会社二海,,株式会社,岡山県,倉敷市,新倉敷駅前２丁目９６番地１,,33,202,7100253,,,2025-12-01,清算の結了等,,,2022-10-04,1,,,,,フタミ,0
217,1300002011162,登記記録の閉鎖等,0,2025-12-04,2025-12-02,有限会社エイエムシー,,有限会社,佐賀県,唐津市,平野町１６０３番地２,,41,202,8470812,,,2025-12-02,清算の結了等,,,2015-10-05,1,,,,,エイエムシー,0
220,1320003000138,登記記録の閉鎖等,0,2025-12-04,2025-12-01,合資会社みつのぶ産業,,合資会社,大分県,大分市,大手町３丁目４番９号,,44,201,8700022,,,2025-12-01,清算の結了等,,,2015-10-05,1,,,,,ミツノブサンギョウ,0
230,1370005010270,登記記録の閉鎖等,0,2025-12-04,2025-11-21,一般社団法人宮城県任意売却支援協会,,その他の設立登記法人,宮城県,仙台市太白区,長町６丁目１３番２８－１０１号,,04,104,9820011,,,2025-11-21,清算の結了等,,,2021-04-13,1,,,,,ミヤギケンニンイバイキャクシエンキョウカイ,0
235,1390001006691,登記記録の閉鎖等,0,2025-12-04,2025-12-01,株式会社アソ洋品店,,株式会社,山形県,飽海郡遊佐町,遊佐字鶴田３１番地１,,06,461,9998301,,,2025-12-01,清算の結了等,,,2015-10-05,1,,,,,アソヨウヒンテン,0
247,1430001085574,登記記録の閉鎖等,0,2025-12-04,2025-12-01,株式会社ＦＡＫＥ,,株式会社,北海道,札幌市中央区,南六条西４丁目４番３ＬＣ壱番館８階,,01,101,0640806,,,2025-12-01,清算の結了等,,,2021-12-20,1,,,,,フェイク,0
254,1450005004371,登記記録の閉鎖等,0,2025-12-04,2025-12-02,一般社団法人旭川医科大学救急医学講座同門会,,その他の設立登記法人,北海道,旭川市,緑が丘東二条１丁目１番１号,,01,204,0788802,,,2025-12-02,清算の結了等,,,2023-04-05,1,,,,,アサヒカワイカダイガクキュウキュウイガクコウザドウモンカイ,0
267,1470002019387,登記記録の閉鎖等,0,2025-12-04,2025-12-01,有限会社渡部建設,,有限会社,香川県,小豆郡土庄町,甲１６４３番地８,,37,322,7614101,,,2025-12-01,清算の結了等,,,2015-10-05,1,,,,,ワタナベケンセツ,0
273,1500005008706,登記記録の閉鎖等,0,2025-12-04,2025-12-02,労働者協同組合ＳＡＫＵＲＡ,,その他の設立登記法人,愛媛県,東温市,上林丙１１２番地,,38,215,7910223,,,2025-12-02,清算の結了等,,,2024-05-10,1,,,,,サクラ,0
292,2010405018923,登記記録の閉鎖等,0,2025-12-04,2025-11-11,リアルブルーホールディングス７一般社団法人,,その他の設立登記法人,東京都,港区,虎ノ門３丁目２２番１０－２０１号,,13,103,1050001,,,2025-11-11,清算の結了等,,,2020-07-28,1,,,,,リアルブルーホールディングスセブン,0
298,2010701018734,登記記録の閉鎖等,0,2025-12-04,2025-11-28,株式会社エルム,,株式会社,東京都,品川区,南大井２丁目１２番５－１１１０号,,13,109,1400013,,,2025-11-28,清算の結了等,,,2015-10-05,1,,,,,エルム,0
328,2011401023116,登記記録の閉鎖等,0,2025-12-04,2025-11-28,株式会社ニュース,,株式会社,東京都,板橋区,大山町１４－７ヴァンテアン３０１,,13,119,1730023,,,2025-11-28,清算の結了等,,,2021-01-22,1,,,,,ニュース,0
332,2011701025662,登記記録の閉鎖等,0,2025-12-04,2025-11-27,株式会社フクシア,,株式会社,東京都,江戸川区,篠崎町７丁目２４－１０,,13,123,1330061,,,2025-11-27,清算の結了等,,,2022-10-05,1,,,,,フクシア,0
335,2012401032552,登記記録の閉鎖等,0,2025-12-04,2025-12-01,株式会社本多エンタープライズ,,株式会社,東京都,武蔵野市,御殿山１丁目８番１８号,,13,203,1800005,,,2025-12-01,清算の結了等,,,2017-04-12,1,,,,,ホンダエンタープライズ,0
370,2030002104926,登記記録の閉鎖等,0,2025-12-04,2025-12-01,有限会社長花苑,,有限会社,埼玉県,川口市,長蔵１丁目１１番９号,,11,203,3330807,,,2025-12-01,清算の結了等,,,2015-10-05,1,,,,,チョウカエン,0
371,2030003002484,登記記録の閉鎖等,0,2025-12-04,2025-11-10,合同会社イノヴァス,,合同会社,東京都,渋谷区,広尾１丁目７番２０号,,13,113,1500012,,,2025-11-10,清算の結了等,,,2015-10-05,1,,,,,イノヴァス,0
372,2030003026054,登記記録の閉鎖等,0,2025-12-04,2025-11-20,Ａｄｏｒａｂｌｅ合同会社,,合同会社,埼玉県,白岡市,千駄野７４３－１－３０４,,11,246,3490215,,,2025-11-20,清算の結了等,,,2025-02-07,1,,,,,アドーラブル,0
374,2040001000084,登記記録の閉鎖等,0,2025-12-04,2025-11-12,アートタチバナ株式会社,,株式会社,千葉県,千葉市中央区,神明町２２番１号,,12,101,2600022,,,2025-11-12,清算の結了等,,,2015-10-05,1,,,,,アートタチバナ,0
383,2070001019114,登記記録の閉鎖等,0,2025-12-04,2025-12-01,株式会社群馬岡一運輸,,株式会社,群馬県,太田市,大原町３８３番地１８,,10,205,3792304,,,2025-12-01,清算の結了等,,,2015-10-05,1,,,,,グンマオカイチウンユ,0
386,2080101023287,登記記録の閉鎖等,0,2025-12-04,2025-12-01,株式会社銀牙運送,,株式会社,静岡県,裾野市,千福が丘２丁目２番１０,,22,220,4101115,,,2025-12-01,清算の結了等,,,2022-05-12,1,,,,,ギンガウンソウ,0
388,2080102011142,登記記録の閉鎖等,0,2025-12-04,2025-12-01,ナイト・フロント協会有限会社,,有限会社,静岡県,三島市,北田町７番８号,,22,206,4110854,,,2025-12-01,清算の結了等,,,2015-10-05,1,,,,,ナイトフロントキョウカイ,0
392,2100001015803,登記記録の閉鎖等,0,2025-12-04,2025-12-01,株式会社ミル工作,,株式会社,長野県,塩尻市,大字広丘野村１７８８番地４０８,,20,215,3990702,,,2025-12-01,清算の結了等,,,2015-10-05,1,,,,,ミルコウサク,0
398,2110002013482,登記記録の閉鎖等,0,2025-12-04,2025-12-01,有限会社孔明商事,,有限会社,新潟県,阿賀野市,緑岡３８番地２１,,15,223,9592113,,,2025-12-01,清算の結了等,,,2015-10-05,1,,,,,コウメイショウジ,0
403,2120001244788,登記記録の閉鎖等,0,2025-12-04,2025-12-01,ＷＯＲＴＨ株式会社,,株式会社,大阪府,大阪市生野区,勝山北３丁目１５－１０,,27,116,5440033,,,2025-12-01,清算の結了等,,,2022-04-04,1,,,,,ワース,0
413,2120002064871,登記記録の閉鎖等,0,2025-12-04,2025-12-01,株式会社仏事屋,,株式会社,大阪府,大阪市西成区,花園南１丁目４番１２号,,27,122,5570015,,,2025-12-01,清算の結了等,,,2015-10-05,1,,,,,ブツジヤ,0
415,2120003010569,登記記録の閉鎖等,0,2025-12-04,2025-10-14,アロハスファミリー合同会社,,合同会社,大阪府,大阪市中央区,南船場４丁目１０番５号南船場ＳＯＨＯビル７０２,,27,128,5420081,,,2025-10-14,清算の結了等,,,2015-10-05,1,,,,,アロハスファミリー,0
416,2120003022580,登記記録の閉鎖等,0,2025-12-04,2025-12-01,合同会社ＹＡＭＡＭＯＴＯ,,合同会社,大阪府,大阪市鶴見区,放出東３丁目１１番１５号,,27,124,5380044,,,2025-12-01,清算の結了等,,,2022-09-30,1,,,,,ヤマモト,0
442,2140001107745,登記記録の閉鎖等,0,2025-12-04,2025-12-02,ヤマカツ株式会社,,株式会社,奈良県,橿原市,兵部町６番１２－２０１号Ｒｉｏｒａ１３,,29,205,6340076,,,2025-12-02,清算の結了等,,,2017-10-04,1,,,,,ヤマカツ,0
462,2180001078396,登記記録の閉鎖等,0,2025-12-04,2025-12-01,株式会社古紙畑,,株式会社,愛知県,春日井市,御幸町３丁目３番地の７,,23,206,4860953,,,2025-12-01,合併による解散等,7180001076932,令和７年１２月１日愛知県春日井市御幸町三丁目３番地の７河村商事株式会社（7180001076932）に合併し解散,2015-10-05,1,,,,,コシバタケ,0
465,2180001096869,登記記録の閉鎖等,0,2025-12-04,2025-12-01,藤田工業株式会社,,株式会社,愛知県,海部郡蟹江町,今東郊通５２番地,,23,425,4970000,,,2025-12-01,清算の結了等,,,2015-10-05,1,,,,,フジタコウギョウ,0
477,2200002006683,登記記録の閉鎖等,0,2025-12-04,2025-12-01,有限会社マルエイフーヅ,,有限会社,岐阜県,岐阜市,大洞紅葉が丘６丁目２２番地の２７,,21,201,5013122,,,2025-12-01,清算の結了等,,,2015-10-05,1,,,,,マルエイフーヅ,0
490,2250001002316,登記記録の閉鎖等,0,2025-12-04,2025-12-02,山口国際貿易株式会社,,株式会社,山口県,防府市,沖今宿２丁目１番１号,,35,206,7470013,,,2025-12-02,清算の結了等,,,2015-10-05,1,,,,,ヤマグチコクサイボウエキ,0
491,2250002006704,登記記録の閉鎖等,0,2025-12-04,2025-12-02,有限会社小西石造,,有限会社,山口県,防府市,沖今宿２丁目１番１号,,35,206,7470013,,,2025-12-02,清算の結了等,,,2015-10-05,1,,,,,コニシセキゾウ,0
523,2390001008670,登記記録の閉鎖等,0,2025-12-04,2025-12-01,最上観光タクシー株式会社,,株式会社,山形県,新庄市,大字鳥越字向平１４０６番地１,,06,205,9960041,,,2025-12-01,清算の結了等,,,2015-10-05,1,,,,,モガミカンコウタクシー,0
529,2400001005336,登記記録の閉鎖等,0,2025-12-04,2025-11-10,株式会社ジョリー,,株式会社,千葉県,茂原市,東郷１５４１番地９,,12,210,2970017,,,2025-11-10,清算の結了等,,,2015-10-05,1,,,,,ジョリー,0
531,2410002006662,登記記録の閉鎖等,0,2025-12-04,2025-12-01,有限会社サン測量設計事務所,,有限会社,秋田県,由利本荘市,二番堰３３番地３,,05,210,0150855,,,2025-12-01,合併による解散等,8410001004777,令和７年１２月１日秋田県由利本荘市薬師堂字谷地１２４番地の２小松測量設計株式会社（8410001004777）に合併し解散,2015-10-05,1,,,,,サンソクリョウセッケイジムショ,0
535,2430001036650,登記記録の閉鎖等,0,2025-12-04,2025-11-28,株式会社セピア,,株式会社,北海道,札幌市豊平区,西岡四条７丁目１番４３号,,01,105,0620034,,,2025-11-28,清算の結了等,,,2015-10-05,1,,,,,セピア,0
542,2430005004546,登記記録の閉鎖等,0,2025-12-04,2025-12-01,特定非営利活動法人Ｎ．Ｓ　ＣＯＭＭＵＮＩＴＹ,,その他の設立登記法人,北海道,札幌市豊平区,月寒東二条１６丁目１－７７－１０１０,,01,105,0620052,,,2025-12-01,清算の結了等,,,2015-10-05,1,,,,,エヌエスコミュニティー,0
545,2430005013563,登記記録の閉鎖等,0,2025-12-04,2025-11-20,あいむ司法書士法人,,その他の設立登記法人,北海道,札幌市西区,西町南２１丁目２番２１号アルファ西町第２ビル３０１号室,,01,107,0630062,,,2025-11-20,清算の結了等,,,2018-12-20,1,,,,,アイム,0
567,3010003044445,登記記録の閉鎖等,0,2025-12-04,2025-11-18,合同会社ｍａｉｓｏｎｐｒｅｔｚｅｌ,,合同会社,東京都,千代田区,神田須田町１丁目７番８号ＶＯＲＴ秋葉原ＩＶ２Ｆ,00135726,13,101,1010041,,,2025-11-18,清算の結了等,,,2024-07-30,1,,,,,メゾンプレッツェル,0
572,3010103000926,登記記録の閉鎖等,0,2025-12-04,2025-11-28,栄和産業合同会社,,合同会社,東京都,八王子市,三崎町１番１４号３階,,13,201,1920084,,,2025-11-28,清算の結了等,,,2016-02-03,1,,,,,エイワサンギョウ,0
581,3010405021991,登記記録の閉鎖等,0,2025-12-04,2025-11-11,ＡＰＬ　Ｈａｋｕｂａ　Ｓａｋｋａ　Ｄｅｖｅｌｏｐｍｅｎｔ特定目的会社,,その他の設立登記法人,東京都,港区,赤坂２丁目１７番７号赤坂溜池タワー９階,,13,103,1070052,,,2025-11-11,清算の結了等,,,2023-04-19,1,,,,,エーピーエルハクバサッカディベロップメント,0
615,3011401007175,登記記録の閉鎖等,0,2025-12-04,2025-12-03,日本電機ヒーター株式会社,,株式会社,東京都,板橋区,徳丸１丁目２４番１８号,,13,119,1750083,,,2025-12-03,清算の結了等,,,2015-10-05,1,,,,,ニホンデンキヒーター,0
660,3040001037506,登記記録の閉鎖等,0,2025-12-04,2025-11-12,株式会社誠諒工業,,株式会社,千葉県,松戸市,紙敷１３７０番地の１,,12,207,2702221,,,2025-11-12,清算の結了等,,,2015-10-05,1,,,,,セイリョウコウギョウ,0
671,3040002056653,登記記録の閉鎖等,0,2025-12-04,2025-11-11,有限会社ワイ．エス．シー,,有限会社,千葉県,富里市,七栄８８０番地の２５,,12,233,2860221,,,2025-11-11,清算の結了等,,,2015-10-05,1,,,,,ワイエスシー,0
677,3050001049228,登記記録の閉鎖等,0,2025-12-04,2025-11-28,株式会社ｙｏｓｕｇａ,,株式会社,茨城県,石岡市,東石岡２丁目４－１,,08,205,3150037,,,2025-11-28,清算の結了等,,,2021-05-18,1,,,,,ヨスガ,0
680,3050002007440,登記記録の閉鎖等,0,2025-12-04,2025-12-01,有限会社フォレストカンパニー,,有限会社,茨城県,水戸市,見川２丁目２２番地２、１０５号,,08,201,3100912,,,2025-12-01,清算の結了等,,,2015-10-05,1,,,,,フォレストカンパニー,0
684,3070002019244,登記記録の閉鎖等,0,2025-12-04,2025-12-01,有限会社大信電器,,有限会社,群馬県,伊勢崎市,山王町６８３番地２,,10,204,3720831,,,2025-12-01,清算の結了等,,,2015-10-05,1,,,,,ダイシンデンキ,0
685,3070002031703,登記記録の閉鎖等,0,2025-12-04,2025-11-28,有限会社トクマサ,,有限会社,群馬県,伊勢崎市,境伊与久１９４２番地４,,10,204,3700105,,,2025-11-28,清算の結了等,,,2015-10-05,1,,,,,トクマサ,0
690,3100001001364,登記記録の閉鎖等,0,2025-12-04,2025-12-01,新光電気工業株式会社,,株式会社,長野県,長野市,小島田町８０番地,,20,201,3812212,,,2025-12-01,合併による解散等,5010401177555,令和７年１２月１日長野市小島田町８０番地ＪＩＣＣ‐０４株式会社（5010401177555）に合併し解散,2015-10-05,1,,,,,シンコウデンキコウギョウ,0
692,3100002002923,登記記録の閉鎖等,0,2025-12-04,2025-12-01,有限会社タカテック,,有限会社,長野県,長野市,大字川合新田字村西９６０番地,,20,201,3800913,,,2025-12-01,合併による解散等,1100001014013,令和７年１２月１日長野県松本市大字笹賀７９５０番地株式会社ベルトセンター信州（1100001014013）に合併し解散,2015-10-05,1,,,,,タカテック,0
722,3120005018667,登記記録の閉鎖等,0,2025-12-04,2025-12-02,一般社団法人全国育美協会,,その他の設立登記法人,大阪府,大阪市住之江区,粉浜３丁目１４－１１－１２０２,,27,125,5590001,,,2025-12-02,清算の結了等,,,2016-05-06,1,,,,,ゼンコクイクビキョウカイ,0
730,3122001021027,登記記録の閉鎖等,0,2025-12-04,2025-11-26,株式会社谷忠,,株式会社,大阪府,柏原市,片山町１５番２５号,,27,221,5820020,,,2025-11-26,清算の結了等,,,2015-10-05,1,,,,,タニチュウ,0
735,3130001041515,登記記録の閉鎖等,0,2025-12-04,2025-12-01,株式会社岡本工務店,,株式会社,京都府,福知山市,字拝師３番地の１,,26,201,6200955,,,2025-12-01,清算の結了等,,,2015-10-05,1,,,,,オカモトコウムテン,0
743,3140001112629,登記記録の閉鎖等,0,2025-12-04,2025-12-01,株式会社Ｒｉｄｅ,,株式会社,兵庫県,尼崎市,尾浜町１丁目５－５,,28,202,6610022,,,2025-12-01,清算の結了等,,,2019-02-04,1,,,,,ライド,0
744,3140002050596,登記記録の閉鎖等,0,2025-12-04,2025-11-27,有限会社福本自動車ガラス店,,有限会社,兵庫県,姫路市,琴岡町２７１番地の３,,28,201,6700035,,,2025-11-27,清算の結了等,,,2015-10-05,1,,,,,フクモトジドウシャガラステン,0
752,3150002011498,登記記録の閉鎖等,0,2025-12-04,2025-12-03,有限会社ヤマキコーポレーション,,有限会社,奈良県,天理市,長柄町２０７７番地,,29,204,6320062,,,2025-12-03,清算の結了等,,,2015-10-05,1,,,,,ヤマキコーポレーション,0
765,3180002019002,登記記録の閉鎖等,0,2025-12-04,2025-12-02,有限会社二和製作所,,有限会社,愛知県,名古屋市中川区,上高畑１丁目１４７番地,,23,110,4540873,,,2025-12-02,清算の結了等,,,2015-10-05,1,,,,,ニワセイサクショ,0
768,3180301008531,登記記録の閉鎖等,0,2025-12-04,2025-12-01,株式会社甲羅ホールディングス,,株式会社,愛知県,豊橋市,東脇３丁目１番地の７,,23,201,4418083,,,2025-12-01,合併による解散等,8010001258249,令和７年１１月１日東京都中央区築地六丁目２５番１０号築地センタービル地下１階Ｓａｉｌ２株式会社（8010001258249）に合併し解散,2015-10-05,1,,,,,コウラホールディングス,0
771,3210002011475,登記記録の閉鎖等,0,2025-12-04,2025-12-01,有限会社荒谷鈑金塗装工業所,,有限会社,福井県,越前市,高瀬１丁目８番２２号,,18,209,9150832,,,2025-12-01,清算の結了等,,,2015-10-05,1,,,,,アラヤバンキントソウコウギョウショ,0
790,3260005005172,登記記録の閉鎖等,0,2025-12-04,2025-11-25,井原市土地開発公社,,その他の設立登記法人,岡山県,井原市,井原町３１１番地１,,33,207,7150019,,,2025-11-25,清算の結了等,,,2015-10-05,1,,,,,イバラシ,0
795,3290001105980,登記記録の閉鎖等,0,2025-12-04,2025-11-25,株式会社ＧＨ,,株式会社,福岡県,福岡市博多区,博多駅中央街５番１２号,,40,132,8120012,,,2025-11-25,清算の結了等,,,2024-06-03,1,,,,,ジーエイチ,0
799,3290002009462,登記記録の閉鎖等,0,2025-12-04,2025-11-25,アトリエ・ナガオ有限会社,,有限会社,福岡県,福岡市中央区,舞鶴１丁目９番３号,,40,133,8100073,,,2025-11-25,清算の結了等,,,2015-10-05,1,,,,,アトリエナガオ,0
804,3290003009164,登記記録の閉鎖等,0,2025-12-04,2025-11-21,ＨＯＳＪＡＳ企画合同会社,,合同会社,福岡県,糟屋郡新宮町,湊坂２丁目６番１号,,40,345,8110114,,,2025-11-21,清算の結了等,,,2019-07-04,1,,,,,ホスジャスキカク,0
814,3340001010762,登記記録の閉鎖等,0,2025-12-04,2025-11-25,株式会社明治牛乳奄美大島販売所,,株式会社,鹿児島県,奄美市,名瀬入舟町３番２５号,,46,222,8940034,,,2025-11-25,清算の結了等,,,2015-10-05,1,,,,,メイジギュウニュウアマミオオシマハンバイショ,0
818,3350002010331,登記記録の閉鎖等,0,2025-12-04,2025-11-28,有限会社ミエダ,,有限会社,宮崎県,児湯郡高鍋町,大字南高鍋８７１８番地５,,45,401,8840003,,,2025-11-28,清算の結了等,,,2015-10-05,1,,,,,ミエダ,0
832,3370002011419,登記記録の閉鎖等,0,2025-12-04,2025-11-27,有限会社昭栄興産,,有限会社,宮城県,仙台市青葉区,中央１丁目８番３８号,,04,101,9800021,,,2025-11-27,清算の結了等,,,2015-10-05,1,,,,,ショウエイコウサン,0
844,3430002026708,登記記録の閉鎖等,0,2025-12-04,2025-12-01,有限会社スカイオート札幌,,有限会社,北海道,札幌市北区,新琴似町７８８番地,,01,102,0010915,,,2025-12-01,清算の結了等,,,2015-10-05,1,,,,,スカイオートサッポロ,0
859,4010001157116,登記記録の閉鎖等,0,2025-12-04,2025-11-13,株式会社才色兼備,,株式会社,東京都,中央区,日本橋小伝馬町２番４号三報ビル５階,,13,102,1030001,,,2025-11-13,合併による解散等,8010001177382,令和７年１１月１日東京都中央区日本橋小伝馬町２－４三報ビル５階ＵＰＦセキュリティー株式会社（8010001177382）に合併し解散,2015-10-05,1,,,,,サイショクケンビ,0
889,4010601013370,登記記録の閉鎖等,0,2025-12-04,2025-11-27,田篠工業株式会社,,株式会社,東京都,墨田区,東墨田２丁目２６番１０号,,13,107,1310042,,,2025-11-27,清算の結了等,,,2015-10-05,1,,,,,タシノコウギョウ,0
903,4010801029035,登記記録の閉鎖等,0,2025-12-04,2025-11-25,株式会社オフィスＫ,,株式会社,東京都,大田区,大森西２丁目３２番８号,,13,111,1430015,,,2025-11-25,清算の結了等,,,2018-07-27,1,,,,,オフィスケイ,0
909,4010902023688,登記記録の閉鎖等,0,2025-12-04,2025-12-01,有限会社ベリースタジオ,,有限会社,東京都,世田谷区,羽根木１丁目８番１号羽根木マンション５０２,,13,112,1560042,,,2025-12-01,清算の結了等,,,2015-10-05,1,,,,,ベリースタジオ,0
915,4011001128387,登記記録の閉鎖等,0,2025-12-04,2025-12-01,株式会社ｖｉｆａｒｔ,,株式会社,東京都,練馬区,大泉学園町８丁目２７番１８－３０７号,,13,120,1780061,,,2025-12-01,清算の結了等,,,2019-06-11,1,,,,,ビフアート,0
918,4011003014156,登記記録の閉鎖等,0,2025-12-04,2025-11-11,Ａｒｅａｌ合同会社,,合同会社,東京都,目黒区,上目黒３丁目２２番５号,,13,110,1530051,,,2025-11-11,清算の結了等,,,2022-02-10,1,,,,,エリアル,0
939,4012301008601,登記記録の閉鎖等,0,2025-12-04,2025-11-19,エムシーアイエンジニアリング株式会社,,株式会社,東京都,町田市,小山町７８９番地９,,13,209,1940212,,,2025-11-19,清算の結了等,,,2015-10-05,1,,,,,エムシーアイエンジニアリング,0
941,4012302007437,登記記録の閉鎖等,0,2025-12-04,2025-11-21,有限会社ソフィステック,,有限会社,東京都,町田市,つくし野１丁目１０番地８,,13,209,1940001,,,2025-11-21,清算の結了等,,,2015-10-05,1,,,,,ソフィステック,0
954,4020001120444,登記記録の閉鎖等,0,2025-12-04,2025-12-01,株式会社リテラブースト,,株式会社,神奈川県,川崎市高津区,坂戸３丁目２番１号かながわサイエンスパーク西棟２階Ｔｅｃｈ－Ｐｏｔ＋内Ｂ,,14,134,2130012,,,2025-12-01,清算の結了等,,,2017-03-17,1,,,,,リテラブースト,0
965,4020002086180,登記記録の閉鎖等,0,2025-12-04,2025-12-01,有限会社キトバ工業,,有限会社,神奈川県,川崎市宮前区,東有馬２丁目３７番１６号,,14,136,2160002,,,2025-12-01,清算の結了等,,,2015-10-05,1,,,,,,0
975,4030001064277,登記記録の閉鎖等,0,2025-12-04,2025-12-01,株式会社ソーラー管理サービス,,株式会社,埼玉県,さいたま市大宮区,大成町２丁目２７７番地１ＫＣビル,,11,103,3300852,,,2025-12-01,合併による解散等,8030001129613,令和７年１２月１日埼玉県さいたま市大宮区大成町二丁目２７７番地１ＫＣビルＫＣホールディングス株式会社（8030001129613）に合併し解散,2015-10-05,1,,,,,ソーラーカンリサービス,0
976,4030001106351,登記記録の閉鎖等,0,2025-12-04,2025-12-01,株式会社丸山,,株式会社,埼玉県,さいたま市西区,三橋６丁目１０９２番地の１,,11,101,3310052,,,2025-12-01,合併による解散等,3030001008813,令和７年１２月１日埼玉県さいたま市西区三橋六丁目１０９２番地の１吉田企画株式会社（3030001008813）に合併し解散,2015-10-05,1,,,,,マルヤマ,0
991,4040001041754,登記記録の閉鎖等,0,2025-12-04,2025-11-10,ＧＯＬＤＥＮ　ＥＡＧＬＥ株式会社,,株式会社,千葉県,流山市,駒木１１１番地の６,,12,220,2700132,,,2025-11-10,清算の結了等,,,2015-10-05,1,,,,,ゴールデンイーグル,0
993,4040001055647,登記記録の閉鎖等,0,2025-12-04,2025-11-12,株式会社ＫＡＭＩＳＨＯ,,株式会社,千葉県,市原市,五井西５丁目１２番３号,,12,219,2900038,,,2025-11-12,清算の結了等,,,2015-10-05,1,,,,,カミショウ,0
1021,4080102008558,登記記録の閉鎖等,0,2025-12-04,2025-12-02,有限会社原椎茸,,有限会社,静岡県,伊豆の国市,吉田５７６番地の２,,22,225,4102322,,,2025-12-02,清算の結了等,,,2015-10-05,1,,,,,,0
1026,4110001023159,登記記録の閉鎖等,0,2025-12-04,2025-12-01,株式会社北越配管,,株式会社,新潟県,長岡市,北山２丁目１６番地１,,15,202,9402114,,,2025-12-01,清算の結了等,,,2015-10-05,1,,,,,ホクエツハイカン,0
1036,4120001181617,登記記録の閉鎖等,0,2025-12-04,2025-12-01,株式会社梟,,株式会社,京都府,城陽市,長池北清水５０番地２（Ｆビル２０２号室）,,26,207,6100112,,,2025-12-01,清算の結了等,,,2015-10-05,1,,,,,フクロウ,0
1037,4120001198339,登記記録の閉鎖等,0,2025-12-04,2025-12-01,株式会社コスメオフ,,株式会社,大阪府,大阪市浪速区,日本橋５丁目７番１０号山田ビル２０５号室,,27,111,5560005,,,2025-12-01,清算の結了等,,,2016-05-23,1,,,,,コスメオフ,0
1048,4120003014031,登記記録の閉鎖等,0,2025-12-04,2025-12-02,合同会社スタープロジェクト,,合同会社,大阪府,大阪市中央区,心斎橋筋２丁目３番２号クインズコート本館地下１階,,27,128,5420085,,,2025-12-02,合併による解散等,9140001055500,令和７年１１月３０日兵庫県尼崎市昭和南通四丁目５９番地株式会社インフィニティ（9140001055500）に合併し解散,2018-03-07,1,,,,,スタープロジェクト,0
1096,4170001002157,登記記録の閉鎖等,0,2025-12-04,2025-12-03,株式会社鶴屋忠彦,,株式会社,和歌山県,和歌山市,十番丁１０１番地,,30,201,6408152,,,2025-12-03,清算の結了等,,,2015-10-05,1,,,,,ツルヤタダヒコ,0
1102,4180001087313,登記記録の閉鎖等,0,2025-12-04,2025-12-01,株式会社安藤電機,,株式会社,愛知県,江南市,五明町青木２４９番地,,23,217,4838241,,,2025-12-01,清算の結了等,,,2015-10-05,1,,,,,アンドウデンキ,0
1106,4180002062703,登記記録の閉鎖等,0,2025-12-04,2025-12-01,有限会社板垣工務店,,有限会社,愛知県,日進市,岩崎町北高上１０番地の２２,,23,230,4700131,,,2025-12-01,清算の結了等,,,2015-10-05,1,,,,,イタガキコウムテン,0
1111,4180302004561,登記記録の閉鎖等,0,2025-12-04,2025-11-19,有限会社アクティープラン,,有限会社,愛知県,岡崎市,竜美南４丁目１０番地１７,,23,202,4440874,,,2025-11-19,清算の結了等,,,2015-10-05,1,,,,,アクティープラン,0
1114,4200001014520,登記記録の閉鎖等,0,2025-12-04,2025-12-01,白木基礎株式会社,,株式会社,岐阜県,安八郡安八町,南今ケ渕１４２６番地の１,,21,383,5030115,,,2025-12-01,清算の結了等,,,2015-10-05,1,,,,,シラキキソ,0
1125,4250002012337,登記記録の閉鎖等,0,2025-12-04,2025-12-01,有限会社広栄電機工業所,,有限会社,山口県,下関市,菊川町大字上保木２６７番地,,35,201,7500307,,,2025-12-01,清算の結了等,,,2015-10-05,1,,,,,コウエイデンキコウギョウショ,0
1131,4290001038040,登記記録の閉鎖等,0,2025-12-04,2025-11-25,株式会社ルーチェ,,株式会社,福岡県,福岡市博多区,光丘町２丁目２番２７－３０１号,,40,132,8120874,,,2025-11-25,清算の結了等,,,2015-10-05,1,,,,,ルーチェ,0
1144,4310001011911,登記記録の閉鎖等,0,2025-12-04,2025-12-01,ハタビル興産株式会社,,株式会社,長崎県,長崎市,賑町１０番１０－１００１号,,42,201,8500876,,,2025-12-01,合併による解散等,6310001011372,令和７年１２月１日長崎市賑町１０番１０－１００１号株式会社Ｍ・Ｋ企画（6310001011372）に合併し解散,2015-10-05,1,,,,,ハタビルコウサン,0
1150,4340001002932,登記記録の閉鎖等,0,2025-12-04,2025-11-26,トーヨー開発株式会社,,株式会社,鹿児島県,鹿児島市,東開町３番地,,46,201,8910115,,,2025-11-26,清算の結了等,,,2025-10-21,1,,,,,,0
1152,4340003004621,登記記録の閉鎖等,0,2025-12-04,2025-11-28,若宮煌合同会社,,合同会社,鹿児島県,伊佐市,大口大田１６８６番地１,,46,224,8952507,,,2025-11-28,清算の結了等,,,2024-10-21,1,,,,,ワカミヤコウ,0
1155,4350002006329,登記記録の閉鎖等,0,2025-12-04,2025-12-01,有限会社蜂須賀メディカルサービス,,有限会社,宮崎県,宮崎市,船塚２丁目１０６番地２,,45,201,8800031,,,2025-12-01,清算の結了等,,,2015-10-05,1,,,,,ハチスガメディカルサービス,0
1166,4390001001038,登記記録の閉鎖等,0,2025-12-04,2025-12-01,株式会社山形毎日広告社,,株式会社,山形県,山形市,七日町５丁目９番２２号,,06,201,9900042,,,2025-12-01,清算の結了等,,,2015-10-05,1,,,,,ヤマガタマイニチコウコクシャ,0
1167,4400002009838,登記記録の閉鎖等,0,2025-12-04,2025-11-27,有限会社小田島,,有限会社,岩手県,和賀郡西和賀町,巣郷６３地割１５４番地１,,03,366,0295522,,,2025-11-27,清算の結了等,,,2015-10-05,1,,,,,オダシマ,0
1169,4410002013822,登記記録の閉鎖等,0,2025-12-04,2025-12-01,有限会社トラベル横手,,有限会社,秋田県,横手市,十文字町腕越字佐吉開７６番地３,,05,203,0190501,,,2025-12-01,清算の結了等,,,2015-10-05,1,,,,,トラベルヨコテ,0
1171,4430001044024,登記記録の閉鎖等,0,2025-12-04,2025-11-28,株式会社マルキヨウ,,株式会社,北海道,千歳市,幸町３丁目１１番地,,01,224,0660063,,,2025-11-28,清算の結了等,,,2025-11-21,1,,,,,マルキヨウ,0
1176,4430002031070,登記記録の閉鎖等,0,2025-12-04,2025-12-01,有限会社丸森川村青果,,有限会社,北海道,札幌市中央区,北十二条西２３丁目２番７号,,01,101,0600012,,,2025-12-01,清算の結了等,,,2015-10-05,1,,,,,マルモリカワムラセイカ,0
1181,4470005005919,登記記録の閉鎖等,0,2025-12-04,2025-12-01,特定非営利活動法人グローバルニームジャパン,,その他の設立登記法人,香川県,高松市,兵庫町４番地４,,37,201,7600024,,,2025-12-01,清算の結了等,,,2016-06-14,1,,,,,グローバルニームジャパン,0
1182,4480002011010,登記記録の閉鎖等,0,2025-12-04,2025-12-03,有限会社れんがや,,有限会社,徳島県,鳴門市,撫養町黒崎字松島１３０番地５,,36,202,7720001,,,2025-12-03,清算の結了等,,,2015-10-05,1,,,,,レンガヤ,0
1198,5010005039945,登記記録の閉鎖等,0,2025-12-04,2025-12-02,一般社団法人ＧＥＭインターナショナル,,その他の設立登記法人,東京都,中央区,日本橋３丁目９番１号,,13,102,1030027,,,2025-12-02,清算の結了等,,,2025-04-21,1,,,,,ジーイーエムインターナショナル,0
1212,5010405012469,登記記録の閉鎖等,0,2025-12-04,2025-12-01,石狩超電導・直流送電システム技術研究組合,,その他の設立登記法人,愛知県,春日井市,松本町１２００番地,,23,206,4870027,,,2025-12-01,清算の結了等,,,2015-10-05,1,,,,,イシカリチョウデンドウチョクリュウソウデンシステム,0
1219,5010703003384,登記記録の閉鎖等,0,2025-12-04,2025-11-11,合同会社クレア,,合同会社,東京都,新宿区,西新宿３丁目３番１３号西新宿水間ビル２Ｆ,,13,104,1600023,,,2025-11-11,清算の結了等,,,2016-12-12,1,,,,,クレア,0
1235,5011101099420,登記記録の閉鎖等,0,2025-12-04,2025-11-10,株式会社Ｚｅｎｉｔｈ　Ｓｕｚｕｋｉ　Ｃｏｎｓｔｒｕｃｔｉｏｎ,,株式会社,東京都,新宿区,北新宿２丁目２１番１号新宿フロントタワー２８階２８１０区外,,13,104,1690074,,,2025-11-10,清算の結了等,,,2022-07-08,1,,,,,ゼニススズキコンストラクション,0
1242,5011501019671,登記記録の閉鎖等,0,2025-12-04,2025-12-01,株式会社平松,,株式会社,東京都,荒川区,西日暮里５丁目３４番５号,,13,118,1160013,,,2025-12-01,清算の結了等,,,2015-10-05,1,,,,,,0
1248,5011701027012,登記記録の閉鎖等,0,2025-12-04,2025-11-27,株式会社Ｙｏｎａｓｉｎｄｏ　Ｉｎｔｒａ　Ｐｒａｔａｍａ,,株式会社,東京都,江戸川区,本一色３丁目３９番１２号,,13,123,1330044,,,2025-11-27,清算の結了等,,,2024-02-14,1,,,,,ヨナシンドイントラプラタマ,0
1264,5020001154953,登記記録の閉鎖等,0,2025-12-04,2025-11-28,株式会社ワイティーズ,,株式会社,神奈川県,川崎市多摩区,宿河原４丁目２０番７号,,14,135,2140021,,,2025-11-28,清算の結了等,,,2023-12-18,1,,,,,ワイティーズ,0
1278,5030001111937,登記記録の閉鎖等,0,2025-12-04,2025-11-28,株式会社大河,,株式会社,埼玉県,川越市,大字的場２５６３番地１３,,11,201,3501101,,,2025-11-28,清算の結了等,,,2015-12-18,1,,,,,タイガ,0
1286,5030003025185,登記記録の閉鎖等,0,2025-12-04,2025-11-28,合同会社オリーブハウス,,合同会社,埼玉県,日高市,大字旭ケ丘３０番地,,11,242,3501203,,,2025-11-28,清算の結了等,,,2024-09-30,1,,,,,オリーブハウス,0
1292,5050001041694,登記記録の閉鎖等,0,2025-12-04,2025-11-28,照栄株式会社,,株式会社,茨城県,神栖市,太田３１６３番地１,,08,232,3140254,,,2025-11-28,清算の結了等,,,2016-10-13,1,,,,,ショウエイ,0
1300,5080401013423,登記記録の閉鎖等,0,2025-12-04,2025-11-18,株式会社ユーズネットワーク,,株式会社,静岡県,浜松市中央区,高丘東４丁目２０番１８号,,22,138,4338117,,,2025-11-18,清算の結了等,,,2015-10-05,1,,,,,ユーズネットワーク,0
1314,5120001238746,登記記録の閉鎖等,0,2025-12-04,2025-12-01,株式会社ｌｉａｎ,,株式会社,大阪府,大阪市北区,同心２丁目１５番２０号是空ＤＯＳＨＩＮ８０２号室,,27,127,5300035,,,2025-12-01,清算の結了等,,,2021-07-06,1,,,,,リアン,0
1322,5120002008792,登記記録の閉鎖等,0,2025-12-04,2025-12-01,有限会社リフォーム・ショップ三輪,,有限会社,大阪府,大阪市城東区,野江２丁目１８番８号,,27,118,5360006,,,2025-12-01,清算の結了等,,,2015-10-05,1,,,,,,0
1329,5120005022295,登記記録の閉鎖等,0,2025-12-04,2025-12-02,一般財団法人日本ヘルスケア財団,,その他の設立登記法人,大阪府,枚方市,香里園山之手町５２番８号,,27,210,5730087,,,2025-12-02,清算の結了等,,,2021-06-08,1,,,,,ニホンヘルスケアザイダン,0
1330,5120005023533,登記記録の閉鎖等,0,2025-12-04,2025-12-03,一般社団法人大阪日中経営者協会,,その他の設立登記法人,大阪府,大阪市福島区,福島６丁目１９番１２号ダンテＳＫ梅田,,27,103,5530003,,,2025-12-03,清算の結了等,,,2023-04-03,1,,,,,オオサカニッチュウケイエイシャキョウカイ,0
1337,5120901019618,登記記録の閉鎖等,0,2025-12-04,2025-11-26,三商機械販売株式会社,,株式会社,大阪府,池田市,東山町５２０番地の１,,27,204,5630012,,,2025-11-26,清算の結了等,,,2015-10-05,1,,,,,サンショウキカイハンバイ,0
1341,5122005003267,登記記録の閉鎖等,0,2025-12-04,2025-11-25,一般社団法人東大阪市民葬祭,,その他の設立登記法人,大阪府,東大阪市,御厨中１丁目１８番２６号,,27,227,5770035,,,2025-11-25,清算の結了等,,,2017-08-04,1,,,,,ヒガシオオサカシミンソウサイ,0
1354,5140001091607,登記記録の閉鎖等,0,2025-12-04,2025-12-01,株式会社ＯＧＡＷＡ　ＣＯＮＣＥＲＴＯ,,株式会社,兵庫県,宝塚市,湯本町４－２５,,28,214,6650003,,,2025-12-01,清算の結了等,,,2015-10-05,1,,,,,,0
1360,5170005001773,登記記録の閉鎖等,0,2025-12-04,2025-12-03,税理士法人木村税務事務所,,その他の設立登記法人,和歌山県,和歌山市,毛革屋丁１７番地,,30,201,6408337,,,2025-12-03,清算の結了等,,,2015-10-05,1,,,,,キムラゼイムジムショ,0
1394,5220001023510,登記記録の閉鎖等,0,2025-12-04,2025-12-01,株式会社Ｃ＆Ｔモータース,,株式会社,石川県,野々市市,御経塚４丁目８８番地,,17,212,9218801,,,2025-12-01,清算の結了等,,,2020-04-20,1,,,,,,0
1401,5240001051740,登記記録の閉鎖等,0,2025-12-04,2025-12-02,株式会社ＮＯＸ,,株式会社,広島県,広島市中区,大手町３丁目８－１－１２階,,34,101,7300051,,,2025-12-02,清算の結了等,,,2017-09-25,1,,,,,ノックス,0
1407,5250001011792,登記記録の閉鎖等,0,2025-12-04,2025-12-02,株式会社ダイワ,,株式会社,山口県,玖珂郡和木町,和木４丁目１１番１９号,,35,321,7400061,,,2025-12-02,清算の結了等,,,2015-10-05,1,,,,,ダイワ,0
1416,5290001010832,登記記録の閉鎖等,0,2025-12-04,2025-11-21,ヤマダカンパニー株式会社,,株式会社,福岡県,福岡市中央区,平尾３丁目２５番１－７１０号,,40,133,8100014,,,2025-11-21,清算の結了等,,,2015-10-05,1,,,,,ヤマダカンパニー,0
1420,5290002027256,登記記録の閉鎖等,0,2025-12-04,2025-11-25,有限会社護代土木,,有限会社,福岡県,福岡市西区,生の松原４丁目１５番１４号,,40,135,8190055,,,2025-11-25,清算の結了等,,,2015-10-05,1,,,,,ゴダイドボク,0
1445,5380002000220,登記記録の閉鎖等,0,2025-12-04,2025-11-28,有限会社吾妻印刷,,有限会社,福島県,福島市,西中央４丁目２５番地,,07,201,9608074,,,2025-11-28,清算の結了等,,,2015-10-05,1,,,,,,0
1451,5420001017608,登記記録の閉鎖等,0,2025-12-04,2025-12-01,株式会社ＣＩ,,株式会社,青森県,五所川原市,大字広田字榊森５４番地６４,00124455,02,205,0370023,,,2025-12-01,合併による解散等,8420001008100,令和７年１２月１日青森県五所川原市大字広田字榊森５４番地６４株式会社半田硝子建材（8420001008100）に合併し解散,2021-10-06,1,,,,,シーアイ,0
1467,5500002002823,登記記録の閉鎖等,0,2025-12-04,2025-12-01,有限会社古茂田電機,,有限会社,愛媛県,松山市,祝谷３丁目１番３８号,,38,201,7900833,,,2025-12-01,清算の結了等,,,2015-10-05,1,,,,,コモダデンキ,0
1491,6010401094527,登記記録の閉鎖等,0,2025-12-04,2025-12-01,株式会社イザットハウス,,株式会社,東京都,新宿区,高田馬場３丁目２番１４号,,13,104,1690075,,,2025-12-01,清算の結了等,,,2015-10-05,1,,,,,イザットハウス,0
1520,6011401016677,登記記録の閉鎖等,0,2025-12-04,2025-12-02,株式会社シムフルイド,,株式会社,東京都,板橋区,中台１丁目３０番１５号,,13,119,1740064,,,2025-12-02,清算の結了等,,,2015-10-05,1,,,,,シムフルイド,0
1521,6011701027523,登記記録の閉鎖等,0,2025-12-04,2025-11-25,Ｑ電気株式会社,,株式会社,東京都,江戸川区,中葛西５丁目１４番１３号,,13,123,1340083,,,2025-11-25,清算の結了等,,,2024-08-08,1,,,,,キュウデンキ,0
1550,6020001153624,登記記録の閉鎖等,0,2025-12-04,2025-12-01,ＴａｌｅｎｔＲｅｃｉｐｅ株式会社,,株式会社,神奈川県,横浜市港北区,大倉山３丁目１３番７号アイビットビル４０１,,14,109,2220037,,,2025-12-01,清算の結了等,,,2023-09-25,1,,,,,タレントレシピ,0
1559,6021001022348,登記記録の閉鎖等,0,2025-12-04,2025-11-12,株式会社荒井ベジアス,,株式会社,神奈川県,秦野市,上大槻字下モ田３８８番地,,14,211,2570005,,,2025-11-12,清算の結了等,,,2015-10-05,1,,,,,アライベジアス,0
1572,6040001013867,登記記録の閉鎖等,0,2025-12-04,2025-11-12,株式会社ＫＣＣ,,株式会社,千葉県,千葉市中央区,富士見２丁目７番９－６０９号,,12,101,2600015,,,2025-11-12,清算の結了等,,,2015-10-05,1,,,,,ケーシーシー,0
1574,6040001121488,登記記録の閉鎖等,0,2025-12-04,2025-11-10,株式会社ＨａｖｅＦｕｎ,,株式会社,千葉県,柏市,北柏２丁目１３番地の４,,12,217,2770832,,,2025-11-10,清算の結了等,,,2021-12-24,1,,,,,ハブファン,0
1583,6070001002495,登記記録の閉鎖等,0,2025-12-04,2025-12-01,日通群馬物流株式会社,,株式会社,群馬県,前橋市,東善町１４６番地,,10,201,3792132,,,2025-12-01,清算の結了等,,,2015-10-05,1,,,,,ニッツウグンマブツリュウ,0
1591,6120001016894,登記記録の閉鎖等,0,2025-12-04,2025-12-01,石原産業株式会社,,株式会社,大阪府,大阪市生野区,巽中３丁目１９番１０号,00027211,27,116,5440013,,,2025-12-01,合併による解散等,3120001017276,令和７年１２月１日大阪市生野区巽中三丁目１９番１０号共立ゴム工業株式会社（3120001017276）に合併し解散,2015-10-05,1,,,,,イシハラサンギョウ,0
1599,6120001220174,登記記録の閉鎖等,0,2025-12-04,2025-12-01,株式会社関治建設,,株式会社,大阪府,門真市,小路町２７番３号,,27,223,5710058,,,2025-12-01,清算の結了等,,,2019-04-09,1,,,,,カンジケンセツ,0
1611,6120002067474,登記記録の閉鎖等,0,2025-12-04,2025-12-01,有限会社イートデザイン,,有限会社,大阪府,大阪市淀川区,東三国４丁目２０－１３,,27,123,5320002,,,2025-12-01,清算の結了等,,,2015-10-05,1,,,,,イートデザイン,0
1612,6120003013700,登記記録の閉鎖等,0,2025-12-04,2025-12-01,合同会社サンルーツ,,合同会社,大阪府,寝屋川市,点野４丁目１０番１１号,,27,215,5720077,,,2025-12-01,清算の結了等,,,2017-12-18,1,,,,,サンルーツ,0
1618,6120101062599,登記記録の閉鎖等,0,2025-12-04,2025-12-01,セブンホーム株式会社,,株式会社,大阪府,堺市東区,草尾５８０番地１,,27,143,5998127,,,2025-12-01,清算の結了等,,,2020-11-10,1,,,,,セブンホーム,0
1625,6130005015512,登記記録の閉鎖等,0,2025-12-04,2025-12-03,一般社団法人ＣＡＲＥＥＲ　ＬＡＢＯ,,その他の設立登記法人,京都府,京都市中京区,河原町通二条下る２丁目下丸屋町４０３番地ＦＩＳビル,,26,104,6048006,,,2025-12-03,清算の結了等,,,2019-02-19,1,,,,,キャリアラボ,0
1632,6140005025114,登記記録の閉鎖等,0,2025-12-04,2025-12-02,一般社団法人日本マイライフ・メンター協会,,その他の設立登記法人,兵庫県,神戸市西区,岩岡町野中９３５番地の３,,28,111,6512405,,,2025-12-02,清算の結了等,,,2020-04-13,1,,,,,ニホンマイライフメンターキョウカイ,0
1658,6190001018249,登記記録の閉鎖等,0,2025-12-04,2025-11-25,ＭＣ川尻エネルギーサービス株式会社,,株式会社,三重県,四日市市,川尻町１０００番地,,24,202,5100871,,,2025-11-25,清算の結了等,,,2015-10-05,1,,,,,エムシーカワジリエネルギーサービス,0
1673,6230005003556,登記記録の閉鎖等,0,2025-12-04,2025-11-27,医療法人社団大崎医院,00079285,その他の設立登記法人,富山県,魚津市,北鬼江２丁目１２番２６号,,16,204,9370066,,,2025-11-27,清算の結了等,,,2015-10-05,1,,,,,シャダンオオサキイイン,0
1692,6290001062864,登記記録の閉鎖等,0,2025-12-04,2025-11-05,株式会社深穴研究センター,,株式会社,福岡県,福岡市東区,箱崎２丁目５４番１－６０５号,,40,131,8120053,,,2025-11-05,清算の結了等,,,2015-10-05,1,,,,,フカアナケンキュウセンター,0
1693,6290001082747,登記記録の閉鎖等,0,2025-12-04,2025-11-21,ＮＨ　Ｓｕｐｐｌｙ　Ｕｎｉｏｎ株式会社,,株式会社,福岡県,福岡市博多区,博多駅東２丁目９番２５号６０８号室,,40,132,8120013,,,2025-11-21,清算の結了等,,,2018-09-19,1,,,,,エヌエイチサプライユニオン,0
1700,6300005001107,登記記録の閉鎖等,0,2025-12-04,2025-11-25,医療法人清藍会,,その他の設立登記法人,佐賀県,佐賀市,兵庫南２丁目１８番２８号,,41,201,8490918,,,2025-11-25,清算の結了等,,,2015-10-05,1,,,,,セイランカイ,0
1718,6430001082063,登記記録の閉鎖等,0,2025-12-04,2025-11-26,ＭＴハウス株式会社,,株式会社,北海道,札幌市中央区,南一条東７丁目カーサ大通りＢ棟９０２,,01,101,0600051,,,2025-11-26,清算の結了等,,,2020-08-12,1,,,,,エムティーハウス,0
1719,6430003008875,登記記録の閉鎖等,0,2025-12-04,2025-11-05,合同会社ＬＩＮＫＳ,,合同会社,千葉県,野田市,中里５３２－３,,12,208,2700237,,,2025-11-05,清算の結了等,,,2017-11-15,1,,,,,リンクス,0
1720,6430003017447,登記記録の閉鎖等,0,2025-12-04,2025-12-01,合同会社ＷＥＺＥＮ,,合同会社,北海道,札幌市東区,中沼西二条１丁目１０番１５号,,01,103,0070892,,,2025-12-01,清算の結了等,,,2025-03-28,1,,,,,ウェズン,0
1725,6480001007536,登記記録の閉鎖等,0,2025-12-04,2025-12-02,株式会社高木,,株式会社,徳島県,三好市,池田町サラダ１７７２番地の３,,36,208,7780003,,,2025-12-02,清算の結了等,,,2015-10-05,1,,,,,タカギ,0
1754,7010401178080,登記記録の閉鎖等,0,2025-12-04,2025-11-05,株式会社シーティーエフ,,株式会社,東京都,港区,浜松町２丁目２番１５号浜松町ダイヤビル２Ｆ,,13,103,1050013,,,2025-11-05,清算の結了等,,,2023-10-24,1,,,,,シーティーエフ,0
1770,7010602014175,登記記録の閉鎖等,0,2025-12-04,2025-12-01,有限会社高山医療器械製作所,,有限会社,東京都,墨田区,立花２丁目６番２号,,13,107,1310043,,,2025-12-01,清算の結了等,,,2015-10-05,1,,,,,タカヤマイリョウキカイセイサクショ,0
1771,7010801008449,登記記録の閉鎖等,0,2025-12-04,2025-11-21,株式会社トキワ,,株式会社,東京都,大田区,東雪谷２丁目１７番６号,,13,111,1450065,,,2025-11-21,清算の結了等,,,2015-10-05,1,,,,,トキワ,0
1793,7011101012273,登記記録の閉鎖等,0,2025-12-04,2025-12-01,株式会社宅建情報センター,,株式会社,東京都,新宿区,百人町１丁目２３番１９号,,13,104,1690073,,,2025-12-01,清算の結了等,,,2015-10-05,1,,,,,タッケンジョウホウセンター,0
1796,7011102006407,登記記録の閉鎖等,0,2025-12-04,2025-11-10,有限会社秋文社,,有限会社,東京都,新宿区,下落合４丁目２０番２５号,,13,104,1610033,,,2025-11-10,清算の結了等,,,2015-10-05,1,,,,,シュウブンシャ,0
1816,7020001087045,登記記録の閉鎖等,0,2025-12-04,2025-11-28,株式会社栄工社,,株式会社,神奈川県,横浜市鶴見区,鶴見中央２丁目５番１８号,,14,101,2300051,,,2025-11-28,清算の結了等,,,2015-10-05,1,,,,,エイコウシャ,0
1825,7020003026307,登記記録の閉鎖等,0,2025-12-04,2025-12-02,ＰｌａｎｔＴｒｅｅ合同会社,,合同会社,神奈川県,横浜市栄区,飯島町３１４－３ダイアパレスワンダースケープ３１４,,14,115,2440842,,,2025-12-02,清算の結了等,,,2024-06-11,1,,,,,プラントツリー,0
1832,7030001128194,登記記録の閉鎖等,0,2025-12-04,2025-11-04,株式会社東京美院,,株式会社,埼玉県,入間郡越生町,大字黒山１６７番地５,,11,327,3500424,,,2025-11-04,清算の結了等,,,2018-11-09,1,,,,,トウキョウビイン,0
1848,7040001116652,登記記録の閉鎖等,0,2025-12-04,2025-11-12,株式会社彦田,,株式会社,千葉県,浦安市,富士見２丁目９番３４号,,12,227,2790043,,,2025-11-12,清算の結了等,,,2021-01-12,1,,,,,ヒコタ,0
1855,7080001014992,登記記録の閉鎖等,0,2025-12-04,2025-12-01,株式会社大榮アルミ産業,,株式会社,静岡県,焼津市,中新田９１７番地の５,,22,212,4250068,,,2025-12-01,清算の結了等,,,2015-10-05,1,,,,,ダイエイアルミサンギョウ,0
1897,7122002004852,登記記録の閉鎖等,0,2025-12-04,2025-11-26,有限会社宮脇製作所,,有限会社,大阪府,東大阪市,若江東町６丁目６番９号,,27,227,5780935,,,2025-11-26,清算の結了等,,,2015-10-05,1,,,,,ミヤワキセイサクショ,0
1912,7140001110513,登記記録の閉鎖等,0,2025-12-04,2025-12-01,ペイアジアジャパン株式会社,,株式会社,東京都,千代田区,有楽町２丁目７番１号有楽町イトシア１２階,,13,101,1000006,,,2025-12-01,清算の結了等,,,2018-06-29,1,,,,,ペイアジアジャパン,0
1927,7170002006063,登記記録の閉鎖等,0,2025-12-04,2025-12-03,有限会社ＨＡＲＡ,,有限会社,和歌山県,和歌山市,中之島３６１番地の１２,,30,201,6408392,,,2025-12-03,清算の結了等,,,2015-10-05,1,,,,,ハラ,0
1936,7180001137189,登記記録の閉鎖等,0,2025-12-04,2025-12-01,レイテックヘルスケア株式会社,,株式会社,愛知県,名古屋市中区,平和１丁目４番３号,,23,106,4600021,,,2025-12-01,合併による解散等,2180001051551,令和７年１２月１日名古屋市中区平和一丁目４番３号レイテック株式会社（2180001051551）に合併し解散,2019-07-10,1,,,,,レイテックヘルスケア,0
1944,7180002076502,登記記録の閉鎖等,0,2025-12-04,2025-12-01,有限会社ジェイアンドケイ,,有限会社,愛知県,一宮市,南印田２丁目２番２７号,,23,203,4910881,,,2025-12-01,清算の結了等,,,2015-10-05,1,,,,,ジェイアンドケイ,0
1950,7200001020722,登記記録の閉鎖等,0,2025-12-04,2025-11-28,セレック株式会社,,株式会社,岐阜県,可児市,桜ケ丘２丁目３６番地,,21,214,5090235,,,2025-11-28,清算の結了等,,,2015-10-05,1,,,,,セレック,0
1954,7200001033740,登記記録の閉鎖等,0,2025-12-04,2025-12-02,株式会社フジタホーム,,株式会社,岐阜県,岐阜市,長良竜東町５丁目２７番地２,,21,201,5020061,,,2025-12-02,清算の結了等,,,2017-02-10,1,,,,,フジタホーム,0
1956,7200002014252,登記記録の閉鎖等,0,2025-12-04,2025-12-02,有限会社ワイイーエスリサーチ,,有限会社,岐阜県,大垣市,津村町１丁目５７番地７,,21,202,5030003,,,2025-12-02,清算の結了等,,,2015-10-05,1,,,,,,0
1967,7260001032472,登記記録の閉鎖等,0,2025-12-04,2025-12-01,株式会社松涛亭アドバンストデザイン,,株式会社,岡山県,岡山市北区,中山下２丁目２番８５号,,33,101,7000821,,,2025-12-01,清算の結了等,,,2018-10-04,1,,,,,ショウトウテイアドバンストデザイン,0
1969,7260002013307,登記記録の閉鎖等,0,2025-12-04,2025-11-27,有限会社千幸物流,,有限会社,岡山県,倉敷市,中庄５番地９,,33,202,7100016,,,2025-11-27,清算の結了等,,,2015-10-05,1,,,,,センコウブツリュウ,0
1970,7260002029245,登記記録の閉鎖等,0,2025-12-04,2025-11-27,有限会社廣友鮮魚店,,有限会社,岡山県,勝田郡奈義町,豊沢２９２番地の１１,,33,623,7081323,,,2025-11-27,清算の結了等,,,2015-10-05,1,,,,,ヒロトモセンギョテン,0
2006,7430002034987,登記記録の閉鎖等,0,2025-12-04,2025-12-02,有限会社北日本陸運札幌,,有限会社,北海道,札幌市中央区,北十四条西１８丁目１番１８号ＳＳＦ５７ビル２Ｆ,,01,101,0600014,,,2025-12-02,清算の結了等,,,2015-10-05,1,,,,,,0
2019,7500002004644,登記記録の閉鎖等,0,2025-12-04,2025-12-01,有限会社東温荘,,有限会社,愛媛県,松山市,権現町甲６６５番地１,,38,201,7992653,,,2025-12-01,合併による解散等,6500001008473,令和７年１２月１日愛媛県松山市天山二丁目５番５号アトム総合企画株式会社（6500001008473）に合併し解散,2015-10-05,1,,,,,トウオンソウ,0
2038,8010003036685,登記記録の閉鎖等,0,2025-12-04,2025-11-18,オープンコネクトラボ合同会社,,合同会社,東京都,千代田区,九段南１丁目５番６号りそな九段ビル５階ＫＳフロア,,13,101,1020074,,,2025-11-18,清算の結了等,,,2022-01-06,1,,,,,オープンコネクトラボ,0
2048,8010601056242,登記記録の閉鎖等,0,2025-12-04,2025-11-12,株式会社Ｉｋｏｈ,,株式会社,千葉県,船橋市,本町４丁目４３番１４号,,12,204,2730005,,,2025-11-12,清算の結了等,,,2019-10-07,1,,,,,イコウ,0
2073,8011401001173,登記記録の閉鎖等,0,2025-12-04,2025-11-28,株式会社大山鋼機製作所,,株式会社,東京都,板橋区,西台２丁目３３番１号,,13,119,1750045,,,2025-11-28,清算の結了等,,,2015-10-05,1,,,,,オオヤマコウキセイサクショ,0
2077,8011702017645,登記記録の閉鎖等,0,2025-12-04,2025-12-02,有限会社コンサルタント川原,,有限会社,鹿児島県,鹿児島市,吉野町３３１７－３,,46,201,8920871,,,2025-12-02,清算の結了等,,,2015-10-05,1,,,,,コンサルタントカワハラ,0
2093,8020001004585,登記記録の閉鎖等,0,2025-12-04,2025-12-01,株式会社横浜オートマーケツト,,株式会社,神奈川県,横浜市港南区,日野５丁目２３番の３,,14,111,2340051,,,2025-12-01,合併による解散等,7180301002266,令和７年１１月１日愛知県岡崎市藤川町字境松西１番地株式会社レッドバロン（7180301002266）に合併し解散,2015-10-05,1,,,,,ヨコハマオートマーケツト,0
2116,8030001153233,登記記録の閉鎖等,0,2025-12-04,2025-11-21,株式会社小江戸の風,,株式会社,埼玉県,川越市,豊田町１丁目２０番地１３,,11,201,3501110,,,2025-11-21,清算の結了等,,,2023-04-10,1,,,,,コエドノカゼ,0
2119,8030002104565,登記記録の閉鎖等,0,2025-12-04,2025-11-28,有限会社タカセ,,有限会社,埼玉県,川口市,青木２丁目６番３５号,,11,203,3320031,,,2025-11-28,清算の結了等,,,2015-10-05,1,,,,,タカセ,0
2129,8040002005481,登記記録の閉鎖等,0,2025-12-04,2025-11-11,有限会社しのはら薬局,,有限会社,千葉県,千葉市中央区,登戸５丁目１７番２号,,12,101,2600032,,,2025-11-11,清算の結了等,,,2015-10-05,1,,,,,シノハラヤッキョク,0
2140,8060005003266,登記記録の閉鎖等,0,2025-12-04,2025-12-01,特定非営利活動法人鮭守の会,,その他の設立登記法人,栃木県,真岡市,東郷９３７番地,,09,209,3214304,,,2025-12-01,清算の結了等,,,2015-10-05,1,,,,,サケモリノカイ,0
2145,8100001026761,登記記録の閉鎖等,0,2025-12-04,2025-12-01,株式会社ルミアージュ,,株式会社,兵庫県,神戸市中央区,磯上通３丁目１－１３－１４０６,,28,110,6510086,,,2025-12-01,清算の結了等,,,2015-10-05,1,,,,,ルミアージュ,0
2146,8100001031902,登記記録の閉鎖等,0,2025-12-04,2025-11-28,株式会社アコルス,,株式会社,長野県,大町市,美麻２０９３９番地１３,,20,212,3999101,,,2025-11-28,清算の結了等,,,2019-01-23,1,,,,,アコルス,0
2153,8120001010037,登記記録の閉鎖等,0,2025-12-04,2025-12-01,株式会社新晃イーアールディ,,株式会社,大阪府,大阪市東住吉区,山坂１丁目６番９号,,27,121,5460035,,,2025-12-01,合併による解散等,7120001081954,令和７年１２月１日大阪市東住吉区山坂一丁目５番１６号新晃電機株式会社（7120001081954）に合併し解散,2015-10-05,1,,,,,シンコウイーアールディ,0
2176,8120101001794,登記記録の閉鎖等,0,2025-12-04,2025-12-01,株式会社ギャラリーいろはに,,株式会社,大阪府,堺市堺区,甲斐町東１丁２番２９号,,27,141,5900953,,,2025-12-01,清算の結了等,,,2015-10-05,1,,,,,ギャラリーイロハニ,0
2192,8150002005545,登記記録の閉鎖等,0,2025-12-04,2025-12-02,有限会社エムズ,,有限会社,奈良県,奈良市,三碓３丁目１２番６－５１１号,,29,201,6310061,,,2025-12-02,清算の結了等,,,2015-10-05,1,,,,,エムズ,0
2206,8180001102984,登記記録の閉鎖等,0,2025-12-04,2025-12-01,株式会社はなみずき,,株式会社,愛知県,犬山市,大字羽黒字大見下３１番地１,,23,215,4840894,,,2025-12-01,合併による解散等,1180001081731,令和７年１２月１日愛知県犬山市大字羽黒字大見下１８番地株式会社アニマルケアセンター（1180001081731）に合併し解散,2015-10-05,1,,,,,ハナミズキ,0
2229,8220002001470,登記記録の閉鎖等,0,2025-12-04,2025-12-01,エヌケイ由水有限会社,,有限会社,石川県,金沢市,大手町１０番１４号,,17,201,9200912,,,2025-12-01,清算の結了等,,,2015-10-05,1,,,,,エヌケイヨシミズ,0
2233,8240001048214,登記記録の閉鎖等,0,2025-12-04,2025-12-02,株式会社テックソリューションズ,,株式会社,広島県,福山市,伊勢丘３丁目１０番１２号,,34,207,7210915,,,2025-12-02,清算の結了等,,,2015-10-05,1,,,,,,0
2235,8240002027010,登記記録の閉鎖等,0,2025-12-04,2025-12-02,株式会社浜商事,,株式会社,広島県,広島市安佐北区,安佐町大字飯室６８８７番地１,,34,106,7311142,,,2025-12-02,清算の結了等,,,2015-10-05,1,,,,,ハマショウジ,0
2237,8250002003753,登記記録の閉鎖等,0,2025-12-04,2025-12-02,有限会社藤兵衛,,有限会社,山口県,防府市,沖今宿２丁目１番１号,,35,206,7470013,,,2025-12-02,清算の結了等,,,2015-10-05,1,,,,,トウベエ,0
2250,8290002001480,登記記録の閉鎖等,0,2025-12-04,2025-11-25,有限会社牛島電気,,有限会社,福岡県,福岡市南区,井尻２丁目１５番２７号,,40,134,8111302,,,2025-11-25,清算の結了等,,,2015-10-05,1,,,,,ウシジマデンキ,0
2254,8310002018869,登記記録の閉鎖等,0,2025-12-04,2025-12-01,福栄海運有限会社,,有限会社,長崎県,壱岐市,石田町久喜触１９８番地,,42,210,8115223,,,2025-12-01,清算の結了等,,,2015-10-05,1,,,,,フクエイカイウン,0
2258,8330005003916,登記記録の閉鎖等,0,2025-12-04,2025-11-27,下名連石生産森林組合,,その他の設立登記法人,熊本県,上益城郡山都町,下名連石５９３番地１,,43,447,8613503,,,2025-11-27,清算の結了等,,,2015-10-05,1,,,,,シモナレイシ,0
2278,8430001091491,登記記録の閉鎖等,0,2025-12-04,2025-11-28,株式会社アルティ不動産,,株式会社,北海道,札幌市北区,新琴似一条２丁目５番６号,,01,102,0010901,,,2025-11-28,清算の結了等,,,2024-04-04,1,,,,,アルティフドウサン,0
2294,9010001173042,登記記録の閉鎖等,0,2025-12-04,2025-11-20,上元株式会社,,株式会社,東京都,港区,虎ノ門１丁目１７番１号虎ノ門ヒルズビジネスタワー１５階,,13,103,1050001,,,2025-11-20,清算の結了等,,,2016-01-27,1,,,,,カミモト,0
2295,9010001228234,登記記録の閉鎖等,0,2025-12-04,2025-12-01,エンデバー・ユナイテッド・パートナーズ・２５株式会社,,株式会社,栃木県,小山市,城東４丁目１９番３１号,,09,208,3230807,,,2025-12-01,合併による解散等,6060001024870,令和７年１２月１日栃木県小山市城東四丁目１９番３１号タカコーホールディングス株式会社（6060001024870）に合併し解散,2022-07-22,1,,,,,エンデバーユナイテッドパートナーズトゥエンティファイブ,0
2309,9010501030230,登記記録の閉鎖等,0,2025-12-04,2025-11-27,エスアイシイ株式会社,,株式会社,東京都,台東区,浅草６丁目７番８号テイトビル猿若,,13,106,1110032,,,2025-11-27,清算の結了等,,,2015-10-05,1,,,,,エスアイシイ,0
2316,9010702002367,登記記録の閉鎖等,0,2025-12-04,2025-11-28,有限会社木下組,,有限会社,東京都,品川区,南品川３丁目５番２２号,,13,109,1400004,,,2025-11-28,清算の結了等,,,2015-10-05,1,,,,,キノシタグミ,0
2345,9011301000464,登記記録の閉鎖等,0,2025-12-04,2025-12-01,アラバン健康食株式会社,,株式会社,東京都,杉並区,松ノ木１丁目５番３号,,13,115,1660014,,,2025-12-01,清算の結了等,,,2015-10-05,1,,,,,アラバンケンコウショク,0
2352,9011501026169,登記記録の閉鎖等,0,2025-12-04,2025-11-28,株式会社ｈａｃｋＬａｂ,,株式会社,東京都,北区,神谷１丁目１２番１２号,,13,117,1150043,,,2025-11-28,清算の結了等,,,2020-09-09,1,,,,,ハックラボ,0
2366,9013103000840,登記記録の閉鎖等,0,2025-12-04,2025-11-28,合同会社ＵＣｏｎｎｅｃｔ,,合同会社,東京都,羽村市,双葉町２丁目２１番５号,,13,227,2050022,,,2025-11-28,清算の結了等,,,2018-08-07,1,,,,,ユーコネクト,0
2371,9020001025993,登記記録の閉鎖等,0,2025-12-04,2025-11-27,河合商事株式会社,,株式会社,神奈川県,横浜市南区,六ツ川２丁目１２２番地２,,14,105,2320066,,,2025-11-27,清算の結了等,,,2015-10-05,1,,,,,カワイショウジ,0
2382,9020002085541,登記記録の閉鎖等,0,2025-12-04,2025-12-01,有限会社ロッカ,,有限会社,神奈川県,川崎市中原区,木月住吉町１４番２５－３０１号,,14,133,2110021,,,2025-12-01,清算の結了等,,,2015-10-05,1,,,,,ロッカ,0
2385,9020002105687,登記記録の閉鎖等,0,2025-12-04,2025-11-21,有限会社ナチュラル,,有限会社,東京都,大田区,東蒲田１丁目２１番２－５０５号,,13,111,1440031,,,2025-11-21,清算の結了等,,,2015-10-05,1,,,,,ナチュラル,0
2387,9021001071053,登記記録の閉鎖等,0,2025-12-04,2025-11-12,株式会社ＹＥＴＩ　ＨＯＭＥ,,株式会社,神奈川県,大和市,下鶴間１９０５番地１フラン２０３,,14,213,2420001,,,2025-11-12,清算の結了等,,,2020-10-19,1,,,,,イエティホーム,0
2390,9021002036360,登記記録の閉鎖等,0,2025-12-04,2025-11-12,有限会社青木仮設,,有限会社,神奈川県,厚木市,上荻野９０３番地１,,14,212,2430201,,,2025-11-12,清算の結了等,,,2015-10-05,1,,,,,,0
2394,9030001027881,登記記録の閉鎖等,0,2025-12-04,2025-11-28,シーティーワークス株式会社,,株式会社,埼玉県,所沢市,西所沢１丁目３番１７－２０３号,,11,208,3591144,,,2025-11-28,清算の結了等,,,2015-10-05,1,,,,,シーティーワークス,0
2396,9030001113616,登記記録の閉鎖等,0,2025-12-04,2025-12-02,株式会社ＴＫロード,,株式会社,埼玉県,三郷市,早稲田６丁目２０番地１２,,11,237,3410018,,,2025-12-02,清算の結了等,,,2016-04-08,1,,,,,ティーケーロード,0
2432,9080005005565,登記記録の閉鎖等,0,2025-12-04,2025-11-25,おおいがわＡｋｉｎｄｏ事業協同組合,,その他の設立登記法人,静岡県,焼津市,宗高９００番地,,22,212,4210205,,,2025-11-25,清算の結了等,,,2015-10-05,1,,,,,オオイガワアキンド,0
2433,9080102004940,登記記録の閉鎖等,0,2025-12-04,2025-12-01,有限会社ロイヤルエンジニアリング,,有限会社,静岡県,沼津市,西沢田１１０１番地の１６,,22,203,4100007,,,2025-12-01,清算の結了等,,,2015-10-05,1,,,,,ロイヤルエンジニアリング,0
2437,9110001019771,登記記録の閉鎖等,0,2025-12-04,2025-12-01,アグリフューチャー・じょうえつ株式会社,,株式会社,新潟県,上越市,東本町２丁目４番７号,,15,222,9430825,,,2025-12-01,清算の結了等,,,2015-10-05,1,,,,,アグリフューチャージョウエツ,0
2440,9120001052400,登記記録の閉鎖等,0,2025-12-04,2025-12-02,株式会社帝装化成,,株式会社,大阪府,大阪市東淀川区,西淡路１丁目１番３５号,,27,114,5330031,,,2025-12-02,清算の結了等,,,2015-10-05,1,,,,,テイソウカセイ,0
2446,9120001149337,登記記録の閉鎖等,0,2025-12-04,2025-11-27,鹿島工業株式会社,,株式会社,大阪府,枚方市,牧野本町２丁目２４番９号,,27,210,5731144,,,2025-11-27,清算の結了等,,,2015-10-05,1,,,,,カシマコウギョウ,0
2474,9140001008623,登記記録の閉鎖等,0,2025-12-04,2025-12-01,株式会社翠芳園,,株式会社,兵庫県,神戸市中央区,三宮町１丁目６番１８号ニューセンタービル７階,,28,110,6500021,,,2025-12-01,清算の結了等,,,2015-10-05,1,,,,,スイホウエン,0
2476,9140001130303,登記記録の閉鎖等,0,2025-12-04,2025-11-25,株式会社識,,株式会社,兵庫県,芦屋市,翠ケ丘町１５－１－３０２,,28,206,6590014,,,2025-11-25,清算の結了等,,,2023-05-26,1,,,,,シキ,0
2484,9160001001972,登記記録の閉鎖等,0,2025-12-04,2025-12-02,株式会社モーメント,,株式会社,滋賀県,大津市,見世１丁目１番２３号,,25,201,5200004,,,2025-12-02,清算の結了等,,,2015-10-05,1,,,,,モーメント,0
2489,9170001018355,登記記録の閉鎖等,0,2025-12-04,2025-12-01,オンリンク株式会社,,株式会社,和歌山県,和歌山市,友田町４丁目１番地３ネバーランド和歌山友田町４０２,,30,201,6408342,,,2025-12-01,清算の結了等,,,2024-10-24,1,,,,,オンリンク,0
2492,9180001052270,登記記録の閉鎖等,0,2025-12-04,2025-11-27,株式会社キタヒコ,,株式会社,愛知県,西春日井郡豊山町,大字豊場字八反１０７番地,,23,342,4800202,,,2025-11-27,清算の結了等,,,2015-10-05,1,,,,,,0
2498,9180001146444,登記記録の閉鎖等,0,2025-12-04,2025-12-01,株式会社ジンカンパニー,,株式会社,愛知県,名古屋市港区,小碓３丁目１０１番地久野ハイツ４０３号,,23,111,4550801,,,2025-12-01,合併による解散等,6180001006527,令和７年１２月１日名古屋市港区小碓三丁目１０１番地久野ハイツ４０１号三立興業株式会社（6180001006527）に合併し解散,2021-06-09,1,,,,,ジンカンパニー,0
2502,9180002019392,登記記録の閉鎖等,0,2025-12-04,2025-12-01,有限会社的場製作所,,有限会社,愛知県,名古屋市中川区,的場町１丁目９１番地,,23,110,4540862,,,2025-12-01,清算の結了等,,,2015-10-05,1,,,,,マトバセイサクショ,0
2505,9180002082151,登記記録の閉鎖等,0,2025-12-04,2025-12-01,有限会社はなみずきエデュケーション,,有限会社,愛知県,江南市,古知野町宮裏２３番地,,23,217,4838279,,,2025-12-01,合併による解散等,4180003017152,令和７年１２月１日愛知県江南市古知野町宮裏１５番地株式会社はなみずきリクルートメント（4180003017152）に合併し解散,2015-10-05,1,,,,,,0
2531,9270003001778,登記記録の閉鎖等,0,2025-12-04,2025-12-03,合同会社Ｓｔｒｉｄｅ,,合同会社,鳥取県,倉吉市,伊木７５番地,,31,203,6820024,,,2025-12-03,清算の結了等,,,2025-08-07,1,,,,,ストライド,0
2534,9290002017798,登記記録の閉鎖等,0,2025-12-04,2025-11-25,有限会社南福岡土木,,有限会社,福岡県,福岡市博多区,元町１丁目１番１５号,,40,132,8120877,,,2025-11-25,清算の結了等,,,2015-10-05,1,,,,,ミナミフクオカドボク,0
2535,9290002051335,登記記録の閉鎖等,0,2025-12-04,2025-11-25,有限会社ひろせ,,有限会社,福岡県,久留米市,梅満町１１１２－４,,40,203,8300048,,,2025-11-25,清算の結了等,,,2015-10-05,1,,,,,ヒロセ,0
2570,9480002005981,登記記録の閉鎖等,0,2025-12-04,2025-12-03,有限会社いしいキッズ,,有限会社,徳島県,名西郡石井町,高川原字高川原３１３番地の９,,36,341,7793223,,,2025-12-03,清算の結了等,,,2015-10-05,1,,,,,イシイキッズ,0
