sequenceNumber,corporateNumber,process,correct,updateDate,changeDate,name,nameImageId,kind,prefectureName,cityName,streetNumber,addressImageId,prefectureCode,cityCode,postCode,addressOutside,addressOutsideImageId,closeDate,closeCause,successorCorporateNumber,changeCause,assignmentDate,latest,enName,enPrefectureName,enCityName,enAddressOutside,furigana,hihyoji
8,1010001228191,新規,0,2022-07-20,2022-07-20,株式会社ＳＵＭＩＦＳ,,株式会社,東京都,中央区,銀座１丁目２２番１１号銀座大竹ビジデンス２階,,13,102,1040061,,,,,,,2022-07-20,1,,,,,サムイフス,0
14,1010401168640,新規,0,2022-07-20,2022-07-20,知覚株式会社,,株式会社,東京都,港区,南青山４丁目１７番１３号１０１,,13,103,1070062,,,,,,,2022-07-20,1,,,,,チカク,0
17,1010601061430,新規,0,2022-07-20,2022-07-20,株式会社ファインシード,,株式会社,東京都,墨田区,亀沢１丁目３番７号,,13,107,1300014,,,,,,,2022-07-20,1,,,,,ファインシード,0
19,1010703006300,新規,0,2022-07-20,2022-07-20,ＤｅＦｉ合同会社,,合同会社,東京都,品川区,西五反田５丁目３２番地７号ジニア不動前１０６,,13,109,1410031,,,,,,,2022-07-20,1,,,,,デフィ,0
23,1010803004237,新規,0,2022-07-20,2022-07-20,合同会社Ｔｒｅｓ　Ｍｅ,,合同会社,東京都,大田区,羽田１丁目４番５－４０４号日興パレス羽田,,13,111,1440043,,,,,,,2022-07-20,1,,,,,トレスミー,0
27,1010901051263,新規,0,2022-07-20,2022-07-20,株式会社Ｂｏａｓｏｒｔｅ,,株式会社,東京都,世田谷区,池尻３丁目２１番１６－２０８号,,13,112,1540001,,,,,,,2022-07-20,1,,,,,ボアソルチ,0
33,1011001148660,新規,0,2022-07-20,2022-07-20,株式会社Ｈａｙｍ　Ｃｏｎｓｕｌｔｉｎｇ,,株式会社,東京都,渋谷区,渋谷１丁目１２番２号,,13,113,1500002,,,,,,,2022-07-20,1,,,,,ハイムコンサルティング,0
34,1011001148702,新規,0,2022-07-20,2022-07-20,ＹＵＭＡ株式会社,,株式会社,東京都,渋谷区,渋谷２丁目１９－１５宮益坂ビルディング６０９,,13,113,1500002,,,,,,,2022-07-20,1,,,,,ユウマ,0
36,1011003015033,新規,0,2022-07-20,2022-07-20,Ｕ　ｔｏ　Ｕ合同会社,,合同会社,東京都,渋谷区,神宮前６丁目２３－４桑野ビル２Ｆ,,13,113,1500001,,,,,,,2022-07-20,1,,,,,ユートゥーユー,0
37,1011101099589,新規,0,2022-07-20,2022-07-20,ＪＯＹ　ＥＩＧＨＴ株式会社,,株式会社,東京都,新宿区,市谷田町２丁目３５番地１ローレルコート市ヶ谷１２０２,,13,104,1620843,,,,,,,2022-07-20,1,,,,,ジョイエイト,0
38,1011101099597,新規,0,2022-07-20,2022-07-20,立真株式会社,,株式会社,東京都,新宿区,西新宿６丁目２６番１１－４０３号,,13,104,1600023,,,,,,,2022-07-20,1,,,,,リッシン,0
43,1011305002836,新規,0,2022-07-20,2022-07-20,特定非営利活動法人Ｈｅａｒｔｆｕｌ　Ｅｘｐｒｅｓｓｉｏｎ　ｆｏｒ　Ｃｈｉｌｄｒｅｎ,,その他の設立登記法人,東京都,杉並区,高円寺南１丁目１８番１９号高円寺セントラルホームズ,,13,115,1660003,,,,,,,2022-07-20,1,,,,,ハートフルエクスプレッションフォーチルドレン,0
48,1012405004763,新規,0,2022-07-20,2022-07-20,一般社団法人この花舎,,その他の設立登記法人,東京都,三鷹市,牟礼２丁目５番７号ミタカヒルコート１,,13,204,1810002,,,,,,,2022-07-20,1,,,,,コノハナシャ,0
60,1020001147416,新規,0,2022-07-20,2022-07-20,株式会社Ｄｏｕｂｌｅ　Ｄｏｏｒｓ,,株式会社,神奈川県,横浜市中区,弁天通２丁目２１番アトム関内ビル５階,,14,104,2310007,,,,,,,2022-07-20,1,,,,,ダブルドアーズ,0
61,1020001147424,新規,0,2022-07-20,2022-07-20,パイルスホールディングス株式会社,,株式会社,神奈川県,横浜市神奈川区,新浦島町２丁目２番地１－８２１号,,14,102,2210031,,,,,,,2022-07-20,1,,,,,パイルスホールディングス,0
68,1021003011956,新規,0,2022-07-20,2022-07-20,合同会社ＹＳＴエンジニアリング,,合同会社,神奈川県,相模原市南区,相武台３丁目２６番２０号,,14,153,2520324,,,,,,,2022-07-20,1,,,,,ワイエスティーエンジニアリング,0
74,1030003019785,新規,0,2022-07-20,2022-07-20,合同会社西川Ｒａｆｔｅｒｓ,,合同会社,埼玉県,飯能市,大字井上１２３－１,,11,209,3570212,,,,,,,2022-07-20,1,,,,,ニシカワラフターズ,0
83,1050001051417,新規,0,2022-07-20,2022-07-20,株式会社ＵＥＤ,,株式会社,茨城県,水戸市,笠原町２００番地３芙蓉第３ビル３階,,08,201,3100852,,,,,,,2022-07-20,1,,,,,ユーイーディー,0
84,1050001051425,新規,0,2022-07-20,2022-07-20,ＮＡＳＵＫＡ　ＪＡＰＡＮ　ＴＲＡＤＩＮＧ株式会社,,株式会社,茨城県,結城郡八千代町,大字西大山４００番地６,,08,521,3003504,,,,,,,2022-07-20,1,,,,,ナスカジャパントレーディング,0
95,1080401025967,新規,0,2022-07-20,2022-07-20,株式会社濱口工業,00127263,株式会社,静岡県,浜松市西区,桜台３丁目６番１８号,,22,133,4311104,,,,,,,2022-07-20,1,,,,,ハマグチコウギョウ,0
96,1090001017686,新規,0,2022-07-20,2022-07-20,株式会社橋鳶興業,,株式会社,山梨県,甲府市,長松寺町８番４１号,,19,201,4000067,,,,,,,2022-07-20,1,,,,,ハシトビコウギョウ,0
101,1110003004820,新規,0,2022-07-20,2022-07-20,Ａｌｔｅｒｎａｔｉｖｅ　Ｐｌａｎｓ合同会社,,合同会社,新潟県,長岡市,古正寺１丁目２９３３番地,,15,202,9402106,,,,,,,2022-07-20,1,,,,,オルタナティブプランズ,0
112,1120001247404,新規,0,2022-07-20,2022-07-20,株式会社はこつくる,,株式会社,大阪府,大阪市旭区,高殿６丁目１９番３４号,,27,117,5350031,,,,,,,2022-07-20,1,,,,,ハコツクル,0
113,1120001247478,新規,0,2022-07-20,2022-07-20,百川不動産株式会社,,株式会社,大阪府,大阪市西成区,梅南３丁目６番２２－１０１号,,27,122,5570033,,,,,,,2022-07-20,1,,,,,ヒャクカワフドウサン,0
123,1130001072215,新規,0,2022-07-20,2022-07-20,株式会社ロデルコーポレーション,,株式会社,京都府,京都市南区,東九条上御霊町１２番地１９,,26,107,6018015,,,,,,,2022-07-20,1,,,,,ロデルコーポレーション,0
135,1140001126787,新規,0,2022-07-20,2022-07-20,株式会社前田工業,,株式会社,兵庫県,尼崎市,長洲中通２丁目１６番４号,,28,202,6600802,,,,,,,2022-07-20,1,,,,,マエダコウギョウ,0
136,1140001126812,新規,0,2022-07-20,2022-07-20,株式会社レージョン,,株式会社,兵庫県,尼崎市,武庫元町３丁目５番５－７０６号,,28,202,6610043,,,,,,,2022-07-20,1,,,,,レージョン,0
137,1140001126820,新規,0,2022-07-20,2022-07-20,株式会社ＡＳＵＥＴＯ．,,株式会社,兵庫県,芦屋市,翠ケ丘町８番５－３０２号,,28,206,6590014,,,,,,,2022-07-20,1,,,,,アスエト,0
139,1140003017919,新規,0,2022-07-20,2022-07-20,合同会社リベルラボ,,合同会社,兵庫県,神戸市中央区,中町通３丁目１番１６号サンビル５０２,,28,110,6500027,,,,,,,2022-07-20,1,,,,,リベルラボ,0
141,1140005026249,新規,0,2022-07-20,2022-07-20,一般社団法人ＯＨＡＮＡ,,その他の設立登記法人,兵庫県,神戸市中央区,橘通４丁目１－８,,28,110,6500016,,,,,,,2022-07-20,1,,,,,オハナ,0
144,1160001024386,新規,0,2022-07-20,2022-07-20,株式会社フロッグベース,,株式会社,滋賀県,大津市,木戸１３８３番地の１,,25,201,5200514,,,,,,,2022-07-20,1,,,,,フロッグベース,0
153,1180001152078,新規,0,2022-07-20,2022-07-20,株式会社寿々ホールディングス,,株式会社,愛知県,名古屋市中村区,東宿町１丁目５４番地,,23,105,4530063,,,,,,,2022-07-20,1,,,,,ジュジュホールディングス,0
155,1180003024052,新規,0,2022-07-20,2022-07-20,合同会社ＬＩＢＥＲＤＡＤＥ,,合同会社,愛知県,豊明市,二村台４丁目１番１号第１グリーンハイツ１０５号,,23,229,4701131,,,,,,,2022-07-20,1,,,,,リベルダージ,0
163,1210005010039,新規,0,2022-07-20,2022-07-20,一般社団法人ＳＯＥ,,その他の設立登記法人,福井県,鯖江市,河和田町第１９号１番地７,,18,207,9161222,,,,,,,2022-07-20,1,,,,,ソエ,0
176,1250003003115,新規,0,2022-07-20,2022-07-20,ＴＡＴＳＵＭＩエネルギー合同会社,,合同会社,山口県,岩国市,周東町西長野１０２３番地６,,35,208,7420425,,,,,,,2022-07-20,1,,,,,タツミエネルギー,0
182,1290001098335,新規,0,2022-07-20,2022-07-20,株式会社ＳＴＫコーポレーション,,株式会社,福岡県,福岡市中央区,黒門７番１５－５０４号,,40,133,8100055,,,,,,,2022-07-20,1,,,,,エスティケーコーポレーション,0
185,1290003012756,新規,0,2022-07-20,2022-07-20,スキマデザイン合同会社,,合同会社,福岡県,福岡市早良区,祖原９－１４－５０１,,40,137,8140005,,,,,,,2022-07-20,1,,,,,スキマデザイン,0
190,1290801028739,新規,0,2022-07-20,2022-07-20,株式会社ＬＩＢＥＲＴＹ,,株式会社,福岡県,北九州市小倉南区,長行西４丁目２０番１１号,,40,107,8030272,,,,,,,2022-07-20,1,,,,,リバティ,0
193,1320001019205,新規,0,2022-07-20,2022-07-20,株式会社ＡＳＴＥＰ．,,株式会社,大分県,杵築市,大字宮司６７５番地１,,44,210,8730004,,,,,,,2022-07-20,1,,,,,アステップ,0
194,1320001019221,新規,0,2022-07-20,2022-07-20,爽汎綺株式会社,,株式会社,大分県,別府市,大字鉄輪１５９番地の２,,44,202,8740000,,,,,,,2022-07-20,1,,,,,ソウハンキ,0
195,1320003003859,新規,0,2022-07-20,2022-07-20,合同会社ｐｏｒｔａ,,合同会社,大分県,佐伯市,大字上岡１８９４番地２,,44,205,8760045,,,,,,,2022-07-20,1,,,,,ポルタ,0
198,1330005010530,新規,0,2022-07-20,2022-07-20,ＮＰＯ法人空,,その他の設立登記法人,熊本県,熊本市西区,島崎４丁目１３番,,43,103,8600073,,,,,,,2022-07-20,1,,,,,ソラ,0
199,1360003012170,新規,0,2022-07-20,2022-07-20,合同会社もりもりファーム,,合同会社,沖縄県,宮古島市,平良字東仲宗根添１１６６番地５９７,,47,214,9060011,,,,,,,2022-07-20,1,,,,,モリモリファーム,0
214,1410005006479,新規,0,2022-07-20,2022-07-20,農事組合法人石塚,,その他の設立登記法人,秋田県,横手市,平鹿町中吉田字家ノ後６０番地,,05,203,0130106,,,,,,,2022-07-20,1,,,,,,0
218,1430001087075,新規,0,2022-07-20,2022-07-20,ハートオブサービス株式会社,,株式会社,北海道,札幌市中央区,宮の森三条５丁目１番１５号,,01,101,0640953,,,,,,,2022-07-20,1,,,,,ハートオブサービス,0
222,1430003014110,新規,0,2022-07-20,2022-07-20,合同会社ＦＫＳ,,合同会社,北海道,札幌市南区,真駒内２５４－１０２,,01,106,0050861,,,,,,,2022-07-20,1,,,,,エフケーエス,0
227,1480003001855,新規,0,2022-07-20,2022-07-20,Ｒｉｂｅｒａｌ　Ｈｅａｒｔｓ合同会社,,合同会社,徳島県,板野郡藍住町,住吉字乾２６番地８,,36,403,7711267,,,,,,,2022-07-20,1,,,,,リベラルハーツ,0
229,1500001024351,新規,0,2022-07-20,2022-07-20,株式会社エスプロ,,株式会社,愛媛県,松山市,三番町７丁目１０番地３,,38,201,7900003,,,,,,,2022-07-20,1,,,,,エスプロ,0
232,2010001228059,新規,0,2022-07-20,2022-07-20,ＤＲＯＰＳ　ＨＵＭＡＮ　Ｃｏｎｓｕｌｔｉｎｇ株式会社,,株式会社,東京都,千代田区,麹町２丁目６番４－１０２号,,13,101,1020083,,,,,,,2022-07-20,1,,,,,ドロップスヒューマンコンサルティング,0
233,2010001228224,新規,0,2022-07-20,2022-07-20,株式会社Ｒａｍｅｎｓｔｏｃｋ,,株式会社,東京都,中央区,銀座３丁目１３－１１銀座芦澤ビル３階,,13,102,1040061,,,,,,,2022-07-20,1,,,,,ラーメンストック,0
235,2010005035286,新規,0,2022-07-20,2022-07-20,農中ＪＡＭＬリート投資法人,,その他の設立登記法人,東京都,千代田区,神田小川町３丁目９番地２,,13,101,1010052,,,,,,,2022-07-20,1,,,,,ノウチュウジェイエイエムエルリート,0
245,2010401168581,新規,0,2022-07-20,2022-07-20,株式会社ビゴット,,株式会社,東京都,港区,南麻布４丁目１２－４,,13,103,1060047,,,,,,,2022-07-20,1,,,,,ビゴット,0
246,2010401168648,新規,0,2022-07-20,2022-07-20,株式会社ｒｅｗａｒｄ,,株式会社,東京都,港区,新橋５丁目３３番８号,,13,103,1050004,,,,,,,2022-07-20,1,,,,,リワード,0
248,2010403028081,新規,0,2022-07-20,2022-07-20,合同会社ＶＩＣＴＯＲＹ,,合同会社,東京都,港区,南青山２丁目３番３号パークコート青山ザタワー１５０２,,13,103,1070062,,,,,,,2022-07-20,1,,,,,ヴィクトリー,0
252,2010601061487,新規,0,2022-07-20,2022-07-20,株式会社Ｄ＆Ｙｉｎｖｅｓｔｍｅｎｔ,,株式会社,東京都,江東区,南砂２丁目３番８－３２３号,,13,108,1360076,,,,,,,2022-07-20,1,,,,,ディーアンドワイインベストメント,0
255,2010703006308,新規,0,2022-07-20,2022-07-20,ＪＡＮＥ合同会社,,合同会社,東京都,品川区,南品川４丁目３番５号星和南品川ビル８Ｆ,,13,109,1400004,,,,,,,2022-07-20,1,,,,,ジェーン,0
256,2010703006316,新規,0,2022-07-20,2022-07-20,合同会社ＹＳｔｏｒｙ,,合同会社,東京都,品川区,西大井６丁目１－１－２０２,,13,109,1400015,,,,,,,2022-07-20,1,,,,,ワイストーリー,0
257,2010801033138,新規,0,2022-07-20,2022-07-20,株式会社ＴＳコーポレーション,,株式会社,東京都,大田区,大森東１丁目２番９号,,13,111,1430012,,,,,,,2022-07-20,1,,,,,ティーエスコーポレーション,0
259,2010901051262,新規,0,2022-07-20,2022-07-20,株式会社ＴＩＰＰＩ,,株式会社,東京都,世田谷区,代田５丁目２３番１１号,,13,112,1550033,,,,,,,2022-07-20,1,,,,,ティッピ,0
269,2011001148692,新規,0,2022-07-20,2022-07-20,株式会社ＣＲＥＡＴＩＶＩＡ,,株式会社,東京都,渋谷区,神宮前６丁目２３番４号桑野ビル２階,,13,113,1500001,,,,,,,2022-07-20,1,,,,,クリエイティビア,0
270,2011001148726,新規,0,2022-07-20,2022-07-20,株式会社メディカルウィズユー,,株式会社,東京都,渋谷区,道玄坂２丁目２５－１３松原ビル２階,,13,113,1500043,,,,,,,2022-07-20,1,,,,,メディカルウィズユー,0
272,2011003015008,新規,0,2022-07-20,2022-07-20,合同会社デミニコ,,合同会社,東京都,渋谷区,神宮前６丁目２３番４号桑野ビル２階,,13,113,1500001,,,,,,,2022-07-20,1,,,,,デミニコ,0
273,2011003015065,新規,0,2022-07-20,2022-07-20,ｍｉｌａ合同会社,,合同会社,東京都,渋谷区,円山町５番５号Ｎａｖｉ渋谷Ｖ３階,,13,113,1500044,,,,,,,2022-07-20,1,,,,,ミラ,0
278,2011301027951,新規,0,2022-07-20,2022-07-20,株式会社プリモ,,株式会社,東京都,杉並区,桃井２丁目２４番１３－１０２号,,13,115,1670034,,,,,,,2022-07-20,1,,,,,プリモ,0
279,2011305002835,新規,0,2022-07-20,2022-07-20,一般社団法人日本介護予防バレエ協会,,その他の設立登記法人,東京都,杉並区,西荻北２丁目２番６号Ｂ１（Ｓｔｕｄｉｏ－ＳＧＩ内）,,13,115,1670042,,,,,,,2022-07-20,1,,,,,ニホンカイゴヨボウバレエキョウカイ,0
281,2011403003727,新規,0,2022-07-20,2022-07-20,合同会社オペラリーキ,,合同会社,東京都,板橋区,小茂根４丁目２１番１５ジーベック小竹向原１０１号,,13,119,1730037,,,,,,,2022-07-20,1,,,,,オペラリーキ,0
285,2011501028279,新規,0,2022-07-20,2022-07-20,風都株式会社,,株式会社,東京都,荒川区,南千住３丁目２７－２浅草ビルＡ号室,,13,118,1160003,,,,,,,2022-07-20,1,,,,,フウト,0
289,2012401039440,新規,0,2022-07-20,2022-07-20,株式会社ｕｎａ　ｆｏｌｉｕｍ,,株式会社,東京都,武蔵野市,御殿山２丁目２１番３－４０３号,,13,203,1800005,,,,,,,2022-07-20,1,,,,,ユナフォリウム,0
291,2012801021733,新規,0,2022-07-20,2022-07-20,株式会社ＧＲＡＣＥＳ,,株式会社,東京都,昭島市,宮沢町５１２番地１－１０１１号,,13,207,1960024,,,,,,,2022-07-20,1,,,,,グレイシス,0
299,2013303006231,新規,0,2022-07-20,2022-07-20,合同会社ルーツ,,合同会社,東京都,豊島区,駒込２丁目３番３号駒込北口ビル３階,,13,116,1700003,,,,,,,2022-07-20,1,,,,,ルーツ,0
308,2020001147407,新規,0,2022-07-20,2022-07-20,株式会社ＴＳコーポレーション,,株式会社,神奈川県,横浜市保土ケ谷区,帷子町２丁目９９番地３,,14,106,2400013,,,,,,,2022-07-20,1,,,,,ティーエスコーポレーション,0
336,2040001124321,新規,0,2022-07-20,2022-07-20,株式会社宮富,,株式会社,千葉県,富里市,七栄６５１番地５６１,,12,233,2860221,,,,,,,2022-07-20,1,,,,,ミヤトミ,0
341,2050003006698,新規,0,2022-07-20,2022-07-20,合同会社Ｒｅａｎｄ．,,合同会社,茨城県,ひたちなか市,大字市毛６２２番地２３,,08,221,3120033,,,,,,,2022-07-20,1,,,,,,0
350,2080003002835,新規,0,2022-07-20,2022-07-20,合同会社ＭＦ　Ｉｎｖｅｓｔｍｅｎｔ,,合同会社,静岡県,藤枝市,駅前１丁目８番２２－６０７号グランアネシス藤枝,,22,214,4260034,,,,,,,2022-07-20,1,,,,,エムエフインベストメント,0
351,2080105006271,新規,0,2022-07-20,2022-07-20,特定非営利活動法人ＴＥＮｋａｒａＳＥＮ,,その他の設立登記法人,静岡県,熱海市,伊豆山５７９番地３７号,,22,205,4130002,,,,,,,2022-07-20,1,,,,,テンカラセン,0
352,2080401025966,新規,0,2022-07-20,2022-07-20,株式会社堀田電工,,株式会社,静岡県,浜松市東区,大瀬町２７番地の３５,,22,132,4313113,,,,,,,2022-07-20,1,,,,,ホリタデンコウ,0
353,2090005007501,新規,0,2022-07-20,2022-07-20,一般社団法人道志むらおこし会,,その他の設立登記法人,山梨県,南都留郡道志村,６２２７番地,,19,422,4020200,,,,,,,2022-07-20,1,,,,,ドウシムラオコシカイ,0
358,2100003006627,新規,0,2022-07-20,2022-07-20,松本中庄合同会社,,合同会社,長野県,松本市,中央１丁目１２番６号,,20,202,3900811,,,,,,,2022-07-20,1,,,,,マツモトナカショウ,0
366,2120001247485,新規,0,2022-07-20,2022-07-20,タット株式会社,,株式会社,大阪府,大阪市西区,江戸堀１丁目２５番３０号,,27,106,5500002,,,,,,,2022-07-20,1,,,,,タット,0
368,2120003022085,新規,0,2022-07-20,2022-07-20,合同会社Ｌｉｌｙ,,合同会社,大阪府,大阪市浪速区,稲荷１丁目１０番２８－１３０５号,,27,111,5560023,,,,,,,2022-07-20,1,,,,,リリー,0
372,2130001072148,新規,0,2022-07-20,2022-07-20,株式会社ＷＨＩＴＥ　ＶＩＳＩＯＮ,,株式会社,京都府,京都市北区,紫竹下園生町２３番地５,,26,101,6038422,,,,,,,2022-07-20,1,,,,,ホワイトビジョン,0
373,2130003008067,新規,0,2022-07-20,2022-07-20,合同会社増茂庭園設計舎,,合同会社,京都府,福知山市,大江町佛性寺４１１番地,,26,201,6200321,,,,,,,2022-07-20,1,,,,,マスモテイエンセッケイシャ,0
382,2140001126753,新規,0,2022-07-20,2022-07-20,ＲＩＲＩ株式会社,,株式会社,兵庫県,神戸市中央区,琴ノ緒町３丁目３番２５－６０６号,,28,110,6510094,,,,,,,2022-07-20,1,,,,,リリ,0
383,2140001126778,新規,0,2022-07-20,2022-07-20,株式会社ＴＴ　ｐｒｏｄｕｃｅ,,株式会社,兵庫県,加古川市,別府町新野辺２２５８番地,,28,210,6750131,,,,,,,2022-07-20,1,,,,,ティーティープロデュース,0
384,2140001126803,新規,0,2022-07-20,2022-07-20,株式会社Ｗｉｎｄｓ,,株式会社,兵庫県,宝塚市,平井山荘１２番１７号,,28,214,6650817,,,,,,,2022-07-20,1,,,,,ウインズ,0
391,2140003017926,新規,0,2022-07-20,2022-07-20,合同会社ストラテジスト,,合同会社,兵庫県,神戸市長田区,六番町１丁目４番地の４７,,28,106,6530002,,,,,,,2022-07-20,1,,,,,ストラテジスト,0
392,2140003017934,新規,0,2022-07-20,2022-07-20,ひょうご環境エネルギー合同会社,,合同会社,兵庫県,神戸市中央区,栄町通４丁目２番１８号,,28,110,6500023,,,,,,,2022-07-20,1,,,,,ヒョウゴカンキョウエネルギー,0
394,2140005026248,新規,0,2022-07-20,2022-07-20,一般社団法人ＨＷＰＬ　ＫＯＢＥ,,その他の設立登記法人,兵庫県,神戸市中央区,国香通３丁目１番１１号,,28,110,6510066,,,,,,,2022-07-20,1,,,,,エイチダブルピーエルコウベ,0
407,2180001152275,新規,0,2022-07-20,2022-07-20,株式会社Ｙ’ｓ　ａｉｌｅｓ,,株式会社,愛知県,名古屋市西区,上名古屋３丁目７番１５号,,23,104,4510025,,,,,,,2022-07-20,1,,,,,ワイズエール,0
408,2180001152283,新規,0,2022-07-20,2022-07-20,炉鼎技株式会社,,株式会社,愛知県,名古屋市中村区,中島町２丁目６番８号,,23,105,4530022,,,,,,,2022-07-20,1,,,,,ロテイギ,0
427,2260001037055,新規,0,2022-07-20,2022-07-20,株式会社倉敷有城学校給食サービス,,株式会社,岡山県,倉敷市,西中新田６３２番地１,,33,202,7100833,,,,,,,2022-07-20,1,,,,,クラシキアルキガッコウキュウショクサービス,0
428,2260001037063,新規,0,2022-07-20,2022-07-20,株式会社つくし,,株式会社,岡山県,岡山市南区,福富西２丁目２３番４０号,,33,104,7028031,,,,,,,2022-07-20,1,,,,,ツクシ,0
434,2290001098111,新規,0,2022-07-20,2022-07-20,パールプラス埼玉株式会社,,株式会社,福岡県,福岡市中央区,天神３丁目１２番２４－３０１号,,40,133,8100001,,,,,,,2022-07-20,1,,,,,パールプラスサイタマ,0
435,2290001098326,新規,0,2022-07-20,2022-07-20,柳川不動産販売株式会社,,株式会社,福岡県,柳川市,筑紫町１８４番地１,,40,207,8320077,,,,,,,2022-07-20,1,,,,,ヤナガワフドウサンハンバイ,0
436,2290003012755,新規,0,2022-07-20,2022-07-20,合同会社篠田,,合同会社,福岡県,福岡市中央区,笹丘１丁目９番１６号,,40,133,8100034,,,,,,,2022-07-20,1,,,,,シノダ,0
439,2290803004167,新規,0,2022-07-20,2022-07-20,合同会社ＳアンドＴ,,合同会社,福岡県,直方市,大字上頓野４９８６番地２,,40,204,8220003,,,,,,,2022-07-20,1,,,,,エスアンドテイ,0
443,2330003009441,新規,0,2022-07-20,2022-07-20,合同会社ＰＣ・システム,,合同会社,熊本県,熊本市北区,弓削６丁目２８番５３号,,43,105,8618002,,,,,,,2022-07-20,1,,,,,ピーシーシステム,0
446,2360003012178,新規,0,2022-07-20,2022-07-20,合同会社ＳｌｅｄｇｅＨａｍｍｅｒ,,合同会社,沖縄県,宜野湾市,嘉数３丁目２１－２９,,47,205,9012226,,,,,,,2022-07-20,1,,,,,スレッジハンマー,0
454,2380003005205,新規,0,2022-07-20,2022-07-20,ファイブスターアットルームズ合同会社,,合同会社,福島県,郡山市,大槻町字小金林２３番地の６７,,07,203,9630201,,,,,,,2022-07-20,1,,,,,ファイブスターアットルームズ,0
474,2430001087058,新規,0,2022-07-20,2022-07-20,株式会社あきら,,株式会社,北海道,札幌市中央区,大通西１１丁目４番地１９大通藤井ビル地下２階,,01,101,0600042,,,,,,,2022-07-20,1,,,,,アキラ,0
475,2430001087066,新規,0,2022-07-20,2022-07-20,株式会社ＳＲＫプロジェクト,,株式会社,北海道,勇払郡安平町,早来大町１１３番地２,,01,585,0591501,,,,,,,2022-07-20,1,,,,,エスアールケープロジェクト,0
476,2430001087074,新規,0,2022-07-20,2022-07-20,株式会社イタニ,,株式会社,北海道,空知郡南幌町,北町６丁目６番５号,,01,423,0690231,,,,,,,2022-07-20,1,,,,,イタニ,0
477,2430001087082,新規,0,2022-07-20,2022-07-20,株式会社ＪＰＥＸ,,株式会社,北海道,札幌市北区,北二十六条西６丁目１番３－３０２号,,01,102,0010026,,,,,,,2022-07-20,1,,,,,ジェイペックス,0
480,2480003001854,新規,0,2022-07-20,2022-07-20,合同会社新和商会,,合同会社,徳島県,徳島市,川内町上別宮東８５番地３,,36,201,7710126,,,,,,,2022-07-20,1,,,,,シンワショウカイ,0
499,3010001228207,新規,0,2022-07-20,2022-07-20,ＴＥＸＩＭ株式会社,,株式会社,東京都,中央区,京橋２丁目８番２１号仁大ビル天翔オフィス京橋７０６号室,,13,102,1040031,,,,,,,2022-07-20,1,,,,,テキシム,0
508,3010401168060,新規,0,2022-07-20,2022-07-20,株式会社Ｃｒｙｐｔｏ　Ｃｏｌｌｅｃｔｉｏｎｓ,,株式会社,東京都,港区,六本木７丁目１４番２３号ラウンドクロス六本木４Ｆクロスオフィス六本木,,13,103,1060032,,,,,,,2022-07-20,1,,,,,クリプトコレクションズ,0
509,3010401168333,新規,0,2022-07-20,2022-07-20,株式会社八七運送,,株式会社,東京都,港区,南青山２丁目２番１５号,,13,103,1070062,,,,,,,2022-07-20,1,,,,,ハチナナウンソウ,0
511,3010403028072,新規,0,2022-07-20,2022-07-20,ＹＯＣＡＹＯ合同会社,,合同会社,東京都,港区,南麻布２丁目８番５－８０４号,,13,103,1060047,,,,,,,2022-07-20,1,,,,,ヨカヨ,0
512,3010403028106,新規,0,2022-07-20,2022-07-20,合同会社ＷＯＬＢｅ,,合同会社,東京都,港区,六本木３丁目１６番８－２０３号,,13,103,1060032,,,,,,,2022-07-20,1,,,,,ヴォルベ,0
520,3010601061486,新規,0,2022-07-20,2022-07-20,株式会社染谷一家,,株式会社,東京都,江東区,南砂２丁目３番８－３２３号,,13,108,1360076,,,,,,,2022-07-20,1,,,,,ソメヤイッカ,0
528,3010901051229,新規,0,2022-07-20,2022-07-20,株式会社スマコマ,,株式会社,東京都,世田谷区,駒沢２丁目７番８号,,13,112,1540012,,,,,,,2022-07-20,1,,,,,スマコマ,0
533,3011001148535,新規,0,2022-07-20,2022-07-20,エクスチェンジ株式会社,,株式会社,東京都,渋谷区,渋谷１丁目８－６宮益坂ＳＴビル４０１,,13,113,1500002,,,,,,,2022-07-20,1,,,,,エクスチェンジ,0
534,3011001148683,新規,0,2022-07-20,2022-07-20,キャリッジ株式会社,,株式会社,東京都,渋谷区,渋谷２丁目１９－１５宮益坂ビルディング６０９,,13,113,1500002,,,,,,,2022-07-20,1,,,,,キャリッジ,0
535,3011003015072,新規,0,2022-07-20,2022-07-20,合同会社ＣＥＲＥＢＲＯＮ,,合同会社,東京都,渋谷区,恵比寿２丁目３２－１０ベラカーサ広尾５０２,,13,113,1500013,,,,,,,2022-07-20,1,,,,,セレブロン,0
537,3011101099117,新規,0,2022-07-20,2022-07-20,Ｔｏｐ　Ｇａｍｅｓ　Ｊａｐａｎ株式会社,,株式会社,東京都,新宿区,高田馬場４丁目２９番８号,,13,104,1690075,,,,,,,2022-07-20,1,,,,,トップゲームズジャパン,0
538,3011101099587,新規,0,2022-07-20,2022-07-20,Ｄａｃｈｓ株式会社,,株式会社,東京都,新宿区,西新宿７丁目５番８号ＧＯＷＡ西新宿５階,,13,104,1600023,,,,,,,2022-07-20,1,,,,,ダックス,0
546,3011301027959,新規,0,2022-07-20,2022-07-20,株式会社Ｐｒｏｘｙ　Ｃｏｄｅ,,株式会社,東京都,杉並区,浜田山１丁目１８番１８号,,13,115,1680065,,,,,,,2022-07-20,1,,,,,プロキシーコード,0
556,3012801021732,新規,0,2022-07-20,2022-07-20,Ａｑｕａｃｒａｆｔ株式会社,,株式会社,東京都,東大和市,立野１丁目１８－１６にしきビル２０３,,13,220,2070021,,,,,,,2022-07-20,1,,,,,,0
568,3020001147455,新規,0,2022-07-20,2022-07-20,株式会社ＶＩＳＱ,,株式会社,神奈川県,横浜市中区,福富町西通１番地７セントレー横浜関内６０７号室,,14,104,2310042,,,,,,,2022-07-20,1,,,,,ビスク,0
570,3020003022144,新規,0,2022-07-20,2022-07-20,合同会社ｎａｎａｉｒｏ,,合同会社,神奈川県,横浜市南区,六ツ川１丁目２９６番地１,,14,105,2320066,,,,,,,2022-07-20,1,,,,,ナナイロ,0
592,3040001124238,新規,0,2022-07-20,2022-07-20,株式会社ａｃｌａｓ,,株式会社,千葉県,千葉市緑区,大木戸町４７２番地２,,12,105,2670057,,,,,,,2022-07-20,1,,,,,アクラス,0
599,3060003004139,新規,0,2022-07-20,2022-07-20,合同会社ＩＮＤＩＡ　ＴＲＡＤＩＮＧ,,合同会社,栃木県,小山市,城北６丁目２７番地１キャッスル小山１０１号室,,09,208,3230029,,,,,,,2022-07-20,1,,,,,インデアトレーデイング,0
605,3080105006270,新規,0,2022-07-20,2022-07-20,ロワジール伊豆高原管理組合法人,,その他の設立登記法人,静岡県,伊東市,富戸１０２０番地の２９２,,22,208,4130231,,,,,,,2022-07-20,1,,,,,ロワジールイズコウゲン,0
606,3080401025965,新規,0,2022-07-20,2022-07-20,株式会社三乃丞,,株式会社,静岡県,浜松市中区,高林３丁目２番１９号,,22,131,4300907,,,,,,,2022-07-20,1,,,,,サンノジョウ,0
623,3120001247419,新規,0,2022-07-20,2022-07-20,株式会社ＫＴＫ,,株式会社,大阪府,大阪市生野区,小路東１丁目１５番１２号,,27,116,5440003,,,,,,,2022-07-20,1,,,,,ケーティーケー,0
624,3120001247484,新規,0,2022-07-20,2022-07-20,永森株式会社,,株式会社,大阪府,大阪市西成区,梅南３丁目６番２２号グランソシエ花園ＩＩ１Ｆ店舗,00127265,27,122,5570033,,,,,,,2022-07-20,1,,,,,ナガモリ,0
632,3130001072213,新規,0,2022-07-20,2022-07-20,株式会社４ＨＵＧｓラボ,,株式会社,京都府,京都市下京区,河原町通四条下る二丁目稲荷町３３４番地３ザ京都レジデンス四条河原町２０８,,26,106,6000000,,,,,,,2022-07-20,1,,,,,フォーハグラボ,0
637,3130003008041,新規,0,2022-07-20,2022-07-20,合同会社マ・マルシェ,,合同会社,京都府,福知山市,字堀２０６５番地の１,,26,201,6200000,,,,,,,2022-07-20,1,,,,,ママルシェ,0
638,3130003008082,新規,0,2022-07-20,2022-07-20,合同会社まほろば,,合同会社,京都府,京田辺市,山手東１丁目４７番地８,,26,211,6100357,,,,,,,2022-07-20,1,,,,,マホロバ,0
644,3140001126785,新規,0,2022-07-20,2022-07-20,株式会社サクラワークス,,株式会社,兵庫県,神戸市西区,宮下２丁目３番７号,,28,111,6512146,,,,,,,2022-07-20,1,,,,,サクラワークス,0
645,3140001126802,新規,0,2022-07-20,2022-07-20,株式会社ｇｒａｃｅ・ｐｌｕｓ真珠,,株式会社,兵庫県,神崎郡福崎町,西田原１８４６番地１１,,28,443,6792204,,,,,,,2022-07-20,1,,,,,グレイスプラスシンジュ,0
646,3140001126819,新規,0,2022-07-20,2022-07-20,株式会社ワァビズ,,株式会社,兵庫県,神戸市中央区,八幡通３丁目２番５号,,28,110,6510085,,,,,,,2022-07-20,1,,,,,ワァビズ,0
648,3140003017917,新規,0,2022-07-20,2022-07-20,合同会社ＮＵ,,合同会社,兵庫県,神戸市中央区,多聞通１丁目３番１１号ハイツ神戸２１１号,,28,110,6500015,,,,,,,2022-07-20,1,,,,,ヌー,0
649,3140003017925,新規,0,2022-07-20,2022-07-20,合同会社ＭＡＨＡＬＯ‐ＹＫ,,合同会社,兵庫県,宝塚市,小浜３丁目９－４,,28,214,6650827,,,,,,,2022-07-20,1,,,,,マハロワイケイ,0
653,3160003002628,新規,0,2022-07-20,2022-07-20,カナジロー合同会社,,合同会社,滋賀県,大津市,八屋戸２９６番地,,25,201,5200515,,,,,,,2022-07-20,1,,,,,カナジロー,0
664,3180001152274,新規,0,2022-07-20,2022-07-20,貿易マニア株式会社,,株式会社,愛知県,北名古屋市,鹿田神明附８６番地,,23,234,4810004,,,,,,,2022-07-20,1,,,,,ボウエキマニア,0
676,3190003004043,新規,0,2022-07-20,2022-07-20,合同会社Ｖ‐ｔｅｃｈｎｉｑｕｅ,,合同会社,三重県,津市,高茶屋小森町１４３６‐１,,24,201,5140817,,,,,,,2022-07-20,1,,,,,ブイテクニック,0
692,3260001037054,新規,0,2022-07-20,2022-07-20,株式会社ＩＮ１,,株式会社,岡山県,苫田郡鏡野町,古川１１４１番地,,33,606,7080333,,,,,,,2022-07-20,1,,,,,アイエヌワン,0
702,3290001098110,新規,0,2022-07-20,2022-07-20,パールプラス栃木株式会社,,株式会社,福岡県,福岡市中央区,天神３丁目１２番２４－３０１号,,40,133,8100001,,,,,,,2022-07-20,1,,,,,パールプラストチギ,0
703,3290001098333,新規,0,2022-07-20,2022-07-20,株式会社ブルゴス,,株式会社,福岡県,久留米市,日吉町１５番地６７第二宮考ビル地下１階,,40,203,8300017,,,,,,,2022-07-20,1,,,,,ブルゴス,0
706,3290003012754,新規,0,2022-07-20,2022-07-20,合同会社ぜるこば,,合同会社,福岡県,福岡市中央区,笹丘１丁目９番１６号,,40,133,8100034,,,,,,,2022-07-20,1,,,,,ゼルコバ,0
716,3330003009457,新規,0,2022-07-20,2022-07-20,合同会社オネスティー,,合同会社,熊本県,八代郡氷川町,野津１１７１番地１,,43,468,8694805,,,,,,,2022-07-20,1,,,,,オネスティー,0
719,3340001024911,新規,0,2022-07-20,2022-07-20,株式会社なぎふぁーむ,,株式会社,鹿児島県,鹿屋市,祓川町６３３９番地１３,,46,203,8930026,,,,,,,2022-07-20,1,,,,,ナギファーム,0
723,3340003003855,新規,0,2022-07-20,2022-07-20,合同会社ケーエス,,合同会社,鹿児島県,霧島市,隼人町松永１丁目２２２番地２,,46,218,8995112,,,,,,,2022-07-20,1,,,,,ケーエス,0
730,3360001030701,新規,0,2022-07-20,2022-07-20,株式会社Ｌｉｌｙ　Ｒｏｓｅ,,株式会社,沖縄県,中頭郡北谷町,字宮城１番地１,,47,326,9040113,,,,,,,2022-07-20,1,,,,,リリーローズ,0
734,3360003012185,新規,0,2022-07-20,2022-07-20,合同会社まもるくん,,合同会社,沖縄県,那覇市,泊１丁目８番１３号グランシャトレ崇元寺８０１,,47,201,9000012,,,,,,,2022-07-20,1,,,,,マモルクン,0
737,3370003005774,新規,0,2022-07-20,2022-07-20,合同会社ハーモニック,,合同会社,宮城県,仙台市青葉区,土樋１丁目９番６号,,04,101,9800065,,,,,,,2022-07-20,1,,,,,ハーモニック,0
738,3370003005782,新規,0,2022-07-20,2022-07-20,合同会社Ｇｒｅｅｎ　Ｌｅａｖｅｓ,,合同会社,宮城県,仙台市青葉区,高野原２丁目６番地の２７,,04,101,9893216,,,,,,,2022-07-20,1,,,,,グリーンリーブス,0
739,3380001032984,新規,0,2022-07-20,2022-07-20,株式会社Ｏ．Ｃ．Ｓ,,株式会社,福島県,いわき市,常磐関船町２丁目１番地の２３,,07,204,9728318,,,,,,,2022-07-20,1,,,,,オーシーエス,0
744,3430001087057,新規,0,2022-07-20,2022-07-20,ティーズリンク株式会社,,株式会社,北海道,札幌市手稲区,明日風５丁目１７番７号,,01,109,0060861,,,,,,,2022-07-20,1,,,,,ティーズリンク,0
745,3430001087065,新規,0,2022-07-20,2022-07-20,株式会社Ｏｒｉｅｎｓ,,株式会社,北海道,札幌市豊平区,平岸二条１０丁目２番８号,,01,105,0620932,,,,,,,2022-07-20,1,,,,,オーリエンス,0
746,3430001087073,新規,0,2022-07-20,2022-07-20,株式会社エゾノデンゲン,,株式会社,北海道,札幌市豊平区,福住一条１丁目１２番２号,,01,105,0620041,,,,,,,2022-07-20,1,,,,,エゾノデンゲン,0
749,3450001013746,新規,0,2022-07-20,2022-07-20,栄成興業株式会社,,株式会社,北海道,士別市,西四条北１丁目４０９番地１,,01,220,0950034,,,,,,,2022-07-20,1,,,,,エイセイコウギョウ,0
768,4010001228131,新規,0,2022-07-20,2022-07-20,株式会社ＺＯＵ‐ＫＩＮＧ,,株式会社,東京都,文京区,本郷２丁目２５番４号ラグジュアリーアパートメント本郷２０１,,13,105,1130033,,,,,,,2022-07-20,1,,,,,ゾウキン,0
769,4010001228189,新規,0,2022-07-20,2022-07-20,フード＆ケアデザイン株式会社,,株式会社,東京都,中央区,日本橋小網町８番２号ＢＩＺＭＡＲＫＳ日本橋茅場町１Ｆ,,13,102,1030016,,,,,,,2022-07-20,1,,,,,フードアンドケアデザイン,0
770,4010001228197,新規,0,2022-07-20,2022-07-20,株式会社ＧＬＩＦＥ,,株式会社,東京都,中央区,晴海３丁目１３番２号ＤＥＵＸ・ＴＯＵＲＳ・ＷＥＳＴタワー１２０１,,13,102,1040053,,,,,,,2022-07-20,1,,,,,グライフ,0
771,4010001228214,新規,0,2022-07-20,2022-07-20,株式会社ユニコム,,株式会社,東京都,千代田区,丸の内２丁目３番２号郵船ビルディング１階,,13,101,1000005,,,,,,,2022-07-20,1,,,,,ユニコム,0
774,4010005035284,新規,0,2022-07-20,2022-07-20,清水建設プライベートリート投資法人,,その他の設立登記法人,東京都,中央区,京橋２丁目１７番４号,,13,102,1040031,,,,,,,2022-07-20,1,,,,,シミズケンセツプライベートリート,0
778,4010401168596,新規,0,2022-07-20,2022-07-20,株式会社忍,,株式会社,東京都,港区,浜松町２丁目２番１５号浜松町ダイヤビル２階,,13,103,1050013,,,,,,,2022-07-20,1,,,,,シノブ,0
779,4010401168605,新規,0,2022-07-20,2022-07-20,株式会社アンビシャスグループ,,株式会社,東京都,港区,六本木５丁目１５番２１－１０１号,,13,103,1060032,,,,,,,2022-07-20,1,,,,,アンビシャスグループ,0
780,4010401168621,新規,0,2022-07-20,2022-07-20,株式会社ＹＫ　Ｓｏｌｕｔｉｏｎ,,株式会社,東京都,港区,麻布台３丁目４番４－４０３号,,13,103,1060041,,,,,,,2022-07-20,1,,,,,ワイケーソリューション,0
820,4011801040997,新規,0,2022-07-20,2022-07-20,株式会社ＫＳ‐ＢＯＸ,,株式会社,東京都,足立区,綾瀬３丁目１９番１６号,,13,121,1200005,,,,,,,2022-07-20,1,,,,,ケーエスボックス,0
829,4020001147421,新規,0,2022-07-20,2022-07-20,品川社中株式会社,,株式会社,神奈川県,横浜市泉区,上飯田町２９１０番地,,14,116,2450018,,,,,,,2022-07-20,1,,,,,,0
831,4020003022135,新規,0,2022-07-20,2022-07-20,合同会社Ｆｏｒｔｕｎａｔｅ,,合同会社,神奈川県,横浜市瀬谷区,橋戸３丁目２３－６９グランシャリオＥ２０１,,14,114,2460037,,,,,,,2022-07-20,1,,,,,フォーチュネイト,0
835,4021001076569,新規,0,2022-07-20,2022-07-20,株式会社マイメモリーズ,,株式会社,神奈川県,平塚市,東真土２丁目３番１８号,,14,203,2540018,,,,,,,2022-07-20,1,,,,,マイメモリーズ,0
836,4021003011961,新規,0,2022-07-20,2022-07-20,合同会社アラレ,,合同会社,神奈川県,藤沢市,大庭５５５９番地１,,14,205,2510861,,,,,,,2022-07-20,1,,,,,アラレ,0
862,4080101023426,新規,0,2022-07-20,2022-07-20,ｓｅｒｏｒｉ株式会社,,株式会社,静岡県,富士市,岩本３５９番地の２５,,22,210,4160901,,,,,,,2022-07-20,1,,,,,セロリ,0
881,4120001247467,新規,0,2022-07-20,2022-07-20,株式会社Ｆ　ＳＴＹＬＥ　ＪＡＰＡＮ,,株式会社,大阪府,大阪市淀川区,十八条３丁目１９番１０号,,27,123,5320001,,,,,,,2022-07-20,1,,,,,エフスタイルジャパン,0
882,4120001247541,新規,0,2022-07-20,2022-07-20,株式会社ＴＲＥＳ,,株式会社,大阪府,大阪市西区,西本町２丁目１番２７号,,27,106,5500005,,,,,,,2022-07-20,1,,,,,トレス,0
885,4120003022026,新規,0,2022-07-20,2022-07-20,合同会社Ｎｅｘｔ　Ｃｒｅａｔｅ　ｌｎｃ．,,合同会社,大阪府,大阪市北区,中崎西２丁目５番１８号梅田東ビル４０５号,,27,127,5300015,,,,,,,2022-07-20,1,,,,,ネクストクリエイトインコーポレーティッド,0
908,4140001126784,新規,0,2022-07-20,2022-07-20,アルテックス株式会社,,株式会社,兵庫県,三田市,つつじが丘北２丁目４番地２,,28,219,6691348,,,,,,,2022-07-20,1,,,,,アルテックス,0
909,4140001126826,新規,0,2022-07-20,2022-07-20,株式会社ＴｅａＭ,,株式会社,兵庫県,神戸市灘区,灘北通２丁目２番１号シャーメゾン灘北通１０１号室,,28,102,6570835,,,,,,,2022-07-20,1,,,,,チーム,0
910,4140005026246,新規,0,2022-07-20,2022-07-20,特定非営利活動法人花えみか,,その他の設立登記法人,兵庫県,神戸市灘区,岸地通２丁目４番１９－５０２号,,28,102,6570832,,,,,,,2022-07-20,1,,,,,ハナエミカ,0
911,4160001024383,新規,0,2022-07-20,2022-07-20,株式会社ＡＫＩＴＳＵ　ＰＬＡＮＴ,,株式会社,滋賀県,愛知郡愛荘町,豊満５２４番地２,,25,425,5291321,,,,,,,2022-07-20,1,,,,,アキツプラント,0
912,4160001024391,新規,0,2022-07-20,2022-07-20,株式会社ＥＦＣ,,株式会社,滋賀県,彦根市,東沼波町９７２番地４サンカムールＪ１－１０１,,25,202,5220027,,,,,,,2022-07-20,1,,,,,イーエフシー,0
925,4180001152273,新規,0,2022-07-20,2022-07-20,株式会社ＤＤＥＣ名古屋,,株式会社,愛知県,名古屋市千種区,田代町字四観音道東１１６番地の１０メゾン覚王山月宮殿２－２８号,,23,101,4640051,,,,,,,2022-07-20,1,,,,,ディーディーイーシーナゴヤ,0
929,4180005019857,新規,0,2022-07-20,2022-07-20,一般社団法人消防点検組合,,その他の設立登記法人,愛知県,名古屋市中区,栄１丁目１０番２号サカエスカイビル４階,,23,106,4600008,,,,,,,2022-07-20,1,,,,,ショウボウテンケンクミアイ,0
950,4250005008761,新規,0,2022-07-20,2022-07-20,特定非営利活動法人ＩＲＩＳ,,その他の設立登記法人,山口県,宇部市,末広町８番１０号,,35,202,7550014,,,,,,,2022-07-20,1,,,,,アイリス,0
957,4290001098324,新規,0,2022-07-20,2022-07-20,株式会社権丈設備,,株式会社,福岡県,福岡市博多区,東那珂１丁目１８番５号,,40,132,8120892,,,,,,,2022-07-20,1,,,,,ケンジョウセツビ,0
958,4290001098332,新規,0,2022-07-20,2022-07-20,株式会社Ｒ,,株式会社,福岡県,福岡市博多区,祇園町８番１３号第一プリンスビル１Ｆ,,40,132,8120038,,,,,,,2022-07-20,1,,,,,アール,0
959,4290003012720,新規,0,2022-07-20,2022-07-20,Ｋｉｄｍａｎ合同会社,,合同会社,福岡県,福岡市中央区,天神４丁目５番１０号チサンマンション第２天神８０２,,40,133,8100001,,,,,,,2022-07-20,1,,,,,キッドマン,0
960,4290801028744,新規,0,2022-07-20,2022-07-20,株式会社Ａｔｅｌｉｅｒ　Ｆｏｒｃｅ,,株式会社,福岡県,北九州市八幡西区,瀬板２丁目４番７号,,40,109,8070822,,,,,,,2022-07-20,1,,,,,アトリエフォース,0
965,4330001029935,新規,0,2022-07-20,2022-07-20,株式会社プラスファミリア,,株式会社,熊本県,八代市,鏡町内田１０３９－２,,43,202,8694202,,,,,,,2022-07-20,1,,,,,プラスファミリア,0
967,4340001024910,新規,0,2022-07-20,2022-07-20,株式会社住まいカンパニー,,株式会社,鹿児島県,鹿児島市,新屋敷町１６番公社ビル４０８－Ａ号室,,46,201,8920838,,,,,,,2022-07-20,1,,,,,スマイカンパニー,0
973,4360001030700,新規,0,2022-07-20,2022-07-20,農業生産法人ＳｉＲ植物ミネラル製造株式会社,,株式会社,沖縄県,宜野湾市,大謝名５丁目３番２４－１０１号,,47,205,9012225,,,,,,,2022-07-20,1,,,,,ノウギョウセイサンホウジンエスアイアールショクブツミネラルセイゾウ,0
974,4360001030709,新規,0,2022-07-20,2022-07-20,株式会社伊江島フロンティア,,株式会社,沖縄県,浦添市,内間４丁目２０番９号,,47,208,9012121,,,,,,,2022-07-20,1,,,,,イエジマフロンティア,0
975,4360003012176,新規,0,2022-07-20,2022-07-20,エーケーシー合同会社,,合同会社,沖縄県,石垣市,字新川８３４番地１０－１０３,,47,207,9070024,,,,,,,2022-07-20,1,,,,,エーケーシー,0
977,4370003005781,新規,0,2022-07-20,2022-07-20,合同会社ＪＩＮカンパニー,,合同会社,宮城県,多賀城市,笠神４丁目１－８,,04,209,9850831,,,,,,,2022-07-20,1,,,,,ジンカンパニー,0
980,4380001032975,新規,0,2022-07-20,2022-07-20,株式会社Ｔｒｕｍｐ　Ｆｕｋｕｓｈｉｍａ,,株式会社,福島県,郡山市,田村町桜ケ丘２丁目２７３番地,,07,203,9630723,,,,,,,2022-07-20,1,,,,,トランプフクシマ,0
981,4380003005236,新規,0,2022-07-20,2022-07-20,合同会社三開,,合同会社,福島県,郡山市,富田町字大十内８５番地の１７０,,07,203,9638041,,,,,,,2022-07-20,1,,,,,ミチヒラキ,0
993,4430001087072,新規,0,2022-07-20,2022-07-20,株式会社踊,,株式会社,北海道,札幌市豊平区,美園三条７丁目１番１９号ホシオカビル４階,,01,105,0620003,,,,,,,2022-07-20,1,,,,,オドリ,0
997,4500001024357,新規,0,2022-07-20,2022-07-20,株式会社ＬｏｃａｌＡｒｃｔ,,株式会社,愛媛県,松山市,千舟町５丁目３番１７号市駅前ビル４階,,38,201,7900011,,,,,,,2022-07-20,1,,,,,ローカルアクト,0
1003,5010001228139,新規,0,2022-07-20,2022-07-20,株式会社ツッチーニ,,株式会社,東京都,文京区,小日向４丁目２番１３号,,13,105,1120006,,,,,,,2022-07-20,1,,,,,ツッチーニ,0
1004,5010001228196,新規,0,2022-07-20,2022-07-20,株式会社Ｗａｒｅ　Ｆａｒｍ　Ｍａｎａｇｅｍｅｎｔ,,株式会社,東京都,千代田区,富士見２丁目２番１２号,,13,101,1020071,,,,,,,2022-07-20,1,,,,,ウェアファームマネジメント,0
1005,5010001228213,新規,0,2022-07-20,2022-07-20,株式会社ミックスナッツ,,株式会社,東京都,中央区,銀座１丁目１２番４号Ｎ＆ＥＢＬＤ．６Ｆ,,13,102,1040061,,,,,,,2022-07-20,1,,,,,ミックスナッツ,0
1008,5010003038206,新規,0,2022-07-20,2022-07-20,合同会社セン企画事務所,,合同会社,東京都,千代田区,神田須田町１丁目１４番地ヒューリック神田須田町ビル１Ｆ－４Ｆ,,13,101,1010041,,,,,,,2022-07-20,1,,,,,センキカクジムショ,0
1018,5010401168372,新規,0,2022-07-20,2022-07-20,奈川株式会社,,株式会社,東京都,港区,白金台２丁目２６番９号,,13,103,1080071,,,,,,,2022-07-20,1,,,,,ナカワ,0
1019,5010401168463,新規,0,2022-07-20,2022-07-20,株式会社ａｎｄ　Ａ　ｃｏｍｐａｎｙ,,株式会社,東京都,港区,虎ノ門３丁目４番８号,,13,103,1050001,,,,,,,2022-07-20,1,,,,,アンドエーカンパニー,0
1020,5010401168612,新規,0,2022-07-20,2022-07-20,株式会社ｐｅｎｄｕｌｕｍ,,株式会社,東京都,港区,北青山３丁目８番１１号,,13,103,1070061,,,,,,,2022-07-20,1,,,,,ペンデュラム,0
1021,5010401168620,新規,0,2022-07-20,2022-07-20,株式会社ＯＲＧＡＮＩＣ　ＨＯＵＳＥ,,株式会社,東京都,港区,港南２丁目１１番１８号天王洲デュープレックス１０１,,13,103,1080075,,,,,,,2022-07-20,1,,,,,オーガニックハウス,0
1026,5010405021172,新規,0,2022-07-20,2022-07-20,一般社団法人誠心会,,その他の設立登記法人,東京都,港区,三田２丁目３番３４－７０４号,,13,103,1080073,,,,,,,2022-07-20,1,,,,,セイシンカイ,0
1029,5010501049126,新規,0,2022-07-20,2022-07-20,株式会社日本ビルド,,株式会社,東京都,台東区,元浅草３丁目３番５号,,13,106,1110041,,,,,,,2022-07-20,1,,,,,ニホンビルド,0
1031,5010505003327,新規,0,2022-07-20,2022-07-20,一般社団法人日本旅館協会東京都支部,,その他の設立登記法人,東京都,台東区,東上野１丁目２１－１源田ビル２階,,13,106,1100015,,,,,,,2022-07-20,1,,,,,ニホンリョカンキョウカイトウキョウトシブ,0
1033,5010601061492,新規,0,2022-07-20,2022-07-20,ＲＩＯＮＡ株式会社,,株式会社,東京都,墨田区,石原１丁目７－１４稲垣マンション５０２号室,,13,107,1300011,,,,,,,2022-07-20,1,,,,,リオナ,0
1040,5011001148715,新規,0,2022-07-20,2022-07-20,株式会社Ａｖｅｃ,,株式会社,東京都,渋谷区,神宮前６丁目２３番４号桑野ビル２階,,13,113,1500001,,,,,,,2022-07-20,1,,,,,アベック,0
1048,5011201023973,新規,0,2022-07-20,2022-07-20,株式会社ＳＹＭ,,株式会社,東京都,中野区,中野５丁目５２番１５号中野ブロードウェイ３０２号,,13,114,1640001,,,,,,,2022-07-20,1,,,,,シム,0
1050,5011301027965,新規,0,2022-07-20,2022-07-20,株式会社ヴァリアス,,株式会社,東京都,杉並区,今川３丁目２８番１９号,,13,115,1670035,,,,,,,2022-07-20,1,,,,,ヴァリアス,0
1068,5020001147362,新規,0,2022-07-20,2022-07-20,ドリミット株式会社,,株式会社,神奈川県,川崎市川崎区,貝塚１丁目３番２－１１０３号,,14,131,2100014,,,,,,,2022-07-20,1,,,,,ドリミット,0
1069,5020001147420,新規,0,2022-07-20,2022-07-20,株式会社Ｍｅｄａｒｕｒｉｍｏ,,株式会社,神奈川県,川崎市川崎区,貝塚１丁目２番１６－１号,,14,131,2100014,,,,,,,2022-07-20,1,,,,,メダルリモ,0
1070,5020001147429,新規,0,2022-07-20,2022-07-20,Ｙ＆Ｋ株式会社,,株式会社,神奈川県,川崎市中原区,下沼部１７７８番地,,14,133,2110011,,,,,,,2022-07-20,1,,,,,ワイアンドケイ,0
1071,5020001147445,新規,0,2022-07-20,2022-07-20,株式会社ＴＥＳＯＲＯ,,株式会社,神奈川県,横浜市青葉区,美しが丘５丁目２８番地５４たまプラーザ美しが丘パーク・ホームズ弐番館１０５号,,14,117,2250002,,,,,,,2022-07-20,1,,,,,テソロ,0
1072,5020001147453,新規,0,2022-07-20,2022-07-20,株式会社あるとほっと,,株式会社,神奈川県,横浜市泉区,和泉町７３１５番地１１エイムハイツひなた山３０１号室,,14,116,2450016,,,,,,,2022-07-20,1,,,,,アルトホット,0
1075,5021001076568,新規,0,2022-07-20,2022-07-20,三栄横須賀ソーティング株式会社,,株式会社,神奈川県,横須賀市,追浜本町１丁目１２０番地２１ＨＩＫＡＲＩマンション２０１,,14,201,2370068,,,,,,,2022-07-20,1,,,,,サンエイヨコスカソーティング,0
1076,5021003011952,新規,0,2022-07-20,2022-07-20,合同会社オオタケ,,合同会社,神奈川県,伊勢原市,東大竹７２３番地,,14,214,2591133,,,,,,,2022-07-20,1,,,,,,0
1080,5030001149234,新規,0,2022-07-20,2022-07-20,株式会社Ｑｕｅｅｎｓ　Ｂｒａｉｎ,,株式会社,埼玉県,春日部市,粕壁３丁目２番２号ワコーレ春日部ＩＩＩ－３０４,00127264,11,214,3440061,,,,,,,2022-07-20,1,,,,,クイーンズブレイン,0
1097,5080001025091,新規,0,2022-07-20,2022-07-20,株式会社Ｙ’Ｓ設備計画,,株式会社,静岡県,静岡市葵区,追手町１０番１０４号,,22,101,4200853,,,,,,,2022-07-20,1,,,,,ワイエスセツビケイカク,0
1099,5110001036829,新規,0,2022-07-20,2022-07-20,Ｊマテ．損保サービス株式会社,,株式会社,新潟県,上越市,木田２丁目７番１１号,,15,222,9430805,,,,,,,2022-07-20,1,,,,,ジョーマテソンポサービス,0
1108,5120001247318,新規,0,2022-07-20,2022-07-20,奇楽株式会社,,株式会社,大阪府,大阪市城東区,鴫野西２丁目６番１－７０２号,,27,118,5360014,,,,,,,2022-07-20,1,,,,,キラク,0
1109,5120001247391,新規,0,2022-07-20,2022-07-20,ＳＷｉｓｅ株式会社,,株式会社,大阪府,大阪市北区,芝田２丁目８－１１共栄ビル３階,,27,127,5300012,,,,,,,2022-07-20,1,,,,,スワイズ,0
1115,5120005023070,新規,0,2022-07-20,2022-07-20,特定非営利活動法人国際交流倶楽部ＧＡＩＡ,,その他の設立登記法人,大阪府,大阪市都島区,友渕町１丁目５－１０－１１０４号室,,27,102,5340016,,,,,,,2022-07-20,1,,,,,コクサイコウリュウクラブガイア,0
1116,5120005023087,新規,0,2022-07-20,2022-07-20,医療法人翔成会,,その他の設立登記法人,大阪府,大阪市西区,北堀江１丁目３番２４号ＬｕｉｒｅＫｉｔａｈｏｒｉｅ１階,,27,106,5500014,,,,,,,2022-07-20,1,,,,,ショウセイカイ,0
1118,5120101065941,新規,0,2022-07-20,2022-07-20,株式会社Ｌｉｅｎ,,株式会社,大阪府,岸和田市,小松里町２５１７番地３階,,27,202,5960821,,,,,,,2022-07-20,1,,,,,リアン,0
1122,5122001036080,新規,0,2022-07-20,2022-07-20,株式会社海人,,株式会社,大阪府,東大阪市,寺前町１丁目４番２９号,,27,227,5770845,,,,,,,2022-07-20,1,,,,,カイト,0
1123,5122001036089,新規,0,2022-07-20,2022-07-20,株式会社ＣＯＵＲＡＧＥ,,株式会社,大阪府,東大阪市,箱殿町５－３,,27,227,5798038,,,,,,,2022-07-20,1,,,,,カレッジ,0
1126,5122003002378,新規,0,2022-07-20,2022-07-20,合同会社祐,,合同会社,大阪府,八尾市,恩智中町２丁目２３番地Ａ２０２号,,27,212,5810883,,,,,,,2022-07-20,1,,,,,タスク,0
1138,5140001126775,新規,0,2022-07-20,2022-07-20,Ｊａｐａｎ　Ｉｎｆｉｎｉｔｅ株式会社,,株式会社,兵庫県,神戸市中央区,旭通２丁目１０番１８－４０２号,,28,110,6510095,,,,,,,2022-07-20,1,,,,,ジャパンインフィニット,0
1139,5140001126791,新規,0,2022-07-20,2022-07-20,ロジスター株式会社,,株式会社,兵庫県,神戸市長田区,細田町３丁目７－５（３階）,,28,106,6530835,,,,,,,2022-07-20,1,,,,,ロジスター,0
1140,5140001126817,新規,0,2022-07-20,2022-07-20,株式会社ＮＯＶＡ　ＤＥＰＯＲＴＡＲＥ,,株式会社,兵庫県,加古川市,加古川町粟津７１０－３,,28,210,6750039,,,,,,,2022-07-20,1,,,,,ノヴァデポルターレ,0
1142,5140003017907,新規,0,2022-07-20,2022-07-20,ｉＴｔｉｍ合同会社,,合同会社,兵庫県,神戸市中央区,中町通３丁目１－１６サンビル５０２,,28,110,6500027,,,,,,,2022-07-20,1,,,,,アイティム,0
1143,5140003017923,新規,0,2022-07-20,2022-07-20,合同会社ＭＡＹ,,合同会社,兵庫県,加古川市,加古川町南備後１－９,,28,210,6750033,,,,,,,2022-07-20,1,,,,,メイ,0
1144,5160001024390,新規,0,2022-07-20,2022-07-20,株式会社宮下工業,,株式会社,滋賀県,彦根市,岡町１２番地（４１３号）,,25,202,5220037,,,,,,,2022-07-20,1,,,,,ミヤシタコウギョウ,0
1157,5180001152264,新規,0,2022-07-20,2022-07-20,株式会社きずな少額短期保険設立準備会社,,株式会社,愛知県,名古屋市天白区,植田東１丁目１０９番地,,23,116,4680006,,,,,,,2022-07-20,1,,,,,キズナショウガクタンキホケンセツリツジュンビガイシャ,0
1158,5180001152272,新規,0,2022-07-20,2022-07-20,株式会社ＬＥ　ＭＩＬＩＥＵ　ＪＡＰＯＮ,,株式会社,愛知県,名古屋市天白区,御幸山７１３番地の２（パーク・コート八事御幸山３０４号）,,23,116,4680075,,,,,,,2022-07-20,1,,,,,ルミリユウジャポン,0
1163,5180301036456,新規,0,2022-07-20,2022-07-20,株式会社桐山開発,,株式会社,愛知県,豊田市,吉原町鶴喰１７番地１１,,23,211,4730916,,,,,,,2022-07-20,1,,,,,キリヤマカイハツ,0
1164,5180303005401,新規,0,2022-07-20,2022-07-20,寄本組合同会社,,合同会社,愛知県,豊川市,平尾町神田１４番地の２,,23,207,4420863,,,,,,,2022-07-20,1,,,,,ヨリモトグミ,0
1165,5190001029627,新規,0,2022-07-20,2022-07-20,株式会社ＣＪビルド,,株式会社,三重県,桑名市,大字五反田１２５８番地７,,24,205,5110946,,,,,,,2022-07-20,1,,,,,シィージェービルド,0
1175,5230003001892,新規,0,2022-07-20,2022-07-20,合同会社たてやま産業社,,合同会社,富山県,中新川郡立山町,高原八ツ屋１６１番地,,16,323,9300268,,,,,,,2022-07-20,1,,,,,タテヤマサンギョウシャ,0
1192,5290001098109,新規,0,2022-07-20,2022-07-20,パールプラス愛知株式会社,,株式会社,福岡県,福岡市中央区,天神３丁目１２番２４－３０１号,,40,133,8100001,,,,,,,2022-07-20,1,,,,,パールプラスアイチ,0
1193,5290001098331,新規,0,2022-07-20,2022-07-20,株式会社ＫＥＥＰ　Ｓｉｉ,,株式会社,福岡県,大川市,大字榎津８９番地４,,40,212,8310004,,,,,,,2022-07-20,1,,,,,キープシー,0
1196,5290801028719,新規,0,2022-07-20,2022-07-20,株式会社オノレインボー,,株式会社,福岡県,北九州市八幡西区,岡田町３－３２（１０１）,,40,109,8060033,,,,,,,2022-07-20,1,,,,,オノレインボー,0
1197,5290801028743,新規,0,2022-07-20,2022-07-20,株式会社ふらっと,,株式会社,福岡県,北九州市八幡西区,大浦１丁目１番３号－４０２,,40,109,8070874,,,,,,,2022-07-20,1,,,,,フラット,0
1203,5310005008622,新規,0,2022-07-20,2022-07-20,一般社団法人健康長寿日本一ながさき研究所,,その他の設立登記法人,長崎県,壱岐市,郷ノ浦町片原触１３７０番地１,,42,210,8115136,,,,,,,2022-07-20,1,,,,,ケンコウチョウジュニホンイチナガサキケンキュウジョ,0
1204,5330001029934,新規,0,2022-07-20,2022-07-20,Ｅｓｔｒｅｍｏ　Ｔａｃｔｉｃｓ　Ｕｎｄｏｕｂｔｅｄ株式会社,,株式会社,熊本県,熊本市東区,小峯３丁目２番１１５号,,43,102,8620933,,,,,,,2022-07-20,1,,,,,エストレーモタクティクスアンダウティドゥ,0
1205,5330001029942,新規,0,2022-07-20,2022-07-20,株式会社藤本蓮園,,株式会社,熊本県,熊本市西区,沖新町４７２３番地,,43,103,8615273,,,,,,,2022-07-20,1,,,,,フジモトハスエン,0
1207,5330003009455,新規,0,2022-07-20,2022-07-20,合同会社ＬＵＢ,,合同会社,熊本県,熊本市中央区,新町１丁目５番２０－４０２号,,43,101,8600004,,,,,,,2022-07-20,1,,,,,ラボ,0
1216,5360001030716,新規,0,2022-07-20,2022-07-20,ジャクソン株式会社,,株式会社,沖縄県,那覇市,前島３丁目１番２１号ｅ－ｂｏｘ前島ビル１Ｆ,,47,201,9000016,,,,,,,2022-07-20,1,,,,,ジャクソン,0
1217,5360005006687,新規,0,2022-07-20,2022-07-20,司法書士法人あかはし,,その他の設立登記法人,沖縄県,中頭郡読谷村,字楚辺１２７９番地７,,47,324,9040304,,,,,,,2022-07-20,1,,,,,アカハシ,0
1218,5370003005780,新規,0,2022-07-20,2022-07-20,合同会社セラス,,合同会社,宮城県,栗原市,志波姫南郷蓬田１番地,00127258,04,213,9895611,,,,,,,2022-07-20,1,,,,,セラス,0
1221,5380003005243,新規,0,2022-07-20,2022-07-20,ａｎｔ合同会社,,合同会社,福島県,二本松市,上川崎字楢木１１番地,,07,210,9691512,,,,,,,2022-07-20,1,,,,,アント,0
1227,5410001013236,新規,0,2022-07-20,2022-07-20,株式会社Ｏｒａｉｅ　ｄａ　Ｍａｍａｚａｍｅ,,株式会社,秋田県,秋田市,泉北４丁目１７番２６号,,05,201,0100916,,,,,,,2022-07-20,1,,,,,オライエダママザメ,0
1232,5430001087022,新規,0,2022-07-20,2022-07-20,株式会社ヒカリデンキ,,株式会社,北海道,苫小牧市,拓勇西町１丁目１３番３０号,,01,213,0591302,,,,,,,2022-07-20,1,,,,,ヒカリデンキ,0
1233,5430001087047,新規,0,2022-07-20,2022-07-20,株式会社武千,,株式会社,北海道,登別市,柏木町４丁目３３番地２４,,01,230,0590017,,,,,,,2022-07-20,1,,,,,タケチ,0
1234,5430001087146,新規,0,2022-07-20,2022-07-20,株式会社ストローブ,,株式会社,北海道,札幌市中央区,宮の森三条５丁目６番１９号,,01,101,0640953,,,,,,,2022-07-20,1,,,,,ストローブ,0
1243,5480005006907,新規,0,2022-07-20,2022-07-20,一般社団法人ＪＯエナジー,,その他の設立登記法人,徳島県,徳島市,沖浜町北畑５１３番地の３,,36,201,7708051,,,,,,,2022-07-20,1,,,,,ジェイオーエナジー,0
1244,5500001024356,新規,0,2022-07-20,2022-07-20,株式会社きこりのどい,,株式会社,愛媛県,上浮穴郡久万高原町,上野尻甲９８９,,38,386,7911206,,,,,,,2022-07-20,1,,,,,キコリノドイ,0
1245,5500003002863,新規,0,2022-07-20,2022-07-20,慶和合同会社,,合同会社,愛媛県,今治市,別名５６１－１０,,38,202,7940065,,,,,,,2022-07-20,1,,,,,ケイワ,0
1246,5500005008512,新規,0,2022-07-20,2022-07-20,行政書士法人いよリーガル,,その他の設立登記法人,愛媛県,松山市,三町３丁目１２番１４号,,38,201,7900914,,,,,,,2022-07-20,1,,,,,イヨリーガル,0
1249,6010001228204,新規,0,2022-07-20,2022-07-20,モンドパルコンサルティング株式会社,,株式会社,東京都,中央区,日本橋２丁目１番３号,,13,102,1030027,,,,,,,2022-07-20,1,,,,,モンドパルコンサルティング,0
1258,6010401168371,新規,0,2022-07-20,2022-07-20,日特株式会社,,株式会社,東京都,港区,白金台２丁目２６番９号,,13,103,1080071,,,,,,,2022-07-20,1,,,,,ニットク,0
1260,6010403028103,新規,0,2022-07-20,2022-07-20,合同会社Ｔｉｍｌ,,合同会社,東京都,港区,南青山２丁目２番１５号,,13,103,1070062,,,,,,,2022-07-20,1,,,,,ティムル,0
1269,6010601061517,新規,0,2022-07-20,2022-07-20,ＤＳＣインターナショナル株式会社,,株式会社,東京都,墨田区,石原４丁目１４番７号アルク１Ｆ,,13,107,1300011,,,,,,,2022-07-20,1,,,,,ディーエスシーインターナショナル,0
1273,6010703006329,新規,0,2022-07-20,2022-07-20,伊セ六ホールディングス合同会社,,合同会社,東京都,品川区,上大崎３丁目１番１号目黒セントラルスクエア１５階,,13,109,1410021,,,,,,,2022-07-20,1,,,,,イセロクホールディングス,0
1287,6011001148689,新規,0,2022-07-20,2022-07-20,株式会社ゴービヨンド,,株式会社,東京都,目黒区,目黒３丁目１３番２７号,,13,110,1530063,,,,,,,2022-07-20,1,,,,,ゴービヨンド,0
1292,6011103011919,新規,0,2022-07-20,2022-07-20,合同会社Ｖｉｖｉｄ　Ｅｎｔｅｒｔａｉｎｍｅｎｔ,,合同会社,東京都,新宿区,愛住町５－２６アムス四谷三丁目３０７,,13,104,1600005,,,,,,,2022-07-20,1,,,,,ビビッドエンターテイメント,0
1295,6011301027956,新規,0,2022-07-20,2022-07-20,株式会社中山設備,,株式会社,東京都,杉並区,松庵１丁目１３番１７－４０６号,,13,115,1670054,,,,,,,2022-07-20,1,,,,,ナカヤマセツビ,0
1296,6011303004474,新規,0,2022-07-20,2022-07-20,合同会社Ｑ　Ｂｒｉｄｇｅ,,合同会社,東京都,杉並区,西荻北１丁目１３番１号,,13,115,1670042,,,,,,,2022-07-20,1,,,,,キューブリッジ,0
1297,6011501028291,新規,0,2022-07-20,2022-07-20,株式会社スタジオペガサス,,株式会社,東京都,北区,滝野川３丁目２３番７号,,13,117,1140023,,,,,,,2022-07-20,1,,,,,スタジオペガサス,0
1301,6012401039437,新規,0,2022-07-20,2022-07-20,株式会社ＰｌｕｓＵ,,株式会社,東京都,調布市,仙川町１丁目１２番地１３,,13,208,1820002,,,,,,,2022-07-20,1,,,,,プラスユー,0
1303,6012403005486,新規,0,2022-07-20,2022-07-20,合同会社まりたま,,合同会社,東京都,稲城市,若葉台１丁目２３番地若葉台ザ・レジデントパークス７０１号,,13,225,2060824,,,,,,,2022-07-20,1,,,,,,0
1305,6012701017150,新規,0,2022-07-20,2022-07-20,株式会社ＴＪ‐ｍｉｃｒｏ,,株式会社,東京都,小平市,仲町６８３番地の１１,,13,211,1870042,,,,,,,2022-07-20,1,,,,,ティージェーマイクロ,0
1307,6012803002843,新規,0,2022-07-20,2022-07-20,静連合同会社,,合同会社,東京都,日野市,日野本町３丁目１４－１８谷井ビル４Ｆ４０１,,13,212,1910011,,,,,,,2022-07-20,1,,,,,セイレン,0
1310,6013301049393,新規,0,2022-07-20,2022-07-20,株式会社アテナ,,株式会社,東京都,豊島区,南池袋３丁目１３番７号ビジネスＶＩＰ池袋５０２,,13,116,1710022,,,,,,,2022-07-20,1,,,,,アテナ,0
1314,6020001147403,新規,0,2022-07-20,2022-07-20,株式会社ハピキャン,,株式会社,神奈川県,横浜市青葉区,鴨志田町１１７５－２,,14,117,2270033,,,,,,,2022-07-20,1,,,,,ハピキャン,0
1321,6021001076567,新規,0,2022-07-20,2022-07-20,Ｇ．Ｓ株式会社,,株式会社,神奈川県,相模原市緑区,原宿南２丁目２４番地７,,14,151,2520103,,,,,,,2022-07-20,1,,,,,ジーエス,0
1340,6040001124318,新規,0,2022-07-20,2022-07-20,株式会社Ｇ,,株式会社,千葉県,浦安市,北栄３丁目８番１－４０７号,,12,227,2790002,,,,,,,2022-07-20,1,,,,,ジー,0
1341,6040001124326,新規,0,2022-07-20,2022-07-20,無雲斎株式会社,,株式会社,千葉県,柏市,柏３丁目８番１１号落合ビル３０２号室,,12,217,2770005,,,,,,,2022-07-20,1,,,,,ムウンサイ,0
1345,6040003020457,新規,0,2022-07-20,2022-07-20,ＧＬＯＢＡＬ　ＥＸＰＯＲＴＳ合同会社,,合同会社,千葉県,山武市,椎崎１４３８番地５４,,12,237,2891205,,,,,,,2022-07-20,1,,,,,グローバルエキスポート,0
1347,6050001051429,新規,0,2022-07-20,2022-07-20,株式会社山口自動車解体,,株式会社,茨城県,石岡市,山崎１０８１番地２７,,08,205,3150125,,,,,,,2022-07-20,1,,,,,ヤマグチジドウシャカイタイ,0
1354,6050003006678,新規,0,2022-07-20,2022-07-20,合同会社ラパンブロン,,合同会社,茨城県,龍ケ崎市,久保台１丁目１番地３５,,08,208,3010001,,,,,,,2022-07-20,1,,,,,ラパンブロン,0
1358,6080401025962,新規,0,2022-07-20,2022-07-20,株式会社ワークナビ浜松,,株式会社,静岡県,浜松市中区,田町３２７番地２４万年橋パークビル５階,,22,131,4300944,,,,,,,2022-07-20,1,,,,,ワークナビハママツ,0
1377,6120901046272,新規,0,2022-07-20,2022-07-20,株式会社鰻天,,株式会社,大阪府,吹田市,春日２丁目２５番１－３１６号,,27,205,5650853,,,,,,,2022-07-20,1,,,,,マンテン,0
1379,6120903004245,新規,0,2022-07-20,2022-07-20,合同会社なないろ,,合同会社,大阪府,茨木市,上穂積４丁目３番８号の２,,27,211,5670036,,,,,,,2022-07-20,1,,,,,ナナイロ,0
1404,6140001126782,新規,0,2022-07-20,2022-07-20,えん株式会社,,株式会社,兵庫県,神戸市兵庫区,熊野町１丁目１番７号,,28,105,6520064,,,,,,,2022-07-20,1,,,,,エン,0
1405,6140001126790,新規,0,2022-07-20,2022-07-20,株式会社河野土地管理事務所,,株式会社,兵庫県,神戸市北区,桂木２丁目２１番地の３,,28,109,6511223,,,,,,,2022-07-20,1,,,,,コウノトチカンリジムショ,0
1406,6140001126799,新規,0,2022-07-20,2022-07-20,株式会社一二三,,株式会社,兵庫県,加古川市,新神野１丁目１１番７号,,28,210,6750008,,,,,,,2022-07-20,1,,,,,ヒフミ,0
1411,6140003017922,新規,0,2022-07-20,2022-07-20,ＴＨ合同会社,,合同会社,兵庫県,神戸市中央区,古湊町一丁目２－１５モアライフ神戸１０１,,28,110,6500000,,,,,,,2022-07-20,1,,,,,ティーエイチ,0
1417,6180003024056,新規,0,2022-07-20,2022-07-20,合同会社えあとん,,合同会社,愛知県,名古屋市中川区,尾頭橋１丁目１－３５シティコーポ尾頭橋３－５０２,,23,110,4540012,,,,,,,2022-07-20,1,,,,,エアトン,0
1420,6200001040291,新規,0,2022-07-20,2022-07-20,株式会社Ｇｒｏｗｉｔｈ,,株式会社,岐阜県,美濃加茂市,古井町下古井２９８６－１４,,21,211,5050034,,,,,,,2022-07-20,1,,,,,グロウウィス,0
1427,6200003005623,新規,0,2022-07-20,2022-07-20,岐阜総合設備合同会社,,合同会社,岐阜県,中津川市,千旦林８１０番地の１４,,21,206,5099131,,,,,,,2022-07-20,1,,,,,ギフソウゴウセツビ,0
1432,6230001019457,新規,0,2022-07-20,2022-07-20,株式会社Ｍ・Ｆ・Ｃ,,株式会社,富山県,中新川郡立山町,三ツ塚新１１４番地,,16,323,9300266,,,,,,,2022-07-20,1,,,,,エムエフシー,0
1437,6250003003119,新規,0,2022-07-20,2022-07-20,合同会社エクラ,,合同会社,山口県,山口市,三の宮１丁目７番４３号,,35,203,7530023,,,,,,,2022-07-20,1,,,,,エクラ,0
1445,6290801028734,新規,0,2022-07-20,2022-07-20,株式会社ヤマト,,株式会社,福岡県,築上郡上毛町,大字下唐原２１４８番地９２,,40,646,8710923,,,,,,,2022-07-20,1,,,,,ヤマト,0
1446,6290801028742,新規,0,2022-07-20,2022-07-20,株式会社Ｒ＆Ｋ,,株式会社,福岡県,北九州市小倉北区,金鶏町１１番２９号,,40,106,8030843,,,,,,,2022-07-20,1,,,,,アールアンドケイ,0
1448,6320001019217,新規,0,2022-07-20,2022-07-20,株式会社Ｆｏｒｅｓｔ　Ｂａｓｅ,,株式会社,大分県,大分市,大在中央２丁目８番３号,,44,201,8700251,,,,,,,2022-07-20,1,,,,,フォレストベース,0
1449,6320003003862,新規,0,2022-07-20,2022-07-20,合同会社ＳＣＲＥＥＮ　ＳＨＯＴ,,合同会社,大分県,日田市,天瀬町赤岩７番地１４,,44,204,8794202,,,,,,,2022-07-20,1,,,,,スクリーンショット,0
1453,6330001029941,新規,0,2022-07-20,2022-07-20,福＿商事株式会社,00127257,株式会社,熊本県,熊本市中央区,渡鹿５丁目１０－３０－６０２号,,43,101,8620970,,,,,,,2022-07-20,1,,,,,フクキンショウジ,0
1456,6340001024909,新規,0,2022-07-20,2022-07-20,ワンスポット株式会社,,株式会社,鹿児島県,鹿児島市,田上８丁目１３番６８号,,46,201,8900034,,,,,,,2022-07-20,1,,,,,ワンスポット,0
1461,6360003012182,新規,0,2022-07-20,2022-07-20,合同会社アーキテクトＰＬＵＳ　ＪＯＹ,,合同会社,沖縄県,島尻郡与那原町,字与那原３８５８－２,,47,348,9011303,,,,,,,2022-07-20,1,,,,,アーキテクトプラスジョイ,0
1472,6380003005242,新規,0,2022-07-20,2022-07-20,合同会社オートラベス,,合同会社,福島県,双葉郡楢葉町,大字山田岡字堂ノ下６番４,,07,542,9790513,,,,,,,2022-07-20,1,,,,,オートラベス,0
1480,6430001087046,新規,0,2022-07-20,2022-07-20,株式会社Ｙ・Ｃ,,株式会社,北海道,札幌市北区,新琴似九条３丁目５番１９号,,01,102,0010909,,,,,,,2022-07-20,1,,,,,ワイシー,0
1481,6430001087054,新規,0,2022-07-20,2022-07-20,株式会社ＡＰＴ,,株式会社,北海道,北広島市,大曲南ヶ丘１番地１５,,01,234,0611100,,,,,,,2022-07-20,1,,,,,エーピーティー,0
1482,6430001087062,新規,0,2022-07-20,2022-07-20,株式会社ｕｋｎｏｗ,,株式会社,北海道,石狩市,新港南１丁目２８番１８号,,01,235,0613244,,,,,,,2022-07-20,1,,,,,ウノウ,0
1483,6430001087070,新規,0,2022-07-20,2022-07-20,株式会社北勝興建,,株式会社,北海道,札幌市清田区,北野二条３丁目１２番１２号,,01,110,0040862,,,,,,,2022-07-20,1,,,,,ホクショウコウケン,0
1487,6440001009123,新規,0,2022-07-20,2022-07-20,株式会社Ｕｃａｒｇｏ,,株式会社,北海道,北斗市,七重浜１丁目５番１９号,,01,236,0490111,,,,,,,2022-07-20,1,,,,,ユーカーゴ,0
1491,6500001024355,新規,0,2022-07-20,2022-07-20,株式会社まるず,,株式会社,愛媛県,松山市,中村３丁目３番１号,,38,201,7900964,,,,,,,2022-07-20,1,,,,,マルズ,0
1492,6700150110951,新規,0,2022-07-20,2022-07-20,ＯＳＡＫＡ　ＣＥＹＬＯＮ　ＨＯＬＤＩＮＧ　ＣＯＭＰＡＮＹ　ＰＲＩＶＡＴＥ　ＬＩＭＩＴＥＤ,,外国会社等,茨城県,東茨城郡茨城町,大字奥谷１８２１番地３５,,08,302,3113156,スリランカ民主社会主義共和国、オッダマバディ１、ワイシーロード、ファレダマンジル、７８０,,,,,,2022-07-20,1,,,,,オーサカセイロンホールデングカンパニープライベートリミテツド,0
1497,7010001228194,新規,0,2022-07-20,2022-07-20,株式会社テックワークス,,株式会社,東京都,千代田区,外神田４丁目１４番１号,,13,101,1010021,,,,,,,2022-07-20,1,,,,,テックワークス,0
1498,7010001228211,新規,0,2022-07-20,2022-07-20,株式会社ＥＮＧＥＩ,,株式会社,東京都,中央区,日本橋浜町２丁目５５番２号ＢＥＳＰＯＫＥ・ＡＰＡＲＴＭＥＮＴＳ日本橋浜町３Ｆ,,13,102,1030007,,,,,,,2022-07-20,1,,,,,エンゲー,0
1505,7010003038212,新規,0,2022-07-20,2022-07-20,Ｐａｎｄａ　Ｄｏｃｕ合同会社,,合同会社,東京都,文京区,関口３丁目３番３号,,13,105,1120014,,,,,,,2022-07-20,1,,,,,,0
1513,7010401168577,新規,0,2022-07-20,2022-07-20,Ｍｏｍｅｎｔｒｉｕｍ株式会社,,株式会社,東京都,港区,南青山５丁目１２番２４号シャトー東洋南青山Ｂ１,,13,103,1070062,,,,,,,2022-07-20,1,,,,,モメントリウム,0
1514,7010401168619,新規,0,2022-07-20,2022-07-20,美喜株式会社,,株式会社,東京都,港区,港南４丁目１番６－１５０４号,,13,103,1080075,,,,,,,2022-07-20,1,,,,,ミキ,0
1517,7010403027764,新規,0,2022-07-20,2022-07-20,マナフル合同会社,,合同会社,東京都,港区,南青山２丁目２番１５号,,13,103,1070062,,,,,,,2022-07-20,1,,,,,マナフル,0
1520,7010501049124,新規,0,2022-07-20,2022-07-20,株式会社Ｍ　Ｓｐｒｏｕｔ,,株式会社,東京都,台東区,上野６丁目１－６御徒町グリーンハイツ内,,13,106,1100005,,,,,,,2022-07-20,1,,,,,エムスプラウト,0
1521,7010501049132,新規,0,2022-07-20,2022-07-20,株式会社グラリバ,,株式会社,東京都,台東区,上野３丁目１６番２号,,13,106,1100005,,,,,,,2022-07-20,1,,,,,グラリバ,0
1556,7011301027963,新規,0,2022-07-20,2022-07-20,株式会社ＡＷＡ,,株式会社,東京都,杉並区,荻窪１丁目４９番７号,,13,115,1670051,,,,,,,2022-07-20,1,,,,,アワ,0
1557,7011303004473,新規,0,2022-07-20,2022-07-20,合同会社ＣＳＩ,,合同会社,東京都,杉並区,和泉３丁目３２番３号ヴィラ永福,,13,115,1680063,,,,,,,2022-07-20,1,,,,,シーエスアイ,0
1559,7011501028290,新規,0,2022-07-20,2022-07-20,唐黍株式会社,,株式会社,東京都,北区,浮間１丁目１番１４号リムジンビル３３１,,13,117,1150051,,,,,,,2022-07-20,1,,,,,トウキビ,0
1565,7011803005178,新規,0,2022-07-20,2022-07-20,Ｆｏｏｄ　Ｆｏｒｃｅ合同会社,,合同会社,東京都,葛飾区,西新小岩１丁目１０－２,,13,122,1240025,,,,,,,2022-07-20,1,,,,,フードフォース,0
1567,7012401039436,新規,0,2022-07-20,2022-07-20,株式会社ＹＤＬ,,株式会社,東京都,府中市,八幡町１丁目１７番地の１４,,13,206,1830016,,,,,,,2022-07-20,1,,,,,ワイディーエル,0
1568,7012401039444,新規,0,2022-07-20,2022-07-20,しずく株式会社,,株式会社,東京都,多摩市,関戸５丁目１２番地３０,,13,224,2060011,,,,,,,2022-07-20,1,,,,,シズク,0
1574,7012801021712,新規,0,2022-07-20,2022-07-20,株式会社假屋商店,,株式会社,東京都,武蔵村山市,大南４丁目２５番地の２１,,13,223,2080013,,,,,,,2022-07-20,1,,,,,カリヤショウテン,0
1575,7013101008978,新規,0,2022-07-20,2022-07-20,株式会社エスクリーン,,株式会社,東京都,福生市,南田園３丁目６１番地５,,13,218,1970004,,,,,,,2022-07-20,1,,,,,エスクリーン,0
1579,7020001147402,新規,0,2022-07-20,2022-07-20,山下工業株式会社,,株式会社,神奈川県,横浜市中区,西之谷町１４５番地,,14,104,2310844,,,,,,,2022-07-20,1,,,,,ヤマシタコウギョウ,0
1580,7020001147410,新規,0,2022-07-20,2022-07-20,株式会社ＴＯＧＩ,,株式会社,神奈川県,横浜市緑区,東本郷３丁目３１番１号,,14,113,2260002,,,,,,,2022-07-20,1,,,,,トウギ,0
1581,7020001147419,新規,0,2022-07-20,2022-07-20,株式会社有価物市場,,株式会社,神奈川県,横浜市都筑区,川向町１１８０－２,,14,118,2240044,,,,,,,2022-07-20,1,,,,,ユウカブツイチバ,0
1583,7020003022132,新規,0,2022-07-20,2022-07-20,チームテルミン合同会社,,合同会社,神奈川県,横浜市緑区,北八朔町２１０８番地１サーパス青葉台１１２号,,14,113,2260021,,,,,,,2022-07-20,1,,,,,チームテルミン,0
1585,7021001076566,新規,0,2022-07-20,2022-07-20,株式会社如庵,,株式会社,神奈川県,海老名市,門沢橋３丁目６－２１,,14,215,2430426,,,,,,,2022-07-20,1,,,,,ジョアン,0
1591,7021005012567,新規,0,2022-07-20,2022-07-20,一般社団法人シニアｉｓｍ．,,その他の設立登記法人,神奈川県,鎌倉市,稲村ガ崎５丁目３５番７号,,14,204,2480024,,,,,,,2022-07-20,1,,,,,シニアイズム,0
1597,7030001149240,新規,0,2022-07-20,2022-07-20,伊豆レンタルキャンピングカー株式会社,,株式会社,埼玉県,さいたま市見沼区,大字蓮沼８０２－６,,11,104,3370015,,,,,,,2022-07-20,1,,,,,,0
1601,7030003019788,新規,0,2022-07-20,2022-07-20,合同会社ＦＬＡ,,合同会社,埼玉県,春日部市,西金野井３０９番地７６,,11,214,3440112,,,,,,,2022-07-20,1,,,,,エフエルエー,0
1609,7040001124325,新規,0,2022-07-20,2022-07-20,シンワホールディングス株式会社,,株式会社,千葉県,八千代市,吉橋１０７７番地１４,,12,221,2760047,,,,,,,2022-07-20,1,,,,,シンワホールディングス,0
1614,7050001051436,新規,0,2022-07-20,2022-07-20,株式会社アマネ,,株式会社,茨城県,水戸市,双葉台１丁目２０番地の８,,08,201,3114145,,,,,,,2022-07-20,1,,,,,アマネ,0
1617,7050003006677,新規,0,2022-07-20,2022-07-20,たつのこ建機合同会社,,合同会社,茨城県,龍ケ崎市,久保台１丁目１番地３５,,08,208,3010001,,,,,,,2022-07-20,1,,,,,タツノコケンキ,0
1622,7080103002623,新規,0,2022-07-20,2022-07-20,合同会社ＮＳＢエンターテイメント,,合同会社,静岡県,沼津市,井田２０１番地,,22,203,4103401,,,,,,,2022-07-20,1,,,,,エヌエスビーエンターテイメント,0
1668,7140001126757,新規,0,2022-07-20,2022-07-20,株式会社ソルレジャパン,,株式会社,兵庫県,尼崎市,神田中通６丁目２３１番地の２,,28,202,6600884,,,,,,,2022-07-20,1,,,,,ソルレジャパン,0
1674,7170001017193,新規,0,2022-07-20,2022-07-20,株式会社エイチエス興産,,株式会社,和歌山県,和歌山市,六十谷８０１番地,,30,201,6408482,,,,,,,2022-07-20,1,,,,,エイチエスコウサン,0
1683,7180003024063,新規,0,2022-07-20,2022-07-20,合同会社Ｙ３Ｎ,,合同会社,愛知県,名古屋市瑞穂区,彌富町字月見ケ岡２２番地の１,,23,108,4670035,,,,,,,2022-07-20,1,,,,,ワイスリーエヌ,0
1693,7200001040299,新規,0,2022-07-20,2022-07-20,株式会社ＷＯ７,,株式会社,岐阜県,不破郡垂井町,伊吹１番地の１,,21,361,5032106,,,,,,,2022-07-20,1,,,,,ダブルオーセブン,0
1699,7230001019456,新規,0,2022-07-20,2022-07-20,株式会社ありがとう薬局,,株式会社,富山県,富山市,大泉東町１丁目９番１号,,16,201,9398093,,,,,,,2022-07-20,1,,,,,アリガトウヤッキョク,0
1703,7250003003118,新規,0,2022-07-20,2022-07-20,合同会社Ｓｈｉｎｏｄａ　Ｐｌａｎｎｉｎｇ,,合同会社,山口県,周南市,遠石３丁目６番１８－１２０６号,,35,215,7450816,,,,,,,2022-07-20,1,,,,,シノダプランニング,0
1710,7260001037059,新規,0,2022-07-20,2022-07-20,株式会社ペルセポネー,,株式会社,岡山県,倉敷市,阿知２丁目１８番４号,,33,202,7100055,,,,,,,2022-07-20,1,,,,,ペルセポネー,0
1727,7290003012742,新規,0,2022-07-20,2022-07-20,創電舎合同会社,,合同会社,福岡県,福岡市南区,大池１丁目２３－１５高崎ビル２０５,,40,134,8150073,,,,,,,2022-07-20,1,,,,,ソウデンシャ,0
1728,7290003012750,新規,0,2022-07-20,2022-07-20,ＮＨ合同会社,,合同会社,福岡県,福岡市中央区,春吉３丁目１６番７－２０１号,,40,133,8100003,,,,,,,2022-07-20,1,,,,,エヌエイチ,0
1733,7320001019216,新規,0,2022-07-20,2022-07-20,株式会社アイエスアール,,株式会社,大分県,大分市,大字中戸次４３９３番地,,44,201,8797761,,,,,,,2022-07-20,1,,,,,アイエスアール,0
1735,7320003003861,新規,0,2022-07-20,2022-07-20,合同会社ＺｉｉｉＣａｒｅ,,合同会社,大分県,日田市,亀山町５番３０号,,44,204,8770045,,,,,,,2022-07-20,1,,,,,ジィケア,0
1737,7330001029932,新規,0,2022-07-20,2022-07-20,株式会社フードラボ合志,,株式会社,熊本県,合志市,御代志１６６１番地１ルーロ合志内,,43,216,8611104,,,,,,,2022-07-20,1,,,,,フードラボコウシ,0
1745,7340001024908,新規,0,2022-07-20,2022-07-20,安田総工株式会社,,株式会社,鹿児島県,鹿児島市,喜入中名町８２３番地１８,,46,201,8910202,,,,,,,2022-07-20,1,,,,,ヤスダソウコウ,0
1748,7350001017860,新規,0,2022-07-20,2022-07-20,株式会社Ｗｅｉｒｄｏ．Ｌｏｌ,,株式会社,宮崎県,宮崎市,下北方町常盤元１０３７番地１,,45,201,8800035,,,,,,,2022-07-20,1,,,,,ウィアドー,0
1751,7360001030706,新規,0,2022-07-20,2022-07-20,オーシャンコンサルティング株式会社,,株式会社,沖縄県,宜野湾市,大山１丁目１４番２３－８０３号,,47,205,9012223,,,,,,,2022-07-20,1,,,,,オーシャンコンサルティング,0
1752,7360001030714,新規,0,2022-07-20,2022-07-20,ＥＬ　ＳＯＬ株式会社,,株式会社,沖縄県,宜野湾市,嘉数１丁目１２番７号,,47,205,9012226,,,,,,,2022-07-20,1,,,,,エルソル,0
1753,7360001030730,新規,0,2022-07-20,2022-07-20,大宜味サーキュラービレッジ株式会社,,株式会社,沖縄県,国頭郡大宜味村,字饒波２２１６番地１,,47,302,9051304,,,,,,,2022-07-20,1,,,,,オオギミサーキュラービレッジ,0
1754,7360003012157,新規,0,2022-07-20,2022-07-20,合同会社矢島商店,,合同会社,沖縄県,那覇市,首里石嶺町１丁目６１番地１ユートビレッジ城北２‐Ｄ,,47,201,9030804,,,,,,,2022-07-20,1,,,,,ヤジマショウテン,0
1755,7360003012173,新規,0,2022-07-20,2022-07-20,合同会社Ｒ＆Ｄ,,合同会社,沖縄県,那覇市,字松川５１５番地,,47,201,9020062,,,,,,,2022-07-20,1,,,,,アールアンドディー,0
1771,7410003003687,新規,0,2022-07-20,2022-07-20,カケル・タニオカ合同会社,,合同会社,秋田県,潟上市,天王字上江川４７番地９２０,,05,211,0100201,,,,,,,2022-07-20,1,,,,,カケルタニオカ,0
1774,7430001087045,新規,0,2022-07-20,2022-07-20,アイ・リンク・ホールディングス株式会社,,株式会社,北海道,札幌市清田区,平岡公園東２丁目１番１号,,01,110,0040882,,,,,,,2022-07-20,1,,,,,アイリンクホールディングス,0
1775,7430001087078,新規,0,2022-07-20,2022-07-20,株式会社来仁,,株式会社,北海道,札幌市南区,澄川三条１丁目７－１１,,01,106,0050003,,,,,,,2022-07-20,1,,,,,ライジン,0
1781,7480001011801,新規,0,2022-07-20,2022-07-20,株式会社さくらシステム,,株式会社,徳島県,徳島市,北田宮１丁目２番１８－１１号,,36,201,7700003,,,,,,,2022-07-20,1,,,,,サクラシステム,0
1789,8010001228193,新規,0,2022-07-20,2022-07-20,ＯＣＨＡＹＡ株式会社,,株式会社,東京都,文京区,本郷１丁目５番７号宝生ハイツ５０５,,13,105,1130033,,,,,,,2022-07-20,1,,,,,オチャヤ,0
1790,8010001228202,新規,0,2022-07-20,2022-07-20,青葉商事株式会社,,株式会社,東京都,文京区,本郷５丁目２３番６号Ｔ＆ＣＢビル２０１,,13,105,1130033,,,,,,,2022-07-20,1,,,,,アオバショウジ,0
1791,8010001228210,新規,0,2022-07-20,2022-07-20,日本マイセラ株式会社,,株式会社,東京都,千代田区,丸の内３丁目２番２号丸の内二重橋ビル４階,,13,101,1000005,,,,,,,2022-07-20,1,,,,,ニホンマイセラ,0
1799,8010401168584,新規,0,2022-07-20,2022-07-20,株式会社ＳＯＳＪＡ,,株式会社,東京都,港区,南青山３丁目１５－９,,13,103,1070062,,,,,,,2022-07-20,1,,,,,ソスジャ,0
1803,8010403027953,新規,0,2022-07-20,2022-07-20,ナッジワン合同会社,,合同会社,東京都,港区,六本木４丁目３番１１号六本木ユニハウス５１３号室,,13,103,1060032,,,,,,,2022-07-20,1,,,,,ナッジワン,0
1814,8010705003388,新規,0,2022-07-20,2022-07-20,一般社団法人伊セ六,,その他の設立登記法人,東京都,品川区,上大崎３丁目１番１号目黒セントラルスクエア１５階,,13,109,1410021,,,,,,,2022-07-20,1,,,,,イセロク,0
1817,8010905004343,新規,0,2022-07-20,2022-07-20,特定非営利活動法人Ｙｏｕｔｈ　Ｉｍｐａｃｔ,,その他の設立登記法人,東京都,世田谷区,東玉川１丁目１０番１４号,,13,112,1580084,,,,,,,2022-07-20,1,,,,,ユースインパクト,0
1821,8011001148687,新規,0,2022-07-20,2022-07-20,株式会社ウルグス,,株式会社,東京都,渋谷区,恵比寿南１丁目１－１ヒューマックス恵比寿ビル８Ｆ,,13,113,1500022,,,,,,,2022-07-20,1,,,,,ウルグス,0
1822,8011001148729,新規,0,2022-07-20,2022-07-20,ニューサマー株式会社,,株式会社,東京都,渋谷区,円山町５番５号Ｎａｖｉ渋谷Ｖ３階,,13,113,1500044,,,,,,,2022-07-20,1,,,,,ニューサマー,0
1824,8011005009646,新規,0,2022-07-20,2022-07-20,一般社団法人全国個人事業厚生会,,その他の設立登記法人,東京都,目黒区,下目黒２丁目２０番２２号サンパレス目黒２階,,13,110,1530064,,,,,,,2022-07-20,1,,,,,ゼンコクコジンジギョウコウセイカイ,0
1828,8011103011982,新規,0,2022-07-20,2022-07-20,ＣＳ宮城加美町合同会社,,合同会社,東京都,新宿区,西新宿２丁目１番１号新宿三井ビル５０階,,13,104,1600023,,,,,,,2022-07-20,1,,,,,シーエスミヤギカミマチ,0
1830,8011203003863,新規,0,2022-07-20,2022-07-20,合同会社ライフサポート,,合同会社,東京都,中野区,江古田２丁目２１－７－グリーンコーポＫ１０７,,13,114,1650022,,,,,,,2022-07-20,1,,,,,ライフサポート,0
1831,8011301027962,新規,0,2022-07-20,2022-07-20,株式会社鳶なお,,株式会社,東京都,杉並区,荻窪１丁目１５番２０号,,13,115,1670051,,,,,,,2022-07-20,1,,,,,トビナオ,0
1836,8011603003653,新規,0,2022-07-20,2022-07-20,ピークスペース合同会社,,合同会社,東京都,練馬区,西大泉６丁目１４番３号－１０,,13,120,1780065,,,,,,,2022-07-20,1,,,,,ピークスペース,0
1845,8012401039443,新規,0,2022-07-20,2022-07-20,株式会社フィカスキャリア,,株式会社,東京都,三鷹市,上連雀４丁目２６番５号井口マンション３０７,,13,204,1810012,,,,,,,2022-07-20,1,,,,,フィカスキャリア,0
1847,8012403005492,新規,0,2022-07-20,2022-07-20,Ｍ＆Ｈ合同会社,,合同会社,東京都,調布市,深大寺南町３丁目１７番１号,,13,208,1820013,,,,,,,2022-07-20,1,,,,,エムアンドエイチ,0
1848,8012801021728,新規,0,2022-07-20,2022-07-20,株式会社真晃技研,,株式会社,東京都,立川市,砂川町８丁目２４番地６－２０１,,13,202,1900031,,,,,,,2022-07-20,1,,,,,シンコウギケン,0
1861,8020001147426,新規,0,2022-07-20,2022-07-20,株式会社パーフェクトボディクリエーション,,株式会社,神奈川県,横浜市戸塚区,秋葉町２８４番地高正ハイツ１Ｆ,,14,110,2450052,,,,,,,2022-07-20,1,,,,,パーフェクトボディクリエーション,0
1866,8021001076565,新規,0,2022-07-20,2022-07-20,株式会社ＢｕｚｚＲｕｓｈ,,株式会社,神奈川県,横須賀市,秋谷１丁目１３番１－５１３号,,14,201,2400105,,,,,,,2022-07-20,1,,,,,バズラッシュ,0
1881,8030001149231,新規,0,2022-07-20,2022-07-20,Ｓ＆Ｅライフ株式会社,,株式会社,埼玉県,戸田市,喜沢南２丁目５番５－１０３号,,11,224,3350014,,,,,,,2022-07-20,1,,,,,エスアンドイーライフ,0
1886,8040001124299,新規,0,2022-07-20,2022-07-20,Ｓｅｅｌｅ株式会社,,株式会社,千葉県,館山市,長須賀４０３番の７,,12,205,2940037,,,,,,,2022-07-20,1,,,,,ゼーレ,0
1887,8040001124324,新規,0,2022-07-20,2022-07-20,株式会社嘉望,,株式会社,千葉県,印西市,大森２４４２－１,,12,231,2701327,,,,,,,2022-07-20,1,,,,,カボウ,0
1890,8040003020455,新規,0,2022-07-20,2022-07-20,合同会社Ａｚｏｏ,,合同会社,千葉県,船橋市,海神町東１丁目１０１５番地１大多喜荘１０５号,,12,204,2730028,,,,,,,2022-07-20,1,,,,,エーゾー,0
1891,8040005021682,新規,0,2022-07-20,2022-07-20,特定非営利活動法人フューチャーモデルアソシエーション,,その他の設立登記法人,千葉県,野田市,泉１丁目３番地６,,12,208,2700239,,,,,,,2022-07-20,1,,,,,フューチャーモデルアソシエーション,0
1905,8120001247422,新規,0,2022-07-20,2022-07-20,株式会社厚基,,株式会社,大阪府,大阪市中央区,島之内１丁目１１番１１－９０４号,,27,128,5420082,,,,,,,2022-07-20,1,,,,,コウキ,0
1906,8120001247455,新規,0,2022-07-20,2022-07-20,株式会社ｔｏ　ａｔｔｒａｃｔ,,株式会社,大阪府,大阪市西区,南堀江１丁目３番１２－３１０５号,,27,106,5500015,,,,,,,2022-07-20,1,,,,,トゥアトラクト,0
1909,8120003022088,新規,0,2022-07-20,2022-07-20,合同会社きづき工房,,合同会社,大阪府,大阪市淀川区,加島３丁目１－３３－１０１号室宏美ハイツ,,27,123,5320031,,,,,,,2022-07-20,1,,,,,キヅキコウボウ,0
1910,8120003022096,新規,0,2022-07-20,2022-07-20,合同会社ＷＥＬＦＡＲＥ,,合同会社,大阪府,大阪市旭区,高殿１丁目８番３－１３０１号,,27,117,5350031,,,,,,,2022-07-20,1,,,,,ウェルフェア,0
1917,8122001036078,新規,0,2022-07-20,2022-07-20,ＳＵＮＮＩＣＥ株式会社,,株式会社,大阪府,四條畷市,砂３丁目８番１３号,,27,229,5750001,,,,,,,2022-07-20,1,,,,,サンナイス,0
1927,8130005016533,新規,0,2022-07-20,2022-07-20,一般社団法人みやこａｄ,,その他の設立登記法人,京都府,京都市下京区,室町通五条下る大黒町２０３,,26,106,6008161,,,,,,,2022-07-20,1,,,,,ミヤコアド,0
1934,8140001126756,新規,0,2022-07-20,2022-07-20,株式会社ＮＹ．Ｃ,,株式会社,兵庫県,加古郡播磨町,南野添２丁目１５番１１号,,28,382,6750150,,,,,,,2022-07-20,1,,,,,エヌワイシー,0
1935,8140001126764,新規,0,2022-07-20,2022-07-20,エイチタスシー株式会社,,株式会社,兵庫県,加古川市,野口町水足９３番地,,28,210,6750019,,,,,,,2022-07-20,1,,,,,エイチタスシー,0
1936,8140001126772,新規,0,2022-07-20,2022-07-20,株式会社中村屋,,株式会社,兵庫県,姫路市,香寺町中村２９番地,,28,201,6792166,,,,,,,2022-07-20,1,,,,,ナカムラヤ,0
1941,8140003017937,新規,0,2022-07-20,2022-07-20,ＪＵＰＩＴＥＲ合同会社,,合同会社,兵庫県,西宮市,羽衣町７－３０夙川グリーンタウン３Ｆ,,28,204,6620051,,,,,,,2022-07-20,1,,,,,ジュピター,0
1945,8150001025701,新規,0,2022-07-20,2022-07-20,株式会社正真,,株式会社,奈良県,北葛城郡王寺町,本町５丁目２０番１２号,,29,425,6360012,,,,,,,2022-07-20,1,,,,,ショウマ,0
1951,8180301036453,新規,0,2022-07-20,2022-07-20,株式会社みんなの総務課,,株式会社,愛知県,豊橋市,小向町字北小向３３番地２,,23,201,4418003,,,,,,,2022-07-20,1,,,,,ミンナノソウムカ,0
1956,8180303005398,新規,0,2022-07-20,2022-07-20,合同会社ＴＭ機設,,合同会社,愛知県,安城市,御幸本町６番２号太田ビル３Ｆ,,23,212,4460032,,,,,,,2022-07-20,1,,,,,ティーエムキセツ,0
1960,8200001040298,新規,0,2022-07-20,2022-07-20,ワンステップ株式会社,,株式会社,岐阜県,安八郡安八町,東結１１１４番地の１フォレストハイム２１・３０８号室,,21,383,5030112,,,,,,,2022-07-20,1,,,,,ワンステップ,0
1961,8230001019455,新規,0,2022-07-20,2022-07-20,ピンポイントデザイン株式会社,,株式会社,富山県,南砺市,金戸３４３番地５,,16,210,9391600,,,,,,,2022-07-20,1,,,,,ピンポイントデザイン,0
1968,8260001037058,新規,0,2022-07-20,2022-07-20,Ａｍｂｌｅ株式会社,,株式会社,岡山県,岡山市北区,南方３丁目１０番３６号,,33,101,7000807,,,,,,,2022-07-20,1,,,,,アンブル,0
1971,8290001098337,新規,0,2022-07-20,2022-07-20,株式会社ＳＰＥＣＩＡＬ　ＯＮＥ,,株式会社,福岡県,福岡市博多区,住吉２丁目１１－２１－Ｂ１住吉ＢＡＳＥ,,40,132,8120018,,,,,,,2022-07-20,1,,,,,スペシャルワン,0
1973,8290801028740,新規,0,2022-07-20,2022-07-20,株式会社亀屋商事グループ,,株式会社,福岡県,田川郡香春町,大字中津原１３４４番地２,,40,601,8221405,,,,,,,2022-07-20,1,,,,,カメヤショウジグループ,0
1977,8320001019207,新規,0,2022-07-20,2022-07-20,はかる株式会社,,株式会社,大分県,中津市,大字大悟法４２８番地１,,44,203,8710151,,,,,,,2022-07-20,1,,,,,ハカル,0
1978,8320001019223,新規,0,2022-07-20,2022-07-20,株式会社田辺海産,,株式会社,大分県,佐伯市,蒲江大字蒲江浦２６４８番地５４,,44,205,8762401,,,,,,,2022-07-20,1,,,,,タナベカイサン,0
1979,8330003009452,新規,0,2022-07-20,2022-07-20,合同会社明福堂,,合同会社,熊本県,菊池郡菊陽町,花立３丁目１２－２,,43,404,8691113,,,,,,,2022-07-20,1,,,,,メイフクドウ,0
1981,8340001024907,新規,0,2022-07-20,2022-07-20,株式会社横田慎太郎,,株式会社,鹿児島県,日置市,伊集院町猪鹿倉１０７番地アクアヒルズ２０１,,46,216,8992505,,,,,,,2022-07-20,1,,,,,ヨコタシンタロウ,0
1985,8360001030696,新規,0,2022-07-20,2022-07-20,株式会社るくる,,株式会社,沖縄県,中頭郡西原町,字小波津４１９番地の４,,47,329,9030118,,,,,,,2022-07-20,1,,,,,ルクル,0
1986,8360005006692,新規,0,2022-07-20,2022-07-20,農事組合法人久米島コーヒー生産組合,,その他の設立登記法人,沖縄県,島尻郡久米島町,字西銘１１５番地１,,47,361,9013131,,,,,,,2022-07-20,1,,,,,クメジマコーヒーセイサンクミアイ,0
1991,8370003005778,新規,0,2022-07-20,2022-07-20,合同会社食が職,,合同会社,宮城県,塩竈市,泉沢町１番６号,,04,203,9850062,,,,,,,2022-07-20,1,,,,,ショクガショク,0
1992,8370005010504,新規,0,2022-07-20,2022-07-20,税理士法人くりはら中央会計,,その他の設立登記法人,宮城県,栗原市,志波姫堀口宮中６４番地３０,,04,213,9895625,,,,,,,2022-07-20,1,,,,,クリハラチュウオウカイケイ,0
2015,8430001087060,新規,0,2022-07-20,2022-07-20,株式会社ＮｅｗＧａｔｅ,,株式会社,北海道,札幌市北区,新琴似六条８丁目２番２７号,,01,102,0010906,,,,,,,2022-07-20,1,,,,,ニューゲート,0
2016,8430001087069,新規,0,2022-07-20,2022-07-20,勝井組土建株式会社,,株式会社,北海道,岩見沢市,八条東３丁目６番地１,,01,210,0680008,,,,,,,2022-07-20,1,,,,,カツイグミドケン,0
2017,8430001087085,新規,0,2022-07-20,2022-07-20,株式会社黒田商店,,株式会社,北海道,札幌市中央区,南五条西８丁目３番地１ビッグパレス南５条１１０４号,,01,101,0640805,,,,,,,2022-07-20,1,,,,,クロダショウテン,0
2020,8430005014498,新規,0,2022-07-20,2022-07-20,税理士法人北都中央会計,,その他の設立登記法人,北海道,札幌市東区,北十四条東１５丁目３番５号ＳＴビル３階Ｂ号室,,01,103,0650014,,,,,,,2022-07-20,1,,,,,ホクトチュウオウカイケイ,0
2038,9010001227913,新規,0,2022-07-20,2022-07-20,大可工業株式会社,,株式会社,東京都,中央区,銀座１丁目１８番２－２０２号,,13,102,1040061,,,,,,,2022-07-20,1,,,,,ダイカコウギョウ,0
2039,9010001228168,新規,0,2022-07-20,2022-07-20,株式会社Ｄｅａｒ　Ｄｒｅａｍ,,株式会社,東京都,中央区,晴海３丁目１３番１号ドゥ・トゥールＥ５２１８,,13,102,1040053,,,,,,,2022-07-20,1,,,,,ディアドリーム,0
2040,9010001228184,新規,0,2022-07-20,2022-07-20,株式会社アズルート,,株式会社,東京都,千代田区,九段南１丁目５番６号りそな九段ビル５階,,13,101,1020074,,,,,,,2022-07-20,1,,,,,アズルート,0
2041,9010001228201,新規,0,2022-07-20,2022-07-20,セントラルロジスティクス株式会社,,株式会社,東京都,千代田区,五番町１２番地７－２０４３,,13,101,1020076,,,,,,,2022-07-20,1,,,,,セントラルロジスティクス,0
2052,9010401168609,新規,0,2022-07-20,2022-07-20,Ｓ‐ｐｌａｃｅ株式会社,,株式会社,東京都,港区,新橋４丁目２１番３号新橋東急ビル２Ｆ,,13,103,1050004,,,,,,,2022-07-20,1,,,,,エスプレイス,0
2053,9010401168617,新規,0,2022-07-20,2022-07-20,株式会社ＭＨ　Ｐｌｕｓ,,株式会社,東京都,港区,南青山３丁目１７番３号,,13,103,1070062,,,,,,,2022-07-20,1,,,,,エムエイチプラス,0
2054,9010401168625,新規,0,2022-07-20,2022-07-20,株式会社志,,株式会社,東京都,港区,芝２丁目２０番８号リバティ芝公園４０２,,13,103,1050014,,,,,,,2022-07-20,1,,,,,ココロザシ,0
2055,9010403028100,新規,0,2022-07-20,2022-07-20,合同会社真暖,,合同会社,東京都,港区,南青山３丁目３番１８号,,13,103,1070062,,,,,,,2022-07-20,1,,,,,マノン,0
2060,9010501049130,新規,0,2022-07-20,2022-07-20,Ｃｒｅｓｃｅｎｔ．Ａ株式会社,,株式会社,東京都,台東区,浅草４丁目２６番５号,,13,106,1110032,,,,,,,2022-07-20,1,,,,,クレッセントドットエー,0
2061,9010503006658,新規,0,2022-07-20,2022-07-20,ＳＲＩ合同会社,,合同会社,東京都,台東区,竜泉３丁目６番７号,,13,106,1100012,,,,,,,2022-07-20,1,,,,,エスアールアイ,0
2063,9010603009643,新規,0,2022-07-20,2022-07-20,冨田工務店合同会社,,合同会社,東京都,江東区,木場６丁目８－１５木場ステーションレジデンス９０１,,13,108,1350042,,,,,,,2022-07-20,1,,,,,トミタコウムテン,0
2064,9010701042983,新規,0,2022-07-20,2022-07-20,株式会社Ａｐｐ　Ｔｒｅｎｄ,,株式会社,東京都,品川区,南大井３丁目９－１０,,13,109,1400013,,,,,,,2022-07-20,1,,,,,アップトレンド,0
2071,9010901051256,新規,0,2022-07-20,2022-07-20,株式会社ＯＳＵＭ,,株式会社,東京都,世田谷区,代沢３丁目２０番５号,,13,112,1550032,,,,,,,2022-07-20,1,,,,,オスム,0
2078,9011001148728,新規,0,2022-07-20,2022-07-20,株式会社メディリソース,,株式会社,東京都,渋谷区,代々木１丁目３０番１５号１０９,,13,113,1510053,,,,,,,2022-07-20,1,,,,,,0
2079,9011003015001,新規,0,2022-07-20,2022-07-20,ギャンカワイイクリエイティブ合同会社,,合同会社,東京都,渋谷区,道玄坂１丁目１０番８号渋谷道玄坂東急ビル２Ｆ－Ｃ,,13,113,1500043,,,,,,,2022-07-20,1,,,,,ギャンカワイイクリエイティブ,0
2080,9011003015059,新規,0,2022-07-20,2022-07-20,ＮｅｗＭｅｅ合同会社,,合同会社,東京都,渋谷区,神宮前６丁目２３番４号桑野ビル２階,,13,113,1500001,,,,,,,2022-07-20,1,,,,,ニューミー,0
2082,9011101099549,新規,0,2022-07-20,2022-07-20,株式会社上高地,,株式会社,東京都,新宿区,新宿５丁目２番８号,,13,104,1600022,,,,,,,2022-07-20,1,,,,,カミコウチ,0
2083,9011101099573,新規,0,2022-07-20,2022-07-20,株式会社Ｇｉｖ‐ｎｉｎｇ,,株式会社,東京都,新宿区,四谷坂町１０－１２,,13,104,1600002,,,,,,,2022-07-20,1,,,,,ギブニング,0
2084,9011101099598,新規,0,2022-07-20,2022-07-20,株式会社ベスト,,株式会社,東京都,新宿区,東榎町２番地９田中ビル２０１,,13,104,1620807,,,,,,,2022-07-20,1,,,,,ベスト,0
2085,9011103011981,新規,0,2022-07-20,2022-07-20,合同会社長谷川興業,,合同会社,東京都,新宿区,北新宿１丁目３－７佐藤宅２階,,13,104,1690074,,,,,,,2022-07-20,1,,,,,ハセガワコウギョウ,0
2087,9011301027945,新規,0,2022-07-20,2022-07-20,株式会社シュガーサウンド,,株式会社,東京都,杉並区,下高井戸４丁目１－１－１０２,,13,115,1680073,,,,,,,2022-07-20,1,,,,,シュガーサウンド,0
2089,9011601026093,新規,0,2022-07-20,2022-07-20,株式会社ツーオープン,,株式会社,東京都,練馬区,練馬１丁目１０番３号,,13,120,1760001,,,,,,,2022-07-20,1,,,,,ツーオープン,0
2095,9012401039434,新規,0,2022-07-20,2022-07-20,株式会社ＪＵＮＧ,,株式会社,東京都,武蔵野市,吉祥寺南町１丁目６番１５号吉祥寺コーポ１０８,,13,203,1800003,,,,,,,2022-07-20,1,,,,,ジョン,0
2096,9012403005491,新規,0,2022-07-20,2022-07-20,合同会社ナカシマ,,合同会社,東京都,武蔵野市,吉祥寺東町４丁目１３番１３号,,13,203,1800002,,,,,,,2022-07-20,1,,,,,ナカシマ,0
2102,9013303006233,新規,0,2022-07-20,2022-07-20,合同会社ｇｒｏｗｉｎｇ　ｖｉｓｉｏｎ,,合同会社,東京都,豊島区,目白３丁目８番４号ロルーフ０３,,13,116,1710031,,,,,,,2022-07-20,1,,,,,,0
2107,9020001147409,新規,0,2022-07-20,2022-07-20,株式会社非常用発電機負荷試験サポート,,株式会社,神奈川県,横浜市保土ケ谷区,上菅田町８６８番地６,,14,106,2400051,,,,,,,2022-07-20,1,,,,,ヒジョウヨウハツデンキフカシケンサポート,0
2108,9020001147458,新規,0,2022-07-20,2022-07-20,株式会社みらいコーポレーション,,株式会社,神奈川県,横浜市中区,伊勢佐木町６丁目１３６番地１伊勢佐木町アンバービル３Ｆ,,14,104,2310045,,,,,,,2022-07-20,1,,,,,ミライコーポレーション,0
2119,9030001149271,新規,0,2022-07-20,2022-07-20,株式会社ｆｔ．ｍｏｖ,,株式会社,埼玉県,桶川市,上日出谷南２丁目６番地の９レクサス１０１号,,11,231,3630020,,,,,,,2022-07-20,1,,,,,エフティモブ,0
2127,9040001124323,新規,0,2022-07-20,2022-07-20,株式会社新電気,,株式会社,千葉県,市川市,下貝塚２丁目１７番３０号,,12,203,2720821,,,,,,,2022-07-20,1,,,,,シンデンキ,0
2135,9050003006700,新規,0,2022-07-20,2022-07-20,合同会社ＲＮ　ＳＴＹＬＥ　ＧＡＲＡＧＥ,,合同会社,茨城県,下妻市,大串７９５番地,,08,210,3040023,,,,,,,2022-07-20,1,,,,,アールエヌスタイルガレージ,0
2141,9070005010013,新規,0,2022-07-20,2022-07-20,一般社団法人固定資産評価額見直し相談所,,その他の設立登記法人,群馬県,前橋市,問屋町２丁目１３番地２前橋グリーンマンション１階,,10,201,3710855,,,,,,,2022-07-20,1,,,,,コテイシサンヒョウカガクミナオシソウダンジョ,0
2144,9080101023421,新規,0,2022-07-20,2022-07-20,豊和地産株式会社,,株式会社,静岡県,沼津市,大岡１９７２番地の６,,22,203,4100022,,,,,,,2022-07-20,1,,,,,ホウワチサン,0
2147,9090001017679,新規,0,2022-07-20,2022-07-20,株式会社日之城農場,,株式会社,山梨県,韮崎市,穂坂町三之蔵３２０５番地,,19,207,4070176,,,,,,,2022-07-20,1,,,,,ヒノシロノウジョウ,0
2160,9120001247396,新規,0,2022-07-20,2022-07-20,ウィンシェア株式会社,,株式会社,大阪府,大阪市東成区,深江北３丁目４番２１号エクラ深江橋５１１Ｂ,,27,115,5370001,,,,,,,2022-07-20,1,,,,,ウィンシェア,0
2161,9120001247495,新規,0,2022-07-20,2022-07-20,株式会社フォーミュラ,,株式会社,大阪府,大阪市北区,天満橋３丁目５番３２－７０４号,,27,127,5300042,,,,,,,2022-07-20,1,,,,,フォーミュラ,0
2163,9120003022087,新規,0,2022-07-20,2022-07-20,合同会社ＣＨＡＮＣＥ,,合同会社,大阪府,大阪市浪速区,大国２丁目４番１６号,,27,111,5560014,,,,,,,2022-07-20,1,,,,,チャンス,0
2181,9140001126763,新規,0,2022-07-20,2022-07-20,株式会社シノビアシ,,株式会社,兵庫県,明石市,小久保４丁目４番地９号,,28,203,6730005,,,,,,,2022-07-20,1,,,,,シノビアシ,0
2182,9140001126805,新規,0,2022-07-20,2022-07-20,株式会社レイジングストーム,,株式会社,兵庫県,宝塚市,泉町２９番２３号,,28,214,6650864,,,,,,,2022-07-20,1,,,,,レイジングストーム,0
2183,9140001126821,新規,0,2022-07-20,2022-07-20,株式会社ＡＢＫＡＭ,,株式会社,兵庫県,神戸市灘区,篠原中町４丁目２番６号,,28,102,6570066,,,,,,,2022-07-20,1,,,,,アバカム,0
2191,9180001152244,新規,0,2022-07-20,2022-07-20,株式会社トップ１,,株式会社,愛知県,名古屋市千種区,今池南３０番８号,,23,101,4640851,,,,,,,2022-07-20,1,,,,,トップワン,0
2198,9180301036436,新規,0,2022-07-20,2022-07-20,株式会社ＲＡ,,株式会社,愛知県,豊橋市,大山町字下青尻９２番地１,,23,201,4418071,,,,,,,2022-07-20,1,,,,,アールエー,0
2199,9180301036452,新規,0,2022-07-20,2022-07-20,株式会社ＮＮＳ,,株式会社,愛知県,碧南市,二本木町５丁目３１番地１レイクハヤＩ２０２号室,00127256,23,209,4470029,,,,,,,2022-07-20,1,,,,,エヌエヌエス,0
2214,9240003005716,新規,0,2022-07-20,2022-07-20,合同会社ユーピー,,合同会社,広島県,福山市,引野町南１丁目２１番９－９号,,34,207,7210945,,,,,,,2022-07-20,1,,,,,ユーピー,0
2224,9270001008593,新規,0,2022-07-20,2022-07-20,株式会社共和,,株式会社,鳥取県,東伯郡琴浦町,大字八幡４７番地,,31,371,6892541,,,,,,,2022-07-20,1,,,,,キョウワ,0
2227,9280005007491,新規,0,2022-07-20,2022-07-20,ＮＰＯ法人重吉伸一サムライ道場,,その他の設立登記法人,島根県,松江市,鹿島町名分１０９０番地１０,,32,201,6900803,,,,,,,2022-07-20,1,,,,,シゲヨシシンイチサムライドウジョウ,0
2234,9290003012732,新規,0,2022-07-20,2022-07-20,合同会社ＭＵＩＳＥ,,合同会社,福岡県,小郡市,小郡１５３２－１スカイマンション日吉１０２号室,,40,216,8380141,,,,,,,2022-07-20,1,,,,,ミューズ,0
2235,9290003012757,新規,0,2022-07-20,2022-07-20,合同会社レッド,,合同会社,福岡県,福岡市博多区,千代３丁目３番２２－７０３号ＡＬＦＡＣＩＯＢＡＳＥ博多,,40,132,8120044,,,,,,,2022-07-20,1,,,,,レッド,0
2238,9290801028748,新規,0,2022-07-20,2022-07-20,株式会社エムジーエフ,,株式会社,福岡県,北九州市八幡西区,浅川台１丁目１番４号,,40,109,8070875,,,,,,,2022-07-20,1,,,,,エムジーエフ,0
2240,9320001019214,新規,0,2022-07-20,2022-07-20,株式会社御繭シルクテック,,株式会社,大分県,速見郡日出町,大字大神３２番地２,,44,341,8791504,,,,,,,2022-07-20,1,,,,,オマユシルクテック,0
2248,9350003004129,新規,0,2022-07-20,2022-07-20,合同会社ハウスリペアＰＲＯ,,合同会社,宮崎県,宮崎市,大字柏原字六反田６９１番２,,45,201,8802111,,,,,,,2022-07-20,1,,,,,ハウスリペアプロ,0
2256,9390001016972,新規,0,2022-07-20,2022-07-20,株式会社Ｖｅｎａ,,株式会社,山形県,東根市,さくらんぼ駅前３丁目６番１２号瑞祥館２０３,,06,211,9993720,,,,,,,2022-07-20,1,,,,,ヴィーナ,0
2260,9410003003685,新規,0,2022-07-20,2022-07-20,合同会社柴田労務管理,,合同会社,秋田県,北秋田市,米代町２番１１号２階,,05,213,0183323,,,,,,,2022-07-20,1,,,,,シバタロウムカンリ,0
2265,9430001087019,新規,0,2022-07-20,2022-07-20,アルファリンク株式会社,,株式会社,北海道,石狩市,新港南３丁目７０３番２１号,,01,235,0613244,,,,,,,2022-07-20,1,,,,,アルファリンク,0
2266,9430001087043,新規,0,2022-07-20,2022-07-20,株式会社ほりけ,,株式会社,北海道,滝川市,大町２丁目８番２９号寿ハウス１階左,,01,225,0730022,,,,,,,2022-07-20,1,,,,,ホリケ,0
2267,9430001087076,新規,0,2022-07-20,2022-07-20,株式会社アバンテ,,株式会社,北海道,札幌市北区,新琴似十一条１丁目６番１２号,,01,102,0010911,,,,,,,2022-07-20,1,,,,,アバンテ,0
2281,9500005008509,新規,0,2022-07-20,2022-07-20,特定非営利活動法人ＴＳＵＮＡＧＵ,,その他の設立登記法人,愛媛県,伊予市,下吾川１５９８番地４,,38,210,7993111,,,,,,,2022-07-20,1,,,,,ツナグ,0
2282,9700150110949,新規,0,2022-07-20,2022-07-20,ＫＵＲＯＩＳＯ　ＩＮＴＥＲＮＡＴＩＯＮＡＬ,,外国会社等,栃木県,那須塩原市,越堀７５８－２,,09,213,3250012,スリランカ民主社会主義共和国、キャンディ、アンバテンナ、マタレロード、１２２,,,,,,2022-07-20,1,,,,,クロイソインターナシヨナル,0
