sequenceNumber,corporateNumber,process,correct,updateDate,changeDate,name,nameImageId,kind,prefectureName,cityName,streetNumber,addressImageId,prefectureCode,cityCode,postCode,addressOutside,addressOutsideImageId,closeDate,closeCause,successorCorporateNumber,changeCause,assignmentDate,latest,enName,enPrefectureName,enCityName,enAddressOutside,furigana,hihyoji
17,1010405020450,登記記録の閉鎖等,0,2025-06-03,2025-05-07,ＲＢソーラースクエアホールディングス一般社団法人,,その他の設立登記法人,東京都,港区,虎ノ門３丁目２２番１０－２０１号,,13,103,1050001,,,2025-05-07,清算の結了等,,,2021-11-24,1,,,,,アールビーソーラースクエアホールディングス,0
29,1011001027567,登記記録の閉鎖等,0,2025-06-03,2025-05-21,株式会社ショウワンスポーツ,,株式会社,東京都,渋谷区,代官山町２０番２３号ＴＥＮＯＨＡ代官山５階,,13,113,1500034,,,2025-05-21,清算の結了等,,,2015-10-05,1,,,,,ショウワンスポーツ,0
37,1011101055071,登記記録の閉鎖等,0,2025-06-03,2025-05-13,株式会社ブイ・ティ・ピー,,株式会社,東京都,新宿区,新小川町５番１９号,,13,104,1620814,,,2025-05-13,清算の結了等,,,2015-10-05,1,,,,,ブイティピー,0
43,1011103007293,登記記録の閉鎖等,0,2025-06-03,2025-05-13,Ｏｎｅ杉合同会社,,合同会社,東京都,新宿区,新宿２丁目１２番１３号,,13,104,1600022,,,2025-05-13,清算の結了等,,,2017-08-18,1,,,,,ワンスギ,0
50,1011302008902,登記記録の閉鎖等,0,2025-06-03,2025-05-27,有限会社美義和,,有限会社,東京都,杉並区,成田東３丁目１２番３号,,13,115,1660015,,,2025-05-27,清算の結了等,,,2015-10-05,1,,,,,ミギワ,0
70,1020001082225,登記記録の閉鎖等,0,2025-06-03,2025-05-30,株式会社シーアイシートレーディング,,株式会社,神奈川県,横浜市青葉区,美しが丘５丁目２９番地１１、１階Ａ,,14,117,2250002,,,2025-05-30,清算の結了等,,,2015-10-05,1,,,,,シーアイシートレーディング,0
100,1080101024583,登記記録の閉鎖等,0,2025-06-03,2025-05-29,銘洋都京株式会社,,株式会社,静岡県,田方郡函南町,平井１７５３番１０４３ラッキークレスト１０３室,,22,325,4190107,,,2025-05-29,清算の結了等,,,2024-03-15,1,,,,,メイヨウトキョウ,0
101,1080102015722,登記記録の閉鎖等,0,2025-06-03,2025-05-30,有限会社ファイン,,有限会社,静岡県,富士市,厚原２４７番地の５,,22,210,4190201,,,2025-05-30,清算の結了等,,,2015-10-05,1,,,,,ファイン,0
102,1080401018376,登記記録の閉鎖等,0,2025-06-03,2025-05-30,鈴鉄工業株式会社,,株式会社,静岡県,浜松市中央区,本郷町２６８番地の４,,22,138,4300812,,,2025-05-30,清算の結了等,,,2015-10-05,1,,,,,スズテツコウギョウ,0
108,1120001002370,登記記録の閉鎖等,0,2025-06-03,2025-05-26,日伸自動車株式会社,,株式会社,大阪府,大阪市鶴見区,緑１丁目５番８号,,27,124,5380054,,,2025-05-26,清算の結了等,,,2015-10-05,1,,,,,ニッシンジドウシャ,0
109,1120001122887,登記記録の閉鎖等,0,2025-06-03,2025-05-26,株式会社シーズン・フォーラム,,株式会社,大阪府,大阪市生野区,新今里５丁目１１番１４号,,27,116,5440001,,,2025-05-26,清算の結了等,,,2015-10-05,1,,,,,シーズンフォーラム,0
114,1120001178954,登記記録の閉鎖等,0,2025-06-03,2025-05-26,株式会社ＴＷトレジャー,,株式会社,大阪府,大阪市東成区,玉津１丁目９番２７号,,27,115,5370023,,,2025-05-26,清算の結了等,,,2015-10-05,1,,,,,ティーダブリュートレジャー,0
146,1180001076392,登記記録の閉鎖等,0,2025-06-03,2025-06-02,フィフティセブン株式会社,,株式会社,愛知県,名古屋市中村区,名駅５丁目１８番６号,,23,105,4500002,,,2025-06-02,清算の結了等,,,2015-10-05,1,,,,,フィフティセブン,0
147,1180001135611,登記記録の閉鎖等,0,2025-06-03,2025-06-02,株式会社寿創匠,,株式会社,愛知県,名古屋市中川区,吉津２丁目２６０６番地,,23,110,4540981,,,2025-06-02,清算の結了等,,,2019-03-04,1,,,,,コトブキソウショウ,0
152,1180002010846,登記記録の閉鎖等,0,2025-06-03,2025-05-30,有限会社エヌケイ工業,,有限会社,愛知県,名古屋市瑞穂区,大殿町２丁目４番地,,23,108,4670007,,,2025-05-30,清算の結了等,,,2015-10-05,1,,,,,エヌケイコウギョウ,0
156,1180301010794,登記記録の閉鎖等,0,2025-06-03,2025-05-29,株式会社エノモト商店,,株式会社,愛知県,蒲郡市,三谷町西畑４７番地,,23,214,4430021,,,2025-05-29,清算の結了等,,,2015-10-05,1,,,,,エノモトショウテン,0
164,1210001012674,登記記録の閉鎖等,0,2025-06-03,2025-05-30,伊藤鉄工株式会社,,株式会社,福井県,鯖江市,水落町１丁目１５番２５号,,18,207,9160022,,,2025-05-30,清算の結了等,,,2015-10-05,1,,,,,イトウテッコウ,0
167,1210002010900,登記記録の閉鎖等,0,2025-06-03,2025-05-30,有限会社宇野旅館,,有限会社,福井県,三方郡美浜町,丹生第５０号３７番地,,18,442,9191201,,,2025-05-30,清算の結了等,,,2015-10-05,1,,,,,ウノリョカン,0
168,1210005000122,登記記録の閉鎖等,0,2025-06-03,2025-05-29,福井県酪農農業協同組合連合会,,その他の設立登記法人,福井県,福井市,高木中央２丁目４２０２番地,,18,201,9100804,,,2025-05-29,清算の結了等,,,2015-10-05,1,,,,,フクイケンラクノウ,0
169,1220001024124,登記記録の閉鎖等,0,2025-06-03,2025-06-02,株式会社Ｌｏｏ樹,,株式会社,石川県,羽咋市,滝町ワ３７２番地,,17,207,9250005,,,2025-06-02,清算の結了等,,,2021-04-19,1,,,,,,0
180,1280003001669,登記記録の閉鎖等,0,2025-06-03,2025-05-30,合同会社ＳＥＯ観光開発,,合同会社,島根県,松江市,北堀町３１８番地,,32,201,6900888,,,2025-05-30,清算の結了等,,,2022-11-29,1,,,,,エスイーオーカンコウカイハツ,0
203,1360001017048,登記記録の閉鎖等,0,2025-06-03,2025-05-27,株式会社ソレイユ,,株式会社,沖縄県,中頭郡北谷町,字上勢頭６３１番地１,,47,326,9040101,,,2025-05-27,清算の結了等,,,2015-10-05,1,,,,,,0
207,1360002018045,登記記録の閉鎖等,0,2025-06-03,2025-05-28,有限会社沖縄ケーブルビジョン,,有限会社,沖縄県,宜野湾市,大謝名３丁目５番２０号,,47,205,9012225,,,2025-05-28,清算の結了等,,,2015-10-05,1,,,,,オキナワケーブルビジョン,0
211,1430001018419,登記記録の閉鎖等,0,2025-06-03,2025-05-26,株式会社陸王,,株式会社,北海道,札幌市中央区,南二十一条西１１丁目１番１号,,01,101,0640921,,,2025-05-26,清算の結了等,,,2022-06-07,1,,,,,リクオウ,0
213,1430001061625,登記記録の閉鎖等,0,2025-06-03,2025-05-28,株式会社建昌,,株式会社,北海道,石狩郡当別町,獅子内２２２７番地３９,,01,303,0613772,,,2025-05-28,清算の結了等,,,2015-10-05,1,,,,,ケンショウ,0
214,1430001062045,登記記録の閉鎖等,0,2025-06-03,2025-05-30,株式会社Ｒ・Ｏ・Ｔ,,株式会社,北海道,札幌市豊平区,平岸五条１０丁目２番１７号カーサフローラルＢ－１０１号,,01,105,0620935,,,2025-05-30,清算の結了等,,,2015-10-05,1,,,,,,0
232,2010001046147,登記記録の閉鎖等,0,2025-06-03,2025-05-09,株式会社清水商店,,株式会社,東京都,品川区,中延６丁目５番５号清水ビル２０１,,13,109,1420053,,,2025-05-09,清算の結了等,,,2015-10-05,1,,,,,シミズショウテン,0
237,2010001224628,登記記録の閉鎖等,0,2025-06-03,2025-05-12,ｃｒｅＷ株式会社,,株式会社,東京都,千代田区,大手町２丁目２番１号新大手町ビル７階,,13,101,1000004,,,2025-05-12,合併による解散等,3010001195769,令和７年５月１日東京都千代田区大手町二丁目２番１号新大手町ビル７階ＷＯＯＯＬＹ株式会社（3010001195769）に合併し解散,2022-02-16,1,,,,,クルー,0
244,2010401042159,登記記録の閉鎖等,0,2025-06-03,2025-05-28,株式会社東京サンコロール,,株式会社,東京都,江東区,有明３丁目４番１０号ＴＦＴビル西館７階三崎商事株式会社内,,13,108,1350063,,,2025-05-28,清算の結了等,,,2015-10-05,1,,,,,トウキョウサンコロール,0
256,2010405016241,登記記録の閉鎖等,0,2025-06-03,2025-05-07,板橋ファシリティ特定目的会社,,その他の設立登記法人,東京都,港区,六本木１丁目６番１号泉ガーデンタワー,,13,103,1060032,,,2025-05-07,清算の結了等,,,2017-11-17,1,,,,,イタバシファシリティ,0
259,2010602021275,登記記録の閉鎖等,0,2025-06-03,2025-05-19,第一ファミリー有限会社,,有限会社,千葉県,流山市,おおたかの森南３丁目９番地ウエリスおおたかの森サウスアリーナ１０１７,,12,220,2700139,,,2025-05-19,清算の結了等,,,2015-10-05,1,,,,,ダイイチファミリー,0
261,2010703006282,登記記録の閉鎖等,0,2025-06-03,2025-05-28,ＦＲＥＹＲ　Ｂａｔｔｅｒｙ　Ｊａｐａｎ合同会社,,合同会社,福岡県,福岡市博多区,博多駅中央街８－１ＪＲＪＰ博多ビル３Ｆ,,40,132,8120012,,,2025-05-28,清算の結了等,,,2022-06-21,1,,,,,フレイルバッテリージャパン,0
277,2011101073345,登記記録の閉鎖等,0,2025-06-03,2025-05-12,株式会社服部オフィス,,株式会社,東京都,新宿区,下落合４丁目２０番２５号,,13,104,1610033,,,2025-05-12,清算の結了等,,,2015-10-05,1,,,,,ハットリオフィス,0
294,2013301052475,登記記録の閉鎖等,0,2025-06-03,2025-05-07,株式会社ＤｏｕｂｌｅＵ　Ｃ＆Ｃ　Ｊａｐａｎ,,株式会社,東京都,港区,赤坂８丁目１２番１９号メトロパーク赤坂２０１,,13,103,1070052,,,2025-05-07,清算の結了等,,,2024-05-13,1,,,,,ダブルユーシーアンドシージャパン,0
303,2020002098673,登記記録の閉鎖等,0,2025-06-03,2025-05-30,有限会社萩原工業,,有限会社,神奈川県,川崎市川崎区,小田２丁目４番２０号,,14,131,2100846,,,2025-05-30,清算の結了等,,,2015-10-05,1,,,,,ハギワラコウギョウ,0
304,2020003012385,登記記録の閉鎖等,0,2025-06-03,2025-05-28,合同会社ＧＬＡＮＺエンタープライズ,,合同会社,神奈川県,横浜市青葉区,大場町３６１番地７９,,14,117,2250023,,,2025-05-28,清算の結了等,,,2017-02-15,1,,,,,グランツエンタープライズ,0
315,2030002044651,登記記録の閉鎖等,0,2025-06-03,2025-05-29,有限会社関根電機,,有限会社,埼玉県,草加市,弁天５丁目１４番７号,,11,221,3400004,,,2025-05-29,清算の結了等,,,2015-10-05,1,,,,,セキネデンキ,0
326,2040005017752,登記記録の閉鎖等,0,2025-06-03,2025-05-19,特定非営利活動法人月うさぎ,,その他の設立登記法人,千葉県,松戸市,根本１７１番地の４,,12,207,2710077,,,2025-05-19,清算の結了等,,,2015-10-05,1,,,,,ツキウサギ,0
329,2050002014850,登記記録の閉鎖等,0,2025-06-03,2025-05-30,有限会社大和田建設,,有限会社,茨城県,小美玉市,寺崎９１７番地の２,,08,236,3190131,,,2025-05-30,清算の結了等,,,2015-10-05,1,,,,,オオワダケンセツ,0
332,2060001008695,登記記録の閉鎖等,0,2025-06-03,2025-05-30,株式会社高橋組,,株式会社,栃木県,日光市,川治温泉川治１３１番地４,,09,206,3212611,,,2025-05-30,清算の結了等,,,2015-10-05,1,,,,,タカハシグミ,0
336,2070002030433,登記記録の閉鎖等,0,2025-06-03,2025-05-29,有限会社日伯センター,,有限会社,群馬県,邑楽郡大泉町,西小泉１丁目１２番１７号,,10,524,3700517,,,2025-05-29,清算の結了等,,,2015-10-05,1,,,,,,0
340,2080001023791,登記記録の閉鎖等,0,2025-06-03,2025-05-29,株式会社ＭＡＲＵＭＯ,,株式会社,静岡県,静岡市駿河区,下川原６丁目２５番５号,,22,102,4210113,,,2025-05-29,清算の結了等,,,2020-10-13,1,,,,,マルモ,0
358,2120003015361,登記記録の閉鎖等,0,2025-06-03,2025-05-28,合同会社アニラオ,,合同会社,大阪府,大阪市福島区,野田６丁目４－２２,,27,103,5530005,,,2025-05-28,清算の結了等,,,2019-02-22,1,,,,,アニラオ,0
370,2130001055326,登記記録の閉鎖等,0,2025-06-03,2025-05-28,株式会社アートプラスキョウト,,株式会社,京都府,京都市山科区,音羽沢町３番地４,,26,110,6078077,,,2025-05-28,清算の結了等,,,2015-10-05,1,,,,,アートプラスキョウト,0
380,2140005021414,登記記録の閉鎖等,0,2025-06-03,2025-05-23,特定非営利活動法人婚活せわやき隊,,その他の設立登記法人,兵庫県,神戸市灘区,城の下通２丁目９番２５号,,28,102,6570804,,,2025-05-23,清算の結了等,,,2015-10-05,1,,,,,,0
382,2150002006730,登記記録の閉鎖等,0,2025-06-03,2025-05-29,有限会社アルブリック・ジャパン,,有限会社,奈良県,奈良市,佐保台２丁目９０２番地の４２５,,29,201,6308105,,,2025-05-29,清算の結了等,,,2015-10-05,1,,,,,アルブリックジャパン,0
388,2180001153496,登記記録の閉鎖等,0,2025-06-03,2025-06-02,株式会社エバープラス,,株式会社,愛知県,名古屋市中区,丸の内３丁目５番３３号,,23,106,4600002,,,2025-06-02,清算の結了等,,,2022-10-27,1,,,,,エバープラス,0
400,2190001028417,登記記録の閉鎖等,0,2025-06-03,2025-05-29,株式会社大将陣,,株式会社,三重県,松阪市,小津町４７９番地１フェイスビル小津町１階,,24,204,5152114,,,2025-05-29,清算の結了等,,,2021-06-14,1,,,,,タイショウジン,0
416,2270002005357,登記記録の閉鎖等,0,2025-06-03,2025-05-26,有限会社石賀陶器店,,有限会社,鳥取県,米子市,法勝寺町６０番地,,31,202,6830063,,,2025-05-26,清算の結了等,,,2015-10-05,1,,,,,イシガトウキテン,0
427,2290005006929,登記記録の閉鎖等,0,2025-06-03,2025-05-29,特定非営利活動法人子ども未来ネットワーク春日,,その他の設立登記法人,福岡県,春日市,小倉２丁目２８番地東荘２０１号室,,40,218,8160824,,,2025-05-29,清算の結了等,,,2015-10-05,1,,,,,コドモミライネットワークカスガ,0
452,2420002012024,登記記録の閉鎖等,0,2025-06-03,2025-05-26,有限会社ヤマダホーム,,有限会社,青森県,北津軽郡中泊町,大字小泊字浜野４６番地２０,,02,387,0370514,,,2025-05-26,清算の結了等,,,2015-10-05,1,,,,,ヤマダホーム,0
476,3010001080681,登記記録の閉鎖等,0,2025-06-03,2025-05-15,ビ・エックス商会株式会社,,株式会社,東京都,中央区,日本橋小舟町７番１号,,13,102,1030024,,,2025-05-15,清算の結了等,,,2015-10-05,1,,,,,ビエックスショウカイ,0
479,3010001222317,登記記録の閉鎖等,0,2025-06-03,2025-05-15,株式会社Ｎ－ｃｒｅａｔｅ,,株式会社,東京都,千代田区,麹町６丁目４－６ＴＳ麹町ビル５０３号室,,13,101,1020083,,,2025-05-15,清算の結了等,,,2021-11-09,1,,,,,エヌクリエイト,0
498,3010501013546,登記記録の閉鎖等,0,2025-06-03,2025-05-23,株式会社水平屋商店,,株式会社,東京都,台東区,千束１丁目１番３号,,13,106,1110031,,,2025-05-23,清算の結了等,,,2015-10-05,1,,,,,スイヘイヤショウテン,0
500,3010501049012,登記記録の閉鎖等,0,2025-06-03,2025-05-23,株式会社ＲＡＲＥ　ＥＤＧＥ,,株式会社,東京都,台東区,上野５丁目５－８第七協立ビル１０Ｆ,,13,106,1100005,,,2025-05-23,清算の結了等,,,2022-06-23,1,,,,,レアエッジ,0
516,3011001043620,登記記録の閉鎖等,0,2025-06-03,2025-04-28,株式会社シグプランニング,,株式会社,東京都,渋谷区,大山町４５番１８号代々木上原ウエストビル３Ｆ,,13,113,1510065,,,2025-04-28,清算の結了等,,,2015-10-05,1,,,,,シグプランニング,0
517,3011001104463,登記記録の閉鎖等,0,2025-06-03,2025-04-28,株式会社ＪＡＤＥ,,株式会社,東京都,渋谷区,神宮前６丁目２３番１０号,,13,113,1500001,,,2025-04-28,清算の結了等,,,2015-10-05,1,,,,,,0
525,3011101073939,登記記録の閉鎖等,0,2025-06-03,2025-05-07,ブランパルク株式会社,,株式会社,東京都,港区,西新橋２丁目３３番４号,,13,103,1050003,,,2025-05-07,清算の結了等,,,2015-10-05,1,,,,,ブランパルク,0
532,3011401017050,登記記録の閉鎖等,0,2025-06-03,2025-05-29,株式会社ＭＭエンジニアリング,,株式会社,東京都,板橋区,宮本町３１番１５－４０３号,,13,119,1740054,,,2025-05-29,合併による解散等,2020001105942,令和７年５月１日川崎市宮前区東有馬四丁目１８番４号株式会社ＭＭエンジニアリング（2020001105942）に合併し解散,2015-10-05,1,,,,,エムエムエンジニアリング,0
533,3011502006539,登記記録の閉鎖等,0,2025-06-03,2025-05-30,和光冷熱有限会社,,有限会社,東京都,北区,神谷３丁目２３番３号,,13,117,1150043,,,2025-05-30,清算の結了等,,,2015-10-05,1,,,,,ワコウレイネツ,0
545,3020001012238,登記記録の閉鎖等,0,2025-06-03,2025-05-28,株式会社ユーフオー,,株式会社,神奈川県,横浜市青葉区,みたけ台１７番地４１,,14,117,2270047,,,2025-05-28,清算の結了等,,,2015-10-05,1,,,,,ユーフオー,0
548,3020005008629,登記記録の閉鎖等,0,2025-06-03,2025-05-28,特定非営利活動法人総合セラピスト協会,,その他の設立登記法人,神奈川県,川崎市幸区,鹿島田１００６番地鹿島田駅ビルＥＫＩＳＴ鹿島田２Ｆ,,14,132,2120058,,,2025-05-28,清算の結了等,,,2015-10-05,1,,,,,ソウゴウセラピストキョウカイ,0
555,3021001024776,登記記録の閉鎖等,0,2025-06-03,2025-05-20,ＥＳエンジニアリング株式会社,,株式会社,神奈川県,相模原市南区,上鶴間本町８丁目２６番１号,,14,153,2520318,,,2025-05-20,清算の結了等,,,2015-10-05,1,,,,,イーエスエンジニアリング,0
563,3021005003470,登記記録の閉鎖等,0,2025-06-03,2025-05-30,医療法人社団天成会,,その他の設立登記法人,神奈川県,厚木市,中町３丁目１２番４号,,14,212,2430018,,,2025-05-30,清算の結了等,,,2015-10-05,1,,,,,,0
564,3030001018358,登記記録の閉鎖等,0,2025-06-03,2025-05-26,協和電設株式会社,,株式会社,埼玉県,蓮田市,蓮田５丁目２６番地,,11,238,3490115,,,2025-05-26,清算の結了等,,,2015-10-05,1,,,,,キョウワデンセツ,0
580,3040001034230,登記記録の閉鎖等,0,2025-06-03,2025-05-16,株式会社メルトン,,株式会社,千葉県,市川市,行徳駅前１丁目１７番１７号一條ビルＩＩ,00019005,12,203,2720133,,,2025-05-16,清算の結了等,,,2015-10-05,1,,,,,メルトン,0
589,3060002016259,登記記録の閉鎖等,0,2025-06-03,2025-05-29,有限会社雪印牛乳栃木大原販売所,,有限会社,栃木県,日光市,鬼怒川温泉大原８９５番地の２,,09,206,3212522,,,2025-05-29,清算の結了等,,,2015-10-05,1,,,,,ユキジルシギュウニュウトチギオオハラハンバイジョ,0
593,3080102001555,登記記録の閉鎖等,0,2025-06-03,2025-05-30,有限会社サンロック,,有限会社,静岡県,沼津市,高島本町１１番１６号,,22,203,4100055,,,2025-05-30,清算の結了等,,,2015-10-05,1,,,,,サンロック,0
604,3110002009232,登記記録の閉鎖等,0,2025-06-03,2025-05-16,有限会社北越フードサプライ,,有限会社,新潟県,新潟市中央区,堀之内南１丁目２６番１５号,,15,103,9500982,,,2025-05-16,清算の結了等,,,2015-10-05,1,,,,,ホクエツフードサプライ,0
630,3122001023337,登記記録の閉鎖等,0,2025-06-03,2025-05-28,株式会社みなとフーズ,,株式会社,大阪府,八尾市,沼１丁目６８番地の６５,,27,212,5810036,,,2025-05-28,清算の結了等,,,2015-10-05,1,,,,,ミナトフーズ,0
642,3140001106465,登記記録の閉鎖等,0,2025-06-03,2025-05-29,株式会社光栄,,株式会社,兵庫県,神戸市長田区,三番町１丁目２番地の３,,28,106,6530011,,,2025-05-29,清算の結了等,,,2017-06-07,1,,,,,コウエイ,0
654,3180001062127,登記記録の閉鎖等,0,2025-06-03,2025-06-02,株式会社プラウシオンテックス,,株式会社,愛知県,名古屋市東区,矢田３丁目２番５５号,,23,102,4610040,,,2025-06-02,清算の結了等,,,2015-10-05,1,,,,,プラウシオンテックス,0
655,3180001092504,登記記録の閉鎖等,0,2025-06-03,2025-05-27,三興化学工業株式会社,,株式会社,愛知県,大府市,森岡町割木１３０番地,,23,223,4740031,,,2025-05-27,清算の結了等,,,2015-10-05,1,,,,,サンコウカガクコウギョウ,0
657,3180001113053,登記記録の閉鎖等,0,2025-06-03,2025-05-30,株式会社のぞみ代行,,株式会社,愛知県,名古屋市名東区,神里１丁目３１番地,,23,115,4650082,,,2025-05-30,清算の結了等,,,2015-10-05,1,,,,,ノゾミダイコウ,0
670,3210002009825,登記記録の閉鎖等,0,2025-06-03,2025-05-07,株式会社ツインバード・クリエイション,,株式会社,東京都,港区,麻布台１丁目７番２号,,13,103,1060041,,,2025-05-07,清算の結了等,,,2015-10-05,1,,,,,ツインバードクリエイション,0
722,3500001004764,登記記録の閉鎖等,0,2025-06-03,2025-06-02,冨岡製材株式会社,,株式会社,愛媛県,伊予市,宮下７４６番地１,,38,210,7993102,,,2025-06-02,清算の結了等,,,2015-10-05,1,,,,,トミオカセイザイ,0
727,3500002009754,登記記録の閉鎖等,0,2025-06-03,2025-05-30,有限会社南海エナジー,,有限会社,愛媛県,南宇和郡愛南町,船越１３１６番地,,38,506,7984205,,,2025-05-30,清算の結了等,,,2015-10-05,1,,,,,ナンカイエナジー,0
736,4010001001711,登記記録の閉鎖等,0,2025-06-03,2025-05-23,カーネルシステムズ株式会社,,株式会社,東京都,台東区,蔵前３丁目２番２号,,13,106,1110051,,,2025-05-23,清算の結了等,,,2015-10-05,1,,,,,カーネルシステムズ,0
742,4010003014505,登記記録の閉鎖等,0,2025-06-03,2025-05-14,合同会社ひょうたん屋,,合同会社,東京都,中央区,佃２丁目１１番１６号クレストフォルム月島セントラルコート６０１,,13,102,1040051,,,2025-05-14,清算の結了等,,,2015-10-05,1,,,,,ヒョウタンヤ,0
745,4010101010810,登記記録の閉鎖等,0,2025-06-03,2025-05-29,株式会社アトリエＩＴ,,株式会社,東京都,八王子市,寺田町８６９番地２９,,13,201,1930943,,,2025-05-29,清算の結了等,,,2015-10-05,1,,,,,アトリエイット,0
752,4010401099718,登記記録の閉鎖等,0,2025-06-03,2025-05-07,Ｅ２ｏｐｅｎ株式会社,,株式会社,東京都,港区,芝大門１丁目１０番１１号芝大門センタービル１０Ｆ,,13,103,1050012,,,2025-05-07,清算の結了等,,,2015-10-05,1,,,,,イーツーオープン,0
755,4010402004156,登記記録の閉鎖等,0,2025-06-03,2025-05-07,有限会社窪田園,,有限会社,東京都,港区,虎ノ門２丁目５番２号,,13,103,1050001,,,2025-05-07,清算の結了等,,,2015-10-05,1,,,,,クボタエン,0
784,4011003016219,登記記録の閉鎖等,0,2025-06-03,2025-05-01,ＨＡＲＡＤＡ合同会社,,合同会社,東京都,渋谷区,道玄坂１丁目１０番８号渋谷道玄坂東急ビル２Ｆ－Ｃ,,13,113,1500043,,,2025-05-01,清算の結了等,,,2023-02-03,1,,,,,ハラダ,0
788,4011005006382,登記記録の閉鎖等,0,2025-06-03,2025-05-20,一般社団法人日本ＨＰＰ研究会,,その他の設立登記法人,大阪府,吹田市,山田丘２番２号,,27,205,5650871,,,2025-05-20,清算の結了等,,,2015-10-05,1,,,,,,0
791,4011101101343,登記記録の閉鎖等,0,2025-06-03,2025-05-13,株式会社ＷＡＶＹ,,株式会社,東京都,新宿区,新宿２丁目１２番１３号,,13,104,1600022,,,2025-05-13,清算の結了等,,,2023-01-05,1,,,,,ウェイビー,0
805,4011501029102,登記記録の閉鎖等,0,2025-06-03,2025-05-29,大華小悦株式会社,,株式会社,東京都,荒川区,西日暮里６丁目５２番５号西日暮里ＳＥＡビル３０２,,13,118,1160013,,,2025-05-29,清算の結了等,,,2023-03-30,1,,,,,オオハナコエツ,0
806,4011801035394,登記記録の閉鎖等,0,2025-06-03,2025-05-29,株式会社Ａｓ　ＣｅｅＤ,,株式会社,東京都,足立区,平野１丁目１０番２０－４０７号,,13,121,1210076,,,2025-05-29,清算の結了等,,,2018-11-13,1,,,,,アスシード,0
808,4011802010207,登記記録の閉鎖等,0,2025-06-03,2025-05-29,有限会社永幸解体工業所,,有限会社,東京都,足立区,梅田８丁目１３番５号,,13,121,1230851,,,2025-05-29,清算の結了等,,,2015-10-05,1,,,,,エイコウカイタイコウギョウショ,0
823,4021001011146,登記記録の閉鎖等,0,2025-06-03,2025-05-30,旭電化工業株式会社,,株式会社,神奈川県,相模原市中央区,宮下本町１丁目２８番２号,,14,152,2520211,,,2025-05-30,清算の結了等,,,2015-10-05,1,,,,,,0
833,4030001019330,登記記録の閉鎖等,0,2025-06-03,2025-05-29,株式会社クリエイティブハウス,,株式会社,埼玉県,さいたま市岩槻区,大字本宿３２,,11,110,3390074,,,2025-05-29,清算の結了等,,,2015-10-05,1,,,,,クリエイティブハウス,0
842,4040001074779,登記記録の閉鎖等,0,2025-06-03,2025-05-13,共済相互金融株式会社,,株式会社,千葉県,南房総市,千倉町白子１３５番地,,12,234,2950003,,,2025-05-13,清算の結了等,,,2025-02-20,1,,,,,キョウサイソウゴキンユウ,0
850,4050001004594,登記記録の閉鎖等,0,2025-06-03,2025-05-26,セレクトア建設株式会社,,株式会社,茨城県,那珂郡那珂町,菅谷３０２３番地の４,,08,342,3110100,,,2025-05-26,清算の結了等,,,2025-04-01,1,,,,,セレクトアケンセツ,0
872,4100003004595,登記記録の閉鎖等,0,2025-06-03,2025-05-21,小岩嶽林業合同会社,,合同会社,長野県,安曇野市,穂高有明３１２５番地１,,20,220,3998301,,,2025-05-21,清算の結了等,,,2017-02-16,1,,,,,コイワタケリンギョウ,0
891,4120101030525,登記記録の閉鎖等,0,2025-06-03,2025-05-29,高橋産業株式会社,00032349,株式会社,大阪府,堺市東区,菩提町３丁１８８番地３,,27,143,5998103,,,2025-05-29,清算の結了等,,,2015-10-05,1,,,,,タカハシサンギョウ,0
894,4120103004790,登記記録の閉鎖等,0,2025-06-03,2025-05-29,Ｌｉｄｏ合同会社,,合同会社,大阪府,堺市北区,金岡町１６０５番地１－１－６０８号,,27,146,5918022,,,2025-05-29,清算の結了等,,,2022-07-22,1,,,,,リド,0
902,4120902007894,登記記録の閉鎖等,0,2025-06-03,2025-05-30,有限会社モーリス,,有限会社,大阪府,吹田市,南金田２丁目１８番２７号,,27,205,5640044,,,2025-05-30,清算の結了等,,,2015-10-05,1,,,,,,0
908,4130001040350,登記記録の閉鎖等,0,2025-06-03,2025-05-30,守弘フード株式会社,,株式会社,京都府,宇治市,菟道車田５１番地の２８,00047333,26,204,6110000,,,2025-05-30,清算の結了等,,,2015-10-05,1,,,,,モリヒロフード,0
917,4180001042193,登記記録の閉鎖等,0,2025-06-03,2025-05-30,株式会社グッドラン,,株式会社,愛知県,名古屋市東区,砂田橋２丁目１番Ｃ－９１１号,,23,102,4610045,,,2025-05-30,清算の結了等,,,2015-10-05,1,,,,,グッドラン,0
919,4180001097213,登記記録の閉鎖等,0,2025-06-03,2025-05-30,豊裕物産株式会社,,株式会社,愛知県,愛西市,大野町山２６番地,,23,232,4960922,,,2025-05-30,清算の結了等,,,2015-10-05,1,,,,,ホウユウブッサン,0
920,4180001119685,登記記録の閉鎖等,0,2025-06-03,2025-05-29,株式会社Ｍａｇｉｅ　Ｃｒａｆｔ,,株式会社,愛知県,津島市,光正寺町１１０番地１,,23,208,4960007,,,2025-05-29,清算の結了等,,,2015-10-05,1,,,,,マジークラフト,0
923,4180002060723,登記記録の閉鎖等,0,2025-06-03,2025-06-02,有限会社リードン,,有限会社,愛知県,名古屋市中川区,富田町大字千音寺字東福正４７５９番地,,23,110,4540971,,,2025-06-02,清算の結了等,,,2015-10-05,1,,,,,リードン,0
931,4210001010023,登記記録の閉鎖等,0,2025-06-03,2025-05-07,ケイテー・ニット株式会社,,株式会社,東京都,港区,麻布台１丁目７番２号,,13,103,1060041,,,2025-05-07,清算の結了等,,,2015-10-05,1,,,,,ケイテーニット,0
950,4290001100188,登記記録の閉鎖等,0,2025-06-03,2025-05-23,道深株式会社,,株式会社,福岡県,福岡市中央区,赤坂３丁目１番２９号,,40,133,8100042,,,2025-05-23,清算の結了等,,,2023-01-13,1,,,,,ドウシン,0
958,4300002004568,登記記録の閉鎖等,0,2025-06-03,2025-05-30,有限会社すずらん,,有限会社,佐賀県,小城市,三日月町久米１２９５番地２,,41,208,8450022,,,2025-05-30,清算の結了等,,,2015-10-05,1,,,,,スズラン,0
964,4350002003458,登記記録の閉鎖等,0,2025-06-03,2025-05-29,有限会社矢野合同事務所,,有限会社,宮崎県,宮崎市,大字熊野４９７番地１,,45,201,8892151,,,2025-05-29,清算の結了等,,,2015-10-05,1,,,,,ヤノゴウドウジムショ,0
978,4400005002831,登記記録の閉鎖等,0,2025-06-03,2025-05-20,特定非営利活動法人いわてパノラマ福祉館,,その他の設立登記法人,岩手県,盛岡市,羽場１４地割８番地４,,03,201,0200841,,,2025-05-20,清算の結了等,,,2015-10-05,1,,,,,イワテパノラマフクシカン,0
981,4430001009299,登記記録の閉鎖等,0,2025-06-03,2025-05-28,株式会社太海実業,,株式会社,北海道,札幌市北区,北十二条西４丁目２０番１号,,01,102,0010012,,,2025-05-28,清算の結了等,,,2015-10-05,1,,,,,タイカイジツギョウ,0
982,4430001043307,登記記録の閉鎖等,0,2025-06-03,2025-05-23,株式会社ぐろーばる農園,,株式会社,北海道,石狩郡当別町,字東裏５７５５番地,,01,303,0610213,,,2025-05-23,清算の結了等,,,2015-10-05,1,,,,,グローバルノウエン,0
990,4480002009244,登記記録の閉鎖等,0,2025-06-03,2025-05-30,有限会社千葉建築設計事務所,,有限会社,徳島県,吉野川市,鴨島町鴨島甲１７番地の４,,36,205,7760011,,,2025-05-30,清算の結了等,,,2015-10-05,1,,,,,チバケンチクセッケイジムショ,0
991,4480005000555,登記記録の閉鎖等,0,2025-06-03,2025-05-29,徳島インドネシア木材協同組合,,その他の設立登記法人,徳島県,徳島市,助任橋１丁目２２番地,,36,201,7700815,,,2025-05-29,清算の結了等,,,2015-10-05,1,,,,,トクシマインドネシアモクザイ,0
993,4500001011000,登記記録の閉鎖等,0,2025-06-03,2025-06-02,光洋産業株式会社,,株式会社,愛媛県,松山市,小川２９０番地,,38,201,7992468,,,2025-06-02,清算の結了等,,,2015-10-05,1,,,,,コウヨウサンギョウ,0
1004,5010001066902,登記記録の閉鎖等,0,2025-06-03,2025-05-21,株式会社ヘルフェン,,株式会社,東京都,千代田区,神田三崎町２丁目１４番７号,,13,101,1010061,,,2025-05-21,清算の結了等,,,2015-10-05,1,,,,,ヘルフェン,0
1031,5010601022222,登記記録の閉鎖等,0,2025-06-03,2025-05-29,株式会社栄徳,,株式会社,東京都,墨田区,江東橋４丁目２９番１３号,,13,107,1300022,,,2025-05-29,清算の結了等,,,2015-10-05,1,,,,,エイトク,0
1038,5011001032935,登記記録の閉鎖等,0,2025-06-03,2025-05-02,株式会社ケーエム,,株式会社,東京都,渋谷区,神宮前５丁目１５番４号,,13,113,1500001,,,2025-05-02,清算の結了等,,,2015-10-05,1,,,,,ケーエム,0
1042,5011101086567,登記記録の閉鎖等,0,2025-06-03,2025-05-13,株式会社うまやど,,株式会社,東京都,新宿区,西新宿５丁目８番６号,,13,104,1600023,,,2025-05-13,清算の結了等,,,2019-01-18,1,,,,,ウマヤド,0
1047,5011102004965,登記記録の閉鎖等,0,2025-06-03,2025-05-13,有限会社崑崙企画,,有限会社,東京都,新宿区,喜久井町３４番地,,13,104,1620044,,,2025-05-13,清算の結了等,,,2015-10-05,1,,,,,コンロンキカク,0
1049,5011203003783,登記記録の閉鎖等,0,2025-06-03,2025-05-30,ＴＮ合同会社,,合同会社,東京都,中野区,中央１丁目２３番２４号三和中野３０４号,,13,114,1640011,,,2025-05-30,清算の結了等,,,2022-04-04,1,,,,,ティーエヌ,0
1051,5011301028518,登記記録の閉鎖等,0,2025-06-03,2025-05-29,株式会社ＧＬＡＭＰＩＯＮ,,株式会社,東京都,杉並区,高円寺北１丁目１６番１２号グロスピエール高円寺２０７,,13,115,1660002,,,2025-05-29,清算の結了等,,,2023-03-14,1,,,,,グランピオン,0
1066,5012801009032,登記記録の閉鎖等,0,2025-06-03,2025-05-29,株式会社富士コーポレーション,,株式会社,東京都,武蔵村山市,伊奈平６丁目２６番地の２,,13,223,2080023,,,2025-05-29,清算の結了等,,,2015-10-05,1,,,,,,0
1068,5020001000281,登記記録の閉鎖等,0,2025-06-03,2025-05-30,株式会社高木塾,,株式会社,神奈川県,横浜市栄区,犬山町１０番３号,,14,115,2470026,,,2025-05-30,清算の結了等,,,2015-10-05,1,,,,,タカギジュク,0
1082,5020002084910,登記記録の閉鎖等,0,2025-06-03,2025-06-02,有限会社不二電気商会,,有限会社,神奈川県,川崎市中原区,木月３丁目３５番１７号,,14,133,2110025,,,2025-06-02,清算の結了等,,,2015-10-05,1,,,,,フジデンキショウカイ,0
1087,5021001045416,登記記録の閉鎖等,0,2025-06-03,2025-05-30,ＮＡＧＨＯＳＡＮ貿易株式会社,,株式会社,神奈川県,小田原市,栢山８２４番地の３,,14,206,2500852,,,2025-05-30,清算の結了等,,,2015-10-05,1,,,,,ナゴサンボウエキ,0
1096,5030003023817,登記記録の閉鎖等,0,2025-06-03,2025-05-01,合同会社アルカナトイズ,,合同会社,埼玉県,川口市,南町２丁目９番２９号ヴィラ川口南町２０３号,,11,203,3320026,,,2025-05-01,清算の結了等,,,2024-03-15,1,,,,,アルカナトイズ,0
1117,5070001030828,登記記録の閉鎖等,0,2025-06-03,2025-05-29,株式会社ボスケット,,株式会社,群馬県,太田市,金山町３８番４２号,,10,205,3730027,,,2025-05-29,清算の結了等,,,2015-10-05,1,,,,,ボスケット,0
1131,5110005016835,登記記録の閉鎖等,0,2025-06-03,2025-05-19,一般社団法人新潟医師ワークライフ協議会,,その他の設立登記法人,新潟県,新潟市中央区,南笹口１丁目１番３８号コープオリンピア８０８号,,15,103,9500912,,,2025-05-19,清算の結了等,,,2022-07-26,1,,,,,ニイガタイシライフワークキョウギカイ,0
1137,5120001222527,登記記録の閉鎖等,0,2025-06-03,2025-05-26,株式会社イーアン,,株式会社,大阪府,大阪市淀川区,東三国４丁目１４番１６号,,27,123,5320002,,,2025-05-26,清算の結了等,,,2019-07-19,1,,,,,イーアン,0
1165,5130002032619,登記記録の閉鎖等,0,2025-06-03,2025-05-29,有限会社サンコーハウス,,有限会社,京都府,福知山市,字正明寺３８８番地の３,,26,201,6200936,,,2025-05-29,清算の結了等,,,2015-10-05,1,,,,,サンコーハウス,0
1174,5140002030167,登記記録の閉鎖等,0,2025-06-03,2025-05-29,有限会社ヒカリ扇,,有限会社,兵庫県,明石市,藤江字三ツ池２０２９番地の１,,28,203,6730044,,,2025-05-29,清算の結了等,,,2015-10-05,1,,,,,ヒカリオオギ,0
1194,5190002004182,登記記録の閉鎖等,0,2025-06-03,2025-05-29,有限会社スリーク,,有限会社,三重県,津市,上浜町２丁目１９９番地１,,24,201,5140008,,,2025-05-29,清算の結了等,,,2015-10-05,1,,,,,スリーク,0
1195,5190002022449,登記記録の閉鎖等,0,2025-06-03,2025-05-29,有限会社矢田工芸,,有限会社,三重県,四日市市,小林町３０２５番地１９５,,24,202,5100946,,,2025-05-29,清算の結了等,,,2015-10-05,1,,,,,ヤタコウゲイ,0
1228,5290002016515,登記記録の閉鎖等,0,2025-06-03,2025-05-29,有限会社トミタ,,有限会社,福岡県,福岡市博多区,板付４丁目５番７号,,40,132,8120888,,,2025-05-29,清算の結了等,,,2015-10-05,1,,,,,トミタ,0
1237,5320002001488,登記記録の閉鎖等,0,2025-06-03,2025-05-16,王子第一交通株式会社,,株式会社,大分県,大分市,大字八幡字安供田４０番１０,,44,201,8700100,,,2025-05-16,合併による解散等,1320001003101,令和７年５月１日大分市弁天一丁目４番２９号大分第一交通株式会社（1320001003101）に合併し解散,2015-10-05,1,,,,,,0
1253,5350003003456,登記記録の閉鎖等,0,2025-06-03,2025-05-28,合同会社わんだふるハウス,,合同会社,宮崎県,都城市,甲斐元町２街区６号,,45,202,8850074,,,2025-05-28,清算の結了等,,,2019-11-18,1,,,,,ワンダフルハウス,0
1287,6010401030671,登記記録の閉鎖等,0,2025-06-03,2025-05-07,株式会社よつば,,株式会社,東京都,港区,新橋６丁目４番８号,,13,103,1050004,,,2025-05-07,清算の結了等,,,2015-10-05,1,,,,,ヨツバ,0
1298,6010502003304,登記記録の閉鎖等,0,2025-06-03,2025-05-23,有限会社君津商事,,有限会社,東京都,台東区,東上野１丁目２７番９号,,13,106,1100015,,,2025-05-23,清算の結了等,,,2015-10-05,1,,,,,,0
1329,6013105001617,登記記録の閉鎖等,0,2025-06-03,2025-06-02,一般社団法人東京アグリ研究協会,,その他の設立登記法人,鳥取県,鳥取市,川端５丁目３０８番地,,31,201,6800036,,,2025-06-02,清算の結了等,,,2015-10-05,1,,,,,トウキョウアグリケンキュウキョウカイ,0
1356,6040001114426,登記記録の閉鎖等,0,2025-06-03,2025-05-19,株式会社Ｓ－ＤＲＩＶＥ,,株式会社,千葉県,千葉市美浜区,中瀬１丁目３番地幕張テクノガーデンＣＢ棟３階ＭＢＰ,,12,106,2610023,,,2025-05-19,清算の結了等,,,2020-07-20,1,,,,,エスドライブ,0
1375,6080102003111,登記記録の閉鎖等,0,2025-06-03,2025-05-30,有限会社藤木建設,,有限会社,静岡県,沼津市,松下町８番地,,22,203,4100864,,,2025-05-30,清算の結了等,,,2015-10-05,1,,,,,,0
1377,6100003006755,登記記録の閉鎖等,0,2025-06-03,2025-05-30,合同会社ｋｎｏｔ,,合同会社,長野県,長野市,大字川合新田４８６番地４,,20,201,3800913,,,2025-05-30,清算の結了等,,,2022-11-07,1,,,,,ノット,0
1380,6120001075305,登記記録の閉鎖等,0,2025-06-03,2025-05-26,株式会社エイワニット,,株式会社,大阪府,大阪市中央区,南久宝寺町２丁目４番１０号,,27,128,5410058,,,2025-05-26,清算の結了等,,,2015-10-05,1,,,,,エイワニット,0
1388,6120101046940,登記記録の閉鎖等,0,2025-06-03,2025-05-30,株式会社ＴＭＣ,,株式会社,東京都,世田谷区,深沢２丁目１番１号深沢ハウスＪ棟１４０５号室,,13,112,1580081,,,2025-05-30,清算の結了等,,,2015-10-05,1,,,,,ティーエムシー,0
1394,6120903002199,登記記録の閉鎖等,0,2025-06-03,2025-05-29,合同会社ありがとう,,合同会社,大阪府,茨木市,寺田町２番２９号の３６奥田アパート１７号,,27,211,5670823,,,2025-05-29,清算の結了等,,,2017-05-22,1,,,,,アリガトウ,0
1399,6122002012963,登記記録の閉鎖等,0,2025-06-03,2025-05-30,有限会社ビザビインターナショナルトレーディング,,有限会社,大阪府,柏原市,法善寺３丁目４４５番地の１８,,27,221,5820005,,,2025-05-30,清算の結了等,,,2015-10-05,1,,,,,ビザビインターナショナルトレーディング,0
1406,6140001075880,登記記録の閉鎖等,0,2025-06-03,2025-05-28,株式会社ファブリック健,,株式会社,兵庫県,西脇市,高田井町３７３番地の７,,28,213,6770016,,,2025-05-28,清算の結了等,,,2015-10-05,1,,,,,ファブリックケン,0
1419,6180001044411,登記記録の閉鎖等,0,2025-06-03,2025-06-02,アミックテレコム株式会社,,株式会社,愛知県,名古屋市中村区,名駅５丁目１８番６号,,23,105,4500002,,,2025-06-02,清算の結了等,,,2015-10-05,1,,,,,アミックテレコム,0
1422,6180002038486,登記記録の閉鎖等,0,2025-06-03,2025-05-30,有限会社原田殖産,,有限会社,愛知県,名古屋市昭和区,長池町５丁目３２番地の１,,23,107,4660847,,,2025-05-30,清算の結了等,,,2015-10-05,1,,,,,ハダラショクサン,0
1425,6180302026595,登記記録の閉鎖等,0,2025-06-03,2025-05-29,有限会社藤金型,,有限会社,愛知県,西尾市,神下町１２９番地１,,23,213,4450823,,,2025-05-29,清算の結了等,,,2015-10-05,1,,,,,フジカナガタ,0
1434,6200002013536,登記記録の閉鎖等,0,2025-06-03,2025-05-30,有限会社田宮製畳,,有限会社,岐阜県,安八郡神戸町,大字丈六道３１８番地の３,,21,381,5032304,,,2025-05-30,清算の結了等,,,2015-10-05,1,,,,,,0
1437,6210002011893,登記記録の閉鎖等,0,2025-06-03,2025-05-30,有限会社福井新聞武生北販売店,,有限会社,福井県,越前市,小松２丁目１番１１号,,18,209,9150816,,,2025-05-30,清算の結了等,,,2015-10-05,1,,,,,フクイシンブンタケフキタハンバイテン,0
1442,6230001009549,登記記録の閉鎖等,0,2025-06-03,2025-05-29,株式会社ディレクト,,株式会社,富山県,富山市,四方荒屋１３６４番地１１,,16,201,9302243,,,2025-05-29,清算の結了等,,,2015-10-05,1,,,,,ディレクト,0
1475,6300001013287,登記記録の閉鎖等,0,2025-06-03,2025-05-30,グッドリング株式会社,,株式会社,佐賀県,佐賀市,嘉瀬町大字十五１３１７番地１,,41,201,8400863,,,2025-05-30,清算の結了等,,,2023-05-01,1,,,,,グッドリング,0
1485,6360001018917,登記記録の閉鎖等,0,2025-06-03,2025-05-28,株式会社ニライカナイファーム,,株式会社,沖縄県,那覇市,具志２丁目２２番１３号,,47,201,9010146,,,2025-05-28,合併による解散等,4360001024363,令和７年５月２３日沖縄県那覇市具志二丁目２２番１３号ニライカナイファーマーズ株式会社（4360001024363）に合併し解散,2015-10-05,1,,,,,ニライカナイファーム,0
1493,6370002006358,登記記録の閉鎖等,0,2025-06-03,2025-05-27,有限会社若林自動車,,有限会社,宮城県,仙台市若林区,荒井７丁目３７番地の４,,04,103,9840032,,,2025-05-27,清算の結了等,,,2015-10-05,1,,,,,ワカバヤシジドウシャ,0
1535,7010003043872,登記記録の閉鎖等,0,2025-06-03,2025-05-13,環境資源合同会社,,合同会社,東京都,中央区,銀座６丁目７番１６号第一岩月ビル７階,,13,102,1040061,,,2025-05-13,清算の結了等,,,2024-05-29,1,,,,,カンキョウシゲン,0
1539,7010101001055,登記記録の閉鎖等,0,2025-06-03,2025-05-30,株式会社グループ・アドバイザー,,株式会社,東京都,八王子市,南陽台３丁目１番２１号,,13,201,1920371,,,2025-05-30,清算の結了等,,,2015-10-05,1,,,,,グループアドバイザー,0
1545,7010401141600,登記記録の閉鎖等,0,2025-06-03,2025-05-07,クラリネット株式会社,,株式会社,東京都,港区,赤坂８丁目４番１４号,,13,103,1070052,,,2025-05-07,清算の結了等,,,2018-10-25,1,,,,,クラリネット,0
1548,7010502014110,登記記録の閉鎖等,0,2025-06-03,2025-05-23,有限会社ルナボルサショールーム,,有限会社,東京都,台東区,蔵前４丁目６番８号,,13,106,1110051,,,2025-05-23,清算の結了等,,,2015-10-05,1,,,,,ルナボルサショールーム,0
1559,7011001047931,登記記録の閉鎖等,0,2025-06-03,2025-04-24,東洋ピラー株式会社,,株式会社,東京都,渋谷区,広尾１丁目１１番５－１３０８号,,13,113,1500012,,,2025-04-24,清算の結了等,,,2015-10-05,1,,,,,トウヨウピラー,0
1571,7011201015399,登記記録の閉鎖等,0,2025-06-03,2025-04-28,株式会社東洋エージェンシー・リンケージ,,株式会社,東京都,渋谷区,恵比寿南１丁目２０番６号第２１荒井ビル４階,,13,113,1500022,,,2025-04-28,清算の結了等,,,2015-10-05,1,,,,,トウヨウエージェンシーリンケージ,0
1585,7012303001205,登記記録の閉鎖等,0,2025-06-03,2025-05-12,合同会社ポリアンナプラス,,合同会社,東京都,町田市,森野１丁目３２番１４－２１０号,,13,209,1940022,,,2025-05-12,清算の結了等,,,2018-11-12,1,,,,,ポリアンナプラス,0
1590,7013201004290,登記記録の閉鎖等,0,2025-06-03,2025-05-21,内外出版株式会社,,株式会社,東京都,目黒区,鷹番３丁目６番１号,,13,110,1520004,,,2025-05-21,清算の結了等,,,2015-10-05,1,,,,,ナイガイシュッパン,0
1596,7020001089438,登記記録の閉鎖等,0,2025-06-03,2025-05-28,株式会社後藤眞理子デザイン事務所,,株式会社,神奈川県,横浜市緑区,中山４丁目２５番１２－１０４号,,14,113,2260019,,,2025-05-28,清算の結了等,,,2015-10-05,1,,,,,ゴトウマリコデザインジムショ,0
1603,7020002022983,登記記録の閉鎖等,0,2025-06-03,2025-05-30,有限会社安藤圧送,,有限会社,神奈川県,横浜市保土ケ谷区,藤塚町１０番５１号,,14,106,2400031,,,2025-05-30,清算の結了等,,,2015-10-05,1,,,,,アンドウアッソウ,0
1607,7021001021893,登記記録の閉鎖等,0,2025-06-03,2025-05-16,株式会社コーヨー,,株式会社,神奈川県,伊勢原市,鈴川６番地,,14,214,2591146,,,2025-05-16,清算の結了等,,,2024-05-24,1,,,,,コーヨー,0
1636,7070001007626,登記記録の閉鎖等,0,2025-06-03,2025-05-28,タカサキドリーム株式会社,,株式会社,群馬県,高崎市,上滝町字榎木町４６９番地４,,10,202,3700027,,,2025-05-28,清算の結了等,,,2015-10-05,1,,,,,タカサキドリーム,0
1642,7080002014752,登記記録の閉鎖等,0,2025-06-03,2025-05-28,有限会社本杉電気商会,,有限会社,静岡県,榛原郡吉田町,住吉２１９７番地,,22,424,4210301,,,2025-05-28,清算の結了等,,,2015-10-05,1,,,,,モトスギデンキショウカイ,0
1652,7120001075857,登記記録の閉鎖等,0,2025-06-03,2025-05-27,エム・アンド・エム株式会社,,株式会社,大阪府,大阪市住之江区,南港北２丁目１番１０号ＡＴＣビル,,27,125,5590034,,,2025-05-27,清算の結了等,,,2015-10-05,1,,,,,エムアンドエム,0
1669,7120901020318,登記記録の閉鎖等,0,2025-06-03,2025-05-28,株式会社大阪サンコロール,,株式会社,大阪府,箕面市,船場東２丁目１番１３号三崎商事株式会社内,,27,220,5620035,,,2025-05-28,清算の結了等,,,2015-10-05,1,,,,,オオサカサンコロール,0
1691,7180001004174,登記記録の閉鎖等,0,2025-06-03,2025-05-28,株式会社シービーシー,,株式会社,愛知県,名古屋市千種区,内山３丁目３３番８号,,23,101,4640075,,,2025-05-28,清算の結了等,,,2025-02-28,1,,,,,シービーシー,0
1693,7180001101228,登記記録の閉鎖等,0,2025-06-03,2025-05-30,トーイエナジー株式会社,,株式会社,愛知県,名古屋市中村区,烏森町６丁目２６４番地,,23,105,4530855,,,2025-05-30,清算の結了等,,,2015-10-05,1,,,,,トーイエナジー,0
1699,7180002007201,登記記録の閉鎖等,0,2025-06-03,2025-05-30,有限会社港コンタクト,,有限会社,愛知県,名古屋市港区,小碓２丁目２７２番,,23,111,4550801,,,2025-05-30,清算の結了等,,,2015-10-05,1,,,,,ミナトコンタクト,0
1700,7180002053352,登記記録の閉鎖等,0,2025-06-03,2025-05-30,有限会社アイモス,,有限会社,愛知県,名古屋市緑区,清水山２丁目１１０７番地,,23,114,4598009,,,2025-05-30,清算の結了等,,,2015-10-05,1,,,,,アイモス,0
1707,7190001006946,登記記録の閉鎖等,0,2025-06-03,2025-05-23,株式会社広山水産,,株式会社,三重県,伊勢市,有滝町２６７５番地,,24,203,5150501,,,2025-05-23,清算の結了等,,,2015-10-05,1,,,,,ヒロヤマスイサン,0
1712,7200001002282,登記記録の閉鎖等,0,2025-06-03,2025-05-30,株式会社サンビーム,,株式会社,岐阜県,岐阜市,則武中１丁目１１番１０号,,21,201,5020932,,,2025-05-30,清算の結了等,,,2015-10-05,1,,,,,サンビーム,0
1719,7230001001281,登記記録の閉鎖等,0,2025-06-03,2025-05-30,昭和住宅資材株式会社,,株式会社,富山県,富山市,本郷２４５３番地,,16,201,9300108,,,2025-05-30,清算の結了等,,,2015-10-05,1,,,,,ショウワジュウタクシザイ,0
1732,7250001007467,登記記録の閉鎖等,0,2025-06-03,2025-05-29,株式会社久遠堂,,株式会社,山口県,下関市,長府扇町１０番３０号,,35,201,7520927,,,2025-05-29,清算の結了等,,,2015-10-05,1,,,,,キュウエンドウ,0
1733,7260001024676,登記記録の閉鎖等,0,2025-06-03,2025-05-26,ベルコーポレーション株式会社,,株式会社,岡山県,倉敷市,東富井８３２番地３,,33,202,7100847,,,2025-05-26,清算の結了等,,,2015-10-05,1,,,,,ベルコーポレーション,0
1737,7270003000328,登記記録の閉鎖等,0,2025-06-03,2025-05-30,合同会社丸善急送,,合同会社,鳥取県,境港市,中野町４２番地,,31,204,6840041,,,2025-05-30,清算の結了等,,,2015-10-05,1,,,,,マルゼンキュウソウ,0
1767,7410001006766,登記記録の閉鎖等,0,2025-06-03,2025-05-29,株式会社ミキティホーム,,株式会社,秋田県,大館市,字観音堂４３３番地３,,05,204,0170042,,,2025-05-29,清算の結了等,,,2015-10-05,1,,,,,ミキティホーム,0
1770,7430001091559,登記記録の閉鎖等,0,2025-06-03,2025-05-28,株式会社今野工業,,株式会社,北海道,苫小牧市,清水町２丁目２番２０一５０７号,,01,213,0530034,,,2025-05-28,清算の結了等,,,2024-04-15,1,,,,,コンノコウギョウ,0
1773,7430002062939,登記記録の閉鎖等,0,2025-06-03,2025-05-29,有限会社山十中村商店,,有限会社,北海道,沙流郡日高町,字厚賀町１０９番地,,01,601,0592243,,,2025-05-29,清算の結了等,,,2015-10-05,1,,,,,ヤマジュウナカムラショウテン,0
1777,7460003000894,登記記録の閉鎖等,0,2025-06-03,2025-05-30,合同会社ＥＲＢＥ,,合同会社,北海道,厚岸郡浜中町,姉別北１１６番地,,01,663,0881648,,,2025-05-30,清算の結了等,,,2022-04-19,1,,,,,エーベ,0
1797,8010003027783,登記記録の閉鎖等,0,2025-06-03,2025-05-16,合同会社Ｒｕｒｉ,,合同会社,東京都,千代田区,丸の内１丁目４番１号東京共同会計事務所内,,13,101,1000005,,,2025-05-16,清算の結了等,,,2018-06-26,1,,,,,ルリ,0
1806,8010401139098,登記記録の閉鎖等,0,2025-06-03,2025-05-07,ＣＯ株式会社,,株式会社,東京都,港区,虎ノ門１丁目３番１号,,13,103,1050001,,,2025-05-07,清算の結了等,,,2018-06-28,1,,,,,シーオー,0
1809,8010402006025,登記記録の閉鎖等,0,2025-06-03,2025-05-07,有限会社ボルゴデブルー,,有限会社,東京都,港区,元麻布２丁目１番７号,,13,103,1060046,,,2025-05-07,清算の結了等,,,2015-10-05,1,,,,,ボルゴデブルー,0
1813,8010501015744,登記記録の閉鎖等,0,2025-06-03,2025-05-22,株式会社ホテルカワセ,,株式会社,東京都,台東区,花川戸１丁目１２番８－２０２号,,13,106,1110033,,,2025-05-22,清算の結了等,,,2015-10-05,1,,,,,ホテルカワセ,0
1816,8010603009446,登記記録の閉鎖等,0,2025-06-03,2025-05-28,Ｗｉｓｈｉｎｇ　Ｔｒｅｅ合同会社,,合同会社,東京都,江東区,越中島３丁目１番３号ルネ・ベイグランデ１２０３,,13,108,1350044,,,2025-05-28,清算の結了等,,,2022-03-17,1,,,,,ウィッシングツリー,0
1829,8011001055041,登記記録の閉鎖等,0,2025-06-03,2025-05-21,株式会社アクアウェブ,,株式会社,東京都,渋谷区,道玄坂１丁目２２番１２号,,13,113,1500043,,,2025-05-21,清算の結了等,,,2015-10-05,1,,,,,アクアウェブ,0
1842,8011201003064,登記記録の閉鎖等,0,2025-06-03,2025-05-30,タートル株式会社,,株式会社,東京都,中野区,中央４丁目６番１２号,,13,114,1640011,,,2025-05-30,清算の結了等,,,2015-10-05,1,,,,,タートル,0
1848,8011502007490,登記記録の閉鎖等,0,2025-06-03,2025-05-29,有限会社大塚製作所,00055889,有限会社,東京都,荒川区,東尾久８丁目３番１０号,,13,118,1160012,,,2025-05-29,清算の結了等,,,2015-10-05,1,,,,,オオツカセイサクショ,0
1856,8011801016390,登記記録の閉鎖等,0,2025-06-03,2025-05-29,株式会社サニーベール,,株式会社,東京都,足立区,谷中１丁目３２番２９号,,13,121,1200006,,,2025-05-29,清算の結了等,,,2015-10-05,1,,,,,,0
1874,8020002033591,登記記録の閉鎖等,0,2025-06-03,2025-05-28,株式会社コクサン商事,,株式会社,神奈川県,横浜市港北区,新横浜１丁目３番９号,,14,109,2220033,,,2025-05-28,清算の結了等,,,2015-10-05,1,,,,,コクサンショウジ,0
1875,8020002057665,登記記録の閉鎖等,0,2025-06-03,2025-05-29,有限会社ネットモーターズ横浜,,有限会社,神奈川県,横浜市戸塚区,平戸町８２番３,,14,110,2440803,,,2025-05-29,清算の結了等,,,2015-10-05,1,,,,,ネットモーターズヨコハマ,0
1879,8021001025266,登記記録の閉鎖等,0,2025-06-03,2025-05-28,株式会社ササキ,,株式会社,神奈川県,大和市,下鶴間２丁目４番５号,,14,213,2420001,,,2025-05-28,清算の結了等,,,2015-10-05,1,,,,,ササキ,0
1904,8040002099185,登記記録の閉鎖等,0,2025-06-03,2025-05-19,有限会社和泉屋瓦店,,有限会社,千葉県,館山市,正木１６４８番地,,12,205,2940051,,,2025-05-19,清算の結了等,,,2015-10-05,1,,,,,イズミヤカワラテン,0
1913,8060001034653,登記記録の閉鎖等,0,2025-06-03,2025-05-30,株式会社Ｃｏｏｌ　Ｆｏｒｅｓｔ,,株式会社,栃木県,日光市,土沢１８１９番地５,,09,206,3211274,,,2025-05-30,清算の結了等,,,2022-03-11,1,,,,,クールフォレスト,0
1914,8060003001362,登記記録の閉鎖等,0,2025-06-03,2025-05-23,株式会社オーシー・サービス,,株式会社,東京都,豊島区,千川２丁目１２番１４号,,13,116,1710041,,,2025-05-23,清算の結了等,,,2015-10-05,1,,,,,オーシーサービス,0
1920,8080002011542,登記記録の閉鎖等,0,2025-06-03,2025-05-29,有限会社ヤマダ重量作業,,有限会社,静岡県,静岡市清水区,吉川９９６番地の１４,,22,103,4240055,,,2025-05-29,清算の結了等,,,2015-10-05,1,,,,,ヤマダジュウリョウサギョウ,0
1927,8110001031934,登記記録の閉鎖等,0,2025-06-03,2025-05-23,株式会社Ｆｅｌｉｃｅ,,株式会社,新潟県,新潟市中央区,西堀前通５番町７６１番地,,15,103,9518062,,,2025-05-23,清算の結了等,,,2016-11-11,1,,,,,フェリーチェ,0
1929,8120001086713,登記記録の閉鎖等,0,2025-06-03,2025-05-27,日新繊維株式会社,,株式会社,大阪府,大阪市中央区,上本町西５丁目３番１６号國分ビル,,27,128,5420062,,,2025-05-27,清算の結了等,,,2015-10-05,1,,,,,ニッシンセンイ,0
1944,8120901010730,登記記録の閉鎖等,0,2025-06-03,2025-05-30,株式会社京屋,,株式会社,大阪府,高槻市,沢良木町１３番３１号,,27,207,5690084,,,2025-05-30,清算の結了等,,,2015-10-05,1,,,,,,0
1945,8120901014046,登記記録の閉鎖等,0,2025-06-03,2025-05-20,株式会社音通エンタテイメント,,株式会社,大阪府,大阪市北区,本庄東１丁目１番１０号,,27,127,5310074,,,2025-05-20,合併による解散等,9120901010556,令和７年５月１日大阪市北区本庄東一丁目１番１０号株式会社音通（9120901010556）に合併し解散,2015-10-05,1,,,,,オンツウエンタテイメント,0
1963,8180001039780,登記記録の閉鎖等,0,2025-06-03,2025-06-02,株式会社ハイプランジャパン,,株式会社,愛知県,名古屋市中区,錦１丁目７番２７号,,23,106,4600003,,,2025-06-02,清算の結了等,,,2015-10-05,1,,,,,ハイプランジャパン,0
2027,8460002004540,登記記録の閉鎖等,0,2025-06-03,2025-05-30,有限会社勝木石油商会,,有限会社,北海道,厚岸郡厚岸町,若竹１丁目７９番地,,01,662,0881118,,,2025-05-30,清算の結了等,,,2015-10-05,1,,,,,カツキセキユショウカイ,0
2051,9010502010553,登記記録の閉鎖等,0,2025-06-03,2025-05-19,有限会社マイルド,,有限会社,千葉県,佐倉市,石川５７７番地７,,12,212,2850813,,,2025-05-19,清算の結了等,,,2015-10-05,1,,,,,マイルド,0
2054,9010801031242,登記記録の閉鎖等,0,2025-06-03,2025-05-28,株式会社Ｂａｓｉｃ,,株式会社,東京都,大田区,上池台４丁目１８番１５号,,13,111,1450064,,,2025-05-28,清算の結了等,,,2020-09-23,1,,,,,ベイシック,0
2058,9011001053399,登記記録の閉鎖等,0,2025-06-03,2025-04-30,株式会社ＢＡＲＡＫＡ,,株式会社,東京都,渋谷区,松濤１丁目１番３号,,13,113,1500046,,,2025-04-30,清算の結了等,,,2015-10-05,1,,,,,バラカ,0
2062,9011001134876,登記記録の閉鎖等,0,2025-06-03,2025-05-21,ニューエイジ・ディー・シー株式会社,,株式会社,東京都,渋谷区,松濤１丁目２８番２号,,13,113,1500046,,,2025-05-21,清算の結了等,,,2020-07-20,1,,,,,ニューエイジディーシー,0
2099,9011802008881,登記記録の閉鎖等,0,2025-06-03,2025-05-28,アイティーエス有限会社,,有限会社,東京都,足立区,足立４丁目１６番６号,,13,121,1200015,,,2025-05-28,清算の結了等,,,2015-10-05,1,,,,,アイティーエス,0
2105,9020001026562,登記記録の閉鎖等,0,2025-06-03,2025-05-30,株式会社サイクローム,,株式会社,神奈川県,横浜市中区,南仲通３丁目３２番地１,,14,104,2310006,,,2025-05-30,清算の結了等,,,2015-10-05,1,,,,,サイクローム,0
2113,9021001014499,登記記録の閉鎖等,0,2025-06-03,2025-05-26,株式会社ユニオンデザイン,,株式会社,神奈川県,相模原市中央区,水郷田名２丁目２７番２２号,,14,152,2520246,,,2025-05-26,清算の結了等,,,2015-10-05,1,,,,,ユニオンデザイン,0
2123,9030002062333,登記記録の閉鎖等,0,2025-06-03,2025-05-29,有限会社まんぷく亭,,有限会社,埼玉県,新座市,東２丁目２番１号,,11,230,3520002,,,2025-05-29,清算の結了等,,,2015-10-05,1,,,,,マンプクテイ,0
2126,9040001021719,登記記録の閉鎖等,0,2025-06-03,2025-05-23,ワークスネット株式会社,,株式会社,東京都,台東区,蔵前３丁目２番２号,,13,106,1110051,,,2025-05-23,清算の結了等,,,2015-10-05,1,,,,,ワークスネット,0
2138,9080001022795,登記記録の閉鎖等,0,2025-06-03,2025-05-29,株式会社ＨＯＭＡＲＥ,,株式会社,静岡県,静岡市葵区,美川町１０番１４号,,22,101,4200875,,,2025-05-29,清算の結了等,,,2019-04-04,1,,,,,ホマレ,0
2144,9100002000789,登記記録の閉鎖等,0,2025-06-03,2025-05-30,有限会社エヌピー・ニシキ,,有限会社,長野県,長野市,大字高田２３０７番地１,,20,201,3810034,,,2025-05-30,清算の結了等,,,2015-10-05,1,,,,,エヌピーニシキ,0
2151,9120001190497,登記記録の閉鎖等,0,2025-06-03,2025-05-26,株式会社ＫＵＧＩ　ＫＯＵＢＯＵ,,株式会社,大阪府,大阪市阿倍野区,昭和町１丁目１５番１６号シェソワ昭和町６０２号,,27,119,5450011,,,2025-05-26,清算の結了等,,,2015-10-05,1,,,,,クギコウボウ,0
2164,9120101022187,登記記録の閉鎖等,0,2025-06-03,2025-05-29,サンケイ観光株式会社,,株式会社,大阪府,堺市西区,鳳中町４丁１２４番地の４,,27,144,5938327,,,2025-05-29,清算の結了等,,,2015-10-05,1,,,,,,0
2179,9130003007095,登記記録の閉鎖等,0,2025-06-03,2025-05-27,合同会社Ａｍｏｕｒ,,合同会社,京都府,京都市上京区,宮垣町９１－１０２,,26,102,6020853,,,2025-05-27,清算の結了等,,,2021-03-11,1,,,,,アムール,0
2183,9140001034231,登記記録の閉鎖等,0,2025-06-03,2025-05-28,新栄株式会社,,株式会社,大阪府,東大阪市,今米１丁目２番４８号松栄ビル６０３号,,27,227,5780903,,,2025-05-28,清算の結了等,,,2015-10-05,1,,,,,シンエイ,0
2190,9150005003710,登記記録の閉鎖等,0,2025-06-03,2025-05-29,特定非営利活動法人古道・下ツ道・保存・研究会,,その他の設立登記法人,奈良県,大和郡山市,八条町２６６番地１,,29,203,6391125,,,2025-05-29,清算の結了等,,,2015-10-05,1,,,,,コドウシモツミチホゾンケンキュウカイ,0
2196,9180001073060,登記記録の閉鎖等,0,2025-06-03,2025-06-02,株式会社アルメタル,,株式会社,愛知県,名古屋市緑区,大高町字丸ノ内５９番地,,23,114,4598001,,,2025-06-02,清算の結了等,,,2015-10-05,1,,,,,アルメタル,0
2208,9190002011308,登記記録の閉鎖等,0,2025-06-03,2025-05-02,カシコジマパール有限会社,,有限会社,三重県,志摩市,阿児町鵜方３３７２番地３１,,24,215,5170501,,,2025-05-02,合併による解散等,5190001022128,令和７年５月１日三重県志摩市磯部町的矢９３９－１０２ヴァンベール伊勢志摩１１０５株式会社パール優美（5190001022128）に合併し解散,2015-10-05,1,,,,,カシコジマパール,0
2210,9200001015753,登記記録の閉鎖等,0,2025-06-03,2025-05-28,株式会社ヤナゲン,,株式会社,岐阜県,大垣市,高屋町１丁目５６番地,,21,202,5030901,,,2025-05-28,合併による解散等,3160001008726,令和７年５月２１日滋賀県彦根市西今町１番地株式会社平和堂（3160001008726）に合併し解散,2015-10-05,1,,,,,ヤナゲン,0
2211,9200001027550,登記記録の閉鎖等,0,2025-06-03,2025-05-30,株式会社しゃもじ,,株式会社,岐阜県,岐阜市,曽我屋３丁目１４０番地２,,21,201,5010101,,,2025-05-30,清算の結了等,,,2015-10-05,1,,,,,シャモジ,0
2213,9210001010035,登記記録の閉鎖等,0,2025-06-03,2025-05-07,鹿谷繊維株式会社,,株式会社,東京都,港区,麻布台１丁目７番２号,,13,103,1060041,,,2025-05-07,清算の結了等,,,2015-10-05,1,,,,,シカダニセンイ,0
2242,9360001001911,登記記録の閉鎖等,0,2025-06-03,2025-05-27,株式会社宝新,,株式会社,沖縄県,那覇市,古島２丁目２６番地７　１Ｆ,,47,201,9020061,,,2025-05-27,清算の結了等,,,2015-10-05,1,,,,,ホウシン,0
2263,9470001011890,登記記録の閉鎖等,0,2025-06-03,2025-06-02,株式会社アイディ,,株式会社,香川県,高松市,勅使町２７０番地１,,37,201,7618058,,,2025-06-02,清算の結了等,,,2015-10-05,1,,,,,アイディ,0
2267,9490002013422,登記記録の閉鎖等,0,2025-06-03,2025-06-02,有限会社吉井建築士事務所,,有限会社,高知県,高知市,北本町４丁目４番７１号,,39,201,7800056,,,2025-06-02,清算の結了等,,,2025-05-30,1,,,,,ヨシイケンチクシジムショ,0
