sequenceNumber,corporateNumber,process,correct,updateDate,changeDate,name,nameImageId,kind,prefectureName,cityName,streetNumber,addressImageId,prefectureCode,cityCode,postCode,addressOutside,addressOutsideImageId,closeDate,closeCause,successorCorporateNumber,changeCause,assignmentDate,latest,enName,enPrefectureName,enCityName,enAddressOutside,furigana,hihyoji
5,1010001177777,登記記録の閉鎖等,0,2025-08-19,2025-07-22,Ｊｅａｎ　Ｍａｒｔｉｎ株式会社,,株式会社,東京都,中央区,銀座１丁目１６番７号銀座大栄ビル５階,,13,102,1040061,,,2025-07-22,清算の結了等,,,2016-08-17,1,,,,,ジーンマーティン,0
11,1010003036097,登記記録の閉鎖等,0,2025-08-19,2025-07-18,Ｈｅｒｉｔａｇｅ　Ｉｎｖｅｓｔｍｅｎｔｓ合同会社,,合同会社,東京都,中央区,八丁堀４丁目２番１０号ＡＯＪ税理士法人内,,13,102,1040032,,,2025-07-18,清算の結了等,,,2021-10-27,1,,,,,ヘリテージインベストメンツ,0
17,1010005035452,登記記録の閉鎖等,0,2025-08-19,2025-07-25,一般社団法人フォーピース,,その他の設立登記法人,東京都,千代田区,丸の内１丁目４番１号東京共同会計事務所内,,13,101,1000005,,,2025-07-25,清算の結了等,,,2022-08-19,1,,,,,フォーピース,0
18,1010401010026,登記記録の閉鎖等,0,2025-08-19,2025-08-04,ケーエスエー株式会社,,株式会社,熊本県,熊本市西区,上熊本３丁目８番１号,,43,103,8600079,,,2025-08-04,清算の結了等,,,2015-10-05,1,,,,,ケーエスエー,0
34,1010601061439,登記記録の閉鎖等,0,2025-08-19,2025-08-07,メガトロン株式会社,,株式会社,東京都,墨田区,緑１丁目６番１号,,13,107,1300021,,,2025-08-07,清算の結了等,,,2022-07-07,1,,,,,メガトロン,0
40,1010802007959,登記記録の閉鎖等,0,2025-08-19,2025-08-08,有限会社誠邦建設,,有限会社,東京都,大田区,大森東５丁目２０番１１号,,13,111,1430012,,,2025-08-08,清算の結了等,,,2015-10-05,1,,,,,セイホウケンセツ,0
41,1010802019681,登記記録の閉鎖等,0,2025-08-19,2025-08-08,有限会社更紗,,有限会社,東京都,大田区,大森西６丁目１１番１６－４０５号,,13,111,1430015,,,2025-08-08,清算の結了等,,,2015-10-05,1,,,,,サラサ,0
49,1011005003333,登記記録の閉鎖等,0,2025-08-19,2025-08-15,特定非営利活動法人ＬＩＮＫ,,その他の設立登記法人,東京都,世田谷区,祖師谷１丁目２５番３号,,13,112,1570072,,,2025-08-15,清算の結了等,,,2015-10-05,1,,,,,リンク,0
51,1011101097576,登記記録の閉鎖等,0,2025-08-19,2025-07-14,株式会社Ｄｏｔｓ　Ｍａｋｅ　Ｌｉｎｅ,,株式会社,東京都,新宿区,西新宿３丁目３番１３号西新宿水間ビル６階,,13,104,1600023,,,2025-07-14,清算の結了等,,,2022-01-21,1,,,,,ドッツメイクライン,0
69,1012401030210,登記記録の閉鎖等,0,2025-08-19,2025-08-07,土方工務店株式会社,,株式会社,東京都,府中市,南町４丁目１４番地の３レジデンス佐伯２０６,,13,206,1830026,,,2025-08-07,清算の結了等,,,2015-10-05,1,,,,,ヒジカタコウムテン,0
72,1013301031595,登記記録の閉鎖等,0,2025-08-19,2025-07-25,株式会社サリーズファザー,,株式会社,東京都,豊島区,雑司が谷３丁目１９番４号並木ハウス２１０号室,,13,116,1710032,,,2025-07-25,清算の結了等,,,2015-10-05,1,,,,,サリーズファザー,0
87,1020005002542,登記記録の閉鎖等,0,2025-08-19,2025-08-18,情報企画センター協同組合,,その他の設立登記法人,神奈川県,座間市,立野台３丁目１８番１２号,,14,216,2520023,,,2025-08-18,清算の結了等,,,2015-10-05,1,,,,,ジョウホウキカクセンター,0
103,1040002005422,登記記録の閉鎖等,0,2025-08-19,2025-07-23,有限会社志田工務店,,有限会社,千葉県,千葉市花見川区,横戸町１５番地１３４,,12,102,2620001,,,2025-07-23,清算の結了等,,,2015-10-05,1,,,,,シダコウムテン,0
112,1060002018034,登記記録の閉鎖等,0,2025-08-19,2025-08-06,有限会社大関工務店,,有限会社,栃木県,芳賀郡益子町,大字益子４１６４番地,,09,342,3214217,,,2025-08-06,清算の結了等,,,2015-10-05,1,,,,,オオゼキコウムテン,0
116,1070002025112,登記記録の閉鎖等,0,2025-08-19,2025-08-12,有限会社吉野自動車,,有限会社,群馬県,桐生市,菱町２丁目１９４０番地１,,10,203,3760001,,,2025-08-12,清算の結了等,,,2015-10-05,1,,,,,,0
149,1130001000514,登記記録の閉鎖等,0,2025-08-19,2025-08-01,株式会社キクチ,,株式会社,京都府,京都市上京区,丸太町通千本東入小山町９０８番地９２,,26,102,6028157,,,2025-08-01,清算の結了等,,,2015-10-05,1,,,,,キクチ,0
152,1130001043942,登記記録の閉鎖等,0,2025-08-19,2025-07-31,環境テクニカル株式会社,,株式会社,京都府,舞鶴市,大字森小字大谷１６０番地,,26,202,6250000,,,2025-07-31,合併による解散等,3130001043742,令和７年７月３１日京都府舞鶴市字高野由里３７９番地の１株式会社水嶋工業（3130001043742）に合併し解散,2015-10-05,1,,,,,カンキョウテクニカル,0
173,1170002006622,登記記録の閉鎖等,0,2025-08-19,2025-08-18,有限会社メディカルコンタクト上野山,,有限会社,和歌山県,海南市,名高５３１番地の３タムラビル３Ｆ,,30,202,6420032,,,2025-08-18,清算の結了等,,,2015-10-05,1,,,,,メディカルコンタクトウエノヤマ,0
190,1200001026238,登記記録の閉鎖等,0,2025-08-19,2025-08-12,奥飛騨観光バス株式会社,,株式会社,岐阜県,高山市,奥飛騨温泉郷平湯２２６番地１,,21,203,5061433,,,2025-08-12,清算の結了等,,,2015-10-05,1,,,,,オクヒダカンコウバス,0
196,1220002000537,登記記録の閉鎖等,0,2025-08-19,2025-08-15,有限会社ディーディーエル,,有限会社,石川県,野々市市,上林１丁目６７街区１番,,17,212,9218835,,,2025-08-15,清算の結了等,,,2015-10-05,1,,,,,ディーディーエル,0
198,1230002013158,登記記録の閉鎖等,0,2025-08-19,2025-08-08,有限会社ミヤカワ電設,,有限会社,富山県,氷見市,伊勢大町２丁目１４番２６号,,16,205,9350015,,,2025-08-08,清算の結了等,,,2015-10-05,1,,,,,ミヤカワデンセツ,0
203,1240002027438,登記記録の閉鎖等,0,2025-08-19,2025-08-08,有限会社川端塗装店,,有限会社,広島県,東広島市,黒瀬町乃美尾４３３番地,,34,212,7392622,,,2025-08-08,清算の結了等,,,2015-10-05,1,,,,,カワバタトソウテン,0
208,1260003003147,登記記録の閉鎖等,0,2025-08-19,2025-08-06,Ｒｏｓｙ　Ｇｒｏｕｐ合同会社,,合同会社,岡山県,倉敷市,沖新町６１－１５ＮＥＷＳＳＴＹＬＥ１－３階,,33,202,7100837,,,2025-08-06,清算の結了等,,,2020-04-02,1,,,,,ロウジーグループ,0
232,1360002015315,登記記録の閉鎖等,0,2025-08-19,2025-08-04,有限会社沖縄マーケットプランニング,,有限会社,沖縄県,浦添市,城間２丁目２９番３号クロスロードＡＧ２０１号,,47,208,9012133,,,2025-08-04,清算の結了等,,,2015-10-05,1,,,,,,0
234,1370001006909,登記記録の閉鎖等,0,2025-08-19,2025-07-30,株式会社熱海工務店,,株式会社,宮城県,仙台市青葉区,本町３丁目６番１７号,,04,101,9800014,,,2025-07-30,清算の結了等,,,2015-10-05,1,,,,,アツミコウムテン,0
240,1390001010883,登記記録の閉鎖等,0,2025-08-19,2025-08-07,株式会社ＦＭ２,,株式会社,山形県,南陽市,萩生田１３５９番地７,,06,213,9992263,,,2025-08-07,清算の結了等,,,2015-10-05,1,,,,,エフエムツー,0
241,1390001012277,登記記録の閉鎖等,0,2025-08-19,2025-08-07,株式会社東北福祉企画,,株式会社,山形県,西村山郡朝日町,大字宮宿１１８２番地１７,,06,323,9901442,,,2025-08-07,清算の結了等,,,2015-10-05,1,,,,,トウホクフクシキカク,0
242,1420001014848,登記記録の閉鎖等,0,2025-08-19,2025-08-06,貴進物流株式会社,,株式会社,青森県,八戸市,諏訪１丁目９番９号,,02,203,0310803,,,2025-08-06,清算の結了等,,,2015-10-05,1,,,,,キシンブツリュウ,0
254,2010001201057,登記記録の閉鎖等,0,2025-08-19,2025-07-22,株式会社Ｒｅｖｏｌｔｅ,,株式会社,東京都,千代田区,九段南１丁目５番６号りそな九段ビル５Ｆ,,13,101,1020074,,,2025-07-22,清算の結了等,,,2019-05-23,1,,,,,レヴォルテ,0
268,2010005022061,登記記録の閉鎖等,0,2025-08-19,2025-07-28,医療法人社団有秀会,,その他の設立登記法人,東京都,千代田区,内幸町１丁目１番１号帝国ホテルタワー５階Ｃ－４号室,,13,101,1000011,,,2025-07-28,清算の結了等,,,2015-10-05,1,,,,,ユウシュウカイ,0
269,2010005032011,登記記録の閉鎖等,0,2025-08-19,2025-07-25,特定非営利活動法人日本多文化共生教育推進センター,,その他の設立登記法人,東京都,中央区,銀座６丁目１３番１６号銀座ウォールビル７Ｆ,,13,102,1040061,,,2025-07-25,清算の結了等,,,2020-07-14,1,,,,,ニホンタブンカキョウセイキョウイクスイシンセンター,0
273,2010401168656,登記記録の閉鎖等,0,2025-08-19,2025-07-23,聯衆自動車株式会社,,株式会社,東京都,港区,新橋６丁目８－１－２０６号,,13,103,1050004,,,2025-07-23,清算の結了等,,,2022-09-01,1,,,,,レンシュウジドウシャ,0
277,2010403009503,登記記録の閉鎖等,0,2025-08-19,2025-07-22,ワンダーベル合同会社,,合同会社,東京都,港区,白金２丁目５番５－５０２号,,13,103,1080072,,,2025-07-22,清算の結了等,,,2015-10-05,1,,,,,ワンダーベル,0
305,2011001101164,登記記録の閉鎖等,0,2025-08-19,2025-08-01,株式会社メヌエット,,株式会社,神奈川県,川崎市幸区,塚越４丁目３４５－１－５１７,,14,132,2120024,,,2025-08-01,清算の結了等,,,2015-10-05,1,,,,,メヌエット,0
312,2011101086099,登記記録の閉鎖等,0,2025-08-19,2025-07-14,株式会社キューボグループ,,株式会社,東京都,世田谷区,太子堂４丁目１番１号,,13,112,1540004,,,2025-07-14,合併による解散等,2011101052670,令和７年７月１日東京都世田谷区太子堂四丁目１番１号キャロットタワー株式会社キャリア（2011101052670）に合併し解散,2018-11-27,1,,,,,キューボグループ,0
313,2011101096494,登記記録の閉鎖等,0,2025-08-19,2025-07-17,ｊｉｎｊｅｒ株式会社,,株式会社,東京都,新宿区,西新宿６丁目１１番３号ＷｅＷｏｒｋＤタワー西新宿,,13,104,1600023,,,2025-07-17,合併による解散等,9010001246830,令和７年５月１日東京都千代田区有楽町一丁目１３番２号第一生命日比谷ファースト１８階Ｐ＆Ｊ　Ｈｏｌｄｉｎｇｓ株式会社（9010001246830）に合併し解散,2021-10-06,1,,,,,ジンジャー,0
322,2011302006450,登記記録の閉鎖等,0,2025-08-19,2025-08-07,豊武商事有限会社,,有限会社,東京都,武蔵野市,中町１丁目２３番１号,,13,203,1800006,,,2025-08-07,清算の結了等,,,2015-10-05,1,,,,,トヨタケショウジ,0
325,2011403001301,登記記録の閉鎖等,0,2025-08-19,2025-08-07,合同会社Ｅａｒｔｈ＆Ｇａｒａｇｅ,,合同会社,東京都,足立区,古千谷本町１丁目２番２６号,,13,121,1210832,,,2025-08-07,清算の結了等,,,2015-10-05,1,,,,,アースアンドガレージ,0
335,2012701010662,登記記録の閉鎖等,0,2025-08-19,2025-07-31,株式会社ジェイ,,株式会社,東京都,練馬区,豊玉北５丁目１１番６号,,13,120,1760012,,,2025-07-31,清算の結了等,,,2015-10-05,1,,,,,ジェイ,0
336,2013101000551,登記記録の閉鎖等,0,2025-08-19,2025-08-14,株式会社協和,,株式会社,東京都,羽村市,神明台２丁目９番地１４,,13,227,2050023,,,2025-08-14,清算の結了等,,,2015-10-05,1,,,,,キョウワ,0
344,2020001023087,登記記録の閉鎖等,0,2025-08-19,2025-07-31,後藤工業株式会社,,株式会社,神奈川県,横浜市神奈川区,台町１１番２１－２０２,,14,102,2210834,,,2025-07-31,清算の結了等,,,2015-10-05,1,,,,,ゴトウコウギョウ,0
354,2020003022104,登記記録の閉鎖等,0,2025-08-19,2025-07-30,合同会社シュクル,,合同会社,神奈川県,横浜市磯子区,杉田６丁目１４番９号,,14,107,2350033,,,2025-07-30,清算の結了等,,,2022-07-12,1,,,,,シュクル,0
365,2030001020422,登記記録の閉鎖等,0,2025-08-19,2025-08-01,第一パッケージ株式会社,,株式会社,埼玉県,戸田市,新曽南２丁目１５番２２号,,11,224,3350026,,,2025-08-01,合併による解散等,2030001116518,令和７年８月１日さいたま市南区白幡五丁目８番１９号第一倉庫冷蔵ホールディングス株式会社（2030001116518）に合併し解散,2015-10-05,1,,,,,ダイイチパッケージ,0
366,2030001101115,登記記録の閉鎖等,0,2025-08-19,2025-07-15,ＧＫ株式会社,,株式会社,東京都,新宿区,西新宿５丁目８番１号,,13,104,1600023,,,2025-07-15,清算の結了等,,,2015-10-05,1,,,,,ジーケー,0
367,2030001103912,登記記録の閉鎖等,0,2025-08-19,2025-08-14,株式会社グリーンガーネット,,株式会社,東京都,府中市,分梅町１丁目１０番地の１３,,13,206,1830033,,,2025-08-14,清算の結了等,,,2015-10-05,1,,,,,グリーンガーネット,0
372,2030001143025,登記記録の閉鎖等,0,2025-08-19,2025-08-01,キャステック株式会社,,株式会社,埼玉県,熊谷市,久保島４１０番地１,,11,202,3600831,,,2025-08-01,合併による解散等,5030002112819,令和７年７月３１日埼玉県熊谷市三ケ尻２３４９株式会社アチピレーションテクノロジー（5030002112819）に合併し解散,2021-07-08,1,,,,,キャステック,0
382,2040002101880,登記記録の閉鎖等,0,2025-08-19,2025-07-23,有限会社肉のみその,,有限会社,千葉県,いすみ市,大原７７８９番地,,12,238,2980004,,,2025-07-23,清算の結了等,,,2015-10-05,1,,,,,ニクノミソノ,0
387,2050003004074,登記記録の閉鎖等,0,2025-08-19,2025-08-04,株式会社神栖不動産,,株式会社,茨城県,神栖市,日川４３９８番地２,,08,232,3140114,,,2025-08-04,清算の結了等,,,2018-01-31,1,,,,,カミスフドウサン,0
391,2060002009065,登記記録の閉鎖等,0,2025-08-19,2025-08-06,有限会社矢口酒店,,有限会社,栃木県,宇都宮市,本丸町９番４号,,09,201,3200817,,,2025-08-06,清算の結了等,,,2015-10-05,1,,,,,ヤグチサケテン,0
393,2070001007036,登記記録の閉鎖等,0,2025-08-19,2025-08-07,株式会社佐藤,,株式会社,群馬県,高崎市,倉渕町三ノ倉１１９番地,,10,202,3703402,,,2025-08-07,清算の結了等,,,2015-10-05,1,,,,,サトウ,0
428,2120005020194,登記記録の閉鎖等,0,2025-08-19,2025-07-09,ＮＰＯ法人すすき,,その他の設立登記法人,大阪府,大阪市城東区,新喜多東１丁目８－４０－１１１,,27,118,5360017,,,2025-07-09,合併による解散等,9120005025039,令和７年７月９日大阪市城東区新喜多東一丁目８番４０白樺ハイツ城東２１５号ＮＰＯ法人しおり（4120005016538）と合併して大阪市城東区新喜多東１－８－４０－１１１ＮＰＯ法人かぶら（9120005025039）を設立し解散,2018-05-15,1,,,,,ススキ,0
470,2200001007798,登記記録の閉鎖等,0,2025-08-19,2025-08-07,株式会社前澤食産研究所,,株式会社,岐阜県,岐阜市,岩崎８０６番地３,,21,201,5020005,,,2025-08-07,清算の結了等,,,2015-10-05,1,,,,,マエザワショクサンケンキュウジョ,0
480,2200005009840,登記記録の閉鎖等,0,2025-08-19,2025-08-12,正法光土会,,その他の設立登記法人,岐阜県,高山市,堀端町１５８番地の１０,,21,203,5060837,,,2025-08-12,清算の結了等,,,2015-10-05,1,,,,,セイホウコウドカイ,0
488,2250001010120,登記記録の閉鎖等,0,2025-08-19,2025-08-07,株式会社山利,,株式会社,山口県,周南市,大字富田２６３１番地の４,,35,215,7460034,,,2025-08-07,清算の結了等,,,2016-11-22,1,,,,,,0
511,2290002052414,登記記録の閉鎖等,0,2025-08-19,2025-07-14,有限会社ヘルパーステーション・友,,有限会社,福岡県,久留米市,善導寺町飯田５０３－３,,40,203,8390824,,,2025-07-14,清算の結了等,,,2015-10-05,1,,,,,ヘルパーステーショントモ,0
518,2330003009466,登記記録の閉鎖等,0,2025-08-19,2025-08-05,合同会社シンスター,,合同会社,熊本県,八代市,新開町１番４３号,,43,202,8660032,,,2025-08-05,清算の結了等,,,2022-08-04,1,,,,,シンスター,0
519,2340001019821,登記記録の閉鎖等,0,2025-08-19,2025-08-04,みなみの株式会社,,株式会社,鹿児島県,鹿児島市,山下町７番８号,,46,201,8920816,,,2025-08-04,清算の結了等,,,2016-11-17,1,,,,,ミナミノ,0
523,2350002014275,登記記録の閉鎖等,0,2025-08-19,2025-08-05,有限会社城栄,,有限会社,宮崎県,都城市,太郎坊町３５２０番地４,,45,202,8850002,,,2025-08-05,清算の結了等,,,2015-10-05,1,,,,,ジョウエイ,0
558,3010401150613,登記記録の閉鎖等,0,2025-08-19,2025-07-18,プレミアオートパーツ株式会社,,株式会社,東京都,港区,虎ノ門２丁目１０番４号オークラプレステージタワー,,13,103,1050001,,,2025-07-18,合併による解散等,4030001034494,令和７年７月１日滋賀県長浜市宮部町１０９８番地３ＳＡＥリマックス株式会社（4030001034494）に合併し解散,2020-01-28,1,,,,,プレミアオートパーツ,0
559,3010401176550,登記記録の閉鎖等,0,2025-08-19,2025-07-18,株式会社墨言,,株式会社,東京都,港区,浜松町１丁目１７－３シダフォレスト浜松町１階,,13,103,1050013,,,2025-07-18,清算の結了等,,,2023-08-21,1,,,,,モウヤ,0
568,3010601040168,登記記録の閉鎖等,0,2025-08-19,2025-08-14,株式会社アンビシャス,,株式会社,東京都,品川区,大崎３丁目５番２号エステージ大崎ビル６階,,13,109,1410032,,,2025-08-14,合併による解散等,3120102011921,令和７年７月３１日大阪府堺市西区鳳北町十丁４５番地株式会社サプライズ（3120102011921）に合併し解散,2015-10-05,1,,,,,アンビシャス,0
571,3010601061503,登記記録の閉鎖等,0,2025-08-19,2025-08-07,Ｇｌａｄｌａｂ株式会社,,株式会社,東京都,墨田区,緑１丁目６番１号,,13,107,1300021,,,2025-08-07,清算の結了等,,,2022-07-14,1,,,,,グラッドラボ,0
586,3011401013974,登記記録の閉鎖等,0,2025-08-19,2025-08-08,株式会社ジョイサービス,,株式会社,東京都,板橋区,大山東町４番地２,,13,119,1730014,,,2025-08-08,清算の結了等,,,2015-10-05,1,,,,,,0
587,3011501027998,登記記録の閉鎖等,0,2025-08-19,2025-08-13,エルプレックス株式会社,,株式会社,東京都,荒川区,西尾久７丁目１９－６ベルメゾンヤスダ１０３号室,,13,118,1160011,,,2025-08-13,清算の結了等,,,2022-05-06,1,,,,,エルプレックス,0
596,3012303001217,登記記録の閉鎖等,0,2025-08-19,2025-08-04,クロッシング合同会社,,合同会社,東京都,町田市,木曽西３丁目１番地１７、１０１,,13,209,1940037,,,2025-08-04,清算の結了等,,,2018-12-17,1,,,,,クロッシング,0
597,3012305001801,登記記録の閉鎖等,0,2025-08-19,2025-08-05,一般社団法人町田・相模原住宅ローン相談・救済支援協会,,その他の設立登記法人,東京都,町田市,旭町１丁目４番１号,,13,209,1940023,,,2025-08-05,清算の結了等,,,2017-04-26,1,,,,,マチダサガミハラジュウタクローンソウダンキュウサイシエンキョウカイ,0
598,3012401002208,登記記録の閉鎖等,0,2025-08-19,2025-08-01,株式会社ハギワラ,,株式会社,東京都,国分寺市,本多３丁目５番３６号,,13,214,1850011,,,2025-08-01,清算の結了等,,,2015-10-05,1,,,,,ハギワラ,0
604,3013202004087,登記記録の閉鎖等,0,2025-08-19,2025-07-11,有限会社田村試験機製作所,,有限会社,東京都,目黒区,中目黒４丁目５番１４号,,13,110,1530061,,,2025-07-11,清算の結了等,,,2015-10-05,1,,,,,タムラシケンキセイサクショ,0
611,3020001117359,登記記録の閉鎖等,0,2025-08-19,2025-07-16,株式会社ＴＦＬ,,株式会社,東京都,渋谷区,神宮前３丁目２７番２２号ルコタージュビルディング２０３号室,,13,113,1500001,,,2025-07-16,清算の結了等,,,2016-08-05,1,,,,,ティーエフエル,0
612,3020001137472,登記記録の閉鎖等,0,2025-08-19,2025-07-31,株式会社成山,,株式会社,神奈川県,横浜市港南区,東芹が谷２３番４－２０３号,,14,111,2330005,,,2025-07-31,清算の結了等,,,2020-09-02,1,,,,,ナリヤマ,0
620,3021001010454,登記記録の閉鎖等,0,2025-08-19,2025-07-15,株式会社ワークセルコンサルティング,,株式会社,神奈川県,鎌倉市,山ノ内９２８番地１０,,14,204,2470062,,,2025-07-15,清算の結了等,,,2015-10-05,1,,,,,ワークセルコンサルティング,0
658,3070002018898,登記記録の閉鎖等,0,2025-08-19,2025-08-12,有限会社コイケヤ伊勢崎販売,,有限会社,群馬県,伊勢崎市,寿町１３３番地１,,10,204,3720052,,,2025-08-12,清算の結了等,,,2015-10-05,1,,,,,,0
694,3122001004840,登記記録の閉鎖等,0,2025-08-19,2025-08-01,株式会社谷川石材總本店,00034258,株式会社,大阪府,東大阪市,小阪本町２丁目３番３３号,,27,227,5770802,,,2025-08-01,清算の結了等,,,2015-10-05,1,,,,,タニカワセキザイソウホンテン,0
712,3140002022422,登記記録の閉鎖等,0,2025-08-19,2025-08-08,有限会社吉田商会,,有限会社,兵庫県,芦屋市,春日町１番４号,,28,206,6590021,,,2025-08-08,清算の結了等,,,2015-10-05,1,,,,,ヨシダショウカイ,0
723,3180002000440,登記記録の閉鎖等,0,2025-08-19,2025-07-25,有限会社近田屋,,有限会社,愛知県,名古屋市守山区,西島町１３番２４号,,23,113,4630015,,,2025-07-25,清算の結了等,,,2015-10-05,1,,,,,チカダヤ,0
730,3200001005470,登記記録の閉鎖等,0,2025-08-19,2025-08-07,毛利商事株式会社,,株式会社,岐阜県,岐阜市,茜部新所３丁目５２番地の１,,21,201,5008263,,,2025-08-07,清算の結了等,,,2015-10-05,1,,,,,モウリショウジ,0
734,3220001016350,登記記録の閉鎖等,0,2025-08-19,2025-08-08,株式会社藤澤製紐,,株式会社,石川県,羽咋郡志賀町,矢駄みの８番地の１,,17,384,9250123,,,2025-08-08,清算の結了等,,,2015-10-05,1,,,,,フジサワセイチュウ,0
736,3230003002257,登記記録の閉鎖等,0,2025-08-19,2025-08-18,Ｅａｒｔｈ・Ａｎｇｅｌ合同会社,,合同会社,富山県,中新川郡立山町,米沢３０８番地１,,16,323,9303265,,,2025-08-18,清算の結了等,,,2024-07-25,1,,,,,アースエンジェル,0
739,3240001039408,登記記録の閉鎖等,0,2025-08-19,2025-08-15,株式会社西日本ネクスト,,株式会社,広島県,尾道市,浦崎町４５６５番地１,,34,205,7200551,,,2025-08-15,清算の結了等,,,2015-10-05,1,,,,,ニシニホンネクスト,0
741,3260002026584,登記記録の閉鎖等,0,2025-08-19,2025-07-25,有限会社津郷建設,,有限会社,岡山県,浅口市,金光町占見１４５７番地の１,,33,216,7190105,,,2025-07-25,清算の結了等,,,2015-10-05,1,,,,,ツゴウケンセツ,0
746,3290001018992,登記記録の閉鎖等,0,2025-08-19,2025-07-18,株式会社マグフクオカ,,株式会社,福岡県,福岡市博多区,博多駅南４丁目１３番１５号,,40,132,8120016,,,2025-07-18,合併による解散等,4030001034494,令和７年７月１日滋賀県長浜市宮部町１０９８番地３ＳＡＥリマックス株式会社（4030001034494）に合併し解散,2015-10-05,1,,,,,マグフクオカ,0
756,3290801019562,登記記録の閉鎖等,0,2025-08-19,2025-08-14,株式会社梶原電工,,株式会社,福岡県,中間市,中鶴１丁目２番１０号,,40,215,8090037,,,2025-08-14,清算の結了等,,,2015-10-05,1,,,,,カジワラデンコウ,0
764,3360001001710,登記記録の閉鎖等,0,2025-08-19,2025-07-01,株式会社日宅,,株式会社,沖縄県,那覇市,おもろまち４丁目２０番３１号,,47,201,9000006,,,2025-07-01,合併による解散等,4360001013738,令和７年７月１日沖縄県宮古島市平良字西里１１０７番地７住宅情報センター株式会社（4360001013738）に合併し解散,2015-10-05,1,,,,,ニッタク,0
765,3370001015271,登記記録の閉鎖等,0,2025-08-19,2025-07-29,株式会社インサイト,,株式会社,宮城県,仙台市泉区,長命ケ丘３丁目２８番地の１,,04,105,9813212,,,2025-07-29,清算の結了等,,,2015-10-05,1,,,,,インサイト,0
773,3380005006588,登記記録の閉鎖等,0,2025-08-19,2025-07-14,天理教四倉分教会,,その他の設立登記法人,福島県,いわき市,四倉町字西四丁目６番地の３,,07,204,9790201,,,2025-07-14,合併による解散等,4380005006265,令和７年７月１４日福島県いわき市平字古鍜冶町１２番地の１天理教磐城平大教会（4380005006265）に合併し解散,2015-10-05,1,,,,,テンリキョウヨツクラブンキョウカイ,0
778,3430002019521,登記記録の閉鎖等,0,2025-08-19,2025-08-15,有限会社ミノルプランニング,,有限会社,北海道,札幌市中央区,宮の森三条１１丁目１番３４号ロイアルヒルズ宮の森６０１号,,01,101,0640953,,,2025-08-15,清算の結了等,,,2015-10-05,1,,,,,ミノルプランニング,0
788,4010001139072,登記記録の閉鎖等,0,2025-08-19,2025-08-13,株式会社エルキャビネット,,株式会社,広島県,広島市中区,東白島町１９番１２号,,34,101,7300004,,,2025-08-13,合併による解散等,4010901023763,令和７年８月１日東京都世田谷区駒沢二丁目１８番１６－１１０号株式会社Ｌ－ｎｅｔ（4010901023763）に合併し解散,2015-10-05,1,,,,,エルキャビネット,0
789,4010001161613,登記記録の閉鎖等,0,2025-08-19,2025-07-18,星珪インターナショナル株式会社,,株式会社,東京都,中央区,日本橋堀留町１丁目１０番１９号,,13,102,1030012,,,2025-07-18,清算の結了等,,,2015-10-05,1,,,,,セイケイインターナショナル,0
800,4010005033478,登記記録の閉鎖等,0,2025-08-19,2025-07-25,写楽一般社団法人,,その他の設立登記法人,東京都,千代田区,霞が関３丁目２番５号,,13,101,1000013,,,2025-07-25,清算の結了等,,,2021-06-07,1,,,,,シャラク,0
815,4010602005391,登記記録の閉鎖等,0,2025-08-19,2025-08-07,有限会社山本園,,有限会社,東京都,江東区,東陽３丁目１８番２号,,13,108,1350016,,,2025-08-07,清算の結了等,,,2015-10-05,1,,,,,,0
831,4011001110386,登記記録の閉鎖等,0,2025-08-19,2025-07-14,株式会社ＣＬＤ,,株式会社,東京都,新宿区,西新宿３丁目５番１２号トーカン新宿第２キャステール２０９号室,,13,104,1600023,,,2025-07-14,清算の結了等,,,2016-04-12,1,,,,,シーエルディー,0
833,4011001157304,登記記録の閉鎖等,0,2025-08-19,2025-06-09,Ｓｔｕｄｉｏ　Ｗｉｌｌ株式会社,,株式会社,東京都,渋谷区,宇田川町３６－２２ノア渋谷パートＩＩ１００１,00132175,13,113,1500042,,,2025-06-09,清算の結了等,,,2023-10-10,1,,,,,スタジオウィル,0
843,4011601023533,登記記録の閉鎖等,0,2025-08-19,2025-07-11,株式会社新成和サポート,,株式会社,東京都,新宿区,新宿５丁目１１番３０号,,13,104,1600022,,,2025-07-11,清算の結了等,,,2019-07-24,1,,,,,シンセイワサポート,0
848,4012401017923,登記記録の閉鎖等,0,2025-08-19,2025-08-13,株式会社テオス,,株式会社,東京都,小金井市,貫井南町１丁目７番２２－４０７号,,13,210,1840014,,,2025-08-13,清算の結了等,,,2015-10-05,1,,,,,テオス,0
851,4012402010349,登記記録の閉鎖等,0,2025-08-19,2025-08-06,有限会社インテリア暖,,有限会社,東京都,調布市,入間町１丁目２５番地３８,,13,208,1820004,,,2025-08-06,清算の結了等,,,2015-10-05,1,,,,,インテリアダン,0
869,4020002106062,登記記録の閉鎖等,0,2025-08-19,2025-08-01,有限会社エイ・カントリー,,有限会社,神奈川県,川崎市麻生区,王禅寺東４丁目１６番５号,,14,137,2150018,,,2025-08-01,清算の結了等,,,2015-10-05,1,,,,,エイカントリー,0
873,4021001023901,登記記録の閉鎖等,0,2025-08-19,2025-08-14,メゾテクダイヤ株式会社,,株式会社,神奈川県,厚木市,上落合４１７番地３,,14,212,2430025,,,2025-08-14,清算の結了等,,,2015-10-05,1,,,,,メゾテクダイヤ,0
878,4021003012976,登記記録の閉鎖等,0,2025-08-19,2025-08-08,合同会社Ｃｈｈａｔｈ　ｐａｒｖａ,,合同会社,神奈川県,厚木市,戸田１４６６番地７,,14,212,2430023,,,2025-08-08,清算の結了等,,,2023-04-14,1,,,,,チャットパルワ,0
888,4030005010459,登記記録の閉鎖等,0,2025-08-19,2025-07-18,医療法人社団明日佳,,その他の設立登記法人,埼玉県,北葛飾郡松伏町,大字松伏１２６３番地５,,11,465,3430111,,,2025-07-18,合併による解散等,5011305001280,令和７年７月１日東京都杉並区上荻一丁目９番１号－Ｄ荻窪タウンセブンビルＤ３階医療法人社団明日佳（5011305001280）に合併し解散,2015-10-05,1,,,,,アスカ,0
893,4040002010295,登記記録の閉鎖等,0,2025-08-19,2025-07-23,有限会社プランニングイトウ,,有限会社,千葉県,千葉市中央区,松ケ丘町１３番地の８,,12,101,2600807,,,2025-07-23,清算の結了等,,,2015-10-05,1,,,,,プランニングイトウ,0
894,4040002069522,登記記録の閉鎖等,0,2025-08-19,2025-07-23,有限会社味の一,,有限会社,千葉県,君津市,中野１丁目１０番２０号,,12,225,2991151,,,2025-07-23,清算の結了等,,,2015-10-05,1,,,,,アジノイチ,0
908,4120001169463,登記記録の閉鎖等,0,2025-08-19,2025-08-01,株式会社エム・アイ・シー,,株式会社,大阪府,大阪市中央区,南久宝寺町２丁目４番５号,,27,128,5410058,,,2025-08-01,合併による解散等,8120001081169,令和７年８月１日大阪市中央区南久宝寺町二丁目４番５号株式会社シー・ビー・エィ（8120001081169）に合併し解散,2015-10-05,1,,,,,エムアイシー,0
913,4120001243607,登記記録の閉鎖等,0,2025-08-19,2025-08-04,株式会社心有,,株式会社,大阪府,大阪市中央区,松屋町住吉３番２－８０８号,,27,128,5400017,,,2025-08-04,清算の結了等,,,2022-02-04,1,,,,,シンユウ,0
921,4120002021425,登記記録の閉鎖等,0,2025-08-19,2025-08-01,有限会社オークプロダクツ,,有限会社,大阪府,大阪市西区,江戸堀１丁目１８番１１号,,27,106,5500002,,,2025-08-01,清算の結了等,,,2015-10-05,1,,,,,,0
927,4120005016538,登記記録の閉鎖等,0,2025-08-19,2025-07-09,ＮＰＯ法人しおり,,その他の設立登記法人,大阪府,大阪市城東区,新喜多東１丁目８番４０白樺ハイツ城東２１５号,,27,118,5360017,,,2025-07-09,合併による解散等,9120005025039,令和７年７月９日大阪市城東区新喜多東１－８－４０－１１１ＮＰＯ法人すすき（2120005020194）と合併して大阪市城東区新喜多東１－８－４０－１１１ＮＰＯ法人かぶら（9120005025039）を設立し解散,2015-10-05,1,,,,,シオリ,0
928,4120105004046,登記記録の閉鎖等,0,2025-08-19,2025-07-31,ジャンボフード松原商業協同組合,,その他の設立登記法人,大阪府,松原市,東新町４丁目１５番５号ジャンボフード松原内,,27,217,5800024,,,2025-07-31,清算の結了等,,,2015-10-05,1,,,,,ジャンボフードマツバラ,0
932,4120903002721,登記記録の閉鎖等,0,2025-08-19,2025-07-30,合同会社マイハウス,,合同会社,大阪府,吹田市,江坂町２丁目２１番８号,,27,205,5640063,,,2025-07-30,清算の結了等,,,2019-02-06,1,,,,,マイハウス,0
940,4140001029161,登記記録の閉鎖等,0,2025-08-19,2025-08-13,株式会社大蔵,,株式会社,兵庫県,神戸市北区,鈴蘭台南町４丁目１－３１,,28,109,6511113,,,2025-08-13,清算の結了等,,,2015-10-05,1,,,,,オオクラ,0
941,4140001041257,登記記録の閉鎖等,0,2025-08-19,2025-08-12,畑建設株式会社,,株式会社,兵庫県,丹波市,春日町鹿場８５６番地,,28,223,6694253,,,2025-08-12,清算の結了等,,,2015-10-05,1,,,,,ハタケンセツ,0
953,4170001017213,登記記録の閉鎖等,0,2025-08-19,2025-08-14,トライアングルズ貿易株式会社,,株式会社,和歌山県,和歌山市,和歌浦中２丁目１３番１５号あしべハイツ１０１号,,30,201,6410025,,,2025-08-14,清算の結了等,,,2022-07-29,1,,,,,トライアングルズボウエキ,0
954,4180001008780,登記記録の閉鎖等,0,2025-08-19,2025-07-18,中部ＮＯＫ販売株式会社,,株式会社,愛知県,名古屋市中川区,尾頭橋４丁目４番１号,,23,110,4540012,,,2025-07-18,合併による解散等,3020001019811,令和７年７月１日東京都新宿区西新宿一丁目６番１号関東ＮＯＫ販売株式会社（3020001019811）に合併し解散,2015-10-05,1,,,,,チュウブエヌオーケーハンバイ,0
956,4180001143066,登記記録の閉鎖等,0,2025-08-19,2025-07-28,ＡＫＩ　ｐｌｕｓ株式会社,,株式会社,愛知県,一宮市,木曽川町内割田字南出４１６番地３,,23,203,4930006,,,2025-07-28,清算の結了等,,,2020-10-06,1,,,,,アキプラス,0
957,4180001164112,登記記録の閉鎖等,0,2025-08-19,2025-07-25,ＨＩホールディングス株式会社,,株式会社,愛知県,名古屋市緑区,細口１丁目９０４番地の２,,23,114,4580006,,,2025-07-25,清算の結了等,,,2024-11-14,1,,,,,エイチアイホールディングス,0
967,4190002002063,登記記録の閉鎖等,0,2025-08-19,2025-08-12,オーパサービス有限会社,,有限会社,三重県,津市,芸濃町岡本４０１番地,,24,201,5142212,,,2025-08-12,清算の結了等,,,2015-10-05,1,,,,,オーパサービス,0
969,4200001017060,登記記録の閉鎖等,0,2025-08-19,2025-08-12,アイカム株式会社,,株式会社,岐阜県,美濃加茂市,深田町３丁目２番１４号,,21,211,5050043,,,2025-08-12,清算の結了等,,,2015-10-05,1,,,,,,0
971,4200001026144,登記記録の閉鎖等,0,2025-08-19,2025-08-07,株式会社タニムラ,,株式会社,岐阜県,高山市,一之宮町５２６１番地１,,21,203,5093505,,,2025-08-07,清算の結了等,,,2015-10-05,1,,,,,,0
983,4240002016264,登記記録の閉鎖等,0,2025-08-19,2025-08-12,有限会社ミナセ工務店,,有限会社,広島県,広島市安佐北区,落合南３丁目３３番１９号,,34,106,7391732,,,2025-08-12,清算の結了等,,,2015-10-05,1,,,,,,0
984,4240005005966,登記記録の閉鎖等,0,2025-08-19,2025-07-08,天理教呉福分教会,,その他の設立登記法人,広島県,呉市,西中央３丁目４番１４号,,34,202,7370811,,,2025-07-08,合併による解散等,2240005008426,令和７年７月８日広島県福山市古野上町２番４号天理教久松分教会（2240005008426）に合併し解散,2015-10-05,1,,,,,,0
1006,4290803003258,登記記録の閉鎖等,0,2025-08-19,2025-08-13,合同会社ヘルプ総合サービス,,合同会社,福岡県,京都郡苅田町,松原町８番地５１,,40,621,8000301,,,2025-08-13,清算の結了等,,,2018-12-28,1,,,,,ヘルプソウゴウサービス,0
1018,4350002005314,登記記録の閉鎖等,0,2025-08-19,2025-08-07,有限会社レンタライフ,,有限会社,宮崎県,宮崎市,大字跡江３５５７番地,,45,201,8802101,,,2025-08-07,清算の結了等,,,2015-10-05,1,,,,,レンタライフ,0
1038,4470001005393,登記記録の閉鎖等,0,2025-08-19,2025-08-08,株式会社ニュー・ポパイ,,株式会社,香川県,高松市,香南町岡５８番地,,37,201,7611401,,,2025-08-08,合併による解散等,7470001005390,令和７年８月１日香川県高松市香南町岡５８番地吉田食品工業株式会社（7470001005390）に合併し解散,2015-10-05,1,,,,,ニューポパイ,0
1053,5010005037156,登記記録の閉鎖等,0,2025-08-19,2025-07-28,黒岩ウェアハウス５特定目的会社,,その他の設立登記法人,東京都,千代田区,丸の内１丁目４番１号東京共同会計事務所内,,13,101,1000005,,,2025-07-28,清算の結了等,,,2023-08-23,1,,,,,クロイワウェアハウスファイブ,0
1057,5010401037643,登記記録の閉鎖等,0,2025-08-19,2025-07-18,三洋リフォーム株式会社,,株式会社,東京都,港区,浜松町２丁目８番９号カノウビル２階,,13,103,1050013,,,2025-07-18,清算の結了等,,,2015-10-05,1,,,,,サンヨウリフォーム,0
1062,5010401125910,登記記録の閉鎖等,0,2025-08-19,2025-07-22,ＰＲＯＥＳＺＡ　ＪＡＰＡＮ株式会社,,株式会社,東京都,港区,東麻布３丁目４番１８号ＶＯＲＴ麻布十番５Ｆ,,13,103,1060044,,,2025-07-22,清算の結了等,,,2016-07-20,1,,,,,プロエッサジャパン,0
1063,5010401126784,登記記録の閉鎖等,0,2025-08-19,2025-08-13,株式会社Ｓ・Ｉエムズ,,株式会社,京都府,京都市下京区,恵美須之町５４６番地ブランズ京都河原町９０２号室,,26,106,6008033,,,2025-08-13,合併による解散等,1020002053068,令和７年７月２４日横浜市鶴見区鶴見中央一丁目９番８号株式会社クリーク（1020002053068）に合併し解散,2016-09-01,1,,,,,エスアイエムズ,0
1071,5010403025349,登記記録の閉鎖等,0,2025-08-19,2025-07-18,ステイナビペイメント合同会社,,合同会社,東京都,港区,三田２丁目３番３４号,,13,103,1080073,,,2025-07-18,清算の結了等,,,2021-05-24,1,,,,,ステイナビペイメント,0
1089,5011001151545,登記記録の閉鎖等,0,2025-08-19,2025-07-14,株式会社Ｋ１２ホールディングス,,株式会社,東京都,渋谷区,神宮前６丁目２７番８号,,13,113,1500001,,,2025-07-14,合併による解散等,8011001064760,令和７年７月１日東京都渋谷区神宮前六丁目２７番８号株式会社レアジョブ（8011001064760）に合併し解散,2022-12-16,1,,,,,ケートゥエルブホールディングス,0
1094,5011003001707,登記記録の閉鎖等,0,2025-08-19,2025-08-07,パイパーライムジャパン合同会社,,合同会社,東京都,渋谷区,千駄ヶ谷５丁目３２番１０号,,13,113,1510051,,,2025-08-07,清算の結了等,,,2015-10-05,1,,,,,パイパーライムジャパン,0
1101,5011503006172,登記記録の閉鎖等,0,2025-08-19,2025-08-13,ＰＲＪ合同会社,,合同会社,東京都,北区,田端新町３丁目７－６中田第３ビル４０３,,13,117,1140012,,,2025-08-13,清算の結了等,,,2024-08-07,1,,,,,ピーアールジェー,0
1121,5020001030411,登記記録の閉鎖等,0,2025-08-19,2025-07-30,株式会社ブレーントラスト,,株式会社,神奈川県,横浜市鶴見区,潮田町３丁目１３８番地１１号,,14,101,2300041,,,2025-07-30,清算の結了等,,,2015-10-05,1,,,,,ブレーントラスト,0
1123,5020001085257,登記記録の閉鎖等,0,2025-08-19,2025-08-01,アクアプラネット株式会社,,株式会社,神奈川県,横浜市港北区,新横浜２丁目１２番１２号新横浜ＩＫビル,,14,109,2220033,,,2025-08-01,清算の結了等,,,2015-10-05,1,,,,,アクアプラネット,0
1128,5020001162361,登記記録の閉鎖等,0,2025-08-19,2025-07-28,揚ノ沢鉱山株式会社,,株式会社,神奈川県,横浜市神奈川区,六角橋１丁目７番２１号コテイジ白楽２０２号,,14,102,2210802,,,2025-07-28,清算の結了等,,,2025-04-14,1,,,,,アゲノサワコウザン,0
1149,5021002053104,登記記録の閉鎖等,0,2025-08-19,2025-08-08,有限会社マジョリカ,,有限会社,神奈川県,中郡二宮町,百合が丘３丁目１１番３号,,14,342,2590133,,,2025-08-08,清算の結了等,,,2015-10-05,1,,,,,マジョリカ,0
1158,5030002077558,登記記録の閉鎖等,0,2025-08-19,2025-08-08,有限会社佐藤化工,,有限会社,埼玉県,比企郡川島町,大字飯島３６１番地６,,11,346,3500153,,,2025-08-08,清算の結了等,,,2015-10-05,1,,,,,サトウカコウ,0
1170,5060001033690,登記記録の閉鎖等,0,2025-08-19,2025-08-05,サクラフォレスト株式会社,,株式会社,栃木県,那須郡那須町,大字高久甲５４６１番地１,,09,407,3250001,,,2025-08-05,清算の結了等,,,2021-05-10,1,,,,,サクラフォレスト,0
1174,5070002027550,登記記録の閉鎖等,0,2025-08-19,2025-08-12,有限会社カリノ建設,,有限会社,群馬県,渋川市,北橘町小室１３６７番地２,,10,208,3770065,,,2025-08-12,清算の結了等,,,2015-10-05,1,,,,,,0
1182,5080105004768,登記記録の閉鎖等,0,2025-08-19,2025-07-14,天理教奥仁科分教会,,その他の設立登記法人,静岡県,賀茂郡西伊豆町,中３６１番地,,22,306,4103513,,,2025-07-14,合併による解散等,4080105001626,令和７年７月１４日静岡県伊豆の国市大仁２３０番地天理教北豆分教会（4080105001626）に合併し解散,2015-10-05,1,,,,,,0
1187,5110001030906,登記記録の閉鎖等,0,2025-08-19,2025-08-08,株式会社木村興産,,株式会社,新潟県,五泉市,丸田３８４番地１,,15,218,9591854,,,2025-08-08,清算の結了等,,,2015-10-05,1,,,,,,0
1188,5120001006013,登記記録の閉鎖等,0,2025-08-19,2025-08-04,株式会社ナカジマ,,株式会社,大阪府,大阪市阿倍野区,美章園３丁目７番７号,,27,119,5450003,,,2025-08-04,清算の結了等,,,2015-10-05,1,,,,,ナカジマ,0
1189,5120001016037,登記記録の閉鎖等,0,2025-08-19,2025-08-05,株式会社平井鉄工所,,株式会社,大阪府,大阪市城東区,永田２丁目１番４号,,27,118,5360022,,,2025-08-05,清算の結了等,,,2015-10-05,1,,,,,ヒライテッコウショ,0
1209,5122002001281,登記記録の閉鎖等,0,2025-08-19,2025-07-25,有限会社木村縫工所,,有限会社,大阪府,東大阪市,新庄３丁目２０番１８号,,27,227,5780963,,,2025-07-25,清算の結了等,,,2015-10-05,1,,,,,キムラホウコウショ,0
1212,5130002003165,登記記録の閉鎖等,0,2025-08-19,2025-08-04,有限会社渡辺正治製紐,,有限会社,京都府,京都市上京区,下立売通智恵光院西入中村町５２１番地,,26,102,6028175,,,2025-08-04,清算の結了等,,,2015-10-05,1,,,,,ワタナベマサハルセイチュウ,0
1223,5180001087502,登記記録の閉鎖等,0,2025-08-19,2025-07-28,タイヘイ食品株式会社,,株式会社,愛知県,江南市,布袋下山町北１１０１番地,,23,217,4838147,,,2025-07-28,清算の結了等,,,2015-10-05,1,,,,,タイヘイショクヒン,0
1226,5180001164111,登記記録の閉鎖等,0,2025-08-19,2025-07-25,ＫＩホールディングス株式会社,,株式会社,愛知県,名古屋市緑区,細口１丁目９０４番地の２,,23,114,4580006,,,2025-07-25,清算の結了等,,,2024-11-14,1,,,,,ケイアイホールディングス,0
1242,5180301017381,登記記録の閉鎖等,0,2025-08-19,2025-08-18,株式会社新成興業,,株式会社,愛知県,安城市,桜井町印内北分４３番地１,,23,212,4441154,,,2025-08-18,清算の結了等,,,2015-10-05,1,,,,,シンセイコウギョウ,0
1248,5200002014816,登記記録の閉鎖等,0,2025-08-19,2025-08-12,有限会社セイノー,,有限会社,岐阜県,海津市,平田町今尾４３８３番地の１,,21,221,5030321,,,2025-08-12,清算の結了等,,,2015-10-05,1,,,,,,0
1254,5240001019300,登記記録の閉鎖等,0,2025-08-19,2025-08-12,株式会社エンヴィジョン,,株式会社,広島県,広島市安佐北区,深川３丁目２８－２,,34,106,7391751,,,2025-08-12,合併による解散等,1010401185000,令和７年８月１日東京都港区南青山三丁目１番３号スプライン青山東急ビル３階株式会社エンヴィジョン（1010401185000）に合併し解散,2015-10-05,1,,,,,エンヴィジョン,0
1257,5240001053415,登記記録の閉鎖等,0,2025-08-19,2025-08-15,株式会社大誠,,株式会社,広島県,尾道市,向東町９２２１番地２８,,34,205,7220062,,,2025-08-15,清算の結了等,,,2018-10-09,1,,,,,タイセイ,0
1260,5250002000480,登記記録の閉鎖等,0,2025-08-19,2025-08-14,北村産業有限会社,,有限会社,山口県,山口市,中尾９１９番地,,35,203,7530801,,,2025-08-14,清算の結了等,,,2015-10-05,1,,,,,キタムラサンギョウ,0
1262,5290001009998,登記記録の閉鎖等,0,2025-08-19,2025-08-01,株式会社アールウェイ,,株式会社,福岡県,福岡市中央区,渡辺通４丁目９番１８号,,40,133,8100004,,,2025-08-01,合併による解散等,6290001038006,令和７年８月１日福岡市博多区寿町二丁目４番１２号株式会社アールウェイ（6290001038006）に合併し解散,2015-10-05,1,,,,,アールウェイ,0
1263,5290001027983,登記記録の閉鎖等,0,2025-08-19,2025-07-22,ＹＫＩＢ株式会社,,株式会社,東京都,港区,東新橋２丁目４番８－５０１号,,13,103,1050021,,,2025-07-22,清算の結了等,,,2015-10-05,1,,,,,ワイケイアイビー,0
1288,5380002029053,登記記録の閉鎖等,0,2025-08-19,2025-07-29,有限会社ビジネス館大鐘,,有限会社,福島県,南相馬市,原町区雫字塔場下１９７番地の１,,07,212,9750042,,,2025-07-29,清算の結了等,,,2015-10-05,1,,,,,ビジネスカンオオガネ,0
1292,5390001013569,登記記録の閉鎖等,0,2025-08-19,2025-08-07,株式会社Ｗ－ｉｎｇ,,株式会社,山形県,山形市,嶋南３丁目１４番２７号,,06,201,9900886,,,2025-08-07,清算の結了等,,,2015-10-05,1,,,,,,0
1302,5460002003693,登記記録の閉鎖等,0,2025-08-19,2025-08-15,有限会社丸大広栄フーズ,,有限会社,北海道,釧路市,星が浦南２丁目１番３号,,01,206,0840913,,,2025-08-15,清算の結了等,,,2015-10-05,1,,,,,,0
1303,5470001012967,登記記録の閉鎖等,0,2025-08-19,2025-08-14,株式会社オーティーエアフィット,,株式会社,香川県,高松市,国分寺町新居３７０７番地４０,,37,201,7690101,,,2025-08-14,清算の結了等,,,2015-10-05,1,,,,,オーティーエアフィット,0
1304,5500001024934,登記記録の閉鎖等,0,2025-08-19,2025-08-18,株式会社ＢＥＥＦ．ＥＡＴＥＲ,,株式会社,愛媛県,松山市,一番町２丁目５番地２５グッドウィンビル４階,,38,201,7900001,,,2025-08-18,清算の結了等,,,2023-05-17,1,,,,,ビーフイーター,0
1327,6010401123310,登記記録の閉鎖等,0,2025-08-19,2025-07-18,四日市霞パワー株式会社,,株式会社,東京都,港区,芝浦１丁目１番１号,,13,103,1050023,,,2025-07-18,合併による解散等,3010401010164,令和７年７月１日東京都港区芝浦一丁目１番１号コスモ石油株式会社（3010401010164）に合併し解散,2016-02-23,1,,,,,ヨッカイチカスミパワー,0
1328,6010401153778,登記記録の閉鎖等,0,2025-08-19,2025-07-22,株式会社ＦａｃｅＦｉｔ,,株式会社,東京都,港区,南青山３丁目１５番９号ＭＩＮＯＷＡ表参道３階,,13,103,1070062,,,2025-07-22,清算の結了等,,,2020-07-07,1,,,,,フェイスフィット,0
1339,6010601015035,登記記録の閉鎖等,0,2025-08-19,2025-08-07,ヒタチ鋼業株式会社,,株式会社,東京都,墨田区,業平３丁目５番７号６０３,,13,107,1300002,,,2025-08-07,清算の結了等,,,2015-10-05,1,,,,,ヒタチコウギョウ,0
1342,6010801012666,登記記録の閉鎖等,0,2025-08-19,2025-08-07,株式会社菱栄,,株式会社,東京都,大田区,多摩川１丁目３１番４号,,13,111,1460095,,,2025-08-07,清算の結了等,,,2015-10-05,1,,,,,リョウエイ,0
1343,6010802006337,登記記録の閉鎖等,0,2025-08-19,2025-08-08,有限会社佐野工務店,,有限会社,東京都,大田区,多摩川２丁目２２番２０号,,13,111,1460095,,,2025-08-08,清算の結了等,,,2015-10-05,1,,,,,サノコウムテン,0
1362,6011105008640,登記記録の閉鎖等,0,2025-08-19,2025-07-24,一般社団法人奈良富雄ホールディングス,,その他の設立登記法人,東京都,千代田区,大手町２丁目２番２号アーバンネット大手町ビル,,13,101,1000004,,,2025-07-24,清算の結了等,,,2019-01-08,1,,,,,ナラトミオホールディングス,0
1381,6020001013159,登記記録の閉鎖等,0,2025-08-19,2025-07-31,白石薬品塗料株式会社,,株式会社,神奈川県,横浜市南区,南吉田町２丁目１７番地,,14,105,2320012,,,2025-07-31,清算の結了等,,,2015-10-05,1,,,,,,0
1399,6040001092085,登記記録の閉鎖等,0,2025-08-19,2025-07-29,コヤマ企工株式会社,,株式会社,千葉県,市川市,行徳駅前３丁目６番１－３０１号,,12,203,2720133,,,2025-07-29,清算の結了等,,,2015-10-05,1,,,,,コヤマキコウ,0
1408,6070002016610,登記記録の閉鎖等,0,2025-08-19,2025-08-08,有限会社マルエイ,,有限会社,群馬県,富岡市,南蛇井４９５番地８,,10,210,3702464,,,2025-08-08,清算の結了等,,,2015-10-05,1,,,,,マルエイ,0
1419,6080401024329,登記記録の閉鎖等,0,2025-08-19,2025-08-08,株式会社ＨＭＣＣ,,株式会社,静岡県,浜松市中央区,舞阪町弁天島３２８５番地１－２０５,,22,138,4310214,,,2025-08-08,清算の結了等,,,2020-05-29,1,,,,,エイチエムシーシー,0
1429,6100001000082,登記記録の閉鎖等,0,2025-08-19,2025-08-13,株式会社アクアエンジニアリング,,株式会社,長野県,長野市,大字徳間３３０５番地,,20,201,3810041,,,2025-08-13,清算の結了等,,,2015-10-05,1,,,,,アクアエンジニアリング,0
1430,6100002017258,登記記録の閉鎖等,0,2025-08-19,2025-08-13,有限会社二ノ宮輪店,,有限会社,長野県,飯山市,大字常郷３番地３,,20,213,3892412,,,2025-08-13,清算の結了等,,,2015-10-05,1,,,,,ニノミヤリンテン,0
1432,6110002028519,登記記録の閉鎖等,0,2025-08-19,2025-08-12,有限会社長岡ツアーズ,,有限会社,新潟県,長岡市,中島４丁目５番７号,,15,202,9400094,,,2025-08-12,清算の結了等,,,2015-10-05,1,,,,,ナガオカツアーズ,0
1448,6120002042766,登記記録の閉鎖等,0,2025-08-19,2025-08-01,有限会社カーティスクリーク,,有限会社,大阪府,大阪市淀川区,西中島６丁目３番２５号北白石ビル東館４階,,27,123,5320011,,,2025-08-01,清算の結了等,,,2015-10-05,1,,,,,,0
1459,6130002034143,登記記録の閉鎖等,0,2025-08-19,2025-07-31,有限会社魚越,,有限会社,京都府,舞鶴市,字浜４３５番地,,26,202,6250036,,,2025-07-31,清算の結了等,,,2015-10-05,1,,,,,ウオコシ,0
1473,6140002015431,登記記録の閉鎖等,0,2025-08-19,2025-08-12,有限会社橋本ベーカリー,,有限会社,兵庫県,神戸市中央区,神若通１丁目４番１８号,,28,110,6510067,,,2025-08-12,清算の結了等,,,2015-10-05,1,,,,,ハシモトベーカリー,0
1477,6140005008127,登記記録の閉鎖等,0,2025-08-19,2025-07-15,乘寶寺,,その他の設立登記法人,兵庫県,丹波市,柏原町柏原３６２７番地,,28,223,6693309,,,2025-07-15,合併による解散等,7140005008159,令和７年７月１５日兵庫県丹波市市島町下竹田６８番地清薗寺（7140005008159）に合併し解散,2015-10-05,1,,,,,ジョウホウジ,0
1479,6170005002795,登記記録の閉鎖等,0,2025-08-19,2025-07-18,天理教椒分教会,,その他の設立登記法人,和歌山県,有田市,初島町浜１４３４番地,,30,204,6490306,,,2025-07-18,合併による解散等,5170005000668,令和７年７月１８日和歌山市三番丁７１番地天理教箕島分教会（5170005000668）に合併し解散,2015-10-05,1,,,,,テンリキョウハジカミブンキョウカイ,0
1480,6180001034775,登記記録の閉鎖等,0,2025-08-19,2025-07-25,株式会社エル・スタッフ,,株式会社,愛知県,名古屋市中区,平和２丁目６番２号,,23,106,4600021,,,2025-07-25,清算の結了等,,,2015-10-05,1,,,,,エルスタッフ,0
1486,6180005015466,登記記録の閉鎖等,0,2025-08-19,2025-08-04,特定非営利活動法人フードバンクジャパン,,その他の設立登記法人,愛知県,名古屋市千種区,千種１丁目１８番１号セツダビル２Ｅ,,23,101,4640858,,,2025-08-04,清算の結了等,,,2015-10-05,1,,,,,フードバンクジャパン,0
1491,6190003002515,登記記録の閉鎖等,0,2025-08-19,2025-08-15,合同会社笑縁樹,,合同会社,三重県,鈴鹿市,庄野羽山１丁目２番２２号,,24,207,5130834,,,2025-08-15,清算の結了等,,,2016-05-13,1,,,,,ショウエンジュ,0
1498,6210002009137,登記記録の閉鎖等,0,2025-08-19,2025-08-12,有限会社一筆啓上茶屋,,有限会社,福井県,坂井市,丸岡町霞町３丁目１番地３,,18,210,9100231,,,2025-08-12,清算の結了等,,,2015-10-05,1,,,,,イッピツケイジョウチャヤ,0
1512,6290001095831,登記記録の閉鎖等,0,2025-08-19,2025-08-01,株式会社ＡＢＣビジョン,,株式会社,福岡県,春日市,下白水南２丁目３８番地,,40,218,8160846,,,2025-08-01,合併による解散等,2290001022129,令和７年８月１日福岡市博多区博多駅南四丁目２番１０号株式会社ＡＢＣビジョン（2290001022129）に合併し解散,2021-12-27,1,,,,,エービーシービジョン,0
1521,6290002001912,登記記録の閉鎖等,0,2025-08-19,2025-07-23,有限会社共和システム工業,,有限会社,福岡県,福岡市西区,田尻東３丁目２５５４番地１,,40,135,8190380,,,2025-07-23,清算の結了等,,,2015-10-05,1,,,,,キョウワシステムコウギョウ,0
1530,6310001007775,登記記録の閉鎖等,0,2025-08-19,2025-08-18,日星工業株式会社,,株式会社,長崎県,佐世保市,吉井町直谷１１６２番地１,,42,202,8596305,,,2025-08-18,清算の結了等,,,2015-10-05,1,,,,,ニッセイコウギョウ,0
1552,6430001008308,登記記録の閉鎖等,0,2025-08-19,2025-07-30,杉下機械商事株式会社,,株式会社,北海道,札幌市白石区,本通５丁目南３番１１号,,01,104,0030026,,,2025-07-30,清算の結了等,,,2015-10-05,1,,,,,スギシタキカイショウジ,0
1557,6430002009809,登記記録の閉鎖等,0,2025-08-19,2025-08-15,有限会社十五島商事,,有限会社,北海道,札幌市南区,藤野二条６丁目１番５号,,01,106,0612282,,,2025-08-15,清算の結了等,,,2015-10-05,1,,,,,ジュウゴシマショウジ,0
1569,7010001003119,登記記録の閉鎖等,0,2025-08-19,2025-07-22,株式会社三水舎,,株式会社,東京都,文京区,白山２丁目１８番１０号,,13,105,1120001,,,2025-07-22,清算の結了等,,,2015-10-05,1,,,,,サンスイシャ,0
1581,7010401074098,登記記録の閉鎖等,0,2025-08-19,2025-07-14,株式会社Ｆｌｅｕｒ,,株式会社,東京都,港区,虎ノ門１丁目２３番９号,,13,103,1050001,,,2025-07-14,清算の結了等,,,2015-10-05,1,,,,,フルール,0
1584,7010401142391,登記記録の閉鎖等,0,2025-08-19,2025-07-18,富比士株式会社,,株式会社,東京都,港区,三田１丁目２番１８号ＴＴＤビル,,13,103,1080073,,,2025-07-18,清算の結了等,,,2018-12-04,1,,,,,フウヒシ,0
1585,7010401160055,登記記録の閉鎖等,0,2025-08-19,2025-07-22,ＡＢＣ＆ＳＥＴ株式会社,,株式会社,東京都,港区,浜松町２丁目３番１号,,13,103,1050013,,,2025-07-22,清算の結了等,,,2021-05-12,1,,,,,エービーシーアンドエスイーティー,0
1592,7010405019801,登記記録の閉鎖等,0,2025-08-19,2025-07-18,一般社団法人ツーリズムテクノロジー協会,,その他の設立登記法人,東京都,港区,三田２丁目３番３４号,,13,103,1080073,,,2025-07-18,清算の結了等,,,2021-05-18,1,,,,,ツーリズムテクノロジーキョウカイ,0
1612,7011001104451,登記記録の閉鎖等,0,2025-08-19,2025-08-14,パーソルファシリティマネジメント株式会社,,株式会社,東京都,港区,北青山２丁目９番５号,,13,103,1070061,,,2025-08-14,合併による解散等,8011001058176,令和７年８月１日東京都渋谷区代々木二丁目１番１号パーソルホールディングス株式会社（8011001058176）に合併し解散,2015-10-05,1,,,,,パーソルファシリティマネジメント,0
1626,7011501005711,登記記録の閉鎖等,0,2025-08-19,2025-08-14,株式会社エヌ・デイー・エス,,株式会社,東京都,荒川区,東尾久１丁目１８番１５号,,13,118,1160012,,,2025-08-14,清算の結了等,,,2015-10-05,1,,,,,エヌディーエス,0
1649,7020001060084,登記記録の閉鎖等,0,2025-08-19,2025-07-31,株式会社ＮｉｓａＢｕｌａ,,株式会社,神奈川県,横浜市神奈川区,片倉１丁目３０番１４号,,14,102,2210865,,,2025-07-31,清算の結了等,,,2015-10-05,1,,,,,ニサブラ,0
1650,7020001063946,登記記録の閉鎖等,0,2025-08-19,2025-08-07,株式会社ＡＩ－ＦＬＡＴ,,株式会社,山形県,新庄市,金沢１２８２番地の２,,06,205,9960002,,,2025-08-07,清算の結了等,,,2015-10-05,1,,,,,エーアイフラット,0
1652,7020001092978,登記記録の閉鎖等,0,2025-08-19,2025-07-31,ウィッシュ・ブレインズ株式会社,,株式会社,神奈川県,横浜市港南区,丸山台１丁目３番１号,,14,111,2330013,,,2025-07-31,清算の結了等,,,2015-10-05,1,,,,,ウィッシュブレインズ,0
1654,7020001144829,登記記録の閉鎖等,0,2025-08-19,2025-08-01,ＳＧレンタルサービス株式会社,,株式会社,神奈川県,横浜市鶴見区,鶴見中央２丁目２番４－２０６号,,14,101,2300051,,,2025-08-01,清算の結了等,,,2022-01-19,1,,,,,エスジーレンタルサービス,0
1666,7021002064999,登記記録の閉鎖等,0,2025-08-19,2025-08-07,有限会社すけ川,,有限会社,神奈川県,横須賀市,森崎３丁目１２番１２号,,14,201,2380023,,,2025-08-07,清算の結了等,,,2015-10-05,1,,,,,スケガワ,0
1680,7040001028154,登記記録の閉鎖等,0,2025-08-19,2025-07-24,株式会社ジャスト,,株式会社,千葉県,船橋市,本中山１丁目１２番５号,,12,204,2730035,,,2025-07-24,清算の結了等,,,2015-10-05,1,,,,,ジャスト,0
1694,7060002008392,登記記録の閉鎖等,0,2025-08-19,2025-08-05,有限会社丸林工務店,,有限会社,栃木県,宇都宮市,竹林町２３４番地５３,,09,201,3210974,,,2025-08-05,清算の結了等,,,2015-10-05,1,,,,,マルバヤシコウムテン,0
1701,7080001013631,登記記録の閉鎖等,0,2025-08-19,2025-08-12,株式会社三陽,,株式会社,静岡県,牧之原市,波津１３０７番地,,22,226,4210523,,,2025-08-12,清算の結了等,,,2015-10-05,1,,,,,サンヨウ,0
1702,7080001018399,登記記録の閉鎖等,0,2025-08-19,2025-08-04,長谷川企画株式会社,,株式会社,静岡県,牧之原市,蛭ケ谷３０６番地１,,22,226,4210503,,,2025-08-04,清算の結了等,,,2015-10-05,1,,,,,ハセガワキカク,0
1706,7080105004766,登記記録の閉鎖等,0,2025-08-19,2025-07-14,天理教田子港分教会,,その他の設立登記法人,静岡県,賀茂郡西伊豆町,田子１６２２番地の１３,,22,306,4103515,,,2025-07-14,合併による解散等,4080105001626,令和７年７月１４日静岡県伊豆の国市大仁２３０番地天理教北豆分教会（4080105001626）に合併し解散,2015-10-05,1,,,,,,0
1708,7100001030070,登記記録の閉鎖等,0,2025-08-19,2025-08-14,江祥株式会社,,株式会社,長野県,長野市,大字鶴賀権堂町１４５０番地３,,20,201,3800833,,,2025-08-14,清算の結了等,,,2017-03-14,1,,,,,コウショウ,0
1713,7120001027412,登記記録の閉鎖等,0,2025-08-19,2025-08-01,コスモ建設株式会社,,株式会社,大阪府,大阪市大正区,小林西２丁目１番１号,,27,108,5510013,,,2025-08-01,清算の結了等,,,2015-10-05,1,,,,,コスモケンセツ,0
1716,7120001110589,登記記録の閉鎖等,0,2025-08-19,2025-07-18,関西ＮＯＫ販売株式会社,,株式会社,大阪府,吹田市,広芝町１０番８号,,27,205,5640052,,,2025-07-18,合併による解散等,3020001019811,令和７年７月１日東京都新宿区西新宿一丁目６番１号関東ＮＯＫ販売株式会社（3020001019811）に合併し解散,2015-10-05,1,,,,,カンサイエヌオーケーハンバイ,0
1743,7130005006287,登記記録の閉鎖等,0,2025-08-19,2025-07-30,特定非営利活動法人京都文化財建造物研究所,,その他の設立登記法人,京都府,京都市中京区,麩屋町通二条上る布袋屋町５１０,,26,104,6040963,,,2025-07-30,清算の結了等,,,2015-10-05,1,,,,,キョウトブンカザイケンゾウブツケンキュウショ,0
1745,7140001027311,登記記録の閉鎖等,0,2025-08-19,2025-08-15,株式会社Ａｒｉｓｍａｙａ　Ｒｅｓｅａｒｃｈ＆Ｃｏｎｓｕｌｔｉｎｇ,,株式会社,兵庫県,神戸市中央区,海岸通４番地新明海ビル３階,,28,110,6500024,,,2025-08-15,合併による解散等,1120001133793,令和７年８月１５日神戸市中央区海岸通４番地新明海ビル３階株式会社Ｕメディカルコーポレーション（1120001133793）に合併し解散,2015-10-05,1,,,,,アリスマヤリサーチアンドコンサルティング,0
1750,7140001121064,登記記録の閉鎖等,0,2025-08-19,2025-08-12,株式会社姫大アシスト,,株式会社,兵庫県,姫路市,大塩町２０４２番２,,28,201,6710101,,,2025-08-12,清算の結了等,,,2021-04-06,1,,,,,ヒメダイアシスト,0
1752,7140003005653,登記記録の閉鎖等,0,2025-08-19,2025-08-12,合資会社佐々木瓦産業,,合資会社,兵庫県,明石市,大久保町八木３８６番地,,28,203,6740063,,,2025-08-12,清算の結了等,,,2015-10-05,1,,,,,ササキカワラサンギョウ,0
1762,7180001014850,登記記録の閉鎖等,0,2025-08-19,2025-07-25,株式会社タテオカ,,株式会社,愛知県,名古屋市南区,南野２丁目３４８番地,,23,112,4570068,,,2025-07-25,清算の結了等,,,2015-10-05,1,,,,,タテオカ,0
1765,7180001026945,登記記録の閉鎖等,0,2025-08-19,2025-07-25,藤昭株式会社,,株式会社,愛知県,名古屋市西区,浄心１丁目８番３７号,,23,104,4510061,,,2025-07-25,清算の結了等,,,2015-10-05,1,,,,,フジショウ,0
1773,7180002021656,登記記録の閉鎖等,0,2025-08-19,2025-07-25,有限会社スピリッツ,,有限会社,愛知県,名古屋市天白区,植田山１丁目１５０４番地,,23,116,4680001,,,2025-07-25,清算の結了等,,,2015-10-05,1,,,,,スピリッツ,0
1774,7180002074506,登記記録の閉鎖等,0,2025-08-19,2025-07-25,有限会社フジ美建,,有限会社,愛知県,犬山市,大字羽黒字赤坂１２番地の１２,,23,215,4840894,,,2025-07-25,清算の結了等,,,2015-10-05,1,,,,,フジビケン,0
1780,7180305005942,登記記録の閉鎖等,0,2025-08-19,2025-07-02,天理教愛三河分教会,,その他の設立登記法人,愛知県,豊田市,中金町石垣内３１２番地,,23,211,4700312,,,2025-07-02,合併による解散等,2180305005947,令和７年７月２日愛知県豊田市御船町待井６４番地８天理教足助分教会（2180305005947）に合併し解散,2015-10-05,1,,,,,テンリキョウアイミカワブンキョウカイ,0
1786,7250001008837,登記記録の閉鎖等,0,2025-08-19,2025-08-12,山陽システム株式会社,,株式会社,山口県,周南市,有楽町３６番地,,35,215,7450035,,,2025-08-12,清算の結了等,,,2015-10-05,1,,,,,サンヨウシステム,0
1794,7290001019789,登記記録の閉鎖等,0,2025-08-19,2025-07-16,株式会社博多うち川,,株式会社,福岡県,福岡市博多区,井相田２丁目２番１３号,,40,132,8120881,,,2025-07-16,清算の結了等,,,2015-10-05,1,,,,,,0
1806,7310001000449,登記記録の閉鎖等,0,2025-08-19,2025-08-08,協栄設備工業株式会社,,株式会社,長崎県,長崎市,岩川町１７番７号,,42,201,8528106,,,2025-08-08,清算の結了等,,,2015-10-05,1,,,,,キョウエイセツビコウギョウ,0
1822,7390002014119,登記記録の閉鎖等,0,2025-08-19,2025-08-08,有限会社桜建設,,有限会社,山形県,米沢市,古志田町２７８２番地の２,,06,202,9920065,,,2025-08-08,清算の結了等,,,2015-10-05,1,,,,,サクラケンセツ,0
1824,7430001035391,登記記録の閉鎖等,0,2025-08-19,2025-07-29,株式会社ギャラリーエッセ,,株式会社,北海道,札幌市北区,北九条西３丁目９番１号,,01,102,0600809,,,2025-07-29,清算の結了等,,,2015-10-05,1,,,,,ギャラリーエッセ,0
1828,7460301003673,登記記録の閉鎖等,0,2025-08-19,2025-08-15,株式会社大内,,株式会社,北海道,網走市,駒場北４丁目７番５号,,01,211,0930033,,,2025-08-15,清算の結了等,,,2015-10-05,1,,,,,オオウチ,0
1830,8010001021540,登記記録の閉鎖等,0,2025-08-19,2025-08-06,大同交易株式会社,,株式会社,東京都,千代田区,富士見２丁目３番２７号,,13,101,1020071,,,2025-08-06,清算の結了等,,,2015-10-05,1,,,,,ダイドウコウエキ,0
1837,8010001178918,登記記録の閉鎖等,0,2025-08-19,2025-07-18,株式会社Ｊ．Ｓｃｏｒｅ,,株式会社,東京都,港区,赤坂５丁目３番１号,,13,103,1070052,,,2025-07-18,清算の結了等,,,2016-10-12,1,,,,,ジェイスコア,0
1884,8011101015011,登記記録の閉鎖等,0,2025-08-19,2025-07-11,株式会社東洋設備事務所,,株式会社,東京都,新宿区,百人町１丁目１１番２号,,13,104,1690073,,,2025-07-11,清算の結了等,,,2015-10-05,1,,,,,トウヨウセツビジムショ,0
1888,8011103009127,登記記録の閉鎖等,0,2025-08-19,2025-07-14,ｂｔｏ合同会社,,合同会社,東京都,新宿区,市谷加賀町２丁目５番４－２０９号,,13,104,1620062,,,2025-07-14,清算の結了等,,,2019-09-27,1,,,,,ビーティーオー,0
1890,8011201017717,登記記録の閉鎖等,0,2025-08-19,2025-08-08,株式会社アンナ,,株式会社,東京都,中野区,中野５丁目５０番５号,,13,114,1640001,,,2025-08-08,清算の結了等,,,2015-10-05,1,,,,,アンナ,0
1899,8011802019772,登記記録の閉鎖等,0,2025-08-19,2025-08-15,有限会社山口建商,,有限会社,東京都,足立区,谷中１丁目２２番１３－４０６号,,13,121,1200006,,,2025-08-15,清算の結了等,,,2015-10-05,1,,,,,,0
1923,8021001073117,登記記録の閉鎖等,0,2025-08-19,2025-08-08,株式会社カワサキ外装,,株式会社,神奈川県,茅ヶ崎市,矢畑５２７番地１１,,14,207,2530085,,,2025-08-08,清算の結了等,,,2021-06-11,1,,,,,カワサキガイソウ,0
1930,8021003012097,登記記録の閉鎖等,0,2025-08-19,2025-08-08,ＳＡＭＰＩＮＯＮＧ合同会社,,合同会社,神奈川県,伊勢原市,沼目１丁目９５番地の１マンション幸栄３０５号,,14,214,2591126,,,2025-08-08,清算の結了等,,,2022-09-02,1,,,,,サームピノーン,0
1958,8060002003236,登記記録の閉鎖等,0,2025-08-19,2025-08-06,有限会社京文社印刷,,有限会社,栃木県,宇都宮市,今宮４丁目２番２０号,,09,201,3210166,,,2025-08-06,清算の結了等,,,2015-10-05,1,,,,,キョウブンシャインサツ,0
1969,8080002014371,登記記録の閉鎖等,0,2025-08-19,2025-08-12,有限会社ライフ・サポート,,有限会社,静岡県,榛原郡川根本町,上長尾４３４番地の１,,22,429,4280313,,,2025-08-12,清算の結了等,,,2015-10-05,1,,,,,ライフサポート,0
1994,8120003008062,登記記録の閉鎖等,0,2025-08-19,2025-08-12,合同会社ＡＣＢ,,合同会社,兵庫県,西宮市,高須町１丁目１番１６－５０６号,,28,204,6638141,,,2025-08-12,清算の結了等,,,2015-10-05,1,,,,,エーシービー,0
2010,8130005006146,登記記録の閉鎖等,0,2025-08-19,2025-07-28,特定非営利活動法人日本アジア交流促進センター,,その他の設立登記法人,京都府,京都市右京区,西京極中沢町１－１３－１０１１,,26,108,6150815,,,2025-07-28,清算の結了等,,,2015-10-05,1,,,,,ニホンアジアコウリュウソクシンセンター,0
2016,8140001077421,登記記録の閉鎖等,0,2025-08-19,2025-08-12,株式会社幸,,株式会社,兵庫県,加西市,上道山町２５番地の１,,28,220,6752453,,,2025-08-12,清算の結了等,,,2015-10-05,1,,,,,サチ,0
2025,8140002065350,登記記録の閉鎖等,0,2025-08-19,2025-08-08,有限会社アーキタイプ・アソシエイツ,,有限会社,兵庫県,川西市,萩原台西１丁目４２１番地,,28,217,6660006,,,2025-08-08,清算の結了等,,,2015-10-05,1,,,,,アーキタイプアソシエイツ,0
2026,8140003021988,登記記録の閉鎖等,0,2025-08-19,2025-08-13,合同会社Ｇａｒａｇｅ　Ｗｏｒｋｓ,,合同会社,兵庫県,神戸市長田区,御蔵通２丁目１３－１ウイング神戸９０６,,28,106,6530014,,,2025-08-13,清算の結了等,,,2025-04-30,1,,,,,ガレージワークス,0
2035,8170005002117,登記記録の閉鎖等,0,2025-08-19,2025-07-18,天理教城浜分教会,,その他の設立登記法人,和歌山県,海南市,下津町下津２０８番地,,30,202,6490101,,,2025-07-18,合併による解散等,8170005000681,令和７年７月１８日和歌山市大河内１９７番地の１天理教和榮分教会（8170005000681）に合併し解散,2015-10-05,1,,,,,テンリキョウジョウヒンブンキョウカイ,0
2040,8180001149381,登記記録の閉鎖等,0,2025-08-19,2025-07-24,株式会社トモニツクル東海,,株式会社,愛知県,名古屋市中区,栄２丁目４番１８号岡谷鋼機ビルディング２階,,23,106,4600008,,,2025-07-24,清算の結了等,,,2022-01-11,1,,,,,トモニツクルトウカイ,0
2041,8180001162657,登記記録の閉鎖等,0,2025-08-19,2025-07-25,株式会社ＷＥＬＬＳ,,株式会社,愛知県,名古屋市熱田区,花表町３番２８号ファミリアーレ神宮前レジデンス５０９号,,23,109,4560033,,,2025-07-25,清算の結了等,,,2024-08-06,1,,,,,ウェルズ,0
2050,8180005016396,登記記録の閉鎖等,0,2025-08-19,2025-08-08,特定非営利活動法人ギガスター,,その他の設立登記法人,愛知県,知多郡武豊町,字西門２９番地１,,23,447,4702345,,,2025-08-08,清算の結了等,,,2015-10-05,1,,,,,ギガスター,0
2058,8200002021826,登記記録の閉鎖等,0,2025-08-19,2025-08-08,有限会社雪山陶苑,,有限会社,岐阜県,土岐市,妻木町２１２７番地の７,,21,212,5095301,,,2025-08-08,清算の結了等,,,2015-10-05,1,,,,,セツザントウエン,0
2059,8200003006066,登記記録の閉鎖等,0,2025-08-19,2025-08-08,合同会社Ｍｉｎｉｍａｌｉｚｅ　Ｗｏｒｋｓ,,合同会社,岐阜県,養老郡養老町,高田４３１３番地１,,21,341,5031314,,,2025-08-08,清算の結了等,,,2023-09-04,1,,,,,ミニマライズワークス,0
2067,8240001026194,登記記録の閉鎖等,0,2025-08-19,2025-08-12,株式会社中央商会,,株式会社,広島県,呉市,三条３丁目５番２１号,,34,202,7370821,,,2025-08-12,清算の結了等,,,2015-10-05,1,,,,,チュウオウショウカイ,0
2074,8290001083784,登記記録の閉鎖等,0,2025-08-19,2025-07-17,株式会社Ｓｕｇａｒ,,株式会社,福岡県,福岡市中央区,天神４丁目６－２８天神ファーストビル７階,,40,133,8100001,,,2025-07-17,清算の結了等,,,2019-01-04,1,,,,,シュガー,0
2075,8290001084832,登記記録の閉鎖等,0,2025-08-19,2025-07-17,株式会社シロケン,,株式会社,福岡県,福岡市城南区,片江１丁目５番１６号,,40,136,8140142,,,2025-07-17,清算の結了等,,,2019-04-09,1,,,,,シロケン,0
2091,8330001006815,登記記録の閉鎖等,0,2025-08-19,2025-08-01,株式会社マルタカ物流,,株式会社,熊本県,熊本市西区,八島町７２６番地６,,43,103,8600057,,,2025-08-01,合併による解散等,3330001005573,令和７年８月１日熊本市中央区本山町２１１番地３株式会社坂本（3330001005573）に合併し解散,2015-10-05,1,,,,,マルタカブツリュウ,0
2102,8380001029217,登記記録の閉鎖等,0,2025-08-19,2025-07-31,株式会社夢工房,,株式会社,福島県,石川郡玉川村,大字南須釜字中奥平２３番地１,,07,502,9636302,,,2025-07-31,清算の結了等,,,2018-06-25,1,,,,,,0
2103,8390001001348,登記記録の閉鎖等,0,2025-08-19,2025-08-07,トスメックコンピュータシステム株式会社,,株式会社,山形県,山形市,あこや町３丁目１番３号,,06,201,9900025,,,2025-08-07,清算の結了等,,,2015-10-05,1,,,,,トスメックコンピュータシステム,0
2104,8390001014143,登記記録の閉鎖等,0,2025-08-19,2025-08-08,株式会社ハートマークジャパン,,株式会社,山形県,鶴岡市,三光町１番２６号,,06,203,9970821,,,2025-08-08,清算の結了等,,,2015-10-05,1,,,,,ハートマークジャパン,0
2105,8390003000488,登記記録の閉鎖等,0,2025-08-19,2025-08-08,合同会社イーストウッド,,合同会社,山形県,酒田市,中町１丁目７番５号,,06,204,9980044,,,2025-08-08,清算の結了等,,,2015-10-05,1,,,,,イーストウッド,0
2106,8410003003050,登記記録の閉鎖等,0,2025-08-19,2025-08-07,アイ・トラスト合同会社,,合同会社,秋田県,横手市,条里１丁目１２番４号,,05,203,0130060,,,2025-08-07,清算の結了等,,,2016-12-07,1,,,,,アイトラスト,0
2111,8430001057121,登記記録の閉鎖等,0,2025-08-19,2025-08-07,株式会社室蘭カントリー倶楽部,,株式会社,北海道,室蘭市,崎守町２９３番地の１,,01,205,0500055,,,2025-08-07,合併による解散等,6140001048523,令和７年７月１日大阪市中央区北浜二丁目６番１８号株式会社レゾンディレクション（6140001048523）に合併し解散,2015-10-05,1,,,,,ムロランカントリークラブ,0
2115,8460302004843,登記記録の閉鎖等,0,2025-08-19,2025-08-15,有限会社斜里工機,,有限会社,北海道,斜里郡斜里町,港西町１番地３,,01,545,0994146,,,2025-08-15,清算の結了等,,,2015-10-05,1,,,,,シャリコウキ,0
2123,9010001192694,登記記録の閉鎖等,0,2025-08-19,2025-07-18,イセ・エスフーズ株式会社,,株式会社,東京都,千代田区,有楽町２丁目１０番１号,,13,101,1000006,,,2025-07-18,清算の結了等,,,2018-06-22,1,,,,,イセエスフーズ,0
2124,9010001194864,登記記録の閉鎖等,0,2025-08-19,2025-07-22,株式会社Ｋ＆Ｊカンパニー,,株式会社,千葉県,船橋市,金杉９丁目１７－２７リーブル金杉１０１号,,12,204,2730853,,,2025-07-22,清算の結了等,,,2018-09-19,1,,,,,ケーアンドジェーカンパニー,0
2133,9010005001637,登記記録の閉鎖等,0,2025-08-19,2025-07-25,協同組合輸入眼鏡協会,,その他の設立登記法人,東京都,文京区,湯島３丁目４５番１１号,,13,105,1130034,,,2025-07-25,清算の結了等,,,2015-10-05,1,,,,,ユニュウガンキョウキョウカイ,0
2207,9013303005953,登記記録の閉鎖等,0,2025-08-19,2025-07-22,合同会社ＭＯＵＮＤ,,合同会社,東京都,豊島区,南池袋１丁目１６－２０ぬかりやビル６Ｆ,,13,116,1710022,,,2025-07-22,清算の結了等,,,2021-12-21,1,,,,,マウンド,0
2232,9040001007676,登記記録の閉鎖等,0,2025-08-19,2025-07-22,株式会社ユーエスシー,,株式会社,千葉県,千葉市中央区,中央３丁目８番１３号,,12,101,2600013,,,2025-07-22,清算の結了等,,,2015-10-05,1,,,,,ユーエスシー,0
2240,9040005019651,登記記録の閉鎖等,0,2025-08-19,2025-07-29,ＮＰＯ法人たつみ,,その他の設立登記法人,千葉県,市原市,光風台４丁目３３４番地,,12,219,2900255,,,2025-07-29,清算の結了等,,,2017-08-29,1,,,,,タツミ,0
2241,9050001013335,登記記録の閉鎖等,0,2025-08-19,2025-08-04,新茨城ボイラシステム株式会社,,株式会社,茨城県,下妻市,下木戸４３１番地の１,,08,210,3040028,,,2025-08-04,清算の結了等,,,2015-10-05,1,,,,,シンイバラキボイラシステム,0
2249,9060002021253,登記記録の閉鎖等,0,2025-08-19,2025-08-06,有限会社葉山材木店,,有限会社,栃木県,鹿沼市,口粟野８１９番地,,09,205,3220305,,,2025-08-06,清算の結了等,,,2015-10-05,1,,,,,ハヤマザイモクテン,0
2250,9060002032894,登記記録の閉鎖等,0,2025-08-19,2025-08-06,有限会社大平運送,,有限会社,栃木県,栃木市,大平町富田５００８番地３,,09,203,3294404,,,2025-08-06,清算の結了等,,,2015-10-05,1,,,,,オオヒラウンソウ,0
2255,9070001033091,登記記録の閉鎖等,0,2025-08-19,2025-08-08,ＩＮＡ株式会社,,株式会社,群馬県,太田市,西野谷町４５番地,,10,205,3730043,,,2025-08-08,清算の結了等,,,2017-01-27,1,,,,,,0
2258,9070002033710,登記記録の閉鎖等,0,2025-08-19,2025-08-08,有限会社永野工業,,有限会社,群馬県,邑楽郡明和町,梅原１１４０番地の３,,10,522,3700714,,,2025-08-08,清算の結了等,,,2015-10-05,1,,,,,ナガノコウギョウ,0
2262,9080005003379,登記記録の閉鎖等,0,2025-08-19,2025-07-09,神明社,,その他の設立登記法人,静岡県,静岡市清水区,鳥坂４８８番地,,22,103,4240067,,,2025-07-09,合併による解散等,9080005003412,令和７年７月９日静岡市清水区鳥坂５５５番地の１浅間神社（9080005003412）に合併し解散,2015-10-05,1,,,,,シンメイシャ,0
2271,9100002028302,登記記録の閉鎖等,0,2025-08-19,2025-08-15,有限会社白作,,有限会社,長野県,諏訪市,元町２番１５号,,20,206,3920006,,,2025-08-15,清算の結了等,,,2015-10-05,1,,,,,シロサク,0
2275,9110002001101,登記記録の閉鎖等,0,2025-08-19,2025-08-06,有限会社エイト印刷,,有限会社,新潟県,新潟市北区,松浜６丁目１０番地６,,15,101,9503126,,,2025-08-06,清算の結了等,,,2015-10-05,1,,,,,エイトインサツ,0
2276,9110002010622,登記記録の閉鎖等,0,2025-08-19,2025-08-08,有限会社栗原工業,,有限会社,新潟県,新潟市北区,朝日町２丁目１３番３０号,,15,101,9503315,,,2025-08-08,清算の結了等,,,2015-10-05,1,,,,,クリハラコウギョウ,0
2279,9120001171142,登記記録の閉鎖等,0,2025-08-19,2025-08-12,株式会社安積,,株式会社,兵庫県,宝塚市,中山桜台１丁目３番６号,,28,214,6650877,,,2025-08-12,清算の結了等,,,2015-10-05,1,,,,,アヅミ,0
2293,9120102027680,登記記録の閉鎖等,0,2025-08-19,2025-08-05,有限会社ナカヒロ,,有限会社,大阪府,泉南市,兎田２６７番地の１,,27,228,5900501,,,2025-08-05,清算の結了等,,,2015-10-05,1,,,,,ナカヒロ,0
2305,9140001086685,登記記録の閉鎖等,0,2025-08-19,2025-08-12,株式会社惣津クラフト,,株式会社,兵庫県,神戸市北区,小倉台７丁目４番地の３,,28,109,6511211,,,2025-08-12,清算の結了等,,,2015-10-05,1,,,,,,0
2306,9140001136341,登記記録の閉鎖等,0,2025-08-19,2025-08-08,株式会社Ｕｐｈｏｌｄ,,株式会社,兵庫県,神戸市中央区,栄町通６丁目１番１９号,,28,110,6500023,,,2025-08-08,合併による解散等,5140001136527,令和７年８月８日神戸市中央区栄町通六丁目１番１９号株式会社Ｌｉｎｏ　Ｍａｈａｌｏ（5140001136527）に合併し解散,2024-11-08,1,,,,,アップホールド,0
2311,9140003017671,登記記録の閉鎖等,0,2025-08-19,2025-08-12,合同会社ＦＪコネクト,,合同会社,兵庫県,西宮市,丸橋町８番５２－１１０号,,28,204,6620831,,,2025-08-12,清算の結了等,,,2022-05-20,1,,,,,エフジェイコネクト,0
2312,9140003019263,登記記録の閉鎖等,0,2025-08-19,2025-08-12,合同会社ＢＲＩＧＨＴ,,合同会社,兵庫県,神戸市中央区,磯辺通１丁目１番１８号,,28,110,6510084,,,2025-08-12,清算の結了等,,,2023-07-10,1,,,,,ブライト,0
2313,9140005005245,登記記録の閉鎖等,0,2025-08-19,2025-08-07,ＮＰＯ法人Ｌｅｔ’ｓあーと,,その他の設立登記法人,兵庫県,芦屋市,南浜町８番１１号,,28,206,6590037,,,2025-08-07,清算の結了等,,,2015-10-05,1,,,,,レッツアート,0
2314,9150001026236,登記記録の閉鎖等,0,2025-08-19,2025-08-08,株式会社ＣＡＮＮＡＶＩ,,株式会社,奈良県,北葛城郡広陵町,大字古寺４０１番地,,29,426,6350815,,,2025-08-08,清算の結了等,,,2023-03-16,1,,,,,カンナビ,0
2318,9180001122908,登記記録の閉鎖等,0,2025-08-19,2025-07-24,グローバル技研株式会社,,株式会社,愛知県,東海市,荒尾町中切２４番地,,23,222,4760003,,,2025-07-24,清算の結了等,,,2016-04-15,1,,,,,グローバルギケン,0
2322,9180002012281,登記記録の閉鎖等,0,2025-08-19,2025-07-23,有限会社ノベルティ,,有限会社,愛知県,名古屋市北区,中切町１丁目４５番地,,23,103,4620051,,,2025-07-23,清算の結了等,,,2015-10-05,1,,,,,ノベルティ,0
2326,9180005009572,登記記録の閉鎖等,0,2025-08-19,2025-08-07,一宮織物修整協同組合,,その他の設立登記法人,愛知県,一宮市,栄４丁目６番８号,,23,203,4910858,,,2025-08-07,清算の結了等,,,2015-10-05,1,,,,,イチノミヤオリモノシュウセイ,0
2333,9210002007740,登記記録の閉鎖等,0,2025-08-19,2025-08-12,有限会社海道電機,,有限会社,福井県,坂井市,丸岡町長畝第５３号２０番地３,,18,210,9100273,,,2025-08-12,清算の結了等,,,2015-10-05,1,,,,,カイドウデンキ,0
2337,9240001047553,登記記録の閉鎖等,0,2025-08-19,2025-08-18,株式会社こまち,,株式会社,広島県,広島市西区,己斐上４丁目３１番２号１Ｆ,,34,104,7330815,,,2025-08-18,清算の結了等,,,2015-10-05,1,,,,,,0
2339,9240003004172,登記記録の閉鎖等,0,2025-08-19,2025-08-14,徳心興業合同会社,,合同会社,広島県,福山市,沼隈町常石１１８４番地,,34,207,7210000,,,2025-08-14,清算の結了等,,,2019-03-20,1,,,,,トクシンコウギョウ,0
2346,9260002020557,登記記録の閉鎖等,0,2025-08-19,2025-07-25,有限会社ハマモト塗装,,有限会社,岡山県,倉敷市,北畝３丁目１５番２号,,33,202,7128032,,,2025-07-25,清算の結了等,,,2015-10-05,1,,,,,ハマモトトソウ,0
2349,9290001074733,登記記録の閉鎖等,0,2025-08-19,2025-07-15,株式会社ジプラス,,株式会社,福岡県,太宰府市,水城２丁目１１番１０号,,40,221,8180131,,,2025-07-15,清算の結了等,,,2016-08-03,1,,,,,,0
2363,9290005012292,登記記録の閉鎖等,0,2025-08-19,2025-07-01,医療法人福寿会,,その他の設立登記法人,福岡県,大牟田市,大字宮部１７２番地の１,,40,202,8370914,,,2025-07-01,合併による解散等,4290005012314,令和７年７月１日福岡県大牟田市大字田隈９５０番地１医療法人シーエムエス（4290005012314）に合併し解散,2015-10-05,1,,,,,,0
2365,9320001000586,登記記録の閉鎖等,0,2025-08-19,2025-07-31,株式会社営興殖産,,株式会社,大分県,大分市,顕徳町２丁目１番１０号,,44,201,8700025,,,2025-07-31,清算の結了等,,,2015-10-05,1,,,,,エイコウショクサン,0
2385,9400602001594,登記記録の閉鎖等,0,2025-08-19,2025-07-28,有限会社シャラクエンターテイメントファクトリー,,有限会社,岩手県,奥州市,水沢中町１番地２８,,03,215,0230813,,,2025-07-28,清算の結了等,,,2015-10-05,1,,,,,シャラクエンターテイメントファクトリー,0
2386,9430001029549,登記記録の閉鎖等,0,2025-08-19,2025-07-29,マルホン冷藏株式会社,,株式会社,北海道,札幌市中央区,宮の森二条１０丁目６番７号,,01,101,0640952,,,2025-07-29,清算の結了等,,,2015-10-05,1,,,,,マルホンレイゾウ,0
