sequenceNumber,corporateNumber,process,correct,updateDate,changeDate,name,nameImageId,kind,prefectureName,cityName,streetNumber,addressImageId,prefectureCode,cityCode,postCode,addressOutside,addressOutsideImageId,closeDate,closeCause,successorCorporateNumber,changeCause,assignmentDate,latest,enName,enPrefectureName,enCityName,enAddressOutside,furigana,hihyoji
6,1010002013031,登記記録の閉鎖等,0,2024-08-16,2024-08-01,有限会社ナンブ薬局,,有限会社,東京都,千代田区,神田神保町１丁目３２番地,,13,101,1010051,,,2024-08-01,清算の結了等,,,2015-10-05,1,,,,,ナンブヤッキョク,0
8,1010005005629,登記記録の閉鎖等,0,2024-08-16,2024-08-02,特定非営利活動法人住宅外装テクニカルセンター,,その他の設立登記法人,東京都,中央区,八丁堀２丁目１９番６号,,13,102,1040032,,,2024-08-02,清算の結了等,,,2015-10-05,1,,,,,ジュウタクガイソウテクニカルセンター,0
13,1010105001528,登記記録の閉鎖等,0,2024-08-16,2024-08-13,特定非営利活動法人オリーブ芸術療法研究所,,その他の設立登記法人,東京都,八王子市,南大沢１丁目２２番地２アーネストＮＯ．ＩＩＩ５号室,00050567,13,201,1920364,,,2024-08-13,清算の結了等,,,2015-10-05,1,,,,,オリーブゲイジュツリョウホウケンキュウジョ,0
22,1010403029394,登記記録の閉鎖等,0,2024-08-16,2024-07-24,Ｐａｍａｎａ　Ｒｅｔａｉｌ合同会社,,合同会社,東京都,港区,三田１丁目３番４０－３０９号,,13,103,1080073,,,2024-07-24,清算の結了等,,,2023-01-27,1,,,,,パナマリテール,0
23,1010403032613,登記記録の閉鎖等,0,2024-08-16,2024-08-14,合同会社ＹＣＨ１６,,合同会社,東京都,港区,南青山２丁目２番１５－８２５号,,13,103,1070062,,,2024-08-14,合併による解散等,4010001171323,令和６年８月１４日東京都港区南青山二丁目２番１５－８２５号株式会社新雪（4010001171323）に合併し解散,2024-05-14,1,,,,,ワイシーエイチシックスティーン,0
27,1010802006119,登記記録の閉鎖等,0,2024-08-16,2024-08-05,有限会社サンズ・オブ・シックスティ,,有限会社,東京都,大田区,南千束１丁目２６番６号,,13,111,1450063,,,2024-08-05,清算の結了等,,,2015-10-05,1,,,,,サンズオブシックスティ,0
38,1011101065657,登記記録の閉鎖等,0,2024-08-16,2024-08-01,株式会社ＧＭＩ　ｍａｎａｇｅｍｅｎｔ,,株式会社,東京都,新宿区,新宿１丁目２０番１３号花園公園ビル,,13,104,1600022,,,2024-08-01,清算の結了等,,,2015-10-05,1,,,,,ジーエムアイマネージメント,0
44,1011201019554,登記記録の閉鎖等,0,2024-08-16,2024-08-15,株式会社ＢＥＬＬ　ＢＲＯＳ,,株式会社,東京都,中野区,本町４丁目３０番１１号アーク新中野１０１,,13,114,1640012,,,2024-08-15,清算の結了等,,,2016-12-08,1,,,,,ベルブロス,0
51,1011401012680,登記記録の閉鎖等,0,2024-08-16,2024-08-13,株式会社二階堂設計,,株式会社,東京都,板橋区,前野町１丁目４５番２２－７１２号,,13,119,1740063,,,2024-08-13,清算の結了等,,,2015-10-05,1,,,,,,0
86,1040002082453,登記記録の閉鎖等,0,2024-08-16,2024-07-30,有限会社近藤園茶舗,,有限会社,千葉県,長生郡一宮町,一宮８７２３番地,,12,421,2994301,,,2024-07-30,清算の結了等,,,2015-10-05,1,,,,,コンドウエンチャホ,0
97,1080001016334,登記記録の閉鎖等,0,2024-08-16,2024-08-07,オプトグラス株式会社,,株式会社,静岡県,藤枝市,南駿河台４丁目８番５号,,22,214,4260078,,,2024-08-07,清算の結了等,,,2015-10-05,1,,,,,オプトグラス,0
98,1080001021573,登記記録の閉鎖等,0,2024-08-16,2024-08-05,株式会社ペルソナ,,株式会社,静岡県,静岡市駿河区,小黒１丁目１番１４号,,22,102,4228072,,,2024-08-05,清算の結了等,,,2017-05-10,1,,,,,ペルソナ,0
99,1080002009741,登記記録の閉鎖等,0,2024-08-16,2024-08-05,有限会社クオリティ,,有限会社,静岡県,静岡市清水区,押切１５９１番地,,22,103,4240008,,,2024-08-05,清算の結了等,,,2015-10-05,1,,,,,クオリティ,0
123,1120002045451,登記記録の閉鎖等,0,2024-08-16,2024-08-13,有限会社エフ・アイ・ディー,,有限会社,大阪府,大阪市城東区,今福西１丁目１５番３０－１４１７号,,27,118,5360004,,,2024-08-13,清算の結了等,,,2015-10-05,1,,,,,エフアイディー,0
129,1120005014726,登記記録の閉鎖等,0,2024-08-16,2024-08-15,一般社団法人今里ゆくり,,その他の設立登記法人,大阪府,大阪市東成区,大今里２丁目３６番１８号,,27,115,5370012,,,2024-08-15,清算の結了等,,,2015-10-05,1,,,,,イマザトユクリ,0
130,1120101003129,登記記録の閉鎖等,0,2024-08-16,2024-08-07,株式会社神野,,株式会社,大阪府,堺市南区,新檜尾台３丁３番１６－１０５号,,27,145,5900143,,,2024-08-07,清算の結了等,,,2015-10-05,1,,,,,コウノ,0
139,1122002017249,登記記録の閉鎖等,0,2024-08-16,2024-08-13,有限会社一建,,有限会社,大阪府,八尾市,太田新町１丁目２２５番,,27,212,5810039,,,2024-08-13,清算の結了等,,,2015-10-05,1,,,,,,0
150,1160001007993,登記記録の閉鎖等,0,2024-08-16,2024-08-09,株式会社アマンライフ,,株式会社,滋賀県,近江八幡市,鷹飼町１２１０番地１８,,25,204,5230891,,,2024-08-09,清算の結了等,,,2015-10-05,1,,,,,アマンライフ,0
155,1180001142129,登記記録の閉鎖等,0,2024-08-16,2024-07-30,株式会社ｗｅＲ,,株式会社,愛知県,名古屋市西区,名駅２丁目３４番１７号セントラル名古屋１１０１号,,23,104,4510045,,,2024-07-30,清算の結了等,,,2020-07-22,1,,,,,ダブリューイーアール,0
156,1180001142178,登記記録の閉鎖等,0,2024-08-16,2024-08-02,株式会社クリエイトワークス,,株式会社,愛知県,名古屋市中区,千代田５丁目１１番３３号ＳＴ　ＰＬＡＺＡ　ＴＳＵＲＵＭＡＩ本館５階,,23,106,4600012,,,2024-08-02,清算の結了等,,,2020-07-30,1,,,,,クリエイトワークス,0
158,1180002052112,登記記録の閉鎖等,0,2024-08-16,2024-08-02,有限会社水谷照明基礎,,有限会社,愛知県,北名古屋市,熊之庄新宮７１番地の４,,23,234,4810006,,,2024-08-02,清算の結了等,,,2015-10-05,1,,,,,ミズタニショウメイキソ,0
164,1180303003862,登記記録の閉鎖等,0,2024-08-16,2024-08-07,合同会社Ｗｉｎｋ－ｕｐ,,合同会社,愛知県,豊田市,丸山町６丁目７番地４,,23,211,4710832,,,2024-08-07,清算の結了等,,,2017-06-09,1,,,,,ウィンクアップ,0
165,1190001013072,登記記録の閉鎖等,0,2024-08-16,2024-08-13,株式会社西出組,,株式会社,三重県,いなべ市,北勢町阿下喜１４３２番地の２,,24,214,5110428,,,2024-08-13,清算の結了等,,,2015-10-05,1,,,,,ニシデグミ,0
168,1210001018449,登記記録の閉鎖等,0,2024-08-16,2024-08-09,宗パワーシステム株式会社,,株式会社,福井県,敦賀市,国広町２０１番地（舞崎町二丁目）,,18,202,9140059,,,2024-08-09,清算の結了等,,,2021-05-17,1,,,,,ムネパワーシステム,0
176,1240001014932,登記記録の閉鎖等,0,2024-08-16,2024-08-13,株式会社ドリームガーデン,,株式会社,広島県,広島市佐伯区,五月が丘５丁目１１番３５号,,34,108,7315101,,,2024-08-13,清算の結了等,,,2015-10-05,1,,,,,ドリームガーデン,0
183,1260002028541,登記記録の閉鎖等,0,2024-08-16,2024-07-31,有限会社写真のマエハラ,,有限会社,岡山県,苫田郡鏡野町,布原２６０番地の１,,33,606,7080331,,,2024-07-31,清算の結了等,,,2015-10-05,1,,,,,シャシンノマエハラ,0
190,1290002002782,登記記録の閉鎖等,0,2024-08-16,2024-07-10,長州企画有限会社,,有限会社,福岡県,福岡市南区,柏原１丁目２３番１１号,,40,134,8111353,,,2024-07-10,清算の結了等,,,2015-10-05,1,,,,,チョウシュウキカク,0
198,1310003003034,登記記録の閉鎖等,0,2024-08-16,2024-08-07,下西山興産合同会社,,合同会社,長崎県,長崎市,下西山町２番２号,,42,201,8500004,,,2024-08-07,清算の結了等,,,2015-10-05,1,,,,,シモニシヤマコウサン,0
203,1330002007554,登記記録の閉鎖等,0,2024-08-16,2024-08-06,有限会社永津建設,,有限会社,熊本県,熊本市東区,保田窪４丁目４番８号,,43,102,8620926,,,2024-08-06,清算の結了等,,,2015-10-05,1,,,,,ナガツケンセツ,0
219,1400001016417,登記記録の閉鎖等,0,2024-08-16,2024-08-02,株式会社東善中古農機,,株式会社,岩手県,紫波郡紫波町,大巻字大峯１０４番地１,,03,321,0283314,,,2024-08-02,清算の結了等,,,2023-10-16,1,,,,,ゼンゼンチュウコノウキ,0
222,1400602001164,登記記録の閉鎖等,0,2024-08-16,2024-08-01,有限会社高橋建材,00085727,有限会社,岩手県,胆沢郡金ケ崎町,西根橇曳沢２番地,,03,381,0294503,,,2024-08-01,清算の結了等,,,2015-10-05,1,,,,,タカハシケンザイ,0
223,1410003002323,登記記録の閉鎖等,0,2024-08-16,2024-08-08,合資会社高橋薬舗,00087052,合資会社,秋田県,仙北市,角館町中菅沢９２番地の６１,,05,215,0140368,,,2024-08-08,清算の結了等,,,2015-10-05,1,,,,,タカハシヤクホ,0
240,1470002000586,登記記録の閉鎖等,0,2024-08-16,2024-08-09,有限会社赤沢建築設備設計,,有限会社,香川県,高松市,上福岡町８７９番地１０,,37,201,7600077,,,2024-08-09,清算の結了等,,,2015-10-05,1,,,,,アカザワケンチクセツビセッケイ,0
246,2010001235039,登記記録の閉鎖等,0,2024-08-16,2024-08-02,株式会社Ｄｅｏｇｒａ　Ｊａｐａｎ,,株式会社,東京都,千代田区,内神田１丁目１５番１６号ザ・パークハビオＳＯＨＯ大手町１１０３室,,13,101,1010047,,,2024-08-02,清算の結了等,,,2023-05-16,1,,,,,デオグラジャパン,0
275,2010803003733,登記記録の閉鎖等,0,2024-08-16,2024-08-09,ピックアップコーヒー合同会社,,合同会社,東京都,文京区,本郷５丁目１番１１号ＫＩＩＨＯＵＳＥ２０２,,13,105,1130033,,,2024-08-09,合併による解散等,9010803003339,令和６年８月１日東京都大田区千鳥一丁目２３番１号Ｔ＆Ｆ合同会社（9010803003339）に合併し解散,2021-04-27,1,,,,,ピックアップコーヒー,0
306,2012401009088,登記記録の閉鎖等,0,2024-08-16,2024-08-14,志田電子株式会社,,株式会社,東京都,府中市,緑町３丁目６番２号花村第２ビル９０２,,13,206,1830006,,,2024-08-14,清算の結了等,,,2015-10-05,1,,,,,シダデンシ,0
313,2020001044827,登記記録の閉鎖等,0,2024-08-16,2024-07-26,株式会社システムフュージョン,,株式会社,神奈川県,横浜市旭区,小高町１１７番地,,14,112,2410015,,,2024-07-26,清算の結了等,,,2015-10-05,1,,,,,システムフュージョン,0
337,2030002098929,登記記録の閉鎖等,0,2024-08-16,2024-08-13,有限会社斉藤ダイカスト工業所,,有限会社,埼玉県,川口市,大字安行原７９５番地４,,11,203,3340057,,,2024-08-13,清算の結了等,,,2015-10-05,1,,,,,サイトウダイカストコウギョウショ,0
344,2040002067676,登記記録の閉鎖等,0,2024-08-16,2024-07-31,有限会社ベイプライズ,,有限会社,千葉県,木更津市,富士見１丁目１０番２３号,,12,206,2920831,,,2024-07-31,清算の結了等,,,2015-10-05,1,,,,,ベイプライズ,0
348,2050001019520,登記記録の閉鎖等,0,2024-08-16,2024-08-08,ワールド海綿株式会社,,株式会社,茨城県,古河市,小堤２０２０番地５０,,08,204,3060231,,,2024-08-08,清算の結了等,,,2015-10-05,1,,,,,ワールドカイメン,0
369,2100001035702,登記記録の閉鎖等,0,2024-08-16,2024-07-31,株式会社エフモールディング,,株式会社,長野県,上伊那郡飯島町,七久保１２７番地５,,20,384,3993705,,,2024-07-31,清算の結了等,,,2022-09-15,1,,,,,エフモールディング,0
374,2120001010463,登記記録の閉鎖等,0,2024-08-16,2024-08-14,株式会社積嬉,,株式会社,大阪府,大阪市東住吉区,山坂１丁目１６番１３号,,27,121,5460035,,,2024-08-14,合併による解散等,5120001110558,令和６年５月２９日大阪府八尾市太田新町七丁目１８４番地株式会社高産（5120001110558）に合併し解散,2015-10-05,1,,,,,,0
401,2120905004247,登記記録の閉鎖等,0,2024-08-16,2024-08-09,特定非営利活動法人日本口腔ケア支援協会,,その他の設立登記法人,大阪府,豊中市,若竹町１丁目１１番２０－１０２号,,27,203,5610811,,,2024-08-09,清算の結了等,,,2015-10-05,1,,,,,ニホンコウクウケアシエンキョウカイ,0
433,2180301016568,登記記録の閉鎖等,0,2024-08-16,2024-08-08,株式会社プラスタラーイシカワ,,株式会社,愛知県,安城市,二本木町西切替８１番地,,23,212,4460054,,,2024-08-08,清算の結了等,,,2015-10-05,1,,,,,プラスタラーイシカワ,0
444,2250002008659,登記記録の閉鎖等,0,2024-08-16,2024-08-08,有限会社川喜ビル,,有限会社,山口県,下関市,竹崎町３丁目３番１５号,,35,201,7500025,,,2024-08-08,清算の結了等,,,2015-10-05,1,,,,,カワキビル,0
448,2260002023236,登記記録の閉鎖等,0,2024-08-16,2024-07-31,有限会社ＩＴプラン,,有限会社,岡山県,倉敷市,林１７２８番地１８,,33,202,7100142,,,2024-07-31,清算の結了等,,,2015-10-05,1,,,,,アイティープラン,0
449,2260002025827,登記記録の閉鎖等,0,2024-08-16,2024-07-31,有限会社藤枝食鳥,,有限会社,岡山県,井原市,井原町１５０５番地,,33,207,7150019,,,2024-07-31,清算の結了等,,,2015-10-05,1,,,,,フジエダショクチョウ,0
453,2290001056449,登記記録の閉鎖等,0,2024-08-16,2024-08-13,株式会社カイショー,,株式会社,福岡県,福岡市東区,下原４丁目１８番３３号,,40,131,8130002,,,2024-08-13,合併による解散等,1010001240650,令和６年８月１日東京都千代田区神田神保町三丁目１２番地３神保町スリービル８階株式会社カイショー（1010001240650）に合併し解散,2015-10-05,1,,,,,カイショー,0
462,2330001019442,登記記録の閉鎖等,0,2024-08-16,2024-08-07,株式会社大熊本経済総合研究所,,株式会社,熊本県,熊本市東区,長嶺南７丁目９番２２号,,43,102,8618039,,,2024-08-07,清算の結了等,,,2015-10-05,1,,,,,ダイクマモトケイザイソウゴウケンキュウジョ,0
472,2370001018861,登記記録の閉鎖等,0,2024-08-16,2024-07-31,株式会社パワープラス,,株式会社,宮城県,仙台市宮城野区,日の出町３丁目２－１－１Ｆ,,04,102,9830035,,,2024-07-31,清算の結了等,,,2015-10-05,1,,,,,,0
473,2370001045484,登記記録の閉鎖等,0,2024-08-16,2024-08-01,株式会社アールワイユー,,株式会社,宮城県,仙台市若林区,六丁の目中町３１番４５－２０１,,04,103,9840012,,,2024-08-01,清算の結了等,,,2020-03-04,1,,,,,,0
475,2370002012681,登記記録の閉鎖等,0,2024-08-16,2024-08-01,有限会社日誠電機,,有限会社,宮城県,仙台市青葉区,中山台１丁目１２番地の１５,,04,101,9893202,,,2024-08-01,清算の結了等,,,2015-10-05,1,,,,,ニッセイデンキ,0
478,2390001001097,登記記録の閉鎖等,0,2024-08-16,2024-08-01,第一コピー株式会社,,株式会社,山形県,山形市,城南町３丁目４番１４号,,06,201,9900827,,,2024-08-01,清算の結了等,,,2015-10-05,1,,,,,ダイイチコピー,0
479,2390002007523,登記記録の閉鎖等,0,2024-08-16,2024-08-01,有限会社信田鉄工所,,有限会社,山形県,酒田市,東町１丁目１４番地の１３,,06,204,9980875,,,2024-08-01,清算の結了等,,,2015-10-05,1,,,,,シンタテッコウジョ,0
484,2420003002222,登記記録の閉鎖等,0,2024-08-16,2024-08-07,合同会社ルワン,,合同会社,青森県,八戸市,大字沢里字藤子１６番地４,,02,203,0391167,,,2024-08-07,清算の結了等,,,2020-12-07,1,,,,,ルワン,0
485,2420005007491,登記記録の閉鎖等,0,2024-08-16,2024-08-06,特定非営利活動法人ＳＲＥＮ,,その他の設立登記法人,青森県,青森市,富田４丁目２３番１７号,,02,201,0380004,,,2024-08-06,清算の結了等,,,2017-06-05,1,,,,,エスアールイーエヌ,0
492,2500001003676,登記記録の閉鎖等,0,2024-08-16,2024-08-13,株式会社ホテル秋田,,株式会社,愛媛県,松山市,土居田町３１６番地１,,38,201,7900056,,,2024-08-13,清算の結了等,,,2015-10-05,1,,,,,,0
495,3010001006075,登記記録の閉鎖等,0,2024-08-16,2024-08-01,日栄商事株式会社,,株式会社,東京都,文京区,小石川５丁目３０番２号,,13,105,1120002,,,2024-08-01,合併による解散等,5010001119825,令和６年８月１日東京都千代田区岩本町三丁目９番１号花岡興産株式会社（5010001119825）に合併し解散,2015-10-05,1,,,,,ニチエイショウジ,0
510,3010005028297,登記記録の閉鎖等,0,2024-08-16,2024-08-01,一般財団法人コミュニティ政策創造基盤機構,,その他の設立登記法人,東京都,中央区,勝どき４丁目６番２号,,13,102,1040054,,,2024-08-01,清算の結了等,,,2018-04-06,1,,,,,コミュニティセイサクソウゾウキバンキコウ,0
521,3010403027099,登記記録の閉鎖等,0,2024-08-16,2024-07-29,合同会社霧島山,,合同会社,東京都,港区,北青山１丁目２番３号,,13,103,1070061,,,2024-07-29,清算の結了等,,,2022-02-17,1,,,,,キリシマヤマ,0
530,3010703006686,登記記録の閉鎖等,0,2024-08-16,2024-08-06,シュクレ建築工房合同会社,,合同会社,東京都,品川区,北品川５丁目１２番３－９０３号,,13,109,1410001,,,2024-08-06,清算の結了等,,,2023-05-09,1,,,,,シュクレケンチクコウボウ,0
532,3010801010573,登記記録の閉鎖等,0,2024-08-16,2024-08-07,株式会社プライム,,株式会社,東京都,大田区,東蒲田１丁目８番９号,,13,111,1440031,,,2024-08-07,清算の結了等,,,2015-10-05,1,,,,,プライム,0
535,3010901039389,登記記録の閉鎖等,0,2024-08-16,2024-07-25,株式会社ＭＡＨＡＬＯ　ＰＩＣＴＵＲＥＳ,,株式会社,東京都,港区,港南１丁目９番３６号ＮＴＴＤＡＴＡ品川ビル１３Ｆ,,13,103,1080075,,,2024-07-25,清算の結了等,,,2017-01-17,1,,,,,マハロピクチャーズ,0
540,3011001044593,登記記録の閉鎖等,0,2024-08-16,2024-08-01,ＭＤＶスポーツジャパン株式会社,,株式会社,東京都,千代田区,岩本町１丁目１０番５号,,13,101,1010032,,,2024-08-01,合併による解散等,5011001033553,令和６年８月１日東京都千代田区岩本町一丁目１０番５号ＥＯＣジャパン株式会社（5011001033553）に合併し解散,2015-10-05,1,,,,,エムディーヴイスポーツジャパン,0
541,3011001066118,登記記録の閉鎖等,0,2024-08-16,2024-08-09,株式会社グリーンプランテック,,株式会社,神奈川県,横浜市西区,北幸２丁目８番１９号横浜西口Ｋビル９階,,14,103,2200004,,,2024-08-09,合併による解散等,6011001056966,令和６年８月１日東京都品川区西五反田一丁目３０番２号ウィン五反田ビル３階株式会社グリーンイノベーションズホールディングス（6011001056966）に合併し解散,2015-10-05,1,,,,,グリーンプランテック,0
548,3011101006238,登記記録の閉鎖等,0,2024-08-16,2024-08-14,株式会社ケイ・ワン,,株式会社,東京都,三鷹市,中原２丁目２５番１号,,13,204,1810005,,,2024-08-14,清算の結了等,,,2015-10-05,1,,,,,ケイワン,0
565,3012302003718,登記記録の閉鎖等,0,2024-08-16,2024-08-13,有限会社野原工務店,,有限会社,東京都,町田市,山崎町１５３６番地１９,,13,209,1950074,,,2024-08-13,清算の結了等,,,2015-10-05,1,,,,,ノハラコウムテン,0
575,3020001056796,登記記録の閉鎖等,0,2024-08-16,2024-07-26,株式会社金子工営,,株式会社,神奈川県,横浜市戸塚区,上品濃３番１８号,,14,110,2440806,,,2024-07-26,清算の結了等,,,2015-10-05,1,,,,,カネココウエイ,0
599,3030002099331,登記記録の閉鎖等,0,2024-08-16,2024-08-08,有限会社日乃出屋酒店,,有限会社,埼玉県,川口市,大字里１１９０番地の４０１,,11,203,3340005,,,2024-08-08,清算の結了等,,,2015-10-05,1,,,,,ヒノデヤサケテン,0
618,3080401018036,登記記録の閉鎖等,0,2024-08-16,2024-08-09,株式会社エスエーシー,,株式会社,静岡県,浜松市中央区,上西町４１番地の２,,22,138,4350048,,,2024-08-09,清算の結了等,,,2015-10-05,1,,,,,エスエーシー,0
619,3080402003144,登記記録の閉鎖等,0,2024-08-16,2024-08-13,酒井自工有限会社,,有限会社,静岡県,浜松市中央区,有玉台２丁目１１番１号,,22,138,4313126,,,2024-08-13,清算の結了等,,,2015-10-05,1,,,,,サカイジコウ,0
626,3100002032053,登記記録の閉鎖等,0,2024-08-16,2024-07-31,有限会社吉川製作所,,有限会社,長野県,岡谷市,長地柴宮２丁目６番６号,,20,204,3940083,,,2024-07-31,清算の結了等,,,2015-10-05,1,,,,,ヨシカワセイサクショ,0
639,3120002003449,登記記録の閉鎖等,0,2024-08-16,2024-08-14,有限会社ナカムラ印刷所,,有限会社,大阪府,大阪市阿倍野区,天王寺町南３丁目１１番１２号,,27,119,5450002,,,2024-08-14,清算の結了等,,,2015-10-05,1,,,,,ナカムラインサツジョ,0
651,3120103002069,登記記録の閉鎖等,0,2024-08-16,2024-08-15,株式会社絆の会,,株式会社,大阪府,泉南市,樽井３丁目１６番６号,,27,228,5900521,,,2024-08-15,清算の結了等,,,2015-10-05,1,,,,,キズナノカイ,0
659,3130001043239,登記記録の閉鎖等,0,2024-08-16,2024-08-09,株式会社池上ラジオ商会,,株式会社,京都府,舞鶴市,字本２４番地,,26,202,6240926,,,2024-08-09,清算の結了等,,,2015-10-05,1,,,,,イケガミラジオショウカイ,0
676,3180001119579,登記記録の閉鎖等,0,2024-08-16,2024-08-02,株式会社ＪＭＳ,,株式会社,愛知県,名古屋市千種区,東山通５丁目１０３番地,,23,101,4640807,,,2024-08-02,清算の結了等,,,2015-10-05,1,,,,,ジェーエムエス,0
689,3180005017606,登記記録の閉鎖等,0,2024-08-16,2024-08-05,一般社団法人ＣＪＢＢＦ,,その他の設立登記法人,愛知県,名古屋市北区,上飯田東町４丁目１５番地２,,23,103,4620803,,,2024-08-05,清算の結了等,,,2017-12-20,1,,,,,シージェイビービーエフ,0
698,3200005013445,登記記録の閉鎖等,0,2024-08-16,2024-08-05,特定非営利活動法人ヒーロー達の秘密基地,,その他の設立登記法人,岐阜県,岐阜市,加納西広江町１丁目６番６号,,21,201,5008418,,,2024-08-05,清算の結了等,,,2023-02-17,1,,,,,ヒーロータチノヒミツキチ,0
707,3230001016837,登記記録の閉鎖等,0,2024-08-16,2024-08-09,株式会社うちくる事業部,,株式会社,石川県,金沢市,直江西１丁目２４番地１,,17,201,9208215,,,2024-08-09,合併による解散等,5230001016042,令和６年８月１日富山市西野新４７番地株式会社うちくる（5230001016042）に合併し解散,2017-02-22,1,,,,,,0
709,3240002053267,登記記録の閉鎖等,0,2024-08-16,2024-08-13,有限会社茂浦囗工務店,,有限会社,広島県,三原市,小坂町６２番地の７０,,34,204,7230131,,,2024-08-13,清算の結了等,,,2015-10-05,1,,,,,シゲウラグチコウムテン,0
714,3260002005902,登記記録の閉鎖等,0,2024-08-16,2024-08-01,大寿工業有限会社,,有限会社,岡山県,岡山市北区,西古松１丁目３７番９号,,33,101,7000927,,,2024-08-01,清算の結了等,,,2015-10-05,1,,,,,ダイジュコウギョウ,0
742,3400502000207,登記記録の閉鎖等,0,2024-08-16,2024-08-01,有限会社青葉企画,,有限会社,岩手県,一関市,青葉２丁目２番１号,,03,209,0210031,,,2024-08-01,清算の結了等,,,2015-10-05,1,,,,,アオバキカク,0
767,4010001054908,登記記録の閉鎖等,0,2024-08-16,2024-08-02,美央製薬株式会社,,株式会社,東京都,中央区,日本橋堀留町２丁目３番８号,,13,102,1030012,,,2024-08-02,清算の結了等,,,2015-10-05,1,,,,,ミオセイヤク,0
772,4010001236225,登記記録の閉鎖等,0,2024-08-16,2024-08-01,ヤマナビ株式会社,,株式会社,東京都,中央区,日本橋蛎殻町１丁目１１番３号中銀日本橋マンシオン５０８,,13,102,1030014,,,2024-08-01,清算の結了等,,,2023-06-16,1,,,,,ヤマナビ,0
780,4010005029699,登記記録の閉鎖等,0,2024-08-16,2024-07-16,一般社団法人財形情報センター,,その他の設立登記法人,東京都,千代田区,神田神保町３丁目１７番地３都ビル６階,,13,101,1010051,,,2024-07-16,清算の結了等,,,2019-02-05,1,,,,,ザイケイジョウホウセンター,0
782,4010102000488,登記記録の閉鎖等,0,2024-08-16,2024-08-15,有限会社アレックス,,有限会社,東京都,八王子市,下柚木２丁目８番地の１,,13,201,1920372,,,2024-08-15,清算の結了等,,,2015-10-05,1,,,,,,0
787,4010401153961,登記記録の閉鎖等,0,2024-08-16,2024-08-14,株式会社みさきホールディングス,,株式会社,東京都,港区,北青山２丁目１４番４号,,13,103,1070061,,,2024-08-14,合併による解散等,8021001082266,令和６年８月１日神奈川県相模原市中央区南橋本四丁目３番１５号三崎未来ホールディングス株式会社（8021001082266）に合併し解散,2020-07-15,1,,,,,ミサキホールディングス,0
797,4010403023023,登記記録の閉鎖等,0,2024-08-16,2024-07-25,Ｆｏｏｄ－ｅ株式会社,,株式会社,東京都,港区,赤坂４丁目１番３１号,,13,103,1070052,,,2024-07-25,清算の結了等,,,2020-05-25,1,,,,,フーディー,0
800,4010601056452,登記記録の閉鎖等,0,2024-08-16,2024-08-07,株式会社ネクスト,,株式会社,東京都,江戸川区,平井３丁目２１番４－３０３号,,13,123,1320035,,,2024-08-07,清算の結了等,,,2019-11-25,1,,,,,ネクスト,0
821,4011102026564,登記記録の閉鎖等,0,2024-08-16,2024-08-01,株式会社王冠堂,,株式会社,東京都,新宿区,西新宿６丁目１６番１７号８０１号室,,13,104,1600023,,,2024-08-01,清算の結了等,,,2015-10-05,1,,,,,オウカンドウ,0
845,4013202002866,登記記録の閉鎖等,0,2024-08-16,2024-07-26,有限会社サンシーノ,,有限会社,東京都,目黒区,自由が丘１丁目１９番２４号,,13,110,1520035,,,2024-07-26,清算の結了等,,,2015-10-05,1,,,,,サンシーノ,0
847,4013301026428,登記記録の閉鎖等,0,2024-08-16,2024-08-08,プリムス株式会社,,株式会社,東京都,豊島区,池袋２丁目２３番２３号,,13,116,1710014,,,2024-08-08,清算の結了等,,,2015-10-05,1,,,,,プリムス,0
850,4020001126706,登記記録の閉鎖等,0,2024-08-16,2024-07-25,株式会社代田,,株式会社,神奈川県,川崎市幸区,新川崎６番１－５１６号,,14,132,2120032,,,2024-07-25,清算の結了等,,,2018-06-11,1,,,,,シロタ,0
853,4020001144286,登記記録の閉鎖等,0,2024-08-16,2024-07-26,株式会社ロゼッタビーム,,株式会社,神奈川県,横浜市泉区,和泉町５６２７番地１,,14,116,2450016,,,2024-07-26,清算の結了等,,,2021-12-10,1,,,,,ロゼッタビーム,0
883,4050002020137,登記記録の閉鎖等,0,2024-08-16,2024-08-08,有限会社宝石,,有限会社,茨城県,坂東市,中里１１０９番地,,08,228,3060634,,,2024-08-08,清算の結了等,,,2015-10-05,1,,,,,ホウセキ,0
934,4120003008363,登記記録の閉鎖等,0,2024-08-16,2024-08-13,合同会社Ｌｉｂｒａ,,合同会社,大阪府,大阪市住吉区,清水丘２丁目１９番３号,,27,120,5580033,,,2024-08-13,清算の結了等,,,2015-10-05,1,,,,,リブラ,0
943,4120902015138,登記記録の閉鎖等,0,2024-08-16,2024-08-08,有限会社オオハラ,,有限会社,大阪府,箕面市,如意谷３丁目８番１２－２０３号,,27,220,5620011,,,2024-08-08,清算の結了等,,,2015-10-05,1,,,,,オオハラ,0
956,4130002010237,登記記録の閉鎖等,0,2024-08-16,2024-08-13,有限会社マドンナ,,有限会社,京都府,京都市東山区,祇園町南側５７３－２祇園霊八ＢＬＤ．１Ｆ,00037229,26,105,6050074,,,2024-08-13,清算の結了等,,,2015-10-05,1,,,,,マドンナ,0
963,4160001003602,登記記録の閉鎖等,0,2024-08-16,2024-08-09,株式会社滋賀県ギャランティーサービス,,株式会社,滋賀県,大津市,打出浜２番１号,,25,201,5200806,,,2024-08-09,清算の結了等,,,2015-10-05,1,,,,,シガケンギャランティーサービス,0
965,4180001078832,登記記録の閉鎖等,0,2024-08-16,2024-08-02,笹田耐火工業株式会社,,株式会社,愛知県,瀬戸市,汗干町３０番地,,23,204,4890801,,,2024-08-02,清算の結了等,,,2015-10-05,1,,,,,ササダタイカコウギョウ,0
984,4230001001490,登記記録の閉鎖等,0,2024-08-16,2024-08-14,ダイシ工業株式会社,,株式会社,富山県,富山市,本郷町３４番地の９,,16,201,9398045,,,2024-08-14,清算の結了等,,,2015-10-05,1,,,,,ダイシコウギョウ,0
985,4230001002126,登記記録の閉鎖等,0,2024-08-16,2024-08-08,富山地鉄タクシー株式会社,,株式会社,富山県,富山市,桜町１丁目１番３６号,,16,201,9300003,,,2024-08-08,清算の結了等,,,2015-10-05,1,,,,,トヤマチテツタクシー,0
991,4250002015975,登記記録の閉鎖等,0,2024-08-16,2024-08-09,有限会社森設計工業,,有限会社,山口県,下松市,大字東豊井８９９番地の１３,,35,207,7440002,,,2024-08-09,清算の結了等,,,2015-10-05,1,,,,,モリセッケイコウギョウ,0
992,4250005007029,登記記録の閉鎖等,0,2024-08-16,2024-08-07,上関町土地開発公社,,その他の設立登記法人,山口県,熊毛郡上関町,大字長島４４８番地,,35,341,7421402,,,2024-08-07,清算の結了等,,,2015-10-05,1,,,,,カミノセキチョウ,0
993,4260001032038,登記記録の閉鎖等,0,2024-08-16,2024-07-31,竹日株式会社,,株式会社,岡山県,岡山市南区,郡３６３番地２,,33,104,7028011,,,2024-07-31,清算の結了等,,,2018-05-17,1,,,,,タケヒ,0
994,4260001032789,登記記録の閉鎖等,0,2024-08-16,2024-08-02,株式会社シールド・アール,,株式会社,岡山県,岡山市東区,瀬戸町沖５９番地,,33,103,7090855,,,2024-08-02,清算の結了等,,,2019-01-18,1,,,,,シールドアール,0
996,4270005004767,登記記録の閉鎖等,0,2024-08-16,2024-08-15,ＮＰＯ法人Ｃｌａｍ,,その他の設立登記法人,鳥取県,鳥取市,杉崎６０１番地２グリーンハイツ杉崎１０４号,,31,201,6891101,,,2024-08-15,清算の結了等,,,2015-10-05,1,,,,,,0
1006,4310005004589,登記記録の閉鎖等,0,2024-08-16,2024-08-07,長崎県引越専門協同組合,,その他の設立登記法人,長崎県,諫早市,多良見町中里２１２番地７７,,42,204,8590405,,,2024-08-07,清算の結了等,,,2015-10-05,1,,,,,ナガサキケンヒッコシセンモン,0
1013,4360003007358,登記記録の閉鎖等,0,2024-08-16,2024-08-13,レースウィング合同会社,,合同会社,沖縄県,那覇市,泊２丁目５番地５,,47,201,9000012,,,2024-08-13,清算の結了等,,,2015-11-30,1,,,,,レースウィング,0
1017,4370002007151,登記記録の閉鎖等,0,2024-08-16,2024-08-01,有限会社菊池左官工業,,有限会社,宮城県,仙台市宮城野区,安養寺１丁目６番２号,,04,102,9830832,,,2024-08-01,清算の結了等,,,2015-10-05,1,,,,,キクチサカンコウギョウ,0
1037,4440001002427,登記記録の閉鎖等,0,2024-08-16,2024-08-13,明和工業株式会社,,株式会社,北海道,函館市,亀田中野町２８２番地の２８,,01,202,0410803,,,2024-08-13,清算の結了等,,,2015-10-05,1,,,,,メイワコウギョウ,0
1044,4500001005299,登記記録の閉鎖等,0,2024-08-16,2024-08-08,株式会社アドイッスイ,,株式会社,愛媛県,松山市,宮田町１３９番地６,,38,201,7900066,,,2024-08-08,清算の結了等,,,2015-10-05,1,,,,,アドイッスイ,0
1061,5010102005742,登記記録の閉鎖等,0,2024-08-16,2024-08-13,有限会社光産業緑化,,有限会社,東京都,八王子市,川口町１６７７番地,,13,201,1930801,,,2024-08-13,清算の結了等,,,2015-10-05,1,,,,,ヒカリサンギョウリョッカ,0
1069,5010405017105,登記記録の閉鎖等,0,2024-08-16,2024-07-29,一般社団法人Ａ．Ｐ．５,,その他の設立登記法人,東京都,港区,元赤坂１丁目１番８号赤坂コミュニティビル４階,,13,103,1070051,,,2024-07-29,清算の結了等,,,2018-09-28,1,,,,,エーピーファイブ,0
1078,5010801027748,登記記録の閉鎖等,0,2024-08-16,2024-08-02,株式会社イソベ重量,,株式会社,東京都,大田区,西六郷２丁目４０番７号ハイツ徳司２０３,,13,111,1440056,,,2024-08-02,清算の結了等,,,2017-05-10,1,,,,,イソベジュウリョウ,0
1079,5010803003400,登記記録の閉鎖等,0,2024-08-16,2024-08-09,ナチュラルビューティー合同会社,,合同会社,東京都,豊島区,東池袋１丁目１７番１１号パークハイツ池袋１１０５号,,13,116,1700013,,,2024-08-09,合併による解散等,9010803003339,令和６年８月１日東京都大田区千鳥一丁目２３番１号Ｔ＆Ｆ合同会社（9010803003339）に合併し解散,2020-07-09,1,,,,,ナチュラルビューティー,0
1109,5011605001600,登記記録の閉鎖等,0,2024-08-16,2024-08-06,特定非営利活動法人レインボー国際協会,,その他の設立登記法人,東京都,練馬区,豊玉上２丁目２５番７号ゴールドパレス豊玉２０３,,13,120,1760011,,,2024-08-06,清算の結了等,,,2015-10-05,1,,,,,レインボーコクサイキョウカイ,0
1113,5011801031855,登記記録の閉鎖等,0,2024-08-16,2024-07-31,株式会社アトリエ・ジュエ,,株式会社,千葉県,佐倉市,白銀１丁目５番地１３,,12,212,2850045,,,2024-07-31,清算の結了等,,,2016-05-26,1,,,,,アトリエジュエ,0
1128,5021001024378,登記記録の閉鎖等,0,2024-08-16,2024-08-15,株式会社ハッピーマウンテン,,株式会社,神奈川県,厚木市,妻田西２丁目１０番１８号,,14,212,2430815,,,2024-08-15,清算の結了等,,,2015-10-05,1,,,,,ハッピーマウンテン,0
1155,5070002009061,登記記録の閉鎖等,0,2024-08-16,2024-08-09,王建有限会社,,有限会社,群馬県,高崎市,浜尻町９７９番地の２,,10,202,3700005,,,2024-08-09,清算の結了等,,,2015-10-05,1,,,,,オウケン,0
1158,5080001021215,登記記録の閉鎖等,0,2024-08-16,2024-08-05,株式会社ｓｊ,,株式会社,静岡県,焼津市,大住１０５３番地,,22,212,4250072,,,2024-08-05,清算の結了等,,,2016-10-25,1,,,,,エスジェイ,0
1168,5110005007446,登記記録の閉鎖等,0,2024-08-16,2024-08-05,村上酒販協同組合,,その他の設立登記法人,新潟県,村上市,仲間町字西山５１８番地５３,,15,212,9580823,,,2024-08-05,清算の結了等,,,2015-10-05,1,,,,,ムラカミシュハン,0
1176,5120001133823,登記記録の閉鎖等,0,2024-08-16,2024-08-14,株式会社クロア,,株式会社,大阪府,大阪市中央区,博労町１丁目７番７号,,27,128,5410059,,,2024-08-14,合併による解散等,3120901021906,令和６年８月１日大阪府豊中市新千里北町三丁目５番３号株式会社アイクロス（3120901021906）に合併し解散,2015-10-05,1,,,,,,0
1177,5120001166427,登記記録の閉鎖等,0,2024-08-16,2024-08-14,株式会社プライマル,,株式会社,大阪府,大阪市中央区,博労町１丁目７番７号,,27,128,5410059,,,2024-08-14,合併による解散等,3120901021906,令和６年８月１日大阪府豊中市新千里北町三丁目５番３号株式会社アイクロス（3120901021906）に合併し解散,2015-10-05,1,,,,,プライマル,0
1182,5120001253101,登記記録の閉鎖等,0,2024-08-16,2024-08-13,菩提株式会社,,株式会社,大阪府,大阪市平野区,平野市町１丁目１番９号２０２号室,,27,126,5470042,,,2024-08-13,清算の結了等,,,2023-03-10,1,,,,,ボダイ,0
1191,5120101028907,登記記録の閉鎖等,0,2024-08-16,2024-08-15,株式会社ブラック,,株式会社,大阪府,堺市中区,深井中町１２７５番地１１,,27,142,5998272,,,2024-08-15,清算の結了等,,,2015-10-05,1,,,,,ブラック,0
1198,5120902010947,登記記録の閉鎖等,0,2024-08-16,2024-08-08,有限会社にこにこケア,,有限会社,大阪府,高槻市,芝生町１丁目２４番５号,,27,207,5690823,,,2024-08-08,清算の結了等,,,2015-10-05,1,,,,,ニコニコケア,0
1202,5122001008179,登記記録の閉鎖等,0,2024-08-16,2024-08-14,若江東大阪ファーマシィ薬局株式会社,,株式会社,京都府,八幡市,男山長沢２３番地１０,,26,210,6148367,,,2024-08-14,合併による解散等,8120001165517,令和６年８月１日大阪市淀川区西中島三丁目１８番２１号株式会社あけぼの関西（8120001165517）に合併し解散,2015-10-05,1,,,,,ワカエヒガシオオサカファーマシィヤッキョク,0
1212,5140002062318,登記記録の閉鎖等,0,2024-08-16,2024-08-13,黒田スチール有限会社,,有限会社,兵庫県,加西市,尾崎町４３９番地の１４,,28,220,6752242,,,2024-08-13,清算の結了等,,,2015-10-05,1,,,,,クロダスチール,0
1238,5230001007867,登記記録の閉鎖等,0,2024-08-16,2024-07-29,新川環境整備株式会社,,株式会社,岡山県,倉敷市,福江８２番地１,,33,202,7100145,,,2024-07-29,清算の結了等,,,2015-10-05,1,,,,,ニイカワカンキョウセイビ,0
1261,5310002001745,登記記録の閉鎖等,0,2024-08-16,2024-08-07,有限会社小出ビル,,有限会社,長崎県,長崎市,住吉町７番２号,,42,201,8528154,,,2024-08-07,清算の結了等,,,2015-10-05,1,,,,,コイデビル,0
1264,5330002016205,登記記録の閉鎖等,0,2024-08-16,2024-08-07,有限会社新高,,有限会社,熊本県,菊池郡大津町,大字高尾野８９３番地,,43,403,8691232,,,2024-08-07,清算の結了等,,,2015-10-05,1,,,,,シンコウ,0
1278,5390005007773,登記記録の閉鎖等,0,2024-08-16,2024-08-01,特定非営利活動法人元気ｎｅｔかほく,,その他の設立登記法人,山形県,西村山郡河北町,大字吉田９３５番地の乙２,,06,321,9993502,,,2024-08-01,清算の結了等,,,2015-10-05,1,,,,,ゲンキネットカホク,0
1282,5400603000285,登記記録の閉鎖等,0,2024-08-16,2024-07-31,夢の里工房はらたい合同会社,,合同会社,岩手県,奥州市,江刺田原字稲荷８９番地３,,03,215,0230171,,,2024-07-31,清算の結了等,,,2015-10-05,1,,,,,ユメノサトコウボウハラタイ,0
1283,5410001002354,登記記録の閉鎖等,0,2024-08-16,2024-08-05,株式会社本間乳業,,株式会社,秋田県,秋田市,土崎港中央３丁目１番５６号,,05,201,0110946,,,2024-08-05,清算の結了等,,,2015-10-05,1,,,,,ホンマニュウギョウ,0
1286,5410003003714,登記記録の閉鎖等,0,2024-08-16,2024-08-08,合同会社悠樹,,合同会社,秋田県,大館市,清水１丁目３番３２号,,05,204,0170046,,,2024-08-08,清算の結了等,,,2022-11-07,1,,,,,ユウキ,0
1288,5420003002343,登記記録の閉鎖等,0,2024-08-16,2024-08-07,合同会社スルニーチカ,,合同会社,青森県,青森市,大字三内字丸山２７番地４７,,02,201,0380031,,,2024-08-07,清算の結了等,,,2021-07-02,1,,,,,スルニーチカ,0
1299,5470002007124,登記記録の閉鎖等,0,2024-08-16,2024-08-09,有限会社山崎組,,有限会社,香川県,高松市,東田町１９番地２４,,37,201,7600058,,,2024-08-09,清算の結了等,,,2015-10-05,1,,,,,ヤマサキグミ,0
1309,6010001106723,登記記録の閉鎖等,0,2024-08-16,2024-08-05,リアルトジルチ株式会社,,株式会社,東京都,豊島区,巣鴨３丁目２０番８－１０４号,,13,116,1700002,,,2024-08-05,清算の結了等,,,2015-10-05,1,,,,,リアルトジルチ,0
1332,6010501029580,登記記録の閉鎖等,0,2024-08-16,2024-08-14,株式会社クォーク,,株式会社,東京都,台東区,上野６丁目３番１号,,13,106,1100005,,,2024-08-14,合併による解散等,1010401156257,令和６年８月１日東京都新宿区西新宿六丁目２４番１号西新宿三井ビルディング５階ウォッチニアングループ株式会社（1010401156257）に合併し解散,2015-10-05,1,,,,,クォーク,0
1338,6010602025999,登記記録の閉鎖等,0,2024-08-16,2024-08-13,有限会社グリム,,有限会社,東京都,江東区,亀戸５丁目３４番１６号,,13,108,1360071,,,2024-08-13,清算の結了等,,,2015-10-05,1,,,,,グリム,0
1349,6010902003663,登記記録の閉鎖等,0,2024-08-16,2024-08-08,有限会社オフィス南條,,有限会社,東京都,世田谷区,北烏山３丁目１０番１６号,,13,112,1570061,,,2024-08-08,清算の結了等,,,2015-10-05,1,,,,,,0
1350,6010902019560,登記記録の閉鎖等,0,2024-08-16,2024-08-08,株式会社夢作士,,株式会社,東京都,世田谷区,桜新町２丁目１７番３－８０４号,,13,112,1540015,,,2024-08-08,清算の結了等,,,2015-10-05,1,,,,,ムサシ,0
1377,6011401016611,登記記録の閉鎖等,0,2024-08-16,2024-08-14,株式会社スペース・カッター,,株式会社,東京都,板橋区,板橋３丁目８番５号,,13,119,1730004,,,2024-08-14,清算の結了等,,,2015-10-05,1,,,,,スペースカッター,0
1384,6011602000331,登記記録の閉鎖等,0,2024-08-16,2024-08-06,有限会社アカシ,,有限会社,東京都,練馬区,羽沢１丁目６番１５号,,13,120,1760003,,,2024-08-06,清算の結了等,,,2015-10-05,1,,,,,アカシ,0
1385,6011603002129,登記記録の閉鎖等,0,2024-08-16,2024-08-06,アジア商事法務研究所合同会社,,合同会社,東京都,練馬区,大泉学園町５丁目２番地１８号ディアステージ４０４,,13,120,1780061,,,2024-08-06,清算の結了等,,,2017-07-18,1,,,,,アジアショウジホウムケンキュウジョ,0
1403,6021001044862,登記記録の閉鎖等,0,2024-08-16,2024-08-15,株式会社ジュントチクラ,,株式会社,神奈川県,平塚市,南原１丁目１番１号,,14,203,2540065,,,2024-08-15,清算の結了等,,,2015-10-05,1,,,,,ジュントチクラ,0
1411,6030002026051,登記記録の閉鎖等,0,2024-08-16,2024-08-09,有限会社ダイコウエンジニアリング,,有限会社,埼玉県,蕨市,錦町３丁目５番２４号,,11,223,3350005,,,2024-08-09,清算の結了等,,,2015-10-05,1,,,,,ダイコウエンジニアリング,0
1426,6060001025729,登記記録の閉鎖等,0,2024-08-16,2024-08-02,株式会社未来ちゃんファーム,,株式会社,栃木県,真岡市,八条９５番地,,09,209,3214300,,,2024-08-02,清算の結了等,,,2015-10-05,1,,,,,ミライチャンファーム,0
1428,6060001036222,登記記録の閉鎖等,0,2024-08-16,2024-08-09,ジャパングレープ株式会社,,株式会社,栃木県,宇都宮市,戸祭町２６３８番１２,,09,201,3200053,,,2024-08-09,合併による解散等,3470001018586,令和６年７月３１日香川県三豊市高瀬町比地中１３４８番地１ジャパンフルーツ株式会社（3470001018586）に合併し解散,2023-08-09,1,,,,,ジャパングレープ,0
1434,6080002017368,登記記録の閉鎖等,0,2024-08-16,2024-08-05,有限会社オダキ商會,,有限会社,静岡県,藤枝市,瀬戸新屋２６２番地の２,,22,214,4260075,,,2024-08-05,清算の結了等,,,2015-10-05,1,,,,,オダキショウカイ,0
1438,6080402006978,登記記録の閉鎖等,0,2024-08-16,2024-08-13,有限会社ブテイツクロイ,,有限会社,静岡県,浜松市中央区,鴨江３丁目７５番２５号,,22,138,4328023,,,2024-08-13,清算の結了等,,,2015-10-05,1,,,,,ブテイツクロイ,0
1440,6100001017176,登記記録の閉鎖等,0,2024-08-16,2024-08-01,奥白馬高原開発株式会社,,株式会社,東京都,中央区,日本橋堀留町１丁目８番１２号,,13,102,1030012,,,2024-08-01,清算の結了等,,,2015-10-05,1,,,,,オクハクバコウゲンカイハツ,0
1449,6120001095947,登記記録の閉鎖等,0,2024-08-16,2024-08-13,株式会社エビス建材,,株式会社,大阪府,大阪市港区,磯路３丁目１８番４号,,27,107,5520003,,,2024-08-13,清算の結了等,,,2015-10-05,1,,,,,エビスケンザイ,0
1450,6120001176045,登記記録の閉鎖等,0,2024-08-16,2024-08-13,株式会社大信,,株式会社,大阪府,大阪市淀川区,宮原１丁目１９番２３－３１８号,,27,123,5320003,,,2024-08-13,清算の結了等,,,2015-10-05,1,,,,,ダイシン,0
1460,6120003022908,登記記録の閉鎖等,0,2024-08-16,2024-08-13,合同会社これから,,合同会社,大阪府,大阪市旭区,中宮２丁目３番１７号,,27,117,5350003,,,2024-08-13,清算の結了等,,,2022-11-21,1,,,,,コレカラ,0
1472,6120902014674,登記記録の閉鎖等,0,2024-08-16,2024-08-07,有限会社中久印刷,,有限会社,大阪府,池田市,五月丘３丁目３番１２９－１０２号,,27,204,5630029,,,2024-08-07,清算の結了等,,,2015-10-05,1,,,,,ナカヒサインサツ,0
1475,6130001070338,登記記録の閉鎖等,0,2024-08-16,2024-08-09,株式会社イーストック,,株式会社,京都府,京都市下京区,烏丸通四条下る水銀屋町６２０番地ＣＯＣＯＮ烏丸４階,,26,106,6008411,,,2024-08-09,清算の結了等,,,2021-10-15,1,,,,,イーストック,0
1503,6180002090636,登記記録の閉鎖等,0,2024-08-16,2024-08-09,有限会社サトー化成,,有限会社,愛知県,愛西市,雀ケ森町前並３３番地,,23,232,4960941,,,2024-08-09,合併による解散等,1200001027384,令和６年８月１日岐阜県海津市海津町鹿野１３８０番地１株式会社サトー化成（1200001027384）に合併し解散,2015-10-05,1,,,,,サトーカセイ,0
1510,6180305002239,登記記録の閉鎖等,0,2024-08-16,2024-08-13,豊橋畳協同組合,,その他の設立登記法人,愛知県,豊橋市,西新町５０番地,,23,201,4400811,,,2024-08-13,清算の結了等,,,2015-10-05,1,,,,,トヨハシタタミ,0
1513,6200002012653,登記記録の閉鎖等,0,2024-08-16,2024-08-14,有限会社サンライズ,,有限会社,岐阜県,大垣市,池尻町１３１７番地の１,,21,202,5032204,,,2024-08-14,清算の結了等,,,2015-10-05,1,,,,,サンライズ,0
1519,6240002053586,登記記録の閉鎖等,0,2024-08-16,2024-08-13,有限会社筆影造園,,有限会社,広島県,三原市,西町２丁目１番３２号,,34,204,7230063,,,2024-08-13,清算の結了等,,,2015-10-05,1,,,,,,0
1521,6250001011726,登記記録の閉鎖等,0,2024-08-16,2024-08-09,ヤマト・トーヨー住器株式会社,,株式会社,山口県,岩国市,麻里布町４丁目１６番３号,,35,208,7400018,,,2024-08-09,合併による解散等,8130001029927,令和６年８月１日京都市伏見区竹田西桶ノ井町４０番地株式会社ウインスリー（8130001029927）に合併し解散,2015-10-05,1,,,,,ヤマトトーヨージュウキ,0
1540,6290002046981,登記記録の閉鎖等,0,2024-08-16,2024-07-31,有限会社伊藤勘助商店,,有限会社,福岡県,八女市,本町３００番地,,40,210,8340031,,,2024-07-31,清算の結了等,,,2015-10-05,1,,,,,イトウカンスケショウテン,0
1551,6370001004214,登記記録の閉鎖等,0,2024-08-16,2024-07-31,山田家具工業株式会社,,株式会社,宮城県,岩沼市,押分字南光谷２４番地の１５,,04,211,9892423,,,2024-07-31,清算の結了等,,,2015-10-05,1,,,,,,0
1554,6370202003106,登記記録の閉鎖等,0,2024-08-16,2024-07-30,有限会社中村電気工事店,,有限会社,宮城県,大崎市,鳴子温泉字鷲ノ巣５８番地の４,,04,215,9896811,,,2024-07-30,清算の結了等,,,2015-10-05,1,,,,,ナカムラデンキコウジテン,0
1555,6370601002749,登記記録の閉鎖等,0,2024-08-16,2024-07-31,株式会社アドヴァンス,,株式会社,宮城県,仙台市宮城野区,苦竹３丁目１番６号スタジオ０８０内,,04,102,9830036,,,2024-07-31,清算の結了等,,,2015-10-05,1,,,,,,0
1567,6430001077393,登記記録の閉鎖等,0,2024-08-16,2024-08-08,株式会社ダイチテック,,株式会社,北海道,札幌市東区,北四十八条東１５丁目２番１号,,01,103,0070848,,,2024-08-08,合併による解散等,7140002056607,令和６年８月１日富山市婦中町西本郷４３６番３２株式会社サンズラック（7140002056607）に合併し解散,2018-09-19,1,,,,,ダイチテック,0
1573,6430005001812,登記記録の閉鎖等,0,2024-08-16,2024-08-09,医療法人社団スマイル矯正歯科,,その他の設立登記法人,北海道,札幌市中央区,北四条西３丁目１番６－７交洋駅前ビル９Ｆ,,01,101,0600004,,,2024-08-09,清算の結了等,,,2015-10-05,1,,,,,スマイルキョウセイシカ,0
1574,6460002003734,登記記録の閉鎖等,0,2024-08-16,2024-08-14,有限会社霧のビール園,,有限会社,北海道,釧路市,錦町２丁目４番地釧路フィッシャーマンズワーフ３階,,01,206,0850016,,,2024-08-14,清算の結了等,,,2015-10-05,1,,,,,,0
1575,6460402000109,登記記録の閉鎖等,0,2024-08-16,2024-08-14,有限会社金崎建設,,有限会社,北海道,根室市,光洋町１丁目６番地,,01,223,0870004,,,2024-08-14,清算の結了等,,,2015-10-05,1,,,,,カナサキケンセツ,0
1583,7010001235570,登記記録の閉鎖等,0,2024-08-16,2024-08-01,株式会社ｐｏｌａｒ　Ｋ,,株式会社,東京都,中央区,銀座１丁目２２番１１号銀座大竹ビジデンス２Ｆ,,13,102,1040061,,,2024-08-01,清算の結了等,,,2023-05-25,1,,,,,ポーラーケイ,0
1662,7030002105548,登記記録の閉鎖等,0,2024-08-16,2024-08-08,有限会社中島総合保険,,有限会社,埼玉県,川口市,差間２丁目３６番３号,,11,203,3330816,,,2024-08-08,清算の結了等,,,2015-10-05,1,,,,,,0
1663,7030002118013,登記記録の閉鎖等,0,2024-08-16,2024-08-08,有限会社ナツメタビ,,有限会社,埼玉県,行田市,城西２丁目８番１１号,,11,206,3610057,,,2024-08-08,清算の結了等,,,2015-10-05,1,,,,,ナツメタビ,0
1689,7110005003154,登記記録の閉鎖等,0,2024-08-16,2024-08-06,特定非営利活動法人よつばの森,,その他の設立登記法人,新潟県,新潟市西蒲区,五之上５４８０番地,,15,108,9590508,,,2024-08-06,清算の結了等,,,2015-10-05,1,,,,,ヨツバノモリ,0
1704,7120002039200,登記記録の閉鎖等,0,2024-08-16,2024-08-13,有限会社遊人,,有限会社,大阪府,大阪市城東区,今福西１丁目１５番３０－１４１７号,,27,118,5360004,,,2024-08-13,清算の結了等,,,2015-10-05,1,,,,,ユウジン,0
1707,7120101035959,登記記録の閉鎖等,0,2024-08-16,2024-08-14,株式会社ＫＭテック,,株式会社,大阪府,羽曳野市,恵我之荘６丁目２番１１号,,27,222,5830886,,,2024-08-14,清算の結了等,,,2015-10-05,1,,,,,ケーエムテック,0
1731,7130005015081,登記記録の閉鎖等,0,2024-08-16,2024-08-08,特定非営利活動法人はぐラボ,,その他の設立登記法人,京都府,亀岡市,保津町上大年６７番地２,,26,206,6210005,,,2024-08-08,清算の結了等,,,2017-09-26,1,,,,,ハグラボ,0
1736,7140002055336,登記記録の閉鎖等,0,2024-08-16,2024-08-13,有限会社園田建設,,有限会社,兵庫県,三田市,相生町２７番１１号,,28,219,6691526,,,2024-08-13,清算の結了等,,,2015-10-05,1,,,,,,0
1741,7160001017855,登記記録の閉鎖等,0,2024-08-16,2024-08-13,株式会社近藤新聞舗,,株式会社,滋賀県,彦根市,高宮町２８４５番地,,25,202,5220201,,,2024-08-13,清算の結了等,,,2015-10-05,1,,,,,コンドウシンブンポ,0
1754,7180002033486,登記記録の閉鎖等,0,2024-08-16,2024-07-24,有限会社オフィスノダ,,有限会社,愛知県,犬山市,大字橋爪字五反田３５番地,,23,215,4840076,,,2024-07-24,清算の結了等,,,2015-10-05,1,,,,,オフィスノダ,0
1757,7180002062213,登記記録の閉鎖等,0,2024-08-16,2024-08-02,有限会社ケイ・シイ・サービス,,有限会社,愛知県,日進市,三本木町下川田７５４番地の１,,23,230,4700101,,,2024-08-02,清算の結了等,,,2015-10-05,1,,,,,ケイシイサービス,0
1760,7180305009068,登記記録の閉鎖等,0,2024-08-16,2024-08-06,一般社団法人足助まちマネジメント,,その他の設立登記法人,愛知県,豊田市,足助町天王６番地６,,23,211,4442424,,,2024-08-06,清算の結了等,,,2020-05-28,1,,,,,アスケマチマネジメント,0
1769,7240001012955,登記記録の閉鎖等,0,2024-08-16,2024-08-13,株式会社エス・ケイハウジング,,株式会社,広島県,広島市佐伯区,五月が丘５丁目１１番３５号,,34,108,7315101,,,2024-08-13,清算の結了等,,,2015-10-05,1,,,,,エスケイハウジング,0
1772,7250002009710,登記記録の閉鎖等,0,2024-08-16,2024-08-08,有限会社創遊,,有限会社,山口県,下関市,秋根新町２番５号,,35,201,7510874,,,2024-08-08,清算の結了等,,,2015-10-05,1,,,,,ソウユウ,0
1774,7260002017464,登記記録の閉鎖等,0,2024-08-16,2024-08-01,有限会社かめや商店,,有限会社,岡山県,倉敷市,吉岡３８４番地２,,33,202,7100842,,,2024-08-01,清算の結了等,,,2015-10-05,1,,,,,カメヤショウテン,0
1803,7390001015654,登記記録の閉鎖等,0,2024-08-16,2024-08-05,株式会社ＫＹシステム,,株式会社,山形県,山形市,南館１丁目８番１７号,,06,201,9902461,,,2024-08-05,合併による解散等,4012401031263,令和６年８月１日東京都稲城市東長沼２４１６番地プラウドシティ南山１３０５株式会社ＫＹＳｏｌｕｔｉｏｎ（4012401031263）に合併し解散,2019-04-02,1,,,,,ケーワイシステム,0
1818,8010001140043,登記記録の閉鎖等,0,2024-08-16,2024-08-01,プライムマリッジ株式会社,,株式会社,東京都,中央区,銀座６丁目４番１号東海堂銀座ビル４Ｆ,,13,102,1040061,,,2024-08-01,清算の結了等,,,2015-10-05,1,,,,,プライムマリッジ,0
1822,8010001182333,登記記録の閉鎖等,0,2024-08-16,2024-08-01,株式会社メドランス,,株式会社,東京都,千代田区,平河町１丁目３番地２平河町リリエンハイム２０２号,,13,101,1020093,,,2024-08-01,清算の結了等,,,2017-03-24,1,,,,,メドランス,0
1832,8010003024161,登記記録の閉鎖等,0,2024-08-16,2024-08-09,合同会社光ハウジング,,合同会社,東京都,中央区,銀座１丁目２７番８号セントラルビル７０３,,13,102,1040061,,,2024-08-09,合併による解散等,8040003007444,令和６年８月６日千葉県船橋市山手一丁目１番３－８３８号オフィス翼合同会社（8040003007444）に合併し解散,2016-09-27,1,,,,,,0
1841,8010401142135,登記記録の閉鎖等,0,2024-08-16,2024-07-19,株式会社くふうジオデータ,,株式会社,東京都,港区,三田１丁目４番２８号,,13,103,1080073,,,2024-07-19,合併による解散等,1011001111726,令和６年７月１日東京都港区三田一丁目４番２８号株式会社ロコガイド（1011001111726）に合併し解散,2018-11-16,1,,,,,クフウジオデータ,0
1844,8010403029751,登記記録の閉鎖等,0,2024-08-16,2024-08-09,ＫＩＩ合同会社,,合同会社,東京都,港区,三田１丁目４番２８号,,13,103,1080073,,,2024-08-09,清算の結了等,,,2023-03-16,1,,,,,ケイアイアイ,0
1850,8010603006393,登記記録の閉鎖等,0,2024-08-16,2024-08-09,合同会社エムワイティー,,合同会社,東京都,江東区,新砂３丁目４番４３－４４１号,,13,108,1360075,,,2024-08-09,清算の結了等,,,2016-08-15,1,,,,,エムワイティー,0
1882,8011601022291,登記記録の閉鎖等,0,2024-08-16,2024-08-07,株式会社エフケー,,株式会社,東京都,練馬区,三原台１丁目１５番１２号,,13,120,1770031,,,2024-08-07,清算の結了等,,,2017-12-27,1,,,,,エフケー,0
1883,8011601026607,登記記録の閉鎖等,0,2024-08-16,2024-08-06,株式会社総合建設,,株式会社,東京都,練馬区,豊玉北１丁目６番２－３０１号,,13,120,1760012,,,2024-08-06,清算の結了等,,,2023-02-24,1,,,,,ソウゴウケンセツ,0
1889,8012801017817,登記記録の閉鎖等,0,2024-08-16,2024-08-01,株式会社ゼロ１００,,株式会社,東京都,中央区,八重洲１丁目５番１５号,,13,102,1030028,,,2024-08-01,合併による解散等,9012702000623,令和６年８月１日東京都中央区八重洲一丁目５番１５号株式会社杏朋（9012702000623）に合併し解散,2017-02-23,1,,,,,ゼロヒャク,0
1896,8020002070503,登記記録の閉鎖等,0,2024-08-16,2024-07-26,タオ・リサーチ有限会社,,有限会社,神奈川県,横浜市栄区,元大橋１丁目２４番２１号,,14,115,2470011,,,2024-07-26,清算の結了等,,,2015-10-05,1,,,,,タオリサーチ,0
1899,8021001050727,登記記録の閉鎖等,0,2024-08-16,2024-08-15,株式会社カーズ神奈川,,株式会社,神奈川県,伊勢原市,高森３丁目１番７７号,,14,214,2591114,,,2024-08-15,清算の結了等,,,2015-10-05,1,,,,,カーズカナガワ,0
1901,8021001065808,登記記録の閉鎖等,0,2024-08-16,2024-07-26,ぱん工房ふくふく株式会社,,株式会社,東京都,港区,港南２丁目１８番１号,,13,103,1080075,,,2024-07-26,合併による解散等,3020001006834,令和６年７月１日東京都港区港南二丁目１８番１号株式会社丸十ベーカリーシャルン（3020001006834）に合併し解散,2018-10-10,1,,,,,パンコウボウフクフク,0
1911,8030001135413,登記記録の閉鎖等,0,2024-08-16,2024-08-05,株式会社ｓｅｂＤＥＳＩＧＮ,,株式会社,埼玉県,さいたま市浦和区,高砂１丁目２番１号エイペックスタワー浦和１１０,,11,107,3300063,,,2024-08-05,清算の結了等,,,2020-03-10,1,,,,,セブデザイン,0
1942,8070001019570,登記記録の閉鎖等,0,2024-08-16,2024-08-09,株式会社昭和設計,,株式会社,群馬県,太田市,新田花香塚町２１８番地の１,,10,205,3700345,,,2024-08-09,清算の結了等,,,2015-10-05,1,,,,,ショウワセッケイ,0
1945,8080001007509,登記記録の閉鎖等,0,2024-08-16,2024-08-07,株式会社アイ・エー・ティー,,株式会社,静岡県,静岡市清水区,松原町４番１３号,,22,103,4240825,,,2024-08-07,清算の結了等,,,2015-10-05,1,,,,,アイエーティー,0
1954,8110005007518,登記記録の閉鎖等,0,2024-08-16,2024-08-05,村上税務署管内小売酒販組合,,その他の設立登記法人,新潟県,村上市,仲間町字西山５１８番地５３,,15,212,9580823,,,2024-08-05,清算の結了等,,,2015-10-05,1,,,,,ムラカミゼイムショカンナイコウリ,0
1973,8120101028350,登記記録の閉鎖等,0,2024-08-16,2024-08-08,株式会社フジ商設備サービス,,株式会社,大阪府,堺市北区,百舌鳥陵南町３丁２０９－７,,27,146,5918034,,,2024-08-08,清算の結了等,,,2015-10-05,1,,,,,フジショウセツビサービス,0
1987,8120903003872,登記記録の閉鎖等,0,2024-08-16,2024-08-08,ｂｕｕｒ合同会社,,合同会社,大阪府,高槻市,野田３丁目２５番２２号,,27,207,5690013,,,2024-08-08,清算の結了等,,,2021-10-15,1,,,,,ブール,0
2004,8130005014124,登記記録の閉鎖等,0,2024-08-16,2024-08-13,特定非営利活動法人ピースマスクプロジェクト,,その他の設立登記法人,京都府,京都市左京区,岡崎南御所町１番地,,26,103,6068334,,,2024-08-13,清算の結了等,,,2015-10-05,1,,,,,ピースマスクプロジェクト,0
2007,8140001076241,登記記録の閉鎖等,0,2024-08-16,2024-08-13,株式会社三枝製作所,,株式会社,兵庫県,加西市,北条町古坂１４５７番地,,28,220,6752303,,,2024-08-13,清算の結了等,,,2015-10-05,1,,,,,サエグサセイサクショ,0
2033,8220001017889,登記記録の閉鎖等,0,2024-08-16,2024-08-05,株式会社カナマル,,株式会社,石川県,かほく市,松浜ホ６９番地１２,,17,209,9291172,,,2024-08-05,清算の結了等,,,2015-10-05,1,,,,,,0
2034,8220002002519,登記記録の閉鎖等,0,2024-08-16,2024-08-05,有限会社光南,,有限会社,石川県,金沢市,兼六元町７番４３号,,17,201,9200931,,,2024-08-05,清算の結了等,,,2015-10-05,1,,,,,コウナン,0
2035,8230002010925,登記記録の閉鎖等,0,2024-08-16,2024-08-13,有限会社共栄機械,,有限会社,富山県,射水市,青井谷１０９４番地,,16,211,9390321,,,2024-08-13,清算の結了等,,,2015-10-05,1,,,,,キョウエイキカイ,0
2059,8370002007602,登記記録の閉鎖等,0,2024-08-16,2024-07-29,有限会社サンライト,,有限会社,宮城県,仙台市宮城野区,岡田字前田６１番地,,04,102,9830003,,,2024-07-29,清算の結了等,,,2015-10-05,1,,,,,サンライト,0
2065,8390001001447,登記記録の閉鎖等,0,2024-08-16,2024-08-01,長沼電気工事株式会社,,株式会社,山形県,山形市,青田南６番２６号,,06,201,9902324,,,2024-08-01,清算の結了等,,,2015-10-05,1,,,,,ナガヌマデンキコウジ,0
2071,8430002006671,登記記録の閉鎖等,0,2024-08-16,2024-08-09,有限会社クリーンデンタルラボ,,有限会社,北海道,札幌市東区,北三十条東１３丁目１番６号,,01,103,0650030,,,2024-08-09,清算の結了等,,,2015-10-05,1,,,,,クリーンデンタルラボ,0
2079,8480002008770,登記記録の閉鎖等,0,2024-08-16,2024-08-15,有限会社ウィングス,,有限会社,徳島県,徳島市,新町橋１丁目２２番地１新町チェーンビル２Ｆ,,36,201,7700904,,,2024-08-15,清算の結了等,,,2015-10-05,1,,,,,ウィングス,0
2093,9010005032401,登記記録の閉鎖等,0,2024-08-16,2024-08-02,ＯＫ大宮開発一般社団法人,,その他の設立登記法人,東京都,千代田区,丸の内３丁目１番１号東京共同会計事務所内,,13,101,1000005,,,2024-08-02,清算の結了等,,,2020-10-12,1,,,,,オーケーオオミヤカイハツ,0
2101,9010403025460,登記記録の閉鎖等,0,2024-08-16,2024-07-29,合同会社ＨｉＪｏＪｏ　Ｆｕｎｄ１６,,合同会社,東京都,港区,西新橋１丁目７番２号,,13,103,1050003,,,2024-07-29,清算の結了等,,,2021-06-07,1,,,,,ヒジョージョーファンドジュウロク,0
2118,9010801016813,登記記録の閉鎖等,0,2024-08-16,2024-08-15,株式会社エフ・ケー・ティーライン,,株式会社,神奈川県,大和市,上草柳１９６番地８,,14,213,2420029,,,2024-08-15,清算の結了等,,,2015-10-05,1,,,,,,0
2122,9011001141294,登記記録の閉鎖等,0,2024-08-16,2024-08-13,アンフィニッシュド株式会社,,株式会社,兵庫県,神戸市中央区,中町通３丁目１－１６サンビル５０２,,28,110,6500027,,,2024-08-13,清算の結了等,,,2021-06-22,1,,,,,アンフィニッシュド,0
2130,9011005005264,登記記録の閉鎖等,0,2024-08-16,2024-07-25,一般社団法人日本口腔育成学会,,その他の設立登記法人,東京都,港区,赤坂５丁目３番１号赤坂Ｂｉｚタワー７階,,13,103,1070052,,,2024-07-25,清算の結了等,,,2015-10-05,1,,,,,ニホンコウクウイクセイガッカイ,0
2162,9020001143201,登記記録の閉鎖等,0,2024-08-16,2024-07-09,テクノジャパン株式会社,,株式会社,神奈川県,川崎市多摩区,菅馬場１丁目２５番２７号,,14,135,2140004,,,2024-07-09,清算の結了等,,,2021-10-06,1,,,,,テクノジャパン,0
2167,9020005014241,登記記録の閉鎖等,0,2024-08-16,2024-07-25,一般社団法人Ｊａｐａｎ　Ａｓｓｏｃｉａｔｉｏｎ　ｏｆ　Ｃｈａｌｌｅｎｇｅ　Ｅｎｊｏｙｍｅｎｔ,,その他の設立登記法人,神奈川県,横浜市中区,万代町２丁目３番地１セルアージュ横濱関内エリーゼ７０４号室,,14,104,2310031,,,2024-07-25,清算の結了等,,,2019-07-23,1,,,,,ジャパンアソシエイションオブチャレンジエンジョイメント,0
2168,9021001029209,登記記録の閉鎖等,0,2024-08-16,2024-08-15,株式会社シーエスエス,,株式会社,神奈川県,座間市,相武台１丁目３５番７号第２６菊地ビル４０２,,14,216,2520011,,,2024-08-15,清算の結了等,,,2015-10-05,1,,,,,シーエスエス,0
2173,9030001001102,登記記録の閉鎖等,0,2024-08-16,2024-08-08,エンドレス工業株式会社,,株式会社,埼玉県,さいたま市桜区,栄和３丁目２５番３２号,,11,106,3380823,,,2024-08-08,清算の結了等,,,2015-10-05,1,,,,,エンドレスコウギョウ,0
2213,9100001034029,登記記録の閉鎖等,0,2024-08-16,2024-08-09,株式会社マイムス,,株式会社,長野県,諏訪市,小和田南２２番６号,,20,206,3920023,,,2024-08-09,清算の結了等,,,2021-03-09,1,,,,,マイムス,0
2233,9120005008472,登記記録の閉鎖等,0,2024-08-16,2024-08-16,特定非営利活動法人日本福祉文化研究センター,,その他の設立登記法人,大阪府,大阪市都島区,友渕町１丁目３番３６－４０１号,,27,102,5340016,,,2024-08-16,清算の結了等,,,2015-10-05,1,,,,,ニホンフクシブンカケンキュウセンター,0
2235,9120103000661,登記記録の閉鎖等,0,2024-08-16,2024-08-08,合資会社エムイーアイシステム,,合資会社,大阪府,堺市堺区,田出井町１－２－４２０４,,27,141,5900014,,,2024-08-08,清算の結了等,,,2015-10-05,1,,,,,エムイーアイシステム,0
2253,9180001124887,登記記録の閉鎖等,0,2024-08-16,2024-08-02,株式会社エイドコーポレーション,,株式会社,愛知県,名古屋市中区,栄４丁目１６番８号,,23,106,4600008,,,2024-08-02,清算の結了等,,,2016-09-23,1,,,,,エイドコーポレーション,0
2272,9210001003030,登記記録の閉鎖等,0,2024-08-16,2024-08-09,福井石材株式会社,,株式会社,福井県,吉田郡永平寺町,野中第１４号２１番地１,,18,322,9101324,,,2024-08-09,清算の結了等,,,2015-10-05,1,,,,,フクイセキザイ,0
2279,9250002010435,登記記録の閉鎖等,0,2024-08-16,2024-08-08,有限会社パオ企画,,有限会社,山口県,下関市,秋根新町２番５号,,35,201,7510874,,,2024-08-08,清算の結了等,,,2015-10-05,1,,,,,パオキカク,0
2280,9260002007975,登記記録の閉鎖等,0,2024-08-16,2024-08-01,林エンジニアリング有限会社,,有限会社,岡山県,岡山市北区,東古松２丁目１０番２２－２０８号,,33,101,7000921,,,2024-08-01,清算の結了等,,,2015-10-05,1,,,,,ハヤシエンジニアリング,0
2302,9350001012216,登記記録の閉鎖等,0,2024-08-16,2024-07-09,株式会社ＲＨ,,株式会社,福岡県,筑紫野市,二日市中央２丁目８番５号,,40,217,8180072,,,2024-07-09,清算の結了等,,,2015-10-05,1,,,,,アールエイチ,0
2303,9350001017132,登記記録の閉鎖等,0,2024-08-16,2024-08-01,大洋不動産株式会社,,株式会社,宮崎県,小林市,細野３９１番地１,,45,205,8860004,,,2024-08-01,合併による解散等,4350001000927,令和６年８月１日宮崎市広島二丁目１０番１６号大洋地所株式会社（4350001000927）に合併し解散,2021-06-16,1,,,,,タイヨウフドウサン,0
2313,9370005001015,登記記録の閉鎖等,0,2024-08-16,2024-07-31,東北ロックセキュリティ協同組合,,その他の設立登記法人,宮城県,仙台市青葉区,宮町１丁目１番７６号,,04,101,9800004,,,2024-07-31,清算の結了等,,,2015-10-05,1,,,,,,0
2315,9390001010158,登記記録の閉鎖等,0,2024-08-16,2024-08-02,山形食品販売株式会社,,株式会社,山形県,米沢市,松が岬３丁目５番３０号,,06,202,9920053,,,2024-08-02,清算の結了等,,,2015-10-05,1,,,,,ヤマガタショクヒンハンバイ,0
2317,9400001013860,登記記録の閉鎖等,0,2024-08-16,2024-08-02,株式会社北上プレス技研,,株式会社,岩手県,北上市,相去町山田２番地１６,,03,206,0240051,,,2024-08-02,清算の結了等,,,2017-09-22,1,,,,,,0
2322,9410001011509,登記記録の閉鎖等,0,2024-08-16,2024-08-08,株式会社アキタ・アグリ・サービス,,株式会社,秋田県,北秋田市,羽根山字上ノ山２番地８,,05,213,0184281,,,2024-08-08,清算の結了等,,,2017-04-14,1,,,,,アキタアグリサービス,0
2324,9420002006069,登記記録の閉鎖等,0,2024-08-16,2024-08-07,有限会社赤間工業,,有限会社,青森県,八戸市,石堂１丁目１６番１８号,,02,203,0391165,,,2024-08-07,清算の結了等,,,2015-10-05,1,,,,,アカマコウギョウ,0
2339,9470002014637,登記記録の閉鎖等,0,2024-08-16,2024-08-09,有限会社アチーブ建設興業,,有限会社,香川県,坂出市,府中町５４３５番地２,,37,203,7620024,,,2024-08-09,清算の結了等,,,2015-10-05,1,,,,,アチーブケンセツコウギョウ,0
2340,9470002015668,登記記録の閉鎖等,0,2024-08-16,2024-08-06,有限会社カヤノ商事,,有限会社,香川県,坂出市,元町４丁目４番１６号,,37,203,7620045,,,2024-08-06,清算の結了等,,,2015-10-05,1,,,,,カヤノショウジ,0
2344,9500002004650,登記記録の閉鎖等,0,2024-08-16,2024-08-09,有限会社桃源,,有限会社,愛媛県,松山市,南江戸１丁目１０番４１号,,38,201,7900062,,,2024-08-09,清算の結了等,,,2015-10-05,1,,,,,トウゲン,0
2346,9500005000671,登記記録の閉鎖等,0,2024-08-16,2024-08-09,医療法人ごとう小児科,,その他の設立登記法人,愛媛県,松山市,大手町２丁目７番地１１,,38,201,7900067,,,2024-08-09,清算の結了等,,,2015-10-05,1,,,,,ゴトウショウニカ,0
