sequenceNumber,corporateNumber,process,correct,updateDate,changeDate,name,nameImageId,kind,prefectureName,cityName,streetNumber,addressImageId,prefectureCode,cityCode,postCode,addressOutside,addressOutsideImageId,closeDate,closeCause,successorCorporateNumber,changeCause,assignmentDate,latest,enName,enPrefectureName,enCityName,enAddressOutside,furigana,hihyoji
4,1010001146220,登記記録の閉鎖等,0,2024-10-16,2024-10-01,ハイテクシステム株式会社,,株式会社,東京都,中央区,日本橋本町４丁目８番１４号東京建物第３室町ビル,,13,102,1030023,,,2024-10-01,合併による解散等,2010001095739,令和６年１０月１日東京都中央区日本橋本町四丁目８番１４号株式会社マーブル（2010001095739）に合併し解散,2015-10-05,1,,,,,ハイテクシステム,0
22,1010401127968,登記記録の閉鎖等,0,2024-10-16,2024-10-01,Ｖｉｒｔｕｓｔｒｅａｍ　Ｃｌｏｕｄ　Ｓｅｒｖｉｃｅｓ　Ｊａｐａｎ株式会社,,株式会社,東京都,千代田区,大手町１丁目２番１号ＯｔｅｍａｃｈｉＯｎｅタワー,,13,101,1000004,,,2024-10-01,清算の結了等,,,2016-11-04,1,,,,,ヴァーチュストリームクラウドサービスジャパン,0
25,1010401183193,登記記録の閉鎖等,0,2024-10-16,2024-09-05,株式会社三国志,,株式会社,東京都,港区,浜松町２丁目２番１４号,,13,103,1050013,,,2024-09-05,清算の結了等,,,2024-06-18,1,,,,,,0
28,1010402003607,登記記録の閉鎖等,0,2024-10-16,2024-09-19,有限会社亀喜,,有限会社,東京都,港区,芝５丁目２６番３号,,13,103,1080014,,,2024-09-19,清算の結了等,,,2015-10-05,1,,,,,カメキ,0
30,1010402012384,登記記録の閉鎖等,0,2024-10-16,2024-09-24,有限会社三木紙工,,有限会社,東京都,港区,三田５丁目１４番９号,,13,103,1080073,,,2024-09-24,清算の結了等,,,2015-10-05,1,,,,,ミキシコウ,0
40,1010701026498,登記記録の閉鎖等,0,2024-10-16,2024-09-24,日栄アドバンス株式会社,,株式会社,東京都,目黒区,上目黒１丁目６番７号,,13,110,1530051,,,2024-09-24,清算の結了等,,,2015-10-05,1,,,,,ニチエイアドバンス,0
54,1011101010976,登記記録の閉鎖等,0,2024-10-16,2024-10-03,株式会社誠和,,株式会社,東京都,新宿区,下落合１丁目１番１号,,13,104,1610033,,,2024-10-03,清算の結了等,,,2015-10-05,1,,,,,セイワ,0
59,1011101084764,登記記録の閉鎖等,0,2024-10-16,2024-10-03,株式会社Ｕ－Ｇａｔｅ,,株式会社,東京都,新宿区,高田馬場４丁目４０番１１号ユニゾ高田馬場看山ビル１０Ｆ,,13,104,1690075,,,2024-10-03,清算の結了等,,,2018-07-11,1,,,,,ユーゲート,0
63,1011103008886,登記記録の閉鎖等,0,2024-10-16,2024-07-05,仲本システム開発合同会社,,合同会社,大阪府,大阪市中央区,南船場４丁目１０番５号南船場ＳＯＨＯビル７０２,,27,128,5420081,,,2024-07-05,清算の結了等,,,2019-06-20,1,,,,,ナカモトシステムカイハツ,0
66,1011203002995,登記記録の閉鎖等,0,2024-10-16,2024-10-11,合同会社ｒｏｏｔ,,合同会社,東京都,中野区,弥生町２丁目１５番１６号,,13,114,1640013,,,2024-10-11,清算の結了等,,,2019-04-09,1,,,,,ルート,0
84,1011802011496,登記記録の閉鎖等,0,2024-10-16,2024-10-10,有限会社鴨下石油,,有限会社,東京都,足立区,梅島２丁目３８番１３号,,13,121,1210816,,,2024-10-10,清算の結了等,,,2015-10-05,1,,,,,カモシタセキユ,0
100,1013202002638,登記記録の閉鎖等,0,2024-10-16,2024-09-20,有限会社小林スプリング製作所,,有限会社,東京都,目黒区,目黒本町５丁目２７番１５号,,13,110,1520002,,,2024-09-20,清算の結了等,,,2015-10-05,1,,,,,コバヤシスプリングセイサクショ,0
102,1013301002885,登記記録の閉鎖等,0,2024-10-16,2024-08-26,株式会社グランドール,,株式会社,東京都,豊島区,西池袋２丁目６番１８号,,13,116,1710021,,,2024-08-26,清算の結了等,,,2015-10-05,1,,,,,グランドール,0
103,1013301021225,登記記録の閉鎖等,0,2024-10-16,2024-10-01,インターネットウェア株式会社,,株式会社,東京都,中央区,日本橋本町４丁目８番１４号,,13,102,1030023,,,2024-10-01,合併による解散等,2010001095739,令和６年１０月１日東京都中央区日本橋本町四丁目８番１４号株式会社マーブル（2010001095739）に合併し解散,2015-10-05,1,,,,,インターネットウェア,0
106,1020001035653,登記記録の閉鎖等,0,2024-10-16,2024-10-01,株式会社コーエー,,株式会社,神奈川県,横浜市西区,久保町３番２１号,,14,103,2200061,,,2024-10-01,清算の結了等,,,2015-10-05,1,,,,,コーエー,0
109,1020001057020,登記記録の閉鎖等,0,2024-10-16,2024-10-01,株式会社スリーハンズ,,株式会社,神奈川県,横浜市鶴見区,鶴見中央４丁目３２番１号,,14,101,2300051,,,2024-10-01,合併による解散等,3020001018061,令和６年１０月１日横浜市鶴見区鶴見中央四丁目３２番１号株式会社辻総合クリエート（3020001018061）に合併し解散,2015-10-05,1,,,,,スリーハンズ,0
122,1021001002214,登記記録の閉鎖等,0,2024-10-16,2024-10-15,株式会社村上,,株式会社,神奈川県,藤沢市,長後７８９番地,,14,205,2520801,,,2024-10-15,清算の結了等,,,2015-10-05,1,,,,,,0
123,1021001004565,登記記録の閉鎖等,0,2024-10-16,2024-10-11,株式会社ユイ・エンタープライズ,,株式会社,神奈川県,藤沢市,藤沢１０９番５号,,14,205,2510052,,,2024-10-11,清算の結了等,,,2015-10-05,1,,,,,ユイエンタープライズ,0
150,1050003003795,登記記録の閉鎖等,0,2024-10-16,2024-10-02,合同会社シルムマネジメント,,合同会社,茨城県,神栖市,深芝南３丁目２４番地９－２０５,,08,232,3140142,,,2024-10-02,合併による解散等,4050003003371,令和６年１０月１日茨城県神栖市深芝南三丁目２４番地９－２０５合同会社シルムズ（4050003003371）に合併し解散,2017-06-20,1,,,,,,0
154,1060002006740,登記記録の閉鎖等,0,2024-10-16,2024-10-07,有限会社栃木ミルクサービス,,有限会社,栃木県,宇都宮市,平出町３５７２番地７,,09,201,3210901,,,2024-10-07,清算の結了等,,,2015-10-05,1,,,,,トチギミルクサービス,0
165,1100001009624,登記記録の閉鎖等,0,2024-10-16,2024-10-02,株式会社エポックナガノ,,株式会社,長野県,上田市,神畑乙１１９番地３,,20,203,3861108,,,2024-10-02,清算の結了等,,,2015-10-05,1,,,,,エポックナガノ,0
168,1120001077099,登記記録の閉鎖等,0,2024-10-16,2024-10-10,株式会社ガレアンク,,株式会社,大阪府,大阪市中央区,東心斎橋１丁目１７番１８号,,27,128,5420083,,,2024-10-10,清算の結了等,,,2015-10-05,1,,,,,ガレアンク,0
169,1120001155409,登記記録の閉鎖等,0,2024-10-16,2024-10-10,株式会社大倉製作所,,株式会社,大阪府,守口市,梶町２丁目３０番２号,,27,209,5700015,,,2024-10-10,清算の結了等,,,2015-10-05,1,,,,,オオクラセイサクジョ,0
185,1140001080737,登記記録の閉鎖等,0,2024-10-16,2024-10-09,株式会社三浦理化,,株式会社,兵庫県,芦屋市,大東町１８番６－１１１９号,,28,206,6590023,,,2024-10-09,清算の結了等,,,2015-10-05,1,,,,,ミウラリカ,0
206,1150002008083,登記記録の閉鎖等,0,2024-10-16,2024-10-07,有限会社ピーアイエス,,有限会社,大阪府,大阪市大正区,泉尾３丁目１７番１０号,,27,108,5510031,,,2024-10-07,清算の結了等,,,2015-10-05,1,,,,,ピーアイエス,0
210,1180001073051,登記記録の閉鎖等,0,2024-10-16,2024-10-03,株式会社フロメディ,,株式会社,愛知県,名古屋市西区,城西３丁目１９番１号,,23,104,4510031,,,2024-10-03,清算の結了等,,,2015-10-05,1,,,,,フロメディ,0
216,1180001161707,登記記録の閉鎖等,0,2024-10-16,2024-09-11,丸宗株式会社,,株式会社,愛知県,名古屋市千種区,都通り三丁目５９番地の３,,23,101,4640000,,,2024-09-11,清算の結了等,,,2024-05-31,1,,,,,マルソウ,0
226,1180003021165,登記記録の閉鎖等,0,2024-10-16,2024-09-30,明宝パートナーズ合同会社,,合同会社,愛知県,名古屋市名東区,貴船３丁目２１１番地の３,,23,115,4650058,,,2024-09-30,清算の結了等,,,2020-05-12,1,,,,,メイホウパートナーズ,0
228,1180005014349,登記記録の閉鎖等,0,2024-10-16,2024-10-08,一般社団法人日本・多国間臨床試験機構,,その他の設立登記法人,愛知県,名古屋市中区,丸の内２丁目１４番１０号,,23,106,4600002,,,2024-10-08,清算の結了等,,,2015-10-05,1,,,,,ニホンタコクカンリンショウシケンキコウ,0
239,1220003002912,登記記録の閉鎖等,0,2024-10-16,2024-10-07,ＴＭＩ合同会社,,合同会社,石川県,金沢市,南新保町ロ１３１リバティパレス２０３,,17,201,9200064,,,2024-10-07,清算の結了等,,,2020-10-21,1,,,,,,0
243,1240001038915,登記記録の閉鎖等,0,2024-10-16,2024-10-07,株式会社新幸ソーイング,,株式会社,広島県,尾道市,瀬戸田町宮原１６０９番地,,34,205,7222402,,,2024-10-07,清算の結了等,,,2015-10-05,1,,,,,シンコウソーイング,0
257,1290001077272,登記記録の閉鎖等,0,2024-10-16,2024-10-01,株式会社スリーエスガーデン,,株式会社,福岡県,福岡市南区,若久４丁目４番２号,,40,134,8150042,,,2024-10-01,合併による解散等,8290001097396,令和６年１０月１日福岡市早良区原五丁目１０番４号株式会社Ｃ＆Ｇ’ｓ　Ａｔｅｌｉｅｒ（8290001097396）に合併し解散,2017-04-06,1,,,,,スリーエスガーデン,0
258,1290001090390,登記記録の閉鎖等,0,2024-10-16,2024-09-03,株式会社エーアールファーマ,,株式会社,福岡県,太宰府市,石坂１丁目１７番２６号,,40,221,8180118,,,2024-09-03,合併による解散等,2290001032004,令和６年９月１日福岡市博多区東光二丁目４－８株式会社シンクロファーマネット１４（2290001032004）に合併し解散,2020-10-06,1,,,,,エーアールファーマ,0
261,1290002017277,登記記録の閉鎖等,0,2024-10-16,2024-09-05,有限会社福信建材,,有限会社,福岡県,福岡市博多区,博多駅前３丁目７番３号,,40,132,8120011,,,2024-09-05,清算の結了等,,,2015-10-05,1,,,,,フクシンケンザイ,0
275,1310005000211,登記記録の閉鎖等,0,2024-10-16,2024-10-04,長崎舶機メンテナンス協同組合,,その他の設立登記法人,長崎県,長崎市,小江町２７３４番地８５,,42,201,8511133,,,2024-10-04,清算の結了等,,,2015-10-05,1,,,,,ナガサキハッキメンテナンス,0
282,1350002011678,登記記録の閉鎖等,0,2024-10-16,2024-10-08,有限会社旭交通,,有限会社,宮崎県,延岡市,川原崎町３９６番地４,,45,203,8820033,,,2024-10-08,清算の結了等,,,2015-10-05,1,,,,,アサヒコウツウ,0
336,2010002008773,登記記録の閉鎖等,0,2024-10-16,2024-10-01,有限会社川島商店,,有限会社,東京都,千代田区,神田多町２丁目３番地６,,13,101,1010046,,,2024-10-01,清算の結了等,,,2015-10-05,1,,,,,カワシマショウテン,0
337,2010002032204,登記記録の閉鎖等,0,2024-10-16,2024-10-01,有限会社アクエア,,有限会社,東京都,中央区,日本橋蛎殼町一丁目３９番５号,,13,102,1030000,,,2024-10-01,清算の結了等,,,2015-10-05,1,,,,,アクエア,0
344,2010401048957,登記記録の閉鎖等,0,2024-10-16,2024-10-08,株式会社キッズネット,,株式会社,東京都,品川区,北品川５丁目１番１８号,,13,109,1410001,,,2024-10-08,清算の結了等,,,2015-10-05,1,,,,,キッズネット,0
348,2010401156248,登記記録の閉鎖等,0,2024-10-16,2024-10-11,株式会社プリアンファ,,株式会社,大阪府,大阪市中央区,西心斎橋１丁目９番３１号,,27,128,5420086,,,2024-10-11,合併による解散等,9010001244479,令和６年１０月１日東京都千代田区丸の内二丁目４番１号株式会社プリアンファ（9010001244479）に合併し解散,2020-11-04,1,,,,,プリアンファ,0
353,2010403012985,登記記録の閉鎖等,0,2024-10-16,2024-09-20,パシフィコ・エナジー夢前合同会社,,合同会社,東京都,港区,六本木３丁目２番１号六本木グランドタワー,,13,103,1060032,,,2024-09-20,清算の結了等,,,2015-10-05,1,,,,,パシフィコエナジーユメサキ,0
354,2010403018207,登記記録の閉鎖等,0,2024-10-16,2024-09-20,合同会社トリニティオハイオ,,合同会社,東京都,港区,虎ノ門３丁目２２番１０－２０１号,,13,103,1050001,,,2024-09-20,清算の結了等,,,2018-03-05,1,,,,,トリニティオハイオ,0
355,2010403026085,登記記録の閉鎖等,0,2024-10-16,2024-09-19,Ｍｅｎａｉ　Ｍａｒｋｅｔｓ　Ｊａｐａｎ合同会社,,合同会社,東京都,港区,虎ノ門１丁目１７番１号虎ノ門ヒルズビジネスタワー１５階,,13,103,1050001,,,2024-09-19,清算の結了等,,,2021-09-10,1,,,,,メナイマーケッツジャパン,0
371,2010801018766,登記記録の閉鎖等,0,2024-10-16,2024-10-04,三和技術調査株式会社,,株式会社,東京都,大田区,蒲田５丁目３８番３号,,13,111,1440052,,,2024-10-04,清算の結了等,,,2015-10-05,1,,,,,サンワギジュツチョウサ,0
378,2011003004539,登記記録の閉鎖等,0,2024-10-16,2024-09-20,ジーイー・リーシング合同会社,,合同会社,東京都,渋谷区,代官山町２０番９号,,13,113,1500034,,,2024-09-20,清算の結了等,,,2015-10-05,1,,,,,ジーイーリーシング,0
417,2020001128539,登記記録の閉鎖等,0,2024-10-16,2024-10-07,株式会社くらすかでん,,株式会社,新潟県,加茂市,八幡２丁目３番５１号,,15,209,9591333,,,2024-10-07,清算の結了等,,,2018-11-02,1,,,,,クラスカデン,0
430,2021001047308,登記記録の閉鎖等,0,2024-10-16,2024-10-15,株式会社ブーチェ,,株式会社,神奈川県,藤沢市,長後７７５番地の１－１０３,,14,205,2520801,,,2024-10-15,清算の結了等,,,2015-10-05,1,,,,,,0
452,2040002049914,登記記録の閉鎖等,0,2024-10-16,2024-10-09,有限会社ルンビニ・コーポレーション,,有限会社,千葉県,柏市,柏３丁目３番１６号,,12,217,2770005,,,2024-10-09,清算の結了等,,,2015-10-05,1,,,,,ルンビニコーポレーション,0
453,2040003007185,登記記録の閉鎖等,0,2024-10-16,2024-10-08,合同会社ユアフォーレ,,合同会社,千葉県,柏市,藤ケ谷５３４番地２,,12,217,2770931,,,2024-10-08,清算の結了等,,,2015-10-05,1,,,,,ユアフォーレ,0
458,2050002021780,登記記録の閉鎖等,0,2024-10-16,2024-09-30,有限会社テラダインテリア,,有限会社,茨城県,つくば市,篠崎７９６番地,,08,220,3003264,,,2024-09-30,清算の結了等,,,2015-10-05,1,,,,,テラダインテリア,0
471,2070001001633,登記記録の閉鎖等,0,2024-10-16,2024-10-11,新前橋ステーションホテル株式会社,,株式会社,群馬県,前橋市,新前橋町１９番地２７,,10,201,3710843,,,2024-10-11,清算の結了等,,,2015-10-05,1,,,,,シンマエバシステーションホテル,0
472,2070001013562,登記記録の閉鎖等,0,2024-10-16,2024-10-11,株式会社連取電機製作所,,株式会社,群馬県,伊勢崎市,連取町５８９番地,,10,204,3720812,,,2024-10-11,清算の結了等,,,2015-10-05,1,,,,,ツナトリデンキセイサクショ,0
488,2100002024695,登記記録の閉鎖等,0,2024-10-16,2024-10-02,有限会社居郷留,,有限会社,長野県,塩尻市,大門一番町１４番２号,,20,215,3990736,,,2024-10-02,清算の結了等,,,2015-10-05,1,,,,,オルゴール,0
491,2110001002528,登記記録の閉鎖等,0,2024-10-16,2024-10-09,株式会社シンテック,,株式会社,新潟県,新潟市北区,島見町３３９９番地１８,,15,101,9503102,,,2024-10-09,合併による解散等,7390001017262,令和６年１０月１日山形県鶴岡市丸岡字町の内３０９番地１株式会社ＮＤＹエンジニアリング（7390001017262）に合併し解散,2015-10-05,1,,,,,シンテック,0
493,2120001021312,登記記録の閉鎖等,0,2024-10-16,2024-10-04,株式会社八欧商会,,株式会社,大阪府,大阪市平野区,背戸口２丁目３番８号,,27,126,5470034,,,2024-10-04,清算の結了等,,,2015-10-05,1,,,,,ヤオウショウカイ,0
494,2120001031807,登記記録の閉鎖等,0,2024-10-16,2024-10-08,株式会社薮上鉄工所,,株式会社,大阪府,大阪市住之江区,西加賀屋２丁目６番９号,,27,125,5590016,,,2024-10-08,清算の結了等,,,2015-10-05,1,,,,,ヤブガミテッコウショ,0
505,2120002081553,登記記録の閉鎖等,0,2024-10-16,2024-09-30,有限会社スリーファイブ,,有限会社,大阪府,守口市,南寺方東通５丁目２６番１６号,,27,209,5700043,,,2024-09-30,清算の結了等,,,2015-10-05,1,,,,,スリーファイブ,0
508,2120901014943,登記記録の閉鎖等,0,2024-10-16,2024-10-10,株式会社林創建,,株式会社,大阪府,茨木市,中穂積２丁目１３番２３号,,27,211,5670034,,,2024-10-10,清算の結了等,,,2015-10-05,1,,,,,,0
509,2120901046292,登記記録の閉鎖等,0,2024-10-16,2024-10-08,ＡＴＩＧＩＸ株式会社,,株式会社,大阪府,吹田市,豊津町１番１８号エクラート江坂ビル３Ｆ,,27,205,5640051,,,2024-10-08,清算の結了等,,,2022-07-28,1,,,,,アティジックス,0
518,2130003003332,登記記録の閉鎖等,0,2024-10-16,2024-10-04,グリーンライフ合同会社,,合同会社,京都府,京都市南区,西九条川原城町５４番地８,,26,107,6018424,,,2024-10-04,清算の結了等,,,2015-10-05,1,,,,,グリーンライフ,0
525,2140002018818,登記記録の閉鎖等,0,2024-10-16,2024-10-10,スギナインターメディカル有限会社,,有限会社,兵庫県,神戸市垂水区,千代が丘１丁目６番４３号,,28,108,6550018,,,2024-10-10,清算の結了等,,,2015-10-05,1,,,,,スギナインターメディカル,0
557,2180005007211,登記記録の閉鎖等,0,2024-10-16,2024-10-04,特定非営利活動法人こどもサポートネットあいち,,その他の設立登記法人,愛知県,名古屋市北区,西志賀町５丁目１３番地１,,23,103,4620058,,,2024-10-04,清算の結了等,,,2015-10-05,1,,,,,コドモサポートネットアイチ,0
569,2200002001016,登記記録の閉鎖等,0,2024-10-16,2024-10-15,有限会社かとるせぞん,,有限会社,岐阜県,岐阜市,溝旗町２丁目１３番地,,21,201,5008169,,,2024-10-15,清算の結了等,,,2015-10-05,1,,,,,,0
583,2250002009095,登記記録の閉鎖等,0,2024-10-16,2024-10-10,有限会社三興保険サービス,,有限会社,山口県,下関市,豊前田町３丁目２番７号,,35,201,7500018,,,2024-10-10,清算の結了等,,,2015-10-05,1,,,,,サンコウホケンサービス,0
606,2310002001764,登記記録の閉鎖等,0,2024-10-16,2024-10-03,有限会社興洋,,有限会社,長崎県,長崎市,矢上町３２番１３号,,42,201,8510133,,,2024-10-03,清算の結了等,,,2015-10-05,1,,,,,コウヨウ,0
612,2320003001449,登記記録の閉鎖等,0,2024-10-16,2024-10-09,合名会社いけべやくひん,,合名会社,大分県,日田市,元町１２番７号,,44,204,8770013,,,2024-10-09,清算の結了等,,,2015-10-05,1,,,,,イケベヤクヒン,0
614,2340001016901,登記記録の閉鎖等,0,2024-10-16,2024-10-11,株式会社菊浦塗装,,株式会社,鹿児島県,鹿児島市,東坂元４丁目６８番１１号,,46,201,8920861,,,2024-10-11,清算の結了等,,,2015-10-05,1,,,,,キクウラトソウ,0
618,2340005006469,登記記録の閉鎖等,0,2024-10-16,2024-10-09,医療法人敬尚会,,その他の設立登記法人,鹿児島県,鹿屋市,郷之原町１２４００番地４,,46,203,8930065,,,2024-10-09,清算の結了等,,,2015-10-05,1,,,,,ケイショウカイ,0
637,2390001006170,登記記録の閉鎖等,0,2024-10-16,2024-10-03,クラウン金庫株式会社,,株式会社,山形県,酒田市,下安町１７番地６,,06,204,9980012,,,2024-10-03,清算の結了等,,,2015-10-05,1,,,,,クラウンキンコ,0
639,2410002001110,登記記録の閉鎖等,0,2024-10-16,2024-10-11,有限会社カネキ商事,,有限会社,秋田県,秋田市,寺内字三千刈２５番地６,,05,201,0110901,,,2024-10-11,清算の結了等,,,2015-10-05,1,,,,,カネキショウジ,0
641,2430001001902,登記記録の閉鎖等,0,2024-10-16,2024-10-08,株式会社植田工務店,,株式会社,北海道,札幌市白石区,本通３丁目南２番３０－６０４号,,01,104,0030026,,,2024-10-08,清算の結了等,,,2015-10-05,1,,,,,ウエダコウムテン,0
645,2430002038349,登記記録の閉鎖等,0,2024-10-16,2024-10-08,有限会社タミヤ商会,,有限会社,北海道,札幌市手稲区,前田十二条１０丁目４番７号,,01,109,0060822,,,2024-10-08,清算の結了等,,,2015-10-05,1,,,,,,0
660,2500001024516,登記記録の閉鎖等,0,2024-10-16,2024-10-10,株式会社ＶＩＳＱ,,株式会社,愛媛県,新居浜市,泉宮町４番１７－１４０３号,,38,205,7920021,,,2024-10-10,清算の結了等,,,2022-10-06,1,,,,,ビスク,0
662,2500002010069,登記記録の閉鎖等,0,2024-10-16,2024-10-11,有限会社彩栄電設,,有限会社,愛媛県,松山市,和泉北２丁目１３番４号,,38,201,7900038,,,2024-10-11,清算の結了等,,,2015-10-05,1,,,,,サイエイデンセツ,0
667,3010001163247,登記記録の閉鎖等,0,2024-10-16,2024-10-01,株式会社スペース,,株式会社,東京都,中央区,築地２丁目１５番１５号,,13,102,1040045,,,2024-10-01,清算の結了等,,,2015-10-05,1,,,,,スペース,0
672,3010002023417,登記記録の閉鎖等,0,2024-10-16,2024-10-01,有限会社浪花水道商会,,有限会社,東京都,中央区,日本橋人形町２丁目２９番７号,,13,102,1030013,,,2024-10-01,清算の結了等,,,2015-10-05,1,,,,,,0
677,3010005027233,登記記録の閉鎖等,0,2024-10-16,2024-10-10,国立府中特定目的会社,,その他の設立登記法人,東京都,千代田区,飯田橋４丁目７番１号結和税理士法人内,,13,101,1020072,,,2024-10-10,清算の結了等,,,2017-08-04,1,,,,,クニタチフチュウ,0
678,3010005029790,登記記録の閉鎖等,0,2024-10-16,2024-10-11,一般社団法人ヒマワリホールディングス・フォー,,その他の設立登記法人,東京都,千代田区,丸の内３丁目１番１号東京共同会計事務所内,,13,101,1000005,,,2024-10-11,清算の結了等,,,2019-02-28,1,,,,,ヒマワリホールディングスフォー,0
689,3010402007903,登記記録の閉鎖等,0,2024-10-16,2024-09-24,たけお商亊有限会社,,有限会社,東京都,港区,白金台２丁目２７番７号,,13,103,1080071,,,2024-09-24,清算の結了等,,,2015-10-05,1,,,,,タケオショウジ,0
690,3010403012984,登記記録の閉鎖等,0,2024-10-16,2024-09-20,パシフィコ・エナジー備前合同会社,,合同会社,東京都,港区,六本木３丁目２番１号六本木グランドタワー,,13,103,1060032,,,2024-09-20,清算の結了等,,,2015-10-05,1,,,,,パシフィコエナジービゼン,0
701,3010901026635,登記記録の閉鎖等,0,2024-10-16,2024-10-09,株式会社Ｄｒｅａｍ　ｏｎ　Ｄｒｅａｍｅｒ,,株式会社,東京都,世田谷区,深沢８丁目１５番５号,,13,112,1580081,,,2024-10-09,清算の結了等,,,2015-10-05,1,,,,,ドリームオンドリーマー,0
704,3011001023795,登記記録の閉鎖等,0,2024-10-16,2024-09-24,株式会社友信商事,,株式会社,東京都,渋谷区,代々木３丁目５９番１１－７０１号,,13,113,1510053,,,2024-09-24,清算の結了等,,,2015-10-05,1,,,,,ユウシンショウジ,0
730,3011702004904,登記記録の閉鎖等,0,2024-10-16,2024-10-10,有限会社笹田化学工業所,,有限会社,東京都,江戸川区,中央２丁目９番９号,,13,123,1320021,,,2024-10-10,清算の結了等,,,2015-10-05,1,,,,,ササダカガクコウギョウショ,0
731,3011801010687,登記記録の閉鎖等,0,2024-10-16,2024-10-10,株式会社ナカネ,,株式会社,東京都,足立区,西伊興２丁目３番２号,,13,121,1210824,,,2024-10-10,清算の結了等,,,2015-10-05,1,,,,,ナカネ,0
741,3012402013807,登記記録の閉鎖等,0,2024-10-16,2024-10-15,有限会社メディカルサプライ,,有限会社,東京都,狛江市,岩戸北３丁目１８番４号,,13,219,2010004,,,2024-10-15,清算の結了等,,,2015-10-05,1,,,,,メディカルサプライ,0
743,3012702001230,登記記録の閉鎖等,0,2024-10-16,2024-10-04,有限会社テイーエム電設,,有限会社,東京都,小平市,上水南町３丁目１０番１３号,,13,211,1870021,,,2024-10-04,清算の結了等,,,2015-10-05,1,,,,,テイーエムデンセツ,0
744,3012702002096,登記記録の閉鎖等,0,2024-10-16,2024-10-07,有限会社アークサッシ工業,,有限会社,東京都,東久留米市,八幡町３丁目３番１２号,,13,222,2030042,,,2024-10-07,清算の結了等,,,2015-10-05,1,,,,,アークサッシコウギョウ,0
748,3020001016734,登記記録の閉鎖等,0,2024-10-16,2024-10-01,株式会社エチゴ精機,,株式会社,神奈川県,横浜市鶴見区,元宮１丁目１４番７号,,14,101,2300004,,,2024-10-01,清算の結了等,,,2015-10-05,1,,,,,エチゴセイキ,0
754,3020002043587,登記記録の閉鎖等,0,2024-10-16,2024-10-01,有限会社大和興業,,有限会社,神奈川県,横浜市中区,竹之丸２１番地の６,,14,104,2310847,,,2024-10-01,合併による解散等,1020001040562,令和６年１０月１日横浜市中区竹之丸２１番地の６株式会社Ｔ・Ｅ・Ａ（1020001040562）に合併し解散,2015-10-05,1,,,,,ダイワコウギョウ,0
757,3020003018043,登記記録の閉鎖等,0,2024-10-16,2024-10-02,合同会社レッドシー,,合同会社,東京都,世田谷区,桜丘４丁目１９番３２号,,13,112,1560054,,,2024-10-02,清算の結了等,,,2020-06-19,1,,,,,レッドシー,0
763,3021002020246,登記記録の閉鎖等,0,2024-10-16,2024-10-11,有限会社相模原乗馬クラブ,,有限会社,神奈川県,相模原市中央区,陽光台７丁目３番３３号,,14,152,2520226,,,2024-10-11,清算の結了等,,,2015-10-05,1,,,,,サガミハラジョウバクラブ,0
764,3021002029460,登記記録の閉鎖等,0,2024-10-16,2024-10-11,有限会社アイキング,,有限会社,神奈川県,相模原市緑区,町屋１丁目１７番２６号,,14,151,2520101,,,2024-10-11,清算の結了等,,,2015-10-05,1,,,,,アイキング,0
765,3021003011186,登記記録の閉鎖等,0,2024-10-16,2024-10-01,合同会社モビスタ,,合同会社,神奈川県,南足柄市,矢倉沢２４５３,,14,217,2500136,,,2024-10-01,清算の結了等,,,2021-12-21,1,,,,,モビスタ,0
767,3030001151456,登記記録の閉鎖等,0,2024-10-16,2024-10-07,株式会社Ｃｕｔｅ　Ｐａｗｓ,,株式会社,埼玉県,川越市,大字的場８２番地１３,,11,201,3501101,,,2024-10-07,清算の結了等,,,2022-12-16,1,,,,,キュートパウズ,0
774,3030002020453,登記記録の閉鎖等,0,2024-10-16,2024-10-07,有限会社伊藤マネジメントオフィス,,有限会社,埼玉県,さいたま市緑区,原山４丁目１５番２３号ヒューマンスクエア浦和ヴェルーナ１０９号室,,11,109,3360931,,,2024-10-07,清算の結了等,,,2015-10-05,1,,,,,イトウマネジメントオフィス,0
783,3040001119329,登記記録の閉鎖等,0,2024-10-16,2024-10-07,株式会社エヌエイクリエイト,,株式会社,千葉県,流山市,野々下５丁目１０４９番地の１６,,12,220,2700135,,,2024-10-07,清算の結了等,,,2021-07-15,1,,,,,エヌエイクリエイト,0
831,3120002043313,登記記録の閉鎖等,0,2024-10-16,2024-10-15,有限会社ケマテック,,有限会社,大阪府,大阪市中央区,谷町３丁目１番２５－７０２号,,27,128,5400012,,,2024-10-15,清算の結了等,,,2015-10-05,1,,,,,ケマテック,0
832,3120002051043,登記記録の閉鎖等,0,2024-10-16,2024-10-01,西村通信有限会社,,有限会社,大阪府,大阪市東成区,大今里３丁目１６番６号,,27,115,5370012,,,2024-10-01,清算の結了等,,,2015-10-05,1,,,,,ニシムラツウシン,0
835,3120901008234,登記記録の閉鎖等,0,2024-10-16,2024-10-09,深見商事株式会社,,株式会社,大阪府,吹田市,高野台３丁目９番１６号,,27,205,5650861,,,2024-10-09,清算の結了等,,,2015-10-05,1,,,,,フカミショウジ,0
841,3130003006136,登記記録の閉鎖等,0,2024-10-16,2024-10-10,ノーリリーシング合同会社,,合同会社,京都府,京都市中京区,蛸屋町１５６番地,,26,104,6048062,,,2024-10-10,清算の結了等,,,2019-08-01,1,,,,,ノーリリーシング,0
842,3130003008859,登記記録の閉鎖等,0,2024-10-16,2024-10-09,合同会社ラ・ルーチェ,,合同会社,京都府,京都市左京区,下鴨松ノ木町１８番地１２,,26,103,6060816,,,2024-10-09,清算の結了等,,,2023-07-13,1,,,,,ラルーチェ,0
844,3140001028742,登記記録の閉鎖等,0,2024-10-16,2024-10-07,佐益興産株式会社,,株式会社,兵庫県,芦屋市,川西町２番２８ファミール芦屋川西町２０２号,00039353,28,206,6590072,,,2024-10-07,清算の結了等,,,2015-10-05,1,,,,,サエキコウサン,0
845,3140001057964,登記記録の閉鎖等,0,2024-10-16,2024-10-01,株式会社サイプレス・ソリューションズ,,株式会社,東京都,中央区,日本橋本町４丁目８番１４号,,13,102,1030023,,,2024-10-01,合併による解散等,2010001095739,令和６年１０月１日東京都中央区日本橋本町四丁目８番１４号株式会社マーブル（2010001095739）に合併し解散,2015-10-05,1,,,,,サイプレスソリューションズ,0
857,3150001016614,登記記録の閉鎖等,0,2024-10-16,2024-10-15,アシサプリ株式会社,,株式会社,奈良県,生駒市,北新町２番４号ＭＯＩビル３０２号室,,29,209,6300245,,,2024-10-15,清算の結了等,,,2015-10-05,1,,,,,アシサプリ,0
858,3150001017174,登記記録の閉鎖等,0,2024-10-16,2024-10-15,株式会社ピー．グループ,,株式会社,奈良県,橿原市,南八木町１丁目４番１４号,,29,205,6340077,,,2024-10-15,清算の結了等,,,2015-10-05,1,,,,,ピーグループ,0
867,3180003026030,登記記録の閉鎖等,0,2024-10-16,2024-10-01,合同会社ｇｅｎｇｏｆｒａｎｃａ,,合同会社,愛知県,名古屋市瑞穂区,大殿町３丁目６番地の２メゾン山崎川２０２号,,23,108,4670007,,,2024-10-01,清算の結了等,,,2023-11-28,1,,,,,ゲンゴフランカ,0
881,3220001013174,登記記録の閉鎖等,0,2024-10-16,2024-10-07,株式会社久保田精密,,株式会社,石川県,加賀市,大聖寺敷地ヘの６２番地,,17,206,9220011,,,2024-10-07,清算の結了等,,,2015-10-05,1,,,,,,0
884,3220002008925,登記記録の閉鎖等,0,2024-10-16,2024-10-07,有限会社エス・ケー産業,,有限会社,石川県,小松市,今江町５丁目４１７番地,,17,203,9230964,,,2024-10-07,清算の結了等,,,2015-10-05,1,,,,,,0
885,3220003002984,登記記録の閉鎖等,0,2024-10-16,2024-10-09,なっちゃんのきいろいかさ合同会社,,合同会社,石川県,白山市,鹿島平１１番地９,,17,210,9290206,,,2024-10-09,清算の結了等,,,2021-03-01,1,,,,,,0
886,3230001005476,登記記録の閉鎖等,0,2024-10-16,2024-10-11,北陸テック株式会社,,株式会社,富山県,富山市,二口町５丁目４番地の２,,16,201,9398211,,,2024-10-11,清算の結了等,,,2015-10-05,1,,,,,ホクリクテック,0
929,3430002028415,登記記録の閉鎖等,0,2024-10-16,2024-10-11,有限会社トーセイ,,有限会社,北海道,札幌市東区,丘珠町５８１番地９,,01,103,0070880,,,2024-10-11,清算の結了等,,,2015-10-05,1,,,,,トーセイ,0
938,3480003000698,登記記録の閉鎖等,0,2024-10-16,2024-10-11,アイントラスト合同会社,,合同会社,徳島県,徳島市,南出来島町１丁目２４番地,,36,201,7700824,,,2024-10-11,清算の結了等,,,2015-10-05,1,,,,,アイントラスト,0
952,4010003025956,登記記録の閉鎖等,0,2024-10-16,2024-10-01,合同会社ＳＫＤ不動産管理,,合同会社,東京都,中央区,日本橋室町１丁目１３番１号ＤＫノア４階Ｃ＋内,,13,102,1030022,,,2024-10-01,合併による解散等,9040003009068,令和６年１０月１日東京都千代田区外神田六丁目９番２号合同会社睦月エステート（9040003009068）に合併し解散,2017-08-29,1,,,,,エスケーディーフドウサンカンリ,0
967,4010401139465,登記記録の閉鎖等,0,2024-10-16,2024-09-20,株式会社キママニ,,株式会社,東京都,港区,浜松町２丁目２番１５号,,13,103,1050013,,,2024-09-20,清算の結了等,,,2018-07-06,1,,,,,キママニ,0
979,4010701026470,登記記録の閉鎖等,0,2024-10-16,2024-10-10,株式会社オープンアップテクノロジー,,株式会社,東京都,港区,虎ノ門１丁目３番１号,,13,103,1050001,,,2024-10-10,合併による解散等,5180301037157,令和６年１０月１日愛知県刈谷市南桜町一丁目２３番地株式会社ビーネックスソリューションズ（5180301037157）に合併し解散,2015-10-05,1,,,,,オープンアップテクノロジー,0
1003,4011202001302,登記記録の閉鎖等,0,2024-10-16,2024-10-10,有限会社おくむら,,有限会社,東京都,中野区,上鷺宮２丁目２２番１２号,,13,114,1650031,,,2024-10-10,清算の結了等,,,2015-10-05,1,,,,,,0
1028,4020001099068,登記記録の閉鎖等,0,2024-10-16,2024-10-01,株式会社ＢＷＦＪカンパニー,,株式会社,神奈川県,川崎市麻生区,上麻生４丁目４９番７号,,14,137,2150021,,,2024-10-01,清算の結了等,,,2015-10-05,1,,,,,ビーダブリュウエフジェーカンパニー,0
1039,4020002090372,登記記録の閉鎖等,0,2024-10-16,2024-10-08,有限会社三栄マネージメント,,有限会社,東京都,世田谷区,弦巻４丁目２３番１８－４０２号,,13,112,1540016,,,2024-10-08,清算の結了等,,,2015-10-05,1,,,,,サンエイマネージメント,0
1047,4030001072346,登記記録の閉鎖等,0,2024-10-16,2024-10-02,クラフト保険事務所株式会社,,株式会社,埼玉県,東松山市,大字下野本１１８０番地５,,11,212,3550036,,,2024-10-02,清算の結了等,,,2015-10-05,1,,,,,クラフトホケンジムショ,0
1050,4040001014256,登記記録の閉鎖等,0,2024-10-16,2024-10-08,株式会社ＯＨＡＮＡ,,株式会社,千葉県,千葉市美浜区,幕張西４丁目２番１－１１０１号,,12,106,2610026,,,2024-10-08,清算の結了等,,,2015-10-05,1,,,,,オハナ,0
1052,4040001087995,登記記録の閉鎖等,0,2024-10-16,2024-10-09,株式会社Ｇｎａｒｌｏｏ,,株式会社,千葉県,鎌ケ谷市,東鎌ケ谷１丁目２番３３号,,12,224,2730104,,,2024-10-09,清算の結了等,,,2015-10-05,1,,,,,,0
1056,4040001109857,登記記録の閉鎖等,0,2024-10-16,2024-10-07,株式会社エイチ・エム企画,,株式会社,千葉県,長生郡長柄町,上野３９２番地１３,,12,426,2970201,,,2024-10-07,清算の結了等,,,2019-07-08,1,,,,,エイチエムキカク,0
1057,4040001116515,登記記録の閉鎖等,0,2024-10-16,2024-10-11,株式会社エージェントフォース,,株式会社,千葉県,千葉市稲毛区,宮野木町２１５０番地１,,12,103,2630054,,,2024-10-11,合併による解散等,7050002039819,令和６年１０月１日茨城県守谷市立沢１４５番地５株式会社タスクサービス（7050002039819）に合併し解散,2021-01-06,1,,,,,エージェントフォース,0
1082,4060002029722,登記記録の閉鎖等,0,2024-10-16,2024-10-10,有限会社加藤製作所,,有限会社,栃木県,下都賀郡野木町,大字野木３３３３番地,,09,364,3290114,,,2024-10-10,清算の結了等,,,2015-10-05,1,,,,,カトウセイサクショ,0
1084,4060002036041,登記記録の閉鎖等,0,2024-10-16,2024-10-09,有限会社源田化工,,有限会社,栃木県,足利市,大沼田町６５７番地,,09,202,3260011,,,2024-10-09,清算の結了等,,,2015-10-05,1,,,,,ゲンダカコウ,0
1089,4070002005697,登記記録の閉鎖等,0,2024-10-16,2024-10-10,吉澤総業有限会社,,有限会社,群馬県,前橋市,上大屋町３６３番地の３７,,10,201,3710222,,,2024-10-10,清算の結了等,,,2015-10-05,1,,,,,ヨシザワソウギョウ,0
1092,4080102009647,登記記録の閉鎖等,0,2024-10-16,2024-10-10,有限会社エス・ケイ・インテリア,,有限会社,静岡県,三島市,北沢１番地,,22,206,4110805,,,2024-10-10,清算の結了等,,,2015-10-05,1,,,,,エスケイインテリア,0
1102,4120001013687,登記記録の閉鎖等,0,2024-10-16,2024-10-15,丸三敷物株式会社,,株式会社,大阪府,大阪市東成区,玉津２丁目１５番１８号,,27,115,5370023,,,2024-10-15,清算の結了等,,,2015-10-05,1,,,,,マルサンシキモノ,0
1121,4120105005762,登記記録の閉鎖等,0,2024-10-16,2024-10-08,医療法人脇浜診療所,,その他の設立登記法人,大阪府,貝塚市,脇浜１丁目３番８号,,27,208,5970073,,,2024-10-08,清算の結了等,,,2015-10-05,1,,,,,ワキハマシンリョウショ,0
1125,4130001001088,登記記録の閉鎖等,0,2024-10-16,2024-10-10,株式会社誠和ハウジング,,株式会社,京都府,京都市右京区,西京極畑田町８番地の２,,26,108,6150824,,,2024-10-10,清算の結了等,,,2023-01-19,1,,,,,セイワハウジング,0
1139,4140002035654,登記記録の閉鎖等,0,2024-10-16,2024-10-08,有限会社金川商事,,有限会社,兵庫県,加古川市,加古川町本町１１５番地の７,,28,210,6750037,,,2024-10-08,清算の結了等,,,2015-10-05,1,,,,,カナガワショウジ,0
1143,4150001009575,登記記録の閉鎖等,0,2024-10-16,2024-10-11,森田建工株式会社,,株式会社,奈良県,桜井市,大字金屋１９番地,,29,206,6330002,,,2024-10-11,清算の結了等,,,2015-10-05,1,,,,,モリタケンコウ,0
1151,4180001088105,登記記録の閉鎖等,0,2024-10-16,2024-09-27,株式会社中山鉄工,,株式会社,愛知県,江南市,曽本町幼川添１７９番地,,23,217,4838123,,,2024-09-27,清算の結了等,,,2015-10-05,1,,,,,ナカヤマテッコウ,0
1183,4240005015214,登記記録の閉鎖等,0,2024-10-16,2024-10-11,一般社団法人日本実行機能コーチング協会,,その他の設立登記法人,広島県,呉市,広古新開１丁目９番１号,,34,202,7370112,,,2024-10-11,清算の結了等,,,2021-05-11,1,,,,,ニホンジッコウキノウコーチングキョウカイ,0
1201,4310005005018,登記記録の閉鎖等,0,2024-10-16,2024-10-03,特定非営利活動法人Ｕｐ　Ｗｉｔｈ　おおむら,,その他の設立登記法人,長崎県,大村市,大川田町３４５番地１１,,42,205,8560804,,,2024-10-03,清算の結了等,,,2015-10-05,1,,,,,アップウイズオオムラ,0
1207,4340002021691,登記記録の閉鎖等,0,2024-10-16,2024-10-09,有限会社喜島電気設備,,有限会社,鹿児島県,大島郡瀬戸内町,大字古仁屋字大湊９番地の１０,,46,525,8941503,,,2024-10-09,清算の結了等,,,2015-10-05,1,,,,,キジマデンキセツビ,0
1224,4370602000530,登記記録の閉鎖等,0,2024-10-16,2024-10-01,有限会社キョウセイ,,有限会社,宮城県,仙台市若林区,卸町東１丁目１番５５号,,04,103,9840002,,,2024-10-01,清算の結了等,,,2015-10-05,1,,,,,キョウセイ,0
1225,4380001017448,登記記録の閉鎖等,0,2024-10-16,2024-10-01,株式会社佐藤工務店,,株式会社,福島県,会津若松市,湊町大字静潟字石動木前９５番地の２,,07,202,9650203,,,2024-10-01,清算の結了等,,,2015-10-05,1,,,,,サトウコウムテン,0
1226,4380001019072,登記記録の閉鎖等,0,2024-10-16,2024-10-09,さがみ典礼山形株式会社,,株式会社,山形県,山形市,松波４丁目１１番１６号,,06,201,9900023,,,2024-10-09,合併による解散等,9380001007709,令和６年１０月１日福島県郡山市開成三丁目６番１５号アルファクラブ東北株式会社（9380001007709）に合併し解散,2015-10-05,1,,,,,サガミテンレイヤマガタ,0
1228,4380002023239,登記記録の閉鎖等,0,2024-10-16,2024-10-02,有限会社共伸工業所,,有限会社,福島県,いわき市,小名浜岡小名３丁目６番地の６,,07,204,9718151,,,2024-10-02,清算の結了等,,,2015-10-05,1,,,,,キョウシンコウギョウショ,0
1231,4400002008501,登記記録の閉鎖等,0,2024-10-16,2024-10-01,有限会社マルタツ,,有限会社,岩手県,花巻市,西宮野目第３地割５４７番地２,,03,205,0250002,,,2024-10-01,清算の結了等,,,2015-10-05,1,,,,,マルタツ,0
1239,4470001018346,登記記録の閉鎖等,0,2024-10-16,2024-10-10,株式会社ＡＣＲＯ．Ｓ,,株式会社,香川県,高松市,三谷町３０９１－１,,37,201,7610450,,,2024-10-10,清算の結了等,,,2021-01-08,1,,,,,アクロス,0
1249,5010001181197,登記記録の閉鎖等,0,2024-10-16,2024-10-01,日本パーソナルストレージ株式会社,,株式会社,東京都,千代田区,麹町４丁目５番地２０,,13,101,1020083,,,2024-10-01,清算の結了等,,,2017-02-08,1,,,,,ニホンパーソナルストレージ,0
1257,5010002023051,登記記録の閉鎖等,0,2024-10-16,2024-10-01,有限会社トミクラ,,有限会社,東京都,台東区,元浅草２丁目３番５号,,13,106,1110041,,,2024-10-01,合併による解散等,4010001052077,令和６年１０月１日東京都台東区元浅草二丁目３番５号富山科学工業株式会社（4010001052077）に合併し解散,2015-10-05,1,,,,,トミクラ,0
1262,5010005034938,登記記録の閉鎖等,0,2024-10-16,2024-10-09,ＲＢソーラーブルックホールディングス一般社団法人,,その他の設立登記法人,東京都,中央区,八丁堀４丁目２番１０号ＡＯＪ税理士法人内,,13,102,1040032,,,2024-10-09,清算の結了等,,,2022-04-26,1,,,,,アールビーソーラーブルックホールディングス,0
1263,5010005036983,登記記録の閉鎖等,0,2024-10-16,2024-10-09,一般社団法人Ｔ８キャピタル,,その他の設立登記法人,東京都,千代田区,内神田２丁目２番６号５階あすな会計事務所内,,13,101,1010047,,,2024-10-09,清算の結了等,,,2023-07-19,1,,,,,ティーエイトキャピタル,0
1269,5010401085080,登記記録の閉鎖等,0,2024-10-16,2024-09-20,ブルースワイン株式会社,,株式会社,東京都,港区,芝大門１丁目３番９号,,13,103,1050012,,,2024-09-20,清算の結了等,,,2015-10-05,1,,,,,ブルースワイン,0
1291,5010701042913,登記記録の閉鎖等,0,2024-10-16,2024-10-08,ストックルーム株式会社,,株式会社,東京都,品川区,東五反田５丁目２２番３２号サンテラス池田山１０３,,13,109,1410022,,,2024-10-08,清算の結了等,,,2022-07-06,1,,,,,ストックルーム,0
1297,5011002003299,登記記録の閉鎖等,0,2024-10-16,2024-09-20,有限会社キャロット,,有限会社,東京都,渋谷区,神南１丁目１５番１０号,,13,113,1500041,,,2024-09-20,清算の結了等,,,2015-10-05,1,,,,,キャロット,0
1314,5013301036046,登記記録の閉鎖等,0,2024-10-16,2024-10-10,株式会社ＺＥＮ,,株式会社,沖縄県,宜野湾市,大山４丁目３番１号,,47,205,9012223,,,2024-10-10,清算の結了等,,,2015-10-05,1,,,,,,0
1335,5021001016235,登記記録の閉鎖等,0,2024-10-16,2024-10-11,株式会社山本製作所,,株式会社,神奈川県,相模原市緑区,根小屋２８６２番地,,14,151,2520153,,,2024-10-11,清算の結了等,,,2015-10-05,1,,,,,ヤマモトセイサクジョ,0
1348,5030001140614,登記記録の閉鎖等,0,2024-10-16,2024-10-10,株式会社ジェネスト,,株式会社,埼玉県,桶川市,寿２丁目１番６号,,11,231,3630016,,,2024-10-10,合併による解散等,1180301016825,令和６年１０月１日愛知県碧南市向陽町四丁目７９番地ウィルビル３階株式会社ジェネックス（1180301016825）に合併し解散,2021-02-05,1,,,,,ジェネスト,0
1352,5030002078408,登記記録の閉鎖等,0,2024-10-16,2024-10-11,株式会社たきた動物病院,,株式会社,埼玉県,川越市,石原町１丁目１２番６号,,11,201,3500824,,,2024-10-11,合併による解散等,2120102020683,令和６年９月２７日大阪府岸和田市藤井町一丁目１２番１３号株式会社石塚（2120102020683）に合併し解散,2015-10-05,1,,,,,タキタドウブツビョウイン,0
1374,5070002024143,登記記録の閉鎖等,0,2024-10-16,2024-10-11,有限会社つつみ土地,,有限会社,群馬県,桐生市,堤町１丁目２４番２３号,,10,203,3760042,,,2024-10-11,清算の結了等,,,2015-10-05,1,,,,,ツツミトチ,0
1383,5080405007280,登記記録の閉鎖等,0,2024-10-16,2024-10-07,一般社団法人おやけん,,その他の設立登記法人,静岡県,浜松市中央区,笠井新田町５２３番地,,22,138,4313105,,,2024-10-07,清算の結了等,,,2020-09-07,1,,,,,オヤケン,0
1384,5090003000389,登記記録の閉鎖等,0,2024-10-16,2024-10-09,ブライダル衣裳サポートクラブ合同会社,,合同会社,山梨県,笛吹市,石和町下平井２２５番地,,19,211,4060027,,,2024-10-09,清算の結了等,,,2015-10-05,1,,,,,ブライダルイショウサポートクラブ,0
1388,5120001086963,登記記録の閉鎖等,0,2024-10-16,2024-10-04,能登興業株式会社,,株式会社,大阪府,大阪市中央区,島之内２丁目１４番１号,,27,128,5420082,,,2024-10-04,清算の結了等,,,2015-10-05,1,,,,,ノトコウギョウ,0
1391,5120001210804,登記記録の閉鎖等,0,2024-10-16,2024-10-10,株式会社火間土,,株式会社,大阪府,交野市,倉治５丁目１番３５号,,27,230,5760051,,,2024-10-10,合併による解散等,6120901025474,令和６年１０月１日大阪府豊中市庄内宝町一丁目４番１号株式会社富士塗装工業所（6120901025474）に合併し解散,2018-01-23,1,,,,,カマド,0
1392,5120001240900,登記記録の閉鎖等,0,2024-10-16,2024-10-09,株式会社心菓,,株式会社,大阪府,大阪市西区,新町１丁目２５番１３号,,27,106,5500013,,,2024-10-09,合併による解散等,9010001213707,令和６年１０月１日北海道夕張市沼ノ沢５１０番地１１株式会社ＤＡＤＡＣＡ（9010001213707）に合併し解散,2021-10-06,1,,,,,シンカ,0
1408,5130001063656,登記記録の閉鎖等,0,2024-10-16,2024-10-11,桂くろねこ株式会社,,株式会社,京都府,京都市西京区,桂西滝川町２１番地５,,26,111,6158024,,,2024-10-11,清算の結了等,,,2019-01-09,1,,,,,カツラクロネコ,0
1412,5140001025374,登記記録の閉鎖等,0,2024-10-16,2024-10-11,株式会社摩耶商会,,株式会社,兵庫県,神戸市北区,藤原台北町２丁目１－１－１０６,,28,109,6511301,,,2024-10-11,清算の結了等,,,2015-10-05,1,,,,,,0
1421,5140003011967,登記記録の閉鎖等,0,2024-10-16,2024-10-11,合同会社中本組,,合同会社,兵庫県,姫路市,北新在家２丁目８番１－４０６号藤和ライブタウン新在家,,28,201,6700091,,,2024-10-11,清算の結了等,,,2017-03-07,1,,,,,,0
1424,5150001009368,登記記録の閉鎖等,0,2024-10-16,2024-10-09,株式会社須恵広電器,,株式会社,奈良県,桜井市,大字忍阪１５６５番地,,29,206,6330005,,,2024-10-09,清算の結了等,,,2015-10-05,1,,,,,スエヒロデンキ,0
1425,5160001022980,登記記録の閉鎖等,0,2024-10-16,2024-10-10,株式会社カーレスキュー,,株式会社,滋賀県,犬上郡多賀町,大字楢崎３７４番地,00121710,25,443,5220336,,,2024-10-10,清算の結了等,,,2020-12-23,1,,,,,カーレスキュー,0
1430,5180001126664,登記記録の閉鎖等,0,2024-10-16,2024-09-30,アロマーユ株式会社,,株式会社,愛知県,名古屋市名東区,植園町３丁目１番地１バンベール星ヶ丘３１６号,,23,115,4650077,,,2024-09-30,清算の結了等,,,2017-02-22,1,,,,,アロマーユ,0
1431,5180001132398,登記記録の閉鎖等,0,2024-10-16,2024-10-03,ヒューネクスト株式会社,,株式会社,愛知県,名古屋市千種区,星が丘元町１１－６,,23,101,4640802,,,2024-10-03,清算の結了等,,,2018-05-24,1,,,,,ヒューネクスト,0
1436,5180002081669,登記記録の閉鎖等,0,2024-10-16,2024-09-27,有限会社板津新聞店,,有限会社,愛知県,江南市,島宮町吉原１０４番地,,23,217,4838262,,,2024-09-27,清算の結了等,,,2015-10-05,1,,,,,イタツシンブンテン,0
1437,5180003025732,登記記録の閉鎖等,0,2024-10-16,2024-10-01,合同会社ソワンプレヴナンス,,合同会社,愛知県,尾張旭市,狩宿新町２丁目３６番地２,,23,226,4880022,,,2024-10-01,清算の結了等,,,2023-09-14,1,,,,,ソワンプレヴナンス,0
1441,5180301028395,登記記録の閉鎖等,0,2024-10-16,2024-10-07,株式会社ウォールデン,,株式会社,愛知県,知立市,八ツ田町久根ノ内３８番地,,23,225,4720012,,,2024-10-07,清算の結了等,,,2015-10-05,1,,,,,ウォールデン,0
1446,5200002005096,登記記録の閉鎖等,0,2024-10-16,2024-10-15,有限会社吉沢食品,,有限会社,岐阜県,岐阜市,千手堂中町１丁目１０番地,,21,201,5008862,,,2024-10-15,清算の結了等,,,2015-10-05,1,,,,,ヨシザワショクヒン,0
1449,5240001041080,登記記録の閉鎖等,0,2024-10-16,2024-10-07,株式会社コムテックジャパン,,株式会社,広島県,福山市,春日町３丁目１２番３－１号,,34,207,7210907,,,2024-10-07,清算の結了等,,,2015-10-05,1,,,,,,0
1465,5290001071387,登記記録の閉鎖等,0,2024-10-16,2024-09-05,ヴェルモントルラーシュ株式会社,,株式会社,福岡県,糟屋郡志免町,王子１丁目１７番２５号,,40,343,8112209,,,2024-09-05,清算の結了等,,,2015-10-05,1,,,,,ヴェルモントルラーシュ,0
1475,5290003009864,登記記録の閉鎖等,0,2024-10-16,2024-09-02,合同会社福島商会,,合同会社,福岡県,春日市,宝町１丁目８番地１－４０４,,40,218,8160807,,,2024-09-02,合併による解散等,6290003010061,令和６年９月１日福岡県春日市宝町一丁目８番地１－４０４合同会社ファンリックス（6290003010061）に合併し解散,2020-03-18,1,,,,,フクシマショウカイ,0
1482,5320002005299,登記記録の閉鎖等,0,2024-10-16,2024-10-11,有限会社野田興産,,有限会社,大分県,大分市,下郡北３丁目１番１９号,,44,201,8700952,,,2024-10-11,清算の結了等,,,2015-10-05,1,,,,,,0
1499,5410002001025,登記記録の閉鎖等,0,2024-10-16,2024-10-08,有限会社オルガンメディカル,,有限会社,秋田県,秋田市,桜２丁目２７番３０号,,05,201,0100042,,,2024-10-08,合併による解散等,8430001020392,令和６年１０月１日札幌市白石区本通三丁目北６番１８号株式会社ＳＭＣ（8430001020392）に合併し解散,2015-10-05,1,,,,,,0
1504,5470001020334,登記記録の閉鎖等,0,2024-10-16,2024-10-01,Ｒｅｆｃｏ株式会社,,株式会社,東京都,中央区,新川１丁目２１番２号,,13,102,1040033,,,2024-10-01,合併による解散等,1020001071624,令和６年１０月１日東京都中央区新川一丁目２１番２号株式会社セントラルスポーツプラザ（1020001071624）に合併し解散,2024-08-13,1,,,,,レフコ,0
1509,6010001015759,登記記録の閉鎖等,0,2024-10-16,2024-10-01,株式会社ケムインター,,株式会社,東京都,千代田区,神田錦町２丁目１１番地,,13,101,1010054,,,2024-10-01,合併による解散等,2010001017016,令和６年１０月１日東京都千代田区神田錦町二丁目１１番地三洋貿易株式会社（2010001017016）に合併し解散,2015-10-05,1,,,,,ケムインター,0
1512,6010001077576,登記記録の閉鎖等,0,2024-10-16,2024-10-01,シグマトロン株式会社,,株式会社,東京都,中央区,日本橋本町４丁目８番１４号,,13,102,1030023,,,2024-10-01,合併による解散等,2010001095739,令和６年１０月１日東京都中央区日本橋本町四丁目８番１４号株式会社マーブル（2010001095739）に合併し解散,2015-10-05,1,,,,,シグマトロン,0
1513,6010001098762,登記記録の閉鎖等,0,2024-10-16,2024-10-01,株式会社Ｑｕａｔｒｏ　Ａ,,株式会社,東京都,千代田区,六番町４番地５,,13,101,1020085,,,2024-10-01,合併による解散等,2010001012149,令和６年１０月１日東京都千代田区六番町４番地５株式会社アニプレックス（2010001012149）に合併し解散,2015-10-05,1,,,,,クワトロエー,0
1525,6010002047727,登記記録の閉鎖等,0,2024-10-16,2024-09-30,有限会社シタヤマ,,有限会社,東京都,三宅島三宅村,阿古１８０４番地,,13,381,1001212,,,2024-09-30,清算の結了等,,,2015-10-05,1,,,,,シタヤマ,0
1528,6010003030277,登記記録の閉鎖等,0,2024-10-16,2024-09-30,合同会社スタジオＨ・Ｈ,,合同会社,東京都,中央区,八丁堀３丁目９番７号,,13,102,1040032,,,2024-09-30,清算の結了等,,,2019-07-26,1,,,,,スタジオエイチエイチ,0
1529,6010003041076,登記記録の閉鎖等,0,2024-10-16,2024-10-01,ａｃａｌｌｉ合同会社,,合同会社,東京都,中央区,晴海１丁目６番１－４３０５号,,13,102,1040053,,,2024-10-01,清算の結了等,,,2023-07-20,1,,,,,アカリ,0
1531,6010005023320,登記記録の閉鎖等,0,2024-10-16,2024-10-11,一般社団法人新浦安ホテルホールディングス,,その他の設立登記法人,東京都,千代田区,丸の内３丁目１番１号東京共同会計事務所内,,13,101,1000005,,,2024-10-11,清算の結了等,,,2015-10-05,1,,,,,シンウラヤスホテルホールディングス,0
1533,6010005032008,登記記録の閉鎖等,0,2024-10-16,2024-10-07,一般社団法人ＲＥＸＣＯ３号,,その他の設立登記法人,東京都,千代田区,神田神保町１丁目１１番地さくら綜合事務所内,,13,101,1010051,,,2024-10-07,清算の結了等,,,2020-07-10,1,,,,,レクスコサンゴウ,0
1536,6010401062483,登記記録の閉鎖等,0,2024-10-16,2024-10-03,株式会社フレンドアクト,,株式会社,東京都,港区,芝大門２丁目１番１８号,,13,103,1050012,,,2024-10-03,清算の結了等,,,2015-10-05,1,,,,,フレンドアクト,0
1539,6010401124110,登記記録の閉鎖等,0,2024-10-16,2024-10-01,株式会社フォワードワークス,,株式会社,東京都,千代田区,六番町４番地５,,13,101,1020085,,,2024-10-01,合併による解散等,2010001012149,令和６年１０月１日東京都千代田区六番町４番地５株式会社アニプレックス（2010001012149）に合併し解散,2016-04-11,1,,,,,フォワードワークス,0
1550,6010403020407,登記記録の閉鎖等,0,2024-10-16,2024-10-01,Ｋｉｎｃｅｎｔｒｉｃ　Ｊａｐａｎ合同会社,,合同会社,東京都,千代田区,丸の内１丁目１番１号パレスビル,,13,101,1000005,,,2024-10-01,合併による解散等,3010001033318,令和６年１０月１日東京都千代田区丸の内一丁目１番１号パレスビル日本スペンサースチュアート株式会社（3010001033318）に合併し解散,2019-03-25,1,,,,,キンセントリックジャパン,0
1551,6010403029695,登記記録の閉鎖等,0,2024-10-16,2024-09-19,ＦＥＭＩＲＥＬ合同会社,,合同会社,東京都,港区,南青山２丁目２番１５号ＷｉｎＡｏｙａｍａビルＵＣＦ６３５,,13,103,1070062,,,2024-09-19,清算の結了等,,,2023-03-20,1,,,,,フェミール,0
1554,6010405016510,登記記録の閉鎖等,0,2024-10-16,2024-09-20,一般社団法人コロンバス,,その他の設立登記法人,東京都,港区,虎ノ門３丁目２２番１０－２０１号,,13,103,1050001,,,2024-09-20,清算の結了等,,,2018-03-05,1,,,,,コロンバス,0
1566,6010703005223,登記記録の閉鎖等,0,2024-10-16,2024-10-07,合同会社ＴＯＫＹＯ　ｓｙｎｃ,,合同会社,東京都,品川区,旗の台２丁目４番２号,,13,109,1420064,,,2024-10-07,清算の結了等,,,2020-04-30,1,,,,,トウキョウシンク,0
1572,6010902008951,登記記録の閉鎖等,0,2024-10-16,2024-10-07,有限会社田中啓治郎造園,,有限会社,東京都,世田谷区,喜多見８丁目３番３号,,13,112,1570067,,,2024-10-07,清算の結了等,,,2015-10-05,1,,,,,,0
1580,6011003005987,登記記録の閉鎖等,0,2024-10-16,2024-09-19,プレンティオ合同会社,,合同会社,東京都,目黒区,東山３丁目１５番６号アン・セコンド東山２０５,,13,110,1530043,,,2024-09-19,清算の結了等,,,2015-10-05,1,,,,,プレンティオ,0
1584,6011101016135,登記記録の閉鎖等,0,2024-10-16,2024-10-09,パーソルワークスデザイン株式会社,,株式会社,東京都,豊島区,池袋２丁目６５番１８号,,13,116,1710014,,,2024-10-09,合併による解散等,7011101047237,令和６年１０月１日東京都江東区豊洲三丁目２番２０号パーソルビジネスプロセスデザイン株式会社（7011101047237）に合併し解散,2015-10-05,1,,,,,パーソルワークスデザイン,0
1613,6012401038026,登記記録の閉鎖等,0,2024-10-16,2024-09-20,株式会社ａｎｄ　Ｓｈｉｆｔ,,株式会社,東京都,港区,南青山３丁目５－２南青山第一韮澤ビル３階,,13,103,1070062,,,2024-09-20,清算の結了等,,,2021-06-23,1,,,,,アンドシフト,0
1642,6021005012147,登記記録の閉鎖等,0,2024-10-16,2024-10-11,一般社団法人エムエフワイ,,その他の設立登記法人,神奈川県,相模原市南区,相模大野７丁目８番１２号,,14,153,2520303,,,2024-10-11,清算の結了等,,,2021-03-15,1,,,,,エムエフワイ,0
1668,6040003021901,登記記録の閉鎖等,0,2024-10-16,2024-10-04,ＡＵＲＵＭ合同会社,,合同会社,千葉県,市原市,姉崎７９７番地１０,,12,219,2990111,,,2024-10-04,清算の結了等,,,2023-02-14,1,,,,,オーラム,0
1676,6060001030431,登記記録の閉鎖等,0,2024-10-16,2024-10-09,株式会社Ｐｌａｙ　ｗｉｔｈ　ｎａｔｕｒｅ,,株式会社,栃木県,那須郡那須町,大字湯本２０５番地,,09,407,3250301,,,2024-10-09,清算の結了等,,,2018-04-10,1,,,,,プレイウイッズネイチャー,0
1684,6080001017716,登記記録の閉鎖等,0,2024-10-16,2024-10-08,株式会社サンライト,,株式会社,静岡県,藤枝市,瀬戸新屋１５０番地の２入久コーポ１０２号,,22,214,4260075,,,2024-10-08,清算の結了等,,,2015-10-05,1,,,,,サンライト,0
1686,6080401016061,登記記録の閉鎖等,0,2024-10-16,2024-10-15,株式会社ラプラス,,株式会社,静岡県,磐田市,中泉２２８０番地の１４,,22,211,4380078,,,2024-10-15,清算の結了等,,,2015-10-05,1,,,,,ラプラス,0
1709,6120901002333,登記記録の閉鎖等,0,2024-10-16,2024-10-08,株式会社吉利,,株式会社,大阪府,茨木市,安威１丁目２０番１８号,00033295,27,211,5670001,,,2024-10-08,清算の結了等,,,2015-10-05,1,,,,,ヨシリ,0
1733,6150001023070,登記記録の閉鎖等,0,2024-10-16,2024-10-11,株式会社吉田,00116796,株式会社,奈良県,葛城市,尺土３０７番地,,29,211,6392162,,,2024-10-11,清算の結了等,,,2019-06-06,1,,,,,ヨシダ,0
1735,6150002004029,登記記録の閉鎖等,0,2024-10-16,2024-10-15,有限会社エスペランサー,,有限会社,奈良県,生駒市,北新町１６番１０号,,29,209,6300245,,,2024-10-15,清算の結了等,,,2015-10-05,1,,,,,,0
1745,6180001158847,登記記録の閉鎖等,0,2024-10-16,2024-10-03,株式会社エヌ・ケイホールディングス,,株式会社,愛知県,一宮市,大和町毛受字正寺３１番地,,23,203,4910932,,,2024-10-03,合併による解散等,6180001084795,令和６年１０月１日愛知県一宮市大和町毛受字正寺１６番地株式会社エヌ・ケイプランニング（6180001084795）に合併し解散,2023-11-08,1,,,,,エヌケイホールディングス,0
1752,6180002047792,登記記録の閉鎖等,0,2024-10-16,2024-10-07,有限会社エーサイド,,有限会社,愛知県,西尾市,田貫町深田５番地２,,23,213,4440301,,,2024-10-07,清算の結了等,,,2015-10-05,1,,,,,エーサイド,0
1755,6190001021905,登記記録の閉鎖等,0,2024-10-16,2024-10-10,伊勢湾トラスト株式会社,,株式会社,三重県,鳥羽市,堅神町８６３番地の１,,24,211,5170014,,,2024-10-10,清算の結了等,,,2015-10-05,1,,,,,イセワントラスト,0
1758,6200001000733,登記記録の閉鎖等,0,2024-10-16,2024-10-10,株式会社大島商会,,株式会社,岐阜県,岐阜市,此花町１丁目４番地,,21,201,5008333,,,2024-10-10,合併による解散等,2180001004261,令和６年１０月１日名古屋市中区大須四丁目１０番３２号十合刈谷酸素株式会社（2180001004261）に合併し解散,2015-10-05,1,,,,,オオシマショウカイ,0
1784,6350001012755,登記記録の閉鎖等,0,2024-10-16,2024-10-07,株式会社ｔｓｕｎａｇｕ,,株式会社,宮崎県,宮崎市,老松２丁目２番４０号ＭＪＲザ・ガーデン宮崎駅前４０２号,,45,201,8800801,,,2024-10-07,清算の結了等,,,2015-10-05,1,,,,,ツナグ,0
1810,6480002009291,登記記録の閉鎖等,0,2024-10-16,2024-10-11,有限会社新居木工所,,有限会社,徳島県,吉野川市,鴨島町上下島２７０番地の１,,36,205,7760013,,,2024-10-11,清算の結了等,,,2015-10-05,1,,,,,ニイモッコウショ,0
1811,6480002012106,登記記録の閉鎖等,0,2024-10-16,2024-10-11,三協製材有限会社,,有限会社,徳島県,板野郡北島町,北村字神屋敷３２番地２,,36,402,7710201,,,2024-10-11,清算の結了等,,,2015-10-05,1,,,,,サンキョウセイザイ,0
1812,6500001006758,登記記録の閉鎖等,0,2024-10-16,2024-10-10,株式会社三葉不動産,,株式会社,愛媛県,松山市,東垣生町１７０番地１,,38,201,7918043,,,2024-10-10,清算の結了等,,,2015-10-05,1,,,,,ミツバフドウサン,0
1837,7010401060503,登記記録の閉鎖等,0,2024-10-16,2024-10-01,ゼットラボ株式会社,,株式会社,東京都,千代田区,紀尾井町１番３号,,13,101,1020094,,,2024-10-01,合併による解散等,4010401039979,令和６年１０月１日東京都千代田区紀尾井町１番３号ＬＩＮＥヤフー株式会社（4010401039979）に合併し解散,2015-10-05,1,,,,,ゼットラボ,0
1838,7010401125082,登記記録の閉鎖等,0,2024-10-16,2024-09-20,株式会社ナチュレ・ジャパン,,株式会社,東京都,港区,芝大門２丁目１１番５号,,13,103,1050012,,,2024-09-20,清算の結了等,,,2016-05-30,1,,,,,ナチュレジャパン,0
1850,7010501012437,登記記録の閉鎖等,0,2024-10-16,2024-10-01,株式会社豊和インターナショナル,,株式会社,東京都,台東区,上野桜木１丁目１３番２号,,13,106,1100002,,,2024-10-01,合併による解散等,6010501000153,令和６年１０月１日東京都台東区上野桜木一丁目１３番２号旭鉱末株式会社（6010501000153）に合併し解散,2015-10-05,1,,,,,ホウワインターナショナル,0
1863,7011001102331,登記記録の閉鎖等,0,2024-10-16,2024-10-01,株式会社アルゴラボ,,株式会社,東京都,千代田区,神田錦町３丁目６番地４サンテミリオンお茶の水１１０１号,,13,101,1010054,,,2024-10-01,清算の結了等,,,2015-10-05,1,,,,,アルゴラボ,0
1899,7020001004776,登記記録の閉鎖等,0,2024-10-16,2024-10-01,伊藤鉄工株式会社,,株式会社,神奈川県,横浜市旭区,今宿南町２１４３番地の１,,14,112,2410034,,,2024-10-01,清算の結了等,,,2015-10-05,1,,,,,イトウテッコウ,0
1901,7020001051975,登記記録の閉鎖等,0,2024-10-16,2024-10-01,株式会社ＳＶＲ,,株式会社,神奈川県,横浜市金沢区,谷津町６０番地３,,14,108,2360016,,,2024-10-01,清算の結了等,,,2015-10-05,1,,,,,エスブイアール,0
1903,7020001136421,登記記録の閉鎖等,0,2024-10-16,2024-10-01,株式会社キースロック,,株式会社,神奈川県,川崎市麻生区,下麻生３丁目３９番５３－２号,,14,137,2150022,,,2024-10-01,清算の結了等,,,2020-06-09,1,,,,,キースロック,0
1913,7021001066435,登記記録の閉鎖等,0,2024-10-16,2024-10-15,相模ライフ株式会社,,株式会社,神奈川県,相模原市中央区,矢部２丁目１５番１１号１Ｆ,,14,152,2520232,,,2024-10-15,清算の結了等,,,2019-01-15,1,,,,,サガミライフ,0
1919,7021002038961,登記記録の閉鎖等,0,2024-10-16,2024-10-10,有限会社メルシイ,,有限会社,神奈川県,秦野市,寿町５番６号,,14,211,2570042,,,2024-10-10,清算の結了等,,,2015-10-05,1,,,,,,0
1920,7021002062276,登記記録の閉鎖等,0,2024-10-16,2024-10-15,有限会社きね彌本舗,,有限会社,神奈川県,平塚市,紅谷町５番１７号,,14,203,2540043,,,2024-10-15,清算の結了等,,,2015-10-05,1,,,,,,0
1923,7030002006143,登記記録の閉鎖等,0,2024-10-16,2024-09-27,有限会社三信商会,,有限会社,埼玉県,さいたま市西区,大字佐知川７９番地２,,11,101,3310064,,,2024-09-27,清算の結了等,,,2015-10-05,1,,,,,サンシンショウカイ,0
1926,7040001104888,登記記録の閉鎖等,0,2024-10-16,2024-10-08,株式会社リバースプロジェクト,,株式会社,千葉県,富里市,七栄６４６番地１４,,12,233,2860221,,,2024-10-08,清算の結了等,,,2018-06-07,1,,,,,リバースプロジェクト,0
1927,7040001124688,登記記録の閉鎖等,0,2024-10-16,2024-10-02,株式会社国際アルバトロス,,株式会社,千葉県,船橋市,高根台３丁目２番１８９棟５号,,12,204,2740065,,,2024-10-02,清算の結了等,,,2022-08-15,1,,,,,コクサイアルバトロス,0
1934,7040005007708,登記記録の閉鎖等,0,2024-10-16,2024-10-07,特定非営利活動法人まちづくり支援ネットワーク佐倉,,その他の設立登記法人,千葉県,佐倉市,鏑木町２丁目２番地２０,,12,212,2850025,,,2024-10-07,清算の結了等,,,2015-10-05,1,,,,,マチヅクリシエンネットワークサクラ,0
1935,7050001012958,登記記録の閉鎖等,0,2024-10-16,2024-10-07,株式会社アンドノア,,株式会社,茨城県,土浦市,中荒川沖町２８番１－７０４号,,08,203,3000875,,,2024-10-07,清算の結了等,,,2015-10-05,1,,,,,アンドノア,0
1941,7060003003896,登記記録の閉鎖等,0,2024-10-16,2024-10-10,栃木軽送合同会社,,合同会社,栃木県,宇都宮市,峰町２７２番地４キャッスル峰壱番館１０２号室,,09,201,3210943,,,2024-10-10,清算の結了等,,,2021-12-08,1,,,,,トチギケイソウ,0
1943,7070002034470,登記記録の閉鎖等,0,2024-10-16,2024-10-10,有限会社ＹＭＥ,,有限会社,群馬県,館林市,朝日町２１番３８号,,10,207,3740063,,,2024-10-10,清算の結了等,,,2015-10-05,1,,,,,,0
1946,7080002011048,登記記録の閉鎖等,0,2024-10-16,2024-10-04,有限会社富士屋,,有限会社,静岡県,静岡市清水区,万世町１丁目３番１号,,22,103,4240826,,,2024-10-04,清算の結了等,,,2015-10-05,1,,,,,フジヤ,0
1952,7120001027593,登記記録の閉鎖等,0,2024-10-16,2024-09-19,信栄建設工業株式会社,,株式会社,大阪府,大阪市大正区,南恩加島５丁目５番１６号,,27,108,5510021,,,2024-09-19,清算の結了等,,,2024-05-07,1,,,,,シンエイケンセツコウギョウ,0
1962,7120001236310,登記記録の閉鎖等,0,2024-10-16,2024-10-10,株式会社デジタルイノベーション,,株式会社,大阪府,大阪市北区,曾根崎新地２丁目６番２３号,,27,127,5300002,,,2024-10-10,清算の結了等,,,2021-03-31,1,,,,,デジタルイノベーション,0
1968,7120002040380,登記記録の閉鎖等,0,2024-10-16,2024-10-07,有限会社ベストスタッフ,,有限会社,大阪府,大阪市西区,新町３丁目５番７号,,27,106,5500013,,,2024-10-07,合併による解散等,3120001165406,令和６年１０月１日大阪市西区新町三丁目５番７号株式会社アドミック・リンク（3120001165406）に合併し解散,2015-10-05,1,,,,,ベストスタッフ,0
1978,7120901042386,登記記録の閉鎖等,0,2024-10-16,2024-10-09,株式会社日本栄養食品研究所,,株式会社,大阪府,茨木市,南春日丘１丁目１７番２７号,,27,211,5670046,,,2024-10-09,清算の結了等,,,2020-02-19,1,,,,,ニホンエイヨウショクヒンケンキュウジョ,0
1983,7122001027672,登記記録の閉鎖等,0,2024-10-16,2024-10-10,株式会社楽風土,,株式会社,大阪府,大東市,赤井１丁目１番５号,,27,218,5740046,,,2024-10-10,合併による解散等,6120901025474,令和６年１０月１日大阪府豊中市庄内宝町一丁目４番１号株式会社富士塗装工業所（6120901025474）に合併し解散,2015-10-05,1,,,,,,0
1987,7140001108474,登記記録の閉鎖等,0,2024-10-16,2024-10-10,株式会社ＦＯＰＥ,,株式会社,兵庫県,明石市,大久保町大久保町４４９－４,,28,203,6740067,,,2024-10-10,清算の結了等,,,2017-12-11,1,,,,,,0
2001,7170005003520,登記記録の閉鎖等,0,2024-10-16,2024-10-11,医療法人山本小児科医院,,その他の設立登記法人,和歌山県,田辺市,湊４７番３５号,,30,206,6460031,,,2024-10-11,清算の結了等,,,2015-10-05,1,,,,,ヤマモトショウニカイイン,0
2014,7190001011731,登記記録の閉鎖等,0,2024-10-16,2024-10-07,株式会社ＪＢＳ,,株式会社,三重県,松阪市,井村町４３２番地,,24,204,5150817,,,2024-10-07,清算の結了等,,,2015-10-05,1,,,,,ジェービーエス,0
2020,7200002017619,登記記録の閉鎖等,0,2024-10-16,2024-10-11,有限会社高木クレーン,,有限会社,岐阜県,美濃加茂市,加茂野町今泉１３４１番地,,21,211,5050052,,,2024-10-11,清算の結了等,,,2015-10-05,1,,,,,タカギクレーン,0
2021,7220001020662,登記記録の閉鎖等,0,2024-10-16,2024-10-07,株式会社ビジネスデザインラボ,,株式会社,石川県,金沢市,三社町６番２０号,,17,201,9200861,,,2024-10-07,清算の結了等,,,2015-11-17,1,,,,,ビジネスデザインラボ,0
2022,7220002000721,登記記録の閉鎖等,0,2024-10-16,2024-10-08,有限会社ヨシモト,,有限会社,石川県,野々市市,粟田２丁目１０４番地,,17,212,9218823,,,2024-10-08,清算の結了等,,,2015-10-05,1,,,,,,0
2024,7220002004697,登記記録の閉鎖等,0,2024-10-16,2024-10-07,有限会社畠山商店,,有限会社,石川県,金沢市,小池町レ４２番地,,17,201,9200162,,,2024-10-07,清算の結了等,,,2015-10-05,1,,,,,,0
2026,7220002006082,登記記録の閉鎖等,0,2024-10-16,2024-10-09,有限会社山田建築デザイン工房,,有限会社,石川県,金沢市,三口新町４丁目６番１４号,,17,201,9200944,,,2024-10-09,清算の結了等,,,2015-10-05,1,,,,,ヤマダケンチクデザインコウボウ,0
2041,7280005003988,登記記録の閉鎖等,0,2024-10-16,2024-10-03,特定非営利活動法人大社ご縁ネットワーク,,その他の設立登記法人,島根県,出雲市,大社町杵築南１３２７番地２,,32,203,6990711,,,2024-10-03,清算の結了等,,,2015-10-05,1,,,,,タイシャゴエンネットワーク,0
2060,7310001013649,登記記録の閉鎖等,0,2024-10-16,2024-10-03,株式会社とどろき,,株式会社,長崎県,南島原市,深江町丁８７６番地１,,42,214,8591504,,,2024-10-03,清算の結了等,,,2015-10-05,1,,,,,トドロキ,0
2096,7500002010642,登記記録の閉鎖等,0,2024-10-16,2024-10-08,えひめ宅地販売株式会社,,株式会社,愛媛県,松山市,勝山町２丁目４番地７,,38,201,7900878,,,2024-10-08,合併による解散等,8500001004025,令和６年１０月１日愛媛県松山市勝山町二丁目４番地７株式会社ミツワ都市開発（8500001004025）に合併し解散,2015-10-05,1,,,,,,0
2115,8010401164889,登記記録の閉鎖等,0,2024-10-16,2024-09-20,ファイブスタープランニング株式会社,,株式会社,東京都,港区,南青山６丁目１０－９,,13,103,1070062,,,2024-09-20,清算の結了等,,,2022-01-17,1,,,,,ファイブスタープランニング,0
2125,8010701018992,登記記録の閉鎖等,0,2024-10-16,2024-10-08,ウィンディヒル株式会社,,株式会社,東京都,品川区,西中延３丁目１５番２号,,13,109,1420054,,,2024-10-08,清算の結了等,,,2015-10-05,1,,,,,ウィンディヒル,0
2137,8011005006800,登記記録の閉鎖等,0,2024-10-16,2024-10-07,一般社団法人日本須麻比協会,,その他の設立登記法人,千葉県,千葉市美浜区,真砂２丁目２４番３号,,12,106,2610011,,,2024-10-07,清算の結了等,,,2016-06-09,1,,,,,ニホンスマヒキョウカイ,0
2140,8011101037303,登記記録の閉鎖等,0,2024-10-16,2024-10-03,株式会社ミュージック・テイト,,株式会社,東京都,新宿区,西新宿７丁目８番３号,,13,104,1600023,,,2024-10-03,清算の結了等,,,2015-10-05,1,,,,,ミュージックテイト,0
2154,8011601027407,登記記録の閉鎖等,0,2024-10-16,2024-10-08,株式会社ムツビ,,株式会社,東京都,練馬区,上石神井２丁目３７番３５号ＳＴＳハイム２０１,,13,120,1770044,,,2024-10-08,清算の結了等,,,2023-12-25,1,,,,,ムツビ,0
2164,8012402001286,登記記録の閉鎖等,0,2024-10-16,2024-10-15,有限会社新生自動車販売,,有限会社,東京都,府中市,天神町２丁目１９番地の２５,,13,206,1830053,,,2024-10-15,清算の結了等,,,2015-10-05,1,,,,,シンセイジドウシャハンバイ,0
2165,8012803002908,登記記録の閉鎖等,0,2024-10-16,2024-10-04,合同会社ハヤシライス,,合同会社,東京都,日野市,三沢２丁目３８番地の６,,13,212,1910032,,,2024-10-04,清算の結了等,,,2022-10-28,1,,,,,ハヤシライス,0
2169,8013301050952,登記記録の閉鎖等,0,2024-10-16,2024-10-08,株式会社地域創生事業マネジメント,,株式会社,東京都,世田谷区,池尻３丁目２８番７－１０２号,,13,112,1540001,,,2024-10-08,清算の結了等,,,2023-06-26,1,,,,,チイキソウセイジギョウマネジメント,0
2179,8020003025423,登記記録の閉鎖等,0,2024-10-16,2024-10-01,合同会社ＢＩＧ　ＥＹＥ,,合同会社,神奈川県,横浜市旭区,金が谷２丁目３２番２４号,,14,112,2410812,,,2024-10-01,清算の結了等,,,2024-01-23,1,,,,,ビッグアイ,0
2187,8021001033194,登記記録の閉鎖等,0,2024-10-16,2024-09-20,株式会社丸う田代,,株式会社,神奈川県,小田原市,浜町３丁目６番１３号,,14,206,2500004,,,2024-09-20,清算の結了等,,,2015-10-05,1,,,,,,0
2210,8040002087974,登記記録の閉鎖等,0,2024-10-16,2024-10-07,有限会社東総ファーム,,有限会社,千葉県,香取郡東庄町,小南２４２１番地,,12,349,2890624,,,2024-10-07,清算の結了等,,,2015-10-05,1,,,,,トウソウファーム,0
2220,8070001001256,登記記録の閉鎖等,0,2024-10-16,2024-10-01,コンピュートロン株式会社,,株式会社,東京都,中央区,日本橋本町４丁目８番１４号,,13,102,1030023,,,2024-10-01,合併による解散等,2010001095739,令和６年１０月１日東京都中央区日本橋本町四丁目８番１４号株式会社マーブル（2010001095739）に合併し解散,2015-10-05,1,,,,,コンピュートロン,0
2225,8070002003854,登記記録の閉鎖等,0,2024-10-16,2024-10-10,有限会社戸丸建築設計事務所,,有限会社,群馬県,前橋市,堀之下町１７８番地５,,10,201,3710005,,,2024-10-10,清算の結了等,,,2015-10-05,1,,,,,トマルケンチクセッケイジムショ,0
2226,8070002007228,登記記録の閉鎖等,0,2024-10-16,2024-10-11,株式会社ディジャパン,,株式会社,群馬県,前橋市,上泉町４５８番地１,,10,201,3710007,,,2024-10-11,清算の結了等,,,2015-10-05,1,,,,,,0
2235,8110001006242,登記記録の閉鎖等,0,2024-10-16,2024-10-03,株式会社アイピー,,株式会社,新潟県,新潟市中央区,米山２丁目７番地４,,15,103,9500916,,,2024-10-03,合併による解散等,5110001000165,令和６年１０月１日新潟市中央区米山二丁目７番地４株式会社アイ・シー・オー（5110001000165）に合併し解散,2015-10-05,1,,,,,アイピー,0
2238,8120001050751,登記記録の閉鎖等,0,2024-10-16,2024-10-10,株式会社三島製作所,,株式会社,大阪府,大阪市西淀川区,姫島３丁目７番１１号,,27,113,5550033,,,2024-10-10,清算の結了等,,,2015-10-05,1,,,,,ミシマセイサクショ,0
2239,8120001062912,登記記録の閉鎖等,0,2024-10-16,2024-10-15,株式会社共信運送,,株式会社,大阪府,大阪市北区,天満４丁目１１番８号,,27,127,5300043,,,2024-10-15,清算の結了等,,,2015-10-05,1,,,,,キョウシンウンソウ,0
2259,8120902010110,登記記録の閉鎖等,0,2024-10-16,2024-10-08,有限会社クローバテクノス,,有限会社,大阪府,高槻市,竹の内町４２番１１号,,27,207,5690043,,,2024-10-08,清算の結了等,,,2015-10-05,1,,,,,クローバテクノス,0
2271,8140001037020,登記記録の閉鎖等,0,2024-10-16,2024-10-08,株式会社フルヤ商店,,株式会社,兵庫県,三木市,吉川町畑枝１９－１,,28,215,6731112,,,2024-10-08,清算の結了等,,,2015-10-05,1,,,,,フルヤショウテン,0
2279,8140002040031,登記記録の閉鎖等,0,2024-10-16,2024-10-07,有限会社上田屋,,有限会社,兵庫県,尼崎市,建家町１１６番地の２,,28,202,6600871,,,2024-10-07,清算の結了等,,,2015-10-05,1,,,,,ウエダヤ,0
2295,8180002071601,登記記録の閉鎖等,0,2024-10-16,2024-10-03,有限会社オザキフォトストーリー,,有限会社,愛知県,瀬戸市,陶原町３丁目２９番地,,23,204,4890805,,,2024-10-03,清算の結了等,,,2015-10-05,1,,,,,オザキフォトストーリー,0
2299,8180005012833,登記記録の閉鎖等,0,2024-10-16,2024-10-11,特定非営利活動法人日タイ里親協会,,その他の設立登記法人,愛知県,知多郡阿久比町,大字白沢字ミノカケ６番地３７,,23,441,4702201,,,2024-10-11,清算の結了等,,,2015-10-05,1,,,,,ニッタイサトオヤキョウカイ,0
2301,8180301030398,登記記録の閉鎖等,0,2024-10-16,2024-10-07,エービーシー株式会社,,株式会社,愛知県,刈谷市,一ツ木町竹下９０番地,,23,210,4480003,,,2024-10-07,清算の結了等,,,2017-06-02,1,,,,,エービーシー,0
2303,8190001004899,登記記録の閉鎖等,0,2024-10-16,2024-10-11,オーラムメディカル株式会社,,株式会社,三重県,鈴鹿市,東磯山２丁目１番３２号,,24,207,5100257,,,2024-10-11,合併による解散等,8010901009619,令和６年１０月１日東京都世田谷区宮坂三丁目１２番１７号株式会社ハートライフ（8010901009619）に合併し解散,2015-10-05,1,,,,,オーラムメディカル,0
2306,8200002006686,登記記録の閉鎖等,0,2024-10-16,2024-10-15,有限会社ワークス,,有限会社,岐阜県,岐阜市,西島町３番５号,,21,201,5020912,,,2024-10-15,清算の結了等,,,2015-10-05,1,,,,,,0
2307,8200005005743,登記記録の閉鎖等,0,2024-10-16,2024-10-15,特定非営利活動法人まち創り,,その他の設立登記法人,岐阜県,大垣市,藤江町２丁目１９２番地１レールシティ大垣７０１号,,21,202,5030893,,,2024-10-15,清算の結了等,,,2015-10-05,1,,,,,マチヅクリ,0
2311,8240002033652,登記記録の閉鎖等,0,2024-10-16,2024-10-07,有限会社西岡官業,,有限会社,広島県,呉市,広白岳４丁目２０番８号,,34,202,7370144,,,2024-10-07,清算の結了等,,,2015-10-05,1,,,,,ニシオカカンギョウ,0
2332,8330002017984,登記記録の閉鎖等,0,2024-10-16,2024-10-07,有限会社ヘルシーサンライフ,,有限会社,熊本県,菊池市,龍門６４４番地,,43,210,8611672,,,2024-10-07,清算の結了等,,,2015-10-05,1,,,,,,0
2343,8370002004888,登記記録の閉鎖等,0,2024-10-16,2024-09-30,有限会社恭和企画,,有限会社,宮城県,仙台市若林区,一本杉町７番１５号,,04,103,9840828,,,2024-09-30,清算の結了等,,,2015-10-05,1,,,,,キョウワキカク,0
2347,8380001001605,登記記録の閉鎖等,0,2024-10-16,2024-10-08,北部通信工業株式会社,,株式会社,福島県,福島市,伏拝字沖２７番地の１,,07,201,9608154,,,2024-10-08,合併による解散等,8011601003630,令和６年１０月１日東京都世田谷区池尻三丁目１番３号株式会社セコニック（8011601003630）に合併し解散,2015-10-05,1,,,,,ホクブツウシンコウギョウ,0
2349,8400002011055,登記記録の閉鎖等,0,2024-10-16,2024-09-30,有限会社ミヤ電気商会,,有限会社,岩手県,下閉伊郡山田町,長崎２丁目１番１５号,,03,482,0281351,,,2024-09-30,清算の結了等,,,2015-10-05,1,,,,,ミヤデンキショウカイ,0
2369,9010001118600,登記記録の閉鎖等,0,2024-10-16,2024-10-01,株式会社ユキ,,株式会社,東京都,国立市,西１丁目１１番地の６,,13,215,1860005,,,2024-10-01,合併による解散等,1012401003711,令和６年１０月１日東京都国立市富士見台四丁目７番地の１１株式会社東京さえき（1012401003711）に合併し解散,2015-10-05,1,,,,,ユキ,0
2375,9010001170097,登記記録の閉鎖等,0,2024-10-16,2024-10-01,株式会社ＰＳブレイン,,株式会社,東京都,中央区,日本橋兜町１番１０号,,13,102,1030026,,,2024-10-01,合併による解散等,2010001086408,令和６年１０月１日東京都中央区日本橋兜町１番１０号株式会社スータブル・ソリューションズ（2010001086408）に合併し解散,2015-10-05,1,,,,,ピーエスブレイン,0
2378,9010001222088,登記記録の閉鎖等,0,2024-10-16,2024-10-01,勝村経営コンサルタント株式会社,,株式会社,東京都,文京区,千石３丁目１７番４－１０１号,,13,105,1120011,,,2024-10-01,清算の結了等,,,2021-10-28,1,,,,,カツムラケイエイコンサルタント,0
2379,9010001229918,登記記録の閉鎖等,0,2024-10-16,2024-10-01,日新製糖株式会社,,株式会社,東京都,中央区,日本橋小網町１４番１号,,13,102,1030016,,,2024-10-01,合併による解散等,2010001142672,令和６年１０月１日東京都中央区日本橋小網町１４番１号ウェルネオシュガー株式会社（2010001142672）に合併し解散,2022-10-05,1,,,,,ニッシンセイトウ,0
2383,9010001245782,登記記録の閉鎖等,0,2024-10-16,2024-10-04,エヌビーエス株式会社,,株式会社,東京都,千代田区,大手町１丁目３番１号,,13,101,1000004,,,2024-10-04,合併による解散等,6010001023019,令和６年１０月１日東京都千代田区麹町二丁目１４番地アイング株式会社（6010001023019）に合併し解散,2024-06-21,1,,,,,エヌビーエス,0
2387,9010003033335,登記記録の閉鎖等,0,2024-10-16,2024-10-01,ＳＡＫＵＲＡ－ＨＡＣＨＩ合同会社,,合同会社,東京都,中央区,銀座１丁目６番１１号土志田ビルディング３Ｆ,,13,102,1040061,,,2024-10-01,清算の結了等,,,2020-10-28,1,,,,,サクラハチ,0
2389,9010005024209,登記記録の閉鎖等,0,2024-10-16,2024-10-10,一般社団法人日本ライフサイエンス教育振興協会,,その他の設立登記法人,東京都,中央区,銀座１丁目１２番４号Ｎ＆ＥＢＬＤ．６Ｆ,,13,102,1040061,,,2024-10-10,清算の結了等,,,2015-10-05,1,,,,,ニホンライフサイエンスキョウイクシンコウキョウカイ,0
2398,9010401135138,登記記録の閉鎖等,0,2024-10-16,2024-10-01,株式会社コミュニティシップ,,株式会社,東京都,中央区,銀座７丁目１７番２号アーク銀座ビルディング７階,,13,102,1040061,,,2024-10-01,清算の結了等,,,2017-11-24,1,,,,,コミュニティシップ,0
2402,9010405014230,登記記録の閉鎖等,0,2024-10-16,2024-10-04,一般社団法人メディカルコンベンションサービス,,その他の設立登記法人,東京都,新宿区,新宿２丁目４番２号,,13,104,1600022,,,2024-10-04,清算の結了等,,,2015-10-05,1,,,,,メディカルコンベンションサービス,0
2408,9010601001858,登記記録の閉鎖等,0,2024-10-16,2024-10-11,株式会社サンエー,,株式会社,東京都,江東区,東陽３丁目１３番１号,,13,108,1350016,,,2024-10-11,合併による解散等,1010501013440,令和６年１０月１日東京都台東区浅草橋五丁目２５番２号株式会社ブンカ（1010501013440）に合併し解散,2015-10-05,1,,,,,サンエー,0
2413,9010801014684,登記記録の閉鎖等,0,2024-10-16,2024-10-04,蒲田管財株式会社,,株式会社,東京都,大田区,蒲田５丁目３８番３号,,13,111,1440052,,,2024-10-04,清算の結了等,,,2015-10-05,1,,,,,カマタカンザイ,0
2436,9011501019833,登記記録の閉鎖等,0,2024-10-16,2024-10-01,株式会社アソシエーション,,株式会社,神奈川県,横浜市中区,長者町５丁目５６番地１,,14,104,2310033,,,2024-10-01,合併による解散等,7020001027587,令和６年１０月１日横浜市中区長者町五丁目５６番地１株式会社千歳観光（7020001027587）に合併し解散,2015-10-05,1,,,,,アソシエーション,0
2444,9013202011697,登記記録の閉鎖等,0,2024-10-16,2024-10-11,株式会社モナークジャパン,,株式会社,東京都,目黒区,碑文谷５丁目２９番８号,,13,110,1520003,,,2024-10-11,合併による解散等,2120102020683,令和６年９月２７日大阪府岸和田市藤井町一丁目１２番１３号株式会社石塚（2120102020683）に合併し解散,2015-10-05,1,,,,,モナークジャパン,0
2445,9013301041868,登記記録の閉鎖等,0,2024-10-16,2024-10-03,株式会社ＳｅｃｏｎｄＧａｔｅ,,株式会社,東京都,新宿区,高田馬場４丁目４０番１１号ユニゾ高田馬場看山ビル１０Ｆ,,13,104,1690075,,,2024-10-03,清算の結了等,,,2018-02-27,1,,,,,セカンドゲート,0
2458,9020002087182,登記記録の閉鎖等,0,2024-10-16,2024-10-01,有限会社根本工務店,,有限会社,神奈川県,川崎市宮前区,神木本町４丁目７番１８号,,14,136,2160031,,,2024-10-01,合併による解散等,8020001081328,令和６年１０月１日神奈川県川崎市高津区溝口一丁目１４番８号株式会社エヌアセット（8020001081328）に合併し解散,2015-10-05,1,,,,,ネモトコウムテン,0
2489,9030002115850,登記記録の閉鎖等,0,2024-10-16,2024-10-07,有限会社鈴木建設,,有限会社,埼玉県,大里郡寄居町,大字用土３７３３番地１,,11,408,3691201,,,2024-10-07,清算の結了等,,,2015-10-05,1,,,,,スズキケンセツ,0
2490,9030003015331,登記記録の閉鎖等,0,2024-10-16,2024-10-07,株式会社星月,,株式会社,埼玉県,日高市,大字台４１番地４,,11,242,3501253,,,2024-10-07,清算の結了等,,,2020-06-01,1,,,,,ホシツキ,0
2494,9040001055808,登記記録の閉鎖等,0,2024-10-16,2024-10-08,株式会社橋本工業所,,株式会社,千葉県,市原市,千種１丁目７番地１,,12,219,2990109,,,2024-10-08,清算の結了等,,,2015-10-05,1,,,,,ハシモトコウギョウショ,0
2499,9040002001645,登記記録の閉鎖等,0,2024-10-16,2024-10-08,有限会社エイパック,,有限会社,千葉県,千葉市稲毛区,稲毛東３丁目２０番１３号第二大越ビル８０４,,12,103,2630031,,,2024-10-08,清算の結了等,,,2015-10-05,1,,,,,エイパック,0
2500,9040002022237,登記記録の閉鎖等,0,2024-10-16,2024-10-08,有限会社斉藤薬局,,有限会社,千葉県,船橋市,西船４丁目２２番４号,,12,204,2730031,,,2024-10-08,清算の結了等,,,2015-10-05,1,,,,,サイトウヤッキョク,0
2506,9050001022939,登記記録の閉鎖等,0,2024-10-16,2024-10-04,株式会社ディプラント,,株式会社,茨城県,日立市,高鈴町５丁目４番１２号,,08,202,3170066,,,2024-10-04,清算の結了等,,,2015-10-05,1,,,,,ディプラント,0
2520,9070002020774,登記記録の閉鎖等,0,2024-10-16,2024-10-11,有限会社シンコーエンジニア,,有限会社,群馬県,佐波郡玉村町,大字上之手２２７２番地３,,10,464,3701127,,,2024-10-11,清算の結了等,,,2015-10-05,1,,,,,シンコーエンジニア,0
2521,9070002031359,登記記録の閉鎖等,0,2024-10-16,2024-10-08,山川電設有限会社,,有限会社,群馬県,太田市,新田早川町６５５番地,,10,205,3700344,,,2024-10-08,清算の結了等,,,2015-10-05,1,,,,,ヤマカワデンセツ,0
2523,9080005003973,登記記録の閉鎖等,0,2024-10-16,2024-10-08,一般社団法人庵原医師会,,その他の設立登記法人,静岡県,静岡市清水区,蒲原新栄６６番地の２,,22,103,4213202,,,2024-10-08,清算の結了等,,,2015-10-05,1,,,,,イハライシカイ,0
2532,9080405004217,登記記録の閉鎖等,0,2024-10-16,2024-10-03,一般社団法人労務経営支援協会,,その他の設立登記法人,静岡県,浜松市中央区,中野町１１６１番地の１,,22,138,4350004,,,2024-10-03,清算の結了等,,,2015-10-05,1,,,,,ロウムケイエイシエンキョウカイ,0
2540,9120001181760,登記記録の閉鎖等,0,2024-10-16,2024-10-10,株式会社ＢＲＡＶＥ,,株式会社,京都府,京都市下京区,奈良物町３７３ＨＩ－ＲＥＫＳビル６Ｆ,,26,106,6008004,,,2024-10-10,合併による解散等,7120001176457,令和６年１０月１日大阪市北区中之島三丁目３番３号中之島三井ビルディング２１Ｆ株式会社リンクスホールディングス（7120001176457）に合併し解散,2015-10-05,1,,,,,,0
2549,9120002049024,登記記録の閉鎖等,0,2024-10-16,2024-10-10,有限会社コスモス,,有限会社,大阪府,大阪市西淀川区,御幣島６丁目１１番４６－１０１号,,27,113,5550012,,,2024-10-10,清算の結了等,,,2015-10-05,1,,,,,コスモス,0
2552,9120105009874,登記記録の閉鎖等,0,2024-10-16,2024-10-08,一般財団法人りんくう医療技術国際交流財団,,その他の設立登記法人,大阪府,泉佐野市,りんくう往来南３番地の４１,,27,213,5980047,,,2024-10-08,清算の結了等,,,2024-07-04,1,,,,,リンクウイリョウギジュツコクサイコウリュウザイダン,0
2576,9160001021558,登記記録の閉鎖等,0,2024-10-16,2024-10-15,株式会社ジェイハープ,,株式会社,滋賀県,長浜市,大宮町３番１１号,,25,203,5260054,,,2024-10-15,清算の結了等,,,2019-04-01,1,,,,,ジェイハープ,0
2585,9180001157458,登記記録の閉鎖等,0,2024-10-16,2024-10-01,株式会社日本アシスト,,株式会社,愛知県,名古屋市守山区,向台１丁目１１０６Ｐｒｉｍｉｅｒｅ４Ｄ,,23,113,4630036,,,2024-10-01,清算の結了等,,,2023-08-07,1,,,,,ニホンアシスト,0
2598,9190001009591,登記記録の閉鎖等,0,2024-10-16,2024-10-11,株式会社東陽,,株式会社,三重県,名張市,つつじが丘南８番町１７８番地,,24,208,5180428,,,2024-10-11,清算の結了等,,,2015-10-05,1,,,,,トウヨウ,0
2601,9190002024029,登記記録の閉鎖等,0,2024-10-16,2024-10-10,有限会社松尾製陶所,,有限会社,三重県,三重郡菰野町,大字竹成１９２６番地,,24,341,5101312,,,2024-10-10,清算の結了等,,,2015-10-05,1,,,,,マツオセイトウショ,0
2615,9240001019718,登記記録の閉鎖等,0,2024-10-16,2024-10-07,株式会社サンシティパーキング,,株式会社,広島県,広島市中区,鉄砲町２番１８－９０５号,,34,101,7300017,,,2024-10-07,清算の結了等,,,2015-10-05,1,,,,,サンシティパーキング,0
2623,9280001005425,登記記録の閉鎖等,0,2024-10-16,2024-10-01,徳畑採石株式会社,,株式会社,島根県,隠岐郡隠岐の島町,飯田立石６番地２０,,32,528,6850004,,,2024-10-01,合併による解散等,1280001005424,令和６年１０月１日島根県隠岐郡隠岐の島町飯田津ノ井１８番徳畑建設株式会社（1280001005424）に合併し解散,2015-10-05,1,,,,,トクハタサイセキ,0
2624,9280001006357,登記記録の閉鎖等,0,2024-10-16,2024-10-15,株式会社メディカルサンライズ,,株式会社,島根県,松江市,春日町５４２－３エクセルハイツＭＡＴＳＵＯ１０１号室,,32,201,6900877,,,2024-10-15,清算の結了等,,,2015-10-05,1,,,,,メディカルサンライズ,0
2659,9410002010591,登記記録の閉鎖等,0,2024-10-16,2024-10-10,有限会社矢田部精肉店,,有限会社,秋田県,能代市,字機織轌ノ目２４５番地,,05,202,0160116,,,2024-10-10,清算の結了等,,,2015-10-05,1,,,,,ヤタベセイニクテン,0
2668,9460105001723,登記記録の閉鎖等,0,2024-10-16,2024-10-09,新得町スタンプ協同組合,,その他の設立登記法人,北海道,上川郡新得町,本通南１丁目２３番地,,01,635,0810008,,,2024-10-09,清算の結了等,,,2015-10-05,1,,,,,シントクチョウスタンプ,0
2674,9500002008577,登記記録の閉鎖等,0,2024-10-16,2024-10-10,有限会社東北建工,,有限会社,愛媛県,伊予郡松前町,大字筒井５５１番地３,,38,401,7913120,,,2024-10-10,清算の結了等,,,2015-10-05,1,,,,,トウホクケンコウ,0
