sequenceNumber,corporateNumber,process,correct,updateDate,changeDate,name,nameImageId,kind,prefectureName,cityName,streetNumber,addressImageId,prefectureCode,cityCode,postCode,addressOutside,addressOutsideImageId,closeDate,closeCause,successorCorporateNumber,changeCause,assignmentDate,latest,enName,enPrefectureName,enCityName,enAddressOutside,furigana,hihyoji
16,1010001235361,新規,0,2023-05-18,2023-05-18,株式会社ＣＯＢＬ,,株式会社,東京都,千代田区,内神田３丁目２４番４号９ＳＴＡＧＥｋａｎｄａ４Ｆ,,13,101,1010047,,,,,,,2023-05-18,1,,,,,コビル,0
17,1010001235386,新規,0,2023-05-18,2023-05-18,ＩＮＣＩＴＥ　Ｃｏｎｓｕｌｔｉｎｇ株式会社,,株式会社,東京都,千代田区,丸の内３丁目２番２号丸の内二重橋ビル２階・３階,,13,101,1000005,,,,,,,2023-05-18,1,,,,,インサイトコンサルティング,0
19,1010003040611,新規,0,2023-05-18,2023-05-18,シブトラディ合同会社,,合同会社,東京都,文京区,本駒込６丁目１３番１９号,,13,105,1130021,,,,,,,2023-05-18,1,,,,,シブトラディ,0
20,1010003040628,新規,0,2023-05-18,2023-05-18,合同会社日の出キャピタル,,合同会社,東京都,千代田区,丸の内１丁目６番５号,,13,101,1000005,,,,,,,2023-05-18,1,,,,,ヒノデキャピタル,0
21,1010005036707,新規,0,2023-05-18,2023-05-18,一般社団法人日本銀座抗老医療協会,,その他の設立登記法人,東京都,中央区,晴海３丁目１３－２－３５０５,,13,102,1040053,,,,,,,2023-05-18,1,,,,,ニホンギンザコウロウイリョウキョウカイ,0
36,1010501050450,新規,0,2023-05-18,2023-05-18,株式会社鴻川,,株式会社,東京都,台東区,北上野２丁目２番５号２０１室,,13,106,1100014,,,,,,,2023-05-18,1,,,,,コウガワ,0
37,1010501050475,新規,0,2023-05-18,2023-05-18,株式会社東葉,,株式会社,東京都,台東区,台東４丁目１番９号ＩＳＩ－２階,,13,106,1100016,,,,,,,2023-05-18,1,,,,,トウヨウ,0
38,1010503006995,新規,0,2023-05-18,2023-05-18,胡黄嫦蟒合同会社,,合同会社,東京都,台東区,浅草橋１丁目７番４－４Ｆ,,13,106,1110053,,,,,,,2023-05-18,1,,,,,ホコウチョウマン,0
41,1010701044269,新規,0,2023-05-18,2023-05-18,株式会社Ｏｎｆｆ,,株式会社,東京都,品川区,西五反田１丁目１８番９号五反田ＮＴビル５Ｆ,,13,109,1410031,,,,,,,2023-05-18,1,,,,,オンフ,0
42,1010701044277,新規,0,2023-05-18,2023-05-18,株式会社えつる,,株式会社,東京都,品川区,西五反田８丁目６番１－１０２号,,13,109,1410031,,,,,,,2023-05-18,1,,,,,エツル,0
46,1010901053012,新規,0,2023-05-18,2023-05-18,株式会社ｈａｍｍｏｃｋ,,株式会社,東京都,世田谷区,世田谷４丁目２１番６号,,13,112,1540017,,,,,,,2023-05-18,1,,,,,ハンモック,0
52,1011001154403,新規,0,2023-05-18,2023-05-18,株式会社よはく,,株式会社,東京都,目黒区,目黒本町１丁目３番１２号メゾン一会２０１,,13,110,1520002,,,,,,,2023-05-18,1,,,,,ヨハク,0
53,1011001154436,新規,0,2023-05-18,2023-05-18,株式会社Ｔｅｄｄｙ,,株式会社,東京都,渋谷区,神宮前６丁目２３番４号桑野ビル２階,,13,113,1500001,,,,,,,2023-05-18,1,,,,,テディ,0
56,1011101102906,新規,0,2023-05-18,2023-05-18,株式会社Ｑｕａｓａｒ,,株式会社,東京都,新宿区,中落合３丁目２７番８号ライブコア中井ＩＩ１０３,00130536,13,104,1610032,,,,,,,2023-05-18,1,,,,,クエーサー,0
67,1011701026249,新規,0,2023-05-18,2023-05-18,株式会社ＴＡＫＡＮＯ,,株式会社,東京都,江戸川区,西小岩１丁目６番１７号イナハウス２０１号,,13,123,1330057,,,,,,,2023-05-18,1,,,,,タカノ,0
68,1011705001784,新規,0,2023-05-18,2023-05-18,特定非営利活動法人障害者スポーツサポート・江戸川,,その他の設立登記法人,東京都,江戸川区,北葛西４丁目２３番１５号,,13,123,1340081,,,,,,,2023-05-18,1,,,,,ショウガイシャスポーツサポートエドガワ,0
72,1012301013455,新規,0,2023-05-18,2023-05-18,株式会社ランドクロス,,株式会社,東京都,町田市,南つくし野３丁目１番地３,,13,209,1940002,,,,,,,2023-05-18,1,,,,,ランドクロス,0
77,1012403005986,新規,0,2023-05-18,2023-05-18,合同会社Ｉｍｍｏｒｔａｌ,,合同会社,東京都,三鷹市,牟礼３丁目９番６－４０７号,,13,204,1810002,,,,,,,2023-05-18,1,,,,,イモータル,0
86,1020001151665,新規,0,2023-05-18,2023-05-18,株式会社ＡＩＺＡＷＡ,,株式会社,神奈川県,川崎市中原区,小杉町３丁目２０番地２アドヴァンス武蔵小杉４０１,,14,133,2110063,,,,,,,2023-05-18,1,,,,,アイザワ,0
87,1020001151681,新規,0,2023-05-18,2023-05-18,株式会社ＳＨコンサルティング,,株式会社,神奈川県,川崎市川崎区,東田町６番地１ジーベック川崎２０１,,14,131,2100005,,,,,,,2023-05-18,1,,,,,エスエイチコンサルティング,0
100,1021001079087,新規,0,2023-05-18,2023-05-18,株式会社タカモト,,株式会社,神奈川県,横須賀市,芦名２丁目２９番１号,,14,201,2400104,,,,,,,2023-05-18,1,,,,,タカモト,0
104,1021003013110,新規,0,2023-05-18,2023-05-18,合同会社新拓ハウス,,合同会社,神奈川県,相模原市南区,新磯野３丁目３０番９号,,14,153,2520325,,,,,,,2023-05-18,1,,,,,シンタクハウス,0
112,1030001153850,新規,0,2023-05-18,2023-05-18,サイファー株式会社,,株式会社,埼玉県,川口市,前川２丁目３６番１９号,,11,203,3330842,,,,,,,2023-05-18,1,,,,,サイファー,0
117,1030005021269,新規,0,2023-05-18,2023-05-18,一般社団法人ディセンドーラ吉川,,その他の設立登記法人,埼玉県,吉川市,中央１丁目１７番地４,,11,243,3420061,,,,,,,2023-05-18,1,,,,,ディセンドーラヨシカワ,0
123,1040003022631,新規,0,2023-05-18,2023-05-18,高彬興業合同会社,,合同会社,千葉県,千葉市美浜区,稲毛海岸１丁目２番１３棟２０４,,12,106,2610005,,,,,,,2023-05-18,1,,,,,コウヒンコウギョウ,0
134,1050003007516,新規,0,2023-05-18,2023-05-18,合同会社ＭＫＴＣ,,合同会社,茨城県,笠間市,安居１７１２番地３,,08,216,3190206,,,,,,,2023-05-18,1,,,,,エムケーティーシー,0
141,1080101024014,新規,0,2023-05-18,2023-05-18,株式会社Ｗ．ＥＳＴＡＴＥ,,株式会社,静岡県,富士市,柳島２２７番地の４,,22,210,4160932,,,,,,,2023-05-18,1,,,,,ダブルエステート,0
156,1120001254904,新規,0,2023-05-18,2023-05-18,海悦株式会社,,株式会社,大阪府,大阪市大正区,三軒家西３丁目４番１６号中山ビル３０９Ａ,,27,108,5510001,,,,,,,2023-05-18,1,,,,,カイセツ,0
157,1120001254953,新規,0,2023-05-18,2023-05-18,株式会社エヌオー,,株式会社,大阪府,大阪市生野区,林寺２丁目１６番１－１０３号,,27,116,5440023,,,,,,,2023-05-18,1,,,,,エヌオー,0
158,1120001254961,新規,0,2023-05-18,2023-05-18,株式会社レムリア,,株式会社,大阪府,大阪市中央区,瓦町３丁目２番１０号,,27,128,5410048,,,,,,,2023-05-18,1,,,,,レムリア,0
159,1120001254986,新規,0,2023-05-18,2023-05-18,永馳株式会社,,株式会社,大阪府,大阪市中央区,島之内１丁目１１－２９,,27,128,5420082,,,,,,,2023-05-18,1,,,,,ナガハセ,0
160,1120001255002,新規,0,2023-05-18,2023-05-18,株式会社ＸＰＪ,,株式会社,大阪府,大阪市北区,梅田１丁目１番３号大阪駅前第３ビル２５Ｆ,,27,127,5300001,,,,,,,2023-05-18,1,,,,,エックスピージェー,0
161,1120001255051,新規,0,2023-05-18,2023-05-18,株式会社大進警備保障,,株式会社,大阪府,大阪市中央区,北新町３番１１号グランドールビル８Ｆ,,27,128,5400023,,,,,,,2023-05-18,1,,,,,ダイシンケイビホショウ,0
166,1120101067553,新規,0,2023-05-18,2023-05-18,株式会社かわぐち農園,,株式会社,大阪府,貝塚市,澤１１４５番地,,27,208,5970062,,,,,,,2023-05-18,1,,,,,カワグチノウエン,0
169,1120103005222,新規,0,2023-05-18,2023-05-18,合同会社ＥＭＯ,,合同会社,大阪府,堺市堺区,翁橋１－８－１１ヴィラペントハウス堺東５０３号,,27,141,5900000,,,,,,,2023-05-18,1,,,,,エモ,0
173,1130001074293,新規,0,2023-05-18,2023-05-18,株式会社佐伯建築研究所,,株式会社,京都府,京都市下京区,烏丸通七条下る東塩小路町７２９番地丸物百貨店内,,26,106,6008216,,,,,,,2023-05-18,1,,,,,サエキケンチクケンキュウショ,0
182,1140001130211,新規,0,2023-05-18,2023-05-18,株式会社一光パール,,株式会社,兵庫県,神戸市西区,樫野台５丁目３番地５－８０４号,,28,111,6512275,,,,,,,2023-05-18,1,,,,,イッコウパール,0
183,1140001130228,新規,0,2023-05-18,2023-05-18,株式会社ＯｆｆｉｃｅＵＭＥＭＯＴＯ,,株式会社,兵庫県,神戸市灘区,深田町２丁目１－１ブロスコート六甲５０２,,28,102,6570038,,,,,,,2023-05-18,1,,,,,オフィスウメモト,0
184,1140001130244,新規,0,2023-05-18,2023-05-18,株式会社Ｇｅｎｅｖｉｅ,,株式会社,兵庫県,明石市,大久保町大久保町９４７番地の９２,,28,203,6740067,,,,,,,2023-05-18,1,,,,,ジュヌビ,0
185,1140001130252,新規,0,2023-05-18,2023-05-18,神阪通信株式会社,,株式会社,兵庫県,神戸市中央区,雲井通１丁目１ツイン雲井ＦＬＥＸ２１・２０９,,28,110,6510096,,,,,,,2023-05-18,1,,,,,シンハンツウシン,0
186,1140003019089,新規,0,2023-05-18,2023-05-18,ＳＥＩ合同会社,,合同会社,兵庫県,神戸市中央区,古湊通１丁目２番１８号開発センタービル９階,,28,110,6500026,,,,,,,2023-05-18,1,,,,,エスイーアイ,0
187,1140003019097,新規,0,2023-05-18,2023-05-18,合同会社ｓｕｐｒｉｓ　ｈａｉｒ商事,,合同会社,兵庫県,川西市,小戸２丁目６－２ハッピーハウス川西１０４号,,28,217,6660014,,,,,,,2023-05-18,1,,,,,サプリスヘアーショウジ,0
188,1140003019106,新規,0,2023-05-18,2023-05-18,合同会社ＡＷＲ,,合同会社,兵庫県,西宮市,久出ケ谷町１１番２号,,28,204,6620077,,,,,,,2023-05-18,1,,,,,エーダブリューアール,0
189,1140005026620,新規,0,2023-05-18,2023-05-18,特定非営利活動法人ぐらんどすらむスクエア,,その他の設立登記法人,兵庫県,西宮市,学文殿町１丁目１番２８号,,28,204,6638182,,,,,,,2023-05-18,1,,,,,グランドスラムスクエア,0
197,1180001156368,新規,0,2023-05-18,2023-05-18,ハマシン株式会社,,株式会社,愛知県,名古屋市中区,錦１丁目１１番２０号,,23,106,4600003,,,,,,,2023-05-18,1,,,,,ハマシン,0
198,1180001156376,新規,0,2023-05-18,2023-05-18,スケッチホーム株式会社,,株式会社,愛知県,名古屋市名東区,よもぎ台３丁目１００５番地,,23,115,4650091,,,,,,,2023-05-18,1,,,,,スケッチホーム,0
201,1190001030398,新規,0,2023-05-18,2023-05-18,伊勢パルコンハウス株式会社,,株式会社,三重県,松阪市,京町一区１４番地の５,,24,204,5150018,,,,,,,2023-05-18,1,,,,,イセパルコンハウス,0
204,1190003004318,新規,0,2023-05-18,2023-05-18,合同会社らいむ,,合同会社,三重県,三重郡菰野町,大字菰野２１７４番地５,,24,341,5101233,,,,,,,2023-05-18,1,,,,,ライム,0
205,1190003004326,新規,0,2023-05-18,2023-05-18,Ｖ　ＴＷＩＮ　ｃａｆｅ合同会社,,合同会社,三重県,松阪市,飯高町赤桶２５０６番地３,,24,204,5151505,,,,,,,2023-05-18,1,,,,,ヴィツインカフェ,0
214,1240001061537,新規,0,2023-05-18,2023-05-18,Ｔｏ　Ｗｏｒｋ株式会社,,株式会社,広島県,福山市,駅家町大字江良４４０番地７,,34,207,7201141,,,,,,,2023-05-18,1,,,,,トゥーワーク,0
215,1240001061545,新規,0,2023-05-18,2023-05-18,株式会社ケアサポートあかつき,,株式会社,広島県,広島市安佐南区,伴北７丁目２６番２２号,,34,105,7313163,,,,,,,2023-05-18,1,,,,,ケアサポートアカツキ,0
218,1250001020104,新規,0,2023-05-18,2023-05-18,株式会社オクト,,株式会社,山口県,宇部市,大字西岐波５２２５番地５,,35,202,7550151,,,,,,,2023-05-18,1,,,,,オクト,0
226,1290001101577,新規,0,2023-05-18,2023-05-18,ＦＡＲＭ‐ＦＲＥＳＨ株式会社,,株式会社,福岡県,那珂川市,片縄東１丁目２４－１２－２０５,,40,231,8111204,,,,,,,2023-05-18,1,,,,,ファームフレッシュ,0
232,1310001018422,新規,0,2023-05-18,2023-05-18,株式会社Ｏ‐ｌｙｓ,,株式会社,長崎県,長崎市,新大工町４番６号菊田ビル２０１,,42,201,8500017,,,,,,,2023-05-18,1,,,,,オーリス,0
233,1310003004577,新規,0,2023-05-18,2023-05-18,島のいろ合同会社,,合同会社,長崎県,対馬市,厳原町大手橋１２２１－７,,42,209,8170024,,,,,,,2023-05-18,1,,,,,シマノイロ,0
238,1330001030879,新規,0,2023-05-18,2023-05-18,株式会社一工業,,株式会社,熊本県,熊本市東区,戸島２丁目７番１１号グランデュール葉山３０５,,43,102,8618041,,,,,,,2023-05-18,1,,,,,,0
251,1360001032039,新規,0,2023-05-18,2023-05-18,株式会社プロスパートナー,,株式会社,沖縄県,那覇市,前島３丁目２５番２号泊ポートビル２０３号室,,47,201,9000016,,,,,,,2023-05-18,1,,,,,プロスパートナー,0
253,1360003012963,新規,0,2023-05-18,2023-05-18,ＬＯＮＧＢＲＩＤＧＥ合同会社,,合同会社,沖縄県,名護市,字辺野古１６８－１２,,47,209,9052171,,,,,,,2023-05-18,1,,,,,ロングブリッジ,0
254,1360003012971,新規,0,2023-05-18,2023-05-18,合同会社ｂｅｒｒｙ,,合同会社,沖縄県,うるま市,字赤道９７１番地５７,,47,213,9042245,,,,,,,2023-05-18,1,,,,,ベリー,0
268,1430001089088,新規,0,2023-05-18,2023-05-18,株式会社Ｍ’ｓリフォーム,,株式会社,北海道,虻田郡倶知安町,北四条東７丁目４番地３４,,01,400,0440004,,,,,,,2023-05-18,1,,,,,エムズリフォーム,0
269,1430001089138,新規,0,2023-05-18,2023-05-18,株式会社クローバー,,株式会社,北海道,伊達市,弄月町１６番地４,,01,233,0520013,,,,,,,2023-05-18,1,,,,,クローバー,0
270,1430001089146,新規,0,2023-05-18,2023-05-18,株式会社くりおこクラフト,,株式会社,北海道,夕張郡栗山町,中央２丁目９５番地,,01,429,0691511,,,,,,,2023-05-18,1,,,,,クリオコクラフト,0
271,1430003015034,新規,0,2023-05-18,2023-05-18,合同会社にきやフードクリエイト,,合同会社,北海道,余市郡仁木町,南町１０丁目１０５番地６,,01,407,0482413,,,,,,,2023-05-18,1,,,,,ニキヤフードクリエイト,0
272,1430003015050,新規,0,2023-05-18,2023-05-18,合同会社ゴリラアイブロウ,,合同会社,北海道,札幌市中央区,大通西６丁目クリーンハイツ６０８号,,01,101,0600042,,,,,,,2023-05-18,1,,,,,ゴリラアイブロウ,0
274,1470001019628,新規,0,2023-05-18,2023-05-18,株式会社鎌倉牧場,,株式会社,香川県,木田郡三木町,大字奥山１５３１番地,,37,341,7610822,,,,,,,2023-05-18,1,,,,,カマクラボクジョウ,0
285,1700150116243,新規,0,2023-05-18,2023-05-18,Ｍｅｎｕｋａ　Ｂａｂｙ　Ｆａｎｃｙ　Ｓｈｏｐ,,外国会社等,埼玉県,比企郡嵐山町,大字菅谷４２４－１－２号室,,11,342,3550221,ネパール、カトマンズ大都市、第６区、バウダ,,,,,,2023-05-18,1,,,,,メヌカベビーフアンシーシヨツプ,0
291,2010001235393,新規,0,2023-05-18,2023-05-18,株式会社ＯＮＥ　ＢＬＬＤ,,株式会社,東京都,中央区,銀座３丁目１１番１６号ＶＯＲＴ銀座イースト８階,,13,102,1040061,,,,,,,2023-05-18,1,,,,,ワンブラッド,0
293,2010003040528,新規,0,2023-05-18,2023-05-18,合同会社ＭＯＫ,,合同会社,東京都,文京区,小石川４丁目１０番６号,,13,105,1120002,,,,,,,2023-05-18,1,,,,,エムオーケー,0
294,2010003040627,新規,0,2023-05-18,2023-05-18,合同会社姫路蓄電所,,合同会社,東京都,中央区,京橋２丁目２番１号,,13,102,1040031,,,,,,,2023-05-18,1,,,,,ヒメジチクデンショ,0
303,2010401174340,新規,0,2023-05-18,2023-05-18,株式会社ＭＡＲＣＨ．３１,,株式会社,東京都,港区,南青山３丁目１番３６号青山丸竹ビル６Ｆ,,13,103,1070062,,,,,,,2023-05-18,1,,,,,マーチサーティーワン,0
304,2010401174357,新規,0,2023-05-18,2023-05-18,株式会社Ｂｕｉｌｄ,,株式会社,東京都,港区,六本木７丁目１２番２号Ｒ７ビルディング,,13,103,1060032,,,,,,,2023-05-18,1,,,,,ビルド,0
305,2010401174497,新規,0,2023-05-18,2023-05-18,株式会社ＵＭＡＭＩ,,株式会社,東京都,港区,六本木５丁目２番１号ほうらいやビル８階,,13,103,1060032,,,,,,,2023-05-18,1,,,,,ウマミ,0
308,2010405022149,新規,0,2023-05-18,2023-05-18,丸の内ツー特定目的会社,,その他の設立登記法人,東京都,港区,虎ノ門３丁目２２番１０－２０１号,,13,103,1050001,,,,,,,2023-05-18,1,,,,,マルノウチツー,0
313,2010901053077,新規,0,2023-05-18,2023-05-18,株式会社エムケーエイチシステム,,株式会社,東京都,世田谷区,駒沢４丁目１７番１０号,,13,112,1540012,,,,,,,2023-05-18,1,,,,,エムケーエイチシステム,0
322,2011001154468,新規,0,2023-05-18,2023-05-18,株式会社エイジエム,,株式会社,東京都,渋谷区,神南１丁目１０番５号ラ・ヴィスタ渋谷７階,,13,113,1500041,,,,,,,2023-05-18,1,,,,,エイジエム,0
323,2011001154518,新規,0,2023-05-18,2023-05-18,株式会社ユニゾンテック,,株式会社,東京都,渋谷区,渋谷２丁目１９番１５号宮益坂ビルディング６０９,,13,113,1500002,,,,,,,2023-05-18,1,,,,,ユニゾンテック,0
324,2011003016856,新規,0,2023-05-18,2023-05-18,シーズン合同会社,,合同会社,東京都,渋谷区,神宮前６丁目２３番４号桑野ビル２階,,13,113,1500001,,,,,,,2023-05-18,1,,,,,シーズン,0
328,2011101102905,新規,0,2023-05-18,2023-05-18,株式会社ＦｏａｓｈｉＰ,,株式会社,東京都,新宿区,西新宿７丁目１－７新宿ダイカンプラザＡ館３０１号室,,13,104,1600023,,,,,,,2023-05-18,1,,,,,フォアシップ,0
330,2011203004082,新規,0,2023-05-18,2023-05-18,ＮＥＷＬＩＦＥ合同会社,,合同会社,東京都,中野区,上高田２丁目４６－３杏ハウス２０４号,,13,114,1640002,,,,,,,2023-05-18,1,,,,,ニューライフ,0
345,2012403005960,新規,0,2023-05-18,2023-05-18,合同会社ティアーズ,,合同会社,東京都,小金井市,前原町２丁目１０－３パールコート武蔵小金井１０８,,13,210,1840013,,,,,,,2023-05-18,1,,,,,ティアーズ,0
355,2020001151664,新規,0,2023-05-18,2023-05-18,株式会社Ｓｕｎ,,株式会社,神奈川県,川崎市麻生区,岡上５丁目１４番５号１０３,,14,137,2150027,,,,,,,2023-05-18,1,,,,,サン,0
356,2020001151672,新規,0,2023-05-18,2023-05-18,株式会社健康ライフ,,株式会社,神奈川県,横浜市緑区,長津田町３０１２－２９アマンヴィラ２０３,,14,113,2260026,,,,,,,2023-05-18,1,,,,,ケンコウライフ,0
361,2020003023928,新規,0,2023-05-18,2023-05-18,合同会社ＴｏｐＬｉｖｅ,,合同会社,神奈川県,川崎市宮前区,有馬１丁目７―１０ステージ鷺沼５０７,,14,136,2160003,,,,,,,2023-05-18,1,,,,,トップライブ,0
365,2021001079078,新規,0,2023-05-18,2023-05-18,健真コーポレーション株式会社,,株式会社,神奈川県,大和市,大和南１丁目１２番２３号青木ビル２Ｆ,,14,213,2420016,,,,,,,2023-05-18,1,,,,,ケンシンコーポレーション,0
389,2040003022647,新規,0,2023-05-18,2023-05-18,合同会社ヘルム,,合同会社,千葉県,館山市,塩見３５８,,12,205,2940302,,,,,,,2023-05-18,1,,,,,ヘルム,0
392,2050003007515,新規,0,2023-05-18,2023-05-18,合同会社ＰＵＮＪＡＢ　ＴＲＡＤＩＮＧ,,合同会社,茨城県,結城市,大字結城１４５４番地７シティハイム・ヒルトップ２０３,,08,207,3070001,,,,,,,2023-05-18,1,,,,,パンジャーブトレーディング,0
394,2060001035987,新規,0,2023-05-18,2023-05-18,Ａ　Ｓ　ＭＯＴＯＲＳ株式会社,,株式会社,栃木県,真岡市,中１７４番地１Ｍハウス中Ｄ,,09,209,3214351,,,,,,,2023-05-18,1,,,,,エーエスモーターズ,0
395,2060001036011,新規,0,2023-05-18,2023-05-18,株式会社リクシード,,株式会社,栃木県,宇都宮市,上戸祭町３０１４番地３,,09,201,3200051,,,,,,,2023-05-18,1,,,,,リクシード,0
396,2060003004552,新規,0,2023-05-18,2023-05-18,合同会社Ｋａ　Ｐｉｌｉｎａ,,合同会社,栃木県,宇都宮市,二荒町５－１１,,09,201,3200804,,,,,,,2023-05-18,1,,,,,カピリナ,0
400,2080101024005,新規,0,2023-05-18,2023-05-18,株式会社エスエージェント,,株式会社,静岡県,駿東郡長泉町,下長窪５７番地の２,,22,342,4110934,,,,,,,2023-05-18,1,,,,,エスエージェント,0
401,2080101024013,新規,0,2023-05-18,2023-05-18,株式会社さとやまパワー,,株式会社,静岡県,富士宮市,粟倉８４番地の５,,22,207,4180011,,,,,,,2023-05-18,1,,,,,サトヤマパワー,0
404,2080401026485,新規,0,2023-05-18,2023-05-18,株式会社ネクサス,,株式会社,静岡県,浜松市中区,田町２２３番地２１号３Ｆ,,22,131,4300944,,,,,,,2023-05-18,1,,,,,ネクサス,0
405,2090001018130,新規,0,2023-05-18,2023-05-18,ゴールドレジデンス株式会社,,株式会社,山梨県,南都留郡忍野村,内野４７５１番地,,19,424,4010512,,,,,,,2023-05-18,1,,,,,ゴールドレジデンス,0
419,2120001254903,新規,0,2023-05-18,2023-05-18,馥雅柏軒株式会社,,株式会社,大阪府,大阪市大正区,三軒家西３丁目４番１６号中山ビル４０３Ｄ,,27,108,5510001,,,,,,,2023-05-18,1,,,,,フヤパクケン,0
420,2120001254952,新規,0,2023-05-18,2023-05-18,ＪＳＪ商事株式会社,,株式会社,大阪府,大阪市生野区,小路東４丁目３番２８号ＳＯＨＯ小路４０１号室,,27,116,5440003,,,,,,,2023-05-18,1,,,,,ジェイエスジェイショウジ,0
421,2120001254969,新規,0,2023-05-18,2023-05-18,株式会社Ｙ２,,株式会社,大阪府,大阪市中央区,西心斎橋２丁目１０番１３号,,27,128,5420086,,,,,,,2023-05-18,1,,,,,ワイツー,0
422,2120001254977,新規,0,2023-05-18,2023-05-18,ＡＣ　Ｈｏｌｄｉｎｇｓ株式会社,,株式会社,大阪府,大阪市城東区,鴫野西５丁目１８番８号,,27,118,5360014,,,,,,,2023-05-18,1,,,,,エーシーホールディングス,0
423,2120001254985,新規,0,2023-05-18,2023-05-18,泛如株式会社,,株式会社,大阪府,大阪市中央区,島之内１丁目１１－２９,,27,128,5420082,,,,,,,2023-05-18,1,,,,,ハンジョ,0
424,2120001255026,新規,0,2023-05-18,2023-05-18,ソフィアント株式会社,,株式会社,大阪府,大阪市北区,梅田１丁目１２番１２号東京建物梅田ビル１２階,,27,127,5300001,,,,,,,2023-05-18,1,,,,,ソフィアント,0
425,2120001255034,新規,0,2023-05-18,2023-05-18,株式会社オフィスＳＡＭ,,株式会社,大阪府,大阪市中央区,東心斎橋１丁目２番１－１６０１号,,27,128,5420083,,,,,,,2023-05-18,1,,,,,オフィスサム,0
426,2120001255050,新規,0,2023-05-18,2023-05-18,株式会社ＯＭＵランドクリエーション,,株式会社,大阪府,大阪市北区,中崎西１丁目４番２２号梅田東ビル２０１,,27,127,5300015,,,,,,,2023-05-18,1,,,,,オーエムユーランドクリエーション,0
430,2120101067552,新規,0,2023-05-18,2023-05-18,株式会社Ｕｌｔｉｍａｔｅ　Ｌａｂ,,株式会社,大阪府,堺市中区,深井沢町３２８２番地ＫＭＫアドバンスビルＲｅ：ＺＯＮＥ深井０１－２０２号室,,27,142,5998236,,,,,,,2023-05-18,1,,,,,アルティメットラボ,0
431,2120101067560,新規,0,2023-05-18,2023-05-18,株式会社ｂｏｎｏ,,株式会社,大阪府,和泉市,伏屋町３丁目３番２３－４号,,27,219,5940031,,,,,,,2023-05-18,1,,,,,ボノ,0
440,2130001074334,新規,0,2023-05-18,2023-05-18,英吉楽株式会社,,株式会社,京都府,京都市下京区,善長寺町１３１西澤ビル１Ｆ１０３,,26,106,6008431,,,,,,,2023-05-18,1,,,,,エイキチラク,0
441,2130003008736,新規,0,2023-05-18,2023-05-18,スワール合同会社,,合同会社,京都府,木津川市,木津町瓦谷４１番地,,26,214,6190217,,,,,,,2023-05-18,1,,,,,スワール,0
445,2140001130177,新規,0,2023-05-18,2023-05-18,株式会社Ｓａｉｓｅｉ　Ｈｏｍｅ,,株式会社,兵庫県,神戸市中央区,栄町通５丁目２番２号ｅｒ．ｋｏｂｅ９Ｆ,,28,110,6500023,,,,,,,2023-05-18,1,,,,,サイセイホーム,0
446,2140001130219,新規,0,2023-05-18,2023-05-18,株式会社ＢＵＺＺ　ＮＥＴ,,株式会社,兵庫県,西宮市,北六甲台４丁目２番１１号,,28,204,6511413,,,,,,,2023-05-18,1,,,,,バズネット,0
447,2140001130227,新規,0,2023-05-18,2023-05-18,Ｓｉｎｄｕｓｔｒｙ株式会社,,株式会社,兵庫県,美方郡香美町,香住区香住１７１０－６,,28,585,6696544,,,,,,,2023-05-18,1,,,,,シンダストリー,0
448,2140001130243,新規,0,2023-05-18,2023-05-18,株式会社エヴリー,,株式会社,兵庫県,小野市,黒川町４８８番地の５２,,28,218,6751371,,,,,,,2023-05-18,1,,,,,エヴリー,0
450,2140003019105,新規,0,2023-05-18,2023-05-18,合同会社ユウ電気,,合同会社,兵庫県,姫路市,夢前町山冨２６番地２３７,,28,201,6712123,,,,,,,2023-05-18,1,,,,,ユウデンキ,0
453,2160001025053,新規,0,2023-05-18,2023-05-18,株式会社Ｂｌｏｓｓｏｍ,,株式会社,滋賀県,大津市,大石中５丁目２４番１６号,,25,201,5202263,,,,,,,2023-05-18,1,,,,,ブロッサム,0
456,2170001017611,新規,0,2023-05-18,2023-05-18,株式会社Ｙａｚｉｒｕｓｉ,,株式会社,和歌山県,和歌山市,狐島４１３番地８,,30,201,6408412,,,,,,,2023-05-18,1,,,,,ヤジルシ,0
463,2180301037399,新規,0,2023-05-18,2023-05-18,株式会社Ｆｕｔｕｒｅ　Ｆｏｒ,,株式会社,愛知県,碧南市,山神町７丁目３４番地１,,23,209,4470869,,,,,,,2023-05-18,1,,,,,フューチャーフォー,0
465,2190001030422,新規,0,2023-05-18,2023-05-18,勇土木株式会社,,株式会社,三重県,鈴鹿市,南若松町３１９４番地,,24,207,5100227,,,,,,,2023-05-18,1,,,,,イサミドボク,0
471,2200001041327,新規,0,2023-05-18,2023-05-18,ヒートワークス株式会社,,株式会社,岐阜県,岐阜市,菅生３丁目１０番７号,,21,201,5020914,,,,,,,2023-05-18,1,,,,,ヒートワークス,0
472,2200003005957,新規,0,2023-05-18,2023-05-18,合同会社ＫＨＡＮ　ＩＮＴＥＲＮＡＴＩＯＮＡＬ,,合同会社,岐阜県,岐阜市,須賀４丁目１７－２４シズカ荘２０１号室,,21,201,5008289,,,,,,,2023-05-18,1,,,,,カンインターナショナル,0
476,2250001020103,新規,0,2023-05-18,2023-05-18,株式会社ＭＲ．ｔｅｅｔｈ　ｂｒａｎｄ　Ｋ,,株式会社,山口県,下松市,大字東豊井１４５４番地５,,35,207,7440002,,,,,,,2023-05-18,1,,,,,ミスターティースブランドケイ,0
481,2260001037914,新規,0,2023-05-18,2023-05-18,株式会社ＰｏｗｅｒＸ　Ｍａｎｕｆａｃｔｕｒｉｎｇ,,株式会社,岡山県,玉野市,田井６丁目９番１号,,33,204,7060001,,,,,,,2023-05-18,1,,,,,パワーエックスマニュファクチュアリング,0
488,2290001101568,新規,0,2023-05-18,2023-05-18,榎株式会社,,株式会社,福岡県,福岡市城南区,茶山６丁目１番３２－１０２号,,40,136,8140111,,,,,,,2023-05-18,1,,,,,エノキ,0
489,2290001101576,新規,0,2023-05-18,2023-05-18,株式会社ＯＲＡＮＧＥ,,株式会社,福岡県,福岡市南区,柳瀬２丁目１３番３号,,40,134,8111321,,,,,,,2023-05-18,1,,,,,オレンジ,0
491,2290003013927,新規,0,2023-05-18,2023-05-18,ＳＴＡＲＴＨＵＢ　Ｈｏｌｄｉｎｇｓ合同会社,,合同会社,福岡県,福岡市東区,香椎照葉３丁目２－７,,40,131,8130017,,,,,,,2023-05-18,1,,,,,スタートハブホールディングス,0
497,2310001018421,新規,0,2023-05-18,2023-05-18,株式会社ナツメ,,株式会社,長崎県,北松浦郡佐々町,口石免４６１番地１１,,42,391,8570352,,,,,,,2023-05-18,1,,,,,ナツメ,0
504,2360001032021,新規,0,2023-05-18,2023-05-18,株式会社ネクストトライ,,株式会社,沖縄県,浦添市,牧港２丁目３６番３－４０２号,,47,208,9012131,,,,,,,2023-05-18,1,,,,,ネクストトライ,0
505,2360001032038,新規,0,2023-05-18,2023-05-18,山城恒産株式会社,,株式会社,沖縄県,宜野湾市,嘉数２丁目１８番１６号３０６,,47,205,9012226,,,,,,,2023-05-18,1,,,,,ヤマシロコウサン,0
519,2390001017259,新規,0,2023-05-18,2023-05-18,株式会社ＥＮＤＯ　ｃｏｒｐｏｒａｔｉｏｎ,,株式会社,山形県,上山市,細谷５番地,,06,207,9993236,,,,,,,2023-05-18,1,,,,,エンドーコーポレーション,0
526,2430001089112,新規,0,2023-05-18,2023-05-18,株式会社ゆあ,,株式会社,北海道,札幌市東区,北三十七条東５丁目２番８号２０３号室,,01,103,0070837,,,,,,,2023-05-18,1,,,,,ユア,0
527,2430003015041,新規,0,2023-05-18,2023-05-18,合同会社クレスクラス,,合同会社,北海道,札幌市中央区,南一条西１６丁目１－３２３春野ビル３Ｆ,,01,101,0600061,,,,,,,2023-05-18,1,,,,,クレスクラス,0
537,2500003003039,新規,0,2023-05-18,2023-05-18,合同会社ＴＵＫＴＵＫ　ＢＡＳＥ,,合同会社,愛媛県,西条市,新田２１７－９大成マンション６０１号,,38,206,7930028,,,,,,,2023-05-18,1,,,,,トゥクトゥクベース,0
541,2700150116242,新規,0,2023-05-18,2023-05-18,ニムセル・エンタープライゼズ,,外国会社等,栃木県,小山市,駅南町６丁目１１－１９望月アパート２０２号,,09,208,3230822,スリランカ民主社会主義共和国パーナドゥラ、ケセルワッテ、ディッガラロード、Ｎｏ．１４８／１,,,,,,2023-05-18,1,,,,,ニムセルエンタープライゼズ,0
542,2700150116250,新規,0,2023-05-18,2023-05-18,Ｄ．Ｄ．Ｓｕｐｐｌｉｅｒｓ,,外国会社等,埼玉県,坂戸市,八幡１丁目３－２２アルファウィングス４０７号,,11,239,3500223,マカワンプール－１６のサブメトロポリタン、ヘタウダ、ネパール,,,,,,2023-05-18,1,,,,,ヂヂサプライヤー,0
554,3010001235293,新規,0,2023-05-18,2023-05-18,株式会社Ｎｏｎｆｉｃｔｉｏｎ,,株式会社,東京都,中央区,銀座１丁目２２番１１号銀座大竹ビジデンス２Ｆ,,13,102,1040061,,,,,,,2023-05-18,1,,,,,ノンフィクション,0
555,3010001235401,新規,0,2023-05-18,2023-05-18,株式会社Ｏｎｅ　Ｇｅｎｅｓｉｓ,,株式会社,東京都,中央区,日本橋富沢町７番１６号ＴＨＥＧＡＴＥ日本橋人形町４階,,13,102,1030006,,,,,,,2023-05-18,1,,,,,ワンジェネシス,0
560,3010401174380,新規,0,2023-05-18,2023-05-18,ワイルド・イーグル・トラベル株式会社,,株式会社,東京都,港区,芝浦４丁目１２番２６－１１０３号,,13,103,1080023,,,,,,,2023-05-18,1,,,,,ワイルドイーグルトラベル,0
563,3010405022107,新規,0,2023-05-18,2023-05-18,一般社団法人在日ベトナム起業家支援協会,,その他の設立登記法人,東京都,港区,赤坂８丁目４－１４青山タワープレイス８階,,13,103,1070052,,,,,,,2023-05-18,1,,,,,ザイニチベトナムキギョウカシエンキョウカイ,0
564,3010405022148,新規,0,2023-05-18,2023-05-18,丸の内ワン特定目的会社,,その他の設立登記法人,東京都,港区,虎ノ門３丁目２２番１０－２０１号,,13,103,1050001,,,,,,,2023-05-18,1,,,,,マルノウチワン,0
581,3010903008177,新規,0,2023-05-18,2023-05-18,合同会社ＬＡＭＣＯ,,合同会社,東京都,世田谷区,桜１丁目２９番４号,,13,112,1560053,,,,,,,2023-05-18,1,,,,,ラムコ,0
594,3011003016839,新規,0,2023-05-18,2023-05-18,ｐｏｐｏｒｐｏｐ合同会社,,合同会社,東京都,渋谷区,渋谷２丁目１９－１５宮益坂ビルディング６０９,,13,113,1500002,,,,,,,2023-05-18,1,,,,,ポポルポップ,0
599,3011105010657,新規,0,2023-05-18,2023-05-18,税理士法人Ｂａｔｏｎ　Ｏｎｅ,,その他の設立登記法人,東京都,新宿区,西新宿３丁目９番７号フロンティア新宿タワーオフィス３１７号室,,13,104,1600023,,,,,,,2023-05-18,1,,,,,バトンワン,0
603,3011301028718,新規,0,2023-05-18,2023-05-18,株式会社しろばら百藝社,,株式会社,東京都,杉並区,和田３丁目６０番１２－３０６号日神パレス東高円寺,,13,115,1660012,,,,,,,2023-05-18,1,,,,,シロバラヒャクゲイシャ,0
606,3011505002551,新規,0,2023-05-18,2023-05-18,特定非営利活動法人紡ぐ人,,その他の設立登記法人,東京都,北区,田端２丁目１０番１４号マーク・パージュ１階,,13,117,1140014,,,,,,,2023-05-18,1,,,,,ツムグト,0
610,3012401040538,新規,0,2023-05-18,2023-05-18,株式会社スタジオＢＩＧＴＲＥＥ,,株式会社,東京都,調布市,布田１丁目５２番地１２―１００２,,13,208,1820024,,,,,,,2023-05-18,1,,,,,スタジオビッグツリー,0
612,3012801022359,新規,0,2023-05-18,2023-05-18,株式会社ササキ電設,,株式会社,東京都,立川市,砂川町２丁目６番地の１６,,13,202,1900031,,,,,,,2023-05-18,1,,,,,ササキデンセツ,0
615,3013301050791,新規,0,2023-05-18,2023-05-18,株式会社一期一会,,株式会社,東京都,豊島区,東池袋１丁目３４－５いちご東池袋ビル６階,,13,116,1700013,,,,,,,2023-05-18,1,,,,,イチゴイチエ,0
625,3020001151663,新規,0,2023-05-18,2023-05-18,株式会社赤間ホールディングス,,株式会社,神奈川県,横浜市青葉区,あざみ野２丁目９番地１３サンサーラあざみ野２階,,14,117,2250011,,,,,,,2023-05-18,1,,,,,アカマホールディングス,0
626,3020001151671,新規,0,2023-05-18,2023-05-18,エクセルロジネット株式会社,,株式会社,神奈川県,川崎市川崎区,本町２丁目１３－１１－１１０５,,14,131,2100001,,,,,,,2023-05-18,1,,,,,エクセルロジネット,0
629,3020003023935,新規,0,2023-05-18,2023-05-18,合同会社アシスト,,合同会社,神奈川県,川崎市幸区,南加瀬４丁目２６番１１号,,14,132,2120055,,,,,,,2023-05-18,1,,,,,アシスト,0
645,3030002125310,新規,0,2023-05-18,2023-05-18,有限会社産和土地,,有限会社,埼玉県,川口市,大字安行藤八５３６番地３,,11,203,3340051,,,,,,,2023-05-18,1,,,,,,0
654,3040001128486,新規,0,2023-05-18,2023-05-18,株式会社ロバストケア,,株式会社,千葉県,柏市,松ケ崎１０４番地７第三パークマンション西原１０５号室,,12,217,2770835,,,,,,,2023-05-18,1,,,,,ロバストケア,0
659,3040003022638,新規,0,2023-05-18,2023-05-18,Ｐ．Ａ．Ｓ．Ｓ合同会社,,合同会社,千葉県,袖ケ浦市,蔵波台１丁目５－３,,12,229,2990245,,,,,,,2023-05-18,1,,,,,ピーエーエスエス,0
660,3040003022646,新規,0,2023-05-18,2023-05-18,合同会社Ｃ＆Ｆ,,合同会社,千葉県,鎌ケ谷市,東道野辺３丁目３－９,,12,224,2730115,,,,,,,2023-05-18,1,,,,,シーアンドエフ,0
661,3040003022654,新規,0,2023-05-18,2023-05-18,ラフアンドタフ合同会社,,合同会社,千葉県,流山市,東初石２丁目８１番地の９－３－３０３,,12,220,2700114,,,,,,,2023-05-18,1,,,,,ラフアンドタフ,0
662,3050001052842,新規,0,2023-05-18,2023-05-18,株式会社新葉,,株式会社,茨城県,つくば市,自由ケ丘８２１番地７０,,08,220,3001266,,,,,,,2023-05-18,1,,,,,シンバ,0
667,3080401026492,新規,0,2023-05-18,2023-05-18,サイドステージ株式会社,,株式会社,静岡県,浜松市東区,北島町６０８番地の７,,22,132,4350041,,,,,,,2023-05-18,1,,,,,サイドステージ,0
671,3100001036419,新規,0,2023-05-18,2023-05-18,株式会社ＳＡＮＤＡ,,株式会社,長野県,長野市,篠ノ井塩崎１７４２－３,,20,201,3888014,,,,,,,2023-05-18,1,,,,,サンダ,0
677,3120001254844,新規,0,2023-05-18,2023-05-18,十九株式会社,,株式会社,大阪府,大阪市西成区,鶴見橋１丁目１３番３号,,27,122,5570031,,,,,,,2023-05-18,1,,,,,ジュウキュウ,0
678,3120001254902,新規,0,2023-05-18,2023-05-18,港泓軟件株式会社,,株式会社,大阪府,大阪市大正区,三軒家西３丁目４番１６号中山ビル４０３Ａ,,27,108,5510001,,,,,,,2023-05-18,1,,,,,コンコウナンケン,0
679,3120001254968,新規,0,2023-05-18,2023-05-18,株式会社ＷＴＴ,,株式会社,大阪府,大阪市浪速区,敷津西２丁目１番３０号ＤＡＩＫＯＫＵＲＯＵＧＥ１１０２号,,27,111,5560015,,,,,,,2023-05-18,1,,,,,ダブルティーティー,0
680,3120001254976,新規,0,2023-05-18,2023-05-18,株式会社エスティクリーニング,,株式会社,大阪府,大阪市西成区,北津守１丁目４番３３号,,27,122,5570061,,,,,,,2023-05-18,1,,,,,エスティクリーニング,0
681,3120001255025,新規,0,2023-05-18,2023-05-18,株式会社チライフ,,株式会社,大阪府,枚方市,渚南町１３番６号,,27,210,5731183,,,,,,,2023-05-18,1,,,,,チライフ,0
683,3120003024114,新規,0,2023-05-18,2023-05-18,速昇合同会社,,合同会社,大阪府,大阪市西成区,千本南１丁目１５－６ペントハウス千本南１Ｃ号室,,27,122,5570055,,,,,,,2023-05-18,1,,,,,ソクショウ,0
685,3120005023626,新規,0,2023-05-18,2023-05-18,一般社団法人セオレオソフィア,,その他の設立登記法人,大阪府,大阪市都島区,友渕町１丁目５番８０－１１１８号,,27,102,5340016,,,,,,,2023-05-18,1,,,,,セオレオソフィア,0
690,3120101067551,新規,0,2023-05-18,2023-05-18,株式会社東谷商店,,株式会社,大阪府,泉佐野市,南中樫井６１１番地,,27,213,5980035,,,,,,,2023-05-18,1,,,,,ヒガシタニショウテン,0
693,3120901047505,新規,0,2023-05-18,2023-05-18,株式会社ＯＮ　ＧＯＩＮＧ,,株式会社,大阪府,吹田市,江坂町１丁目２３番４３号,,27,205,5640063,,,,,,,2023-05-18,1,,,,,オンゴーイング,0
694,3120903004636,新規,0,2023-05-18,2023-05-18,合同会社Ｈ＆Ｔ,,合同会社,大阪府,吹田市,元町１９番１３号上本ビル２階,,27,205,5640031,,,,,,,2023-05-18,1,,,,,エイチアンドティー,0
699,3130001074333,新規,0,2023-05-18,2023-05-18,株式会社ＨＡＹＡＮＯ,,株式会社,京都府,京都市東山区,福稲御所ノ内町２２番地１１,,26,105,6050987,,,,,,,2023-05-18,1,,,,,ハヤノ,0
703,3130005016777,新規,0,2023-05-18,2023-05-18,特定非営利活動法人京まちなか映画祭実行委員会,,その他の設立登記法人,京都府,京都市中京区,壬生坊城町５３番地３,,26,104,6048804,,,,,,,2023-05-18,1,,,,,キョウマチナカエイガサイジッコウイインカイ,0
709,3140001130218,新規,0,2023-05-18,2023-05-18,株式会社エイチ,,株式会社,兵庫県,加古川市,東神吉町升田１６９３番地の７,,28,210,6750051,,,,,,,2023-05-18,1,,,,,エイチ,0
712,3140003019104,新規,0,2023-05-18,2023-05-18,合同会社ＫＧトランスポート,,合同会社,兵庫県,姫路市,東山６６番地１６,,28,201,6728014,,,,,,,2023-05-18,1,,,,,ケイジートランスポート,0
722,3180001156366,新規,0,2023-05-18,2023-05-18,ＰＢＲ株式会社,,株式会社,愛知県,愛西市,稲葉町米野１１７番地１,,23,232,4960907,,,,,,,2023-05-18,1,,,,,ピービーアール,0
723,3180001156374,新規,0,2023-05-18,2023-05-18,株式会社Ｍ　Ｕｎｉｖｅｒｓ,,株式会社,愛知県,名古屋市千種区,西崎町２丁目３６番地の４,,23,101,4640825,,,,,,,2023-05-18,1,,,,,エムユニバース,0
728,3180003025239,新規,0,2023-05-18,2023-05-18,トコロエネルギー合同会社,,合同会社,愛知県,名古屋市西区,八筋町２２番地所ビル１Ｆ,,23,104,4520815,,,,,,,2023-05-18,1,,,,,トコロエネルギー,0
732,3180303005709,新規,0,2023-05-18,2023-05-18,サウスベイソーラー合同会社,,合同会社,愛知県,豊田市,越戸町神ノ木１０５番地６,,23,211,4700332,,,,,,,2023-05-18,1,,,,,サウスベイソーラー,0
738,3190001030421,新規,0,2023-05-18,2023-05-18,株式会社エヌプラス,,株式会社,三重県,四日市市,広永町５７７番地,,24,202,5128061,,,,,,,2023-05-18,1,,,,,エヌプラス,0
758,3290001101575,新規,0,2023-05-18,2023-05-18,本松株式会社,,株式会社,福岡県,福岡市早良区,室見１丁目１２番１号,,40,137,8140015,,,,,,,2023-05-18,1,,,,,ホンマツ,0
764,3290803004414,新規,0,2023-05-18,2023-05-18,雅防災設備合同会社,,合同会社,福岡県,北九州市小倉北区,米町１丁目１－１小倉駅前ひびきビル６階,,40,106,8020003,,,,,,,2023-05-18,1,,,,,ミヤビボウサイセツビ,0
765,3300001013307,新規,0,2023-05-18,2023-05-18,株式会社ムーンスリー,,株式会社,佐賀県,小城市,三日月町堀江４５７－１７,,41,208,8450031,,,,,,,2023-05-18,1,,,,,ムーンスリー,0
766,3320001019780,新規,0,2023-05-18,2023-05-18,株式会社ユアーズＥＶ,,株式会社,大分県,大分市,大字片島２４９番地,,44,201,8700943,,,,,,,2023-05-18,1,,,,,ユアーズイーブイ,0
771,3340001025587,新規,0,2023-05-18,2023-05-18,株式会社リブデザイン研究室,,株式会社,鹿児島県,枕崎市,東本町５７番地,,46,204,8980014,,,,,,,2023-05-18,1,,,,,リブデザインケンキュウシツ,0
774,3360001032029,新規,0,2023-05-18,2023-05-18,Ａｄａｍ株式会社,,株式会社,沖縄県,宜野湾市,宇地泊２丁目２５番２２号,,47,205,9012227,,,,,,,2023-05-18,1,,,,,アダム,0
775,3360003012929,新規,0,2023-05-18,2023-05-18,合同会社爛々,,合同会社,沖縄県,沖縄市,古謝津嘉山町３８番６号ファルシア古謝Ｉ４０４号室,00130530,47,211,9042166,,,,,,,2023-05-18,1,,,,,ランラン,0
782,3370001049947,新規,0,2023-05-18,2023-05-18,株式会社しらいマネジメント,,株式会社,宮城県,仙台市青葉区,桜ケ丘４丁目３１番２１号,,04,101,9810961,,,,,,,2023-05-18,1,,,,,シライマネジメント,0
783,3370001049971,新規,0,2023-05-18,2023-05-18,七十七デジタルソリューションズ株式会社,,株式会社,宮城県,仙台市青葉区,国分町１丁目４番地９号ｅｎｓｐａｃｅ,,04,101,9800803,,,,,,,2023-05-18,1,,,,,シチジュウシチデジタルソリューションズ,0
784,3370003006137,新規,0,2023-05-18,2023-05-18,エスコラボ合同会社,,合同会社,宮城県,仙台市宮城野区,榴岡４丁目６－２３今野ビル２Ｆ,,04,102,9830852,,,,,,,2023-05-18,1,,,,,エスコラボ,0
785,3370005010632,新規,0,2023-05-18,2023-05-18,一般社団法人ギルド本部,,その他の設立登記法人,宮城県,仙台市青葉区,錦町１丁目１０番３－２００２号,,04,101,9800012,,,,,,,2023-05-18,1,,,,,ギルドホンブ,0
796,3430001089094,新規,0,2023-05-18,2023-05-18,株式会社ＩＮＡＭＯＴＯ電気設備,,株式会社,北海道,苫小牧市,三光町５丁目１２番１１号,,01,213,0530042,,,,,,,2023-05-18,1,,,,,イナモトデンキセツビ,0
797,3430001089111,新規,0,2023-05-18,2023-05-18,株式会社ｅＢｉｏＳｐｉｎｅ,,株式会社,北海道,札幌市中央区,界川３丁目９番１８号,,01,101,0640943,,,,,,,2023-05-18,1,,,,,イーバイオスパイン,0
798,3430003015049,新規,0,2023-05-18,2023-05-18,合同会社Ｖｉｄｅｏ　Ｐｒｏ,,合同会社,北海道,札幌市西区,二十四軒四条４丁目６番３号,,01,107,0630804,,,,,,,2023-05-18,1,,,,,ビデオプロ,0
799,3430003015057,新規,0,2023-05-18,2023-05-18,合同会社Ｈｉｒａｓｏｌ,,合同会社,北海道,札幌市豊平区,月寒東二条１１丁目１２番１５号,,01,105,0620052,,,,,,,2023-05-18,1,,,,,ヒラソル,0
802,3470003002423,新規,0,2023-05-18,2023-05-18,合同会社Ｌｉｆｅ‐エイド,,合同会社,香川県,丸亀市,綾歌町富熊５０１２番地１１,,37,202,7612407,,,,,,,2023-05-18,1,,,,,ライフエイド,0
805,3700150116241,新規,0,2023-05-18,2023-05-18,Ｒ．Ｓ．Ｄ．　Ｓｕｐｐｌｉｅｒ　Ｓｅｒｖｉｃｅｓ,,外国会社等,埼玉県,比企郡嵐山町,大字菅谷４２４－１　６号室,,11,342,3550221,ネパール、カトマンズ大都市、第３４区、ミンバワン,,,,,,2023-05-18,1,,,,,アルエステイサパライヤーサビース,0
813,4010001235359,新規,0,2023-05-18,2023-05-18,ＴｈｅＴｒａｎｓＬａｔｏｒ株式会社,,株式会社,東京都,中央区,日本橋小舟町８番１３号天翔日本橋ビル４階４０８―Ｕ号室,,13,102,1030024,,,,,,,2023-05-18,1,,,,,ザトランスレーター,0
814,4010001235400,新規,0,2023-05-18,2023-05-18,株式会社Ｄ’ａｎｄ,,株式会社,東京都,千代田区,永田町２丁目１７番１７号,,13,101,1000014,,,,,,,2023-05-18,1,,,,,ディアンド,0
828,4010401174396,新規,0,2023-05-18,2023-05-18,株式会社Ｗｉｌｌ　ｕｐ,,株式会社,東京都,港区,浜松町２丁目２番１５号浜松町ダイヤビル２Ｆ,,13,103,1050013,,,,,,,2023-05-18,1,,,,,ウィルアップ,0
829,4010403030127,新規,0,2023-05-18,2023-05-18,地域電力第一合同会社,,合同会社,東京都,港区,六本木５丁目１３番１２－１０５号,,13,103,1060032,,,,,,,2023-05-18,1,,,,,チイキデンリョクダイイチ,0
830,4010405022106,新規,0,2023-05-18,2023-05-18,一般社団法人タウルス,,その他の設立登記法人,東京都,港区,虎ノ門３丁目２２番１０－２０１号,,13,103,1050001,,,,,,,2023-05-18,1,,,,,タウルス,0
831,4010405022147,新規,0,2023-05-18,2023-05-18,ＭＦＴＪＰＮ８特定目的会社,,その他の設立登記法人,東京都,港区,虎ノ門３丁目２２番１０－２０１号,,13,103,1050001,,,,,,,2023-05-18,1,,,,,エムエフフォージェイピーエヌエイト,0
832,4010801033961,新規,0,2023-05-18,2023-05-18,株式会社カメリア,,株式会社,東京都,大田区,蒲田５丁目２１番１３号ペガサスステーション蒲田７０３,,13,111,1440052,,,,,,,2023-05-18,1,,,,,カメリア,0
836,4010901053067,新規,0,2023-05-18,2023-05-18,株式会社ｏｆｆｉｃｅ１４,,株式会社,東京都,世田谷区,梅丘２丁目２８番１５号１０１,,13,112,1540022,,,,,,,2023-05-18,1,,,,,オフィスフォーティーン,0
845,4011001154350,新規,0,2023-05-18,2023-05-18,株式会社ＭＳＮ,,株式会社,東京都,目黒区,青葉台１丁目２８番１１号,,13,110,1530042,,,,,,,2023-05-18,1,,,,,,0
846,4011001154458,新規,0,2023-05-18,2023-05-18,株式会社Ｆｉｎｅｌｌａ,,株式会社,東京都,渋谷区,代官山町８番７号Ｄａｉｗａ代官山ビル１Ｆ,,13,113,1500034,,,,,,,2023-05-18,1,,,,,フィネラ,0
847,4011001154516,新規,0,2023-05-18,2023-05-18,株式会社ｒｅｃｔｕｍ,,株式会社,東京都,渋谷区,神宮前６丁目２３番４号桑野ビル２階,,13,113,1500001,,,,,,,2023-05-18,1,,,,,レクタム,0
857,4011303004765,新規,0,2023-05-18,2023-05-18,合同会社Ｔｉｇｅｒ　Ｍｕｓｅ,,合同会社,東京都,杉並区,永福２丁目３３―１４,,13,115,1680064,,,,,,,2023-05-18,1,,,,,タイガーミューズ,0
858,4011401025135,新規,0,2023-05-18,2023-05-18,オクタトレーディング株式会社,,株式会社,東京都,板橋区,志村１丁目３５番１０号,,13,119,1740056,,,,,,,2023-05-18,1,,,,,オクタトレーディング,0
859,4011403004005,新規,0,2023-05-18,2023-05-18,バティック・トレーディング合同会社,,合同会社,東京都,板橋区,本町６番３号板橋本町グリーンパーク２１８号,,13,119,1730001,,,,,,,2023-05-18,1,,,,,バティックトレーディング,0
865,4011501029300,新規,0,2023-05-18,2023-05-18,エレスタ株式会社,,株式会社,東京都,荒川区,南千住６丁目１８番３号,,13,118,1160003,,,,,,,2023-05-18,1,,,,,エレスタ,0
866,4011503005613,新規,0,2023-05-18,2023-05-18,ヨーグルトテクノロジー合同会社,,合同会社,東京都,北区,東十条５丁目１６番２０－２０２号,,13,117,1140001,,,,,,,2023-05-18,1,,,,,ヨーグルトテクノロジー,0
867,4011601026817,新規,0,2023-05-18,2023-05-18,株式会社ＧＦ,,株式会社,東京都,練馬区,豊玉中３丁目２番１１号,,13,120,1760013,,,,,,,2023-05-18,1,,,,,ジーエフ,0
868,4011601026825,新規,0,2023-05-18,2023-05-18,ヒーロー事務所株式会社,,株式会社,東京都,練馬区,関町南３丁目２８番１７号ホワイト富士１０６,,13,120,1770053,,,,,,,2023-05-18,1,,,,,ヒーロージムショ,0
875,4011801042416,新規,0,2023-05-18,2023-05-18,株式会社コンフォート,,株式会社,東京都,足立区,舎人５丁目８番１０号,,13,121,1210831,,,,,,,2023-05-18,1,,,,,コンフォート,0
876,4011805003273,新規,0,2023-05-18,2023-05-18,一般社団法人ディニエ,,その他の設立登記法人,東京都,足立区,中央本町１丁目１９番２２号田中ビル２階,,13,121,1200011,,,,,,,2023-05-18,1,,,,,ディニエ,0
878,4012401040545,新規,0,2023-05-18,2023-05-18,株式会社中村鉄筋,,株式会社,東京都,調布市,富士見町２丁目１３－５コープ調布Ｄ－１０７,,13,208,1820033,,,,,,,2023-05-18,1,,,,,ナカムラテッキン,0
907,4020001151670,新規,0,2023-05-18,2023-05-18,株式会社フォーティーナイナー,,株式会社,神奈川県,横浜市青葉区,藤が丘１丁目１６番地１０アーバンプラザ１階－Ｂ,,14,117,2270043,,,,,,,2023-05-18,1,,,,,フォーティーナイナー,0
913,4020003023819,新規,0,2023-05-18,2023-05-18,合同会社ＪＬ,,合同会社,神奈川県,川崎市川崎区,東田町３―３コーセンビル１Ｆ,,14,131,2100005,,,,,,,2023-05-18,1,,,,,ジェイエル,0
934,4040001128345,新規,0,2023-05-18,2023-05-18,匯川株式会社,,株式会社,千葉県,市川市,大野町３丁目１６２４－１号,,12,203,2720805,,,,,,,2023-05-18,1,,,,,カイカワ,0
935,4040001128436,新規,0,2023-05-18,2023-05-18,匯和株式会社,,株式会社,千葉県,船橋市,前原東５丁目４６－１２,,12,204,2740824,,,,,,,2023-05-18,1,,,,,カイワ,0
936,4040001128485,新規,0,2023-05-18,2023-05-18,株式会社ＴＲＫサービス,,株式会社,千葉県,千葉市稲毛区,宮野木町４２３－４,,12,103,2630054,,,,,,,2023-05-18,1,,,,,ティーアールケーサービス,0
941,4040003022612,新規,0,2023-05-18,2023-05-18,合同会社アドスタック,,合同会社,千葉県,市川市,南行徳３丁目１３番６号グランディ南行徳１０１号室,,12,203,2720138,,,,,,,2023-05-18,1,,,,,アドスタック,0
942,4040003022629,新規,0,2023-05-18,2023-05-18,合同会社潤錦,,合同会社,千葉県,千葉市稲毛区,園生町９５６番地４オークヒル１０２号,,12,103,2630051,,,,,,,2023-05-18,1,,,,,ジュンキン,0
956,4080103002808,新規,0,2023-05-18,2023-05-18,合同会社ＳＡＴＡＺ．,,合同会社,静岡県,御殿場市,新橋７３９番地１御殿場ヒルズ２０９,,22,215,4120043,,,,,,,2023-05-18,1,,,,,サタス,0
959,4090001018129,新規,0,2023-05-18,2023-05-18,株式会社ウェルチャー,,株式会社,山梨県,笛吹市,石和町四日市場２３１６番地,,19,211,4060032,,,,,,,2023-05-18,1,,,,,ウェルチャー,0
965,4100003007020,新規,0,2023-05-18,2023-05-18,ＮＹ合同会社,,合同会社,長野県,下伊那郡喬木村,２６３４番地,,20,415,3951100,,,,,,,2023-05-18,1,,,,,エヌワイ,0
968,4110001037547,新規,0,2023-05-18,2023-05-18,株式会社Ｋａｎｓｙａ,,株式会社,新潟県,阿賀野市,保田７３７３番地１,,15,223,9592221,,,,,,,2023-05-18,1,,,,,カンシャ,0
981,4120001254950,新規,0,2023-05-18,2023-05-18,エンジウェイ株式会社,,株式会社,大阪府,大阪市北区,曾根崎１丁目４－６新御堂筋ビルＢ１,,27,127,5300057,,,,,,,2023-05-18,1,,,,,エンジウェイ,0
982,4120001254983,新規,0,2023-05-18,2023-05-18,株式会社ＮＫ,,株式会社,大阪府,大阪市中央区,心斎橋筋２丁目２－３,,27,128,5420085,,,,,,,2023-05-18,1,,,,,エヌケー,0
985,4120003024096,新規,0,2023-05-18,2023-05-18,合同会社ビストラ,,合同会社,大阪府,大阪市北区,梅田１丁目１－３大阪駅前第３ビル２９階１－１－１号室,,27,127,5300001,,,,,,,2023-05-18,1,,,,,ビストラ,0
994,4130003008734,新規,0,2023-05-18,2023-05-18,合同会社晴レル,,合同会社,京都府,京都市上京区,閻魔前町１０－１,,26,102,6028307,,,,,,,2023-05-18,1,,,,,ハレル,0
995,4130005016768,新規,0,2023-05-18,2023-05-18,一般社団法人亀岡オーガニックアクション,,その他の設立登記法人,京都府,亀岡市,旭町山ノ神３４番地３,,26,206,6210001,,,,,,,2023-05-18,1,,,,,カメオカオーガニックアクション,0
1000,4140001130233,新規,0,2023-05-18,2023-05-18,株式会社Ｌａｓｓｅ　Ｈａｌｌ,,株式会社,兵庫県,神戸市中央区,中山手通４丁目１０番８号,,28,110,6500004,,,,,,,2023-05-18,1,,,,,ラッセホール,0
1005,4140005026618,新規,0,2023-05-18,2023-05-18,一般社団法人スポーツボランティア関西,,その他の設立登記法人,兵庫県,西宮市,北六甲台５丁目２８番２０号,,28,204,6511413,,,,,,,2023-05-18,1,,,,,スポーツボランティアカンサイ,0
1008,4170001017592,新規,0,2023-05-18,2023-05-18,日農化成株式会社,,株式会社,和歌山県,伊都郡九度山町,大字入郷６６６番地,,30,343,6480161,,,,,,,2023-05-18,1,,,,,ニチノウカセイ,0
1014,4180001156373,新規,0,2023-05-18,2023-05-18,株式会社六三四,,株式会社,愛知県,日進市,梅森台２丁目１１６番地,,23,230,4700133,,,,,,,2023-05-18,1,,,,,ムサシ,0
1018,4180301037397,新規,0,2023-05-18,2023-05-18,株式会社ちら,,株式会社,愛知県,安城市,福釜町里漆５４番地,,23,212,4460052,,,,,,,2023-05-18,1,,,,,チラ,0
1019,4180303005708,新規,0,2023-05-18,2023-05-18,合同会社春島,,合同会社,愛知県,安城市,箕輪町東山３３番地５,,23,212,4460051,,,,,,,2023-05-18,1,,,,,ハルシマ,0
1021,4190001030420,新規,0,2023-05-18,2023-05-18,株式会社煌サポート,,株式会社,三重県,四日市市,川尻町２３１４番地４オランジュベール川尻Ｂ棟,,24,202,5100871,,,,,,,2023-05-18,1,,,,,キラメキサポート,0
1026,4200001041325,新規,0,2023-05-18,2023-05-18,下石ファーム株式会社,,株式会社,岐阜県,土岐市,下石町１５７４番地,,21,212,5095202,,,,,,,2023-05-18,1,,,,,オロシファーム,0
1031,4240001061542,新規,0,2023-05-18,2023-05-18,株式会社トウシン技建,,株式会社,広島県,呉市,広中町６番２３号,,34,202,7370131,,,,,,,2023-05-18,1,,,,,トウシンギケン,0
1037,4260003004316,新規,0,2023-05-18,2023-05-18,合同会社安福工業,,合同会社,岡山県,倉敷市,菰池２丁目３番３－３０３号,,33,202,7110932,,,,,,,2023-05-18,1,,,,,ヤスフクコウギョウ,0
1044,4290003013925,新規,0,2023-05-18,2023-05-18,合同会社マシェリアール,,合同会社,福岡県,福岡市南区,井尻５丁目１７番１１－２０２号,,40,134,8111302,,,,,,,2023-05-18,1,,,,,マシェリアール,0
1055,4360001032036,新規,0,2023-05-18,2023-05-18,株式会社琉球ビジョンサポート,,株式会社,沖縄県,那覇市,首里桃原町２丁目１番地２２ヴィ・バース２０１号室,,47,201,9030822,,,,,,,2023-05-18,1,,,,,リュウキュウビジョンサポート,0
1059,4370001049970,新規,0,2023-05-18,2023-05-18,株式会社アイボンド,,株式会社,宮城県,仙台市宮城野区,宮千代２丁目１番地の９プランドールＫ１０１,,04,102,9830044,,,,,,,2023-05-18,1,,,,,アイボンド,0
1067,4390005009011,新規,0,2023-05-18,2023-05-18,一般社団法人庄内建設発生土再生協会,,その他の設立登記法人,山形県,東田川郡庄内町,提興屋字中島６８番地,,06,428,9997706,,,,,,,2023-05-18,1,,,,,ショウナイケンセツハッセイドサイセイキョウカイ,0
1074,4430001089151,新規,0,2023-05-18,2023-05-18,株式会社竹田武彦,,株式会社,北海道,札幌市中央区,北五条西２丁目５番地ＪＲタワーオフィスプラザさっぽろ１７階,,01,101,0600005,,,,,,,2023-05-18,1,,,,,タケダタケヒコ,0
1075,4430003015056,新規,0,2023-05-18,2023-05-18,合同会社コンサル札幌フィンケム,,合同会社,北海道,札幌市中央区,円山西町５丁目３番１５号,,01,101,0640944,,,,,,,2023-05-18,1,,,,,コンサルサッポロフィンケム,0
1077,4450001013992,新規,0,2023-05-18,2023-05-18,株式会社鴻松園,,株式会社,北海道,旭川市,東旭川町倉沼３１番地の３,,01,204,0788205,,,,,,,2023-05-18,1,,,,,コウショウエン,0
1080,4470001019625,新規,0,2023-05-18,2023-05-18,株式会社ＫＯＲＡＮ,,株式会社,香川県,高松市,新北町１９番１０－２０６号サンセットヒルズＩ２０７,00130537,37,201,7600001,,,,,,,2023-05-18,1,,,,,コーラン,0
1081,4470003002422,新規,0,2023-05-18,2023-05-18,合同会社ｅｐｅｉｓｕｔｏ,,合同会社,香川県,木田郡三木町,大字池戸２６６９番地８,,37,341,7610701,,,,,,,2023-05-18,1,,,,,エペイスト,0
1083,4490001010482,新規,0,2023-05-18,2023-05-18,ＧｒｉｎＣａｅｌｕｍ株式会社,,株式会社,高知県,高知市,海老ノ丸１１番１０号ソレイユｅ５０３,,39,201,7810086,,,,,,,2023-05-18,1,,,,,グリンカエルム,0
1085,4700150116240,新規,0,2023-05-18,2023-05-18,ＷＩＳＥ　ＳＰＲＩＮＧ　ＤＥＶＥＬＯＰＭＥＮＴＳ　ＬＩＭＩＴＥＤ,,外国会社等,北海道,虻田郡倶知安町,ニセコひらふ一条２丁目１８１番５５－３６１号,,01,400,0440080,英国領ヴァージン諸島、トルトーラ、ロードタウン、ウィッカムズケイＩＩ、ビストラコーポレートサービシズセンター,00130540,,,,,2023-05-18,1,,,,,ワイズスプリングデベロツプメンツリミテツド,0
1086,4700150116249,新規,0,2023-05-18,2023-05-18,ＧＡＭＡＡＣＨＩ　ＰＶＴ　ＬＴＤ．,,外国会社等,神奈川県,愛甲郡愛川町,中津２２８７－１ハイムＫ２０２,,14,401,2430303,スリランカ民主社会主義共和国、バドゥッラ、マダパタナ道Ｎｏ．１５／１Ｂ,,,,,,2023-05-18,1,,,,,ガマーチピイブイテイリミテツド,0
1094,5010003040624,新規,0,2023-05-18,2023-05-18,合同会社おぼろ,,合同会社,東京都,千代田区,神田和泉町１番地６－１６ヤマトビル４０５,,13,101,1010024,,,,,,,2023-05-18,1,,,,,オボロ,0
1095,5010005036703,新規,0,2023-05-18,2023-05-18,黒岩５一般社団法人,,その他の設立登記法人,東京都,千代田区,丸の内３丁目１番１号東京共同会計事務所内,,13,101,1000005,,,,,,,2023-05-18,1,,,,,クロイワファイブ,0
1105,5010401174395,新規,0,2023-05-18,2023-05-18,ＩＮＳＴＹＬＥ　ＧＲＯＵＰ株式会社,,株式会社,東京都,港区,六本木３丁目２番１号住友不動産六本木グランドタワー４３階,,13,103,1060032,,,,,,,2023-05-18,1,,,,,インスタイルグループ,0
1112,5010801033944,新規,0,2023-05-18,2023-05-18,株式会社ＣＡＮＡＷＡＹ,,株式会社,東京都,大田区,田園調布南１番９－１０１号,,13,111,1450076,,,,,,,2023-05-18,1,,,,,キャナウェイ,0
1120,5011001154457,新規,0,2023-05-18,2023-05-18,株式会社エンフォーライフ,,株式会社,東京都,渋谷区,道玄坂１丁目２２番１－１３０２号ＳＨＩＢＵＹＡＨＩＬＬＴＯＰ,,13,113,1500043,,,,,,,2023-05-18,1,,,,,エンフォーライフ,0
1121,5011001154515,新規,0,2023-05-18,2023-05-18,株式会社ＵＮＩＯＮ,,株式会社,東京都,渋谷区,恵比寿４丁目２０番４号恵比寿ガーデンプレイスグラススクエアＢ１Ｆ,,13,113,1500013,,,,,,,2023-05-18,1,,,,,ユニオン,0
1122,5011001154523,新規,0,2023-05-18,2023-05-18,フォーシロージー株式会社,,株式会社,東京都,渋谷区,広尾１丁目１３番１３－１１０１号ネベル恵比寿,,13,113,1500012,,,,,,,2023-05-18,1,,,,,フォーシロージー,0
1125,5011101102893,新規,0,2023-05-18,2023-05-18,アーテミスグループ株式会社,,株式会社,東京都,新宿区,高田馬場３丁目１８－２２イニシアイオ高田馬場３０８,,13,104,1690075,,,,,,,2023-05-18,1,,,,,アーテミスグループ,0
1127,5011303004764,新規,0,2023-05-18,2023-05-18,合同会社ＳＨＩＲＡＣＯ,,合同会社,東京都,杉並区,西荻南３丁目１５番９号ＧＳハイム西荻窪１０７号室,,13,115,1670053,,,,,,,2023-05-18,1,,,,,シラコ,0
1134,5011701026253,新規,0,2023-05-18,2023-05-18,株式会社Ｅｐｉｃｐｉｅｃｅ,,株式会社,東京都,江戸川区,平井４丁目３番２２号ＡｑｕａＭａｒｉｎｅ２０１,,13,123,1320035,,,,,,,2023-05-18,1,,,,,エピックピース,0
1137,5012303001826,新規,0,2023-05-18,2023-05-18,Ａｌｌｉｅｄｐｏｒｔ合同会社,,合同会社,東京都,町田市,西成瀬３丁目１３番１８号,,13,209,1940046,,,,,,,2023-05-18,1,,,,,アライドポート,0
1142,5012401040536,新規,0,2023-05-18,2023-05-18,株式会社相馬,,株式会社,東京都,三鷹市,中原１丁目２４番１４号,,13,204,1810005,,,,,,,2023-05-18,1,,,,,ソウマ,0
1143,5012401040544,新規,0,2023-05-18,2023-05-18,株式会社ノーボーダー,,株式会社,東京都,三鷹市,上連雀８丁目７番３０号,,13,204,1810012,,,,,,,2023-05-18,1,,,,,ノーボーダー,0
1156,5020001151661,新規,0,2023-05-18,2023-05-18,株式会社ｄｏＴｃｏｎｎｅｃｔ,,株式会社,神奈川県,横浜市中区,住吉町４丁目４５番地１関内トーセイビルＩＩ９階,00130533,14,104,2310013,,,,,,,2023-05-18,1,,,,,ドットコネクト,0
1180,5030001153698,新規,0,2023-05-18,2023-05-18,株式会社ＮＥＵＦ,,株式会社,埼玉県,川口市,並木２丁目１８番１６号メゾン・ドルチェ並木１０２,,11,203,3320034,,,,,,,2023-05-18,1,,,,,ヌフ,0
1181,5030001153847,新規,0,2023-05-18,2023-05-18,株式会社Ｍｏｒａｄｏ,,株式会社,埼玉県,川口市,戸塚２丁目２４番７号,,11,203,3330811,,,,,,,2023-05-18,1,,,,,モラド,0
1182,5030001154028,新規,0,2023-05-18,2023-05-18,株式会社成和,,株式会社,埼玉県,川口市,戸塚南１丁目１４番１９号,,11,203,3330817,,,,,,,2023-05-18,1,,,,,セイワ,0
1191,5040001128476,新規,0,2023-05-18,2023-05-18,株式会社Ｔ‐ＬＡＢ,,株式会社,千葉県,千葉市中央区,富士見２丁目１６番１９号２階,,12,101,2600015,,,,,,,2023-05-18,1,,,,,ティーラボ,0
1192,5040001128484,新規,0,2023-05-18,2023-05-18,株式会社飛鳥建設,,株式会社,千葉県,浦安市,北栄３丁目３８番４５－３０３号コーポコーケン,,12,227,2790002,,,,,,,2023-05-18,1,,,,,アスカケンセツ,0
1208,5090001018128,新規,0,2023-05-18,2023-05-18,株式会社ＭＩＯｒｄｅｒ,,株式会社,山梨県,甲府市,武田３丁目５番２４号山梨大学武田宿舎１号棟３０２,,19,201,4000016,,,,,,,2023-05-18,1,,,,,マイオーダー,0
1211,5110001037546,新規,0,2023-05-18,2023-05-18,株式会社やまかコーポレーション,,株式会社,新潟県,長岡市,上除町甲１６４０番地１３,,15,202,9402033,,,,,,,2023-05-18,1,,,,,ヤマカコーポレーション,0
1221,5120001254891,新規,0,2023-05-18,2023-05-18,株式会社ＹＵＭＥーＭＩＲＵ,,株式会社,大阪府,大阪市北区,太融寺町８番１７号プラザ梅田５Ｆ,,27,127,5300051,,,,,,,2023-05-18,1,,,,,ユメーミル,0
1222,5120001254958,新規,0,2023-05-18,2023-05-18,小北塗装株式会社,,株式会社,大阪府,枚方市,藤阪元町２丁目５４－２１,,27,210,5730157,,,,,,,2023-05-18,1,,,,,コギタトソウ,0
1223,5120001255007,新規,0,2023-05-18,2023-05-18,ＧＬ株式会社,,株式会社,大阪府,大阪市北区,中之島６丁目１番３８－３１０３号,,27,127,5300005,,,,,,,2023-05-18,1,,,,,ジーエル,0
1224,5120001255023,新規,0,2023-05-18,2023-05-18,株式会社Ｌｉｙｌ,,株式会社,大阪府,大阪市中央区,北浜３丁目１番２２号,,27,128,5410041,,,,,,,2023-05-18,1,,,,,リル,0
1225,5120001255031,新規,0,2023-05-18,2023-05-18,株式会社Ｓｗｉｔｃｈ　ｏｎ,,株式会社,大阪府,枚方市,出口４丁目４３番１８－２０１号,,27,210,5730065,,,,,,,2023-05-18,1,,,,,スイッチオン,0
1226,5120001255056,新規,0,2023-05-18,2023-05-18,Ｏｓａｋａ　Ｍａｃｈｉｎｅｒｙ株式会社,,株式会社,大阪府,大阪市中央区,本町橋６番１９号,,27,128,5400029,,,,,,,2023-05-18,1,,,,,オオサカマシナリー,0
1236,5120903004642,新規,0,2023-05-18,2023-05-18,合同会社Ｌｉｔｏｐ,,合同会社,大阪府,吹田市,川岸町１５－５－３０２,,27,205,5640037,,,,,,,2023-05-18,1,,,,,リトップ,0
1240,5130003008733,新規,0,2023-05-18,2023-05-18,合同会社アトリエ迦樂舎,,合同会社,京都府,京都市中京区,河原町通御池下る下丸屋町３９０番地２ＱＵＥＳＴＩＯＮ内,,26,104,6048006,,,,,,,2023-05-18,1,,,,,アトリエカラクシャ,0
1241,5130003008741,新規,0,2023-05-18,2023-05-18,ＭＹ　ＴＩＭＥ合同会社,,合同会社,京都府,京都市伏見区,醍醐高畑町３０番地１３,,26,109,6011375,,,,,,,2023-05-18,1,,,,,マイタイム,0
1253,5160001025034,新規,0,2023-05-18,2023-05-18,江州煉瓦株式会社,,株式会社,滋賀県,守山市,浮気町３１９番地,,25,207,5240033,,,,,,,2023-05-18,1,,,,,コウシュウレンガ,0
1254,5160001025050,新規,0,2023-05-18,2023-05-18,ティティファーム株式会社,,株式会社,滋賀県,栗東市,六地蔵４１０番地５,,25,208,5203017,,,,,,,2023-05-18,1,,,,,ティティファーム,0
1258,5170001017609,新規,0,2023-05-18,2023-05-18,株式会社大惺,,株式会社,和歌山県,和歌山市,秋月１３５－８,,30,201,6408322,,,,,,,2023-05-18,1,,,,,タイセイ,0
1267,5180303005707,新規,0,2023-05-18,2023-05-18,合同会社Ｙ‐ＮＯＴＩＣＥ,,合同会社,愛知県,豊田市,竜神町新生３５番地３,,23,211,4730907,,,,,,,2023-05-18,1,,,,,ワイノーティス,0
1276,5240001061541,新規,0,2023-05-18,2023-05-18,株式会社ＰＲＯＶＥ　ＡＣＥ,,株式会社,広島県,広島市西区,庚午中２丁目９番１９－１０２号,,34,104,7330822,,,,,,,2023-05-18,1,,,,,プルーブエース,0
1289,5260001037969,新規,0,2023-05-18,2023-05-18,オベロントランステック株式会社,,株式会社,岡山県,岡山市北区,本町６番３６号第一セントラルビル４階,,33,101,7000901,,,,,,,2023-05-18,1,,,,,オベロントランステック,0
1293,5290001101540,新規,0,2023-05-18,2023-05-18,株式会社ＥＮＴＯＲＩＮＯ,,株式会社,福岡県,福岡市博多区,比恵町１０番３２リアンレガーロ博多ステーション１０１号,,40,132,8120014,,,,,,,2023-05-18,1,,,,,エントリノ,0
1294,5290001101573,新規,0,2023-05-18,2023-05-18,株式会社スカイワーク,,株式会社,福岡県,久留米市,野中町１４２１－７大成ビル１Ｆ,,40,203,8390862,,,,,,,2023-05-18,1,,,,,スカイワーク,0
1299,5290003013916,新規,0,2023-05-18,2023-05-18,プライマ・トレードジャパン合同会社,,合同会社,福岡県,福岡市西区,愛宕浜２丁目３番９号,,40,135,8190013,,,,,,,2023-05-18,1,,,,,プライマトレードジャパン,0
1304,5300001013305,新規,0,2023-05-18,2023-05-18,株式会社つなご,,株式会社,佐賀県,佐賀市,川副町大字犬井道１０６３－１,,41,201,8402212,,,,,,,2023-05-18,1,,,,,ツナゴ,0
1307,5320001019779,新規,0,2023-05-18,2023-05-18,ルマージー株式会社,,株式会社,大分県,大分市,季の坂１丁目５番１０号,,44,201,8700870,,,,,,,2023-05-18,1,,,,,ルマージー,0
1310,5330003009851,新規,0,2023-05-18,2023-05-18,Ｌｉｂｅｒｔｙ合同会社,,合同会社,熊本県,熊本市中央区,水前寺２丁目５－１３,,43,101,8620950,,,,,,,2023-05-18,1,,,,,リバティー,0
1312,5360005006852,新規,0,2023-05-18,2023-05-18,一般社団法人門腹門中,,その他の設立登記法人,沖縄県,豊見城市,字平良４０番地２,,47,212,9010212,,,,,,,2023-05-18,1,,,,,ジョウバラモンチュウ,0
1314,5370001049978,新規,0,2023-05-18,2023-05-18,株式会社ｃｌｉ,,株式会社,宮城県,仙台市宮城野区,宮千代１丁目１９－４スクーデリア宮千代Ｄ号室,,04,102,9830044,,,,,,,2023-05-18,1,,,,,シーエルアイ,0
1325,5430001089134,新規,0,2023-05-18,2023-05-18,株式会社アイディアル,,株式会社,北海道,札幌市白石区,菊水七条２丁目４番１８号セピア２０２号,,01,104,0030807,,,,,,,2023-05-18,1,,,,,アイディアル,0
1326,5430001089150,新規,0,2023-05-18,2023-05-18,株式会社コードユニット,,株式会社,北海道,札幌市東区,北十一条東１丁目１番４０号,,01,103,0650011,,,,,,,2023-05-18,1,,,,,コードユニット,0
1328,5430003015055,新規,0,2023-05-18,2023-05-18,合同会社ボニート,,合同会社,北海道,札幌市豊平区,豊平五条８丁目２番３号やまいちビル１Ｆ,,01,105,0620905,,,,,,,2023-05-18,1,,,,,ボニート,0
1330,5450001013991,新規,0,2023-05-18,2023-05-18,株式会社岩田電気,,株式会社,北海道,礼文郡礼文町,大字香深村字ベッシュ９６１番地の１,,01,517,0971201,,,,,,,2023-05-18,1,,,,,イワタデンキ,0
1341,5700150116248,新規,0,2023-05-18,2023-05-18,ＫＯＢＥ　ＭＯＴＯＲＳ　ＰＲＩＶＡＴＥ　ＬＩＭＩＴＥＤ,,外国会社等,神奈川県,大和市,福田１３８０－５Ａ－３,,14,213,2420024,レソト王国・マセル１００・マセル・バール・パブリック・サラング・ニアル・クベツオアナ・レシデンス・ツェペ・マジヤラ・ヒラテ・チィフ,,,,,,2023-05-18,1,,,,,コベモータースプライベートリミテツド,0
1349,6010001235381,新規,0,2023-05-18,2023-05-18,美々人株式会社,,株式会社,東京都,中央区,日本橋兜町９－５,,13,102,1030026,,,,,,,2023-05-18,1,,,,,ビビット,0
1350,6010003040581,新規,0,2023-05-18,2023-05-18,アルファワークパートナーズ合同会社,,合同会社,東京都,中央区,日本橋室町１丁目１１番１２号日本橋水野ビル７階,,13,102,1030022,,,,,,,2023-05-18,1,,,,,アルファワークパートナーズ,0
1352,6010005036685,新規,0,2023-05-18,2023-05-18,四街道２特定目的会社,,その他の設立登記法人,東京都,千代田区,飯田橋４丁目７番１号結和税理士法人内,,13,101,1020072,,,,,,,2023-05-18,1,,,,,ヨツカイドウツー,0
1362,6010401174428,新規,0,2023-05-18,2023-05-18,株式会社Ｒａｂｂｉｔ　Ｃｏｒｐｏｒａｔｉｏｎ,,株式会社,東京都,港区,新橋３丁目３番１３号,,13,103,1050004,,,,,,,2023-05-18,1,,,,,ラビットコーポレーション,0
1364,6010403030117,新規,0,2023-05-18,2023-05-18,ｃｏ‐ｃｒｉ合同会社,,合同会社,東京都,港区,芝浦４丁目２０番２－４５１３号,,13,103,1080023,,,,,,,2023-05-18,1,,,,,コクリ,0
1365,6010403030133,新規,0,2023-05-18,2023-05-18,合同会社Ｌｕｍｉｌｉｏｎ,,合同会社,東京都,港区,北青山２丁目７番２７号６階,,13,103,1070061,,,,,,,2023-05-18,1,,,,,ルミリオン,0
1366,6010405022104,新規,0,2023-05-18,2023-05-18,エムケーファイブ特定目的会社,,その他の設立登記法人,東京都,港区,虎ノ門３丁目２２番１０－２０１号,,13,103,1050001,,,,,,,2023-05-18,1,,,,,エムケーファイブ,0
1372,6010603010158,新規,0,2023-05-18,2023-05-18,合同会社ポステリティ,,合同会社,東京都,江東区,豊洲５丁目６番２９－１２０８号,,13,108,1350061,,,,,,,2023-05-18,1,,,,,ポステリティ,0
1378,6010703006700,新規,0,2023-05-18,2023-05-18,ＲＶＢ合同会社,,合同会社,東京都,品川区,大崎４丁目３番２号秋葉ビル３０１,,13,109,1410032,,,,,,,2023-05-18,1,,,,,アールヴィービー,0
1387,6010901053073,新規,0,2023-05-18,2023-05-18,Ｂｒａｎｄ　Ｄｅｓｉｇｎ株式会社,,株式会社,東京都,世田谷区,成城５丁目２２番１７号,,13,112,1570066,,,,,,,2023-05-18,1,,,,,ブランドデザイン,0
1389,6011001154423,新規,0,2023-05-18,2023-05-18,株式会社ｆｌｕｏｒｉｔｅ　ａｇｅｎｃｙ,,株式会社,東京都,渋谷区,渋谷２丁目１９番１５号宮益坂ビルディング６０９,,13,113,1500002,,,,,,,2023-05-18,1,,,,,フローライトエージェンシー,0
1390,6011001154514,新規,0,2023-05-18,2023-05-18,株式会社サンレイ,,株式会社,東京都,渋谷区,上原３丁目３４番１３号ｈｉｌｌ’ｓ上原２０３,,13,113,1510064,,,,,,,2023-05-18,1,,,,,サンレイ,0
1415,6011801042372,新規,0,2023-05-18,2023-05-18,株式会社ＴＲＹ,,株式会社,東京都,足立区,鹿浜６丁目３６－１７－２０１サンライズ鹿浜,,13,121,1230864,,,,,,,2023-05-18,1,,,,,トライ,0
1417,6012301013450,新規,0,2023-05-18,2023-05-18,株式会社Ｓｈｉｂｕｙａ　Ｇａｒｄｅｎ,,株式会社,東京都,町田市,木曽町４９４番地１,,13,209,1940033,,,,,,,2023-05-18,1,,,,,シブヤガーデン,0
1429,6020001151660,新規,0,2023-05-18,2023-05-18,株式会社の中,,株式会社,神奈川県,横浜市磯子区,原町８番５号,,14,107,2350008,,,,,,,2023-05-18,1,,,,,ノナカ,0
1435,6021001079090,新規,0,2023-05-18,2023-05-18,おざわ株式会社,,株式会社,神奈川県,小田原市,小八幡１丁目８番４０号,,14,206,2560815,,,,,,,2023-05-18,1,,,,,オザワ,0
1444,6030001153796,新規,0,2023-05-18,2023-05-18,ＫＮＩジャパン株式会社,,株式会社,埼玉県,新座市,中野１丁目８番１８号,,11,230,3520005,,,,,,,2023-05-18,1,,,,,ケーエヌアイジャパン,0
1445,6030001153846,新規,0,2023-05-18,2023-05-18,株式会社大竹土建,,株式会社,埼玉県,行田市,佐間２丁目１９番２２号,,11,206,3610032,,,,,,,2023-05-18,1,,,,,オオタケドケン,0
1452,6030003021786,新規,0,2023-05-18,2023-05-18,合同会社ＳＳ,,合同会社,埼玉県,所沢市,小手指町５丁目１３番地の２,,11,208,3591141,,,,,,,2023-05-18,1,,,,,エスエス,0
1454,6040001128450,新規,0,2023-05-18,2023-05-18,株式会社リバイタライズ,,株式会社,千葉県,成田市,中台６丁目１９番地１６,,12,211,2860015,,,,,,,2023-05-18,1,,,,,リバイタライズ,0
1455,6040001128475,新規,0,2023-05-18,2023-05-18,株式会社川崎内山アドバンス,,株式会社,千葉県,市川市,新井３丁目６番１０号,,12,203,2720144,,,,,,,2023-05-18,1,,,,,カワサキウチヤマアドバンス,0
1456,6040001128491,新規,0,2023-05-18,2023-05-18,株式会社スプレッドスポーツ,,株式会社,千葉県,八千代市,大和田１６５番地２３,,12,221,2760045,,,,,,,2023-05-18,1,,,,,スプレッドスポーツ,0
1474,6080403004790,新規,0,2023-05-18,2023-05-18,合同会社ｔｒｕｅ‐５,,合同会社,静岡県,浜松市中区,高丘北１丁目２０番１０号,,22,131,4338119,,,,,,,2023-05-18,1,,,,,トゥルーファイブ,0
1476,6100003007019,新規,0,2023-05-18,2023-05-18,合同会社こうみゆうきちゃん倶楽部,,合同会社,長野県,南佐久郡小海町,大字小海５５６３,,20,303,3841102,,,,,,,2023-05-18,1,,,,,コウミユウキチャンクラブ,0
1484,6120001254899,新規,0,2023-05-18,2023-05-18,株式会社マスターズゴルフ,,株式会社,大阪府,大阪市中央区,（大阪市東区北久宝寺町五丁目２５番地東明ビル１階）,,27,128,5390000,,,,,,,2023-05-18,1,,,,,マスターズゴルフ,0
1485,6120001255014,新規,0,2023-05-18,2023-05-18,桜エステート株式会社,,株式会社,大阪府,大阪市城東区,永田３丁目１４番２２号,,27,118,5360022,,,,,,,2023-05-18,1,,,,,サクラエステート,0
1486,6120001255030,新規,0,2023-05-18,2023-05-18,大福商事株式会社,,株式会社,大阪府,大阪市城東区,今福南４丁目６番５８号２Ｆ－Ａ号室,,27,118,5360003,,,,,,,2023-05-18,1,,,,,ダイフクショウジ,0
1487,6120001255039,新規,0,2023-05-18,2023-05-18,浩青株式会社,,株式会社,大阪府,大阪市北区,東天満１丁目３－１１,,27,127,5300044,,,,,,,2023-05-18,1,,,,,コウセイ,0
1489,6120003024094,新規,0,2023-05-18,2023-05-18,合同会社ユニヴェール,,合同会社,大阪府,大阪市都島区,東野田町２丁目８‐３１サンプラザビル京橋６０２,,27,102,5340024,,,,,,,2023-05-18,1,,,,,ユニヴェール,0
1490,6120003024111,新規,0,2023-05-18,2023-05-18,さくらバックオフィスサポート合同会社,,合同会社,大阪府,大阪市浪速区,難波中２丁目１０番７０号パークスタワー１９階,,27,111,5560011,,,,,,,2023-05-18,1,,,,,サクラバックオフィスサポート,0
1491,6120005023623,新規,0,2023-05-18,2023-05-18,一般社団法人オートレランス,,その他の設立登記法人,大阪府,大阪市天王寺区,味原町７番６号,,27,109,5430023,,,,,,,2023-05-18,1,,,,,オートレランス,0
1492,6120101067557,新規,0,2023-05-18,2023-05-18,株式会社ＮＥＸＴ　ＳＴＡＧＥ,,株式会社,大阪府,堺市北区,北花田町４丁８９番地５６（２Ｆ）,,27,146,5918002,,,,,,,2023-05-18,1,,,,,ネクストステージ,0
1496,6122001036971,新規,0,2023-05-18,2023-05-18,株式会社エアライズ,,株式会社,大阪府,東大阪市,横小路町４丁目９番４７号,,27,227,5798063,,,,,,,2023-05-18,1,,,,,エアライズ,0
1501,6130003008740,新規,0,2023-05-18,2023-05-18,合同会社ＲｉＲｉＫａ,,合同会社,京都府,京都市西京区,大原野上里勝山町５番地４,,26,111,6101125,,,,,,,2023-05-18,1,,,,,リリカ,0
1505,6140001130223,新規,0,2023-05-18,2023-05-18,株式会社ＣｏＳ‐ＴＥＣ,,株式会社,兵庫県,神戸市中央区,磯部通二丁目１－２,,28,110,6500000,,,,,,,2023-05-18,1,,,,,コステック,0
1506,6140001130231,新規,0,2023-05-18,2023-05-18,株式会社ニューロ,,株式会社,兵庫県,明石市,松が丘３丁目３番４３号,,28,203,6730862,,,,,,,2023-05-18,1,,,,,ニューロ,0
1507,6140001130248,新規,0,2023-05-18,2023-05-18,株式会社Ｔ．Ｙ工務,,株式会社,兵庫県,神戸市垂水区,北舞子４丁目６番５８号,,28,108,6550045,,,,,,,2023-05-18,1,,,,,ティーワイコウム,0
1514,6160005011194,新規,0,2023-05-18,2023-05-18,一般社団法人豊かなまちづくり協会,,その他の設立登記法人,滋賀県,甲賀市,甲南町杉谷３７５番地,,25,209,5203314,,,,,,,2023-05-18,1,,,,,ユタカナマチヅクリキョウカイ,0
1519,6180001156314,新規,0,2023-05-18,2023-05-18,株式会社シクミノ,,株式会社,愛知県,名古屋市北区,上飯田西町２丁目４６番地９０２号,,23,103,4620809,,,,,,,2023-05-18,1,,,,,シクミノ,0
1520,6180001156355,新規,0,2023-05-18,2023-05-18,株式会社３ｐｅａｃｅ名古屋,,株式会社,愛知県,一宮市,開明字新田沼３４番地,,23,203,4940001,,,,,,,2023-05-18,1,,,,,スリーピースナゴヤ,0
1522,6180003025244,新規,0,2023-05-18,2023-05-18,合同会社Ｒａｎｄ　Ｋ,,合同会社,愛知県,名古屋市千種区,田代本通１丁目１０番地,,23,101,4640827,,,,,,,2023-05-18,1,,,,,ランドケー,0
1525,6180301037404,新規,0,2023-05-18,2023-05-18,ＧＸ　ＭＩＮＥＲＡＬＳ株式会社,,株式会社,愛知県,岡崎市,明大寺本町１丁目２４番地,,23,202,4440860,,,,,,,2023-05-18,1,,,,,ジーエックスミネラルズ,0
1529,6190001030410,新規,0,2023-05-18,2023-05-18,株式会社ＡＬＡＩＳＥ,,株式会社,三重県,伊勢市,旭町７５番地２,,24,203,5160045,,,,,,,2023-05-18,1,,,,,アレーズ,0
1531,6200003005961,新規,0,2023-05-18,2023-05-18,合同会社穂の音,,合同会社,岐阜県,揖斐郡大野町,大字公郷３２７５番地５,,21,403,5010555,,,,,,,2023-05-18,1,,,,,ホノオ,0
1533,6220001025415,新規,0,2023-05-18,2023-05-18,株式会社エスユー,,株式会社,石川県,野々市市,本町２丁目１５番９号,,17,212,9218815,,,,,,,2023-05-18,1,,,,,エスユー,0
1535,6220003003518,新規,0,2023-05-18,2023-05-18,合同会社菊次郎デザイン,,合同会社,石川県,金沢市,泉本町１丁目９２番地５,,17,201,9218042,,,,,,,2023-05-18,1,,,,,キクジロウデザイン,0
1537,6230001019845,新規,0,2023-05-18,2023-05-18,株式会社ＴｉＥ,,株式会社,富山県,富山市,赤田３６３番地,,16,201,9398064,,,,,,,2023-05-18,1,,,,,ティーアイイー,0
1540,6240001061532,新規,0,2023-05-18,2023-05-18,株式会社ＪＮＦ,,株式会社,広島県,広島市中区,基町１１番－１０合人社広島紙屋町ビル８Ｆ－２６,,34,101,7300011,,,,,,,2023-05-18,1,,,,,ジェイエヌエフ,0
1541,6240001061549,新規,0,2023-05-18,2023-05-18,株式会社檸檬企画,,株式会社,広島県,広島市中区,小町５－２９－１３０１号,,34,101,7300041,,,,,,,2023-05-18,1,,,,,レモンキカク,0
1551,6270003001525,新規,0,2023-05-18,2023-05-18,合同会社てん,,合同会社,鳥取県,米子市,和田町１２０２番地３,,31,202,6830102,,,,,,,2023-05-18,1,,,,,テン,0
1562,6290001101564,新規,0,2023-05-18,2023-05-18,株式会社ＪＵＮＳＨＩ,,株式会社,福岡県,福岡市中央区,清川２丁目３番２５号,,40,133,8100005,,,,,,,2023-05-18,1,,,,,ジュンシ,0
1563,6290001101572,新規,0,2023-05-18,2023-05-18,株式会社ハイドランジア,,株式会社,福岡県,糟屋郡志免町,石橋台２１番地６,,40,343,8112203,,,,,,,2023-05-18,1,,,,,ハイドランジア,0
1568,6290003013931,新規,0,2023-05-18,2023-05-18,合同会社菊池赤星開発,,合同会社,福岡県,福岡市博多区,冷泉町２番９号,,40,132,8120039,,,,,,,2023-05-18,1,,,,,キクチアカホシカイハツ,0
1573,6310003004572,新規,0,2023-05-18,2023-05-18,合同会社てんとうむし企画,,合同会社,長崎県,対馬市,豊玉町佐保４３４番地,,42,209,8171254,,,,,,,2023-05-18,1,,,,,テントウムシキカク,0
1574,6320001019778,新規,0,2023-05-18,2023-05-18,株式会社Ｔ＆Ａアソシエイツ,,株式会社,大分県,大分市,新川町２丁目８番２０号,,44,201,8700016,,,,,,,2023-05-18,1,,,,,ティーエーアソシエイツ,0
1579,6360003012959,新規,0,2023-05-18,2023-05-18,合同会社チャンプルー・コーポレーション,,合同会社,沖縄県,那覇市,久米２丁目３番１５号ＣＯＩ那覇ビル５階,,47,201,9000033,,,,,,,2023-05-18,1,,,,,チャンプルーコーポレーション,0
1580,6360005006851,新規,0,2023-05-18,2023-05-18,一般社団法人めぐちいこ,,その他の設立登記法人,沖縄県,那覇市,金城５丁目８番地１２,,47,201,9010155,,,,,,,2023-05-18,1,,,,,メグチイコ,0
1582,6370001049969,新規,0,2023-05-18,2023-05-18,株式会社ムーブオン,,株式会社,宮城県,宮城郡利府町,しらかし台５丁目１番地３,,04,406,9810134,,,,,,,2023-05-18,1,,,,,ムーブオン,0
1589,6380001033708,新規,0,2023-05-18,2023-05-18,株式会社ビー・サポーティング,,株式会社,福島県,郡山市,字名倉１番地の３,,07,203,9638845,,,,,,,2023-05-18,1,,,,,ビーサポーティング,0
1603,6430003015038,新規,0,2023-05-18,2023-05-18,Ａ．Ｓｕｚｕｋｉ　Ｇｅｎｅｒａｌ　Ｔｒａｄｉｎｇ合同会社,,合同会社,北海道,札幌市南区,北ノ沢９丁目２番９号,,01,106,0050832,,,,,,,2023-05-18,1,,,,,エースズキジェネラルトレーディング,0
1609,6700150116239,新規,0,2023-05-18,2023-05-18,安格海外地産發展有限公司,,外国会社等,大阪府,大阪市浪速区,日本橋東２丁目８番地１６,,27,111,5560006,中華人民共和国香港特別行政区九龍尖沙咀廣東道３３號中港城２座１９楼,,,,,,2023-05-18,1,,,,,アンカクカイガイチサンハツテンユウゲンコウシ,0
1610,6700150116247,新規,0,2023-05-18,2023-05-18,ＲＥＮＺＯ　ＬＡＮＫＡ　ＰＶＴ　ＬＴＤ,,外国会社等,神奈川県,綾瀬市,落合南８丁目８－３２－１,,14,218,2521115,スリランカ民主主義社会共和国、キャンディ、ムルタラワ、ペラゴラ、Ｎｏ．２８,,,,,,2023-05-18,1,,,,,レンゾランカピウイテイエルテイデイ,0
1635,7010401174410,新規,0,2023-05-18,2023-05-18,株式会社Ｒ．Ｅ．Ｍ．Ｄ,,株式会社,東京都,港区,赤坂８丁目５番５－５０３号,,13,103,1070052,,,,,,,2023-05-18,1,,,,,アールイーエムディー,0
1636,7010401174419,新規,0,2023-05-18,2023-05-18,株式会社ＰＬＥＡＳＡＮＴ　ＦＬＯＷ,,株式会社,東京都,港区,浜松町１丁目３番１号,,13,103,1050013,,,,,,,2023-05-18,1,,,,,プレザントフロウ,0
1640,7010403030099,新規,0,2023-05-18,2023-05-18,合同会社ノンフィクションジャパン,,合同会社,東京都,港区,北青山２丁目１４番４号,,13,103,1070061,,,,,,,2023-05-18,1,,,,,ノンフィクションジャパン,0
1641,7010403030116,新規,0,2023-05-18,2023-05-18,合同会社ＮＡＣ,,合同会社,東京都,港区,虎ノ門４丁目１番３４－９０７号,,13,103,1050001,,,,,,,2023-05-18,1,,,,,エヌエーシー,0
1642,7010405022136,新規,0,2023-05-18,2023-05-18,ジャパンロジスティクス２一般社団法人,,その他の設立登記法人,東京都,港区,六本木１丁目９番１０号アークヒルズ仙石山森タワー４０階,,13,103,1060032,,,,,,,2023-05-18,1,,,,,ジャパンロジスティクスツー,0
1649,7010903008173,新規,0,2023-05-18,2023-05-18,合同会社ザ・スカワールド,,合同会社,東京都,世田谷区,成城６丁目１５号２３－３０３号,,13,112,1570066,,,,,,,2023-05-18,1,,,,,ザスカワールド,0
1662,7011001154380,新規,0,2023-05-18,2023-05-18,株式会社ｕｎｉｔｏｒｏ,,株式会社,東京都,渋谷区,渋谷２丁目１９番１５号宮益坂ビルディング６０９,,13,113,1500002,,,,,,,2023-05-18,1,,,,,ウニトロ,0
1663,7011001154455,新規,0,2023-05-18,2023-05-18,ＳｏｌａｒＤｕｃｋ株式会社,,株式会社,東京都,渋谷区,代々木１丁目３０－１５天翔代々木ビル１階Ｓ１１１号室,,13,113,1510053,,,,,,,2023-05-18,1,,,,,ソーラーダック,0
1664,7011001154505,新規,0,2023-05-18,2023-05-18,株式会社ＭＵＧＡ,,株式会社,東京都,渋谷区,道玄坂１丁目１０番８号渋谷道玄坂東急ビル２Ｆ－Ｃ,,13,113,1500043,,,,,,,2023-05-18,1,,,,,ムガ,0
1665,7011001154513,新規,0,2023-05-18,2023-05-18,株式会社クルー,,株式会社,東京都,渋谷区,桜丘町２３番１７号シティコート桜丘４０８,,13,113,1500031,,,,,,,2023-05-18,1,,,,,クルー,0
1666,7011001154521,新規,0,2023-05-18,2023-05-18,Ｔｕｒｉｎｇ　Ｊａｐａｎ株式会社,,株式会社,東京都,渋谷区,渋谷２丁目１０番１５号,,13,113,1500002,,,,,,,2023-05-18,1,,,,,チューリングジャパン,0
1667,7011001154546,新規,0,2023-05-18,2023-05-18,株式会社新田カメラサービス,,株式会社,東京都,目黒区,中町１丁目１９番７号,,13,110,1530065,,,,,,,2023-05-18,1,,,,,ニッタカメラサービス,0
1671,7011003016793,新規,0,2023-05-18,2023-05-18,フォアロック合同会社,,合同会社,東京都,渋谷区,神宮前６丁目２３－４桑野ビル２階,,13,113,1500001,,,,,,,2023-05-18,1,,,,,フォアロック,0
1682,7011301028697,新規,0,2023-05-18,2023-05-18,株式会社ＬＵＸｉＡＺ,,株式会社,東京都,杉並区,今川３丁目２番１２号,,13,115,1670035,,,,,,,2023-05-18,1,,,,,ルクシアズ,0
1683,7011301028722,新規,0,2023-05-18,2023-05-18,株式会社杉並開発,,株式会社,東京都,杉並区,久我山３丁目２４番２２号,,13,115,1680082,,,,,,,2023-05-18,1,,,,,スギナミカイハツ,0
1684,7011303004762,新規,0,2023-05-18,2023-05-18,合同会社ＡＴ　Ｊｏｉｎ,,合同会社,東京都,杉並区,阿佐谷北５丁目２４番１３号,,13,115,1660001,,,,,,,2023-05-18,1,,,,,エーティージョイン,0
1686,7011703003471,新規,0,2023-05-18,2023-05-18,合同会社ＦＯＲＴＵＮＡ,,合同会社,東京都,江戸川区,北葛西４丁目１６番１２－２１６号,,13,123,1340081,,,,,,,2023-05-18,1,,,,,フォルトゥナ,0
1688,7011801042413,新規,0,2023-05-18,2023-05-18,ＢａａＧｉｉｓ７株式会社,,株式会社,東京都,足立区,西新井本町４丁目２番１０－３０３号,,13,121,1230845,,,,,,,2023-05-18,1,,,,,バーギーエスセブン,0
1690,7012703002711,新規,0,2023-05-18,2023-05-18,合同会社ＴＡＫＡＮＡＭＩ,,合同会社,東京都,西東京市,保谷町３丁目２－９グランベルデ柳沢２０１号,,13,229,2020015,,,,,,,2023-05-18,1,,,,,タカナミ,0
1692,7013301050796,新規,0,2023-05-18,2023-05-18,株式会社ｍａｕｖｅ,,株式会社,東京都,豊島区,池袋３丁目６０番２－６０４号,,13,116,1710014,,,,,,,2023-05-18,1,,,,,モーヴ,0
1700,7020001151668,新規,0,2023-05-18,2023-05-18,株式会社金澤商事,,株式会社,神奈川県,横浜市金沢区,能見台通４－１３セントラルビル１０７,,14,108,2360053,,,,,,,2023-05-18,1,,,,,,0
1710,7021001079081,新規,0,2023-05-18,2023-05-18,湘南Ｍ‐ｓｔｙｌｅ株式会社,,株式会社,神奈川県,高座郡寒川町,小谷１丁目１１番３２号,,14,321,2530103,,,,,,,2023-05-18,1,,,,,ショウナンエムスタイル,0
1714,7030001153787,新規,0,2023-05-18,2023-05-18,日建ホールディングス株式会社,,株式会社,埼玉県,新座市,馬場４丁目８番３８号,,11,230,3520016,,,,,,,2023-05-18,1,,,,,ニッケンホールディングス,0
1715,7030001153845,新規,0,2023-05-18,2023-05-18,株式会社ＩＴ屋,,株式会社,埼玉県,越谷市,大字大泊８８５番地,,11,222,3430044,,,,,,,2023-05-18,1,,,,,アイティーヤ,0
1723,7040001128466,新規,0,2023-05-18,2023-05-18,Ｖｉｒｏｎ　Ｉｎｔｅｒｎａｔｉｏｎａｌ株式会社,,株式会社,千葉県,船橋市,神保町１８１番地２,,12,204,2740056,,,,,,,2023-05-18,1,,,,,ヴァイロンインターナショナル,0
1724,7040001128474,新規,0,2023-05-18,2023-05-18,株式会社新道興業,,株式会社,千葉県,成田市,加良部６丁目４番地２（７０７号室）,,12,211,2860036,,,,,,,2023-05-18,1,,,,,シンドウコウギョウ,0
1727,7040003022634,新規,0,2023-05-18,2023-05-18,合同会社ｌａｒｇｅ　ｔｒｅｅ,,合同会社,千葉県,船橋市,前原西２丁目１４番１号ダイアパレス津田沼９１４,,12,204,2740825,,,,,,,2023-05-18,1,,,,,ラージツリー,0
1728,7040003022642,新規,0,2023-05-18,2023-05-18,アレスト・エス合同会社,,合同会社,千葉県,市川市,本北方２丁目１７番１５号,,12,203,2720816,,,,,,,2023-05-18,1,,,,,アレストエス,0
1735,7060001036007,新規,0,2023-05-18,2023-05-18,株式会社ＲＩＳＥＷＩＮ,,株式会社,栃木県,小山市,城東２丁目１８番３号,,09,208,3230807,,,,,,,2023-05-18,1,,,,,ライズウィン,0
1739,7080001025627,新規,0,2023-05-18,2023-05-18,株式会社ベジタブル東海,,株式会社,静岡県,榛原郡吉田町,川尻３０５４番地の１８,,22,424,4210302,,,,,,,2023-05-18,1,,,,,ベジタブルトウカイ,0
1747,7100001036415,新規,0,2023-05-18,2023-05-18,Ａ．Ｂ．Ｃ株式会社,,株式会社,長野県,小諸市,大字八満４２５番地,,20,208,3840051,,,,,,,2023-05-18,1,,,,,エービーシー,0
1758,7120001254898,新規,0,2023-05-18,2023-05-18,ＡＴＥＮＡ　ＲＥＡＤ　ＰＬＵＳコンサルタント株式会社,,株式会社,大阪府,大阪市北区,角田町８番４７号阪急グランドビル２０階,,27,127,5300017,,,,,,,2023-05-18,1,,,,,アテナリードプラスコンサルタント,0
1759,7120001254907,新規,0,2023-05-18,2023-05-18,ＮＴＨ株式会社,,株式会社,大阪府,大阪市生野区,新今里６丁目５番７号,,27,116,5440001,,,,,,,2023-05-18,1,,,,,エヌティエッチ,0
1760,7120001254989,新規,0,2023-05-18,2023-05-18,株式会社雨燕,,株式会社,大阪府,大阪市住吉区,万代東１丁目３番２２号メゾン東和１０９号室,,27,120,5580056,,,,,,,2023-05-18,1,,,,,ウエン,0
1764,7120003024085,新規,0,2023-05-18,2023-05-18,合同会社ＣＨＩＫＵＢＡ,,合同会社,大阪府,大阪市東住吉区,西今川３丁目１２番２４－２０３号,,27,121,5460042,,,,,,,2023-05-18,1,,,,,チクバ,0
1765,7120003024110,新規,0,2023-05-18,2023-05-18,合同会社Ｂｌｏｏｍ,,合同会社,大阪府,大阪市中央区,北浜東４番２４－３９０８号,,27,128,5400031,,,,,,,2023-05-18,1,,,,,ブルーム,0
1768,7120101067556,新規,0,2023-05-18,2023-05-18,株式会社Ｍ．Ｏ．Ｐ,,株式会社,大阪府,泉佐野市,新安松２丁目３番３９号,,27,213,5980032,,,,,,,2023-05-18,1,,,,,エムオーピー,0
1769,7120101067564,新規,0,2023-05-18,2023-05-18,来夢株式会社,,株式会社,大阪府,堺市西区,浜寺船尾町東３丁４５７番地,,27,144,5928341,,,,,,,2023-05-18,1,,,,,ライム,0
1778,7122001036970,新規,0,2023-05-18,2023-05-18,株式会社西田工務店,,株式会社,大阪府,東大阪市,横小路町４丁目９番５２号,,27,227,5798063,,,,,,,2023-05-18,1,,,,,ニシダコウムテン,0
1779,7122003002590,新規,0,2023-05-18,2023-05-18,合同会社クリブス,,合同会社,大阪府,東大阪市,小阪１丁目１０番３５－９０５号,,27,227,5770801,,,,,,,2023-05-18,1,,,,,クリブス,0
1780,7122005003678,新規,0,2023-05-18,2023-05-18,一般社団法人日本パラコード協会,,その他の設立登記法人,大阪府,東大阪市,近江堂２丁目９番３１号,,27,227,5770817,,,,,,,2023-05-18,1,,,,,ニホンパラコードキヨウカイ,0
1791,7140001130222,新規,0,2023-05-18,2023-05-18,株式会社ＭＲＯコンサルティング,,株式会社,兵庫県,姫路市,南駅前町６３番地クリスタルビル３０１,,28,201,6700962,,,,,,,2023-05-18,1,,,,,エムアールオーコンサルティング,0
1792,7140001130239,新規,0,2023-05-18,2023-05-18,株式会社美彩紀,,株式会社,兵庫県,明石市,二見町東二見１４９３番地の５,,28,203,6740092,,,,,,,2023-05-18,1,,,,,ミサキ,0
1802,7180001156338,新規,0,2023-05-18,2023-05-18,株式会社アートクラフト,,株式会社,愛知県,西春日井郡豊山町,大字豊場字幸田１３６番地２,,23,342,4800202,,,,,,,2023-05-18,1,,,,,アートクラフト,0
1803,7180001156395,新規,0,2023-05-18,2023-05-18,株式会社採用マーケティング,,株式会社,愛知県,名古屋市緑区,鹿山２丁目７９番地の２,,23,114,4580045,,,,,,,2023-05-18,1,,,,,サイヨウマーケティング,0
1805,7180301037394,新規,0,2023-05-18,2023-05-18,株式会社ＭＯＶＥ‐Ｚ,,株式会社,愛知県,安城市,百石町２丁目３番地９レオパレスウィル１０３,,23,212,4460044,,,,,,,2023-05-18,1,,,,,ムーヴゼット,0
1806,7180301037403,新規,0,2023-05-18,2023-05-18,株式会社飛翔ドローンサービス,,株式会社,愛知県,豊田市,明和町７丁目２８番地６,,23,211,4710825,,,,,,,2023-05-18,1,,,,,ヒショウドローンサービス,0
1807,7180303005705,新規,0,2023-05-18,2023-05-18,合同会社グルングサプライヤー,,合同会社,愛知県,安城市,藤井町西山６４番地,,23,212,4441164,,,,,,,2023-05-18,1,,,,,グルングサプライヤー,0
1811,7190001030384,新規,0,2023-05-18,2023-05-18,株式会社アルディラ,,株式会社,三重県,四日市市,野田２丁目１番地８,,24,202,5100815,,,,,,,2023-05-18,1,,,,,アルディラ,0
1814,7200001041330,新規,0,2023-05-18,2023-05-18,株式会社大樹,,株式会社,岐阜県,瑞穂市,別府１０７４番地１,,21,216,5010222,,,,,,,2023-05-18,1,,,,,タイジュ,0
1829,7260005011233,新規,0,2023-05-18,2023-05-18,農事組合法人江良営農組合,,その他の設立登記法人,岡山県,小田郡矢掛町,江良９９５番９,,33,461,7141226,,,,,,,2023-05-18,1,,,,,エラエイエイノウクミアイ,0
1837,7320001019777,新規,0,2023-05-18,2023-05-18,株式会社ステイジ,,株式会社,大分県,由布市,湯布院町川上３５４９－２,,44,213,8795102,,,,,,,2023-05-18,1,,,,,ステイジ,0
1842,7360001032033,新規,0,2023-05-18,2023-05-18,株式会社ＯＤＳ,,株式会社,沖縄県,中頭郡北谷町,字砂辺２４７番地３７ビーチサイドタウン１３Ｃ,,47,326,9040111,,,,,,,2023-05-18,1,,,,,オーディーエス,0
1844,7360003012974,新規,0,2023-05-18,2023-05-18,合同会社マーキーホーム,,合同会社,沖縄県,宜野湾市,我如古３丁目２２番８号,,47,205,9012214,,,,,,,2023-05-18,1,,,,,マーキーホーム,0
1845,7370001049968,新規,0,2023-05-18,2023-05-18,Ｎｅｏ建商株式会社,,株式会社,宮城県,仙台市若林区,かすみ町１番３０号,,04,103,9840822,,,,,,,2023-05-18,1,,,,,ネオケンショウ,0
1855,7400001016254,新規,0,2023-05-18,2023-05-18,株式会社Ｒｅｇｏｌｉｔｈ,,株式会社,岩手県,北上市,青柳町２丁目３番３１号,,03,206,0240031,,,,,,,2023-05-18,1,,,,,レゴリス,0
1865,7430001089140,新規,0,2023-05-18,2023-05-18,株式会社笑福,,株式会社,北海道,札幌市東区,中沼町１８１番地２３,,01,103,0070890,,,,,,,2023-05-18,1,,,,,ショウフク,0
1867,7440003001523,新規,0,2023-05-18,2023-05-18,ＳＴＥＭ合同会社,,合同会社,北海道,函館市,富岡町３丁目１５番４１号,,01,202,0410811,,,,,,,2023-05-18,1,,,,,ステム,0
1872,7700150116246,新規,0,2023-05-18,2023-05-18,ＳＡ　Ｅｎｔｅｒｐｒｉｓｅｓ,,外国会社等,栃木県,真岡市,鹿７１１,,09,209,3214504,スリランカ民主社会主義共和国ウドゥガンポラ、ドラナゴダノース７／Ｂ／２,,,,,,2023-05-18,1,,,,,エスエーエンタープライズ,0
1882,8010001235264,新規,0,2023-05-18,2023-05-18,株式会社ＬＥＥＰＳ,,株式会社,東京都,中央区,日本橋人形町２丁目３４－１１－２０２,,13,102,1030013,,,,,,,2023-05-18,1,,,,,リープス,0
1883,8010001235388,新規,0,2023-05-18,2023-05-18,セレンディピティ株式会社,,株式会社,東京都,中央区,銀座１丁目１２番４号Ｎ＆ＥＢＬＤ．６Ｆ,,13,102,1040061,,,,,,,2023-05-18,1,,,,,セレンディピティ,0
1884,8010003040588,新規,0,2023-05-18,2023-05-18,Ｐａｌｅｔｔｅ合同会社,,合同会社,東京都,千代田区,丸の内３丁目１番１号東京共同会計事務所内,,13,101,1000005,,,,,,,2023-05-18,1,,,,,パレット,0
1893,8010401174418,新規,0,2023-05-18,2023-05-18,株式会社ＷＹＮ,,株式会社,東京都,港区,六本木３丁目２番２－７０５号,,13,103,1060032,,,,,,,2023-05-18,1,,,,,ワイン,0
1895,8010403030115,新規,0,2023-05-18,2023-05-18,合同会社はる１,,合同会社,東京都,港区,虎ノ門１丁目２３番２－３９０７号,,13,103,1050001,,,,,,,2023-05-18,1,,,,,ハルイチ,0
1898,8010601063123,新規,0,2023-05-18,2023-05-18,株式会社昭景,,株式会社,東京都,江東区,枝川１丁目１４番２０号,,13,108,1350051,,,,,,,2023-05-18,1,,,,,ショーエイ,0
1899,8010603010156,新規,0,2023-05-18,2023-05-18,ＫＭＪ合同会社,,合同会社,東京都,墨田区,押上３丁目２１番１３号,,13,107,1310045,,,,,,,2023-05-18,1,,,,,ケイエムジェー,0
1921,8011001154256,新規,0,2023-05-18,2023-05-18,株式会社ケップルグループ,,株式会社,東京都,渋谷区,道玄坂１丁目２１－１ＳＨＩＢＵＹＡ－ＳＯＬＡＳＴＡ３Ｆ,,13,113,1500043,,,,,,,2023-05-18,1,,,,,ケップルグループ,0
1922,8011001154487,新規,0,2023-05-18,2023-05-18,Ｐｒｏｄｕｃｔ　Ｐｒｏｖｉｓｉｏｎ株式会社,,株式会社,東京都,渋谷区,神宮前６丁目２３番４号桑野ビル２階,,13,113,1500001,,,,,,,2023-05-18,1,,,,,プロダクトプロビジョン,0
1923,8011001154504,新規,0,2023-05-18,2023-05-18,株式会社ベラージオ,,株式会社,東京都,渋谷区,円山町１６番４号Ｌｏｏｐ１３８渋谷３０２,,13,113,1500044,,,,,,,2023-05-18,1,,,,,ベラージオ,0
1924,8011001154512,新規,0,2023-05-18,2023-05-18,株式会社恵貴,,株式会社,東京都,目黒区,八雲３丁目４番２０号,,13,110,1520023,,,,,,,2023-05-18,1,,,,,ケイキ,0
1926,8011003016834,新規,0,2023-05-18,2023-05-18,Ｇｒａｎｄ　ｆｕｎ合同会社,,合同会社,東京都,渋谷区,渋谷２丁目１９ー１５宮益坂ビルディング６０９,,13,113,1500002,,,,,,,2023-05-18,1,,,,,グランドファン,0
1929,8011203004085,新規,0,2023-05-18,2023-05-18,合同会社エムワークス,,合同会社,東京都,中野区,沼袋３丁目１８番１７号,,13,114,1650025,,,,,,,2023-05-18,1,,,,,エムワークス,0
1931,8011301028713,新規,0,2023-05-18,2023-05-18,薔薇株式会社,,株式会社,東京都,杉並区,梅里２丁目２５番１３号,,13,115,1660011,,,,,,,2023-05-18,1,,,,,バラ,0
1934,8011303004761,新規,0,2023-05-18,2023-05-18,合同会社ＨＡＣＨＩ,,合同会社,東京都,杉並区,和泉３丁目６３－８,,13,115,1680063,,,,,,,2023-05-18,1,,,,,ハチ,0
1943,8011603003926,新規,0,2023-05-18,2023-05-18,合同会社渓流防災研究所,,合同会社,東京都,練馬区,光が丘３丁目９番３－１４０４号,,13,120,1790072,,,,,,,2023-05-18,1,,,,,ケイリュウボウサイケンキュウジョ,0
1947,8011701026250,新規,0,2023-05-18,2023-05-18,株式会社ダイショウ,,株式会社,東京都,江戸川区,中葛西４丁目７番１－１３１１号,,13,123,1340083,,,,,,,2023-05-18,1,,,,,ダイショウ,0
1948,8011703003470,新規,0,2023-05-18,2023-05-18,合同会社ＳＡＩ,,合同会社,東京都,江戸川区,鹿骨５丁目３０番５号,,13,123,1330073,,,,,,,2023-05-18,1,,,,,サイ,0
1950,8011801042379,新規,0,2023-05-18,2023-05-18,株式会社アソシエイト,,株式会社,東京都,足立区,南花畑５丁目８番７号,,13,121,1210062,,,,,,,2023-05-18,1,,,,,アソシエイト,0
1952,8011803005656,新規,0,2023-05-18,2023-05-18,合同会社ＭＯＮＳＴＥＲ,,合同会社,東京都,足立区,新田１丁目１６番２号,,13,121,1230865,,,,,,,2023-05-18,1,,,,,モンスター,0
1954,8012301013449,新規,0,2023-05-18,2023-05-18,株式会社Ｐａｓｓｉｏｎ,,株式会社,東京都,町田市,中町１丁目４番２号,,13,209,1940021,,,,,,,2023-05-18,1,,,,,パッション,0
1956,8012703002710,新規,0,2023-05-18,2023-05-18,Ｗｉｌｌ‐ｂｅｉｎｇ合同会社,,合同会社,東京都,西東京市,田無町５丁目２－１７ヨーカルナージュ２０６号室,,13,229,1880011,,,,,,,2023-05-18,1,,,,,ウィルビーイング,0
1968,8020001151659,新規,0,2023-05-18,2023-05-18,株式会社ＪＵＭＰ,,株式会社,神奈川県,横浜市港南区,日野９丁目４７番２６号,,14,111,2340051,,,,,,,2023-05-18,1,,,,,ジャンプ,0
1969,8020001151683,新規,0,2023-05-18,2023-05-18,株式会社クライムアンドエイム,,株式会社,神奈川県,横浜市金沢区,能見台４丁目１番地１,,14,108,2360057,,,,,,,2023-05-18,1,,,,,クライムアンドエイム,0
1973,8021001079072,新規,0,2023-05-18,2023-05-18,株式会社ＫＥＮ企画,,株式会社,神奈川県,秦野市,下大槻４５５番地ＩＳハイム１０３号室,,14,211,2570004,,,,,,,2023-05-18,1,,,,,ケンキカク,0
1975,8021003013112,新規,0,2023-05-18,2023-05-18,ＭＥＬＬＩＶＯＲＡ合同会社,,合同会社,神奈川県,茅ヶ崎市,東海岸北３丁目７―２０Ｂ棟,,14,207,2530053,,,,,,,2023-05-18,1,,,,,メリヴォラ,0
1982,8030001153778,新規,0,2023-05-18,2023-05-18,株式会社ひかり,,株式会社,埼玉県,さいたま市西区,大字西遊馬４７７番地２９,,11,101,3310061,,,,,,,2023-05-18,1,,,,,ヒカリ,0
1983,8030001153885,新規,0,2023-05-18,2023-05-18,株式会社佐藤水産,,株式会社,埼玉県,川越市,大字的場１９３９番地１１,,11,201,3501101,,,,,,,2023-05-18,1,,,,,サトウスイサン,0
1996,8040001128366,新規,0,2023-05-18,2023-05-18,株式会社ＳＫＴ,,株式会社,千葉県,千葉市緑区,おゆみ野４丁目２９番地４,,12,105,2660031,,,,,,,2023-05-18,1,,,,,エスケイティ,0
1997,8040001128473,新規,0,2023-05-18,2023-05-18,生田目電機株式会社,,株式会社,千葉県,松戸市,金ケ作３４５番地の１１プランドールオカダ３０３号,,12,207,2702251,,,,,,,2023-05-18,1,,,,,ナマタメデンキ,0
2001,8040003022641,新規,0,2023-05-18,2023-05-18,山中合同会社,,合同会社,千葉県,印旛郡酒々井町,本佐倉５３６番地,,12,322,2850926,,,,,,,2023-05-18,1,,,,,ヤマナカ,0
2013,8080101024008,新規,0,2023-05-18,2023-05-18,株式会社ＫＩ‐Ｍａｒｋｅｔｉｎｇ,,株式会社,静岡県,熱海市,梅園町１番１号１４１１号室,,22,205,4130032,,,,,,,2023-05-18,1,,,,,ケイアイマーケティング,0
2020,8100005013013,新規,0,2023-05-18,2023-05-18,一般社団法人ＫＯＫＯ,,その他の設立登記法人,長野県,松本市,中央２丁目３－２７、１階,,20,202,3900811,,,,,,,2023-05-18,1,,,,,ココ,0
2034,8120001254955,新規,0,2023-05-18,2023-05-18,株式会社ａｎｄ　ｐｅｏｐｌｅ,,株式会社,大阪府,大阪市北区,中津１丁目１２番１１－７０３号,,27,127,5310071,,,,,,,2023-05-18,1,,,,,アンドピープル,0
2035,8120001255012,新規,0,2023-05-18,2023-05-18,株式会社ＦＴＮ,,株式会社,大阪府,大阪市北区,芝田２丁目８番７号４Ｆ,,27,127,5300012,,,,,,,2023-05-18,1,,,,,エフティエヌ,0
2036,8120001255029,新規,0,2023-05-18,2023-05-18,株式会社二川,,株式会社,大阪府,大阪市中央区,南本町１丁目１－５,,27,128,5410054,,,,,,,2023-05-18,1,,,,,フタガワ,0
2037,8120001255037,新規,0,2023-05-18,2023-05-18,株式会社エス・ケイ・エー,,株式会社,大阪府,大阪市中央区,北新町３－８グランドールビル８階,,27,128,5400023,,,,,,,2023-05-18,1,,,,,エスケイエー,0
2038,8120001255053,新規,0,2023-05-18,2023-05-18,アトラス埋込型信号機株式会社,,株式会社,大阪府,大阪市北区,堂島浜１丁目１番８号,,27,127,5300004,,,,,,,2023-05-18,1,,,,,アトラスウメコミガタシンゴウキ,0
2040,8120101067563,新規,0,2023-05-18,2023-05-18,株式会社アスケン,,株式会社,大阪府,松原市,天美北７丁目１０番４１－１０２号,,27,217,5800031,,,,,,,2023-05-18,1,,,,,アスケン,0
2041,8120101067571,新規,0,2023-05-18,2023-05-18,株式会社Ｂｒａｉｎ　Ｓｙｓｔｅｍ,,株式会社,大阪府,泉南市,新家７２５番地の２４７,,27,228,5900503,,,,,,,2023-05-18,1,,,,,ブレインシステム,0
2047,8130001074337,新規,0,2023-05-18,2023-05-18,株式会社ＳＫＢ,,株式会社,京都府,京都市伏見区,丹波橋町９１２番地,,26,109,6128072,,,,,,,2023-05-18,1,,,,,エスケービー,0
2050,8140001130213,新規,0,2023-05-18,2023-05-18,株式会社バイオコード,,株式会社,兵庫県,神戸市灘区,六甲台町１番１号,,28,102,6570013,,,,,,,2023-05-18,1,,,,,バイオコード,0
2051,8140001130238,新規,0,2023-05-18,2023-05-18,株式会社デンタルフォーサイト,,株式会社,兵庫県,神戸市中央区,御幸通８丁目１番６号神戸国際会館２２階,,28,110,6510087,,,,,,,2023-05-18,1,,,,,デンタルフォーサイト,0
2052,8140001130246,新規,0,2023-05-18,2023-05-18,株式会社ＤＨ商事,,株式会社,兵庫県,神戸市中央区,三宮町３丁目９－７アシールビル１Ｆ,,28,110,6500021,,,,,,,2023-05-18,1,,,,,ディーエイチショウジ,0
2061,8170003001871,新規,0,2023-05-18,2023-05-18,メイクライフファン合同会社,,合同会社,和歌山県,和歌山市,六十谷１３３９番地４９,,30,201,6408482,,,,,,,2023-05-18,1,,,,,メイクライフファン,0
2064,8180001156378,新規,0,2023-05-18,2023-05-18,株式会社トランジスタ,,株式会社,愛知県,名古屋市緑区,東神の倉３丁目２５１７番地,,23,114,4580808,,,,,,,2023-05-18,1,,,,,トランジスタ,0
2067,8180003025250,新規,0,2023-05-18,2023-05-18,フォーライバー合同会社,,合同会社,愛知県,名古屋市中村区,名駅４丁目２４番５号第２森ビル４０１,,23,105,4500002,,,,,,,2023-05-18,1,,,,,フォーライバー,0
2069,8180301037402,新規,0,2023-05-18,2023-05-18,株式会社丸服,,株式会社,愛知県,知立市,谷田町西１丁目１０番地１９,,23,225,4720014,,,,,,,2023-05-18,1,,,,,マルフク,0
2073,8240001061539,新規,0,2023-05-18,2023-05-18,株式会社煌喜,,株式会社,広島県,広島市佐伯区,五日市町石内４８０８－１,,34,108,7315100,,,,,,,2023-05-18,1,,,,,コウキ,0
2074,8240001061547,新規,0,2023-05-18,2023-05-18,スターツ広島株式会社,,株式会社,広島県,広島市中区,立町２番２９号,,34,101,7300032,,,,,,,2023-05-18,1,,,,,スターツヒロシマ,0
2081,8260001037966,新規,0,2023-05-18,2023-05-18,株式会社ＺＥＲＯサポート,,株式会社,岡山県,総社市,秦１４３０番地,,33,208,7191142,,,,,,,2023-05-18,1,,,,,ゼロサポート,0
2087,8290001101562,新規,0,2023-05-18,2023-05-18,株式会社ライズ,,株式会社,福岡県,大牟田市,大字歴木１８０７－１０２９番地２階Ｄ号室,,40,202,8370924,,,,,,,2023-05-18,1,,,,,ライズ,0
2088,8290001101570,新規,0,2023-05-18,2023-05-18,株式会社ケイツープランニング,,株式会社,福岡県,福岡市東区,舞松原３丁目２１番２２－２号,,40,131,8130042,,,,,,,2023-05-18,1,,,,,ケイツープランニング,0
2096,8330001030872,新規,0,2023-05-18,2023-05-18,株式会社四季美,,株式会社,熊本県,熊本市中央区,九品寺４丁目９番３号,,43,101,8620976,,,,,,,2023-05-18,1,,,,,シキビ,0
2103,8360001032024,新規,0,2023-05-18,2023-05-18,株式会社ＲｙｕｋｙｕＳＥＥＤ,,株式会社,沖縄県,中頭郡読谷村,字長浜５番地１,,47,324,9040324,,,,,,,2023-05-18,1,,,,,リュウキュウシード,0
2105,8360003012973,新規,0,2023-05-18,2023-05-18,合同会社ＭＯＲＩＹＯＳＨＩ,,合同会社,沖縄県,中頭郡西原町,上原１丁目２２番地の１（シャトレＩＺＵＭＩ、Ａ－２号）,,47,329,9030125,,,,,,,2023-05-18,1,,,,,モリヨシ,0
2114,8390001017261,新規,0,2023-05-18,2023-05-18,株式会社沖津,,株式会社,山形県,山形市,みはらしの丘１丁目５０番地１２,,06,201,9902317,,,,,,,2023-05-18,1,,,,,オキツ,0
2115,8390003002096,新規,0,2023-05-18,2023-05-18,ツキノワ合同会社,,合同会社,山形県,西村山郡西川町,大字大井沢８５４番地,,06,322,9900721,,,,,,,2023-05-18,1,,,,,ツキノワ,0
2118,8430001089073,新規,0,2023-05-18,2023-05-18,株式会社コトラ工務店,,株式会社,北海道,石狩市,花川南三条４丁目３番地,,01,235,0613203,,,,,,,2023-05-18,1,,,,,コトラコウムテン,0
2119,8430001089107,新規,0,2023-05-18,2023-05-18,株式会社アニバー・サリー,,株式会社,北海道,札幌市西区,八軒十条西１丁目２番１３号,,01,107,0630850,,,,,,,2023-05-18,1,,,,,アニバーサリー,0
2120,8430001089131,新規,0,2023-05-18,2023-05-18,株式会社Ａ‐ｌｉｖｉｎｇ,,株式会社,北海道,札幌市中央区,南九条西１７丁目２番１８号,,01,101,0640809,,,,,,,2023-05-18,1,,,,,エーリビング,0
2122,8430003015052,新規,0,2023-05-18,2023-05-18,合同会社ＭｏｒｕｔｔｙＪａｐａｎ,,合同会社,北海道,札幌市清田区,平岡公園東３丁目１７－１,,01,110,0040882,,,,,,,2023-05-18,1,,,,,モルティージャパン,0
2130,8700150116245,新規,0,2023-05-18,2023-05-18,Ｈ．Ｒ．ＭＯＴＯＲＳ,,外国会社等,千葉県,大網白里市,細草１４１２番地１,,12,239,2993211,スリランカ民主社会主義共和国アヌラダプラ、スラワスティプラ、カナル４,,,,,,2023-05-18,1,,,,,エイチアールモータース,0
2139,9010003040595,新規,0,2023-05-18,2023-05-18,Ｂ‐ＵＰ合同会社,,合同会社,東京都,中央区,銀座１丁目２２番１１号銀座大竹ビジデンス２階,,13,102,1040061,,,,,,,2023-05-18,1,,,,,ビーアップ,0
2140,9010003040604,新規,0,2023-05-18,2023-05-18,合同会社ＡＫ１,,合同会社,東京都,中央区,八丁堀４丁目２番１０号ＡＯＪ税理士法人内,,13,102,1040032,,,,,,,2023-05-18,1,,,,,エーケーワン,0
2143,9010101015648,新規,0,2023-05-18,2023-05-18,義萬商事株式会社,,株式会社,東京都,八王子市,小門町１－３,,13,201,1920054,,,,,,,2023-05-18,1,,,,,イワンショウジ,0
2145,9010401174409,新規,0,2023-05-18,2023-05-18,株式会社Ｆａｍｉｌｙ　Ｐｌａｎ,,株式会社,東京都,港区,北青山３丁目６番７号青山パラシオタワー１１階,,13,103,1070061,,,,,,,2023-05-18,1,,,,,ファミリープラン,0
2165,9010701044278,新規,0,2023-05-18,2023-05-18,株式会社サードプレイス,,株式会社,東京都,品川区,東大井１丁目１４－２４－２２５,,13,109,1400011,,,,,,,2023-05-18,1,,,,,サードプレイス,0
2170,9010801033957,新規,0,2023-05-18,2023-05-18,株式会社トライアンフ,,株式会社,東京都,大田区,西蒲田４丁目１９番８号,,13,111,1440051,,,,,,,2023-05-18,1,,,,,トライアンフ,0
2171,9010801033973,新規,0,2023-05-18,2023-05-18,株式会社ＣＬＡＮ,,株式会社,東京都,大田区,蒲田５丁目２８番４号ＥＣＳ第２７ビル３階４０号室,,13,111,1440052,,,,,,,2023-05-18,1,,,,,クラン,0
2179,9010901053062,新規,0,2023-05-18,2023-05-18,株式会社ＣａｎＭｅｒｒｙ,,株式会社,東京都,世田谷区,赤堤３丁目２番８号,,13,112,1560044,,,,,,,2023-05-18,1,,,,,キャンメリー,0
2190,9011001154494,新規,0,2023-05-18,2023-05-18,株式会社しころく,,株式会社,東京都,渋谷区,神宮前６丁目２３番４号桑野ビル２階,,13,113,1500001,,,,,,,2023-05-18,1,,,,,シコロク,0
2191,9011001154503,新規,0,2023-05-18,2023-05-18,株式会社ＰＲＯＸＩＴ,,株式会社,東京都,渋谷区,道玄坂１丁目１０番８号渋谷道玄坂東急ビル２Ｆ－Ｃ,,13,113,1500043,,,,,,,2023-05-18,1,,,,,プログジット,0
2192,9011001154528,新規,0,2023-05-18,2023-05-18,Ｅａｒｔｈ　ｈａｃｋｓ株式会社,,株式会社,東京都,渋谷区,神南１丁目５番６号,,13,113,1500041,,,,,,,2023-05-18,1,,,,,アースハックス,0
2200,9011101102832,新規,0,2023-05-18,2023-05-18,ＩＮＳＴＹＬＥ３６５株式会社,,株式会社,東京都,新宿区,北新宿１丁目８－２２,,13,104,1690074,,,,,,,2023-05-18,1,,,,,インスタイルサンロクゴ,0
2202,9011103013045,新規,0,2023-05-18,2023-05-18,ｂａｍｂｏｏ合同会社,,合同会社,東京都,新宿区,市谷田町１丁目１９番地２,,13,104,1620843,,,,,,,2023-05-18,1,,,,,バンブー,0
2203,9011103013053,新規,0,2023-05-18,2023-05-18,合同会社ＴＡＮＴＡＮ,,合同会社,東京都,新宿区,西新宿３丁目３番１３号西新宿水間ビル６階,,13,104,1600023,,,,,,,2023-05-18,1,,,,,タンタン,0
2204,9011203004084,新規,0,2023-05-18,2023-05-18,ｍｉｉＴａｎ合同会社,,合同会社,東京都,中野区,弥生町４丁目２２番２号,,13,114,1640013,,,,,,,2023-05-18,1,,,,,ミータン,0
2205,9011401025139,新規,0,2023-05-18,2023-05-18,株式会社陽工房,,株式会社,東京都,板橋区,蓮根２丁目２７番１２号ビズサークル西台２Ｆ－３,,13,119,1740046,,,,,,,2023-05-18,1,,,,,ヨウコウボウ,0
2208,9011501029312,新規,0,2023-05-18,2023-05-18,株式会社データアレンジメント,,株式会社,東京都,荒川区,荒川２丁目５９－７,,13,118,1160002,,,,,,,2023-05-18,1,,,,,データアレンジメント,0
2212,9011601026829,新規,0,2023-05-18,2023-05-18,ファイブエー株式会社,,株式会社,東京都,練馬区,大泉学園町６丁目３０番９号,,13,120,1780061,,,,,,,2023-05-18,1,,,,,ファイブエー,0
2213,9011603003925,新規,0,2023-05-18,2023-05-18,Ｋｉｒｉｎ合同会社,,合同会社,東京都,練馬区,高松５丁目６－１８－４０１号,,13,120,1790075,,,,,,,2023-05-18,1,,,,,キリン,0
2218,9012401040540,新規,0,2023-05-18,2023-05-18,株式会社０,,株式会社,東京都,稲城市,向陽台５丁目１０番地リベレ向陽台４－３２２号,,13,225,2060803,,,,,,,2023-05-18,1,,,,,ゼロ,0
2228,9020001151682,新規,0,2023-05-18,2023-05-18,株式会社ａｔｏｒ,,株式会社,神奈川県,横浜市西区,浅間町１丁目４番地３ウィザードビル３０２,,14,103,2200072,,,,,,,2023-05-18,1,,,,,アトル,0
2233,9020003023938,新規,0,2023-05-18,2023-05-18,合同会社マークン,,合同会社,神奈川県,横浜市緑区,長津田みなみ台４丁目１番地１プリマシティＥ―５１０号,,14,113,2260018,,,,,,,2023-05-18,1,,,,,マークン,0
2237,9021001079113,新規,0,2023-05-18,2023-05-18,ブルズキャピタル株式会社,,株式会社,神奈川県,藤沢市,辻堂西海岸３丁目１－２７－２－４２４,,14,205,2510046,,,,,,,2023-05-18,1,,,,,ブルズキャピタル,0
2240,9021003013004,新規,0,2023-05-18,2023-05-18,ＡＮＭＬ合同会社,,合同会社,神奈川県,横須賀市,若松町３丁目３２－８ｆｌａｅ’ｔＡＢ２０１,,14,201,2380007,,,,,,,2023-05-18,1,,,,,アニマル,0
2241,9021003013086,新規,0,2023-05-18,2023-05-18,合同会社福田企画,,合同会社,神奈川県,平塚市,大神２０８８－１,,14,203,2540012,,,,,,,2023-05-18,1,,,,,フクダキカク,0
2242,9021003013103,新規,0,2023-05-18,2023-05-18,合同会社スタジオキュー,,合同会社,神奈川県,鎌倉市,材木座２丁目９－４,,14,204,2480013,,,,,,,2023-05-18,1,,,,,スタジオキュー,0
2247,9030003021750,新規,0,2023-05-18,2023-05-18,ＴＯＫＹＯ　ＭＥＤＩＣ　ＳＯＬＵＴＩＯＮＳ合同会社,,合同会社,埼玉県,川口市,西川口１丁目５番２０号４階Ａ１０号室,,11,203,3320021,,,,,,,2023-05-18,1,,,,,トーキョーメディックソリューションズ,0
2254,9040001128464,新規,0,2023-05-18,2023-05-18,任達グローバル通信株式会社,,株式会社,千葉県,茂原市,本小轡１１１９番地６２,,12,210,2970005,,,,,,,2023-05-18,1,,,,,ニンタツグローバルツウシン,0
2255,9040001128472,新規,0,2023-05-18,2023-05-18,株式会社プラスワンツール,,株式会社,千葉県,流山市,市野谷４２８－７,,12,220,2700137,,,,,,,2023-05-18,1,,,,,プラスワンツール,0
2260,9040003022624,新規,0,2023-05-18,2023-05-18,智来合同会社,,合同会社,千葉県,松戸市,六実５丁目２０番地の５２,,12,207,2702204,,,,,,,2023-05-18,1,,,,,チライ,0
2267,9080001025625,新規,0,2023-05-18,2023-05-18,株式会社駿河デンタルホールディングス,,株式会社,静岡県,静岡市清水区,大手２丁目２番２８号,,22,103,4240808,,,,,,,2023-05-18,1,,,,,スルガデンタルホールディングス,0
2270,9080101024015,新規,0,2023-05-18,2023-05-18,株式会社建心興業,,株式会社,静岡県,御殿場市,萩原１２０３番地の１３,,22,215,4120042,,,,,,,2023-05-18,1,,,,,ケンシンコウギョウ,0
2272,9090001018132,新規,0,2023-05-18,2023-05-18,株式会社ビー・ダブリュー・エー,,株式会社,山梨県,甲府市,国母５丁目２番４号２階,,19,201,4000043,,,,,,,2023-05-18,1,,,,,ビーダブリューエー,0
2292,9120001254905,新規,0,2023-05-18,2023-05-18,旭科株式会社,,株式会社,大阪府,大阪市大正区,三軒家西３丁目４番１６号中山ビル３０９Ｂ,,27,108,5510001,,,,,,,2023-05-18,1,,,,,シュウカ,0
2293,9120001254913,新規,0,2023-05-18,2023-05-18,北新地いとさん株式会社,,株式会社,大阪府,大阪市東淀川区,東中島１丁目１８番５号,,27,114,5330033,,,,,,,2023-05-18,1,,,,,キタシンチイトサン,0
2294,9120001254979,新規,0,2023-05-18,2023-05-18,株式会社アフィックス企画,,株式会社,大阪府,大阪市都島区,都島北通２丁目２４番１１－４０１号,,27,102,5340014,,,,,,,2023-05-18,1,,,,,アフィックスキカク,0
2295,9120001255044,新規,0,2023-05-18,2023-05-18,株式会社ＥＫＫＥＮ,,株式会社,大阪府,大阪市平野区,瓜破西３丁目１１－４,,27,126,5470025,,,,,,,2023-05-18,1,,,,,エッケン,0
2296,9120001255052,新規,0,2023-05-18,2023-05-18,ＴＨＩＮＮＥＹ株式会社,,株式会社,大阪府,大阪市北区,梅田１丁目２番２号大阪駅前第２ビル１２－１２,,27,127,5300001,,,,,,,2023-05-18,1,,,,,シィニー,0
2297,9120003024091,新規,0,2023-05-18,2023-05-18,皓宸合同会社,,合同会社,大阪府,大阪市浪速区,大国２丁目１０－８－８０２,,27,111,5560014,,,,,,,2023-05-18,1,,,,,コウシン,0
2299,9120101067570,新規,0,2023-05-18,2023-05-18,西和プロダクトマネジメント株式会社,,株式会社,大阪府,堺市堺区,熊野町東４丁４番１９号平成ビル６Ｆ,,27,141,5900946,,,,,,,2023-05-18,1,,,,,セイワプロダクトマネジメント,0
2300,9120103005223,新規,0,2023-05-18,2023-05-18,瑞誠情報技術合同会社,,合同会社,大阪府,堺市南区,高倉台２丁３９－１０,,27,145,5900117,,,,,,,2023-05-18,1,,,,,ズイセイジョウホウギジュツ,0
2302,9122001036985,新規,0,2023-05-18,2023-05-18,Ｆエンジニアリング株式会社,,株式会社,大阪府,東大阪市,吉田５丁目１７番２０号,,27,227,5780924,,,,,,,2023-05-18,1,,,,,エフエンジニアリング,0
2305,9130001074336,新規,0,2023-05-18,2023-05-18,株式会社Ｈｒｔ　ｇｒｏｕｐ,,株式会社,京都府,京都市山科区,椥辻平田町１３０番地,00130535,26,110,6078165,,,,,,,2023-05-18,1,,,,,ハートグループ,0
2312,9140001130212,新規,0,2023-05-18,2023-05-18,ｉＤＥＡＶＥＲＳｅ株式会社,,株式会社,兵庫県,神戸市中央区,海岸通３丁目３番１号Ｋ．Ｃ．Ｃ．ビル５Ｆ,,28,110,6500024,,,,,,,2023-05-18,1,,,,,アイデアバース,0
2313,9140001130220,新規,0,2023-05-18,2023-05-18,株式会社ＴＯＲＱＵＥ,,株式会社,兵庫県,神戸市北区,有野町唐櫃１６３５－１０１,,28,109,6511331,,,,,,,2023-05-18,1,,,,,トルク,0
2314,9140001130245,新規,0,2023-05-18,2023-05-18,株式会社森長組持株会社,,株式会社,兵庫県,南あわじ市,賀集８２３番地,,28,224,6560514,,,,,,,2023-05-18,1,,,,,モリチョウグミモチカブガイシャ,0
2318,9160001025055,新規,0,2023-05-18,2023-05-18,飛鳥株式会社,,株式会社,滋賀県,米原市,梅ケ原１４００番地,,25,214,5210013,,,,,,,2023-05-18,1,,,,,アスカ,0
2330,9180001156352,新規,0,2023-05-18,2023-05-18,株式会社椿ホームズ,,株式会社,愛知県,稲沢市,清水町郷西１０４７番地１プレサント清水Ａ号室,,23,220,4928314,,,,,,,2023-05-18,1,,,,,ツバキホームズ,0
2331,9180001156377,新規,0,2023-05-18,2023-05-18,株式会社Ｎｅｘｔ・Ｉｎｎｏｖａｔｉｏｎ,,株式会社,愛知県,名古屋市中村区,五反城町１丁目４７番地,,23,105,4530836,,,,,,,2023-05-18,1,,,,,ネクストイノベーション,0
2334,9180301037401,新規,0,2023-05-18,2023-05-18,株式会社総合体力研究所,,株式会社,愛知県,豊橋市,弥生町字西豊和１１番地の５,,23,201,4418106,,,,,,,2023-05-18,1,,,,,ソウゴウタイリョクケンキュウショ,0
2337,9190001030416,新規,0,2023-05-18,2023-05-18,株式会社宏栄,,株式会社,三重県,名張市,桔梗が丘４番町五街区７番地１０,,24,208,5180624,,,,,,,2023-05-18,1,,,,,コウエイ,0
2339,9190003004310,新規,0,2023-05-18,2023-05-18,合同会社ＬＩＬＩＮ,,合同会社,三重県,伊勢市,辻久留町５４２―１８,,24,203,5160046,,,,,,,2023-05-18,1,,,,,リリン,0
2341,9200003005959,新規,0,2023-05-18,2023-05-18,合同会社家和,,合同会社,岐阜県,大垣市,綾野６丁目１７９番地１,,21,202,5030984,,,,,,,2023-05-18,1,,,,,カワ,0
2343,9200005013489,新規,0,2023-05-18,2023-05-18,一般社団法人市民総合政策フォーラム,,その他の設立登記法人,岐阜県,高山市,上岡本町８丁目５０３番地,,21,203,5060055,,,,,,,2023-05-18,1,,,,,シミンソウゴウセイサクフォーラム,0
2353,9260001037965,新規,0,2023-05-18,2023-05-18,株式会社ＡＬＩＶＥ,,株式会社,岡山県,岡山市東区,宍甘３６８番地３,,33,103,7038216,,,,,,,2023-05-18,1,,,,,アライブ,0
2363,9290001101578,新規,0,2023-05-18,2023-05-18,株式会社Ｈｕｂ,,株式会社,福岡県,宗像市,光岡３６番地３エクリュ光岡Ｂ棟４号,,40,220,8113414,,,,,,,2023-05-18,1,,,,,ハブ,0
2385,9360001032031,新規,0,2023-05-18,2023-05-18,株式会社オフィスダルマ,,株式会社,沖縄県,島尻郡八重瀬町,字外間１１６番地１５,,47,362,9010417,,,,,,,2023-05-18,1,,,,,オフィスダルマ,0
2386,9360003012972,新規,0,2023-05-18,2023-05-18,合同会社ＢＯＯＳＴ,,合同会社,沖縄県,那覇市,字天久８１６番地１号ファミーユコート天久３０２号室,,47,201,9000005,,,,,,,2023-05-18,1,,,,,ブースト,0
2387,9370001049974,新規,0,2023-05-18,2023-05-18,ＮＡＥＥＭ　ＳＵＲＡ株式会社,,株式会社,宮城県,大崎市,岩出山字浦小路１６番地岩出山オフィスビルＡ－１号,,04,215,9896435,,,,,,,2023-05-18,1,,,,,ナイームスラ,0
2398,9390001017260,新規,0,2023-05-18,2023-05-18,ファインテーブル株式会社,,株式会社,山形県,東置賜郡高畠町,大字夏茂１５２２番地,,06,381,9992172,,,,,,,2023-05-18,1,,,,,ファインテーブル,0
2401,9430001089106,新規,0,2023-05-18,2023-05-18,株式会社祐真,,株式会社,北海道,札幌市北区,百合が原１丁目５番１４号,,01,102,0028081,,,,,,,2023-05-18,1,,,,,ユウシン,0
2409,9490003001780,新規,0,2023-05-18,2023-05-18,合同会社アクセル,,合同会社,高知県,高知市,朝倉横町３番１９号エターナルホープＡ－２０１,,39,201,7808074,,,,,,,2023-05-18,1,,,,,アクセル,0
2410,9500001024930,新規,0,2023-05-18,2023-05-18,株式会社岡沢鉄工,,株式会社,愛媛県,今治市,菊間町浜１１２０番地,,38,202,7992303,,,,,,,2023-05-18,1,,,,,オカザワテッコウ,0
2412,9700150116244,新規,0,2023-05-18,2023-05-18,ＵＤＡＹＡ　ＬＡＮＫＡ　ＰＲＩＶＡＴＥ　ＬＩＭＩＴＥＤ,,外国会社等,千葉県,山武郡横芝光町,宮川１９６７番地６８オフィス１,,12,410,2891727,スリランカ民主社会主義共和国、シヤンバラぺ、シヤンバラペサウス、６２－６,,,,,,2023-05-18,1,,,,,ウダヤランカプライベートリミテツド,0
