sequenceNumber,corporateNumber,process,correct,updateDate,changeDate,name,nameImageId,kind,prefectureName,cityName,streetNumber,addressImageId,prefectureCode,cityCode,postCode,addressOutside,addressOutsideImageId,closeDate,closeCause,successorCorporateNumber,changeCause,assignmentDate,latest,enName,enPrefectureName,enCityName,enAddressOutside,furigana,hihyoji
19,1010401163971,新規,0,2021-11-22,2021-11-22,株式会社ＰＵＰ,,株式会社,東京都,港区,港南２丁目４－１４スぺラボ品川港南口ビル４Ｆ,,13,103,1080075,,,,,,,2021-11-22,1,,,,,ピーユーピー,0
21,1010403026565,新規,0,2021-11-22,2021-11-22,八王子ＰＪ２合同会社,,合同会社,東京都,港区,六本木１丁目６番１号泉ガーデンタワー,,13,103,1060032,,,,,,,2021-11-22,1,,,,,ハチオウジピージェイツー,0
29,1010901049811,新規,0,2021-11-22,2021-11-22,株式会社あさひ,,株式会社,東京都,世田谷区,上馬１丁目１番２４号上馬パインヒルズ２０３,,13,112,1540011,,,,,,,2021-11-22,1,,,,,アサヒ,0
33,1010903006959,新規,0,2021-11-22,2021-11-22,合同会社Ｈ,,合同会社,東京都,世田谷区,岡本１丁目１９－２１ＬＯＧＧＩＡ１０４号室,,13,112,1570076,,,,,,,2021-11-22,1,,,,,エイチ,0
35,1011001144180,新規,0,2021-11-22,2021-11-22,株式会社Ｒｏｍａｎｃｅ　Ｄａｗｎ,,株式会社,東京都,渋谷区,千駄ヶ谷４丁目１５番４号,,13,113,1510051,,,,,,,2021-11-22,1,,,,,ロマンスドーン,0
36,1011003013763,新規,0,2021-11-22,2021-11-22,合同会社Ｃｒａｃｋ　Ｓｔｕｄｉｏ,,合同会社,東京都,渋谷区,神宮前６丁目２３番４号桑野ビル２階,,13,113,1500001,,,,,,,2021-11-22,1,,,,,クラックスタジオ,0
48,1011301027366,新規,0,2021-11-22,2021-11-22,株式会社ＦＭＣ,,株式会社,東京都,杉並区,善福寺１丁目２５番８号,,13,115,1670041,,,,,,,2021-11-22,1,,,,,エフエムシー,0
65,1012801021230,新規,0,2021-11-22,2021-11-22,株式会社新令和総合経営事務所,,株式会社,東京都,東大和市,中央１丁目５９８番地の１３,,13,220,2070015,,,,,,,2021-11-22,1,,,,,シンレイワソウゴウケイエイジムショ,0
66,1013101008777,新規,0,2021-11-22,2021-11-22,株式会社関根建設,,株式会社,東京都,西多摩郡瑞穂町,大字富士山栗原新田４２番地１,,13,303,1901204,,,,,,,2021-11-22,1,,,,,セキネケンセツ,0
67,1013301048276,新規,0,2021-11-22,2021-11-22,株式会社クレイン,,株式会社,東京都,豊島区,目白２丁目２番２号ｍｅｊｉｒｏ２２２地下１階,,13,116,1710031,,,,,,,2021-11-22,1,,,,,クレイン,0
77,1020001144009,新規,0,2021-11-22,2021-11-22,株式会社インテリアはしぐち,,株式会社,神奈川県,横浜市青葉区,大場町３８８番地２５,,14,117,2250023,,,,,,,2021-11-22,1,,,,,インテリアハシグチ,0
78,1020001144033,新規,0,2021-11-22,2021-11-22,株式会社中華美食,,株式会社,神奈川県,横浜市金沢区,富岡東２丁目２番１３－６０５号,,14,108,2360051,,,,,,,2021-11-22,1,,,,,チュウカビショク,0
79,1020001144041,新規,0,2021-11-22,2021-11-22,オートクチュール株式会社,,株式会社,神奈川県,川崎市中原区,小杉町１丁目５１９番地４クレール橘５０１,,14,133,2110063,,,,,,,2021-11-22,1,,,,,オートクチュール,0
89,1021001074550,新規,0,2021-11-22,2021-11-22,Ｃｒｅａｔｏｒ　Ｓｔｕｄｉｏ株式会社,,株式会社,神奈川県,座間市,ひばりが丘３丁目５３－６,,14,216,2520003,,,,,,,2021-11-22,1,,,,,クリエイタースタジオ,0
91,1021003011114,新規,0,2021-11-22,2021-11-22,てらす合同会社,,合同会社,神奈川県,鎌倉市,手広２丁目２４番２２号,,14,204,2480036,,,,,,,2021-11-22,1,,,,,テラス,0
92,1021003011122,新規,0,2021-11-22,2021-11-22,インテリアコバヤシ合同会社,,合同会社,神奈川県,綾瀬市,落合北５丁目１９番６６号,,14,218,2521116,,,,,,,2021-11-22,1,,,,,インテリアコバヤシ,0
109,1030001145451,新規,0,2021-11-22,2021-11-22,株式会社ＬＴＨ,,株式会社,埼玉県,蕨市,南町２丁目２４番４号,,11,223,3350003,,,,,,,2021-11-22,1,,,,,エルティーエイチ,0
110,1030001145468,新規,0,2021-11-22,2021-11-22,株式会社日本サンテ,,株式会社,埼玉県,本庄市,緑１丁目３番２号,,11,211,3670043,,,,,,,2021-11-22,1,,,,,ニホンサンテ,0
111,1030001145492,新規,0,2021-11-22,2021-11-22,ＣＨＡＮＧＥ－ＧＯＮ株式会社,,株式会社,埼玉県,川口市,中青木２丁目１７番３号,,11,203,3320032,,,,,,,2021-11-22,1,,,,,チェンジゴン,0
115,1030003018374,新規,0,2021-11-22,2021-11-22,ｓｉｉｃａ合同会社,,合同会社,埼玉県,加須市,三俣１丁目１７番地３,,11,210,3470009,,,,,,,2021-11-22,1,,,,,シーカ,0
121,1040001121022,新規,0,2021-11-22,2021-11-22,株式会社ＪＶ　Ｓｔｕｄｉｏ,,株式会社,千葉県,野田市,山崎１８６９番地の６,,12,208,2780022,,,,,,,2021-11-22,1,,,,,ジェイブイスタジオ,0
122,1040001121055,新規,0,2021-11-22,2021-11-22,株式会社土居孝義商店,,株式会社,千葉県,浦安市,明海６丁目１番１２－１５０３号,,12,227,2790014,,,,,,,2021-11-22,1,,,,,ドイタカヨシショウテン,0
123,1040001121096,新規,0,2021-11-22,2021-11-22,株式会社レカムダイニング,,株式会社,千葉県,千葉市中央区,今井２丁目１１番２５号,,12,101,2600834,,,,,,,2021-11-22,1,,,,,レカムダイニング,0
124,1040001121121,新規,0,2021-11-22,2021-11-22,株式会社遊びごころ,,株式会社,千葉県,浦安市,堀江１丁目３４番３４－３０１号,,12,227,2790041,,,,,,,2021-11-22,1,,,,,アソビゴコロ,0
128,1040005021433,新規,0,2021-11-22,2021-11-22,一般社団法人日本パラアスリート協会,,その他の設立登記法人,千葉県,印西市,木下１６６１番地１８,,12,231,2701326,,,,,,,2021-11-22,1,,,,,ニホンパラアスリートキョウカイ,0
132,1050001050187,新規,0,2021-11-22,2021-11-22,株式会社ＫＯＢＡＫＡＩ,,株式会社,茨城県,常総市,豊岡町乙３９５番地１,,08,211,3030041,,,,,,,2021-11-22,1,,,,,コバカイ,0
139,1070003004305,新規,0,2021-11-22,2021-11-22,合同会社祭,,合同会社,群馬県,渋川市,石原１６５４番地１,,10,208,3770007,,,,,,,2021-11-22,1,,,,,マツリ,0
143,1080101022934,新規,0,2021-11-22,2021-11-22,株式会社とゝ丸,,株式会社,静岡県,伊東市,竹の内２丁目２－１３,,22,208,4140027,,,,,,,2021-11-22,1,,,,,トトマル,0
145,1080401025488,新規,0,2021-11-22,2021-11-22,株式会社タクネ,,株式会社,静岡県,浜松市中区,鴨江１丁目９番２号,,22,131,4328023,,,,,,,2021-11-22,1,,,,,タクネ,0
155,1120001241902,新規,0,2021-11-22,2021-11-22,株式会社Ｇ＆Ｄ,,株式会社,大阪府,大阪市北区,豊崎３丁目１６番１６号,,27,127,5310072,,,,,,,2021-11-22,1,,,,,ジーアンドディー,0
156,1120001241927,新規,0,2021-11-22,2021-11-22,株式会社ＣＣＬ,,株式会社,大阪府,大阪市淀川区,新北野２丁目１２番７号,,27,123,5320025,,,,,,,2021-11-22,1,,,,,シーシーエル,0
157,1120001242017,新規,0,2021-11-22,2021-11-22,株式会社ビーホーム,,株式会社,大阪府,大阪市北区,長柄中１丁目１番１４－１０３号,,27,127,5310062,,,,,,,2021-11-22,1,,,,,ビーホーム,0
158,1120001242033,新規,0,2021-11-22,2021-11-22,株式会社Ｅｎｌｏｏｐ,,株式会社,大阪府,大阪市淀川区,木川東３丁目１０番２３－３０２号,,27,123,5320012,,,,,,,2021-11-22,1,,,,,エンループ,0
159,1120001242041,新規,0,2021-11-22,2021-11-22,ＸＴＥＬＬＡ　ＪＡＰＡＮ株式会社,,株式会社,大阪府,大阪市北区,西天満５丁目１５－３エスティメゾン西天満２２０２,,27,127,5300047,,,,,,,2021-11-22,1,,,,,エクステラジャパン,0
162,1120003020635,新規,0,2021-11-22,2021-11-22,合同会社ＵＺＵ,,合同会社,大阪府,大阪市中央区,伏見町４丁目４－９淀屋橋東洋ビル３階,,27,128,5410044,,,,,,,2021-11-22,1,,,,,ウズ,0
168,1120103004447,新規,0,2021-11-22,2021-11-22,合同会社亜すなろ,,合同会社,大阪府,松原市,阿保６丁目８番８号,,27,217,5800043,,,,,,,2021-11-22,1,,,,,アスナロ,0
169,1120901045238,新規,0,2021-11-22,2021-11-22,株式会社ランデスト,,株式会社,大阪府,吹田市,千里山東１丁目９番１４号４１６,,27,205,5650842,,,,,,,2021-11-22,1,,,,,ランデスト,0
172,1130001070573,新規,0,2021-11-22,2021-11-22,武藤環境サービス株式会社,,株式会社,京都府,宇治市,小倉町天王３２番１０－２０３号,,26,204,6110042,,,,,,,2021-11-22,1,,,,,ムトウカンキョウサービス,0
178,1140001123941,新規,0,2021-11-22,2021-11-22,株式会社ＮＥＷ・ＹＡＲＤＯ,,株式会社,兵庫県,高砂市,荒井町千鳥２丁目６番２０号,,28,216,6760004,,,,,,,2021-11-22,1,,,,,ニューヤード,0
185,1140003017010,新規,0,2021-11-22,2021-11-22,ＴＭマネジメント合同会社,,合同会社,兵庫県,伊丹市,平松７丁目６番１－１０８号,,28,207,6640853,,,,,,,2021-11-22,1,,,,,ティーエムマネジメント,0
187,1150003002548,新規,0,2021-11-22,2021-11-22,合同会社ブレンドｏｎｅ,,合同会社,奈良県,葛城市,新庄６２番地,,29,211,6392147,,,,,,,2021-11-22,1,,,,,ブレンドワン,0
188,1160001023826,新規,0,2021-11-22,2021-11-22,株式会社エンゲージメント,,株式会社,滋賀県,大津市,雄琴３丁目２４番６号,,25,201,5200101,,,,,,,2021-11-22,1,,,,,エンゲージメント,0
192,1180001148811,新規,0,2021-11-22,2021-11-22,株式会社キックス,,株式会社,愛知県,春日井市,中野町２丁目２１番地３０,,23,206,4860957,,,,,,,2021-11-22,1,,,,,キックス,0
193,1180001148852,新規,0,2021-11-22,2021-11-22,株式会社Ｈｅａｌ　Ｈｅａｒｔｓ,,株式会社,愛知県,名古屋市東区,百人町２３番地の２,,23,102,4610037,,,,,,,2021-11-22,1,,,,,ヒールハーツ,0
197,1180301035643,新規,0,2021-11-22,2021-11-22,ワカマツヤホールディングス株式会社,,株式会社,愛知県,豊橋市,中原町字東山４０番地の７,,23,201,4413106,,,,,,,2021-11-22,1,,,,,ワカマツヤホールディングス,0
201,1190001028871,新規,0,2021-11-22,2021-11-22,株式会社美里音・中部,,株式会社,三重県,桑名市,大字太夫８９番地１,,24,205,5110826,,,,,,,2021-11-22,1,,,,,ミリオンチュウブ,0
208,1200001039446,新規,0,2021-11-22,2021-11-22,株式会社クボタＬａｂ．,,株式会社,岐阜県,岐阜市,宇佐４丁目３番４号,,21,201,5008368,,,,,,,2021-11-22,1,,,,,クボタラボ,0
214,1220001024553,新規,0,2021-11-22,2021-11-22,株式会社成々舎,,株式会社,石川県,金沢市,円光寺３丁目１４番２４号,,17,201,9218173,,,,,,,2021-11-22,1,,,,,セイセイシャ,0
222,1240001058954,新規,0,2021-11-22,2021-11-22,株式会社ゴルフパークもぐ太くん,,株式会社,広島県,大竹市,小方町黒川５５８番,,34,211,7390654,,,,,,,2021-11-22,1,,,,,ゴルフパークモグタクン,0
224,1240003005376,新規,0,2021-11-22,2021-11-22,合同会社センターシャフト,,合同会社,広島県,尾道市,高須町５６７７番地４,,34,205,7290141,,,,,,,2021-11-22,1,,,,,センターシャフト,0
228,1260001036231,新規,0,2021-11-22,2021-11-22,株式会社ＶＥＲＤＥ,,株式会社,岡山県,岡山市南区,藤田５６４番地２５３,,33,104,7010221,,,,,,,2021-11-22,1,,,,,ヴェルデ,0
239,1300003001749,新規,0,2021-11-22,2021-11-22,合同会社ＫＭソリューション,,合同会社,佐賀県,三養基郡みやき町,大字江口１４１１－３,,41,346,8490112,,,,,,,2021-11-22,1,,,,,ケーエムソリューション,0
240,1310001017597,新規,0,2021-11-22,2021-11-22,株式会社五島つばき蒸溜所,,株式会社,長崎県,五島市,戸岐町１２２４番地,,42,211,8530054,,,,,,,2021-11-22,1,,,,,ゴトウツバキジョウリュウショ,0
242,1320005009937,新規,0,2021-11-22,2021-11-22,日本キャリアサポート協同組合,,その他の設立登記法人,大分県,大分市,中島中央３丁目２番２６号長江ビル２０１号,,44,201,8700049,,,,,,,2021-11-22,1,,,,,ニホンキャリアサポート,0
247,1340001024285,新規,0,2021-11-22,2021-11-22,Ｍ－ｔｅｃｈさつま株式会社,,株式会社,鹿児島県,南九州市,知覧町厚地７１３番地４,,46,223,8970301,,,,,,,2021-11-22,1,,,,,エムテックサツマ,0
254,1360001029613,新規,0,2021-11-22,2021-11-22,株式会社６ｕｕ,,株式会社,沖縄県,那覇市,おもろまち４丁目１５番３‐９０１号アルファステイツおもろまち,,47,201,9000006,,,,,,,2021-11-22,1,,,,,ムー,0
255,1360001029662,新規,0,2021-11-22,2021-11-22,共栄清掃株式会社,,株式会社,沖縄県,沖縄市,比屋根６丁目３４番１０号イシケンマンション４０６号,,47,211,9042173,,,,,,,2021-11-22,1,,,,,キョウエイ,0
257,1360003011577,新規,0,2021-11-22,2021-11-22,合同会社石垣まる介護,,合同会社,沖縄県,那覇市,与儀１丁目１９番４０号石垣アパート１Ｆ,,47,201,9020076,,,,,,,2021-11-22,1,,,,,イシガキマルカイゴ,0
258,1360003011585,新規,0,2021-11-22,2021-11-22,合同会社ネットワーク沖縄,,合同会社,沖縄県,島尻郡与那原町,字与那原１００５ＴＨ与那原２－Ｂ,,47,348,9011303,,,,,,,2021-11-22,1,,,,,ネットワークオキナワ,0
264,1390003001897,新規,0,2021-11-22,2021-11-22,合同会社ＳＬＯＷＪＡＭ,,合同会社,山形県,山形市,香澄町２丁目８番１号１Ｆ,,06,201,9900039,,,,,,,2021-11-22,1,,,,,スロージャム,0
270,1430001085426,新規,0,2021-11-22,2021-11-22,株式会社サンアビ,,株式会社,北海道,札幌市西区,発寒九条１３丁目１番３号駅前プラザ発寒２階,,01,107,0630829,,,,,,,2021-11-22,1,,,,,サンアビ,0
273,1430003013376,新規,0,2021-11-22,2021-11-22,合同会社モリティブ,,合同会社,北海道,札幌市北区,新琴似六条１丁目５番４８－１０２号,,01,102,0010906,,,,,,,2021-11-22,1,,,,,モリティブ,0
281,1470001018844,新規,0,2021-11-22,2021-11-22,株式会社ＳＫ　ＣＲＥＷ,,株式会社,香川県,高松市,国分寺町新名１６３６番地１,,37,201,7690104,,,,,,,2021-11-22,1,,,,,エスケークルー,0
282,1480003001756,新規,0,2021-11-22,2021-11-22,合同会社つばめ産業,,合同会社,徳島県,阿南市,宝田町平岡８９９番地３２,,36,204,7740045,,,,,,,2021-11-22,1,,,,,ツバメサンギョウ,0
284,1700150105915,新規,0,2021-11-22,2021-11-22,Ｓｈｅｎｚｈｅｎ　Ｈｕａｂａｏ　Ｉｎｔｅｒｎａｔｉｏｎａｌ　Ｌｏｇｉｓｔｉｃｓ　Ｃｏ．，Ｌｔｄ,,外国会社等,,,,,,,,Ｒｍ４０１，Ｎｏ１２７，Ｇｕｉｈｕａ　Ｒｄ，Ｇｕｉｈｕａ　Ｃｏｍｍｕｎｉｔｙ，Ｇｕａｎｌａｎ　Ｓｔ，Ｌｏｎｇｈｕａ　Ｄｉｓｔ，Ｓｈｅｎｚｈｅｎ，Ｃｈｉｎａ,,,,,,2021-11-22,1,,,,,シエンチエンホアバオインターナシヨナルロジステイクスカンパニーリミテツド,0
295,2010001222722,新規,0,2021-11-22,2021-11-22,株式会社都市開発３号,,株式会社,東京都,千代田区,神田須田町２丁目９番地１,,13,101,1010041,,,,,,,2021-11-22,1,,,,,トシカイハツサンゴウ,0
299,2010005034239,新規,0,2021-11-22,2021-11-22,一般社団法人尖閣神社奉賛会,,その他の設立登記法人,東京都,千代田区,麹町４丁目７番５号麹町ロイヤルビル６０２,,13,101,1020083,,,,,,,2021-11-22,1,,,,,センカクジンジャホウサンカイ,0
313,2010403026556,新規,0,2021-11-22,2021-11-22,シンタックスクラウド合同会社,,合同会社,東京都,港区,西麻布１丁目７－２エコナック西麻布５１０,,13,103,1060031,,,,,,,2021-11-22,1,,,,,シンタックスクラウド,0
314,2010403026564,新規,0,2021-11-22,2021-11-22,八王子ＰＪ１合同会社,,合同会社,東京都,港区,六本木１丁目６番１号泉ガーデンタワー,,13,103,1060032,,,,,,,2021-11-22,1,,,,,ハチオウジピージェイワン,0
315,2010405020425,新規,0,2021-11-22,2021-11-22,一般社団法人まちづくりコミュニティ支援機構,,その他の設立登記法人,東京都,港区,新橋５丁目２０番３号,,13,103,1050004,,,,,,,2021-11-22,1,,,,,マチヅクリコミュニティシエンキコウ,0
316,2010405020433,新規,0,2021-11-22,2021-11-22,池田インベストメント一般社団法人,,その他の設立登記法人,東京都,港区,虎ノ門４丁目１番２８号,,13,103,1050001,,,,,,,2021-11-22,1,,,,,イケダインベストメント,0
317,2010405020458,新規,0,2021-11-22,2021-11-22,マーズインフラホールディングス一般社団法人,,その他の設立登記法人,東京都,港区,元赤坂１丁目１番７号,,13,103,1070051,,,,,,,2021-11-22,1,,,,,マーズインフラホールディングス,0
342,2011103011170,新規,0,2021-11-22,2021-11-22,Ｔｈｅ　Ｄｅｌｐｈｉ　Ｎｅｔｗｏｒｋ合同会社,,合同会社,東京都,新宿区,弁天町８７番地２,,13,104,1620851,,,,,,,2021-11-22,1,,,,,ザデルフィネットワーク,0
346,2011301027365,新規,0,2021-11-22,2021-11-22,株式会社ジャスト加工,,株式会社,東京都,杉並区,和泉２丁目１３番３０－１１０３号,,13,115,1680063,,,,,,,2021-11-22,1,,,,,ジャストカコウ,0
347,2011403003504,新規,0,2021-11-22,2021-11-22,合同会社ＬＩＴ,,合同会社,東京都,板橋区,南常盤台１丁目１１－６レフア南常盤台１０１号室,,13,119,1740072,,,,,,,2021-11-22,1,,,,,リット,0
353,2011801039991,新規,0,2021-11-22,2021-11-22,Ｃｈｕａｎｇｚｈａｎ　Ｎｅｔｗｏｒｋ　Ｉｎｆｏｒｍａｔｉｏｎ　Ｍｅｄｉａ株式会社,,株式会社,東京都,葛飾区,青戸７丁目２３番１１号,,13,122,1250062,,,,,,,2021-11-22,1,,,,,ツゥアンジャンネットワークインフォメーションメディア,0
364,2013103001093,新規,0,2021-11-22,2021-11-22,合同会社エールペットクリニック,,合同会社,東京都,福生市,南田園２丁目４番６号,,13,218,1970004,,,,,,,2021-11-22,1,,,,,エールペットクリニック,0
370,2013301048300,新規,0,2021-11-22,2021-11-22,Ｓｈｗｅ　Ｍｙｅｉｋ　Ｔｈｕ株式会社,,株式会社,東京都,豊島区,南池袋４丁目８番５号,,13,116,1710022,,,,,,,2021-11-22,1,,,,,シゥエミィエッツトゥ,0
371,2013301048309,新規,0,2021-11-22,2021-11-22,株式会社高波,,株式会社,東京都,豊島区,目白２丁目６番６号アトレ目白Ｂ１０４,,13,116,1710031,,,,,,,2021-11-22,1,,,,,タカナミ,0
379,2020001144024,新規,0,2021-11-22,2021-11-22,株式会社ＲＩＳＥ,,株式会社,神奈川県,横浜市南区,宮元町１丁目９番地３アークレテイシアレジデンス４０１,,14,105,2320016,,,,,,,2021-11-22,1,,,,,ライズ,0
380,2020001144040,新規,0,2021-11-22,2021-11-22,エヌディーエスホールディングス株式会社,,株式会社,神奈川県,横浜市神奈川区,栄町１番地１,,14,102,2210052,,,,,,,2021-11-22,1,,,,,エヌディーエスホールディングス,0
381,2020001144049,新規,0,2021-11-22,2021-11-22,株式会社ＫＡＮＥＧＡＥ　ＩＮＴＥＲＮＡＴＩＯＮＡＬ,,株式会社,神奈川県,川崎市中原区,新城１丁目１０番１４号鶴田第一ビル２階２０２号室,,14,133,2110044,,,,,,,2021-11-22,1,,,,,カネガエインターナショナル,0
383,2020003020727,新規,0,2021-11-22,2021-11-22,合同会社Ｃｌａｉｒ　Ｐｅｃｈｅ,,合同会社,神奈川県,横浜市鶴見区,駒岡５丁目７－３－６０２,,14,101,2300071,,,,,,,2021-11-22,1,,,,,クレールペッシュ,0
384,2020003020818,新規,0,2021-11-22,2021-11-22,ナレッジ・ツリー合同会社,,合同会社,神奈川県,横浜市緑区,新治町１２０６－７,,14,113,2260017,,,,,,,2021-11-22,1,,,,,ナレッジツリー,0
385,2020003020826,新規,0,2021-11-22,2021-11-22,模型信号合同会社,,合同会社,神奈川県,横浜市神奈川区,浦島町３５８番地３マリーナハウス横浜Ｉ番館３０３号,00124924,14,102,2210042,,,,,,,2021-11-22,1,,,,,モケイシンゴウ,0
389,2021001074558,新規,0,2021-11-22,2021-11-22,お肉箱株式会社,,株式会社,神奈川県,平塚市,紅谷町１４番３号カメヤＫＩビル４階,,14,203,2540043,,,,,,,2021-11-22,1,,,,,オニクバコ,0
402,2030001145459,新規,0,2021-11-22,2021-11-22,株式会社信頼商事,,株式会社,埼玉県,熊谷市,日向１３６４番地１,,11,202,3600224,,,,,,,2021-11-22,1,,,,,シンライショウジ,0
407,2030003018258,新規,0,2021-11-22,2021-11-22,合同会社リノベスタイル東京,,合同会社,埼玉県,川口市,上青木西１丁目２０番３４－６０６号,,11,203,3330845,,,,,,,2021-11-22,1,,,,,リノベスタイルトウキョウ,0
415,2040001120997,新規,0,2021-11-22,2021-11-22,株式会社光姫,,株式会社,千葉県,市川市,欠真間２丁目１９番２－４０１ホワイト・コースト参番館,,12,203,2720142,,,,,,,2021-11-22,1,,,,,コウキ,0
416,2040001121120,新規,0,2021-11-22,2021-11-22,ミウラメンテナンス＆マネジメント株式会社,,株式会社,千葉県,館山市,正木８２６－１－Ａ,,12,205,2940051,,,,,,,2021-11-22,1,,,,,ミウラメンテナンスアンドマネジメント,0
434,2080001024591,新規,0,2021-11-22,2021-11-22,株式会社ふじのくに農園,,株式会社,静岡県,静岡市葵区,常磐町１丁目８番地の６,,22,101,4200034,,,,,,,2021-11-22,1,,,,,フジノクニノウエン,0
444,2080403004415,新規,0,2021-11-22,2021-11-22,合同会社Ｒｅｂｅｌｌｉｏｎ,,合同会社,静岡県,浜松市南区,三島町２３０番地の４,,22,134,4300853,,,,,,,2021-11-22,1,,,,,リベリオン,0
454,2120001241728,新規,0,2021-11-22,2021-11-22,株式会社アクセスリード,,株式会社,大阪府,大阪市北区,西天満５丁目１１－３河合ビル５０２,,27,127,5300047,,,,,,,2021-11-22,1,,,,,アクセスリード,0
459,2120003020634,新規,0,2021-11-22,2021-11-22,合同会社エヌティ企画,,合同会社,大阪府,門真市,桑才新町１５番１６号,,27,223,5710043,,,,,,,2021-11-22,1,,,,,エヌティキカク,0
464,2120103004446,新規,0,2021-11-22,2021-11-22,合同会社ケアサポートまほら,,合同会社,大阪府,泉佐野市,日根野５９８０番地の１４,,27,213,5980021,,,,,,,2021-11-22,1,,,,,ケアサポートマホラ,0
466,2120901045245,新規,0,2021-11-22,2021-11-22,株式会社ハマダグミ,,株式会社,大阪府,吹田市,新芦屋上５番１－３０３,00124928,27,205,5650804,,,,,,,2021-11-22,1,,,,,ハマダグミ,0
477,2130001070531,新規,0,2021-11-22,2021-11-22,大田株式会社,,株式会社,京都府,京都市右京区,太秦安井辰巳町２－３０,,26,108,6168072,,,,,,,2021-11-22,1,,,,,オオタ,0
479,2130005016316,新規,0,2021-11-22,2021-11-22,山神社,,その他の設立登記法人,京都府,舞鶴市,字上福井,,26,202,6240951,,,,,,,2021-11-22,1,,,,,ヤマジンジャ,0
481,2140001123932,新規,0,2021-11-22,2021-11-22,縦横無尽株式会社,,株式会社,兵庫県,南あわじ市,山添１６８番地５,,28,224,6560121,,,,,,,2021-11-22,1,,,,,ジュウオウムジン,0
482,2140001123949,新規,0,2021-11-22,2021-11-22,生島エンジニアリング株式会社,,株式会社,兵庫県,尼崎市,東難波町１丁目４番１７号,,28,202,6600892,,,,,,,2021-11-22,1,,,,,イクシマエンジニアリング,0
488,2140005025893,新規,0,2021-11-22,2021-11-22,農事組合法人白水農事組合,,その他の設立登記法人,兵庫県,たつの市,新宮町善定１０２番地,,28,229,6794344,,,,,,,2021-11-22,1,,,,,シラミズ,0
490,2150003002547,新規,0,2021-11-22,2021-11-22,子規の庭合同会社,,合同会社,奈良県,奈良市,今小路町４５番地の１,,29,201,6308207,,,,,,,2021-11-22,1,,,,,シキノニワ,0
492,2160003002430,新規,0,2021-11-22,2021-11-22,合同会社Ｒｉｅｒ,,合同会社,滋賀県,愛知郡愛荘町,愛知川６１７番地の３,,25,425,5291331,,,,,,,2021-11-22,1,,,,,リエ,0
501,2180003023219,新規,0,2021-11-22,2021-11-22,合同会社アースリーフチェリー,,合同会社,愛知県,名古屋市西区,名駅２丁目２９－３プリマヴェール名駅シュール２０４,,23,104,4510045,,,,,,,2021-11-22,1,,,,,アースリーフチェリー,0
505,2180301035642,新規,0,2021-11-22,2021-11-22,北部実業株式会社,,株式会社,愛知県,豊橋市,大岩町字前荒田１９６番地１,,23,201,4413147,,,,,,,2021-11-22,1,,,,,ホクブジツギョウ,0
508,2180303005172,新規,0,2021-11-22,2021-11-22,合同会社エステートフィールド,,合同会社,愛知県,刈谷市,若松町３丁目９ＹＦＢＬＤＧ３階,,23,210,4480858,,,,,,,2021-11-22,1,,,,,エステートフィールド,0
513,2200001039445,新規,0,2021-11-22,2021-11-22,ＦＩＫＡ　ＦＡＲＭ株式会社,,株式会社,岐阜県,羽島市,竹鼻町錦町１０番地うらら１０４号,,21,209,5016242,,,,,,,2021-11-22,1,,,,,フィーカファーム,0
521,2220001024552,新規,0,2021-11-22,2021-11-22,株式会社マエコーテック,,株式会社,石川県,野々市市,野代３丁目７５番地４,,17,212,9218804,,,,,,,2021-11-22,1,,,,,マエコーテック,0
522,2230001019114,新規,0,2021-11-22,2021-11-22,株式会社サンビルド,,株式会社,富山県,滑川市,法花寺３８０番地５,,16,206,9360885,,,,,,,2021-11-22,1,,,,,サンビルド,0
525,2240001058953,新規,0,2021-11-22,2021-11-22,株式会社Ｋ’ｓカンパニー,,株式会社,広島県,福山市,御幸町大字下岩成３５２番地１２,,34,207,7200002,,,,,,,2021-11-22,1,,,,,ケーズカンパニー,0
534,2290001095505,新規,0,2021-11-22,2021-11-22,株式会社Ｓｑｕａｒｅ　Ｋｎｏｔ,,株式会社,福岡県,福岡市博多区,半道橋１丁目７番７号１Ｆ,,40,132,8120897,,,,,,,2021-11-22,1,,,,,スクエアノット,0
535,2290003011848,新規,0,2021-11-22,2021-11-22,合同会社ＢＯＮＩＴＡ,,合同会社,福岡県,福岡市博多区,奈良屋町１０番３号西日本奈良屋ビル３０４号,,40,132,8120023,,,,,,,2021-11-22,1,,,,,ボニータ,0
536,2290003011856,新規,0,2021-11-22,2021-11-22,合同会社正永商事,,合同会社,福岡県,宗像市,冨地原字六畝田１２０番,,40,220,8114154,,,,,,,2021-11-22,1,,,,,ショウエイショウジ,0
537,2290003011864,新規,0,2021-11-22,2021-11-22,合同会社Ｊ．ＮＢＯＫ,,合同会社,福岡県,福岡市中央区,笹丘１丁目１０番２７号,,40,133,8100034,,,,,,,2021-11-22,1,,,,,ジェイドットエヌビーオーケー,0
541,2300001012706,新規,0,2021-11-22,2021-11-22,信栄不動産株式会社,,株式会社,佐賀県,佐賀市,久保田町大字久保田８３番地１,,41,201,8490204,,,,,,,2021-11-22,1,,,,,シンエイフドウサン,0
547,2330001029210,新規,0,2021-11-22,2021-11-22,株式会社レイ・アンド・リリー,,株式会社,熊本県,熊本市東区,健軍１丁目３６番１７号,,43,102,8620911,,,,,,,2021-11-22,1,,,,,レイアンドリリー,0
548,2330003009136,新規,0,2021-11-22,2021-11-22,ａｙａコーポレーション合同会社,,合同会社,熊本県,菊池市,大琳寺２７６番地９,,43,210,8611306,,,,,,,2021-11-22,1,,,,,アヤコーポレーション,0
549,2340001024284,新規,0,2021-11-22,2021-11-22,正市工務店株式会社,,株式会社,鹿児島県,霧島市,隼人町西光寺６９番地１,,46,218,8995114,,,,,,,2021-11-22,1,,,,,ショウイチコウムテン,0
553,2350001017428,新規,0,2021-11-22,2021-11-22,株式会社肉のひろやす,,株式会社,宮崎県,宮崎市,本郷３丁目８番１５－５号,,45,201,8800922,,,,,,,2021-11-22,1,,,,,ニクノヒロヤス,0
554,2370001047869,新規,0,2021-11-22,2021-11-22,株式会社バリューサービス,,株式会社,宮城県,仙台市若林区,卸町東４丁目３番８号,,04,103,9840002,,,,,,,2021-11-22,1,,,,,バリューサービス,0
555,2370003005494,新規,0,2021-11-22,2021-11-22,合同会社Ｍ＆Ｔ,,合同会社,宮城県,仙台市青葉区,柏木１丁目５番１－４０１号,,04,101,9810933,,,,,,,2021-11-22,1,,,,,エムアンドティ,0
562,2410001013024,新規,0,2021-11-22,2021-11-22,株式会社ＰＬＯＷＮＵＥ,,株式会社,秋田県,大館市,川口字長里１２４番地５,,05,204,0170878,,,,,,,2021-11-22,1,,,,,プラウニュー,0
569,2430003013383,新規,0,2021-11-22,2021-11-22,合同会社ライフコネクト,,合同会社,北海道,札幌市手稲区,富丘二条２丁目７番１３－２０２号,,01,109,0060012,,,,,,,2021-11-22,1,,,,,ライフコネクト,0
572,2470001018843,新規,0,2021-11-22,2021-11-22,株式会社英美丸,,株式会社,香川県,さぬき市,長尾西３７８番地１,,37,206,7692302,,,,,,,2021-11-22,1,,,,,ヒデミマル,0
574,2500001023823,新規,0,2021-11-22,2021-11-22,株式会社シンセイフーズ,,株式会社,愛媛県,今治市,北日吉町１丁目１１番１０号,,38,202,7940054,,,,,,,2021-11-22,1,,,,,シンセイフーズ,0
575,2700150105914,新規,0,2021-11-22,2021-11-22,Ｍｉｎｇｔｉｅ　Ｉｎｔｅｒｎａｔｉｏｎａｌ　Ｌｏｇｉｓｔｉｃｓ　（Ｓｈｅｎｚｈｅｎ）　Ｃｏ．，Ｌｔｄ,,外国会社等,,,,,,,,Ｈｕａｈａｏｔａｉ　ＩＰ，Ｌｏｎｇｇｕａｎ　Ｒｄ，Ｙｕｃｕｉ　Ｃｏｍｍｕｎｉｔｙ，Ｌｏｎｇｈｕａ　Ｓｔ，Ｌｏｎｇｈｕａ　Ｄｉｓｔ，Ｓｈｅｎｚｈｅｎ，Ｃｈｉｎａ,,,,,,2021-11-22,1,,,,,ミンテイエインターナシヨナルロジステイクスシエンチエンカンパニーリミテツド,0
584,3010001222663,新規,0,2021-11-22,2021-11-22,株式会社東京不動産管理,,株式会社,東京都,千代田区,丸の内２丁目３番２号郵船ビルディング１階,,13,101,1000005,,,,,,,2021-11-22,1,,,,,トウキョウフドウサンカンリ,0
585,3010001222721,新規,0,2021-11-22,2021-11-22,株式会社都市開発２号,,株式会社,東京都,千代田区,神田須田町２丁目９番地１,,13,101,1010041,,,,,,,2021-11-22,1,,,,,トシカイハツニゴウ,0
587,3010005034238,新規,0,2021-11-22,2021-11-22,メック都市開発１３号特定目的会社,,その他の設立登記法人,東京都,中央区,日本橋２丁目７番１号,,13,102,1030027,,,,,,,2021-11-22,1,,,,,メックトシカイハツジュウサンゴウ,0
601,3010403026563,新規,0,2021-11-22,2021-11-22,加須ファシリティ２合同会社,,合同会社,東京都,港区,六本木１丁目６番１号泉ガーデンタワー,,13,103,1060032,,,,,,,2021-11-22,1,,,,,カゾファシリティツー,0
610,3010601060281,新規,0,2021-11-22,2021-11-22,株式会社ブルーイング,,株式会社,東京都,墨田区,横川５丁目１０－１－９１６,,13,107,1300003,,,,,,,2021-11-22,1,,,,,ブルーイング,0
613,3010701041826,新規,0,2021-11-22,2021-11-22,ａｃｃｅｎｔ　ｃｏｎｓｕｌｔｉｎｇ株式会社,,株式会社,東京都,品川区,東大井１丁目１１－２５－３１１,,13,109,1400011,,,,,,,2021-11-22,1,,,,,アクセントコンサルティング,0
620,3010803003963,新規,0,2021-11-22,2021-11-22,アメスマジャパン合同会社,,合同会社,東京都,大田区,下丸子４丁目２１番１６号１３０４号室,,13,111,1460092,,,,,,,2021-11-22,1,,,,,アメスマジャパン,0
631,3011001144121,新規,0,2021-11-22,2021-11-22,エッジ株式会社,,株式会社,東京都,目黒区,碑文谷１丁目２番１０号,,13,110,1520003,,,,,,,2021-11-22,1,,,,,エッジ,0
642,3011105010054,新規,0,2021-11-22,2021-11-22,ＭＳＰ監査法人,,その他の設立登記法人,東京都,新宿区,西新宿６丁目１５番１号セントラルパークタワー・ラ・トゥール新宿３Ｆ,,13,104,1600023,,,,,,,2021-11-22,1,,,,,エムエスピー,0
651,3011803004869,新規,0,2021-11-22,2021-11-22,合同会社ＭＥＲＣＵＲＹ,,合同会社,東京都,葛飾区,青戸３丁目１２番１４号,,13,122,1250062,,,,,,,2021-11-22,1,,,,,マーキュリー,0
660,3012801021229,新規,0,2021-11-22,2021-11-22,株式会社ＯＷＬ　ＷＯＲＫＳ,,株式会社,東京都,昭島市,中神町１１６９番地６,,13,207,1960022,,,,,,,2021-11-22,1,,,,,オウルワークス,0
664,3013301048299,新規,0,2021-11-22,2021-11-22,株式会社クライン,,株式会社,東京都,豊島区,南大塚２丁目３８番１号リードシー大塚ビル７－３,,13,116,1700005,,,,,,,2021-11-22,1,,,,,クライン,0
665,3013301048308,新規,0,2021-11-22,2021-11-22,株式会社通達双勝,,株式会社,東京都,豊島区,池袋本町４丁目１７番１１号,,13,116,1700011,,,,,,,2021-11-22,1,,,,,ツウタツソウショウ,0
670,3020001144031,新規,0,2021-11-22,2021-11-22,株式会社媛ホーム,,株式会社,神奈川県,川崎市宮前区,野川本町２丁目２４番３５－３０３号,,14,136,2160041,,,,,,,2021-11-22,1,,,,,ヒメホーム,0
671,3020001144048,新規,0,2021-11-22,2021-11-22,新サービス株式会社,,株式会社,神奈川県,川崎市多摩区,生田６丁目１９番２号,,14,135,2140038,,,,,,,2021-11-22,1,,,,,シンサービス,0
676,3021001074499,新規,0,2021-11-22,2021-11-22,株式会社十文字機工,,株式会社,神奈川県,愛甲郡愛川町,田代４０４番地の９,,14,401,2430306,,,,,,,2021-11-22,1,,,,,ジュウモンジキコウ,0
684,3030001145441,新規,0,2021-11-22,2021-11-22,株式会社富士文具,,株式会社,埼玉県,川口市,前上町２０番１４号,,11,203,3330843,,,,,,,2021-11-22,1,,,,,フジブング,0
685,3030001145458,新規,0,2021-11-22,2021-11-22,くわふじ株式会社,,株式会社,埼玉県,北足立郡伊奈町,中央２丁目３５１番地,,11,301,3620809,,,,,,,2021-11-22,1,,,,,クワフジ,0
686,3030001145490,新規,0,2021-11-22,2021-11-22,イービーエス株式会社,,株式会社,埼玉県,さいたま市浦和区,常盤９丁目１４番１０－１１０３号,,11,107,3300061,,,,,,,2021-11-22,1,,,,,イービーエス,0
691,3030003018372,新規,0,2021-11-22,2021-11-22,合同会社パステルナーク,,合同会社,埼玉県,草加市,氷川町６９番地３レオパレスＣＡＬＭ－１０４号,,11,221,3400034,,,,,,,2021-11-22,1,,,,,パステルナーク,0
697,3040001121078,新規,0,2021-11-22,2021-11-22,箱崎株式会社,,株式会社,千葉県,千葉市美浜区,磯辺４丁目１９番６号,,12,106,2610012,,,,,,,2021-11-22,1,,,,,ハコザキ,0
698,3040001121094,新規,0,2021-11-22,2021-11-22,茂丸株式会社,,株式会社,千葉県,山武郡九十九里町,不動堂４５０番地６７,,12,403,2830113,,,,,,,2021-11-22,1,,,,,シゲマル,0
699,3040001121103,新規,0,2021-11-22,2021-11-22,太田アイティサービス株式会社,,株式会社,千葉県,習志野市,鷺沼台２丁目１２番４号,,12,216,2750015,,,,,,,2021-11-22,1,,,,,オオタアイティサービス,0
700,3040001121111,新規,0,2021-11-22,2021-11-22,Ｐｌｏｗｐｌｕｓ．ｉｎｖｅｓｔｍｅｎｔ株式会社,,株式会社,千葉県,成田市,成毛４００番地,,12,211,2860816,,,,,,,2021-11-22,1,,,,,プラウプラスドットインベストメント,0
710,3050001050185,新規,0,2021-11-22,2021-11-22,モリモータース株式会社,,株式会社,茨城県,猿島郡境町,大字若林２４５６－２,,08,546,3060417,,,,,,,2021-11-22,1,,,,,モリモータース,0
722,3080103002461,新規,0,2021-11-22,2021-11-22,合同会社Ｕ４２,,合同会社,静岡県,伊東市,池６１４－１６８,,22,208,4130234,,,,,,,2021-11-22,1,,,,,ユーヨンジュウニ,0
724,3080403004414,新規,0,2021-11-22,2021-11-22,マホラクリエーションズ合同会社,,合同会社,静岡県,浜松市中区,板屋町１０４番地の１Ｄ’ｓＴｏｗｅｒ３００５号,,22,131,4300928,,,,,,,2021-11-22,1,,,,,マホラクリエーションズ,0
726,3110001036211,新規,0,2021-11-22,2021-11-22,株式会社ライフクリエート,,株式会社,新潟県,新潟市東区,河渡１丁目３番４４号,,15,102,9500024,,,,,,,2021-11-22,1,,,,,ライフクリエート,0
739,3120001241850,新規,0,2021-11-22,2021-11-22,株式会社Ｍｏｎｄｏ　ｓｔｅｌｌａ　ｗｉｚ,,株式会社,大阪府,大阪市中央区,久太郎町４丁目２番１５号岡地ビル８階,,27,128,5410056,,,,,,,2021-11-22,1,,,,,モンステラワイズ,0
740,3120001242015,新規,0,2021-11-22,2021-11-22,亀吉株式会社,,株式会社,大阪府,大阪市生野区,巽中３丁目１１番４号,00124927,27,116,5440013,,,,,,,2021-11-22,1,,,,,カメキチ,0
741,3120001242048,新規,0,2021-11-22,2021-11-22,株式会社サンエイネット,,株式会社,大阪府,大阪市鶴見区,鶴見１丁目６番１０９－１３０７号,,27,124,5380053,,,,,,,2021-11-22,1,,,,,サンエイネット,0
742,3120001242056,新規,0,2021-11-22,2021-11-22,株式会社ナルミＷＥＳＴ,,株式会社,大阪府,大阪市都島区,大東町３丁目３番１－９０１号,,27,102,5340002,,,,,,,2021-11-22,1,,,,,ナルミウエスト,0
743,3120003020641,新規,0,2021-11-22,2021-11-22,合同会社常盤ホールディングス,,合同会社,大阪府,大阪市浪速区,桜川２丁目６番１７－５０２号,,27,111,5560022,,,,,,,2021-11-22,1,,,,,トキワホールディングス,0
745,3120103004445,新規,0,2021-11-22,2021-11-22,合同会社ミライ,,合同会社,大阪府,堺市北区,新金岡町４丁３番１６－１０１号,,27,146,5918021,,,,,,,2021-11-22,1,,,,,ミライ,0
746,3120901045244,新規,0,2021-11-22,2021-11-22,エアープランツ株式会社,,株式会社,大阪府,吹田市,岸部北２丁目４番２３号,,27,205,5640001,,,,,,,2021-11-22,1,,,,,エアープランツ,0
768,3180001148834,新規,0,2021-11-22,2021-11-22,株式会社ＮＫＡ　ＪＡＰＡＮ,,株式会社,愛知県,弥富市,東末広８丁目４６番,,23,235,4980063,,,,,,,2021-11-22,1,,,,,エヌケーエージャパン,0
771,3180003023218,新規,0,2021-11-22,2021-11-22,合同会社ＧＩＦＴ,,合同会社,愛知県,名古屋市東区,白壁２丁目１１番１３号,,23,102,4610011,,,,,,,2021-11-22,1,,,,,ギフト,0
784,3250001019268,新規,0,2021-11-22,2021-11-22,株式会社オリーブ,,株式会社,山口県,岩国市,山手町４丁目１番１３号,,35,208,7400022,,,,,,,2021-11-22,1,,,,,オリーブ,0
790,3290001095462,新規,0,2021-11-22,2021-11-22,株式会社ＭＡＬＵＮＩ,,株式会社,福岡県,糸島市,潤１丁目１３番１８号,,40,230,8191105,,,,,,,2021-11-22,1,,,,,マルニ,0
791,3290001095470,新規,0,2021-11-22,2021-11-22,株式会社コネクトライ,,株式会社,福岡県,うきは市,吉井町清瀬４９２番地１,,40,225,8391312,,,,,,,2021-11-22,1,,,,,コネクトライ,0
794,3290003011855,新規,0,2021-11-22,2021-11-22,合同会社Ｈｅａｒｔｓ　Ｃｌｅａｎ,,合同会社,福岡県,糟屋郡新宮町,緑ケ浜２丁目２５－５,,40,345,8110119,,,,,,,2021-11-22,1,,,,,ハーツクリーン,0
798,3290803003993,新規,0,2021-11-22,2021-11-22,合同会社しちせい,,合同会社,福岡県,田川郡大任町,大字今任原２４６２番地,,40,608,8240511,,,,,,,2021-11-22,1,,,,,シチセイ,0
799,3300001012713,新規,0,2021-11-22,2021-11-22,株式会社坂本水産,,株式会社,佐賀県,唐津市,呼子町加部島３００９番地３,,41,202,8470305,,,,,,,2021-11-22,1,,,,,サカモトスイサン,0
815,3370001047868,新規,0,2021-11-22,2021-11-22,株式会社ワンイズム,,株式会社,宮城県,仙台市太白区,八木山本町２丁目１３番地の２９,,04,104,9820801,,,,,,,2021-11-22,1,,,,,ワンイズム,0
816,3370003005493,新規,0,2021-11-22,2021-11-22,合同会社Ｌ’ａｍｏｕｒ,,合同会社,宮城県,仙台市青葉区,北根１丁目１３番１－２５１１号,,04,101,9810902,,,,,,,2021-11-22,1,,,,,ラムール,0
822,3390003001895,新規,0,2021-11-22,2021-11-22,合同会社ｍｏｚｕ,,合同会社,山形県,東田川郡庄内町,払田字増穂田６７―６―１０１,,06,428,9997757,,,,,,,2021-11-22,1,,,,,モズ,0
826,3430003013382,新規,0,2021-11-22,2021-11-22,合同会社フォーリング,,合同会社,北海道,北広島市,大曲２０７番地７４,,01,234,0611270,,,,,,,2021-11-22,1,,,,,フォーリング,0
829,3460103001409,新規,0,2021-11-22,2021-11-22,Ｇｅｎｅｓｉｓ合同会社,,合同会社,北海道,帯広市,西十七条北２丁目４５－１,,01,207,0800047,,,,,,,2021-11-22,1,,,,,ジェネシス,0
832,3500001023822,新規,0,2021-11-22,2021-11-22,株式会社ゴッドフィールドジャパン,,株式会社,愛媛県,今治市,阿方甲３２８番地２,,38,202,7940081,,,,,,,2021-11-22,1,,,,,ゴッドフィールドジャパン,0
833,3700150105913,新規,0,2021-11-22,2021-11-22,Ｓｈａｎｇｈａｉ　Ｄａｉｓｈｕ　Ｔｒａｄｉｎｇ　Ｃｏ．，Ｌｔｄ,,外国会社等,,,,,,,,Ｂｕｉｌｄｉｎｇ　２，３，４，５，６，７，１１２－１１８　Ｇａｏｙｉ　Ｒｏａｄ，Ｂａｏｓｈａｎ　Ｄｉｓｔｒｉｃｔ，Ｓｈａｎｇｈａｉ，Ｃｈｉｎａ,,,,,,2021-11-22,1,,,,,シヤンハイダイシウートレーデイングカンパニーリミテツド,0
852,4010403026455,新規,0,2021-11-22,2021-11-22,フィロサ合同会社,,合同会社,東京都,港区,六本木４丁目１番２六本木メイフラワーハウス３０６,,13,103,1060032,,,,,,,2021-11-22,1,,,,,フィロサ,0
853,4010405020423,新規,0,2021-11-22,2021-11-22,特定非営利活動法人海洋環境研究機構,,その他の設立登記法人,東京都,港区,浜松町１丁目８番４号高島ビル２階,,13,103,1050013,,,,,,,2021-11-22,1,,,,,カイヨウカンキョウケンキュウキコウ,0
854,4010405020456,新規,0,2021-11-22,2021-11-22,ジー・ジェイ・レジデンス・シックス特定目的会社,,その他の設立登記法人,東京都,港区,虎ノ門４丁目３番１号城山トラストタワー２７階ＳａｎｎｅＧｒｏｕｐＪａｐａｎ株式会社内,,13,103,1050001,,,,,,,2021-11-22,1,,,,,ジージェイレジデンスシックス,0
857,4010601060280,新規,0,2021-11-22,2021-11-22,株式会社Ｔａｍａｙａ,,株式会社,東京都,江東区,亀戸６丁目２０番８－１０５号第５共立ビル,,13,108,1360071,,,,,,,2021-11-22,1,,,,,タマヤ,0
860,4010701041825,新規,0,2021-11-22,2021-11-22,株式会社プランＭ,,株式会社,東京都,品川区,東品川４丁目１１番３６－２００５号,,13,109,1400002,,,,,,,2021-11-22,1,,,,,プランエム,0
861,4010703006009,新規,0,2021-11-22,2021-11-22,ｋｕｒａｓｈｉ合同会社,,合同会社,東京都,品川区,西大井５丁目１１番５号,,13,109,1400015,,,,,,,2021-11-22,1,,,,,クラシ,0
862,4010705003292,新規,0,2021-11-22,2021-11-22,特定非営利活動法人ピュアスマイルスタジオ,,その他の設立登記法人,東京都,品川区,西五反田７丁目１３番５号ＤＫ五反田４Ｆ,,13,109,1410031,,,,,,,2021-11-22,1,,,,,ピュアスマイルスタジオ,0
874,4011005009303,新規,0,2021-11-22,2021-11-22,一般社団法人モミの木,,その他の設立登記法人,東京都,渋谷区,恵比寿４丁目１９番３号ＢＡＣ・ＨＯＵＳＥ,,13,113,1500013,,,,,,,2021-11-22,1,,,,,モミノキ,0
876,4011101096963,新規,0,2021-11-22,2021-11-22,株式会社クエリマーケティング,,株式会社,東京都,新宿区,西新宿６丁目１５番１号１８１６,,13,104,1600023,,,,,,,2021-11-22,1,,,,,クエリマーケティング,0
877,4011103011193,新規,0,2021-11-22,2021-11-22,合同会社ＢＴＪ,,合同会社,東京都,新宿区,住吉町１番１８号８階,,13,104,1620065,,,,,,,2021-11-22,1,,,,,,0
885,4011601025554,新規,0,2021-11-22,2021-11-22,株式会社楽笑計画,,株式会社,東京都,練馬区,上石神井３丁目６番８号,,13,120,1770044,,,,,,,2021-11-22,1,,,,,ラクショウケイカク,0
900,4020001144022,新規,0,2021-11-22,2021-11-22,セイエイアン株式会社,,株式会社,神奈川県,横浜市南区,大岡２丁目１５番２号,,14,105,2320061,,,,,,,2021-11-22,1,,,,,セイエイアン,0
901,4020001144039,新規,0,2021-11-22,2021-11-22,株式会社ブレストホールディングス,,株式会社,神奈川県,横浜市中区,北仲通５丁目５７番地２－４２０９号室,,14,104,2310003,,,,,,,2021-11-22,1,,,,,ブレストホールディングス,0
912,4021001074556,新規,0,2021-11-22,2021-11-22,株式会社ファイブスピリッツ,,株式会社,神奈川県,高座郡寒川町,一之宮３丁目３６番８号,,14,321,2530111,,,,,,,2021-11-22,1,,,,,ファイブスピリッツ,0
913,4021001074564,新規,0,2021-11-22,2021-11-22,ＥＣＣ監理株式会社,,株式会社,神奈川県,座間市,相模が丘１丁目３３番２５号,,14,216,2520001,,,,,,,2021-11-22,1,,,,,イーシーシーカンリ,0
922,4030001145473,新規,0,2021-11-22,2021-11-22,ナンキ工業株式会社,,株式会社,埼玉県,さいたま市岩槻区,大字横根１３１３番地,,11,110,3390036,,,,,,,2021-11-22,1,,,,,ナンキコウギョウ,0
925,4030003018355,新規,0,2021-11-22,2021-11-22,ケイワイプロパティ合同会社,,合同会社,埼玉県,戸田市,本町４丁目４番６号ＴＢＣ,,11,224,3350023,,,,,,,2021-11-22,1,,,,,ケイワイプロパティ,0
933,4040001121077,新規,0,2021-11-22,2021-11-22,ＢＴＨ株式会社,,株式会社,千葉県,千葉市花見川区,幕張町３丁目１１１４番地４１,,12,102,2620032,,,,,,,2021-11-22,1,,,,,ビーティーエイチ,0
934,4040001121110,新規,0,2021-11-22,2021-11-22,株式会社Ａｐｉｔｔａ,,株式会社,千葉県,浦安市,今川２丁目５番２８号,,12,227,2790022,,,,,,,2021-11-22,1,,,,,アピッタ,0
948,4050005012973,新規,0,2021-11-22,2021-11-22,一般社団法人ボンズ茨城,,その他の設立登記法人,茨城県,つくば市,東２丁目２１番地１８パルシャス東２０４,,08,220,3050046,,,,,,,2021-11-22,1,,,,,ボンズイバラキ,0
953,4080001024598,新規,0,2021-11-22,2021-11-22,株式会社ニュートラル,,株式会社,静岡県,藤枝市,中ノ合２６１番地の３,,22,214,4260213,,,,,,,2021-11-22,1,,,,,ニュートラル,0
955,4080103002460,新規,0,2021-11-22,2021-11-22,合同会社だいだい,,合同会社,静岡県,駿東郡長泉町,下土狩４６２番地の１,,22,342,4110943,,,,,,,2021-11-22,1,,,,,ダイダイ,0
957,4100003006294,新規,0,2021-11-22,2021-11-22,農業副業サポートマルチプライ合同会社,,合同会社,長野県,下伊那郡豊丘村,大字河野３４２８,,20,416,3993201,,,,,,,2021-11-22,1,,,,,ノウギョウフクギョウサポートマルチプライ,0
958,4110001036210,新規,0,2021-11-22,2021-11-22,株式会社Ｌｉｖｅサポート,,株式会社,新潟県,上越市,藤野新田１３１８番地,,15,222,9430171,,,,,,,2021-11-22,1,,,,,ライブサポート,0
967,4120001242022,新規,0,2021-11-22,2021-11-22,株式会社前田水産,,株式会社,大阪府,大阪市大正区,南恩加島３丁目１２番２５号,,27,108,5510021,,,,,,,2021-11-22,1,,,,,マエダスイサン,0
968,4120001242047,新規,0,2021-11-22,2021-11-22,株式会社等白,,株式会社,大阪府,大阪市浪速区,幸町３丁目３番７－４０２号,,27,111,5560021,,,,,,,2021-11-22,1,,,,,トウハク,0
969,4120001242055,新規,0,2021-11-22,2021-11-22,株式会社櫻花,,株式会社,大阪府,大阪市北区,中崎西２丁目６－３パステルワンビル４０１,,27,127,5300015,,,,,,,2021-11-22,1,,,,,オウカ,0
971,4120003020640,新規,0,2021-11-22,2021-11-22,合同会社Ｒｅｖｅ,,合同会社,大阪府,大阪市北区,梅田１丁目２番２－２００号大阪駅前第２ビル２階３の１の２,,27,127,5300001,,,,,,,2021-11-22,1,,,,,レーヴ,0
974,4120101025491,新規,0,2021-11-22,2021-11-22,巴鉄工株式会社,,株式会社,大阪府,松原市,阿保３丁目１５番３１号,,27,217,5800043,,,,,,,2021-11-22,1,,,,,トモエテッコウ,0
977,4120101064688,新規,0,2021-11-22,2021-11-22,株式会社Ａｉｒ　Ｄｒｏｐ,,株式会社,大阪府,河内長野市,自由ケ丘１番２－１００７号,,27,216,5860096,,,,,,,2021-11-22,1,,,,,エアードロップ,0
992,4140001123930,新規,0,2021-11-22,2021-11-22,株式会社ＳＹＣＯ,,株式会社,兵庫県,神戸市中央区,磯上通８丁目１番２９号カサベラビルＣ＆Ｍ４０３号室,,28,110,6510086,,,,,,,2021-11-22,1,,,,,サイコウ,0
993,4140001123939,新規,0,2021-11-22,2021-11-22,株式会社Ｍｏｒｅ,,株式会社,兵庫県,西宮市,林田町１番５－１１０号,,28,204,6638014,,,,,,,2021-11-22,1,,,,,モア,0
996,4140003017008,新規,0,2021-11-22,2021-11-22,合同会社アサノ,,合同会社,兵庫県,姫路市,西中島４０８番１号,,28,201,6700805,,,,,,,2021-11-22,1,,,,,アサノ,0
1002,4160003002429,新規,0,2021-11-22,2021-11-22,合同会社宮川木工所,,合同会社,滋賀県,米原市,大清水４０１番地１,,25,214,5210324,,,,,,,2021-11-22,1,,,,,ミヤガワモッコウショ,0
1011,4190003003829,新規,0,2021-11-22,2021-11-22,合同会社服部,,合同会社,三重県,四日市市,広永町１１３７番地,,24,202,5128061,,,,,,,2021-11-22,1,,,,,ハットリ,0
1016,4220001024534,新規,0,2021-11-22,2021-11-22,株式会社Ｎｏｒｍ　ｉｎｎｏｖａｔｉｏｎ,,株式会社,石川県,小松市,長崎町４丁目１２３‐１,,17,203,9230004,,,,,,,2021-11-22,1,,,,,ノームイノベーション,0
1018,4230003001761,新規,0,2021-11-22,2021-11-22,合同会社絆遥,,合同会社,富山県,南砺市,野尻７８６番地１,,16,210,9391502,,,,,,,2021-11-22,1,,,,,キヅナ,0
1020,4240001058951,新規,0,2021-11-22,2021-11-22,シンセイファーム株式会社,,株式会社,広島県,安芸郡海田町,日の出町９番３号,,34,304,7360035,,,,,,,2021-11-22,1,,,,,シンセイファーム,0
1033,4290001095486,新規,0,2021-11-22,2021-11-22,ジオ・ナビオＨＤ株式会社,,株式会社,福岡県,福岡市博多区,半道橋１丁目１２番１１号,,40,132,8120897,,,,,,,2021-11-22,1,,,,,ジオナビオホールディングス,0
1034,4290001095494,新規,0,2021-11-22,2021-11-22,ＪＣＹ令和国際株式会社,,株式会社,福岡県,糟屋郡新宮町,下府３丁目１－２７コスモビル２－Ｂ,,40,345,8110112,,,,,,,2021-11-22,1,,,,,ジェーシーワイレイワコクサイ,0
1035,4290001095511,新規,0,2021-11-22,2021-11-22,株式会社ｉサポート,,株式会社,福岡県,福岡市博多区,千代４丁目１１番２９号,,40,132,8120044,,,,,,,2021-11-22,1,,,,,アイサポート,0
1040,4290801028018,新規,0,2021-11-22,2021-11-22,株式会社国スペースプロット,,株式会社,福岡県,直方市,大字感田２２９０番地６,,40,204,8220001,,,,,,,2021-11-22,1,,,,,クニスペースプロット,0
1052,4340001024282,新規,0,2021-11-22,2021-11-22,株式会社ＴＯＳ,,株式会社,鹿児島県,奄美市,名瀬久里町９番６号,,46,222,8940022,,,,,,,2021-11-22,1,,,,,ティーオーエス,0
1057,4360003011590,新規,0,2021-11-22,2021-11-22,合同会社Ｌ　Ｈｏｍｅ,,合同会社,沖縄県,沖縄市,登川１丁目２５番５号,,47,211,9042142,,,,,,,2021-11-22,1,,,,,エルホーム,0
1060,4370001047859,新規,0,2021-11-22,2021-11-22,株式会社高良,00124929,株式会社,宮城県,仙台市青葉区,愛子東５丁目２１－３０,,04,101,9893127,,,,,,,2021-11-22,1,,,,,タカリョウ,0
1061,4370001047867,新規,0,2021-11-22,2021-11-22,株式会社ＥＡＶＡＬ,,株式会社,宮城県,仙台市青葉区,小田原６丁目１番２５,,04,101,9800003,,,,,,,2021-11-22,1,,,,,イーバル,0
1062,4370003005492,新規,0,2021-11-22,2021-11-22,合同会社ＴＴＡ,,合同会社,宮城県,仙台市宮城野区,福室５丁目１２番５号アネックスＦ２０２,,04,102,9830005,,,,,,,2021-11-22,1,,,,,ティーティーエー,0
1068,4380003005054,新規,0,2021-11-22,2021-11-22,ＲＳ合同会社,,合同会社,福島県,いわき市,若葉台２丁目２７番地の１１,,07,204,9718138,,,,,,,2021-11-22,1,,,,,アールエス,0
1079,4430003013381,新規,0,2021-11-22,2021-11-22,ジェービーアニマルカンパニー合同会社,,合同会社,北海道,札幌市北区,新琴似十二条５丁目１番２４号,,01,102,0010912,,,,,,,2021-11-22,1,,,,,ジェービーアニマルカンパニー,0
1083,4700150105912,新規,0,2021-11-22,2021-11-22,香港移遠通信技術有限公司,,外国会社等,東京都,千代田区,丸の内１丁目１１番１号,,13,101,1000005,中華人民共和国香港特別行政区湾仔盧押道１８號海徳中心１６樓Ｄ座,00122510,,,,,2021-11-22,1,,,,,ホンコンイエンツウシンギジユツユウゲンコウシ,0
1084,4700150105920,新規,0,2021-11-22,2021-11-22,中汽研汽車検験中心（天津）有限公司日本代表処,,外国会社等,東京都,文京区,湯島３丁目１３－８湯島不二ビル４０１室,,13,105,1130034,中華人民共和国天津市東麗区先鋒東路６８号主楼５２６室,00124933,,,,,2021-11-22,1,,,,,チユウキケンキシヤケンケンチユウシンテンシンユウゲンコウシニホンダイヒヨウシヨ,0
1099,5010401163902,新規,0,2021-11-22,2021-11-22,株式会社スターアップ,,株式会社,東京都,港区,南麻布４丁目５番６３号,,13,103,1060047,,,,,,,2021-11-22,1,,,,,スターアップ,0
1100,5010401163992,新規,0,2021-11-22,2021-11-22,ゴールドリンク株式会社,,株式会社,東京都,港区,新橋４丁目２１番３号新橋東急ビル２階２０８,,13,103,1050004,,,,,,,2021-11-22,1,,,,,ゴールドリンク,0
1102,5010503006430,新規,0,2021-11-22,2021-11-22,合同会社ユナイテッド,,合同会社,東京都,台東区,上野７丁目７番７号早稲田ビルヂング８階,,13,106,1100005,,,,,,,2021-11-22,1,,,,,ユナイテッド,0
1107,5010603009259,新規,0,2021-11-22,2021-11-22,ＧｌｏｂａｌＳＩＧＨＴ合同会社,,合同会社,東京都,江東区,北砂２丁目１８－２東京スイートレジデンス１５０５号,,13,108,1360073,,,,,,,2021-11-22,1,,,,,グローバルサイト,0
1109,5010701041816,新規,0,2021-11-22,2021-11-22,株式会社ＤＹＭマーケティング,,株式会社,東京都,品川区,西五反田２丁目２８番５号,,13,109,1410031,,,,,,,2021-11-22,1,,,,,ディーワイエムマーケティング,0
1114,5010901049857,新規,0,2021-11-22,2021-11-22,株式会社Ｂｉｔ１９２,,株式会社,東京都,世田谷区,代田３丁目５３－１４ロワール代田１０４,,13,112,1550033,,,,,,,2021-11-22,1,,,,,ビットイチキュウニ,0
1123,5011103011184,新規,0,2021-11-22,2021-11-22,Ａｔｔｒａｃｔｉｖｅ　Ｗｉｎｇ合同会社,,合同会社,東京都,新宿区,高田馬場１丁目６番１５号荒井ビル６Ｆ,,13,104,1690075,,,,,,,2021-11-22,1,,,,,アトラクティブウィング,0
1130,5011601025553,新規,0,2021-11-22,2021-11-22,ナレッジサービスパートナーズ株式会社,,株式会社,東京都,練馬区,春日町５丁目８番１４号,,13,120,1790074,,,,,,,2021-11-22,1,,,,,ナレッジサービスパートナーズ,0
1137,5013301048306,新規,0,2021-11-22,2021-11-22,株式会社ＲｅｎｅＲ,,株式会社,東京都,豊島区,西池袋１丁目４番１０号,,13,116,1710021,,,,,,,2021-11-22,1,,,,,リネル,0
1145,5020001144021,新規,0,2021-11-22,2021-11-22,トミナガツ株式会社,,株式会社,神奈川県,横浜市都筑区,北山田１丁目１０－５,,14,118,2240021,,,,,,,2021-11-22,1,,,,,トミナガツ,0
1146,5020001144054,新規,0,2021-11-22,2021-11-22,株式会社みなとホールディングス,,株式会社,神奈川県,横浜市西区,みなとみらい４丁目１０番１－Ｅ２００２号,,14,103,2200012,,,,,,,2021-11-22,1,,,,,ミナトホールディングス,0
1150,5020003020823,新規,0,2021-11-22,2021-11-22,合同会社アドスター,,合同会社,神奈川県,横浜市西区,北幸１丁目１－８エキニア横浜５階ＨａｍａＰｏｒｔ内,,14,103,2200004,,,,,,,2021-11-22,1,,,,,アドスター,0
1156,5021001074555,新規,0,2021-11-22,2021-11-22,株式会社安部建設,,株式会社,神奈川県,横須賀市,佐原３丁目２２番６号,,14,201,2390835,,,,,,,2021-11-22,1,,,,,アベケンセツ,0
1157,5021001074563,新規,0,2021-11-22,2021-11-22,株式会社ラ・ソレーラ,,株式会社,神奈川県,相模原市南区,相南４丁目２４番４３－３０４号,,14,153,2520312,,,,,,,2021-11-22,1,,,,,ラソレーラ,0
1161,5021003011110,新規,0,2021-11-22,2021-11-22,ＫＡＳＥＧＵ合同会社,,合同会社,神奈川県,藤沢市,片瀬海岸２丁目１４番３－７０４号,,14,205,2510035,,,,,,,2021-11-22,1,,,,,カセグ,0
1170,5030001145456,新規,0,2021-11-22,2021-11-22,エスケンプラン株式会社,,株式会社,埼玉県,本庄市,東台３丁目３番３１号,,11,211,3670021,,,,,,,2021-11-22,1,,,,,エスケンプラン,0
1171,5030001145472,新規,0,2021-11-22,2021-11-22,株式会社ＭＳＴ,,株式会社,埼玉県,川口市,大字久左衛門新田５４,,11,203,3330804,,,,,,,2021-11-22,1,,,,,エムエスティー,0
1177,5030003018321,新規,0,2021-11-22,2021-11-22,エイトワールドワイド合同会社,,合同会社,埼玉県,さいたま市南区,内谷７丁目７番５号,,11,108,3360034,,,,,,,2021-11-22,1,,,,,エイトワールドワイド,0
1178,5030003018362,新規,0,2021-11-22,2021-11-22,合同会社盛浩商事,,合同会社,埼玉県,上尾市,大字大谷本郷７０４番地１,,11,219,3620044,,,,,,,2021-11-22,1,,,,,セイコウショウジ,0
1179,5030003018370,新規,0,2021-11-22,2021-11-22,明安合同会社,,合同会社,埼玉県,蕨市,中央１丁目１２番２号２階１号室,,11,223,3350004,,,,,,,2021-11-22,1,,,,,ミンアン,0
1189,5040001121010,新規,0,2021-11-22,2021-11-22,株式会社伊勢彦,,株式会社,千葉県,市川市,本行徳１０番８号,,12,203,2720103,,,,,,,2021-11-22,1,,,,,イセヒコ,0
1190,5040001121084,新規,0,2021-11-22,2021-11-22,株式会社アルファ,,株式会社,千葉県,市川市,北方２丁目１４番１９－１０２号,,12,203,2720815,,,,,,,2021-11-22,1,,,,,アルファ,0
1191,5040001121118,新規,0,2021-11-22,2021-11-22,オージ株式会社,,株式会社,千葉県,千葉市花見川区,花見川６番１５棟３０２号,,12,102,2620046,,,,,,,2021-11-22,1,,,,,オージ,0
1219,5120001241964,新規,0,2021-11-22,2021-11-22,私たちの世界株式会社,,株式会社,大阪府,大阪市生野区,巽北１丁目１番１号３Ｆ－Ｄ,,27,116,5440004,,,,,,,2021-11-22,1,,,,,ワタシタチノセカイ,0
1220,5120001242021,新規,0,2021-11-22,2021-11-22,株式会社ヨガッシュ,,株式会社,大阪府,大阪市浪速区,恵美須東１丁目５番１５号６０１,,27,111,5560002,,,,,,,2021-11-22,1,,,,,ヨガッシュ,0
1221,5120001242046,新規,0,2021-11-22,2021-11-22,株式会社Ｌａｎｄｍａｒｋ,,株式会社,大阪府,大阪市中央区,北久宝寺町１丁目２番１号オーセンティック東船場５０３号,,27,128,5410057,,,,,,,2021-11-22,1,,,,,ランドマーク,0
1230,5120101064687,新規,0,2021-11-22,2021-11-22,加藤住設株式会社,,株式会社,大阪府,泉大津市,西港町８番１０－５０５号,,27,206,5950052,,,,,,,2021-11-22,1,,,,,カトウジュウセツ,0
1234,5120105009481,新規,0,2021-11-22,2021-11-22,一般社団法人ファン・パーティー,,その他の設立登記法人,大阪府,堺市東区,引野町２丁３８番地１２,,27,143,5998104,,,,,,,2021-11-22,1,,,,,ファンパーティー,0
1235,5120901045242,新規,0,2021-11-22,2021-11-22,株式会社Ｆｒｅｅ　Ｓｔｙｌｅ,,株式会社,大阪府,豊中市,原田中１丁目１１番２７号,,27,203,5610807,,,,,,,2021-11-22,1,,,,,フリースタイル,0
1237,5122005003589,新規,0,2021-11-22,2021-11-22,一般社団法人Ｌｉｅｎ　Ｆｏｒｔ,,その他の設立登記法人,大阪府,八尾市,南太子堂２丁目４番３３号,,27,212,5810056,,,,,,,2021-11-22,1,,,,,リアンフォール,0
1240,5130003007594,新規,0,2021-11-22,2021-11-22,ナノ合同会社,,合同会社,京都府,京都市左京区,一乗寺染殿町２６番地フィルサイド２０１,,26,103,6068174,,,,,,,2021-11-22,1,,,,,ナノ,0
1241,5130005016321,新規,0,2021-11-22,2021-11-22,行政書士法人灯台,,その他の設立登記法人,京都府,京都市左京区,下鴨東本町２６番地３、７Ｆ,,26,103,6060863,,,,,,,2021-11-22,1,,,,,トウダイ,0
1249,5140001123938,新規,0,2021-11-22,2021-11-22,株式会社カープジャパン,,株式会社,兵庫県,神戸市北区,大沢町日西原字石佛谷２７４１番地,,28,109,6511525,,,,,,,2021-11-22,1,,,,,カープジャパン,0
1250,5140001123946,新規,0,2021-11-22,2021-11-22,株式会社桜梨想,,株式会社,兵庫県,明石市,大久保町大久保町３９２番地の１,,28,203,6740067,,,,,,,2021-11-22,1,,,,,オウリンソウ,0
1261,5180003023224,新規,0,2021-11-22,2021-11-22,ｅｎｖｉｓｉｏｎ２合同会社,,合同会社,愛知県,名古屋市中区,丸の内３丁目２３番２８号,,23,106,4600002,,,,,,,2021-11-22,1,,,,,エンヴィジョンセカンド,0
1263,5190001028876,新規,0,2021-11-22,2021-11-22,株式会社ＷＡＴＡＲＵ,,株式会社,三重県,松阪市,嬉野平生町７２１番地１,,24,204,5152304,,,,,,,2021-11-22,1,,,,,ワタル,0
1264,5190003003828,新規,0,2021-11-22,2021-11-22,合同会社三洋,,合同会社,三重県,四日市市,広永町１１３７番地,,24,202,5128061,,,,,,,2021-11-22,1,,,,,サンヨウ,0
1276,5240001058959,新規,0,2021-11-22,2021-11-22,株式会社ニューワークス,,株式会社,広島県,廿日市市,丸石１丁目１１番２２号,,34,213,7390452,,,,,,,2021-11-22,1,,,,,ニューワークス,0
1293,5290001095477,新規,0,2021-11-22,2021-11-22,株式会社プライド・ワン,,株式会社,福岡県,飯塚市,鶴三緒１１３２番１１,,40,205,8200014,,,,,,,2021-11-22,1,,,,,プライドワン,0
1294,5290001095510,新規,0,2021-11-22,2021-11-22,井上防水工業株式会社,,株式会社,福岡県,大野城市,南ケ丘６丁目１７番１８号,,40,219,8160964,,,,,,,2021-11-22,1,,,,,イノウエボウスイコウギョウ,0
1296,5290003011845,新規,0,2021-11-22,2021-11-22,合同会社ＴＳＵＮＡＧＵ,,合同会社,福岡県,糟屋郡宇美町,神武原１丁目６番１７号,,40,341,8112129,,,,,,,2021-11-22,1,,,,,ツナグ,0
1299,5290801028017,新規,0,2021-11-22,2021-11-22,ＤＥＩＮＣＯ設備工業株式会社,,株式会社,福岡県,北九州市小倉北区,砂津２丁目５番１７－２０１号,,40,106,8020014,,,,,,,2021-11-22,1,,,,,デインコセツビコウギョウ,0
1310,5340001024281,新規,0,2021-11-22,2021-11-22,株式会社コーラル中央,,株式会社,鹿児島県,鹿児島市,中央町２９番地の９,,46,201,8900053,,,,,,,2021-11-22,1,,,,,コーラルチュウオウ,0
1311,5350003003976,新規,0,2021-11-22,2021-11-22,合同会社愛逢,,合同会社,宮崎県,児湯郡新富町,大字新田６１８,,45,402,8891406,,,,,,,2021-11-22,1,,,,,アイアイ,0
1316,5370001047866,新規,0,2021-11-22,2021-11-22,株式会社Ｉサポート,,株式会社,宮城県,仙台市青葉区,小松島１丁目３－１７－１０２,,04,101,9810905,,,,,,,2021-11-22,1,,,,,アイサポート,0
1317,5370003005491,新規,0,2021-11-22,2021-11-22,合同会社折笠工業,,合同会社,宮城県,多賀城市,笠神５丁目１４番１－１号,,04,209,9850831,,,,,,,2021-11-22,1,,,,,オリカサコウギョウ,0
1329,5430001085422,新規,0,2021-11-22,2021-11-22,株式会社ＣＬＴ,,株式会社,北海道,札幌市中央区,北四条東４丁目５番６５,,01,101,0600034,,,,,,,2021-11-22,1,,,,,シーエルティ,0
1337,5700150105845,新規,0,2021-11-22,2021-11-18,産直ネットワークいばらき,,その他,茨城県,東茨城郡茨城町,大字上飯沼６２６,,08,302,3113153,,,,,,,2021-11-18,1,,,,,サンチヨクネツトワークイバラキ,0
1344,6010001222719,新規,0,2021-11-22,2021-11-22,株式会社ＣＡＲＡＶＡＮ　Ｊａｐａｎ,,株式会社,東京都,千代田区,麹町３丁目３番地４,,13,101,1020083,,,,,,,2021-11-22,1,,,,,キャラバンジャパン,0
1345,6010001222743,新規,0,2021-11-22,2021-11-22,株式会社センプレコーポレーション,,株式会社,東京都,文京区,本郷５丁目３２番１８号,,13,105,1130033,,,,,,,2021-11-22,1,,,,,センプレコーポレーション,0
1346,6010003036324,新規,0,2021-11-22,2021-11-22,六本木リアルティ・ワン合同会社,,合同会社,東京都,中央区,日本橋１丁目４番１号,,13,102,1030027,,,,,,,2021-11-22,1,,,,,ロッポンギリアルティワン,0
1347,6010101014966,新規,0,2021-11-22,2021-11-22,株式会社たまべる,,株式会社,東京都,八王子市,東浅川町２５０番地,,13,201,1930834,,,,,,,2021-11-22,1,,,,,タマベル,0
1354,6010401163901,新規,0,2021-11-22,2021-11-22,ＦＧＡＣ株式会社,,株式会社,東京都,港区,浜松町２丁目２－１５浜松町ダイヤビル２Ｆ,,13,103,1050013,,,,,,,2021-11-22,1,,,,,フガク,0
1358,6010403026544,新規,0,2021-11-22,2021-11-22,合同会社Ａｖｅｃ,,合同会社,東京都,港区,新橋２丁目１０－７,,13,103,1050004,,,,,,,2021-11-22,1,,,,,アベック,0
1359,6010403026593,新規,0,2021-11-22,2021-11-22,マーズインフラファンド合同会社,,合同会社,東京都,港区,元赤坂１丁目１番７号,,13,103,1070051,,,,,,,2021-11-22,1,,,,,マーズインフラファンド,0
1360,6010405020454,新規,0,2021-11-22,2021-11-22,ナイツブリッジ特定目的会社,,その他の設立登記法人,東京都,港区,六本木１丁目６番１号泉ガーデンタワー,,13,103,1060032,,,,,,,2021-11-22,1,,,,,ナイツブリッジ,0
1362,6010601060262,新規,0,2021-11-22,2021-11-22,株式会社Ｏｒａｎｇｅ　Ｔａｂｂｙ,,株式会社,東京都,江東区,東陽３丁目２７番１７号長谷川ビル５階,,13,108,1350016,,,,,,,2021-11-22,1,,,,,オレンジタビー,0
1366,6010901049831,新規,0,2021-11-22,2021-11-22,ショウヒ株式会社,,株式会社,東京都,世田谷区,世田谷１丁目４１番２号,,13,112,1540017,,,,,,,2021-11-22,1,,,,,ショウヒ,0
1371,6011001144052,新規,0,2021-11-22,2021-11-22,株式会社Ｌｉｂｒｅ,,株式会社,東京都,渋谷区,恵比寿西１丁目１０番３号トラストリンク恵比寿ビル７階,,13,113,1500021,,,,,,,2021-11-22,1,,,,,リブレ,0
1373,6011003013767,新規,0,2021-11-22,2021-11-22,合同会社ヒンナヒンナ,,合同会社,東京都,目黒区,自由が丘１丁目２７番２号自由が丘ひかり街１階,,13,110,1520035,,,,,,,2021-11-22,1,,,,,ヒンナヒンナ,0
1387,6011801039996,新規,0,2021-11-22,2021-11-22,株式会社ロケーションセキュリティ,,株式会社,東京都,葛飾区,西亀有２丁目５５－１ソレイユ綾瀬４０４号室,,13,122,1240002,,,,,,,2021-11-22,1,,,,,ロケーションセキュリティ,0
1390,6012301012774,新規,0,2021-11-22,2021-11-22,株式会社Ｈｅａｒｔ　Ｓｅｅｄ,,株式会社,東京都,町田市,中町３丁目２番地１２Ｋｉｎｇ・Ｄａｄ２０５号,,13,209,1940021,,,,,,,2021-11-22,1,,,,,ハートシード,0
1395,6013303005915,新規,0,2021-11-22,2021-11-22,トラスト合同会社,,合同会社,東京都,豊島区,池袋４丁目３番６号オークヒルズ７０２号,,13,116,1710014,,,,,,,2021-11-22,1,,,,,トラスト,0
1400,6020001144029,新規,0,2021-11-22,2021-11-22,株式会社ジェスメック,,株式会社,神奈川県,横浜市瀬谷区,卸本町９２７９番地８６,,14,114,2460001,,,,,,,2021-11-22,1,,,,,ジェスメック,0
1401,6020001144037,新規,0,2021-11-22,2021-11-22,株式会社ＹＡＫＵＢＯ,,株式会社,神奈川県,川崎市宮前区,有馬３丁目２０番１号,,14,136,2160003,,,,,,,2021-11-22,1,,,,,ヤクボ,0
1404,6020003020863,新規,0,2021-11-22,2021-11-22,合同会社笑優,,合同会社,神奈川県,川崎市麻生区,栗木台５丁目３番１７号,,14,137,2150032,,,,,,,2021-11-22,1,,,,,スマイユ,0
1410,6021001074554,新規,0,2021-11-22,2021-11-22,株式会社相模塗装,,株式会社,神奈川県,海老名市,国分北３丁目３１番３５号,,14,215,2430406,,,,,,,2021-11-22,1,,,,,サガミトソウ,0
1417,6030001145455,新規,0,2021-11-22,2021-11-22,株式会社櫻井興業,,株式会社,埼玉県,川越市,大字並木５３４番地２,,11,201,3500023,,,,,,,2021-11-22,1,,,,,サクライコウギョウ,0
1423,6030003018361,新規,0,2021-11-22,2021-11-22,合同会社巴,,合同会社,埼玉県,さいたま市見沼区,大字蓮沼１４００番地,,11,104,3370015,,,,,,,2021-11-22,1,,,,,トモエ,0
1425,6030005020638,新規,0,2021-11-22,2021-11-22,特定非営利活動法人アイサイトさいたま,,その他の設立登記法人,埼玉県,さいたま市浦和区,上木崎１丁目９番１５号グランデュオ南街区５０７号室,,11,107,3300071,,,,,,,2021-11-22,1,,,,,アイサイトサイタマ,0
1428,6040001120985,新規,0,2021-11-22,2021-11-22,友和建設株式会社,,株式会社,千葉県,印西市,木下東２丁目１３－１,,12,231,2701323,,,,,,,2021-11-22,1,,,,,ユウワケンセツ,0
1431,6040003018749,新規,0,2021-11-22,2021-11-22,合同会社Ｉｓｈｉｒｙｕｕ,,合同会社,千葉県,千葉市中央区,長洲１丁目１５－２－１０２号,,12,101,2600854,,,,,,,2021-11-22,1,,,,,イシリュウ,0
1432,6040003018971,新規,0,2021-11-22,2021-11-22,合同会社ジザイ,,合同会社,千葉県,市川市,広尾１丁目１２番８－７０４号（レクセルプラッツァ南行徳）,,12,203,2720146,,,,,,,2021-11-22,1,,,,,ジザイ,0
1433,6040005021429,新規,0,2021-11-22,2021-11-22,協同組合インターサクセス,,その他の設立登記法人,千葉県,船橋市,市場３丁目１７番１号京葉住設ビル４階,,12,204,2730001,,,,,,,2021-11-22,1,,,,,インターサクセス,0
1441,6060001034300,新規,0,2021-11-22,2021-11-22,エコエネ開発株式会社,,株式会社,栃木県,佐野市,馬門町１９１７番地７,,09,204,3270824,,,,,,,2021-11-22,1,,,,,エコエネカイハツ,0
1446,6080001024596,新規,0,2021-11-22,2021-11-22,間宮昭商店株式会社,,株式会社,静岡県,静岡市駿河区,中田本町３８番３６号,,22,102,4228043,,,,,,,2021-11-22,1,,,,,マミヤアキラショウテン,0
1457,6120001241955,新規,0,2021-11-22,2021-11-22,定瀛株式会社,,株式会社,大阪府,大阪市城東区,中浜１丁目１７－１４ルネッサンスシャレード７Ｇ,,27,118,5360024,,,,,,,2021-11-22,1,,,,,テイエイ,0
1458,6120001242020,新規,0,2021-11-22,2021-11-22,株式会社Ｍａｉｓｏｎ,,株式会社,大阪府,大阪市天王寺区,寺田町２丁目７番２０号,,27,109,5430045,,,,,,,2021-11-22,1,,,,,メゾン,0
1459,6120001242037,新規,0,2021-11-22,2021-11-22,株式会社ディグリット,,株式会社,大阪府,大阪市中央区,南船場１丁目１６番２３号,,27,128,5420081,,,,,,,2021-11-22,1,,,,,ディグリット,0
1460,6120001242045,新規,0,2021-11-22,2021-11-22,株式会社賢英,,株式会社,大阪府,枚方市,池之宮４丁目１番３５号,,27,210,5730005,,,,,,,2021-11-22,1,,,,,ケンエイ,0
1472,6120101064686,新規,0,2021-11-22,2021-11-22,株式会社ルークス,,株式会社,大阪府,貝塚市,小瀬５３０番地６,,27,208,5970021,,,,,,,2021-11-22,1,,,,,ルークス,0
1476,6120901045241,新規,0,2021-11-22,2021-11-22,アオスカイファーム株式会社,,株式会社,大阪府,箕面市,粟生間谷東７丁目１７番１７号,,27,220,5620022,,,,,,,2021-11-22,1,,,,,アオスカイファーム,0
1479,6122003002220,新規,0,2021-11-22,2021-11-22,ろまん亭合同会社,,合同会社,大阪府,東大阪市,日下町４丁目１番４２－６０５号,,27,227,5798003,,,,,,,2021-11-22,1,,,,,ロマンテイ,0
1484,6130001070585,新規,0,2021-11-22,2021-11-22,株式会社アーテクトミー,,株式会社,京都府,京都市左京区,松ケ崎六ノ坪町９番地１５,,26,103,6060915,,,,,,,2021-11-22,1,,,,,アーテクトミー,0
1494,6140003017006,新規,0,2021-11-22,2021-11-22,合同会社ＰＥＣＯＣＨＩＩ,,合同会社,兵庫県,神戸市長田区,鹿松町１丁目５－２７朝日プラザヴィスタ北神戸６０４号室,,28,106,6530877,,,,,,,2021-11-22,1,,,,,ペコチー,0
1508,6180005019509,新規,0,2021-11-22,2021-11-22,正系寺,,その他の設立登記法人,愛知県,小牧市,小木４丁目１４７番地１,,23,219,4850058,,,,,,,2021-11-22,1,,,,,ショウケイジ,0
1510,6190001028875,新規,0,2021-11-22,2021-11-22,株式会社秀栄,,株式会社,三重県,伊勢市,小俣町元町１３９９番地,,24,203,5190503,,,,,,,2021-11-22,1,,,,,シュウエイ,0
1511,6190003003827,新規,0,2021-11-22,2021-11-22,合同会社ＭＴＭ,,合同会社,三重県,四日市市,広永町１１３７番地,,24,202,5128061,,,,,,,2021-11-22,1,,,,,エムティーエム,0
1516,6200001039433,新規,0,2021-11-22,2021-11-22,株式会社タニマチ,,株式会社,岐阜県,多治見市,虎渓山町５丁目６０番地の１５,,21,204,5070014,,,,,,,2021-11-22,1,,,,,タニマチ,0
1519,6200005013277,新規,0,2021-11-22,2021-11-22,一般社団法人Ｊｉｍｍｙスポーツクラブ,,その他の設立登記法人,岐阜県,加茂郡富加町,高畑２９１番地,,21,502,5013304,,,,,,,2021-11-22,1,,,,,ジミースポーツクラブ,0
1524,6220001024540,新規,0,2021-11-22,2021-11-22,インセプション株式会社,,株式会社,石川県,金沢市,大豆田本町甲４３番地,,17,201,9200047,,,,,,,2021-11-22,1,,,,,インセプション,0
1533,6250001019273,新規,0,2021-11-22,2021-11-22,株式会社山陽匠建,,株式会社,山口県,山口市,大内矢田南５丁目５番１号,,35,203,7530222,,,,,,,2021-11-22,1,,,,,サンヨウショウケン,0
1536,6270001008398,新規,0,2021-11-22,2021-11-22,株式会社ＢＥＡＭ・ＳＰＡＣＥ,,株式会社,鳥取県,米子市,両三柳５０７７番地,,31,202,6830853,,,,,,,2021-11-22,1,,,,,ビームスペース,0
1540,6290003011860,新規,0,2021-11-22,2021-11-22,合同会社ＳＫＮＫ,,合同会社,福岡県,小郡市,三国が丘３丁目１９番地,,40,216,8380103,,,,,,,2021-11-22,1,,,,,エスケーエヌケー,0
1545,6300005007046,新規,0,2021-11-22,2021-11-22,医療法人たけうち小児科,,その他の設立登記法人,佐賀県,神埼市,神埼町本堀２７０７－２,,41,210,8420003,,,,,,,2021-11-22,1,,,,,タケウチショウニカ,0
1550,6340001024280,新規,0,2021-11-22,2021-11-22,株式会社キーケース,,株式会社,鹿児島県,鹿児島市,真砂町３３－７,,46,201,8900066,,,,,,,2021-11-22,1,,,,,,0
1553,6350003003975,新規,0,2021-11-22,2021-11-22,合同会社クレイン,,合同会社,宮崎県,宮崎市,鶴島３丁目１５４番地１,,45,201,8800014,,,,,,,2021-11-22,1,,,,,クレイン,0
1554,6360001029641,新規,0,2021-11-22,2021-11-22,株式会社海小屋,,株式会社,沖縄県,那覇市,おもろまち４丁目８－１８、１Ｆ,,47,201,9000006,,,,,,,2021-11-22,1,,,,,ウミゴヤ,0
1555,6360001029658,新規,0,2021-11-22,2021-11-22,一丸重運株式会社,,株式会社,沖縄県,名護市,字我部祖河２９１番地,,47,209,9051155,,,,,,,2021-11-22,1,,,,,イチマルジュウウン,0
1558,6370001047865,新規,0,2021-11-22,2021-11-22,株式会社Ｉｒｅｖｏｔｉｏｎ,,株式会社,宮城県,仙台市青葉区,中央４丁目８番８－７０３号,,04,101,9800021,,,,,,,2021-11-22,1,,,,,アイレボーション,0
1559,6370003005490,新規,0,2021-11-22,2021-11-22,合同会社ＯＮＬＹ　ＯＮＥ,,合同会社,宮城県,仙台市若林区,卸町２丁目９－１,,04,103,9840015,,,,,,,2021-11-22,1,,,,,オンリーワン,0
1567,6400001015678,新規,0,2021-11-22,2021-11-22,株式会社長嶺ファーム,,株式会社,岩手県,九戸郡軽米町,大字小軽米第１９地割７２番地７１,,03,501,0286411,,,,,,,2021-11-22,1,,,,,ナガミネファーム,0
1569,6410001013020,新規,0,2021-11-22,2021-11-22,陽光保険株式会社,,株式会社,秋田県,横手市,大森町板井田字南松田１２番地,,05,203,0130501,,,,,,,2021-11-22,1,,,,,ヨウコウホケン,0
1570,6410003003589,新規,0,2021-11-22,2021-11-22,合同会社あおぞら,,合同会社,秋田県,横手市,平鹿町浅舞字上蒋沼１２０番地,,05,203,0130105,,,,,,,2021-11-22,1,,,,,アオゾラ,0
1581,6470003002081,新規,0,2021-11-22,2021-11-22,合同会社回廊杜,,合同会社,香川県,高松市,国分寺町福家甲３０８１番地４,,37,201,7690103,,,,,,,2021-11-22,1,,,,,カイロウシャ,0
1585,6500003002722,新規,0,2021-11-22,2021-11-22,合同会社Ｙｏｕ建基,,合同会社,愛媛県,松山市,森松町５０９番地１,,38,201,7911113,,,,,,,2021-11-22,1,,,,,ユウケンキ,0
1586,6700150105919,新規,0,2021-11-22,2021-11-22,Ｋｉｎｇｓｇｒｏｕｐ　Ｈｏｌｄｉｎｇｓ,,外国会社等,,,,,,,,ＰＯ　Ｂｏｘ　３０９，Ｕｇｌａｎｄ　Ｈｏｕｓｅ，Ｇｒａｎｄ　Ｃａｙｍａｎ，ＫＹ１－１１０４，Ｃａｙｍａｎ　Ｉｓｌａｎｄｓ．,,,,,,2021-11-22,1,,,,,キングスグループホールデイングス,0
1594,7010001222742,新規,0,2021-11-22,2021-11-22,株式会社ペトリコール,,株式会社,東京都,千代田区,神田須田町１丁目８番３－１２０２号,,13,101,1010041,,,,,,,2021-11-22,1,,,,,ペトリコール,0
1595,7010003036348,新規,0,2021-11-22,2021-11-22,ｙｅｌｌｏｗＲｏｃｋｅｔ合同会社,,合同会社,東京都,中央区,銀座１丁目１２－４Ｎ＆ＥＢＬＤ．７階,,13,102,1040061,,,,,,,2021-11-22,1,,,,,イエローロケット,0
1596,7010003036372,新規,0,2021-11-22,2021-11-22,合同会社ＧｌａｄｚＦｉｌｍ,,合同会社,東京都,中央区,銀座１丁目２２番１１号銀座大竹ビジデンス２階,,13,102,1040061,,,,,,,2021-11-22,1,,,,,グラズフィルム,0
1605,7010403026592,新規,0,2021-11-22,2021-11-22,ジー・ジェイ・レジデンス・シックス合同会社,,合同会社,東京都,港区,虎ノ門４丁目３番１号城山トラストタワー２７階ＳａｎｎｅＧｒｏｕｐＪａｐａｎ株式会社内,,13,103,1050001,,,,,,,2021-11-22,1,,,,,ジージェイレジデンスシックス,0
1618,7010901049847,新規,0,2021-11-22,2021-11-22,株式会社ラフアロット,,株式会社,東京都,世田谷区,玉川３丁目２０番２号マノア玉川第３ビル５０１号室,,13,112,1580094,,,,,,,2021-11-22,1,,,,,ラフアロット,0
1619,7010901049855,新規,0,2021-11-22,2021-11-22,堀井住設株式会社,,株式会社,東京都,世田谷区,大蔵１丁目１４－１９－２０４,,13,112,1570074,,,,,,,2021-11-22,1,,,,,ホリイジュウセツ,0
1623,7011001144101,新規,0,2021-11-22,2021-11-22,株式会社トリガージャパン,,株式会社,東京都,渋谷区,代々木３丁目１番１１号パシフィックスクエア代々木,,13,113,1510053,,,,,,,2021-11-22,1,,,,,トリガージャパン,0
1632,7011103011190,新規,0,2021-11-22,2021-11-22,ミナミケイソク合同会社,,合同会社,東京都,新宿区,高田馬場４丁目９番１１号,,13,104,1690075,,,,,,,2021-11-22,1,,,,,ミナミケイソク,0
1638,7011303004226,新規,0,2021-11-22,2021-11-22,マリクル合同会社,,合同会社,東京都,杉並区,下井草３丁目３８番１５号,,13,115,1670022,,,,,,,2021-11-22,1,,,,,マリクル,0
1641,7011501027508,新規,0,2021-11-22,2021-11-22,株式会社ＴＤＳ,,株式会社,東京都,荒川区,西日暮里６丁目２７－１,,13,118,1160013,,,,,,,2021-11-22,1,,,,,ティーディーエス,0
1646,7011703003001,新規,0,2021-11-22,2021-11-22,ロンゲスト合同会社,,合同会社,東京都,江戸川区,東葛西７丁目８番５号,,13,123,1340084,,,,,,,2021-11-22,1,,,,,ロンゲスト,0
1652,7012301012773,新規,0,2021-11-22,2021-11-22,株式会社パルビルド,,株式会社,東京都,町田市,原町田２丁目８番２号,,13,209,1940013,,,,,,,2021-11-22,1,,,,,パルビルド,0
1653,7012303001618,新規,0,2021-11-22,2021-11-22,合同会社ＡＹ設備設計,,合同会社,東京都,町田市,南町田３丁目２２番９号,,13,209,1940005,,,,,,,2021-11-22,1,,,,,エーワイセツビセッケイ,0
1656,7012701016787,新規,0,2021-11-22,2021-11-22,株式会社イーソリューション,,株式会社,東京都,小平市,花小金井南町１丁目３番１１－Ｄ５７２号,,13,211,1870003,,,,,,,2021-11-22,1,,,,,イーソリューション,0
1661,7020001144036,新規,0,2021-11-22,2021-11-22,株式会社Ｂｅａｕｔｙ＆Ｕ,,株式会社,神奈川県,横浜市中区,元浜町４丁目３５番地馬車道ＹｔＢＡＹ５０１,,14,104,2310004,,,,,,,2021-11-22,1,,,,,ビューティーアンドユー,0
1662,7020001144052,新規,0,2021-11-22,2021-11-22,株式会社サクセス,,株式会社,神奈川県,横浜市戸塚区,影取町１０４番地７５,,14,110,2450064,,,,,,,2021-11-22,1,,,,,サクセス,0
1673,7021001074553,新規,0,2021-11-22,2021-11-22,株式会社ＫＯＭＵＲＯ,,株式会社,神奈川県,相模原市緑区,向原２丁目５番６号,,14,151,2520104,,,,,,,2021-11-22,1,,,,,コムロ,0
1680,7021005012336,新規,0,2021-11-22,2021-11-22,江ノ島電鉄労働組合,,その他の設立登記法人,神奈川県,藤沢市,片瀬海岸１丁目８番１６号,,14,205,2510035,,,,,,,2021-11-22,1,,,,,,0
1692,7030001145454,新規,0,2021-11-22,2021-11-22,株式会社Ｔｒ．ｓｋｙ,,株式会社,埼玉県,北足立郡伊奈町,栄４丁目２０８番地１,,11,301,3620805,,,,,,,2021-11-22,1,,,,,テルスキー,0
1699,7030003018360,新規,0,2021-11-22,2021-11-22,合同会社Ｓｈｏｗｃａｓｅ,,合同会社,埼玉県,桶川市,寿１丁目４番６号桶川店舗２Ｆ,,11,231,3630016,,,,,,,2021-11-22,1,,,,,ショーケース,0
1703,7040001074909,新規,0,2021-11-22,2021-11-22,株式会社東京ケレン大原製作所,,株式会社,千葉県,いすみ市,小沢９９７番地１,,12,238,2980012,,,,,,,2021-11-22,1,,,,,トウキョウケレンオオハラセイサクショ,0
1704,7040001121108,新規,0,2021-11-22,2021-11-22,株式会社Ｏｆｆｉｃｅ　Ｍ,,株式会社,千葉県,柏市,若柴１７８番地４柏の葉キャンパス１４８街区１パークシティ柏の葉キャンパスザ・ゲートタワーウェスト３階,,12,217,2770871,,,,,,,2021-11-22,1,,,,,オフィスエム,0
1709,7040003018995,新規,0,2021-11-22,2021-11-22,合同会社マーベラス電機,,合同会社,千葉県,市原市,八幡１０１０番地２ＫＹビル２Ｆ,,12,219,2900062,,,,,,,2021-11-22,1,,,,,マーベラスデンキ,0
1716,7080001024587,新規,0,2021-11-22,2021-11-22,Ｓ‐ＰＲＯ株式会社,,株式会社,静岡県,静岡市清水区,折戸１丁目１７番８号,,22,103,4240902,,,,,,,2021-11-22,1,,,,,エスプロ,0
1719,7080101022929,新規,0,2021-11-22,2021-11-22,株式会社よしの堂,,株式会社,静岡県,富士市,中野４５４番地の２３,,22,210,4170809,,,,,,,2021-11-22,1,,,,,ヨシノドウ,0
1726,7120001241979,新規,0,2021-11-22,2021-11-22,株式会社シエレトワール,,株式会社,大阪府,大阪市西区,江戸堀１丁目２３番３５号ＡＸＩＳ江戸一ビル９Ｆ,,27,106,5500002,,,,,,,2021-11-22,1,,,,,シエレトワール,0
1727,7120001242052,新規,0,2021-11-22,2021-11-22,株式会社源ＧＲＯＵＰＨＯＬＤＩＮＧＳ,,株式会社,大阪府,大阪市生野区,巽中１丁目１４番１３号,00124935,27,116,5440013,,,,,,,2021-11-22,1,,,,,ミナモトグループホールディングス,0
1736,7120903003915,新規,0,2021-11-22,2021-11-22,合同会社ｆａｖｏ．,,合同会社,大阪府,茨木市,舟木町４番１０号,,27,211,5670828,,,,,,,2021-11-22,1,,,,,ファボ,0
1739,7130001070584,新規,0,2021-11-22,2021-11-22,株式会社ノチ,,株式会社,京都府,京都市上京区,日暮通丸太町上る西入西院町７４６番地３５,,26,102,6028151,,,,,,,2021-11-22,1,,,,,ノチ,0
1756,7180001148839,新規,0,2021-11-22,2021-11-22,株式会社Ｑ,,株式会社,愛知県,名古屋市西区,十方町１４６番地,,23,104,4520837,,,,,,,2021-11-22,1,,,,,キュー,0
1757,7180003023222,新規,0,2021-11-22,2021-11-22,合同会社ｍｉｓｓｒｉｃｈ,,合同会社,愛知県,大府市,中央町２丁目２４４番地,,23,223,4740025,,,,,,,2021-11-22,1,,,,,ミスリッチ,0
1761,7190005011645,新規,0,2021-11-22,2021-11-22,ＮＰＯ法人学び場子ども食堂,,その他の設立登記法人,三重県,度会郡南伊勢町,斎田３１６番地８４,,24,472,5160113,,,,,,,2021-11-22,1,,,,,マナビバコドモショクドウ,0
1764,7200001039440,新規,0,2021-11-22,2021-11-22,白井装建社株式会社,,株式会社,岐阜県,海津市,海津町鹿野１０６２番地,,21,221,5030608,,,,,,,2021-11-22,1,,,,,シライソウケンシャ,0
1776,7250001019272,新規,0,2021-11-22,2021-11-22,株式会社原企画,,株式会社,山口県,宇部市,大字東須恵３９００番地３,,35,202,7590206,,,,,,,2021-11-22,1,,,,,ハラキカク,0
1786,7290001095500,新規,0,2021-11-22,2021-11-22,株式会社Ｍａｒｕｈｏｕｓｅ,,株式会社,福岡県,福岡市早良区,西新５丁目１５番４３号原田ビル２Ｆ,,40,137,8140002,,,,,,,2021-11-22,1,,,,,マルハウス,0
1787,7290001095509,新規,0,2021-11-22,2021-11-22,株式会社ＮＯＦ,,株式会社,福岡県,福岡市博多区,美野島３丁目２１番１５号,,40,132,8120017,,,,,,,2021-11-22,1,,,,,エヌオーエフ,0
1788,7290001095517,新規,0,2021-11-22,2021-11-22,株式会社ボディ・ケア,,株式会社,福岡県,福岡市南区,曰佐２丁目２７番２７号,,40,134,8111313,,,,,,,2021-11-22,1,,,,,ボディケア,0
1794,7310001017600,新規,0,2021-11-22,2021-11-22,株式会社ＬＩＥＮ,,株式会社,長崎県,佐世保市,早岐２丁目８番１７号,,42,202,8593215,,,,,,,2021-11-22,1,,,,,リアン,0
1795,7310003004217,新規,0,2021-11-22,2021-11-22,合同会社レベルワン測量,,合同会社,長崎県,五島市,江川町９番地１,,42,211,8530006,,,,,,,2021-11-22,1,,,,,レベルワンソクリョウ,0
1799,7330001029214,新規,0,2021-11-22,2021-11-22,株式会社ＦＩＮＥ　ＡＬＥＳ,,株式会社,熊本県,熊本市東区,錦ケ丘５番８－１０２号,,43,102,8620912,,,,,,,2021-11-22,1,,,,,ファインアレス,0
1806,7350003003974,新規,0,2021-11-22,2021-11-22,合同会社チターナ,,合同会社,宮崎県,宮崎市,末広１丁目９番４号－１０２,,45,201,8800012,,,,,,,2021-11-22,1,,,,,チターナ,0
1810,7360001029665,新規,0,2021-11-22,2021-11-22,株式会社みさとマリン工業,,株式会社,沖縄県,島尻郡八重瀬町,字港川１１０番地,,47,362,9010511,,,,,,,2021-11-22,1,,,,,ミサトマリンコウギョウ,0
1815,7370001047856,新規,0,2021-11-22,2021-11-22,株式会社めぐみ建設,,株式会社,宮城県,仙台市青葉区,一番町１丁目８番１０号,,04,101,9800811,,,,,,,2021-11-22,1,,,,,メグミケンセツ,0
1824,7390001016685,新規,0,2021-11-22,2021-11-22,日本商事山形株式会社,,株式会社,山形県,山形市,本町１丁目５番１９号,,06,201,9900043,,,,,,,2021-11-22,1,,,,,ニホンショウジヤマガタ,0
1829,7420002020096,新規,0,2021-11-22,2021-11-22,有限会社山宝興業,,有限会社,青森県,上北郡横浜町,字林ノ後５９番地１,,02,406,0394135,,,,,,,2021-11-22,1,,,,,サンポウコウギョウ,0
1832,7430001085420,新規,0,2021-11-22,2021-11-22,グリードエンタープライズ株式会社,,株式会社,北海道,札幌市白石区,川下２７２７番地５１,,01,104,0030869,,,,,,,2021-11-22,1,,,,,グリードエンタープライズ,0
1833,7430001085429,新規,0,2021-11-22,2021-11-22,みらいネット株式会社,,株式会社,北海道,石狩郡新篠津村,第４６線北１６番地,,01,304,0681100,,,,,,,2021-11-22,1,,,,,ミライネット,0
1842,7500001023827,新規,0,2021-11-22,2021-11-22,株式会社ＲｉＲｉ,,株式会社,愛媛県,松山市,竹原２丁目２番１８号サーパス竹原１４０１号,,38,201,7900053,,,,,,,2021-11-22,1,,,,,リリ,0
1843,7700150105587,新規,0,2021-11-22,2021-11-02,旭川小規模障害福祉事業所連絡協議会,,その他,北海道,旭川市,四条通２１丁目１７２１番地４６,,01,204,0788214,,,,,,,2021-11-02,1,,,,,アサヒカワシヨウキボシヨウガイフクシジギヨウシヨレンラクキヨウギカイ,0
1844,7700150105918,新規,0,2021-11-22,2021-11-22,シルパ　メディケア駐在員事務所,,外国会社等,東京都,千代田区,大手町１丁目５番１号大手町ファーストスクエアイーストタワー４階,,13,101,1000004,１ｓｔ　Ｆｌｏｏｒ，１０／８０　Ｒａｊｅｎｄｒａ　Ｇｕｎｊ　Ｒａｉｃｈｕｒ，５８４　１０２　Ｉｎｄｉａ,,,,,,2021-11-22,1,,,,,シルパメデイケアチユウザイインジムシヨ,0
1852,8010001222725,新規,0,2021-11-22,2021-11-22,株式会社ＨＴＫＪａｐａｎ,,株式会社,東京都,千代田区,神田紺屋町８ＮＣＯ神田紺屋町７Ｆ－７０１,,13,101,1010035,,,,,,,2021-11-22,1,,,,,エイチティケイジャパン,0
1855,8010005034241,新規,0,2021-11-22,2021-11-22,花月特定目的会社,,その他の設立登記法人,東京都,千代田区,霞が関３丁目２番５号,,13,101,1000013,,,,,,,2021-11-22,1,,,,,カゲツ,0
1857,8010101014948,新規,0,2021-11-22,2021-11-22,株式会社ザクロ,,株式会社,東京都,八王子市,めじろ台２丁目６６番地８号モンシャトーめじろ台２０６,,13,201,1930833,,,,,,,2021-11-22,1,,,,,,0
1875,8010403026559,新規,0,2021-11-22,2021-11-22,東京通信合同会社,,合同会社,東京都,港区,南青山２丁目２番１５号,,13,103,1070062,,,,,,,2021-11-22,1,,,,,トウキョウツウシン,0
1881,8010701041821,新規,0,2021-11-22,2021-11-22,カワセミネクスト株式会社,,株式会社,東京都,品川区,小山６丁目２２番５号,,13,109,1420062,,,,,,,2021-11-22,1,,,,,カワセミネクスト,0
1885,8010903006952,新規,0,2021-11-22,2021-11-22,サングレイス合同会社,,合同会社,東京都,世田谷区,深沢８丁目１９番２号,,13,112,1580081,,,,,,,2021-11-22,1,,,,,サングレイス,0
1890,8011001144091,新規,0,2021-11-22,2021-11-22,株式会社Ｋａｋｉｚｏｅ　Ａｒｃｈｉｔｅｃｔｓ,,株式会社,東京都,渋谷区,神南１丁目６番５号,,13,113,1500041,,,,,,,2021-11-22,1,,,,,カキゾエアーキテクツ,0
1891,8011003013757,新規,0,2021-11-22,2021-11-22,黒川経営管理コンサルティング合同会社,,合同会社,東京都,目黒区,中根２丁目１１番１０号,,13,110,1520031,,,,,,,2021-11-22,1,,,,,クロカワケイエイカンリコンサルティング,0
1911,8011803004872,新規,0,2021-11-22,2021-11-22,合同会社もーりすぐりーん,,合同会社,東京都,足立区,千住柳町２７－８,,13,121,1200032,,,,,,,2021-11-22,1,,,,,モーリスグリーン,0
1915,8012403005121,新規,0,2021-11-22,2021-11-22,ＦＪ．Ｇｒａｔｉｔｕｄｅ合同会社,,合同会社,東京都,府中市,緑町２丁目１１番地,,13,206,1830006,,,,,,,2021-11-22,1,,,,,エフジェイグラティテュード,0
1916,8012701016786,新規,0,2021-11-22,2021-11-22,株式会社曜光,,株式会社,東京都,西東京市,北町４丁目６－５,,13,229,2020003,,,,,,,2021-11-22,1,,,,,ヨウコウ,0
1917,8012703002355,新規,0,2021-11-22,2021-11-22,合同会社ナイスカード,,合同会社,東京都,東久留米市,前沢４丁目６番２号ワンダーメゾン前沢４０２,,13,222,2030032,,,,,,,2021-11-22,1,,,,,ナイスカード,0
1922,8013301048303,新規,0,2021-11-22,2021-11-22,Ｉ　ｔａｉｎｍｅｎｔ株式会社,,株式会社,東京都,豊島区,巣鴨１丁目３６番５号,,13,116,1700002,,,,,,,2021-11-22,1,,,,,アイテイメント,0
1928,8020001143912,新規,0,2021-11-22,2021-11-22,株式会社フリーベック,,株式会社,神奈川県,川崎市川崎区,駅前本町１１－２川崎フロンティアビル４階,,14,131,2100007,,,,,,,2021-11-22,1,,,,,フリーベック,0
1929,8020001143945,新規,0,2021-11-22,2021-11-22,ＫＭコーポレーション株式会社,,株式会社,神奈川県,川崎市幸区,塚越４丁目３３３番地１５１,,14,132,2120024,,,,,,,2021-11-22,1,,,,,ケイエムコーポレーション,0
1930,8020001144027,新規,0,2021-11-22,2021-11-22,株式会社エスケープラス,,株式会社,神奈川県,横浜市神奈川区,神大寺３丁目３３番１号,,14,102,2210801,,,,,,,2021-11-22,1,,,,,エスケープラス,0
1936,8020003020837,新規,0,2021-11-22,2021-11-22,合同会社むすび,,合同会社,神奈川県,横浜市青葉区,藤が丘２丁目２３番地３５,,14,117,2270043,,,,,,,2021-11-22,1,,,,,ムスビ,0
1970,8040001121107,新規,0,2021-11-22,2021-11-22,株式会社ドームスタジオ,,株式会社,千葉県,千葉市中央区,新宿２丁目１３番１３号,,12,101,2600021,,,,,,,2021-11-22,1,,,,,ドームスタジオ,0
1972,8040003018994,新規,0,2021-11-22,2021-11-22,合同会社１０ｓｔ,,合同会社,千葉県,夷隅郡大多喜町,小田代４０５－１,,12,441,2980265,,,,,,,2021-11-22,1,,,,,テンスト,0
1973,8040005021427,新規,0,2021-11-22,2021-11-22,幸紡会ラボかしわ特定非営利活動法人,,その他の設立登記法人,千葉県,柏市,大津ケ丘３丁目４番地１－１０２号１階,,12,217,2770921,,,,,,,2021-11-22,1,,,,,コウボウカイラボカシワ,0
1979,8060005009916,新規,0,2021-11-22,2021-11-22,一般社団法人釜川から育む会,,その他の設立登記法人,栃木県,宇都宮市,二荒町８－１５,,09,201,3200804,,,,,,,2021-11-22,1,,,,,,0
1980,8070001038629,新規,0,2021-11-22,2021-11-22,おみやげ株式会社,,株式会社,群馬県,北群馬郡榛東村,大字新井１９２５番地４,,10,344,3703503,,,,,,,2021-11-22,1,,,,,オミヤゲ,0
1981,8070001038661,新規,0,2021-11-22,2021-11-22,株式会社カサマ企画設計,,株式会社,群馬県,太田市,藪塚町１７３５番地２２,,10,205,3792301,,,,,,,2021-11-22,1,,,,,カサマキカクセッケイ,0
1982,8070003004307,新規,0,2021-11-22,2021-11-22,ＥＣＯ．Ｍ・Ｉ合同会社,,合同会社,群馬県,伊勢崎市,本町６番地２,,10,204,3720047,,,,,,,2021-11-22,1,,,,,エコエムアイ,0
1986,8080001024594,新規,0,2021-11-22,2021-11-22,株式会社エスビーパートナーズ,,株式会社,静岡県,静岡市清水区,相生町７番２１号市川ビル２階,,22,103,4240821,,,,,,,2021-11-22,1,,,,,エスビーパートナーズ,0
1989,8080101022928,新規,0,2021-11-22,2021-11-22,株式会社ＳＵＮＤＬＹ,,株式会社,静岡県,富士市,中島５０９番地の７,,22,210,4160907,,,,,,,2021-11-22,1,,,,,サンドリー,0
1998,8090001017291,新規,0,2021-11-22,2021-11-22,株式会社エコプラント,,株式会社,山梨県,南都留郡鳴沢村,７３１番地１,,19,429,4010320,,,,,,,2021-11-22,1,,,,,エコプラント,0
2008,8120001242002,新規,0,2021-11-22,2021-11-22,株式会社ＭＥＢＩＡＳ,,株式会社,大阪府,大阪市中央区,博労町３丁目６番１４号,,27,128,5410059,,,,,,,2021-11-22,1,,,,,メビアス,0
2009,8120001242027,新規,0,2021-11-22,2021-11-22,株式会社レイクレア,,株式会社,大阪府,大阪市鶴見区,浜５丁目１番４２号,,27,124,5380035,,,,,,,2021-11-22,1,,,,,レイクレア,0
2010,8120001242035,新規,0,2021-11-22,2021-11-22,株式会社エムテック,,株式会社,大阪府,大阪市西淀川区,千舟２丁目１２番６号,,27,113,5550013,,,,,,,2021-11-22,1,,,,,エムテック,0
2011,8120001242043,新規,0,2021-11-22,2021-11-22,株式会社ファーストステージ,,株式会社,大阪府,大阪市北区,曾根崎新地１丁目９番６号,,27,127,5300002,,,,,,,2021-11-22,1,,,,,ファーストステージ,0
2012,8120001242051,新規,0,2021-11-22,2021-11-22,株式会社真和,,株式会社,大阪府,大阪市平野区,加美北７丁目７番３９－６０２号,,27,126,5470001,,,,,,,2021-11-22,1,,,,,シンワ,0
2014,8120003020637,新規,0,2021-11-22,2021-11-22,合同会社ＩＴＯ,,合同会社,大阪府,大阪市北区,中津１丁目１６番３３－４０１号,,27,127,5310071,,,,,,,2021-11-22,1,,,,,イト,0
2024,8120103004449,新規,0,2021-11-22,2021-11-22,ａｅｇｉｓ合同会社,,合同会社,大阪府,泉南市,信達市場１７３５－１０,,27,228,5900504,,,,,,,2021-11-22,1,,,,,イージス,0
2025,8120901045248,新規,0,2021-11-22,2021-11-22,株式会社アクアホームサービス,,株式会社,大阪府,豊中市,穂積１丁目１番１２号,,27,203,5610856,,,,,,,2021-11-22,1,,,,,アクアホームサービス,0
2044,8150001025115,新規,0,2021-11-22,2021-11-22,株式会社中田工業,,株式会社,奈良県,奈良市,八条５丁目４３７－３０,,29,201,6308145,,,,,,,2021-11-22,1,,,,,ナカタコウギョウ,0
2066,8200001039448,新規,0,2021-11-22,2021-11-22,株式会社清光,,株式会社,岐阜県,瑞穂市,重里１９８９番地,,21,216,5010311,,,,,,,2021-11-22,1,,,,,セイコウ,0
2071,8220001024555,新規,0,2021-11-22,2021-11-22,株式会社ミラサス,,株式会社,石川県,野々市市,末松３丁目５７０番,,17,212,9218836,,,,,,,2021-11-22,1,,,,,ミラサス,0
2073,8220003003152,新規,0,2021-11-22,2021-11-22,合同会社アーホクサー・Ｒ・スルノ,,合同会社,石川県,金沢市,泉野町１丁目１９番３号,,17,201,9218034,,,,,,,2021-11-22,1,,,,,アーホクサーアールスルノ,0
2077,8240001058964,新規,0,2021-11-22,2021-11-22,株式会社正田電工,,株式会社,広島県,呉市,安浦町内海北７丁目６番３５号,,34,202,7372518,,,,,,,2021-11-22,1,,,,,ショウダデンコウ,0
2079,8250001019271,新規,0,2021-11-22,2021-11-22,Ｕｎｉｏｎ　Ｆａｉｔｈ株式会社,,株式会社,山口県,山口市,維新公園５丁目１番３４号,,35,203,7530815,,,,,,,2021-11-22,1,,,,,ユニオンフェイス,0
2081,8260001036233,新規,0,2021-11-22,2021-11-22,テスラシェアサービス株式会社,,株式会社,岡山県,岡山市北区,下石井２丁目７番４号,,33,101,7000907,,,,,,,2021-11-22,1,,,,,テスラシェアサービス,0
2085,8290001095499,新規,0,2021-11-22,2021-11-22,株式会社ネクストシステム,,株式会社,福岡県,糸島市,有田中央１丁目６番１３号,,40,230,8191127,,,,,,,2021-11-22,1,,,,,ネクストシステム,0
2093,8300001012709,新規,0,2021-11-22,2021-11-22,株式会社ｈｕｉｔ,,株式会社,佐賀県,佐賀市,呉服元町１１番２２号,,41,201,8400824,,,,,,,2021-11-22,1,,,,,ユイット,0
2094,8300001012717,新規,0,2021-11-22,2021-11-22,株式会社Ｇ‐ＢＯＸ,,株式会社,佐賀県,神埼市,神埼町的３９番地１,,41,210,8420123,,,,,,,2021-11-22,1,,,,,ジーボックス,0
2099,8320005009939,新規,0,2021-11-22,2021-11-22,医療法人ＥＭＨ,,その他の設立登記法人,大分県,豊後大野市,三重町赤嶺１０９２番地２５,,44,212,8797111,,,,,,,2021-11-22,1,,,,,イーエムエイチ,0
2101,8330001029213,新規,0,2021-11-22,2021-11-22,株式会社アシストプラン,,株式会社,熊本県,熊本市東区,佐土原３丁目１０番６号,,43,102,8620916,,,,,,,2021-11-22,1,,,,,アシストプラン,0
2102,8330003009139,新規,0,2021-11-22,2021-11-22,合同会社ＡＪ　Ｊａｐａｎ　ｃｏｍｐａｎｙ,,合同会社,熊本県,熊本市中央区,神水２丁目１９－２１メゾンドソフィア神水３０３,,43,101,8620954,,,,,,,2021-11-22,1,,,,,エージェージャパンカンパニー,0
2106,8360003011579,新規,0,2021-11-22,2021-11-22,合同会社Ｌｉｂｒｅ,,合同会社,沖縄県,中頭郡読谷村,字長浜４１番地１シーサイド長浜２０１,,47,324,9040324,,,,,,,2021-11-22,1,,,,,リブレ,0
2109,8380001032360,新規,0,2021-11-22,2021-11-22,株式会社ＴＳＭアロー,,株式会社,福島県,いわき市,平字愛谷町一丁目６番地の２コーポとどろきＤ,,07,204,9708026,,,,,,,2021-11-22,1,,,,,ティーエスエムアロー,0
2112,8380003005059,新規,0,2021-11-22,2021-11-22,辺杢合同会社,,合同会社,福島県,郡山市,大槻町字北寺４－２,,07,203,9630201,,,,,,,2021-11-22,1,,,,,ナベモク,0
2118,8410003003587,新規,0,2021-11-22,2021-11-22,昭和合資会社,,合資会社,秋田県,横手市,四日町５番１４号,,05,203,0130022,,,,,,,2021-11-22,1,,,,,,0
2119,8460301005017,新規,0,2021-11-22,2021-11-22,株式会社酪畜支援センター,,株式会社,北海道,紋別郡遠軽町,清川６４番地２,,01,555,0990422,,,,,,,2021-11-22,1,,,,,ラクチクシエンセンター,0
2120,8470001018846,新規,0,2021-11-22,2021-11-22,株式会社Ｋ,,株式会社,香川県,高松市,桜町２丁目７番１２－６０２号サーパス桜町第３,,37,201,7600074,,,,,,,2021-11-22,1,,,,,ケー,0
2123,8700150105537,新規,0,2021-11-22,2021-10-29,Ｉｄｅａ　Ｗｏｒｋｓ．Ｐ,,その他,埼玉県,新座市,野火止６丁目２２－１２,,11,230,3520011,,,,,,,2021-10-29,1,,,,,イデイアワークスピー,0
2124,8700150105917,新規,0,2021-11-22,2021-11-22,Ｋｉｎｇｓｇｒｏｕｐ　Ｉｎｔｅｒｎａｔｉｏｎａｌ　ＡＧ,,外国会社等,,,,,,,,Ｇｒａｆｅｎａｕｗｅｇ　８，６３００　Ｚｕｇ，Ｓｗｉｔｚｅｒｌａｎｄ．,,,,,,2021-11-22,1,,,,,キングスグループインターナシヨナルエージー,0
2132,9010001222708,新規,0,2021-11-22,2021-11-22,株式会社Ｃｌｅａｎ　ｎｅｘｔ,,株式会社,東京都,千代田区,九段南１丁目５番６号りそな九段ビル５階ＫＳフロア,,13,101,1020074,,,,,,,2021-11-22,1,,,,,クリーンネクスト,0
2133,9010001222765,新規,0,2021-11-22,2021-11-22,Ａｎｇｅｌ　Ｂｒｉｄｇｅ　Ｕｎｉｃｏｒｎ　Ｆｕｎｄ２号株式会社,,株式会社,東京都,千代田区,紀尾井町３－３２紀尾井町ヒルズ西館,,13,101,1020094,,,,,,,2021-11-22,1,,,,,エンジェルブリッジユニコーンファンドニゴウ,0
2139,9010003036370,新規,0,2021-11-22,2021-11-22,合同会社ＮＴＳ労務マネジメント,,合同会社,東京都,中央区,日本橋３丁目２番１４号新槙町ビル別館第一２階,,13,102,1030027,,,,,,,2021-11-22,1,,,,,エヌティーエスロウムマネジメント,0
2142,9010005034240,新規,0,2021-11-22,2021-11-22,一般財団法人伏見記念財団,,その他の設立登記法人,東京都,千代田区,紀尾井町３番１号,,13,101,1020094,,,,,,,2021-11-22,1,,,,,フシミキネンザイダン,0
2153,9010401163948,新規,0,2021-11-22,2021-11-22,Ｓｐａｃｅ　Ｎｅｘｔ　Ｄｏｏｒ　Ｊａｐａｎ株式会社,,株式会社,東京都,港区,西新橋１丁目２番９号日比谷セントラルビル１４階１４４６号室,,13,103,1050003,,,,,,,2021-11-22,1,,,,,スペースネクストドアジャパン,0
2154,9010401163972,新規,0,2021-11-22,2021-11-22,株式会社Ｃｌｉｃｋ＆Ｃｒａｃｋ,,株式会社,東京都,港区,浜松町２丁目２番１５号浜松町ダイヤビル２Ｆ,,13,103,1050013,,,,,,,2021-11-22,1,,,,,クリックアンドクラック,0
2155,9010401163997,新規,0,2021-11-22,2021-11-22,ＳＥＶＥＮ株式会社,,株式会社,東京都,港区,六本木７丁目７番７号,,13,103,1060032,,,,,,,2021-11-22,1,,,,,セブン,0
2157,9010403026566,新規,0,2021-11-22,2021-11-22,加須ファシリティ１合同会社,,合同会社,東京都,港区,六本木１丁目６番１号泉ガーデンタワー,,13,103,1060032,,,,,,,2021-11-22,1,,,,,カゾファシリティワン,0
2158,9010405020427,新規,0,2021-11-22,2021-11-22,一般社団法人お片づけ教育推進協議会,,その他の設立登記法人,東京都,港区,芝大門１丁目１－２３ＡｘｏｎＨＡＭＡＭＡＴＳＵＣＨＯ２０１,,13,103,1050012,,,,,,,2021-11-22,1,,,,,オカタヅケキョウイクスイシンキョウギカイ,0
2188,9011001144181,新規,0,2021-11-22,2021-11-22,株式会社あん・ぐらん,,株式会社,東京都,渋谷区,上原１丁目４４番２号,,13,113,1510064,,,,,,,2021-11-22,1,,,,,アングラン,0
2192,9011101096967,新規,0,2021-11-22,2021-11-22,株式会社ｓｔｙｌｅ,,株式会社,東京都,新宿区,高田馬場３丁目２３番２号内藤ビル７０１,,13,104,1690075,,,,,,,2021-11-22,1,,,,,スタイル,0
2198,9011503004973,新規,0,2021-11-22,2021-11-22,合同会社ＧＲＥＥＤ　ＳＴＹＬＥ,,合同会社,東京都,荒川区,東尾久２丁目４８－７フレンドハイツ２０２,,13,118,1160012,,,,,,,2021-11-22,1,,,,,グリードスタイル,0
2209,9013105001787,新規,0,2021-11-22,2021-11-22,特定非営利活動法人青梅の虹ａｎｙ,,その他の設立登記法人,東京都,青梅市,新町８丁目３０番地の７ハイツ中原２０１,,13,205,1980024,,,,,,,2021-11-22,1,,,,,オウメノニジエニー,0
2210,9013301012423,新規,0,2021-11-22,2021-11-22,株式会社龍インターナショナル,,株式会社,東京都,豊島区,南池袋３丁目１３番９号,,13,116,1710022,,,,,,,2021-11-22,1,,,,,リュウインターナショナル,0
2212,9013301048302,新規,0,2021-11-22,2021-11-22,グローバル・ワン・マネジメント株式会社,,株式会社,東京都,豊島区,南池袋１丁目１１番１９－２１１３号,,13,116,1710022,,,,,,,2021-11-22,1,,,,,グローバルワンマネジメント,0
2215,9020001144034,新規,0,2021-11-22,2021-11-22,立寄処道中株式会社,,株式会社,神奈川県,横浜市中区,新山下３丁目１４番１号第Ａ－８,,14,104,2310801,,,,,,,2021-11-22,1,,,,,タチヨリドコロドウチュウ,0
2224,9021001074551,新規,0,2021-11-22,2021-11-22,Ａ企画株式会社,,株式会社,神奈川県,横須賀市,追浜東町３丁目７３番,,14,201,2370063,,,,,,,2021-11-22,1,,,,,エースキカク,0
2227,9021005012350,新規,0,2021-11-22,2021-11-22,一般社団法人スズイロ,,その他の設立登記法人,神奈川県,茅ヶ崎市,旭が丘５番５４号,,14,207,2530026,,,,,,,2021-11-22,1,,,,,スズイロ,0
2234,9030001145460,新規,0,2021-11-22,2021-11-22,株式会社ジャスティン,,株式会社,埼玉県,さいたま市南区,別所５丁目２番１１号,,11,108,3360021,,,,,,,2021-11-22,1,,,,,ジャスティン,0
2235,9030001145469,新規,0,2021-11-22,2021-11-22,株式会社飛翔,,株式会社,埼玉県,戸田市,笹目５丁目２番地２,,11,224,3350034,,,,,,,2021-11-22,1,,,,,ヒショウ,0
2241,9030003018359,新規,0,2021-11-22,2021-11-22,合同会社のん,,合同会社,埼玉県,さいたま市緑区,東浦和２丁目４０番地２,,11,109,3360926,,,,,,,2021-11-22,1,,,,,ノン,0
2248,9040001121056,新規,0,2021-11-22,2021-11-22,株式会社ＯＳ－５,,株式会社,千葉県,浦安市,高洲５丁目２番１－３２０号,,12,227,2790023,,,,,,,2021-11-22,1,,,,,オーエスファイブ,0
2252,9060001034306,新規,0,2021-11-22,2021-11-22,株式会社シェリー,,株式会社,栃木県,佐野市,植上町１３２３番地２,,09,204,3270832,,,,,,,2021-11-22,1,,,,,シェリー,0
2257,9080001024593,新規,0,2021-11-22,2021-11-22,株式会社アクシア,,株式会社,静岡県,静岡市葵区,あさはた２丁目１３番２２号,,22,101,4200968,,,,,,,2021-11-22,1,,,,,アクシア,0
2261,9080401025489,新規,0,2021-11-22,2021-11-22,株式会社夢限電気,,株式会社,静岡県,磐田市,富丘１２０番地４,,22,211,4380803,,,,,,,2021-11-22,1,,,,,ムゲンデンキ,0
2270,9120001242026,新規,0,2021-11-22,2021-11-22,ハウスコンディショナー株式会社,,株式会社,大阪府,枚方市,香里園桜木町６１番３１号ＰｒｉｍＣｏｕｒｔＡ棟,,27,210,5730088,,,,,,,2021-11-22,1,,,,,ハウスコンディショナー,0
2271,9120001242034,新規,0,2021-11-22,2021-11-22,カンテック株式会社,,株式会社,大阪府,大阪市淀川区,東三国１丁目１４番１６号,,27,123,5320002,,,,,,,2021-11-22,1,,,,,カンテック,0
2272,9120001242050,新規,0,2021-11-22,2021-11-22,株式会社ノンノンファーム,,株式会社,大阪府,大阪市城東区,蒲生３丁目１０番７号,,27,118,5360016,,,,,,,2021-11-22,1,,,,,ノンノンファーム,0
2276,9120003020628,新規,0,2021-11-22,2021-11-22,恒豊合同会社,,合同会社,大阪府,大阪市天王寺区,上本町５丁目７番２号ファンターナ上本町２０８号室,,27,109,5430001,,,,,,,2021-11-22,1,,,,,コウホウ,0
2277,9120003020636,新規,0,2021-11-22,2021-11-22,合同会社Ｋ＆Ｋ,,合同会社,大阪府,大阪市天王寺区,南河堀町９番９－１０１号,,27,109,5430054,,,,,,,2021-11-22,1,,,,,ケイアンドケイ,0
2288,9130003007599,新規,0,2021-11-22,2021-11-22,ＢＩＧＢＩＲＤ合同会社,,合同会社,京都府,長岡京市,滝ノ町２丁目１６番３８－１号,,26,209,6170817,,,,,,,2021-11-22,1,,,,,ビッグバード,0
2296,9160001023827,新規,0,2021-11-22,2021-11-22,株式会社ＳＡＡＲＡ　ＬＡＮＫＡ　ＥＮＴＥＲＰＲＩＳＥＳ,,株式会社,滋賀県,彦根市,高宮町１４４１－１３秀友ハイツ１０５号室,,25,202,5220201,,,,,,,2021-11-22,1,,,,,サーラランカエンタープライセス,0
2297,9160003002432,新規,0,2021-11-22,2021-11-22,グランペール合同会社,,合同会社,滋賀県,大津市,皇子が丘２丁目１０番２５－３０１２号,,25,201,5200025,,,,,,,2021-11-22,1,,,,,グランペール,0
2298,9170001016870,新規,0,2021-11-22,2021-11-22,岩本建築株式会社,,株式会社,和歌山県,有田郡有田川町,大字吉原９５０番地９,,30,366,6430166,,,,,,,2021-11-22,1,,,,,イワモトケンチク,0
2305,9190001028872,新規,0,2021-11-22,2021-11-22,株式会社Ａｒｃ,,株式会社,三重県,四日市市,城西町１１番１５号プランドール１０２,,24,202,5100829,,,,,,,2021-11-22,1,,,,,アーク,0
2310,9210001018706,新規,0,2021-11-22,2021-11-22,株式会社泉教育創研,,株式会社,福井県,福井市,宝永３丁目９番１７号,,18,201,9100004,,,,,,,2021-11-22,1,,,,,イズミキョウイクソウケン,0
2326,9290001095473,新規,0,2021-11-22,2021-11-22,株式会社志隆,,株式会社,福岡県,太宰府市,国分４丁目１９番１１号,,40,221,8180132,,,,,,,2021-11-22,1,,,,,シリュウ,0
2327,9290005018430,新規,0,2021-11-22,2021-11-22,一般社団法人福岡県ラグビーフットボール協会,,その他の設立登記法人,福岡県,福岡市中央区,舞鶴３丁目７番１３号大禅ビル３階,,40,133,8100073,,,,,,,2021-11-22,1,,,,,フクオカケンラグビーフットボールキョウカイ,0
2330,9300001012708,新規,0,2021-11-22,2021-11-22,株式会社はがくれ会計,,株式会社,佐賀県,佐賀市,白山１丁目４番２８号,,41,201,8400826,,,,,,,2021-11-22,1,,,,,ハガクレカイケイ,0
2331,9300001012716,新規,0,2021-11-22,2021-11-22,株式会社ＢＬＵＥ,,株式会社,佐賀県,佐賀市,与賀町１番２７号共立ビル４０３号,,41,201,8400047,,,,,,,2021-11-22,1,,,,,ブルー,0
2334,9320003003661,新規,0,2021-11-22,2021-11-22,合同会社Ｃｌａｖｉｃｏｌａ,,合同会社,大分県,大分市,芳河原台３番５号,,44,201,8700948,,,,,,,2021-11-22,1,,,,,クラビーコラ,0
2337,9340005009374,新規,0,2021-11-22,2021-11-22,一般社団法人いなかＸくらしＸそだち,,その他の設立登記法人,鹿児島県,曽於市,財部町北俣１７４４番地１,,46,217,8994102,,,,,,,2021-11-22,1,,,,,イナカクラシソダチ,0
2338,9360003011586,新規,0,2021-11-22,2021-11-22,合同会社Ｈａｎａ　ｆａｒｍ,,合同会社,沖縄県,宜野湾市,宜野湾３丁目２１番７号ライオンズマンション志真志４０１号,,47,205,9012211,,,,,,,2021-11-22,1,,,,,ハナファーム,0
2340,9370001047854,新規,0,2021-11-22,2021-11-22,株式会社栄光実業,,株式会社,宮城県,仙台市青葉区,錦ケ丘５丁目１１番地の３,,04,101,9893123,,,,,,,2021-11-22,1,,,,,エイコウジツギョウ,0
2341,9370001047862,新規,0,2021-11-22,2021-11-22,株式会社オネストコンサルティング,,株式会社,宮城県,仙台市宮城野区,出花１丁目９番地１３,,04,102,9830012,,,,,,,2021-11-22,1,,,,,オネストコンサルティング,0
2342,9370001047870,新規,0,2021-11-22,2021-11-22,ＣＨＩＬＬ株式会社,,株式会社,宮城県,仙台市青葉区,上杉３丁目３番２１号上杉ＮＳビル３－Ｂ,,04,101,9800011,,,,,,,2021-11-22,1,,,,,チル,0
2358,9430003013377,新規,0,2021-11-22,2021-11-22,合同会社アンサンブル,,合同会社,北海道,札幌市清田区,里塚二条１丁目３－２,,01,110,0040802,,,,,,,2021-11-22,1,,,,,アンサンブル,0
2360,9460101007088,新規,0,2021-11-22,2021-11-22,株式会社ウィズ,,株式会社,北海道,河東郡音更町,共栄台西１３丁目１番地１８４,,01,631,0800314,,,,,,,2021-11-22,1,,,,,ウィズ,0
2361,9470001018845,新規,0,2021-11-22,2021-11-22,株式会社コスモＦネットワーク,,株式会社,香川県,さぬき市,志度４１８番地３１,,37,206,7692101,,,,,,,2021-11-22,1,,,,,コスモエフネットワーク,0
2368,9700150105916,新規,0,2021-11-22,2021-11-22,Ｓｈｅｎｚｈｅｎ　Ｃｈｕｊｉｎｇ　Ｉｎｔｅｒｎａｔｉｏｎａｌ　Ｔｒａｄｅ　Ｌｉｍｉｔｅｄ,,外国会社等,,,,,,,,Ｎｏ３７，Ｆｕｗｅｉｚｈｏｎｇ　Ｒｏａｄ，Ｆｕｗｅｉ　Ｃｏｍｍｕｎｉｔｙ，Ｆｕｙｏｎｇ　Ｓｔｒｅｅｔ，Ｂａｏａｎ　Ｄｉｓｔｒｉｃｔ，Ｓｈｅｎｚｈｅｎ，Ｃｈｉｎａ,,,,,,2021-11-22,1,,,,,シエンチエンチユージンインターナシヨナルトレードリミテツド,0
