sequenceNumber,corporateNumber,process,correct,updateDate,changeDate,name,nameImageId,kind,prefectureName,cityName,streetNumber,addressImageId,prefectureCode,cityCode,postCode,addressOutside,addressOutsideImageId,closeDate,closeCause,successorCorporateNumber,changeCause,assignmentDate,latest,enName,enPrefectureName,enCityName,enAddressOutside,furigana,hihyoji
10,1010001228282,新規,0,2022-07-26,2022-07-26,株式会社ＰＦＬ,,株式会社,東京都,文京区,千石３丁目３２－１１－２Ｆ,,13,105,1120011,,,,,,,2022-07-26,1,,,,,ピーエフエル,0
16,1010003038218,新規,0,2022-07-26,2022-07-26,合同会社Ｒａｙ,,合同会社,東京都,中央区,銀座１丁目２２番１１号,,13,102,1040061,,,,,,,2022-07-26,1,,,,,レイ,0
21,1010401168657,新規,0,2022-07-26,2022-07-26,株式会社エスプリント,,株式会社,東京都,港区,赤坂８丁目６－１３新坂マンション１０１,,13,103,1070052,,,,,,,2022-07-26,1,,,,,エスプリント,0
25,1010403028116,新規,0,2022-07-26,2022-07-26,合同会社オフィス・アーツ,,合同会社,東京都,港区,東麻布２丁目２０番３号アザビーテラス４Ｆ,,13,103,1060044,,,,,,,2022-07-26,1,,,,,オフィスアーツ,0
26,1010403028124,新規,0,2022-07-26,2022-07-26,志苑合同会社,,合同会社,東京都,港区,南青山２丁目２番１５号,,13,103,1070062,,,,,,,2022-07-26,1,,,,,シオン,0
27,1010405021176,新規,0,2022-07-26,2022-07-26,一般財団法人わかもの財団,,その他の設立登記法人,東京都,港区,浜松町２丁目２番１５号浜松町ダイヤビル２Ｆ,,13,103,1050013,,,,,,,2022-07-26,1,,,,,ワカモノザイダン,0
28,1010501001321,新規,0,2022-07-26,2022-07-26,栄都商事株式会社,,株式会社,東京都,台東区,浅草１丁目５番９号,,13,106,1110032,,,,,,,2022-07-26,1,,,,,,0
30,1010501049154,新規,0,2022-07-26,2022-07-26,株式会社Ｋｉｐｐｉｓ,,株式会社,東京都,台東区,三筋２丁目２０番５－４０３号,,13,106,1110055,,,,,,,2022-07-26,1,,,,,キッピス,0
31,1010501049162,新規,0,2022-07-26,2022-07-26,株式会社ＹＮ警備,,株式会社,東京都,台東区,蔵前４丁目３７番４－２０１号,,13,106,1110051,,,,,,,2022-07-26,1,,,,,ワイエヌケイビ,0
39,1010801033147,新規,0,2022-07-26,2022-07-26,株式会社羽田トランスポート,,株式会社,東京都,大田区,東糀谷５丁目１６番３号,,13,111,1440033,,,,,,,2022-07-26,1,,,,,ハネダトランスポート,0
44,1010901051305,新規,0,2022-07-26,2022-07-26,株式会社エムイーディー,,株式会社,東京都,世田谷区,東玉川１丁目２２番１３号,,13,112,1580084,,,,,,,2022-07-26,1,,,,,エムイーディー,0
55,1011003015041,新規,0,2022-07-26,2022-07-26,合同会社ｓｈＡｒｅ’ｌｌ,,合同会社,東京都,目黒区,平町２丁目２０番２号ＭＤＭ都立大学１０１,,13,110,1520032,,,,,,,2022-07-26,1,,,,,シェアル,0
56,1011003015090,新規,0,2022-07-26,2022-07-26,合同会社チップタートル,,合同会社,東京都,渋谷区,道玄坂１丁目１０番８号渋谷道玄坂東急ビル２Ｆ－Ｃ,,13,113,1500043,,,,,,,2022-07-26,1,,,,,チップタートル,0
60,1011203003845,新規,0,2022-07-26,2022-07-26,合同会社ひのっ子フェスティバル,,合同会社,東京都,中野区,中央１丁目５１－７－５０１,,13,114,1640011,,,,,,,2022-07-26,1,,,,,ヒノッコフェスティバル,0
64,1011401024429,新規,0,2022-07-26,2022-07-26,ミリオネア倶楽部株式会社,00127314,株式会社,東京都,板橋区,清水町２６番１０号春香パレス１０１,,13,119,1740053,,,,,,,2022-07-26,1,,,,,ミリオネアクラブ,0
65,1011501028296,新規,0,2022-07-26,2022-07-26,オブラディ株式会社,,株式会社,東京都,荒川区,南千住３丁目２７－２浅草ビルＢ号室,,13,118,1160003,,,,,,,2022-07-26,1,,,,,オブラディ,0
67,1011701025481,新規,0,2022-07-26,2022-07-26,株式会社昇＿,00127322,株式会社,東京都,江戸川区,上篠崎２丁目２４－８エスペラントハイツ１０１,,13,123,1330054,,,,,,,2022-07-26,1,,,,,ショウケン,0
69,1011801041049,新規,0,2022-07-26,2022-07-26,株式会社ルートアップ,,株式会社,東京都,足立区,大谷田１丁目１番７－１０２９号,,13,121,1200001,,,,,,,2022-07-26,1,,,,,ルートアップ,0
70,1011803005191,新規,0,2022-07-26,2022-07-26,飛東京合同会社,,合同会社,東京都,足立区,伊興本町１丁目１３－５－２０８,,13,121,1210807,,,,,,,2022-07-26,1,,,,,ヒトウキョウ,0
75,1013201010518,新規,0,2022-07-26,2022-07-26,株式会社リスペクト,,株式会社,東京都,目黒区,下目黒３丁目１９番１号,,13,110,1530064,,,,,,,2022-07-26,1,,,,,リスペクト,0
78,1013303006240,新規,0,2022-07-26,2022-07-26,合同会社ＫＵＬＫＵＬ,,合同会社,東京都,豊島区,南大塚２丁目１１―１０ミモザビル３Ｆ,,13,116,1700005,,,,,,,2022-07-26,1,,,,,クルクル,0
84,1020001147399,新規,0,2022-07-26,2022-07-26,株式会社ＮＵＴＳ,,株式会社,神奈川県,川崎市川崎区,中瀬２丁目１６番１号,,14,131,2100818,,,,,,,2022-07-26,1,,,,,ナッツ,0
85,1020001147449,新規,0,2022-07-26,2022-07-26,ＰＨＡＮＴＯＭ株式会社,,株式会社,神奈川県,横浜市磯子区,滝頭１丁目６番７０号,,14,107,2350012,,,,,,,2022-07-26,1,,,,,ファントム,0
87,1020003022162,新規,0,2022-07-26,2022-07-26,モズ合同会社,,合同会社,神奈川県,横浜市南区,井土ケ谷中町１２８番地登喜和ビル５０３,,14,105,2320052,,,,,,,2022-07-26,1,,,,,モズ,0
111,1040001124314,新規,0,2022-07-26,2022-07-26,株式会社銘征,,株式会社,千葉県,松戸市,新作１３２－１ハイツ北松戸２０５,,12,207,2710052,,,,,,,2022-07-26,1,,,,,メイセイ,0
113,1040003020494,新規,0,2022-07-26,2022-07-26,合同会社ａｕｎｓｔｏｎ,,合同会社,千葉県,木更津市,富士見２丁目６－１４,,12,206,2920831,,,,,,,2022-07-26,1,,,,,アンストン,0
120,1050001051458,新規,0,2022-07-26,2022-07-26,啓成警備保障株式会社,,株式会社,茨城県,水戸市,本町３丁目２番２１号Ｔｈｅｒｅｎ川崎１階２号室,,08,201,3100815,,,,,,,2022-07-26,1,,,,,ケイセイケイビホショウ,0
121,1050003006699,新規,0,2022-07-26,2022-07-26,ＳＳ　ＥＮＴＥＲＰＲＩＳＥ合同会社,,合同会社,茨城県,結城市,大字結城１１４２８－２６レジデンス豊楽２０３号,,08,207,3070001,,,,,,,2022-07-26,1,,,,,エスエスエンタプライズ,0
126,1060003004165,新規,0,2022-07-26,2022-07-26,合同会社Ｔｅａｍ　Ｋｉｔｃｈｅｎ　Ｃａｒ,,合同会社,栃木県,宇都宮市,城南３丁目８番１５号,,09,201,3210117,,,,,,,2022-07-26,1,,,,,チームキッチンカー,0
131,1070003004569,新規,0,2022-07-26,2022-07-26,合同会社楽,,合同会社,群馬県,伊勢崎市,東本町８７番地１,,10,204,3720025,,,,,,,2022-07-26,1,,,,,ラク,0
136,1080101023437,新規,0,2022-07-26,2022-07-26,株式会社Ｓｏａｒ,,株式会社,静岡県,伊東市,広野１丁目６番１３号,,22,208,4140038,,,,,,,2022-07-26,1,,,,,ソアー,0
137,1080101023445,新規,0,2022-07-26,2022-07-26,三元一株式会社,,株式会社,静岡県,賀茂郡東伊豆町,奈良本１２１１－１７,,22,301,4130302,,,,,,,2022-07-26,1,,,,,サンゲンイチ,0
140,1080403004589,新規,0,2022-07-26,2022-07-26,ＳＡＧＡ合同会社,,合同会社,静岡県,袋井市,友永７８９番地の１,,22,216,4370004,,,,,,,2022-07-26,1,,,,,サガ,0
141,1090005007502,新規,0,2022-07-26,2022-07-26,一般社団法人ファンタジスタ,,その他の設立登記法人,山梨県,富士吉田市,上吉田４５９０番地の６４,,19,202,4030005,,,,,,,2022-07-26,1,,,,,ファンタジスタ,0
143,1100003006636,新規,0,2022-07-26,2022-07-26,合同会社平田,,合同会社,長野県,上伊那郡箕輪町,大字中箕輪８５３５番地６,,20,383,3994601,,,,,,,2022-07-26,1,,,,,ヒラタ,0
158,1120001247585,新規,0,2022-07-26,2022-07-26,秦和デジタル株式会社,,株式会社,大阪府,大阪市西成区,潮路１丁目３番１８号ＯＡＳＩＳ・ＮＡＮＩＷＡ３Ｃ,,27,122,5570052,,,,,,,2022-07-26,1,,,,,シンワデジタル,0
159,1120001247602,新規,0,2022-07-26,2022-07-26,ＡＬＰＳ株式会社,,株式会社,大阪府,大阪市福島区,海老江２丁目３番４－３０２号,,27,103,5530001,,,,,,,2022-07-26,1,,,,,アルプス,0
161,1120003022160,新規,0,2022-07-26,2022-07-26,畑中工務店合同会社,,合同会社,大阪府,大阪市旭区,今市２丁目６番２０号,,27,117,5350011,,,,,,,2022-07-26,1,,,,,ハタナカコウムテン,0
163,1120005023082,新規,0,2022-07-26,2022-07-26,一般社団法人ＳＤＧｓ推進協会,,その他の設立登記法人,大阪府,大阪市西区,立売堀６丁目６番６－２０２号,,27,106,5500012,,,,,,,2022-07-26,1,,,,,エスディージーズスイシンキョウカイ,0
166,1120103004793,新規,0,2022-07-26,2022-07-26,合同会社ケイエム,,合同会社,大阪府,堺市中区,新家町５７６―２,,27,142,5998232,,,,,,,2022-07-26,1,,,,,ケイエム,0
168,1120901046285,新規,0,2022-07-26,2022-07-26,メカニカルコンセプトジャパン株式会社,,株式会社,大阪府,吹田市,山手町４丁目２４番６号＆Ｓｐａｃｅ山手町３号室,,27,205,5640073,,,,,,,2022-07-26,1,,,,,メカニカルコンセプトジャパン,0
169,1120901046293,新規,0,2022-07-26,2022-07-26,インフォイント株式会社,,株式会社,大阪府,吹田市,春日３丁目１８番４９号,,27,205,5650853,,,,,,,2022-07-26,1,,,,,インフォイント,0
171,1122003002381,新規,0,2022-07-26,2022-07-26,合同会社インベスト光,,合同会社,大阪府,柏原市,大県３丁目８番２０号,,27,221,5820018,,,,,,,2022-07-26,1,,,,,インベストヒカリ,0
190,1160001024394,新規,0,2022-07-26,2022-07-26,株式会社鳶山組,,株式会社,滋賀県,大津市,池の里３番７号,,25,201,5200827,,,,,,,2022-07-26,1,,,,,トビヤマグミ,0
191,1170001017208,新規,0,2022-07-26,2022-07-26,株式会社ＯＴＴＯ,,株式会社,和歌山県,和歌山市,西高松２丁目１５番２６号,,30,201,6410051,,,,,,,2022-07-26,1,,,,,オット,0
196,1180001151831,新規,0,2022-07-26,2022-07-26,株式会社ＥＴＪ,,株式会社,愛知県,名古屋市千種区,内山１丁目１番６号ラフォーレ内山２Ａ号,,23,101,4640075,,,,,,,2022-07-26,1,,,,,イーティージェー,0
198,1180001152292,新規,0,2022-07-26,2022-07-26,株式会社貞心会,,株式会社,愛知県,稲沢市,下津町東国府５３番地,,23,220,4928075,,,,,,,2022-07-26,1,,,,,テイシンカイ,0
199,1180001152301,新規,0,2022-07-26,2022-07-26,株式会社ＲＡＭ,,株式会社,愛知県,名古屋市西区,則武新町３丁目１番８６－９２３号,,23,104,4510051,,,,,,,2022-07-26,1,,,,,ラム,0
200,1180001152326,新規,0,2022-07-26,2022-07-26,株式会社バーニング,,株式会社,愛知県,豊明市,前後町仙人塚１７５６番地３６,,23,229,4701152,,,,,,,2022-07-26,1,,,,,バーニング,0
207,1180003024077,新規,0,2022-07-26,2022-07-26,合同会社ｉｄｅａｌ,,合同会社,愛知県,尾張旭市,東大久手町２丁目１２番地１９,,23,226,4880003,,,,,,,2022-07-26,1,,,,,イデアル,0
208,1180301036451,新規,0,2022-07-26,2022-07-26,美海株式会社,,株式会社,愛知県,岡崎市,大和町字平野７９番地１４,,23,202,4440931,,,,,,,2022-07-26,1,,,,,ミウ,0
211,1190001029647,新規,0,2022-07-26,2022-07-26,株式会社東商店,,株式会社,三重県,伊勢市,野村町５５７０番地,,24,203,5150511,,,,,,,2022-07-26,1,,,,,アズマショウテン,0
212,1190003004045,新規,0,2022-07-26,2022-07-26,合同会社アンフィニ,,合同会社,三重県,亀山市,北町１番２１号,,24,210,5190118,,,,,,,2022-07-26,1,,,,,アンフィニ,0
215,1200003005628,新規,0,2022-07-26,2022-07-26,歩楽里合同会社,,合同会社,岐阜県,不破郡垂井町,楠田１９番地,,21,361,5032100,,,,,,,2022-07-26,1,,,,,ブラリ,0
216,1210001019018,新規,0,2022-07-26,2022-07-26,株式会社西川工務店,,株式会社,福井県,坂井市,春江町高江第２１号１１番地,,18,210,9190479,,,,,,,2022-07-26,1,,,,,ニシカワコウムテン,0
217,1210003001535,新規,0,2022-07-26,2022-07-26,合同会社瑞祥,,合同会社,福井県,福井市,城東２丁目１５番２号,,18,201,9100853,,,,,,,2022-07-26,1,,,,,スイショウ,0
226,1230003001896,新規,0,2022-07-26,2022-07-26,合同会社ＣＯＮＳＯＬｉＤＥＡ,,合同会社,富山県,富山市,大泉中町９－８,,16,201,9398095,,,,,,,2022-07-26,1,,,,,コンソリィデア,0
230,1240001060126,新規,0,2022-07-26,2022-07-26,株式会社和公,,株式会社,広島県,広島市中区,堀川町６番５号,,34,101,7300033,,,,,,,2022-07-26,1,,,,,ワコウ,0
234,1260001037080,新規,0,2022-07-26,2022-07-26,株式会社雄翔,,株式会社,岡山県,岡山市南区,築港緑町２丁目１４番２１‐５号,,33,104,7028055,,,,,,,2022-07-26,1,,,,,ユウショウ,0
238,1270002011364,新規,0,2022-07-26,2022-07-26,有限会社河本服装,,有限会社,鳥取県,東伯郡三朝町,大字大瀬４７８番地１０,,31,364,6820121,,,,,,,2022-07-26,1,,,,,カワモトフクソウ,0
248,1290003012748,新規,0,2022-07-26,2022-07-26,ＱＵＡＬＲＥＶＯ合同会社,,合同会社,福岡県,福岡市中央区,天神２丁目３番１０号,,40,133,8100001,,,,,,,2022-07-26,1,,,,,クオルレボ,0
249,1290003012780,新規,0,2022-07-26,2022-07-26,日本グロウル合同会社,,合同会社,福岡県,福岡市早良区,小田部１丁目２９番１７号,,40,137,8140032,,,,,,,2022-07-26,1,,,,,ニホングロウル,0
256,1320003003867,新規,0,2022-07-26,2022-07-26,合同会社イマムラ,,合同会社,大分県,大分市,木上台２丁目１３番６号,,44,201,8701169,,,,,,,2022-07-26,1,,,,,イマムラ,0
261,1340002028673,新規,0,2022-07-26,2022-07-26,有限会社霧島技建,,有限会社,鹿児島県,霧島市,霧島田口５６６番地３,,46,218,8994201,,,,,,,2022-07-26,1,,,,,キリシマギケン,0
273,1420003002553,新規,0,2022-07-26,2022-07-26,ＫＯＬＹＳ合同会社,,合同会社,青森県,十和田市,大字深持字林４番地７,,02,206,0340106,,,,,,,2022-07-26,1,,,,,コリーズ,0
290,1700150110980,新規,0,2022-07-26,2022-07-26,ＣＳＲ　Ｉｎｔｅｒｎａｔｉｏｎａｌ,,外国会社等,千葉県,八街市,朝日１７２番地３オフィスＡ号,,12,230,2891101,スリランカ民主社会主義共和国、ランブッカナ、ヤタガマ、ティスマルポラ,,,,,,2022-07-26,1,,,,,シーエスアールインターナシヨナル,0
312,2010401168557,新規,0,2022-07-26,2022-07-26,ＭＣ株式会社,,株式会社,東京都,港区,三田１丁目１０番１０号三田グリーンハイツ３０３,,13,103,1080073,,,,,,,2022-07-26,1,,,,,エムシー,0
313,2010401168697,新規,0,2022-07-26,2022-07-26,日本広崎金属株式会社,,株式会社,東京都,港区,高輪２丁目１４番１８号,,13,103,1080074,,,,,,,2022-07-26,1,,,,,ニッポンヒロサキキンゾク,0
314,2010401168706,新規,0,2022-07-26,2022-07-26,ＬＵＬＵ　Ｃａｐｉｔａｌ　Ｍａｎａｇｅｍｅｎｔ株式会社,,株式会社,東京都,港区,南青山６丁目２番９号,,13,103,1070062,,,,,,,2022-07-26,1,,,,,ルルキャピタルマネジメント,0
319,2010403028098,新規,0,2022-07-26,2022-07-26,合同会社タンタル７３,,合同会社,東京都,港区,南青山２丁目２番１５号,,13,103,1070062,,,,,,,2022-07-26,1,,,,,タンタルセブンティースリー,0
321,2010405021225,新規,0,2022-07-26,2022-07-26,グルスＭＦ特定目的会社,,その他の設立登記法人,東京都,港区,六本木１丁目９番１０号アークヒルズ仙石山森タワー４０階,,13,103,1060032,,,,,,,2022-07-26,1,,,,,グルスエムエフ,0
324,2010501049153,新規,0,2022-07-26,2022-07-26,株式会社ＴＡＮＧＥＲ,,株式会社,東京都,台東区,台東４丁目３１－１１ＡＬビル,,13,106,1100016,,,,,,,2022-07-26,1,,,,,タンジェ,0
325,2010501049161,新規,0,2022-07-26,2022-07-26,株式会社ドレスホーム,,株式会社,東京都,台東区,上野３丁目１４番２号,,13,106,1100005,,,,,,,2022-07-26,1,,,,,ドレスホーム,0
341,2011001148841,新規,0,2022-07-26,2022-07-26,自主管理株式会社,,株式会社,東京都,目黒区,中目黒３丁目５番１号中目黒プレアタワー３階,,13,110,1530061,,,,,,,2022-07-26,1,,,,,ジシュカンリ,0
345,2011401024428,新規,0,2022-07-26,2022-07-26,株式会社チャントーヤ,,株式会社,東京都,板橋区,大山町２４番１４号,,13,119,1730023,,,,,,,2022-07-26,1,,,,,チャントーヤ,0
349,2011701025480,新規,0,2022-07-26,2022-07-26,株式会社光龍,,株式会社,東京都,江戸川区,東葛西９丁目１２番４号ホライゾンＩＩ１０１,00127326,13,123,1340084,,,,,,,2022-07-26,1,,,,,コウリュウ,0
350,2011803005190,新規,0,2022-07-26,2022-07-26,合同会社インファー,,合同会社,東京都,足立区,綾瀬３丁目２４番１７号,,13,121,1200005,,,,,,,2022-07-26,1,,,,,インファー,0
351,2012401039465,新規,0,2022-07-26,2022-07-26,株式会社ＭＯＫＵＲＵ,,株式会社,東京都,調布市,多摩川３丁目２８番地２１,,13,208,1820025,,,,,,,2022-07-26,1,,,,,モクル,0
353,2012803002847,新規,0,2022-07-26,2022-07-26,合同会社ＭＥＩＷＡトランスポート,,合同会社,東京都,日野市,南平６丁目１２番地の２９なんぺい荘１０６,,13,212,1910041,,,,,,,2022-07-26,1,,,,,メイワトランスポート,0
364,2020001147423,新規,0,2022-07-26,2022-07-26,東信株式会社,,株式会社,神奈川県,川崎市川崎区,本町２丁目１０番地１４川崎ダイカンプラザＣｉｔｙ３０３号室,,14,131,2100001,,,,,,,2022-07-26,1,,,,,トウシン,0
365,2020001147448,新規,0,2022-07-26,2022-07-26,株式会社ＫＥＳＳＡＩ,,株式会社,神奈川県,横浜市保土ケ谷区,新井町４０８番地１、２０１号,,14,106,2400053,,,,,,,2022-07-26,1,,,,,ケッサイ,0
367,2020003022112,新規,0,2022-07-26,2022-07-26,合同会社ＫＮＯＣＫ　ＫＮＯＣＫ,,合同会社,神奈川県,横浜市青葉区,市ケ尾町１６３３番地１３,,14,117,2250024,,,,,,,2022-07-26,1,,,,,ノックノック,0
370,2021001076579,新規,0,2022-07-26,2022-07-26,株式会社湘南ＭＡＮＡ　ＤＩＮＩＮＧ,,株式会社,神奈川県,茅ヶ崎市,幸町２０番１号,,14,207,2530052,,,,,,,2022-07-26,1,,,,,ショウナンマナダイニング,0
372,2021003011971,新規,0,2022-07-26,2022-07-26,合同会社アマテラス,,合同会社,神奈川県,相模原市南区,上鶴間本町８丁目５７番１１号,,14,153,2520318,,,,,,,2022-07-26,1,,,,,アマテラス,0
395,2070001039475,新規,0,2022-07-26,2022-07-26,近代トラスト株式会社,,株式会社,群馬県,吾妻郡草津町,大字草津２３番地７,,10,426,3771711,,,,,,,2022-07-26,1,,,,,キンダイトラスト,0
396,2070003004568,新規,0,2022-07-26,2022-07-26,合同会社ＡＯＤ,,合同会社,群馬県,前橋市,下佐鳥町２９２番地４,,10,201,3710815,,,,,,,2022-07-26,1,,,,,エーオーディー,0
399,2080403004588,新規,0,2022-07-26,2022-07-26,ＤＩＡＮＡ合同会社,,合同会社,静岡県,掛川市,千浜５６１８番地の１コーポ大松１０１,,22,213,4371412,,,,,,,2022-07-26,1,,,,,ディアーナ,0
402,2100001035553,新規,0,2022-07-26,2022-07-26,ＲＯＣＫＳ株式会社,,株式会社,長野県,北佐久郡軽井沢町,大字追分１３７２番地６,,20,321,3890115,,,,,,,2022-07-26,1,,,,,ロックス,0
404,2100003006635,新規,0,2022-07-26,2022-07-26,合同会社こむぎ,,合同会社,長野県,木曽郡木曽町,日義１７４４番地１２,,20,432,3996101,,,,,,,2022-07-26,1,,,,,コムギ,0
414,2120001247543,新規,0,2022-07-26,2022-07-26,ＴＩＭＩ株式会社,,株式会社,大阪府,大阪市浪速区,戎本町１丁目８－３１－１０１,,27,111,5560013,,,,,,,2022-07-26,1,,,,,ティミー,0
415,2120001247576,新規,0,2022-07-26,2022-07-26,子＿株式会社,00127307,株式会社,大阪府,大阪市東成区,深江北３丁目４番２１号エクラ深江橋３０６Ａ,,27,115,5370001,,,,,,,2022-07-26,1,,,,,シフウ,0
416,2120001247601,新規,0,2022-07-26,2022-07-26,ＴＷ＆Ｃ株式会社,,株式会社,大阪府,大阪市北区,豊崎３丁目１５番５号ＴＫビル２Ｆ,,27,127,5310072,,,,,,,2022-07-26,1,,,,,ティーダブルアンドシー,0
417,2120001247626,新規,0,2022-07-26,2022-07-26,彦恒株式会社,,株式会社,大阪府,大阪市淀川区,新高５丁目４番３３号,,27,123,5320033,,,,,,,2022-07-26,1,,,,,ゲンコウ,0
418,2120001247642,新規,0,2022-07-26,2022-07-26,ＤＺ株式会社,,株式会社,大阪府,大阪市西成区,天下茶屋１丁目１－１６－２０１,,27,122,5570014,,,,,,,2022-07-26,1,,,,,ディズ,0
419,2120001247650,新規,0,2022-07-26,2022-07-26,株式会社ＣＡＢ,,株式会社,大阪府,大阪市中央区,北久宝寺町２丁目６番１０－１５０６号,,27,128,5410057,,,,,,,2022-07-26,1,,,,,キャブ,0
420,2120001247683,新規,0,2022-07-26,2022-07-26,株式会社ＰＩＡＡ　ＰＬＵＳ,,株式会社,大阪府,大阪市浪速区,難波中１丁目４番１５号,,27,111,5560011,,,,,,,2022-07-26,1,,,,,ピアプラス,0
424,2120005023107,新規,0,2022-07-26,2022-07-26,医療法人秀孝会,,その他の設立登記法人,大阪府,大阪市旭区,千林２丁目９番２１号パンプキンハウス１階,,27,117,5350012,,,,,,,2022-07-26,1,,,,,シュウコウカイ,0
428,2122003002380,新規,0,2022-07-26,2022-07-26,ＮＩＬＩＮＤ　ＨＯＬＤＩＮＧＳ合同会社,,合同会社,大阪府,東大阪市,加納６丁目１５番８号,,27,227,5780901,,,,,,,2022-07-26,1,,,,,ニリンドホールディングス,0
444,2150003002737,新規,0,2022-07-26,2022-07-26,合同会社凪,,合同会社,奈良県,奈良市,尼辻北町９番４５－１０６号,00127308,29,201,6308025,,,,,,,2022-07-26,1,,,,,ナギ,0
459,2180001152317,新規,0,2022-07-26,2022-07-26,株式会社ゴールドセキュリティ,,株式会社,愛知県,名古屋市千種区,仲田２丁目１７番２１号ＢＢ池下ビル２階２Ｆ号室,,23,101,4640074,,,,,,,2022-07-26,1,,,,,ゴールドセキュリティ,0
460,2180001152333,新規,0,2022-07-26,2022-07-26,株式会社ホロムアクリエイト,,株式会社,愛知県,日進市,米野木町宮前３６番地５,,23,230,4700111,,,,,,,2022-07-26,1,,,,,ホロムアクリエイト,0
466,2180005019867,新規,0,2022-07-26,2022-07-26,一般社団法人ＲＩＮＰＡＫＵ,,その他の設立登記法人,愛知県,名古屋市西区,幅下２丁目１６番２号,,23,104,4510041,,,,,,,2022-07-26,1,,,,,リンパク,0
470,2180301036475,新規,0,2022-07-26,2022-07-26,株式会社桜興業,,株式会社,愛知県,豊橋市,王ケ崎町字宮脇７番地４（１０２）,,23,201,4418066,,,,,,,2022-07-26,1,,,,,サクラコウギョウ,0
473,2180303005404,新規,0,2022-07-26,2022-07-26,タカナミ管理合同会社,,合同会社,愛知県,豊田市,朝日ケ丘２丁目３番地１ライオンズヒルズ豊田９０１号,,23,211,4710858,,,,,,,2022-07-26,1,,,,,タカナミカンリ,0
477,2210001019017,新規,0,2022-07-26,2022-07-26,大手門物産株式会社,,株式会社,福井県,福井市,大手３丁目１番１３号大手門ビル７Ｆ,,18,201,9100005,,,,,,,2022-07-26,1,,,,,オオテモンブッサン,0
485,2240001060125,新規,0,2022-07-26,2022-07-26,株式会社Ｌａ　ｎｏｂｌｅ,,株式会社,広島県,広島市中区,立町１番２６号,,34,101,7300032,,,,,,,2022-07-26,1,,,,,ラノーブル,0
493,2280003001635,新規,0,2022-07-26,2022-07-26,合同会社いまだや,,合同会社,島根県,浜田市,金城町七条イ６０９番地,,32,202,6970123,,,,,,,2022-07-26,1,,,,,イマダヤ,0
496,2290001098367,新規,0,2022-07-26,2022-07-26,株式会社ＫＫ,,株式会社,福岡県,福岡市早良区,四箇田団地４０番４０３号,,40,137,8140176,,,,,,,2022-07-26,1,,,,,ケーケー,0
497,2290001098391,新規,0,2022-07-26,2022-07-26,株式会社コバレイト,,株式会社,福岡県,福岡市城南区,樋井川２丁目２番５－６０３号,,40,136,8140153,,,,,,,2022-07-26,1,,,,,コバレイト,0
499,2290003012771,新規,0,2022-07-26,2022-07-26,合同会社ピーススタッフ笹丘,,合同会社,福岡県,福岡市中央区,大名１丁目９番５２号,,40,133,8100041,,,,,,,2022-07-26,1,,,,,ピーススタッフササオカ,0
502,2310005008625,新規,0,2022-07-26,2022-07-26,ＮＰＯ法人環観プロジェクト,,その他の設立登記法人,長崎県,長崎市,鍛冶屋町６番３号,,42,201,8500831,,,,,,,2022-07-26,1,,,,,カンカンプロジェクト,0
503,2320001019229,新規,0,2022-07-26,2022-07-26,株式会社Ｆｒｏｍ　ｏｎｅ,,株式会社,大分県,大分市,元町１６番１７号,,44,201,8700843,,,,,,,2022-07-26,1,,,,,フロムワン,0
506,2330001029953,新規,0,2022-07-26,2022-07-26,株式会社吉岡建築板金,,株式会社,熊本県,熊本市東区,下江津８丁目８番５－１０２号,,43,102,8620960,,,,,,,2022-07-26,1,,,,,ヨシオカケンチクバンキン,0
513,2370001048842,新規,0,2022-07-26,2022-07-26,株式会社潤板金,,株式会社,宮城県,白石市,鷹巣東４丁目５番３６号,,04,206,9890218,,,,,,,2022-07-26,1,,,,,ジュンバンキン,0
525,2460001005719,新規,0,2022-07-26,2022-07-26,株式会社ＬＩＶＥＳＴＯＣＫ　ＩＮＮＯＶＡＴＩＯＮ,,株式会社,北海道,阿寒郡鶴居村,鶴居西２丁目４番地１,,01,667,0851203,,,,,,,2022-07-26,1,,,,,ライブストックイノベーション,0
526,2470003002218,新規,0,2022-07-26,2022-07-26,合同会社讃岐輪業,,合同会社,香川県,観音寺市,南町１丁目７番８号,,37,205,7680070,,,,,,,2022-07-26,1,,,,,サヌキリンギョウ,0
527,2480001011806,新規,0,2022-07-26,2022-07-26,株式会社Ｑｕｅｅｎ,,株式会社,徳島県,徳島市,川内町上別宮北５１番地１スカイステージ,,36,201,7710128,,,,,,,2022-07-26,1,,,,,クイーン,0
541,3010003038232,新規,0,2022-07-26,2022-07-26,合同会社ワールドピース,,合同会社,東京都,中央区,勝どき１丁目１３番６号プラザタワー勝どき３１１４,,13,102,1040054,,,,,,,2022-07-26,1,,,,,ワールドピース,0
542,3010003038240,新規,0,2022-07-26,2022-07-26,さくらニューエナジー合同会社,,合同会社,東京都,千代田区,神田猿楽町２丁目２番７号第二浦野ビル３階,,13,101,1010064,,,,,,,2022-07-26,1,,,,,サクラニューエナジー,0
546,3010401168655,新規,0,2022-07-26,2022-07-26,株式会社黒餅,,株式会社,東京都,港区,浜松町２丁目２番１５号浜松町ダイヤビル２階,,13,103,1050013,,,,,,,2022-07-26,1,,,,,コクモチ,0
547,3010401168738,新規,0,2022-07-26,2022-07-26,株式会社ダイヤモンドリーガル・ジャパン,,株式会社,東京都,港区,赤坂１丁目３番５号赤坂アビタシオン８階,,13,103,1070052,,,,,,,2022-07-26,1,,,,,ダイヤモンドリーガルジャパン,0
548,3010401168754,新規,0,2022-07-26,2022-07-26,株式会社逸品開発,,株式会社,東京都,港区,六本木１丁目３番２０号,,13,103,1060032,,,,,,,2022-07-26,1,,,,,イッピンカイハツ,0
556,3010501049160,新規,0,2022-07-26,2022-07-26,株式会社山杉,,株式会社,東京都,台東区,三ノ輪２丁目３番８－３０２号,,13,106,1100011,,,,,,,2022-07-26,1,,,,,ヤマスギ,0
563,3010801033145,新規,0,2022-07-26,2022-07-26,株式会社ＢｉＧｉｓｌａｎｄ,,株式会社,東京都,大田区,中馬込２丁目１０番６号,,13,111,1430027,,,,,,,2022-07-26,1,,,,,ビギランド,0
587,3011603003658,新規,0,2022-07-26,2022-07-26,合同会社キョウケイ,,合同会社,東京都,練馬区,富士見台４丁目２６番１６号,,13,120,1770034,,,,,,,2022-07-26,1,,,,,キョウケイ,0
589,3011801041039,新規,0,2022-07-26,2022-07-26,株式会社プーロ,,株式会社,東京都,葛飾区,金町３丁目１４番６号,,13,122,1250042,,,,,,,2022-07-26,1,,,,,プーロ,0
590,3011801041047,新規,0,2022-07-26,2022-07-26,株式会社ＧＯＺＵ研究室,,株式会社,東京都,足立区,弘道１丁目２２番３号ホザナハイツ１Ｆ,,13,121,1200013,,,,,,,2022-07-26,1,,,,,ゴウヅケンキュウシツ,0
591,3012301013081,新規,0,2022-07-26,2022-07-26,株式会社山本製作所,,株式会社,東京都,町田市,常盤町３０７７番地７,,13,209,1940213,,,,,,,2022-07-26,1,,,,,ヤマモトセイサクショ,0
595,3012703002500,新規,0,2022-07-26,2022-07-26,アクミル合同会社,,合同会社,東京都,小平市,上水本町６丁目１０番２７号,,13,211,1870022,,,,,,,2022-07-26,1,,,,,アクミル,0
601,3012803002846,新規,0,2022-07-26,2022-07-26,合同会社Ｋｕｎｉｔａｃｈｉ　Ｒｏｏｍｓ,,合同会社,東京都,国立市,東２丁目１４番地の１１,,13,215,1860002,,,,,,,2022-07-26,1,,,,,クニタチルームズ,0
613,3020001147447,新規,0,2022-07-26,2022-07-26,株式会社ツジムラ環境ソリューション,,株式会社,神奈川県,横浜市西区,岡野１丁目１８番４号,,14,103,2200073,,,,,,,2022-07-26,1,,,,,ツジムラカンキョウソリューション,0
614,3020001147463,新規,0,2022-07-26,2022-07-26,株式会社Ｐａｌｅｔｔｅ,,株式会社,神奈川県,横浜市中区,長者町６丁目１１１番地ｅｘｃｅｌｌｅｎｔ８ビル６階,,14,104,2310033,,,,,,,2022-07-26,1,,,,,パレット,0
615,3020001147513,新規,0,2022-07-26,2022-07-26,株式会社ＨＭコーポレーション,,株式会社,神奈川県,横浜市中区,本牧和田１３番１７号,,14,104,2310827,,,,,,,2022-07-26,1,,,,,エイチエムコーポレーション,0
661,3040001124345,新規,0,2022-07-26,2022-07-26,日興金属株式会社,,株式会社,千葉県,四街道市,鹿放ケ丘４１４番地１,,12,228,2840008,,,,,,,2022-07-26,1,,,,,ニッコウキンゾク,0
662,3040001124386,新規,0,2022-07-26,2022-07-26,株式会社Ｋ＆Ｒ,,株式会社,千葉県,流山市,平和台４丁目７６番地の２８,,12,220,2700157,,,,,,,2022-07-26,1,,,,,ケーアンドアール,0
663,3040001124411,新規,0,2022-07-26,2022-07-26,株式会社ＳＡＫＵＭＡ,,株式会社,千葉県,印旛郡栄町,竜角寺台５丁目２３番１号,,12,329,2701505,,,,,,,2022-07-26,1,,,,,サクマ,0
666,3060001035103,新規,0,2022-07-26,2022-07-26,株式会社スタカル,,株式会社,栃木県,宇都宮市,雀の宮１丁目６番１号パインハウスＩＩ２０３,00127312,09,201,3210132,,,,,,,2022-07-26,1,,,,,スタカル,0
670,3070001039474,新規,0,2022-07-26,2022-07-26,株式会社熱龍,,株式会社,群馬県,伊勢崎市,東小保方町３１３６番地１２,,10,204,3792234,,,,,,,2022-07-26,1,,,,,ネツタツ,0
679,3100001035552,新規,0,2022-07-26,2022-07-26,株式会社ビルケンコミュニケーションズ,,株式会社,長野県,茅野市,北山字中笹３４１１番地８４,,20,214,3910301,,,,,,,2022-07-26,1,,,,,ビルケンコミュニケーションズ,0
692,3120001247550,新規,0,2022-07-26,2022-07-26,ＣＯＳＭＯ株式会社,,株式会社,大阪府,大阪市東成区,深江北３丁目４番２１号エクラ深江橋３０６Ｂ,,27,115,5370001,,,,,,,2022-07-26,1,,,,,コスモ,0
693,3120001247583,新規,0,2022-07-26,2022-07-26,ＪＩＮＧ株式会社,,株式会社,大阪府,大阪市中央区,北久宝寺町１丁目５番６号堺筋本町アーバンライフ５０５号室,,27,128,5410057,,,,,,,2022-07-26,1,,,,,ジング,0
694,3120001247600,新規,0,2022-07-26,2022-07-26,株式会社トライウィル,,株式会社,大阪府,大阪市西区,新町１丁目７番３号,,27,106,5500013,,,,,,,2022-07-26,1,,,,,トライウィル,0
696,3120003022159,新規,0,2022-07-26,2022-07-26,合同会社Ｔｒｉａｎｇｌｅ,,合同会社,大阪府,大阪市住吉区,沢之町１丁目１番２６号,,27,120,5580031,,,,,,,2022-07-26,1,,,,,トライアングル,0
697,3120005023106,新規,0,2022-07-26,2022-07-26,医療法人結今里会,,その他の設立登記法人,大阪府,大阪市生野区,新今里６丁目５番５号,,27,116,5440001,,,,,,,2022-07-26,1,,,,,ユイイマザトカイ,0
698,3120101020700,新規,0,2022-07-26,2022-07-26,山定産業株式会社,,株式会社,大阪府,堺市東区,日置荘西町７丁１３番２１号,,27,143,5998114,,,,,,,2022-07-26,1,,,,,ヤマサダサンギョウ,0
699,3120101021830,新規,0,2022-07-26,2022-07-26,山定倉庫株式会社,,株式会社,大阪府,堺市美原区,北余部３００番地,,27,147,5870051,,,,,,,2022-07-26,1,,,,,,0
706,3120901046291,新規,0,2022-07-26,2022-07-26,野本地所株式会社,,株式会社,大阪府,茨木市,玉瀬町３０番２３号,,27,211,5670893,,,,,,,2022-07-26,1,,,,,ノモトジショ,0
713,3130001072312,新規,0,2022-07-26,2022-07-26,株式会社ＨＡＮＡｒｅａｌｔｙ,,株式会社,京都府,京田辺市,東西神屋３０番地７,,26,211,6100362,,,,,,,2022-07-26,1,,,,,ハナリアルティ,0
719,3140005026255,新規,0,2022-07-26,2022-07-26,一般社団法人以徳舎,,その他の設立登記法人,兵庫県,西宮市,上大市５丁目２８番１９号,,28,204,6638003,,,,,,,2022-07-26,1,,,,,イトクシャ,0
720,3150003002736,新規,0,2022-07-26,2022-07-26,合同会社Ｓ＆Ｍ,,合同会社,奈良県,天理市,田井庄町５２９番地６,,29,204,6320071,,,,,,,2022-07-26,1,,,,,エスアンドエム,0
721,3160003002636,新規,0,2022-07-26,2022-07-26,ｃｏｌｏｒｂｉｒｄｓ合同会社,,合同会社,滋賀県,大津市,穴太２丁目７番１０号,,25,201,5200114,,,,,,,2022-07-26,1,,,,,カラーバーズ,0
722,3170001017206,新規,0,2022-07-26,2022-07-26,株式会社Ｍｉｃｃｌｅ,,株式会社,和歌山県,日高郡日高川町,大字小熊字里神２４２９番地１、２Ａ号,,30,392,6491323,,,,,,,2022-07-26,1,,,,,ミックル,0
726,3180001152332,新規,0,2022-07-26,2022-07-26,港トラスト株式会社,,株式会社,愛知県,名古屋市港区,明正２丁目５８番地,,23,111,4550806,,,,,,,2022-07-26,1,,,,,ミナトトラスト,0
727,3180001152357,新規,0,2022-07-26,2022-07-26,株式会社留学サポートステーション,,株式会社,愛知県,名古屋市中区,大須１丁目７番１４号パークＩＭビル,,23,106,4600011,,,,,,,2022-07-26,1,,,,,リュウガクサポートステーション,0
729,3180003024075,新規,0,2022-07-26,2022-07-26,合同会社吉田管理会社,,合同会社,愛知県,春日井市,稲口町１丁目７番地１４,,23,206,4860905,,,,,,,2022-07-26,1,,,,,ヨシダカンリガイシャ,0
730,3180005019866,新規,0,2022-07-26,2022-07-26,アルヴァリンク行政書士法人,,その他の設立登記法人,愛知県,名古屋市中区,丸の内３丁目６－２７ＥＢＳビル５階Ａ１２,,23,106,4600002,,,,,,,2022-07-26,1,,,,,アルヴァリンク,0
732,3180301036466,新規,0,2022-07-26,2022-07-26,株式会社キタノ鉄工所,,株式会社,愛知県,碧南市,札木町１丁目１０番地,,23,209,4470088,,,,,,,2022-07-26,1,,,,,キタノテッコウショ,0
741,3190001029645,新規,0,2022-07-26,2022-07-26,株式会社ＯＺＵＭＯＫＵ,,株式会社,三重県,松阪市,茶与町２３５番地,,24,204,5150077,,,,,,,2022-07-26,1,,,,,オズモク,0
747,3200001040311,新規,0,2022-07-26,2022-07-26,株式会社Ｆｉｅｌｄｓ,,株式会社,岐阜県,関市,山田８６８番地２,,21,205,5013944,,,,,,,2022-07-26,1,,,,,フィールズ,0
760,3240003005721,新規,0,2022-07-26,2022-07-26,合同会社Ｓｈａｌｉｍａｒ,,合同会社,広島県,広島市中区,胡町２－２５アクロスビル２０５,,34,101,7300021,,,,,,,2022-07-26,1,,,,,シャリマ,0
762,3260001037070,新規,0,2022-07-26,2022-07-26,トリプルテクノ株式会社,,株式会社,岡山県,岡山市北区,今４丁目８番１８号,,33,101,7000975,,,,,,,2022-07-26,1,,,,,トリプルテクノ,0
763,3260001037079,新規,0,2022-07-26,2022-07-26,ＣＯＴＴＬＥ株式会社,,株式会社,岡山県,倉敷市,児島田の口４丁目２番４６号,,33,202,7110903,,,,,,,2022-07-26,1,,,,,コトル,0
775,3290001098366,新規,0,2022-07-26,2022-07-26,株式会社アプライズソリューション,,株式会社,福岡県,筑紫野市,二日市北７丁目９－３１－１０２号,,40,217,8180056,,,,,,,2022-07-26,1,,,,,アプライズソリューション,0
781,3290801028753,新規,0,2022-07-26,2022-07-26,ひびき灘海運株式会社,,株式会社,福岡県,北九州市若松区,北浜１丁目７番２－１号,,40,103,8080023,,,,,,,2022-07-26,1,,,,,ヒビキナダカイウン,0
792,3360001030734,新規,0,2022-07-26,2022-07-26,株式会社ワープル,,株式会社,沖縄県,那覇市,久茂地２丁目２番２号タイムスビル店２階,,47,201,9000015,,,,,,,2022-07-26,1,,,,,,0
794,3370001048841,新規,0,2022-07-26,2022-07-26,株式会社ハウスサポート,,株式会社,宮城県,仙台市太白区,八木山本町１丁目６－１８－１０３,,04,104,9820801,,,,,,,2022-07-26,1,,,,,ハウスサポート,0
795,3370001048858,新規,0,2022-07-26,2022-07-26,Ｒｏｍａｎｔｉｃ　Ｉｒｏｎｙ株式会社,,株式会社,宮城県,宮城郡松島町,松島字町内９８番地の１０,,04,401,9810213,,,,,,,2022-07-26,1,,,,,ロマンチックアイロニー,0
797,3380001033009,新規,0,2022-07-26,2022-07-26,株式会社ａｔ　ＡＵＴＯ,,株式会社,福島県,郡山市,桑野２丁目３７ー２１板垣ビル２０１,,07,203,9638025,,,,,,,2022-07-26,1,,,,,アットオート,0
812,3430003014133,新規,0,2022-07-26,2022-07-26,合同会社ビーユニット,,合同会社,北海道,札幌市中央区,南十三条西１３丁目２番－３８アルピナハイム３０２号,,01,101,0640913,,,,,,,2022-07-26,1,,,,,ビーユニット,0
814,3480001011805,新規,0,2022-07-26,2022-07-26,株式会社ＺＥＮ　ｓａｌｅｓ　ｐｒｏｍｏｔｉｏｎ,,株式会社,徳島県,徳島市,幸町３丁目１０１番地アネックスビル２Ｆ,,36,201,7700847,,,,,,,2022-07-26,1,,,,,ゼンセールスプロモーション,0
815,3700150110979,新規,0,2022-07-26,2022-07-26,Ｓｐｒｉｎｇ　ｗｏｏｄ　Ｃｏｎｓｔｒｕｃｔｉｏｎ,,外国会社等,千葉県,八街市,榎戸２６２－１－２,,12,230,2891106,スリランカ民主社会主義共和国、ペーラディニヤ、ニンランベ、ワリーエガラＮｏ．２８２,,,,,,2022-07-26,1,,,,,スプリングウツドコンストラクシヨン,0
816,3700150110987,新規,0,2022-07-26,2022-07-26,Ｅ　Ｍ　Ｃ　Ｏ　ＴＲＡＤＩＮＧ,,外国会社等,千葉県,八街市,東吉田７２５番地オフィス１６号,,12,230,2891114,スリランカ民主社会主義共和国、ネゴンボ、ペリヤムッラ、ジュンママスジスロード、１０２－Ａ,,,,,,2022-07-26,1,,,,,イーエムシーオートレーデイング,0
826,4010001228362,新規,0,2022-07-26,2022-07-26,株式会社ラセン,,株式会社,東京都,千代田区,平河町２丁目４番８号平河町アーバンビル５Ｆ東京ｂｒａｎｃｈ,,13,101,1020093,,,,,,,2022-07-26,1,,,,,ラセン,0
839,4010401168654,新規,0,2022-07-26,2022-07-26,ＤＡＤＡＮ株式会社,,株式会社,東京都,港区,六本木６丁目１１番１号,,13,103,1060032,,,,,,,2022-07-26,1,,,,,ダダン,0
840,4010401168704,新規,0,2022-07-26,2022-07-26,株式会社ＤＸ　Ｓｕｐｐｏｒｔ,,株式会社,東京都,港区,白金台３丁目１９番６号白金台ビル４階,,13,103,1080071,,,,,,,2022-07-26,1,,,,,ディーエックスサポート,0
845,4010403028146,新規,0,2022-07-26,2022-07-26,合同会社ヘルスケアアセットソリューション１号,,合同会社,東京都,港区,港南２丁目１５番３号,,13,103,1080075,,,,,,,2022-07-26,1,,,,,ヘルスケアアセットソリューションイチゴウ,0
847,4010405021173,新規,0,2022-07-26,2022-07-26,一般社団法人グローバルＲＷＥ創出プラットフォーム協議会,,その他の設立登記法人,東京都,港区,虎ノ門５丁目１１番１号オランダヒルズ森タワーＲｏＰ７０４号,,13,103,1050001,,,,,,,2022-07-26,1,,,,,,0
860,4010803004242,新規,0,2022-07-26,2022-07-26,ＡＧＲＡＮ合同会社,,合同会社,東京都,大田区,西蒲田７丁目４番地４号小山第２ビル６Ｆ,,13,111,1440051,,,,,,,2022-07-26,1,,,,,アグラン,0
863,4010903007541,新規,0,2022-07-26,2022-07-26,合同会社Ｔｈｅ　Ｃａｒｐｅｎｔｅｒ＆Ｔｈｅ　Ｓｔｏｎｅ,,合同会社,東京都,世田谷区,深沢８丁目１２番１９号,,13,112,1580081,,,,,,,2022-07-26,1,,,,,ザカーペンターアンドザストーン,0
871,4011001148848,新規,0,2022-07-26,2022-07-26,ＭＩＫ株式会社,,株式会社,東京都,目黒区,鷹番３丁目１９番９－３０５号ドゥーエ学芸大学ＩＩ,00127315,13,110,1520004,,,,,,,2022-07-26,1,,,,,,0
873,4011003015105,新規,0,2022-07-26,2022-07-26,ＰＬＡＮＤＯ合同会社,,合同会社,東京都,渋谷区,神宮前６丁目２３番４号桑野ビル２階,,13,113,1500001,,,,,,,2022-07-26,1,,,,,プランドゥ,0
882,4011401024426,新規,0,2022-07-26,2022-07-26,株式会社ハッピースクエア,,株式会社,東京都,板橋区,徳丸１丁目７番２号グリーンフィールド４０１,,13,119,1750083,,,,,,,2022-07-26,1,,,,,ハッピースクエア,0
884,4011501028310,新規,0,2022-07-26,2022-07-26,Ｎ．Ｄ．Ｐ株式会社,,株式会社,東京都,北区,赤羽２丁目２５番１号,,13,117,1150045,,,,,,,2022-07-26,1,,,,,エヌディーピー,0
886,4011601026123,新規,0,2022-07-26,2022-07-26,株式会社ＫＴＮＫ,,株式会社,東京都,練馬区,関町南４丁目１６番２０号ウエリス武蔵野関町６０１,,13,120,1770053,,,,,,,2022-07-26,1,,,,,ケイティエヌケイ,0
887,4011601026131,新規,0,2022-07-26,2022-07-26,株式会社サンライト,,株式会社,東京都,練馬区,早宮１丁目４４－３５,,13,120,1790085,,,,,,,2022-07-26,1,,,,,サンライト,0
891,4011703003202,新規,0,2022-07-26,2022-07-26,ＨＧＲａｎｄＳ合同会社,,合同会社,東京都,江戸川区,東葛西９丁目３番１４－９０１号,,13,123,1340084,,,,,,,2022-07-26,1,,,,,エイチジーランズ,0
893,4011801041046,新規,0,2022-07-26,2022-07-26,アダチ電機産業株式会社,,株式会社,東京都,足立区,弘道１丁目２２番３号ホザナハイツ１Ｆ,,13,121,1200013,,,,,,,2022-07-26,1,,,,,アダチデンキサンギョウ,0
897,4012401039463,新規,0,2022-07-26,2022-07-26,株式会社南風,,株式会社,東京都,府中市,栄町２丁目２番地の５５,,13,206,1830051,,,,,,,2022-07-26,1,,,,,ミナミカゼ,0
900,4012801021748,新規,0,2022-07-26,2022-07-26,株式会社久保田工業,,株式会社,東京都,東大和市,芋窪４丁目１７９８番地の５,,13,220,2070033,,,,,,,2022-07-26,1,,,,,クボタコウギョウ,0
915,4020001147495,新規,0,2022-07-26,2022-07-26,株式会社蒼天,,株式会社,神奈川県,横浜市戸塚区,東俣野町１０３９番地３,,14,110,2450065,,,,,,,2022-07-26,1,,,,,ソウテン,0
920,4021001076585,新規,0,2022-07-26,2022-07-26,株式会社ＩＷＫ,,株式会社,神奈川県,茅ヶ崎市,浜須賀１５番３号,,14,207,2530035,,,,,,,2022-07-26,1,,,,,アイダブリュケー,0
923,4021003011978,新規,0,2022-07-26,2022-07-26,合同会社Ｂｏｏｔｓｔｒａｐ,,合同会社,神奈川県,藤沢市,湘南台７丁目５０番地の２,,14,205,2520804,,,,,,,2022-07-26,1,,,,,ブートストラップ,0
933,4040003020450,新規,0,2022-07-26,2022-07-26,ＮＴＣ合同会社,,合同会社,千葉県,鎌ケ谷市,南初富２丁目１１－６３ノウムスペースピルム１０３,,12,224,2730123,,,,,,,2022-07-26,1,,,,,エヌティーシー,0
934,4040003020475,新規,0,2022-07-26,2022-07-26,合同会社八福,,合同会社,千葉県,船橋市,前原西７丁目２番１３号ヴィラージュ壱番館２０２,,12,204,2740825,,,,,,,2022-07-26,1,,,,,ハチフク,0
936,4040005021686,新規,0,2022-07-26,2022-07-26,特定非営利活動法人ＬＥＡＲＮＥＲＳ　Ｆｏｏｔｂａｌｌ　ｃｌｕｂ,,その他の設立登記法人,千葉県,習志野市,実籾５丁目５番１６－２０４号,,12,216,2750002,,,,,,,2022-07-26,1,,,,,ラーナーズフットボールクラブ,0
939,4060001035110,新規,0,2022-07-26,2022-07-26,株式会社東方商事,,株式会社,栃木県,真岡市,下籠谷４７７６番地３,,09,209,3214415,,,,,,,2022-07-26,1,,,,,トウホウショウジ,0
940,4070001039473,新規,0,2022-07-26,2022-07-26,佐藤建設コンサルティング株式会社,,株式会社,群馬県,館林市,大島町２３５０番地,,10,207,3740001,,,,,,,2022-07-26,1,,,,,サトウケンセツコンサルティング,0
941,4070003004558,新規,0,2022-07-26,2022-07-26,合同会社ｕｃｈｉｔｏｓｏｔｏ,,合同会社,群馬県,前橋市,南町３丁目５０番２プラザアン２階Ｄ－１３,,10,201,3710805,,,,,,,2022-07-26,1,,,,,ウチトソト,0
944,4080003002841,新規,0,2022-07-26,2022-07-26,合同会社ニゴベアーズ,,合同会社,静岡県,静岡市駿河区,曲金６丁目４－２０タワーザファースト静岡１００５,,22,102,4228006,,,,,,,2022-07-26,1,,,,,ニゴベアーズ,0
950,4080401025972,新規,0,2022-07-26,2022-07-26,株式会社Ｆｒｉｅｎｄｌｙ　Ｊａｐａｎ,,株式会社,静岡県,浜松市東区,大蒲町８３番地の１７,,22,132,4350014,,,,,,,2022-07-26,1,,,,,フレンドリージャパン,0
951,4090001017691,新規,0,2022-07-26,2022-07-26,株式会社山下千秋工業,,株式会社,山梨県,笛吹市,境川町大窪６３６番地１,,19,211,4060855,,,,,,,2022-07-26,1,,,,,ヤマシタセンシュウコウギョウ,0
957,4110001036846,新規,0,2022-07-26,2022-07-26,ＭＯＮＯＧＯＣＯＲＯ株式会社,,株式会社,新潟県,新潟市西区,みずき野１丁目６番１８号,,15,107,9502264,,,,,,,2022-07-26,1,,,,,モノゴコロ,0
965,4120001247558,新規,0,2022-07-26,2022-07-26,神華株式会社,,株式会社,大阪府,大阪市東成区,深江北３丁目４番２１号エクラ深江橋５１１Ｃ,,27,115,5370001,,,,,,,2022-07-26,1,,,,,シンカ,0
966,4120001247582,新規,0,2022-07-26,2022-07-26,碼氏株式会社,,株式会社,大阪府,大阪市東成区,深江北３丁目４番２１号エクラ深江橋５１５Ｃ,,27,115,5370001,,,,,,,2022-07-26,1,,,,,バシ,0
967,4120001247608,新規,0,2022-07-26,2022-07-26,株式会社ダイアグラムアンドカンパニー,,株式会社,大阪府,大阪市浪速区,湊町１丁目３番１号,,27,111,5560017,,,,,,,2022-07-26,1,,,,,ダイアグラムアンドカンパニー,0
968,4120001247649,新規,0,2022-07-26,2022-07-26,瑞康株式会社,,株式会社,大阪府,大阪市中央区,南船場２丁目５番１３号,,27,128,5420081,,,,,,,2022-07-26,1,,,,,ズイコウ,0
972,4120003022158,新規,0,2022-07-26,2022-07-26,Ｅ‐ＦＩＶＥ合同会社,,合同会社,大阪府,大阪市西淀川区,佃１丁目１番７５－１００６号,,27,113,5550001,,,,,,,2022-07-26,1,,,,,イーファイブ,0
973,4120005023105,新規,0,2022-07-26,2022-07-26,医療法人咲真会,,その他の設立登記法人,大阪府,大阪市東成区,東今里３丁目１４番２２号,,27,115,5370011,,,,,,,2022-07-26,1,,,,,サキシンカイ,0
979,4120101065959,新規,0,2022-07-26,2022-07-26,株式会社フィジカルヘルスケア,,株式会社,大阪府,堺市堺区,北田出井町３丁３番１２号,,27,141,5900017,,,,,,,2022-07-26,1,,,,,フィジカルヘルスケア,0
984,4120901046290,新規,0,2022-07-26,2022-07-26,株式会社Ｌｕｃｋ　Ｓｔｒｅａｍ,,株式会社,大阪府,茨木市,庄２丁目２６番２２号,,27,211,5670806,,,,,,,2022-07-26,1,,,,,ラックストリーム,0
985,4120903004247,新規,0,2022-07-26,2022-07-26,合同会社Ｂｅｓｐｏｋｅ,,合同会社,大阪府,吹田市,千里山東１丁目１３番４号,,27,205,5650842,,,,,,,2022-07-26,1,,,,,ビスポーク,0
986,4130001072253,新規,0,2022-07-26,2022-07-26,株式会社ＹＳＪ興業,,株式会社,京都府,京都市伏見区,深草大亀谷東久宝寺町３５番地１カーサアルドーレＩＩ１０２号,00127311,26,109,6120841,,,,,,,2022-07-26,1,,,,,ワイエスジェイコウギョウ,0
1003,4150003002735,新規,0,2022-07-26,2022-07-26,合同会社ココデザイン,,合同会社,奈良県,生駒市,本町２－４,,29,209,6300256,,,,,,,2022-07-26,1,,,,,ココデザイン,0
1012,4180001152307,新規,0,2022-07-26,2022-07-26,株式会社日比住設,,株式会社,愛知県,瀬戸市,若宮町３丁目１１７番地の３,,23,204,4890864,,,,,,,2022-07-26,1,,,,,ヒビジュウセツ,0
1013,4180001152331,新規,0,2022-07-26,2022-07-26,株式会社クロゼット,,株式会社,愛知県,名古屋市中区,栄３丁目１５番４号,,23,106,4600008,,,,,,,2022-07-26,1,,,,,クロゼット,0
1016,4180003024074,新規,0,2022-07-26,2022-07-26,菅原つばめ不動産合同会社,,合同会社,愛知県,名古屋市守山区,東山町１６番２号アルカディア東山１０１号,,23,113,4630061,,,,,,,2022-07-26,1,,,,,スガワラツバメフドウサン,0
1018,4180301036465,新規,0,2022-07-26,2022-07-26,ＨＹネクスト株式会社,,株式会社,愛知県,岡崎市,日名西町４番地２１,,23,202,4440917,,,,,,,2022-07-26,1,,,,,エイチワイネクスト,0
1022,4190001029644,新規,0,2022-07-26,2022-07-26,株式会社興和,,株式会社,三重県,津市,美杉町奥津２１４９番地,,24,201,5153531,,,,,,,2022-07-26,1,,,,,コウワ,0
1029,4210001019015,新規,0,2022-07-26,2022-07-26,株式会社Ｆｏｏｄｉｎｎｏ,,株式会社,福井県,福井市,新田塚２丁目１２２番１９号,,18,201,9100067,,,,,,,2022-07-26,1,,,,,フーディーノ,0
1030,4210003001540,新規,0,2022-07-26,2022-07-26,Ｆａｎｄｙ合同会社,,合同会社,福井県,鯖江市,舟津町５丁目１―２―２０,,18,207,9160054,,,,,,,2022-07-26,1,,,,,ファンディー,0
1042,4240001060131,新規,0,2022-07-26,2022-07-26,株式会社ＮＥＸＴ　ＬＩＦＥ,,株式会社,広島県,広島市中区,西平塚町６番５－４０２号セピア西平塚,,34,101,7300024,,,,,,,2022-07-26,1,,,,,ネクストライフ,0
1044,4240003005729,新規,0,2022-07-26,2022-07-26,Ｌｅｖ　ＳｔｏＲｅｎｇｅ合同会社,,合同会社,広島県,広島市安佐南区,八木８丁目１１番３－７０２号,,34,105,7310101,,,,,,,2022-07-26,1,,,,,レブストレンジ,0
1045,4250003003120,新規,0,2022-07-26,2022-07-26,合同会社エムケイティー,,合同会社,山口県,山陽小野田市,大字山川１３２９番地２５,,35,216,7570004,,,,,,,2022-07-26,1,,,,,エムケイティー,0
1053,4290001098365,新規,0,2022-07-26,2022-07-26,株式会社ａｉＥＳＧ,,株式会社,福岡県,福岡市西区,西都１丁目７番５－３０１号モントーレ九大学研都市駅前クレール棟,,40,135,8190367,,,,,,,2022-07-26,1,,,,,アイエスジー,0
1054,4290001098373,新規,0,2022-07-26,2022-07-26,株式会社旭創,,株式会社,福岡県,福岡市早良区,四箇２丁目４番６－２号,,40,137,8111103,,,,,,,2022-07-26,1,,,,,キョクソウ,0
1062,4320001019235,新規,0,2022-07-26,2022-07-26,株式会社リノプランニング,,株式会社,大分県,大分市,大字三佐２１５６番地３,,44,201,8700108,,,,,,,2022-07-26,1,,,,,リノプランニング,0
1063,4320003003864,新規,0,2022-07-26,2022-07-26,合同会社おーるのっと,,合同会社,大分県,速見郡日出町,大字藤原２４２３番地３サニーコートふじわらＩＩ２０２,00127325,44,341,8791502,,,,,,,2022-07-26,1,,,,,オールノット,0
1069,4360001030725,新規,0,2022-07-26,2022-07-26,株式会社Ｈｅｒａ　Ｈ,,株式会社,沖縄県,那覇市,曙２丁目１０番１９－１Ｆ,,47,201,9000002,,,,,,,2022-07-26,1,,,,,ヘラエイチ,0
1070,4370001048824,新規,0,2022-07-26,2022-07-26,株式会社遠大不動産,,株式会社,宮城県,仙台市泉区,八乙女３丁目６番地の２,,04,105,9813112,,,,,,,2022-07-26,1,,,,,エンダイフドウサン,0
1071,4370001048857,新規,0,2022-07-26,2022-07-26,株式会社ラフィン賃貸保証,,株式会社,宮城県,仙台市青葉区,二日町１７番１９号,,04,101,9800802,,,,,,,2022-07-26,1,,,,,ラフィンチンタイホショウ,0
1074,4390001016977,新規,0,2022-07-26,2022-07-26,マウンテンブロッカー株式会社,,株式会社,山形県,山形市,荒楯町２丁目３番２号コーポサンフローラ２０１号,,06,201,9902432,,,,,,,2022-07-26,1,,,,,マウンテンブロッカー,0
1086,4480001011804,新規,0,2022-07-26,2022-07-26,株式会社ＪＡ大津松茂アグリサポート,,株式会社,徳島県,板野郡松茂町,広島字壱番越２番地１,,36,401,7710220,,,,,,,2022-07-26,1,,,,,ジェイエイオオツマツシゲアグリサポート,0
1092,4700150110986,新規,0,2022-07-26,2022-07-26,Ｌｉｂｅｒｔｙ　Ａｕｔｏ　Ｐｒｏｄｕｃｔｉｏｎ,,外国会社等,千葉県,八街市,大木８１３－３９－２－Ｂ,,12,230,2891111,スリランカ民主社会主義共和国、ヒングラコダ、ヤティヤルパタナ、Ｎｏ．１２／Ａ,,,,,,2022-07-26,1,,,,,リバテイオートプロダクシヨン,0
1102,5010001228262,新規,0,2022-07-26,2022-07-26,Ｔ＆Ｍコーポレーション株式会社,,株式会社,東京都,中央区,晴海１丁目８番１１号トリトンスクエアＹ棟３６階,,13,102,1040053,,,,,,,2022-07-26,1,,,,,ティーアンドエムコーポレーション,0
1103,5010001228270,新規,0,2022-07-26,2022-07-26,Ｑｏｏｋｋａエンタテインメント株式会社,,株式会社,東京都,中央区,京橋２丁目２番１号京橋エドグラン２７階,,13,102,1040031,,,,,,,2022-07-26,1,,,,,クーカエンタテインメント,0
1111,5010003038239,新規,0,2022-07-26,2022-07-26,合同会社流水,,合同会社,東京都,中央区,銀座１丁目２２番１１号銀座大竹ビジデンス２階,,13,102,1040061,,,,,,,2022-07-26,1,,,,,リュウスイ,0
1113,5010005035291,新規,0,2022-07-26,2022-07-26,一般社団法人Ｍ,,その他の設立登記法人,東京都,中央区,銀座７丁目２番２２号,,13,102,1040061,,,,,,,2022-07-26,1,,,,,,0
1116,5010401168513,新規,0,2022-07-26,2022-07-26,株式会社ＬＩＮＫ,,株式会社,東京都,港区,南青山２丁目２－１５,,13,103,1070062,,,,,,,2022-07-26,1,,,,,リンク,0
1117,5010401168694,新規,0,2022-07-26,2022-07-26,株式会社リューエ,,株式会社,東京都,港区,三田１丁目３番４０号,,13,103,1080073,,,,,,,2022-07-26,1,,,,,リューエ,0
1118,5010401168752,新規,0,2022-07-26,2022-07-26,ＬＥＴ株式会社,,株式会社,東京都,港区,新橋５丁目２３番１０号片山ビル６階,,13,103,1050004,,,,,,,2022-07-26,1,,,,,エルイーティー,0
1124,5010501049159,新規,0,2022-07-26,2022-07-26,ＲＯＮＧ株式会社,,株式会社,東京都,台東区,三ノ輪２丁目３番８－３０３号,,13,106,1100011,,,,,,,2022-07-26,1,,,,,ロング,0
1126,5010603009647,新規,0,2022-07-26,2022-07-26,バナナプロパティ合同会社,,合同会社,東京都,墨田区,江東橋５丁目６番１３－４０８号,,13,107,1300022,,,,,,,2022-07-26,1,,,,,バナナプロパティ,0
1149,5011201023981,新規,0,2022-07-26,2022-07-26,株式会社３．,,株式会社,東京都,中野区,南台４丁目６５－６,,13,114,1640014,,,,,,,2022-07-26,1,,,,,スリーポイント,0
1157,5012401039462,新規,0,2022-07-26,2022-07-26,株式会社イェーガー,,株式会社,東京都,小金井市,本町１丁目１３番１３号,,13,210,1840004,,,,,,,2022-07-26,1,,,,,イェーガー,0
1174,5020003022084,新規,0,2022-07-26,2022-07-26,合同会社Ｍコーポレーション,,合同会社,神奈川県,横浜市鶴見区,生麦５丁目２４－１５福美荘,,14,101,2300052,,,,,,,2022-07-26,1,,,,,エムコーポレーション,0
1194,5040001124384,新規,0,2022-07-26,2022-07-26,株式会社リンク,,株式会社,千葉県,佐倉市,宮ノ台５丁目２２番９号,,12,212,2850857,,,,,,,2022-07-26,1,,,,,リンク,0
1195,5040001124401,新規,0,2022-07-26,2022-07-26,株式会社東開,,株式会社,千葉県,佐倉市,上座５５６番地４０,,12,212,2850854,,,,,,,2022-07-26,1,,,,,トウカイ,0
1202,5050003006720,新規,0,2022-07-26,2022-07-26,ＳＳＣ合同会社,,合同会社,茨城県,守谷市,中央４丁目２－４,,08,224,3020115,,,,,,,2022-07-26,1,,,,,エスエスシー,0
1212,5080101023441,新規,0,2022-07-26,2022-07-26,株式会社サンパイプ,,株式会社,静岡県,伊豆の国市,吉田５４５番地の１３,,22,225,4102322,,,,,,,2022-07-26,1,,,,,サンパイプ,0
1214,5080401025971,新規,0,2022-07-26,2022-07-26,オーク不動産株式会社,,株式会社,静岡県,浜松市東区,安間町５３０番地の１,,22,132,4350012,,,,,,,2022-07-26,1,,,,,オークフドウサン,0
1226,5110001036845,新規,0,2022-07-26,2022-07-26,クリエス株式会社,,株式会社,新潟県,新潟市中央区,女池２丁目２番２５号,,15,103,9500941,,,,,,,2022-07-26,1,,,,,クリエス,0
1229,5110003004825,新規,0,2022-07-26,2022-07-26,合同会社命美,,合同会社,新潟県,新潟市西区,寺尾北１丁目１２－５０,,15,107,9502061,,,,,,,2022-07-26,1,,,,,ナルミ,0
1230,5110005016835,新規,0,2022-07-26,2022-07-26,一般社団法人新潟医師ワークライフ協議会,,その他の設立登記法人,新潟県,新潟市中央区,月町１９８８番地フレンディビル５０１号,,15,103,9518057,,,,,,,2022-07-26,1,,,,,ニイガタイシライフワークキョウギカイ,0
1233,5120001247607,新規,0,2022-07-26,2022-07-26,Ｌｅａ　Ｅｓｔａｔｅ株式会社,,株式会社,大阪府,大阪市北区,中津４丁目３番１１号,,27,127,5310071,,,,,,,2022-07-26,1,,,,,リアエステート,0
1234,5120001247664,新規,0,2022-07-26,2022-07-26,株式会社セルバマーケティング,,株式会社,大阪府,大阪市北区,西天満１丁目７番２０号,,27,127,5300047,,,,,,,2022-07-26,1,,,,,セルバマーケティング,0
1235,5120001247680,新規,0,2022-07-26,2022-07-26,株式会社ＦＥＲＮＷＥＨ,,株式会社,大阪府,大阪市西区,京町堀１丁目１８番２７号,,27,106,5500003,,,,,,,2022-07-26,1,,,,,フェルンヴェー,0
1240,5120101065958,新規,0,2022-07-26,2022-07-26,株式会社明和,,株式会社,大阪府,大阪狭山市,東茱萸木４丁目２１１８番地,,27,231,5890012,,,,,,,2022-07-26,1,,,,,メイワ,0
1241,5120101065966,新規,0,2022-07-26,2022-07-26,株式会社ビーンズ,,株式会社,大阪府,堺市南区,御池台５丁３番２０,,27,145,5900134,,,,,,,2022-07-26,1,,,,,ビーンズ,0
1243,5120903004246,新規,0,2022-07-26,2022-07-26,ＨＵＮＧ　ＰＨＡＴ合同会社,,合同会社,大阪府,高槻市,川西町２丁目９番１１号第１１いほりビル３Ｆ,,27,207,5691133,,,,,,,2022-07-26,1,,,,,フンファット,0
1246,5122001036097,新規,0,2022-07-26,2022-07-26,株式会社岡田製作所,,株式会社,大阪府,東大阪市,柏田西１丁目１４番１５号,,27,227,5770835,,,,,,,2022-07-26,1,,,,,オカダセイサクショ,0
1249,5130001072236,新規,0,2022-07-26,2022-07-26,株式会社アンド・ピー,,株式会社,京都府,八幡市,男山長沢２４番地２９,,26,210,6148367,,,,,,,2022-07-26,1,,,,,アンドピー,0
1257,5140005026253,新規,0,2022-07-26,2022-07-26,一般財団法人アガペ財団,,その他の設立登記法人,兵庫県,西宮市,甲山町５３番地４,,28,204,6620001,,,,,,,2022-07-26,1,,,,,アガペザイダン,0
1258,5160001024399,新規,0,2022-07-26,2022-07-26,蜂之縁株式会社,,株式会社,滋賀県,大津市,唐崎２丁目１６番１０号,,25,201,5200106,,,,,,,2022-07-26,1,,,,,ハチノエン,0
1262,5180001152289,新規,0,2022-07-26,2022-07-26,株式会社Ｄｉｏスタッフ,,株式会社,愛知県,一宮市,真清田１丁目３番３号桃花館１階Ｂ号,,23,203,4910043,,,,,,,2022-07-26,1,,,,,ディオスタッフ,0
1263,5180001152314,新規,0,2022-07-26,2022-07-26,株式会社臼井,00127313,株式会社,愛知県,丹羽郡大口町,余野５丁目２２４番地,,23,361,4800146,,,,,,,2022-07-26,1,,,,,ウスイ,0
1264,5180001152322,新規,0,2022-07-26,2022-07-26,株式会社ｈａｓｕｉｔｏ,,株式会社,愛知県,愛知郡東郷町,大字春木字新池３９２２番地３４０,,23,302,4700162,,,,,,,2022-07-26,1,,,,,ハスイト,0
1265,5180001152330,新規,0,2022-07-26,2022-07-26,ウェルメスパートナーズ株式会社,,株式会社,愛知県,名古屋市中区,金山３丁目１０番９号,,23,106,4600022,,,,,,,2022-07-26,1,,,,,ウェルメスパートナーズ,0
1266,5180001152339,新規,0,2022-07-26,2022-07-26,夜ふかしアイス株式会社,,株式会社,愛知県,名古屋市西区,名駅２丁目３４番１７号セントラル名古屋１１０１号,,23,104,4510045,,,,,,,2022-07-26,1,,,,,ヨフカシアイス,0
1278,5210001019022,新規,0,2022-07-26,2022-07-26,株式会社マルイ,,株式会社,福井県,福井市,下馬２丁目２３１０番地,,18,201,9188112,,,,,,,2022-07-26,1,,,,,マルイ,0
1284,5240001016842,新規,0,2022-07-26,2022-07-26,株式会社広興,,株式会社,広島県,広島市中区,寺町５番２０号,,34,101,7300801,,,,,,,2022-07-26,1,,,,,ヒロコウ,0
1287,5240001060130,新規,0,2022-07-26,2022-07-26,株式会社Ｗｈｉｚｚ　Ｕ,,株式会社,広島県,広島市安佐南区,中筋１丁目１１番３０号,,34,105,7310122,,,,,,,2022-07-26,1,,,,,ウィズユー,0
1290,5240003005728,新規,0,2022-07-26,2022-07-26,ＹＫＴ合同会社,,合同会社,広島県,広島市西区,楠木町３丁目１３番３６号,,34,104,7330002,,,,,,,2022-07-26,1,,,,,ワイケイティー,0
1294,5260001037028,新規,0,2022-07-26,2022-07-26,ひかり物産株式会社,,株式会社,岡山県,岡山市北区,東古松４丁目３番３１号,,33,101,7000921,,,,,,,2022-07-26,1,,,,,ヒカリブッサン,0
1305,5290001098389,新規,0,2022-07-26,2022-07-26,株式会社ほまれ,,株式会社,福岡県,福岡市博多区,諸岡４丁目１番２９号,,40,132,8120894,,,,,,,2022-07-26,1,,,,,ホマレ,0
1315,5290803004172,新規,0,2022-07-26,2022-07-26,合同会社もりたん,,合同会社,福岡県,直方市,須崎町３－３７竹田ビル５Ｆ,,40,204,8220024,,,,,,,2022-07-26,1,,,,,モリタン,0
1318,5300005007088,新規,0,2022-07-26,2022-07-26,武雄マルチワーク協同組合,,その他の設立登記法人,佐賀県,武雄市,東川登町大字永野８８５番地,,41,206,8430233,,,,,,,2022-07-26,1,,,,,タケオマルチワーク,0
1322,5310003004417,新規,0,2022-07-26,2022-07-26,合同会社石と木,,合同会社,長崎県,長崎市,西出津町２５５２番地,,42,201,8512322,,,,,,,2022-07-26,1,,,,,イシトキ,0
1323,5320001019234,新規,0,2022-07-26,2022-07-26,株式会社なかの家,,株式会社,大分県,豊後大野市,清川町伏野５６２番地,,44,212,8796921,,,,,,,2022-07-26,1,,,,,ナカノヤ,0
1324,5330001011280,新規,0,2022-07-26,2022-07-26,常薫酒造株式会社,,株式会社,熊本県,上益城郡御船町,大字御船９１０番地,,43,441,8613207,,,,,,,2022-07-26,1,,,,,,0
1325,5330001029967,新規,0,2022-07-26,2022-07-26,株式会社ｓｏｒｔｅ,,株式会社,熊本県,熊本市西区,池田４丁目３０番２４号,,43,103,8600082,,,,,,,2022-07-26,1,,,,,ソルテ,0
1330,5350003004132,新規,0,2022-07-26,2022-07-26,合同会社クリーンアース,,合同会社,宮崎県,小林市,堤字前野迫４３９０番地３,,45,205,8860003,,,,,,,2022-07-26,1,,,,,クリーンアース,0
1334,5360003012191,新規,0,2022-07-26,2022-07-26,合同会社ライラック,,合同会社,沖縄県,那覇市,首里石嶺町２丁目１７５－２,,47,201,9030804,,,,,,,2022-07-26,1,,,,,,0
1339,5400001015951,新規,0,2022-07-26,2022-07-26,岩舘プロパティ株式会社,,株式会社,岩手県,盛岡市,長田町２３番２７号,,03,201,0200062,,,,,,,2022-07-26,1,,,,,イワダテプロパティ,0
1343,5430001087154,新規,0,2022-07-26,2022-07-26,株式会社チェルバ,,株式会社,北海道,苫小牧市,北栄町４丁目５番２０号,,01,213,0591304,,,,,,,2022-07-26,1,,,,,チェルバ,0
1346,5430005014518,新規,0,2022-07-26,2022-07-26,一般社団法人ＨＡＴＣＨ,,その他の設立登記法人,北海道,虻田郡喜茂別町,字喜茂別７６,,01,398,0440201,,,,,,,2022-07-26,1,,,,,ハッチ,0
1350,5480002016256,新規,0,2022-07-26,2022-07-26,有限会社かわかぜ,,有限会社,徳島県,小松島市,松島町６番１７号,,36,203,7730003,,,,,,,2022-07-26,1,,,,,カワカゼ,0
1351,5490001010242,新規,0,2022-07-26,2022-07-26,フライハイト株式会社,,株式会社,高知県,高知市,役知町２７番１号ＮＴハイツ３０２,,39,201,7818002,,,,,,,2022-07-26,1,,,,,フライハイト,0
1354,5700150110985,新規,0,2022-07-26,2022-07-26,ＡＵＴＯ　ＮＡＴＩＯＮ　ＥＸＰＥＲＴＳ,,外国会社等,千葉県,八街市,大木８１３－３９－１－Ａ,,12,230,2891111,スリランカ民主社会主義共和国、キャンディ、アクラナ、ドゥヌウィラロード、Ｎｏ．９６Ａ,,,,,,2022-07-26,1,,,,,オートネーシヨンエキスパーツ,0
1357,6010001228286,新規,0,2022-07-26,2022-07-26,株式会社Ｙ’ｓ,,株式会社,東京都,中央区,銀座７丁目７番６号アスタープラザビル２階５号室,,13,102,1040061,,,,,,,2022-07-26,1,,,,,ワイズ,0
1364,6010003038238,新規,0,2022-07-26,2022-07-26,ジジィー合同会社,,合同会社,東京都,中央区,新川１丁目２１番８号,,13,102,1040033,,,,,,,2022-07-26,1,,,,,ジジィー,0
1367,6010103001954,新規,0,2022-07-26,2022-07-26,合同会社ケアプランルーサ,,合同会社,東京都,八王子市,中野上町４丁目１０－１２,,13,201,1920041,,,,,,,2022-07-26,1,,,,,,0
1375,6010401168702,新規,0,2022-07-26,2022-07-26,株式会社ＣｌａｎＹ,,株式会社,東京都,港区,六本木２丁目３番７号,,13,103,1060032,,,,,,,2022-07-26,1,,,,,クランワイ,0
1403,6011001148838,新規,0,2022-07-26,2022-07-26,株式会社ＫＩＴＡＫＡＺＥ,,株式会社,東京都,目黒区,八雲２丁目２１番２号,,13,110,1520023,,,,,,,2022-07-26,1,,,,,キタカゼ,0
1405,6011003015078,新規,0,2022-07-26,2022-07-26,ｖｏｎｘａｉ合同会社,,合同会社,東京都,渋谷区,道玄坂１丁目１６－６二葉ビル８ｂ,,13,113,1500043,,,,,,,2022-07-26,1,,,,,ボンサイ,0
1406,6011005009656,新規,0,2022-07-26,2022-07-26,一般社団法人ＥＬＬＥＮＮＯＥ,,その他の設立登記法人,東京都,渋谷区,東３丁目１２－１,,13,113,1500011,,,,,,,2022-07-26,1,,,,,エレンノエ,0
1414,6011401024424,新規,0,2022-07-26,2022-07-26,株式会社Ｓｅｌｆ・Ｃｌｅａｒ,,株式会社,東京都,板橋区,南常盤台１丁目１１番６号レフア南常盤台１０１号室,,13,119,1740072,,,,,,,2022-07-26,1,,,,,セルフクリア,0
1419,6011701025485,新規,0,2022-07-26,2022-07-26,株式会社ＮＹアセットマネジメント,,株式会社,東京都,江戸川区,西葛西６丁目１５番２０－７０４号,,13,123,1340088,,,,,,,2022-07-26,1,,,,,エヌワイアセットマネジメント,0
1425,6012401039453,新規,0,2022-07-26,2022-07-26,株式会社アクションプランニング,,株式会社,東京都,狛江市,岩戸南３丁目１１番７号,,13,219,2010005,,,,,,,2022-07-26,1,,,,,アクションプランニング,0
1426,6012403005494,新規,0,2022-07-26,2022-07-26,明日穂ヘルプセンター合同会社,,合同会社,東京都,府中市,天神町４丁目２２番２１号,,13,206,1830053,,,,,,,2022-07-26,1,,,,,アスホヘルプセンター,0
1428,6012801021746,新規,0,2022-07-26,2022-07-26,株式会社モリオン,,株式会社,東京都,国分寺市,日吉町３丁目２１番地２,,13,214,1850032,,,,,,,2022-07-26,1,,,,,モリオン,0
1431,6013105001807,新規,0,2022-07-26,2022-07-26,ジャパマーハイツ企業組合,,その他の設立登記法人,東京都,福生市,大字福生２２４０番地４,,13,218,1970011,,,,,,,2022-07-26,1,,,,,ジャパマーハイツ,0
1442,6020001147436,新規,0,2022-07-26,2022-07-26,株式会社Ｔ’ｓ,,株式会社,神奈川県,横浜市都筑区,桜並木１２番４０－４０３号,,14,118,2240046,,,,,,,2022-07-26,1,,,,,ティーズ,0
1443,6020001147452,新規,0,2022-07-26,2022-07-26,株式会社ファミリータイズ,,株式会社,神奈川県,横浜市港北区,綱島上町１－１－２－２１０号,,14,109,2230055,,,,,,,2022-07-26,1,,,,,ファミリータイズ,0
1452,6020005015589,新規,0,2022-07-26,2022-07-26,一般社団法人地歌Ｍｉｒａｉ,,その他の設立登記法人,神奈川県,横浜市港北区,大倉山５丁目３５番２０号,,14,109,2220037,,,,,,,2022-07-26,1,,,,,チカミライ,0
1457,6021001076583,新規,0,2022-07-26,2022-07-26,株式会社コンドウ,,株式会社,神奈川県,平塚市,万田３８４番地の４,,14,203,2540913,,,,,,,2022-07-26,1,,,,,コンドウ,0
1476,6040001124383,新規,0,2022-07-26,2022-07-26,株式会社ｔｒｅｅｓ,,株式会社,千葉県,船橋市,湊町２丁目３番１７号,,12,204,2730011,,,,,,,2022-07-26,1,,,,,ツリーズ,0
1485,6050001051453,新規,0,2022-07-26,2022-07-26,株式会社ＭＩＴＳＵＫＩ,,株式会社,茨城県,ひたちなか市,大字高場１６７３番地２４,,08,221,3120062,,,,,,,2022-07-26,1,,,,,ミツキ,0
1486,6050003006703,新規,0,2022-07-26,2022-07-26,ＩＺＵＭＩ合同会社,,合同会社,茨城県,つくば市,臼井５８９番地４,,08,220,3004211,,,,,,,2022-07-26,1,,,,,イズミ,0
1487,6050003006728,新規,0,2022-07-26,2022-07-26,ｅｑｕＯｗｌ合同会社,,合同会社,茨城県,つくば市,並木４丁目５番地５２,,08,220,3050044,,,,,,,2022-07-26,1,,,,,イコール,0
1488,6060001035117,新規,0,2022-07-26,2022-07-26,株式会社櫻川,,株式会社,栃木県,さくら市,櫻野１３５６番地１,,09,214,3291312,,,,,,,2022-07-26,1,,,,,サクラカワ,0
1509,6110003004824,新規,0,2022-07-26,2022-07-26,合同会社ＤＩＹ．ＴＯＫ,,合同会社,新潟県,上越市,大字三田新田１９６番地１,,15,222,9420053,,,,,,,2022-07-26,1,,,,,ディーアイワイティーオーケー,0
1515,6120001247548,新規,0,2022-07-26,2022-07-26,ＨＣ株式会社,,株式会社,大阪府,大阪市生野区,新今里３丁目４番１７号シャトー第４今里３１３Ａ,,27,116,5440001,,,,,,,2022-07-26,1,,,,,エイチシー,0
1516,6120001247556,新規,0,2022-07-26,2022-07-26,洪株式会社,,株式会社,大阪府,大阪市中央区,松屋町９番２０号ローレルステート松屋町４０４Ａ,,27,128,5420067,,,,,,,2022-07-26,1,,,,,コウ,0
1517,6120001247606,新規,0,2022-07-26,2022-07-26,ＲＥＩＷＡ化学販売株式会社,,株式会社,大阪府,大阪市中央区,南船場３丁目１番１５－２０３号,,27,128,5420081,,,,,,,2022-07-26,1,,,,,レイワカガクハンバイ,0
1518,6120001247647,新規,0,2022-07-26,2022-07-26,登峰産業株式会社,,株式会社,大阪府,門真市,沖町９番１６号,,27,223,5710022,,,,,,,2022-07-26,1,,,,,トウホウサンギョウ,0
1519,6120001247663,新規,0,2022-07-26,2022-07-26,株式会社セルバクリエイティング,,株式会社,大阪府,大阪市北区,西天満１丁目７番２０号,,27,127,5300047,,,,,,,2022-07-26,1,,,,,セルバクリエイティング,0
1520,6120001247688,新規,0,2022-07-26,2022-07-26,Ｍ＆Ｓ株式会社,,株式会社,大阪府,交野市,妙見東１丁目５番３号,,27,230,5760012,,,,,,,2022-07-26,1,,,,,エムアンドエス,0
1527,6120005023111,新規,0,2022-07-26,2022-07-26,一般社団法人金融総合研究所,,その他の設立登記法人,大阪府,寝屋川市,香里北之町２番６号,,27,215,5720080,,,,,,,2022-07-26,1,,,,,キンユウソウゴウケンキュウジョ,0
1529,6120101065957,新規,0,2022-07-26,2022-07-26,ＩＣテクノロジー株式会社,,株式会社,大阪府,岸和田市,磯上町５丁目８番１８－１０８号,,27,202,5960001,,,,,,,2022-07-26,1,,,,,アイシーテクノロジー,0
1530,6120101065965,新規,0,2022-07-26,2022-07-26,株式会社横川電工,,株式会社,大阪府,阪南市,尾崎町５丁目２８番２６号,,27,232,5990201,,,,,,,2022-07-26,1,,,,,ヨコガワデンコウ,0
1532,6120103004797,新規,0,2022-07-26,2022-07-26,合同会社ケー・ディ・エヌ,,合同会社,大阪府,泉佐野市,鶴原３丁目４番２１号,,27,213,5980071,,,,,,,2022-07-26,1,,,,,ケーディエヌ,0
1535,6120901046289,新規,0,2022-07-26,2022-07-26,株式会社Ｓｅｖｅｎ　Ｈｏｐｅ,,株式会社,大阪府,豊中市,東泉丘４丁目５番５０－７１４号,,27,203,5610861,,,,,,,2022-07-26,1,,,,,セブンホープ,0
1537,6122001036096,新規,0,2022-07-26,2022-07-26,株式会社住建アシスト,,株式会社,大阪府,八尾市,天王寺屋２丁目１２１番地の１,,27,212,5810025,,,,,,,2022-07-26,1,,,,,ジュウケンアシスト,0
1539,6130001072268,新規,0,2022-07-26,2022-07-26,株式会社鴻,,株式会社,京都府,京都市東山区,本町６丁目１４コーポセブン１０２号室,,26,105,6050981,,,,,,,2022-07-26,1,,,,,コウ,0
1548,6160003002633,新規,0,2022-07-26,2022-07-26,合同会社ｎ．ｎａｍｅ’ｓ,,合同会社,滋賀県,大津市,水明２丁目１番１３号,,25,201,5200531,,,,,,,2022-07-26,1,,,,,ノーネームズ,0
1550,6170001017203,新規,0,2022-07-26,2022-07-26,株式会社Ｄｏ　Ｉｔ,,株式会社,和歌山県,和歌山市,山口西９番地６,,30,201,6496317,,,,,,,2022-07-26,1,,,,,ドゥイット,0
1559,6180001152288,新規,0,2022-07-26,2022-07-26,株式会社Ｏｈａｎａ’ｓ　Ｋ,,株式会社,愛知県,名古屋市千種区,千種通７丁目１０１番地オオクラビル４Ｆ,,23,101,4640855,,,,,,,2022-07-26,1,,,,,オハナズケイ,0
1560,6180001152305,新規,0,2022-07-26,2022-07-26,株式会社ＣＦダイバース,,株式会社,愛知県,名古屋市北区,中味鋺３丁目１２５番地,,23,103,4620015,,,,,,,2022-07-26,1,,,,,シーエフダイバース,0
1561,6180001152321,新規,0,2022-07-26,2022-07-26,株式会社ＬＩＬＩＸ,,株式会社,愛知県,名古屋市中区,栄２丁目２番１号広小路伏見中駒ビル２Ｆ－９,,23,106,4600008,,,,,,,2022-07-26,1,,,,,リリックス,0
1565,6180003024080,新規,0,2022-07-26,2022-07-26,合同会社きずな商店,,合同会社,愛知県,一宮市,奥町字三出１１７番地,,23,203,4910201,,,,,,,2022-07-26,1,,,,,キズナショウテン,0
1566,6180005019863,新規,0,2022-07-26,2022-07-26,一般社団法人新農業法人設立準備委員会,,その他の設立登記法人,愛知県,丹羽郡大口町,下小口７丁目１５５番地,,23,361,4800144,,,,,,,2022-07-26,1,,,,,シンノウギョウホウジンセツリツジュンビイインカイ,0
1570,6180301036471,新規,0,2022-07-26,2022-07-26,川隅空調株式会社,,株式会社,愛知県,安城市,榎前町北山１３５番地５,,23,212,4441214,,,,,,,2022-07-26,1,,,,,カワスミクウチョウ,0
1575,6190001029650,新規,0,2022-07-26,2022-07-26,株式会社ホンダ,,株式会社,三重県,三重郡菰野町,大字菰野１４５８番地２クイーンズタウン２０２,,24,341,5101233,,,,,,,2022-07-26,1,,,,,ホンダ,0
1581,6200001040309,新規,0,2022-07-26,2022-07-26,豊和株式会社,,株式会社,岐阜県,瑞穂市,祖父江２９６番地５,,21,216,5010225,,,,,,,2022-07-26,1,,,,,ホウワ,0
1592,6230001019465,新規,0,2022-07-26,2022-07-26,株式会社Ｈｉｇｈ　Ｆｉｖｅ,,株式会社,富山県,富山市,高屋敷５９７番地５,,16,201,9398036,,,,,,,2022-07-26,1,,,,,ハイファイブ,0
1597,6240003005727,新規,0,2022-07-26,2022-07-26,合同会社Ｔｈｅ　Ｓｈｉｎｇａｔａｉｎｍｅｎｔ,,合同会社,広島県,広島市中区,上八丁堀４番２８号,,34,101,7300012,,,,,,,2022-07-26,1,,,,,ザシンガテイメント,0
1601,6260001037076,新規,0,2022-07-26,2022-07-26,株式会社もすべーす,,株式会社,岡山県,井原市,大江町３４５４番地２,,33,207,7150023,,,,,,,2022-07-26,1,,,,,モスベース,0
1605,6260003003992,新規,0,2022-07-26,2022-07-26,合同会社わとぎ,,合同会社,岡山県,岡山市東区,可知２丁目２番４０号,,33,103,7048173,,,,,,,2022-07-26,1,,,,,ワトギ,0
1608,6280001008752,新規,0,2022-07-26,2022-07-26,リアライズジャパン株式会社,,株式会社,島根県,出雲市,塩冶神前６丁目５番地１０,,32,203,6930024,,,,,,,2022-07-26,1,,,,,リアライズジャパン,0
1613,6290001098355,新規,0,2022-07-26,2022-07-26,九輝株式会社,,株式会社,福岡県,福岡市博多区,金の隈３丁目２－３,,40,132,8120863,,,,,,,2022-07-26,1,,,,,キュウキ,0
1614,6290001098388,新規,0,2022-07-26,2022-07-26,ウエストプランニング株式会社,,株式会社,福岡県,大川市,大字向島２０８２番地１１,,40,212,8310005,,,,,,,2022-07-26,1,,,,,ウエストプランニング,0
1616,6290801005535,新規,0,2022-07-26,2022-07-26,株式会社藤工建設,,株式会社,福岡県,北九州市門司区,東新町１丁目７番２２号,,40,101,8000055,,,,,,,2022-07-26,1,,,,,,0
1620,6290801028759,新規,0,2022-07-26,2022-07-26,株式会社マキ,,株式会社,福岡県,遠賀郡芦屋町,白浜町４番８号,,40,381,8070111,,,,,,,2022-07-26,1,,,,,マキ,0
1624,6310003004416,新規,0,2022-07-26,2022-07-26,合同会社銭上創壺,,合同会社,長崎県,長崎市,出島町５番,,42,201,8500862,,,,,,,2022-07-26,1,,,,,ゼニガミソウコ,0
1626,6320001019233,新規,0,2022-07-26,2022-07-26,株式会社ＳＩＬＶＥＲ　ＳＴＯＮＥ,,株式会社,大分県,宇佐市,大字南宇佐２２６６番地,,44,211,8720102,,,,,,,2022-07-26,1,,,,,シルバーストーン,0
1627,6330001029966,新規,0,2022-07-26,2022-07-26,株式会社うちやま,,株式会社,熊本県,八代市,横手新町２５号５番地１,,43,202,8660875,,,,,,,2022-07-26,1,,,,,ウチヤマ,0
1641,6390001016975,新規,0,2022-07-26,2022-07-26,株式会社ＣＥＬＵＸＵＳ,,株式会社,山形県,酒田市,大野新田字高田１０番地,,06,204,9980816,,,,,,,2022-07-26,1,,,,,ケルサス,0
1645,6430001015997,新規,0,2022-07-26,2022-07-26,株式会社マエダ鉄工所,,株式会社,北海道,札幌市西区,発寒十四条１２丁目１番１５号,,01,107,0630834,,,,,,,2022-07-26,1,,,,,マエダテッコウショ,0
1660,6460003000912,新規,0,2022-07-26,2022-07-26,合同会社Ｋ２ボディワークス,,合同会社,北海道,釧路市,海運１丁目２番１４号,,01,206,0850023,,,,,,,2022-07-26,1,,,,,ケーツーボディワークス,0
1661,6490001010241,新規,0,2022-07-26,2022-07-26,株式会社絆セキュリティ,,株式会社,高知県,高知市,春野町弘岡中６３９番地,,39,201,7810302,,,,,,,2022-07-26,1,,,,,キズナセキュリティ,0
1666,6700150110984,新規,0,2022-07-26,2022-07-26,ＡＱＡＡＭ　ＡＵＴＯ　ＭＡＲＴ　ＰＶＴ　ＬＴＤ,,外国会社等,千葉県,八街市,榎戸４０７－１４４,,12,230,2891106,スリランカ民主社会主義共和国、アクラナ、デルガステンナ、２４０／Ｂ,,,,,,2022-07-26,1,,,,,アクアームオートマートピーヴイテイエルテイデイ,0
1675,7010001228293,新規,0,2022-07-26,2022-07-26,株式会社ｚｐａｔｈ,,株式会社,東京都,中央区,日本橋馬喰町２丁目６－４水村ビル,,13,102,1030002,,,,,,,2022-07-26,1,,,,,ゼットパス,0
1683,7010005035307,新規,0,2022-07-26,2022-07-26,一般社団法人ＦＶ協会,,その他の設立登記法人,東京都,中央区,銀座１丁目１３番地１２号,,13,102,1040061,,,,,,,2022-07-26,1,,,,,エフヴィキョウカイ,0
1687,7010401168676,新規,0,2022-07-26,2022-07-26,株式会社アドテリア,,株式会社,東京都,港区,南青山２丁目２番１５号,,13,103,1070062,,,,,,,2022-07-26,1,,,,,アドテリア,0
1695,7010405021204,新規,0,2022-07-26,2022-07-26,一般社団法人Ｓｗｉｔｃｈ　Ｍｅｍｂｅｒ　Ｓｔｏｃｋｓ,,その他の設立登記法人,東京都,港区,芝５丁目２６番２４号,,13,103,1080014,,,,,,,2022-07-26,1,,,,,スイッチメンバーストックス,0
1700,7011001148812,新規,0,2022-07-26,2022-07-26,株式会社ＮＯ　ＨＹＰＥ,,株式会社,東京都,渋谷区,桜丘町４番１７号,,13,113,1500031,,,,,,,2022-07-26,1,,,,,ノーハイプ,0
1701,7011001148837,新規,0,2022-07-26,2022-07-26,株式会社理感堂,,株式会社,東京都,渋谷区,円山町５番５号Ｎａｖｉ渋谷Ｖ３階,,13,113,1500044,,,,,,,2022-07-26,1,,,,,リカンドウ,0
1705,7011401024423,新規,0,2022-07-26,2022-07-26,銀新株式会社,,株式会社,東京都,板橋区,東坂下１丁目１９番１２－４０５号,,13,119,1740042,,,,,,,2022-07-26,1,,,,,ギンシン,0
1707,7011501028316,新規,0,2022-07-26,2022-07-26,Ｆ＆Ｃ株式会社,,株式会社,東京都,北区,豊島１丁目２６番２－１００１号王子ローヤルコーポ,,13,117,1140003,,,,,,,2022-07-26,1,,,,,エフアンドシー,0
1710,7011601026062,新規,0,2022-07-26,2022-07-26,ドリーム・ワールド株式会社,,株式会社,東京都,練馬区,関町南３丁目３２番２０－５０８号,,13,120,1770053,,,,,,,2022-07-26,1,,,,,ドリームワールド,0
1711,7011601026129,新規,0,2022-07-26,2022-07-26,龍躍貿易株式会社,,株式会社,東京都,練馬区,桜台１丁目７番７号シルバービル４０１,,13,120,1760002,,,,,,,2022-07-26,1,,,,,リュウヤクボウエキ,0
1713,7011801041035,新規,0,2022-07-26,2022-07-26,ＡＱＵＳＥＴ株式会社,,株式会社,東京都,葛飾区,鎌倉３丁目３４番１３号,,13,122,1250053,,,,,,,2022-07-26,1,,,,,アクセット,0
1714,7011801041043,新規,0,2022-07-26,2022-07-26,株式会社Ａ,,株式会社,東京都,葛飾区,東新小岩８丁目４－８,,13,122,1240023,,,,,,,2022-07-26,1,,,,,エース,0
1717,7012701017158,新規,0,2022-07-26,2022-07-26,株式会社ＮｅｏＬｉｆｅ　Ｈｏｍｅ,,株式会社,東京都,西東京市,ひばりが丘北３丁目７番１３号ＪＵＮカネミツビル３０１号,,13,229,2020002,,,,,,,2022-07-26,1,,,,,ネオライフホーム,0
1719,7012801021745,新規,0,2022-07-26,2022-07-26,株式会社ＮＫコーポレーション,,株式会社,東京都,立川市,上砂町２丁目３２番地の４,,13,202,1900032,,,,,,,2022-07-26,1,,,,,エヌケイコーポレーション,0
1720,7012803002842,新規,0,2022-07-26,2022-07-26,住空間アート企画合同会社,,合同会社,東京都,昭島市,宮沢町２丁目３８番６号,,13,207,1960024,,,,,,,2022-07-26,1,,,,,ジュウクウカンアートキカク,0
1729,7020001147451,新規,0,2022-07-26,2022-07-26,株式会社川田,,株式会社,神奈川県,川崎市川崎区,宮本町３番地６トップ川崎第３‐９階９０１号室,,14,131,2100004,,,,,,,2022-07-26,1,,,,,カワダ,0
1730,7020001147492,新規,0,2022-07-26,2022-07-26,ＧＴＳ株式会社,,株式会社,神奈川県,川崎市高津区,下作延１丁目３番１６－４０６号,,14,134,2130033,,,,,,,2022-07-26,1,,,,,ジーティーエス,0
1738,7030001149281,新規,0,2022-07-26,2022-07-26,坂本興業株式会社,,株式会社,埼玉県,秩父市,大野原１９４８番地１,,11,207,3680005,,,,,,,2022-07-26,1,,,,,サカモトコウギョウ,0
1739,7030001149364,新規,0,2022-07-26,2022-07-26,七曜紋株式会社,,株式会社,埼玉県,志木市,本町５丁目２３番２４号,,11,228,3530004,,,,,,,2022-07-26,1,,,,,シチヨウモン,0
1745,7030005020926,新規,0,2022-07-26,2022-07-26,一般社団法人国際ローチョコレート協会,,その他の設立登記法人,埼玉県,さいたま市大宮区,三橋４丁目５１７番地３,,11,103,3300856,,,,,,,2022-07-26,1,,,,,コクサイローチョコレートキョウカイ,0
1748,7040001124366,新規,0,2022-07-26,2022-07-26,株式会社マベリクスビルド,,株式会社,千葉県,銚子市,笠上町６００６番地の３,,12,202,2880004,,,,,,,2022-07-26,1,,,,,マベリクスビルド,0
1751,7050003006719,新規,0,2022-07-26,2022-07-26,Ｇ．Ｃ．Ｇ．合同会社,,合同会社,茨城県,日立市,鹿島町１丁目７番７号,,08,202,3170071,,,,,,,2022-07-26,1,,,,,ジーシージー,0
1759,7070001039462,新規,0,2022-07-26,2022-07-26,株式会社真和テクノ,,株式会社,群馬県,伊勢崎市,東町２８５８番地４,,10,204,3792231,,,,,,,2022-07-26,1,,,,,シンワテクノ,0
1760,7070001039479,新規,0,2022-07-26,2022-07-26,株式会社車屋本舗,,株式会社,群馬県,前橋市,樋越町４５８番地５,,10,201,3710221,,,,,,,2022-07-26,1,,,,,クルマヤホンポ,0
1765,7080003002839,新規,0,2022-07-26,2022-07-26,Ｓ＆Ｆ地域マネジメント合同会社,,合同会社,静岡県,静岡市駿河区,八幡１丁目５番３８号,,22,102,4228076,,,,,,,2022-07-26,1,,,,,エスアンドエフチイキマネジメント,0
1766,7080401025945,新規,0,2022-07-26,2022-07-26,諾実一生株式会社,,株式会社,静岡県,浜松市中区,佐藤１丁目１６－２５,,22,131,4300807,,,,,,,2022-07-26,1,,,,,ダクジツイッセイ,0
1768,7080403004591,新規,0,2022-07-26,2022-07-26,ａｉｎｙ合同会社,,合同会社,静岡県,磐田市,上野部１２６０番地の３,,22,211,4380111,,,,,,,2022-07-26,1,,,,,アイニー,0
1783,7120001247679,新規,0,2022-07-26,2022-07-26,株式会社ＳＫＪｃｏｍｐａｎｙ,,株式会社,大阪府,大阪市浪速区,浪速東１丁目１０番１０－８０６号,,27,111,5560025,,,,,,,2022-07-26,1,,,,,エスケイジェイカンパニー,0
1784,7120001247704,新規,0,2022-07-26,2022-07-26,株式会社ｆ．ａｃｅ,,株式会社,大阪府,大阪市北区,南森町１丁目３番９号柏尾ビル２０６号室,,27,127,5300054,,,,,,,2022-07-26,1,,,,,フェイス,0
1785,7120005023093,新規,0,2022-07-26,2022-07-26,土地家屋調査士法人成田法務事務所,,その他の設立登記法人,大阪府,大阪市中央区,谷町２丁目２番２０号大手前類第一ビル,,27,128,5400012,,,,,,,2022-07-26,1,,,,,ナリタホウムジムショ,0
1786,7120005023102,新規,0,2022-07-26,2022-07-26,一般社団法人いきいきライフ協会枚方,,その他の設立登記法人,大阪府,枚方市,岡本町７番１号,,27,210,5730031,,,,,,,2022-07-26,1,,,,,イキイキライフキョウカイヒラカタ,0
1787,7120005023110,新規,0,2022-07-26,2022-07-26,医療法人ＬＩＧＡＲＥ,,その他の設立登記法人,大阪府,大阪市中央区,南船場３丁目５番１１号,,27,128,5420081,,,,,,,2022-07-26,1,,,,,リガーレ,0
1789,7120101065964,新規,0,2022-07-26,2022-07-26,株式会社ブロリー,,株式会社,大阪府,堺市中区,東山８１２番地２,,27,142,5998247,,,,,,,2022-07-26,1,,,,,ブロリー,0
1790,7120901046288,新規,0,2022-07-26,2022-07-26,株式会社ＪＩＧｕ,,株式会社,大阪府,豊中市,永楽荘１丁目８番１１号,,27,203,5600051,,,,,,,2022-07-26,1,,,,,ジグ,0
1793,7122001036095,新規,0,2022-07-26,2022-07-26,株式会社ＦＯＲＣＥ,,株式会社,大阪府,八尾市,山本町南１丁目６番６号上田ビル１Ｆ,,27,212,5810013,,,,,,,2022-07-26,1,,,,,フォース,0
1812,7160001024397,新規,0,2022-07-26,2022-07-26,Ｓｈａｋｅ　Ｂｒａｉｎ株式会社,,株式会社,滋賀県,草津市,南笠町７７０－１,,25,206,5250056,,,,,,,2022-07-26,1,,,,,シェイクブレイン,0
1813,7170001017202,新規,0,2022-07-26,2022-07-26,株式会社ＳＯｕＲＩＲＥ,,株式会社,和歌山県,日高郡日高川町,大字小熊３９９０番地３,,30,392,6491323,,,,,,,2022-07-26,1,,,,,スーリール,0
1815,7180001152329,新規,0,2022-07-26,2022-07-26,株式会社ペップイノーバ,,株式会社,愛知県,名古屋市西区,名駅２丁目３４－１７セントラル名古屋１１０１,,23,104,4510045,,,,,,,2022-07-26,1,,,,,ペップイノーバ,0
1818,7180003024071,新規,0,2022-07-26,2022-07-26,Ｋ’ｓマネジメント合同会社,,合同会社,愛知県,名古屋市東区,泉１丁目１８番３０号,,23,102,4610001,,,,,,,2022-07-26,1,,,,,ケイズマネジメント,0
1822,7200001040316,新規,0,2022-07-26,2022-07-26,亜臨界株式会社,,株式会社,岐阜県,岐阜市,薮田西１丁目６番１４号ヴィラフローレンス２０６,,21,201,5008386,,,,,,,2022-07-26,1,,,,,アリンカイ,0
1826,7210001019020,新規,0,2022-07-26,2022-07-26,株式会社絆ジャパン,,株式会社,福井県,越前市,塚町３０６,,18,209,9150092,,,,,,,2022-07-26,1,,,,,キズナジャパン,0
1828,7210003001538,新規,0,2022-07-26,2022-07-26,ＲＴＰ合同会社,,合同会社,福井県,大飯郡高浜町,宮崎４４－６１,,18,481,9192225,,,,,,,2022-07-26,1,,,,,アールティーピー,0
1833,7230001019464,新規,0,2022-07-26,2022-07-26,株式会社Ｂ‐ｂｌｌｅ,,株式会社,富山県,富山市,中央通り１丁目６番２７号,,16,201,9300044,,,,,,,2022-07-26,1,,,,,ビブル,0
1840,7240001060129,新規,0,2022-07-26,2022-07-26,コア・セキュリティ株式会社,,株式会社,広島県,広島市佐伯区,八幡１丁目２１番２４号城山みとＡ棟２０１号室,,34,108,7315116,,,,,,,2022-07-26,1,,,,,コアセキュリティ,0
1845,7260003003991,新規,0,2022-07-26,2022-07-26,合同会社ウエルネス,,合同会社,岡山県,津山市,田町３５番地１,,33,203,7080052,,,,,,,2022-07-26,1,,,,,ウエルネス,0
1847,7260005011118,新規,0,2022-07-26,2022-07-26,特定非営利活動法人岡山夢プロジェクト,,その他の設立登記法人,岡山県,岡山市北区,内山下２丁目１番１２号西村ビル１Ｆ,,33,101,7000824,,,,,,,2022-07-26,1,,,,,オカヤマユメプロジェクト,0
1850,7280001008751,新規,0,2022-07-26,2022-07-26,株式会社内藤電工,,株式会社,島根県,出雲市,佐田町一窪田２９４番地,,32,203,6930522,,,,,,,2022-07-26,1,,,,,ナイトウデンコウ,0
1853,7290001098338,新規,0,2022-07-26,2022-07-26,旭日産業株式会社,,株式会社,福岡県,八女市,立花町上辺春６６７７－１,,40,210,8340083,,,,,,,2022-07-26,1,,,,,ヒョクヒサンギョウ,0
1855,7290003012775,新規,0,2022-07-26,2022-07-26,ＮＩＣＨＥＮＥＸＴ合同会社,,合同会社,福岡県,那珂川市,片縄３丁目４４番コンフォートエフ１０４号,,40,231,8111201,,,,,,,2022-07-26,1,,,,,ニッチネクスト,0
1859,7320001019232,新規,0,2022-07-26,2022-07-26,タスキモータース株式会社,,株式会社,大分県,別府市,大字亀川１６８０番地３サザンブライドＩＩ２１２号室,00127320,44,202,8740000,,,,,,,2022-07-26,1,,,,,タスキモータース,0
1863,7330005010533,新規,0,2022-07-26,2022-07-26,一般社団法人ガイアの花,,その他の設立登記法人,熊本県,天草市,志柿町６７３１番地,,43,215,8630041,,,,,,,2022-07-26,1,,,,,ガイアノハナ,0
1864,7340001024916,新規,0,2022-07-26,2022-07-26,株式会社マリンスポーツ奄美,,株式会社,鹿児島県,奄美市,名瀬長浜町３２－１,,46,222,8940036,,,,,,,2022-07-26,1,,,,,マリンスポーツアマミ,0
1868,7370001048846,新規,0,2022-07-26,2022-07-26,株式会社咲成,,株式会社,宮城県,黒川郡大和町,鶴巣下草字迫１５番地,,04,421,9813418,,,,,,,2022-07-26,1,,,,,サナル,0
1869,7370001048854,新規,0,2022-07-26,2022-07-26,株式会社光伸技術コンサルタント,,株式会社,宮城県,仙台市青葉区,国分町２丁目２番２号,,04,101,9800803,,,,,,,2022-07-26,1,,,,,コウシンギジュツコンサルタント,0
1886,7390003001982,新規,0,2022-07-26,2022-07-26,合同会社ノブレス・オブリージュ,,合同会社,山形県,山形市,大字今塚字深田４５番３,,06,201,9900817,,,,,,,2022-07-26,1,,,,,ノブレスオブリージュ,0
1896,7430001087169,新規,0,2022-07-26,2022-07-26,株式会社Ｓｕｆｆｏｌｃ,,株式会社,北海道,札幌市豊平区,西岡五条１３丁目１６番１３号,,01,105,0620035,,,,,,,2022-07-26,1,,,,,サフォーク,0
1899,7460003000911,新規,0,2022-07-26,2022-07-26,合同会社コーチＮ,,合同会社,北海道,釧路市,春採７丁目３４番６号,,01,206,0850813,,,,,,,2022-07-26,1,,,,,コーチエヌ,0
1923,8010003038236,新規,0,2022-07-26,2022-07-26,合同会社Ｃｏｕｎｔ　Ｄｏｗｎ,,合同会社,東京都,千代田区,神田佐久間町３丁目３８第５東ビル５Ｆ,,13,101,1010025,,,,,,,2022-07-26,1,,,,,カウントダウン,0
1924,8010003038244,新規,0,2022-07-26,2022-07-26,合同会社Ｒｅｎｅｗａｂｌｅ　Ｓｏｌｅｉｌ１,,合同会社,東京都,千代田区,一ツ橋２丁目６番３号アクシスインベストメントアドバイザーズ株式会社内,,13,101,1010003,,,,,,,2022-07-26,1,,,,,リニューアブルソレイユワン,0
1925,8010005035264,新規,0,2022-07-26,2022-07-26,社会保険労務士法人ほかり事務所,,その他の設立登記法人,東京都,千代田区,神田佐久間町１丁目１４番地第２東ビル,,13,101,1010025,,,,,,,2022-07-26,1,,,,,ホカリジムショ,0
1935,8010401168659,新規,0,2022-07-26,2022-07-26,ＲＵＲＵ・ＡＯ・ＫＡＩＬＡ株式会社,,株式会社,東京都,港区,南麻布２丁目３番１１号パークホームズ南麻布ザレジデンス１１１７,,13,103,1060047,,,,,,,2022-07-26,1,,,,,ルルアオカイラ,0
1936,8010401168691,新規,0,2022-07-26,2022-07-26,株式会社ＳＰＧ,,株式会社,東京都,港区,南青山６丁目７番８号ファーロ南青山６０３,,13,103,1070062,,,,,,,2022-07-26,1,,,,,エスピージー,0
1938,8010403028126,新規,0,2022-07-26,2022-07-26,合同会社セブンズセンス,,合同会社,東京都,港区,南青山２丁目２番１５号,,13,103,1070062,,,,,,,2022-07-26,1,,,,,セブンズセンス,0
1939,8010501049148,新規,0,2022-07-26,2022-07-26,株式会社プロップイチムラ,,株式会社,東京都,台東区,浅草橋１丁目９番１６号日東ビル９階,,13,106,1110053,,,,,,,2022-07-26,1,,,,,プロップイチムラ,0
1942,8010803004239,新規,0,2022-07-26,2022-07-26,合同会社ソレイユ,,合同会社,東京都,大田区,久が原４丁目２番１７号ＤｏｒｆＴｈｉｒｄ１０２,,13,111,1460085,,,,,,,2022-07-26,1,,,,,ソレイユ,0
1948,8010903007538,新規,0,2022-07-26,2022-07-26,Ｈｏｌｉｓｔｉｃ　Ｄｅｓｉｇｎ合同会社,,合同会社,東京都,世田谷区,弦巻４丁目２３－１８弦巻ヒルズ３０３,,13,112,1540016,,,,,,,2022-07-26,1,,,,,ホリスティックデザイン,0
1957,8011003014953,新規,0,2022-07-26,2022-07-26,合同会社ｔａｍｏｒｉ,,合同会社,東京都,渋谷区,神宮前６丁目２３－４桑野ビル２Ｆ,,13,113,1500001,,,,,,,2022-07-26,1,,,,,タモリ,0
1958,8011003015092,新規,0,2022-07-26,2022-07-26,合同会社ｉｎｔｅｒｒｅｔｅ,,合同会社,東京都,渋谷区,渋谷２丁目１９－１５宮益坂ビルディング６０９,,13,113,1500002,,,,,,,2022-07-26,1,,,,,インテレーテ,0
1962,8011101099582,新規,0,2022-07-26,2022-07-26,ＮａｔｉｖｅＸ　Ｊａｐａｎ株式会社,,株式会社,東京都,新宿区,揚場町１番１８号飯田橋ビル７階,,13,104,1620824,,,,,,,2022-07-26,1,,,,,ネイティブエックスジャパン,0
1963,8011101099624,新規,0,2022-07-26,2022-07-26,株式会社デジボ,,株式会社,東京都,新宿区,新宿１丁目３６番２号新宿第七葉山ビル３階,,13,104,1600022,,,,,,,2022-07-26,1,,,,,デジボ,0
1977,8011803005169,新規,0,2022-07-26,2022-07-26,Ｍａｇｐｉｅ合同会社,,合同会社,東京都,葛飾区,東金町７丁目２５－８－３０４,,13,122,1250041,,,,,,,2022-07-26,1,,,,,マグパイ,0
1978,8012301013069,新規,0,2022-07-26,2022-07-26,ＰＬＵＳ　ＬＯＧ株式会社,,株式会社,東京都,町田市,森野１丁目３６番２号セレステ町田１階,,13,209,1940022,,,,,,,2022-07-26,1,,,,,プラスログ,0
1980,8012403005501,新規,0,2022-07-26,2022-07-26,合同会社うーおの森,,合同会社,東京都,三鷹市,井口１丁目２２番３８号,,13,204,1810011,,,,,,,2022-07-26,1,,,,,ウーオノモリ,0
1982,8012701017165,新規,0,2022-07-26,2022-07-26,スマイクラス株式会社,,株式会社,東京都,東村山市,栄町３丁目２８番地１５,,13,213,1890013,,,,,,,2022-07-26,1,,,,,スマイクラス,0
1984,8012801021744,新規,0,2022-07-26,2022-07-26,株式会社ＭＹ総合建設,,株式会社,東京都,東大和市,仲原４丁目１１番地１１,,13,220,2070016,,,,,,,2022-07-26,1,,,,,エムワイソウゴウケンセツ,0
1999,8021003011941,新規,0,2022-07-26,2022-07-26,合同会社Ｐｉｓｃｅｓ,,合同会社,神奈川県,横須賀市,衣笠栄町４丁目３０番地３グレーシアパーク彩の丘５１６,,14,201,2380031,,,,,,,2022-07-26,1,,,,,ピィシャス,0
2000,8021003011974,新規,0,2022-07-26,2022-07-26,ＡＬＰＨＡ合同会社,,合同会社,神奈川県,茅ヶ崎市,円蔵１丁目２３番２２号２階,,14,207,2530084,,,,,,,2022-07-26,1,,,,,アルファ,0
2005,8021005012558,新規,0,2022-07-26,2022-07-26,一般社団法人神奈川県ライフセービング協会,,その他の設立登記法人,神奈川県,藤沢市,鵠沼松が岡３丁目１７番１号,,14,205,2510038,,,,,,,2022-07-26,1,,,,,カナガワケンライフセービングキョウカイ,0
2013,8030001149347,新規,0,2022-07-26,2022-07-26,アイネ・ジャパン株式会社,,株式会社,埼玉県,狭山市,狭山台４丁目３５番地の２１,,11,215,3501304,,,,,,,2022-07-26,1,,,,,アイネジャパン,0
2019,8030003019853,新規,0,2022-07-26,2022-07-26,ＣＬＩＭＢアクチュアリーオフィス合同会社,,合同会社,埼玉県,さいたま市南区,別所５丁目１５－２,,11,108,3360021,,,,,,,2022-07-26,1,,,,,クライムアクチュアリーオフィス,0
2027,8040001124373,新規,0,2022-07-26,2022-07-26,株式会社いろは,,株式会社,千葉県,銚子市,三軒町７番地の１８、２Ｆ,,12,202,2880045,,,,,,,2022-07-26,1,,,,,イロハ,0
2028,8040001124381,新規,0,2022-07-26,2022-07-26,株式会社欣華商事,,株式会社,千葉県,八千代市,勝田台１丁目３８番地６ＷＩＮビル１階,,12,221,2760023,,,,,,,2022-07-26,1,,,,,キンカショウジ,0
2029,8040001124415,新規,0,2022-07-26,2022-07-26,株式会社ＯＥＰ,,株式会社,千葉県,市原市,東国分寺台３丁目１１番地１８,,12,219,2900074,,,,,,,2022-07-26,1,,,,,オーイーピー,0
2039,8050001051451,新規,0,2022-07-26,2022-07-26,つくばアシストフィックスオール株式会社,,株式会社,茨城県,つくば市,要１６８番地２,,08,220,3002622,,,,,,,2022-07-26,1,,,,,ツクバアシストフィックスオール,0
2050,8070001039461,新規,0,2022-07-26,2022-07-26,株式会社ピカリエハウジング,,株式会社,群馬県,高崎市,箕郷町矢原３４０－１１,,10,202,3703107,,,,,,,2022-07-26,1,,,,,ピカリエハウジング,0
2051,8070001039478,新規,0,2022-07-26,2022-07-26,株式会社ＴＯＭＭＹＳ,,株式会社,群馬県,みどり市,笠懸町鹿４５２７番地１７,,10,212,3792313,,,,,,,2022-07-26,1,,,,,トミーズ,0
2057,8080005007471,新規,0,2022-07-26,2022-07-26,一般社団法人海洋文化・研究拠点化推進協議会,,その他の設立登記法人,静岡県,静岡市清水区,興津清見寺町１３７５番地の１６,,22,103,4240206,,,,,,,2022-07-26,1,,,,,カイヨウブンカケンキュウキョテンカスイシンキョウギカイ,0
2075,8120001247612,新規,0,2022-07-26,2022-07-26,鋒日株式会社,,株式会社,大阪府,大阪市西成区,天下茶屋３丁目１７番５－Ｇ０１号室,,27,122,5570014,,,,,,,2022-07-26,1,,,,,ホウニチ,0
2076,8120001247678,新規,0,2022-07-26,2022-07-26,株式会社Ｂｅａｕｔｅ　Ｂｅａｕｔｅ,,株式会社,大阪府,大阪市西成区,旭２丁目４番９－１２０３号,,27,122,5570032,,,,,,,2022-07-26,1,,,,,ボーテボーテ,0
2077,8120001247728,新規,0,2022-07-26,2022-07-26,株式会社フォーチュン,,株式会社,大阪府,大阪市福島区,大開３丁目８番３２－８０２号,,27,103,5530007,,,,,,,2022-07-26,1,,,,,フォーチュン,0
2083,8120003022063,新規,0,2022-07-26,2022-07-26,合同会社アクセスＳｔｙｌｅ,,合同会社,大阪府,大阪市中央区,平野町１丁目７番１号堺筋高橋ビル６Ｆ,00127321,27,128,5410046,,,,,,,2022-07-26,1,,,,,アクセススタイル,0
2096,8120101065955,新規,0,2022-07-26,2022-07-26,尾井研磨株式会社,,株式会社,大阪府,和泉市,尾井町１丁目１番５号,,27,219,5940006,,,,,,,2022-07-26,1,,,,,オイケンマ,0
2099,8120901046287,新規,0,2022-07-26,2022-07-26,株式会社ｙａｔｔ,,株式会社,大阪府,箕面市,彩都粟生南６丁目７番５号,,27,220,5620028,,,,,,,2022-07-26,1,,,,,ヤット,0
2100,8120901046295,新規,0,2022-07-26,2022-07-26,株式会社クラフト,,株式会社,大阪府,高槻市,大塚町３丁目３３番１０号,,27,207,5690034,,,,,,,2022-07-26,1,,,,,クラフト,0
2119,8160005011102,新規,0,2022-07-26,2022-07-26,クリエイティブ・ライフ・チャーチ,,その他の設立登記法人,滋賀県,草津市,野路町１２８２番地２,,25,206,5250055,,,,,,,2022-07-26,1,,,,,クリエイティブライフチャーチ,0
2121,8180001152303,新規,0,2022-07-26,2022-07-26,株式会社サンクウェル,,株式会社,愛知県,名古屋市中川区,十番町４丁目５番地の２,,23,110,4540055,,,,,,,2022-07-26,1,,,,,サンクウェル,0
2122,8180001152336,新規,0,2022-07-26,2022-07-26,株式会社ジーエス,,株式会社,愛知県,名古屋市中村区,日比津町１丁目１１番１５号,,23,105,4530061,,,,,,,2022-07-26,1,,,,,ジーエス,0
2135,8200005013366,新規,0,2022-07-26,2022-07-26,一般社団法人日本の森林のみらい,,その他の設立登記法人,岐阜県,中津川市,苗木４５８６番地の５０,,21,206,5080101,,,,,,,2022-07-26,1,,,,,ニッポンノシンリンノミライ,0
2143,8240001060128,新規,0,2022-07-26,2022-07-26,ＮＩＫＯＢＡ株式会社,,株式会社,広島県,広島市西区,南観音７丁目１６番１５号,,34,104,7330035,,,,,,,2022-07-26,1,,,,,ニコバ,0
2145,8240003005725,新規,0,2022-07-26,2022-07-26,合同会社ＳＫコーポレーション,,合同会社,広島県,広島市中区,胡町３番１１号,,34,101,7300021,,,,,,,2022-07-26,1,,,,,エスケーコーポレーション,0
2147,8260001037074,新規,0,2022-07-26,2022-07-26,一井ホールディングス株式会社,,株式会社,岡山県,岡山市南区,山田２１１７番地の３,,33,104,7010202,,,,,,,2022-07-26,1,,,,,イチイホールディングス,0
2150,8290001098386,新規,0,2022-07-26,2022-07-26,株式会社ディーエムアイ,,株式会社,福岡県,大野城市,仲畑２丁目１１番７号,,40,219,8160921,,,,,,,2022-07-26,1,,,,,ディーエムアイ,0
2151,8290801028757,新規,0,2022-07-26,2022-07-26,ニコヤ株式会社,,株式会社,福岡県,北九州市小倉南区,舞ケ丘３丁目９番５号,,40,107,8020823,,,,,,,2022-07-26,1,,,,,ニコヤ,0
2153,8320001019231,新規,0,2022-07-26,2022-07-26,株式会社荻町こだわり野菜倶楽部,,株式会社,大分県,竹田市,荻町桑木８４３番地,,44,208,8796121,,,,,,,2022-07-26,1,,,,,オギマチコダワリヤサイクラブ,0
2155,8330001029964,新規,0,2022-07-26,2022-07-26,株式会社ＲＩＮＧＯＤＯＵ,,株式会社,熊本県,熊本市西区,上代１０丁目１２番２５号,,43,103,8600068,,,,,,,2022-07-26,1,,,,,リンゴドウ,0
2159,8330005010532,新規,0,2022-07-26,2022-07-26,一般社団法人命と人権のライト,,その他の設立登記法人,熊本県,熊本市北区,高平１丁目６番１号,,43,105,8600085,,,,,,,2022-07-26,1,,,,,,0
2161,8340001024915,新規,0,2022-07-26,2022-07-26,株式会社テイラークリーン,,株式会社,鹿児島県,姶良市,加治木町木田４０５７番地,,46,225,8995241,,,,,,,2022-07-26,1,,,,,テイラークリーン,0
2162,8340003003867,新規,0,2022-07-26,2022-07-26,合同会社セキュリティバンク鹿児島,,合同会社,鹿児島県,鹿児島市,皷川町１４－１３,,46,201,8920807,,,,,,,2022-07-26,1,,,,,セキュリティバンクカゴシマ,0
2163,8350001017868,新規,0,2022-07-26,2022-07-26,株式会社建進興業,,株式会社,宮崎県,児湯郡都農町,大字川北５７５５番地２,,45,406,8891201,,,,,,,2022-07-26,1,,,,,ケンシンコウギョウ,0
2169,8370001048853,新規,0,2022-07-26,2022-07-26,株式会社Ｕｎｉｔｅｄ　Ｇ,,株式会社,宮城県,仙台市青葉区,本町１丁目５番２８号カーニープレイス仙台駅前通６０３号室,,04,101,9800014,,,,,,,2022-07-26,1,,,,,ユナイテッドジー,0
2174,8370003005786,新規,0,2022-07-26,2022-07-26,ＲＤＳ合同会社,,合同会社,宮城県,仙台市太白区,八木山松波町６－１５スカイロフト八木山２０２号,,04,104,9820836,,,,,,,2022-07-26,1,,,,,アールディーエス,0
2180,8390003001981,新規,0,2022-07-26,2022-07-26,合同会社クオーレ,,合同会社,山形県,山形市,千歳１丁目１２番６号,,06,201,9900812,,,,,,,2022-07-26,1,,,,,クオーレ,0
2181,8390005008967,新規,0,2022-07-26,2022-07-26,一般社団法人徳良湖ヨット倶楽部,,その他の設立登記法人,山形県,尾花沢市,大字二藤袋１３１６番地３１,,06,212,9994212,,,,,,,2022-07-26,1,,,,,トクラコヨットクラブ,0
2190,8430001087151,新規,0,2022-07-26,2022-07-26,株式会社月月木堂,,株式会社,北海道,江別市,上江別西町３８番地の４,,01,217,0670063,,,,,,,2022-07-26,1,,,,,ツキツキドウ,0
2191,8430003014129,新規,0,2022-07-26,2022-07-26,合同会社アプリシエイト,,合同会社,北海道,札幌市北区,新川西五条４丁目４番３号,,01,102,0010935,,,,,,,2022-07-26,1,,,,,アプリシエイト,0
2192,8430005014507,新規,0,2022-07-26,2022-07-26,環境コンサル行政書士法人,,その他の設立登記法人,北海道,札幌市中央区,北四条西７丁目５番地緑苑木下ビル２階,,01,101,0600004,,,,,,,2022-07-26,1,,,,,カンキョウコンサル,0
2193,8430005014515,新規,0,2022-07-26,2022-07-26,特定非営利活動法人未来キッチン,,その他の設立登記法人,北海道,苫小牧市,弥生町２丁目１２番５号,,01,213,0530802,,,,,,,2022-07-26,1,,,,,ミライキッチン,0
2195,8470003002220,新規,0,2022-07-26,2022-07-26,合同会社真里千,,合同会社,香川県,高松市,屋島西町５０５番１,,37,201,7610113,,,,,,,2022-07-26,1,,,,,マリセン,0
2196,8480003001857,新規,0,2022-07-26,2022-07-26,子のアート合同会社,,合同会社,徳島県,徳島市,富田橋５丁目１５,,36,201,7700937,,,,,,,2022-07-26,1,,,,,コノアート,0
2199,8500001024361,新規,0,2022-07-26,2022-07-26,株式会社デジタル歯科技研,,株式会社,愛媛県,松山市,三番町５丁目１番地１０グラン榎町５０２,,38,201,7900003,,,,,,,2022-07-26,1,,,,,デジタルシカギケン,0
2210,9010003038235,新規,0,2022-07-26,2022-07-26,デジアム合同会社,,合同会社,東京都,中央区,銀座６丁目６番１号,,13,102,1040061,,,,,,,2022-07-26,1,,,,,デジアム,0
2211,9010005035346,新規,0,2022-07-26,2022-07-26,一般社団法人ＡＹＲ２,,その他の設立登記法人,東京都,中央区,日本橋１丁目４番１号,,13,102,1030027,,,,,,,2022-07-26,1,,,,,エーワイアールツー,0
2222,9010401168484,新規,0,2022-07-26,2022-07-26,ライフバズ株式会社,,株式会社,東京都,港区,白金２丁目５番５１－３０１号,,13,103,1080072,,,,,,,2022-07-26,1,,,,,ライフバズ,0
2227,9010403028117,新規,0,2022-07-26,2022-07-26,合同会社ＯＭＫ,,合同会社,東京都,港区,南青山２丁目２番１５号,,13,103,1070062,,,,,,,2022-07-26,1,,,,,オーエムケー,0
2228,9010501049155,新規,0,2022-07-26,2022-07-26,株式会社一琳,,株式会社,東京都,台東区,東上野３丁目３３番８－６０２号,,13,106,1100015,,,,,,,2022-07-26,1,,,,,イチリン,0
2235,9010603009651,新規,0,2022-07-26,2022-07-26,有明ガーデンアセット管理合同会社,,合同会社,東京都,江東区,有明２丁目１－１－２８０５,,13,108,1350063,,,,,,,2022-07-26,1,,,,,アリアケガーデンアセットカンリ,0
2247,9011003015091,新規,0,2022-07-26,2022-07-26,Ａｒｔｂｅ合同会社,,合同会社,東京都,渋谷区,桜丘町２９番３１－２０３号,,13,113,1500031,,,,,,,2022-07-26,1,,,,,アートビー,0
2252,9011203003879,新規,0,2022-07-26,2022-07-26,雲龍合同会社,,合同会社,東京都,中野区,鷺宮４丁目３４－１,,13,114,1650032,,,,,,,2022-07-26,1,,,,,ウンリュウ,0
2254,9011305002837,新規,0,2022-07-26,2022-07-26,一般社団法人ネオミライ,,その他の設立登記法人,東京都,杉並区,天沼２丁目３番７号,,13,115,1670032,,,,,,,2022-07-26,1,,,,,ネオミライ,0
2257,9011501028297,新規,0,2022-07-26,2022-07-26,桃豆株式会社,,株式会社,東京都,荒川区,南千住３丁目２７－２浅草ビルＣ号室,,13,118,1160003,,,,,,,2022-07-26,1,,,,,モモマメ,0
2259,9011701025482,新規,0,2022-07-26,2022-07-26,株式会社７３ライン,,株式会社,東京都,江戸川区,松江５丁目１５番５号,,13,123,1320025,,,,,,,2022-07-26,1,,,,,ナナサンライン,0
2261,9011803005184,新規,0,2022-07-26,2022-07-26,ケーヱヌネットワーク合同会社,,合同会社,東京都,足立区,西新井５丁目２９－５－６０２,,13,121,1230841,,,,,,,2022-07-26,1,,,,,ケーエヌネットワーク,0
2283,9021003011940,新規,0,2022-07-26,2022-07-26,合同会社ＭＡＳＡＫＩ,,合同会社,神奈川県,相模原市緑区,根小屋１４２１－７,,14,151,2520153,,,,,,,2022-07-26,1,,,,,,0
2295,9030005020924,新規,0,2022-07-26,2022-07-26,一般社団法人中小企業グローバルビジネス協会,,その他の設立登記法人,埼玉県,さいたま市浦和区,木崎４丁目１５番１７号,,11,107,3300042,,,,,,,2022-07-26,1,,,,,チュウショウキギョウグローバルビジネスキョウカイ,0
2303,9040003020446,新規,0,2022-07-26,2022-07-26,合同会社ｅｐｉｓｔｙ,,合同会社,千葉県,船橋市,山手２丁目１３番４６号カーサ・セレーナ山手Ａ－２,,12,204,2730045,,,,,,,2022-07-26,1,,,,,エピスティー,0
2305,9050005013117,新規,0,2022-07-26,2022-07-26,特定非営利活動法人日本ゼロエミッション協会,,その他の設立登記法人,茨城県,つくば市,樋の沢２１１番地９,,08,220,3001242,,,,,,,2022-07-26,1,,,,,ニホンゼロエミッションキョウカイ,0
2317,9080101023438,新規,0,2022-07-26,2022-07-26,株式会社準弥,,株式会社,静岡県,沼津市,青野３１７番地の６,,22,203,4100307,,,,,,,2022-07-26,1,,,,,ジュンヤ,0
2337,9120001247611,新規,0,2022-07-26,2022-07-26,株式会社サクセスビジョン,,株式会社,大阪府,大阪市淀川区,新高３丁目６番１７号ＫＯＨＹＯ阪急三国店２階,,27,123,5320033,,,,,,,2022-07-26,1,,,,,サクセスビジョン,0
2338,9120001247644,新規,0,2022-07-26,2022-07-26,神之谷株式会社,,株式会社,大阪府,大阪市旭区,赤川１丁目５－１３－３０２号室,,27,117,5350005,,,,,,,2022-07-26,1,,,,,カミノヤ,0
2339,9120001247669,新規,0,2022-07-26,2022-07-26,株式会社７ＡＧＥＮＴ,,株式会社,大阪府,大阪市北区,芝田２丁目２番１７－４０２号,,27,127,5300012,,,,,,,2022-07-26,1,,,,,セブンエージェント,0
2344,9120005023109,新規,0,2022-07-26,2022-07-26,医療法人中澤歯科クリニック,,その他の設立登記法人,大阪府,大阪市住之江区,中加賀屋１丁目２番３号ツインビル２階・３階,,27,125,5590017,,,,,,,2022-07-26,1,,,,,ナカザワシカクリニック,0
2347,9120101065962,新規,0,2022-07-26,2022-07-26,坂上工業株式会社,,株式会社,大阪府,堺市美原区,阿弥３９１番地３,,27,147,5870003,,,,,,,2022-07-26,1,,,,,サカガミコウギョウ,0
2353,9120903004250,新規,0,2022-07-26,2022-07-26,合同会社クリエイトデザイン,,合同会社,大阪府,箕面市,桜井１丁目１９番１３号,,27,220,5620043,,,,,,,2022-07-26,1,,,,,クリエイトデザイン,0
2360,9130001072240,新規,0,2022-07-26,2022-07-26,株式会社ＳＥＮ,,株式会社,京都府,木津川市,加茂町大字大野小字丑谷７１番地の２,,26,214,6190200,,,,,,,2022-07-26,1,,,,,セン,0
2369,9150001025717,新規,0,2022-07-26,2022-07-26,株式会社ナカウエ物流,,株式会社,奈良県,奈良市,神殿町２８２番地の４０,,29,201,6308441,,,,,,,2022-07-26,1,,,,,ナカウエブツリュウ,0
2372,9160003002630,新規,0,2022-07-26,2022-07-26,合同会社ＴＲＩＰＬＥ　ＣＲＯＷＮ,,合同会社,滋賀県,近江八幡市,鷹飼町１５４５,,25,204,5230891,,,,,,,2022-07-26,1,,,,,トリプルクラウン,0
2379,9180001152293,新規,0,2022-07-26,2022-07-26,株式会社Ｌｉｃ,,株式会社,愛知県,清須市,西枇杷島町城並１丁目４番地３,,23,233,4520011,,,,,,,2022-07-26,1,,,,,エルアイシー,0
2380,9180001152302,新規,0,2022-07-26,2022-07-26,あらいぶ株式会社,,株式会社,愛知県,名古屋市中川区,下之一色町字中ノ切６番地,,23,110,4540945,,,,,,,2022-07-26,1,,,,,アライブ,0
2382,9180003024061,新規,0,2022-07-26,2022-07-26,ＰＥＲＦＥＣＴＶＩＳＩＯＮ合同会社,,合同会社,愛知県,豊明市,沓掛町十王堂４７－１０－２,,23,229,4701101,,,,,,,2022-07-26,1,,,,,パーフェクトビジョン,0
2388,9180303005406,新規,0,2022-07-26,2022-07-26,合同会社ＫＴＡＳ,,合同会社,愛知県,岡崎市,板屋町２番地,,23,202,4440053,,,,,,,2022-07-26,1,,,,,ケータス,0
2395,9200005013365,新規,0,2022-07-26,2022-07-26,一般社団法人チームメディカル,,その他の設立登記法人,岐阜県,美濃市,１５７１番地３,,21,207,5013701,,,,,,,2022-07-26,1,,,,,チームメディカル,0
2416,9260005011116,新規,0,2022-07-26,2022-07-26,行政書士法人晴れの国事務所,,その他の設立登記法人,岡山県,岡山市北区,今１丁目１３番２２号,,33,101,7000975,,,,,,,2022-07-26,1,,,,,ハレノクニジムショ,0
2419,9290001098377,新規,0,2022-07-26,2022-07-26,陽栄商事株式会社,,株式会社,福岡県,福岡市東区,香椎照葉７丁目５番３－８０２号,,40,131,8130017,,,,,,,2022-07-26,1,,,,,ヨウエイショウジ,0
2420,9290001098385,新規,0,2022-07-26,2022-07-26,株式会社ＫＯＴＡＧＥ,,株式会社,福岡県,福岡市南区,花畑３丁目４０番２２－２号,,40,134,8111356,,,,,,,2022-07-26,1,,,,,コタゲ,0
2431,9320001019230,新規,0,2022-07-26,2022-07-26,株式会社ＳＡＩＭＯＴＯ　ＰＬＡＮＮＩＮＧ,,株式会社,大分県,日田市,大字渡里３７３番地２,,44,204,8770000,,,,,,,2022-07-26,1,,,,,サイモトプランニング,0
2434,9330001029963,新規,0,2022-07-26,2022-07-26,株式会社マツオカ,,株式会社,熊本県,八代市,永碇町１０６５番地１１,,43,202,8660885,,,,,,,2022-07-26,1,,,,,マツオカ,0
2437,9340001024914,新規,0,2022-07-26,2022-07-26,株式会社さくら企画,,株式会社,鹿児島県,鹿児島市,照国町１１番２７号,,46,201,8920841,,,,,,,2022-07-26,1,,,,,サクラキカク,0
2440,9360001030729,新規,0,2022-07-26,2022-07-26,株式会社カルミア２１,,株式会社,沖縄県,豊見城市,字翁長８５４番地１ＭＥＧＡドン・キホーテ６Ｆ,,47,212,9010223,,,,,,,2022-07-26,1,,,,,カルミアニジュウイチ,0
2441,9360001030737,新規,0,2022-07-26,2022-07-26,Ｕｎｉ株式会社,,株式会社,沖縄県,石垣市,字石垣１５６番地２４,,47,207,9070023,,,,,,,2022-07-26,1,,,,,ユニ,0
2442,9360001030745,新規,0,2022-07-26,2022-07-26,スモークフーズ株式会社,,株式会社,沖縄県,那覇市,西１丁目１０番１８号,,47,201,9000036,,,,,,,2022-07-26,1,,,,,スモークフーズ,0
2456,9420001017950,新規,0,2022-07-26,2022-07-26,株式会社プロスパー,,株式会社,青森県,五所川原市,大字小曲字枝村１０番地９,,02,205,0370076,,,,,,,2022-07-26,1,,,,,プロスパー,0
2457,9430001087092,新規,0,2022-07-26,2022-07-26,株式会社ＥＤｉＮ．,,株式会社,北海道,札幌市西区,福井１０丁目１１番１０号,,01,107,0630012,,,,,,,2022-07-26,1,,,,,エディン,0
2458,9430001087101,新規,0,2022-07-26,2022-07-26,Ｂｌａｎｃｈｅ　Ｎｅｉｇｅ株式会社,,株式会社,北海道,札幌市東区,北五条東１０丁目１６番地４ザ・グランアルト札幌苗穂ステーションタワー３Ｆ,,01,103,0650005,,,,,,,2022-07-26,1,,,,,ブランシュネージュ,0
2460,9430002052459,新規,0,2022-07-26,2022-07-26,有限会社タカハシ電器,,有限会社,北海道,赤平市,本町２丁目４番地,,01,218,0791136,,,,,,,2022-07-26,1,,,,,,0
2466,9500001024360,新規,0,2022-07-26,2022-07-26,株式会社Ａｃｅ　Ｒｉｓｉｎｇ　Ｊａｐａｎ,,株式会社,愛媛県,西条市,飯岡３５６５番地３,,38,206,7930010,,,,,,,2022-07-26,1,,,,,エースライジングジャパン,0
