sequenceNumber,corporateNumber,process,correct,updateDate,changeDate,name,nameImageId,kind,prefectureName,cityName,streetNumber,addressImageId,prefectureCode,cityCode,postCode,addressOutside,addressOutsideImageId,closeDate,closeCause,successorCorporateNumber,changeCause,assignmentDate,latest,enName,enPrefectureName,enCityName,enAddressOutside,furigana,hihyoji
10,1010001261300,新規,0,2025-12-22,2025-12-22,株式会社クラシテック,,株式会社,東京都,千代田区,神田三崎町２丁目６番２号,,13,101,1010061,,,,,,,2025-12-22,1,,,,,クラシテック,0
12,1010003049776,新規,0,2025-12-22,2025-12-22,合同会社ＣＯＲＩＳ,,合同会社,東京都,千代田区,神田神保町３丁目１１番６号神保町ビル１０階,,13,101,1010051,,,,,,,2025-12-22,1,,,,,,0
13,1010003049792,新規,0,2025-12-22,2025-12-22,ＭＫＮ合同会社,,合同会社,東京都,中央区,銀座２丁目１０番８号マニエラ銀座ビル４階,,13,102,1040061,,,,,,,2025-12-22,1,,,,,エムケイエヌ,0
14,1010003049801,新規,0,2025-12-22,2025-12-22,ダントー・アルプス系統用蓄電所Ｉ合同会社,,合同会社,東京都,中央区,銀座１丁目８番１６号３階,,13,102,1040061,,,,,,,2025-12-22,1,,,,,ダントーアルプスケイトウヨウチクデンショアイ,0
15,1010005041104,新規,0,2025-12-22,2025-12-22,一般社団法人日本オムケア協会,,その他の設立登記法人,東京都,中央区,日本橋富沢町５番１１号,,13,102,1030006,,,,,,,2025-12-22,1,,,,,ニホンオムケアキョウカイ,0
16,1010103002718,新規,0,2025-12-22,2025-12-22,合同会社エスシンコーポレーション,,合同会社,東京都,八王子市,七国１丁目１６－２アバンサール１０１,,13,201,1920919,,,,,,,2025-12-22,1,,,,,エスシンコーポレーション,0
20,1010401195288,新規,0,2025-12-22,2025-12-22,株式会社ビジョンメイク,,株式会社,東京都,港区,赤坂８丁目６番１７ー１０１号,,13,103,1070052,,,,,,,2025-12-22,1,,,,,ビジョンメイク,0
21,1010401195321,新規,0,2025-12-22,2025-12-22,株式会社Ｌａｎｇｉｃ　ＡＩ,,株式会社,東京都,港区,六本木３丁目１６番１２号六本木ＫＳビル５階,,13,103,1060032,,,,,,,2025-12-22,1,,,,,ランジックエーアイ,0
24,1010403036861,新規,0,2025-12-22,2025-12-22,合同会社Ｓｔｕｄｉｏ　Ｍｏｕｎｔａｉｎ　Ｆｉｅｌｄ,,合同会社,東京都,港区,北青山１丁目３番１号アールキューブ青山３階,,13,103,1070061,,,,,,,2025-12-22,1,,,,,スタジオマウンテンフィールド,0
30,1010601068450,新規,0,2025-12-22,2025-12-22,株式会社ａｃｃｏｍｐａｎｙ,,株式会社,東京都,江東区,毛利１丁目２１－９－３Ａ,,13,108,1350001,,,,,,,2025-12-22,1,,,,,アカンパニー,0
38,1011001174434,新規,0,2025-12-22,2025-12-22,森龍舎株式会社,,株式会社,東京都,渋谷区,道玄坂２丁目１５番１－４１５号ノア道玄坂,,13,113,1500043,,,,,,,2025-12-22,1,,,,,シンリュウシャ,0
39,1011003023168,新規,0,2025-12-22,2025-12-22,合同会社Ｆａｒ,,合同会社,東京都,渋谷区,道玄坂１丁目１０番８号渋谷道玄坂東急ビル２Ｆ－Ｃ,,13,113,1500043,,,,,,,2025-12-22,1,,,,,ファー,0
40,1011003023226,新規,0,2025-12-22,2025-12-22,Ｂ．ｈｅｒｍａｎａｓ合同会社,,合同会社,東京都,渋谷区,道玄坂１丁目１０番８号渋谷道玄坂東急ビル２Ｆ－Ｃ,,13,113,1500043,,,,,,,2025-12-22,1,,,,,ビーエルマナス,0
43,1011101114158,新規,0,2025-12-22,2025-12-22,株式会社ＨｅｌｌｏＳａｋｅ,,株式会社,東京都,新宿区,新宿１丁目３６番２号新宿第七葉山ビル３Ｆ,,13,104,1600022,,,,,,,2025-12-22,1,,,,,ハローサケ,0
44,1011101114232,新規,0,2025-12-22,2025-12-22,株式会社ＲＡＩＳＥ,,株式会社,東京都,新宿区,新宿２丁目１１番２号カーサ・ヴェルデ３０２号室,,13,104,1600022,,,,,,,2025-12-22,1,,,,,レイズ,0
51,1011501032934,新規,0,2025-12-22,2025-12-22,株式会社クレストレイル,,株式会社,東京都,北区,西ケ原２丁目８番１－１０８号,,13,117,1140024,,,,,,,2025-12-22,1,,,,,クレストレイル,0
56,1012403007529,新規,0,2025-12-22,2025-12-22,合同会社シンプルパーム,,合同会社,東京都,武蔵野市,境南町４丁目１７番２１号,,13,203,1800023,,,,,,,2025-12-22,1,,,,,シンプルパーム,0
57,1012801024423,新規,0,2025-12-22,2025-12-22,株式会社Ｒｅ‐Ｂｅｅ,,株式会社,東京都,国分寺市,日吉町３丁目２７番地１１,,13,214,1850032,,,,,,,2025-12-22,1,,,,,リビー,0
64,1020001166382,新規,0,2025-12-22,2025-12-22,株式会社ｔｉｅｓ,,株式会社,神奈川県,横浜市都筑区,川和台６番２２号カームヒルズＡ棟１０２,,14,118,2240056,,,,,,,2025-12-22,1,,,,,タイズ,0
65,1020001166399,新規,0,2025-12-22,2025-12-22,ＫＵＮＯＭＡ株式会社,,株式会社,神奈川県,横浜市西区,浅間町１丁目４番３号ウィザードビル４０２,,14,103,2200072,,,,,,,2025-12-22,1,,,,,クノマ,0
67,1020003030025,新規,0,2025-12-22,2025-12-22,Ｈｉｌｌｓｐｒｉｎｇ合同会社,,合同会社,神奈川県,横浜市都筑区,中川中央１丁目３０番１,,14,118,2240003,,,,,,,2025-12-22,1,,,,,ヒルスプリング,0
68,1021001087065,新規,0,2025-12-22,2025-12-22,木根新企画株式会社,,株式会社,神奈川県,大和市,大和南２丁目１０－４山善ビル３０３,,14,213,2420016,,,,,,,2025-12-22,1,,,,,キネシンキカク,0
69,1021001087081,新規,0,2025-12-22,2025-12-22,株式会社ＮＫＭＲ,,株式会社,神奈川県,大和市,西鶴間１丁目１０番１３号ライオンズプラザ鶴間９０１号室,,14,213,2420005,,,,,,,2025-12-22,1,,,,,エヌケーエムアール,0
74,1021005013488,新規,0,2025-12-22,2025-12-22,医療法人社団湘琉会,,その他の設立登記法人,神奈川県,藤沢市,亀井野２丁目１番地１１湘南六会ビル２階,,14,205,2520813,,,,,,,2025-12-22,1,,,,,ショウリュウカイ,0
77,1030001170235,新規,0,2025-12-22,2025-12-22,株式会社ＫＳＫ,,株式会社,埼玉県,越谷市,赤山町４丁目７番６号,,11,222,3430807,,,,,,,2025-12-22,1,,,,,ケーエスケー,0
78,1030001170251,新規,0,2025-12-22,2025-12-22,株式会社ＵＩＳＹＳ,,株式会社,埼玉県,草加市,新善町３１２－１３,,11,221,3400054,,,,,,,2025-12-22,1,,,,,ユーアイシス,0
89,1040001141862,新規,0,2025-12-22,2025-12-22,株式会社ＫＮ空調,,株式会社,千葉県,柏市,新逆井１丁目３４番１５号,,12,217,2770044,,,,,,,2025-12-22,1,,,,,ケーエヌクウチョウ,0
108,1110003006008,新規,0,2025-12-22,2025-12-22,ＪＡＰＡＮ　ＡＵＴＯ　ＰＡＲＴＳ合同会社,,合同会社,新潟県,南魚沼市,藤原４６７番２８－６（Ｄ－３）,,15,226,9497132,,,,,,,2025-12-22,1,,,,,ジャパンオートパーツ,0
114,1120001282938,新規,0,2025-12-22,2025-12-22,アユミリンク株式会社,,株式会社,大阪府,交野市,松塚２６番４号,,27,230,5760043,,,,,,,2025-12-22,1,,,,,アユミリンク,0
116,1120003031483,新規,0,2025-12-22,2025-12-22,合同会社ビジョンクラフト,,合同会社,大阪府,大阪市北区,野崎町７－８梅田パークビル３０５,,27,127,5300055,,,,,,,2025-12-22,1,,,,,ビジョンクラフト,0
118,1120101072982,新規,0,2025-12-22,2025-12-22,株式会社公園の大掃除,,株式会社,大阪府,堺市西区,浜寺公園町１丁１番地３,,27,144,5928346,,,,,,,2025-12-22,1,,,,,コウエンノオオソウジ,0
122,1122001040020,新規,0,2025-12-22,2025-12-22,株式会社藤田設備,,株式会社,大阪府,柏原市,法善寺４丁目４４１番地の３９,,27,221,5820005,,,,,,,2025-12-22,1,,,,,フジタセツビ,0
137,1150001028611,新規,0,2025-12-22,2025-12-22,株式会社つむ木,,株式会社,奈良県,生駒市,壱分町１２０番地１ファインコート８１４,,29,209,6300222,,,,,,,2025-12-22,1,,,,,ツムキ,0
138,1150003003785,新規,0,2025-12-22,2025-12-22,合同会社Ｊｏｙｏｕｓ　Ｓｍｉｌｅ,,合同会社,奈良県,天理市,前栽町１０４－１クラウンハイム天理フォレストコート６０２,,29,204,6320094,,,,,,,2025-12-22,1,,,,,ジョイアススマイル,0
139,1150005009748,新規,0,2025-12-22,2025-12-22,一般社団法人ＭＯＫＵ,,その他の設立登記法人,奈良県,橿原市,見瀬町１２３番地の３,,29,205,6340064,,,,,,,2025-12-22,1,,,,,モク,0
147,1180003029522,新規,0,2025-12-22,2025-12-22,合同会社Ｏｆｆｉｃｅ１０Ｃａｒａｔ,,合同会社,愛知県,名古屋市千種区,猫洞通３丁目７番地の６１,,23,101,4640032,,,,,,,2025-12-22,1,,,,,オフィステンカラット,0
151,1200003007178,新規,0,2025-12-22,2025-12-22,合同会社みのり,,合同会社,岐阜県,中津川市,千旦林１３９４番地の２,,21,206,5099131,,,,,,,2025-12-22,1,,,,,ミノリ,0
170,1290001112590,新規,0,2025-12-22,2025-12-22,株式会社とまり木,,株式会社,福岡県,久留米市,北野町十郎丸２２７７番地９,,40,203,8301121,,,,,,,2025-12-22,1,,,,,トマリギ,0
172,1290003017854,新規,0,2025-12-22,2025-12-22,合同会社Ｌａｖｉｅｓ,,合同会社,福岡県,飯塚市,幸袋９１番地１ニューガイア飯塚北７０１号室,,40,205,8200066,,,,,,,2025-12-22,1,,,,,ラヴィス,0
173,1290003017862,新規,0,2025-12-22,2025-12-22,合同会社中南米プレス,,合同会社,福岡県,福岡市中央区,笹丘１丁目４番１４号,,40,133,8100034,,,,,,,2025-12-22,1,,,,,チュウナンベイプレス,0
175,1290005019923,新規,0,2025-12-22,2025-12-22,西部ガス労働組合,,その他の設立登記法人,福岡県,福岡市博多区,千代１丁目１７番１号,,40,132,8120044,,,,,,,2025-12-22,1,,,,,サイブガス,0
176,1290801032121,新規,0,2025-12-22,2025-12-22,株式会社あいあい,,株式会社,福岡県,田川市,大字糒２０８５番地１０,,40,206,8250005,,,,,,,2025-12-22,1,,,,,アイアイ,0
187,1360003015479,新規,0,2025-12-22,2025-12-22,合同会社ＯＭＩＲＯＭ,,合同会社,沖縄県,那覇市,天久２丁目１４番３号Ｄ’グランセ天久エグゼコート４０４,,47,201,9000005,,,,,,,2025-12-22,1,,,,,オミロム,0
188,1370001053323,新規,0,2025-12-22,2025-12-22,ノマド民族株式会社,,株式会社,宮城県,仙台市青葉区,下愛子字畑合１２番地の５,,04,101,9893125,,,,,,,2025-12-22,1,,,,,ノマドミンゾク,0
194,1430001095879,新規,0,2025-12-22,2025-12-22,株式会社ＹＵＹＮ,,株式会社,北海道,札幌市中央区,南二条西３丁目２０番地ライオンズタワー札幌２８０３号,,01,101,0600062,,,,,,,2025-12-22,1,,,,,ユーン,0
195,1430001095887,新規,0,2025-12-22,2025-12-22,ＦｕｊｉｉＱ株式会社,,株式会社,北海道,虻田郡倶知安町,北一条西３丁目５番地,,01,400,0440051,,,,,,,2025-12-22,1,,,,,フジーク,0
199,1470001021022,新規,0,2025-12-22,2025-12-22,株式会社Ｖｒａｃｋ,,株式会社,香川県,丸亀市,郡家町６５４番地３Ｍｓコート２０３,,37,202,7630093,,,,,,,2025-12-22,1,,,,,,0
201,1700150133692,新規,0,2025-12-22,2025-12-22,Ｈｅｌｉｏｓ　ＬＬＶ　Ｓｉｘｔｅｅｎ　Ｌｉｍｉｔｅｄ,,外国会社等,,,,,,,,Ｏｎｅ　Ｌｉｍｅ　Ｓｔｒｅｅｔ，Ｌｏｎｄｏｎ　ＥＣ３Ｍ　７ＨＡ　ＵＫ,,,,,,2025-12-22,1,,,,,ヘリオスエルエルブイシツクステイーンリミテツド,0
202,1700150133701,新規,0,2025-12-22,2025-12-22,Ｔｏｒｒｅｇｕａｄｉａｒｏ　ＬＬＰ,,外国会社等,,,,,,,,Ｏｎｅ　Ｌｉｍｅ　Ｓｔｒｅｅｔ，Ｌｏｎｄｏｎ　ＥＣ３Ｍ　７ＨＡ　ＵＫ,,,,,,2025-12-22,1,,,,,トレグアデイアロエルエルピー,0
207,2010001261398,新規,0,2025-12-22,2025-12-22,株式会社月影商事,,株式会社,東京都,千代田区,神田錦町３丁目１５番地錦精社神田ビル天翔オフィス大手町竹橋２階２８８号室,,13,101,1010054,,,,,,,2025-12-22,1,,,,,ゲツエイショウジ,0
212,2010003049585,新規,0,2025-12-22,2025-12-22,合同会社ＵＣＣ　Ｊａｐａｎ,,合同会社,東京都,千代田区,一番町２－１３０３,,13,101,1020082,,,,,,,2025-12-22,1,,,,,ユーシーシージャパン,0
213,2010003049791,新規,0,2025-12-22,2025-12-22,ベテルギウス合同会社,,合同会社,東京都,中央区,銀座２丁目１０番８号マニエラ銀座ビル４階,,13,102,1040061,,,,,,,2025-12-22,1,,,,,ベテルギウス,0
220,2010401195287,新規,0,2025-12-22,2025-12-22,ブリッジフォーカス株式会社,,株式会社,東京都,港区,新橋１丁目９番５号ＫＤＸ新橋駅前ビル９階,,13,103,1050004,,,,,,,2025-12-22,1,,,,,ブリッジフォーカス,0
221,2010401195329,新規,0,2025-12-22,2025-12-22,Ｏｎｅ株式会社,,株式会社,東京都,港区,北青山１丁目３番１号アールキューブ青山３階,,13,103,1070061,,,,,,,2025-12-22,1,,,,,ワン,0
222,2010401195337,新規,0,2025-12-22,2025-12-22,ＡＴ　Ｃａｐｉｔａｌ株式会社,,株式会社,東京都,港区,南青山３丁目１番３６号青山丸竹ビル６Ｆ,,13,103,1070062,,,,,,,2025-12-22,1,,,,,エーティーキャピタル,0
225,2010403036844,新規,0,2025-12-22,2025-12-22,スターライト合同会社,,合同会社,東京都,港区,芝３丁目４－１芝パークタワー２２１０,,13,103,1050014,,,,,,,2025-12-22,1,,,,,スターライト,0
226,2010403036869,新規,0,2025-12-22,2025-12-22,合同会社ＶＥＮＴ,,合同会社,東京都,港区,六本木３丁目１６番１２号六本木ＫＳビル５Ｆ,,13,103,1060032,,,,,,,2025-12-22,1,,,,,ヴェント,0
247,2011001174086,新規,0,2025-12-22,2025-12-22,株式会社ｙｏｍｉｙｏｍｉ,,株式会社,東京都,渋谷区,渋谷３丁目２７－１－１００ＢＡＮＣＨ２階,,13,113,1500002,,,,,,,2025-12-22,1,,,,,ヨミヨミ,0
248,2011001174433,新規,0,2025-12-22,2025-12-22,株式会社鈴,,株式会社,東京都,目黒区,下目黒１丁目１番１４号コノトラビル７Ｆ,,13,110,1530064,,,,,,,2025-12-22,1,,,,,リン,0
249,2011001174516,新規,0,2025-12-22,2025-12-22,株式会社ハーモニー・ブレイク,,株式会社,東京都,渋谷区,東１丁目２９番３号渋谷ブリッジＢ棟,,13,113,1500011,,,,,,,2025-12-22,1,,,,,ハーモニーブレイク,0
250,2011001174557,新規,0,2025-12-22,2025-12-22,スタディチェーン株式会社,,株式会社,東京都,渋谷区,恵比寿西２丁目４番８号ウィンド恵比寿ビル８Ｆ,,13,113,1500021,,,,,,,2025-12-22,1,,,,,スタディチェーン,0
251,2011003023175,新規,0,2025-12-22,2025-12-22,今野合同会社,,合同会社,東京都,渋谷区,富ヶ谷２丁目２０番１６号上永ビル２階,,13,113,1510063,,,,,,,2025-12-22,1,,,,,コンノ,0
252,2011003023191,新規,0,2025-12-22,2025-12-22,ヴィー・ビー・スパイン・ジャパン合同会社,,合同会社,東京都,渋谷区,恵比寿１丁目５番９号ＳＧ恵比寿ビル２Ｆ,,13,113,1500013,,,,,,,2025-12-22,1,,,,,ヴィービースパインジャパン,0
258,2011101114132,新規,0,2025-12-22,2025-12-22,株式会社マルヨシイースト,,株式会社,東京都,新宿区,西新宿７丁目１９番９号ホライゾンコート４０１,,13,104,1600023,,,,,,,2025-12-22,1,,,,,マルヨシイースト,0
260,2011103016830,新規,0,2025-12-22,2025-12-22,Ｒｏｙａｌ　Ｈｉｌｌｓ合同会社,,合同会社,東京都,新宿区,西新宿３丁目３番１３号西新宿水間ビル６階,,13,104,1600023,,,,,,,2025-12-22,1,,,,,ロイヤルヒルズ,0
261,2011301031136,新規,0,2025-12-22,2025-12-22,株式会社龍建設工業,,株式会社,東京都,杉並区,和泉１丁目２番２号,,13,115,1680063,,,,,,,2025-12-22,1,,,,,タツケンセツコウギョウ,0
264,2011501032933,新規,0,2025-12-22,2025-12-22,株式会社将,,株式会社,東京都,北区,神谷３丁目１１番１－５２０号,,13,117,1150043,,,,,,,2025-12-22,1,,,,,ショウ,0
269,2011803007229,新規,0,2025-12-22,2025-12-22,合同会社ＬＩＶＲＡｉ,,合同会社,東京都,葛飾区,東立石３丁目３３番９号,,13,122,1240013,,,,,,,2025-12-22,1,,,,,リブライ,0
270,2011803007237,新規,0,2025-12-22,2025-12-22,合同会社シンフォート,,合同会社,東京都,足立区,青井４丁目３０番１６－１０４号,,13,121,1210012,,,,,,,2025-12-22,1,,,,,シンフォート,0
278,2012701019233,新規,0,2025-12-22,2025-12-22,株式会社二兎ＧＯＴ,,株式会社,東京都,西東京市,田無町３丁目３番７号海老沢第一ビル１０２号室,,13,229,1880011,,,,,,,2025-12-22,1,,,,,ニトゴット,0
286,2020005017093,新規,0,2025-12-22,2025-12-22,一般社団法人ＭＵＩ動物医科学研究所,,その他の設立登記法人,神奈川県,横浜市都筑区,中川中央１丁目３５番１６号マイキャッスルセンター北７０３号,,14,118,2240003,,,,,,,2025-12-22,1,,,,,ムイドウブツイカガクケンキュウジョ,0
288,2021001087031,新規,0,2025-12-22,2025-12-22,株式会社たいせい,,株式会社,神奈川県,相模原市中央区,上溝４６８番地８,,14,152,2520243,,,,,,,2025-12-22,1,,,,,タイセイ,0
289,2021001087089,新規,0,2025-12-22,2025-12-22,株式会社アールアイイー,,株式会社,神奈川県,鎌倉市,鎌倉山２丁目１２番１号,,14,204,2480031,,,,,,,2025-12-22,1,,,,,アールアイイー,0
298,2030001170242,新規,0,2025-12-22,2025-12-22,フードデザイン企画株式会社,,株式会社,埼玉県,入間市,扇台２丁目８番１７号,,11,225,3580023,,,,,,,2025-12-22,1,,,,,フードデザインキカク,0
299,2030001170250,新規,0,2025-12-22,2025-12-22,株式会社ＦＬＡＧ‐９,,株式会社,埼玉県,さいたま市緑区,東浦和６丁目１３番地１３,,11,109,3360926,,,,,,,2025-12-22,1,,,,,フラグナイン,0
304,2030003028331,新規,0,2025-12-22,2025-12-22,合同会社ＭＡＮ　ＵＰ,,合同会社,埼玉県,熊谷市,美土里町３丁目９８セントラルプラザ落合Ａ棟２０２号室,,11,202,3600845,,,,,,,2025-12-22,1,,,,,マンアップ,0
312,2040001141861,新規,0,2025-12-22,2025-12-22,株式会社絆ワークス,,株式会社,千葉県,四街道市,小名木３９番地３,,12,228,2840042,,,,,,,2025-12-22,1,,,,,キズナワークス,0
318,2040003029196,新規,0,2025-12-22,2025-12-22,宝匠リサイクル合同会社,,合同会社,千葉県,柏市,旭町６丁目３番２２号レオパレスホウセイ豊四季ＩＩ－２０２号,00141966,12,217,2770852,,,,,,,2025-12-22,1,,,,,ホウショウリサイクル,0
319,2040005022959,新規,0,2025-12-22,2025-12-22,一般社団法人奥千葉プロジェクト,,その他の設立登記法人,千葉県,匝瑳市,八日市場イ１８３風人堂内,,12,235,2892144,,,,,,,2025-12-22,1,,,,,オクチバプロジェクト,0
326,2070001043667,新規,0,2025-12-22,2025-12-22,株式会社アグリ＆フォレストリゾート,,株式会社,群馬県,高崎市,寺尾町２３０５－２５４,,10,202,3700865,,,,,,,2025-12-22,1,,,,,アグリアンドフォレストリゾート,0
328,2080103003493,新規,0,2025-12-22,2025-12-22,合同会社勝又商店,,合同会社,静岡県,沼津市,高島町１６番１３号パレスマンション３０５,,22,203,4100056,,,,,,,2025-12-22,1,,,,,カツマタショウテン,0
333,2100001039190,新規,0,2025-12-22,2025-12-22,株式会社Ｓｈｉｏｒｅ,,株式会社,長野県,長野市,三輪８丁目５１番３６アサバハイツ宇木２０５号,,20,201,3800803,,,,,,,2025-12-22,1,,,,,シオレ,0
352,2120001282805,新規,0,2025-12-22,2025-12-22,ＮＯＣＡ株式会社,,株式会社,大阪府,大阪市淀川区,十三東１丁目１７番１３号,,27,123,5320023,,,,,,,2025-12-22,1,,,,,ノカ,0
353,2120001282912,新規,0,2025-12-22,2025-12-22,株式会社初禾,,株式会社,大阪府,大阪市都島区,内代町１丁目４－１７－２０２,,27,102,5340013,,,,,,,2025-12-22,1,,,,,ショカ,0
354,2120001282937,新規,0,2025-12-22,2025-12-22,ＪＨ株式会社,,株式会社,大阪府,大阪市中央区,日本橋２丁目１５－１９,,27,128,5420073,,,,,,,2025-12-22,1,,,,,ジェイエイチ,0
356,2120003031532,新規,0,2025-12-22,2025-12-22,合同会社リードバリュー,,合同会社,大阪府,大阪市東淀川区,東中島４丁目１－７－１００７,,27,114,5330033,,,,,,,2025-12-22,1,,,,,リードバリュー,0
362,2120101072965,新規,0,2025-12-22,2025-12-22,株式会社アイシーホールディングス,,株式会社,大阪府,堺市西区,鳳北町７丁１０９番,,27,144,5938328,,,,,,,2025-12-22,1,,,,,アイシーホールディングス,0
363,2120101072981,新規,0,2025-12-22,2025-12-22,株式会社ベットアンドオークション,,株式会社,大阪府,泉南郡熊取町,つばさが丘西１丁目３番１号,,27,361,5900443,,,,,,,2025-12-22,1,,,,,ベットアンドオークション,0
375,2130005017520,新規,0,2025-12-22,2025-12-22,一般社団法人千年創匠,,その他の設立登記法人,京都府,京都市下京区,醍醐町２９０烏丸五条ビル,,26,106,6008106,,,,,,,2025-12-22,1,,,,,センネンソウショウ,0
380,2140003022975,新規,0,2025-12-22,2025-12-22,合同会社ＬａｃｉｃＳｔｙｌｅ,,合同会社,兵庫県,明石市,朝霧台３７８３番地の１６８、４０１号,,28,203,6730852,,,,,,,2025-12-22,1,,,,,ラシクスタイル,0
381,2150005009747,新規,0,2025-12-22,2025-12-22,一般社団法人ＩＢＣ　ＪＡＰＡＮ,,その他の設立登記法人,奈良県,生駒市,俵口町９５１番地,,29,209,6300243,,,,,,,2025-12-22,1,,,,,アイビーシージャパン,0
387,2180001169947,新規,0,2025-12-22,2025-12-22,株式会社ＡＬＩＮＥ,,株式会社,愛知県,名古屋市千種区,自由ケ丘３丁目２番２７号,,23,101,4640044,,,,,,,2025-12-22,1,,,,,エーライン,0
388,2180001170005,新規,0,2025-12-22,2025-12-22,半田グリーンゴルフ株式会社,,株式会社,愛知県,半田市,黒石町１６０番地,,23,205,4750976,,,,,,,2025-12-22,1,,,,,ハンダグリーンゴルフ,0
395,2190001032773,新規,0,2025-12-22,2025-12-22,株式会社Ｒｅ‐Ｂａｓｅ,,株式会社,三重県,四日市市,新正１丁目９番２５号,,24,202,5100064,,,,,,,2025-12-22,1,,,,,リベイス,0
396,2200001044528,新規,0,2025-12-22,2025-12-22,株式会社ＦＵＬＬ,,株式会社,岐阜県,岐阜市,旦島３丁目９番２５号,,21,201,5020926,,,,,,,2025-12-22,1,,,,,フル,0
397,2210001020429,新規,0,2025-12-22,2025-12-22,株式会社あしたの住まい,,株式会社,福井県,福井市,燈豊町第３９号６番地５９,,18,201,9103252,,,,,,,2025-12-22,1,,,,,アシタノスマイ,0
422,2290003017878,新規,0,2025-12-22,2025-12-22,合同会社アトモア,,合同会社,福岡県,春日市,春日２丁目１４２番地１,,40,218,8160814,,,,,,,2025-12-22,1,,,,,アトモア,0
424,2290005019930,新規,0,2025-12-22,2025-12-22,医療法人正幸会,,その他の設立登記法人,福岡県,大野城市,瑞穂町４丁目４番２１号,,40,219,8160933,,,,,,,2025-12-22,1,,,,,セイコウカイ,0
425,2290005019939,新規,0,2025-12-22,2025-12-22,医療法人ＬＯＵＩＳ,,その他の設立登記法人,福岡県,福岡市中央区,大名２丁目２－１３ビーロット大名ビル２Ｆ,,40,133,8100041,,,,,,,2025-12-22,1,,,,,ルイ,0
428,2320001021498,新規,0,2025-12-22,2025-12-22,株式会社ＧＲＥＦＴ,,株式会社,大分県,中津市,大字牛神２２１番地１,,44,203,8710015,,,,,,,2025-12-22,1,,,,,グレフト,0
429,2320003004856,新規,0,2025-12-22,2025-12-22,合同会社Ｄａｉｋｉｃｈｉ,,合同会社,大分県,佐伯市,大字海崎２４９３番地３,,44,205,8761105,,,,,,,2025-12-22,1,,,,,ダイキチ,0
438,2360001036170,新規,0,2025-12-22,2025-12-22,めぐり株式会社,,株式会社,沖縄県,名護市,大北５丁目９番６号,,47,209,9050019,,,,,,,2025-12-22,1,,,,,メグリ,0
442,2370005011045,新規,0,2025-12-22,2025-12-22,医療法人くまのみ皮ふ科クリニック,,その他の設立登記法人,宮城県,富谷市,富ケ丘２丁目１１番４３号,,04,216,9813352,,,,,,,2025-12-22,1,,,,,クマノミヒフカクリニック,0
446,2420005007987,新規,0,2025-12-22,2025-12-22,特定非営利活動法人Ｗｅｓｔ　Ｃｏａｓｔ　ｏｆ　Ａｏｍｏｒｉ,,その他の設立登記法人,青森県,西津軽郡深浦町,大字沢辺字沢辺２番地,,02,323,0382201,,,,,,,2025-12-22,1,,,,,ウエストコーストオブアオモリ,0
454,2430003018440,新規,0,2025-12-22,2025-12-22,合同会社ＴＳＵＫＩ．ＢＩＺ,,合同会社,北海道,江別市,高砂町４１番地の２２,,01,217,0670074,,,,,,,2025-12-22,1,,,,,ツキビズ,0
459,2700150133691,新規,0,2025-12-22,2025-12-22,Ｈｅｌｉｏｓ　ＬＬＶ　Ｆｏｕｒｔｅｅｎ　Ｌｉｍｉｔｅｄ,,外国会社等,,,,,,,,Ｏｎｅ　Ｌｉｍｅ　Ｓｔｒｅｅｔ，Ｌｏｎｄｏｎ　ＥＣ３Ｍ　７ＨＡ　ＵＫ,,,,,,2025-12-22,1,,,,,ヘリオスエルエルブイフオーテイーンリミテツド,0
460,2700150133700,新規,0,2025-12-22,2025-12-22,Ｆｉｄｄｌｅｒｓｆｉｒｓ　Ｌｉｍｉｔｅｄ,,外国会社等,,,,,,,,Ｏｎｅ　Ｌｉｍｅ　Ｓｔｒｅｅｔ，Ｌｏｎｄｏｎ　ＥＣ３Ｍ　７ＨＡ　ＵＫ,,,,,,2025-12-22,1,,,,,フイドラースフアーズリミテツド,0
461,2700150133709,新規,0,2025-12-22,2025-12-22,公園通り西地区市街地再開発組合,,その他,東京都,渋谷区,宇田川町２番１号,,13,113,1500042,,,,,,,2025-12-22,1,,,,,コウエンドオリニシチクシガイチサイカイハツクミアイ,0
481,3010001261364,新規,0,2025-12-22,2025-12-22,株式会社ＳＡＭＥＸ,,株式会社,東京都,中央区,湊２丁目１１番１号シティタワー銀座東２０２３,,13,102,1040043,,,,,,,2025-12-22,1,,,,,サメックス,0
483,3010003049691,新規,0,2025-12-22,2025-12-22,合同会社東宝,,合同会社,東京都,千代田区,外神田３丁目５－５末広町ハイム,,13,101,1010021,,,,,,,2025-12-22,1,,,,,トウホウ,0
484,3010003049790,新規,0,2025-12-22,2025-12-22,アケルナル合同会社,,合同会社,東京都,中央区,銀座２丁目１０番８号マニエラ銀座ビル４階,,13,102,1040061,,,,,,,2025-12-22,1,,,,,アケルナル,0
485,3010003049799,新規,0,2025-12-22,2025-12-22,ダントー・アルプス系統用蓄電所Ｇ合同会社,,合同会社,東京都,中央区,銀座１丁目８番１６号３階,,13,102,1040061,,,,,,,2025-12-22,1,,,,,ダントーアルプスケイトウヨウチクデンショジー,0
486,3010005041085,新規,0,2025-12-22,2025-12-22,一般財団法人久栄みらい環境基金,,その他の設立登記法人,東京都,千代田区,岩本町２丁目４番２号,,13,101,1010032,,,,,,,2025-12-22,1,,,,,キュウエイミライカンキョウキキン,0
495,3010401195286,新規,0,2025-12-22,2025-12-22,株式会社ＺＥＸ,,株式会社,東京都,港区,南青山２丁目２番１５号ウィン青山１２１４号,,13,103,1070062,,,,,,,2025-12-22,1,,,,,ゼックス,0
504,3010601068449,新規,0,2025-12-22,2025-12-22,株式会社ＳｕｇａｒＡ,,株式会社,東京都,江東区,塩浜２丁目５番１２－３０８号,,13,108,1350043,,,,,,,2025-12-22,1,,,,,シュガーエース,0
510,3010903010513,新規,0,2025-12-22,2025-12-22,Ｓ・Ｕオート合同会社,,合同会社,東京都,世田谷区,等々力６丁目２３番３０号,,13,112,1580082,,,,,,,2025-12-22,1,,,,,エスユーオート,0
517,3011001174184,新規,0,2025-12-22,2025-12-22,Ｕエンタープライズ株式会社,,株式会社,東京都,渋谷区,笹塚３丁目５９番１１号,,13,113,1510073,,,,,,,2025-12-22,1,,,,,ユーエンタープライズ,0
518,3011001174424,新規,0,2025-12-22,2025-12-22,株式会社ＪＰＤ　ＴＯＫＹＯ,,株式会社,東京都,目黒区,平町２丁目７－１４,,13,110,1520032,,,,,,,2025-12-22,1,,,,,,0
519,3011001174531,新規,0,2025-12-22,2025-12-22,株式会社トリップナビジャパン,,株式会社,東京都,渋谷区,道玄坂１丁目１０番８号渋谷道玄坂東急ビル２Ｆ－Ｃ,,13,113,1500043,,,,,,,2025-12-22,1,,,,,トリップナビジャパン,0
520,3011003023158,新規,0,2025-12-22,2025-12-22,合同会社Ｐａｎｄａ　Ｓｔｕｄｉｏ,,合同会社,東京都,渋谷区,恵比寿西２丁目４番８号ウィンド恵比寿ビル８Ｆ,,13,113,1500021,,,,,,,2025-12-22,1,,,,,パンダスタジオ,0
531,3011501032924,新規,0,2025-12-22,2025-12-22,互連株式会社,,株式会社,東京都,北区,上十条２丁目２７番１－２５１０号,,13,117,1140034,,,,,,,2025-12-22,1,,,,,ゴレン,0
536,3012803003951,新規,0,2025-12-22,2025-12-22,合同会社はぐくむわ,,合同会社,東京都,国分寺市,西恋ヶ窪４丁目２４番地３５,,13,214,1850013,,,,,,,2025-12-22,1,,,,,ハグクムワ,0
549,3020001166447,新規,0,2025-12-22,2025-12-22,ウィルポートフォリオ株式会社,,株式会社,神奈川県,川崎市麻生区,百合丘１丁目８番地６１,,14,137,2150011,,,,,,,2025-12-22,1,,,,,ウィルポートフォリオ,0
553,3020003030007,新規,0,2025-12-22,2025-12-22,合同会社ＮＯＩＳＥ,,合同会社,神奈川県,横浜市神奈川区,金港町５番地１４クアドリフォリオ８階,,14,102,2210056,,,,,,,2025-12-22,1,,,,,ノイズ,0
560,3021001087113,新規,0,2025-12-22,2025-12-22,株式会社山田電工,,株式会社,神奈川県,厚木市,妻田北１丁目１４番１４－１４３２号,,14,212,2430812,,,,,,,2025-12-22,1,,,,,ヤマダデンコウ,0
561,3021001087121,新規,0,2025-12-22,2025-12-22,株式会社ＧＯＯＤ　ＥＧＧＳ　ＰＬＡＮＮＩＮＧ,,株式会社,神奈川県,茅ヶ崎市,中海岸２丁目１番４４号,,14,207,2530055,,,,,,,2025-12-22,1,,,,,グッドエッグスプランニング,0
574,3030003028322,新規,0,2025-12-22,2025-12-22,合同会社Ｋｏｎｎｏｘｉｏｎ,,合同会社,埼玉県,さいたま市見沼区,大字大谷１６８７番地３,,11,104,3370014,,,,,,,2025-12-22,1,,,,,コンノクション,0
575,3030005022372,新規,0,2025-12-22,2025-12-22,ヤマト弁理士法人,,その他の設立登記法人,埼玉県,志木市,本町４丁目２番２５－２０１号,,11,228,3530004,,,,,,,2025-12-22,1,,,,,ヤマト,0
581,3040001141877,新規,0,2025-12-22,2025-12-22,Ａｎｏｋａ　Ｐａｒｔｎｅｒｓ株式会社,,株式会社,千葉県,市川市,八幡２丁目９番１５号,,12,203,2720021,,,,,,,2025-12-22,1,,,,,アノカパートナーズ,0
582,3040001141902,新規,0,2025-12-22,2025-12-22,株式会社カーエミート,,株式会社,千葉県,旭市,鎌数２２１８番地,,12,215,2892505,,,,,,,2025-12-22,1,,,,,カーエミート,0
591,3050001057759,新規,0,2025-12-22,2025-12-22,株式会社鳴海,,株式会社,茨城県,古河市,女沼２０２番地１,,08,204,3060226,,,,,,,2025-12-22,1,,,,,ナルミ,0
597,3060003005896,新規,0,2025-12-22,2025-12-22,合同会社イコールロール,,合同会社,栃木県,宇都宮市,西川田町４８２番地１０７,,09,201,3210151,,,,,,,2025-12-22,1,,,,,イコールロール,0
604,3080405007786,新規,0,2025-12-22,2025-12-22,一般社団法人ＲＯＯＴＳ,,その他の設立登記法人,静岡県,浜松市中央区,天王町４６９番地の８,,22,138,4350052,,,,,,,2025-12-22,1,,,,,ルーツ,0
619,3120001282837,新規,0,2025-12-22,2025-12-22,株式会社ＲＥＥＦ,,株式会社,大阪府,大阪市北区,天神橋４丁目１０番５号上野ビル４Ｆ,,27,127,5300041,,,,,,,2025-12-22,1,,,,,リーフ,0
620,3120001282845,新規,0,2025-12-22,2025-12-22,株式会社Ｏｆｆｉｃｅ　ＭＭ　Ｏｓａｋａ,,株式会社,大阪府,大阪市西成区,山王１丁目１４番１０号,,27,122,5570001,,,,,,,2025-12-22,1,,,,,オフィスエムエムオオサカ,0
621,3120001282960,新規,0,2025-12-22,2025-12-22,翠風株式会社,,株式会社,大阪府,大阪市中央区,島之内２丁目６－６－１０１ウーロ島之内,,27,128,5420082,,,,,,,2025-12-22,1,,,,,スイフ,0
623,3120003031531,新規,0,2025-12-22,2025-12-22,合同会社匠心,,合同会社,大阪府,大阪市西淀川区,姫里２丁目９－１２－６０３,,27,113,5550025,,,,,,,2025-12-22,1,,,,,ショウシン,0
624,3120005025317,新規,0,2025-12-22,2025-12-22,一般社団法人日本ケトン食協会,,その他の設立登記法人,大阪府,大阪市天王寺区,小宮町７番２－２２０４号,,27,109,5430036,,,,,,,2025-12-22,1,,,,,ニッポンケトンショクキョウカイ,0
627,3120101072980,新規,0,2025-12-22,2025-12-22,株式会社山本権兵衛商店,,株式会社,大阪府,堺市堺区,北瓦町２丁１番９号エルプレイス堺東,,27,141,5900076,,,,,,,2025-12-22,1,,,,,ヤマモトゴンベエショウテン,0
635,3130001081255,新規,0,2025-12-22,2025-12-22,株式会社Ｃｒｏｗｎ＆ＡＹＵ,,株式会社,京都府,船井郡京丹波町,水戸尻江３番地１,,26,407,6220221,,,,,,,2025-12-22,1,,,,,クラウンアンドエーワイユー,0
643,3140001141181,新規,0,2025-12-22,2025-12-22,株式会社マナ,,株式会社,兵庫県,加古川市,米田町平津４９５番地の３,,28,210,6750054,,,,,,,2025-12-22,1,,,,,マナ,0
657,3180001169979,新規,0,2025-12-22,2025-12-22,株式会社ＲＥＷ,,株式会社,愛知県,名古屋市守山区,天子田１丁目１８０９番地３,,23,113,4630037,,,,,,,2025-12-22,1,,,,,リュウ,0
669,3180301040518,新規,0,2025-12-22,2025-12-22,株式会社Ｌｉｍａｎａ,,株式会社,愛知県,みよし市,三好丘８丁目１３番地１１,,23,236,4700202,,,,,,,2025-12-22,1,,,,,リマナ,0
670,3190001032772,新規,0,2025-12-22,2025-12-22,林秀運送株式会社,00141963,株式会社,三重県,伊勢市,宮後２丁目５番２４号,,24,203,5160072,,,,,,,2025-12-22,1,,,,,リンシュウウンソウ,0
675,3220003004196,新規,0,2025-12-22,2025-12-22,中能登まち灯合同会社,,合同会社,石川県,鹿島郡中能登町,福田フ部６５番地１,,17,407,9291634,,,,,,,2025-12-22,1,,,,,ナカノトマチアカリ,0
682,3250001021471,新規,0,2025-12-22,2025-12-22,やまぐちビジネスホールディングス株式会社,,株式会社,山口県,山口市,下小鯖５７番地１,,35,203,7530212,,,,,,,2025-12-22,1,,,,,ヤマグチビジネスホールディングス,0
694,3290003017860,新規,0,2025-12-22,2025-12-22,合同会社ＲＯＶＵＳ,,合同会社,福岡県,古賀市,花見東７丁目１４－４１ウエストサイド１Ａ,,40,223,8113112,,,,,,,2025-12-22,1,,,,,ロヴス,0
699,3290005019921,新規,0,2025-12-22,2025-12-22,医療法人竹下歯科医院,,その他の設立登記法人,福岡県,柳川市,本町３３番地１,,40,207,8320045,,,,,,,2025-12-22,1,,,,,タケシタシカイイン,0
703,3320003004855,新規,0,2025-12-22,2025-12-22,合同会社Ｃ．Ｈ．ＩＩＩ,,合同会社,大分県,大分市,富士見が丘西２丁目１９番２１号,,44,201,8701177,,,,,,,2025-12-22,1,,,,,シーエイチスリー,0
706,3330001033847,新規,0,2025-12-22,2025-12-22,あらおウォーターサービス株式会社,,株式会社,熊本県,荒尾市,荒尾２６７０番地ありあけ水テラス２Ｆ,,43,204,8640041,,,,,,,2025-12-22,1,,,,,アラオウォーターサービス,0
711,3350001019860,新規,0,2025-12-22,2025-12-22,青木アセット株式会社,,株式会社,宮崎県,宮崎市,吉村町今村甲４１８３番地１,,45,201,8800841,,,,,,,2025-12-22,1,,,,,アオキアセット,0
716,3360005007340,新規,0,2025-12-22,2025-12-22,一般社団法人字新城郷友会,,その他の設立登記法人,沖縄県,宜野湾市,新城２丁目５番１１号,,47,205,9012201,,,,,,,2025-12-22,1,,,,,アザアラグスクキョウユウカイ,0
717,3370005011052,新規,0,2025-12-22,2025-12-22,医療法人鴛鴦会,,その他の設立登記法人,宮城県,仙台市泉区,泉ケ丘３丁目５－１７,,04,105,9813201,,,,,,,2025-12-22,1,,,,,エンオウカイ,0
719,3430001095902,新規,0,2025-12-22,2025-12-22,株式会社３ｗｏｒｋｓ,,株式会社,北海道,小樽市,塩谷１丁目３０番４号,,01,203,0482672,,,,,,,2025-12-22,1,,,,,スリーワークス,0
721,3450003002755,新規,0,2025-12-22,2025-12-22,合同会社旭川セレモニースタッフ,,合同会社,北海道,旭川市,永山三条１３丁目４番３号,,01,204,0798413,,,,,,,2025-12-22,1,,,,,アサヒカワセレモニースタッフ,0
732,3700150133690,新規,0,2025-12-22,2025-12-22,Ｈｅｌｉｏｓ　ＬＬＶ　Ｔｈｉｒｔｅｅｎ　Ｌｉｍｉｔｅｄ,,外国会社等,,,,,,,,Ｏｎｅ　Ｌｉｍｅ　Ｓｔｒｅｅｔ，Ｌｏｎｄｏｎ　ＥＣ３Ｍ　７ＨＡ　ＵＫ,,,,,,2025-12-22,1,,,,,ヘリオスエルエルブイサーテイーンリミテツド,0
733,3700150133699,新規,0,2025-12-22,2025-12-22,Ｈｅｌｉｏｓ　ＬＬＶ　Ｓｅｖｅｎｔｅｅｎ　Ｌｉｍｉｔｅｄ,,外国会社等,,,,,,,,Ｏｎｅ　Ｌｉｍｅ　Ｓｔｒｅｅｔ，Ｌｏｎｄｏｎ　ＥＣ３Ｍ　７ＨＡ　ＵＫ,,,,,,2025-12-22,1,,,,,ヘリオスエルエルブイセブンテイーンリミテツド,0
738,4010003049765,新規,0,2025-12-22,2025-12-22,俺ＣＦＯ合同会社,,合同会社,東京都,中央区,日本橋室町１丁目１１番１２号日本橋水野ビル７階,,13,102,1030022,,,,,,,2025-12-22,1,,,,,オレシーエフオー,0
739,4010003049773,新規,0,2025-12-22,2025-12-22,ＢＲＩＤＧＥ　ＴＡＢＬＥ　ＳＴＵＤＩＯ合同会社,,合同会社,東京都,中央区,月島３丁目１５番５号,,13,102,1040052,,,,,,,2025-12-22,1,,,,,ブリッジテーブルスタジオ,0
740,4010003049798,新規,0,2025-12-22,2025-12-22,ダントー・アルプス系統用蓄電所合同会社,,合同会社,東京都,中央区,銀座１丁目８番１６号３階,,13,102,1040061,,,,,,,2025-12-22,1,,,,,ダントーアルプスケイトウヨウチクデンショ,0
741,4010003049807,新規,0,2025-12-22,2025-12-22,ＢＲＡＮＺ開発１号合同会社,,合同会社,東京都,千代田区,平河町１丁目６番１５号シルスフィア会計事務所内,,13,101,1020093,,,,,,,2025-12-22,1,,,,,ブランズカイハツイチゴウ,0
749,4010401195277,新規,0,2025-12-22,2025-12-22,株式会社ＧＯＴＯ　Ｃａｐｉｔａｌ,,株式会社,東京都,港区,西麻布３丁目４番１号,,13,103,1060031,,,,,,,2025-12-22,1,,,,,ゴトウキャピタル,0
750,4010401195302,新規,0,2025-12-22,2025-12-22,株式会社ＲＯＵＴＥ．Ｓ,,株式会社,東京都,港区,浜松町２丁目２番１５号浜松町ダイヤビル２Ｆ,,13,103,1050013,,,,,,,2025-12-22,1,,,,,ルートエス,0
751,4010401195310,新規,0,2025-12-22,2025-12-22,株式会社Ｓｙｎｅｒｇｙ　ｅｆｆｅｃｔ,,株式会社,東京都,港区,東麻布２丁目３５番１号ＫＣビル３１３,,13,103,1060044,,,,,,,2025-12-22,1,,,,,シナジーエフェクト,0
752,4010401195327,新規,0,2025-12-22,2025-12-22,Ｕｎｉｌｕｍｉｎ　Ｊａｐａｎ株式会社,,株式会社,東京都,港区,浜松町１丁目１１番６号吉和田ビル４Ｆ,,13,103,1050013,,,,,,,2025-12-22,1,,,,,ユニロミンジャパン,0
753,4010401195351,新規,0,2025-12-22,2025-12-22,株式会社プライムビジョン,,株式会社,東京都,港区,新橋６丁目４番３号ル・グラシエル７号館６階,,13,103,1050004,,,,,,,2025-12-22,1,,,,,プライムビジョン,0
754,4010403036834,新規,0,2025-12-22,2025-12-22,土屋ＩＴアカウンティング合同会社,,合同会社,東京都,港区,南青山３丁目１番３６号青山丸竹ビル６Ｆ,,13,103,1070062,,,,,,,2025-12-22,1,,,,,ツチヤアイティーアカウンティング,0
765,4010703008054,新規,0,2025-12-22,2025-12-22,合同会社熱海プロジェクト,,合同会社,東京都,品川区,大崎４丁目３番１号,,13,109,1410032,,,,,,,2025-12-22,1,,,,,アタミプロジェクト,0
772,4011001174175,新規,0,2025-12-22,2025-12-22,株式会社ヴァニアン,,株式会社,東京都,渋谷区,恵比寿南１丁目２番９号岡田ビル５Ｆ,,13,113,1500022,,,,,,,2025-12-22,1,,,,,ヴァニアン,0
773,4011001174191,新規,0,2025-12-22,2025-12-22,株式会社ａｉｍｅｌｌｏｗ,,株式会社,東京都,目黒区,自由が丘１丁目２５番２０号２階,,13,110,1520035,,,,,,,2025-12-22,1,,,,,アイメロウ,0
774,4011001174398,新規,0,2025-12-22,2025-12-22,株式会社ｃｒｔ０,,株式会社,東京都,目黒区,下目黒１丁目１番１４号コノトラビル７Ｆ,,13,110,1530064,,,,,,,2025-12-22,1,,,,,シーアールティーゼロ,0
775,4011001174423,新規,0,2025-12-22,2025-12-22,株式会社ＨａｎａＷａ,,株式会社,東京都,渋谷区,恵比寿１丁目２１番８号ＶＯＲＴ恵比寿ＩＩＩ－１階,00141972,13,113,1500013,,,,,,,2025-12-22,1,,,,,ハナワ,0
776,4011001174547,新規,0,2025-12-22,2025-12-22,株式会社セカンドブレイク,,株式会社,東京都,渋谷区,東３丁目６番２２号グラマシー恵比寿５１４,,13,113,1500011,,,,,,,2025-12-22,1,,,,,セカンドブレイク,0
778,4011003023140,新規,0,2025-12-22,2025-12-22,堅凌パートナーズ合同会社,,合同会社,東京都,渋谷区,笹塚２丁目２３番６号ＳＩＤＥＰＬＡＣＥＳＡＳＡＺＵＫＡ３０２,,13,113,1510073,,,,,,,2025-12-22,1,,,,,ケンリョウパートナーズ,0
779,4011003023157,新規,0,2025-12-22,2025-12-22,合同会社ＣａｐｔａｉｎＤｒｉｖｅ,,合同会社,東京都,目黒区,東山１丁目２４－２８－１０１,,13,110,1530043,,,,,,,2025-12-22,1,,,,,キャプテンドライブ,0
780,4011003023223,新規,0,2025-12-22,2025-12-22,合同会社ヒノト,,合同会社,東京都,渋谷区,桜丘町２６－１セルリアンタワー１５階,,13,113,1500031,,,,,,,2025-12-22,1,,,,,ヒノト,0
797,4012703003431,新規,0,2025-12-22,2025-12-22,合同会社ＲｉｓｅＴｅｃｈ,,合同会社,東京都,西東京市,南町４丁目１４番８号,,13,229,1880012,,,,,,,2025-12-22,1,,,,,ライズテック,0
799,4013301055435,新規,0,2025-12-22,2025-12-22,ＳＥＮＧＡＮ洗顔サロン株式会社,,株式会社,東京都,豊島区,南池袋２丁目２７番５番共和ビル３階Ｂ,,13,116,1710022,,,,,,,2025-12-22,1,,,,,センガンサロン,0
800,4013305003811,新規,0,2025-12-22,2025-12-22,税理士法人ナカツギ,,その他の設立登記法人,東京都,豊島区,西池袋３丁目２１番１３－４０７号,,13,116,1710021,,,,,,,2025-12-22,1,,,,,ナカツギ,0
810,4020001166355,新規,0,2025-12-22,2025-12-22,株式会社小堀綜建,,株式会社,神奈川県,川崎市宮前区,有馬６丁目６番４－２１２号,,14,136,2160003,,,,,,,2025-12-22,1,,,,,コボリソウケン,0
811,4020001166413,新規,0,2025-12-22,2025-12-22,株式会社Ｙ　Ｓｏｌｕｔｉｏｎｓ,,株式会社,神奈川県,横浜市金沢区,西柴２丁目２９番２１号,,14,108,2360017,,,,,,,2025-12-22,1,,,,,ワイソリューションズ,0
821,4021001087079,新規,0,2025-12-22,2025-12-22,株式会社ヒロ・カフェノート,,株式会社,神奈川県,横須賀市,武４丁目３４－７,,14,201,2380313,,,,,,,2025-12-22,1,,,,,ヒロカフェノート,0
824,4021003016936,新規,0,2025-12-22,2025-12-22,合同会社ＳＨＩＲＯ,,合同会社,神奈川県,横須賀市,芦名１丁目２９番１１号,,14,201,2400104,,,,,,,2025-12-22,1,,,,,シロ,0
825,4021005013493,新規,0,2025-12-22,2025-12-22,社会福祉法人き・ら・ら,,その他の設立登記法人,神奈川県,逗子市,池子２丁目８番１４号,,14,208,2490003,,,,,,,2025-12-22,1,,,,,キララ,0
827,4030001170174,新規,0,2025-12-22,2025-12-22,株式会社ＫＡＫＥＨＡＳＨＩ,,株式会社,埼玉県,さいたま市桜区,西堀２丁目１０番３６－３０２号,,11,106,3380832,,,,,,,2025-12-22,1,,,,,カケハシ,0
828,4030003028313,新規,0,2025-12-22,2025-12-22,合同会社訪問介護事業ラビット,,合同会社,埼玉県,東松山市,五領町１６番地３９,,11,212,3550031,,,,,,,2025-12-22,1,,,,,ホウモンカイゴジギョウラビット,0
837,4040001141637,新規,0,2025-12-22,2025-12-22,株式会社鳥海商会,,株式会社,千葉県,千葉市中央区,登戸２丁目２番７号,,12,101,2600032,,,,,,,2025-12-22,1,,,,,トリウミショウカイ,0
838,4040001141868,新規,0,2025-12-22,2025-12-22,株式会社ＨＮＲ　ｃｏ．,,株式会社,千葉県,柏市,豊四季台３丁目１番１８－１０８号,,12,217,2770845,,,,,,,2025-12-22,1,,,,,エイチエヌアール,0
840,4040003029145,新規,0,2025-12-22,2025-12-22,ガッツファクトリー流山合同会社,,合同会社,千葉県,松戸市,新松戸３丁目４１６番地の１,,12,207,2700034,,,,,,,2025-12-22,1,,,,,ガッツファクトリーナガレヤマ,0
844,4080001027345,新規,0,2025-12-22,2025-12-22,株式会社アイディール,,株式会社,静岡県,藤枝市,藤枝１丁目１０番１７号,,22,214,4260025,,,,,,,2025-12-22,1,,,,,アイディール,0
850,4080401028331,新規,0,2025-12-22,2025-12-22,株式会社杉山事務所,,株式会社,静岡県,浜松市中央区,早出町１７５４番地の２,,22,138,4350054,,,,,,,2025-12-22,1,,,,,スギヤマジムショ,0
867,4120001281895,新規,0,2025-12-22,2025-12-22,株式会社Ｂ　ｃｒｅｗ,,株式会社,大阪府,大阪市西成区,天神ノ森１丁目１２－１,,27,122,5570013,,,,,,,2025-12-22,1,,,,,ビークルー,0
868,4120001282852,新規,0,2025-12-22,2025-12-22,株式会社セイバス,,株式会社,大阪府,大阪市住吉区,長居東２丁目３番１９－４０９号,,27,120,5580004,,,,,,,2025-12-22,1,,,,,セイバス,0
869,4120001282927,新規,0,2025-12-22,2025-12-22,株式会社ｅｍｕｌｅ,,株式会社,大阪府,大阪市中央区,東心斎橋２丁目７番５号,,27,128,5420083,,,,,,,2025-12-22,1,,,,,エミュール,0
879,4120903006004,新規,0,2025-12-22,2025-12-22,合同会社シマダプロパティ,,合同会社,大阪府,豊中市,庄内栄町１丁目２０―１５,,27,203,5610834,,,,,,,2025-12-22,1,,,,,シマダプロパティ,0
882,4122001040026,新規,0,2025-12-22,2025-12-22,株式会社鳥井,,株式会社,大阪府,四條畷市,楠公１丁目１２番１９号,,27,229,5750023,,,,,,,2025-12-22,1,,,,,トリイ,0
888,4130001081246,新規,0,2025-12-22,2025-12-22,しみずホールディングス株式会社,,株式会社,京都府,京都市南区,久世上久世町３５２番地の１,,26,107,6018212,,,,,,,2025-12-22,1,,,,,シミズホールディングス,0
890,4140001141180,新規,0,2025-12-22,2025-12-22,株式会社福和施工,,株式会社,兵庫県,神戸市西区,押部谷町木見３５０番地１号,,28,111,6512223,,,,,,,2025-12-22,1,,,,,フクワセコウ,0
896,4160003003690,新規,0,2025-12-22,2025-12-22,晴れ合同会社,,合同会社,滋賀県,草津市,東草津２丁目６番１－７号,,25,206,5250033,,,,,,,2025-12-22,1,,,,,ハレ,0
904,4180001169994,新規,0,2025-12-22,2025-12-22,ＮＥＸＧＡＴＥ株式会社,,株式会社,愛知県,名古屋市守山区,元郷１丁目１２５番地,,23,113,4630025,,,,,,,2025-12-22,1,,,,,ネクスゲイト,0
910,4180301040517,新規,0,2025-12-22,2025-12-22,株式会社そわか,,株式会社,愛知県,知立市,逢妻町城山３０番地２,00141964,23,225,4720021,,,,,,,2025-12-22,1,,,,,ソワカ,0
913,4200005013832,新規,0,2025-12-22,2025-12-22,一般社団法人岐阜ドレミファの会,,その他の設立登記法人,岐阜県,岐阜市,月丘町３丁目２０番地,,21,201,5008141,,,,,,,2025-12-22,1,,,,,ギフドレミファノカイ,0
914,4210001020427,新規,0,2025-12-22,2025-12-22,株式会社ながすぎホールディングス,,株式会社,福井県,鯖江市,小黒町１丁目１５番２３号,,18,207,9160028,,,,,,,2025-12-22,1,,,,,ナガスギホールディングス,0
915,4220003004195,新規,0,2025-12-22,2025-12-22,合同会社Ｒｅｖｅ,,合同会社,石川県,小松市,矢田野町ホ９５番地１,,17,203,9230342,,,,,,,2025-12-22,1,,,,,レーヴ,0
925,4260003005454,新規,0,2025-12-22,2025-12-22,ＡＴＴ合同会社,,合同会社,岡山県,倉敷市,連島町鶴新田１９２０－１９,,33,202,7128006,,,,,,,2025-12-22,1,,,,,エーティティ,0
926,4260005011558,新規,0,2025-12-22,2025-12-22,理證院,,その他の設立登記法人,岡山県,岡山市中区,国富２丁目２８－１８,,33,102,7038236,,,,,,,2025-12-22,1,,,,,リショウイン,0
939,4290001112555,新規,0,2025-12-22,2025-12-22,株式会社Ｒｅｇａｌ,,株式会社,福岡県,福岡市城南区,梅林３丁目１３番１６－２０２号グレイス梅林,,40,136,8140144,,,,,,,2025-12-22,1,,,,,リーガル,0
940,4290001112571,新規,0,2025-12-22,2025-12-22,株式会社伸宏,,株式会社,福岡県,大野城市,大城３丁目２７番１０号,,40,219,8160911,,,,,,,2025-12-22,1,,,,,ノブヒロ,0
949,4290005019929,新規,0,2025-12-22,2025-12-22,医療法人松園会,,その他の設立登記法人,福岡県,福岡市中央区,六本松２丁目８番２号エムエスビル１Ｆ,,40,133,8100044,,,,,,,2025-12-22,1,,,,,ショウエンカイ,0
961,4330005010998,新規,0,2025-12-22,2025-12-22,一般社団法人いきいきライフ協会上益城,,その他の設立登記法人,熊本県,上益城郡甲佐町,大字白旗７７５番地,,43,444,8613243,,,,,,,2025-12-22,1,,,,,イキイキライフキョウカイカミマシキ,0
962,4330005011006,新規,0,2025-12-22,2025-12-22,医療法人にしきど歯科医院,,その他の設立登記法人,熊本県,天草市,東浜町１９番４－１号,,43,215,8630014,,,,,,,2025-12-22,1,,,,,ニシキドシカイイン,0
979,4470001021028,新規,0,2025-12-22,2025-12-22,株式会社ＧＬ,,株式会社,香川県,観音寺市,流岡町池下１２９番地５,,37,205,7680014,,,,,,,2025-12-22,1,,,,,ジーエル,0
983,4700150133698,新規,0,2025-12-22,2025-12-22,Ｈｅｌｉｏｓ　ＬＬＶ　Ｔｗｅｎｔｙ　Ｎｉｎｅ　ＬＬＰ,,外国会社等,,,,,,,,Ｏｎｅ　Ｌｉｍｅ　Ｓｔｒｅｅｔ，Ｌｏｎｄｏｎ　ＥＣ３Ｍ　７ＨＡ　ＵＫ,,,,,,2025-12-22,1,,,,,ヘリオスエルエルブイトウエンテイナインエルエルピー,0
991,5010001261313,新規,0,2025-12-22,2025-12-22,株式会社ＳａｍｕｒＡＩ　ＤＸ,,株式会社,東京都,千代田区,神田須田町１丁目７番８号ＶＯＲＴ秋葉原ＩＶ２Ｆ,00141965,13,101,1010041,,,,,,,2025-12-22,1,,,,,サムライディーエックス,0
992,5010001261379,新規,0,2025-12-22,2025-12-22,株式会社心斎橋プロパティ,,株式会社,東京都,千代田区,内幸町２丁目１番６号,,13,101,1000011,,,,,,,2025-12-22,1,,,,,シンサイバシプロパティ,0
993,5010001261412,新規,0,2025-12-22,2025-12-22,ＴＣＧ２５１１株式会社,,株式会社,東京都,千代田区,丸の内１丁目５番１号,,13,101,1000005,,,,,,,2025-12-22,1,,,,,ティーシージーニーゴーイチイチ,0
994,5010001261420,新規,0,2025-12-22,2025-12-22,ＤＩＴＥＮＳＩＶＥ株式会社,,株式会社,東京都,千代田区,神田佐久間町２丁目１８番地１秋葉原ＳＴＮフロント１０階,,13,101,1010025,,,,,,,2025-12-22,1,,,,,ディテンシブ,0
999,5010003049748,新規,0,2025-12-22,2025-12-22,日本コールドチェーン３号合同会社,,合同会社,東京都,千代田区,有楽町２丁目１０番１号東京交通会館５階,,13,101,1000006,,,,,,,2025-12-22,1,,,,,ニホンコールドチェーンサンゴウ,0
1000,5010003049789,新規,0,2025-12-22,2025-12-22,プロキオン合同会社,,合同会社,東京都,中央区,銀座２丁目１０番８号マニエラ銀座ビル４階,,13,102,1040061,,,,,,,2025-12-22,1,,,,,プロキオン,0
1001,5010003049797,新規,0,2025-12-22,2025-12-22,合同会社ロンコプロフィットマート１号,,合同会社,東京都,中央区,日本橋１丁目４番１号日本橋一丁目ビルディング,,13,102,1030027,,,,,,,2025-12-22,1,,,,,ロンコプロフィットマートイチゴウ,0
1006,5010401195350,新規,0,2025-12-22,2025-12-22,株式会社ドルフィン・バリュー・アップ１８号,,株式会社,東京都,港区,赤坂２丁目４番６号赤坂グリーンクロス２１階,,13,103,1070052,,,,,,,2025-12-22,1,,,,,ドルフィンバリューアップジュウハチゴウ,0
1007,5010401195375,新規,0,2025-12-22,2025-12-22,株式会社勝加,,株式会社,東京都,港区,港南２丁目１６番１号７階,,13,103,1080075,,,,,,,2025-12-22,1,,,,,ショウカ,0
1011,5010403036841,新規,0,2025-12-22,2025-12-22,合同会社ＨＩＬＬ,,合同会社,東京都,港区,北青山１丁目３番１号アールキューブ青山３階,,13,103,1070061,,,,,,,2025-12-22,1,,,,,ヒル,0
1012,5010405025090,新規,0,2025-12-22,2025-12-22,一般社団法人クリエイターの総務部,,その他の設立登記法人,東京都,港区,南青山５丁目４番３５号青南吉川興産ビル３階,,13,103,1070062,,,,,,,2025-12-22,1,,,,,クリエイターノソウムブ,0
1017,5010601068455,新規,0,2025-12-22,2025-12-22,株式会社ｔｙｐｅｃｌｏｕｄ,,株式会社,東京都,墨田区,東向島６丁目１５番１５号ＳＫＹ＆ＢＡＳＥＨＩＫＩＦＵＮＥＳＫＹ－３,,13,107,1310032,,,,,,,2025-12-22,1,,,,,タイプクラウド,0
1018,5010601068463,新規,0,2025-12-22,2025-12-22,株式会社メニーカラーズ,,株式会社,東京都,江東区,富岡２丁目１１－１８ＲＲｔｏｍｉｏｋａ４Ｆ,,13,108,1350047,,,,,,,2025-12-22,1,,,,,メニーカラーズ,0
1021,5010703008053,新規,0,2025-12-22,2025-12-22,合同会社千葉プロジェクト,,合同会社,東京都,品川区,大崎４丁目３番１号,,13,109,1410032,,,,,,,2025-12-22,1,,,,,チバプロジェクト,0
1028,5011001173738,新規,0,2025-12-22,2025-12-22,株式会社シェアワークス,,株式会社,東京都,渋谷区,神南１丁目１１－４ＦＰＧリンクス神南５階,,13,113,1500041,,,,,,,2025-12-22,1,,,,,シェアワークス,0
1029,5011001174364,新規,0,2025-12-22,2025-12-22,株式会社Ａｋｚｉｄｅｎｚ,,株式会社,東京都,渋谷区,道玄坂１丁目１０番８号渋谷道玄坂東急ビル２Ｆ－Ｃ,,13,113,1500043,,,,,,,2025-12-22,1,,,,,アクチデンツ,0
1030,5011001174447,新規,0,2025-12-22,2025-12-22,株式会社ＲｏｙＡｌ,,株式会社,東京都,渋谷区,道玄坂１丁目１０番８号渋谷道玄坂東急ビル２Ｆ－Ｃ,,13,113,1500043,,,,,,,2025-12-22,1,,,,,ロイヤル,0
1031,5011001174496,新規,0,2025-12-22,2025-12-22,株式会社みはな,,株式会社,東京都,渋谷区,西原２丁目３９番６号,,13,113,1510066,,,,,,,2025-12-22,1,,,,,ミハナ,0
1032,5011001174546,新規,0,2025-12-22,2025-12-22,株式会社ＢＬＡＮＣ,,株式会社,東京都,渋谷区,神宮前３丁目３１－１４，８８．ｊｉｎｇｕｍａｅ３０１,,13,113,1500001,,,,,,,2025-12-22,1,,,,,ブラン,0
1035,5011003023156,新規,0,2025-12-22,2025-12-22,合同会社２分間の冒険,,合同会社,東京都,渋谷区,宇田川町１４－１３宇田川町ビルディング３階,,13,113,1500042,,,,,,,2025-12-22,1,,,,,ニフンカンノボウケン,0
1036,5011003023180,新規,0,2025-12-22,2025-12-22,フェルズ合同会社,,合同会社,東京都,渋谷区,道玄坂１丁目１０番８号渋谷道玄坂東急ビル２Ｆ－Ｃ,,13,113,1500043,,,,,,,2025-12-22,1,,,,,フェルズ,0
1037,5011003023222,新規,0,2025-12-22,2025-12-22,丸福合同会社,,合同会社,東京都,渋谷区,広尾１丁目２－１ヒカリビル４階,,13,113,1500012,,,,,,,2025-12-22,1,,,,,マルフク,0
1048,5011501032930,新規,0,2025-12-22,2025-12-22,ＴｅｒｕＴｅｒｕ株式会社,,株式会社,東京都,北区,神谷１丁目１１－１１－１００４,,13,117,1150043,,,,,,,2025-12-22,1,,,,,テルテル,0
1051,5011801047216,新規,0,2025-12-22,2025-12-22,株式会社結城,,株式会社,東京都,葛飾区,西水元１丁目３番２号,,13,122,1250031,,,,,,,2025-12-22,1,,,,,ユウキ,0
1063,5013301055401,新規,0,2025-12-22,2025-12-22,三日月商会株式会社,,株式会社,東京都,豊島区,東池袋１丁目３４番５号いちご東池袋ビル６階,,13,116,1700013,,,,,,,2025-12-22,1,,,,,ミカヅキショウカイ,0
1068,5020001166370,新規,0,2025-12-22,2025-12-22,株式会社真結,,株式会社,神奈川県,横浜市鶴見区,小野町１４番地３５１,,14,101,2300046,,,,,,,2025-12-22,1,,,,,シンユウ,0
1069,5020001166404,新規,0,2025-12-22,2025-12-22,株式会社ラボシエ,,株式会社,神奈川県,川崎市川崎区,駅前本町１１番地２川崎フロンティアビル４階,,14,131,2100007,,,,,,,2025-12-22,1,,,,,ラボシエ,0
1070,5020001166429,新規,0,2025-12-22,2025-12-22,ジェイバン株式会社,,株式会社,神奈川県,横浜市西区,浅間町１丁目４番３号ウィザードビル４０２,,14,103,2200072,,,,,,,2025-12-22,1,,,,,ジェイバン,0
1071,5020003029955,新規,0,2025-12-22,2025-12-22,ＬＫＡ合同会社,,合同会社,神奈川県,川崎市多摩区,登戸２１２１－１ＧＩＮＺＡＦＯＲＥＳＴ３階,,14,135,2140014,,,,,,,2025-12-22,1,,,,,エルケーエー,0
1072,5020005017099,新規,0,2025-12-22,2025-12-22,行政書士法人Ｃｒｏｓｓ　Ｂｏｒｄｅｒ,,その他の設立登記法人,神奈川県,横浜市戸塚区,小雀町４６０番地１８,,14,110,2440004,,,,,,,2025-12-22,1,,,,,クロスボーダー,0
1076,5021001087103,新規,0,2025-12-22,2025-12-22,株式会社ＳＹＭＧＲＯＷ,,株式会社,神奈川県,相模原市中央区,中央２丁目１３番３号,,14,152,2520239,,,,,,,2025-12-22,1,,,,,シムグロウ,0
1077,5021001087111,新規,0,2025-12-22,2025-12-22,株式会社エヌディースリー,,株式会社,神奈川県,相模原市南区,上鶴間本町６丁目１１番３０号,,14,153,2520318,,,,,,,2025-12-22,1,,,,,エヌディースリー,0
1079,5021003016844,新規,0,2025-12-22,2025-12-22,フジサワキカク合同会社,,合同会社,神奈川県,藤沢市,朝日町１４番１号犬塚ビル２階,,14,205,2510054,,,,,,,2025-12-22,1,,,,,フジサワキカク,0
1088,5030001170173,新規,0,2025-12-22,2025-12-22,Ｓサンライズ株式会社,,株式会社,埼玉県,さいたま市浦和区,神明１丁目７番２０号,,11,107,3300065,,,,,,,2025-12-22,1,,,,,エスサンライズ,0
1091,5030003028312,新規,0,2025-12-22,2025-12-22,合同会社ｆｏｕｒｓｏｍｅ　ｆｏｒｃｅ,,合同会社,埼玉県,川口市,青木３丁目２番３１号,,11,203,3320031,,,,,,,2025-12-22,1,,,,,フォーサムフォース,0
1092,5030003028329,新規,0,2025-12-22,2025-12-22,合同会社市川デザイン事務所,,合同会社,埼玉県,川越市,大字吉田７２４番地１７,,11,201,3500807,,,,,,,2025-12-22,1,,,,,イチカワデザインジムショ,0
1093,5030003028337,新規,0,2025-12-22,2025-12-22,ＳｅｎｄａｉＨｙｄｒｏ合同会社,,合同会社,埼玉県,鴻巣市,本町４丁目８番２５－２０５号ユニバーサルシティ,,11,217,3650038,,,,,,,2025-12-22,1,,,,,センダイハイドロ,0
1100,5040001141842,新規,0,2025-12-22,2025-12-22,株式会社あんど,,株式会社,千葉県,佐倉市,上志津１７６０番地５４,,12,212,2850846,,,,,,,2025-12-22,1,,,,,アンド,0
1104,5040003029128,新規,0,2025-12-22,2025-12-22,合同会社小川町蓄電所,,合同会社,千葉県,木更津市,かずさ鎌足１丁目８番地１,,12,206,2920818,,,,,,,2025-12-22,1,,,,,オガワマチチクデンショ,0
1105,5040003029185,新規,0,2025-12-22,2025-12-22,合同会社ｋｏｔａｎ,,合同会社,千葉県,浦安市,日の出１丁目３番２１－２０３号海風の街,,12,227,2790013,,,,,,,2025-12-22,1,,,,,コタン,0
1106,5040005022980,新規,0,2025-12-22,2025-12-22,一般社団法人えがおのために,,その他の設立登記法人,千葉県,袖ケ浦市,福王台４丁目８番地３,,12,229,2990261,,,,,,,2025-12-22,1,,,,,エガオノタメニ,0
1117,5050003009806,新規,0,2025-12-22,2025-12-22,合同会社Ｂ‐ｒｏｏｍ,,合同会社,茨城県,笠間市,石井２０７７－１,,08,216,3091613,,,,,,,2025-12-22,1,,,,,ブルーム,0
1121,5070001043664,新規,0,2025-12-22,2025-12-22,クリアード株式会社,,株式会社,群馬県,高崎市,飯塚町８００番地,,10,202,3700069,,,,,,,2025-12-22,1,,,,,クリアード,0
1129,5090003002947,新規,0,2025-12-22,2025-12-22,合同会社くぬぎリズム,,合同会社,山梨県,上野原市,八ツ沢２０６２,,19,212,4090133,,,,,,,2025-12-22,1,,,,,クヌギリズム,0
1130,5100001039196,新規,0,2025-12-22,2025-12-22,株式会社Ａｅｒｏ　ｈａｒｂｏｒ５５６,,株式会社,長野県,小県郡長和町,和田７５４番地３,,20,350,3860701,,,,,,,2025-12-22,1,,,,,エアロハーバーゴーゴーロク,0
1133,5110003006004,新規,0,2025-12-22,2025-12-22,合同会社ａｌｌａ,,合同会社,新潟県,新潟市中央区,上所３丁目１‐２Ｇ‐ＣＵＢＥｅ,,15,103,9500994,,,,,,,2025-12-22,1,,,,,オールエー,0
1141,5120001282868,新規,0,2025-12-22,2025-12-22,株式会社ジン,,株式会社,大阪府,寝屋川市,本町３番３０－２０３号,,27,215,5720832,,,,,,,2025-12-22,1,,,,,ジン,0
1142,5120001282884,新規,0,2025-12-22,2025-12-22,株式会社ＤｅｌｉｃｉａＷｏｒｋｓ,,株式会社,大阪府,大阪市北区,天神橋１丁目５番１９号,,27,127,5300041,,,,,,,2025-12-22,1,,,,,デリシアワークス,0
1143,5120001282934,新規,0,2025-12-22,2025-12-22,株式会社ＰＯＮＴＥＣ,,株式会社,大阪府,大阪市中央区,船越町１丁目５番８号ＳＴ．ＢＬＤ４１４号室,,27,128,5400036,,,,,,,2025-12-22,1,,,,,ポンテック,0
1144,5120001282959,新規,0,2025-12-22,2025-12-22,ＷＮＧ株式会社,,株式会社,大阪府,大阪市中央区,島之内２丁目６－６－１０１ウーロ島之内,,27,128,5420082,,,,,,,2025-12-22,1,,,,,ダブリューエヌジー,0
1147,5120103006910,新規,0,2025-12-22,2025-12-22,合同会社クオーレ,,合同会社,大阪府,堺市西区,鳳南町３丁１９９番地１フロントウイング８０３号,,27,144,5938325,,,,,,,2025-12-22,1,,,,,クオーレ,0
1163,5140003022989,新規,0,2025-12-22,2025-12-22,ＹｏｕＰｌａｎ合同会社,,合同会社,兵庫県,明石市,樽屋町１３－１,,28,203,6730898,,,,,,,2025-12-22,1,,,,,ユウプラン,0
1179,5230001021216,新規,0,2025-12-22,2025-12-22,株式会社ＳＨＩＮＥ,,株式会社,富山県,高岡市,瑞穂町１６番４８号,,16,202,9330955,,,,,,,2025-12-22,1,,,,,シャイン,0
1180,5250003003870,新規,0,2025-12-22,2025-12-22,合同会社エムサービス,,合同会社,山口県,宇部市,明神町２丁目９－２７,,35,202,7550008,,,,,,,2025-12-22,1,,,,,,0
1188,5290001112216,新規,0,2025-12-22,2025-12-22,株式会社ワイエン,,株式会社,福岡県,福岡市東区,香椎照葉６丁目２番５２－４２０４号,,40,131,8130017,,,,,,,2025-12-22,1,,,,,ワイエン,0
1189,5290001112579,新規,0,2025-12-22,2025-12-22,株式会社ＬｕｍｉｎａＣｒｅａｔｅ,,株式会社,福岡県,福岡市博多区,博多駅前２丁目１９番１７号,,40,132,8120011,,,,,,,2025-12-22,1,,,,,ルミナクリエイト,0
1190,5290001112604,新規,0,2025-12-22,2025-12-22,ＯＲＩＯＮ株式会社,,株式会社,福岡県,福岡市中央区,平尾５丁目１番１６－６０１号,,40,133,8100014,,,,,,,2025-12-22,1,,,,,オリオン,0
1197,5290003017859,新規,0,2025-12-22,2025-12-22,合同会社眠る姫,,合同会社,福岡県,福岡市中央区,薬院２丁目５－３３サントーア薬院６０１号室,,40,133,8100022,,,,,,,2025-12-22,1,,,,,ネムルヒメ,0
1212,5370001053336,新規,0,2025-12-22,2025-12-22,ヨクする株式会社,,株式会社,宮城県,仙台市青葉区,北根１丁目１７番７号,,04,101,9810902,,,,,,,2025-12-22,1,,,,,ヨクスル,0
1220,5410003004183,新規,0,2025-12-22,2025-12-22,ビバリーホームズ合同会社,,合同会社,秋田県,能代市,字仁井田白山２４番地１,,05,202,0160111,,,,,,,2025-12-22,1,,,,,ビバリーホームズ,0
1227,5430001095909,新規,0,2025-12-22,2025-12-22,株式会社Ｋ‐ＢＬＯＯＭ,,株式会社,北海道,札幌市中央区,南二十四条西８丁目３番３号,,01,101,0640924,,,,,,,2025-12-22,1,,,,,ケーブルーム,0
1230,5470001021027,新規,0,2025-12-22,2025-12-22,株式会社ａｎ‐ｎｏｔｔｏ,,株式会社,香川県,高松市,サンポート２番１号タワー棟３０階マリタイムプラザ高松,,37,201,7600019,,,,,,,2025-12-22,1,,,,,アンノット,0
1232,5500001026690,新規,0,2025-12-22,2025-12-22,株式会社結,,株式会社,愛媛県,松山市,祝谷２丁目２番３１号,,38,201,7900833,,,,,,,2025-12-22,1,,,,,ユイ,0
1234,5700150133689,新規,0,2025-12-22,2025-12-22,Ｈｅｌｉｏｓ　ＬＬＶ　Ｔｗｅｌｖｅ　Ｌｉｍｉｔｅｄ,,外国会社等,,,,,,,,Ｏｎｅ　Ｌｉｍｅ　Ｓｔｒｅｅｔ，Ｌｏｎｄｏｎ　ＥＣ３Ｍ　７ＨＡ　ＵＫ,,,,,,2025-12-22,1,,,,,ヘリオスエルエルブイトウエルヴリミテツド,0
1235,5700150133697,新規,0,2025-12-22,2025-12-22,Ｈｅｌｉｏｓ　ＬＬＶ　Ｔｗｅｎｔｙ　Ｅｉｇｈｔ　ＬＬＰ,,外国会社等,,,,,,,,Ｏｎｅ　Ｌｉｍｅ　Ｓｔｒｅｅｔ，Ｌｏｎｄｏｎ　ＥＣ３Ｍ　７ＨＡ　ＵＫ,,,,,,2025-12-22,1,,,,,ヘリオスエルエルブイトウエンテイエイトエルエルピー,0
1236,5700150133706,新規,0,2025-12-22,2025-12-22,Ｅｌｅｍｅｎｔａｒｙ　Ｉｎｎｏｖａｔｉｏｎ　Ｐｔｅ　Ｌｔｄ,,外国会社等,,,,,,,,６　Ｒａｆｆｌｅｓ　Ｑｕａｙ，♯１４－０６，Ｓｉｎｇａｐｏｒｅ　０４８５８０,,,,,,2025-12-22,1,,,,,エレメンタリーイノベーシヨンプライベートリミテツド,0
1251,6010001260875,新規,0,2025-12-22,2025-12-22,株式会社ＫＤ１,,株式会社,東京都,千代田区,神田神保町２丁目１０番地３１ＩＷビル１Ｆ,,13,101,1010051,,,,,,,2025-12-22,1,,,,,ケーディワン,0
1252,6010001261196,新規,0,2025-12-22,2025-12-22,株式会社Ｎｏｒａｓｔａ,,株式会社,東京都,中央区,勝どき６丁目３－１－３９０３,,13,102,1040054,,,,,,,2025-12-22,1,,,,,ノラスタ,0
1253,6010001261270,新規,0,2025-12-22,2025-12-22,Ａｎｔｉｇｒａｖｉｔｙ　Ｊａｐａｎ株式会社,,株式会社,東京都,中央区,入船２丁目３番７号築地イーストスクエア４Ｆ,,13,102,1040042,,,,,,,2025-12-22,1,,,,,アンティグラヴィティジャパン,0
1254,6010001261304,新規,0,2025-12-22,2025-12-22,コアマネジメントリンクス株式会社,,株式会社,東京都,中央区,日本橋大伝馬町１３番７号,,13,102,1030011,,,,,,,2025-12-22,1,,,,,コアマネジメントリンクス,0
1255,6010001261320,新規,0,2025-12-22,2025-12-22,株式会社Ｓｅｃｏｎｄ　Ｓｈｏｔ,,株式会社,東京都,中央区,銀座１丁目１２－４Ｎ＆ＥＢＬＤ．７階,,13,102,1040061,,,,,,,2025-12-22,1,,,,,セカンドショット,0
1256,6010001261411,新規,0,2025-12-22,2025-12-22,ＴＣＧ２５１０株式会社,,株式会社,東京都,千代田区,丸の内１丁目５番１号,,13,101,1000005,,,,,,,2025-12-22,1,,,,,ティーシージーニーゴーイチゼロ,0
1258,6010003049598,新規,0,2025-12-22,2025-12-22,合同会社ＴＭＫ,,合同会社,東京都,中央区,銀座５丁目４－１５西五ビル７階桃宵,,13,102,1040061,,,,,,,2025-12-22,1,,,,,ティーエムケー,0
1259,6010003049747,新規,0,2025-12-22,2025-12-22,合同会社Ｐｒｉｖａｔｅ　Ｃｏｍｍｕｎｉｃａｔｉｏｎ　Ｓｅｒｖｉｃｅ,,合同会社,東京都,中央区,銀座１丁目１２番４号Ｎ＆ＥＢＬＤ．６Ｆ,,13,102,1040061,,,,,,,2025-12-22,1,,,,,プライベートコミュニケーションサービス,0
1275,6010401195317,新規,0,2025-12-22,2025-12-22,ニチニチ株式会社,,株式会社,東京都,港区,赤坂１丁目１２番１２号榎坂ビル３階,,13,103,1070052,,,,,,,2025-12-22,1,,,,,ニチニチ,0
1276,6010401195399,新規,0,2025-12-22,2025-12-22,イッセン株式会社,,株式会社,東京都,港区,北青山１丁目３番１号アールキューブ青山３階,,13,103,1070061,,,,,,,2025-12-22,1,,,,,イッセン,0
1279,6010403036840,新規,0,2025-12-22,2025-12-22,合同会社かのん,,合同会社,東京都,港区,白金台３丁目１６－２８－１０７,,13,103,1080071,,,,,,,2025-12-22,1,,,,,カノン,0
1280,6010403036849,新規,0,2025-12-22,2025-12-22,合同会社Ｌｉｇｈｔ　ｔｉｄｅ　Ｓｔｕｄｉｏ,,合同会社,東京都,港区,南青山３丁目１番３６号青山丸竹ビル６Ｆ,,13,103,1070062,,,,,,,2025-12-22,1,,,,,ライトタイドスタジオ,0
1286,6010603011981,新規,0,2025-12-22,2025-12-22,合同会社ＮＩＫＰＨＯ　ＧＫ,,合同会社,東京都,江東区,大島６丁目１番３－１３０８号,,13,108,1360072,,,,,,,2025-12-22,1,,,,,ニクフォジーケイ,0
1289,6010801036822,新規,0,2025-12-22,2025-12-22,株式会社トラスト・馬場,,株式会社,東京都,大田区,東六郷１丁目１３番３号,,13,111,1440046,,,,,,,2025-12-22,1,,,,,トラストババ,0
1291,6010901058675,新規,0,2025-12-22,2025-12-22,江川ホールディングス株式会社,,株式会社,東京都,世田谷区,祖師谷１丁目１７番７号－１,,13,112,1570072,,,,,,,2025-12-22,1,,,,,エガワホールディングス,0
1296,6011001174371,新規,0,2025-12-22,2025-12-22,株式会社サトリジャパン,,株式会社,東京都,渋谷区,神南１丁目１１番４号ＦＰＧリンクス神南５階,,13,113,1500041,,,,,,,2025-12-22,1,,,,,サトリジャパン,0
1297,6011001174586,新規,0,2025-12-22,2025-12-22,ＦＰＭＣ株式会社,,株式会社,東京都,目黒区,大橋１丁目５番１－３６０２号,,13,110,1530044,,,,,,,2025-12-22,1,,,,,エフピーエムシー,0
1298,6011001174644,新規,0,2025-12-22,2025-12-22,株式会社ＥＩＴＯ,,株式会社,東京都,渋谷区,恵比寿１丁目８番１４号大黒ビル恵比寿ストア１階,,13,113,1500013,,,,,,,2025-12-22,1,,,,,エイト,0
1300,6011003023130,新規,0,2025-12-22,2025-12-22,合同会社ＨＡＢＩ　ＭＡＴＥ,,合同会社,東京都,目黒区,中央町１丁目１１番３号,,13,110,1520001,,,,,,,2025-12-22,1,,,,,,0
1306,6011405002418,新規,0,2025-12-22,2025-12-22,一般社団法人婦人科ＨＩＦＵ研究会,,その他の設立登記法人,東京都,板橋区,常盤台２丁目２１番１号,,13,119,1740071,,,,,,,2025-12-22,1,,,,,フジンカハイフケンキュウカイ,0
1310,6011803007233,新規,0,2025-12-22,2025-12-22,合同会社ＨＡＣＨＩ,,合同会社,東京都,足立区,千住橋戸町１－２０ＡＱＵＡＶＩＳＴＡ４０８,,13,121,1200038,,,,,,,2025-12-22,1,,,,,ハチ,0
1318,6012403007524,新規,0,2025-12-22,2025-12-22,合同会社ファム,,合同会社,東京都,府中市,浅間町２丁目１９番地の２,,13,206,1830001,,,,,,,2025-12-22,1,,,,,ファム,0
1320,6012701019238,新規,0,2025-12-22,2025-12-22,株式会社ＣＯＯＬ,,株式会社,東京都,小平市,小川町１丁目４７４番地１０号,,13,211,1870032,,,,,,,2025-12-22,1,,,,,クール,0
1321,6012803003949,新規,0,2025-12-22,2025-12-22,Ｂｅｅｔｌｅ‐ｐｉｐｅ合同会社,,合同会社,東京都,日野市,西平山５丁目３３番地の２,,13,212,1910055,,,,,,,2025-12-22,1,,,,,ビートルパイプ,0
1323,6013301055508,新規,0,2025-12-22,2025-12-22,ＭＩメディカル株式会社,,株式会社,東京都,豊島区,東池袋２丁目６２番８号ＢＩＧオフィスプラザ池袋１２０６,,13,116,1700013,,,,,,,2025-12-22,1,,,,,エムアイメディカル,0
1326,6020001166386,新規,0,2025-12-22,2025-12-22,ＰＥＡＫＢＵＬＬテクノロジー株式会社,,株式会社,神奈川県,横浜市西区,北幸１丁目５－１０ＪＰＲ横浜ビル８階,,14,103,2200004,,,,,,,2025-12-22,1,,,,,ピークブルテクノロジー,0
1327,6020001166394,新規,0,2025-12-22,2025-12-22,株式会社ＯＮＥ,,株式会社,神奈川県,横浜市緑区,霧が丘４丁目１番地１,,14,113,2260016,,,,,,,2025-12-22,1,,,,,ワン,0
1328,6020003030012,新規,0,2025-12-22,2025-12-22,合同会社コレカラボ,,合同会社,神奈川県,川崎市高津区,末長１丁目３７番３４－２０６号,,14,134,2130013,,,,,,,2025-12-22,1,,,,,コレカラボ,0
1330,6021001087110,新規,0,2025-12-22,2025-12-22,株式会社アヴニール,,株式会社,神奈川県,海老名市,中央２丁目７番２３号,,14,215,2430432,,,,,,,2025-12-22,1,,,,,アヴニール,0
1332,6021003016942,新規,0,2025-12-22,2025-12-22,マツノテクノロジーズ合同会社,,合同会社,神奈川県,高座郡寒川町,一之宮１丁目８番１２号,,14,321,2530111,,,,,,,2025-12-22,1,,,,,マツノテクノロジーズ,0
1337,6030001170189,新規,0,2025-12-22,2025-12-22,株式会社ＭＦ,,株式会社,埼玉県,川口市,大字安行慈林９０５番地の２０,,11,203,3340071,,,,,,,2025-12-22,1,,,,,エムエフ,0
1338,6030001170230,新規,0,2025-12-22,2025-12-22,Ｗｈｉｔｅ　ｂａｓｅ株式会社,,株式会社,埼玉県,狭山市,大字水野１４１－５,,11,215,3501317,,,,,,,2025-12-22,1,,,,,ホワイトベース,0
1339,6030001170239,新規,0,2025-12-22,2025-12-22,株式会社星の宮ファーム,,株式会社,埼玉県,熊谷市,本石１丁目３０４番地,,11,202,3600815,,,,,,,2025-12-22,1,,,,,ホシノミヤファーム,0
1340,6030001170263,新規,0,2025-12-22,2025-12-22,株式会社ＴＯＹＯＫＡＷＡ,,株式会社,埼玉県,狭山市,新狭山２丁目６番地の６内田ビル１０１,,11,215,3501331,,,,,,,2025-12-22,1,,,,,トヨカワ,0
1346,6030003028328,新規,0,2025-12-22,2025-12-22,合同会社高輝,,合同会社,埼玉県,川口市,本町２丁目１１番地１７号ブランズ川口本町２１２,,11,203,3320012,,,,,,,2025-12-22,1,,,,,コウキ,0
1347,6030003028336,新規,0,2025-12-22,2025-12-22,合同会社ＲｅＢａｓｅ,,合同会社,埼玉県,所沢市,くすのき台１丁目１０―７肥沼ビル３Ｆ,,11,208,3590037,,,,,,,2025-12-22,1,,,,,リベース,0
1357,6040001141874,新規,0,2025-12-22,2025-12-22,株式会社きたむら,,株式会社,千葉県,柏市,若柴１７３番地８柏の葉キャンパス１５１街区Ａ－１２０５,,12,217,2770871,,,,,,,2025-12-22,1,,,,,キタムラ,0
1361,6040003029085,新規,0,2025-12-22,2025-12-22,合同会社ＨＯＡＮＧ,,合同会社,千葉県,流山市,名都借１１４１番地の１５,,12,220,2700145,,,,,,,2025-12-22,1,,,,,ホアン,0
1366,6050003009796,新規,0,2025-12-22,2025-12-22,合同会社ＪＢＭ,,合同会社,茨城県,古河市,原町１６番５５号,,08,204,3060025,,,,,,,2025-12-22,1,,,,,ジェイビーエム,0
1369,6070001043671,新規,0,2025-12-22,2025-12-22,株式会社Ｈｏｗｌｙ,,株式会社,群馬県,前橋市,本町３丁目２番１１号,,10,201,3710023,,,,,,,2025-12-22,1,,,,,ハウリー,0
1371,6070003006214,新規,0,2025-12-22,2025-12-22,合同会社街と余白,,合同会社,群馬県,沼田市,下久屋町３５０ＳＥＲＲＡ９号,,10,206,3780004,,,,,,,2025-12-22,1,,,,,,0
1378,6110001039797,新規,0,2025-12-22,2025-12-22,株式会社山岸ＨＤ,,株式会社,新潟県,長岡市,堀金２丁目１１番２３号,,15,202,9400868,,,,,,,2025-12-22,1,,,,,ヤマギシホールディングス,0
1394,6120001282792,新規,0,2025-12-22,2025-12-22,株式会社万領国際,,株式会社,大阪府,大阪市住吉区,大領２丁目８番３４号,,27,120,5580001,,,,,,,2025-12-22,1,,,,,マンリョウコクサイ,0
1395,6120001282826,新規,0,2025-12-22,2025-12-22,株式会社ＡＺＳ,,株式会社,大阪府,大阪市北区,曾根崎２丁目５番２０号お初天神ビル１階１０６号,,27,127,5300057,,,,,,,2025-12-22,1,,,,,アザス,0
1396,6120001282883,新規,0,2025-12-22,2025-12-22,株式会社ＴＯＫＵＹＡＭＡ　ＳＡＬＯＮ　ＮＥＷ　ＹＯＲＫ,,株式会社,大阪府,大阪市生野区,鶴橋４丁目２番１２号,,27,116,5440031,,,,,,,2025-12-22,1,,,,,トクヤマサロンニューヨーク,0
1397,6120001282909,新規,0,2025-12-22,2025-12-22,Ｃｌｏｕｄｗｈｉｓｐｅｒ株式会社,,株式会社,大阪府,大阪市北区,大淀南２丁目８番１１号エクセランス梅田西２０６号室,,27,127,5310075,,,,,,,2025-12-22,1,,,,,クラウドウィスパー,0
1401,6120003031520,新規,0,2025-12-22,2025-12-22,ＣＩＮＴＡ　ＬＡＵＴ　ＪＡＰＡＮ合同会社,,合同会社,大阪府,守口市,東光町３丁目８番１１号,,27,209,5700035,,,,,,,2025-12-22,1,,,,,チンタラウトジャパン,0
1402,6120005025272,新規,0,2025-12-22,2025-12-22,日立製作所労働組合西日本支部,,その他の設立登記法人,大阪府,大阪市北区,中之島２丁目３番１８号中之島フェスティバルタワー,,27,127,5300005,,,,,,,2025-12-22,1,,,,,,0
1408,6120903006002,新規,0,2025-12-22,2025-12-22,合同会社ライフサポート,,合同会社,大阪府,吹田市,片山町１丁目２１番１－６１１号,,27,205,5640082,,,,,,,2025-12-22,1,,,,,ライフサポート,0
1415,6140001141179,新規,0,2025-12-22,2025-12-22,Ａｘｉａ株式会社,,株式会社,兵庫県,神戸市兵庫区,菊水町９丁目３番１５－２号,,28,105,6520058,,,,,,,2025-12-22,1,,,,,アクシア,0
1418,6140003022988,新規,0,2025-12-22,2025-12-22,ＳＩＧＮＡＵＳ合同会社,,合同会社,兵庫県,西宮市,甲陽園西山町３－１１,,28,204,6620017,,,,,,,2025-12-22,1,,,,,シグナス,0
1422,6160001027293,新規,0,2025-12-22,2025-12-22,Ｃｈｅｒｉｓｈ‐Ｗｉｓｈ株式会社,,株式会社,滋賀県,守山市,下之郷２丁目２番６‐５号,,25,207,5240013,,,,,,,2025-12-22,1,,,,,チェリッシュウィッシュ,0
1423,6160003003689,新規,0,2025-12-22,2025-12-22,森澤合同会社,,合同会社,滋賀県,草津市,東草津２丁目６番１－７号,,25,206,5250033,,,,,,,2025-12-22,1,,,,,モリサワ,0
1439,6180003029526,新規,0,2025-12-22,2025-12-22,志おり合同会社,,合同会社,愛知県,名古屋市中村区,松原町３丁目１２番地の１,,23,105,4530021,,,,,,,2025-12-22,1,,,,,シオリゴウドウガシャ,0
1444,6190001032737,新規,0,2025-12-22,2025-12-22,株式会社流水都,,株式会社,三重県,桑名市,大字北別所１０８２‐１９９,,24,205,5110819,,,,,,,2025-12-22,1,,,,,リュウスイド,0
1445,6190005012099,新規,0,2025-12-22,2025-12-22,一般社団法人ＹＫサービス,,その他の設立登記法人,三重県,桑名市,大字下深谷部４６９１番地１,,24,205,5110808,,,,,,,2025-12-22,1,,,,,ワイケーサービス,0
1449,6200001044549,新規,0,2025-12-22,2025-12-22,ＤＯＫＥＮ株式会社,,株式会社,岐阜県,岐阜市,琴塚１丁目１７番４号,,21,201,5008222,,,,,,,2025-12-22,1,,,,,ドケン,0
1452,6210001020425,新規,0,2025-12-22,2025-12-22,株式会社ドライブインよしだ,,株式会社,福井県,三方上中郡若狭町,海山第７０号３番地,,18,501,9191461,,,,,,,2025-12-22,1,,,,,ドライブインヨシダ,0
1456,6230001021215,新規,0,2025-12-22,2025-12-22,株式会社ロイヤルグループジャパン,,株式会社,富山県,富山市,犬島５丁目４番５５号,,16,201,9318321,,,,,,,2025-12-22,1,,,,,ロイヤルグループジャパン,0
1464,6250001021477,新規,0,2025-12-22,2025-12-22,株式会社ソシーズ,,株式会社,山口県,山陽小野田市,大学通１丁目１－１,,35,216,7560884,,,,,,,2025-12-22,1,,,,,ソシーズ,0
1465,6250005009048,新規,0,2025-12-22,2025-12-22,一般社団法人しものせきスポーツ・文化コミッション,,その他の設立登記法人,山口県,下関市,菊川町下岡枝５６番地１,,35,201,7500000,,,,,,,2025-12-22,1,,,,,シモノセキスポーツブンカコミッション,0
1468,6260003005460,新規,0,2025-12-22,2025-12-22,合同会社もりのたね,,合同会社,岡山県,岡山市南区,福富西３丁目６番１３号,,33,104,7028031,,,,,,,2025-12-22,1,,,,,モリノタネ,0
1474,6290001112594,新規,0,2025-12-22,2025-12-22,株式会社ＫＩＫ,,株式会社,福岡県,福岡市中央区,渡辺通２丁目７番２８－７０６号グランドメゾン福岡ＴｈｅＣｅｎｔｒａｌＬｕｘｅ,,40,133,8100004,,,,,,,2025-12-22,1,,,,,ケーアイケー,0
1475,6290001112603,新規,0,2025-12-22,2025-12-22,株式会社松輝,,株式会社,福岡県,福岡市南区,清水２丁目１１番１２号,,40,134,8150031,,,,,,,2025-12-22,1,,,,,ショウキ,0
1479,6290005019927,新規,0,2025-12-22,2025-12-22,医療法人あざぶ会,,その他の設立登記法人,福岡県,福岡市中央区,天神１丁目１番１号アクロス福岡ビル４階,,40,133,8100001,,,,,,,2025-12-22,1,,,,,アザブカイ,0
1481,6290801032125,新規,0,2025-12-22,2025-12-22,１．０株式会社,,株式会社,福岡県,北九州市小倉北区,香春口１丁目１５番８号パラスト三萩野６０２号室,,40,106,8020084,,,,,,,2025-12-22,1,,,,,イッテンゼロ,0
1482,6290803005236,新規,0,2025-12-22,2025-12-22,合同会社晴れ空,,合同会社,福岡県,築上郡築上町,大字越路３９７番地１,,40,647,8290332,,,,,,,2025-12-22,1,,,,,ハレソラ,0
1486,6320002000027,新規,0,2025-12-22,2025-12-22,有限会社ダイト,,有限会社,大分県,大分市,大字東院１１５番地,,44,201,8700861,,,,,,,2025-12-22,1,,,,,,0
1488,6330003011352,新規,0,2025-12-22,2025-12-22,まなべる酵母塾合同会社,,合同会社,熊本県,熊本市中央区,花畑町１番１４号Ａ＆Ｍ・ＨＡＮＡＢＡＴＡ３０１号,,43,101,8600806,,,,,,,2025-12-22,1,,,,,マナベルコウボジュク,0
1496,6360003015482,新規,0,2025-12-22,2025-12-22,合同会社ＢＩＲＤＩＥＳ,,合同会社,沖縄県,沖縄市,古謝津嘉山町３３－１津嘉山ゴルフ１Ｆ,,47,211,9042166,,,,,,,2025-12-22,1,,,,,バーディーズ,0
1515,6500005008841,新規,0,2025-12-22,2025-12-22,一般社団法人ＬＩＮＫ　ＮＥＸＴ,,その他の設立登記法人,愛媛県,東温市,見奈良１１２５番地,,38,215,7910211,,,,,,,2025-12-22,1,,,,,リンクネクスト,0
1516,6700150133036,新規,0,2025-12-22,2025-11-26,かすみがうら市観光協会,,その他,茨城県,かすみがうら市,大和田５６２,,08,230,3000124,,,,,,,2025-11-26,1,,,,,カスミガウラシカンコウキヨウカイ,0
1518,6700150133688,新規,0,2025-12-22,2025-12-22,Ｒａｍｐ　Ｂｕｓｉｎｅｓｓ　Ｃｏｒｐｏｒａｔｉｏｎ,,外国会社等,東京都,中央区,日本橋室町４丁目３－９,,13,102,1030022,アメリカ合衆国デラウェア州ウィルミントン、オレンジ・ストリート１２０９,,,,,,2025-12-22,1,,,,,ランプビジネスコーポレーシヨン,0
1519,6700150133696,新規,0,2025-12-22,2025-12-22,Ｈｅｌｉｏｓ　ＬＬＶ　Ｔｗｅｎｔｙ　Ｏｎｅ　Ｌｉｍｉｔｅｄ,,外国会社等,,,,,,,,Ｏｎｅ　Ｌｉｍｅ　Ｓｔｒｅｅｔ，Ｌｏｎｄｏｎ　ＥＣ３Ｍ　７ＨＡ　ＵＫ,,,,,,2025-12-22,1,,,,,ヘリオスエルエルブイトウエンテイワンリミテツド,0
1520,6700150133705,新規,0,2025-12-22,2025-12-22,三沢区,,その他,長野県,岡谷市,川岸上１丁目１９－１,,20,204,3940048,,,,,,,2025-12-22,1,,,,,ミサワク,0
1525,7010001261360,新規,0,2025-12-22,2025-12-22,Ｊａｐａｎ　Ｆｉｎａｎｃｉａｌ　Ｅｌａｎ　Ｔｅｃｈｎｏｌｏｇｉｅｓ株式会社,,株式会社,東京都,中央区,八丁堀３丁目５番４号ＮＯＶＥＬＷＯＲＫ京橋５階,,13,102,1040032,,,,,,,2025-12-22,1,,,,,ジャパンフィナンシャルエランテクノロジーズ,0
1526,7010001261402,新規,0,2025-12-22,2025-12-22,株式会社ＣＯＭＥ　ＴＲＵＥ　ｎｅｘｔ,,株式会社,東京都,千代田区,六番町１３番地１１,,13,101,1020085,,,,,,,2025-12-22,1,,,,,カムトゥルーネクスト,0
1530,7010003049795,新規,0,2025-12-22,2025-12-22,合同会社ＴａｋｅＹｏｕ,,合同会社,東京都,千代田区,神田須田町１丁目７番８号ＶＯＲＴ秋葉原４、２Ｆ,,13,101,1010041,,,,,,,2025-12-22,1,,,,,テイクユー,0
1541,7010401195340,新規,0,2025-12-22,2025-12-22,株式会社Ｃｏ‐Ｐｏｌａｒｉｓ,,株式会社,東京都,港区,麻布十番２丁目２０番７号麻布十番高木ビル,00141967,13,103,1060045,,,,,,,2025-12-22,1,,,,,コーポラリス,0
1543,7010403036897,新規,0,2025-12-22,2025-12-22,合同会社Ｌｉｚｍｏｒｅ,,合同会社,東京都,港区,六本木３丁目１番３０号Ａ・Ｂビル６階,,13,103,1060032,,,,,,,2025-12-22,1,,,,,リズモア,0
1554,7010801036895,新規,0,2025-12-22,2025-12-22,株式会社ＫＵＲＡＳＵ　ＫＡＮＡＹＡ,,株式会社,東京都,大田区,西蒲田８丁目２番１２号,,13,111,1440051,,,,,,,2025-12-22,1,,,,,クラスカナヤ,0
1567,7011001174164,新規,0,2025-12-22,2025-12-22,株式会社ＯＫＵＤＥ,,株式会社,東京都,渋谷区,代官山町２０番１４号代官山東急アパートメントアネックス３０５,,13,113,1500034,,,,,,,2025-12-22,1,,,,,オクデ,0
1568,7011001174379,新規,0,2025-12-22,2025-12-22,株式会社Ｃｒｙｐｔｏ　Ｌａｂ,,株式会社,東京都,渋谷区,東２丁目１７－１１東ＳＳビル４階,,13,113,1500011,,,,,,,2025-12-22,1,,,,,クリプトラボ,0
1569,7011001174395,新規,0,2025-12-22,2025-12-22,株式会社ルミナス,,株式会社,東京都,渋谷区,道玄坂１丁目１６番６号二葉ビル８ｂ,,13,113,1500043,,,,,,,2025-12-22,1,,,,,ルミナス,0
1570,7011001174429,新規,0,2025-12-22,2025-12-22,株式会社エリープ,,株式会社,東京都,渋谷区,本町３丁目５１－１７－５０２,,13,113,1510071,,,,,,,2025-12-22,1,,,,,エリープ,0
1571,7011001174560,新規,0,2025-12-22,2025-12-22,株式会社Ｃｈａｂｉｔ,,株式会社,東京都,渋谷区,渋谷２丁目１９番１９号ワコー宮益坂ビル５Ｆ,,13,113,1500002,,,,,,,2025-12-22,1,,,,,チャビット,0
1573,7011003023162,新規,0,2025-12-22,2025-12-22,合同会社Ｔｏｋｙｏｈｉｇｈ,,合同会社,東京都,渋谷区,円山町５番３号ＭＩＥＵＸ渋谷ビル８階,,13,113,1500044,,,,,,,2025-12-22,1,,,,,トウキョウハイ,0
1582,7011103016834,新規,0,2025-12-22,2025-12-22,合同会社ｐｉｏｎｅｒｏ,,合同会社,東京都,新宿区,西新宿６丁目２０番７－２０１２号,,13,104,1600023,,,,,,,2025-12-22,1,,,,,ピオネロ,0
1583,7011201026867,新規,0,2025-12-22,2025-12-22,株式会社ＭＵＫＵ,,株式会社,東京都,中野区,中央３丁目２６番１８号ＱＣＯ２０２,,13,114,1640011,,,,,,,2025-12-22,1,,,,,ムク,0
1587,7011401027673,新規,0,2025-12-22,2025-12-22,株式会社ｎｏｂｏｄｙ,,株式会社,東京都,板橋区,南常盤台２丁目１３番７号,,13,119,1740072,,,,,,,2025-12-22,1,,,,,ノーバディ,0
1588,7011401027681,新規,0,2025-12-22,2025-12-22,さんわ情報株式会社,,株式会社,東京都,板橋区,大山町１５番１号１５番館３０２,,13,119,1730023,,,,,,,2025-12-22,1,,,,,サンワジョウホウ,0
1589,7011405002417,新規,0,2025-12-22,2025-12-22,常盤台グリーンハイツ管理組合法人,,その他の設立登記法人,東京都,板橋区,常盤台３丁目２８番１０号,,13,119,1740071,,,,,,,2025-12-22,1,,,,,トキワダイグリーンハイツ,0
1600,7012701019237,新規,0,2025-12-22,2025-12-22,株式会社Ｅｓｔｉｑｕｅ,,株式会社,東京都,小平市,学園東町３丁目８番１５－１号,,13,211,1870043,,,,,,,2025-12-22,1,,,,,エスティーク,0
1602,7013301055473,新規,0,2025-12-22,2025-12-22,出版プロデュース株式会社,,株式会社,東京都,豊島区,西池袋２丁目３１番１２号,,13,116,1710021,,,,,,,2025-12-22,1,,,,,シュッパンプロデュース,0
1607,7020001166344,新規,0,2025-12-22,2025-12-22,株式会社ＳＥＳＨＩＴＡ,,株式会社,神奈川県,横浜市青葉区,田奈町１２番地７,,14,117,2270064,,,,,,,2025-12-22,1,,,,,セシタ,0
1608,7020001166369,新規,0,2025-12-22,2025-12-22,株式会社西村,,株式会社,神奈川県,横浜市神奈川区,鶴屋町３丁目３２番１４－６０５号,,14,102,2210835,,,,,,,2025-12-22,1,,,,,ニシムラ,0
1609,7020001166393,新規,0,2025-12-22,2025-12-22,モビテラ株式会社,,株式会社,神奈川県,横浜市都筑区,池辺町４２６１番地,,14,118,2240053,,,,,,,2025-12-22,1,,,,,モビテラ,0
1610,7020001166402,新規,0,2025-12-22,2025-12-22,株式会社あめや,,株式会社,神奈川県,横浜市神奈川区,羽沢町１６９４番地,,14,102,2210863,,,,,,,2025-12-22,1,,,,,アメヤ,0
1617,7021001087076,新規,0,2025-12-22,2025-12-22,ＲＥＫＮＯ株式会社,,株式会社,神奈川県,茅ヶ崎市,共恵１丁目１－５Ｂ．Ｌ．ＤＮａｇａｓｈｉｍａ３０１,,14,207,2530056,,,,,,,2025-12-22,1,,,,,レクノ,0
1618,7021001087084,新規,0,2025-12-22,2025-12-22,株式会社ライフサポート,,株式会社,神奈川県,小田原市,栄町３丁目４－１７相湘１１栄町ビル３０１,,14,206,2500011,,,,,,,2025-12-22,1,,,,,ライフサポート,0
1621,7030001170188,新規,0,2025-12-22,2025-12-22,株式会社ＬＭＣ建装,,株式会社,埼玉県,朝霞市,溝沼２丁目３番３１－５０９号,00141974,11,227,3510023,,,,,,,2025-12-22,1,,,,,エルエムシーケンソウ,0
1622,7030001170254,新規,0,2025-12-22,2025-12-22,株式会社Ｌｏｔｕｓ,,株式会社,埼玉県,所沢市,大字北岩岡２２４番地の１８,,11,208,3590007,,,,,,,2025-12-22,1,,,,,ロータス,0
1623,7030001170262,新規,0,2025-12-22,2025-12-22,株式会社ＴｈｅＧｏ’ｓＴｏｋｙｏ,,株式会社,埼玉県,さいたま市西区,プラザ１番１号フジハイムＢ,,11,101,3310063,,,,,,,2025-12-22,1,,,,,ザゴーズトウキョウ,0
1624,7030001170270,新規,0,2025-12-22,2025-12-22,ＳＯＡＩアセットマネジメント株式会社,,株式会社,埼玉県,さいたま市北区,土呂町１丁目５０－１２白石ビル２０２号,,11,102,3310804,,,,,,,2025-12-22,1,,,,,ソーアイアセットマネジメント,0
1642,7040003029200,新規,0,2025-12-22,2025-12-22,セブンティーン合同会社,,合同会社,千葉県,松戸市,上矢切１６２９－１,,12,207,2710094,,,,,,,2025-12-22,1,,,,,セブンティーン,0
1645,7060001038878,新規,0,2025-12-22,2025-12-22,株式会社フェスティカサーキット,,株式会社,栃木県,栃木市,柏倉町１２７５－１,,09,203,3280066,,,,,,,2025-12-22,1,,,,,フェスティカサーキット,0
1649,7080105006556,新規,0,2025-12-22,2025-12-22,特定非営利活動法人ありコネクト,,その他の設立登記法人,静岡県,三島市,谷田２５８番６,,22,206,4110801,,,,,,,2025-12-22,1,,,,,アリコネクト,0
1670,7120001282965,新規,0,2025-12-22,2025-12-22,安盛通株式会社,,株式会社,大阪府,大阪市中央区,釣鐘町１丁目５番７－３０１号,,27,128,5400035,,,,,,,2025-12-22,1,,,,,アンモリツウ,0
1671,7120003031486,新規,0,2025-12-22,2025-12-22,合同会社アドバンスワークス,,合同会社,大阪府,大阪市北区,野崎町７－８梅田パークビル３０５,,27,127,5300055,,,,,,,2025-12-22,1,,,,,アドバンスワークス,0
1672,7120003031511,新規,0,2025-12-22,2025-12-22,合同会社ルナワークス,,合同会社,大阪府,大阪市浪速区,下寺１丁目２－１エステムプラザ難波１１０５,,27,111,5560001,,,,,,,2025-12-22,1,,,,,ルナワークス,0
1674,7120101072977,新規,0,2025-12-22,2025-12-22,株式会社阪南トラスト,,株式会社,大阪府,堺市西区,上野芝向ヶ丘町１丁６番１３－６０１号,,27,144,5938303,,,,,,,2025-12-22,1,,,,,ハンナントラスト,0
1684,7130001081235,新規,0,2025-12-22,2025-12-22,株式会社Ｔ．Ｓ．Ｈ　Ｊａｐａｎ,,株式会社,京都府,木津川市,相楽大徳３５番地１マークビル２－６,,26,214,6190222,,,,,,,2025-12-22,1,,,,,ティーエスエイチジャパン,0
1690,7150001028614,新規,0,2025-12-22,2025-12-22,株式会社宜和商事,,株式会社,奈良県,橿原市,白橿町６丁目１６番１５号,,29,205,6340051,,,,,,,2025-12-22,1,,,,,ギワショウジ,0
1697,7180001170000,新規,0,2025-12-22,2025-12-22,株式会社あかつきＡＣ,,株式会社,愛知県,岩倉市,石仏町長福寺１５０番地１,,23,228,4820034,,,,,,,2025-12-22,1,,,,,アカツキエーシー,0
1704,7180003029517,新規,0,2025-12-22,2025-12-22,合同会社かがやき,,合同会社,愛知県,名古屋市千種区,四谷通１丁目１イリヤ本山２０７,,23,101,4640819,,,,,,,2025-12-22,1,,,,,カガヤキ,0
1710,7200001044556,新規,0,2025-12-22,2025-12-22,クレスト株式会社,,株式会社,岐阜県,岐阜市,萱場東町４丁目２６番地,,21,201,5020935,,,,,,,2025-12-22,1,,,,,クレスト,0
1723,7240003007532,新規,0,2025-12-22,2025-12-22,合同会社ＲＭＵ,,合同会社,広島県,三次市,十日市中１丁目９番４８号,,34,209,7280012,,,,,,,2025-12-22,1,,,,,アム,0
1725,7250002015782,新規,0,2025-12-22,2025-12-22,有限会社武居ビル,,有限会社,山口県,下松市,大字西豊井３５６番地１,,35,207,7440011,,,,,,,2025-12-22,1,,,,,タケスエビル,0
1726,7250005009047,新規,0,2025-12-22,2025-12-22,一般社団法人ゆめのもり学園徳山総合ビジネス専門学校,,その他の設立登記法人,山口県,周南市,本町２丁目１３番地,,35,215,7450036,,,,,,,2025-12-22,1,,,,,ユメノモリガクエントクヤマソウゴウビジネスセンモンガッコウ,0
1743,7290005019926,新規,0,2025-12-22,2025-12-22,医療法人ＭＯＣ,,その他の設立登記法人,福岡県,福岡市東区,香椎浜４丁目８－２,,40,131,8130016,,,,,,,2025-12-22,1,,,,,エムオーシー,0
1750,7330005011003,新規,0,2025-12-22,2025-12-22,一般財団法人悠晴会,,その他の設立登記法人,熊本県,下益城郡美里町,馬場１７３番地３,,43,348,8614406,,,,,,,2025-12-22,1,,,,,ユウセイカイ,0
1751,7340001027860,新規,0,2025-12-22,2025-12-22,フールデザインファーム株式会社,,株式会社,鹿児島県,垂水市,錦江町１番地２１５定住錦江町１－２０３,,46,214,8912124,,,,,,,2025-12-22,1,,,,,フールデザインファーム,0
1758,7370001053334,新規,0,2025-12-22,2025-12-22,株式会社悠,,株式会社,宮城県,宮城郡利府町,赤沼字中倉５４番８２,,04,406,9810101,,,,,,,2025-12-22,1,,,,,ユウ,0
1760,7380001035736,新規,0,2025-12-22,2025-12-22,株式会社リベルナ,,株式会社,福島県,二本松市,油井字屋戸２０３番地１,,07,210,9691404,,,,,,,2025-12-22,1,,,,,リベルナ,0
1768,7430001095898,新規,0,2025-12-22,2025-12-22,株式会社タミヤ物産,,株式会社,北海道,白老郡白老町,字北吉原３４９番地２９２,,01,578,0590923,,,,,,,2025-12-22,1,,,,,タミヤブッサン,0
1771,7500005008840,新規,0,2025-12-22,2025-12-22,医療法人きくち眼科クリニック,,その他の設立登記法人,愛媛県,八幡浜市,産業通１番３号,,38,204,7968004,,,,,,,2025-12-22,1,,,,,キクチガンカクリニック,0
1772,7700150133687,新規,0,2025-12-22,2025-12-22,東亜道路健康保険組合,,その他,東京都,港区,六本木７丁目３番７号,,13,103,1060032,,,,,,,2025-12-22,1,,,,,トウアドウロケンコウホケンクミアイ,0
1773,7700150133695,新規,0,2025-12-22,2025-12-22,Ｈｅｌｉｏｓ　ＬＬＶ　Ｔｗｅｎｔｙ　Ｌｉｍｉｔｅｄ,,外国会社等,,,,,,,,Ｏｎｅ　Ｌｉｍｅ　Ｓｔｒｅｅｔ，Ｌｏｎｄｏｎ　ＥＣ３Ｍ　７ＨＡ　ＵＫ,,,,,,2025-12-22,1,,,,,ヘリオスエルエルブイトウエンテイリミテツド,0
1774,7700150133704,新規,0,2025-12-22,2025-12-22,Ｔａｄｍａｒｔｏｎ　１　ＬＬＰ,,外国会社等,,,,,,,,Ｏｎｅ　Ｌｉｍｅ　Ｓｔｒｅｅｔ，Ｌｏｎｄｏｎ　ＥＣ３Ｍ　７ＨＡ　ＵＫ,,,,,,2025-12-22,1,,,,,タツドマートンワンエルエルピー,0
1783,8010001260956,新規,0,2025-12-22,2025-12-22,株式会社ＯＭＨＴ,,株式会社,東京都,中央区,京橋２丁目２番１号,,13,102,1040031,,,,,,,2025-12-22,1,,,,,オーエムエイチティー,0
1785,8010003049778,新規,0,2025-12-22,2025-12-22,合同会社Ｌｉｎｅｘｉａ,,合同会社,東京都,中央区,銀座１丁目１２－４Ｎ＆ＥＢＬＤ．７階,,13,102,1040061,,,,,,,2025-12-22,1,,,,,リネクシア,0
1786,8010003049786,新規,0,2025-12-22,2025-12-22,上士幌ＭＷＰＶＥ合同会社,,合同会社,東京都,文京区,春日２丁目２４－１４發陽ビル,,13,105,1120003,,,,,,,2025-12-22,1,,,,,カミシホロエムウェーブ,0
1787,8010005041106,新規,0,2025-12-22,2025-12-22,箱根仙石原特定目的会社,,その他の設立登記法人,東京都,中央区,銀座１丁目６番１１号土志田ビルディング３Ｆ,,13,102,1040061,,,,,,,2025-12-22,1,,,,,ハコネセンゴクハラ,0
1798,8010401195298,新規,0,2025-12-22,2025-12-22,株式会社ミラクルパートナーズ,,株式会社,東京都,港区,南青山３丁目１番３６号青山丸竹ビル６Ｆ,,13,103,1070062,,,,,,,2025-12-22,1,,,,,ミラクルパートナーズ,0
1807,8010801036894,新規,0,2025-12-22,2025-12-22,株式会社ナカムラホールディングス,,株式会社,東京都,大田区,東雪谷４丁目２０番１０号,,13,111,1450065,,,,,,,2025-12-22,1,,,,,ナカムラホールディングス,0
1811,8010901058681,新規,0,2025-12-22,2025-12-22,株式会社Ｋｎｏｗｌａｓ,,株式会社,東京都,世田谷区,若林４丁目１５番１０号コーポＭ１０４,,13,112,1540023,,,,,,,2025-12-22,1,,,,,ノウラス,0
1812,8010903010500,新規,0,2025-12-22,2025-12-22,ＫＥＹ　ｔｏ　Ｊａｐａｎ合同会社,,合同会社,東京都,世田谷区,用賀１丁目６番１９号,,13,112,1580097,,,,,,,2025-12-22,1,,,,,キートゥージャパン,0
1813,8010903010509,新規,0,2025-12-22,2025-12-22,合同会社エーワイパートナーズ,,合同会社,東京都,世田谷区,給田１丁目９番９号,,13,112,1570064,,,,,,,2025-12-22,1,,,,,エーワイパートナーズ,0
1814,8010903010517,新規,0,2025-12-22,2025-12-22,合同会社ｄｅｐｐａ,,合同会社,東京都,世田谷区,太子堂４丁目１８番１５号マガザン三軒茶屋２－３Ｆ－３,,13,112,1540004,,,,,,,2025-12-22,1,,,,,デッパ,0
1820,8011001173900,新規,0,2025-12-22,2025-12-22,株式会社Ｂｉｚａｎ　ＡＩ,,株式会社,東京都,渋谷区,円山町５番３号ＭＩＥＵＸ渋谷ビル８階,,13,113,1500044,,,,,,,2025-12-22,1,,,,,ビザンエーアイ,0
1821,8011001174345,新規,0,2025-12-22,2025-12-22,株式会社ＴＯＫＹＯ　Ｍａｇ．,,株式会社,東京都,渋谷区,神南１丁目１１－４ＦＰＧリンクス神南,,13,113,1500041,,,,,,,2025-12-22,1,,,,,トウキョウマグ,0
1822,8011001174394,新規,0,2025-12-22,2025-12-22,株式会社ｒｕｎｅｒａ,,株式会社,東京都,目黒区,目黒本町２丁目２７番３－３０３号グランデュオ学芸大学３,,13,110,1520002,,,,,,,2025-12-22,1,,,,,ルネラ,0
1823,8011001174428,新規,0,2025-12-22,2025-12-22,株式会社ロクマス,,株式会社,東京都,渋谷区,恵比寿西２丁目８番４号ＥＸ恵比寿西ビル５階,,13,113,1500021,,,,,,,2025-12-22,1,,,,,ロクマス,0
1824,8011001174436,新規,0,2025-12-22,2025-12-22,株式会社ｓｅｒｅｔｙ,,株式会社,東京都,渋谷区,円山町５番３号ＭＩＥＵＸ渋谷ビル８階,,13,113,1500044,,,,,,,2025-12-22,1,,,,,セレティ,0
1825,8011001174543,新規,0,2025-12-22,2025-12-22,株式会社ＳＴＹＬＩＶ,,株式会社,東京都,渋谷区,神宮前４丁目１３番８号,,13,113,1500001,,,,,,,2025-12-22,1,,,,,スタイリブ,0
1828,8011301031130,新規,0,2025-12-22,2025-12-22,富士化ホールディングス株式会社,,株式会社,東京都,杉並区,高円寺南４丁目３番１０号,,13,115,1660003,,,,,,,2025-12-22,1,,,,,フジカホールディングス,0
1830,8011401027680,新規,0,2025-12-22,2025-12-22,株式会社ＣＩＲＣＬＥ,,株式会社,東京都,板橋区,若木１丁目１８番７号,,13,119,1740065,,,,,,,2025-12-22,1,,,,,サークル,0
1833,8012305002159,新規,0,2025-12-22,2025-12-22,一般社団法人ライフケア・マネジメント協会,,その他の設立登記法人,東京都,町田市,原町田３丁目２番２号第２タストンビル５Ｆ,,13,209,1940013,,,,,,,2025-12-22,1,,,,,ライフケアマネジメントキョウカイ,0
1835,8012401043940,新規,0,2025-12-22,2025-12-22,株式会社ひまわり,,株式会社,東京都,稲城市,平尾１丁目１６番地の１２サンパーク平尾１５－１０１,,13,225,2060823,,,,,,,2025-12-22,1,,,,,ヒマワリ,0
1840,8013301055472,新規,0,2025-12-22,2025-12-22,海林土株式会社,,株式会社,東京都,豊島区,南大塚３丁目３９－１５－１Ｆ,,13,116,1700005,,,,,,,2025-12-22,1,,,,,カリン,0
1842,8020001166376,新規,0,2025-12-22,2025-12-22,株式会社Ｅｎｃｏｒｅ　Ｐａｒｔｎｅｒｓ,,株式会社,神奈川県,横浜市中区,本町６丁目５０番地１ｇｏｏｄｒｏｏｍｌｏｕｎｇｅ横浜馬車道,,14,104,2310005,,,,,,,2025-12-22,1,,,,,アンコールパートナーズ,0
1843,8020001166401,新規,0,2025-12-22,2025-12-22,株式会社ローカルサービス,,株式会社,神奈川県,横浜市緑区,長津田５丁目２番３２号,,14,113,2260027,,,,,,,2025-12-22,1,,,,,ローカルサービス,0
1844,8020001166426,新規,0,2025-12-22,2025-12-22,ゲニウス・ロキ株式会社,,株式会社,神奈川県,横浜市中区,本町３丁目２４番地１本町中央ビル８０７,,14,104,2310005,,,,,,,2025-12-22,1,,,,,ゲニウスロキ,0
1847,8021001087042,新規,0,2025-12-22,2025-12-22,ＦＲＥＳＨ　ＶＩＢＥ株式会社,,株式会社,神奈川県,小田原市,城山４丁目１番１１号,,14,206,2500045,,,,,,,2025-12-22,1,,,,,フレッシュヴァイブ,0
1848,8021001087075,新規,0,2025-12-22,2025-12-22,株式会社リザエム,,株式会社,神奈川県,小田原市,府川９８番地,,14,206,2500052,,,,,,,2025-12-22,1,,,,,リザエム,0
1849,8021001087083,新規,0,2025-12-22,2025-12-22,株式会社ＹＫＭＲ,,株式会社,神奈川県,大和市,西鶴間１丁目１０番１３号ライオンズプラザ鶴間９０１号室,,14,213,2420005,,,,,,,2025-12-22,1,,,,,ワイケーエムアール,0
1850,8021001087109,新規,0,2025-12-22,2025-12-22,天信レンタル株式会社,,株式会社,神奈川県,綾瀬市,寺尾釜田２丁目１５番７号,,14,218,2521135,,,,,,,2025-12-22,1,,,,,テンシンレンタル,0
1852,8021003016899,新規,0,2025-12-22,2025-12-22,ＬＯＶＥＣＨＩＬＤ合同会社,,合同会社,神奈川県,藤沢市,湘南台１丁目７番３号,,14,205,2520804,,,,,,,2025-12-22,1,,,,,ラヴチャイルド,0
1853,8030001170212,新規,0,2025-12-22,2025-12-22,株式会社ＭＲＴホールディングス,,株式会社,埼玉県,日高市,大字高萩５６６番地１,,11,242,3501213,,,,,,,2025-12-22,1,,,,,エムアールティーホールディングス,0
1854,8030001170245,新規,0,2025-12-22,2025-12-22,株式会社オフィス野本,,株式会社,埼玉県,上尾市,大字原市４２３４番地７,,11,219,3620021,,,,,,,2025-12-22,1,,,,,オフィスノモト,0
1855,8030001170261,新規,0,2025-12-22,2025-12-22,江陰大橋テクノ株式会社,,株式会社,埼玉県,加須市,船越２－１６,,11,210,3470021,,,,,,,2025-12-22,1,,,,,コウインオオハシテクノ,0
1858,8030003028318,新規,0,2025-12-22,2025-12-22,ＨＤ興業合同会社,,合同会社,埼玉県,さいたま市浦和区,大東１丁目１４番１７－３号,,11,107,3300043,,,,,,,2025-12-22,1,,,,,エイチディーコウギョウ,0
1859,8030003028334,新規,0,2025-12-22,2025-12-22,スクホ合同会社,,合同会社,埼玉県,越谷市,大字大泊５６９番地３,,11,222,3430044,,,,,,,2025-12-22,1,,,,,スクホ,0
1873,8040003029182,新規,0,2025-12-22,2025-12-22,合同会社Ｈｏｏｄ　Ｂｒｅａｔｈ,,合同会社,千葉県,柏市,豊四季２９０番地４コンフォート１０２号,,12,217,2770863,,,,,,,2025-12-22,1,,,,,フッドブレス,0
1878,8050001057754,新規,0,2025-12-22,2025-12-22,株式会社興和,,株式会社,茨城県,古河市,関戸１０１５番地１,,08,204,3060205,,,,,,,2025-12-22,1,,,,,コウワ,0
1879,8050001057770,新規,0,2025-12-22,2025-12-22,株式会社ＡＲＲＯＷＮＥＥＲ,,株式会社,茨城県,つくば市,みどりの中央４２番地７,,08,220,3050882,,,,,,,2025-12-22,1,,,,,アロニア,0
1880,8050003009828,新規,0,2025-12-22,2025-12-22,まりも合同会社,,合同会社,茨城県,牛久市,牛久町３３０６番地４,,08,219,3001221,,,,,,,2025-12-22,1,,,,,マリモ,0
1905,8120001282816,新規,0,2025-12-22,2025-12-22,株式会社シュクレ,,株式会社,大阪府,大阪市住吉区,苅田７丁目１２番１９号,,27,120,5580011,,,,,,,2025-12-22,1,,,,,シュクレ,0
1906,8120001282907,新規,0,2025-12-22,2025-12-22,王子エステートワークス株式会社,,株式会社,大阪府,大阪市西区,南堀江３丁目１２番２４号Ｂ１０１－２,,27,106,5500015,,,,,,,2025-12-22,1,,,,,オウジエステートワークス,0
1908,8120003031485,新規,0,2025-12-22,2025-12-22,合同会社イノベートジャパン,,合同会社,大阪府,大阪市北区,野崎町７－８梅田パークビル３０５,,27,127,5300055,,,,,,,2025-12-22,1,,,,,イノベートジャパン,0
1909,8120003031527,新規,0,2025-12-22,2025-12-22,合同会社ＨＡＭＯＮ,,合同会社,大阪府,大阪市福島区,福島６丁目１９番７－８０４号,,27,103,5530003,,,,,,,2025-12-22,1,,,,,ハモン,0
1910,8120003031535,新規,0,2025-12-22,2025-12-22,ＤａｒｕｍａＳｕｃｃｅｅｄ合同会社,,合同会社,大阪府,大阪市北区,中之島４丁目３番２０－９０５号,,27,127,5300005,,,,,,,2025-12-22,1,,,,,ダルマサクシード,0
1911,8120003031551,新規,0,2025-12-22,2025-12-22,合同会社モリタックス会計,,合同会社,大阪府,大阪市西区,京町堀１丁目１０番８号福岡ビル５０１号室,,27,106,5500003,,,,,,,2025-12-22,1,,,,,モリタックスカイケイ,0
1912,8120101072968,新規,0,2025-12-22,2025-12-22,株式会社福井海運,,株式会社,大阪府,羽曳野市,恵我之荘２丁目６番４号,,27,222,5830886,,,,,,,2025-12-22,1,,,,,フクイカイウン,0
1914,8120901051997,新規,0,2025-12-22,2025-12-22,クスノキホールディングス株式会社,,株式会社,大阪府,池田市,天神１丁目１番３１号,,27,204,5630031,,,,,,,2025-12-22,1,,,,,クスノキホールディングス,0
1916,8122001040022,新規,0,2025-12-22,2025-12-22,株式会社ｍｏｃｈｉｍｏｃｈｉ,,株式会社,大阪府,東大阪市,中小阪５丁目７番１１号,,27,227,5770804,,,,,,,2025-12-22,1,,,,,モチモチ,0
1929,8140001141177,新規,0,2025-12-22,2025-12-22,株式会社ＴＰＣ,,株式会社,兵庫県,神戸市東灘区,北青木４丁目１７番２－７０２号,,28,101,6580014,,,,,,,2025-12-22,1,,,,,ティーピーシー,0
1931,8140003022978,新規,0,2025-12-22,2025-12-22,合同会社Ｓ　Ｔｅｃｈ　Ｏｎｅ,,合同会社,兵庫県,神戸市北区,松が枝町１丁目１５番地の２,,28,109,6511232,,,,,,,2025-12-22,1,,,,,エステックワン,0
1942,8180001169974,新規,0,2025-12-22,2025-12-22,シエンコスメティクス株式会社,,株式会社,愛知県,名古屋市中村区,名駅３丁目４番１０号アルティメイト名駅１ｓｔ２階,,23,105,4500002,,,,,,,2025-12-22,1,,,,,シエンコスメティクス,0
1943,8180001169999,新規,0,2025-12-22,2025-12-22,株式会社ＵＴＡ,,株式会社,愛知県,名古屋市名東区,平和が丘５丁目２０７番地第２平和が丘住宅Ｃ棟２０２号,,23,115,4650097,,,,,,,2025-12-22,1,,,,,ウタ,0
1949,8200003007171,新規,0,2025-12-22,2025-12-22,ＹＳ合同会社,,合同会社,岐阜県,岐阜市,薮田南５丁目２番２－１０２号エクセレント２２,,21,201,5008384,,,,,,,2025-12-22,1,,,,,ワイエス,0
1952,8210001020423,新規,0,2025-12-22,2025-12-22,ＢｌｕｅＬｅａｆ株式会社,,株式会社,福井県,大飯郡高浜町,薗部第５５号１６番地,,18,481,9192224,,,,,,,2025-12-22,1,,,,,ブルーリーフ,0
1962,8250001021475,新規,0,2025-12-22,2025-12-22,株式会社ＥＮＯＶＡ,,株式会社,山口県,山口市,小郡明治２丁目１１番１０－１１０１号,,35,203,7540043,,,,,,,2025-12-22,1,,,,,エノヴァ,0
1964,8260001040838,新規,0,2025-12-22,2025-12-22,株式会社スペース,,株式会社,岡山県,岡山市南区,浜野４丁目１５番２５号,,33,104,7000845,,,,,,,2025-12-22,1,,,,,スペース,0
1972,8290001112568,新規,0,2025-12-22,2025-12-22,株式会社ダイヤモンドパーク,,株式会社,福岡県,福岡市東区,香椎３丁目９番３７号,,40,131,8130011,,,,,,,2025-12-22,1,,,,,ダイヤモンドパーク,0
1973,8290001112584,新規,0,2025-12-22,2025-12-22,ＥＮＬＩＦＥ　ＨＯＬＤＩＮＧＳ株式会社,,株式会社,福岡県,福岡市城南区,荒江１丁目２１－１８－３Ｆ,,40,136,8140101,,,,,,,2025-12-22,1,,,,,エンライフホールディングス,0
1975,8290003017856,新規,0,2025-12-22,2025-12-22,ｎプラス合同会社,,合同会社,福岡県,福岡市博多区,博多駅前１丁目２３番２号ＰａｒｋＦｒｏｎｔ博多駅前１丁目５Ｆ－Ｂ,,40,132,8120011,,,,,,,2025-12-22,1,,,,,エヌプラス,0
1976,8290003017864,新規,0,2025-12-22,2025-12-22,合同会社琉和,,合同会社,福岡県,筑紫野市,紫１丁目９番６－１０５号パシフィック紫,,40,217,8180061,,,,,,,2025-12-22,1,,,,,リュウワ,0
1992,8360001036173,新規,0,2025-12-22,2025-12-22,株式会社ａｅｒ,,株式会社,沖縄県,那覇市,銘苅１丁目１０番２１－５０３号センチュリーヒルズ新都心,,47,201,9000004,,,,,,,2025-12-22,1,,,,,アエル,0
1993,8370001053325,新規,0,2025-12-22,2025-12-22,株式会社ミライスター,,株式会社,宮城県,仙台市宮城野区,二十人町３０６番地の１ＳｈａＭａｉｓｏｎ二十人町３０１,,04,102,9830862,,,,,,,2025-12-22,1,,,,,ミライスター,0
2000,8430003018427,新規,0,2025-12-22,2025-12-22,ヤマスプロダクツ合同会社,,合同会社,北海道,樺戸郡月形町,字本町通１６番地１,,01,430,0610500,,,,,,,2025-12-22,1,,,,,ヤマスプロダクツ,0
2001,8430005015372,新規,0,2025-12-22,2025-12-22,学校法人フダアカデミージャパン,,その他の設立登記法人,北海道,札幌市東区,北二十六条東３丁目１番３５号,,01,103,0650026,,,,,,,2025-12-22,1,,,,,フダアカデミージャパン,0
2003,8450001014814,新規,0,2025-12-22,2025-12-22,ノースリゾート株式会社,,株式会社,北海道,旭川市,神楽岡十五条４丁目４番２０号,,01,204,0788325,,,,,,,2025-12-22,1,,,,,ノースリゾート,0
2004,8470003003037,新規,0,2025-12-22,2025-12-22,合同会社有友,,合同会社,香川県,高松市,内町１番３０号ＦＴビル２階,,37,201,7600034,,,,,,,2025-12-22,1,,,,,アリトモ,0
2005,8490001011246,新規,0,2025-12-22,2025-12-22,株式会社大橋,,株式会社,高知県,高知市,本町３丁目１番１２－３号,,39,201,7800870,,,,,,,2025-12-22,1,,,,,オオハシ,0
2006,8500001026688,新規,0,2025-12-22,2025-12-22,株式会社新村上工業,,株式会社,愛媛県,今治市,波止浜２丁目５番１号,,38,202,7992112,,,,,,,2025-12-22,1,,,,,シンムラカミコウギョウ,0
2008,8700150133694,新規,0,2025-12-22,2025-12-22,Ｈｅｌｉｏｓ　ＬＬＶ　Ｎｉｎｅｔｅｅｎ　Ｌｉｍｉｔｅｄ,,外国会社等,,,,,,,,Ｏｎｅ　Ｌｉｍｅ　Ｓｔｒｅｅｔ，Ｌｏｎｄｏｎ　ＥＣ３Ｍ　７ＨＡ　ＵＫ,,,,,,2025-12-22,1,,,,,ヘリオスエルエルブイナインテイーンリミテツド,0
2009,8700150133703,新規,0,2025-12-22,2025-12-22,Ｐｒｉｄｅａｕｘ　Ｎａｍｅｃｏ　Ｌｉｍｉｔｅｄ,,外国会社等,,,,,,,,Ｏｎｅ　Ｌｉｍｅ　Ｓｔｒｅｅｔ，Ｌｏｎｄｏｎ　ＥＣ３Ｍ　７ＨＡ　ＵＫ,,,,,,2025-12-22,1,,,,,プリドーネームコリミテツド,0
2010,8700150133711,新規,0,2025-12-22,2025-12-22,株式会社　エーエルロボット,,外国会社等,東京都,港区,虎ノ門２丁目３－１７虎ノ門２丁目タワー１９Ｆ,,13,103,1050001,大韓民国京畿道富川市遠美区坪川路６５５、４０１棟６０１‐１号（若大洞、富川テクノパーク）,,,,,,2025-12-22,1,,,,,カブシキガイシヤエーエルロボツト,0
2023,9010001261350,新規,0,2025-12-22,2025-12-22,株式会社Ｗｈａｎａｕ,,株式会社,東京都,文京区,水道１丁目２－１０フォリアージュ２１１号,,13,105,1120005,,,,,,,2025-12-22,1,,,,,ファナウ,0
2028,9010003049785,新規,0,2025-12-22,2025-12-22,ＵｐＢＥメディカルサポート合同会社,,合同会社,東京都,中央区,日本橋２丁目１６番４号ｒｅｍｉｘ日本橋６階,,13,102,1030027,,,,,,,2025-12-22,1,,,,,アップビーメディカルサポート,0
2029,9010003049802,新規,0,2025-12-22,2025-12-22,合同会社アバロン,,合同会社,東京都,千代田区,内神田３丁目１３番４号,,13,101,1010047,,,,,,,2025-12-22,1,,,,,アバロン,0
2034,9010401195280,新規,0,2025-12-22,2025-12-22,アクス・マネージメント・パートナーズ・キャピタル・ジャパン株式会社,,株式会社,東京都,港区,六本木７丁目７番７号トライセブンロッポンギ８階,,13,103,1060032,,,,,,,2025-12-22,1,,,,,アクスマネージメントパートナーズキャピタルジャパン,0
2035,9010401195322,新規,0,2025-12-22,2025-12-22,株式会社千,,株式会社,東京都,港区,南青山５丁目１１番２４号南青山グレイセス１Ｆ,,13,103,1070062,,,,,,,2025-12-22,1,,,,,セン,0
2036,9010401195330,新規,0,2025-12-22,2025-12-22,ＺＥＮ　ＭＡＲＩＮＥ　ＪＡＰＡＮ株式会社,,株式会社,東京都,港区,北青山１丁目３番１号アールキューブ青山３階,,13,103,1070061,,,,,,,2025-12-22,1,,,,,ゼンマリンジャパン,0
2044,9010601068468,新規,0,2025-12-22,2025-12-22,株式会社ＳＳＭ,,株式会社,東京都,江東区,豊洲５丁目１番１３－７１２号,,13,108,1350061,,,,,,,2025-12-22,1,,,,,エスエスエム,0
2050,9011001174451,新規,0,2025-12-22,2025-12-22,Ｔｒｕｓｔ　Ｂｒｉｄｇｅｓ株式会社,,株式会社,東京都,渋谷区,道玄坂１丁目１０番８号渋谷道玄坂東急ビル２Ｆ－Ｃ,,13,113,1500043,,,,,,,2025-12-22,1,,,,,トラストブリッジ,0
2051,9011003023152,新規,0,2025-12-22,2025-12-22,合同会社Ｑｖｉｓｍ,,合同会社,東京都,渋谷区,神南１丁目１１－４ＦＰＧリンクス神南５階,,13,113,1500041,,,,,,,2025-12-22,1,,,,,キュビズム,0
2052,9011003023169,新規,0,2025-12-22,2025-12-22,合同会社園スタジオ,,合同会社,東京都,渋谷区,千駄ヶ谷３丁目３０－９モデリアブリュット北参道３０５,,13,113,1510051,,,,,,,2025-12-22,1,,,,,ソノスタジオ,0
2053,9011003023185,新規,0,2025-12-22,2025-12-22,合同会社ｏｎｉｇｉｒｉ,,合同会社,東京都,渋谷区,恵比寿西２丁目４番８号ウィンド恵比寿ビル８Ｆ,,13,113,1500021,,,,,,,2025-12-22,1,,,,,オニギリ,0
2056,9011105011682,新規,0,2025-12-22,2025-12-22,一般社団法人計算論的精神医学コロキウム,,その他の設立登記法人,東京都,新宿区,西新宿３丁目３番１３号西新宿水間ビル６階,,13,104,1600023,,,,,,,2025-12-22,1,,,,,ケイサンロンテキセイシンイガクコロキウム,0
2059,9011501032935,新規,0,2025-12-22,2025-12-22,ＦＵＪＩＬＡＢ株式会社,,株式会社,東京都,荒川区,東日暮里１丁目１番４号ワコーレ・ミルエール三ノ輪３０１号室,,13,118,1160014,,,,,,,2025-12-22,1,,,,,フジラボ,0
2060,9011503006813,新規,0,2025-12-22,2025-12-22,ヒクマ合同会社,,合同会社,東京都,北区,豊島６丁目７番９号クラン豊島Ａ１階,,13,117,1140003,,,,,,,2025-12-22,1,,,,,ヒクマ,0
2064,9012301014644,新規,0,2025-12-22,2025-12-22,エース株式会社,,株式会社,東京都,町田市,常盤町３２３０－２７,,13,209,1940213,,,,,,,2025-12-22,1,,,,,エース,0
2075,9020001166367,新規,0,2025-12-22,2025-12-22,Ｔ．Ｏ．Ｐ株式会社,,株式会社,神奈川県,横浜市保土ケ谷区,東川島町８３番地２,,14,106,2400041,,,,,,,2025-12-22,1,,,,,ティーオーピー,0
2076,9020001166391,新規,0,2025-12-22,2025-12-22,Ｐｒｅｍｉｅｒ　Ａｓｓｅｔ　Ｍａｎａｇｅｍｅｎｔ株式会社,,株式会社,神奈川県,横浜市西区,北幸２丁目１０番４８号むつみビル３階,,14,103,2200004,,,,,,,2025-12-22,1,,,,,プレミアアセットマネジメント,0
2079,9020003030018,新規,0,2025-12-22,2025-12-22,合同会社英文開示研究所,,合同会社,神奈川県,横浜市港北区,仲手原２丁目４１番４６－２号,,14,109,2220023,,,,,,,2025-12-22,1,,,,,エイブンカイジケンキュウショ,0
2087,9021001087082,新規,0,2025-12-22,2025-12-22,株式会社ＳＫＭＲ,,株式会社,神奈川県,大和市,西鶴間１丁目１０番１３号ライオンズプラザ鶴間９０１号室,,14,213,2420005,,,,,,,2025-12-22,1,,,,,エスケーエムアール,0
2093,9030003028317,新規,0,2025-12-22,2025-12-22,スマイルエッグ合同会社,,合同会社,埼玉県,桶川市,大字川田谷３２３８番地,,11,231,3630027,,,,,,,2025-12-22,1,,,,,スマイルエッグ,0
2099,9040001141855,新規,0,2025-12-22,2025-12-22,株式会社プルメリアホームズ,,株式会社,千葉県,長生郡一宮町,一宮９２０９番地２,,12,421,2994301,,,,,,,2025-12-22,1,,,,,プルメリアホームズ,0
2100,9040001141863,新規,0,2025-12-22,2025-12-22,株式会社深山木工,,株式会社,千葉県,柏市,北柏２丁目１６番地１１,,12,217,2770832,,,,,,,2025-12-22,1,,,,,ミヤマモッコウ,0
2101,9040001141871,新規,0,2025-12-22,2025-12-22,ウィード分割準備株式会社,,株式会社,千葉県,千葉市美浜区,中瀬２丁目６番地１,,12,106,2610023,,,,,,,2025-12-22,1,,,,,ウィードブンカツジュンビ,0
2102,9040001141905,新規,0,2025-12-22,2025-12-22,株式会社２４ＯＣＴＯＢＥＲ,,株式会社,千葉県,千葉市花見川区,宮野木台２丁目１番５号,,12,102,2620015,,,,,,,2025-12-22,1,,,,,トゥエンティフォーオクトーバー,0
2109,9050001057778,新規,0,2025-12-22,2025-12-22,株式会社ＣＯＣＯＬＵＬＵ,,株式会社,茨城県,水戸市,吉沢町３５７番地６,,08,201,3100845,,,,,,,2025-12-22,1,,,,,ココルル,0
2111,9050003009810,新規,0,2025-12-22,2025-12-22,合同会社ＷＩＳＴＥＲＩＡ,,合同会社,茨城県,かすみがうら市,南根本３５９－１,,08,230,3000126,,,,,,,2025-12-22,1,,,,,ウィステリア,0
2114,9060003005899,新規,0,2025-12-22,2025-12-22,ＭＰ　ＣＵＢＥ合同会社,,合同会社,栃木県,さくら市,桜ヶ丘２丁目３－５,,09,214,3291416,,,,,,,2025-12-22,1,,,,,エムピーキューブ,0
2135,9120001282617,新規,0,2025-12-22,2025-12-22,株式会社ＬＩＶＴＥＣＨ,,株式会社,大阪府,寝屋川市,中神田町１１番１２号,,27,215,5720053,,,,,,,2025-12-22,1,,,,,リブテック,0
2136,9120001282872,新規,0,2025-12-22,2025-12-22,株式会社エーアール建設,,株式会社,大阪府,大阪市東住吉区,北田辺１丁目２番２８号,,27,121,5460044,,,,,,,2025-12-22,1,,,,,エーアールケンセツ,0
2137,9120001282889,新規,0,2025-12-22,2025-12-22,株式会社北村設計,,株式会社,大阪府,枚方市,藤阪東町２丁目１０番３号,,27,210,5730153,,,,,,,2025-12-22,1,,,,,キタムラセッケイ,0
2140,9120003031484,新規,0,2025-12-22,2025-12-22,合同会社クレストエンジン,,合同会社,大阪府,大阪市北区,野崎町７－８梅田パークビル３０５,,27,127,5300055,,,,,,,2025-12-22,1,,,,,クレストエンジン,0
2143,9120103006898,新規,0,2025-12-22,2025-12-22,合同会社きづき,,合同会社,大阪府,岸和田市,土生町３丁目３－９エスポワール清光２０７号室,,27,202,5960825,,,,,,,2025-12-22,1,,,,,キヅキ,0
2148,9130001081274,新規,0,2025-12-22,2025-12-22,株式会社Ｋａｂｏｌａｂ,,株式会社,京都府,長岡京市,勝竜寺１８番８号,,26,209,6170836,,,,,,,2025-12-22,1,,,,,カボラボ,0
2149,9130003011023,新規,0,2025-12-22,2025-12-22,合同会社Ｎｙａｎｆｕｌ,,合同会社,京都府,京都市東山区,東大路松原上る３丁目毘沙門町３２番地ベラジオ高台寺４０４,,26,105,6050812,,,,,,,2025-12-22,1,,,,,ニャンフル,0
2154,9140001141192,新規,0,2025-12-22,2025-12-22,株式会社Ｓｏｌｅｉｇｈｔ,,株式会社,兵庫県,宝塚市,高松町２番６２－８１９号,,28,214,6650043,,,,,,,2025-12-22,1,,,,,ソレイト,0
2155,9140003022903,新規,0,2025-12-22,2025-12-22,合同会社Ｗａｒｎｅｒ,,合同会社,兵庫県,神戸市兵庫区,会下山町３丁目１０－２,,28,105,6520043,,,,,,,2025-12-22,1,,,,,ワーナー,0
2156,9140003022985,新規,0,2025-12-22,2025-12-22,Ａｎｎｅｘ合同会社,,合同会社,兵庫県,加古川市,加古川町西河原１１番地の１グレーシィ加古川アネックス３０２号,,28,210,6750036,,,,,,,2025-12-22,1,,,,,アネックス,0
2157,9140005027735,新規,0,2025-12-22,2025-12-22,医療法人社団竹内じゅんぺー歯科,,その他の設立登記法人,兵庫県,神戸市灘区,八幡町２丁目１－２９,,28,102,6570051,,,,,,,2025-12-22,1,,,,,タケウチジュンペーシカ,0
2161,9150003003786,新規,0,2025-12-22,2025-12-22,合同会社Ｔｏ　Ｊａｐａｎ,,合同会社,奈良県,生駒市,東生駒３丁目３９８番地９９,,29,209,6300213,,,,,,,2025-12-22,1,,,,,トゥジャパン,0
2179,9200001044554,新規,0,2025-12-22,2025-12-22,株式会社マゴスケヤ,,株式会社,岐阜県,高山市,西之一色町３丁目１３４４番地,,21,203,5060031,,,,,,,2025-12-22,1,,,,,マゴスケヤ,0
2196,9290001112435,新規,0,2025-12-22,2025-12-22,株式会社リリックス,,株式会社,福岡県,福岡市博多区,堅粕３丁目１９番１５‐１０５号,,40,132,8120043,,,,,,,2025-12-22,1,,,,,リリックス,0
2197,9290001112583,新規,0,2025-12-22,2025-12-22,ＭＯＮＯＭＯＮＯ株式会社,,株式会社,福岡県,那珂川市,道善２丁目１９番地３,,40,231,8111254,,,,,,,2025-12-22,1,,,,,モノモノ,0
2201,9290003017855,新規,0,2025-12-22,2025-12-22,合同会社ＮＯＳＨＵＴ　ＮＥＴＷＯＲＫＳ,,合同会社,福岡県,福岡市中央区,六本松４丁目８番１２－２０１号,,40,133,8100044,,,,,,,2025-12-22,1,,,,,ノーシャットネットワークス,0
2207,9310001019891,新規,0,2025-12-22,2025-12-22,株式会社フジＶＥＴＳ,,株式会社,長崎県,長崎市,鍛冶屋町７番５４－１号,,42,201,8500831,,,,,,,2025-12-22,1,,,,,フジベッツ,0
2216,9360001036164,新規,0,2025-12-22,2025-12-22,株式会社Ｒｉｖｉｔｙ,,株式会社,沖縄県,那覇市,牧志２丁目５番１４号ハウスＴＲ１０３,,47,201,9000013,,,,,,,2025-12-22,1,,,,,リビティ,0
2217,9370001053324,新規,0,2025-12-22,2025-12-22,ＡＣＴ　ＢＲＩＤＧＥ株式会社,,株式会社,宮城県,黒川郡大和町,もみじケ丘１丁目１６番地の１１,,04,421,9813622,,,,,,,2025-12-22,1,,,,,アクトブリッジ,0
2218,9370005011039,新規,0,2025-12-22,2025-12-22,一般社団法人東北ダンスフェスティバル,,その他の設立登記法人,宮城県,仙台市青葉区,上杉１丁目８－１７上杉２１ビル１Ｆ,,04,101,9800011,,,,,,,2025-12-22,1,,,,,トウホクダンスフェスティバル,0
2220,9380001035767,新規,0,2025-12-22,2025-12-22,株式会社山内会計,,株式会社,福島県,いわき市,内郷御台境町坂下２４―３,,07,204,9738409,,,,,,,2025-12-22,1,,,,,ヤマウチカイケイ,0
2237,9700150016832,新規,0,2025-12-22,2015-10-09,埼玉県町村会,,その他,埼玉県,さいたま市浦和区,仲町３丁目５番１号,,11,107,3300062,,,,,,,2015-10-09,1,,,,,サイタマケンチヨウソンカイ,0
2238,9700150133693,新規,0,2025-12-22,2025-12-22,Ｈｅｌｉｏｓ　ＬＬＶ　Ｅｉｇｈｔｅｅｎ　Ｌｉｍｉｔｅｄ,,外国会社等,,,,,,,,Ｏｎｅ　Ｌｉｍｅ　Ｓｔｒｅｅｔ，Ｌｏｎｄｏｎ　ＥＣ３Ｍ　７ＨＡ　ＵＫ,,,,,,2025-12-22,1,,,,,ヘリオスエルエルブイエイテイーンリミテツド,0
2239,9700150133702,新規,0,2025-12-22,2025-12-22,ＨＥＣ　１００１　Ｌｉｍｉｔｅｄ,,外国会社等,,,,,,,,Ｏｎｅ　Ｌｉｍｅ　Ｓｔｒｅｅｔ，Ｌｏｎｄｏｎ　ＥＣ３Ｍ　７ＨＡ　ＵＫ,,,,,,2025-12-22,1,,,,,エイチイーシーワンオーオーワンリミテツド,0
2240,9700150133710,新規,0,2025-12-22,2025-12-22,松濤ハイツマンション建替組合,,その他,東京都,中央区,日本橋本町１丁目４－３日本橋ムロホンビル１　５階株式会社玉麻屋内,,13,102,1030023,,,,,,,2025-12-22,1,,,,,シヨウトウハイツマンシヨンタテカエクミアイ,0
