sequenceNumber,corporateNumber,process,correct,updateDate,changeDate,name,nameImageId,kind,prefectureName,cityName,streetNumber,addressImageId,prefectureCode,cityCode,postCode,addressOutside,addressOutsideImageId,closeDate,closeCause,successorCorporateNumber,changeCause,assignmentDate,latest,enName,enPrefectureName,enCityName,enAddressOutside,furigana,hihyoji
18,1010101013345,登記記録の閉鎖等,0,2022-10-12,2022-09-30,株式会社ムラタむらかみ南薬局,,株式会社,千葉県,八千代市,村上南５丁目５番地１８,,12,221,2760029,,,2022-09-30,清算の結了等,,,2018-06-21,1,,,,,ムラタムラカミミナミヤッキョク,0
32,1010401154038,登記記録の閉鎖等,0,2022-10-12,2022-09-30,Ｐｉｃｃｉｎｉ１８８２Ｊａｐａｎ株式会社,,株式会社,東京都,港区,赤坂１丁目１２番１２号,,13,103,1070052,,,2022-09-30,清算の結了等,,,2020-07-17,1,,,,,ピッチーニイチハチハチニジャパン,0
40,1010405017133,登記記録の閉鎖等,0,2022-10-12,2022-09-28,一般社団法人ＩｍｐａｃＴｅｃｈＪａｐａｎ,,その他の設立登記法人,東京都,渋谷区,円山町５番５号Ｎａｖｉ渋谷Ｖ３階,,13,113,1500044,,,2022-09-28,清算の結了等,,,2018-10-15,1,,,,,インパクテックジャパン,0
44,1010501032655,登記記録の閉鎖等,0,2022-10-12,2022-10-07,株式会社タカハシプリント,,株式会社,東京都,台東区,橋場１丁目３０番４号,,13,106,1110023,,,2022-10-07,清算の結了等,,,2015-10-05,1,,,,,,0
61,1011101092718,登記記録の閉鎖等,0,2022-10-12,2022-10-07,株式会社ＴＳＵＮＡＧＵ,,株式会社,東京都,新宿区,四谷２丁目１２番５号,,13,104,1600004,,,2022-10-07,合併による解散等,9180001044664,令和４年１０月１日名古屋市中区錦一丁目１０番２０号ジャパンベストレスキューシステム株式会社（9180001044664）に合併し解散,2020-10-09,1,,,,,ツナグ,0
72,1011401005949,登記記録の閉鎖等,0,2022-10-12,2022-10-04,松信工業株式会社,,株式会社,東京都,板橋区,蓮根２丁目３０番１８－５０１号,00054818,13,119,1740046,,,2022-10-04,清算の結了等,,,2015-10-05,1,,,,,マツシンコウギョウ,0
77,1011701017149,登記記録の閉鎖等,0,2022-10-12,2022-10-06,株式会社鈴紋サービス,,株式会社,東京都,江戸川区,船堀３丁目１３番３９号,,13,123,1340091,,,2022-10-06,清算の結了等,,,2015-10-05,1,,,,,スズモンサービス,0
82,1012401031258,登記記録の閉鎖等,0,2022-10-12,2022-10-03,京王自動車多摩北株式会社,,株式会社,東京都,多摩市,関戸２丁目３７番地３,,13,224,2060011,,,2022-10-03,合併による解散等,1013401005755,令和４年１０月１日東京都多摩市関戸二丁目３７番地３京王自動車株式会社（1013401005755）に合併し解散,2016-04-08,1,,,,,ケイオウジドウシャタマキタ,0
87,1012702009283,登記記録の閉鎖等,0,2022-10-12,2022-10-05,有限会社ライズハンド,,有限会社,東京都,小平市,小川東町１丁目１０番７号,,13,211,1870031,,,2022-10-05,清算の結了等,,,2015-10-05,1,,,,,ライズハンド,0
90,1012802005109,登記記録の閉鎖等,0,2022-10-12,2022-10-03,有限会社村山清掃,,有限会社,東京都,武蔵村山市,中央２丁目１２３番地の１,,13,223,2080003,,,2022-10-03,合併による解散等,2012801003153,令和４年１０月１日東京都武蔵村山市中央一丁目６番地の１村山運送株式会社（2012801003153）に合併し解散,2015-10-05,1,,,,,ムラヤマセイソウ,0
101,1020001090459,登記記録の閉鎖等,0,2022-10-12,2022-10-04,新緑資源株式会社,,株式会社,神奈川県,横浜市鶴見区,北寺尾３丁目７番１６号,,14,101,2300074,,,2022-10-04,清算の結了等,,,2015-10-05,1,,,,,シンリョクシゲン,0
115,1030001094995,登記記録の閉鎖等,0,2022-10-12,2022-09-29,株式会社ファインナップ,,株式会社,埼玉県,八潮市,緑町２丁目２０番地１ルミナス八潮６０４号室,,11,234,3400808,,,2022-09-29,清算の結了等,,,2015-10-05,1,,,,,ファインナップ,0
143,1060001029486,登記記録の閉鎖等,0,2022-10-12,2022-10-03,川上建設株式会社,,株式会社,栃木県,小山市,若木町２丁目７番７号１０１,,09,208,3230028,,,2022-10-03,合併による解散等,4060001023874,令和４年１０月１日栃木県小山市若木町二丁目７番７号１０１川上不動産株式会社（4060001023874）に合併し解散,2017-06-09,1,,,,,カワカミケンセツ,0
148,1080001018405,登記記録の閉鎖等,0,2022-10-12,2022-10-07,株式会社エコライズ,,株式会社,静岡県,静岡市葵区,緑町６番３０号,,22,101,4200844,,,2022-10-07,清算の結了等,,,2015-10-05,1,,,,,エコライズ,0
150,1080002002647,登記記録の閉鎖等,0,2022-10-12,2022-10-05,有限会社紫摩,,有限会社,静岡県,静岡市駿河区,下川原５丁目３２番１４号,,22,102,4210113,,,2022-10-05,清算の結了等,,,2015-10-05,1,,,,,シマ,0
163,1100002027311,登記記録の閉鎖等,0,2022-10-12,2022-10-06,有限会社川原家具製作所,,有限会社,長野県,木曽郡木曽町,日義３７５４番地,,20,432,3996101,,,2022-10-06,清算の結了等,,,2015-10-05,1,,,,,カワハラカグセイサクジョ,0
173,1120001041187,登記記録の閉鎖等,0,2022-10-12,2022-10-07,株式会社アンブロス,,株式会社,大阪府,大阪市西区,靱本町１丁目９番１５号,,27,106,5500004,,,2022-10-07,清算の結了等,,,2015-10-05,1,,,,,アンブロス,0
175,1120001208678,登記記録の閉鎖等,0,2022-10-12,2022-10-03,株式会社ニーズ,,株式会社,大阪府,大阪市中央区,大手通１丁目３番５号Ｎビル,,27,128,5400021,,,2022-10-03,合併による解散等,4120001169133,令和４年１０月１日大阪市中央区大手通一丁目３番５号Ｎビル株式会社ＮＳＡ（4120001169133）に合併し解散,2017-10-04,1,,,,,ニーズ,0
180,1120002027499,登記記録の閉鎖等,0,2022-10-12,2022-10-04,有限会社大栄スプリング,,有限会社,大阪府,大阪市淀川区,田川２丁目１番２０号,,27,123,5320027,,,2022-10-04,清算の結了等,,,2015-10-05,1,,,,,ダイエイスプリング,0
188,1120901031741,登記記録の閉鎖等,0,2022-10-12,2022-10-11,北摂住宅販売株式会社,,株式会社,大阪府,豊中市,向丘３丁目１１番４７号,,27,203,5600053,,,2022-10-11,清算の結了等,,,2015-10-05,1,,,,,,0
202,1140001064186,登記記録の閉鎖等,0,2022-10-12,2022-10-05,株式会社メディカル・ソリューション,,株式会社,兵庫県,姫路市,西脇２４４番地５,,28,201,6712234,,,2022-10-05,清算の結了等,,,2015-10-05,1,,,,,メディカルソリューション,0
217,1180001028369,登記記録の閉鎖等,0,2022-10-12,2022-09-29,大宝鑿泉管工事工業株式会社,,株式会社,愛知県,名古屋市緑区,神沢２丁目１６０１番地,,23,114,4580014,,,2022-09-29,清算の結了等,,,2015-10-05,1,,,,,タイホウサクセンカンコウジコウギョウ,0
226,1180002060643,登記記録の閉鎖等,0,2022-10-12,2022-10-07,有限会社ＫＮＦコーポレーション,,有限会社,愛知県,名古屋市千種区,天満通２丁目６番地,,23,101,4640095,,,2022-10-07,清算の結了等,,,2015-10-05,1,,,,,ケイエヌエフコーポレーション,0
227,1180002066839,登記記録の閉鎖等,0,2022-10-12,2022-10-05,有限会社ナカムラ,,有限会社,愛知県,春日井市,小野町４丁目５番地５,,23,206,4860926,,,2022-10-05,清算の結了等,,,2015-10-05,1,,,,,ナカムラ,0
233,1200001008748,登記記録の閉鎖等,0,2022-10-12,2022-10-11,株式会社ＲＩＳＥ,,株式会社,岐阜県,岐阜市,日野南３丁目５番１９号,,21,201,5008212,,,2022-10-11,清算の結了等,,,2015-10-05,1,,,,,ライズ,0
235,1210001003582,登記記録の閉鎖等,0,2022-10-12,2022-10-03,ホンダ販売株式会社,,株式会社,福井県,福井市,新保町２４番６の２,,18,201,9100832,,,2022-10-03,合併による解散等,7210001003577,令和４年１０月１日福井市御幸四丁目１１番２２号株式会社ホンダクリオ福井（7210001003577）に合併し解散,2015-10-05,1,,,,,ホンダハンバイ,0
238,1240001022935,登記記録の閉鎖等,0,2022-10-12,2022-10-03,株式会社東亜工業,,株式会社,広島県,東広島市,西条中央６丁目３２番６号,,34,212,7390025,,,2022-10-03,合併による解散等,1240002027223,令和４年１０月１日広島県東広島市西条中央六丁目３２番６号株式会社友和・コーポレーション（1240002027223）に合併し解散,2015-10-05,1,,,,,トウアコウギョウ,0
252,1280001002842,登記記録の閉鎖等,0,2022-10-12,2022-10-11,エコアート株式会社,,株式会社,島根県,松江市,殿町３０５番地,,32,201,6900887,,,2022-10-11,清算の結了等,,,2015-10-05,1,,,,,エコアート,0
253,1280001004764,登記記録の閉鎖等,0,2022-10-12,2022-10-04,株式会社あさひグリーン工房,,株式会社,島根県,浜田市,下府町３２７番地８０,,32,202,6970006,,,2022-10-04,合併による解散等,3280001004267,令和４年１０月４日島根県浜田市下府町３２７番地８０共同青果株式会社（3280001004267）に合併し解散,2015-10-05,1,,,,,アサヒグリーンコウボウ,0
254,1280001008253,登記記録の閉鎖等,0,2022-10-12,2022-10-07,株式会社みらいデザイン,,株式会社,島根県,出雲市,荒茅町８９６,,32,203,6930044,,,2022-10-07,清算の結了等,,,2020-09-04,1,,,,,ミライデザイン,0
264,1290002023457,登記記録の閉鎖等,0,2022-10-12,2022-10-03,アベ・フードサービス有限会社,,有限会社,福岡県,福岡市中央区,荒戸２丁目１番２４号,,40,133,8100062,,,2022-10-03,清算の結了等,,,2015-10-05,1,,,,,アベフードサービス,0
269,1290801024465,登記記録の閉鎖等,0,2022-10-12,2022-10-06,株式会社ティーズエンジニアリング,,株式会社,福岡県,北九州市小倉南区,富士見２丁目９番２２－１００３号,,40,107,8020801,,,2022-10-06,清算の結了等,,,2018-04-09,1,,,,,ティーズエンジニアリング,0
275,1330003008089,登記記録の閉鎖等,0,2022-10-12,2022-10-03,合同会社中蓮寺農園,,合同会社,熊本県,下益城郡美里町,原田５－２,,43,348,8614421,,,2022-10-03,清算の結了等,,,2019-10-07,1,,,,,チュウレンジノウエン,0
277,1340002005012,登記記録の閉鎖等,0,2022-10-12,2022-10-11,有限会社昭和エクステリア,,有限会社,鹿児島県,鹿児島市,草牟田２丁目２番１０号,,46,201,8900014,,,2022-10-11,清算の結了等,,,2015-10-05,1,,,,,ショウワエクステリア,0
289,1380001010463,登記記録の閉鎖等,0,2022-10-12,2022-10-06,株式会社山建資材トーヨー住器,,株式会社,福島県,西白河郡西郷村,字石塚北４番地,,07,461,9618044,,,2022-10-06,合併による解散等,3380001020493,令和４年１０月１日福島県郡山市喜久田町卸一丁目２０番地の１株式会社福島ビルテック（3380001020493）に合併し解散,2015-10-05,1,,,,,ヤマケンシザイトーヨージュウキ,0
291,1380002024883,登記記録の閉鎖等,0,2022-10-12,2022-10-03,有限会社ティオキア,,有限会社,福島県,いわき市,郷ケ丘２丁目１６番地の３,,07,204,9708045,,,2022-10-03,清算の結了等,,,2015-10-05,1,,,,,ティオキア,0
309,2010001044737,登記記録の閉鎖等,0,2022-10-12,2022-09-29,株式会社ＲＥＳＯＮＡＮＴ,,株式会社,埼玉県,さいたま市北区,吉野町１丁目４２８番地４,,11,102,3310811,,,2022-09-29,清算の結了等,,,2015-10-05,1,,,,,レゾナント,0
337,2010501017630,登記記録の閉鎖等,0,2022-10-12,2022-10-07,株式会社ケイビルド,,株式会社,東京都,台東区,下谷２丁目１３番５－２０１号,,13,106,1100004,,,2022-10-07,清算の結了等,,,2015-10-05,1,,,,,,0
338,2010501022143,登記記録の閉鎖等,0,2022-10-12,2022-10-07,株式会社ディジタル・ストリームス,,株式会社,東京都,文京区,湯島３丁目３１番１－４０３号,,13,105,1130034,,,2022-10-07,清算の結了等,,,2015-10-05,1,,,,,ディジタルストリームス,0
349,2010901027345,登記記録の閉鎖等,0,2022-10-12,2022-10-05,イグジラレート・インターナショナル株式会社,,株式会社,東京都,世田谷区,若林５丁目２０番１５号,,13,112,1540023,,,2022-10-05,清算の結了等,,,2015-10-05,1,,,,,イグジラレートインターナショナル,0
353,2010902003353,登記記録の閉鎖等,0,2022-10-12,2022-10-05,有限会社オオヤギオート,,有限会社,東京都,世田谷区,桜上水２丁目１６番４号,,13,112,1560045,,,2022-10-05,清算の結了等,,,2015-10-05,1,,,,,オオヤギオート,0
361,2011001136210,登記記録の閉鎖等,0,2022-10-12,2022-08-05,三ツ矢物流株式会社,,株式会社,東京都,目黒区,下目黒１丁目７番５号,,13,110,1530064,,,2022-08-05,合併による解散等,3011101060929,令和４年８月５日東京都目黒区下目黒一丁目７番５号バーナードハウス３Ｆ株式会社東京アーバンディライト（3011101060929）に合併し解散,2020-10-09,1,,,,,ミツヤブツリュウ,0
388,2011701007181,登記記録の閉鎖等,0,2022-10-12,2022-10-07,株式会社保志運輸,,株式会社,東京都,江戸川区,東葛西１丁目４４番１４号,,13,123,1340084,,,2022-10-07,清算の結了等,,,2015-10-05,1,,,,,,0
393,2012401031257,登記記録の閉鎖等,0,2022-10-12,2022-10-03,京王自動車調布株式会社,,株式会社,東京都,多摩市,関戸２丁目３７番地３,,13,224,2060011,,,2022-10-03,合併による解散等,1013401005755,令和４年１０月１日東京都多摩市関戸二丁目３７番地３京王自動車株式会社（1013401005755）に合併し解散,2016-04-08,1,,,,,ケイオウジドウシャチョウフ,0
399,2012701008434,登記記録の閉鎖等,0,2022-10-12,2022-10-07,株式会社Ｈａｍｐｓｔｅａｄ,,株式会社,東京都,品川区,東品川１丁目２番５号,,13,109,1400002,,,2022-10-07,合併による解散等,1180001029631,令和４年１０月１日名古屋市千種区覚王山通八丁目７０番地の１株式会社ＥＤＩＯＮクロスベンチャーズ（1180001029631）に合併し解散,2015-10-05,1,,,,,ハムステッド,0
412,2020001038309,登記記録の閉鎖等,0,2022-10-12,2022-10-03,株式会社ナイスデイ,,株式会社,神奈川県,横浜市西区,浅間町１丁目１２番地４,,14,103,2200072,,,2022-10-03,合併による解散等,6020001053618,令和４年１０月１日横浜市戸塚区戸塚町６００２番地４１株式会社ＡＱＵＡ（6020001053618）に合併し解散,2015-10-05,1,,,,,ナイスデイ,0
432,2030001130725,登記記録の閉鎖等,0,2022-10-12,2022-09-29,株式会社ヤマモト,,株式会社,埼玉県,蕨市,中央１丁目３１番１１号,,11,223,3350004,,,2022-09-29,清算の結了等,,,2019-05-13,1,,,,,ヤマモト,0
436,2030002006899,登記記録の閉鎖等,0,2022-10-12,2022-10-03,有限会社新生社,,有限会社,埼玉県,さいたま市大宮区,天沼町１丁目６２１番地８８,,11,103,3300834,,,2022-10-03,清算の結了等,,,2015-10-05,1,,,,,シンセイシャ,0
468,2070001018495,登記記録の閉鎖等,0,2022-10-12,2022-10-03,セイノーオートサービス関東株式会社,,株式会社,群馬県,前橋市,飯土井町４００番地３,,10,201,3792111,,,2022-10-03,合併による解散等,3070001009857,令和４年１０月１日群馬県安中市板鼻１６番地の１関東西濃運輸株式会社（3070001009857）に合併し解散,2015-10-05,1,,,,,セイノーオートサービスカントウ,0
471,2070002011895,登記記録の閉鎖等,0,2022-10-12,2022-10-03,有限会社フレッシュトマト,,有限会社,群馬県,渋川市,北橘町下箱田１７１番地,,10,208,3770061,,,2022-10-03,清算の結了等,,,2015-10-05,1,,,,,フレッシュトマト,0
477,2100001029547,登記記録の閉鎖等,0,2022-10-12,2022-10-03,ネクサスラボ株式会社,,株式会社,長野県,飯田市,松尾代田６３７番地３,,20,205,3950812,,,2022-10-03,清算の結了等,,,2016-08-08,1,,,,,ネクサスラボ,0
490,2120001020198,登記記録の閉鎖等,0,2022-10-12,2022-10-07,株式会社小倉組,,株式会社,大阪府,大阪市中央区,平野町３丁目４番２号,,27,128,5410046,,,2022-10-07,清算の結了等,,,2015-10-05,1,,,,,オグラグミ,0
492,2120001055021,登記記録の閉鎖等,0,2022-10-12,2022-10-06,株式会社グレイ,,株式会社,大阪府,高槻市,城西町３番２７号,,27,207,5690065,,,2022-10-06,清算の結了等,,,2015-10-05,1,,,,,グレイ,0
494,2120001139732,登記記録の閉鎖等,0,2022-10-12,2022-10-07,株式会社コスタサービス,,株式会社,大阪府,大阪市中央区,南本町４丁目５番７号,,27,128,5410054,,,2022-10-07,清算の結了等,,,2015-10-05,1,,,,,コスタサービス,0
523,2130001010520,登記記録の閉鎖等,0,2022-10-12,2022-09-30,京阪工事株式会社,,株式会社,京都府,京都市南区,吉祥院中河原里北町４１番地,,26,107,6018394,,,2022-09-30,清算の結了等,,,2015-10-05,1,,,,,,0
525,2130001010982,登記記録の閉鎖等,0,2022-10-12,2022-09-30,錢谷産業株式会社,,株式会社,京都府,京都市南区,吉祥院仁木ノ森町１７番地の２,,26,107,6018354,,,2022-09-30,清算の結了等,,,2015-10-05,1,,,,,,0
531,2130002034106,登記記録の閉鎖等,0,2022-10-12,2022-10-03,有限会社アスカハウジング,,有限会社,京都府,舞鶴市,字福来１７３番地の１,,26,202,6240905,,,2022-10-03,清算の結了等,,,2015-10-05,1,,,,,アスカハウジング,0
533,2140001059714,登記記録の閉鎖等,0,2022-10-12,2022-10-06,第一クリーニング株式会社,,株式会社,兵庫県,姫路市,網干区大江島１１３番地,,28,201,6711231,,,2022-10-06,清算の結了等,,,2015-10-05,1,,,,,,0
535,2140001080050,登記記録の閉鎖等,0,2022-10-12,2022-10-03,冨士トレーディング株式会社,,株式会社,兵庫県,伊丹市,北河原５丁目５番５号,,28,207,6640837,,,2022-10-03,合併による解散等,4140001080049,令和４年１０月１日兵庫県伊丹市北河原五丁目５番５号株式会社パウレック（4140001080049）に合併し解散,2015-10-05,1,,,,,フジトレーディング,0
542,2140002032026,登記記録の閉鎖等,0,2022-10-12,2022-10-05,有限会社花処まえだ,,有限会社,兵庫県,揖保郡太子町,東保３１６番地６,,28,464,6711524,,,2022-10-05,清算の結了等,,,2015-10-05,1,,,,,ハナドコロマエダ,0
555,2160002005442,登記記録の閉鎖等,0,2022-10-12,2022-10-06,有限会社山川書店,,有限会社,滋賀県,甲賀市,水口町本町３丁目５番９号,,25,209,5280031,,,2022-10-06,清算の結了等,,,2015-10-05,1,,,,,ヤマカワショテン,0
558,2180001120315,登記記録の閉鎖等,0,2022-10-12,2022-09-30,ＡＰＴＪ株式会社,,株式会社,愛知県,愛知郡東郷町,北山台３丁目１番地３０,,23,302,4700152,,,2022-09-30,清算の結了等,,,2015-10-05,1,,,,,エーピーティージェイ,0
562,2180302022020,登記記録の閉鎖等,0,2022-10-12,2022-09-30,有限会社近藤鉄工所,,有限会社,愛知県,豊田市,緑ケ丘２丁目２２番地,,23,211,4710838,,,2022-09-30,清算の結了等,,,2015-10-05,1,,,,,コンドウテッコウショ,0
568,2200002019529,登記記録の閉鎖等,0,2022-10-12,2022-10-06,有限会社ＪＡめぐみのサービス,,有限会社,岐阜県,関市,若草通１丁目１番地,,21,205,5013802,,,2022-10-06,清算の結了等,,,2015-10-05,1,,,,,ジェイエイメグミノサービス,0
571,2230001006558,登記記録の閉鎖等,0,2022-10-12,2022-10-04,中越銅工業株式会社,,株式会社,富山県,中新川郡立山町,西芦原新１番地１,00078844,16,323,9300224,,,2022-10-04,合併による解散等,7230001006504,令和４年１０月１日富山県中新川郡立山町西芦原新１番地１中越合金鋳工株式会社（7230001006504）に合併し解散,2015-10-05,1,,,,,チュウエツドウコウギョウ,0
596,2320002010095,登記記録の閉鎖等,0,2022-10-12,2022-10-07,産栄建設工業有限会社,,有限会社,大分県,由布市,湯布院町川上２８７０番地の１,,44,213,8795102,,,2022-10-07,清算の結了等,,,2015-10-05,1,,,,,,0
622,2420001000797,登記記録の閉鎖等,0,2022-10-12,2022-10-04,株式会社グリーン,,株式会社,青森県,青森市,大字新城字平岡８８３番地,,02,201,0380042,,,2022-10-04,清算の結了等,,,2015-10-05,1,,,,,グリーン,0
633,2470002018207,登記記録の閉鎖等,0,2022-10-12,2022-10-06,有限会社オートサービス河野,,有限会社,香川県,さぬき市,寒川町神前２０２１番地３,,37,206,7692323,,,2022-10-06,清算の結了等,,,2015-10-05,1,,,,,オートサービスコウノ,0
634,2490002000071,登記記録の閉鎖等,0,2022-10-12,2022-10-03,アイランドガス有限会社,,有限会社,高知県,高知市,北本町３丁目８番３０号,,39,201,7800056,,,2022-10-03,合併による解散等,1490001001955,令和４年１０月１日高知市帯屋町二丁目２番１号株式会社ヒワサキ（1490001001955）に合併し解散,2015-10-05,1,,,,,アイランドガス,0
657,3010401007994,登記記録の閉鎖等,0,2022-10-12,2022-09-21,キヤニオン株式会社,,株式会社,東京都,港区,芝浦４丁目１９番１－４７０９号,,13,103,1080023,,,2022-09-21,清算の結了等,,,2015-10-05,1,,,,,キャニオン,0
665,3010403022711,登記記録の閉鎖等,0,2022-10-12,2022-09-21,Ｚｅｎｏａｒｋ合同会社,,合同会社,東京都,港区,南青山２丁目２番１５号ウィン青山９４２,,13,103,1070062,,,2022-09-21,清算の結了等,,,2020-03-26,1,,,,,ゼノアーク,0
667,3010405018484,登記記録の閉鎖等,0,2022-10-12,2022-09-20,一般社団法人民事信託コンサルタント協会,,その他の設立登記法人,東京都,港区,新橋２丁目１番１号山口ビルディング９階,,13,103,1050004,,,2022-09-20,清算の結了等,,,2020-02-12,1,,,,,ミンジシンタクコンサルタントキョウカイ,0
687,3011001023473,登記記録の閉鎖等,0,2022-10-12,2022-09-28,株式会社ヤングファツション研究所,,株式会社,東京都,渋谷区,千駄ヶ谷３丁目５１番２号,,13,113,1510051,,,2022-09-28,合併による解散等,1011001028128,令和４年９月２８日東京都渋谷区千駄ケ谷三丁目５１番２号株式会社アーベーセー（1011001028128）に合併し解散,2015-10-05,1,,,,,ヤングファッションケンキュウジョ,0
688,3011001048280,登記記録の閉鎖等,0,2022-10-12,2022-09-28,株式会社山の手総合研究所,,株式会社,東京都,渋谷区,代々木１丁目２４番１０号ＴＳビル４階,,13,113,1510053,,,2022-09-28,清算の結了等,,,2015-10-05,1,,,,,ヤマノテソウゴウケンキュウジョ,0
716,3011601003148,登記記録の閉鎖等,0,2022-10-12,2022-10-05,株式会社寿永,,株式会社,東京都,練馬区,春日町５丁目３１番２－１９０６号,,13,120,1790074,,,2022-10-05,清算の結了等,,,2015-10-05,1,,,,,,0
717,3011601019375,登記記録の閉鎖等,0,2022-10-12,2022-10-05,株式会社Ｍ．都田,,株式会社,東京都,練馬区,中村北１丁目２０番１４－７０３号ライオンズマンション中村橋,,13,120,1760023,,,2022-10-05,清算の結了等,,,2015-10-05,1,,,,,,0
721,3012401031256,登記記録の閉鎖等,0,2022-10-12,2022-10-03,京王自動車城南株式会社,,株式会社,東京都,多摩市,関戸２丁目３７番地３,,13,224,2060011,,,2022-10-03,合併による解散等,1013401005755,令和４年１０月１日東京都多摩市関戸二丁目３７番地３京王自動車株式会社（1013401005755）に合併し解散,2016-04-08,1,,,,,ケイオウジドウシャジョウナン,0
740,3021002055110,登記記録の閉鎖等,0,2022-10-12,2022-10-05,有限会社石井工務店,,有限会社,神奈川県,足柄上郡松田町,松田惣領５５５番地の１,,14,363,2580003,,,2022-10-05,清算の結了等,,,2015-10-05,1,,,,,イシイコウムテン,0
742,3021003009387,登記記録の閉鎖等,0,2022-10-12,2022-09-15,合同会社ＡＣＣＥＳＳ,,合同会社,神奈川県,相模原市南区,上鶴間本町７丁目１１番,,14,153,2520318,,,2022-09-15,清算の結了等,,,2020-05-29,1,,,,,アクセス,0
766,3050001022671,登記記録の閉鎖等,0,2022-10-12,2022-10-03,株式会社エコ・エンタープライズ,,株式会社,茨城県,潮来市,あやめ２丁目１６番地１ブレスビル３階,,08,223,3112425,,,2022-10-03,清算の結了等,,,2015-10-05,1,,,,,,0
776,3080001010632,登記記録の閉鎖等,0,2022-10-12,2022-10-11,株式会社恒仁,,株式会社,静岡県,静岡市葵区,追手町１番１３号アゴラ静岡６階,,22,101,4200853,,,2022-10-11,清算の結了等,,,2015-10-05,1,,,,,コウジン,0
785,3100005011995,登記記録の閉鎖等,0,2022-10-12,2022-10-05,特定非営利活動法人子どもの保養サポート・上田,,その他の設立登記法人,長野県,上田市,古里６９９番地６,,20,203,3860005,,,2022-10-05,清算の結了等,,,2017-02-07,1,,,,,コドモノホヨウサポートウエダ,0
800,3120001159408,登記記録の閉鎖等,0,2022-10-12,2022-10-03,株式会社サンフォレスト,,株式会社,大阪府,守口市,佐太中町２丁目２８番１７号,,27,209,5700002,,,2022-10-03,清算の結了等,,,2015-10-05,1,,,,,,0
836,3140001007853,登記記録の閉鎖等,0,2022-10-12,2022-10-05,サクセス神戸株式会社,,株式会社,兵庫県,神戸市東灘区,田中町４丁目６番７－３１０号,,28,101,6580081,,,2022-10-05,清算の結了等,,,2015-10-05,1,,,,,,0
839,3140001037735,登記記録の閉鎖等,0,2022-10-12,2022-10-05,株式会社丸屋,,株式会社,兵庫県,明石市,大道町１丁目１４番１３号,,28,203,6730029,,,2022-10-05,清算の結了等,,,2015-10-05,1,,,,,,0
850,3180001020547,登記記録の閉鎖等,0,2022-10-12,2022-09-28,株式会社日本コンタクトレンズ,,株式会社,愛知県,名古屋市中川区,好本町３丁目１０番地,,23,110,4540825,,,2022-09-28,清算の結了等,,,2015-10-05,1,,,,,ニホンコンタクトレンズ,0
851,3180001067159,登記記録の閉鎖等,0,2022-10-12,2022-10-03,株式会社ニッシン,,株式会社,愛知県,日進市,岩藤町黒砂雲３８９番地,,23,230,4700104,,,2022-10-03,合併による解散等,3180001067175,令和４年１０月１日愛知県日進市岩藤町上原４２７番地株式会社日進螺子製作所（3180001067175）に合併し解散,2015-10-05,1,,,,,ニッシン,0
871,3200003005213,登記記録の閉鎖等,0,2022-10-12,2022-10-11,合同会社Ｌａｔｒａｄｅ,,合同会社,岐阜県,瑞穂市,本田７９９番地６,,21,216,5010236,,,2022-10-11,清算の結了等,,,2021-05-26,1,,,,,ラトレイド,0
873,3210001009900,登記記録の閉鎖等,0,2022-10-12,2022-10-03,株式会社ホンダテラル福井,,株式会社,福井県,大野市,陽明町３丁目１６０１番地,,18,205,9120022,,,2022-10-03,合併による解散等,7210001003577,令和４年１０月１日福井市御幸四丁目１１番２２号株式会社ホンダクリオ福井（7210001003577）に合併し解散,2015-10-05,1,,,,,ホンダテラルフクイ,0
878,3230001000824,登記記録の閉鎖等,0,2022-10-12,2022-10-06,株式会社クリバヤシ,,株式会社,富山県,富山市,呉羽町１８４番地２１,,16,201,9300138,,,2022-10-06,清算の結了等,,,2015-10-05,1,,,,,クリバヤシ,0
880,3230001019204,登記記録の閉鎖等,0,2022-10-12,2022-10-06,丸富食品株式会社,,株式会社,富山県,高岡市,下黒田７７７番地の６４,,16,202,9330852,,,2022-10-06,清算の結了等,,,2022-01-27,1,,,,,マルトミショクヒン,0
882,3240001041537,登記記録の閉鎖等,0,2022-10-12,2022-10-11,株式会社Ｉ’ｓ,,株式会社,広島県,広島市中区,竹屋町６番２２－２０２号,,34,101,7300048,,,2022-10-11,清算の結了等,,,2015-10-05,1,,,,,,0
884,3240002028021,登記記録の閉鎖等,0,2022-10-12,2022-10-11,有限会社テック・オカダ,,有限会社,広島県,東広島市,黒瀬楢原北２丁目２３番８号,00001053,34,212,7392627,,,2022-10-11,清算の結了等,,,2015-10-05,1,,,,,,0
897,3290001076834,登記記録の閉鎖等,0,2022-10-12,2022-10-04,株式会社善陽メンテナンス,,株式会社,福岡県,福岡市中央区,天神２丁目３－１０パインクレスト７１６,,40,133,8100001,,,2022-10-04,清算の結了等,,,2017-02-22,1,,,,,ゼンヨウメンテナンス,0
902,3290005002480,登記記録の閉鎖等,0,2022-10-12,2022-10-07,協同組合グリーンプラザ下山門,,その他の設立登記法人,福岡県,福岡市西区,下山門団地４０番２号,,40,135,8190051,,,2022-10-07,清算の結了等,,,2015-10-05,1,,,,,グリーンプラザシモヤマト,0
912,3330001014888,登記記録の閉鎖等,0,2022-10-12,2022-10-06,自然と未来株式会社,,株式会社,熊本県,熊本市西区,新港１丁目４番１７号,,43,103,8615274,,,2022-10-06,清算の結了等,,,2015-10-05,1,,,,,シゼントミライ,0
916,3350001015050,登記記録の閉鎖等,0,2022-10-12,2022-10-06,株式会社リヴウェル,,株式会社,宮崎県,宮崎市,大字恒久１８００番地１,,45,201,8800916,,,2022-10-06,清算の結了等,,,2017-12-06,1,,,,,リヴウェル,0
924,3380001016293,登記記録の閉鎖等,0,2022-10-12,2022-10-04,津田電気株式会社,,株式会社,福島県,南相馬市,原町区橋本町１丁目５１番地,,07,212,9750006,,,2022-10-04,清算の結了等,,,2015-10-05,1,,,,,ツダデンキ,0
959,4010001185488,登記記録の閉鎖等,0,2022-10-12,2022-10-07,ＭＩＧ株式会社,,株式会社,東京都,中央区,入船２丁目２番２号,,13,102,1040042,,,2022-10-07,清算の結了等,,,2017-08-08,1,,,,,エムアイジー,0
963,4010001188615,登記記録の閉鎖等,0,2022-10-12,2022-09-26,株式会社ＲＥＢＯＲＮ製薬,,株式会社,東京都,目黒区,碑文谷５丁目１２－３,,13,110,1520003,,,2022-09-26,清算の結了等,,,2017-12-26,1,,,,,リボン,0
972,4010005032158,登記記録の閉鎖等,0,2022-10-12,2022-10-07,一般社団法人日本未来経済フォーラム,,その他の設立登記法人,東京都,千代田区,神田駿河台１丁目８番６号,,13,101,1010062,,,2022-10-07,清算の結了等,,,2020-08-20,1,,,,,ニホンミライケイザイフォーラム,0
989,4010502019946,登記記録の閉鎖等,0,2022-10-12,2022-10-06,日本ビンコ有限会社,,有限会社,東京都,江戸川区,北葛西２丁目１０番２７号,,13,123,1340081,,,2022-10-06,清算の結了等,,,2015-10-05,1,,,,,ニホンビンコ,0
992,4010605001644,登記記録の閉鎖等,0,2022-10-12,2022-10-04,ＮＰＯ法人日本教育総合振興会,,その他の設立登記法人,東京都,江東区,大島６丁目１番５－１１０５,,13,108,1360072,,,2022-10-04,清算の結了等,,,2015-10-05,1,,,,,ニホンキョウイクソウゴウシンコウカイ,0
993,4010705002179,登記記録の閉鎖等,0,2022-10-12,2022-10-03,特定非営利活動法人蒼き翼,,その他の設立登記法人,東京都,品川区,戸越１丁目６番１０号森河ビル２階２０２号室,,13,109,1420041,,,2022-10-03,清算の結了等,,,2015-10-05,1,,,,,アオキツバサ,0
997,4010902022640,登記記録の閉鎖等,0,2022-10-12,2022-10-07,有限会社オフィス栗田,,有限会社,東京都,世田谷区,北烏山５丁目１８番２８号,,13,112,1570061,,,2022-10-07,合併による解散等,1030002040619,令和４年９月１１日埼玉県幸手市中一丁目３番３４号株式会社ビーシーエル（1030002040619）に合併し解散,2015-10-05,1,,,,,,0
1015,4011101044641,登記記録の閉鎖等,0,2022-10-12,2022-10-07,株式会社アクトコール,,株式会社,東京都,新宿区,四谷２丁目１２番５号,,13,104,1600004,,,2022-10-07,合併による解散等,9180001044664,令和４年１０月１日名古屋市中区錦一丁目１０番２０号ジャパンベストレスキューシステム株式会社（9180001044664）に合併し解散,2015-10-05,1,,,,,アクトコール,0
1024,4011303001341,登記記録の閉鎖等,0,2022-10-12,2022-10-06,合同会社ソフトデータ,,合同会社,奈良県,生駒市,東生駒１丁目２１７番地－４０３,,29,209,6300213,,,2022-10-06,清算の結了等,,,2015-10-05,1,,,,,ソフトデータ,0
1034,4012302002966,登記記録の閉鎖等,0,2022-10-12,2022-10-06,有限会社田中製作所,,有限会社,東京都,町田市,野津田町１５９番地２,,13,209,1950063,,,2022-10-06,清算の結了等,,,2015-10-05,1,,,,,タナカセイサクジョ,0
1035,4012401031255,登記記録の閉鎖等,0,2022-10-12,2022-10-03,京王自動車城西株式会社,,株式会社,東京都,多摩市,関戸２丁目３７番地３,,13,224,2060011,,,2022-10-03,合併による解散等,1013401005755,令和４年１０月１日東京都多摩市関戸二丁目３７番地３京王自動車株式会社（1013401005755）に合併し解散,2016-04-08,1,,,,,ケイオウジドウシャジョウサイ,0
1044,4020001011585,登記記録の閉鎖等,0,2022-10-12,2022-10-03,誠和技建工業株式会社,,株式会社,神奈川県,横浜市旭区,川井本町３５番地の１５,,14,112,2410803,,,2022-10-03,清算の結了等,,,2015-10-05,1,,,,,セイワギケンコウギョウ,0
1057,4021001035054,登記記録の閉鎖等,0,2022-10-12,2022-10-06,株式会社ソーワ,,株式会社,神奈川県,小田原市,栢山３６１５番地の５,,14,206,2500852,,,2022-10-06,清算の結了等,,,2015-10-05,1,,,,,ソーワ,0
1058,4021001061190,登記記録の閉鎖等,0,2022-10-12,2022-10-05,株式会社Ａｒｇｏ,,株式会社,神奈川県,相模原市中央区,下九沢１１８３番地６０,,14,152,2520254,,,2022-10-05,清算の結了等,,,2017-01-25,1,,,,,アルゴ,0
1077,4030002054797,登記記録の閉鎖等,0,2022-10-12,2022-09-30,富士商事有限会社,,有限会社,埼玉県,上尾市,大字堤崎２５番地の１,,11,219,3620054,,,2022-09-30,清算の結了等,,,2015-10-05,1,,,,,フジショウジ,0
1106,4090003000984,登記記録の閉鎖等,0,2022-10-12,2022-10-05,合同会社かーむ,,合同会社,山梨県,甲斐市,竜王１５９０番地,,19,210,4000118,,,2022-10-05,清算の結了等,,,2015-10-05,1,,,,,カーム,0
1109,4100002005339,登記記録の閉鎖等,0,2022-10-12,2022-10-06,有限会社やまいち,,有限会社,長野県,長野市,篠ノ井二ツ柳２２１８番地の１,,20,201,3888012,,,2022-10-06,清算の結了等,,,2015-10-05,1,,,,,ヤマイチ,0
1150,4130001011021,登記記録の閉鎖等,0,2022-10-12,2022-10-03,大貴建設株式会社,,株式会社,京都府,京都市南区,久世中久町６８５番地の１１,,26,107,6018207,,,2022-10-03,清算の結了等,,,2015-10-05,1,,,,,,0
1194,4210005005250,登記記録の閉鎖等,0,2022-10-12,2022-10-05,特定非営利活動法人ソーシャルビジネスサポートセンター,,その他の設立登記法人,大阪府,大阪市生野区,林寺４丁目２番１８号,,27,116,5440023,,,2022-10-05,清算の結了等,,,2015-10-05,1,,,,,ソーシャルビジネスサポートセンター,0
1195,4220001003273,登記記録の閉鎖等,0,2022-10-12,2022-10-06,株式会社人材派遣北陸,,株式会社,石川県,金沢市,橋場町３番１５号,,17,201,9200911,,,2022-10-06,合併による解散等,4230001002992,令和４年１０月１日富山市荒町２番２１号北証パトナ株式会社（4230001002992）に合併し解散,2015-10-05,1,,,,,ジンザイハケンホクリク,0
1196,4220001009436,登記記録の閉鎖等,0,2022-10-12,2022-10-11,マルチュ酒販株式会社,,株式会社,石川県,白山市,徳丸町６２９番地の３,,17,210,9240804,,,2022-10-11,清算の結了等,,,2015-10-05,1,,,,,マルチュシュハン,0
1201,4230001006580,登記記録の閉鎖等,0,2022-10-12,2022-10-04,中越ベアリングパーツ株式会社,,株式会社,富山県,中新川郡立山町,西芦原新１番地１,00078845,16,323,9300224,,,2022-10-04,合併による解散等,7230001006504,令和４年１０月１日富山県中新川郡立山町西芦原新１番地１中越合金鋳工株式会社（7230001006504）に合併し解散,2015-10-05,1,,,,,チュウエツベアリングパーツ,0
1218,4350003002541,登記記録の閉鎖等,0,2022-10-12,2022-10-05,合同会社守山,,合同会社,宮崎県,西都市,大字三宅４２５０番地１,,45,208,8810005,,,2022-10-05,清算の結了等,,,2015-10-05,1,,,,,モリヤマ,0
1225,4380001031267,登記記録の閉鎖等,0,2022-10-12,2022-10-03,株式会社ボヌール・グラース,,株式会社,福島県,いわき市,平字田町１９番地の１７,,07,204,9708026,,,2022-10-03,清算の結了等,,,2020-10-07,1,,,,,ボヌールグラース,0
1230,4420002007294,登記記録の閉鎖等,0,2022-10-12,2022-10-04,有限会社しおで,,有限会社,青森県,八戸市,大字新井田字松山下野場７番地６,,02,203,0310813,,,2022-10-04,清算の結了等,,,2015-10-05,1,,,,,シオデ,0
1246,4500001007378,登記記録の閉鎖等,0,2022-10-12,2022-10-11,株式会社三冠,,株式会社,愛媛県,伊予郡砥部町,三角７６６番地３,,38,402,7912115,,,2022-10-11,合併による解散等,1490002007241,令和４年１０月１日高知市鴨部９９８番地１９株式会社貴功（1490002007241）に合併し解散,2015-10-05,1,,,,,,0
1256,5010001169523,登記記録の閉鎖等,0,2022-10-12,2022-10-03,春蘭商事株式会社,,株式会社,愛知県,名古屋市中川区,荒中町２５０－４,,23,110,4540922,,,2022-10-03,清算の結了等,,,2015-10-05,1,,,,,シュンランショウジ,0
1314,5011102017819,登記記録の閉鎖等,0,2022-10-12,2022-10-03,有限会社リアルエステート・キシ,,有限会社,東京都,新宿区,新宿１丁目２番５号,,13,104,1600022,,,2022-10-03,合併による解散等,2011101005059,令和４年１０月１日東京都新宿区新宿一丁目２番５号株式会社キシ・トレ－ディング（2011101005059）に合併し解散,2015-10-05,1,,,,,リアルエステートキシ,0
1317,5011305002205,登記記録の閉鎖等,0,2022-10-12,2022-10-04,特定非営利活動法人大江戸東京音頭連,,その他の設立登記法人,東京都,杉並区,下井草２丁目２４番１６号,,13,115,1670022,,,2022-10-04,清算の結了等,,,2015-10-05,1,,,,,オオエドトウキョウオンドレン,0
1330,5011802013704,登記記録の閉鎖等,0,2022-10-12,2022-10-05,有限会社信光板金,,有限会社,東京都,足立区,一ツ家４丁目５番１０号,,13,121,1210075,,,2022-10-05,清算の結了等,,,2015-10-05,1,,,,,シンコウバンキン,0
1336,5012802004189,登記記録の閉鎖等,0,2022-10-12,2022-10-03,有限会社江郷薬局,,有限会社,東京都,武蔵村山市,大南２丁目５６番地の３,,13,223,2080013,,,2022-10-03,清算の結了等,,,2015-10-05,1,,,,,エゴウヤッキョク,0
1349,5020001064517,登記記録の閉鎖等,0,2022-10-12,2022-10-03,ナシヨナル建物管理株式会社,,株式会社,神奈川県,川崎市多摩区,登戸２６８４番地,,14,135,2140014,,,2022-10-03,合併による解散等,9020001064389,令和４年１０月１日川崎市多摩区登戸２６８４番地株式会社東栄ビルド（9020001064389）に合併し解散,2015-10-05,1,,,,,ナシヨナルタテモノカンリ,0
1365,5021002041604,登記記録の閉鎖等,0,2022-10-12,2022-09-28,有限会社タナベエンジニアリング,,有限会社,神奈川県,大和市,上草柳１１０４番地の４,,14,213,2420029,,,2022-09-28,清算の結了等,,,2015-10-05,1,,,,,タナベエンジニアリング,0
1371,5030001081263,登記記録の閉鎖等,0,2022-10-12,2022-09-30,株式会社参友,,株式会社,埼玉県,川口市,大字安行原１４５番地の２タドコロビル１階,,11,203,3340057,,,2022-09-30,清算の結了等,,,2015-10-05,1,,,,,サンユウ,0
1402,5080102002667,登記記録の閉鎖等,0,2022-10-12,2022-10-07,有限会社ナカムラ,,有限会社,静岡県,沼津市,下香貫下障子３１６０番地,,22,203,4100822,,,2022-10-07,清算の結了等,,,2015-10-05,1,,,,,ナカムラ,0
1403,5080102011098,登記記録の閉鎖等,0,2022-10-12,2022-10-06,有限会社富田富士薬品,,有限会社,静岡県,三島市,谷田１３７０番地,,22,206,4110801,,,2022-10-06,清算の結了等,,,2015-10-05,1,,,,,トミタフジヤクヒン,0
1405,5080401015353,登記記録の閉鎖等,0,2022-10-12,2022-10-05,株式会社味の関,,株式会社,静岡県,掛川市,大渕８９７６番地の１,,22,213,4371302,,,2022-10-05,清算の結了等,,,2015-10-05,1,,,,,アジノセキ,0
1429,5120001237731,登記記録の閉鎖等,0,2022-10-12,2022-10-04,株式会社Ｃｏｍｐａｓｓ,,株式会社,大阪府,大阪市北区,天満２丁目７番１４号アクアプレイス大阪レジェンドＩＩ１Ｆ,00123189,27,127,5300043,,,2022-10-04,清算の結了等,,,2021-05-28,1,,,,,コンパス,0
1448,5122001020092,登記記録の閉鎖等,0,2022-10-12,2022-10-06,株式会社マルタカ運送,,株式会社,大阪府,八尾市,清水町１丁目２番１２号,,27,212,5810006,,,2022-10-06,清算の結了等,,,2015-10-05,1,,,,,マルタカウンソウ,0
1454,5140001099063,登記記録の閉鎖等,0,2022-10-12,2022-10-05,儷姿堂株式会社,,株式会社,兵庫県,神戸市中央区,江戸町９３番地,,28,110,6500033,,,2022-10-05,清算の結了等,,,2015-10-05,1,,,,,レイシドウ,0
1459,5140003016413,登記記録の閉鎖等,0,2022-10-12,2022-10-05,モノリス合同会社,,合同会社,兵庫県,伊丹市,中央１丁目５番５号ボントンビル４階,,28,207,6640851,,,2022-10-05,清算の結了等,,,2021-06-17,1,,,,,モノリス,0
1465,5180001006718,登記記録の閉鎖等,0,2022-10-12,2022-10-06,株式会社太平,,株式会社,愛知県,名古屋市港区,宝神５丁目１０２３番地,,23,111,4550832,,,2022-10-06,清算の結了等,,,2015-10-05,1,,,,,タイヘイ,0
1467,5180001030684,登記記録の閉鎖等,0,2022-10-12,2022-10-06,株式会社清水勝治商店,,株式会社,愛知県,名古屋市中村区,中島町１丁目９番地,,23,105,4530022,,,2022-10-06,清算の結了等,,,2015-10-05,1,,,,,シミズカツジショウテン,0
1479,5180002084812,登記記録の閉鎖等,0,2022-10-12,2022-10-04,有限会社坂本製作所,,有限会社,愛知県,大府市,若草町２丁目２２３番地,,23,223,4740022,,,2022-10-04,清算の結了等,,,2015-10-05,1,,,,,サカモトセイサクショ,0
1480,5180002087146,登記記録の閉鎖等,0,2022-10-12,2022-10-05,有限会社さくま接骨院,,有限会社,愛知県,半田市,有楽町４丁目２４番地の１,,23,205,4750837,,,2022-10-05,清算の結了等,,,2015-10-05,1,,,,,サクマセッコツイン,0
1482,5180301014206,登記記録の閉鎖等,0,2022-10-12,2022-10-03,株式会社タケダ,,株式会社,愛知県,刈谷市,一色町３丁目６番地６,,23,210,4480022,,,2022-10-03,合併による解散等,9180301014160,令和４年１０月１日愛知県刈谷市一色町三丁目６番地６株式会社タケダ（9180301014160）に合併し解散,2015-10-05,1,,,,,タケダ,0
1498,5230001006555,登記記録の閉鎖等,0,2022-10-12,2022-10-04,中越マシナリー株式会社,,株式会社,富山県,中新川郡立山町,西芦原新１番地１,00078843,16,323,9300224,,,2022-10-04,合併による解散等,7230001006504,令和４年１０月１日富山県中新川郡立山町西芦原新１番地１中越合金鋳工株式会社（7230001006504）に合併し解散,2015-10-05,1,,,,,チュウエツマシナリー,0
1502,5240001029596,登記記録の閉鎖等,0,2022-10-12,2022-10-11,株式会社サンアロー,,株式会社,広島県,福山市,神辺町大字川北１７３番地,,34,207,7202123,,,2022-10-11,清算の結了等,,,2015-10-05,1,,,,,,0
1505,5240002030479,登記記録の閉鎖等,0,2022-10-12,2022-10-11,有限会社焼肉ジュウジュウ,,有限会社,広島県,広島市中区,富士見町１３番１３号サンビレッジビル３Ｆ,,34,101,7300043,,,2022-10-11,清算の結了等,,,2015-10-05,1,,,,,ヤキニクジュウジュウ,0
1550,5380002008973,登記記録の閉鎖等,0,2022-10-12,2022-10-04,有限会社クラウン,,有限会社,福島県,郡山市,中町１１番１０号,,07,203,9638004,,,2022-10-04,合併による解散等,4380001004710,令和４年１０月１日福島県郡山市中町１１番１０号エリート株式会社（4380001004710）に合併し解散,2015-10-05,1,,,,,クラウン,0
1551,5400001006892,登記記録の閉鎖等,0,2022-10-12,2022-10-03,株式会社浄土ケ浜パークホテル,,株式会社,岩手県,宮古市,日立浜町３２番地４,,03,202,0270001,,,2022-10-03,合併による解散等,2400001000832,令和４年１０月１日岩手県盛岡市繋字湯ノ舘１３７番地１株式会社瑞光（2400001000832）に合併し解散,2015-10-05,1,,,,,ジョウドガハマパークホテル,0
1557,5430002029287,登記記録の閉鎖等,0,2022-10-12,2022-10-04,しんきん北海道総合管理有限会社,,有限会社,北海道,札幌市中央区,南二条西３丁目１５番地の１,,01,101,0600062,,,2022-10-04,清算の結了等,,,2015-10-05,1,,,,,シンキンホッカイドウソウゴウカンリ,0
1561,5450002005022,登記記録の閉鎖等,0,2022-10-12,2022-10-11,有限会社北海道移動販売マルニ佐藤,,有限会社,北海道,旭川市,春光台四条３丁目６番地２７,,01,204,0718144,,,2022-10-11,清算の結了等,,,2015-10-05,1,,,,,,0
1570,5480002014771,登記記録の閉鎖等,0,2022-10-12,2022-10-07,有限会社柴田呉服店,,有限会社,徳島県,美馬郡つるぎ町,貞光字町５６番地,,36,468,7794101,,,2022-10-07,清算の結了等,,,2015-10-05,1,,,,,シバタゴフクテン,0
1578,6010001050343,登記記録の閉鎖等,0,2022-10-12,2022-10-11,株式会社中和,,株式会社,東京都,中央区,日本橋横山町１番４号,,13,102,1030003,,,2022-10-11,清算の結了等,,,2015-10-05,1,,,,,ナカワ,0
1581,6010001190651,登記記録の閉鎖等,0,2022-10-12,2022-10-07,株式会社ＬＭＲファシリティーズ,,株式会社,東京都,千代田区,神田小川町３丁目２番１０号三光ビル４Ｆ,,13,101,1010052,,,2022-10-07,清算の結了等,,,2018-04-02,1,,,,,エルエムアールファシリティーズ,0
1582,6010001191261,登記記録の閉鎖等,0,2022-10-12,2022-10-04,マディソン・グループ・ジャパン株式会社,,株式会社,東京都,中央区,日本橋茅場町１丁目９番２号稲村ビル８階,,13,102,1030025,,,2022-10-04,清算の結了等,,,2018-05-08,1,,,,,マディソングループジャパン,0
1593,6010005024310,登記記録の閉鎖等,0,2022-10-12,2022-10-11,一般社団法人あすなろ,,その他の設立登記法人,東京都,千代田区,丸の内３丁目１番１号東京共同会計事務所内,,13,101,1000005,,,2022-10-11,清算の結了等,,,2015-10-05,1,,,,,アスナロ,0
1605,6010501030472,登記記録の閉鎖等,0,2022-10-12,2022-10-03,株式会社セックリテールサービス,,株式会社,東京都,中央区,八丁堀４丁目６番１号,,13,102,1040032,,,2022-10-03,清算の結了等,,,2015-10-05,1,,,,,セックリテールサービス,0
1607,6010601023401,登記記録の閉鎖等,0,2022-10-12,2022-10-05,株式会社パレット,,株式会社,東京都,墨田区,石原４丁目１番７号,,13,107,1300011,,,2022-10-05,清算の結了等,,,2015-10-05,1,,,,,パレット,0
1612,6010802003805,登記記録の閉鎖等,0,2022-10-12,2022-10-03,有限会社カミムラ,,有限会社,東京都,大田区,下丸子３丁目２０番１５号,,13,111,1460092,,,2022-10-03,清算の結了等,,,2015-10-05,1,,,,,カミムラ,0
1620,6011001101020,登記記録の閉鎖等,0,2022-10-12,2022-10-06,株式会社ＦＡＭ２ｎｄ,,株式会社,東京都,渋谷区,代官山町２０番９号,,13,113,1500034,,,2022-10-06,合併による解散等,9010001157029,令和４年１０月１日東京都千代田区神田錦町二丁目４番６号株式会社エフエーエイチ（9010001157029）に合併し解散,2015-10-05,1,,,,,,0
1633,6011403001421,登記記録の閉鎖等,0,2022-10-12,2022-10-04,シンカ合同会社,,合同会社,東京都,中央区,東日本橋２丁目２８番４号日本橋ＣＥＴビル２階,,13,102,1030004,,,2022-10-04,清算の結了等,,,2015-10-05,1,,,,,シンカ,0
1641,6011701012624,登記記録の閉鎖等,0,2022-10-12,2022-10-05,株式会社Ｍｕｌｔｉ　Ｃａｓｔ,,株式会社,東京都,江戸川区,平井１丁目９－１８,,13,123,1320035,,,2022-10-05,清算の結了等,,,2015-10-05,1,,,,,マルチキャスト,0
1660,6020001095882,登記記録の閉鎖等,0,2022-10-12,2022-10-03,株式会社ＭＱリゾート,,株式会社,神奈川県,横浜市南区,前里町１丁目２０番地,,14,105,2320004,,,2022-10-03,合併による解散等,5020001039295,令和４年１０月１日横浜市南区前里町一丁目２０番地株式会社エムキュー（5020001039295）に合併し解散,2015-10-05,1,,,,,エムキューリゾート,0
1671,6030001009057,登記記録の閉鎖等,0,2022-10-12,2022-09-30,株式会社リペア,,株式会社,埼玉県,さいたま市見沼区,大字大谷２１３番地の４８,,11,104,3370014,,,2022-09-30,清算の結了等,,,2015-10-05,1,,,,,リペア,0
1678,6030002025433,登記記録の閉鎖等,0,2022-10-12,2022-09-28,有限会社ヤマコ,,有限会社,埼玉県,戸田市,上戸田２丁目１９番７号,,11,224,3350022,,,2022-09-28,合併による解散等,4030002025451,令和４年９月２８日埼玉県戸田市上戸田二丁目１９番７号株式会社山昌（4030002025451）に合併し解散,2015-10-05,1,,,,,ヤマコ,0
1683,6030005008047,登記記録の閉鎖等,0,2022-10-12,2022-09-21,稲荷神社,,その他の設立登記法人,埼玉県,比企郡川島町,大字表２０番地,,11,346,3500133,,,2022-09-21,合併による解散等,2030005008298,令和４年９月２１日埼玉県比企郡川島町大字吉原４０１番地宮原神社（2030005008298）に合併し解散,2015-10-05,1,,,,,,0
1702,6070001033012,登記記録の閉鎖等,0,2022-10-12,2022-10-03,株式会社三昇家具,,株式会社,群馬県,高崎市,吉井町多比良２９９番地４,,10,202,3702115,,,2022-10-03,合併による解散等,5070002012908,令和４年１０月１日群馬県高崎市吉井町多比良２９９番地の４株式会社三栄（5070002012908）に合併し解散,2017-01-11,1,,,,,サンショウカグ,0
1720,6110001010626,登記記録の閉鎖等,0,2022-10-12,2022-10-07,ＮＰＳホールディングス株式会社,,株式会社,新潟県,新潟市西区,流通１丁目１番地,,15,107,9501125,,,2022-10-07,合併による解散等,8170001002541,令和４年１０月１日和歌山市和歌浦東三丁目５番５４号日産プリンス和歌山販売株式会社（8170001002541）に合併し解散,2015-10-05,1,,,,,エヌピーエスホールディングス,0
1722,6110002027099,登記記録の閉鎖等,0,2022-10-12,2022-09-26,有限会社大橋印刷所,,有限会社,新潟県,長岡市,浦瀬町１１７４５番地１,,15,202,9400805,,,2022-09-26,清算の結了等,,,2015-10-05,1,,,,,オオハシインサツショ,0
1732,6120001244941,登記記録の閉鎖等,0,2022-10-12,2022-10-04,株式会社Ｃａｍｂｉｏ,,株式会社,大阪府,大阪市生野区,巽中２丁目５－１４クリエオーレ巽中ＩＩ３０１,00126151,27,116,5440013,,,2022-10-04,清算の結了等,,,2022-04-05,1,,,,,カンビオ,0
1745,6120901044747,登記記録の閉鎖等,0,2022-10-12,2022-10-11,エイオン株式会社,,株式会社,大阪府,吹田市,昭和町９番２２号,,27,205,5640028,,,2022-10-11,清算の結了等,,,2021-08-11,1,,,,,エイオン,0
1764,6140001110687,登記記録の閉鎖等,0,2022-10-12,2022-10-05,株式会社Ｆｏｒｅｓｔ３８,,株式会社,兵庫県,神戸市北区,山田町小部字大東３０番地,,28,109,6511101,,,2022-10-05,清算の結了等,,,2018-07-12,1,,,,,フォレストサワ,0
1779,6150002000556,登記記録の閉鎖等,0,2022-10-12,2022-10-05,有限会社近代建築庭園,,有限会社,奈良県,奈良市,大宮町１丁目９２番地の２,,29,201,6308115,,,2022-10-05,清算の結了等,,,2015-10-05,1,,,,,キンダイケンチクテイエン,0
1780,6150002003971,登記記録の閉鎖等,0,2022-10-12,2022-10-04,有限会社うえだ,,有限会社,奈良県,生駒市,東松ケ丘１７番５号,,29,209,6300244,,,2022-10-04,清算の結了等,,,2015-10-05,1,,,,,ウエダ,0
1785,6170002006824,登記記録の閉鎖等,0,2022-10-12,2022-10-07,有限会社西峰,,有限会社,和歌山県,海草郡紀美野町,下佐々４１１番地の３,,30,304,6401121,,,2022-10-07,清算の結了等,,,2015-10-05,1,,,,,ニシミネ,0
1789,6180301013710,登記記録の閉鎖等,0,2022-10-12,2022-10-03,株式会社磯村ルーフ,,株式会社,愛知県,刈谷市,中手町３丁目６０２番地,,23,210,4480049,,,2022-10-03,合併による解散等,8180301000285,令和４年１０月１日愛知県岡崎市竜美台二丁目８番地８株式会社インテルグロー（8180301000285）に合併し解散,2015-10-05,1,,,,,イソムラルーフ,0
1790,6180301021250,登記記録の閉鎖等,0,2022-10-12,2022-10-06,株式会社光隆,,株式会社,愛知県,豊田市,美里２丁目１３番地の２４,,23,211,4710805,,,2022-10-06,清算の結了等,,,2015-10-05,1,,,,,,0
1793,6180305007295,登記記録の閉鎖等,0,2022-10-12,2022-09-30,特定非営利活動法人あづまコミュニティ開発,,その他の設立登記法人,愛知県,西尾市,吾妻町１７２番地,,23,213,4450861,,,2022-09-30,清算の結了等,,,2015-10-05,1,,,,,アヅマコミュニティカイハツ,0
1800,6200002012645,登記記録の閉鎖等,0,2022-10-12,2022-10-11,有限会社サビロ,,有限会社,岐阜県,大垣市,外渕２丁目１９２番地,,21,202,5030934,,,2022-10-11,清算の結了等,,,2015-10-05,1,,,,,サビロ,0
1801,6200002015202,登記記録の閉鎖等,0,2022-10-12,2022-10-07,有限会社大山製作所,,有限会社,岐阜県,大垣市,外渕２丁目１４９番地２,,21,202,5030934,,,2022-10-07,清算の結了等,,,2015-10-05,1,,,,,オオヤマセイサクショ,0
1804,6210001011952,登記記録の閉鎖等,0,2022-10-12,2022-10-03,株式会社ホンダ、シヨツプ武生,,株式会社,福井県,越前市,中央２丁目７番１４号,,18,209,9150814,,,2022-10-03,合併による解散等,7210001003577,令和４年１０月１日福井市御幸四丁目１１番２２号株式会社ホンダクリオ福井（7210001003577）に合併し解散,2015-10-05,1,,,,,ホンダシヨツプタケフ,0
1806,6210002003206,登記記録の閉鎖等,0,2022-10-12,2022-10-04,有限会社フローネット・フクイ,,有限会社,福井県,福井市,開発１丁目４０７番地,,18,201,9100842,,,2022-10-04,清算の結了等,,,2015-10-05,1,,,,,フローネットフクイ,0
1812,6240001039413,登記記録の閉鎖等,0,2022-10-12,2022-10-06,株式会社ＰＫテクノ尾道,,株式会社,広島県,尾道市,高須町大山田２１０５０番地１,,34,205,7290141,,,2022-10-06,清算の結了等,,,2015-10-05,1,,,,,ピーケーテクノオノミチ,0
1818,6260001028100,登記記録の閉鎖等,0,2022-10-12,2022-10-05,株式会社プラスワン,,株式会社,岡山県,岡山市北区,尾上５４８番地３,,33,101,7011212,,,2022-10-05,清算の結了等,,,2015-10-05,1,,,,,プラスワン,0
1822,6290001013545,登記記録の閉鎖等,0,2022-10-12,2022-10-03,三和ネオン電機株式会社,,株式会社,福岡県,福岡市博多区,博多駅南２丁目８番３４号,,40,132,8120016,,,2022-10-03,清算の結了等,,,2015-10-05,1,,,,,サンワネオンデンキ,0
1826,6290003010342,登記記録の閉鎖等,0,2022-10-12,2022-10-03,合同会社ＹＡＭＡＴＯ,,合同会社,福岡県,福岡市中央区,薬院４丁目１４番１－４０６号,,40,133,8100022,,,2022-10-03,合併による解散等,7290003010341,令和４年１０月１日福岡市中央区薬院四丁目１４番１－４０６号合同会社Ｄｒｅａｍ　Ｓｈｉｐ（7290003010341）に合併し解散,2020-08-25,1,,,,,ヤマト,0
1831,6290802002399,登記記録の閉鎖等,0,2022-10-12,2022-10-06,有限会社国東商事,,有限会社,福岡県,北九州市戸畑区,中原西３丁目９番１号,,40,105,8040011,,,2022-10-06,清算の結了等,,,2015-10-05,1,,,,,クニサキショウジ,0
1857,6410001000729,登記記録の閉鎖等,0,2022-10-12,2022-10-06,遠藤被服工業株式会社,,株式会社,秋田県,秋田市,南通亀の町１０番４号,,05,201,0100011,,,2022-10-06,清算の結了等,,,2015-10-05,1,,,,,エンドウヒフクコウギョウ,0
1858,6420001007624,登記記録の閉鎖等,0,2022-10-12,2022-10-05,株式会社五葉,,株式会社,青森県,八戸市,城下３丁目８番２５号,,02,203,0310072,,,2022-10-05,清算の結了等,,,2015-10-05,1,,,,,ゴヨウ,0
1871,6470005002393,登記記録の閉鎖等,0,2022-10-12,2022-10-07,医療法人社団清風会,,その他の設立登記法人,香川県,丸亀市,城西町２丁目１番３号,,37,202,7630032,,,2022-10-07,清算の結了等,,,2015-10-05,1,,,,,セイフウカイ,0
1873,6500005005566,登記記録の閉鎖等,0,2022-10-12,2022-10-07,協同組合菱花,,その他の設立登記法人,愛媛県,今治市,南宝来町２丁目８番地１４,,38,202,7940043,,,2022-10-07,清算の結了等,,,2015-10-05,1,,,,,リョウカ,0
1877,7010001053675,登記記録の閉鎖等,0,2022-10-12,2022-10-03,株式会社二十一世紀企画,,株式会社,茨城県,土浦市,文京町１７番２２－２０５号,,08,203,3000045,,,2022-10-03,清算の結了等,,,2015-10-05,1,,,,,ニジュウイッセイキキカク,0
1921,7010902009461,登記記録の閉鎖等,0,2022-10-12,2022-10-05,有限会社竹本商会,,有限会社,東京都,世田谷区,奥沢５丁目１４番２２号,,13,112,1580083,,,2022-10-05,清算の結了等,,,2015-10-05,1,,,,,タケモトショウカイ,0
1947,7012401031260,登記記録の閉鎖等,0,2022-10-12,2022-10-03,京王自動車多摩南株式会社,,株式会社,東京都,多摩市,関戸２丁目３７番地３,,13,224,2060011,,,2022-10-03,合併による解散等,1013401005755,令和４年１０月１日東京都多摩市関戸二丁目３７番地３京王自動車株式会社（1013401005755）に合併し解散,2016-04-08,1,,,,,ケイオウジドウシャタマミナミ,0
1948,7012403000131,登記記録の閉鎖等,0,2022-10-12,2022-10-04,合資会社高橋英孝事務所,,合資会社,東京都,府中市,白糸台１丁目７３番地の１,,13,206,1830011,,,2022-10-04,清算の結了等,,,2015-10-05,1,,,,,タカハシエイコウジムショ,0
1960,7020001100526,登記記録の閉鎖等,0,2022-10-12,2022-10-03,株式会社ゼスタア,,株式会社,神奈川県,横浜市港北区,新横浜３丁目１７番６号,,14,109,2220033,,,2022-10-03,合併による解散等,5020001086288,令和４年１０月１日横浜市港北区新横浜三丁目１７番地６株式会社アーゼスト（5020001086288）に合併し解散,2015-10-05,1,,,,,ゼスタア,0
1973,7020003019590,登記記録の閉鎖等,0,2022-10-12,2022-10-03,合同会社アルカディア,,合同会社,神奈川県,川崎市高津区,北見方３丁目１０番２５号２,,14,134,2130005,,,2022-10-03,清算の結了等,,,2021-04-09,1,,,,,アルカディア,0
1991,7040001083926,登記記録の閉鎖等,0,2022-10-12,2022-09-30,ｇｅｔｇｏ株式会社,,株式会社,千葉県,船橋市,葛飾町２丁目３６１番地１,,12,204,2730032,,,2022-09-30,清算の結了等,,,2015-10-05,1,,,,,ゲットゴー,0
2006,7050001027782,登記記録の閉鎖等,0,2022-10-12,2022-09-29,千代田建設株式会社,,株式会社,茨城県,守谷市,中央４丁目２１番地１４,,08,224,3020115,,,2022-09-29,清算の結了等,,,2015-10-05,1,,,,,チヨダケンセツ,0
2010,7080002012938,登記記録の閉鎖等,0,2022-10-12,2022-10-11,有限会社富士商事,,有限会社,静岡県,静岡市駿河区,下川原５丁目３２番１４号,,22,102,4210113,,,2022-10-11,清算の結了等,,,2015-10-05,1,,,,,フジショウジ,0
2020,7100002001723,登記記録の閉鎖等,0,2022-10-12,2022-10-06,有限会社嵩嶺,,有限会社,長野県,長野市,浅川東条３０４番地４,,20,201,3810064,,,2022-10-06,清算の結了等,,,2015-10-05,1,,,,,コウレイ,0
2044,7120001189285,登記記録の閉鎖等,0,2022-10-12,2022-10-07,ジョイフルサッシ株式会社,,株式会社,大阪府,大阪市阿倍野区,阿倍野元町１５番１６号,,27,119,5450034,,,2022-10-07,清算の結了等,,,2015-10-05,1,,,,,ジョイフルサッシ,0
2048,7120002036222,登記記録の閉鎖等,0,2022-10-12,2022-10-04,シリウス有限会社,,有限会社,大阪府,大阪市中央区,北浜３丁目５番１９号淀屋橋ホワイトビル４０３号,,27,128,5410041,,,2022-10-04,清算の結了等,,,2015-10-05,1,,,,,シリウス,0
2072,7140001007429,登記記録の閉鎖等,0,2022-10-12,2022-10-05,建南産業株式会社,,株式会社,兵庫県,神戸市中央区,江戸町９３番地,,28,110,6500033,,,2022-10-05,清算の結了等,,,2015-10-05,1,,,,,ケンナンサンギョウ,0
2080,7150001006256,登記記録の閉鎖等,0,2022-10-12,2022-10-03,株式会社サンライト,,株式会社,大阪府,大阪市西区,北堀江１丁目２３番２５－３１０１号,,27,106,5500014,,,2022-10-03,合併による解散等,5120001106218,令和４年１０月１日大阪市浪速区大国一丁目１０番２１号株式会社アクロスコーポレーション（5120001106218）に合併し解散,2015-10-05,1,,,,,サンライト,0
2092,7180002023280,登記記録の閉鎖等,0,2022-10-12,2022-10-06,有限会社コンテツク・インターナシヨナル,,有限会社,愛知県,名古屋市北区,安井１丁目３番７号,,23,103,4620023,,,2022-10-06,清算の結了等,,,2015-10-05,1,,,,,コンテックインターナショナル,0
2105,7210001003569,登記記録の閉鎖等,0,2022-10-12,2022-10-03,ホンダオート福井販売株式会社,,株式会社,福井県,福井市,里別所新町４０４番地,,18,201,9100056,,,2022-10-03,合併による解散等,7210001003577,令和４年１０月１日福井市御幸四丁目１１番２２号株式会社ホンダクリオ福井（7210001003577）に合併し解散,2015-10-05,1,,,,,ホンダオートフクイハンバイ,0
2110,7240001045939,登記記録の閉鎖等,0,2022-10-12,2022-10-07,株式会社ゼハロス,,株式会社,広島県,福山市,神辺町大字新徳田５１７番地,,34,207,7202125,,,2022-10-07,合併による解散等,9030001004609,令和４年１０月１日東京都板橋区舟渡一丁目８番３号株式会社セフト研究所（9030001004609）に合併し解散,2015-10-05,1,,,,,ゼハロス,0
2162,7400001000679,登記記録の閉鎖等,0,2022-10-12,2022-10-06,株式会社佐々兼商店,,株式会社,岩手県,盛岡市,南大通２丁目５番１５号,,03,201,0200874,,,2022-10-06,清算の結了等,,,2015-10-05,1,,,,,ササカネショウテン,0
2171,7430005003114,登記記録の閉鎖等,0,2022-10-12,2022-10-04,特定非営利活動法人北海道口腔保健協議会,,その他の設立登記法人,北海道,札幌市中央区,南十九条西１３丁目２番１－７０１号,,01,101,0640919,,,2022-10-04,清算の結了等,,,2015-10-05,1,,,,,ホッカイドウコウクウホケンキョウギカイ,0
2179,8010001126265,登記記録の閉鎖等,0,2022-10-12,2022-10-05,株式会社霧島,,株式会社,東京都,千代田区,霞が関３丁目５番１号霞が関ＩＨＦビル３階,,13,101,1000013,,,2022-10-05,清算の結了等,,,2015-10-05,1,,,,,キリシマ,0
2208,8010601031402,登記記録の閉鎖等,0,2022-10-12,2022-10-04,株式会社トーコーフーズ,,株式会社,東京都,江東区,大島１丁目２番１号－３２０４,,13,108,1360072,,,2022-10-04,合併による解散等,1010601005206,令和４年１０月１日東京都墨田区両国一丁目１０番７号株式会社藤江（1010601005206）に合併し解散,2015-10-05,1,,,,,トーコーフーズ,0
2213,8010901036241,登記記録の閉鎖等,0,2022-10-12,2022-10-05,株式会社伸和事務所,,株式会社,東京都,世田谷区,尾山台２丁目１９番１６号,,13,112,1580086,,,2022-10-05,清算の結了等,,,2015-10-05,1,,,,,シンワジムショ,0
2214,8010901045993,登記記録の閉鎖等,0,2022-10-12,2022-09-26,ＯＵＲＡＮＯＳ　ＯＡＳＩＳ　ＰＬＡＮＮＩＮＧ株式会社,,株式会社,東京都,世田谷区,三軒茶屋２丁目１０番１６号ビルデンス三軒茶屋２０２号室,,13,112,1540024,,,2022-09-26,清算の結了等,,,2020-04-06,1,,,,,ウラノスオアシスプランニング,0
2234,8011102021883,登記記録の閉鎖等,0,2022-10-12,2022-10-11,有限会社イー・ストリーム,,有限会社,東京都,千代田区,飯田橋１丁目４番７号６Ｆ,,13,101,1020072,,,2022-10-11,清算の結了等,,,2015-10-05,1,,,,,イーストリーム,0
2254,8020001062451,登記記録の閉鎖等,0,2022-10-12,2022-10-03,株式会社ベルウッドコミュニケーションズ,,株式会社,神奈川県,横浜市神奈川区,山内町１番地,,14,102,2210054,,,2022-10-03,合併による解散等,2020001110356,令和４年１０月１日横浜市神奈川区山内町１番地横浜丸中ホールディングス株式会社（2020001110356）に合併し解散,2015-10-05,1,,,,,ベルウッドコミュニケーションズ,0
2272,8030001015391,登記記録の閉鎖等,0,2022-10-12,2022-09-30,株式会社佐々木設備工業,,株式会社,埼玉県,さいたま市中央区,新中里４丁目１２番２５号,,11,105,3380011,,,2022-09-30,清算の結了等,,,2015-10-05,1,,,,,ササキセツビコウギョウ,0
2274,8030001049019,登記記録の閉鎖等,0,2022-10-12,2022-09-30,株式会社せきしん,,株式会社,埼玉県,新座市,あたご３丁目１５番１０号,,11,230,3520021,,,2022-09-30,清算の結了等,,,2015-10-05,1,,,,,セキシン,0
2275,8030001071063,登記記録の閉鎖等,0,2022-10-12,2022-10-06,マサル機工株式会社,,株式会社,埼玉県,東松山市,大字新郷８８番地４,,11,212,3550071,,,2022-10-06,合併による解散等,4013301030875,令和４年１０月１日東京都豊島区東池袋一丁目２４番１号マサル工業株式会社（4013301030875）に合併し解散,2015-10-05,1,,,,,マサルキコウ,0
2287,8040002036295,登記記録の閉鎖等,0,2022-10-12,2022-10-03,有限会社藤崎木工,,有限会社,千葉県,市川市,田尻３丁目９番６号,,12,203,2720014,,,2022-10-03,清算の結了等,,,2015-10-05,1,,,,,フジサキモッコウ,0
2296,8050001023574,登記記録の閉鎖等,0,2022-10-12,2022-10-07,日木産業株式会社,,株式会社,茨城県,日立市,鮎川町４丁目１番８号,,08,202,3160036,,,2022-10-07,合併による解散等,6010001050228,令和４年１０月１日東京都千代田区神田錦町三丁目７番地１株式会社日立リアルエステートパートナーズ（6010001050228）に合併し解散,2015-10-05,1,,,,,ニチモクサンギョウ,0
2305,8060002033836,登記記録の閉鎖等,0,2022-10-12,2022-10-04,有限会社天龍機工,,有限会社,栃木県,栃木市,都賀町平川４３６番地２,,09,203,3280112,,,2022-10-04,清算の結了等,,,2015-10-05,1,,,,,テンリュウキコウ,0
2311,8080001005108,登記記録の閉鎖等,0,2022-10-12,2022-10-11,株式会社ミツフジ,,株式会社,静岡県,静岡市葵区,瀬名７丁目１３番２１号,,22,101,4200911,,,2022-10-11,清算の結了等,,,2015-10-05,1,,,,,ミツフジ,0
2318,8100001024526,登記記録の閉鎖等,0,2022-10-12,2022-10-06,株式会社長野こまちソリューションズ,,株式会社,長野県,長野市,大字大豆島５１８８番地５,,20,201,3810022,,,2022-10-06,清算の結了等,,,2015-10-05,1,,,,,ナガノコマチソリューションズ,0
2334,8120001033161,登記記録の閉鎖等,0,2022-10-12,2022-09-30,高山プラント技研株式会社,,株式会社,大阪府,松原市,一津屋５丁目１５番４－３０２号,,27,217,5800003,,,2022-09-30,清算の結了等,,,2015-10-05,1,,,,,タカヤマプラントギケン,0
2342,8120001195472,登記記録の閉鎖等,0,2022-10-12,2022-10-03,株式会社クオーレ不動産,,株式会社,大阪府,寝屋川市,香里南之町２８番２４－６０７号,,27,215,5720084,,,2022-10-03,清算の結了等,,,2016-01-07,1,,,,,,0
2349,8120002025678,登記記録の閉鎖等,0,2022-10-12,2022-10-04,有限会社藤川隆文堂,,有限会社,大阪府,大阪市東淀川区,菅原７丁目７番５号,,27,114,5330022,,,2022-10-04,清算の結了等,,,2015-10-05,1,,,,,フジカワリュウブンドウ,0
2366,8130001047433,登記記録の閉鎖等,0,2022-10-12,2022-09-30,株式会社岡本経営コンサルタント事務所,,株式会社,京都府,京都市下京区,中堂寺庄ノ内町５１番地ロイヤルシャトー五条御前１０１号,,26,106,6008814,,,2022-09-30,清算の結了等,,,2015-10-05,1,,,,,,0
2374,8140001057877,登記記録の閉鎖等,0,2022-10-12,2022-10-03,株式会社ウエスト神姫,,株式会社,兵庫県,姫路市,西駅前町１番地,,28,201,6700913,,,2022-10-03,合併による解散等,8140001059270,令和４年１０月１日兵庫県宍粟市山崎町山田８０番地２株式会社ウイング神姫（8140001059270）に合併し解散,2015-10-05,1,,,,,ウエストシンキ,0
2377,8140001081167,登記記録の閉鎖等,0,2022-10-12,2022-10-06,株式会社アダチ,,株式会社,兵庫県,宝塚市,中野町１番１５号,,28,214,6650056,,,2022-10-06,清算の結了等,,,2015-10-05,1,,,,,アダチ,0
2389,8150001015578,登記記録の閉鎖等,0,2022-10-12,2022-10-06,株式会社光無線研究所,,株式会社,奈良県,五條市,須恵３丁目２番１８号,,29,207,6370005,,,2022-10-06,清算の結了等,,,2015-10-05,1,,,,,ヒカリムセンケンキュウショ,0
2401,8180001123485,登記記録の閉鎖等,0,2022-10-12,2022-10-06,株式会社フラワーラウンジ内海,,株式会社,愛知県,知多郡南知多町,大字内海字西郷２７－１,,23,445,4703321,,,2022-10-06,清算の結了等,,,2016-05-26,1,,,,,フラワーラウンジウツミ,0
2413,8210002010464,登記記録の閉鎖等,0,2022-10-12,2022-10-03,株式会社中村商会,,株式会社,福井県,敦賀市,呉竹町１丁目１７番８号,,18,202,9140802,,,2022-10-03,合併による解散等,7210001003577,令和４年１０月１日福井市御幸四丁目１１番２２号株式会社ホンダクリオ福井（7210001003577）に合併し解散,2015-10-05,1,,,,,ナカムラショウカイ,0
2414,8220001006685,登記記録の閉鎖等,0,2022-10-12,2022-10-11,株式会社丸一陶器店,,株式会社,石川県,金沢市,竪町３２番地３３番地合併,,17,201,9200997,,,2022-10-11,清算の結了等,,,2015-10-05,1,,,,,マルイチトウキテン,0
2418,8230001000737,登記記録の閉鎖等,0,2022-10-12,2022-10-06,北日本香料株式会社,,株式会社,富山県,富山市,音羽町２丁目５番８号,,16,201,9300037,,,2022-10-06,清算の結了等,,,2015-10-05,1,,,,,キタニホンコウリョウ,0
2422,8230002000109,登記記録の閉鎖等,0,2022-10-12,2022-10-07,有限会社アオヤマスタジオ,,有限会社,富山県,富山市,弥生町１丁目７番５号,,16,201,9300019,,,2022-10-07,清算の結了等,,,2015-10-05,1,,,,,アオヤマスタジオ,0
2447,8290002030678,登記記録の閉鎖等,0,2022-10-12,2022-10-05,有限会社はつはな,,有限会社,東京都,中央区,銀座４丁目１０番１号,,13,102,1040061,,,2022-10-05,清算の結了等,,,2015-10-05,1,,,,,ハツハナ,0
2461,8340005007742,登記記録の閉鎖等,0,2022-10-12,2022-09-28,特定非営利活動法人ニアあなたの近くに,,その他の設立登記法人,鹿児島県,南九州市,川辺町田部田３７４３番地１,,46,223,8970221,,,2022-09-28,清算の結了等,,,2015-10-05,1,,,,,ニアアナタノチカクニ,0
2465,8360002008378,登記記録の閉鎖等,0,2022-10-12,2022-10-04,有限会社新芽開発,,有限会社,沖縄県,島尻郡八重瀬町,字屋宜原７５番地５,,47,362,9010406,,,2022-10-04,清算の結了等,,,2015-10-05,1,,,,,シンメカイハツ,0
2473,8420002005749,登記記録の閉鎖等,0,2022-10-12,2022-10-05,有限会社サンナスビ,,有限会社,青森県,青森市,北金沢１丁目９番１０号ＴＡＰ北金沢５－Ａ,,02,201,0300855,,,2022-10-05,清算の結了等,,,2015-10-05,1,,,,,,0
2480,8430005006792,登記記録の閉鎖等,0,2022-10-12,2022-10-06,医療法人社団なかさか医院,,その他の設立登記法人,北海道,美唄市,西一条南２丁目１番５号,,01,215,0720024,,,2022-10-06,清算の結了等,,,2015-10-05,1,,,,,ナカサカイイン,0
2482,8450002006281,登記記録の閉鎖等,0,2022-10-12,2022-10-11,鹿野建設有限会社,,有限会社,北海道,旭川市,永山二条２３丁目１番１１号,,01,204,0798412,,,2022-10-11,清算の結了等,,,2015-10-05,1,,,,,カノケンセツ,0
2484,8470001011702,登記記録の閉鎖等,0,2022-10-12,2022-10-07,株式会社カトキチリゾート,,株式会社,香川県,観音寺市,三本松町４丁目２番３５号,,37,205,7680063,,,2022-10-07,清算の結了等,,,2015-10-05,1,,,,,カトキチリゾート,0
2487,8470005002094,登記記録の閉鎖等,0,2022-10-12,2022-10-07,特定非営利活動法人はじめの一歩,,その他の設立登記法人,香川県,高松市,庵治町５７３２番地,,37,201,7610130,,,2022-10-07,清算の結了等,,,2015-10-05,1,,,,,ハジメノイッポ,0
2489,9010001050002,登記記録の閉鎖等,0,2022-10-12,2022-10-05,株式会社チュウショク,,株式会社,東京都,中央区,築地２丁目１５番１５号,,13,102,1040045,,,2022-10-05,清算の結了等,,,2015-10-05,1,,,,,チュウショク,0
2504,9010005031213,登記記録の閉鎖等,0,2022-10-12,2022-10-07,一般社団法人日本施設管理運営協会,,その他の設立登記法人,東京都,千代田区,神田小川町３丁目２番地１０三光ビル４Ｆ,,13,101,1010052,,,2022-10-07,清算の結了等,,,2019-12-17,1,,,,,ニホンシセツカンリウンエイキョウカイ,0
2505,9010005031626,登記記録の閉鎖等,0,2022-10-12,2022-10-07,一般社団法人食の拠点推進機構,,その他の設立登記法人,東京都,千代田区,神田小川町３丁目２番地１０三光ビル４Ｆ,,13,101,1010052,,,2022-10-07,清算の結了等,,,2020-03-23,1,,,,,ショクノキョテンスイシンキコウ,0
2508,9010105001735,登記記録の閉鎖等,0,2022-10-12,2022-10-03,特定非営利活動法人Ｗｉｎｇ　ＰＲＯ,,その他の設立登記法人,東京都,立川市,錦町１丁目４－４サニービル２Ｆ、ＣＳ－５２,,13,202,1900022,,,2022-10-03,清算の結了等,,,2015-10-05,1,,,,,ウイングプロ,0
2510,9010401073528,登記記録の閉鎖等,0,2022-10-12,2022-09-21,株式会社ジュンヒューマンクリエイティブ,,株式会社,東京都,港区,南青山２丁目２６番１号,,13,103,1070062,,,2022-09-21,合併による解散等,4010401013678,令和４年９月２１日東京都港区南青山二丁目２６番１号株式会社ジユン（4010401013678）に合併し解散,2015-10-05,1,,,,,ジュンヒューマンクリエイティブ,0
2516,9010403025733,登記記録の閉鎖等,0,2022-10-12,2022-09-21,ＲＢソーラーディライト合同会社,,合同会社,東京都,港区,虎ノ門３丁目２２番１０－２０１号,,13,103,1050001,,,2022-09-21,清算の結了等,,,2021-07-16,1,,,,,アールビーソーラーディライト,0
2526,9010702003506,登記記録の閉鎖等,0,2022-10-12,2022-09-26,有限会社三恵装飾,,有限会社,東京都,品川区,中延１丁目２番８号,,13,109,1420053,,,2022-09-26,清算の結了等,,,2015-10-05,1,,,,,サンケイソウショク,0
2534,9011001110373,登記記録の閉鎖等,0,2022-10-12,2022-10-07,株式会社エトアールマルゼン,,株式会社,東京都,渋谷区,神宮前３丁目３１番１７号ビラ・ローザ６０２号,,13,113,1500001,,,2022-10-07,合併による解散等,6230001016710,令和４年１０月１日富山市白銀町７番４号株式会社ＥＭプロダクト（6230001016710）に合併し解散,2016-04-22,1,,,,,エトアールマルゼン,0
2558,9012401031259,登記記録の閉鎖等,0,2022-10-12,2022-10-03,京王自動車多摩西株式会社,,株式会社,東京都,多摩市,関戸２丁目３７番地３,,13,224,2060011,,,2022-10-03,合併による解散等,1013401005755,令和４年１０月１日東京都多摩市関戸二丁目３７番地３京王自動車株式会社（1013401005755）に合併し解散,2016-04-08,1,,,,,ケイオウジドウシャタマニシ,0
2571,9020001038624,登記記録の閉鎖等,0,2022-10-12,2022-10-03,株式会社アイヴィネットワーク,,株式会社,神奈川県,横浜市西区,南浅間１４番地４－２０３,,14,103,2200000,,,2022-10-03,清算の結了等,,,2015-10-05,1,,,,,アイヴィネットワーク,0
2588,9021001041758,登記記録の閉鎖等,0,2022-10-12,2022-10-05,株式会社ニューズ,,株式会社,神奈川県,三浦郡葉山町,一色５３０番地の２３,,14,301,2400111,,,2022-10-05,清算の結了等,,,2015-10-05,1,,,,,ニューズ,0
2626,9060001029487,登記記録の閉鎖等,0,2022-10-12,2022-10-03,川上商事株式会社,,株式会社,栃木県,小山市,若木町２丁目７番７号１０１,,09,208,3230028,,,2022-10-03,合併による解散等,4060001023874,令和４年１０月１日栃木県小山市若木町二丁目７番７号１０１川上不動産株式会社（4060001023874）に合併し解散,2017-06-09,1,,,,,カワカミショウジ,0
2627,9060002006163,登記記録の閉鎖等,0,2022-10-12,2022-10-03,有限会社ティーエムエスコーポレーション,,有限会社,栃木県,宇都宮市,仲町三丁目１６番４０９号,,09,201,3200023,,,2022-10-03,清算の結了等,,,2015-10-05,1,,,,,ティーエムエスコーポレーション,0
2634,9080002011599,登記記録の閉鎖等,0,2022-10-12,2022-10-07,有限会社ヨシトモ,,有限会社,静岡県,静岡市清水区,八木間町４３３番地の３,,22,103,4240212,,,2022-10-07,清算の結了等,,,2015-10-05,1,,,,,ヨシトモ,0
2636,9080002016053,登記記録の閉鎖等,0,2022-10-12,2022-10-07,有限会社ティ・エイチ・ケイシステム,,有限会社,静岡県,焼津市,本中根４４２番地の２,,22,212,4250063,,,2022-10-07,清算の結了等,,,2015-10-05,1,,,,,ティエイチケイシステム,0
2637,9080101014890,登記記録の閉鎖等,0,2022-10-12,2022-10-07,和吉丸海運株式会社,,株式会社,静岡県,賀茂郡西伊豆町,宇久須１８９番地の１,,22,306,4103501,,,2022-10-07,清算の結了等,,,2015-10-05,1,,,,,ワキチマルカイウン,0
2643,9080401018006,登記記録の閉鎖等,0,2022-10-12,2022-10-11,株式会社よつはダイニング,,株式会社,静岡県,浜松市浜北区,横須賀７４８番地,,22,136,4340036,,,2022-10-11,清算の結了等,,,2015-10-05,1,,,,,ヨツハダイニング,0
2657,9100003005531,登記記録の閉鎖等,0,2022-10-12,2022-10-06,ＨＯＭＥＴＯＷＮ　ＴＲＩＰ　ＪＡＰＡＮ合同会社,,合同会社,長野県,小諸市,相生町２丁目２番１号,,20,208,3840025,,,2022-10-06,清算の結了等,,,2020-01-09,1,,,,,ホームタウントリップジャパン,0
2666,9120001178781,登記記録の閉鎖等,0,2022-10-12,2022-10-03,ライフテック株式会社,,株式会社,大阪府,枚方市,香里ケ丘１丁目２１－１Ｅ１７－１０３,,27,210,5730084,,,2022-10-03,清算の結了等,,,2015-10-05,1,,,,,,0
2698,9140001086438,登記記録の閉鎖等,0,2022-10-12,2022-09-30,株式会社町田不動産,,株式会社,兵庫県,西宮市,鳴尾町１丁目３番１７号,,28,204,6638184,,,2022-09-30,合併による解散等,9120101009473,令和４年９月２１日大阪府堺市北区北花田町四丁１１１番地１８株式会社アイ・リンク（9120101009473）に合併し解散,2015-10-05,1,,,,,マチダフドウサン,0
2712,9180001008017,登記記録の閉鎖等,0,2022-10-12,2022-10-04,大野建設株式会社,,株式会社,愛知県,名古屋市昭和区,田面町２丁目２８番地,,23,107,4660801,,,2022-10-04,清算の結了等,,,2015-10-05,1,,,,,オオノケンセツ,0
2718,9180001113114,登記記録の閉鎖等,0,2022-10-12,2022-10-04,株式会社千加,,株式会社,愛知県,知多郡東浦町,大字森岡字荒子１２番地の１,,23,442,4702101,,,2022-10-04,清算の結了等,,,2015-10-05,1,,,,,チカ,0
2738,9210002000679,登記記録の閉鎖等,0,2022-10-12,2022-10-04,有限会社エム・エル・シー,,有限会社,福井県,福井市,和田２丁目１１１番地,,18,201,9188238,,,2022-10-04,清算の結了等,,,2015-10-05,1,,,,,エムエルシー,0
2739,9220005003059,登記記録の閉鎖等,0,2022-10-12,2022-10-06,特定非営利活動法人日本静脈産業研究センター,,その他の設立登記法人,石川県,金沢市,東蚊爪町１丁目２５番地,,17,201,9200209,,,2022-10-06,清算の結了等,,,2015-10-05,1,,,,,ニホンジョウミャクサンギョウケンキュウセンター,0
2743,9240001032869,登記記録の閉鎖等,0,2022-10-12,2022-10-06,株式会社中国保険センター,,株式会社,広島県,福山市,多治米町６丁目１２番３１号,,34,207,7200824,,,2022-10-06,清算の結了等,,,2015-10-05,1,,,,,チュウゴクホケンセンター,0
2750,9260001023775,登記記録の閉鎖等,0,2022-10-12,2022-10-07,株式会社コールドオオタ,,株式会社,岡山県,岡山市中区,高島新屋敷５番地,,33,102,7038241,,,2022-10-07,清算の結了等,,,2015-10-05,1,,,,,コールドオオタ,0
2759,9290001062531,登記記録の閉鎖等,0,2022-10-12,2022-10-03,株式会社エーエヌディー,,株式会社,福岡県,福岡市中央区,舞鶴２丁目７－３,,40,133,8100073,,,2022-10-03,清算の結了等,,,2015-10-05,1,,,,,エーエヌディー,0
2772,9310003003670,登記記録の閉鎖等,0,2022-10-12,2022-10-06,合同会社ＫＯＵ,,合同会社,長崎県,東彼杵郡波佐見町,井石郷２１８５番地,,42,323,8593711,,,2022-10-06,清算の結了等,,,2019-05-31,1,,,,,コウ,0
2775,9320001016384,登記記録の閉鎖等,0,2022-10-12,2022-10-04,ＲＥＧＩＮＡ株式会社,,株式会社,大分県,大分市,城南北１丁目３番２７号,,44,201,8700827,,,2022-10-04,合併による解散等,3320001016150,令和４年１０月１日大分市城南北一丁目３番２７号ＲＥＧＩＮＡ株式会社（3320001016150）に合併し解散,2018-05-21,1,,,,,レジーナ,0
2781,9350002017692,登記記録の閉鎖等,0,2022-10-12,2022-10-05,有限会社井之前工務店,,有限会社,宮崎県,小林市,堤２２７１番地２,,45,205,8860003,,,2022-10-05,清算の結了等,,,2015-10-05,1,,,,,イノマエコウムテン,0
2815,9500001002283,登記記録の閉鎖等,0,2022-10-12,2022-10-07,株式会社ステーションクリエイト愛媛,00007316,株式会社,愛媛県,松山市,南江戸１丁目１４番１号,,38,201,7900062,,,2022-10-07,合併による解散等,5470001002241,令和４年１０月１日香川県高松市浜ノ町８番２４号ＪＲ四国ステーション開発株式会社（5470001002241）に合併し解散,2015-10-05,1,,,,,ステーションクリエイトエヒメ,0
