sequenceNumber,corporateNumber,process,correct,updateDate,changeDate,name,nameImageId,kind,prefectureName,cityName,streetNumber,addressImageId,prefectureCode,cityCode,postCode,addressOutside,addressOutsideImageId,closeDate,closeCause,successorCorporateNumber,changeCause,assignmentDate,latest,enName,enPrefectureName,enCityName,enAddressOutside,furigana,hihyoji
15,1010001248776,新規,0,2024-10-07,2024-10-07,スタッドリンクマネジメント株式会社,,株式会社,東京都,中央区,東日本橋３丁目９番２号ＴｈｅａｔｅｒＷｗｗ４Ｆ,,13,102,1030004,,,,,,,2024-10-07,1,,,,,スタッドリンクマネジメント,0
16,1010001248801,新規,0,2024-10-07,2024-10-07,株式会社南無三,,株式会社,東京都,千代田区,神田和泉町１番地６－１６ヤマトビル４０５,,13,101,1010024,,,,,,,2024-10-07,1,,,,,ナムサン,0
17,1010001248834,新規,0,2024-10-07,2024-10-07,株式会社水気設備,,株式会社,東京都,中央区,月島２丁目２０番１０－２０１号,,13,102,1040052,,,,,,,2024-10-07,1,,,,,スイキセツビ,0
18,1010001248842,新規,0,2024-10-07,2024-10-07,株式会社ａｐｈｏｒｉｓｍ,,株式会社,東京都,中央区,日本橋室町１丁目１１番１２号日本橋水野ビル７階,,13,102,1030022,,,,,,,2024-10-07,1,,,,,アフォリズム,0
19,1010001248875,新規,0,2024-10-07,2024-10-07,株式会社ＢＣＪ‐８７,,株式会社,東京都,千代田区,丸の内１丁目１番１号パレスビル５階,,13,101,1000005,,,,,,,2024-10-07,1,,,,,ビーシージェイエイティーセブン,0
22,1010003045049,新規,0,2024-10-07,2024-10-07,ＡＡＪ　ＪＲＥ　Ｅ　Ｐａｔ２合同会社,,合同会社,東京都,千代田区,永田町２丁目１７番５号,,13,101,1000014,,,,,,,2024-10-07,1,,,,,エーエージェージェーアールイーイーパットツー,0
25,1010005038901,新規,0,2024-10-07,2024-10-07,一般社団法人次世代システム運用コンソーシアム,,その他の設立登記法人,東京都,千代田区,五番町１２番地１,,13,101,1020076,,,,,,,2024-10-07,1,,,,,ジセダイシステムウンヨウコンソーシアム,0
33,1010401185487,新規,0,2024-10-07,2024-10-07,株式会社プレディクトレーシング,,株式会社,東京都,港区,芝浦４丁目７番５号,,13,103,1080023,,,,,,,2024-10-07,1,,,,,プレディクトレーシング,0
34,1010401185578,新規,0,2024-10-07,2024-10-07,アポロ・マネジメント・ジャパン株式会社,,株式会社,東京都,港区,虎ノ門２丁目１０番４号オークラプレステージタワー１７階,,13,103,1050001,,,,,,,2024-10-07,1,,,,,アポロマネジメントジャパン,0
37,1010403033561,新規,0,2024-10-07,2024-10-07,Ａｃｃｅｓｓｉｂｉｌｉｔｙ　Ｊａｐａｎ合同会社,,合同会社,東京都,港区,六本木７丁目１７番２２－４１１号,,13,103,1060032,,,,,,,2024-10-07,1,,,,,アクセシビリティジャパン,0
38,1010405023643,新規,0,2024-10-07,2024-10-07,Ｗｅｓｔ　Ｈｉｌｌ　ＤＣ２特定目的会社,,その他の設立登記法人,東京都,港区,西新橋１丁目２２番５号６階,,13,103,1050003,,,,,,,2024-10-07,1,,,,,ウェストヒルディーシーツー,0
40,1010501053016,新規,0,2024-10-07,2024-10-07,永保交通株式会社,,株式会社,東京都,台東区,東上野６丁目７番８号１階,,13,106,1100015,,,,,,,2024-10-07,1,,,,,エイホコウツウ,0
43,1010601066033,新規,0,2024-10-07,2024-10-07,株式会社カール,,株式会社,東京都,江東区,亀戸６丁目３１番１－１３０１号,,13,108,1360071,,,,,,,2024-10-07,1,,,,,カール,0
46,1010705003683,新規,0,2024-10-07,2024-10-07,一般社団法人ちもん,,その他の設立登記法人,東京都,品川区,中延５丁目１０番１２－４０４号,,13,109,1420053,,,,,,,2024-10-07,1,,,,,チモン,0
48,1010801035449,新規,0,2024-10-07,2024-10-07,株式会社テモト,,株式会社,東京都,大田区,上池台５丁目４番１１号,,13,111,1450064,,,,,,,2024-10-07,1,,,,,テモト,0
54,1011001164963,新規,0,2024-10-07,2024-10-07,Ｅｔｅｒｎａｌｓ株式会社,,株式会社,東京都,渋谷区,道玄坂１丁目１０番８号渋谷道玄坂東急ビル２Ｆ‐Ｃ,,13,113,1500043,,,,,,,2024-10-07,1,,,,,エターナルズ,0
55,1011001164996,新規,0,2024-10-07,2024-10-07,ＤＸコンサルティングジャパン株式会社,,株式会社,東京都,渋谷区,渋谷２丁目１９－１５宮益坂ビルディング６０９,,13,113,1500002,,,,,,,2024-10-07,1,,,,,ディーエックスコンサルティングジャパン,0
56,1011001165045,新規,0,2024-10-07,2024-10-07,株式会社ピープルアンドデザイン,,株式会社,東京都,渋谷区,鶯谷町３番３号,,13,113,1500032,,,,,,,2024-10-07,1,,,,,ピープルアンドデザイン,0
59,1011003020082,新規,0,2024-10-07,2024-10-07,ブラックイエロースタジオ合同会社,,合同会社,東京都,渋谷区,渋谷２丁目１９－１５,,13,113,1500002,,,,,,,2024-10-07,1,,,,,,0
63,1011103015008,新規,0,2024-10-07,2024-10-07,平野寛之Ｐｈｏｅｎｉｘ　Ｊａｐａｎ合同会社,,合同会社,東京都,新宿区,西新宿５丁目５－１－５１０１ザ・パークハウス西新宿タワー６０,,13,104,1600023,,,,,,,2024-10-07,1,,,,,ヒラノヒロユキフェニックスジャパン,0
64,1011105011178,新規,0,2024-10-07,2024-10-07,一般財団法人ベストオブミス,,その他の設立登記法人,東京都,新宿区,新宿６丁目２７番２９号コンフォリア新宿イーストサイドタワー１５１２,,13,104,1600022,,,,,,,2024-10-07,1,,,,,ベストオブミス,0
68,1011601028097,新規,0,2024-10-07,2024-10-07,株式会社飛和,,株式会社,東京都,練馬区,関町南４丁目２５番１８－５０６号,,13,120,1770053,,,,,,,2024-10-07,1,,,,,ヒヨリ,0
79,1012801023482,新規,0,2024-10-07,2024-10-07,ＨＩＹＯＲＩ　ＴＯＯＬＩＮＧ株式会社,,株式会社,東京都,立川市,富士見町１丁目３４番１号,,13,202,1900013,,,,,,,2024-10-07,1,,,,,ヒヨリツーリング,0
82,1013301053169,新規,0,2024-10-07,2024-10-07,日鹿株式会社,,株式会社,東京都,豊島区,池袋２丁目５８番５号,,13,116,1710014,,,,,,,2024-10-07,1,,,,,ニチカ,0
86,1020001159452,新規,0,2024-10-07,2024-10-07,株式会社ハヤシダ大工店,,株式会社,神奈川県,横浜市金沢区,高舟台２丁目２９番７号,,14,108,2360044,,,,,,,2024-10-07,1,,,,,ハヤシダダイクテン,0
87,1020001159502,新規,0,2024-10-07,2024-10-07,株式会社縁,,株式会社,神奈川県,川崎市川崎区,観音１丁目７番１１号１Ｆ,,14,131,2100831,,,,,,,2024-10-07,1,,,,,エン,0
90,1020003026989,新規,0,2024-10-07,2024-10-07,合同会社グランルレーブ,,合同会社,神奈川県,川崎市宮前区,南野川１丁目２０番２７号,,14,136,2160042,,,,,,,2024-10-07,1,,,,,グランルレーブ,0
91,1020003027038,新規,0,2024-10-07,2024-10-07,合同会社ワンブリッジ,,合同会社,神奈川県,川崎市高津区,久本３丁目８番７－３０４号,,14,134,2130011,,,,,,,2024-10-07,1,,,,,ワンブリッジ,0
97,1021001083394,新規,0,2024-10-07,2024-10-07,株式会社ＨＪＫ,,株式会社,神奈川県,相模原市中央区,共和１丁目６番３０号,,14,152,2520234,,,,,,,2024-10-07,1,,,,,エイチジェイケー,0
98,1021001083403,新規,0,2024-10-07,2024-10-07,株式会社ＳＤＳＰ,,株式会社,神奈川県,逗子市,小坪５丁目１１番１１号,,14,208,2490008,,,,,,,2024-10-07,1,,,,,エスディエスピー,0
99,1021001083411,新規,0,2024-10-07,2024-10-07,フォース株式会社,,株式会社,神奈川県,平塚市,須賀２６２７－２０,,14,203,2540022,,,,,,,2024-10-07,1,,,,,フォース,0
104,1021003015065,新規,0,2024-10-07,2024-10-07,合同会社Ｖｉｒｔｕｏｕｓ　Ｃｙｃｌｅ,,合同会社,神奈川県,鎌倉市,長谷２丁目１０－７,,14,204,2480016,,,,,,,2024-10-07,1,,,,,ヴァーチュアスサイクル,0
112,1030005021871,新規,0,2024-10-07,2024-10-07,一般社団法人リアルケイドロ協会,,その他の設立登記法人,埼玉県,さいたま市大宮区,桜木町１丁目１９５番地１号大宮ソラミチＫＯＺ４階,,11,103,3300854,,,,,,,2024-10-07,1,,,,,リアルケイドロキョウカイ,0
118,1040001135699,新規,0,2024-10-07,2024-10-07,株式会社Ｕ‐ＮＥＴ,,株式会社,千葉県,浦安市,富岡３丁目３番Ｅ－７２１号,,12,227,2790021,,,,,,,2024-10-07,1,,,,,ユーネット,0
119,1040001135716,新規,0,2024-10-07,2024-10-07,ＣＯＯＰＥＲＳ株式会社,,株式会社,千葉県,佐倉市,染井野５丁目２０番地１１,,12,212,2850831,,,,,,,2024-10-07,1,,,,,クーパーズ,0
122,1040003025865,新規,0,2024-10-07,2024-10-07,合同会社ＭＫプランニング,,合同会社,千葉県,松戸市,千駄堀１２４５番地,,12,207,2702252,,,,,,,2024-10-07,1,,,,,エムケープランニング,0
123,1040003025923,新規,0,2024-10-07,2024-10-07,合同会社イナフデザインワークス,,合同会社,千葉県,柏市,若柴１７８番地４柏の葉キャンパス１４８街区２ショップ＆オフィス棟６Ｆ,,12,217,2770871,,,,,,,2024-10-07,1,,,,,イナフデザインワークス,0
125,1050001055500,新規,0,2024-10-07,2024-10-07,旬菜工房株式会社,,株式会社,茨城県,鉾田市,当間５５１番地１,,08,234,3111528,,,,,,,2024-10-07,1,,,,,シュンサイコウボウ,0
130,1060005010252,新規,0,2024-10-07,2024-10-07,医療法人つちだ内科クリニック,,その他の設立登記法人,栃木県,宇都宮市,下砥上町６９１番地４,,09,201,3200852,,,,,,,2024-10-07,1,,,,,ツチダナイカクリニック,0
132,1070001042240,新規,0,2024-10-07,2024-10-07,株式会社笹屋備建,,株式会社,群馬県,高崎市,根小屋町６８４番地４７,,10,202,3701214,,,,,,,2024-10-07,1,,,,,ササヤビケン,0
136,1080001026523,新規,0,2024-10-07,2024-10-07,株式会社ダブルスターライン,,株式会社,静岡県,藤枝市,下藪田７１番地の１６,,22,214,4260201,,,,,,,2024-10-07,1,,,,,ダブルスターライン,0
137,1080001026531,新規,0,2024-10-07,2024-10-07,株式会社いなば,,株式会社,静岡県,静岡市清水区,由比北田１１４番地の１,,22,103,4213104,,,,,,,2024-10-07,1,,,,,イナバ,0
138,1080003003289,新規,0,2024-10-07,2024-10-07,白鳥商店合同会社,,合同会社,静岡県,静岡市葵区,駒形通６丁目７番２号,,22,101,4200042,,,,,,,2024-10-07,1,,,,,シラトリショウテン,0
144,1090001018940,新規,0,2024-10-07,2024-10-07,渡辺精工株式会社,,株式会社,山梨県,南巨摩郡身延町,切石１４５番地,,19,365,4093304,,,,,,,2024-10-07,1,,,,,ワタナベセイコウ,0
145,1090003002661,新規,0,2024-10-07,2024-10-07,合同会社ＫｈａＧｒｏ,,合同会社,山梨県,中央市,西花輪３５４４番地１レストタウン立川,,19,214,4093843,,,,,,,2024-10-07,1,,,,,カグロ,0
148,1110001038738,新規,0,2024-10-07,2024-10-07,ＮＴモールド株式会社,,株式会社,新潟県,上越市,五智２丁目１番２８号,,15,222,9420081,,,,,,,2024-10-07,1,,,,,エヌティモールド,0
149,1110001038754,新規,0,2024-10-07,2024-10-07,新架設株式会社,,株式会社,新潟県,新潟市中央区,上所中３丁目１１番３号シャルマン上所Ａ棟２０５号,,15,103,9500993,,,,,,,2024-10-07,1,,,,,アラタカセツ,0
165,1120001269010,新規,0,2024-10-07,2024-10-07,凌雲商貿株式会社,,株式会社,大阪府,大阪市生野区,桃谷３丁目２０番２５号桃谷ハイツ２０２号室,,27,116,5440034,,,,,,,2024-10-07,1,,,,,リョウウンショウボウ,0
166,1120001269027,新規,0,2024-10-07,2024-10-07,株式会社Ｆｌｏｒａ,,株式会社,大阪府,大阪市北区,山崎町５番３２号,,27,127,5300024,,,,,,,2024-10-07,1,,,,,フローラ,0
167,1120001269035,新規,0,2024-10-07,2024-10-07,ＨＳＫホールディングス株式会社,,株式会社,大阪府,大阪市旭区,大宮２丁目２番１５号,,27,117,5350002,,,,,,,2024-10-07,1,,,,,エイチエスケーホールディングス,0
168,1120001269043,新規,0,2024-10-07,2024-10-07,株式会社関西技研,,株式会社,大阪府,寝屋川市,点野３丁目１９番２４号,,27,215,5720077,,,,,,,2024-10-07,1,,,,,カンサイギケン,0
169,1120001269051,新規,0,2024-10-07,2024-10-07,株式会社イーワークス,,株式会社,大阪府,大阪市西区,南堀江３丁目１１番１２号セレッソコート西心斎橋第３－５０３号,,27,106,5500015,,,,,,,2024-10-07,1,,,,,イーワークス,0
170,1120001269084,新規,0,2024-10-07,2024-10-07,株式会社太庵,,株式会社,大阪府,大阪市中央区,瓦屋町１丁目９番２２号,,27,128,5420066,,,,,,,2024-10-07,1,,,,,タイアン,0
171,1120003027671,新規,0,2024-10-07,2024-10-07,合同会社Ｎｅｗ　ｇｌｏｗ,,合同会社,大阪府,大阪市西区,本田３丁目３番２４号６Ｂ,,27,106,5500022,,,,,,,2024-10-07,1,,,,,ニューグロウ,0
172,1120101070383,新規,0,2024-10-07,2024-10-07,株式会社Ｌｉｎｋ,,株式会社,大阪府,松原市,東新町１丁目１１番１号,,27,217,5800024,,,,,,,2024-10-07,1,,,,,リンク,0
176,1120105009915,新規,0,2024-10-07,2024-10-07,一般社団法人日本隠れ優良企業連合会,,その他の設立登記法人,大阪府,堺市中区,八田北町二丁３－１,,27,142,5998262,,,,,,,2024-10-07,1,,,,,ニホンカクレユウリョウキギョウレンゴウカイ,0
177,1120901049841,新規,0,2024-10-07,2024-10-07,株式会社エミネンス,,株式会社,大阪府,摂津市,鳥飼野々１丁目８番１０号,,27,224,5660053,,,,,,,2024-10-07,1,,,,,エミネンス,0
178,1120901049866,新規,0,2024-10-07,2024-10-07,株式会社ＨＡＢＩＲＩＣＯ,,株式会社,大阪府,吹田市,千里山高塚７番９－１００９号,,27,205,5650848,,,,,,,2024-10-07,1,,,,,ハビリカ,0
183,1122001038485,新規,0,2024-10-07,2024-10-07,株式会社ｇｎｏｍｅ,,株式会社,大阪府,東大阪市,池島町３丁目１番８号,,27,227,5798064,,,,,,,2024-10-07,1,,,,,ノーム,0
184,1122001038502,新規,0,2024-10-07,2024-10-07,株式会社渕上建材,,株式会社,大阪府,八尾市,上尾町５丁目２５番地２０６号,,27,212,5810851,,,,,,,2024-10-07,1,,,,,フチガミケンザイ,0
185,1122001038510,新規,0,2024-10-07,2024-10-07,アップス株式会社,,株式会社,大阪府,八尾市,萱振町１丁目３５番地,,27,212,5810834,,,,,,,2024-10-07,1,,,,,アップス,0
188,1130001078055,新規,0,2024-10-07,2024-10-07,ＵＫシステム株式会社,,株式会社,京都府,亀岡市,南つつじケ丘大葉台２丁目３７番９号,,26,206,6210846,,,,,,,2024-10-07,1,,,,,ユーケーシステム,0
189,1130001078088,新規,0,2024-10-07,2024-10-07,株式会社ＦＲｅｅｔｙ,,株式会社,京都府,京都市南区,東九条南河辺町５６－６,,26,107,6018034,,,,,,,2024-10-07,1,,,,,フリーティ,0
194,1130003009909,新規,0,2024-10-07,2024-10-07,合同会社三輪舎,,合同会社,京都府,京都市山科区,御陵鳥ノ向町２７番地１,,26,110,6078408,,,,,,,2024-10-07,1,,,,,サンリンシャ,0
207,1140003021144,新規,0,2024-10-07,2024-10-07,合同会社ジナジーム,,合同会社,兵庫県,神戸市灘区,新在家南町３丁目８番８号,,28,102,6570864,,,,,,,2024-10-07,1,,,,,ジナジーム,0
208,1140003021160,新規,0,2024-10-07,2024-10-07,合同会社アイティーオー,,合同会社,兵庫県,尼崎市,武庫元町１丁目２９番３号,,28,202,6610043,,,,,,,2024-10-07,1,,,,,アイティーオー,0
211,1140005027222,新規,0,2024-10-07,2024-10-07,一般社団法人Ｓｕｍａ豊かな海ネットワーク,,その他の設立登記法人,兵庫県,神戸市須磨区,須磨浦通６丁目８８番地,,28,107,6540055,,,,,,,2024-10-07,1,,,,,,0
215,1160001026259,新規,0,2024-10-07,2024-10-07,株式会社オフィスナオキ,,株式会社,滋賀県,守山市,大門町２１２番地２,,25,207,5240052,,,,,,,2024-10-07,1,,,,,オフィスナオキ,0
216,1160003003306,新規,0,2024-10-07,2024-10-07,合同会社Ｈ＆Ｍ,,合同会社,滋賀県,大津市,坂本３丁目１６番１８号,,25,201,5200113,,,,,,,2024-10-07,1,,,,,エイチアンドエム,0
226,1180001163546,新規,0,2024-10-07,2024-10-07,株式会社アプライドエナジー,,株式会社,愛知県,名古屋市港区,秋葉３丁目３９番地,,23,111,4550857,,,,,,,2024-10-07,1,,,,,アプライドエナジー,0
227,1180001163570,新規,0,2024-10-07,2024-10-07,ティーケーテクノ株式会社,,株式会社,愛知県,弥富市,楠３丁目１３番地２,,23,235,4980066,,,,,,,2024-10-07,1,,,,,ティーケーテクノ,0
228,1180001163595,新規,0,2024-10-07,2024-10-07,株式会社Ｈ＆Ｍ,,株式会社,愛知県,一宮市,羽衣１丁目４番１０号,,23,203,4910025,,,,,,,2024-10-07,1,,,,,エイチアンドエム,0
229,1180001163604,新規,0,2024-10-07,2024-10-07,はなやオートモーティブ株式会社,,株式会社,愛知県,名古屋市中村区,牛田通３丁目６番地,,23,105,4530853,,,,,,,2024-10-07,1,,,,,ハナヤオートモーティブ,0
230,1180001163612,新規,0,2024-10-07,2024-10-07,株式会社ＴＭＣ,,株式会社,愛知県,名古屋市港区,小賀須２丁目２１０１番地,,23,111,4550882,,,,,,,2024-10-07,1,,,,,ティーエムシー,0
231,1180001163620,新規,0,2024-10-07,2024-10-07,株式会社ｉｎｄｙ,,株式会社,愛知県,名古屋市中村区,名駅３丁目４番１０号アルティメイト名駅１ｓｔ２階,,23,105,4500002,,,,,,,2024-10-07,1,,,,,インディ,0
234,1180005020801,新規,0,2024-10-07,2024-10-07,税理士法人ブレインパートナー,,その他の設立登記法人,愛知県,名古屋市中村区,名駅３丁目２５番９号,,23,105,4500002,,,,,,,2024-10-07,1,,,,,ブレインパートナー,0
237,1180301039124,新規,0,2024-10-07,2024-10-07,株式会社ＡＴ,,株式会社,愛知県,安城市,南町５番２号,,23,212,4460034,,,,,,,2024-10-07,1,,,,,エーティー,0
239,1190005011989,新規,0,2024-10-07,2024-10-07,医療法人徳新会,,その他の設立登記法人,三重県,四日市市,久保田２丁目１番２号,,24,202,5100821,,,,,,,2024-10-07,1,,,,,トクシンカイ,0
246,1220001026236,新規,0,2024-10-07,2024-10-07,株式会社菓匠三和,,株式会社,石川県,加賀市,松山町ホ１９番地,,17,206,9220316,,,,,,,2024-10-07,1,,,,,カショウサンワ,0
249,1230001020551,新規,0,2024-10-07,2024-10-07,株式会社紅とらフーズ,,株式会社,富山県,砺波市,太田６５番地１,,16,208,9391315,,,,,,,2024-10-07,1,,,,,ベニトラフーズ,0
260,1270003001678,新規,0,2024-10-07,2024-10-07,合同会社鳥蔵,,合同会社,鳥取県,鳥取市,吉岡温泉町８９６－１４,,31,201,6801442,,,,,,,2024-10-07,1,,,,,,0
269,1290001107450,新規,0,2024-10-07,2024-10-07,株式会社ＭＯＡＴ,,株式会社,福岡県,福岡市博多区,空港前３丁目６番３３号,,40,132,8120002,,,,,,,2024-10-07,1,,,,,モート,0
270,1290001107475,新規,0,2024-10-07,2024-10-07,株式会社ハーバーベース,,株式会社,福岡県,福岡市東区,多の津１丁目１番４号,,40,131,8130034,,,,,,,2024-10-07,1,,,,,ハーバーベース,0
271,1290001107500,新規,0,2024-10-07,2024-10-07,株式会社吉次,,株式会社,福岡県,福岡市博多区,板付７丁目９番２５号,,40,132,8120888,,,,,,,2024-10-07,1,,,,,ヨシツグ,0
272,1290001107517,新規,0,2024-10-07,2024-10-07,株式会社ＢＯＸＯＦＦ,,株式会社,福岡県,福岡市中央区,赤坂２丁目１番５１－４０６号,,40,133,8100042,,,,,,,2024-10-07,1,,,,,ボックスオフ,0
276,1290003015874,新規,0,2024-10-07,2024-10-07,ＰＩＫＡＷＯＲＫ合同会社,,合同会社,福岡県,福岡市博多区,祇園町８番１２－１１２０号,,40,132,8120038,,,,,,,2024-10-07,1,,,,,ピカワーク,0
281,1290805009776,新規,0,2024-10-07,2024-10-07,一般社団法人シンシニア研究所,,その他の設立登記法人,福岡県,北九州市八幡東区,東田２丁目５番７号,,40,108,8050071,,,,,,,2024-10-07,1,,,,,シンシニアケンキュウショ,0
282,1310001019255,新規,0,2024-10-07,2024-10-07,株式会社松添設備工事,,株式会社,長崎県,長崎市,女の都１丁目１４１５番地,,42,201,8528144,,,,,,,2024-10-07,1,,,,,マツゾエセツビコウジ,0
285,1310003004874,新規,0,2024-10-07,2024-10-07,合同会社ＵＢラボラトリ,,合同会社,長崎県,西彼杵郡時津町,日並郷２１２４番地１１７,,42,308,8512108,,,,,,,2024-10-07,1,,,,,,0
288,1340001026835,新規,0,2024-10-07,2024-10-07,株式会社ＫＡＰファクトリー,,株式会社,鹿児島県,薩摩川内市,東向田町８番２２号,,46,215,8950026,,,,,,,2024-10-07,1,,,,,ケーエーピーファクトリー,0
289,1340001026843,新規,0,2024-10-07,2024-10-07,株式会社Ｒ＆ｒ,,株式会社,鹿児島県,鹿児島市,田上６丁目１８番１５－５号,,46,201,8900034,,,,,,,2024-10-07,1,,,,,アールアンドアール,0
293,1350001019210,新規,0,2024-10-07,2024-10-07,株式会社九州ケアライン伊形,,株式会社,宮崎県,延岡市,下伊形町５９７２番地１,,45,203,8890504,,,,,,,2024-10-07,1,,,,,キュウシュウケアラインイガタ,0
297,1360001034225,新規,0,2024-10-07,2024-10-07,株式会社ワイビーネクスト,,株式会社,沖縄県,うるま市,字石川３４０７番地,,47,213,9042200,,,,,,,2024-10-07,1,,,,,ワイビーネクスト,0
298,1360001034233,新規,0,2024-10-07,2024-10-07,株式会社ｅｎｇｉｎｅｐｏｔ琉球,,株式会社,沖縄県,那覇市,久茂地２丁目２－２タイムスビル２Ｆ,,47,201,9000015,,,,,,,2024-10-07,1,,,,,エンジンポットリュウキュウ,0
304,1370001051789,新規,0,2024-10-07,2024-10-07,株式会社ＤｕｏＰｕｆｆ,,株式会社,宮城県,多賀城市,八幡２丁目１４番１２－２号,,04,209,9850874,,,,,,,2024-10-07,1,,,,,デュオパフ,0
313,1400003003330,新規,0,2024-10-07,2024-10-07,合同会社デトゥール,,合同会社,岩手県,釜石市,上中島町４丁目３番４号,,03,211,0260041,,,,,,,2024-10-07,1,,,,,デトゥール,0
316,1430001092785,新規,0,2024-10-07,2024-10-07,株式会社コレネクト,,株式会社,北海道,札幌市北区,新琴似三条５丁目４番１号レジデンス祥１０１号室,,01,102,0010903,,,,,,,2024-10-07,1,,,,,コレネクト,0
317,1430001092793,新規,0,2024-10-07,2024-10-07,Ｎｉｓｅｋｏ　Ｃｕｓｔｏｍ　Ｈｏｍｅｓ株式会社,,株式会社,北海道,虻田郡ニセコ町,字ニセコ４４６番地３３,,01,395,0481511,,,,,,,2024-10-07,1,,,,,ニセコカスタムホームズ,0
318,1430001092802,新規,0,2024-10-07,2024-10-07,株式会社ＢｉＢｉ　Ｊｏｕｒｎｅｙ,,株式会社,北海道,札幌市白石区,本通１２丁目北１番１５号,,01,104,0030027,,,,,,,2024-10-07,1,,,,,ビビジャーニー,0
322,1430003016858,新規,0,2024-10-07,2024-10-07,合同会社ｊ‐ＯＮＥ,,合同会社,北海道,札幌市西区,西町南１９丁目１番１８号メゾンドゥリバーニューテナント２Ｆ,,01,107,0630062,,,,,,,2024-10-07,1,,,,,ジェイワン,0
327,1450001014424,新規,0,2024-10-07,2024-10-07,Ｔａホールディングス株式会社,,株式会社,北海道,旭川市,東旭川町旭正３６２番地,,01,204,0788368,,,,,,,2024-10-07,1,,,,,ティーエイホールディングス,0
332,1480005007041,新規,0,2024-10-07,2024-10-07,特定非営利活動法人Ｍｉｒｏｎ,,その他の設立登記法人,徳島県,阿南市,横見町願能地東３７番地４,,36,204,7740042,,,,,,,2024-10-07,1,,,,,ミロン,0
333,1490001010881,新規,0,2024-10-07,2024-10-07,株式会社ＳＨＩＲＡＫＩ,,株式会社,高知県,土佐市,宮ノ内４３５番地,,39,205,7811124,,,,,,,2024-10-07,1,,,,,シラキ,0
338,1500003003345,新規,0,2024-10-07,2024-10-07,合同会社アサクル,,合同会社,愛媛県,今治市,東門町６丁目２番２７号エル・ミオーレ東門３０１,,38,202,7940033,,,,,,,2024-10-07,1,,,,,アサクル,0
341,1700150127430,新規,0,2024-10-07,2024-10-07,ＴＳＵＪＩ　ＫＥＮＫＩ　ＬＡＮＫＡ,,外国会社等,福島県,岩瀬郡鏡石町,不時沼２１５番地,,07,342,9690401,スリランカ民主社会主義共和国ドゥッマラスリヤパルガムワ,,,,,,2024-10-07,1,,,,,ツジケンキランカ,0
347,2010001248841,新規,0,2024-10-07,2024-10-07,株式会社Ｌｉｖｒｅ,,株式会社,東京都,千代田区,飯田橋２丁目１１番１０号,,13,101,1020072,,,,,,,2024-10-07,1,,,,,リーブル,0
348,2010003045048,新規,0,2024-10-07,2024-10-07,ＡＡＪ　ＪＲＥ　Ｅ　Ｐａｔ１合同会社,,合同会社,東京都,千代田区,永田町２丁目１７番５号,,13,101,1000014,,,,,,,2024-10-07,1,,,,,エーエージェージェーアールイーイーパットワン,0
349,2010003045097,新規,0,2024-10-07,2024-10-07,Ｔｈｉｎｋｅｒｕｓ合同会社,,合同会社,東京都,千代田区,神田佐久間町２丁目１８番地１秋葉原ＳＴＮフロント１０階,,13,101,1010025,,,,,,,2024-10-07,1,,,,,シンケルス,0
351,2010005038900,新規,0,2024-10-07,2024-10-07,一般社団法人東京インターナショナルペンショー実行委員会,,その他の設立登記法人,東京都,千代田区,神田猿楽町１丁目２番３号錦華堂ビル,,13,101,1010064,,,,,,,2024-10-07,1,,,,,トウキョウインターナショナルペンショージッコウイインカイ,0
352,2010005038917,新規,0,2024-10-07,2024-10-07,南船場デベロップメント特定目的会社,,その他の設立登記法人,東京都,中央区,日本橋１丁目４番１号日本橋一丁目ビルディング,,13,102,1030027,,,,,,,2024-10-07,1,,,,,ミナミセンバデベロップメント,0
356,2010401185486,新規,0,2024-10-07,2024-10-07,株式会社ＦＬＡＧ　ＦＯＯＤ,,株式会社,東京都,港区,六本木３丁目８番８号,,13,103,1060032,,,,,,,2024-10-07,1,,,,,フラッグフード,0
357,2010401185569,新規,0,2024-10-07,2024-10-07,ＦＯＵＲ　ＳＥＡＳＯＮＳ　ＰＲＩＶＡＴＥ　ＩＮＶＥＳＴＭＥＮＴＳ　ＰＴＥ株式会社,,株式会社,東京都,港区,赤坂２丁目１３番８号赤坂ロイヤルプラザ１０１号,,13,103,1070052,,,,,,,2024-10-07,1,,,,,ホーシーズンズプライベートインベストメンツピティイ,0
358,2010401185577,新規,0,2024-10-07,2024-10-07,ＨＡＮＡ　ＨＯＳＰＩＴＡＬＩＴＹ株式会社,,株式会社,東京都,港区,赤坂４丁目１番２９号,,13,103,1070052,,,,,,,2024-10-07,1,,,,,ハナホスピタリティ,0
365,2010501052999,新規,0,2024-10-07,2024-10-07,Ｈａｎｄｍａｄｅ　ＢＯＸ株式会社,,株式会社,東京都,台東区,浅草１丁目３０番３号,,13,106,1110032,,,,,,,2024-10-07,1,,,,,ハンドメイドボックス,0
370,2010601066032,新規,0,2024-10-07,2024-10-07,ＳＭＩＬＥ建設株式会社,,株式会社,東京都,墨田区,緑４丁目２８番６号,,13,107,1300021,,,,,,,2024-10-07,1,,,,,スマイルケンセツ,0
374,2010801035431,新規,0,2024-10-07,2024-10-07,株式会社村重製作所,,株式会社,東京都,大田区,東糀谷２丁目２番５号,,13,111,1440033,,,,,,,2024-10-07,1,,,,,ムラシゲセイサクジョ,0
375,2010801035448,新規,0,2024-10-07,2024-10-07,株式会社グロウアップ,,株式会社,東京都,大田区,仲六郷２丁目３１番９号村井ビル１階,,13,111,1440055,,,,,,,2024-10-07,1,,,,,グロウアップ,0
377,2010901056063,新規,0,2024-10-07,2024-10-07,Ｔ．Ｄ．Ｃ‐Ｌｉｎｋ株式会社,,株式会社,東京都,世田谷区,上祖師谷６丁目１４番２２号ブランテラサ１０２,,13,112,1570065,,,,,,,2024-10-07,1,,,,,ティーディーシーリンク,0
378,2010903009390,新規,0,2024-10-07,2024-10-07,ＡＹＵ　ＲＥＣＯＲＤＳ　Ｐｕｂｌｉｓｈｉｎｇ合同会社,,合同会社,東京都,世田谷区,世田谷１丁目３０－１１キャッスルパレス世田谷上町４０１,,13,112,1540017,,,,,,,2024-10-07,1,,,,,アユレコーズパブリッシング,0
382,2011001164987,新規,0,2024-10-07,2024-10-07,Ｈｏｎｅｓｔ株式会社,,株式会社,東京都,目黒区,目黒本町３丁目５－９リブレ１Ｆ,,13,110,1520002,,,,,,,2024-10-07,1,,,,,ハネスト,0
383,2011001165011,新規,0,2024-10-07,2024-10-07,株式会社ＴＡＫＥ,,株式会社,東京都,目黒区,大岡山１丁目２０－７,,13,110,1520033,,,,,,,2024-10-07,1,,,,,テイク,0
384,2011001165060,新規,0,2024-10-07,2024-10-07,株式会社Ｒｏｏｍ４０３,,株式会社,東京都,目黒区,中目黒３丁目３番６号ラフィーヌ中目黒４０３号室,,13,110,1530061,,,,,,,2024-10-07,1,,,,,ルームヨンマルサン,0
389,2011101108976,新規,0,2024-10-07,2024-10-07,大Ｋ株式会社,,株式会社,東京都,新宿区,百人町１丁目１８番８号大久保カドビルＬｉｎｋＳｐａｃｅ百人町Ｃ０９,,13,104,1690073,,,,,,,2024-10-07,1,,,,,ダイケイ,0
390,2011201025840,新規,0,2024-10-07,2024-10-07,三宝レストラン株式会社,,株式会社,東京都,中野区,中野３丁目４６番１３号,,13,114,1640001,,,,,,,2024-10-07,1,,,,,サンポウレストラン,0
391,2011203004495,新規,0,2024-10-07,2024-10-07,彩華合同会社,,合同会社,東京都,中野区,中野２丁目２８－１プロスペア中野Ｂ１－１０３,,13,114,1640001,,,,,,,2024-10-07,1,,,,,サイカ,0
405,2013301053168,新規,0,2024-10-07,2024-10-07,遠江株式会社,,株式会社,東京都,豊島区,巣鴨４丁目２６番３号,,13,116,1700002,,,,,,,2024-10-07,1,,,,,ジアン,0
413,2020001159294,新規,0,2024-10-07,2024-10-07,株式会社ヴァーテックス,,株式会社,神奈川県,横浜市南区,大岡３丁目１７番１４号,,14,105,2320061,,,,,,,2024-10-07,1,,,,,ヴァーテックス,0
414,2020001159393,新規,0,2024-10-07,2024-10-07,株式会社ｍｏｆｕｒｉｕｍ,,株式会社,神奈川県,川崎市多摩区,生田１丁目３番２５－３号,,14,135,2140038,,,,,,,2024-10-07,1,,,,,モフリウム,0
415,2020001159427,新規,0,2024-10-07,2024-10-07,株式会社咲くら工建,,株式会社,神奈川県,川崎市麻生区,上麻生４丁目５６番７－６０１号,,14,137,2150021,,,,,,,2024-10-07,1,,,,,サクラコウケン,0
416,2020001159435,新規,0,2024-10-07,2024-10-07,ＦＤＫ運送株式会社,,株式会社,神奈川県,横浜市緑区,小山町６５４番地３－１０１,,14,113,2260023,,,,,,,2024-10-07,1,,,,,エフディケーウンソウ,0
417,2020001159451,新規,0,2024-10-07,2024-10-07,株式会社ＭＴＨＬＴ,,株式会社,神奈川県,横浜市西区,みなとみらい２丁目２－１横浜ランドマークタワー１階,,14,103,2200012,,,,,,,2024-10-07,1,,,,,エムティーエイチエルティー,0
418,2020001159591,新規,0,2024-10-07,2024-10-07,株式会社ＲＵＮ＆ＨＩＫＥ,,株式会社,神奈川県,横浜市港北区,大倉山４丁目３４番地３－６０４,,14,109,2220037,,,,,,,2024-10-07,1,,,,,ランアンドハイク,0
420,2020003026963,新規,0,2024-10-07,2024-10-07,ＡＳＥＴＳジャパン合同会社,,合同会社,神奈川県,川崎市川崎区,中瀬３丁目２０番１８－６０８号,,14,131,2100818,,,,,,,2024-10-07,1,,,,,エイセッツジャパン,0
422,2021001083410,新規,0,2024-10-07,2024-10-07,株式会社ＡＳＫ,,株式会社,神奈川県,秦野市,落合２９５番地の１６,,14,211,2570025,,,,,,,2024-10-07,1,,,,,エーエスケイ,0
423,2021001083427,新規,0,2024-10-07,2024-10-07,株式会社齋藤創世,,株式会社,神奈川県,逗子市,桜山３丁目４－４７,,14,208,2490005,,,,,,,2024-10-07,1,,,,,サイトウソウセイ,0
434,2030003025262,新規,0,2024-10-07,2024-10-07,ＳＤＲ合同会社,,合同会社,埼玉県,さいたま市中央区,上落合７丁目７番３－８０５号,,11,105,3380001,,,,,,,2024-10-07,1,,,,,エスディーアール,0
440,2040001135665,新規,0,2024-10-07,2024-10-07,株式会社Ｙｅｌｌｏｗ　Ｂｉｒｄ,,株式会社,千葉県,船橋市,前原東２丁目１４番２号ウェルズ２１－Ｅ,,12,204,2740824,,,,,,,2024-10-07,1,,,,,イエローバード,0
441,2040001135698,新規,0,2024-10-07,2024-10-07,株式会社樹ごころ,,株式会社,千葉県,市川市,宮久保６丁目２番７号ＭＩＹＡテラス３号,,12,203,2720822,,,,,,,2024-10-07,1,,,,,キゴコロ,0
442,2040003025914,新規,0,2024-10-07,2024-10-07,合同会社セントリミック,,合同会社,千葉県,八千代市,大和田２７４番地１３４,,12,221,2760045,,,,,,,2024-10-07,1,,,,,セントリミック,0
447,2050001055499,新規,0,2024-10-07,2024-10-07,株式会社あ印ホールディングス,,株式会社,茨城県,ひたちなか市,沢メキ１１１０番地の９,,08,221,3111211,,,,,,,2024-10-07,1,,,,,アジルシホールディングス,0
454,2060005010251,新規,0,2024-10-07,2024-10-07,医療法人ＫＤＣ,,その他の設立登記法人,栃木県,日光市,今市５７番地,,09,206,3211261,,,,,,,2024-10-07,1,,,,,ケイディーシー,0
462,2070001042223,新規,0,2024-10-07,2024-10-07,株式会社タキワ企画,,株式会社,群馬県,前橋市,粕川町込皆戸１３番地２,,10,201,3710216,,,,,,,2024-10-07,1,,,,,タキワキカク,0
488,2120001268952,新規,0,2024-10-07,2024-10-07,アウローラ株式会社,,株式会社,大阪府,大阪市北区,西天満３丁目５－１０－５０５号室,,27,127,5300047,,,,,,,2024-10-07,1,,,,,アウローラ,0
489,2120001268977,新規,0,2024-10-07,2024-10-07,株式会社リドレイ,,株式会社,大阪府,大阪市中央区,南船場３丁目２番２２号おおきに南船場ビル２０５,,27,128,5420081,,,,,,,2024-10-07,1,,,,,リドレイ,0
490,2120001269001,新規,0,2024-10-07,2024-10-07,株式会社Ｓｙｍｂｏｌ　Ｃｏ．,,株式会社,大阪府,大阪市都島区,毛馬町２丁目３番９－１２０４号,,27,102,5340001,,,,,,,2024-10-07,1,,,,,シンボルカンパニー,0
492,2120005024567,新規,0,2024-10-07,2024-10-07,一般社団法人ウィズ,,その他の設立登記法人,大阪府,大阪市北区,西天満４丁目１１番８号,,27,127,5300047,,,,,,,2024-10-07,1,,,,,ウィズ,0
505,2130001078046,新規,0,2024-10-07,2024-10-07,株式会社Ｂｌｕｅ　ｏｃｅａｎ,,株式会社,京都府,与謝郡伊根町,字平田５６番地,,26,463,6260423,,,,,,,2024-10-07,1,,,,,ブルーオーシャン,0
506,2130001078095,新規,0,2024-10-07,2024-10-07,カリ株式会社,,株式会社,京都府,京都市伏見区,深草下川原町３７番３９,,26,109,6128401,,,,,,,2024-10-07,1,,,,,カリ,0
511,2150003003388,新規,0,2024-10-07,2024-10-07,合同会社アンク,,合同会社,奈良県,奈良市,大森町２４番地１メゾンアンテルナ奈良５０６,,29,201,6308131,,,,,,,2024-10-07,1,,,,,アンク,0
520,2180001163512,新規,0,2024-10-07,2024-10-07,株式会社ｙｅｗ,,株式会社,愛知県,名古屋市中区,栄３丁目３２番３３号,,23,106,4600008,,,,,,,2024-10-07,1,,,,,ユー,0
521,2180001163561,新規,0,2024-10-07,2024-10-07,三喜建設株式会社,,株式会社,愛知県,名古屋市名東区,香南２丁目３０１番地エスポワール香南４０２,,23,115,4650004,,,,,,,2024-10-07,1,,,,,サンキケンセツ,0
522,2180001163611,新規,0,2024-10-07,2024-10-07,株式会社ＧＰコンサルティング,,株式会社,愛知県,名古屋市瑞穂区,汐路町５丁目７番地,,23,108,4670003,,,,,,,2024-10-07,1,,,,,ジーピーコンサルティング,0
523,2180003027434,新規,0,2024-10-07,2024-10-07,合同会社二光,,合同会社,愛知県,清須市,西枇杷島町小野田５０番地６,,23,233,4520041,,,,,,,2024-10-07,1,,,,,ニコウ,0
524,2180003027467,新規,0,2024-10-07,2024-10-07,Ｓ＆Ｎ合同会社,,合同会社,愛知県,名古屋市中村区,名駅４丁目２番７号丸森パークビル３０４号,,23,105,4500002,,,,,,,2024-10-07,1,,,,,エスアンドエヌ,0
525,2180005020800,新規,0,2024-10-07,2024-10-07,一般社団法人ライフシフトドリーム研究協会,,その他の設立登記法人,愛知県,名古屋市中村区,名駅４丁目２４番５号第２森ビル４０１,,23,105,4500002,,,,,,,2024-10-07,1,,,,,ライフシフトドリームケンキュウキョウカイ,0
526,2180301039107,新規,0,2024-10-07,2024-10-07,株式会社エム・ジー・ケイホールディングス,,株式会社,愛知県,豊橋市,小島町字西縄口２０１番地３,,23,201,4413122,,,,,,,2024-10-07,1,,,,,エムジーケイホールディングス,0
527,2180303006303,新規,0,2024-10-07,2024-10-07,合同会社ワンエイト,,合同会社,愛知県,豊橋市,川崎町４５番地３,,23,201,4400094,,,,,,,2024-10-07,1,,,,,ワンエイト,0
536,2190001031692,新規,0,2024-10-07,2024-10-07,株式会社フォレスト,,株式会社,三重県,四日市市,小林町３０１６‐７９,,24,202,5100946,,,,,,,2024-10-07,1,,,,,フォレスト,0
539,2190003004820,新規,0,2024-10-07,2024-10-07,合同会社りとみと,,合同会社,三重県,松阪市,駅部田町１１番地５,,24,204,5150045,,,,,,,2024-10-07,1,,,,,リトミト,0
542,2210001019933,新規,0,2024-10-07,2024-10-07,株式会社ＲＯＲＯ,,株式会社,福井県,鯖江市,西山町７番１８号,,18,207,9160023,,,,,,,2024-10-07,1,,,,,ロロ,0
543,2220001026251,新規,0,2024-10-07,2024-10-07,株式会社高沢工業,,株式会社,石川県,白山市,村井町８５６番地５,,17,210,9240032,,,,,,,2024-10-07,1,,,,,タカザワコウギョウ,0
550,2250003003568,新規,0,2024-10-07,2024-10-07,合同会社シックスティーズ,,合同会社,山口県,長門市,三隅中１１９５番地,,35,211,7593802,,,,,,,2024-10-07,1,,,,,シックスティーズ,0
557,2260003004912,新規,0,2024-10-07,2024-10-07,合同会社ラフマンズ,,合同会社,岡山県,倉敷市,中島２３７０‐１３５,,33,202,7100803,,,,,,,2024-10-07,1,,,,,ラフマンズ,0
558,2270003001677,新規,0,2024-10-07,2024-10-07,合同会社ユア・サポート,,合同会社,鳥取県,米子市,陰田町１１４４番地,,31,202,6830027,,,,,,,2024-10-07,1,,,,,ユアサポート,0
563,2290001107425,新規,0,2024-10-07,2024-10-07,Ｍテックエンジニアリング株式会社,,株式会社,福岡県,福岡市博多区,博多駅前１丁目２３番２号ＰａｒｋＦｒｏｎｔ博多駅前一丁目５Ｆ－Ｂ,,40,132,8120011,,,,,,,2024-10-07,1,,,,,エムテックエンジニアリング,0
564,2290001107474,新規,0,2024-10-07,2024-10-07,株式会社ハーバーウエスト,,株式会社,福岡県,福岡市東区,多の津１丁目１番４号,,40,131,8130034,,,,,,,2024-10-07,1,,,,,ハーバーウエスト,0
565,2290001107516,新規,0,2024-10-07,2024-10-07,リア＆イート株式会社,,株式会社,福岡県,福岡市早良区,荒江３丁目１１番１５号,,40,137,8140021,,,,,,,2024-10-07,1,,,,,リアアンドイート,0
566,2290001107524,新規,0,2024-10-07,2024-10-07,株式会社１１０４,,株式会社,福岡県,糟屋郡宇美町,宇美中央４丁目１５番１０号,,40,341,8112128,,,,,,,2024-10-07,1,,,,,イチイチゼロヨン,0
567,2290001107557,新規,0,2024-10-07,2024-10-07,フェニックス株式会社,,株式会社,福岡県,福岡市博多区,東光２丁目８番２６－２０１号プチ・ネージュ,,40,132,8120008,,,,,,,2024-10-07,1,,,,,フェニックス,0
576,2320001020748,新規,0,2024-10-07,2024-10-07,株式会社Ｊ７ｆｏｒｃｅ,,株式会社,大分県,大分市,高江南３丁目３７番地の２,,44,201,8701118,,,,,,,2024-10-07,1,,,,,ジェイセブンフォース,0
580,2340003004623,新規,0,2024-10-07,2024-10-07,合同会社ＬＩＮＯ　ＳＰＡＣＥ,,合同会社,鹿児島県,霧島市,隼人町住吉１１６２－２０,,46,218,8995101,,,,,,,2024-10-07,1,,,,,リノスペース,0
583,2350003004754,新規,0,2024-10-07,2024-10-07,合同会社Ｂ‐スピード,,合同会社,宮崎県,都城市,太郎坊町７７４８番地１,,45,202,8850002,,,,,,,2024-10-07,1,,,,,ビースピード,0
584,2350005006261,新規,0,2024-10-07,2024-10-07,社会保険労務士法人城ケ崎,,その他の設立登記法人,宮崎県,宮崎市,城ケ崎３丁目１５番地２－１０１号,,45,201,8800917,,,,,,,2024-10-07,1,,,,,ジョウガサキ,0
605,2430001092792,新規,0,2024-10-07,2024-10-07,株式会社北海道ネクサス,,株式会社,北海道,札幌市中央区,南三条西４丁目１８番地,,01,101,0600063,,,,,,,2024-10-07,1,,,,,ホッカイドウネクサス,0
606,2430001092826,新規,0,2024-10-07,2024-10-07,株式会社エリート,,株式会社,北海道,札幌市中央区,南七条西９丁目１０２４番地８レジーナ５０５号,,01,101,0640807,,,,,,,2024-10-07,1,,,,,エリート,0
611,2460103001657,新規,0,2024-10-07,2024-10-07,合同会社狐福堂,,合同会社,北海道,足寄郡足寄町,南七条３丁目５８番地１,,01,647,0893717,,,,,,,2024-10-07,1,,,,,コフクドウ,0
612,2480001012614,新規,0,2024-10-07,2024-10-07,株式会社秘密基地不動産,,株式会社,徳島県,徳島市,北田宮２丁目６番８－１０７号,,36,201,7700003,,,,,,,2024-10-07,1,,,,,ヒミツキチフドウサン,0
614,2490001010880,新規,0,2024-10-07,2024-10-07,株式会社轟屋,,株式会社,高知県,高知市,みづき３丁目９１５番地１,,39,201,7800976,,,,,,,2024-10-07,1,,,,,トドロキヤ,0
624,3010001248725,新規,0,2024-10-07,2024-10-07,株式会社ＮＴＴｓ,,株式会社,東京都,中央区,銀座１丁目１５番４号銀座一丁目ビル７階,,13,102,1040061,,,,,,,2024-10-07,1,,,,,エヌティティース,0
625,3010001248824,新規,0,2024-10-07,2024-10-07,Ｌｕｘｕｒｙ株式会社,,株式会社,東京都,中央区,銀座７丁目１３番２０号銀座ＴＨビル９階,,13,102,1040061,,,,,,,2024-10-07,1,,,,,ラグジュアリー,0
626,3010001248840,新規,0,2024-10-07,2024-10-07,セーフティーライン株式会社,,株式会社,東京都,中央区,日本橋兜町１７番２号兜町第６葉山ビル４階,,13,102,1030026,,,,,,,2024-10-07,1,,,,,セーフティーライン,0
628,3010003045071,新規,0,2024-10-07,2024-10-07,セントアンジュ合同会社,,合同会社,東京都,中央区,銀座１丁目２２－１１銀座大竹ビジデンス２Ｆ,,13,102,1040061,,,,,,,2024-10-07,1,,,,,セントアンジュ,0
629,3010003045096,新規,0,2024-10-07,2024-10-07,ジーアイエナジーストレージ４号合同会社,,合同会社,東京都,千代田区,丸の内１丁目４番１号東京共同会計事務所内,,13,101,1000005,,,,,,,2024-10-07,1,,,,,ジーアイエナジーストレージヨンゴウ,0
635,3010401185568,新規,0,2024-10-07,2024-10-07,ＬＩＮＳＩＮＧＥＲ　ＪＡＰＡＮ株式会社,,株式会社,東京都,港区,六本木６丁目１０番１号,,13,103,1060032,,,,,,,2024-10-07,1,,,,,リンシンガージャパン,0
637,3010501052998,新規,0,2024-10-07,2024-10-07,株式会社ＥＮｅｘＲｅｓｅａｒｃｈ,,株式会社,東京都,台東区,日本堤２丁目３５番７－１２０２号メインステージ三ノ輪ＩＩＩ,00136541,13,106,1110021,,,,,,,2024-10-07,1,,,,,エネクスリサーチ,0
641,3010801035439,新規,0,2024-10-07,2024-10-07,株式会社オルトル,,株式会社,東京都,大田区,東雪谷４丁目２番１８号,,13,111,1450065,,,,,,,2024-10-07,1,,,,,オルトル,0
658,3011101108959,新規,0,2024-10-07,2024-10-07,ビジョン総研株式会社,,株式会社,東京都,新宿区,北新宿３丁目２４－１石綿荘２０８号室,,13,104,1690074,,,,,,,2024-10-07,1,,,,,ビジョンソウケン,0
660,3011103015014,新規,0,2024-10-07,2024-10-07,ＭＹＷ合同会社,,合同会社,東京都,新宿区,西新宿３丁目３番１３号西新宿水間ビル２Ｆ,,13,104,1600023,,,,,,,2024-10-07,1,,,,,エムワイダブリュー,0
662,3011301030038,新規,0,2024-10-07,2024-10-07,株式会社ステイラックカンパニー,,株式会社,東京都,杉並区,上井草１丁目２８番６号,,13,115,1670023,,,,,,,2024-10-07,1,,,,,ステイラックカンパニー,0
663,3011401026480,新規,0,2024-10-07,2024-10-07,株式会社ＭＩ水工,,株式会社,東京都,板橋区,蓮根２丁目３０番１６－２０７号,,13,119,1740046,,,,,,,2024-10-07,1,,,,,エムアイスイコウ,0
664,3011401026489,新規,0,2024-10-07,2024-10-07,株式会社Ｓ＆Ｓニケコーポレーション,,株式会社,東京都,板橋区,常盤台２丁目１６番１３号,,13,119,1740071,,,,,,,2024-10-07,1,,,,,エスアンドエスニケコーポレーション,0
667,3011503006208,新規,0,2024-10-07,2024-10-07,合同会社ｔａｍｅｉｋｅ,,合同会社,東京都,荒川区,西日暮里６丁目４番２－４０６号スプランディッド西日暮里,,13,118,1160013,,,,,,,2024-10-07,1,,,,,タメイケ,0
668,3011601028087,新規,0,2024-10-07,2024-10-07,啓源商事株式会社,,株式会社,東京都,練馬区,錦１丁目２５－２５,,13,120,1790082,,,,,,,2024-10-07,1,,,,,ケイゲンショウジ,0
671,3012401042344,新規,0,2024-10-07,2024-10-07,株式会社Ｏｎｅｂｉｔｉｏｕｓ,,株式会社,東京都,武蔵野市,吉祥寺南町２丁目６番１１号尾崎ビル４Ｆ,,13,203,1800003,,,,,,,2024-10-07,1,,,,,ワンビシャス,0
680,3013301053175,新規,0,2024-10-07,2024-10-07,ＤＸＴＩＣＳ株式会社,,株式会社,東京都,豊島区,東池袋４丁目２９番１２－３０２号,,13,116,1700013,,,,,,,2024-10-07,1,,,,,ディクスティクス,0
692,3020001159376,新規,0,2024-10-07,2024-10-07,株式会社離宮横浜,,株式会社,神奈川県,横浜市中区,福富町仲通３４番地５ＭＴオラクルビル６０２号室,,14,104,2310043,,,,,,,2024-10-07,1,,,,,リキュウヨコハマ,0
693,3020001159392,新規,0,2024-10-07,2024-10-07,株式会社堀内電機製作所,,株式会社,神奈川県,横浜市都筑区,大熊町１０３番地,,14,118,2240042,,,,,,,2024-10-07,1,,,,,ホリウチデンキセイサクショ,0
694,3020001159442,新規,0,2024-10-07,2024-10-07,株式会社ＢＥＰＲＩＤＥ,,株式会社,神奈川県,横浜市磯子区,中原４丁目１９－２５,,14,107,2350036,,,,,,,2024-10-07,1,,,,,ビープライド,0
695,3020001159450,新規,0,2024-10-07,2024-10-07,株式会社Ｌａｕｇｈ　ａｔ　Ｌｉｆｅ,,株式会社,神奈川県,横浜市港北区,新羽町１９３６番地３ＣＯＭＯＤＯ１０２,,14,109,2230057,,,,,,,2024-10-07,1,,,,,ラフアットライフ,0
696,3020001159467,新規,0,2024-10-07,2024-10-07,株式会社渡辺ガラス店,,株式会社,神奈川県,横浜市鶴見区,平安町１丁目４３番地５リーベ奈留島２０２号,,14,101,2300031,,,,,,,2024-10-07,1,,,,,ワタナベガラステン,0
704,3021001083384,新規,0,2024-10-07,2024-10-07,株式会社Ｒｉｖｅｒ,,株式会社,神奈川県,足柄上郡開成町,吉田島２７８４番地３,,14,366,2580021,,,,,,,2024-10-07,1,,,,,リバー,0
705,3021001083392,新規,0,2024-10-07,2024-10-07,株式会社ＵＭＩＴＴＯ,,株式会社,神奈川県,小田原市,早川１丁目４番地１０,,14,206,2500021,,,,,,,2024-10-07,1,,,,,ウミット,0
706,3021001083426,新規,0,2024-10-07,2024-10-07,株式会社Ｃｒｏｓｓ,,株式会社,神奈川県,相模原市南区,相模台６丁目１２番２４号,,14,153,2520321,,,,,,,2024-10-07,1,,,,,クロス,0
714,3030001162701,新規,0,2024-10-07,2024-10-07,大豊商事株式会社,,株式会社,埼玉県,川口市,飯原町４番８号,,11,203,3320024,,,,,,,2024-10-07,1,,,,,タイホウショウジ,0
715,3030001162734,新規,0,2024-10-07,2024-10-07,あかいし農園株式会社,,株式会社,埼玉県,熊谷市,妻沼小島２０２７番地,,11,202,3600245,,,,,,,2024-10-07,1,,,,,アカイシノウエン,0
716,3030001162759,新規,0,2024-10-07,2024-10-07,株式会社ビューティアセッツ総合研究所,,株式会社,埼玉県,川口市,中青木３丁目２１番１５号,,11,203,3320032,,,,,,,2024-10-07,1,,,,,ビューティアセッツソウゴウケンキュウジョ,0
720,3030003025261,新規,0,2024-10-07,2024-10-07,合同会社ＮＵＯＶＯ,,合同会社,埼玉県,久喜市,桜田２丁目６番２,,11,232,3400203,,,,,,,2024-10-07,1,,,,,ヌォーヴォ,0
722,3040001135656,新規,0,2024-10-07,2024-10-07,株式会社アイエス,,株式会社,千葉県,市原市,ちはら台東９丁目１１番地４,,12,219,2900141,,,,,,,2024-10-07,1,,,,,アイエス,0
723,3040001135689,新規,0,2024-10-07,2024-10-07,総合保険センター株式会社,,株式会社,千葉県,匝瑳市,西小笹２５５番地１,,12,235,2892125,,,,,,,2024-10-07,1,,,,,ソウゴウホケンセンター,0
724,3040001135714,新規,0,2024-10-07,2024-10-07,株式会社ＳＫモーターズ,,株式会社,千葉県,白井市,十余一５６番７号,,12,232,2701411,,,,,,,2024-10-07,1,,,,,エスケーモーターズ,0
727,3040003025896,新規,0,2024-10-07,2024-10-07,大劫システムズ合同会社,,合同会社,千葉県,鎌ケ谷市,鎌ケ谷７丁目６－３１－１１,,12,224,2730105,,,,,,,2024-10-07,1,,,,,ダイコウシステムズ,0
728,3040005022529,新規,0,2024-10-07,2024-10-07,一般社団法人みかんの木,,その他の設立登記法人,千葉県,木更津市,桜井７０４番地１１８,,12,206,2920822,,,,,,,2024-10-07,1,,,,,ミカンノキ,0
734,3070001042239,新規,0,2024-10-07,2024-10-07,ＤＣＴ株式会社,,株式会社,群馬県,北群馬郡吉岡町,大字上野田３３４２番地１５,,10,345,3703606,,,,,,,2024-10-07,1,,,,,ディーシーティ,0
735,3070003005598,新規,0,2024-10-07,2024-10-07,大谷興業合同会社,,合同会社,群馬県,渋川市,半田７５１番地９,,10,208,3770004,,,,,,,2024-10-07,1,,,,,オオタニコウギョウ,0
739,3090001018939,新規,0,2024-10-07,2024-10-07,株式会社まきい福祉サービス,,株式会社,山梨県,中央市,東花輪１６９４－２,,19,214,4093842,,,,,,,2024-10-07,1,,,,,マキイフクシサービス,0
741,3100001037895,新規,0,2024-10-07,2024-10-07,画新株式会社,,株式会社,長野県,安曇野市,三郷明盛２９５７番地,,20,220,3998101,,,,,,,2024-10-07,1,,,,,ガシン,0
746,3110003005536,新規,0,2024-10-07,2024-10-07,ＳＫ企画合同会社,,合同会社,新潟県,新潟市西区,善久７６３番地１,,15,107,9501102,,,,,,,2024-10-07,1,,,,,エスケーキカク,0
756,3120001268976,新規,0,2024-10-07,2024-10-07,陽太株式会社,,株式会社,大阪府,大阪市淀川区,西中島５丁目７番１９号第７新大阪ビル５０２Ａ,,27,123,5320011,,,,,,,2024-10-07,1,,,,,ヒナタ,0
757,3120001269041,新規,0,2024-10-07,2024-10-07,木村空調株式会社,,株式会社,大阪府,大阪市城東区,東中浜８丁目７番５号,,27,118,5360023,,,,,,,2024-10-07,1,,,,,キムラクウチョウ,0
763,3120101070365,新規,0,2024-10-07,2024-10-07,株式会社柏木保温工業,,株式会社,大阪府,堺市堺区,柏木町１丁１番３５号,,27,141,5900837,,,,,,,2024-10-07,1,,,,,カシワギホオンコウギョウ,0
768,3120901049856,新規,0,2024-10-07,2024-10-07,株式会社ユニシード,,株式会社,大阪府,吹田市,青葉丘北１８番１０－１３０９号,,27,205,5650801,,,,,,,2024-10-07,1,,,,,ユニシード,0
769,3120901049864,新規,0,2024-10-07,2024-10-07,株式会社ＴＮリビング・マネジメント,,株式会社,大阪府,高槻市,若松町３６番１３号,,27,207,5690054,,,,,,,2024-10-07,1,,,,,ティーエヌリビングマネジメント,0
770,3122001038483,新規,0,2024-10-07,2024-10-07,ＳＯＧＥＮ　ＨＯＬＤＩＮＧＳ株式会社,,株式会社,大阪府,八尾市,若林町１丁目７６－３,,27,212,5810038,,,,,,,2024-10-07,1,,,,,ソーゲンホールディングス,0
771,3122001038491,新規,0,2024-10-07,2024-10-07,株式会社カウカウ,,株式会社,大阪府,東大阪市,若江東町５丁目６番２１号,,27,227,5780935,,,,,,,2024-10-07,1,,,,,カウカウ,0
772,3122001038509,新規,0,2024-10-07,2024-10-07,株式会社一伽建装,,株式会社,大阪府,東大阪市,森河内東２丁目１１番７号,,27,227,5770062,,,,,,,2024-10-07,1,,,,,イチカケンソウ,0
774,3130001078053,新規,0,2024-10-07,2024-10-07,株式会社今江,,株式会社,京都府,宇治市,広野町桐生谷２０番地の４６,,26,204,6110031,,,,,,,2024-10-07,1,,,,,イマエ,0
778,3140001136009,新規,0,2024-10-07,2024-10-07,株式会社Ｊ＆Ｓ,,株式会社,兵庫県,神戸市東灘区,住吉本町１丁目２２番１１号,,28,101,6580051,,,,,,,2024-10-07,1,,,,,ジェイアンドエス,0
779,3140001136025,新規,0,2024-10-07,2024-10-07,株式会社ＬＨＭ,,株式会社,兵庫県,神戸市東灘区,岡本７丁目２２番４号,,28,101,6580072,,,,,,,2024-10-07,1,,,,,エルエイチエム,0
780,3140001136033,新規,0,2024-10-07,2024-10-07,株式会社Ｒｕｔａｇｅ　Ｆｌｏｕ,,株式会社,兵庫県,神戸市灘区,畑原通３丁目４番１０号,,28,102,6570822,,,,,,,2024-10-07,1,,,,,ルテージフロー,0
783,3140003021159,新規,0,2024-10-07,2024-10-07,Ｈ＆Ｌ合同会社,,合同会社,兵庫県,西宮市,鳴尾町４丁目４番１０号,,28,204,6638184,,,,,,,2024-10-07,1,,,,,エイチアンドエル,0
789,3170001018336,新規,0,2024-10-07,2024-10-07,株式会社４Ｓ,,株式会社,和歌山県,和歌山市,毛見１５０８－１ヴォラーレ・デル・マーレ６０４号室,,30,201,6410014,,,,,,,2024-10-07,1,,,,,フォーエス,0
799,3180001163511,新規,0,2024-10-07,2024-10-07,株式会社Ｋａｎｄｏ　Ｊａｐａｎ,,株式会社,愛知県,津島市,高台寺町字江西１６番地,,23,208,4960015,,,,,,,2024-10-07,1,,,,,カンドージャパン,0
800,3180001163560,新規,0,2024-10-07,2024-10-07,Ｋｕｌｔａ株式会社,,株式会社,愛知県,名古屋市天白区,八事石坂２０２番地,,23,116,4680076,,,,,,,2024-10-07,1,,,,,クルタ,0
804,3180003027441,新規,0,2024-10-07,2024-10-07,Ｕｍｂｒｅｌｌａ　Ｈｉｌｌ合同会社,,合同会社,愛知県,名古屋市西区,新福寺町１丁目２１番地の３,,23,104,4510083,,,,,,,2024-10-07,1,,,,,アンブレラヒル,0
805,3180003027458,新規,0,2024-10-07,2024-10-07,ＮｅＸＴ合同会社,,合同会社,愛知県,名古屋市千種区,井上町４９番地１名古屋星ヶ丘ビル３階,,23,101,4640026,,,,,,,2024-10-07,1,,,,,ネクスト,0
806,3180003027466,新規,0,2024-10-07,2024-10-07,合同会社ＤＯＧＡラボ,,合同会社,愛知県,名古屋市熱田区,波寄町２２番４号,,23,109,4560003,,,,,,,2024-10-07,1,,,,,ドーガラボ,0
807,3180005020790,新規,0,2024-10-07,2024-10-07,社会保険労務士法人北坂労務管理事務所,,その他の設立登記法人,愛知県,名古屋市東区,筒井３丁目１６番２２号,,23,102,4610003,,,,,,,2024-10-07,1,,,,,キタサカロウムカンリジムショ,0
808,3180301039080,新規,0,2024-10-07,2024-10-07,株式会社中商,,株式会社,愛知県,豊川市,御油町美世賜１５３番地の７,,23,207,4410211,,,,,,,2024-10-07,1,,,,,ナカショウ,0
809,3180301039089,新規,0,2024-10-07,2024-10-07,株式会社共生工業,,株式会社,愛知県,西尾市,鳥羽町古新田１６番地１１,,23,213,4440704,,,,,,,2024-10-07,1,,,,,キョウセイコウギョウ,0
810,3180301039106,新規,0,2024-10-07,2024-10-07,ＮＩＮＪＡ　ＧＡＭＥＳ株式会社,,株式会社,愛知県,みよし市,三好町湯ノ前１１番地１湯ノ前館２Ｆ,,23,236,4700224,,,,,,,2024-10-07,1,,,,,ニンジャゲームス,0
812,3180303006277,新規,0,2024-10-07,2024-10-07,合同会社Ｇａｒｄｅｎ,,合同会社,愛知県,岡崎市,藤川町字河原２０－１藤川ログ１７,,23,202,4443523,,,,,,,2024-10-07,1,,,,,ガーデン,0
813,3180303006302,新規,0,2024-10-07,2024-10-07,合同会社比嘉建設,,合同会社,愛知県,豊橋市,東小鷹野１丁目１５番地１１メリーゲートＣ,,23,201,4400012,,,,,,,2024-10-07,1,,,,,ヒガケンセツ,0
825,3220003003850,新規,0,2024-10-07,2024-10-07,合同会社ＫＡＮＡＺＡＷＡ　ＤＥＳＩＧＮ　ＡＮＤ　ＭＯＴＯＲＳ,,合同会社,石川県,金沢市,堀川新町５番１号,,17,201,9200849,,,,,,,2024-10-07,1,,,,,カナザワデザインアンドモーターズ,0
836,3290001107432,新規,0,2024-10-07,2024-10-07,ＬＯＯＰＳホールディングス株式会社,,株式会社,福岡県,福岡市早良区,高取１丁目５番２６－５０３号,,40,137,8140011,,,,,,,2024-10-07,1,,,,,ループスホールディングス,0
837,3290001107498,新規,0,2024-10-07,2024-10-07,株式会社Ｒｅｖｏ＆Ｌカスタマーサービス,,株式会社,福岡県,福岡市東区,美和台１丁目４３番５号,,40,131,8110212,,,,,,,2024-10-07,1,,,,,レボルカスタマーサービス,0
838,3290001107515,新規,0,2024-10-07,2024-10-07,ｍａｉｒｕ株式会社,,株式会社,福岡県,福岡市南区,高木３丁目１６番２２号,,40,134,8150004,,,,,,,2024-10-07,1,,,,,マイル,0
839,3290001107556,新規,0,2024-10-07,2024-10-07,株式会社ＣＬＡＳＴ　ＪＡＰＡＮ　ＷＯＲＫＳ,,株式会社,福岡県,福岡市博多区,博多駅前１丁目２３番２号ＰａｒｋＦｒｏｎｔ博多駅前一丁目５Ｆ－Ｂ,,40,132,8120011,,,,,,,2024-10-07,1,,,,,クラストジャパンワークス,0
841,3290003015889,新規,0,2024-10-07,2024-10-07,合同会社さくら,,合同会社,福岡県,福岡市東区,箱崎１丁目１９番９号優箱崎ビル２０２号,,40,131,8120053,,,,,,,2024-10-07,1,,,,,サクラ,0
843,3290005019533,新規,0,2024-10-07,2024-10-07,社会保険労務士法人樋口事務所,00136547,その他の設立登記法人,福岡県,福岡市中央区,赤坂１丁目５番１１－５０２号アバンダント８９,,40,133,8100042,,,,,,,2024-10-07,1,,,,,ヒグチジムショ,0
846,3290801030908,新規,0,2024-10-07,2024-10-07,株式会社ＢＡＯＢＡＢ,,株式会社,福岡県,北九州市八幡西区,西川頭町７番２６号,,40,109,8060017,,,,,,,2024-10-07,1,,,,,バオバブ,0
857,3350001019217,新規,0,2024-10-07,2024-10-07,株式会社海翔南,,株式会社,宮崎県,児湯郡新富町,大字新田１５２５番地１３,,45,402,8891406,,,,,,,2024-10-07,1,,,,,カイショウミナミ,0
858,3350005006260,新規,0,2024-10-07,2024-10-07,なでしこ税理士法人,,その他の設立登記法人,宮崎県,宮崎市,小松台東３丁目７番地５,,45,201,8800953,,,,,,,2024-10-07,1,,,,,ナデシコ,0
860,3360003014339,新規,0,2024-10-07,2024-10-07,Ｍｏｎｋｅｙ　Ｃ　Ｐｒｏｄｕｃｔｉｏｎ合同会社,,合同会社,沖縄県,宜野湾市,嘉数３丁目１８－２８－２サウス１,,47,205,9012226,,,,,,,2024-10-07,1,,,,,モンキーシープロダクション,0
863,3380005012875,新規,0,2024-10-07,2024-10-07,医療法人彩健会,,その他の設立登記法人,福島県,会津若松市,宮町２番１号,,07,202,9650801,,,,,,,2024-10-07,1,,,,,サイケンカイ,0
868,3400003003329,新規,0,2024-10-07,2024-10-07,Ｒｅｂｏｒｎ合同会社,,合同会社,岩手県,盛岡市,梨木町１番地３０,,03,201,0200064,,,,,,,2024-10-07,1,,,,,リボーン,0
876,3430001092833,新規,0,2024-10-07,2024-10-07,株式会社Ｍ＆Ｍ’ｓ,,株式会社,北海道,札幌市東区,本町二条６丁目２番１０－１０１号,,01,103,0650042,,,,,,,2024-10-07,1,,,,,エムアンドエムズ,0
881,3470001020402,新規,0,2024-10-07,2024-10-07,北村建板株式会社,,株式会社,香川県,丸亀市,飯山町東坂元２３９８番地６,,37,202,7620081,,,,,,,2024-10-07,1,,,,,キタムラケンバン,0
883,3500001025918,新規,0,2024-10-07,2024-10-07,株式会社サンパチ,,株式会社,愛媛県,松山市,千舟町５丁目３－１７・４階,,38,201,7900011,,,,,,,2024-10-07,1,,,,,サンパチ,0
885,3500003003343,新規,0,2024-10-07,2024-10-07,合同会社たまごナス,,合同会社,愛媛県,松山市,堀江町甲５２６－３番地,,38,201,7992651,,,,,,,2024-10-07,1,,,,,タマゴナス,0
886,3700150127429,新規,0,2024-10-07,2024-10-07,ＡＮＴ＆ＳＰＡＲＲＯＷ　ＰＴＹ　ＬＩＭＩＴＤ,,外国会社等,長野県,飯山市,大字飯山八坊塚１１４９２－３,,20,213,3892253,ＢＯＲＯＵＧＨＳ　ＡＵＳＴＲＡＬＩＡ　ＰＴＹ　ＬＴＤ　ＬＥＶＥＬ　６　７７　ＣＡＳＴＬＥＲＥＡＧＨ　ＳＴＲＥＥＴ　ＳＹＤＮＥＹ　ＮＳＷ　２０００,,,,,,2024-10-07,1,,,,,アントアンドスパローピーテイーワイリミテツド,0
894,4010001248724,新規,0,2024-10-07,2024-10-07,株式会社Ｆｉｌｔｅｒ,,株式会社,東京都,中央区,銀座１丁目１５番４号銀座一丁目ビル７階,,13,102,1040061,,,,,,,2024-10-07,1,,,,,フィルター,0
895,4010001248773,新規,0,2024-10-07,2024-10-07,株式会社ＯＣＥＡＮ　ＲＯＡＤ,,株式会社,東京都,中央区,新川１丁目１８番２号,,13,102,1040033,,,,,,,2024-10-07,1,,,,,オーシャンロード,0
896,4010001248807,新規,0,2024-10-07,2024-10-07,デジタルスクワッド株式会社,,株式会社,東京都,中央区,佃１丁目５番７号,,13,102,1040051,,,,,,,2024-10-07,1,,,,,デジタルスクワッド,0
897,4010001248856,新規,0,2024-10-07,2024-10-07,ＧｅｎｏＳｔａｒ株式会社,,株式会社,東京都,中央区,築地１丁目１３番１号,,13,102,1040045,,,,,,,2024-10-07,1,,,,,ジェノスター,0
898,4010001248880,新規,0,2024-10-07,2024-10-07,株式会社ＡＴホールディングス,,株式会社,東京都,千代田区,内幸町１丁目３番３号内幸町ダイビル,,13,101,1000011,,,,,,,2024-10-07,1,,,,,エイティホールディングス,0
901,4010003045079,新規,0,2024-10-07,2024-10-07,合同会社いっぺいそつ,,合同会社,東京都,中央区,築地３丁目８－１－１４０２,,13,102,1040045,,,,,,,2024-10-07,1,,,,,イッペイソツ,0
902,4010003045120,新規,0,2024-10-07,2024-10-07,八渡アセットマネジメント合同会社,,合同会社,東京都,千代田区,富士見１丁目８番４号タウンコート富士見３０３,,13,101,1020071,,,,,,,2024-10-07,1,,,,,ハチワタリアセットマネジメント,0
904,4010401185567,新規,0,2024-10-07,2024-10-07,株式会社ＪｕｍｏｎＡＩ,,株式会社,東京都,港区,東麻布１丁目７－５－１１０５,,13,103,1060044,,,,,,,2024-10-07,1,,,,,,0
905,4010401185583,新規,0,2024-10-07,2024-10-07,Ｇ‐ＳＩＴＥ株式会社,,株式会社,東京都,港区,六本木７丁目１４番２３号ラウンドクロス六本木４階,,13,103,1060032,,,,,,,2024-10-07,1,,,,,ジーサイト,0
906,4010403033451,新規,0,2024-10-07,2024-10-07,ＭＩ２合同会社,,合同会社,東京都,港区,南青山２丁目２番１５－９１６号,,13,103,1070062,,,,,,,2024-10-07,1,,,,,エムアイツー,0
907,4010403033559,新規,0,2024-10-07,2024-10-07,合同会社Ｓ２Ｆｕｓｉｏｎ,,合同会社,東京都,港区,北青山１丁目３番１号アールキューブ青山３階,,13,103,1070061,,,,,,,2024-10-07,1,,,,,エスツーフュージョン,0
913,4010501053013,新規,0,2024-10-07,2024-10-07,株式会社ＬＵＭＡＩＬ,,株式会社,東京都,台東区,浅草３丁目１０番５号プライマル浅草言問通４０８号,,13,106,1110032,,,,,,,2024-10-07,1,,,,,ルメール,0
914,4010503007586,新規,0,2024-10-07,2024-10-07,合同会社ｍｏｎｓｔｅｒａ,,合同会社,東京都,台東区,清川２丁目１８番１号浅草Ｂｅｒｇ３８‐１０１,,13,106,1110022,,,,,,,2024-10-07,1,,,,,モンステラ,0
915,4010503007594,新規,0,2024-10-07,2024-10-07,ＫＵＲＯＫＯ合同会社,,合同会社,東京都,台東区,西浅草３丁目２２番３－２８０２号浅草タワー,,13,106,1110035,,,,,,,2024-10-07,1,,,,,クロコ,0
916,4010505003559,新規,0,2024-10-07,2024-10-07,山本隆平行政書士法人,,その他の設立登記法人,東京都,台東区,池之端１丁目１番１号ＭＫ池の端ビル４Ｆ,,13,106,1100008,,,,,,,2024-10-07,1,,,,,ヤマモトリュウヘイ,0
918,4010603011125,新規,0,2024-10-07,2024-10-07,合同会社中川コンサルティング,,合同会社,東京都,江東区,有明１丁目３番１－２１９号,,13,108,1350063,,,,,,,2024-10-07,1,,,,,ナカガワコンサルティング,0
919,4010603011133,新規,0,2024-10-07,2024-10-07,Ａｎａｇｒａｆｔ合同会社,,合同会社,東京都,江東区,東雲１丁目１番１６－７０４号,,13,108,1350062,,,,,,,2024-10-07,1,,,,,アナグラフト,0
921,4010701046626,新規,0,2024-10-07,2024-10-07,株式会社ＡＩＴコスモス,,株式会社,東京都,品川区,大崎５丁目１番１１号,,13,109,1410032,,,,,,,2024-10-07,1,,,,,エイアイティコスモス,0
922,4010703007378,新規,0,2024-10-07,2024-10-07,Ｔａｋａｋｕｄａ　Ｃａｒｒｙ合同会社,,合同会社,東京都,品川区,荏原６丁目１２番地６号,,13,109,1420063,,,,,,,2024-10-07,1,,,,,タカクダキャリー,0
923,4010801035446,新規,0,2024-10-07,2024-10-07,株式会社武藤金属,,株式会社,東京都,大田区,大森南１丁目２２番２０号,,13,111,1430013,,,,,,,2024-10-07,1,,,,,ムトウキンゾク,0
926,4010903009406,新規,0,2024-10-07,2024-10-07,Ｓｋｙｗａｌｋｅｒ合同会社,,合同会社,東京都,世田谷区,池尻３丁目１１番３１－４２８号,,13,112,1540001,,,,,,,2024-10-07,1,,,,,スカイウォーカー,0
927,4010905004677,新規,0,2024-10-07,2024-10-07,一般社団法人起業適塾,,その他の設立登記法人,東京都,世田谷区,宮坂３丁目１０番１号宮坂ビル４Ｆ,,13,112,1560051,,,,,,,2024-10-07,1,,,,,キギョウテキジュク,0
930,4011001164993,新規,0,2024-10-07,2024-10-07,株式会社ｇｅｎｉｅ,,株式会社,東京都,渋谷区,恵比寿１丁目１２番７号三恵３１ビル８Ｃ,,13,113,1500013,,,,,,,2024-10-07,1,,,,,ジーニー,0
931,4011001165026,新規,0,2024-10-07,2024-10-07,株式会社Ｙ・Ｍ企画,,株式会社,東京都,渋谷区,千駄ヶ谷１丁目３番２５号,,13,113,1510051,,,,,,,2024-10-07,1,,,,,ワイエムキカク,0
932,4011001165117,新規,0,2024-10-07,2024-10-07,株式会社ＲＥ‐ＳＵＭＩ,,株式会社,東京都,目黒区,青葉台４丁目‐６番地‐１７‐３０８,,13,110,1530042,,,,,,,2024-10-07,1,,,,,リスミ,0
935,4011003020138,新規,0,2024-10-07,2024-10-07,ＢｕｉｌＢｒｉ　Ｅｎｔｅｒｔａｉｎｍｅｎｔ合同会社,,合同会社,東京都,渋谷区,恵比寿西２丁目４番８号ウィンド恵比寿ビル８Ｆ,,13,113,1500021,,,,,,,2024-10-07,1,,,,,ビルブリエンターテインメント,0
944,4011103014997,新規,0,2024-10-07,2024-10-07,合同会社ｅｎｃｈａｎｔｅ,,合同会社,東京都,新宿区,西新宿３丁目３番１３号西新宿水間ビル６階,,13,104,1600023,,,,,,,2024-10-07,1,,,,,アンシャンテ,0
948,4011401026488,新規,0,2024-10-07,2024-10-07,ＲＥＤＨＡＴ株式会社,,株式会社,東京都,板橋区,大谷口北町１７番４号,,13,119,1730031,,,,,,,2024-10-07,1,,,,,レッドハット,0
952,4011503006248,新規,0,2024-10-07,2024-10-07,合同会社Ｃｒｅｅｐ,,合同会社,東京都,荒川区,東尾久２丁目４３番２３号,,13,118,1160012,,,,,,,2024-10-07,1,,,,,クリープ,0
954,4011601028094,新規,0,2024-10-07,2024-10-07,東京心之宿株式会社,,株式会社,東京都,練馬区,石神井台５丁目１５－４,,13,120,1770045,,,,,,,2024-10-07,1,,,,,トウキョウココロノヤド,0
955,4011603004465,新規,0,2024-10-07,2024-10-07,ＷｏｎｄｅｒＷａｌｌ合同会社,,合同会社,東京都,練馬区,関町北５丁目１８番２４号若竹ハイツ３０２,,13,120,1770051,,,,,,,2024-10-07,1,,,,,ワンダーウォール,0
956,4011605002608,新規,0,2024-10-07,2024-10-07,一般社団法人大陽ステンレス・スプリング持株会支援会,,その他の設立登記法人,東京都,練馬区,三原台１丁目１５番１７号,,13,120,1770031,,,,,,,2024-10-07,1,,,,,タイヨウステンレススプリングモチカブカイシエンカイ,0
958,4011701027681,新規,0,2024-10-07,2024-10-07,詩の味株式会社,,株式会社,東京都,江戸川区,南葛西２丁目１番２０号希望ビル３０１号室,,13,123,1340085,,,,,,,2024-10-07,1,,,,,シノミ,0
959,4011705001856,新規,0,2024-10-07,2024-10-07,特定非営利活動法人ハートフル,,その他の設立登記法人,東京都,江戸川区,篠崎町２丁目２６番１０号,,13,123,1330061,,,,,,,2024-10-07,1,,,,,ハートフル,0
966,4012401042351,新規,0,2024-10-07,2024-10-07,株式会社翔,,株式会社,東京都,府中市,白糸台１丁目５番地の３ボルダーズ４０２,,13,206,1830011,,,,,,,2024-10-07,1,,,,,ショウ,0
968,4012403006783,新規,0,2024-10-07,2024-10-07,合同会社平澤,,合同会社,東京都,多摩市,和田１４３１－２２,,13,224,2060001,,,,,,,2024-10-07,1,,,,,ヒラサワ,0
978,4020001159400,新規,0,2024-10-07,2024-10-07,Ｃ４ｈｅａｌｔｈ　Ｊａｐａｎ株式会社,,株式会社,神奈川県,横浜市西区,みなとみらい４丁目４番２号横浜ブルーアベニュー１２階,,14,103,2200012,,,,,,,2024-10-07,1,,,,,シーフォーヘルスジャパン,0
979,4020001159441,新規,0,2024-10-07,2024-10-07,株式会社Ｍａｐｌｅ,,株式会社,神奈川県,横浜市神奈川区,新子安１丁目１８番１－８１３号,,14,102,2210013,,,,,,,2024-10-07,1,,,,,メープル,0
982,4021001083400,新規,0,2024-10-07,2024-10-07,株式会社サンザイル,,株式会社,神奈川県,大和市,深見西２丁目７番４５－３０４号,,14,213,2420018,,,,,,,2024-10-07,1,,,,,サンザイル,0
983,4021001083425,新規,0,2024-10-07,2024-10-07,株式会社モモナファーム,,株式会社,神奈川県,厚木市,小野６９４番地１,,14,212,2430125,,,,,,,2024-10-07,1,,,,,モモナファーム,0
991,4030001162824,新規,0,2024-10-07,2024-10-07,株式会社ＦＥＬＩＣＩＡＲＣ,,株式会社,埼玉県,川口市,戸塚２丁目２６番８号ベルシャトウ戸塚３０１,,11,203,3330811,,,,,,,2024-10-07,1,,,,,フェリシアーク,0
996,4030005021885,新規,0,2024-10-07,2024-10-07,医療法人社団大瑛会,,その他の設立登記法人,埼玉県,和光市,本町６番５号和光エイノビル４階,,11,229,3510114,,,,,,,2024-10-07,1,,,,,ダイエイカイ,0
997,4040001135696,新規,0,2024-10-07,2024-10-07,株式会社ＳＭＩＬＥ　ＨＯＰＥ,,株式会社,千葉県,佐倉市,上志津１６５１番地９６,,12,212,2850846,,,,,,,2024-10-07,1,,,,,スマイルホープ,0
998,4040001135705,新規,0,2024-10-07,2024-10-07,株式会社ウェルグジャパン,,株式会社,千葉県,旭市,三川４０１４番地２,,12,215,2892714,,,,,,,2024-10-07,1,,,,,ウェルグジャパン,0
999,4040003025929,新規,0,2024-10-07,2024-10-07,合同会社野口企画,,合同会社,千葉県,大網白里市,大網４５０番地８,,12,239,2993251,,,,,,,2024-10-07,1,,,,,ノグチキカク,0
1000,4040005022528,新規,0,2024-10-07,2024-10-07,共栄パートナー事業協同組合,,その他の設立登記法人,千葉県,市川市,塩焼２丁目２番７４号,,12,203,2720114,,,,,,,2024-10-07,1,,,,,,0
1005,4060001037552,新規,0,2024-10-07,2024-10-07,株式会社エスエー,,株式会社,栃木県,日光市,板橋３２９３番地９１,,09,206,3211102,,,,,,,2024-10-07,1,,,,,エスエー,0
1007,4060003005276,新規,0,2024-10-07,2024-10-07,エルエフ合同会社,,合同会社,栃木県,那須塩原市,接骨木４７２番地５５,,09,213,3292807,,,,,,,2024-10-07,1,,,,,,0
1011,4070001042238,新規,0,2024-10-07,2024-10-07,株式会社Ｂ‐ＰＬＡＮ,,株式会社,群馬県,佐波郡玉村町,大字川井２３番地５,,10,464,3701117,,,,,,,2024-10-07,1,,,,,ビープラン,0
1013,4080001026529,新規,0,2024-10-07,2024-10-07,Ｙｏｕｒ　Ｃａｒ静岡株式会社,,株式会社,静岡県,藤枝市,高洲１丁目９番２３号ロイヤルシャトー藤枝高洲１０２号,,22,214,4260046,,,,,,,2024-10-07,1,,,,,ユアカーシズオカ,0
1025,4090001018938,新規,0,2024-10-07,2024-10-07,株式会社Ｔｈｒｅｅ　Ｒ,,株式会社,山梨県,山梨市,大野９５７番地２,,19,205,4050016,,,,,,,2024-10-07,1,,,,,スリーアール,0
1028,4100001037903,新規,0,2024-10-07,2024-10-07,コージープレイス株式会社,,株式会社,長野県,北佐久郡軽井沢町,大字長倉３３９０番地３８,,20,321,3890111,,,,,,,2024-10-07,1,,,,,コージープレイス,0
1037,4120001269057,新規,0,2024-10-07,2024-10-07,株式会社シャルル,,株式会社,大阪府,大阪市北区,大深町３番４０号グランフロント大阪オーナーズタワー４０９号,,27,127,5300011,,,,,,,2024-10-07,1,,,,,シャルル,0
1038,4120001269065,新規,0,2024-10-07,2024-10-07,火の森株式会社,,株式会社,大阪府,大阪市東住吉区,矢田１丁目２６番７号ＵＩＩＴビル矢田４０２号室,,27,121,5460023,,,,,,,2024-10-07,1,,,,,ヒノモリ,0
1041,4120003027669,新規,0,2024-10-07,2024-10-07,レイクフィールド合同会社,,合同会社,大阪府,大阪市北区,中之島６丁目１番３８－４６１２号,,27,127,5300005,,,,,,,2024-10-07,1,,,,,レイクフィールド,0
1042,4120101070372,新規,0,2024-10-07,2024-10-07,株式会社ジージーフーズ,,株式会社,大阪府,堺市中区,平井８７４番地１５,,27,142,5998251,,,,,,,2024-10-07,1,,,,,ジージーフーズ,0
1043,4120101070380,新規,0,2024-10-07,2024-10-07,株式会社谷口電気工事,,株式会社,大阪府,和泉市,福瀬町９２７番地,,27,219,5941123,,,,,,,2024-10-07,1,,,,,タニグチデンキコウジ,0
1044,4120901049855,新規,0,2024-10-07,2024-10-07,ＣＮＣ株式会社,,株式会社,大阪府,箕面市,箕面２丁目６番３０号,,27,220,5620001,,,,,,,2024-10-07,1,,,,,シーエヌシー,0
1046,4122001038508,新規,0,2024-10-07,2024-10-07,株式会社ＢＯＧ,,株式会社,大阪府,東大阪市,豊浦町６番５号,,27,227,5798031,,,,,,,2024-10-07,1,,,,,ボグ,0
1053,4130001078069,新規,0,2024-10-07,2024-10-07,株式会社Ｓｔｏｒｉｅｓ　ｏｆ　Ｊａｐａｎ,,株式会社,京都府,京都市左京区,田中関田町２－７－７０２,,26,103,6068203,,,,,,,2024-10-07,1,,,,,ストーリーズオブジャパン,0
1054,4130001078077,新規,0,2024-10-07,2024-10-07,株式会社カナエル,,株式会社,京都府,京都市伏見区,小栗栖中山田町２６番地２１,,26,109,6011463,,,,,,,2024-10-07,1,,,,,カナエル,0
1060,4140001135967,新規,0,2024-10-07,2024-10-07,ビニンセン・ジャパン株式会社,,株式会社,兵庫県,明石市,小久保２丁目２番地１３、１０２号室,,28,203,6730005,,,,,,,2024-10-07,1,,,,,ビニンセンジャパン,0
1062,4140003021166,新規,0,2024-10-07,2024-10-07,うちでのこづち合同会社,,合同会社,兵庫県,芦屋市,大東町１３番１７号,,28,206,6590023,,,,,,,2024-10-07,1,,,,,ウチデノコヅチ,0
1066,4160001026264,新規,0,2024-10-07,2024-10-07,株式会社ナイスプラザニシモト,,株式会社,滋賀県,野洲市,西河原２３８３番地,,25,210,5202423,,,,,,,2024-10-07,1,,,,,ナイスプラザニシモト,0
1067,4160005011345,新規,0,2024-10-07,2024-10-07,一般社団法人まいばら空き家の相談所,,その他の設立登記法人,滋賀県,米原市,米原５３８番地,,25,214,5210012,,,,,,,2024-10-07,1,,,,,マイバラアキヤノソウダンショ,0
1068,4160005011353,新規,0,2024-10-07,2024-10-07,医療法人おくむら歯科,,その他の設立登記法人,滋賀県,守山市,水保町１２５５番地８,,25,207,5240102,,,,,,,2024-10-07,1,,,,,オクムラシカ,0
1069,4170001018335,新規,0,2024-10-07,2024-10-07,株式会社ＣＯＭＦＯＲＴ,,株式会社,和歌山県,和歌山市,船所４１番地９,,30,201,6408461,,,,,,,2024-10-07,1,,,,,コンフォート,0
1073,4180001163502,新規,0,2024-10-07,2024-10-07,株式会社ＡＢＯ,,株式会社,愛知県,名古屋市南区,加福町３丁目１番地１,,23,112,4570837,,,,,,,2024-10-07,1,,,,,エービーオー,0
1074,4180001163527,新規,0,2024-10-07,2024-10-07,株式会社エクシア,,株式会社,愛知県,半田市,新宮町５丁目２１７番地の３,,23,205,4750931,,,,,,,2024-10-07,1,,,,,エクシア,0
1075,4180001163543,新規,0,2024-10-07,2024-10-07,株式会社フォージス,,株式会社,愛知県,名古屋市中村区,名駅４丁目２４番５号第２森ビル４０１,,23,105,4500002,,,,,,,2024-10-07,1,,,,,フォージス,0
1076,4180001163551,新規,0,2024-10-07,2024-10-07,株式会社サイアム大谷,,株式会社,愛知県,稲沢市,奥田馬場町５１番地,,23,220,4928237,,,,,,,2024-10-07,1,,,,,サイアムオオタニ,0
1077,4180001163584,新規,0,2024-10-07,2024-10-07,ＳＹＣコンサルティング株式会社,,株式会社,愛知県,名古屋市瑞穂区,中根町１丁目２３番地の１,,23,108,4670055,,,,,,,2024-10-07,1,,,,,エスワイシーコンサルティング,0
1078,4180001163592,新規,0,2024-10-07,2024-10-07,株式会社Ｖｉｎｏ　Ｐｏｎｔａｃｃｉｏ,,株式会社,愛知県,日進市,梅森台２丁目１４４番地２,,23,230,4700133,,,,,,,2024-10-07,1,,,,,ヴィーノポンタッチョ,0
1079,4180001163626,新規,0,2024-10-07,2024-10-07,株式会社ウインズバード,,株式会社,愛知県,一宮市,定水寺字塚越４８番地１,,23,203,4910004,,,,,,,2024-10-07,1,,,,,ウインズバード,0
1095,4200001043008,新規,0,2024-10-07,2024-10-07,株式会社カジヤ設備,,株式会社,岐阜県,各務原市,鵜沼朝日町４丁目２３７番地１３,,21,213,5090145,,,,,,,2024-10-07,1,,,,,カジヤセツビ,0
1096,4200001043016,新規,0,2024-10-07,2024-10-07,ＡＣＥ株式会社,,株式会社,岐阜県,岐阜市,南鶉２丁目４３－１,,21,201,5008285,,,,,,,2024-10-07,1,,,,,エース,0
1099,4200003006532,新規,0,2024-10-07,2024-10-07,合同会社ユウ企画,,合同会社,岐阜県,瑞浪市,高月町１丁目１９番地,,21,208,5096126,,,,,,,2024-10-07,1,,,,,ユウキカク,0
1108,4240005015841,新規,0,2024-10-07,2024-10-07,医療法人ＪＮＦ,,その他の設立登記法人,広島県,福山市,南蔵王町３丁目１７番４５号,,34,207,7210973,,,,,,,2024-10-07,1,,,,,ジェイエヌエフ,0
1112,4260001039520,新規,0,2024-10-07,2024-10-07,テンマップス株式会社,,株式会社,岡山県,倉敷市,玉島長尾２６８０番地２,,33,202,7100251,,,,,,,2024-10-07,1,,,,,テンマップス,0
1114,4260003004910,新規,0,2024-10-07,2024-10-07,航大合同会社,,合同会社,岡山県,岡山市北区,厚生町１丁目７－１６,,33,101,7000985,,,,,,,2024-10-07,1,,,,,コウダイ,0
1118,4290003015913,新規,0,2024-10-07,2024-10-07,合同会社エレクトロンパワー,,合同会社,福岡県,福岡市南区,井尻１丁目２０番２号,,40,134,8111302,,,,,,,2024-10-07,1,,,,,エレクトロンパワー,0
1121,4310001019252,新規,0,2024-10-07,2024-10-07,株式会社マルモリ,,株式会社,長崎県,諫早市,小ケ倉町１３７３番地,,42,204,8540054,,,,,,,2024-10-07,1,,,,,マルモリ,0
1124,4320003004490,新規,0,2024-10-07,2024-10-07,合同会社得友,,合同会社,大分県,大分市,高松１丁目７番８号サンメゾン高城１０２号室,,44,201,8700917,,,,,,,2024-10-07,1,,,,,トクユウ,0
1125,4330001032492,新規,0,2024-10-07,2024-10-07,株式会社Ａｍｅｍｂｏ,,株式会社,熊本県,熊本市東区,西原２丁目１１番８号コーポ矢野１０５号室,,43,102,8618029,,,,,,,2024-10-07,1,,,,,アメンボ,0
1129,4340001026816,新規,0,2024-10-07,2024-10-07,株式会社ＧＲＥＥＮ　ＭＯＵＮＴ,,株式会社,鹿児島県,熊毛郡屋久島町,尾之間６５５番地１,,46,505,8914404,,,,,,,2024-10-07,1,,,,,グリーンマウント,0
1130,4340001026840,新規,0,2024-10-07,2024-10-07,ＳＫシートメタル株式会社,,株式会社,鹿児島県,霧島市,国分姫城２９４３番地３,,46,218,8994354,,,,,,,2024-10-07,1,,,,,エスケーシートメタル,0
1133,4360003014362,新規,0,2024-10-07,2024-10-07,ククルバ合同会社,,合同会社,沖縄県,那覇市,泊２丁目２６番３号,,47,201,9000012,,,,,,,2024-10-07,1,,,,,ククルバ,0
1140,4380001034823,新規,0,2024-10-07,2024-10-07,株式会社るるる,,株式会社,福島県,郡山市,緑町９番１２号,,07,203,9638023,,,,,,,2024-10-07,1,,,,,ルルル,0
1142,4400003003328,新規,0,2024-10-07,2024-10-07,合同会社アライズ,,合同会社,岩手県,滝沢市,鵜飼細谷地９７番地２２０,,03,216,0200651,,,,,,,2024-10-07,1,,,,,,0
1147,4420001018887,新規,0,2024-10-07,2024-10-07,株式会社つじむら酒店,,株式会社,青森県,青森市,青柳１丁目１５番９号,,02,201,0300811,,,,,,,2024-10-07,1,,,,,ツジムラサケテン,0
1152,4430001092816,新規,0,2024-10-07,2024-10-07,北光サポートスタッフ株式会社,,株式会社,北海道,札幌市中央区,南一条西７丁目１２番地都市ビル２階,,01,101,0600061,,,,,,,2024-10-07,1,,,,,ホッコウサポートスタッフ,0
1153,4430001092824,新規,0,2024-10-07,2024-10-07,株式会社ＩＹリネンサプライズ,,株式会社,北海道,札幌市清田区,美しが丘二条１０丁目１番７号,,01,110,0040812,,,,,,,2024-10-07,1,,,,,アイワイリネンサプライズ,0
1154,4430001092832,新規,0,2024-10-07,2024-10-07,株式会社ナレッジリード,,株式会社,北海道,札幌市北区,新琴似五条２丁目１番３－５０８号,,01,102,0010905,,,,,,,2024-10-07,1,,,,,ナレッジリード,0
1157,4430003016855,新規,0,2024-10-07,2024-10-07,合同会社Ｊｅｓｓｉｃａ,,合同会社,北海道,札幌市中央区,大通西５丁目２番地２ＴＡＮＩビル６０２号室,,01,101,0600042,,,,,,,2024-10-07,1,,,,,ジェシカ,0
1162,4460101007613,新規,0,2024-10-07,2024-10-07,鹿追エナジー株式会社,,株式会社,北海道,河東郡鹿追町,東町１丁目１５番地１,,01,634,0810222,,,,,,,2024-10-07,1,,,,,シカオイエナジー,0
1163,4470003002728,新規,0,2024-10-07,2024-10-07,合同会社ＨｅｌｐＨＲ,,合同会社,香川県,丸亀市,中津町１３０１－１ディアコート中津１０３,,37,202,7630054,,,,,,,2024-10-07,1,,,,,,0
1164,4480001012612,新規,0,2024-10-07,2024-10-07,株式会社木村塗装,,株式会社,徳島県,板野郡松茂町,豊岡字芦田鶴１１２番地２,,36,401,7710215,,,,,,,2024-10-07,1,,,,,キムラトソウ,0
1165,4490001010879,新規,0,2024-10-07,2024-10-07,株式会社楪,,株式会社,高知県,高知市,中宝永町１１番６－５０１号,,39,201,7800817,,,,,,,2024-10-07,1,,,,,ユズリハ,0
1166,4500001025925,新規,0,2024-10-07,2024-10-07,ＤＡＩＫＵＪＡＰＡＮ株式会社,,株式会社,愛媛県,松山市,千舟町２丁目８番地５,,38,201,7900011,,,,,,,2024-10-07,1,,,,,ダイクジャパン,0
1168,4500003003342,新規,0,2024-10-07,2024-10-07,ＡＬＭＯＳＴ合同会社,,合同会社,愛媛県,松山市,中央２丁目２３－１平岡ビル２０３,,38,201,7918015,,,,,,,2024-10-07,1,,,,,オールモースト,0
1169,4700150127428,新規,0,2024-10-07,2024-10-07,Ｈａｎｗｅｉ　Ｅｌｅｃｔｒｏｎｉｃｓ　Ｃｏ．，Ｌｔｄ,,外国会社等,東京都,台東区,元浅草１丁目４－８,,13,106,1110041,Ｔｈｅ　Ｍａｓｏｎ　Ｃｏｍｐｌｅｘ，Ｓｕｉｔｅｓ１９＆２０，Ｔｈｅ　Ｖａｌｌｅ，Ａｎｇｕｉｌｌａ,,,,,,2024-10-07,1,,,,,ハーンウエイエレクトロニクス,0
1175,5010001248814,新規,0,2024-10-07,2024-10-07,ＩＢＴ株式会社,,株式会社,東京都,文京区,湯島２丁目２番５号,,13,105,1130034,,,,,,,2024-10-07,1,,,,,アイビーティー,0
1176,5010001248839,新規,0,2024-10-07,2024-10-07,株式会社ｋｉｚａｓｈｉ,,株式会社,東京都,千代田区,内神田２丁目７番１０号,,13,101,1010047,,,,,,,2024-10-07,1,,,,,キザシ,0
1181,5010005038889,新規,0,2024-10-07,2024-10-07,一般社団法人ダークパターン対策協会,,その他の設立登記法人,東京都,千代田区,神田須田町１丁目７番８号,,13,101,1010041,,,,,,,2024-10-07,1,,,,,ダークパターンタイサクキョウカイ,0
1182,5010005038906,新規,0,2024-10-07,2024-10-07,一般社団法人久保田ブレインラボ,,その他の設立登記法人,東京都,文京区,本郷１丁目４－６ヴァリエ後楽園５０４,,13,105,1130033,,,,,,,2024-10-07,1,,,,,クボタブレインラボ,0
1183,5010101016360,新規,0,2024-10-07,2024-10-07,株式会社エスオーサービス,,株式会社,東京都,八王子市,元横山町２丁目６－２０ＫＭ八王子ビル４階,,13,201,1920063,,,,,,,2024-10-07,1,,,,,エスオーサービス,0
1186,5010401185525,新規,0,2024-10-07,2024-10-07,株式会社山王フラワー,,株式会社,東京都,港区,浜松町２丁目２番３号,,13,103,1050013,,,,,,,2024-10-07,1,,,,,サンノウフラワー,0
1187,5010401185582,新規,0,2024-10-07,2024-10-07,ＰｏｓｔＰｒｉｍｅ　Ｔｒａｄｉｎｇ株式会社,,株式会社,東京都,港区,虎ノ門１丁目１０番５号,,13,103,1050001,,,,,,,2024-10-07,1,,,,,ポストプライムトレーディング,0
1189,5010501053012,新規,0,2024-10-07,2024-10-07,株式会社エムズコーポレーション,,株式会社,東京都,台東区,日本堤１丁目２３番３号レピュア南千住レジデンス６０１,,13,106,1110021,,,,,,,2024-10-07,1,,,,,エムズコーポレーション,0
1195,5010701046633,新規,0,2024-10-07,2024-10-07,株式会社ｃｈｅｓｔｎｕｔｓ,,株式会社,東京都,品川区,小山３丁目１５－２－３００４,,13,109,1420062,,,,,,,2024-10-07,1,,,,,チェスナッツ,0
1197,5010801035437,新規,0,2024-10-07,2024-10-07,マルコアーク株式会社,,株式会社,東京都,大田区,下丸子１丁目１７番１８号栄商ものづくりＬＡＢ３Ｆ,,13,111,1460092,,,,,,,2024-10-07,1,,,,,マルコアーク,0
1198,5010803005124,新規,0,2024-10-07,2024-10-07,Ｍｏｄｅｒｉｓａ合同会社,,合同会社,東京都,大田区,下丸子４丁目１２番１１号ドエルサンモールＩＩＩ３０１号室,00136540,13,111,1460092,,,,,,,2024-10-07,1,,,,,モデリサ,0
1202,5010901056060,新規,0,2024-10-07,2024-10-07,株式会社施設環境サポート,,株式会社,東京都,世田谷区,成城２丁目４０番７号ＴＯＰ成城学園７０３,,13,112,1570066,,,,,,,2024-10-07,1,,,,,シセツカンキョウサポート,0
1205,5011001164984,新規,0,2024-10-07,2024-10-07,クローバークレジット株式会社,,株式会社,東京都,渋谷区,千駄ヶ谷５丁目３４番７号ＮＸ新宿ビル８Ｆ,,13,113,1510051,,,,,,,2024-10-07,1,,,,,クローバークレジット,0
1206,5011001165108,新規,0,2024-10-07,2024-10-07,株式会社Ｄｅｓｉｇｎ　Ｓｔａｎｄ,,株式会社,東京都,渋谷区,渋谷２丁目１９‐１５宮益坂ビルディング６０９,,13,113,1500002,,,,,,,2024-10-07,1,,,,,デザインスタンド,0
1208,5011003020129,新規,0,2024-10-07,2024-10-07,Ｂａｎｄａｎａ　Ｍｅｄｉａ合同会社,,合同会社,東京都,渋谷区,東１丁目２９番３号渋谷ブリッジＢ棟５,,13,113,1500011,,,,,,,2024-10-07,1,,,,,バンダナメディア,0
1213,5011101108973,新規,0,2024-10-07,2024-10-07,株式会社ＳＢＢＳ,,株式会社,東京都,新宿区,西新宿３丁目５番３号－１４０１号,,13,104,1600023,,,,,,,2024-10-07,1,,,,,エスビービーエス,0
1214,5011103014988,新規,0,2024-10-07,2024-10-07,ＫＭＡ合同会社,,合同会社,東京都,新宿区,若葉１丁目５－１９－３０３ランテンヌ四谷,,13,104,1600011,,,,,,,2024-10-07,1,,,,,ケーエムエー,0
1215,5011103014996,新規,0,2024-10-07,2024-10-07,合同会社ＰＯＮＯ,,合同会社,東京都,新宿区,新宿２丁目１３－１１ライオンズマンション新宿７０５,,13,104,1600022,,,,,,,2024-10-07,1,,,,,ポノ,0
1218,5011301030036,新規,0,2024-10-07,2024-10-07,株式会社みどＲｅホーム,,株式会社,東京都,杉並区,高円寺南４丁目４５番７号,,13,115,1660003,,,,,,,2024-10-07,1,,,,,ミドリホーム,0
1219,5011303005309,新規,0,2024-10-07,2024-10-07,４Ｇ合同会社,,合同会社,東京都,杉並区,高円寺南３丁目２７番３号,,13,115,1660003,,,,,,,2024-10-07,1,,,,,フォージー,0
1222,5011401026479,新規,0,2024-10-07,2024-10-07,株式会社ヨツコベ,,株式会社,東京都,板橋区,常盤台１丁目３８番１１号浅野ビル１Ｆ,,13,119,1740071,,,,,,,2024-10-07,1,,,,,ヨツコベ,0
1223,5011403004524,新規,0,2024-10-07,2024-10-07,ロータス合同会社,,合同会社,東京都,板橋区,坂下３丁目２３番１３号,,13,119,1740043,,,,,,,2024-10-07,1,,,,,ロータス,0
1231,5011701027680,新規,0,2024-10-07,2024-10-07,Ｂｏｓｓ　Ｗａｌｌｅｔ株式会社,,株式会社,東京都,江戸川区,平井５丁目４５番５号渡辺ハイツ１０１,,13,123,1320035,,,,,,,2024-10-07,1,,,,,ボスウォレット,0
1238,5012401042350,新規,0,2024-10-07,2024-10-07,株式会社ダナウエ,,株式会社,東京都,小金井市,桜町１丁目２番４３号,,13,210,1840005,,,,,,,2024-10-07,1,,,,,ダナウエ,0
1239,5012401042359,新規,0,2024-10-07,2024-10-07,株式会社ＮＡＮＯＲＩＮＯ,,株式会社,東京都,府中市,本宿町３丁目２６番地の１０,,13,206,1830032,,,,,,,2024-10-07,1,,,,,ナノリノ,0
1240,5012801023487,新規,0,2024-10-07,2024-10-07,エスアールギャラリー株式会社,,株式会社,東京都,日野市,南平２丁目５０番地の７,,13,212,1910041,,,,,,,2024-10-07,1,,,,,エスアールギャラリー,0
1241,5012801023495,新規,0,2024-10-07,2024-10-07,株式会社ＴＥＣＲＯＮＩＣＡ,,株式会社,東京都,立川市,錦町４丁目８－２４共栄事務所２Ｆ,,13,202,1900022,,,,,,,2024-10-07,1,,,,,テクロニカ,0
1242,5012803003520,新規,0,2024-10-07,2024-10-07,合同会社ダルマエステート,,合同会社,東京都,国分寺市,日吉町３丁目１１番地１５田倉ハイツ２０１,,13,214,1850032,,,,,,,2024-10-07,1,,,,,ダルマエステート,0
1248,5020001159366,新規,0,2024-10-07,2024-10-07,株式会社エヌプランニング,,株式会社,神奈川県,川崎市高津区,下野毛３丁目７番３０－２０６号,,14,134,2130006,,,,,,,2024-10-07,1,,,,,エヌプランニング,0
1249,5020001159399,新規,0,2024-10-07,2024-10-07,Ｔｈｅ　Ｆｏｒｃｅ　Ｊａｐａｎ株式会社,,株式会社,神奈川県,横浜市西区,みなとみらい４丁目４番２号横浜ブルーアベニュー１２階,,14,103,2200012,,,,,,,2024-10-07,1,,,,,ザフォースジャパン,0
1250,5020001159432,新規,0,2024-10-07,2024-10-07,株式会社Ｍｒ　Ｍａｒｋｅｔ,,株式会社,神奈川県,横浜市都筑区,北山田６丁目２２番２８号,,14,118,2240021,,,,,,,2024-10-07,1,,,,,ミスターマーケット,0
1251,5020001159465,新規,0,2024-10-07,2024-10-07,株式会社ＡＣＴ,,株式会社,神奈川県,川崎市宮前区,鷺沼２丁目１９番４－１０２号,,14,136,2160004,,,,,,,2024-10-07,1,,,,,エーシーティー,0
1254,5020003026969,新規,0,2024-10-07,2024-10-07,Ｎ　ｆｒｉｅｎｄｓ合同会社,,合同会社,神奈川県,川崎市中原区,今井西町１９－１５,,14,133,2110066,,,,,,,2024-10-07,1,,,,,エヌフレンズ,0
1258,5021001083432,新規,0,2024-10-07,2024-10-07,株式会社ＥＬＮＡＳ,,株式会社,神奈川県,小田原市,成田２２０番地の９,,14,206,2500862,,,,,,,2024-10-07,1,,,,,エルナス,0
1274,5040001135687,新規,0,2024-10-07,2024-10-07,ウイングブリッジ株式会社,,株式会社,千葉県,八千代市,緑が丘西１丁目１６番地１０,,12,221,2760040,,,,,,,2024-10-07,1,,,,,ウイングブリッジ,0
1275,5040001135712,新規,0,2024-10-07,2024-10-07,株式会社Ｔｈｅｒｍａｌ,,株式会社,千葉県,船橋市,上山町１丁目２３６番地１ザ・ガーデンプレミアム１４１号,,12,204,2730046,,,,,,,2024-10-07,1,,,,,サーマル,0
1276,5040001135720,新規,0,2024-10-07,2024-10-07,株式会社ＷＡＫＵ,,株式会社,千葉県,柏市,酒井根５丁目２５番４８号,,12,217,2770053,,,,,,,2024-10-07,1,,,,,ワク,0
1277,5040001135737,新規,0,2024-10-07,2024-10-07,株式会社ＴＯＯＲＯＯＭ,,株式会社,千葉県,長生郡一宮町,東浪見７００５－６,,12,421,2994303,,,,,,,2024-10-07,1,,,,,ツールーム,0
1281,5040005022502,新規,0,2024-10-07,2024-10-07,一般社団法人Ｌ‐ＮＩＮＥＯスポーツクラブ,,その他の設立登記法人,千葉県,市原市,馬立１７２８番地１,,12,219,2900221,,,,,,,2024-10-07,1,,,,,エルニーニョスポーツクラブ,0
1288,5060001037551,新規,0,2024-10-07,2024-10-07,株式会社ＳＵＧＵＲＯＮＯＵＥＮ,,株式会社,栃木県,佐野市,君田町３０４番地,,09,204,3270043,,,,,,,2024-10-07,1,,,,,スグロノウエン,0
1292,5070003005596,新規,0,2024-10-07,2024-10-07,合同会社ＳＨＩＺＵ,,合同会社,群馬県,みどり市,笠懸町阿左美３０６０番地６,,10,212,3792311,,,,,,,2024-10-07,1,,,,,シズ,0
1301,5090001018937,新規,0,2024-10-07,2024-10-07,株式会社相澤,,株式会社,山梨県,笛吹市,一宮町本都塚３４番地,,19,211,4050072,,,,,,,2024-10-07,1,,,,,アイザワ,0
1310,5120001268900,新規,0,2024-10-07,2024-10-07,夢築ホーム株式会社,,株式会社,大阪府,大阪市東成区,大今里西３丁目１８番２１号－１Ｆ,,27,115,5370014,,,,,,,2024-10-07,1,,,,,ユメチクホーム,0
1311,5120001269048,新規,0,2024-10-07,2024-10-07,株式会社ＳＴＥＬＬＡＢＯ,,株式会社,大阪府,大阪市中央区,西心斎橋１丁目１０番４号エースビル３階,,27,128,5420086,,,,,,,2024-10-07,1,,,,,ステラボ,0
1312,5120001269064,新規,0,2024-10-07,2024-10-07,新起点株式会社,,株式会社,大阪府,大阪市城東区,鴫野西５丁目１５番７－３２１号,,27,118,5360014,,,,,,,2024-10-07,1,,,,,シンキテン,0
1313,5120001269147,新規,0,2024-10-07,2024-10-07,株式会社ｆｏｕｒ　ｎｉｎｅ,,株式会社,大阪府,大阪市中央区,西心斎橋２丁目２番３号Ａ－ＰＬＡＣＥ心斎橋７階ＬＴｃｏｎｎｅｃｔ,,27,128,5420086,,,,,,,2024-10-07,1,,,,,フォーナイン,0
1317,5120005024556,新規,0,2024-10-07,2024-10-07,ＮＰＯ法人つなご,,その他の設立登記法人,大阪府,大阪市住吉区,清水丘３丁目１２－２５,,27,120,5580033,,,,,,,2024-10-07,1,,,,,ツナゴ,0
1318,5120101070347,新規,0,2024-10-07,2024-10-07,オーエスマテリアル株式会社,,株式会社,大阪府,堺市中区,深井沢町３２８２番地,,27,142,5998236,,,,,,,2024-10-07,1,,,,,オーエスマテリアル,0
1319,5120101070363,新規,0,2024-10-07,2024-10-07,株式会社ＳＥＮＳＥ,,株式会社,大阪府,堺市北区,大豆塚町１丁２４番地２１ロイヤル豆塚１０５号,,27,146,5918042,,,,,,,2024-10-07,1,,,,,センス,0
1321,5120103006076,新規,0,2024-10-07,2024-10-07,合同会社タカケンホーム,,合同会社,大阪府,和泉市,王子町１１１９番地の４７,,27,219,5940004,,,,,,,2024-10-07,1,,,,,タカケンホーム,0
1326,5122001038515,新規,0,2024-10-07,2024-10-07,株式会社Ｌｏｏｐ,,株式会社,大阪府,四條畷市,南野４丁目４番５５号,,27,229,5750021,,,,,,,2024-10-07,1,,,,,ループ,0
1337,5140001135974,新規,0,2024-10-07,2024-10-07,株式会社大浦商店,,株式会社,兵庫県,加古川市,平岡町新在家２丁目２６４番地の２,,28,210,6750101,,,,,,,2024-10-07,1,,,,,オオウラショウテン,0
1338,5140001135982,新規,0,2024-10-07,2024-10-07,株式会社Ｅ‐ＳＡ,,株式会社,兵庫県,尼崎市,南塚口町５丁目１４番１９号,,28,202,6610012,,,,,,,2024-10-07,1,,,,,イーサ,0
1339,5140001136007,新規,0,2024-10-07,2024-10-07,シティモーゲージ株式会社,,株式会社,兵庫県,神戸市中央区,磯辺通４丁目１番３８号,,28,110,6510084,,,,,,,2024-10-07,1,,,,,シティモーゲージ,0
1342,5140003021140,新規,0,2024-10-07,2024-10-07,合同会社ＬＩＧ,,合同会社,兵庫県,姫路市,神子岡前１丁目１番２０号,,28,201,6700055,,,,,,,2024-10-07,1,,,,,リグ,0
1343,5140003021149,新規,0,2024-10-07,2024-10-07,合同会社リレクト,,合同会社,兵庫県,神戸市中央区,磯辺通１丁目１番１８－７０７号,,28,110,6510084,,,,,,,2024-10-07,1,,,,,リレクト,0
1346,5170001018326,新規,0,2024-10-07,2024-10-07,パレット株式会社,,株式会社,和歌山県,和歌山市,有本４８２番地１,,30,201,6408390,,,,,,,2024-10-07,1,,,,,パレット,0
1351,5180001163492,新規,0,2024-10-07,2024-10-07,赤トンボ株式会社,,株式会社,愛知県,名古屋市昭和区,緑町２丁目２０番地,,23,107,4660013,,,,,,,2024-10-07,1,,,,,アカトンボ,0
1352,5180001163534,新規,0,2024-10-07,2024-10-07,内山工機株式会社,,株式会社,愛知県,稲沢市,平和町上三宅上屋敷１５５番地６,,23,220,4901303,,,,,,,2024-10-07,1,,,,,ウチヤマコウキ,0
1353,5180001163567,新規,0,2024-10-07,2024-10-07,株式会社Ｓｏｕｒｉａｎｔ,,株式会社,愛知県,一宮市,中町２丁目６番１６号,,23,203,4910913,,,,,,,2024-10-07,1,,,,,スリアン,0
1354,5180001163575,新規,0,2024-10-07,2024-10-07,株式会社エンシアライン,,株式会社,愛知県,一宮市,萩原町串作字才勝１４５４番地,,23,203,4910376,,,,,,,2024-10-07,1,,,,,エンシアライン,0
1358,5180005020789,新規,0,2024-10-07,2024-10-07,一般社団法人江南プレミアム音楽倶楽部,,その他の設立登記法人,愛知県,江南市,高屋町大門２７番地,,23,217,4838035,,,,,,,2024-10-07,1,,,,,コウナンプレミアムオンガククラブ,0
1361,5180301039095,新規,0,2024-10-07,2024-10-07,株式会社ビーサイクルホールディングス,,株式会社,愛知県,蒲郡市,浜町８０番地,,23,214,4430036,,,,,,,2024-10-07,1,,,,,ビーサイクルホールディングス,0
1362,5180301039104,新規,0,2024-10-07,2024-10-07,ｐｌｕｓ株式会社,,株式会社,愛知県,岡崎市,美合新町２番地１０,,23,202,4440801,,,,,,,2024-10-07,1,,,,,プラス,0
1363,5180301039112,新規,0,2024-10-07,2024-10-07,ＴＭ　ｒｅｓｏｕｒｃｅ　ｍａｎａｇｅｍｅｎｔ株式会社,,株式会社,愛知県,豊橋市,牛川町字乗小路３２番地２９４,,23,201,4400006,,,,,,,2024-10-07,1,,,,,ティーエムリソースマネジメント,0
1364,5180301039120,新規,0,2024-10-07,2024-10-07,株式会社アークライズ,,株式会社,愛知県,豊川市,光明町２丁目２８番地の１炭家コウメイＢ号,,23,207,4420884,,,,,,,2024-10-07,1,,,,,アークライズ,0
1365,5180303006300,新規,0,2024-10-07,2024-10-07,合同会社ＳｕｓＴｅｒｒＡｉｍ,,合同会社,愛知県,豊橋市,西岩田４丁目９番地３,,23,201,4400831,,,,,,,2024-10-07,1,,,,,サステライム,0
1371,5200003006531,新規,0,2024-10-07,2024-10-07,高級レンタル合同会社,,合同会社,岐阜県,岐阜市,茜部新所４丁目１０４番地,,21,201,5008263,,,,,,,2024-10-07,1,,,,,コウキュウレンタル,0
1372,5210001019939,新規,0,2024-10-07,2024-10-07,株式会社Ｓ‐Ｃｌｅａｒ,,株式会社,福井県,福井市,大島町大島台６３６,,18,201,9188018,,,,,,,2024-10-07,1,,,,,エスクリア,0
1389,5290001107406,新規,0,2024-10-07,2024-10-07,株式会社ＡＦＴＥＲ５,,株式会社,福岡県,福岡市博多区,中洲４丁目３番８号,,40,132,8100801,,,,,,,2024-10-07,1,,,,,アフターファイブ,0
1390,5290001107455,新規,0,2024-10-07,2024-10-07,株式会社上田鉄工,,株式会社,福岡県,大牟田市,新地町８番地１３,,40,202,8360032,,,,,,,2024-10-07,1,,,,,ウエダテッコウ,0
1391,5290001107521,新規,0,2024-10-07,2024-10-07,株式会社Ｈａｇａｋｕｒｅ,,株式会社,福岡県,福岡市博多区,井相田２丁目２番１８号,,40,132,8120881,,,,,,,2024-10-07,1,,,,,ハガクレ,0
1394,5290003015854,新規,0,2024-10-07,2024-10-07,合同会社ｆｒｅｓｈ‐ｄｅｓｉｇｎ,,合同会社,福岡県,福岡市博多区,博多駅前１丁目２３番２号ＰａｒｋＦｒｏｎｔ博多駅前１丁目５Ｆ－Ｂ,,40,132,8120011,,,,,,,2024-10-07,1,,,,,フレッシュデザイン,0
1398,5310001019243,新規,0,2024-10-07,2024-10-07,株式会社ＦＭファーマシー,,株式会社,長崎県,西海市,西海町木場郷５３１番地,,42,212,8513504,,,,,,,2024-10-07,1,,,,,エフエムファーマシー,0
1404,5360001034287,新規,0,2024-10-07,2024-10-07,ミアシステム株式会社,,株式会社,沖縄県,那覇市,牧志２丁目１７－２７－４０１,,47,201,9000013,,,,,,,2024-10-07,1,,,,,ミアシステム,0
1408,5370005010845,新規,0,2024-10-07,2024-10-07,一般社団法人子夢の木,,その他の設立登記法人,宮城県,登米市,迫町佐沼字西舘５５番地,,04,212,9870511,,,,,,,2024-10-07,1,,,,,ネムノキ,0
1410,5380003005870,新規,0,2024-10-07,2024-10-07,合同会社シュガー,,合同会社,福島県,福島市,本内字南河原４６番地の１,,07,201,9600103,,,,,,,2024-10-07,1,,,,,シュガー,0
1411,5380005012873,新規,0,2024-10-07,2024-10-07,医療法人二夢の会,,その他の設立登記法人,福島県,いわき市,平上荒川字長尾１６番１サカトミクリニックビル１階,,07,204,9708034,,,,,,,2024-10-07,1,,,,,ニムノカイ,0
1412,5410001013954,新規,0,2024-10-07,2024-10-07,株式会社ソウシンサービス,,株式会社,秋田県,能代市,二ツ井町字上野９８番地の５,,05,202,0183142,,,,,,,2024-10-07,1,,,,,ソウシンサービス,0
1416,5420003003003,新規,0,2024-10-07,2024-10-07,合同会社ｔｓｗ,,合同会社,青森県,三戸郡南部町,大字大向字小波田５０番地１２,,02,445,0390103,,,,,,,2024-10-07,1,,,,,ティーエスウィン,0
1418,5430001092815,新規,0,2024-10-07,2024-10-07,株式会社ＮＥＸＹＺ．北海道,,株式会社,北海道,札幌市中央区,北五条西２丁目５番地,,01,101,0600005,,,,,,,2024-10-07,1,,,,,,0
1419,5430001092831,新規,0,2024-10-07,2024-10-07,株式会社民間救急ＲＵＮ,,株式会社,北海道,石狩市,花川南二条６丁目３１２番地,,01,235,0613202,,,,,,,2024-10-07,1,,,,,ミンカンキュウキュウラン,0
1420,5430003016862,新規,0,2024-10-07,2024-10-07,琴音合同会社,,合同会社,北海道,札幌市中央区,北四条西１４丁目１－６ライオンズガーデン植物園５０３号室,,01,101,0600004,,,,,,,2024-10-07,1,,,,,キンオン,0
1426,5490001010878,新規,0,2024-10-07,2024-10-07,株式会社スプラウト,,株式会社,高知県,高知市,はりまや町１丁目１１番８号アルコビル２－３０１,,39,201,7800822,,,,,,,2024-10-07,1,,,,,スプラウト,0
1430,5500003003341,新規,0,2024-10-07,2024-10-07,ＧＮＯ合同会社,,合同会社,愛媛県,伊予郡松前町,大字西古泉５６０番地８ボンボニエールＥ棟,,38,401,7913134,,,,,,,2024-10-07,1,,,,,ジーエヌオー,0
1431,5700150127427,新規,0,2024-10-07,2024-10-07,星東方文化芸術学校駐日本事務所,,外国会社等,神奈川県,横浜市保土ケ谷区,坂本町１３９－４－３０２,,14,106,2400043,大連開＿区遼河西路１２１号３階４－１９、４－２０、４－２１、４－２２室,00136532,,,,,2024-10-07,1,,,,,セイトウホウブンカゲイジユツガツコウチユウニホンジムシヨ,0
1438,6010001248838,新規,0,2024-10-07,2024-10-07,株式会社ＹＯＬＯＢｕｄｄｙ,,株式会社,東京都,中央区,銀座１丁目２２番１１号銀座大竹ビジデンス２Ｆ,,13,102,1040061,,,,,,,2024-10-07,1,,,,,ヨロバディ,0
1439,6010001248862,新規,0,2024-10-07,2024-10-07,Ｓｙｎｔｈｅｓｙ株式会社,,株式会社,東京都,中央区,京橋１丁目１１番１号,,13,102,1040031,,,,,,,2024-10-07,1,,,,,シンセシー,0
1440,6010003045077,新規,0,2024-10-07,2024-10-07,ＦＴＦ合同会社,,合同会社,東京都,中央区,銀座１丁目２２番１１号銀座大竹ビジデンス２Ｆ,,13,102,1040061,,,,,,,2024-10-07,1,,,,,エフティエフ,0
1441,6010003045119,新規,0,2024-10-07,2024-10-07,ＭＹＭアセット２号合同会社,,合同会社,東京都,中央区,銀座３丁目５番１２号,,13,102,1040061,,,,,,,2024-10-07,1,,,,,エムワイエムアセットニゴウ,0
1444,6010005038905,新規,0,2024-10-07,2024-10-07,一般社団法人ＡＩガバナンス協会,,その他の設立登記法人,東京都,中央区,銀座１丁目１２番４号Ｎ＆ＥＢＬＤ．７階,,13,102,1040061,,,,,,,2024-10-07,1,,,,,エーアイガバナンスキョウカイ,0
1446,6010401185581,新規,0,2024-10-07,2024-10-07,株式会社ＴＨＥ　ＤＡＹ　ＷＥＬＬＮＥＳＳ,,株式会社,東京都,港区,新橋５丁目３１番４号ヨシカネビル,,13,103,1050004,,,,,,,2024-10-07,1,,,,,ザデイウェルネス,0
1449,6010503007584,新規,0,2024-10-07,2024-10-07,ボーディステイズ合同会社,,合同会社,東京都,台東区,千束２丁目２９－１,,13,106,1110031,,,,,,,2024-10-07,1,,,,,ボーディステイズ,0
1450,6010503007592,新規,0,2024-10-07,2024-10-07,五福フード合同会社,,合同会社,東京都,台東区,上野４丁目７－８アメ横センタービル１階、１号,,13,106,1100005,,,,,,,2024-10-07,1,,,,,ゴフクフード,0
1453,6010603011131,新規,0,2024-10-07,2024-10-07,響ｅｎｔｅｒｔａｉｎｍｅｎｔ　ｍｕｓｉｃ合同会社,,合同会社,東京都,江東区,猿江２丁目１２番７号,,13,108,1350003,,,,,,,2024-10-07,1,,,,,ヒビキエンターテイメントミュージック,0
1455,6010801035444,新規,0,2024-10-07,2024-10-07,丹羽商事グループ株式会社,,株式会社,東京都,大田区,京浜島２丁目３番５号,,13,111,1430003,,,,,,,2024-10-07,1,,,,,ニワショウジグループ,0
1457,6010901056068,新規,0,2024-10-07,2024-10-07,株式会社ＡＫＥＢＯＮＯ,,株式会社,東京都,世田谷区,上祖師谷７丁目２８－１５,,13,112,1570065,,,,,,,2024-10-07,1,,,,,アケボノ,0
1458,6010901056076,新規,0,2024-10-07,2024-10-07,株式会社中高屋,,株式会社,東京都,世田谷区,玉川２丁目１８番１号,,13,112,1580094,,,,,,,2024-10-07,1,,,,,ナカコウヤ,0
1461,6011001164884,新規,0,2024-10-07,2024-10-07,株式会社ＢＡＢＹ,,株式会社,東京都,渋谷区,道玄坂１丁目１０番８号渋谷道玄坂東急ビル２Ｆ－Ｃ,,13,113,1500043,,,,,,,2024-10-07,1,,,,,ベイビー,0
1462,6011001165065,新規,0,2024-10-07,2024-10-07,株式会社ｅｓｔａｄｉｏ,,株式会社,東京都,目黒区,目黒本町３丁目１５番１１号安藤ビル１０１,,13,110,1520002,,,,,,,2024-10-07,1,,,,,エスタジオ,0
1466,6011101108923,新規,0,2024-10-07,2024-10-07,株式会社アモーレビューティー,,株式会社,東京都,新宿区,西新宿７丁目１番８号,,13,104,1600023,,,,,,,2024-10-07,1,,,,,アモーレビューティー,0
1467,6011101108964,新規,0,2024-10-07,2024-10-07,三楽株式会社,,株式会社,東京都,新宿区,西新宿３丁目３－１３西新宿水間ビル６Ｆ,,13,104,1600023,,,,,,,2024-10-07,1,,,,,ミラク,0
1468,6011101108989,新規,0,2024-10-07,2024-10-07,ルクト株式会社,,株式会社,東京都,新宿区,新宿２丁目１２番地１３号新宿アントレサロンビル２階,,13,104,1600022,,,,,,,2024-10-07,1,,,,,ルクト,0
1470,6011301030027,新規,0,2024-10-07,2024-10-07,株式会社ケイエスエイ,,株式会社,東京都,杉並区,天沼２丁目２６番３号,,13,115,1670032,,,,,,,2024-10-07,1,,,,,ケイエスエイ,0
1471,6011301030035,新規,0,2024-10-07,2024-10-07,株式会社ＳＭＯＫＳ　Ｅｎｔｅｒｔａｉｎｍｅｎｔ,,株式会社,東京都,杉並区,井草３丁目２２番３号井上ビル１３号館４０１号室,,13,115,1670021,,,,,,,2024-10-07,1,,,,,スモークスエンターテイメント,0
1478,6011703003992,新規,0,2024-10-07,2024-10-07,ＦＭ合同会社,,合同会社,東京都,江戸川区,南小岩７丁目１３―１１,,13,123,1330056,,,,,,,2024-10-07,1,,,,,エフエム,0
1486,6012801023486,新規,0,2024-10-07,2024-10-07,株式会社サウザンド,,株式会社,東京都,日野市,栄町３丁目７番地の１７,,13,212,1910001,,,,,,,2024-10-07,1,,,,,サウザンド,0
1499,6020001159423,新規,0,2024-10-07,2024-10-07,ｓｔａｙ　ｇｏｌｄ株式会社,,株式会社,神奈川県,横浜市鶴見区,駒岡４丁目１５番６号,,14,101,2300071,,,,,,,2024-10-07,1,,,,,ステイゴールド,0
1500,6020001159480,新規,0,2024-10-07,2024-10-07,株式会社スイングアーク,,株式会社,神奈川県,横浜市港北区,大曽根３丁目７番１９号,,14,109,2220003,,,,,,,2024-10-07,1,,,,,スイングアーク,0
1507,6021001083407,新規,0,2024-10-07,2024-10-07,株式会社純真,,株式会社,神奈川県,相模原市中央区,田名１９４８番地１,,14,152,2520244,,,,,,,2024-10-07,1,,,,,ジュンシン,0
1509,6021003015069,新規,0,2024-10-07,2024-10-07,アジアンスマイルリゾート合同会社,,合同会社,神奈川県,横須賀市,長浦町５丁目２１番地,,14,201,2370072,,,,,,,2024-10-07,1,,,,,アジアンスマイルリゾート,0
1520,6030005021867,新規,0,2024-10-07,2024-10-07,特定非営利活動法人久喜バスケットボールクラブ,,その他の設立登記法人,埼玉県,久喜市,久喜北２丁目３１番２－１０７号,,11,232,3460007,,,,,,,2024-10-07,1,,,,,クキバスケットボールクラブ,0
1522,6040001135637,新規,0,2024-10-07,2024-10-07,ＡＬＢＯＳビジネスアドバイザリー株式会社,,株式会社,千葉県,千葉市若葉区,都賀の台１丁目２０番２０号,,12,104,2640033,,,,,,,2024-10-07,1,,,,,アルボスビジネスアドバイザリー,0
1523,6040003025935,新規,0,2024-10-07,2024-10-07,合同会社ＤＭ１７号,,合同会社,千葉県,柏市,柏４丁目５番１０号,,12,217,2770005,,,,,,,2024-10-07,1,,,,,ディーエムジュウナナゴウ,0
1527,6050001055487,新規,0,2024-10-07,2024-10-07,株式会社あすか搬送,,株式会社,茨城県,土浦市,大岩田２７０１番地,,08,203,3000835,,,,,,,2024-10-07,1,,,,,アスカハンソウ,0
1528,6050001055495,新規,0,2024-10-07,2024-10-07,株式会社リフォームの相馬,,株式会社,茨城県,土浦市,下高津１丁目４番１７号マ・トール土浦６０７,,08,203,3000812,,,,,,,2024-10-07,1,,,,,リフォームノソウマ,0
1531,6060003005266,新規,0,2024-10-07,2024-10-07,合同会社ｋａｒａｍａ,,合同会社,栃木県,那須塩原市,下永田６丁目１２２１－９－Ａ１０２,,09,213,3292712,,,,,,,2024-10-07,1,,,,,カラマ,0
1533,6070001042236,新規,0,2024-10-07,2024-10-07,株式会社町田製作所,,株式会社,群馬県,甘楽郡甘楽町,大字白倉１６４６番地１,,10,384,3702213,,,,,,,2024-10-07,1,,,,,マチダセイサクショ,0
1534,6070001042244,新規,0,2024-10-07,2024-10-07,株式会社エヌズ,,株式会社,群馬県,伊勢崎市,今井町４１番地１,,10,204,3720823,,,,,,,2024-10-07,1,,,,,エヌズ,0
1535,6070003005595,新規,0,2024-10-07,2024-10-07,萬屋新井合同会社,,合同会社,群馬県,高崎市,通町５番地３Ｓ－ＦＯＲＴ高崎６０１号,,10,202,3700053,,,,,,,2024-10-07,1,,,,,ヨロズヤアライ,0
1539,6080105006458,新規,0,2024-10-07,2024-10-07,医療法人社団悠和会,,その他の設立登記法人,静岡県,富士宮市,東阿幸地１３５番地の１,,22,207,4180071,,,,,,,2024-10-07,1,,,,,ユウワカイ,0
1540,6080401027488,新規,0,2024-10-07,2024-10-07,株式会社駿河建設工業,,株式会社,静岡県,掛川市,横須賀１５７７番地の１,,22,213,4371301,,,,,,,2024-10-07,1,,,,,スルガケンセツコウギョウ,0
1541,6080401027496,新規,0,2024-10-07,2024-10-07,株式会社Ｆｏｒｔｙ,,株式会社,静岡県,浜松市中央区,初生町１１８９―２,,22,138,4338112,,,,,,,2024-10-07,1,,,,,フォティ,0
1547,6090001018936,新規,0,2024-10-07,2024-10-07,株式会社ワンシグ,,株式会社,山梨県,山梨市,上神内川３２５番地３,,19,205,4050018,,,,,,,2024-10-07,1,,,,,ワンシグ,0
1566,6120001269030,新規,0,2024-10-07,2024-10-07,株式会社３１０３,,株式会社,大阪府,大阪市北区,中津２丁目６番６－３１１号,,27,127,5310071,,,,,,,2024-10-07,1,,,,,サンイチゼロサン,0
1567,6120001269088,新規,0,2024-10-07,2024-10-07,株式会社ＫＡＦＡ,,株式会社,大阪府,大阪市北区,梅田１丁目３番１号大阪駅前第一ビル８階５号,,27,127,5300001,,,,,,,2024-10-07,1,,,,,カーファ,0
1568,6120001269096,新規,0,2024-10-07,2024-10-07,株式会社Ｋｉｒｅｃｏ,,株式会社,大阪府,大阪市中央区,淡路町４丁目３番５号４階,,27,128,5410047,,,,,,,2024-10-07,1,,,,,キレコ,0
1575,6120101070362,新規,0,2024-10-07,2024-10-07,株式会社Ｎ．ｔ．ｔ．,,株式会社,大阪府,泉佐野市,羽倉崎２丁目１番８号,,27,213,5980046,,,,,,,2024-10-07,1,,,,,エヌティーティー,0
1579,6120901049845,新規,0,2024-10-07,2024-10-07,株式会社リパーズ,,株式会社,大阪府,吹田市,竹見台４丁目１番４－９０９号,,27,205,5650863,,,,,,,2024-10-07,1,,,,,リパーズ,0
1589,6140001135998,新規,0,2024-10-07,2024-10-07,株式会社アーバンカーズ,,株式会社,兵庫県,西宮市,山口町上山口３丁目２９,,28,204,6511421,,,,,,,2024-10-07,1,,,,,アーバンカーズ,0
1590,6140001136006,新規,0,2024-10-07,2024-10-07,株式会社Ｐｏｐｏｌｏ,,株式会社,兵庫県,西宮市,大谷町４番２６号,,28,204,6620054,,,,,,,2024-10-07,1,,,,,ポポロ,0
1591,6140001136022,新規,0,2024-10-07,2024-10-07,株式会社花森家,,株式会社,兵庫県,姫路市,同心町６４番地１９,,28,201,6700856,,,,,,,2024-10-07,1,,,,,ハナモリヤ,0
1595,6140003021148,新規,0,2024-10-07,2024-10-07,合同会社ＷＥＬＤＳ,,合同会社,兵庫県,宝塚市,亀井町１０番４８号,,28,214,6650047,,,,,,,2024-10-07,1,,,,,ウェルズ,0
1599,6160005011351,新規,0,2024-10-07,2024-10-07,一般社団法人ＨＡＹＡ‐ＡＳＨＩ,,その他の設立登記法人,滋賀県,大津市,千町１丁目２５番２５号,,25,201,5200863,,,,,,,2024-10-07,1,,,,,ハヤアシ,0
1600,6170001018325,新規,0,2024-10-07,2024-10-07,株式会社インクル,,株式会社,和歌山県,和歌山市,中６４９－３フォレストヒルズふじと台２０２号,,30,201,6408451,,,,,,,2024-10-07,1,,,,,インクル,0
1601,6170001018333,新規,0,2024-10-07,2024-10-07,株式会社ａｎｄｉ,,株式会社,和歌山県,紀の川市,豊田１６３番地３,,30,208,6496445,,,,,,,2024-10-07,1,,,,,アンドアイ,0
1604,6180001163475,新規,0,2024-10-07,2024-10-07,株式会社ＴＨＩＲＤ　ＰＬＡＣＥ,,株式会社,愛知県,名古屋市中村区,名駅３丁目４番１０号アルティメイト名駅１ｓｔ２階,,23,105,4500002,,,,,,,2024-10-07,1,,,,,サードプレイス,0
1605,6180001163509,新規,0,2024-10-07,2024-10-07,一幸ホールディングス株式会社,,株式会社,愛知県,一宮市,浅野字中左６６番地,,23,203,4910871,,,,,,,2024-10-07,1,,,,,イッコウホールディングス,0
1606,6180001163525,新規,0,2024-10-07,2024-10-07,ＫＩＴＯ加工販売株式会社,,株式会社,愛知県,春日井市,東神明町２丁目８番地１,,23,206,4870021,,,,,,,2024-10-07,1,,,,,キトーカコウハンバイ,0
1607,6180001163566,新規,0,2024-10-07,2024-10-07,株式会社ＢＥＳＴＲＵＣＫ,,株式会社,愛知県,名古屋市中川区,八熊１丁目１１番１０号,,23,110,4540013,,,,,,,2024-10-07,1,,,,,ベストラック,0
1608,6180001163574,新規,0,2024-10-07,2024-10-07,株式会社ＫＧホールディングス,,株式会社,愛知県,名古屋市中区,丸の内２丁目１２番１３号丸の内プラザビル４階,,23,106,4600002,,,,,,,2024-10-07,1,,,,,ケージーホールディングス,0
1609,6180001163590,新規,0,2024-10-07,2024-10-07,株式会社セレクト久宝,,株式会社,愛知県,あま市,森１丁目１０番地１８,,23,237,4901107,,,,,,,2024-10-07,1,,,,,セレクトクホウ,0
1610,6180001163608,新規,0,2024-10-07,2024-10-07,株式会社アイカタマッチング,,株式会社,愛知県,名古屋市中村区,名駅４丁目２４番５号第２森ビル４０１,,23,105,4500002,,,,,,,2024-10-07,1,,,,,アイカタマッチング,0
1611,6180001163616,新規,0,2024-10-07,2024-10-07,株式会社華吹,,株式会社,愛知県,名古屋市守山区,白山２丁目９０１番地クラージュ９０１Ｓ棟２０１号,,23,113,4630032,,,,,,,2024-10-07,1,,,,,ハナカゼ,0
1626,6220001026248,新規,0,2024-10-07,2024-10-07,株式会社ＮＥＸＹＺ．北陸,,株式会社,石川県,金沢市,西念１丁目１番３号,,17,201,9200024,,,,,,,2024-10-07,1,,,,,ネクシーズホクリク,0
1635,6240001063909,新規,0,2024-10-07,2024-10-07,株式会社ｅｔｅｒｎａｌ,,株式会社,広島県,広島市佐伯区,美鈴が丘西２丁目８番１６号,,34,108,7315114,,,,,,,2024-10-07,1,,,,,エターナル,0
1645,6260005011408,新規,0,2024-10-07,2024-10-07,一般社団法人にーたす,,その他の設立登記法人,岡山県,都窪郡早島町,若宮８番地２０,,33,423,7010302,,,,,,,2024-10-07,1,,,,,ニータス,0
1648,6290001107438,新規,0,2024-10-07,2024-10-07,倖ＴｅＸ株式会社,,株式会社,福岡県,福岡市城南区,東油山４丁目７番２－１２０１号,,40,136,8140155,,,,,,,2024-10-07,1,,,,,コウテック,0
1649,6290001107462,新規,0,2024-10-07,2024-10-07,株式会社Ｖｉｓｉｏｎ,,株式会社,福岡県,八女郡広川町,大字太田１１６６番地１９,,40,544,8340114,,,,,,,2024-10-07,1,,,,,ビジョン,0
1651,6290801030913,新規,0,2024-10-07,2024-10-07,株式会社Ｍ‐ＣＲＡＦＴ,,株式会社,福岡県,北九州市門司区,下馬寄３番６－１０６号,,40,101,8000051,,,,,,,2024-10-07,1,,,,,エムクラフト,0
1656,6320003004489,新規,0,2024-10-07,2024-10-07,合同会社鷹富士,,合同会社,大分県,豊後大野市,三重町市場１１６４番地２,,44,212,8797131,,,,,,,2024-10-07,1,,,,,タカフジ,0
1659,6330001032524,新規,0,2024-10-07,2024-10-07,普郎特電子株式会社,,株式会社,熊本県,菊池郡大津町,大字平川１２７７番地１,,43,403,8691231,,,,,,,2024-10-07,1,,,,,プロウトクデンシ,0
1665,6350003004759,新規,0,2024-10-07,2024-10-07,トラストライセンス合同会社,,合同会社,宮崎県,宮崎市,霧島１丁目４３番地,,45,201,8800032,,,,,,,2024-10-07,1,,,,,トラストライセンス,0
1667,6360001034237,新規,0,2024-10-07,2024-10-07,アフガンジャパン株式会社,,株式会社,沖縄県,中頭郡西原町,字千原１４９番地１１丸盛アパートＩ号室,00136542,47,329,9030129,,,,,,,2024-10-07,1,,,,,アフガンジャパン,0
1673,6400001016809,新規,0,2024-10-07,2024-10-07,株式会社スミカ,,株式会社,岩手県,花巻市,西大通り２丁目５番２７号,,03,205,0250091,,,,,,,2024-10-07,1,,,,,スミカ,0
1682,6430001092789,新規,0,2024-10-07,2024-10-07,株式会社ＢＥＮＥＦＩＳ　ＣＡＲＥ,,株式会社,北海道,札幌市中央区,円山西町９丁目３－８,,01,101,0640944,,,,,,,2024-10-07,1,,,,,ベネフィスケア,0
1683,6430001092830,新規,0,2024-10-07,2024-10-07,Ｖｏｌａｎｔｅ株式会社,,株式会社,北海道,札幌市中央区,南二条西１０丁目１番地,,01,101,0600062,,,,,,,2024-10-07,1,,,,,ボランテ,0
1689,6430003016853,新規,0,2024-10-07,2024-10-07,合同会社Ｃ．Ｏ．Ｉ．Ｆ,,合同会社,北海道,札幌市中央区,宮の森二条１６丁目９番１７号,,01,101,0640952,,,,,,,2024-10-07,1,,,,,シーオーアイエフ,0
1690,6440001009503,新規,0,2024-10-07,2024-10-07,株式会社エムアールティー,,株式会社,北海道,函館市,本町２番１１号,,01,202,0400011,,,,,,,2024-10-07,1,,,,,エムアールティー,0
1694,6490001010877,新規,0,2024-10-07,2024-10-07,株式会社ＷＡＳＥＮＯ,,株式会社,高知県,高知市,長浜３４５８番地１,,39,201,7810270,,,,,,,2024-10-07,1,,,,,ワセノ,0
1700,6700150127426,新規,0,2024-10-07,2024-10-07,ＡＭＩＬＡ　ＭＯＴＯＲＳ,,外国会社等,神奈川県,綾瀬市,大上６丁目７－１６ミオンさがみ野Ａ棟２０４,,14,218,2521104,スリランカ民主社会主義共和国、カランデニヤ、セナティガマ、２７番,,,,,,2024-10-07,1,,,,,アミラモータース,0
1710,7010001248614,新規,0,2024-10-07,2024-10-07,ストロンググループジャパン株式会社,,株式会社,東京都,文京区,千石３丁目３番３号千石明穂ハイツ１０４,,13,105,1120011,,,,,,,2024-10-07,1,,,,,ストロンググループジャパン,0
1711,7010001248812,新規,0,2024-10-07,2024-10-07,株式会社ヒールベネフィット,,株式会社,東京都,中央区,日本橋兜町１７番１号日本橋ロイヤルプラザ７０６,,13,102,1030026,,,,,,,2024-10-07,1,,,,,ヒールベネフィット,0
1713,7010003045118,新規,0,2024-10-07,2024-10-07,ＡＭＴアセット２号合同会社,,合同会社,東京都,文京区,白山２丁目２３番７号,,13,105,1120001,,,,,,,2024-10-07,1,,,,,エーエムティーアセットニゴウ,0
1717,7010401185564,新規,0,2024-10-07,2024-10-07,株式会社ＳＨＩＲＯｓｔｙｌｅ,,株式会社,東京都,港区,南青山２丁目２番１５号ウィン青山１２１４号,,13,103,1070062,,,,,,,2024-10-07,1,,,,,,0
1719,7010403033580,新規,0,2024-10-07,2024-10-07,ＮＯ　ＣＨＯＩＣＥ合同会社,,合同会社,東京都,港区,北青山２丁目７－２０－２Ｆ,,13,103,1070061,,,,,,,2024-10-07,1,,,,,ノーチョイス,0
1721,7010501052994,新規,0,2024-10-07,2024-10-07,株式会社ＦＡＲＭＩ　ＪＡＰＡＮ,,株式会社,東京都,台東区,上野３丁目１６番２号,,13,106,1100005,,,,,,,2024-10-07,1,,,,,ファーミジャパン,0
1722,7010501053019,新規,0,2024-10-07,2024-10-07,アースノード株式会社,,株式会社,東京都,台東区,東上野６丁目１－１７東上野中央ビル７０２号,,13,106,1100015,,,,,,,2024-10-07,1,,,,,アースノード,0
1723,7010503007591,新規,0,2024-10-07,2024-10-07,合同会社Ｍｅｌａｎｇｅ,,合同会社,東京都,台東区,台東１丁目１２番２号,,13,106,1100016,,,,,,,2024-10-07,1,,,,,メランジ,0
1726,7010601066036,新規,0,2024-10-07,2024-10-07,パインフォレスト株式会社,,株式会社,東京都,江東区,深川１丁目１番２号協和ビル２階２５号室,,13,108,1350033,,,,,,,2024-10-07,1,,,,,パインフォレスト,0
1727,7010801035435,新規,0,2024-10-07,2024-10-07,株式会社ル・エーグル,,株式会社,東京都,大田区,山王１丁目３５番１７号,,13,111,1430023,,,,,,,2024-10-07,1,,,,,ルエーグル,0
1728,7010801035443,新規,0,2024-10-07,2024-10-07,株式会社琳羽グリーンサービス商事,,株式会社,東京都,大田区,京浜島２丁目３番５号,,13,111,1430003,,,,,,,2024-10-07,1,,,,,レイワグリーンサービス,0
1732,7010901056067,新規,0,2024-10-07,2024-10-07,株式会社青山ＨＲエージェント,,株式会社,東京都,世田谷区,上野毛１丁目２９番９号,,13,112,1580093,,,,,,,2024-10-07,1,,,,,アオヤマエイチアールエイジェント,0
1733,7010901056075,新規,0,2024-10-07,2024-10-07,株式会社Ｅデザイン,,株式会社,東京都,世田谷区,代田１丁目３番４－１０８号,,13,112,1550033,,,,,,,2024-10-07,1,,,,,イーデザイン,0
1737,7011001164966,新規,0,2024-10-07,2024-10-07,日本Ａｉサービス株式会社,,株式会社,東京都,渋谷区,道玄坂１丁目１０番８号渋谷道玄坂東急ビル２Ｆ－Ｃ,,13,113,1500043,,,,,,,2024-10-07,1,,,,,ニホンエーアイサービス,0
1738,7011001165031,新規,0,2024-10-07,2024-10-07,株式会社ｅｉｍｏ,,株式会社,東京都,渋谷区,大山町４５番１８号,,13,113,1510065,,,,,,,2024-10-07,1,,,,,エイモ,0
1739,7011001165056,新規,0,2024-10-07,2024-10-07,ＨＭ株式会社,,株式会社,東京都,渋谷区,道玄坂１丁目１０番８号渋谷道玄坂東急ビル２Ｆ－Ｃ,,13,113,1500043,,,,,,,2024-10-07,1,,,,,エイチエム,0
1744,7011401026477,新規,0,2024-10-07,2024-10-07,株式会社Ｎｉｃｅ　Ｌｉｖｉｎｇ,,株式会社,東京都,板橋区,大山金井町１５番５－１０２号,,13,119,1730024,,,,,,,2024-10-07,1,,,,,ナイスリビング,0
1746,7011403004522,新規,0,2024-10-07,2024-10-07,合同会社オフィスきのこ,,合同会社,東京都,板橋区,東新町１丁目１３番１１号,,13,119,1740074,,,,,,,2024-10-07,1,,,,,オフィスキノコ,0
1747,7011503006253,新規,0,2024-10-07,2024-10-07,合同会社Ｉ．Ｓ．Ｃ,,合同会社,東京都,北区,赤羽南１丁目６番８号コンチネンタルプラザ赤羽壱番館２０２号室,,13,117,1150044,,,,,,,2024-10-07,1,,,,,アイエスシー,0
1749,7011601028100,新規,0,2024-10-07,2024-10-07,株式会社アドルス,,株式会社,東京都,練馬区,田柄４丁目４６番６号,,13,120,1790073,,,,,,,2024-10-07,1,,,,,アドルス,0
1752,7012303002054,新規,0,2024-10-07,2024-10-07,合同会社Ｆｒｉｌｌ,,合同会社,東京都,町田市,木曽東３丁目２０番２号,,13,209,1940036,,,,,,,2024-10-07,1,,,,,フリル,0
1755,7012701018478,新規,0,2024-10-07,2024-10-07,株式会社和み,,株式会社,東京都,西東京市,ひばりが丘北３丁目３－２９－４０２号,,13,229,2020002,,,,,,,2024-10-07,1,,,,,ナゴミ,0
1758,7013301053171,新規,0,2024-10-07,2024-10-07,アルボンド株式会社,,株式会社,東京都,豊島区,千早１丁目２２番４号,,13,116,1710044,,,,,,,2024-10-07,1,,,,,アルボンド,0
1764,7020001159397,新規,0,2024-10-07,2024-10-07,株式会社Ｏｎ　Ｔｈｅ　Ｗｉｎｇ,,株式会社,神奈川県,川崎市高津区,二子４丁目３番２号２Ｆ,,14,134,2130002,,,,,,,2024-10-07,1,,,,,オンザウイング,0
1765,7020001159422,新規,0,2024-10-07,2024-10-07,株式会社スキット,,株式会社,神奈川県,川崎市高津区,梶ケ谷３丁目５－１３,,14,134,2130015,,,,,,,2024-10-07,1,,,,,スキット,0
1766,7020001159439,新規,0,2024-10-07,2024-10-07,鴻通株式会社,,株式会社,神奈川県,横浜市磯子区,森４丁目１１番５号,,14,107,2350023,,,,,,,2024-10-07,1,,,,,コウツウ,0
1770,7021001083216,新規,0,2024-10-07,2024-10-07,株式会社ＹＥＳ　Ｏｄａｗａｒａ,,株式会社,神奈川県,小田原市,城山１丁目８－３３,,14,206,2500045,,,,,,,2024-10-07,1,,,,,イエスオダワラ,0
1771,7021001083422,新規,0,2024-10-07,2024-10-07,京浜光膜株式会社,,株式会社,神奈川県,秦野市,堀山下２４番地２０,,14,211,2591304,,,,,,,2024-10-07,1,,,,,ケイヒンコウマク,0
1772,7021001083430,新規,0,2024-10-07,2024-10-07,株式会社サン機工,,株式会社,神奈川県,横須賀市,二葉２丁目３６番１２号サンヒルズ３０２,,14,201,2390814,,,,,,,2024-10-07,1,,,,,サンキコウ,0
1784,7040001135677,新規,0,2024-10-07,2024-10-07,株式会社万田,,株式会社,千葉県,柏市,小青田３丁目１９番地１４,,12,217,2770803,,,,,,,2024-10-07,1,,,,,マンタ,0
1785,7040001135702,新規,0,2024-10-07,2024-10-07,株式会社Ｙｕクリーン,,株式会社,千葉県,千葉市若葉区,小倉町１７１２番地２５,,12,104,2640007,,,,,,,2024-10-07,1,,,,,ユウクリーン,0
1786,7040001135719,新規,0,2024-10-07,2024-10-07,株式会社川浪事務所,,株式会社,千葉県,船橋市,海神１丁目１３番８－３０２号,,12,204,2730021,,,,,,,2024-10-07,1,,,,,カワナミジムショ,0
1787,7040003025942,新規,0,2024-10-07,2024-10-07,合同会社ラッキーフィールド,,合同会社,千葉県,千葉市中央区,富士見２丁目１２番８号さくら井屋ビル１階Ｂ室,,12,101,2600015,,,,,,,2024-10-07,1,,,,,ラッキーフィールド,0
1791,7070001042243,新規,0,2024-10-07,2024-10-07,ＳＡＹＡｃｏｒｐｏｒａｔｉｏｎたいせいファーム株式会社,,株式会社,群馬県,高崎市,下小塙町４５９番地１,,10,202,3700076,,,,,,,2024-10-07,1,,,,,サヤコーポレーションタイセイファーム,0
1807,7100003007802,新規,0,2024-10-07,2024-10-07,ＬＦＴＲＺ合同会社,,合同会社,長野県,佐久市,取出町３７０番地４,,20,217,3850043,,,,,,,2024-10-07,1,,,,,ラフトリズ,0
1808,7110001038740,新規,0,2024-10-07,2024-10-07,ビーキューム株式会社,,株式会社,新潟県,新潟市東区,紫竹７丁目１５番７号,,15,102,9500864,,,,,,,2024-10-07,1,,,,,ビーキューム,0
1809,7110001038749,新規,0,2024-10-07,2024-10-07,株式会社Ｃ＆Ｄ,,株式会社,新潟県,上越市,北城町２丁目１２番１０号,,15,222,9430824,,,,,,,2024-10-07,1,,,,,シーアンドディー,0
1810,7110001038757,新規,0,2024-10-07,2024-10-07,捧商事株式会社,,株式会社,新潟県,三条市,北入蔵３丁目１１番２５－４号,,15,204,9550053,,,,,,,2024-10-07,1,,,,,ササゲショウジ,0
1822,7120001269038,新規,0,2024-10-07,2024-10-07,株式会社花穏,,株式会社,大阪府,枚方市,星丘３丁目２２番３５号,,27,210,5730013,,,,,,,2024-10-07,1,,,,,カオン,0
1823,7120001269054,新規,0,2024-10-07,2024-10-07,天程国際株式会社,,株式会社,大阪府,大阪市生野区,新今里６丁目３番１０号、２０２号室,,27,116,5440001,,,,,,,2024-10-07,1,,,,,テンテイコクサイ,0
1824,7120001269062,新規,0,2024-10-07,2024-10-07,ＳＡＫＵＲＡＩＳＥグループホールディングス株式会社,,株式会社,大阪府,大阪市中央区,南船場３丁目２番２２号,,27,128,5420081,,,,,,,2024-10-07,1,,,,,サクライズグループホールディングス,0
1834,7120101070329,新規,0,2024-10-07,2024-10-07,ＮＩＫＯ株式会社,,株式会社,大阪府,泉南郡田尻町,吉見１０１２－１４０,,27,362,5980092,,,,,,,2024-10-07,1,,,,,ニコ,0
1843,7122001038505,新規,0,2024-10-07,2024-10-07,カタヤマ株式会社,,株式会社,大阪府,八尾市,水越３丁目１０９番３,,27,212,5810856,,,,,,,2024-10-07,1,,,,,カタヤマ,0
1845,7130005017202,新規,0,2024-10-07,2024-10-07,医療法人桃樹会,,その他の設立登記法人,京都府,京都市南区,久世中久世町３丁目５５番地,,26,107,6018213,,,,,,,2024-10-07,1,,,,,トウジュカイ,0
1849,7140001135980,新規,0,2024-10-07,2024-10-07,株式会社トラステック,,株式会社,兵庫県,神戸市兵庫区,矢部町２６番１５－１号,,28,105,6520005,,,,,,,2024-10-07,1,,,,,トラステック,0
1850,7140001135989,新規,0,2024-10-07,2024-10-07,株式会社星和工業,,株式会社,兵庫県,神戸市灘区,下河原通２丁目１－６,,28,102,6570045,,,,,,,2024-10-07,1,,,,,セイワコウギョウ,0
1851,7140001136005,新規,0,2024-10-07,2024-10-07,株式会社マウンテンビレッジ,,株式会社,兵庫県,神戸市中央区,中山手通７丁目１４番１－１５２２号,,28,110,6500004,,,,,,,2024-10-07,1,,,,,マウンテンビレッジ,0
1852,7140001136013,新規,0,2024-10-07,2024-10-07,株式会社Ｃｒａｃｈｅｆ,,株式会社,兵庫県,神戸市北区,道場町生野１１７２番地の６４６,,28,109,6511503,,,,,,,2024-10-07,1,,,,,クラシェフ,0
1868,7180001163508,新規,0,2024-10-07,2024-10-07,株式会社柴田ステンレス鈑金,,株式会社,愛知県,名古屋市中川区,大畑町２丁目９０番地,,23,110,4540843,,,,,,,2024-10-07,1,,,,,シバタステンレスバンキン,0
1869,7180001163516,新規,0,2024-10-07,2024-10-07,株式会社テックセットサポート,,株式会社,愛知県,名古屋市北区,杉栄町３丁目６４番地の４,,23,103,4620829,,,,,,,2024-10-07,1,,,,,テックセットサポート,0
1870,7180001163532,新規,0,2024-10-07,2024-10-07,Ｐｈｏｅｎｉｘ・Ｉｎｖｅｓｔｍｅｎｔ株式会社,,株式会社,愛知県,名古屋市西区,大野木４丁目１６３番地の２,,23,104,4520803,,,,,,,2024-10-07,1,,,,,フェニックスインベストメント,0
1871,7180001163540,新規,0,2024-10-07,2024-10-07,株式会社Ｒｅｎｔ　Ｔｏ　Ｏｗｎ,,株式会社,愛知県,名古屋市中村区,太閤１丁目１９番６２号,,23,105,4530801,,,,,,,2024-10-07,1,,,,,レントトゥオウン,0
1872,7180001163607,新規,0,2024-10-07,2024-10-07,株式会社Ｄｅｓｔｉｎａｔｉｏｎ,,株式会社,愛知県,名古屋市北区,上飯田南町５丁目２０番地レグノ・アレッタ１０６号,,23,103,4620804,,,,,,,2024-10-07,1,,,,,ディスティネーション,0
1876,7180003027438,新規,0,2024-10-07,2024-10-07,タイコウラック合同会社,,合同会社,愛知県,名古屋市中村区,中村町字加藤屋敷３５番地,,23,105,4530053,,,,,,,2024-10-07,1,,,,,タイコウラック,0
1877,7180003027446,新規,0,2024-10-07,2024-10-07,水野コンサルティング合同会社,,合同会社,愛知県,名古屋市守山区,金屋２丁目６１番地,,23,113,4630072,,,,,,,2024-10-07,1,,,,,ミズノコンサルティング,0
1878,7180003027470,新規,0,2024-10-07,2024-10-07,合同会社ヴォルテックス,,合同会社,愛知県,名古屋市天白区,高島１丁目９０２番地,,23,116,4680022,,,,,,,2024-10-07,1,,,,,ヴォルテックスヴォルテックス,0
1881,7180301039119,新規,0,2024-10-07,2024-10-07,株式会社ＩＭＩ　ＳＩＳ,,株式会社,愛知県,刈谷市,若松町５丁目３７番地２,,23,210,4480858,,,,,,,2024-10-07,1,,,,,アイエムアイシス,0
1885,7200001043013,新規,0,2024-10-07,2024-10-07,株式会社フジ倖,,株式会社,岐阜県,可児市,土田字大道１０７５番地,,21,214,5090206,,,,,,,2024-10-07,1,,,,,フジコウ,0
1899,7250003003571,新規,0,2024-10-07,2024-10-07,ＨＭＤアセットマネジメント合同会社,,合同会社,山口県,下関市,梶栗町５丁目８番２４号,,35,201,7596614,,,,,,,2024-10-07,1,,,,,エイチエムディアセットマネジメント,0
1907,7290001107379,新規,0,2024-10-07,2024-10-07,株式会社ＩＣ,,株式会社,福岡県,福岡市南区,市崎１丁目１７番２０号オープンレジデンシア平尾市崎３０２,,40,134,8150084,,,,,,,2024-10-07,1,,,,,アイシー,0
1908,7290001107404,新規,0,2024-10-07,2024-10-07,株式会社ａｄｄｉｓｓｉｍｏ,,株式会社,福岡県,大野城市,筒井１丁目８－３５－１Ｇ‐ＳｍａｒｔＡＩ１０２,,40,219,8160931,,,,,,,2024-10-07,1,,,,,アディッシモ,0
1909,7290001107437,新規,0,2024-10-07,2024-10-07,イルーミノー株式会社,,株式会社,福岡県,福岡市博多区,博多駅南３丁目１５番２７号マルセン博多ビル３０５号,,40,132,8120016,,,,,,,2024-10-07,1,,,,,イルーミノー,0
1910,7290001107453,新規,0,2024-10-07,2024-10-07,株式会社Ｓｈｉｚｕｍａｒｉ,,株式会社,福岡県,福岡市中央区,薬院２丁目１７番２３－１２０１号,,40,133,8100022,,,,,,,2024-10-07,1,,,,,シズマリ,0
1911,7290001107536,新規,0,2024-10-07,2024-10-07,ツキススメ株式会社,,株式会社,福岡県,糸島市,多久５０７番地８,,40,230,8191134,,,,,,,2024-10-07,1,,,,,ツキススメ,0
1914,7290003015852,新規,0,2024-10-07,2024-10-07,合同会社エムエーキャスト,,合同会社,福岡県,福岡市博多区,博多駅前３丁目２３番２０－３０６,,40,132,8120011,,,,,,,2024-10-07,1,,,,,エムエーキャスト,0
1915,7290003015869,新規,0,2024-10-07,2024-10-07,合同会社Ｈ．ＬＩＮＫ,,合同会社,福岡県,糟屋郡宇美町,桜原２丁目２０番１１号,,40,341,8112109,,,,,,,2024-10-07,1,,,,,エイチリンク,0
1916,7290003015902,新規,0,2024-10-07,2024-10-07,合同会社昇建工,,合同会社,福岡県,春日市,須玖北９丁目１２９ロイヤルオーク１－１０１号室,,40,218,8160864,,,,,,,2024-10-07,1,,,,,ショウケンコウ,0
1920,7300003002188,新規,0,2024-10-07,2024-10-07,合同会社ＳＥＩＫＯＵ,,合同会社,佐賀県,佐賀市,東与賀町大字飯盛９２９番地１０,,41,201,8402223,,,,,,,2024-10-07,1,,,,,セイコウ,0
1924,7330001032523,新規,0,2024-10-07,2024-10-07,株式会社木匠・井元建築,,株式会社,熊本県,宇土市,松山町９６２番地２,,43,211,8690416,,,,,,,2024-10-07,1,,,,,キショウイモトケンチク,0
1926,7340001026846,新規,0,2024-10-07,2024-10-07,株式会社民間救急パラメディック,,株式会社,鹿児島県,日置市,伊集院町妙円寺３丁目１２番地３,,46,216,8992503,,,,,,,2024-10-07,1,,,,,ミンカンキュウキュウパラメディック,0
1928,7350001019213,新規,0,2024-10-07,2024-10-07,株式会社フォワード,,株式会社,宮崎県,東臼杵郡門川町,加草２丁目１２４番地,,45,421,8890603,,,,,,,2024-10-07,1,,,,,フォワード,0
1931,7360001034285,新規,0,2024-10-07,2024-10-07,株式会社オキフド,,株式会社,沖縄県,糸満市,字兼城４７６番地２フェリスコート３階,,47,210,9010303,,,,,,,2024-10-07,1,,,,,オキフド,0
1934,7360003014343,新規,0,2024-10-07,2024-10-07,合同会社ＮＫＤ,,合同会社,沖縄県,豊見城市,字上田１３１番地,,47,212,9010243,,,,,,,2024-10-07,1,,,,,エヌケーディ,0
1935,7370001051783,新規,0,2024-10-07,2024-10-07,株式会社サンカント,,株式会社,宮城県,仙台市宮城野区,平成１丁目２１番１号大市ビル１Ｆ,,04,102,9830037,,,,,,,2024-10-07,1,,,,,サンカント,0
1937,7380005012871,新規,0,2024-10-07,2024-10-07,医療法人邦静会,,その他の設立登記法人,福島県,郡山市,富久山町福原字鎌田２４番地の８,,07,203,9638061,,,,,,,2024-10-07,1,,,,,ホウセイカイ,0
1942,7430001092813,新規,0,2024-10-07,2024-10-07,株式会社ロボアナライズ,,株式会社,北海道,札幌市中央区,南一条西１６丁目１番地３２３春野ビル３Ｆ,,01,101,0600061,,,,,,,2024-10-07,1,,,,,ロボアナライズ,0
1945,7460303000842,新規,0,2024-10-07,2024-10-07,合同会社Ｏ‐Ｐｌａｎｎｉｎｇ,,合同会社,北海道,北見市,山下町１丁目１番１０‐３０１号,,01,208,0900037,,,,,,,2024-10-07,1,,,,,オープランニング,0
1946,7470001020407,新規,0,2024-10-07,2024-10-07,株式会社ＮＥＸＹＺ．四国,,株式会社,香川県,高松市,サンポート２番１号,,37,201,7600019,,,,,,,2024-10-07,1,,,,,,0
1954,7700150127425,新規,0,2024-10-07,2024-10-07,ＹＩＦＡＮＧ　ＧＬＯＢＡＬ　ＣＯ．，ＬＴＤ,,外国会社等,,,,,,,,Ｖｉｓｔｒａ　Ｃｏｒｐｏｒａｔｅ　Ｓｅｒｖｉｃｅｓ　Ｃｅｎｔｒｅ，Ｇｒｏｕｎｄ　Ｆｌｏｏｒ　ＮＰＦ　Ｂｕｉｌｄｉｎｇ　Ｂｅａｃｈ　Ｒｏａｄ，Ａｐｉａ，ｓａｍｏａ,,,,,,2024-10-07,1,,,,,イーフアングローバル,0
1965,8010001248753,新規,0,2024-10-07,2024-10-07,ＧＲＯＯＴ株式会社,,株式会社,東京都,中央区,銀座１丁目１２ー４ー７階,,13,102,1040061,,,,,,,2024-10-07,1,,,,,グルート,0
1966,8010001248761,新規,0,2024-10-07,2024-10-07,金池株式会社,,株式会社,東京都,中央区,銀座５丁目１２番６号ＣＵＲＡＧＩＮＺＡ・Ｂ１階,,13,102,1040061,,,,,,,2024-10-07,1,,,,,カナイケ,0
1967,8010001248778,新規,0,2024-10-07,2024-10-07,株式会社Ｃｏｒｓａ,,株式会社,東京都,千代田区,平河町１丁目３番６号ＢＩＺＭＡＲＫＳ麹町,,13,101,1020093,,,,,,,2024-10-07,1,,,,,コルサ,0
1970,8010003045050,新規,0,2024-10-07,2024-10-07,ＡＡＪ　ＪＲＥ　Ｅ　Ｐａｔ３合同会社,,合同会社,東京都,千代田区,永田町２丁目１７番５号,,13,101,1000014,,,,,,,2024-10-07,1,,,,,エーエージェージェーアールイーイーパットスリー,0
1971,8010003045075,新規,0,2024-10-07,2024-10-07,Ｑｕａｎｔｕｍ５合同会社,,合同会社,東京都,千代田区,五番町１２番地７－２０４３,,13,101,1020076,,,,,,,2024-10-07,1,,,,,クオンタムファイブ,0
1972,8010003045100,新規,0,2024-10-07,2024-10-07,惣一商会合同会社,,合同会社,東京都,中央区,銀座１丁目１２番４号Ｎ＆ＥＢＬＤ．７階,,13,102,1040061,,,,,,,2024-10-07,1,,,,,ソウイチショウカイ,0
1973,8010003045117,新規,0,2024-10-07,2024-10-07,ＴＨＫアセット２号合同会社,,合同会社,東京都,中央区,銀座３丁目５番１２号,,13,102,1040061,,,,,,,2024-10-07,1,,,,,ティーエイチケーアセットニゴウ,0
1974,8010003045125,新規,0,2024-10-07,2024-10-07,合同会社ケストレルエーアイ,,合同会社,東京都,文京区,本郷２丁目１９番７号,,13,105,1130033,,,,,,,2024-10-07,1,,,,,ケストレルエーアイ,0
1975,8010005038878,新規,0,2024-10-07,2024-10-07,ＴＯＫＹＯ国際行政書士法人,,その他の設立登記法人,東京都,中央区,築地７丁目７番５号岡田ビル３階Ｂ,,13,102,1040045,,,,,,,2024-10-07,1,,,,,トウキョウコクサイ,0
1976,8010005038928,新規,0,2024-10-07,2024-10-07,ボナチタ一般社団法人,,その他の設立登記法人,東京都,千代田区,丸の内２丁目１番１号,,13,101,1000005,,,,,,,2024-10-07,1,,,,,ボナチタ,0
1981,8010401185472,新規,0,2024-10-07,2024-10-07,株式会社ＫＡＲＩＮＯ,,株式会社,東京都,港区,北青山１丁目３番１号アールキューブ青山３階,,13,103,1070061,,,,,,,2024-10-07,1,,,,,カリーノ,0
1982,8010401185596,新規,0,2024-10-07,2024-10-07,株式会社ＣＰＳ　ＪＡＰＡＮ,,株式会社,東京都,港区,新橋６丁目５番４－７１２号,,13,103,1050004,,,,,,,2024-10-07,1,,,,,シーピーエスジャパン,0
1983,8010403033522,新規,0,2024-10-07,2024-10-07,Ｋａｎａｇａｗａ　ＤＣ２合同会社,,合同会社,東京都,港区,西新橋１丁目２２番５号６階,,13,103,1050003,,,,,,,2024-10-07,1,,,,,カナガワディーシーツー,0
1988,8010701046597,新規,0,2024-10-07,2024-10-07,株式会社Ｂ＆Ｂグローバル,,株式会社,東京都,品川区,平塚１丁目１－２キクエイパレス戸越３０２号,,13,109,1420051,,,,,,,2024-10-07,1,,,,,,0
1989,8010701046630,新規,0,2024-10-07,2024-10-07,株式会社オノックスホールディングス,,株式会社,東京都,品川区,東五反田３丁目６番１９－４０１号,,13,109,1410022,,,,,,,2024-10-07,1,,,,,オノックスホールディングス,0
1998,8010801035434,新規,0,2024-10-07,2024-10-07,株式会社Ｍｅｎｅｓ,,株式会社,東京都,大田区,西糀谷４丁目１８番８号,,13,111,1440034,,,,,,,2024-10-07,1,,,,,メネス,0
2003,8010903009402,新規,0,2024-10-07,2024-10-07,Ｍａｉｎ．Ｎ合同会社,,合同会社,東京都,世田谷区,中町４丁目１７番２２号－２,,13,112,1580091,,,,,,,2024-10-07,1,,,,,メインドットエヌ,0
2012,8011001164957,新規,0,2024-10-07,2024-10-07,株式会社てっぺん鮨,,株式会社,東京都,渋谷区,宇田川町３７－１３下田ビルＢ１,,13,113,1500042,,,,,,,2024-10-07,1,,,,,テッペンズシ,0
2015,8011003020134,新規,0,2024-10-07,2024-10-07,合同会社ＡＩここから,,合同会社,東京都,目黒区,緑が丘１丁目１５番４号,,13,110,1520034,,,,,,,2024-10-07,1,,,,,エーアイココカラ,0
2019,8011103014969,新規,0,2024-10-07,2024-10-07,合同会社ＦＲ,,合同会社,東京都,新宿区,西新宿３丁目３番１３号西新宿水間ビル２Ｆ,,13,104,1600023,,,,,,,2024-10-07,1,,,,,エフアール,0
2020,8011103014993,新規,0,2024-10-07,2024-10-07,Ｌｅｅｗａｙ合同会社,,合同会社,東京都,新宿区,新宿２丁目１４番４,,13,104,1600022,,,,,,,2024-10-07,1,,,,,リーウェイ,0
2026,8011401026476,新規,0,2024-10-07,2024-10-07,株式会社ＧＯＴＴＳＵ,,株式会社,東京都,板橋区,板橋１丁目１１番８－１００３号,,13,119,1730004,,,,,,,2024-10-07,1,,,,,ゴッツ,0
2027,8011401026484,新規,0,2024-10-07,2024-10-07,株式会社ギルドホールディングス,,株式会社,東京都,板橋区,熊野町２９番８号,,13,119,1730025,,,,,,,2024-10-07,1,,,,,ギルドホールディングス,0
2028,8011403004521,新規,0,2024-10-07,2024-10-07,新田光学合同会社,,合同会社,東京都,板橋区,大谷口２丁目６０番２号,,13,119,1730035,,,,,,,2024-10-07,1,,,,,ニッタコウガク,0
2029,8011601028099,新規,0,2024-10-07,2024-10-07,株式会社Ｅｉｗａ　Ｍｅｄｉａ,,株式会社,東京都,練馬区,高松４丁目２１番６号,,13,120,1790075,,,,,,,2024-10-07,1,,,,,エイワメディア,0
2041,8013301053179,新規,0,2024-10-07,2024-10-07,株式会社フロンティアホールディングス,,株式会社,東京都,豊島区,北大塚２丁目７番１１号,,13,116,1700004,,,,,,,2024-10-07,1,,,,,フロンティアホールディングス,0
2047,8020001159421,新規,0,2024-10-07,2024-10-07,株式会社ＭＡＫＥ,,株式会社,神奈川県,川崎市宮前区,東有馬３丁目１６番３号,,14,136,2160002,,,,,,,2024-10-07,1,,,,,メイク,0
2048,8020001159553,新規,0,2024-10-07,2024-10-07,株式会社ＪＰＮ２２,,株式会社,神奈川県,横浜市西区,浅間町１丁目４番３号ウィザードビル４０２,,14,103,2200072,,,,,,,2024-10-07,1,,,,,ジェーピーエヌニジュウイチ,0
2053,8020003026990,新規,0,2024-10-07,2024-10-07,合同会社ゼネオール,,合同会社,神奈川県,川崎市宮前区,神木２丁目２番地２,,14,136,2160032,,,,,,,2024-10-07,1,,,,,ゼネオール,0
2058,8021003015059,新規,0,2024-10-07,2024-10-07,合同会社ＩＣＨＩ,,合同会社,神奈川県,横須賀市,本町２丁目５－２ミマツビル４Ｆ,,14,201,2380041,,,,,,,2024-10-07,1,,,,,イチ,0
2059,8021003015075,新規,0,2024-10-07,2024-10-07,ミッドウエスト合同会社,,合同会社,神奈川県,藤沢市,川名１８１番地の１８セントラルウイングウエスト７１５,,14,205,2510015,,,,,,,2024-10-07,1,,,,,ミッドウエスト,0
2067,8030001162812,新規,0,2024-10-07,2024-10-07,ヒカル株式会社,,株式会社,埼玉県,吉川市,新栄１丁目２２番地７,,11,243,3420059,,,,,,,2024-10-07,1,,,,,ヒカル,0
2074,8040001135668,新規,0,2024-10-07,2024-10-07,株式会社Ｊ’ｓ,,株式会社,千葉県,千葉市中央区,寒川町３丁目１０９－１,,12,101,2600832,,,,,,,2024-10-07,1,,,,,ジェイズ,0
2075,8040001135676,新規,0,2024-10-07,2024-10-07,株式会社ＣＯＮＴＺ,,株式会社,千葉県,市川市,平田４丁目１番６－６号（ディアコート）,,12,203,2720031,,,,,,,2024-10-07,1,,,,,コンツ,0
2076,8040001135684,新規,0,2024-10-07,2024-10-07,株式会社ＭＩＧ,,株式会社,千葉県,白井市,南山２丁目５番２０号,,12,232,2701423,,,,,,,2024-10-07,1,,,,,ミッグ,0
2077,8040001135692,新規,0,2024-10-07,2024-10-07,インフォダイナミクス株式会社,,株式会社,千葉県,松戸市,松飛台６５番地の１２,,12,207,2702214,,,,,,,2024-10-07,1,,,,,インフォダイナミクス,0
2078,8040001135701,新規,0,2024-10-07,2024-10-07,株式会社アフターアップ,,株式会社,千葉県,柏市,柏２９７番地１,,12,217,2770005,,,,,,,2024-10-07,1,,,,,アフターアップ,0
2079,8040001135718,新規,0,2024-10-07,2024-10-07,株式会社柳田リディアトレーディング,00136539,株式会社,千葉県,千葉市若葉区,多部田町１１６３番地７,,12,104,2650066,,,,,,,2024-10-07,1,,,,,ヤナギダリディアトレーディング,0
2080,8040001135734,新規,0,2024-10-07,2024-10-07,株式会社アルファ,,株式会社,千葉県,佐倉市,宮前３丁目４番３号ヴィラ佐倉２Ｆ２Ｄ,,12,212,2850005,,,,,,,2024-10-07,1,,,,,アルファ,0
2085,8040003025925,新規,0,2024-10-07,2024-10-07,ＢＩＭＡＡ　ＬＡＮＫＡ合同会社,,合同会社,千葉県,千葉市若葉区,小倉町１７２７番地１,,12,104,2640007,,,,,,,2024-10-07,1,,,,,ビマアランカ,0
2086,8050001055493,新規,0,2024-10-07,2024-10-07,株式会社ＡＺ企画,,株式会社,茨城県,水戸市,全隈町８２７番地の２,,08,201,3114161,,,,,,,2024-10-07,1,,,,,エージーキカク,0
2090,8060003005272,新規,0,2024-10-07,2024-10-07,合同会社ケーエス,,合同会社,栃木県,小山市,大字乙女８３８番地２,,09,208,3290214,,,,,,,2024-10-07,1,,,,,ケーエス,0
2098,8080401027486,新規,0,2024-10-07,2024-10-07,株式会社ＭＳ浜松,,株式会社,静岡県,浜松市中央区,海老塚１丁目９番９０４号,,22,138,4328033,,,,,,,2024-10-07,1,,,,,エムエスハママツ,0
2101,8080405007674,新規,0,2024-10-07,2024-10-07,医療法人社団アポロレディースクリニック,,その他の設立登記法人,静岡県,浜松市中央区,上島４丁目３番５号,,22,138,4338122,,,,,,,2024-10-07,1,,,,,アポロレディースクリニック,0
2108,8090001018942,新規,0,2024-10-07,2024-10-07,株式会社カラーデザイン,,株式会社,山梨県,南都留郡富士河口湖町,船津５５３０番地２,,19,430,4010301,,,,,,,2024-10-07,1,,,,,カラーデザイン,0
2115,8110001038748,新規,0,2024-10-07,2024-10-07,平賀クリーニング株式会社,,株式会社,新潟県,南魚沼市,塩沢１１番地１１,,15,226,9496408,,,,,,,2024-10-07,1,,,,,ヒラガクリーニング,0
2116,8110001038756,新規,0,2024-10-07,2024-10-07,ミツヤ不動産株式会社,,株式会社,新潟県,新潟市東区,向陽２丁目２番８号ピアレストＭ２０２,,15,102,9500011,,,,,,,2024-10-07,1,,,,,ミツヤフドウサン,0
2120,8120001268971,新規,0,2024-10-07,2024-10-07,海日株式会社,,株式会社,大阪府,大阪市東住吉区,照ケ丘矢田２丁目６番１６号１Ｆ－Ｄ号,,27,121,5460021,,,,,,,2024-10-07,1,,,,,カイニチ,0
2121,8120001269029,新規,0,2024-10-07,2024-10-07,株式会社ハピラボ,,株式会社,大阪府,大阪市西区,北堀江３丁目７番４０－６０１号,,27,106,5500014,,,,,,,2024-10-07,1,,,,,ハピラボ,0
2122,8120001269045,新規,0,2024-10-07,2024-10-07,株式会社ユニヴＭＰ,,株式会社,大阪府,大阪市北区,西天満３丁目４番１５号,,27,127,5300047,,,,,,,2024-10-07,1,,,,,ユニヴエムピー,0
2123,8120001269078,新規,0,2024-10-07,2024-10-07,Ｓｔａｒａｙ　Ｊａｐａｎ株式会社,,株式会社,大阪府,大阪市中央区,本町４丁目３番９号本町サンケイビル１８Ｆ,,27,128,5410053,,,,,,,2024-10-07,1,,,,,スターレイジャパン,0
2124,8120001269103,新規,0,2024-10-07,2024-10-07,株式会社ＴＤＳＫ,,株式会社,大阪府,大阪市中央区,北浜３丁目１番２２号あいおいニッセイ同和損保・淀屋橋ビル７階,,27,128,5410041,,,,,,,2024-10-07,1,,,,,ティディエスケイ,0
2125,8120001269128,新規,0,2024-10-07,2024-10-07,株式会社ＮＥＸＰＲＯＡＤ,,株式会社,大阪府,大阪市都島区,友渕町１丁目６番４－７０９号,,27,102,5340016,,,,,,,2024-10-07,1,,,,,ネクスプロード,0
2133,8120101070377,新規,0,2024-10-07,2024-10-07,ロジプレイス株式会社,,株式会社,大阪府,泉佐野市,高松東１丁目１０番３７号泉佐野センタービルサウスコア２１－５階,,27,213,5980012,,,,,,,2024-10-07,1,,,,,ロジプレイス,0
2148,8130001078065,新規,0,2024-10-07,2024-10-07,株式会社ＯＮＣＥ　ＭＯＲＥ,,株式会社,京都府,京都市左京区,岡崎北御所町４８－２グランドメゾン岡崎１Ｆ,,26,103,6068336,,,,,,,2024-10-07,1,,,,,ワンスモア,0
2149,8130001078073,新規,0,2024-10-07,2024-10-07,株式会社ＦＪＴ,,株式会社,京都府,長岡京市,梅が丘３丁目４０番地２,,26,209,6170841,,,,,,,2024-10-07,1,,,,,エフジェイティ,0
2150,8130001078081,新規,0,2024-10-07,2024-10-07,株式会社ＭＹ　ＡＧＲＩ,,株式会社,京都府,舞鶴市,字平１１０６番地,,26,202,6250133,,,,,,,2024-10-07,1,,,,,マイアグリ,0
2152,8130005017192,新規,0,2024-10-07,2024-10-07,医療法人征圭会たてもと耳鼻咽喉科クリニック,,その他の設立登記法人,京都府,京都市東山区,三条大橋東入大橋町９４番地三条鈴木ビル５Ｆ,,26,105,6050000,,,,,,,2024-10-07,1,,,,,セイケイカイタテモトジビインコウカクリニック,0
2156,8140001136004,新規,0,2024-10-07,2024-10-07,株式会社ｉｍａｇｅｗａｖｅ,,株式会社,兵庫県,西宮市,羽衣町７番３０号夙川グリーンタウン３階ｉｍａｇｅｗａｖｅ,,28,204,6620051,,,,,,,2024-10-07,1,,,,,イメージウェーブ,0
2157,8140001136012,新規,0,2024-10-07,2024-10-07,株式会社グリーンウッド総合研究所,,株式会社,兵庫県,西宮市,松原町９番２０号,,28,204,6620912,,,,,,,2024-10-07,1,,,,,グリーンウッドソウゴウケンキュウショ,0
2158,8140001136029,新規,0,2024-10-07,2024-10-07,株式会社グリシーヌ,,株式会社,兵庫県,西宮市,上大市２丁目１７番１０－３号,,28,204,6638003,,,,,,,2024-10-07,1,,,,,グリシーヌ,0
2159,8140003021138,新規,0,2024-10-07,2024-10-07,合同会社Ｏｐｔｉｍｉｚｅ,,合同会社,兵庫県,川西市,萩原台西３丁目１番地２萩原壱番館２０１,,28,217,6660006,,,,,,,2024-10-07,1,,,,,オプティマイズ,0
2161,8160001026244,新規,0,2024-10-07,2024-10-07,株式会社Ｎ‐Ｓｉｇｎ,,株式会社,滋賀県,野洲市,小篠原２３４４番地１エスリード野洲第２、６０５号,,25,210,5202331,,,,,,,2024-10-07,1,,,,,エヌサイン,0
2162,8160001026260,新規,0,2024-10-07,2024-10-07,近江総合物流株式会社,,株式会社,滋賀県,米原市,野一色１１５０番地７,,25,214,5210233,,,,,,,2024-10-07,1,,,,,オウミソウゴウブツリュウ,0
2163,8160001026269,新規,0,2024-10-07,2024-10-07,インサイトコンサルタント株式会社,,株式会社,滋賀県,草津市,木川町８３４番地,,25,206,5250051,,,,,,,2024-10-07,1,,,,,インサイトコンサルタント,0
2164,8160003003308,新規,0,2024-10-07,2024-10-07,合同会社Ｋ３,,合同会社,滋賀県,長浜市,湖北町田中１６６番地,,25,203,5290353,,,,,,,2024-10-07,1,,,,,ケイスリー,0
2165,8170001018331,新規,0,2024-10-07,2024-10-07,株式会社Ｇｒｅｅｎ　Ｈｕｂ,,株式会社,和歌山県,紀の川市,桃山町調月２１７７番地２,,30,208,6496112,,,,,,,2024-10-07,1,,,,,グリーンハブ,0
2172,8180001163507,新規,0,2024-10-07,2024-10-07,悠々旅株式会社,,株式会社,愛知県,名古屋市中川区,烏森町字四反畑１２１番地丸八ビル３０１,,23,110,4540819,,,,,,,2024-10-07,1,,,,,ユウユウタビ,0
2173,8180001163515,新規,0,2024-10-07,2024-10-07,株式会社Ｌｅ・ｌｉｅｎ,,株式会社,愛知県,名古屋市中区,錦３丁目１２番１８号松尾園第１０錦ビル６Ｆ,,23,106,4600003,,,,,,,2024-10-07,1,,,,,ルリアン,0
2174,8180001163531,新規,0,2024-10-07,2024-10-07,株式会社宝龍,,株式会社,愛知県,常滑市,字乙田１９番地の１７,,23,216,4790044,,,,,,,2024-10-07,1,,,,,ホウリュウ,0
2175,8180001163556,新規,0,2024-10-07,2024-10-07,株式会社スマイルデリ,,株式会社,愛知県,名古屋市港区,小碓１丁目２３２番地,,23,111,4550801,,,,,,,2024-10-07,1,,,,,スマイルデリ,0
2176,8180001163564,新規,0,2024-10-07,2024-10-07,株式会社ＦｒｅｅＪｉｎｎ,,株式会社,愛知県,春日井市,坂下町２丁目５２４番地１２,,23,206,4800305,,,,,,,2024-10-07,1,,,,,フリージン,0
2177,8180001163572,新規,0,2024-10-07,2024-10-07,株式会社リバテック,,株式会社,愛知県,小牧市,大字岩崎１５００番地県住２街区２号棟６０２号,,23,219,4850011,,,,,,,2024-10-07,1,,,,,リバテック,0
2178,8180001163580,新規,0,2024-10-07,2024-10-07,株式会社Ｃｙｂｅｒ　Ｂｉｒｔｈ,,株式会社,愛知県,名古屋市昭和区,檀溪通５丁目２８番地メイツ石川橋２０１号,,23,107,4660842,,,,,,,2024-10-07,1,,,,,サイバーバース,0
2179,8180001163589,新規,0,2024-10-07,2024-10-07,株式会社３８１,,株式会社,愛知県,江南市,宮田神明町旭８５番地,,23,217,4838303,,,,,,,2024-10-07,1,,,,,サンハチイチ,0
2180,8180001163614,新規,0,2024-10-07,2024-10-07,ＮＥＷＯＬＤ株式会社,,株式会社,愛知県,名古屋市中村区,名駅３丁目４－１０アルティメイト名駅１ｓｔ２階,,23,105,4500002,,,,,,,2024-10-07,1,,,,,ニューオールド,0
2187,8180003027445,新規,0,2024-10-07,2024-10-07,合同会社Ｋカーゴ,,合同会社,愛知県,名古屋市中川区,愛知町２７番２０号,,23,110,4540807,,,,,,,2024-10-07,1,,,,,ケイカーゴ,0
2188,8180003027461,新規,0,2024-10-07,2024-10-07,合同会社ゴーエン,,合同会社,愛知県,名古屋市名東区,藤香町２４番地,,23,115,4650037,,,,,,,2024-10-07,1,,,,,ゴーエン,0
2189,8180005020794,新規,0,2024-10-07,2024-10-07,一般社団法人ＥＶ・充電協議会,,その他の設立登記法人,愛知県,名古屋市西区,那古野２丁目１４番１号,,23,104,4510042,,,,,,,2024-10-07,1,,,,,イーブイジュウデンキョウギカイ,0
2193,8180301039118,新規,0,2024-10-07,2024-10-07,株式会社アシストワークス,,株式会社,愛知県,岡崎市,西魚町４１番地,,23,202,4440055,,,,,,,2024-10-07,1,,,,,アシストワークス,0
2195,8190001031704,新規,0,2024-10-07,2024-10-07,株式会社真空断熱研究所,,株式会社,三重県,亀山市,西町５５６番地１３,,24,210,5190153,,,,,,,2024-10-07,1,,,,,シンクウダンネツケンキュウジョ,0
2204,8230001020553,新規,0,2024-10-07,2024-10-07,株式会社８６,,株式会社,富山県,射水市,作道２１４０番地１グローバルマンション１０４,,16,211,9340042,,,,,,,2024-10-07,1,,,,,ハチロク,0
2207,8240001063907,新規,0,2024-10-07,2024-10-07,ＭＩＴＳＵＹＡ株式会社,,株式会社,広島県,広島市中区,銀山町１１番２６号,,34,101,7300022,,,,,,,2024-10-07,1,,,,,ミツヤ,0
2212,8290001107428,新規,0,2024-10-07,2024-10-07,株式会社熊猫,,株式会社,福岡県,福岡市東区,松崎３丁目３６番１６－１０３号,,40,131,8130035,,,,,,,2024-10-07,1,,,,,クマネコ,0
2213,8290001107502,新規,0,2024-10-07,2024-10-07,株式会社九熱工業,,株式会社,福岡県,八女市,今福１０４５番地３,,40,210,8340061,,,,,,,2024-10-07,1,,,,,キュウネツコウギョウ,0
2214,8290001107519,新規,0,2024-10-07,2024-10-07,株式会社エムワークス,,株式会社,福岡県,大野城市,雑餉隈町５丁目１番１２号,,40,219,8160923,,,,,,,2024-10-07,1,,,,,エムワークス,0
2216,8290003015884,新規,0,2024-10-07,2024-10-07,コアゾーン合同会社,,合同会社,福岡県,福岡市博多区,比恵町１９番７－７０３号,,40,132,8120014,,,,,,,2024-10-07,1,,,,,コアゾーン,0
2217,8290003015918,新規,0,2024-10-07,2024-10-07,合同会社さくら通信,,合同会社,福岡県,那珂川市,片縄１丁目７２,,40,231,8111201,,,,,,,2024-10-07,1,,,,,サクラツウシン,0
2221,8300003002187,新規,0,2024-10-07,2024-10-07,合同会社がばいスターズ,,合同会社,佐賀県,佐賀市,東与賀町大字飯盛９２９番地１０,,41,201,8402223,,,,,,,2024-10-07,1,,,,,ガバイスターズ,0
2223,8310001019249,新規,0,2024-10-07,2024-10-07,株式会社ＪＦＭ,,株式会社,長崎県,長崎市,上小島３丁目１番８号,,42,201,8500834,,,,,,,2024-10-07,1,,,,,ジェイエフエム,0
2227,8330001032522,新規,0,2024-10-07,2024-10-07,株式会社Ｓｏｎｎｅｎｈａｕｓ,,株式会社,熊本県,人吉市,上青井町１６６番地,,43,203,8680005,,,,,,,2024-10-07,1,,,,,ゾンネンハウス,0
2233,8350003004757,新規,0,2024-10-07,2024-10-07,ケイエム合同会社,,合同会社,宮崎県,都城市,山田町山田８７８９番地の２,,45,202,8894601,,,,,,,2024-10-07,1,,,,,ケイエム,0
2238,8380001034828,新規,0,2024-10-07,2024-10-07,ＴＲＹ株式会社,,株式会社,福島県,郡山市,田村町上行合字北川田３６番地の１,,07,203,9630724,,,,,,,2024-10-07,1,,,,,トライ,0
2239,8380005012870,新規,0,2024-10-07,2024-10-07,医療法人清田内科循環器クリニック,,その他の設立登記法人,福島県,会津若松市,白虎２丁目４番地の４,,07,202,9650039,,,,,,,2024-10-07,1,,,,,セイダナイカジュンカンキクリニック,0
2240,8400001016823,新規,0,2024-10-07,2024-10-07,株式会社ステップアップ,,株式会社,岩手県,盛岡市,下太田下川原１６番地４,,03,201,0200051,,,,,,,2024-10-07,1,,,,,ステップアップ,0
2242,8410001013951,新規,0,2024-10-07,2024-10-07,むらテックホールディングス株式会社,,株式会社,秋田県,雄勝郡東成瀬村,田子内字仙人下３０－１東成瀬村山村開発センター,,05,464,0190801,,,,,,,2024-10-07,1,,,,,ムラテックホールディングス,0
2245,8420003003009,新規,0,2024-10-07,2024-10-07,合同会社ｂｅ‐ｓｔｙｌｅ,,合同会社,青森県,青森市,安方２丁目８番２０号,,02,201,0300803,,,,,,,2024-10-07,1,,,,,ビースタイル,0
2246,8430001092770,新規,0,2024-10-07,2024-10-07,ダブルホールディングス株式会社,,株式会社,北海道,札幌市中央区,北五条西９丁目５番地,,01,101,0600005,,,,,,,2024-10-07,1,,,,,ダブルホールディングス,0
2247,8430001092829,新規,0,2024-10-07,2024-10-07,株式会社ウォームスマイル,,株式会社,北海道,江別市,見晴台３１－１７,,01,217,0670042,,,,,,,2024-10-07,1,,,,,ウォームスマイル,0
2251,8430003016851,新規,0,2024-10-07,2024-10-07,ＦｒｏｎｔｉｅｒＸ合同会社,,合同会社,北海道,札幌市中央区,南一条西１６丁目１番地３２３春野ビル３Ｆ,,01,101,0600061,,,,,,,2024-10-07,1,,,,,フロンティアエックス,0
2253,8470001020406,新規,0,2024-10-07,2024-10-07,株式会社三谷設備,,株式会社,香川県,坂出市,川津町５２７７番地８,,37,203,7620025,,,,,,,2024-10-07,1,,,,,ミタニセツビ,0
2257,8500001025921,新規,0,2024-10-07,2024-10-07,株式会社ｎａｏ幸,,株式会社,愛媛県,今治市,喜田村５丁目１５番１号,,38,202,7991502,,,,,,,2024-10-07,1,,,,,ナオコウ,0
2258,8500003003339,新規,0,2024-10-07,2024-10-07,合同会社ＥＨＩＭＥＤＩＡ,,合同会社,愛媛県,松山市,山西町９５９－４緑風館山西メゾネットＭ－３,,38,201,7918026,,,,,,,2024-10-07,1,,,,,エヒメディア,0
2259,8700150127424,新規,0,2024-10-07,2024-10-07,Ｂｕｓｉｎｅｓｓ　Ｃｏｎｔｒｏｌ　Ｓｅｒｖｉｃｅｓ　Ｐｔｅ．Ｌｔｄ．,,外国会社等,,,,,,,,２０Ａ　ＴＡＮＪＯＮＧ　ＰＡＧＡＲ　ＲＯＡＤ　ＳＩＮＧＡＰＯＲＥ,,,,,,2024-10-07,1,,,,,ビジネスコントロールサービシーズ,0
2265,9010001248760,新規,0,2024-10-07,2024-10-07,株式会社ｇｌｏｂａｌ　ｙ’ｓ,,株式会社,東京都,中央区,八丁堀２丁目２２番６号,,13,102,1040032,,,,,,,2024-10-07,1,,,,,グローバルワイズ,0
2266,9010001248777,新規,0,2024-10-07,2024-10-07,株式会社テントテン,,株式会社,東京都,中央区,東日本橋３丁目９番２号ＴｈｅａｔｅｒＷｗｗ４Ｆ,,13,102,1030004,,,,,,,2024-10-07,1,,,,,テントテン,0
2267,9010001248810,新規,0,2024-10-07,2024-10-07,株式会社ＳＴパーツ,,株式会社,東京都,中央区,日本橋浜町３丁目３５番５号,,13,102,1030007,,,,,,,2024-10-07,1,,,,,エスティパーツ,0
2268,9010001248835,新規,0,2024-10-07,2024-10-07,ＴＩＭＥＬＥＳＳ株式会社,,株式会社,東京都,中央区,銀座４丁目１４番１９号,,13,102,1040061,,,,,,,2024-10-07,1,,,,,タイムレス,0
2269,9010001248876,新規,0,2024-10-07,2024-10-07,株式会社ＢＣＪ‐８８,,株式会社,東京都,千代田区,丸の内１丁目１番１号パレスビル５階,,13,101,1000005,,,,,,,2024-10-07,1,,,,,ビーシージェイエイティーエイト,0
2270,9010001248884,新規,0,2024-10-07,2024-10-07,株式会社大三,,株式会社,東京都,千代田区,三番町１番地１０パークコート三番町８０２号,,13,101,1020075,,,,,,,2024-10-07,1,,,,,ダイサン,0
2271,9010001248901,新規,0,2024-10-07,2024-10-07,株式会社Ｓｏｌｕｚｉｏｎｅ,,株式会社,東京都,中央区,日本橋室町１丁目１１番１２号日本橋水野ビル７階,,13,102,1030022,,,,,,,2024-10-07,1,,,,,ソルジオネ,0
2274,9010003045165,新規,0,2024-10-07,2024-10-07,合同会社世田谷船橋,,合同会社,東京都,千代田区,丸の内１丁目４番１号東京共同会計事務所内,,13,101,1000005,,,,,,,2024-10-07,1,,,,,セタガヤフナバシ,0
2279,9010403033538,新規,0,2024-10-07,2024-10-07,Ｋａｎｅｚｏ合同会社,,合同会社,東京都,港区,台場１丁目１－１－２９１０,,13,103,1350091,,,,,,,2024-10-07,1,,,,,カネゾー,0
2286,9010601066018,新規,0,2024-10-07,2024-10-07,株式会社サンコー,,株式会社,東京都,墨田区,亀沢４丁目２１番３号,,13,107,1300014,,,,,,,2024-10-07,1,,,,,サンコー,0
2287,9010701046596,新規,0,2024-10-07,2024-10-07,株式会社ＦＵＴＡＢＡコンサルティング,,株式会社,東京都,品川区,西五反田２丁目９番７号ドルミ五反田アンメゾン４０７号,,13,109,1410031,,,,,,,2024-10-07,1,,,,,フタバコンサルティング,0
2290,9010901056065,新規,0,2024-10-07,2024-10-07,株式会社店舗コネクト,,株式会社,東京都,世田谷区,三宿１丁目１４番８号,,13,112,1540005,,,,,,,2024-10-07,1,,,,,テンポコネクト,0
2291,9010905004680,新規,0,2024-10-07,2024-10-07,一般社団法人むらやし,,その他の設立登記法人,東京都,世田谷区,宮坂１丁目３４番１０号,,13,112,1560051,,,,,,,2024-10-07,1,,,,,ムラヤシ,0
2296,9011001164997,新規,0,2024-10-07,2024-10-07,株式会社チーミングワン,,株式会社,東京都,渋谷区,渋谷２丁目１９－１５宮益坂ビルディング６０９,,13,113,1500002,,,,,,,2024-10-07,1,,,,,チーミングワン,0
2297,9011001165070,新規,0,2024-10-07,2024-10-07,株式会社４ＳＩＧＮＳ,,株式会社,東京都,目黒区,下目黒１丁目１番１４号コノトラビル７Ｆ,,13,110,1530064,,,,,,,2024-10-07,1,,,,,フォーサインズ,0
2298,9011003020133,新規,0,2024-10-07,2024-10-07,合同会社あづみ漢方薬店,,合同会社,東京都,渋谷区,笹塚３丁目１８番７号,,13,113,1510073,,,,,,,2024-10-07,1,,,,,アヅミカンポウヤクテン,0
2299,9011003020141,新規,0,2024-10-07,2024-10-07,ＮＬＳ合同会社,,合同会社,東京都,目黒区,緑が丘２丁目２４‐５,,13,110,1520034,,,,,,,2024-10-07,1,,,,,エヌエルエス,0
2305,9011103015000,新規,0,2024-10-07,2024-10-07,合同会社ＩＲＵＮ　ＪＡＰＡＮ,,合同会社,東京都,新宿区,四谷４丁目２６番６号,,13,104,1600004,,,,,,,2024-10-07,1,,,,,アイランジャパン,0
2307,9011301030032,新規,0,2024-10-07,2024-10-07,株式会社塩太郎,,株式会社,東京都,杉並区,高円寺南１丁目１８番１４－１０１号,,13,115,1660003,,,,,,,2024-10-07,1,,,,,シオタロウ,0
2310,9011503006251,新規,0,2024-10-07,2024-10-07,合同会社カロッツァ・アル・マーレ,,合同会社,東京都,荒川区,東日暮里４丁目１６番３号,,13,118,1160014,,,,,,,2024-10-07,1,,,,,カロッツァアルマーレ,0
2312,9011601028107,新規,0,2024-10-07,2024-10-07,寅亨株式会社,,株式会社,東京都,練馬区,関町北５丁目１３－２５－Ｈ室,,13,120,1770051,,,,,,,2024-10-07,1,,,,,インキョウ,0
2313,9011603004469,新規,0,2024-10-07,2024-10-07,合同会社ミズイト,,合同会社,東京都,練馬区,南大泉６丁目２０番２８号朝日パリオ南大泉３０５,,13,120,1780064,,,,,,,2024-10-07,1,,,,,ミズイト,0
2315,9011701027685,新規,0,2024-10-07,2024-10-07,株式会社ＣＯＭＭＥｄｅｓＦＩＬＬＥＳ,,株式会社,東京都,江戸川区,松本２丁目２２番２号,,13,123,1330043,,,,,,,2024-10-07,1,,,,,コムデフィーユ,0
2320,9012401042363,新規,0,2024-10-07,2024-10-07,株式会社ＳＳＳ,,株式会社,東京都,武蔵野市,吉祥寺本町１丁目１番３号,,13,203,1800004,,,,,,,2024-10-07,1,,,,,エスエスエス,0
2322,9012801023483,新規,0,2024-10-07,2024-10-07,Ｂｒａｉｎ　Ｅｄｇｅ株式会社,,株式会社,東京都,日野市,新町５丁目４番地３２,,13,212,1910002,,,,,,,2024-10-07,1,,,,,ブレインエッジ,0
2329,9020001159362,新規,0,2024-10-07,2024-10-07,株式会社ＤＲＡＡＫ,,株式会社,神奈川県,川崎市中原区,苅宿３４番１２号,,14,133,2110022,,,,,,,2024-10-07,1,,,,,ドラーク,0
2330,9020001159379,新規,0,2024-10-07,2024-10-07,株式会社ＴＭエステート,,株式会社,神奈川県,川崎市多摩区,長尾１丁目５番５号,,14,135,2140023,,,,,,,2024-10-07,1,,,,,ティーエムエステート,0
2331,9020001159494,新規,0,2024-10-07,2024-10-07,株式会社ＳＯＢＡｂｏｎ,,株式会社,神奈川県,横浜市中区,若葉町２丁目３１番１号,,14,104,2310056,,,,,,,2024-10-07,1,,,,,ソバボン,0
2338,9021001083412,新規,0,2024-10-07,2024-10-07,株式会社ＴＡＮＩＫＯＵ,,株式会社,神奈川県,小田原市,鴨宮１６４番地,,14,206,2500874,,,,,,,2024-10-07,1,,,,,タニコウ,0
2339,9021001083437,新規,0,2024-10-07,2024-10-07,株式会社ＣＡＴ３,,株式会社,神奈川県,相模原市中央区,宮下本町３丁目５―３,,14,152,2520211,,,,,,,2024-10-07,1,,,,,キャットスリー,0
2355,9040001135584,新規,0,2024-10-07,2024-10-07,株式会社アプレイ,,株式会社,千葉県,市川市,本行徳１７番２２号（ＢｌｏｓｓｏｍＴｅｒｒａｃｅ妙典１０５号）,,12,203,2720103,,,,,,,2024-10-07,1,,,,,アプレイ,0
2356,9040001135618,新規,0,2024-10-07,2024-10-07,ブラットテレコム株式会社,,株式会社,千葉県,船橋市,習志野台２丁目２５番２号ジョワージファミーユ２０２号,,12,204,2740063,,,,,,,2024-10-07,1,,,,,ブラットテレコム,0
2357,9040001135675,新規,0,2024-10-07,2024-10-07,株式会社ＩＮＧホールディングス,,株式会社,千葉県,千葉市花見川区,長作町１２３１番地３９,,12,102,2620044,,,,,,,2024-10-07,1,,,,,アイエヌジーホールディングス,0
2358,9040001135683,新規,0,2024-10-07,2024-10-07,株式会社バイダブリュー,,株式会社,千葉県,市川市,新井１丁目１９番２７号,,12,203,2720144,,,,,,,2024-10-07,1,,,,,バイダブリュー,0
2359,9040001135700,新規,0,2024-10-07,2024-10-07,株式会社エムズラック,,株式会社,千葉県,市川市,欠真間１丁目３番１１－１０３号,,12,203,2720142,,,,,,,2024-10-07,1,,,,,エムズラック,0
2360,9040001135709,新規,0,2024-10-07,2024-10-07,株式会社ＮＥＫＯ,,株式会社,千葉県,市川市,末広２丁目１１番２０号,,12,203,2720121,,,,,,,2024-10-07,1,,,,,ネコ,0
2361,9040001135733,新規,0,2024-10-07,2024-10-07,株式会社ユメノホーム,,株式会社,千葉県,四街道市,千代田１丁目３５番地１７,,12,228,2840015,,,,,,,2024-10-07,1,,,,,ユメノホーム,0
2363,9040003025866,新規,0,2024-10-07,2024-10-07,合同会社カスエ,,合同会社,千葉県,我孫子市,若松１５７番地の４,,12,222,2701147,,,,,,,2024-10-07,1,,,,,カスエ,0
2364,9040003025940,新規,0,2024-10-07,2024-10-07,エルウェイガーデン合同会社,,合同会社,千葉県,船橋市,本中山２丁目１８番２１号,,12,204,2730035,,,,,,,2024-10-07,1,,,,,エルウェイガーデン,0
2365,9040003025949,新規,0,2024-10-07,2024-10-07,合同会社幸健,,合同会社,千葉県,千葉市若葉区,桜木北１丁目１８番１５号,,12,104,2640029,,,,,,,2024-10-07,1,,,,,コウケン,0
2369,9080103003157,新規,0,2024-10-07,2024-10-07,合同会社タイゾークロダエステート,,合同会社,静岡県,伊東市,八幡野１３５４－１９,,22,208,4130232,,,,,,,2024-10-07,1,,,,,タイゾークロダエステート,0
2374,9090001018941,新規,0,2024-10-07,2024-10-07,株式会社四條,,株式会社,山梨県,南巨摩郡南部町,内船９５５６－１,,19,366,4092305,,,,,,,2024-10-07,1,,,,,シジョウ,0
2375,9090003002662,新規,0,2024-10-07,2024-10-07,植田保険サービス合同会社,,合同会社,山梨県,甲府市,西油川町３５番地,,19,201,4000833,,,,,,,2024-10-07,1,,,,,ウエダホケンサービス,0
2380,9110001038747,新規,0,2024-10-07,2024-10-07,株式会社美ライフマネジメント,,株式会社,新潟県,長岡市,和島北野８８０番地２,,15,202,9494503,,,,,,,2024-10-07,1,,,,,ビライフマネジメント,0
2394,9120001269044,新規,0,2024-10-07,2024-10-07,株式会社ＰＯＰＩＡＨ,,株式会社,大阪府,枚方市,岡本町７番１－１５０９号,,27,210,5730031,,,,,,,2024-10-07,1,,,,,ポピア,0
2395,9120001269052,新規,0,2024-10-07,2024-10-07,株式会社キングス,,株式会社,大阪府,大阪市北区,兎我野町１１番３号,,27,127,5300056,,,,,,,2024-10-07,1,,,,,キングス,0
2402,9120003027672,新規,0,2024-10-07,2024-10-07,合同会社ＳＵＮ,,合同会社,大阪府,大阪市西成区,天下茶屋東１丁目２０番１１号,,27,122,5570011,,,,,,,2024-10-07,1,,,,,サン,0
2404,9120101070327,新規,0,2024-10-07,2024-10-07,株式会社サカイ産業,,株式会社,大阪府,堺市堺区,翁橋町１丁２－４翁橋ビル３０３,,27,141,5900061,,,,,,,2024-10-07,1,,,,,サカイサンギョウ,0
2421,9140003021161,新規,0,2024-10-07,2024-10-07,合同会社無我夢中,,合同会社,兵庫県,尼崎市,長洲西通２丁目９番１８号３０２号,,28,202,6600807,,,,,,,2024-10-07,1,,,,,ムガムチュウ,0
2424,9140005027231,新規,0,2024-10-07,2024-10-07,一般社団法人兵庫県経営者協会,,その他の設立登記法人,兵庫県,神戸市中央区,磯上通４丁目１番１４号三宮スカイビル,,28,110,6510086,,,,,,,2024-10-07,1,,,,,ヒョウゴケンケイエイシャキョウカイ,0
2427,9150001027597,新規,0,2024-10-07,2024-10-07,株式会社アールプリュネオ,,株式会社,奈良県,大和郡山市,九条町１９６番地１プレステ六番館４０３号,,29,203,6391001,,,,,,,2024-10-07,1,,,,,アールプリュネオ,0
2431,9160001026268,新規,0,2024-10-07,2024-10-07,Ｓｅｎｓｉｂｌｅ‐ＶＲ株式会社,,株式会社,滋賀県,東近江市,八日市清水２丁目２番１１号,,25,213,5270018,,,,,,,2024-10-07,1,,,,,センシブルヴィーアール,0
2433,9160005011349,新規,0,2024-10-07,2024-10-07,アイリス社会保険労務士法人,,その他の設立登記法人,滋賀県,大津市,大萱１丁目１７番１４号松政ビル,,25,201,5202144,,,,,,,2024-10-07,1,,,,,アイリス,0
2442,9180001163514,新規,0,2024-10-07,2024-10-07,アイケーシー株式会社,,株式会社,愛知県,名古屋市中区,新栄３丁目５番７号,,23,106,4600007,,,,,,,2024-10-07,1,,,,,アイケーシー,0
2443,9180001163530,新規,0,2024-10-07,2024-10-07,ユーブイスケープナビゲーター株式会社,,株式会社,愛知県,名古屋市中区,丸の内３丁目２１番２１号丸の内東桜ビル１００５号室,,23,106,4600002,,,,,,,2024-10-07,1,,,,,ユーブイスケープナビゲーター,0
2444,9180001163547,新規,0,2024-10-07,2024-10-07,株式会社利希,,株式会社,愛知県,名古屋市名東区,亀の井２丁目１７９番地の１,,23,115,4650094,,,,,,,2024-10-07,1,,,,,リキ,0
2445,9180001163555,新規,0,2024-10-07,2024-10-07,ヒューテック株式会社,,株式会社,愛知県,名古屋市瑞穂区,南山町１７番地の６ＶＩＰＨＩＬＬＳ南山２０１号,,23,108,4670023,,,,,,,2024-10-07,1,,,,,ヒューテック,0
2446,9180001163588,新規,0,2024-10-07,2024-10-07,株式会社彩心会,,株式会社,愛知県,名古屋市東区,東桜２丁目１５番２６号朝日ビル５Ｆ,,23,102,4610005,,,,,,,2024-10-07,1,,,,,サイシンカイ,0
2447,9180001163613,新規,0,2024-10-07,2024-10-07,株式会社ネオ・アイランドケア,,株式会社,愛知県,一宮市,今伊勢町宮後字下苧島６２番地１,,23,203,4910057,,,,,,,2024-10-07,1,,,,,ネオアイランドケア,0
2449,9180003027436,新規,0,2024-10-07,2024-10-07,合同会社ＮＲ　ＣＯＭＰＡＮＹ,,合同会社,愛知県,豊明市,三崎町中ノ坪１３－１３サン服部２階Ｅ号室,,23,229,4701125,,,,,,,2024-10-07,1,,,,,エヌアールカンパニー,0
2450,9180003027444,新規,0,2024-10-07,2024-10-07,Ｍｃｏｎｓｕｌｔｉｎｇ合同会社,,合同会社,愛知県,名古屋市中区,錦１丁目４番１９号プラウドタワー名古屋丸の内６０４号,,23,106,4600003,,,,,,,2024-10-07,1,,,,,エムコンサルティング,0
2452,9180301039117,新規,0,2024-10-07,2024-10-07,株式会社ＨＭＤ,,株式会社,愛知県,岡崎市,薮田１丁目７番地１７,,23,202,4442137,,,,,,,2024-10-07,1,,,,,エイチエムディー,0
2453,9190001031678,新規,0,2024-10-07,2024-10-07,株式会社心癒,,株式会社,三重県,多気郡多気町,仁田５００番地,,24,441,5192179,,,,,,,2024-10-07,1,,,,,シンユ,0
2460,9220001026245,新規,0,2024-10-07,2024-10-07,株式会社Ｄ．Ｃ．ＷＯＲＫＳ,,株式会社,石川県,野々市市,堀内４丁目１７７番地１,,17,212,9218844,,,,,,,2024-10-07,1,,,,,ディーシーワークス,0
2462,9240001063914,新規,0,2024-10-07,2024-10-07,株式会社ひいらぎウェルフェア,,株式会社,広島県,広島市中区,上幟町５番１７号木長ビル１階,,34,101,7300014,,,,,,,2024-10-07,1,,,,,ヒイラギウェルフェア,0
2472,9290001107393,新規,0,2024-10-07,2024-10-07,株式会社ＣＲＯＳＳホールディングス,,株式会社,福岡県,福岡市博多区,博多駅東２丁目８－２８,,40,132,8120013,,,,,,,2024-10-07,1,,,,,クロスホールディングス,0
2476,9290003015891,新規,0,2024-10-07,2024-10-07,合同会社ｅｎｕ．,,合同会社,福岡県,福岡市博多区,博多駅南１丁目１２番３号,,40,132,8120016,,,,,,,2024-10-07,1,,,,,エヌドット,0
2477,9290003015909,新規,0,2024-10-07,2024-10-07,合同会社ＥＶＥＲ　ＬＵＣＫ,,合同会社,福岡県,福岡市東区,三苫７丁目１６番３号,,40,131,8110201,,,,,,,2024-10-07,1,,,,,エバーラック,0
2480,9300003002186,新規,0,2024-10-07,2024-10-07,合同会社ＮｏｍａＬｉｆｅ,,合同会社,佐賀県,鳥栖市,萱方町１１１番地７,,41,203,8410081,,,,,,,2024-10-07,1,,,,,ノーマライフ,0
2485,9310003004875,新規,0,2024-10-07,2024-10-07,合同会社ＦＴローカル,,合同会社,長崎県,佐世保市,日野町３１５－２,,42,202,8580923,,,,,,,2024-10-07,1,,,,,エフティーローカル,0
2499,9360001034234,新規,0,2024-10-07,2024-10-07,株式会社ＨＡＰＰＹ,,株式会社,沖縄県,石垣市,浜崎町２丁目６番地１１スカイマンション３０３,,47,207,9070013,,,,,,,2024-10-07,1,,,,,ハッピー,0
2500,9360003014358,新規,0,2024-10-07,2024-10-07,合同会社當眞土木,,合同会社,沖縄県,国頭郡宜野座村,字松田２４９６番地１,,47,313,9041301,,,,,,,2024-10-07,1,,,,,トウマドボク,0
2503,9370003006775,新規,0,2024-10-07,2024-10-07,ＡｕｓｐｉｃｉｏｕｓＹ合同会社,,合同会社,宮城県,仙台市若林区,土樋７３番の２コーポ土樋１００４,,04,103,9840065,,,,,,,2024-10-07,1,,,,,アスピシャスワイ,0
2509,9410001013950,新規,0,2024-10-07,2024-10-07,株式会社ミユキ総合企画,,株式会社,秋田県,秋田市,広面字土手下１５番地１,,05,201,0100041,,,,,,,2024-10-07,1,,,,,ミユキソウゴウキカク,0
2512,9420003003008,新規,0,2024-10-07,2024-10-07,９６．ｈｏｒｏ衆合同会社,,合同会社,青森県,上北郡六戸町,大字折茂字沖山１１４番地,,02,405,0330072,,,,,,,2024-10-07,1,,,,,クロホロシュウ,0
2516,9430001092828,新規,0,2024-10-07,2024-10-07,株式会社ｍ．ｓ．ｐ,,株式会社,北海道,苫小牧市,美原町３丁目２番１４号,,01,213,0591262,,,,,,,2024-10-07,1,,,,,エムエスピー,0
2517,9430001092836,新規,0,2024-10-07,2024-10-07,株式会社スペンドタイム,,株式会社,北海道,札幌市中央区,北一条西２８丁目２番２２－２０３号,,01,101,0640821,,,,,,,2024-10-07,1,,,,,スペンドタイム,0
2520,9430003016859,新規,0,2024-10-07,2024-10-07,合同会社Ｒｅｃｌｕｓｅ,,合同会社,北海道,岩見沢市,春日町２丁目１４番７号,,01,210,0680827,,,,,,,2024-10-07,1,,,,,レクルース,0
2521,9430005015082,新規,0,2024-10-07,2024-10-07,国際パートナー協同組合,,その他の設立登記法人,北海道,札幌市白石区,菊水上町三条３丁目３７番８号,,01,104,0030813,,,,,,,2024-10-07,1,,,,,コクサイパートナー,0
2525,9460101007617,新規,0,2024-10-07,2024-10-07,株式会社美崎物流,00136548,株式会社,北海道,河東郡音更町,緑陽台仲区１５番地１０,,01,631,0800317,,,,,,,2024-10-07,1,,,,,ミサキブツリュウ,0
2527,9470001020405,新規,0,2024-10-07,2024-10-07,株式会社ホットスタッフ丸亀,,株式会社,香川県,丸亀市,田村町７６４番地１,,37,202,7630071,,,,,,,2024-10-07,1,,,,,ホットスタッフマルガメ,0
2528,9470003002723,新規,0,2024-10-07,2024-10-07,合同会社トータルライフデザインホーリー,,合同会社,香川県,丸亀市,金倉町５８１－１０,,37,202,7630053,,,,,,,2024-10-07,1,,,,,トータルライフデザインホーリー,0
2531,9500001025920,新規,0,2024-10-07,2024-10-07,株式会社ＮＨ工業,,株式会社,愛媛県,今治市,本町７丁目４番１９号,,38,202,7940018,,,,,,,2024-10-07,1,,,,,エヌエイチコウギョウ,0
2535,9700150127423,新規,0,2024-10-07,2024-10-07,Ｂｉｒｄ＆Ｂｉｒｄ（Ｊａｐａｎ）ＬＬＰ,,外国会社等,,,,,,,,１２　Ｎｅｗ　Ｆｅｔｔｅｒ　Ｌａｎｅ，Ｌｏｎｄｏｎ，Ｕｎｉｔｅｄ　Ｋｉｎｇｄｏｍ，ＥＣ４Ａ　１ＪＰ,,,,,,2024-10-07,1,,,,,バードアンドバードジヤパンエルエルピー,0
