sequenceNumber,corporateNumber,process,correct,updateDate,changeDate,name,nameImageId,kind,prefectureName,cityName,streetNumber,addressImageId,prefectureCode,cityCode,postCode,addressOutside,addressOutsideImageId,closeDate,closeCause,successorCorporateNumber,changeCause,assignmentDate,latest,enName,enPrefectureName,enCityName,enAddressOutside,furigana,hihyoji
5,1010001165187,登記記録の閉鎖等,0,2022-10-21,2022-10-18,センクシア株式会社,,株式会社,東京都,港区,東新橋２丁目３番１７号,,13,103,1050021,,,2022-10-18,合併による解散等,3010003037069,令和４年１０月１日東京都千代田区丸の内一丁目６番５号センクシア株式会社（3010003037069）に合併し解散,2015-10-05,1,,,,,センクシア,0
17,1010401064757,登記記録の閉鎖等,0,2022-10-21,2022-10-03,株式会社営放プロデュース,,株式会社,東京都,港区,東新橋１丁目６番１号,,13,103,1050021,,,2022-10-03,合併による解散等,3010401099553,令和４年１０月１日東京都港区東新橋一丁目６番１号日本テレビ放送網株式会社（3010401099553）に合併し解散,2015-10-05,1,,,,,エイホウプロデュース,0
39,1011001121485,登記記録の閉鎖等,0,2022-10-21,2022-10-11,株式会社ＣＡｍｏｔｉｏｎ,,株式会社,東京都,渋谷区,宇田川町４０番１号,,13,113,1500042,,,2022-10-11,清算の結了等,,,2018-04-06,1,,,,,シーエーモーション,0
60,1012302007919,登記記録の閉鎖等,0,2022-10-21,2022-10-18,有限会社Ｙ．ＭＣ．Ｖ．Ｓ,,有限会社,神奈川県,相模原市中央区,淵野辺本町２丁目８番１－２０２号,,14,152,2520202,,,2022-10-18,清算の結了等,,,2015-10-05,1,,,,,ワイエムシーブイエス,0
61,1012401011607,登記記録の閉鎖等,0,2022-10-21,2022-10-18,日本インターエステート株式会社,,株式会社,東京都,武蔵野市,中町１丁目３０番３号,,13,203,1800006,,,2022-10-18,清算の結了等,,,2015-10-05,1,,,,,ニホンインターエステート,0
70,1020001052194,登記記録の閉鎖等,0,2022-10-21,2022-10-14,株式会社もっとホット,,株式会社,神奈川県,横浜市戸塚区,平戸３丁目５２番２５－５０１号藤和シティホームズ東戸塚ＩＩ,00009588,14,110,2440802,,,2022-10-14,清算の結了等,,,2015-10-05,1,,,,,モットホット,0
71,1020001091226,登記記録の閉鎖等,0,2022-10-21,2022-10-17,株式会社ケイ・ファーマ,,株式会社,神奈川県,横浜市金沢区,能見台通１番２号白樺ビル１Ｆ,,14,108,2360053,,,2022-10-17,清算の結了等,,,2015-10-05,1,,,,,ケイファーマ,0
94,1021003009769,登記記録の閉鎖等,0,2022-10-21,2022-10-17,合同会社Ｌｏｖｅ＆Ｗａｒ　Ｂｏｏｋｓ,,合同会社,神奈川県,茅ヶ崎市,浜竹３丁目８番７５号,,14,207,2530021,,,2022-10-17,清算の結了等,,,2020-10-12,1,,,,,,0
99,1030001085986,登記記録の閉鎖等,0,2022-10-21,2022-10-19,株式会社よりい,,株式会社,埼玉県,大里郡寄居町,大字桜沢３４６番地の１,,11,408,3691202,,,2022-10-19,清算の結了等,,,2015-10-05,1,,,,,ヨリイ,0
101,1030001096876,登記記録の閉鎖等,0,2022-10-21,2022-10-18,株式会社Ｗｏｒｋｓ．シンワ,,株式会社,福岡県,久留米市,東和町５番地１,,40,203,8300035,,,2022-10-18,合併による解散等,4030001083293,令和４年１０月１日埼玉県川口市青木二丁目６番４３号株式会社ビーウィッシュ（4030001083293）に合併し解散,2015-10-05,1,,,,,ワークスシンワ,0
104,1030001132441,登記記録の閉鎖等,0,2022-10-21,2022-10-07,Ｎｅｗ　Ｃｒｅａｔｉｖｅ　Ｉｍｉｔａｔｉｏｎ株式会社,,株式会社,埼玉県,新座市,栗原２丁目２番３５号,,11,230,3520035,,,2022-10-07,清算の結了等,,,2019-08-15,1,,,,,ニュークリエイティブイミテーション,0
109,1030002068032,登記記録の閉鎖等,0,2022-10-21,2022-10-07,有限会社扇駐車場,,有限会社,埼玉県,春日部市,花積２３０番地,,11,214,3440044,,,2022-10-07,清算の結了等,,,2015-10-05,1,,,,,オウギチュウシャジョウ,0
115,1040001097155,登記記録の閉鎖等,0,2022-10-21,2022-10-11,株式会社アベイル,,株式会社,千葉県,成田市,並木町１４５番地７～Ａ２２０,,12,211,2860045,,,2022-10-11,清算の結了等,,,2016-10-03,1,,,,,アベイル,0
129,1050001029553,登記記録の閉鎖等,0,2022-10-21,2022-10-05,山本金属株式会社,,株式会社,茨城県,常総市,本石下４５４３,,08,211,3002707,,,2022-10-05,清算の結了等,,,2015-10-05,1,,,,,ヤマモトキンゾク,0
159,1110002016239,登記記録の閉鎖等,0,2022-10-21,2022-10-19,有限会社長濱電気工事,,有限会社,新潟県,胎内市,小地谷２４番地,,15,227,9592612,,,2022-10-19,清算の結了等,,,2015-10-05,1,,,,,ナガハマデンキコウジ,0
165,1120001153610,登記記録の閉鎖等,0,2022-10-21,2022-10-17,株式会社エクステリアイトウ,,株式会社,大阪府,枚方市,西牧野３丁目３５番９号,,27,210,5731148,,,2022-10-17,清算の結了等,,,2015-10-05,1,,,,,,0
174,1120101024281,登記記録の閉鎖等,0,2022-10-21,2022-10-19,株式会社エ・ワイ・エヌ,,株式会社,大阪府,堺市堺区,戎之町東４丁３番８号,,27,141,5900945,,,2022-10-19,清算の結了等,,,2015-10-05,1,,,,,エワイエヌ,0
176,1120901044058,登記記録の閉鎖等,0,2022-10-21,2022-10-05,株式会社Ｋｏｌａｂｏ,,株式会社,大阪府,豊中市,東豊中町１丁目１６番１３号,,27,203,5600003,,,2022-10-05,清算の結了等,,,2021-03-19,1,,,,,コラボ,0
181,1122002006334,登記記録の閉鎖等,0,2022-10-21,2022-10-19,有限会社旭工務店,,有限会社,大阪府,東大阪市,衣摺４丁目３０番８号,00034785,27,227,5770827,,,2022-10-19,清算の結了等,,,2015-10-05,1,,,,,アサヒコウムテン,0
191,1140001022961,登記記録の閉鎖等,0,2022-10-21,2022-10-18,株式会社Ｎ－Ｂａｓｉｃ,,株式会社,兵庫県,神戸市西区,小山３丁目４番２０号,,28,111,6512144,,,2022-10-18,合併による解散等,5180001024430,令和４年１０月１日名古屋市中区栄二丁目２番２３号株式会社安江工務店（5180001024430）に合併し解散,2015-10-05,1,,,,,エヌベーシック,0
206,1180001003280,登記記録の閉鎖等,0,2022-10-21,2022-10-14,株式会社アイランド,,株式会社,愛知県,名古屋市中区,栄１丁目２０番１０号,,23,106,4600008,,,2022-10-14,清算の結了等,,,2015-10-05,1,,,,,アイランド,0
209,1180001093033,登記記録の閉鎖等,0,2022-10-21,2022-10-17,サシヒロ産業株式会社,,株式会社,愛知県,知多郡美浜町,大字河和字北田面１１２番地の５,,23,446,4702406,,,2022-10-17,清算の結了等,,,2015-10-05,1,,,,,サシヒロサンギョウ,0
216,1180001125744,登記記録の閉鎖等,0,2022-10-21,2022-10-14,株式会社マスターオブライフ,,株式会社,愛知県,春日井市,気噴町５丁目１７番地４,,23,206,4870014,,,2022-10-14,清算の結了等,,,2016-12-05,1,,,,,マスターオブライフ,0
223,1180002011885,登記記録の閉鎖等,0,2022-10-21,2022-10-17,有限会社大和布帛,,有限会社,愛知県,名古屋市北区,駒止町２丁目１３３番地,,23,103,4620059,,,2022-10-17,清算の結了等,,,2015-10-05,1,,,,,ダイワフハク,0
226,1180002050917,登記記録の閉鎖等,0,2022-10-21,2022-10-17,有限会社渡辺建設,,有限会社,愛知県,名古屋市中村区,草薙町２丁目１０９番地,,23,105,4530064,,,2022-10-17,清算の結了等,,,2015-10-05,1,,,,,ワタナベケンセツ,0
227,1180002055387,登記記録の閉鎖等,0,2022-10-21,2022-10-13,有限会社Ｐｒｏｄｕｃｅ　Ｉ,,有限会社,愛知県,名古屋市守山区,大字下志段味字長根１５６９番地,,23,113,4630003,,,2022-10-13,清算の結了等,,,2015-10-05,1,,,,,プロデュースアイ,0
237,1210002005090,登記記録の閉鎖等,0,2022-10-21,2022-10-20,有限会社レアル,,有限会社,福井県,福井市,二の宮４丁目２５番２１号,,18,201,9100015,,,2022-10-20,清算の結了等,,,2015-10-05,1,,,,,レアル,0
253,1260003003824,登記記録の閉鎖等,0,2022-10-21,2022-10-17,リーフグリーン合同会社,,合同会社,岡山県,津山市,材木町６８－１８岡本ビル,,33,203,7080031,,,2022-10-17,清算の結了等,,,2022-03-08,1,,,,,リーフグリーン,0
254,1290001015703,登記記録の閉鎖等,0,2022-10-21,2022-10-13,株式会社野村土木,,株式会社,福岡県,福岡市博多区,金の隈３丁目１６番１７号,,40,132,8120863,,,2022-10-13,清算の結了等,,,2015-10-05,1,,,,,ノムラドボク,0
265,1330001005781,登記記録の閉鎖等,0,2022-10-21,2022-10-17,株式会社熊本映画センター,,株式会社,熊本県,熊本市中央区,上水前寺１丁目１０番２９号,,43,101,8620951,,,2022-10-17,清算の結了等,,,2015-10-05,1,,,,,,0
271,1350002010465,登記記録の閉鎖等,0,2022-10-21,2022-10-19,有限会社岡田測建コンサルタント,,有限会社,宮崎県,日向市,亀崎３丁目７５番地,,45,206,8830066,,,2022-10-19,清算の結了等,,,2015-10-05,1,,,,,オカダソッケンコンサルタント,0
286,1390003000619,登記記録の閉鎖等,0,2022-10-21,2022-10-13,合同会社ハーブル,,合同会社,山形県,鶴岡市,稲生２丁目５２番８号,,06,203,9970834,,,2022-10-13,清算の結了等,,,2015-10-05,1,,,,,ハーブル,0
299,1450001008335,登記記録の閉鎖等,0,2022-10-21,2022-10-19,株式会社水口電器時計店,,株式会社,北海道,稚内市,中央３丁目１５番８号,,01,214,0970022,,,2022-10-19,清算の結了等,,,2015-10-05,1,,,,,ミズグチデンキトケイテン,0
304,1480002009668,登記記録の閉鎖等,0,2022-10-21,2022-10-20,有限会社藤江動物病院,,有限会社,徳島県,阿波市,土成町土成字南原３３９番地の１,,36,206,7711506,,,2022-10-20,清算の結了等,,,2015-10-05,1,,,,,フジエドウブツビョウイン,0
305,1480002014890,登記記録の閉鎖等,0,2022-10-21,2022-10-19,有限会社徳島コスモ,,有限会社,徳島県,美馬郡つるぎ町,半田字松生３０７番地,,36,468,7794401,,,2022-10-19,清算の結了等,,,2015-10-05,1,,,,,トクシマコスモ,0
307,1500005000761,登記記録の閉鎖等,0,2022-10-21,2022-10-20,医療法人永井こどもクリニック,,その他の設立登記法人,愛媛県,松山市,星岡５丁目４番６号,,38,201,7900922,,,2022-10-20,清算の結了等,,,2015-10-05,1,,,,,ナガイコドモクリニック,0
308,2010001025514,登記記録の閉鎖等,0,2022-10-21,2022-10-14,株式会社日中出版,,株式会社,東京都,千代田区,神田神保町１丁目８番地第一野口ビル,,13,101,1010051,,,2022-10-14,清算の結了等,,,2015-10-05,1,,,,,ニッチュウシュッパン,0
311,2010001144743,登記記録の閉鎖等,0,2022-10-21,2022-10-12,株式会社真和エンジニアリング,,株式会社,東京都,杉並区,梅里２丁目１３番５号ＭＴＡハイツＡ－２０５号室,,13,115,1660011,,,2022-10-12,清算の結了等,,,2015-10-05,1,,,,,シンワエンジニアリング,0
314,2010001186042,登記記録の閉鎖等,0,2022-10-21,2022-10-13,ＩＣＨＩＲＯ株式会社,,株式会社,東京都,中央区,銀座６丁目８番６号,,13,102,1040061,,,2022-10-13,合併による解散等,8010401001027,令和４年１０月１日東京都港区赤坂六丁目１５番１１号株式会社ＴＮＮホールディングス（8010401001027）に合併し解散,2017-09-08,1,,,,,,0
331,2010701012308,登記記録の閉鎖等,0,2022-10-21,2022-10-17,株式会社ネイチャー・アニマル・ホスピタル,,株式会社,東京都,品川区,小山５丁目２４番１３号,,13,109,1420062,,,2022-10-17,清算の結了等,,,2015-10-05,1,,,,,ネイチャーアニマルホスピタル,0
335,2010702001375,登記記録の閉鎖等,0,2022-10-21,2022-10-17,有限会社エヌエーシーエー,,有限会社,東京都,北区,神谷３丁目２０－１３－２０１,,13,117,1150043,,,2022-10-17,清算の結了等,,,2015-10-05,1,,,,,エヌエーシーエー,0
348,2011002020157,登記記録の閉鎖等,0,2022-10-21,2022-10-11,有限会社エフオージー,,有限会社,東京都,渋谷区,松濤１丁目１３番１８号,,13,113,1500046,,,2022-10-11,清算の結了等,,,2015-10-05,1,,,,,エフオージー,0
358,2013301039514,登記記録の閉鎖等,0,2022-10-21,2022-10-19,株式会社高橋,00108090,株式会社,東京都,豊島区,東池袋２丁目９番６号,,13,116,1700013,,,2022-10-19,清算の結了等,,,2016-10-13,1,,,,,タカハシ,0
363,2020001065889,登記記録の閉鎖等,0,2022-10-21,2022-10-03,イースタンデジタル株式会社,,株式会社,東京都,港区,芝２丁目９番１０号ダイユウビル,,13,103,1050014,,,2022-10-03,清算の結了等,,,2015-10-05,1,,,,,イースタンデジタル,0
364,2020001087677,登記記録の閉鎖等,0,2022-10-21,2022-10-14,株式会社アシスト,,株式会社,東京都,千代田区,神田佐久間町３丁目３８番地,,13,101,1010025,,,2022-10-14,清算の結了等,,,2015-10-05,1,,,,,アシスト,0
382,2021002060342,登記記録の閉鎖等,0,2022-10-21,2022-10-06,有限会社エスク,,有限会社,神奈川県,中郡大磯町,東町１丁目１２番８号,,14,341,2550002,,,2022-10-06,清算の結了等,,,2015-10-05,1,,,,,エスク,0
390,2030002025651,登記記録の閉鎖等,0,2022-10-21,2022-10-11,有限会社石村保険,,有限会社,埼玉県,蕨市,北町３丁目４番３０号,,11,223,3350001,,,2022-10-11,清算の結了等,,,2015-10-05,1,,,,,イシムラホケン,0
392,2030002083328,登記記録の閉鎖等,0,2022-10-21,2022-10-11,有限会社柴田機械工業所,,有限会社,埼玉県,北本市,下石戸６丁目３２５番地,,11,233,3640028,,,2022-10-11,清算の結了等,,,2015-10-05,1,,,,,シバタキカイコウギョウショ,0
395,2030002101295,登記記録の閉鎖等,0,2022-10-21,2022-10-11,有限会社オカベ工芸,,有限会社,埼玉県,川口市,上青木２丁目１０番１２号,,11,203,3330844,,,2022-10-11,清算の結了等,,,2015-10-05,1,,,,,オカベコウゲイ,0
396,2030002103119,登記記録の閉鎖等,0,2022-10-21,2022-10-05,有限会社三成金型製作所,,有限会社,埼玉県,川口市,榛松３丁目２９番６号,,11,203,3340062,,,2022-10-05,清算の結了等,,,2015-10-05,1,,,,,サンセイカナガタセイサクショ,0
414,2040005019484,登記記録の閉鎖等,0,2022-10-21,2022-10-14,特定非営利活動法人観光・交流・助け合いネット多古,,その他の設立登記法人,千葉県,香取郡多古町,多古２４４４番地１多古町魅力発信交流館,,12,347,2892241,,,2022-10-14,清算の結了等,,,2017-04-21,1,,,,,カンコウコウリュウタスケアイネットタコ,0
416,2050001019487,登記記録の閉鎖等,0,2022-10-21,2022-10-13,株式会社ＣＯＲＲＳ,,株式会社,茨城県,古河市,雷電町１１番３７号,,08,204,3060004,,,2022-10-13,合併による解散等,4050001035425,令和４年１０月１日茨城県古河市雷電町１１番３７号ＨＡＲＡＫＥＮ株式会社（4050001035425）に合併し解散,2015-10-05,1,,,,,コアーズ,0
420,2050002023158,登記記録の閉鎖等,0,2022-10-21,2022-10-12,有限会社ハディード,,有限会社,茨城県,つくば市,自由ケ丘５０９番地２９,,08,220,3001266,,,2022-10-12,清算の結了等,,,2015-10-05,1,,,,,ハディード,0
423,2060001013852,登記記録の閉鎖等,0,2022-10-21,2022-10-14,株式会社愛幸商事,,株式会社,栃木県,宇都宮市,下荒針町３２９４番地２－２０３,,09,201,3210346,,,2022-10-14,清算の結了等,,,2015-10-05,1,,,,,,0
442,2120001063354,登記記録の閉鎖等,0,2022-10-21,2022-10-17,株式会社グリーンクリエイト,,株式会社,大阪府,大阪市東淀川区,瑞光１丁目１６番３号,,27,114,5330005,,,2022-10-17,清算の結了等,,,2015-10-05,1,,,,,グリーンクリエイト,0
443,2120001096437,登記記録の閉鎖等,0,2022-10-21,2022-10-17,株式会社芦沢設計,00028721,株式会社,大阪府,大阪市天王寺区,上本町５丁目２番１４号,,27,109,5430001,,,2022-10-17,清算の結了等,,,2015-10-05,1,,,,,アシザワセッケイ,0
450,2120001170811,登記記録の閉鎖等,0,2022-10-21,2022-10-17,株式会社ＣＬＴ,,株式会社,大阪府,大阪市北区,東天満２丁目５番２０号,,27,127,5300044,,,2022-10-17,清算の結了等,,,2015-10-05,1,,,,,,0
463,2120101045814,登記記録の閉鎖等,0,2022-10-21,2022-10-19,株式会社原子炉工学研究所,,株式会社,大阪府,泉南市,新家６００５番地の１（８１２号）,,27,228,5900503,,,2022-10-19,清算の結了等,,,2015-10-05,1,,,,,ゲンシロコウガクケンキュウショ,0
474,2130001035451,登記記録の閉鎖等,0,2022-10-21,2022-10-11,株式会社石野商店,,株式会社,京都府,亀岡市,篠町柏原町頭４５番地,,26,206,6210821,,,2022-10-11,清算の結了等,,,2015-10-05,1,,,,,イシノショウテン,0
480,2140001057288,登記記録の閉鎖等,0,2022-10-21,2022-10-12,株式会社マルーフトレーディング,,株式会社,兵庫県,三木市,別所町下石野１１０８番地の３４,,28,215,6730453,,,2022-10-12,清算の結了等,,,2015-10-05,1,,,,,マルーフトレーディング,0
487,2150001012226,登記記録の閉鎖等,0,2022-10-21,2022-10-17,株式会社ＭＩＴＥＳ,,株式会社,奈良県,奈良市,千代ヶ丘２丁目１番地の２３,,29,201,6310045,,,2022-10-17,清算の結了等,,,2015-10-05,1,,,,,ミテス,0
490,2160002014245,登記記録の閉鎖等,0,2022-10-21,2022-10-19,株式会社国松運輸,,株式会社,滋賀県,蒲生郡竜王町,大字小口１２９４番地１,,25,384,5202552,,,2022-10-19,清算の結了等,,,2015-10-05,1,,,,,,0
492,2180001005342,登記記録の閉鎖等,0,2022-10-21,2022-10-17,株式会社エイチ・イー・エス,,株式会社,愛知県,名古屋市名東区,上社１丁目１８０５番地,,23,115,4650025,,,2022-10-17,清算の結了等,,,2015-10-05,1,,,,,エイチイーエス,0
495,2180001130586,登記記録の閉鎖等,0,2022-10-21,2022-10-14,株式会社ＴＲＵＥ　ＡＢＩＬＩＴＹ,,株式会社,愛知県,名古屋市中村区,名駅南３丁目３番１６号ロイジェント名駅南７０３号,,23,105,4500003,,,2022-10-14,清算の結了等,,,2017-12-25,1,,,,,トゥルーアビリティー,0
500,2180301030164,登記記録の閉鎖等,0,2022-10-21,2022-10-20,株式会社ティーエスプロジェクトサービス,,株式会社,愛知県,安城市,今池町１丁目１７番４号,,23,212,4460071,,,2022-10-20,清算の結了等,,,2017-03-27,1,,,,,ティーエスプロジェクトサービス,0
508,2200002002393,登記記録の閉鎖等,0,2022-10-21,2022-10-20,有限会社シリコンマジック,,有限会社,岐阜県,岐阜市,蔵前６丁目９番１２号,,21,201,5008233,,,2022-10-20,清算の結了等,,,2015-10-05,1,,,,,シリコンマジック,0
510,2210002010453,登記記録の閉鎖等,0,2022-10-21,2022-10-19,有限会社トウキチ,,有限会社,福井県,敦賀市,莇生野８６号４番地の６,,18,202,9140141,,,2022-10-19,清算の結了等,,,2015-10-05,1,,,,,トウキチ,0
516,2230001014148,登記記録の閉鎖等,0,2022-10-21,2022-10-19,水の王国なんと株式会社,,株式会社,富山県,南砺市,高儀２番地,,16,210,9391506,,,2022-10-19,清算の結了等,,,2015-10-05,1,,,,,ミズノオウコクナント,0
522,2240001029946,登記記録の閉鎖等,0,2022-10-21,2022-10-19,江草工業株式会社,,株式会社,広島県,福山市,芦田町大字下有地１１２５番地,00000286,34,207,7201262,,,2022-10-19,清算の結了等,,,2015-10-05,1,,,,,エグサコウギョウ,0
551,2360002017558,登記記録の閉鎖等,0,2022-10-21,2022-10-12,有限会社山城商事,,有限会社,沖縄県,浦添市,当山２丁目６番６号,,47,208,9012104,,,2022-10-12,清算の結了等,,,2015-10-05,1,,,,,ヤマシロショウジ,0
566,2380002030419,登記記録の閉鎖等,0,2022-10-21,2022-10-12,有限会社双葉総業,,有限会社,福島県,双葉郡浪江町,大字棚塩字鹿屋敷８３番地,,07,547,9791511,,,2022-10-12,清算の結了等,,,2015-10-05,1,,,,,フタバソウギョウ,0
568,2380003001369,登記記録の閉鎖等,0,2022-10-21,2022-10-13,合資会社アイ・コンサルタント,,合資会社,福島県,いわき市,平字桜町３１番地４２,,07,204,9708026,,,2022-10-13,清算の結了等,,,2015-10-05,1,,,,,アイコンサルタント,0
573,2400601000182,登記記録の閉鎖等,0,2022-10-21,2022-10-18,瀬川電器株式会社,,株式会社,岩手県,奥州市,水沢字北丑沢７番地の２,,03,215,0230031,,,2022-10-18,清算の結了等,,,2015-10-05,1,,,,,セガワデンキ,0
576,2420003002346,登記記録の閉鎖等,0,2022-10-21,2022-10-17,合同会社クレイン,,合同会社,青森県,八戸市,根城９丁目２１番１５号,,02,203,0391166,,,2022-10-17,清算の結了等,,,2021-07-13,1,,,,,クレイン,0
582,2430003006610,登記記録の閉鎖等,0,2022-10-21,2022-10-05,ｗｉｌｌｂｉｔ合同会社,,合同会社,北海道,札幌市中央区,南一条西１６丁目１番３２３号,,01,101,0600061,,,2022-10-05,清算の結了等,,,2015-10-05,1,,,,,,0
613,3010401081065,登記記録の閉鎖等,0,2022-10-21,2022-10-03,株式会社佑資,,株式会社,東京都,港区,白金台５丁目１５番５号,,13,103,1080071,,,2022-10-03,合併による解散等,2010401096675,令和４年１０月１日東京都港区白金台５－１５－５株式会社モノポール（2010401096675）に合併し解散,2015-10-05,1,,,,,ユウシ,0
636,3010903001784,登記記録の閉鎖等,0,2022-10-21,2022-10-17,松見アソシエイツ合同会社,,合同会社,東京都,世田谷区,玉川２丁目２４番１１－１１０１号,,13,112,1580094,,,2022-10-17,清算の結了等,,,2015-10-05,1,,,,,マツミアソシエイツ,0
662,3011801001918,登記記録の閉鎖等,0,2022-10-21,2022-10-18,株式会社三友精機,,株式会社,東京都,葛飾区,東金町７丁目３１番１２号,,13,122,1250041,,,2022-10-18,清算の結了等,,,2015-10-05,1,,,,,サンユウセイキ,0
667,3012401016265,登記記録の閉鎖等,0,2022-10-21,2022-10-18,株式会社センシング・コントロール・ラボ,,株式会社,東京都,小金井市,前原町４丁目１５番１５号,,13,210,1840013,,,2022-10-18,清算の結了等,,,2015-10-05,1,,,,,センシングコントロールラボ,0
676,3013301012123,登記記録の閉鎖等,0,2022-10-21,2022-10-20,株式会社山口商会,,株式会社,東京都,豊島区,巣鴨４丁目３５番７号,,13,116,1700002,,,2022-10-20,清算の結了等,,,2015-10-05,1,,,,,ヤマグチショウカイ,0
677,3013305001460,登記記録の閉鎖等,0,2022-10-21,2022-10-19,青果協同組合豊島,,その他の設立登記法人,東京都,豊島区,巣鴨５丁目４番１号,,13,116,1700002,,,2022-10-19,清算の結了等,,,2015-10-05,1,,,,,セイカトシマ,0
690,3021001038256,登記記録の閉鎖等,0,2022-10-21,2022-10-17,株式会社ニチモ,,株式会社,神奈川県,平塚市,明石町１ー１７チェアフル湘南６階,,14,203,2540042,,,2022-10-17,清算の結了等,,,2015-10-05,1,,,,,,0
703,3030001009976,登記記録の閉鎖等,0,2022-10-21,2022-10-11,株式会社ウィズコーポレーション,,株式会社,埼玉県,さいたま市北区,吉野町１丁目４０番地６フォーラム吉野１０１,,11,102,3310811,,,2022-10-11,清算の結了等,,,2015-10-05,1,,,,,ウィズコーポレーション,0
706,3030001138313,登記記録の閉鎖等,0,2022-10-21,2022-10-11,株式会社ミラミＬａｂ,,株式会社,埼玉県,新座市,片山３丁目９－２,,11,230,3520025,,,2022-10-11,清算の結了等,,,2020-09-15,1,,,,,ミラミラボ,0
708,3030002066926,登記記録の閉鎖等,0,2022-10-21,2022-10-07,有限会社サエラコーポレーション,,有限会社,埼玉県,ふじみ野市,上福岡１丁目１１番１１号,,11,245,3560004,,,2022-10-07,清算の結了等,,,2015-10-05,1,,,,,サエラコーポレーション,0
718,3040001096972,登記記録の閉鎖等,0,2022-10-21,2022-10-13,株式会社ワンダーウォール,,株式会社,千葉県,千葉市若葉区,若松台３丁目５２番４号,,12,104,2640027,,,2022-10-13,清算の結了等,,,2016-09-16,1,,,,,ワンダーウォール,0
725,3040002075471,登記記録の閉鎖等,0,2022-10-21,2022-10-12,有限会社矢原,,有限会社,千葉県,市原市,牛久６９３番地,,12,219,2900225,,,2022-10-12,清算の結了等,,,2015-10-05,1,,,,,ヤハラ,0
745,3120001023431,登記記録の閉鎖等,0,2022-10-21,2022-10-14,サトー商事株式会社,,株式会社,大阪府,大阪市天王寺区,上汐３丁目６番１４－４０１Ａ号,,27,109,5430002,,,2022-10-14,清算の結了等,,,2015-10-05,1,,,,,サトーショウジ,0
795,3130003004791,登記記録の閉鎖等,0,2022-10-21,2022-10-17,プラスエイチケイ合同会社,,合同会社,京都府,京都市西京区,桂北滝川町９１番地ネバーランド桂離宮南３０４号,,26,111,6158022,,,2022-10-17,清算の結了等,,,2016-09-30,1,,,,,プラスエイチケイ,0
809,3160002007223,登記記録の閉鎖等,0,2022-10-21,2022-10-19,有限会社柿町石油店,,有限会社,滋賀県,長浜市,西浅井町塩津中２４９番地の１,,25,203,5290704,,,2022-10-19,清算の結了等,,,2015-10-05,1,,,,,カキマチセキユテン,0
819,3180001108994,登記記録の閉鎖等,0,2022-10-21,2022-10-18,ＣＯ２削減愛知会株式会社,,株式会社,愛知県,小牧市,新小木１丁目３３番地,,23,219,4850074,,,2022-10-18,清算の結了等,,,2015-10-05,1,,,,,シーオーツーサクゲンアイチカイ,0
830,3180301005850,登記記録の閉鎖等,0,2022-10-21,2022-10-17,白木建設株式会社,,株式会社,愛知県,豊橋市,北島町字北島２３８番地の２１,,23,201,4400071,,,2022-10-17,清算の結了等,,,2015-10-05,1,,,,,シラキケンセツ,0
869,3330003006173,登記記録の閉鎖等,0,2022-10-21,2022-10-18,Ｉ＆Ｔホールディングス合同会社,,合同会社,熊本県,熊本市中央区,本荘５丁目２番１９号ＵＰＲｉｃｈ６０１,,43,101,8600811,,,2022-10-18,清算の結了等,,,2015-10-05,1,,,,,アイアンドティーホールディングス,0
871,3340003003062,登記記録の閉鎖等,0,2022-10-21,2022-10-20,合同会社バランス,,合同会社,鹿児島県,大島郡瀬戸内町,大字網野子３０８番地,,46,525,8941513,,,2022-10-20,清算の結了等,,,2020-04-02,1,,,,,バランス,0
880,3380001004810,登記記録の閉鎖等,0,2022-10-21,2022-10-14,開南建機工業株式会社,,株式会社,福島県,郡山市,方八町１丁目６番３号バースランド郡山７０６号,,07,203,9638811,,,2022-10-14,清算の結了等,,,2015-10-05,1,,,,,カイナンケンキコウギョウ,0
882,3380002007449,登記記録の閉鎖等,0,2022-10-21,2022-10-12,有限会社あさい,,有限会社,福島県,郡山市,喜久田町字入ノ内３８番地の９５,,07,203,9630551,,,2022-10-12,清算の結了等,,,2015-10-05,1,,,,,アサイ,0
896,3470002016820,登記記録の閉鎖等,0,2022-10-21,2022-10-18,有限会社八嶋屋化粧品店,,有限会社,香川県,三豊市,山本町辻３２５番地の３,00005511,37,208,7680101,,,2022-10-18,清算の結了等,,,2015-10-05,1,,,,,ヤシマヤケショウヒンテン,0
904,4010001120321,登記記録の閉鎖等,0,2022-10-21,2022-10-14,ケメットエレクトロニクスジャパン株式会社,,株式会社,東京都,千代田区,西神田３丁目８番１号千代田ファーストビル東館１２Ｆ,,13,101,1010065,,,2022-10-14,清算の結了等,,,2015-10-05,1,,,,,ケメットエレクトロニクスジャパン,0
906,4010001194431,登記記録の閉鎖等,0,2022-10-21,2022-10-13,株式会社ＨＩＤＥＯ,,株式会社,東京都,港区,赤坂３丁目３番３号,,13,103,1070052,,,2022-10-13,合併による解散等,3010401091502,令和４年１０月１日東京都港区赤坂三丁目３番３号株式会社ＪＡＸＳＯＮ（3010401091502）に合併し解散,2018-08-28,1,HIDEO Corporation,Tokyo,"3-3-3, Akasaka, Minato ku",,ハイデオ,0
916,4010401146478,登記記録の閉鎖等,0,2022-10-21,2022-10-05,株式会社ＨｉｔＨｕｂ,,株式会社,東京都,港区,赤坂７丁目９番４号ＡＫＡＳＡＫＡＶｅｔｏｒｏ５階,,13,103,1070052,,,2022-10-05,清算の結了等,,,2019-06-28,1,,,,,ヒットハブ,0
930,4010803002618,登記記録の閉鎖等,0,2022-10-21,2022-10-13,ダブルレインボー合同会社,,合同会社,東京都,大田区,南雪谷１丁目１０番１８号第二豊田ビル１階,,13,111,1450066,,,2022-10-13,清算の結了等,,,2018-03-06,1,,,,,,0
940,4011101068021,登記記録の閉鎖等,0,2022-10-21,2022-10-19,株式会社レクシー,,株式会社,東京都,新宿区,高田馬場１丁目７番９号,,13,104,1690075,,,2022-10-19,清算の結了等,,,2015-10-05,1,,,,,レクシー,0
949,4011301022851,登記記録の閉鎖等,0,2022-10-21,2022-10-11,株式会社コンサルティングオフィス・ＳＨＩＧＥ,,株式会社,東京都,杉並区,浜田山１丁目７番１５号,,13,115,1680065,,,2022-10-11,清算の結了等,,,2017-01-20,1,,,,,コンサルティングオフィスシゲ,0
958,4011703002212,登記記録の閉鎖等,0,2022-10-21,2022-10-19,合同会社黛,,合同会社,東京都,江戸川区,東小松川３丁目３５番１号,,13,123,1320033,,,2022-10-19,清算の結了等,,,2019-03-11,1,,,,,マユズミ,0
961,4013101004030,登記記録の閉鎖等,0,2022-10-21,2022-10-20,株式会社間坂屋紙店,,株式会社,東京都,青梅市,住江町６０番地,,13,205,1980084,,,2022-10-20,清算の結了等,,,2015-10-05,1,,,,,マザカヤカミテン,0
963,4020001018449,登記記録の閉鎖等,0,2022-10-21,2022-10-13,日興産業株式会社,,株式会社,神奈川県,横浜市鶴見区,鶴見中央３丁目２１番９－２０５号,,14,101,2300051,,,2022-10-13,清算の結了等,,,2015-10-05,1,,,,,ニッコウサンギョウ,0
969,4020005006458,登記記録の閉鎖等,0,2022-10-21,2022-10-12,特定非営利活動法人横浜創造まちづくり学会,,その他の設立登記法人,神奈川県,横浜市金沢区,瀬戸２２番２号,,14,108,2360027,,,2022-10-12,清算の結了等,,,2015-10-05,1,,,,,ヨコハマソウゾウマチヅクリガッカイ,0
985,4030001024017,登記記録の閉鎖等,0,2022-10-21,2022-10-18,株式会社高衛商事,,株式会社,東京都,西東京市,下保谷４丁目１５番１９号,,13,229,2020004,,,2022-10-18,清算の結了等,,,2015-10-05,1,,,,,コウエイショウジ,0
1001,4030005005797,登記記録の閉鎖等,0,2022-10-21,2022-10-07,医療法人社団恵俊会,,その他の設立登記法人,埼玉県,草加市,栄町２丁目４番１７号,,11,221,3400011,,,2022-10-07,清算の結了等,,,2015-10-05,1,,,,,ケイシュンカイ,0
1011,4040002009305,登記記録の閉鎖等,0,2022-10-21,2022-10-19,有限会社バンダ重機産業,,有限会社,千葉県,千葉市花見川区,さつきが丘２丁目１０番１９－４０１号,,12,102,2620014,,,2022-10-19,清算の結了等,,,2015-10-05,1,,,,,バンダジュウキサンギョウ,0
1012,4040002042909,登記記録の閉鎖等,0,2022-10-21,2022-10-11,有限会社東公商事,,有限会社,千葉県,市川市,宮久保３丁目３番２１号,,12,203,2720822,,,2022-10-11,清算の結了等,,,2015-10-05,1,,,,,トウコウショウジ,0
1024,4050002010253,登記記録の閉鎖等,0,2022-10-21,2022-10-12,有限会社たかやす写真店,,有限会社,茨城県,笠間市,八雲１丁目８番３号,,08,216,3091736,,,2022-10-12,清算の結了等,,,2015-10-05,1,,,,,タカヤスシャシンテン,0
1035,4080101013600,登記記録の閉鎖等,0,2022-10-21,2022-10-19,誠美堂印刷株式会社,,株式会社,静岡県,伊東市,湯川２丁目１１番５号,,22,208,4140002,,,2022-10-19,清算の結了等,,,2015-10-05,1,,,,,セイビドウインサツ,0
1057,4120003006870,登記記録の閉鎖等,0,2022-10-21,2022-10-17,オアシス学院合同会社,,合同会社,大阪府,大阪市旭区,太子橋１丁目２番２４号ＴＳハイツ２０１号,,27,117,5350001,,,2022-10-17,清算の結了等,,,2015-10-05,1,,,,,オアシスガクイン,0
1063,4122001024334,登記記録の閉鎖等,0,2022-10-21,2022-10-11,株式会社アイ・ハート,,株式会社,大阪府,東大阪市,菱江２丁目１７番８号,,27,227,5780984,,,2022-10-11,清算の結了等,,,2015-10-05,1,,,,,アイハート,0
1064,4130001016565,登記記録の閉鎖等,0,2022-10-21,2022-10-11,株式会社芋松,,株式会社,京都府,京都市中京区,西ノ京東月光町１１番地の５,,26,104,6048422,,,2022-10-11,清算の結了等,,,2015-10-05,1,,,,,イモマツ,0
1066,4130001037859,登記記録の閉鎖等,0,2022-10-21,2022-10-11,株式会社ふるかわ,,株式会社,京都府,綴喜郡井手町,大字井手小字扇畑６２番地,,26,343,6100302,,,2022-10-11,清算の結了等,,,2015-10-05,1,,,,,フルカワ,0
1069,4130001063070,登記記録の閉鎖等,0,2022-10-21,2022-10-11,株式会社マリソル,,株式会社,京都府,京田辺市,山手東２丁目３番地,,26,211,6100357,,,2022-10-11,清算の結了等,,,2018-10-04,1,,,,,マリソル,0
1082,4140005003559,登記記録の閉鎖等,0,2022-10-21,2022-10-20,エヌピーオードリカム,,その他の設立登記法人,兵庫県,神戸市長田区,五番町４丁目３０番地市住２９－１０４号,,28,106,6530003,,,2022-10-20,清算の結了等,,,2015-10-05,1,,,,,エヌピーオードリカム,0
1089,4180001085655,登記記録の閉鎖等,0,2022-10-21,2022-10-14,株式会社アムズ,,株式会社,愛知県,稲沢市,井之口柿ノ木町７１番地２,,23,220,4928157,,,2022-10-14,清算の結了等,,,2015-10-05,1,,,,,アムズ,0
1091,4180001095571,登記記録の閉鎖等,0,2022-10-21,2022-10-14,株式会社栄進商事,,株式会社,愛知県,知多市,新知台１丁目３番地の９,,23,224,4780064,,,2022-10-14,清算の結了等,,,2015-10-05,1,,,,,エイシンショウジ,0
1096,4180002004036,登記記録の閉鎖等,0,2022-10-21,2022-10-07,有限会社クリエール,,有限会社,愛知県,名古屋市千種区,楠元町１丁目４３番地,,23,101,4640037,,,2022-10-07,清算の結了等,,,2015-10-05,1,,,,,クリエール,0
1097,4180002040106,登記記録の閉鎖等,0,2022-10-21,2022-10-17,有限会社名商建工,,有限会社,愛知県,名古屋市千種区,上野３丁目１４番３号,,23,101,4640082,,,2022-10-17,清算の結了等,,,2015-10-05,1,,,,,メイショウケンコウ,0
1099,4180002060839,登記記録の閉鎖等,0,2022-10-21,2022-10-14,有限会社青松工業,,有限会社,愛知県,名古屋市北区,楠１丁目１４０２番地,,23,103,4620012,,,2022-10-14,清算の結了等,,,2015-10-05,1,,,,,アオマツコウギョウ,0
1125,4260001034216,登記記録の閉鎖等,0,2022-10-21,2022-10-20,豊山商事株式会社,,株式会社,岡山県,岡山市南区,泉田２３番地１,,33,104,7000944,,,2022-10-20,清算の結了等,,,2020-04-06,1,,,,,ホウザンショウジ,0
1160,4380002017570,登記記録の閉鎖等,0,2022-10-21,2022-10-13,有限会社大野プレス工業,,有限会社,福島県,白河市,借宿鶴ヶ岡８番地,,07,205,9610014,,,2022-10-13,清算の結了等,,,2015-10-05,1,,,,,オオノプレスコウギョウ,0
1166,4430001010232,登記記録の閉鎖等,0,2022-10-21,2022-10-11,株式会社辰美正門館,,株式会社,北海道,札幌市西区,福井３丁目９番２４号,,01,107,0630012,,,2022-10-11,清算の結了等,,,2015-10-05,1,,,,,タツミセイモンカン,0
1178,5010001014480,登記記録の閉鎖等,0,2022-10-21,2022-10-14,株式会社菊水カメラ店,,株式会社,東京都,千代田区,丸の内１丁目２番１号,,13,101,1000005,,,2022-10-14,清算の結了等,,,2015-10-05,1,,,,,キクスイカメラテン,0
1193,5010401082607,登記記録の閉鎖等,0,2022-10-21,2022-10-03,株式会社パラディソ,,株式会社,東京都,港区,南青山３丁目１４番１３号ツイン南青山２０１号,,13,103,1070062,,,2022-10-03,清算の結了等,,,2015-10-05,1,,,,,パラディソ,0
1196,5010401091616,登記記録の閉鎖等,0,2022-10-21,2022-10-07,株式会社マネジメント・リサーチ・インスティテュート,,株式会社,神奈川県,中郡大磯町,東小磯４２４番地１７号,,14,341,2550004,,,2022-10-07,清算の結了等,,,2015-10-05,1,,,,,,0
1204,5010405017410,登記記録の閉鎖等,0,2022-10-21,2022-10-04,のぞみ一般社団法人,,その他の設立登記法人,東京都,港区,北青山１丁目２番３号,,13,103,1070061,,,2022-10-04,清算の結了等,,,2019-01-28,1,,,,,ノゾミ,0
1217,5011001139508,登記記録の閉鎖等,0,2022-10-21,2022-10-11,株式会社５Ｃ,,株式会社,東京都,渋谷区,渋谷２丁目２４番１２号,,13,113,1500002,,,2022-10-11,清算の結了等,,,2021-04-06,1,,,,,ファイブシー,0
1234,5011201014295,登記記録の閉鎖等,0,2022-10-21,2022-10-18,ＦＳＳ株式会社,,株式会社,東京都,中野区,中野５丁目５５番１１号,,13,114,1640001,,,2022-10-18,清算の結了等,,,2015-10-05,1,,,,,エフエスエス,0
1239,5011601019316,登記記録の閉鎖等,0,2022-10-21,2022-10-18,株式会社コーエイ,,株式会社,東京都,練馬区,光が丘７丁目３番４－４０５号,,13,120,1790072,,,2022-10-18,清算の結了等,,,2015-10-05,1,,,,,コーエイ,0
1240,5011602009547,登記記録の閉鎖等,0,2022-10-21,2022-10-18,有限会社丸栄水道工務店,,有限会社,東京都,練馬区,西大泉４丁目１３番１４号,,13,120,1780065,,,2022-10-18,清算の結了等,,,2015-10-05,1,,,,,マルエイスイドウコウムテン,0
1263,5020001090471,登記記録の閉鎖等,0,2022-10-21,2022-10-12,株式会社Ｇ－Ｓｔｙｌｅ,,株式会社,神奈川県,横浜市西区,西戸部町３丁目２５７番地,,14,103,2200046,,,2022-10-12,清算の結了等,,,2015-10-05,1,,,,,ジースタイル,0
1291,5030001105187,登記記録の閉鎖等,0,2022-10-21,2022-10-07,株式会社藤田塾ＡＬＥＳＩＡ,,株式会社,埼玉県,加須市,根古屋６３７番地３４,,11,210,3470104,,,2022-10-07,清算の結了等,,,2015-10-05,1,,,,,,0
1304,5040002010063,登記記録の閉鎖等,0,2022-10-21,2022-10-13,有限会社フジホームサービス,,有限会社,千葉県,千葉市花見川区,幕張町５丁目１７４番地１,,12,102,2620032,,,2022-10-13,清算の結了等,,,2015-10-05,1,,,,,フジホームサービス,0
1311,5050001000469,登記記録の閉鎖等,0,2022-10-21,2022-10-14,上田工業株式会社,,株式会社,茨城県,水戸市,大串町５９７番地の１,,08,201,3111115,,,2022-10-14,清算の結了等,,,2015-10-05,1,,,,,ウエダコウギョウ,0
1313,5050001049440,登記記録の閉鎖等,0,2022-10-21,2022-10-18,リンクステックサーキット株式会社,,株式会社,茨城県,筑西市,小川１５００番地,,08,227,3080857,,,2022-10-18,合併による解散等,6010001207471,令和４年１０月１日東京都中央区京橋二丁目１４番１号リンクステック株式会社（6010001207471）に合併し解散,2021-06-25,1,,,,,リンクステックサーキット,0
1317,5060002025448,登記記録の閉鎖等,0,2022-10-21,2022-10-14,有限会社手塚製麺所,,有限会社,栃木県,大田原市,新富町３丁目２番２１号,,09,210,3240055,,,2022-10-14,清算の結了等,,,2015-10-05,1,,,,,テヅカセイメンジョ,0
1319,5080002004061,登記記録の閉鎖等,0,2022-10-21,2022-10-18,有限会社デジ・アサップ,,有限会社,静岡県,静岡市葵区,上足洗４丁目５番１１号,,22,101,4200841,,,2022-10-18,清算の結了等,,,2015-10-05,1,,,,,デジドットアサップ,0
1324,5080402009668,登記記録の閉鎖等,0,2022-10-21,2022-10-19,有限会社西遠カラーサービス,,有限会社,静岡県,湖西市,新居町新居１２７４番地,,22,221,4310302,,,2022-10-19,清算の結了等,,,2015-10-05,1,,,,,セイエンカラーサービス,0
1327,5090002008318,登記記録の閉鎖等,0,2022-10-21,2022-10-17,有限会社甲南防災設備工業,,有限会社,山梨県,笛吹市,石和町今井２７番地の３,,19,211,4060042,,,2022-10-17,清算の結了等,,,2015-10-05,1,,,,,コウナンボウサイセツビコウギョウ,0
1334,5120001134796,登記記録の閉鎖等,0,2022-10-21,2022-10-18,株式会社シティリメイクエンタープライズ,,株式会社,大阪府,大阪市淀川区,宮原３丁目５番２４号,,27,123,5320003,,,2022-10-18,清算の結了等,,,2015-10-05,1,,,,,,0
1344,5120003015929,登記記録の閉鎖等,0,2022-10-21,2022-10-17,合同会社ＳＡＫＵ,,合同会社,大阪府,大阪市城東区,鴫野西５丁目１９番２６号,,27,118,5360014,,,2022-10-17,清算の結了等,,,2019-07-04,1,,,,,サク,0
1346,5120005020051,登記記録の閉鎖等,0,2022-10-21,2022-10-19,特定非営利活動法人ＮＰＯ　ＴＡＫＡＲＡ,,その他の設立登記法人,大阪府,寝屋川市,宝町１－８,,27,215,5720067,,,2022-10-19,清算の結了等,,,2018-03-02,1,,,,,エヌピーオータカラ,0
1357,5130002015516,登記記録の閉鎖等,0,2022-10-21,2022-10-13,有限会社アクト,,有限会社,京都府,京都市中京区,堺町通蛸薬師上る甲屋町３９４番地,00037441,26,104,6048114,,,2022-10-13,清算の結了等,,,2015-10-05,1,,,,,アクト,0
1372,5180001119486,登記記録の閉鎖等,0,2022-10-21,2022-10-14,株式会社テンシノニワ,,株式会社,愛知県,名古屋市天白区,鴻の巣１丁目２４１３番地,,23,116,4680003,,,2022-10-14,清算の結了等,,,2015-10-05,1,,,,,テンシノニワ,0
1383,5180302015780,登記記録の閉鎖等,0,2022-10-21,2022-10-17,有限会社飛田シルバーモータース,,有限会社,愛知県,蒲郡市,栄町８番１号,,23,214,4430035,,,2022-10-17,清算の結了等,,,2015-10-05,1,,,,,ヒダシルバーモータース,0
1387,5220001012513,登記記録の閉鎖等,0,2022-10-21,2022-10-14,モリクロス株式会社,,株式会社,石川県,小松市,蛭川町丁１７２番地,,17,203,9230011,,,2022-10-14,合併による解散等,8140001048587,令和４年９月２１日兵庫県尼崎市南武庫之荘一丁目１７番１号クロス工業株式会社（8140001048587）に合併し解散,2015-10-05,1,,,,,モリクロス,0
1390,5230005008036,登記記録の閉鎖等,0,2022-10-21,2022-10-03,一般社団法人アカデミックリサーチコミュニケーションズ,,その他の設立登記法人,東京都,港区,南青山２丁目２番１５号ウィン青山９４２,,13,103,1070062,,,2022-10-03,清算の結了等,,,2015-10-05,1,,,,,アカデミックリサーチコミュニケーションズ,0
1394,5240002050733,登記記録の閉鎖等,0,2022-10-21,2022-10-18,有限会社ジャパン・メディカル・システムズ,,有限会社,広島県,尾道市,西則末町８番２０号,,34,205,7220024,,,2022-10-18,清算の結了等,,,2015-10-05,1,,,,,ジャパンメディカルシステムズ,0
1413,5330001011727,登記記録の閉鎖等,0,2022-10-21,2022-10-17,株式会社イデックスクラリティー,,株式会社,熊本県,玉名郡長洲町,大字名石浜２１番地の９,,43,368,8690111,,,2022-10-17,清算の結了等,,,2015-10-05,1,,,,,イデックスクラリティー,0
1432,5380002014501,登記記録の閉鎖等,0,2022-10-21,2022-10-13,有限会社プラザ福島,,有限会社,福島県,郡山市,南２丁目２４番地,,07,203,9630115,,,2022-10-13,清算の結了等,,,2015-10-05,1,,,,,プラザフクシマ,0
1433,5380002021935,登記記録の閉鎖等,0,2022-10-21,2022-10-13,有限会社赤塚不動産鑑定事務所,,有限会社,福島県,いわき市,平字八幡小路１５番地３,,07,204,9708026,,,2022-10-13,清算の結了等,,,2015-10-05,1,,,,,アカツカフドウサンカンテイジムショ,0
1434,5380005010687,登記記録の閉鎖等,0,2022-10-21,2022-10-13,須賀川除染支援事業協同組合,,その他の設立登記法人,福島県,須賀川市,堀底町８番地４,,07,207,9620027,,,2022-10-13,清算の結了等,,,2015-10-05,1,,,,,スカガワジョセンシエンジギョウ,0
1451,5430002041564,登記記録の閉鎖等,0,2022-10-21,2022-10-11,有限会社ケーイング,,有限会社,北海道,札幌市北区,新琴似二条４丁目６番２１号,,01,102,0010902,,,2022-10-11,清算の結了等,,,2015-10-05,1,,,,,ケーイング,0
1474,6010003028288,登記記録の閉鎖等,0,2022-10-21,2022-10-17,汐風合同会社,,合同会社,東京都,中央区,月島１丁目２２番１号,,13,102,1040052,,,2022-10-17,清算の結了等,,,2018-09-14,1,,,,,シオカゼ,0
1477,6010102002053,登記記録の閉鎖等,0,2022-10-21,2022-10-12,有限会社木崎米穀店,,有限会社,東京都,八王子市,万町１１番地,,13,201,1920903,,,2022-10-12,清算の結了等,,,2015-10-05,1,,,,,キザキベイコクテン,0
1490,6010401169221,登記記録の閉鎖等,0,2022-10-21,2022-10-18,ベターライフエステート株式会社,,株式会社,東京都,港区,白金台３丁目１９番１号,,13,103,1080071,,,2022-10-18,合併による解散等,7011101060140,令和４年１０月１６日東京都新宿区西新宿七丁目２１番１号新宿ロイヤルビル９階自由住宅株式会社（7011101060140）に合併し解散,2022-08-17,1,,,,,ベターライフエステート,0
1492,6010402019796,登記記録の閉鎖等,0,2022-10-21,2022-09-22,有限会社エレット,,有限会社,東京都,港区,白金６丁目２番８号,,13,103,1080072,,,2022-09-22,清算の結了等,,,2015-10-05,1,,,,,,0
1509,6011001134937,登記記録の閉鎖等,0,2022-10-21,2022-10-19,ＦＬＵＳＳＯ株式会社,,株式会社,東京都,渋谷区,神宮前５丁目４７番１１号１０２号室,,13,113,1500001,,,2022-10-19,合併による解散等,1120001012428,令和４年１０月１日大阪市東成区玉津一丁目１２番２９号ＳＡＮＥＩ株式会社（1120001012428）に合併し解散,2020-07-28,1,,,,,,0
1517,6011303002676,登記記録の閉鎖等,0,2022-10-21,2022-10-11,ＭＧＦ合同会社,,合同会社,東京都,杉並区,高円寺南１丁目５番４－２０５号,,13,115,1660003,,,2022-10-11,清算の結了等,,,2017-03-17,1,,,,,エムジーエフ,0
1536,6020002048402,登記記録の閉鎖等,0,2022-10-21,2022-10-12,川井木材工業有限会社,,有限会社,神奈川県,横浜市旭区,川井本町７１番地,,14,112,2410803,,,2022-10-12,清算の結了等,,,2015-10-05,1,,,,,カワイモクザイコウギョウ,0
1537,6020002059738,登記記録の閉鎖等,0,2022-10-21,2022-10-14,有限会社ケン・インスペクション・リミティッド,,有限会社,神奈川県,横浜市金沢区,泥亀１丁目２８番地Ａ８０６,,14,108,2360021,,,2022-10-14,清算の結了等,,,2015-10-05,1,,,,,ケンインスペクションリミティッド,0
1538,6020002089990,登記記録の閉鎖等,0,2022-10-21,2022-10-14,有限会社萩設備設計事務所,,有限会社,神奈川県,川崎市高津区,下作延４丁目１８番１８号,,14,134,2130033,,,2022-10-14,清算の結了等,,,2015-10-05,1,,,,,ハギセツビセッケイジムショ,0
1547,6021001069447,登記記録の閉鎖等,0,2022-10-21,2022-10-17,株式会社ＡＭＡＭＯＲＩ　ＬＡＢ,,株式会社,神奈川県,厚木市,林４丁目８番１７号,,14,212,2430816,,,2022-10-17,清算の結了等,,,2020-03-05,1,,,,,アマモリラボ,0
1552,6021002032791,登記記録の閉鎖等,0,2022-10-21,2022-10-17,有限会社バディー,,有限会社,神奈川県,厚木市,下川入３０９番地の２,,14,212,2430206,,,2022-10-17,清算の結了等,,,2015-10-05,1,,,,,,0
1559,6030001072385,登記記録の閉鎖等,0,2022-10-21,2022-10-17,北関東福山通運株式会社,,株式会社,埼玉県,比企郡滑川町,大字都２５番地４０,,11,341,3550812,,,2022-10-17,合併による解散等,1240001032736,令和４年１０月１日広島県福山市東深津町四丁目２０番１号福山通運株式会社（1240001032736）に合併し解散,2015-10-05,1,,,,,キタカントウフクヤマツウウン,0
1560,6030001072534,登記記録の閉鎖等,0,2022-10-21,2022-10-11,修仁株式会社,,株式会社,埼玉県,北葛飾郡杉戸町,大字下野９９２番地１,,11,464,3450044,,,2022-10-11,清算の結了等,,,2015-10-05,1,,,,,シュウト,0
1563,6030001105186,登記記録の閉鎖等,0,2022-10-21,2022-10-07,株式会社藤田塾,,株式会社,埼玉県,加須市,根古屋６３７番地３４,,11,210,3470104,,,2022-10-07,清算の結了等,,,2015-10-05,1,,,,,,0
1571,6030002081674,登記記録の閉鎖等,0,2022-10-21,2022-10-11,有限会社浅見建材工業,,有限会社,埼玉県,児玉郡神川町,大字上阿久原１１８番地,,11,383,3670312,,,2022-10-11,清算の結了等,,,2015-10-05,1,,,,,アサミケンザイコウギョウ,0
1577,6040001005195,登記記録の閉鎖等,0,2022-10-21,2022-10-12,株式会社東京エース,,株式会社,千葉県,千葉市花見川区,三角町５５番地,,12,102,2620011,,,2022-10-12,清算の結了等,,,2015-10-05,1,,,,,トウキョウエース,0
1578,6040001010377,登記記録の閉鎖等,0,2022-10-21,2022-10-14,株式会社千葉フカガワ,,株式会社,千葉県,千葉市稲毛区,長沼原町５５番２号,,12,103,2630001,,,2022-10-14,合併による解散等,8030001076970,令和４年１０月１日埼玉県川口市西青木二丁目９番５号株式会社フカガワ（8030001076970）に合併し解散,2015-10-05,1,,,,,チバフカガワ,0
1593,6060002036865,登記記録の閉鎖等,0,2022-10-21,2022-10-17,有限会社トミタオート,,有限会社,栃木県,足利市,迫間町５１８番地１,,09,202,3294216,,,2022-10-17,清算の結了等,,,2022-08-31,1,,,,,トミタオート,0
1633,6120105005356,登記記録の閉鎖等,0,2022-10-21,2022-10-18,医療法人仁泉会,,その他の設立登記法人,大阪府,河内長野市,清見台５丁目１０番１号,,27,216,5860043,,,2022-10-18,清算の結了等,,,2015-10-05,1,,,,,ジンセンカイ,0
1664,6180001020271,登記記録の閉鎖等,0,2022-10-21,2022-10-17,株式会社トーカイ測機,,株式会社,愛知県,名古屋市中川区,戸田ゆたか２丁目１７０９番地,,23,110,4540966,,,2022-10-17,清算の結了等,,,2015-10-05,1,,,,,トーカイソッキ,0
1670,6180001130343,登記記録の閉鎖等,0,2022-10-21,2022-10-14,ブリエプロジェ株式会社,,株式会社,愛知県,名古屋市中区,錦３丁目２１番１８号,,23,106,4600003,,,2022-10-14,清算の結了等,,,2017-12-05,1,,,,,ブリエプロジェ,0
1677,6180302027676,登記記録の閉鎖等,0,2022-10-21,2022-10-14,有限会社寝具の夏目,,有限会社,愛知県,新城市,字富沢２２６番地,,23,221,4411300,,,2022-10-14,清算の結了等,,,2015-10-05,1,,,,,シングノナツメ,0
1678,6200002003561,登記記録の閉鎖等,0,2022-10-21,2022-10-20,有限会社ニユーパロマ,,有限会社,岐阜県,岐阜市,柳ケ瀬通３丁目２４番地,,21,201,5008875,,,2022-10-20,清算の結了等,,,2015-10-05,1,,,,,ニユーパロマ,0
1679,6220001004476,登記記録の閉鎖等,0,2022-10-21,2022-10-13,株式会社土井,,株式会社,石川県,金沢市,入江２丁目１８０番地,,17,201,9218011,,,2022-10-13,清算の結了等,,,2015-10-05,1,,,,,ドイ,0
1693,6290002020185,登記記録の閉鎖等,0,2022-10-21,2022-10-13,有限会社ライトデジテック,,有限会社,福岡県,福岡市中央区,天神１丁目１５番３２号,,40,133,8100001,,,2022-10-13,清算の結了等,,,2015-10-05,1,,,,,ライトデジテック,0
1696,6310005003985,登記記録の閉鎖等,0,2022-10-21,2022-10-20,特定非営利活動法人ミュージックネットワークＳＡＳＥＢＯ,,その他の設立登記法人,長崎県,佐世保市,矢岳町３４５番地１７,,42,202,8570047,,,2022-10-20,清算の結了等,,,2015-10-05,1,,,,,ミュージックネットワークサセボ,0
1706,6350002004719,登記記録の閉鎖等,0,2022-10-21,2022-10-19,有限会社宮崎作庭開発,,有限会社,宮崎県,宮崎市,大塚町水流５１１７番地１,,45,201,8800951,,,2022-10-19,清算の結了等,,,2015-10-05,1,,,,,ミヤザキサクテイカイハツ,0
1715,6390002009821,登記記録の閉鎖等,0,2022-10-21,2022-10-17,有限会社宮原組,,有限会社,山形県,鶴岡市,大塚町６番５－１４号,,06,203,9970047,,,2022-10-17,清算の結了等,,,2015-10-05,1,,,,,,0
1717,6400001009366,登記記録の閉鎖等,0,2022-10-21,2022-10-19,株式会社ドルフィン,,株式会社,岩手県,宮古市,大通１丁目４番１３号,,03,202,0270083,,,2022-10-19,清算の結了等,,,2015-10-05,1,,,,,ドルフィン,0
1721,6430001039484,登記記録の閉鎖等,0,2022-10-21,2022-10-11,株式会社フォーライフサポート,,株式会社,北海道,札幌市厚別区,厚別南２丁目３２番２３－５０６号,,01,108,0040022,,,2022-10-11,清算の結了等,,,2015-10-05,1,,,,,フォーライフサポート,0
1728,6470002008807,登記記録の閉鎖等,0,2022-10-21,2022-10-19,株式会社Ｍｉｚｉｚｉ,,株式会社,香川県,高松市,栗林町３丁目１１番５号,,37,201,7600073,,,2022-10-19,清算の結了等,,,2015-10-05,1,,,,,ミジジ,0
1729,6480002009639,登記記録の閉鎖等,0,2022-10-21,2022-10-20,株式会社住友,,株式会社,徳島県,阿波市,土成町土成字大法寺８番地,,36,206,7711506,,,2022-10-20,清算の結了等,,,2015-10-05,1,,,,,スミトモ,0
1745,7010401153125,登記記録の閉鎖等,0,2022-10-21,2022-10-04,Ｔａｅｌｔｅｃｈ　Ｊａｐａｎ株式会社,,株式会社,東京都,港区,南青山１丁目２０番２号乃木坂ビジネスコート１Ｆ,,13,103,1070062,,,2022-10-04,清算の結了等,,,2020-06-03,1,,,,,タエルテックジャパン,0
1765,7011002002480,登記記録の閉鎖等,0,2022-10-21,2022-10-19,有限会社オール・プロデュース,,有限会社,東京都,渋谷区,幡ヶ谷１丁目１９番１号グリーンハウス３０５,,13,113,1510072,,,2022-10-19,清算の結了等,,,2015-10-05,1,,,,,オールプロデュース,0
1766,7011003002323,登記記録の閉鎖等,0,2022-10-21,2022-10-11,合同会社ＶＴＦＡタフネス,,合同会社,東京都,渋谷区,代官山町２０番９号,,13,113,1500034,,,2022-10-11,清算の結了等,,,2015-10-05,1,,,,,ヴイティーエフエータフネス,0
1773,7011101085419,登記記録の閉鎖等,0,2022-10-21,2022-10-17,拓連株式会社,,株式会社,東京都,中央区,銀座６丁目６番１号,,13,102,1040061,,,2022-10-17,清算の結了等,,,2018-09-19,1,,,,,タクレン,0
1791,7011802015649,登記記録の閉鎖等,0,2022-10-21,2022-10-18,有限会社玉山商事,,有限会社,東京都,足立区,入谷４丁目６番８号,,13,121,1210836,,,2022-10-18,清算の結了等,,,2015-10-05,1,,,,,,0
1805,7020001050192,登記記録の閉鎖等,0,2022-10-21,2022-10-14,ＷＥＢエンヂニアリング株式会社,,株式会社,神奈川県,横浜市緑区,いぶき野５４番地３,,14,113,2260028,,,2022-10-14,清算の結了等,,,2015-10-05,1,,,,,ウェブエンヂニアリング,0
1807,7020001086410,登記記録の閉鎖等,0,2022-10-21,2022-10-13,アゾットトータルマネジメント株式会社,,株式会社,神奈川県,横浜市中区,太田町６丁目７９番地アブソルート横濱馬車道ビル,,14,104,2310011,,,2022-10-13,清算の結了等,,,2015-10-05,1,,,,,アゾットトータルマネジメント,0
1811,7020001133360,登記記録の閉鎖等,0,2022-10-21,2022-10-17,ヴァイス・ジャパン株式会社,,株式会社,神奈川県,横浜市港北区,新横浜３丁目７番１８号日総第１８ビル,,14,109,2220033,,,2022-10-17,清算の結了等,,,2019-10-24,1,,,,,ヴァイスジャパン,0
1814,7020002040531,登記記録の閉鎖等,0,2022-10-21,2022-10-17,有限会社森田工業,,有限会社,神奈川県,横浜市鶴見区,佃野町６番２２号,,14,101,2300061,,,2022-10-17,清算の結了等,,,2015-10-05,1,,,,,モリタコウギョウ,0
1815,7020002073003,登記記録の閉鎖等,0,2022-10-21,2022-10-17,有限会社イシイ保険事務所,,有限会社,神奈川県,横浜市戸塚区,川上町３７７番地,,14,110,2440805,,,2022-10-17,清算の結了等,,,2015-10-05,1,,,,,イシイホケンジムショ,0
1828,7030001032140,登記記録の閉鎖等,0,2022-10-21,2022-10-11,株式会社桜花サービス,,株式会社,埼玉県,幸手市,中１丁目１番４０号,,11,240,3400115,,,2022-10-11,清算の結了等,,,2015-10-05,1,,,,,オウカサービス,0
1844,7040001040588,登記記録の閉鎖等,0,2022-10-21,2022-10-13,株式会社ビクトリー,,株式会社,千葉県,柏市,宿連寺２３９番地１北柏宿連寺ハイツ５０７号,,12,217,2770826,,,2022-10-13,清算の結了等,,,2015-10-05,1,,,,,ビクトリー,0
1845,7040001053722,登記記録の閉鎖等,0,2022-10-21,2022-10-12,井村塗装工業株式会社,,株式会社,千葉県,市原市,五井８９２６番地,,12,219,2900056,,,2022-10-12,清算の結了等,,,2015-10-05,1,,,,,イムラトソウコウギョウ,0
1858,7040003005416,登記記録の閉鎖等,0,2022-10-21,2022-10-13,合同会社ヒビコレ,,合同会社,千葉県,松戸市,金ケ作４０８－１４４野口ビル２階,,12,207,2702251,,,2022-10-13,清算の結了等,,,2015-10-05,1,,,,,ヒビコレ,0
1860,7040005017731,登記記録の閉鎖等,0,2022-10-21,2022-10-13,特定非営利活動法人幕張エクスパット＆ジャパニーズコネクション,,その他の設立登記法人,千葉県,千葉市美浜区,打瀬３丁目５番地マリンフォート３－５０４号,,12,106,2610013,,,2022-10-13,清算の結了等,,,2015-10-05,1,,,,,マクハリエクスパットアンドジャパニーズコネクション,0
1863,7050001030076,登記記録の閉鎖等,0,2022-10-21,2022-10-12,株式会社サンプラテック,,株式会社,茨城県,常総市,大沢２０１２番地５,,08,211,3002727,,,2022-10-12,清算の結了等,,,2015-10-05,1,,,,,サンプラテック,0
1867,7050005008110,登記記録の閉鎖等,0,2022-10-21,2022-10-14,特定非営利活動法人さくらの会,,その他の設立登記法人,茨城県,稲敷市,浮島字内発句４２３７番１,,08,229,3000641,,,2022-10-14,清算の結了等,,,2015-10-05,1,,,,,サクラノカイ,0
1868,7050005011782,登記記録の閉鎖等,0,2022-10-21,2022-10-14,常陸太田市簡易水道工事協同組合,,その他の設立登記法人,茨城県,常陸太田市,小中町９８６番地,,08,212,3110504,,,2022-10-14,清算の結了等,,,2015-12-14,1,,,,,ヒタチオオタシカンイスイドウコウジ,0
1879,7110001024939,登記記録の閉鎖等,0,2022-10-21,2022-10-17,五龍整絨株式会社,,株式会社,新潟県,見附市,本町４丁目６番１３号,,15,211,9540053,,,2022-10-17,清算の結了等,,,2015-10-05,1,,,,,ゴリュウセイジュウ,0
1883,7120001019401,登記記録の閉鎖等,0,2022-10-21,2022-10-17,株式会社アクティブ,,株式会社,大阪府,大阪市平野区,流町１丁目５番１号,,27,126,5470032,,,2022-10-17,清算の結了等,,,2015-10-05,1,,,,,アクティブ,0
1898,7120002019367,登記記録の閉鎖等,0,2022-10-21,2022-10-12,有限会社ゆうい工房,,有限会社,大阪府,大阪市天王寺区,上本町６丁目９番１０号,,27,109,5430001,,,2022-10-12,清算の結了等,,,2015-10-05,1,,,,,ユウイコウボウ,0
1900,7120005013227,登記記録の閉鎖等,0,2022-10-21,2022-10-19,特定非営利活動法人枚方市肢体不自由児者父母の会ひらふぼクラブ,,その他の設立登記法人,大阪府,枚方市,宮之阪４丁目４５番１９号,,27,210,5730022,,,2022-10-19,清算の結了等,,,2015-10-05,1,,,,,ヒラカタシシタイフジユウジシャフボノカイヒラフボクラブ,0
1928,7180001061901,登記記録の閉鎖等,0,2022-10-21,2022-10-17,カンセイ株式会社,,株式会社,愛知県,名古屋市西区,上名古屋３丁目７番１５号,,23,104,4510025,,,2022-10-17,清算の結了等,,,2015-10-05,1,,,,,カンセイ,0
1930,7180001069317,登記記録の閉鎖等,0,2022-10-21,2022-10-17,株式会社サカエ,,株式会社,愛知県,豊明市,二村台４丁目２１番地の７,,23,229,4701131,,,2022-10-17,清算の結了等,,,2015-10-05,1,,,,,サカエ,0
1931,7180001074886,登記記録の閉鎖等,0,2022-10-21,2022-10-13,ブラザーエフィード愛知株式会社,,株式会社,愛知県,春日井市,月見町１７５番地,,23,206,4860835,,,2022-10-13,清算の結了等,,,2015-10-05,1,,,,,ブラザーエフィードアイチ,0
1932,7180001133568,登記記録の閉鎖等,0,2022-10-21,2022-10-19,株式会社ビアンジュ,,株式会社,愛知県,名古屋市東区,泉１丁目３番６号,,23,102,4610001,,,2022-10-19,清算の結了等,,,2018-09-03,1,,,,,ビアンジュ,0
1936,7180002089479,登記記録の閉鎖等,0,2022-10-21,2022-10-17,有限会社プランニング・カタオカ,,有限会社,愛知県,津島市,片岡町６０番地,,23,208,4960813,,,2022-10-17,清算の結了等,,,2015-10-05,1,,,,,プランニングカタオカ,0
1938,7180305005059,登記記録の閉鎖等,0,2022-10-21,2022-10-18,愛名美容協同組合,,その他の設立登記法人,愛知県,知立市,新富１丁目７番地,,23,225,4720047,,,2022-10-18,清算の結了等,,,2015-10-05,1,,,,,アイメイビヨウ,0
1939,7200001010764,登記記録の閉鎖等,0,2022-10-21,2022-10-17,岩田光学工業株式会社,,株式会社,岐阜県,羽島市,江吉良町１６１０番地,,21,209,5016236,,,2022-10-17,清算の結了等,,,2015-10-05,1,,,,,イワタコウガクコウギョウ,0
1944,7210001012454,登記記録の閉鎖等,0,2022-10-21,2022-10-18,タナベノーラン株式会社,,株式会社,福井県,越前市,平出２丁目１３番１２号,,18,209,9150803,,,2022-10-18,清算の結了等,,,2015-10-05,1,,,,,タナベノーラン,0
1950,7240002025428,登記記録の閉鎖等,0,2022-10-21,2022-10-20,森仲コーポレーション有限会社,,有限会社,広島県,広島市中区,南千田西町９番２０号,,34,101,7300055,,,2022-10-20,清算の結了等,,,2015-10-05,1,,,,,モリナカコーポレーション,0
1952,7250001018349,登記記録の閉鎖等,0,2022-10-21,2022-10-17,京條工業株式会社,,株式会社,山口県,周南市,鶴見台４丁目６番５号,,35,215,7450632,,,2022-10-17,清算の結了等,,,2020-07-06,1,,,,,キョウジョウコウギョウ,0
1954,7250005000807,登記記録の閉鎖等,0,2022-10-21,2022-10-13,山口県食肉生活衛生同業組合,,その他の設立登記法人,山口県,山口市,葵２丁目５番６９号山口県葵庁舎,,35,203,7530821,,,2022-10-13,清算の結了等,,,2015-10-05,1,,,,,ヤマグチケンショクニク,0
1974,7310002012352,登記記録の閉鎖等,0,2022-10-21,2022-10-19,有限会社オオタファクトリー,,有限会社,長崎県,東彼杵郡波佐見町,小樽郷８３３番地,00096029,42,323,8593704,,,2022-10-19,清算の結了等,,,2015-10-05,1,,,,,オオタファクトリー,0
1975,7320001005579,登記記録の閉鎖等,0,2022-10-21,2022-10-18,株式会社ソニックコンサルティング,,株式会社,大分県,大分市,生石４丁目２番１０号,,44,201,8700003,,,2022-10-18,清算の結了等,,,2015-10-05,1,,,,,,0
1976,7320002014604,登記記録の閉鎖等,0,2022-10-21,2022-10-13,有限会社丸味,,有限会社,大分県,豊後高田市,御玉４７番地,,44,209,8790605,,,2022-10-13,清算の結了等,,,2015-10-05,1,,,,,マルミ,0
1985,7370005002097,登記記録の閉鎖等,0,2022-10-21,2022-10-11,特定非営利活動法人鶴が丘生涯学習塾まほろば,,その他の設立登記法人,宮城県,仙台市泉区,鶴が丘４丁目１１番地の３,,04,105,9813109,,,2022-10-11,清算の結了等,,,2015-10-05,1,,,,,ツルガオカショウガイガクシュウジュクマホロバ,0
1989,7380002027939,登記記録の閉鎖等,0,2022-10-21,2022-10-13,兼光まごころ有限会社,,有限会社,福島県,いわき市,勿来町窪田町通１丁目１３５－３,,07,204,9790141,,,2022-10-13,清算の結了等,,,2015-10-05,1,,,,,カネミツマゴコロ,0
2010,7470001009978,登記記録の閉鎖等,0,2022-10-21,2022-10-14,株式会社銭形企画,,株式会社,香川県,観音寺市,坂本町５丁目１８番３５－１０１号,,37,205,7680067,,,2022-10-14,清算の結了等,,,2015-10-05,1,,,,,ゼニガタキカク,0
2012,7480002010240,登記記録の閉鎖等,0,2022-10-21,2022-10-19,有限会社アモーレ,,有限会社,徳島県,鳴門市,北灘町櫛木字東山１６－１,00005981,36,202,7710371,,,2022-10-19,清算の結了等,,,2015-10-05,1,,,,,アモーレ,0
2044,8010403013326,登記記録の閉鎖等,0,2022-10-21,2022-10-04,東日本太陽光発電事業合同会社,,合同会社,東京都,港区,虎ノ門３丁目２２番１０－２０１号,,13,103,1050001,,,2022-10-04,清算の結了等,,,2015-10-05,1,,,,,ヒガシニッポンタイヨウコウハツデンジギョウ,0
2045,8010403017632,登記記録の閉鎖等,0,2022-10-21,2022-09-29,ＣＫグループ支払合同会社,,合同会社,東京都,港区,浜松町２丁目２番１５号浜松町ダイヤビル２Ｆ,,13,103,1050013,,,2022-09-29,清算の結了等,,,2017-11-17,1,,,,,シーケイグループシハライ,0
2054,8010702007111,登記記録の閉鎖等,0,2022-10-21,2022-10-18,有限会社藤総電子情報企画,,有限会社,東京都,品川区,旗の台５丁目６番７号,,13,109,1420064,,,2022-10-18,清算の結了等,,,2015-10-05,1,,,,,トウソウデンシジョウホウキカク,0
2064,8011001142178,登記記録の閉鎖等,0,2022-10-21,2022-10-11,株式会社Ｓｐｒｉｍｅ　Ｅｎｔｅｒｔａｉｎｍｅｎｔ,,株式会社,東京都,渋谷区,渋谷２丁目２４番１２号,,13,113,1500002,,,2022-10-11,清算の結了等,,,2021-08-11,1,,,,,スプライムエンターテインメント,0
2084,8020001047568,登記記録の閉鎖等,0,2022-10-21,2022-10-14,株式会社ホームデザイン,,株式会社,神奈川県,横浜市中区,弁天通１丁目１５番１号,,14,104,2310007,,,2022-10-14,清算の結了等,,,2015-10-05,1,,,,,ホームデザイン,0
2085,8020001076666,登記記録の閉鎖等,0,2022-10-21,2022-10-14,株式会社ウエスト,,株式会社,神奈川県,川崎市川崎区,南町１５番地３号,,14,131,2100015,,,2022-10-14,清算の結了等,,,2015-10-05,1,,,,,ウエスト,0
2089,8020001114731,登記記録の閉鎖等,0,2022-10-21,2022-10-13,株式会社ＴＡＫＡ建築設計,,株式会社,神奈川県,川崎市川崎区,藤崎４丁目２４番６号,,14,131,2100804,,,2022-10-13,清算の結了等,,,2016-02-05,1,,,,,タカケンチクセッケイ,0
2090,8020001144646,登記記録の閉鎖等,0,2022-10-21,2022-10-18,株式会社悠遊生活,,株式会社,神奈川県,横浜市神奈川区,鶴屋町２丁目２０番２号,,14,102,2210835,,,2022-10-18,合併による解散等,1120001247115,令和４年１０月１日大阪市北区梅田一丁目２番２号日本直販株式会社（1120001247115）に合併し解散,2022-01-11,1,,,,,ユウユウセイカツ,0
2093,8021001010318,登記記録の閉鎖等,0,2022-10-21,2022-10-17,株式会社ジャパンケーエム,,株式会社,神奈川県,鎌倉市,十二所４７番地１,,14,204,2480001,,,2022-10-17,清算の結了等,,,2015-10-05,1,,,,,ジャパンケーエム,0
2110,8021002060733,登記記録の閉鎖等,0,2022-10-21,2022-10-12,有限会社エイペック・コンサルタント,,有限会社,神奈川県,中郡二宮町,二宮６９６番地の２,,14,342,2590123,,,2022-10-12,清算の結了等,,,2015-10-05,1,,,,,,0
2114,8030001038236,登記記録の閉鎖等,0,2022-10-21,2022-10-06,株式会社ひだまり,,株式会社,埼玉県,三郷市,谷口６７７番地１,,11,237,3410042,,,2022-10-06,清算の結了等,,,2015-10-05,1,,,,,ヒダマリ,0
2126,8030003008550,登記記録の閉鎖等,0,2022-10-21,2022-10-11,エシカル合同会社,,合同会社,埼玉県,加須市,油井ケ島１３９３番地１,,11,210,3470026,,,2022-10-11,清算の結了等,,,2016-03-11,1,,,,,エシカル,0
2153,8070002008688,登記記録の閉鎖等,0,2022-10-21,2022-10-14,有限会社五十嵐商会,,有限会社,群馬県,高崎市,上中居町５０２番地の３,,10,202,3700851,,,2022-10-14,清算の結了等,,,2015-10-05,1,,,,,イガラシショウカイ,0
2176,8120001189978,登記記録の閉鎖等,0,2022-10-21,2022-10-11,ＫＤＣホールディングス株式会社,,株式会社,東京都,渋谷区,恵比寿１丁目２４－１５,,13,113,1500013,,,2022-10-11,清算の結了等,,,2015-10-05,1,,,,,ケーディーシーホールディングス,0
2194,8120902005283,登記記録の閉鎖等,0,2022-10-21,2022-10-19,稲田木材有限会社,,有限会社,大阪府,吹田市,金田町２４番５号,,27,205,5640045,,,2022-10-19,清算の結了等,,,2015-10-05,1,,,,,イナダモクザイ,0
2205,8140003009843,登記記録の閉鎖等,0,2022-10-21,2022-10-18,リバティーチング合同会社,,合同会社,兵庫県,神戸市西区,竹の台３丁目１７番地の１６,,28,111,6512274,,,2022-10-18,清算の結了等,,,2015-10-05,1,,,,,リバティーチング,0
2213,8180001043510,登記記録の閉鎖等,0,2022-10-21,2022-10-03,株式会社エレックス,,株式会社,愛知県,名古屋市千種区,春岡通７丁目４９番地,,23,101,4640847,,,2022-10-03,合併による解散等,6180001001701,令和４年１０月１日名古屋市千種区春岡通七丁目４９番地株式会社エス・ケー・ジー（6180001001701）に合併し解散,2015-10-05,1,,,,,エレックス,0
2215,8180001142502,登記記録の閉鎖等,0,2022-10-21,2022-10-13,株式会社ココダネ,,株式会社,愛知県,名古屋市中村区,中村町９丁目６４番地の２,,23,105,4530053,,,2022-10-13,清算の結了等,,,2020-08-25,1,,,,,ココダネ,0
2219,8180003016753,登記記録の閉鎖等,0,2022-10-21,2022-10-14,ＳＳ匠工業合同会社,,合同会社,愛知県,名古屋市守山区,小六町５番１０号,,23,113,4630054,,,2022-10-14,清算の結了等,,,2015-12-14,1,,,,,エスエスタクミコウギョウ,0
2221,8180005014739,登記記録の閉鎖等,0,2022-10-21,2022-10-18,特定非営利活動法人愛の音,,その他の設立登記法人,愛知県,名古屋市中川区,昭和橋通１丁目２７番地,,23,110,4540852,,,2022-10-18,清算の結了等,,,2015-10-05,1,,,,,アイノオト,0
2223,8180301013213,登記記録の閉鎖等,0,2022-10-21,2022-10-17,株式会社野村トレス,,株式会社,愛知県,安城市,篠目町井原３番地２,,23,212,4460073,,,2022-10-17,清算の結了等,,,2015-10-05,1,,,,,ノムラトレス,0
2224,8180301019160,登記記録の閉鎖等,0,2022-10-21,2022-10-17,株式会社林建設,,株式会社,愛知県,豊田市,四郷町西山１４７番地,,23,211,4700373,,,2022-10-17,清算の結了等,,,2015-10-05,1,,,,,ハヤシケンセツ,0
2225,8180301019367,登記記録の閉鎖等,0,2022-10-21,2022-10-20,株式会社湯富屋旅館,,株式会社,愛知県,豊田市,笹戸町畷７番地,,23,211,4442826,,,2022-10-20,清算の結了等,,,2015-10-05,1,,,,,トウフヤリョカン,0
2229,8200001035612,登記記録の閉鎖等,0,2022-10-21,2022-10-20,Ｈａｐｐｙ　Ｃｒｅａｔｉｏｎ　Ｌａｂｏ株式会社,,株式会社,岐阜県,岐阜市,福光東２丁目２番１４号,,21,201,5020813,,,2022-10-20,清算の結了等,,,2018-10-15,1,,,,,,0
2242,8260003002828,登記記録の閉鎖等,0,2022-10-21,2022-10-20,合同会社緑プロジェクト,,合同会社,岡山県,岡山市南区,築港緑町１丁目１５番１０号,,33,104,7028055,,,2022-10-20,清算の結了等,,,2019-04-09,1,,,,,ミドリプロジェクト,0
2247,8290001066483,登記記録の閉鎖等,0,2022-10-21,2022-10-13,株式会社ＷＩＮＷＩＮ　ＣＯＭＰＡＮＹ,,株式会社,福岡県,福岡市博多区,上川端町１２番２９号,,40,132,8120026,,,2022-10-13,清算の結了等,,,2015-10-05,1,,,,,,0
2252,8300003001775,登記記録の閉鎖等,0,2022-10-21,2022-10-13,合同会社ＩＫＥＵＣＨＩ,,合同会社,佐賀県,佐賀市,高木瀬町大字長瀬９２７番地２,,41,201,8490917,,,2022-10-13,清算の結了等,,,2022-01-12,1,,,,,イケウチ,0
2254,8310001011858,登記記録の閉鎖等,0,2022-10-21,2022-10-21,株式会社泰誠,,株式会社,長崎県,長崎市,京泊２丁目３番２９号,,42,201,8512211,,,2022-10-21,清算の結了等,,,2015-10-05,1,,,,,タイセイ,0
2255,8310001016411,登記記録の閉鎖等,0,2022-10-21,2022-10-20,九曜企画株式会社,,株式会社,長崎県,長崎市,大黒町１０－１０ＫｏＫｏＲｏビル６７２号室,,42,201,8500057,,,2022-10-20,清算の結了等,,,2019-11-26,1,,,,,クヨウキカク,0
2259,8330002025186,登記記録の閉鎖等,0,2022-10-21,2022-10-17,有限会社マルダイ大西,,有限会社,熊本県,宇城市,三角町三角浦１２７４番地の８,,43,213,8693207,,,2022-10-17,清算の結了等,,,2015-10-05,1,,,,,マルダイオオニシ,0
2283,8410002009775,登記記録の閉鎖等,0,2022-10-21,2022-10-17,有限会社シラネ,,有限会社,秋田県,鹿角市,十和田末広字村下７５番地２,,05,209,0185337,,,2022-10-17,清算の結了等,,,2015-10-05,1,,,,,シラネ,0
2294,8430003008361,登記記録の閉鎖等,0,2022-10-21,2022-10-11,猫の北国合同会社,,合同会社,北海道,札幌市中央区,南一条西１６丁目１番地３２３春野ビル３Ｆ,,01,101,0600061,,,2022-10-11,清算の結了等,,,2017-05-01,1,,,,,ネコノキタグニ,0
2296,8460101003724,登記記録の閉鎖等,0,2022-10-21,2022-10-13,東栄興産株式会社,,株式会社,北海道,帯広市,東一条南１０丁目１番地,,01,207,0800801,,,2022-10-13,清算の結了等,,,2017-07-19,1,,,,,トウエイコウサン,0
2300,8500002014080,登記記録の閉鎖等,0,2022-10-21,2022-10-19,有限会社釜福,,有限会社,愛媛県,西条市,本町９７番地,,38,206,7930022,,,2022-10-19,清算の結了等,,,2015-10-05,1,,,,,カマフク,0
2312,9010001211883,登記記録の閉鎖等,0,2022-10-21,2022-10-20,慕晨テクノロジー株式会社,,株式会社,東京都,豊島区,池袋４丁目２９－１１トウセン池袋ビル５１１号,,13,116,1710014,,,2022-10-20,清算の結了等,,,2020-08-28,1,,,,,ボシンテクノロジー,0
2317,9010003012157,登記記録の閉鎖等,0,2022-10-21,2022-10-17,宮入総業合同会社,,合同会社,東京都,中央区,日本橋横山町６番１８号,,13,102,1030003,,,2022-10-17,清算の結了等,,,2015-10-05,1,,,,,ミヤイリソウギョウ,0
2331,9010401121039,登記記録の閉鎖等,0,2022-10-21,2022-10-03,株式会社クロスネーション,,株式会社,東京都,港区,浜松町２丁目２番１５号浜松町ダイヤビル２Ｆ,,13,103,1050013,,,2022-10-03,合併による解散等,2010401136051,令和４年１０月１日東京都港区浜松町二丁目２番１５号株式会社プラスワン・ジャパン（2010401136051）に合併し解散,2015-10-23,1,,,,,クロスネーション,0
2333,9010401152133,登記記録の閉鎖等,0,2022-10-21,2022-10-14,メルコオートモーティブソリューション株式会社,,株式会社,東京都,港区,芝公園１丁目７番６号ＫＤＸ浜松町プレイス,,13,103,1050011,,,2022-10-14,合併による解散等,8120001244956,令和４年１０月１日大阪市福島区福島六丁目１３番１４号メルコモビリティーソリューションズ株式会社（8120001244956）に合併し解散,2020-04-09,1,,,,,メルコオートモーティブソリューション,0
2367,9011003003030,登記記録の閉鎖等,0,2022-10-21,2022-10-11,合同会社ウィニング・クール,,合同会社,東京都,渋谷区,代官山町２０番９号,,13,113,1500034,,,2022-10-11,清算の結了等,,,2015-10-05,1,,,,,ウィニングクール,0
2368,9011003009985,登記記録の閉鎖等,0,2022-10-21,2022-10-11,ワイズウッズ１３合同会社,,合同会社,東京都,渋谷区,代官山町２０番９号,,13,113,1500034,,,2022-10-11,清算の結了等,,,2019-05-23,1,,,,,ワイズウッズイチサン,0
2393,9013101007680,登記記録の閉鎖等,0,2022-10-21,2022-10-18,栗原テクノ株式会社,,株式会社,東京都,あきる野市,渕上１９１番地１,,13,228,1970833,,,2022-10-18,清算の結了等,,,2017-08-04,1,,,,,クリハラテクノ,0
2394,9013301006680,登記記録の閉鎖等,0,2022-10-21,2022-10-20,第一技研株式会社,,株式会社,東京都,豊島区,巣鴨４丁目３５番７号,,13,116,1700002,,,2022-10-20,清算の結了等,,,2015-10-05,1,,,,,ダイイチギケン,0
2400,9020001068456,登記記録の閉鎖等,0,2022-10-21,2022-10-14,株式会社藤井製作所,,株式会社,神奈川県,川崎市宮前区,南野川２丁目７番７号,,14,136,2160042,,,2022-10-14,清算の結了等,,,2015-10-05,1,,,,,フジイセイサクジョ,0
2407,9020001134596,登記記録の閉鎖等,0,2022-10-21,2022-10-14,ＶＴＧ　Ｐｒｏｊｅｃｔ　Ｌｏｇｉｓｔｉｃｓ　Ｊａｐａｎ株式会社,,株式会社,神奈川県,横浜市中区,住吉町２丁目２２番地松栄関内ビル２階,,14,104,2310013,,,2022-10-14,清算の結了等,,,2020-01-23,1,,,,,ブイティージープロジェクトロジスティクスジャパン,0
2426,9030001052483,登記記録の閉鎖等,0,2022-10-21,2022-10-11,株式会社ビーズネスト,,株式会社,埼玉県,春日部市,備後東３丁目１７番４１号,,11,214,3440032,,,2022-10-11,清算の結了等,,,2015-10-05,1,,,,,ビーズネスト,0
2427,9030001054447,登記記録の閉鎖等,0,2022-10-21,2022-10-05,株式会社岡部三光堂,,株式会社,埼玉県,川越市,小仙波町４丁目９番地３０,,11,201,3500036,,,2022-10-05,清算の結了等,,,2015-10-05,1,,,,,,0
2436,9040001025158,登記記録の閉鎖等,0,2022-10-21,2022-10-12,株式会社エイビス,,株式会社,千葉県,船橋市,海神５丁目３番５－２号,,12,204,2730021,,,2022-10-12,清算の結了等,,,2015-10-05,1,,,,,エイビス,0
2438,9040001078981,登記記録の閉鎖等,0,2022-10-21,2022-10-13,株式会社建機タヤ,,株式会社,茨城県,稲敷郡河内町,長竿３９７４番地１,,08,447,3001312,,,2022-10-13,清算の結了等,,,2015-10-05,1,,,,,ケンキタヤ,0
2457,9050002016320,登記記録の閉鎖等,0,2022-10-21,2022-10-12,有限会社ＡＢ不動産鑑定,,有限会社,茨城県,小美玉市,江戸９０番地６４,,08,236,3190122,,,2022-10-12,清算の結了等,,,2015-10-05,1,,,,,,0
2474,9110002028210,登記記録の閉鎖等,0,2022-10-21,2022-10-12,有限会社たかき化粧品店,,有限会社,新潟県,長岡市,東坂之上町２丁目２番地８,,15,202,9400066,,,2022-10-12,清算の結了等,,,2015-10-05,1,,,,,タカキケショウヒンテン,0
2492,9120005005453,登記記録の閉鎖等,0,2022-10-21,2022-10-20,医療法人西浦皮膚科,,その他の設立登記法人,大阪府,大阪市西淀川区,姫島５丁目３番８号,,27,113,5550033,,,2022-10-20,清算の結了等,,,2015-10-05,1,,,,,ニシウラヒフカ,0
2515,9180001067046,登記記録の閉鎖等,0,2022-10-21,2022-10-17,竹内金属工業株式会社,,株式会社,愛知県,日進市,岩藤町所寒５５８番地,,23,230,4700104,,,2022-10-17,清算の結了等,,,2015-10-05,1,,,,,タケウチキンゾクコウギョウ,0
2519,9180001137105,登記記録の閉鎖等,0,2022-10-21,2022-10-11,株式会社中京電子エステート,,株式会社,愛知県,名古屋市北区,平安２丁目２４番５８号,,23,103,4620819,,,2022-10-11,合併による解散等,2180002011959,令和４年９月３０日名古屋市北区平安二丁目２４番５８号株式会社中京電子（2180002011959）に合併し解散,2019-06-28,1,,,,,チュウキョウデンシエステート,0
2524,9180002081871,登記記録の閉鎖等,0,2022-10-21,2022-10-17,有限会社酒井結納店,,有限会社,愛知県,江南市,古知野町広見１０番地,,23,217,4838274,,,2022-10-17,清算の結了等,,,2015-10-05,1,,,,,サカイユイノウテン,0
2572,9410002011037,登記記録の閉鎖等,0,2022-10-21,2022-10-18,有限会社ホサカ,,有限会社,秋田県,山本郡三種町,浜田字村下３４３番地１,,05,348,0182407,,,2022-10-18,清算の結了等,,,2015-10-05,1,,,,,ホサカ,0
2574,9430001027420,登記記録の閉鎖等,0,2022-10-21,2022-10-12,株式会社レパレ,,株式会社,北海道,札幌市中央区,北一条西１０丁目１番地１１,,01,101,0600001,,,2022-10-12,合併による解散等,1430001059859,令和４年１０月１０日札幌市中央区北一条西十丁目１番地１１株式会社さんかくてん（1430001059859）に合併し解散,2015-10-05,1,,,,,レパレ,0
2575,9430001041009,登記記録の閉鎖等,0,2022-10-21,2022-10-19,株式会社ワイズマン,,株式会社,北海道,札幌市中央区,南一条西８丁目１番地１,,01,101,0600061,,,2022-10-19,清算の結了等,,,2015-10-05,1,,,,,ワイズマン,0
2583,9450002005539,登記記録の閉鎖等,0,2022-10-21,2022-10-20,有限会社水野生花店,,有限会社,北海道,旭川市,二条通１３丁目２０３７番地の１,,01,204,0700032,,,2022-10-20,清算の結了等,,,2015-10-05,1,,,,,ミズノセイカテン,0
2587,9480002014743,登記記録の閉鎖等,0,2022-10-21,2022-10-19,有限会社さだみつ,,有限会社,徳島県,美馬郡つるぎ町,貞光字西浦２６番地２,,36,468,7794101,,,2022-10-19,清算の結了等,,,2015-10-05,1,,,,,サダミツ,0
