sequenceNumber,corporateNumber,process,correct,updateDate,changeDate,name,nameImageId,kind,prefectureName,cityName,streetNumber,addressImageId,prefectureCode,cityCode,postCode,addressOutside,addressOutsideImageId,closeDate,closeCause,successorCorporateNumber,changeCause,assignmentDate,latest,enName,enPrefectureName,enCityName,enAddressOutside,furigana,hihyoji
10,1010002008725,登記記録の閉鎖等,0,2021-09-06,2021-08-31,有限会社河合徳蔵商店,,有限会社,東京都,千代田区,神田神保町３丁目５番地,,13,101,1010051,,,2021-08-31,清算の結了等,,,2015-10-05,1,,,,,カワイトクゾウショウテン,0
27,1010403018703,登記記録の閉鎖等,0,2021-09-06,2021-08-27,ブルーレンディング品川Ａ合同会社,,合同会社,東京都,港区,虎ノ門３丁目２２番１０－２０１号,,13,103,1050001,,,2021-08-27,清算の結了等,,,2018-06-01,1,,,,,ブルーレンディングシナガワエー,0
39,1010703003776,登記記録の閉鎖等,0,2021-09-06,2021-09-02,ＭＳＥＩ合同会社,,合同会社,東京都,新宿区,西新宿３丁目５番３号西新宿ダイヤモンドパレス３０６号,,13,104,1600023,,,2021-09-02,清算の結了等,,,2017-08-17,1,,,,,エムエスイーアイ,0
54,1011105008967,登記記録の閉鎖等,0,2021-09-06,2021-08-30,一般社団法人尼崎ロジスティクス,,その他の設立登記法人,東京都,新宿区,四谷２丁目９番地１５東京ユナイテッド綜合事務所内,,13,104,1600004,,,2021-08-30,清算の結了等,,,2019-07-29,1,,,,,アマガサキロジスティクス,0
57,1011301015164,登記記録の閉鎖等,0,2021-09-06,2021-08-31,株式会社ドムス環境総研,,株式会社,東京都,杉並区,上高井戸１丁目６番８号,,13,115,1680074,,,2021-08-31,清算の結了等,,,2015-10-05,1,,,,,ドムスカンキョウソウケン,0
77,1013101007424,登記記録の閉鎖等,0,2021-09-06,2021-08-31,ＳＨＩＶＡ　ＣＯＲＰＯＲＡＴＩＯＮ株式会社,,株式会社,東京都,あきる野市,二宮１１０１番地２,,13,228,1970814,,,2021-08-31,清算の結了等,,,2016-09-16,1,,,,,シバコーポレーション,0
101,1021002004572,登記記録の閉鎖等,0,2021-09-06,2021-09-01,有限会社ホリホック,,有限会社,神奈川県,藤沢市,渡内２丁目７番９号,,14,205,2510011,,,2021-09-01,清算の結了等,,,2015-10-05,1,,,,,ホリホック,0
108,1030001093659,登記記録の閉鎖等,0,2021-09-06,2021-08-27,株式会社ウィズランチ,,株式会社,東京都,港区,西麻布１丁目８番１２号,,13,103,1060031,,,2021-08-27,清算の結了等,,,2015-10-05,1,,,,,ウィズランチ,0
119,1030002029570,登記記録の閉鎖等,0,2021-09-06,2021-08-27,有限会社真栄堂,,有限会社,埼玉県,所沢市,大字山口１２５４番地１,,11,208,3591145,,,2021-08-27,清算の結了等,,,2015-10-05,1,,,,,シンエイドウ,0
125,1040001035461,登記記録の閉鎖等,0,2021-09-06,2021-08-30,株式会社小松家石材店,,株式会社,千葉県,松戸市,河原塚３９７番地の４,,12,207,2702254,,,2021-08-30,清算の結了等,,,2015-10-05,1,,,,,コマツヤセキザイテン,0
131,1040002031253,登記記録の閉鎖等,0,2021-09-06,2021-08-31,有限会社石島電子技研,,有限会社,千葉県,八千代市,八千代台南１丁目１８番１６号,,12,221,2760033,,,2021-08-31,清算の結了等,,,2015-10-05,1,,,,,イシジマデンシギケン,0
142,1060002004331,登記記録の閉鎖等,0,2021-09-06,2021-08-30,桜電装有限会社,,有限会社,栃木県,宇都宮市,徳次郎町３０番地１,,09,201,3212116,,,2021-08-30,清算の結了等,,,2015-10-05,1,,,,,サクラデンソウ,0
144,1060002023554,登記記録の閉鎖等,0,2021-09-06,2021-08-27,有限会社至誠堂,,有限会社,栃木県,那須塩原市,方京１丁目６番１,,09,213,3293156,,,2021-08-27,清算の結了等,,,2015-10-05,1,,,,,シセイドウ,0
151,1080001001419,登記記録の閉鎖等,0,2021-09-06,2021-09-01,株式会社弘翔建設,,株式会社,静岡県,静岡市葵区,千代田６丁目３０番２２号,,22,101,4200803,,,2021-09-01,合併による解散等,8080001000109,令和３年９月１日静岡市駿河区中原３１２番地の１アイワホームサービス株式会社（8080001000109）に合併し解散,2015-10-05,1,,,,,コウショウケンセツ,0
153,1080001004982,登記記録の閉鎖等,0,2021-09-06,2021-09-02,株式会社マルトシサワイ,,株式会社,静岡県,静岡市葵区,田町６丁目５２番地,,22,101,4200068,,,2021-09-02,清算の結了等,,,2015-10-05,1,,,,,マルトシサワイ,0
171,1120001176842,登記記録の閉鎖等,0,2021-09-06,2021-08-31,Ｒｏｃｋ－Ｒｉｖｅｒ株式会社,,株式会社,大阪府,大阪市平野区,瓜破東１丁目１番３６号,,27,126,5470022,,,2021-08-31,清算の結了等,,,2015-10-05,1,,,,,,0
179,1120002014365,登記記録の閉鎖等,0,2021-09-06,2021-08-31,有限会社増田住宅,,有限会社,大阪府,大阪市此花区,西九条４丁目６番１８号,,27,104,5540012,,,2021-08-31,清算の結了等,,,2015-10-05,1,,,,,マスダジュウタク,0
188,1120101060335,登記記録の閉鎖等,0,2021-09-06,2021-09-01,ベルミー株式会社,,株式会社,大阪府,貝塚市,水間５５７番地,,27,208,5970104,,,2021-09-01,清算の結了等,,,2019-08-02,1,,,,,ベルミー,0
258,1230001001139,登記記録の閉鎖等,0,2021-09-06,2021-09-01,新越コンクリート工業株式会社,,株式会社,富山県,滑川市,柳原８８番地４,,16,206,9360023,,,2021-09-01,清算の結了等,,,2015-10-05,1,,,,,シンエツコンクリートコウギョウ,0
304,1310002019477,登記記録の閉鎖等,0,2021-09-06,2021-09-01,有限会社福田商事,,有限会社,長崎県,平戸市,大島村神浦２０８番地,,42,207,8595801,,,2021-09-01,清算の結了等,,,2015-10-05,1,,,,,フクダショウジ,0
315,1340001014625,登記記録の閉鎖等,0,2021-09-06,2021-09-02,株式会社カーインパクト,,株式会社,鹿児島県,鹿屋市,今坂町９９７０番地２,,46,203,8930057,,,2021-09-02,清算の結了等,,,2015-10-05,1,,,,,,0
333,1370101000167,登記記録の閉鎖等,0,2021-09-06,2021-08-31,玉松味噌醬油株式会社,00082532,株式会社,宮城県,柴田郡大河原町,字町２１０番地,,04,321,9891241,,,2021-08-31,清算の結了等,,,2015-10-05,1,,,,,タママツミソショウユ,0
337,1380002006799,登記記録の閉鎖等,0,2021-09-06,2021-08-31,有限会社高橋通信,,有限会社,福島県,伊達市,月舘町糠田字楮畑３８番地,,07,213,9600905,,,2021-08-31,清算の結了等,,,2015-10-05,1,,,,,タカハシツウシン,0
355,1430002045552,登記記録の閉鎖等,0,2021-09-06,2021-08-27,有限会社コイシインテリア企画,,有限会社,北海道,江別市,元江別８８４番地２,,01,217,0670032,,,2021-08-27,清算の結了等,,,2015-10-05,1,,,,,コイシインテリアキカク,0
369,2010001110852,登記記録の閉鎖等,0,2021-09-06,2021-08-31,株式会社カプリース,,株式会社,東京都,千代田区,神田三崎町２丁目１２番８号,,13,101,1010061,,,2021-08-31,清算の結了等,,,2015-10-05,1,,,,,カプリース,0
386,2010401009117,登記記録の閉鎖等,0,2021-09-06,2021-07-12,ケイエムリーシング株式会社,,株式会社,東京都,港区,赤坂２丁目８番３号,,13,103,1070052,,,2021-07-12,合併による解散等,6010401155568,令和３年７月１日東京都港区赤坂二丁目８番６号株式会社ｋｍＧオートアシスト（6010401155568）に合併し解散,2015-10-05,1,,,,,ケイエムリーシング,0
393,2010402021070,登記記録の閉鎖等,0,2021-09-06,2021-08-26,有限会社ティ・ツー,,有限会社,東京都,港区,六本木２丁目２番７号,,13,103,1060032,,,2021-08-26,清算の結了等,,,2015-10-05,1,,,,,ティツー,0
428,2011001130262,登記記録の閉鎖等,0,2021-09-06,2021-08-27,テモラボ株式会社,,株式会社,東京都,新宿区,新宿６丁目２９番２０号,,13,104,1600022,,,2021-08-27,清算の結了等,,,2019-10-07,1,,,,,テモラボ,0
456,2011701010301,登記記録の閉鎖等,0,2021-09-06,2021-09-01,ＬＯＴＵＳ　ＦＬＯＷＥＲ株式会社,,株式会社,群馬県,太田市,新田反町町１３１番地,,10,205,3700313,,,2021-09-01,合併による解散等,7011701000289,令和３年９月１日群馬県太田市新田反町町１３１番地東金属株式会社（7011701000289）に合併し解散,2015-10-05,1,,,,,ロータスフラワー,0
461,2012402021513,登記記録の閉鎖等,0,2021-09-06,2021-09-01,有限会社インベスタープランニング,,有限会社,東京都,武蔵野市,西久保１丁目１０番９号,,13,203,1800013,,,2021-09-01,清算の結了等,,,2015-10-05,1,,,,,インベスタープランニング,0
497,2030001124743,登記記録の閉鎖等,0,2021-09-06,2021-08-27,株式会社デオ・クリエート,,株式会社,埼玉県,春日部市,粕壁東５丁目３番３０－２０５号,,11,214,3440062,,,2021-08-27,清算の結了等,,,2018-03-16,1,,,,,デオクリエート,0
512,2040001104455,登記記録の閉鎖等,0,2021-09-06,2021-08-30,株式会社建設業務改善研究所,,株式会社,千葉県,千葉市中央区,弁天１丁目１５番１号,,12,101,2600045,,,2021-08-30,清算の結了等,,,2018-05-02,1,,,,,ケンセツギョウムカイゼンケンキュウショ,0
530,2050002026912,登記記録の閉鎖等,0,2021-09-06,2021-08-31,有限会社今津タクシー,,有限会社,茨城県,神栖市,賀２０９４番地６,,08,232,3140134,,,2021-08-31,清算の結了等,,,2015-10-05,1,,,,,イマズタクシー,0
532,2050002044542,登記記録の閉鎖等,0,2021-09-06,2021-09-01,有限会社くらもち,,有限会社,茨城県,結城市,大字結城１３５４番地,,08,207,3070001,,,2021-09-01,合併による解散等,7050002044538,令和３年９月１日茨城県結城市結城３４５７番地１０株式会社くらもち（7050002044538）に合併し解散,2015-10-05,1,,,,,クラモチ,0
545,2080402015702,登記記録の閉鎖等,0,2021-09-06,2021-09-01,有限会社山口板金,,有限会社,静岡県,浜松市浜北区,根堅１１１３番地の４,,22,136,4340016,,,2021-09-01,清算の結了等,,,2015-10-05,1,,,,,ヤマグチバンキン,0
546,2080402016618,登記記録の閉鎖等,0,2021-09-06,2021-09-02,有限会社分部電気,,有限会社,静岡県,浜松市天竜区,佐久間町浦川２７５６番地,,22,137,4313906,,,2021-09-02,清算の結了等,,,2015-10-05,1,,,,,ワケベデンキ,0
569,2120001143544,登記記録の閉鎖等,0,2021-09-06,2021-08-24,株式会社ニュートラルオート,,株式会社,大阪府,大阪市鶴見区,茨田大宮２丁目１番１５号,00112662,27,124,5380031,,,2021-08-24,清算の結了等,,,2015-10-05,1,,,,,,0
594,2120902005669,登記記録の閉鎖等,0,2021-09-06,2021-09-02,有限会社オフィス・パーク,,有限会社,大阪府,吹田市,南吹田３丁目５番２号,,27,205,5640043,,,2021-09-02,清算の結了等,,,2015-10-05,1,,,,,オフィスパーク,0
598,2130001006246,登記記録の閉鎖等,0,2021-09-06,2021-09-01,株式会社京鐘商事,,株式会社,京都府,京都市左京区,北白川西瀬ノ内町２番地,,26,103,6068255,,,2021-09-01,合併による解散等,1130001006247,令和３年９月１日京都市左京区北白川西瀬の内町２番地株式会社京鐘（1130001006247）に合併し解散,2015-10-05,1,,,,,キョウカネショウジ,0
622,2160002001482,登記記録の閉鎖等,0,2021-09-06,2021-09-02,有限会社ハンド・イン・ハンド,,有限会社,滋賀県,大津市,京町１丁目１番４１号,,25,201,5200044,,,2021-09-02,清算の結了等,,,2015-10-05,1,,,,,ハンドインハンド,0
626,2180001076326,登記記録の閉鎖等,0,2021-09-06,2021-08-30,株式会社ネットデザイン,,株式会社,愛知県,小牧市,外堀３丁目２０８番地,,23,219,4850039,,,2021-08-30,清算の結了等,,,2015-10-05,1,,,,,ネットデザイン,0
632,2180305008280,登記記録の閉鎖等,0,2021-09-06,2021-09-01,一般社団法人ｓｔａｒｔ　ｆｒｏｍ　Ｍｉｙａ,,その他の設立登記法人,愛知県,蒲郡市,三谷町十舗７６－１,,23,214,4430021,,,2021-09-01,清算の結了等,,,2015-10-05,1,,,,,スタートフロムミヤ,0
634,2190001021859,登記記録の閉鎖等,0,2021-09-06,2021-09-01,株式会社エムコーポレーション,,株式会社,三重県,伊賀市,小杉２６０４番地,,24,216,5191406,,,2021-09-01,清算の結了等,,,2015-10-05,1,,,,,エムコーポレーション,0
637,2190002018301,登記記録の閉鎖等,0,2021-09-06,2021-09-02,有限会社環境設備企画,,有限会社,三重県,桑名市,大字西別所１２６９番地１,,24,205,5110851,,,2021-09-02,清算の結了等,,,2015-10-05,1,,,,,カンキョウセツビキカク,0
645,2230001011632,登記記録の閉鎖等,0,2021-09-06,2021-09-01,西富建設株式会社,,株式会社,富山県,氷見市,朝日丘１１番２６号,,16,205,9350023,,,2021-09-01,清算の結了等,,,2015-10-05,1,,,,,ニシトミケンセツ,0
667,2290001014605,登記記録の閉鎖等,0,2021-09-06,2021-08-20,チクシ鋼機株式会社,,株式会社,福岡県,福岡市博多区,吉塚１丁目４５番４８号,,40,132,8120041,,,2021-08-20,清算の結了等,,,2015-10-05,1,,,,,チクシコウキ,0
668,2290001022822,登記記録の閉鎖等,0,2021-09-06,2021-08-20,株式会社つくす,,株式会社,福岡県,福岡市中央区,天神３丁目９番１０号天神松井ビル７０３,,40,133,8100001,,,2021-08-20,清算の結了等,,,2015-10-05,1,,,,,,0
669,2290001045162,登記記録の閉鎖等,0,2021-09-06,2021-08-19,株式会社浅田組,,株式会社,福岡県,飯塚市,赤坂８０５番地２,,40,205,8200106,,,2021-08-19,清算の結了等,,,2015-10-05,1,,,,,アサダグミ,0
688,2290802020066,登記記録の閉鎖等,0,2021-09-06,2021-08-24,有限会社青柳塗装工業,,有限会社,福岡県,直方市,大字下新入２３６番地の３,,40,204,8220032,,,2021-08-24,清算の結了等,,,2015-10-05,1,,,,,アオヤギトソウコウギョウ,0
708,2350001005060,登記記録の閉鎖等,0,2021-09-06,2021-09-01,株式会社うなぎの若林,,株式会社,宮崎県,宮崎市,大字熊野１３３４番地２,,45,201,8892151,,,2021-09-01,清算の結了等,,,2015-10-05,1,,,,,ウナギノワカバヤシ,0
726,2402701000681,登記記録の閉鎖等,0,2021-09-06,2021-09-02,株式会社小川海事,,株式会社,岩手県,大船渡市,末崎町字大田３７番地２６６,,03,203,0220001,,,2021-09-02,清算の結了等,,,2015-10-05,1,,,,,オガワカイジ,0
727,2410001002431,登記記録の閉鎖等,0,2021-09-06,2021-08-31,株式会社進藤組,,株式会社,秋田県,秋田市,寺内蛭根２丁目７番１７号,,05,201,0110904,,,2021-08-31,清算の結了等,,,2015-10-05,1,,,,,シンドウグミ,0
744,2450005003554,登記記録の閉鎖等,0,2021-09-06,2021-07-15,金光教滝上教会,,その他の設立登記法人,北海道,紋別郡滝上町,字滝上原野八線北８番地,,01,560,0995600,,,2021-07-15,合併による解散等,6460105001478,令和３年７月９日北海道中川郡池田町字旭町一丁目９番地２１金光教十勝教会（6460105001478）に合併し解散,2015-10-05,1,,,,,コンコウキョウタキノウエキョウカイ,0
754,3010001146623,登記記録の閉鎖等,0,2021-09-06,2021-08-31,教育経営コンサルティング株式会社,,株式会社,東京都,新宿区,新宿３丁目１番２４号,,13,104,1600022,,,2021-08-31,合併による解散等,4010001016247,令和３年８月３１日東京都新宿区新宿三丁目１番２４号廣告社株式会社（4010001016247）に合併し解散,2015-10-05,1,,,,,キョウイクケイエイコンサルティング,0
769,3010401129731,登記記録の閉鎖等,0,2021-09-06,2021-07-07,株式会社ＣＯＮＮＥＣＴＥＤ　ＭＡＴＥＲＩＡＬ,,株式会社,東京都,港区,赤坂１丁目１２番３２号ア－ク森ビル３５階,,13,103,1070052,,,2021-07-07,合併による解散等,1010401120262,令和３年７月１日東京都港区赤坂一丁目１２番３２号アーク森ビル３５階株式会社マテリアルパートナーズ（1010401120262）に合併し解散,2017-02-16,1,,,,,コネクティッドマテリアル,0
786,3010802018715,登記記録の閉鎖等,0,2021-09-06,2021-08-30,有限会社フィックス,,有限会社,東京都,大田区,西六郷３丁目６番８号８０３号室,,13,111,1440056,,,2021-08-30,清算の結了等,,,2015-10-05,1,,,,,フィックス,0
797,3011001108927,登記記録の閉鎖等,0,2021-09-06,2021-09-01,株式会社ディールデザイン,,株式会社,東京都,品川区,東五反田２丁目８番８号ＦＬＥＺＩＯ五反田７階,,13,109,1410022,,,2021-09-01,合併による解散等,7010401095961,令和３年９月１日東京都品川区東五反田二丁目８番８号ＦＬＥＺＩＯ五反田７階株式会社パートナーズ（7010401095961）に合併し解散,2016-01-08,1,,,,,ディールデザイン,0
834,3020001039735,登記記録の閉鎖等,0,2021-09-06,2021-09-01,横浜食糧株式会社,,株式会社,神奈川県,横浜市都筑区,茅ケ崎中央５６番５,,14,118,2240032,,,2021-09-01,合併による解散等,2020001124843,令和３年９月１日横浜市都筑区川和町１９番地２株式会社そらちファーム（2020001124843）に合併し解散,2015-10-05,1,,,,,ヨコハマショクリョウ,0
841,3020001139394,登記記録の閉鎖等,0,2021-09-06,2021-09-01,ＢＷＳ株式会社,,株式会社,神奈川県,横浜市中区,山下町７４番地１大和地所ビル４階,,14,104,2310023,,,2021-09-01,清算の結了等,,,2021-01-15,1,,,,,ビーダブリューエス,0
846,3020003015338,登記記録の閉鎖等,0,2021-09-06,2021-09-01,岩村商店合同会社,,合同会社,神奈川県,横浜市旭区,鶴ケ峰本町１丁目２１番地１５－２０３号,,14,112,2410021,,,2021-09-01,清算の結了等,,,2018-12-18,1,,,,,イワムラショウテン,0
912,3090002007230,登記記録の閉鎖等,0,2021-09-06,2021-09-01,有限会社風間測量,,有限会社,山梨県,南アルプス市,鏡中條８５４番地,,19,208,4000332,,,2021-09-01,清算の結了等,,,2015-10-05,1,,,,,カザマソクリョウ,0
913,3090003001190,登記記録の閉鎖等,0,2021-09-06,2021-09-01,合同会社さかえ,,合同会社,山梨県,甲斐市,西八幡９７０番地１１,,19,210,4000117,,,2021-09-01,清算の結了等,,,2016-05-19,1,,,,,サカエ,0
917,3100001014473,登記記録の閉鎖等,0,2021-09-06,2021-09-01,株式会社のりくら生コン,,株式会社,長野県,松本市,安曇３８７８番地７２,,20,202,3901520,,,2021-09-01,合併による解散等,9100001014476,令和３年８月３１日長野県松本市安曇４１６０番地２サワンド建設株式会社（9100001014476）に合併し解散,2015-10-05,1,,,,,ノリクラナマコン,0
920,3110001011569,登記記録の閉鎖等,0,2021-09-06,2021-08-31,株式会社稲餅,00070255,株式会社,新潟県,五泉市,本町２丁目３番３６号,,15,218,9591865,,,2021-08-31,清算の結了等,,,2015-10-05,1,,,,,イナモチ,0
928,3120001216373,登記記録の閉鎖等,0,2021-09-06,2021-08-30,キャプコジャパン株式会社,,株式会社,大阪府,大阪市北区,中之島４丁目２番３０号,,27,127,5300005,,,2021-08-30,清算の結了等,,,2018-10-10,1,,,,,キャプコジャパン,0
948,3130002011021,登記記録の閉鎖等,0,2021-09-06,2021-09-01,信栄金属有限会社,,有限会社,京都府,京都市南区,唐橋花園町７１番地の３,,26,107,6018465,,,2021-09-01,清算の結了等,,,2015-10-05,1,,,,,シンエイキンゾク,0
960,3140002062757,登記記録の閉鎖等,0,2021-09-06,2021-08-31,有限会社美國製作所,,有限会社,兵庫県,小野市,敷地町１０７５番地,,28,218,6751367,,,2021-08-31,清算の結了等,,,2015-10-05,1,,,,,ミクニセイサクショ,0
969,3160001017891,登記記録の閉鎖等,0,2021-09-06,2021-09-02,株式会社タカＴＡＣ,,株式会社,滋賀県,甲賀市,甲南町杉谷２０９番地１,,25,209,5203314,,,2021-09-02,清算の結了等,,,2015-10-05,1,,,,,タカティーエーシー,0
977,3180001020794,登記記録の閉鎖等,0,2021-09-06,2021-09-01,株式会社プライスアルファー,,株式会社,愛知県,名古屋市中川区,一色新町１丁目４１２－１８８１－２,,23,110,4540946,,,2021-09-01,清算の結了等,,,2015-10-05,1,,,,,プライスアルファー,0
981,3180001049941,登記記録の閉鎖等,0,2021-09-06,2021-09-01,ジェイ・ドリーム株式会社,,株式会社,愛知県,名古屋市東区,矢田１丁目７番３６号,,23,102,4610040,,,2021-09-01,合併による解散等,5180001017129,令和３年９月１日名古屋市東区矢田一丁目７番３６号総合商社山潤株式会社（5180001017129）に合併し解散,2015-10-05,1,,,,,ジェイドリーム,0
990,3190001001496,登記記録の閉鎖等,0,2021-09-06,2021-09-01,株式会社土生ホルダーズ,,株式会社,三重県,津市,香良洲町１８６３番地の１,,24,201,5140315,,,2021-09-01,清算の結了等,,,2015-10-05,1,,,,,ハブホルダーズ,0
1019,3280002008944,登記記録の閉鎖等,0,2021-09-06,2021-09-01,有限会社グリーンフレツシュ,,有限会社,島根県,江津市,都野津町２３０７番地１８,,32,207,6950021,,,2021-09-01,合併による解散等,7280001004610,令和３年９月１日島根県江津市都野津町２３０７番地１８株式会社永島青果（7280001004610）に合併し解散,2015-10-05,1,,,,,グリーンフレツシュ,0
1021,3290001001346,登記記録の閉鎖等,0,2021-09-06,2021-08-18,サンワ機販株式会社,,株式会社,福岡県,福岡市南区,若久６丁目１０番１３号,,40,134,8150042,,,2021-08-18,清算の結了等,,,2015-10-05,1,,,,,サンワキハン,0
1033,3290002011435,登記記録の閉鎖等,0,2021-09-06,2021-08-19,有限会社セキネ,,有限会社,福岡県,福岡市中央区,清川１丁目３番５号,,40,133,8100005,,,2021-08-19,清算の結了等,,,2015-10-05,1,,,,,セキネ,0
1047,3330001007470,登記記録の閉鎖等,0,2021-09-06,2021-09-01,株式会社ジェリエルアクト,,株式会社,熊本県,熊本市東区,若葉１丁目３２番１４号,,43,102,8620903,,,2021-09-01,合併による解散等,4330002013483,令和３年９月１日熊本市東区若葉一丁目３２番１４号株式会社ジェリエル（4330002013483）に合併し解散,2015-10-05,1,,,,,ジェリエルアクト,0
1050,3330001010714,登記記録の閉鎖等,0,2021-09-06,2021-09-01,株式会社ｅ－テクノス,,株式会社,熊本県,熊本市東区,小山７丁目４番５４号,,43,102,8618045,,,2021-09-01,合併による解散等,4330001012908,令和３年９月１日熊本市東区小山七丁目４番５４号株式会社カネムラエコワークス（4330001012908）に合併し解散,2015-10-05,1,,,,,イーテクノス,0
1056,3340001018005,登記記録の閉鎖等,0,2021-09-06,2021-09-01,株式会社河童の森,,株式会社,鹿児島県,出水郡長島町,下山門野１４６５番地,,46,404,8991321,,,2021-09-01,合併による解散等,4340003001040,令和３年９月１日鹿児島県出水郡長島町蔵之元２４９７番地１杉本酒造株式会社（4340003001040）に合併し解散,2015-10-05,1,,,,,カッパノモリ,0
1065,3370001020825,登記記録の閉鎖等,0,2021-09-06,2021-08-30,株式会社ＨＡＬＦ　ＷＡＹ,,株式会社,宮城県,仙台市太白区,袋原２丁目８－２３,,04,104,9811102,,,2021-08-30,清算の結了等,,,2015-10-05,1,,,,,ハーフウェイ,0
1108,4010002002527,登記記録の閉鎖等,0,2021-09-06,2021-08-31,有限会社サードアイ,,有限会社,東京都,文京区,西片１丁目１７番１１－５１３,,13,105,1130024,,,2021-08-31,清算の結了等,,,2015-10-05,1,,,,,サードアイ,0
1119,4010403020128,登記記録の閉鎖等,0,2021-09-06,2021-08-27,ブルーエナジーブリッジファンドＤ合同会社,,合同会社,東京都,港区,元赤坂１丁目１番７号,,13,103,1070051,,,2021-08-27,清算の結了等,,,2019-02-06,1,,,,,ブルーエナジーブリッジファンドディー,0
1132,4010701026594,登記記録の閉鎖等,0,2021-09-06,2021-09-02,株式会社ＨＡＲＡＤＡ　ＴＪ,,株式会社,東京都,西東京市,向台町３丁目５番２７－１０１１号,,13,229,1880013,,,2021-09-02,清算の結了等,,,2015-10-05,1,,,,,ハラダティジェイ,0
1142,4010903006477,登記記録の閉鎖等,0,2021-09-06,2021-08-31,合同会社おはる,,合同会社,東京都,世田谷区,駒沢２丁目１６番４－４０２号,,13,112,1540012,,,2021-08-31,清算の結了等,,,2021-04-22,1,,,,,オハル,0
1152,4011003006582,登記記録の閉鎖等,0,2021-09-06,2021-09-01,Ｂｅ　Ｈｅｒｅ合同会社,,合同会社,神奈川県,横浜市金沢区,富岡西６丁目３４－１１,,14,108,2360052,,,2021-09-01,清算の結了等,,,2016-02-22,1,,,,,ビーヒア,0
1210,4030002065076,登記記録の閉鎖等,0,2021-09-06,2021-08-30,有限会社セラミックサトウ,,有限会社,埼玉県,志木市,上宗岡３丁目１５番１９号,,11,228,3530001,,,2021-08-30,清算の結了等,,,2015-10-05,1,,,,,セラミックサトウ,0
1226,4050001012787,登記記録の閉鎖等,0,2021-09-06,2021-09-01,株式会社ティーユープロジェクト,,株式会社,茨城県,土浦市,有明町２番３０号,,08,203,3000035,,,2021-09-01,清算の結了等,,,2015-10-05,1,,,,,,0
1232,4060002021150,登記記録の閉鎖等,0,2021-09-06,2021-08-30,渡徳自動車商工有限会社,,有限会社,栃木県,鹿沼市,久保町１２８８番地２,,09,205,3220051,,,2021-08-30,清算の結了等,,,2015-10-05,1,,,,,ワタトクジドウシャショウコウ,0
1233,4070001006011,登記記録の閉鎖等,0,2021-09-06,2021-08-31,株式会社アイテクアート,,株式会社,群馬県,高崎市,下佐野町１３３３番地,,10,202,3700855,,,2021-08-31,清算の結了等,,,2015-10-05,1,,,,,アイテクアート,0
1238,4070002031801,登記記録の閉鎖等,0,2021-09-06,2021-09-01,有限会社アマックス,,有限会社,群馬県,邑楽郡邑楽町,大字中野２８０番地の６,,10,525,3700603,,,2021-09-01,合併による解散等,7070002027920,令和３年９月１日群馬県邑楽郡邑楽町大字中野２８０番地の６株式会社天谷製作所（7070002027920）に合併し解散,2015-10-05,1,,,,,アマックス,0
1241,4080001023220,登記記録の閉鎖等,0,2021-09-06,2021-09-01,株式会社楽多厨房,,株式会社,静岡県,静岡市駿河区,宮本町８番１０号,,22,102,4228065,,,2021-09-01,合併による解散等,1080001002251,令和３年９月１日静岡市駿河区宮本町８番１０号株式会社あいネットサービス（1080001002251）に合併し解散,2019-11-20,1,,,,,ラクタチュウボウ,0
1251,4090001006570,登記記録の閉鎖等,0,2021-09-06,2021-09-01,株式会社アスカペイント,,株式会社,山梨県,甲府市,丸の内１丁目１６番２０号ライオンズタワー１４０２,,19,201,4000031,,,2021-09-01,清算の結了等,,,2015-10-05,1,,,,,アスカペイント,0
1264,4120001031788,登記記録の閉鎖等,0,2021-09-06,2021-08-31,株式会社モリシタ,,株式会社,大阪府,大阪市住之江区,御崎２丁目４番６号,,27,125,5590013,,,2021-08-31,清算の結了等,,,2015-10-05,1,,,,,モリシタ,0
1281,4120905002950,登記記録の閉鎖等,0,2021-09-06,2021-09-01,ＮＰＯ法人摂津芸能文化交流協会,,その他の設立登記法人,大阪府,摂津市,庄屋１丁目１３番２号,,27,224,5660012,,,2021-09-01,清算の結了等,,,2015-10-05,1,,,,,セッツゲイノウブンカコウリュウキョウカイ,0
1340,4190001007831,登記記録の閉鎖等,0,2021-09-06,2021-09-02,トータルサポート株式会社,,株式会社,三重県,伊勢市,村松町１３６４番地１９,,24,203,5150507,,,2021-09-02,清算の結了等,,,2015-10-05,1,,,,,トータルサポート,0
1349,4200002027133,登記記録の閉鎖等,0,2021-09-06,2021-08-31,有限会社アルカディア,,有限会社,大阪府,枚方市,招提大谷３丁目３８－１６,,27,210,5731153,,,2021-08-31,清算の結了等,,,2015-10-05,1,,,,,アルカディア,0
1359,4230002000888,登記記録の閉鎖等,0,2021-09-06,2021-09-01,有限会社河辺鉄工所,,有限会社,富山県,富山市,草島字柳指４２９番地の１８,,16,201,9302201,,,2021-09-01,清算の結了等,,,2015-10-05,1,,,,,カワベテッコウショ,0
1363,4240001054728,登記記録の閉鎖等,0,2021-09-06,2021-09-01,株式会社岩本,,株式会社,広島県,呉市,広多賀谷２丁目３番９号,,34,202,7370134,,,2021-09-01,合併による解散等,9240001057321,令和３年９月１日広島県呉市広多賀谷二丁目３番９号株式会社ＨＩＴＯホールディングス（9240001057321）に合併し解散,2019-07-29,1,,,,,イワモト,0
1365,4240002004095,登記記録の閉鎖等,0,2021-09-06,2021-08-31,有限会社上新呉服店,,有限会社,広島県,広島市南区,稲荷町３番８号,,34,103,7320827,,,2021-08-31,清算の結了等,,,2015-10-05,1,,,,,ウエシンゴフクテン,0
1369,4240002040215,登記記録の閉鎖等,0,2021-09-06,2021-08-31,有限会社記念不動産,,有限会社,広島県,福山市,南手城町１丁目２２番１４号,,34,207,7210963,,,2021-08-31,清算の結了等,,,2015-10-05,1,,,,,キネンフドウサン,0
1373,4260001017724,登記記録の閉鎖等,0,2021-09-06,2021-09-01,クニサダ株式会社,,株式会社,岡山県,笠岡市,新賀３４１５番地の１,,33,205,7140005,,,2021-09-01,清算の結了等,,,2015-10-05,1,,,,,クニサダ,0
1384,4290001005379,登記記録の閉鎖等,0,2021-09-06,2021-08-18,タイセイビル株式会社,,株式会社,福岡県,福岡市早良区,祖原１４番３４号,,40,137,8140005,,,2021-08-18,清算の結了等,,,2015-10-05,1,,,,,タイセイビル,0
1400,4290802005387,登記記録の閉鎖等,0,2021-09-06,2021-09-01,ビービーエスシステック有限会社,,有限会社,福岡県,北九州市八幡東区,槻田１丁目６番３号,,40,108,8050031,,,2021-09-01,清算の結了等,,,2015-10-05,1,,,,,,0
1406,4310001016043,登記記録の閉鎖等,0,2021-09-06,2021-08-27,株式会社ＶＯＩＣＥエージェンシー,,株式会社,長崎県,長崎市,大黒町１０番１０号ＫｏＫｏＲｏビル６階６３１号室,,42,201,8500057,,,2021-08-27,清算の結了等,,,2019-04-18,1,,,,,ボイスエージェンシー,0
1417,4330001010911,登記記録の閉鎖等,0,2021-09-06,2021-09-01,株式会社トヨタレンタメカニック,,株式会社,熊本県,上益城郡益城町,大字広崎１５９２番地２７,,43,443,8612236,,,2021-09-01,合併による解散等,6330001003277,令和３年９月１日熊本市東区御領二丁目２７番１号株式会社トヨタレンタリース熊本（6330001003277）に合併し解散,2015-10-05,1,,,,,トヨタレンタメカニック,0
1426,4330003006726,登記記録の閉鎖等,0,2021-09-06,2021-09-01,合同会社ＭＫ２,,合同会社,熊本県,熊本市中央区,水道町１５番２０号,,43,101,8600844,,,2021-09-01,合併による解散等,5330001004350,令和３年９月１日熊本市中央区九品寺一丁目１３番１号株式会社松川生コン販売（5330001004350）に合併し解散,2016-06-13,1,,,,,エムケイツー,0
1431,4340005003910,登記記録の閉鎖等,0,2021-09-06,2021-08-31,宮之城魚市場協同組合,,その他の設立登記法人,鹿児島県,薩摩郡さつま町,船木３０８０番地,,46,392,8951804,,,2021-08-31,清算の結了等,,,2015-10-05,1,,,,,,0
1437,4370001013142,登記記録の閉鎖等,0,2021-09-06,2021-08-31,株式会社フヂノヤ,,株式会社,宮城県,仙台市青葉区,本町１丁目１５番１２号,,04,101,9800014,,,2021-08-31,清算の結了等,,,2015-10-05,1,,,,,フジノヤ,0
1450,4390005007964,登記記録の閉鎖等,0,2021-09-06,2021-08-31,一般財団法人川西町体育振興公社,,その他の設立登記法人,山形県,東置賜郡川西町,大字中小松２２４０番地１,,06,382,9990122,,,2021-08-31,清算の結了等,,,2015-10-05,1,,,,,カワニシマチタイイクシンコウコウシャ,0
1467,4460005001480,登記記録の閉鎖等,0,2021-09-06,2021-09-02,ＮＰＯ法人働き方と療養支援センター,,その他の設立登記法人,北海道,釧路郡釧路町,北都１丁目１３番地９,,01,661,0880617,,,2021-09-02,清算の結了等,,,2017-04-11,1,,,,,ハタラキカタトリョウヨウシエンセンター,0
1471,4470001017661,登記記録の閉鎖等,0,2021-09-06,2021-09-03,パーソンフォーチュン株式会社,,株式会社,東京都,新宿区,矢来町１２６ＮＩＴＴＯＰＬＡＺＡ３Ｆ,,13,104,1620805,,,2021-09-03,合併による解散等,4010001163048,令和３年８月１日東京都中央区銀座六丁目９番６号株式会社メディビューティー（4010001163048）に合併し解散,2019-10-04,1,,,,,パーソンフォーチュン,0
1489,5010001164318,登記記録の閉鎖等,0,2021-09-06,2021-08-27,株式会社エイトエム,,株式会社,東京都,港区,六本木２丁目３番６－２０３号,,13,103,1060032,,,2021-08-27,清算の結了等,,,2015-10-05,1,,,,,エイトエム,0
1495,5010003019214,登記記録の閉鎖等,0,2021-09-06,2021-09-01,合同会社京橋インベストメント１,,合同会社,東京都,千代田区,九段南３丁目７番７号成和綜合会計事務所内,,13,101,1020074,,,2021-09-01,清算の結了等,,,2015-10-05,1,,,,,キョウバシインベストメントイチ,0
1496,5010003025022,登記記録の閉鎖等,0,2021-09-06,2021-09-01,合同会社京橋インベストメント２,,合同会社,東京都,千代田区,九段南３丁目７番７号成和綜合会計事務所内,,13,101,1020074,,,2021-09-01,清算の結了等,,,2017-03-14,1,,,,,キョウバシインベストメントニ,0
1497,5010003029262,登記記録の閉鎖等,0,2021-09-06,2021-08-26,アーク合同会社,,合同会社,東京都,中央区,八丁堀３丁目２番３号,,13,102,1040032,,,2021-08-26,清算の結了等,,,2019-02-13,1,,,,,アーク,0
1510,5010403014772,登記記録の閉鎖等,0,2021-09-06,2021-08-27,ＴＷＲ合同会社,,合同会社,東京都,港区,赤坂１丁目１２番３２号アーク森ビル２２階,,13,103,1070052,,,2021-08-27,清算の結了等,,,2016-05-16,1,,,,,ティーダブルアール,0
1511,5010403020300,登記記録の閉鎖等,0,2021-09-06,2021-08-27,ブルーエナジーブリッジファンドＸ合同会社,,合同会社,東京都,港区,元赤坂１丁目１番７号,,13,103,1070051,,,2021-08-27,清算の結了等,,,2019-03-06,1,,,,,ブルーエナジーブリッジファンドエックス,0
1544,5011201020368,登記記録の閉鎖等,0,2021-09-06,2021-08-23,株式会社リルビー,,株式会社,東京都,港区,芝４丁目１８－１コンフォリア三田ＥＡＳＴ６０４,,13,103,1080014,,,2021-08-23,清算の結了等,,,2018-01-15,1,,,,,リルビー,0
1622,5060001031471,登記記録の閉鎖等,0,2021-09-06,2021-08-26,株式会社Ｃｅｓｔ,,株式会社,栃木県,宇都宮市,南大通り４丁目７番２号,,09,201,3210963,,,2021-08-26,清算の結了等,,,2019-04-08,1,,,,,シスト,0
1648,5120001040615,登記記録の閉鎖等,0,2021-09-06,2021-09-01,日本アシスト株式会社,,株式会社,滋賀県,彦根市,松原町１８１３番地１７,,25,202,5220002,,,2021-09-01,合併による解散等,4160001017206,令和３年９月１日滋賀県彦根市松原町１８１３番地１７アドバンス株式会社（4160001017206）に合併し解散,2015-10-05,1,,,,,ニホンアシスト,0
1658,5120001205201,登記記録の閉鎖等,0,2021-09-06,2021-08-31,ゴールデン・モンキー株式会社,,株式会社,大阪府,大阪市北区,西天満４丁目１番２０－３０１号,,27,127,5300047,,,2021-08-31,清算の結了等,,,2017-04-27,1,,,,,ゴールデンモンキー,0
1721,5180001049535,登記記録の閉鎖等,0,2021-09-06,2021-09-01,株式会社ＳＰＤ,,株式会社,愛知県,名古屋市中区,錦１丁目１３番２６号,,23,106,4600003,,,2021-09-01,合併による解散等,6180001048494,令和３年９月１日名古屋市中区錦一丁目１３番２６号株式会社ナレッジイノベーション（6180001048494）に合併し解散,2015-10-05,1,,,,,エスピーディー,0
1722,5180001050864,登記記録の閉鎖等,0,2021-09-06,2021-09-01,株式会社柴田会計,,株式会社,愛知県,名古屋市中区,丸の内３丁目８番８号,,23,106,4600002,,,2021-09-01,合併による解散等,2180001065337,令和３年９月１日名古屋市中区丸の内三丁目２１番２１号株式会社シーピーエーコンサル（2180001065337）に合併し解散,2015-10-05,1,,,,,シバタカイケイ,0
1734,5190002020262,登記記録の閉鎖等,0,2021-09-06,2021-09-01,有限会社三喜技研,,有限会社,三重県,四日市市,札場町３３８番地の３,,24,202,5128056,,,2021-09-01,清算の結了等,,,2015-10-05,1,,,,,サンキギケン,0
1740,5200002026209,登記記録の閉鎖等,0,2021-09-06,2021-09-02,有限会社ひだ総合保険事務所,,有限会社,岐阜県,高山市,緑ケ丘町２丁目９２番地,,21,203,5060056,,,2021-09-02,清算の結了等,,,2015-10-05,1,,,,,ヒダソウゴウホケンジムショ,0
1755,5240002049536,登記記録の閉鎖等,0,2021-09-06,2021-09-02,有限会社中国計装設備,,有限会社,広島県,竹原市,下野町４０７０番地の１０,,34,203,7250012,,,2021-09-02,清算の結了等,,,2015-10-05,1,,,,,チュウゴクケイソウセツビ,0
1766,5270001007228,登記記録の閉鎖等,0,2021-09-06,2021-08-31,株式会社さくら,,株式会社,鳥取県,西伯郡南部町,阿賀３１５番地１,,31,389,6830322,,,2021-08-31,清算の結了等,,,2017-05-10,1,,,,,サクラ,0
1769,5290001087821,登記記録の閉鎖等,0,2021-09-06,2021-09-03,株式会社ヴィアージュ,,株式会社,東京都,新宿区,矢来町１２６ＮＩＴＴＯＰＬＡＺＡ３Ｆ,,13,104,1620805,,,2021-09-03,合併による解散等,4010001163048,令和３年８月１日東京都中央区銀座六丁目９番６号株式会社メディビューティー（4010001163048）に合併し解散,2020-01-23,1,,,,,ヴィアージュ,0
1780,5290802022282,登記記録の閉鎖等,0,2021-09-06,2021-08-26,有限会社幸商事,,有限会社,福岡県,行橋市,大字上検地１０２８番地２,,40,213,8240052,,,2021-08-26,清算の結了等,,,2015-10-05,1,,,,,サイワイショウジ,0
1796,5350001006452,登記記録の閉鎖等,0,2021-09-06,2021-08-27,株式会社ソーテック,,株式会社,宮崎県,日向市,大字塩見１５２４５番地,,45,206,8830033,,,2021-08-27,清算の結了等,,,2015-10-05,1,,,,,ソーテック,0
1819,5410002003599,登記記録の閉鎖等,0,2021-09-06,2021-09-02,有限会社ミサワ保険事務所,,有限会社,秋田県,秋田市,川元開和町１３番４９号,,05,201,0100932,,,2021-09-02,清算の結了等,,,2015-10-05,1,,,,,ミサワホケンジムショ,0
1840,5500005004767,登記記録の閉鎖等,0,2021-09-06,2021-09-01,丸武タオル工業協同組合,,その他の設立登記法人,愛媛県,今治市,南日吉町３丁目２番１０号,,38,202,7940056,,,2021-09-01,清算の結了等,,,2015-10-05,1,,,,,マルタケタオルコウギョウ,0
1845,6010001044312,登記記録の閉鎖等,0,2021-09-06,2021-08-31,三栄工業株式会社,,株式会社,東京都,中央区,日本橋小網町１６番１８号,,13,102,1030016,,,2021-08-31,清算の結了等,,,2015-10-05,1,,,,,サンエイコウギョウ,0
1852,6010001159639,登記記録の閉鎖等,0,2021-09-06,2021-09-01,Ｋ＆Ｄコンサルティング株式会社,,株式会社,東京都,中央区,築地２丁目１１番１０号,,13,102,1040045,,,2021-09-01,合併による解散等,2010001050792,令和３年９月１日東京都港区東新橋一丁目５番２号株式会社電通パブリックリレーションズ（2010001050792）に合併し解散,2015-10-05,1,,,,,ケイアンドデイーコンサルティング,0
1861,6010101013241,登記記録の閉鎖等,0,2021-09-06,2021-09-01,株式会社メンテナンスファクトリー八王子,,株式会社,東京都,八王子市,松木２０番地１,,13,201,1920362,,,2021-09-01,清算の結了等,,,2018-04-04,1,,,,,メンテナンスファクトリーハチオウジ,0
1865,6010401125538,登記記録の閉鎖等,0,2021-09-06,2021-08-27,株式会社ライフアルファ,,株式会社,東京都,港区,六本木６丁目１番２－４Ｆ,,13,103,1060032,,,2021-08-27,清算の結了等,,,2016-06-24,1,,,,,ライフアルファ,0
1871,6010403020299,登記記録の閉鎖等,0,2021-09-06,2021-08-27,ブルーエナジーブリッジファンドＶ合同会社,,合同会社,東京都,港区,元赤坂１丁目１番７号,,13,103,1070051,,,2021-08-27,清算の結了等,,,2019-03-06,1,,,,,ブルーエナジーブリッジファンドブイ,0
1893,6011001134193,登記記録の閉鎖等,0,2021-09-06,2021-09-03,株式会社ＵＲＴＯＷＮ,,株式会社,東京都,渋谷区,上原２丁目３６番３号,,13,113,1510064,,,2021-09-03,清算の結了等,,,2020-06-10,1,,,,,ユアタウン,0
1911,6011805001184,登記記録の閉鎖等,0,2021-09-06,2021-09-03,亀有酒販協同組合,,その他の設立登記法人,東京都,葛飾区,南水元１丁目２６番４号,,13,122,1250035,,,2021-09-03,清算の結了等,,,2015-10-05,1,,,,,カメアリシュハン,0
1914,6012301011842,登記記録の閉鎖等,0,2021-09-06,2021-08-26,日本中泰商事株式会社,,株式会社,東京都,町田市,中町３丁目２３番１８号,,13,209,1940021,,,2021-08-26,清算の結了等,,,2019-09-02,1,,,,,ニホンチュウタイショウジ,0
1927,6020002072872,登記記録の閉鎖等,0,2021-09-06,2021-09-01,有限会社となみ・元気ケアステーション,,有限会社,神奈川県,横浜市緑区,長津田４丁目２３番２号,,14,113,2260027,,,2021-09-01,清算の結了等,,,2015-10-05,1,,,,,トナミゲンキケアステーション,0
1943,6030002047535,登記記録の閉鎖等,0,2021-09-06,2021-08-26,有限会社冨岡製作所,,有限会社,埼玉県,八潮市,大字古新田１０４８番地３６,,11,234,3400823,,,2021-08-26,清算の結了等,,,2015-10-05,1,,,,,トミオカセイサクショ,0
1944,6030002084066,登記記録の閉鎖等,0,2021-09-06,2021-08-27,有限会社千代田建設工業,,有限会社,埼玉県,北本市,古市場２丁目２６番地１,,11,233,3640003,,,2021-08-27,清算の結了等,,,2015-10-05,1,,,,,チヨダケンセツコウギョウ,0
2011,6110002017950,登記記録の閉鎖等,0,2021-09-06,2021-08-31,有限会社田中シール印刷,,有限会社,新潟県,三条市,矢田２４５番地１,,15,204,9591107,,,2021-08-31,清算の結了等,,,2015-10-05,1,,,,,タナカシールインサツ,0
2019,6120001192397,登記記録の閉鎖等,0,2021-09-06,2021-08-31,ＴＳＵＮＡＧＵ株式会社,,株式会社,大阪府,大阪市城東区,諏訪３丁目１３番２６号,,27,118,5360021,,,2021-08-31,清算の結了等,,,2015-10-05,1,,,,,ツナグ,0
2036,6120901017125,登記記録の閉鎖等,0,2021-09-06,2021-09-01,株式会社カーピット天満,,株式会社,大阪府,吹田市,佐竹台４丁目８番１２号,,27,205,5650855,,,2021-09-01,合併による解散等,6120901014774,令和３年９月１日大阪府吹田市佐竹台四丁目８番１２号株式会社Ｆａｉｔｈ（6120901014774）に合併し解散,2015-10-05,1,,,,,カーピットテンマ,0
2057,6130005005273,登記記録の閉鎖等,0,2021-09-06,2021-08-30,特定非営利活動法人サエア・ジャパン,,その他の設立登記法人,大阪府,寝屋川市,明徳２丁目７番５－４０３号,,27,215,5720011,,,2021-08-30,清算の結了等,,,2015-10-05,1,,,,,サエアジャパン,0
2060,6140001101901,登記記録の閉鎖等,0,2021-09-06,2021-08-31,西村木材株式会社,,株式会社,兵庫県,朝来市,多々良木４２０番地８,,28,225,6793423,,,2021-08-31,清算の結了等,,,2016-05-06,1,,,,,ニシムラモクザイ,0
2067,6140002011827,登記記録の閉鎖等,0,2021-09-06,2021-09-01,有限会社富永運送店,,有限会社,兵庫県,神戸市東灘区,深江浜町８６番地,,28,101,6580023,,,2021-09-01,清算の結了等,,,2015-10-05,1,,,,,トミナガウンソウテン,0
2087,6180001130541,登記記録の閉鎖等,0,2021-09-06,2021-09-01,株式会社Ｊｏｈｎｎｙ,,株式会社,愛知県,名古屋市中区,新栄２丁目１番４号,,23,106,4600007,,,2021-09-01,合併による解散等,8010901023339,令和３年９月１日名古屋市中区新栄二丁目１番４号株式会社レルセール（8010901023339）に合併し解散,2017-12-21,1,,,,,ジャニー,0
2104,6190001013010,登記記録の閉鎖等,0,2021-09-06,2021-08-31,株式会社仁設計室,,株式会社,愛知県,名古屋市東区,白壁１丁目４５番地白壁ビル５０８号,,23,102,4610011,,,2021-08-31,清算の結了等,,,2015-10-05,1,,,,,ジンセッケイシツ,0
2140,6270001002491,登記記録の閉鎖等,0,2021-09-06,2021-09-02,株式会社旺方トレーディング,,株式会社,鳥取県,鳥取市,河原町布袋５２５番地１,,31,201,6801202,,,2021-09-02,清算の結了等,,,2015-10-05,1,,,,,オウホウトレーディング,0
2150,6290002000856,登記記録の閉鎖等,0,2021-09-06,2021-08-20,有限会社バッカスインターナショナル,,有限会社,福岡県,福岡市西区,横浜１丁目２番２４号,,40,135,8190166,,,2021-08-20,清算の結了等,,,2015-10-05,1,,,,,バッカスインターナショナル,0
2172,6330002007293,登記記録の閉鎖等,0,2021-09-06,2021-09-01,有限会社德永建築プラニング,00097637,有限会社,熊本県,熊本市中央区,大江３丁目１２番３号,,43,101,8620971,,,2021-09-01,清算の結了等,,,2015-10-05,1,,,,,トクナガケンチク,0
2177,6340001000760,登記記録の閉鎖等,0,2021-09-06,2021-09-01,小野調温工業株式会社,,株式会社,鹿児島県,鹿児島市,下伊敷３丁目１０番２１号,,46,201,8900005,,,2021-09-01,清算の結了等,,,2015-10-05,1,,,,,オノチョウオン,0
2192,6370001008371,登記記録の閉鎖等,0,2021-09-06,2021-08-31,シオセ電材株式会社,,株式会社,宮城県,仙台市青葉区,片平１丁目３番２５号,,04,101,9800812,,,2021-08-31,清算の結了等,,,2015-10-05,1,,,,,シオセデンザイ,0
2207,6430002003638,登記記録の閉鎖等,0,2021-09-06,2021-08-27,有限会社大腰工務店,,有限会社,北海道,札幌市北区,篠路八条１丁目１番１５号,,01,102,0028028,,,2021-08-27,清算の結了等,,,2015-10-05,1,,,,,オオコシコウムテン,0
2210,6450002012091,登記記録の閉鎖等,0,2021-09-06,2021-09-02,有限会社一ウロコ今水産,,有限会社,北海道,苫前郡羽幌町,南二条１丁目２０番地の１,,01,484,0784102,,,2021-09-02,清算の結了等,,,2015-10-05,1,,,,,イチウロココンスイサン,0
2212,6470001003833,登記記録の閉鎖等,0,2021-09-06,2021-09-02,株式会社まなべ洋装店,,株式会社,香川県,高松市,丸亀町１４番地の４,,37,201,7600029,,,2021-09-02,清算の結了等,,,2015-10-05,1,,,,,マナベヨウソウテン,0
2237,7010105001828,登記記録の閉鎖等,0,2021-09-06,2021-09-01,一般社団法人末木みえの会,,その他の設立登記法人,東京都,八王子市,台町３丁目１６番１９号,,13,201,1930931,,,2021-09-01,清算の結了等,,,2015-10-05,1,,,,,スエキミエノカイ,0
2257,7010502002791,登記記録の閉鎖等,0,2021-09-06,2021-08-31,勝美堂印刷有限会社,,有限会社,東京都,台東区,松が谷２丁目３１番７号,,13,106,1110036,,,2021-08-31,清算の結了等,,,2015-10-05,1,,,,,カツミドウインサツ,0
2261,7010701026468,登記記録の閉鎖等,0,2021-09-06,2021-09-01,株式会社ＪＴＢグローバルマーチャンダイジング＆サポート,,株式会社,東京都,品川区,東品川２丁目３番１１号,,13,109,1400002,,,2021-09-01,清算の結了等,,,2015-10-05,1,,,,,ジェイティービーグローバルマーチャンダイジングアンドサポート,0
2274,7011001060463,登記記録の閉鎖等,0,2021-09-06,2021-09-02,株式会社ブライ,,株式会社,東京都,渋谷区,代々木３丁目３１番５号,,13,113,1510053,,,2021-09-02,清算の結了等,,,2015-10-05,1,,,,,ブライ,0
2326,7020001077731,登記記録の閉鎖等,0,2021-09-06,2021-09-01,鹿島田駅西部地区再開発株式会社,,株式会社,神奈川県,川崎市川崎区,東田町８番地,,14,131,2100005,,,2021-09-01,清算の結了等,,,2015-10-05,1,,,,,カシマダエキセイブチクサイカイハツ,0
2338,7030001058383,登記記録の閉鎖等,0,2021-09-06,2021-09-03,三新工事株式会社,,株式会社,埼玉県,ふじみ野市,南台２丁目１番９号,,11,245,3560036,,,2021-09-03,清算の結了等,,,2015-10-05,1,,,,,サンシンコウジ,0
2342,7030001131314,登記記録の閉鎖等,0,2021-09-06,2021-08-27,株式会社Ｕ・Ｋ　ＲＩＧＧＥＲ,,株式会社,埼玉県,川口市,南鳩ヶ谷５丁目１５番５号ソレイユ２０３号,,11,203,3340013,,,2021-08-27,清算の結了等,,,2019-06-10,1,,,,,ユーケーリガー,0
2350,7030002043392,登記記録の閉鎖等,0,2021-09-06,2021-08-27,有限会社内田園芸,,有限会社,埼玉県,草加市,谷塚町６０９番地,,11,221,3400023,,,2021-08-27,清算の結了等,,,2015-10-05,1,,,,,ウチダエンゲイ,0
2389,7080102011451,登記記録の閉鎖等,0,2021-09-06,2021-08-30,有限会社フジモト物産,,有限会社,静岡県,三島市,谷田２４７１番地,,22,206,4110801,,,2021-08-30,清算の結了等,,,2015-10-05,1,,,,,,0
2424,7120002025547,登記記録の閉鎖等,0,2021-09-06,2021-08-31,有限会社原野マンション,,有限会社,大阪府,大阪市東淀川区,東中島１丁目４番６号,,27,114,5330033,,,2021-08-31,清算の結了等,,,2015-10-05,1,,,,,ハラノマンション,0
2427,7120101006290,登記記録の閉鎖等,0,2021-09-06,2021-09-01,株式会社フェニックス,,株式会社,大阪府,堺市北区,長曽根町１２０７番地の４,,27,146,5918025,,,2021-09-01,合併による解散等,8120101005572,令和３年９月１日大阪府堺市北区長曽根町１２０７番地の４株式会社野中一級販売士事務所（8120101005572）に合併し解散,2015-10-05,1,,,,,フェニックス,0
2440,7130001010581,登記記録の閉鎖等,0,2021-09-06,2021-09-01,交洋精化株式会社,,株式会社,京都府,京都市南区,吉祥院石原上川原町３７番地,00035347,26,107,6018382,,,2021-09-01,合併による解散等,6130001010582,令和３年９月１日京都市南区吉祥院石原上川原町３７番地交洋ファインケミカル株式会社（6130001010582）に合併し解散,2015-10-05,1,,,,,コウヨウセイカ,0
2475,7180001102671,登記記録の閉鎖等,0,2021-09-06,2021-08-31,株式会社ＫＥＮＴ,,株式会社,愛知県,豊明市,二村台７丁目５番１６,,23,229,4701131,,,2021-08-31,清算の結了等,,,2015-10-05,1,,,,,ケント,0
2480,7180002008364,登記記録の閉鎖等,0,2021-09-06,2021-08-31,有限会社チトセ研削,,有限会社,愛知県,名古屋市昭和区,広路町字松風園３９番地,,23,107,4660834,,,2021-08-31,清算の結了等,,,2015-10-05,1,,,,,チトセケンサク,0
2481,7180002061693,登記記録の閉鎖等,0,2021-09-06,2021-08-31,有限会社朝倉機販,,有限会社,愛知県,日進市,香久山４丁目７０１番地の４,,23,230,4700134,,,2021-08-31,清算の結了等,,,2015-10-05,1,,,,,アサクラキハン,0
2489,7190002005666,登記記録の閉鎖等,0,2021-09-06,2021-09-03,有限会社大正建設,,有限会社,三重県,北牟婁郡紀北町,島原４７８番地,,24,543,5193203,,,2021-09-03,清算の結了等,,,2015-10-05,1,,,,,タイショウケンセツ,0
2512,7280002008932,登記記録の閉鎖等,0,2021-09-06,2021-09-02,有限会社河野商事,,有限会社,島根県,浜田市,三隅町向野田３１４９番地,,32,202,6993212,,,2021-09-02,清算の結了等,,,2015-10-05,1,,,,,コウノショウジ,0
2518,7290002005879,登記記録の閉鎖等,0,2021-09-06,2021-08-18,有限会社富士写真館,,有限会社,福岡県,福岡市東区,香椎４丁目１５番２６号,,40,131,8130011,,,2021-08-18,清算の結了等,,,2015-10-05,1,,,,,フジシャシンカン,0
2542,7340001019412,登記記録の閉鎖等,0,2021-09-06,2021-08-30,ＭＩＣＨＡＥＬ　ＴＯＳＨＩＯ　ＩＮＣ．ＪＡＰＡＮ株式会社,,株式会社,東京都,中央区,八丁堀２丁目３０番１８号８階,,13,102,1040032,,,2021-08-30,清算の結了等,,,2016-06-20,1,,,,,マイケルトシオインクジャパン,0
2554,7370401000506,登記記録の閉鎖等,0,2021-09-06,2021-08-30,ソーワ・ニッタ株式会社,,株式会社,宮城県,登米市,迫町新田字狼ノ欠３１番地,,04,212,9894601,,,2021-08-30,清算の結了等,,,2015-10-05,1,,,,,ソーワニッタ,0
2555,7370602000156,登記記録の閉鎖等,0,2021-09-06,2021-08-30,有限会社石橋造園,,有限会社,宮城県,多賀城市,下馬５丁目５番２５号,,04,209,9850835,,,2021-08-30,清算の結了等,,,2015-10-05,1,,,,,イシバシゾウエン,0
2559,7380002029407,登記記録の閉鎖等,0,2021-09-06,2021-08-31,有限会社鎌田時計店,,有限会社,福島県,南相馬市,小高区大町１丁目２９番地の２,,07,212,9792123,,,2021-08-31,清算の結了等,,,2015-10-05,1,,,,,カマタトケイテン,0
2564,7430001058120,登記記録の閉鎖等,0,2021-09-06,2021-09-03,丸果物流株式会社,,株式会社,北海道,室蘭市,日の出町２丁目３番１号,,01,205,0500081,,,2021-09-03,清算の結了等,,,2015-10-05,1,,,,,,0
2573,7450002001416,登記記録の閉鎖等,0,2021-09-06,2021-08-27,有限会社神楽坂,,有限会社,東京都,世田谷区,松原５丁目１８番１９号,,13,112,1560043,,,2021-08-27,清算の結了等,,,2015-10-05,1,,,,,カグラザカ,0
2587,8010001130192,登記記録の閉鎖等,0,2021-09-06,2021-08-24,株式会社オー・エム・シー,,株式会社,東京都,中央区,新川１丁目２９番１３号永代橋エコピアザビル７階,,13,102,1040033,,,2021-08-24,清算の結了等,,,2020-07-30,1,,,,,オーエムシー,0
2616,8010403020297,登記記録の閉鎖等,0,2021-09-06,2021-08-27,ブルーエナジーブリッジファンドＬ合同会社,,合同会社,東京都,港区,元赤坂１丁目１番７号,,13,103,1070051,,,2021-08-27,清算の結了等,,,2019-03-06,1,,,,,ブルーエナジーブリッジファンドエル,0
2628,8010802001468,登記記録の閉鎖等,0,2021-09-06,2021-08-31,有限会社井上精機,,有限会社,東京都,大田区,南六郷３丁目２１番２１号,,13,111,1440045,,,2021-08-31,清算の結了等,,,2015-10-05,1,,,,,イノウエセイキ,0
2640,8011101010367,登記記録の閉鎖等,0,2021-09-06,2021-09-01,水道プロセス株式会社,,株式会社,東京都,新宿区,水道町４番１３号,,13,104,1620811,,,2021-09-01,清算の結了等,,,2015-10-05,1,,,,,スイドウプロセス,0
2673,8012702008915,登記記録の閉鎖等,0,2021-09-06,2021-08-31,有限会社司工芸社,,有限会社,東京都,清瀬市,野塩４丁目２８番地６,,13,221,2040004,,,2021-08-31,清算の結了等,,,2015-10-05,1,,,,,ツカサコウゲイシャ,0
2678,8013301034922,登記記録の閉鎖等,0,2021-09-06,2021-08-31,株式会社ブロックスブラザーズ,,株式会社,東京都,中央区,銀座５丁目６番１２号,,13,102,1040061,,,2021-08-31,合併による解散等,9020002105159,令和３年８月３１日東京都中央区銀座五丁目６番１２号株式会社ブロックス（9020002105159）に合併し解散,2015-10-05,1,,,,,ブロックスブラザーズ,0
2713,8030002061897,登記記録の閉鎖等,0,2021-09-06,2021-08-24,有限会社電装設備,,有限会社,埼玉県,新座市,畑中１丁目１１番５１号,,11,230,3520012,,,2021-08-24,清算の結了等,,,2015-10-05,1,,,,,デンソウセツビ,0
2722,8040001082828,登記記録の閉鎖等,0,2021-09-06,2021-08-30,モア株式会社,,株式会社,東京都,千代田区,平河町２丁目５番５号,,13,101,1020093,,,2021-08-30,清算の結了等,,,2015-10-05,1,,,,,モア,0
2745,8060002029693,登記記録の閉鎖等,0,2021-09-06,2021-08-30,有限会社アキヤマ,,有限会社,栃木県,下都賀郡野木町,大字南赤塚５０９番地１０,,09,364,3290112,,,2021-08-30,清算の結了等,,,2015-10-05,1,,,,,アキヤマ,0
2751,8070003002673,登記記録の閉鎖等,0,2021-09-06,2021-08-27,合同会社Ａｉ’ｌｌ,,合同会社,群馬県,伊勢崎市,堀口町７０６番地,,10,204,3720834,,,2021-08-27,清算の結了等,,,2016-06-29,1,,,,,アイル,0
2756,8080101005156,登記記録の閉鎖等,0,2021-09-06,2021-08-31,株式会社来富,,株式会社,静岡県,伊豆市,松ケ瀬１５７番地の１,,22,222,4103211,,,2021-08-31,清算の結了等,,,2015-10-05,1,,,,,,0
2768,8100001010146,登記記録の閉鎖等,0,2021-09-06,2021-09-01,不動産企画株式会社,,株式会社,長野県,上田市,常磐城５丁目２番２０号,,20,203,3860027,,,2021-09-01,清算の結了等,,,2015-10-05,1,,,,,フドウサンキカク,0
2774,8120001034589,登記記録の閉鎖等,0,2021-09-06,2021-08-30,太田印刷株式会社,,株式会社,大阪府,大阪市福島区,福島４丁目２番４９号,,27,103,5530003,,,2021-08-30,清算の結了等,,,2015-10-05,1,,,,,オオタインサツ,0
2788,8120002016958,登記記録の閉鎖等,0,2021-09-06,2021-08-31,有限会社丸十塗装,,有限会社,大阪府,大阪市住之江区,平林北２丁目７番６１号,,27,125,5590026,,,2021-08-31,清算の結了等,,,2015-10-05,1,,,,,マルジュウトソウ,0
2827,8180001080636,登記記録の閉鎖等,0,2021-09-06,2021-08-31,株式会社マザースあい,,株式会社,愛知県,瀬戸市,中品野町６０３番地１,,23,204,4801218,,,2021-08-31,清算の結了等,,,2015-10-05,1,,,,,マザースアイ,0
2829,8180001115846,登記記録の閉鎖等,0,2021-09-06,2021-09-01,株式会社エイトトラスト,,株式会社,愛知県,名古屋市東区,矢田１丁目７番３６号,,23,102,4610040,,,2021-09-01,合併による解散等,5180001017129,令和３年９月１日名古屋市東区矢田一丁目７番３６号総合商社山潤株式会社（5180001017129）に合併し解散,2015-10-05,1,,,,,エイトトラスト,0
2835,8180002079495,登記記録の閉鎖等,0,2021-09-06,2021-08-31,有限会社たおやか,,有限会社,愛知県,一宮市,本町４丁目２１番７号,,23,203,4910859,,,2021-08-31,清算の結了等,,,2015-10-05,1,,,,,タオヤカ,0
2852,8230002008795,登記記録の閉鎖等,0,2021-09-06,2021-08-30,有限会社相川不動産,,有限会社,富山県,滑川市,加島町２２０番地,,16,206,9360068,,,2021-08-30,清算の結了等,,,2015-10-05,1,,,,,アイカワフドウサン,0
2905,8340003001813,登記記録の閉鎖等,0,2021-09-06,2021-09-01,株式会社Ｒａｎａ,,株式会社,鹿児島県,曽於市,末吉町新町１丁目９番地１４,,46,217,8998603,,,2021-09-01,合併による解散等,7340001015601,令和３年９月１日鹿児島県曽於市末吉町南之郷６２２番地２株式会社池田電設（7340001015601）に合併し解散,2015-10-05,1,,,,,ラーナ,0
2909,8350003003338,登記記録の閉鎖等,0,2021-09-06,2021-09-01,合同会社Ａｒｔ,,合同会社,宮崎県,宮崎市,中央通３番８号睦ビル２階,,45,201,8800002,,,2021-09-01,清算の結了等,,,2019-04-19,1,,,,,アート,0
2960,9010002015573,登記記録の閉鎖等,0,2021-09-06,2021-08-31,有限会社らくだ編集事務所,,有限会社,東京都,千代田区,神田三崎町２丁目６番９号三栄ビル,,13,101,1010061,,,2021-08-31,清算の結了等,,,2015-10-05,1,,,,,ラクダヘンシュウジムショ,0
2963,9010003030893,登記記録の閉鎖等,0,2021-09-06,2021-08-31,合同会社東京レジデンシャル１,,合同会社,東京都,中央区,日本橋１丁目４番１号,,13,102,1030027,,,2021-08-31,清算の結了等,,,2019-10-18,1,,,,,トウキョウレジデンシャルワン,0
2977,9010403018704,登記記録の閉鎖等,0,2021-09-06,2021-08-27,ブルーレンディング品川Ｂ合同会社,,合同会社,東京都,港区,虎ノ門３丁目２２番１０－２０１号,,13,103,1050001,,,2021-08-27,清算の結了等,,,2018-06-01,1,,,,,ブルーレンディングシナガワビー,0
2978,9010403018778,登記記録の閉鎖等,0,2021-09-06,2021-08-27,ブルーレンディング品川ＡＡ合同会社,,合同会社,東京都,港区,虎ノ門３丁目２２番１０－２０１号,,13,103,1050001,,,2021-08-27,清算の結了等,,,2018-06-11,1,,,,,ブルーレンディングシナガワエーエー,0
2979,9010403019628,登記記録の閉鎖等,0,2021-09-06,2021-08-27,ブルーエナジーブリッジファンドＺ合同会社,,合同会社,東京都,港区,元赤坂１丁目１番７号,,13,103,1070051,,,2021-08-27,清算の結了等,,,2018-11-05,1,,,,,ブルーエナジーブリッジファンドゼット,0
2986,9010503005511,登記記録の閉鎖等,0,2021-09-06,2021-08-31,合同会社ＧＵＳＨ,,合同会社,東京都,台東区,鳥越１丁目１６番３号,,13,106,1110054,,,2021-08-31,清算の結了等,,,2019-02-07,1,,,,,ガッシュ,0
3024,9011802014946,登記記録の閉鎖等,0,2021-09-06,2021-09-03,有限会社Ｔｒｅｅ　ｏｆ　Ｌｉｆｅ,,有限会社,東京都,足立区,竹の塚５丁目６番１２号,,13,121,1210813,,,2021-09-03,清算の結了等,,,2015-10-05,1,,,,,,0
3026,9012301007920,登記記録の閉鎖等,0,2021-09-06,2021-08-25,緑の風株式会社,,株式会社,東京都,町田市,金井ヶ丘３丁目７番６号,,13,209,1950076,,,2021-08-25,清算の結了等,,,2015-10-05,1,,,,,ミドリノカゼ,0
3109,9080401018113,登記記録の閉鎖等,0,2021-09-06,2021-09-01,株式会社東成サービス,,株式会社,静岡県,袋井市,葵町１丁目８番地の８,,22,216,4370016,,,2021-09-01,合併による解散等,1080401013617,令和３年９月１日静岡県袋井市葵町一丁目８番地の８株式会社ＭＩＦＵＪＩ（1080401013617）に合併し解散,2015-10-05,1,,,,,トウセイサービス,0
3125,9110002024110,登記記録の閉鎖等,0,2021-09-06,2021-08-31,有限会社あやめ建設,,有限会社,新潟県,上越市,大島区菖蒲３８８番地,,15,222,9421216,,,2021-08-31,清算の結了等,,,2015-10-05,1,,,,,アヤメケンセツ,0
3132,9120001177206,登記記録の閉鎖等,0,2021-09-06,2021-08-31,株式会社フーリッシュ,,株式会社,大阪府,枚方市,招提元町２丁目８番２６号,,27,210,5731133,,,2021-08-31,清算の結了等,,,2015-10-05,1,,,,,,0
3149,9122002016359,登記記録の閉鎖等,0,2021-09-06,2021-09-01,有限会社サンテック,,有限会社,大阪府,柏原市,大県３丁目７番２号,,27,221,5820018,,,2021-09-01,清算の結了等,,,2015-10-05,1,,,,,サンテック,0
3161,9140001048388,登記記録の閉鎖等,0,2021-09-06,2021-08-31,神﨑建材工業株式会社,00039638,株式会社,兵庫県,尼崎市,次屋３丁目１４番２４号,,28,202,6610965,,,2021-08-31,清算の結了等,,,2015-10-05,1,,,,,カンザキケンザイコウギョウ,0
3173,9140002062339,登記記録の閉鎖等,0,2021-09-06,2021-09-01,有限会社小谷建設,,有限会社,兵庫県,加西市,鎮岩町４９８番地,,28,220,6752332,,,2021-09-01,清算の結了等,,,2015-10-05,1,,,,,コタニケンセツ,0
3223,9220001003707,登記記録の閉鎖等,0,2021-09-06,2021-09-01,セントラルビル株式会社,,株式会社,石川県,金沢市,堀川町４番１号,,17,201,9200847,,,2021-09-01,合併による解散等,1220001003706,令和３年９月１日石川県金沢市堀川町４番１号セントラルホテルシステム株式会社（1220001003706）に合併し解散,2015-10-05,1,,,,,セントラルビル,0
3228,9240001037364,登記記録の閉鎖等,0,2021-09-06,2021-09-01,マルユキ運輸株式会社,,株式会社,広島県,竹原市,下野町２７９４番地の２０,,34,203,7250012,,,2021-09-01,合併による解散等,1240001037520,令和３年９月１日広島県竹原市下野町２７９４番地の１８ロジワン・システム株式会社（1240001037520）に合併し解散,2015-10-05,1,,,,,マルユキウンユ,0
3238,9240002040185,登記記録の閉鎖等,0,2021-09-06,2021-08-31,有限会社北村造園,,有限会社,広島県,福山市,千田町字坂田北１６番地,,34,207,7200016,,,2021-08-31,清算の結了等,,,2015-10-05,1,,,,,キタムラゾウエン,0
3251,9290002016370,登記記録の閉鎖等,0,2021-09-06,2021-08-20,有限会社テクノサプライ,,有限会社,福岡県,福岡市博多区,諸岡５丁目２２番１号,,40,132,8120894,,,2021-08-20,清算の結了等,,,2015-10-05,1,,,,,テクノサプライ,0
3271,9330001015492,登記記録の閉鎖等,0,2021-09-06,2021-09-01,株式会社千寿水,,株式会社,熊本県,上天草市,大矢野町登立５４０４番地１３,,43,212,8693601,,,2021-09-01,清算の結了等,,,2015-10-05,1,,,,,センジュスイ,0
3304,9400001015428,登記記録の閉鎖等,0,2021-09-06,2021-09-01,國分屋ホールディングス株式会社,,株式会社,岩手県,二戸市,福岡字五日町６５番地,,03,213,0286101,,,2021-09-01,合併による解散等,1400001007705,令和３年９月１日岩手県二戸市福岡字五日町６５番地株式会社國分屋金物店（1400001007705）に合併し解散,2021-04-27,1,,,,,コクブンヤホールディングス,0
3308,9410001005411,登記記録の閉鎖等,0,2021-09-06,2021-09-01,鈴和株式会社,,株式会社,秋田県,由利本荘市,石脇字山ノ神１１番地５７４,,05,210,0150014,,,2021-09-01,清算の結了等,,,2015-10-05,1,,,,,スズナ,0
3330,9470001005579,登記記録の閉鎖等,0,2021-09-06,2021-09-02,株式会社ブライトン,,株式会社,香川県,木田郡三木町,大字池戸２５１０番地６,,37,341,7610701,,,2021-09-02,清算の結了等,,,2015-10-05,1,,,,,ブライトン,0
3338,9500002000369,登記記録の閉鎖等,0,2021-09-06,2021-09-02,有限会社ルイひろはし,,有限会社,愛媛県,松山市,河野中須賀２８５番地３２,,38,201,7992438,,,2021-09-02,清算の結了等,,,2015-10-05,1,,,,,ルイヒロハシ,0
