sequenceNumber,corporateNumber,process,correct,updateDate,changeDate,name,nameImageId,kind,prefectureName,cityName,streetNumber,addressImageId,prefectureCode,cityCode,postCode,addressOutside,addressOutsideImageId,closeDate,closeCause,successorCorporateNumber,changeCause,assignmentDate,latest,enName,enPrefectureName,enCityName,enAddressOutside,furigana,hihyoji
22,1010401168632,新規,0,2022-07-25,2022-07-25,株式会社メディアゴーズ,,株式会社,東京都,港区,南青山６丁目１０番７－６０１号,,13,103,1070062,,,,,,,2022-07-25,1,,,,,メディアゴーズ,0
28,1010405021218,新規,0,2022-07-25,2022-07-25,永代ホールディング２一般社団法人,,その他の設立登記法人,東京都,港区,虎ノ門３丁目２２番１０－２０１号,,13,103,1050001,,,,,,,2022-07-25,1,,,,,エイタイホールディングツー,0
29,1010405021226,新規,0,2022-07-25,2022-07-25,一般社団法人ＴＫ０１,,その他の設立登記法人,東京都,港区,愛宕２丁目５番１号,,13,103,1050002,,,,,,,2022-07-25,1,,,,,ティーケーゼロイチ,0
34,1010701042966,新規,0,2022-07-25,2022-07-25,ｍ２Ｒ株式会社,,株式会社,東京都,品川区,西品川１丁目１番１号住友不動産大崎ガーデンタワー,,13,109,1410033,,,,,,,2022-07-25,1,,,,,エムツーアール,0
38,1010901051255,新規,0,2022-07-25,2022-07-25,株式会社たくみ清掃,,株式会社,東京都,世田谷区,八幡山１丁目１５－２カーサ・ヴェルデ１０１,,13,112,1560056,,,,,,,2022-07-25,1,,,,,タクミセイソウ,0
40,1010903007536,新規,0,2022-07-25,2022-07-25,ナツナカンパニー合同会社,,合同会社,東京都,世田谷区,三宿２丁目３６番１３号,,13,112,1540005,,,,,,,2022-07-25,1,,,,,ナツナカンパニー,0
47,1011001148784,新規,0,2022-07-25,2022-07-25,株式会社アンディフードサービス,,株式会社,東京都,渋谷区,恵比寿４丁目２０番３号恵比寿ガーデンプレイスタワー１８階,,13,113,1500013,,,,,,,2022-07-25,1,,,,,アンディフードサービス,0
50,1011003015082,新規,0,2022-07-25,2022-07-25,コードアシスト合同会社,,合同会社,東京都,渋谷区,道玄坂１丁目１０番８号渋谷道玄坂東急ビル２Ｆ－Ｃ,,13,113,1500043,,,,,,,2022-07-25,1,,,,,コードアシスト,0
53,1011101099639,新規,0,2022-07-25,2022-07-25,株式会社レゼル,,株式会社,東京都,新宿区,新宿１丁目３３－１０,,13,104,1600022,,,,,,,2022-07-25,1,,,,,レゼル,0
66,1011801041024,新規,0,2022-07-25,2022-07-25,株式会社六町シロヤ,,株式会社,東京都,足立区,中央本町２丁目４番１５号,,13,121,1200011,,,,,,,2022-07-25,1,,,,,ロクチョウシロヤ,0
68,1012401039433,新規,0,2022-07-25,2022-07-25,Ｙ．Ｍ．Ｌｉｂｅｒｔｙ株式会社,,株式会社,東京都,三鷹市,下連雀６丁目６－２８,,13,204,1810013,,,,,,,2022-07-25,1,,,,,ワイエムリバティー,0
70,1012701017163,新規,0,2022-07-25,2022-07-25,株式会社ＧＲＡＮＥＸ,,株式会社,東京都,西東京市,ひばりが丘３丁目２番５３－５１３号,,13,229,2020001,,,,,,,2022-07-25,1,,,,,グラネクス,0
79,1020003022138,新規,0,2022-07-25,2022-07-25,合同会社グロスコ,,合同会社,神奈川県,川崎市川崎区,駅前本町１１番地２川崎フロンティアビル４階,,14,131,2100007,,,,,,,2022-07-25,1,,,,,グロスコ,0
80,1020003022154,新規,0,2022-07-25,2022-07-25,合同会社Ｌｉｎｋ　Ｕｐ,,合同会社,神奈川県,川崎市川崎区,堀之内町１３番地７－３１１,,14,131,2100003,,,,,,,2022-07-25,1,,,,,リンクアップ,0
91,1021005012572,新規,0,2022-07-25,2022-07-25,一般社団法人ねこのて,,その他の設立登記法人,神奈川県,相模原市南区,東林間３丁目１８番２－１０５号,,14,153,2520311,,,,,,,2022-07-25,1,,,,,ネコノテ,0
106,1030001149304,新規,0,2022-07-25,2022-07-25,株式会社彩匠サービス,,株式会社,埼玉県,越谷市,川柳町２丁目４５１番地３,,11,222,3430827,,,,,,,2022-07-25,1,,,,,サイショウサービス,0
107,1030001149337,新規,0,2022-07-25,2022-07-25,株式会社泰光建設,,株式会社,埼玉県,入間郡毛呂山町,中央３丁目２９番地６エクセルハイム１０３号,,11,326,3500461,,,,,,,2022-07-25,1,,,,,タイコウケンセツ,0
108,1030001149353,新規,0,2022-07-25,2022-07-25,株式会社佐藤商事,,株式会社,埼玉県,狭山市,大字東三ツ木１０２番地の１４９,,11,215,3501302,,,,,,,2022-07-25,1,,,,,サトウショウジ,0
113,1030003019835,新規,0,2022-07-25,2022-07-25,合同会社ベルノ,,合同会社,埼玉県,草加市,高砂２丁目２１番１７号,,11,221,3400015,,,,,,,2022-07-25,1,,,,,ベルノ,0
114,1030003019843,新規,0,2022-07-25,2022-07-25,合同会社Ｐｒｏｊｅｃｔ　ＫＣ,,合同会社,埼玉県,蕨市,塚越２丁目７番２号ハナハウス２０２号,,11,223,3350002,,,,,,,2022-07-25,1,,,,,プロジェクトケーシー,0
128,1040001124371,新規,0,2022-07-25,2022-07-25,株式会社悠湊,,株式会社,千葉県,市原市,古市場７０番地１６,,12,219,2900008,,,,,,,2022-07-25,1,,,,,ユウソウ,0
140,1070003004560,新規,0,2022-07-25,2022-07-25,合同会社ケアプランセンターてんとうむし,,合同会社,群馬県,伊勢崎市,新栄町４０７２番地３６,,10,204,3720038,,,,,,,2022-07-25,1,,,,,ケアプランセンターテントウムシ,0
141,1080001025095,新規,0,2022-07-25,2022-07-25,株式会社Ｈ＆Ｉホールディングス,,株式会社,静岡県,藤枝市,築地５３９番地の１,,22,214,4260031,,,,,,,2022-07-25,1,,,,,エイチアンドアイホールディングス,0
173,1120001247494,新規,0,2022-07-25,2022-07-25,厚光科技株式会社,,株式会社,大阪府,大阪市東成区,神路４丁目３－１０スターレジデンス新深江５０７号室,,27,115,5370003,,,,,,,2022-07-25,1,,,,,アツコウカギ,0
174,1120001247544,新規,0,2022-07-25,2022-07-25,株式会社ＭＭｆｏｏｄｓ,,株式会社,大阪府,大阪市中央区,北浜東５番３号,,27,128,5400031,,,,,,,2022-07-25,1,,,,,エムエムフーズ,0
175,1120001247560,新規,0,2022-07-25,2022-07-25,天の美株式会社,,株式会社,大阪府,大阪市東住吉区,今林２丁目１０番１３－２０１号室,,27,121,5460001,,,,,,,2022-07-25,1,,,,,アマノミ,0
176,1120001247577,新規,0,2022-07-25,2022-07-25,雅美株式会社,,株式会社,大阪府,大阪市平野区,平野上町１丁目６番５号ゼラヴィ平野上町２０１号室,,27,126,5470045,,,,,,,2022-07-25,1,,,,,マサミ,0
177,1120001247610,新規,0,2022-07-25,2022-07-25,株式会社Ｚｅｒｏ　Ｔｏ　Ｏｎｅ　Ｌａｂ,,株式会社,大阪府,大阪市中央区,本町４丁目２番１２号ｂｉｌｌａｇｅＯＳＡＫＡ野村不動産御堂筋本町ビル８Ｆ,,27,128,5410053,,,,,,,2022-07-25,1,,,,,ゼロトゥーワンラボ,0
178,1120001247635,新規,0,2022-07-25,2022-07-25,株式会社ＸＢＲＡＩＤ　ＪＡＰＡＮ,,株式会社,大阪府,大阪市西区,西本町１丁目７番２１号ニシモトビル３０３号室,,27,106,5500005,,,,,,,2022-07-25,1,,,,,エックスブレイドジャパン,0
184,1120005023074,新規,0,2022-07-25,2022-07-25,一般社団法人護道,,その他の設立登記法人,大阪府,大阪市西区,川口１丁目６番２４－３０４号,,27,106,5500021,,,,,,,2022-07-25,1,,,,,ゴドウ,0
191,1120101065953,新規,0,2022-07-25,2022-07-25,株式会社リアン,,株式会社,大阪府,泉大津市,豊中町３丁目１４番３０－２０５号,,27,206,5950023,,,,,,,2022-07-25,1,,,,,リアン,0
192,1120105009601,新規,0,2022-07-25,2022-07-25,医療法人稜采会,,その他の設立登記法人,大阪府,堺市堺区,高須町１丁１番５０号,,27,141,5900003,,,,,,,2022-07-25,1,,,,,リョウサイカイ,0
200,1130001072207,新規,0,2022-07-25,2022-07-25,株式会社おくとー,,株式会社,京都府,城陽市,寺田高田２０番地の３６,,26,207,6100121,,,,,,,2022-07-25,1,,,,,オクトー,0
201,1130001072223,新規,0,2022-07-25,2022-07-25,サンチョク株式会社,,株式会社,京都府,京都市中京区,竹屋町通小川東入東竹屋町４１６,,26,104,6040085,,,,,,,2022-07-25,1,,,,,,0
210,1140001126845,新規,0,2022-07-25,2022-07-25,株式会社きよ春,,株式会社,兵庫県,姫路市,飾磨区上野田２丁目１６番地,,28,201,6728043,,,,,,,2022-07-25,1,,,,,キヨハル,0
214,1140003017951,新規,0,2022-07-25,2022-07-25,Ｄａｃｅｌｌａ合同会社,,合同会社,兵庫県,神戸市中央区,琴ノ緒町５丁目５番９号フューチャービル３階３０２号室,,28,110,6510094,,,,,,,2022-07-25,1,,,,,ダチェラ,0
224,1180001152284,新規,0,2022-07-25,2022-07-25,株式会社きさら,,株式会社,愛知県,名古屋市港区,名港２丁目３番２１号,,23,111,4550037,,,,,,,2022-07-25,1,,,,,キサラ,0
225,1180003024069,新規,0,2022-07-25,2022-07-25,イトラス合同会社,,合同会社,愛知県,春日井市,知多町１丁目６９番地,,23,206,4860947,,,,,,,2022-07-25,1,,,,,イトラス,0
227,1180301036443,新規,0,2022-07-25,2022-07-25,株式会社ＪＰマツオカ＆マルケス,,株式会社,愛知県,西尾市,徳次町明大寺１６番地１ロジュマンあかね１０２号室,,23,213,4450072,,,,,,,2022-07-25,1,,,,,ジェイピーマツオカアンドマルケス,0
228,1190001029639,新規,0,2022-07-25,2022-07-25,スカイ・クリーンサービス株式会社,,株式会社,三重県,伊勢市,黒瀬町１７４９－３,,24,203,5160018,,,,,,,2022-07-25,1,,,,,スカイクリーンサービス,0
230,1200001040305,新規,0,2022-07-25,2022-07-25,ＴＨＡＩ　ＡＮＨ株式会社,,株式会社,岐阜県,岐阜市,加納栄町通３丁目１２サンデービル１Ｆ,,21,201,5008455,,,,,,,2022-07-25,1,,,,,タイアン,0
232,1220001024958,新規,0,2022-07-25,2022-07-25,株式会社アースエナジー,,株式会社,石川県,金沢市,西念１丁目３番９号オリエルビル２Ｆ,,17,201,9200024,,,,,,,2022-07-25,1,,,,,アースエナジー,0
238,1260003003989,新規,0,2022-07-25,2022-07-25,合同会社Ｈ‐Ｌｉｎｋ,,合同会社,岡山県,岡山市中区,山崎３０１番地５,,33,102,7038267,,,,,,,2022-07-25,1,,,,,エイチリンク,0
241,1260005011115,新規,0,2022-07-25,2022-07-25,岡山市環境整備事業協同組合,,その他の設立登記法人,岡山県,岡山市中区,平井１０９６番地,,33,102,7038282,,,,,,,2022-07-25,1,,,,,オカヤマシカンキョウセイビジギョウ,0
249,1290001098310,新規,0,2022-07-25,2022-07-25,ｉｒｏｉｒｏ株式会社,,株式会社,福岡県,福岡市早良区,昭代３丁目４－８－４０２,,40,137,8140012,,,,,,,2022-07-25,1,,,,,イロイロ,0
256,1340001024913,新規,0,2022-07-25,2022-07-25,牧原畜産株式会社,,株式会社,鹿児島県,肝属郡東串良町,岩弘１４３７番地,,46,482,8931611,,,,,,,2022-07-25,1,,,,,マキハラチクサン,0
259,1360001030728,新規,0,2022-07-25,2022-07-25,株式会社スノードロップ３１,,株式会社,沖縄県,豊見城市,字翁長８５４番地１ＭＥＧＡドン・キホーテ６Ｆ,,47,212,9010223,,,,,,,2022-07-25,1,,,,,スノードロップサンジュウイチ,0
277,1430001087125,新規,0,2022-07-25,2022-07-25,ＨＮホテルプラットフォーム株式会社,,株式会社,北海道,札幌市中央区,南三条西２５丁目２番１５－７０１号,,01,101,0640803,,,,,,,2022-07-25,1,,,,,エイチエヌホテルプラットフォーム,0
283,1450003002229,新規,0,2022-07-25,2022-07-25,合同会社Ｓ＆Ｈ,,合同会社,北海道,旭川市,南七条通２５丁目８番地の１３５,,01,204,0788337,,,,,,,2022-07-25,1,,,,,エスアンドエイチ,0
286,1470003002219,新規,0,2022-07-25,2022-07-25,合同会社ｗｉｌｌｏｗ,,合同会社,香川県,高松市,国分寺町柏原４５４番地６,,37,201,7690105,,,,,,,2022-07-25,1,,,,,ウィロウ,0
302,2010001227960,新規,0,2022-07-25,2022-07-25,株式会社丸式,,株式会社,東京都,千代田区,鍛冶町２丁目１２番１１号,,13,101,1010044,,,,,,,2022-07-25,1,,,,,マルシキ,0
303,2010001228199,新規,0,2022-07-25,2022-07-25,聖赫新春株式会社,,株式会社,東京都,千代田区,岩本町２丁目２－３,,13,101,1010032,,,,,,,2022-07-25,1,,,,,ショウカクシンシュン,0
304,2010001228208,新規,0,2022-07-25,2022-07-25,株式会社ｍｅｔａｆｏｒｍ,,株式会社,東京都,中央区,銀座１丁目１２番４号Ｎ＆Ｅ．ＢＬＤ．７階,,13,102,1040061,,,,,,,2022-07-25,1,,,,,メタフォーム,0
321,2010403028123,新規,0,2022-07-25,2022-07-25,合同会社ｂｕｎ,,合同会社,東京都,港区,北青山３丁目５番１４号６階,,13,103,1070061,,,,,,,2022-07-25,1,,,,,ブン,0
322,2010405021175,新規,0,2022-07-25,2022-07-25,一般社団法人Ｃｕｌｔｕｒｅ　Ｐｌｕｓ,,その他の設立登記法人,東京都,港区,北青山３丁目６番７号青山パラシオタワー１１Ｆ,,13,103,1070061,,,,,,,2022-07-25,1,,,,,カルチャープラス,0
323,2010405021217,新規,0,2022-07-25,2022-07-25,永代ホールディング１一般社団法人,,その他の設立登記法人,東京都,港区,虎ノ門３丁目２２番１０－２０１号,,13,103,1050001,,,,,,,2022-07-25,1,,,,,エイタイホールディングワン,0
325,2010503006664,新規,0,2022-07-25,2022-07-25,合同会社Ｃｏｎｆｉｄｅｎｃｅ　Ａｇｅｎｃｙ,,合同会社,東京都,台東区,上野３丁目１６番２号天翔上野末広町ビル５０６号室,,13,106,1100005,,,,,,,2022-07-25,1,,,,,コンフィデンスエージェンシー,0
327,2010601061537,新規,0,2022-07-25,2022-07-25,ミドサービス株式会社,,株式会社,東京都,江東区,南砂２丁目３６番７－１２０７号,,13,108,1360076,,,,,,,2022-07-25,1,,,,,ミドサービス,0
331,2010703006332,新規,0,2022-07-25,2022-07-25,福岡牧場ホールディングス合同会社,,合同会社,東京都,品川区,上大崎３丁目１番１号目黒セントラルスクエア１５階,,13,109,1410021,,,,,,,2022-07-25,1,,,,,フクオカボクジョウホールディングス,0
334,2010903007535,新規,0,2022-07-25,2022-07-25,Ｔｏｋｙｏ　Ｆｒｏｇｓ合同会社,,合同会社,東京都,世田谷区,砧１丁目３２－２３－１４,,13,112,1570073,,,,,,,2022-07-25,1,,,,,トウキョウフロッグズ,0
348,2011101099638,新規,0,2022-07-25,2022-07-25,株式会社ＪＣＴ,,株式会社,東京都,新宿区,西新宿３丁目３番１３号西新宿水間ビル６階,,13,104,1600023,,,,,,,2022-07-25,1,,,,,ジェイシーティー,0
357,2011501028304,新規,0,2022-07-25,2022-07-25,株式会社Ａアセットマネジメント,,株式会社,東京都,荒川区,西尾久７丁目１４番２－７０２号,,13,118,1160011,,,,,,,2022-07-25,1,,,,,エイアセットマネジメント,0
366,2012301013082,新規,0,2022-07-25,2022-07-25,株式会社ウィズハック,,株式会社,東京都,町田市,木曽東１丁目４５番２４号,,13,209,1940036,,,,,,,2022-07-25,1,,,,,ウィズハック,0
371,2012701017162,新規,0,2022-07-25,2022-07-25,株式会社ｅｍ‐ｐｅａ‐ｓｅａ,,株式会社,東京都,小平市,花小金井南町２丁目１－３９,,13,211,1870003,,,,,,,2022-07-25,1,,,,,エムピーシー,0
378,2020001147472,新規,0,2022-07-25,2022-07-25,株式会社ＡＲＬ,,株式会社,神奈川県,川崎市幸区,幸町３丁目１１番２－４０３号,,14,132,2120011,,,,,,,2022-07-25,1,,,,,エーアールエル,0
379,2020003022137,新規,0,2022-07-25,2022-07-25,パドルコンサルティング合同会社,,合同会社,神奈川県,横浜市港北区,新横浜３丁目１７番１２号,,14,109,2220033,,,,,,,2022-07-25,1,,,,,パドルコンサルティング,0
380,2020003022153,新規,0,2022-07-25,2022-07-25,合同会社スピードアロー,,合同会社,神奈川県,横浜市青葉区,しらとり台５７番地１５ライオンズマンション田奈１０１号室,,14,117,2270054,,,,,,,2022-07-25,1,,,,,スピードアロー,0
394,2021005012571,新規,0,2022-07-25,2022-07-25,一般社団法人すきっぷ,,その他の設立登記法人,神奈川県,相模原市南区,双葉１丁目７番４号２Ｆ,,14,153,2520316,,,,,,,2022-07-25,1,,,,,スキップ,0
402,2030001149336,新規,0,2022-07-25,2022-07-25,株式会社吉正コンストラクション,,株式会社,埼玉県,越谷市,弥生町１番１４号ＴＡＳ越谷ビルディング４０１,,11,222,3430816,,,,,,,2022-07-25,1,,,,,ヨシマサコンストラクション,0
403,2030001149352,新規,0,2022-07-25,2022-07-25,株式会社ブリリアンス,,株式会社,埼玉県,入間市,大字中神５４５番地１,,11,225,3580035,,,,,,,2022-07-25,1,,,,,ブリリアンス,0
404,2030001149369,新規,0,2022-07-25,2022-07-25,株式会社Ｎｅｗ　Ａｇｅ　Ｗｏｒｋｓ,,株式会社,埼玉県,さいたま市見沼区,大和田町２丁目７０９番地２,,11,104,3370053,,,,,,,2022-07-25,1,,,,,ニューエイジワークス,0
409,2040001124395,新規,0,2022-07-25,2022-07-25,ＮＡＧＯＹＡ　ＭＯＴＯＲＳ株式会社,,株式会社,千葉県,佐倉市,表町１丁目１０－６－２０１,,12,212,2850811,,,,,,,2022-07-25,1,,,,,ナゴヤモータース,0
414,2040003020452,新規,0,2022-07-25,2022-07-25,合同会社ＴＳＦ,,合同会社,千葉県,松戸市,串崎南町１１２－２－２０１,,12,207,2702215,,,,,,,2022-07-25,1,,,,,ティーエスエフ,0
415,2040003020460,新規,0,2022-07-25,2022-07-25,ＡＫ合同会社,,合同会社,千葉県,印西市,小林９６７番地１トキワ荘３号,,12,231,2701318,,,,,,,2022-07-25,1,,,,,,0
429,2080001025094,新規,0,2022-07-25,2022-07-25,株式会社ＳＸＳホールディングス,,株式会社,静岡県,静岡市葵区,大岩２丁目２９番８号,,22,101,4200886,,,,,,,2022-07-25,1,,,,,エスバイエスホールディングス,0
451,2120001247493,新規,0,2022-07-25,2022-07-25,正時株式会社,,株式会社,大阪府,大阪市東成区,神路４丁目３－１０スターレジデンス新深江３０７号室,,27,115,5370003,,,,,,,2022-07-25,1,,,,,ショウジ,0
452,2120001247551,新規,0,2022-07-25,2022-07-25,株式会社ＧＲ‐ｃｏｍｐａｎｙ,,株式会社,大阪府,大阪市中央区,松屋町９番４－１５０４号,,27,128,5420067,,,,,,,2022-07-25,1,,,,,ジーアールカンパニィ,0
456,2120101065952,新規,0,2022-07-25,2022-07-25,株式会社青野建設,,株式会社,大阪府,堺市中区,土師町５丁２２番３３－３号,,27,142,5998238,,,,,,,2022-07-25,1,,,,,アオノケンセツ,0
457,2120103004792,新規,0,2022-07-25,2022-07-25,合同会社鈴蘭ケアプラン叶,,合同会社,大阪府,堺市南区,高倉台２丁２番２棟３０２号,,27,145,5900117,,,,,,,2022-07-25,1,,,,,スズランケアプランカナ,0
459,2120903004249,新規,0,2022-07-25,2022-07-25,合同会社ＤＹＮＡＭＩＣ　ＣＯＮＴＲＯＬ　ＤＥＳＩＧＮテクニカルサービス,,合同会社,大阪府,吹田市,千里丘上３６番８－２０１号,,27,205,5650811,,,,,,,2022-07-25,1,,,,,ダイナミックコントロールデザインテクニカルサービス,0
463,2122001036100,新規,0,2022-07-25,2022-07-25,株式会社森本持株会,,株式会社,大阪府,四條畷市,砂１丁目４番１７号,,27,229,5750001,,,,,,,2022-07-25,1,,,,,モリモトモチカブカイ,0
469,2130001072206,新規,0,2022-07-25,2022-07-25,株式会社紅平,,株式会社,京都府,亀岡市,余部町上条２６番地セイバリー上条２０３号,,26,206,6210806,,,,,,,2022-07-25,1,,,,,ベニヘイ,0
470,2130001072222,新規,0,2022-07-25,2022-07-25,株式会社Ｔサポート,,株式会社,京都府,京都市伏見区,深草僧坊町５７番地７,,26,109,6120877,,,,,,,2022-07-25,1,,,,,ティーサポート,0
471,2130001072313,新規,0,2022-07-25,2022-07-25,株式会社グリフォンファルマ,,株式会社,京都府,京都市西京区,松室追上ゲ町２２－１－１０１号,,26,111,6158206,,,,,,,2022-07-25,1,,,,,グリフォンファルマ,0
483,2140001126828,新規,0,2022-07-25,2022-07-25,株式会社ＲＳＡコンサルティング,,株式会社,兵庫県,神戸市東灘区,住吉南町１丁目１２番５号,,28,101,6580041,,,,,,,2022-07-25,1,,,,,アールエスエイコンサルティング,0
484,2140001126844,新規,0,2022-07-25,2022-07-25,Ｈａｐｐｉｎｅｓｓ　Ｈｏｌｄｉｎｇｓ株式会社,,株式会社,兵庫県,西宮市,甲子園口３丁目１５－１６,,28,204,6638113,,,,,,,2022-07-25,1,,,,,ハピネスホールディングス,0
487,2170003001753,新規,0,2022-07-25,2022-07-25,合同会社Ｂｕｓｈｉｔｓｕ,,合同会社,和歌山県,和歌山市,福町２８ハウスブルーネ４０３,,30,201,6408043,,,,,,,2022-07-25,1,,,,,ブシツ,0
505,2180003024068,新規,0,2022-07-25,2022-07-25,合同会社Ｂｅａｕｔｙ　Ｓｔｕｄｉｏ　Ｃｉｅｌ,,合同会社,愛知県,名古屋市中川区,元中野町２丁目１４５番地,,23,110,4540048,,,,,,,2022-07-25,1,,,,,ビューティースタジオシエル,0
506,2180003024076,新規,0,2022-07-25,2022-07-25,合同会社ｓｓｋｒ,,合同会社,愛知県,名古屋市西区,名駅２丁目３４番１７号セントラル名古屋１１０１号,,23,104,4510045,,,,,,,2022-07-25,1,,,,,エスエスケーアール,0
509,2180301036459,新規,0,2022-07-25,2022-07-25,株式会社大和,,株式会社,愛知県,蒲郡市,平田町門田２０番地２,,23,214,4430004,,,,,,,2022-07-25,1,,,,,ヤマト,0
524,2290001098350,新規,0,2022-07-25,2022-07-25,株式会社ステイゴールド,,株式会社,福岡県,太宰府市,国分１丁目１５番４５号,,40,221,8180132,,,,,,,2022-07-25,1,,,,,ステイゴールド,0
534,2320005010010,新規,0,2022-07-25,2022-07-25,一般社団法人飲酒科学振興協会,,その他の設立登記法人,大分県,由布市,挾間町医大ヶ丘１丁目１番地,,44,213,8795503,,,,,,,2022-07-25,1,,,,,インシュカガクシンコウキョウカイ,0
548,2380003005246,新規,0,2022-07-25,2022-07-25,にゃんちょこ商店合同会社,,合同会社,福島県,郡山市,八山田西５丁目８番地の２,,07,203,9638053,,,,,,,2022-07-25,1,,,,,ニャンチョコショウテン,0
563,2430001087173,新規,0,2022-07-25,2022-07-25,株式会社Ｋ　Ｓｔｙｌｅ,,株式会社,北海道,札幌市北区,屯田三条８丁目３番１７号,,01,102,0020853,,,,,,,2022-07-25,1,,,,,ケイスタイル,0
569,2500001024359,新規,0,2022-07-25,2022-07-25,ＢＯＲ株式会社,,株式会社,愛媛県,松山市,土居町９１４番地４,,38,201,7911115,,,,,,,2022-07-25,1,,,,,ビーオーアール,0
582,3010001228231,新規,0,2022-07-25,2022-07-25,株式会社図解総研,,株式会社,東京都,文京区,関口１丁目５－１０,,13,105,1120014,,,,,,,2022-07-25,1,,,,,ズカイソウケン,0
588,3010003038224,新規,0,2022-07-25,2022-07-25,日光Ｐｌｕｓ２１ホールディング合同会社,,合同会社,東京都,千代田区,丸の内３丁目１番１号東京共同会計事務所内,,13,101,1000005,,,,,,,2022-07-25,1,,,,,ニッコウプラストゥエンティワンホールディング,0
597,3010401168663,新規,0,2022-07-25,2022-07-25,株式会社ＷＨＡＴＥＶＥＲ,,株式会社,東京都,港区,北青山２丁目１２番４号坂本ビル３階,,13,103,1070061,,,,,,,2022-07-25,1,,,,,ファットエバー,0
598,3010401168671,新規,0,2022-07-25,2022-07-25,株式会社ＢＵＺＺ,,株式会社,東京都,港区,西麻布３丁目１７番２５号ＫＨＫ西麻布２階,,13,103,1060031,,,,,,,2022-07-25,1,,,,,バズ,0
600,3010405021216,新規,0,2022-07-25,2022-07-25,今泉ホールディング２一般社団法人,,その他の設立登記法人,東京都,港区,虎ノ門３丁目２２番１０－２０１号,,13,103,1050001,,,,,,,2022-07-25,1,,,,,イマイズミホールディングツー,0
611,3010901051294,新規,0,2022-07-25,2022-07-25,株式会社ＩＳＬ　Ｎｅｔｗｏｒｋｓ,,株式会社,東京都,世田谷区,玉川２丁目２８番１０－１０２号,,13,112,1580094,,,,,,,2022-07-25,1,,,,,アイエスエルネットワークス,0
612,3010901051303,新規,0,2022-07-25,2022-07-25,株式会社ｒｅｔｈｉｎｋ,,株式会社,東京都,世田谷区,三軒茶屋２丁目５４番３－８０１号,,13,112,1540024,,,,,,,2022-07-25,1,,,,,リシンク,0
618,3011001148824,新規,0,2022-07-25,2022-07-25,あい・メディカルＨｏｐｅ株式会社,,株式会社,東京都,渋谷区,道玄坂１丁目２番３号渋谷フクラス１７階,,13,113,1500043,,,,,,,2022-07-25,1,,,,,アイメディカルホープ,0
621,3011003015089,新規,0,2022-07-25,2022-07-25,上原ＦＡＳ合同会社,,合同会社,東京都,渋谷区,上原１丁目３－９,,13,113,1510064,,,,,,,2022-07-25,1,,,,,ウエハラファズ,0
626,3011401024427,新規,0,2022-07-25,2022-07-25,株式会社縁,,株式会社,東京都,板橋区,仲宿２４番８号エトワール仲宿１階,,13,119,1730005,,,,,,,2022-07-25,1,,,,,エニシ,0
629,3011503005234,新規,0,2022-07-25,2022-07-25,合同会社アゴラックス,,合同会社,東京都,北区,滝野川５丁目５６番３号ｌａｍａｉｓｏｎｒｏｕｇｅ－１０２号,,13,117,1140023,,,,,,,2022-07-25,1,,,,,アゴラックス,0
635,3012401039448,新規,0,2022-07-25,2022-07-25,株式会社ＭＪＫ,,株式会社,東京都,調布市,仙川町２丁目６番地５プラウドシティ仙川８１１,,13,208,1820002,,,,,,,2022-07-25,1,,,,,エムジェイケイ,0
636,3012701017161,新規,0,2022-07-25,2022-07-25,株式会社ＡＲＫＫ,,株式会社,東京都,西東京市,東伏見３丁目７番１５－４０３号,,13,229,2020021,,,,,,,2022-07-25,1,,,,,アーク,0
644,3013301049405,新規,0,2022-07-25,2022-07-25,ＫＨＩＮＥ　ＳＨＷＥ　ＥＡＩＮ　ＳＩ株式会社,,株式会社,東京都,豊島区,巣鴨４丁目９番６号ＧｒｅｅｎＨｉｌｌｓ３０１号室,,13,116,1700002,,,,,,,2022-07-25,1,,,,,カインスェエィシィ,0
647,3020001147471,新規,0,2022-07-25,2022-07-25,株式会社オリティ,,株式会社,神奈川県,横浜市中区,野毛町２丁目８７番地１－９１１号,,14,104,2310064,,,,,,,2022-07-25,1,,,,,オリティ,0
659,3030001149351,新規,0,2022-07-25,2022-07-25,株式会社Ｕ＆Ｉ,,株式会社,埼玉県,越谷市,蒲生西町１丁目８番６０号,,11,222,3430835,,,,,,,2022-07-25,1,,,,,ユーアンドアイ,0
660,3030001149368,新規,0,2022-07-25,2022-07-25,株式会社エイコーハウス,,株式会社,埼玉県,上尾市,原新町２３番４号,,11,219,3620016,,,,,,,2022-07-25,1,,,,,エイコーハウス,0
674,3050001051448,新規,0,2022-07-25,2022-07-25,株式会社ＡＫＩＲＡ,,株式会社,茨城県,桜川市,真壁町上小幡８番地,,08,231,3004401,,,,,,,2022-07-25,1,,,,,アキラ,0
675,3050003006706,新規,0,2022-07-25,2022-07-25,墨宝合同会社,,合同会社,茨城県,東茨城郡城里町,大字那珂西２５４０番地の１,,08,310,3114302,,,,,,,2022-07-25,1,,,,,ボクホウ,0
701,3110003004819,新規,0,2022-07-25,2022-07-25,さくらい合同会社,,合同会社,新潟県,長岡市,鉄工町１丁目２番６９号,,15,202,9402022,,,,,,,2022-07-25,1,,,,,サクライ,0
709,3120001247542,新規,0,2022-07-25,2022-07-25,華洋貿易株式会社,,株式会社,大阪府,大阪市城東区,今福南４丁目６番５９号Ｊａｃ．’ｓＨｏｕｓｅ１Ｆ－Ｂ号室,,27,118,5360003,,,,,,,2022-07-25,1,,,,,カヨウボウエキ,0
710,3120001247559,新規,0,2022-07-25,2022-07-25,天＿株式会社,00127303,株式会社,大阪府,大阪市中央区,西心斎橋１丁目５番１２号１１０４,,27,128,5420086,,,,,,,2022-07-25,1,,,,,テンギン,0
711,3120001247609,新規,0,2022-07-25,2022-07-25,株式会社仁井屋コーポレーション,,株式会社,大阪府,大阪市中央区,東平２丁目２番３０号,,27,128,5420063,,,,,,,2022-07-25,1,,,,,ニイヤコーポレーション,0
714,3120003022134,新規,0,2022-07-25,2022-07-25,文明通販貿易合同会社,,合同会社,大阪府,大阪市此花区,四貫島２丁目３番１－６０１号,,27,104,5540014,,,,,,,2022-07-25,1,,,,,ブンメイツウハンボウエキ,0
715,3120005023089,新規,0,2022-07-25,2022-07-25,一般社団法人正徳館,,その他の設立登記法人,大阪府,守口市,金田町５丁目３番３号,,27,209,5700011,,,,,,,2022-07-25,1,,,,,セイトクカン,0
727,3120901046250,新規,0,2022-07-25,2022-07-25,株式会社ＩＧＡ,,株式会社,大阪府,豊中市,長興寺南１丁目１番７－６０２号,,27,203,5610874,,,,,,,2022-07-25,1,,,,,アイジーエー,0
728,3120901046275,新規,0,2022-07-25,2022-07-25,メディカルタレントバンク株式会社,,株式会社,大阪府,吹田市,江坂町２丁目８番１２号,,27,205,5640063,,,,,,,2022-07-25,1,,,,,メディカルタレントバンク,0
736,3130001072287,新規,0,2022-07-25,2022-07-25,株式会社はなだや印刷,,株式会社,京都府,京都市右京区,鳴滝安井殿町１０番地１,,26,108,6168243,,,,,,,2022-07-25,1,,,,,ハナダヤインサツ,0
752,3180001152299,新規,0,2022-07-25,2022-07-25,株式会社星原精機,,株式会社,愛知県,常滑市,新浜町１丁目１００番地,,23,216,4790847,,,,,,,2022-07-25,1,,,,,ホシハラセイキ,0
764,3200003005626,新規,0,2022-07-25,2022-07-25,サミトレーディング合同会社,,合同会社,岐阜県,中津川市,手賀野会所沢１７５－４８２,,21,206,5080015,,,,,,,2022-07-25,1,,,,,サミトレーディング,0
766,3210001019016,新規,0,2022-07-25,2022-07-25,株式会社ハートリンク,,株式会社,福井県,福井市,舞屋町第２号２２番地２,,18,201,9188024,,,,,,,2022-07-25,1,,,,,ハートリンク,0
780,3290001098358,新規,0,2022-07-25,2022-07-25,株式会社ｏｔｏｎａｒｉ,,株式会社,福岡県,福岡市中央区,大名１丁目３番２９号,,40,133,8100041,,,,,,,2022-07-25,1,,,,,オトナリ,0
787,3290005018758,新規,0,2022-07-25,2022-07-25,一般社団法人Ｓｅｐｔ　Ｃｌｏｖｅｒ,,その他の設立登記法人,福岡県,福岡市中央区,天神２丁目８番４１号,,40,133,8100001,,,,,,,2022-07-25,1,,,,,セプトクローバー,0
788,3290801028745,新規,0,2022-07-25,2022-07-25,株式会社まっと,,株式会社,福岡県,北九州市小倉南区,湯川新町１丁目３番４１号,,40,107,8000256,,,,,,,2022-07-25,1,,,,,マット,0
793,3320001019228,新規,0,2022-07-25,2022-07-25,株式会社Ｌａｖ　Ｂｅ,,株式会社,大分県,大分市,花高松２丁目１番３号,,44,201,8700915,,,,,,,2022-07-25,1,,,,,ラブビー,0
794,3320003003865,新規,0,2022-07-25,2022-07-25,Ａｔ　ＯＩＴＡ合同会社,,合同会社,大分県,大分市,汐見２丁目１１７－２,,44,201,8700253,,,,,,,2022-07-25,1,,,,,アットオオイタ,0
800,3330001029952,新規,0,2022-07-25,2022-07-25,株式会社トライスター,,株式会社,熊本県,熊本市中央区,三郎１丁目６番２６号,,43,101,8620922,,,,,,,2022-07-25,1,,,,,トライスター,0
833,3430001087107,新規,0,2022-07-25,2022-07-25,株式会社しき,,株式会社,北海道,小樽市,塩谷２丁目３０番１５号,,01,203,0482672,,,,,,,2022-07-25,1,,,,,シキ,0
837,3450001013754,新規,0,2022-07-25,2022-07-25,株式会社パイオニアソウル,,株式会社,北海道,天塩郡豊富町,字アチャルペシペ６７９６番地１,,01,516,0984100,,,,,,,2022-07-25,1,,,,,パイオニアソウル,0
839,3480005006909,新規,0,2022-07-25,2022-07-25,一般社団法人もりまちレジリエンス,,その他の設立登記法人,徳島県,名西郡神山町,上分字一宇夫２０番地,,36,342,7713422,,,,,,,2022-07-25,1,,,,,モリマチレジリエンス,0
840,3500003002865,新規,0,2022-07-25,2022-07-25,ＮＯＣＯＬ合同会社,,合同会社,愛媛県,松山市,太山寺町１３０５－２,,38,201,7992662,,,,,,,2022-07-25,1,,,,,ノコル,0
841,3700150101482,新規,0,2022-07-25,2020-12-22,日本ＲＮＡ学会,,その他,東京都,江東区,青海２丁目４－７産業技術総合研究所　別館２Ｆ,,13,108,1350064,,,,,,,2020-12-22,1,,,,,ニホンアールエヌエーガツカイ,0
844,3700150109492,新規,0,2022-07-25,2022-06-13,趙　寿玉　チュムパンの会,,その他,東京都,新宿区,北新宿４丁目３－１１地下１階,,13,104,1690074,,,,,,,2022-06-13,1,,,,,チヨウスオクチユムパンノカイ,0
845,3700150110657,新規,0,2022-07-25,2022-07-01,ｋａｎｋａｋｕ,,その他,神奈川県,川崎市中原区,井田三舞町９－５ハウス元住吉３０１,,14,133,2110037,,,,,,,2022-07-01,1,,,,,カンカク,0
864,4010001228271,新規,0,2022-07-25,2022-07-25,株式会社ＢＯＮＤ,,株式会社,東京都,千代田区,大手町１丁目７番２号,,13,101,1000004,,,,,,,2022-07-25,1,,,,,ボンド,0
883,4010405021215,新規,0,2022-07-25,2022-07-25,今泉ホールディング１一般社団法人,,その他の設立登記法人,東京都,港区,虎ノ門３丁目２２番１０－２０１号,,13,103,1050001,,,,,,,2022-07-25,1,,,,,イマイズミホールディングワン,0
885,4010501049135,新規,0,2022-07-25,2022-07-25,株式会社ＣＲＢ,,株式会社,東京都,台東区,柳橋１丁目３番５号,,13,106,1110052,,,,,,,2022-07-25,1,,,,,シーアールビー,0
886,4010501049143,新規,0,2022-07-25,2022-07-25,富昶株式会社,,株式会社,東京都,台東区,柳橋１丁目１１番５－３０４号,,13,106,1110052,,,,,,,2022-07-25,1,,,,,トミチョウ,0
887,4010503006662,新規,0,2022-07-25,2022-07-25,合同会社ＨＮＤ,,合同会社,東京都,台東区,今戸１丁目１３番９号ベルデ浅草４０２号室,,13,106,1110024,,,,,,,2022-07-25,1,,,,,エイチエヌディー,0
902,4010901051285,新規,0,2022-07-25,2022-07-25,株式会社クラタＨＤ,,株式会社,東京都,世田谷区,代沢３丁目１７番１５号,,13,112,1550032,,,,,,,2022-07-25,1,,,,,クラタホールディングス,0
904,4010903007533,新規,0,2022-07-25,2022-07-25,合同会社レガーム,,合同会社,東京都,世田谷区,池尻３丁目１８番３４号コーポツナシマ２Ｂ,,13,112,1540001,,,,,,,2022-07-25,1,,,,,レガーム,0
911,4011005009674,新規,0,2022-07-25,2022-07-25,一般社団法人渋谷民泊コミュニティ,,その他の設立登記法人,東京都,渋谷区,幡ヶ谷２丁目２番５号カーム幡ヶ谷１０３,,13,113,1510072,,,,,,,2022-07-25,1,,,,,シブヤミンパクコミュニティ,0
916,4011101099462,新規,0,2022-07-25,2022-07-25,株式会社Ｌｉｓｏｄ　Ｊａｐａｎ,,株式会社,東京都,新宿区,西新宿３丁目３番１３号西新宿水間ビル６階,,13,104,1600023,,,,,,,2022-07-25,1,,,,,リソッドジャパン,0
917,4011103012002,新規,0,2022-07-25,2022-07-25,ＡＵＲＯＲＡ０１合同会社,,合同会社,東京都,新宿区,西新宿２丁目１番１号新宿三井ビル５０階,,13,104,1600023,,,,,,,2022-07-25,1,,,,,オーロラゼロワン,0
918,4011201023974,新規,0,2022-07-25,2022-07-25,株式会社ＤＡＭ,,株式会社,東京都,中野区,鷺宮６丁目２８－４５トワヴェール１０１,,13,114,1650032,,,,,,,2022-07-25,1,,,,,ドーンアセットマネジメント,0
941,4013301049412,新規,0,2022-07-25,2022-07-25,福盛株式会社,,株式会社,東京都,豊島区,西池袋１丁目２９－１４オリエント池袋２Ｆ,,13,116,1710021,,,,,,,2022-07-25,1,,,,,フクセイ,0
949,4020001147454,新規,0,2022-07-25,2022-07-25,株式会社アトム,,株式会社,神奈川県,横浜市鶴見区,尻手２丁目１番５４号,,14,101,2300003,,,,,,,2022-07-25,1,,,,,アトム,0
950,4020001147462,新規,0,2022-07-25,2022-07-25,株式会社ｂｏｎａ　ｌｙｃｋａ,,株式会社,神奈川県,横浜市港北区,仲手原１丁目２番９号,,14,109,2220023,,,,,,,2022-07-25,1,,,,,ボナリュッカ,0
955,4020003022143,新規,0,2022-07-25,2022-07-25,合同会社ＨＡＰＰＹ‐ＳＥＥＤあおば,,合同会社,神奈川県,横浜市中区,桜木町１丁目１０１番地１クロスゲート７階,,14,104,2310062,,,,,,,2022-07-25,1,,,,,ハッピーシードアオバ,0
969,4030001149334,新規,0,2022-07-25,2022-07-25,株式会社ＲＥＬＡＮＤ,,株式会社,埼玉県,蕨市,中央１丁目３３番１号,,11,223,3350004,,,,,,,2022-07-25,1,,,,,リランド,0
970,4030001149342,新規,0,2022-07-25,2022-07-25,クレイン不動産株式会社,,株式会社,埼玉県,さいたま市南区,太田窪４丁目１２番５号,,11,108,3360015,,,,,,,2022-07-25,1,,,,,クレインフドウサン,0
971,4030001149375,新規,0,2022-07-25,2022-07-25,株式会社大一工業,,株式会社,埼玉県,川口市,大字木曽呂３０５番地の１アンソレイユ１０２号,,11,203,3330831,,,,,,,2022-07-25,1,,,,,ダイイチコウギョウ,0
982,4040001124328,新規,0,2022-07-25,2022-07-25,株式会社Ｒｅｍｕｒｉａ,,株式会社,千葉県,佐倉市,上座７０７番地３６,,12,212,2850854,,,,,,,2022-07-25,1,,,,,レムリア,0
983,4040003020384,新規,0,2022-07-25,2022-07-25,合同会社イノセンス,,合同会社,千葉県,柏市,豊四季２２４－９１,,12,217,2770863,,,,,,,2022-07-25,1,,,,,イノセンス,0
984,4040003020491,新規,0,2022-07-25,2022-07-25,合同会社ＣｏＣ,,合同会社,千葉県,市川市,下貝塚１丁目８－３１,,12,203,2720821,,,,,,,2022-07-25,1,,,,,シーオーシー,0
1012,4120001247533,新規,0,2022-07-25,2022-07-25,華清旺株式会社,,株式会社,大阪府,大阪市西成区,花園南１丁目１３番１号３１１号室,,27,122,5570015,,,,,,,2022-07-25,1,,,,,カセイオウ,0
1015,4120101065942,新規,0,2022-07-25,2022-07-25,株式会社燦華商事,,株式会社,大阪府,松原市,高見の里５丁目４５６番地の２６,,27,217,5800021,,,,,,,2022-07-25,1,,,,,サンカショウジ,0
1020,4120901046274,新規,0,2022-07-25,2022-07-25,株式会社ＫＵＲＥＹＯＮ,,株式会社,大阪府,豊中市,東豊中町２丁目３番５８号,,27,203,5600003,,,,,,,2022-07-25,1,,,,,クレヨン,0
1028,4130001072229,新規,0,2022-07-25,2022-07-25,スパイシーズ・ジャパン株式会社,,株式会社,京都府,京都市下京区,下魚棚通堀川西入南八百屋町３３４番地,,26,106,6008251,,,,,,,2022-07-25,1,,,,,スパイシーズジャパン,0
1039,4140001126834,新規,0,2022-07-25,2022-07-25,株式会社誠心,,株式会社,兵庫県,宝塚市,平井１丁目３０－１０,,28,214,6650816,,,,,,,2022-07-25,1,,,,,セイシン,0
1040,4140001126842,新規,0,2022-07-25,2022-07-25,Ａ＆Ｓ　Ｌａｔｈｙｒｕｓ　Ｃｒｅａｔｉｏｎ株式会社,,株式会社,兵庫県,神戸市東灘区,向洋町中６丁目９番地,,28,101,6580032,,,,,,,2022-07-25,1,,,,,エーアンドエスラティルスクリエイション,0
1049,4170001017205,新規,0,2022-07-25,2022-07-25,株式会社太田工作所,,株式会社,和歌山県,和歌山市,岩橋１０７９－１,,30,201,6408301,,,,,,,2022-07-25,1,,,,,オオタコウサクショ,0
1055,4180003024066,新規,0,2022-07-25,2022-07-25,ＫＯＮＤＯ　ＧＡＲＡＧＥ合同会社,,合同会社,愛知県,半田市,八軒町３０番地,,23,205,4750807,,,,,,,2022-07-25,1,,,,,コンドウガレージ,0
1057,4190001029636,新規,0,2022-07-25,2022-07-25,株式会社リビング前田,,株式会社,三重県,桑名郡木曽岬町,大字栄５４番地,,24,303,4980811,,,,,,,2022-07-25,1,,,,,リビングマエダ,0
1061,4200001040310,新規,0,2022-07-25,2022-07-25,加藤運営株式会社,,株式会社,岐阜県,岐阜市,薮田東２丁目９番１号,,21,201,5008382,,,,,,,2022-07-25,1,,,,,カトウウンエイ,0
1063,4210001019007,新規,0,2022-07-25,2022-07-25,株式会社ホンダオート福井,,株式会社,福井県,福井市,文京６丁目２４番２６号,,18,201,9100017,,,,,,,2022-07-25,1,,,,,ホンダオートフクイ,0
1087,4290001098357,新規,0,2022-07-25,2022-07-25,株式会社ＵＦＧ,,株式会社,福岡県,うきは市,吉井町１２４４番地,,40,225,8391321,,,,,,,2022-07-25,1,,,,,ユーエフジー,0
1093,4320001019227,新規,0,2022-07-25,2022-07-25,株式会社グランドワーク,,株式会社,大分県,大分市,弁天２丁目６番２９－１０３号,,44,201,8700017,,,,,,,2022-07-25,1,,,,,グランドワーク,0
1095,4350005006086,新規,0,2022-07-25,2022-07-25,一般社団法人ウイット,,その他の設立登記法人,宮崎県,宮崎市,大字郡司分甲１５６７番地１,,45,201,8800924,,,,,,,2022-07-25,1,,,,,ウイット,0
1096,4360001030733,新規,0,2022-07-25,2022-07-25,サントミリース株式会社,,株式会社,沖縄県,那覇市,字仲井真３３８番地２,,47,201,9020074,,,,,,,2022-07-25,1,,,,,サントミリース,0
1101,4370005010508,新規,0,2022-07-25,2022-07-25,一般社団法人ＬｉｆｅＰｌａｎＥｄｕｃａｔｉｏｎ,,その他の設立登記法人,宮城県,仙台市宮城野区,田子西２丁目６番地の１０,,04,102,9830026,,,,,,,2022-07-25,1,,,,,ライフプランエデュケーション,0
1115,4420001017947,新規,0,2022-07-25,2022-07-25,株式会社下佐産業,,株式会社,青森県,十和田市,大字赤沼字向川原２２番地１,,02,206,0340071,,,,,,,2022-07-25,1,,,,,シモササンギョウ,0
1122,4440003001476,新規,0,2022-07-25,2022-07-25,合同会社シックススター,,合同会社,北海道,亀田郡七飯町,緑町２丁目１－５０,,01,337,0411135,,,,,,,2022-07-25,1,,,,,,0
1123,4450001013753,新規,0,2022-07-25,2022-07-25,株式会社ＥＮｃｏｒｅ,,株式会社,北海道,旭川市,東光十四条２丁目１番５号Ｃ号室,,01,204,0788354,,,,,,,2022-07-25,1,,,,,アンコール,0
1126,4480005006908,新規,0,2022-07-25,2022-07-25,一般社団法人六合,,その他の設立登記法人,徳島県,阿南市,宝田町郡４１番地,,36,204,7740045,,,,,,,2022-07-25,1,,,,,リクゴウ,0
1127,4490001010235,新規,0,2022-07-25,2022-07-25,株式会社ＳＯＲＯＮＳＯ,,株式会社,高知県,高知市,瀬戸南町２丁目２５番３５号,,39,201,7810253,,,,,,,2022-07-25,1,,,,,ソロンソ,0
1133,4500003002864,新規,0,2022-07-25,2022-07-25,合同会社Ｓａｆａｒｉ,,合同会社,愛媛県,松山市,二番町１丁目１０番地７ＳＵＧＩＮＯＢＬＤ２Ｆ,,38,201,7900002,,,,,,,2022-07-25,1,,,,,サファリ,0
1134,4700150108015,新規,0,2022-07-25,2022-04-15,音枕ＯｔｏｍａｋｕＲａ,,その他,東京都,三鷹市,井の頭５丁目１３－１９,,13,204,1810001,,,,,,,2022-04-15,1,,,,,オトマクラオトマクラ,0
1167,5010403028145,新規,0,2022-07-25,2022-07-25,合同会社ＳＡＭＵＲＡＩ１８,,合同会社,東京都,港区,赤坂２丁目１０番５号税理士法人赤坂国際会計事務所内,,13,103,1070052,,,,,,,2022-07-25,1,,,,,サムライエイティーン,0
1174,5010901051292,新規,0,2022-07-25,2022-07-25,株式会社ライズ,,株式会社,東京都,世田谷区,三宿２丁目２３番２号グリーンコート三宿１０２,,13,112,1540005,,,,,,,2022-07-25,1,,,,,ライズ,0
1185,5011005009657,新規,0,2022-07-25,2022-07-25,一般社団法人いちご言祝ぎの杜,,その他の設立登記法人,東京都,渋谷区,渋谷４丁目１番１８－３Ｆ,,13,113,1500002,,,,,,,2022-07-25,1,,,,,イチゴコトホギノモリ,0
1186,5011101099619,新規,0,2022-07-25,2022-07-25,Ｄ株式会社,,株式会社,東京都,新宿区,高田馬場１丁目２４－１６内田ビル６階,,13,104,1690075,,,,,,,2022-07-25,1,,,,,ディー,0
1198,5011401024425,新規,0,2022-07-25,2022-07-25,株式会社交通商品リテイルサービス,,株式会社,東京都,板橋区,仲宿１４番１号,,13,119,1730005,,,,,,,2022-07-25,1,,,,,コウツウショウヒンリテイルサービス,0
1199,5011403003732,新規,0,2022-07-25,2022-07-25,ｉ‐ｓｔａｇｅ　ｓｅｒｖｉｃｅ合同会社,,合同会社,東京都,板橋区,栄町１８番５号愛マンション別館２０３号,,13,119,1730015,,,,,,,2022-07-25,1,,,,,アイステージサービス,0
1219,5013303006237,新規,0,2022-07-25,2022-07-25,合同会社ＡｎｄＣｏｄｅ,,合同会社,東京都,豊島区,東池袋１丁目１７番１１号パークハイツ池袋１１０５号,,13,116,1700013,,,,,,,2022-07-25,1,,,,,アンドコード,0
1220,5013305003364,新規,0,2022-07-25,2022-07-25,一般社団法人ｃｈｉｌｄ　ｓｍｉｌｅ,,その他の設立登記法人,東京都,豊島区,池袋２丁目６８番９号ＭＩＢビル７Ｆ,,13,116,1710014,,,,,,,2022-07-25,1,,,,,チャイルドスマイル,0
1236,5030001149366,新規,0,2022-07-25,2022-07-25,天羽株式会社,,株式会社,埼玉県,新座市,栗原５丁目９－２－１０１室,,11,230,3520035,,,,,,,2022-07-25,1,,,,,アマハネ,0
1237,5030001149374,新規,0,2022-07-25,2022-07-25,株式会社酒井石材,,株式会社,埼玉県,久喜市,栗橋東３丁目１番１７号,,11,232,3491103,,,,,,,2022-07-25,1,,,,,サカイセキザイ,0
1250,5040001124368,新規,0,2022-07-25,2022-07-25,ＤＡＩ　ＰＨＡＴ株式会社,,株式会社,千葉県,我孫子市,岡発戸９２５－７,,12,222,2701137,,,,,,,2022-07-25,1,,,,,ダイファット,0
1252,5040003020490,新規,0,2022-07-25,2022-07-25,合同会社Ｍｅｇｕｒｕ　Ｐｌｕｓ,,合同会社,千葉県,船橋市,高野台５丁目１９番９号,,12,204,2740801,,,,,,,2022-07-25,1,,,,,メグルプラス,0
1259,5050001051446,新規,0,2022-07-25,2022-07-25,ウェル・ビーイング株式会社,,株式会社,茨城県,水戸市,千波町６１７番地の１０,,08,201,3100851,,,,,,,2022-07-25,1,,,,,ウェルビーイング,0
1262,5050003006704,新規,0,2022-07-25,2022-07-25,合同会社ＤＡＮＫＥ,,合同会社,茨城県,水戸市,吉沢町３５２－１２１,,08,201,3100845,,,,,,,2022-07-25,1,,,,,ダンケ,0
1267,5080003002840,新規,0,2022-07-25,2022-07-25,合同会社ＡＳＯＢＩＢＡ,,合同会社,静岡県,静岡市葵区,呉服町２丁目７－１０育英会ビル３Ｆ,,22,101,4200031,,,,,,,2022-07-25,1,,,,,アソビバ,0
1280,5100001035550,新規,0,2022-07-25,2022-07-25,株式会社つねよし,,株式会社,長野県,上田市,中央５丁目１３番６５号,,20,203,3860012,,,,,,,2022-07-25,1,,,,,ツネヨシ,0
1304,5120001247433,新規,0,2022-07-25,2022-07-25,奥博株式会社,,株式会社,大阪府,大阪市淀川区,西中島４丁目４－２５,,27,123,5320011,,,,,,,2022-07-25,1,,,,,オクハク,0
1305,5120001247490,新規,0,2022-07-25,2022-07-25,澤萃株式会社,,株式会社,大阪府,大阪市東成区,神路４丁目３－１０スターレジデンス新深江８０２号室,,27,115,5370003,,,,,,,2022-07-25,1,,,,,サワスイ,0
1306,5120001247549,新規,0,2022-07-25,2022-07-25,爍鵬株式会社,,株式会社,大阪府,大阪市中央区,上本町西３丁目２番６号柴田興産ビル３０６Ｄ,,27,128,5420062,,,,,,,2022-07-25,1,,,,,シャクホウ,0
1307,5120001247565,新規,0,2022-07-25,2022-07-25,株式会社レック,,株式会社,大阪府,大阪市城東区,成育３丁目１３番２１号協和ビル,,27,118,5360007,,,,,,,2022-07-25,1,,,,,レック,0
1308,5120001247598,新規,0,2022-07-25,2022-07-25,盛唐株式会社,,株式会社,大阪府,大阪市阿倍野区,美章園２丁目６－８,,27,119,5450003,,,,,,,2022-07-25,1,,,,,セイトウ,0
1311,5120003022132,新規,0,2022-07-25,2022-07-25,スノードロップ合同会社,,合同会社,大阪府,大阪市北区,梅田１丁目１１番４－１０００号,,27,127,5300001,,,,,,,2022-07-25,1,,,,,スノードロップ,0
1312,5120005023095,新規,0,2022-07-25,2022-07-25,ＮＰＯ法人てとてとしっぽ,,その他の設立登記法人,大阪府,大阪市旭区,生江１丁目１番２１号,,27,117,5350004,,,,,,,2022-07-25,1,,,,,テトテトシッポ,0
1320,5122005003630,新規,0,2022-07-25,2022-07-25,医療法人曽秀,,その他の設立登記法人,大阪府,大東市,南津の辺町７番３５号南津の辺メディカルモール,,27,218,5740016,,,,,,,2022-07-25,1,,,,,ソウシュウ,0
1325,5130001072211,新規,0,2022-07-25,2022-07-25,株式会社Ｔ２‐ｆｌｏｗ,,株式会社,京都府,京都市山科区,大宅御供田町９７番地３,,26,110,6078192,,,,,,,2022-07-25,1,,,,,ティーツゥフロウ,0
1326,5130001072285,新規,0,2022-07-25,2022-07-25,地域共創ｌａｂｏ株式会社,,株式会社,京都府,京都市上京区,元土御門町５２９,,26,102,6028006,,,,,,,2022-07-25,1,,,,,チイキキョウソウラボ,0
1331,5130005016536,新規,0,2022-07-25,2022-07-25,一般社団法人ＳＲＨＲ　Ｊａｐａｎ,,その他の設立登記法人,京都府,京都市南区,久世上久世町１３６番地２２,,26,107,6018212,,,,,,,2022-07-25,1,,,,,エスアールエイチアールジャパン,0
1343,5140003017948,新規,0,2022-07-25,2022-07-25,合同会社ヨシカル,,合同会社,兵庫県,姫路市,梅ケ谷町２２番１３－１号,,28,201,6700894,,,,,,,2022-07-25,1,,,,,ヨシカル,0
1348,5170001017204,新規,0,2022-07-25,2022-07-25,株式会社光友,,株式会社,和歌山県,有田郡有田川町,大字徳田１０５番地１３,,30,366,6430801,,,,,,,2022-07-25,1,,,,,コウユウ,0
1361,5180005019856,新規,0,2022-07-25,2022-07-25,ＪＶ共栄協同組合,,その他の設立登記法人,愛知県,小牧市,大字大草２０５９番地２,,23,219,4850802,,,,,,,2022-07-25,1,,,,,ジェイブイキョウエイ,0
1362,5190001029643,新規,0,2022-07-25,2022-07-25,株式会社ＬＥＯ　ＧＡＲＡＧＥ,,株式会社,三重県,伊賀市,阿山ハイツ１４１６－４０,,24,216,5181316,,,,,,,2022-07-25,1,,,,,レオガレージ,0
1367,5220003003329,新規,0,2022-07-25,2022-07-25,合同会社ＴＵＲＮ　ＵＰ,,合同会社,石川県,加賀市,上河崎町１９０番地３,,17,206,9220013,,,,,,,2022-07-25,1,,,,,ターンアップ,0
1372,5260001037069,新規,0,2022-07-25,2022-07-25,株式会社ＡＯＩ,,株式会社,岡山県,倉敷市,粒浦７番地１,,33,202,7100036,,,,,,,2022-07-25,1,,,,,アオイ,0
1373,5260001037077,新規,0,2022-07-25,2022-07-25,株式会社よつば堂,,株式会社,岡山県,倉敷市,新倉敷駅前１丁目１４１番地,,33,202,7100253,,,,,,,2022-07-25,1,,,,,ヨツバドウ,0
1380,5290001098364,新規,0,2022-07-25,2022-07-25,明株式会社,,株式会社,福岡県,飯塚市,枝国４９５－１６,,40,205,8200081,,,,,,,2022-07-25,1,,,,,アキラ,0
1392,5320003003863,新規,0,2022-07-25,2022-07-25,合同会社祐栄建設,,合同会社,大分県,大分市,大字森町１００３番地１５号,,44,201,8700127,,,,,,,2022-07-25,1,,,,,ユウエイケンセツ,0
1395,5340001024918,新規,0,2022-07-25,2022-07-25,株式会社ほっぷ,,株式会社,鹿児島県,霧島市,隼人町東郷１丁目２３３番地１,,46,218,8995115,,,,,,,2022-07-25,1,,,,,ホップ,0
1401,5360001030732,新規,0,2022-07-25,2022-07-25,株式会社宮古島観光バス,,株式会社,沖縄県,宮古島市,平良字西里１９４７番地１２,,47,214,9060012,,,,,,,2022-07-25,1,,,,,ミヤコジマカンコウバス,0
1410,5380001032999,新規,0,2022-07-25,2022-07-25,株式会社山中工業,,株式会社,福島県,会津若松市,東山町大字石山字院内２４７番地の１レジデンスレンガ２０５,,07,202,9650813,,,,,,,2022-07-25,1,,,,,ヤマナカコウギョウ,0
1414,5410001013244,新規,0,2022-07-25,2022-07-25,新和重機興業株式会社,,株式会社,秋田県,大仙市,大曲丸の内町１１番１２号,,05,212,0140026,,,,,,,2022-07-25,1,,,,,シンワジュウキコウギョウ,0
1427,5460301005085,新規,0,2022-07-25,2022-07-25,高栄電設株式会社,,株式会社,北海道,北見市,西三輪２丁目６１６番地４,,01,208,0900838,,,,,,,2022-07-25,1,,,,,コウエイデンセツ,0
1431,5480001011803,新規,0,2022-07-25,2022-07-25,株式会社森新聞店,,株式会社,徳島県,阿南市,宝田町平岡７２３番地１,,36,204,7740045,,,,,,,2022-07-25,1,,,,,モリシンブンテン,0
1434,5700150109359,新規,0,2022-07-25,2022-06-10,イエローストーン,,その他,東京都,杉並区,和泉３丁目５５－１１セレーノ永福１０２,,13,115,1680063,,,,,,,2022-06-10,1,,,,,イエローストーン,0
1435,5700150110036,新規,0,2022-07-25,2022-06-17,Ｍｉｙａｋｏ’ｓカンパニー,,その他,神奈川県,横浜市栄区,上郷町１４２－１グランドゥール新家１０２号,,14,115,2470013,,,,,,,2022-06-17,1,,,,,ミヤコズカンパニー,0
1446,6010001228212,新規,0,2022-07-25,2022-07-25,ＥＧ　Ｊａｐａｎ株式会社,,株式会社,東京都,千代田区,丸の内１丁目８番３号丸の内トラストタワー２０階,,13,101,1000005,,,,,,,2022-07-25,1,,,,,イージージャパン,0
1463,6010401168685,新規,0,2022-07-25,2022-07-25,ストーンアイランドジャパン株式会社,,株式会社,東京都,港区,北青山３丁目６番７号,,13,103,1070061,,,,,,,2022-07-25,1,,,,,ストーンアイランドジャパン,0
1484,6010603009646,新規,0,2022-07-25,2022-07-25,ｓｅｎｓｅ　ｏｆ　ｗｏｎｄｅｒ合同会社,,合同会社,東京都,江東区,常盤１丁目１５－８,,13,108,1350006,,,,,,,2022-07-25,1,,,,,センスオブワンダー,0
1490,6010901051291,新規,0,2022-07-25,2022-07-25,株式会社ＳＥＶＥＮ,,株式会社,東京都,世田谷区,弦巻３丁目１２番１７号,,13,112,1540016,,,,,,,2022-07-25,1,,,,,セブン,0
1491,6010903007531,新規,0,2022-07-25,2022-07-25,合同会社１８３９,,合同会社,東京都,世田谷区,下馬５丁目４番１６号コージーコート学芸大学１０４,,13,112,1540002,,,,,,,2022-07-25,1,,,,,イチサク,0
1494,6011001148821,新規,0,2022-07-25,2022-07-25,ユーライクジャパン株式会社,,株式会社,東京都,渋谷区,富ヶ谷１丁目１４番１４号３階,,13,113,1510063,,,,,,,2022-07-25,1,,,,,ユーライクジャパン,0
1495,6011003015086,新規,0,2022-07-25,2022-07-25,Ａｐｌｉｃｏ．合同会社,,合同会社,東京都,目黒区,緑が丘１丁目１３番２３号ドエルぽうれん１２号室,,13,110,1520034,,,,,,,2022-07-25,1,,,,,アプリコ,0
1500,6011103012000,新規,0,2022-07-25,2022-07-25,ＤＳＣ合同会社,,合同会社,東京都,新宿区,西新宿３丁目３番１３号,,13,104,1600023,,,,,,,2022-07-25,1,,,,,ディーエスシー,0
1506,6011403003731,新規,0,2022-07-25,2022-07-25,宇一合同会社,,合同会社,東京都,板橋区,向原２丁目１９－２トモエマンション２０２号室,,13,119,1730036,,,,,,,2022-07-25,1,,,,,ウイー,0
1510,6011601026121,新規,0,2022-07-25,2022-07-25,株式会社ＤＬＪ,,株式会社,東京都,練馬区,旭町３丁目２６番１８号プランドール旭５００,,13,120,1790071,,,,,,,2022-07-25,1,,,,,ディーエルジェー,0
1511,6011801041036,新規,0,2022-07-25,2022-07-25,株式会社アトラクトコーポレーション,,株式会社,東京都,足立区,竹の塚２丁目３２番１７号,,13,121,1210813,,,,,,,2022-07-25,1,,,,,アトラクトコーポレーション,0
1512,6011801041044,新規,0,2022-07-25,2022-07-25,株式会社マーチ,,株式会社,東京都,足立区,佐野２丁目２５番１６号,,13,121,1210053,,,,,,,2022-07-25,1,,,,,マーチ,0
1513,6012301013079,新規,0,2022-07-25,2022-07-25,株式会社ハルパカ,,株式会社,東京都,町田市,原町田２丁目２２番３０－６０７号,,13,209,1940013,,,,,,,2022-07-25,1,,,,,ハルパカ,0
1534,6020003022158,新規,0,2022-07-25,2022-07-25,ＴＯＢＩＲＡ合同会社,,合同会社,神奈川県,横浜市青葉区,美しが丘１丁目５番地２・５階,,14,117,2250002,,,,,,,2022-07-25,1,,,,,トビラ,0
1549,6030001149299,新規,0,2022-07-25,2022-07-25,株式会社マロウェル,,株式会社,埼玉県,熊谷市,石原６０５番地３,,11,202,3600816,,,,,,,2022-07-25,1,,,,,マロウェル,0
1550,6030001149316,新規,0,2022-07-25,2022-07-25,株式会社ダリア,,株式会社,埼玉県,川口市,中青木１丁目８番２０号,,11,203,3320032,,,,,,,2022-07-25,1,,,,,ダリア,0
1551,6030001149340,新規,0,2022-07-25,2022-07-25,株式会社マル貴,,株式会社,埼玉県,戸田市,笹目南町１１番１－９１０号,,11,224,3350035,,,,,,,2022-07-25,1,,,,,マルタカ,0
1559,6030003019764,新規,0,2022-07-25,2022-07-25,合同会社ＮＥＷ　ＴＲＡＤＩＴＩＯＮ,,合同会社,埼玉県,草加市,清門２丁目１７番地７,,11,221,3400055,,,,,,,2022-07-25,1,,,,,ニュートラディション,0
1568,6040003020473,新規,0,2022-07-25,2022-07-25,合同会社ＣＴＷ,,合同会社,千葉県,市川市,東国分１丁目２７番２０号フェリチタ００８号,,12,203,2720833,,,,,,,2022-07-25,1,,,,,シーティーダブリュ,0
1569,6040005021684,新規,0,2022-07-25,2022-07-25,一般社団法人イチノクライ,,その他の設立登記法人,千葉県,南房総市,白浜町滝口６７６１－２,,12,234,2950103,,,,,,,2022-07-25,1,,,,,イチノクライ,0
1572,6050001051445,新規,0,2022-07-25,2022-07-25,ＨＳＪ株式会社,,株式会社,茨城県,常総市,水海道本町２６１２番地３,,08,211,3030026,,,,,,,2022-07-25,1,,,,,エイチエスジェイ,0
1574,6060001035109,新規,0,2022-07-25,2022-07-25,株式会社モトユキ建設,,株式会社,栃木県,宇都宮市,下栗町２９２０番地５,,09,201,3210923,,,,,,,2022-07-25,1,,,,,モトユキケンセツ,0
1576,6060003004160,新規,0,2022-07-25,2022-07-25,合同会社ＣＬＩＣＫ,,合同会社,栃木県,大田原市,末広１丁目３６１３－８－１０３,,09,210,3240042,,,,,,,2022-07-25,1,,,,,クリック,0
1585,6080101023440,新規,0,2022-07-25,2022-07-25,サンキ株式会社,,株式会社,静岡県,沼津市,市場町１０番８号,,22,203,4100831,,,,,,,2022-07-25,1,,,,,サンキ,0
1586,6080103002624,新規,0,2022-07-25,2022-07-25,ＮＴメカニクス合同会社,,合同会社,静岡県,富士市,大淵２５８６－３富士インキュベートセンターＡ－２,,22,210,4170801,,,,,,,2022-07-25,1,,,,,エヌティーメカニクス,0
1603,6120001247564,新規,0,2022-07-25,2022-07-25,ＰＩＳＴＡ株式会社,,株式会社,大阪府,大阪市北区,南森町１丁目４番１１号２０１,,27,127,5300054,,,,,,,2022-07-25,1,,,,,ピスタ,0
1609,6120003022131,新規,0,2022-07-25,2022-07-25,Ｈｅｐｔａｇｒａｍ合同会社,,合同会社,大阪府,大阪市中央区,高津３丁目１６番１１号オロヒルズ高津２０１号室,,27,128,5420072,,,,,,,2022-07-25,1,,,,,ヘプタグラム,0
1613,6120105009605,新規,0,2022-07-25,2022-07-25,医療法人清翔会,,その他の設立登記法人,大阪府,和泉市,青葉台２丁目２４番２３号,,27,219,5941153,,,,,,,2022-07-25,1,,,,,セイショウカイ,0
1623,6130001072251,新規,0,2022-07-25,2022-07-25,浅嶼株式会社,,株式会社,京都府,京都市伏見区,深草ススハキ町２２－４－１,,26,109,6120000,,,,,,,2022-07-25,1,,,,,アサシマ,0
1626,6130003008071,新規,0,2022-07-25,2022-07-25,ＪＩＮＸｓｙｓｔｅｍ合同会社,,合同会社,京都府,京都市山科区,北花山横田町１９番地２０,,26,110,6078475,,,,,,,2022-07-25,1,,,,,ジンクスシステム,0
1633,6140001126824,新規,0,2022-07-25,2022-07-25,ＯＭ　ＭＡＲＴ株式会社,,株式会社,兵庫県,神戸市中央区,花隈町３番１２号,,28,110,6500013,,,,,,,2022-07-25,1,,,,,オームマート,0
1634,6140001126840,新規,0,2022-07-25,2022-07-25,株式会社ＴＯＵＴ．ＵＮＩＴＥ,,株式会社,兵庫県,明石市,大蔵谷奥１６－５明舞バザール１２２,,28,203,6730867,,,,,,,2022-07-25,1,,,,,トゥユニティ,0
1635,6140001126849,新規,0,2022-07-25,2022-07-25,株式会社ＦＵＪＩ　ＴＲＵＳＴ,,株式会社,兵庫県,姫路市,四郷町東阿保３６６番地,,28,201,6710247,,,,,,,2022-07-25,1,,,,,フジトラスト,0
1638,6140003017947,新規,0,2022-07-25,2022-07-25,合同会社Ｔａｔｔａ,,合同会社,兵庫県,姫路市,継４１７番地６,,28,201,6728004,,,,,,,2022-07-25,1,,,,,タッタ,0
1640,6140005026252,新規,0,2022-07-25,2022-07-25,一般社団法人日本ナチュラルバランスケア協会,,その他の設立登記法人,兵庫県,明石市,東仲ノ町４番３０－１１０４号,,28,203,6730886,,,,,,,2022-07-25,1,,,,,ニホンナチュラルバランスケアキョウカイ,0
1658,6180003024072,新規,0,2022-07-25,2022-07-25,合同会社ティンブレ,,合同会社,愛知県,春日井市,桃山町５１０２番地４１,,23,206,4860802,,,,,,,2022-07-25,1,,,,,ティンブレ,0
1659,6180301036463,新規,0,2022-07-25,2022-07-25,株式会社梅村建築,,株式会社,愛知県,豊田市,神田町２丁目８番地４,,23,211,4710868,,,,,,,2022-07-25,1,,,,,ウメムラケンチク,0
1681,6290001098322,新規,0,2022-07-25,2022-07-25,株式会社長崎工業,,株式会社,福岡県,糟屋郡新宮町,夜臼５丁目１１番２２－２０１号,,40,345,8110110,,,,,,,2022-07-25,1,,,,,ナガサキコウギョウ,0
1682,6290001098347,新規,0,2022-07-25,2022-07-25,株式会社Ｇｓ,,株式会社,福岡県,嘉穂郡桂川町,大字土師３６２０番地１０,,40,421,8200607,,,,,,,2022-07-25,1,,,,,ジーエス,0
1683,6290001098371,新規,0,2022-07-25,2022-07-25,株式会社ＧＲＡＮＤ　ＣＲＯＳＳ,,株式会社,福岡県,福岡市南区,大橋２丁目１４番７－５０１号,,40,134,8150033,,,,,,,2022-07-25,1,,,,,グランドクロス,0
1691,6310001017964,新規,0,2022-07-25,2022-07-25,株式会社明祐工業,,株式会社,長崎県,佐世保市,山手町５２１番地４,,42,202,8570022,,,,,,,2022-07-25,1,,,,,メイユウコウギョウ,0
1695,6330005010534,新規,0,2022-07-25,2022-07-25,ＮＰＯ法人地域アフタースクールＫＡＮＡＥＲＵ,,その他の設立登記法人,熊本県,熊本市北区,清水新地４丁目７－４６,,43,105,8618075,,,,,,,2022-07-25,1,,,,,チイキアフタースクールカナエル,0
1697,6340001024917,新規,0,2022-07-25,2022-07-25,株式会社サプライ藤田,,株式会社,鹿児島県,西之表市,西町４６,,46,213,8913111,,,,,,,2022-07-25,1,,,,,,0
1698,6360003012190,新規,0,2022-07-25,2022-07-25,合同会社ＲＥＬＡＩＲ,,合同会社,沖縄県,名護市,宇茂佐の森２丁目２０番地２カーサアリーナ２０２号,,47,209,9050009,,,,,,,2022-07-25,1,,,,,,0
1701,6370005010506,新規,0,2022-07-25,2022-07-25,一般社団法人ＫｕｒｉｈａｒａＯｕｔｄｏｏｒＬｉｆｅＬａｂ,,その他の設立登記法人,宮城県,栗原市,築館字横須賀養田２０番地１,,04,213,9872224,,,,,,,2022-07-25,1,,,,,クリハラアウトドアライフラボ,0
1704,6380001032998,新規,0,2022-07-25,2022-07-25,株式会社Ｈｏｍｅｃａｒｅ,,株式会社,福島県,郡山市,菜根１丁目２６番１３号サンデュエル菜根５０２号,,07,203,9638862,,,,,,,2022-07-25,1,,,,,ホームケア,0
1706,6380003005234,新規,0,2022-07-25,2022-07-25,大河合同会社,,合同会社,福島県,白河市,八竜神７０番地２,,07,205,9610047,,,,,,,2022-07-25,1,,,,,タイガ,0
1711,6400001015950,新規,0,2022-07-25,2022-07-25,株式会社大和薬局,,株式会社,岩手県,盛岡市,長橋町１９番５０号,,03,201,0200146,,,,,,,2022-07-25,1,,,,,ヤマトヤッキョク,0
1712,6400005008257,新規,0,2022-07-25,2022-07-25,一般社団法人ＮｅＷＡ,,その他の設立登記法人,岩手県,盛岡市,上田２丁目１１番２１号,,03,201,0200066,,,,,,,2022-07-25,1,,,,,ニューア,0
1723,6460301005084,新規,0,2022-07-25,2022-07-25,株式会社開拓社,,株式会社,北海道,北見市,光西町１８６番地１,,01,208,0900835,,,,,,,2022-07-25,1,,,,,カイタクシャ,0
1724,6460303000769,新規,0,2022-07-25,2022-07-25,合同会社ワタナベ商事,,合同会社,北海道,北見市,光西町１９５番地１０３,,01,208,0900835,,,,,,,2022-07-25,1,,,,,ワタナベショウジ,0
1749,7010003038204,新規,0,2022-07-25,2022-07-25,ＪＥ８７千葉ウインドファーム合同会社,,合同会社,東京都,千代田区,霞が関３丁目７－１霞が関東急ビル,,13,101,1000013,,,,,,,2022-07-25,1,,,,,ジェーイーハチナナチバウインドファーム,0
1750,7010005035298,新規,0,2022-07-25,2022-07-25,日光Ｐｌｕｓ２１ホールディング特定目的会社,,その他の設立登記法人,東京都,千代田区,丸の内３丁目１番１号東京共同会計事務所内,,13,101,1000005,,,,,,,2022-07-25,1,,,,,ニッコウプラストゥエンティワンホールディング,0
1767,7010901051282,新規,0,2022-07-25,2022-07-25,ＳＴＵＤＩＯ　ＺＯＭＯ株式会社,,株式会社,東京都,世田谷区,下馬１丁目３４番３号,,13,112,1540002,,,,,,,2022-07-25,1,,,,,スタジオゾモ,0
1775,7011001148787,新規,0,2022-07-25,2022-07-25,タイガーマウス株式会社,,株式会社,東京都,渋谷区,神宮前６丁目２３番４号桑野ビル２階,,13,113,1500001,,,,,,,2022-07-25,1,,,,,タイガーマウス,0
1781,7011003015085,新規,0,2022-07-25,2022-07-25,合同会社ＴＥＡＭＩＮＧ,,合同会社,東京都,渋谷区,恵比寿１丁目２５番３号,,13,113,1500013,,,,,,,2022-07-25,1,,,,,チーミング,0
1784,7011203003880,新規,0,2022-07-25,2022-07-25,Ｐｒｏｊｅｓｔａｒ合同会社,,合同会社,東京都,中野区,中央１丁目１６番５号１０３,,13,114,1640011,,,,,,,2022-07-25,1,,,,,プロジェスター,0
1788,7011603003654,新規,0,2022-07-25,2022-07-25,Ａｌｌ　Ｗｉｎｓ合同会社,,合同会社,東京都,練馬区,高松３丁目１０番１４号－２５,,13,120,1790075,,,,,,,2022-07-25,1,,,,,オールウィンズ,0
1828,7030001149298,新規,0,2022-07-25,2022-07-25,株式会社Ａ　ｓｔｙｌｅ,,株式会社,埼玉県,鶴ヶ島市,大字藤金３１２番地５,,11,241,3502206,,,,,,,2022-07-25,1,,,,,エースタイル,0
1829,7030001149315,新規,0,2022-07-25,2022-07-25,株式会社フラワー,,株式会社,埼玉県,深谷市,東方３３２９番地１１,,11,218,3660041,,,,,,,2022-07-25,1,,,,,フラワー,0
1830,7030001149331,新規,0,2022-07-25,2022-07-25,ＰＦＩこしがや教育推進整備株式会社,,株式会社,埼玉県,越谷市,大沢３丁目２８番１１号,,11,222,3430025,,,,,,,2022-07-25,1,,,,,ピーエフアイコシガヤキョウイクスイシンセイビ,0
1831,7030001149348,新規,0,2022-07-25,2022-07-25,株式会社今日の１番,,株式会社,埼玉県,川口市,飯塚３丁目２番１２号,,11,203,3320023,,,,,,,2022-07-25,1,,,,,キョウノイチバン,0
1833,7030003019813,新規,0,2022-07-25,2022-07-25,Ｆ＆Ａコーポレーション合同会社,,合同会社,埼玉県,さいたま市大宮区,宮町１丁目５－２シルバＢＯＸビル６Ｆ,,11,103,3300802,,,,,,,2022-07-25,1,,,,,,0
1834,7030003019846,新規,0,2022-07-25,2022-07-25,Ｐｒｏ　Ｇｒｏｕｐ合同会社,,合同会社,埼玉県,幸手市,大字上吉羽字西谷２３３－１,,11,240,3400121,,,,,,,2022-07-25,1,,,,,プログループ,0
1835,7030003019862,新規,0,2022-07-25,2022-07-25,合同会社トップギヤコンサルティング,,合同会社,埼玉県,所沢市,東所沢５丁目１番地の８メイツ東所沢駅前６０５,,11,208,3590021,,,,,,,2022-07-25,1,,,,,トップギヤコンサルティング,0
1841,7050001051444,新規,0,2022-07-25,2022-07-25,成田建設株式会社,,株式会社,茨城県,石岡市,鹿の子１丁目１８番２８号,,08,205,3150005,,,,,,,2022-07-25,1,,,,,ナリタケンセツ,0
1846,7070005010015,新規,0,2022-07-25,2022-07-25,一般社団法人なないろ,,その他の設立登記法人,群馬県,前橋市,西片貝町２丁目３９番地３,,10,201,3710013,,,,,,,2022-07-25,1,,,,,,0
1851,7100001035549,新規,0,2022-07-25,2022-07-25,リバードバンク株式会社,,株式会社,長野県,岡谷市,川岸中２丁目３１－２０,,20,204,3940047,,,,,,,2022-07-25,1,,,,,リバードバンク,0
1856,7110001036835,新規,0,2022-07-25,2022-07-25,ＫＩＲＩＺＡＩ株式会社,,株式会社,新潟県,新潟市西蒲区,槇島５８３番地１,,15,108,9590433,,,,,,,2022-07-25,1,,,,,キリザイ,0
1857,7110001036843,新規,0,2022-07-25,2022-07-25,リベルティー株式会社,,株式会社,新潟県,新潟市中央区,旭町通２番町５２３２番地２０マンション南山荘４Ａ号,,15,103,9518122,,,,,,,2022-07-25,1,,,,,リベルティー,0
1858,7110003004823,新規,0,2022-07-25,2022-07-25,ユニバーサル合同会社,,合同会社,新潟県,新潟市中央区,本町通７番町１０９８番地１ＷｏｒｋＷｉｔｈ本町２階Ｂ‐４,,15,103,9518067,,,,,,,2022-07-25,1,,,,,ユニバーサル,0
1872,7120001247547,新規,0,2022-07-25,2022-07-25,株式会社作文技術指導研究会,,株式会社,大阪府,大阪市北区,天神西町８番１７号,,27,127,5300045,,,,,,,2022-07-25,1,,,,,サクブンギジュツシドウケンキュウカイ,0
1873,7120001247555,新規,0,2022-07-25,2022-07-25,株式会社シオジマチ,,株式会社,大阪府,大阪市西成区,潮路２丁目１５番１８号,,27,122,5570052,,,,,,,2022-07-25,1,,,,,シオジマチ,0
1874,7120001247571,新規,0,2022-07-25,2022-07-25,東花園ＰＪ株式会社,,株式会社,大阪府,大阪市西区,江戸堀１丁目２５番３０号,,27,106,5500002,,,,,,,2022-07-25,1,,,,,ヒガシハナゾノピージェイ,0
1875,7120001247596,新規,0,2022-07-25,2022-07-25,株式会社イワ貿易,,株式会社,大阪府,大阪市天王寺区,真田山町２番２号東興ビル７階,,27,109,5430015,,,,,,,2022-07-25,1,,,,,イワボウエキ,0
1882,7120003022130,新規,0,2022-07-25,2022-07-25,Ｅｌｅｇａｎｔ　Ｐｅａｃｈ合同会社,,合同会社,大阪府,大阪市城東区,鴫野西５丁目２０番２５号ユーミーハイツ鴫野３Ａ号室,,27,118,5360014,,,,,,,2022-07-25,1,,,,,エレガントピーチ,0
1883,7120003022139,新規,0,2022-07-25,2022-07-25,合同会社パールトランス,,合同会社,大阪府,守口市,南寺方東通６丁目１８番１５号,,27,209,5700043,,,,,,,2022-07-25,1,,,,,パールトランス,0
1887,7120101065956,新規,0,2022-07-25,2022-07-25,株式会社アオミント,,株式会社,大阪府,松原市,天美南５丁目１番２０－１０１号,,27,217,5800033,,,,,,,2022-07-25,1,,,,,アオミント,0
1891,7120105009604,新規,0,2022-07-25,2022-07-25,医療法人堺美歯科,,その他の設立登記法人,大阪府,堺市東区,日置荘西町２丁８番２号,,27,143,5998114,,,,,,,2022-07-25,1,,,,,サカイビシカ,0
1896,7122001036087,新規,0,2022-07-25,2022-07-25,Ｂｅａｒｇｌｅ株式会社,,株式会社,大阪府,東大阪市,小若江１丁目１３番２２号Ｃ棟１０２号室,,27,227,5770818,,,,,,,2022-07-25,1,,,,,ベアグル,0
1901,7130001072267,新規,0,2022-07-25,2022-07-25,株式会社オカムラ,,株式会社,京都府,福知山市,字堀小字下高田２３９５番地の１,,26,201,6200000,,,,,,,2022-07-25,1,,,,,オカムラ,0
1911,7140001126848,新規,0,2022-07-25,2022-07-25,株式会社インプルーブ,,株式会社,兵庫県,三木市,府内町１０番２２－５号,,28,215,6730416,,,,,,,2022-07-25,1,,,,,インプルーブ,0
1912,7140003017946,新規,0,2022-07-25,2022-07-25,合同会社モアナ,,合同会社,兵庫県,神戸市東灘区,森北町６丁目３番３１－１号,,28,101,6580001,,,,,,,2022-07-25,1,,,,,モアナ,0
1913,7140005026251,新規,0,2022-07-25,2022-07-25,特定非営利活動法人おむすび,,その他の設立登記法人,兵庫県,西脇市,西脇２６３番地の７,,28,213,6770015,,,,,,,2022-07-25,1,,,,,オムスビ,0
1923,7180001152295,新規,0,2022-07-25,2022-07-25,アートコーディネート株式会社,,株式会社,愛知県,名古屋市中川区,中野本町１丁目１番地の３－２０２号室,,23,110,4540047,,,,,,,2022-07-25,1,,,,,アートコーディネート,0
1937,7200001040308,新規,0,2022-07-25,2022-07-25,坂井硝子株式会社,,株式会社,岐阜県,関市,大平町２丁目９番地１,,21,205,5013833,,,,,,,2022-07-25,1,,,,,サカイガラス,0
1943,7250001019677,新規,0,2022-07-25,2022-07-25,ＫＵＭＢＡ株式会社,,株式会社,山口県,宇部市,東新川町３７３６番地５,,35,202,7550019,,,,,,,2022-07-25,1,,,,,クンバ,0
1944,7260001037075,新規,0,2022-07-25,2022-07-25,株式会社レガメッド,,株式会社,岡山県,岡山市北区,今３丁目２５－２９－Ｎ０３,,33,101,7000975,,,,,,,2022-07-25,1,,,,,,0
1945,7260003003983,新規,0,2022-07-25,2022-07-25,合同会社ＡＹＵＭＩＫＯ,,合同会社,岡山県,赤磐市,西窪田３７１,,33,213,7012224,,,,,,,2022-07-25,1,,,,,アユミコ,0
1950,7290003012767,新規,0,2022-07-25,2022-07-25,トータルＭＳ合同会社,,合同会社,福岡県,福津市,高平９番地の１１,,40,224,8113227,,,,,,,2022-07-25,1,,,,,トータルエムエス,0
1953,7290801028741,新規,0,2022-07-25,2022-07-25,株式会社Ａｒｋｇｅｎｔ,,株式会社,福岡県,北九州市小倉北区,米町１丁目１番１号小倉駅前ひびきビル６Ｆ,,40,106,8020003,,,,,,,2022-07-25,1,,,,,アークジェント,0
1954,7310003004415,新規,0,2022-07-25,2022-07-25,合同会社夢彩福祉企画,,合同会社,長崎県,佐世保市,早岐３丁目５番９号コーポ田子の浦１０２号,,42,202,8593215,,,,,,,2022-07-25,1,,,,,ユメイロフクシキカク,0
1957,7340003003868,新規,0,2022-07-25,2022-07-25,合同会社ビコーズユア,,合同会社,鹿児島県,鹿児島市,城山１丁目３番３号,,46,201,8900013,,,,,,,2022-07-25,1,,,,,ビコーズユア,0
1966,7400003002962,新規,0,2022-07-25,2022-07-25,合同会社しあんす,,合同会社,岩手県,盛岡市,盛岡駅前北通６番９－１３０５号,,03,201,0200033,,,,,,,2022-07-25,1,,,,,シアンス,0
1975,7430001087136,新規,0,2022-07-25,2022-07-25,株式会社ショーホク,,株式会社,北海道,札幌市厚別区,厚別町山本１０６３番７８４,,01,108,0040069,,,,,,,2022-07-25,1,,,,,ショーホク,0
1978,7440005002726,新規,0,2022-07-25,2022-07-25,特定非営利活動法人ＷＡＮ寿都地域づくりの会,,その他の設立登記法人,北海道,寿都郡寿都町,字六条町１６９番地１,,01,392,0480411,,,,,,,2022-07-25,1,,,,,ワンスッツチイキヅクリノカイ,0
1981,7470003002221,新規,0,2022-07-25,2022-07-25,とことわ堂合同会社,,合同会社,香川県,高松市,中山町１５９９番地２,,37,201,7618004,,,,,,,2022-07-25,1,,,,,トコトワドウ,0
1985,7480003001858,新規,0,2022-07-25,2022-07-25,合同会社清和丸,,合同会社,徳島県,阿南市,福井町大原３５３番地１,,36,204,7791620,,,,,,,2022-07-25,1,,,,,セイワマル,0
1988,7700150110050,新規,0,2022-07-25,2022-06-20,半畳の宇宙,,その他,神奈川県,川崎市高津区,諏訪２丁目６－１４宮崎コーポ２０３,,14,134,2130004,,,,,,,2022-06-20,1,,,,,ハンジヨウノウチユウ,0
2000,8010003038211,新規,0,2022-07-25,2022-07-25,合同会社シナジー,,合同会社,東京都,千代田区,一ツ橋２丁目６番３号アクシスインベストメントアドバイザーズ株式会社内,,13,101,1010003,,,,,,,2022-07-25,1,,,,,シナジー,0
2002,8010005035297,新規,0,2022-07-25,2022-07-25,一般社団法人デジタル・ジャーナリスト育成機構,,その他の設立登記法人,東京都,中央区,銀座１丁目２２番１１号銀座大竹ビジデンス２階,,13,102,1040061,,,,,,,2022-07-25,1,,,,,デジタルジャーナリストイクセイキコウ,0
2003,8010005035322,新規,0,2022-07-25,2022-07-25,Ｔｈｏｒ特定目的会社,,その他の設立登記法人,東京都,千代田区,丸の内２丁目２番３号丸の内仲通りビル６階,,13,101,1000005,,,,,,,2022-07-25,1,,,,,ソアー,0
2015,8010501049156,新規,0,2022-07-25,2022-07-25,ＧＯＬＤＥＮ　ＡＧＥ株式会社,,株式会社,東京都,台東区,上野３丁目１６－２天翔ビル２階,,13,106,1100005,,,,,,,2022-07-25,1,,,,,ゴールデンエイジ,0
2039,8011003015068,新規,0,2022-07-25,2022-07-25,合同会社ライズ,,合同会社,東京都,渋谷区,広尾５丁目７番３－１２１０号,,13,113,1500012,,,,,,,2022-07-25,1,,,,,ライズ,0
2040,8011201023979,新規,0,2022-07-25,2022-07-25,クレアシア株式会社,,株式会社,東京都,中野区,新井１丁目４３－２－７０３,,13,114,1650026,,,,,,,2022-07-25,1,,,,,,0
2054,8013301049409,新規,0,2022-07-25,2022-07-25,株式会社ハンズ,,株式会社,東京都,豊島区,南大塚１丁目３２番４号,,13,116,1700005,,,,,,,2022-07-25,1,,,,,ハンズ,0
2061,8020001147442,新規,0,2022-07-25,2022-07-25,株式会社Ｒｅｓｉｎ,,株式会社,神奈川県,川崎市高津区,新作４丁目２１番１５－２０２号,,14,134,2130014,,,,,,,2022-07-25,1,,,,,レジン,0
2062,8020001147450,新規,0,2022-07-25,2022-07-25,株式会社ＢｉｇＮｅｘｔ,,株式会社,神奈川県,横浜市鶴見区,東寺尾５丁目６番１９号鶴見東寺尾ハイツ３０１,,14,101,2300077,,,,,,,2022-07-25,1,,,,,ビッグネクスト,0
2063,8020001147459,新規,0,2022-07-25,2022-07-25,株式会社Ｋ’ｓ　Ｋｌａｎｇ,,株式会社,神奈川県,横浜市港南区,上永谷１丁目１１番１５号,,14,111,2330012,,,,,,,2022-07-25,1,,,,,ケーズクラン,0
2064,8020003022148,新規,0,2022-07-25,2022-07-25,合同会社石田家,,合同会社,神奈川県,横浜市栄区,庄戸４丁目１６番１４号,,14,115,2470022,,,,,,,2022-07-25,1,,,,,イシダヤ,0
2077,8030001149330,新規,0,2022-07-25,2022-07-25,株式会社Ｍａｈａｌｏ,,株式会社,埼玉県,所沢市,大字松郷１１５番地の１０トトロフォレストＢー２０５,,11,208,3590027,,,,,,,2022-07-25,1,,,,,マハロ,0
2078,8030001149339,新規,0,2022-07-25,2022-07-25,ＭＳＣ株式会社,,株式会社,埼玉県,越谷市,千間台西１丁目１５番地８,,11,222,3430041,,,,,,,2022-07-25,1,,,,,エムエスシー,0
2079,8030001149363,新規,0,2022-07-25,2022-07-25,屹安工業株式会社,,株式会社,埼玉県,所沢市,大字下安松１０１９番地の３３,,11,208,3590024,,,,,,,2022-07-25,1,,,,,イアンコウギョウ,0
2088,8030005020933,新規,0,2022-07-25,2022-07-25,社会福祉法人信英会,,その他の設立登記法人,埼玉県,八潮市,大字八條字白鳥１２２１番,,11,234,3400801,,,,,,,2022-07-25,1,,,,,シンエイカイ,0
2110,8080001025089,新規,0,2022-07-25,2022-07-25,日本ヒマラヤ産業株式会社,,株式会社,静岡県,静岡市駿河区,敷地２丁目１０番１１号,,22,102,4228036,,,,,,,2022-07-25,1,,,,,ニホンヒマラヤサンギョウ,0
2111,8080003002838,新規,0,2022-07-25,2022-07-25,スマイルジャパン合同会社,,合同会社,静岡県,焼津市,石津２６８番地の１,,22,212,4250041,,,,,,,2022-07-25,1,,,,,スマイルジャパン,0
2112,8080403004590,新規,0,2022-07-25,2022-07-25,合同会社魚風,,合同会社,静岡県,浜松市中区,相生町７番３２号,,22,131,4300805,,,,,,,2022-07-25,1,,,,,ウオカゼ,0
2145,8120001247496,新規,0,2022-07-25,2022-07-25,株式会社ＴＡＮＡＣＯ,,株式会社,大阪府,大阪市港区,市岡元町２丁目６－１１－２０１室,,27,107,5520002,,,,,,,2022-07-25,1,,,,,タナコ,0
2146,8120001247554,新規,0,2022-07-25,2022-07-25,株式会社Ｅｕｐｈｏｒｉａ，Ｉｎｃ．,,株式会社,大阪府,大阪市東成区,東小橋３丁目２０番１０号,,27,115,5370024,,,,,,,2022-07-25,1,,,,,ユーフォリアインク,0
2147,8120001247570,新規,0,2022-07-25,2022-07-25,株式会社Ｃｌｏｖｅｒ　ｌｅａｆ,,株式会社,大阪府,大阪市北区,豊崎３丁目２０番９号,,27,127,5310072,,,,,,,2022-07-25,1,,,,,クローバーリーフ,0
2148,8120001247587,新規,0,2022-07-25,2022-07-25,坂東商事株式会社,,株式会社,大阪府,門真市,南野口町９番５号,,27,223,5710005,,,,,,,2022-07-25,1,,,,,バンドウショウジ,0
2149,8120001247595,新規,0,2022-07-25,2022-07-25,栄伸大和株式会社,,株式会社,大阪府,大阪市西成区,鶴見橋２丁目８番１号,,27,122,5570031,,,,,,,2022-07-25,1,,,,,エイシンヤマト,0
2150,8120001247661,新規,0,2022-07-25,2022-07-25,株式会社柴田工業,,株式会社,大阪府,大阪市此花区,伝法６丁目２番１－９０４号,,27,104,5540002,,,,,,,2022-07-25,1,,,,,シバタコウギョウ,0
2152,8120005023092,新規,0,2022-07-25,2022-07-25,医療法人星敬会,,その他の設立登記法人,大阪府,大阪市北区,堂島１丁目堂島地下街５号,,27,127,5300003,,,,,,,2022-07-25,1,,,,,セイケイカイ,0
2158,8122001036094,新規,0,2022-07-25,2022-07-25,株式会社リライフパートナー,,株式会社,大阪府,八尾市,若草町３番３５－２０１号,,27,212,5810011,,,,,,,2022-07-25,1,,,,,リライフパートナー,0
2165,8130001072266,新規,0,2022-07-25,2022-07-25,土山印刷株式会社,,株式会社,京都府,京都市南区,吉祥院向田東町１４番地,,26,107,6018308,,,,,,,2022-07-25,1,,,,,ツチヤマインサツ,0
2175,8140001126839,新規,0,2022-07-25,2022-07-25,株式会社リネンラボラトリー,,株式会社,兵庫県,神崎郡市川町,西川辺４８７番地２,,28,442,6792315,,,,,,,2022-07-25,1,,,,,リネンラボラトリー,0
2176,8140001126847,新規,0,2022-07-25,2022-07-25,株式会社ＵＣＨＩＭＡＩ　ＳＴＹＬＥ,,株式会社,兵庫県,芦屋市,打出小槌町９番１２－２０６号,,28,206,6590028,,,,,,,2022-07-25,1,,,,,ウチマイスタイル,0
2180,8150001025718,新規,0,2022-07-25,2022-07-25,株式会社ディープリンク,,株式会社,奈良県,北葛城郡上牧町,滝川台１丁目２５番１号,,29,424,6390211,,,,,,,2022-07-25,1,,,,,ディープリンク,0
2184,8180001151998,新規,0,2022-07-25,2022-07-25,ＪＢシンフォニー株式会社,,株式会社,愛知県,名古屋市緑区,桶狭間切戸２２１７番地,,23,114,4580922,,,,,,,2022-07-25,1,,,,,ジェイビーシンフォニー,0
2185,8180001152286,新規,0,2022-07-25,2022-07-25,株式会社ＡＳＨＵＥ,,株式会社,愛知県,名古屋市東区,筒井２丁目５番１０号,,23,102,4610003,,,,,,,2022-07-25,1,,,,,アシュエ,0
2186,8180001152294,新規,0,2022-07-25,2022-07-25,株式会社ゴッドオブセキュリティ,,株式会社,愛知県,名古屋市千種区,今池５丁目１６番３号リヴシティ今池４０４号室,,23,101,4640850,,,,,,,2022-07-25,1,,,,,ゴッドオブセキュリティ,0
2189,8180301036461,新規,0,2022-07-25,2022-07-25,Ｂ＆Ｎ紹介株式会社,,株式会社,愛知県,西尾市,平坂町奥辰４７番地４,,23,213,4440305,,,,,,,2022-07-25,1,,,,,ビーアンドエヌショウカイ,0
2193,8200001040307,新規,0,2022-07-25,2022-07-25,ホーレン・ジャパン株式会社,,株式会社,岐阜県,各務原市,テクノプラザ２丁目２番地,,21,213,5090109,,,,,,,2022-07-25,1,,,,,ホーレンジャパン,0
2204,8250001019676,新規,0,2022-07-25,2022-07-25,ウル・プロ株式会社,,株式会社,山口県,柳井市,柳井４７７３番地１,,35,212,7420021,,,,,,,2022-07-25,1,,,,,ウルプロ,0
2206,8260003003990,新規,0,2022-07-25,2022-07-25,合同会社Ａ．Ｊ．Ｉ,,合同会社,岡山県,高梁市,有漢町上有漢７３１３番地,,33,209,7161322,,,,,,,2022-07-25,1,,,,,エージェーアイ,0
2218,8330001029948,新規,0,2022-07-25,2022-07-25,ＷＯＲＬＤ　ＳＯＩＬ株式会社,,株式会社,熊本県,山鹿市,古閑１０１５番地２トリオ・グレースＩＩＩ１０３号室,00127297,43,208,8610533,,,,,,,2022-07-25,1,,,,,ワールドソイル,0
2230,8400003002961,新規,0,2022-07-25,2022-07-25,合同会社菅原農園,,合同会社,岩手県,一関市,大東町大原字外大久保２８番地,,03,209,0290711,,,,,,,2022-07-25,1,,,,,スガワラノウエン,0
2244,8430001087168,新規,0,2022-07-25,2022-07-25,株式会社リスポーン,,株式会社,北海道,札幌市中央区,南三条東１丁目１番地３,,01,101,0600053,,,,,,,2022-07-25,1,,,,,リスポーン,0
2246,8450003002230,新規,0,2022-07-25,2022-07-25,合同会社ｐｕｕ,,合同会社,北海道,稚内市,中央５丁目１番１１号,,01,214,0970022,,,,,,,2022-07-25,1,,,,,プー,0
2248,8470001019175,新規,0,2022-07-25,2022-07-25,株式会社Ｋ・Ｈクリーンサービス,,株式会社,香川県,木田郡三木町,大字下高岡１９５２番地,,37,341,7610704,,,,,,,2022-07-25,1,,,,,ケーエイチクリーンサービス,0
2255,8700150110479,新規,0,2022-07-25,2022-06-27,杜和コンサート企画,,その他,神奈川県,綾瀬市,寺尾本町３丁目７－４５,,14,218,2521133,,,,,,,2022-06-27,1,,,,,トワコンサートキカク,0
2256,8700150110850,新規,0,2022-07-25,2022-07-11,桜餅　総本舗,,その他,東京都,墨田区,業平１丁目１０－８　２Ｆ　アートアトリエ東京,,13,107,1300002,,,,,,,2022-07-11,1,,,,,サクラモチソウホンポ,0
2267,9010001228283,新規,0,2022-07-25,2022-07-25,株式会社ゲッカワークス,,株式会社,東京都,千代田区,大手町１丁目１番３号,,13,101,1000004,,,,,,,2022-07-25,1,,,,,ゲッカワークス,0
2276,9010005035296,新規,0,2022-07-25,2022-07-25,ジャパン・ドミトリー１一般社団法人,,その他の設立登記法人,東京都,千代田区,丸の内３丁目１番１号東京共同会計事務所内,,13,101,1000005,,,,,,,2022-07-25,1,,,,,ジャパンドミトリーワン,0
2286,9010401168641,新規,0,2022-07-25,2022-07-25,株式会社ブルースカイ,,株式会社,東京都,港区,赤坂７丁目１１番１２－１４０４号,,13,103,1070052,,,,,,,2022-07-25,1,,,,,ブルースカイ,0
2287,9010401168658,新規,0,2022-07-25,2022-07-25,株式会社ＣＴＦ,,株式会社,東京都,港区,北青山３丁目５番１４号７階,,13,103,1070061,,,,,,,2022-07-25,1,,,,,シーティーエフ,0
2293,9010405021227,新規,0,2022-07-25,2022-07-25,ＪＮＬ　Ｏｎｅ特定目的会社,,その他の設立登記法人,東京都,港区,元赤坂１丁目１番８号赤坂コミュニティビル４階,,13,103,1070051,,,,,,,2022-07-25,1,,,,,ジェイエヌエルワン,0
2295,9010501049147,新規,0,2022-07-25,2022-07-25,株式会社ＨＲＧ,,株式会社,東京都,台東区,上野６丁目８番１９号小野田ビル３階,,13,106,1100005,,,,,,,2022-07-25,1,,,,,エイチアールジー,0
2298,9010601061539,新規,0,2022-07-25,2022-07-25,東安株式会社,,株式会社,東京都,墨田区,向島４丁目３番８号グレイス向島２０１Ｂ号室,,13,107,1310033,,,,,,,2022-07-25,1,,,,,トウアン,0
2300,9010805002958,新規,0,2022-07-25,2022-07-25,一般社団法人未来教育支援協会,,その他の設立登記法人,東京都,大田区,池上５丁目５番２号,,13,111,1460082,,,,,,,2022-07-25,1,,,,,ミライキョウイクシエンキョウカイ,0
2302,9010903007537,新規,0,2022-07-25,2022-07-25,サイディープ合同会社,,合同会社,東京都,世田谷区,深沢５丁目１８番６号,,13,112,1580081,,,,,,,2022-07-25,1,,,,,サイディープ,0
2307,9011003015083,新規,0,2022-07-25,2022-07-25,合同会社ＺＯＲＯＳ,,合同会社,東京都,渋谷区,道玄坂１丁目１０番８号渋谷道玄坂東急ビル２Ｆ－Ｃ,,13,113,1500043,,,,,,,2022-07-25,1,,,,,ゾロス,0
2319,9011401024421,新規,0,2022-07-25,2022-07-25,株式会社ｕｎｉｓｐａｒｋ,,株式会社,東京都,板橋区,成増２丁目１９番２号ＥＨ第７ビル２Ｆ,,13,119,1750094,,,,,,,2022-07-25,1,,,,,ユニスパーク,0
2355,9030001149338,新規,0,2022-07-25,2022-07-25,株式会社ＴＴ　ｃｏｍｐａｎｙ,,株式会社,埼玉県,上尾市,大字地頭方５７１番地１３,,11,219,3620051,,,,,,,2022-07-25,1,,,,,ティーティーカンパニー,0
2356,9030001149346,新規,0,2022-07-25,2022-07-25,株式会社左官ＴＡＫＡＭＩＹＡ,,株式会社,埼玉県,秩父市,寺尾３８８９番地,,11,207,3680056,,,,,,,2022-07-25,1,,,,,サカンタカミヤ,0
2357,9030001149354,新規,0,2022-07-25,2022-07-25,株式会社ＣｈｏｃｏＲｅｋｏ,,株式会社,埼玉県,さいたま市大宮区,三橋４丁目５１７番地３,,11,103,3300856,,,,,,,2022-07-25,1,,,,,チョコレコ,0
2358,9030001149362,新規,0,2022-07-25,2022-07-25,株式会社ダリア,,株式会社,埼玉県,川口市,東領家２丁目６番２号,,11,203,3320003,,,,,,,2022-07-25,1,,,,,ダリア,0
2359,9030001149387,新規,0,2022-07-25,2022-07-25,オーパスセブン株式会社,,株式会社,埼玉県,さいたま市北区,櫛引町２丁目４１３番３,,11,102,3310825,,,,,,,2022-07-25,1,,,,,オーパスセブン,0
2365,9030003019836,新規,0,2022-07-25,2022-07-25,合同会社宝来,,合同会社,埼玉県,朝霞市,本町１丁目１３番１７号,,11,227,3510011,,,,,,,2022-07-25,1,,,,,ホウライ,0
2383,9050001051442,新規,0,2022-07-25,2022-07-25,株式会社Ｌ・Ｓ　ＴＲＡＤＩＮＧ,,株式会社,茨城県,坂東市,弓田４５０番地７,,08,228,3060607,,,,,,,2022-07-25,1,,,,,エルエストレーディング,0
2385,9050003006717,新規,0,2022-07-25,2022-07-25,合同会社石井工業,,合同会社,茨城県,稲敷郡美浦村,大字大須賀津４９２番地１,,08,442,3000422,,,,,,,2022-07-25,1,,,,,イシイコウギョウ,0
2388,9060001035072,新規,0,2022-07-25,2022-07-25,株式会社トラストワークス,,株式会社,栃木県,那須塩原市,沓掛６３５－４６,,09,213,3293133,,,,,,,2022-07-25,1,,,,,トラストワークス,0
2395,9080101023446,新規,0,2022-07-25,2022-07-25,株式会社イケダ・エージェンシー,,株式会社,静岡県,賀茂郡松崎町,道部１６７－１,,22,305,4103618,,,,,,,2022-07-25,1,,,,,イケダエージェンシー,0
2400,9080405007475,新規,0,2022-07-25,2022-07-25,一般社団法人森林健康経営協会,,その他の設立登記法人,静岡県,浜松市中区,住吉４丁目１番１９号,,22,131,4300906,,,,,,,2022-07-25,1,,,,,シンリンケンコウケイエイキョウカイ,0
2404,9100005012897,新規,0,2022-07-25,2022-07-25,復活之キリスト春日教会,,その他の設立登記法人,長野県,佐久市,春日２９３４番地１０,,20,217,3842205,,,,,,,2022-07-25,1,,,,,フッカツノキリストカスガキョウカイ,0
2405,9110001036841,新規,0,2022-07-25,2022-07-25,株式会社東港金属,,株式会社,新潟県,新発田市,真野原外２９７５番地３,,15,206,9570232,,,,,,,2022-07-25,1,,,,,トウコウキンゾク,0
2418,9120001247594,新規,0,2022-07-25,2022-07-25,株式会社Ｌ．ｓｔ,,株式会社,大阪府,守口市,桜町６番１２号,,27,209,5700027,,,,,,,2022-07-25,1,,,,,エルスト,0
2419,9120001247660,新規,0,2022-07-25,2022-07-25,株式会社ジョブコネクト,,株式会社,大阪府,大阪市西区,立売堀１丁目９番１０号,,27,106,5500012,,,,,,,2022-07-25,1,,,,,ジョブコネクト,0
2420,9120003022120,新規,0,2022-07-25,2022-07-25,合同会社青河,,合同会社,大阪府,大阪市中央区,高津２丁目３－２０－１階,,27,128,5420072,,,,,,,2022-07-25,1,,,,,セイガ,0
2421,9120003022129,新規,0,2022-07-25,2022-07-25,コンシェルジュデスク合同会社,,合同会社,大阪府,大阪市浪速区,下寺２丁目６番２６－１４０１号,,27,111,5560001,,,,,,,2022-07-25,1,,,,,コンシェルジュデスク,0
2422,9120003022137,新規,0,2022-07-25,2022-07-25,合同会社Ｆ＆Ｓ,,合同会社,大阪府,大阪市北区,豊崎３丁目１６－１６,,27,127,5310072,,,,,,,2022-07-25,1,,,,,エフアンドエス,0
2423,9120003022145,新規,0,2022-07-25,2022-07-25,合同会社双葉,,合同会社,大阪府,大阪市住之江区,西加賀屋１丁目２番５６号,,27,125,5590016,,,,,,,2022-07-25,1,,,,,フタバ,0
2425,9120105009602,新規,0,2022-07-25,2022-07-25,弁護士法人ライカブリッジ,,その他の設立登記法人,大阪府,堺市堺区,熊野町東４丁４番１９号平成ビル７階７０１号,,27,141,5900946,,,,,,,2022-07-25,1,,,,,ライカブリッジ,0
2436,9140001126838,新規,0,2022-07-25,2022-07-25,株式会社瑠璃オフィス,,株式会社,兵庫県,芦屋市,翠ケ丘町１９番２－４０６号,,28,206,6590014,,,,,,,2022-07-25,1,,,,,ルリオフィス,0
2437,9140001126846,新規,0,2022-07-25,2022-07-25,株式会社山誠,,株式会社,兵庫県,尼崎市,上坂部２丁目７番９号,,28,202,6610979,,,,,,,2022-07-25,1,,,,,ヤマセイ,0
2438,9140003017944,新規,0,2022-07-25,2022-07-25,合同会社Ｐｒｅｂｉｒｔｈ,,合同会社,兵庫県,川辺郡猪名川町,つつじが丘５丁目３３番地１,,28,301,6660245,,,,,,,2022-07-25,1,,,,,プレバース,0
2439,9140003017952,新規,0,2022-07-25,2022-07-25,合同会社Ｂｒｉｇｈ,,合同会社,兵庫県,神戸市灘区,六甲台町７番１号六甲台ベネフィック１０８号室,,28,102,6570013,,,,,,,2022-07-25,1,,,,,ブライ,0
2443,9150001025709,新規,0,2022-07-25,2022-07-25,株式会社ＫＰライン,,株式会社,奈良県,奈良市,東九条町１５５６番地の６,,29,201,6308144,,,,,,,2022-07-25,1,,,,,ケイピーライン,0
2454,9180001152277,新規,0,2022-07-25,2022-07-25,日本美容総合デザイン株式会社,,株式会社,愛知県,名古屋市西区,南川町２９０番地マ・メゾン１Ｆ,,23,104,4520814,,,,,,,2022-07-25,1,,,,,ニホンビヨウソウゴウデザイン,0
2455,9180001152285,新規,0,2022-07-25,2022-07-25,株式会社Ｉ‐ＴＥＣ,,株式会社,愛知県,名古屋市東区,筒井１丁目１３番２４号,,23,102,4610003,,,,,,,2022-07-25,1,,,,,アイテック,0
2457,9180003024078,新規,0,2022-07-25,2022-07-25,合同会社ｃｈａｎ,,合同会社,愛知県,名古屋市中区,新栄２丁目２０－１７プレサンス新栄リベラ２０６号室,,23,106,4600007,,,,,,,2022-07-25,1,,,,,チャン,0
2459,9200001040306,新規,0,2022-07-25,2022-07-25,株式会社遠藤組,,株式会社,岐阜県,瑞穂市,牛牧１０４０番地１,,21,216,5010234,,,,,,,2022-07-25,1,,,,,エンドウグミ,0
2462,9210001019019,新規,0,2022-07-25,2022-07-25,株式会社さばえＥサービス,,株式会社,福井県,鯖江市,下野田町第７号３番地１６,,18,207,9160073,,,,,,,2022-07-25,1,,,,,サバエイーサービス,0
2474,9260001037057,新規,0,2022-07-25,2022-07-25,株式会社未来経済研究所,,株式会社,岡山県,笠岡市,五番町５番地５０,,33,205,7140086,,,,,,,2022-07-25,1,,,,,ミライケイザイケンキュウショ,0
2475,9260001037073,新規,0,2022-07-25,2022-07-25,株式会社シャイニー,,株式会社,岡山県,倉敷市,玉島阿賀崎１丁目１番１８号,,33,202,7138121,,,,,,,2022-07-25,1,,,,,シャイニー,0
2485,9290001098344,新規,0,2022-07-25,2022-07-25,株式会社ＪｏｙＬａｂ,,株式会社,福岡県,福岡市南区,長住６丁目１０－１エスポアール長住２０２号室,,40,134,8111362,,,,,,,2022-07-25,1,,,,,ジョイラボ,0
2486,9290001098369,新規,0,2022-07-25,2022-07-25,株式会社グロース,,株式会社,福岡県,福岡市城南区,樋井川３丁目１８番２０－１０１号,,40,136,8140153,,,,,,,2022-07-25,1,,,,,グロース,0
2494,9290803004169,新規,0,2022-07-25,2022-07-25,合同会社金致,,合同会社,福岡県,北九州市小倉北区,片野４丁目１３番１０号ブルーハイツ片野５０１号室,,40,106,8020064,,,,,,,2022-07-25,1,,,,,キンチ,0
2506,9360003012188,新規,0,2022-07-25,2022-07-25,合同会社Ｍ企画,,合同会社,沖縄県,那覇市,首里平良町２丁目６３番地,,47,201,9030803,,,,,,,2022-07-25,1,,,,,エムキカク,0
2511,9380003005248,新規,0,2022-07-25,2022-07-25,合同会社ＦＵＴＵＲＥ　ＢＥＹＯＮＤ　ＮＯＷ,,合同会社,福島県,福島市,清水町字西裏３９番地の３ハビデ清水２０６号,,07,201,9608155,,,,,,,2022-07-25,1,,,,,フューチャービヨンドナウ,0
2521,9430001087183,新規,0,2022-07-25,2022-07-25,株式会社Ｒ・Ｓ・Ｃ,,株式会社,北海道,小樽市,稲穂４丁目１３番９号,,01,203,0470032,,,,,,,2022-07-25,1,,,,,アールエスシー,0
