sequenceNumber,corporateNumber,process,correct,updateDate,changeDate,name,nameImageId,kind,prefectureName,cityName,streetNumber,addressImageId,prefectureCode,cityCode,postCode,addressOutside,addressOutsideImageId,closeDate,closeCause,successorCorporateNumber,changeCause,assignmentDate,latest,enName,enPrefectureName,enCityName,enAddressOutside,furigana,hihyoji
21,1010401165299,登記記録の閉鎖等,0,2022-08-12,2022-07-13,株式会社エスセティシズム,,株式会社,東京都,港区,東麻布２丁目３５－１ＫＣビル６Ｆ,,13,103,1060044,,,2022-07-13,清算の結了等,,,2022-01-31,1,,,,,エスセティシズム,0
31,1010601035087,登記記録の閉鎖等,0,2022-08-12,2022-08-04,株式会社アブロード,,株式会社,東京都,大田区,田園調布南１１番８号,,13,111,1450076,,,2022-08-04,清算の結了等,,,2015-10-05,1,,,,,アブロード,0
47,1011001095110,登記記録の閉鎖等,0,2022-08-12,2022-08-10,株式会社アローズシステム,,株式会社,東京都,渋谷区,東１丁目３番１号,,13,113,1500011,,,2022-08-10,清算の結了等,,,2015-10-05,1,,,,,,0
97,1021001029323,登記記録の閉鎖等,0,2022-08-12,2022-08-09,真誠工業株式会社,,株式会社,神奈川県,座間市,ひばりが丘１丁目４７番１９－１０２号,,14,216,2520003,,,2022-08-09,清算の結了等,,,2015-10-05,1,,,,,,0
104,1021005009585,登記記録の閉鎖等,0,2022-08-12,2022-08-03,特定非営利活動法人にぎわいまちづくり,,その他の設立登記法人,神奈川県,横浜市金沢区,六浦南４丁目２０番２－７１６号,,14,108,2360038,,,2022-08-03,清算の結了等,,,2015-10-05,1,,,,,ニギワイマチヅクリ,0
120,1040003014447,登記記録の閉鎖等,0,2022-08-12,2022-07-20,合同会社うじはらひろたか事務所,,合同会社,千葉県,柏市,松葉町７丁目２５番地２,,12,217,2770827,,,2022-07-20,清算の結了等,,,2019-12-04,1,,,,,ウジハラヒロタカジムショ,0
127,1050001020297,登記記録の閉鎖等,0,2022-08-12,2022-08-01,中央技建株式会社,,株式会社,茨城県,鹿嶋市,大字宮中字萩原内２２１番地,,08,222,3140031,,,2022-08-01,清算の結了等,,,2015-10-05,1,,,,,チュウオウギケン,0
169,1122002005022,登記記録の閉鎖等,0,2022-08-12,2022-08-03,有限会社向鉄工,,有限会社,大阪府,東大阪市,今米２丁目３番２２号,,27,227,5780903,,,2022-08-03,清算の結了等,,,2015-10-05,1,,,,,ムカイテッコウ,0
170,1122003001961,登記記録の閉鎖等,0,2022-08-12,2022-08-01,Ｂｒｉｄｇｅ　Ｌｉｇｈｔ合同会社,,合同会社,大阪府,東大阪市,本庄西１丁目４番３号,,27,227,5780965,,,2022-08-01,清算の結了等,,,2020-11-19,1,,,,,ブリッジライト,0
191,1180001139918,登記記録の閉鎖等,0,2022-08-12,2022-08-04,株式会社ハヤシ,,株式会社,愛知県,弥富市,鯏浦町下与太３１番地,,23,235,4980021,,,2022-08-04,清算の結了等,,,2020-02-04,1,,,,,ハヤシ,0
223,1260005000927,登記記録の閉鎖等,0,2022-08-12,2022-07-22,天理教御成分教会,,その他の設立登記法人,岡山県,岡山市東区,瀬戸町下１８２番地,,33,103,7090856,,,2022-07-22,合併による解散等,4120005000500,令和４年７月１５日大阪市中央区島之内一丁目３番２５号天理教御津大教会（4120005000500）に合併し解散,2015-10-05,1,,,,,,0
234,1300001008779,登記記録の閉鎖等,0,2022-08-12,2022-08-03,日本バイオテック株式会社,,株式会社,佐賀県,三養基郡基山町,大字小倉５４５番地,,41,341,8410201,,,2022-08-03,清算の結了等,,,2015-10-05,1,,,,,ニホンバイオテック,0
255,1390002006022,登記記録の閉鎖等,0,2022-08-12,2022-08-04,有限会社さとう,,有限会社,山形県,上山市,南町２番２０号,,06,207,9993135,,,2022-08-04,清算の結了等,,,2015-10-05,1,,,,,サトウ,0
284,2010401154747,登記記録の閉鎖等,0,2022-08-12,2022-07-15,株式会社ベクトルインベストメントアドバイザリー,,株式会社,東京都,港区,赤坂４丁目１５番１号,,13,103,1070052,,,2022-07-15,合併による解散等,6010401027065,令和４年７月８日東京都港区赤坂四丁目１５番１号株式会社ベクトル（6010401027065）に合併し解散,2020-08-25,1,,,,,ベクトルインベストメントアドバイザリー,0
287,2010403015955,登記記録の閉鎖等,0,2022-08-12,2022-07-20,安広合同会社,,合同会社,東京都,港区,芝大門１丁目３番５号ゲイブルビル１階,,13,103,1050012,,,2022-07-20,清算の結了等,,,2017-01-23,1,,,,,ヤスヒロ,0
293,2010603003009,登記記録の閉鎖等,0,2022-08-12,2022-08-04,高橋合名会社,00051790,合名会社,東京都,墨田区,京島２丁目２１番１号,,13,107,1310046,,,2022-08-04,清算の結了等,,,2015-10-05,1,,,,,タカハシ,0
316,2011101012559,登記記録の閉鎖等,0,2022-08-12,2022-08-01,株式会社田中園芸,,株式会社,千葉県,松戸市,紙敷１４６４,,12,207,2702221,,,2022-08-01,清算の結了等,,,2015-10-05,1,,,,,タナカエンゲイ,0
323,2011203002301,登記記録の閉鎖等,0,2022-08-12,2022-07-25,合同会社ｏ,,合同会社,東京都,渋谷区,笹塚３丁目１３番２２号,,13,113,1510073,,,2022-07-25,清算の結了等,,,2016-02-08,1,,,,,オー,0
351,2020001018946,登記記録の閉鎖等,0,2022-08-12,2022-08-02,モアナ商事株式会社,,株式会社,神奈川県,横浜市鶴見区,豊岡町２番３－３０３号,,14,101,2300062,,,2022-08-02,清算の結了等,,,2015-10-05,1,,,,,モアナショウジ,0
359,2020002094904,登記記録の閉鎖等,0,2022-08-12,2022-08-02,有限会社ピーエスエー,,有限会社,神奈川県,川崎市麻生区,早野９３番地１,,14,137,2150016,,,2022-08-02,清算の結了等,,,2015-10-05,1,,,,,ピーエスエー,0
377,2040001078872,登記記録の閉鎖等,0,2022-08-12,2022-08-01,株式会社豊英,,株式会社,埼玉県,吉川市,大字保４２８番地６,,11,243,3420041,,,2022-08-01,清算の結了等,,,2015-10-05,1,,,,,,0
404,2120001028225,登記記録の閉鎖等,0,2022-08-12,2022-08-09,ミヤヂプロセス工芸株式会社,,株式会社,大阪府,大阪市中央区,上汐２丁目６番１１号,,27,128,5420064,,,2022-08-09,清算の結了等,,,2015-10-05,1,,,,,ミヤヂプロセスコウゲイ,0
438,2140001063138,登記記録の閉鎖等,0,2022-08-12,2022-08-08,株式会社ガーデン兵庫,,株式会社,兵庫県,姫路市,東今宿３丁目１１番２号,,28,201,6700056,,,2022-08-08,合併による解散等,2140001062767,令和４年８月８日兵庫県姫路市三左衛門堀西の町２０５番地の２株式会社カーペンターズ兵庫（2140001062767）に合併し解散,2015-10-05,1,,,,,,0
447,2140002058153,登記記録の閉鎖等,0,2022-08-12,2022-08-05,有限会社夜来香,,有限会社,兵庫県,西宮市,上甲子園４丁目３番１０号,,28,204,6638114,,,2022-08-05,清算の結了等,,,2015-10-05,1,,,,,イエライシャン,0
465,2180002029638,登記記録の閉鎖等,0,2022-08-12,2022-08-05,有限会社アソシエイト,,有限会社,愛知県,名古屋市中区,丸の内３丁目１５番３４号,,23,106,4600002,,,2022-08-05,清算の結了等,,,2015-10-05,1,,,,,アソシエイト,0
466,2180002046831,登記記録の閉鎖等,0,2022-08-12,2022-08-09,有限会社トーハン物産,,有限会社,愛知県,名古屋市名東区,一社２丁目６６番地３０１号,,23,115,4650093,,,2022-08-09,清算の結了等,,,2015-10-05,1,,,,,トーハンブッサン,0
474,2190002006702,登記記録の閉鎖等,0,2022-08-12,2022-08-08,有限会社中勢コンタクト,,有限会社,三重県,鈴鹿市,神戸１丁目１９番４号,,24,207,5130801,,,2022-08-08,清算の結了等,,,2015-10-05,1,,,,,チュウセイコンタクト,0
483,2200003003135,登記記録の閉鎖等,0,2022-08-12,2022-08-10,合資会社ウインズ,,合資会社,岐阜県,岐阜市,長良２５４８番地,,21,201,5020071,,,2022-08-10,清算の結了等,,,2015-10-05,1,,,,,ウインズ,0
486,2230001001856,登記記録の閉鎖等,0,2022-08-12,2022-08-08,株式会社東洋メディカル,,株式会社,富山県,富山市,下新北町５番３４号,,16,201,9300802,,,2022-08-08,清算の結了等,,,2015-10-05,1,,,,,トウヨウメディカル,0
494,2250002018872,登記記録の閉鎖等,0,2022-08-12,2022-08-08,有限会社山根石油,,有限会社,山口県,岩国市,錦町広瀬１０６２番地の１,,35,208,7400724,,,2022-08-08,清算の結了等,,,2015-10-05,1,,,,,ヤマネセキユ,0
497,2260002030884,登記記録の閉鎖等,0,2022-08-12,2022-08-09,有限会社美作アルミキャスト,,有限会社,岡山県,美作市,北原３０５番地２,,33,215,7070036,,,2022-08-09,清算の結了等,,,2015-10-05,1,,,,,ミマサカアルミキャスト,0
513,2330001012819,登記記録の閉鎖等,0,2022-08-12,2022-08-02,株式会社カチオ実業,,株式会社,熊本県,宇土市,定府町１３番地,,43,211,8690436,,,2022-08-02,清算の結了等,,,2015-10-05,1,,,,,カチオジツギョウ,0
516,2340002016537,登記記録の閉鎖等,0,2022-08-12,2022-08-08,有限会社川島建設,,有限会社,鹿児島県,薩摩川内市,百次町１４２９番地,,46,215,8950007,,,2022-08-08,清算の結了等,,,2015-10-05,1,,,,,カワシマケンセツ,0
544,2490005006000,登記記録の閉鎖等,0,2022-08-12,2022-08-08,一般財団法人高知市桂浜公園観光開発公社,,その他の設立登記法人,高知県,高知市,浦戸８３０番地２５,,39,201,7810262,,,2022-08-08,清算の結了等,,,2015-10-05,1,,,,,コウチシカツラハマコウエンカンコウカイハツコウシャ,0
554,3010001117459,登記記録の閉鎖等,0,2022-08-12,2022-08-01,株式会社ゾーグ,,株式会社,東京都,千代田区,神田錦町３丁目６番地,,13,101,1010054,,,2022-08-01,清算の結了等,,,2015-10-05,1,,,,,ゾーグ,0
566,3010501030236,登記記録の閉鎖等,0,2022-08-12,2022-08-10,株式会社滄海企画,,株式会社,東京都,台東区,浅草橋４丁目１６番２号,,13,106,1110053,,,2022-08-10,清算の結了等,,,2015-10-05,1,,,,,ソウカイキカク,0
591,3011101083748,登記記録の閉鎖等,0,2022-08-12,2022-08-05,株式会社ＦＬＯＣ,,株式会社,東京都,千代田区,丸の内３丁目１番１号,,13,101,1000005,,,2022-08-05,合併による解散等,3010901033672,令和４年８月１日東京都世田谷区駒沢二丁目６番２号株式会社タワーズ（3010901033672）に合併し解散,2018-04-09,1,,,,,フロック,0
597,3011105004551,登記記録の閉鎖等,0,2022-08-12,2022-08-08,特定非営利活動法人昭和を記憶する会,,その他の設立登記法人,東京都,新宿区,矢来町１２２番地第２矢来ビル３階,,13,104,1620805,,,2022-08-08,清算の結了等,,,2015-10-05,1,,,,,ショウワヲキオクスルカイ,0
604,3011601011027,登記記録の閉鎖等,0,2022-08-12,2022-08-09,株式会社エムケイ,,株式会社,東京都,練馬区,土支田２丁目１７番１８号ユーエムハウスＦ号,,13,120,1790076,,,2022-08-09,清算の結了等,,,2015-10-05,1,,,,,エムケイ,0
643,3030001094168,登記記録の閉鎖等,0,2022-08-12,2022-08-01,株式会社Ｒ・Ｏコーポレーション,,株式会社,埼玉県,入間市,豊岡１丁目３番１８号,,11,225,3580003,,,2022-08-01,清算の結了等,,,2015-10-05,1,,,,,アールオーコーポレーション,0
659,3040001015643,登記記録の閉鎖等,0,2022-08-12,2022-08-01,株式会社ビックウイン,,株式会社,千葉県,習志野市,袖ケ浦１丁目１５番６号,,12,216,2750021,,,2022-08-01,清算の結了等,,,2015-10-05,1,,,,,ビックウイン,0
660,3040001033884,登記記録の閉鎖等,0,2022-08-12,2022-08-01,株式会社共生,,株式会社,千葉県,鎌ケ谷市,初富８００－５４１,,12,224,2730121,,,2022-08-01,合併による解散等,5030001044286,令和４年８月１日千葉県松戸市金ケ作４０８番地３３３株式会社東峰（5030001044286）に合併し解散,2015-10-05,1,,,,,キョウセイ,0
673,3050002039731,登記記録の閉鎖等,0,2022-08-12,2022-08-04,有限会社坂本電気商会,,有限会社,茨城県,常総市,水海道橋本町３２９２番地,,08,211,3030003,,,2022-08-04,清算の結了等,,,2015-10-05,1,,,,,サカモトデンキショウカイ,0
704,3122001034012,登記記録の閉鎖等,0,2022-08-12,2022-08-01,株式会社Ｔ．Ｍ．Ａ．,,株式会社,大阪府,八尾市,太田８丁目４４番地,,27,212,5810037,,,2022-08-01,清算の結了等,,,2020-09-15,1,,,,,ティーエムエー,0
731,3180001076465,登記記録の閉鎖等,0,2022-08-12,2022-07-25,北斗株式会社,,株式会社,愛知県,小牧市,郷西町１５５番地,,23,219,4850823,,,2022-07-25,合併による解散等,3010401157815,令和４年７月１日東京都港区東新橋一丁目９番２号汐留住友ビル１６階株式会社北斗ホールディングス（3010401157815）に合併し解散,2015-10-05,1,,,,,ホクト,0
735,3180001124447,登記記録の閉鎖等,0,2022-08-12,2022-08-08,株式会社ステップワン,,株式会社,愛知県,名古屋市昭和区,福江３丁目６番３２号,,23,107,4660059,,,2022-08-08,合併による解散等,7180301029524,令和４年８月１日愛知県豊川市豊川仲町２７番地シンユウ商工株式会社（7180301029524）に合併し解散,2016-08-09,1,,,,,ステップワン,0
739,3180002035379,登記記録の閉鎖等,0,2022-08-12,2022-08-08,有限会社丸三酒店,,有限会社,愛知県,名古屋市中村区,亀島２丁目１４番９号,,23,105,4530013,,,2022-08-08,清算の結了等,,,2015-10-05,1,,,,,マルサンサケテン,0
742,3180002065178,登記記録の閉鎖等,0,2022-08-12,2022-08-01,株式会社稲口会館,,株式会社,愛知県,春日井市,稲口町３丁目１番地の２３,,23,206,4860905,,,2022-08-01,合併による解散等,3180002049346,令和４年８月１日愛知県北名古屋市沖村岡２３７番地株式会社ＤＨ　ｃｏｍｐａｎｙ（3180002049346）に合併し解散,2015-10-05,1,,,,,イナグチカイカン,0
743,3180002075012,登記記録の閉鎖等,0,2022-08-12,2022-08-05,有限会社ファルフ,,有限会社,愛知県,丹羽郡扶桑町,大字高雄字犬堀１３９番地,,23,362,4800102,,,2022-08-05,清算の結了等,,,2015-10-05,1,,,,,ファルフ,0
746,3190001010266,登記記録の閉鎖等,0,2022-08-12,2022-08-08,株式会社松和ホーム,,株式会社,三重県,松阪市,新松ヶ島町１８４番地の１,,24,204,5150801,,,2022-08-08,清算の結了等,,,2015-10-05,1,,,,,ショウワホーム,0
750,3200001005231,登記記録の閉鎖等,0,2022-08-12,2022-08-09,株式会社道越,,株式会社,岐阜県,岐阜市,小野２丁目６１番地,,21,201,5011174,,,2022-08-09,清算の結了等,,,2015-10-05,1,,,,,ミチコシ,0
751,3200001022268,登記記録の閉鎖等,0,2022-08-12,2022-08-10,株式会社ケイフォー,,株式会社,岐阜県,多治見市,幸町６丁目１番地の１０,,21,204,5070077,,,2022-08-10,清算の結了等,,,2015-10-05,1,,,,,ケイフォー,0
752,3200003004792,登記記録の閉鎖等,0,2022-08-12,2022-08-08,合同会社あんしんかん,,合同会社,岐阜県,可児市,下恵土１６８５－１レジデンス可児４０７,,21,214,5090203,,,2022-08-08,清算の結了等,,,2020-05-11,1,,,,,アンシンカン,0
775,3290003008918,登記記録の閉鎖等,0,2022-08-12,2022-07-27,合同会社ＡＷＡＣ,,合同会社,福岡県,福岡市早良区,高取２丁目８番１１号,,40,137,8140011,,,2022-07-27,清算の結了等,,,2019-04-04,1,,,,,エイダブリューエイシー,0
797,3390002012547,登記記録の閉鎖等,0,2022-08-12,2022-08-01,有限会社アイ・エヌ・エス建築設計事務所,,有限会社,山形県,米沢市,福田町１丁目２番２３号,,06,202,9920033,,,2022-08-01,清算の結了等,,,2015-10-05,1,,,,,アイエヌエスケンチクセッケイジムショ,0
801,3420002002817,登記記録の閉鎖等,0,2022-08-12,2022-08-05,有限会社マルゼン,,有限会社,青森県,青森市,浜館６丁目１番地５,,02,201,0300947,,,2022-08-05,清算の結了等,,,2015-10-05,1,,,,,マルゼン,0
805,3420002015463,登記記録の閉鎖等,0,2022-08-12,2022-08-05,株式会社Ｍ＆Ｈ,,株式会社,青森県,黒石市,大字寺小路６番地１,,02,204,0360308,,,2022-08-05,清算の結了等,,,2015-10-05,1,,,,,,0
862,4010801011315,登記記録の閉鎖等,0,2022-08-12,2022-07-29,株式会社丸正材木店,,株式会社,東京都,大田区,山王２丁目２５番２４－９号,,13,111,1430023,,,2022-07-29,清算の結了等,,,2015-10-05,1,,,,,,0
864,4010902001751,登記記録の閉鎖等,0,2022-08-12,2022-08-08,有限会社威富,00052792,有限会社,東京都,世田谷区,砧２丁目６番１４号,,13,112,1570073,,,2022-08-08,清算の結了等,,,2015-10-05,1,,,,,タケトミ,0
869,4011001071546,登記記録の閉鎖等,0,2022-08-12,2022-08-10,株式会社Ａｒｏｕｎｄ,,株式会社,東京都,渋谷区,恵比寿南１丁目１１番１８号,,13,113,1500022,,,2022-08-10,清算の結了等,,,2015-10-05,1,,,,,,0
879,4011102011871,登記記録の閉鎖等,0,2022-08-12,2022-08-08,有限会社舞字社,,有限会社,東京都,新宿区,下宮比町２番１８号,,13,104,1620822,,,2022-08-08,清算の結了等,,,2015-10-05,1,,,,,マイジシャ,0
883,4011201000973,登記記録の閉鎖等,0,2022-08-12,2022-08-01,大島印刷株式会社,,株式会社,東京都,中野区,野方１丁目３８番１５号,,13,114,1650027,,,2022-08-01,清算の結了等,,,2015-10-05,1,,,,,オオシマインサツ,0
906,4013105000174,登記記録の閉鎖等,0,2022-08-12,2022-07-25,天理教多摩宮分教会,,その他の設立登記法人,東京都,あきる野市,平沢５８５番地,,13,228,1970812,,,2022-07-25,合併による解散等,5013105000173,令和４年７月２５日東京都あきる野市二宮２３１４番地の２天理教武宮分教会（5013105000173）に合併し解散,2015-10-05,1,,,,,,0
910,4020001013887,登記記録の閉鎖等,0,2022-08-12,2022-08-02,株式会社森電機,,株式会社,神奈川県,横浜市南区,中島町２丁目４５番地,,14,105,2320055,,,2022-08-02,清算の結了等,,,2015-10-05,1,,,,,モリデンキ,0
912,4020001041418,登記記録の閉鎖等,0,2022-08-12,2022-08-02,株式会社ハート・イン・ハート,,株式会社,神奈川県,横浜市金沢区,富岡東１丁目４９番１０号,,14,108,2360051,,,2022-08-02,清算の結了等,,,2015-10-05,1,,,,,ハートインハート,0
914,4020001073378,登記記録の閉鎖等,0,2022-08-12,2022-08-03,株式会社スカイ・メック,,株式会社,神奈川県,川崎市川崎区,川中島１丁目１１番１１号,,14,131,2100803,,,2022-08-03,清算の結了等,,,2015-10-05,1,,,,,スカイメック,0
917,4020001105932,登記記録の閉鎖等,0,2022-08-12,2022-08-03,株式会社ＭＹ　ＨＡＮＤＳ,,株式会社,神奈川県,川崎市川崎区,砂子１丁目１－１２,,14,131,2100006,,,2022-08-03,清算の結了等,,,2015-10-05,1,,,,,,0
924,4020002026970,登記記録の閉鎖等,0,2022-08-12,2022-08-01,有限会社鈴木自動車修理工場,,有限会社,神奈川県,横浜市神奈川区,子安通３丁目３６２番地,,14,102,2210021,,,2022-08-01,清算の結了等,,,2015-10-05,1,,,,,スズキジドウシャシュウリコウジョウ,0
925,4020002104090,登記記録の閉鎖等,0,2022-08-12,2022-08-03,有限会社セイワサービス,,有限会社,神奈川県,川崎市宮前区,潮見台８番１号,,14,136,2160013,,,2022-08-03,清算の結了等,,,2015-10-05,1,,,,,セイワサービス,0
936,4021002005213,登記記録の閉鎖等,0,2022-08-12,2022-08-08,有限会社ユアサ建設,,有限会社,神奈川県,藤沢市,亀井野３３１４番地の３亀井野団地アパート１４－２０３,,14,205,2520813,,,2022-08-08,清算の結了等,,,2015-10-05,1,,,,,ユアサケンセツ,0
965,4070001025176,登記記録の閉鎖等,0,2022-08-12,2022-08-03,群長急行観光バス株式会社,,株式会社,群馬県,吾妻郡嬬恋村,大字鎌原１５２０番地３６,,10,425,3771524,,,2022-08-03,清算の結了等,,,2015-10-05,1,,,,,,0
972,4080401019891,登記記録の閉鎖等,0,2022-08-12,2022-08-05,湖西牧場株式会社,,株式会社,静岡県,湖西市,大知波７３２番地の７,,22,221,4310403,,,2022-08-05,合併による解散等,3080401023861,令和４年８月１日静岡県湖西市太田１１７２番地満咲牧場株式会社（3080401023861）に合併し解散,2015-10-05,1,,,,,コサイボクジョウ,0
974,4090001010317,登記記録の閉鎖等,0,2022-08-12,2022-08-05,富士中央交通株式会社,,株式会社,山梨県,南都留郡富士河口湖町,小立１２９７番地の１,,19,430,4010302,,,2022-08-05,清算の結了等,,,2015-10-05,1,,,,,フジチュオウコウツウ,0
975,4100002027572,登記記録の閉鎖等,0,2022-08-12,2022-08-02,有限会社義仲山荘,,有限会社,長野県,木曽郡木曽町,日義４８９８番地の８,,20,432,3996101,,,2022-08-02,清算の結了等,,,2015-10-05,1,,,,,ヨシナカサンソウ,0
1007,4122002000532,登記記録の閉鎖等,0,2022-08-12,2022-08-03,有限会社伊藤製作所,,有限会社,大阪府,東大阪市,友井２丁目３１番２０号,,27,227,5770816,,,2022-08-03,清算の結了等,,,2015-10-05,1,,,,,イトウセイサクショ,0
1012,4130002023008,登記記録の閉鎖等,0,2022-08-12,2022-08-01,有限会社ルートカンパニーリミテッド,,有限会社,京都府,京都市右京区,京北上弓削町澤ノ尻１０番地の１,,26,108,6010531,,,2022-08-01,清算の結了等,,,2015-10-05,1,,,,,ルートカンパニーリミテッド,0
1028,4180001027277,登記記録の閉鎖等,0,2022-08-12,2022-08-08,見田製菓販売株式会社,,株式会社,愛知県,名古屋市西区,大野木２丁目２０２番地,,23,104,4520803,,,2022-08-08,清算の結了等,,,2015-10-05,1,,,,,ミタセイカハンバイ,0
1039,4180002025040,登記記録の閉鎖等,0,2022-08-12,2022-08-01,有限会社芳吉,,有限会社,愛知県,名古屋市西区,幅下１丁目１５番１７号,,23,104,4510041,,,2022-08-01,合併による解散等,7180001025955,令和４年８月１日名古屋市西区幅下一丁目１３番１０号株式会社祖父江ジャパン（7180001025955）に合併し解散,2015-10-05,1,,,,,ヨシキチ,0
1040,4180002035114,登記記録の閉鎖等,0,2022-08-12,2022-08-05,有限会社東山ハウジング,,有限会社,愛知県,名古屋市千種区,東山元町５丁目２９番地,,23,101,4640804,,,2022-08-05,合併による解散等,3180001066004,令和４年８月１日名古屋市昭和区檀溪通四丁目４２番地株式会社エストサービス（3180001066004）に合併し解散,2015-10-05,1,,,,,ヒガシヤマハウジング,0
1049,4190002000331,登記記録の閉鎖等,0,2022-08-12,2022-08-04,有限会社保険リビング,,有限会社,三重県,津市,羽所町３５６番地,,24,201,5140009,,,2022-08-04,清算の結了等,,,2015-10-05,1,,,,,ホケンリビングホケン,0
1052,4210001007176,登記記録の閉鎖等,0,2022-08-12,2022-08-09,北東ジヤパン株式会社,,株式会社,福井県,あわら市,中川第１７号１４番地,,18,208,9190741,,,2022-08-09,清算の結了等,,,2015-10-05,1,,,,,ホクトウジャパン,0
1053,4210001009742,登記記録の閉鎖等,0,2022-08-12,2022-08-08,大野土建工業株式会社,,株式会社,福井県,大野市,泉町１１番８号,,18,205,9120086,,,2022-08-08,清算の結了等,,,2015-10-05,1,,,,,オオノドケンコウギョウ,0
1067,4250002015777,登記記録の閉鎖等,0,2022-08-12,2022-07-27,有限会社どれみらいふサービス,,有限会社,山口県,周南市,大字徳山４９５７番地の１,,35,215,7450851,,,2022-07-27,清算の結了等,,,2015-10-05,1,,,,,ドレミライフサービス,0
1068,4260001028960,登記記録の閉鎖等,0,2022-08-12,2022-08-10,株式会社テックジャパン,,株式会社,岡山県,岡山市北区,新屋敷町１丁目３番１０号,,33,101,7000986,,,2022-08-10,清算の結了等,,,2015-11-10,1,,,,,テックジャパン,0
1090,4330005005750,登記記録の閉鎖等,0,2022-08-12,2022-08-02,協同組合三角町専門店会,,その他の設立登記法人,熊本県,宇城市,三角町三角浦１１６０番地の８６,,43,213,8693207,,,2022-08-02,清算の結了等,,,2015-10-05,1,,,,,ミスミマチセンモンテンカイ,0
1096,4360003008257,登記記録の閉鎖等,0,2022-08-12,2022-08-01,ＯｋｉＹｕｉ合同会社,,合同会社,沖縄県,南城市,大里字稲嶺２１２７番地２０,,47,215,9011204,,,2022-08-01,清算の結了等,,,2017-06-16,1,,,,,,0
1109,4420001016222,登記記録の閉鎖等,0,2022-08-12,2022-08-05,むつ小川原アシスト株式会社,,株式会社,青森県,上北郡六ヶ所村,大字尾駮字弥栄平１１５番地７,,02,411,0393212,,,2022-08-05,清算の結了等,,,2018-06-06,1,,,,,ムツオガワラアシスト,0
1110,4430001004003,登記記録の閉鎖等,0,2022-08-12,2022-08-01,株式会社カネマル中西商店,,株式会社,北海道,札幌市中央区,北九条西１９丁目３５番地４８,,01,101,0600009,,,2022-08-01,合併による解散等,3430001017435,令和４年８月１日札幌市西区二十四軒一条一丁目１番４１号株式会社やまた水産（3430001017435）に合併し解散,2015-10-05,1,,,,,カネマルナカニシショウテン,0
1120,4450002010717,登記記録の閉鎖等,0,2022-08-12,2022-08-09,ピークル振興有限会社,,有限会社,北海道,枝幸郡枝幸町,歌登南町４１４番地２,,01,514,0985204,,,2022-08-09,清算の結了等,,,2015-10-05,1,,,,,ピークルシンコウ,0
1147,5010601051799,登記記録の閉鎖等,0,2022-08-12,2022-08-01,株式会社ムラヤマホールディングス,,株式会社,東京都,江東区,豊洲３丁目２番２４号,,13,108,1350061,,,2022-08-01,合併による解散等,5010001007765,令和４年８月１日東京都江東区豊洲三丁目２番２４号株式会社ムラヤマ（5010001007765）に合併し解散,2017-06-23,1,,,,,ムラヤマホールディングス,0
1154,5010901002287,登記記録の閉鎖等,0,2022-08-12,2022-08-08,株式会社オーヌマ,,株式会社,東京都,世田谷区,上祖師谷１丁目２番２１号,,13,112,1570065,,,2022-08-08,清算の結了等,,,2015-10-05,1,,,,,オーヌマ,0
1155,5010903000719,登記記録の閉鎖等,0,2022-08-12,2022-08-05,キャメル・カンパニー合資会社,,合資会社,東京都,世田谷区,代田５丁目１番１４号,,13,112,1550033,,,2022-08-05,清算の結了等,,,2015-10-05,1,,,,,キャメルカンパニー,0
1189,5020001053172,登記記録の閉鎖等,0,2022-08-12,2022-08-02,株式会社コスメさくら,,株式会社,神奈川県,横浜市泉区,中田南３丁目２番６号,,14,116,2450014,,,2022-08-02,清算の結了等,,,2015-10-05,1,,,,,コスメサクラ,0
1196,5020002098472,登記記録の閉鎖等,0,2022-08-12,2022-08-01,日産商事有限会社,,有限会社,神奈川県,川崎市川崎区,京町２丁目９番２号,,14,131,2100848,,,2022-08-01,清算の結了等,,,2015-10-05,1,,,,,ニッサンショウジ,0
1226,5070001012834,登記記録の閉鎖等,0,2022-08-12,2022-07-15,美松ライフサポート株式会社,,株式会社,群馬県,藤岡市,小林６９８番地１,,10,209,3750021,,,2022-07-15,合併による解散等,1030001033549,令和４年７月１日埼玉県加須市砂原２８７番地１ウイステリア株式会社（1030001033549）に合併し解散,2015-10-05,1,,,,,ミマツライフサポート,0
1249,5120001214160,登記記録の閉鎖等,0,2022-08-12,2022-08-05,Ｔａｔｕ　Ｂｉｏｌｏｇｉｃａｌ　Ｔｅｃｈｎｏｌｏｇｙ株式会社,,株式会社,大阪府,大阪市中央区,内本町２丁目３番８号ダイアパレスビル本町４０６号室,,27,128,5400026,,,2022-08-05,清算の結了等,,,2018-06-19,1,,,,,タツバイオロジカルテクノロジー,0
1252,5120002058004,登記記録の閉鎖等,0,2022-08-12,2022-07-29,有限会社ピュアリッチ,,有限会社,大阪府,大阪市住吉区,遠里小野６丁目１６番１３号,,27,120,5580032,,,2022-07-29,清算の結了等,,,2015-10-05,1,,,,,ピュアリッチ,0
1258,5120101029079,登記記録の閉鎖等,0,2022-08-12,2022-08-09,株式会社コーエー,,株式会社,和歌山県,和歌山市,満屋２９１番地の７,,30,201,6496271,,,2022-08-09,清算の結了等,,,2015-10-05,1,,,,,,0
1261,5120102012091,登記記録の閉鎖等,0,2022-08-12,2022-08-08,有限会社伊波運送,,有限会社,大阪府,堺市西区,浜寺諏訪森町西４丁３１０番地の８,,27,144,5928347,,,2022-08-08,清算の結了等,,,2015-10-05,1,,,,,イバウンソウ,0
1272,5140001017925,登記記録の閉鎖等,0,2022-08-12,2022-08-02,株式会社万喜,,株式会社,兵庫県,神戸市須磨区,妙法寺字風早１２２７番地の６,,28,107,6540121,,,2022-08-02,清算の結了等,,,2015-10-05,1,,,,,マキ,0
1299,5180001107755,登記記録の閉鎖等,0,2022-08-12,2022-08-05,グローバルテック株式会社,,株式会社,愛知県,名古屋市中区,大須４丁目１１番５号Ｚ’ｓビル９Ｆ,,23,106,4600011,,,2022-08-05,清算の結了等,,,2015-10-05,1,,,,,グローバルテック,0
1304,5180001131656,登記記録の閉鎖等,0,2022-08-12,2022-08-08,エンプラス株式会社,,株式会社,愛知県,名古屋市中区,錦３丁目７番１３号,,23,106,4600003,,,2022-08-08,清算の結了等,,,2018-03-29,1,,,,,エンプラス,0
1312,5180301007597,登記記録の閉鎖等,0,2022-08-12,2022-08-08,株式会社ルイ,,株式会社,愛知県,豊橋市,中原町字東荒神７７番地,,23,201,4413106,,,2022-08-08,清算の結了等,,,2015-10-05,1,,,,,ルイ,0
1316,5190002009702,登記記録の閉鎖等,0,2022-08-12,2022-08-08,有限会社マリンネット,,有限会社,三重県,度会郡南伊勢町,迫間浦１１０２番地,,24,472,5160116,,,2022-08-08,清算の結了等,,,2015-10-05,1,,,,,マリンネット,0
1322,5240001000615,登記記録の閉鎖等,0,2022-08-12,2022-08-05,アルカエンジニアリング株式会社,,株式会社,広島県,広島市西区,竜王町３番１号,,34,104,7330803,,,2022-08-05,合併による解散等,5120001020518,令和４年８月１日大阪市平野区背戸口四丁目９番１１号株式会社正英製作所（5120001020518）に合併し解散,2015-10-05,1,,,,,,0
1332,5310002006174,登記記録の閉鎖等,0,2022-08-12,2022-08-09,有限会社ワイズカンパニー,,有限会社,長崎県,長崎市,伊良林２丁目１６番７号,,42,201,8500802,,,2022-08-09,清算の結了等,,,2015-10-05,1,,,,,ワイズカンパニー,0
1351,5350005005698,登記記録の閉鎖等,0,2022-08-12,2022-08-09,一般社団法人九州ドローン推進協会,,その他の設立登記法人,宮崎県,宮崎市,大字恒久１８００番地１,,45,201,8800916,,,2022-08-09,清算の結了等,,,2017-06-26,1,,,,,キュウシュウドローンスイシンキョウカイ,0
1359,5380001014592,登記記録の閉鎖等,0,2022-08-12,2022-08-03,エムブラン株式会社,,株式会社,福島県,いわき市,鹿島町久保字反町２４番地の１,,07,204,9718144,,,2022-08-03,清算の結了等,,,2015-10-05,1,,,,,エムブラン,0
1379,5500002020528,登記記録の閉鎖等,0,2022-08-12,2022-08-10,有限会社田名後建設,,有限会社,愛媛県,越智郡上島町,岩城１０８８番地の１,,38,356,7942410,,,2022-08-10,清算の結了等,,,2015-10-05,1,,,,,タナゴケンセツ,0
1389,6010001193019,登記記録の閉鎖等,0,2022-08-12,2022-07-28,株式会社ＶＩＰＰＯＯＬ,,株式会社,東京都,千代田区,外神田４丁目１４番１号,,13,101,1010021,,,2022-07-28,清算の結了等,,,2018-07-06,1,,,,,ビッププール,0
1395,6010002028999,登記記録の閉鎖等,0,2022-08-12,2022-08-01,有限会社ミズモト,,有限会社,東京都,中央区,東日本橋１丁目３番３号東日本橋ＴＹＤビル１Ｆ,,13,102,1030004,,,2022-08-01,清算の結了等,,,2015-10-05,1,,,,,ミズモト,0
1408,6010601041956,登記記録の閉鎖等,0,2022-08-12,2022-08-04,明和商事株式会社,,株式会社,東京都,江東区,亀戸６丁目５６番４－５０３号,,13,108,1360071,,,2022-08-04,清算の結了等,,,2015-10-05,1,,,,,メイワショウジ,0
1422,6011001112620,登記記録の閉鎖等,0,2022-08-12,2022-08-08,Ｐａｎｄａ　Ｇｒａｐｈｉｃｓ株式会社,,株式会社,東京都,新宿区,西新宿３丁目２番４号ＪＲＥ西新宿テラス３階,,13,104,1600023,,,2022-08-08,合併による解散等,6010001014918,令和４年８月１日東京都新宿区西新宿三丁目２番４号ＪＲＥ西新宿テラス３階株式会社キュービスト（6010001014918）に合併し解散,2016-09-13,1,,,,,パンダグラフィックス,0
1449,6012401009398,登記記録の閉鎖等,0,2022-08-12,2022-08-08,株式会社吉沢商店,,株式会社,東京都,狛江市,和泉本町３丁目１３番３－１０１号,,13,219,2010003,,,2022-08-08,清算の結了等,,,2015-10-05,1,,,,,ヨシザワショウテン,0
1453,6013301027630,登記記録の閉鎖等,0,2022-08-12,2022-08-08,株式会社街から舎,,株式会社,東京都,豊島区,長崎３丁目１３番１５－１０１号,,13,116,1710051,,,2022-08-08,清算の結了等,,,2015-10-05,1,,,,,マチカラシャ,0
1463,6020002002714,登記記録の閉鎖等,0,2022-08-12,2022-08-03,有限会社クリーニングショップすずらん,,有限会社,神奈川県,横浜市泉区,和泉町６７８番地１１号,,14,116,2450016,,,2022-08-03,清算の結了等,,,2015-10-05,1,,,,,クリーニングショップスズラン,0
1475,6021005011875,登記記録の閉鎖等,0,2022-08-12,2022-08-08,一般社団法人生活介護サポーター協会,,その他の設立登記法人,神奈川県,藤沢市,鵠沼藤が谷２丁目１３番２３－２２２号,,14,205,2510031,,,2022-08-08,清算の結了等,,,2020-03-13,1,,,,,セイカツカイゴサポーターキョウカイ,0
1515,6070001028292,登記記録の閉鎖等,0,2022-08-12,2022-07-25,株式会社統合生産方式研究所,,株式会社,群馬県,渋川市,伊香保町伊香保５０９番地１１９,,10,208,3770102,,,2022-07-25,清算の結了等,,,2015-10-05,1,,,,,トウゴウセイサンホウシキケンキュウジョ,0
1524,6120001043022,登記記録の閉鎖等,0,2022-08-12,2022-08-04,株式会社ケイエスケー,,株式会社,大阪府,大阪市中央区,内平野町１丁目３番４号,,27,128,5400037,,,2022-08-04,清算の結了等,,,2015-10-05,1,,,,,ケイエスケー,0
1531,6120002044242,登記記録の閉鎖等,0,2022-08-12,2022-08-04,有限会社アイエムピーエス,,有限会社,大阪府,大阪市東成区,深江南２丁目２番３６号,,27,115,5370002,,,2022-08-04,清算の結了等,,,2015-10-05,1,,,,,,0
1540,6122001026130,登記記録の閉鎖等,0,2022-08-12,2022-08-02,株式会社サンシアン,,株式会社,大阪府,東大阪市,西鴻池町１丁目２番３４号,,27,227,5780976,,,2022-08-02,清算の結了等,,,2015-10-05,1,,,,,サンシアン,0
1542,6122002000200,登記記録の閉鎖等,0,2022-08-12,2022-08-02,有限会社アーネスト,,有限会社,大阪府,東大阪市,小阪本町２丁目９番１７号,,27,227,5770802,,,2022-08-02,清算の結了等,,,2015-10-05,1,,,,,アーネスト,0
1560,6160002005141,登記記録の閉鎖等,0,2022-08-12,2022-08-09,有限会社サンウォールシステム,,有限会社,滋賀県,湖南市,中央５丁目８６番地,,25,211,5203234,,,2022-08-09,清算の結了等,,,2015-10-05,1,,,,,サンウォールシステム,0
1571,6180001126465,登記記録の閉鎖等,0,2022-08-12,2022-08-05,株式会社かけひ,,株式会社,愛知県,津島市,中一色町西訳９１番地,,23,208,4960025,,,2022-08-05,清算の結了等,,,2017-02-06,1,,,,,カケヒ,0
1580,6180305007700,登記記録の閉鎖等,0,2022-08-12,2022-07-11,金光教大野教会,,その他の設立登記法人,愛知県,新城市,大野字上野２６番地,,23,221,4411615,,,2022-07-11,合併による解散等,5180305007528,令和４年７月１１日愛知県新城市字石名号１番地金光教新城教会（5180305007528）に合併し解散,2015-10-05,1,,,,,,0
1592,6230001018104,登記記録の閉鎖等,0,2022-08-12,2022-08-08,株式会社といーｄｅだいご,,株式会社,富山県,富山市,黒崎７５番地１,,16,201,9398214,,,2022-08-08,清算の結了等,,,2019-11-29,1,,,,,トイーデダイゴ,0
1606,6290003004220,登記記録の閉鎖等,0,2022-08-12,2022-08-02,合同会社松星コーポレーション,,合同会社,福岡県,大野城市,大城３丁目１５番３５号,,40,219,8160911,,,2022-08-02,清算の結了等,,,2015-10-05,1,,,,,マツボシコーポレーション,0
1611,6310002013302,登記記録の閉鎖等,0,2022-08-12,2022-08-08,有限会社崎山造船所,,有限会社,長崎県,西海市,崎戸町蠣浦郷１３７３番地,,42,212,8573101,,,2022-08-08,清算の結了等,,,2015-10-05,1,,,,,サキヤマゾウセンジョ,0
1617,6330002012236,登記記録の閉鎖等,0,2022-08-12,2022-08-01,有限会社創建通信,,有限会社,熊本県,熊本市東区,西原２丁目３１番１２号,,43,102,8618029,,,2022-08-01,清算の結了等,,,2015-10-05,1,,,,,ソウケンツウシン,0
1622,6360001007647,登記記録の閉鎖等,0,2022-08-12,2022-08-01,シンケンハウス株式会社,,株式会社,沖縄県,うるま市,字赤道１８０番地３・１Ｆ,,47,213,9042245,,,2022-08-01,清算の結了等,,,2015-10-05,1,,,,,シンケンハウス,0
1629,6380002019086,登記記録の閉鎖等,0,2022-08-12,2022-08-03,有限会社丸八製麺,,有限会社,福島県,東白川郡棚倉町,大字棚倉字町裏４７番地,,07,481,9636131,,,2022-08-03,清算の結了等,,,2015-10-05,1,,,,,マルハチセイメン,0
1658,7010001204690,登記記録の閉鎖等,0,2022-08-12,2022-08-02,ＺＺＯＯ株式会社,,株式会社,東京都,千代田区,九段南１丁目５－６りそな九段ビル５Ｆ,,13,101,1020074,,,2022-08-02,清算の結了等,,,2019-10-18,1,,,,,ゼットゼットオーオー,0
1675,7010403015273,登記記録の閉鎖等,0,2022-08-12,2022-07-19,コンチェルト合同会社,,合同会社,東京都,港区,六本木１丁目６番１号泉ガーデンタワー１２階,,13,103,1060032,,,2022-07-19,清算の結了等,,,2016-08-26,1,,,,,,0
1739,7020005009350,登記記録の閉鎖等,0,2022-08-12,2022-08-02,特定非営利活動法人チャーミングライフ横浜,,その他の設立登記法人,神奈川県,横浜市磯子区,森３丁目１８－１０－７０５,,14,107,2350023,,,2022-08-02,清算の結了等,,,2015-10-05,1,,,,,チャーミングライフヨコハマ,0
1782,7070005005386,登記記録の閉鎖等,0,2022-08-12,2022-08-03,医療法人高井医院,,その他の設立登記法人,群馬県,渋川市,渋川１９４５番地の１,,10,208,3770008,,,2022-08-03,清算の結了等,,,2015-10-05,1,,,,,タカイイイン,0
1783,7070005007523,登記記録の閉鎖等,0,2022-08-12,2022-08-01,草津町食糧販売企業組合,,その他の設立登記法人,群馬県,吾妻郡草津町,大字草津２７番地,,10,426,3771711,,,2022-08-01,清算の結了等,,,2015-10-05,1,,,,,クサツマチショクリョウハンバイ,0
1789,7080401011268,登記記録の閉鎖等,0,2022-08-12,2022-08-09,株式会社長尾広文堂,,株式会社,静岡県,浜松市東区,植松町６６番地の１,,22,132,4300803,,,2022-08-09,清算の結了等,,,2015-10-05,1,,,,,ナガオコウブンドウ,0
1814,7120002049281,登記記録の閉鎖等,0,2022-08-12,2022-08-03,有限会社ターゲット,,有限会社,滋賀県,大津市,伊香立下在地１２２６番地,,25,201,5200000,,,2022-08-03,清算の結了等,,,2015-10-05,1,,,,,ターゲット,0
1826,7120903001530,登記記録の閉鎖等,0,2022-08-12,2022-08-09,合同会社ＡＣＣＯＲＤ,,合同会社,大阪府,箕面市,彩都粟生南５丁目１８番２０号,,27,220,5620028,,,2022-08-09,清算の結了等,,,2015-10-05,1,,,,,アコード,0
1833,7130001009723,登記記録の閉鎖等,0,2022-08-12,2022-08-01,株式会社宮野工務店,,株式会社,京都府,京都市東山区,大和大路四条下ル四丁目小松町１３９番地,,26,105,6050000,,,2022-08-01,清算の結了等,,,2015-10-05,1,,,,,ミヤノコウムテン,0
1853,7160003001915,登記記録の閉鎖等,0,2022-08-12,2022-08-09,合同会社Ｋ,,合同会社,滋賀県,甲賀市,土山町徳原２１番地１,,25,209,5280234,,,2022-08-09,清算の結了等,,,2019-10-02,1,,,,,ケイ,0
1856,7180001001709,登記記録の閉鎖等,0,2022-08-12,2022-08-05,株式会社デュアル,,株式会社,愛知県,名古屋市千種区,月見坂町２丁目１１番地,,23,101,4640056,,,2022-08-05,清算の結了等,,,2015-10-05,1,,,,,デュアル,0
1861,7180001113116,登記記録の閉鎖等,0,2022-08-12,2022-07-20,株式会社新山スタイル,,株式会社,愛知県,名古屋市千種区,今池３丁目３５番１号,,23,101,4640850,,,2022-07-20,合併による解散等,6180001090760,令和４年７月１５日名古屋市千種区今池三丁目３５番１号株式会社新山オールスターズ（6180001090760）に合併し解散,2015-10-05,1,,,,,ニイヤマスタイル,0
1862,7180001139227,登記記録の閉鎖等,0,2022-08-12,2022-07-20,株式会社エボシ,,株式会社,愛知県,名古屋市千種区,今池３丁目３５番１号,,23,101,4640850,,,2022-07-20,合併による解散等,6180001090760,令和４年７月１５日名古屋市千種区今池三丁目３５番１号株式会社新山オールスターズ（6180001090760）に合併し解散,2019-12-10,1,,,,,エボシ,0
1884,7230001014151,登記記録の閉鎖等,0,2022-08-12,2022-08-08,株式会社富山宅建,,株式会社,富山県,富山市,四方江代６１９,,16,201,9302243,,,2022-08-08,清算の結了等,,,2015-10-05,1,,,,,,0
1911,7370003005168,登記記録の閉鎖等,0,2022-08-12,2022-08-03,Ａｌｌｙ　Ｆｉｔｎｅｓｓ合同会社,,合同会社,宮城県,仙台市若林区,連坊小路１７－４ヴィントルーナ１Ｆ,,04,103,9840053,,,2022-08-03,清算の結了等,,,2021-03-30,1,,,,,アリーフィットネス,0
1927,7430001029245,登記記録の閉鎖等,0,2022-08-12,2022-07-29,株式会社ミム,,株式会社,北海道,札幌市中央区,南二条西６丁目１３番地１,,01,101,0600062,,,2022-07-29,清算の結了等,,,2015-10-05,1,,,,,ミム,0
1938,7460301000687,登記記録の閉鎖等,0,2022-08-12,2022-08-08,都市開発コンサルタント株式会社,,株式会社,北海道,網走郡美幌町,字稲美１０９番地４７,,01,543,0920027,,,2022-08-08,清算の結了等,,,2015-10-05,1,,,,,トシカイハツコンサルタント,0
1944,7480002013284,登記記録の閉鎖等,0,2022-08-12,2022-08-12,有限会社谷本靴店,,有限会社,徳島県,阿南市,日開野町宮原９１番地１１,,36,204,7740013,,,2022-08-12,清算の結了等,,,2015-10-05,1,,,,,タニモトクツテン,0
1960,8010003025647,登記記録の閉鎖等,0,2022-08-12,2022-07-19,ウィンチェスター合同会社,,合同会社,東京都,港区,赤坂２丁目１５番１６号赤坂ふく源ビル４階,,13,103,1070052,,,2022-07-19,清算の結了等,,,2017-07-12,1,,,,,ウィンチェスター,0
2016,8011601023950,登記記録の閉鎖等,0,2022-08-12,2022-08-05,株式会社ＨＡＰ,,株式会社,東京都,練馬区,東大泉３丁目１９番２号,,13,120,1780063,,,2022-08-05,合併による解散等,4012801009470,令和４年６月２９日東京都練馬区東大泉三丁目１９番２号株式会社ウィン（4012801009470）に合併し解散,2020-01-28,1,,,,,ハップ,0
2024,8011805000481,登記記録の閉鎖等,0,2022-08-12,2022-07-25,天理教春海分教会,,その他の設立登記法人,東京都,葛飾区,亀有５丁目５４番２９号,,13,122,1250061,,,2022-07-25,合併による解散等,4430005008917,令和４年６月２８日北海道勇払郡むかわ町福住二丁目９番地宗教法人天理教膽振分教会（4430005008917）に合併し解散,2015-10-05,1,,,,,,0
2033,8020001018833,登記記録の閉鎖等,0,2022-08-12,2022-08-02,松屋硝子工事株式会社,,株式会社,神奈川県,横浜市鶴見区,鶴見中央４丁目２６番８号,,14,101,2300051,,,2022-08-02,清算の結了等,,,2015-10-05,1,,,,,マツヤガラスコウジ,0
2050,8020002017974,登記記録の閉鎖等,0,2022-08-12,2022-08-03,有限会社麻生商事,,有限会社,神奈川県,横浜市港南区,港南３丁目３番５号,,14,111,2330003,,,2022-08-03,清算の結了等,,,2015-10-05,1,,,,,アソウショウジ,0
2052,8020002048219,登記記録の閉鎖等,0,2022-08-12,2022-08-01,有限会社岡出総合建設,,有限会社,神奈川県,横浜市港南区,上大岡東１丁目１５番２８号,,14,111,2330001,,,2022-08-01,清算の結了等,,,2015-10-05,1,,,,,オカデソウゴウケンセツ,0
2056,8020005010381,登記記録の閉鎖等,0,2022-08-12,2022-08-02,特定非営利活動法人銀河の子,,その他の設立登記法人,神奈川県,横浜市鶴見区,駒岡５丁目１番２８号,,14,101,2300071,,,2022-08-02,清算の結了等,,,2015-10-05,1,,,,,,0
2072,8030003015258,登記記録の閉鎖等,0,2022-08-12,2022-08-01,Ｚ合同会社,,合同会社,埼玉県,本庄市,下野堂３丁目７番１号,,11,211,3670063,,,2022-08-01,清算の結了等,,,2020-05-21,1,,,,,ゼット,0
2092,8070005002176,登記記録の閉鎖等,0,2022-08-12,2022-07-22,天理教鏑川分教会,,その他の設立登記法人,群馬県,高崎市,吉井町小串８４８番地,,10,202,3702111,,,2022-07-22,合併による解散等,5090005003662,令和４年７月７日山梨県山梨市北６６２番地天理教東山梨分教会（5090005003662）に合併し解散,2015-10-05,1,,,,,,0
2101,8110002010607,登記記録の閉鎖等,0,2022-08-12,2022-08-08,有限会社ギャラリー柴野,,有限会社,新潟県,新潟市北区,朝日町２丁目７番１１号,,15,101,9503315,,,2022-08-08,清算の結了等,,,2015-10-05,1,,,,,ギャラリーシバノ,0
2113,8120002010903,登記記録の閉鎖等,0,2022-08-12,2022-08-05,有限会社楓観光土地,,有限会社,大阪府,大阪市平野区,喜連２丁目２番４号,,27,126,5470027,,,2022-08-05,合併による解散等,6120002010723,令和４年８月１日大阪市平野区喜連西五丁目１番３８号シティプランニング株式会社（6120002010723）に合併し解散,2015-10-05,1,,,,,カエデカンコウトチ,0
2118,8120902020225,登記記録の閉鎖等,0,2022-08-12,2022-08-09,有限会社緑地土地建物,,有限会社,大阪府,豊中市,東寺内町１１番１１号緑地アシエハイツ１０３号,,27,203,5610871,,,2022-08-09,清算の結了等,,,2015-10-05,1,,,,,リョクチトチタテモノ,0
2126,8130002032153,登記記録の閉鎖等,0,2022-08-12,2022-08-01,有限会社宮津葬祭センター,,有限会社,京都府,宮津市,字宮村１０７７番地,,26,205,6260033,,,2022-08-01,合併による解散等,8130002033837,令和４年８月１日京都府京丹後市網野町網野３１５６番地株式会社令和（8130002033837）に合併し解散,2015-10-05,1,,,,,ミヤヅソウサイセンター,0
2128,8140001076241,登記記録の閉鎖等,0,2022-08-12,2022-08-05,株式会社三枝製作所,,株式会社,兵庫県,加西市,北条町古坂１４５７番地,,28,220,6752303,,,2022-08-05,清算の結了等,,,2015-10-05,1,,,,,サエグサセイサクショ,0
2130,8140003014273,登記記録の閉鎖等,0,2022-08-12,2022-08-08,合同会社ＮＡＮＣ,,合同会社,兵庫県,三木市,別所町興治６０５番地の１,,28,215,6730442,,,2022-08-08,合併による解散等,3140003016605,令和４年８月８日兵庫県三木市別所町興治６０５番地１株式会社ＤＯＭＯＤＯＭＯ（3140003016605）に合併し解散,2019-09-05,1,,,,,ナンク,0
2140,8180001093051,登記記録の閉鎖等,0,2022-08-12,2022-08-04,株式会社中央技研,,株式会社,愛知県,知多郡美浜町,北方１丁目５５番地,,23,446,4702403,,,2022-08-04,清算の結了等,,,2015-10-05,1,,,,,チュウオウギケン,0
2147,8180002026571,登記記録の閉鎖等,0,2022-08-12,2022-08-05,有限会社松村鉄工所,,有限会社,愛知県,名古屋市緑区,漆山１００４番地,,23,114,4580832,,,2022-08-05,清算の結了等,,,2015-10-05,1,,,,,マツムラテッコウジョ,0
2149,8180002036190,登記記録の閉鎖等,0,2022-08-12,2022-08-01,有限会社祖父江興産,,有限会社,愛知県,名古屋市西区,幅下１丁目１５番１７号,,23,104,4510041,,,2022-08-01,合併による解散等,7180001025955,令和４年８月１日名古屋市西区幅下一丁目１３番１０号株式会社祖父江ジャパン（7180001025955）に合併し解散,2015-10-05,1,,,,,ソブエコウサン,0
2150,8180002040382,登記記録の閉鎖等,0,2022-08-12,2022-08-04,有限会社トーカイプラン,,有限会社,愛知県,北名古屋市,片場都６番地１,,23,234,4810002,,,2022-08-04,清算の結了等,,,2015-10-05,1,,,,,トーカイプラン,0
2153,8180002070173,登記記録の閉鎖等,0,2022-08-12,2022-08-09,有限会社ユーシン食品,,有限会社,愛知県,小牧市,大字岩崎３２１番地,,23,219,4850011,,,2022-08-09,清算の結了等,,,2015-10-05,1,,,,,ユーシンショクヒン,0
2156,8180301023204,登記記録の閉鎖等,0,2022-08-12,2022-08-03,カネトク建設株式会社,,株式会社,愛知県,西尾市,一色町開正細工屋敷３６番地,,23,213,4440421,,,2022-08-03,清算の結了等,,,2015-10-05,1,,,,,カネトクケンセツ,0
2160,8180302026081,登記記録の閉鎖等,0,2022-08-12,2022-08-03,有限会社神取商店,,有限会社,愛知県,西尾市,岡島町郷東５７番地,,23,213,4450022,,,2022-08-03,清算の結了等,,,2015-10-05,1,,,,,カンドリショウテン,0
2170,8240002014000,登記記録の閉鎖等,0,2022-08-12,2022-08-08,有限会社ヒラトシ産業,,有限会社,広島県,広島市西区,己斐中３丁目５５番１６号,,34,104,7330813,,,2022-08-08,清算の結了等,,,2015-10-05,1,,,,,ヒラトシサンギョウ,0
2176,8250002007804,登記記録の閉鎖等,0,2022-08-12,2022-08-05,有限会社美東いきいきファーム,,有限会社,山口県,美祢市,美東町真名４５４番地の１,,35,213,7540122,,,2022-08-05,清算の結了等,,,2015-10-05,1,,,,,ミトウイキイキファーム,0
2196,8350001002795,登記記録の閉鎖等,0,2022-08-12,2022-08-10,株式会社サザンテック,,株式会社,宮崎県,宮崎市,大塚台西１丁目１番地３２セラヴィ大塚台２－５０４号,,45,201,8802105,,,2022-08-10,清算の結了等,,,2015-10-05,1,,,,,サザンテック,0
2200,8360002007231,登記記録の閉鎖等,0,2022-08-12,2022-08-01,有限会社シーズ,,有限会社,沖縄県,中頭郡西原町,字与那城１１５番地,,47,329,9030111,,,2022-08-01,清算の結了等,,,2015-10-05,1,,,,,,0
2203,8370002005077,登記記録の閉鎖等,0,2022-08-12,2022-08-08,有限会社日装工業,,有限会社,宮城県,仙台市若林区,石名坂１０番地の１,,04,103,9840063,,,2022-08-08,清算の結了等,,,2015-10-05,1,,,,,ニッソウコウギョウ,0
2204,8370003004994,登記記録の閉鎖等,0,2022-08-12,2022-08-08,合同会社オフィス山岸,,合同会社,宮城県,仙台市泉区,泉中央２丁目２５番地の２,,04,105,9813133,,,2022-08-08,清算の結了等,,,2020-11-13,1,,,,,オフィスヤマギシ,0
2222,8440002002091,登記記録の閉鎖等,0,2022-08-12,2022-08-04,有限会社下川部工業,,有限会社,北海道,函館市,時任町２８番２１号,,01,202,0400012,,,2022-08-04,清算の結了等,,,2015-10-05,1,,,,,シモカワベコウギョウ,0
2225,8480001010067,登記記録の閉鎖等,0,2022-08-12,2022-08-10,リッチ＆ユニークフーズ株式会社,,株式会社,徳島県,徳島市,川内町加賀須野９２３番地大塚製薬株式会社徳島第二工場敷地内,,36,201,7710130,,,2022-08-10,清算の結了等,,,2017-07-07,1,,,,,リッチアンドユニークフーズ,0
2239,9010001219464,登記記録の閉鎖等,0,2022-08-12,2022-08-02,株式会社犬猫工房,,株式会社,東京都,千代田区,九段南１丁目５番６号りそな九段ビル５階ＫＳフロア,,13,101,1020074,,,2022-08-02,清算の結了等,,,2021-07-08,1,,,,,イヌネココウボウ,0
2247,9010002040043,登記記録の閉鎖等,0,2022-08-12,2022-07-29,リテールスクウェアマネージメント有限会社,,有限会社,東京都,千代田区,丸の内２丁目２番３号丸の内仲通りビル６階,,13,101,1000005,,,2022-07-29,清算の結了等,,,2015-10-05,1,,,,,リテールスクウェアマネージメント,0
2272,9010701033990,登記記録の閉鎖等,0,2022-08-12,2022-08-10,ドコデモ株式会社,,株式会社,東京都,品川区,北品川１丁目９番７号トップルーム品川１０１５号,,13,109,1400001,,,2022-08-10,清算の結了等,,,2017-04-17,1,,,,,ドコデモ,0
2276,9010702015344,登記記録の閉鎖等,0,2022-08-12,2022-08-08,有限会社ミカド興業,,有限会社,東京都,品川区,八潮５丁目８番４４－２０５号,,13,109,1400003,,,2022-08-08,清算の結了等,,,2015-10-05,1,,,,,,0
2279,9010903004609,登記記録の閉鎖等,0,2022-08-12,2022-08-05,クロス合同会社,,合同会社,東京都,世田谷区,等々力８丁目１５番４－２０１号,,13,112,1580082,,,2022-08-05,清算の結了等,,,2018-10-25,1,,,,,クロス,0
2282,9011001023708,登記記録の閉鎖等,0,2022-08-12,2022-08-10,ユーエーイー株式会社,,株式会社,東京都,渋谷区,円山町２３番７号,,13,113,1500044,,,2022-08-10,清算の結了等,,,2015-10-05,1,,,,,ユーエーイー,0
2283,9011001071005,登記記録の閉鎖等,0,2022-08-12,2022-07-27,株式会社ユークリッド・ミュージックエンターテイメント,,株式会社,東京都,渋谷区,恵比寿２丁目１６番６号,,13,113,1500013,,,2022-07-27,清算の結了等,,,2015-10-05,1,,,,,ユークリッドミュージックエンターテイメント,0
2292,9011005003813,登記記録の閉鎖等,0,2022-08-12,2022-08-02,一般社団法人希望の牧場・ふくしま,,その他の設立登記法人,福島県,双葉郡浪江町,大字立野字春卯野１５７番地,,07,547,9791501,,,2022-08-02,清算の結了等,,,2015-10-05,1,,,,,キボウノボクジョウフクシマ,0
2303,9011801012397,登記記録の閉鎖等,0,2022-08-12,2022-08-09,株式会社源地所,,株式会社,東京都,足立区,関原２丁目１５番８号,,13,121,1230852,,,2022-08-09,清算の結了等,,,2015-10-05,1,,,,,ミナモトジショ,0
2354,9070002012144,登記記録の閉鎖等,0,2022-08-12,2022-08-01,有限会社丸九,,有限会社,群馬県,高崎市,下小鳥町７８５番地,,10,202,3700074,,,2022-08-01,清算の結了等,,,2015-10-05,1,,,,,マルキュウ,0
2355,9080001014594,登記記録の閉鎖等,0,2022-08-12,2022-08-08,株式会社ビッグストーン,,株式会社,静岡県,牧之原市,福岡１０７番地１,,22,226,4210521,,,2022-08-08,清算の結了等,,,2015-10-05,1,,,,,ビッグストーン,0
2365,9120001042112,登記記録の閉鎖等,0,2022-08-12,2022-08-08,株式会社岡田建築,,株式会社,大阪府,大阪市西区,九条南１丁目７番５号,,27,106,5500025,,,2022-08-08,清算の結了等,,,2015-10-05,1,,,,,オカダケンチク,0
2378,9120003012286,登記記録の閉鎖等,0,2022-08-12,2022-07-28,合同会社花こころ,,合同会社,大阪府,寝屋川市,高柳４丁目８－１６,,27,215,5720051,,,2022-07-28,清算の結了等,,,2016-12-22,1,,,,,ハナココロ,0
2387,9120105000206,登記記録の閉鎖等,0,2022-08-12,2022-08-08,医療法人頼整形外科クリニック,,その他の設立登記法人,大阪府,堺市北区,蔵前町３丁２番８号,,27,146,5918004,,,2022-08-08,清算の結了等,,,2015-10-05,1,,,,,ライセイケイゲカクリニック,0
2401,9140001114751,登記記録の閉鎖等,0,2022-08-12,2022-08-08,毅騰商事株式会社,,株式会社,兵庫県,加西市,中山町５１７番地の９,,28,220,6752343,,,2022-08-08,清算の結了等,,,2019-09-03,1,,,,,キトウショウジ,0
2407,9140005017653,登記記録の閉鎖等,0,2022-08-12,2022-08-08,小野太陽金物協同組合,,その他の設立登記法人,兵庫県,小野市,中町３３６番地,,28,218,6751332,,,2022-08-08,清算の結了等,,,2015-10-05,1,,,,,オノタイヨウカナモノ,0
2413,9180001021985,登記記録の閉鎖等,0,2022-08-12,2022-08-05,株式会社神野精機,,株式会社,愛知県,名古屋市熱田区,千年１丁目１６番３０号,,23,109,4560054,,,2022-08-05,合併による解散等,6180001022937,令和４年８月１日名古屋市中村区名駅南二丁目１３番４号名栄産業株式会社（6180001022937）に合併し解散,2015-10-05,1,,,,,ジンノセイキ,0
2445,9240002028932,登記記録の閉鎖等,0,2022-08-12,2022-08-10,有限会社ショーエイ,,有限会社,広島県,東広島市,高屋町造賀１１７２３番地１４,,34,212,7392101,,,2022-08-10,清算の結了等,,,2015-10-05,1,,,,,ショーエイ,0
2451,9250005002875,登記記録の閉鎖等,0,2022-08-12,2022-08-08,特定非営利活動法人青い芽会,,その他の設立登記法人,山口県,宇部市,大字東岐波４００４番地の２,,35,202,7550241,,,2022-08-08,清算の結了等,,,2015-10-05,1,,,,,アオイメカイ,0
2466,9300001010843,登記記録の閉鎖等,0,2022-08-12,2022-08-03,株式会社はやし,,株式会社,佐賀県,佐賀市,鍋島町大字森田２２０５番地,,41,201,8490936,,,2022-08-03,清算の結了等,,,2017-05-24,1,,,,,ハヤシ,0
2476,9330005001035,登記記録の閉鎖等,0,2022-08-12,2022-07-29,九州林業土木協同組合,,その他の設立登記法人,熊本県,熊本市中央区,京町本丁８番１７号,,43,101,8600081,,,2022-07-29,清算の結了等,,,2015-10-05,1,,,,,キュウシュウリンギョウドボク,0
2483,9350002011225,登記記録の閉鎖等,0,2022-08-12,2022-08-09,有限会社松枝酒店,,有限会社,宮崎県,東臼杵郡門川町,西栄町１丁目５番４号,,45,421,8890622,,,2022-08-09,清算の結了等,,,2015-10-05,1,,,,,マツエダサケテン,0
2492,9380002005645,登記記録の閉鎖等,0,2022-08-12,2022-08-03,有限会社氏家電機工業所,,有限会社,福島県,伊達郡川俣町,字瓦町１番地,,07,308,9601453,,,2022-08-03,清算の結了等,,,2015-10-05,1,,,,,ウジイエデンキコウギョウショ,0
2496,9430001043896,登記記録の閉鎖等,0,2022-08-12,2022-07-29,株式会社ひのまる電器,,株式会社,北海道,千歳市,末広５丁目１番１６号,,01,224,0660027,,,2022-07-29,清算の結了等,,,2015-10-05,1,,,,,ヒノマルデンキ,0
2504,9470002004472,登記記録の閉鎖等,0,2022-08-12,2022-08-09,有限会社田中鶏園,,有限会社,香川県,高松市,川島東町１１２番地１,,37,201,7610443,,,2022-08-09,清算の結了等,,,2015-10-05,1,,,,,タナカケイエン,0
