sequenceNumber,corporateNumber,process,correct,updateDate,changeDate,name,nameImageId,kind,prefectureName,cityName,streetNumber,addressImageId,prefectureCode,cityCode,postCode,addressOutside,addressOutsideImageId,closeDate,closeCause,successorCorporateNumber,changeCause,assignmentDate,latest,enName,enPrefectureName,enCityName,enAddressOutside,furigana,hihyoji
6,1010001243562,新規,0,2024-04-01,2024-04-01,株式会社Ｄｅｎｔａｌホールディングス,,株式会社,東京都,千代田区,丸の内３丁目４番１号新国際ビル６階,,13,101,1000005,,,,,,,2024-04-01,1,,,,,デンタルホールディングス,0
9,1010401180934,新規,0,2024-04-01,2024-04-01,株式会社Ｎｕｋａｒｉｙａ　Ｈｏｍｅ,,株式会社,東京都,港区,海岸３丁目８番１４－７０８号,,13,103,1080022,,,,,,,2024-04-01,1,,,,,ヌカリヤホーム,0
13,1010501052026,新規,0,2024-04-01,2024-04-01,株式会社森立,,株式会社,東京都,台東区,上野３丁目１９番１号３Ｆ,,13,106,1100005,,,,,,,2024-04-01,1,,,,,モリタチ,0
15,1010601064929,新規,0,2024-04-01,2024-04-01,株式会社エム・エル・シー,,株式会社,東京都,江東区,南砂１丁目２０番７号１階,,13,108,1360076,,,,,,,2024-04-01,1,,,,,エムエルシー,0
17,1010901054968,新規,0,2024-04-01,2024-04-01,株式会社Ｓ．Ｎ．Ｃ,,株式会社,東京都,世田谷区,宇奈根２丁目３番１９号,,13,112,1570068,,,,,,,2024-04-01,1,,,,,エスエヌシー,0
23,1011303005114,新規,0,2024-04-01,2024-04-01,Ｎｏａｈ’ｓ合同会社,,合同会社,東京都,杉並区,和泉３丁目９番８号,,13,115,1680063,,,,,,,2024-04-01,1,,,,,ノアーズ,0
25,1011403004321,新規,0,2024-04-01,2024-04-01,合同会社全田企画,,合同会社,東京都,板橋区,徳丸３丁目３番６号,,13,119,1750083,,,,,,,2024-04-01,1,,,,,ゼンダキカク,0
29,1013301052278,新規,0,2024-04-01,2024-04-01,大銭投資株式会社,,株式会社,東京都,豊島区,高松２丁目３４－３,,13,116,1710042,,,,,,,2024-04-01,1,,,,,ダイセントウシ,0
30,1013301052286,新規,0,2024-04-01,2024-04-01,豊潤株式会社,,株式会社,東京都,豊島区,東池袋１丁目３１－５池袋アビタシオン９０４,,13,116,1700013,,,,,,,2024-04-01,1,,,,,ホウジュン,0
31,1013303007073,新規,0,2024-04-01,2024-04-01,合同会社ＮＢＯ,,合同会社,東京都,豊島区,巣鴨１丁目１３－４スガモプラザＡ棟３階,,13,116,1700002,,,,,,,2024-04-01,1,,,,,エヌビーオー,0
33,1020005016336,新規,0,2024-04-01,2024-04-01,一般社団法人横浜イノベーション推進機構,,その他の設立登記法人,神奈川県,横浜市磯子区,中原４丁目１番３０号,,14,107,2350036,,,,,,,2024-04-01,1,,,,,ヨコハマイノベーションスイシンキコウ,0
42,1030001159501,新規,0,2024-04-01,2024-04-01,株式会社プライムランド,,株式会社,埼玉県,さいたま市大宮区,宮町２丁目５６番地２宮崎ビル６Ｆ,,11,103,3300802,,,,,,,2024-04-01,1,,,,,プライムランド,0
46,1030003023894,新規,0,2024-04-01,2024-04-01,合同会社ととのい,,合同会社,埼玉県,さいたま市浦和区,大原１丁目１２番１２号,,11,107,3300046,,,,,,,2024-04-01,1,,,,,トトノイ,0
47,1030003023911,新規,0,2024-04-01,2024-04-01,Ｌｏｔｕｓ合同会社,,合同会社,埼玉県,越谷市,南越谷４丁目１２番地７エクセル南越谷４０２,,11,222,3430845,,,,,,,2024-04-01,1,,,,,ロータス,0
50,1040001132861,新規,0,2024-04-01,2024-04-01,株式会社ヒデコバプランニング,,株式会社,千葉県,市川市,菅野２丁目２番１８号,,12,203,2720824,,,,,,,2024-04-01,1,,,,,ヒデコバプランニング,0
55,1040003024669,新規,0,2024-04-01,2024-04-01,アテンド・ケア・サービス合同会社,,合同会社,千葉県,船橋市,前原西３丁目１４番８号,,12,204,2740825,,,,,,,2024-04-01,1,,,,,アテンドケアサービス,0
56,1040003024677,新規,0,2024-04-01,2024-04-01,合同会社Ｋｒｏ,,合同会社,千葉県,千葉市中央区,新町１５番地５ＪＫ大友ビル１Ｆ,,12,101,2600028,,,,,,,2024-04-01,1,,,,,クロ,0
60,1060001036961,新規,0,2024-04-01,2024-04-01,株式会社ＪＩＮ,,株式会社,栃木県,宇都宮市,下小倉町５３７１番地,,09,201,3210403,,,,,,,2024-04-01,1,,,,,ジン,0
73,1120001160094,新規,0,2024-04-01,2024-04-01,新世住宅株式会社,,株式会社,大阪府,守口市,大日町２丁目１番４７号,,27,209,5700003,,,,,,,2024-04-01,1,,,,,シンセイジュウタク,0
78,1120001263599,新規,0,2024-04-01,2024-04-01,法医コンサルト株式会社,,株式会社,大阪府,大阪市中央区,南船場３丁目２番２２号おおきに南船場ビル２０５,,27,128,5420081,,,,,,,2024-04-01,1,,,,,ホウイコンサルト,0
79,1120001263640,新規,0,2024-04-01,2024-04-01,株式会社インムーブ,,株式会社,大阪府,大阪市北区,天満橋１丁目３番１７号ｔｏｒｉｏ天満橋ビル別館,,27,127,5300042,,,,,,,2024-04-01,1,,,,,インムーブ,0
80,1120001263657,新規,0,2024-04-01,2024-04-01,株式会社おむすび,,株式会社,大阪府,大阪市北区,堂山町１７番５号２Ｆ,,27,127,5300027,,,,,,,2024-04-01,1,,,,,オムスビ,0
81,1120001263665,新規,0,2024-04-01,2024-04-01,株式会社ＧＲＡＮＤ　ＢＬＵＥ,,株式会社,大阪府,大阪市中央区,東心斎橋２丁目７番３号７Ｆ,,27,128,5420083,,,,,,,2024-04-01,1,,,,,グランブル,0
82,1120001263673,新規,0,2024-04-01,2024-04-01,華案居株式会社,00134254,株式会社,大阪府,大阪市生野区,新今里６丁目５番７－３０５号,,27,116,5440001,,,,,,,2024-04-01,1,,,,,カアンキョ,0
83,1120001263698,新規,0,2024-04-01,2024-04-01,エスジェオロジスティクス株式会社,,株式会社,大阪府,大阪市中央区,平野町３丁目１番６－３０１号,,27,128,5410046,,,,,,,2024-04-01,1,,,,,エスジェオロジスティクス,0
88,1120003026260,新規,0,2024-04-01,2024-04-01,合同会社ＰｌａｎＢ,,合同会社,大阪府,大阪市北区,同心１丁目１番２２－７０７号,,27,127,5300035,,,,,,,2024-04-01,1,,,,,プランビー,0
89,1120003026269,新規,0,2024-04-01,2024-04-01,合同会社クレンズ,,合同会社,大阪府,大阪市北区,梅田１丁目２番２号大阪駅前第２ビル１２－１２,,27,127,5300001,,,,,,,2024-04-01,1,,,,,クレンズ,0
93,1122001037966,新規,0,2024-04-01,2024-04-01,株式会社ＭＭＫ,,株式会社,大阪府,東大阪市,森河内西２丁目８番１２号,,27,227,5770061,,,,,,,2024-04-01,1,,,,,エムエムケイ,0
110,1180001160766,新規,0,2024-04-01,2024-04-01,ｇｌａｎｒｉｒｅ株式会社,,株式会社,愛知県,名古屋市中区,栄１丁目１４番１４号,,23,106,4600008,,,,,,,2024-04-01,1,,,,,グランリール,0
115,1180003026560,新規,0,2024-04-01,2024-04-01,合同会社おでん,,合同会社,愛知県,名古屋市中村区,名駅４丁目２４番５号第２森ビル４０１,,23,105,4500002,,,,,,,2024-04-01,1,,,,,オデン,0
116,1180003026577,新規,0,2024-04-01,2024-04-01,合同会社オシゲン,,合同会社,愛知県,名古屋市中区,大井町１番２４号ヴィークタワー名古屋東別院２９０２号,,23,106,4600015,,,,,,,2024-04-01,1,,,,,オシゲン,0
144,1330005010778,新規,0,2024-04-01,2024-04-01,一般社団法人おいしく適塩推進協会,,その他の設立登記法人,熊本県,熊本市南区,富合町志々水４８番地１,,43,104,8614163,,,,,,,2024-04-01,1,,,,,,0
157,1430001091440,新規,0,2024-04-01,2024-04-01,室蘭産業株式会社,,株式会社,北海道,室蘭市,香川町２４番地１８,,01,205,0500052,,,,,,,2024-04-01,1,,,,,ムロランサンギョウ,0
160,1430003016156,新規,0,2024-04-01,2024-04-01,合同会社ＣＰＰ,,合同会社,北海道,札幌市中央区,北三条東１０丁目１２１番Ｂ１４０５,,01,101,0600033,,,,,,,2024-04-01,1,,,,,シーピーピー,0
164,1700150124675,新規,0,2024-04-01,2024-04-01,ＳＨＩＮＹ　ＴＲＡＤＩＮＧ,,外国会社等,茨城県,筑西市,宮後４９番地６９－１,,08,227,3004503,スリランカ民主社会主義共和国、ニカダルポタ、オトゥウェラ、ダンペレッサ,,,,,,2024-04-01,1,,,,,シニートレーデイング,0
169,2010003043324,新規,0,2024-04-01,2024-04-01,Ｓ‐Ｐｏｗｅｒ東北１合同会社,,合同会社,東京都,中央区,日本橋１丁目４番１号,,13,102,1030027,,,,,,,2024-04-01,1,,,,,エスパワートウホクイチ,0
180,2010403032281,新規,0,2024-04-01,2024-04-01,Ｈｏｒｉｚｏｎ　Ｇｌｏｂａｌ　Ｐａｒｔｎｅｒｓ合同会社,,合同会社,東京都,港区,元麻布３丁目１番６号,,13,103,1060046,,,,,,,2024-04-01,1,,,,,ホライズングローバルパートナーズ,0
188,2010703007108,新規,0,2024-04-01,2024-04-01,サウスカンパニー合同会社,,合同会社,東京都,品川区,上大崎１丁目２３－１－２０３,,13,109,1410021,,,,,,,2024-04-01,1,,,,,サウスカンパニー,0
190,2010903008938,新規,0,2024-04-01,2024-04-01,サルー合同会社,,合同会社,東京都,世田谷区,新町２丁目６番１６号リヴェール桜新町４０１,,13,112,1540014,,,,,,,2024-04-01,1,,,,,サルー,0
196,2011101106724,新規,0,2024-04-01,2024-04-01,株式会社ｗａｙｗａｙ,,株式会社,東京都,新宿区,新宿１丁目２４番１号大塚ビル２階,00134257,13,104,1600022,,,,,,,2024-04-01,1,,,,,ウェイウェイ,0
197,2011101106740,新規,0,2024-04-01,2024-04-01,株式会社テセウス,,株式会社,東京都,新宿区,新宿３丁目１２番４号,,13,104,1600022,,,,,,,2024-04-01,1,,,,,テセウス,0
198,2011101106749,新規,0,2024-04-01,2024-04-01,ＧＰＺ株式会社,,株式会社,東京都,新宿区,上落合３丁目３番５号微光ハウス１０４,,13,104,1610034,,,,,,,2024-04-01,1,,,,,ジーピーゼット,0
199,2011101106757,新規,0,2024-04-01,2024-04-01,株式会社Ｉｎｔｅｇｏ,,株式会社,東京都,新宿区,西新宿３丁目３番１３号西新宿水間ビル６階,,13,104,1600023,,,,,,,2024-04-01,1,,,,,インテゴ,0
203,2011401025970,新規,0,2024-04-01,2024-04-01,株式会社エヌタス,,株式会社,東京都,板橋区,相生町１番１３－３１０号,,13,119,1740044,,,,,,,2024-04-01,1,,,,,エヌタス,0
206,2011501030490,新規,0,2024-04-01,2024-04-01,尚智株式会社,,株式会社,東京都,荒川区,町屋２丁目１６－８イイダマンション１０１,,13,118,1160001,,,,,,,2024-04-01,1,,,,,ナオチ,0
222,2021001081769,新規,0,2024-04-01,2024-04-01,Ｙｏｕ株式会社,,株式会社,神奈川県,藤沢市,辻堂太平台１丁目１７番２３号モリエム太平台２０３,,14,205,2510044,,,,,,,2024-04-01,1,,,,,ユー,0
223,2021001081827,新規,0,2024-04-01,2024-04-01,ケージー・シャイナーズ・テック株式会社,,株式会社,神奈川県,藤沢市,善行坂２丁目９番４１号,,14,205,2510876,,,,,,,2024-04-01,1,,,,,ケージーシャイナーズテック,0
228,2030001159500,新規,0,2024-04-01,2024-04-01,株式会社未曾有,,株式会社,埼玉県,川越市,石原町２丁目６－１３,,11,201,3500824,,,,,,,2024-04-01,1,,,,,ミゾウ,0
229,2030001159509,新規,0,2024-04-01,2024-04-01,株式会社ＳＥＮＳＥ,,株式会社,埼玉県,川口市,芝中田２丁目６番２７号,,11,203,3330847,,,,,,,2024-04-01,1,,,,,センス,0
230,2030001159517,新規,0,2024-04-01,2024-04-01,株式会社ＪＹ美喜,,株式会社,埼玉県,白岡市,高岩２０３４番地３,,11,246,3490213,,,,,,,2024-04-01,1,,,,,ジェイワイミキ,0
231,2030001159525,新規,0,2024-04-01,2024-04-01,株式会社日新商事,,株式会社,埼玉県,幸手市,大字惣新田字東川７３５,,11,240,3400133,,,,,,,2024-04-01,1,,,,,ニッシンショウジ,0
232,2030001159533,新規,0,2024-04-01,2024-04-01,株式会社ＫＣＭ運送,,株式会社,埼玉県,草加市,青柳８丁目２４番２７号プリュムベル１０１号,,11,221,3400002,,,,,,,2024-04-01,1,,,,,ケーシーエムウンソウ,0
244,2040003024676,新規,0,2024-04-01,2024-04-01,ＡＴ合同会社,,合同会社,千葉県,船橋市,芝山２丁目５番７棟４０１号,,12,204,2740816,,,,,,,2024-04-01,1,,,,,エーティー,0
251,2050001054534,新規,0,2024-04-01,2024-04-01,株式会社住まいりー,,株式会社,茨城県,常陸大宮市,八田２１４番地１,,08,225,3192221,,,,,,,2024-04-01,1,,,,,スマイリー,0
254,2060001036960,新規,0,2024-04-01,2024-04-01,株式会社ニトエル,,株式会社,栃木県,栃木市,岩舟町静戸３４９番地２,,09,203,3294305,,,,,,,2024-04-01,1,,,,,ニトエル,0
258,2070003005335,新規,0,2024-04-01,2024-04-01,合同会社中原牧場,,合同会社,群馬県,吾妻郡長野原町,大字北軽井沢１３５３番地４０,,10,424,3771412,,,,,,,2024-04-01,1,,,,,ナカハラボクジョウ,0
260,2080003003164,新規,0,2024-04-01,2024-04-01,ｍｏｉｍｏｉ合同会社,,合同会社,静岡県,静岡市駿河区,西脇１１番地の１－２階,,22,102,4228044,,,,,,,2024-04-01,1,,,,,モイモイ,0
265,2100001037319,新規,0,2024-04-01,2024-04-01,アクセラレート株式会社,,株式会社,長野県,塩尻市,大字片丘１１０２８番地７,,20,215,3990711,,,,,,,2024-04-01,1,,,,,アクセラレート,0
277,2120001263573,新規,0,2024-04-01,2024-04-01,ＳＫＹ　ＨＯＭＥ株式会社,,株式会社,大阪府,大阪市浪速区,難波中３丁目１４－５新日本難波ビル２０号室,,27,111,5560011,,,,,,,2024-04-01,1,,,,,スカイホーム,0
278,2120001263631,新規,0,2024-04-01,2024-04-01,Ｓｔｕｄｉｏ　Ｅｓｃａｐｅ株式会社,,株式会社,大阪府,大阪市西成区,千本北２丁目３１番１５号,,27,122,5570053,,,,,,,2024-04-01,1,,,,,スタジオエスケープ,0
279,2120001263664,新規,0,2024-04-01,2024-04-01,遠洲貿易株式会社,,株式会社,大阪府,大阪市淀川区,木川西４丁目１番１６号２０６号室,,27,123,5320013,,,,,,,2024-04-01,1,,,,,エンシュウボウエキ,0
285,2130005017041,新規,0,2024-04-01,2024-04-01,一般社団法人５２Ｈｚ,,その他の設立登記法人,京都府,京都市下京区,七条通油小路東入大黒町２２７番地第２キョートビル４０２,,26,106,6008223,,,,,,,2024-04-01,1,,,,,ゴジュウニヘルツ,0
288,2140001133873,新規,0,2024-04-01,2024-04-01,Ｅｎｎｓｐｏｒ株式会社,,株式会社,兵庫県,神戸市中央区,山本通２丁目１４番２０号,,28,110,6500003,,,,,,,2024-04-01,1,,,,,エンスポ,0
289,2140001133898,新規,0,2024-04-01,2024-04-01,カホネス株式会社,,株式会社,兵庫県,神戸市東灘区,向洋町中５丁目６番地の１、１３２５号,,28,101,6580032,,,,,,,2024-04-01,1,,,,,カホネス,0
296,2180001160575,新規,0,2024-04-01,2024-04-01,株式会社ライフサポート,,株式会社,愛知県,名古屋市南区,内田橋１丁目３３－１７,,23,112,4570862,,,,,,,2024-04-01,1,,,,,ライフサポート,0
297,2180001160757,新規,0,2024-04-01,2024-04-01,株式会社ｎｕｍｂｅｒ３ｐｌｕｓ,,株式会社,愛知県,一宮市,大和町戸塚字東浦３９,,23,203,4910927,,,,,,,2024-04-01,1,,,,,ナンバースリープラス,0
299,2180003026551,新規,0,2024-04-01,2024-04-01,白山合同会社,,合同会社,愛知県,名古屋市天白区,八事山５６４－１０１号室,,23,116,4680077,,,,,,,2024-04-01,1,,,,,シラヤマ,0
306,2230001020261,新規,0,2024-04-01,2024-04-01,株式会社イーアールシー建設,,株式会社,富山県,射水市,入会地字東笹鎌野２番地１,,16,211,9390321,,,,,,,2024-04-01,1,,,,,イーアールシーケンセツ,0
308,2240001063020,新規,0,2024-04-01,2024-04-01,株式会社ＭａｖｅｒｉＸ,,株式会社,広島県,広島市南区,猿猴橋町６－２宏和１９（２階）,,34,103,7320823,,,,,,,2024-04-01,1,,,,,マーベリクス,0
314,2260001038904,新規,0,2024-04-01,2024-04-01,株式会社川上食品,,株式会社,岡山県,岡山市南区,浜野４丁目１９番２０号,,33,104,7000845,,,,,,,2024-04-01,1,,,,,カワカミショクヒン,0
317,2260003004631,新規,0,2024-04-01,2024-04-01,ＯＭＳ合同会社,,合同会社,岡山県,倉敷市,中畝８丁目１２番地５号,,33,202,7128051,,,,,,,2024-04-01,1,,,,,オーエムエス,0
318,2280001009135,新規,0,2024-04-01,2024-04-01,株式会社萬屋,,株式会社,島根県,浜田市,田町５番地１,,32,202,6970026,,,,,,,2024-04-01,1,,,,,ヨロズヤ,0
321,2290005019336,新規,0,2024-04-01,2024-04-01,一般社団法人福岡アートブックフェア,,その他の設立登記法人,福岡県,福岡市中央区,薬院３丁目７番１５号,,40,133,8100022,,,,,,,2024-04-01,1,,,,,フクオカアートブックフェア,0
323,2320001020384,新規,0,2024-04-01,2024-04-01,株式会社種子島クリエイト,,株式会社,大分県,大分市,花津留２丁目１７２番,,44,201,8700933,,,,,,,2024-04-01,1,,,,,タネガシマクリエイト,0
326,2330003010291,新規,0,2024-04-01,2024-04-01,合同会社犬童,,合同会社,熊本県,球磨郡山江村,大字山田甲１４３６番地,,43,512,8680092,,,,,,,2024-04-01,1,,,,,インドウ,0
336,2430003016147,新規,0,2024-04-01,2024-04-01,合同会社ＣＨＩＴＯＳＥ,,合同会社,北海道,千歳市,清水町２丁目１９－３階,,01,224,0660041,,,,,,,2024-04-01,1,,,,,チトセ,0
337,2430003016155,新規,0,2024-04-01,2024-04-01,合同会社ＡＬＴＥＺＺＡ,,合同会社,北海道,札幌市北区,北三十二条西５丁目３番１２－２０２号,,01,102,0010032,,,,,,,2024-04-01,1,,,,,アルテッツァ,0
339,2500001025539,新規,0,2024-04-01,2024-04-01,株式会社ｅｘｉｔ‐ｎｏｖａ,,株式会社,愛媛県,松山市,南堀端町５番地１０清水ビル２Ｆ,,38,201,7900006,,,,,,,2024-04-01,1,,,,,イグジットノヴァ,0
341,2700150124674,新規,0,2024-04-01,2024-04-01,Ｍ．Ｊ．Ｃ．Ｅｎｔｅｒｐｒｉｓｅｓ,,外国会社等,神奈川県,横浜市戸塚区,下倉田町５６８番地１,,14,110,2440815,スリランカ民主社会主義共和国、Ｎｏ．４２５Ｃ、ネドゥナ、ラナシンガロード、ガネムラ,,,,,,2024-04-01,1,,,,,エムジエーシーエンタープライズ,0
354,3010005038098,新規,0,2024-04-01,2024-04-01,一般社団法人あすなろ,,その他の設立登記法人,東京都,中央区,銀座８丁目１０番８号銀座八丁目１０番ビル５階Ｃ３室,,13,102,1040061,,,,,,,2024-04-01,1,,,,,アスナロ,0
359,3010401181195,新規,0,2024-04-01,2024-04-01,株式会社ＡｒｃｈＲｉｓｅ,,株式会社,東京都,港区,南青山３丁目１番３６号青山丸竹ビル６Ｆ,,13,103,1070062,,,,,,,2024-04-01,1,,,,,アーチライズ,0
362,3010403032140,新規,0,2024-04-01,2024-04-01,合同会社高木,,合同会社,東京都,港区,高輪２丁目１５番３４－２１１号,,13,103,1080074,,,,,,,2024-04-01,1,,,,,タカギ,0
365,3010601064919,新規,0,2024-04-01,2024-04-01,株式会社ＮＰＡ　Ｉｎｔｅｒｎａｔｉｏｎａｌ,,株式会社,東京都,江東区,亀戸５丁目３７番６号ジャスティー亀戸ｂ３０１,,13,108,1360071,,,,,,,2024-04-01,1,,,,,エヌピーエーインターナショナル,0
366,3010601064927,新規,0,2024-04-01,2024-04-01,ＡＩＳ株式会社,,株式会社,東京都,江東区,大島７丁目４０－２,,13,108,1360072,,,,,,,2024-04-01,1,,,,,エイアイエス,0
369,3010701045777,新規,0,2024-04-01,2024-04-01,ｓｐｉｃｅ株式会社,,株式会社,東京都,品川区,豊町６丁目１０番４号エスプラナード２０７,,13,109,1420042,,,,,,,2024-04-01,1,,,,,スパイス,0
374,3010901054982,新規,0,2024-04-01,2024-04-01,株式会社Ｂｏｎｄｅａｔ,,株式会社,東京都,世田谷区,駒沢４丁目２３－１８,,13,112,1540012,,,,,,,2024-04-01,1,,,,,ボニート,0
376,3011003018661,新規,0,2024-04-01,2024-04-01,特殊清掃合同会社,,合同会社,東京都,渋谷区,道玄坂１丁目１０番８号渋谷道玄坂東急ビル,,13,113,1500043,,,,,,,2024-04-01,1,,,,,トクシュセイソウ,0
379,3011101106772,新規,0,2024-04-01,2024-04-01,マネーフロッグ株式会社,,株式会社,東京都,新宿区,西新宿６丁目５番１号新宿アイランドタワー２階,,13,104,1600023,,,,,,,2024-04-01,1,,,,,マネーフロッグ,0
387,3011803006139,新規,0,2024-04-01,2024-04-01,合同会社Ｇｏｌｄｅｎ　ｗｉｎｇ,,合同会社,東京都,足立区,皿沼２丁目４－１０,,13,121,1230862,,,,,,,2024-04-01,1,,,,,ゴールデンウィング,0
403,3021001081826,新規,0,2024-04-01,2024-04-01,Ｄａｉｔｏｈ株式会社,,株式会社,神奈川県,小田原市,城山２丁目２番４５号,,14,206,2500045,,,,,,,2024-04-01,1,,,,,ダイトー,0
412,3030001159499,新規,0,2024-04-01,2024-04-01,株式会社ＳＡＷＭ　ＴＲＡＤＩＮＧ,,株式会社,埼玉県,川口市,大字木曽呂６１３番地の７,,11,203,3330831,,,,,,,2024-04-01,1,,,,,サウムトレーディング,0
413,3030001159524,新規,0,2024-04-01,2024-04-01,株式会社５２度,,株式会社,埼玉県,本庄市,東台２丁目３－１ＫＲＳ本庄ビル１Ｆ,,11,211,3670021,,,,,,,2024-04-01,1,,,,,ゴジュウニド,0
422,3050001054533,新規,0,2024-04-01,2024-04-01,株式会社Ｓｈｉｏｎ,,株式会社,茨城県,水戸市,石川３丁目４１７６番５号タキエビル３Ｆ,,08,201,3100905,,,,,,,2024-04-01,1,,,,,シオン,0
423,3050001054541,新規,0,2024-04-01,2024-04-01,海港投資株式会社,,株式会社,茨城県,下妻市,坂本新田３５番１６,,08,210,3040024,,,,,,,2024-04-01,1,,,,,カイコウトウシ,0
429,3080405007621,新規,0,2024-04-01,2024-04-01,ＫＥＥＰ企業組合,,その他の設立登記法人,静岡県,浜松市中央区,篠原町２１４４０番地の３,,22,138,4310201,,,,,,,2024-04-01,1,,,,,キープ,0
435,3120001263465,新規,0,2024-04-01,2024-04-01,ＥＸＴａｋｅ　ａｕｔｏｍａｔｉｏｎ株式会社,,株式会社,大阪府,大阪市淀川区,西中島７丁目１－２９,,27,123,5320011,,,,,,,2024-04-01,1,,,,,エクステイクオートメーション,0
436,3120001263523,新規,0,2024-04-01,2024-04-01,東菱株式会社,,株式会社,大阪府,大阪市中央区,千日前１丁目５番１９号－１００３号室,,27,128,5420074,,,,,,,2024-04-01,1,,,,,トウビシ,0
437,3120001263606,新規,0,2024-04-01,2024-04-01,聯盟兄弟株式会社,,株式会社,大阪府,大阪市西成区,天下茶屋１丁目１０－７,,27,122,5570014,,,,,,,2024-04-01,1,,,,,レンメイキョウダイ,0
438,3120001263655,新規,0,2024-04-01,2024-04-01,弘信資本株式会社,,株式会社,大阪府,大阪市中央区,道頓堀１丁目東５番１０号４階,,27,128,5420071,,,,,,,2024-04-01,1,,,,,コウシンキャピタル,0
451,3140003020326,新規,0,2024-04-01,2024-04-01,合同会社セカンド,,合同会社,兵庫県,明石市,二見町福里５０８番地１４,,28,203,6740091,,,,,,,2024-04-01,1,,,,,,0
452,3140003020359,新規,0,2024-04-01,2024-04-01,しあわせエステート合同会社,,合同会社,兵庫県,神戸市長田区,鶯町２丁目１番３６号,,28,106,6530871,,,,,,,2024-04-01,1,,,,,シアワセエステート,0
459,3180003026550,新規,0,2024-04-01,2024-04-01,ＡＡＲＯＨＩ　ＣＯＲＰＯＲＡＴＩＯＮ合同会社,,合同会社,愛知県,名古屋市中村区,太閤３丁目７番５４号ピースフル重原１階西側,,23,105,4530801,,,,,,,2024-04-01,1,,,,,アロヒコーポレーション,0
462,3180303006062,新規,0,2024-04-01,2024-04-01,ｗｉｔｈ　ｌｉｎｋ合同会社,,合同会社,愛知県,岡崎市,大門３丁目２１番地３,,23,202,4442135,,,,,,,2024-04-01,1,,,,,ウィズリンク,0
464,3200003006285,新規,0,2024-04-01,2024-04-01,合同会社ＦＭＫ,,合同会社,岐阜県,恵那市,岩村町富田５０５番地,,21,210,5097402,,,,,,,2024-04-01,1,,,,,エフエムケー,0
466,3230001020269,新規,0,2024-04-01,2024-04-01,シテン株式会社,,株式会社,富山県,射水市,西高木７９５番地,,16,211,9390303,,,,,,,2024-04-01,1,,,,,シテン,0
476,3290003015121,新規,0,2024-04-01,2024-04-01,合同会社電宏,,合同会社,福岡県,福岡市南区,老司１丁目１７番１１号,,40,134,8111346,,,,,,,2024-04-01,1,,,,,デンコウ,0
478,3290801030437,新規,0,2024-04-01,2024-04-01,株式会社坂本建設,,株式会社,福岡県,北九州市門司区,大久保２丁目５番７－２号,,40,101,8010883,,,,,,,2024-04-01,1,,,,,サカモトケンセツ,0
485,3360001033415,新規,0,2024-04-01,2024-04-01,仁智株式会社,,株式会社,沖縄県,那覇市,字国場１０００番地３カンセイホーム国場５－Ｃ号室,,47,201,9020075,,,,,,,2024-04-01,1,,,,,ヨシトモ,0
493,3430003016071,新規,0,2024-04-01,2024-04-01,合同会社ＧｌｏｂａｌＣｏｎｃｉｅｒｇｅＭｉｍｉｃｏ,,合同会社,北海道,虻田郡倶知安町,北七条東１丁目１１‐７レトアデュエット倶知安Ｃ１０１号,,01,400,0440007,,,,,,,2024-04-01,1,,,,,グローバルコンシェルジュミミコ,0
494,3700150124673,新規,0,2024-04-01,2024-04-01,肇慶市明精日五金貿易有限公司,,外国会社等,秋田県,湯沢市,三梨町字下猿城３６番地１,,05,207,0120106,中国肇慶市高要区金利鎮小洲社区小洲衛生所西南側６００米（金利鎮小洲社区軍屯二経済合作社場房之三）,,,,,,2024-04-01,1,,,,,ゾケイシメイセイニチゴキンボウエキユウゲンコウシ,0
497,4010001243428,新規,0,2024-04-01,2024-04-01,株式会社Ｐｅｒｓｏｎａｌｉｔｙ,,株式会社,東京都,文京区,本郷５丁目１番１１号ＫＩＩＨＯＵＳＥ２０２,,13,105,1130033,,,,,,,2024-04-01,1,,,,,パーソナリティ,0
499,4010005038097,新規,0,2024-04-01,2024-04-01,一般社団法人リフォーム適正価格調査協会,,その他の設立登記法人,東京都,中央区,日本橋人形町３丁目６番６号青山ビル３Ｆ,,13,102,1030013,,,,,,,2024-04-01,1,,,,,リフォームテキセイカカクチョウサキョウカイ,0
511,4011103014287,新規,0,2024-04-01,2024-04-01,合同会社Ｎ．Ｃｒｅａｔｅ,,合同会社,東京都,新宿区,西新宿３丁目３番１３号西新宿水間ビル６階,,13,104,1600023,,,,,,,2024-04-01,1,,,,,エヌクリエイト,0
513,4011201025368,新規,0,2024-04-01,2024-04-01,株式会社Ｆｏｏｄｕｒ,,株式会社,東京都,中野区,野方５丁目３０番７号,,13,114,1650027,,,,,,,2024-04-01,1,,,,,フードゥア,0
521,4013301052267,新規,0,2024-04-01,2024-04-01,株式会社ＶＨＩ　Ｊａｐａｎ,,株式会社,東京都,豊島区,西巣鴨１丁目２番２２号ＷＡＮＤＡビル２階,,13,116,1700001,,,,,,,2024-04-01,1,,,,,ブイエイチアイジャパン,0
525,4020001156496,新規,0,2024-04-01,2024-04-01,株式会社ファーマシーボ,,株式会社,神奈川県,横浜市青葉区,あざみ野２丁目１２番地４,,14,117,2250011,,,,,,,2024-04-01,1,,,,,ファーマシーボ,0
529,4021001081825,新規,0,2024-04-01,2024-04-01,株式会社ヒカリ,,株式会社,神奈川県,藤沢市,城南５丁目４番３１号グリンハイツ２０２,,14,205,2510057,,,,,,,2024-04-01,1,,,,,ヒカリ,0
536,4030003023917,新規,0,2024-04-01,2024-04-01,合同会社八兵衛,,合同会社,埼玉県,さいたま市見沼区,大字片柳１２５８番地１,,11,104,3370024,,,,,,,2024-04-01,1,,,,,ハチベエ,0
544,4050001054532,新規,0,2024-04-01,2024-04-01,株式会社タキサン,,株式会社,茨城県,古河市,東本町２丁目１６番８号,,08,204,3060013,,,,,,,2024-04-01,1,,,,,タキサン,0
545,4050001054540,新規,0,2024-04-01,2024-04-01,株式会社Ｓｏｗｅｌｕ,,株式会社,茨城県,土浦市,おおつ野８丁目６番２３号,,08,203,3000028,,,,,,,2024-04-01,1,,,,,ソエル,0
548,4060001036959,新規,0,2024-04-01,2024-04-01,株式会社アールエーアイ,,株式会社,栃木県,塩谷郡塩谷町,大字大久保９１５番地１０,,09,384,3292334,,,,,,,2024-04-01,1,,,,,アールエーアイ,0
561,4110003005345,新規,0,2024-04-01,2024-04-01,合同会社カモビス,,合同会社,新潟県,上越市,本町４丁目１番７号,,15,222,9430832,,,,,,,2024-04-01,1,,,,,カモビス,0
576,4120001263522,新規,0,2024-04-01,2024-04-01,株式会社ＯＧ‐ＴＥＣＨ,,株式会社,大阪府,交野市,妙見東４丁目１１番１号,,27,230,5760012,,,,,,,2024-04-01,1,,,,,オージーテック,0
577,4120001263596,新規,0,2024-04-01,2024-04-01,株式会社ＰＨＯ　ＶＩＥＴ,,株式会社,大阪府,大阪市生野区,勝山北５丁目４番１３号,,27,116,5440033,,,,,,,2024-04-01,1,,,,,フォーヴェット,0
578,4120001263621,新規,0,2024-04-01,2024-04-01,株式会社ＴＡＭＡＫＩホールディングス,,株式会社,大阪府,大阪市北区,梅田１丁目１番３－２４０７号,,27,127,5300001,,,,,,,2024-04-01,1,,,,,タマキホールディングス,0
579,4120001263670,新規,0,2024-04-01,2024-04-01,株式会社ＰＲＯＭＰＴ,,株式会社,大阪府,大阪市北区,曾根崎２丁目３－５梅新第一生命ビルディング３階,,27,127,5300057,,,,,,,2024-04-01,1,,,,,プロンプト,0
583,4120101069316,新規,0,2024-04-01,2024-04-01,株式会社オーク・トラスト,,株式会社,大阪府,貝塚市,木積１９９４番地９,,27,208,5970102,,,,,,,2024-04-01,1,,,,,オークトラスト,0
591,4140001133896,新規,0,2024-04-01,2024-04-01,株式会社ＭＩＲＡＩホールディングス,,株式会社,兵庫県,宝塚市,売布２丁目３番１６号,,28,214,6650852,,,,,,,2024-04-01,1,,,,,ミライホールディングス,0
593,4150005009571,新規,0,2024-04-01,2024-04-01,一般社団法人ＭＯＮＴＥ　ＩＫＯＭＡ,,その他の設立登記法人,奈良県,生駒市,高山町７３４７番地,,29,209,6300101,,,,,,,2024-04-01,1,,,,,モンテイコマ,0
594,4170001018070,新規,0,2024-04-01,2024-04-01,株式会社プレステージ東高松管理サービス,,株式会社,和歌山県,和歌山市,東高松４丁目６番２２ー１０１号,,30,201,6410052,,,,,,,2024-04-01,1,,,,,プレステージヒガシタカマツカンリサービス,0
598,4180001160788,新規,0,2024-04-01,2024-04-01,株式会社メディアサポートコンセーギ,,株式会社,愛知県,名古屋市中区,千代田５丁目１０番１６号（ナチュレ一幸Ｉ７０２号）,00134249,23,106,4600012,,,,,,,2024-04-01,1,,,,,メディアサポートコンセーギ,0
600,4180003026566,新規,0,2024-04-01,2024-04-01,ＮＥＷ　ＳＱＵＡＲＥ合同会社,,合同会社,愛知県,名古屋市名東区,藤見が丘３０藤見ヶ丘ＡＳビル２Ｅ,,23,115,4650048,,,,,,,2024-04-01,1,,,,,ニュースクエア,0
601,4180003026582,新規,0,2024-04-01,2024-04-01,合同会社ｃａｒｅｅｒ　ｒａｉｎｂｏｗ,,合同会社,愛知県,名古屋市昭和区,滝川町４７番地の１４７サザンヒル八事１号棟８０７号,,23,107,4660826,,,,,,,2024-04-01,1,,,,,キャリアレインボー,0
604,4180303006061,新規,0,2024-04-01,2024-04-01,合同会社Ｆｕｒａｍｏ,,合同会社,愛知県,豊川市,為当町椎木１６０番地,,23,207,4420845,,,,,,,2024-04-01,1,,,,,フラモ,0
607,4220003003692,新規,0,2024-04-01,2024-04-01,合同会社ヒップマネジメント,,合同会社,石川県,河北郡津幡町,字能瀬ハ８２‐４‐２０１,,17,361,9290319,,,,,,,2024-04-01,1,,,,,ヒップマネジメント,0
619,4290001105195,新規,0,2024-04-01,2024-04-01,株式会社ＡＲＧＨＡ,,株式会社,福岡県,福岡市東区,雁の巣２丁目２８番１号,,40,131,8110206,,,,,,,2024-04-01,1,,,,,アルガ,0
621,4290005019334,新規,0,2024-04-01,2024-04-01,医療法人ベル会,,その他の設立登記法人,福岡県,福岡市早良区,小田部７丁目１６番１号,,40,137,8140032,,,,,,,2024-04-01,1,,,,,ベルカイ,0
623,4290805009724,新規,0,2024-04-01,2024-04-01,一般社団法人北九州ソーシャルワーク研究所,,その他の設立登記法人,福岡県,北九州市八幡西区,岸の浦２丁目４番５４号テラフィオーレ１０１号室,,40,109,8060034,,,,,,,2024-04-01,1,,,,,キタキュウシュウソーシャルワークケンキュウショ,0
630,4370001051118,新規,0,2024-04-01,2024-04-01,株式会社ライフ・デザイン,,株式会社,宮城県,塩竈市,舟入２丁目１番５５号,,04,203,9850014,,,,,,,2024-04-01,1,,,,,ライフデザイン,0
634,4380001034393,新規,0,2024-04-01,2024-04-01,ハーレストレーディング株式会社,,株式会社,福島県,伊達郡川俣町,山木屋字古後山１番地の２,,07,308,9601501,,,,,,,2024-04-01,1,,,,,ハーレストレーディング,0
641,4430001091413,新規,0,2024-04-01,2024-04-01,株式会社佐藤ペイント,,株式会社,北海道,浦河郡浦河町,大通５丁目１２４番地,,01,607,0570013,,,,,,,2024-04-01,1,,,,,サトウペイント,0
642,4430001091421,新規,0,2024-04-01,2024-04-01,株式会社タケダ,,株式会社,北海道,札幌市白石区,平和通９丁目北５番９号,,01,104,0030029,,,,,,,2024-04-01,1,,,,,タケダ,0
644,4430003016153,新規,0,2024-04-01,2024-04-01,合同会社ＳＴ,,合同会社,北海道,札幌市中央区,南二条西３丁目１３‐４カタオカビル３Ｆ,,01,101,0600062,,,,,,,2024-04-01,1,,,,,エスティー,0
645,4700150124672,新規,0,2024-04-01,2024-04-01,ＳｋｙＷａｌｋｅｒＹａｃｈｔＲｅｎｔａｌ,,外国会社等,大阪府,大阪市中央区,島之内２丁目３番１０－４０２号,,27,128,5420082,アラブ首長国連邦、ドバイ、マリーナプラザ、オフィス１００２,,,,,,2024-04-01,1,,,,,スカイウオーカーヨツトレンタル,0
654,5010001243501,新規,0,2024-04-01,2024-04-01,株式会社Ｔｈｉｎｋ１,,株式会社,東京都,中央区,銀座７丁目１４－１４ＧＩＮＺＡ７ビル３Ｆ,,13,102,1040061,,,,,,,2024-04-01,1,,,,,シンクワン,0
662,5010403032287,新規,0,2024-04-01,2024-04-01,Ｊｏｙ　Ｄｙｎａｍｉｃｓ合同会社,,合同会社,東京都,港区,白金台３丁目１０番１０号,,13,103,1080071,,,,,,,2024-04-01,1,,,,,ジョイダイナミクス,0
663,5010403032295,新規,0,2024-04-01,2024-04-01,Ｋｒｙｓｔａｌ　Ｂｉｏｔｅｃｈ　Ｊａｐａｎ合同会社,,合同会社,東京都,港区,虎ノ門４丁目１番１号神谷町トラストタワー２３階,,13,103,1050001,,,,,,,2024-04-01,1,,,,,クリスタルバイオテックジャパン,0
664,5010403032312,新規,0,2024-04-01,2024-04-01,みらいソーラーネクスト合同会社,,合同会社,東京都,港区,西新橋１丁目１８番地１７明産西新橋ビル３Ｆ,,13,103,1050003,,,,,,,2024-04-01,1,,,,,ミライソーラーネクスト,0
673,5011203004336,新規,0,2024-04-01,2024-04-01,合同会社ｉｔｅｒ,,合同会社,東京都,中野区,若宮３丁目１２番４号,,13,114,1650033,,,,,,,2024-04-01,1,,,,,イーテル,0
678,5011603004290,新規,0,2024-04-01,2024-04-01,合同会社Ｋｏｍｏｒｅｂｉ,,合同会社,東京都,練馬区,練馬１丁目２０番８号日建練馬ビル２Ｆ,,13,120,1760001,,,,,,,2024-04-01,1,,,,,コモレビ,0
681,5012803003347,新規,0,2024-04-01,2024-04-01,ＮＥＫＫ　ｓｏｆｔ合同会社,,合同会社,東京都,日野市,程久保６丁目７番４号,,13,212,1910042,,,,,,,2024-04-01,1,,,,,ネックソフト,0
685,5020001156504,新規,0,2024-04-01,2024-04-01,楚興株式会社,,株式会社,神奈川県,横浜市中区,本牧町２丁目３０４加藤ビル３０２Ｃ号室,,14,104,2310806,,,,,,,2024-04-01,1,,,,,ソコウ,0
690,5021003014328,新規,0,2024-04-01,2024-04-01,合同会社レバレッジ・ライフ,,合同会社,神奈川県,藤沢市,大鋸１２１９－１ＦｕｊｉｓａｗａＳａｋｕｒａＲｅｓｉｄｅｎｃｅ５０１,,14,205,2510002,,,,,,,2024-04-01,1,,,,,レバレッジライフ,0
693,5030001159398,新規,0,2024-04-01,2024-04-01,景鴻株式会社,,株式会社,埼玉県,越谷市,レイクタウン９丁目３３番５,,11,222,3430828,,,,,,,2024-04-01,1,,,,,ケイコウ,0
694,5030001159530,新規,0,2024-04-01,2024-04-01,株式会社ドウガク,,株式会社,埼玉県,さいたま市大宮区,桜木町２丁目３大宮マルイ７Ｆ,,11,103,3300854,,,,,,,2024-04-01,1,,,,,ドウガク,0
705,5060001036966,新規,0,2024-04-01,2024-04-01,株式会社Ｌｏｏｐ,,株式会社,栃木県,那須塩原市,三区町５３４番地８５,,09,213,3292745,,,,,,,2024-04-01,1,,,,,ループ,0
706,5060003005003,新規,0,2024-04-01,2024-04-01,合同会社モリカサ,,合同会社,栃木県,那須塩原市,共墾社１丁目６番３０号,,09,213,3250027,,,,,,,2024-04-01,1,,,,,モリカサ,0
712,5080001026214,新規,0,2024-04-01,2024-04-01,Ｔ＆Ｋ株式会社,,株式会社,静岡県,静岡市駿河区,中田本町２５番３０号,,22,102,4228043,,,,,,,2024-04-01,1,,,,,ティーアンドケー,0
723,5120001263629,新規,0,2024-04-01,2024-04-01,途＿株式会社,00134256,株式会社,大阪府,大阪市大正区,三軒家西３丁目４番１６号中山ビル１０２４,,27,108,5510001,,,,,,,2024-04-01,1,,,,,トコウ,0
724,5120001263653,新規,0,2024-04-01,2024-04-01,松田食品ホールディングス株式会社,,株式会社,大阪府,大阪市生野区,中川５丁目１２番７号,,27,116,5440005,,,,,,,2024-04-01,1,,,,,マツダショクヒンホールディングス,0
730,5120901048930,新規,0,2024-04-01,2024-04-01,ターゲットメディア・ジャパン株式会社,,株式会社,大阪府,高槻市,大冠町３丁目５番１１号,,27,207,5690031,,,,,,,2024-04-01,1,,,,,ターゲットメディアジャパン,0
732,5140003020357,新規,0,2024-04-01,2024-04-01,合同会社ヒューム,,合同会社,兵庫県,神戸市中央区,旗塚通１丁目３番９号藤田マンション２０２,,28,110,6510068,,,,,,,2024-04-01,1,,,,,ヒューム,0
744,5180001160770,新規,0,2024-04-01,2024-04-01,株式会社ワイケイホーム,,株式会社,愛知県,名古屋市中村区,椿町１４番６号,,23,105,4530015,,,,,,,2024-04-01,1,,,,,ワイケイホーム,0
747,5180301038469,新規,0,2024-04-01,2024-04-01,株式会社加藤想建,,株式会社,愛知県,豊田市,青木町２丁目５９番地３,,23,211,4700335,,,,,,,2024-04-01,1,,,,,カトウソウケン,0
753,5240001063018,新規,0,2024-04-01,2024-04-01,ｅｓｔｏ　ｔｉｂｉ株式会社,,株式会社,広島県,広島市中区,上八丁堀５番１号,,34,101,7300012,,,,,,,2024-04-01,1,,,,,エストティビ,0
754,5240003006593,新規,0,2024-04-01,2024-04-01,合同会社Ｂ＆Ｐ,,合同会社,広島県,東広島市,豊栄町清武３０２６番地１,,34,212,7392313,,,,,,,2024-04-01,1,,,,,ビーアンドピー,0
771,5330003010289,新規,0,2024-04-01,2024-04-01,合同会社ＰＩＬＩＮＡ,,合同会社,熊本県,宇城市,松橋町萩尾６３４番地１,,43,213,8690513,,,,,,,2024-04-01,1,,,,,ピリナ,0
775,5350003004603,新規,0,2024-04-01,2024-04-01,合同会社カーセレクト日南,,合同会社,宮崎県,日南市,中平野町一丁目４番地３,,45,204,8870000,,,,,,,2024-04-01,1,,,,,カーセレクトニチナン,0
788,5430001091437,新規,0,2024-04-01,2024-04-01,ダーマン株式会社,,株式会社,北海道,札幌市中央区,北四条西４丁目１番７号ＭＭＳ札幌駅前ビル１階,,01,101,0600004,,,,,,,2024-04-01,1,,,,,ダーマン,0
789,5430003016144,新規,0,2024-04-01,2024-04-01,一夕三櫻會合同会社,,合同会社,北海道,虻田郡倶知安町,北四条東４丁目１番地１ＡＶマンションＦ号室,,01,400,0440004,,,,,,,2024-04-01,1,,,,,イッセキサンオウカイ,0
794,6010003043320,新規,0,2024-04-01,2024-04-01,合同会社ベーシックコア,,合同会社,東京都,中央区,銀座１丁目１２－４Ｎ＆ＥＢＬＤ．７階,,13,102,1040061,,,,,,,2024-04-01,1,,,,,ベーシックコア,0
795,6010101016070,新規,0,2024-04-01,2024-04-01,Ｋａｉ株式会社,,株式会社,東京都,八王子市,横山町３－８フィルパーク八王子３階,,13,201,1920081,,,,,,,2024-04-01,1,,,,,カイ,0
807,6010503007386,新規,0,2024-04-01,2024-04-01,ビットクエスト合同会社,,合同会社,東京都,台東区,雷門１丁目１５番１２－２０９号,,13,106,1110034,,,,,,,2024-04-01,1,,,,,ビットクエスト,0
812,6010701045774,新規,0,2024-04-01,2024-04-01,テクサ株式会社,,株式会社,東京都,品川区,南品川３丁目４番１－６１２号,,13,109,1400004,,,,,,,2024-04-01,1,,,,,テクサ,0
828,6011101106745,新規,0,2024-04-01,2024-04-01,ガウマピクス株式会社,,株式会社,東京都,新宿区,下落合２丁目１番８号三栄ビル３１１,,13,104,1610033,,,,,,,2024-04-01,1,,,,,ガウマピクス,0
832,6011201025358,新規,0,2024-04-01,2024-04-01,ＭＧＭ株式会社,,株式会社,東京都,中野区,沼袋４丁目３２－３,,13,114,1650025,,,,,,,2024-04-01,1,,,,,エムジーエム,0
837,6011305002971,新規,0,2024-04-01,2024-04-01,医療法人社団スマイルケア,,その他の設立登記法人,東京都,杉並区,西荻北２丁目３番１０号レジェンド西荻窪１０１号室,,13,115,1670042,,,,,,,2024-04-01,1,,,,,スマイルケア,0
838,6011401025967,新規,0,2024-04-01,2024-04-01,株式会社ＬＣＵ,,株式会社,東京都,板橋区,大山東町１８番４－４０１号,,13,119,1730014,,,,,,,2024-04-01,1,,,,,エルシーユー,0
839,6011501030487,新規,0,2024-04-01,2024-04-01,株式会社Ｓｏｙｉ　Ｉｎｔｅｒｎａｔｉｏｎａｌ,,株式会社,東京都,北区,中里３丁目１５番３－４０２,,13,117,1140015,,,,,,,2024-04-01,1,,,,,ソイインターナショナル,0
840,6011503006007,新規,0,2024-04-01,2024-04-01,Ｆａｎｂｅａｕｔｙ合同会社,,合同会社,東京都,北区,赤羽１丁目２７番４－５０１号羽鳥コーポ第一号,,13,117,1150045,,,,,,,2024-04-01,1,,,,,ファンビューティー,0
848,6012701018173,新規,0,2024-04-01,2024-04-01,株式会社ボウノット,,株式会社,東京都,西東京市,下保谷４丁目１番２５号セブンテラス１０２,,13,229,2020004,,,,,,,2024-04-01,1,,,,,ボウノット,0
849,6012801023073,新規,0,2024-04-01,2024-04-01,オーティスタ株式会社,,株式会社,東京都,日野市,西平山１丁目３４番地の９,,13,212,1910055,,,,,,,2024-04-01,1,,,,,オーティスタ,0
850,6012803003346,新規,0,2024-04-01,2024-04-01,合同会社ＨＡＵ’ＯＬＩ,,合同会社,東京都,昭島市,緑町１丁目２０番３１号,,13,207,1960004,,,,,,,2024-04-01,1,,,,,ハウオリ,0
854,6020001156503,新規,0,2024-04-01,2024-04-01,星辰株式会社,,株式会社,神奈川県,横浜市中区,本牧町２丁目３０４加藤ビル３０２Ｂ号室,,14,104,2310806,,,,,,,2024-04-01,1,,,,,セイシン,0
874,6030001159521,新規,0,2024-04-01,2024-04-01,株式会社ルナユニバース,,株式会社,埼玉県,鴻巣市,吹上富士見４丁目１５番１１号,,11,217,3690121,,,,,,,2024-04-01,1,,,,,ルナユニバース,0
881,6040003024672,新規,0,2024-04-01,2024-04-01,合同会社ＺＯＳ,,合同会社,千葉県,松戸市,野菊野２番地野菊野団地２棟１１１７号室,,12,207,2702243,,,,,,,2024-04-01,1,,,,,ジーオーエス,0
884,6050001054530,新規,0,2024-04-01,2024-04-01,スーパー・ジーニアス株式会社,,株式会社,茨城県,つくば市,東新井１３番地２関友ウエストビル１０２号,,08,220,3050033,,,,,,,2024-04-01,1,,,,,スーパージーニアス,0
885,6050001054539,新規,0,2024-04-01,2024-04-01,Ｕｒｂａｎ　Ｐｒｏｊｅｃｔ株式会社,,株式会社,茨城県,稲敷郡阿見町,大字若栗１３０７－２１－９号室,,08,443,3000333,,,,,,,2024-04-01,1,,,,,アーバンプロジェクト,0
886,6050003008237,新規,0,2024-04-01,2024-04-01,合同会社ＳＥＮＵＤＩ　ＪＡＰＡＮ,,合同会社,茨城県,筑西市,玉戸１３３６番２５４Ａ,,08,227,3080847,,,,,,,2024-04-01,1,,,,,セヌディジャパン,0
887,6050003008245,新規,0,2024-04-01,2024-04-01,合同会社ＳＳＧ,,合同会社,茨城県,土浦市,木田余４９５２フォレストフィールドＶ１０５,,08,203,3000026,,,,,,,2024-04-01,1,,,,,エスエスジー,0
893,6080001026213,新規,0,2024-04-01,2024-04-01,株式会社ブラックシップ,,株式会社,静岡県,静岡市駿河区,南町４番４１号,,22,102,4228067,,,,,,,2024-04-01,1,,,,,ブラックシップ,0
899,6080405007619,新規,0,2024-04-01,2024-04-01,一般社団法人磐田芸術協会Ｃｌａｓｓｉｃａ　Ｉｗａｔａ,,その他の設立登記法人,静岡県,磐田市,一言３１５番地６,,22,211,4380811,,,,,,,2024-04-01,1,,,,,イワタゲイジュツキョウカイクラシカイワタ,0
914,6120001263462,新規,0,2024-04-01,2024-04-01,株式会社ＷＡＧＹＵ　ＷＯＲＬＤ,,株式会社,大阪府,大阪市西成区,天下茶屋東１丁目９番１０号,,27,122,5570011,,,,,,,2024-04-01,1,,,,,ワギュウワールド,0
915,6120001263487,新規,0,2024-04-01,2024-04-01,株式会社いるか都市開発,,株式会社,大阪府,大阪市東淀川区,豊新３丁目２番２７号パークサイド三木・第二２０３号室,,27,114,5330014,,,,,,,2024-04-01,1,,,,,イルカトシカイハツ,0
916,6120001263578,新規,0,2024-04-01,2024-04-01,津豊商事株式会社,,株式会社,大阪府,大阪市浪速区,敷津西１丁目１２番２１号アンビエス難波４０２号室,,27,111,5560015,,,,,,,2024-04-01,1,,,,,シンホウショウジ,0
917,6120001263669,新規,0,2024-04-01,2024-04-01,株式会社ＤｅｎＤｅ,,株式会社,大阪府,大阪市北区,曾根崎２丁目３－５梅新第一生命ビルディング３階,,27,127,5300057,,,,,,,2024-04-01,1,,,,,デンデ,0
919,6120003026264,新規,0,2024-04-01,2024-04-01,合同会社ｆｒｅｅＳｔｙｌｅ,,合同会社,大阪府,大阪市中央区,南本町３丁目３－２５－２９０３,,27,128,5410054,,,,,,,2024-04-01,1,,,,,フリースタイル,0
920,6120003026272,新規,0,2024-04-01,2024-04-01,合同会社ＭＧＣ,,合同会社,大阪府,大阪市城東区,今福西３丁目１５番２２号,,27,118,5360004,,,,,,,2024-04-01,1,,,,,エムジーシー,0
921,6120005024225,新規,0,2024-04-01,2024-04-01,特定非営利活動法人プール・ボランティア京都,,その他の設立登記法人,大阪府,大阪市中央区,島町２丁目４番３号ヴィラ島町９０２号,,27,128,5400034,,,,,,,2024-04-01,1,,,,,プールボランティアキョウト,0
923,6120103005754,新規,0,2024-04-01,2024-04-01,Ｋ‐ｎａｔｕｒａｌ合同会社,,合同会社,大阪府,堺市西区,菱木４丁２８００番地４,,27,144,5938315,,,,,,,2024-04-01,1,,,,,ケーナチュラル,0
928,6130003009417,新規,0,2024-04-01,2024-04-01,合同会社共創,,合同会社,京都府,京都市右京区,嵯峨天龍寺瀬戸川町１８番地の５６,,26,108,6168376,,,,,,,2024-04-01,1,,,,,キョウソウ,0
939,6140005026995,新規,0,2024-04-01,2024-04-01,医療法人社団いながき内科クリニック,,その他の設立登記法人,兵庫県,西宮市,市庭町９番１２号香櫨館３階,,28,204,6620975,,,,,,,2024-04-01,1,,,,,イナガキナイカクリニック,0
945,6180003026580,新規,0,2024-04-01,2024-04-01,合同会社ＳＭＨ,,合同会社,愛知県,愛西市,稲葉町米野１９０番地３,,23,232,4960907,,,,,,,2024-04-01,1,,,,,エスエムエイチ,0
950,6180301038484,新規,0,2024-04-01,2024-04-01,株式会社小笠原庭園,,株式会社,愛知県,碧南市,植出町１丁目７１番地,,23,209,4470047,,,,,,,2024-04-01,1,,,,,オガサワラテイエン,0
961,6240003006601,新規,0,2024-04-01,2024-04-01,合同会社タナカパートナーズ,,合同会社,広島県,広島市中区,中町７－１６－１１０９号室,,34,101,7300037,,,,,,,2024-04-01,1,,,,,タナカパートナーズ,0
963,6260003004628,新規,0,2024-04-01,2024-04-01,合同会社笠春企画,,合同会社,岡山県,笠岡市,新横島６番地１１０,,33,205,7140093,,,,,,,2024-04-01,1,,,,,カサハルキカク,0
985,6370001051108,新規,0,2024-04-01,2024-04-01,株式会社兼心工業,,株式会社,宮城県,加美郡色麻町,黒沢字上舘２０番地１３,,04,444,9814111,,,,,,,2024-04-01,1,,,,,ケンシンコウギョウ,0
987,6370003006539,新規,0,2024-04-01,2024-04-01,合同会社空,,合同会社,宮城県,岩沼市,相の原２丁目４番２１号,,04,211,9892431,,,,,,,2024-04-01,1,,,,,クウ,0
995,6390001017560,新規,0,2024-04-01,2024-04-01,株式会社Ｗｅｌｍ,,株式会社,山形県,山形市,緑町２丁目１４番５１号,,06,201,9900041,,,,,,,2024-04-01,1,,,,,ウェルム,0
997,6430001091428,新規,0,2024-04-01,2024-04-01,早餐株式会社,,株式会社,北海道,札幌市中央区,北二条西２丁目３２番地,,01,101,0600002,,,,,,,2024-04-01,1,,,,,ソウサン,0
999,6430005014946,新規,0,2024-04-01,2024-04-01,一般社団法人北海道イエロースターズ,,その他の設立登記法人,北海道,札幌市中央区,南二十条西８丁目２番２２号,,01,101,0640920,,,,,,,2024-04-01,1,,,,,ホッカイドウイエロースターズ,0
1000,6460003000986,新規,0,2024-04-01,2024-04-01,合同会社Ｃｈｅｒｉ,,合同会社,北海道,釧路市,白樺台４丁目２番１０号,,01,206,0850804,,,,,,,2024-04-01,1,,,,,シェリ,0
1001,6460101007520,新規,0,2024-04-01,2024-04-01,株式会社永工,,株式会社,北海道,帯広市,別府町南１７線４８－５,,01,207,0891184,,,,,,,2024-04-01,1,,,,,エイコウ,0
1003,6480001012429,新規,0,2024-04-01,2024-04-01,株式会社ＫＫＰ,,株式会社,徳島県,徳島市,徳島町城内６番地８７,,36,201,7700851,,,,,,,2024-04-01,1,,,,,ケイケイピー,0
1007,6700150124670,新規,0,2024-04-01,2024-04-01,東北ＩＬＣ事業推進センター,,その他,岩手県,盛岡市,盛岡駅西通１丁目７番１号いわて県民情報交流センター７階　岩手県立大学アイーナキャンパス内,,03,201,0200045,,,,,,,2024-04-01,1,,,,,トウホクアイエルシージギョウスイシンセンター,0
1013,7010005038103,新規,0,2024-04-01,2024-04-01,一般社団法人歯科衛生士コミュニティ,,その他の設立登記法人,東京都,中央区,八丁堀４丁目１番４号,,13,102,1040032,,,,,,,2024-04-01,1,,,,,シカエイセイシコミュニティ,0
1018,7010601064915,新規,0,2024-04-01,2024-04-01,株式会社鴻＿商会,00134252,株式会社,東京都,墨田区,太平３丁目１１番１－１００２号,,13,107,1300012,,,,,,,2024-04-01,1,,,,,コウクショウカイ,0
1022,7010903008933,新規,0,2024-04-01,2024-04-01,合同会社ＲＵＮ,,合同会社,東京都,世田谷区,船橋１丁目３８番５号レグルス千歳船橋２０４,,13,112,1560055,,,,,,,2024-04-01,1,,,,,ラン,0
1039,7013103001320,新規,0,2024-04-01,2024-04-01,合同会社Ｈｏｗｌｉｎｇ　Ｃｏｙｏｔｅ,,合同会社,東京都,青梅市,畑中１丁目５８番１０,,13,205,1980061,,,,,,,2024-04-01,1,,,,,,0
1040,7013301052289,新規,0,2024-04-01,2024-04-01,陳鵬鵬餐飲株式会社,,株式会社,東京都,豊島区,西巣鴨４丁目２７番７号セントヒルズ巣鴨５０２,,13,116,1700001,,,,,,,2024-04-01,1,,,,,チンホウホウサンイン,0
1041,7013301052297,新規,0,2024-04-01,2024-04-01,三浦商事株式会社,,株式会社,東京都,豊島区,西池袋２丁目１５番６号,,13,116,1710021,,,,,,,2024-04-01,1,,,,,ミウラショウジ,0
1055,7020005016339,新規,0,2024-04-01,2024-04-01,医療法人はまゆう会,,その他の設立登記法人,神奈川県,横浜市戸塚区,上倉田町８８４番地６,,14,110,2440816,,,,,,,2024-04-01,1,,,,,ハマユウカイ,0
1058,7021001081822,新規,0,2024-04-01,2024-04-01,株式会社ａｔｔｒｉｃｔ,,株式会社,神奈川県,藤沢市,湘南台４丁目７番地の２エスタテラ湘南台プラザタワー２２０２号,,14,205,2520804,,,,,,,2024-04-01,1,,,,,アトリクト,0
1062,7030001159504,新規,0,2024-04-01,2024-04-01,清悠堂株式会社,,株式会社,埼玉県,春日部市,中央１丁目８－１５春日部セントラル２Ｆ－１７,,11,214,3440067,,,,,,,2024-04-01,1,,,,,シンユウドウ,0
1067,7050003008236,新規,0,2024-04-01,2024-04-01,合同会社嘉家佐和モータース,,合同会社,茨城県,筑西市,嘉家佐和１６６５,,08,227,3080837,,,,,,,2024-04-01,1,,,,,カゲサワモータース,0
1074,7100001037330,新規,0,2024-04-01,2024-04-01,株式会社ｎ３,,株式会社,長野県,長野市,豊野町浅野４５９番地３,,20,201,3891104,,,,,,,2024-04-01,1,,,,,エヌスリー,0
1084,7120001263544,新規,0,2024-04-01,2024-04-01,株式会社ワイゼスト,,株式会社,大阪府,枚方市,片鉾本町２３番１６号,,27,210,5731157,,,,,,,2024-04-01,1,,,,,ワイゼスト,0
1085,7120001263577,新規,0,2024-04-01,2024-04-01,株式会社Ｖｉｃｋｙ,,株式会社,大阪府,大阪市天王寺区,国分町２０番９－４０１号,,27,109,5430044,,,,,,,2024-04-01,1,,,,,ヴィッキー,0
1086,7120001263610,新規,0,2024-04-01,2024-04-01,十二東渡株式会社,,株式会社,大阪府,大阪市大正区,三軒家西３丁目４番１６号中山ビル１０１６,,27,108,5510001,,,,,,,2024-04-01,1,,,,,ジュウニトウワタ,0
1087,7120001263627,新規,0,2024-04-01,2024-04-01,株式会社ヒトピー,,株式会社,大阪府,大阪市浪速区,難波中１丁目１６番１１号,,27,111,5560011,,,,,,,2024-04-01,1,,,,,ヒトピー,0
1088,7120001263635,新規,0,2024-04-01,2024-04-01,Ｆｕｌｌ　Ｃｏｖｅｒａｇｅ株式会社,,株式会社,大阪府,大阪市中央区,南船場１丁目１３番１５－４０６号,,27,128,5420081,,,,,,,2024-04-01,1,,,,,フルカバレッジ,0
1089,7120001263684,新規,0,2024-04-01,2024-04-01,株式会社Ａｒｅａ　Ｅａｒｔｈ,,株式会社,大阪府,大阪市西区,北堀江２丁目２番２４号岩伸北堀江ビル５Ｆ５０３,,27,106,5500014,,,,,,,2024-04-01,1,,,,,エリアアース,0
1090,7120001263692,新規,0,2024-04-01,2024-04-01,ＪＲＯＡＤ株式会社,,株式会社,大阪府,大阪市住之江区,新北島２丁目２－４７,,27,125,5590024,,,,,,,2024-04-01,1,,,,,ジェイロード,0
1092,7120003026271,新規,0,2024-04-01,2024-04-01,にじ合同会社,,合同会社,大阪府,大阪市西淀川区,大野３丁目２番４３号,,27,113,5550043,,,,,,,2024-04-01,1,,,,,ニジ,0
1096,7120901048978,新規,0,2024-04-01,2024-04-01,株式会社フォワードカンパニー,,株式会社,大阪府,豊中市,上野東３丁目１７番６号,,27,203,5600013,,,,,,,2024-04-01,1,,,,,フォワードカンパニー,0
1097,7122001037960,新規,0,2024-04-01,2024-04-01,Ｓ株式会社,,株式会社,大阪府,東大阪市,岩田町６丁目６番３－３０８号,,27,227,5780941,,,,,,,2024-04-01,1,,,,,エス,0
1098,7122003002847,新規,0,2024-04-01,2024-04-01,ｆ合同会社,,合同会社,大阪府,大東市,御供田３丁目１３番２８号川田ハイツ１階,,27,218,5740025,,,,,,,2024-04-01,1,,,,,エフ,0
1100,7130003009416,新規,0,2024-04-01,2024-04-01,合同会社アクアパラダイス京都,,合同会社,京都府,京都市中京区,木屋町通三条下る材木町１８４（２Ｆ）,,26,104,6048017,,,,,,,2024-04-01,1,,,,,アクアパラダイスキョウト,0
1102,7140001133877,新規,0,2024-04-01,2024-04-01,株式会社住建プラン,,株式会社,兵庫県,明石市,小久保２丁目６番地の６,,28,203,6730005,,,,,,,2024-04-01,1,,,,,ジュウケンプラン,0
1104,7140005026994,新規,0,2024-04-01,2024-04-01,医療法人築生会,,その他の設立登記法人,兵庫県,西宮市,大谷町７番５号Ｂ棟２階,,28,204,6620054,,,,,,,2024-04-01,1,,,,,チクセイカイ,0
1112,7180003026555,新規,0,2024-04-01,2024-04-01,三協ナーシング合同会社,,合同会社,愛知県,丹羽郡大口町,下小口２丁目１５０番地,,23,361,4800144,,,,,,,2024-04-01,1,,,,,サンキョウナーシング,0
1113,7180003026563,新規,0,2024-04-01,2024-04-01,合同会社ｉｒｏａｓ,,合同会社,愛知県,名古屋市名東区,藤が丘１１３番地,,23,115,4650032,,,,,,,2024-04-01,1,,,,,イロアス,0
1132,7280001009147,新規,0,2024-04-01,2024-04-01,株式会社Ｖｉｓｔａｉｎｎｏｖａｔｅ,,株式会社,島根県,松江市,西茶町４０番地１,,32,201,6900845,,,,,,,2024-04-01,1,,,,,ビスタイノベイト,0
1144,7290003015142,新規,0,2024-04-01,2024-04-01,鈴曦商事合同会社,,合同会社,福岡県,福岡市早良区,曙２丁目９－３－１０２ポルトス西新,,40,137,8140004,,,,,,,2024-04-01,1,,,,,スズヒショウジ,0
1147,7350005006224,新規,0,2024-04-01,2024-04-01,特定非営利活動法人つながる未来,,その他の設立登記法人,宮崎県,都城市,南横市町３８１９番地５,,45,202,8850092,,,,,,,2024-04-01,1,,,,,ツナガルミライ,0
1151,7360003013849,新規,0,2024-04-01,2024-04-01,合同会社ＮＥＸＴ　ＤＲＥＡＭ,,合同会社,沖縄県,沖縄市,美原３丁目６－１,,47,211,9042155,,,,,,,2024-04-01,1,,,,,ネクストドリーム,0
1153,7370005010760,新規,0,2024-04-01,2024-04-01,一般社団法人ホリスティックドッグＭＵＫＵＲＯＪＩ,,その他の設立登記法人,宮城県,宮城郡七ヶ浜町,花渕浜字上ノ山７２番地の２,,04,404,9850803,,,,,,,2024-04-01,1,,,,,ホリスティックドッグムクロジ,0
1162,7430001091435,新規,0,2024-04-01,2024-04-01,株式会社宇宙こそ本能,,株式会社,北海道,小樽市,望洋台３丁目４番２号,,01,203,0470155,,,,,,,2024-04-01,1,,,,,ウチュウコソホンノウ,0
1164,7430003016142,新規,0,2024-04-01,2024-04-01,合同会社ケイズカンパニー,,合同会社,北海道,札幌市清田区,真栄四条３丁目１０番２２号,,01,110,0040834,,,,,,,2024-04-01,1,,,,,ケイズカンパニー,0
1165,7430005014945,新規,0,2024-04-01,2024-04-01,一般社団法人ようていスポーツクラブ,,その他の設立登記法人,北海道,虻田郡倶知安町,北五条東２丁目７番地,,01,400,0440005,,,,,,,2024-04-01,1,,,,,ヨウテイスポーツクラブ,0
1169,7480001012428,新規,0,2024-04-01,2024-04-01,株式会社ＯＮＥ　ＲＡＮＫ,,株式会社,徳島県,徳島市,住吉１丁目９番地２６,,36,201,7700861,,,,,,,2024-04-01,1,,,,,ワンランク,0
1184,8010001243399,新規,0,2024-04-01,2024-04-01,株式会社ルイトモ,,株式会社,東京都,千代田区,麹町３丁目５－１８,,13,101,1020083,,,,,,,2024-04-01,1,,,,,ルイトモ,0
1185,8010001243556,新規,0,2024-04-01,2024-04-01,ＵＭＥ株式会社,,株式会社,東京都,中央区,日本橋室町１丁目１１番１２号日本橋水野ビル７階,,13,102,1030022,,,,,,,2024-04-01,1,,,,,ユメ,0
1199,8010501052011,新規,0,2024-04-01,2024-04-01,株式会社よねこん,,株式会社,東京都,台東区,寿２丁目３番３－５０５号パークホームズ浅草寿,,13,106,1110042,,,,,,,2024-04-01,1,,,,,ヨネコン,0
1203,8010601064930,新規,0,2024-04-01,2024-04-01,ペレニアルウェルネスマネジメント株式会社,,株式会社,東京都,江東区,深川１丁目１番２号協和ビル２階１７号室,,13,108,1350033,,,,,,,2024-04-01,1,,,,,ペレニアルウェルネスマネジメント,0
1207,8010801034898,新規,0,2024-04-01,2024-04-01,Ｄ＆Ａ　Ｓｅｃｕｒｉｔｙ　Ｃｏｎｓｕｌｔｉｎｇ株式会社,,株式会社,東京都,大田区,大森東１丁目３１－１－１２０８,,13,111,1430012,,,,,,,2024-04-01,1,,,,,ディーアンドエーセキュリティコンサルティング,0
1209,8010903008932,新規,0,2024-04-01,2024-04-01,ＡＨＥＡＤ合同会社,,合同会社,東京都,世田谷区,北沢２丁目２７－９,,13,112,1550031,,,,,,,2024-04-01,1,,,,,アヘッド,0
1212,8011003018780,新規,0,2024-04-01,2024-04-01,合同会社ＨＬＰ,,合同会社,東京都,目黒区,下目黒６丁目９番１７号,,13,110,1530064,,,,,,,2024-04-01,1,,,,,エイチエルピー,0
1222,8011401025965,新規,0,2024-04-01,2024-04-01,株式会社南平,,株式会社,東京都,板橋区,若木２丁目１０－２,,13,119,1740065,,,,,,,2024-04-01,1,,,,,ナンペイ,0
1226,8012301013853,新規,0,2024-04-01,2024-04-01,ジャパンメディアサービス株式会社,,株式会社,東京都,町田市,矢部町１２番地３－１Ｆ,,13,209,1940214,,,,,,,2024-04-01,1,,,,,ジャパンメディアサービス,0
1231,8013301052288,新規,0,2024-04-01,2024-04-01,株式会社Ｋ‐Ｓｅｃｕｒｉｔｙ,,株式会社,東京都,豊島区,南大塚２丁目１４番１２号ＹＳビル１０３,,13,116,1700005,,,,,,,2024-04-01,1,,,,,ケイセキュリティー,0
1251,8021003014291,新規,0,2024-04-01,2024-04-01,トモテック合同会社,,合同会社,神奈川県,藤沢市,鵠沼松が岡２丁目５番３０～７号,,14,205,2510038,,,,,,,2024-04-01,1,,,,,トモテック,0
1263,8050001054529,新規,0,2024-04-01,2024-04-01,株式会社ＮＩＫＯＨ,,株式会社,茨城県,那珂市,戸崎２５－４,,08,226,3110121,,,,,,,2024-04-01,1,,,,,ニコウ,0
1271,8080403004979,新規,0,2024-04-01,2024-04-01,Ｊａｐａｎ　Ｍｏｔｏｒｓ合同会社,,合同会社,静岡県,浜松市中央区,半田山３丁目４８番５号,,22,138,4313125,,,,,,,2024-04-01,1,,,,,ジャパンモータース,0
1280,8110003005341,新規,0,2024-04-01,2024-04-01,合同会社ＭｏｓｑｕｉｔｏＳｙｓｔｅｍ,,合同会社,新潟県,燕市,新生町３番地,,15,213,9591214,,,,,,,2024-04-01,1,,,,,モスキートシステム,0
1289,8120001263592,新規,0,2024-04-01,2024-04-01,株式会社伊織ＴＯＫＹＯ,,株式会社,大阪府,大阪市北区,中崎３丁目３－２５－１００２,,27,127,5300016,,,,,,,2024-04-01,1,,,,,イオリトーキョー,0
1290,8120001263601,新規,0,2024-04-01,2024-04-01,株式会社シーワンリンク,,株式会社,大阪府,大阪市中央区,博労町３丁目６番７号御堂筋三都ビル２０５号,,27,128,5410059,,,,,,,2024-04-01,1,,,,,シーワンリンク,0
1291,8120001263634,新規,0,2024-04-01,2024-04-01,株式会社Ｈ＆Ｙ　Ｉｎｄｕｓｔｒｉｅｓ,,株式会社,大阪府,大阪市北区,梅田１丁目２番２号大阪駅前第２ビル１２－１２,,27,127,5300001,,,,,,,2024-04-01,1,,,,,エイチアンドワイインダストリーズ,0
1292,8120001263683,新規,0,2024-04-01,2024-04-01,株式会社ＥＮＷＡ,,株式会社,大阪府,大阪市淀川区,十三東１丁目１４番２３号大盛マンション１０２,,27,123,5320023,,,,,,,2024-04-01,1,,,,,エンワ,0
1293,8120001263691,新規,0,2024-04-01,2024-04-01,株式会社生命体,,株式会社,大阪府,大阪市中央区,難波４丁目２－３御堂筋光明ビルディングＢ２,,27,128,5420076,,,,,,,2024-04-01,1,,,,,セイメイタイ,0
1296,8120003026213,新規,0,2024-04-01,2024-04-01,合同会社ＳＫＹ,,合同会社,大阪府,大阪市鶴見区,焼野２丁目４－３４,,27,124,5380037,,,,,,,2024-04-01,1,,,,,スカイ,0
1297,8120003026262,新規,0,2024-04-01,2024-04-01,合同会社ＷＡＫＫＡ,,合同会社,大阪府,大阪市西区,京町堀３丁目２番２６号ラポール京町堀５０２,,27,106,5500003,,,,,,,2024-04-01,1,,,,,ワカ,0
1298,8120003026270,新規,0,2024-04-01,2024-04-01,合同会社Ｒ＆Ｋ,,合同会社,大阪府,大阪市中央区,上町１丁目１６番２７号グランブルー上町台７０４号室,,27,128,5400005,,,,,,,2024-04-01,1,,,,,アールアンドケー,0
1299,8120005024231,新規,0,2024-04-01,2024-04-01,特定非営利活動法人淀川クラブ,,その他の設立登記法人,大阪府,大阪市福島区,野田５丁目１４番１２号,,27,103,5530005,,,,,,,2024-04-01,1,,,,,ヨドガワクラブ,0
1306,8130003009398,新規,0,2024-04-01,2024-04-01,合同会社知足,,合同会社,京都府,京都市伏見区,下板橋町６４４番地１下板橋住宅Ｃ棟２０４号,,26,109,6128073,,,,,,,2024-04-01,1,,,,,チソク,0
1309,8150001027177,新規,0,2024-04-01,2024-04-01,株式会社ナツキ,,株式会社,奈良県,宇陀市,大宇陀平尾１７２番地の１,,29,212,6332102,,,,,,,2024-04-01,1,,,,,ナツキ,0
1314,8180001160792,新規,0,2024-04-01,2024-04-01,株式会社アネックス,,株式会社,愛知県,名古屋市中区,栄２丁目１６番２１号アネシア栄ザ・シティ３０４,,23,106,4600008,,,,,,,2024-04-01,1,,,,,アネックス,0
1319,8180301038482,新規,0,2024-04-01,2024-04-01,株式会社ナナハン,,株式会社,愛知県,安城市,横山町浜畔上１１３番地６０５,,23,212,4460045,,,,,,,2024-04-01,1,,,,,ナナハン,0
1322,8190001031225,新規,0,2024-04-01,2024-04-01,わくわくカンパニー株式会社,,株式会社,三重県,桑名市,大字東方５７９番地,,24,205,5110811,,,,,,,2024-04-01,1,,,,,ワクワクカンパニー,0
1323,8190003004625,新規,0,2024-04-01,2024-04-01,合同会社ＭＳＲ,,合同会社,三重県,鈴鹿市,白子３丁目２１番１０号,,24,207,5100243,,,,,,,2024-04-01,1,,,,,エムエスアール,0
1328,8230001020264,新規,0,2024-04-01,2024-04-01,ホイストメンテ株式会社,,株式会社,富山県,中新川郡上市町,若杉３丁目１９０番地,,16,322,9300314,,,,,,,2024-04-01,1,,,,,ホイストメンテ,0
1329,8230001020272,新規,0,2024-04-01,2024-04-01,城東工業株式会社,,株式会社,富山県,高岡市,大坪町４丁目４７番地スペースクリエイトビル２階３号室,,16,202,9330918,,,,,,,2024-04-01,1,,,,,ジョウトウコウギョウ,0
1343,8340001026399,新規,0,2024-04-01,2024-04-01,株式会社サスティート,,株式会社,鹿児島県,姶良市,宮島町１９番地４中野ビル１Ｆ,,46,225,8995432,,,,,,,2024-04-01,1,,,,,サスティート,0
1350,8360003013848,新規,0,2024-04-01,2024-04-01,ゆいかじ合同会社,,合同会社,沖縄県,那覇市,字安謝６１７番地１４８－３階,,47,201,9000003,,,,,,,2024-04-01,1,,,,,ユイカジ,0
1354,8380001034398,新規,0,2024-04-01,2024-04-01,株式会社東輝,,株式会社,福島県,福島市,本内字南原１番地の１２リバティヒルズ２１・２０１,,07,201,9600103,,,,,,,2024-04-01,1,,,,,トウキ,0
1356,8430001091434,新規,0,2024-04-01,2024-04-01,株式会社ＮｅｗＶｉｌｌａｇｅ,,株式会社,北海道,札幌市東区,北三十四条東６丁目３番２３－１０２号,,01,103,0070834,,,,,,,2024-04-01,1,,,,,ニューヴィレッジ,0
1359,8430003016158,新規,0,2024-04-01,2024-04-01,合同会社ＦＵＮ企画,,合同会社,北海道,札幌市南区,藤野五条５丁目１番２０号,,01,106,0612285,,,,,,,2024-04-01,1,,,,,ファンキカク,0
1364,8500001025541,新規,0,2024-04-01,2024-04-01,株式会社ＫｙｏＳｈｉｎ,,株式会社,愛媛県,松山市,中西外６７７番地２,,38,201,7992425,,,,,,,2024-04-01,1,,,,,キョーシン,0
1369,9010001243489,新規,0,2024-04-01,2024-04-01,株式会社グリーンＸ,,株式会社,東京都,文京区,関口１丁目４４番３号,,13,105,1120014,,,,,,,2024-04-01,1,,,,,グリーンエックス,0
1370,9010001243530,新規,0,2024-04-01,2024-04-01,Ｃａｍｂｉｕｍ　Ｇｒｏｖｅ　Ｊａｐａｎ株式会社,,株式会社,東京都,千代田区,丸の内３丁目４番１号新国際ビル８Ｆ,,13,101,1000005,,,,,,,2024-04-01,1,,,,,キャンビアムグローブジャパン,0
1371,9010001243563,新規,0,2024-04-01,2024-04-01,大樹コーポレーション株式会社,,株式会社,東京都,中央区,銀座６丁目１０番１号,,13,102,1040061,,,,,,,2024-04-01,1,,,,,タイキコーポレーション,0
1380,9010405023099,新規,0,2024-04-01,2024-04-01,一般社団法人経済安全保障戦略推進機構,,その他の設立登記法人,東京都,港区,赤坂１丁目１４番５号,,13,103,1070052,,,,,,,2024-04-01,1,,,,,ケイザイアンゼンホショウセンリャクスイシンキコウ,0
1381,9010405023116,新規,0,2024-04-01,2024-04-01,一般社団法人みらいソーラーネクスト,,その他の設立登記法人,東京都,港区,西新橋１丁目１８番地１７明産西新橋ビル３Ｆ,,13,103,1050003,,,,,,,2024-04-01,1,,,,,ミライソーラーネクスト,0
1384,9010501052010,新規,0,2024-04-01,2024-04-01,Ｃａｒｎｅｇｉｅ株式会社,,株式会社,東京都,台東区,北上野２丁目２５番７号利達ビル２０７号室,,13,106,1100014,,,,,,,2024-04-01,1,,,,,カーネギー,0
1396,9010801034889,新規,0,2024-04-01,2024-04-01,株式会社Ｍａ‐Ｓｈａ‐Ｌａ,,株式会社,東京都,大田区,久が原５丁目２７番３－２０１号,,13,111,1460085,,,,,,,2024-04-01,1,,,,,マシャラ,0
1401,9010901054985,新規,0,2024-04-01,2024-04-01,株式会社ＥｒａＸ,,株式会社,東京都,世田谷区,池尻３丁目１８番地１０号レユシット池尻１０２,,13,112,1540001,,,,,,,2024-04-01,1,,,,,エラエックス,0
1405,9011203004340,新規,0,2024-04-01,2024-04-01,リトラ合同会社,,合同会社,東京都,中野区,中野５丁目２５番１１号,,13,114,1640001,,,,,,,2024-04-01,1,,,,,リトラ,0
1409,9011701027149,新規,0,2024-04-01,2024-04-01,Ｎｏｍａｄ　Ｓｏｌｕｔｉｏｎｓ株式会社,,株式会社,東京都,江戸川区,中葛西２丁目２６番３号ＣＲＥＯ’９１－３０１,,13,123,1340083,,,,,,,2024-04-01,1,,,,,ノマドソリューションズ,0
1412,9012401041695,新規,0,2024-04-01,2024-04-01,株式会社ＮｏＢＬＵＥ,,株式会社,東京都,小金井市,緑町４丁目９番５号,,13,210,1840003,,,,,,,2024-04-01,1,,,,,ノーブル,0
1419,9020003025835,新規,0,2024-04-01,2024-04-01,エムアンドシー合同会社,,合同会社,神奈川県,横浜市神奈川区,金港町５―１４クアドリフォリオ８階,,14,102,2210056,,,,,,,2024-04-01,1,,,,,エムアンドシー,0
1420,9020005016320,新規,0,2024-04-01,2024-04-01,行政書士法人まつむら事務所,,その他の設立登記法人,神奈川県,横浜市保土ケ谷区,宮田町１丁目３番地３キャピタル天王町３０１,,14,106,2400002,,,,,,,2024-04-01,1,,,,,マツムラジムショ,0
1425,9021001081829,新規,0,2024-04-01,2024-04-01,ガードホーム株式会社,,株式会社,神奈川県,藤沢市,打戻１８６７－２,,14,205,2520824,,,,,,,2024-04-01,1,,,,,ガードホーム,0
1432,9030001159502,新規,0,2024-04-01,2024-04-01,傘道株式会社,,株式会社,埼玉県,日高市,大字旭ケ丘３４８－１１,,11,242,3501203,,,,,,,2024-04-01,1,,,,,カサミチ,0
1433,9030001159510,新規,0,2024-04-01,2024-04-01,株式会社ＴＯＬＡＳＴ,,株式会社,埼玉県,さいたま市見沼区,春野３丁目１３番１号,,11,104,3370002,,,,,,,2024-04-01,1,,,,,トラスト,0
1434,9030001159527,新規,0,2024-04-01,2024-04-01,株式会社彩北,,株式会社,埼玉県,本庄市,若泉３丁目１９番２号,,11,211,3670055,,,,,,,2024-04-01,1,,,,,サイホク,0
1436,9030003023937,新規,0,2024-04-01,2024-04-01,共拓合同会社,,合同会社,埼玉県,さいたま市大宮区,天沼町１丁目３番地９－１０２号,,11,103,3300834,,,,,,,2024-04-01,1,,,,,キョウタク,0
1442,9050001054528,新規,0,2024-04-01,2024-04-01,株式会社モデレーション,,株式会社,茨城県,つくば市,みどりの南４３番地５,,08,220,3050884,,,,,,,2024-04-01,1,,,,,モデレーション,0
1445,9060001036962,新規,0,2024-04-01,2024-04-01,花星株式会社,,株式会社,栃木県,さくら市,北草川２丁目１９番地９,,09,214,3291322,,,,,,,2024-04-01,1,,,,,カセイ,0
1449,9080403004978,新規,0,2024-04-01,2024-04-01,合同会社アートＮＧＳ研究所,,合同会社,静岡県,浜松市中央区,東三方町２３番地の５,,22,138,4338104,,,,,,,2024-04-01,1,,,,,アートエヌジーエスケンキュウジョ,0
1457,9120001263583,新規,0,2024-04-01,2024-04-01,株式会社Ｇｏｏｄ　Ｂｕｄｄｙ,,株式会社,大阪府,寝屋川市,中神田町１３番１５号（１０３号）,,27,215,5720053,,,,,,,2024-04-01,1,,,,,グッドバディー,0
1458,9120001263674,新規,0,2024-04-01,2024-04-01,東方株式会社,,株式会社,大阪府,大阪市生野区,中川３丁目４番１７号２０９号室,,27,116,5440005,,,,,,,2024-04-01,1,,,,,トウホウ,0
1460,9120003026204,新規,0,2024-04-01,2024-04-01,合同会社コンフェイト,,合同会社,大阪府,門真市,本町１番１７－９０３号,,27,223,5710046,,,,,,,2024-04-01,1,,,,,コンフェイト,0
1461,9120103005751,新規,0,2024-04-01,2024-04-01,合同会社ＯＫＣＤＭＫ,,合同会社,大阪府,堺市堺区,中三国ヶ丘町６丁１番１－５０２号,,27,141,5900022,,,,,,,2024-04-01,1,,,,,オーケーシーディーエムケー,0
1462,9122001037959,新規,0,2024-04-01,2024-04-01,株式会社ａｉｍ,,株式会社,大阪府,八尾市,青山町４丁目２番８号,,27,212,5810018,,,,,,,2024-04-01,1,,,,,エイム,0
1466,9130003009414,新規,0,2024-04-01,2024-04-01,Ｓｅｒｅｎｏｌｏｇｙ合同会社,,合同会社,京都府,京都市中京区,西ノ京冷泉町１３１アンダンテ３０１号室,,26,104,6048481,,,,,,,2024-04-01,1,,,,,セレンノロギ,0
1490,9180303006057,新規,0,2024-04-01,2024-04-01,合同会社ＤＯＵＺＥ,,合同会社,愛知県,安城市,桜井町塔見塚４６番地３,,23,212,4441154,,,,,,,2024-04-01,1,,,,,ドーズ,0
1492,9190001031224,新規,0,2024-04-01,2024-04-01,株式会社イーキャリアサポート,,株式会社,三重県,四日市市,東新町１６番３号,,24,202,5100025,,,,,,,2024-04-01,1,,,,,イーキャリアサポート,0
1494,9200001042327,新規,0,2024-04-01,2024-04-01,華星株式会社,,株式会社,岐阜県,関市,富之保１４５５番地１,,21,205,5013501,,,,,,,2024-04-01,1,,,,,カセイ,0
1496,9210001019695,新規,0,2024-04-01,2024-04-01,株式会社ＹＳＲ,,株式会社,福井県,福井市,高木町第７６号３０番地４,,18,201,9100806,,,,,,,2024-04-01,1,,,,,ワイエスアール,0
1498,9230001020271,新規,0,2024-04-01,2024-04-01,株式会社富山サポートプラス,,株式会社,富山県,富山市,千歳町２丁目５番２６号,,16,201,9300018,,,,,,,2024-04-01,1,,,,,トヤマサポートプラス,0
1529,9290803004664,新規,0,2024-04-01,2024-04-01,合同会社竜神,,合同会社,福岡県,北九州市小倉南区,葛原高松１丁目６番２１号,,40,107,8000252,,,,,,,2024-04-01,1,,,,,リュウシン,0
1537,9360001033418,新規,0,2024-04-01,2024-04-01,株式会社吉花,,株式会社,沖縄県,中頭郡西原町,字幸地２８０番地１ひまわり館プラヤ１０１,,47,329,9030116,,,,,,,2024-04-01,1,,,,,ヨシカ,0
1538,9360003013847,新規,0,2024-04-01,2024-04-01,合同会社ｒｅｖｉｖａｌ,,合同会社,沖縄県,沖縄市,美里仲原町２７番１７号メゾンやすらぎ２－Ｂ,,47,211,9042156,,,,,,,2024-04-01,1,,,,,リヴァイバル,0
1546,9370005010759,新規,0,2024-04-01,2024-04-01,一般社団法人お結び,,その他の設立登記法人,宮城県,仙台市青葉区,郷六字葛岡下４９番地の１２広瀬の杜１番館１０１,,04,101,9893121,,,,,,,2024-04-01,1,,,,,オムスビ,0
1556,9462503000216,新規,0,2024-04-01,2024-04-01,合同会社Ｍサービス,,合同会社,北海道,標津郡中標津町,西十三条北１４丁目１番地１,,01,692,0861133,,,,,,,2024-04-01,1,,,,,,0
