sequenceNumber,corporateNumber,process,correct,updateDate,changeDate,name,nameImageId,kind,prefectureName,cityName,streetNumber,addressImageId,prefectureCode,cityCode,postCode,addressOutside,addressOutsideImageId,closeDate,closeCause,successorCorporateNumber,changeCause,assignmentDate,latest,enName,enPrefectureName,enCityName,enAddressOutside,furigana,hihyoji
11,1010401052844,登記記録の閉鎖等,0,2022-02-21,2022-02-17,九段ＰＦＩサービス株式会社,,株式会社,東京都,中央区,京橋２丁目１６番１号,,13,102,1040031,,,2022-02-17,清算の結了等,,,2015-10-05,1,,,,,クダンピーエフアイサービス,0
19,1010403010965,登記記録の閉鎖等,0,2022-02-21,2022-02-15,Ｓｔａｍｐｉｎ’Ｕｐ　Ｊａｐａｎ合同会社,,合同会社,東京都,港区,南麻布３丁目１９番２３号オーク南麻布ビル２階,,13,103,1060047,,,2022-02-15,清算の結了等,,,2015-10-05,1,,,,,スタンピンアップジャパン,0
54,1012302005534,登記記録の閉鎖等,0,2022-02-21,2022-02-10,有限会社イケガミ事務所,,有限会社,東京都,町田市,玉川学園１丁目２０番５号,,13,209,1940041,,,2022-02-10,清算の結了等,,,2015-10-05,1,,,,,イケガミジムショ,0
62,1020001035018,登記記録の閉鎖等,0,2022-02-21,2022-02-16,株式会社ヨツモト,,株式会社,神奈川県,横浜市青葉区,あざみ野２丁目９番地１１,,14,117,2250011,,,2022-02-16,清算の結了等,,,2015-10-05,1,,,,,ヨツモト,0
100,1060001019108,登記記録の閉鎖等,0,2022-02-21,2022-02-17,福居タクシー株式会社,,株式会社,栃木県,足利市,朝倉町７９０番地１０,,09,202,3260823,,,2022-02-17,清算の結了等,,,2015-10-05,1,,,,,フクイタクシー,0
112,1100001025299,登記記録の閉鎖等,0,2022-02-21,2022-02-15,蕃龍株式会社,,株式会社,長野県,長野市,大字徳間３１１５番地,,20,201,3810041,,,2022-02-15,清算の結了等,,,2015-10-05,1,,,,,バンリュウ,0
119,1110001035925,登記記録の閉鎖等,0,2022-02-21,2022-02-17,株式会社ジャパンファーマケイ,,株式会社,新潟県,長岡市,福住１丁目６番２８号エクセレンス長岡３０３号室,,15,202,9400034,,,2022-02-17,清算の結了等,,,2021-07-21,1,,,,,ジャパンファーマケイ,0
130,1120002064617,登記記録の閉鎖等,0,2022-02-21,2022-02-17,有限会社エイチ・ケイ化工,,有限会社,大阪府,大阪市平野区,加美北４丁目７番５号,,27,126,5470001,,,2022-02-17,清算の結了等,,,2015-10-05,1,,,,,,0
144,1130002030576,登記記録の閉鎖等,0,2022-02-21,2022-02-17,有限会社池田,,有限会社,京都府,城陽市,寺田水度坂１５番地の３１,,26,207,6100121,,,2022-02-17,清算の結了等,,,2015-10-05,1,,,,,イケダ,0
147,1140001008110,登記記録の閉鎖等,0,2022-02-21,2022-02-17,株式会社ジェーイー,,株式会社,兵庫県,神戸市中央区,新港町８番１号,,28,110,6500041,,,2022-02-17,清算の結了等,,,2015-10-05,1,,,,,ジェーイー,0
173,1180003018351,登記記録の閉鎖等,0,2022-02-21,2022-02-15,合同会社ウッドサイドパーク,,合同会社,愛知県,名古屋市緑区,桶狭間５１４番地,,23,114,4580925,,,2022-02-15,清算の結了等,,,2017-10-13,1,,,,,ウッドサイドパーク,0
174,1180005018952,登記記録の閉鎖等,0,2022-02-21,2022-02-17,一般社団法人ゴッドハンドＬａｂ．,,その他の設立登記法人,愛知県,一宮市,野口２丁目１２番３号,,23,203,4910911,,,2022-02-17,清算の結了等,,,2020-09-25,1,,,,,ゴッドハンドラボ,0
178,1200001013475,登記記録の閉鎖等,0,2022-02-21,2022-02-17,株式会社カワセスポーツ,,株式会社,岐阜県,大垣市,御殿町１丁目５５番地,,21,202,5030877,,,2022-02-17,清算の結了等,,,2015-10-05,1,,,,,カワセスポーツ,0
214,1290805008778,登記記録の閉鎖等,0,2022-02-21,2022-02-10,一般社団法人ソシアルフィールド,,その他の設立登記法人,福岡県,築上郡築上町,大字湊２４８番地,,40,647,8290311,,,2022-02-10,清算の結了等,,,2015-11-04,1,,,,,ソシアルフィールド,0
258,1460402000344,登記記録の閉鎖等,0,2022-02-21,2022-02-17,有限会社もりやま,,有限会社,北海道,根室市,光洋町３丁目３８番地３,,01,223,0870004,,,2022-02-17,清算の結了等,,,2015-10-05,1,,,,,モリヤマ,0
269,2010001077084,登記記録の閉鎖等,0,2022-02-21,2022-02-16,株式会社文施総研,,株式会社,埼玉県,川越市,今成２丁目８番地３,,11,201,3501105,,,2022-02-16,清算の結了等,,,2015-10-05,1,,,,,ブンシソウケン,0
270,2010001091300,登記記録の閉鎖等,0,2022-02-21,2022-02-04,マイ・エージェント・ジャパン株式会社,,株式会社,東京都,渋谷区,渋谷３丁目６番２号,,13,113,1500002,,,2022-02-04,清算の結了等,,,2015-10-05,1,,,,,マイエージェントジャパン,0
272,2010001192197,登記記録の閉鎖等,0,2022-02-21,2022-02-17,櫻商事株式会社,,株式会社,岐阜県,加茂郡白川町,河岐４９２番地４,,21,506,5091105,,,2022-02-17,清算の結了等,,,2018-05-31,1,,,,,サクラショウジ,0
284,2010401138023,登記記録の閉鎖等,0,2022-02-21,2022-02-16,株式会社アンダー,,株式会社,東京都,港区,三田２丁目７番９－８０４号,,13,103,1080073,,,2022-02-16,清算の結了等,,,2018-04-25,1,,,,,アンダー,0
287,2010402011765,登記記録の閉鎖等,0,2022-02-21,2022-02-16,有限会社寶磁洞,,有限会社,東京都,港区,六本木３丁目４番３６号,,13,103,1060032,,,2022-02-16,清算の結了等,,,2015-10-05,1,,,,,,0
308,2011002011593,登記記録の閉鎖等,0,2022-02-21,2022-02-03,有限会社マサイチ工業所,,有限会社,東京都,渋谷区,本町５丁目４５番１５号,,13,113,1510071,,,2022-02-03,清算の結了等,,,2015-10-05,1,,,,,マサイチコウギョウショ,0
310,2011101000472,登記記録の閉鎖等,0,2022-02-21,2022-02-14,株式会社アールティー,,株式会社,東京都,新宿区,矢来町１５番地,,13,104,1620805,,,2022-02-14,清算の結了等,,,2015-10-05,1,,,,,アールティー,0
312,2011101087527,登記記録の閉鎖等,0,2022-02-21,2022-02-15,ＳＥＮＳＥ　ＡＣＡＤＥＭＩＣＳ株式会社,,株式会社,東京都,新宿区,西新宿７丁目２２番４８号キャッスルマンション西新宿３０１号室,,13,104,1600023,,,2022-02-15,清算の結了等,,,2019-05-14,1,,,,,センスアカデミックス,0
316,2011201005702,登記記録の閉鎖等,0,2022-02-21,2022-02-14,株式会社ワールド企画,,株式会社,東京都,中野区,松が丘１丁目２８番１１号,,13,114,1650024,,,2022-02-14,清算の結了等,,,2015-10-05,1,,,,,ワールドキカク,0
349,2021002039139,登記記録の閉鎖等,0,2022-02-21,2022-02-16,有限会社桑原新聞舗,,有限会社,神奈川県,秦野市,春日町１番３４号,,14,211,2591312,,,2022-02-16,清算の結了等,,,2015-10-05,1,,,,,クワハラシンブンホ,0
352,2030001003187,登記記録の閉鎖等,0,2022-02-21,2022-02-17,株式会社桜井,,株式会社,埼玉県,さいたま市緑区,松木２丁目２９番１５号,,11,109,3360918,,,2022-02-17,清算の結了等,,,2015-10-05,1,,,,,サクライ,0
353,2030001029521,登記記録の閉鎖等,0,2022-02-21,2022-02-16,株式会社宣工社,,株式会社,埼玉県,所沢市,大字本郷１１１８番地６,,11,208,3590022,,,2022-02-16,清算の結了等,,,2015-10-05,1,,,,,センコウシャ,0
364,2030002085613,登記記録の閉鎖等,0,2022-02-21,2022-02-17,有限会社ガレージ・アール,,有限会社,埼玉県,越谷市,東越谷７丁目６番地１,,11,222,3430023,,,2022-02-17,清算の結了等,,,2015-10-05,1,,,,,ガレージアール,0
381,2070002037692,登記記録の閉鎖等,0,2022-02-21,2022-02-18,有限会社加藤健康管理センター,,有限会社,群馬県,前橋市,朝日町１丁目１３番１２号,,10,201,3710014,,,2022-02-18,清算の結了等,,,2020-12-22,1,,,,,カトウケンコウカンリセンター,0
384,2080401001125,登記記録の閉鎖等,0,2022-02-21,2022-02-17,株式会社オフイス・エム,,株式会社,静岡県,浜松市中区,佐鳴台５丁目２７番９号,,22,131,4328021,,,2022-02-17,清算の結了等,,,2015-10-05,1,,,,,オフイスエム,0
396,2110003003350,登記記録の閉鎖等,0,2022-02-21,2022-02-17,合同会社越後つくしの里・ひまわりソーシャルサポートネット,,合同会社,新潟県,上越市,大字南新保８９７番地の１,,15,222,9430108,,,2022-02-17,清算の結了等,,,2016-08-08,1,,,,,エチゴツクシノサトヒマワリソーシャルサポートネット,0
408,2120901013739,登記記録の閉鎖等,0,2022-02-21,2022-02-18,株式会社白瀬マルシン青果,,株式会社,大阪府,茨木市,横江１丁目２０番３３号,,27,211,5670865,,,2022-02-18,清算の結了等,,,2015-10-05,1,,,,,,0
457,2240002040530,登記記録の閉鎖等,0,2022-02-21,2022-02-16,有限会社光栄建工,,有限会社,広島県,福山市,多治米町２丁目１６番８－３０１号,,34,207,7200824,,,2022-02-16,清算の結了等,,,2015-10-05,1,,,,,コウエイケンコウ,0
460,2260002002355,登記記録の閉鎖等,0,2022-02-21,2022-02-17,有限会社オフィス江口,,有限会社,岡山県,岡山市中区,古京町１丁目４番３１号,,33,102,7038278,,,2022-02-17,清算の結了等,,,2015-10-05,1,,,,,,0
462,2270001007957,登記記録の閉鎖等,0,2022-02-21,2022-02-15,株式会社Ｅｖｅｒｔｅｃ,,株式会社,大阪府,大阪市西成区,千本南１丁目１７番２１号１０５－Ｂ室,,27,122,5570055,,,2022-02-15,清算の結了等,,,2020-03-13,1,,,,,エバーテック,0
480,2330001009492,登記記録の閉鎖等,0,2022-02-21,2022-02-17,株式会社藤野地所,,株式会社,熊本県,合志市,須屋７１４番地１３,,43,216,8611102,,,2022-02-17,清算の結了等,,,2022-01-20,1,,,,,フジノチショ,0
496,2430001051641,登記記録の閉鎖等,0,2022-02-21,2022-02-17,小樽海産株式会社,00088740,株式会社,北海道,小樽市,銭函５丁目５７番１５号,,01,203,0613271,,,2022-02-17,清算の結了等,,,2015-10-05,1,,,,,,0
528,3010003025494,登記記録の閉鎖等,0,2022-02-21,2022-02-16,合同会社グランシード,,合同会社,東京都,千代田区,鍛冶町１丁目１０番６号,,13,101,1010044,,,2022-02-16,合併による解散等,3040003013892,令和４年２月１日千葉県松戸市新松戸三丁目３番地１なうエコロジー合同会社（3040003013892）に合併し解散,2017-06-13,1,,,,,グランシード,0
558,3011001017962,登記記録の閉鎖等,0,2022-02-21,2022-02-03,日本ビジネスサービス株式会社,,株式会社,東京都,渋谷区,東３丁目１８番５号,,13,113,1500011,,,2022-02-03,清算の結了等,,,2015-10-05,1,,,,,ニホンビジネスサービス,0
559,3011001045600,登記記録の閉鎖等,0,2022-02-21,2022-02-04,株式会社サンズコート,,株式会社,東京都,渋谷区,猿楽町２９番１０号,,13,113,1500033,,,2022-02-04,清算の結了等,,,2015-10-05,1,,,,,サンズコート,0
561,3011001062273,登記記録の閉鎖等,0,2022-02-21,2022-02-16,株式会社ＴＥＣＨＷＡＶＥ,,株式会社,東京都,港区,元麻布３丁目１番３５号,,13,103,1060046,,,2022-02-16,清算の結了等,,,2015-10-05,1,,,,,テックウェーブ,0
570,3011203002465,登記記録の閉鎖等,0,2022-02-21,2022-02-14,合同会社ＧＵＩＬＴＹ,,合同会社,東京都,中野区,中野５丁目５６番１６号オリーブビル１階,,13,114,1640001,,,2022-02-14,清算の結了等,,,2016-12-12,1,,,,,ギルティ,0
604,3020001024902,登記記録の閉鎖等,0,2022-02-21,2022-02-18,株式会社横浜メデイアシステム,,株式会社,神奈川県,横浜市神奈川区,西大口１３４番地９,,14,102,2210004,,,2022-02-18,清算の結了等,,,2015-10-05,1,,,,,,0
614,3021001063394,登記記録の閉鎖等,0,2022-02-21,2022-02-17,株式会社セミュウ,,株式会社,神奈川県,相模原市南区,相模大野５丁目１７番３号,,14,153,2520303,,,2022-02-17,清算の結了等,,,2017-10-30,1,,,,,セミュウ,0
654,3040003013991,登記記録の閉鎖等,0,2022-02-21,2022-02-10,合同会社エムケイフォー,,合同会社,千葉県,市川市,国分３丁目４番２１号,,12,203,2720834,,,2022-02-10,清算の結了等,,,2019-09-04,1,,,,,エムケイフォー,0
668,3080002016711,登記記録の閉鎖等,0,2022-02-21,2022-02-15,有限会社サンエス興業,,有限会社,静岡県,焼津市,五ケ堀之内２８５番地の２,,22,212,4250077,,,2022-02-15,清算の結了等,,,2015-10-05,1,,,,,サンエスコウギョウ,0
727,3140001076535,登記記録の閉鎖等,0,2022-02-21,2022-02-16,寶織物株式会社,,株式会社,兵庫県,加西市,北条町北条４７４番地の２,,28,220,6752312,,,2022-02-16,清算の結了等,,,2015-10-05,1,,,,,タカラオリモノ,0
742,3180001134553,登記記録の閉鎖等,0,2022-02-21,2022-02-17,国奇株式会社,,株式会社,岐阜県,加茂郡白川町,河岐４９２番地の４,,21,506,5091105,,,2022-02-17,清算の結了等,,,2018-11-28,1,,,,,クニキ,0
743,3180001137044,登記記録の閉鎖等,0,2022-02-21,2022-02-09,株式会社シンプルサービス,,株式会社,愛知県,名古屋市中村区,名駅４丁目２４番１６号名古屋広小路ガーデンアベニュー３Ｆ,,23,105,4500002,,,2022-02-09,清算の結了等,,,2019-06-19,1,,,,,シンプルサービス,0
749,3180003019653,登記記録の閉鎖等,0,2022-02-21,2022-02-09,ブエナヴィーダ合同会社,,合同会社,愛知県,名古屋市千種区,春里町３丁目９番地の２,,23,101,4640038,,,2022-02-09,清算の結了等,,,2019-01-31,1,,,,,ブエナヴィーダ,0
761,3220002007514,登記記録の閉鎖等,0,2022-02-21,2022-02-17,有限会社山田自動車,,有限会社,石川県,白山市,白山町子３８番地,,17,210,9202115,,,2022-02-17,清算の結了等,,,2015-10-05,1,,,,,ヤマダジドウシャ,0
767,3240001053524,登記記録の閉鎖等,0,2022-02-21,2022-02-18,ＲＥＤ株式会社,,株式会社,広島県,広島市南区,皆実町４丁目２番２２号,,34,103,7340007,,,2022-02-18,清算の結了等,,,2018-11-06,1,,,,,レッド,0
772,3270001007956,登記記録の閉鎖等,0,2022-02-21,2022-02-15,株式会社Ｆｏｒｅｖｅｒ　Ｒｅｓｏｕｒｃｅｓ,,株式会社,大阪府,大阪市西成区,千本南１丁目１７番２１号１０３－Ｆ室,,27,122,5570055,,,2022-02-15,清算の結了等,,,2020-03-13,1,,,,,フォーエバーリソース,0
848,4010501014898,登記記録の閉鎖等,0,2022-02-21,2022-02-17,株式会社レディ,,株式会社,東京都,台東区,橋場１丁目３番１号,,13,106,1110023,,,2022-02-17,合併による解散等,8010501011405,令和４年２月１日東京都台東区橋場一丁目３番２号株式会社ハーモニープロダクツ（8010501011405）に合併し解散,2015-10-05,1,,,,,レディ,0
891,4020001050476,登記記録の閉鎖等,0,2022-02-21,2022-02-17,株式会社ブレイズ,,株式会社,神奈川県,横浜市西区,花咲町６丁目１４５番地,,14,103,2200022,,,2022-02-17,清算の結了等,,,2015-10-05,1,,,,,ブレイズ,0
904,4021002014593,登記記録の閉鎖等,0,2022-02-21,2022-02-16,有限会社五光電設,,有限会社,神奈川県,鎌倉市,手広２丁目１４番１３号,,14,204,2480036,,,2022-02-16,清算の結了等,,,2015-10-05,1,,,,,ゴコウデンセツ,0
921,4030005012934,登記記録の閉鎖等,0,2022-02-21,2022-02-17,特定非営利活動法人航空宇宙青少年協会,,その他の設立登記法人,埼玉県,草加市,新里町５７番地１４,,11,221,3400031,,,2022-02-17,清算の結了等,,,2015-10-05,1,,,,,コウクウウチュウセイショウネンキョウカイ,0
949,4110001000141,登記記録の閉鎖等,0,2022-02-21,2022-02-16,株式会社青池鉄工所,,株式会社,新潟県,新潟市西区,内野町１２８１番地,,15,107,9502112,,,2022-02-16,清算の結了等,,,2015-10-05,1,,,,,アオイケテッコウショ,0
952,4120001005263,登記記録の閉鎖等,0,2022-02-21,2022-02-18,小村洋装株式会社,,株式会社,大阪府,大阪市阿倍野区,阪南町２丁目２７番２３号,,27,119,5450021,,,2022-02-18,清算の結了等,,,2015-10-05,1,,,,,コムラヨウソウ,0
954,4120001113867,登記記録の閉鎖等,0,2022-02-21,2022-02-17,株式会社シャルマン,,株式会社,大阪府,大阪市北区,西天満５丁目１４番２号,,27,127,5300047,,,2022-02-17,合併による解散等,1120001061755,令和４年２月１７日大阪市北区西天満五丁目１４番２号エヌシーシー株式会社（1120001061755）に合併し解散,2015-10-05,1,,,,,シャルマン,0
981,4140005021486,登記記録の閉鎖等,0,2022-02-21,2022-02-17,特定非営利活動法人スポーツコミュニティキッズ＆シニア兵庫総合型地域スポーツクラブ,,その他の設立登記法人,兵庫県,姫路市,的形町的形７６０番地２１,,28,201,6710111,,,2022-02-17,清算の結了等,,,2015-10-05,1,,,,,スポーツコミュニティキッズアンドシニアヒョウゴソウゴウガタチイキスポーツクラブ,0
997,4200001031078,登記記録の閉鎖等,0,2022-02-21,2022-02-17,于湲株式会社,,株式会社,岐阜県,加茂郡白川町,河岐４９２番地４,,21,506,5091105,,,2022-02-17,清算の結了等,,,2015-10-05,1,,,,,ウエン,0
1111,5011605002342,登記記録の閉鎖等,0,2022-02-21,2022-02-03,一般社団法人神社を守る会,,その他の設立登記法人,東京都,渋谷区,円山町５番５号Ｎａｖｉ渋谷Ｖ３階,,13,113,1500044,,,2022-02-03,清算の結了等,,,2020-12-02,1,,,,,ジンジャヲマモルカイ,0
1124,5020002106318,登記記録の閉鎖等,0,2022-02-21,2022-02-18,有限会社オーズ,,有限会社,神奈川県,横浜市旭区,白根６丁目１２番１５号,,14,112,2410005,,,2022-02-18,清算の結了等,,,2015-10-05,1,,,,,オーズ,0
1133,5021002021969,登記記録の閉鎖等,0,2022-02-21,2022-02-15,有限会社大松,,有限会社,神奈川県,相模原市中央区,淵野辺４丁目１５番１０号,,14,152,2520206,,,2022-02-15,清算の結了等,,,2015-10-05,1,,,,,ダイマツ,0
1134,5021002065339,登記記録の閉鎖等,0,2022-02-21,2022-02-16,有限会社タケウチ,,有限会社,神奈川県,横須賀市,久里浜５丁目１７番１号,,14,201,2390831,,,2022-02-16,清算の結了等,,,2015-10-05,1,,,,,タケウチ,0
1159,5060005003500,登記記録の閉鎖等,0,2022-02-21,2022-02-15,協同組合鹿沼エルピーガス保安センター,,その他の設立登記法人,栃木県,鹿沼市,緑町１丁目２番１３号,,09,205,3220025,,,2022-02-15,清算の結了等,,,2015-10-05,1,,,,,カヌマエルピーガスホアンセンター,0
1161,5080001011629,登記記録の閉鎖等,0,2022-02-21,2022-02-17,株式会社レイヤ,,株式会社,静岡県,静岡市駿河区,八幡２丁目１６番２２号,,22,102,4228076,,,2022-02-17,清算の結了等,,,2015-10-05,1,,,,,レイヤ,0
1176,5120001043881,登記記録の閉鎖等,0,2022-02-21,2022-02-15,株式会社商業環境計画研究所,,株式会社,大阪府,大阪市西区,立売堀６丁目６番６－１３０２号,,27,106,5500012,,,2022-02-15,清算の結了等,,,2015-10-05,1,,,,,ショウギョウカンキョウケイカクケンキュウショ,0
1200,5140001052996,登記記録の閉鎖等,0,2022-02-21,2022-02-15,サンライフ株式会社,,株式会社,兵庫県,尼崎市,水堂町４丁目１番５号,,28,202,6610026,,,2022-02-15,清算の結了等,,,2015-10-05,1,,,,,サンライフ,0
1205,5140005020545,登記記録の閉鎖等,0,2022-02-21,2022-02-14,特定非営利活動法人禁煙推進の会兵庫さんだ,,その他の設立登記法人,兵庫県,三田市,高次２丁目６番４号,,28,219,6691512,,,2022-02-14,清算の結了等,,,2015-10-05,1,,,,,キンエンスイシンノカイヒョウゴサンダ,0
1223,5180001144889,登記記録の閉鎖等,0,2022-02-21,2022-02-14,株式会社ｆｊｕ,,株式会社,愛知県,名古屋市中川区,西伏屋２丁目１３１５番地,,23,110,4540982,,,2022-02-14,清算の結了等,,,2021-02-24,1,,,,,エフジェイユウ,0
1229,5200001035516,登記記録の閉鎖等,0,2022-02-21,2022-02-17,燕商事株式会社,,株式会社,岐阜県,加茂郡白川町,河岐４９２番地４,,21,506,5091105,,,2022-02-17,清算の結了等,,,2018-09-12,1,,,,,ツバメショウジ,0
1250,5310002013204,登記記録の閉鎖等,0,2022-02-21,2022-02-15,有限会社イワイ長崎,,有限会社,長崎県,佐世保市,吉井町直谷１０５７番地７,,42,202,8596305,,,2022-02-15,合併による解散等,8040001063175,令和４年２月１日千葉県銚子市川口町二丁目６３８５番地の２３２株式会社リバース（8040001063175）に合併し解散,2015-10-05,1,,,,,イワイナガサキ,0
1266,5410001012329,登記記録の閉鎖等,0,2022-02-21,2022-02-17,にかほ輸送サービス株式会社,,株式会社,秋田県,にかほ市,金浦字木の浦山１１番地１,,05,214,0180311,,,2022-02-17,清算の結了等,,,2019-11-14,1,,,,,ニカホユソウサービス,0
1275,5430002029378,登記記録の閉鎖等,0,2022-02-21,2022-02-16,有限会社札幌アドセンター,,有限会社,北海道,札幌市南区,川沿三条２丁目２番２号,,01,106,0050803,,,2022-02-16,清算の結了等,,,2015-10-05,1,,,,,サッポロアドセンター,0
1293,6010102002615,登記記録の閉鎖等,0,2022-02-21,2022-02-17,有限会社コスモビジネス,,有限会社,東京都,八王子市,緑町７２３番地の１,,13,201,1930932,,,2022-02-17,清算の結了等,,,2015-10-05,1,,,,,コスモビジネス,0
1298,6010401099575,登記記録の閉鎖等,0,2022-02-21,2022-02-18,日本白神水産株式会社,,株式会社,秋田県,山本郡八峰町,八森字古屋敷３,,05,349,0182664,,,2022-02-18,清算の結了等,,,2015-10-05,1,,,,,,0
1307,6010402013659,登記記録の閉鎖等,0,2022-02-21,2022-02-16,有限会社ライフマネジメント研究所,,有限会社,東京都,港区,芝浦２丁目１４番１９－２０３号,,13,103,1080023,,,2022-02-16,清算の結了等,,,2015-10-05,1,,,,,,0
1324,6011003008288,登記記録の閉鎖等,0,2022-02-21,2022-02-04,Ａ＆Ｍ医薬開発合同会社,,合同会社,東京都,目黒区,上目黒１丁目１６番８号,,13,110,1530051,,,2022-02-04,清算の結了等,,,2017-12-05,1,,,,,エーアンドエムイヤクカイハツ,0
1333,6011601020941,登記記録の閉鎖等,0,2022-02-21,2022-02-15,株式会社ＡＣＲｏｍ,,株式会社,東京都,新宿区,西新宿６丁目５番１号新宿アイランドタワー２０階,,13,104,1600023,,,2022-02-15,清算の結了等,,,2016-05-20,1,,,,,アクロム,0
1337,6011803001277,登記記録の閉鎖等,0,2022-02-21,2022-02-18,合同会社ｆｕｔｕｒｅ,,合同会社,東京都,葛飾区,東金町８丁目３番６号グリーンゲイブルズ２０３,,13,122,1250041,,,2022-02-18,清算の結了等,,,2015-10-05,1,,,,,,0
1350,6013203000149,登記記録の閉鎖等,0,2022-02-21,2022-02-01,合資会社水谷商店,,合資会社,東京都,目黒区,自由が丘２丁目１１番１１号,,13,110,1520035,,,2022-02-01,合併による解散等,5013202008615,令和４年２月１日東京都目黒区自由が丘二丁目１１番１１号株式会社ヒルズハウス（5013202008615）に合併し解散,2015-10-05,1,,,,,ミズタニショウテン,0
1386,6040001095419,登記記録の閉鎖等,0,2022-02-21,2022-02-17,株式会社シンジャパン,,株式会社,秋田県,由利本荘市,岩谷町字十二柳１２８番地,,05,210,0180711,,,2022-02-17,清算の結了等,,,2016-05-25,1,,,,,シンジャパン,0
1390,6040002038054,登記記録の閉鎖等,0,2022-02-21,2022-02-10,有限会社寿美屋インターナショナル,,有限会社,千葉県,鎌ケ谷市,くぬぎ山２丁目７番２２号,,12,224,2730128,,,2022-02-10,清算の結了等,,,2015-10-05,1,,,,,スミヤインターナショナル,0
1395,6050001008412,登記記録の閉鎖等,0,2022-02-21,2022-02-15,株式会社久野歯科技工所,,株式会社,茨城県,笠間市,箱田１７９８番地,,08,216,3091631,,,2022-02-15,清算の結了等,,,2015-10-05,1,,,,,クノシカギコウショ,0
1409,6110002018718,登記記録の閉鎖等,0,2022-02-21,2022-02-16,有限会社林庭園,,有限会社,新潟県,三条市,興野１丁目５番１４号,,15,204,9550046,,,2022-02-16,清算の結了等,,,2015-10-05,1,,,,,ハヤシテイエン,0
1410,6120001000329,登記記録の閉鎖等,0,2022-02-21,2022-02-16,キタオ商事株式会社,,株式会社,大阪府,大阪市旭区,中宮５丁目１１番１５号,,27,117,5350003,,,2022-02-16,清算の結了等,,,2015-10-05,1,,,,,キタオショウジ,0
1432,6122002005884,登記記録の閉鎖等,0,2022-02-21,2022-02-17,有限会社アトラス工芸,,有限会社,大阪府,東大阪市,西石切町３丁目８番４１号,,27,227,5798013,,,2022-02-17,清算の結了等,,,2015-10-05,1,,,,,アトラスコウゲイ,0
1434,6122003001973,登記記録の閉鎖等,0,2022-02-21,2022-02-14,合同会社太陽,,合同会社,大阪府,大東市,新田中町１－１センチュリービル１Ｆ,,27,218,5740056,,,2022-02-14,清算の結了等,,,2020-12-03,1,,,,,タイヨウ,0
1462,6180005002448,登記記録の閉鎖等,0,2022-02-21,2022-02-14,医療法人小池内科,,その他の設立登記法人,愛知県,名古屋市瑞穂区,姫宮町２丁目１１番地,,23,108,4670834,,,2022-02-14,清算の結了等,,,2015-10-05,1,,,,,コイケナイカ,0
1467,6200001037255,登記記録の閉鎖等,0,2022-02-21,2022-02-17,株式会社文潔,,株式会社,岐阜県,加茂郡白川町,河岐４９２番地４,,21,506,5091105,,,2022-02-17,清算の結了等,,,2020-03-19,1,,,,,ブンケツ,0
1494,6320005008983,登記記録の閉鎖等,0,2022-02-21,2022-02-17,農事組合法人日豊食品,,その他の設立登記法人,大分県,佐伯市,大字戸穴２１１３番地の１,,44,205,8761106,,,2022-02-17,清算の結了等,,,2015-10-05,1,,,,,ニッポウショクヒン,0
1525,6450002010005,登記記録の閉鎖等,0,2022-02-21,2022-02-17,有限会社沼前呉服店,,有限会社,北海道,名寄市,風連町本町６５番地,,01,221,0980504,,,2022-02-17,清算の結了等,,,2015-10-05,1,,,,,ヌママエゴフクテン,0
1529,6490001006685,登記記録の閉鎖等,0,2022-02-21,2022-02-17,マル克フーヅ株式会社,,株式会社,高知県,南国市,立田１５４４番地２,,39,204,7830091,,,2022-02-17,清算の結了等,,,2015-10-05,1,,,,,マルカツフーヅ,0
1548,7010601011108,登記記録の閉鎖等,0,2022-02-21,2022-02-15,株式会社三栄自動車塗装工場,,株式会社,東京都,墨田区,江東橋２丁目１番５号,,13,107,1300022,,,2022-02-15,清算の結了等,,,2015-10-05,1,,,,,,0
1584,7020001095345,登記記録の閉鎖等,0,2022-02-21,2022-02-08,株式会社港北ハウジング,,株式会社,東京都,町田市,旭町１丁目１９番３号グリーンファーム丸屋１０６号室,,13,209,1940023,,,2022-02-08,清算の結了等,,,2015-10-05,1,,,,,コウホクハウジング,0
1587,7021001031488,登記記録の閉鎖等,0,2022-02-21,2022-02-16,株式会社トータルハウス,,株式会社,神奈川県,藤沢市,打戻１９３９番地２６,,14,205,2520824,,,2022-02-16,清算の結了等,,,2015-10-05,1,,,,,トータルハウス,0
1589,7021001046040,登記記録の閉鎖等,0,2022-02-21,2022-02-17,株式会社ピーアールジェイ,,株式会社,神奈川県,鎌倉市,高野２４番地１,,14,204,2470054,,,2022-02-17,清算の結了等,,,2015-10-05,1,,,,,ピーアールジェイ,0
1600,7030002012471,登記記録の閉鎖等,0,2022-02-21,2022-02-17,有限会社増田商会,,有限会社,埼玉県,さいたま市桜区,大字西堀１５３７番地２,,11,106,3380832,,,2022-02-17,清算の結了等,,,2015-10-05,1,,,,,,0
1603,7030003003222,登記記録の閉鎖等,0,2022-02-21,2022-02-16,合同会社テルコフーズ,,合同会社,埼玉県,さいたま市見沼区,丸ヶ崎町３６番地１２,,11,104,3370007,,,2022-02-16,清算の結了等,,,2015-10-05,1,,,,,テルコフーズ,0
1610,7040003016859,登記記録の閉鎖等,0,2022-02-21,2022-02-14,合同会社ＭＢＳ,,合同会社,千葉県,浦安市,北栄４丁目９番１０号,,12,227,2790002,,,2022-02-14,清算の結了等,,,2021-01-20,1,,,,,エムビーエス,0
1617,7070001032062,登記記録の閉鎖等,0,2022-02-21,2022-02-03,株式会社かあちゃんのまごころ,,株式会社,群馬県,北群馬郡吉岡町,大字大久保２１４３番地,,10,345,3703602,,,2022-02-03,清算の結了等,,,2016-04-18,1,,,,,カアチャンノマゴコロ,0
1626,7080402017058,登記記録の閉鎖等,0,2022-02-21,2022-02-18,有限会社サンエム,,有限会社,静岡県,浜松市中区,鍛冶町１５番地セントラルタワー１６０８,,22,131,4300933,,,2022-02-18,清算の結了等,,,2015-10-05,1,,,,,,0
1632,7100002023156,登記記録の閉鎖等,0,2022-02-21,2022-02-16,赤沼住宅設備販売有限会社,,有限会社,長野県,安曇野市,豊科４００８番地１１,,20,220,3998205,,,2022-02-16,清算の結了等,,,2015-10-05,1,,,,,アカヌマジュウタクセツビハンバイ,0
1653,7120003016413,登記記録の閉鎖等,0,2022-02-21,2022-02-16,ドットｍｉｘ合同会社,,合同会社,大阪府,大阪市旭区,中宮２丁目１７番１２号,,27,117,5350003,,,2022-02-16,清算の結了等,,,2019-10-16,1,,,,,ドットミックス,0
1659,7120101043945,登記記録の閉鎖等,0,2022-02-21,2022-02-17,株式会社アロー物流サービス,,株式会社,大阪府,泉南市,信達市場１４４９番地１,,27,228,5900504,,,2022-02-17,清算の結了等,,,2015-10-05,1,,,,,アローブツリュウサービス,0
1699,7200001037254,登記記録の閉鎖等,0,2022-02-21,2022-02-17,株式会社青克,,株式会社,岐阜県,加茂郡白川町,河岐４９２番地４,,21,506,5091105,,,2022-02-17,清算の結了等,,,2020-03-19,1,,,,,セイコク,0
1704,7200005007369,登記記録の閉鎖等,0,2022-02-21,2022-02-14,特定非営利活動法人地域のあしを考える会,,その他の設立登記法人,岐阜県,可児郡御嵩町,御嵩２８６３番地２１,,21,521,5050116,,,2022-02-14,清算の結了等,,,2015-10-05,1,,,,,チイキノアシヲカンガエルカイ,0
1716,7260001016979,登記記録の閉鎖等,0,2022-02-21,2022-02-18,株式会社Ｓｕｎｃｏｏｋ,,株式会社,岡山県,倉敷市,茶屋町６９５番地６,,33,202,7101101,,,2022-02-18,清算の結了等,,,2015-10-05,1,,,,,サンクック,0
1721,7290001059463,登記記録の閉鎖等,0,2022-02-21,2022-01-04,株式会社フェヴリナ,,株式会社,福岡県,福岡市中央区,薬院１丁目１番１号,,40,133,8100022,,,2022-01-04,合併による解散等,7290001032701,令和４年１月１日福岡市中央区薬院一丁目１番１号株式会社フォーシーズＨＤ（7290001032701）に合併し解散,2015-10-05,1,,,,,フェヴリナ,0
1723,7290001062351,登記記録の閉鎖等,0,2022-02-21,2022-02-16,福岡リペアウォッチ株式会社,,株式会社,福岡県,福岡市博多区,中洲５丁目１番２２号松月堂ビル４階,,40,132,8100801,,,2022-02-16,清算の結了等,,,2015-10-05,1,,,,,フクオカリペアウォッチ,0
1738,7350001015030,登記記録の閉鎖等,0,2022-02-21,2022-02-16,株式会社神の国から,,株式会社,宮崎県,延岡市,幸町２丁目１２５,,45,203,8820053,,,2022-02-16,清算の結了等,,,2017-11-21,1,,,,,カミノクニカラ,0
1772,8010403014539,登記記録の閉鎖等,0,2022-02-21,2022-02-17,Ａ－ネクスト合同会社,,合同会社,埼玉県,川口市,西川口６丁目１２－１５シャンボール第２西川口５０１,,11,203,3320021,,,2022-02-17,清算の結了等,,,2016-03-09,1,,,,,エーネクスト,0
1787,8011001093842,登記記録の閉鎖等,0,2022-02-21,2022-02-04,日本ビール株式会社,,株式会社,東京都,目黒区,上目黒１丁目８番１０号,,13,110,1530051,,,2022-02-04,合併による解散等,7011001024889,令和４年２月１日東京都渋谷区松濤二丁目２０番１０号１９０１ジャパンビバレッジ株式会社（7011001024889）に合併し解散,2015-10-05,1,,,,,ニッポンビール,0
1789,8011001137599,登記記録の閉鎖等,0,2022-02-21,2022-02-03,株式会社ＥＯ,,株式会社,東京都,渋谷区,恵比寿４丁目２０番３号恵比寿ガーデンプレイスタワー１８階,,13,113,1500013,,,2022-02-03,清算の結了等,,,2021-01-04,1,,,,,イーオー,0
1812,8012401022291,登記記録の閉鎖等,0,2022-02-21,2022-02-03,株式会社イノベーションコンサルティング,,株式会社,東京都,渋谷区,千駄ヶ谷４丁目２９番１２号,,13,113,1510051,,,2022-02-03,清算の結了等,,,2015-10-05,1,,,,,イノベーションコンサルティング,0
1818,8013102001007,登記記録の閉鎖等,0,2022-02-21,2022-02-18,有限会社エムティーダブリュー技研,,有限会社,東京都,羽村市,羽中１丁目６番３５号,,13,227,2050015,,,2022-02-18,清算の結了等,,,2015-10-05,1,,,,,エムティーダブリューギケン,0
1847,8040001098618,登記記録の閉鎖等,0,2022-02-21,2022-02-14,株式会社ティーエム計画,,株式会社,千葉県,千葉市若葉区,千城台北４丁目７番２１－２０５号,,12,104,2640005,,,2022-02-14,清算の結了等,,,2017-01-31,1,,,,,ティーエムケイカク,0
1861,8060005004826,登記記録の閉鎖等,0,2022-02-21,2022-02-10,医療法人さくら会,,その他の設立登記法人,栃木県,小山市,大字卒島２４４番地１,,09,208,3230061,,,2022-02-10,清算の結了等,,,2015-10-05,1,,,,,サクラカイ,0
1866,8080002004884,登記記録の閉鎖等,0,2022-02-21,2022-02-14,有限会社ビリヤード・ホリデイハウス,,有限会社,静岡県,静岡市駿河区,小鹿９６１番地の１２,,22,102,4228021,,,2022-02-14,清算の結了等,,,2015-10-05,1,,,,,ビリヤードホリデイハウス,0
1887,8110002020465,登記記録の閉鎖等,0,2022-02-21,2022-02-18,有限会社グリーン開発,,有限会社,新潟県,柏崎市,駅前２丁目２番１号,,15,205,9450055,,,2022-02-18,清算の結了等,,,2015-10-05,1,,,,,グリーンカイハツ,0
1951,8180003020895,登記記録の閉鎖等,0,2022-02-21,2022-02-10,合同会社ＨＴコンサルティング,,合同会社,愛知県,名古屋市中区,錦３丁目１７番２４号鬼頭ビルディング３０１,,23,106,4600003,,,2022-02-10,合併による解散等,2180001123904,令和４年２月１日名古屋市中区栄一丁目１２番６号秋月ハイツ１１０１号株式会社ＫＴクリエーション（2180001123904）に合併し解散,2020-02-27,1,,,,,エイチティーコンサルティング,0
1960,8180302026503,登記記録の閉鎖等,0,2022-02-21,2022-02-15,有限会社松田,,有限会社,愛知県,西尾市,永楽町２丁目１６番１号,,23,213,4450854,,,2022-02-15,合併による解散等,8120001082605,令和４年２月１日横浜市港北区新横浜三丁目１７番６号株式会社ココカラファインヘルスケア（8120001082605）に合併し解散,2015-10-05,1,,,,,マツダ,0
1975,8270002006498,登記記録の閉鎖等,0,2022-02-21,2022-02-17,有限会社東光台団地,,有限会社,鳥取県,米子市,皆生温泉１丁目１番６４号,,31,202,6830001,,,2022-02-17,清算の結了等,,,2015-10-05,1,,,,,トウコウダイダンチ,0
1990,8370001039191,登記記録の閉鎖等,0,2022-02-21,2022-02-16,東陽株式会社,,株式会社,宮城県,石巻市,魚町３丁目４番地１２,,04,202,9860022,,,2022-02-16,清算の結了等,,,2016-02-18,1,,,,,トウヨウ,0
2003,8470003001692,登記記録の閉鎖等,0,2022-02-21,2022-02-16,合同会社あじさい,,合同会社,香川県,丸亀市,田村町１４９８アーブル城南１０５号,,37,202,7630071,,,2022-02-16,清算の結了等,,,2019-12-25,1,,,,,アジサイ,0
2045,9011001048878,登記記録の閉鎖等,0,2022-02-21,2022-02-04,株式会社グリーンフォレスト,,株式会社,東京都,渋谷区,千駄ヶ谷４丁目２７番１３号シャトレー代々木１００５号室,,13,113,1510051,,,2022-02-04,清算の結了等,,,2015-10-05,1,,,,,グリーンフォレスト,0
2068,9012402003133,登記記録の閉鎖等,0,2022-02-21,2022-02-16,アルファエンジニアリング有限会社,,有限会社,東京都,国分寺市,東元町１丁目３０番１７号,,13,214,1850022,,,2022-02-16,清算の結了等,,,2015-10-05,1,,,,,アルファエンジニアリング,0
2071,9020001041058,登記記録の閉鎖等,0,2022-02-21,2022-02-17,株式会社ワイツー,,株式会社,神奈川県,横浜市南区,別所７丁目６番３号,,14,105,2320064,,,2022-02-17,清算の結了等,,,2015-10-05,1,,,,,ワイツー,0
2092,9030002023566,登記記録の閉鎖等,0,2022-02-21,2022-02-17,明石工業有限会社,,有限会社,埼玉県,戸田市,川岸２丁目８番８号,,11,224,3350015,,,2022-02-17,清算の結了等,,,2015-10-05,1,,,,,アカシコウギョウ,0
2111,9070001012616,登記記録の閉鎖等,0,2022-02-21,2022-02-18,株式会社フリーウェイコーポレーション,,株式会社,群馬県,藤岡市,金井６２７番地,,10,209,3750045,,,2022-02-18,清算の結了等,,,2015-10-05,1,,,,,,0
2112,9070002023059,登記記録の閉鎖等,0,2022-02-21,2022-02-16,有限会社加藤縫製,,有限会社,群馬県,桐生市,堤町１丁目９番６２号,,10,203,3760042,,,2022-02-16,清算の結了等,,,2015-10-05,1,,,,,カトウホウセイ,0
2124,9100001033724,登記記録の閉鎖等,0,2022-02-21,2022-02-18,株式会社Ｎａｔｕｒａｌ　ｎｕｍｂｅｒｓ,,株式会社,長野県,長野市,篠ノ井山布施８２０３番地,,20,201,3888017,,,2022-02-18,清算の結了等,,,2020-12-02,1,,,,,ナチュラルナンバーズ,0
2153,9140001001768,登記記録の閉鎖等,0,2022-02-21,2022-02-17,株式会社ジヤパンマリンサービス,,株式会社,兵庫県,神戸市東灘区,魚崎南町４丁目１番１６号,,28,101,6580025,,,2022-02-17,清算の結了等,,,2015-10-05,1,,,,,ジヤパンマリンサービス,0
2166,9180002035167,登記記録の閉鎖等,0,2022-02-21,2022-02-15,有限会社武田工務店,,有限会社,愛知県,名古屋市守山区,吉根３丁目８０５番地,,23,113,4630004,,,2022-02-15,清算の結了等,,,2015-10-05,1,,,,,タケダコウムテン,0
2168,9180301029019,登記記録の閉鎖等,0,2022-02-21,2022-02-16,株式会社ＥＸＣＥＥＤ,,株式会社,愛知県,豊田市,西町６丁目３番地７ＫＫビル３Ｆ,,23,211,4710025,,,2022-02-16,清算の結了等,,,2016-03-25,1,,,,,エクシード,0
2189,9290001040578,登記記録の閉鎖等,0,2022-02-21,2022-02-01,九建運輸産業株式会社,,株式会社,福岡県,福岡市中央区,赤坂２丁目５番５０号,,40,133,8100042,,,2022-02-01,合併による解散等,9290001008286,令和４年１月３１日福岡市中央区赤坂二丁目５番５０号ウエストホールディングス株式会社（9290001008286）に合併し解散,2015-10-05,1,,,,,キュウケンウンユサンギョウ,0
2209,9310003002193,登記記録の閉鎖等,0,2022-02-21,2022-02-17,合同会社ニキノジャパン,,合同会社,長崎県,佐世保市,相浦町１３１５番地１１,,42,202,8580918,,,2022-02-17,清算の結了等,,,2015-10-05,1,,,,,,0
2232,9420002018972,登記記録の閉鎖等,0,2022-02-21,2022-02-16,有限会社金光堂,,有限会社,青森県,三沢市,中央町３丁目２番１６号,,02,207,0330001,,,2022-02-16,清算の結了等,,,2015-10-05,1,,,,,キンコウドウ,0
2242,9480002008068,登記記録の閉鎖等,0,2022-02-21,2022-02-15,有限会社ファミリーシヨツプあさ,,有限会社,徳島県,小松島市,松島町２番１１号,,36,203,7730003,,,2022-02-15,清算の結了等,,,2015-10-05,1,,,,,ファミリーショップアサ,0
