sequenceNumber,corporateNumber,process,correct,updateDate,changeDate,name,nameImageId,kind,prefectureName,cityName,streetNumber,addressImageId,prefectureCode,cityCode,postCode,addressOutside,addressOutsideImageId,closeDate,closeCause,successorCorporateNumber,changeCause,assignmentDate,latest,enName,enPrefectureName,enCityName,enAddressOutside,furigana,hihyoji
7,1010001227565,新規,0,2022-06-22,2022-06-22,株式会社清海,,株式会社,東京都,中央区,勝どき２丁目１８番１号,,13,102,1040054,,,,,,,2022-06-22,1,,,,,セイカイ,0
14,1010005035171,新規,0,2022-06-22,2022-06-22,一般社団法人ＪＡＮＥＳＩＡ友好協会,,その他の設立登記法人,東京都,千代田区,内幸町１丁目１－１帝国ホテルタワー,,13,101,1000011,,,,,,,2022-06-22,1,,,,,ジャネシアユウコウキョウカイ,0
21,1010401168087,新規,0,2022-06-22,2022-06-22,株式会社ＣＸ,,株式会社,東京都,港区,新橋２丁目１３番６号８６２ビル６Ｆ,,13,103,1050004,,,,,,,2022-06-22,1,,,,,シーエックス,0
22,1010401168112,新規,0,2022-06-22,2022-06-22,株式会社コレカラ,,株式会社,東京都,港区,赤坂８丁目１０番２２号,,13,103,1070052,,,,,,,2022-06-22,1,,,,,コレカラ,0
23,1010401168120,新規,0,2022-06-22,2022-06-22,Ｓｈｉｊｏ　Ｈｏｔｅｌ株式会社,,株式会社,東京都,港区,虎ノ門３丁目２２番１０－２０１号,,13,103,1050001,,,,,,,2022-06-22,1,,,,,シジョウホテル,0
24,1010401168129,新規,0,2022-06-22,2022-06-22,株式会社プロラボエピジェネティクス,,株式会社,東京都,港区,三田３丁目７番１８号ＴＨＥ．ＩＴＯＹＡＭＡ．ＴＯＷＥＲ７階,,13,103,1080073,,,,,,,2022-06-22,1,,,,,プロラボエピジェネティクス,0
25,1010401168137,新規,0,2022-06-22,2022-06-22,ＦｉｒｓｔＦｏｒｃｅ株式会社,,株式会社,東京都,港区,芝５丁目３６番４号札の辻スクエア９階,,13,103,1080014,,,,,,,2022-06-22,1,,,,,ファーストフォース,0
26,1010401168145,新規,0,2022-06-22,2022-06-22,株式会社ゲットラッキー,,株式会社,東京都,港区,浜松町２丁目２番１５号浜松町ダイヤビル２Ｆ,,13,103,1050013,,,,,,,2022-06-22,1,,,,,ゲットラッキー,0
30,1010501048998,新規,0,2022-06-22,2022-06-22,ＳｔａｒＴｏｋｙｏ株式会社,,株式会社,東京都,台東区,竜泉２丁目６番１７－１１０１号クリオ入谷,,13,106,1100012,,,,,,,2022-06-22,1,,,,,スタートウキョウ,0
32,1010503006624,新規,0,2022-06-22,2022-06-22,Ｍｅｍｅｐｌｅｘ合同会社,,合同会社,東京都,台東区,浅草橋１丁目１２番４号,,13,106,1110053,,,,,,,2022-06-22,1,,,,,ミームプレクス,0
51,1010903007478,新規,0,2022-06-22,2022-06-22,合同会社ｆｌｅｕｒ・ｄｅ,,合同会社,東京都,世田谷区,野沢１丁目３５アクティ三軒茶屋第１４号棟６０７号,,13,112,1540003,,,,,,,2022-06-22,1,,,,,,0
57,1011001148215,新規,0,2022-06-22,2022-06-22,株式会社カナウ,,株式会社,東京都,渋谷区,桜丘町１５番１４号,,13,113,1500031,,,,,,,2022-06-22,1,,,,,カナウ,0
60,1011003014811,新規,0,2022-06-22,2022-06-22,合同会社ＴｉＧｗｉｌｌ,,合同会社,東京都,渋谷区,渋谷２丁目１９―１５宮益坂ビルディング６０９,,13,113,1500002,,,,,,,2022-06-22,1,,,,,ティグウィル,0
65,1011101099291,新規,0,2022-06-22,2022-06-22,株式会社Ｄｉｇｉｔａｌ　Ｄｉｍｅｎｓｉｏｎ,,株式会社,東京都,新宿区,四谷三栄町１４番７号２０２,,13,104,1600008,,,,,,,2022-06-22,1,,,,,デジタルディメンション,0
66,1011101099317,新規,0,2022-06-22,2022-06-22,株式会社ＩＮＦＩＮＩＴＹ,,株式会社,東京都,新宿区,歌舞伎町２丁目３０番１３号高島ビル２階ＥＦ号室,,13,104,1600021,,,,,,,2022-06-22,1,,,,,インフィニティ,0
67,1011201023903,新規,0,2022-06-22,2022-06-22,株式会社古野,,株式会社,東京都,中野区,中央５丁目４番２２号,,13,114,1640011,,,,,,,2022-06-22,1,,,,,フルノ,0
68,1011201023911,新規,0,2022-06-22,2022-06-22,株式会社もなか,,株式会社,東京都,中野区,中野５丁目３５－１１－２０５,,13,114,1640001,,,,,,,2022-06-22,1,,,,,モナカ,0
69,1011203003853,新規,0,2022-06-22,2022-06-22,合同会社柚,,合同会社,東京都,中野区,中野３丁目３４番３２－４０５号,,13,114,1640001,,,,,,,2022-06-22,1,,,,,ユズ,0
81,1011801040901,新規,0,2022-06-22,2022-06-22,株式会社センヤ商会,,株式会社,東京都,足立区,谷在家２丁目８番５号ＭＡＸＮ西新井５１０,,13,121,1230863,,,,,,,2022-06-22,1,,,,,センヤショウカイ,0
87,1012803002815,新規,0,2022-06-22,2022-06-22,合同会社Ｓｔｏｎｅ　Ｒｉｖｅｒ,,合同会社,東京都,立川市,上砂町５丁目６６番地の１４ラフォーレ武蔵野２０１号,,13,202,1900032,,,,,,,2022-06-22,1,,,,,ストーンリバー,0
94,1020001147028,新規,0,2022-06-22,2022-06-22,株式会社Ｍ’ｓコーポレーション,,株式会社,神奈川県,横浜市西区,御所山町１０番地７,,14,103,2200043,,,,,,,2022-06-22,1,,,,,エムズコーポレーション,0
100,1020003021981,新規,0,2022-06-22,2022-06-22,合同会社遠藤技研,,合同会社,神奈川県,横浜市都筑区,大丸１０番４－５０２号,,14,118,2240061,,,,,,,2022-06-22,1,,,,,エンドウギケン,0
101,1020005015569,新規,0,2022-06-22,2022-06-22,一般社団法人前進社神奈川支社,,その他の設立登記法人,神奈川県,横浜市南区,高砂町１丁目１０番地３８,,14,105,2320025,,,,,,,2022-06-22,1,,,,,ゼンシンシャカナガワシシャ,0
107,1021001076282,新規,0,2022-06-22,2022-06-22,株式会社マンハインターナショナル,,株式会社,神奈川県,大和市,桜森２丁目１４番２３号,,14,213,2420028,,,,,,,2022-06-22,1,,,,,マンハインターナショナル,0
108,1021001076290,新規,0,2022-06-22,2022-06-22,株式会社あしがら森の会議,,株式会社,神奈川県,南足柄市,内山１９０３番地,,14,217,2500131,,,,,,,2022-06-22,1,,,,,アシガラモリノカイギ,0
109,1021005012548,新規,0,2022-06-22,2022-06-22,一般社団法人ＥＡＲＴＨ　ＰＬＵＳ,,その他の設立登記法人,神奈川県,秦野市,東田原４７７番地５,,14,211,2570028,,,,,,,2022-06-22,1,,,,,アースプラス,0
112,1030001148826,新規,0,2022-06-22,2022-06-22,株式会社新晋堂,,株式会社,埼玉県,さいたま市大宮区,桜木町２丁目４番地１ＤＯＭパートＩＩＩ２階,00126971,11,103,3300854,,,,,,,2022-06-22,1,,,,,シンシンドウ,0
120,1040003020255,新規,0,2022-06-22,2022-06-22,侍Ｉｎｖｅｓｔｏｒ合同会社,,合同会社,千葉県,船橋市,東中山２丁目１２番３－５０４号,,12,204,2730036,,,,,,,2022-06-22,1,,,,,サムライインベスター,0
121,1040003020313,新規,0,2022-06-22,2022-06-22,合同会社明石産業,,合同会社,千葉県,千葉市若葉区,小倉町９００番地８,,12,104,2640007,,,,,,,2022-06-22,1,,,,,アカシサンギョウ,0
133,1070001039360,新規,0,2022-06-22,2022-06-22,株式会社ＩＧＵＣＨＩ,,株式会社,群馬県,藤岡市,本郷７００番地３,,10,209,3750023,,,,,,,2022-06-22,1,,,,,イグチ,0
141,1100001035463,新規,0,2022-06-22,2022-06-22,株式会社鬼無里の杜,,株式会社,長野県,長野市,鬼無里２４４４番地,,20,201,3814301,,,,,,,2022-06-22,1,,,,,キナサノモリ,0
146,1110005016822,新規,0,2022-06-22,2022-06-22,一般社団法人ＳＯＳＯＴＥＣ,,その他の設立登記法人,新潟県,加茂市,都ケ丘８番２号,,15,209,9591323,,,,,,,2022-06-22,1,,,,,ソソテック,0
154,1120001246629,新規,0,2022-06-22,2022-06-22,Ａｒｅａ３３株式会社,,株式会社,大阪府,大阪市西区,西本町１丁目８番２号三晃ビル９Ｆ,,27,106,5500005,,,,,,,2022-06-22,1,,,,,エリアサーティースリー,0
155,1120001246785,新規,0,2022-06-22,2022-06-22,株式会社ＳＭ　Ｃｏｒｐｏｒａｔｉｏｎ,,株式会社,大阪府,大阪市西成区,天下茶屋１丁目２番１５号,,27,122,5570014,,,,,,,2022-06-22,1,,,,,エスエムコーポレーション,0
156,1120001246827,新規,0,2022-06-22,2022-06-22,株式会社メイワ,,株式会社,大阪府,大阪市生野区,巽東１丁目８番１１号,,27,116,5440014,,,,,,,2022-06-22,1,,,,,メイワ,0
157,1120001246851,新規,0,2022-06-22,2022-06-22,株式会社８１０,,株式会社,大阪府,大阪市福島区,鷺洲５丁目１２番１－１８１２号,,27,103,5530002,,,,,,,2022-06-22,1,,,,,エイトオー,0
166,1120003021947,新規,0,2022-06-22,2022-06-22,合同会社バイオマス発電拾伍,,合同会社,大阪府,大阪市中央区,久太郎町１丁目９番４号,,27,128,5410056,,,,,,,2022-06-22,1,,,,,バイオマスハツデンジュウゴ,0
167,1120003021955,新規,0,2022-06-22,2022-06-22,むらの合同会社,,合同会社,大阪府,寝屋川市,菅相塚町２番４号,,27,215,5720008,,,,,,,2022-06-22,1,,,,,ムラノ,0
174,1120103004744,新規,0,2022-06-22,2022-06-22,合同会社Ｓｙｍｂｉｏｔｉｃ,,合同会社,大阪府,松原市,南新町３丁目１番３号,,27,217,5800023,,,,,,,2022-06-22,1,,,,,シンビオテック,0
177,1120105009576,新規,0,2022-06-22,2022-06-22,ＮＰＯ法人みんなのまちづくり隊,,その他の設立登記法人,大阪府,泉佐野市,大木１４４番地,,27,213,5980023,,,,,,,2022-06-22,1,,,,,ミンナノマチヅクリタイ,0
181,1120903004200,新規,0,2022-06-22,2022-06-22,ａｍｂｉｔｉｏｎ合同会社,,合同会社,大阪府,茨木市,沢良宜東町５番２８号リーベハイツＩＩ２０３号,00126960,27,211,5670863,,,,,,,2022-06-22,1,,,,,アンビション,0
185,1122003002357,新規,0,2022-06-22,2022-06-22,合同会社スキルアップ,,合同会社,大阪府,東大阪市,岸田堂西２丁目８番３１号,,27,227,5770848,,,,,,,2022-06-22,1,,,,,スキルアップ,0
196,1130001072000,新規,0,2022-06-22,2022-06-22,株式会社レイズテック,,株式会社,京都府,京都市下京区,七条御所ノ内中町６４番地１,,26,106,6008862,,,,,,,2022-06-22,1,,,,,レイズテック,0
197,1130001072017,新規,0,2022-06-22,2022-06-22,ダイセルビヨンド株式会社,,株式会社,京都府,亀岡市,余部町新堂１０番地,,26,206,6210806,,,,,,,2022-06-22,1,,,,,ダイセルビヨンド,0
207,1140001126358,新規,0,2022-06-22,2022-06-22,株式会社ポスチャルセラピー,,株式会社,兵庫県,西宮市,越水町２－５ニューフタバモールＧ１０４,,28,204,6620864,,,,,,,2022-06-22,1,,,,,ポスチャルセラピー,0
208,1140001126390,新規,0,2022-06-22,2022-06-22,株式会社ワンアイ,,株式会社,兵庫県,豊岡市,千代田町１０番３４号,,28,209,6680032,,,,,,,2022-06-22,1,,,,,ワンアイ,0
209,1140003017811,新規,0,2022-06-22,2022-06-22,合同会社ＨＡＴＩ‐Ｍ,,合同会社,兵庫県,尼崎市,南武庫之荘３丁目３５番１号,,28,202,6610033,,,,,,,2022-06-22,1,,,,,ハーティーエム,0
212,1150003002705,新規,0,2022-06-22,2022-06-22,合同会社森のおくりもの,,合同会社,奈良県,大和高田市,北本町１２番５号,,29,202,6350097,,,,,,,2022-06-22,1,,,,,モリノオクリモノ,0
213,1150003002713,新規,0,2022-06-22,2022-06-22,合同会社ふたば,,合同会社,奈良県,奈良市,東九条町１７番地の１、１０１号,,29,201,6308144,,,,,,,2022-06-22,1,,,,,フタバ,0
224,1180001151864,新規,0,2022-06-22,2022-06-22,株式会社盛境商事,,株式会社,愛知県,名古屋市港区,高木町１丁目３３番地レジデンス光和ＩＩＩ２０１号,00126972,23,111,4550821,,,,,,,2022-06-22,1,,,,,セイキョウショウジ,0
225,1180001151872,新規,0,2022-06-22,2022-06-22,株式会社ＢｌｕｅＳｋｙ　Ｇｒｏｕｐ,,株式会社,愛知県,名古屋市中区,大須１丁目７番１４号パークＩＭビル２Ｆ,,23,106,4600011,,,,,,,2022-06-22,1,,,,,ブルースカイグループ,0
228,1180301036360,新規,0,2022-06-22,2022-06-22,グレイシャスケア株式会社,,株式会社,愛知県,豊田市,日南町５丁目９番地,,23,211,4710032,,,,,,,2022-06-22,1,,,,,グレイシャスケア,0
235,1230001019420,新規,0,2022-06-22,2022-06-22,株式会社七彩,,株式会社,富山県,砺波市,太郎丸１丁目７番１８号,,16,208,9391363,,,,,,,2022-06-22,1,,,,,ナナイロ,0
241,1240003005673,新規,0,2022-06-22,2022-06-22,ＰＲＩＭＥ合同会社,,合同会社,広島県,広島市中区,八丁堀１－２３－７Ｆ,,34,101,7300013,,,,,,,2022-06-22,1,,,,,プライム,0
249,1290001098013,新規,0,2022-06-22,2022-06-22,株式会社Ｌｉｎｏ,,株式会社,福岡県,福岡市西区,生の松原２丁目６番４－２０６号ユーハイム生の松原,,40,135,8190055,,,,,,,2022-06-22,1,,,,,リノ,0
250,1290001098021,新規,0,2022-06-22,2022-06-22,株式会社ＳＭＧ,,株式会社,福岡県,福岡市早良区,百道浜１丁目３番７０－４７０１号,,40,137,8140001,,,,,,,2022-06-22,1,,,,,エスエムジー,0
260,1310003004395,新規,0,2022-06-22,2022-06-22,合同会社光透霊,,合同会社,長崎県,諫早市,多良見町市布１１１５番地２,,42,204,8590403,,,,,,,2022-06-22,1,,,,,コトダマ,0
261,1320003003834,新規,0,2022-06-22,2022-06-22,合同会社Ｌｉｂｅｒｔｙ,,合同会社,大分県,大分市,大字迫４８５番地,,44,201,8700272,,,,,,,2022-06-22,1,,,,,リバティ,0
263,1330001029855,新規,0,2022-06-22,2022-06-22,株式会社三希,,株式会社,熊本県,熊本市南区,内田町２２１７番地１,,43,104,8614127,,,,,,,2022-06-22,1,,,,,ミツキ,0
265,1330003009426,新規,0,2022-06-22,2022-06-22,合同会社カナメ,,合同会社,熊本県,熊本市中央区,練兵町８５番地,,43,101,8600017,,,,,,,2022-06-22,1,,,,,カナメ,0
267,1340001024830,新規,0,2022-06-22,2022-06-22,ＬＩＮＫ　ＳＰＩＲＩＴＳ株式会社,,株式会社,鹿児島県,鹿児島市,下荒田１丁目５番１５－１１０５号,,46,201,8900056,,,,,,,2022-06-22,1,,,,,リンクスピリッツ,0
279,1370005010502,新規,0,2022-06-22,2022-06-22,医療法人オブリ,,その他の設立登記法人,宮城県,仙台市宮城野区,鶴ケ谷２丁目１番地の１８,,04,102,9830824,,,,,,,2022-06-22,1,,,,,オブリ,0
284,1380001032920,新規,0,2022-06-22,2022-06-22,株式会社Ｋ‐Ｃｏｍｐａｎｙ,,株式会社,福島県,会津若松市,真宮新町北１丁目２２番地の２,,07,202,9650102,,,,,,,2022-06-22,1,,,,,ケーカンパニー,0
294,1410003003676,新規,0,2022-06-22,2022-06-22,合同会社ライズ,,合同会社,秋田県,大館市,東台１丁目４番２９号,,05,204,0170803,,,,,,,2022-06-22,1,,,,,ライズ,0
304,1700150104586,新規,0,2022-06-22,2021-09-02,ＮａｏｙｕｋｉＭＡＮＡＢＥＧＡＧＡＫＵＥｎｓｅｍｂｌｅ,,その他,神奈川県,横浜市磯子区,森４丁目１４－２７－１０５　真鍋　様方,,14,107,2350023,,,,,,,2021-09-02,1,,,,,ナオユキマナベガガクアンサンブル,0
305,1700150109453,新規,0,2022-06-22,2022-06-10,東五反田一丁目地区市街地再開発準備組合,,その他,東京都,品川区,東五反田１丁目１１番９号５階Ａ室,,13,109,1410022,,,,,,,2022-06-10,1,,,,,ヒガシゴタンダイツチヨウメチクシガイチサイカイハツジユンビクミアイ,0
306,1700150110238,新規,0,2022-06-22,2022-06-22,ＰＥＴＥＲ　Ｍ．ＧＩＬＬＯＮ　Ｐ．Ａ．,,外国会社等,,,,,,,,２　Ｈｏｕｓｔｏｎ　Ｃｅｎｔｅｒ，９０９　Ｆａｎｎｉｎ，Ｓｕｉｔｅ　２０００，Ｈｏｕｓｔｏｎ，ＴＸ　７７０１０－１０２８　ＵＳＡ,,,,,,2022-06-22,1,,,,,ピーターギロンピーエー,0
313,2010001227572,新規,0,2022-06-22,2022-06-22,株式会社デュアル,,株式会社,東京都,中央区,勝どき５丁目３番１号勝どきザ・タワー４５２５号,,13,102,1040054,,,,,,,2022-06-22,1,,,,,デュアル,0
315,2010003037945,新規,0,2022-06-22,2022-06-22,なごみホテルマネジメント大阪合同会社,,合同会社,東京都,千代田区,丸の内３丁目１番１号東京共同会計事務所内,,13,101,1000005,,,,,,,2022-06-22,1,,,,,ナゴミホテルマネジメントオオサカ,0
316,2010003037961,新規,0,2022-06-22,2022-06-22,ＴＭＢトレード合同会社,,合同会社,東京都,中央区,佃２丁目１番２－４００８,,13,102,1040051,,,,,,,2022-06-22,1,,,,,ティーエムビートレード,0
323,2010005035154,新規,0,2022-06-22,2022-06-22,一般社団法人日本インドアゴルフ協会,,その他の設立登記法人,東京都,千代田区,神田小川町３丁目６番地,,13,101,1010052,,,,,,,2022-06-22,1,,,,,ニホンインドアゴルフキョウカイ,0
331,2010401168094,新規,0,2022-06-22,2022-06-22,ＯＮＥＳＵＭ株式会社,,株式会社,東京都,港区,芝２丁目１５番６号,,13,103,1050014,,,,,,,2022-06-22,1,,,,,,0
332,2010401168111,新規,0,2022-06-22,2022-06-22,株式会社ＷＩＮＢＥ,,株式会社,東京都,港区,南青山４丁目８番２４号ＡＯＹＡＭＡＭＡＴＲＩＸ１０３号,,13,103,1070062,,,,,,,2022-06-22,1,,,,,ウインビー,0
333,2010401168136,新規,0,2022-06-22,2022-06-22,クララメディカルサービス株式会社,,株式会社,東京都,港区,三田２丁目１－１,,13,103,1080073,,,,,,,2022-06-22,1,,,,,クララメディカルサービス,0
336,2010403027934,新規,0,2022-06-22,2022-06-22,メタバースインベストメンツ合同会社,,合同会社,東京都,港区,麻布十番２丁目１番８,,13,103,1060045,,,,,,,2022-06-22,1,,,,,メタバースインベストメンツ,0
338,2010501048997,新規,0,2022-06-22,2022-06-22,株式会社明誠ソリューション,,株式会社,東京都,台東区,台東３丁目２９番６号テンルビル２０２号室,,13,106,1100016,,,,,,,2022-06-22,1,,,,,メイセイソリューション,0
343,2010801033071,新規,0,2022-06-22,2022-06-22,ＪＦＩソリューション株式会社,,株式会社,東京都,大田区,東海２丁目２番１号,,13,111,1430001,,,,,,,2022-06-22,1,,,,,ジェイエフアイソリューション,0
350,2010903007477,新規,0,2022-06-22,2022-06-22,合同会社ＯＹＡＫＵ,,合同会社,東京都,世田谷区,弦巻４丁目２５番３号,,13,112,1540016,,,,,,,2022-06-22,1,,,,,,0
356,2011001148189,新規,0,2022-06-22,2022-06-22,株式会社文運堂準備会社,,株式会社,東京都,渋谷区,笹塚２丁目１２番４号,,13,113,1510073,,,,,,,2022-06-22,1,,,,,ブンウンドウジュンビカイシャ,0
357,2011001148239,新規,0,2022-06-22,2022-06-22,株式会社フォルス資産コンサルティング,,株式会社,東京都,渋谷区,恵比寿１丁目１９番１９号,,13,113,1500013,,,,,,,2022-06-22,1,,,,,フォルスシサンコンサルティング,0
368,2011101099290,新規,0,2022-06-22,2022-06-22,ＭＪ株式会社,,株式会社,東京都,新宿区,四谷三栄町９番６号太田ビル５階,,13,104,1600008,,,,,,,2022-06-22,1,,,,,エムジェイ,0
370,2011201023910,新規,0,2022-06-22,2022-06-22,株式会社Ｎｏｎｅ’ｚｍ,,株式会社,東京都,中野区,東中野１丁目３５－２１,,13,114,1640003,,,,,,,2022-06-22,1,,,,,ノネズム,0
372,2011403003702,新規,0,2022-06-22,2022-06-22,合同会社ＥａｎｄＴ,,合同会社,東京都,板橋区,赤塚５丁目３０番１０号,,13,119,1750092,,,,,,,2022-06-22,1,,,,,イーアンドティー,0
377,2011703003179,新規,0,2022-06-22,2022-06-22,合同会社かぎしっぽ,,合同会社,東京都,江戸川区,東小岩４丁目２７番２号,,13,123,1330052,,,,,,,2022-06-22,1,,,,,カギシッポ,0
378,2011801040900,新規,0,2022-06-22,2022-06-22,株式会社シーエーティー,,株式会社,東京都,葛飾区,堀切６丁目９番２号,,13,122,1240006,,,,,,,2022-06-22,1,,,,,シーエーティー,0
383,2012403005440,新規,0,2022-06-22,2022-06-22,合同会社オービーテクノ,,合同会社,東京都,府中市,片町２丁目２４番地の２レジデンスＨ＆Ｋ２０２,,13,206,1830021,,,,,,,2022-06-22,1,,,,,オービーテクノ,0
385,2012801021667,新規,0,2022-06-22,2022-06-22,株式会社Ｋ‐ＫＯＡ,,株式会社,東京都,昭島市,郷地町２丁目７番５－３０２号,,13,207,1960032,,,,,,,2022-06-22,1,,,,,ケーコア,0
388,2012803002814,新規,0,2022-06-22,2022-06-22,合同会社ウエハース,,合同会社,東京都,昭島市,拝島町３丁目１４－７パレス拝島１０３,,13,207,1960002,,,,,,,2022-06-22,1,,,,,ウエハース,0
397,2020003021816,新規,0,2022-06-22,2022-06-22,合同会社Ｔ‐Ａｃｔ,,合同会社,神奈川県,横浜市南区,三春台１１４－１１キャッスルマンション３０６,,14,105,2320002,,,,,,,2022-06-22,1,,,,,ティーアクト,0
398,2020003021972,新規,0,2022-06-22,2022-06-22,合同会社Ｓ＆Ｙ,,合同会社,神奈川県,横浜市港北区,綱島西２丁目１４－１－８０４,,14,109,2230053,,,,,,,2022-06-22,1,,,,,エスアンドワイ,0
404,2021003011823,新規,0,2022-06-22,2022-06-22,アースレーベル合同会社,,合同会社,神奈川県,藤沢市,鵠沼花沢町３番８～３０１号,,14,205,2510023,,,,,,,2022-06-22,1,,,,,アースレーベル,0
411,2030001148817,新規,0,2022-06-22,2022-06-22,株式会社オルタレックス,,株式会社,埼玉県,さいたま市見沼区,東大宮６丁目４９番地１５－２０９号,,11,104,3370051,,,,,,,2022-06-22,1,,,,,オルタレックス,0
419,2040001123959,新規,0,2022-06-22,2022-06-22,株式会社コウノビソウ,,株式会社,千葉県,千葉市若葉区,殿台町３９９番地３,,12,104,2640036,,,,,,,2022-06-22,1,,,,,コウノビソウ,0
421,2040003020304,新規,0,2022-06-22,2022-06-22,合同会社ＡＤＳ,,合同会社,千葉県,市川市,国分３丁目８－１,,12,203,2720834,,,,,,,2022-06-22,1,,,,,エーディーエス,0
422,2040003020312,新規,0,2022-06-22,2022-06-22,合同会社エンジョイ,,合同会社,千葉県,市原市,白金町１丁目２２－２,,12,219,2900059,,,,,,,2022-06-22,1,,,,,エンジョイ,0
429,2050001051275,新規,0,2022-06-22,2022-06-22,株式会社松成,,株式会社,茨城県,ひたちなか市,大字武田４２５番地１,,08,221,3120025,,,,,,,2022-06-22,1,,,,,ショウセイ,0
435,2070001039351,新規,0,2022-06-22,2022-06-22,株式会社インフィールド,,株式会社,群馬県,前橋市,文京町３丁目７番３号,,10,201,3710801,,,,,,,2022-06-22,1,,,,,インフィールド,0
436,2070003004519,新規,0,2022-06-22,2022-06-22,合同会社ＫＨＴ商会,,合同会社,群馬県,太田市,堀口町１９７番地１,,10,205,3700414,,,,,,,2022-06-22,1,,,,,ケイエーチティショウカイ,0
443,2080403004563,新規,0,2022-06-22,2022-06-22,太陽光発電システム管理合同会社ＤＲＥＳＳ,,合同会社,静岡県,浜松市東区,北島町６４番地サンプラザ第二・２０５,,22,132,4350041,,,,,,,2022-06-22,1,,,,,タイヨウコウハツデンシステムカンリドレス,0
446,2100001035454,新規,0,2022-06-22,2022-06-22,株式会社ＬＯＯＳＥ,,株式会社,長野県,長野市,篠ノ井西寺尾２８５４番地４,,20,201,3888018,,,,,,,2022-06-22,1,,,,,ルース,0
447,2100001035462,新規,0,2022-06-22,2022-06-22,城下町不動産株式会社,,株式会社,長野県,松本市,寿北１丁目４番２－４号,,20,202,3990011,,,,,,,2022-06-22,1,,,,,ジョウカマチフドウサン,0
462,2120001246784,新規,0,2022-06-22,2022-06-22,ＴＡＫＡＲＡ‐ＯＤ株式会社,,株式会社,大阪府,大阪市中央区,東心斎橋２丁目４番２３号玉屋町ギャラクシービル１号館３Ａ,,27,128,5420083,,,,,,,2022-06-22,1,,,,,タカラオーディー,0
463,2120001246826,新規,0,2022-06-22,2022-06-22,株式会社ｗｉｎｇサポート,,株式会社,大阪府,大阪市住吉区,帝塚山中１丁目４番４０号ヴェルドミールユモト５０１号室,,27,120,5580053,,,,,,,2022-06-22,1,,,,,ウイングサポート,0
464,2120001246900,新規,0,2022-06-22,2022-06-22,株式会社やこと,,株式会社,大阪府,大阪市港区,三先２丁目２０番６２号,,27,107,5520016,,,,,,,2022-06-22,1,,,,,ヤコト,0
467,2120003021946,新規,0,2022-06-22,2022-06-22,幸永会合同会社,,合同会社,大阪府,大阪市西区,新町１丁目１４番２１－１２２０号,,27,106,5500013,,,,,,,2022-06-22,1,,,,,コウエイカイ,0
468,2120003021954,新規,0,2022-06-22,2022-06-22,凛音合同会社,,合同会社,大阪府,大阪市中央区,島之内１丁目８－１７－１４０１室,,27,128,5420082,,,,,,,2022-06-22,1,,,,,レイオン,0
473,2120101065787,新規,0,2022-06-22,2022-06-22,株式会社ＴＮＴ企画,,株式会社,大阪府,岸和田市,大町３丁目４番２４号,,27,202,5960812,,,,,,,2022-06-22,1,,,,,ティエヌティキカク,0
474,2120103004743,新規,0,2022-06-22,2022-06-22,えいこう合同会社,,合同会社,大阪府,堺市南区,御池台３丁５４番１号,,27,145,5900134,,,,,,,2022-06-22,1,,,,,エイコウ,0
475,2120901046144,新規,0,2022-06-22,2022-06-22,株式会社叶庭,,株式会社,大阪府,高槻市,東五百住町３丁目１１－１３,,27,207,5690811,,,,,,,2022-06-22,1,,,,,カナウバ,0
476,2122001035969,新規,0,2022-06-22,2022-06-22,株式会社メタルプランテック,,株式会社,大阪府,大東市,深野３丁目２５番１号,,27,218,5740072,,,,,,,2022-06-22,1,,,,,メタルプランテック,0
480,2130001072016,新規,0,2022-06-22,2022-06-22,株式会社七宝商事,,株式会社,京都府,京都市南区,上鳥羽南唐戸町７番地Ｋビル７０３号室,,26,107,6018107,,,,,,,2022-06-22,1,,,,,シチホウショウジ,0
487,2140001126381,新規,0,2022-06-22,2022-06-22,永善商事株式会社,,株式会社,兵庫県,尼崎市,東難波町４丁目２番２９号,,28,202,6600892,,,,,,,2022-06-22,1,,,,,エイゼンショウジ,0
488,2140001126407,新規,0,2022-06-22,2022-06-22,Ｒｅｂｕｉｌｔｅｃｈ株式会社,,株式会社,兵庫県,神戸市中央区,海岸通３丁目１番１号ＫＣＣビル４Ｆ,,28,110,6500024,,,,,,,2022-06-22,1,,,,,リビルテック,0
489,2140001126423,新規,0,2022-06-22,2022-06-22,株式会社伸成,,株式会社,兵庫県,高砂市,米田町塩市３７２番地の２,,28,216,6760806,,,,,,,2022-06-22,1,,,,,シンセイ,0
492,2140003017810,新規,0,2022-06-22,2022-06-22,合同会社ＭＡＥＤＡ商事,,合同会社,兵庫県,神戸市須磨区,須磨浦通５丁目５－１２,,28,107,6540055,,,,,,,2022-06-22,1,,,,,マエダショウジ,0
496,2140005026215,新規,0,2022-06-22,2022-06-22,蒼い神戸協同組合,,その他の設立登記法人,兵庫県,三木市,志染町青山５丁目１８番地の１０,,28,215,6730521,,,,,,,2022-06-22,1,,,,,アオイコウベ,0
500,2150003002712,新規,0,2022-06-22,2022-06-22,ユヌターブル合同会社,,合同会社,奈良県,奈良市,西大寺北町１丁目３番２号,,29,201,6310817,,,,,,,2022-06-22,1,,,,,ユヌターブル,0
516,2180003023961,新規,0,2022-06-22,2022-06-22,合同会社東海貿易,,合同会社,愛知県,名古屋市東区,白壁３丁目３番１５号ダイナース白壁１１０１号,,23,102,4610011,,,,,,,2022-06-22,1,,,,,トウカイボウエキ,0
523,2190001029539,新規,0,2022-06-22,2022-06-22,富士フイルム三洋化成ヘルスケア株式会社,,株式会社,三重県,三重郡菰野町,大字大強原字狐塚２６１３番地の２,,24,341,5101222,,,,,,,2022-06-22,1,,,,,フジフイルムサンヨウカセイヘルスケア,0
524,2200001040205,新規,0,2022-06-22,2022-06-22,オーク株式会社,,株式会社,岐阜県,郡上市,美並町白山６１３番地１２１,,21,219,5014106,,,,,,,2022-06-22,1,,,,,オーク,0
543,2250001019616,新規,0,2022-06-22,2022-06-22,５Ｇローカルイノベーション株式会社,,株式会社,山口県,大島郡周防大島町,大字伊保田１１９５番地,,35,305,7422601,,,,,,,2022-06-22,1,,,,,ファイブジーローカルイノベーション,0
544,2250001019624,新規,0,2022-06-22,2022-06-22,サン・カルパ株式会社,,株式会社,山口県,山陽小野田市,中川６丁目４－１,,35,216,7560806,,,,,,,2022-06-22,1,,,,,サンカルパ,0
559,2320003003833,新規,0,2022-06-22,2022-06-22,合同会社久住清田牧場,,合同会社,大分県,大分市,中央町４丁目１番１４－６０３号（パークサイドにし新町）,,44,201,8700035,,,,,,,2022-06-22,1,,,,,クジュウキヨタボクジョウ,0
561,2330001029862,新規,0,2022-06-22,2022-06-22,株式会社オール,,株式会社,熊本県,合志市,豊岡２０００番地６７７,,43,216,8611115,,,,,,,2022-06-22,1,,,,,オール,0
568,2360003012104,新規,0,2022-06-22,2022-06-22,沖縄リラリズム合同会社,,合同会社,沖縄県,那覇市,首里儀保町１丁目３５番地,,47,201,9030821,,,,,,,2022-06-22,1,,,,,オキナワリラリズム,0
579,2430001086893,新規,0,2022-06-22,2022-06-22,株式会社ＺＥＮＳＨＯ,,株式会社,北海道,札幌市東区,伏古八条３丁目２番１５号,,01,103,0070868,,,,,,,2022-06-22,1,,,,,ゼンショウ,0
592,2700150109675,新規,0,2022-06-22,2022-06-14,ｙａｍｙ　ｌｉｖｅ　ｐｒｏｊｅｃｔ,,その他,長野県,長野市,大字中御所岡田５６－８　長野山王ビル３－Ｅ,,20,201,3800935,,,,,,,2022-06-14,1,,,,,ヤミーライブプロジエクト,0
593,2700150110311,新規,0,2022-06-22,2022-06-22,Ａｎｔｉｐｏｄｅａｎ　Ｖｅｎｔｕｒｅｓ　Ｌｉｍｉｔｅｄ,,外国会社等,長野県,北安曇郡白馬村,大字北城字ワタノ４７８５－１－４－２０２,,20,485,3999301,Ｕｎｉｔｓ　１４０５－６，１４／Ｆ，Ｓｔｒａｎｄ　５０，５０　Ｂｏｎｈａｍ　Ｓｔｒａｎｄ，Ｓｈｅｕｎｇ　Ｗａｎ，Ｈｏｎｇ　Ｋｏｎｇ,,,,,,2022-06-22,1,,,,,アンテイポデイーンベンチヤーズリミテツド,0
598,3010001227381,新規,0,2022-06-22,2022-06-22,アスペンフォレスト株式会社,,株式会社,東京都,千代田区,大手町１丁目７番２号東京サンケイビル２７階,,13,101,1000004,,,,,,,2022-06-22,1,,,,,アスペンフォレスト,0
599,3010001227514,新規,0,2022-06-22,2022-06-22,株式会社ＤＯＳ,,株式会社,東京都,中央区,新富１丁目９番６号６階,,13,102,1040041,,,,,,,2022-06-22,1,,,,,ディーオーエス,0
600,3010001227571,新規,0,2022-06-22,2022-06-22,ＰＩＴＡＣＯＬＯＲ株式会社,,株式会社,東京都,中央区,銀座７丁目１３番６号サガミビル２階,,13,102,1040061,,,,,,,2022-06-22,1,,,,,ピタカラ,0
605,3010003037837,新規,0,2022-06-22,2022-06-22,Ａｒｃｈｅｌｏｎ合同会社,,合同会社,東京都,中央区,銀座１丁目２２―１１銀座大竹ビジデンス２階,,13,102,1040061,,,,,,,2022-06-22,1,,,,,アーケロン,0
606,3010003037928,新規,0,2022-06-22,2022-06-22,合同会社Ａｓｃｏｔ　Ｐｒｉｍｅ　Ｌｏｇｉｓｔｉｃｓ仙台扇町,,合同会社,東京都,千代田区,丸の内３丁目１番１号東京共同会計事務所内,,13,101,1000005,,,,,,,2022-06-22,1,,,,,アスコットプライムロジスティクスセンダイオウギマチ,0
607,3010003037944,新規,0,2022-06-22,2022-06-22,なごみホテルマネジメント京都合同会社,,合同会社,東京都,千代田区,丸の内３丁目１番１号東京共同会計事務所内,,13,101,1000005,,,,,,,2022-06-22,1,,,,,ナゴミホテルマネジメントキョウト,0
608,3010003037960,新規,0,2022-06-22,2022-06-22,合同会社ワイビジョン,,合同会社,東京都,中央区,湊２丁目１１番１－６２５号,,13,102,1040043,,,,,,,2022-06-22,1,,,,,ワイビジョン,0
613,3010401168110,新規,0,2022-06-22,2022-06-22,株式会社ソリコムエンジニアリング,,株式会社,東京都,港区,浜松町２丁目２番１５号浜松町ダイヤビル２Ｆ,,13,103,1050013,,,,,,,2022-06-22,1,,,,,ソリコムエンジニアリング,0
614,3010401168127,新規,0,2022-06-22,2022-06-22,株式会社Ｐｏｌａｒｉｓ,,株式会社,東京都,港区,東麻布１丁目７番５－１００９号,,13,103,1060044,,,,,,,2022-06-22,1,,,,,ポラリス,0
615,3010401168135,新規,0,2022-06-22,2022-06-22,ＴＹＲＥＬＬ　ＪＡＰＡＮ株式会社,,株式会社,東京都,港区,元赤坂１丁目１番７号,,13,103,1070051,,,,,,,2022-06-22,1,,,,,タイレルジャパン,0
619,3010601061362,新規,0,2022-06-22,2022-06-22,株式会社万通,,株式会社,東京都,墨田区,石原４丁目１４番９－３０４号,,13,107,1300011,,,,,,,2022-06-22,1,,,,,マンツウ,0
620,3010601061370,新規,0,2022-06-22,2022-06-22,リメイン株式会社,,株式会社,東京都,墨田区,業平２丁目１２番９号,,13,107,1300002,,,,,,,2022-06-22,1,,,,,リメイン,0
625,3010701042865,新規,0,2022-06-22,2022-06-22,株式会社Ｎｏｅｌ,,株式会社,東京都,品川区,小山５丁目９番１４号,,13,109,1420062,,,,,,,2022-06-22,1,,,,,ノエル,0
636,3011001148262,新規,0,2022-06-22,2022-06-22,株式会社ケイプラス,,株式会社,東京都,渋谷区,神宮前６丁目２３番４号,,13,113,1500001,,,,,,,2022-06-22,1,,,,,ケイプラス,0
641,3011101099307,新規,0,2022-06-22,2022-06-22,株式会社Ｂ‐ｒｉｎｇ,,株式会社,東京都,新宿区,西新宿７丁目４番７号イマス浜田ビル３Ｆ－Ｂ,,13,104,1600023,,,,,,,2022-06-22,1,,,,,ビーリング,0
642,3011101099315,新規,0,2022-06-22,2022-06-22,株式会社出水リアルティ,,株式会社,東京都,新宿区,下宮比町１番４号,,13,104,1620822,,,,,,,2022-06-22,1,,,,,イズミリアルティ,0
645,3011203003851,新規,0,2022-06-22,2022-06-22,合同会社みらい,,合同会社,東京都,中野区,中野４丁目１１番５号,,13,114,1640001,,,,,,,2022-06-22,1,,,,,ミライ,0
648,3011301027876,新規,0,2022-06-22,2022-06-22,株式会社サイクロングラフィックス,,株式会社,東京都,杉並区,松庵３丁目１４番１５－２０１号,,13,115,1670054,,,,,,,2022-06-22,1,,,,,サイクロングラフィックス,0
658,3011703003161,新規,0,2022-06-22,2022-06-22,ＴｅｒａＳｏ合同会社,,合同会社,東京都,江戸川区,鹿骨４丁目２１－１２,,13,123,1330073,,,,,,,2022-06-22,1,,,,,テラソ,0
659,3011801040899,新規,0,2022-06-22,2022-06-22,株式会社稻盛建設,,株式会社,東京都,葛飾区,水元４丁目８番１６号,,13,122,1250032,,,,,,,2022-06-22,1,,,,,イナモリケンセツ,0
660,3011801040908,新規,0,2022-06-22,2022-06-22,クロッツジャパン株式会社,,株式会社,東京都,葛飾区,お花茶屋３丁目２４番１９号,,13,122,1240003,,,,,,,2022-06-22,1,,,,,クロッツジャパン,0
661,3011805003183,新規,0,2022-06-22,2022-06-22,特定非営利活動法人ミライファーム,,その他の設立登記法人,東京都,足立区,神明３丁目２０番７号,,13,121,1210051,,,,,,,2022-06-22,1,,,,,ミライファーム,0
667,3012403005448,新規,0,2022-06-22,2022-06-22,合同会社ＳＡＭＡＴＲＡＤＩＮＧ,,合同会社,東京都,武蔵野市,境１丁目１２番２号,,13,203,1800022,,,,,,,2022-06-22,1,,,,,サマトレーディング,0
668,3012701017112,新規,0,2022-06-22,2022-06-22,株式会社六都サイエンス,,株式会社,東京都,小平市,小川町１丁目１０８７番地の２,,13,211,1870032,,,,,,,2022-06-22,1,,,,,ロクトサイエンス,0
677,3020003021930,新規,0,2022-06-22,2022-06-22,Ｃｏｎｎｅｃｔ合同会社,,合同会社,神奈川県,川崎市多摩区,登戸３１５４,,14,135,2140014,,,,,,,2022-06-22,1,,,,,コネクト,0
678,3020005015575,新規,0,2022-06-22,2022-06-22,一般財団法人小町谷家保存会,,その他の設立登記法人,神奈川県,横浜市金沢区,柴町３９１マリンシティＤ棟３０３号,,14,108,2360012,,,,,,,2022-06-22,1,,,,,コマチヤケホゾンカイ,0
681,3021001076231,新規,0,2022-06-22,2022-06-22,株式会社フードエクスペリエンス三浦半島,,株式会社,神奈川県,横須賀市,新港町６番地,,14,201,2380005,,,,,,,2022-06-22,1,,,,,フードエクスペリエンスミウラハントウ,0
691,3030001148782,新規,0,2022-06-22,2022-06-22,株式会社ホワイトタイガーマークワン,,株式会社,埼玉県,富士見市,山室２丁目２５－１０,,11,235,3540022,,,,,,,2022-06-22,1,,,,,ホワイトタイガーマークワン,0
692,3030001148799,新規,0,2022-06-22,2022-06-22,株式会社さくら,,株式会社,埼玉県,八潮市,大字南川崎９３４番地１,,11,234,3400814,,,,,,,2022-06-22,1,,,,,サクラ,0
700,3040001123958,新規,0,2022-06-22,2022-06-22,株式会社Ｅｌａｎ,,株式会社,千葉県,柏市,千代田２丁目２番８号１Ｄ,,12,217,2770025,,,,,,,2022-06-22,1,,,,,エラン,0
702,3040003020261,新規,0,2022-06-22,2022-06-22,合同会社ＭＥＭＡＸ,,合同会社,千葉県,千葉市稲毛区,長沼原町３１７番地１ヴィルフォーレ稲毛７番館１０２号,,12,103,2630001,,,,,,,2022-06-22,1,,,,,ミーマックス,0
706,3040005021654,新規,0,2022-06-22,2022-06-22,一般社団法人芳川ファミリートラスト,,その他の設立登記法人,千葉県,松戸市,稔台６丁目９番地の２,,12,207,2702231,,,,,,,2022-06-22,1,,,,,ヨシカワファミリートラスト,0
715,3060001035004,新規,0,2022-06-22,2022-06-22,株式会社須永農建,,株式会社,栃木県,足利市,利保町４３番地,,09,202,3260006,,,,,,,2022-06-22,1,,,,,スナガノウケン,0
716,3060003004114,新規,0,2022-06-22,2022-06-22,合同会社ケアプランストーリィ,,合同会社,栃木県,宇都宮市,今泉町３０２０番８１,,09,201,3210962,,,,,,,2022-06-22,1,,,,,ケアプランストーリィ,0
718,3070003004518,新規,0,2022-06-22,2022-06-22,合同会社ＺＫ　ＴＲＡＤＩＮＧ,,合同会社,群馬県,前橋市,茂木町６番地１,,10,201,3710232,,,,,,,2022-06-22,1,,,,,ゼケトレーディング,0
728,3100003006592,新規,0,2022-06-22,2022-06-22,合同会社アクイール,,合同会社,長野県,上田市,中之条１９５番地３,,20,203,3860034,,,,,,,2022-06-22,1,,,,,アクイール,0
731,3110001036756,新規,0,2022-06-22,2022-06-22,木下緑園株式会社,,株式会社,新潟県,新潟市南区,味方１０９６番地,,15,106,9501261,,,,,,,2022-06-22,1,,,,,キノシタリョクエン,0
744,3120001246692,新規,0,2022-06-22,2022-06-22,＿盛鴻株式会社,00126958,株式会社,大阪府,大阪市淀川区,田川北２丁目５－３４・Ａ棟３０１号室,,27,123,5320021,,,,,,,2022-06-22,1,,,,,キンセイコウ,0
745,3120001246817,新規,0,2022-06-22,2022-06-22,花園ＩＮＮ株式会社,,株式会社,大阪府,大阪市西区,江戸堀１丁目２５番３０号,,27,106,5500002,,,,,,,2022-06-22,1,,,,,ハナゾノイン,0
746,3120001246833,新規,0,2022-06-22,2022-06-22,ジェットグループ株式会社,,株式会社,大阪府,大阪市淀川区,新北野３丁目１３番８－１０３号,,27,123,5320025,,,,,,,2022-06-22,1,,,,,ジェットグループ,0
747,3120001246874,新規,0,2022-06-22,2022-06-22,株式会社ＪＩＭＯＴＯ,,株式会社,大阪府,大阪市平野区,西脇２丁目８番３４号３０７号室,,27,126,5470035,,,,,,,2022-06-22,1,,,,,ジモト,0
748,3120001246882,新規,0,2022-06-22,2022-06-22,清輝株式会社,,株式会社,大阪府,大阪市中央区,高津３丁目１２番２５号,,27,128,5420072,,,,,,,2022-06-22,1,,,,,セイキ,0
756,3120901046143,新規,0,2022-06-22,2022-06-22,株式会社アレキサンドライトＡ,,株式会社,大阪府,吹田市,垂水町３丁目１６番３９号グラントォータス８Ｆ,,27,205,5640062,,,,,,,2022-06-22,1,,,,,アレキサンドライトエー,0
758,3122001035984,新規,0,2022-06-22,2022-06-22,大東建設株式会社,,株式会社,大阪府,大東市,北条１丁目１０番１７－１０３号,,27,218,5740011,,,,,,,2022-06-22,1,,,,,ダイトウケンセツ,0
759,3122003002363,新規,0,2022-06-22,2022-06-22,アンフィニティ合同会社,,合同会社,大阪府,大東市,御供田１丁目１９番３５号レヴェパルテール５０６号,,27,218,5740025,,,,,,,2022-06-22,1,,,,,アンフィニティ,0
762,3130001071966,新規,0,2022-06-22,2022-06-22,株式会社エスアロイング,,株式会社,京都府,船井郡京丹波町,中台轟キ４３番地,,26,407,6220331,,,,,,,2022-06-22,1,,,,,エスアロイング,0
763,3130001072015,新規,0,2022-06-22,2022-06-22,エタニティ・ファイナンス＆アカウンティング株式会社,,株式会社,京都府,京都市北区,大北山原谷乾町６４番地の１,,26,101,6038487,,,,,,,2022-06-22,1,,,,,エタニティファイナンスアンドアカウンティング,0
773,3140001126422,新規,0,2022-06-22,2022-06-22,株式会社ＳＴＯＲＹ,,株式会社,兵庫県,神戸市東灘区,深江北町１丁目１１番６－５０１号,,28,101,6580013,,,,,,,2022-06-22,1,,,,,ストーリー,0
774,3140001126455,新規,0,2022-06-22,2022-06-22,株式会社Ｃｏｃｏｎａ,,株式会社,兵庫県,宝塚市,雲雀丘山手２丁目２１番３１－１号,,28,214,6650804,,,,,,,2022-06-22,1,,,,,ココナ,0
780,3150003002711,新規,0,2022-06-22,2022-06-22,合同会社ＲＩＳＥ,,合同会社,奈良県,生駒市,辻町６５６番地１ＲＩＳＥ東生駒１０２,00126959,29,209,6300212,,,,,,,2022-06-22,1,,,,,ライズ,0
786,3180001151846,新規,0,2022-06-22,2022-06-22,株式会社白山鈑装,,株式会社,愛知県,半田市,川田町１０８番地,,23,205,4750808,,,,,,,2022-06-22,1,,,,,ハクサンバンソウ,0
787,3180001151862,新規,0,2022-06-22,2022-06-22,株式会社ＦｉｖｅＳｅｎｓｅｓＳ,,株式会社,愛知県,名古屋市千種区,田代町字四観音通西５番地９ザ・マスターズフォート７０２号,,23,101,4640000,,,,,,,2022-06-22,1,,,,,ファイブセンスエス,0
791,3180003023960,新規,0,2022-06-22,2022-06-22,大山ロジテム合同会社,,合同会社,愛知県,愛西市,日置町髭田１５４番地２,,23,232,4960906,,,,,,,2022-06-22,1,,,,,ダイセンロジテム,0
800,3190001029538,新規,0,2022-06-22,2022-06-22,ひじき訪問看護ステーション株式会社,,株式会社,三重県,伊賀市,比自岐１２０２番地,,24,216,5180105,,,,,,,2022-06-22,1,,,,,ヒジキホウモンカンゴステーション,0
806,3210003001525,新規,0,2022-06-22,2022-06-22,マツダホールディングス合同会社,,合同会社,福井県,福井市,大町１丁目３１４番地２,,18,201,9188116,,,,,,,2022-06-22,1,,,,,マツダホールディングス,0
820,3240001059975,新規,0,2022-06-22,2022-06-22,株式会社晴和,,株式会社,広島県,広島市西区,井口明神２丁目４番１６号,,34,104,7330841,,,,,,,2022-06-22,1,,,,,セイワ,0
826,3260005011105,新規,0,2022-06-22,2022-06-22,一般社団法人岡山市ひとり親家庭福祉会,,その他の設立登記法人,岡山県,岡山市北区,南方２丁目１３番１号きらめきプラザ２階ゆうあいセンター内,,33,101,7000807,,,,,,,2022-06-22,1,,,,,オカヤマシヒトリオヤカテイフクシカイ,0
827,3270001008566,新規,0,2022-06-22,2022-06-22,株式会社ビサイド,,株式会社,鳥取県,境港市,渡町９７２番地１,,31,204,6840072,,,,,,,2022-06-22,1,,,,,ビサイド,0
832,3290001097995,新規,0,2022-06-22,2022-06-22,株式会社三心設備,,株式会社,福岡県,福岡市早良区,東入部２丁目３番３５号,,40,137,8111102,,,,,,,2022-06-22,1,,,,,サンシンセツビ,0
833,3290003012663,新規,0,2022-06-22,2022-06-22,インフラアーツ合同会社,,合同会社,福岡県,福岡市中央区,西公園４番３５－２０２号ビブレ西公園,,40,133,8100061,,,,,,,2022-06-22,1,,,,,インフラアーツ,0
843,3370003005741,新規,0,2022-06-22,2022-06-22,合同会社ＭＩＴ,,合同会社,宮城県,富谷市,富ケ丘２丁目２１番２０号,,04,216,9813352,,,,,,,2022-06-22,1,,,,,エムアイティー,0
846,3380001032919,新規,0,2022-06-22,2022-06-22,株式会社凰翔,,株式会社,福島県,福島市,丸子字三條院６番地の６７三條院ＮＴマンション１０２号室,,07,201,9600111,,,,,,,2022-06-22,1,,,,,オウショウ,0
867,3500001024283,新規,0,2022-06-22,2022-06-22,ヒガシデンキ工事株式会社,,株式会社,愛媛県,松山市,宮西２丁目７番７号,,38,201,7900065,,,,,,,2022-06-22,1,,,,,ヒガシデンキコウジ,0
872,4010001227364,新規,0,2022-06-22,2022-06-22,ＭｉｎｕｔｅｓＬｉｖｅＪａｐａｎ株式会社,,株式会社,東京都,中央区,日本橋小舟町９番３号,,13,102,1030024,,,,,,,2022-06-22,1,,,,,ミニッツライブジャパン,0
873,4010001227380,新規,0,2022-06-22,2022-06-22,株式会社金斗喜,,株式会社,東京都,中央区,銀座６丁目５－１６三楽ビル４階,,13,102,1040061,,,,,,,2022-06-22,1,,,,,キントキ,0
874,4010001227488,新規,0,2022-06-22,2022-06-22,株式会社浄縁,,株式会社,東京都,中央区,銀座４丁目１１番７号,,13,102,1040061,,,,,,,2022-06-22,1,,,,,ジョウエン,0
875,4010001227562,新規,0,2022-06-22,2022-06-22,Ｓｈｉｎｅ　Ｃｒａｆｔ株式会社,,株式会社,東京都,中央区,銀座１丁目２２番１１号銀座大竹ビジデンス２階,,13,102,1040061,,,,,,,2022-06-22,1,,,,,シャインクラフト,0
879,4010005035169,新規,0,2022-06-22,2022-06-22,一般社団法人グリーン環境保全機構,,その他の設立登記法人,東京都,千代田区,麹町２丁目１２番１号グランアスク麹町７０１号,,13,101,1020083,,,,,,,2022-06-22,1,,,,,グリーンカンキョウホゼンキコウ,0
884,4010401168101,新規,0,2022-06-22,2022-06-22,株式会社みらいバンク,,株式会社,東京都,港区,芝浦４丁目１２番３８号,,13,103,1080023,,,,,,,2022-06-22,1,,,,,ミライバンク,0
885,4010401168126,新規,0,2022-06-22,2022-06-22,株式会社ジンジャーＫ,,株式会社,東京都,港区,六本木４丁目２番５０号麻布第一マンションズ５０４,,13,103,1060032,,,,,,,2022-06-22,1,,,,,ジンジャーケイ,0
887,4010501048995,新規,0,2022-06-22,2022-06-22,ファレノプシストレーディング株式会社,,株式会社,東京都,台東区,上野３丁目１４番２号ＵｅｎｏＹｏｕｒ２ｎｄ,,13,106,1100005,,,,,,,2022-06-22,1,,,,,ファレノプシストレーディング,0
891,4010503006621,新規,0,2022-06-22,2022-06-22,合同会社方興産業,,合同会社,東京都,台東区,東上野４丁目６番７－６０１号,,13,106,1100015,,,,,,,2022-06-22,1,,,,,,0
916,4011403003700,新規,0,2022-06-22,2022-06-22,合同会社一寸法師,,合同会社,東京都,板橋区,板橋１丁目５４番１２号白蔵ビル,,13,119,1730004,,,,,,,2022-06-22,1,,,,,イッスンボウシ,0
919,4011501028178,新規,0,2022-06-22,2022-06-22,株式会社Ｓｅｌｆ　Ｍａｄｅ,,株式会社,東京都,荒川区,西尾久４丁目５番２１－３０６,,13,118,1160011,,,,,,,2022-06-22,1,,,,,セルフメイド,0
924,4011801040907,新規,0,2022-06-22,2022-06-22,株式会社５３８,,株式会社,東京都,足立区,入谷１丁目１４番４号,,13,121,1210836,,,,,,,2022-06-22,1,,,,,ファイブスリーエイト,0
943,4020003021954,新規,0,2022-06-22,2022-06-22,ヨココネクト合同会社,,合同会社,神奈川県,横浜市栄区,田谷町９９８－３グリーンパストラル２０１号室,,14,115,2440844,,,,,,,2022-06-22,1,,,,,ヨココネクト,0
958,4030001148807,新規,0,2022-06-22,2022-06-22,株式会社ハイビ,,株式会社,埼玉県,鶴ヶ島市,松ヶ丘３丁目３２番２６号,,11,241,3502205,,,,,,,2022-06-22,1,,,,,ハイビ,0
959,4030001148823,新規,0,2022-06-22,2022-06-22,泰豊株式会社,,株式会社,埼玉県,川口市,並木３丁目１３番４号－７０２号室,,11,203,3320034,,,,,,,2022-06-22,1,,,,,タイホウ,0
961,4030003019568,新規,0,2022-06-22,2022-06-22,合同会社キャリアック,,合同会社,埼玉県,和光市,本町３１番３－１４０１号ＣＩハイツ,,11,229,3510114,,,,,,,2022-06-22,1,,,,,キャリアック,0
965,4040001123957,新規,0,2022-06-22,2022-06-22,株式会社アジュールコンサルティング,,株式会社,千葉県,八千代市,緑が丘１丁目１１０６番地５,,12,221,2760049,,,,,,,2022-06-22,1,,,,,アジュールコンサルティング,0
974,4050001051273,新規,0,2022-06-22,2022-06-22,つくばツインスパーク株式会社,,株式会社,茨城県,つくば市,春日１丁目２番地筑波大学高細精医療イノベーション棟,,08,220,3050821,,,,,,,2022-06-22,1,,,,,ツクバツインスパーク,0
981,4050003006630,新規,0,2022-06-22,2022-06-22,合同会社メタエクサー,,合同会社,茨城県,筑西市,下中山５４０番地６,,08,227,3080825,,,,,,,2022-06-22,1,,,,,メタエクサー,0
988,4060001035003,新規,0,2022-06-22,2022-06-22,株式会社小梅訪問介護支援センター,,株式会社,栃木県,栃木市,岩舟町下津原５００番地３,,09,203,3294308,,,,,,,2022-06-22,1,,,,,コウメホウモンカイゴシエンセンター,0
997,4090001017626,新規,0,2022-06-22,2022-06-22,ＭＯＮ‐ＵＮＤＡＲ株式会社,,株式会社,山梨県,富士吉田市,上吉田５３６８番地の１－４号室,,19,202,4030005,,,,,,,2022-06-22,1,,,,,モンウンダラ,0
1002,4100001035460,新規,0,2022-06-22,2022-06-22,株式会社ＪｙｕＳｅｅ,,株式会社,長野県,松本市,大手２丁目８番１号,,20,202,3900874,,,,,,,2022-06-22,1,,,,,ジュシー,0
1026,4120001246799,新規,0,2022-06-22,2022-06-22,株式会社ＰＲＩＭＥ　ＢＡＳＥ,,株式会社,大阪府,大阪市旭区,生江２丁目１４番３号,,27,117,5350004,,,,,,,2022-06-22,1,,,,,プライムベース,0
1027,4120001246808,新規,0,2022-06-22,2022-06-22,株式会社堀技術研究所,,株式会社,大阪府,大阪市城東区,今福南１丁目２番６号１０３,,27,118,5360003,,,,,,,2022-06-22,1,,,,,ホリギジュツケンキュウショ,0
1028,4120001246816,新規,0,2022-06-22,2022-06-22,株式会社インターナショナル・ダイバーシティ,,株式会社,大阪府,大阪市北区,西天満３丁目６番２２号日宝北大阪屋ビル８Ｆ,,27,127,5300047,,,,,,,2022-06-22,1,,,,,インターナショナルダイバーシティ,0
1029,4120001246832,新規,0,2022-06-22,2022-06-22,株式会社ＡＤＣ３．０,,株式会社,大阪府,大阪市西区,新町４丁目１９－３東洋ビル３Ｂ,,27,106,5500013,,,,,,,2022-06-22,1,,,,,アドコミュニケーションサンテンゼロ,0
1030,4120001246840,新規,0,2022-06-22,2022-06-22,株式会社ダッシュ,,株式会社,大阪府,大阪市中央区,伏見町２丁目６番４号Ｔ＆Ａ淀屋橋ビル６階,,27,128,5410044,,,,,,,2022-06-22,1,,,,,ダッシュ,0
1031,4120001246881,新規,0,2022-06-22,2022-06-22,株式会社近代不動産,,株式会社,大阪府,大阪市天王寺区,上本町５丁目６－４ピアッツァタワー上本町９０６,,27,109,5430001,,,,,,,2022-06-22,1,,,,,キンダイフドウサン,0
1037,4120901046142,新規,0,2022-06-22,2022-06-22,株式会社Ｊ＆Ｐフューチャー,,株式会社,大阪府,茨木市,別院町７番３４号,,27,211,5670817,,,,,,,2022-06-22,1,,,,,ジェイアンドピーフューチャー,0
1048,4140001126413,新規,0,2022-06-22,2022-06-22,株式会社朱晴,,株式会社,兵庫県,神戸市須磨区,竜が台１丁目１－２－１３－３０２,,28,107,6540141,,,,,,,2022-06-22,1,,,,,スバル,0
1049,4140001126470,新規,0,2022-06-22,2022-06-22,株式会社楽土,,株式会社,兵庫県,神戸市西区,伊川谷町布施畑６１２番地,,28,111,6512101,,,,,,,2022-06-22,1,,,,,ラクド,0
1050,4140001126479,新規,0,2022-06-22,2022-06-22,ウェブフォントジャパン株式会社,,株式会社,兵庫県,朝来市,和田山町和田山８５番地１,,28,225,6695201,,,,,,,2022-06-22,1,,,,,ウェブフォントジャパン,0
1051,4140001126487,新規,0,2022-06-22,2022-06-22,株式会社鷹江工業,,株式会社,兵庫県,姫路市,下手野３丁目１１－２５,,28,201,6700063,,,,,,,2022-06-22,1,,,,,タカエコウギョウ,0
1056,4140003017800,新規,0,2022-06-22,2022-06-22,合同会社ＲＩＯＴＯＡＯ,,合同会社,兵庫県,淡路市,岩屋１７４５番２０,,28,226,6562401,,,,,,,2022-06-22,1,,,,,リオトアオ,0
1057,4140003017809,新規,0,2022-06-22,2022-06-22,合同会社結,,合同会社,兵庫県,神戸市東灘区,御影塚町２丁目１８番１０号,,28,101,6580044,,,,,,,2022-06-22,1,,,,,ムスビ,0
1066,4150001025639,新規,0,2022-06-22,2022-06-22,株式会社カルテック,,株式会社,奈良県,橿原市,五条野町５３８番地の１,,29,205,6340043,,,,,,,2022-06-22,1,,,,,カルテック,0
1067,4150003002710,新規,0,2022-06-22,2022-06-22,ナースコンシェルジュ合同会社,,合同会社,奈良県,橿原市,山之坊町４３２番地の２２,,29,205,6340071,,,,,,,2022-06-22,1,,,,,ナースコンシェルジュ,0
1069,4170005006963,新規,0,2022-06-22,2022-06-22,特定非営利活動法人環境ファースト連合会,,その他の設立登記法人,和歌山県,新宮市,新町２丁目１番地９,,30,207,6470019,,,,,,,2022-06-22,1,,,,,カンキョウファーストレンゴウカイ,0
1075,4180001151812,新規,0,2022-06-22,2022-06-22,株式会社有松新音,,株式会社,愛知県,名古屋市緑区,有松町大字桶狭間字生山１番第２３６番地,,23,114,4580912,,,,,,,2022-06-22,1,,,,,アリマツシンオン,0
1085,4190003004018,新規,0,2022-06-22,2022-06-22,住＿不動産合同会社,00126963,合同会社,三重県,四日市市,東日野１丁目２番１７号,,24,202,5100941,,,,,,,2022-06-22,1,,,,,スミキンフドウサン,0
1097,4240005015412,新規,0,2022-06-22,2022-06-22,一般社団法人Ａｒｏｕｎｄ　Ｅａｒｔｈ,,その他の設立登記法人,広島県,福山市,山手町１２５０,,34,207,7200092,,,,,,,2022-06-22,1,,,,,アラウンドアース,0
1098,4250001019622,新規,0,2022-06-22,2022-06-22,村谷株式会社,,株式会社,山口県,柳井市,柳井３２００番地１６,,35,212,7420021,,,,,,,2022-06-22,1,,,,,ムラタニ,0
1107,4290001097994,新規,0,2022-06-22,2022-06-22,株式会社新装社,,株式会社,福岡県,春日市,大土居２丁目１２９番地アイリス５０５号,,40,218,8160847,,,,,,,2022-06-22,1,,,,,シンソウシャ,0
1120,4330001029860,新規,0,2022-06-22,2022-06-22,株式会社糸山冷凍工業,,株式会社,熊本県,八代市,郡築九番町８５番地２,,43,202,8660004,,,,,,,2022-06-22,1,,,,,イトヤマレイトウコウギョウ,0
1121,4330005010528,新規,0,2022-06-22,2022-06-22,一般社団法人バッチホリスティックヒーリングセンター,,その他の設立登記法人,熊本県,阿蘇郡南阿蘇村,大字河陽３７６２番地１,,43,433,8691404,,,,,,,2022-06-22,1,,,,,バッチホリスティックヒーリングセンター,0
1123,4340001024828,新規,0,2022-06-22,2022-06-22,株式会社若山ファーム,,株式会社,鹿児島県,大島郡天城町,大字西阿木名１３１８番地,,46,531,8917731,,,,,,,2022-06-22,1,,,,,ワカヤマファーム,0
1128,4370001048709,新規,0,2022-06-22,2022-06-22,株式会社やちよ商店,,株式会社,宮城県,仙台市若林区,南小泉３丁目７番１０－２０４号,,04,103,9840827,,,,,,,2022-06-22,1,,,,,ヤチヨショウテン,0
1135,4380001032918,新規,0,2022-06-22,2022-06-22,株式会社サンストライプ工業,,株式会社,福島県,双葉郡富岡町,大字本岡字王塚５１９番地１王塚第３団地７号棟,,07,543,9791151,,,,,,,2022-06-22,1,,,,,サンストライプコウギョウ,0
1146,4430005014493,新規,0,2022-06-22,2022-06-22,一般社団法人Ｃｏｍｐａｓｓ教育研究会,,その他の設立登記法人,北海道,札幌市中央区,北一条西３丁目３番地ばらと北一条ビル９階－１４,,01,101,0600001,,,,,,,2022-06-22,1,,,,,コンパスキョウイクケンキュウカイ,0
1153,4480003001844,新規,0,2022-06-22,2022-06-22,合同会社ＦＬＰ,,合同会社,徳島県,徳島市,佐古二番町２番１４号,,36,201,7700022,,,,,,,2022-06-22,1,,,,,エフエルピー,0
1157,4500001024290,新規,0,2022-06-22,2022-06-22,株式会社愛菜果,,株式会社,愛媛県,松山市,南白水３丁目２１番地６,,38,201,7910114,,,,,,,2022-06-22,1,,,,,アイサイカ,0
1159,4700150092639,新規,0,2022-06-22,2019-01-29,江差町北部環境保全協議会,,その他,北海道,檜山郡江差町,字水堀町１３３番地,,01,361,0430017,,,,,,,2019-01-29,1,,,,,エサシチヨウホクブカンキヨウホゼンキヨウギカイ,0
1160,4700150109368,新規,0,2022-06-22,2022-06-10,ＳＤＧｓと平等を実現する会,,その他,東京都,千代田区,九段南２丁目３－１０ＢＣプラザ５Ｆ,,13,101,1020074,,,,,,,2022-06-10,1,,,,,エスデイジーズトビヨウドウヲジツゲンスルカイ,0
1172,5010001227520,新規,0,2022-06-22,2022-06-22,株式会社リヴェル,,株式会社,東京都,中央区,銀座１丁目２２番１１号銀座大竹ビジデンス２階,,13,102,1040061,,,,,,,2022-06-22,1,,,,,リヴェル,0
1173,5010001227529,新規,0,2022-06-22,2022-06-22,株式会社Ｌｅｇａｌ　Ｎｅｘｔ,,株式会社,東京都,千代田区,岩本町１丁目３番１号神田ビジネスセンター,,13,101,1010032,,,,,,,2022-06-22,1,,,,,リーガルネクスト,0
1174,5010001227545,新規,0,2022-06-22,2022-06-22,最適電力株式会社,,株式会社,東京都,千代田区,平河町１丁目７番１６号,,13,101,1020093,,,,,,,2022-06-22,1,,,,,サイテキデンリョク,0
1175,5010001227561,新規,0,2022-06-22,2022-06-22,株式会社図録社,,株式会社,東京都,千代田区,神田紺屋町１１番地鈴野ビル７Ｆ,,13,101,1010035,,,,,,,2022-06-22,1,,,,,ズロクシャ,0
1177,5010101015230,新規,0,2022-06-22,2022-06-22,小山住建株式会社,,株式会社,東京都,八王子市,松木２１番地１,,13,201,1920362,,,,,,,2022-06-22,1,,,,,コヤマジュウケン,0
1182,5010401168109,新規,0,2022-06-22,2022-06-22,株式会社イーアイティー,,株式会社,東京都,港区,南青山２丁目２番１５号ウィン青山９４２,,13,103,1070062,,,,,,,2022-06-22,1,,,,,イーアイティー,0
1183,5010401168117,新規,0,2022-06-22,2022-06-22,株式会社セーブザエナジー,,株式会社,東京都,港区,白金６丁目４番３号,,13,103,1080072,,,,,,,2022-06-22,1,,,,,セーブザエナジー,0
1184,5010401168125,新規,0,2022-06-22,2022-06-22,株式会社モーシャエンターテイメント,,株式会社,東京都,港区,南青山２丁目２番１５号Ｗｉｎ　ＡｏｙａｍａビルＵＣＦ６階,,13,103,1070062,,,,,,,2022-06-22,1,,,,,モーシャエンターテイメント,0
1185,5010401168141,新規,0,2022-06-22,2022-06-22,株式会社ＢＩＡＮＣＯ＆ＮＥＲＯ,,株式会社,東京都,港区,白金台５丁目１１番２号バルビゾン２０番館２階,,13,103,1080071,,,,,,,2022-06-22,1,,,,,ビアンコアンドネロ,0
1196,5010901050947,新規,0,2022-06-22,2022-06-22,株式会社ＣＡＢＥ,,株式会社,東京都,世田谷区,世田谷４丁目２４番１４号,,13,112,1540017,,,,,,,2022-06-22,1,,,,,ケーブ,0
1197,5010901051094,新規,0,2022-06-22,2022-06-22,株式会社ＫＥＥＰ　ＣＡＬＭ,,株式会社,東京都,世田谷区,宮坂１丁目３４番２２号,,13,112,1560051,,,,,,,2022-06-22,1,,,,,キープカーム,0
1199,5010903007474,新規,0,2022-06-22,2022-06-22,合同会社パインクレスト,,合同会社,東京都,世田谷区,北沢１丁目１８番１８号,,13,112,1550031,,,,,,,2022-06-22,1,,,,,パインクレスト,0
1206,5011001148178,新規,0,2022-06-22,2022-06-22,株式会社ＩＰＫＮ,,株式会社,東京都,目黒区,大岡山１丁目１番１０号,,13,110,1520033,,,,,,,2022-06-22,1,,,,,アイピーケイエヌ,0
1207,5011001148252,新規,0,2022-06-22,2022-06-22,株式会社プレアデス,,株式会社,東京都,渋谷区,渋谷３丁目６番２号エクラート渋谷ビル５階,,13,113,1500002,,,,,,,2022-06-22,1,,,,,プレアデス,0
1208,5011001148277,新規,0,2022-06-22,2022-06-22,株式会社Ｔ‐ＣＡ,,株式会社,東京都,渋谷区,道玄坂１丁目１０番８号渋谷道玄坂東急ビル２Ｆ－Ｃ,,13,113,1500043,,,,,,,2022-06-22,1,,,,,ティーシーエー,0
1213,5011101099296,新規,0,2022-06-22,2022-06-22,ＧｌｏＺ　Ｊａｐａｎ株式会社,,株式会社,東京都,新宿区,西新宿７丁目４番３号,,13,104,1600023,,,,,,,2022-06-22,1,,,,,グロージージャパン,0
1214,5011101099305,新規,0,2022-06-22,2022-06-22,ＪＡＰＡＮＮＥＳＩＡ株式会社,,株式会社,東京都,新宿区,市谷田町３丁目８番,,13,104,1620843,,,,,,,2022-06-22,1,,,,,ジャパンネシア,0
1215,5011101099313,新規,0,2022-06-22,2022-06-22,株式会社希助,,株式会社,東京都,新宿区,歌舞伎町２丁目２４－３,,13,104,1600021,,,,,,,2022-06-22,1,,,,,キスケ,0
1218,5011401024334,新規,0,2022-06-22,2022-06-22,株式会社ＳＯＲＥＳＵ,,株式会社,東京都,板橋区,板橋３丁目７－１０レアルカスカータ７０４,,13,119,1730004,,,,,,,2022-06-22,1,,,,,ソレス,0
1220,5011701025395,新規,0,2022-06-22,2022-06-22,ｆｉｅｌｄｗｏｒｋ株式会社,,株式会社,東京都,江戸川区,西瑞江５丁目１－７０,,13,123,1340015,,,,,,,2022-06-22,1,,,,,フィールドワーク,0
1224,5011801040897,新規,0,2022-06-22,2022-06-22,株式会社ＳＹＮホーム,,株式会社,東京都,足立区,千住桜木２丁目５番６号,,13,121,1200045,,,,,,,2022-06-22,1,,,,,エスワイエヌホーム,0
1225,5011801040906,新規,0,2022-06-22,2022-06-22,株式会社誠企画,,株式会社,東京都,足立区,新田３丁目３６番３号,,13,121,1230865,,,,,,,2022-06-22,1,,,,,マコトキカク,0
1230,5011805003181,新規,0,2022-06-22,2022-06-22,一般社団法人ダイエットデザイン協会,,その他の設立登記法人,東京都,葛飾区,亀有３丁目３２－１松本ビル２Ｆ,,13,122,1250061,,,,,,,2022-06-22,1,,,,,ダイエットデザインキョウカイ,0
1231,5012401039330,新規,0,2022-06-22,2022-06-22,株式会社狛江,,株式会社,東京都,狛江市,東和泉１丁目２９番１８号第二谷田部ビル５０３号室,,13,219,2010014,,,,,,,2022-06-22,1,,,,,コマエ,0
1242,5020001147040,新規,0,2022-06-22,2022-06-22,株式会社３‐ｎｅｘｔ,,株式会社,神奈川県,川崎市中原区,下小田中２丁目１０番２６号,,14,133,2110041,,,,,,,2022-06-22,1,,,,,スリーネクスト,0
1247,5021001076171,新規,0,2022-06-22,2022-06-22,株式会社ジョイントライフ,,株式会社,神奈川県,大和市,福田３６５番地２１,,14,213,2420024,,,,,,,2022-06-22,1,,,,,ジョイントライフ,0
1248,5021001076329,新規,0,2022-06-22,2022-06-22,グリーンリーフ株式会社,,株式会社,神奈川県,平塚市,西真土１丁目２番４２号,,14,203,2540019,,,,,,,2022-06-22,1,,,,,グリーンリーフ,0
1249,5021001076353,新規,0,2022-06-22,2022-06-22,エコテック株式会社,,株式会社,神奈川県,相模原市緑区,橋本６丁目２６番１３号グランマルシェ３０１号室,,14,151,2520143,,,,,,,2022-06-22,1,,,,,エコテック,0
1260,5030005020894,新規,0,2022-06-22,2022-06-22,ＮＰＯ法人いりそ支え合いたっち,,その他の設立登記法人,埼玉県,狭山市,大字水野６２５番地の１５,,11,215,3501317,,,,,,,2022-06-22,1,,,,,イリソササエアイタッチ,0
1266,5040003020292,新規,0,2022-06-22,2022-06-22,合同会社さくら商事,,合同会社,千葉県,千葉市若葉区,桜木６丁目１４番６号クレインシティ２０１号,,12,104,2640028,,,,,,,2022-06-22,1,,,,,サクラショウジ,0
1270,5050001051256,新規,0,2022-06-22,2022-06-22,株式会社リ・ライズ,,株式会社,茨城県,取手市,駒場１丁目３番６号－１０２,,08,217,3020027,,,,,,,2022-06-22,1,,,,,リライズ,0
1271,5050001051264,新規,0,2022-06-22,2022-06-22,秋山工業株式会社,,株式会社,茨城県,結城市,大字結城１１５０８番地２８,,08,207,3070001,,,,,,,2022-06-22,1,,,,,アキヤマコウギョウ,0
1281,5060005009992,新規,0,2022-06-22,2022-06-22,特定非営利活動法人子育て支援塾,,その他の設立登記法人,栃木県,さくら市,狹間田９３２番地,,09,214,3291305,,,,,,,2022-06-22,1,,,,,コソダテシエンジュク,0
1283,5070001039349,新規,0,2022-06-22,2022-06-22,Ｊ．Ｂ株式会社,,株式会社,群馬県,館林市,大谷町８９４番地１富士峰ハイツ－１０２,,10,207,3740054,,,,,,,2022-06-22,1,,,,,ジェイビー,0
1291,5090001017625,新規,0,2022-06-22,2022-06-22,株式会社ＦＬＡＰ,,株式会社,山梨県,甲斐市,団子新居１３８６番地１５,,19,210,4000100,,,,,,,2022-06-22,1,,,,,フラップ,0
1292,5090003002113,新規,0,2022-06-22,2022-06-22,合同会社Ｋｒｕｇ,,合同会社,山梨県,甲府市,国母８丁目２番５号,,19,201,4000043,,,,,,,2022-06-22,1,,,,,クルーグ,0
1293,5100001035468,新規,0,2022-06-22,2022-06-22,株式会社ＧｏｏｄＦｉｅｌｄ,,株式会社,長野県,諏訪郡原村,１７２１７－１６２０,,20,363,3910100,,,,,,,2022-06-22,1,,,,,グッドフィールド,0
1318,5120001246781,新規,0,2022-06-22,2022-06-22,株式会社オージェー,,株式会社,大阪府,大阪市生野区,桃谷３丁目９番４号,,27,116,5440034,,,,,,,2022-06-22,1,,,,,オージェー,0
1319,5120001246807,新規,0,2022-06-22,2022-06-22,株式会社プロスぺラス,,株式会社,大阪府,大阪市中央区,日本橋１丁目１６番４号１０２号室,,27,128,5420073,,,,,,,2022-06-22,1,,,,,プロスペラス,0
1320,5120001246815,新規,0,2022-06-22,2022-06-22,株式会社ワイズ,,株式会社,大阪府,大阪市北区,梅田１丁目１番３号大阪駅前第３ビル２９階１－１－１号室,,27,127,5300001,,,,,,,2022-06-22,1,,,,,ワイズ,0
1321,5120001246823,新規,0,2022-06-22,2022-06-22,株式会社シークレットベース,,株式会社,大阪府,大阪市中央区,西心斎橋２丁目１０番２２号７階,,27,128,5420086,,,,,,,2022-06-22,1,,,,,シークレットベース,0
1322,5120001246831,新規,0,2022-06-22,2022-06-22,カラフルホップー株式会社,,株式会社,大阪府,大阪市中央区,南久宝寺町１丁目６番１０号,,27,128,5410058,,,,,,,2022-06-22,1,,,,,カラフルホップー,0
1323,5120001246889,新規,0,2022-06-22,2022-06-22,株式会社Ｈ２,,株式会社,大阪府,大阪市北区,天神橋６丁目２番６号,,27,127,5300041,,,,,,,2022-06-22,1,,,,,エイチツー,0
1325,5120003021951,新規,0,2022-06-22,2022-06-22,合同会社Ｂｅｉｎ,,合同会社,大阪府,大阪市中央区,久太郎町１丁目９番４号,,27,128,5410056,,,,,,,2022-06-22,1,,,,,ビーイン,0
1329,5120101065784,新規,0,2022-06-22,2022-06-22,株式会社ウイングスキャリアパートナー,,株式会社,大阪府,堺市西区,鳳東町４丁４０１番地１,,27,144,5938324,,,,,,,2022-06-22,1,,,,,ウイングスキャリアパートナー,0
1331,5120105009580,新規,0,2022-06-22,2022-06-22,一般社団法人ＣＯＬＯＲＦＵＬ,,その他の設立登記法人,大阪府,泉南市,新家１１２３番地の１,,27,228,5900503,,,,,,,2022-06-22,1,,,,,カラフル,0
1334,5120901046141,新規,0,2022-06-22,2022-06-22,ＨＲアシスト株式会社,,株式会社,大阪府,茨木市,沢良宜西３丁目１１番１３号－１０３,,27,211,5670868,,,,,,,2022-06-22,1,,,,,エイチアールアシスト,0
1341,5130001072013,新規,0,2022-06-22,2022-06-22,株式会社ｏｔｔｏ,,株式会社,京都府,京都市山科区,御陵四丁野町２０番地１３,,26,110,6078412,,,,,,,2022-06-22,1,,,,,オットー,0
1342,5130001072021,新規,0,2022-06-22,2022-06-22,株式会社Ｌベース,,株式会社,京都府,京田辺市,田辺中央１丁目５番地５橋本ビル３Ｆ,,26,211,6100334,,,,,,,2022-06-22,1,,,,,エルベース,0
1345,5130003007974,新規,0,2022-06-22,2022-06-22,合同会社３３ｃｈａ,,合同会社,京都府,京都市中京区,壬生梛ノ宮町１５－１７城戸ビル１Ｆ,,26,104,6048821,,,,,,,2022-06-22,1,,,,,ミミチャ,0
1346,5130005016511,新規,0,2022-06-22,2022-06-22,Ｍ＆Ｊ建設事業協同組合,,その他の設立登記法人,京都府,京都市南区,西九条柳ノ内町８３番地２４ぷらむビル４階,,26,107,6018435,,,,,,,2022-06-22,1,,,,,エムアンドジェイケンセツ,0
1350,5140001126420,新規,0,2022-06-22,2022-06-22,株式会社ＩＧＣ,,株式会社,兵庫県,加西市,大村町８９番地,,28,220,6752234,,,,,,,2022-06-22,1,,,,,アイジーシー,0
1351,5140001126461,新規,0,2022-06-22,2022-06-22,Ｍｅｒａｋ　Ｉｎｔｅｒｎａｔｉｏｎａｌ株式会社,,株式会社,兵庫県,芦屋市,潮見町４番３－４号,,28,206,6590043,,,,,,,2022-06-22,1,,,,,,0
1352,5140003017824,新規,0,2022-06-22,2022-06-22,合同会社Ｌｙｃｏｒｉｓ,,合同会社,兵庫県,三田市,酒井６２５番地,,28,219,6691405,,,,,,,2022-06-22,1,,,,,リコリス,0
1363,5180001151836,新規,0,2022-06-22,2022-06-22,株式会社ＲＮＴ,,株式会社,愛知県,東海市,富木島町伏見１丁目６番地９,,23,222,4760012,,,,,,,2022-06-22,1,,,,,アールエヌティー,0
1367,5180003023959,新規,0,2022-06-22,2022-06-22,アクア商事合同会社,,合同会社,愛知県,名古屋市西区,名駅２丁目３４番１７号セントラル名古屋１１０１号,,23,104,4510045,,,,,,,2022-06-22,1,,,,,アクアショウジ,0
1378,5190003004017,新規,0,2022-06-22,2022-06-22,合同会社ＫＥＲＮＥＬ,,合同会社,三重県,松阪市,五反田町４丁目１１０２番地１０,,24,204,5150064,,,,,,,2022-06-22,1,,,,,カーネル,0
1381,5200001040202,新規,0,2022-06-22,2022-06-22,株式会社ケアグリーン,,株式会社,岐阜県,中津川市,北野町１番１０号,,21,206,5080022,,,,,,,2022-06-22,1,,,,,ケアグリーン,0
1396,5290001097993,新規,0,2022-06-22,2022-06-22,株式会社ＴＲＥＡＳＵＲＥ,,株式会社,福岡県,大牟田市,藤田町４８９番地１,,40,202,8360074,,,,,,,2022-06-22,1,,,,,トレジャー,0
1397,5290001098001,新規,0,2022-06-22,2022-06-22,Ｋｉｋａ株式会社,,株式会社,福岡県,福岡市早良区,祖原２９‐１５,,40,137,8140005,,,,,,,2022-06-22,1,,,,,キカ,0
1409,5340001024827,新規,0,2022-06-22,2022-06-22,株式会社ＣＯＣ,,株式会社,鹿児島県,鹿児島市,呉服町３番５号新町ビル２Ｆ,,46,201,8920826,,,,,,,2022-06-22,1,,,,,シーオーシー,0
1423,5370005010498,新規,0,2022-06-22,2022-06-22,一般社団法人りとりーと,,その他の設立登記法人,宮城県,石巻市,塩富町２丁目６番４３号,,04,202,9862114,,,,,,,2022-06-22,1,,,,,リトリート,0
1436,5430005014492,新規,0,2022-06-22,2022-06-22,一般社団法人北海道テニスアカデミィ,,その他の設立登記法人,北海道,札幌市中央区,南三条西１２丁目３２６番地１０ニュースカイマンション７０１号,,01,101,0600063,,,,,,,2022-06-22,1,,,,,ホッカイドウテニスアカデミィ,0
1439,5460101007208,新規,0,2022-06-22,2022-06-22,株式会社オビテック,,株式会社,北海道,帯広市,川西町基線５７番地４１,,01,207,0891182,,,,,,,2022-06-22,1,,,,,オビテック,0
1445,5700150109029,新規,0,2022-06-22,2022-05-26,演劇ユニット・バックシャン,,その他,栃木県,宇都宮市,双葉２丁目１０－３９,,09,201,3210164,,,,,,,2022-05-26,1,,,,,エンゲキユニツトバツクシヤン,0
1446,5700150109499,新規,0,2022-06-22,2022-06-13,Ｅｅ　ＴＡＦＣＯＮ　研究会,,その他,茨城県,土浦市,真鍋１丁目１６番１１号,,08,203,3000051,,,,,,,2022-06-13,1,,,,,イータフコンケンキユウカイ,0
1462,6010005035167,新規,0,2022-06-22,2022-06-22,一般社団法人中日再生医療研究開発機構,,その他の設立登記法人,東京都,中央区,勝どき６丁目３番２－２８２２号,,13,102,1040054,,,,,,,2022-06-22,1,,,,,チュウニチサイセイイリョウケンキュウキコウ,0
1470,6010401168132,新規,0,2022-06-22,2022-06-22,Ｖｉｎｄａｕｇａ株式会社,,株式会社,東京都,港区,高輪１丁目２５番５号,,13,103,1080074,,,,,,,2022-06-22,1,,,,,ヴィンダウガ,0
1471,6010401168140,新規,0,2022-06-22,2022-06-22,株式会社日本デジタルインベストメント,,株式会社,東京都,港区,赤坂８丁目４番１４号,,13,103,1070052,,,,,,,2022-06-22,1,,,,,ニホンデジタルインベストメント,0
1487,6010901051102,新規,0,2022-06-22,2022-06-22,株式会社タイピングベース,,株式会社,東京都,世田谷区,太子堂１丁目１２－２７コンフォートテラス１００５号,,13,112,1540004,,,,,,,2022-06-22,1,,,,,タイピングベース,0
1488,6010903007481,新規,0,2022-06-22,2022-06-22,東京良虹国際合同会社,,合同会社,東京都,世田谷区,瀬田４丁目２８－１２－５０２,,13,112,1580095,,,,,,,2022-06-22,1,,,,,トウキョウリョウコウコクサイ,0
1495,6011001148177,新規,0,2022-06-22,2022-06-22,株式会社ジンテクス,,株式会社,東京都,渋谷区,渋谷２丁目１９－１５宮益坂ビルディング６０９,,13,113,1500002,,,,,,,2022-06-22,1,,,,,ジンテクス,0
1496,6011001148251,新規,0,2022-06-22,2022-06-22,Ｌｅａｐｓｅｎ株式会社,,株式会社,東京都,渋谷区,千駄ヶ谷２丁目９番６号,,13,113,1510051,,,,,,,2022-06-22,1,,,,,リープセン,0
1498,6011003014617,新規,0,2022-06-22,2022-06-22,合同会社Ｈ．Ｋ,,合同会社,東京都,渋谷区,千駄ヶ谷３丁目５５―１５―８０１,,13,113,1510051,,,,,,,2022-06-22,1,,,,,エイチケイ,0
1502,6011101099312,新規,0,2022-06-22,2022-06-22,ＫＩＲＩＮＪＩ株式会社,,株式会社,東京都,新宿区,片町４番６号,,13,104,1600001,,,,,,,2022-06-22,1,,,,,キリンジ,0
1503,6011101099320,新規,0,2022-06-22,2022-06-22,ＬＳケーブル株式会社,,株式会社,東京都,新宿区,新宿１丁目２４番７号,,13,104,1600022,,,,,,,2022-06-22,1,,,,,エルエスケーブル,0
1505,6011103011869,新規,0,2022-06-22,2022-06-22,合同会社ＤＥＳＴＩＮＹ,,合同会社,東京都,新宿区,歌舞伎町２丁目９番３号三経５９ビル６階,,13,104,1600021,,,,,,,2022-06-22,1,,,,,デスティニー,0
1506,6011103011877,新規,0,2022-06-22,2022-06-22,ＭＬＳ合同会社,,合同会社,東京都,新宿区,北新宿１丁目１番１５号Ｂ１Ｆ,,13,104,1690074,,,,,,,2022-06-22,1,,,,,エムエルエス,0
1507,6011105010299,新規,0,2022-06-22,2022-06-22,一般財団法人ユニオン子ども支援機構,,その他の設立登記法人,東京都,新宿区,西新宿７丁目７番２６号,,13,104,1600023,,,,,,,2022-06-22,1,,,,,ユニオンコドモシエンキコウ,0
1508,6011201023915,新規,0,2022-06-22,2022-06-22,株式会社あすなろ木工舎,,株式会社,東京都,中野区,白鷺２丁目４７番８号,,13,114,1650035,,,,,,,2022-06-22,1,,,,,アスナロモッコウシャ,0
1509,6011301027873,新規,0,2022-06-22,2022-06-22,Ｆｕｔｕｒｅ　ｄｉｒｅｃｔｉｏｎ株式会社,,株式会社,東京都,杉並区,梅里２丁目２５番１３号高円寺プラザ２０３号,,13,115,1660011,,,,,,,2022-06-22,1,,,,,フーチャーディレクション,0
1516,6011701025394,新規,0,2022-06-22,2022-06-22,大功電業株式会社,,株式会社,東京都,江戸川区,松江３丁目５番８号,,13,123,1320025,,,,,,,2022-06-22,1,,,,,タイコウデンギョウ,0
1518,6011703003167,新規,0,2022-06-22,2022-06-22,合同会社ｋｏｔａｃｈｉ,,合同会社,東京都,江戸川区,大杉２丁目９－８－３０２,,13,123,1320022,,,,,,,2022-06-22,1,,,,,コタチ,0
1519,6011801040905,新規,0,2022-06-22,2022-06-22,友和商事株式会社,,株式会社,東京都,葛飾区,東新小岩５丁目１４番９－１３０１号,,13,122,1240023,,,,,,,2022-06-22,1,,,,,ユウワショウジ,0
1521,6012303001692,新規,0,2022-06-22,2022-06-22,Ｌａｋａｓｗｅｌｌｎｅｓｓ合同会社,,合同会社,東京都,町田市,南大谷１６２７－６１,,13,209,1940031,,,,,,,2022-06-22,1,,,,,,0
1523,6012405004750,新規,0,2022-06-22,2022-06-22,特定非営利活動法人フードバンク府中,,その他の設立登記法人,東京都,府中市,住吉町２丁目１２番地の１ラヴィドール府中中河原３０１,,13,206,1830034,,,,,,,2022-06-22,1,,,,,フードバンクフチュウ,0
1525,6012801021671,新規,0,2022-06-22,2022-06-22,株式会社国立リベラルアーツ,,株式会社,東京都,国立市,中１丁目１４番地の４０,,13,215,1860004,,,,,,,2022-06-22,1,,,,,クニタチリベラルアーツ,0
1528,6013301049278,新規,0,2022-06-22,2022-06-22,株式会社Ｈ．Ｘ．アウトソーシング,,株式会社,東京都,豊島区,東池袋４丁目８番１号,,13,116,1700013,,,,,,,2022-06-22,1,,,,,エイチエックスアウトソーシング,0
1540,6020001147031,新規,0,2022-06-22,2022-06-22,株式会社Ｗｅｌｄｉｎｇ,,株式会社,神奈川県,横浜市鶴見区,駒岡２丁目１７番１５号,,14,101,2300071,,,,,,,2022-06-22,1,,,,,ウェルディング,0
1543,6020003021903,新規,0,2022-06-22,2022-06-22,合同会社ｉ　Ｐｌａｎｎｉｎｇ,,合同会社,神奈川県,川崎市中原区,市ノ坪４４９番地３シティタワー武蔵小杉４５１３,,14,133,2110016,,,,,,,2022-06-22,1,,,,,アイプランニング,0
1551,6021005012551,新規,0,2022-06-22,2022-06-22,一般社団法人かながわ県央ピンクリボン,,その他の設立登記法人,神奈川県,伊勢原市,三ノ宮１２７３番地,,14,214,2591103,,,,,,,2022-06-22,1,,,,,カナガワケンオウピンクリボン,0
1553,6030001148862,新規,0,2022-06-22,2022-06-22,株式会社ＹＤ　ＦＩＮＡＮＣＥ,,株式会社,埼玉県,川口市,元郷４丁目８番１号,,11,203,3320011,,,,,,,2022-06-22,1,,,,,ワイディーファイナンス,0
1570,6050001051263,新規,0,2022-06-22,2022-06-22,株式会社Ｔファーム,,株式会社,茨城県,那珂郡東海村,大字照沼６００番地,,08,341,3191113,,,,,,,2022-06-22,1,,,,,ティーファーム,0
1574,6060001035001,新規,0,2022-06-22,2022-06-22,株式会社Ｍｏｎｊｕｕ,,株式会社,栃木県,さくら市,喜連川３６４１番地,,09,214,3291412,,,,,,,2022-06-22,1,,,,,モンジュー,0
1575,6060001035018,新規,0,2022-06-22,2022-06-22,ＤＡＮＰＨＥ　ＣＯＲＰＯＲＡＴＩＯＮ株式会社,,株式会社,栃木県,栃木市,祝町１番地２４,,09,203,3280052,,,,,,,2022-06-22,1,,,,,ダフェコーポレーション,0
1586,6080401025905,新規,0,2022-06-22,2022-06-22,株式会社エスケープランニング,,株式会社,静岡県,掛川市,連雀１－８,,22,213,4360093,,,,,,,2022-06-22,1,,,,,エスケープランニング,0
1587,6090001017632,新規,0,2022-06-22,2022-06-22,株式会社セゾンファクトリー,,株式会社,山梨県,中央市,一町畑１０８５番地６,,19,214,4093813,,,,,,,2022-06-22,1,,,,,セゾンファクトリー,0
1595,6110001036753,新規,0,2022-06-22,2022-06-22,株式会社ｓｔｒｅｅｔ　ｗｏｒｋｓ,,株式会社,新潟県,三条市,興野１丁目５番２３号,,15,204,9550046,,,,,,,2022-06-22,1,,,,,ストリートワークス,0
1600,6120001246715,新規,0,2022-06-22,2022-06-22,思成株式会社,,株式会社,大阪府,大阪市西成区,天下茶屋１丁目８－１６シティプラザ花園２０２号室,,27,122,5570014,,,,,,,2022-06-22,1,,,,,シセイ,0
1601,6120001246797,新規,0,2022-06-22,2022-06-22,株式会社ハラダ建装,,株式会社,大阪府,大阪市平野区,瓜破西３丁目１１番１５号,,27,126,5470025,,,,,,,2022-06-22,1,,,,,ハラダケンソウ,0
1602,6120001246822,新規,0,2022-06-22,2022-06-22,株式会社のあぐり,,株式会社,大阪府,大阪市中央区,難波２丁目３番１号アザミ難波ビル５Ｆ,,27,128,5420076,,,,,,,2022-06-22,1,,,,,ノアグリ,0
1603,6120001246830,新規,0,2022-06-22,2022-06-22,株式会社Ｐｏｎｅｌ,,株式会社,大阪府,大阪市中央区,南船場４丁目１０番５号南船場ＳＯＨＯビル７０２,,27,128,5420081,,,,,,,2022-06-22,1,,,,,ポネル,0
1604,6120001246905,新規,0,2022-06-22,2022-06-22,株式会社ヤスラギ,,株式会社,大阪府,大阪市生野区,鶴橋２丁目４番８号,,27,116,5440031,,,,,,,2022-06-22,1,,,,,ヤスラギ,0
1608,6120003021942,新規,0,2022-06-22,2022-06-22,合同会社Ｓｏｒａ,,合同会社,大阪府,大阪市中央区,平野町１丁目８番１３号平野町八千代ビル５階Ｅ号室,,27,128,5410046,,,,,,,2022-06-22,1,,,,,ソラ,0
1609,6120003021950,新規,0,2022-06-22,2022-06-22,合同会社エール,,合同会社,大阪府,大阪市中央区,久太郎町１丁目９番４号,,27,128,5410056,,,,,,,2022-06-22,1,,,,,エール,0
1610,6120003021959,新規,0,2022-06-22,2022-06-22,合同会社ＦＵＲＡＨＡ,,合同会社,大阪府,大阪市北区,鶴野町４番Ａ－１１０３号,,27,127,5300014,,,,,,,2022-06-22,1,,,,,フラハ,0
1617,6120101065783,新規,0,2022-06-22,2022-06-22,株式会社ＨＩＮ,,株式会社,大阪府,貝塚市,近木町２３番３号,,27,208,5970001,,,,,,,2022-06-22,1,,,,,エイチアイエヌ,0
1630,6130001072020,新規,0,2022-06-22,2022-06-22,Ｈｉ‐Ｅｘｔｅｎｓｉｏｎ株式会社,,株式会社,京都府,京都市下京区,真苧屋町２１８ＧＡＲＮＥＴＳＴＡＲＴＩＮＧＢＬＤＧ４Ｆ,,26,106,6008211,,,,,,,2022-06-22,1,,,,,ハイエクステンション,0
1639,6140001126320,新規,0,2022-06-22,2022-06-22,株式会社ＬＣＳ,,株式会社,兵庫県,西宮市,室川町一丁目２２号メゾン夙川１０２号,,28,204,6620863,,,,,,,2022-06-22,1,,,,,エルシーエス,0
1640,6140001126386,新規,0,2022-06-22,2022-06-22,株式会社ＥＡＴ,,株式会社,兵庫県,神戸市灘区,六甲山町一ケ谷１番地の１７,,28,102,6570101,,,,,,,2022-06-22,1,,,,,イート,0
1641,6140001126403,新規,0,2022-06-22,2022-06-22,株式会社ＡＳＰ,,株式会社,兵庫県,たつの市,誉田町福田２３０番地１,,28,229,6794132,,,,,,,2022-06-22,1,,,,,エイエスピー,0
1642,6140001126411,新規,0,2022-06-22,2022-06-22,株式会社アースクリーン,,株式会社,兵庫県,高砂市,曽根町２５０５番地１,,28,216,6760082,,,,,,,2022-06-22,1,,,,,アースクリーン,0
1643,6140001126452,新規,0,2022-06-22,2022-06-22,ＳＯＬＯ　ＧＲＯＵＰ株式会社,,株式会社,兵庫県,三木市,別所町下石野１１０８番地の３４,,28,215,6730453,,,,,,,2022-06-22,1,,,,,,0
1660,6180001151843,新規,0,2022-06-22,2022-06-22,株式会社オートクチュールスイーツ,,株式会社,愛知県,名古屋市緑区,篠の風２丁目２８４番地の３,,23,114,4580015,,,,,,,2022-06-22,1,,,,,オートクチュールスイーツ,0
1667,6180301036356,新規,0,2022-06-22,2022-06-22,株式会社かれん設備,,株式会社,愛知県,額田郡幸田町,大字坂崎字迎山７０番地９,,23,501,4440104,,,,,,,2022-06-22,1,,,,,カレンセツビ,0
1672,6190003004016,新規,0,2022-06-22,2022-06-22,合同会社さくらもと,,合同会社,三重県,伊勢市,野村町５５５７番地,,24,203,5150511,,,,,,,2022-06-22,1,,,,,サクラモト,0
1681,6240001059972,新規,0,2022-06-22,2022-06-22,海外人材サポートセンター株式会社,,株式会社,広島県,広島市西区,田方３丁目１４８１番地１－５０９,,34,104,7330851,,,,,,,2022-06-22,1,,,,,カイガイジンザイサポートセンター,0
1689,6280003001623,新規,0,2022-06-22,2022-06-22,合同会社ＥＮ,,合同会社,島根県,邑智郡邑南町,矢上４５２６番地,,32,449,6960103,,,,,,,2022-06-22,1,,,,,,0
1693,6290001097976,新規,0,2022-06-22,2022-06-22,株式会社グロースプレッド,,株式会社,福岡県,福岡市博多区,博多駅前２丁目１９番１７号トーカン博多第５ビル３１２号室,,40,132,8120011,,,,,,,2022-06-22,1,,,,,グロースプレッド,0
1694,6290001098017,新規,0,2022-06-22,2022-06-22,株式会社Ｋｏｗｄ,,株式会社,福岡県,久留米市,津福本町１８１番地１３,,40,203,8300047,,,,,,,2022-06-22,1,,,,,コード,0
1699,6290003012644,新規,0,2022-06-22,2022-06-22,合同会社コズミック,,合同会社,福岡県,福岡市博多区,博多駅前４丁目１１－６－９０５,,40,132,8120011,,,,,,,2022-06-22,1,,,,,コズミック,0
1706,6340001024834,新規,0,2022-06-22,2022-06-22,株式会社エムプレシジョン,,株式会社,鹿児島県,薩摩川内市,上川内町４８８７番地,,46,215,8950067,,,,,,,2022-06-22,1,,,,,エムプレシジョン,0
1711,6350003004107,新規,0,2022-06-22,2022-06-22,合同会社ＷＡＣＯ,,合同会社,宮崎県,日南市,飫肥８丁目２番１０号,,45,204,8892535,,,,,,,2022-06-22,1,,,,,ワコ,0
1714,6360003012091,新規,0,2022-06-22,2022-06-22,アイデアプラチナ合同会社,,合同会社,沖縄県,浦添市,城間３丁目１番２号－３０３号室,,47,208,9012133,,,,,,,2022-06-22,1,,,,,,0
1715,6360003012100,新規,0,2022-06-22,2022-06-22,ライフトラベラー合同会社,,合同会社,沖縄県,宜野湾市,嘉数１丁目２２－１１,,47,205,9012226,,,,,,,2022-06-22,1,,,,,ライフトラベラー,0
1716,6360003012117,新規,0,2022-06-22,2022-06-22,合同会社Ｈｉｍａｌａｙａｎ　Ｃｕｒｒｙ　Ｈｏｕｓｅ,,合同会社,沖縄県,那覇市,久米２丁目１４番８－１０１号,,47,201,9000033,,,,,,,2022-06-22,1,,,,,ヒマラヤンカレーハウス,0
1718,6380001032916,新規,0,2022-06-22,2022-06-22,株式会社友進総建工業,,株式会社,福島県,相馬市,塚ノ町１丁目１番地の１２グランディ・ミュウＡ１０１,,07,209,9760015,,,,,,,2022-06-22,1,,,,,ユウシンソウケンコウギョウ,0
1721,6390003001967,新規,0,2022-06-22,2022-06-22,Ａｑｕａｐｌｕｓ合同会社,,合同会社,山形県,山形市,緑町４丁目９番９号,,06,201,9900041,,,,,,,2022-06-22,1,,,,,アクアプラス,0
1733,6470001019128,新規,0,2022-06-22,2022-06-22,株式会社ＦＵＫＵＤＡ,,株式会社,香川県,観音寺市,植田町１７８７番地１,,37,205,7680012,,,,,,,2022-06-22,1,,,,,フクダ,0
1738,6480001011769,新規,0,2022-06-22,2022-06-22,株式会社Ｂｅｌｉｅｆ,,株式会社,徳島県,鳴門市,撫養町小桑島字前浜１８１番地３,,36,202,7720012,,,,,,,2022-06-22,1,,,,,ビリーフ,0
1743,6500003002854,新規,0,2022-06-22,2022-06-22,合同会社５４９カンパニー,,合同会社,愛媛県,松山市,三番町４丁目６番地１ダイアパレス三番町１１０５号,,38,201,7900003,,,,,,,2022-06-22,1,,,,,ゴーヨンキュウカンパニー,0
1744,6700150036940,新規,0,2022-06-22,2015-10-09,むろね農産物加工組合,,その他,岩手県,一関市,室根町矢越字矢越８４－２,,03,209,0291202,,,,,,,2015-10-09,1,,,,,ムロネノウサンブツカコウクミアイ,0
1745,6700150109333,新規,0,2022-06-22,2022-06-09,牛岳オートキャンプ場等管理組合,,その他,富山県,富山市,山田小谷中根８６番地２,,16,201,9302115,,,,,,,2022-06-09,1,,,,,ウシダケオートキヤンプジヨウトウカンリクミアイ,0
1746,6700150109630,新規,0,2022-06-22,2022-06-14,建設技能者能力評価制度推進協議会,,その他,東京都,港区,虎ノ門４丁目２番１２号虎ノ門４丁目ＭＴビル２号館３階,,13,103,1050001,,,,,,,2022-06-14,1,,,,,ケンセツギノウシヤノウリヨクヒヨウカセイドスイシンキヨウギカイ,0
1747,6700150109787,新規,0,2022-06-22,2022-06-15,ＧＩＡ　ＶＡＬＮＣＥ　ＪＡＰＡＮ,,その他,東京都,渋谷区,笹塚２丁目４－１パールハイツ笹塚１３０８号,,13,113,1510073,,,,,,,2022-06-15,1,,,,,ジアバランスジヤパン,0
1756,7010001227510,新規,0,2022-06-22,2022-06-22,株式会社ＥＹＥ　ＦＡＳＨＩＯＮ,,株式会社,東京都,千代田区,九段南２丁目３番２５号,,13,101,1020074,,,,,,,2022-06-22,1,,,,,アイファッション,0
1757,7010001227519,新規,0,2022-06-22,2022-06-22,株式会社蓮花健康製薬研究所,,株式会社,東京都,中央区,銀座４丁目１４番６号ウィンド銀座８ビル８階,,13,102,1040061,,,,,,,2022-06-22,1,,,,,レンゲケンコウセイヤクケンキュウショ,0
1758,7010001227543,新規,0,2022-06-22,2022-06-22,株式会社ＦＩＲＳＴ　ＣＯＡＣＨ,,株式会社,東京都,中央区,銀座１丁目２２番１１号２階,,13,102,1040061,,,,,,,2022-06-22,1,,,,,ファーストコーチ,0
1759,7010001227568,新規,0,2022-06-22,2022-06-22,株式会社メロン,,株式会社,東京都,文京区,本郷１丁目３３番４号２１１号,,13,105,1130033,,,,,,,2022-06-22,1,,,,,,0
1760,7010001227584,新規,0,2022-06-22,2022-06-22,株式会社ｕｌｕ,,株式会社,東京都,文京区,千石４丁目２６番１号－１０２,,13,105,1120011,,,,,,,2022-06-22,1,,,,,ウル,0
1762,7010003037957,新規,0,2022-06-22,2022-06-22,オーパスファンディング６合同会社,,合同会社,東京都,千代田区,丸の内３丁目１番１号東京共同会計事務所内,,13,101,1000005,,,,,,,2022-06-22,1,,,,,オーパスファンディングシックス,0
1767,7010401168131,新規,0,2022-06-22,2022-06-22,株式会社ひのてつＳＤ,,株式会社,東京都,港区,浜松町２丁目２番１５号浜松町ダイヤビル２Ｆ,,13,103,1050013,,,,,,,2022-06-22,1,,,,,ヒノテツエスディー,0
1768,7010401168148,新規,0,2022-06-22,2022-06-22,ピグレット株式会社,,株式会社,東京都,港区,南青山４丁目１７番１３号,,13,103,1070062,,,,,,,2022-06-22,1,,,,,ピグレット,0
1772,7010403027871,新規,0,2022-06-22,2022-06-22,合同会社Ｂｌｏｏｍ　Ｐｌａｎ,,合同会社,東京都,港区,西麻布４丁目６番２－８０３号,,13,103,1060031,,,,,,,2022-06-22,1,,,,,ブルームプラン,0
1773,7010403027962,新規,0,2022-06-22,2022-06-22,ＣｙｂｅｒＴｅｃｈ合同会社,,合同会社,東京都,港区,芝５丁目３６番４号札の辻スクエア９階,,13,103,1080014,,,,,,,2022-06-22,1,,,,,サイバーテック,0
1774,7010403027979,新規,0,2022-06-22,2022-06-22,合同会社ブリックリンインベストメント,,合同会社,東京都,港区,浜松町２丁目２番１５号浜松町ダイヤビル２Ｆ,,13,103,1050013,,,,,,,2022-06-22,1,,,,,ブルックリンインベストメント,0
1777,7010501048992,新規,0,2022-06-22,2022-06-22,株式会社Ａｌｐｈａ　Ｔｅｃｈ,,株式会社,東京都,台東区,秋葉原５番８号４階,,13,106,1100006,,,,,,,2022-06-22,1,,,,,アルファテック,0
1791,7010803004215,新規,0,2022-06-22,2022-06-22,合同会社ＲＧＣ,,合同会社,東京都,大田区,東矢口２丁目１番８号,,13,111,1460094,,,,,,,2022-06-22,1,,,,,アールジーシー,0
1794,7010901051092,新規,0,2022-06-22,2022-06-22,株式会社渦,,株式会社,東京都,世田谷区,代沢１丁目３２番７号,,13,112,1550032,,,,,,,2022-06-22,1,,,,,ウズ,0
1795,7010901051101,新規,0,2022-06-22,2022-06-22,株式会社ハウスセレクト,,株式会社,東京都,世田谷区,世田谷２丁目１２番１４号ハピネス上町１０７,,13,112,1540017,,,,,,,2022-06-22,1,,,,,ハウスセレクト,0
1802,7011001148176,新規,0,2022-06-22,2022-06-22,ソルコリット株式会社,,株式会社,東京都,目黒区,祐天寺２丁目３番１６号,,13,110,1530052,,,,,,,2022-06-22,1,,,,,ソルコリット,0
1805,7011005009630,新規,0,2022-06-22,2022-06-22,一般社団法人日本ケアネイル協会,,その他の設立登記法人,東京都,渋谷区,渋谷１丁目２４番４号渋谷こうゆうビル７階,,13,113,1500002,,,,,,,2022-06-22,1,,,,,ニホンケアネイルキョウカイ,0
1815,7011301027872,新規,0,2022-06-22,2022-06-22,株式会社Ｓｔａｎｄ,,株式会社,東京都,杉並区,上荻１丁目５番１１号,,13,115,1670043,,,,,,,2022-06-22,1,,,,,スタンド,0
1821,7011601026046,新規,0,2022-06-22,2022-06-22,株式会社スカイニック,,株式会社,東京都,練馬区,立野町１５番４５－３０６号,,13,120,1770054,,,,,,,2022-06-22,1,,,,,スカイニック,0
1827,7011801040870,新規,0,2022-06-22,2022-06-22,株式会社ちょこっと,,株式会社,東京都,葛飾区,堀切２丁目５５番９,,13,122,1240006,,,,,,,2022-06-22,1,,,,,チョコット,0
1828,7011801040904,新規,0,2022-06-22,2022-06-22,株式会社ジルカ,,株式会社,東京都,葛飾区,立石７丁目２９番１１号,,13,122,1240012,,,,,,,2022-06-22,1,,,,,ジルカ,0
1829,7011803005145,新規,0,2022-06-22,2022-06-22,合同会社いいみらい,,合同会社,東京都,葛飾区,宝町２丁目８番２２号,,13,122,1240005,,,,,,,2022-06-22,1,,,,,イイミライ,0
1830,7012301013029,新規,0,2022-06-22,2022-06-22,株式会社ＰＩＳ,,株式会社,東京都,町田市,中町１丁目２番５号,,13,209,1940021,,,,,,,2022-06-22,1,,,,,ピーアイエス,0
1853,7021001076319,新規,0,2022-06-22,2022-06-22,株式会社ファイブスター,,株式会社,神奈川県,藤沢市,辻堂元町１丁目９番２～１号,,14,205,2510043,,,,,,,2022-06-22,1,,,,,ファイブスター,0
1859,7030001148804,新規,0,2022-06-22,2022-06-22,株式会社馬場興業,,株式会社,埼玉県,川口市,大字芝４４９２番地の１セジュール・アイ１０２号,,11,203,3330866,,,,,,,2022-06-22,1,,,,,ババコウギョウ,0
1864,7040001123888,新規,0,2022-06-22,2022-06-22,株式会社ライズウォーターメンテナンス,,株式会社,千葉県,松戸市,金ケ作３５４－１４、２階,,12,207,2702251,,,,,,,2022-06-22,1,,,,,ライズウォーターメンテナンス,0
1865,7040001123962,新規,0,2022-06-22,2022-06-22,株式会社リアライズ,,株式会社,千葉県,習志野市,秋津１丁目３－９－３０２,,12,216,2750025,,,,,,,2022-06-22,1,,,,,リアライズ,0
1868,7040005021659,新規,0,2022-06-22,2022-06-22,一般社団法人ＧＲＥＥＮ　ＴＯＰＩＡ　ＦＯＲＥＳＴ,,その他の設立登記法人,千葉県,山武市,新泉２６２番地,,12,237,2891344,,,,,,,2022-06-22,1,,,,,グリーンピアフォレスト,0
1874,7050001051262,新規,0,2022-06-22,2022-06-22,株式会社Ａジョン,,株式会社,茨城県,水戸市,南町２丁目６番２５号,,08,201,3100021,,,,,,,2022-06-22,1,,,,,エージョン,0
1877,7050005013093,新規,0,2022-06-22,2022-06-22,アソシエイツ大鹿行,,その他の設立登記法人,茨城県,神栖市,奥野谷７８０８番地２０２号室,,08,232,3140116,,,,,,,2022-06-22,1,,,,,アソシエイツダイロッコウ,0
1878,7060001035017,新規,0,2022-06-22,2022-06-22,株式会社ＲＯＵＴＥ　ＺＥＲＯ,,株式会社,栃木県,大田原市,浅香２丁目３３９７番地１ＰＯＮＴＥＩＩ２０１,00126966,09,210,3240043,,,,,,,2022-06-22,1,,,,,ルートゼロ,0
1894,7100003006589,新規,0,2022-06-22,2022-06-22,合同会社彩,,合同会社,長野県,安曇野市,穂高５２４５番地８,,20,220,3998303,,,,,,,2022-06-22,1,,,,,イロドリ,0
1896,7110001036752,新規,0,2022-06-22,2022-06-22,株式会社Ｈｏｎｅｓｔ,,株式会社,新潟県,新発田市,下中沢１４０番地１,,15,206,9570203,,,,,,,2022-06-22,1,,,,,オネスト,0
1909,7120001246549,新規,0,2022-06-22,2022-06-22,株式会社ＫＩＵ,,株式会社,大阪府,大阪市天王寺区,上本町６丁目９番１９号ＦＬＡＴ３４上本町６０１号,,27,109,5430001,,,,,,,2022-06-22,1,,,,,ケーアイユー,0
1910,7120001246771,新規,0,2022-06-22,2022-06-22,株式会社ＭＩＺＵＨＯ企画,,株式会社,大阪府,大阪市平野区,長吉出戸７丁目１－２３,,27,126,5470011,,,,,,,2022-06-22,1,,,,,ミズホキカク,0
1911,7120001246788,新規,0,2022-06-22,2022-06-22,株式会社ＣＡＭＯＮ　ＰＲＥＴＴＹ,,株式会社,大阪府,大阪市阿倍野区,丸山通１丁目６番１６号,,27,119,5450042,,,,,,,2022-06-22,1,,,,,カモンプリティ,0
1912,7120001246813,新規,0,2022-06-22,2022-06-22,株式会社高義不動産,00126961,株式会社,大阪府,大阪市北区,西天満４丁目５番５－４０２号,,27,127,5300047,,,,,,,2022-06-22,1,,,,,タカギフドウサン,0
1913,7120001246838,新規,0,2022-06-22,2022-06-22,株式会社ＫＥＩＺＵ,,株式会社,大阪府,枚方市,楠葉美咲３丁目１４番２０号,,27,210,5731112,,,,,,,2022-06-22,1,,,,,ケイズ,0
1914,7120001246854,新規,0,2022-06-22,2022-06-22,株式会社Ｂｅａｔｓ　ｗｉｔｈ,,株式会社,大阪府,門真市,舟田町１１番９,,27,223,5710021,,,,,,,2022-06-22,1,,,,,ビーツウィズ,0
1915,7120001246862,新規,0,2022-06-22,2022-06-22,株式会社ｍａｒｋ,,株式会社,大阪府,大阪市都島区,御幸町２丁目２番１１号,,27,102,5340012,,,,,,,2022-06-22,1,,,,,マーク,0
1916,7120001246879,新規,0,2022-06-22,2022-06-22,株式会社ｅａｔ．ｅｅｌ,,株式会社,大阪府,大阪市天王寺区,生玉町１－３１,,27,109,5430071,,,,,,,2022-06-22,1,,,,,イートイール,0
1917,7120001246887,新規,0,2022-06-22,2022-06-22,株式会社ＢＦＭ,,株式会社,大阪府,大阪市西区,西本町２丁目１－１大金ビル６－Ａ,,27,106,5500005,,,,,,,2022-06-22,1,,,,,ビーエフエム,0
1918,7120001246904,新規,0,2022-06-22,2022-06-22,株式会社ｉ‐Ｇｏｌｆスタジオ,,株式会社,大阪府,大阪市中央区,南船場４丁目１０番５号南船場ＳＯＨＯビル７０２,,27,128,5420081,,,,,,,2022-06-22,1,,,,,アイゴルフスタジオ,0
1920,7120003021941,新規,0,2022-06-22,2022-06-22,Ｚリアルエステート合同会社,,合同会社,大阪府,大阪市東成区,東小橋１丁目２番４号,,27,115,5370024,,,,,,,2022-06-22,1,,,,,ゼットリアルエステート,0
1921,7120003021958,新規,0,2022-06-22,2022-06-22,合同会社ＫＨ,,合同会社,大阪府,大阪市城東区,放出西２丁目１９番１０－４０２号,,27,118,5360011,,,,,,,2022-06-22,1,,,,,ケーエイチ,0
1926,7120005023011,新規,0,2022-06-22,2022-06-22,一般財団法人未来研究支援財団,,その他の設立登記法人,大阪府,大阪市中央区,南船場３丁目１１番１８号６階,,27,128,5420081,,,,,,,2022-06-22,1,,,,,ミライケンキュウシエンザイダン,0
1948,7140001126419,新規,0,2022-06-22,2022-06-22,株式会社小林工務店,,株式会社,兵庫県,姫路市,広畑区才６６６番地１７,,28,201,6711104,,,,,,,2022-06-22,1,,,,,コバヤシコウムテン,0
1949,7140001126476,新規,0,2022-06-22,2022-06-22,ＥＭＲ株式会社,,株式会社,兵庫県,神戸市垂水区,清玄町３３番地の２スカイヴィレッジＨ１０２号,,28,108,6550865,,,,,,,2022-06-22,1,,,,,イーエムアール,0
1952,7140003017814,新規,0,2022-06-22,2022-06-22,合同会社Ｒｏｉｓｓ　Ｍｕｓｉｋ　Ｈａｕｓ,,合同会社,兵庫県,宝塚市,中筋山手７丁目１番３－３０３号,,28,214,6650875,,,,,,,2022-06-22,1,,,,,ロイスムジークハウス,0
1959,7170003001740,新規,0,2022-06-22,2022-06-22,合同会社Ｄｅ　Ｓｅａｌｓ,,合同会社,和歌山県,和歌山市,相坂３０４番地２,,30,201,6400341,,,,,,,2022-06-22,1,,,,,デシール,0
1966,7180001151710,新規,0,2022-06-22,2022-06-22,株式会社アールエスパートナーズ,,株式会社,愛知県,名古屋市東区,芳野１丁目１４番１９号,,23,102,4610027,,,,,,,2022-06-22,1,,,,,アールエスパートナーズ,0
1975,7190001029534,新規,0,2022-06-22,2022-06-22,株式会社プロスハードウェア,,株式会社,三重県,桑名市,陽だまりの丘１丁目１４０１番地マーベラス陽だまりＩ棟２０２号,00126962,24,205,5110867,,,,,,,2022-06-22,1,,,,,プロスハードウェア,0
1982,7210001018971,新規,0,2022-06-22,2022-06-22,株式会社Ｋｉｃｈｉｂｅｉ,,株式会社,福井県,丹生郡越前町,上川去第３号３番地,,18,423,9160142,,,,,,,2022-06-22,1,,,,,キチベイ,0
1983,7220001024911,新規,0,2022-06-22,2022-06-22,株式会社宮崎農園,,株式会社,石川県,金沢市,粟崎町ル２７番地３３,,17,201,9200226,,,,,,,2022-06-22,1,,,,,ミヤザキノウエン,0
1990,7240003005676,新規,0,2022-06-22,2022-06-22,宏源合同会社,,合同会社,広島県,広島市中区,竹屋町３番２９号,,34,101,7300048,,,,,,,2022-06-22,1,,,,,ヒロゲン,0
1991,7250003003101,新規,0,2022-06-22,2022-06-22,合同会社ＵＮＯＲＤＮＵＮＧ,,合同会社,山口県,下関市,大字伊倉２５８番地１グランドパレス新下関ＩＩ１１０２号,00126964,35,201,7510862,,,,,,,2022-06-22,1,,,,,ウンオルドヌング,0
1997,7290001097975,新規,0,2022-06-22,2022-06-22,株式会社なごみＦｒｅｓｈ,,株式会社,福岡県,福岡市早良区,原７丁目２６番２２号河口ビル１０２,,40,137,8140022,,,,,,,2022-06-22,1,,,,,ナゴミフレッシュ,0
1998,7290001098008,新規,0,2022-06-22,2022-06-22,株式会社Ｋ．Ｄ．Ｐ,,株式会社,福岡県,久留米市,小森野１丁目６番８－５０２号,,40,203,8300001,,,,,,,2022-06-22,1,,,,,ケイディーピー,0
1999,7290001098016,新規,0,2022-06-22,2022-06-22,株式会社ＡＬＯＦＴ,,株式会社,福岡県,福岡市中央区,警固２丁目３番２６号,,40,133,8100023,,,,,,,2022-06-22,1,,,,,アロフト,0
2003,7310005008620,新規,0,2022-06-22,2022-06-22,一般社団法人西海福祉の森,,その他の設立登記法人,長崎県,佐世保市,江迎町三浦１０番地７,,42,202,8596125,,,,,,,2022-06-22,1,,,,,サイカイフクシノモリ,0
2004,7330001029858,新規,0,2022-06-22,2022-06-22,株式会社Ｆｌａｍｅｏｎｅ,,株式会社,熊本県,熊本市南区,御幸笛田４丁目７－１８,,43,104,8614172,,,,,,,2022-06-22,1,,,,,フレームワン,0
2005,7330001029866,新規,0,2022-06-22,2022-06-22,株式会社エコライフゴールド,,株式会社,熊本県,八代市,横手新町１５番１１号横手新町倉庫ＩＩＩ１０１号室,00126970,43,202,8660875,,,,,,,2022-06-22,1,,,,,エコライフゴールド,0
2016,7360003012099,新規,0,2022-06-22,2022-06-22,オーサーズ合同会社,,合同会社,沖縄県,宜野湾市,嘉数１丁目２２－１１,,47,205,9012226,,,,,,,2022-06-22,1,,,,,オーサーズ,0
2017,7370001048706,新規,0,2022-06-22,2022-06-22,株式会社カラフルステージ,,株式会社,宮城県,仙台市青葉区,立町４番２５－２０２号,,04,101,9800822,,,,,,,2022-06-22,1,,,,,カラフルステージ,0
2029,7430001086889,新規,0,2022-06-22,2022-06-22,株式会社あいがった,,株式会社,北海道,札幌市北区,屯田九条５丁目２番１号,,01,102,0020859,,,,,,,2022-06-22,1,,,,,アイガッタ,0
2036,7500001024288,新規,0,2022-06-22,2022-06-22,株式会社樹立,,株式会社,愛媛県,四国中央市,金生町下分１４００番地２,,38,213,7990111,,,,,,,2022-06-22,1,,,,,ジュリツ,0
2039,7700150108929,新規,0,2022-06-22,2022-06-22,ｈｅｐ　ｅｎｅｒｇｙ　ＧｍｂＨ,,外国会社等,,,,,,,,Ｒｏｅｍｅｒｓｔｒａｓｓｅ　３，７４３６３　Ｇｕｅｇｌｉｎｇｅｎ，Ｇｅｒｍａｎｙ,,,,,,2022-06-22,1,,,,,ヘツプエナジーゲーエムベーハー,0
2040,7700150109200,新規,0,2022-06-22,2022-06-06,かかわりファクトリー滋賀推進協議会,,その他,滋賀県,大津市,京町４丁目１番１号,,25,201,5200044,,,,,,,2022-06-06,1,,,,,カカワリフアクトリーシガスイシンキヨウギカイ,0
2041,7700150109786,新規,0,2022-06-22,2022-06-15,西川扇藏事務所,,その他,東京都,新宿区,市谷台町８番１２号,,13,104,1620066,,,,,,,2022-06-15,1,,,,,ニシカワセンゾウジムシヨ,0
2050,8010001227377,新規,0,2022-06-22,2022-06-22,ＳＰＡＣＥＭＡＴＣＨ株式会社,,株式会社,東京都,千代田区,丸の内１丁目８－３丸の内トラストタワー本館２０階,,13,101,1000005,,,,,,,2022-06-22,1,,,,,スペースマッチ,0
2051,8010001227518,新規,0,2022-06-22,2022-06-22,株式会社テラデン,,株式会社,東京都,中央区,銀座１丁目２２番１１号銀座大竹ビジデンス２階,,13,102,1040061,,,,,,,2022-06-22,1,,,,,テラデン,0
2052,8010001227526,新規,0,2022-06-22,2022-06-22,株式会社Ｃｈａｍｙ,,株式会社,東京都,中央区,晴海２丁目２番４２号,,13,102,1040053,,,,,,,2022-06-22,1,,,,,チャミー,0
2053,8010001227542,新規,0,2022-06-22,2022-06-22,株式会社Ｓｕｐｐｏｒｔ　ｅａｃｈ　ｏｔｈｅｒ,,株式会社,東京都,中央区,銀座１丁目１２番４号Ｎ＆Ｅ・ＢＬＤ．７階,,13,102,1040061,,,,,,,2022-06-22,1,,,,,サポートイーチアザー,0
2056,8010003037956,新規,0,2022-06-22,2022-06-22,合同会社生山,,合同会社,東京都,中央区,日本橋中洲１番２－６０３号,,13,102,1030008,,,,,,,2022-06-22,1,,,,,イキヤマ,0
2064,8010401167958,新規,0,2022-06-22,2022-06-22,株式会社ｏｏｏ,,株式会社,東京都,港区,麻布十番３丁目８番６号ＧＲＡＮＰＡＳＥＯ麻布十番１２０１号,,13,103,1060045,,,,,,,2022-06-22,1,,,,,オー,0
2065,8010401168097,新規,0,2022-06-22,2022-06-22,株式会社南青山ウェブ倶楽部,,株式会社,東京都,港区,南青山２丁目２番１５号ウィン青山９４２,,13,103,1070062,,,,,,,2022-06-22,1,,,,,ミナミアオヤマウェブクラブ,0
2066,8010401168106,新規,0,2022-06-22,2022-06-22,ＱＴ＆Ｔ株式会社,,株式会社,東京都,港区,芝大門１丁目１１番８－１２０１号,,13,103,1050012,,,,,,,2022-06-22,1,,,,,,0
2067,8010401168130,新規,0,2022-06-22,2022-06-22,株式会社Ｓｔｕｄｉｏ　ＡＭＢ,,株式会社,東京都,港区,浜松町２丁目２番１５号浜松町ダイヤビル２Ｆ,,13,103,1050013,,,,,,,2022-06-22,1,,,,,スタジオエーエムビー,0
2069,8010403027870,新規,0,2022-06-22,2022-06-22,合同会社Ｊ１,,合同会社,東京都,港区,新橋２丁目１６番１号６２８号室,,13,103,1050004,,,,,,,2022-06-22,1,,,,,ジェイワン,0
2071,8010501049016,新規,0,2022-06-22,2022-06-22,オーサカフィル株式会社,,株式会社,東京都,台東区,台東１丁目１４番９号清水ビル２Ａ,,13,106,1100016,,,,,,,2022-06-22,1,,,,,オーサカフィル,0
2072,8010503006626,新規,0,2022-06-22,2022-06-22,合同会社ＳＭＲ,,合同会社,東京都,台東区,鳥越１丁目２２－４－４０３号,,13,106,1110054,,,,,,,2022-06-22,1,,,,,エスエムアール,0
2089,8011001148266,新規,0,2022-06-22,2022-06-22,株式会社ＯＡＰ不動産鑑定事務所,,株式会社,東京都,目黒区,下目黒３丁目７番２８号,,13,110,1530064,,,,,,,2022-06-22,1,,,,,オーエーピーフドウサンカンテイジムショ,0
2097,8011301027847,新規,0,2022-06-22,2022-06-22,株式会社道盛,,株式会社,東京都,杉並区,上荻１丁目１５番地５号新興ビル２,,13,115,1670043,,,,,,,2022-06-22,1,,,,,ミチモリ,0
2098,8011301027871,新規,0,2022-06-22,2022-06-22,メザニンＪＡＰＡＮ株式会社,,株式会社,東京都,杉並区,宮前２丁目１３番９号パーク・コート杉並宮前３０１,,13,115,1680081,,,,,,,2022-06-22,1,,,,,メザニンジャパン,0
2103,8011801040894,新規,0,2022-06-22,2022-06-22,株式会社青山空設,,株式会社,東京都,足立区,入谷４丁目１３番２号,,13,121,1210836,,,,,,,2022-06-22,1,,,,,アオヤマクウセツ,0
2104,8011801040903,新規,0,2022-06-22,2022-06-22,株式会社泰平舎,,株式会社,東京都,足立区,保木間１丁目２１番１２－６０２号,,13,121,1210064,,,,,,,2022-06-22,1,,,,,タイヘイシャ,0
2106,8011803005144,新規,0,2022-06-22,2022-06-22,合同会社テンマインド,,合同会社,東京都,足立区,千住曙町４１番１－２００５号,,13,121,1200023,,,,,,,2022-06-22,1,,,,,テンマインド,0
2107,8012301013028,新規,0,2022-06-22,2022-06-22,キャリアコミット株式会社,,株式会社,東京都,町田市,森野１丁目２２番５号,,13,209,1940022,,,,,,,2022-06-22,1,,,,,キャリアコミット,0
2122,8020003021975,新規,0,2022-06-22,2022-06-22,合同会社ＮＡＮＡＨＯＳＨＩ,,合同会社,神奈川県,川崎市中原区,宮内３丁目３番１号,,14,133,2110051,,,,,,,2022-06-22,1,,,,,ナナホシ,0
2131,8030001148778,新規,0,2022-06-22,2022-06-22,瑞隆株式会社,,株式会社,埼玉県,川口市,栄町３丁目２番２６－６０１号ライオンズマンション川口,,11,203,3320017,,,,,,,2022-06-22,1,,,,,ズイリュウ,0
2132,8030001148794,新規,0,2022-06-22,2022-06-22,聚合棠株式会社,,株式会社,埼玉県,川口市,西川口１丁目２３番９－７０２号エクメーネ西川口駅前,,11,203,3320021,,,,,,,2022-06-22,1,,,,,シュウゴウトウ,0
2133,8030001148803,新規,0,2022-06-22,2022-06-22,銀座トラヤ帽子店株式会社,,株式会社,埼玉県,川口市,芝富士１丁目１０番１２号,,11,203,3330854,,,,,,,2022-06-22,1,,,,,ギンザトラヤボウシテン,0
2134,8030001148811,新規,0,2022-06-22,2022-06-22,株式会社ナカモト自販,,株式会社,埼玉県,久喜市,菖蒲町上栢間３３１１番地３,,11,232,3460114,,,,,,,2022-06-22,1,,,,,ナカモトジハン,0
2135,8030001148828,新規,0,2022-06-22,2022-06-22,エレン・リペアサービス株式会社,,株式会社,埼玉県,越谷市,北越谷４丁目６番地２,,11,222,3430026,,,,,,,2022-06-22,1,,,,,エレンリペアサービス,0
2139,8030003019639,新規,0,2022-06-22,2022-06-22,アンカーファーム合同会社,,合同会社,埼玉県,さいたま市北区,宮原町２丁目１１４番地２３,,11,102,3310812,,,,,,,2022-06-22,1,,,,,アンカーファーム,0
2140,8030003019647,新規,0,2022-06-22,2022-06-22,ＨＡＦＥＥＺ　ＢＲＯＴＨＥＲＳ合同会社,,合同会社,埼玉県,富士見市,関沢３丁目４６番９号アサヒハイツ鶴瀬２階２０１号室,,11,235,3540025,,,,,,,2022-06-22,1,,,,,ハフィーズブラザーズ,0
2146,8040001123870,新規,0,2022-06-22,2022-06-22,株式会社彩舞商事,,株式会社,千葉県,印旛郡酒々井町,中央台１丁目８番８,,12,322,2850922,,,,,,,2022-06-22,1,,,,,サイブショウジ,0
2148,8040003020323,新規,0,2022-06-22,2022-06-22,合同会社Ｅｉｇｈｔ　Ｐｌｕｓ,,合同会社,千葉県,東金市,堀上８２４番地３,,12,213,2830063,,,,,,,2022-06-22,1,,,,,エイトプラス,0
2155,8050003006635,新規,0,2022-06-22,2022-06-22,ＫＯＵＫＩエンターテイメント合同会社,,合同会社,茨城県,神栖市,神栖２丁目７番２９－１０６号,,08,232,3140143,,,,,,,2022-06-22,1,,,,,コウキエンターテイメント,0
2160,8060001035008,新規,0,2022-06-22,2022-06-22,ＨＤＣ株式会社,,株式会社,栃木県,佐野市,大蔵町２９６１番地,,09,204,3270012,,,,,,,2022-06-22,1,,,,,エイチディーシー,0
2161,8060001035016,新規,0,2022-06-22,2022-06-22,株式会社ＴＹエンジニアリング,,株式会社,栃木県,小山市,扶桑１丁目８番５号,,09,208,3230016,,,,,,,2022-06-22,1,,,,,ティワイエンジニアリング,0
2175,8100001035457,新規,0,2022-06-22,2022-06-22,株式会社Ｎｅｏ　ｂｅｅ,,株式会社,長野県,塩尻市,大字北小野４１１６番地９,,20,215,3990651,,,,,,,2022-06-22,1,,,,,ネオビー,0
2176,8100001035465,新規,0,2022-06-22,2022-06-22,株式会社ブルーレイク,,株式会社,長野県,伊那市,荒井４３３０番地３,,20,209,3960025,,,,,,,2022-06-22,1,,,,,ブルーレイク,0
2179,8110003004797,新規,0,2022-06-22,2022-06-22,合同会社Ｂｅｅ,,合同会社,新潟県,長岡市,中之島１９０９番地３５,,15,202,9540124,,,,,,,2022-06-22,1,,,,,ビー,0
2187,8120001246804,新規,0,2022-06-22,2022-06-22,株式会社ＥＣＯ電子,,株式会社,大阪府,大阪市中央区,本町橋２－２３第７松屋ビル８２１室,,27,128,5400029,,,,,,,2022-06-22,1,,,,,エコデンシ,0
2188,8120001246812,新規,0,2022-06-22,2022-06-22,株式会社ハンドワークス,,株式会社,大阪府,門真市,深田町２０番２号株式会社トライワーク内,,27,223,5710042,,,,,,,2022-06-22,1,,,,,ハンドワークス,0
2189,8120001246820,新規,0,2022-06-22,2022-06-22,株式会社なにわメンテック,,株式会社,大阪府,大阪市大正区,鶴町１丁目１３－１５,,27,108,5510023,,,,,,,2022-06-22,1,,,,,ナニワメンテック,0
2190,8120001246878,新規,0,2022-06-22,2022-06-22,株式会社帝塚山,00126965,株式会社,大阪府,大阪市中央区,南船場２丁目１０番１２号,,27,128,5420081,,,,,,,2022-06-22,1,,,,,テヅカヤマ,0
2194,8120003021949,新規,0,2022-06-22,2022-06-22,合同会社ニシミツ壱,,合同会社,大阪府,大阪市中央区,久太郎町１丁目９番４号,,27,128,5410056,,,,,,,2022-06-22,1,,,,,ニシミツイチ,0
2195,8120003021957,新規,0,2022-06-22,2022-06-22,合同会社ＫＥＮＷＩＳ　ＧＬＯＢＡＬ　ＪＡＰＡＮ,,合同会社,大阪府,大阪市城東区,放出西３丁目１１番１６号,,27,118,5360011,,,,,,,2022-06-22,1,,,,,ケンウィズグローバルジャパン,0
2206,8120901046147,新規,0,2022-06-22,2022-06-22,株式会社ワイズグッド,,株式会社,大阪府,箕面市,彩都粟生南７丁目２－２３,,27,220,5620028,,,,,,,2022-06-22,1,,,,,ワイズグッド,0
2208,8130001072002,新規,0,2022-06-22,2022-06-22,株式会社リアル,,株式会社,京都府,亀岡市,曽我部町南条上河原３０番地１,,26,206,6210022,,,,,,,2022-06-22,1,,,,,リアル,0
2218,8140001126351,新規,0,2022-06-22,2022-06-22,株式会社ＦｌｕｆｆｙＬａｂ,,株式会社,兵庫県,尼崎市,崇徳院２丁目１４６－１,,28,202,6600071,,,,,,,2022-06-22,1,,,,,フラッフィラボ,0
2219,8140001126442,新規,0,2022-06-22,2022-06-22,株式会社ＧＩＮＧＯＮ,,株式会社,兵庫県,姫路市,飾磨区細江８０６番地７,,28,201,6728064,,,,,,,2022-06-22,1,,,,,ジンゴン,0
2220,8140001126459,新規,0,2022-06-22,2022-06-22,三松株式会社,,株式会社,兵庫県,加西市,繁昌町１５６１番地の８,,28,220,6752101,,,,,,,2022-06-22,1,,,,,ミマツ,0
2221,8140001126475,新規,0,2022-06-22,2022-06-22,株式会社フジテック,,株式会社,兵庫県,加古川市,別府町新野辺北町１丁目５０番地の２,,28,210,6750121,,,,,,,2022-06-22,1,,,,,フジテック,0
2224,8140003017805,新規,0,2022-06-22,2022-06-22,合同会社ユー・カリ,,合同会社,兵庫県,三木市,大村６６６番地の１７,,28,215,6730404,,,,,,,2022-06-22,1,,,,,ユーカリ,0
2225,8140003017846,新規,0,2022-06-22,2022-06-22,ＬｉｆｅＧＲＡＮＤＩＲ合同会社,,合同会社,兵庫県,丹波篠山市,沢田甲３９２番地１０,,28,221,6692300,,,,,,,2022-06-22,1,,,,,ライフグランディール,0
2230,8160005011093,新規,0,2022-06-22,2022-06-22,司法書士法人八幡総合事務所,,その他の設立登記法人,滋賀県,近江八幡市,出町４１７番地８,,25,204,5230892,,,,,,,2022-06-22,1,,,,,ハチマンソウゴウジムショ,0
2246,8180301036362,新規,0,2022-06-22,2022-06-22,株式会社ブルーイノベーション,,株式会社,愛知県,岡崎市,鴨田町字山畔２２番地１－１０２,,23,202,4442121,,,,,,,2022-06-22,1,,,,,ブルーイノベーション,0
2249,8190001029517,新規,0,2022-06-22,2022-06-22,株式会社シンエイホールディングス,,株式会社,三重県,四日市市,日永２丁目１番１０号,,24,202,5100885,,,,,,,2022-06-22,1,,,,,シンエイホールディングス,0
2250,8190001029533,新規,0,2022-06-22,2022-06-22,チェガフード囲株式会社,,株式会社,三重県,四日市市,久保田１丁目６番１１号,,24,202,5100821,,,,,,,2022-06-22,1,,,,,チェガフードカコミ,0
2254,8210001018970,新規,0,2022-06-22,2022-06-22,オオタランバーホールディングス株式会社,,株式会社,福井県,吉田郡永平寺町,松岡兼定島第１４号３６番地７,,18,322,9101142,,,,,,,2022-06-22,1,,,,,オオタランバーホールディングス,0
2262,8240001059962,新規,0,2022-06-22,2022-06-22,株式会社豊島工務店,,株式会社,広島県,広島市中区,東白島町２１番２－２０１号,,34,101,7300004,,,,,,,2022-06-22,1,,,,,トヨシマコウムテン,0
2263,8240001059970,新規,0,2022-06-22,2022-06-22,株式会社草壱,,株式会社,広島県,世羅郡世羅町,大字宇津戸２４２９,,34,462,7220411,,,,,,,2022-06-22,1,,,,,クサイチ,0
2274,8290001097999,新規,0,2022-06-22,2022-06-22,株式会社セブンリユース,,株式会社,福岡県,福岡市博多区,博多駅南５丁目１０番１８号,,40,132,8120016,,,,,,,2022-06-22,1,,,,,セブンリユース,0
2275,8290001098007,新規,0,2022-06-22,2022-06-22,株式会社ＭＩＫ工業,,株式会社,福岡県,福岡市西区,大字吉武３５８番地１,,40,135,8190036,,,,,,,2022-06-22,1,,,,,エムアイケーコウギョウ,0
2276,8290001098015,新規,0,2022-06-22,2022-06-22,株式会社アネックス,,株式会社,福岡県,福岡市中央区,西中洲１番２１号,,40,133,8100002,,,,,,,2022-06-22,1,,,,,アネックス,0
2282,8290005018729,新規,0,2022-06-22,2022-06-22,九州物流支援協同組合,,その他の設立登記法人,福岡県,大野城市,仲畑２丁目９番４５号,,40,219,8160921,,,,,,,2022-06-22,1,,,,,,0
2294,8330001029857,新規,0,2022-06-22,2022-06-22,株式会社ハチロクハチ,,株式会社,熊本県,人吉市,紺屋町８５番地１,,43,203,8680003,,,,,,,2022-06-22,1,,,,,ハチロクハチ,0
2295,8330001029865,新規,0,2022-06-22,2022-06-22,株式会社アシスト,,株式会社,熊本県,熊本市東区,東野２丁目４番２号,,43,102,8612106,,,,,,,2022-06-22,1,,,,,アシスト,0
2297,8330003009428,新規,0,2022-06-22,2022-06-22,レディ・ペネロープ合同会社,,合同会社,熊本県,熊本市南区,川尻４丁目１５番４７号,,43,104,8614115,,,,,,,2022-06-22,1,,,,,レディペネロープ,0
2298,8340001024832,新規,0,2022-06-22,2022-06-22,Ｈａｒｕ　Ｓｔｙｌｅ株式会社,,株式会社,鹿児島県,姶良市,加治木町新生町１８７番地１２号棟１０１号Ｂ,,46,225,8995223,,,,,,,2022-06-22,1,,,,,ハルスタイル,0
2310,8380001032914,新規,0,2022-06-22,2022-06-22,ＧＬ．Ｓｔａｔｉｏｎ株式会社,,株式会社,福島県,相馬市,日下石字一北田５６９－２,,07,209,9792522,,,,,,,2022-06-22,1,,,,,ジーエルステーション,0
2312,8380005012598,新規,0,2022-06-22,2022-06-22,協同組合ジョイフルワーク喜多方,,その他の設立登記法人,福島県,喜多方市,字西四ツ谷１８９番地ＩＳＩビル２Ｆ,,07,208,9660086,,,,,,,2022-06-22,1,,,,,ジョイフルワークキタカタ,0
2340,8700150103516,新規,0,2022-06-22,2021-06-03,小友町まちづくり協議会,,その他,岩手県,遠野市,小友町１６地割１０５番地１,,03,208,0280481,,,,,,,2021-06-03,1,,,,,オトモチヨウマチヅクリキヨウギカイ,0
2341,8700150104976,新規,0,2022-06-22,2021-10-04,チームでらハッピィ,,その他,愛知県,名古屋市西区,名西２丁目３８－２９ポレスターセントラルシティ名西９０２,,23,104,4510064,,,,,,,2021-10-04,1,,,,,チームデラハツピイ,0
2342,8700150110289,新規,0,2022-06-22,2022-06-22,ＳＨＡＳＨＩ　ＬＡＮＫＡ　ＥＮＴＥＲＰＲＩＳＥＳ,,外国会社等,神奈川県,大和市,柳橋３丁目２４番地７号第２鶴屋ハイツ２０１,,14,213,2420022,スリランカ民主社会主義共和国カダワタ、パハラカラガムナ１２５Ｍ．,,,,,,2022-06-22,1,,,,,シヤシランカエンタープライセス,0
2343,8700150110314,新規,0,2022-06-22,2022-06-22,ＴＨＥ　ＬＥＶＥＬ　ＧＲＯＵＰ　Ｓ．Ｒ．Ｌ,,外国会社等,,,,,,,,ＭＩＬＬＡＮＯ（ＭＩ）ＰＩＡＺＺＡ　ＡＲＣＯＬＥ４　ＣＡＰ２０１４３　ＩＴＡＬＹ,,,,,,2022-06-22,1,,,,,ザレベルグループエスアールエル,0
2357,9010003037955,新規,0,2022-06-22,2022-06-22,ＴＨＧマスター２合同会社,,合同会社,東京都,千代田区,丸の内１丁目１１番１号パシフィックセンチュリープレイス丸の内１７階,,13,101,1000005,,,,,,,2022-06-22,1,,,,,ティーエイチジーマスターツー,0
2367,9010401168121,新規,0,2022-06-22,2022-06-22,テクノベーション株式会社,,株式会社,東京都,港区,赤坂１丁目１番１７号細川ビル８１１,,13,103,1070052,,,,,,,2022-06-22,1,,,,,テクノベーション,0
2368,9010401168138,新規,0,2022-06-22,2022-06-22,株式会社ｉｎｄｅｐｅｎｄｅｎｃｅ,,株式会社,東京都,港区,白金台３丁目７番１０号,,13,103,1080071,,,,,,,2022-06-22,1,,,,,インディペンデンス,0
2369,9010403027944,新規,0,2022-06-22,2022-06-22,合同会社スピテック,,合同会社,東京都,港区,南青山２丁目２番１５号,,13,103,1070062,,,,,,,2022-06-22,1,,,,,スピテック,0
2370,9010503006625,新規,0,2022-06-22,2022-06-22,合同会社ＰＬＯＷ,,合同会社,東京都,台東区,浅草橋５丁目１０番１０号プルミエール秋葉原３０１,,13,106,1110053,,,,,,,2022-06-22,1,,,,,プロー,0
2383,9011003014878,新規,0,2022-06-22,2022-06-22,４Ｓｔｅｌｌａ合同会社,,合同会社,東京都,渋谷区,広尾１丁目１０番８号,,13,113,1500012,,,,,,,2022-06-22,1,,,,,フォーステラ,0
2384,9011003014894,新規,0,2022-06-22,2022-06-22,合同会社１９６５Ｙ＆Ｇ,,合同会社,東京都,渋谷区,代々木２丁目３０番４号,,13,113,1510053,,,,,,,2022-06-22,1,,,,,ナインティーンシックスティファイブワイアンドジー,0
2392,9011101099292,新規,0,2022-06-22,2022-06-22,株式会社ｒｉｓｅ　ｕｐ,,株式会社,東京都,新宿区,西新宿３丁目１番３号７階,,13,104,1600023,,,,,,,2022-06-22,1,,,,,ライズアップ,0
2393,9011103011882,新規,0,2022-06-22,2022-06-22,合同会社梟不動産,,合同会社,東京都,新宿区,富久町１５番１－２４２２号,,13,104,1620067,,,,,,,2022-06-22,1,,,,,フクロウフドウサン,0
2402,9011803005143,新規,0,2022-06-22,2022-06-22,合同会社みのり,,合同会社,東京都,足立区,扇１丁目１５番７－９０８号,,13,121,1230873,,,,,,,2022-06-22,1,,,,,ミノリ,0
2404,9012301013027,新規,0,2022-06-22,2022-06-22,株式会社Ｈ‐ＧＡＴＥ,,株式会社,東京都,町田市,中町２丁目４－９コーポふじ２０１号室,,13,209,1940021,,,,,,,2022-06-22,1,,,,,エイチゲイト,0
2406,9012401039319,新規,0,2022-06-22,2022-06-22,株式会社Ａｍｏｄｏｍｉｏ,,株式会社,東京都,調布市,染地２丁目３１番地２－１１１号,,13,208,1820023,,,,,,,2022-06-22,1,,,,,アモードミオ,0
2416,9020001147020,新規,0,2022-06-22,2022-06-22,株式会社Ｓｕｇｅ　Ｗａｖｅ　Ｇａｒｄｅｎ,,株式会社,神奈川県,川崎市多摩区,菅４丁目１４番２０号,,14,135,2140001,,,,,,,2022-06-22,1,,,,,スゲウェーブガーデン,0
2417,9020001147037,新規,0,2022-06-22,2022-06-22,株式会社フロンツリー,,株式会社,神奈川県,川崎市宮前区,西野川１丁目１２番２３号,,14,136,2160044,,,,,,,2022-06-22,1,,,,,フロンツリー,0
2426,9021001076317,新規,0,2022-06-22,2022-06-22,株式会社ランブリッジチームス,,株式会社,神奈川県,鎌倉市,材木座２丁目１,,14,204,2480013,,,,,,,2022-06-22,1,,,,,ランブリッジチームス,0
2427,9021001076333,新規,0,2022-06-22,2022-06-22,大日工業株式会社,,株式会社,神奈川県,横須賀市,根岸町４丁目２３番１８号サンコーポ根岸１０２,,14,201,2390807,,,,,,,2022-06-22,1,,,,,ダイニチコウギョウ,0
2436,9030003019646,新規,0,2022-06-22,2022-06-22,合同会社アドバンス,,合同会社,埼玉県,さいたま市岩槻区,府内２丁目１８番１号,,11,110,3390042,,,,,,,2022-06-22,1,,,,,アドバンス,0
2445,9050001051236,新規,0,2022-06-22,2022-06-22,株式会社Ｏｐｔｉｏｎａｌ,,株式会社,茨城県,つくば市,二の宮２丁目２番地１７,,08,220,3050051,,,,,,,2022-06-22,1,,,,,オプショナル,0
2446,9050001051269,新規,0,2022-06-22,2022-06-22,株式会社ＬＵＧ,,株式会社,茨城県,土浦市,生田町７番５号,,08,203,3000047,,,,,,,2022-06-22,1,,,,,エルユージー,0
2447,9050001051277,新規,0,2022-06-22,2022-06-22,株式会社ＮＩＣＥ２２,,株式会社,茨城県,水戸市,姫子１丁目４１番地の２,,08,201,3114151,,,,,,,2022-06-22,1,,,,,ナイスニジュウニ,0
2453,9070001039361,新規,0,2022-06-22,2022-06-22,Ｍｉｍｏｓａ株式会社,,株式会社,群馬県,太田市,飯塚町８８６番地１２,,10,205,3730817,,,,,,,2022-06-22,1,,,,,ミモザ,0
2455,9080103002613,新規,0,2022-06-22,2022-06-22,合同会社キナリ舎,,合同会社,静岡県,沼津市,新町４番地,,22,203,4100895,,,,,,,2022-06-22,1,,,,,キナリシャ,0
2460,9080405007467,新規,0,2022-06-22,2022-06-22,一般社団法人マルヒロ,,その他の設立登記法人,静岡県,袋井市,浅羽３３６３番地,,22,216,4371101,,,,,,,2022-06-22,1,,,,,マルヒロ,0
2462,9100001035456,新規,0,2022-06-22,2022-06-22,株式会社ＧＡＴＥ,,株式会社,長野県,茅野市,ちの２７３０番地２,,20,214,3910001,,,,,,,2022-06-22,1,,,,,ゲート,0
2463,9100001035464,新規,0,2022-06-22,2022-06-22,ツイてる車検７株式会社,,株式会社,長野県,須坂市,墨坂南３丁目９番４号,,20,207,3820098,,,,,,,2022-06-22,1,,,,,ツイテルシャケンセブン,0
2469,9100003006587,新規,0,2022-06-22,2022-06-22,合同会社ウェッジ倶楽部,,合同会社,長野県,北佐久郡軽井沢町,大字長倉７５４番地４,,20,321,3890111,,,,,,,2022-06-22,1,,,,,ウェッジクラブ,0
2473,9100005012889,新規,0,2022-06-22,2022-06-22,セイムケアジャパン協同組合,,その他の設立登記法人,長野県,小諸市,大字市７９０番地１５,,20,208,3840083,,,,,,,2022-06-22,1,,,,,セイムケアジャパン,0
2474,9110001036759,新規,0,2022-06-22,2022-06-22,株式会社ビーロード,,株式会社,新潟県,胎内市,西栄町７番３０号,,15,227,9592646,,,,,,,2022-06-22,1,,,,,ビーロード,0
2489,9120001246761,新規,0,2022-06-22,2022-06-22,株式会社フィールド,,株式会社,大阪府,大阪市中央区,島之内１丁目１２番３号,,27,128,5420082,,,,,,,2022-06-22,1,,,,,フィールド,0
2490,9120001246778,新規,0,2022-06-22,2022-06-22,株式会社木谷工業,,株式会社,大阪府,大阪市港区,池島３丁目５番２－６０７号,,27,107,5520015,,,,,,,2022-06-22,1,,,,,キタニコウギョウ,0
2491,9120001246794,新規,0,2022-06-22,2022-06-22,株式会社ＪＤＨ,,株式会社,大阪府,大阪市天王寺区,上汐３丁目４番８号柯風居１０１号,,27,109,5430002,,,,,,,2022-06-22,1,,,,,ジェイディエイチ,0
2492,9120001246836,新規,0,2022-06-22,2022-06-22,ココ株式会社,,株式会社,大阪府,大阪市中央区,松屋町９番２０号ローレルステート松屋町３０４Ｂ,,27,128,5420067,,,,,,,2022-06-22,1,,,,,ココ,0
2493,9120001246852,新規,0,2022-06-22,2022-06-22,株式会社ＳＳ,,株式会社,大阪府,大阪市中央区,本町４丁目２番１２号野村不動産御堂筋本町ビル５階,,27,128,5410053,,,,,,,2022-06-22,1,,,,,エスエス,0
2494,9120001246877,新規,0,2022-06-22,2022-06-22,株式会社ＫＰプラス,,株式会社,大阪府,大阪市港区,市岡元町１丁目１番２４号,,27,107,5520002,,,,,,,2022-06-22,1,,,,,ケイピープラス,0
2495,9120003021948,新規,0,2022-06-22,2022-06-22,合同会社エーワングローバル,,合同会社,大阪府,大阪市中央区,久太郎町１丁目９番４号,,27,128,5410056,,,,,,,2022-06-22,1,,,,,エーワングローバル,0
2496,9120003021956,新規,0,2022-06-22,2022-06-22,カムナ合同会社,,合同会社,大阪府,大阪市西成区,岸里１丁目２番１６号,,27,122,5570041,,,,,,,2022-06-22,1,,,,,カムナ,0
2497,9120003021964,新規,0,2022-06-22,2022-06-22,合同会社ポンピエ,,合同会社,大阪府,大阪市北区,芝田２丁目８－１１共栄ビル３Ｆ,,27,127,5300012,,,,,,,2022-06-22,1,,,,,ポンピエ,0
2502,9120103004745,新規,0,2022-06-22,2022-06-22,合同会社ＳＰＡＣＥ,,合同会社,大阪府,泉佐野市,上町３丁目６番３５号ＩＴビル２階,,27,213,5980007,,,,,,,2022-06-22,1,,,,,スペース,0
2503,9120903004201,新規,0,2022-06-22,2022-06-22,合同会社ことぶき,,合同会社,大阪府,豊中市,大島町２丁目１７番１号,,27,203,5610824,,,,,,,2022-06-22,1,,,,,コトブキ,0
2508,9130001071993,新規,0,2022-06-22,2022-06-22,栄和株式会社,,株式会社,京都府,木津川市,兜台５丁目１番地１３木津かぶと台団地８－２０２号,,26,214,6190224,,,,,,,2022-06-22,1,,,,,エイワ,0
2509,9130001072001,新規,0,2022-06-22,2022-06-22,株式会社ＩＤＥＮＯ建設,,株式会社,京都府,亀岡市,篠町篠上中沢１番地１７,,26,206,6210826,,,,,,,2022-06-22,1,,,,,イデノケンセツ,0
2510,9130001072018,新規,0,2022-06-22,2022-06-22,株式会社ＩＴコーポレーション,,株式会社,京都府,京都市伏見区,久我西出町１２番地３０１,,26,109,6128496,,,,,,,2022-06-22,1,,,,,アイティーコーポレーション,0
2512,9140001126425,新規,0,2022-06-22,2022-06-22,バンク・オブ・ドリーム株式会社,,株式会社,兵庫県,神戸市中央区,北長狭通１丁目２０－３かどやビル４Ｆ,,28,110,6500012,,,,,,,2022-06-22,1,,,,,バンクオブドリーム,0
2513,9140001126441,新規,0,2022-06-22,2022-06-22,ＭＩＮＡＭＩ株式会社,,株式会社,兵庫県,明石市,魚住町住吉４丁目５番１６号,,28,203,6740083,,,,,,,2022-06-22,1,,,,,ミナミ,0
2514,9140001126466,新規,0,2022-06-22,2022-06-22,株式会社ケイズブレイン,,株式会社,兵庫県,神戸市須磨区,高尾台１丁目５番１７号,,28,107,6540061,,,,,,,2022-06-22,1,,,,,ケイズブレイン,0
2522,9140003017804,新規,0,2022-06-22,2022-06-22,ｂｙｂｔ合同会社,,合同会社,兵庫県,神戸市中央区,山本通２丁目１－１ＣＯＲＮＥＲＨＯＵＳＥ３Ｆ,,28,110,6500003,,,,,,,2022-06-22,1,,,,,ビーワイビーティー,0
2523,9140003017812,新規,0,2022-06-22,2022-06-22,泉合同会社,,合同会社,兵庫県,川西市,久代１丁目１０番３６号,,28,217,6660024,,,,,,,2022-06-22,1,,,,,イズミ,0
2524,9140003017820,新規,0,2022-06-22,2022-06-22,合同会社Ｈ‐ＶＩＳＩＯＮ,,合同会社,兵庫県,伊丹市,山田２丁目３番５８号,,28,207,6640874,,,,,,,2022-06-22,1,,,,,エイチビジョン,0
2525,9150003002714,新規,0,2022-06-22,2022-06-22,合同会社Ｌｉｂｅｒｔｙ,,合同会社,奈良県,橿原市,中曽司町１０７番地の６２,,29,205,6340845,,,,,,,2022-06-22,1,,,,,リバティー,0
2527,9160001024305,新規,0,2022-06-22,2022-06-22,亜泰運送株式会社,,株式会社,滋賀県,長浜市,新庄中町４６４番地１０,,25,203,5260012,,,,,,,2022-06-22,1,,,,,アタイウンソウ,0
2540,9180001151840,新規,0,2022-06-22,2022-06-22,株式会社Ｂ．Ａ　ＢＡＳＥ,,株式会社,愛知県,瀬戸市,落合町１０１番地の１メゾン落合Ｂ－１０２,,23,204,4801205,,,,,,,2022-06-22,1,,,,,ビーエーベース,0
2548,9180005019811,新規,0,2022-06-22,2022-06-22,一般社団法人発達障がい児認定支援員協会,,その他の設立登記法人,愛知県,名古屋市千種区,萱場２丁目２番２号,,23,101,4640086,,,,,,,2022-06-22,1,,,,,ハッタツショウガジニンテイシエンインキョウカイ,0
2551,9190001029532,新規,0,2022-06-22,2022-06-22,ＭＩＡＮ　ＡＵＴＯ株式会社,,株式会社,三重県,桑名郡木曽岬町,大字三崎４７５番地,,24,303,4980814,,,,,,,2022-06-22,1,,,,,ミアンオート,0
2556,9200001040207,新規,0,2022-06-22,2022-06-22,栄真ファーム株式会社,,株式会社,岐阜県,羽島市,足近町５丁目３６０番地,,21,209,5016207,,,,,,,2022-06-22,1,,,,,エイシンファーム,0
2568,9260001036975,新規,0,2022-06-22,2022-06-22,株式会社オーケー商会,,株式会社,岡山県,岡山市南区,浜野２丁目５番２９－２号,,33,104,7000845,,,,,,,2022-06-22,1,,,,,オーケーショウカイ,0
2577,9290001097998,新規,0,2022-06-22,2022-06-22,株式会社つなぐ,,株式会社,福岡県,福岡市博多区,住吉４丁目１１番１５－２０２号,,40,132,8120018,,,,,,,2022-06-22,1,,,,,ツナグ,0
2578,9290001098014,新規,0,2022-06-22,2022-06-22,株式会社Ｄデザイン,,株式会社,福岡県,福岡市早良区,原８丁目１５番５－３０５号,,40,137,8140022,,,,,,,2022-06-22,1,,,,,ディーデザイン,0
2579,9290001098022,新規,0,2022-06-22,2022-06-22,株式会社ＳＴＥＲＡ,,株式会社,福岡県,福岡市博多区,中洲３丁目６番２３号,,40,132,8100801,,,,,,,2022-06-22,1,,,,,ステラ,0
2587,9360001030588,新規,0,2022-06-22,2022-06-22,株式会社Ｔ‐Ｔ　ＬＡＢ,,株式会社,沖縄県,那覇市,前島３丁目２５－２泊ポートビル２Ｆ　２－Ｆ号室,,47,201,9000016,,,,,,,2022-06-22,1,,,,,ティーティーラボ,0
2588,9360001030613,新規,0,2022-06-22,2022-06-22,株式会社富士ホールディングス,,株式会社,沖縄県,那覇市,田原３丁目８番３号,,47,201,9010156,,,,,,,2022-06-22,1,,,,,フジホールディングス,0
2591,9370001048712,新規,0,2022-06-22,2022-06-22,株式会社エアシステム,,株式会社,宮城県,石巻市,門脇字二番谷地１３番地６３３,,04,202,9860853,,,,,,,2022-06-22,1,,,,,エアシステム,0
2599,9420003002538,新規,0,2022-06-22,2022-06-22,合同会社Ｎ．Ｓ,,合同会社,青森県,八戸市,大字鮫町字鮫５２,,02,203,0310841,,,,,,,2022-06-22,1,,,,,エヌエス,0
2604,9430001086929,新規,0,2022-06-22,2022-06-22,株式会社ＬａｚｏＥｎ,,株式会社,北海道,札幌市北区,太平八条５丁目４番５号,,01,102,0028008,,,,,,,2022-06-22,1,,,,,ラソエン,0
2614,9700150109388,新規,0,2022-06-22,2022-06-10,フラワーミュージック,,その他,東京都,青梅市,畑中３丁目９５１－１１,,13,205,1980061,,,,,,,2022-06-10,1,,,,,フラワーミユージツク,0
2615,9700150109405,新規,0,2022-06-22,2022-06-10,ＪＡＭＡＩＣＡ　ＦＥＳＴＩＶＡＬ　レゲエ＆キュイジーヌ,,その他,愛知県,名古屋市天白区,平針３丁目３０１プラウド平針１００３,,23,116,4680011,,,,,,,2022-06-10,1,,,,,ジヤマイカフエステイバルレゲエアンドキユイジーヌ,0
