sequenceNumber,corporateNumber,process,correct,updateDate,changeDate,name,nameImageId,kind,prefectureName,cityName,streetNumber,addressImageId,prefectureCode,cityCode,postCode,addressOutside,addressOutsideImageId,closeDate,closeCause,successorCorporateNumber,changeCause,assignmentDate,latest,enName,enPrefectureName,enCityName,enAddressOutside,furigana,hihyoji
12,1010001252539,新規,0,2025-02-21,2025-02-21,株式会社佑天,,株式会社,東京都,文京区,千駄木２丁目３４番５－６０１号,,13,105,1130022,,,,,,,2025-02-21,1,,,,,ユウテン,0
13,1010001252555,新規,0,2025-02-21,2025-02-21,株式会社ＣＨＣＰマネジメント,,株式会社,東京都,千代田区,丸の内１丁目８番１号,,13,101,1000005,,,,,,,2025-02-21,1,,,,,シーエイチシーピーマネジメント,0
15,1010003046534,新規,0,2025-02-21,2025-02-21,合同会社ＰＣ１,,合同会社,東京都,中央区,銀座２丁目１０番８号マニエラ銀座ビル４階,,13,102,1040061,,,,,,,2025-02-21,1,,,,,ピーシーワン,0
20,1010005039619,新規,0,2025-02-21,2025-02-21,ＡＡＪ　Ｊ一般社団法人,,その他の設立登記法人,東京都,千代田区,霞が関３丁目２番５号,,13,101,1000013,,,,,,,2025-02-21,1,,,,,,0
32,1010401188374,新規,0,2025-02-21,2025-02-21,株式会社ＤＡＴＡ　ＵＰ,,株式会社,東京都,港区,南麻布３丁目２０番１号,,13,103,1060047,,,,,,,2025-02-21,1,,,,,データアップ,0
33,1010401188399,新規,0,2025-02-21,2025-02-21,株式会社キャピタルリンク,,株式会社,東京都,港区,芝４丁目１６番２号,,13,103,1080014,,,,,,,2025-02-21,1,,,,,キャピタルリンク,0
34,1010401188465,新規,0,2025-02-21,2025-02-21,株式会社カラフル,,株式会社,東京都,港区,南青山３丁目１番３６号青山丸竹ビル６Ｆ,,13,103,1070062,,,,,,,2025-02-21,1,,,,,カラフル,0
35,1010403034460,新規,0,2025-02-21,2025-02-21,ウメ１１合同会社,,合同会社,東京都,港区,西新橋１丁目２番９号メンターキャピタル税理士法人内,,13,103,1050003,,,,,,,2025-02-21,1,,,,,ウメイレブン,0
39,1010701047271,新規,0,2025-02-21,2025-02-21,ライラ株式会社,,株式会社,東京都,品川区,戸越１丁目１２番２０号,,13,109,1420041,,,,,,,2025-02-21,1,,,,,ライラ,0
41,1010903009722,新規,0,2025-02-21,2025-02-21,エスペランザ・アデランテ合同会社,,合同会社,東京都,世田谷区,三軒茶屋１丁目６番４号,,13,112,1540024,,,,,,,2025-02-21,1,,,,,エスペランザアデランテ,0
50,1011001167850,新規,0,2025-02-21,2025-02-21,ａｎｄ　Ｏｎｅ　Ｌｉｎｋ株式会社,,株式会社,東京都,渋谷区,神宮前６丁目２３番４号,,13,113,1500001,,,,,,,2025-02-21,1,,,,,アンドワンリンク,0
51,1011001167875,新規,0,2025-02-21,2025-02-21,株式会社ジョイナスパワーソリューションズ,,株式会社,東京都,渋谷区,恵比寿１丁目１８－５,,13,113,1500013,,,,,,,2025-02-21,1,,,,,ジョイナスパワーソリューションズ,0
52,1011001167900,新規,0,2025-02-21,2025-02-21,株式会社ＡＫＩアカデミー,,株式会社,東京都,渋谷区,道玄坂１丁目１０番８号渋谷道玄坂東急ビル２Ｆ－Ｃ,,13,113,1500043,,,,,,,2025-02-21,1,,,,,アキアカデミー,0
53,1011001167909,新規,0,2025-02-21,2025-02-21,バタフラックス株式会社,,株式会社,東京都,渋谷区,神南１丁目１１番４号ＦＰＧリンクス神南５階,,13,113,1500041,,,,,,,2025-02-21,1,,,,,バタフラックス,0
54,1011001167917,新規,0,2025-02-21,2025-02-21,株式会社ｖｉｖａｖｉｓｔａ,,株式会社,東京都,渋谷区,渋谷２丁目１９番１５号宮益坂ビルディング６階,,13,113,1500002,,,,,,,2025-02-21,1,,,,,ビバビスタ,0
56,1011003021015,新規,0,2025-02-21,2025-02-21,合同会社Ｒｅｉ,,合同会社,東京都,渋谷区,神宮前６丁目１９番１４号神宮前ハッピービル９階,,13,113,1500001,,,,,,,2025-02-21,1,,,,,レイ,0
57,1011003021048,新規,0,2025-02-21,2025-02-21,合同会社Ｍｏｎｓｔｅｒａ．Ｔｏｋｙｏ,,合同会社,東京都,渋谷区,渋谷２丁目１９番１５号宮益坂ビルディング６０９,,13,113,1500002,,,,,,,2025-02-21,1,,,,,モンステラトウキョウ,0
65,1011105011343,新規,0,2025-02-21,2025-02-21,一般社団法人メディカル・リサーチ・インターナショナル,,その他の設立登記法人,東京都,新宿区,西新宿６丁目２５番８号,,13,104,1600023,,,,,,,2025-02-21,1,,,,,メディカルリサーチインターナショナル,0
66,1011201026146,新規,0,2025-02-21,2025-02-21,株式会社めたゆに,,株式会社,東京都,中野区,中野５丁目６８番２号,,13,114,1640001,,,,,,,2025-02-21,1,,,,,メタユニ,0
71,1011503006432,新規,0,2025-02-21,2025-02-21,合同会社ヘルタ,,合同会社,東京都,荒川区,東日暮里４丁目３５番１６－３　０５号,,13,118,1160014,,,,,,,2025-02-21,1,,,,,ヘルタ,0
85,1013301053813,新規,0,2025-02-21,2025-02-21,株式会社ニューホームズ,,株式会社,東京都,豊島区,南池袋２丁目４７－７サンハイツ池袋５０３室,,13,116,1710022,,,,,,,2025-02-21,1,,,,,ニューホームズ,0
87,1013303007552,新規,0,2025-02-21,2025-02-21,合同会社スラウス,,合同会社,東京都,豊島区,東池袋１丁目３４番５号いちご東池袋ビル６階,,13,116,1700013,,,,,,,2025-02-21,1,,,,,スラウス,0
93,1020003027905,新規,0,2025-02-21,2025-02-21,よこはまコンサルティング合同会社,,合同会社,神奈川県,横浜市神奈川区,立町２３番地１１０,,14,102,2210063,,,,,,,2025-02-21,1,,,,,ヨコハマコンサルティング,0
94,1021001084517,新規,0,2025-02-21,2025-02-21,株式会社浅野工業,,株式会社,神奈川県,相模原市南区,上鶴間本町４丁目４９番１８号エスペラン相模大野２０４,,14,153,2520318,,,,,,,2025-02-21,1,,,,,アサノ,0
95,1021003015627,新規,0,2025-02-21,2025-02-21,合同会社ぷーりー,,合同会社,神奈川県,藤沢市,辻堂太平台２丁目１－１,,14,205,2510044,,,,,,,2025-02-21,1,,,,,プーリー,0
107,1030001164831,新規,0,2025-02-21,2025-02-21,株式会社ＧＬＯＢＡＬ　ＥＹＥ,,株式会社,埼玉県,蕨市,南町４丁目３９番２号コスモプレイス蕨３１０,,11,223,3350003,,,,,,,2025-02-21,1,,,,,グローバルアイ,0
108,1030001164930,新規,0,2025-02-21,2025-02-21,南沐野株式会社,,株式会社,埼玉県,越谷市,東越谷１丁目１番１－２０３号,,11,222,3430023,,,,,,,2025-02-21,1,,,,,ミナミモクヤ,0
111,1030003026146,新規,0,2025-02-21,2025-02-21,合同会社ｓｅｃｒｅｔ,,合同会社,埼玉県,川口市,並木３丁目１３番１９号セゾンビル壱番館１０２,,11,203,3320034,,,,,,,2025-02-21,1,,,,,シークレット,0
112,1030003026179,新規,0,2025-02-21,2025-02-21,合同会社マウンテン,,合同会社,埼玉県,さいたま市中央区,上落合７丁目７番４０－２０２号,,11,105,3380001,,,,,,,2025-02-21,1,,,,,マウンテン,0
113,1030003026187,新規,0,2025-02-21,2025-02-21,合同会社ＴｉＥｖ,,合同会社,埼玉県,さいたま市南区,別所７丁目１５番８－４０２号,,11,108,3360021,,,,,,,2025-02-21,1,,,,,ティーヴ,0
117,1040001137480,新規,0,2025-02-21,2025-02-21,株式会社ココロワークス,,株式会社,千葉県,君津市,中富２８４番地１,,12,225,2991132,,,,,,,2025-02-21,1,,,,,ココロワークス,0
118,1040001137506,新規,0,2025-02-21,2025-02-21,株式会社榎本,,株式会社,千葉県,千葉市緑区,誉田町２丁目２番地１８８３,,12,105,2660005,,,,,,,2025-02-21,1,,,,,エノモト,0
119,1040001137522,新規,0,2025-02-21,2025-02-21,株式会社ＳＵＮＮＹ,,株式会社,千葉県,市川市,妙典４丁目１０番４１－２０３号,,12,203,2720111,,,,,,,2025-02-21,1,,,,,サニー,0
120,1040001137530,新規,0,2025-02-21,2025-02-21,株式会社あんしん生活社,,株式会社,千葉県,松戸市,下矢切８２番地の１４,,12,207,2710096,,,,,,,2025-02-21,1,,,,,アンシンセイカツシャ,0
124,1050001055946,新規,0,2025-02-21,2025-02-21,博銘株式会社,,株式会社,茨城県,坂東市,生子２７９５番地４－２０１号室,,08,228,3060504,,,,,,,2025-02-21,1,,,,,ハクメイ,0
125,1050001056201,新規,0,2025-02-21,2025-02-21,株式会社ＳＭＡＳＨ,,株式会社,茨城県,土浦市,大和町３番１号北島ビル,,08,203,3000036,,,,,,,2025-02-21,1,,,,,スマッシュ,0
131,1060003005436,新規,0,2025-02-21,2025-02-21,合同会社ロットエステート,,合同会社,栃木県,栃木市,片柳町２丁目１－４６栃木商工会議所会館３階創業準備室３０１会議室,,09,203,3280053,,,,,,,2025-02-21,1,,,,,ロットエステート,0
141,1090003002752,新規,0,2025-02-21,2025-02-21,ｌｅａｐ　ｆｏｒｗａｒｄ合同会社,,合同会社,山梨県,中巨摩郡昭和町,河西１１５番地７３,,19,384,4093851,,,,,,,2025-02-21,1,,,,,リープフォワード,0
156,1120001273103,新規,0,2025-02-21,2025-02-21,株式会社リンクス,,株式会社,大阪府,大阪市中央区,南本町３丁目３番２５号,,27,128,5410054,,,,,,,2025-02-21,1,,,,,リンクス,0
157,1120001273111,新規,0,2025-02-21,2025-02-21,山水之遥株式会社,,株式会社,大阪府,大阪市西成区,聖天下１丁目４番２９号－１０１,,27,122,5570012,,,,,,,2025-02-21,1,,,,,サンスイノハルカ,0
158,1120001273128,新規,0,2025-02-21,2025-02-21,株式会社ノブナガダイバーシティ,,株式会社,大阪府,大阪市中央区,南船場４丁目１０番５号南船場ＳＯＨＯビル７０２,,27,128,5420081,,,,,,,2025-02-21,1,,,,,ノブナガダイバーシティ,0
165,1120003028694,新規,0,2025-02-21,2025-02-21,合同会社ＩＣ　ｇｒｏｕｐ,,合同会社,大阪府,大阪市西区,南堀江１丁目１６番１６－９０２号,,27,106,5500015,,,,,,,2025-02-21,1,,,,,アイシーグループ,0
166,1120003028703,新規,0,2025-02-21,2025-02-21,合同会社学び場,,合同会社,大阪府,大阪市中央区,谷町６丁目６－１３大宝ルグラン２０１号,,27,128,5420012,,,,,,,2025-02-21,1,,,,,マナビバ,0
167,1120003028711,新規,0,2025-02-21,2025-02-21,合同会社もちもつ,,合同会社,大阪府,大阪市北区,梅田１丁目１‐３大阪駅前第３ビル２９階１‐１‐１号室,,27,127,5300001,,,,,,,2025-02-21,1,,,,,モチモツ,0
170,1120901050477,新規,0,2025-02-21,2025-02-21,Ｔｅｃｈ‐Ｌｏｇｉｃ‐Ｓｏｌｕｔｉｏｎｓ株式会社,,株式会社,大阪府,茨木市,宮元町７番２２号,,27,211,5670810,,,,,,,2025-02-21,1,,,,,テックロジックソリューションズ,0
171,1120901050485,新規,0,2025-02-21,2025-02-21,株式会社コーワパートナーズ,,株式会社,大阪府,高槻市,宮田町２丁目３２－１８,,27,207,5691142,,,,,,,2025-02-21,1,,,,,コーワパートナーズ,0
176,1122003003124,新規,0,2025-02-21,2025-02-21,合同会社惠,,合同会社,大阪府,四條畷市,大字中野４０６番地の１－３０４,,27,229,5750053,,,,,,,2025-02-21,1,,,,,メグミ,0
178,1130001079012,新規,0,2025-02-21,2025-02-21,ＭＩＮＡＴＯ　Ｈｏｌｄｉｎｇ株式会社,,株式会社,京都府,京都市南区,上鳥羽南苗代町２４番地,,26,107,6018113,,,,,,,2025-02-21,1,,,,,ミナトホールディング,0
196,1180001165476,新規,0,2025-02-21,2025-02-21,株式会社ＡＮＤ　ＳＨＡＲＥ,,株式会社,愛知県,名古屋市千種区,清明山１丁目２番２１号ー２,,23,101,4640087,,,,,,,2025-02-21,1,,,,,アンドシェア,0
197,1180001165591,新規,0,2025-02-21,2025-02-21,株式会社ＯＳ．,,株式会社,愛知県,名古屋市中区,栄５丁目１４番３号,,23,106,4600008,,,,,,,2025-02-21,1,,,,,オーエスドット,0
203,1190003004945,新規,0,2025-02-21,2025-02-21,合同会社ニコニコエンジニアリング,,合同会社,三重県,四日市市,三滝台３丁目１０番地１０,,24,202,5120933,,,,,,,2025-02-21,1,,,,,ニコニコエンジニアリング,0
208,1240001064556,新規,0,2025-02-21,2025-02-21,株式会社Ｌｅｖｅｌｓ,,株式会社,広島県,広島市中区,大手町１丁目１－２０相生橋ビル７階Ａ号室,,34,101,7300051,,,,,,,2025-02-21,1,,,,,レベルズ,0
212,1250001021011,新規,0,2025-02-21,2025-02-21,ＳＴエンジ株式会社,,株式会社,山口県,下関市,大字有冨１８２番１号白銀荘１０２,,35,201,7510868,,,,,,,2025-02-21,1,,,,,エスティエンジ,0
218,1280001009359,新規,0,2025-02-21,2025-02-21,株式会社佐佐木電工,,株式会社,島根県,仁多郡奥出雲町,大馬木６８４,,32,343,6991941,,,,,,,2025-02-21,1,,,,,ササキデンコウ,0
224,1290001109059,新規,0,2025-02-21,2025-02-21,株式会社Ｃｌｅ・Ｍａｌｅｎ,,株式会社,福岡県,糸島市,志摩師吉７２５番地４０,,40,230,8191314,,,,,,,2025-02-21,1,,,,,クルマーレン,0
232,1320001020955,新規,0,2025-02-21,2025-02-21,株式会社ｎｅｗｔｏｎ,,株式会社,大分県,大分市,高松東２丁目３番１５号,,44,201,8700916,,,,,,,2025-02-21,1,,,,,ニュートン,0
233,1320003004584,新規,0,2025-02-21,2025-02-21,ＶＡＲＩＯＵＳ合同会社,,合同会社,大分県,豊後高田市,新町８７８番地２,,44,209,8790628,,,,,,,2025-02-21,1,,,,,バリアス,0
234,1330001032891,新規,0,2025-02-21,2025-02-21,株式会社モリモト建装,,株式会社,熊本県,八代郡氷川町,鹿野１３１,,43,468,8694811,,,,,,,2025-02-21,1,,,,,モリモトケンソウ,0
235,1330001032900,新規,0,2025-02-21,2025-02-21,株式会社千種会,,株式会社,熊本県,玉名市,岱明町上１７４番地１,,43,206,8690232,,,,,,,2025-02-21,1,,,,,センシュカイ,0
238,1340003004756,新規,0,2025-02-21,2025-02-21,合同会社ＡＵＲＯＲＡ,,合同会社,鹿児島県,鹿児島市,希望ヶ丘町２３番５号,,46,201,8910107,,,,,,,2025-02-21,1,,,,,アウローラ,0
240,1360001034811,新規,0,2025-02-21,2025-02-21,株式会社ＳＳＭｅ,,株式会社,沖縄県,那覇市,松尾１丁目１０番２４号ホークシティ那覇ビル１階,,47,201,9000014,,,,,,,2025-02-21,1,,,,,エスエスエムイー,0
242,1370001052291,新規,0,2025-02-21,2025-02-21,株式会社ｎｏｖａｎｔａ,,株式会社,宮城県,仙台市太白区,秋保町湯元字釜土１番地,,04,104,9820241,,,,,,,2025-02-21,1,,,,,ノバンタ,0
243,1370005010915,新規,0,2025-02-21,2025-02-21,ネプトジャパン協同組合,,その他の設立登記法人,宮城県,仙台市青葉区,熊ケ根字檀の原一番３６番地の１,,04,101,9893432,,,,,,,2025-02-21,1,,,,,,0
247,1380001035114,新規,0,2025-02-21,2025-02-21,株式会社キタブトレーディング,,株式会社,福島県,伊達郡川俣町,山木屋字古後山１番地の２,,07,308,9601501,,,,,,,2025-02-21,1,,,,,キタブトレーディング,0
250,1420001019021,新規,0,2025-02-21,2025-02-21,あすなろホールディングス株式会社,,株式会社,青森県,青森市,卸町２番２２号,,02,201,0300137,,,,,,,2025-02-21,1,,,,,アスナロホールディングス,0
251,1420005007939,新規,0,2025-02-21,2025-02-21,特定非営利活動法人ともしびプラス,,その他の設立登記法人,青森県,八戸市,石堂３丁目１１番２０号,,02,203,0391165,,,,,,,2025-02-21,1,,,,,トモシビプラス,0
256,1460105002308,新規,0,2025-02-21,2025-02-21,一般社団法人ＳａｃｋＯｍｉ,,その他の設立登記法人,北海道,十勝郡浦幌町,字宝町５３番地２６,,01,649,0895601,,,,,,,2025-02-21,1,,,,,サコミ,0
261,2010001252546,新規,0,2025-02-21,2025-02-21,株式会社おまかせテクノロジーズ,,株式会社,東京都,文京区,本郷１丁目１４番６号第２三沢ビル３Ｆ,,13,105,1130033,,,,,,,2025-02-21,1,,,,,オマカセテクノロジーズ,0
262,2010001252554,新規,0,2025-02-21,2025-02-21,Ｆｌａｇｓｈｉｐ　Ｔｅｃｈ株式会社,,株式会社,東京都,中央区,晴海５丁目４番４－４０８,,13,102,1040053,,,,,,,2025-02-21,1,,,,,フラグシップテック,0
263,2010001252562,新規,0,2025-02-21,2025-02-21,株式会社ＨＡＳ　Ａ　ＨＥＡＲＴ,,株式会社,東京都,千代田区,丸の内２丁目５－１丸の内二丁目ビル７階,,13,101,1000005,,,,,,,2025-02-21,1,,,,,ハズアハート,0
267,2010003046509,新規,0,2025-02-21,2025-02-21,ＣＴ合同会社,,合同会社,東京都,中央区,銀座８丁目１０番６号,,13,102,1040061,,,,,,,2025-02-21,1,,,,,シーティー,0
268,2010003046517,新規,0,2025-02-21,2025-02-21,合同会社第一トラスト太陽光発電,,合同会社,東京都,中央区,日本橋１丁目４番１号日本橋一丁目ビルディング,,13,102,1030027,,,,,,,2025-02-21,1,,,,,ダイイチトラストタイヨウコウハツデン,0
269,2010003046525,新規,0,2025-02-21,2025-02-21,合同会社ＳＣ００５,,合同会社,東京都,千代田区,平河町１丁目６番１５号シルスフィア会計事務所内,,13,101,1020093,,,,,,,2025-02-21,1,,,,,エスシーゼロゼロゴ,0
279,2010401188217,新規,0,2025-02-21,2025-02-21,Ｍａｉｓｏｎ．ｋｏｍｕｇｉ株式会社,,株式会社,東京都,港区,南青山３丁目１番３６号青山丸竹ビル６Ｆ,,13,103,1070062,,,,,,,2025-02-21,1,,,,,メゾンコムギ,0
280,2010401188299,新規,0,2025-02-21,2025-02-21,ポジティーバ株式会社,,株式会社,東京都,港区,三田２丁目９番２号ＭＡビル三田二丁目５階,,13,103,1080073,,,,,,,2025-02-21,1,,,,,ポジティーバ,0
281,2010401188373,新規,0,2025-02-21,2025-02-21,ＳＫＹ　ＤＲＥＡＭ株式会社,,株式会社,東京都,港区,西新橋１丁目２番９号,,13,103,1050003,,,,,,,2025-02-21,1,,,,,スカイドリーム,0
282,2010401188398,新規,0,2025-02-21,2025-02-21,株式会社わたしラボ,,株式会社,東京都,港区,南青山２丁目２番１５号,,13,103,1070062,,,,,,,2025-02-21,1,,,,,ワタシラボ,0
284,2010403034402,新規,0,2025-02-21,2025-02-21,Ｐａｃｉｆｉｃ　Ｂａｙｓ　Ｃａｐｉｔａｌ　ＮＦＡ２号合同会社,,合同会社,東京都,港区,東麻布１丁目４番２号ＴＨＥＷＯＲＫＥＲＳ＆ＣＯ８０３号,,13,103,1060044,,,,,,,2025-02-21,1,,,,,パシフィックベイズキャピタルエヌエフエーニゴウ,0
293,2010601066817,新規,0,2025-02-21,2025-02-21,Ｈａｎａｂｉ　ＡＩ株式会社,,株式会社,東京都,江東区,大島３丁目６番１１号,,13,108,1360072,,,,,,,2025-02-21,1,,,,,ハナビエーアイ,0
296,2010703007586,新規,0,2025-02-21,2025-02-21,合同会社ＷａｒｍＣａｒｅ,,合同会社,東京都,品川区,大井４丁目５番２－４０３号,,13,109,1400014,,,,,,,2025-02-21,1,,,,,ウォームケア,0
299,2010801035860,新規,0,2025-02-21,2025-02-21,東京羽莱株式会社,,株式会社,東京都,大田区,東海３丁目７番３号東海ビル４１４室,,13,111,1430001,,,,,,,2025-02-21,1,,,,,トウキョウウライ,0
304,2011001167874,新規,0,2025-02-21,2025-02-21,どこでも書店株式会社,,株式会社,東京都,目黒区,目黒本町１丁目７－２１,,13,110,1520002,,,,,,,2025-02-21,1,,,,,ドコデモショテン,0
305,2011001167890,新規,0,2025-02-21,2025-02-21,Ｂｏｕｑｕｅｔ株式会社,,株式会社,東京都,目黒区,南１丁目２０番８号,,13,110,1520013,,,,,,,2025-02-21,1,,,,,ブーケ,0
306,2011001167899,新規,0,2025-02-21,2025-02-21,株式会社ＲＡＶＥ,,株式会社,東京都,目黒区,青葉台２丁目１７番３号パークビュー青葉台３０１,,13,110,1530042,,,,,,,2025-02-21,1,,,,,レイヴ,0
307,2011001167916,新規,0,2025-02-21,2025-02-21,株式会社ＬＵＣＫＹ　ＷＩＮ,,株式会社,東京都,渋谷区,本町４丁目４７番１１号,,13,113,1510071,,,,,,,2025-02-21,1,,,,,ラッキーウィン,0
312,2011003021030,新規,0,2025-02-21,2025-02-21,合同会社ｒｅｍｄａ,,合同会社,東京都,渋谷区,渋谷２丁目６番６号４階,,13,113,1500002,,,,,,,2025-02-21,1,,,,,レムダ,0
315,2011101110742,新規,0,2025-02-21,2025-02-21,詩悦羽株式会社,,株式会社,東京都,新宿区,西新宿３丁目３番１３号西新宿水間ビル２Ｆ,,13,104,1600023,,,,,,,2025-02-21,1,,,,,シエツウ,0
320,2011601028451,新規,0,2025-02-21,2025-02-21,株式会社カワシマ電気,,株式会社,東京都,練馬区,石神井町４丁目１９番５号,,13,120,1770041,,,,,,,2025-02-21,1,,,,,カワシマデンキ,0
322,2011603004616,新規,0,2025-02-21,2025-02-21,合同会社ＭＷＡ,,合同会社,東京都,練馬区,春日町２丁目１２－３９,,13,120,1790074,,,,,,,2025-02-21,1,,,,,エムダブルエー,0
325,2011801045552,新規,0,2025-02-21,2025-02-21,ＨＩＧＨ　ＴＯＰ株式会社,,株式会社,東京都,葛飾区,奥戸６丁目２０番１２号,,13,122,1240022,,,,,,,2025-02-21,1,,,,,ハイトップ,0
326,2011803006692,新規,0,2025-02-21,2025-02-21,ＳＰＩＲＡＬ　ＲＩＳＥ合同会社,,合同会社,東京都,足立区,綾瀬４丁目１４番２６号,,13,121,1200005,,,,,,,2025-02-21,1,,,,,スパイラルライズ,0
329,2012701018714,新規,0,2025-02-21,2025-02-21,スマイルハウス株式会社,,株式会社,東京都,東久留米市,南沢５丁目３番４－２０２号,,13,222,2030023,,,,,,,2025-02-21,1,,,,,スマイルハウス,0
343,2020001161481,新規,0,2025-02-21,2025-02-21,ＢＲＡＮＤ　ＣＯＡＣＨ株式会社,,株式会社,神奈川県,横浜市西区,北幸２丁目１０番４８号むつみビル３階,,14,103,2200004,,,,,,,2025-02-21,1,,,,,ブランドコーチ,0
344,2020001161531,新規,0,2025-02-21,2025-02-21,株式会社砂川興業,,株式会社,神奈川県,川崎市川崎区,大師駅前１丁目１番４号ヴィラ池上１０１,,14,131,2100802,,,,,,,2025-02-21,1,,,,,,0
346,2020003027887,新規,0,2025-02-21,2025-02-21,ＮＨ企画合同会社,,合同会社,神奈川県,横浜市西区,北幸２丁目１０番４８号むつみビル３Ｆ,,14,103,2200004,,,,,,,2025-02-21,1,,,,,エヌエイチキカク,0
354,2021001084516,新規,0,2025-02-21,2025-02-21,株式会社明輝工務店,,株式会社,神奈川県,相模原市中央区,上溝３丁目６番８号,,14,152,2520243,,,,,,,2025-02-21,1,,,,,アキコウムテン,0
363,2030001164987,新規,0,2025-02-21,2025-02-21,瑠璃ジャパン株式会社,,株式会社,埼玉県,春日部市,大場１２５７番地１１,,11,214,3440021,,,,,,,2025-02-21,1,,,,,ルリジャパン,0
367,2030003026153,新規,0,2025-02-21,2025-02-21,Ｃｅｃｉ合同会社,,合同会社,埼玉県,越谷市,レイクタウン９丁目３１番地１,,11,222,3430828,,,,,,,2025-02-21,1,,,,,セシ,0
368,2030003026178,新規,0,2025-02-21,2025-02-21,ＹＵＭＥＶＮ合同会社,,合同会社,埼玉県,北足立郡伊奈町,大字小室５２８０番地５,,11,301,3620806,,,,,,,2025-02-21,1,,,,,ユメヴィエヌ,0
369,2030003026186,新規,0,2025-02-21,2025-02-21,サングローバルトレーディング合同会社,,合同会社,埼玉県,蓮田市,大字黒浜３６８４番地２,,11,238,3490101,,,,,,,2025-02-21,1,,,,,サングローバルトレーディング,0
370,2040001137521,新規,0,2025-02-21,2025-02-21,株式会社Ｍ‐ＬＩＮＥ,,株式会社,千葉県,成田市,三里塚光ケ丘１番地１４６４－１０２,,12,211,2860117,,,,,,,2025-02-21,1,,,,,エムライン,0
376,2040003026937,新規,0,2025-02-21,2025-02-21,ＨＳＡ合同会社,,合同会社,千葉県,船橋市,本町６丁目１８－１９第３山中ビル４０１号室,,12,204,2730005,,,,,,,2025-02-21,1,,,,,エイチエスエー,0
378,2050001056183,新規,0,2025-02-21,2025-02-21,東茂ソニック技研株式会社,,株式会社,茨城県,古河市,東２丁目２番１号要Ｖマンション１階５１２室,00138101,08,204,3060011,,,,,,,2025-02-21,1,,,,,トウモソクンイギケン,0
379,2050001056209,新規,0,2025-02-21,2025-02-21,ＲＯＣＫＥＴ株式会社,,株式会社,茨城県,稲敷郡阿見町,大字若栗１３０７－２１－３号室,,08,443,3000333,,,,,,,2025-02-21,1,,,,,ロケット,0
383,2050003009040,新規,0,2025-02-21,2025-02-21,合同会社ＮＯＯＲ　ＴＲＡＤＩＮＧ,,合同会社,茨城県,坂東市,沓掛２１４１番地１,,08,228,3060515,,,,,,,2025-02-21,1,,,,,ノールトレーディング,0
385,2060003005435,新規,0,2025-02-21,2025-02-21,ＡＵＲＯＲＡ合同会社,,合同会社,栃木県,栃木市,岩舟町五十畑２１５番地１,,09,203,3294302,,,,,,,2025-02-21,1,,,,,オーロラ,0
387,2070001042644,新規,0,2025-02-21,2025-02-21,櫻井株式会社,,株式会社,群馬県,前橋市,千代田町５丁目５－２,,10,201,3710022,,,,,,,2025-02-21,1,,,,,サクライ,0
388,2070003005797,新規,0,2025-02-21,2025-02-21,合同会社ＩＳＥＳＡＫＩ　ＬＯＶＥＲＳ,,合同会社,群馬県,伊勢崎市,喜多町１２５番地２,,10,204,3720056,,,,,,,2025-02-21,1,,,,,イセサキラバーズ,0
389,2080401027764,新規,0,2025-02-21,2025-02-21,株式会社ＲＥＭＯＬＤ,,株式会社,静岡県,袋井市,睦町１５－１,,22,216,4370041,,,,,,,2025-02-21,1,,,,,リモールド,0
390,2080403005207,新規,0,2025-02-21,2025-02-21,合同会社ＧｌｕｃｋＲｉｎｋ,,合同会社,静岡県,浜松市浜名区,内野台４丁目３４番３号,,22,139,4340045,,,,,,,2025-02-21,1,,,,,グリュックリンク,0
395,2110001039066,新規,0,2025-02-21,2025-02-21,株式会社彩田,,株式会社,新潟県,長岡市,川口田麦山５４８５番地１,,15,202,9497512,,,,,,,2025-02-21,1,,,,,アヤタ,0
397,2110005017191,新規,0,2025-02-21,2025-02-21,特定非営利活動法人新潟県フードバンク推進協議会,,その他の設立登記法人,新潟県,三条市,北新保１丁目２０番１８号,,15,204,9550861,,,,,,,2025-02-21,1,,,,,ニイガタケンフードバンクスイシンキョウギカイ,0
405,2120001273044,新規,0,2025-02-21,2025-02-21,株式会社ｓｕｉｔｅｎ,,株式会社,大阪府,大阪市北区,梅田１丁目１－３大阪駅前第３ビル２９階１－１－１号室,,27,127,5300001,,,,,,,2025-02-21,1,,,,,スイテン,0
406,2120001273052,新規,0,2025-02-21,2025-02-21,株式会社三東商事,,株式会社,大阪府,大阪市住之江区,平林南１丁目２番１１号,,27,125,5590025,,,,,,,2025-02-21,1,,,,,サントウショウジ,0
407,2120001273069,新規,0,2025-02-21,2025-02-21,龍騰国際株式会社,,株式会社,大阪府,大阪市生野区,巽南２丁目８－２９－１０２,00138102,27,116,5440015,,,,,,,2025-02-21,1,,,,,リュウトウコクサイ,0
408,2120001273127,新規,0,2025-02-21,2025-02-21,株式会社Ｓｏｍｏｓｏｍｏ,,株式会社,大阪府,大阪市平野区,平野上町１丁目１２番３０号,,27,126,5470045,,,,,,,2025-02-21,1,,,,,ソモソモ,0
409,2120001273192,新規,0,2025-02-21,2025-02-21,株式会社ほんだ,,株式会社,大阪府,大阪市福島区,福島７丁目２０番１８－２５０６号,,27,103,5530003,,,,,,,2025-02-21,1,,,,,ホンダ,0
412,2120003028693,新規,0,2025-02-21,2025-02-21,邁楽合同会社,,合同会社,大阪府,大阪市住吉区,遠里小野６丁目１７番１８－４０５号,,27,120,5580032,,,,,,,2025-02-21,1,,,,,マイラク,0
416,2120101071091,新規,0,2025-02-21,2025-02-21,株式会社ｉｓｍ,,株式会社,大阪府,堺市東区,日置荘西町１丁３８番１１号,,27,143,5998114,,,,,,,2025-02-21,1,,,,,イズム,0
424,2120901050468,新規,0,2025-02-21,2025-02-21,株式会社正五会,,株式会社,大阪府,池田市,東山町６１２番地の１,,27,204,5630012,,,,,,,2025-02-21,1,,,,,ショウゴカイ,0
427,2120903005560,新規,0,2025-02-21,2025-02-21,合同会社ＫＤ,,合同会社,大阪府,豊中市,庄内西町２丁目２２番３４号,,27,203,5610832,,,,,,,2025-02-21,1,,,,,ケーディー,0
429,2122001038922,新規,0,2025-02-21,2025-02-21,株式会社三鼎叶,,株式会社,大阪府,東大阪市,神田町１８番２２－６１１号,,27,227,5798058,,,,,,,2025-02-21,1,,,,,サンケンヨ,0
434,2130003010221,新規,0,2025-02-21,2025-02-21,光風合同会社,,合同会社,京都府,南丹市,園部町小山東町島所４番地２,,26,213,6220041,,,,,,,2025-02-21,1,,,,,コウフウ,0
439,2140001137437,新規,0,2025-02-21,2025-02-21,Ｍｉｉｎａ　Ｖｏｒｓｃｈｌａｇ株式会社,,株式会社,兵庫県,姫路市,相野１番地１,,28,201,6712232,,,,,,,2025-02-21,1,,,,,ミーナフォーアシュラーク,0
448,2160001026563,新規,0,2025-02-21,2025-02-21,株式会社アイビー,,株式会社,滋賀県,彦根市,松原町３６５１番地１５７,,25,202,5220002,,,,,,,2025-02-21,1,,,,,アイビー,0
455,2180003028036,新規,0,2025-02-21,2025-02-21,合同会社ダフニー,,合同会社,愛知県,名古屋市名東区,猪高台２丁目１０１番地,,23,115,4650028,,,,,,,2025-02-21,1,,,,,ダフニー,0
456,2180005020957,新規,0,2025-02-21,2025-02-21,一般社団法人百美会,,その他の設立登記法人,愛知県,一宮市,神山１丁目１番１号,,23,203,4910904,,,,,,,2025-02-21,1,,,,,ヒャクビカイ,0
462,2200001043463,新規,0,2025-02-21,2025-02-21,創栄産業株式会社,,株式会社,岐阜県,羽島市,足近町市場４２６番地２４,,21,209,5016202,,,,,,,2025-02-21,1,,,,,ソウエイサンギョウ,0
472,2230001020757,新規,0,2025-02-21,2025-02-21,株式会社武田土木,,株式会社,富山県,富山市,岩瀬天神町２２８番地,,16,201,9318378,,,,,,,2025-02-21,1,,,,,タケダドボク,0
477,2240001064563,新規,0,2025-02-21,2025-02-21,アンズオノガツ株式会社,,株式会社,広島県,広島市南区,向洋大原町６番１６号,,34,103,7340063,,,,,,,2025-02-21,1,,,,,アンズオノガツ,0
478,2240001064571,新規,0,2025-02-21,2025-02-21,株式会社ＳＡＫＵ総本店,,株式会社,広島県,広島市中区,大手町１丁目１－２０相生橋ビル７階Ａ号室,,34,101,7300051,,,,,,,2025-02-21,1,,,,,サクソウホンテン,0
480,2240003007082,新規,0,2025-02-21,2025-02-21,合同会社パワースマイル,,合同会社,広島県,広島市安佐南区,長束２丁目１番２３号,,34,105,7310135,,,,,,,2025-02-21,1,,,,,パワースマイル,0
493,2290001109074,新規,0,2025-02-21,2025-02-21,Ｓｈｉｎｅ　Ｒｕｓｈ株式会社,,株式会社,福岡県,糟屋郡須惠町,大字上須惠６８３番地３,,40,344,8112114,,,,,,,2025-02-21,1,,,,,シャインラッシュ,0
498,2290003016434,新規,0,2025-02-21,2025-02-21,合同会社ｓｋｙｃａｎＶａｓ,,合同会社,福岡県,筑後市,大字長浜１５４４番地１,,40,211,8330005,,,,,,,2025-02-21,1,,,,,スカイキャンバス,0
499,2290003016450,新規,0,2025-02-21,2025-02-21,合同会社ミライ,,合同会社,福岡県,糸島市,前原西１丁目５番１８号,,40,230,8191117,,,,,,,2025-02-21,1,,,,,ミライ,0
502,2290801031295,新規,0,2025-02-21,2025-02-21,株式会社ＥＩＧＨＴ’Ｓ,,株式会社,福岡県,北九州市小倉北区,木町４丁目７－１１,,40,106,8030851,,,,,,,2025-02-21,1,,,,,エイトス,0
504,2320001020954,新規,0,2025-02-21,2025-02-21,宝利開発株式会社,,株式会社,大分県,大分市,大字羽田字迫１７７番２,,44,201,8700942,,,,,,,2025-02-21,1,,,,,ホウリカイハツ,0
505,2320003004583,新規,0,2025-02-21,2025-02-21,旭合同会社,,合同会社,大分県,速見郡日出町,大字藤原４７番地２,,44,341,8791502,,,,,,,2025-02-21,1,,,,,アサヒ,0
515,2370001052266,新規,0,2025-02-21,2025-02-21,株式会社東栄ホールディングス,,株式会社,宮城県,仙台市太白区,富沢４丁目８番２９号,,04,104,9820032,,,,,,,2025-02-21,1,,,,,トウエイホールディングス,0
517,2380001035105,新規,0,2025-02-21,2025-02-21,株式会社阿部,,株式会社,福島県,福島市,野田町７丁目９番４１号,,07,201,9608055,,,,,,,2025-02-21,1,,,,,アベ,0
520,2380003005972,新規,0,2025-02-21,2025-02-21,ＣＯＲＥ合同会社,,合同会社,福島県,郡山市,鶴見坦１丁目７番３４号,,07,203,9638861,,,,,,,2025-02-21,1,,,,,コア,0
521,2390001017886,新規,0,2025-02-21,2025-02-21,株式会社ＴＳホールディングス,,株式会社,山形県,山形市,あさひ町１９番１３号,,06,201,9900024,,,,,,,2025-02-21,1,,,,,ティーエスホールディングス,0
523,2410001014071,新規,0,2025-02-21,2025-02-21,株式会社Ｙ＆Ｋ,,株式会社,秋田県,秋田市,牛島西４丁目２９番１－１０４号,,05,201,0100063,,,,,,,2025-02-21,1,,,,,ワイアンドケー,0
528,2430001093733,新規,0,2025-02-21,2025-02-21,株式会社帆波商運,,株式会社,北海道,岩見沢市,日の出町１０２番地１９,,01,210,0680825,,,,,,,2025-02-21,1,,,,,ホナミショウウン,0
529,2430001093741,新規,0,2025-02-21,2025-02-21,株式会社ｔｈｅ　ｂｅｒｔｈ,,株式会社,北海道,磯谷郡蘭越町,港町６３４番地１９,,01,394,0481341,,,,,,,2025-02-21,1,,,,,ザバース,0
530,2430003017310,新規,0,2025-02-21,2025-02-21,ノマディスト合同会社,,合同会社,北海道,虻田郡倶知安町,北四条東６丁目１１番地４・リバティ福島２０４号室,,01,400,0440004,,,,,,,2025-02-21,1,,,,,ノマディスト,0
532,2470001020584,新規,0,2025-02-21,2025-02-21,株式会社Ｐ．Ｐ．Ｐ．＆Ｃｏ．,,株式会社,香川県,高松市,鍛冶屋町４番地２１ワンフットビル５ＦＡ,,37,201,7600028,,,,,,,2025-02-21,1,,,,,ピピピアンドコー,0
533,2470001020592,新規,0,2025-02-21,2025-02-21,株式会社一松興業,,株式会社,香川県,高松市,古馬場町８番地３０松本ビル４階,,37,201,7600045,,,,,,,2025-02-21,1,,,,,イチマツコウギョウ,0
542,3010001252388,新規,0,2025-02-21,2025-02-21,株式会社ハットビ,,株式会社,東京都,中央区,日本橋富沢町１１番１９号ＳＯＨＯ３０－４０４号,,13,102,1030006,,,,,,,2025-02-21,1,,,,,ハットビ,0
543,3010001252561,新規,0,2025-02-21,2025-02-21,株式会社ＣＨＣＰアドバイザリー,,株式会社,東京都,千代田区,丸の内１丁目８番１号,,13,101,1000005,,,,,,,2025-02-21,1,,,,,シーエイチシーピーアドバイザリー,0
545,3010005039625,新規,0,2025-02-21,2025-02-21,一般社団法人堂島浜,,その他の設立登記法人,東京都,中央区,日本橋１丁目４番１号,,13,102,1030027,,,,,,,2025-02-21,1,,,,,ドウジマハマ,0
554,3010401188364,新規,0,2025-02-21,2025-02-21,株式会社まいふく,,株式会社,東京都,港区,赤坂４丁目８番１９号赤坂フロントタウン３階,,13,103,1070052,,,,,,,2025-02-21,1,,,,,マイフク,0
555,3010401188380,新規,0,2025-02-21,2025-02-21,株式会社ＭＩＺＵＨＯ,,株式会社,東京都,港区,浜松町１丁目１８番１３号高桑ビル３階,,13,103,1050013,,,,,,,2025-02-21,1,,,,,ミズホ,0
563,3010601066782,新規,0,2025-02-21,2025-02-21,株式会社ムゥコーポレーション,,株式会社,東京都,墨田区,緑１丁目２―１１―６０１,,13,107,1300021,,,,,,,2025-02-21,1,,,,,ムゥコーポレーション,0
564,3010601066832,新規,0,2025-02-21,2025-02-21,株式会社クロノストーム,,株式会社,東京都,江東区,豊洲６丁目４―３４メブクス豊洲１Ｆ,,13,108,1350061,,,,,,,2025-02-21,1,,,,,クロノストーム,0
567,3010701047278,新規,0,2025-02-21,2025-02-21,株式会社バトン社,,株式会社,東京都,品川区,荏原３丁目１番３４号,,13,109,1420063,,,,,,,2025-02-21,1,,,,,バトンシャ,0
571,3010901056855,新規,0,2025-02-21,2025-02-21,株式会社ダンブリッジ,,株式会社,東京都,世田谷区,若林４丁目１６番１１号,,13,112,1540023,,,,,,,2025-02-21,1,,,,,ダンブリッジ,0
573,3010903009729,新規,0,2025-02-21,2025-02-21,合同会社ＩＯＳ,,合同会社,東京都,世田谷区,駒沢４丁目１番５号コート駒沢公園２０１,,13,112,1540012,,,,,,,2025-02-21,1,,,,,アイオーエス,0
579,3011001167766,新規,0,2025-02-21,2025-02-21,株式会社ＨｕｂＬｅｎｇｅ,,株式会社,東京都,渋谷区,渋谷２丁目１９－１５宮益坂ビルディング６０９,,13,113,1500002,,,,,,,2025-02-21,1,,,,,ハブレンジ,0
580,3011001167808,新規,0,2025-02-21,2025-02-21,株式会社Ｋｕｍｏｎｏ,,株式会社,東京都,渋谷区,神宮前６丁目２３番４号桑野ビル２階,,13,113,1500001,,,,,,,2025-02-21,1,,,,,クモノ,0
581,3011001167824,新規,0,2025-02-21,2025-02-21,ワンダーカンパニー＆リレーションズ株式会社,,株式会社,東京都,渋谷区,代々木１丁目２５番５号４３７号室,,13,113,1510053,,,,,,,2025-02-21,1,,,,,ワンダーカンパニーアンドリレーションズ,0
582,3011001167873,新規,0,2025-02-21,2025-02-21,株式会社Ｅ‐ＶＥＮＴ,,株式会社,東京都,目黒区,青葉台３丁目１３番１１号,,13,110,1530042,,,,,,,2025-02-21,1,,,,,イーベント,0
584,3011003020832,新規,0,2025-02-21,2025-02-21,ＡＫＳ合同会社,,合同会社,東京都,渋谷区,恵比寿２丁目２８番１０号,,13,113,1500013,,,,,,,2025-02-21,1,,,,,エイケイエス,0
594,3011101110683,新規,0,2025-02-21,2025-02-21,株式会社ズッケ,,株式会社,東京都,新宿区,新宿２丁目１２番４号アコード新宿２０５号,,13,104,1600022,,,,,,,2025-02-21,1,,,,,ズッケ,0
595,3011101110700,新規,0,2025-02-21,2025-02-21,アトミス株式会社,,株式会社,東京都,新宿区,西新宿５丁目２３番３号,,13,104,1600023,,,,,,,2025-02-21,1,,,,,アトミス,0
596,3011101110733,新規,0,2025-02-21,2025-02-21,エリシアコーヒー株式会社,,株式会社,東京都,新宿区,早稲田町６７番地７ＫｕｋａｉＴｅｒｒａｃｅ早稲田１０１,,13,104,1620042,,,,,,,2025-02-21,1,,,,,エリシアコーヒー,0
597,3011103015567,新規,0,2025-02-21,2025-02-21,ＨＡＮＧＡＲＡＭ合同会社,,合同会社,東京都,新宿区,西新宿３丁目３番１３号西新宿水間ビル６階,,13,104,1600023,,,,,,,2025-02-21,1,,,,,ハンガラム,0
602,3011501031736,新規,0,2025-02-21,2025-02-21,株式会社ＴＡＫＥ‐Ｃ＆Ｍ,,株式会社,東京都,荒川区,南千住３丁目３７番４号ＦＬＹ・ＡＴ・ＭＩＮＡＭＩＳＥＮＪＹＵ３０１,,13,118,1160003,,,,,,,2025-02-21,1,,,,,テイクシーマーケット,0
603,3011503006430,新規,0,2025-02-21,2025-02-21,合同会社Ｂｒａｎｃｈ,,合同会社,東京都,荒川区,町屋７丁目９番４－２０６号,,13,118,1160001,,,,,,,2025-02-21,1,,,,,ブランチ,0
605,3011601028450,新規,0,2025-02-21,2025-02-21,株式会社マンセイ人材支援ファーム,,株式会社,東京都,練馬区,光が丘２丁目７番７－２０２号,,13,120,1790072,,,,,,,2025-02-21,1,,,,,マンセイジンザイシエンファーム,0
607,3011801045667,新規,0,2025-02-21,2025-02-21,Ｒｅｌａｔｉｏｎ株式会社,,株式会社,東京都,足立区,西新井本町４丁目２３番１９号,,13,121,1230845,,,,,,,2025-02-21,1,,,,,リレーション,0
618,3020001161489,新規,0,2025-02-21,2025-02-21,海＿旭貿易株式会社,00138090,株式会社,神奈川県,横浜市中区,山田町２番地７第七大場ビル２０２,,14,104,2310036,,,,,,,2025-02-21,1,,,,,カイシンアサヒボウエキ,0
622,3020003027853,新規,0,2025-02-21,2025-02-21,合同会社ダイヤアソシエイツ,,合同会社,神奈川県,横浜市神奈川区,台町１０番地１５,,14,102,2210834,,,,,,,2025-02-21,1,,,,,ダイヤアソシエイツ,0
624,3021001084531,新規,0,2025-02-21,2025-02-21,株式会社彩,,株式会社,神奈川県,藤沢市,鵠沼石上１丁目７－８ビッグライズビル５Ｆ,,14,205,2510025,,,,,,,2025-02-21,1,,,,,イロドリ,0
632,3030001164945,新規,0,2025-02-21,2025-02-21,株式会社Ｒｏｕｎｄ　Ａｒｃｈ．,,株式会社,埼玉県,さいたま市岩槻区,大字釣上新田３１０番地１,,11,110,3390025,,,,,,,2025-02-21,1,,,,,ラウンドアーチ,0
633,3030001164994,新規,0,2025-02-21,2025-02-21,ポストアシスト株式会社,,株式会社,埼玉県,さいたま市桜区,西堀６丁目６番９－７号,,11,106,3380832,,,,,,,2025-02-21,1,,,,,ポストアシスト,0
634,3030001165019,新規,0,2025-02-21,2025-02-21,株式会社西ノ輪機工,,株式会社,埼玉県,飯能市,茜台１丁目９番地４,,11,209,3570069,,,,,,,2025-02-21,1,,,,,ニシノワキコウ,0
639,3030003026185,新規,0,2025-02-21,2025-02-21,合同会社ｅｃｌａｔ　ｂｅａｕｔｅ　ｌａｂｏ,,合同会社,埼玉県,秩父郡小鹿野町,下小鹿野２２１９番地１,,11,365,3680101,,,,,,,2025-02-21,1,,,,,エクラボーテラボ,0
640,3030003026193,新規,0,2025-02-21,2025-02-21,合同会社フードハーモニークリエイト,,合同会社,埼玉県,川越市,大字藤間５１０番地１３,,11,201,3501142,,,,,,,2025-02-21,1,,,,,フードハーモニークリエイト,0
642,3030005022034,新規,0,2025-02-21,2025-02-21,農事組合法人ＤＨ３,,その他の設立登記法人,埼玉県,比企郡滑川町,大字土塩６０９－１,,11,341,3550801,,,,,,,2025-02-21,1,,,,,ディエイチサン,0
651,3040001137529,新規,0,2025-02-21,2025-02-21,株式会社ブライト,,株式会社,千葉県,市原市,姉崎２１２４番地５レインボーハウス勾当水４－４０１,,12,219,2990111,,,,,,,2025-02-21,1,,,,,ブライト,0
656,3050001056182,新規,0,2025-02-21,2025-02-21,株式会社アドバンシス,,株式会社,茨城県,日立市,東金沢町２丁目２６番１０号,,08,202,3160014,,,,,,,2025-02-21,1,,,,,アドバンシス,0
657,3050001056208,新規,0,2025-02-21,2025-02-21,株式会社晃成建設,,株式会社,茨城県,鹿嶋市,大字平井１３５０番地４７８,,08,222,3140012,,,,,,,2025-02-21,1,,,,,コウセイケンセツ,0
658,3060001037933,新規,0,2025-02-21,2025-02-21,株式会社那須トレーディング,,株式会社,栃木県,那須塩原市,若草町１１６番地９７,,09,213,3250032,,,,,,,2025-02-21,1,,,,,ナストレーディング,0
659,3060001037941,新規,0,2025-02-21,2025-02-21,スマーブ株式会社,,株式会社,栃木県,栃木市,岩舟町静戸１６０番地１,,09,203,3294305,,,,,,,2025-02-21,1,,,,,スマーブ,0
661,3070001042635,新規,0,2025-02-21,2025-02-21,株式会社ピースセール,,株式会社,群馬県,高崎市,宮原町１０番地７,,10,202,3701202,,,,,,,2025-02-21,1,,,,,ピースセール,0
665,3080405007712,新規,0,2025-02-21,2025-02-21,一般社団法人和栗協議会,,その他の設立登記法人,静岡県,浜松市浜名区,染地台６丁目８番７号,,22,139,4340046,,,,,,,2025-02-21,1,,,,,ワグリキョウギカイ,0
666,3100001038308,新規,0,2025-02-21,2025-02-21,株式会社ＢＳサービス,,株式会社,長野県,安曇野市,堀金烏川１２９２番地３,,20,220,3998211,,,,,,,2025-02-21,1,,,,,ビーエスサービス,0
667,3100005013298,新規,0,2025-02-21,2025-02-21,特定非営利活動法人信州草原再生,,その他の設立登記法人,長野県,上田市,住吉３９２番地４,,20,203,3860002,,,,,,,2025-02-21,1,,,,,シンシュウソウゲンサイセイ,0
672,3110001039065,新規,0,2025-02-21,2025-02-21,株式会社Ｌｅｇｅｒ,,株式会社,新潟県,見附市,本町１丁目２‐３５、３Ｆ,,15,211,9540053,,,,,,,2025-02-21,1,,,,,レジェ,0
676,3120001273068,新規,0,2025-02-21,2025-02-21,古楓堂株式会社,,株式会社,大阪府,大阪市東淀川区,東中島４丁目１－１１シャンボール第３新大阪６０２号,,27,114,5330033,,,,,,,2025-02-21,1,,,,,コフウドウ,0
677,3120001273076,新規,0,2025-02-21,2025-02-21,グランマネージメント株式会社,,株式会社,大阪府,大阪市中央区,本町２丁目６番５号,,27,128,5410053,,,,,,,2025-02-21,1,,,,,グランマネージメント,0
678,3120001273142,新規,0,2025-02-21,2025-02-21,大阪徳利株式会社,,株式会社,大阪府,大阪市淀川区,木川西１丁目４－１９ヴィラ木川３０４号,,27,123,5320013,,,,,,,2025-02-21,1,,,,,オオサカトクリ,0
679,3120003028692,新規,0,2025-02-21,2025-02-21,順家合同会社,,合同会社,大阪府,大阪市中央区,常盤町１丁目１－９－６０５,,27,128,5400028,,,,,,,2025-02-21,1,,,,,ジュンカ,0
680,3120003028701,新規,0,2025-02-21,2025-02-21,合同会社クラシカ,,合同会社,大阪府,大阪市平野区,喜連西１丁目１１番２３号,,27,126,5470026,,,,,,,2025-02-21,1,,,,,クラシカ,0
692,3140001137436,新規,0,2025-02-21,2025-02-21,株式会社ＭＩＲＡＤＥＲ,,株式会社,兵庫県,神戸市東灘区,御影山手５丁目２番２２号レジデンスケーエフ２０４号,,28,101,6580065,,,,,,,2025-02-21,1,,,,,ミラデル,0
693,3140001137469,新規,0,2025-02-21,2025-02-21,株式会社ＴＯＰ．ｃ,,株式会社,兵庫県,神戸市西区,平野町繁田５９３番地の２,,28,111,6512262,,,,,,,2025-02-21,1,,,,,トップシー,0
698,3160001026562,新規,0,2025-02-21,2025-02-21,株式会社Ｕ．Ｓ　Ｆａｃｔｏｒｙ,,株式会社,滋賀県,甲賀市,水口町新城６－３,,25,209,5280007,,,,,,,2025-02-21,1,,,,,ユーエスファクトリー,0
708,3180001165549,新規,0,2025-02-21,2025-02-21,ＷＡＭホールディングス株式会社,,株式会社,愛知県,清須市,西枇杷島町宮前２丁目５８番地１,,23,233,4520031,,,,,,,2025-02-21,1,,,,,ワムホールディングス,0
709,3180001165573,新規,0,2025-02-21,2025-02-21,野松不動産株式会社,,株式会社,愛知県,名古屋市昭和区,川原通３丁目４番地の１荘苑南田代５０２号,,23,107,4660853,,,,,,,2025-02-21,1,,,,,ノマツフドウサン,0
715,3180303006459,新規,0,2025-02-21,2025-02-21,ソラリアレジデンス合同会社,,合同会社,愛知県,豊田市,朝日町６丁目４０番地７,,23,211,4710031,,,,,,,2025-02-21,1,,,,,ソラリアレジデンス,0
718,3210005010185,新規,0,2025-02-21,2025-02-21,一般社団法人ＳＴＥＰ,,その他の設立登記法人,福井県,大野市,春日３丁目２番１９号,,18,205,9120053,,,,,,,2025-02-21,1,,,,,ステップ,0
720,3220005008930,新規,0,2025-02-21,2025-02-21,一般社団法人ルマナイサモア,,その他の設立登記法人,石川県,金沢市,額新保１丁目３６６番地浦崎歯科医院,,17,201,9218148,,,,,,,2025-02-21,1,,,,,ルマナイサモア,0
722,3240001064562,新規,0,2025-02-21,2025-02-21,アンズイシガツ株式会社,,株式会社,広島県,広島市南区,向洋大原町６番１６号,,34,103,7340063,,,,,,,2025-02-21,1,,,,,アンズイシガツ,0
723,3240001064570,新規,0,2025-02-21,2025-02-21,株式会社ＳＨＩＮＤＯ,,株式会社,広島県,広島市東区,牛田東３丁目１９番１３号,,34,102,7320063,,,,,,,2025-02-21,1,,,,,シンドウ,0
728,3240003007081,新規,0,2025-02-21,2025-02-21,合同会社オルビジョン,,合同会社,広島県,広島市安芸区,矢野西４丁目３－１１,,34,107,7360085,,,,,,,2025-02-21,1,,,,,オルビジョン,0
746,3320003004582,新規,0,2025-02-21,2025-02-21,合同会社地域企画エムス’ｓ,,合同会社,大分県,大分市,中央町２丁目７番３３号,,44,201,8700035,,,,,,,2025-02-21,1,,,,,チイキキカクエムズ,0
747,3330001032898,新規,0,2025-02-21,2025-02-21,株式会社Ｆｅｌｉｃｉａ,,株式会社,熊本県,熊本市中央区,出水８丁目８番５８号,,43,101,8620941,,,,,,,2025-02-21,1,,,,,フェリシア,0
759,3370001052273,新規,0,2025-02-21,2025-02-21,株式会社ＳＡＴＡＫＥ,,株式会社,宮城県,仙台市太白区,長町１丁目６番５－２０５号（ｗｅｉｖ）,,04,104,9820011,,,,,,,2025-02-21,1,,,,,サタケ,0
767,3420001019028,新規,0,2025-02-21,2025-02-21,株式会社アグライン,,株式会社,青森県,八戸市,類家５丁目１２番８号,,02,203,0310001,,,,,,,2025-02-21,1,,,,,アグライン,0
770,3430001093740,新規,0,2025-02-21,2025-02-21,株式会社Ｐｉｃｔ　Ｐｌｕｓ　Ｄｅｓｉｇｎ,,株式会社,北海道,札幌市中央区,南十五条西７丁目１番６ー２０１号,,01,101,0640915,,,,,,,2025-02-21,1,,,,,ピクトプラスデザイン,0
771,3430001093749,新規,0,2025-02-21,2025-02-21,モエレ牧草株式会社,,株式会社,北海道,江別市,文京台３０‐１１,,01,217,0690833,,,,,,,2025-02-21,1,,,,,モエレボクソウ,0
772,3430001093757,新規,0,2025-02-21,2025-02-21,株式会社Ｏｎｅ　ｃｒｅａｔｅ,,株式会社,北海道,札幌市東区,伏古八条４丁目６番２０号カクハイツＮｏ．２－１０２号,,01,103,0070868,,,,,,,2025-02-21,1,,,,,ワンクリエイト,0
788,4010001252560,新規,0,2025-02-21,2025-02-21,株式会社イグジビット,,株式会社,東京都,中央区,日本橋室町１丁目１１番１２号日本橋水野ビル７階,,13,102,1030022,,,,,,,2025-02-21,1,,,,,イグジビット,0
793,4010003046531,新規,0,2025-02-21,2025-02-21,ＹＴ　Ｉｎｖｅｓｔｍｅｎｔ合同会社,,合同会社,東京都,文京区,春日２丁目４番１０号,,13,105,1120003,,,,,,,2025-02-21,1,,,,,ワイティインベストメント,0
796,4010101016527,新規,0,2025-02-21,2025-02-21,人工知能株式会社,,株式会社,東京都,八王子市,越野７７３番地ハッピーパレス越野２０６号室,,13,201,1920361,,,,,,,2025-02-21,1,,,,,ジンコウチノウ,0
797,4010103002517,新規,0,2025-02-21,2025-02-21,合同会社えん,,合同会社,東京都,八王子市,めじろ台１丁目４３番地１３,,13,201,1930833,,,,,,,2025-02-21,1,,,,,エン,0
805,4010401188371,新規,0,2025-02-21,2025-02-21,株式会社ＯＡＣ,,株式会社,東京都,港区,麻布台１丁目２番１－２１０９号,,13,103,1060041,,,,,,,2025-02-21,1,,,,,オーエーシー,0
806,4010401188396,新規,0,2025-02-21,2025-02-21,株式会社みらいず本舗,,株式会社,東京都,港区,西新橋１丁目４番１２号,,13,103,1050003,,,,,,,2025-02-21,1,,,,,,0
807,4010401188405,新規,0,2025-02-21,2025-02-21,ＷＡＭ株式会社,,株式会社,東京都,港区,三田１丁目６番３－１３１０号,,13,103,1080073,,,,,,,2025-02-21,1,,,,,ワム,0
810,4010405024093,新規,0,2025-02-21,2025-02-21,Ｔｉｇｅｒ　Ｇａｔｅ特定目的会社,,その他の設立登記法人,東京都,港区,西新橋１丁目２２番５号６階,,13,103,1050003,,,,,,,2025-02-21,1,,,,,タイガーゲート,0
815,4010701047277,新規,0,2025-02-21,2025-02-21,株式会社ＲＮｓ　Ｓｏｌｕｔｉｏｎ,,株式会社,東京都,品川区,小山４丁目１番７－６０３号,,13,109,1420062,,,,,,,2025-02-21,1,,,,,アールエヌソルーション,0
817,4010703007584,新規,0,2025-02-21,2025-02-21,ＬＯＯＲＯＯ合同会社,,合同会社,東京都,品川区,大崎１丁目１４－３－６０３,,13,109,1410032,,,,,,,2025-02-21,1,,,,,ルールー,0
823,4011001167906,新規,0,2025-02-21,2025-02-21,株式会社２７７Ｍｕｓｉｃ　Ｅｎｔｅｒｔａｉｎｍｅｎｔ,,株式会社,東京都,渋谷区,渋谷２丁目１９番１９号ワコー宮益坂ビル５階,,13,113,1500002,,,,,,,2025-02-21,1,,,,,ツーセブンミュージックエンタテインメント,0
824,4011001167914,新規,0,2025-02-21,2025-02-21,株式会社髪神,,株式会社,東京都,目黒区,中目黒１丁目７番１７号,,13,110,1530061,,,,,,,2025-02-21,1,,,,,カミガミ,0
825,4011001167955,新規,0,2025-02-21,2025-02-21,Ｏｎｉｏｎ　Ｂｒｏｔｈｅｒ株式会社,,株式会社,東京都,渋谷区,円山町６番７号,,13,113,1500044,,,,,,,2025-02-21,1,,,,,オニオンブラザー,0
826,4011001167963,新規,0,2025-02-21,2025-02-21,株式会社フラップ,,株式会社,東京都,渋谷区,神南１丁目１１番４号,,13,113,1500041,,,,,,,2025-02-21,1,,,,,フラップ,0
827,4011003020988,新規,0,2025-02-21,2025-02-21,合同会社ＲＭＰＧ,,合同会社,東京都,渋谷区,神宮前１丁目３番１２号,,13,113,1500001,,,,,,,2025-02-21,1,,,,,アールエムピージー,0
828,4011003021004,新規,0,2025-02-21,2025-02-21,ステキエ合同会社,,合同会社,東京都,渋谷区,円山町６番７号渋谷アムフラット１階,,13,113,1500044,,,,,,,2025-02-21,1,,,,,ステキエ,0
829,4011003021020,新規,0,2025-02-21,2025-02-21,サイホクタン合同会社,,合同会社,東京都,目黒区,大橋２丁目４番２１号池尻大橋グリーンランドビル５階,,13,110,1530044,,,,,,,2025-02-21,1,,,,,サイホクタン,0
837,4011105011349,新規,0,2025-02-21,2025-02-21,一般社団法人トラスト・ベースド・フィランソロピー・ジャパン,,その他の設立登記法人,東京都,新宿区,西新宿３丁目３番１３号西新宿水間ビル２Ｆ,,13,104,1600023,,,,,,,2025-02-21,1,,,,,トラストベースドフィランソロフィージャパン,0
843,4011401026843,新規,0,2025-02-21,2025-02-21,株式会社ＳＫ技建,,株式会社,東京都,板橋区,南常盤台２丁目２１番１４号Ｂ１０２,,13,119,1740072,,,,,,,2025-02-21,1,,,,,エスケーギケン,0
849,4011701028085,新規,0,2025-02-21,2025-02-21,株式会社ＡＧＵ,,株式会社,東京都,江戸川区,江戸川２丁目１４番３１号,,13,123,1320013,,,,,,,2025-02-21,1,,,,,エージーユー,0
854,4012803003645,新規,0,2025-02-21,2025-02-21,ｓｅｒｐｅｎｔ合同会社,,合同会社,東京都,昭島市,宮沢町２丁目３番１８号,,13,207,1960024,,,,,,,2025-02-21,1,,,,,サーペント,0
857,4013301053810,新規,0,2025-02-21,2025-02-21,株式会社アトリエデボラ,,株式会社,東京都,豊島区,東池袋３丁目１５番５号東池袋マンション４０６,,13,116,1700013,,,,,,,2025-02-21,1,,,,,アトリエデボラ,0
872,4020003027811,新規,0,2025-02-21,2025-02-21,合同会社ＳＩＲＵＶＥ,,合同会社,神奈川県,横浜市西区,北幸２丁目１０番４８号むつみビル３階,,14,103,2200004,,,,,,,2025-02-21,1,,,,,シルベ,0
873,4020003027852,新規,0,2025-02-21,2025-02-21,合同会社ＩＣＨＩ　ＧＬＡＳＳ,,合同会社,神奈川県,横浜市中区,竹之丸８２番地７,,14,104,2310847,,,,,,,2025-02-21,1,,,,,イチグラス,0
880,4021003015616,新規,0,2025-02-21,2025-02-21,合同会社夢現堂,,合同会社,神奈川県,相模原市緑区,吉野７１番地１,,14,151,2520183,,,,,,,2025-02-21,1,,,,,ムゲンドウ,0
891,4030001164928,新規,0,2025-02-21,2025-02-21,株式会社三建ホールディングス,,株式会社,埼玉県,さいたま市大宮区,三橋１丁目１２０１番地,,11,103,3300856,,,,,,,2025-02-21,1,,,,,サンケンホールディングス,0
899,4030003026184,新規,0,2025-02-21,2025-02-21,システムモデリングラボ合同会社,,合同会社,埼玉県,富士見市,鶴瀬東１丁目５－１２－２０３,,11,235,3540024,,,,,,,2025-02-21,1,,,,,システムモデリングラボ,0
900,4030003026192,新規,0,2025-02-21,2025-02-21,合同会社しずく,,合同会社,埼玉県,川口市,大字石神１７２番地の２４,,11,203,3330823,,,,,,,2025-02-21,1,,,,,シズク,0
902,4030005022033,新規,0,2025-02-21,2025-02-21,農事組合法人ＤＨ２,,その他の設立登記法人,埼玉県,比企郡滑川町,大字土塩６０９－１,,11,341,3550801,,,,,,,2025-02-21,1,,,,,ディエイチニ,0
909,4040001137412,新規,0,2025-02-21,2025-02-21,Ｃ・Ｙ・Ｌ国際株式会社,,株式会社,千葉県,柏市,大井５４３－１,,12,217,2770902,,,,,,,2025-02-21,1,,,,,シーワイエルコクサイ,0
912,4040003026910,新規,0,2025-02-21,2025-02-21,合同会社エービン不動産,,合同会社,千葉県,成田市,東和田６１８番１,,12,211,2860134,,,,,,,2025-02-21,1,,,,,エービンフドウサン,0
914,4050001056181,新規,0,2025-02-21,2025-02-21,ワイテックエンジニアリング株式会社,,株式会社,茨城県,つくば市,大角豆１３６４番地,,08,220,3050043,,,,,,,2025-02-21,1,,,,,ワイテックエンジニアリング,0
918,4050003009047,新規,0,2025-02-21,2025-02-21,合同会社ＳＨＥＬＡＮ　ＧＯＬＤＳＴＡＲ,,合同会社,茨城県,龍ケ崎市,愛戸町５４番地２ロイヤル・コート愛戸Ａ１０２号室,,08,208,3010838,,,,,,,2025-02-21,1,,,,,シェランゴールドスター,0
920,4060003005417,新規,0,2025-02-21,2025-02-21,合同会社サステナファーム,,合同会社,栃木県,足利市,野田町１３７９番地１２,,09,202,3260322,,,,,,,2025-02-21,1,,,,,サステナファーム,0
924,4060005010308,新規,0,2025-02-21,2025-02-21,一般社団法人にじいろクラブ,,その他の設立登記法人,栃木県,那須郡那須町,大字高久丙２４７２番地１００,,09,407,3250302,,,,,,,2025-02-21,1,,,,,ニジイロクラブ,0
925,4070001042634,新規,0,2025-02-21,2025-02-21,株式会社サピュイエ,,株式会社,群馬県,高崎市,末広町３３番地１,,10,202,3700065,,,,,,,2025-02-21,1,,,,,サピュイエ,0
926,4080401027762,新規,0,2025-02-21,2025-02-21,株式会社グッドスマイル,,株式会社,静岡県,浜松市中央区,佐鳴台６丁目１６番２号,,22,138,4328021,,,,,,,2025-02-21,1,,,,,グッドスマイル,0
928,4090005007680,新規,0,2025-02-21,2025-02-21,医療法人Ｒ．Ｖ．ｓｔａｎｄａｒｄ,,その他の設立登記法人,山梨県,中央市,山之神１１４４番地２３,,19,214,4093845,,,,,,,2025-02-21,1,,,,,アールブイスタンダード,0
930,4100005013297,新規,0,2025-02-21,2025-02-21,一般社団法人ゆたかのスポーツクラブ,,その他の設立登記法人,長野県,長野市,豊野町豊野６２４番地,,20,201,3891105,,,,,,,2025-02-21,1,,,,,ユタカノスポーツクラブ,0
937,4120001273026,新規,0,2025-02-21,2025-02-21,ＡＴＡＲＡＸＹ株式会社,,株式会社,大阪府,大阪市中央区,東平２丁目２－１０,,27,128,5420063,,,,,,,2025-02-21,1,,,,,アタラクスィ,0
938,4120001273067,新規,0,2025-02-21,2025-02-21,凡宝株式会社,,株式会社,大阪府,大阪市平野区,加美東１丁目１１番１０号,,27,126,5470002,,,,,,,2025-02-21,1,,,,,ボンポウ,0
939,4120001273133,新規,0,2025-02-21,2025-02-21,志輝株式会社,,株式会社,大阪府,大阪市平野区,加美東６丁目１０－３１,,27,126,5470002,,,,,,,2025-02-21,1,,,,,シキ,0
940,4120001273166,新規,0,2025-02-21,2025-02-21,Ｒｅｉｎｃａｒｎ株式会社,,株式会社,大阪府,大阪市西淀川区,佃３丁目１８番２５境ハイツ１０２号,,27,113,5550001,,,,,,,2025-02-21,1,,,,,ラインカーン,0
941,4120001273174,新規,0,2025-02-21,2025-02-21,株式会社ＳＡＳＨＩＭＩ,,株式会社,大阪府,大阪市住吉区,墨江１丁目１１－６,,27,120,5580043,,,,,,,2025-02-21,1,,,,,サシミ,0
942,4120001273224,新規,0,2025-02-21,2025-02-21,株式会社ＤＫ,,株式会社,大阪府,大阪市東淀川区,東中島１丁目１４番１－６０８号,,27,114,5330033,,,,,,,2025-02-21,1,,,,,ディーケー,0
948,4120003028700,新規,0,2025-02-21,2025-02-21,合同会社令和未来,,合同会社,大阪府,大阪市福島区,吉野５丁目２番７号,,27,103,5530006,,,,,,,2025-02-21,1,,,,,レイワミライ,0
949,4120005024805,新規,0,2025-02-21,2025-02-21,一般社団法人ＰＬＡＹＧＲＯＵＮＤＬＡＢ,,その他の設立登記法人,大阪府,大阪市北区,梅田１丁目２番２号大阪駅前第２ビル１２－１２,,27,127,5300001,,,,,,,2025-02-21,1,,,,,プレイグラウンドラボ,0
952,4120901050474,新規,0,2025-02-21,2025-02-21,株式会社Ｆｕｎ・Ｆｉｒｓｔ,,株式会社,大阪府,豊中市,北緑丘２丁目５番８の２号,,27,203,5600001,,,,,,,2025-02-21,1,,,,,ファンファースト,0
955,4130001079059,新規,0,2025-02-21,2025-02-21,株式会社ＦＲｅＸ,,株式会社,京都府,京都市下京区,大黒町２２７番地第２キョートビル４０２,,26,106,6008043,,,,,,,2025-02-21,1,,,,,フレックス,0
961,4140001137435,新規,0,2025-02-21,2025-02-21,株式会社なかの屋,,株式会社,兵庫県,尼崎市,若王寺２丁目４０番１０号,,28,202,6610974,,,,,,,2025-02-21,1,,,,,ナカノヤ,0
962,4140001137476,新規,0,2025-02-21,2025-02-21,株式会社ｕｎｒａｖｅｌ,,株式会社,兵庫県,揖保郡太子町,老原５９７番地１,,28,464,6711553,,,,,,,2025-02-21,1,,,,,アンラベル,0
969,4150003003510,新規,0,2025-02-21,2025-02-21,ＪＴＣＡ　Ｂｒｉｄｇｅ　Ａｓｉａ合同会社,,合同会社,奈良県,奈良市,三条町４７５松田ビル２Ｆ,,29,201,6308244,,,,,,,2025-02-21,1,,,,,ジェーティーシーエーブリッジアジア,0
973,4180001165531,新規,0,2025-02-21,2025-02-21,株式会社リアンマーケティング,,株式会社,愛知県,名古屋市中区,千代田５丁目１８番２０号,,23,106,4600012,,,,,,,2025-02-21,1,,,,,リアンマーケティング,0
976,4180301039542,新規,0,2025-02-21,2025-02-21,株式会社ＡＲＴＳＵ　ＥＮＥＲＧＹ,,株式会社,愛知県,岡崎市,保久町字大束１２番地５９,,23,202,4443442,,,,,,,2025-02-21,1,,,,,アルツエナジー,0
982,4200001043461,新規,0,2025-02-21,2025-02-21,株式会社Ｋスタジオ,,株式会社,岐阜県,羽島郡岐南町,平島１丁目９８番地,,21,302,5016003,,,,,,,2025-02-21,1,,,,,ケースタジオ,0
991,4240001064561,新規,0,2025-02-21,2025-02-21,さくら産業保健株式会社,,株式会社,広島県,広島市南区,段原日出２丁目１０番１５号,,34,103,7320818,,,,,,,2025-02-21,1,,,,,サクラサンギョウホケン,0
998,4260001039917,新規,0,2025-02-21,2025-02-21,株式会社大翔技研,,株式会社,岡山県,倉敷市,徳芳２９２番地１,,33,202,7100011,,,,,,,2025-02-21,1,,,,,ダイトギケン,0
999,4260001039933,新規,0,2025-02-21,2025-02-21,株式会社セリス,,株式会社,岡山県,岡山市南区,豊成３丁目３番２９号,,33,104,7000942,,,,,,,2025-02-21,1,,,,,セリス,0
1001,4260003005074,新規,0,2025-02-21,2025-02-21,板谷会計合同会社,,合同会社,岡山県,倉敷市,田ノ上８５７番地,,33,202,7100831,,,,,,,2025-02-21,1,,,,,イタダニカイケイ,0
1011,4290003016399,新規,0,2025-02-21,2025-02-21,Ｈｉ＆Ｇｉ合同会社,,合同会社,福岡県,福岡市城南区,南片江４丁目１１番９号,,40,136,8140143,,,,,,,2025-02-21,1,,,,,ハイジ,0
1012,4290003016440,新規,0,2025-02-21,2025-02-21,ＡＮ　ＨＯＡ合同会社,,合同会社,福岡県,三井郡大刀洗町,大字鵜木１３９６－１アヴニール鵜木３－２０１,,40,503,8301224,,,,,,,2025-02-21,1,,,,,アンホア,0
1016,4290801031293,新規,0,2025-02-21,2025-02-21,株式会社住まいの再生工房,,株式会社,福岡県,北九州市小倉北区,大手町３番１号,,40,106,8030814,,,,,,,2025-02-21,1,,,,,スマイノサイセイコウボウ,0
1020,4310003004946,新規,0,2025-02-21,2025-02-21,合同会社それでも,,合同会社,長崎県,南島原市,西有家町須川２８０－２３,,42,214,8592212,,,,,,,2025-02-21,1,,,,,ソレデモ,0
1023,4330001032906,新規,0,2025-02-21,2025-02-21,株式会社ＬＩＮＫ,,株式会社,熊本県,熊本市中央区,下通２丁目１０番１９号プレジデント下通６０１号室,,43,101,8600807,,,,,,,2025-02-21,1,,,,,リンク,0
1027,4340005009817,新規,0,2025-02-21,2025-02-21,特定非営利活動法人福禄,,その他の設立登記法人,鹿児島県,鹿児島市,照国町３番２６－３０１号,,46,201,8920841,,,,,,,2025-02-21,1,,,,,フクロク,0
1033,4370001052280,新規,0,2025-02-21,2025-02-21,サーキュス株式会社,,株式会社,宮城県,仙台市青葉区,花京院１丁目２－１５ソララプラザ３Ｆ,,04,101,9800013,,,,,,,2025-02-21,1,,,,,サーキュス,0
1035,4380001035111,新規,0,2025-02-21,2025-02-21,株式会社Ｓ＆Ｓ,,株式会社,福島県,いわき市,中岡町１丁目４番地の４,,07,204,9748251,,,,,,,2025-02-21,1,,,,,エスアンドエス,0
1038,4390001017884,新規,0,2025-02-21,2025-02-21,株式会社うつしき手製所,,株式会社,山形県,山形市,南四番町２－１８,,06,201,9902444,,,,,,,2025-02-21,1,,,,,ウツシキテセイショ,0
1047,4470005006603,新規,0,2025-02-21,2025-02-21,特定非営利活動法人ハコスイグン,,その他の設立登記法人,香川県,三豊市,詫間町箱４６７番地２,,37,208,7691106,,,,,,,2025-02-21,1,,,,,,0
1050,4490001010978,新規,0,2025-02-21,2025-02-21,株式会社ＣＯＤＡＹＡ　ＣＯＭＰＡＮＹ,,株式会社,高知県,香美市,物部町山崎３５番地１,,39,212,7814402,,,,,,,2025-02-21,1,,,,,,0
1062,5010001252428,新規,0,2025-02-21,2025-02-21,稲成建設株式会社,,株式会社,東京都,千代田区,飯田橋３丁目１１番２０号山田ラインビル２－５階,,13,101,1020072,,,,,,,2025-02-21,1,,,,,イナリケンセツ,0
1063,5010001252436,新規,0,2025-02-21,2025-02-21,株式会社Ａｕｂｅ,,株式会社,東京都,中央区,銀座１丁目１８番６号,,13,102,1040061,,,,,,,2025-02-21,1,,,,,オーブ,0
1064,5010001252527,新規,0,2025-02-21,2025-02-21,株式会社Ｂｅｅ,,株式会社,東京都,千代田区,神田須田町１丁目７番地８ＶＯＲＴ秋葉原ＩＶ２Ｆ,00138086,13,101,1010041,,,,,,,2025-02-21,1,,,,,ビー,0
1066,5010003046522,新規,0,2025-02-21,2025-02-21,凛生合同会社,,合同会社,東京都,文京区,西片１丁目１５番７－１１０３号,,13,105,1130024,,,,,,,2025-02-21,1,,,,,リンセイ,0
1067,5010003046530,新規,0,2025-02-21,2025-02-21,アクメックスパートナーズ合同会社,,合同会社,東京都,中央区,日本橋室町１丁目１１番１２号日本橋水野ビル７階,,13,102,1030022,,,,,,,2025-02-21,1,,,,,アクメックスパートナーズ,0
1077,5010401188395,新規,0,2025-02-21,2025-02-21,ＬＹＯＮＥ　Ｇｒｏｕｐ　Ｊａｐａｎ株式会社,,株式会社,東京都,港区,北青山３丁目６番７号青山パラシオタワー１１階,,13,103,1070061,,,,,,,2025-02-21,1,,,,,リヨングループジャパン,0
1079,5010403034457,新規,0,2025-02-21,2025-02-21,合同会社ｎｅｏ,,合同会社,東京都,港区,北青山１丁目３－３三橋ビル３階,,13,103,1070061,,,,,,,2025-02-21,1,,,,,ネオ,0
1081,5010405024076,新規,0,2025-02-21,2025-02-21,一般社団法人日本タレントマネジメントユーザー協会,,その他の設立登記法人,東京都,港区,北青山１丁目３番１号アールキューブ青山３階,,13,103,1070061,,,,,,,2025-02-21,1,,,,,ニホンタレントマネジメントユーザーキョウカイ,0
1086,5010603011396,新規,0,2025-02-21,2025-02-21,合同会社センターライト,,合同会社,東京都,江東区,東砂２丁目１５－２０－３０６,,13,108,1360074,,,,,,,2025-02-21,1,,,,,センターライト,0
1087,5010701047292,新規,0,2025-02-21,2025-02-21,株式会社ＡＳＨＩＴＡ,,株式会社,東京都,品川区,上大崎３丁目１番１号,,13,109,1410021,,,,,,,2025-02-21,1,,,,,アシタ,0
1088,5010703007583,新規,0,2025-02-21,2025-02-21,サハラジャパン合同会社,,合同会社,東京都,品川区,南大井５丁目７番１０号区営住宅３０４,,13,109,1400013,,,,,,,2025-02-21,1,,,,,サハラジャパン,0
1089,5010803005289,新規,0,2025-02-21,2025-02-21,合同会社Ｔｈｅ　Ｄｒｅｓｓｉｎｇ　Ｌａｂ．,,合同会社,東京都,大田区,大森東２丁目１‐１０朝日マンション大森東９０２号室,,13,111,1430012,,,,,,,2025-02-21,1,,,,,ザドレッシングラボ,0
1090,5010901056861,新規,0,2025-02-21,2025-02-21,株式会社Ｆ．Ａ．Ｂ,,株式会社,東京都,世田谷区,宮坂３丁目１７番９号,,13,112,1560051,,,,,,,2025-02-21,1,,,,,ファブ,0
1091,5010903009727,新規,0,2025-02-21,2025-02-21,パーソナルエヌリソース合同会社,,合同会社,東京都,世田谷区,桜２丁目１８―４ツインパレス経堂１０７,,13,112,1560053,,,,,,,2025-02-21,1,,,,,パーソナルエヌリソース,0
1092,5010905004734,新規,0,2025-02-21,2025-02-21,一般社団法人子どもが笑えば世界が笑う,,その他の設立登記法人,東京都,世田谷区,等々力１丁目２９番１０号,,13,112,1580082,,,,,,,2025-02-21,1,,,,,コドモガワラエバセカイガワラウ,0
1097,5011001167830,新規,0,2025-02-21,2025-02-21,株式会社ハーモナイズ,,株式会社,東京都,渋谷区,桜丘町１４－１ハッチェリー渋谷,,13,113,1500031,,,,,,,2025-02-21,1,,,,,ハーモナイズ,0
1098,5011001167871,新規,0,2025-02-21,2025-02-21,株式会社Ａｈａ　Ｓｔｕｄｉｏ,,株式会社,東京都,渋谷区,渋谷２丁目１９番１５号宮益坂ビルディング６０９,,13,113,1500002,,,,,,,2025-02-21,1,,,,,アハスタジオ,0
1099,5011001167896,新規,0,2025-02-21,2025-02-21,株式会社ＧＯ　ＴＯ　ＤＥＳＩＧＮ,,株式会社,東京都,渋谷区,渋谷２丁目１９番１５－６０９号宮益坂ビルディング,,13,113,1500002,,,,,,,2025-02-21,1,,,,,ゴートゥーデザイン,0
1100,5011001167921,新規,0,2025-02-21,2025-02-21,株式会社ＵＮＩＣＯＲＮ　ＧＡＲＤＥＮ,,株式会社,東京都,渋谷区,宇田川町１２番３号,,13,113,1500042,,,,,,,2025-02-21,1,,,,,ユニコーンガーデン,0
1102,5011003021052,新規,0,2025-02-21,2025-02-21,合同会社クランベリー,,合同会社,東京都,渋谷区,富ヶ谷１丁目２７‐９,,13,113,1510063,,,,,,,2025-02-21,1,,,,,クランベリー,0
1105,5011101110748,新規,0,2025-02-21,2025-02-21,株式会社イロドリーム,,株式会社,東京都,新宿区,西新宿３丁目３番１３号西新宿水間ビル６階,,13,104,1600023,,,,,,,2025-02-21,1,,,,,イロドリーム,0
1113,5011601028449,新規,0,2025-02-21,2025-02-21,株式会社ＰＩＬＩＮＡ,,株式会社,東京都,練馬区,石神井台２丁目３３番８号,,13,120,1770045,,,,,,,2025-02-21,1,,,,,ピリナ,0
1114,5011603004613,新規,0,2025-02-21,2025-02-21,合同会社ＨＡＬＬＥＹ,,合同会社,東京都,練馬区,豊玉南１丁目９－１４ラシクラス豊玉南３０４号,,13,120,1760014,,,,,,,2025-02-21,1,,,,,ハレー,0
1115,5011603004621,新規,0,2025-02-21,2025-02-21,合同会社Ｙｏｋｏ　Ｎｉｓｈｉｙａｍａ,,合同会社,東京都,練馬区,貫井３丁目１５番１４号,,13,120,1760021,,,,,,,2025-02-21,1,,,,,ヨウコニシヤマ,0
1116,5011701028092,新規,0,2025-02-21,2025-02-21,興進パートナーズ株式会社,,株式会社,東京都,江戸川区,中葛西５丁目４１番１７－８０５号,,13,123,1340083,,,,,,,2025-02-21,1,,,,,コウシンパートナーズ,0
1118,5011801045657,新規,0,2025-02-21,2025-02-21,平山ワイヤーハーネス株式会社,,株式会社,東京都,足立区,大谷田１丁目２９番４号,,13,121,1200001,,,,,,,2025-02-21,1,,,,,ヒラヤマワイヤーハーネス,0
1125,5013101009631,新規,0,2025-02-21,2025-02-21,株式会社Ｅｍｏｔｉｏｎ,,株式会社,東京都,西多摩郡日の出町,大字平井３３０７番地２,,13,305,1900182,,,,,,,2025-02-21,1,,,,,エモーション,0
1137,5020001161454,新規,0,2025-02-21,2025-02-21,ネットノバ株式会社,,株式会社,神奈川県,横浜市港北区,新横浜３丁目９－５,,14,109,2220033,,,,,,,2025-02-21,1,,,,,ネットノバ,0
1142,5020003027843,新規,0,2025-02-21,2025-02-21,合同会社さかい構造設計,,合同会社,神奈川県,横浜市鶴見区,菅沢町１１番３号,,14,101,2300027,,,,,,,2025-02-21,1,,,,,サカイコウゾウセッケイ,0
1146,5021003015615,新規,0,2025-02-21,2025-02-21,東モータース合同会社,,合同会社,神奈川県,藤沢市,宮原３１８８－１０３,,14,205,2520826,,,,,,,2025-02-21,1,,,,,ヒガシモータース,0
1150,5030001164984,新規,0,2025-02-21,2025-02-21,株式会社ｅｄｅｎ,,株式会社,埼玉県,新座市,野寺２丁目１０－２１,,11,230,3520034,,,,,,,2025-02-21,1,,,,,エデン,0
1151,5030001164992,新規,0,2025-02-21,2025-02-21,株式会社ＴＦＹ　ＮＥＸＴ,,株式会社,埼玉県,深谷市,下手計１１８番地２,,11,218,3660002,,,,,,,2025-02-21,1,,,,,ティーエフワイネクスト,0
1158,5030003026183,新規,0,2025-02-21,2025-02-21,合同会社Ｌｉｎｏａ　Ｃｒｅａｔｉｏｎ,,合同会社,埼玉県,川越市,吉田新町３丁目８－１４,,11,201,3500808,,,,,,,2025-02-21,1,,,,,リノアクリエーション,0
1159,5030005022032,新規,0,2025-02-21,2025-02-21,農事組合法人ＤＨ１,,その他の設立登記法人,埼玉県,比企郡滑川町,大字土塩６０９－１,,11,341,3550801,,,,,,,2025-02-21,1,,,,,ディエイチイチ,0
1173,5040005022667,新規,0,2025-02-21,2025-02-21,一般社団法人ＺＯＩ,,その他の設立登記法人,千葉県,千葉市若葉区,加曽利町８３９番地,,12,104,2640017,,,,,,,2025-02-21,1,,,,,ゾイ,0
1178,5050001056180,新規,0,2025-02-21,2025-02-21,和楽夢株式会社,,株式会社,茨城県,ひたちなか市,大字足崎１４７４番地４４５,,08,221,3120003,,,,,,,2025-02-21,1,,,,,ワラム,0
1179,5050001056222,新規,0,2025-02-21,2025-02-21,株式会社アルアイレ,,株式会社,茨城県,水戸市,河和田２丁目２１番地の５,,08,201,3114152,,,,,,,2025-02-21,1,,,,,アルアイレ,0
1182,5050003008972,新規,0,2025-02-21,2025-02-21,ＮＩＳＡＬ　ＭＯＴＯＲＳ合同会社,,合同会社,茨城県,筑西市,幸町２丁目１４－１３ニュータウンハイツ１階１０３号室,,08,227,3080848,,,,,,,2025-02-21,1,,,,,ニサルモーターズ,0
1183,5060001037931,新規,0,2025-02-21,2025-02-21,株式会社高瀬電気,,株式会社,栃木県,矢板市,本町７番４－３号,,09,211,3292164,,,,,,,2025-02-21,1,,,,,タカセデンキ,0
1184,5070001042641,新規,0,2025-02-21,2025-02-21,株式会社ＳＲＬ,,株式会社,群馬県,太田市,龍舞町４５７２番４号,,10,205,3730806,,,,,,,2025-02-21,1,,,,,エスアールエル,0
1190,5080401027761,新規,0,2025-02-21,2025-02-21,株式会社ＹＳＫ,,株式会社,静岡県,浜松市中央区,中島４丁目２番４号,,22,138,4300856,,,,,,,2025-02-21,1,,,,,ワイエスケー,0
1197,5110003005674,新規,0,2025-02-21,2025-02-21,合同会社なかまいと,,合同会社,新潟県,新潟市西区,寺尾東１丁目４－１４,,15,107,9502054,,,,,,,2025-02-21,1,,,,,ナカマイト,0
1203,5120001273116,新規,0,2025-02-21,2025-02-21,三田株式会社,,株式会社,大阪府,大阪市生野区,新今里５丁目４番６－１０３号,,27,116,5440001,,,,,,,2025-02-21,1,,,,,ミタ,0
1204,5120001273132,新規,0,2025-02-21,2025-02-21,株式会社Ｌｕｎａ　Ｃａｒｅ,,株式会社,大阪府,大阪市浪速区,大国２丁目１２番２２－５０２号,,27,111,5560014,,,,,,,2025-02-21,1,,,,,ルナケア,0
1205,5120001273140,新規,0,2025-02-21,2025-02-21,株式会社未来創研,,株式会社,大阪府,大阪市大正区,平尾４丁目１１番７号共栄ビル２０４号室,,27,108,5510012,,,,,,,2025-02-21,1,,,,,ミライソウケン,0
1208,5120003028600,新規,0,2025-02-21,2025-02-21,ＯＷＬ合同会社,,合同会社,大阪府,大阪市浪速区,稲荷１丁目４番１８号２０２,,27,111,5560023,,,,,,,2025-02-21,1,,,,,アウル,0
1209,5120003028658,新規,0,2025-02-21,2025-02-21,大阪国際商事合同会社,,合同会社,大阪府,大阪市東住吉区,住道矢田５丁目１２番１０号－３０２号室,,27,121,5460022,,,,,,,2025-02-21,1,,,,,オオサカコクサイショウジ,0
1210,5120005024804,新規,0,2025-02-21,2025-02-21,一般社団法人アザレア,,その他の設立登記法人,大阪府,守口市,八雲西町１丁目２０番２号,,27,209,5700006,,,,,,,2025-02-21,1,,,,,アザレア,0
1212,5120101071114,新規,0,2025-02-21,2025-02-21,株式会社カロエ,,株式会社,大阪府,堺市西区,浜寺公園町３丁１９７番地１２（３０１号）,,27,144,5928346,,,,,,,2025-02-21,1,,,,,カロエ,0
1213,5120105009969,新規,0,2025-02-21,2025-02-21,一般社団法人飛鳥天の園,,その他の設立登記法人,大阪府,泉南市,北野２２９番地の１,,27,228,5900532,,,,,,,2025-02-21,1,,,,,アスカテンノソノ,0
1214,5120901050473,新規,0,2025-02-21,2025-02-21,Ｗｅｓｔ　Ｌｉｎｅ株式会社,,株式会社,大阪府,摂津市,鳥飼野々２丁目２番１－５０１号,,27,224,5660053,,,,,,,2025-02-21,1,,,,,ウエストライン,0
1215,5120901050481,新規,0,2025-02-21,2025-02-21,株式会社Ｏｈａｎａ,,株式会社,大阪府,高槻市,芥川町２丁目１３番２６－１０２号,,27,207,5691123,,,,,,,2025-02-21,1,,,,,オハナ,0
1218,5130001079041,新規,0,2025-02-21,2025-02-21,＿陽株式会社,00138084,株式会社,京都府,八幡市,八幡植松１１番地の１４,,26,210,6148076,,,,,,,2025-02-21,1,,,,,キンヨウ,0
1222,5130003010227,新規,0,2025-02-21,2025-02-21,合同会社Ｈ２Ｒ企画,,合同会社,京都府,京都市下京区,西七条北西野町５１番地,,26,106,6008878,,,,,,,2025-02-21,1,,,,,エイチツーアールキカク,0
1224,5140001137475,新規,0,2025-02-21,2025-02-21,中谷良造株式会社,,株式会社,兵庫県,神戸市兵庫区,上三条町１番２３－３０３号,,28,105,6520013,,,,,,,2025-02-21,1,,,,,ナカタニリョウゾウ,0
1225,5140001137525,新規,0,2025-02-21,2025-02-21,株式会社ＬｏｇｉＱ,,株式会社,兵庫県,神戸市東灘区,深江南町５丁目１番１号,,28,101,6580022,,,,,,,2025-02-21,1,,,,,ロジック,0
1227,5150001027881,新規,0,2025-02-21,2025-02-21,株式会社関西進学セミナー,,株式会社,奈良県,奈良市,富雄元町２丁目３番５号,,29,201,6310078,,,,,,,2025-02-21,1,,,,,カンサイシンガクセミナー,0
1228,5150001027898,新規,0,2025-02-21,2025-02-21,ドクトルアグリガーデン株式会社,,株式会社,奈良県,奈良市,山陵町１１００番地の２６,,29,201,6310803,,,,,,,2025-02-21,1,,,,,ドクトルアグリガーデン,0
1229,5160001026560,新規,0,2025-02-21,2025-02-21,株式会社昂塗,,株式会社,滋賀県,長浜市,南田附町３０３番地２９,,25,203,5260844,,,,,,,2025-02-21,1,,,,,コウト,0
1230,5160001026569,新規,0,2025-02-21,2025-02-21,ｗｅｅｋｅｎｄ不動産株式会社,,株式会社,滋賀県,草津市,平井１丁目１４番２６－１号,,25,206,5250023,,,,,,,2025-02-21,1,,,,,ウィークエンドフドウサン,0
1243,5180001165571,新規,0,2025-02-21,2025-02-21,株式会社アバンティ,,株式会社,愛知県,愛西市,内佐屋町郷３６番地７,,23,232,4960903,,,,,,,2025-02-21,1,,,,,アバンティ,0
1244,5180001165588,新規,0,2025-02-21,2025-02-21,株式会社ＲＤ　Ｆｏｏｄｓ,,株式会社,愛知県,春日井市,二子町２丁目１０番地１９,,23,206,4860955,,,,,,,2025-02-21,1,,,,,アールディーフーズ,0
1251,5180301039541,新規,0,2025-02-21,2025-02-21,株式会社ウイング,,株式会社,愛知県,豊橋市,松葉町１丁目９６番地サンビル８・４階右,,23,201,4400897,,,,,,,2025-02-21,1,,,,,ウイング,0
1258,5200001043436,新規,0,2025-02-21,2025-02-21,株式会社ポルテット,,株式会社,岐阜県,岐阜市,琴塚２丁目７番１９号,,21,201,5008222,,,,,,,2025-02-21,1,,,,,ポルテット,0
1263,5230001020754,新規,0,2025-02-21,2025-02-21,ＥＡＲＴＨ　Ｅｎｇｉｎｅｅｒｉｎｇ株式会社,,株式会社,富山県,黒部市,植木２０７番地５,,16,207,9380014,,,,,,,2025-02-21,1,,,,,アースエンジニアリング,0
1265,5230003002379,新規,0,2025-02-21,2025-02-21,合同会社ＩＫＫＩ,,合同会社,富山県,富山市,岩瀬松原町４２番地,,16,201,9318367,,,,,,,2025-02-21,1,,,,,イッキ,0
1267,5230005009439,新規,0,2025-02-21,2025-02-21,一般社団法人地域共創射水,,その他の設立登記法人,富山県,射水市,沖塚原７４７番地１,,16,211,9340055,,,,,,,2025-02-21,1,,,,,チイキキョウソウイミズ,0
1280,5290001109039,新規,0,2025-02-21,2025-02-21,株式会社Ｙｏｕ　ｏｎｌｙ　ｌｉｖｅ　ｏｎｃｅ,,株式会社,福岡県,福岡市中央区,渡辺通３丁目１０番２８号,,40,133,8100004,,,,,,,2025-02-21,1,,,,,ユーオンリーリブワンス,0
1285,5290003016456,新規,0,2025-02-21,2025-02-21,東京メディアスタジオ合同会社,,合同会社,福岡県,福岡市早良区,有田８丁目１８番４－３０５号美室団地,,40,137,8140033,,,,,,,2025-02-21,1,,,,,トウキョウメディアスタジオ,0
1286,5290801031292,新規,0,2025-02-21,2025-02-21,株式会社ＦＡＣＴ,,株式会社,福岡県,京都郡苅田町,富久町３番地３－１階,,40,621,8000300,,,,,,,2025-02-21,1,,,,,ファクト,0
1289,5310001019466,新規,0,2025-02-21,2025-02-21,ブリッジ株式会社,,株式会社,長崎県,長崎市,滑石３丁目５番３９号辻本アパート１０１,,42,201,8528061,,,,,,,2025-02-21,1,,,,,ブリッジ,0
1299,5360003014717,新規,0,2025-02-21,2025-02-21,多和田コンサルティングオフィス合同会社,,合同会社,沖縄県,宜野湾市,真志喜３丁目１－８,,47,205,9012224,,,,,,,2025-02-21,1,,,,,タワタコンサルティングオフィス,0
1302,5380001035102,新規,0,2025-02-21,2025-02-21,オガスプロダクション株式会社,,株式会社,福島県,福島市,大町２番８号アンザイビル４Ｆ,,07,201,9608041,,,,,,,2025-02-21,1,,,,,オガスプロダクション,0
1314,5430003017290,新規,0,2025-02-21,2025-02-21,ブレードレンダー合同会社,,合同会社,北海道,札幌市中央区,南八条西１２丁目１番３５号サングレース２０２号,,01,101,0640808,,,,,,,2025-02-21,1,,,,,ブレードレンダー,0
1315,5440003001665,新規,0,2025-02-21,2025-02-21,合同会社ｍａｇｎｉｆｉｑｕｅ３６,,合同会社,北海道,函館市,松陰町１９番１２－２号,,01,202,0400003,,,,,,,2025-02-21,1,,,,,マニフィックサンジュウロク,0
1319,5700150129266,新規,0,2025-02-21,2025-02-21,Ｅｌｅｖｅｎ　Ｌａｂｓ　Ｉｎｃ,,外国会社等,,,,,,,,１６９　Ｍａｄｉｓｏｎ　Ａｖｅ，＃２４８４，Ｎｅｗ　Ｙｏｒｋ，ＮＹ　１００１６，Ｕｎｉｔｅｄ　Ｓｔａｔｅｓ,,,,,,2025-02-21,1,,,,,イレブンラブス,0
1331,6010001252419,新規,0,2025-02-21,2025-02-21,株式会社Ｓａｓｓｙ,,株式会社,東京都,千代田区,平河町１丁目６番１５号ＵＳビル８０２号室,,13,101,1020093,,,,,,,2025-02-21,1,,,,,サジー,0
1332,6010001252550,新規,0,2025-02-21,2025-02-21,Ｄｒｅａｍｅｒｓ株式会社,,株式会社,東京都,中央区,銀座１丁目１２番４号Ｎ＆ＥＢＬＤ．６Ｆ,,13,102,1040061,,,,,,,2025-02-21,1,,,,,ドリーマーズ,0
1336,6010003046463,新規,0,2025-02-21,2025-02-21,合同会社ＭＫ,,合同会社,東京都,中央区,湊２丁目１１－１シティタワー銀座東ＳＯＨＯ４２４,,13,102,1040043,,,,,,,2025-02-21,1,,,,,エムケー,0
1345,6010401188428,新規,0,2025-02-21,2025-02-21,株式会社ＰＢｌｏｏｍ,,株式会社,東京都,港区,虎ノ門３丁目８番２５号近鉄虎ノ門ビル,,13,103,1050001,,,,,,,2025-02-21,1,,,,,ピブルーム,0
1347,6010403034464,新規,0,2025-02-21,2025-02-21,合同会社さくらグリーンファンド,,合同会社,東京都,港区,虎ノ門２丁目１０番４号オークラプレステージタワー,,13,103,1050001,,,,,,,2025-02-21,1,,,,,サクラグリーンファンド,0
1353,6010601066805,新規,0,2025-02-21,2025-02-21,聚繁星株式会社,,株式会社,東京都,江東区,亀戸１丁目８番２１号メゾンＫＡＴＯ２０５,,13,108,1360071,,,,,,,2025-02-21,1,,,,,シュウハンジョウ,0
1355,6010603011395,新規,0,2025-02-21,2025-02-21,Ｓｙｎｔｈｅｄｇｅ　Ａｄｖａｎｃｅｄ　Ｍａｔｅｒｉａｌｓ　Ｊａｐａｎ合同会社,,合同会社,東京都,江東区,有明３丁目７番２６号有明フロンティアビルＢ棟９階,,13,108,1350063,,,,,,,2025-02-21,1,,,,,シンセエッジアドバンストマテリアルジャパン,0
1358,6010701047267,新規,0,2025-02-21,2025-02-21,株式会社ＫＥＩエンタープライズ,,株式会社,東京都,品川区,上大崎２丁目１５番１９号,,13,109,1410021,,,,,,,2025-02-21,1,,,,,ケイエンタープライズ,0
1359,6010701047275,新規,0,2025-02-21,2025-02-21,日本東建株式会社,,株式会社,東京都,品川区,大崎１丁目１７番５－１００４号,,13,109,1410032,,,,,,,2025-02-21,1,,,,,ニホントウケン,0
1364,6010901056836,新規,0,2025-02-21,2025-02-21,株式会社ＲＯＯＦ,,株式会社,東京都,世田谷区,経堂４丁目８番１６号エスパシオ経堂１０２,,13,112,1560052,,,,,,,2025-02-21,1,,,,,ルーフ,0
1365,6010901056844,新規,0,2025-02-21,2025-02-21,ユニスター株式会社,,株式会社,東京都,世田谷区,上馬３丁目１８－１７－２０３,,13,112,1540011,,,,,,,2025-02-21,1,,,,,ユニスター,0
1366,6010901056860,新規,0,2025-02-21,2025-02-21,株式会社Ｅｘｖｉａ,,株式会社,東京都,世田谷区,太子堂４丁目１８番１５号マガザン三軒茶屋２・３Ｆ－３,,13,112,1540004,,,,,,,2025-02-21,1,,,,,エクスヴィア,0
1373,6011003021002,新規,0,2025-02-21,2025-02-21,Ａｒｔｉｔｈｍ合同会社,,合同会社,東京都,渋谷区,渋谷２丁目１９－１５宮益坂ビルディング６０９,,13,113,1500002,,,,,,,2025-02-21,1,,,,,アーティズム,0
1374,6011003021010,新規,0,2025-02-21,2025-02-21,ラスティック・パースウェーズ日本合同会社,,合同会社,東京都,渋谷区,富ヶ谷１丁目１４－１４スタンフォードアネックスビル３・４階,,13,113,1510063,,,,,,,2025-02-21,1,,,,,ラスティックパースウェーズニホン,0
1375,6011003021027,新規,0,2025-02-21,2025-02-21,合同会社Ｂｌｏｏｍｙ,,合同会社,東京都,目黒区,東山１丁目６番１３号リテーラ中目黒２０３号室,,13,110,1530043,,,,,,,2025-02-21,1,,,,,ブルーミー,0
1376,6011101110458,新規,0,2025-02-21,2025-02-21,ＳＡＡＲ　Ｒｅａｌ　Ｅｓｔａｔｅ株式会社,,株式会社,東京都,新宿区,弁天町４３－４,,13,104,1620851,,,,,,,2025-02-21,1,,,,,エスアーアーアーリアルエステート,0
1377,6011101110730,新規,0,2025-02-21,2025-02-21,株式会社レアフォース,,株式会社,東京都,新宿区,四谷坂町１２－２１コモンズビル４Ｆ,,13,104,1600002,,,,,,,2025-02-21,1,,,,,レアフォース,0
1378,6011103015572,新規,0,2025-02-21,2025-02-21,ＫＴ合同会社,,合同会社,東京都,新宿区,西新宿３丁目３番１３号西新宿水間ビル６階,,13,104,1600023,,,,,,,2025-02-21,1,,,,,ケーティー,0
1380,6011301030373,新規,0,2025-02-21,2025-02-21,株式会社Ｌｉｎｏａｌｏｈａ,,株式会社,東京都,杉並区,上井草１丁目３１番８号ＭＳ・Ｂｌｄｇ．２０２,,13,115,1670023,,,,,,,2025-02-21,1,,,,,リノアロハ,0
1382,6011501031733,新規,0,2025-02-21,2025-02-21,株式会社スモールリバー,,株式会社,東京都,荒川区,荒川３丁目３番７号八幡ビル１Ｆ,,13,118,1160002,,,,,,,2025-02-21,1,,,,,スモールリバー,0
1384,6011701028091,新規,0,2025-02-21,2025-02-21,恵泉株式会社,,株式会社,東京都,江戸川区,松島３丁目１４番７－３１２号若林ビル,,13,123,1320031,,,,,,,2025-02-21,1,,,,,ケイセン,0
1389,6012803003643,新規,0,2025-02-21,2025-02-21,ＵＮＤＥＲ　ＢＬＵＥ　ＨＯＬＤ合同会社,,合同会社,東京都,東大和市,向原１丁目３番地の２１－２Ｆ,,13,220,2070013,,,,,,,2025-02-21,1,,,,,アンダーブルーホールド,0
1393,6013301053809,新規,0,2025-02-21,2025-02-21,株式会社Ｌ．Ｓ,,株式会社,東京都,豊島区,東池袋３丁目１番１号サンシャイン６０、４５階,,13,116,1700013,,,,,,,2025-02-21,1,,,,,ルミナシーズ,0
1394,6013303007548,新規,0,2025-02-21,2025-02-21,合同会社ＪＩＪＩ,,合同会社,東京都,豊島区,池袋１丁目２番７号メゾン田中２０２号室,,13,116,1700014,,,,,,,2025-02-21,1,,,,,ジジ,0
1399,6020001161453,新規,0,2025-02-21,2025-02-21,オプティブ株式会社,,株式会社,神奈川県,横浜市都筑区,仲町台５丁目７番４－９１０号,,14,118,2240041,,,,,,,2025-02-21,1,,,,,オプティブ,0
1400,6020001161528,新規,0,2025-02-21,2025-02-21,株式会社木響舎,,株式会社,神奈川県,横浜市神奈川区,西寺尾２丁目１５番１５号パークサイドエム１Ｆ,,14,102,2210001,,,,,,,2025-02-21,1,,,,,コユラシャ,0
1404,6020003027859,新規,0,2025-02-21,2025-02-21,合同会社ＡＲＣＨ,,合同会社,神奈川県,横浜市緑区,長津田４丁目６番地４号,,14,113,2260027,,,,,,,2025-02-21,1,,,,,アーチ,0
1422,6030001164975,新規,0,2025-02-21,2025-02-21,株式会社なごみ,,株式会社,埼玉県,日高市,大字下大谷沢２４２番地２７,,11,242,3501221,,,,,,,2025-02-21,1,,,,,ナゴミ,0
1429,6030003026190,新規,0,2025-02-21,2025-02-21,合同会社ＣＬＯＶＥＲ,,合同会社,埼玉県,春日部市,大衾２２６番地４,,11,214,3440116,,,,,,,2025-02-21,1,,,,,クローバー,0
1430,6030005022031,新規,0,2025-02-21,2025-02-21,農事組合法人８２１,,その他の設立登記法人,埼玉県,比企郡滑川町,大字土塩６０９－１,,11,341,3550801,,,,,,,2025-02-21,1,,,,,ハチニイチ,0
1440,6050005013565,新規,0,2025-02-21,2025-02-21,行政書士法人橋本事務所,,その他の設立登記法人,茨城県,水戸市,栄町２丁目６番３８号,,08,201,3100064,,,,,,,2025-02-21,1,,,,,ハシモトジムショ,0
1444,6070001042640,新規,0,2025-02-21,2025-02-21,株式会社ＲＩＳ　ＬＩＦＥ,,株式会社,群馬県,高崎市,下佐野町１０２４番地３,,10,202,3700855,,,,,,,2025-02-21,1,,,,,リズライフ,0
1446,6070005010354,新規,0,2025-02-21,2025-02-21,特定非営利活動法人ＣＡＰぐんま,,その他の設立登記法人,群馬県,前橋市,＿島町６３番地１,00138085,10,201,3710817,,,,,,,2025-02-21,1,,,,,キャップグンマ,0
1465,6120001273024,新規,0,2025-02-21,2025-02-21,雲門国際株式会社,,株式会社,大阪府,大阪市中央区,島之内１丁目１３－３２,,27,128,5420082,,,,,,,2025-02-21,1,,,,,ウンモンコクサイ,0
1468,6120003028698,新規,0,2025-02-21,2025-02-21,合同会社大阪福島ゴルフ,,合同会社,大阪府,大阪市福島区,鷺洲３丁目７番２５－４０２号,,27,103,5530002,,,,,,,2025-02-21,1,,,,,オオサカフクシマゴルフ,0
1469,6120005024803,新規,0,2025-02-21,2025-02-21,一般社団法人ＣＳＶ事業者協会,,その他の設立登記法人,大阪府,大阪市北区,梅田２丁目４－１３阪神産經桜橋ビル６Ｆ,,27,127,5300001,,,,,,,2025-02-21,1,,,,,シーエスブイジギョウシャキョウカイ,0
1473,6120101071105,新規,0,2025-02-21,2025-02-21,株式会社一合,,株式会社,大阪府,泉佐野市,日根野４０７３番地１,,27,213,5980021,,,,,,,2025-02-21,1,,,,,イチゴウ,0
1474,6120101071113,新規,0,2025-02-21,2025-02-21,株式会社ＥＧＣ,,株式会社,大阪府,岸和田市,加守町４丁目３１番２６－１０５号,,27,202,5960042,,,,,,,2025-02-21,1,,,,,イージーシー,0
1480,6122001038919,新規,0,2025-02-21,2025-02-21,株式会社ジーテックス,,株式会社,大阪府,東大阪市,大蓮東４丁目１２番３０号,00138097,27,227,5770824,,,,,,,2025-02-21,1,,,,,ジーテックス,0
1481,6122005003811,新規,0,2025-02-21,2025-02-21,一般社団法人わ協会,,その他の設立登記法人,大阪府,四條畷市,大字下田原１２８９番地,,27,229,5750012,,,,,,,2025-02-21,1,,,,,ワキョウカイ,0
1487,6140001137400,新規,0,2025-02-21,2025-02-21,尼崎自動車株式会社,,株式会社,兵庫県,尼崎市,次屋３丁目１１番９号,,28,202,6610965,,,,,,,2025-02-21,1,,,,,アマガサキジドウシャ,0
1488,6140001137466,新規,0,2025-02-21,2025-02-21,Ｉｎｎｏｖａｔｉｏｎ　Ｔｒｅｅ　Ｋｏｂｅ株式会社,,株式会社,兵庫県,神戸市中央区,海岸通８番,,28,110,6500024,,,,,,,2025-02-21,1,,,,,イノベーションツリーコウベ,0
1491,6160001026568,新規,0,2025-02-21,2025-02-21,株式会社松居屋,,株式会社,滋賀県,米原市,顔戸１６００番地４,,25,214,5210072,,,,,,,2025-02-21,1,,,,,マツイヤ,0
1502,6180001165513,新規,0,2025-02-21,2025-02-21,株式会社太陽,,株式会社,愛知県,稲沢市,祖父江町四貫中四貫２番地,,23,220,4950033,,,,,,,2025-02-21,1,,,,,タイヨウ,0
1505,6180003028024,新規,0,2025-02-21,2025-02-21,Ｈｏｌｌｙ　Ｈｉｌｌ合同会社,,合同会社,愛知県,大府市,柊山町２丁目２２３番地,,23,223,4740053,,,,,,,2025-02-21,1,,,,,ホリーヒル,0
1506,6180003028032,新規,0,2025-02-21,2025-02-21,合同会社Ｎｅｘｔ　Ｐｈａｓｅ,,合同会社,愛知県,名古屋市中村区,名駅４丁目２４番５号第２森ビル４０１,,23,105,4500002,,,,,,,2025-02-21,1,,,,,ネクストフェーズ,0
1507,6180301039540,新規,0,2025-02-21,2025-02-21,株式会社ＢＬＡＣＫ,,株式会社,愛知県,豊橋市,松葉町１丁目９６番地サンビル８・１階,,23,201,4400897,,,,,,,2025-02-21,1,,,,,ブラック,0
1512,6190003004949,新規,0,2025-02-21,2025-02-21,グリーンホーネット合同会社,,合同会社,三重県,鳥羽市,相差町１４３９番地,,24,211,5170032,,,,,,,2025-02-21,1,,,,,グリーンホーネット,0
1518,6220003003955,新規,0,2025-02-21,2025-02-21,合同会社能登香,,合同会社,石川県,金沢市,疋田１丁目６５番２,,17,201,9200003,,,,,,,2025-02-21,1,,,,,ノドカ,0
1545,6290001109038,新規,0,2025-02-21,2025-02-21,株式会社黒栄電気,,株式会社,福岡県,福岡市城南区,長尾２丁目１３番３号,,40,136,8140123,,,,,,,2025-02-21,1,,,,,コクエイデンキ,0
1546,6290001109046,新規,0,2025-02-21,2025-02-21,エイト・シーズ株式会社,,株式会社,福岡県,大牟田市,新勝立町１丁目４８番地１渋谷ビル,,40,202,8360895,,,,,,,2025-02-21,1,,,,,エイトシーズ,0
1548,6290003016455,新規,0,2025-02-21,2025-02-21,合同会社Ｓｕｉｓａｎ,,合同会社,福岡県,福岡市博多区,博多駅前１丁目２３番２号ＰａｒｋＦｒｏｎｔ博多駅前１丁目５Ｆ－Ｂ,,40,132,8120011,,,,,,,2025-02-21,1,,,,,スイサン,0
1549,6290005019662,新規,0,2025-02-21,2025-02-21,一般社団法人南尾伊勢講会,,その他の設立登記法人,福岡県,飯塚市,南尾１０７番地３,,40,205,8200072,,,,,,,2025-02-21,1,,,,,ミナミオイセコウカイ,0
1551,6310001019465,新規,0,2025-02-21,2025-02-21,株式会社Ｆｉｒｓｔ,,株式会社,長崎県,佐世保市,湊町５番１０号エフチュール湊６０２,,42,202,8570055,,,,,,,2025-02-21,1,,,,,ファースト,0
1553,6330001032904,新規,0,2025-02-21,2025-02-21,株式会社Ｎｓ　ＴＥＣ,,株式会社,熊本県,熊本市中央区,米屋町３丁目２７番地１セシール米屋町２０２,,43,101,8600029,,,,,,,2025-02-21,1,,,,,エヌズテック,0
1557,6360003014699,新規,0,2025-02-21,2025-02-21,合同会社Ｎｅｘｔ　Ｉｍｐａｃｔ　Ｏｋｉｎａｗａ,,合同会社,沖縄県,中頭郡中城村,字添石３１１番地比嘉盛市方,,47,328,9012404,,,,,,,2025-02-21,1,,,,,ネクストインパクトオキナワ,0
1558,6370001052270,新規,0,2025-02-21,2025-02-21,株式会社ＳＴＨ１０,,株式会社,宮城県,仙台市青葉区,上杉３丁目３番３２－４０４号,,04,101,9800011,,,,,,,2025-02-21,1,,,,,エスティーエイチジュウ,0
1559,6370005010910,新規,0,2025-02-21,2025-02-21,一般社団法人資源再生センター,,その他の設立登記法人,宮城県,仙台市青葉区,堤町２丁目１７番５－１Ｆ,,04,101,9810912,,,,,,,2025-02-21,1,,,,,シゲンサイセイセンター,0
1564,6400001016949,新規,0,2025-02-21,2025-02-21,株式会社藤乃,,株式会社,岩手県,北上市,北鬼柳３地割１１５番地１,,03,206,0240072,,,,,,,2025-02-21,1,,,,,フジノ,0
1571,6480005007061,新規,0,2025-02-21,2025-02-21,一般社団法人ピースワーク,,その他の設立登記法人,徳島県,徳島市,幸町１丁目５４番地ラ・ビーナス幸６０５,,36,201,7700847,,,,,,,2025-02-21,1,,,,,ピースワーク,0
1572,6490001010976,新規,0,2025-02-21,2025-02-21,株式会社ハーモニクス,,株式会社,高知県,南国市,篠原１８３１番地１,,39,204,7830006,,,,,,,2025-02-21,1,,,,,ハーモニクス,0
1584,7010001252483,新規,0,2025-02-21,2025-02-21,株式会社３ｒｄ　Ｏｐｔｉｏｎ,,株式会社,東京都,中央区,銀座１丁目１２－４Ｎ＆ＥＢＬＤ．７階,,13,102,1040061,,,,,,,2025-02-21,1,,,,,サードオプション,0
1586,7010003046537,新規,0,2025-02-21,2025-02-21,合同会社Ｔｏｋｙｏ　ＩＰ,,合同会社,東京都,中央区,銀座１丁目１２番４号,,13,102,1040061,,,,,,,2025-02-21,1,,,,,トウキョウアイピー,0
1600,7010701047274,新規,0,2025-02-21,2025-02-21,株式会社ソーシャルホールディングス,,株式会社,東京都,品川区,東五反田５丁目１６番２３号,,13,109,1410022,,,,,,,2025-02-21,1,,,,,ソーシャルホールディングス,0
1601,7010701047282,新規,0,2025-02-21,2025-02-21,株式会社Ｓｉｅｎ,,株式会社,東京都,品川区,小山台１丁目１５－４,,13,109,1420061,,,,,,,2025-02-21,1,,,,,シエン,0
1606,7010901056827,新規,0,2025-02-21,2025-02-21,株式会社成城桂花,,株式会社,東京都,世田谷区,成城６丁目４番１３,,13,112,1570066,,,,,,,2025-02-21,1,,,,,セイジョウケイファ,0
1612,7011001167886,新規,0,2025-02-21,2025-02-21,株式会社斎藤ｇｒｅｅｎ,,株式会社,東京都,渋谷区,神南１丁目１４番７号ワイズ神南ビル２Ｆ,,13,113,1500041,,,,,,,2025-02-21,1,,,,,サイトウグリーン,0
1613,7011001167894,新規,0,2025-02-21,2025-02-21,Ｓｑｕｉｚｉｆｙ株式会社,,株式会社,東京都,渋谷区,大山町２４番５－１０４号パークコート渋谷大山町ザ・プラネ・清邸,,13,113,1510065,,,,,,,2025-02-21,1,,,,,スクィジファイ,0
1614,7011001167903,新規,0,2025-02-21,2025-02-21,株式会社ＮＡＫＡＭＡ　ＦＩＬＭ,,株式会社,東京都,目黒区,下目黒４丁目２番４号,,13,110,1530064,,,,,,,2025-02-21,1,,,,,ナカマフィルム,0
1615,7011001167911,新規,0,2025-02-21,2025-02-21,株式会社グランエトワール,,株式会社,東京都,渋谷区,鶯谷町１３番１号ラ・トゥール代官山Ｆ－５０２,,13,113,1500032,,,,,,,2025-02-21,1,,,,,グランエトワール,0
1616,7011001168026,新規,0,2025-02-21,2025-02-21,Ｇｌｏｂａｌ　Ｇａｔｅｗａｙ　Ｊａｐａｎ株式会社,,株式会社,東京都,渋谷区,桜丘町２５番１８号,,13,113,1500031,,,,,,,2025-02-21,1,,,,,グローバルゲートウェイジャパン,0
1617,7011003021042,新規,0,2025-02-21,2025-02-21,合同会社ＧＯＯＤ　ＳＴＡＦＦ,,合同会社,東京都,渋谷区,南平台町１５－１ライオンズマンション南平台６０１,,13,113,1500036,,,,,,,2025-02-21,1,,,,,グッドスタッフ,0
1620,7011005010869,新規,0,2025-02-21,2025-02-21,特定非営利活動法人Ｗｅｌｌｂｅｉｎｇ　Ｐｒｏｍｏｔｅｒｓ,,その他の設立登記法人,東京都,目黒区,鷹番２丁目１７番９号,,13,110,1520004,,,,,,,2025-02-21,1,,,,,,0
1622,7011101110738,新規,0,2025-02-21,2025-02-21,Ｃｈｕ‐ｌｕ株式会社,,株式会社,東京都,新宿区,揚場町２番２０号,,13,104,1620824,,,,,,,2025-02-21,1,,,,,チュール,0
1625,7011201026132,新規,0,2025-02-21,2025-02-21,株式会社寅卯,,株式会社,東京都,中野区,東中野３丁目２番４号ハイツたちばな１０２,,13,114,1640003,,,,,,,2025-02-21,1,,,,,トラウ,0
1630,7011501031749,新規,0,2025-02-21,2025-02-21,ＲＹＵＳＥＩ株式会社,,株式会社,東京都,北区,豊島２丁目２０－２５,,13,117,1140003,,,,,,,2025-02-21,1,,,,,リュウセイ,0
1632,7011503006435,新規,0,2025-02-21,2025-02-21,合同会社ＮＡＲＥＡＩ,,合同会社,東京都,荒川区,東日暮里４丁目３５番１６－３０５号,,13,118,1160014,,,,,,,2025-02-21,1,,,,,ナレアイ,0
1635,7011603004611,新規,0,2025-02-21,2025-02-21,合同会社ファンイノベーション,,合同会社,東京都,練馬区,南田中２丁目３番３号,,13,120,1770035,,,,,,,2025-02-21,1,,,,,ファンイノベーション,0
1637,7011803006671,新規,0,2025-02-21,2025-02-21,嘉辰合同会社,,合同会社,東京都,足立区,東和４丁目８－１２－６０２,,13,121,1200003,,,,,,,2025-02-21,1,,,,,ヨシトキ,0
1647,7012703003206,新規,0,2025-02-21,2025-02-21,Ａｅｓｔｈｉｏ合同会社,,合同会社,東京都,小平市,小川町１丁目９４４―３９ｅａｒｔｈｍｏｒｅ２０３,,13,211,1870032,,,,,,,2025-02-21,1,,,,,エスティオ,0
1654,7013303007547,新規,0,2025-02-21,2025-02-21,合同会社Ｋｏｔｚｋａｔｓ,,合同会社,東京都,豊島区,東池袋２丁目６２番８号ＢＩＧオフィスプラザ池袋１２０６,,13,116,1700013,,,,,,,2025-02-21,1,,,,,コツカツ,0
1655,7013305003692,新規,0,2025-02-21,2025-02-21,一般社団法人写研フォーキャストクラブ,,その他の設立登記法人,東京都,豊島区,南大塚２丁目３５番２号,,13,116,1700005,,,,,,,2025-02-21,1,,,,,シャケンフォーキャストクラブ,0
1665,7020001161493,新規,0,2025-02-21,2025-02-21,アストロ日本株式会社,,株式会社,神奈川県,横浜市港北区,篠原台町１１番２４号,,14,109,2220024,,,,,,,2025-02-21,1,,,,,アストロニホン,0
1666,7020001161543,新規,0,2025-02-21,2025-02-21,株式会社スィンセーログローバル,,株式会社,神奈川県,川崎市宮前区,東有馬５丁目３９－３５－２,,14,136,2160002,,,,,,,2025-02-21,1,,,,,スィンセーログローバル,0
1667,7020001161592,新規,0,2025-02-21,2025-02-21,株式会社中村,,株式会社,神奈川県,川崎市中原区,上丸子山王町１丁目１４４７－８,,14,133,2110002,,,,,,,2025-02-21,1,,,,,ナカムラ,0
1672,7020003027858,新規,0,2025-02-21,2025-02-21,合同会社住和,,合同会社,神奈川県,横浜市鶴見区,矢向３丁目１７番地５号２０３号室,,14,101,2300001,,,,,,,2025-02-21,1,,,,,スマイワ,0
1678,7021001084511,新規,0,2025-02-21,2025-02-21,株式会社後藤モータース,,株式会社,神奈川県,平塚市,入野２３７番地の６,,14,203,2591216,,,,,,,2025-02-21,1,,,,,ゴトウモータース,0
1697,7030003026165,新規,0,2025-02-21,2025-02-21,合同会社Ｅｔｅｒｎａ　Ｌｕｘ,,合同会社,埼玉県,富士見市,東みずほ台３丁目２７－７,,11,235,3540015,,,,,,,2025-02-21,1,,,,,エテルナラックス,0
1699,7030005022030,新規,0,2025-02-21,2025-02-21,農事組合法人はついち,,その他の設立登記法人,埼玉県,比企郡滑川町,大字土塩６０９－１,,11,341,3550801,,,,,,,2025-02-21,1,,,,,ハツイチ,0
1711,7050001056204,新規,0,2025-02-21,2025-02-21,株式会社ＫＡＺ電,,株式会社,茨城県,坂東市,逆井２８３３番地２２５,,08,228,3060501,,,,,,,2025-02-21,1,,,,,カズデン,0
1724,7090003002747,新規,0,2025-02-21,2025-02-21,グッドウィルスマイル合同会社,,合同会社,山梨県,大月市,猿橋町藤崎１５２９－３,,19,206,4090612,,,,,,,2025-02-21,1,,,,,グッドウィルスマイル,0
1727,7110005017187,新規,0,2025-02-21,2025-02-21,一般社団法人ミライノイロ,,その他の設立登記法人,新潟県,新発田市,金塚５００番地１,,15,206,9592464,,,,,,,2025-02-21,1,,,,,ミライノイロ,0
1737,7120001273122,新規,0,2025-02-21,2025-02-21,株式会社カイザイキャリア,,株式会社,大阪府,大阪市北区,芝田２丁目１番１８号西阪急ビル１階,,27,127,5300012,,,,,,,2025-02-21,1,,,,,カイザイキャリア,0
1739,7120003028656,新規,0,2025-02-21,2025-02-21,合同会社Ｎｏｖａｌｉｓ,,合同会社,大阪府,大阪市北区,梅田１丁目２番２号大阪駅前第２ビル１２－１２,,27,127,5300001,,,,,,,2025-02-21,1,,,,,ノヴァリス,0
1740,7120003028697,新規,0,2025-02-21,2025-02-21,合同会社ＧＴ　Ｗｏｒｋｓ,,合同会社,大阪府,大阪市北区,堂島１丁目３－１９,,27,127,5300003,,,,,,,2025-02-21,1,,,,,ジィーティーワークス,0
1749,7130001079056,新規,0,2025-02-21,2025-02-21,株式会社ＺＫ　ＴＲＡＤＩＮＧ,,株式会社,京都府,木津川市,加茂町里西鳥口７６番地コスモハイツ東１０２,,26,214,6191152,,,,,,,2025-02-21,1,,,,,ゼットケートレーディング,0
1750,7130003010225,新規,0,2025-02-21,2025-02-21,合同会社ＴＳＵＹＵＫＵＳＡ,,合同会社,京都府,京都市右京区,花園伊町３７ＰＬＡＺＡビル２Ｆ,,26,108,6168042,,,,,,,2025-02-21,1,,,,,ツユクサ,0
1756,7140001137473,新規,0,2025-02-21,2025-02-21,株式会社プライムケア,,株式会社,兵庫県,神戸市中央区,琴ノ緒町５丁目７番１９号,,28,110,6510094,,,,,,,2025-02-21,1,,,,,プライムケア,0
1760,7140003021691,新規,0,2025-02-21,2025-02-21,合同会社栄道,,合同会社,兵庫県,加古川市,野口町北野９９１番地の２１０,,28,210,6750011,,,,,,,2025-02-21,1,,,,,エイドウ,0
1761,7150001027888,新規,0,2025-02-21,2025-02-21,華自在株式会社,,株式会社,奈良県,天理市,中之庄町４５,,29,204,6320001,,,,,,,2025-02-21,1,,,,,カジザイ,0
1762,7150001027896,新規,0,2025-02-21,2025-02-21,株式会社ａｓｕｖｉｌｌｅ,,株式会社,奈良県,奈良市,平松４丁目８－４７,,29,201,6310846,,,,,,,2025-02-21,1,,,,,アスヴィル,0
1763,7160001026559,新規,0,2025-02-21,2025-02-21,株式会社Ｍ　ＬＩＦＥ,,株式会社,滋賀県,高島市,安曇川町川島１０９６番地１２,,25,212,5201231,,,,,,,2025-02-21,1,,,,,エムライフ,0
1764,7170005007133,新規,0,2025-02-21,2025-02-21,一般社団法人ギフトランド,,その他の設立登記法人,和歌山県,有田郡湯浅町,大字湯浅３０４０番地,,30,361,6430004,,,,,,,2025-02-21,1,,,,,ギフトランド,0
1768,7180001165553,新規,0,2025-02-21,2025-02-21,株式会社オートファジー,,株式会社,愛知県,小牧市,古雅３丁目８３番地４,,23,219,4850814,,,,,,,2025-02-21,1,,,,,オートファジー,0
1771,7180003028031,新規,0,2025-02-21,2025-02-21,合同会社シェル,,合同会社,愛知県,名古屋市港区,土古町２丁目２２番地（新土古荘４棟５０３号）,,23,111,4550068,,,,,,,2025-02-21,1,,,,,シェル,0
1773,7200003006703,新規,0,2025-02-21,2025-02-21,Ａ＆Ｄ　ＮＥＧＯＭＢＯ　ＥＮＴＥＲＰＲＩＳＥＳ合同会社,,合同会社,岐阜県,土岐市,駄知町１６９１番地の２,,21,212,5095401,,,,,,,2025-02-21,1,,,,,エーアンドディーネゴンボエンタープライゼス,0
1774,7220001026503,新規,0,2025-02-21,2025-02-21,株式会社仁,,株式会社,石川県,鳳珠郡穴水町,字旭ケ丘への７番地,,17,461,9270006,,,,,,,2025-02-21,1,,,,,ジン,0
1793,7290001109078,新規,0,2025-02-21,2025-02-21,株式会社サンセイ社,,株式会社,福岡県,福岡市南区,桧原６丁目１８番１０号,,40,134,8111355,,,,,,,2025-02-21,1,,,,,サンセイシャ,0
1800,7310001019464,新規,0,2025-02-21,2025-02-21,株式会社ケーエムビルド九州,,株式会社,長崎県,長崎市,昭和１丁目１１番１６－１２０１号,,42,201,8528145,,,,,,,2025-02-21,1,,,,,ケーエムビルドキュウシュウ,0
1807,7360001034814,新規,0,2025-02-21,2025-02-21,オルトスケープ株式会社,,株式会社,沖縄県,那覇市,泊２丁目１番地１８Ｔ＆Ｃ泊ビル４階,,47,201,9000012,,,,,,,2025-02-21,1,,,,,オルトスケープ,0
1808,7360003014715,新規,0,2025-02-21,2025-02-21,合同会社ＭＡＨＡＬＯ,,合同会社,沖縄県,宮古島市,伊良部字池間添７３６－８,,47,214,9060502,,,,,,,2025-02-21,1,,,,,マハロ,0
1813,7370001052286,新規,0,2025-02-21,2025-02-21,株式会社池ノ窪,,株式会社,宮城県,岩沼市,北長谷字畑向山３２番地,,04,211,9892455,,,,,,,2025-02-21,1,,,,,イケノクボ,0
1818,7380003005968,新規,0,2025-02-21,2025-02-21,合同会社クレスフォワード,,合同会社,福島県,福島市,森合字後口５番地の３９,,07,201,9608003,,,,,,,2025-02-21,1,,,,,クレスフォワード,0
1826,7430001093745,新規,0,2025-02-21,2025-02-21,株式会社アドニスジャパン,,株式会社,北海道,札幌市厚別区,厚別南３丁目１４番１３号,,01,108,0040022,,,,,,,2025-02-21,1,,,,,アドニスジャパン,0
1827,7430003017306,新規,0,2025-02-21,2025-02-21,合同会社Ｃｏｎｓｉｄｅｒａｔｉｏｎ,,合同会社,北海道,札幌市中央区,南二条西２２丁目１番５５ー１１０３号,,01,101,0640802,,,,,,,2025-02-21,1,,,,,コンシダレーション,0
1828,7430005015159,新規,0,2025-02-21,2025-02-21,一般社団法人劇団フルーツバスケット公演実行委員会,,その他の設立登記法人,北海道,札幌市中央区,南七条西２３丁目１番２０－１０５号,,01,101,0640807,,,,,,,2025-02-21,1,,,,,ゲキダンフルーツバスケットコウエンジッコウイインカイ,0
1839,8010001252292,新規,0,2025-02-21,2025-02-21,ランドバレー株式会社,,株式会社,東京都,中央区,日本橋中州８番３－１００３号,,13,102,1030000,,,,,,,2025-02-21,1,,,,,ランドバレー,0
1840,8010001252391,新規,0,2025-02-21,2025-02-21,株式会社秋葉塾,,株式会社,東京都,千代田区,丸の内１丁目１１番１号パシフィックセンチュリープレイス丸の内１３Ｆ,,13,101,1000005,,,,,,,2025-02-21,1,,,,,アキバジュク,0
1841,8010001252425,新規,0,2025-02-21,2025-02-21,ＫＪＩホールディングス株式会社,,株式会社,東京都,千代田区,丸の内２丁目２番３号丸の内仲通りビルＢ１Ｆ,,13,101,1000005,,,,,,,2025-02-21,1,,,,,ケイジェイアイホールディングス,0
1842,8010001252532,新規,0,2025-02-21,2025-02-21,東川地所株式会社,,株式会社,東京都,千代田区,内神田１丁目３番８号ステージ内神田ビル６階,,13,101,1010047,,,,,,,2025-02-21,1,,,,,ヒガシカワジショ,0
1847,8010003046536,新規,0,2025-02-21,2025-02-21,合同会社シアンホールディングス,,合同会社,東京都,中央区,勝どき４丁目６番２－３５２６号,,13,102,1040054,,,,,,,2025-02-21,1,,,,,シアンホールディングス,0
1859,8010401188368,新規,0,2025-02-21,2025-02-21,株式会社Ｓｉｎｃｅｒｅ,,株式会社,東京都,港区,東麻布１丁目９番１１号ＧＲＯＷＴＨＢＹＩＯＱＷ－１５－１２０３号,,13,103,1060044,,,,,,,2025-02-21,1,,,,,シンシア,0
1860,8010401188442,新規,0,2025-02-21,2025-02-21,ＩＡＰＦ２株式会社,,株式会社,東京都,港区,虎ノ門５丁目１３番１号虎ノ門４０ＭＴビル５階,,13,103,1050001,,,,,,,2025-02-21,1,,,,,アイエーピーエフツー,0
1861,8010403034454,新規,0,2025-02-21,2025-02-21,合同会社ｓｅｐｉａ,,合同会社,東京都,港区,新橋４丁目１４番１新橋ＡＵＮＢＬＤＧ４階,,13,103,1050004,,,,,,,2025-02-21,1,,,,,セピア,0
1864,8010601066811,新規,0,2025-02-21,2025-02-21,株式会社ＮＴＥＣ,,株式会社,東京都,江東区,東砂８丁目１９番４－６０２号,,13,108,1360074,,,,,,,2025-02-21,1,,,,,エヌテック,0
1865,8010601066828,新規,0,2025-02-21,2025-02-21,株式会社ＤＡＮＱ,,株式会社,東京都,墨田区,亀沢１丁目３－８－３０２,,13,107,1300014,,,,,,,2025-02-21,1,,,,,ダンク,0
1869,8010901056850,新規,0,2025-02-21,2025-02-21,Ｑｕｅ　Ｓｅｒａ，Ｓｅｒａ株式会社,,株式会社,東京都,世田谷区,上馬２丁目５番２号山岸方２０２,,13,112,1540011,,,,,,,2025-02-21,1,,,,,ケセラセラ,0
1874,8011001167877,新規,0,2025-02-21,2025-02-21,株式会社ＳＱＵＥＥＺＥ商事,,株式会社,東京都,渋谷区,神山町６番４号,,13,113,1500047,,,,,,,2025-02-21,1,,,,,スクイーズショウジ,0
1875,8011001167893,新規,0,2025-02-21,2025-02-21,株式会社Ｓｎｏｗｂａｌｌ,,株式会社,東京都,渋谷区,神南１丁目１１－４ＦＰＧリンクス神南５階,,13,113,1500041,,,,,,,2025-02-21,1,,,,,スノーボール,0
1876,8011001167910,新規,0,2025-02-21,2025-02-21,株式会社ＴＳＵＧＥ,,株式会社,東京都,渋谷区,桜丘町２６番１号セルリアンタワー１５階,,13,113,1500031,,,,,,,2025-02-21,1,,,,,ツゲ,0
1877,8011001167927,新規,0,2025-02-21,2025-02-21,慶和株式会社,,株式会社,東京都,渋谷区,恵比寿３丁目３６－１３ライオンズマンション広尾第２－１０７号室,,13,113,1500013,,,,,,,2025-02-21,1,,,,,ケイワ,0
1881,8011003021009,新規,0,2025-02-21,2025-02-21,合同会社Ｕｎｉｔｅ　Ｓｙｓｔｅｍ　Ｌａｂ,,合同会社,東京都,渋谷区,渋谷２丁目１９番１５号宮益坂ビルディング６０９,,13,113,1500002,,,,,,,2025-02-21,1,,,,,ユナイトシステムラボ,0
1882,8011003021017,新規,0,2025-02-21,2025-02-21,合同会社田田,,合同会社,東京都,渋谷区,神南１丁目１１番４号,,13,113,1500041,,,,,,,2025-02-21,1,,,,,ダダ,0
1883,8011003021025,新規,0,2025-02-21,2025-02-21,ｔｈｅ　ｓｏｕｎｄ　ｏｆ　ｃｏｌｏｒ合同会社,,合同会社,東京都,目黒区,自由が丘２丁目１６番１２号ＲＪ３,,13,110,1520035,,,,,,,2025-02-21,1,,,,,ザサウンドオブカラー,0
1891,8011101110745,新規,0,2025-02-21,2025-02-21,株式会社Ｔｅｋｏｎｏ,,株式会社,東京都,新宿区,西新宿７丁目５番５号Ｐｌａｚａ西新宿ＵＣＦ４階,,13,104,1600023,,,,,,,2025-02-21,1,,,,,テコノ,0
1899,8011503006434,新規,0,2025-02-21,2025-02-21,合同会社ＫＯＴＯＮＥ,,合同会社,東京都,荒川区,東日暮里４丁目３５－１６－３０５,,13,118,1160014,,,,,,,2025-02-21,1,,,,,コトネ,0
1908,8011801045654,新規,0,2025-02-21,2025-02-21,株式会社Ｓｕｎｆｌｏｗｅｒ,,株式会社,東京都,足立区,栗原３丁目２６番１号２Ｆ,,13,121,1230842,,,,,,,2025-02-21,1,,,,,サンフラワー,0
1909,8011801045662,新規,0,2025-02-21,2025-02-21,株式会社８ＪＵＭＰ,,株式会社,東京都,葛飾区,立石５丁目１８番２－１１０４号,,13,122,1240012,,,,,,,2025-02-21,1,,,,,エイトジャンプ,0
1915,8012801023773,新規,0,2025-02-21,2025-02-21,株式会社ＭｙＬ,,株式会社,東京都,国分寺市,東元町１丁目３３番２号ミナミマンション３０１,,13,214,1850022,,,,,,,2025-02-21,1,,,,,マイル,0
1917,8013301053807,新規,0,2025-02-21,2025-02-21,Ｓｈｉｎｅサービスコンサルティング株式会社,,株式会社,東京都,豊島区,南大塚２丁目１８－９,,13,116,1700005,,,,,,,2025-02-21,1,,,,,シャインサービスコンサルティング,0
1918,8013301053823,新規,0,2025-02-21,2025-02-21,ＯＮＥ　ＯＦ　Ａ　ＫＩＮＤ株式会社,,株式会社,東京都,豊島区,巣鴨１丁目２４番１２号アーバンポイント巣鴨５Ｆ,,13,116,1700002,,,,,,,2025-02-21,1,,,,,ワンオブアカインド,0
1919,8013303007546,新規,0,2025-02-21,2025-02-21,天晟合同会社,,合同会社,東京都,豊島区,西池袋１丁目３１－５白井ビル３－７号室,,13,116,1710021,,,,,,,2025-02-21,1,,,,,テンジョウ,0
1930,8021001084519,新規,0,2025-02-21,2025-02-21,旭和生命株式会社,,株式会社,神奈川県,横須賀市,湘南国際村１丁目９－１１,,14,201,2400107,,,,,,,2025-02-21,1,,,,,キョウワセイメイ,0
1939,8030001164908,新規,0,2025-02-21,2025-02-21,株式会社ＫＡＲＡ　ＢＬＡＺＥ,,株式会社,埼玉県,川口市,本町４丁目１３番４－２０５号,,11,203,3320012,,,,,,,2025-02-21,1,,,,,カラーブレイズ,0
1940,8030001164916,新規,0,2025-02-21,2025-02-21,株式会社Ｔ鉄,,株式会社,埼玉県,新座市,馬場３丁目８番２３－８号,,11,230,3520016,,,,,,,2025-02-21,1,,,,,ティーテツ,0
1941,8030001164998,新規,0,2025-02-21,2025-02-21,株式会社シーサー,,株式会社,埼玉県,川口市,柳崎４丁目２５番４号,,11,203,3330861,,,,,,,2025-02-21,1,,,,,シーサー,0
1945,8030003026065,新規,0,2025-02-21,2025-02-21,合同会社ＮＯＶ,,合同会社,埼玉県,越谷市,大字大泊２９８－５,,11,222,3430044,,,,,,,2025-02-21,1,,,,,ノブ,0
1946,8030003026131,新規,0,2025-02-21,2025-02-21,合同会社ＶＵ　ＳＵ８８,,合同会社,埼玉県,飯能市,柳町７番１０号ＫＩＶ商会館飯能Ｈ号室,,11,209,3570035,,,,,,,2025-02-21,1,,,,,ヴスハチハチ,0
1947,8030003026172,新規,0,2025-02-21,2025-02-21,ＦＡＲＨＡＮ　ＴＲＡＤＩＮＧ合同会社,,合同会社,埼玉県,羽生市,東２丁目１番４０号リトルアニマルＡ－１,,11,216,3480052,,,,,,,2025-02-21,1,,,,,ファルハントレーディング,0
1955,8040001137524,新規,0,2025-02-21,2025-02-21,株式会社ファミリエ,,株式会社,千葉県,船橋市,西船４丁目５番８号コンフォートＩＩ－１０４号,00138099,12,204,2730031,,,,,,,2025-02-21,1,,,,,ファミリエ,0
1962,8040005022672,新規,0,2025-02-21,2025-02-21,医療法人社団白松会,,その他の設立登記法人,千葉県,我孫子市,寿２丁目２５番１３号,,12,222,2701152,,,,,,,2025-02-21,1,,,,,ハクショウカイ,0
1966,8050003009019,新規,0,2025-02-21,2025-02-21,合同会社ＴＭＹ,,合同会社,茨城県,つくばみらい市,陽光台３丁目４１番地９,,08,235,3002358,,,,,,,2025-02-21,1,,,,,,0
1967,8060001037937,新規,0,2025-02-21,2025-02-21,株式会社フナカワギケン,,株式会社,栃木県,宇都宮市,鶴田町１９６０番地５０,,09,201,3200851,,,,,,,2025-02-21,1,,,,,フナカワギケン,0
1969,8070001042655,新規,0,2025-02-21,2025-02-21,株式会社ＴＫＪａｐａｎ,,株式会社,群馬県,前橋市,川原町１丁目２９－７,,10,201,3710046,,,,,,,2025-02-21,1,,,,,ティーケージャパン,0
1974,8090001019148,新規,0,2025-02-21,2025-02-21,Ｇ‐ライフ株式会社,,株式会社,山梨県,富士吉田市,松山５丁目１４番１号,,19,202,4030016,,,,,,,2025-02-21,1,,,,,ジーライフ,0
1986,8120001273138,新規,0,2025-02-21,2025-02-21,株式会社みはら,,株式会社,大阪府,大阪市中央区,南本町１丁目５－１４グルラジビル８階,,27,128,5410054,,,,,,,2025-02-21,1,,,,,ミハラ,0
1989,8120003028655,新規,0,2025-02-21,2025-02-21,ＨＭＨ合同会社,,合同会社,大阪府,大阪市生野区,巽北１丁目２－７－２０１号,,27,116,5440004,,,,,,,2025-02-21,1,,,,,エイチエムエイチ,0
1994,8120101071111,新規,0,2025-02-21,2025-02-21,ＫＩＨＡＲＡ　ＧＲＯＵＰ株式会社,,株式会社,大阪府,堺市堺区,幸通４－２３－２,,27,141,5900051,,,,,,,2025-02-21,1,,,,,キハラグループ,0
1999,8120901050470,新規,0,2025-02-21,2025-02-21,Ｆｕｎｍｉｘ株式会社,,株式会社,大阪府,箕面市,西宿３丁目８番３号,,27,220,5620034,,,,,,,2025-02-21,1,,,,,ファンミックス,0
2000,8120901050487,新規,0,2025-02-21,2025-02-21,エヌティ物流サービス株式会社,,株式会社,大阪府,摂津市,鳥飼西２丁目１６番５号,,27,224,5660072,,,,,,,2025-02-21,1,,,,,エヌティブツリュウサービス,0
2003,8122001038925,新規,0,2025-02-21,2025-02-21,ゆーかりファーム株式会社,,株式会社,大阪府,八尾市,福万寺町南１丁目１６番１,,27,212,5810843,,,,,,,2025-02-21,1,,,,,ユーカリファーム,0
2005,8130003010224,新規,0,2025-02-21,2025-02-21,合同会社まちづき,,合同会社,京都府,京都市下京区,高倉通五条下る３丁目升屋町６５番地,,26,106,6008195,,,,,,,2025-02-21,1,,,,,マチヅキ,0
2016,8140001137472,新規,0,2025-02-21,2025-02-21,ＡＤＯＣＣＯ株式会社,,株式会社,兵庫県,宝塚市,山本西２丁目１１番１０号,,28,214,6650884,,,,,,,2025-02-21,1,,,,,アドッコ,0
2017,8140001137489,新規,0,2025-02-21,2025-02-21,株式会社ｍｙ　ｈｏｍｅ,,株式会社,兵庫県,明石市,西明石北町３丁目３番８号,,28,203,6730018,,,,,,,2025-02-21,1,,,,,マイホーム,0
2023,8150003003507,新規,0,2025-02-21,2025-02-21,合同会社Ｕｉｉ,,合同会社,奈良県,吉野郡天川村,大字中谷１７６,,29,446,6380312,,,,,,,2025-02-21,1,,,,,ウィー,0
2024,8160001026566,新規,0,2025-02-21,2025-02-21,株式会社滋賀電気,,株式会社,滋賀県,草津市,矢橋町１８５１番地６,,25,206,5250066,,,,,,,2025-02-21,1,,,,,シガデンキ,0
2025,8160003003407,新規,0,2025-02-21,2025-02-21,合同会社ハル,,合同会社,滋賀県,守山市,二町町２３１‐３３,,25,207,5240043,,,,,,,2025-02-21,1,,,,,ハル,0
2027,8170003002168,新規,0,2025-02-21,2025-02-21,合同会社ＴＭＢ,,合同会社,和歌山県,和歌山市,有本２８８番地２,,30,201,6408390,,,,,,,2025-02-21,1,,,,,ティーエムビー,0
2036,8180001165560,新規,0,2025-02-21,2025-02-21,一二技術株式会社,,株式会社,愛知県,名古屋市中川区,戸田明正２丁目１９０５番地の１,,23,110,4540961,,,,,,,2025-02-21,1,,,,,イチニギジュツ,0
2042,8180003028022,新規,0,2025-02-21,2025-02-21,コウチセミナー＆コンサルティング合同会社,,合同会社,愛知県,知多郡武豊町,大字冨貴字外面５０番地２,,23,447,4702531,,,,,,,2025-02-21,1,,,,,コウチセミナーアンドコンサルティング,0
2045,8180303006462,新規,0,2025-02-21,2025-02-21,合同会社ふたつ矢,,合同会社,愛知県,豊橋市,東小田原町１０４番地,,23,201,4400886,,,,,,,2025-02-21,1,,,,,フタツヤ,0
2048,8190001032017,新規,0,2025-02-21,2025-02-21,株式会社Ｓｐｒｅａｄ,,株式会社,三重県,津市,高茶屋小森町２２６８番地１０,,24,201,5140817,,,,,,,2025-02-21,1,,,,,スプレッド,0
2051,8220001026502,新規,0,2025-02-21,2025-02-21,株式会社レノヴィオ,,株式会社,石川県,金沢市,田上新町１６２番地,,17,201,9201153,,,,,,,2025-02-21,1,,,,,レノヴィオ,0
2058,8240001064558,新規,0,2025-02-21,2025-02-21,株式会社ループ,,株式会社,広島県,安芸郡府中町,大須４丁目３番５号,,34,302,7350021,,,,,,,2025-02-21,1,,,,,ループ,0
2061,8240005015904,新規,0,2025-02-21,2025-02-21,一般社団法人中国地質調査業協会,,その他の設立登記法人,広島県,広島市中区,鉄砲町１番１８号,,34,101,7300017,,,,,,,2025-02-21,1,,,,,チュウゴクチシツチョウサギョウキョウカイ,0
2071,8320001020957,新規,0,2025-02-21,2025-02-21,株式会社ＣＡＬＩＣＯ,,株式会社,大分県,大分市,判田台南２丁目１６番１号,,44,201,8701109,,,,,,,2025-02-21,1,,,,,キャリコ,0
2086,8400001016947,新規,0,2025-02-21,2025-02-21,株式会社ＤＥＮＰＡＣＨＩ,,株式会社,岩手県,二戸市,浄法寺町里代２６番地,,03,213,0286904,,,,,,,2025-02-21,1,,,,,デンパチ,0
2091,8430001093736,新規,0,2025-02-21,2025-02-21,株式会社協和,,株式会社,北海道,札幌市南区,豊滝１丁目１番１号,,01,106,0612273,,,,,,,2025-02-21,1,,,,,キョウワ,0
2092,8430001093744,新規,0,2025-02-21,2025-02-21,株式会社トランスクール,,株式会社,北海道,苫小牧市,木場町１丁目４番１２号ＴＣビル,,01,213,0530033,,,,,,,2025-02-21,1,,,,,トランスクール,0
2095,8460001005977,新規,0,2025-02-21,2025-02-21,株式会社Ｙコーポレーション,,株式会社,北海道,釧路市,新富士町３丁目９番２２号,,01,206,0840904,,,,,,,2025-02-21,1,,,,,ワイコーポレーション,0
2106,9010001251839,新規,0,2025-02-21,2025-02-21,未来ワークスＡＩ株式会社,,株式会社,東京都,中央区,銀座５丁目２０３番地４,,13,102,1040061,,,,,,,2025-02-21,1,,,,,ミライワークスエーアイ,0
2116,9010401188359,新規,0,2025-02-21,2025-02-21,株式会社ｄｏｔ,,株式会社,東京都,港区,六本木４丁目１番４号黒崎ビル３階,,13,103,1060032,,,,,,,2025-02-21,1,,,,,ドット,0
2117,9010401188466,新規,0,2025-02-21,2025-02-21,株式会社ＰＩＴＨ,,株式会社,東京都,港区,北青山１丁目３番１号アールキューブ青山３階,,13,103,1070061,,,,,,,2025-02-21,1,,,,,ピス,0
2123,9010601066802,新規,0,2025-02-21,2025-02-21,株式会社ＨＩＮＴ,,株式会社,東京都,墨田区,吾妻橋１丁目７番５号１階,,13,107,1300001,,,,,,,2025-02-21,1,,,,,ヒント,0
2125,9010701047272,新規,0,2025-02-21,2025-02-21,株式会社ｗｏｃａｓｉ,,株式会社,東京都,品川区,小山３丁目６番１５－１００１号,,13,109,1420062,,,,,,,2025-02-21,1,,,,,ヲカシ,0
2130,9010901056841,新規,0,2025-02-21,2025-02-21,株式会社ｂｕｍｐｅｒ　ｒｅｃｏｒｄｓ,,株式会社,東京都,世田谷区,駒沢４丁目１８番１２－８０６号,,13,112,1540012,,,,,,,2025-02-21,1,,,,,バンパーレコーズ,0
2143,9011001167819,新規,0,2025-02-21,2025-02-21,エンドソリューション株式会社,,株式会社,東京都,渋谷区,神泉町１０番１５号アネックス神泉３０１,,13,113,1500045,,,,,,,2025-02-21,1,,,,,エンドソリューション,0
2144,9011001167827,新規,0,2025-02-21,2025-02-21,株式会社Ｓａｌｅｓ　Ｉｎｄｅｘ,,株式会社,東京都,渋谷区,神南１丁目１１－４ＦＰＧリンクス神南５階,,13,113,1500041,,,,,,,2025-02-21,1,,,,,,0
2145,9011001167835,新規,0,2025-02-21,2025-02-21,株式会社Ｔｈｕｎｄｅｒｍｅｄｉｃｏ,,株式会社,東京都,渋谷区,恵比寿西２丁目４番８号ウィンド恵比寿ビル８Ｆ,,13,113,1500021,,,,,,,2025-02-21,1,,,,,サンダーメディコ,0
2146,9011001167876,新規,0,2025-02-21,2025-02-21,株式会社ＳＱＵＥＥＺＥ　Ｈａｌｏ,,株式会社,東京都,渋谷区,神山町６番４号,,13,113,1500047,,,,,,,2025-02-21,1,,,,,スクイーズヘイロー,0
2147,9011001167942,新規,0,2025-02-21,2025-02-21,洪達株式会社,,株式会社,東京都,渋谷区,幡ヶ谷３丁目９番２号,,13,113,1510072,,,,,,,2025-02-21,1,,,,,ホンタツ,0
2148,9011001167975,新規,0,2025-02-21,2025-02-21,株式会社Ｔｉｔａｎ　Ｉｎｔｅｌｌｉｇｅｎｃｅ,,株式会社,東京都,渋谷区,渋谷１丁目２０番９号３０４,,13,113,1500002,,,,,,,2025-02-21,1,,,,,タイタンインテリジェンス,0
2151,9011003021016,新規,0,2025-02-21,2025-02-21,ワン・アンド・カンパニー合同会社,,合同会社,東京都,渋谷区,代々木１丁目１７番４号１階,,13,113,1510053,,,,,,,2025-02-21,1,,,,,ワンアンドカンパニー,0
2156,9011101110736,新規,0,2025-02-21,2025-02-21,林商事株式会社,,株式会社,東京都,新宿区,中落合３丁目１５番８号,,13,104,1610032,,,,,,,2025-02-21,1,,,,,リンショウジ,0
2165,9011503006433,新規,0,2025-02-21,2025-02-21,合同会社マシャ,,合同会社,東京都,荒川区,東日暮里４丁目３５番１６－３０５号,,13,118,1160014,,,,,,,2025-02-21,1,,,,,マシャ,0
2167,9011601028445,新規,0,2025-02-21,2025-02-21,株式会社Ｎ＆パートナーズ,,株式会社,東京都,練馬区,東大泉１丁目２８番１号グランエミオ大泉学園１階エミフィス大泉学園,,13,120,1780063,,,,,,,2025-02-21,1,,,,,エヌアンドパートナーズ,0
2171,9011801045661,新規,0,2025-02-21,2025-02-21,Ｒａｄｉａｎｃｅ　Ｉｎｔｅｒｎａｔｉｏｎａｌ株式会社,,株式会社,東京都,足立区,竹の塚４丁目３番１９－３０８号,,13,121,1210813,,,,,,,2025-02-21,1,,,,,レイディアンスインターナショナル,0
2173,9011803006694,新規,0,2025-02-21,2025-02-21,合同会社リブレイズ,,合同会社,東京都,足立区,江北４丁目１番７－１００１号,,13,121,1230872,,,,,,,2025-02-21,1,,,,,リブレイズ,0
2174,9012801023756,新規,0,2025-02-21,2025-02-21,金辰株式会社,,株式会社,東京都,立川市,錦町３丁目１２番１６号ハイネ立川２１０号室,,13,202,1900022,,,,,,,2025-02-21,1,,,,,キンタツ,0
2175,9012801023764,新規,0,2025-02-21,2025-02-21,株式会社ＳＡＰＡＮＡ,,株式会社,東京都,立川市,高松町３丁目１８番１９号コーポヤジマ１号棟３０５号室,,13,202,1900011,,,,,,,2025-02-21,1,,,,,サパナ,0
2178,9013303007545,新規,0,2025-02-21,2025-02-21,合同会社ＹＴＳＡ,,合同会社,東京都,豊島区,高田３丁目１４番２４－２０６号,,13,116,1710033,,,,,,,2025-02-21,1,,,,,ワイティーエスエー,0
2180,9020001161558,新規,0,2025-02-21,2025-02-21,株式会社ＡＶＡＴＥ　ｄｅｓｉｇｎ,,株式会社,神奈川県,横浜市港北区,綱島西２丁目５番３０号ライオンズマンション綱島３１４,,14,109,2230053,,,,,,,2025-02-21,1,,,,,アヴェーテデザイン,0
2191,9030001164989,新規,0,2025-02-21,2025-02-21,ＧＡＬＬＵＳ　ＪＡＰＡＮ株式会社,,株式会社,埼玉県,入間郡三芳町,大字北永井１５２番地１,,11,324,3540044,,,,,,,2025-02-21,1,,,,,ガルスジャパン,0
2192,9030001164997,新規,0,2025-02-21,2025-02-21,株式会社瑞興商事,,株式会社,埼玉県,川口市,並木元町３－２１,,11,203,3320033,,,,,,,2025-02-21,1,,,,,ズイコウショウジ,0
2202,9040001137481,新規,0,2025-02-21,2025-02-21,株式会社ボウサイ東葛,00138098,株式会社,千葉県,松戸市,上本郷３７６９番地,,12,207,2710064,,,,,,,2025-02-21,1,,,,,ボウサイトウカツ,0
2203,9040001137523,新規,0,2025-02-21,2025-02-21,株式会社ＭＣＨ,,株式会社,千葉県,船橋市,高野台５丁目６番３３－２０３号,,12,204,2740801,,,,,,,2025-02-21,1,,,,,エムシーエイチ,0
2204,9040001137531,新規,0,2025-02-21,2025-02-21,Ｓｋｙ　Ｔｏｋｙｏ株式会社,,株式会社,千葉県,野田市,目吹１５６９番地１,,12,208,2780001,,,,,,,2025-02-21,1,,,,,スカイトウキョウ,0
2208,9050001056202,新規,0,2025-02-21,2025-02-21,ＲｅＯｐｔ株式会社,,株式会社,茨城県,つくば市,学園南２丁目６番地５－７０６号,,08,220,3050818,,,,,,,2025-02-21,1,,,,,リオプト,0
2210,9050003009042,新規,0,2025-02-21,2025-02-21,合同会社かいんど,,合同会社,茨城県,水戸市,渡里町３２６０－１,,08,201,3100902,,,,,,,2025-02-21,1,,,,,カインド,0
2211,9060001037936,新規,0,2025-02-21,2025-02-21,ＥｔｅｒｎａｌＢｏｎｄ株式会社,,株式会社,栃木県,宇都宮市,西刑部町２６２９－７,,09,201,3210917,,,,,,,2025-02-21,1,,,,,エターナルボンド,0
2212,9060001037944,新規,0,2025-02-21,2025-02-21,株式会社ＣＨＡｉＮＯＮ,,株式会社,栃木県,宇都宮市,インターパーク３丁目１３番地１７,,09,201,3210118,,,,,,,2025-02-21,1,,,,,シェノン,0
2213,9070001042638,新規,0,2025-02-21,2025-02-21,ＢＯＰＩＳＵＬ株式会社,,株式会社,群馬県,前橋市,千代田町２丁目１０番２号ｃｏｍｍ,,10,201,3710022,,,,,,,2025-02-21,1,,,,,ボピスル,0
2221,9080103003256,新規,0,2025-02-21,2025-02-21,合同会社Ｌ＆Ｍ,,合同会社,静岡県,沼津市,岡宮１３３９番地の５,,22,203,4100011,,,,,,,2025-02-21,1,,,,,エルアンドエム,0
2224,9080401027758,新規,0,2025-02-21,2025-02-21,株式会社御前崎ミライド,,株式会社,静岡県,御前崎市,佐倉２２５６番地の３,,22,223,4371604,,,,,,,2025-02-21,1,,,,,オマエザキミライド,0
2241,9120001272980,新規,0,2025-02-21,2025-02-21,ネクストイノベーション株式会社,,株式会社,大阪府,守口市,南寺方東通５丁目２０番２８号,,27,209,5700043,,,,,,,2025-02-21,1,,,,,ネクストイノベーション,0
2242,9120001272989,新規,0,2025-02-21,2025-02-21,緒方建設株式会社,,株式会社,大阪府,枚方市,香里ケ丘１０丁目８番地の３３,,27,210,5730084,,,,,,,2025-02-21,1,,,,,オガタケンセツ,0
2243,9120001273046,新規,0,2025-02-21,2025-02-21,株式会社Ｙｕｓｅｉ,,株式会社,大阪府,大阪市鶴見区,諸口１丁目６番２８－１３０４号,,27,124,5380051,,,,,,,2025-02-21,1,,,,,ユウセイ,0
2244,9120001273129,新規,0,2025-02-21,2025-02-21,株式会社一翔,,株式会社,大阪府,大阪市平野区,長吉出戸７丁目６番１５号,,27,126,5470011,,,,,,,2025-02-21,1,,,,,イット,0
2247,9120003028670,新規,0,2025-02-21,2025-02-21,合同会社武照,,合同会社,大阪府,大阪市港区,八幡屋２丁目３番９号,,27,107,5520014,,,,,,,2025-02-21,1,,,,,タケテル,0
2248,9120003028679,新規,0,2025-02-21,2025-02-21,ＡＷＳ合同会社,,合同会社,大阪府,大阪市北区,天神橋１丁目１１番７号,,27,127,5300041,,,,,,,2025-02-21,1,,,,,エイダブリューエス,0
2249,9120003028687,新規,0,2025-02-21,2025-02-21,イルミア合同会社,,合同会社,大阪府,大阪市北区,梅田１丁目２番２号大阪駅前第２ビル１２－１２,,27,127,5300001,,,,,,,2025-02-21,1,,,,,イルミア,0
2250,9120003028695,新規,0,2025-02-21,2025-02-21,Ｘｅｃｔｏｒｌ合同会社,,合同会社,大阪府,大阪市北区,梅田１丁目２番２号大阪駅前第２ビル１２－１２,,27,127,5300001,,,,,,,2025-02-21,1,,,,,セクターワン,0
2252,9120901050486,新規,0,2025-02-21,2025-02-21,株式会社Ｍｒ．,,株式会社,大阪府,高槻市,明野町２８番２０号,,27,207,5690082,,,,,,,2025-02-21,1,,,,,ミスター,0
2253,9120903005562,新規,0,2025-02-21,2025-02-21,合同会社かいこうけんカンパニー,,合同会社,大阪府,箕面市,桜ケ丘２丁目４番２７号,,27,220,5620046,,,,,,,2025-02-21,1,,,,,カイコウケンカンパニー,0
2255,9122003003125,新規,0,2025-02-21,2025-02-21,合同会社エム,,合同会社,大阪府,八尾市,西山本町７丁目７番２６号,,27,212,5810868,,,,,,,2025-02-21,1,,,,,エム,0
2256,9130001079046,新規,0,2025-02-21,2025-02-21,株式会社エコノミクス＆ストラテジー,,株式会社,京都府,京都市下京区,大黒町２２７番地第２キョートビル４０２,,26,106,6008043,,,,,,,2025-02-21,1,,,,,エコノミクスアンドストラテジー,0
2262,9140001137414,新規,0,2025-02-21,2025-02-21,株式会社柱,,株式会社,兵庫県,神戸市西区,今寺３７番地６,,28,111,6512114,,,,,,,2025-02-21,1,,,,,ハシラ,0
2263,9140001137447,新規,0,2025-02-21,2025-02-21,株式会社ＬＥＣＵＲＵ,,株式会社,兵庫県,神戸市兵庫区,上庄通２丁目１番３号,,28,105,6520862,,,,,,,2025-02-21,1,,,,,レクル,0
2264,9140001137471,新規,0,2025-02-21,2025-02-21,まほらまＤＸ株式会社,,株式会社,兵庫県,明石市,東仲ノ町６番１－１０１３号,,28,203,6730886,,,,,,,2025-02-21,1,,,,,マホラマディーエックス,0
2275,9180001165551,新規,0,2025-02-21,2025-02-21,みやぞの空設株式会社,,株式会社,愛知県,半田市,乙川源内林町２丁目１２８番地の１,,23,205,4750066,,,,,,,2025-02-21,1,,,,,ミヤゾノクウセツ,0
2280,9180003028038,新規,0,2025-02-21,2025-02-21,ＦＩＮＳＴＥＰ合同会社,,合同会社,愛知県,名古屋市中区,新栄１丁目８－３５,,23,106,4600007,,,,,,,2025-02-21,1,,,,,フィンステップ,0
2287,9190003004946,新規,0,2025-02-21,2025-02-21,Ｐｌｕｓ　Ｌａｂｏ合同会社,,合同会社,三重県,桑名市,外堀１１１番地１,,24,205,5110041,,,,,,,2025-02-21,1,,,,,プラスラボ,0
2302,9240005015903,新規,0,2025-02-21,2025-02-21,社会福祉法人くれんど,,その他の設立登記法人,広島県,呉市,安浦町水尻１丁目３番１号,,34,202,7372517,,,,,,,2025-02-21,1,,,,,クレンド,0
2305,9270003001712,新規,0,2025-02-21,2025-02-21,スマイルエンジニアリング合同会社,,合同会社,鳥取県,鳥取市,寿町７４７番地,,31,201,6800813,,,,,,,2025-02-21,1,,,,,スマイルエンジニアリング,0
2310,9290001109076,新規,0,2025-02-21,2025-02-21,株式会社ＪＩＮＪＩ８,,株式会社,福岡県,福岡市中央区,渡辺通５丁目１４－１２南天神ビル３Ｆ,,40,133,8100004,,,,,,,2025-02-21,1,,,,,ジンジヤ,0
2312,9290801031289,新規,0,2025-02-21,2025-02-21,株式会社チョクテル,,株式会社,福岡県,北九州市小倉北区,菜園場１丁目１－２２柏野ビル１Ｆ,,40,106,8030823,,,,,,,2025-02-21,1,,,,,チョクテル,0
2319,9360001034812,新規,0,2025-02-21,2025-02-21,株式会社農ＮＡＴＵＲＥ,,株式会社,沖縄県,中頭郡読谷村,字楚辺１３８０番地,,47,324,9040304,,,,,,,2025-02-21,1,,,,,ノウネイチャー,0
2320,9360003014705,新規,0,2025-02-21,2025-02-21,合同会社プラント,,合同会社,沖縄県,宮古島市,平良字下里８０４番地５,,47,214,9060013,,,,,,,2025-02-21,1,,,,,プラント,0
2324,9380001035107,新規,0,2025-02-21,2025-02-21,すえつぎフーズ株式会社,,株式会社,福島県,いわき市,久之浜町末続字深谷４１番地の５,,07,204,9790331,,,,,,,2025-02-21,1,,,,,スエツギフーズ,0
2326,9380003005966,新規,0,2025-02-21,2025-02-21,合同会社Ａ＆ＮＮ,,合同会社,福島県,いわき市,四倉町下仁井田字樋向１１２番地,,07,204,9790203,,,,,,,2025-02-21,1,,,,,エーアンドエヌエヌ,0
2327,9390001017888,新規,0,2025-02-21,2025-02-21,株式会社東北ＬＸ交通,,株式会社,山形県,東根市,鷺ノ森２丁目１番５８－７号,,06,211,9993703,,,,,,,2025-02-21,1,,,,,トウホクエルエックスコウツウ,0
2328,9400005008469,新規,0,2025-02-21,2025-02-21,特定非営利活動法人ｍｉｒａｉｔｏ,,その他の設立登記法人,岩手県,岩手郡岩手町,大字江刈内１０地割８,,03,303,0284303,,,,,,,2025-02-21,1,,,,,ミライト,0
2330,9420003003073,新規,0,2025-02-21,2025-02-21,合同会社ＳＯＥｍａｃｈｉｎｅ,,合同会社,青森県,青森市,港町２丁目１０番３６号２,,02,201,0300901,,,,,,,2025-02-21,1,,,,,,0
2333,9430001093743,新規,0,2025-02-21,2025-02-21,株式会社協和,,株式会社,北海道,札幌市豊平区,西岡五条１１丁目２９番３号,,01,105,0620035,,,,,,,2025-02-21,1,,,,,キョウワ,0
