sequenceNumber,corporateNumber,process,correct,updateDate,changeDate,name,nameImageId,kind,prefectureName,cityName,streetNumber,addressImageId,prefectureCode,cityCode,postCode,addressOutside,addressOutsideImageId,closeDate,closeCause,successorCorporateNumber,changeCause,assignmentDate,latest,enName,enPrefectureName,enCityName,enAddressOutside,furigana,hihyoji
38,1010601024544,登記記録の閉鎖等,0,2024-01-12,2024-01-04,株式会社ワールドアート,,株式会社,東京都,江東区,常盤１丁目１９番９号,,13,108,1350006,,,2024-01-04,清算の結了等,,,2015-10-05,1,,,,,ワールドアート,0
45,1010701034641,登記記録の閉鎖等,0,2024-01-12,2024-01-04,株式会社東京グローバル設計,,株式会社,神奈川県,横浜市青葉区,美しが丘１丁目１３番地１０吉村ビル１０７号室,,14,117,2250002,,,2024-01-04,清算の結了等,,,2017-08-24,1,,,,,トウキョウグローバルセッケイ,0
60,1011005009124,登記記録の閉鎖等,0,2024-01-12,2024-01-04,一般社団法人ウェルネスホライゾン創生機構,,その他の設立登記法人,東京都,渋谷区,神宮前６丁目２３番４号,,13,113,1500001,,,2024-01-04,清算の結了等,,,2021-07-21,1,,,,,ウェルネスホライゾンソウセイキコウ,0
82,1011802010531,登記記録の閉鎖等,0,2024-01-12,2024-01-04,有限会社エム・オー・シー,,有限会社,東京都,足立区,竹の塚１丁目３７番１０号,,13,121,1210813,,,2024-01-04,合併による解散等,3011801002230,令和６年１月１日東京都葛飾区高砂五丁目３５番１２号株式会社ジョイフル恵利（3011801002230）に合併し解散,2015-10-05,1,,,,,エムオーシー,0
84,1011802014177,登記記録の閉鎖等,0,2024-01-12,2024-01-09,有限会社ジュエリー紗紗,,有限会社,東京都,足立区,竹の塚２丁目３２番１２号,,13,121,1210813,,,2024-01-09,清算の結了等,,,2015-10-05,1,,,,,ジュエリーシャシャ,0
96,1020001117939,登記記録の閉鎖等,0,2024-01-12,2024-01-04,株式会社Ｉｃｏｎｌａｂ,,株式会社,東京都,新宿区,西新宿３丁目６番５号トーカン新宿キャステール５０８号室,,13,104,1600023,,,2024-01-04,清算の結了等,,,2016-09-21,1,,,,,アイコンラボ,0
125,1030003016923,登記記録の閉鎖等,0,2024-01-12,2024-01-04,合同会社ＷＡＮ　ＰＥＡＣＥ,,合同会社,埼玉県,和光市,白子１丁目２番４３－１０３号,,11,229,3510101,,,2024-01-04,清算の結了等,,,2021-03-26,1,,,,,ワンピース,0
140,1060002005841,登記記録の閉鎖等,0,2024-01-12,2024-01-04,有限会社田崎,,有限会社,栃木県,宇都宮市,戸祭元町３番３号エクセレンス元町１０１,,09,201,3200031,,,2024-01-04,合併による解散等,5060002011704,令和６年１月１日栃木県宇都宮市戸祭元町３番３号エクセレンス元町１０１株式会社中興（5060002011704）に合併し解散,2015-10-05,1,,,,,タサキ,0
148,1080001007944,登記記録の閉鎖等,0,2024-01-12,2024-01-09,株式会社グリーン・セイジュ,,株式会社,静岡県,静岡市清水区,宮加三７２７番地の１,,22,103,4240911,,,2024-01-09,清算の結了等,,,2015-10-05,1,,,,,グリーンセイジュ,0
831,1120901001595,登記記録の閉鎖等,0,2024-01-12,2024-01-04,株式会社西日本旅行,,株式会社,大阪府,茨木市,美穂ケ丘３番１号ジョイントビル３階,,27,211,5670047,,,2024-01-04,清算の結了等,,,2015-10-05,1,,,,,ニシニホンリョコウ,0
839,1130001052555,登記記録の閉鎖等,0,2024-01-12,2024-01-05,株式会社リホーム優家,,株式会社,京都府,京都市西京区,大原野上里北ノ町９０７－１０,,26,111,6101121,,,2024-01-05,清算の結了等,,,2015-10-05,1,,,,,リホームユウカ,0
841,1130002033059,登記記録の閉鎖等,0,2024-01-12,2024-01-09,有限会社高石建設,,有限会社,京都府,福知山市,字土３番地の７４,,26,201,6200808,,,2024-01-09,清算の結了等,,,2015-10-05,1,,,,,タカイシケンセツ,0
847,1140003006822,登記記録の閉鎖等,0,2024-01-12,2024-01-09,ルリックス合同会社,,合同会社,兵庫県,西宮市,高須町２丁目１番１９－１６０６号,,28,204,6638141,,,2024-01-09,清算の結了等,,,2015-10-05,1,,,,,ルリックス,0
860,1160002010971,登記記録の閉鎖等,0,2024-01-12,2023-12-26,有限会社寿し宮前屋,,有限会社,滋賀県,蒲生郡竜王町,大字山之上４６０３番地,,25,384,5202531,,,2023-12-26,清算の結了等,,,2015-10-05,1,,,,,スシミヤマエヤ,0
869,1180002064867,登記記録の閉鎖等,0,2024-01-12,2024-01-09,葵梱包有限会社,,有限会社,愛知県,春日井市,中央通１丁目２９番地の１,,23,206,4860825,,,2024-01-09,清算の結了等,,,2015-10-05,1,,,,,アオイコンポウ,0
876,1210001002618,登記記録の閉鎖等,0,2024-01-12,2024-01-11,株式会社二の丸商事,,株式会社,福井県,吉田郡永平寺町,松岡春日１丁目５１番地,,18,322,9101133,,,2024-01-11,清算の結了等,,,2015-10-05,1,,,,,ニノマルショウジ,0
877,1210001003970,登記記録の閉鎖等,0,2024-01-12,2024-01-10,株式会社マルテン,,株式会社,福井県,福井市,上天下町第２２号９２番地,,18,201,9103633,,,2024-01-10,清算の結了等,,,2015-10-05,1,,,,,マルテン,0
881,1220002005536,登記記録の閉鎖等,0,2024-01-12,2024-01-09,有限会社丸池商店,,有限会社,石川県,金沢市,高岡町１１番２号,,17,201,9200864,,,2024-01-09,清算の結了等,,,2015-10-05,1,,,,,マルイケショウテン,0
886,1260002011316,登記記録の閉鎖等,0,2024-01-12,2024-01-11,有限会社テニスショップまつかげ,,有限会社,岡山県,岡山市東区,瀬戸町瀬戸４１７番地の４,,33,103,7090861,,,2024-01-11,清算の結了等,,,2015-10-05,1,,,,,テニスショップマツカゲ,0
905,1310001001171,登記記録の閉鎖等,0,2024-01-12,2024-01-04,株式会社ティービーコーポレーション,,株式会社,長崎県,諫早市,津久葉町６番地１０,,42,204,8540065,,,2024-01-04,合併による解散等,4310001018535,令和６年１月１日長崎県諫早市津久葉町６番地１０九州興産株式会社（4310001018535）に合併し解散,2015-10-05,1,,,,,ティービーコーポレーション,0
910,1320002013173,登記記録の閉鎖等,0,2024-01-12,2024-01-09,有限会社十四代目おがわ屋,,有限会社,大分県,別府市,餅ケ浜町９番４１号,,44,202,8740924,,,2024-01-09,清算の結了等,,,2015-10-05,1,,,,,ジュウヨンダイメオガワヤ,0
914,1330002003561,登記記録の閉鎖等,0,2024-01-12,2024-01-04,有限会社熊本和服加工センター,,有限会社,熊本県,熊本市中央区,新屋敷１丁目１５番１号,,43,101,8620975,,,2024-01-04,清算の結了等,,,2015-10-05,1,,,,,クマモトワフクカコウセンター,0
931,1370001020249,登記記録の閉鎖等,0,2024-01-12,2023-12-28,Ｙｏｕｒ株式会社,,株式会社,東京都,港区,浜松町１丁目９番２号,,13,103,1050013,,,2023-12-28,清算の結了等,,,2015-10-05,1,,,,,,0
933,1370003003350,登記記録の閉鎖等,0,2024-01-12,2024-01-04,ウィングプラスリアルティ合同会社,,合同会社,宮城県,仙台市若林区,沖野１丁目３５番２３号２Ｆ,,04,103,9840831,,,2024-01-04,合併による解散等,5370001002953,令和６年１月１日仙台市若林区沖野一丁目３５番２３号敬信商事株式会社（5370001002953）に合併し解散,2016-02-17,1,,,,,ウィングプラスリアルティ,0
945,1440001004558,登記記録の閉鎖等,0,2024-01-12,2024-01-11,株式会社公務員協会,,株式会社,北海道,函館市,柏木町１４番１９号,,01,202,0420942,,,2024-01-11,登記官による閉鎖,,,2018-09-28,1,,,,,コウムインキョウカイ,0
946,1440001006991,登記記録の閉鎖等,0,2024-01-12,2024-01-11,株式会社ＧｌｏｂａｌＴｅｃｈ,,株式会社,北海道,函館市,戸倉町５番１号,,01,202,0420953,,,2024-01-11,登記官による閉鎖,,,2015-10-05,1,,,,,,0
947,1440002003567,登記記録の閉鎖等,0,2024-01-12,2024-01-11,有限会社はざま商事,,有限会社,北海道,函館市,亀田町１番１７号,,01,202,0400072,,,2024-01-11,登記官による閉鎖,,,2015-10-05,1,,,,,,0
948,1440002005373,登記記録の閉鎖等,0,2024-01-12,2024-01-11,有限会社ワーク・コレカワデザイン,,有限会社,北海道,函館市,榎本町２６番３２号,,01,202,0420931,,,2024-01-11,登記官による閉鎖,,,2015-10-05,1,,,,,,0
949,1440002008104,登記記録の閉鎖等,0,2024-01-12,2024-01-11,有限会社ＧＥＮＣＯ,,有限会社,北海道,函館市,日吉町２丁目２２番４号,,01,202,0410841,,,2024-01-11,登記官による閉鎖,,,2015-10-05,1,,,,,,0
950,1440003000828,登記記録の閉鎖等,0,2024-01-12,2024-01-11,浅利合名会社,,合名会社,北海道,茅部郡森町,字本町２１５番地,,01,345,0492325,,,2024-01-11,登記官による閉鎖,,,2015-10-05,1,,,,,,0
951,1440005001873,登記記録の閉鎖等,0,2024-01-12,2024-01-11,北海道森漁業企業組合,,その他の設立登記法人,北海道,茅部郡森町,字尾白内町７８番地,,01,345,0492301,,,2024-01-11,登記官による閉鎖,,,2015-10-05,1,,,,,,0
955,1460302000857,登記記録の閉鎖等,0,2024-01-12,2024-01-11,スノーラビット有限会社,,有限会社,北海道,北見市,川東５６番地８１,,01,208,0900807,,,2024-01-11,清算の結了等,,,2015-10-05,1,,,,,,0
956,1500002008980,登記記録の閉鎖等,0,2024-01-12,2024-01-10,有限会社デュークショップ,,有限会社,愛媛県,松山市,大街道２丁目１番地３,,38,201,7900004,,,2024-01-10,合併による解散等,5490001001514,令和６年１月１日高知市追手筋二丁目７番８号レジデンス大手前Ａ３Ｆ株式会社デューク（5490001001514）に合併し解散,2015-10-05,1,,,,,,0
991,2010801007546,登記記録の閉鎖等,0,2024-01-12,2024-01-09,株式会社テクニー,,株式会社,東京都,大田区,東糀谷４丁目７番６号,,13,111,1440033,,,2024-01-09,清算の結了等,,,2015-10-05,1,,,,,テクニー,0
1001,2010903001744,登記記録の閉鎖等,0,2024-01-12,2023-12-27,設計対話合同会社,,合同会社,東京都,世田谷区,奥沢３丁目３４番８号,,13,112,1580083,,,2023-12-27,清算の結了等,,,2015-10-05,1,,,,,セッケイタイワ,0
1010,2011101006998,登記記録の閉鎖等,0,2024-01-12,2024-01-09,株式会社コンソリデイテツドコンポーネンツインク,,株式会社,東京都,新宿区,富久町１６番１２号,,13,104,1620067,,,2024-01-09,清算の結了等,,,2015-10-05,1,,,,,コンソリデイテツドコンポーネンツインク,0
1029,2011501019369,登記記録の閉鎖等,0,2024-01-12,2023-12-27,株式会社ヒューマンネクスト,,株式会社,東京都,荒川区,西日暮里２丁目２５番１号,,13,118,1160013,,,2023-12-27,清算の結了等,,,2015-10-05,1,,,,,ヒューマンネクスト,0
1049,2020001111032,登記記録の閉鎖等,0,2024-01-12,2024-01-04,株式会社横浜鶴見,,株式会社,神奈川県,横浜市鶴見区,鶴見中央１丁目２７番５号,,14,101,2300051,,,2024-01-04,清算の結了等,,,2015-10-05,1,,,,,ヨコハマツルミ,0
1061,2020005012739,登記記録の閉鎖等,0,2024-01-12,2024-01-04,一般社団法人神奈川県女性薬剤師会,,その他の設立登記法人,神奈川県,川崎市高津区,溝口１丁目２１番５号世紀コーポ溝口５Ｂ,,14,134,2130001,,,2024-01-04,清算の結了等,,,2016-08-16,1,,,,,カナガワケンジョセイヤクザイシカイ,0
1065,2021002072081,登記記録の閉鎖等,0,2024-01-12,2024-01-10,有限会社ＨＮＣ,,有限会社,神奈川県,三浦市,初声町下宮田６０１番地１－１７０２,,14,210,2380111,,,2024-01-10,清算の結了等,,,2015-10-05,1,,,,,エイチエヌシー,0
1068,2030001038596,登記記録の閉鎖等,0,2024-01-12,2023-12-28,株式会社大塚,,株式会社,埼玉県,三郷市,鷹野１丁目１１６番地,,11,237,3410035,,,2023-12-28,清算の結了等,,,2015-10-05,1,,,,,オオツカ,0
1073,2030002095744,登記記録の閉鎖等,0,2024-01-12,2023-12-28,有限会社きたむら,,有限会社,埼玉県,東松山市,美土里町６番８７号,,11,212,3550027,,,2023-12-28,清算の結了等,,,2015-10-05,1,,,,,キタムラ,0
1085,2040002062116,登記記録の閉鎖等,0,2024-01-12,2023-12-26,コンダイル．プランニング有限会社,,有限会社,千葉県,四街道市,大日３２２番地１８,,12,228,2840001,,,2023-12-26,清算の結了等,,,2015-10-05,1,,,,,コンダイルプランニング,0
1092,2050002001056,登記記録の閉鎖等,0,2024-01-12,2024-01-05,有限会社相田商店,,有限会社,茨城県,水戸市,見和１丁目３３１番地７,,08,201,3100911,,,2024-01-05,清算の結了等,,,2015-10-05,1,,,,,アイタショウテン,0
1094,2050002027142,登記記録の閉鎖等,0,2024-01-12,2024-01-04,有限会社幸友,,有限会社,茨城県,神栖市,賀２３番地の１,,08,232,3140134,,,2024-01-04,清算の結了等,,,2015-10-05,1,,,,,コウユウ,0
1095,2060001010065,登記記録の閉鎖等,0,2024-01-12,2024-01-04,株式会社ル・ボーセモータースポーツ,,株式会社,茨城県,つくば市,上原２８５番地６,,08,220,3050055,,,2024-01-04,清算の結了等,,,2015-10-05,1,,,,,ルボーセモータースポーツ,0
1762,2110001032533,登記記録の閉鎖等,0,2024-01-12,2024-01-05,新潟・佐渡観光推進機構株式会社,,株式会社,新潟県,新潟市中央区,万代島９番１号,,15,103,9500078,,,2024-01-05,清算の結了等,,,2017-07-13,1,,,,,ニイガタサドカンコウスイシンキコウ,0
1783,2120102018728,登記記録の閉鎖等,0,2024-01-12,2024-01-11,有限会社徳州エンジニアリング,,有限会社,大阪府,藤井寺市,野中２丁目１番７号,,27,226,5830014,,,2024-01-11,清算の結了等,,,2015-10-05,1,,,,,,0
1789,2130002009652,登記記録の閉鎖等,0,2024-01-12,2024-01-05,有限会社インテルナおおくぼ,,有限会社,京都府,京都市東山区,今熊野椥ノ森町３１番地７,,26,105,6050971,,,2024-01-05,清算の結了等,,,2015-10-05,1,,,,,インテルナオオクボ,0
1793,2140001122298,登記記録の閉鎖等,0,2024-01-12,2023-12-28,株式会社西宮物流設計,,株式会社,兵庫県,西宮市,西宮浜４丁目１０番５－３０７号,,28,204,6620934,,,2023-12-28,清算の結了等,,,2021-07-15,1,,,,,ニシノミヤブツリュウセッケイ,0
1810,2180002026081,登記記録の閉鎖等,0,2024-01-12,2024-01-04,有限会社中部マシーナリー,,有限会社,愛知県,名古屋市緑区,ほら貝３丁目４５番地,,23,114,4580013,,,2024-01-04,清算の結了等,,,2015-10-05,1,,,,,チュウブマシーナリー,0
1822,2210002000941,登記記録の閉鎖等,0,2024-01-12,2024-01-10,有限会社金石,,有限会社,福井県,福井市,開発３丁目２５０９番地,,18,201,9100842,,,2024-01-10,清算の結了等,,,2015-10-05,1,,,,,カネイシ,0
1843,2280001008046,登記記録の閉鎖等,0,2024-01-12,2024-01-10,株式会社コバヤシ,,株式会社,島根県,大田市,大田町大田イ３７８番地１９,,32,205,6940064,,,2024-01-10,清算の結了等,,,2019-09-05,1,,,,,コバヤシ,0
1855,2290802007113,登記記録の閉鎖等,0,2024-01-12,2024-01-10,有限会社ワショウ,,有限会社,福岡県,北九州市小倉北区,下富野５丁目２４番２６号,,40,106,8020023,,,2024-01-10,清算の結了等,,,2015-10-05,1,,,,,ワショウ,0
1909,2390001004876,登記記録の閉鎖等,0,2024-01-12,2024-01-05,株式会社山形家敷,,株式会社,岩手県,北上市,常盤台４丁目１１番１２１号,,03,206,0240012,,,2024-01-05,合併による解散等,7400001006197,令和６年１月１日岩手県北上市常盤台四丁目１１番１２１号株式会社南部家敷（7400001006197）に合併し解散,2015-10-05,1,,,,,ヤマガタヤシキ,0
1913,2420005004415,登記記録の閉鎖等,0,2024-01-12,2023-12-25,下湯口生産森林組合,,その他の設立登記法人,青森県,弘前市,大字下湯口字青柳８３番地,,02,202,0368265,,,2023-12-25,清算の結了等,,,2015-10-05,1,,,,,シモユグチ,0
1919,2440001000333,登記記録の閉鎖等,0,2024-01-12,2024-01-11,株式会社音羽,,株式会社,北海道,函館市,松風町１４番１４号,,01,202,0400035,,,2024-01-11,登記官による閉鎖,,,2015-10-05,1,,,,,,0
1920,2440001002593,登記記録の閉鎖等,0,2024-01-12,2024-01-11,株式会社デノーラ,,株式会社,北海道,函館市,富岡町１丁目１５番２５号,,01,202,0410811,,,2024-01-11,登記官による閉鎖,,,2015-10-05,1,,,,,デノーラ,0
1921,2440001005803,登記記録の閉鎖等,0,2024-01-12,2024-01-11,株式会社シーフーズ,,株式会社,北海道,函館市,大縄町２２番１２号ロイヤルシャトー８８　１０２号,,01,202,0400062,,,2024-01-11,登記官による閉鎖,,,2015-10-05,1,,,,,,0
1948,3010005007111,登記記録の閉鎖等,0,2024-01-12,2024-01-09,特定非営利活動法人日本胸部外科学会,,その他の設立登記法人,東京都,文京区,後楽２丁目３番２７号テラル後楽ビル１階,,13,105,1120004,,,2024-01-09,清算の結了等,,,2015-10-05,1,,,,,ニホンキョウブゲカガッカイ,0
1966,3010501011987,登記記録の閉鎖等,0,2024-01-12,2024-01-05,株式会社フクヤ,,株式会社,東京都,台東区,浅草１丁目２８番１号,,13,106,1110032,,,2024-01-05,清算の結了等,,,2015-10-05,1,,,,,フクヤ,0
1972,3010603007355,登記記録の閉鎖等,0,2024-01-12,2024-01-04,合同会社ラネージュイースト,,合同会社,大阪府,池田市,城南３丁目１番１５－Ｃ－９０２号,,27,204,5630025,,,2024-01-04,清算の結了等,,,2018-08-06,1,,,,,ラネージュイースト,0
1983,3010901035710,登記記録の閉鎖等,0,2024-01-12,2023-12-27,株式会社Ｔｉｍｂｅｒ　Ｆｏｏｄ　Ｓｅｒｖｉｃｅ,,株式会社,東京都,世田谷区,南烏山６丁目４番１０号,,13,112,1570062,,,2023-12-27,清算の結了等,,,2015-10-05,1,,,,,ティンバーフードサービス,0
1997,3011201019668,登記記録の閉鎖等,0,2024-01-12,2023-12-28,東郷管理株式会社,,株式会社,東京都,千代田区,九段南４丁目７番２２－４０４号,,13,101,1020074,,,2023-12-28,合併による解散等,4010001232050,令和５年１２月２８日東京都千代田区九段南四丁目７番２２－４０４号東郷コンサルティング株式会社（4010001232050）に合併し解散,2017-02-06,1,,,,,トウゴウカンリ,0
2002,3011501002324,登記記録の閉鎖等,0,2024-01-12,2023-12-27,株式会社スズキアドデザイン社,,株式会社,東京都,北区,中十条３丁目８番５号,,13,117,1140032,,,2023-12-27,清算の結了等,,,2015-10-05,1,,,,,スズキアドデザインシャ,0
2011,3011801026238,登記記録の閉鎖等,0,2024-01-12,2024-01-09,株式会社ＢｅＯｎＴｏｐ,,株式会社,東京都,葛飾区,宝町１丁目２６番６－４０２号,,13,122,1240005,,,2024-01-09,合併による解散等,2360001019803,令和６年１月１日沖縄県豊見城市豊崎１－４１５豊崎レインボービル４０３Ｂｅｅｎｓ株式会社（2360001019803）に合併し解散,2015-10-05,1,,,,,ビーオントップ,0
2021,3020001078865,登記記録の閉鎖等,0,2024-01-12,2024-01-04,株式会社ダイワコーポレイション,,株式会社,神奈川県,川崎市多摩区,登戸１７７６番地１,,14,135,2140014,,,2024-01-04,清算の結了等,,,2015-10-05,1,,,,,ダイワコーポレイション,0
2031,3020002088764,登記記録の閉鎖等,0,2024-01-12,2024-01-04,有限会社京浜総業,,有限会社,神奈川県,川崎市宮前区,南野川２丁目４番８号,,14,136,2160042,,,2024-01-04,清算の結了等,,,2015-10-05,1,,,,,ケイヒンソウギョウ,0
2036,3030001064344,登記記録の閉鎖等,0,2024-01-12,2023-12-27,株式会社大明商事,,株式会社,埼玉県,越谷市,神明町１丁目２１１番地,,11,222,3430805,,,2023-12-27,清算の結了等,,,2015-10-05,1,,,,,ダイメイショウジ,0
2043,3030002067610,登記記録の閉鎖等,0,2024-01-12,2024-01-09,株式会社いわしや盛田器械店,,株式会社,埼玉県,富士見市,西みずほ台１丁目２番地６Ｕｃｈｉｄａビル２階,,11,235,3540018,,,2024-01-09,合併による解散等,6180001041516,令和６年１月１日名古屋市中区千代田二丁目１６番３０号株式会社八神製作所（6180001041516）に合併し解散,2015-10-05,1,,,,,イワシヤモリタキカイテン,0
2057,3040002100626,登記記録の閉鎖等,0,2024-01-12,2023-12-26,有限会社中部企業,,有限会社,千葉県,南房総市,千倉町北朝夷１８０番地,,12,234,2950011,,,2023-12-26,清算の結了等,,,2015-10-05,1,,,,,チュウブキギョウ,0
2061,3050002034278,登記記録の閉鎖等,0,2024-01-12,2023-12-28,有限会社神宮寺,,有限会社,茨城県,稲敷市,神宮寺４３９番地,,08,229,3000622,,,2023-12-28,清算の結了等,,,2015-10-05,1,,,,,ジングウジ,0
2062,3050002044962,登記記録の閉鎖等,0,2024-01-12,2023-12-28,有限会社ホテルやまこ,,有限会社,茨城県,結城市,大字結城６２２２番地,,08,207,3070001,,,2023-12-28,清算の結了等,,,2015-10-05,1,,,,,ホテルヤマコ,0
2066,3080001023444,登記記録の閉鎖等,0,2024-01-12,2024-01-10,株式会社新童,,株式会社,静岡県,静岡市駿河区,寿町１２番２９－３号,,22,102,4228055,,,2024-01-10,清算の結了等,,,2020-03-12,1,,,,,シンドウ,0
2730,3110001023548,登記記録の閉鎖等,0,2024-01-12,2024-01-05,ミノルユウキ株式会社,,株式会社,新潟県,長岡市,末広１丁目４番３１号,,15,202,9400834,,,2024-01-05,清算の結了等,,,2015-10-05,1,,,,,ミノルユウキ,0
2736,3120001026756,登記記録の閉鎖等,0,2024-01-12,2024-01-05,日立造船ツーリスト株式会社,,株式会社,大阪府,大阪市住之江区,南港北１丁目７番８９号,,27,125,5590034,,,2024-01-05,合併による解散等,2120001094928,令和６年１月１日大阪市住之江区南港北一丁目７番８９号株式会社エーエフシー（2120001094928）に合併し解散,2015-10-05,1,,,,,ヒタチゾウセンツーリスト,0
2737,3120001035848,登記記録の閉鎖等,0,2024-01-12,2024-01-05,東海商事株式会社,,株式会社,大阪府,大阪市西区,西本町２丁目３番１０号,,27,106,5500005,,,2024-01-05,合併による解散等,8120001035843,令和６年１月１日大阪市西区西本町二丁目３番１０号東海バネ工業株式会社（8120001035843）に合併し解散,2015-10-05,1,,,,,トウカイショウジ,0
2740,3120001136539,登記記録の閉鎖等,0,2024-01-12,2024-01-04,東西南北商館株式会社,,株式会社,大阪府,大阪市旭区,大宮４丁目２３番７号,,27,117,5350002,,,2024-01-04,合併による解散等,6120001254817,令和６年１月１日大阪市旭区大宮四丁目２３番７号ＧＡＵＮ株式会社（6120001254817）に合併し解散,2015-10-05,1,,,,,トウザイナンボクショウカン,0
2743,3120001218766,登記記録の閉鎖等,0,2024-01-12,2024-01-05,株式会社ＢＦＬＡＴ　Ｈｏｌｄｉｎｇｓ,,株式会社,大阪府,大阪市浪速区,桜川１丁目４番２１号,,27,111,5560022,,,2024-01-05,合併による解散等,8120001136352,令和５年１２月３１日大阪市浪速区桜川一丁目４番２１号株式会社ＢＦＬＡＴ（8120001136352）に合併し解散,2019-02-04,1,,,,,ビーフラットホールディングス,0
2756,3120901019074,登記記録の閉鎖等,0,2024-01-12,2024-01-04,株式会社アイダ,,株式会社,大阪府,摂津市,鳥飼野々３丁目３番４１号,,27,224,5660053,,,2024-01-04,合併による解散等,6120001094189,令和６年１月１日大阪府豊中市春日町四丁目４番２８号株式会社バフ（6120001094189）に合併し解散,2015-10-05,1,,,,,アイダ,0
2758,3120901036937,登記記録の閉鎖等,0,2024-01-12,2024-01-05,株式会社キッズサービス,,株式会社,大阪府,大阪市平野区,長吉出戸６丁目１４番３０号,,27,126,5470011,,,2024-01-05,合併による解散等,3120001021410,令和６年１月１日大阪市平野区長吉出戸六丁目１４番３０号株式会社ビティー（3120001021410）に合併し解散,2016-05-13,1,,,,,キッズサービス,0
2772,3140001026457,登記記録の閉鎖等,0,2024-01-12,2024-01-10,株式会社ＷＡ,,株式会社,兵庫県,神戸市中央区,三宮町１丁目４番４号木口ビル,,28,110,6500021,,,2024-01-10,清算の結了等,,,2015-10-05,1,,,,,ワ,0
2789,3160005008771,登記記録の閉鎖等,0,2024-01-12,2024-01-04,特定非営利活動法人エトコロ,,その他の設立登記法人,滋賀県,東近江市,林町２番地１,,25,213,5211224,,,2024-01-04,清算の結了等,,,2015-10-05,1,,,,,エトコロ,0
2799,3180002082363,登記記録の閉鎖等,0,2024-01-12,2024-01-04,有限会社大島電装,,有限会社,愛知県,岩倉市,大地町小森２５番地,,23,228,4820026,,,2024-01-04,清算の結了等,,,2015-10-05,1,,,,,オオシマデンソウ,0
2805,3180302006914,登記記録の閉鎖等,0,2024-01-12,2023-12-27,有限会社カーコレクション,,有限会社,愛知県,豊橋市,中浜町２９番地,,23,201,4418065,,,2023-12-27,清算の結了等,,,2015-10-05,1,,,,,カーコレクション,0
2808,3190002022104,登記記録の閉鎖等,0,2024-01-12,2024-01-05,有限会社マルトク,,有限会社,三重県,三重郡朝日町,大字縄生１０３７番地１,,24,343,5108101,,,2024-01-05,清算の結了等,,,2015-10-05,1,,,,,マルトク,0
2810,3210001014990,登記記録の閉鎖等,0,2024-01-12,2024-01-10,株式会社フソウ,,株式会社,福井県,福井市,若杉町第１号１番地３,,18,201,9188055,,,2024-01-10,清算の結了等,,,2015-10-05,1,,,,,フソウ,0
2812,3220001014429,登記記録の閉鎖等,0,2024-01-12,2024-01-09,株式会社マトブック,,株式会社,石川県,金沢市,高尾台１丁目４６番地１,,17,201,9218155,,,2024-01-09,清算の結了等,,,2015-10-05,1,,,,,マトブック,0
2823,3240002030191,登記記録の閉鎖等,0,2024-01-12,2023-12-27,有限会社ダイマルホーム,,有限会社,広島県,三次市,廻神町４７８番地１,,34,209,7296213,,,2023-12-27,清算の結了等,,,2015-10-05,1,,,,,ダイマルホーム,0
2825,3250001012025,登記記録の閉鎖等,0,2024-01-12,2024-01-05,岩国西生コン株式会社,,株式会社,山口県,岩国市,廿木４２３番地の１,,35,208,7400322,,,2024-01-05,清算の結了等,,,2015-10-05,1,,,,,イワクニニシナマコン,0
2839,3290001080489,登記記録の閉鎖等,0,2024-01-12,2024-01-04,株式会社モンテプロズ,,株式会社,福岡県,福岡市西区,生松台１丁目２４番２－１号,,40,135,8190044,,,2024-01-04,合併による解散等,4290001055647,令和６年１月１日福岡市博多区博多駅南一丁目３番１１号リフェコ株式会社（4290001055647）に合併し解散,2018-02-07,1,,,,,モンテプロズ,0
2843,3290002017969,登記記録の閉鎖等,0,2024-01-12,2024-01-04,有限会社柳生電装品サービス商会,,有限会社,福岡県,福岡市博多区,東光２丁目２０番３３号,,40,132,8120008,,,2024-01-04,合併による解散等,8290001017131,令和６年１月１日福岡市博多区東光二丁目２０番３３号柳生電装株式会社（8290001017131）に合併し解散,2015-10-05,1,,,,,ヤギュウデンソウヒンサービスショウカイ,0
2864,3340002028226,登記記録の閉鎖等,0,2024-01-12,2024-01-10,有限会社財部調剤薬局,,有限会社,鹿児島県,曽於市,財部町南俣１１２７２番地５,,46,217,8994101,,,2024-01-10,清算の結了等,,,2015-10-05,1,,,,,タカラベチョウザイヤッキョク,0
2865,3340003003095,登記記録の閉鎖等,0,2024-01-12,2024-01-11,合同会社ゆうこうファーム,,合同会社,鹿児島県,大島郡徳之島町,亀津４７８番地１,,46,530,8917101,,,2024-01-11,清算の結了等,,,2020-05-13,1,,,,,ユウコウファーム,0
2866,3340005001857,登記記録の閉鎖等,0,2024-01-12,2024-01-11,特定非営利活動法人交通事故被害者救済推進協会,,その他の設立登記法人,鹿児島県,鹿児島市,池之上町１７番１１号,,46,201,8920806,,,2024-01-11,清算の結了等,,,2015-10-05,1,,,,,コウツウジコヒガイシャキュウサイスイシンキョウカイ,0
2875,3370001010900,登記記録の閉鎖等,0,2024-01-12,2024-01-11,株式会社亘,,株式会社,宮城県,仙台市青葉区,上杉１丁目７番１号,,04,101,9800011,,,2024-01-11,清算の結了等,,,2015-10-05,1,,,,,ワタル,0
2892,3430003006254,登記記録の閉鎖等,0,2024-01-12,2023-12-28,株式会社システムメーク,,株式会社,北海道,札幌市東区,伏古八条３丁目８番１２号,,01,103,0070868,,,2023-12-28,清算の結了等,,,2015-10-05,1,,,,,システムメーク,0
2893,3440001006767,登記記録の閉鎖等,0,2024-01-12,2024-01-11,株式会社エムケイビルド,,株式会社,北海道,函館市,神山３丁目１０番９号,,01,202,0410832,,,2024-01-11,登記官による閉鎖,,,2015-10-05,1,,,,,,0
2894,3440001008219,登記記録の閉鎖等,0,2024-01-12,2024-01-11,株式会社テーオー池田,,株式会社,北海道,函館市,梁川町１０番２５号,,01,202,0400015,,,2024-01-11,登記官による閉鎖,,,2017-12-15,1,,,,,,0
2895,3440002000959,登記記録の閉鎖等,0,2024-01-12,2024-01-11,有限会社神田美術社,,有限会社,北海道,函館市,東川町８番３号,,01,202,0400042,,,2024-01-11,登記官による閉鎖,,,2015-10-05,1,,,,,カンダビジュツシャ,0
2896,3440005000205,登記記録の閉鎖等,0,2024-01-12,2024-01-11,医療法人社団五十嵐内科医院,,その他の設立登記法人,北海道,函館市,富岡町１丁目５１番２０号,,01,202,0410811,,,2024-01-11,登記官による閉鎖,,,2015-10-05,1,,,,,,0
2906,4010001178293,登記記録の閉鎖等,0,2024-01-12,2023-12-26,株式会社イノベーションパートナーズ,,株式会社,千葉県,浦安市,明海５丁目３番,,12,227,2790014,,,2023-12-26,清算の結了等,,,2016-09-12,1,,,,,イノベーションパートナーズ,0
2911,4010001206500,登記記録の閉鎖等,0,2024-01-12,2024-01-04,ＬＡＮＮＥＲ　ＴＥＣＨＮＯＬＯＧＹ　ＪＡＰＡＮ株式会社,,株式会社,東京都,千代田区,一番町４番５号ニューライフ一番町１０２号,,13,101,1020082,,,2024-01-04,清算の結了等,,,2020-01-10,1,,,,,レナーテクノロジージャパン,0
2932,4010402005889,登記記録の閉鎖等,0,2024-01-12,2023-12-28,有限会社シーオーツー,,有限会社,東京都,杉並区,久我山３丁目１番２７号,,13,115,1680082,,,2023-12-28,清算の結了等,,,2015-10-05,1,,,,,シーオーツー,0
2937,4010501050126,登記記録の閉鎖等,0,2024-01-12,2024-01-05,株式会社アイデアビズ,,株式会社,東京都,中央区,新川２丁目６番２号,,13,102,1040033,,,2024-01-05,合併による解散等,1010701035490,令和５年１２月１０日東京都台東区東上野二丁目２２番１０号東上野小池ビル５階株式会社ビー・サポート（1010701035490）に合併し解散,2023-03-10,1,,,,,アイデアビズ,0
3006,4030001003697,登記記録の閉鎖等,0,2024-01-12,2023-12-28,佐藤物流株式会社,,株式会社,埼玉県,さいたま市大宮区,三橋１丁目１０１０番地,,11,103,3300856,,,2023-12-28,清算の結了等,,,2015-10-05,1,,,,,サトウブツリュウ,0
3008,4030001113488,登記記録の閉鎖等,0,2024-01-12,2024-01-04,株式会社平屋住宅,,株式会社,埼玉県,熊谷市,樋春１９５８番地４,,11,202,3600112,,,2024-01-04,清算の結了等,,,2016-03-29,1,,,,,ヒラヤジュウタク,0
3012,4030002072246,登記記録の閉鎖等,0,2024-01-12,2023-12-25,有限会社石井商事,,有限会社,埼玉県,ふじみ野市,亀久保１６３７番地２,,11,245,3560051,,,2023-12-25,清算の結了等,,,2015-10-05,1,,,,,イシイショウジ,0
3028,4040002058442,登記記録の閉鎖等,0,2024-01-12,2024-01-11,有限会社三冨士建設,,有限会社,千葉県,鎌ケ谷市,軽井沢２１２９番６０,,12,224,2730131,,,2024-01-11,合併による解散等,3011501004304,令和５年１２月２９日東京都北区田端新町二丁目１６番８号堀建設株式会社（3011501004304）に合併し解散,2015-10-05,1,,,,,ミフジケンセツ,0
3030,4040002085016,登記記録の閉鎖等,0,2024-01-12,2023-12-26,有限会社菅谷工業,,有限会社,千葉県,旭市,萬歳３３８番地,,12,215,2890505,,,2023-12-26,清算の結了等,,,2015-10-05,1,,,,,,0
3038,4050002042354,登記記録の閉鎖等,0,2024-01-12,2024-01-05,有限会社人形の吉祥,,有限会社,茨城県,筑西市,樋口２１４番地,00023242,08,227,3080001,,,2024-01-05,清算の結了等,,,2015-10-05,1,,,,,ニンギョウノキッショウ,0
3046,4060001028106,登記記録の閉鎖等,0,2024-01-12,2024-01-04,株式会社梗芳メンテナンス,,株式会社,栃木県,宇都宮市,西の宮２丁目２番２２号,,09,201,3200064,,,2024-01-04,合併による解散等,9060001031294,令和６年１月１日栃木県宇都宮市西の宮二丁目２番２２号株式会社梗芳園（9060001031294）に合併し解散,2016-03-30,1,,,,,キョウホウメンテナンス,0
3053,4080001008519,登記記録の閉鎖等,0,2024-01-12,2024-01-09,静寿工業株式会社,,株式会社,静岡県,静岡市清水区,宮加三７２７番地の１,,22,103,4240911,,,2024-01-09,清算の結了等,,,2015-10-05,1,,,,,セイジュコウギョウ,0
3798,4120901039195,登記記録の閉鎖等,0,2024-01-12,2024-01-05,株式会社クレイン,,株式会社,大阪府,摂津市,南別府町８番４０号,,27,224,5660045,,,2024-01-05,清算の結了等,,,2017-11-14,1,,,,,クレイン,0
3809,4140001022257,登記記録の閉鎖等,0,2024-01-12,2024-01-04,株式会社ノーリツキャピタル,,株式会社,兵庫県,神戸市中央区,江戸町９３番地,,28,110,6500033,,,2024-01-04,合併による解散等,6140001046130,令和６年１月１日兵庫県加古郡稲美町国安１１２３株式会社エスコアハーツ（6140001046130）に合併し解散,2015-10-05,1,,,,,ノーリツキャピタル,0
3818,4140002041082,登記記録の閉鎖等,0,2024-01-12,2024-01-09,有限会社シーエイティー,,有限会社,兵庫県,尼崎市,南塚口町１丁目７番２７号,,28,202,6610012,,,2024-01-09,清算の結了等,,,2015-10-05,1,,,,,シーエイティー,0
3821,4150001019467,登記記録の閉鎖等,0,2024-01-12,2024-01-10,オーダック株式会社,,株式会社,奈良県,北葛城郡王寺町,太子３丁目１６番６号,,29,425,6360023,,,2024-01-10,清算の結了等,,,2015-10-05,1,,,,,オーダック,0
3838,4180301008258,登記記録の閉鎖等,0,2024-01-12,2023-12-27,株式会社洸陽,,株式会社,愛知県,豊橋市,前田南町１丁目１４番地の１３,,23,201,4400851,,,2023-12-27,清算の結了等,,,2015-10-05,1,,,,,コウヨウ,0
3843,4180303003380,登記記録の閉鎖等,0,2024-01-12,2023-12-26,合同会社ＩＭＡＩ,,合同会社,愛知県,西尾市,丁田町上ノ切４７番地１,,23,213,4450062,,,2023-12-26,清算の結了等,,,2015-10-05,1,,,,,イマイ,0
3866,4280002005577,登記記録の閉鎖等,0,2024-01-12,2024-01-10,有限会社白築建設,,有限会社,島根県,出雲市,見々久町１０９番地１,,32,203,6930215,,,2024-01-10,清算の結了等,,,2015-10-05,1,,,,,シラツキケンセツ,0
3884,4310002015275,登記記録の閉鎖等,0,2024-01-12,2024-01-04,有限会社早田商店,,有限会社,長崎県,諫早市,津久葉町６番地１０,,42,204,8540065,,,2024-01-04,合併による解散等,3310001007919,令和６年１月１日長崎県諫早市幸町１番２３号九州ガス株式会社（3310001007919）に合併し解散,2015-10-05,1,,,,,ソウダショウテン,0
3891,4350002011881,登記記録の閉鎖等,0,2024-01-12,2024-01-09,有限会社甲斐システム,,有限会社,宮崎県,延岡市,野地町６丁目２０１３番地９,,45,203,8820802,,,2024-01-09,清算の結了等,,,2015-10-05,1,,,,,カイシステム,0
3912,4440001001024,登記記録の閉鎖等,0,2024-01-12,2024-01-11,青函興産株式会社,,株式会社,北海道,函館市,金堀町１番９号,,01,202,0420944,,,2024-01-11,登記官による閉鎖,,,2015-10-05,1,,,,,,0
3913,4440002002582,登記記録の閉鎖等,0,2024-01-12,2024-01-11,有限会社タカサ工業,,有限会社,北海道,函館市,東山１丁目１２番９号,,01,202,0410835,,,2024-01-11,登記官による閉鎖,,,2018-03-01,1,,,,,,0
3914,4440002004141,登記記録の閉鎖等,0,2024-01-12,2024-01-11,有限会社北洋フーズ,,有限会社,北海道,函館市,石川町２１４番地２,,01,202,0410802,,,2024-01-11,登記官による閉鎖,,,2015-10-05,1,,,,,,0
3915,4440002009140,登記記録の閉鎖等,0,2024-01-12,2024-01-11,有限会社入丁豊岡商店,,有限会社,北海道,茅部郡森町,字上台町１３３番地,,01,345,0492311,,,2024-01-11,登記官による閉鎖,,,2015-10-05,1,,,,,,0
3918,4470005001505,登記記録の閉鎖等,0,2024-01-12,2024-01-11,医療法人社団高田耳鼻咽喉科医院,,その他の設立登記法人,香川県,高松市,松縄町１１４３番地２６,,37,201,7600079,,,2024-01-11,清算の結了等,,,2015-10-05,1,,,,,タカダジビインコウカイイン,0
3933,5010001132019,登記記録の閉鎖等,0,2024-01-12,2024-01-04,ＢＵＲＳＥＣ株式会社,,株式会社,神奈川県,横浜市中区,吉田町６５番地ＥＲＶＩＣ横浜１１Ｆ,,14,104,2310041,,,2024-01-04,清算の結了等,,,2015-10-05,1,,,,,バーセック,0
3943,5010401064497,登記記録の閉鎖等,0,2024-01-12,2023-12-28,株式会社ＫＩＭＭＹ’ｓ　ＡＨＥＡＤ,,株式会社,東京都,港区,新橋５丁目７番８号,,13,103,1050004,,,2023-12-28,清算の結了等,,,2015-10-05,1,,,,,キミーズアヘッド,0
3944,5010401083142,登記記録の閉鎖等,0,2024-01-12,2024-01-10,株式会社日本医科学研究所,,株式会社,東京都,港区,赤坂１丁目６番７号第９興和ビル別館６階,,13,103,1070052,,,2024-01-10,合併による解散等,7120001065313,令和５年１２月１５日東京都品川区西五反田三丁目１番９号マイカホールディングス株式会社（7120001065313）に合併し解散,2015-10-05,1,,,,,,0
3945,5010401094081,登記記録の閉鎖等,0,2024-01-12,2024-01-04,ｓｗｅｅｅｐ株式会社,,株式会社,東京都,品川区,大崎１丁目２番２号,,13,109,1410032,,,2024-01-04,合併による解散等,7010401100770,令和６年１月１日東京都品川区大崎一丁目２番２号フリー株式会社（7010401100770）に合併し解散,2015-10-05,1,,,,,スウィープ,0
3958,5010603005984,登記記録の閉鎖等,0,2024-01-12,2024-01-09,Ｐｕｒｐｌｅ合同会社,,合同会社,福岡県,北九州市小倉南区,山手１丁目２４番２３号,,40,107,8020982,,,2024-01-09,合併による解散等,8290801019616,令和５年１２月２７日東京都品川区上大崎二丁目６番４号株式会社ＫＲＫ（8290801019616）に合併し解散,2015-10-05,1,,,,,パープル,0
3971,5011001138105,登記記録の閉鎖等,0,2024-01-12,2024-01-09,Ｎｏｖｕｓ株式会社,,株式会社,東京都,渋谷区,渋谷２丁目１９番１５－６０９号,,13,113,1500002,,,2024-01-09,清算の結了等,,,2021-01-28,1,,,,,ノーバス,0
3988,5011301006738,登記記録の閉鎖等,0,2024-01-12,2023-12-22,株式会社マルイ電設,,株式会社,東京都,杉並区,高円寺南３丁目２１番１４号,,13,115,1660003,,,2023-12-22,清算の結了等,,,2015-10-05,1,,,,,マルイデンセツ,0
3990,5011301013362,登記記録の閉鎖等,0,2024-01-12,2023-12-28,アットイーズ株式会社,,株式会社,東京都,杉並区,上荻３丁目１６番１３号,,13,115,1670043,,,2023-12-28,清算の結了等,,,2015-10-05,1,,,,,アットイーズ,0
3998,5011801020701,登記記録の閉鎖等,0,2024-01-12,2024-01-09,株式会社ビーメタルワークス,,株式会社,東京都,葛飾区,東新小岩７丁目６番７号,,13,122,1240023,,,2024-01-09,清算の結了等,,,2015-10-05,1,,,,,,0
4007,5020001073039,登記記録の閉鎖等,0,2024-01-12,2023-12-27,三起商事株式会社,,株式会社,東京都,港区,芝浦４丁目５番４号,,13,103,1080023,,,2023-12-27,清算の結了等,,,2015-10-05,1,,,,,サンキショウジ,0
4009,5020001108554,登記記録の閉鎖等,0,2024-01-12,2024-01-04,株式会社マルセイ,,株式会社,神奈川県,川崎市川崎区,浜町４丁目２番１号,,14,131,2100851,,,2024-01-04,清算の結了等,,,2015-10-05,1,,,,,マルセイ,0
4036,5030002093992,登記記録の閉鎖等,0,2024-01-12,2023-12-26,有限会社魚勝商店,00017383,有限会社,埼玉県,入間郡毛呂山町,大字毛呂本郷１２６５番地,,11,326,3500451,,,2023-12-26,清算の結了等,,,2015-10-05,1,,,,,ウオカツショウテン,0
4043,5040002022678,登記記録の閉鎖等,0,2024-01-12,2023-12-26,有限会社進藤モータース,,有限会社,千葉県,船橋市,前原西１丁目３８番２号,,12,204,2740825,,,2023-12-26,清算の結了等,,,2015-10-05,1,,,,,シンドウモータース,0
4051,5060002002653,登記記録の閉鎖等,0,2024-01-12,2024-01-04,有限会社関西鉄工,,有限会社,栃木県,宇都宮市,西川田本町２丁目５番８号,,09,201,3210158,,,2024-01-04,清算の結了等,,,2015-10-05,1,,,,,カンサイテッコウ,0
4054,5060003004054,登記記録の閉鎖等,0,2024-01-12,2023-12-28,合同会社那須育成センター,,合同会社,栃木県,那須塩原市,青木９０８,,09,213,3250103,,,2023-12-28,清算の結了等,,,2022-04-28,1,,,,,ナスイクセイセンター,0
4752,5110001002822,登記記録の閉鎖等,0,2024-01-12,2024-01-09,株式会社鮮水,,株式会社,新潟県,新潟市江南区,茗荷谷７１１番地,,15,104,9500114,,,2024-01-09,清算の結了等,,,2015-10-05,1,,,,,センスイ,0
4755,5110003002234,登記記録の閉鎖等,0,2024-01-12,2024-01-09,株式会社高野輪店,00070570,株式会社,新潟県,南魚沼市,関１１０９番地,,15,226,9496371,,,2024-01-09,清算の結了等,,,2015-10-05,1,,,,,タカノリンテン,0
4771,5120101036884,登記記録の閉鎖等,0,2024-01-12,2024-01-10,新日本旅行サービス株式会社,,株式会社,大阪府,岸和田市,別所町１丁目９番１号,,27,202,5960045,,,2024-01-10,清算の結了等,,,2015-10-05,1,,,,,シンニホンリョコウサービス,0
4783,5140001052955,登記記録の閉鎖等,0,2024-01-12,2024-01-09,株式会社セイトウ,,株式会社,兵庫県,伊丹市,寺本１丁目１１５番地,,28,207,6640026,,,2024-01-09,清算の結了等,,,2015-10-05,1,,,,,セイトウ,0
4791,5140002046592,登記記録の閉鎖等,0,2024-01-12,2024-01-04,有限会社メルサバッグ,,有限会社,兵庫県,豊岡市,妙楽寺２６０番地,,28,209,6680056,,,2024-01-04,清算の結了等,,,2015-10-05,1,,,,,メルサバッグ,0
4793,5140002067960,登記記録の閉鎖等,0,2024-01-12,2023-12-21,有限会社エバーグレイス,,有限会社,兵庫県,宝塚市,すみれガ丘１丁目７番１－２１４号,,28,214,6650847,,,2023-12-21,清算の結了等,,,2015-10-05,1,,,,,エバーグレイス,0
4796,5150001016612,登記記録の閉鎖等,0,2024-01-12,2024-01-11,ソーシャルデザイン株式会社,,株式会社,奈良県,奈良市,西千代ヶ丘２丁目２番１１号,,29,201,6310046,,,2024-01-11,清算の結了等,,,2015-10-05,1,,,,,ソーシャルデザイン,0
4820,5200003005145,登記記録の閉鎖等,0,2024-01-12,2024-01-11,合同会社キミハネ,,合同会社,岐阜県,羽島市,舟橋町本町２丁目２２－８０３,,21,209,5016303,,,2024-01-11,清算の結了等,,,2021-03-24,1,,,,,キミハネ,0
4822,5210002010707,登記記録の閉鎖等,0,2024-01-12,2024-01-10,有限会社マルカ,,有限会社,福井県,敦賀市,本町１丁目１４番８号,,18,202,9140051,,,2024-01-10,清算の結了等,,,2015-10-05,1,,,,,マルカ,0
4836,5260002000686,登記記録の閉鎖等,0,2024-01-12,2024-01-10,有限会社石坂インテリア,,有限会社,岡山県,岡山市北区,横井上１６７８番地２,,33,101,7011145,,,2024-01-10,清算の結了等,,,2015-10-05,1,,,,,イシザカインテリア,0
4839,5280002008463,登記記録の閉鎖等,0,2024-01-12,2024-01-10,有限会社青海荘,,有限会社,島根県,浜田市,瀬戸ケ島町１０４番地３,,32,202,6970051,,,2024-01-10,清算の結了等,,,2015-10-05,1,,,,,セイカイソウ,0
4861,5330001028523,登記記録の閉鎖等,0,2024-01-12,2023-12-27,Ｄｅｌｔａ　Ｊａｐａｎ株式会社,,株式会社,熊本県,熊本市中央区,水前寺６丁目３１番２９号,,43,101,8620950,,,2023-12-27,清算の結了等,,,2021-04-22,1,,,,,デルタジャパン,0
4868,5340002022383,登記記録の閉鎖等,0,2024-01-12,2024-01-05,慶越建設工業有限会社,,有限会社,鹿児島県,阿久根市,折口７９３番地１,,46,206,8991601,,,2024-01-05,清算の結了等,,,2015-10-05,1,,,,,ケイゴエケンセツコウギョウ,0
4882,5370002014188,登記記録の閉鎖等,0,2024-01-12,2024-01-09,有限会社ルート・アイ,,有限会社,宮城県,仙台市青葉区,本町１丁目６番２５－１００８号,,04,101,9800014,,,2024-01-09,清算の結了等,,,2015-10-05,1,,,,,ルートアイ,0
4894,5440001002599,登記記録の閉鎖等,0,2024-01-12,2024-01-11,株式会社エポック・サービス,,株式会社,北海道,函館市,東雲町１番８号,,01,202,0400036,,,2024-01-11,登記官による閉鎖,,,2015-10-05,1,,,,,,0
4895,5440001006963,登記記録の閉鎖等,0,2024-01-12,2024-01-11,東和工業株式会社,,株式会社,北海道,函館市,陣川１丁目１４番２号,,01,202,0410837,,,2024-01-11,登記官による閉鎖,,,2015-10-05,1,,,,,,0
4896,5440002001955,登記記録の閉鎖等,0,2024-01-12,2024-01-11,有限会社サワダ建創,,有限会社,北海道,函館市,亀田港町１１番１３号,,01,202,0410822,,,2024-01-11,登記官による閉鎖,,,2015-10-05,1,,,,,,0
4897,5440005000145,登記記録の閉鎖等,0,2024-01-12,2024-01-11,函館林産協同組合,,その他の設立登記法人,北海道,函館市,港町１丁目１７番１７号,,01,202,0410821,,,2024-01-11,登記官による閉鎖,,,2015-10-05,1,,,,,,0
4898,5440005001234,登記記録の閉鎖等,0,2024-01-12,2024-01-11,フェイスコミュニケーション企業組合,,その他の設立登記法人,北海道,函館市,本通３丁目１８番１号,,01,202,0410851,,,2024-01-11,登記官による閉鎖,,,2015-10-05,1,,,,,,0
4914,6010001068658,登記記録の閉鎖等,0,2024-01-12,2024-01-09,株式会社アスティ,,株式会社,東京都,台東区,上野３丁目２４番６号,,13,106,1100005,,,2024-01-09,合併による解散等,2011501007761,令和５年１２月３１日東京都千代田区内神田二丁目１４番６号東京リスマチック株式会社（2011501007761）に合併し解散,2015-10-05,1,,,,,アスティ,0
4917,6010001163905,登記記録の閉鎖等,0,2024-01-12,2023-12-28,株式会社メドサークル,,株式会社,東京都,文京区,湯島３丁目１９番１１号湯島ファーストビル４階,,13,105,1130034,,,2023-12-28,清算の結了等,,,2015-10-05,1,,,,,メドサークル,0
4934,6010401109219,登記記録の閉鎖等,0,2024-01-12,2023-12-28,ＢＴＳ　Ｂｉｏｇａｓ株式会社,,株式会社,東京都,港区,六本木６丁目１０番１号,,13,103,1060032,,,2023-12-28,清算の結了等,,,2015-10-05,1,,,,,ビーティーエスバイオガス,0
4935,6010401133458,登記記録の閉鎖等,0,2024-01-12,2024-01-04,株式会社リバースネット,,株式会社,東京都,中央区,日本橋富沢町４－１０,,13,102,1030006,,,2024-01-04,合併による解散等,8010001212255,令和５年１２月３１日東京都中央区日本橋富沢町４－１０リバースネットキャリア株式会社（8010001212255）に合併し解散,2017-08-29,1,,,,,リバースネット,0
4936,6010401153167,登記記録の閉鎖等,0,2024-01-12,2024-01-04,ＡＧミライバライ株式会社,,株式会社,東京都,目黒区,青葉台３丁目６番２８号,,13,110,1530042,,,2024-01-04,合併による解散等,4130001047544,令和６年１月１日東京都目黒区青葉台三丁目６番２８号ＡＧギャランティー株式会社（4130001047544）に合併し解散,2020-06-11,1,,,,,エージーミライバライ,0
4954,6010701040817,登記記録の閉鎖等,0,2024-01-12,2024-01-05,株式会社エムイーグリーン,,株式会社,東京都,品川区,平塚３丁目２番１４号ストークプラザ武蔵小山３Ｆ,,13,109,1420051,,,2024-01-05,清算の結了等,,,2021-04-19,1,,,,,エムイーグリーン,0
4993,6011702004785,登記記録の閉鎖等,0,2024-01-12,2024-01-09,有限会社さがみや,,有限会社,東京都,江戸川区,東葛西７丁目３番８号,,13,123,1340084,,,2024-01-09,清算の結了等,,,2015-10-05,1,,,,,サガミヤ,0
5000,6012401009183,登記記録の閉鎖等,0,2024-01-12,2023-12-27,株式会社多摩スタジオ,,株式会社,東京都,世田谷区,祖師谷４丁目６番１号,,13,112,1570072,,,2023-12-27,清算の結了等,,,2015-10-05,1,,,,,タマスタジオ,0
5004,6013201014274,登記記録の閉鎖等,0,2024-01-12,2023-12-28,株式会社ｅａｇｅｒ,,株式会社,東京都,港区,浜松町１丁目９番２号,,13,103,1050013,,,2023-12-28,清算の結了等,,,2015-10-05,1,,,,,,0
5008,6020001105360,登記記録の閉鎖等,0,2024-01-12,2024-01-10,ニッカホーム関東株式会社,,株式会社,東京都,世田谷区,奥沢８丁目５番４号,,13,112,1580083,,,2024-01-10,合併による解散等,6180001043470,令和６年１月１日名古屋市緑区篭山二丁目１２２５番地ニッカホーム株式会社（6180001043470）に合併し解散,2015-10-05,1,,,,,ニッカホームカントウ,0
5009,6020001108388,登記記録の閉鎖等,0,2024-01-12,2024-01-04,株式会社バリューアップ,,株式会社,神奈川県,横浜市中区,太田町５丁目６１番１号,,14,104,2310011,,,2024-01-04,合併による解散等,8020001061370,令和６年１月１日横浜市中区太田町五丁目６１番１号株式会社ＩＴＳ総研（8020001061370）に合併し解散,2015-10-05,1,,,,,バリューアップ,0
5015,6020002005188,登記記録の閉鎖等,0,2024-01-12,2024-01-04,有限会社ライフテクノ,,有限会社,神奈川県,横浜市緑区,十日市場町１２５８番地十日市場ヒルタウン１６－２号棟４０７号,,14,113,2260025,,,2024-01-04,清算の結了等,,,2015-10-05,1,,,,,ライフテクノ,0
5016,6020002094925,登記記録の閉鎖等,0,2024-01-12,2024-01-04,有限会社ブリクソン・アメニティ,,有限会社,神奈川県,川崎市麻生区,片平２丁目６番３０号,,14,137,2150023,,,2024-01-04,清算の結了等,,,2015-10-05,1,,,,,ブリクソンアメニティ,0
5024,6021002030408,登記記録の閉鎖等,0,2024-01-12,2024-01-05,有限会社スペースファイル旋,,有限会社,神奈川県,鎌倉市,山崎１２８１番地,,14,204,2470066,,,2024-01-05,清算の結了等,,,2015-10-05,1,,,,,スペースファイルセン,0
5029,6030001072063,登記記録の閉鎖等,0,2024-01-12,2023-12-28,株式会社クリエーション,,株式会社,埼玉県,東松山市,桜山台３番地３６,,11,212,3550052,,,2023-12-28,清算の結了等,,,2015-10-05,1,,,,,クリエーション,0
5032,6030001095097,登記記録の閉鎖等,0,2024-01-12,2024-01-04,株式会社鳥居,,株式会社,埼玉県,志木市,本町１丁目３番１０号,,11,228,3530004,,,2024-01-04,清算の結了等,,,2015-10-05,1,,,,,トリイ,0
5042,6030003007216,登記記録の閉鎖等,0,2024-01-12,2024-01-04,合同会社エールシステム研究所,,合同会社,埼玉県,さいたま市浦和区,領家５丁目１－１０－３０７,,11,107,3300072,,,2024-01-04,清算の結了等,,,2015-10-05,1,,,,,エールシステムケンキュウショ,0
5051,6040002048425,登記記録の閉鎖等,0,2024-01-12,2023-12-26,有限会社プレスアシスト,,有限会社,千葉県,松戸市,稔台２丁目５８番地の２,,12,207,2702231,,,2023-12-26,清算の結了等,,,2015-10-05,1,,,,,プレスアシスト,0
5055,6050001020152,登記記録の閉鎖等,0,2024-01-12,2024-01-04,株式会社ケイツーホーム,,株式会社,茨城県,鹿嶋市,宮中７丁目７番７号,,08,222,3140031,,,2024-01-04,清算の結了等,,,2015-10-05,1,,,,,ケイツーホーム,0
5070,6080001019844,登記記録の閉鎖等,0,2024-01-12,2024-01-09,マコジャパン株式会社,,株式会社,静岡県,静岡市清水区,築地町６番４号,,22,103,4240944,,,2024-01-09,清算の結了等,,,2015-10-05,1,,,,,,0
5074,6080001024902,登記記録の閉鎖等,0,2024-01-12,2024-01-10,株式会社ウエスト・ライト,,株式会社,静岡県,静岡市駿河区,丸子新田２２０番地の１２,,22,102,4210111,,,2024-01-10,清算の結了等,,,2022-04-22,1,,,,,ウエストライト,0
5285,6080401016400,登記記録の閉鎖等,0,2024-01-12,2024-01-09,株式会社柏原応用力学研究所,,株式会社,静岡県,磐田市,岩井２３８２番地の１,,22,211,4380016,,,2024-01-09,清算の結了等,,,2015-10-05,1,,,,,カシワバラオウヨウリキガクケンキュウショ,0
5757,6090002003532,登記記録の閉鎖等,0,2024-01-12,2024-01-11,有限会社アオヤマ・スーパー,,有限会社,山梨県,甲斐市,玉川１５３２番地５,,19,210,4000116,,,2024-01-11,清算の結了等,,,2015-10-05,1,,,,,アオヤマスーパー,0
5766,6120001120110,登記記録の閉鎖等,0,2024-01-12,2024-01-04,ラキュラム株式会社,,株式会社,大阪府,大阪市平野区,長吉川辺３丁目２１番１号,,27,126,5470014,,,2024-01-04,清算の結了等,,,2015-10-05,1,,,,,ラキュラム,0
5790,6120102016653,登記記録の閉鎖等,0,2024-01-12,2024-01-10,有限会社エムジーエイコーポレーション,,有限会社,大阪府,大阪市中央区,南船場４丁目６番１５号東和ビル６０５号,,27,128,5420081,,,2024-01-10,合併による解散等,8010601059476,令和５年１２月１日東京都江東区有明三丁目７番２６号有明フロンティアビルＢ棟９Ｆシルポート株式会社（8010601059476）に合併し解散,2015-10-05,1,,,,,エムジーエイコーポレーション,0
5806,6140001073843,登記記録の閉鎖等,0,2024-01-12,2024-01-09,株式会社小林デザインオフイス,,株式会社,兵庫県,西宮市,段上町２丁目１５－２３,,28,204,6638006,,,2024-01-09,清算の結了等,,,2015-10-05,1,,,,,コバヤシデザインオフィス,0
5811,6140003018045,登記記録の閉鎖等,0,2024-01-12,2024-01-11,合同会社エトオト,,合同会社,兵庫県,神戸市中央区,下山手通２丁目１３番３号９階,,28,110,6500011,,,2024-01-11,清算の結了等,,,2022-08-17,1,,,,,エトオト,0
5815,6160001022187,登記記録の閉鎖等,0,2024-01-12,2024-01-09,株式会社エコケミーアシスト,,株式会社,滋賀県,大津市,錦織３丁目１４番２８号,,25,201,5200027,,,2024-01-09,清算の結了等,,,2020-01-07,1,,,,,エコケミーアシスト,0
5821,6180001052182,登記記録の閉鎖等,0,2024-01-12,2024-01-04,株式会社名城断熱工事,,株式会社,愛知県,北名古屋市,鹿田永塚１１８番地,,23,234,4810004,,,2024-01-04,清算の結了等,,,2015-10-05,1,,,,,メイジョウダンネツコウジ,0
5823,6180001079192,登記記録の閉鎖等,0,2024-01-12,2023-12-27,株式会社不二碍子製作所,,株式会社,愛知県,瀬戸市,川端町２丁目５１番地の３,,23,204,4890919,,,2023-12-27,清算の結了等,,,2015-10-05,1,,,,,フジガイシセイサクショ,0
5834,6180003011558,登記記録の閉鎖等,0,2024-01-12,2024-01-05,合資会社フクマスヤ,,合資会社,愛知県,一宮市,本町３丁目１番１５号,,23,203,4910859,,,2024-01-05,清算の結了等,,,2015-10-05,1,,,,,フクマスヤ,0
5844,6180302021142,登記記録の閉鎖等,0,2024-01-12,2023-12-27,有限会社福岡重機,,有限会社,愛知県,豊田市,前林町南６２番地,,23,211,4730934,,,2023-12-27,清算の結了等,,,2015-10-05,1,,,,,フクオカジュウキ,0
5852,6240002013929,登記記録の閉鎖等,0,2024-01-12,2023-12-28,有限会社平賀ビル,,有限会社,広島県,広島市西区,東観音町１８番１１号,,34,104,7330032,,,2023-12-28,清算の結了等,,,2015-10-05,1,,,,,ヒラガビル,0
5857,6260001036227,登記記録の閉鎖等,0,2024-01-12,2024-01-09,たより株式会社,,株式会社,岡山県,倉敷市,児島駅前２丁目２７番地,,33,202,7110921,,,2024-01-09,清算の結了等,,,2021-11-19,1,,,,,タヨリ,0
5869,6290002000732,登記記録の閉鎖等,0,2024-01-12,2024-01-05,有限会社友岡鮮魚,,有限会社,福岡県,福岡市早良区,原２丁目４番７号Ｋマート内,,40,137,8140022,,,2024-01-05,清算の結了等,,,2015-10-05,1,,,,,トモオカセンギョ,0
5873,6290801021499,登記記録の閉鎖等,0,2024-01-12,2024-01-09,株式会社フォルトナ,,株式会社,福岡県,北九州市小倉南区,山手１丁目２４番２３号,,40,107,8020982,,,2024-01-09,合併による解散等,8290801019616,令和５年１２月２７日東京都品川区上大崎二丁目６番４号株式会社ＫＲＫ（8290801019616）に合併し解散,2015-10-05,1,,,,,,0
5879,6330001024711,登記記録の閉鎖等,0,2024-01-12,2024-01-04,株式会社イリス,,株式会社,熊本県,熊本市中央区,下通１丁目１０番３号銀座プレイスＫＵＭＡＭＯＴＯ５Ｆ,,43,101,8600807,,,2024-01-04,合併による解散等,9330001004933,令和５年１２月３１日熊本市西区花園五丁目２３番４８－１号株式会社リューズ（9330001004933）に合併し解散,2017-11-16,1,,,,,イリス,0
5880,6330003002021,登記記録の閉鎖等,0,2024-01-12,2023-12-27,合名会社酒井商店,,合名会社,熊本県,菊池市,隈府４６９番地,,43,210,8611331,,,2023-12-27,清算の結了等,,,2015-10-05,1,,,,,サカイショウテン,0
5881,6340002005940,登記記録の閉鎖等,0,2024-01-12,2024-01-11,有限会社タケハラカスタム,,有限会社,鹿児島県,鹿児島市,樋之口町６番１６号,00099078,46,201,8920845,,,2024-01-11,清算の結了等,,,2015-10-05,1,,,,,タケハラカスタム,0
5883,6350001006369,登記記録の閉鎖等,0,2024-01-12,2023-12-28,株式会社鶴富,,株式会社,宮崎県,東臼杵郡椎葉村,大字下福良１７３６番地１５,,45,430,8831601,,,2023-12-28,合併による解散等,7350001006368,令和５年１２月２８日宮崎県東臼杵郡椎葉村大字下福良１７３６番地１５株式会社尾前建設（7350001006368）に合併し解散,2015-10-05,1,,,,,ツルトミ,0
5894,6380002035372,登記記録の閉鎖等,0,2024-01-12,2024-01-09,有限会社五十嵐オートガラス,,有限会社,福島県,会津若松市,門田町大字飯寺字村東１０３３番地１１,,07,202,9650846,,,2024-01-09,清算の結了等,,,2015-10-05,1,,,,,イガラシオートガラス,0
5904,6430001030864,登記記録の閉鎖等,0,2024-01-12,2024-01-09,株式会社札幌進学プラザ,,株式会社,北海道,札幌市北区,北六条西７丁目５番地２,,01,102,0600806,,,2024-01-09,合併による解散等,2370001013689,令和６年１月１日仙台市若林区土樋１０４番地株式会社イー・エス・ティ（2370001013689）に合併し解散,2015-10-05,1,,,,,サッポロシンガクプラザ,0
5907,6440001004413,登記記録の閉鎖等,0,2024-01-12,2024-01-11,株式会社ＷＡＴＡＮＡＢＥ・ＰＲＯＤＵＣＴＩＯＮ,,株式会社,北海道,函館市,本町３番１５号,,01,202,0400011,,,2024-01-11,登記官による閉鎖,,,2015-10-05,1,,,,,,0
5908,6440002001533,登記記録の閉鎖等,0,2024-01-12,2024-01-11,有限会社神陣建設,,有限会社,北海道,函館市,神山３丁目２５番１５号,,01,202,0410832,,,2024-01-11,登記官による閉鎖,,,2015-10-05,1,,,,,,0
5910,6440005000094,登記記録の閉鎖等,0,2024-01-12,2024-01-11,函館板硝子商工協同組合,,その他の設立登記法人,北海道,函館市,新川町３２番２号,,01,202,0400032,,,2024-01-11,登記官による閉鎖,,,2015-10-05,1,,,,,,0
5914,6480001000524,登記記録の閉鎖等,0,2024-01-12,2024-01-10,共正商事株式会社,,株式会社,徳島県,徳島市,中洲町３丁目５番地１,,36,201,7700856,,,2024-01-10,清算の結了等,,,2015-10-05,1,,,,,キョウショウショウジ,0
5923,7010001201416,登記記録の閉鎖等,0,2024-01-12,2024-01-04,株式会社グローシップ,,株式会社,東京都,渋谷区,代々木５丁目７番５号,,13,113,1510053,,,2024-01-04,合併による解散等,1010001133103,令和６年１月１日東京都渋谷区代々木五丁目７番５号株式会社ヒップスターゲート（1010001133103）に合併し解散,2019-06-10,1,,,,,グローシップ,0
5926,7010003017967,登記記録の閉鎖等,0,2024-01-12,2024-01-04,Ｆｉｒｓｔ・Ｓｏｌａｒ・Ｄｅｖｅｌｏｐｍｅｎｔｓ・Ｊａｐａｎ合同会社,,合同会社,東京都,千代田区,霞が関３丁目２番５号霞が関ビルディング３１階,,13,101,1000013,,,2024-01-04,清算の結了等,,,2015-10-05,1,,,,,ファーストソーラーデベロップメンツジャパン,0
5927,7010003027322,登記記録の閉鎖等,0,2024-01-12,2024-01-04,合同会社ファルコン,,合同会社,東京都,中央区,銀座１丁目１５番７号ＭＡＣ銀座ビル３階,,13,102,1040061,,,2024-01-04,清算の結了等,,,2018-04-13,1,,,,,ファルコン,0
5933,7010401062078,登記記録の閉鎖等,0,2024-01-12,2024-01-09,日本アリバ株式会社,,株式会社,東京都,千代田区,大手町１丁目２番１号,,13,101,1000004,,,2024-01-09,合併による解散等,4010001071259,令和６年１月１日東京都千代田区大手町一丁目２番１号ＳＡＰジャパン株式会社（4010001071259）に合併し解散,2015-10-05,1,,,,,ニホンアリバ,0
5964,7011001030318,登記記録の閉鎖等,0,2024-01-12,2024-01-09,株式会社シー・ビジョン,,株式会社,東京都,渋谷区,宇田川町１２番３－８０９号,,13,113,1500042,,,2024-01-09,清算の結了等,,,2015-10-05,1,,,,,シービジョン,0
5972,7011101053334,登記記録の閉鎖等,0,2024-01-12,2024-01-11,株式会社石田総業,,株式会社,北海道,久遠郡せたな町,北檜山区丹羽４６３,,01,371,0494433,,,2024-01-11,登記官による閉鎖,,,2015-10-05,1,,,,,,0
5982,7012301013301,登記記録の閉鎖等,0,2024-01-12,2024-01-04,光洋エレクトロニクス株式会社,,株式会社,東京都,台東区,東上野２丁目１２番８号芳屋ビル４階,,13,106,1100015,,,2024-01-04,合併による解散等,7010001002624,令和６年１月１日東京都台東区東上野二丁目１２番８号芳屋ビル４階株式会社光洋（7010001002624）に合併し解散,2023-02-07,1,,,,,コウヨウエレクトロニクス,0
6005,7020002070074,登記記録の閉鎖等,0,2024-01-12,2024-01-04,有限会社花井塗装,,有限会社,神奈川県,横浜市神奈川区,亀住町１２番地の９,,14,102,2210041,,,2024-01-04,清算の結了等,,,2015-10-05,1,,,,,,0
6022,7030001041884,登記記録の閉鎖等,0,2024-01-12,2024-01-05,株式会社ノザキ,,株式会社,埼玉県,上尾市,大字平塚２５６３番地の３,,11,219,3620011,,,2024-01-05,合併による解散等,3110001014191,令和６年１月１日新潟県三条市塚野目２１５３番地５株式会社ＳＡＮＫＡ（3110001014191）に合併し解散,2015-10-05,1,,,,,ノザキ,0
6025,7030001084231,登記記録の閉鎖等,0,2024-01-12,2023-12-28,株式会社花詩,,株式会社,埼玉県,加須市,飯積５１０番地,,11,210,3491211,,,2023-12-28,清算の結了等,,,2015-10-05,1,,,,,ハナウタ,0
6035,7030003015688,登記記録の閉鎖等,0,2024-01-12,2024-01-04,合同会社ＮＫ,,合同会社,埼玉県,上尾市,錦町８番地４６,,11,219,3620006,,,2024-01-04,清算の結了等,,,2020-08-17,1,,,,,エヌケー,0
6058,7060003002114,登記記録の閉鎖等,0,2024-01-12,2024-01-05,合同会社ネクスト企画,,合同会社,栃木県,宇都宮市,泉が丘２丁目５番３２号,,09,201,3210952,,,2024-01-05,清算の結了等,,,2015-10-05,1,,,,,ネクストキカク,0
6061,7070001040148,登記記録の閉鎖等,0,2024-01-12,2023-12-28,ワイケイ建設株式会社,,株式会社,群馬県,渋川市,渋川２６４１番地１,,10,208,3770008,,,2023-12-28,清算の結了等,,,2023-02-22,1,,,,,ワイケイケンセツ,0
6712,7120001185012,登記記録の閉鎖等,0,2024-01-12,2024-01-04,株式会社ＯＳＥＫＡ,,株式会社,大阪府,大阪市中央区,谷町９丁目１番１８号アクセス谷町ビル７Ｆ,,27,128,5420012,,,2024-01-04,合併による解散等,7120002055081,令和６年１月１日大阪市中央区谷町九丁目１番１８号アクセス谷町ビル７Ｆ株式会社ＪＡＢＬＥ（7120002055081）に合併し解散,2015-10-05,1,,,,,オセカ,0
6746,7140001037046,登記記録の閉鎖等,0,2024-01-12,2023-12-25,株式会社ネクサス,,株式会社,兵庫県,明石市,二見町福里７番地の３,,28,203,6740091,,,2023-12-25,清算の結了等,,,2015-10-05,1,,,,,ネクサス,0
6755,7170001016229,登記記録の閉鎖等,0,2024-01-12,2024-01-10,株式会社雨樹,,株式会社,和歌山県,海草郡紀美野町,上ケ井１９番地,,30,304,6401231,,,2024-01-10,清算の結了等,,,2020-08-25,1,,,,,アメノキ,0
6757,7170002011501,登記記録の閉鎖等,0,2024-01-12,2024-01-05,有限会社中秀,,有限会社,和歌山県,東牟婁郡那智勝浦町,大字朝日１丁目１７３番地３,,30,421,6495332,,,2024-01-05,清算の結了等,,,2015-10-05,1,,,,,ナカヒデ,0
6778,7220002005101,登記記録の閉鎖等,0,2024-01-12,2024-01-10,有限会社プリンスアンドプリンセス,,有限会社,石川県,金沢市,泉本町２丁目１０番地４,,17,201,9218042,,,2024-01-10,清算の結了等,,,2015-10-05,1,,,,,プリンスアンドプリンセス,0
6783,7240002038033,登記記録の閉鎖等,0,2024-01-12,2024-01-04,有限会社冨士屋,,有限会社,広島県,廿日市市,宮島口西１丁目４番１５－２０４号,,34,213,7390412,,,2024-01-04,清算の結了等,,,2015-10-05,1,,,,,フジヤ,0
6784,7240002045657,登記記録の閉鎖等,0,2024-01-12,2024-01-04,有限会社ワークヒロセ,,有限会社,広島県,福山市,新市町大字宮内１１０１番地の５,,34,207,7293104,,,2024-01-04,清算の結了等,,,2015-10-05,1,,,,,ワークヒロセ,0
6818,7360003007347,登記記録の閉鎖等,0,2024-01-12,2024-01-05,合同会社創心リフォーム,,合同会社,沖縄県,宮古島市,平良字東仲宗根添２５５２番地１,,47,214,9060011,,,2024-01-05,清算の結了等,,,2015-11-20,1,,,,,ソウシンリフォーム,0
6825,7370002011200,登記記録の閉鎖等,0,2024-01-12,2024-01-11,有限会社佐瀬測量事務所,,有限会社,宮城県,仙台市青葉区,宮町１丁目４番１５号,,04,101,9800004,,,2024-01-11,清算の結了等,,,2015-10-05,1,,,,,サセソクリョウジムショ,0
6831,7390001013435,登記記録の閉鎖等,0,2024-01-12,2024-01-04,株式会社オーツー,,株式会社,山形県,鶴岡市,城南町２２番４６号,,06,203,9970814,,,2024-01-04,清算の結了等,,,2015-10-05,1,,,,,オーツー,0
6844,7440002008040,登記記録の閉鎖等,0,2024-01-12,2024-01-11,有限会社ＮＸ,,有限会社,北海道,函館市,豊川町２６番６号,,01,202,0400065,,,2024-01-11,登記官による閉鎖,,,2015-10-05,1,,,,,,0
6845,7440002008759,登記記録の閉鎖等,0,2024-01-12,2024-01-11,有限会社エイコウ自動車,,有限会社,北海道,山越郡長万部町,字中ノ沢２１番地の１,,01,347,0493512,,,2024-01-11,登記官による閉鎖,,,2015-10-05,1,,,,,,0
6846,7440005001934,登記記録の閉鎖等,0,2024-01-12,2024-01-11,江差建設厚生企業組合,,その他の設立登記法人,北海道,檜山郡江差町,字中歌町７９番地,,01,361,0430034,,,2024-01-11,登記官による閉鎖,,,2015-10-05,1,,,,,,0
6851,7470002018763,登記記録の閉鎖等,0,2024-01-12,2023-12-27,有限会社門家,,有限会社,香川県,さぬき市,鴨部１３８８番地１,,37,206,7692104,,,2023-12-27,清算の結了等,,,2015-10-05,1,,,,,モンヤ,0
6882,8010501044438,登記記録の閉鎖等,0,2024-01-12,2024-01-04,株式会社花楽や,,株式会社,東京都,台東区,駒形１丁目１０番４号椿やビル,,13,106,1110043,,,2024-01-04,合併による解散等,1040001077512,令和６年１月１日東京都台東区駒形一丁目１０番４号椿やビル株式会社椿や（1040001077512）に合併し解散,2019-07-30,1,,,,,カグラヤ,0
6893,8011001056163,登記記録の閉鎖等,0,2024-01-12,2023-12-25,ＥＶＯＬＵＴＩＯＮ　ＪＡＰＡＮアセットマネジメント株式会社,,株式会社,東京都,千代田区,紀尾井町４－１ニューオータニガーデンコート１２Ｆ,,13,101,1020094,,,2023-12-25,清算の結了等,,,2015-10-05,1,,,,,エボリューションジャパンアセットマネジメント,0
6899,8011101100903,登記記録の閉鎖等,0,2024-01-12,2024-01-05,株式会社ＢＥＹＯＮＤ,,株式会社,東京都,新宿区,西新宿３丁目３番１３号西新宿水間ビル６階,,13,104,1600023,,,2024-01-05,清算の結了等,,,2022-11-21,1,,,,,ビヨンド,0
6913,8012303001146,登記記録の閉鎖等,0,2024-01-12,2024-01-10,合同会社麺王,,合同会社,東京都,町田市,広袴２丁目１７番地１５,,13,209,1950056,,,2024-01-10,合併による解散等,8011001157928,令和５年１２月２８日東京都渋谷区南平台町１５番１号ライオンズマンション南平台６０１株式会社チームスタンダード（8011001157928）に合併し解散,2018-05-02,1,,,,,メンオウ,0
6922,8013301022729,登記記録の閉鎖等,0,2024-01-12,2024-01-04,株式会社エル・アイ・システムズ,,株式会社,東京都,豊島区,西池袋１丁目１０番１５号,,13,116,1710021,,,2024-01-04,合併による解散等,5013301022756,令和６年１月１日東京都豊島区西池袋一丁目１０番１５号養老乃瀧株式会社（5013301022756）に合併し解散,2015-10-05,1,,,,,エルアイシステムズ,0
6924,8020001050646,登記記録の閉鎖等,0,2024-01-12,2024-01-04,株式会社シーソー,,株式会社,神奈川県,横浜市鶴見区,菅沢町８番９－２号,,14,101,2300027,,,2024-01-04,清算の結了等,,,2015-10-05,1,,,,,シーソー,0
6926,8020001108205,登記記録の閉鎖等,0,2024-01-12,2024-01-04,株式会社イチゴサン,,株式会社,神奈川県,横浜市神奈川区,菅田町１７６７番地,,14,102,2210864,,,2024-01-04,清算の結了等,,,2015-10-05,1,,,,,イチゴサン,0
6927,8020001126792,登記記録の閉鎖等,0,2024-01-12,2024-01-04,株式会社ＡＳＦＯＮ　ＢＬＯＯＭ,,株式会社,神奈川県,横浜市港北区,新横浜２丁目１１番地５,,14,109,2220033,,,2024-01-04,合併による解散等,1013201017216,令和６年１月１日横浜市港北区新横浜二丁目１１番地５株式会社ＡＳＦＯＮ（1013201017216）に合併し解散,2018-06-15,1,,,,,アスフォンブルーム,0
6931,8020002022768,登記記録の閉鎖等,0,2024-01-12,2024-01-04,有限会社ユー設計室,,有限会社,神奈川県,横浜市旭区,白根１丁目１７番５号,,14,112,2410005,,,2024-01-04,清算の結了等,,,2015-10-05,1,,,,,ユーセッケイシツ,0
6962,8050002041757,登記記録の閉鎖等,0,2024-01-12,2024-01-04,有限会社青柳電機,00023233,有限会社,茨城県,筑西市,飯島５７９番地の６,,08,227,3080064,,,2024-01-04,清算の結了等,,,2015-10-05,1,,,,,アオヤギデンキ,0
6964,8070001015685,登記記録の閉鎖等,0,2024-01-12,2023-12-28,株式会社尾池土木,,株式会社,群馬県,みどり市,東町花輪１１番地の１,,10,212,3760307,,,2023-12-28,清算の結了等,,,2015-10-05,1,,,,,オイケドボク,0
6965,8070001040717,登記記録の閉鎖等,0,2024-01-12,2024-01-04,株式会社パースジム,,株式会社,群馬県,前橋市,前箱田町３８７－１、１２６号,,10,201,3710835,,,2024-01-04,清算の結了等,,,2023-08-08,1,,,,,パースジム,0
6968,8080001002451,登記記録の閉鎖等,0,2024-01-12,2024-01-10,株式会社セイシンサービス,,株式会社,静岡県,静岡市駿河区,中島３２３８番地,,22,102,4228046,,,2024-01-10,清算の結了等,,,2015-10-05,1,,,,,セイシンサービス,0
7606,8100001028329,登記記録の閉鎖等,0,2024-01-12,2024-01-04,ネクストイノベーションラボ株式会社,,株式会社,長野県,安曇野市,三郷温４５９６番地１７,,20,220,3998102,,,2024-01-04,清算の結了等,,,2015-10-05,1,,,,,ネクストイノベーションラボ,0
7612,8110001030779,登記記録の閉鎖等,0,2024-01-12,2024-01-05,株式会社和田,,株式会社,新潟県,新潟市中央区,三和町１番２２－１２１５号,,15,103,9500081,,,2024-01-05,合併による解散等,1110001010333,令和６年１月１日新潟市中央区東大通二丁目３番２５号株式会社イデアル（1110001010333）に合併し解散,2015-10-05,1,,,,,ワダ,0
7645,8122002007029,登記記録の閉鎖等,0,2024-01-12,2024-01-09,クリーンスリット有限会社,,有限会社,大阪府,東大阪市,瓜生堂３丁目８番１１－５０１号,,27,227,5780946,,,2024-01-09,合併による解散等,8122001008507,令和５年１２月３１日大阪府東大阪市瓜生堂三丁目８番１１－５０１号日本スリット工業株式会社（8122001008507）に合併し解散,2015-10-05,1,,,,,クリーンスリット,0
7646,8130001022873,登記記録の閉鎖等,0,2024-01-12,2024-01-05,株式会社モフミー,,株式会社,京都府,京都市左京区,下鴨南茶ノ木町７番地１,,26,103,6060845,,,2024-01-05,清算の結了等,,,2015-10-05,1,,,,,モフミー,0
7651,8130002009052,登記記録の閉鎖等,0,2024-01-12,2024-01-05,有限会社ディスプレイタダオカ,,有限会社,京都府,京都市西京区,大枝北福西町４丁目１番地の１（８棟２０４号）,,26,111,6101112,,,2024-01-05,清算の結了等,,,2015-10-05,1,,,,,ディスプレイタダオカ,0
7655,8140001074328,登記記録の閉鎖等,0,2024-01-12,2024-01-09,株式会社Ｈａｎｄ　ｉｎ　Ｈａｎｄ,,株式会社,兵庫県,西宮市,大井手町１０番１１号,,28,204,6620036,,,2024-01-09,清算の結了等,,,2015-10-05,1,,,,,ハンドインハンド,0
7667,8180001019725,登記記録の閉鎖等,0,2024-01-12,2024-01-09,株式会社昭司鞄嚢,00071916,株式会社,愛知県,名古屋市中川区,月島町７番２０号,,23,110,4540804,,,2024-01-09,清算の結了等,,,2015-10-05,1,,,,,ショウジホウノウ,0
7693,8190001020954,登記記録の閉鎖等,0,2024-01-12,2024-01-05,首藤農園株式会社,,株式会社,愛知県,名古屋市西区,上堀越町２丁目９番地１,,23,104,4510084,,,2024-01-05,清算の結了等,,,2015-10-05,1,,,,,シュドウノウエン,0
7696,8220001005118,登記記録の閉鎖等,0,2024-01-12,2024-01-09,株式会社日本綜合資材,,株式会社,石川県,金沢市,泉野出町２丁目２２番６号,,17,201,9218116,,,2024-01-09,清算の結了等,,,2015-10-05,1,,,,,ニホンソウゴウシザイ,0
7699,8220002005612,登記記録の閉鎖等,0,2024-01-12,2024-01-04,有限会社マルヨネ,,有限会社,石川県,金沢市,黒田１丁目１４番地１,,17,201,9218051,,,2024-01-04,清算の結了等,,,2015-10-05,1,,,,,マルヨネ,0
7704,8250001002830,登記記録の閉鎖等,0,2024-01-12,2024-01-09,株式会社ファーストリミテッド,,株式会社,山口県,山口市,阿東生雲中２１４番地１,,35,203,7591342,,,2024-01-09,清算の結了等,,,2015-10-05,1,,,,,ファーストリミテッド,0
7731,8340001013430,登記記録の閉鎖等,0,2024-01-12,2024-01-09,キリシマ精工販売株式会社,,株式会社,鹿児島県,霧島市,国分川原９１８番地７,,46,218,8994303,,,2024-01-09,清算の結了等,,,2015-10-05,1,,,,,キリシマセイコウハンバイ,0
7741,8380002023111,登記記録の閉鎖等,0,2024-01-12,2024-01-09,有限会社金成浩測量事務所,,有限会社,福島県,いわき市,小名浜花畑町３５番地の１,,07,204,9718162,,,2024-01-09,清算の結了等,,,2015-10-05,1,,,,,カナリヒロシソクリョウジムショ,0
7753,8440002000137,登記記録の閉鎖等,0,2024-01-12,2024-01-11,有限会社アンティコ,,有限会社,北海道,函館市,本通１丁目４８番５号,,01,202,0410851,,,2024-01-11,登記官による閉鎖,,,2015-10-05,1,,,,,,0
7754,8440002008972,登記記録の閉鎖等,0,2024-01-12,2024-01-11,有限会社丸金今商店,,有限会社,北海道,瀬棚郡今金町,字今金４３０番地の１９,,01,370,0494308,,,2024-01-11,登記官による閉鎖,,,2015-10-05,1,,,,,,0
7755,8440005001660,登記記録の閉鎖等,0,2024-01-12,2024-01-11,企業組合桜野健祐会,,その他の設立登記法人,北海道,二海郡八雲町,野田生８６番地の１０,,01,346,0492672,,,2024-01-11,登記官による閉鎖,,,2015-10-05,1,,,,,,0
7756,8440005001933,登記記録の閉鎖等,0,2024-01-12,2024-01-11,江差地方勤労者企業組合,,その他の設立登記法人,北海道,檜山郡江差町,字上野町４６番地,,01,361,0430042,,,2024-01-11,登記官による閉鎖,,,2015-10-05,1,,,,,,0
7757,8450001006877,登記記録の閉鎖等,0,2024-01-12,2024-01-11,株式会社Ｂｅｌｉｅｖｅ,,株式会社,北海道,旭川市,錦町１４丁目２９７６番地の３７,,01,204,0700824,,,2024-01-11,清算の結了等,,,2015-10-05,1,,,,,ビリーブ,0
7790,9010401122169,登記記録の閉鎖等,0,2024-01-12,2023-12-27,株式会社ａｓｈｔｒｅｅ,,株式会社,東京都,港区,六本木４丁目８番７号,,13,103,1060032,,,2023-12-27,清算の結了等,,,2015-12-18,1,,,,,,0
7800,9010501007781,登記記録の閉鎖等,0,2024-01-12,2024-01-10,株式会社種谷製作所,,株式会社,東京都,台東区,東上野６丁目１０番１５号,,13,106,1100015,,,2024-01-10,清算の結了等,,,2015-10-05,1,,,,,タネヤセイサクショ,0
7802,9010501026732,登記記録の閉鎖等,0,2024-01-12,2024-01-09,株式会社香仁舎,,株式会社,東京都,台東区,台東４丁目７番５号,,13,106,1100016,,,2024-01-09,清算の結了等,,,2015-10-05,1,,,,,コウジンシャ,0
7816,9010901009411,登記記録の閉鎖等,0,2024-01-12,2024-01-09,株式会社ヌーヴェルヴァーグ,,株式会社,東京都,渋谷区,恵比寿南３丁目７番５号東光苑マンション５０２,,13,113,1500022,,,2024-01-09,合併による解散等,6010001115393,令和５年１２月１日東京都港区虎ノ門２－１０－１株式会社セントラルメディエンスコミュニケーションズ（6010001115393）に合併し解散,2015-10-05,1,,,,,ヌーヴェルヴァーグ,0
7817,9010901051264,登記記録の閉鎖等,0,2024-01-12,2023-12-26,小林康夫株式会社,,株式会社,東京都,世田谷区,世田谷１丁目４１番２号,,13,112,1540017,,,2023-12-26,清算の結了等,,,2022-07-27,1,,,,,コバヤシヤスオ,0
7826,9011003013913,登記記録の閉鎖等,0,2024-01-12,2024-01-05,アズマリサーチ合同会社,,合同会社,東京都,目黒区,八雲３丁目３－１２,,13,110,1520023,,,2024-01-05,清算の結了等,,,2021-12-27,1,,,,,アズマリサーチ,0
7835,9011501002186,登記記録の閉鎖等,0,2024-01-12,2023-12-27,株式会社十全堂薬局,,株式会社,東京都,北区,浮間３丁目３０番５号,,13,117,1150051,,,2023-12-27,清算の結了等,,,2015-10-05,1,,,,,ジュウゼンドウヤッキョク,0
7838,9011801020689,登記記録の閉鎖等,0,2024-01-12,2024-01-05,三貴産業株式会社,,株式会社,東京都,足立区,伊興３丁目９番９号,,13,121,1210823,,,2024-01-05,清算の結了等,,,2015-10-05,1,,,,,,0
7854,9020001082721,登記記録の閉鎖等,0,2024-01-12,2024-01-10,アイキューブド研究所株式会社,,株式会社,東京都,練馬区,小竹町２丁目５５番９号,,13,120,1760004,,,2024-01-10,清算の結了等,,,2015-10-05,1,,,,,アイキューブドケンキュウジョ,0
7885,9040002004747,登記記録の閉鎖等,0,2024-01-12,2023-12-26,有限会社櫻井自動車工業,,有限会社,千葉県,千葉市緑区,古市場町４８番地,,12,105,2660026,,,2023-12-26,清算の結了等,,,2015-10-05,1,,,,,,0
7886,9040002031964,登記記録の閉鎖等,0,2024-01-12,2023-12-26,有限会社白寿設計,,有限会社,千葉県,千葉市中央区,市場町２番５号,,12,101,2600855,,,2023-12-26,清算の結了等,,,2015-10-05,1,,,,,ハクジュセッケイ,0
7890,9050002013490,登記記録の閉鎖等,0,2024-01-12,2023-12-28,有限会社市村設計,,有限会社,茨城県,稲敷郡阿見町,大字阿見３０６８番地１,,08,443,3000331,,,2023-12-28,清算の結了等,,,2015-10-05,1,,,,,イチムラセッケイ,0
7891,9050002035031,登記記録の閉鎖等,0,2024-01-12,2024-01-05,有限会社エステー興産,,有限会社,茨城県,常陸太田市,上土木内町３４７番地,,08,212,3130034,,,2024-01-05,清算の結了等,,,2015-10-05,1,,,,,エステーコウサン,0
8540,9090002014114,登記記録の閉鎖等,0,2024-01-12,2024-01-10,有限会社小林プラスチックス製作所,,有限会社,山梨県,北杜市,長坂町白井沢２６２３番地,,19,209,4080033,,,2024-01-10,清算の結了等,,,2015-10-05,1,,,,,,0
8546,9100002028599,登記記録の閉鎖等,0,2024-01-12,2024-01-04,有限会社鳥幸,,有限会社,長野県,諏訪市,小和田南２０番２号,,20,206,3920023,,,2024-01-04,清算の結了等,,,2015-10-05,1,,,,,トリコウ,0
8549,9110001033137,登記記録の閉鎖等,0,2024-01-12,2023-12-25,王紋酒造株式会社,,株式会社,新潟県,新発田市,本町１丁目７番５号,,15,206,9570054,,,2023-12-25,合併による解散等,9010501022070,令和５年１２月２５日新潟県新発田市諏訪町三丁目１番１７号王紋酒造株式会社（9010501022070）に合併し解散,2018-04-05,1,,,,,オウモンシュゾウ,0
8551,9120001129891,登記記録の閉鎖等,0,2024-01-12,2024-01-05,株式会社Ａｔａｍａ,,株式会社,大阪府,大阪市北区,西天満１丁目８番９号,,27,127,5300047,,,2024-01-05,合併による解散等,8120001203441,令和５年１２月３１日大阪市北区堂島浜二丁目２番２８号株式会社マーケティングデザイン（8120001203441）に合併し解散,2015-10-05,1,,,,,アタマ,0
8558,9120001230253,登記記録の閉鎖等,0,2024-01-12,2024-01-04,株式会社ＨＷＬ,,株式会社,大阪府,大阪市住吉区,我孫子東３丁目１番２３号,,27,120,5580013,,,2024-01-04,合併による解散等,6120001259568,令和６年１月１日大阪市住吉区苅田七丁目４番５号日本セラピーホールディング株式会社（6120001259568）に合併し解散,2020-07-07,1,,,,,エイチダブリューエル,0
8578,9130001023672,登記記録の閉鎖等,0,2024-01-12,2024-01-09,株式会社コスシステム,,株式会社,京都府,京都市左京区,上高野石田町１４２番地４,,26,103,6060041,,,2024-01-09,清算の結了等,,,2015-10-05,1,,,,,コスシステム,0
8581,9140001071084,登記記録の閉鎖等,0,2024-01-12,2024-01-10,株式会社エヌエス商会,,株式会社,兵庫県,西宮市,甲子園口３丁目５番１７号,,28,204,6638113,,,2024-01-10,清算の結了等,,,2015-10-05,1,,,,,エヌエスショウカイ,0
8586,9150001013184,登記記録の閉鎖等,0,2024-01-12,2024-01-10,株式会社奈良辻芳,00043002,株式会社,奈良県,北葛城郡上牧町,大字上牧３３９８番地の４,,29,424,6390214,,,2024-01-10,清算の結了等,,,2015-10-05,1,,,,,ナラツジヨシ,0
8596,9180001145941,登記記録の閉鎖等,0,2024-01-12,2023-12-25,日本優喜利株式会社,,株式会社,愛知県,岩倉市,西市町無量寺７番地３,,23,228,4820036,,,2023-12-25,清算の結了等,,,2021-05-11,1,,,,,ニホンユウキリ,0
8602,9180002025135,登記記録の閉鎖等,0,2024-01-12,2024-01-10,有限会社ワタナベアート工房,,有限会社,愛知県,名古屋市西区,菊井１丁目１９番１号,,23,104,4510044,,,2024-01-10,清算の結了等,,,2015-10-05,1,,,,,ワタナベアートコウボウ,0
8615,9190001023254,登記記録の閉鎖等,0,2024-01-12,2024-01-05,株式会社プロ・パートナー,,株式会社,三重県,四日市市,安島２丁目１０番１６号,,24,202,5100075,,,2024-01-05,清算の結了等,,,2015-12-08,1,,,,,プロパートナー,0
8620,9210002000720,登記記録の閉鎖等,0,2024-01-12,2024-01-11,有限会社大久保商店,,有限会社,福井県,福井市,足羽４丁目１４番１号,,18,201,9188007,,,2024-01-11,清算の結了等,,,2015-10-05,1,,,,,オオクボショウテン,0
8625,9240002016508,登記記録の閉鎖等,0,2024-01-12,2024-01-04,有限会社ムカイドラッグ,,有限会社,広島県,広島市安芸区,矢野西５丁目１番２２－１０１号,,34,107,7360085,,,2024-01-04,清算の結了等,,,2015-10-05,1,,,,,ムカイドラッグ,0
8635,9290001039661,登記記録の閉鎖等,0,2024-01-12,2024-01-05,株式会社アイケイホーム,,株式会社,福岡県,糟屋郡宇美町,貴船２丁目４１番３４号,,40,341,8112131,,,2024-01-05,清算の結了等,,,2015-10-05,1,,,,,アイケイホーム,0
8650,9300001010827,登記記録の閉鎖等,0,2024-01-12,2024-01-09,株式会社Ｅｕｒｏｐｅａｎ　Ｃｏｌｌｅｃｔｉｏｎｓ,,株式会社,佐賀県,嬉野市,嬉野町大字下宿丙１番地１,,41,209,8430301,,,2024-01-09,清算の結了等,,,2017-05-15,1,,,,,ヨーロピアンコレクションズ,0
8655,9330001002664,登記記録の閉鎖等,0,2024-01-12,2024-01-04,株式会社エンタープライズ暖,,株式会社,熊本県,熊本市北区,山室５丁目４番２１号,,43,105,8600084,,,2024-01-04,清算の結了等,,,2015-10-05,1,,,,,エンタープライズダン,0
8669,9370002012873,登記記録の閉鎖等,0,2024-01-12,2024-01-10,有限会社林ビル,,有限会社,宮城県,仙台市青葉区,上杉２丁目２番４号,,04,101,9800011,,,2024-01-10,清算の結了等,,,2015-10-05,1,,,,,ハヤシビル,0
8684,9440001002265,登記記録の閉鎖等,0,2024-01-12,2024-01-11,株式会社丸繁興産,,株式会社,北海道,函館市,宇賀浦町２番１号,,01,202,0400023,,,2024-01-11,登記官による閉鎖,,,2015-10-05,1,,,,,マルシゲコウサン,0
8685,9440002001836,登記記録の閉鎖等,0,2024-01-12,2024-01-11,有限会社佐々木鮮魚店,,有限会社,北海道,函館市,日乃出町２４番７号,,01,202,0400022,,,2024-01-11,登記官による閉鎖,,,2015-10-05,1,,,,,,0
8690,9480001009604,登記記録の閉鎖等,0,2024-01-12,2024-01-11,株式会社橋本建設,,株式会社,徳島県,鳴門市,里浦町里浦字花面５２番地２,,36,202,7720021,,,2024-01-11,清算の結了等,,,2016-04-06,1,,,,,ハシモトケンセツ,0
