sequenceNumber,corporateNumber,process,correct,updateDate,changeDate,name,nameImageId,kind,prefectureName,cityName,streetNumber,addressImageId,prefectureCode,cityCode,postCode,addressOutside,addressOutsideImageId,closeDate,closeCause,successorCorporateNumber,changeCause,assignmentDate,latest,enName,enPrefectureName,enCityName,enAddressOutside,furigana,hihyoji
1,1010001013437,登記記録の閉鎖等,0,2021-12-03,2021-11-30,株式会社オールバウト,,株式会社,東京都,千代田区,飯田橋３丁目１１番１３号,,13,101,1020072,,,2021-11-30,清算の結了等,,,2015-10-05,1,,,,,,0
11,1010001210034,登記記録の閉鎖等,0,2021-12-03,2021-11-29,Ｆｏｏｄ　Ｓｔａｒ株式会社,,株式会社,東京都,港区,赤坂８丁目１１番３７号,,13,103,1070052,,,2021-11-29,清算の結了等,,,2020-06-09,1,,,,,フードスター,0
21,1010401045484,登記記録の閉鎖等,0,2021-12-03,2021-11-30,朝日コミュニティアド株式会社,,株式会社,埼玉県,狭山市,入間川４丁目１９番３３号,,11,215,3501305,,,2021-11-30,清算の結了等,,,2015-10-05,1,,,,,アサヒコミュニティアド,0
70,1011401014371,登記記録の閉鎖等,0,2021-12-03,2021-12-01,株式会社アフカ,,株式会社,東京都,板橋区,南町１１番３号ライオンズマンション池袋シティ４０３号室,,13,119,1730027,,,2021-12-01,清算の結了等,,,2015-10-05,1,,,,,アフカ,0
89,1012701009318,登記記録の閉鎖等,0,2021-12-03,2021-11-30,株式会社大藤工業,,株式会社,東京都,小平市,小川町１丁目２４０９番地,,13,211,1870032,,,2021-11-30,清算の結了等,,,2015-10-05,1,,,,,オオフジコウギョウ,0
108,1021001018144,登記記録の閉鎖等,0,2021-12-03,2021-11-29,株式会社ベルデント,,株式会社,神奈川県,相模原市中央区,富士見５丁目２１番３号サニーヒルズ富士見１０２号,,14,152,2520236,,,2021-11-29,清算の結了等,,,2015-10-05,1,,,,,ベルデント,0
145,1040002060194,登記記録の閉鎖等,0,2021-12-03,2021-11-26,有限会社アイ・システム,,有限会社,千葉県,佐倉市,中志津５丁目３５番１０号,,12,212,2850843,,,2021-11-26,清算の結了等,,,2015-10-05,1,,,,,アイシステム,0
149,1040002088228,登記記録の閉鎖等,0,2021-12-03,2021-11-30,有限会社たまご農場,,有限会社,千葉県,香取市,貝塚２１０４番地,,12,236,2890325,,,2021-11-30,清算の結了等,,,2015-10-05,1,,,,,タマゴノウジョウ,0
179,1120001180571,登記記録の閉鎖等,0,2021-12-03,2021-11-26,ＴＡＧＡＷＡ　ＰＯＷＥＲ株式会社,,株式会社,東京都,港区,三田２丁目７番１２号,,13,103,1080073,,,2021-11-26,清算の結了等,,,2015-10-05,1,,,,,タガワパワー,0
198,1122002002762,登記記録の閉鎖等,0,2021-12-03,2021-12-01,太宝不動産有限会社,,有限会社,大阪府,東大阪市,宝持２丁目６番２１号,,27,227,5770805,,,2021-12-01,清算の結了等,,,2015-10-05,1,,,,,タイホウフドウサン,0
200,1140001096650,登記記録の閉鎖等,0,2021-12-03,2021-11-30,株式会社ヒロデン,,株式会社,兵庫県,神戸市兵庫区,吉田町１丁目１４番１１号トレス吉田２０２号,,28,105,6520872,,,2021-11-30,清算の結了等,,,2015-10-05,1,,,,,ヒロデン,0
210,1140002062593,登記記録の閉鎖等,0,2021-12-03,2021-12-01,有限会社ユタカ繊維工芸社,,有限会社,兵庫県,加西市,河内町１０４１番地,,28,220,6752421,,,2021-12-01,清算の結了等,,,2015-10-05,1,,,,,ユタカセンイコウゲイシャ,0
222,1180001085402,登記記録の閉鎖等,0,2021-12-03,2021-12-01,福俊商事株式会社,,株式会社,岐阜県,岐阜市,祈年町２丁目１７９２番地,,21,201,5008156,,,2021-12-01,清算の結了等,,,2015-10-05,1,,,,,フクトシショウジ,0
229,1180002051485,登記記録の閉鎖等,0,2021-12-03,2021-11-29,おぷとぴあ有限会社,,有限会社,愛知県,名古屋市熱田区,四番１丁目５番１１号,,23,109,4560051,,,2021-11-29,清算の結了等,,,2015-10-05,1,,,,,オプトピア,0
245,1210001016171,登記記録の閉鎖等,0,2021-12-03,2021-11-29,福泉ホールディングス株式会社,,株式会社,福井県,福井市,西方１丁目６番９号ビブレ西方２０８号,,18,201,9100855,,,2021-11-29,清算の結了等,,,2015-12-16,1,,,,,フクセンホールディングス,0
255,1240005012049,登記記録の閉鎖等,0,2021-12-03,2021-11-30,医療法人社団おばたクリニック,,その他の設立登記法人,広島県,三原市,中之町１丁目２０番１６号,,34,204,7230003,,,2021-11-30,清算の結了等,,,2015-10-05,1,,,,,オバタクリニク,0
258,1250002002274,登記記録の閉鎖等,0,2021-12-03,2021-12-01,有限会社メディカル・リーフ,,有限会社,山口県,山口市,幸町３番４９－３号,,35,203,7530826,,,2021-12-01,合併による解散等,8250001008605,令和３年１２月１日山口県美祢市大嶺町東分１１３１３番地７９株式会社美祢シティ薬局（8250001008605）に合併し解散,2015-10-05,1,,,,,メディカルリーフ,0
272,1290801000202,登記記録の閉鎖等,0,2021-12-03,2021-11-30,朝日新聞北九販売株式会社,,株式会社,福岡県,北九州市小倉南区,長野本町１丁目６番４５号,,40,107,8000241,,,2021-11-30,清算の結了等,,,2015-10-05,1,,,,,アサヒシンブンキタキュウハンバイ,0
300,1370003003648,登記記録の閉鎖等,0,2021-12-03,2021-11-30,合同会社みちのく小水力,,合同会社,宮城県,仙台市青葉区,八幡１丁目４番１６号,,04,101,9800871,,,2021-11-30,清算の結了等,,,2016-11-15,1,,,,,ミチノクショウスイリョク,0
301,1370302002251,登記記録の閉鎖等,0,2021-12-03,2021-11-30,有限会社丸秀工業,,有限会社,宮城県,石巻市,北村字大番所２２番地,,04,202,9871103,,,2021-11-30,清算の結了等,,,2015-10-05,1,,,,,マルヒデコウギョウ,0
303,1380001019538,登記記録の閉鎖等,0,2021-12-03,2021-11-30,株式会社高徳,,株式会社,福島県,二本松市,杉田駄子内１１５番地,,07,210,9640862,,,2021-11-30,清算の結了等,,,2015-10-05,1,,,,,コウトク,0
317,1410005001736,登記記録の閉鎖等,0,2021-12-03,2021-12-01,株式会社フォレスト秋田,,株式会社,秋田県,男鹿市,船川港船川字海岸通り一号１２番地１０,,05,206,0100511,,,2021-12-01,合併による解散等,7410002012490,令和３年１２月１日秋田県仙北市田沢湖卒田字柴倉１３５番地株式会社門脇木材（7410002012490）に合併し解散,2015-10-05,1,,,,,フォレストアキタ,0
340,1480005003750,登記記録の閉鎖等,0,2021-12-03,2021-12-02,天理教矢武分教会,,その他の設立登記法人,徳島県,板野郡上板町,椎本字神ノ木１２９番地の２,,36,405,7711343,,,2021-12-02,清算の結了等,,,2015-10-05,1,,,,,,0
371,2010401089241,登記記録の閉鎖等,0,2021-12-03,2021-11-26,株式会社エルエイチシー,,株式会社,東京都,港区,麻布十番１丁目５番２５号,,13,103,1060045,,,2021-11-26,清算の結了等,,,2015-10-05,1,,,,,エルエイチシー,0
382,2010801010616,登記記録の閉鎖等,0,2021-12-03,2021-11-29,プレシジョン・ファクトリー株式会社,,株式会社,東京都,大田区,下丸子４丁目１９番２号,,13,111,1460092,,,2021-11-29,清算の結了等,,,2015-10-05,1,,,,,プレシジョンファクトリー,0
406,2011703000597,登記記録の閉鎖等,0,2021-12-03,2021-12-01,合同会社そら,,合同会社,東京都,江戸川区,北小岩２丁目２４番１７号,,13,123,1330051,,,2021-12-01,清算の結了等,,,2015-10-05,1,,,,,ソラ,0
409,2011801029968,登記記録の閉鎖等,0,2021-12-03,2021-11-30,ＪＨ＆Ｉｎｆｉａｓ株式会社,,株式会社,東京都,葛飾区,高砂３丁目１番２７号,,13,122,1250054,,,2021-11-30,清算の結了等,,,2015-10-05,1,,,,,ジェイエイチアンドインフィアス,0
418,2012801014027,登記記録の閉鎖等,0,2021-12-03,2021-12-01,株式会社立川プロダクション,,株式会社,東京都,立川市,錦町１丁目４番４号,,13,202,1900022,,,2021-12-01,清算の結了等,,,2015-10-05,1,,,,,タチカワプロダクション,0
425,2020001037979,登記記録の閉鎖等,0,2021-12-03,2021-11-30,株式会社斎藤園総合企画,,株式会社,神奈川県,横浜市旭区,本村町６２番地,,14,112,2410024,,,2021-11-30,清算の結了等,,,2015-10-05,1,,,,,サイトウエンソウゴウキカク,0
435,2020001104003,登記記録の閉鎖等,0,2021-12-03,2021-12-01,株式会社津谷川水産,,株式会社,神奈川県,横浜市南区,真金町２丁目１８番地６,,14,105,2320021,,,2021-12-01,清算の結了等,,,2015-10-05,1,,,,,ツヤカワスイサン,0
451,2030001040247,登記記録の閉鎖等,0,2021-12-03,2021-12-02,株式会社メディトラストパートナーズ,,株式会社,東京都,日野市,多摩平５丁目１６番地の１７,,13,212,1910062,,,2021-12-02,清算の結了等,,,2015-10-05,1,,,,,メディトラストパートナーズ,0
454,2030002001727,登記記録の閉鎖等,0,2021-12-03,2021-11-30,有限会社ウッディーハウス,,有限会社,埼玉県,さいたま市浦和区,瀬ヶ崎４丁目２７番１９号,,11,107,3300044,,,2021-11-30,清算の結了等,,,2015-10-05,1,,,,,ウッディーハウス,0
456,2030002073031,登記記録の閉鎖等,0,2021-12-03,2021-11-30,有限会社共進ダクト工業,,有限会社,埼玉県,川越市,大字砂久保１６２番地３３,,11,201,3501152,,,2021-11-30,清算の結了等,,,2015-10-05,1,,,,,キョウシンダクトコウギョウ,0
474,2040002016897,登記記録の閉鎖等,0,2021-12-03,2021-11-29,有限会社グランリーム,,有限会社,千葉県,千葉市花見川区,犢橋町１５１６番地２,,12,102,2620013,,,2021-11-29,清算の結了等,,,2015-10-05,1,,,,,グランリーム,0
492,2070003002662,登記記録の閉鎖等,0,2021-12-03,2021-12-01,合同会社石原,,合同会社,群馬県,伊勢崎市,日乃出町９４４番地１,,10,204,3720022,,,2021-12-01,清算の結了等,,,2016-06-15,1,,,,,イシハラ,0
517,2120001135855,登記記録の閉鎖等,0,2021-12-03,2021-11-30,株式会社ソーラーマックス,,株式会社,大阪府,大阪市淀川区,西中島６丁目７番９号,,27,123,5320011,,,2021-11-30,清算の結了等,,,2015-10-05,1,,,,,ソーラーマックス,0
538,2120902001131,登記記録の閉鎖等,0,2021-12-03,2021-11-30,有限会社テクノエーディ,,有限会社,大阪府,茨木市,南春日丘１丁目２０番Ｂ－４０１号,,27,211,5670046,,,2021-11-30,清算の結了等,,,2015-10-05,1,,,,,テクノエーディ,0
567,2180001039150,登記記録の閉鎖等,0,2021-12-03,2021-12-01,株式会社ナカシマ,,株式会社,愛知県,名古屋市中区,錦２丁目１９番１０号,,23,106,4600003,,,2021-12-01,清算の結了等,,,2015-10-05,1,,,,,ナカシマ,0
570,2180002016578,登記記録の閉鎖等,0,2021-12-03,2021-12-01,株式会社ノノガワ,,株式会社,愛知県,名古屋市東区,泉１丁目２２番７号,,23,102,4610001,,,2021-12-01,合併による解散等,7180001026714,令和３年１２月１日名古屋市西区鳥見町二丁目１３０番地野々川物産株式会社（7180001026714）に合併し解散,2015-10-05,1,,,,,ノノガワ,0
571,2180002047805,登記記録の閉鎖等,0,2021-12-03,2021-11-30,有限会社東海テクノ,,有限会社,愛知県,名古屋市中川区,吉津３丁目３００７番地,,23,110,4540981,,,2021-11-30,清算の結了等,,,2015-10-05,1,,,,,トウカイテクノ,0
572,2180003005101,登記記録の閉鎖等,0,2021-12-03,2021-11-30,合資会社後藤佛壇店,,合資会社,愛知県,名古屋市中区,門前町５番２７号,,23,106,4600018,,,2021-11-30,清算の結了等,,,2015-10-05,1,,,,,ゴトウブツダンテン,0
586,2230002011697,登記記録の閉鎖等,0,2021-12-03,2021-11-30,有限会社中村石油,,有限会社,富山県,高岡市,博労本町３番４０号,,16,202,9330935,,,2021-11-30,清算の結了等,,,2015-10-05,1,,,,,ナカムラセキユ,0
590,2240001034401,登記記録の閉鎖等,0,2021-12-03,2021-12-01,株式会社府中建材センター,,株式会社,広島県,府中市,中須町１１５６番地,,34,208,7260012,,,2021-12-01,清算の結了等,,,2015-10-05,1,,,,,フチュウケンザイセンター,0
598,2250005007336,登記記録の閉鎖等,0,2021-12-03,2021-11-30,中国経営診断事業協同組合,,その他の設立登記法人,山口県,美祢市,伊佐町伊佐３９４２－９,,35,213,7592222,,,2021-11-30,清算の結了等,,,2015-10-05,1,,,,,チュウゴクケイエイシンダン,0
676,2500002022304,登記記録の閉鎖等,0,2021-12-03,2021-12-01,有限会社加地技研,,有限会社,愛媛県,四国中央市,妻鳥町２４７６番地５,,38,213,7990113,,,2021-12-01,清算の結了等,,,2015-10-05,1,,,,,カジギケン,0
700,3010003034149,登記記録の閉鎖等,0,2021-12-03,2021-11-30,Ｐｒｉｍｏ　Ｉｎｖｅｓｔｍｅｎｔｓ合同会社,,合同会社,東京都,千代田区,丸の内３丁目１番１号東京共同会計事務所内,,13,101,1000005,,,2021-11-30,清算の結了等,,,2021-02-09,1,,,,,プリモインベストメンツ,0
707,3010401025204,登記記録の閉鎖等,0,2021-12-03,2021-11-30,ひとみ企業株式会社,,株式会社,東京都,港区,六本木１丁目７番２４－１４０４号,,13,103,1060032,,,2021-11-30,清算の結了等,,,2015-10-05,1,,,,,ヒトミキギョウ,0
710,3010401103389,登記記録の閉鎖等,0,2021-12-03,2021-11-26,株式会社ＪＡＰＡＮ　ＡＣＡＤＥＭＩＣ　ＳＥＲＶＩＣＥＳ,,株式会社,東京都,港区,南青山５丁目１番１０－１２０１号,,13,103,1070062,,,2021-11-26,清算の結了等,,,2015-10-05,1,,,,,ジャパンアカデミックサービシーズ,0
723,3010505001497,登記記録の閉鎖等,0,2021-12-03,2021-11-29,協同組合全国花材流通協会,,その他の設立登記法人,東京都,港区,六本木５丁目１３番１４号,,13,103,1060032,,,2021-11-29,清算の結了等,,,2015-10-05,1,,,,,ゼンコクカザイリュウツウキョウカイ,0
732,3010703002033,登記記録の閉鎖等,0,2021-12-03,2021-11-29,日本アイ・ディー・ティー合同会社,,合同会社,東京都,港区,芝大門１丁目９番９号,,13,103,1050012,,,2021-11-29,清算の結了等,,,2015-10-05,1,,,,,ニッポンアイディーティー,0
736,3010903002840,登記記録の閉鎖等,0,2021-12-03,2021-12-01,ＹＡＫＵＭＯ合同会社,,合同会社,東京都,世田谷区,新町３丁目９番３号,,13,112,1540014,,,2021-12-01,清算の結了等,,,2015-10-05,1,,,,,ヤクモ,0
743,3011005004981,登記記録の閉鎖等,0,2021-12-03,2021-11-24,一般社団法人観光スケッチ協会,,その他の設立登記法人,東京都,渋谷区,恵比寿２丁目２８番１０号ＳｈｕＢＬＤＧ２７０６,,13,113,1500013,,,2021-11-24,清算の結了等,,,2015-10-05,1,,,,,カンコウスケッチキョウカイ,0
744,3011101056778,登記記録の閉鎖等,0,2021-12-03,2021-12-01,株式会社ナースフレンド,,株式会社,東京都,杉並区,高円寺南１丁目７－３,,13,115,1660003,,,2021-12-01,清算の結了等,,,2015-10-05,1,,,,,ナースフレンド,0
754,3011601004914,登記記録の閉鎖等,0,2021-12-03,2021-11-30,株式会社トリオ,,株式会社,東京都,練馬区,北町１丁目２３番２－２０４号,,13,120,1790081,,,2021-11-30,清算の結了等,,,2015-10-05,1,,,,,トリオ,0
764,3012401019326,登記記録の閉鎖等,0,2021-12-03,2021-11-30,エイテック・デジタル株式会社,,株式会社,東京都,三鷹市,大沢１丁目１８番５号,,13,204,1810015,,,2021-11-30,清算の結了等,,,2015-10-05,1,,,,,エイテックデジタル,0
767,3012402007866,登記記録の閉鎖等,0,2021-12-03,2021-11-30,有限会社多磨家石材店,,有限会社,東京都,府中市,紅葉丘２丁目１１番地の４,,13,206,1830004,,,2021-11-30,清算の結了等,,,2015-10-05,1,,,,,タマヤセキザイテン,0
789,3020002088392,登記記録の閉鎖等,0,2021-12-03,2021-11-30,有限会社吉岡デザイン事務所,00011519,有限会社,神奈川県,川崎市宮前区,初山１丁目２２番３０号,,14,136,2160026,,,2021-11-30,清算の結了等,,,2015-10-05,1,,,,,ヨシオカデザインジムショ,0
791,3020005011038,登記記録の閉鎖等,0,2021-12-03,2021-12-01,特定非営利活動法人みらい,,その他の設立登記法人,神奈川県,横浜市緑区,鴨居５丁目１番３号ロックヒル鴨居１Ｆ,,14,113,2260003,,,2021-12-01,清算の結了等,,,2015-10-05,1,,,,,ミライ,0
796,3021002004042,登記記録の閉鎖等,0,2021-12-03,2021-11-25,有限会社針谷電機,,有限会社,神奈川県,藤沢市,亀井野４２９番地の６,,14,205,2520813,,,2021-11-25,清算の結了等,,,2015-10-05,1,,,,,ハリヤデンキ,0
802,3030001092717,登記記録の閉鎖等,0,2021-12-03,2021-11-30,パンダ貿易株式会社,,株式会社,埼玉県,草加市,中央２丁目７番６号内藤ビル１０３,,11,221,3400016,,,2021-11-30,清算の結了等,,,2015-10-05,1,,,,,パンダボウエキ,0
807,3030002103976,登記記録の閉鎖等,0,2021-12-03,2021-11-29,鈴木合成有限会社,,有限会社,埼玉県,川口市,上青木西２丁目３番３２号,,11,203,3330845,,,2021-11-29,清算の結了等,,,2015-10-05,1,,,,,スズキゴウセイ,0
809,3040001000653,登記記録の閉鎖等,0,2021-12-03,2021-12-01,一松産業株式会社,,株式会社,千葉県,千葉市花見川区,幕張本郷１丁目３番１５号,,12,102,2620033,,,2021-12-01,清算の結了等,,,2015-10-05,1,,,,,イチマツサンギョウ,0
822,3040002042901,登記記録の閉鎖等,0,2021-12-03,2021-11-30,有限会社延命寺学園,,有限会社,千葉県,市川市,新井１丁目９番２号,,12,203,2720144,,,2021-11-30,清算の結了等,,,2015-10-05,1,,,,,エンメイジガクエン,0
835,3070001037395,登記記録の閉鎖等,0,2021-12-03,2021-12-02,株式会社シリアクス,,株式会社,群馬県,高崎市,本町４８番地,,10,202,3700813,,,2021-12-02,清算の結了等,,,2020-11-12,1,,,,,シリアクス,0
836,3070002008123,登記記録の閉鎖等,0,2021-12-03,2021-12-01,有限会社パイン,,有限会社,群馬県,前橋市,端気町１４３番地１,,10,201,3710133,,,2021-12-01,清算の結了等,,,2015-10-05,1,,,,,パイン,0
851,3110002027564,登記記録の閉鎖等,0,2021-12-03,2021-11-29,有限会社小島屋酒店,,有限会社,新潟県,長岡市,新町２丁目６番３４号,,15,202,9400023,,,2021-11-29,清算の結了等,,,2015-10-05,1,,,,,コジマヤサケテン,0
889,3140001003902,登記記録の閉鎖等,0,2021-12-03,2021-12-01,ハマ株式会社,,株式会社,兵庫県,神戸市灘区,岩屋中町４丁目２番１５号,,28,102,6570845,,,2021-12-01,清算の結了等,,,2015-10-05,1,,,,,ハマ,0
913,3180002005860,登記記録の閉鎖等,0,2021-12-03,2021-11-30,有限会社オンワード・レディー,,有限会社,山梨県,北杜市,武川町柳澤３０２２番地９,,19,209,4080307,,,2021-11-30,清算の結了等,,,2015-10-05,1,,,,,オンワードレディー,0
933,3240005015140,登記記録の閉鎖等,0,2021-12-03,2021-12-01,一般社団法人レモンループ協会,,その他の設立登記法人,広島県,広島市西区,楠木町２丁目６番１４号,,34,104,7330002,,,2021-12-01,清算の結了等,,,2021-01-06,1,,,,,レモンループキョウカイ,0
936,3250002017808,登記記録の閉鎖等,0,2021-12-03,2021-12-01,パートナー有限会社,,有限会社,山口県,岩国市,山手町１丁目１１番６号,,35,208,7400022,,,2021-12-01,清算の結了等,,,2015-10-05,1,,,,,パートナー,0
954,3290001081603,登記記録の閉鎖等,0,2021-12-03,2021-11-29,株式会社ＬＯＴＵＳ,,株式会社,福岡県,福岡市中央区,大名２丁目１番５７号ＣＳビル７Ｆ,,40,133,8100041,,,2021-11-29,清算の結了等,,,2018-06-01,1,,,,,ロータス,0
955,3290001086123,登記記録の閉鎖等,0,2021-12-03,2021-11-30,株式会社エイトワン,,株式会社,福岡県,福岡市中央区,大名２丁目１０番８－１２０１号,,40,133,8100041,,,2021-11-30,合併による解散等,5290001009998,令和３年１１月３０日福岡市中央区渡辺通四丁目９番１８号福岡建物株式会社（5290001009998）に合併し解散,2019-08-05,1,,,,,エイトワン,0
982,3360001025321,登記記録の閉鎖等,0,2021-12-03,2021-11-26,株式会社ＣｒｅａｔｉｏｎＳ,,株式会社,沖縄県,那覇市,おもろまち３丁目５番２５号,,47,201,9000006,,,2021-11-26,清算の結了等,,,2019-03-08,1,,,,,クリエーションズ,0
1006,3430002017038,登記記録の閉鎖等,0,2021-12-03,2021-11-30,有限会社福山商会,,有限会社,北海道,札幌市西区,二十四軒三条７丁目３番３５号,,01,107,0630803,,,2021-11-30,清算の結了等,,,2015-10-05,1,,,,,フクヤマショウカイ,0
1028,4010001047878,登記記録の閉鎖等,0,2021-12-03,2021-12-01,セーキ実業株式会社,,株式会社,東京都,中央区,日本橋浜町２丁目１８番４号,,13,102,1030007,,,2021-12-01,合併による解散等,4010001052242,令和３年１２月１日東京都中央区日本橋浜町二丁目１８番４号トキワ企画株式会社（4010001052242）に合併し解散,2015-10-05,1,,,,,セーキジツギョウ,0
1032,4010001117078,登記記録の閉鎖等,0,2021-12-03,2021-11-16,株式会社ハケットジャパン,,株式会社,東京都,渋谷区,広尾１丁目９番１６号,,13,113,1500012,,,2021-11-16,清算の結了等,,,2015-10-05,1,,,,,ハケットジャパン,0
1038,4010001185439,登記記録の閉鎖等,0,2021-12-03,2021-11-30,コヨーテ株式会社,,株式会社,東京都,千代田区,九段北４丁目１番地１九段一口坂ビル１０階,,13,101,1020073,,,2021-11-30,清算の結了等,,,2017-08-08,1,,,,,コヨーテ,0
1045,4010005011541,登記記録の閉鎖等,0,2021-12-03,2021-11-26,高島屋保険労働組合,00050072,その他の設立登記法人,東京都,中央区,日本橋３丁目１４－１新々会館４階,,13,102,1030027,,,2021-11-26,清算の結了等,,,2015-10-05,1,,,,,タカシマヤホケン,0
1058,4010501028023,登記記録の閉鎖等,0,2021-12-03,2021-12-01,株式会社ウィル,,株式会社,東京都,台東区,東上野３丁目２１番６号,,13,106,1100015,,,2021-12-01,清算の結了等,,,2015-10-05,1,,,,,ウィル,0
1063,4010701016802,登記記録の閉鎖等,0,2021-12-03,2021-11-30,オウトクンプ株式会社,,株式会社,東京都,品川区,大崎１丁目２０番８号ＩＮＯビル大崎３０３号,,13,109,1410032,,,2021-11-30,清算の結了等,,,2015-10-05,1,,,,,オウトクンプ,0
1066,4010802000903,登記記録の閉鎖等,0,2021-12-03,2021-11-30,有限会社アルファ企画,,有限会社,神奈川県,横浜市緑区,東本郷５丁目２番１１号パールシャトー城田ＩＩ１０１号室,00109393,14,113,2260002,,,2021-11-30,清算の結了等,,,2015-10-05,1,,,,,アルファキカク,0
1095,4012802001724,登記記録の閉鎖等,0,2021-12-03,2021-12-01,有限会社永野工事,,有限会社,東京都,立川市,錦町１丁目１番２０号ヴィラ・フェニックス,,13,202,1900022,,,2021-12-01,清算の結了等,,,2015-10-05,1,,,,,,0
1101,4020001029719,登記記録の閉鎖等,0,2021-12-03,2021-12-01,若葉運輸株式会社,,株式会社,神奈川県,横浜市中区,相生町１丁目２５番地,,14,104,2310012,,,2021-12-01,清算の結了等,,,2015-10-05,1,,,,,ワカバウンユ,0
1114,4020003011419,登記記録の閉鎖等,0,2021-12-03,2021-11-30,合同会社マロニエ,,合同会社,神奈川県,横浜市港北区,新横浜３丁目７番地１８,,14,109,2220033,,,2021-11-30,清算の結了等,,,2016-06-09,1,,,,,マロニエ,0
1120,4021002019799,登記記録の閉鎖等,0,2021-12-03,2021-11-26,有限会社計測ソフトウェア,,有限会社,神奈川県,相模原市緑区,田名２５８１番地の８５,,14,151,2520124,,,2021-11-26,清算の結了等,,,2015-10-05,1,,,,,ケイソクソフトウェア,0
1129,4030001049848,登記記録の閉鎖等,0,2021-12-03,2021-11-26,株式会社大昌建設,,株式会社,埼玉県,朝霞市,三原２丁目６番２号,,11,227,3510025,,,2021-11-26,清算の結了等,,,2015-10-05,1,,,,,ダイショウケンセツ,0
1141,4040001041861,登記記録の閉鎖等,0,2021-12-03,2021-11-29,株式会社ＨＩＤＥコーポレーション,,株式会社,千葉県,松戸市,常盤平５丁目１３番地の１９,,12,207,2702261,,,2021-11-29,清算の結了等,,,2015-10-05,1,,,,,ヒデコーポレーション,0
1185,4120001007409,登記記録の閉鎖等,0,2021-12-03,2021-12-01,国土工業株式会社,,株式会社,大阪府,大阪市都島区,東野田町２丁目９番９号,,27,102,5340024,,,2021-12-01,合併による解散等,2120001007410,令和３年１２月１日大阪市都島区東野田町二丁目９番７号国土建設株式会社（2120001007410）に合併し解散,2015-10-05,1,,,,,コクドコウギョウ,0
1190,4120001235331,登記記録の閉鎖等,0,2021-12-03,2021-11-29,株式会社大阪中津ホテルマネジメント,,株式会社,大阪府,大阪市北区,中津１丁目１１番１号,,27,127,5310071,,,2021-11-29,合併による解散等,7120001235808,令和３年１１月２５日大阪市北区中津一丁目１１番１号ＷＢＦホテルマネジメント株式会社（7120001235808）に合併し解散,2021-02-18,1,,,,,オオサカナカツホテルマネジメント,0
1211,4130001024733,登記記録の閉鎖等,0,2021-12-03,2021-11-30,株式会社サンケイ,,株式会社,京都府,京都市下京区,花屋町通下松屋町西入突抜２丁目３５３番地の１,,26,106,6008364,,,2021-11-30,清算の結了等,,,2017-03-21,1,,,,,サンケイ,0
1224,4140002005491,登記記録の閉鎖等,0,2021-12-03,2021-12-01,有限会社神戸エルゼ,,有限会社,兵庫県,神戸市西区,伊川谷町前開１０３９番地,,28,111,6512108,,,2021-12-01,清算の結了等,,,2015-10-05,1,,,,,コウベエルゼ,0
1276,4240002053002,登記記録の閉鎖等,0,2021-12-03,2021-12-01,有限会社岡盛酒店,,有限会社,広島県,三原市,城町１丁目１３番１６号,,34,204,7230014,,,2021-12-01,清算の結了等,,,2015-10-05,1,,,,,オカモリサケテン,0
1312,4350002003714,登記記録の閉鎖等,0,2021-12-03,2021-12-01,有限会社ハラグチ,,有限会社,宮崎県,宮崎市,学園木花台北３丁目８２９４番地５３,,45,201,8892152,,,2021-12-01,合併による解散等,4350001005182,令和３年１２月１日宮崎市学園木花台北三丁目８２９４番地５３株式会社学園台ハウジング（4350001005182）に合併し解散,2015-10-05,1,,,,,ハラグチ,0
1315,4360001023778,登記記録の閉鎖等,0,2021-12-03,2021-11-30,レスターコンサルティング株式会社,,株式会社,沖縄県,宜野湾市,字大謝名２０１番地,,47,205,9012225,,,2021-11-30,合併による解散等,7360001012919,令和３年１１月３０日沖縄県宜野湾市字大謝名２０１番地フェリスコンサルティング株式会社（7360001012919）に合併し解散,2018-04-05,1,,,,,レスターコンサルティング,0
1318,4360002021236,登記記録の閉鎖等,0,2021-12-03,2021-11-30,有限会社シモサトカラー,,有限会社,沖縄県,石垣市,字石垣１番地の１,,47,207,9070023,,,2021-11-30,清算の結了等,,,2015-10-05,1,,,,,シモサトカラー,0
1325,4370802001980,登記記録の閉鎖等,0,2021-12-03,2021-11-30,有限会社氏家企画,,有限会社,宮城県,亘理郡亘理町,字舘南８６番地,,04,361,9892361,,,2021-11-30,清算の結了等,,,2015-10-05,1,,,,,ウジイエキカク,0
1338,4430001030148,登記記録の閉鎖等,0,2021-12-03,2021-12-01,株式会社インフォワーク,,株式会社,北海道,札幌市中央区,北四条西６丁目１番３号,,01,101,0600004,,,2021-12-01,合併による解散等,4430001001124,令和３年１２月１日札幌市東区北六条東四丁目１番地７株式会社アルファビジネス（4430001001124）に合併し解散,2015-10-05,1,,,,,インフォワーク,0
1342,4430002059459,登記記録の閉鎖等,0,2021-12-03,2021-11-30,有限会社中野フラツツ,,有限会社,北海道,苫小牧市,大成町２丁目１番１０号,,01,213,0530806,,,2021-11-30,清算の結了等,,,2015-10-05,1,,,,,ナカノフラツツ,0
1353,4500003001569,登記記録の閉鎖等,0,2021-12-03,2021-12-01,合同会社ホスロージャパン,,合同会社,愛媛県,松山市,北斎院町８１０番地４５,,38,201,7918031,,,2021-12-01,清算の結了等,,,2015-10-05,1,,,,,ホスロージャパン,0
1366,5010001142819,登記記録の閉鎖等,0,2021-12-03,2021-11-26,エス・ブイ・アイ・ジャパン株式会社,,株式会社,東京都,千代田区,丸の内１丁目８番３号丸の内トラストタワー本館２０階,,13,101,1000005,,,2021-11-26,清算の結了等,,,2015-10-05,1,,,,,エスブイアイジャパン,0
1380,5010401158274,登記記録の閉鎖等,0,2021-12-03,2021-11-26,株式会社ＣＶ２号,,株式会社,東京都,港区,赤坂８丁目１０－２４住友不動産青山ビル南館６階Ｏａｋキャピタル株式会社内,,13,103,1070052,,,2021-11-26,清算の結了等,,,2021-02-16,1,,,,,シーブイ,0
1399,5011001037208,登記記録の閉鎖等,0,2021-12-03,2021-11-29,株式会社フォトン,,株式会社,東京都,港区,台場１丁目５番４－９０５号,,13,103,1350091,,,2021-11-29,清算の結了等,,,2015-10-05,1,,,,,フォトン,0
1443,5020002096939,登記記録の閉鎖等,0,2021-12-03,2021-12-01,三光商亊有限会社,,有限会社,神奈川県,川崎市川崎区,南町１５番地１９,,14,131,2100015,,,2021-12-01,清算の結了等,,,2015-10-05,1,,,,,サンコウショウジ,0
1454,5021002046850,登記記録の閉鎖等,0,2021-12-03,2021-11-30,有限会社ファムテク,,有限会社,神奈川県,綾瀬市,深谷３８１４番地３,,14,218,2521103,,,2021-11-30,清算の結了等,,,2015-10-05,1,,,,,ファムテク,0
1470,5040001061017,登記記録の閉鎖等,0,2021-12-03,2021-11-30,株式会社ベニエ,,株式会社,千葉県,浦安市,富士見１丁目１番２０号１Ｆ,,12,227,2790043,,,2021-11-30,清算の結了等,,,2015-10-05,1,,,,,ベニエ,0
1505,5100002033743,登記記録の閉鎖等,0,2021-12-03,2021-11-30,有限会社サイレン自動車工場,,有限会社,長野県,駒ヶ根市,東町１８番３７号,,20,210,3994106,,,2021-11-30,清算の結了等,,,2015-10-05,1,,,,,サイレンジドウシャコウジョウ,0
1514,5120001007399,登記記録の閉鎖等,0,2021-12-03,2021-12-01,株式会社ケィ・ツー・コーポレイション,,株式会社,大阪府,大阪市都島区,東野田町２丁目９番７号,,27,102,5340024,,,2021-12-01,合併による解散等,2120001007410,令和３年１２月１日大阪市都島区東野田町二丁目９番７号国土建設株式会社（2120001007410）に合併し解散,2015-10-05,1,,,,,,0
1515,5120001156147,登記記録の閉鎖等,0,2021-12-03,2021-12-01,太陽リース株式会社,,株式会社,大阪府,枚方市,春日野１丁目１１番２７号,,27,210,5730131,,,2021-12-01,合併による解散等,8120001156549,令和３年１２月１日大阪府枚方市春日野一丁目１１番２７号枚方太陽株式会社（8120001156549）に合併し解散,2015-10-05,1,,,,,タイヨウリース,0
1518,5120001156345,登記記録の閉鎖等,0,2021-12-03,2021-12-01,株式会社東京太陽,,株式会社,大阪府,枚方市,春日野１丁目１１番２７号,,27,210,5730131,,,2021-12-01,合併による解散等,8120001156549,令和３年１２月１日大阪府枚方市春日野一丁目１１番２７号枚方太陽株式会社（8120001156549）に合併し解散,2015-10-05,1,,,,,,0
1522,5120001218335,登記記録の閉鎖等,0,2021-12-03,2021-12-02,株式会社エヌスリー,,株式会社,大阪府,枚方市,山之上４丁目２４番１号,,27,210,5730047,,,2021-12-02,清算の結了等,,,2019-01-16,1,,,,,エヌスリー,0
1589,5180302015021,登記記録の閉鎖等,0,2021-12-03,2021-12-01,有限会社佐々木組,,有限会社,愛知県,蒲郡市,府相町端廻８０６番地,,23,214,4430054,,,2021-12-01,清算の結了等,,,2015-10-05,1,,,,,ササキグミ,0
1606,5240001043671,登記記録の閉鎖等,0,2021-12-03,2021-12-02,株式会社フジミコーポレーション,,株式会社,広島県,福山市,東川口町２丁目１番１８号,,34,207,7200821,,,2021-12-02,清算の結了等,,,2015-10-05,1,,,,,フジミコーポレーション,0
1614,5250001017708,登記記録の閉鎖等,0,2021-12-03,2021-11-30,株式会社ＰＭＯ美祢,,株式会社,山口県,美祢市,於福町下２８６９番地１１,,35,213,7592302,,,2021-11-30,清算の結了等,,,2019-05-20,1,,,,,ピーエムオーミネ,0
1615,5250005002854,登記記録の閉鎖等,0,2021-12-03,2021-12-01,特定非営利活動法人ひまわりの会,,その他の設立登記法人,山口県,宇部市,大字西岐波１０４３番地２,,35,202,7550151,,,2021-12-01,清算の結了等,,,2015-10-05,1,,,,,ヒマワリノカイ,0
1621,5260005008306,登記記録の閉鎖等,0,2021-12-03,2021-11-30,農事組合法人玉野養豚組合,,その他の設立登記法人,岡山県,玉野市,和田３丁目１番５号,,33,204,7060021,,,2021-11-30,清算の結了等,,,2015-10-05,1,,,,,タマノヨウトンクミアイ,0
1624,5280002005469,登記記録の閉鎖等,0,2021-12-03,2021-12-01,有限会社當江フーヅ,,有限会社,島根県,出雲市,塩冶有原町６丁目５０番地,,32,203,6930023,,,2021-12-01,清算の結了等,,,2015-10-05,1,,,,,トウエフーヅ,0
1632,5290002044185,登記記録の閉鎖等,0,2021-12-03,2021-11-30,有限会社ハーテック,,有限会社,福岡県,朝倉郡筑前町,二２４２番地１７,,40,447,8380228,,,2021-11-30,清算の結了等,,,2015-10-05,1,,,,,ハーテック,0
1657,5370002011243,登記記録の閉鎖等,0,2021-12-03,2021-11-30,有限会社佐藤赤飯,,有限会社,宮城県,仙台市青葉区,錦町２丁目４番７号,,04,101,9800012,,,2021-11-30,清算の結了等,,,2015-10-05,1,,,,,サトウセキハン,0
1662,5380001017083,登記記録の閉鎖等,0,2021-12-03,2021-12-01,株式会社吉宗グループ,00083268,株式会社,福島県,郡山市,八山田５丁目３９５番地,,07,203,9638052,,,2021-12-01,清算の結了等,,,2015-10-05,1,,,,,ヨシムネグループ,0
1667,5400005007929,登記記録の閉鎖等,0,2021-12-03,2021-12-02,一般社団法人Ｉ－ｓｕｐｐｏｒｔ,,その他の設立登記法人,岩手県,奥州市,水沢真城字塚３１番地３,,03,215,0230841,,,2021-12-02,清算の結了等,,,2018-10-15,1,,,,,アイサポート,0
1681,5480002011901,登記記録の閉鎖等,0,2021-12-03,2021-12-02,有限会社野田メディカル,,有限会社,徳島県,板野郡上板町,鍛冶屋原字妙楽寺１５番地１,,36,405,7711301,,,2021-12-02,清算の結了等,,,2015-10-05,1,,,,,ノダメディカル,0
1685,5500002023662,登記記録の閉鎖等,0,2021-12-03,2021-12-02,有限会社橋本測量設計,,有限会社,愛媛県,宇和島市,三間町土居中１０５０番地,,38,203,7981125,,,2021-12-02,清算の結了等,,,2015-10-05,1,,,,,ハシモトソクリョウセッケイ,0
1721,6010001077782,登記記録の閉鎖等,0,2021-12-03,2021-12-02,株式会社Ｊ－ＰＯＷＥＲサプライアンドトレーディング,,株式会社,東京都,中央区,銀座６丁目１５番１号,,13,102,1040061,,,2021-12-02,合併による解散等,6010001050764,令和３年１２月１日東京都中央区銀座六丁目１５番１号電源開発株式会社（6010001050764）に合併し解散,2015-10-05,1,,,,,ジェイパワーサプライアンドトレーディング,0
1736,6010003014379,登記記録の閉鎖等,0,2021-12-03,2021-11-29,フェーベ合同会社,,合同会社,東京都,港区,赤坂２丁目１０番５号税理士法人赤坂国際会計事務所内,,13,103,1070052,,,2021-11-29,清算の結了等,,,2015-10-05,1,,,,,フェーベ,0
1737,6010003030087,登記記録の閉鎖等,0,2021-12-03,2021-12-01,合同会社ＶＣ銀座,,合同会社,東京都,千代田区,丸の内３丁目１番１号東京共同会計事務所内,,13,101,1000005,,,2021-12-01,清算の結了等,,,2019-06-27,1,,,,,ブイシーギンザ,0
1747,6010401150156,登記記録の閉鎖等,0,2021-12-03,2021-11-29,ｉＣａｓｈ株式会社,,株式会社,東京都,港区,北青山２丁目７番１３号プラセオ青山ビル３階,,13,103,1070061,,,2021-11-29,清算の結了等,,,2020-01-08,1,,,,,アイキャッシュ,0
1804,6012701015518,登記記録の閉鎖等,0,2021-12-03,2021-11-30,株式会社田中建業,,株式会社,東京都,小平市,上水本町６丁目３番１６号,,13,211,1870022,,,2021-11-30,清算の結了等,,,2019-09-06,1,,,,,タナカケンギョウ,0
1810,6013402001336,登記記録の閉鎖等,0,2021-12-03,2021-11-30,有限会社布留川,,有限会社,東京都,日野市,西平山１丁目２７番３号,,13,212,1910055,,,2021-11-30,清算の結了等,,,2015-10-05,1,,,,,フルカワ,0
1831,6030001043295,登記記録の閉鎖等,0,2021-12-03,2021-12-01,株式会社ＴＯＲＩＺＯＵＹＡ,,株式会社,埼玉県,桶川市,大字加納２０４４番地の４３,,11,231,3630001,,,2021-12-01,清算の結了等,,,2015-10-05,1,,,,,,0
1834,6030002059852,登記記録の閉鎖等,0,2021-12-03,2021-11-30,有限会社三愛ナガイ薬局,,有限会社,埼玉県,志木市,館２丁目６番１１号,,11,228,3530006,,,2021-11-30,清算の結了等,,,2015-10-05,1,,,,,サンアイナガイヤッキョク,0
1840,6040001064877,登記記録の閉鎖等,0,2021-12-03,2021-11-30,株式会社芳裕コーポレーション,,株式会社,千葉県,市川市,南大野２丁目１３番４号,,12,203,2720804,,,2021-11-30,清算の結了等,,,2015-10-05,1,,,,,ホウユウコーポレーション,0
1855,6050002025084,登記記録の閉鎖等,0,2021-12-03,2021-11-30,有限会社シラトリカイロ,,有限会社,茨城県,古河市,横山町２丁目１番３号,,08,204,3060022,,,2021-11-30,清算の結了等,,,2015-10-05,1,,,,,シラトリカイロ,0
1868,6080001020570,登記記録の閉鎖等,0,2021-12-03,2021-12-01,株式会社ティエラシステムズ,,株式会社,静岡県,藤枝市,北方２２７番地の４８,,22,214,4260212,,,2021-12-01,合併による解散等,8080001016559,令和３年１２月１日静岡県藤枝市北方字白藤２２７番地の４８株式会社大海（8080001016559）に合併し解散,2015-11-04,1,,,,,ティエラシステムズ,0
1880,6120001030920,登記記録の閉鎖等,0,2021-12-03,2021-11-30,新日本機工株式会社,,株式会社,大阪府,大阪市住之江区,東加賀屋３丁目１番１号,,27,125,5590012,,,2021-11-30,清算の結了等,,,2015-10-05,1,,,,,シンニホンキコウ,0
1882,6120001054754,登記記録の閉鎖等,0,2021-12-03,2021-12-01,紀和製版株式会社,,株式会社,大阪府,大阪市淀川区,三津屋北１丁目１０番１２号,,27,123,5320032,,,2021-12-01,清算の結了等,,,2015-10-05,1,,,,,キワセイハン,0
1899,6120005015686,登記記録の閉鎖等,0,2021-12-03,2021-11-30,一般社団法人日中Ｍ＆Ａ支援協会,,その他の設立登記法人,大阪府,大阪市北区,東天満２丁目９番４号千代田ビル東館二階,,27,127,5300044,,,2021-11-30,清算の結了等,,,2015-10-05,1,,,,,ニッチュウエムアンドエーシエンキョウカイ,0
1914,6130002021959,登記記録の閉鎖等,0,2021-12-03,2021-11-30,有限会社Ａ・Ｃエンジニアリング,,有限会社,京都府,京都市右京区,山ノ内御堂殿町１７番地１２,,26,108,6150091,,,2021-11-30,清算の結了等,,,2015-10-05,1,,,,,エーシーエンジニアリング,0
1916,6140001013667,登記記録の閉鎖等,0,2021-12-03,2021-12-01,東京黒田食品株式会社,,株式会社,兵庫県,神戸市兵庫区,七宮町１丁目５番１１号,,28,105,6520831,,,2021-12-01,清算の結了等,,,2015-10-05,1,,,,,トウキョウクロダショクヒン,0
1926,6140002015200,登記記録の閉鎖等,0,2021-12-03,2021-11-30,有限会社ナカニシ,,有限会社,兵庫県,神戸市中央区,北長狭通３丁目７番７号,,28,110,6500012,,,2021-11-30,清算の結了等,,,2015-10-05,1,,,,,ナカニシ,0
1945,6180001141613,登記記録の閉鎖等,0,2021-12-03,2021-11-29,株式会社みらいふどうさん,,株式会社,愛知県,名古屋市中区,錦１丁目５番１１号,,23,106,4600003,,,2021-11-29,清算の結了等,,,2020-06-22,1,,,,,ミライフドウサン,0
1951,6180002028818,登記記録の閉鎖等,0,2021-12-03,2021-11-30,有限会社ビビット,,有限会社,愛知県,名古屋市中村区,並木１丁目１１番地,,23,105,4530856,,,2021-11-30,清算の結了等,,,2015-10-05,1,,,,,ビビット,0
1971,6230002008698,登記記録の閉鎖等,0,2021-12-03,2021-11-30,有限会社エービッグ,,有限会社,富山県,黒部市,田家新５８４番地１,,16,207,9380045,,,2021-11-30,清算の結了等,,,2015-10-05,1,,,,,エービッグ,0
1982,6240002015982,登記記録の閉鎖等,0,2021-12-03,2021-12-01,三浦産業有限会社,,有限会社,広島県,広島市中区,南千田東町３番９号,,34,101,7300054,,,2021-12-01,合併による解散等,6240001011297,令和３年１２月１日広島市中区南千田東町３番９号株式会社ミウラ（6240001011297）に合併し解散,2015-10-05,1,,,,,ミウラサンギョウ,0
1983,6240002018911,登記記録の閉鎖等,0,2021-12-03,2021-12-01,有限会社プーテゥジュール,,有限会社,広島県,広島市佐伯区,新宮苑１２番２６号,,34,108,7315126,,,2021-12-01,清算の結了等,,,2015-10-05,1,,,,,プーテゥジュール,0
1990,6260001002575,登記記録の閉鎖等,0,2021-12-03,2021-12-01,山陽オートガス株式会社,,株式会社,岡山県,岡山市北区,東島田町１丁目１番２号,,33,101,7000983,,,2021-12-01,合併による解散等,8260001001105,令和３年１２月１日岡山市北区田町二丁目１番１号株式会社サンセキ（8260001001105）に合併し解散,2015-10-05,1,,,,,サンヨウオートガス,0
2004,6290002051585,登記記録の閉鎖等,0,2021-12-03,2021-11-30,有限会社エヌシス工房,,有限会社,福岡県,小郡市,三沢４１５９番地の３６,,40,216,8380106,,,2021-11-30,清算の結了等,,,2015-10-05,1,,,,,エヌシスコウボウ,0
2030,6370003003313,登記記録の閉鎖等,0,2021-12-03,2021-11-26,合同会社プラス,,合同会社,宮城県,石巻市,南中里４丁目８番２１号,,04,202,9860814,,,2021-11-26,清算の結了等,,,2016-01-28,1,,,,,プラス,0
2036,6380005002683,登記記録の閉鎖等,0,2021-12-03,2021-12-01,福島まちづくり事業協同組合,,その他の設立登記法人,福島県,郡山市,朝日１丁目６番１２号,,07,203,9638024,,,2021-12-01,清算の結了等,,,2015-10-05,1,,,,,フクシママチヅクリ,0
2039,6410002006254,登記記録の閉鎖等,0,2021-12-03,2021-12-01,有限会社西山塗装工業,,有限会社,秋田県,男鹿市,船川港船川字芦沢１４０番地の１,00086656,05,206,0100511,,,2021-12-01,清算の結了等,,,2015-10-05,1,,,,,ニシヤマトソウコウギョウ,0
2044,6430002044657,登記記録の閉鎖等,0,2021-12-03,2021-12-01,有限会社北昇工業,,有限会社,北海道,北広島市,西の里東１丁目１２番地１２,,01,234,0611105,,,2021-12-01,清算の結了等,,,2015-10-05,1,,,,,ホクショウコウギョウ,0
2083,7010003020541,登記記録の閉鎖等,0,2021-12-03,2021-11-30,合同会社サンライズ・ツー,,合同会社,東京都,千代田区,丸の内３丁目１番１号東京共同会計事務所内,,13,101,1000005,,,2021-11-30,清算の結了等,,,2015-10-05,1,,,,,サンライズツー,0
2091,7010403023276,登記記録の閉鎖等,0,2021-12-03,2021-11-26,合同会社ＮＳＦ１号,,合同会社,東京都,港区,赤坂８丁目１０－２４住友不動産ビル青山ビル南館６階株式会社Ｏａｋキャピタル内,,13,103,1070052,,,2021-11-26,清算の結了等,,,2020-07-09,1,,,,,エヌエフエスイチゴウ,0
2103,7010901030220,登記記録の閉鎖等,0,2021-12-03,2021-11-24,ウレシア株式会社,,株式会社,東京都,目黒区,八雲５丁目１９番２１－３０３号,,13,110,1520023,,,2021-11-24,清算の結了等,,,2015-10-05,1,,,,,ウレシア,0
2120,7011401000622,登記記録の閉鎖等,0,2021-12-03,2021-12-01,株式会社いづみや,,株式会社,東京都,板橋区,常盤台２丁目６番３号,,13,119,1740071,,,2021-12-01,合併による解散等,4011401019285,令和３年１１月３０日東京都板橋区常盤台二丁目６番３号株式会社高主（4011401019285）に合併し解散,2015-10-05,1,,,,,,0
2121,7011401002379,登記記録の閉鎖等,0,2021-12-03,2021-11-29,三喜株式会社,,株式会社,東京都,板橋区,西台３丁目５３番１５号,,13,119,1750045,,,2021-11-29,清算の結了等,,,2015-10-05,1,,,,,サンキ,0
2131,7011802028865,登記記録の閉鎖等,0,2021-12-03,2021-12-01,有限会社Ｔ．Ｏ．Ｃ．Ｏｐｔ－ＳＥＮＪＵ,,有限会社,東京都,足立区,千住東２丁目１番１号,,13,121,1200025,,,2021-12-01,清算の結了等,,,2015-10-05,1,,,,,ティーオーシーオプトセンジュ,0
2132,7011805001712,登記記録の閉鎖等,0,2021-12-03,2021-12-01,医療法人社団英成会,,その他の設立登記法人,東京都,足立区,足立４丁目３７番１２号グレイトラッキーアオヤマ１階,,13,121,1200015,,,2021-12-01,清算の結了等,,,2015-10-05,1,,,,,エイセイカイ,0
2143,7020001048773,登記記録の閉鎖等,0,2021-12-03,2021-11-29,株式会社シーエスサーベイ,,株式会社,神奈川県,茅ヶ崎市,新栄町６番１４－１１１０号,,14,207,2530044,,,2021-11-29,清算の結了等,,,2015-10-05,1,,,,,シーエスサーベイ,0
2144,7020001059457,登記記録の閉鎖等,0,2021-12-03,2021-12-01,株式会社事務局,,株式会社,神奈川県,横浜市緑区,白山１丁目４番１－１１０７号,,14,113,2260006,,,2021-12-01,清算の結了等,,,2015-10-05,1,,,,,ジムキョク,0
2147,7020001087573,登記記録の閉鎖等,0,2021-12-03,2021-11-30,株式会社芳勝,,株式会社,神奈川県,横浜市磯子区,杉田８丁目４２番１３号,,14,107,2350033,,,2021-11-30,清算の結了等,,,2015-10-05,1,,,,,ホウショウ,0
2190,7080001020066,登記記録の閉鎖等,0,2021-12-03,2021-11-30,株式会社ＲＥＰＲＯＭＡＴＩＣ　ＪＡＰＡＮ,,株式会社,静岡県,焼津市,中新田９３７番地の１,,22,212,4250068,,,2021-11-30,清算の結了等,,,2015-10-05,1,,,,,リプロマティックジャパン,0
2193,7080103001162,登記記録の閉鎖等,0,2021-12-03,2021-12-01,合同会社ファストネット,,合同会社,静岡県,富士宮市,杉田１０１９番地の４,,22,207,4180021,,,2021-12-01,清算の結了等,,,2015-10-05,1,,,,,ファストネット,0
2195,7080402000278,登記記録の閉鎖等,0,2021-12-03,2021-11-30,有限会社アガペー,,有限会社,静岡県,浜松市中区,富塚町２２６９番地の７,,22,131,4328002,,,2021-11-30,清算の結了等,,,2015-10-05,1,,,,,アガペー,0
2196,7080402016019,登記記録の閉鎖等,0,2021-12-03,2021-11-30,有限会社エムシステム,,有限会社,静岡県,浜松市北区,引佐町金指８５８番地の２,,22,135,4312213,,,2021-11-30,清算の結了等,,,2015-10-05,1,,,,,エムシステム,0
2229,7130001035422,登記記録の閉鎖等,0,2021-12-03,2021-11-25,株式会社あきら工房,,株式会社,京都府,亀岡市,西つつじケ丘雲仙台１丁目４番１２号,,26,206,6210842,,,2021-11-25,清算の結了等,,,2015-10-05,1,,,,,アキラコウボウ,0
2241,7140002033192,登記記録の閉鎖等,0,2021-12-03,2021-12-01,タツノ肥料有限会社,,有限会社,兵庫県,たつの市,龍野町片山４３３番地,,28,229,6794123,,,2021-12-01,合併による解散等,5260001000547,令和３年１２月１日岡山市北区大内田７６９番地１日植アグリ株式会社（5260001000547）に合併し解散,2015-10-05,1,,,,,タツノヒリョウ,0
2275,7190002011359,登記記録の閉鎖等,0,2021-12-03,2021-12-01,有限会社小林真珠商会,,有限会社,三重県,志摩市,志摩町越賀１６８１番地の１,,24,215,5170704,,,2021-12-01,清算の結了等,,,2015-10-05,1,,,,,コバヤシシンジュショウカイ,0
2285,7230002004465,登記記録の閉鎖等,0,2021-12-03,2021-11-30,有限会社西野シーリング,,有限会社,富山県,富山市,茶屋町２２５－３,,16,201,9300115,,,2021-11-30,清算の結了等,,,2015-10-05,1,,,,,ニシノシーリング,0
2293,7240002045855,登記記録の閉鎖等,0,2021-12-03,2021-11-30,有限会社ササクラ,,有限会社,広島県,福山市,明王台２丁目５番１８号,,34,207,7200834,,,2021-11-30,清算の結了等,,,2015-10-05,1,,,,,ササクラ,0
2306,7280005007122,登記記録の閉鎖等,0,2021-12-03,2021-12-01,一般社団法人ベルクムント,,その他の設立登記法人,島根県,鹿足郡津和野町,中川３０６番地,,32,501,6995634,,,2021-12-01,合併による解散等,7280005006990,令和３年１２月１日島根県鹿足郡津和野町中川２９３番地６一般社団法人アイングランツ（7280005006990）に合併し解散,2016-04-06,1,,,,,ベルクムント,0
2360,7420002006855,登記記録の閉鎖等,0,2021-12-03,2021-11-30,有限会社ケー・エムコーポレーション,,有限会社,青森県,八戸市,大字長苗代字前田５８番地４,,02,203,0391103,,,2021-11-30,清算の結了等,,,2015-10-05,1,,,,,ケーエムコーポレーション,0
2362,7430001016037,登記記録の閉鎖等,0,2021-12-03,2021-12-01,株式会社太陽新社,,株式会社,北海道,札幌市中央区,大通西２８丁目１番２号,,01,101,0640820,,,2021-12-01,合併による解散等,8430001009320,令和３年１２月１日札幌市中央区大通西二十八丁目１番２号大黒総業株式会社（8430001009320）に合併し解散,2015-10-05,1,,,,,タイヨウシンシャ,0
2365,7430002011342,登記記録の閉鎖等,0,2021-12-03,2021-11-29,有限会社ソドサービス,,有限会社,北海道,札幌市西区,発寒五条２丁目１番１１号,,01,107,0630825,,,2021-11-29,清算の結了等,,,2015-10-05,1,,,,,ソドサービス,0
2368,7430003008949,登記記録の閉鎖等,0,2021-12-03,2021-12-01,株式会社ゲストハウスジャパン,,株式会社,北海道,札幌市中央区,南九条西３丁目１番１７号,,01,101,0640809,,,2021-12-01,合併による解散等,7450001007050,令和３年１２月１日北海道旭川市永山三条十八丁目１番８号株式会社北海道光健康社（7450001007050）に合併し解散,2017-12-15,1,,,,,ゲストハウスジャパン,0
2442,8011502004364,登記記録の閉鎖等,0,2021-12-03,2021-12-01,有限会社長沢赤羽調剤薬局,,有限会社,東京都,板橋区,坂下２丁目３２番２３号,,13,119,1740043,,,2021-12-01,合併による解散等,6011401010787,令和３年１２月１日東京都板橋区坂下二丁目３２番２３号株式会社エスシーグループ（6011401010787）に合併し解散,2015-10-05,1,,,,,ナガサワアカバネチョウザイヤッキョク,0
2444,8011602000965,登記記録の閉鎖等,0,2021-12-03,2021-11-30,石神ユニット設備有限会社,,有限会社,埼玉県,さいたま市桜区,大字上大久保８１９番地４ライオンズマンション浦和北２０５,,11,106,3380824,,,2021-11-30,清算の結了等,,,2015-10-05,1,,,,,イシガミユニットセツビ,0
2446,8011701004941,登記記録の閉鎖等,0,2021-12-03,2021-12-01,株式会社タックビジネスサービスセンター,,株式会社,東京都,江戸川区,北小岩２丁目３８番１３号,,13,123,1330051,,,2021-12-01,清算の結了等,,,2015-10-05,1,,,,,タックビジネスサービスセンター,0
2450,8011702017538,登記記録の閉鎖等,0,2021-12-03,2021-11-30,有限会社バッドボーイジャパン,,有限会社,東京都,江戸川区,平井２丁目１１番１号,,13,123,1320035,,,2021-11-30,清算の結了等,,,2015-10-05,1,,,,,バッドボーイジャパン,0
2463,8012801021034,登記記録の閉鎖等,0,2021-12-03,2021-11-30,株式会社岡工務店,,株式会社,東京都,東大和市,芋窪５丁目１１０６番地,,13,220,2070033,,,2021-11-30,清算の結了等,,,2021-08-24,1,,,,,オカコウムテン,0
2468,8013302017918,登記記録の閉鎖等,0,2021-12-03,2021-11-30,有限会社陽和,,有限会社,千葉県,千葉市美浜区,磯辺１丁目１２番１号,,12,106,2610012,,,2021-11-30,清算の結了等,,,2015-10-05,1,,,,,,0
2489,8021001050108,登記記録の閉鎖等,0,2021-12-03,2021-11-30,株式会社ＡＳＩＡＮ　ＣＡＲＥ,,株式会社,神奈川県,藤沢市,鵠沼橘１丁目１番２号Ｆ．Ｉ．Ｃ鵠沼ビル４階,,14,205,2510024,,,2021-11-30,合併による解散等,1021001005720,令和３年１１月３０日神奈川県藤沢市鵠沼橘一丁目１番２号Ｆ．Ｉ．Ｃ鵠沼ビル４階湘南乃えん株式会社（1021001005720）に合併し解散,2015-10-05,1,,,,,,0
2496,8030002074032,登記記録の閉鎖等,0,2021-12-03,2021-11-30,有限会社大豊電機,,有限会社,埼玉県,川越市,旭町３丁目１４番地２,,11,201,3501126,,,2021-11-30,清算の結了等,,,2015-10-05,1,,,,,タイホウデンキ,0
2511,8040002058372,登記記録の閉鎖等,0,2021-12-03,2021-11-30,有限会社メインシステム,,有限会社,千葉県,白井市,桜台２丁目６番１棟１０４号,,12,232,2701412,,,2021-11-30,清算の結了等,,,2015-10-05,1,,,,,メインシステム,0
2512,8040002087958,登記記録の閉鎖等,0,2021-12-03,2021-11-26,高野商事有限会社,,有限会社,千葉県,香取郡東庄町,青馬１９９５番地の２,,12,349,2890615,,,2021-11-26,清算の結了等,,,2015-10-05,1,,,,,タカノショウジ,0
2519,8060001029637,登記記録の閉鎖等,0,2021-12-03,2021-11-29,株式会社イーキューブ,,株式会社,栃木県,宇都宮市,川田町７９４番地１０,,09,201,3210111,,,2021-11-29,清算の結了等,,,2017-07-31,1,,,,,,0
2521,8060005009148,登記記録の閉鎖等,0,2021-12-03,2021-11-25,特定非営利活動法人三協セルフサポート,,その他の設立登記法人,栃木県,さくら市,氏家１１５０番地３,,09,214,3291311,,,2021-11-25,清算の結了等,,,2016-03-22,1,,,,,サンキョウセルフサポート,0
2529,8080101012020,登記記録の閉鎖等,0,2021-12-03,2021-12-01,丸藤開発株式会社,,株式会社,静岡県,富士宮市,上条１５４０番地の１,,22,207,4180116,,,2021-12-01,清算の結了等,,,2015-10-05,1,,,,,マルフジカイハツ,0
2535,8080402007776,登記記録の閉鎖等,0,2021-12-03,2021-12-01,丸武有限会社,,有限会社,静岡県,浜松市中区,龍禅寺町３１番地,,22,131,4300924,,,2021-12-01,清算の結了等,,,2015-10-05,1,,,,,マルタケ,0
2601,8160002001626,登記記録の閉鎖等,0,2021-12-03,2021-12-01,有限会社ブレーンサーク,,有限会社,滋賀県,大津市,本堅田４丁目１６番６号堅田中善ビル３０４号,,25,201,5200242,,,2021-12-01,清算の結了等,,,2015-10-05,1,,,,,ブレーンサーク,0
2608,8180002067384,登記記録の閉鎖等,0,2021-12-03,2021-11-30,有限会社丸久建材,,有限会社,愛知県,春日井市,花長町２丁目１８番地の１９,,23,206,4860951,,,2021-11-30,清算の結了等,,,2015-10-05,1,,,,,マルキュウケンザイ,0
2609,8180002079792,登記記録の閉鎖等,0,2021-12-03,2021-11-26,有限会社全図,,有限会社,愛知県,一宮市,花池２丁目３番６号,,23,203,4910914,,,2021-11-26,清算の結了等,,,2015-10-05,1,,,,,ゼント,0
2622,8200001010689,登記記録の閉鎖等,0,2021-12-03,2021-12-01,アイテクノ株式会社,,株式会社,岐阜県,羽島郡笠松町,長池４９番地,,21,303,5016063,,,2021-12-01,清算の結了等,,,2015-10-05,1,,,,,アイテクノ,0
2626,8210001012536,登記記録の閉鎖等,0,2021-12-03,2021-12-01,朝日木材産業株式会社,,株式会社,福井県,丹生郡越前町,宝泉寺２５号２７番地,,18,423,9160124,,,2021-12-01,清算の結了等,,,2015-10-05,1,,,,,アサヒモクザイサンギョウ,0
2648,8260001017646,登記記録の閉鎖等,0,2021-12-03,2021-11-30,株式会社馬川呉服店,,株式会社,岡山県,笠岡市,中央町２８番地の８,,33,205,7140088,,,2021-11-30,清算の結了等,,,2015-10-05,1,,,,,ウマカワゴフクテン,0
2664,8310002008671,登記記録の閉鎖等,0,2021-12-03,2021-12-01,有限会社メドラール,,有限会社,長崎県,西彼杵郡長与町,三根郷３５７番地１,,42,307,8512125,,,2021-12-01,合併による解散等,3310001003430,令和３年１２月１日長崎県西彼杵郡長与町三根郷３５７番地３株式会社山陽（3310001003430）に合併し解散,2015-10-05,1,,,,,メドラール,0
2665,8310002016220,登記記録の閉鎖等,0,2021-12-03,2021-12-01,有限会社チャイルド二十一,,有限会社,長崎県,諫早市,多良見町中里５６番地１９,,42,204,8590405,,,2021-12-01,清算の結了等,,,2015-10-05,1,,,,,チャイルドニジュウイチ,0
2666,8310003001683,登記記録の閉鎖等,0,2021-12-03,2021-11-30,合資会社松田商店,,合資会社,長崎県,雲仙市,南串山町丙９３５８番地１,,42,213,8540703,,,2021-11-30,清算の結了等,,,2015-10-05,1,,,,,マツダショウテン,0
2680,8330002001071,登記記録の閉鎖等,0,2021-12-03,2021-12-01,有限会社上田電機工業,,有限会社,熊本県,熊本市北区,龍田５丁目１２番５０号,,43,105,8618006,,,2021-12-01,清算の結了等,,,2015-10-05,1,,,,,ウエダデンキコウギョウ,0
2693,8380002001141,登記記録の閉鎖等,0,2021-12-03,2021-11-30,有限会社倉島飯坂石油店,,有限会社,福島県,福島市,飯坂町字銀杏２番地の８,,07,201,9600201,,,2021-11-30,清算の結了等,,,2015-10-05,1,,,,,クラシマイイザカセキユテン,0
2696,8390003001412,登記記録の閉鎖等,0,2021-12-03,2021-11-30,合同会社峯田,,合同会社,山形県,山形市,元木１丁目２番６号,,06,201,9902447,,,2021-11-30,清算の結了等,,,2016-11-11,1,,,,,ミネタ,0
2702,8430001018024,登記記録の閉鎖等,0,2021-12-03,2021-12-01,株式会社ワーク・スペース工房,,株式会社,北海道,札幌市西区,宮の沢一条４丁目１３番７号,,01,107,0630051,,,2021-12-01,清算の結了等,,,2015-10-05,1,,,,,ワークスペースコウボウ,0
2713,8470001004243,登記記録の閉鎖等,0,2021-12-03,2021-12-01,株式会社ヨック,,株式会社,香川県,高松市,高松町３００９番地２,,37,201,7610104,,,2021-12-01,合併による解散等,1470002008448,令和３年１２月１日香川県高松市室町１９０３番地４株式会社らく楽（1470002008448）に合併し解散,2015-10-05,1,,,,,ヨック,0
2714,8470001015488,登記記録の閉鎖等,0,2021-12-03,2021-12-01,シンドー家具株式会社,,株式会社,香川県,観音寺市,柞田町甲２３６６番地１,,37,205,7680040,,,2021-12-01,清算の結了等,,,2016-01-04,1,,,,,シンドーカグ,0
2726,9010001157210,登記記録の閉鎖等,0,2021-12-03,2021-12-01,ル・アイド芸能株式会社,,株式会社,東京都,千代田区,外神田１丁目６番１号,,13,101,1010021,,,2021-12-01,清算の結了等,,,2015-10-05,1,,,,,ルアイドゲイノウ,0
2771,9011402019718,登記記録の閉鎖等,0,2021-12-03,2021-12-02,有限会社エスキャン,,有限会社,東京都,板橋区,大山金井町３８－５ジョイムビル５０５,,13,119,1730024,,,2021-12-02,清算の結了等,,,2015-10-05,1,,,,,エスキャン,0
2787,9012402003926,登記記録の閉鎖等,0,2021-12-03,2021-12-02,有限会社渡嘉,,有限会社,東京都,国分寺市,南町３丁目２７番９号,,13,214,1850021,,,2021-12-02,清算の結了等,,,2015-10-05,1,,,,,ワタヨシ,0
2797,9013301009361,登記記録の閉鎖等,0,2021-12-03,2021-12-01,株式会社日企不動産,,株式会社,埼玉県,さいたま市中央区,上峰１丁目３番１２号,,11,105,3380014,,,2021-12-01,合併による解散等,1030001137647,令和３年１２月１日埼玉県さいたま市中央区上峰一丁目３番１２号株式会社ＮＰＣ（1030001137647）に合併し解散,2015-10-05,1,,,,,ニッキフドウサン,0
2808,9020001057970,登記記録の閉鎖等,0,2021-12-03,2021-12-01,株式会社インフォキューブ,,株式会社,神奈川県,横浜市中区,日本大通１１番地横浜情報文化センター,,14,104,2310021,,,2021-12-01,合併による解散等,4020001106930,令和３年１２月１日横浜市中区日本大通１１番地横浜情報文化センター株式会社インフォキューブＬＡＦＬＡ（4020001106930）に合併し解散,2015-10-05,1,,,,,インフォキューブ,0
2817,9020002000896,登記記録の閉鎖等,0,2021-12-03,2021-11-29,有限会社若女井企画,,有限会社,神奈川県,横浜市栄区,小菅ケ谷２丁目１５番２号,,14,115,2470007,,,2021-11-29,清算の結了等,,,2015-10-05,1,,,,,ワカメイキカク,0
2818,9020002004699,登記記録の閉鎖等,0,2021-12-03,2021-12-01,有限会社バイクヤードキャブ,,有限会社,神奈川県,横浜市緑区,長津田町４６１１番地,,14,113,2260026,,,2021-12-01,清算の結了等,,,2015-10-05,1,,,,,バイクヤードキャブ,0
2849,9040001087990,登記記録の閉鎖等,0,2021-12-03,2021-11-29,ＫＲＴベンチャーパートナーズ株式会社,,株式会社,千葉県,印西市,中央南２丁目１番地１４１６号,,12,231,2701340,,,2021-11-29,清算の結了等,,,2015-10-05,1,,,,,ケーアールティーベンチャーパートナーズ,0
2863,9050002009456,登記記録の閉鎖等,0,2021-12-03,2021-11-30,有限会社イツミ電子工業,,有限会社,茨城県,ひたちなか市,大字足崎１３８０番地３１,,08,221,3120003,,,2021-11-30,清算の結了等,,,2015-10-05,1,,,,,イツミデンシコウギョウ,0
2864,9050005003670,登記記録の閉鎖等,0,2021-12-03,2021-11-26,小美玉市土地開発公社,,その他の設立登記法人,茨城県,小美玉市,堅倉８３５番地,,08,236,3190106,,,2021-11-26,清算の結了等,,,2015-10-05,1,,,,,オミタマシトチカイハツコウシャ,0
2885,9110001027709,登記記録の閉鎖等,0,2021-12-03,2021-11-29,株式会社亮栄建設,,株式会社,新潟県,佐渡市,秋津１０１番地１,,15,224,9520021,,,2021-11-29,清算の結了等,,,2015-10-05,1,,,,,リョウエイケンセツ,0
2893,9120001156564,登記記録の閉鎖等,0,2021-12-03,2021-12-01,太陽部品株式会社,,株式会社,大阪府,枚方市,春日野１丁目１１番２７号,,27,210,5730131,,,2021-12-01,合併による解散等,8120001156549,令和３年１２月１日大阪府枚方市春日野一丁目１１番２７号枚方太陽株式会社（8120001156549）に合併し解散,2015-10-05,1,,,,,タイヨウブヒン,0
2894,9120001156861,登記記録の閉鎖等,0,2021-12-03,2021-12-01,太陽興産株式会社,,株式会社,大阪府,枚方市,春日野１丁目１１番２７号,,27,210,5730131,,,2021-12-01,合併による解散等,8120001156549,令和３年１２月１日大阪府枚方市春日野一丁目１１番２７号枚方太陽株式会社（8120001156549）に合併し解散,2015-10-05,1,,,,,タイヨウコウサン,0
2910,9120005021005,登記記録の閉鎖等,0,2021-12-03,2021-11-30,一般社団法人学生の文化部活動を応援する会,,その他の設立登記法人,大阪府,大阪市北区,堂島浜１丁目４番１９号,,27,127,5300004,,,2021-11-30,清算の結了等,,,2019-07-23,1,,,,,ガクセイノブンカブカツドウヲオウエンスルカイ,0
2919,9130001006330,登記記録の閉鎖等,0,2021-12-03,2021-11-30,株式会社枸杞三双園,00035210,株式会社,京都府,京都市左京区,松ケ崎正田町２０番地,,26,103,6060966,,,2021-11-30,清算の結了等,,,2015-10-05,1,,,,,クコサンソウエン,0
2922,9130001027418,登記記録の閉鎖等,0,2021-12-03,2021-11-30,株式会社キングアンドクイーン,,株式会社,京都府,京都市中京区,堺町通三条下る道祐町１４０番地,,26,104,6048118,,,2021-11-30,清算の結了等,,,2015-10-05,1,,,,,キングアンドクイーン,0
2946,9180001086079,登記記録の閉鎖等,0,2021-12-03,2021-11-25,株式会社トガミ工研,,株式会社,愛知県,稲沢市,長束町青木田６番地,,23,220,4928167,,,2021-11-25,清算の結了等,,,2015-10-05,1,,,,,トガミコウケン,0
2973,9230001008564,登記記録の閉鎖等,0,2021-12-03,2021-11-29,株式会社米倉組,,株式会社,富山県,南砺市,利賀村阿別当２番地２,,16,210,9392517,,,2021-11-29,清算の結了等,,,2015-10-05,1,,,,,ヨネクラグミ,0
2974,9230001016955,登記記録の閉鎖等,0,2021-12-03,2021-11-30,中川林業株式会社,,株式会社,富山県,富山市,津羽見１９７番地,,16,201,9301332,,,2021-11-30,清算の結了等,,,2017-05-08,1,,,,,ナカガワリンギョウ,0
2976,9240001043288,登記記録の閉鎖等,0,2021-12-03,2021-12-01,株式会社シプス,,株式会社,広島県,廿日市市,串戸４丁目１１番１５号,,34,213,7380033,,,2021-12-01,清算の結了等,,,2015-10-05,1,,,,,シプス,0
2984,9260002028344,登記記録の閉鎖等,0,2021-12-03,2021-12-02,有限会社小林左官工業所,,有限会社,岡山県,津山市,田町２５番地,,33,203,7080052,,,2021-12-02,清算の結了等,,,2015-10-05,1,,,,,コバヤシサカンコウギョウショ,0
2988,9290001038770,登記記録の閉鎖等,0,2021-12-03,2021-11-30,博多電子株式会社,,株式会社,福岡県,糟屋郡篠栗町,大字和田７９３番地２１,,40,342,8112414,,,2021-11-30,清算の結了等,,,2015-10-05,1,,,,,ハカタデンシ,0
3018,9350002016471,登記記録の閉鎖等,0,2021-12-03,2021-12-01,有限会社上田松事,,有限会社,宮崎県,日南市,西弁分１丁目２４番地１３,,45,204,8870024,,,2021-12-01,清算の結了等,,,2015-10-05,1,,,,,ウエダショウジ,0
3027,9380001008921,登記記録の閉鎖等,0,2021-12-03,2021-11-30,株式会社齋藤興業,,株式会社,福島県,郡山市,池ノ台１４番７号,,07,203,9638875,,,2021-11-30,清算の結了等,,,2015-10-05,1,,,,,サイトウコウギョウ,0
3032,9402705000003,登記記録の閉鎖等,0,2021-12-03,2021-12-02,三陸木材高次加工協同組合,,その他の設立登記法人,岩手県,気仙郡住田町,世田米字田谷１４番地２,,03,441,0292311,,,2021-12-02,清算の結了等,,,2015-10-05,1,,,,,サンリクモクザイコウジカコウ,0
3036,9430001013957,登記記録の閉鎖等,0,2021-12-03,2021-12-01,株式会社ビッグサービス,,株式会社,北海道,札幌市中央区,南四条西７丁目６番地,,01,101,0640804,,,2021-12-01,合併による解散等,9430001013949,令和３年１２月１日札幌市中央区南四条西七丁目６番地株式会社ビッグ（9430001013949）に合併し解散,2015-10-05,1,,,,,ビッグサービス,0
