sequenceNumber,corporateNumber,process,correct,updateDate,changeDate,name,nameImageId,kind,prefectureName,cityName,streetNumber,addressImageId,prefectureCode,cityCode,postCode,addressOutside,addressOutsideImageId,closeDate,closeCause,successorCorporateNumber,changeCause,assignmentDate,latest,enName,enPrefectureName,enCityName,enAddressOutside,furigana,hihyoji
9,1010001240774,新規,0,2023-12-19,2023-12-19,中小ＰＭＩ支援センター株式会社,,株式会社,東京都,中央区,銀座７丁目１３番２０号銀座ＴＨビル９階,,13,102,1040061,,,,,,,2023-12-19,1,,,,,チュウショウピーエムアイシエンセンター,0
10,1010001240873,新規,0,2023-12-19,2023-12-19,Ｍファンドインベストメント株式会社,,株式会社,東京都,千代田区,大手町１丁目４番２号,,13,101,1000004,,,,,,,2023-12-19,1,,,,,エムファンドインベストメント,0
11,1010001240907,新規,0,2023-12-19,2023-12-19,グローバル・アライアンス・パートナーズ株式会社,,株式会社,東京都,中央区,銀座３丁目１４番１３号第一厚生館ビル５階,,13,102,1040061,,,,,,,2023-12-19,1,,,,,グローバルアライアンスパートナーズ,0
12,1010001240915,新規,0,2023-12-19,2023-12-19,株式会社シグエニア,,株式会社,東京都,千代田区,平河町２丁目１６番２－１６０２号,,13,101,1020093,,,,,,,2023-12-19,1,,,,,シグエニア,0
17,1010005037647,新規,0,2023-12-19,2023-12-19,ＷＬＪＭＦ２特定目的会社,,その他の設立登記法人,東京都,千代田区,霞が関３丁目２番５号,,13,101,1000013,,,,,,,2023-12-19,1,,,,,ダブリューエルジェイエムエフツー,0
21,1010401179175,新規,0,2023-12-19,2023-12-19,株式会社ＯＣＥＡＮｓ,,株式会社,東京都,港区,港南２丁目１５番１品川インターシティＡ棟２８階,,13,103,1080075,,,,,,,2023-12-19,1,,,,,オーシャンズ,0
22,1010401179241,新規,0,2023-12-19,2023-12-19,株式会社ＭＡＲＣＯ,,株式会社,東京都,港区,西麻布３丁目１３－３カスタリア広尾,,13,103,1060031,,,,,,,2023-12-19,1,,,,,マルコ,0
23,1010401179274,新規,0,2023-12-19,2023-12-19,テクトプラス株式会社,,株式会社,東京都,港区,元麻布３丁目１番６号,,13,103,1060046,,,,,,,2023-12-19,1,,,,,テクトプラス,0
24,1010401179282,新規,0,2023-12-19,2023-12-19,株式会社ランドプラス,,株式会社,東京都,港区,浜松町２丁目２番１５号浜松町ダイヤビル２Ｆ,,13,103,1050013,,,,,,,2023-12-19,1,,,,,ランドプラス,0
27,1010403031615,新規,0,2023-12-19,2023-12-19,Ｂｌｕｅ　ｌｏｔｕｓ合同会社,,合同会社,東京都,港区,六本木１丁目３番４０－８０１号,,13,103,1060032,,,,,,,2023-12-19,1,,,,,ブルーロータス,0
29,1010601064318,新規,0,2023-12-19,2023-12-19,株式会社スリートップいんさつ,,株式会社,東京都,江東区,北砂７丁目４番１３号,,13,108,1360073,,,,,,,2023-12-19,1,,,,,スリートップインサツ,0
37,1010903008658,新規,0,2023-12-19,2023-12-19,合同会社ｙｏｕｒＣ,,合同会社,東京都,世田谷区,野沢２丁目３１番１０－６０５号,,13,112,1540003,,,,,,,2023-12-19,1,,,,,ユアシー,0
38,1010905004556,新規,0,2023-12-19,2023-12-19,一般社団法人奥沢ファミリークリニック,,その他の設立登記法人,東京都,世田谷区,奥沢２丁目１番１０号コルザ奥沢ＩＩ５０１,00133041,13,112,1580083,,,,,,,2023-12-19,1,,,,,オクサワファミリークリニック,0
41,1011001158809,新規,0,2023-12-19,2023-12-19,株式会社ＨＵＢ　ＬＯＣＡＬ,,株式会社,東京都,目黒区,大岡山１丁目６－６ヴィソカ１Ｂ,,13,110,1520033,,,,,,,2023-12-19,1,,,,,ハブローカル,0
42,1011001158890,新規,0,2023-12-19,2023-12-19,株式会社ウインドプロデュース,,株式会社,東京都,渋谷区,恵比寿西２丁目４番８号,,13,113,1500021,,,,,,,2023-12-19,1,,,,,ウインドプロデュース,0
46,1011101105520,新規,0,2023-12-19,2023-12-19,株式会社ＴＨＫ,,株式会社,東京都,新宿区,歌舞伎町２丁目２８－２,,13,104,1600021,,,,,,,2023-12-19,1,,,,,ティーエイチケー,0
47,1011101105545,新規,0,2023-12-19,2023-12-19,株式会社ＨＡＲＫ,,株式会社,東京都,新宿区,西新宿３丁目３番１３号,,13,104,1600023,,,,,,,2023-12-19,1,,,,,ハーク,0
56,1011501030120,新規,0,2023-12-19,2023-12-19,株式会社ＤＥＳＴＩＮＡＴＩＯＮ,,株式会社,東京都,荒川区,東日暮里３丁目４０番１４号,,13,118,1160014,,,,,,,2023-12-19,1,,,,,デスティネイション,0
59,1011603004170,新規,0,2023-12-19,2023-12-19,合同会社ｅｓｓｅｎｃｅ,,合同会社,東京都,練馬区,石神井台５丁目２６番１４号サンクレイドル上石神井３０４号,,13,120,1770045,,,,,,,2023-12-19,1,,,,,エッセンス,0
62,1011801043516,新規,0,2023-12-19,2023-12-19,株式会社ＳＧＧ研究所,,株式会社,東京都,足立区,堀之内１丁目１６番２３号,,13,121,1230874,,,,,,,2023-12-19,1,,,,,エスジージーケンキュウショ,0
67,1013301051783,新規,0,2023-12-19,2023-12-19,株式会社和寂箱,,株式会社,東京都,豊島区,池袋４丁目８番３－１０１号,,13,116,1710014,,,,,,,2023-12-19,1,,,,,ワサビバコ,0
79,1020003025207,新規,0,2023-12-19,2023-12-19,合同会社ＭＨＴ,,合同会社,神奈川県,横浜市港北区,日吉５丁目２番１９号,,14,109,2230061,,,,,,,2023-12-19,1,,,,,エムエイチティー,0
80,1021001081002,新規,0,2023-12-19,2023-12-19,西建株式会社,,株式会社,神奈川県,小田原市,田島３７番地の１３,,14,206,2560811,,,,,,,2023-12-19,1,,,,,ニシケン,0
91,1030001157595,新規,0,2023-12-19,2023-12-19,岡戸ワイシャツ工業株式会社,,株式会社,埼玉県,羽生市,南２丁目２番２号,,11,216,3480053,,,,,,,2023-12-19,1,,,,,,0
99,1040001131418,新規,0,2023-12-19,2023-12-19,株式会社バイク便ＳＵＮ,,株式会社,千葉県,成田市,並木町２５－６,,12,211,2860045,,,,,,,2023-12-19,1,,,,,バイクビンサン,0
103,1040003023910,新規,0,2023-12-19,2023-12-19,合同会社ＮＥＸＵＳムービング,,合同会社,千葉県,我孫子市,台田４丁目４－５０エステスクエア壱番館３１６号室,,12,222,2701167,,,,,,,2023-12-19,1,,,,,ネクサスムービング,0
108,1040005022225,新規,0,2023-12-19,2023-12-19,一般社団法人アイアムアイ,,その他の設立登記法人,千葉県,習志野市,秋津５丁目５番６号,,12,216,2750025,,,,,,,2023-12-19,1,,,,,アイアムアイ,0
140,1120001260679,新規,0,2023-12-19,2023-12-19,ＹＯＫＥ　ＨＯＵＳＥ株式会社,,株式会社,大阪府,大阪市西成区,長橋２丁目６－２４,,27,122,5570025,,,,,,,2023-12-19,1,,,,,ヨークハウス,0
141,1120001260695,新規,0,2023-12-19,2023-12-19,株式会社サンオクト,,株式会社,大阪府,大阪市阿倍野区,阿倍野筋１丁目７番２０－３５０６号,,27,119,5450052,,,,,,,2023-12-19,1,,,,,サンオクト,0
142,1120001260753,新規,0,2023-12-19,2023-12-19,ＴＳＵＫＩ　ＷＥＢ株式会社,,株式会社,大阪府,大阪市北区,梅田１丁目２番２号大阪駅前第２ビル１２－１２,,27,127,5300001,,,,,,,2023-12-19,1,,,,,ツキウェブ,0
143,1120001260786,新規,0,2023-12-19,2023-12-19,株式会社ゴールデンウェイ,,株式会社,大阪府,大阪市北区,長柄西１丁目３番２２－２２０１号,,27,127,5310061,,,,,,,2023-12-19,1,,,,,ゴールデンウェイ,0
147,1120003025543,新規,0,2023-12-19,2023-12-19,麟海合同会社,,合同会社,大阪府,大阪市城東区,野江３丁目７番３３号,,27,118,5360006,,,,,,,2023-12-19,1,,,,,リンカイ,0
148,1120005024056,新規,0,2023-12-19,2023-12-19,一般社団法人日帰り手術推進機構,,その他の設立登記法人,大阪府,大阪市北区,梅田１丁目２番２－１００号,,27,127,5300001,,,,,,,2023-12-19,1,,,,,ヒガエリシュジュツスイシンキコウ,0
155,1122001037669,新規,0,2023-12-19,2023-12-19,株式会社拓凌,,株式会社,大阪府,八尾市,亀井町３丁目４番１０号,,27,212,5810065,,,,,,,2023-12-19,1,,,,,タクリョウ,0
157,1130001075853,新規,0,2023-12-19,2023-12-19,株式会社ＴＫＯコンサルティング,,株式会社,京都府,京都市下京区,深草町５８６－１ＡＤＣＯＭビル４階,,26,106,6008408,,,,,,,2023-12-19,1,,,,,ティーケーオーコンサルティング,0
158,1130001075969,新規,0,2023-12-19,2023-12-19,株式会社水互貿易,,株式会社,京都府,京都市南区,上鳥羽奈須野町１９５番地グリーンビル５Ｆ,,26,107,6018146,,,,,,,2023-12-19,1,,,,,スイゴボウエキ,0
166,1140001132728,新規,0,2023-12-19,2023-12-19,株式会社シャリネタ,,株式会社,兵庫県,加古川市,東神吉町神吉１３３９番地の１,,28,210,6750057,,,,,,,2023-12-19,1,,,,,シャリネタ,0
167,1140001132736,新規,0,2023-12-19,2023-12-19,ガラスサービス株式会社,,株式会社,兵庫県,淡路市,中田１２７５番地２,,28,226,6562163,,,,,,,2023-12-19,1,,,,,ガラスサービス,0
168,1140003019898,新規,0,2023-12-19,2023-12-19,シュプレーム合同会社,,合同会社,兵庫県,芦屋市,船戸町３番２７号,,28,206,6590093,,,,,,,2023-12-19,1,,,,,シュプレーム,0
170,1150001026945,新規,0,2023-12-19,2023-12-19,株式会社内田工務店,,株式会社,奈良県,桜井市,大字池之内１１９６番地,,29,206,6330046,,,,,,,2023-12-19,1,,,,,ウチダコウムテン,0
178,1180001159429,新規,0,2023-12-19,2023-12-19,株式会社Ｌ＆Ｇホールディングス,,株式会社,愛知県,一宮市,大和町妙興寺字三十八社前３９番地１,,23,203,4910922,,,,,,,2023-12-19,1,,,,,エルアンドジーホールディングス,0
179,1180001159437,新規,0,2023-12-19,2023-12-19,株式会社Ｎ‐ＬＩＣ,,株式会社,愛知県,名古屋市北区,柳原３丁目６番７号プレサンスグラン名城公園１０２号,,23,103,4620845,,,,,,,2023-12-19,1,,,,,エヌリック,0
189,1200001041996,新規,0,2023-12-19,2023-12-19,株式会社Ｂｅｃｏｍｅ　ｇｏｏｄ,,株式会社,岐阜県,岐阜市,金町３丁目９－１５溝口ビル一階奥,,21,201,5008842,,,,,,,2023-12-19,1,,,,,ビーカムグッド,0
195,1230003002119,新規,0,2023-12-19,2023-12-19,京橋合同会社,,合同会社,富山県,高岡市,横田町３丁目５番１３号,,16,202,9330842,,,,,,,2023-12-19,1,,,,,キョウハシ,0
197,1250001020426,新規,0,2023-12-19,2023-12-19,Ｚｏｎｄｕｓ　Ｉｎｔｅｒｎａｔｉｏｎａｌ　Ｔｒａｄｉｎｇ　ＪＰ株式会社,,株式会社,山口県,長門市,東深川１１３３,,35,211,7594101,,,,,,,2023-12-19,1,,,,,,0
199,1280001009086,新規,0,2023-12-19,2023-12-19,株式会社ＳＵＮ　ｉｎ　ＳＣＩＥＮＣＥ,,株式会社,島根県,松江市,西川津町４０９３番地,,32,201,6900823,,,,,,,2023-12-19,1,,,,,サンインサイエンス,0
206,1290001104084,新規,0,2023-12-19,2023-12-19,株式会社ベノファ,,株式会社,福岡県,福岡市早良区,有田１丁目３５番１６号,,40,137,8140033,,,,,,,2023-12-19,1,,,,,ベノファ,0
219,1360001032914,新規,0,2023-12-19,2023-12-19,株式会社ＡＳＬＩＮＯ,,株式会社,沖縄県,島尻郡南風原町,字津嘉山１２９３番地２ピーチヴィラ１０２,,47,350,9011117,,,,,,,2023-12-19,1,,,,,アスリノ,0
220,1360001032955,新規,0,2023-12-19,2023-12-19,株式会社ＶＦＯ,,株式会社,沖縄県,中頭郡北谷町,北谷１丁目１２番地９,,47,326,9040116,,,,,,,2023-12-19,1,,,,,ブイエフオー,0
228,1390005009047,新規,0,2023-12-19,2023-12-19,一般社団法人日本・イスラム交易協会,,その他の設立登記法人,山形県,天童市,東芳賀２丁目２番３２号,,06,210,9940061,,,,,,,2023-12-19,1,,,,,ニホンイスラムコウエキキョウカイ,0
235,1430005014843,新規,0,2023-12-19,2023-12-19,特定非営利活動法人ナビゲーショングラフィックス研究会,,その他の設立登記法人,北海道,札幌市手稲区,曙十一条２丁目２番１２号,,01,109,0060841,,,,,,,2023-12-19,1,,,,,ナビゲーショングラフィックスケンキュウカイ,0
237,1450003002419,新規,0,2023-12-19,2023-12-19,合同会社ＪＥＬＬＹ　ＢＥＡＮＳ,,合同会社,北海道,稚内市,萩見３丁目９番３１号,,01,214,0970016,,,,,,,2023-12-19,1,,,,,,0
246,1470003002540,新規,0,2023-12-19,2023-12-19,合同会社ＬｉｎｋＡｌｉｖｅ,,合同会社,香川県,高松市,香川町川東下１３００番地１,,37,201,7611705,,,,,,,2023-12-19,1,,,,,リンクアライブ,0
247,1700150122786,新規,0,2023-12-19,2023-12-19,Ｓｈｅｎｚｈｅｎ　Ｖｉｊｉｍ　Ｔｅｃｈｎｏｌｏｇｙ　Ｃｏ　Ｌｔｄ,,外国会社等,,,,,,,,Ｘｉｎｇｈｅ　ＷＯＲＬＤＡ１７－５　Ｎｏ．１ＹａｂａｏＲｏａｄ　Ｎａｎｋｅｎｇ　Ｃｏｍｍｕｎｉｔｙ　ＢａｎｔｉａｎＳｔｒｅｅｔ　ＬｏｎｇｇａｎｇＤｉｓｔｒｉｃｔ　Ｓｈｅｎｚｈｅｎ,,,,,,2023-12-19,1,,,,,シンセンヴィジムテクノロジーカンパニーリミテッド,0
248,1700150122794,新規,0,2023-12-19,2023-12-19,ＪＡＳＯＮ　Ｗ　＆　ＭＡＧＧＩＥ　Ｗ　ＴＲＵＳＴＥＥ　ＬＩＭＩＴＥＤ　日本駐在員事務所,,外国会社等,東京都,台東区,千束３丁目２１番１２号キートスビル６階６０３号室,,13,106,1110031,Ｅ－ｃｏｕｎｔｉｎｇ　Ｐａｒｔｎｅｒｓ　Ｌｉｍｉｔｅｄ，Ｌｅｖｅｌ　２，８６　Ｌｕｎｎ　Ａｖｅｎｕｅ，，Ｍｔ　Ｗｅｌｌｉｎｇｔｏｎ，Ａｕｃｋｌａｎｄ，１０７２，ＮＺ,,,,,,2023-12-19,1,,,,,ジエーソンダブリユーアンドマギーダブリユートラステイーリミテツド,0
260,2010001240666,新規,0,2023-12-19,2023-12-19,株式会社ｗｏｎｄｅｒｆｕｌ　ｊｏｕｒｎｅｙ,,株式会社,東京都,中央区,日本橋室町１丁目１１番１２号日本橋水野ビル７階,,13,102,1030022,,,,,,,2023-12-19,1,,,,,ワンダフルジャーニー,0
261,2010001240815,新規,0,2023-12-19,2023-12-19,株式会社春訪堂,,株式会社,東京都,中央区,銀座１丁目２７番８号,,13,102,1040061,,,,,,,2023-12-19,1,,,,,シュンポウドウ,0
262,2010001240864,新規,0,2023-12-19,2023-12-19,株式会社Ｔ．Ｒ　ＣＯＭＰＡＮＹ,,株式会社,東京都,千代田区,一番町６番地３ライオンズマンション一番町２０７号,,13,101,1020082,,,,,,,2023-12-19,1,,,,,ティーアールカンパニー,0
263,2010001240897,新規,0,2023-12-19,2023-12-19,株式会社オーケーパートナーズコンサルティング,,株式会社,東京都,中央区,勝どき３丁目２番３号セルリアンホームズ勝どき２１０２,,13,102,1040054,,,,,,,2023-12-19,1,,,,,オーケーパートナーズコンサルティング,0
270,2010401179257,新規,0,2023-12-19,2023-12-19,株式会社Ｐｌａｎｉｎｇ　Ａｓｓｅｔ　Ｊａｐａｎ,,株式会社,東京都,港区,南青山７丁目１番２７－２０８号,,13,103,1070062,,,,,,,2023-12-19,1,,,,,プレーニングアセットジャパン,0
276,2010403031606,新規,0,2023-12-19,2023-12-19,秋葉原２３３合同会社,,合同会社,東京都,港区,西新橋１丁目２番９号メンターキャピタル税理士法人内,,13,103,1050003,,,,,,,2023-12-19,1,,,,,アキハバラトゥーハンドレッドサーティスリー,0
278,2010501051489,新規,0,2023-12-19,2023-12-19,株式会社Ｓｕｎｆｌｏｗｅｒ綾乃,,株式会社,東京都,台東区,三ノ輪２丁目３番１号４Ｆ,,13,106,1100011,,,,,,,2023-12-19,1,,,,,サンフラワーアヤノ,0
285,2010801034615,新規,0,2023-12-19,2023-12-19,レゾルテック株式会社,,株式会社,東京都,大田区,矢口１丁目２５番１６号,,13,111,1460093,,,,,,,2023-12-19,1,,,,,レゾルテック,0
289,2010901054348,新規,0,2023-12-19,2023-12-19,株式会社代沢不動産,,株式会社,東京都,世田谷区,代沢１丁目８番７号,,13,112,1550032,,,,,,,2023-12-19,1,,,,,ダイザワフドウサン,0
290,2010901054364,新規,0,2023-12-19,2023-12-19,株式会社プラス・ワン,,株式会社,東京都,世田谷区,野毛２丁目１番１０号,,13,112,1580092,,,,,,,2023-12-19,1,,,,,プラスワン,0
291,2010901054389,新規,0,2023-12-19,2023-12-19,シャルーヌ株式会社,,株式会社,東京都,世田谷区,桜新町１丁目１２番１０号,,13,112,1540015,,,,,,,2023-12-19,1,,,,,シャルーヌ,0
293,2010903008616,新規,0,2023-12-19,2023-12-19,ＩＳＥＥｊａｐａｎ合同会社,,合同会社,東京都,世田谷区,玉川田園調布２丁目１３番１８号,,13,112,1580085,,,,,,,2023-12-19,1,,,,,アイシージャパン,0
302,2011003018126,新規,0,2023-12-19,2023-12-19,合同会社九月六日,,合同会社,東京都,渋谷区,上原１丁目１５番１号,,13,113,1510064,,,,,,,2023-12-19,1,,,,,クガツムイカ,0
303,2011101105528,新規,0,2023-12-19,2023-12-19,株式会社リリース,,株式会社,東京都,新宿区,新宿１丁目３６番２号新宿第七葉山ビル１階,,13,104,1600022,,,,,,,2023-12-19,1,,,,,リリース,0
304,2011103013869,新規,0,2023-12-19,2023-12-19,合同会社Ｆｉｒｓｔ,,合同会社,東京都,新宿区,四谷４丁目２５番地マンション新宿御苑２０２,,13,104,1600004,,,,,,,2023-12-19,1,,,,,ファースト,0
307,2011401025698,新規,0,2023-12-19,2023-12-19,あきいろ不動産株式会社,,株式会社,東京都,板橋区,桜川３丁目１２番１号,,13,119,1740075,,,,,,,2023-12-19,1,,,,,アキイロフドウサン,0
308,2011401025707,新規,0,2023-12-19,2023-12-19,株式会社ＭＯＳＶＡ,,株式会社,東京都,板橋区,赤塚３丁目１８番５号,,13,119,1750092,,,,,,,2023-12-19,1,,,,,モスバ,0
309,2011401025715,新規,0,2023-12-19,2023-12-19,ｎｏｖｅ株式会社,,株式会社,東京都,板橋区,中丸町５１－１０千代田ビル４階,,13,119,1730026,,,,,,,2023-12-19,1,,,,,ノーヴェ,0
311,2011501030128,新規,0,2023-12-19,2023-12-19,株式会社Ｒｏｓａ,,株式会社,東京都,荒川区,東日暮里６丁目４９番７号,,13,118,1160014,,,,,,,2023-12-19,1,,,,,ロサ,0
315,2011801043515,新規,0,2023-12-19,2023-12-19,五十嵐工業株式会社,,株式会社,東京都,葛飾区,西亀有２丁目３２番１号,,13,122,1240002,,,,,,,2023-12-19,1,,,,,イガラシコウギョウ,0
317,2012401041339,新規,0,2023-12-19,2023-12-19,株式会社ハシブックス,,株式会社,東京都,武蔵野市,御殿山１丁目７番１２号井の頭マンション８０５号,,13,203,1800005,,,,,,,2023-12-19,1,,,,,ハシブックス,0
319,2013301051782,新規,0,2023-12-19,2023-12-19,喬本株式会社,,株式会社,東京都,豊島区,東池袋３丁目２－５サンシャインプラザ６０１号室,,13,116,1700013,,,,,,,2023-12-19,1,,,,,タカモト,0
329,2020003025222,新規,0,2023-12-19,2023-12-19,合同会社Ｍｅｒａｙ,,合同会社,神奈川県,横浜市西区,浅間町１丁目４番３号ウィザードビル４０２,,14,103,2200072,,,,,,,2023-12-19,1,,,,,ミレイ,0
336,2021001080993,新規,0,2023-12-19,2023-12-19,株式会社たんぽぽ,,株式会社,神奈川県,相模原市南区,大野台１丁目９番１７号,,14,153,2520331,,,,,,,2023-12-19,1,,,,,タンポポ,0
337,2021003013919,新規,0,2023-12-19,2023-12-19,Ｉｎｔｅｇｒａｓｏｌ合同会社,,合同会社,神奈川県,逗子市,久木６丁目４番２４号,,14,208,2490001,,,,,,,2023-12-19,1,,,,,インテグラソル,0
345,2030001157743,新規,0,2023-12-19,2023-12-19,ダイヤモンドアセット株式会社,,株式会社,埼玉県,草加市,瀬崎３丁目６番１号プランヴェール谷塚３０４号室,,11,221,3400022,,,,,,,2023-12-19,1,,,,,ダイヤモンドアセット,0
352,2030003023258,新規,0,2023-12-19,2023-12-19,合同会社Ｊａｎ　Ｌｉｇｈｔ,,合同会社,埼玉県,川越市,菅原町２１－２１森田ビル２Ｆ,,11,201,3500046,,,,,,,2023-12-19,1,,,,,ジャンライト,0
354,2040001131409,新規,0,2023-12-19,2023-12-19,株式会社Ｆｌｏｗｅｒ　Ｍｏｏｎ,,株式会社,千葉県,市川市,市川南１丁目８番２８号市川ザレジデンス６０５号室,,12,203,2720033,,,,,,,2023-12-19,1,,,,,フラワームーン,0
357,2040003023959,新規,0,2023-12-19,2023-12-19,ＴＡＮ　ＨＯＡ合同会社,,合同会社,千葉県,八街市,山田台字宮ノ原１０２９番地２,,12,230,2891124,,,,,,,2023-12-19,1,,,,,タンホア,0
358,2040003023967,新規,0,2023-12-19,2023-12-19,合同会社ピースケア,,合同会社,千葉県,千葉市若葉区,小倉台４丁目１１番３号,,12,104,2640006,,,,,,,2023-12-19,1,,,,,ピースケア,0
360,2050001053981,新規,0,2023-12-19,2023-12-19,ＩＲＯＨＡ建設株式会社,,株式会社,茨城県,神栖市,深芝南１丁目１３番地１０アールエスシティーＡ棟１号室,,08,232,3140142,,,,,,,2023-12-19,1,,,,,イロハケンセツ,0
365,2060001036639,新規,0,2023-12-19,2023-12-19,ＮＡＷＡＺ　ＴＲＡＤＩＮＧ株式会社,,株式会社,栃木県,栃木市,藤岡町赤麻１５６３番地１－Ａ,,09,203,3231102,,,,,,,2023-12-19,1,,,,,ナワズトレーディング,0
368,2060003004841,新規,0,2023-12-19,2023-12-19,合同会社わｐｌｕｓ,,合同会社,栃木県,日光市,猪倉９１４番２０,,09,206,3212344,,,,,,,2023-12-19,1,,,,,ワプラス,0
379,2080401026898,新規,0,2023-12-19,2023-12-19,株式会社ＲＳｃｏｍｐａｎｙ,,株式会社,静岡県,袋井市,高尾６７５番地の２,,22,216,4370023,,,,,,,2023-12-19,1,,,,,アールエスカンパニー,0
399,2120001260711,新規,0,2023-12-19,2023-12-19,永泰株式会社,,株式会社,大阪府,大阪市此花区,梅香３丁目２５－４サカエマンション梅香３０２号室,,27,104,5540013,,,,,,,2023-12-19,1,,,,,エイタイ,0
400,2120001260752,新規,0,2023-12-19,2023-12-19,松山株式会社,,株式会社,大阪府,大阪市淀川区,木川東３丁目５番２１号第３丸善ビル７Ｆ,,27,123,5320012,,,,,,,2023-12-19,1,,,,,マツヤマ,0
401,2120001260760,新規,0,2023-12-19,2023-12-19,ＧＬＯＯＫ株式会社,,株式会社,大阪府,大阪市北区,梅田１丁目３番１号大阪駅前第１ビル８階５号,,27,127,5300001,,,,,,,2023-12-19,1,,,,,グルック,0
402,2120001260769,新規,0,2023-12-19,2023-12-19,一方株式会社,,株式会社,大阪府,大阪市西成区,太子２丁目３番１３－１０３号,,27,122,5570002,,,,,,,2023-12-19,1,,,,,イチホウ,0
403,2120001260777,新規,0,2023-12-19,2023-12-19,株式会社Ｔｈｅ　Ｆｉｒｓｔ　Ｐｒｏｊｅｃｔ,,株式会社,大阪府,大阪市東住吉区,西今川４丁目２３番４号,,27,121,5460042,,,,,,,2023-12-19,1,,,,,ザファーストプロジェクト,0
404,2120001260810,新規,0,2023-12-19,2023-12-19,ｅａｇｌｅ　ｖｉｅｗパートナーズ株式会社,,株式会社,大阪府,大阪市中央区,天満橋京町１番２４号ストーク児島ビル９０１,,27,128,5400032,,,,,,,2023-12-19,1,,,,,イーグルヴューパートナーズ,0
405,2120003025542,新規,0,2023-12-19,2023-12-19,ＡＬＬトラスト合同会社,,合同会社,大阪府,枚方市,磯島南町１５番１,,27,210,5731186,,,,,,,2023-12-19,1,,,,,オールトラスト,0
412,2120903004967,新規,0,2023-12-19,2023-12-19,合同会社ＴＦ興産,,合同会社,大阪府,豊中市,新千里北町２丁目１番１４号,,27,203,5600081,,,,,,,2023-12-19,1,,,,,ティーエフコウサン,0
436,2140001132652,新規,0,2023-12-19,2023-12-19,株式会社Ｕｎｉｔｅ　Ｆａｃｔｏｒｙ,,株式会社,兵庫県,宝塚市,宮の町７－１－１０４号,,28,214,6650843,,,,,,,2023-12-19,1,,,,,ユナイトファクトリー,0
437,2140001132727,新規,0,2023-12-19,2023-12-19,黒龍江豊佑麻類種植株式会社,,株式会社,兵庫県,神戸市東灘区,向洋町中１丁目１７,,28,101,6580032,,,,,,,2023-12-19,1,,,,,コクリュウコウホウユウマルイシュショク,0
438,2140001132735,新規,0,2023-12-19,2023-12-19,株式会社Ｆｒｅｅ　ａｎｄ　Ｆｌｙ,,株式会社,兵庫県,神戸市灘区,岩屋北町２丁目５番２５－Ｎ２１号,,28,102,6570846,,,,,,,2023-12-19,1,,,,,フリーアンドフライ,0
439,2140001132743,新規,0,2023-12-19,2023-12-19,株式会社Ｕｎｉｔｙ　Ｎｅｔ,,株式会社,兵庫県,姫路市,飾磨区阿成鹿古３９６番地カサミラドール２０３号室,,28,201,6728038,,,,,,,2023-12-19,1,,,,,ユニティネット,0
441,2140003019939,新規,0,2023-12-19,2023-12-19,合同会社Ｑ‐ｓｔａｃｋ,,合同会社,兵庫県,神戸市中央区,脇浜町３丁目４番１３－２０４号,,28,110,6510072,,,,,,,2023-12-19,1,,,,,キュースタック,0
457,2190001030950,新規,0,2023-12-19,2023-12-19,株式会社ＤＥＬＩＧＨＴ．,,株式会社,三重県,伊勢市,宮後１丁目８番３号,,24,203,5160072,,,,,,,2023-12-19,1,,,,,ディライト,0
460,2200001041995,新規,0,2023-12-19,2023-12-19,ねこの手株式会社,,株式会社,岐阜県,岐阜市,柳ケ瀬通５丁目３番地２・２Ｆ,,21,201,5008875,,,,,,,2023-12-19,1,,,,,ネコノテ,0
479,2290001104083,新規,0,2023-12-19,2023-12-19,株式会社コバティ,,株式会社,福岡県,福岡市中央区,警固２丁目１６番３０－３０１号,,40,133,8100023,,,,,,,2023-12-19,1,,,,,コバティ,0
480,2290001104100,新規,0,2023-12-19,2023-12-19,株式会社アジャスト・エヌ,,株式会社,福岡県,糟屋郡新宮町,緑ケ浜３丁目３番２７号,,40,345,8110119,,,,,,,2023-12-19,1,,,,,アジャストエヌ,0
482,2290003014751,新規,0,2023-12-19,2023-12-19,合同会社ＲｉｖｅｒＵｐ,,合同会社,福岡県,福岡市博多区,博多駅前１丁目２３番２号ＰａｒｋＦｒｏｎｔ博多駅前一丁目５Ｆ－Ｂ,,40,132,8120011,,,,,,,2023-12-19,1,,,,,リバーアップ,0
483,2290801030140,新規,0,2023-12-19,2023-12-19,株式会社ＳｔＲｕＣ,,株式会社,福岡県,行橋市,南泉１丁目２３番１７号,,40,213,8240036,,,,,,,2023-12-19,1,,,,,ストラック,0
484,2290801030149,新規,0,2023-12-19,2023-12-19,株式会社トーヨーコイケ,,株式会社,福岡県,北九州市小倉南区,葛原元町３丁目３番３０号,,40,107,8000254,,,,,,,2023-12-19,1,,,,,トーヨーコイケ,0
485,2290803004563,新規,0,2023-12-19,2023-12-19,合同会社ジィーズアカデミー,,合同会社,福岡県,北九州市八幡西区,千代２丁目２４番７号,,40,109,8071112,,,,,,,2023-12-19,1,,,,,ジィーズアカデミー,0
486,2300001013555,新規,0,2023-12-19,2023-12-19,株式会社リバースエッジ,,株式会社,佐賀県,伊万里市,立花町３４４７番地,,41,205,8480027,,,,,,,2023-12-19,1,,,,,リバースエッジ,0
492,2330001031562,新規,0,2023-12-19,2023-12-19,タゾエファーム株式会社,,株式会社,熊本県,玉名市,横島町大園２１番地１,,43,206,8650071,,,,,,,2023-12-19,1,,,,,タゾエファーム,0
493,2330001031579,新規,0,2023-12-19,2023-12-19,株式会社ＣＨＡＬＤＯ,,株式会社,熊本県,熊本市中央区,南熊本２丁目５番５－２０１号,,43,101,8600812,,,,,,,2023-12-19,1,,,,,シャルド,0
495,2330003010119,新規,0,2023-12-19,2023-12-19,合同会社ＬＥＡＤ　ＡＳＩＡ,,合同会社,熊本県,熊本市中央区,新市街１－２,,43,101,8600803,,,,,,,2023-12-19,1,,,,,,0
498,2350003004531,新規,0,2023-12-19,2023-12-19,合同会社御神木,,合同会社,宮崎県,宮崎市,佐土原町下田島４８６３番地,,45,201,8800211,,,,,,,2023-12-19,1,,,,,ゴシンボク,0
500,2360001032946,新規,0,2023-12-19,2023-12-19,株式会社ｍｙ　ｓｗｅｅｔ　ｂｏｘ　Ｇｒｉｎ,,株式会社,沖縄県,浦添市,西原６丁目８番２－１０２号,,47,208,9012101,,,,,,,2023-12-19,1,,,,,マイスイートボックスグリン,0
501,2360001032954,新規,0,2023-12-19,2023-12-19,株式会社ｖｉａ　ｐｏｉｎｔ,,株式会社,沖縄県,那覇市,久茂地１丁目２番２５号,,47,201,9000015,,,,,,,2023-12-19,1,,,,,ヴィアポイント,0
504,2370001050749,新規,0,2023-12-19,2023-12-19,株式会社ＳＹＢ,,株式会社,宮城県,登米市,迫町佐沼字中江４丁目３番地１,,04,212,9870511,,,,,,,2023-12-19,1,,,,,エスワイビー,0
510,2400003003189,新規,0,2023-12-19,2023-12-19,合同会社おぶはうす,,合同会社,岩手県,紫波郡矢巾町,大字西徳田第１地割６番地,,03,322,0283603,,,,,,,2023-12-19,1,,,,,オブハウス,0
518,2450005004387,新規,0,2023-12-19,2023-12-19,一般社団法人秩父別駅保存会,,その他の設立登記法人,北海道,雨竜郡秩父別町,１３０４番地の１８,,01,434,0782100,,,,,,,2023-12-19,1,,,,,チップベツエキホゾンカイ,0
520,2700150122785,新規,0,2023-12-19,2023-12-19,ＤｏｎｇｇｕａｎｓｈｉＭｉｎｚｈｉＣｈｕａｎｇｘｉｎＫｅｊｉ　ＹｏｕｘｉａｎＧｏｎｇｓｉ,,外国会社等,,,,,,,,Ｒｏｏｍ２１６１　Ｂｕｉｌｄｉｎｇ１　Ｎｏ．２７ＸｉｎｎｏｎｇＲｏａｄ　ＮａｎｃｈｅｎｇＳｔｒｅｅｔ　ＴｈｅｃｉｔｙｏｆＤｏｎｇｇｕａｎ　Ｇｕａｎｇｄｏｎｇ,,,,,,2023-12-19,1,,,,,トウカンシミンジソウシンカギユウゲンコウシ,0
521,2700150122793,新規,0,2023-12-19,2023-12-19,ｓｈｅｎｚｈｅｎｓｈｉｈｕｉｃｈｅｎｇｓｈａｎｇｍａｏｙｏｕｘｉａｎｇｏｎｇｓｉ,,外国会社等,,,,,,,,ｄａｌａｎｇｊｉｅｄａｏｈｕａｄａｌｕ　ｔｉａｎｔｏｎｇｇｏｎｇｙｅｙｕａｎＢｄｏｎｇ５ｌｏｕ　ｓｈｅｎｚｈｅｎｓｈｉ　ｌｏｎｇｈｕａｘｉｎｑｕ　ｇｕａｎｇｄｏｎｇ　５１８０００　ＣＮ,,,,,,2023-12-19,1,,,,,シェンジェンシホイチョンシャンマオヨウシェンゴンスー,0
522,2700150122835,新規,0,2023-12-19,2023-12-19,ｗｅｉｈａｉｓｈｉ　ｄｉｙｏｕｒｕａｎｊｉａｎｋｅｊｉ　ｙｏｕｘｉａｎｇｏｎｇｓｉ,,外国会社等,,,,,,,,ｈｕａｎｃｕｉｑｕ　ｗａｎｇｈａｉｙｕａｎ　ｆｕｈｕａｃｈｅｎｇ－１１ｈａｏ－１，ｗｅｉｈａｉｓｈｉ，ｓｈａｎｄｏｎｇｓｈｅｎｇ，ＣＮ,,,,,,2023-12-19,1,,,,,ウエイハイシデイヨルアンジエンケジユウゲンコウシ,0
529,3010001240814,新規,0,2023-12-19,2023-12-19,金財産株式会社,,株式会社,東京都,中央区,日本橋箱崎町３２番９号３Ｆ,,13,102,1030015,,,,,,,2023-12-19,1,,,,,キンザイサン,0
546,3010403031596,新規,0,2023-12-19,2023-12-19,合同会社Ｂｉｎｎｏｖａｔｅ,,合同会社,東京都,港区,六本木４丁目１０－１０正直屋ビル６Ｆ－Ａ,,13,103,1060032,,,,,,,2023-12-19,1,,,,,ビノベイト,0
552,3010501051505,新規,0,2023-12-19,2023-12-19,株式会社嘉盛商事,,株式会社,東京都,台東区,松が谷２丁目９番１－３０６号,,13,106,1110036,,,,,,,2023-12-19,1,,,,,カセイショウジ,0
558,3010901054330,新規,0,2023-12-19,2023-12-19,株式会社ＤＯＴ,,株式会社,東京都,世田谷区,代沢４丁目４０番１０号サクラＢ号室,,13,112,1550032,,,,,,,2023-12-19,1,,,,,ドット,0
559,3010901054371,新規,0,2023-12-19,2023-12-19,Ａｐｏｌｌｏ　Ｃｏｎｓｕｌｔｉｎｇ株式会社,,株式会社,東京都,世田谷区,深沢２丁目１番３－１５０６号,,13,112,1580081,,,,,,,2023-12-19,1,,,,,アポロコンサルティング,0
562,3011001158848,新規,0,2023-12-19,2023-12-19,株式会社これからミステリー,,株式会社,東京都,渋谷区,恵比寿３丁目３８番３号セボン恵比寿１０３号室,,13,113,1500013,,,,,,,2023-12-19,1,,,,,コレカラミステリー,0
565,3011003018125,新規,0,2023-12-19,2023-12-19,スマイルネクス合同会社,,合同会社,東京都,渋谷区,恵比寿西２丁目４番８号ウィンド恵比寿ビル８Ｆ,,13,113,1500021,,,,,,,2023-12-19,1,,,,,スマイルネクス,0
568,3011101105527,新規,0,2023-12-19,2023-12-19,栄生株式会社,,株式会社,東京都,新宿区,山吹町３３７番地都住創山吹町ビル６０４Ｂ,,13,104,1620801,,,,,,,2023-12-19,1,,,,,サコウ,0
569,3011101105535,新規,0,2023-12-19,2023-12-19,日本再生総合研究所株式会社,,株式会社,東京都,新宿区,西新宿４丁目７番１７号１Ｆ,,13,104,1600023,,,,,,,2023-12-19,1,,,,,ニホンサイセイソウゴウケンキュウショ,0
570,3011101105543,新規,0,2023-12-19,2023-12-19,株式会社ＺｉＤｉ,,株式会社,東京都,新宿区,西新宿３丁目３番１３号西新宿水間ビル６階,,13,104,1600023,,,,,,,2023-12-19,1,,,,,ジディ,0
574,3011603004169,新規,0,2023-12-19,2023-12-19,合同会社サポートワークス,,合同会社,東京都,練馬区,平和台３丁目１５番１２号,,13,120,1790083,,,,,,,2023-12-19,1,,,,,サポートワークス,0
588,3020001154922,新規,0,2023-12-19,2023-12-19,株式会社ベスター,,株式会社,神奈川県,横浜市中区,蓬莱町２丁目４－２－１Ｆ,,14,104,2310048,,,,,,,2023-12-19,1,,,,,ベスター,0
589,3020001154971,新規,0,2023-12-19,2023-12-19,株式会社Ｐ＆Ｆ,,株式会社,神奈川県,横浜市中区,打越４０番地２－５０２号室,,14,104,2310867,,,,,,,2023-12-19,1,,,,,ピーアンドエフ,0
594,3020003025213,新規,0,2023-12-19,2023-12-19,ブラッシュアップ合同会社,,合同会社,神奈川県,川崎市川崎区,小田３丁目２４番１２号コトサンハイム３０１,,14,131,2100846,,,,,,,2023-12-19,1,,,,,ブラッシュアップ,0
595,3020005016227,新規,0,2023-12-19,2023-12-19,特定非営利活動法人市民健康長寿ネット研究所,,その他の設立登記法人,神奈川県,横浜市都筑区,茅ケ崎中央２３－１１ＯＳセンター南ビル６Ｆ,,14,118,2240032,,,,,,,2023-12-19,1,,,,,シミンケンコウチョウジュネットケンキュウジョ,0
616,3040001131382,新規,0,2023-12-19,2023-12-19,株式会社アスタリスク,,株式会社,千葉県,流山市,木２丁目１３番地の５,,12,220,2700162,,,,,,,2023-12-19,1,,,,,アスタリスク,0
617,3040001131408,新規,0,2023-12-19,2023-12-19,株式会社ＴＫエンタープライズ,,株式会社,千葉県,印西市,内野１丁目５番地４,,12,231,2701347,,,,,,,2023-12-19,1,,,,,ティーケイエンタープライズ,0
618,3040001131416,新規,0,2023-12-19,2023-12-19,株式会社カズ,,株式会社,千葉県,習志野市,新栄２丁目５番１０号ベーグルテラス２０２号,,12,216,2750005,,,,,,,2023-12-19,1,,,,,カズ,0
620,3040003023958,新規,0,2023-12-19,2023-12-19,合同会社ＩＴＳ,,合同会社,千葉県,松戸市,五香南２丁目１８番の２２,,12,207,2702212,,,,,,,2023-12-19,1,,,,,アイティーエス,0
621,3040003023966,新規,0,2023-12-19,2023-12-19,Ｍｏｎｅｔａ合同会社,,合同会社,千葉県,八千代市,緑が丘１丁目４番地１エスタシオン１１０１号,,12,221,2760049,,,,,,,2023-12-19,1,,,,,モネタ,0
624,3050001053980,新規,0,2023-12-19,2023-12-19,株式会社あさひ動物クリニック,,株式会社,茨城県,笠間市,旭町３２８番地７,,08,216,3091717,,,,,,,2023-12-19,1,,,,,アハヒドウブツクリニック,0
626,3050003008017,新規,0,2023-12-19,2023-12-19,合同会社ベストパートナー,,合同会社,茨城県,水戸市,大塚町１２０７番地の３,,08,201,3114143,,,,,,,2023-12-19,1,,,,,,0
630,3070001041208,新規,0,2023-12-19,2023-12-19,株式会社柳田,,株式会社,群馬県,太田市,矢場町２７０７番地,,10,205,3730803,,,,,,,2023-12-19,1,,,,,ヤナギタ,0
647,3090003002453,新規,0,2023-12-19,2023-12-19,合同会社ｈｏｒｉｚｏｎ,,合同会社,山梨県,甲府市,大手２丁目４番２１号,,19,201,4000015,,,,,,,2023-12-19,1,,,,,ホライズン,0
662,3120001260710,新規,0,2023-12-19,2023-12-19,文心株式会社,,株式会社,大阪府,大阪市住吉区,長居２丁目１０番３－１０１号,,27,120,5580003,,,,,,,2023-12-19,1,,,,,ブンシン,0
663,3120001260743,新規,0,2023-12-19,2023-12-19,船木防水株式会社,,株式会社,大阪府,大阪市西淀川区,竹島４丁目８番１９号,,27,113,5550011,,,,,,,2023-12-19,1,,,,,フナキボウスイ,0
665,3120003025533,新規,0,2023-12-19,2023-12-19,トラスト合同会社,,合同会社,大阪府,枚方市,伊加賀本町１５番２号,,27,210,5730055,,,,,,,2023-12-19,1,,,,,トラスト,0
679,3140001132726,新規,0,2023-12-19,2023-12-19,ＴＭＲ株式会社,,株式会社,兵庫県,宝塚市,鶴の荘１５番７号,,28,214,6650833,,,,,,,2023-12-19,1,,,,,ティエムアール,0
680,3140001132742,新規,0,2023-12-19,2023-12-19,株式会社かわにし,,株式会社,兵庫県,川西市,笹部２丁目１５－２２,,28,217,6660104,,,,,,,2023-12-19,1,,,,,カワニシ,0
681,3140003019888,新規,0,2023-12-19,2023-12-19,Ｓｅｖｅｎ　Ｓｏｗｅｒｓ合同会社,,合同会社,兵庫県,芦屋市,船戸町５番２６号,,28,206,6590093,,,,,,,2023-12-19,1,,,,,セブンソワーズ,0
682,3140003019938,新規,0,2023-12-19,2023-12-19,合同会社カレント訪問介護サービス,,合同会社,兵庫県,神戸市長田区,御船通４丁目８番地の１ルネタウン御船７０７号,,28,106,6530832,,,,,,,2023-12-19,1,,,,,カレントホウモンカイゴサービス,0
684,3140005026841,新規,0,2023-12-19,2023-12-19,医療法人社団Ｓｍｉｌｅ　Ｋｉｄｓ,,その他の設立登記法人,兵庫県,尼崎市,下坂部２丁目２番１０号,,28,202,6610975,,,,,,,2023-12-19,1,,,,,スマイルキッズ,0
690,3180001159344,新規,0,2023-12-19,2023-12-19,株式会社ＭＡＧＯＭＥＮＯＭＯＲＩ,,株式会社,愛知県,豊明市,間米町森前９３番地の３,,23,229,4701132,,,,,,,2023-12-19,1,,,,,マゴメノモリ,0
691,3180001159393,新規,0,2023-12-19,2023-12-19,株式会社聖,,株式会社,愛知県,名古屋市緑区,曽根３丁目５０１番地の１（ＫＯＤＡＴＥＸＶ－Ｂ）,00133040,23,114,4580035,,,,,,,2023-12-19,1,,,,,ヒジリ,0
695,3180003026138,新規,0,2023-12-19,2023-12-19,合同会社ウエスト不動産,,合同会社,愛知県,名古屋市東区,泉３丁目１７番１０号泉ビル３Ｆ,,23,102,4610001,,,,,,,2023-12-19,1,,,,,ウエストフドウサン,0
725,3290001104108,新規,0,2023-12-19,2023-12-19,ケンルイ株式会社,,株式会社,福岡県,福岡市博多区,博多駅南１丁目５番１８号,,40,132,8120016,,,,,,,2023-12-19,1,,,,,ケンルイ,0
726,3290001104124,新規,0,2023-12-19,2023-12-19,ＡＸＬ　Ｍｅｄｉｃａｌ株式会社,,株式会社,福岡県,久留米市,西町１０８番地１４,,40,203,8300038,,,,,,,2023-12-19,1,,,,,エーエックスエルメディカル,0
728,3290003014759,新規,0,2023-12-19,2023-12-19,合同会社ＭＹＫ,,合同会社,福岡県,福岡市中央区,天神２丁目３番１０号天神パインクレスト７１９号,,40,133,8100001,,,,,,,2023-12-19,1,,,,,エムワイケイ,0
729,3290801030148,新規,0,2023-12-19,2023-12-19,群青通商株式会社,,株式会社,福岡県,北九州市八幡東区,西本町１丁目１番１号,,40,108,8050061,,,,,,,2023-12-19,1,,,,,グンジョウツウショウ,0
737,3330001031586,新規,0,2023-12-19,2023-12-19,株式会社新甲コーポレーション,,株式会社,熊本県,熊本市東区,小山５丁目２番５号,,43,102,8618045,,,,,,,2023-12-19,1,,,,,シンコウコーポレーション,0
742,3350005006194,新規,0,2023-12-19,2023-12-19,一般社団法人日本クリーンコンサル協議会,,その他の設立登記法人,宮崎県,日向市,亀崎１丁目２８番地,,45,206,8830066,,,,,,,2023-12-19,1,,,,,ニッポンクリーンコンサルキョウギカイ,0
743,3360001032961,新規,0,2023-12-19,2023-12-19,オートスタッフ株式会社,,株式会社,沖縄県,沖縄市,知花５丁目３２番３９号,,47,211,9042143,,,,,,,2023-12-19,1,,,,,オートスタッフ,0
762,3390001017448,新規,0,2023-12-19,2023-12-19,なら株式会社,,株式会社,山形県,村山市,大字大久保字寄込３９７９‐２,,06,208,9950111,,,,,,,2023-12-19,1,,,,,ナラ,0
779,3700150122792,新規,0,2023-12-19,2023-12-19,Ｇｕａｎｇｚｈｏｕｌａｎｔｏｎｇｍａｏｙｉｙｏｕｘｉａｎｇｏｎｇｓｉ,,外国会社等,,,,,,,,Ｆｕｃｈａｎｇｌｕ　５Ｈａｏ　７０６ＦａｎｇＧｕａｎｇｚｈｏｕｓｈｉ　Ｇｕａｎｇｄｏｎｇｓｈｅｎｇ,,,,,,2023-12-19,1,,,,,グワンジョウラントンマオイーヨウシエンゴンスー,0
780,3700150122834,新規,0,2023-12-19,2023-12-19,エアインチョン株式会社,,外国会社等,東京都,港区,新橋２丁目２０番１５号新橋駅前ビル１号館６階Ｂ３,,13,103,1050004,大韓民国仁川広域市中区空港東路２９５番ギル１２４，２０１号（雲西洞，仁川空港貨物ターミナル）,,,,,,2023-12-19,1,,,,,エアインチヨンカブシキガイシヤ,0
787,4010001240540,新規,0,2023-12-19,2023-12-19,Ｙ＆Ｍ株式会社,,株式会社,東京都,中央区,銀座１丁目２２－１１－２Ｆ,,13,102,1040061,,,,,,,2023-12-19,1,,,,,ワイアンドエム,0
788,4010001240854,新規,0,2023-12-19,2023-12-19,株式会社Ｒｏｓｓｏ　Ｂｅｌｌｏ,,株式会社,東京都,中央区,八丁堀２丁目２９番１３－９０１号,,13,102,1040032,,,,,,,2023-12-19,1,,,,,ロッソベッロ,0
789,4010001240920,新規,0,2023-12-19,2023-12-19,株式会社Ｎｉｎｅ　Ｃｏｎｓｕｌｔｉｎｇ,,株式会社,東京都,中央区,銀座１丁目１２番４号Ｎ＆ＥＢＬＤ．６Ｆ,,13,102,1040061,,,,,,,2023-12-19,1,,,,,ナインコンサルティング,0
790,4010001240945,新規,0,2023-12-19,2023-12-19,ＴＣＨＣ株式会社,,株式会社,東京都,千代田区,霞が関３丁目２番５号,,13,101,1000013,,,,,,,2023-12-19,1,,,,,ティーシーエイチシー,0
797,4010003042456,新規,0,2023-12-19,2023-12-19,合同会社Ｄ１号ファンド,,合同会社,東京都,千代田区,丸の内３丁目１番１号,,13,101,1000005,,,,,,,2023-12-19,1,,,,,ディーイチゴウファンド,0
799,4010101015933,新規,0,2023-12-19,2023-12-19,株式会社ステイグリーン,,株式会社,東京都,八王子市,東町１番１０号グランデハイツ八王子８０２,,13,201,1920082,,,,,,,2023-12-19,1,,,,,ステイグリーン,0
800,4010103002277,新規,0,2023-12-19,2023-12-19,合同会社トウカ,,合同会社,東京都,八王子市,台町２丁目１３番７－５０８号,,13,201,1930931,,,,,,,2023-12-19,1,,,,,トウカ,0
805,4010401178983,新規,0,2023-12-19,2023-12-19,創造人生株式会社,,株式会社,東京都,港区,新橋２丁目１６－１ニュー新橋ビル２Ｆ２５０号室,,13,103,1050004,,,,,,,2023-12-19,1,,,,,ソウゾウジンセイ,0
806,4010501051504,新規,0,2023-12-19,2023-12-19,株式会社竹平,,株式会社,東京都,台東区,松が谷２丁目９番１－Ｂ１０１号,,13,106,1110036,,,,,,,2023-12-19,1,,,,,タケヒラ,0
823,4011001158772,新規,0,2023-12-19,2023-12-19,株式会社Ａｔｌａｎｔｉｃ,,株式会社,東京都,渋谷区,道玄坂１丁目１０番８号渋谷道玄坂東急ビル２Ｆ－Ｃ,,13,113,1500043,,,,,,,2023-12-19,1,,,,,アトランティック,0
824,4011001158855,新規,0,2023-12-19,2023-12-19,株式会社河端,,株式会社,東京都,目黒区,中央町１丁目２番７号,,13,110,1520001,,,,,,,2023-12-19,1,,,,,カワバタ,0
831,4011101105518,新規,0,2023-12-19,2023-12-19,１９５７＆ＣＯ株式会社,,株式会社,東京都,新宿区,高田馬場４丁目４番１０号コーポラス徳光,,13,104,1690075,,,,,,,2023-12-19,1,,,,,イチキュウゴナナアンドコウ,0
832,4011101105526,新規,0,2023-12-19,2023-12-19,ＳＨＩＨＡＫＵ株式会社,,株式会社,東京都,新宿区,西新宿３丁目５番３－２１８号,,13,104,1600023,,,,,,,2023-12-19,1,,,,,シハク,0
833,4011101105534,新規,0,2023-12-19,2023-12-19,株式会社データドリブン・コンサルティング,,株式会社,東京都,新宿区,南榎町７０－７,,13,104,1620852,,,,,,,2023-12-19,1,,,,,データドリブンコンサルティング,0
835,4011103013883,新規,0,2023-12-19,2023-12-19,合同会社白石,,合同会社,東京都,新宿区,四谷坂町１０番１１－１２０３号,,13,104,1600002,,,,,,,2023-12-19,1,,,,,シライシ,0
838,4011401025713,新規,0,2023-12-19,2023-12-19,株式会社富喬,,株式会社,東京都,板橋区,桜川３丁目２０番１０号リアシス桜川１０２号室,,13,119,1740075,,,,,,,2023-12-19,1,,,,,トミタカ,0
844,4011601027385,新規,0,2023-12-19,2023-12-19,ケルブルム・テクノロジー株式会社,,株式会社,東京都,練馬区,上石神井３丁目５－１３－６０２,,13,120,1770044,,,,,,,2023-12-19,1,,,,,,0
845,4011603004168,新規,0,2023-12-19,2023-12-19,合同会社Ｋ・Ｋ・Ｋ,,合同会社,東京都,練馬区,南大泉１丁目２２番４３号,,13,120,1780064,,,,,,,2023-12-19,1,,,,,ケーケーケー,0
847,4011801043513,新規,0,2023-12-19,2023-12-19,株式会社悠活ＴＲＡＶＥＬ,,株式会社,東京都,葛飾区,お花茶屋２丁目１９番３号,,13,122,1240003,,,,,,,2023-12-19,1,,,,,ユウカツトラベル,0
850,4011803005998,新規,0,2023-12-19,2023-12-19,ＬＥＴ’Ｓ　ＤＯ合同会社,,合同会社,東京都,足立区,千住旭町３７番６号鈴木荘２０１号室,,13,121,1200026,,,,,,,2023-12-19,1,,,,,レッツドゥ,0
860,4013301051772,新規,0,2023-12-19,2023-12-19,株式会社ツチサカホールディングス,,株式会社,東京都,豊島区,要町２丁目３１番９号,,13,116,1710043,,,,,,,2023-12-19,1,,,,,ツチサカホールディングス,0
861,4013301051789,新規,0,2023-12-19,2023-12-19,株式会社ＯｎｅＰｌｕｓ,,株式会社,東京都,豊島区,南大塚２丁目４１番４号大栗ビル１階,,13,116,1700005,,,,,,,2023-12-19,1,,,,,ワンプラス,0
862,4013301051797,新規,0,2023-12-19,2023-12-19,株式会社オフィスマロン,,株式会社,東京都,豊島区,池袋本町４丁目３番４号,,13,116,1700011,,,,,,,2023-12-19,1,,,,,オフィスマロン,0
872,4020001154839,新規,0,2023-12-19,2023-12-19,ハーモニーライフ株式会社,,株式会社,神奈川県,川崎市宮前区,宮崎３丁目７番地７２,,14,136,2160033,,,,,,,2023-12-19,1,,,,,ハーモニーライフ,0
873,4020001154938,新規,0,2023-12-19,2023-12-19,バン・デバン株式会社,,株式会社,神奈川県,川崎市高津区,下野毛３丁目９番２－６０５号,,14,134,2130006,,,,,,,2023-12-19,1,,,,,バンデバン,0
874,4020001154970,新規,0,2023-12-19,2023-12-19,株式会社エスケー不動産,,株式会社,神奈川県,横浜市鶴見区,東寺尾４丁目１番１号,,14,101,2300077,,,,,,,2023-12-19,1,,,,,エスケーフドウサン,0
876,4020003025212,新規,0,2023-12-19,2023-12-19,ＴＷマネジメント合同会社,,合同会社,神奈川県,横浜市西区,久保町３１－２９,,14,103,2200061,,,,,,,2023-12-19,1,,,,,ティーダブリュウマネジメント,0
880,4021001081008,新規,0,2023-12-19,2023-12-19,祭茶屋エンターテイメント株式会社,,株式会社,神奈川県,大和市,大和東２丁目６番５号湘南ハイコーポ１Ｆ西側,,14,213,2420017,,,,,,,2023-12-19,1,,,,,マツリヂャヤエンターテイメント,0
881,4021003013917,新規,0,2023-12-19,2023-12-19,合同会社ｅｘｉｔｏ,,合同会社,神奈川県,相模原市南区,新磯野１丁目１０番５号ヴィラ新磯野１０２,,14,153,2520325,,,,,,,2023-12-19,1,,,,,エクシト,0
898,4030003023248,新規,0,2023-12-19,2023-12-19,合同会社ＯＦＦＩＣＥＮＥＯ,,合同会社,埼玉県,入間市,下藤沢１丁目１番地２３,,11,225,3580011,,,,,,,2023-12-19,1,,,,,オフィスネオ,0
910,4040001131415,新規,0,2023-12-19,2023-12-19,株式会社ＳＩＹＯＴＨ,,株式会社,千葉県,山武市,上横地１４５０番地Ａ,,12,237,2891313,,,,,,,2023-12-19,1,,,,,シヨス,0
911,4040001131431,新規,0,2023-12-19,2023-12-19,葵建築設計株式会社,,株式会社,千葉県,船橋市,西船４丁目１９番２号第１２花園ビル５０７,,12,204,2730031,,,,,,,2023-12-19,1,,,,,アオイケンチクセッケイ,0
913,4040003023965,新規,0,2023-12-19,2023-12-19,合同会社リルリオン,,合同会社,千葉県,柏市,永楽台３丁目８番９号,,12,217,2770086,,,,,,,2023-12-19,1,,,,,リルリオン,0
926,4070001041207,新規,0,2023-12-19,2023-12-19,上株式会社,,株式会社,群馬県,高崎市,貝沢町４７１番地１サンハイツ高崎１０６号,,10,202,3700042,,,,,,,2023-12-19,1,,,,,ジョウ,0
941,4090003002452,新規,0,2023-12-19,2023-12-19,合同会社笑猫来福,,合同会社,山梨県,甲府市,山宮町５０１０番地２３,,19,201,4000075,,,,,,,2023-12-19,1,,,,,ショウネコライフク,0
952,4120001260536,新規,0,2023-12-19,2023-12-19,鸚山堂株式会社,,株式会社,大阪府,大阪市東淀川区,瑞光４丁目７番１１号本多ビル３０１号,,27,114,5330005,,,,,,,2023-12-19,1,,,,,インサンドウ,0
953,4120001260619,新規,0,2023-12-19,2023-12-19,ＪＮ　Ｒｏｖｅｒ株式会社,,株式会社,大阪府,大阪市西成区,天下茶屋１丁目２８番１６－３０４号,,27,122,5570014,,,,,,,2023-12-19,1,,,,,ジェエンロヴァール,0
954,4120001260750,新規,0,2023-12-19,2023-12-19,株式会社Ｔｅａ　ｓｈｏｔ,,株式会社,大阪府,大阪市城東区,蒲生４丁目１６番７号,,27,118,5360016,,,,,,,2023-12-19,1,,,,,ティーショット,0
955,4120001260783,新規,0,2023-12-19,2023-12-19,康為株式会社,,株式会社,大阪府,大阪市住之江区,中加賀屋３丁目１４番８号,,27,125,5590017,,,,,,,2023-12-19,1,,,,,コウイ,0
957,4120003025516,新規,0,2023-12-19,2023-12-19,合同会社エムカンパニー,,合同会社,大阪府,大阪市西淀川区,歌島２丁目１２番３２号,,27,113,5550021,,,,,,,2023-12-19,1,,,,,エムカンパニー,0
958,4120003025532,新規,0,2023-12-19,2023-12-19,シンハプロジェクト合同会社,,合同会社,大阪府,大阪市北区,梅田１丁目２番２号,,27,127,5300001,,,,,,,2023-12-19,1,,,,,シンハプロジェクト,0
959,4120003025549,新規,0,2023-12-19,2023-12-19,曇之嵐合同会社,,合同会社,大阪府,大阪市淀川区,三津屋南２丁目５番１５号,,27,123,5320035,,,,,,,2023-12-19,1,,,,,ドンノラン,0
963,4120101068672,新規,0,2023-12-19,2023-12-19,株式会社Ｒａｄｉｃａｌ　Ｓｈｉｎｅ,,株式会社,大阪府,和泉市,池田下町１７７９番地の３（２－５１１）,,27,219,5940032,,,,,,,2023-12-19,1,,,,,ラディカルシャイン,0
965,4120901048502,新規,0,2023-12-19,2023-12-19,株式会社Ｇ‐ｔｅｃｈＰｌｕｓ,,株式会社,大阪府,高槻市,西面南２丁目６番１２号,,27,207,5690847,,,,,,,2023-12-19,1,,,,,ジーテックプラス,0
972,4122003002750,新規,0,2023-12-19,2023-12-19,合同会社のの,,合同会社,大阪府,東大阪市,友井１丁目１１－２５,,27,227,5770816,,,,,,,2023-12-19,1,,,,,ノノ,0
977,4140001132683,新規,0,2023-12-19,2023-12-19,株式会社メビウス,,株式会社,兵庫県,西宮市,鳴尾町３丁目６番２０号,,28,204,6638184,,,,,,,2023-12-19,1,,,,,メビウス,0
978,4140001132717,新規,0,2023-12-19,2023-12-19,遠洋商事株式会社,,株式会社,兵庫県,神戸市中央区,花隈町五丁目２１花隈ダイヤハイツ店２号室,,28,110,6500013,,,,,,,2023-12-19,1,,,,,エンヨウショウジ,0
979,4140001132725,新規,0,2023-12-19,2023-12-19,株式会社リグナイト,,株式会社,兵庫県,神戸市中央区,八幡通４丁目２番９号フラワーロードビル５０２号,,28,110,6510085,,,,,,,2023-12-19,1,,,,,リグナイト,0
983,4140003019920,新規,0,2023-12-19,2023-12-19,合同会社ＭＩ　Ｗｏｒｋｓ,,合同会社,兵庫県,川辺郡猪名川町,杉生字長谷森１－２,,28,301,6660201,,,,,,,2023-12-19,1,,,,,エムアイワークス,0
984,4140003019937,新規,0,2023-12-19,2023-12-19,合同会社ＳＥＲＡ,,合同会社,兵庫県,姫路市,本町６８番地２９０メゾン・ド・イーグレ２０２号,,28,201,6700012,,,,,,,2023-12-19,1,,,,,セラ,0
985,4140003019945,新規,0,2023-12-19,2023-12-19,雅高合同会社,,合同会社,兵庫県,神戸市東灘区,向洋町中１丁目１７アジア・ワン・センター３０６号室,,28,101,6580032,,,,,,,2023-12-19,1,,,,,ガコウ,0
987,4150003003147,新規,0,2023-12-19,2023-12-19,合同会社Ｃｏｌｌｅｃｔ　Ｈａｃｋ,,合同会社,奈良県,生駒市,俵口町１４８１番地１４－３０７,,29,209,6300243,,,,,,,2023-12-19,1,,,,,コレクトハック,0
993,4180001159418,新規,0,2023-12-19,2023-12-19,株式会社キョウシンホールディングス,,株式会社,愛知県,名古屋市緑区,若田３丁目７０９番地,,23,114,4580034,,,,,,,2023-12-19,1,,,,,キョウシンホールディングス,0
994,4180001159426,新規,0,2023-12-19,2023-12-19,株式会社照健,,株式会社,愛知県,名古屋市中村区,名駅４丁目２４番５号第２森ビル４０１,,23,105,4500002,,,,,,,2023-12-19,1,,,,,ショウケン,0
995,4180001159434,新規,0,2023-12-19,2023-12-19,株式会社エクスフロー,,株式会社,愛知県,名古屋市東区,泉２丁目１１番４号ＩＺＵＭＩ－ＳＯ４０Ｘ,,23,102,4610001,,,,,,,2023-12-19,1,,,,,エクスフロー,0
998,4180003026095,新規,0,2023-12-19,2023-12-19,合同会社シルム,,合同会社,愛知県,長久手市,岩作三ケ峯３０番地１３,,23,238,4801103,,,,,,,2023-12-19,1,,,,,シルム,0
1000,4190001030965,新規,0,2023-12-19,2023-12-19,株式会社サンリンク,,株式会社,三重県,三重郡菰野町,大字竹成３５７１番地の１,,24,341,5101312,,,,,,,2023-12-19,1,,,,,サンリンク,0
1005,4200005013551,新規,0,2023-12-19,2023-12-19,特定非営利活動法人飛騨漆の森プロジェクト,,その他の設立登記法人,岐阜県,高山市,上一之町９８番地,,21,203,5060844,,,,,,,2023-12-19,1,,,,,ヒダウルシノモリプロジェクト,0
1007,4220001025739,新規,0,2023-12-19,2023-12-19,株式会社Ｇａｒａｇｅ　ＩＲＯＨＡ,,株式会社,石川県,能美市,新保町ヲ５２番地１,,17,211,9231102,,,,,,,2023-12-19,1,,,,,ガレージイロハ,0
1011,4230001020144,新規,0,2023-12-19,2023-12-19,介護施設広小路株式会社,,株式会社,富山県,高岡市,中川本町８番４号,,16,202,9330046,,,,,,,2023-12-19,1,,,,,カイゴシセツヒロコウジ,0
1014,4240001062573,新規,0,2023-12-19,2023-12-19,株式会社ロケメディア,,株式会社,広島県,福山市,沼隈町下山南１０７５－１,,34,207,7210000,,,,,,,2023-12-19,1,,,,,ロケメディア,0
1035,4360001032952,新規,0,2023-12-19,2023-12-19,株式会社Ｌｉｆｅａｒｔ,,株式会社,沖縄県,宜野湾市,真栄原２丁目３番７－１４０４号ミルコマンション真栄原スカイビュー,,47,205,9012215,,,,,,,2023-12-19,1,,,,,ライフアート,0
1046,4470001019939,新規,0,2023-12-19,2023-12-19,株式会社ＴＯＴＥＲＵ,,株式会社,香川県,三豊市,仁尾町仁尾辛３５番地３,,37,208,7691406,,,,,,,2023-12-19,1,,,,,トテル,0
1050,4470003002538,新規,0,2023-12-19,2023-12-19,合同会社Ｍｕｎｉ,,合同会社,香川県,高松市,朝日新町１４番１５号,,37,201,7600064,,,,,,,2023-12-19,1,,,,,ムニ,0
1057,4700150122791,新規,0,2023-12-19,2023-12-19,ＨＩＮＯＭＩ　ＰＴＥ．ＬＴＤ．,,外国会社等,,,,,,,,１００Ｄ　ＰＡＳＩＲ　ＰＡＮＪＡＮＧ　ＲＤ，＃０１－０１，ＳＩＮＧＡＰＯＲＥ　１１８５２０,,,,,,2023-12-19,1,,,,,ヒノミペテリミティッド,0
1058,4700150122833,新規,0,2023-12-19,2023-12-19,ＨｏｎｅｙＪｉｄｏｓｈａＵｓｅｄＣａｒｓＴｒａｄｉｎｇＣｏｍｐａｎｙ,,外国会社等,千葉県,茂原市,弓渡１５１８番地１,,12,210,2994105,スリランカ民主社会主義共和国、ナワラピティヤ、ゴンデンナワ、１３２－Ｅ－１－Ａ５,,,,,,2023-12-19,1,,,,,ハニージドウシヤユーズドカーズトレーデイングカンパニー,0
1061,5010001240894,新規,0,2023-12-19,2023-12-19,株式会社一燈舎,,株式会社,東京都,中央区,銀座１丁目３番３号Ｇ１ビル７階,,13,102,1040061,,,,,,,2023-12-19,1,,,,,イットウシャ,0
1062,5010001240936,新規,0,2023-12-19,2023-12-19,信益技術株式会社,,株式会社,東京都,中央区,入船２丁目３番７号,,13,102,1040042,,,,,,,2023-12-19,1,,,,,シンエキギジュツ,0
1077,5010401179262,新規,0,2023-12-19,2023-12-19,和田株式会社,,株式会社,東京都,港区,南青山４丁目１５－３－４０４,,13,103,1070062,,,,,,,2023-12-19,1,,,,,ワダ,0
1100,5011001158854,新規,0,2023-12-19,2023-12-19,Ｂｕｒｉｎ株式会社,,株式会社,東京都,渋谷区,渋谷２丁目１９－１５宮益坂ビルディング６０９,,13,113,1500002,,,,,,,2023-12-19,1,,,,,ブリン,0
1101,5011001158862,新規,0,2023-12-19,2023-12-19,株式会社ガルフ,,株式会社,東京都,渋谷区,道玄坂１丁目１０－８渋谷道玄坂東急ビル２Ｆ－Ｃ,,13,113,1500043,,,,,,,2023-12-19,1,,,,,ガルフ,0
1102,5011001158870,新規,0,2023-12-19,2023-12-19,株式会社ＥＭＰＬＡＹ,,株式会社,東京都,渋谷区,神宮前６丁目２３番４号桑野ビル２階,,13,113,1500001,,,,,,,2023-12-19,1,,,,,エンプレイ,0
1104,5011101105525,新規,0,2023-12-19,2023-12-19,株式会社全力疾走,,株式会社,東京都,新宿区,神楽坂３丁目３番地２クレール神楽坂ＶＩ－４０１,00133036,13,104,1620825,,,,,,,2023-12-19,1,,,,,ゼンリョクシッソウ,0
1105,5011103013882,新規,0,2023-12-19,2023-12-19,合同会社アサヒプロジェクトマネジメント,,合同会社,東京都,新宿区,西新宿７丁目２番６号,,13,104,1600023,,,,,,,2023-12-19,1,,,,,アサヒプロジェクトマネジメント,0
1112,5011401025712,新規,0,2023-12-19,2023-12-19,株式会社Ａ．Ｆ．Ｙ．,,株式会社,東京都,板橋区,常盤台１丁目２番４号目崎ビル２階,,13,119,1740071,,,,,,,2023-12-19,1,,,,,アフィー,0
1113,5011501030125,新規,0,2023-12-19,2023-12-19,株式会社日進,,株式会社,東京都,荒川区,東日暮里４丁目１３－１５,,13,118,1160014,,,,,,,2023-12-19,1,,,,,ニッシン,0
1114,5011503005892,新規,0,2023-12-19,2023-12-19,合同会社オレンジ,,合同会社,東京都,北区,赤羽西１丁目５番１－５０３号,,13,117,1150055,,,,,,,2023-12-19,1,,,,,オレンジ,0
1118,5012301013699,新規,0,2023-12-19,2023-12-19,株式会社ティロワール,,株式会社,東京都,町田市,鶴間３丁目９番地１ドレッセ南町田シエルコート７０４,,13,209,1940004,,,,,,,2023-12-19,1,,,,,ティロワール,0
1124,5012403006337,新規,0,2023-12-19,2023-12-19,合同会社Ｄｒａｗｎｌｏｔ,,合同会社,東京都,武蔵野市,吉祥寺南町１丁目２７番１－４１２号,,13,203,1800003,,,,,,,2023-12-19,1,,,,,ドローンロット,0
1126,5013301051771,新規,0,2023-12-19,2023-12-19,株式会社多幸技建,,株式会社,東京都,豊島区,南大塚１丁目６０番２０号,,13,116,1700005,,,,,,,2023-12-19,1,,,,,タコウギケン,0
1143,5020001154920,新規,0,2023-12-19,2023-12-19,ＯＧＵＲＡ・ＢＥ株式会社,,株式会社,神奈川県,川崎市麻生区,王禅寺西８丁目４番１号,,14,137,2150017,,,,,,,2023-12-19,1,,,,,オグラベ,0
1144,5020001154986,新規,0,2023-12-19,2023-12-19,株式会社Ｍｉｔｅｓ,,株式会社,神奈川県,横浜市磯子区,岡村５丁目５番７号,,14,107,2350021,,,,,,,2023-12-19,1,,,,,ミティス,0
1149,5020003025013,新規,0,2023-12-19,2023-12-19,合同会社ニューステージ通信,,合同会社,神奈川県,横浜市西区,浅間町１丁目４番３号ウィザードビル４０２,,14,103,2200072,,,,,,,2023-12-19,1,,,,,ニューステージツウシン,0
1152,5021001081015,新規,0,2023-12-19,2023-12-19,株式会社五十鈴,,株式会社,神奈川県,厚木市,旭町３丁目３－２１スカイコート５０２,,14,212,2430014,,,,,,,2023-12-19,1,,,,,イスズ,0
1154,5021003013916,新規,0,2023-12-19,2023-12-19,シュガープラム合同会社,,合同会社,神奈川県,小田原市,永塚３８２番地,,14,206,2500214,,,,,,,2023-12-19,1,,,,,シュガープラム,0
1164,5030003023049,新規,0,2023-12-19,2023-12-19,合同会社アンビシャス,,合同会社,埼玉県,草加市,手代１丁目１５番５号,,11,221,3400021,,,,,,,2023-12-19,1,,,,,アンビシャス,0
1165,5030003023156,新規,0,2023-12-19,2023-12-19,合同会社トラスト,,合同会社,埼玉県,さいたま市桜区,中島３丁目１１番２０－１号,,11,106,3380822,,,,,,,2023-12-19,1,,,,,トラスト,0
1174,5050001053979,新規,0,2023-12-19,2023-12-19,株式会社シーホース,,株式会社,茨城県,鹿嶋市,大字青塚７３５番地３１,,08,222,3112211,,,,,,,2023-12-19,1,,,,,シーホース,0
1175,5050003008015,新規,0,2023-12-19,2023-12-19,鳳合同会社,,合同会社,茨城県,鹿嶋市,大字長栖蒲地１８７９番地３２１,,08,222,3140022,,,,,,,2023-12-19,1,,,,,,0
1178,5060005010158,新規,0,2023-12-19,2023-12-19,一般社団法人栃木県卓球連盟,,その他の設立登記法人,栃木県,宇都宮市,中央２丁目１番２号,,09,201,3200806,,,,,,,2023-12-19,1,,,,,トチギケンタッキュウレンメイ,0
1179,5070001041206,新規,0,2023-12-19,2023-12-19,ｅ‐ｃｏｎｎｅｃｔ株式会社,,株式会社,群馬県,前橋市,鼻毛石町１１５２番地３１,,10,201,3710244,,,,,,,2023-12-19,1,,,,,イーコネクト,0
1183,5080101024407,新規,0,2023-12-19,2023-12-19,株式会社ＳＴＥＡＤＹ,,株式会社,静岡県,熱海市,西山町２０番３号,,22,205,4130034,,,,,,,2023-12-19,1,,,,,ステディ,0
1184,5080105006384,新規,0,2023-12-19,2023-12-19,一般社団法人おもしろ情報発信基地いず,,その他の設立登記法人,静岡県,伊豆の国市,韮山山木１２９番地の４,,22,225,4102141,,,,,,,2023-12-19,1,,,,,オモシロジョウホウハッシンキチイズ,0
1193,5090003002451,新規,0,2023-12-19,2023-12-19,合同会社ＳＯＷＥＲ,,合同会社,山梨県,北杜市,須玉町比志６０００番地１,,19,209,4080102,,,,,,,2023-12-19,1,,,,,ソウア,0
1211,5120001260758,新規,0,2023-12-19,2023-12-19,株式会社松本建装,,株式会社,大阪府,寝屋川市,点野６丁目９番１－２０１号,,27,215,5720077,,,,,,,2023-12-19,1,,,,,マツモトケンソウ,0
1212,5120001260782,新規,0,2023-12-19,2023-12-19,株式会社クライスギア,,株式会社,大阪府,大阪市中央区,南船場３丁目２番２２号おおきに南船場ビル２０５,,27,128,5420081,,,,,,,2023-12-19,1,,,,,クライスギア,0
1213,5120003025556,新規,0,2023-12-19,2023-12-19,合同会社ＵＳＡＧｉＹＡ,,合同会社,大阪府,大阪市天王寺区,逢阪１丁目３番５６－２０４号,,27,109,5430062,,,,,,,2023-12-19,1,,,,,ウサギヤ,0
1215,5120101068721,新規,0,2023-12-19,2023-12-19,江納商事株式会社,,株式会社,大阪府,堺市北区,長曽根町１５１２番地３７,,27,146,5918025,,,,,,,2023-12-19,1,,,,,コウノウショウジ,0
1220,5120903004964,新規,0,2023-12-19,2023-12-19,Ｗａｖｅ　Ａｄｖｉｓｏｒｙ合同会社,,合同会社,大阪府,高槻市,月見町１６番２４号,,27,207,5691122,,,,,,,2023-12-19,1,,,,,ウェーブアドバイザリー,0
1234,5140001132724,新規,0,2023-12-19,2023-12-19,ＴＡＭ経営コンサルティング株式会社,,株式会社,兵庫県,川西市,下加茂１丁目２４番５－４０１号,,28,217,6660022,,,,,,,2023-12-19,1,,,,,タムケイエイコンサルティング,0
1235,5140001132732,新規,0,2023-12-19,2023-12-19,株式会社おぎのファーム,,株式会社,兵庫県,丹波市,市島町白毫寺油利６１５,,28,223,6694334,,,,,,,2023-12-19,1,,,,,オギノファーム,0
1239,5160001025570,新規,0,2023-12-19,2023-12-19,Ｃ‐２ＭＫ　Ｊａｐａｎ株式会社,,株式会社,滋賀県,大津市,竜が丘１３番２０号,,25,201,5200803,,,,,,,2023-12-19,1,,,,,シーツーエムケイジャパン,0
1241,5180001159433,新規,0,2023-12-19,2023-12-19,株式会社ＴＯＰＨＯＵＳＥ,,株式会社,愛知県,名古屋市瑞穂区,北原町１丁目２４番地１,,23,108,4670811,,,,,,,2023-12-19,1,,,,,トップハウス,0
1245,5190001030948,新規,0,2023-12-19,2023-12-19,株式会社農地所有適格法人ひのき,,株式会社,三重県,伊賀市,大内６９７番地１４,,24,216,5180034,,,,,,,2023-12-19,1,,,,,ノウチショユウテキカクホウジンヒノキ,0
1246,5190001030964,新規,0,2023-12-19,2023-12-19,株式会社イミエ,,株式会社,三重県,松阪市,清水町３５４番地５,,24,204,5150203,,,,,,,2023-12-19,1,,,,,イミエ,0
1248,5200001042000,新規,0,2023-12-19,2023-12-19,株式会社やまがたテラス,,株式会社,岐阜県,山県市,大桑６５番地の１,,21,215,5012101,,,,,,,2023-12-19,1,,,,,ヤマガタテラス,0
1252,5220001025738,新規,0,2023-12-19,2023-12-19,株式会社Ａｓｕコンパス,,株式会社,石川県,金沢市,昭和町７番５号,,17,201,9200856,,,,,,,2023-12-19,1,,,,,アスコンパス,0
1255,5250001020439,新規,0,2023-12-19,2023-12-19,やまぐち愛着プロダクト株式会社,,株式会社,山口県,山口市,吉敷中東４丁目８番２号維新ナインテラス２階,,35,203,7530813,,,,,,,2023-12-19,1,,,,,ヤマグチアイチャクプロダクト,0
1256,5250003003400,新規,0,2023-12-19,2023-12-19,合同会社アネモネ,,合同会社,山口県,防府市,多々良２丁目１３番３号寿アパート５号,,35,206,7470023,,,,,,,2023-12-19,1,,,,,アネモネ,0
1257,5250005008884,新規,0,2023-12-19,2023-12-19,特定非営利活動法人いんくる,,その他の設立登記法人,山口県,山口市,吉敷下東４丁目１３番３２号,,35,203,7530814,,,,,,,2023-12-19,1,,,,,インクル,0
1265,5290801030146,新規,0,2023-12-19,2023-12-19,株式会社Ｎ９Ａ,,株式会社,福岡県,行橋市,大字金屋６８７－２７,,40,213,8240004,,,,,,,2023-12-19,1,,,,,エヌキューエー,0
1269,5310003004697,新規,0,2023-12-19,2023-12-19,合同会社つしまびと,,合同会社,長崎県,対馬市,豊玉町千尋藻１４０－３,,42,209,8171213,,,,,,,2023-12-19,1,,,,,ツシマビト,0
1275,5340001026146,新規,0,2023-12-19,2023-12-19,株式会社スローライフ,,株式会社,鹿児島県,奄美市,笠利町大字外金久８６３番地８,,46,222,8940513,,,,,,,2023-12-19,1,,,,,スローライフ,0
1281,5370001050746,新規,0,2023-12-19,2023-12-19,株式会社Ｕｒｕｓ,,株式会社,宮城県,仙台市青葉区,柏木１丁目４番４７号－１０５,,04,101,9810933,,,,,,,2023-12-19,1,,,,,ウルス,0
1287,5410003003870,新規,0,2023-12-19,2023-12-19,ミークン合同会社,,合同会社,秋田県,秋田市,外旭川字小谷地１４２番地２,,05,201,0100802,,,,,,,2023-12-19,1,,,,,ミークン,0
1295,5430003015773,新規,0,2023-12-19,2023-12-19,ＮＫエステート合同会社,,合同会社,北海道,札幌市豊平区,平岸五条７丁目７番１２－８０２号,,01,105,0620935,,,,,,,2023-12-19,1,,,,,エヌケイエステート,0
1304,5700150122790,新規,0,2023-12-19,2023-12-19,ＳＨＥＮＺＨＥＮ　ＺＨＥＮＳＨＡＮＧ　ＴＥＣＨＮＯＬＯＧＹ　ＣＯ　ＬＴＤ,,外国会社等,,,,,,,,Ｒｏｏｍ５０３　ＢｕｉｌｄｉｎｇＥ　ＧｅｏｍｅｔｒｙＥ－ｃｏｍｍｅｒｃｅＰａｒｋ　Ｎｏ．１０ＺｈｏｎｇｘｉｎｇＲｏａｄ　ＢａｎｔｉａｎＳｔｒｅｅｔ　ＬｏｎｇｇａｎｇＤｉｓｔｒｉｃｔ　Ｓｈｅｎｚｈｅｎ,,,,,,2023-12-19,1,,,,,シンセンゼンサンテクノロジーカンパニーリミテッド,0
1305,5700150122816,新規,0,2023-12-19,2023-12-19,船越土地改良区,,その他,静岡県,静岡市清水区,庵原町１番地清水農業協同組合内,,22,103,4240114,,,,,,,2023-12-19,1,,,,,フナコシトチカイリヨウク,0
1306,5700150122832,新規,0,2023-12-19,2023-12-19,Ｂｅｒｎａｒｄ　Ｆｏｌｅｙ　Ｐｔｙ　Ｌｔｄ,,外国会社等,千葉県,浦安市,日の出２丁目１６番１８－８０９号コスモ新浦安東京ベイ,,12,227,2790013,オーストラリア、ビクトリア州エッセンドン、フレッチャーストリート４３,,,,,,2023-12-19,1,,,,,バーナードフオーリーピーテイーワイリミテツド,0
1311,6010001240893,新規,0,2023-12-19,2023-12-19,ＫｉｓｓＡ株式会社,,株式会社,東京都,千代田区,永田町２丁目１３－１４,,13,101,1000014,,,,,,,2023-12-19,1,,,,,キッサ,0
1318,6010101015931,新規,0,2023-12-19,2023-12-19,株式会社喜納川,,株式会社,東京都,八王子市,堀之内２５６－２５９東山５２－１,,13,201,1920355,,,,,,,2023-12-19,1,,,,,キナカワ,0
1321,6010401179278,新規,0,2023-12-19,2023-12-19,株式会社ブレインシステム,,株式会社,東京都,港区,虎ノ門１丁目１６番１６号,,13,103,1050001,,,,,,,2023-12-19,1,,,,,ブレインシステム,0
1322,6010401179286,新規,0,2023-12-19,2023-12-19,日本富士達株式会社,,株式会社,東京都,港区,白金６丁目２番６号４０２号室,,13,103,1080072,,,,,,,2023-12-19,1,,,,,ニホンフジタツ,0
1325,6010403031610,新規,0,2023-12-19,2023-12-19,ＹｏｕｔｉＬｅａｄ合同会社,,合同会社,東京都,港区,浜松町２丁目２番１５号浜松町ダイヤビル２Ｆ,,13,103,1050013,,,,,,,2023-12-19,1,,,,,ユーティリード,0
1327,6010501051519,新規,0,2023-12-19,2023-12-19,ＫＡＰＲＩ株式会社,,株式会社,東京都,台東区,柳橋２丁目７番１０号ヒカリビル１階,,13,106,1110052,,,,,,,2023-12-19,1,,,,,カプリ,0
1328,6010605004273,新規,0,2023-12-19,2023-12-19,一般社団法人江東区の地域防災力向上を目指す会,,その他の設立登記法人,東京都,江東区,高橋６－４,,13,108,1350005,,,,,,,2023-12-19,1,,,,,コウトウクノチイキボウサイリョクコウジョウヲメザスカイ,0
1331,6010803004785,新規,0,2023-12-19,2023-12-19,ｃｈａｒｍｉｎｇ　ＴＯＫＹＯ合同会社,,合同会社,東京都,大田区,上池台４丁目２１番１４－５０７号,,13,111,1450064,,,,,,,2023-12-19,1,,,,,チャーミングトウキョウ,0
1340,6011001158928,新規,0,2023-12-19,2023-12-19,株式会社ＳｐｉｎＴｒｕｓｔ,,株式会社,東京都,目黒区,青葉台１丁目６番５４号,,13,110,1530042,,,,,,,2023-12-19,1,,,,,スピントラスト,0
1346,6011101105516,新規,0,2023-12-19,2023-12-19,株式会社ＮＰ,,株式会社,東京都,新宿区,富久町３５番２号,,13,104,1620067,,,,,,,2023-12-19,1,,,,,エヌピー,0
1347,6011103013865,新規,0,2023-12-19,2023-12-19,隠米合同会社,,合同会社,東京都,新宿区,西新宿４丁目１６番２－２０５号,,13,104,1600023,,,,,,,2023-12-19,1,,,,,インミイ,0
1358,6011503005891,新規,0,2023-12-19,2023-12-19,合同会社岸本商會,,合同会社,東京都,北区,中里２丁目１番５号,,13,117,1140015,,,,,,,2023-12-19,1,,,,,キシモトショウカイ,0
1359,6011601027383,新規,0,2023-12-19,2023-12-19,株式会社Ｏｄ,,株式会社,東京都,練馬区,関町南４丁目２０番１３－４０５号,,13,120,1770053,,,,,,,2023-12-19,1,,,,,オド,0
1362,6011701026863,新規,0,2023-12-19,2023-12-19,株式会社シェアリングベース,,株式会社,東京都,江戸川区,本一色１丁目３４－１６－７１０,,13,123,1330044,,,,,,,2023-12-19,1,,,,,シェアリングベース,0
1363,6011803005996,新規,0,2023-12-19,2023-12-19,合同会社ＡＫＳ,,合同会社,東京都,足立区,千住１丁目８番１号,,13,121,1200034,,,,,,,2023-12-19,1,,,,,エーケース,0
1366,6012403006336,新規,0,2023-12-19,2023-12-19,公益コンサルティング合同会社,,合同会社,東京都,府中市,清水が丘１丁目９番地の２４吉野ビル３０３,,13,206,1830015,,,,,,,2023-12-19,1,,,,,コウエキコンサルティング,0
1368,6012803003263,新規,0,2023-12-19,2023-12-19,アマング合同会社,,合同会社,東京都,昭島市,中神町１２４３－１ｈａｒａｍｏｃｏｎｔａｔｔｏＧ２０４,,13,207,1960022,,,,,,,2023-12-19,1,,,,,アマング,0
1376,6020001154936,新規,0,2023-12-19,2023-12-19,ビグザム株式会社,,株式会社,神奈川県,横浜市保土ケ谷区,天王町１丁目１０－４ブルグフリーデ２０１号,,14,106,2400003,,,,,,,2023-12-19,1,,,,,ビグザム,0
1377,6020001154969,新規,0,2023-12-19,2023-12-19,株式会社エイチ・エス企画,,株式会社,神奈川県,横浜市神奈川区,片倉２丁目１０番５号,,14,102,2210865,,,,,,,2023-12-19,1,,,,,エイチエスキカク,0
1378,6020001154985,新規,0,2023-12-19,2023-12-19,株式会社ＨＵＭＡＮ,,株式会社,神奈川県,横浜市青葉区,美しが丘１丁目１２番地２４第１松美４０２,,14,117,2250002,,,,,,,2023-12-19,1,,,,,ヒューマン,0
1383,6020003025136,新規,0,2023-12-19,2023-12-19,横濱中華街インターナショナル合同会社,,合同会社,神奈川県,横浜市中区,山下町１４５―１０,,14,104,2310023,,,,,,,2023-12-19,1,,,,,ヨコハマチュウカガイインターナショナル,0
1385,6021001081006,新規,0,2023-12-19,2023-12-19,株式会社ｍｉｎｔメディカルサポート,,株式会社,神奈川県,横須賀市,上町１丁目７５番１号,,14,201,2380017,,,,,,,2023-12-19,1,,,,,ミントメディカルサポート,0
1399,6040001131363,新規,0,2023-12-19,2023-12-19,株式会社成満,,株式会社,千葉県,船橋市,栄町１丁目３番３号,,12,204,2730018,,,,,,,2023-12-19,1,,,,,シゲミツ,0
1400,6040001131413,新規,0,2023-12-19,2023-12-19,株式会社ＮａＲｉＴａ　Ｈｕｂ,,株式会社,千葉県,南房総市,千代８３番地,,12,234,2940815,,,,,,,2023-12-19,1,,,,,ナリタハブ,0
1401,6040001131421,新規,0,2023-12-19,2023-12-19,ＩＣＣストレージ株式会社,,株式会社,千葉県,香取市,北２丁目６番３,,12,236,2870002,,,,,,,2023-12-19,1,,,,,アイシーシーストレージ,0
1405,6040003023914,新規,0,2023-12-19,2023-12-19,ＰＨ‐ｗｏｒｋｓ合同会社,,合同会社,千葉県,柏市,柏３６８番地８,,12,217,2770005,,,,,,,2023-12-19,1,,,,,ピーエイチワークス,0
1410,6050001053978,新規,0,2023-12-19,2023-12-19,株式会社ＳＵＦＦＡ　ＴＲＡＤＩＮＧＳ,,株式会社,茨城県,坂東市,中里１０５８番地２,,08,228,3060634,,,,,,,2023-12-19,1,,,,,スファトレーディングス,0
1411,6050001053986,新規,0,2023-12-19,2023-12-19,株式会社ＧＬＯＲＩＡ,,株式会社,茨城県,取手市,取手１丁目１１－１３ライオンズマンション取手２号室,,08,217,3020004,,,,,,,2023-12-19,1,,,,,,0
1412,6050001053994,新規,0,2023-12-19,2023-12-19,株式会社ＧＳＳ‐ＪＡＰＡＮ,,株式会社,茨城県,水戸市,河和田町４３９０番地の２,,08,201,3114153,,,,,,,2023-12-19,1,,,,,,0
1419,6070001041196,新規,0,2023-12-19,2023-12-19,東亜バリュークリエーションホールディングス株式会社,,株式会社,群馬県,太田市,西新町１２６番地の１,,10,205,3730847,,,,,,,2023-12-19,1,,,,,トウアバリュークリエーションホールディングス,0
1426,6090001018465,新規,0,2023-12-19,2023-12-19,株式会社ＫＴ‐ｗｏｒｋｅｒ,,株式会社,山梨県,甲斐市,宇津谷４６７３番地１,,19,210,4000108,,,,,,,2023-12-19,1,,,,,ケーティーワーカー,0
1432,6110001038048,新規,0,2023-12-19,2023-12-19,ｄｕ　Ｃｏｕｒａｇｅ株式会社,,株式会社,新潟県,新潟市西区,寺尾２番５号コーポみつの２０３,,15,107,9502052,,,,,,,2023-12-19,1,,,,,デュコラージュ,0
1445,6120001260600,新規,0,2023-12-19,2023-12-19,株式会社おまかせアレンジメント,,株式会社,大阪府,大阪市北区,梅田１丁目２番２号大阪駅前第２ビル１２－１２,,27,127,5300001,,,,,,,2023-12-19,1,,,,,オマカセアレンジメント,0
1446,6120001260732,新規,0,2023-12-19,2023-12-19,天＿株式会社,00133038,株式会社,大阪府,大阪市中央区,淡路町３丁目６－１２ローズプラザ６０１号室,,27,128,5410047,,,,,,,2023-12-19,1,,,,,テンキ,0
1447,6120001260757,新規,0,2023-12-19,2023-12-19,株式会社Ａ・Ｐｏｗｅｒ　ｃｏｎｓｕｌｔｉｎｇ,,株式会社,大阪府,大阪市北区,豊崎３丁目１５番５号ＴＫビル２Ｆ,,27,127,5310072,,,,,,,2023-12-19,1,,,,,エーパワーコンサルティング,0
1448,6120001260823,新規,0,2023-12-19,2023-12-19,株式会社ＮＥＸＴ　ＭＥＤＩＣＡＬ,,株式会社,大阪府,大阪市東住吉区,北田辺５丁目９番２４号朝日プラザ北田辺１０３号,,27,121,5460044,,,,,,,2023-12-19,1,,,,,ネクストメディカル,0
1450,6120003025547,新規,0,2023-12-19,2023-12-19,合同会社あったか,,合同会社,大阪府,大阪市平野区,喜連西１丁目１０番４号,,27,126,5470026,,,,,,,2023-12-19,1,,,,,アッタカ,0
1457,6130003009202,新規,0,2023-12-19,2023-12-19,合同会社トイロ,,合同会社,京都府,京都市右京区,太秦多藪町２９番地３,,26,108,6168167,,,,,,,2023-12-19,1,,,,,トイロ,0
1463,6140001132715,新規,0,2023-12-19,2023-12-19,株式会社ｓｐｉｒｉｔｓ,,株式会社,兵庫県,小野市,粟生町１９０２番地,,28,218,6751358,,,,,,,2023-12-19,1,,,,,スピリッツ,0
1464,6140001132723,新規,0,2023-12-19,2023-12-19,株式会社Ｋｙｏ．ｃｏｍ,,株式会社,兵庫県,明石市,相生町２丁目５番８号,,28,203,6730882,,,,,,,2023-12-19,1,,,,,キョコン,0
1467,6140003019943,新規,0,2023-12-19,2023-12-19,合同会社Ｌｅ　Ｌｌｅｎ,,合同会社,兵庫県,宝塚市,山本南３丁目１番１－４０１号,,28,214,6650882,,,,,,,2023-12-19,1,,,,,,0
1468,6150003003145,新規,0,2023-12-19,2023-12-19,合同会社ＵＣＨＩＤＡ,,合同会社,奈良県,桜井市,大字橋本７３番地の１３,,29,206,6330047,,,,,,,2023-12-19,1,,,,,ウチダ,0
1473,6180001159440,新規,0,2023-12-19,2023-12-19,株式会社ＡＴＡＲＩ,,株式会社,愛知県,名古屋市緑区,太子２丁目４２番地,,23,114,4580823,,,,,,,2023-12-19,1,,,,,アタリ,0
1480,6190001030963,新規,0,2023-12-19,2023-12-19,株式会社野果増しや,,株式会社,三重県,伊賀市,三田９６４番地の１６,,24,216,5180022,,,,,,,2023-12-19,1,,,,,ヤカマシヤ,0
1492,6220003003641,新規,0,2023-12-19,2023-12-19,合同会社ＮＫ工業,,合同会社,石川県,金沢市,寺町３丁目１５番２６号,,17,201,9218033,,,,,,,2023-12-19,1,,,,,エヌケーコウギョウ,0
1503,6290801030145,新規,0,2023-12-19,2023-12-19,株式会社ＫＭ,,株式会社,福岡県,北九州市小倉北区,浅野１丁目１番１号ビエラ小倉１Ｆ　ＤＩＳＣＯＶＥＲＹ－１３４号,,40,106,8020001,,,,,,,2023-12-19,1,,,,,ケーエム,0
1509,6330003010131,新規,0,2023-12-19,2023-12-19,合同会社ｃｏｍｅａｒｅａ,,合同会社,熊本県,天草市,楠浦町３２３７番地２,,43,215,8630044,,,,,,,2023-12-19,1,,,,,カメリア,0
1512,6360001032967,新規,0,2023-12-19,2023-12-19,株式会社アミール不動産,,株式会社,沖縄県,沖縄市,園田２丁目３２番１号,,47,211,9040022,,,,,,,2023-12-19,1,,,,,アミールフドウサン,0
1537,6430001090669,新規,0,2023-12-19,2023-12-19,株式会社ノースシーロード,,株式会社,北海道,札幌市北区,新川西三条４丁目２－３,,01,102,0010933,,,,,,,2023-12-19,1,,,,,ノースシーロード,0
1549,6700150122831,新規,0,2023-12-19,2023-12-19,Ｈｅｍａｌｓ,,外国会社等,千葉県,茂原市,下永吉６９８－１０－２Ｆ－２,,12,210,2970035,スリランカ民主社会主義共和国、ポルガハウェラ、ゴダウェラ、Ｎｏ．１７８／１,,,,,,2023-12-19,1,,,,,ヘマルス,0
1550,7010001240827,新規,0,2023-12-19,2023-12-19,株式会社にゅーとぴあ,,株式会社,東京都,中央区,日本橋室町２丁目３番１号,,13,102,1030022,,,,,,,2023-12-19,1,,,,,ニュートピア,0
1565,7010401179269,新規,0,2023-12-19,2023-12-19,株式会社さても,,株式会社,東京都,港区,三田３丁目５番２７号,,13,103,1080073,,,,,,,2023-12-19,1,,,,,サテモ,0
1566,7010401179285,新規,0,2023-12-19,2023-12-19,Ｗｉｌｌｉａｍｓ　Ｊａｐａｎ株式会社,,株式会社,東京都,港区,六本木７丁目１５番７号,,13,103,1060032,,,,,,,2023-12-19,1,,,,,ウィリアムズジャパン,0
1579,7010903008669,新規,0,2023-12-19,2023-12-19,ピリナ合同会社,,合同会社,東京都,世田谷区,桜丘５丁目３番１３号,,13,112,1560054,,,,,,,2023-12-19,1,,,,,ピリナ,0
1583,7011003018096,新規,0,2023-12-19,2023-12-19,合同会社早稲田通り経営支援事務所,,合同会社,東京都,渋谷区,道玄坂１丁目１０番８号渋谷道玄坂東急ビル１Ｆ,,13,113,1500043,,,,,,,2023-12-19,1,,,,,ワセダドオリケイエイシエンジムショ,0
1584,7011003018121,新規,0,2023-12-19,2023-12-19,合同会社ＨＵＶ,,合同会社,東京都,渋谷区,代官山町３１３－５０２,,13,113,1500034,,,,,,,2023-12-19,1,,,,,ハブ,0
1590,7011101105531,新規,0,2023-12-19,2023-12-19,株式会社ＲＩＣＨＡＲＤ,,株式会社,東京都,新宿区,新宿７丁目２６番１１号新宿アインスタワー１７０１,,13,104,1600022,,,,,,,2023-12-19,1,,,,,リシャール,0
1598,7011601027382,新規,0,2023-12-19,2023-12-19,株式会社パインネクスト,,株式会社,東京都,練馬区,関町北２丁目１番６－５０２号,,13,120,1770051,,,,,,,2023-12-19,1,,,,,パインネクスト,0
1601,7011803005970,新規,0,2023-12-19,2023-12-19,合同会社フリーサイト,,合同会社,東京都,足立区,伊興１丁目２－１４－１０６,,13,121,1210823,,,,,,,2023-12-19,1,,,,,フリーサイト,0
1603,7012303001915,新規,0,2023-12-19,2023-12-19,合同会社通訳センターひなた村,,合同会社,東京都,町田市,本町田３３９６番地６,,13,209,1940032,,,,,,,2023-12-19,1,,,,,ツウヤクセンターヒナタムラ,0
1607,7013101009316,新規,0,2023-12-19,2023-12-19,株式会社一商事,,株式会社,東京都,あきる野市,伊奈２４４番地１１,,13,228,1900142,,,,,,,2023-12-19,1,,,,,イチショウジ,0
1608,7013301051786,新規,0,2023-12-19,2023-12-19,株式会社ＬＯＧ,,株式会社,東京都,豊島区,南大塚２丁目１１－１０ミモザビル３Ｆ,,13,116,1700005,,,,,,,2023-12-19,1,,,,,ログ,0
1612,7013303006929,新規,0,2023-12-19,2023-12-19,インテリジェンス・スタジオ合同会社,,合同会社,東京都,豊島区,南大塚２丁目１１番１０号ミモザビル３Ｆ,,13,116,1700005,,,,,,,2023-12-19,1,,,,,インテリジェンススタジオ,0
1614,7020001154943,新規,0,2023-12-19,2023-12-19,株式会社スマート学習研究所,,株式会社,神奈川県,川崎市中原区,田尻町４２番地,,14,133,2110014,,,,,,,2023-12-19,1,,,,,スマートガクシュウケンキュウショ,0
1615,7020001154992,新規,0,2023-12-19,2023-12-19,株式会社大吉,,株式会社,神奈川県,横浜市旭区,今宿西町２５１番地１２,,14,112,2410031,,,,,,,2023-12-19,1,,,,,ダイキチ,0
1621,7021001081005,新規,0,2023-12-19,2023-12-19,株式会社ナカノ,,株式会社,神奈川県,高座郡寒川町,大曲３丁目１８番８号,,14,321,2530113,,,,,,,2023-12-19,1,,,,,ナカノ,0
1622,7021003013922,新規,0,2023-12-19,2023-12-19,デイビス管理合同会社,,合同会社,神奈川県,藤沢市,石川３９５６番地の２,,14,205,2520815,,,,,,,2023-12-19,1,,,,,デイビスカンリ,0
1630,7030003023245,新規,0,2023-12-19,2023-12-19,合同会社奥島,,合同会社,埼玉県,春日部市,大沼１丁目４１番地４,,11,214,3440038,,,,,,,2023-12-19,1,,,,,オクシマ,0
1637,7040003023888,新規,0,2023-12-19,2023-12-19,月輪合同会社,,合同会社,千葉県,香取市,佐原字上宿台イ１２７９番地４、２階２Ｃ号室,,12,236,2870000,,,,,,,2023-12-19,1,,,,,ゲツリン,0
1641,7050001053985,新規,0,2023-12-19,2023-12-19,ＴＨＥ　ＧＯＯＤ　ＬＩＦＥ株式会社,,株式会社,茨城県,取手市,白山２丁目２３番１３号,,08,217,3020023,,,,,,,2023-12-19,1,,,,,ザグッドライフ,0
1642,7050001053993,新規,0,2023-12-19,2023-12-19,株式会社Ｋ．Ｋ．トレーディング,,株式会社,茨城県,行方市,於下９５３番地,,08,233,3113802,,,,,,,2023-12-19,1,,,,,,0
1649,7060001036626,新規,0,2023-12-19,2023-12-19,株式会社ＴＣＡ,,株式会社,栃木県,足利市,福居町１６５５番地４,,09,202,3260338,,,,,,,2023-12-19,1,,,,,ティーシーエー,0
1650,7060001036634,新規,0,2023-12-19,2023-12-19,ＡＳＯＢＩＢＡ　Ｌａｂｏ株式会社,,株式会社,栃木県,那須塩原市,板室８４１－１４,,09,213,3250111,,,,,,,2023-12-19,1,,,,,アソビバラボ,0
1655,7070001041204,新規,0,2023-12-19,2023-12-19,株式会社イベリスユナイテッド,,株式会社,群馬県,高崎市,倉賀野町１６０７番地２矢島貸店舗１階,,10,202,3701201,,,,,,,2023-12-19,1,,,,,イベリスユナイテッド,0
1658,7080001026039,新規,0,2023-12-19,2023-12-19,フロアデザイン株式会社,,株式会社,静岡県,静岡市駿河区,向手越２丁目１番３０号,,22,102,4210107,,,,,,,2023-12-19,1,,,,,フロアデザイン,0
1665,7100003007315,新規,0,2023-12-19,2023-12-19,ＦＬＯＷ合同会社,,合同会社,長野県,上田市,中之条１４００－１３,,20,203,3860034,,,,,,,2023-12-19,1,,,,,フロウ,0
1666,7110001038047,新規,0,2023-12-19,2023-12-19,株式会社ＯＫ‐ＦＩＶＥ,,株式会社,新潟県,見附市,上新田町２番３５号,,15,211,9540112,,,,,,,2023-12-19,1,,,,,オーケーファイブ,0
1672,7120001260665,新規,0,2023-12-19,2023-12-19,株式会社ｆｕｎ　ｃｈａｌｌｅｎｇｅ,,株式会社,大阪府,大阪市阿倍野区,阿倍野元町３－１０－２０６,,27,119,5450034,,,,,,,2023-12-19,1,,,,,ファンチャレンジ,0
1673,7120001260681,新規,0,2023-12-19,2023-12-19,株式会社弥,,株式会社,大阪府,大阪市北区,池田町１－４４ファミール天満１０１号,,27,127,5300033,,,,,,,2023-12-19,1,,,,,アマネ,0
1674,7120001260756,新規,0,2023-12-19,2023-12-19,ＭＸ浩宇株式会社,,株式会社,大阪府,大阪市港区,市岡３丁目１３－９－２０２Ａ,,27,107,5520012,,,,,,,2023-12-19,1,,,,,エムエックスコウウ,0
1675,7120001260780,新規,0,2023-12-19,2023-12-19,株式会社エム・プロパティ,,株式会社,大阪府,大阪市北区,天神橋１丁目１５番２号,,27,127,5300041,,,,,,,2023-12-19,1,,,,,エムプロパティ,0
1676,7120001260814,新規,0,2023-12-19,2023-12-19,株式会社ライズ,,株式会社,大阪府,大阪市北区,堂山町１番５号三共梅田ビル７階,,27,127,5300027,,,,,,,2023-12-19,1,,,,,ライズ,0
1682,7120005024042,新規,0,2023-12-19,2023-12-19,一般社団法人国際パークゴルフリーグ,,その他の設立登記法人,大阪府,大阪市淀川区,東三国６丁目１７番１７号,,27,123,5320002,,,,,,,2023-12-19,1,,,,,コクサイパークゴルフリーグ,0
1684,7120901048474,新規,0,2023-12-19,2023-12-19,株式会社ＹＰメディカル,,株式会社,大阪府,高槻市,氷室町１丁目３番５号の６,,27,207,5691141,,,,,,,2023-12-19,1,,,,,ワイピーメディカル,0
1685,7120901048490,新規,0,2023-12-19,2023-12-19,Ｊ．プライムトレーディング株式会社,,株式会社,大阪府,茨木市,総持寺台２番５０８号,,27,211,5670804,,,,,,,2023-12-19,1,,,,,ジェープライムトレーディング,0
1688,7122001037671,新規,0,2023-12-19,2023-12-19,凱燕株式会社,,株式会社,大阪府,柏原市,旭ケ丘１丁目１番５０号１階,,27,221,5820026,,,,,,,2023-12-19,1,,,,,ガイエン,0
1689,7122002003516,新規,0,2023-12-19,2023-12-19,有限会社肉の森田屋,,有限会社,大阪府,東大阪市,大蓮北３丁目３番６号,,27,227,5770826,,,,,,,2023-12-19,1,,,,,ニクノモリタヤ,0
1690,7122003002756,新規,0,2023-12-19,2023-12-19,合同会社ＢＡＲＡＫＡ,,合同会社,大阪府,四條畷市,大字清瀧１０２２－１０,,27,229,5750063,,,,,,,2023-12-19,1,,,,,バラカ,0
1693,7130001075971,新規,0,2023-12-19,2023-12-19,株式会社夢工坊,,株式会社,京都府,京都市東山区,東大路三条下る南西海子町４３４番地８－５階,,26,105,6050013,,,,,,,2023-12-19,1,,,,,ユメコウボウ,0
1694,7130005016955,新規,0,2023-12-19,2023-12-19,一般社団法人Ｓｉｌｖｅｒ　Ｐｌａｎｎｉｎｇ,,その他の設立登記法人,京都府,八幡市,八幡山下２１番３号,,26,210,6148065,,,,,,,2023-12-19,1,,,,,シルバープランニング,0
1696,7140001060312,新規,0,2023-12-19,2023-12-19,株式会社中岡工務店,,株式会社,兵庫県,姫路市,西今宿６丁目１４番３６号,,28,201,6700061,,,,,,,2023-12-19,1,,,,,ナカオカコウムテン,0
1700,7140001132680,新規,0,2023-12-19,2023-12-19,株式会社図門,,株式会社,兵庫県,尼崎市,東園田町５丁目４６番地の１０,,28,202,6610953,,,,,,,2023-12-19,1,,,,,トゥーモン,0
1701,7140001132722,新規,0,2023-12-19,2023-12-19,株式会社ジャパンフードテクノロジーズ,,株式会社,兵庫県,たつの市,御津町釜屋１２番地１,,28,229,6711341,,,,,,,2023-12-19,1,,,,,ジャパンフードテクノロジーズ,0
1702,7140001132739,新規,0,2023-12-19,2023-12-19,株式会社ＫＵＮＢＩＩＮＯ,,株式会社,兵庫県,川西市,大和西１丁目９９番地の３９,,28,217,6660112,,,,,,,2023-12-19,1,,,,,クンビーノ,0
1710,7140003019942,新規,0,2023-12-19,2023-12-19,合同会社ＷＡＫＯ,,合同会社,兵庫県,神戸市中央区,磯上通８丁目１番２９号カサベラビルＣ＆Ｍ４０３号室,,28,110,6510086,,,,,,,2023-12-19,1,,,,,,0
1712,7150001026956,新規,0,2023-12-19,2023-12-19,株式会社聖,,株式会社,奈良県,大和高田市,大字神楽２０番地１４,,29,202,6350026,,,,,,,2023-12-19,1,,,,,ヒジリ,0
1725,7180001159398,新規,0,2023-12-19,2023-12-19,Ｅ．Ｕｎｉｖｅｒｓｅ株式会社,,株式会社,愛知県,名古屋市中村区,名駅４丁目２４番５号第２森ビル４０１,,23,105,4500002,,,,,,,2023-12-19,1,,,,,イーユニバース,0
1726,7180001159415,新規,0,2023-12-19,2023-12-19,Ｚｏｚａ＆Ｃｏｍｐａｎｙ株式会社,,株式会社,愛知県,春日井市,瑞穂通２丁目３８番地１,,23,206,4860845,,,,,,,2023-12-19,1,,,,,ゾウザアンドカンパニー,0
1727,7180001159423,新規,0,2023-12-19,2023-12-19,株式会社イオナ,,株式会社,愛知県,名古屋市西区,大野木４丁目２１９番地,,23,104,4520803,,,,,,,2023-12-19,1,,,,,イオナ,0
1732,7180301038129,新規,0,2023-12-19,2023-12-19,株式会社Ｃｈａｌｌｅｎｇｅｒ,,株式会社,愛知県,田原市,豊島町堀川９０番地６,,23,231,4413417,,,,,,,2023-12-19,1,,,,,チャレンジャー,0
1734,7190001030962,新規,0,2023-12-19,2023-12-19,株式会社栗山工業,,株式会社,三重県,四日市市,楠町南五味塚１８９番地サニーコート高砂Ｂ－２０１,,24,202,5100104,,,,,,,2023-12-19,1,,,,,クリヤマコウギョウ,0
1746,7250001020437,新規,0,2023-12-19,2023-12-19,株式会社徳地の未来,,株式会社,山口県,山口市,徳地島地１４０番地４,,35,203,7470522,,,,,,,2023-12-19,1,,,,,トクヂノミライ,0
1747,7260001038569,新規,0,2023-12-19,2023-12-19,株式会社幸志創建,,株式会社,岡山県,総社市,宍粟５７１番地２,,33,208,7191153,,,,,,,2023-12-19,1,,,,,コウシソウケン,0
1748,7260001038577,新規,0,2023-12-19,2023-12-19,株式会社Ｍ’ｓ　ｂｅａｕｔｙ,,株式会社,岡山県,岡山市中区,江並３３１番地１３２,,33,102,7028004,,,,,,,2023-12-19,1,,,,,エムズビューティー,0
1751,7280005007576,新規,0,2023-12-19,2023-12-19,農事組合法人なかばら,,その他の設立登記法人,島根県,鹿足郡津和野町,高峯１８４６番地,,32,501,6995614,,,,,,,2023-12-19,1,,,,,ナカバラ,0
1754,7290001104079,新規,0,2023-12-19,2023-12-19,Ａ　Ｎｅｗ　Ｄａｙ株式会社,,株式会社,福岡県,福岡市博多区,博多駅中央街７－２６博多駅センタータワー１Ｆ,,40,132,8120012,,,,,,,2023-12-19,1,,,,,アニューデイ,0
1755,7290001104087,新規,0,2023-12-19,2023-12-19,瘋癲興業株式会社,,株式会社,福岡県,福岡市中央区,今泉１丁目１４番２１－６０４号,,40,133,8100021,,,,,,,2023-12-19,1,,,,,フウテンコウギョウ,0
1761,7310003004695,新規,0,2023-12-19,2023-12-19,クラウンエステート合同会社,,合同会社,長崎県,諫早市,久山台６２番地７,,42,204,8540067,,,,,,,2023-12-19,1,,,,,クラウンエステート,0
1765,7330003010130,新規,0,2023-12-19,2023-12-19,ウイズＹＯＵ合同会社,,合同会社,熊本県,熊本市東区,尾ノ上３丁目１３－１３６,,43,102,8620913,,,,,,,2023-12-19,1,,,,,,0
1770,7370001050728,新規,0,2023-12-19,2023-12-19,株式会社キムラデンキ,,株式会社,宮城県,柴田郡柴田町,西船迫１丁目３番１２号,,04,323,9891622,,,,,,,2023-12-19,1,,,,,キムラデンキ,0
1771,7370001050744,新規,0,2023-12-19,2023-12-19,株式会社フク企画,,株式会社,宮城県,仙台市太白区,佐保山６番１６号,,04,104,9820211,,,,,,,2023-12-19,1,,,,,フクキカク,0
1772,7370005010736,新規,0,2023-12-19,2023-12-19,一般社団法人Ｐｅｎ,,その他の設立登記法人,宮城県,仙台市青葉区,国見６丁目８７番１号,,04,101,9810943,,,,,,,2023-12-19,1,,,,,ペン,0
1792,7470001019944,新規,0,2023-12-19,2023-12-19,株式会社サンハロー,,株式会社,香川県,仲多度郡まんのう町,羽間１９６９番地２,,37,406,7660014,,,,,,,2023-12-19,1,,,,,サンハロー,0
1796,7500003003158,新規,0,2023-12-19,2023-12-19,四国地方活性合同会社,,合同会社,愛媛県,松山市,千舟町４丁目２番地２伊藤ビル２階,,38,201,7900011,,,,,,,2023-12-19,1,,,,,,0
1797,7700150122789,新規,0,2023-12-19,2023-12-19,ＳＨＥＮＺＨＥＮ　ＵＬＡＮＺＩ　ＴＥＣＨＮＯＬＯＧＹ　ＣＯ．ＬＴＤ,,外国会社等,,,,,,,,Ｘｉｎｇｈｅ　ＷＯＲＬＤＡ１７－３　Ｎｏ．１ＹａｂａｏＲｏａｄ　ＮａｎｋｅｎｇＣｏｍｍｕｎｉｔｙ　ＢａｎｔｉａｎＳｔｒｅｅｔ　ＬｏｎｇｇａｎｇＤｉｓｔｒｉｃｔ　Ｓｈｅｎｚｈｅｎ,,,,,,2023-12-19,1,,,,,シンセンユーランヅテクノロジーカンパニーリミテッド,0
1798,7700150122797,新規,0,2023-12-19,2023-12-19,ＧｕａｎｇｚｈｏｕＨａｏｄｏｕＷｅｎｈｕａＣｈｕａｎｇｙｉ,,外国会社等,,,,,,,,ＣＮＧｕａｎｇｚｈｏｕＢａｉｙｕｎＨｕａｎｇｓｈｉＪｉａｎｇｘｉａＮｏｒｔｈＲｏａｄＱｉａｎｇｓｈｅｎｇＢｕｉＩｄｉｎｇＢ－Ｄ４２０,,,,,,2023-12-19,1,,,,,グワンジヨウハオドウウエンホワチユワンイ,0
1807,8010001240834,新規,0,2023-12-19,2023-12-19,Ｂｒｕｉｎｓ株式会社,,株式会社,東京都,文京区,小石川２丁目５番１－７０５号,,13,105,1120002,,,,,,,2023-12-19,1,,,,,ブルーインズ,0
1808,8010001240909,新規,0,2023-12-19,2023-12-19,株式会社ＡＯＩ,,株式会社,東京都,千代田区,内神田２丁目６番２号矢板ビル,,13,101,1010047,,,,,,,2023-12-19,1,,,,,アオイ,0
1812,8010005037649,新規,0,2023-12-19,2023-12-19,一般社団法人ＪＤ３,,その他の設立登記法人,東京都,千代田区,丸の内３丁目１番１号東京共同会計事務所内,,13,101,1000005,,,,,,,2023-12-19,1,,,,,ジェイディースリー,0
1817,8010401179268,新規,0,2023-12-19,2023-12-19,株式会社トルク,,株式会社,東京都,港区,南青山４丁目１８番１１号フォレストヒルズイーストウィング２Ｆ,,13,103,1070062,,,,,,,2023-12-19,1,,,,,トルク,0
1820,8010501051525,新規,0,2023-12-19,2023-12-19,相葉商事株式会社,,株式会社,東京都,台東区,元浅草１丁目２０番５号,,13,106,1110041,,,,,,,2023-12-19,1,,,,,アイバショウジ,0
1822,8010701045269,新規,0,2023-12-19,2023-12-19,株式会社フロントフォース,,株式会社,東京都,品川区,東大井５丁目１４番１６号,,13,109,1400011,,,,,,,2023-12-19,1,,,,,フロントフォース,0
1824,8010901054334,新規,0,2023-12-19,2023-12-19,金陽株式会社,,株式会社,東京都,世田谷区,代田３丁目１８番２３号,,13,112,1550033,,,,,,,2023-12-19,1,,,,,キンヨウ,0
1826,8010903008627,新規,0,2023-12-19,2023-12-19,合同会社Ｖｉｓｉｏｎ　Ｋｉｔｃｈｅｎ,,合同会社,東京都,世田谷区,奥沢５丁目３６－７,,13,112,1580083,,,,,,,2023-12-19,1,,,,,ビジョンキッチン,0
1832,8011001158934,新規,0,2023-12-19,2023-12-19,株式会社ｉｎｃｅｐｔｉｏＮ,,株式会社,東京都,渋谷区,恵比寿西２丁目８番４号ＥＸ恵比寿西ビル５階,,13,113,1500021,,,,,,,2023-12-19,1,,,,,インセプション,0
1833,8011003018120,新規,0,2023-12-19,2023-12-19,ロールズフーズ合同会社,,合同会社,東京都,渋谷区,神宮前６丁目２３番４号,,13,113,1500001,,,,,,,2023-12-19,1,,,,,ロールズフーズ,0
1834,8011003018137,新規,0,2023-12-19,2023-12-19,Ａｉｒｅｓ　Ｈｏｌｄｉｎｇｓ合同会社,,合同会社,東京都,渋谷区,恵比寿４丁目２０番３号恵比寿ガーデンプレイスタワー１８階,,13,113,1500013,,,,,,,2023-12-19,1,,,,,アイレスホールディングス,0
1836,8011101105274,新規,0,2023-12-19,2023-12-19,株式会社スマートタンパク,,株式会社,東京都,新宿区,西新宿３丁目９－２・２階２１５,,13,104,1600023,,,,,,,2023-12-19,1,,,,,スマートタンパク,0
1837,8011101105530,新規,0,2023-12-19,2023-12-19,株式会社ＢＲＩＴＺ,,株式会社,東京都,新宿区,西新宿３丁目３番１３号西新宿水間ビル２Ｆ,,13,104,1600023,,,,,,,2023-12-19,1,,,,,ブリッツ,0
1848,8011801043518,新規,0,2023-12-19,2023-12-19,株式会社Ｋａｉｒｏｓ,,株式会社,東京都,葛飾区,東新小岩７丁目１１－３スカイピア新小岩ＩＩ２０１号室,00133050,13,122,1240023,,,,,,,2023-12-19,1,,,,,カイーロス,0
1849,8012303001914,新規,0,2023-12-19,2023-12-19,合同会社ＧＳＲ,,合同会社,東京都,町田市,つくし野４丁目３３番１０号,,13,209,1940001,,,,,,,2023-12-19,1,,,,,ジーエスアール,0
1850,8012305002076,新規,0,2023-12-19,2023-12-19,一般社団法人まちだキッズの会,,その他の設立登記法人,東京都,町田市,金井ヶ丘１丁目２番４９号,,13,209,1950076,,,,,,,2023-12-19,1,,,,,マチダキッズノカイ,0
1852,8012401041333,新規,0,2023-12-19,2023-12-19,株式会社フィンチ・クー,,株式会社,東京都,武蔵野市,吉祥寺東町４丁目１番１６号,,13,203,1800002,,,,,,,2023-12-19,1,,,,,フィンチクー,0
1853,8012401041341,新規,0,2023-12-19,2023-12-19,株式会社フライミィ,,株式会社,東京都,府中市,宮西町５丁目６番地の２アローランドマンション２０３,,13,206,1830022,,,,,,,2023-12-19,1,,,,,フライミィ,0
1859,8013301051785,新規,0,2023-12-19,2023-12-19,株式会社ＹＬＳ,,株式会社,東京都,豊島区,池袋２丁目６０番７号林ビル２Ｆ,,13,116,1710014,,,,,,,2023-12-19,1,,,,,ワイエルエス,0
1860,8013301051793,新規,0,2023-12-19,2023-12-19,株式会社タイトルマッチ,,株式会社,東京都,豊島区,東池袋３丁目１番１号サンシャイン６０－４５階,,13,116,1700013,,,,,,,2023-12-19,1,,,,,タイトルマッチ,0
1868,8020001154942,新規,0,2023-12-19,2023-12-19,エンピーク株式会社,,株式会社,神奈川県,横浜市金沢区,富岡西３丁目１８番１６号,,14,108,2360052,,,,,,,2023-12-19,1,,,,,エンピーク,0
1869,8020001154950,新規,0,2023-12-19,2023-12-19,立成国際投資株式会社,,株式会社,神奈川県,横浜市中区,本牧町２丁目３１２番地１３,,14,104,2310806,,,,,,,2023-12-19,1,,,,,リッセイコクサイトウシ,0
1876,8021001081004,新規,0,2023-12-19,2023-12-19,ＴＲＤ株式会社,,株式会社,神奈川県,横須賀市,久里浜４丁目１２番２－７０１号,,14,201,2390831,,,,,,,2023-12-19,1,,,,,ティーアールディ,0
1878,8021003013921,新規,0,2023-12-19,2023-12-19,ｃｈｅｆ’ｓ合同会社,,合同会社,神奈川県,三浦市,天神町１０番１２号,,14,210,2380241,,,,,,,2023-12-19,1,,,,,シェフズ,0
1886,8040001131394,新規,0,2023-12-19,2023-12-19,浜野不動産株式会社,,株式会社,千葉県,千葉市中央区,浜野町１０２５番地７８５,,12,101,2600824,,,,,,,2023-12-19,1,,,,,ハマノフドウサン,0
1887,8040001131436,新規,0,2023-12-19,2023-12-19,偉美株式会社,,株式会社,千葉県,千葉市花見川区,幕張本郷１丁目７番地５,,12,102,2620033,,,,,,,2023-12-19,1,,,,,イミ,0
1888,8040003023937,新規,0,2023-12-19,2023-12-19,合同会社Ａ‐ＮＥＴ,,合同会社,千葉県,佐倉市,王子台１丁目８番地６,,12,212,2850837,,,,,,,2023-12-19,1,,,,,エーネット,0
1890,8040005022227,新規,0,2023-12-19,2023-12-19,ＳＢ協同組合,,その他の設立登記法人,千葉県,柏市,岩井２９６－１,,12,217,2701445,,,,,,,2023-12-19,1,,,,,,0
1891,8050001053984,新規,0,2023-12-19,2023-12-19,Ｆｌｏｒｉｔｉｏ　ｃ株式会社,,株式会社,茨城県,守谷市,みずき野６丁目３０番地２５,,08,224,3020121,,,,,,,2023-12-19,1,,,,,フローリーティオシー,0
1893,8060003004844,新規,0,2023-12-19,2023-12-19,合同会社ｃｏｃｏＭＯＮＯ,,合同会社,栃木県,さくら市,フィオーレ喜連川２丁目５番３８号,,09,214,3291417,,,,,,,2023-12-19,1,,,,,ココモノ,0
1902,8080401026901,新規,0,2023-12-19,2023-12-19,株式会社ウォルナッツ・クレイワークスタジオ,,株式会社,静岡県,浜松市南区,若林町７６２番地の１,,22,134,4328051,,,,,,,2023-12-19,1,,,,,ウォルナッツクレイワークスタジオ,0
1904,8080405007600,新規,0,2023-12-19,2023-12-19,ＮＰＯ法人浜松ねこシェルター,,その他の設立登記法人,静岡県,浜松市東区,子安町３０７番地の１６,,22,132,4350015,,,,,,,2023-12-19,1,,,,,ハママツネコシェルター,0
1915,8100003007314,新規,0,2023-12-19,2023-12-19,合同会社東洋医術探求所東章堂,,合同会社,長野県,千曲市,大字寂蒔７番地,,20,218,3870016,,,,,,,2023-12-19,1,,,,,トウヨウイジュツタンキュウジョトウショウドウ,0
1916,8110001038046,新規,0,2023-12-19,2023-12-19,株式会社ｇｏ　ｆｌｏｗ,,株式会社,新潟県,南魚沼郡湯沢町,大字三国１１２１番地,,15,461,9496212,,,,,,,2023-12-19,1,,,,,ゴーフロー,0
1925,8120001260680,新規,0,2023-12-19,2023-12-19,風起株式会社,,株式会社,大阪府,大阪市東成区,中道２丁目２４番１８号Ｓｕｎｂｌｄ．２Ｃ号室,,27,115,5370025,,,,,,,2023-12-19,1,,,,,フウキ,0
1926,8120001260697,新規,0,2023-12-19,2023-12-19,ＳＷＥＥＴ　Ａｉｒ株式会社,,株式会社,大阪府,大阪市中央区,本町橋６－１９本町第２今岡ビル１００５,,27,128,5400029,,,,,,,2023-12-19,1,,,,,スウィートエアー,0
1927,8120001260747,新規,0,2023-12-19,2023-12-19,ＧＳＹ株式会社,,株式会社,大阪府,大阪市城東区,成育５丁目２３番１４号関目グローリーハイツ５０２号,,27,118,5360007,,,,,,,2023-12-19,1,,,,,ジーエスワイ,0
1928,8120001260788,新規,0,2023-12-19,2023-12-19,株式会社ｅＲａｐｏｓ,,株式会社,大阪府,大阪市北区,西天満６丁目９番１８－１４０１号,,27,127,5300047,,,,,,,2023-12-19,1,,,,,エラポス,0
1929,8120001260796,新規,0,2023-12-19,2023-12-19,Ｇ．Ｇ．Ｇ株式会社,,株式会社,大阪府,大阪市中央区,安堂寺町２丁目１－１０安堂寺第１７松屋ビル１Ｆ１１０号デジタルフィールド内,,27,128,5420061,,,,,,,2023-12-19,1,,,,,ジージージー,0
1944,8130001075970,新規,0,2023-12-19,2023-12-19,株式会社ＣＨＡＨＡＮＧ,,株式会社,京都府,京都市中京区,越後突抜町３００－１,,26,104,6048252,,,,,,,2023-12-19,1,,,,,チャーハン,0
1945,8130005016954,新規,0,2023-12-19,2023-12-19,一般社団法人わくわくミライラボ,,その他の設立登記法人,京都府,向日市,物集女町出口３９番地の１冨田総合学習センター内,,26,208,6170001,,,,,,,2023-12-19,1,,,,,ワクワクミライラボ,0
1953,8140003019909,新規,0,2023-12-19,2023-12-19,ｓｅｎｔｉｍｅｎｔ合同会社,,合同会社,兵庫県,神戸市東灘区,甲南町３丁目３－１２－１０４,,28,101,6580084,,,,,,,2023-12-19,1,,,,,センティマン,0
1954,8140003019941,新規,0,2023-12-19,2023-12-19,合同会社曉,,合同会社,兵庫県,神戸市西区,月が丘５丁目２２番地の４,,28,111,6512217,,,,,,,2023-12-19,1,,,,,アカツキ,0
1959,8180003026133,新規,0,2023-12-19,2023-12-19,合同会社ＦＲＥＥ＆ＥＡＳＹ,,合同会社,愛知県,名古屋市緑区,徳重１丁目７１６番地,,23,114,4580815,,,,,,,2023-12-19,1,,,,,フリーアンドイージー,0
1966,8200001041998,新規,0,2023-12-19,2023-12-19,株式会社ＬＩＢＥＲＯＮＴ,,株式会社,岐阜県,瑞穂市,七崎２２５番地９,,21,216,5010301,,,,,,,2023-12-19,1,,,,,リバロン,0
1974,8240003006459,新規,0,2023-12-19,2023-12-19,合同会社ＴＲＨ,,合同会社,広島県,福山市,伏見町４番３３号,,34,207,7200062,,,,,,,2023-12-19,1,,,,,ティーアールエイチ,0
1976,8250001020436,新規,0,2023-12-19,2023-12-19,株式会社総和ネクスト,,株式会社,山口県,宇部市,開３丁目４番５１－１０１号,,35,202,7550096,,,,,,,2023-12-19,1,,,,,ソウワネクスト,0
1977,8250003003397,新規,0,2023-12-19,2023-12-19,合同会社ＮＫＬ,,合同会社,山口県,下関市,竹崎町２丁目３番７,,35,201,7500025,,,,,,,2023-12-19,1,,,,,エヌケイエル,0
1978,8250003003406,新規,0,2023-12-19,2023-12-19,合同会社天文,,合同会社,山口県,宇部市,中央町１丁目６番３３号,,35,202,7550045,,,,,,,2023-12-19,1,,,,,テンモン,0
1983,8260001038576,新規,0,2023-12-19,2023-12-19,Ｔａｓｔｉｅｒａ株式会社,,株式会社,岡山県,赤磐市,桜が丘西４丁目５番１号,,33,213,7090802,,,,,,,2023-12-19,1,,,,,タスティエーラ,0
1988,8290001104086,新規,0,2023-12-19,2023-12-19,明彰株式会社,,株式会社,福岡県,福岡市南区,多賀１丁目５－１２,,40,134,8150072,,,,,,,2023-12-19,1,,,,,メイショウ,0
1989,8290001104094,新規,0,2023-12-19,2023-12-19,株式会社ツーワイ技建,,株式会社,福岡県,福岡市博多区,博多駅東３丁目６番３３号,,40,132,8120013,,,,,,,2023-12-19,1,,,,,ツーワイギケン,0
1990,8290003014754,新規,0,2023-12-19,2023-12-19,合同会社ＧＯＡＴ９,,合同会社,福岡県,福岡市中央区,天神２丁目２番１２号Ｔ＆Ｊビルディング７Ｆ,,40,133,8100001,,,,,,,2023-12-19,1,,,,,ゴートナイン,0
1992,8290803004566,新規,0,2023-12-19,2023-12-19,合同会社ｆａｂゼミナール,,合同会社,福岡県,北九州市小倉南区,山手２丁目１－１,,40,107,8020982,,,,,,,2023-12-19,1,,,,,ファブゼミナール,0
1993,8310001018754,新規,0,2023-12-19,2023-12-19,株式会社Ｂｅａｕｔｉｆｕｌ　Ｌｉｆｅ,,株式会社,長崎県,長崎市,矢上町２５番５号,,42,201,8510133,,,,,,,2023-12-19,1,,,,,ビューティフルライフ,0
1997,8330001031573,新規,0,2023-12-19,2023-12-19,株式会社ｉｂｉｚａ,,株式会社,熊本県,熊本市東区,御領８丁目８番１０号,,43,102,8618035,,,,,,,2023-12-19,1,,,,,イビザ,0
1998,8330001031581,新規,0,2023-12-19,2023-12-19,株式会社ｊｏａ,,株式会社,熊本県,熊本市西区,春日２丁目９番３３－３０１号,,43,103,8600047,,,,,,,2023-12-19,1,,,,,ジョア,0
1999,8330002031614,新規,0,2023-12-19,2023-12-19,全蓄開発有限会社,,有限会社,熊本県,熊本市中央区,大江６丁目２８番６号,,43,101,8620971,,,,,,,2023-12-19,1,,,,,,0
2007,8370001050743,新規,0,2023-12-19,2023-12-19,株式会社オフィスＷｉｓｄｏｍ,,株式会社,宮城県,仙台市青葉区,昭和町５番４８－８０４号,,04,101,9810913,,,,,,,2023-12-19,1,,,,,オフィスウィズダム,0
2010,8410001013670,新規,0,2023-12-19,2023-12-19,ＹＯＵ電化サービス株式会社,,株式会社,秋田県,潟上市,昭和大久保字後谷地１１番地６,,05,211,0181401,,,,,,,2023-12-19,1,,,,,ユウデンカサービス,0
2019,8460003000976,新規,0,2023-12-19,2023-12-19,合同会社スマート電気,,合同会社,北海道,釧路郡釧路町,東陽西１丁目４番地７,,01,661,0880627,,,,,,,2023-12-19,1,,,,,スマートデンキ,0
2022,8700150122788,新規,0,2023-12-19,2023-12-19,Ｙｏｎｇｋａｎｇｓｈｉｌａｎｋｕｉｍａｏｙｉ　ｙｏｕｘｉａｎｇｏｎｇｓｉ,,外国会社等,,,,,,,,Ｚｏｎｇｂｕｚｈｏｎｇｘｉｎ　ｊｉｎｄｕｄａｓｈａ　１１ｌｏｕｄｏｎｇｍｉａｎ　１１０５ｓｈｉ　Ｙｏｎｇｋａｎｇｓｈｉ　Ｚｈｅｊｉａｎｇｓｈｅｎｇ　ｊｉｎｈｕａｓｈｉ,,,,,,2023-12-19,1,,,,,ヨンカンシランクイマオイユウゲンコウシ,0
2023,8700150122796,新規,0,2023-12-19,2023-12-19,ＮＳＬグローバルオーストラリア,,外国会社等,東京都,品川区,西五反田１丁目２６－２五反田サンハイツビル２Ｆオープンオフィス五反田駅西口,,13,109,1410031,オーストラリア連邦ニューサウスウェールズ州２００８シドニー市ミガーストリートＮｏ：２０－４０,,,,,,2023-12-19,1,,,,,エヌエスエルグローバルオーストラリア,0
2030,9010001240899,新規,0,2023-12-19,2023-12-19,Ｆｅａｔｕｒｅ　Ｓｔｏｒｙ　Ｊａｐａｎ株式会社,,株式会社,東京都,中央区,銀座６丁目１３番１６号銀座ＷａｌｌビルＵＣＦ５０１,,13,102,1040061,,,,,,,2023-12-19,1,,,,,フィーチャーストーリージャパン,0
2031,9010003042468,新規,0,2023-12-19,2023-12-19,Ｈ＆Ｓ合同会社,,合同会社,東京都,文京区,白山５丁目１７番２７号,,13,105,1120001,,,,,,,2023-12-19,1,,,,,エイチアンドエス,0
2036,9010403031590,新規,0,2023-12-19,2023-12-19,Ｓｔｅｒｎａ合同会社,,合同会社,東京都,港区,浜松町２丁目２番１５号,,13,103,1050013,,,,,,,2023-12-19,1,,,,,スターナ,0
2037,9010405022786,新規,0,2023-12-19,2023-12-19,一般社団法人ＪＰデューデリジェンス協会,,その他の設立登記法人,東京都,港区,虎ノ門３丁目１１番８号山田ビル２階,,13,103,1050001,,,,,,,2023-12-19,1,,,,,ジェイピーデューデリジェンスキョウカイ,0
2038,9010501051524,新規,0,2023-12-19,2023-12-19,株式会社Ｈｉｍａｒｉ,,株式会社,東京都,台東区,竜泉３丁目５番１号,,13,106,1100012,,,,,,,2023-12-19,1,,,,,ヒマリ,0
2049,9010901054366,新規,0,2023-12-19,2023-12-19,株式会社ＯＯＴＴ,,株式会社,東京都,世田谷区,奥沢３丁目３５番１３号,,13,112,1580083,,,,,,,2023-12-19,1,,,,,オーオーティーティー,0
2050,9010901054374,新規,0,2023-12-19,2023-12-19,株式会社ＳＲＧコーポレーション,,株式会社,東京都,世田谷区,桜上水２丁目２番１３号,,13,112,1560045,,,,,,,2023-12-19,1,,,,,エスアールジーコーポレーション,0
2055,9011001158850,新規,0,2023-12-19,2023-12-19,株式会社ＮＬｉＲ,,株式会社,東京都,渋谷区,円山町５－５Ｎａｖｉ渋谷Ｖ３階,,13,113,1500044,,,,,,,2023-12-19,1,,,,,エヌリール,0
2056,9011001158900,新規,0,2023-12-19,2023-12-19,ｗｅｂサポート株式会社,,株式会社,東京都,目黒区,緑が丘２丁目２４番８号テックレジデンス自由が丘２０４,,13,110,1520034,,,,,,,2023-12-19,1,,,,,ウェブサポート,0
2059,9011003018111,新規,0,2023-12-19,2023-12-19,合同会社Ｒｕｇｉｓ,,合同会社,東京都,渋谷区,渋谷２丁目１９－１５宮益坂ビルディング６０９,,13,113,1500002,,,,,,,2023-12-19,1,,,,,ルージス,0
2063,9011101105521,新規,0,2023-12-19,2023-12-19,株式会社ＨＹ,,株式会社,東京都,新宿区,歌舞伎町２丁目２５－６,,13,104,1600021,,,,,,,2023-12-19,1,,,,,エイチワイ,0
2066,9011103013870,新規,0,2023-12-19,2023-12-19,りりらぼ合同会社,,合同会社,東京都,新宿区,西新宿３丁目３番１３号西新宿水間ビル６階,,13,104,1600023,,,,,,,2023-12-19,1,,,,,リリラボ,0
2068,9011503005889,新規,0,2023-12-19,2023-12-19,合同会社大和,,合同会社,東京都,荒川区,東日暮里２丁目３１番７－６０３号,,13,118,1160014,,,,,,,2023-12-19,1,,,,,ヤマト,0
2069,9011601027372,新規,0,2023-12-19,2023-12-19,株式会社シブヤクリエーションズ,,株式会社,東京都,練馬区,中村２丁目２１番７号プライムコート中村橋１０２,,13,120,1760024,,,,,,,2023-12-19,1,,,,,シブヤクリエーションズ,0
2072,9011801043517,新規,0,2023-12-19,2023-12-19,株式会社千虎,,株式会社,東京都,足立区,千住寿町３６番８号,,13,121,1200033,,,,,,,2023-12-19,1,,,,,セントラ,0
2073,9012303001913,新規,0,2023-12-19,2023-12-19,きままクラフト合同会社,,合同会社,東京都,町田市,玉川学園３丁目１３－２７,,13,209,1940041,,,,,,,2023-12-19,1,,,,,キママクラフト,0
2075,9012401041340,新規,0,2023-12-19,2023-12-19,ハレクリエイション株式会社,,株式会社,東京都,武蔵野市,御殿山２丁目２番１６号,,13,203,1800005,,,,,,,2023-12-19,1,,,,,ハレクリエイション,0
2094,9020003025133,新規,0,2023-12-19,2023-12-19,ＦＩＴ　ａｎｄ　ＧＡＰ合同会社,,合同会社,神奈川県,横浜市西区,浅間町１丁目４番地３ウィザードビル４０２,,14,103,2200072,,,,,,,2023-12-19,1,,,,,フィットアンドギャップ,0
2103,9021003013920,新規,0,2023-12-19,2023-12-19,ＨＤ　Ｊａｐａｎ合同会社,,合同会社,神奈川県,大和市,大和南１丁目１５番６号タイセイビル１－Ｂ号室,,14,213,2420016,,,,,,,2023-12-19,1,,,,,エイチディジャパン,0
2116,9040001131328,新規,0,2023-12-19,2023-12-19,第一興業株式会社,,株式会社,千葉県,君津市,中島３０８番地,,12,225,2991106,,,,,,,2023-12-19,1,,,,,,0
2117,9040001131360,新規,0,2023-12-19,2023-12-19,株式会社ｍａｒｉａ,,株式会社,千葉県,船橋市,薬円台４丁目２４番１－１１２号,,12,204,2740077,,,,,,,2023-12-19,1,,,,,マリア,0
2118,9040001131419,新規,0,2023-12-19,2023-12-19,株式会社ｒｅｉｎｇ．ｄｅｓｉｇｎ,,株式会社,千葉県,千葉市稲毛区,天台３丁目１番３３号,,12,103,2630016,,,,,,,2023-12-19,1,,,,,レイングデザイン,0
2119,9040001131443,新規,0,2023-12-19,2023-12-19,株式会社ｍｏｍｏｎｊｉ,,株式会社,千葉県,東金市,宿１４３４番地,,12,213,2830033,,,,,,,2023-12-19,1,,,,,モモンジ,0
2123,9040003023960,新規,0,2023-12-19,2023-12-19,Ｓａｋｕｒａ合同会社,,合同会社,千葉県,八千代市,八千代台東１丁目２番１７号,,12,221,2760032,,,,,,,2023-12-19,1,,,,,サクラ,0
2126,9050001053991,新規,0,2023-12-19,2023-12-19,カイト株式会社,,株式会社,茨城県,北相馬郡利根町,大字羽根野８８０番地１６３,,08,564,3001636,,,,,,,2023-12-19,1,,,,,カイト,0
2160,9120001260580,新規,0,2023-12-19,2023-12-19,株式会社ＩＳＡｇｅｎｔ,,株式会社,大阪府,大阪市大正区,平尾４丁目１２番１４号伊佐マンション２０１号室,,27,108,5510012,,,,,,,2023-12-19,1,,,,,アイエスエージェント,0
2161,9120001260688,新規,0,2023-12-19,2023-12-19,ＴＯＰ　ＣＨＥＥＲ　ＪＰ株式会社,,株式会社,大阪府,大阪市生野区,桃谷４丁目８番２０号,,27,116,5440034,,,,,,,2023-12-19,1,,,,,トップチアジェーピー,0
2162,9120001260713,新規,0,2023-12-19,2023-12-19,新航致遠株式会社,,株式会社,大阪府,大阪市生野区,小路東６丁目８番１７号昭和エクセルビュー東大阪１０３－Ｇ２３,,27,116,5440003,,,,,,,2023-12-19,1,,,,,シンコウチエン,0
2163,9120001260721,新規,0,2023-12-19,2023-12-19,Ｈｕｍｍｉｎｇｂｉｒｄ株式会社,,株式会社,大阪府,大阪市港区,市岡元町２丁目６番１１号,,27,107,5520002,,,,,,,2023-12-19,1,,,,,ハミングバード,0
2164,9120001260738,新規,0,2023-12-19,2023-12-19,ノータス伊賀第一発電所株式会社,,株式会社,大阪府,大阪市淀川区,西中島４丁目３番２１号ＮＬＣセントラルビル１１０５号室,,27,123,5320011,,,,,,,2023-12-19,1,,,,,ノータスイガダイイチハツデンショ,0
2165,9120001260746,新規,0,2023-12-19,2023-12-19,華栄株式会社,,株式会社,大阪府,大阪市淀川区,新高４丁目３－１９小林マンション２０１号,,27,123,5320033,,,,,,,2023-12-19,1,,,,,カエイ,0
2166,9120001260837,新規,0,2023-12-19,2023-12-19,株式会社焼賣太樓,,株式会社,大阪府,大阪市北区,梅田２丁目１番１６号,,27,127,5300001,,,,,,,2023-12-19,1,,,,,シュウマイタロウ,0
2171,9120003025536,新規,0,2023-12-19,2023-12-19,ＫＡＮＳＡＩ　ＡＬＬ合同会社,,合同会社,大阪府,大阪市西成区,南津守３丁目１番３６号マンションアサノＩ３０３号,00133039,27,122,5570063,,,,,,,2023-12-19,1,,,,,カンサイオール,0
2182,9130001075904,新規,0,2023-12-19,2023-12-19,株式会社ゆずの手,,株式会社,京都府,京都市南区,久世上久世町８２０番地２,,26,107,6018212,,,,,,,2023-12-19,1,,,,,ユズノテ,0
2183,9130001075920,新規,0,2023-12-19,2023-12-19,同徳株式会社,00133048,株式会社,京都府,京都市南区,西九条唐戸町１８－４－２０２,,26,107,6018447,,,,,,,2023-12-19,1,,,,,ドウトク,0
2191,9140001132712,新規,0,2023-12-19,2023-12-19,株式会社ＹＴＳ,,株式会社,兵庫県,加古川市,加古川町中津６８８番地の１,,28,210,6750068,,,,,,,2023-12-19,1,,,,,ワイティエス,0
2192,9140001132737,新規,0,2023-12-19,2023-12-19,株式会社Ｂｏｏｓｔ　Ｕｐ,,株式会社,兵庫県,神戸市須磨区,須磨浦通３丁目３番２３号,,28,107,6540055,,,,,,,2023-12-19,1,,,,,ブーストアップ,0
2193,9140001132745,新規,0,2023-12-19,2023-12-19,株式会社ＣＡＮＤＬＥ,,株式会社,兵庫県,宝塚市,中山寺１丁目１６－１８,,28,214,6650861,,,,,,,2023-12-19,1,,,,,キャンドル,0
2196,9140003019940,新規,0,2023-12-19,2023-12-19,合同会社辰巳,,合同会社,兵庫県,神戸市西区,玉津町水谷５７０番地の１５,,28,111,6512121,,,,,,,2023-12-19,1,,,,,タツミ,0
2197,9140005026844,新規,0,2023-12-19,2023-12-19,医療法人社団来朋会,,その他の設立登記法人,兵庫県,明石市,明南町１丁目４番８号,,28,203,6730001,,,,,,,2023-12-19,1,,,,,ライホウカイ,0
2201,9180001159388,新規,0,2023-12-19,2023-12-19,株式会社Ｌｕｉｓｅ,,株式会社,愛知県,名古屋市天白区,池場１丁目４０４番地（フィルシティ植田南８０２号）,,23,116,4680055,,,,,,,2023-12-19,1,,,,,ルイーゼ,0
2202,9180001159413,新規,0,2023-12-19,2023-12-19,ＩＣ株式会社,,株式会社,愛知県,海部郡大治町,大字鎌須賀字山廻９番地の１,,23,424,4901135,,,,,,,2023-12-19,1,,,,,アイシー,0
2206,9180003026132,新規,0,2023-12-19,2023-12-19,合同会社２９９ライブプロダクション,,合同会社,愛知県,江南市,尾崎町上田６３番地,,23,217,4838161,,,,,,,2023-12-19,1,,,,,ニクキュウライブプロダクション,0
2210,9180305009537,新規,0,2023-12-19,2023-12-19,医療法人賢智会,,その他の設立登記法人,愛知県,豊橋市,平川本町１丁目１２番地２５,,23,201,4400038,,,,,,,2023-12-19,1,,,,,ケンチカイ,0
2223,9240003006458,新規,0,2023-12-19,2023-12-19,合同会社セカンドスキル,,合同会社,広島県,広島市中区,白島中町１７番２８－４０３号白島ティアラ,,34,101,7300002,,,,,,,2023-12-19,1,,,,,セカンドスキル,0
2225,9250001020435,新規,0,2023-12-19,2023-12-19,株式会社ＩＲＣ,,株式会社,山口県,下関市,勝谷新町３丁目１８番１３号,,35,201,7510802,,,,,,,2023-12-19,1,,,,,アイアールシー,0
2239,9290001104060,新規,0,2023-12-19,2023-12-19,ＭＩＡＭＩモータース株式会社,,株式会社,福岡県,久留米市,東合川２丁目５番１５号,,40,203,8390809,,,,,,,2023-12-19,1,,,,,ミアミモータース,0
2241,9290003014753,新規,0,2023-12-19,2023-12-19,Ｂｕｓｉｎｅｓｓ‐Ｓｍｉｌｉｎｇ合同会社,,合同会社,福岡県,福岡市博多区,博多駅前１丁目２３番１０－６０２号,,40,132,8120011,,,,,,,2023-12-19,1,,,,,ビジネススマイリング,0
2243,9290801030142,新規,0,2023-12-19,2023-12-19,株式会社ＩＳＨＩＤＡ,,株式会社,福岡県,北九州市八幡西区,下上津役３丁目７－１７－２０３,,40,109,8070075,,,,,,,2023-12-19,1,,,,,イシダ,0
2249,9310001018753,新規,0,2023-12-19,2023-12-19,株式会社ＫＦプランニング,,株式会社,長崎県,長崎市,万才町５番２４号,,42,201,8500033,,,,,,,2023-12-19,1,,,,,ケーエフプランニング,0
2257,9330003010129,新規,0,2023-12-19,2023-12-19,ネクスト合同会社,,合同会社,熊本県,熊本市南区,奥古閑町１７２３番地４,,43,104,8614125,,,,,,,2023-12-19,1,,,,,ネクスト,0
2261,9360001032956,新規,0,2023-12-19,2023-12-19,株式会社Ｂｏｄｙ　Ｖｏｇｕｅ,,株式会社,沖縄県,浦添市,字経塚１９７番地,,47,208,9012111,,,,,,,2023-12-19,1,,,,,ボディヴォーグ,0
2262,9360003013558,新規,0,2023-12-19,2023-12-19,合同会社ＩＣＨＩＲＥＡＬ,,合同会社,沖縄県,那覇市,牧志２丁目１７－２７－４０１,,47,201,9000013,,,,,,,2023-12-19,1,,,,,イチリアル,0
2280,9410005006554,新規,0,2023-12-19,2023-12-19,医療法人ＨＥＣ,,その他の設立登記法人,秋田県,秋田市,広面字樋ノ上１１番,,05,201,0100041,,,,,,,2023-12-19,1,,,,,エイチイーシー,0
2288,9470003002541,新規,0,2023-12-19,2023-12-19,合同会社ＢｅｌｌｅＣｉｅｌ,,合同会社,香川県,高松市,木太町２２０６番地パルムハウス８０５,,37,201,7600080,,,,,,,2023-12-19,1,,,,,ベルシエル,0
2289,9480001005339,新規,0,2023-12-19,2023-12-19,平田建設株式会社,,株式会社,徳島県,板野郡松茂町,笹木野字八北開拓５０番地,,36,401,7710219,,,,,,,2023-12-19,1,,,,,ヒラタケンセツ,0
2293,9700150122787,新規,0,2023-12-19,2023-12-19,Ｆｕｋｅｓｉ　Ｓｈｅｎｚｈｅｎ　Ｉｎｖｅｓｔｍｅｎｔ　Ｃｏ．，Ｌｔｄ,,外国会社等,,,,,,,,Ｎｏ．２０３２　ＬｉａｎｈｕａＲｏａｄ　ＫａｎｇｘｉｎＣｏｍｍｕｎｉｔｙ　ＬｉａｎｈｕａＳｔｒｅｅｔ　Ｒｏｏｍ４０７　ＣｏｍｐｌｅｘＢｕｉｌｄｉｎｇＣｉｔｙＧａｓＣｏｍｐａｎｙ　ＦｕｔｉａｎＤｉｓｔｒｉｃｔ　Ｓｈｅｎｚｈｅｎ,,,,,,2023-12-19,1,,,,,フケシシンセンインベストメントカンパニーリミテッド,0
2294,9700150122795,新規,0,2023-12-19,2023-12-19,Ｊ．Ｓ．Ｈｅｌｄ　ＩＨ　ＬＬＣ,,外国会社等,東京都,千代田区,大手町１丁目７－２東京サンケイビル２７階,,13,101,1000004,アメリカ合衆国ニューヨーク州ジェリコ、ジェリコクアドラングル５０、スイート１１７,,,,,,2023-12-19,1,,,,,ジエイエスヘルドアイエイチ,0
