sequenceNumber,corporateNumber,process,correct,updateDate,changeDate,name,nameImageId,kind,prefectureName,cityName,streetNumber,addressImageId,prefectureCode,cityCode,postCode,addressOutside,addressOutsideImageId,closeDate,closeCause,successorCorporateNumber,changeCause,assignmentDate,latest,enName,enPrefectureName,enCityName,enAddressOutside,furigana,hihyoji
10,1010001229140,新規,0,2022-08-31,2022-08-31,東京製薬株式会社,,株式会社,東京都,中央区,日本橋蛎殻町１丁目３番５号共同ビル２階２３号,,13,102,1030014,,,,,,,2022-08-31,1,,,,,トウキョウセイヤク,0
11,1010001229149,新規,0,2022-08-31,2022-08-31,ポケットサイン株式会社,,株式会社,東京都,千代田区,神田須田町１丁目３番地９,,13,101,1010041,,,,,,,2022-08-31,1,,,,,ポケットサイン,0
12,1010001229157,新規,0,2022-08-31,2022-08-31,株式会社ＫＵＲＡＥ,,株式会社,東京都,中央区,日本橋兜町１７番２号兜町第６葉山ビル４階,,13,102,1030026,,,,,,,2022-08-31,1,,,,,クラエ,0
20,1010003038523,新規,0,2022-08-31,2022-08-31,合同会社昇華,,合同会社,東京都,千代田区,麹町４丁目７番２号,,13,101,1020083,,,,,,,2022-08-31,1,,,,,ショウカ,0
21,1010003038531,新規,0,2022-08-31,2022-08-31,ＷＡＢＯＭ合同会社,,合同会社,東京都,文京区,本駒込５丁目１３－７日神パレステージ本駒込５０３,,13,105,1130021,,,,,,,2022-08-31,1,,,,,ワボン,0
27,1010401169102,新規,0,2022-08-31,2022-08-31,株式会社ｍｍｔ,,株式会社,東京都,港区,港南４丁目２番７－３５１８号,,13,103,1080075,,,,,,,2022-08-31,1,,,,,エムエムティー,0
28,1010401169291,新規,0,2022-08-31,2022-08-31,株式会社Ｋｉｒｅｉｉ,,株式会社,東京都,港区,赤坂８丁目４－１４青山タワ－プレイス８Ｆ,,13,103,1070052,,,,,,,2022-08-31,1,,,,,キレイイ,0
29,1010401169408,新規,0,2022-08-31,2022-08-31,株式会社アジャイルエナジーＸ,,株式会社,東京都,港区,港南２丁目１６番５号,,13,103,1080075,,,,,,,2022-08-31,1,,,,,アジャイルエナジーエックス,0
30,1010401169416,新規,0,2022-08-31,2022-08-31,ＥＲ２１株式会社,,株式会社,東京都,港区,六本木１丁目６番１号,,13,103,1060032,,,,,,,2022-08-31,1,,,,,イーアールトゥエンティーワン,0
31,1010401169432,新規,0,2022-08-31,2022-08-31,株式会社ＰＲＩＭＯ　ＰＡＳＳＯ,,株式会社,東京都,港区,北青山２丁目１２番４号坂本ビル３階,,13,103,1070061,,,,,,,2022-08-31,1,,,,,プリモパッソ,0
39,1010405021300,新規,0,2022-08-31,2022-08-31,ＳＣＧ７６一般社団法人,,その他の設立登記法人,東京都,港区,虎ノ門４丁目１番２８号,,13,103,1050001,,,,,,,2022-08-31,1,,,,,エスシージーセブンティシックス,0
43,1010501049278,新規,0,2022-08-31,2022-08-31,ナガワ信用保証株式会社,,株式会社,東京都,台東区,東上野１丁目１７－２第二江口ビル３Ｆ,,13,106,1100015,,,,,,,2022-08-31,1,,,,,ナガワシンヨウホショウ,0
44,1010601061769,新規,0,2022-08-31,2022-08-31,タイガーベル株式会社,,株式会社,東京都,墨田区,堤通２丁目１番２７号白髭交通ビル１階,,13,107,1310034,,,,,,,2022-08-31,1,,,,,タイガーベル,0
48,1010701043139,新規,0,2022-08-31,2022-08-31,株式会社ＴＭカンパニー,,株式会社,東京都,品川区,北品川４丁目８番１４－３０３号,,13,109,1400001,,,,,,,2022-08-31,1,,,,,ティーエムカンパニー,0
52,1010801033238,新規,0,2022-08-31,2022-08-31,株式会社パブロワークス,,株式会社,東京都,大田区,仲池上２丁目２９番１１号,,13,111,1460081,,,,,,,2022-08-31,1,,,,,パブロワークス,0
55,1010901051536,新規,0,2022-08-31,2022-08-31,大輝株式会社,,株式会社,東京都,世田谷区,成城１丁目２６番９－１０５号,,13,112,1570066,,,,,,,2022-08-31,1,,,,,ダイキ,0
69,1011001149428,新規,0,2022-08-31,2022-08-31,株式会社ＣＯＭＰＲＯＭＩＳＯ,,株式会社,東京都,渋谷区,上原１丁目３－９,,13,113,1510064,,,,,,,2022-08-31,1,,,,,コンプロミッソ,0
70,1011001149444,新規,0,2022-08-31,2022-08-31,株式会社Ｎ．Ｓｙｓｔｅｍ,,株式会社,東京都,渋谷区,渋谷２丁目１９番１５－１３１０号宮益坂ビルディング,,13,113,1500002,,,,,,,2022-08-31,1,,,,,エヌドットシステム,0
71,1011001149452,新規,0,2022-08-31,2022-08-31,株式会社ｃｏｍａｃｈｉ,,株式会社,東京都,目黒区,碑文谷５丁目２番５号Ｔ＆Ａビル５階,,13,110,1520003,,,,,,,2022-08-31,1,,,,,コマチ,0
77,1011003015280,新規,0,2022-08-31,2022-08-31,合同会社日本商店,,合同会社,東京都,目黒区,下目黒４丁目１１－１８マンション清水台１１０５号,,13,110,1530064,,,,,,,2022-08-31,1,,,,,ニホンショウテン,0
87,1011601026209,新規,0,2022-08-31,2022-08-31,東京消毒株式会社,,株式会社,東京都,練馬区,旭町３丁目２７－９,,13,120,1790071,,,,,,,2022-08-31,1,,,,,トウキョウショウドク,0
94,1013303006281,新規,0,2022-08-31,2022-08-31,合同会社キツネアソビ,,合同会社,東京都,豊島区,南大塚２丁目１１番１０号ミモザビル３階,,13,116,1700005,,,,,,,2022-08-31,1,,,,,キツネアソビ,0
99,1020001147985,新規,0,2022-08-31,2022-08-31,ｍｏｖｅアソシエイツ株式会社,,株式会社,神奈川県,川崎市宮前区,馬絹１丁目９番１９－３０３号,,14,136,2160035,,,,,,,2022-08-31,1,,,,,ムーブアソシエイツ,0
107,1021001076860,新規,0,2022-08-31,2022-08-31,株式会社アップシティー,,株式会社,神奈川県,横須賀市,根岸町４丁目１番９号,,14,201,2390807,,,,,,,2022-08-31,1,,,,,アップシティー,0
108,1021001076877,新規,0,2022-08-31,2022-08-31,ＬＯＹＡＬ　ＣＯＲＰＯＲＡＴＩＯＮ株式会社,,株式会社,神奈川県,相模原市中央区,田名８５５７番地７,,14,152,2520244,,,,,,,2022-08-31,1,,,,,ロイヤルコーポレイション,0
109,1021003012079,新規,0,2022-08-31,2022-08-31,Ｂｌａｃｋ　Ｇａｉｎ合同会社,,合同会社,神奈川県,中郡大磯町,国府本郷５０番地５,,14,341,2590111,,,,,,,2022-08-31,1,,,,,ブラックゲイン,0
113,1030001149832,新規,0,2022-08-31,2022-08-31,ビクトリアインターナショナル株式会社,,株式会社,埼玉県,八潮市,大字木曽根４０８－１,,11,234,3400813,,,,,,,2022-08-31,1,,,,,ビクトリアインターナショナル,0
114,1030001149865,新規,0,2022-08-31,2022-08-31,株式会社ワイズ阿部川,,株式会社,埼玉県,久喜市,久喜東５丁目６番３８号,,11,232,3460016,,,,,,,2022-08-31,1,,,,,ワイズアベカワ,0
115,1030001149881,新規,0,2022-08-31,2022-08-31,株式会社グローバルビジネス,,株式会社,埼玉県,川口市,東領家４丁目３番１４号,,11,203,3320003,,,,,,,2022-08-31,1,,,,,グローバルビジネス,0
116,1030001149898,新規,0,2022-08-31,2022-08-31,株式会社ＭＲＣ　ＳＵＮＲＩＳＥ　ＩＮＴＥＲＮＡＴＩＯＮＡＬ,,株式会社,埼玉県,ふじみ野市,桜ケ丘２丁目４０番６号,,11,245,3560059,,,,,,,2022-08-31,1,,,,,エムアールシーサンライズインターナショナル,0
130,1040001124850,新規,0,2022-08-31,2022-08-31,株式会社鈴木工業,,株式会社,千葉県,茂原市,萱場２９２番地２,,12,210,2994111,,,,,,,2022-08-31,1,,,,,スズキコウギョウ,0
133,1040003020726,新規,0,2022-08-31,2022-08-31,合同会社ニッタカンパニー,,合同会社,千葉県,浦安市,富士見５丁目１９番１１－１０８号,,12,227,2790043,,,,,,,2022-08-31,1,,,,,ニッタカンパニー,0
139,1050003006807,新規,0,2022-08-31,2022-08-31,ハイブリッジアーク合同会社,,合同会社,茨城県,つくば市,吾妻１丁目５番７号ダイワロイネットホテルつくばビル２階,,08,220,3050031,,,,,,,2022-08-31,1,,,,,ハイブリッジアーク,0
141,1050005013132,新規,0,2022-08-31,2022-08-31,一般社団法人誠徳会,,その他の設立登記法人,茨城県,古河市,柳橋４２５番１,,08,204,3060203,,,,,,,2022-08-31,1,,,,,セイトクカイ,0
151,1100001035661,新規,0,2022-08-31,2022-08-31,Ｓカンパニー株式会社,,株式会社,長野県,飯田市,上郷飯沼３１８０番地３,,20,205,3950002,,,,,,,2022-08-31,1,,,,,エスカンパニー,0
165,1120001248526,新規,0,2022-08-31,2022-08-31,株式会社Ａ．ＹＡＮＧ,,株式会社,大阪府,大阪市北区,梅田１丁目２番２－２００号大阪駅前第２ビル２階３－１－２,,27,127,5300001,,,,,,,2022-08-31,1,,,,,エーヤン,0
166,1120001248534,新規,0,2022-08-31,2022-08-31,山樹田商事株式会社,,株式会社,大阪府,大阪市淀川区,西宮原２丁目６番１６－１０２０号室,,27,123,5320004,,,,,,,2022-08-31,1,,,,,ヤマキダショウジ,0
170,1120003022367,新規,0,2022-08-31,2022-08-31,ＳＵＮＮＹ　ＴＲＡＮＧ合同会社,,合同会社,大阪府,大阪市西成区,千本北２丁目３２－３４エクセル新開コーポ１１号,,27,122,5570053,,,,,,,2022-08-31,1,,,,,サニーチャン,0
171,1120003022375,新規,0,2022-08-31,2022-08-31,合同会社ｎｅｕｆ,,合同会社,大阪府,大阪市住吉区,住吉１丁目４番６号,,27,120,5580045,,,,,,,2022-08-31,1,,,,,ヌフ,0
174,1122001036209,新規,0,2022-08-31,2022-08-31,株式会社カワチ工業,,株式会社,大阪府,八尾市,志紀町１丁目８６番地,,27,212,5810031,,,,,,,2022-08-31,1,,,,,カワチコウギョウ,0
192,1140001127208,新規,0,2022-08-31,2022-08-31,株式会社コアリンクス,,株式会社,兵庫県,神戸市長田区,大橋町４丁目４番１７号,,28,106,6530037,,,,,,,2022-08-31,1,,,,,コアリンクス,0
193,1140001127216,新規,0,2022-08-31,2022-08-31,株式会社有村建設,,株式会社,兵庫県,尼崎市,大庄西町１丁目２０－１７,,28,202,6600077,,,,,,,2022-08-31,1,,,,,アリムラケンセツ,0
202,1180001152771,新規,0,2022-08-31,2022-08-31,株式会社キュー・オー・エル,,株式会社,愛知県,名古屋市中区,丸の内３丁目５番１号,,23,106,4600002,,,,,,,2022-08-31,1,,,,,キューオーエル,0
203,1180001152821,新規,0,2022-08-31,2022-08-31,イージーパーツ株式会社,,株式会社,愛知県,名古屋市中区,金山１丁目１４番１６号,,23,106,4600022,,,,,,,2022-08-31,1,,,,,イージーパーツ,0
208,1180301036575,新規,0,2022-08-31,2022-08-31,アイホープ株式会社,,株式会社,愛知県,豊川市,諏訪町四丁目９３番地コーポ竹屋第二１０１号室,,23,207,4420000,,,,,,,2022-08-31,1,,,,,アイホープ,0
223,1240001060282,新規,0,2022-08-31,2022-08-31,株式会社ファイナンシャルコンサルティング,,株式会社,広島県,福山市,松永町３丁目１６－１３，３０５号,,34,207,7290104,,,,,,,2022-08-31,1,,,,,ファイナンシャルコンサルティング,0
231,1290001098707,新規,0,2022-08-31,2022-08-31,Ｇｏｏｄ　ｓｈａｒｅ　ｌｉｎｋ株式会社,,株式会社,福岡県,那珂川市,道善２丁目６４番地,,40,231,8111254,,,,,,,2022-08-31,1,,,,,グッドシェアリンク,0
236,1320001019295,新規,0,2022-08-31,2022-08-31,株式会社Ｆａｒｍｅ,,株式会社,大分県,宇佐市,大字佐々礼１４４４番地の３,,44,211,8720016,,,,,,,2022-08-31,1,,,,,ファーミー,0
241,1360001030892,新規,0,2022-08-31,2022-08-31,株式会社ニライパートナーズＩ,,株式会社,沖縄県,中頭郡北谷町,字浜川８番地２４しまぜんビル２Ｆ－Ｂ,,47,326,9040112,,,,,,,2022-08-31,1,,,,,ニライパートナーズワン,0
243,1370005010527,新規,0,2022-08-31,2022-08-31,一般社団法人モリノネ,,その他の設立登記法人,宮城県,気仙沼市,落合２５４－１,,04,205,9880843,,,,,,,2022-08-31,1,,,,,モリノネ,0
246,1390003001988,新規,0,2022-08-31,2022-08-31,コネクトハート合同会社,,合同会社,山形県,米沢市,中田町１８５２コーポ玉虫Ａ２０８,,06,202,9920011,,,,,,,2022-08-31,1,,,,,コネクトハート,0
253,1430001087380,新規,0,2022-08-31,2022-08-31,株式会社ペイントエイト,,株式会社,北海道,札幌市白石区,中央一条７丁目４番１５号,,01,104,0030011,,,,,,,2022-08-31,1,,,,,ペイントエイト,0
254,1430001087397,新規,0,2022-08-31,2022-08-31,倫不動産株式会社,,株式会社,北海道,札幌市白石区,南郷通１５丁目南６番８－１０３号,,01,104,0030022,,,,,,,2022-08-31,1,,,,,リンフドウサン,0
257,1430003014226,新規,0,2022-08-31,2022-08-31,Ｆａｃｅ合同会社,,合同会社,北海道,札幌市中央区,北三条西２７丁目１－７デュオヒルズ円山アーバンヴィラ４０７号室,,01,101,0640823,,,,,,,2022-08-31,1,,,,,フェイス,0
258,1430003014234,新規,0,2022-08-31,2022-08-31,合同会社ＳＢＳリアルティ,,合同会社,北海道,札幌市西区,山の手二条４丁目１番１１号,,01,107,0630002,,,,,,,2022-08-31,1,,,,,エスビーエスリアルティ,0
260,1460001005728,新規,0,2022-08-31,2022-08-31,株式会社鶴居村の恩返し,,株式会社,北海道,阿寒郡鶴居村,鶴居西２丁目４－１,,01,667,0851203,,,,,,,2022-08-31,1,,,,,ツルイムラノオンガエシ,0
267,1500001024434,新規,0,2022-08-31,2022-08-31,Ｎａｇａｙａホールディングス株式会社,,株式会社,愛媛県,松山市,千舟町６丁目５番地９,,38,201,7900011,,,,,,,2022-08-31,1,,,,,ナガヤホールディングス,0
289,2010003038448,新規,0,2022-08-31,2022-08-31,リリーガーデン合同会社,,合同会社,東京都,中央区,銀座６丁目１３－１６,,13,102,1040061,,,,,,,2022-08-31,1,,,,,リリーガーデン,0
294,2010401169324,新規,0,2022-08-31,2022-08-31,株式会社ｏｆｆｉｃｅＴＨ,,株式会社,東京都,港区,赤坂６丁目１９番１１－３０１号,,13,103,1070052,,,,,,,2022-08-31,1,,,,,オフィスティーエイチ,0
295,2010401169407,新規,0,2022-08-31,2022-08-31,Ｆｏｏｄｅｌｕｘｅ株式会社,,株式会社,東京都,港区,浜松町１丁目３番１号,,13,103,1050013,,,,,,,2022-08-31,1,,,,,フーデラクス,0
296,2010401169415,新規,0,2022-08-31,2022-08-31,株式会社Ｋｓ,,株式会社,東京都,港区,六本木６丁目１２番３－２１０４号,,13,103,1060032,,,,,,,2022-08-31,1,,,,,ケース,0
298,2010403028370,新規,0,2022-08-31,2022-08-31,エスティーエヌ合同会社,,合同会社,東京都,港区,西新橋１丁目２番９号メンターキャピタル税理士法人内,,13,103,1050003,,,,,,,2022-08-31,1,,,,,エスティーエヌ,0
299,2010405021299,新規,0,2022-08-31,2022-08-31,ＳＣＧ７５一般社団法人,,その他の設立登記法人,東京都,港区,虎ノ門４丁目１番２８号,,13,103,1050001,,,,,,,2022-08-31,1,,,,,エスシージーセブンティファイブ,0
303,2010703006373,新規,0,2022-08-31,2022-08-31,合同会社パパしるべ,,合同会社,東京都,品川区,西中延３丁目１５番２号,,13,109,1420054,,,,,,,2022-08-31,1,,,,,パパシルベ,0
309,2010803004269,新規,0,2022-08-31,2022-08-31,合同会社プラシア,,合同会社,東京都,大田区,大森西１丁目３番３号,,13,111,1430015,,,,,,,2022-08-31,1,,,,,プラシア,0
318,2011003015288,新規,0,2022-08-31,2022-08-31,Ｆｉｒｅｗｏｒｋｓ合同会社,,合同会社,東京都,渋谷区,代々木５丁目５１番７号,,13,113,1510053,,,,,,,2022-08-31,1,,,,,ファイアワークス,0
324,2011101100017,新規,0,2022-08-31,2022-08-31,株式会社高倉アセットマネジメント,,株式会社,東京都,新宿区,西新宿１丁目１２番１号,,13,104,1600023,,,,,,,2022-08-31,1,,,,,タカクラアセットマネジメント,0
325,2011101100025,新規,0,2022-08-31,2022-08-31,株式会社リベタス,,株式会社,東京都,新宿区,西新宿３丁目３番１３号西新宿水間ビル６階,,13,104,1600023,,,,,,,2022-08-31,1,,,,,リベタス,0
326,2011101100033,新規,0,2022-08-31,2022-08-31,株式会社ＲＥＧＲＩＭ,,株式会社,東京都,新宿区,高田馬場３丁目２０－１１第二林ビル１０１号,,13,104,1690075,,,,,,,2022-08-31,1,,,,,レグリム,0
330,2011301028074,新規,0,2022-08-31,2022-08-31,奥維納株式会社,,株式会社,東京都,杉並区,梅里２丁目２５番１３号高円寺プラザ２０３号,,13,115,1660011,,,,,,,2022-08-31,1,,,,,オウイノウ,0
335,2011503005268,新規,0,2022-08-31,2022-08-31,合同会社トラスト調査,,合同会社,東京都,北区,志茂１丁目３５番３号,,13,117,1150042,,,,,,,2022-08-31,1,,,,,トラストチョウサ,0
340,2011803005240,新規,0,2022-08-31,2022-08-31,伊桜誠達貿易合同会社,,合同会社,東京都,足立区,舎人２丁目１０番５号ＫＹビル４０２号,,13,121,1210831,,,,,,,2022-08-31,1,,,,,イオウセイタツボウエキ,0
342,2012401039589,新規,0,2022-08-31,2022-08-31,株式会社サクサム,,株式会社,東京都,調布市,国領町６丁目２０－３３,,13,208,1820022,,,,,,,2022-08-31,1,,,,,サクサム,0
344,2012703002526,新規,0,2022-08-31,2022-08-31,合同会社ＴＨＲ,,合同会社,東京都,清瀬市,中里５丁目１９番地２５,,13,221,2040003,,,,,,,2022-08-31,1,,,,,ティーエイチアール,0
351,2013305003375,新規,0,2022-08-31,2022-08-31,医療法人社団ワイズ会,,その他の設立登記法人,東京都,豊島区,上池袋４丁目４７番４号リレント上池袋ＰＴ２－１階１０４,,13,116,1700012,,,,,,,2022-08-31,1,,,,,ワイズカイ,0
357,2020001147984,新規,0,2022-08-31,2022-08-31,株式会社ＭＧＬ　Ｉｎｖｅｓｔｍｅｎｔ,,株式会社,神奈川県,川崎市宮前区,馬絹１丁目９番１９号,,14,136,2160035,,,,,,,2022-08-31,1,,,,,エムジーエルインベストメント,0
358,2020001147992,新規,0,2022-08-31,2022-08-31,アトリエＭＯＣＨＩＫＯ株式会社,,株式会社,神奈川県,横浜市瀬谷区,二ツ橋町１４０番地１８,,14,114,2460021,,,,,,,2022-08-31,1,,,,,アトリエモチコ,0
359,2020001148000,新規,0,2022-08-31,2022-08-31,株式会社ＴＯＫＹＯ　ＣＲＥＡＴＩＶＥ　ＬＡＮＤ,,株式会社,神奈川県,川崎市幸区,小向西町１丁目３９番地１３,,14,132,2120004,,,,,,,2022-08-31,1,,,,,トウキョウクリエイティブランド,0
363,2020003022302,新規,0,2022-08-31,2022-08-31,合同会社Ｒａｃｃｏｏｎ,,合同会社,神奈川県,横浜市中区,桜木町１丁目１０１番１,,14,104,2310062,,,,,,,2022-08-31,1,,,,,ラクーン,0
376,2030001149848,新規,0,2022-08-31,2022-08-31,株式会社ハルク,,株式会社,埼玉県,さいたま市中央区,鈴谷４丁目１８番２－４０３号,,11,105,3380013,,,,,,,2022-08-31,1,,,,,ハルク,0
377,2030001149880,新規,0,2022-08-31,2022-08-31,ｔａｒｕＳｈｉｒｕ株式会社,,株式会社,埼玉県,さいたま市緑区,大字大門２７５５番地４５,,11,109,3360963,,,,,,,2022-08-31,1,,,,,タルシル,0
391,2070001039566,新規,0,2022-08-31,2022-08-31,Ｍ＆Ｔ株式会社,,株式会社,群馬県,高崎市,新町２２８６番地６,,10,202,3701301,,,,,,,2022-08-31,1,,,,,エムアンドティー,0
394,2080101023502,新規,0,2022-08-31,2022-08-31,株式会社ＲＩＣＥ　ＥＮＴＥＲＴＡＩＮＭＥＮＴＳ,,株式会社,静岡県,熱海市,桜木町３３番５号,,22,205,4130025,,,,,,,2022-08-31,1,,,,,ライスエンターテインメンツ,0
411,2120001247527,新規,0,2022-08-31,2022-08-31,株式会社ｏｓａｋａｎａｔｏ,,株式会社,大阪府,大阪市福島区,野田１丁目１番８６号大阪市中央卸売市場本場北１５－１０,,27,103,5530005,,,,,,,2022-08-31,1,,,,,オサカナト,0
413,2120001248500,新規,0,2022-08-31,2022-08-31,株式会社Ｊａｐａｎ　Ｐａｙｍｅｎｔ　Ｓｅｒｖｉｃｅ,,株式会社,大阪府,大阪市北区,梅田１丁目１－３,,27,127,5300001,,,,,,,2022-08-31,1,,,,,ジャパンペイメントサービス,0
414,2120001248509,新規,0,2022-08-31,2022-08-31,株式会社翔誠,,株式会社,大阪府,大阪市生野区,小路２丁目１２番２２号アークティカ小路１０３,,27,116,5440002,,,,,,,2022-08-31,1,,,,,ショウセイ,0
418,2120003022366,新規,0,2022-08-31,2022-08-31,ＧｌｏｂａｌＧｏ　Ｓａａｔｖｉｋ合同会社,,合同会社,大阪府,大阪市中央区,西心斎橋１丁目１６番１２号ニューアメリカンプラザ１０Ｆ－Ｃ号,,27,128,5420086,,,,,,,2022-08-31,1,,,,,グローバルゴーサートビック,0
419,2120005023164,新規,0,2022-08-31,2022-08-31,一般社団法人６１１チャーチ,,その他の設立登記法人,大阪府,大阪市中央区,内本町２丁目３番１１号４階,,27,128,5400026,,,,,,,2022-08-31,1,,,,,ロクイチイチチャーチ,0
423,2120101066158,新規,0,2022-08-31,2022-08-31,株式会社アバンテプラス,,株式会社,大阪府,松原市,三宅中８丁目２番８号,,27,217,5800046,,,,,,,2022-08-31,1,,,,,アバンテプラス,0
426,2120901046400,新規,0,2022-08-31,2022-08-31,株式会社Ｒｅ　ｓｏｌｅｉｌ,,株式会社,大阪府,茨木市,永代町５番１０７号,,27,211,5670816,,,,,,,2022-08-31,1,,,,,リソレイユ,0
447,2170001017256,新規,0,2022-08-31,2022-08-31,株式会社はまぐち建設,,株式会社,和歌山県,岩出市,吉田９２番地の３２,00127673,30,209,6496246,,,,,,,2022-08-31,1,,,,,ハマグチケンセツ,0
449,2170005006973,新規,0,2022-08-31,2022-08-31,社会福祉法人熊野会,,その他の設立登記法人,和歌山県,西牟婁郡上富田町,生馬字両新田５１９番地６,,30,404,6492103,,,,,,,2022-08-31,1,,,,,クマノカイ,0
456,2180003024191,新規,0,2022-08-31,2022-08-31,合同会社和み,,合同会社,愛知県,名古屋市東区,泉１丁目２１番１１号（Ｅｎｃｈａｎｔｅ泉２０４号）,,23,102,4610001,,,,,,,2022-08-31,1,,,,,ナゴミ,0
458,2180301036574,新規,0,2022-08-31,2022-08-31,株式会社ジーリンクワークス,,株式会社,愛知県,豊橋市,駅前大通１丁目７１番地,,23,201,4400888,,,,,,,2022-08-31,1,,,,,ジーリンクワークス,0
476,2240001060249,新規,0,2022-08-31,2022-08-31,株式会社豊洲,,株式会社,広島県,東広島市,高屋町造賀３５６４番地１６,,34,212,7392101,,,,,,,2022-08-31,1,,,,,トヨス,0
479,2260001037179,新規,0,2022-08-31,2022-08-31,株式会社善,,株式会社,岡山県,岡山市北区,十日市中町５番７号,,33,101,7000855,,,,,,,2022-08-31,1,,,,,ゼン,0
485,2290001098739,新規,0,2022-08-31,2022-08-31,ソフトテック株式会社,,株式会社,福岡県,福岡市西区,周船寺３丁目１７番３－４０９号,,40,135,8190373,,,,,,,2022-08-31,1,,,,,ソフトテック,0
486,2290001098755,新規,0,2022-08-31,2022-08-31,株式会社吉原創建,,株式会社,福岡県,那珂川市,道善１丁目４８番地２,,40,231,8111254,,,,,,,2022-08-31,1,,,,,ヨシハラソウケン,0
492,2290003012895,新規,0,2022-08-31,2022-08-31,大能バイオマス発電所合同会社,,合同会社,福岡県,福岡市早良区,百道浜２丁目４番２７号ＡＩビル６Ｆ,,40,137,8140001,,,,,,,2022-08-31,1,,,,,オオノバイオマスハツデンショ,0
494,2300001013051,新規,0,2022-08-31,2022-08-31,株式会社野中自動車,,株式会社,佐賀県,佐賀市,富士町大字古湯４番地３,,41,201,8400501,,,,,,,2022-08-31,1,,,,,ノナカジドウシャ,0
495,2310001018009,新規,0,2022-08-31,2022-08-31,株式会社Ｍａｙｕｍｉ　Ｍａｓａｋｉ,,株式会社,長崎県,長崎市,鍛冶屋町４番１２号澤岡ビル２階,,42,201,8500831,,,,,,,2022-08-31,1,,,,,マユミマサキ,0
502,2350003004151,新規,0,2022-08-31,2022-08-31,ｍｉｋｉｍｕｕ合同会社,,合同会社,宮崎県,小林市,真方２５９３,,45,205,8860007,,,,,,,2022-08-31,1,,,,,ミキムウ,0
504,2360005006707,新規,0,2022-08-31,2022-08-31,一般社団法人地域循環資源エネルギー開発機構,,その他の設立登記法人,沖縄県,国頭郡宜野座村,字漢那２０７８番地の２８,,47,313,9041304,,,,,,,2022-08-31,1,,,,,チイキジュンカンシゲンエネルギーカイハツキコウ,0
518,2430005003390,新規,0,2022-08-31,2022-08-31,北海道勤労者財形住宅協同組合,,その他の設立登記法人,北海道,札幌市北区,北七条西４丁目東カンビル８階,,01,102,0600807,,,,,,,2022-08-31,1,,,,,,0
519,2470001019239,新規,0,2022-08-31,2022-08-31,荒本建装株式会社,,株式会社,香川県,綾歌郡宇多津町,浜七番丁１０４番地１５,,37,386,7690207,,,,,,,2022-08-31,1,,,,,アラモトケンソウ,0
520,2500001024433,新規,0,2022-08-31,2022-08-31,モリデン株式会社,,株式会社,愛媛県,松山市,今在家１丁目１１番４－３号,,38,201,7911106,,,,,,,2022-08-31,1,,,,,モリデン,0
532,3010001229106,新規,0,2022-08-31,2022-08-31,株式会社ＷａｄａＬａｂ,,株式会社,東京都,中央区,銀座１丁目３番３号ＧＩビル７階,,13,102,1040061,,,,,,,2022-08-31,1,,,,,,0
533,3010001229114,新規,0,2022-08-31,2022-08-31,株式会社ＤＫホテルマネジメント,,株式会社,東京都,千代田区,内神田２丁目３番４号,,13,101,1010047,,,,,,,2022-08-31,1,,,,,ディーケイホテルマネジメント,0
534,3010001229122,新規,0,2022-08-31,2022-08-31,ＭＳＴＹ株式会社,,株式会社,東京都,千代田区,神田和泉町１番地２の１９石井ビル５階Ａ号室,,13,101,1010024,,,,,,,2022-08-31,1,,,,,エムエスティー,0
535,3010001229139,新規,0,2022-08-31,2022-08-31,株式会社ＧＲＥＥＮ,,株式会社,東京都,千代田区,神田小川町３丁目７番地１５ボナ神田小川町９Ｆ,,13,101,1010052,,,,,,,2022-08-31,1,,,,,グリーン,0
544,3010401169307,新規,0,2022-08-31,2022-08-31,株式会社Ｍｚｅｅ,,株式会社,東京都,港区,六本木５丁目１３番６－１００１号,,13,103,1060032,,,,,,,2022-08-31,1,,,,,ムゼ,0
545,3010401169414,新規,0,2022-08-31,2022-08-31,株式会社Ｋ２,,株式会社,東京都,港区,六本木６丁目１２番３－２１０４号,,13,103,1060032,,,,,,,2022-08-31,1,,,,,ケーツー,0
552,3010601061767,新規,0,2022-08-31,2022-08-31,ＳＷ技術株式会社,,株式会社,東京都,墨田区,錦糸４丁目４番８号２Ｆ,,13,107,1300013,,,,,,,2022-08-31,1,,,,,エスダブリューギジュツ,0
559,3010701043137,新規,0,2022-08-31,2022-08-31,ブラックナイン株式会社,,株式会社,東京都,品川区,東大井３丁目１３番１１－４０２号,,13,109,1400011,,,,,,,2022-08-31,1,,,,,ブラックナイン,0
562,3010703006372,新規,0,2022-08-31,2022-08-31,合同会社Ｍ・Ｈ・Ｙ,,合同会社,東京都,品川区,東大井３丁目３番１２号,,13,109,1400011,,,,,,,2022-08-31,1,,,,,エムエイチワイ,0
570,3010803004268,新規,0,2022-08-31,2022-08-31,合同会社ウタ,,合同会社,東京都,大田区,田園調布本町３１番６号,,13,111,1450072,,,,,,,2022-08-31,1,,,,,ウタ,0
581,3010901051534,新規,0,2022-08-31,2022-08-31,日本藤川山本株式会社,,株式会社,東京都,世田谷区,世田谷１丁目４１番２号,,13,112,1540017,,,,,,,2022-08-31,1,,,,,ニホンフジカワヤマモト,0
582,3010905004364,新規,0,2022-08-31,2022-08-31,医療法人社団志心会,,その他の設立登記法人,東京都,世田谷区,成城５丁目１３番２３号成城五丁目メディカルセンター１－Ａ,,13,112,1570066,,,,,,,2022-08-31,1,,,,,シシンカイ,0
584,3011001149491,新規,0,2022-08-31,2022-08-31,八感創造株式会社,,株式会社,東京都,目黒区,自由が丘１丁目２２－３,,13,110,1520035,,,,,,,2022-08-31,1,,,,,ハチカンソウゾウ,0
585,3011001149500,新規,0,2022-08-31,2022-08-31,株式会社富友,,株式会社,東京都,目黒区,駒場１丁目１２番３１号セルディーナ駒場３０２,,13,110,1530041,,,,,,,2022-08-31,1,,,,,トミトモ,0
586,3011001149558,新規,0,2022-08-31,2022-08-31,ＳＤ　Ｇｏ株式会社,,株式会社,東京都,渋谷区,恵比寿西１丁目２－１エビスマンション５０２号,,13,113,1500021,,,,,,,2022-08-31,1,,,,,エスディーゴー,0
589,3011103012119,新規,0,2022-08-31,2022-08-31,Ｗｏｏｄ‐Ｍｉｚｅｒ　Ｊａｐａｎ合同会社,,合同会社,東京都,新宿区,西新宿１丁目２０番３号西新宿高木ビル８階,00127669,13,104,1600023,,,,,,,2022-08-31,1,,,,,ウッドマイザージャパン,0
597,3011801041220,新規,0,2022-08-31,2022-08-31,株式会社共進機工,,株式会社,東京都,葛飾区,南水元１丁目５番１７号,,13,122,1250035,,,,,,,2022-08-31,1,,,,,キョウシンキコウ,0
600,3012703002525,新規,0,2022-08-31,2022-08-31,トワイライト合同会社,,合同会社,東京都,東村山市,美住町２丁目９番地５９,,13,213,1890023,,,,,,,2022-08-31,1,,,,,トワイライト,0
601,3013301049578,新規,0,2022-08-31,2022-08-31,株式会社瑞嘉堂,,株式会社,東京都,豊島区,上池袋２丁目２８番５－１１０３号,,13,116,1700012,,,,,,,2022-08-31,1,,,,,ズイカドウ,0
602,3013301049586,新規,0,2022-08-31,2022-08-31,株式会社ＦＴプラン,,株式会社,東京都,豊島区,南大塚３丁目１７番６号南大塚Ｋ．Ｙビル５階,,13,116,1700005,,,,,,,2022-08-31,1,,,,,エフティープラン,0
605,3020001147983,新規,0,2022-08-31,2022-08-31,株式会社清輝不動産,,株式会社,神奈川県,横浜市中区,山下町１５５番地１４,,14,104,2310023,,,,,,,2022-08-31,1,,,,,セイキフドウサン,0
606,3020001147991,新規,0,2022-08-31,2022-08-31,Ｍｏｒｐｈ株式会社,,株式会社,神奈川県,川崎市幸区,鹿島田１丁目１番５号,,14,132,2120058,,,,,,,2022-08-31,1,,,,,モーフ,0
617,3030001149871,新規,0,2022-08-31,2022-08-31,株式会社Ｅ３,,株式会社,埼玉県,さいたま市大宮区,大成町１丁目２４８番地３第２村上ビル１階,,11,103,3300852,,,,,,,2022-08-31,1,,,,,イースリー,0
618,3030003020080,新規,0,2022-08-31,2022-08-31,ＢＡＭＢＯＯ合同会社,,合同会社,埼玉県,鴻巣市,鎌塚２丁目４－３山下邸１０１号室,,11,217,3690112,,,,,,,2022-08-31,1,,,,,バンボー,0
619,3030003020089,新規,0,2022-08-31,2022-08-31,ＪＫ　ＪＡＰＡＮ合同会社,,合同会社,埼玉県,鴻巣市,鎌塚２丁目４－３山下邸２０２,,11,217,3690112,,,,,,,2022-08-31,1,,,,,ジェイケイジャパン,0
625,3040003020724,新規,0,2022-08-31,2022-08-31,達誠合同会社,,合同会社,千葉県,松戸市,上矢切１１４８番地の８,,12,207,2710094,,,,,,,2022-08-31,1,,,,,タッセイ,0
628,3050001051596,新規,0,2022-08-31,2022-08-31,株式会社ウィズ動物病院,,株式会社,茨城県,牛久市,中央３丁目２６番地５,,08,219,3001234,,,,,,,2022-08-31,1,,,,,ウィズドウブツビョウイン,0
629,3050001051613,新規,0,2022-08-31,2022-08-31,ＮＥＵ株式会社,,株式会社,茨城県,結城郡八千代町,大字平塚３２７９番地３,,08,521,3003561,,,,,,,2022-08-31,1,,,,,ノイ,0
630,3050003006805,新規,0,2022-08-31,2022-08-31,合同会社大由建設工業,,合同会社,茨城県,下妻市,下妻丁３４０番地２,,08,210,3040068,,,,,,,2022-08-31,1,,,,,オオヨシケンセツコウギョウ,0
645,3110003004851,新規,0,2022-08-31,2022-08-31,合同会社森の三方よし,,合同会社,新潟県,中魚沼郡津南町,大字下船渡戊４９８－７,,15,482,9498201,,,,,,,2022-08-31,1,,,,,モリノサンポウヨシ,0
657,3120001248400,新規,0,2022-08-31,2022-08-31,参参慢株式会社,,株式会社,大阪府,大阪市城東区,中浜１丁目１７－１４センチュリー中浜１Ｄ,,27,118,5360024,,,,,,,2022-08-31,1,,,,,ジンジンマン,0
658,3120001248474,新規,0,2022-08-31,2022-08-31,ＴＯＭＯＴＯ株式会社,,株式会社,大阪府,大阪市平野区,喜連６丁目７番１９号１Ｆ,,27,126,5470027,,,,,,,2022-08-31,1,,,,,トモト,0
659,3120001248532,新規,0,2022-08-31,2022-08-31,株式会社ＭＩＲＡＲＣＨ,,株式会社,大阪府,大阪市中央区,宗右衛門町１番１２号,,27,128,5420084,,,,,,,2022-08-31,1,,,,,ミラーチ,0
661,3120003022357,新規,0,2022-08-31,2022-08-31,合同会社Ｉｎｉｔｉａｌ,,合同会社,大阪府,大阪市北区,本庄西１丁目６番２６号中井ビル２階,,27,127,5310073,,,,,,,2022-08-31,1,,,,,イニシャル,0
662,3120003022373,新規,0,2022-08-31,2022-08-31,ＳＧ合同会社,,合同会社,大阪府,大阪市西淀川区,野里２丁目２３番１９号レジデンス野里３０８号室,,27,113,5550024,,,,,,,2022-08-31,1,,,,,エスジー,0
667,3120901046408,新規,0,2022-08-31,2022-08-31,株式会社Ｂｅｔｅ　ａ　ｂｏｎ　Ｄｉｅｕ,,株式会社,大阪府,茨木市,耳原３丁目９番１７号の５,,27,211,5670006,,,,,,,2022-08-31,1,,,,,ベットアボンデュー,0
671,3122003002413,新規,0,2022-08-31,2022-08-31,合同会社ベストパートナーズ,,合同会社,大阪府,大東市,三箇２丁目１番１４号,,27,218,5740077,,,,,,,2022-08-31,1,,,,,ベストパートナーズ,0
689,3140001127222,新規,0,2022-08-31,2022-08-31,近畿ガーデン株式会社,,株式会社,兵庫県,神戸市灘区,天城通１丁目５番１０号,,28,102,6570823,,,,,,,2022-08-31,1,,,,,キンキガーデン,0
692,3160001024475,新規,0,2022-08-31,2022-08-31,株式会社カリス,,株式会社,滋賀県,大津市,本堅田６丁目２６番３号,,25,201,5200242,,,,,,,2022-08-31,1,,,,,カリス,0
702,3180003024166,新規,0,2022-08-31,2022-08-31,合同会社ＫＪＲ,,合同会社,愛知県,一宮市,定水寺字郷内５８番地２,,23,203,4910004,,,,,,,2022-08-31,1,,,,,ケイジェイアール,0
703,3180003024199,新規,0,2022-08-31,2022-08-31,合同会社ａｓｓｅｔ,,合同会社,愛知県,名古屋市千種区,宮根台２丁目１２番３号,,23,101,4640008,,,,,,,2022-08-31,1,,,,,アセット,0
708,3200001040402,新規,0,2022-08-31,2022-08-31,株式会社フルサワ板金,,株式会社,岐阜県,大垣市,東前４丁目１番地５,,21,202,5030835,,,,,,,2022-08-31,1,,,,,フルサワバンキン,0
718,3240001060280,新規,0,2022-08-31,2022-08-31,株式会社祥縁美総,,株式会社,広島県,東広島市,西条町寺家５５９９番地の１,,34,212,7390041,,,,,,,2022-08-31,1,,,,,ショウエンビソウ,0
719,3240001060289,新規,0,2022-08-31,2022-08-31,Ｋ＆Ｋ株式会社,,株式会社,広島県,広島市中区,国泰寺町１丁目７番２８－７０６号,,34,101,7300042,,,,,,,2022-08-31,1,,,,,ケーアンドケー,0
723,3260001037194,新規,0,2022-08-31,2022-08-31,株式会社クラフトラボヨコミ,,株式会社,岡山県,岡山市南区,東畦５３２番地９,,33,104,7010211,,,,,,,2022-08-31,1,,,,,クラフトラボヨコミ,0
727,3290001098721,新規,0,2022-08-31,2022-08-31,株式会社ＰＬＣ,,株式会社,福岡県,福岡市博多区,博多駅前３丁目７番３５号博多ハイテックビル５０５,,40,132,8120011,,,,,,,2022-08-31,1,,,,,ピーエルシー,0
728,3290001098738,新規,0,2022-08-31,2022-08-31,株式会社太綱重設,,株式会社,福岡県,福岡市東区,塩浜１丁目１０番１２－３０３号,,40,131,8110203,,,,,,,2022-08-31,1,,,,,タヅナジュウセツ,0
729,3290003012894,新規,0,2022-08-31,2022-08-31,合同会社ＭＡＩＴＡＮＯ,,合同会社,福岡県,福岡市南区,大楠３丁目７番２４‐３０３号,,40,134,8150082,,,,,,,2022-08-31,1,,,,,マイタノ,0
736,3290803004190,新規,0,2022-08-31,2022-08-31,合同会社Ｓ・Ｓｏｕｎｄ　Ｃｒｅａｔｉｏｎ,,合同会社,福岡県,北九州市小倉北区,三郎丸２丁目１０番７－２０３号,,40,106,8020061,,,,,,,2022-08-31,1,,,,,エスサウンドクリエーション,0
742,3360001030890,新規,0,2022-08-31,2022-08-31,株式会社ＴＩ‐ＤＡ,,株式会社,沖縄県,那覇市,繁多川２丁目１７番３２号コーポみどり３０２号室,,47,201,9020071,,,,,,,2022-08-31,1,,,,,ティーダ,0
751,3380001033082,新規,0,2022-08-31,2022-08-31,株式会社サンエイト,,株式会社,福島県,郡山市,安積町成田字田向４５番地の２６６,,07,203,9630112,,,,,,,2022-08-31,1,,,,,サンエイト,0
757,3430001087395,新規,0,2022-08-31,2022-08-31,株式会社ＳＨＡＣＨＩ　ＧＲＯＵＰ,,株式会社,北海道,札幌市中央区,南六条西３丁目６番地２３第８桂和ビル,,01,101,0640806,,,,,,,2022-08-31,1,,,,,シャチグループ,0
776,4010001229063,新規,0,2022-08-31,2022-08-31,株式会社ＡＯＺＵ,,株式会社,東京都,千代田区,岩本町１丁目２番１１号渡東ビルディングアネックス,,13,101,1010032,,,,,,,2022-08-31,1,,,,,アオズ,0
777,4010001229121,新規,0,2022-08-31,2022-08-31,株式会社田中モータース,,株式会社,東京都,千代田区,神田東松下町２５番地,,13,101,1010042,,,,,,,2022-08-31,1,,,,,タナカモータース,0
791,4010401169347,新規,0,2022-08-31,2022-08-31,Ｐｉｇ＆Ｃｏｍｐａｎｙ株式会社,,株式会社,東京都,港区,白金台５丁目５番７－１０１号,,13,103,1080071,,,,,,,2022-08-31,1,,,,,ピッグアンドカンパニー,0
792,4010401169413,新規,0,2022-08-31,2022-08-31,＿伽日本株式会社,00127671,株式会社,東京都,港区,新橋６丁目１９番１３号ＷｅＷｏｒｋ新橋０２－１１１,,13,103,1050004,,,,,,,2022-08-31,1,,,,,メガロボニホン,0
793,4010401169421,新規,0,2022-08-31,2022-08-31,株式会社ＰＯＮＴＩＳ,,株式会社,東京都,港区,新橋５丁目２５番２号,,13,103,1050004,,,,,,,2022-08-31,1,,,,,ポンティス,0
795,4010403028278,新規,0,2022-08-31,2022-08-31,合同会社ＳＡＫＵＲＡ,,合同会社,東京都,港区,南青山２丁目２番１５号,,13,103,1070062,,,,,,,2022-08-31,1,,,,,サクラ,0
796,4010403028377,新規,0,2022-08-31,2022-08-31,エレメンツ合同会社,,合同会社,東京都,港区,三田１丁目１０番６－８０６号,,13,103,1080073,,,,,,,2022-08-31,1,,,,,エレメンツ,0
798,4010501049300,新規,0,2022-08-31,2022-08-31,株式会社ヒューマンスターク,,株式会社,東京都,台東区,西浅草１丁目５番１１号京成菊屋橋ビル４０５号室,,13,106,1110035,,,,,,,2022-08-31,1,,,,,ヒューマンスターク,0
805,4010801033235,新規,0,2022-08-31,2022-08-31,株式会社Ｋ・Ｍ・Ｄ,,株式会社,東京都,大田区,西糀谷２丁目６番２号,,13,111,1440034,,,,,,,2022-08-31,1,,,,,ケーエムディー,0
807,4010901051517,新規,0,2022-08-31,2022-08-31,株式会社フリーダム＆ラフ,,株式会社,東京都,世田谷区,代田３丁目２８番１２号,,13,112,1550033,,,,,,,2022-08-31,1,,,,,フリーダムアンドラフ,0
808,4010901051525,新規,0,2022-08-31,2022-08-31,株式会社Ｓｈｕｃｒａｎ,,株式会社,東京都,世田谷区,松原６丁目６番８－３０５号,,13,112,1560043,,,,,,,2022-08-31,1,,,,,シュクラン,0
817,4011001149474,新規,0,2022-08-31,2022-08-31,株式会社ラッシュ・ツリーズ,,株式会社,東京都,渋谷区,渋谷１丁目７番１号渋谷Ｓ－６ビル２Ｆ,,13,113,1500002,,,,,,,2022-08-31,1,,,,,ラッシュツリーズ,0
818,4011001149508,新規,0,2022-08-31,2022-08-31,株式会社ＣｈｏｃｏＢｉｓ,,株式会社,東京都,渋谷区,渋谷２丁目１９番１５号宮益坂ビルディング６０９,,13,113,1500002,,,,,,,2022-08-31,1,,,,,チョコビス,0
819,4011001149516,新規,0,2022-08-31,2022-08-31,株式会社ＥＭＢＲＡＣＥ,,株式会社,東京都,渋谷区,渋谷２丁目１９番１５宮益坂ビルディング６０９,,13,113,1500002,,,,,,,2022-08-31,1,,,,,エンブレイス,0
824,4011101100015,新規,0,2022-08-31,2022-08-31,株式会社Ｌｏｙａｌｔｙ,,株式会社,東京都,新宿区,大久保１丁目１番３８号ＧＬＯＵ東新宿３０１,,13,104,1690072,,,,,,,2022-08-31,1,,,,,ロイヤルティ,0
837,4011703003243,新規,0,2022-08-31,2022-08-31,合同会社角田,,合同会社,東京都,江戸川区,東葛西４丁目２３番２号メゾンエイムＮＯ．１・１０１,,13,123,1340084,,,,,,,2022-08-31,1,,,,,カクタ,0
840,4011801041211,新規,0,2022-08-31,2022-08-31,株式会社宮本電気,,株式会社,東京都,葛飾区,小菅２丁目２１番１８－７０１号,,13,122,1240001,,,,,,,2022-08-31,1,,,,,ミヤモトデンキ,0
842,4011803005239,新規,0,2022-08-31,2022-08-31,ビオセルゴン合同会社,,合同会社,東京都,葛飾区,新小岩３丁目１６番８号,,13,122,1240024,,,,,,,2022-08-31,1,,,,,ビオセルゴン,0
845,4012401039579,新規,0,2022-08-31,2022-08-31,株式会社清水住建,,株式会社,東京都,多摩市,桜ヶ丘３丁目９番地の９,,13,224,2060013,,,,,,,2022-08-31,1,,,,,シミズジュウケン,0
846,4012401039587,新規,0,2022-08-31,2022-08-31,株式会社エンフィールド,,株式会社,東京都,府中市,緑町１丁目９番２号,,13,206,1830006,,,,,,,2022-08-31,1,,,,,エンフィールド,0
849,4012801021806,新規,0,2022-08-31,2022-08-31,株式会社ハピネス,,株式会社,東京都,東大和市,湖畔１丁目９０９番地の２,,13,220,2070002,,,,,,,2022-08-31,1,,,,,ハピネス,0
855,4013303006279,新規,0,2022-08-31,2022-08-31,合同会社ｆｒｏｎｔｉｅｒ,,合同会社,東京都,豊島区,南大塚２丁目１１－１０ミモザビル３階,,13,116,1700005,,,,,,,2022-08-31,1,,,,,フロンティア,0
866,4020001147974,新規,0,2022-08-31,2022-08-31,株式会社ＰＳＶａｌｕｅ,,株式会社,神奈川県,川崎市宮前区,有馬１丁目１４－１１,,14,136,2160003,,,,,,,2022-08-31,1,,,,,ピーエスバリュー,0
874,4030001149862,新規,0,2022-08-31,2022-08-31,株式会社ＦＴＳ,,株式会社,埼玉県,川口市,緑町８番４号,,11,203,3320027,,,,,,,2022-08-31,1,,,,,エフティーエス,0
878,4040001124773,新規,0,2022-08-31,2022-08-31,株式会社テクノ・ワーカー,,株式会社,千葉県,四街道市,大日５７９,,12,228,2840001,,,,,,,2022-08-31,1,,,,,テクノワーカー,0
879,4040001124848,新規,0,2022-08-31,2022-08-31,株式会社ＬＣ＆Ｆ,,株式会社,千葉県,市川市,富浜２丁目１４番４ヴァンティアン４０１,,12,203,2720115,,,,,,,2022-08-31,1,,,,,エルシーアンドエフ,0
880,4040001124880,新規,0,2022-08-31,2022-08-31,株式会社ＥＮＳＨＩＮ,,株式会社,千葉県,君津市,北子安６丁目２番３１号,,12,225,2991161,,,,,,,2022-08-31,1,,,,,,0
882,4050001051604,新規,0,2022-08-31,2022-08-31,紫峰商事株式会社,,株式会社,茨城県,牛久市,田宮町１０８４番地７０,,08,219,3001236,,,,,,,2022-08-31,1,,,,,シホウショウジ,0
888,4070001039580,新規,0,2022-08-31,2022-08-31,株式会社ｐｌｕｓＲｅｙ,,株式会社,群馬県,みどり市,笠懸町鹿４２７１番地８,,10,212,3792313,,,,,,,2022-08-31,1,,,,,プラスレイ,0
889,4080001025159,新規,0,2022-08-31,2022-08-31,株式会社オフィス・エー,,株式会社,静岡県,静岡市駿河区,大谷２７８５番地の６２,,22,102,4228017,,,,,,,2022-08-31,1,,,,,オフィスエー,0
893,4090001017758,新規,0,2022-08-31,2022-08-31,株式会社Ｒ’ｓ　Ｃｏｍｐａｎｙ,,株式会社,山梨県,甲府市,飯田５丁目５－２７Ｂ１Ｆ,,19,201,4000035,,,,,,,2022-08-31,1,,,,,アールズカンパニー,0
896,4100003006674,新規,0,2022-08-31,2022-08-31,合同会社くましろライフサポート,,合同会社,長野県,飯田市,主税町１８番地,,20,205,3950032,,,,,,,2022-08-31,1,,,,,クマシロライフサポート,0
907,4120001248473,新規,0,2022-08-31,2022-08-31,株式会社Ｔ‐ｔｈｒｅｅ,,株式会社,大阪府,大阪市生野区,舎利寺１丁目６番１７号,,27,116,5440022,,,,,,,2022-08-31,1,,,,,ティースリー,0
916,4120003022356,新規,0,2022-08-31,2022-08-31,合同会社ゲラゲラ,,合同会社,大阪府,枚方市,黄金野２丁目２７番１号,,27,210,5731145,,,,,,,2022-08-31,1,,,,,ゲラゲラ,0
917,4120003022372,新規,0,2022-08-31,2022-08-31,ＴＭＴ合同会社,,合同会社,大阪府,大阪市西淀川区,姫島５丁目８番１２号,,27,113,5550033,,,,,,,2022-08-31,1,,,,,ティーエムティー,0
918,4120101066156,新規,0,2022-08-31,2022-08-31,ＳＥＡＬＢＡＮＫ　Ｃｏｍｍｕｎｉｃａｔｉｏｎｓ株式会社,,株式会社,大阪府,堺市南区,岩室１４２番地１１,,27,145,5900112,,,,,,,2022-08-31,1,,,,,セアルバンクコミュニケーションズ,0
919,4120101066164,新規,0,2022-08-31,2022-08-31,株式会社藤商事,,株式会社,大阪府,羽曳野市,野７番地２,,27,222,5830884,,,,,,,2022-08-31,1,,,,,フジショウジ,0
921,4120901046415,新規,0,2022-08-31,2022-08-31,株式会社ＨＵＧＵＳ,,株式会社,大阪府,吹田市,垂水町２丁目２０－３７,,27,205,5640062,,,,,,,2022-08-31,1,,,,,ハグス,0
939,4140001127213,新規,0,2022-08-31,2022-08-31,株式会社パワフルポスト加古川,,株式会社,兵庫県,加古川市,加古川町粟津１１０７番地,,28,210,6750039,,,,,,,2022-08-31,1,,,,,パワフルポストカコガワ,0
942,4160001024474,新規,0,2022-08-31,2022-08-31,アレスグーテ株式会社,,株式会社,滋賀県,近江八幡市,安土町常楽寺１２４番地１０,,25,204,5211351,,,,,,,2022-08-31,1,,,,,アレスグーテ,0
946,4180001152595,新規,0,2022-08-31,2022-08-31,六感株式会社,,株式会社,愛知県,名古屋市中村区,八社２丁目１１２番地ラ・ルーチェ１０３号室,,23,105,4530863,,,,,,,2022-08-31,1,,,,,ロッカン,0
960,4250001019746,新規,0,2022-08-31,2022-08-31,株式会社Ａｌｌ　Ｌｕｃｋ,,株式会社,山口県,防府市,千日２丁目１６番７－３号,,35,206,7470046,,,,,,,2022-08-31,1,,,,,オールラック,0
963,4260001037185,新規,0,2022-08-31,2022-08-31,株式会社藤巻商事,,株式会社,岡山県,赤磐市,沢原８４５番地４,,33,213,7090704,,,,,,,2022-08-31,1,,,,,フジマキショウジ,0
964,4260001037193,新規,0,2022-08-31,2022-08-31,株式会社いずみ,,株式会社,岡山県,岡山市南区,福成２丁目３番４０－５号,,33,104,7028022,,,,,,,2022-08-31,1,,,,,イズミ,0
969,4290001098745,新規,0,2022-08-31,2022-08-31,ＩＲＥＴＨ株式会社,,株式会社,福岡県,福岡市南区,市崎１丁目１６番２７号,,40,134,8150084,,,,,,,2022-08-31,1,,,,,アイレス,0
971,4290003012893,新規,0,2022-08-31,2022-08-31,合同会社ＡＬＢＡ,,合同会社,福岡県,大牟田市,大字手鎌５５３番地３ホワイトビレッジ手鎌ＩＩ１０２号,00127668,40,202,8360004,,,,,,,2022-08-31,1,,,,,アルバ,0
988,4360001030873,新規,0,2022-08-31,2022-08-31,株式会社Ｓｍａｒｔ　Ｓｅｃｕｒｉｔｙ,,株式会社,沖縄県,宜野湾市,伊佐３丁目２９番２７号マンションオアシス２Ｆ,,47,205,9012221,,,,,,,2022-08-31,1,,,,,スマートセキュリティ,0
999,4380001033073,新規,0,2022-08-31,2022-08-31,株式会社いわき管材,,株式会社,福島県,いわき市,平豊間字洞１９７番地,,07,204,9700224,,,,,,,2022-08-31,1,,,,,イワキカンザイ,0
1000,4380001033081,新規,0,2022-08-31,2022-08-31,リンクスイノベーション株式会社,,株式会社,福島県,西白河郡矢吹町,田町４７１番地１３,,07,466,9690227,,,,,,,2022-08-31,1,,,,,リンクスイノベーション,0
1003,4410005006484,新規,0,2022-08-31,2022-08-31,農事組合法人すずしろファーム,,その他の設立登記法人,秋田県,秋田市,四ツ小屋字城下当場２７番地１,,05,201,0101417,,,,,,,2022-08-31,1,,,,,スズシロファーム,0
1011,4450003002242,新規,0,2022-08-31,2022-08-31,合同会社Ｓｈｉｍｏｍｕｒａ　ＬＬＣ．,,合同会社,北海道,旭川市,神居三条１３丁目１番１１号,,01,204,0708013,,,,,,,2022-08-31,1,,,,,シモムラエルエルシー,0
1020,4500001024431,新規,0,2022-08-31,2022-08-31,株式会社テンフォー,,株式会社,愛媛県,松山市,中村４丁目１２番２５号,,38,201,7900964,,,,,,,2022-08-31,1,,,,,テンフォー,0
1040,5010001229054,新規,0,2022-08-31,2022-08-31,Ｃｕｌｍｉｎｏ株式会社,,株式会社,東京都,中央区,日本橋小舟町９番３号,,13,102,1030024,,,,,,,2022-08-31,1,,,,,クルミノ,0
1041,5010001229062,新規,0,2022-08-31,2022-08-31,ＭＳＤ企業投資四号株式会社,,株式会社,東京都,千代田区,大手町１丁目９番２号,,13,101,1000004,,,,,,,2022-08-31,1,,,,,エムエスディーキギョウトウシヨンゴウ,0
1042,5010001229137,新規,0,2022-08-31,2022-08-31,株式会社ＫＥＩＫＡ,,株式会社,東京都,中央区,銀座７丁目５番４号毛利ビル５階,,13,102,1040061,,,,,,,2022-08-31,1,,,,,ケイカ,0
1043,5010001229161,新規,0,2022-08-31,2022-08-31,株式会社スマイルクリーン,,株式会社,東京都,中央区,勝どき６丁目３－２－２５０１,,13,102,1040054,,,,,,,2022-08-31,1,,,,,スマイルクリーン,0
1048,5010003038544,新規,0,2022-08-31,2022-08-31,日本茶生活合同会社,,合同会社,東京都,中央区,日本橋蛎殻町１丁目２６－４今井ビル５Ａ,,13,102,1030014,,,,,,,2022-08-31,1,,,,,ニホンチャセイカツ,0
1057,5010401169338,新規,0,2022-08-31,2022-08-31,株式会社まねなび,,株式会社,東京都,港区,北青山２丁目７番２０号猪瀬ビル２Ｆ,,13,103,1070061,,,,,,,2022-08-31,1,,,,,マネナビ,0
1058,5010401169420,新規,0,2022-08-31,2022-08-31,ＥＲ２５株式会社,,株式会社,東京都,港区,六本木１丁目６番１号,,13,103,1060032,,,,,,,2022-08-31,1,,,,,イーアールトゥエンティーファイブ,0
1059,5010401169429,新規,0,2022-08-31,2022-08-31,ＷＯＬＴＥＣＨ株式会社,,株式会社,東京都,港区,西麻布２丁目７番２号,,13,103,1060031,,,,,,,2022-08-31,1,,,,,ウォルテック,0
1061,5010503006703,新規,0,2022-08-31,2022-08-31,合同会社Ｍｉｒａｃｌｅ　Ｏｎｅ,,合同会社,東京都,台東区,上野６丁目１－６御徒町グリーンハイツ８０５,,13,106,1100005,,,,,,,2022-08-31,1,,,,,ミラクルワン,0
1062,5010601061765,新規,0,2022-08-31,2022-08-31,株式会社エミューズ,,株式会社,東京都,江東区,亀戸６丁目３１番２－１８２１号,,13,108,1360071,,,,,,,2022-08-31,1,,,,,エミューズ,0
1064,5010603009696,新規,0,2022-08-31,2022-08-31,ＳＯＭ合同会社,,合同会社,東京都,江東区,扇橋２丁目２０番３－１０１号,,13,108,1350011,,,,,,,2022-08-31,1,,,,,ソム,0
1065,5010605004118,新規,0,2022-08-31,2022-08-31,ピーピーエフエー・ジャパン・ナイン特定目的会社,,その他の設立登記法人,東京都,江東区,亀戸６丁目５６番１５号,,13,108,1360071,,,,,,,2022-08-31,1,,,,,ピーピーエフエージャパンナイン,0
1066,5010701043135,新規,0,2022-08-31,2022-08-31,ＳｕｎｎｙＶａｌｌｅｙ株式会社,,株式会社,東京都,品川区,西品川１丁目１－１住友不動産大崎ガーデンタワー９階ＴＯＮＮＥＬＴＯＫＹＯ内,,13,109,1410033,,,,,,,2022-08-31,1,,,,,サニーバレー,0
1070,5010901051524,新規,0,2022-08-31,2022-08-31,株式会社ＹＡＭＡＫＩ,,株式会社,東京都,世田谷区,世田谷４丁目５番４号ゼスティー松陰神社ＩＩ２０３,00127675,13,112,1540017,,,,,,,2022-08-31,1,,,,,ヤマキ,0
1072,5010903007607,新規,0,2022-08-31,2022-08-31,合同会社阪本事務所,,合同会社,東京都,世田谷区,上用賀５丁目９番１９号,,13,112,1580098,,,,,,,2022-08-31,1,,,,,サカモトジムショ,0
1082,5011001149085,新規,0,2022-08-31,2022-08-31,株式会社ＢＡＳＡ,,株式会社,東京都,渋谷区,神宮前６丁目２８番９号東武ビル５０３,,13,113,1500001,,,,,,,2022-08-31,1,,,,,バサ,0
1083,5011001149531,新規,0,2022-08-31,2022-08-31,株式会社ＳＴＡＲＬＩＮＫ,,株式会社,東京都,渋谷区,渋谷３丁目２７番１１号祐真ビル本館６Ｆ,,13,113,1500002,,,,,,,2022-08-31,1,,,,,スターリンク,0
1085,5011003015285,新規,0,2022-08-31,2022-08-31,合同会社ＧＥＯ　ＰＯＷＥＲ　ＪＡＰＡＮ,,合同会社,東京都,渋谷区,渋谷１丁目１番６号エムエフ青山ビル６０４,,13,113,1500002,,,,,,,2022-08-31,1,,,,,ジオパワージャパン,0
1087,5011005009707,新規,0,2022-08-31,2022-08-31,一般財団法人ＷＡＶＥ,,その他の設立登記法人,東京都,目黒区,碑文谷１丁目２４番１４－８０１号パーク・ハイム目黒碑文谷,,13,110,1520003,,,,,,,2022-08-31,1,,,,,ウェイブ,0
1095,5011303004491,新規,0,2022-08-31,2022-08-31,合同会社サムウェアインプロダクション,,合同会社,東京都,杉並区,下高井戸４丁目４２－１５浜田山テラス１０１,,13,115,1680073,,,,,,,2022-08-31,1,,,,,サムウェアインプロダクション,0
1100,5011801041210,新規,0,2022-08-31,2022-08-31,株式会社ｖｅｒｔｅｘ,,株式会社,東京都,足立区,千住河原町１９番９－２０１号室,,13,121,1200037,,,,,,,2022-08-31,1,,,,,バーテックス,0
1101,5011801041219,新規,0,2022-08-31,2022-08-31,ＰＬｉＢＯＴ株式会社,,株式会社,東京都,葛飾区,青戸３丁目２番２号,,13,122,1250062,,,,,,,2022-08-31,1,,,,,プライボット,0
1103,5011803005205,新規,0,2022-08-31,2022-08-31,合同会社ＡＬＧＯ,,合同会社,東京都,葛飾区,新宿１丁目１４－４,,13,122,1250051,,,,,,,2022-08-31,1,,,,,アルゴ,0
1108,5012803002869,新規,0,2022-08-31,2022-08-31,合同会社ＳＴＧｓ,,合同会社,東京都,昭島市,昭和町１丁目３番３３号,,13,207,1960015,,,,,,,2022-08-31,1,,,,,エスティージーズ,0
1112,5013301049584,新規,0,2022-08-31,2022-08-31,株式会社はやしだ,,株式会社,東京都,豊島区,池袋２丁目３８番２号,,13,116,1710014,,,,,,,2022-08-31,1,,,,,ハヤシダ,0
1114,5013303006278,新規,0,2022-08-31,2022-08-31,Ｇｂｏｙｓ合同会社,,合同会社,東京都,豊島区,池袋本町１丁目７－１０－１１０１,,13,116,1700011,,,,,,,2022-08-31,1,,,,,ジーボーイズ,0
1123,5020001147809,新規,0,2022-08-31,2022-08-31,ｈａｂ株式会社,,株式会社,神奈川県,川崎市宮前区,小台１丁目６番地３ネイバーズ鷺沼３２７,,14,136,2160007,,,,,,,2022-08-31,1,,,,,ハブ,0
1124,5020001148006,新規,0,2022-08-31,2022-08-31,グランツプラスホールディングス株式会社,,株式会社,神奈川県,横浜市旭区,白根２丁目２１番８号,,14,112,2410005,,,,,,,2022-08-31,1,,,,,グランツプラスホールディングス,0
1128,5021001076865,新規,0,2022-08-31,2022-08-31,株式会社ビーカインド,,株式会社,神奈川県,大和市,福田２丁目５番地１９藤岡第６ビル２０２号室,,14,213,2420024,,,,,,,2022-08-31,1,,,,,ビーカインド,0
1137,5030001149861,新規,0,2022-08-31,2022-08-31,株式会社狩野,,株式会社,埼玉県,さいたま市浦和区,北浦和１丁目６番１号,,11,107,3300074,,,,,,,2022-08-31,1,,,,,カノ,0
1138,5030003020104,新規,0,2022-08-31,2022-08-31,合同会社みのり,,合同会社,埼玉県,戸田市,本町５丁目２番２０－２０３号,,11,224,3350023,,,,,,,2022-08-31,1,,,,,ミノリ,0
1167,5120001248472,新規,0,2022-08-31,2022-08-31,晟桐株式会社,,株式会社,大阪府,大阪市淀川区,田川北２丁目５－３４・Ｅ棟３０１号室,,27,123,5320021,,,,,,,2022-08-31,1,,,,,セイドウ,0
1168,5120001248480,新規,0,2022-08-31,2022-08-31,株式会社吉川産業,,株式会社,大阪府,大阪市北区,長柄中３丁目６―１８セレッソコート梅田東５０３号室,,27,127,5310062,,,,,,,2022-08-31,1,,,,,ヨシカワサンギョウ,0
1172,5120003022371,新規,0,2022-08-31,2022-08-31,合同会社Ｇｏｌｄ　Ｓｔａｒ,,合同会社,大阪府,大阪市生野区,小路東４丁目３番２８号ＳＯＨＯ小路４０１号室,,27,116,5440003,,,,,,,2022-08-31,1,,,,,ゴールドスター,0
1175,5120005023161,新規,0,2022-08-31,2022-08-31,一般社団法人Ｓｕｎ　Ｖｉｌｌａｇｅ,,その他の設立登記法人,大阪府,大阪市平野区,平野西５丁目１番１号,,27,126,5470033,,,,,,,2022-08-31,1,,,,,サンヴィレッジ,0
1179,5120103004831,新規,0,2022-08-31,2022-08-31,Ｓｈａｈ　ｔｒａｄｉｎｇ合同会社,,合同会社,大阪府,和泉市,池上町２８７番地の１（エクセレート池上２０５）,,27,219,5940083,,,,,,,2022-08-31,1,,,,,シャートレーディング,0
1183,5120901046406,新規,0,2022-08-31,2022-08-31,株式会社ｏｈａＬａｂ．,,株式会社,大阪府,豊中市,庄内西町２丁目２２番３８号４階,,27,203,5610832,,,,,,,2022-08-31,1,,,,,オハラボ,0
1184,5120901046422,新規,0,2022-08-31,2022-08-31,株式会社Ｋ．フューチャー,,株式会社,大阪府,箕面市,粟生間谷東７丁目１８番１７号,,27,220,5620022,,,,,,,2022-08-31,1,,,,,ケイフューチャー,0
1201,5130005016560,新規,0,2022-08-31,2022-08-31,一般財団法人日伸会ビハーラ医療福祉機構,,その他の設立登記法人,京都府,城陽市,奈島下ノ畔３番地の３,,26,207,6100116,,,,,,,2022-08-31,1,,,,,ニッシンカイビハーライリョウフクシキコウ,0
1204,5140001127229,新規,0,2022-08-31,2022-08-31,株式会社セッション,,株式会社,兵庫県,神戸市垂水区,西舞子７丁目１６番４号,,28,108,6550048,,,,,,,2022-08-31,1,,,,,セッション,0
1211,5160001024473,新規,0,2022-08-31,2022-08-31,株式会社サンレート,,株式会社,滋賀県,彦根市,河原２丁目８番１０号ＭＫビル４０２号室,,25,202,5220083,,,,,,,2022-08-31,1,,,,,サンレート,0
1212,5170001017253,新規,0,2022-08-31,2022-08-31,株式会社わかやま健康ｓｔｙｌｅ,,株式会社,和歌山県,和歌山市,福島２７番地４,,30,201,6408401,,,,,,,2022-08-31,1,,,,,ワカヤマケンコウスタイル,0
1215,5180001152784,新規,0,2022-08-31,2022-08-31,株式会社Ｇｒｏｗ　Ｓｉｄｅ,,株式会社,愛知県,名古屋市西区,名駅２丁目３４番１７号セントラル名古屋１１０１号,,23,104,4510045,,,,,,,2022-08-31,1,,,,,グロウサイド,0
1224,5200001040400,新規,0,2022-08-31,2022-08-31,株式会社ＷＯＷ,,株式会社,岐阜県,瑞穂市,馬場前畑町１丁目８７番地,,21,216,5010202,,,,,,,2022-08-31,1,,,,,ダブルオーダブル,0
1239,5260003004018,新規,0,2022-08-31,2022-08-31,合同会社えん,,合同会社,岡山県,岡山市北区,平野６２２番地８ＷＯＲＫＳＰＡＣＥＩＩ２Ｊ号室,00127670,33,101,7010151,,,,,,,2022-08-31,1,,,,,エン,0
1247,5290003012901,新規,0,2022-08-31,2022-08-31,合同会社Ｆｏｒｅｖｅｒ　Ｂｒｉｄｇｅ,,合同会社,福岡県,福岡市早良区,曙２丁目１１番２９号,,40,137,8140004,,,,,,,2022-08-31,1,,,,,ファーエバーブリッヂ,0
1248,5290801028850,新規,0,2022-08-31,2022-08-31,株式会社ＯＮ　Ｔｅｌｅｃｏｍ,,株式会社,福岡県,北九州市八幡西区,穴生１丁目１４番５－１０２３号,,40,109,8060049,,,,,,,2022-08-31,1,,,,,オンテレコム,0
1249,5290803004189,新規,0,2022-08-31,2022-08-31,合同会社ウィステリア,,合同会社,福岡県,北九州市小倉北区,中井１丁目１番２１号,,40,106,8030836,,,,,,,2022-08-31,1,,,,,ウィステリア,0
1253,5330005010551,新規,0,2022-08-31,2022-08-31,ｃｉｅｌ社会保険労務士法人,,その他の設立登記法人,熊本県,熊本市北区,龍田３丁目３２番１８号,,43,105,8618006,,,,,,,2022-08-31,1,,,,,シエル,0
1256,5340005009493,新規,0,2022-08-31,2022-08-31,一般社団法人ワンシード・ステージ,,その他の設立登記法人,鹿児島県,鹿屋市,西原１丁目１６番２７号,,46,203,8930064,,,,,,,2022-08-31,1,,,,,ワンシードステージ,0
1260,5360001030872,新規,0,2022-08-31,2022-08-31,天成株式会社,,株式会社,沖縄県,那覇市,字国場９６３番地２玉アパート３０１室,,47,201,9020075,,,,,,,2022-08-31,1,,,,,テンセイ,0
1261,5360001030889,新規,0,2022-08-31,2022-08-31,Ｕｎｉｔｅｄ　Ｔｒａｄｉｎｇ　Ｓｅｒｖｉｃｅ株式会社,,株式会社,沖縄県,浦添市,内間４丁目５－３７－１Ｆ,,47,208,9012121,,,,,,,2022-08-31,1,,,,,ユナイテッドトレーディングサービス,0
1262,5360003012266,新規,0,2022-08-31,2022-08-31,合同会社Ａｉｎ,,合同会社,沖縄県,中頭郡西原町,字幸地３４３番地１－２０３,,47,329,9030116,,,,,,,2022-08-31,1,,,,,エイン,0
1266,5380005012618,新規,0,2022-08-31,2022-08-31,一般社団法人大熊未来塾,,その他の設立登記法人,福島県,双葉郡大熊町,大字熊川字久麻川８０番地,,07,545,9791303,,,,,,,2022-08-31,1,,,,,オオクマミライジュク,0
1270,5420001017987,新規,0,2022-08-31,2022-08-31,株式会社新選組,,株式会社,青森県,八戸市,大字白銀町字久保下１９番地１３,,02,203,0310822,,,,,,,2022-08-31,1,,,,,シンセングミ,0
1275,5430001087377,新規,0,2022-08-31,2022-08-31,株式会社ＨＡＬＩＡＲＴ,,株式会社,北海道,札幌市白石区,南郷通２０丁目北１番３２－３０３号,,01,104,0030023,,,,,,,2022-08-31,1,,,,,ハリアート,0
1276,5430001087393,新規,0,2022-08-31,2022-08-31,株式会社訳ありストア北の愛食,,株式会社,北海道,石狩市,花川北六条３丁目１８９番地１,,01,235,0613216,,,,,,,2022-08-31,1,,,,,ワケアリストアキタノアイショク,0
1278,5430003014230,新規,0,2022-08-31,2022-08-31,合同会社グランドライフ,,合同会社,北海道,小樽市,オタモイ３丁目２番７号,,01,203,0482671,,,,,,,2022-08-31,1,,,,,グランドライフ,0
1306,6010001229111,新規,0,2022-08-31,2022-08-31,株式会社Ｊトレーニング,,株式会社,東京都,中央区,日本橋小伝馬町１－７,,13,102,1030001,,,,,,,2022-08-31,1,,,,,ジェイトレーニング,0
1307,6010001229136,新規,0,2022-08-31,2022-08-31,株式会社Ｍａｔｃｈ,,株式会社,東京都,中央区,日本橋馬喰町１丁目１１番６号,,13,102,1030002,,,,,,,2022-08-31,1,,,,,マッチ,0
1308,6010001229160,新規,0,2022-08-31,2022-08-31,株式会社ａｎｄ４Ｃ,,株式会社,東京都,中央区,銀座１丁目１２番４号Ｎ＆ＥＢＬＤ．７階,,13,102,1040061,,,,,,,2022-08-31,1,,,,,アンドフォーシー,0
1310,6010003038527,新規,0,2022-08-31,2022-08-31,アトツギ合同会社,,合同会社,東京都,千代田区,九段南１丁目５番６号りそな九段ビル５階ＫＳフロア２９９５,,13,101,1020074,,,,,,,2022-08-31,1,,,,,アトツギ,0
1313,6010401169428,新規,0,2022-08-31,2022-08-31,株式会社貴龍,,株式会社,東京都,港区,西麻布４丁目１４番２４号,,13,103,1060031,,,,,,,2022-08-31,1,,,,,キリュウ,0
1314,6010403028350,新規,0,2022-08-31,2022-08-31,合同会社山崎屋,,合同会社,東京都,港区,六本木３丁目１５番１１号ホーマットウエスト３３０,,13,103,1060032,,,,,,,2022-08-31,1,,,,,ヤマザキヤ,0
1317,6010601061756,新規,0,2022-08-31,2022-08-31,株式会社飛将エンジニア,,株式会社,東京都,江東区,住吉２丁目１４番１６号１Ｆ,,13,108,1350002,,,,,,,2022-08-31,1,,,,,ヒショウエンジニア,0
1326,6010901051531,新規,0,2022-08-31,2022-08-31,シンゲツ株式会社,,株式会社,東京都,世田谷区,三軒茶屋１丁目７番１５号,,13,112,1540024,,,,,,,2022-08-31,1,,,,,シンゲツ,0
1329,6010903007606,新規,0,2022-08-31,2022-08-31,合同会社ＳＣＲＡＭＢＬＥ　ＦＩＬＭ,,合同会社,東京都,世田谷区,赤堤５丁目３２－４－２０２,,13,112,1560044,,,,,,,2022-08-31,1,,,,,スクランブルフィルム,0
1334,6011001149497,新規,0,2022-08-31,2022-08-31,株式会社ＬｏｏＰ,,株式会社,東京都,渋谷区,恵比寿２丁目２７番１０－１０４号ＺＯＯＭ広尾,,13,113,1500013,,,,,,,2022-08-31,1,,,,,ループ,0
1344,6011105010381,新規,0,2022-08-31,2022-08-31,税理士法人曽我Ｋ,,その他の設立登記法人,東京都,新宿区,高田馬場１丁目１７番１５号,,13,104,1690075,,,,,,,2022-08-31,1,,,,,ソガケイ,0
1352,6011801041218,新規,0,2022-08-31,2022-08-31,Ｆｉｖｅ．ｏ‐Ｏｎｅ株式会社,,株式会社,東京都,足立区,舎人２丁目１６番２８号,,13,121,1210831,,,,,,,2022-08-31,1,,,,,ファイブオーワン,0
1354,6012301013112,新規,0,2022-08-31,2022-08-31,株式会社エニマス,,株式会社,東京都,町田市,原町田４丁目１１番１３号,,13,209,1940013,,,,,,,2022-08-31,1,,,,,エニマス,0
1358,6012703002522,新規,0,2022-08-31,2022-08-31,Ｎ２プランニング合同会社,,合同会社,東京都,東村山市,秋津町３丁目４６番１７号,,13,213,1890001,,,,,,,2022-08-31,1,,,,,エヌツープランニング,0
1365,6013301049583,新規,0,2022-08-31,2022-08-31,株式会社ＮＡＮＩＫＩＲＵ,,株式会社,東京都,豊島区,上池袋３丁目３３－１６佐藤ビル１０１号,,13,116,1700012,,,,,,,2022-08-31,1,,,,,,0
1366,6013301049591,新規,0,2022-08-31,2022-08-31,株式会社Ａｍａｄａ,,株式会社,東京都,豊島区,西巣鴨１丁目１２－１ＴＯＫＹＯシティトリエ２２０１号,,13,116,1700001,,,,,,,2022-08-31,1,,,,,アマダ,0
1370,6020001011807,新規,0,2022-08-31,2022-08-31,トーア工業株式会社,,株式会社,神奈川県,横浜市青葉区,しらとり台１番地６,,14,117,2270054,,,,,,,2022-08-31,1,,,,,トーアコウギョウ,0
1376,6020003022315,新規,0,2022-08-31,2022-08-31,合同会社パルフェ,,合同会社,神奈川県,横浜市栄区,桂台東７番地４－２０４,,14,115,2470032,,,,,,,2022-08-31,1,,,,,パルフェ,0
1380,6021001076880,新規,0,2022-08-31,2022-08-31,千歳商事株式会社,,株式会社,神奈川県,愛甲郡愛川町,中津１８０４番地の７,,14,401,2430303,,,,,,,2022-08-31,1,,,,,チトセショウジ,0
1385,6021003012074,新規,0,2022-08-31,2022-08-31,合同会社磯部会計事務所,,合同会社,神奈川県,鎌倉市,岩瀬７２６番地テラスアメニティーＥ１,,14,204,2470051,,,,,,,2022-08-31,1,,,,,イソベカイケイジムショ,0
1388,6030003020086,新規,0,2022-08-31,2022-08-31,ムラサキ‐イタリア合同会社,,合同会社,埼玉県,草加市,青柳２丁目７番４０号,,11,221,3400002,,,,,,,2022-08-31,1,,,,,ムラサキイタリア,0
1389,6030003020103,新規,0,2022-08-31,2022-08-31,合同会社ラックインジョブ,,合同会社,埼玉県,戸田市,新曽南３丁目８番１６－７０１号,,11,224,3350026,,,,,,,2022-08-31,1,,,,,ラックインジョブ,0
1395,6040001124838,新規,0,2022-08-31,2022-08-31,株式会社ＳＵＮ　ＲＩＳＥ　ＴＲＡＤＥ,,株式会社,千葉県,野田市,光葉町２丁目２６番地の２,,12,208,2780057,,,,,,,2022-08-31,1,,,,,サンライズトレイド,0
1396,6040003020713,新規,0,2022-08-31,2022-08-31,合同会社ＹｉｎＹａｎｇ,,合同会社,千葉県,浦安市,明海６丁目１番１２－１００１号,,12,227,2790014,,,,,,,2022-08-31,1,,,,,インヤン,0
1398,6060002036865,新規,0,2022-08-31,2022-08-31,有限会社トミタオート,,有限会社,栃木県,足利市,迫間町５１８番地１,,09,202,3294216,,,,,,,2022-08-31,1,,,,,トミタオート,0
1401,6080103002640,新規,0,2022-08-31,2022-08-31,Ｄｕａｌ　Ｂｉｚ合同会社,,合同会社,静岡県,富士市,依田原町３番９号,,22,210,4170022,,,,,,,2022-08-31,1,,,,,デュアルビズ,0
1402,6100003006664,新規,0,2022-08-31,2022-08-31,メタルーツ合同会社,,合同会社,長野県,飯山市,大字照岡７５１番地１,,20,213,3892601,,,,,,,2022-08-31,1,,,,,メタルーツ,0
1404,6110001036919,新規,0,2022-08-31,2022-08-31,マニワ商事株式会社,,株式会社,新潟県,新潟市東区,海老ケ瀬８８１番地２,,15,102,9500806,,,,,,,2022-08-31,1,,,,,マニワショウジ,0
1408,6120001248488,新規,0,2022-08-31,2022-08-31,株式会社ＬＦＡＭ,,株式会社,大阪府,大阪市西区,南堀江２丁目５番１９号ＧＡＴＯＤＭ南堀江公園前９０３号室,,27,106,5500015,,,,,,,2022-08-31,1,,,,,エルファム,0
1409,6120001248496,新規,0,2022-08-31,2022-08-31,株式会社ギガンジウム,,株式会社,大阪府,大阪市浪速区,日本橋西１丁目４番１９－２０３号,,27,111,5560004,,,,,,,2022-08-31,1,,,,,ギガンジウム,0
1410,6120001248521,新規,0,2022-08-31,2022-08-31,科源株式会社,,株式会社,大阪府,大阪市西成区,天神ノ森１丁目４番２号,,27,122,5570013,,,,,,,2022-08-31,1,,,,,カゲン,0
1411,6120001248538,新規,0,2022-08-31,2022-08-31,子博株式会社,,株式会社,大阪府,大阪市浪速区,大国２丁目６番１９－６０２号,,27,111,5560014,,,,,,,2022-08-31,1,,,,,コハク,0
1414,6120003022379,新規,0,2022-08-31,2022-08-31,合同会社ＭＲ　ＮＧＯ,,合同会社,大阪府,大阪市生野区,新今里３丁目１６番１号,,27,116,5440001,,,,,,,2022-08-31,1,,,,,ミスターゴー,0
1417,6120101066162,新規,0,2022-08-31,2022-08-31,株式会社三石,,株式会社,大阪府,堺市北区,東雲東町２丁１番２０号,,27,146,5918041,,,,,,,2022-08-31,1,,,,,ミツイシ,0
1419,6120901046405,新規,0,2022-08-31,2022-08-31,株式会社ＫＴコーポレーション,,株式会社,大阪府,豊中市,立花町３丁目２番１－６０８号,,27,203,5600025,,,,,,,2022-08-31,1,,,,,ケーティーコーポレーション,0
1420,6120901046421,新規,0,2022-08-31,2022-08-31,株式会社Ｎ．Ｙ．Ｅ,,株式会社,大阪府,豊中市,浜２丁目３番１０号,,27,203,5610817,,,,,,,2022-08-31,1,,,,,エヌワイイー,0
1431,6130001072532,新規,0,2022-08-31,2022-08-31,Ｌｉｆｔｅｒ　ＨＤ株式会社,,株式会社,京都府,京都市伏見区,横大路下三栖南郷１５,,26,109,6128247,,,,,,,2022-08-31,1,,,,,リフターホールディング,0
1437,6140001127228,新規,0,2022-08-31,2022-08-31,株式会社宇宙,,株式会社,兵庫県,尼崎市,東難波町４丁目１１－２,,28,202,6600892,,,,,,,2022-08-31,1,,,,,ソラ,0
1438,6140001127236,新規,0,2022-08-31,2022-08-31,株式会社ＰＢＳ,,株式会社,兵庫県,神戸市東灘区,森南町２丁目２－１６－４０１,,28,101,6580011,,,,,,,2022-08-31,1,,,,,ピービーエス,0
1451,6180001152800,新規,0,2022-08-31,2022-08-31,株式会社プロパティリンク,,株式会社,愛知県,知多市,日長字神山畔８９番地,,23,224,4780041,,,,,,,2022-08-31,1,,,,,プロパティリンク,0
1452,6180001152825,新規,0,2022-08-31,2022-08-31,フリグラム株式会社,,株式会社,愛知県,東海市,大田町東畑１４５番地Ｇライフ．オータ（３０２）,,23,222,4770031,,,,,,,2022-08-31,1,,,,,フリグラム,0
1458,6180005019913,新規,0,2022-08-31,2022-08-31,一般社団法人Ｌｉｆｅ,,その他の設立登記法人,愛知県,名古屋市緑区,亀が洞３丁目１１７番地,,23,114,4580804,,,,,,,2022-08-31,1,,,,,ライフ,0
1466,6230001019507,新規,0,2022-08-31,2022-08-31,株式会社アイ・ラフ,,株式会社,富山県,富山市,豊島町４番２４号,,16,201,9318322,,,,,,,2022-08-31,1,,,,,アイラフ,0
1467,6240001060261,新規,0,2022-08-31,2022-08-31,じゅげむ株式会社,,株式会社,広島県,山県郡安芸太田町,大字下殿河内１１７番地,,34,368,7313622,,,,,,,2022-08-31,1,,,,,ジュゲム,0
1471,6260001037191,新規,0,2022-08-31,2022-08-31,ＫＴＣ警備株式会社,,株式会社,岡山県,倉敷市,林２１７８番地１,,33,202,7100142,,,,,,,2022-08-31,1,,,,,ケイティシーケイビ,0
1472,6260001037200,新規,0,2022-08-31,2022-08-31,株式会社Ｃａｐ‐ａ‐ｐｉｅ,,株式会社,岡山県,岡山市北区,中山下１丁目１番１号グレースタワーＩＩＩ１４０２号,00127681,33,101,7000821,,,,,,,2022-08-31,1,,,,,キャパピー,0
1479,6290001098743,新規,0,2022-08-31,2022-08-31,株式会社ウルフ,,株式会社,福岡県,太宰府市,五条２丁目６番８号,,40,221,8180125,,,,,,,2022-08-31,1,,,,,ウルフ,0
1481,6290803004188,新規,0,2022-08-31,2022-08-31,合同会社マリンアート,,合同会社,福岡県,北九州市小倉北区,東篠崎１丁目１－３７－１００５,,40,106,8020072,,,,,,,2022-08-31,1,,,,,マリンアート,0
1482,6290805009581,新規,0,2022-08-31,2022-08-31,一般社団法人外装リフォーム検査協会,,その他の設立登記法人,福岡県,北九州市小倉北区,中井１丁目３１番５号,,40,106,8030836,,,,,,,2022-08-31,1,,,,,ガイソウリフォームケンサキョウカイ,0
1485,6320003003887,新規,0,2022-08-31,2022-08-31,マツシタデンキ合同会社,,合同会社,大分県,大分市,曙台２丁目７番７号,,44,201,8700273,,,,,,,2022-08-31,1,,,,,マツシタデンキ,0
1488,6340005009492,新規,0,2022-08-31,2022-08-31,特定非営利活動法人鹿児島フライングディスク・クラブ,,その他の設立登記法人,鹿児島県,鹿屋市,札元１丁目２４番５号,,46,203,8930013,,,,,,,2022-08-31,1,,,,,カゴシマフライングディスククラブ,0
1512,6450003002240,新規,0,2022-08-31,2022-08-31,Ｆｕｔｕｒａ合同会社,,合同会社,北海道,枝幸郡中頓別町,字中頓別１８―１５２,,01,513,0985551,,,,,,,2022-08-31,1,,,,,フーツラ,0
1526,7010001229119,新規,0,2022-08-31,2022-08-31,株式会社Ｂｒｉｌｌｅｒ,,株式会社,東京都,中央区,銀座１丁目６番１号クレッセントビル４階,,13,102,1040061,,,,,,,2022-08-31,1,,,,,ブリエ,0
1527,7010001229135,新規,0,2022-08-31,2022-08-31,株式会社グランパ,,株式会社,東京都,中央区,銀座３丁目２番１３号銀座夏野Ｒビル４階,,13,102,1040061,,,,,,,2022-08-31,1,,,,,グランパ,0
1528,7010001229143,新規,0,2022-08-31,2022-08-31,株式会社フラン,,株式会社,東京都,千代田区,麹町４丁目４番地１,,13,101,1020083,,,,,,,2022-08-31,1,,,,,フラン,0
1532,7010005035496,新規,0,2022-08-31,2022-08-31,一般社団法人ラーニングイノベーションコンソシアム,,その他の設立登記法人,東京都,中央区,日本橋大伝馬町１３番地７,,13,102,1030011,,,,,,,2022-08-31,1,,,,,ラーニングイノベーションコンソシアム,0
1539,7010401169419,新規,0,2022-08-31,2022-08-31,ＥＲ２４株式会社,,株式会社,東京都,港区,六本木１丁目６番１号,,13,103,1060032,,,,,,,2022-08-31,1,,,,,イーアールトゥエンティーフォー,0
1544,7010403028382,新規,0,2022-08-31,2022-08-31,日の出５号合同会社,,合同会社,東京都,港区,海岸１丁目７番１号,,13,103,1050022,,,,,,,2022-08-31,1,,,,,ヒノデゴゴウ,0
1546,7010405021303,新規,0,2022-08-31,2022-08-31,ＳＣＧ７９一般社団法人,,その他の設立登記法人,東京都,港区,虎ノ門４丁目１番２８号,,13,103,1050001,,,,,,,2022-08-31,1,,,,,エスシージーセブンティナイン,0
1547,7010503006701,新規,0,2022-08-31,2022-08-31,サステナ・デアジャパン合同会社,,合同会社,東京都,台東区,西浅草３丁目２２番３－１９０７号浅草タワー,,13,106,1110035,,,,,,,2022-08-31,1,,,,,サステナデアジャパン,0
1548,7010505003333,新規,0,2022-08-31,2022-08-31,一般社団法人コミュニティ＆コミュニティホスピタル協会,,その他の設立登記法人,東京都,台東区,三ノ輪２丁目７番５号,,13,106,1100011,,,,,,,2022-08-31,1,,,,,コミュニティアンドコミュニティホスピタルキョウカイ,0
1550,7010601061763,新規,0,2022-08-31,2022-08-31,株式会社Ｇｏｐｅ,,株式会社,東京都,江東区,有明１丁目４番２０－１７０１号,,13,108,1350063,,,,,,,2022-08-31,1,,,,,ゴープ,0
1551,7010601061771,新規,0,2022-08-31,2022-08-31,株式会社Ｅ２Ｓ,,株式会社,東京都,江東区,大島１丁目５番９－９０３号,,13,108,1360072,,,,,,,2022-08-31,1,,,,,イートゥエス,0
1553,7010603009711,新規,0,2022-08-31,2022-08-31,合同会社ＴＲＩＮＩＴＹ,,合同会社,東京都,墨田区,江東橋４丁目１８番７号７階,,13,107,1300022,,,,,,,2022-08-31,1,,,,,トリニティー,0
1559,7010705003414,新規,0,2022-08-31,2022-08-31,医療法人社団英伸会,,その他の設立登記法人,東京都,品川区,上大崎３丁目５番２号リードシー目黒イーストビル３階,,13,109,1410021,,,,,,,2022-08-31,1,,,,,エイシンカイ,0
1567,7010903007605,新規,0,2022-08-31,2022-08-31,一心合同会社,,合同会社,東京都,世田谷区,鎌田３丁目２４番４号,,13,112,1570077,,,,,,,2022-08-31,1,,,,,イッシン,0
1572,7011003015309,新規,0,2022-08-31,2022-08-31,合同会社Ｋｅｙ　Ｖａｌｌｅｙ,,合同会社,東京都,渋谷区,道玄坂１丁目１０番８号渋谷道玄坂東急ビル２Ｆ－Ｃ,,13,113,1500043,,,,,,,2022-08-31,1,,,,,キーバレー,0
1579,7011101100029,新規,0,2022-08-31,2022-08-31,株式会社ＫＨＹ,,株式会社,東京都,新宿区,中落合２丁目８番２４－５１６号,,13,104,1610032,,,,,,,2022-08-31,1,,,,,ケーエイチワイ,0
1587,7011601026203,新規,0,2022-08-31,2022-08-31,株式会社東京デジタルファーム,,株式会社,東京都,練馬区,富士見台３丁目２４番１４号,,13,120,1770034,,,,,,,2022-08-31,1,,,,,トウキョウデジタルファーム,0
1592,7011801041217,新規,0,2022-08-31,2022-08-31,沸かす株式会社,,株式会社,東京都,足立区,関原３丁目２３番１３号,,13,121,1230852,,,,,,,2022-08-31,1,,,,,ワカス,0
1596,7012401039576,新規,0,2022-08-31,2022-08-31,株式会社ファテック,,株式会社,東京都,調布市,菊野台３丁目２６番７号,,13,208,1820007,,,,,,,2022-08-31,1,,,,,ファテック,0
1599,7013301049517,新規,0,2022-08-31,2022-08-31,株式会社久久,,株式会社,東京都,豊島区,高田３丁目３番２２－１０４号,,13,116,1710033,,,,,,,2022-08-31,1,,,,,ヒサビサ,0
1600,7013301049590,新規,0,2022-08-31,2022-08-31,株式会社ＯＫＩ,,株式会社,東京都,豊島区,南長崎１丁目５番１９号,,13,116,1710052,,,,,,,2022-08-31,1,,,,,オキ,0
1618,7030001149769,新規,0,2022-08-31,2022-08-31,株式会社ＡＤＹトレーディング,,株式会社,埼玉県,川口市,大字芝５３０７番地の２,,11,203,3330866,,,,,,,2022-08-31,1,,,,,エーディーワイトレーディング,0
1619,7030001149892,新規,0,2022-08-31,2022-08-31,株式会社ＫＯＰホーム,,株式会社,埼玉県,川越市,野田町２丁目１３番地７１,,11,201,3501115,,,,,,,2022-08-31,1,,,,,ケーオーピーホーム,0
1624,7030003020102,新規,0,2022-08-31,2022-08-31,合同会社１ＵＰ,,合同会社,埼玉県,和光市,本町２番１８号ピュアパークヒルズ４０１号室,,11,229,3510114,,,,,,,2022-08-31,1,,,,,ワンアップ,0
1627,7040001124804,新規,0,2022-08-31,2022-08-31,株式会社ＦＡＴＯ,,株式会社,千葉県,長生郡長生村,一松丁１７４番地,,12,423,2994324,,,,,,,2022-08-31,1,,,,,ファト,0
1628,7040001124853,新規,0,2022-08-31,2022-08-31,エム・ライン株式会社,,株式会社,千葉県,八千代市,村上南３丁目３番地１－７０５号,,12,221,2760029,,,,,,,2022-08-31,1,,,,,エムライン,0
1632,7040003020704,新規,0,2022-08-31,2022-08-31,合同会社スリーダム,,合同会社,千葉県,市川市,菅野４丁目１７番１２号ラ・メール岡野３０１,,12,203,2720824,,,,,,,2022-08-31,1,,,,,スリーダム,0
1634,7070003004605,新規,0,2022-08-31,2022-08-31,浩成合同会社,,合同会社,群馬県,高崎市,吉井町本郷５８０番地－１,,10,202,3702128,,,,,,,2022-08-31,1,,,,,コウセイ,0
1643,7090001017739,新規,0,2022-08-31,2022-08-31,株式会社ｓａｉ,,株式会社,山梨県,甲斐市,下今井３５３５－８,,19,210,4000105,,,,,,,2022-08-31,1,,,,,,0
1645,7100001035664,新規,0,2022-08-31,2022-08-31,株式会社豊野蔵,,株式会社,長野県,長野市,豊野町浅野７２２番地２,,20,201,3891104,,,,,,,2022-08-31,1,,,,,トヨノクラ,0
1650,7110001036918,新規,0,2022-08-31,2022-08-31,Ａｉ・Ｌｉｎｋ株式会社,,株式会社,新潟県,新潟市江南区,北山３９５番地２,,15,104,9500116,,,,,,,2022-08-31,1,,,,,アイリンク,0
1658,7120001248479,新規,0,2022-08-31,2022-08-31,株式会社長谷川興産,,株式会社,大阪府,大阪市住之江区,浜口西１丁目１３－１５カトレアビル３０４号室,,27,125,5590006,,,,,,,2022-08-31,1,,,,,ハセガワコウサン,0
1659,7120001248495,新規,0,2022-08-31,2022-08-31,株式会社森山組,,株式会社,大阪府,守口市,南寺方北通１丁目６番４号,,27,209,5700046,,,,,,,2022-08-31,1,,,,,モリヤマグミ,0
1660,7120001248512,新規,0,2022-08-31,2022-08-31,日本不少株式会社,,株式会社,大阪府,大阪市淀川区,西中島７丁目１－３チサンマンション第８新大阪５０９号室,,27,123,5320011,,,,,,,2022-08-31,1,,,,,ニホンフショウ,0
1661,7120001248537,新規,0,2022-08-31,2022-08-31,京都国際医療サポート株式会社,,株式会社,大阪府,大阪市西区,江戸堀３丁目１番３１号７０１号室,,27,106,5500002,,,,,,,2022-08-31,1,,,,,キョウトコクサイイリョウサポート,0
1668,7120101066145,新規,0,2022-08-31,2022-08-31,株式会社ＫＡＮＡＥ,,株式会社,大阪府,松原市,天美南２丁目２３５番地の９,,27,217,5800033,,,,,,,2022-08-31,1,,,,,カナエ,0
1669,7120105009620,新規,0,2022-08-31,2022-08-31,一般社団法人シニアライフサポート協会大阪泉州,,その他の設立登記法人,大阪府,泉南市,信達市場１８９７番地,,27,228,5900504,,,,,,,2022-08-31,1,,,,,シニアライフサポートキョウカイオオサカセンシュウ,0
1674,7140001127210,新規,0,2022-08-31,2022-08-31,株式会社ピュア,,株式会社,兵庫県,神戸市灘区,都通３丁目２番７号,,28,102,6570844,,,,,,,2022-08-31,1,,,,,ピュア,0
1677,7140003018069,新規,0,2022-08-31,2022-08-31,合同会社進開,,合同会社,兵庫県,西脇市,郷瀬町４１７番地,,28,213,6770014,,,,,,,2022-08-31,1,,,,,シンカイ,0
1692,7180003024204,新規,0,2022-08-31,2022-08-31,合同会社ＮＥＷ　ＤＡＷＮ,,合同会社,愛知県,名古屋市中川区,伏屋５丁目３０１番地,,23,110,4540996,,,,,,,2022-08-31,1,,,,,ニュードーン,0
1696,7180303005432,新規,0,2022-08-31,2022-08-31,ケーエー合同会社,,合同会社,愛知県,蒲郡市,三谷北通６丁目１６０番地,,23,214,4430022,,,,,,,2022-08-31,1,,,,,ケーエー,0
1699,7210001019061,新規,0,2022-08-31,2022-08-31,株式会社ＢＨ＆Ｂ,,株式会社,福井県,鯖江市,住吉町３丁目１４番１０号,00127672,18,207,9160056,,,,,,,2022-08-31,1,,,,,ビーエッチアンドビー,0
1702,7230001019506,新規,0,2022-08-31,2022-08-31,株式会社スペード,,株式会社,富山県,富山市,向新庄町２丁目１４番４３－１号,,16,201,9300916,,,,,,,2022-08-31,1,,,,,スペード,0
1714,7290801028849,新規,0,2022-08-31,2022-08-31,株式会社三浦,,株式会社,福岡県,北九州市小倉北区,堺町１丁目９番２２号北州観光ビル１０２,,40,106,8020005,,,,,,,2022-08-31,1,,,,,ミウラ,0
1721,7320003003886,新規,0,2022-08-31,2022-08-31,合同会社白道舎,,合同会社,大分県,大分市,大字政所２３５０番地の１３其田コーポ１０１,,44,201,8700268,,,,,,,2022-08-31,1,,,,,ハクドウシャ,0
1727,7350001017919,新規,0,2022-08-31,2022-08-31,株式会社谷口林業,,株式会社,宮崎県,日南市,吾田東４丁目４番１６－２０１号,,45,204,8870041,,,,,,,2022-08-31,1,,,,,タニグチリンギョウ,0
1728,7350003004155,新規,0,2022-08-31,2022-08-31,合同会社ｓｐｈｅｒｅ,,合同会社,宮崎県,串間市,大字本城７６０３,,45,207,8880008,,,,,,,2022-08-31,1,,,,,スフィア,0
1734,7380001033070,新規,0,2022-08-31,2022-08-31,株式会社ＡＳＫ　ＪＯＢ,,株式会社,福島県,郡山市,備前舘２丁目５２番地,,07,203,9638044,,,,,,,2022-08-31,1,,,,,エーエスケージョブ,0
1745,7430001087350,新規,0,2022-08-31,2022-08-31,株式会社とものば,,株式会社,北海道,岩内郡共和町,南幌似３８番地の２,,01,401,0482202,,,,,,,2022-08-31,1,,,,,トモノバ,0
1749,7480005006913,新規,0,2022-08-31,2022-08-31,かみかつ事業協同組合,,その他の設立登記法人,徳島県,勝浦郡上勝町,大字福原字下日浦９４番地４,,36,302,7714501,,,,,,,2022-08-31,1,,,,,カミカツ,0
1751,7500001024429,新規,0,2022-08-31,2022-08-31,ライトウィル株式会社,,株式会社,愛媛県,松山市,元町４番２７号,,38,201,7918064,,,,,,,2022-08-31,1,,,,,,0
1753,7700150003989,新規,0,2022-08-31,2015-10-09,農薬工業会,,その他,東京都,中央区,日本橋茅場町２丁目３－６宗和ビル,,13,102,1030025,,,,,,,2015-10-09,1,,,,,ノウヤクコウギヨウカイ,0
1766,8010001229126,新規,0,2022-08-31,2022-08-31,株式会社きゅら,,株式会社,東京都,中央区,築地２丁目１番１１号ガリシア銀座イースト７０８号室,,13,102,1040045,,,,,,,2022-08-31,1,,,,,キュラ,0
1767,8010001229167,新規,0,2022-08-31,2022-08-31,株式会社ＫＥＮＤＡＬＬ,,株式会社,東京都,中央区,日本橋横山町８番５号５階,,13,102,1030003,,,,,,,2022-08-31,1,,,,,ケンダル,0
1768,8010003038541,新規,0,2022-08-31,2022-08-31,合同会社Ｓｉｌｋｙ　ｒｕｂ,,合同会社,東京都,中央区,湊２丁目１１番１－１１１９号,,13,102,1040043,,,,,,,2022-08-31,1,,,,,シルキーラブ,0
1788,8010401169401,新規,0,2022-08-31,2022-08-31,株式会社Ｍａｒｓ,,株式会社,東京都,港区,芝浦４丁目２１番１号,,13,103,1080023,,,,,,,2022-08-31,1,,,,,マーズ,0
1789,8010401169418,新規,0,2022-08-31,2022-08-31,ＥＲ２３株式会社,,株式会社,東京都,港区,六本木１丁目６番１号,,13,103,1060032,,,,,,,2022-08-31,1,,,,,イーアールトゥエンティースリー,0
1790,8010401169467,新規,0,2022-08-31,2022-08-31,株式会社ＡＰ　ＶＩＩ　ＧＰ,,株式会社,東京都,港区,虎ノ門４丁目１番２８号虎ノ門タワーズオフィス１７階,,13,103,1050001,,,,,,,2022-08-31,1,,,,,エイピーセブンジーピー,0
1791,8010403028266,新規,0,2022-08-31,2022-08-31,合同会社ケアライフ,,合同会社,東京都,港区,南青山２丁目２番１５号,,13,103,1070062,,,,,,,2022-08-31,1,,,,,ケアライフ,0
1793,8010405021302,新規,0,2022-08-31,2022-08-31,ＳＣＧ７８一般社団法人,,その他の設立登記法人,東京都,港区,虎ノ門４丁目１番２８号,,13,103,1050001,,,,,,,2022-08-31,1,,,,,エスシージーセブンティエイト,0
1799,8010601061762,新規,0,2022-08-31,2022-08-31,株式会社石川工業店,,株式会社,東京都,墨田区,千歳２丁目８番１１号,,13,107,1300025,,,,,,,2022-08-31,1,,,,,イシカワコウギョウテン,0
1800,8010601061770,新規,0,2022-08-31,2022-08-31,株式会社エスラッシュ,,株式会社,東京都,墨田区,太平４丁目６番１４－８０４号,,13,107,1300012,,,,,,,2022-08-31,1,,,,,エスラッシュ,0
1803,8010901051546,新規,0,2022-08-31,2022-08-31,株式会社ＦＡコンサル,,株式会社,東京都,世田谷区,深沢３丁目２２番５号,,13,112,1580081,,,,,,,2022-08-31,1,,,,,エフエイコンサル,0
1805,8010903007612,新規,0,2022-08-31,2022-08-31,合同会社ＬｉｎｇｕＡｒｔコンサルティング,,合同会社,東京都,世田谷区,池尻３丁目１１番３１号,,13,112,1540001,,,,,,,2022-08-31,1,,,,,リングアールコンサルティング,0
1809,8011001149446,新規,0,2022-08-31,2022-08-31,株式会社ＧＲＡＮＤＩＲ,,株式会社,東京都,渋谷区,幡ヶ谷２丁目１７－１－１６０３,,13,113,1510072,,,,,,,2022-08-31,1,,,,,グランディール,0
1810,8011001149487,新規,0,2022-08-31,2022-08-31,株式会社コンナノ,,株式会社,東京都,渋谷区,神宮前２丁目１９－３,,13,113,1500001,,,,,,,2022-08-31,1,,,,,コンナノ,0
1811,8011001149520,新規,0,2022-08-31,2022-08-31,ＳＴＡＲ　ＪＡＰＡＮ株式会社,,株式会社,東京都,渋谷区,代々木１丁目２－９－３０２,,13,113,1510053,,,,,,,2022-08-31,1,,,,,スタージャパン,0
1814,8011005009704,新規,0,2022-08-31,2022-08-31,一般社団法人ＥＡ　Ｊａｐａｎ,,その他の設立登記法人,東京都,渋谷区,富ヶ谷１丁目１９－２ＬｕｎａＲｏｓｓａ渋谷４Ａ号,,13,113,1510063,,,,,,,2022-08-31,1,,,,,イーエージャパン,0
1816,8011101100028,新規,0,2022-08-31,2022-08-31,株式会社ベーシック,,株式会社,東京都,新宿区,早稲田町８３番地５サンライトグリーンビル３０１号,,13,104,1620042,,,,,,,2022-08-31,1,,,,,,0
1818,8011103012114,新規,0,2022-08-31,2022-08-31,Ｍａｋｅｌｉｆｅ合同会社,,合同会社,東京都,新宿区,南元町４－６４メゾンアイリス１０２,,13,104,1600012,,,,,,,2022-08-31,1,,,,,メイクライフ,0
1829,8011503005270,新規,0,2022-08-31,2022-08-31,合同会社ＳＨＩＮ,,合同会社,東京都,荒川区,荒川３丁目４番４号１Ｆ,,13,118,1160002,,,,,,,2022-08-31,1,,,,,シン,0
1835,8011701025566,新規,0,2022-08-31,2022-08-31,サーマルテクノ株式会社,,株式会社,東京都,江戸川区,北小岩４丁目１３番１０号,,13,123,1330051,,,,,,,2022-08-31,1,,,,,サーマルテクノ,0
1840,8011801041182,新規,0,2022-08-31,2022-08-31,株式会社アクシア,,株式会社,東京都,足立区,中川２丁目２－７－２０１,,13,121,1200002,,,,,,,2022-08-31,1,,,,,アクシア,0
1841,8011801041208,新規,0,2022-08-31,2022-08-31,株式会社ミューズ,,株式会社,東京都,足立区,保木間１丁目１番１６号,,13,121,1210064,,,,,,,2022-08-31,1,,,,,ミューズ,0
1842,8011801041216,新規,0,2022-08-31,2022-08-31,株式会社美雲コーポレーション,,株式会社,東京都,葛飾区,奥戸８丁目１８番５号,,13,122,1240022,,,,,,,2022-08-31,1,,,,,ミクコーポレーション,0
1843,8012301013110,新規,0,2022-08-31,2022-08-31,浪漫商事株式会社,,株式会社,東京都,町田市,成瀬が丘３丁目４番地８,,13,209,1940011,,,,,,,2022-08-31,1,,,,,ロマンショウジ,0
1844,8012801021802,新規,0,2022-08-31,2022-08-31,ハッピーバード・トレード株式会社,,株式会社,東京都,日野市,東豊田４丁目１２番８号,,13,212,1910052,,,,,,,2022-08-31,1,,,,,ハッピーバードトレード,0
1850,8020001147970,新規,0,2022-08-31,2022-08-31,株式会社世田谷デザイン,,株式会社,神奈川県,横浜市青葉区,美しが丘１丁目１８－３－８－１０２,,14,117,2250002,,,,,,,2022-08-31,1,,,,,セタガヤデザイン,0
1851,8020001147995,新規,0,2022-08-31,2022-08-31,前川創業株式会社,,株式会社,神奈川県,横浜市港北区,大倉山１丁目１８番６号,,14,109,2220037,,,,,,,2022-08-31,1,,,,,マエカワソウギョウ,0
1858,8020005015645,新規,0,2022-08-31,2022-08-31,一般社団法人日本臨床胚培養士協会,,その他の設立登記法人,神奈川県,横浜市中区,長者町４丁目１１番地７,,14,104,2310033,,,,,,,2022-08-31,1,,,,,ニホンリンショウハイバイヨウシキョウカイ,0
1866,8021003012080,新規,0,2022-08-31,2022-08-31,合同会社ワールドトレーディング,,合同会社,神奈川県,秦野市,北矢名５２４番地の５シティ５、２０２号,,14,211,2570006,,,,,,,2022-08-31,1,,,,,ワールドトレーディング,0
1869,8030001149859,新規,0,2022-08-31,2022-08-31,株式会社オスカー,,株式会社,埼玉県,熊谷市,中奈良１２２４番地２０,,11,202,3600801,,,,,,,2022-08-31,1,,,,,オスカー,0
1872,8030003020101,新規,0,2022-08-31,2022-08-31,合同会社ｏｍｏ,,合同会社,埼玉県,さいたま市岩槻区,並木１丁目２２番３－１号,,11,110,3390068,,,,,,,2022-08-31,1,,,,,オーエムオー,0
1879,8040001124836,新規,0,2022-08-31,2022-08-31,株式会社たかみ堂,,株式会社,千葉県,松戸市,新松戸東１４番地の３セゾンドルミナＢ－１０１,,12,207,2700033,,,,,,,2022-08-31,1,,,,,タカミドウ,0
1886,8040003020637,新規,0,2022-08-31,2022-08-31,合同会社ピンヅモ,,合同会社,千葉県,船橋市,夏見４丁目２３番３０号矢野ビル２０３号,,12,204,2730865,,,,,,,2022-08-31,1,,,,,ピンヅモ,0
1888,8050001051575,新規,0,2022-08-31,2022-08-31,株式会社Ｍｒｓ．Ｓｉｌｅｎｃｅ　Ｄｏｇｏｏｄ,,株式会社,茨城県,筑西市,西方１５８８,,08,227,3080845,,,,,,,2022-08-31,1,,,,,ミセスサイレンスドゥーグッド,0
1889,8050003006800,新規,0,2022-08-31,2022-08-31,合同会社ＲＥＰＯＳ,,合同会社,茨城県,つくば市,古来６２８番地２ヴィラエスポワール古来４０２号室,,08,220,3050021,,,,,,,2022-08-31,1,,,,,ルポ,0
1891,8060003004200,新規,0,2022-08-31,2022-08-31,合同会社ＦＬＡＳＨ　ＡＵＴＯ,,合同会社,栃木県,足利市,大前町５１４番地１コーポ２１－２０６,,09,202,3260845,,,,,,,2022-08-31,1,,,,,フラッシュオート,0
1893,8070001039585,新規,0,2022-08-31,2022-08-31,たかみ産業株式会社,,株式会社,群馬県,高崎市,浜尻町６１２番地１,,10,202,3700005,,,,,,,2022-08-31,1,,,,,タカミサンギョウ,0
1897,8080001025155,新規,0,2022-08-31,2022-08-31,ナカムラ工業株式会社,,株式会社,静岡県,静岡市清水区,入江岡町１２番５号,,22,103,4240839,,,,,,,2022-08-31,1,,,,,ナカムラコウギョウ,0
1904,8120001032873,新規,0,2022-08-31,2022-08-31,伸和建設株式会社,,株式会社,大阪府,大阪市住吉区,千躰２丁目５番７号,,27,120,5580047,,,,,,,2022-08-31,1,,,,,シンワケンセツ,0
1913,8120001248453,新規,0,2022-08-31,2022-08-31,株式会社シビック・アンド・カンパニー,,株式会社,大阪府,交野市,幾野１丁目１０番７２２号,,27,230,5760054,,,,,,,2022-08-31,1,,,,,シビックアンドカンパニー,0
1914,8120001248478,新規,0,2022-08-31,2022-08-31,瑞兆株式会社,,株式会社,大阪府,大阪市中央区,谷町７丁目１番３９－３０１号Ｄ,,27,128,5420012,,,,,,,2022-08-31,1,,,,,ズイチョウ,0
1915,8120001248494,新規,0,2022-08-31,2022-08-31,日本再生電子株式会社,,株式会社,大阪府,大阪市東住吉区,杭全２丁目７番１４号,,27,121,5460002,,,,,,,2022-08-31,1,,,,,ニホンサイセイデンシ,0
1916,8120001248511,新規,0,2022-08-31,2022-08-31,株式会社Ｈａｐｐｙ　Ｈｏｍｅ,,株式会社,大阪府,大阪市都島区,片町１丁目３番１１号ＪＣ大阪ビル５階１号室,,27,102,5340025,,,,,,,2022-08-31,1,,,,,ハッピーホーム,0
1917,8120001248536,新規,0,2022-08-31,2022-08-31,株式会社サバ６製麺所,,株式会社,大阪府,大阪市福島区,福島７丁目２１番３号,,27,103,5530003,,,,,,,2022-08-31,1,,,,,サバロクセイメンショ,0
1918,8120001248544,新規,0,2022-08-31,2022-08-31,株式会社プロスペラーレ,,株式会社,大阪府,大阪市生野区,田島４丁目３－３２,,27,116,5440011,,,,,,,2022-08-31,1,,,,,プロスペラーレ,0
1920,8120101066144,新規,0,2022-08-31,2022-08-31,株式会社リセットハウス,,株式会社,大阪府,堺市北区,百舌鳥梅町１丁２番地６・２Ｆ,,27,146,5918032,,,,,,,2022-08-31,1,,,,,リセットハウス,0
1921,8122001036210,新規,0,2022-08-31,2022-08-31,株式会社タイキコーポレーション,,株式会社,大阪府,八尾市,西久宝寺７２８番地の２,,27,212,5810077,,,,,,,2022-08-31,1,,,,,タイキコーポレーション,0
1939,8140001127218,新規,0,2022-08-31,2022-08-31,株式会社ｃａｉｆｕｌ,,株式会社,兵庫県,神戸市長田区,長田天神町２丁目３番３号,,28,106,6530882,,,,,,,2022-08-31,1,,,,,キャイフル,0
1941,8140003018068,新規,0,2022-08-31,2022-08-31,合資会社ＨＩＶＥ,,合資会社,兵庫県,明石市,魚住町清水１２０番地,,28,203,6740074,,,,,,,2022-08-31,1,,,,,ハイブ,0
1943,8140005026300,新規,0,2022-08-31,2022-08-31,一般社団法人Ｍｉｒａｉ事業団,,その他の設立登記法人,兵庫県,神戸市中央区,北長狭通５丁目５番１０号太洋物産ビル３階,,28,110,6500012,,,,,,,2022-08-31,1,,,,,ミライジギョウダン,0
1944,8160001024479,新規,0,2022-08-31,2022-08-31,城東興産株式会社,,株式会社,滋賀県,甲賀市,水口町城東４番１８号,,25,209,5280028,,,,,,,2022-08-31,1,,,,,ジョウトウコウサン,0
1945,8160003002656,新規,0,2022-08-31,2022-08-31,合同会社Ｈ＆Ａ　ｓｏｌｕｔｉｏｎｓ,,合同会社,滋賀県,大津市,浜大津３丁目１０番１２号,,25,201,5200047,,,,,,,2022-08-31,1,,,,,エイチアンドエーソリューションズ,0
1947,8170001017259,新規,0,2022-08-31,2022-08-31,株式会社さん,,株式会社,和歌山県,日高郡日高町,大字原谷５２１番地１,,30,382,6491201,,,,,,,2022-08-31,1,,,,,サン,0
1952,8180001152716,新規,0,2022-08-31,2022-08-31,スマイルチャンス株式会社,,株式会社,愛知県,名古屋市中区,新栄１丁目３５番３号セントラルステージ新栄１階,,23,106,4600007,,,,,,,2022-08-31,1,,,,,スマイルチャンス,0
1955,8180303005431,新規,0,2022-08-31,2022-08-31,合同会社空手道豊空会,,合同会社,愛知県,豊橋市,東新町５０番地,,23,201,4400812,,,,,,,2022-08-31,1,,,,,カラテドウホウクウカイ,0
1965,8260001037198,新規,0,2022-08-31,2022-08-31,株式会社蓮の実,,株式会社,岡山県,総社市,西郡９２２番地３,,33,208,7191164,,,,,,,2022-08-31,1,,,,,ハスノミ,0
1969,8270003001440,新規,0,2022-08-31,2022-08-31,合同会社ＭＯＫＥＬＬ,,合同会社,鳥取県,東伯郡琴浦町,大字竹内２７１番地,,31,371,6892521,,,,,,,2022-08-31,1,,,,,モオケル,0
1980,8290003012898,新規,0,2022-08-31,2022-08-31,ＩＮＯＵＥ設計合同会社,,合同会社,福岡県,福岡市早良区,野芥２丁目３４番５号,,40,137,8140171,,,,,,,2022-08-31,1,,,,,イノウエセッケイ,0
1990,8360001030903,新規,0,2022-08-31,2022-08-31,株式会社ベーシック,,株式会社,沖縄県,宜野湾市,大謝名４丁目１３－２９－２０１,,47,205,9012225,,,,,,,2022-08-31,1,,,,,ベーシック,0
1999,8370001048993,新規,0,2022-08-31,2022-08-31,株式会社Ｉｎｆｉｎｉｔｙ‐ｇｒｏｕｐ,,株式会社,宮城県,仙台市泉区,向陽台３丁目３７番１８号,,04,105,9813102,,,,,,,2022-08-31,1,,,,,インフィニティグループ,0
2000,8370001049001,新規,0,2022-08-31,2022-08-31,株式会社エートク,,株式会社,宮城県,仙台市若林区,河原町２丁目１０番２５号,,04,103,9840816,,,,,,,2022-08-31,1,,,,,エートク,0
2002,8390001017006,新規,0,2022-08-31,2022-08-31,いろは蔵パーク株式会社,,株式会社,山形県,酒田市,下安町４１番地の１,,06,204,9980012,,,,,,,2022-08-31,1,,,,,イロハグラパーク,0
2009,8430001087390,新規,0,2022-08-31,2022-08-31,福勝縁株式会社,,株式会社,北海道,苫小牧市,柏木町５丁目２番７号,,01,213,0530823,,,,,,,2022-08-31,1,,,,,フクショウエン,0
2012,8440001009138,新規,0,2022-08-31,2022-08-31,奥尻島海産株式会社,,株式会社,北海道,奥尻郡奥尻町,字青苗６０番地２１,,01,367,0431521,,,,,,,2022-08-31,1,,,,,オクシリジマカイサン,0
2036,9010003038516,新規,0,2022-08-31,2022-08-31,合同会社ＡＮＩＭ,,合同会社,東京都,中央区,銀座１丁目１２番４号Ｎ＆ＥＢＬＤ．７階,,13,102,1040061,,,,,,,2022-08-31,1,,,,,アニム,0
2037,9010003038524,新規,0,2022-08-31,2022-08-31,アクティブリーシング１８号合同会社,,合同会社,東京都,千代田区,麹町４丁目７番２号,,13,101,1020083,,,,,,,2022-08-31,1,,,,,アクティブリーシングジュウハチゴウ,0
2038,9010003038540,新規,0,2022-08-31,2022-08-31,メープルパートナーズ合同会社,,合同会社,東京都,中央区,銀座１丁目２２番１１号銀座大竹ビジデンス２階,,13,102,1040061,,,,,,,2022-08-31,1,,,,,メープルパートナーズ,0
2041,9010005035478,新規,0,2022-08-31,2022-08-31,一般社団法人日本バイヤー連盟,,その他の設立登記法人,東京都,千代田区,丸の内１丁目１１－１パシフィックセンチュリープレイス１３階,,13,101,1000005,,,,,,,2022-08-31,1,,,,,ニホンバイヤーレンメイ,0
2045,9010401169318,新規,0,2022-08-31,2022-08-31,ＨＡＳＵＮＡＧＡ株式会社,,株式会社,東京都,港区,南青山２丁目２番１５号ＷＩＮ青山,,13,103,1070062,,,,,,,2022-08-31,1,,,,,ハスナガ,0
2046,9010401169417,新規,0,2022-08-31,2022-08-31,ＥＲ２２株式会社,,株式会社,東京都,港区,六本木１丁目６番１号,,13,103,1060032,,,,,,,2022-08-31,1,,,,,イーアールトゥエンティートゥー,0
2051,9010405021292,新規,0,2022-08-31,2022-08-31,一般社団法人未来メディア協会,,その他の設立登記法人,東京都,港区,虎ノ門１丁目１７番１号虎ノ門ヒルズビジネスタワー１５階,,13,103,1050001,,,,,,,2022-08-31,1,,,,,ミライメディアキョウカイ,0
2052,9010405021301,新規,0,2022-08-31,2022-08-31,ＳＣＧ７７一般社団法人,,その他の設立登記法人,東京都,港区,虎ノ門４丁目１番２８号,,13,103,1050001,,,,,,,2022-08-31,1,,,,,エスシージーセブンティセブン,0
2056,9010601061761,新規,0,2022-08-31,2022-08-31,株式会社ＴＯＮＡＬ‐ＭＣ,,株式会社,東京都,江東区,大島３丁目８番７－４２７号,,13,108,1360072,,,,,,,2022-08-31,1,,,,,トーナルーエムシー,0
2064,9010901051537,新規,0,2022-08-31,2022-08-31,勝央株式会社,,株式会社,東京都,世田谷区,成城１丁目２６番９－２０１号,,13,112,1570066,,,,,,,2022-08-31,1,,,,,カツオウ,0
2065,9010903007611,新規,0,2022-08-31,2022-08-31,ＴｒｅｅＬａｂ合同会社,,合同会社,東京都,世田谷区,尾山台３丁目１３番４号,,13,112,1580086,,,,,,,2022-08-31,1,,,,,ツリーラボ,0
2068,9011001149412,新規,0,2022-08-31,2022-08-31,株式会社ＡＷＥＳＯＭＥ　ＳＥ,,株式会社,東京都,渋谷区,道玄坂１丁目２１番１号ＳＨＩＢＵＹＡＳＯＬＡＳＴＡ３Ｆ,,13,113,1500043,,,,,,,2022-08-31,1,,,,,オーサムエスイー,0
2069,9011001149453,新規,0,2022-08-31,2022-08-31,株式会社ロロ,,株式会社,東京都,渋谷区,神宮前６丁目２３－４桑野ビル２階,,13,113,1500001,,,,,,,2022-08-31,1,,,,,ロロ,0
2070,9011001149486,新規,0,2022-08-31,2022-08-31,株式会社蚕都,,株式会社,東京都,目黒区,東山３丁目３番１０号大沢ビル５０１,,13,110,1530043,,,,,,,2022-08-31,1,,,,,サント,0
2073,9011101100027,新規,0,2022-08-31,2022-08-31,株式会社ＶＲＩＴＩＭＥＳ,,株式会社,東京都,新宿区,南元町２５－１０,,13,104,1600012,,,,,,,2022-08-31,1,,,,,ブリタイムズ,0
2074,9011103012121,新規,0,2022-08-31,2022-08-31,合同会社Ｕｎｉｔ　ＮＡ’ｓ,,合同会社,東京都,新宿区,高田馬場１丁目２８番地７号高田馬場ヒルサイドパレス６０５号室,,13,104,1690075,,,,,,,2022-08-31,1,,,,,ユニットナイス,0
2077,9011301028076,新規,0,2022-08-31,2022-08-31,株式会社ＳＰＡＣＥ　ＷＯＲＫＳ　ＬＡＢ,,株式会社,東京都,杉並区,永福２丁目４２番４号,,13,115,1680064,,,,,,,2022-08-31,1,,,,,スペースワークスラボ,0
2078,9011303004505,新規,0,2022-08-31,2022-08-31,合同会社サトス,,合同会社,東京都,杉並区,堀ノ内２丁目２４番７号,,13,115,1660013,,,,,,,2022-08-31,1,,,,,サトス,0
2085,9011805003203,新規,0,2022-08-31,2022-08-31,一般社団法人Ｓｐｏｒｔｓ　Ｃｏｍｍｕｎｉｃａｔｉｏｎ　Ａｓｓｏｃｉａｔｉｏｎ　Ｌｅｇｅｎｄ　Ｓｍｉｌｅ,,その他の設立登記法人,東京都,足立区,綾瀬２丁目４０番１号シェブー・綾瀬６０３,,13,121,1200005,,,,,,,2022-08-31,1,,,,,スポーツコミュニケーションアソシエーションレジェンドスマイル,0
2089,9013301049589,新規,0,2022-08-31,2022-08-31,株式会社Ａｌｔ,,株式会社,東京都,豊島区,高田３丁目６番１０号,,13,116,1710033,,,,,,,2022-08-31,1,,,,,オルト,0
2105,9021001076837,新規,0,2022-08-31,2022-08-31,中井技術士研究所株式会社,,株式会社,神奈川県,小田原市,本町２丁目４番２２－８０１号,,14,206,2500012,,,,,,,2022-08-31,1,,,,,ナカイギジュツシケンキュウジョ,0
2106,9021001076861,新規,0,2022-08-31,2022-08-31,株式会社Ｓｕｎｌｉｇｈｔ,,株式会社,神奈川県,座間市,東原１丁目７番２７号,,14,216,2520004,,,,,,,2022-08-31,1,,,,,サンライト,0
2114,9030001149858,新規,0,2022-08-31,2022-08-31,株式会社ＧＭ・ＭＯＴＯＲＳ,,株式会社,埼玉県,川口市,東領家１丁目１０番６－３０５号第２１まさひろ商事ビル,,11,203,3320003,,,,,,,2022-08-31,1,,,,,ジーエムモーターズ,0
2115,9030001149866,新規,0,2022-08-31,2022-08-31,株式会社ウッドワークス,,株式会社,埼玉県,和光市,白子２丁目１３番２９号シャンボールクイーン１０１,,11,229,3510101,,,,,,,2022-08-31,1,,,,,ウッドワークス,0
2116,9030001149899,新規,0,2022-08-31,2022-08-31,ＣＨＥＴＡＮＡ株式会社,,株式会社,埼玉県,さいたま市中央区,新中里４丁目１３－１１－４０３,,11,105,3380011,,,,,,,2022-08-31,1,,,,,チェタナ,0
2120,9030003020109,新規,0,2022-08-31,2022-08-31,合同会社ハピネス,,合同会社,埼玉県,戸田市,笹目１丁目２３番地の１０（ショコラＡ８号室）,,11,224,3350034,,,,,,,2022-08-31,1,,,,,ハピネス,0
2127,9040001124835,新規,0,2022-08-31,2022-08-31,株式会社Ｓｌａｃｋ,,株式会社,千葉県,いすみ市,深堀１６２０番地２３（太清荘Ａ－６）,,12,238,2980003,,,,,,,2022-08-31,1,,,,,スラック,0
2128,9040001124843,新規,0,2022-08-31,2022-08-31,株式会社リバイス,,株式会社,千葉県,匝瑳市,飯倉台２１番地６,,12,235,2892148,,,,,,,2022-08-31,1,,,,,リバイス,0
2138,9070001039584,新規,0,2022-08-31,2022-08-31,株式会社アイカワファーマシー,,株式会社,群馬県,太田市,由良町９３番地７,,10,205,3730036,,,,,,,2022-08-31,1,,,,,アイカワファーマシー,0
2143,9090001017761,新規,0,2022-08-31,2022-08-31,ＨＡＳＮＡＴ・ＴＲＡＤＩＮＧ株式会社,,株式会社,山梨県,南アルプス市,西南湖１００番地,,19,208,4000411,,,,,,,2022-08-31,1,,,,,ハスナートトレーディング,0
2161,9120001248411,新規,0,2022-08-31,2022-08-31,株式会社Ｔｒｕｓｔ　Ｒｅｌａｔｉｏｎ,,株式会社,大阪府,大阪市中央区,南本町２丁目１番１号本町サザンビル６０５,,27,128,5410054,,,,,,,2022-08-31,1,,,,,トラストリレーション,0
2162,9120001248493,新規,0,2022-08-31,2022-08-31,株式会社ＦＩＲＳＴ,,株式会社,大阪府,大阪市北区,堂島１丁目１番５号,,27,127,5300003,,,,,,,2022-08-31,1,,,,,ファースト,0
2163,9120001248510,新規,0,2022-08-31,2022-08-31,株式会社Ｃｌａｒｉｓ,,株式会社,大阪府,大阪市西区,新町１丁目１４番２１号,,27,106,5500013,,,,,,,2022-08-31,1,,,,,クラリス,0
2164,9120001248527,新規,0,2022-08-31,2022-08-31,大江貿易株式会社,,株式会社,大阪府,大阪市中央区,南久宝寺町３丁目４番１５号,,27,128,5410058,,,,,,,2022-08-31,1,,,,,オオエボウエキ,0
2165,9120001248535,新規,0,2022-08-31,2022-08-31,株式会社メモラブル,,株式会社,大阪府,大阪市都島区,都島北通１丁目１４－７プレアール都島ＩＶ１０１,00127674,27,102,5340014,,,,,,,2022-08-31,1,,,,,メモラブル,0
2166,9120001248543,新規,0,2022-08-31,2022-08-31,株式会社ＫＩＭＯＮＪＵ,,株式会社,大阪府,交野市,星田８丁目１０番１５号,,27,230,5760016,,,,,,,2022-08-31,1,,,,,キモンジュ,0
2167,9120003022368,新規,0,2022-08-31,2022-08-31,合同会社ＫＥＹ．Ｐ,,合同会社,大阪府,大阪市平野区,瓜破１丁目１番１１－１４０８号,,27,126,5470024,,,,,,,2022-08-31,1,,,,,キープ,0
2168,9120005023166,新規,0,2022-08-31,2022-08-31,一般社団法人ＥＴＨＩＣＡＬ　ＥＸＰＯ　ＪＡＰＡＮ,,その他の設立登記法人,大阪府,大阪市住之江区,粉浜１丁目２番８号,,27,125,5590001,,,,,,,2022-08-31,1,,,,,エシカルエキスポジャパン,0
2170,9120101066143,新規,0,2022-08-31,2022-08-31,株式会社フィート,,株式会社,大阪府,松原市,阿保１丁目４番１２－１０７号,,27,217,5800043,,,,,,,2022-08-31,1,,,,,フィート,0
2183,9140001127209,新規,0,2022-08-31,2022-08-31,株式会社Ｍ＆Ｈインベストメント,,株式会社,兵庫県,尼崎市,西昆陽３丁目２５番１０号,,28,202,6610047,,,,,,,2022-08-31,1,,,,,エムアンドエイチインベストメント,0
2190,9170001017258,新規,0,2022-08-31,2022-08-31,トイ株式会社,,株式会社,和歌山県,和歌山市,西釘貫丁２丁目５３番地プレミール石川５０２,,30,201,6408063,,,,,,,2022-08-31,1,,,,,トイ,0
2193,9180001152748,新規,0,2022-08-31,2022-08-31,株式会社ＧＬＡＮＺ,,株式会社,愛知県,日進市,三本木町下川田１８サンシャイン富士ＰａｒｔＩＩＩ５１１,00127676,23,230,4700101,,,,,,,2022-08-31,1,,,,,グランツ,0
2194,9180001152814,新規,0,2022-08-31,2022-08-31,芝浦エンジニアリング株式会社,,株式会社,愛知県,名古屋市昭和区,広路町字松風園１３番地の１,,23,107,4660834,,,,,,,2022-08-31,1,,,,,シバウラエンジニアリング,0
2196,9180303005430,新規,0,2022-08-31,2022-08-31,合同会社東陽,,合同会社,愛知県,高浜市,二池町３丁目２番地３１,,23,227,4441322,,,,,,,2022-08-31,1,,,,,トウヨウ,0
2202,9240003005773,新規,0,2022-08-31,2022-08-31,Ｂｕｃｈｉｓｈ　Ｆｉｌｍ合同会社,,合同会社,広島県,東広島市,安芸津町風早１３９３―４,,34,212,7392403,,,,,,,2022-08-31,1,,,,,ブチッシュフィルム,0
2208,9290001098749,新規,0,2022-08-31,2022-08-31,株式会社ＳＮＳｐｒｏｇｒａｍｓ,,株式会社,福岡県,筑紫野市,塔原南３丁目１６－７,,40,217,8180074,,,,,,,2022-08-31,1,,,,,エスプロ,0
2221,9310001018010,新規,0,2022-08-31,2022-08-31,株式会社アミカル,,株式会社,長崎県,佐世保市,江上町４６３１番地２,,42,202,8593244,,,,,,,2022-08-31,1,,,,,アミカル,0
2226,9320001019296,新規,0,2022-08-31,2022-08-31,株式会社インテートＥＮＺＩＮ,,株式会社,大分県,大分市,小中島２丁目２番４－２号メイプルメゾン小中島公園前Ａ１０１,,44,201,8700114,,,,,,,2022-08-31,1,,,,,インテートエンジン,0
2231,9360001030893,新規,0,2022-08-31,2022-08-31,池原建材株式会社,,株式会社,沖縄県,宜野湾市,嘉数４丁目１２番２号,,47,205,9012226,,,,,,,2022-08-31,1,,,,,イケハラケンザイ,0
2237,9370005010528,新規,0,2022-08-31,2022-08-31,一般社団法人地方自治マネジメントプラットフォーム,,その他の設立登記法人,宮城県,仙台市若林区,清水小路６－１,,04,103,9840075,,,,,,,2022-08-31,1,,,,,チホウジチマネジメントプラットフォーム,0
2253,9470001019232,新規,0,2022-08-31,2022-08-31,ＣＡＲ　ＡＳＩＳＴ株式会社,,株式会社,香川県,高松市,檀紙町１１２８番地７,,37,201,7618041,,,,,,,2022-08-31,1,,,,,カーアシスト,0
2257,9500003002884,新規,0,2022-08-31,2022-08-31,合同会社ミライヲツクル,,合同会社,愛媛県,松山市,萱町５丁目５５サーパス萱町２１０,,38,201,7900813,,,,,,,2022-08-31,1,,,,,ミライヲツクル,0
