sequenceNumber,corporateNumber,process,correct,updateDate,changeDate,name,nameImageId,kind,prefectureName,cityName,streetNumber,addressImageId,prefectureCode,cityCode,postCode,addressOutside,addressOutsideImageId,closeDate,closeCause,successorCorporateNumber,changeCause,assignmentDate,latest,enName,enPrefectureName,enCityName,enAddressOutside,furigana,hihyoji
7,1010001241946,登記記録の閉鎖等,0,2026-01-16,2025-12-01,東成ファッションデザイン貿易株式会社,,株式会社,東京都,中央区,日本橋人形町３丁目３－５－６０５号室,,13,102,1030013,,,2025-12-01,清算の結了等,,,2024-02-01,1,,,,,トウセイファッションデザインボウエキ,0
10,1010003035891,登記記録の閉鎖等,0,2026-01-16,2025-12-18,合同会社汐留・プロパティーズ,,合同会社,東京都,千代田区,一番町９番地８ひばり会計事務所内,,13,101,1020082,,,2025-12-18,清算の結了等,,,2021-09-27,1,,,,,シオドメプロパティーズ,0
16,1010401139988,登記記録の閉鎖等,0,2026-01-16,2026-01-05,株式会社Ｂｅ　Ｓｐａｃｅ,,株式会社,東京都,北区,田端新町１丁目１４番６号,,13,117,1140012,,,2026-01-05,合併による解散等,7011501001958,令和８年１月１日東京都北区田端新町一丁目１４番６号株式会社城北通信サービス（7011501001958）に合併し解散,2018-08-06,1,,,,,ビースペース,0
17,1010401141259,登記記録の閉鎖等,0,2026-01-16,2025-12-18,とどけ野菜株式会社,,株式会社,東京都,港区,麻布十番１丁目５番１０号,,13,103,1060045,,,2025-12-18,清算の結了等,,,2018-10-09,1,,,,,トドケヤサイ,0
18,1010401177575,登記記録の閉鎖等,0,2026-01-16,2025-12-05,ＶＩＴＡ株式会社,,株式会社,東京都,港区,新橋４丁目１４番１新橋ＡＵＮＢＬＤＧ４階,,13,103,1050004,,,2025-12-05,清算の結了等,,,2023-10-06,1,,,,,ヴィータ,0
22,1010402024578,登記記録の閉鎖等,0,2026-01-16,2025-12-18,有限会社Ａ＆Ｐサポート,,有限会社,東京都,港区,芝１丁目１０番１３号芝日景有楽ビル９Ｆ,,13,103,1050014,,,2025-12-18,清算の結了等,,,2015-10-05,1,,,,,エーアンドピーサポート,0
36,1011001113466,登記記録の閉鎖等,0,2026-01-16,2025-12-18,株式会社トモシステクノロジーズ,,株式会社,東京都,中央区,新川１丁目６番１２号,,13,102,1040033,,,2025-12-18,清算の結了等,,,2016-11-07,1,,,,,トモシステクノロジーズ,0
57,1011403001938,登記記録の閉鎖等,0,2026-01-16,2026-01-05,合同会社ＮＩ産業,,合同会社,東京都,台東区,台東１丁目３８－９イトーピア清洲橋通りビル５Ｆ－２７,,13,106,1100016,,,2026-01-05,清算の結了等,,,2016-10-11,1,,,,,,0
59,1011501022654,登記記録の閉鎖等,0,2026-01-16,2026-01-08,株式会社神谷商事,,株式会社,東京都,荒川区,西日暮里２丁目２番２号,,13,118,1160013,,,2026-01-08,合併による解散等,3011501027676,令和８年１月８日東京都荒川区西日暮里二丁目２番２号株式会社神谷商事（3011501027676）に合併し解散,2017-05-22,1,,,,,カミヤショウジ,0
65,1011801028343,登記記録の閉鎖等,0,2026-01-16,2026-01-13,株式会社マタドール,,株式会社,東京都,足立区,千住東２丁目４番１７号中村ビル１階,,13,121,1200025,,,2026-01-13,清算の結了等,,,2015-10-05,1,,,,,,0
70,1011802020679,登記記録の閉鎖等,0,2026-01-16,2026-01-14,有限会社イズミ産業,,有限会社,東京都,足立区,中央本町４丁目１９番２３号,,13,121,1210011,,,2026-01-14,清算の結了等,,,2015-10-05,1,,,,,イズミサンギョウ,0
81,1013401005227,登記記録の閉鎖等,0,2026-01-16,2026-01-08,株式会社シナジーデザインカンパニー,,株式会社,東京都,日野市,三沢３丁目２９番地の７,,13,212,1910032,,,2026-01-08,清算の結了等,,,2015-10-05,1,,,,,シナジーデザインカンパニー,0
91,1021001022195,登記記録の閉鎖等,0,2026-01-16,2025-12-18,株式会社大丸製作所,,株式会社,神奈川県,伊勢原市,歌川３丁目２番地の９,,14,214,2591128,,,2025-12-18,清算の結了等,,,2015-10-05,1,,,,,,0
98,1030001048621,登記記録の閉鎖等,0,2026-01-16,2026-01-05,株式会社バンガード,,株式会社,埼玉県,朝霞市,西原２丁目１４番２２号瀬武興業第２ビル,,11,227,3510034,,,2026-01-05,合併による解散等,6030001024411,令和８年１月１日埼玉県所沢市松葉町３番１号株式会社セキュリティ（6030001024411）に合併し解散,2015-10-05,1,,,,,バンガード,0
115,1050001034999,登記記録の閉鎖等,0,2026-01-16,2026-01-05,株式会社Ｂ．Ｔ．Ｏ．,,株式会社,茨城県,筑西市,蕨３０８番地,,08,227,3080824,,,2026-01-05,清算の結了等,,,2015-10-05,1,,,,,ビーティーオー,0
124,1070003003182,登記記録の閉鎖等,0,2026-01-16,2026-01-13,Ｔ・Ｍ・Ｔ合同会社,,合同会社,群馬県,伊勢崎市,茂呂南町５３１０番地１０,,10,204,3720036,,,2026-01-13,清算の結了等,,,2018-05-28,1,,,,,ティエムティ,0
127,1080402010803,登記記録の閉鎖等,0,2026-01-16,2026-01-06,有限会社ことぶき薬局,,有限会社,静岡県,浜松市中央区,四本松町１８７番地の２,,22,138,4300826,,,2026-01-06,清算の結了等,,,2015-10-05,1,,,,,コトブキヤッキョク,0
128,1080402015876,登記記録の閉鎖等,0,2026-01-16,2026-01-06,有限会社タイヤサプライ,,有限会社,静岡県,浜松市浜名区,細江町中川８８８番地の３４,,22,139,4311304,,,2026-01-06,清算の結了等,,,2015-10-05,1,,,,,タイヤサプライ,0
135,1110001015646,登記記録の閉鎖等,0,2026-01-16,2026-01-08,株式会社オオハシデザインカナガタ,,株式会社,新潟県,燕市,蔵関１６４番地１,,15,213,9591271,,,2026-01-08,清算の結了等,,,2015-10-05,1,,,,,オオハシデザインカナガタ,0
143,1120001158171,登記記録の閉鎖等,0,2026-01-16,2026-01-15,前田工業株式会社,,株式会社,大阪府,門真市,石原町１０番１４号,,27,223,5710067,,,2026-01-15,清算の結了等,,,2015-10-05,1,,,,,マエダコウギョウ,0
160,1120101059708,登記記録の閉鎖等,0,2026-01-16,2026-01-08,株式会社ＭＡＴＥＲ,,株式会社,大阪府,岸和田市,堺町２番１２号ＳＡＫＡＥＢＬＤ．３０３,,27,202,5960072,,,2026-01-08,清算の結了等,,,2019-04-12,1,,,,,マーテル,0
162,1120101070152,登記記録の閉鎖等,0,2026-01-16,2026-01-08,凱利株式会社,,株式会社,大阪府,大阪市淀川区,西中島６丁目５－３－８２２号,,27,123,5320011,,,2026-01-08,清算の結了等,,,2024-08-13,1,,,,,ガイリ,0
188,1160001017357,登記記録の閉鎖等,0,2026-01-16,2026-01-09,株式会社セブンズ,,株式会社,滋賀県,野洲市,南櫻１８３１番地２,,25,210,5202322,,,2026-01-09,合併による解散等,2120901025775,令和８年１月１日大阪府豊中市豊南町東四丁目５番１号マリンフード株式会社（2120901025775）に合併し解散,2015-10-05,1,,,,,セブンズ,0
189,1160002009758,登記記録の閉鎖等,0,2026-01-16,2026-01-14,有限会社日進工業,,有限会社,滋賀県,東近江市,宮川町６８８番地１８,,25,213,5291551,,,2026-01-14,清算の結了等,,,2015-10-05,1,,,,,ニッシンコウギョウ,0
213,1240001024460,登記記録の閉鎖等,0,2026-01-16,2026-01-09,株式会社太惣,,株式会社,広島県,三次市,三次町２０９番地の１,,34,209,7280021,,,2026-01-09,清算の結了等,,,2015-10-05,1,,,,,タイソウ,0
222,1250002014583,登記記録の閉鎖等,0,2026-01-16,2026-01-09,有限会社國辰,,有限会社,山口県,周南市,大字大島８９番地の４５,,35,215,7450803,,,2026-01-09,清算の結了等,,,2015-10-05,1,,,,,クニタツ,0
235,1290002019827,登記記録の閉鎖等,0,2026-01-16,2025-12-26,株式会社アミューズプラネット,,株式会社,福岡県,福岡市西区,愛宕１丁目２０番１２号,,40,135,8190015,,,2025-12-26,清算の結了等,,,2015-10-05,1,,,,,アミューズプラネット,0
243,1310002016136,登記記録の閉鎖等,0,2026-01-16,2026-01-05,有限会社ムジカエム,,有限会社,福岡県,福岡市中央区,地行４丁目１５番２０号,,40,133,8100064,,,2026-01-05,合併による解散等,8290001066673,令和８年１月１日福岡市中央区地行四丁目１５番２０号株式会社大手門コンサルティング（8290001066673）に合併し解散,2015-10-05,1,,,,,ムジカエム,0
265,1380003000462,登記記録の閉鎖等,0,2026-01-16,2026-01-08,合資会社テックビルドメンテナンス,,合資会社,福島県,郡山市,日和田町八丁目字仲頃１６番地,,07,203,9630533,,,2026-01-08,清算の結了等,,,2015-10-05,1,,,,,テックビルドメンテナンス,0
267,1390005005590,登記記録の閉鎖等,0,2026-01-16,2026-01-09,学校法人新庄こひつじ学園,,その他の設立登記法人,山形県,新庄市,大手町２番１０号,,06,205,9960084,,,2026-01-09,清算の結了等,,,2015-10-05,1,,,,,シンジョウコヒツジガクエン,0
273,1450001001546,登記記録の閉鎖等,0,2026-01-16,2026-01-16,仁和建設興業株式会社,,株式会社,北海道,旭川市,北門町１５丁目２１４４番地,,01,204,0700825,,,2026-01-16,登記官による閉鎖,,,2015-10-05,1,,,,,,0
274,1450001002453,登記記録の閉鎖等,0,2026-01-16,2026-01-16,株式会社コウチ,,株式会社,北海道,旭川市,永山町１１丁目２０番地２６,,01,204,0798431,,,2026-01-16,登記官による閉鎖,,,2015-10-05,1,,,,,,0
275,1450001006396,登記記録の閉鎖等,0,2026-01-16,2026-01-16,株式会社ゲノム,,株式会社,北海道,富良野市,２１５６番地１０,,01,229,0760000,,,2026-01-16,登記官による閉鎖,,,2015-10-05,1,,,,,,0
276,1450001007980,登記記録の閉鎖等,0,2026-01-16,2026-01-16,株式会社秋谷商店,,株式会社,北海道,枝幸郡枝幸町,北栄町１４７４番地８２,,01,514,0985824,,,2026-01-16,登記官による閉鎖,,,2015-10-05,1,,,,,,0
277,1450001009449,登記記録の閉鎖等,0,2026-01-16,2026-01-16,株式会社種村建設,,株式会社,北海道,紋別市,元紋別２５６番地の２２,,01,219,0940023,,,2026-01-16,登記官による閉鎖,,,2015-10-05,1,,,,,,0
278,1450001009465,登記記録の閉鎖等,0,2026-01-16,2026-01-16,株式会社中野物産,,株式会社,北海道,紋別市,落石町２丁目１番地７,,01,219,0940007,,,2026-01-16,登記官による閉鎖,,,2015-10-05,1,,,,,,0
279,1450001009548,登記記録の閉鎖等,0,2026-01-16,2026-01-16,紋別臨海工業株式会社,,株式会社,北海道,紋別市,元紋別１０２番地の１６,,01,219,0940023,,,2026-01-16,登記官による閉鎖,,,2015-10-05,1,,,,,,0
280,1450002001594,登記記録の閉鎖等,0,2026-01-16,2026-01-16,有限会社旭栄林業,,有限会社,北海道,旭川市,東一条１丁目３番１３号,,01,204,0700021,,,2026-01-16,登記官による閉鎖,,,2015-10-05,1,,,,,,0
298,2010401140326,登記記録の閉鎖等,0,2026-01-16,2026-01-05,株式会社ＳＴＩデリカ,,株式会社,東京都,港区,南青山１丁目１５番１４号,,13,103,1070062,,,2026-01-05,合併による解散等,5010401060364,令和８年１月１日東京都港区南青山一丁目１５番１４号株式会社ＳＴＩフード（5010401060364）に合併し解散,2018-08-20,1,,,,,エスティーアイデリカ,0
300,2010401187078,登記記録の閉鎖等,0,2026-01-16,2025-12-18,亞太医旅株式会社,,株式会社,東京都,港区,芝大門１丁目６番６号芝大門ヤマトビル６階,,13,103,1050012,,,2025-12-18,清算の結了等,,,2024-12-17,1,,,,,アタイイタビ,0
304,2010405019178,登記記録の閉鎖等,0,2026-01-16,2025-12-17,一般社団法人大阪レジデンシャルマスターリース,,その他の設立登記法人,東京都,港区,元赤坂１丁目１番７－１００６号,,13,103,1070051,,,2025-12-17,清算の結了等,,,2020-10-15,1,,,,,オオサカレジデンシャルマスターリース,0
322,2011101075309,登記記録の閉鎖等,0,2026-01-16,2025-12-15,株式会社ＫＥＩコーポレーション,,株式会社,東京都,新宿区,市谷仲之町３番１０－５０３号,,13,104,1620064,,,2025-12-15,清算の結了等,,,2015-12-04,1,,,,,ケイコーポレーション,0
327,2011105000873,登記記録の閉鎖等,0,2026-01-16,2025-12-16,医療法人社団エムアイプラン一九九六,,その他の設立登記法人,東京都,新宿区,西新宿１丁目５番１２号ニューセントラルビル３階,,13,104,1600023,,,2025-12-16,清算の結了等,,,2015-10-05,1,,,,,エムアイプランイチキュウキュウロク,0
329,2011201019652,登記記録の閉鎖等,0,2026-01-16,2026-01-09,株式会社ＡＬＷＡＹＳ,,株式会社,東京都,杉並区,天沼３丁目１３番５号ストーリア荻窪１Ｆ,,13,115,1670032,,,2026-01-09,合併による解散等,8011203003095,令和８年１月１日東京都江東区冬木６番１４－１０３号合同会社ＫＲＦ（8011203003095）に合併し解散,2017-02-01,1,,,,,オールウェイズ,0
351,2011701020688,登記記録の閉鎖等,0,2026-01-16,2026-01-06,株式会社愛,,株式会社,東京都,江戸川区,南葛西５丁目１３番１４号,,13,123,1340085,,,2026-01-06,清算の結了等,,,2017-03-23,1,,,,,メグミ,0
353,2011801032146,登記記録の閉鎖等,0,2026-01-16,2026-01-13,株式会社シュテルケ,,株式会社,東京都,足立区,千住仲町２番３号ハマノ第１ビル６階,,13,121,1200036,,,2026-01-13,清算の結了等,,,2016-08-05,1,,,,,シュテルケ,0
363,2013303006124,登記記録の閉鎖等,0,2026-01-16,2026-01-08,合同会社Ｉｎｆｉｎｉｔｙ,,合同会社,東京都,板橋区,栄町２８－１４,,13,119,1730015,,,2026-01-08,清算の結了等,,,2022-04-14,1,,,,,インフィニティ,0
364,2020001063265,登記記録の閉鎖等,0,2026-01-16,2026-01-05,神奈川外食事業株式会社,,株式会社,神奈川県,横浜市緑区,十日市場町８０５番地２,,14,113,2260025,,,2026-01-05,合併による解散等,4011101107729,令和８年１月１日横浜市緑区十日市場町８０５番地２ＦＦＦＪ株式会社（4011101107729）に合併し解散,2015-10-05,1,,,,,カナガワガイショクジギョウ,0
375,2020002000936,登記記録の閉鎖等,0,2026-01-16,2026-01-06,有限会社朝日屋呉服店,,有限会社,神奈川県,横浜市瀬谷区,三ツ境１３番地の４,,14,114,2460022,,,2026-01-06,清算の結了等,,,2015-10-05,1,,,,,,0
396,2040001066142,登記記録の閉鎖等,0,2026-01-16,2025-12-17,株式会社中島自動車整備工場,,株式会社,千葉県,柏市,旭町４丁目２番２２号,,12,217,2770852,,,2025-12-17,清算の結了等,,,2015-10-05,1,,,,,ナカシマジドウシャ,0
403,2040003023018,登記記録の閉鎖等,0,2026-01-16,2025-12-19,合同会社感謝,,合同会社,千葉県,船橋市,二子町６２７番地１９ジュネパレス船橋第１９－１０３号,,12,204,2730034,,,2025-12-19,清算の結了等,,,2023-07-28,1,,,,,カンシャ,0
405,2040003027984,登記記録の閉鎖等,0,2026-01-16,2025-12-08,合同会社ソリダス,,合同会社,千葉県,浦安市,入船２丁目１２－１０６,,12,227,2790012,,,2025-12-08,清算の結了等,,,2025-07-14,1,,,,,ソリダス,0
408,2040005002201,登記記録の閉鎖等,0,2026-01-16,2025-12-09,特定非営利活動法人地域創造ネットワークちば,,その他の設立登記法人,千葉県,千葉市美浜区,真砂５丁目２１番１２号,,12,106,2610011,,,2025-12-09,清算の結了等,,,2015-10-05,1,,,,,チイキソウゾウネットワークチバ,0
414,2060002015278,登記記録の閉鎖等,0,2026-01-16,2026-01-14,有限会社樋口板金,,有限会社,栃木県,日光市,針貝１０番地１,,09,206,3212331,,,2026-01-14,清算の結了等,,,2015-10-05,1,,,,,ヒグチバンキン,0
416,2070001008109,登記記録の閉鎖等,0,2026-01-16,2026-01-08,株式会社原沢内外装飾,,株式会社,群馬県,高崎市,倉賀野町８９３番地の２,,10,202,3701201,,,2026-01-08,清算の結了等,,,2015-10-05,1,,,,,ハラサワナイガイソウショク,0
419,2100001027914,登記記録の閉鎖等,0,2026-01-16,2026-01-13,株式会社天地,,株式会社,長野県,上伊那郡箕輪町,大字中箕輪１２６４５番地７,,20,383,3994601,,,2026-01-13,合併による解散等,1100002032880,令和８年１月１日長野県上伊那郡南箕輪村２３８０番地７７６株式会社信濃開発（1100002032880）に合併し解散,2015-10-05,1,,,,,テンチ,0
425,2110002025123,登記記録の閉鎖等,0,2026-01-16,2026-01-08,有限会社ホテル十二屋,,有限会社,新潟県,妙高市,大字赤倉１０８番地４７,,15,217,9492111,,,2026-01-08,清算の結了等,,,2015-10-05,1,,,,,,0
426,2110002033183,登記記録の閉鎖等,0,2026-01-16,2026-01-06,有限会社ニュースネットワークゆざわ,,有限会社,新潟県,南魚沼郡湯沢町,大字神立２７７番地１,,15,461,9496102,,,2026-01-06,清算の結了等,,,2015-10-05,1,,,,,ニュースネットワークユザワ,0
430,2120001244929,登記記録の閉鎖等,0,2026-01-16,2026-01-13,株式会社ＹＪ　ｔｒａｄｉｎｇ　ｃｏｍｐａｎｙ,,株式会社,大阪府,大阪市天王寺区,上本町４丁目１－３,,27,109,5430001,,,2026-01-13,清算の結了等,,,2022-04-05,1,,,,,ワイジェイトレーディングカンパニー,0
433,2120001266799,登記記録の閉鎖等,0,2026-01-16,2026-01-13,屹盛株式会社,,株式会社,大阪府,大阪市城東区,関目５丁目１９番９号関目花博公館２０３Ａ,,27,118,5360008,,,2026-01-13,清算の結了等,,,2024-07-17,1,,,,,キツセイ,0
446,2120102011765,登記記録の閉鎖等,0,2026-01-16,2025-12-26,三ッ矢商事株式会社,,株式会社,大阪府,堺市堺区,大浜西町６番地の３,,27,141,5900977,,,2025-12-26,合併による解散等,2120001016634,令和７年１２月２６日大阪府堺市堺区大浜西町６番地３大阪鉄板株式会社（2120001016634）に合併し解散,2015-10-05,1,,,,,ミツヤショウジ,0
460,2140001026623,登記記録の閉鎖等,0,2026-01-16,2025-12-26,株式会社クロシェホールディングス,,株式会社,兵庫県,神戸市中央区,元町通５丁目８番１５号,,28,110,6500022,,,2025-12-26,合併による解散等,1140001026517,令和７年１２月１５日神戸市中央区元町通五丁目８番１５号株式会社クロシェ（1140001026517）に合併し解散,2015-10-05,1,,,,,クロシェホールディングス,0
466,2140003015070,登記記録の閉鎖等,0,2026-01-16,2026-01-09,ｄｅｐ．ＦＡＳ合同会社,,合同会社,大阪府,大阪市淀川区,西中島７丁目１番２６号,,27,123,5320011,,,2026-01-09,清算の結了等,,,2020-06-17,1,,,,,デップファズ,0
469,2140005019144,登記記録の閉鎖等,0,2026-01-16,2025-12-26,淡路酒販協同組合,,その他の設立登記法人,兵庫県,洲本市,桑間６３６番地の１,,28,205,6560014,,,2025-12-26,清算の結了等,,,2015-10-05,1,,,,,,0
473,2180001029358,登記記録の閉鎖等,0,2026-01-16,2026-01-09,株式会社ケイズコンコード,,株式会社,愛知県,名古屋市中区,富士見町１３番２２号,,23,106,4600014,,,2026-01-09,清算の結了等,,,2015-10-05,1,,,,,ケイズコンコード,0
486,2180301007179,登記記録の閉鎖等,0,2026-01-16,2026-01-14,マルケイ倉庫株式会社,,株式会社,愛知県,豊橋市,花田町字石塚２６番地の２,00074483,23,201,4418019,,,2026-01-14,合併による解散等,5180002012442,令和８年１月１日名古屋市中区栄一丁目９番１６号山藤福谷株式会社（5180002012442）に合併し解散,2015-10-05,1,,,,,マルケイソウコ,0
505,2260001000310,登記記録の閉鎖等,0,2026-01-16,2026-01-14,アダチサンギョウ株式会社,,株式会社,岡山県,岡山市南区,南輝３丁目１８番２３号,,33,104,7028023,,,2026-01-14,清算の結了等,,,2015-10-05,1,,,,,アダチサンギョウ,0
508,2290001005934,登記記録の閉鎖等,0,2026-01-16,2025-12-26,株式会社アースワーク,,株式会社,福岡県,福岡市中央区,今泉２丁目４番５８－４０３号,,40,133,8100021,,,2025-12-26,清算の結了等,,,2015-10-05,1,,,,,アースワーク,0
523,2340002010317,登記記録の閉鎖等,0,2026-01-16,2026-01-09,有限会社米山塗工,,有限会社,鹿児島県,鹿児島市,小松原１丁目２１番２２号,,46,201,8910114,,,2026-01-09,清算の結了等,,,2015-10-05,1,,,,,ヨネヤマトコウ,0
535,2370001017938,登記記録の閉鎖等,0,2026-01-16,2026-01-05,株式会社ＮＴＣＭ,,株式会社,宮城県,黒川郡大郷町,川内字中埣山６２番地６,,04,422,9813514,,,2026-01-05,合併による解散等,6370001017521,令和８年１月１日宮城県黒川郡大郷町川内字中埣山６２番地６日本テクノカーボン株式会社（6370001017521）に合併し解散,2015-10-05,1,,,,,エヌティーシーエム,0
538,2370101001998,登記記録の閉鎖等,0,2026-01-16,2026-01-13,株式会社介護サポート,,株式会社,宮城県,角田市,尾山字荒町６５番地１,,04,208,9811502,,,2026-01-13,清算の結了等,,,2015-10-05,1,,,,,カイゴサポート,0
540,2370202003209,登記記録の閉鎖等,0,2026-01-16,2026-01-13,有限会社佐藤自動車整備工場,,有限会社,宮城県,大崎市,岩出山上野目字中川原５０番地,,04,215,9896403,,,2026-01-13,清算の結了等,,,2015-10-05,1,,,,,サトウジドウシャセイビコウジョウ,0
550,2430001041056,登記記録の閉鎖等,0,2026-01-16,2026-01-09,株式会社Ｊ．Ｋ　Ｄｒｅａｍ,,株式会社,北海道,札幌市中央区,北三条西２４丁目１－１６メープル円山６０３,,01,101,0640823,,,2026-01-09,清算の結了等,,,2015-10-05,1,,,,,ジェイケイドリーム,0
556,2450001000786,登記記録の閉鎖等,0,2026-01-16,2026-01-16,株式会社神楽山スポーツガーデン,,株式会社,北海道,旭川市,四条西１丁目２番５号,,01,204,0700054,,,2026-01-16,登記官による閉鎖,,,2015-10-05,1,,,,,,0
557,2450001000877,登記記録の閉鎖等,0,2026-01-16,2026-01-16,株式会社銀泉閣,,株式会社,北海道,上川郡上川町,字層雲峡未定番地,,01,457,0781701,,,2026-01-16,登記官による閉鎖,,,2015-10-05,1,,,,,,0
558,2450001001520,登記記録の閉鎖等,0,2026-01-16,2026-01-16,株式会社ジヤーナル北海道,,株式会社,北海道,旭川市,二条通８丁目４７１番地１,,01,204,0700032,,,2026-01-16,登記官による閉鎖,,,2015-10-05,1,,,,,,0
559,2450001007476,登記記録の閉鎖等,0,2026-01-16,2026-01-16,株式会社北興,,株式会社,北海道,士別市,東八条北３丁目４３６番地５,,01,220,0950008,,,2026-01-16,登記官による閉鎖,,,2015-10-05,1,,,,,,0
560,2450001007583,登記記録の閉鎖等,0,2026-01-16,2026-01-16,株式会社士別コンクリート工場,,株式会社,北海道,士別市,南町西３区４７１番地,,01,220,0950047,,,2026-01-16,登記官による閉鎖,,,2015-10-05,1,,,,,,0
561,2450001009489,登記記録の閉鎖等,0,2026-01-16,2026-01-16,株式会社福進土建工業,,株式会社,北海道,紋別市,元紋別１０２番地の１６,,01,219,0940023,,,2026-01-16,登記官による閉鎖,,,2015-10-05,1,,,,,,0
562,2450001009563,登記記録の閉鎖等,0,2026-01-16,2026-01-16,紋別海陸運送株式会社,,株式会社,北海道,紋別市,落石町２丁目１番地の７,,01,219,0940007,,,2026-01-16,登記官による閉鎖,,,2015-10-05,1,,,,,,0
563,2450001010711,登記記録の閉鎖等,0,2026-01-16,2026-01-16,ＴＩフーズプラン株式会社,,株式会社,北海道,上川郡東川町,西町８丁目８番１４号,,01,458,0711425,,,2026-01-16,登記官による閉鎖,,,2015-10-05,1,,,,,,0
564,2450002005628,登記記録の閉鎖等,0,2026-01-16,2026-01-16,有限会社ヤギフォート,,有限会社,北海道,旭川市,緑が丘二条１丁目２番地の３,,01,204,0788302,,,2026-01-16,登記官による閉鎖,,,2015-10-05,1,,,,,,0
565,2450002009018,登記記録の閉鎖等,0,2026-01-16,2026-01-16,加藤興業有限会社,,有限会社,北海道,上川郡美瑛町,東町２丁目１番２４号,,01,459,0710213,,,2026-01-16,登記官による閉鎖,,,2015-10-05,1,,,,,,0
566,2450002009348,登記記録の閉鎖等,0,2026-01-16,2026-01-16,有限会社スタジオゆもと,,有限会社,北海道,富良野市,山部中町２番２９号,,01,229,0791564,,,2026-01-16,登記官による閉鎖,,,2015-10-05,1,,,,,,0
567,2450002009397,登記記録の閉鎖等,0,2026-01-16,2026-01-16,有限会社バーバリアン,,有限会社,北海道,富良野市,北の峰町９番３３号,,01,229,0760034,,,2026-01-16,登記官による閉鎖,,,2015-10-05,1,,,,,,0
568,2460103001632,登記記録の閉鎖等,0,2026-01-16,2026-01-13,合同会社ふし・こ,,合同会社,北海道,帯広市,西二十三条南１丁目１２３番地４７,,01,207,0802473,,,2026-01-13,清算の結了等,,,2024-07-05,1,,,,,フシコ,0
572,2500002017923,登記記録の閉鎖等,0,2026-01-16,2026-01-14,有限会社オオトリ,,有限会社,愛媛県,今治市,地堀３丁目２番２号,,38,202,7992117,,,2026-01-14,清算の結了等,,,2015-10-05,1,,,,,オオトリ,0
579,3010001203003,登記記録の閉鎖等,0,2026-01-16,2025-12-18,株式会社ＰＫＳＨＡ　ｘＯｐｓ,,株式会社,東京都,文京区,本郷２丁目３５番１０号本郷瀬川ビル４Ｆ,,13,105,1130033,,,2025-12-18,清算の結了等,,,2019-08-05,1,,,,,パークシャエックスオプス,0
580,3010001225848,登記記録の閉鎖等,0,2026-01-16,2025-12-18,リーフキャピタル株式会社,,株式会社,東京都,千代田区,神田駿河台２丁目２番地御茶ノ水杏雲ビル１０階,,13,101,1010062,,,2025-12-18,清算の結了等,,,2022-04-12,1,,,,,リーフキャピタル,0
583,3010001252306,登記記録の閉鎖等,0,2026-01-16,2026-01-13,栄通商事株式会社,,株式会社,東京都,葛飾区,東金町６丁目６番５号センタービル金町４階４１８室,,13,122,1250041,,,2026-01-13,清算の結了等,,,2025-02-18,1,,,,,エイツウショウジ,0
604,3010402023446,登記記録の閉鎖等,0,2026-01-16,2025-12-18,有限会社オフィスゲイム,,有限会社,千葉県,千葉市美浜区,磯辺１丁目１５番１４号,,12,106,2610012,,,2025-12-18,清算の結了等,,,2015-10-05,1,,,,,オフィスゲイム,0
605,3010403023932,登記記録の閉鎖等,0,2026-01-16,2026-01-13,合同会社ＰＵＡ,,合同会社,静岡県,駿東郡長泉町,南一色２８１番地１,,22,342,4110932,,,2026-01-13,清算の結了等,,,2020-10-16,1,,,,,ピーユーエー,0
616,3010802011793,登記記録の閉鎖等,0,2026-01-16,2026-01-06,有限会社原田鋼機,,有限会社,東京都,大田区,本羽田３丁目２３番３３号,,13,111,1440044,,,2026-01-06,清算の結了等,,,2015-10-05,1,,,,,ハラダコウキ,0
621,3011001054551,登記記録の閉鎖等,0,2026-01-16,2025-12-17,株式会社ロータスアド,,株式会社,東京都,渋谷区,代々木２丁目２３番１号,,13,113,1510053,,,2025-12-17,清算の結了等,,,2015-10-05,1,,,,,ロータスアド,0
626,3011005007084,登記記録の閉鎖等,0,2026-01-16,2025-12-15,一般社団法人みらいアスリート協会,,その他の設立登記法人,東京都,目黒区,下目黒１丁目１番１４号コノトラビル７Ｆ,,13,110,1530064,,,2025-12-15,清算の結了等,,,2017-02-16,1,,,,,ミライアスリートキョウカイ,0
654,3011802004333,登記記録の閉鎖等,0,2026-01-16,2026-01-09,有限会社関口硝子店,,有限会社,東京都,葛飾区,東四つ木４丁目３番２号,,13,122,1240014,,,2026-01-09,清算の結了等,,,2015-10-05,1,,,,,セキグチガラステン,0
658,3012401015143,登記記録の閉鎖等,0,2026-01-16,2026-01-08,株式会社オフィスワイ・ケイ,,株式会社,東京都,小金井市,本町４丁目１番３８－２０４号,,13,210,1840004,,,2026-01-08,清算の結了等,,,2015-10-05,1,,,,,オフィスワイケイ,0
679,3020002032722,登記記録の閉鎖等,0,2026-01-16,2026-01-07,有限会社瑩工業所,,有限会社,神奈川県,横浜市港北区,樽町４丁目６番２８号,,14,109,2220001,,,2026-01-07,清算の結了等,,,2015-10-05,1,,,,,アキラコウギョウショ,0
687,3030001058783,登記記録の閉鎖等,0,2026-01-16,2026-01-05,株式会社城北テクノサービス,,株式会社,東京都,北区,田端新町１丁目１４番６号,,13,117,1140012,,,2026-01-05,合併による解散等,7011501001958,令和８年１月１日東京都北区田端新町一丁目１４番６号株式会社城北通信サービス（7011501001958）に合併し解散,2015-10-05,1,,,,,ジョウホクテクノサービス,0
696,3030003018059,登記記録の閉鎖等,0,2026-01-16,2025-12-17,合同会社Ａｐｒｉｌ,,合同会社,東京都,渋谷区,桜丘町１７番１２号渋谷ジョンソンビル４０１,,13,113,1500031,,,2025-12-17,清算の結了等,,,2021-10-08,1,,,,,エイプリル,0
704,3040003008232,登記記録の閉鎖等,0,2026-01-16,2026-01-08,合同会社ＯＹＹ,,合同会社,東京都,江戸川区,平井７丁目２１番２２号,,13,123,1320035,,,2026-01-08,清算の結了等,,,2016-02-17,1,,,,,オーワイワイ,0
717,3080101009517,登記記録の閉鎖等,0,2026-01-16,2026-01-13,株式会社富士ホンダ,,株式会社,静岡県,富士市,依田橋７７０番地の１,,22,210,4170002,,,2026-01-13,合併による解散等,5080401014859,令和８年１月１日静岡県菊川市加茂５４４番地の１株式会社ホンダカーズ中央静岡（5080401014859）に合併し解散,2015-10-05,1,,,,,フジホンダ,0
720,3080402008028,登記記録の閉鎖等,0,2026-01-16,2026-01-06,有限会社御手洗製作所,,有限会社,静岡県,浜松市中央区,笠井新田町７８１番地の９,,22,138,4313105,,,2026-01-06,清算の結了等,,,2015-10-05,1,,,,,ミタライセイサクジョ,0
726,3110002003193,登記記録の閉鎖等,0,2026-01-16,2026-01-08,有限会社シミズ新潟,,有限会社,新潟県,新潟市西蒲区,仁箇１５９４番地１,,15,108,9530022,,,2026-01-08,清算の結了等,,,2015-10-05,1,,,,,シミズニイガタ,0
728,3110003005131,登記記録の閉鎖等,0,2026-01-16,2025-12-16,合同会社ｗｉｎｐｅｒｄ,,合同会社,新潟県,上越市,木田２丁目５―４３,,15,222,9430805,,,2025-12-16,清算の結了等,,,2023-08-07,1,,,,,ウィンパード,0
733,3120001162873,登記記録の閉鎖等,0,2026-01-16,2026-01-13,株式会社ＤＦＯ,,株式会社,大阪府,大阪市北区,梅田１丁目１－３大阪駅前第３ビル２９階１－１－１号室,,27,127,5300001,,,2026-01-13,清算の結了等,,,2015-10-05,1,,,,,デーエフオー,0
736,3120001209872,登記記録の閉鎖等,0,2026-01-16,2025-12-26,株式会社ＫＢテキスタイル,,株式会社,京都府,京都市中京区,河原町通夷川上る指物町３２８番地,,26,104,6040903,,,2025-12-26,合併による解散等,1130001063668,令和７年１２月２６日京都市中京区河原町通夷川上る指物町３２８番地株式会社アダプト（1130001063668）に合併し解散,2017-12-06,1,,,,,ケービーテキスタイル,0
737,3120001229706,登記記録の閉鎖等,0,2026-01-16,2026-01-13,意楷株式会社,,株式会社,大阪府,大阪市生野区,新今里３丁目４－１７シャトー第４今里２１３Ｂ,,27,116,5440001,,,2026-01-13,清算の結了等,,,2020-06-11,1,,,,,イカイ,0
738,3120001253078,登記記録の閉鎖等,0,2026-01-16,2026-01-13,圓禄株式会社,,株式会社,大阪府,大阪市中央区,松屋町９番２０号ローレルステート松屋町５０５Ｂ,,27,128,5420067,,,2026-01-13,清算の結了等,,,2023-03-10,1,,,,,エンロク,0
740,3120001274181,登記記録の閉鎖等,0,2026-01-16,2026-01-13,楽旅丸株式会社,,株式会社,大阪府,大阪市生野区,新今里３丁目４番１７号ＯＧビル３０６Ａ,,27,116,5440001,,,2026-01-13,清算の結了等,,,2025-04-07,1,,,,,ラクリョガン,0
741,3120001276062,登記記録の閉鎖等,0,2026-01-16,2026-01-13,Ｅｎｖｏｌｖｅ　Ｇｒｏｕｐ株式会社,,株式会社,大阪府,大阪市生野区,新今里３丁目４番１７号ＯＧビル４０５Ｂ,,27,116,5440001,,,2026-01-13,清算の結了等,,,2025-05-23,1,,,,,エンボルブグループ,0
744,3120002012103,登記記録の閉鎖等,0,2026-01-16,2026-01-09,有限会社湊鉄工所,,有限会社,大阪府,大阪市平野区,平野本町１丁目１５番１８号,,27,126,5470044,,,2026-01-09,清算の結了等,,,2015-10-05,1,,,,,ミナトテッコウショ,0
746,3120002021491,登記記録の閉鎖等,0,2026-01-16,2026-01-14,有限会社大河内製作所,,有限会社,大阪府,大阪市西区,九条南４丁目５番２号,,27,106,5500025,,,2026-01-14,清算の結了等,,,2015-10-05,1,,,,,オオコウチセイサクジョ,0
752,3120101038081,登記記録の閉鎖等,0,2026-01-16,2026-01-08,協和製綱株式会社,,株式会社,大阪府,貝塚市,半田３丁目１２番１２号,,27,208,5970033,,,2026-01-08,清算の結了等,,,2015-10-05,1,,,,,キョウワセイコウ,0
763,3140001036159,登記記録の閉鎖等,0,2026-01-16,2026-01-07,株式会社イスペット,,株式会社,兵庫県,三木市,末広３丁目１０番３号,,28,215,6730403,,,2026-01-07,清算の結了等,,,2015-10-05,1,,,,,イスペット,0
765,3140001114419,登記記録の閉鎖等,0,2026-01-16,2026-01-07,株式会社アウル,,株式会社,兵庫県,赤穂市,大津１８９９番地１,,28,212,6780252,,,2026-01-07,清算の結了等,,,2019-08-01,1,,,,,アウル,0
777,3180001076028,登記記録の閉鎖等,0,2026-01-16,2026-01-13,株式会社第三物流,,株式会社,岐阜県,羽島市,上中町中１４５番地,,21,209,5016319,,,2026-01-13,清算の結了等,,,2015-10-05,1,,,,,ダイサンブツリュウ,0
786,3180002036542,登記記録の閉鎖等,0,2026-01-16,2026-01-09,有限会社イセヤマ,,有限会社,愛知県,名古屋市中区,伊勢山２丁目１０番２０号,,23,106,4600026,,,2026-01-09,清算の結了等,,,2015-10-05,1,,,,,イセヤマ,0
787,3180002065995,登記記録の閉鎖等,0,2026-01-16,2026-01-13,有限会社サンエム工業,,有限会社,愛知県,春日井市,細木町２丁目１２２番地,,23,206,4860937,,,2026-01-13,清算の結了等,,,2015-10-05,1,,,,,サンエムコウギョウ,0
788,3180003021329,登記記録の閉鎖等,0,2026-01-16,2026-01-13,合同会社トータルソリューション,,合同会社,愛知県,稲沢市,東緑町１丁目１番地１７２,,23,220,4928251,,,2026-01-13,清算の結了等,,,2020-06-29,1,,,,,トータルソリューション,0
789,3180301036334,登記記録の閉鎖等,0,2026-01-16,2026-01-07,ＨＡＮＡＩ　ＪＡＰＡＮ株式会社,,株式会社,愛知県,刈谷市,銀座２丁目６８番地,,23,210,4480845,,,2026-01-07,清算の結了等,,,2022-06-15,1,,,,,ハナイジャパン,0
799,3240001058861,登記記録の閉鎖等,0,2026-01-16,2026-01-05,株式会社ガニエ,,株式会社,広島県,広島市中区,舟入川口町６番９号ＳＴビルＩＩ１０３号室,00124745,34,101,7300845,,,2026-01-05,合併による解散等,8240001049138,令和７年１２月３１日広島市中区舟入川口町６番９号ＳＴビルＩＩ１０３号室株式会社サプライド（8240001049138）に合併し解散,2021-11-04,1,,,,,ガニエ,0
806,3250002015753,登記記録の閉鎖等,0,2026-01-16,2026-01-13,有限会社ホームテック,,有限会社,山口県,下松市,大字末武中３３番地１１６,,35,207,7440023,,,2026-01-13,清算の結了等,,,2015-10-05,1,,,,,ホームテック,0
809,3260002005745,登記記録の閉鎖等,0,2026-01-16,2026-01-15,有限会社十川,,有限会社,岡山県,岡山市東区,西大寺中３丁目２０番１０号,,33,103,7048116,,,2026-01-15,清算の結了等,,,2015-10-05,1,,,,,ソガワ,0
815,3290001024743,登記記録の閉鎖等,0,2026-01-16,2026-01-05,ＭＡＲＵＣＯ　ＴＥＣ株式会社,,株式会社,福岡県,福岡市南区,寺塚２丁目１番３４号,,40,134,8150074,,,2026-01-05,清算の結了等,,,2015-10-05,1,,,,,マルコテック,0
816,3290001030444,登記記録の閉鎖等,0,2026-01-16,2025-12-26,株式会社ＡＤＣ,,株式会社,福岡県,福岡市中央区,今泉２丁目４－２３ぴっぴーハウス３Ｆ,,40,133,8100021,,,2025-12-26,清算の結了等,,,2015-10-05,1,,,,,エーディーシー,0
821,3290003017027,登記記録の閉鎖等,0,2026-01-16,2025-12-26,Ｎｉｋｋｌｏ合同会社,,合同会社,福岡県,福岡市東区,箱崎４丁目３８番２３号,,40,131,8120053,,,2025-12-26,清算の結了等,,,2025-06-26,1,,,,,ナイクロ,0
831,3340001027204,登記記録の閉鎖等,0,2026-01-16,2026-01-05,株式会社ＫＭＸ,,株式会社,鹿児島県,出水市,大野原町２１４１番地,,46,208,8990216,,,2026-01-05,合併による解散等,2340001011885,令和８年１月１日鹿児島県出水市大野原町２１４１番地株式会社マルマエ（2340001011885）に合併し解散,2025-03-21,1,,,,,ケイエムエックス,0
856,3400603000254,登記記録の閉鎖等,0,2026-01-16,2026-01-05,オーエフピー研究所合同会社,,合同会社,岩手県,胆沢郡金ケ崎町,西根谷地向２９番地,,03,381,0294503,,,2026-01-05,清算の結了等,,,2015-10-05,1,,,,,オーエフピーケンキュウジョ,0
857,3430001047548,登記記録の閉鎖等,0,2026-01-16,2026-01-05,喜多村建設株式会社,,株式会社,北海道,夕張郡由仁町,北栄１３３番地,,01,427,0691201,,,2026-01-05,合併による解散等,3430001047564,令和８年１月１日北海道夕張郡由仁町古川２５番地１栄進工業株式会社（3430001047564）に合併し解散,2015-10-05,1,,,,,キタムラケンセツ,0
863,3450001004522,登記記録の閉鎖等,0,2026-01-16,2026-01-16,株式会社旭川菱自オート,,株式会社,北海道,旭川市,永山三条１４丁目６４番地の１,,01,204,0798413,,,2026-01-16,登記官による閉鎖,,,2015-10-05,1,,,,,,0
864,3450001006758,登記記録の閉鎖等,0,2026-01-16,2026-01-16,株式会社不二暖熱,,株式会社,北海道,旭川市,末広四条７丁目９番１３号,,01,204,0718134,,,2026-01-16,登記官による閉鎖,,,2015-10-05,1,,,,,,0
865,3450001009406,登記記録の閉鎖等,0,2026-01-16,2026-01-16,ゴードートランスポート株式会社,,株式会社,北海道,紋別市,北浜町１丁目９番２０号,,01,219,0940001,,,2026-01-16,登記官による閉鎖,,,2015-10-05,1,,,,,,0
866,3450001009447,登記記録の閉鎖等,0,2026-01-16,2026-01-16,株式会社太陽産業,,株式会社,北海道,紋別市,南が丘町８丁目６番地の１,,01,219,0940013,,,2026-01-16,登記官による閉鎖,,,2015-10-05,1,,,,,,0
867,3450002001799,登記記録の閉鎖等,0,2026-01-16,2026-01-16,有限会社旭龍工業,,有限会社,北海道,旭川市,大町一条８丁目２０番地,,01,204,0700841,,,2026-01-16,登記官による閉鎖,,,2015-10-05,1,,,,,,0
868,3450003000899,登記記録の閉鎖等,0,2026-01-16,2026-01-16,合同会社福祉タクシーケアーズ,,合同会社,北海道,旭川市,末広東三条６丁目１番５号,,01,204,0718123,,,2026-01-16,登記官による閉鎖,,,2015-10-05,1,,,,,,0
869,3450005003504,登記記録の閉鎖等,0,2026-01-16,2026-01-16,枝々幸共榮漁業生産組合,,その他の設立登記法人,北海道,紋別郡雄武町,大字幌内村字枝々幸番外地,,01,563,0981700,,,2026-01-16,登記官による閉鎖,,,2015-10-05,1,,,,,,0
872,3480001005732,登記記録の閉鎖等,0,2026-01-16,2026-01-13,日鉄鋼管ファインチューブ株式会社,,株式会社,徳島県,板野郡松茂町,豊久字豊久開拓１３９番地１７,,36,401,7710213,,,2026-01-13,合併による解散等,8140001054619,令和８年１月１日兵庫県尼崎市扶桑町１番２１号日鉄ファインチューブ株式会社（8140001054619）に合併し解散,2015-10-05,1,,,,,ニッテツコウカンファインチューブ,0
875,3500002024159,登記記録の閉鎖等,0,2026-01-16,2026-01-13,有限会社リード設計事務所,,有限会社,愛媛県,宇和島市,御幸町２丁目６番２２号,,38,203,7980013,,,2026-01-13,清算の結了等,,,2015-10-05,1,,,,,リードセッケイジムショ,0
879,4010001123786,登記記録の閉鎖等,0,2026-01-16,2025-12-18,ホットストア株式会社,,株式会社,東京都,港区,六本木５丁目９番２０号,,13,103,1060032,,,2025-12-18,清算の結了等,,,2015-10-05,1,,,,,ホットストア,0
888,4010101002774,登記記録の閉鎖等,0,2026-01-16,2026-01-05,株式会社トマック,,株式会社,愛知県,名古屋市中区,千代田１丁目４番８号,,23,106,4600012,,,2026-01-05,合併による解散等,9180001035754,令和８年１月１日名古屋市中区千代田一丁目４番８号広機通商株式会社（9180001035754）に合併し解散,2015-10-05,1,,,,,トマック,0
889,4010401019295,登記記録の閉鎖等,0,2026-01-16,2025-12-17,株式会社同文社,,株式会社,東京都,港区,南麻布４丁目１３番９号,,13,103,1060047,,,2025-12-17,清算の結了等,,,2015-10-05,1,,,,,ドウブンシャ,0
892,4010401095329,登記記録の閉鎖等,0,2026-01-16,2025-12-18,ジェイエムブイショップ株式会社,,株式会社,東京都,港区,港南２丁目１６番７－４２１０号,,13,103,1080075,,,2025-12-18,清算の結了等,,,2015-10-05,1,,,,,ジェイエムブイショップ,0
897,4010405017353,登記記録の閉鎖等,0,2026-01-16,2025-12-18,ＥＳＲ幸浦３・２一般社団法人,,その他の設立登記法人,東京都,港区,赤坂２丁目１０番５号デロイトトーマツ赤坂インターナショナル株式会社内,,13,103,1070052,,,2025-12-18,清算の結了等,,,2019-01-17,1,,,,,イーエスアールサチウラスリーツー,0
905,4010702003956,登記記録の閉鎖等,0,2026-01-16,2026-01-06,有限会社下里商店,,有限会社,東京都,品川区,戸越３丁目８番１６号,,13,109,1420041,,,2026-01-06,清算の結了等,,,2015-10-05,1,,,,,シモサトショウテン,0
907,4010901029612,登記記録の閉鎖等,0,2026-01-16,2026-01-14,株式会社ＰＥＡＣＥ,,株式会社,東京都,世田谷区,豪徳寺１丁目２５番５号,,13,112,1540021,,,2026-01-14,清算の結了等,,,2015-10-05,1,,,,,ピース,0
934,4011802023365,登記記録の閉鎖等,0,2026-01-16,2026-01-13,有限会社ビレッジ,,有限会社,東京都,葛飾区,青戸５丁目１６番１２号阿部ビル１階,,13,122,1250062,,,2026-01-13,清算の結了等,,,2015-10-05,1,,,,,,0
935,4011802026203,登記記録の閉鎖等,0,2026-01-16,2026-01-09,有限会社双芽化学,,有限会社,東京都,足立区,綾瀬３丁目１８番２０号,,13,121,1200005,,,2026-01-09,清算の結了等,,,2015-10-05,1,,,,,フタメカガク,0
938,4012402011099,登記記録の閉鎖等,0,2026-01-16,2026-01-07,有限会社小松治作商店,,有限会社,東京都,調布市,深大寺元町１丁目１１番地１,,13,208,1820017,,,2026-01-07,清算の結了等,,,2015-10-05,1,,,,,コマツジサクショウテン,0
947,4020001095100,登記記録の閉鎖等,0,2026-01-16,2026-01-05,株式会社ＳＧホーム,,株式会社,神奈川県,横浜市金沢区,幸浦１丁目１５番地の６０,,14,108,2360003,,,2026-01-05,合併による解散等,4020001023903,令和７年１２月３１日横浜市金沢区幸浦一丁目１５番地の６０東横市売木材株式会社（4020001023903）に合併し解散,2015-10-05,1,,,,,エスジーホーム,0
953,4020002079622,登記記録の閉鎖等,0,2026-01-16,2026-01-05,有限会社オハナ,,有限会社,神奈川県,横浜市緑区,十日市場町８０５番地２,,14,113,2260025,,,2026-01-05,合併による解散等,4011101107729,令和８年１月１日横浜市緑区十日市場町８０５番地２ＦＦＦＪ株式会社（4011101107729）に合併し解散,2015-10-05,1,,,,,オハナ,0
957,4021001010981,登記記録の閉鎖等,0,2026-01-16,2025-12-17,株式会社ハート・クオリア,,株式会社,神奈川県,鎌倉市,由比ガ浜４丁目４番３９号,,14,204,2480014,,,2025-12-17,清算の結了等,,,2015-10-05,1,,,,,,0
960,4021003016127,登記記録の閉鎖等,0,2026-01-16,2025-12-19,アライアンス・タイヤ合同会社,,合同会社,神奈川県,平塚市,追分２番１号,,14,203,2540047,,,2025-12-19,清算の結了等,,,2025-06-10,1,,,,,アライアンスタイヤ,0
979,4060003000533,登記記録の閉鎖等,0,2026-01-16,2026-01-14,合同会社久遠の森,,合同会社,栃木県,真岡市,小林５９番地３９,,09,209,3214321,,,2026-01-14,清算の結了等,,,2015-10-05,1,,,,,クオンノモリ,0
980,4070003002388,登記記録の閉鎖等,0,2026-01-16,2026-01-14,合同会社柿ノ木,,合同会社,群馬県,高崎市,南新波町１２８番地８,,10,202,3700083,,,2026-01-14,清算の結了等,,,2015-10-05,1,,,,,,0
982,4080102013153,登記記録の閉鎖等,0,2026-01-16,2026-01-13,有限会社アカイケ家電,,有限会社,静岡県,富士市,厚原６７４番地の５,,22,210,4190201,,,2026-01-13,清算の結了等,,,2015-10-05,1,,,,,アカイケカデン,0
989,4120001090363,登記記録の閉鎖等,0,2026-01-16,2026-01-13,三隆商事株式会社,,株式会社,大阪府,大阪市西区,西本町３丁目１番４６号,,27,106,5500005,,,2026-01-13,清算の結了等,,,2015-10-05,1,,,,,ミタカショウジ,0
995,4120001185931,登記記録の閉鎖等,0,2026-01-16,2026-01-14,株式会社ドリームゲート,,株式会社,大阪府,大阪市淀川区,宮原３丁目５番３６号新大阪トラストタワー１５階,,27,123,5320003,,,2026-01-14,合併による解散等,8260001007077,令和８年１月１日岡山市南区豊成二丁目７番１６号株式会社両備システムズ（8260001007077）に合併し解散,2015-10-05,1,,,,,,0
998,4120001197902,登記記録の閉鎖等,0,2026-01-16,2026-01-13,株式会社Ｂｌａｚｅ,,株式会社,大阪府,大阪市中央区,南船場３丁目２番２２号おおきに南船場ビル２０５,,27,128,5420081,,,2026-01-13,清算の結了等,,,2016-04-28,1,,,,,ブレイズ,0
1007,4120003016952,登記記録の閉鎖等,0,2026-01-16,2026-01-13,合同会社Ａ＆Ｂｙ,,合同会社,大阪府,大阪市城東区,今福西１丁目１５番３０－８０９号,,27,118,5360004,,,2026-01-13,清算の結了等,,,2020-02-07,1,,,,,エーアンドバイ,0
1019,4122001004195,登記記録の閉鎖等,0,2026-01-16,2026-01-05,ダイヤ観光株式会社,,株式会社,大阪府,東大阪市,御厨栄町２丁目６番１２号,,27,227,5770036,,,2026-01-05,清算の結了等,,,2015-10-05,1,,,,,ダイヤカンコウ,0
1022,4130001056999,登記記録の閉鎖等,0,2026-01-16,2026-01-05,株式会社ＥＹＥ　ＳＴＵＤＩＯ,,株式会社,京都府,京都市中京区,錦小路通室町西入天神山町２８０番地石勘ビル３階,,26,104,6048221,,,2026-01-05,合併による解散等,3130001062825,令和８年１月１日京都市中京区錦小路通室町西入天神山町２８０番地石勘ビル３階株式会社ＷＩＮＫ（3130001062825）に合併し解散,2016-03-03,1,,,,,アイスタジオ,0
1024,4140001041819,登記記録の閉鎖等,0,2026-01-16,2026-01-05,播丹土建工業株式会社,,株式会社,兵庫県,丹波篠山市,呉服町１０番地,,28,221,6692322,,,2026-01-05,清算の結了等,,,2015-10-05,1,,,,,バンタンドケンコウギョウ,0
1057,4180002077313,登記記録の閉鎖等,0,2026-01-16,2026-01-09,有限会社馬場工業,,有限会社,愛知県,一宮市,北方町中島字南辻ノ内４７番地２,00126135,23,203,4938003,,,2026-01-09,合併による解散等,6200001005724,令和８年１月１日岐阜市茜部中島三丁目１９番地吉田金属株式会社（6200001005724）に合併し解散,2015-10-05,1,,,,,ババコウギョウ,0
1064,4180302025871,登記記録の閉鎖等,0,2026-01-16,2026-01-07,英橋有限会社,,有限会社,愛知県,豊田市,久保町２丁目４番地２Ｔステージ久保町６０３号,,23,211,4710076,,,2026-01-07,清算の結了等,,,2015-10-05,1,,,,,エイキョウ,0
1066,4200002007837,登記記録の閉鎖等,0,2026-01-16,2026-01-08,有限会社土屋ゴム商会,,有限会社,岐阜県,各務原市,蘇原大島町２丁目５番地,,21,213,5040847,,,2026-01-08,清算の結了等,,,2015-10-05,1,,,,,ツチヤゴムショウカイ,0
1077,4230003002116,登記記録の閉鎖等,0,2026-01-16,2026-01-07,合同会社ＮＫゴールド,,合同会社,富山県,滑川市,高月町南台３番地３９,,16,206,9360078,,,2026-01-07,清算の結了等,,,2023-12-06,1,,,,,エヌケイゴールド,0
1090,4290001066413,登記記録の閉鎖等,0,2026-01-16,2025-12-26,株式会社美来館,,株式会社,福岡県,福岡市中央区,小笹４丁目８番９－１０２号,,40,133,8100033,,,2025-12-26,清算の結了等,,,2015-10-05,1,,,,,,0
1103,4310002008865,登記記録の閉鎖等,0,2026-01-16,2026-01-15,有限会社グッドリフォーム,,有限会社,長崎県,長崎市,岡町２番２２号,,42,201,8528115,,,2026-01-15,清算の結了等,,,2015-10-05,1,,,,,グッドリフォーム,0
1111,4350001002147,登記記録の閉鎖等,0,2026-01-16,2026-01-05,株式会社ユニテクス・ジャパン,,株式会社,東京都,豊島区,池袋２丁目４３番１号,,13,116,1710014,,,2026-01-05,合併による解散等,2013301019714,令和８年１月１日東京都豊島区池袋二丁目４３番１号株式会社パワーエッジ（2013301019714）に合併し解散,2015-10-05,1,,,,,ユニテクスジャパン,0
1121,4370001041663,登記記録の閉鎖等,0,2026-01-16,2026-01-13,株式会社新栄,,株式会社,宮城県,大崎市,古川南町４丁目２番５０号,,04,215,9896155,,,2026-01-13,清算の結了等,,,2017-06-19,1,,,,,シンエイ,0
1131,4430002045938,登記記録の閉鎖等,0,2026-01-16,2026-01-09,有限会社野幌不動産,,有限会社,北海道,江別市,大麻泉町２５番地３,,01,217,0690864,,,2026-01-09,清算の結了等,,,2015-10-05,1,,,,,,0
1135,4450001000446,登記記録の閉鎖等,0,2026-01-16,2026-01-16,株式会社井上農産,,株式会社,北海道,旭川市,永山六条６丁目１１番１号,,01,204,0798416,,,2026-01-16,登記官による閉鎖,,,2015-10-05,1,,,,,,0
1136,4450001002483,登記記録の閉鎖等,0,2026-01-16,2026-01-16,エブリーワード株式会社,,株式会社,北海道,旭川市,四条通４丁目左５号,,01,204,0700034,,,2026-01-16,登記官による閉鎖,,,2015-10-05,1,,,,,,0
1137,4450001002871,登記記録の閉鎖等,0,2026-01-16,2026-01-16,北海道自然環境開発株式会社,,株式会社,北海道,旭川市,末広一条４丁目２番１６号,,01,204,0718131,,,2026-01-16,登記官による閉鎖,,,2015-10-05,1,,,,,,0
1138,4450001003085,登記記録の閉鎖等,0,2026-01-16,2026-01-16,丸藤総合商事株式会社,,株式会社,北海道,旭川市,神居一条１３丁目３番７号,,01,204,0708011,,,2026-01-16,登記官による閉鎖,,,2015-10-05,1,,,,,,0
1139,4450001003498,登記記録の閉鎖等,0,2026-01-16,2026-01-16,株式会社サッポロ商社,,株式会社,北海道,旭川市,三条通８丁目１７０５番地５４,,01,204,0700033,,,2026-01-16,登記官による閉鎖,,,2015-10-05,1,,,,,,0
1140,4450001006344,登記記録の閉鎖等,0,2026-01-16,2026-01-16,今井建設株式会社,,株式会社,北海道,勇払郡占冠村,字中央４６の３７,,01,463,0792201,,,2026-01-16,登記官による閉鎖,,,2015-10-05,1,,,,,,0
1141,4450001006402,登記記録の閉鎖等,0,2026-01-16,2026-01-16,株式会社小渡工務店,,株式会社,北海道,空知郡上富良野町,中町３丁目５番２５号,,01,460,0710543,,,2026-01-16,登記官による閉鎖,,,2015-10-05,1,,,,,,0
1142,4450001006708,登記記録の閉鎖等,0,2026-01-16,2026-01-16,北雄株式会社,,株式会社,北海道,旭川市,忠和七条５丁目５番１２号,,01,204,0708047,,,2026-01-16,登記官による閉鎖,,,2015-10-05,1,,,,,,0
1143,4450001008142,登記記録の閉鎖等,0,2026-01-16,2026-01-16,宗谷運輸株式会社,,株式会社,北海道,稚内市,港５丁目７番４４号,,01,214,0970021,,,2026-01-16,登記官による閉鎖,,,2015-10-05,1,,,,,,0
1144,4450001008290,登記記録の閉鎖等,0,2026-01-16,2026-01-16,北洋通商株式会社,,株式会社,北海道,稚内市,港１丁目５番１４号,,01,214,0970021,,,2026-01-16,登記官による閉鎖,,,2015-10-05,1,,,,,,0
1145,4450001009173,登記記録の閉鎖等,0,2026-01-16,2026-01-16,出村林業株式会社,,株式会社,北海道,留萌郡小平町,字小平町４２８番地４３,,01,482,0783301,,,2026-01-16,登記官による閉鎖,,,2015-10-05,1,,,,,,0
1147,4450002003547,登記記録の閉鎖等,0,2026-01-16,2026-01-16,有限会社田中建築企画,,有限会社,北海道,旭川市,末広六条８丁目１番１５号,,01,204,0718136,,,2026-01-16,登記官による閉鎖,,,2015-10-05,1,,,,,,0
1148,4450002010502,登記記録の閉鎖等,0,2026-01-16,2026-01-16,有限会社ミップス,,有限会社,北海道,士別市,西一条８丁目７０８番地,,01,220,0950021,,,2026-01-16,登記官による閉鎖,,,2015-10-05,1,,,,,,0
1149,4450002011715,登記記録の閉鎖等,0,2026-01-16,2026-01-16,有限会社アヅマ,,有限会社,北海道,留萌市,錦町３丁目４１番地,,01,212,0770044,,,2026-01-16,登記官による閉鎖,,,2015-10-05,1,,,,,,0
1152,4500001013392,登記記録の閉鎖等,0,2026-01-16,2026-01-14,株式会社はしだ企画,,株式会社,愛媛県,今治市,矢田甲７１７番地１,,38,202,7940073,,,2026-01-14,清算の結了等,,,2015-10-05,1,,,,,ハシダキカク,0
1161,5010003018208,登記記録の閉鎖等,0,2026-01-16,2025-12-19,厚岸グリーン電力合同会社,,合同会社,東京都,港区,虎ノ門２丁目６番１号虎ノ門ヒルズステーションタワー,,13,103,1050001,,,2025-12-19,清算の結了等,,,2015-10-05,1,,,,,アッケシグリーンデンリョク,0
1167,5010401171979,登記記録の閉鎖等,0,2026-01-16,2025-12-18,Ｃｌｅａｎ　Ｔｅｃｈ　Ｊａｐａｎ株式会社,,株式会社,東京都,港区,六本木５丁目１７番６号,,13,103,1060032,,,2025-12-18,清算の結了等,,,2023-01-19,1,"Clean Tech Japan Co., Ltd.",Tokyo,"5-17-6 Roppongi, Minato-ku",,クリーンテックジャパン,0
1174,5010405017352,登記記録の閉鎖等,0,2026-01-16,2025-12-19,ＥＳＲ幸浦３・１一般社団法人,,その他の設立登記法人,東京都,港区,赤坂２丁目１０番５号デロイトトーマツ赤坂インターナショナル株式会社内,,13,103,1070052,,,2025-12-19,清算の結了等,,,2019-01-17,1,,,,,イーエスアールサチウラスリーワン,0
1175,5010405017377,登記記録の閉鎖等,0,2026-01-16,2025-12-18,ＥＳＲ幸浦３特定目的会社,,その他の設立登記法人,東京都,港区,赤坂２丁目１０番５号デロイトトーマツ赤坂インターナショナル株式会社内,,13,103,1070052,,,2025-12-18,清算の結了等,,,2019-01-23,1,,,,,イーエスアールサチウラスリー,0
1185,5010602024267,登記記録の閉鎖等,0,2026-01-16,2026-01-05,有限会社丸吉電気サービス,00051756,有限会社,東京都,江東区,亀戸９丁目１２番１７－１１０４号,,13,108,1360071,,,2026-01-05,清算の結了等,,,2015-10-05,1,,,,,マルヨシデンキサービス,0
1209,5011202000716,登記記録の閉鎖等,0,2026-01-16,2026-01-05,有限会社岩田興産,,有限会社,東京都,中野区,鷺宮４丁目９番１０号,,13,114,1650032,,,2026-01-05,清算の結了等,,,2015-10-05,1,,,,,イワタコウサン,0
1213,5011402010655,登記記録の閉鎖等,0,2026-01-16,2026-01-13,有限会社ダイワコムズ,,有限会社,東京都,板橋区,成増２丁目３３番１４号,,13,119,1750094,,,2026-01-13,清算の結了等,,,2015-10-05,1,,,,,ダイワコムズ,0
1214,5011501030380,登記記録の閉鎖等,0,2026-01-16,2026-01-13,Ｍｅｔｒｅｏｎ株式会社,,株式会社,東京都,北区,浮間１丁目１番１４号リムジンビル３０４,,13,117,1150051,,,2026-01-13,清算の結了等,,,2024-03-12,1,,,,,メトレオン,0
1219,5012401025198,登記記録の閉鎖等,0,2026-01-16,2026-01-09,Ｖａｌｇａ株式会社,,株式会社,東京都,国立市,西２丁目２１番地の２８,,13,215,1860005,,,2026-01-09,清算の結了等,,,2015-10-05,1,,,,,ヴァルガ,0
1235,5013302021179,登記記録の閉鎖等,0,2026-01-16,2026-01-05,有限会社ソフトウェアデザイン研究所,,有限会社,東京都,豊島区,西池袋３丁目７番６号,,13,116,1710021,,,2026-01-05,合併による解散等,1010001153308,令和８年１月１日東京都豊島区西池袋三丁目７番６号リブルアーチ株式会社（1010001153308）に合併し解散,2015-10-05,1,,,,,ソフトウェアデザインケンキュウジョ,0
1238,5020001027192,登記記録の閉鎖等,0,2026-01-16,2026-01-06,瑞垣観光株式会社,,株式会社,神奈川県,横浜市保土ケ谷区,瀬戸ケ谷町１３７番地,,14,106,2400024,,,2026-01-06,清算の結了等,,,2015-10-05,1,,,,,ミズガキカンコウ,0
1244,5020001158062,登記記録の閉鎖等,0,2026-01-16,2026-01-05,株式会社ｔａｏ　ｔａｂｌｅ,,株式会社,神奈川県,横浜市神奈川区,西神奈川１丁目８番地１４,,14,102,2210822,,,2026-01-05,合併による解散等,5020001035096,令和７年１２月２５日横浜市西区みなとみらい三丁目７番１号オーシャンゲートみなとみらい８階株式会社フロンティアハウス（5020001035096）に合併し解散,2024-07-11,1,,,,,タオテーブル,0
1259,5030001152691,登記記録の閉鎖等,0,2026-01-16,2026-01-06,株式会社リソース・コーチング,,株式会社,埼玉県,川越市,岸町２丁目２５番地１３（コスモ川越サーパスコート３０１号室）,,11,201,3501131,,,2026-01-06,清算の結了等,,,2023-03-07,1,,,,,リソースコーチング,0
1278,5080002010340,登記記録の閉鎖等,0,2026-01-16,2026-01-09,有限会社セイワン,,有限会社,静岡県,静岡市清水区,高橋南町１５番８号,,22,103,4240042,,,2026-01-09,清算の結了等,,,2015-10-05,1,,,,,セイワン,0
1283,5100001024941,登記記録の閉鎖等,0,2026-01-16,2026-01-13,株式会社要林産,,株式会社,長野県,南佐久郡川上村,大字御所平３３３番地本郷団地５号,,20,304,3841407,,,2026-01-13,清算の結了等,,,2015-10-05,1,,,,,カナメリンサン,0
1291,5120001011665,登記記録の閉鎖等,0,2026-01-16,2026-01-13,株式会社イクシマ建設,,株式会社,大阪府,大阪市東成区,深江南３丁目２０番１２号,,27,115,5370002,,,2026-01-13,清算の結了等,,,2015-10-05,1,,,,,イクシマケンセツ,0
1294,5120001142873,登記記録の閉鎖等,0,2026-01-16,2026-01-09,株式会社Ｋ　ＢＲＯＴＨＥＲＳ,,株式会社,大阪府,大阪市天王寺区,四天王寺２丁目１番９号,,27,109,5430051,,,2026-01-09,合併による解散等,3011001037647,令和８年１月１日東京都港区南青山二丁目２７番２５号ヒューリック南青山ビル５Ｆ株式会社カトープレジャーグループ（3011001037647）に合併し解散,2015-10-05,1,,,,,ケーブラザーズ,0
1298,5120001181896,登記記録の閉鎖等,0,2026-01-16,2026-01-13,株式会社Ｋｉｉｔｏｓ,,株式会社,大阪府,大阪市東淀川区,豊新５丁目１３番１１号,,27,114,5330014,,,2026-01-13,清算の結了等,,,2015-10-05,1,,,,,,0
1309,5120102023873,登記記録の閉鎖等,0,2026-01-16,2026-01-09,有限会社阪和鍍金工業所,,有限会社,大阪府,泉佐野市,鶴原３６２番地,,27,213,5980071,,,2026-01-09,清算の結了等,,,2015-10-05,1,,,,,,0
1316,5130001032116,登記記録の閉鎖等,0,2026-01-16,2026-01-14,株式会社テクノリンク,,株式会社,京都府,京都市下京区,不明門通木津屋橋下る東塩小路町５７６大橋ビル２Ｆ,,26,106,6008216,,,2026-01-14,合併による解散等,5010001205336,令和８年１月１日兵庫県姫路市東延末四丁目７３番地株式会社ニチギワールド（5010001205336）に合併し解散,2015-10-05,1,,,,,テクノリンク,0
1352,5180002019347,登記記録の閉鎖等,0,2026-01-16,2025-12-26,有限会社マツオカサービス,,有限会社,愛知県,名古屋市中川区,下之一色町字波花１１８番地,,23,110,4540945,,,2025-12-26,清算の結了等,,,2015-10-05,1,,,,,マツオカサービス,0
1354,5180301019254,登記記録の閉鎖等,0,2026-01-16,2026-01-05,株式会社豊和産業,,株式会社,愛知県,豊田市,御船町大釜５２番地１,,23,211,4700371,,,2026-01-05,合併による解散等,6180301018585,令和８年１月１日愛知県豊田市上原町折橋１番地１５大豊精機株式会社（6180301018585）に合併し解散,2015-10-05,1,,,,,ホウワサンギョウ,0
1357,5200001034831,登記記録の閉鎖等,0,2026-01-16,2026-01-08,ＷＯＯＤＪＯＢ株式会社,,株式会社,岐阜県,岐阜市,福富天神前２３４番地５,,21,201,5012566,,,2026-01-08,清算の結了等,,,2018-01-22,1,,,,,ウッドジョブ,0
1368,5240002004301,登記記録の閉鎖等,0,2026-01-16,2026-01-09,有限会社河面計理経営センター,,有限会社,広島県,広島市西区,草津東２丁目２１番６号,,34,104,7330861,,,2026-01-09,清算の結了等,,,2015-10-05,1,,,,,コウモケイリケイエイセンター,0
1372,5240005001485,登記記録の閉鎖等,0,2026-01-16,2026-01-13,医療法人社団吉田眼科医院,,その他の設立登記法人,広島県,広島市南区,猿猴橋町２番１１号広島駅前クリニックビル２階,,34,103,7320823,,,2026-01-13,清算の結了等,,,2015-10-05,1,,,,,ヨシダガンカイイン,0
1377,5290001070728,登記記録の閉鎖等,0,2026-01-16,2025-12-26,ＰＲＭ株式会社,,株式会社,福岡県,福岡市中央区,天神１丁目９－１７福岡天神フコク生命ビル１５Ｆ,,40,133,8100001,,,2025-12-26,清算の結了等,,,2015-10-05,1,,,,,ピーアールエム,0
1382,5290801027860,登記記録の閉鎖等,0,2026-01-16,2026-01-14,ＩＣＳ株式会社,,株式会社,福岡県,北九州市八幡西区,北筑２丁目５番２８号,,40,109,8070857,,,2026-01-14,清算の結了等,,,2021-10-06,1,,,,,アイシーエス,0
1389,5360002016598,登記記録の閉鎖等,0,2026-01-16,2026-01-08,有限会社波正産業,,有限会社,沖縄県,宜野湾市,嘉数１丁目８番６号,,47,205,9012226,,,2026-01-08,清算の結了等,,,2015-10-05,1,,,,,ナミショウサンギョウ,0
1394,5370002016044,登記記録の閉鎖等,0,2026-01-16,2026-01-14,有限会社ナウコーポレーション,,有限会社,宮城県,仙台市青葉区,錦町１丁目６番３号,,04,101,9800012,,,2026-01-14,清算の結了等,,,2015-10-05,1,,,,,ナウコーポレーション,0
1401,5370801001122,登記記録の閉鎖等,0,2026-01-16,2026-01-13,株式会社ファイン,,株式会社,宮城県,岩沼市,大手町６番２８号,,04,211,9892442,,,2026-01-13,清算の結了等,,,2015-10-05,1,,,,,ファイン,0
1405,5400001008939,登記記録の閉鎖等,0,2026-01-16,2026-01-06,株式会社Ｓ．Ｐ．Ｅ．Ｃ,,株式会社,岩手県,盛岡市,上厨川字下川原６５番地,,03,201,0200143,,,2026-01-06,清算の結了等,,,2015-10-05,1,,,,,スペック,0
1406,5400002003451,登記記録の閉鎖等,0,2026-01-16,2025-12-26,有限会社モリタニ,,有限会社,岩手県,盛岡市,高松３丁目１１番２９号,,03,201,0200114,,,2025-12-26,清算の結了等,,,2015-10-05,1,,,,,モリタニ,0
1421,5450001002557,登記記録の閉鎖等,0,2026-01-16,2026-01-16,株式会社フィクス,,株式会社,北海道,旭川市,豊岡十二条３丁目２番２１号,,01,204,0788242,,,2026-01-16,登記官による閉鎖,,,2015-10-05,1,,,,,,0
1422,5450001002648,登記記録の閉鎖等,0,2026-01-16,2026-01-16,株式会社プラテックルキア,,株式会社,北海道,旭川市,永山二条２３丁目２番１４号,,01,204,0798412,,,2026-01-16,登記官による閉鎖,,,2015-10-05,1,,,,,,0
1423,5450001004512,登記記録の閉鎖等,0,2026-01-16,2026-01-16,株式会社道北ダイヤオート,,株式会社,北海道,旭川市,永山二条９丁目５３番地,,01,204,0798412,,,2026-01-16,登記官による閉鎖,,,2015-10-05,1,,,,,,0
1424,5450001005675,登記記録の閉鎖等,0,2026-01-16,2026-01-16,株式会社康生堂,,株式会社,北海道,旭川市,三条通１２丁目９６９番地の１,,01,204,0700033,,,2026-01-16,登記官による閉鎖,,,2015-10-05,1,,,,,,0
1425,5450001007473,登記記録の閉鎖等,0,2026-01-16,2026-01-16,和幸漁業株式会社,,株式会社,北海道,枝幸郡枝幸町,幸町２４１番地１,,01,514,0985805,,,2026-01-16,登記官による閉鎖,,,2015-10-05,1,,,,,,0
1426,5450001007655,登記記録の閉鎖等,0,2026-01-16,2026-01-16,株式会社堀内建業,,株式会社,北海道,士別市,西五条１３丁目１１９３番地５２,,01,220,0950025,,,2026-01-16,登記官による閉鎖,,,2015-10-05,1,,,,,,0
1427,5450001009131,登記記録の閉鎖等,0,2026-01-16,2026-01-16,株式会社西川商店,,株式会社,北海道,増毛郡増毛町,畠中町３丁目８６番地,,01,481,0770214,,,2026-01-16,登記官による閉鎖,,,2015-10-05,1,,,,,,0
1428,5450001009379,登記記録の閉鎖等,0,2026-01-16,2026-01-16,株式会社加藤組,,株式会社,北海道,紋別市,渚滑町７丁目４０番地６３,,01,219,0995171,,,2026-01-16,登記官による閉鎖,,,2015-10-05,1,,,,,,0
1429,5450005001522,登記記録の閉鎖等,0,2026-01-16,2026-01-16,特定非営利活動法人日本環境リメイク,,その他の設立登記法人,北海道,上川郡東神楽町,南二条西１丁目５番１号,,01,453,0711503,,,2026-01-16,登記官による閉鎖,,,2015-10-05,1,,,,,,0
1442,6010001222355,登記記録の閉鎖等,0,2026-01-16,2025-12-19,Ｎｅｕｒｏｎ　Ｍｏｂｉｌｉｔｙ　Ｊａｐａｎ株式会社,,株式会社,東京都,千代田区,霞が関３丁目２番６号東京倶楽部ビルディング１１階,,13,101,1000013,,,2025-12-19,清算の結了等,,,2021-11-10,1,,,,,ニューロンモビリティジャパン,0
1458,6010401177315,登記記録の閉鎖等,0,2026-01-16,2025-12-17,株式会社ＧＳインベストメント,,株式会社,東京都,港区,麻布十番１丁目８番１１号３階,,13,103,1060045,,,2025-12-17,清算の結了等,,,2023-09-21,1,,,,,ジーエスインベストメント,0
1471,6010601047029,登記記録の閉鎖等,0,2026-01-16,2026-01-05,Ｉコミュニケーションズ・ジャパン株式会社,,株式会社,東京都,江東区,青海２丁目５－１０テレコムセンタービル東棟１４階,,13,108,1350064,,,2026-01-05,清算の結了等,,,2015-10-05,1,,,,,アイコミュニケーションズジャパン,0
1472,6010701019126,登記記録の閉鎖等,0,2026-01-16,2026-01-05,株式会社Ｎａｏｍｉ　Ｆａｃｔｏｒｙ,,株式会社,東京都,品川区,南品川３丁目４番１－２０８号,,13,109,1400004,,,2026-01-05,清算の結了等,,,2015-10-05,1,,,,,,0
1506,6011601027243,登記記録の閉鎖等,0,2026-01-16,2026-01-13,株式会社ＫＫＴ,,株式会社,東京都,練馬区,高野台１丁目７番１７－５０６号,,13,120,1770033,,,2026-01-13,清算の結了等,,,2023-11-02,1,,,,,ケイケイティー,0
1508,6011801018091,登記記録の閉鎖等,0,2026-01-16,2026-01-09,株式会社日本軌道,,株式会社,東京都,足立区,伊興２丁目１３番５－２０５号,,13,121,1210823,,,2026-01-09,清算の結了等,,,2015-10-05,1,,,,,ニホンキドウ,0
1514,6012401035816,登記記録の閉鎖等,0,2026-01-16,2026-01-08,株式会社リハイブ,,株式会社,東京都,調布市,国領町１丁目４１番地４,,13,208,1820022,,,2026-01-08,清算の結了等,,,2019-10-07,1,,,,,リハイブ,0
1523,6013301036078,登記記録の閉鎖等,0,2026-01-16,2026-01-05,ラナルータ株式会社,,株式会社,東京都,豊島区,西池袋３丁目７番６号,,13,116,1710021,,,2026-01-05,合併による解散等,1010001153308,令和８年１月１日東京都豊島区西池袋三丁目７番６号リブルアーチ株式会社（1010001153308）に合併し解散,2015-10-05,1,,,,,ラナルータ,0
1526,6013301040261,登記記録の閉鎖等,0,2026-01-16,2026-01-05,オーチャード株式会社,,株式会社,東京都,豊島区,西池袋３丁目７番６号,,13,116,1710021,,,2026-01-05,合併による解散等,1010001153308,令和８年１月１日東京都豊島区西池袋三丁目７番６号リブルアーチ株式会社（1010001153308）に合併し解散,2017-03-23,1,,,,,オーチャード,0
1528,6020001062486,登記記録の閉鎖等,0,2026-01-16,2026-01-05,株式会社ＴＯＭＯＲＲＯＷ,,株式会社,神奈川県,横浜市緑区,十日市場町８０５番地２,,14,113,2260025,,,2026-01-05,合併による解散等,4011101107729,令和８年１月１日横浜市緑区十日市場町８０５番地２ＦＦＦＪ株式会社（4011101107729）に合併し解散,2015-10-05,1,,,,,トゥモロー,0
1542,6030002073985,登記記録の閉鎖等,0,2026-01-16,2026-01-05,有限会社大栄自動車工業,,有限会社,埼玉県,川越市,大字川越字柳橋町２３６３番地８,,11,201,3500852,,,2026-01-05,清算の結了等,,,2015-10-05,1,,,,,ダイエイジドウシャコウギョウ,0
1543,6030002075528,登記記録の閉鎖等,0,2026-01-16,2026-01-06,有限会社横田屋電気商会,,有限会社,埼玉県,川越市,連雀町２番地２,,11,201,3500066,,,2026-01-06,清算の結了等,,,2015-10-05,1,,,,,ヨコタヤデンキショウカイ,0
1545,6030003004832,登記記録の閉鎖等,0,2026-01-16,2026-01-06,合同会社ＴＭＰ,,合同会社,埼玉県,深谷市,新戒１４３１番地,,11,218,3660019,,,2026-01-06,清算の結了等,,,2015-10-05,1,,,,,ティーエムピー,0
1571,6080401023207,登記記録の閉鎖等,0,2026-01-16,2026-01-06,きべ管財株式会社,,株式会社,静岡県,浜松市浜名区,貴布祢６７６番地の５,,22,139,4340038,,,2026-01-06,清算の結了等,,,2018-10-03,1,,,,,キベカンザイ,0
1580,6110001022035,登記記録の閉鎖等,0,2026-01-16,2026-01-08,株式会社アスク,,株式会社,新潟県,長岡市,今井３丁目５８番地,,15,202,9401166,,,2026-01-08,清算の結了等,,,2015-10-05,1,,,,,アスク,0
1590,6120001102975,登記記録の閉鎖等,0,2026-01-16,2026-01-05,サンガリア物流株式会社,,株式会社,大阪府,大阪市東住吉区,中野４丁目３番２４号,,27,121,5460012,,,2026-01-05,清算の結了等,,,2015-10-05,1,,,,,サンガリアブツリュウ,0
1592,6120001153969,登記記録の閉鎖等,0,2026-01-16,2026-01-13,株式会社ＪＯＹ,,株式会社,大阪府,寝屋川市,日之出町５番５号日之出ビル１階,,27,215,5720835,,,2026-01-13,清算の結了等,,,2015-10-05,1,,,,,,0
1622,6122002015990,登記記録の閉鎖等,0,2026-01-16,2026-01-13,有限会社アオキ,,有限会社,大阪府,八尾市,南植松町２丁目３１番地の２２,,27,212,5810091,,,2026-01-13,清算の結了等,,,2015-10-05,1,,,,,アオキ,0
1639,6170002003400,登記記録の閉鎖等,0,2026-01-16,2026-01-14,有限会社本町コンタクトレンズ,,有限会社,和歌山県,和歌山市,本町２丁目１番地フォルテワジマ２Ｆ,,30,201,6408033,,,2026-01-14,清算の結了等,,,2015-10-05,1,,,,,ホンマチコンタクトレンズ,0
1659,6190002019031,登記記録の閉鎖等,0,2026-01-16,2026-01-08,有限会社朝明メンテナンス,,有限会社,三重県,四日市市,西村町３８９８番地の２,,24,202,5121305,,,2026-01-08,清算の結了等,,,2015-10-05,1,,,,,アサケメンテナンス,0
1670,6240002035865,登記記録の閉鎖等,0,2026-01-16,2026-01-08,インテリアモリ有限会社,,有限会社,広島県,江田島市,大柿町柿浦３１５１番地の１,,34,215,7372211,,,2026-01-08,清算の結了等,,,2015-10-05,1,,,,,インテリアモリ,0
1671,6240002044016,登記記録の閉鎖等,0,2026-01-16,2026-01-07,有限会社山陽トラックタイヤ,,有限会社,広島県,福山市,明神町２丁目４番１号,,34,207,7210961,,,2026-01-07,清算の結了等,,,2015-10-05,1,,,,,サンヨウトラックタイヤ,0
1677,6290001038220,登記記録の閉鎖等,0,2026-01-16,2025-12-26,株式会社クラオカ,,株式会社,福岡県,糟屋郡志免町,志免４丁目２５番１９号,,40,343,8112202,,,2025-12-26,清算の結了等,,,2015-10-05,1,,,,,クラオカ,0
1689,6290802016837,登記記録の閉鎖等,0,2026-01-16,2026-01-14,有限会社グリーン調剤薬局,,有限会社,福岡県,遠賀郡遠賀町,大字今古賀６４９番地の３,,40,384,8114303,,,2026-01-14,清算の結了等,,,2015-10-05,1,,,,,グリーンチョウザイヤッキョク,0
1697,6320001014548,登記記録の閉鎖等,0,2026-01-16,2026-01-08,株式会社サクラオリーブ,,株式会社,大分県,大分市,大字勢家１０９８番地の３９,,44,201,8700100,,,2026-01-08,清算の結了等,,,2015-11-09,1,,,,,サクラオリーブ,0
1711,6370202004566,登記記録の閉鎖等,0,2026-01-16,2026-01-07,有限会社かのてい電機,,有限会社,宮城県,栗原市,若柳字川北中町１４番地,,04,213,9895501,,,2026-01-07,清算の結了等,,,2015-10-05,1,,,,,カノテイデンキ,0
1717,6400002002122,登記記録の閉鎖等,0,2026-01-16,2025-12-26,有限会社デイー・エス商事,,有限会社,岩手県,盛岡市,上田４丁目２０番３号,,03,201,0200066,,,2025-12-26,清算の結了等,,,2015-10-05,1,,,,,ディーエスショウジ,0
1723,6430001084646,登記記録の閉鎖等,0,2026-01-16,2026-01-08,株式会社ＪＡたきかわ商事,,株式会社,北海道,滝川市,江部乙町西１２丁目１番５２号,,01,225,0790462,,,2026-01-08,清算の結了等,,,2021-08-03,1,,,,,ジェイエータキカワショウジ,0
1730,6450001000114,登記記録の閉鎖等,0,2026-01-16,2026-01-16,株式会社アイム,,株式会社,北海道,旭川市,旭神二条３丁目１番１９号,,01,204,0788372,,,2026-01-16,登記官による閉鎖,,,2015-10-05,1,,,,,,0
1731,6450001000163,登記記録の閉鎖等,0,2026-01-16,2026-01-16,株式会社荒傳機,,株式会社,北海道,旭川市,八条通１６丁目左９号,,01,204,0700038,,,2026-01-16,登記官による閉鎖,,,2015-10-05,1,,,,,,0
1732,6450001000584,登記記録の閉鎖等,0,2026-01-16,2026-01-16,エチケープランニング株式会社,,株式会社,北海道,旭川市,東光二条７丁目１番１７号,,01,204,0788342,,,2026-01-16,登記官による閉鎖,,,2015-10-05,1,,,,,,0
1733,6450001001442,登記記録の閉鎖等,0,2026-01-16,2026-01-16,サンワエンジニアリング株式会社,,株式会社,北海道,旭川市,旭神一条５丁目８番１６号,,01,204,0788371,,,2026-01-16,登記官による閉鎖,,,2015-10-05,1,,,,,,0
1734,6450001001723,登記記録の閉鎖等,0,2026-01-16,2026-01-16,大麓自動車運輸株式会社,,株式会社,北海道,旭川市,東旭川町旭正３５番地の１１,,01,204,0788368,,,2026-01-16,登記官による閉鎖,,,2015-10-05,1,,,,,,0
1735,6450001002416,登記記録の閉鎖等,0,2026-01-16,2026-01-16,株式会社バイス,,株式会社,北海道,旭川市,豊岡七条１丁目１番１４号,,01,204,0788237,,,2026-01-16,登記官による閉鎖,,,2015-10-05,1,,,,,,0
1736,6450001003026,登記記録の閉鎖等,0,2026-01-16,2026-01-16,株式会社丸越よしだ京染・京呉服店,,株式会社,北海道,旭川市,忠和四条５丁目４番６号,,01,204,0708044,,,2026-01-16,登記官による閉鎖,,,2015-10-05,1,,,,,,0
1737,6450001004899,登記記録の閉鎖等,0,2026-01-16,2026-01-16,株式会社武田組,,株式会社,北海道,雨竜郡幌加内町,字朱鞠内,,01,472,0740742,,,2026-01-16,登記官による閉鎖,,,2015-10-05,1,,,,,,0
1738,6450001004916,登記記録の閉鎖等,0,2026-01-16,2026-01-16,株式会社生美,,株式会社,北海道,旭川市,春光五条３丁目８番１０号,,01,204,0700875,,,2026-01-16,登記官による閉鎖,,,2015-10-05,1,,,,,,0
1739,6450001008751,登記記録の閉鎖等,0,2026-01-16,2026-01-16,礼文産業株式会社,,株式会社,北海道,礼文郡礼文町,大字船泊村字ヲシヨンナイ１５９番地,,01,517,0971111,,,2026-01-16,登記官による閉鎖,,,2015-10-05,1,,,,,,0
1740,6450001008999,登記記録の閉鎖等,0,2026-01-16,2026-01-16,北光電気工業株式会社,,株式会社,北海道,留萌市,末広町３丁目４番３号,,01,212,0770006,,,2026-01-16,登記官による閉鎖,,,2015-10-05,1,,,,,,0
1741,6450001009188,登記記録の閉鎖等,0,2026-01-16,2026-01-16,株式会社永原産業,,株式会社,北海道,苫前郡初山別村,字有明４８番地,,01,485,0784411,,,2026-01-16,登記官による閉鎖,,,2015-10-05,1,,,,,,0
1742,6450002009492,登記記録の閉鎖等,0,2026-01-16,2026-01-16,有限会社富良野アニマルクリニック,,有限会社,北海道,富良野市,字信濃沢１１１１番地１２９,,01,229,0760039,,,2026-01-16,登記官による閉鎖,,,2015-10-05,1,,,,,,0
1771,7010005039844,登記記録の閉鎖等,0,2026-01-16,2026-01-09,一般社団法人ＭＡＴＳＵＲＩ,,その他の設立登記法人,東京都,中央区,京橋２丁目１２番６号ＡＯＪ税理士法人内,,13,102,1040031,,,2026-01-09,清算の結了等,,,2025-04-02,1,,,,,マツリ,0
1779,7010401177280,登記記録の閉鎖等,0,2026-01-16,2025-12-17,サザ・アンド・カンパニー株式会社,,株式会社,東京都,港区,南青山２丁目２番１５号,,13,103,1070062,,,2025-12-17,清算の結了等,,,2023-09-20,1,,,,,サザアンドカンパニー,0
1787,7010405014703,登記記録の閉鎖等,0,2026-01-16,2025-12-19,一般社団法人危機管理情報共有基盤,,その他の設立登記法人,東京都,港区,東新橋１丁目７番１号汐留メディアタワー,,13,103,1050021,,,2025-12-19,清算の結了等,,,2016-04-11,1,,,,,キキカンリジョウホウキョウユウキバン,0
1793,7010601056664,登記記録の閉鎖等,0,2026-01-16,2026-01-14,株式会社パレット,,株式会社,東京都,江東区,木場６丁目１０番６号,,13,108,1350042,,,2026-01-14,合併による解散等,5012801019873,令和８年１月１日東京都立川市曙町二丁目２２番７号株式会社福和（5012801019873）に合併し解散,2020-01-09,1,,,,,パレット,0
1802,7010803003893,登記記録の閉鎖等,0,2026-01-16,2025-12-15,合同会社ターボー,,合同会社,東京都,大田区,東嶺町３４番１０号,,13,111,1450074,,,2025-12-15,清算の結了等,,,2021-10-04,1,,,,,ターボー,0
1809,7011001139621,登記記録の閉鎖等,0,2026-01-16,2026-01-05,Ｄ‐Ｍａｒｋｅｔｉｎｇ　Ａｃａｄｅｍｙ株式会社,,株式会社,東京都,港区,虎ノ門２丁目６番１号虎ノ門ヒルズステーションタワー３６階,,13,103,1050001,,,2026-01-05,合併による解散等,6011001068854,令和８年１月１日東京都港区虎ノ門二丁目６番１号虎ノ門ヒルズステーションタワー３６階株式会社ＣＡＲＴＡ　ＺＥＲＯ（6011001068854）に合併し解散,2021-04-09,1,,,,,ディーマーケティングアカデミー,0
1826,7011701019387,登記記録の閉鎖等,0,2026-01-16,2026-01-06,株式会社ロックオンロール,,株式会社,東京都,江戸川区,西葛西８丁目１１番１６号,,13,123,1340088,,,2026-01-06,清算の結了等,,,2015-11-06,1,,,,,ロックオンロール,0
1827,7011701021260,登記記録の閉鎖等,0,2026-01-16,2026-01-05,株式会社テルマエオット,,株式会社,東京都,江戸川区,新堀２丁目２４番１３号,,13,123,1320001,,,2026-01-05,清算の結了等,,,2017-10-18,1,,,,,テルマエオット,0
1838,7012401033769,登記記録の閉鎖等,0,2026-01-16,2026-01-06,株式会社セルカ,,株式会社,東京都,調布市,国領町１丁目２２番地８,,13,208,1820022,,,2026-01-06,清算の結了等,,,2018-03-22,1,,,,,セルカ,0
1839,7012401039361,登記記録の閉鎖等,0,2026-01-16,2026-01-07,ＪＵＫＩテクノソリューションズ株式会社,,株式会社,東京都,多摩市,鶴牧２丁目１１番地１,,13,224,2060034,,,2026-01-07,合併による解散等,8013401006169,令和７年１２月３１日東京都多摩市鶴牧二丁目１１番地１ＪＵＫＩ株式会社（8013401006169）に合併し解散,2022-07-07,1,,,,,ジューキテクノソリューションズ,0
1851,7021001030085,登記記録の閉鎖等,0,2026-01-16,2026-01-05,株式会社バーベン,,株式会社,神奈川県,横浜市緑区,十日市場町８０５番地２,,14,113,2260025,,,2026-01-05,合併による解散等,4011101107729,令和８年１月１日横浜市緑区十日市場町８０５番地２ＦＦＦＪ株式会社（4011101107729）に合併し解散,2015-10-05,1,,,,,バーベン,0
1866,7040001093594,登記記録の閉鎖等,0,2026-01-16,2025-12-19,株式会社Ｏｎｅ,,株式会社,千葉県,松戸市,常盤平１丁目２番地の１１ルネス常盤平３０５,,12,207,2702261,,,2025-12-19,清算の結了等,,,2016-01-12,1,,,,,ワン,0
1873,7040002065527,登記記録の閉鎖等,0,2026-01-16,2025-12-22,有限会社凜風,,有限会社,千葉県,四街道市,旭ケ丘２丁目６番８号,,12,228,2840024,,,2025-12-22,清算の結了等,,,2015-10-05,1,,,,,リンプウ,0
1881,7060001024201,登記記録の閉鎖等,0,2026-01-16,2026-01-14,株式会社グランマーム,,株式会社,栃木県,栃木市,大平町西水代１９３１番地３,,09,203,3294423,,,2026-01-14,清算の結了等,,,2015-10-05,1,,,,,グランマーム,0
1885,7070002010307,登記記録の閉鎖等,0,2026-01-16,2026-01-13,有限会社島方商店,,有限会社,群馬県,高崎市,上中居町１８２番地４,,10,202,3700851,,,2026-01-13,清算の結了等,,,2015-10-05,1,,,,,シマカタショウテン,0
1886,7070002012039,登記記録の閉鎖等,0,2026-01-16,2026-01-13,有限会社マセック,,有限会社,群馬県,高崎市,東貝沢町４丁目６番地６,,10,202,3700041,,,2026-01-13,清算の結了等,,,2015-10-05,1,,,,,マセック,0
1895,7080101013135,登記記録の閉鎖等,0,2026-01-16,2026-01-13,朝日ホンダ株式会社,,株式会社,静岡県,伊東市,荻５７４番地の２７,,22,208,4140053,,,2026-01-13,合併による解散等,5080401014859,令和８年１月１日静岡県菊川市加茂５４４番地の１株式会社ホンダカーズ中央静岡（5080401014859）に合併し解散,2015-10-05,1,,,,,アサヒホンダ,0
1905,7110001029087,登記記録の閉鎖等,0,2026-01-16,2026-01-08,株式会社Ｍ．Ａ．Ｚ,,株式会社,新潟県,上越市,東本町２丁目１番２０号,,15,222,9430825,,,2026-01-08,清算の結了等,,,2015-10-05,1,,,,,エムエーゼット,0
1907,7110003005425,登記記録の閉鎖等,0,2026-01-16,2026-01-09,合同会社小林,,合同会社,新潟県,新潟市西区,寺尾上２丁目１番９号,,15,107,9502055,,,2026-01-09,清算の結了等,,,2024-06-12,1,,,,,コバヤシ,0
1909,7120001092489,登記記録の閉鎖等,0,2026-01-16,2026-01-13,株式会社ロックフィールド美容室,,株式会社,大阪府,大阪市中央区,心斎橋筋１丁目３番２８号大喜ビル２Ｆ,,27,128,5420085,,,2026-01-13,清算の結了等,,,2015-10-05,1,,,,,ロックフィールドビヨウシツ,0
1936,7122002009819,登記記録の閉鎖等,0,2026-01-16,2026-01-15,有限会社ワイズマシン,,有限会社,大阪府,東大阪市,昭和町１１番１３号,,27,227,5798046,,,2026-01-15,清算の結了等,,,2015-10-05,1,,,,,ワイズマシン,0
1937,7130001008808,登記記録の閉鎖等,0,2026-01-16,2026-01-13,株式会社山中,,株式会社,京都府,京都市西京区,樫原塚ノ本町１３番地６,,26,111,6158147,,,2026-01-13,清算の結了等,,,2015-10-05,1,,,,,ヤマナカ,0
1941,7140001010580,登記記録の閉鎖等,0,2026-01-16,2026-01-08,フジ工業株式会社,,株式会社,兵庫県,神戸市兵庫区,永沢町２丁目１番２８号,,28,105,6520816,,,2026-01-08,清算の結了等,,,2015-10-05,1,,,,,フジコウギョウ,0
1943,7140001043176,登記記録の閉鎖等,0,2026-01-16,2026-01-07,株式会社多田石油,,株式会社,兵庫県,加古郡播磨町,宮西１丁目４－５,,28,382,6750145,,,2026-01-07,清算の結了等,,,2015-10-05,1,,,,,タダセキユ,0
1947,7140001090202,登記記録の閉鎖等,0,2026-01-16,2026-01-06,タカホーム株式会社,,株式会社,兵庫県,尼崎市,上坂部３丁目２番８号,,28,202,6610979,,,2026-01-06,合併による解散等,9140001049824,令和８年１月１日兵庫県尼崎市上坂部三丁目３番１号高田建設株式会社（9140001049824）に合併し解散,2015-10-05,1,,,,,タカホーム,0
1954,7140002053819,登記記録の閉鎖等,0,2026-01-16,2026-01-06,有限会社テラヤマ企画,,有限会社,兵庫県,姫路市,木場１４４５番地の１,,28,201,6728016,,,2026-01-06,清算の結了等,,,2015-10-05,1,,,,,,0
1963,7180001019949,登記記録の閉鎖等,0,2026-01-16,2026-01-13,百年住宅中部株式会社,,株式会社,愛知県,名古屋市中川区,西日置町１０丁目２２５番地,,23,110,4540005,,,2026-01-13,合併による解散等,5080001009862,令和８年１月１日静岡市駿河区大谷二丁目２０番２３号百年住宅株式会社（5080001009862）に合併し解散,2015-10-05,1,,,,,ヒャクネンジュウタクチュウブ,0
1977,7180003024872,登記記録の閉鎖等,0,2026-01-16,2026-01-13,合同会社福,,合同会社,愛知県,一宮市,南小渕字屋敷８０番地７,,23,203,4910014,,,2026-01-13,清算の結了等,,,2023-02-27,1,,,,,フク,0
1982,7180301033476,登記記録の閉鎖等,0,2026-01-16,2026-01-15,株式会社ＡＣＥ　ｏｎｅ,,株式会社,愛知県,刈谷市,池田町２丁目１０１番地アイリスビル２Ｆ,,23,210,4480044,,,2026-01-15,清算の結了等,,,2020-03-06,1,,,,,エースワン,0
1985,7180302001556,登記記録の閉鎖等,0,2026-01-16,2026-01-06,有限会社杉田測量設計事務所,,有限会社,愛知県,岡崎市,大幡町字東方便野２２番地,,23,202,4443502,,,2026-01-06,清算の結了等,,,2015-10-05,1,,,,,スギタソクリョウセッケイジムショ,0
1987,7190001018017,登記記録の閉鎖等,0,2026-01-16,2026-01-09,株式会社荒木瓦建材,,株式会社,三重県,四日市市,大字西阿倉川８９０番地１,,24,202,5100812,,,2026-01-09,清算の結了等,,,2015-10-05,1,,,,,アラキカワラケンザイ,0
1989,7200002007157,登記記録の閉鎖等,0,2026-01-16,2026-01-07,有限会社おたっしゃ堂,,有限会社,岐阜県,各務原市,蘇原島崎町３丁目１５７番地の１,,21,213,5040856,,,2026-01-07,清算の結了等,,,2015-10-05,1,,,,,オタッシャドウ,0
1991,7220002003146,登記記録の閉鎖等,0,2026-01-16,2026-01-14,正栄商事有限会社,,有限会社,石川県,金沢市,古府２丁目２０２番地,,17,201,9200362,,,2026-01-14,清算の結了等,,,2015-10-05,1,,,,,ショウエイショウジ,0
1998,7250002000958,登記記録の閉鎖等,0,2026-01-16,2026-01-09,有限会社竹内食品,,有限会社,山口県,山口市,小郡新町２丁目１１番１０号,,35,203,7540031,,,2026-01-09,清算の結了等,,,2015-10-05,1,,,,,タケウチショクヒン,0
2004,7290001093470,登記記録の閉鎖等,0,2026-01-16,2025-12-26,株式会社ＬＩＦＴ,,株式会社,福岡県,福岡市中央区,天神２丁目３番１０号天神パインクレスト７１９号,,40,133,8100001,,,2025-12-26,清算の結了等,,,2021-06-09,1,,,,,リフト,0
2016,7290803004600,登記記録の閉鎖等,0,2026-01-16,2026-01-13,合同会社住いリフォームサン,,合同会社,福岡県,遠賀郡水巻町,二東３丁目１６番３１号,,40,382,8070054,,,2026-01-13,清算の結了等,,,2024-01-24,1,,,,,スマイリフォームサン,0
2024,7320002019256,登記記録の閉鎖等,0,2026-01-16,2026-01-09,有限会社豊田電器商会,,有限会社,大分県,日田市,本庄町７番５号,,44,204,8770046,,,2026-01-09,清算の結了等,,,2015-10-05,1,,,,,トヨダデンキショウカイ,0
2025,7320002021575,登記記録の閉鎖等,0,2026-01-16,2026-01-14,有限会社草野発條製作所,,有限会社,大分県,中津市,山国町平小野３６５番地,,44,203,8710711,,,2026-01-14,清算の結了等,,,2015-10-05,1,,,,,クサノハツジョウセイサクショ,0
2031,7350005001670,登記記録の閉鎖等,0,2026-01-16,2026-01-07,特定非営利活動法人ゆめ家族,,その他の設立登記法人,宮崎県,宮崎市,南方町迫之山１５９番地,,45,201,8800037,,,2026-01-07,清算の結了等,,,2015-10-05,1,,,,,ユメカゾク,0
2046,7430001057469,登記記録の閉鎖等,0,2026-01-16,2026-01-13,株式会社もがみやフィッツカンパニー,,株式会社,北海道,登別市,若山町４丁目４１番地２,,01,230,0590026,,,2026-01-13,清算の結了等,,,2015-10-05,1,,,,,モガミヤフィッツカンパニー,0
2054,7450001001433,登記記録の閉鎖等,0,2026-01-16,2026-01-16,株式会社サンライト工業,,株式会社,北海道,旭川市,神楽二条７丁目３番３号,,01,204,0708002,,,2026-01-16,登記官による閉鎖,,,2015-10-05,1,,,,,,0
2055,7450001001565,登記記録の閉鎖等,0,2026-01-16,2026-01-16,末広通商株式会社,,株式会社,北海道,旭川市,末広東一条６丁目７３番地の６１,,01,204,0718121,,,2026-01-16,登記官による閉鎖,,,2015-10-05,1,,,,,,0
2056,7450001002183,登記記録の閉鎖等,0,2026-01-16,2026-01-16,株式会社道北興業,,株式会社,北海道,旭川市,三条通８丁目左８号,,01,204,0700033,,,2026-01-16,登記官による閉鎖,,,2015-10-05,1,,,,,,0
2057,7450001002448,登記記録の閉鎖等,0,2026-01-16,2026-01-16,ハタ産業株式会社,,株式会社,北海道,旭川市,三条通２３丁目左５号,,01,204,0788213,,,2026-01-16,登記官による閉鎖,,,2015-10-05,1,,,,,,0
2058,7450001003124,登記記録の閉鎖等,0,2026-01-16,2026-01-16,明治建設工業株式会社,,株式会社,北海道,旭川市,東光五条６丁目３番１６号,,01,204,0788345,,,2026-01-16,登記官による閉鎖,,,2015-10-05,1,,,,,,0
2059,7450001005905,登記記録の閉鎖等,0,2026-01-16,2026-01-16,株式会社Ｅｘａ,,株式会社,北海道,旭川市,豊岡八条２丁目３番３号,,01,204,0788238,,,2026-01-16,登記官による閉鎖,,,2015-10-05,1,,,,,,0
2060,7450001006440,登記記録の閉鎖等,0,2026-01-16,2026-01-16,株式会社大央生コン,,株式会社,北海道,富良野市,字学田三区,,01,229,0760035,,,2026-01-16,登記官による閉鎖,,,2015-10-05,1,,,,,,0
2061,7450001006597,登記記録の閉鎖等,0,2026-01-16,2026-01-16,株式会社富良野マーケットサービス,,株式会社,北海道,富良野市,幸町２番１８号,,01,229,0760024,,,2026-01-16,登記官による閉鎖,,,2015-10-05,1,,,,,,0
2062,7450001008107,登記記録の閉鎖等,0,2026-01-16,2026-01-16,株式会社サンエスソーマ,,株式会社,北海道,稚内市,富岡３丁目１５番３号,,01,214,0970012,,,2026-01-16,登記官による閉鎖,,,2015-10-05,1,,,,,,0
2063,7450001008206,登記記録の閉鎖等,0,2026-01-16,2026-01-16,株式会社得田商店,,株式会社,北海道,稚内市,中央３丁目３番４号,,01,214,0970022,,,2026-01-16,登記官による閉鎖,,,2015-10-05,1,,,,,,0
2064,7450001008346,登記記録の閉鎖等,0,2026-01-16,2026-01-16,株式会社急行,,株式会社,北海道,稚内市,萩見５丁目７番１６号,,01,214,0970016,,,2026-01-16,登記官による閉鎖,,,2015-10-05,1,,,,,,0
2065,7450001009617,登記記録の閉鎖等,0,2026-01-16,2026-01-16,工藤電気株式会社,,株式会社,北海道,紋別郡雄武町,字北雄武３０４番地の１８,,01,563,0981701,,,2026-01-16,登記官による閉鎖,,,2015-10-05,1,,,,,,0
2066,7450001009633,登記記録の閉鎖等,0,2026-01-16,2026-01-16,株式会社道順組,,株式会社,北海道,紋別郡雄武町,字雄武７１４番地,,01,563,0981702,,,2026-01-16,登記官による閉鎖,,,2015-10-05,1,,,,,,0
2067,7450001010376,登記記録の閉鎖等,0,2026-01-16,2026-01-16,株式会社白金ゴルフ倶楽部,,株式会社,北海道,上川郡美瑛町,字置杵牛７５０９番１８０,,01,459,0710234,,,2026-01-16,登記官による閉鎖,,,2015-10-05,1,,,,,,0
2069,7450003002181,登記記録の閉鎖等,0,2026-01-16,2026-01-13,合同会社なまらコリア,,合同会社,北海道,旭川市,緑が丘南二条２丁目８番１０号,,01,204,0788812,,,2026-01-13,清算の結了等,,,2022-02-24,1,,,,,ナマラコリア,0
2070,7450005002287,登記記録の閉鎖等,0,2026-01-16,2026-01-16,一般社団法人北海道家相住宅協会,,その他の設立登記法人,北海道,旭川市,豊岡二条２丁目１番１号,,01,204,0788232,,,2026-01-16,登記官による閉鎖,,,2015-10-05,1,,,,,,0
2125,8011401017467,登記記録の閉鎖等,0,2026-01-16,2026-01-05,株式会社ＡＣクリーン東京,,株式会社,東京都,板橋区,坂下１丁目２５番１６号,,13,119,1740043,,,2026-01-05,合併による解散等,3021001015387,令和８年１月１日東京都板橋区坂下一丁目２５番１６号２ＦＢＩＬＬＳ株式会社（3021001015387）に合併し解散,2015-10-05,1,,,,,エーシークリーントウキョウ,0
2127,8011501030964,登記記録の閉鎖等,0,2026-01-16,2026-01-13,日本農発株式会社,,株式会社,東京都,北区,堀船３丁目２４番４号梶原銀座ビル１０６,,13,117,1140004,,,2026-01-13,清算の結了等,,,2024-07-25,1,,,,,ニホンノウハツ,0
2133,8011702012737,登記記録の閉鎖等,0,2026-01-16,2026-01-06,和鋼工業有限会社,,有限会社,東京都,江戸川区,宇喜田町１１０９番地６,,13,123,1340082,,,2026-01-06,清算の結了等,,,2015-10-05,1,,,,,ワコウコウギョウ,0
2135,8011801000543,登記記録の閉鎖等,0,2026-01-16,2026-01-09,株式会社漆原,,株式会社,東京都,葛飾区,金町３丁目７番４号,,13,122,1250042,,,2026-01-09,清算の結了等,,,2015-10-05,1,,,,,ウルシバラ,0
2137,8011802018997,登記記録の閉鎖等,0,2026-01-16,2026-01-13,有限会社丸増工務店,,有限会社,東京都,足立区,入谷４丁目１３番７号,,13,121,1210836,,,2026-01-13,清算の結了等,,,2015-10-05,1,,,,,マルマスコウムテン,0
2138,8011802026587,登記記録の閉鎖等,0,2026-01-16,2026-01-09,有限会社アスカオート,,有限会社,東京都,足立区,江北６丁目１９番１３号,,13,121,1230872,,,2026-01-09,清算の結了等,,,2015-10-05,1,,,,,アスカオート,0
2150,8013301037149,登記記録の閉鎖等,0,2026-01-16,2026-01-05,アムマイン株式会社,,株式会社,東京都,豊島区,西池袋３丁目７番６号,,13,116,1710021,,,2026-01-05,合併による解散等,1010001153308,令和８年１月１日東京都豊島区西池袋三丁目７番６号リブルアーチ株式会社（1010001153308）に合併し解散,2015-10-05,1,,,,,アムマイン,0
2151,8013301038171,登記記録の閉鎖等,0,2026-01-16,2026-01-05,ロンバート株式会社,,株式会社,東京都,豊島区,西池袋３丁目７番６号,,13,116,1710021,,,2026-01-05,合併による解散等,1010001153308,令和８年１月１日東京都豊島区西池袋三丁目７番６号リブルアーチ株式会社（1010001153308）に合併し解散,2016-01-12,1,,,,,ロンバート,0
2152,8013401007126,登記記録の閉鎖等,0,2026-01-16,2026-01-07,ＪＵＫＩオートメーションシステムズ株式会社,,株式会社,東京都,多摩市,鶴牧２丁目１１番地１,,13,224,2060034,,,2026-01-07,合併による解散等,8013401006169,令和７年１２月３１日東京都多摩市鶴牧二丁目１１番地１ＪＵＫＩ株式会社（8013401006169）に合併し解散,2015-10-05,1,,,,,ジューキオートメーションシステムズ,0
2156,8020002062756,登記記録の閉鎖等,0,2026-01-16,2026-01-07,有限会社マイン,,有限会社,神奈川県,横浜市旭区,柏町１６番地の８,,14,112,2410835,,,2026-01-07,清算の結了等,,,2015-10-05,1,,,,,マイン,0
2158,8020003018476,登記記録の閉鎖等,0,2026-01-16,2026-01-06,合同会社ＹＴ１３,,合同会社,神奈川県,横浜市金沢区,泥亀１丁目１２番１７－２号,,14,108,2360021,,,2026-01-06,清算の結了等,,,2020-09-10,1,,,,,ワイティージュウサン,0
2164,8030001010509,登記記録の閉鎖等,0,2026-01-16,2026-01-05,株式会社セイストン,,株式会社,埼玉県,さいたま市西区,大字土屋２１６番地１,,11,101,3310062,,,2026-01-05,清算の結了等,,,2015-10-05,1,,,,,セイストン,0
2165,8030001025325,登記記録の閉鎖等,0,2026-01-16,2026-01-05,株式会社ルミエール,,株式会社,東京都,豊島区,池袋２丁目４３番１号,,13,116,1710014,,,2026-01-05,合併による解散等,2013301019714,令和８年１月１日東京都豊島区池袋二丁目４３番１号株式会社パワーエッジ（2013301019714）に合併し解散,2015-10-05,1,,,,,ルミエール,0
2180,8040001130594,登記記録の閉鎖等,0,2026-01-16,2025-12-05,Ｊ．Ｔ．Ｚ株式会社,,株式会社,千葉県,流山市,松ケ丘１丁目４５５番地７アーバンパレス南柏３１８号室,,12,220,2700141,,,2025-12-05,清算の結了等,,,2023-10-20,1,,,,,ジェイティーゼット,0
2199,8080101017341,登記記録の閉鎖等,0,2026-01-16,2026-01-08,株式会社ＴＡＫＵ建築スタジオ,,株式会社,静岡県,富士市,今泉３６０７番地の１０,,22,210,4170001,,,2026-01-08,清算の結了等,,,2015-10-05,1,,,,,タクケンチクスタジオ,0
2222,8120001272494,登記記録の閉鎖等,0,2026-01-16,2026-01-13,株式会社ＦＬＡＶＯＲＨＯＬＩＣ,,株式会社,大阪府,門真市,三ツ島２丁目２２番４４号,,27,223,5710015,,,2026-01-13,清算の結了等,,,2025-01-31,1,,,,,フレーバーホリック,0
2225,8120003012650,登記記録の閉鎖等,0,2026-01-16,2026-01-13,合同会社ＴＦＣ,,合同会社,大阪府,大阪市中央区,南船場４丁目１０番５号ＳＯＨＯビル７０２,,27,128,5420081,,,2026-01-13,清算の結了等,,,2017-04-03,1,,,,,,0
2246,8180001131240,登記記録の閉鎖等,0,2026-01-16,2026-01-07,株式会社ＹＫＦ,,株式会社,岐阜県,安八郡安八町,森部１３８９番地,,21,383,5030114,,,2026-01-07,清算の結了等,,,2018-02-19,1,,,,,ワイケーエフ,0
2250,8180003014996,登記記録の閉鎖等,0,2026-01-16,2026-01-05,合同会社ＳＡＮＲＩＴＳＵ,,合同会社,愛知県,名古屋市名東区,社台３丁目２５０番地の１藤和シティホームズ一社２０１号,,23,115,4650092,,,2026-01-05,清算の結了等,,,2015-10-05,1,,,,,,0
2254,8200001009509,登記記録の閉鎖等,0,2026-01-16,2026-01-13,株式会社ソーケン岐阜,,株式会社,岐阜県,羽島郡笠松町,長池３９２番地の１,,21,303,5016063,,,2026-01-13,清算の結了等,,,2015-10-05,1,,,,,ソーケンギフ,0
2289,8290801017553,登記記録の閉鎖等,0,2026-01-16,2026-01-14,株式会社事業再生研究会,,株式会社,福岡県,北九州市門司区,下馬寄３番３号,,40,101,8000051,,,2026-01-14,清算の結了等,,,2015-10-05,1,,,,,ジギョウサイセイケンキュウカイ,0
2318,8450001000211,登記記録の閉鎖等,0,2026-01-16,2026-01-16,旭川菅原建設工業株式会社,,株式会社,北海道,旭川市,神楽岡十二条５丁目４番２１号,,01,204,0788322,,,2026-01-16,登記官による閉鎖,,,2015-10-05,1,,,,,,0
2319,8450001000467,登記記録の閉鎖等,0,2026-01-16,2026-01-16,岩崎建設株式会社,,株式会社,北海道,旭川市,神居六条２丁目１番１１号,,01,204,0708016,,,2026-01-16,登記官による閉鎖,,,2015-10-05,1,,,,,,0
2320,8450001006539,登記記録の閉鎖等,0,2026-01-16,2026-01-16,株式会社北都観光,,株式会社,北海道,富良野市,若葉町３番８号,,01,229,0760022,,,2026-01-16,登記官による閉鎖,,,2015-10-05,1,,,,,,0
2321,8450001008378,登記記録の閉鎖等,0,2026-01-16,2026-01-16,稚内遠洋漁業株式会社,,株式会社,北海道,稚内市,中央５丁目１０番７号,,01,214,0970022,,,2026-01-16,登記官による閉鎖,,,2015-10-05,1,,,,,,0
2322,8450002001828,登記記録の閉鎖等,0,2026-01-16,2026-01-16,有限会社クニ美容室,,有限会社,北海道,旭川市,永山三条１９丁目２番４号,,01,204,0798413,,,2026-01-16,登記官による閉鎖,,,2015-10-05,1,,,,,,0
2323,8450002009318,登記記録の閉鎖等,0,2026-01-16,2026-01-16,有限会社笹鮨,,有限会社,北海道,空知郡中富良野町,南町７番７号,,01,461,0710753,,,2026-01-16,登記官による閉鎖,,,2015-10-05,1,,,,,,0
2324,8450005000629,登記記録の閉鎖等,0,2026-01-16,2026-01-16,農事組合法人西部生産組合,,その他の設立登記法人,北海道,上川郡東川町,西町１丁目５番１号,,01,458,0711425,,,2026-01-16,登記官による閉鎖,,,2015-10-05,1,,,,,,0
2331,9010001124961,登記記録の閉鎖等,0,2026-01-16,2026-01-13,株式会社バリュー・ザ・ホテル,,株式会社,宮城県,名取市,上余田字千刈田５５５番１,,04,207,9811222,,,2026-01-13,合併による解散等,5010001128140,令和８年１月１日東京都中央区新川一丁目２３番５号ポラリス・ホールディングス株式会社（5010001128140）に合併し解散,2015-10-05,1,,,,,バリューザホテル,0
2340,9010001215637,登記記録の閉鎖等,0,2026-01-16,2025-12-09,株式会社ゼロプロダクト,,株式会社,東京都,千代田区,麹町５丁目３－２３日テレ四谷ビル１０Ｆ,,13,101,1020083,,,2025-12-09,清算の結了等,,,2021-02-08,1,,,,,ゼロプロダクト,0
2353,9010401008459,登記記録の閉鎖等,0,2026-01-16,2026-01-05,株式会社クレイン麻布,,株式会社,神奈川県,横浜市港北区,大曽根３丁目２６番１５号,,14,109,2220003,,,2026-01-05,清算の結了等,,,2015-10-05,1,,,,,クレインアザブ,0
2368,9010701004496,登記記録の閉鎖等,0,2026-01-16,2026-01-06,株式会社島村商店,,株式会社,東京都,品川区,東五反田３丁目１番１号,,13,109,1410022,,,2026-01-06,清算の結了等,,,2015-10-05,1,,,,,シマムラショウテン,0
2372,9010901008256,登記記録の閉鎖等,0,2026-01-16,2026-01-07,東金土建株式会社,,株式会社,東京都,世田谷区,梅丘１丁目５９番２６号,,13,112,1540022,,,2026-01-07,清算の結了等,,,2015-10-05,1,,,,,トウガネドケン,0
2393,9011303002327,登記記録の閉鎖等,0,2026-01-16,2026-01-13,ＥＳＪ－ＭＥＴＨＯＤ普及協会合同会社,,合同会社,東京都,杉並区,荻窪５丁目１６番１２－２０１号,,13,115,1670051,,,2026-01-13,清算の結了等,,,2015-11-05,1,,,,,イーエスジェイメゾット,0
2394,9011401015445,登記記録の閉鎖等,0,2026-01-16,2026-01-13,株式会社ドリームハウス匠,,株式会社,東京都,板橋区,成増１丁目３１番５号弥生ビル３階,,13,119,1750094,,,2026-01-13,清算の結了等,,,2015-10-05,1,,,,,ドリームハウスタクミ,0
2420,9013301000386,登記記録の閉鎖等,0,2026-01-16,2026-01-09,株式会社ジャパンギャルズＳＣ,,株式会社,愛媛県,四国中央市,三島中央２丁目１２番１０号,,38,213,7990405,,,2026-01-09,合併による解散等,6500001015057,令和８年１月１日愛媛県四国中央市三島中央二丁目１２番１０号株式会社ジャパンギャルズ（6500001015057）に合併し解散,2015-10-05,1,,,,,ジャパンギャルズエスシー,0
2433,9030001027139,登記記録の閉鎖等,0,2026-01-16,2026-01-05,株式会社デンツートラフィック,,株式会社,埼玉県,入間市,大字下藤沢５５３番地１,,11,225,3580011,,,2026-01-05,合併による解散等,6030001024411,令和８年１月１日埼玉県所沢市松葉町３番１号株式会社セキュリティ（6030001024411）に合併し解散,2015-10-05,1,,,,,デンツートラフィック,0
2453,9050002013219,登記記録の閉鎖等,0,2026-01-16,2026-01-05,有限会社坪井園,,有限会社,茨城県,稲敷郡美浦村,大字木原５０１番地,,08,442,3000421,,,2026-01-05,清算の結了等,,,2015-10-05,1,,,,,,0
2462,9060003002120,登記記録の閉鎖等,0,2026-01-16,2026-01-14,合同会社オリエント,,合同会社,栃木県,宇都宮市,西刑部町２６８１番地４５,,09,201,3210917,,,2026-01-14,清算の結了等,,,2015-10-05,1,,,,,オリエント,0
2469,9090001017836,登記記録の閉鎖等,0,2026-01-16,2026-01-05,Ｌ＆Ｔ　Ｄｅｓｉｇｎ株式会社,,株式会社,山梨県,甲府市,徳行３丁目１５番３６号,,19,201,4000047,,,2026-01-05,合併による解散等,7090001002419,令和７年１２月２９日山梨県甲府市国母二丁目４番２６号株式会社ユー・ファイブ（7090001002419）に合併し解散,2022-11-07,1,,,,,エルアンドティーデザイン,0
2472,9100002038029,登記記録の閉鎖等,0,2026-01-16,2026-01-13,飯田金網興業有限会社,,有限会社,長野県,飯田市,座光寺２７７９番地８,,20,205,3950001,,,2026-01-13,清算の結了等,,,2015-10-05,1,,,,,イイダカナアミコウギョウ,0
2473,9100002038904,登記記録の閉鎖等,0,2026-01-16,2026-01-13,有限会社うつわ屋文尚,,有限会社,長野県,北佐久郡軽井沢町,大字長倉１８９１番地１２５,,20,321,3890111,,,2026-01-13,清算の結了等,,,2015-10-05,1,,,,,ウツワヤフミショウ,0
2474,9110001030596,登記記録の閉鎖等,0,2026-01-16,2026-01-13,株式会社エンジニア,,株式会社,新潟県,長岡市,上岩井８８４番地１,,15,202,9402314,,,2026-01-13,清算の結了等,,,2015-10-05,1,,,,,エンジニア,0
2480,9120001245490,登記記録の閉鎖等,0,2026-01-16,2026-01-13,株式会社アイティエスロジスティクス,,株式会社,大阪府,大阪市中央区,内本町２丁目１番１９号内本町松屋ビル１０－９階,,27,128,5400026,,,2026-01-13,清算の結了等,,,2022-04-25,1,,,,,アイティエスロジスティクス,0
2482,9120001255531,登記記録の閉鎖等,0,2026-01-16,2026-01-13,嘉合株式会社,,株式会社,大阪府,大阪市大正区,三軒家西３丁目４番１６号中山ビル２１１Ａ,,27,108,5510001,,,2026-01-13,清算の結了等,,,2023-06-13,1,,,,,カアイ,0
2499,9120005024528,登記記録の閉鎖等,0,2026-01-16,2025-12-16,一般社団法人ＡＡＳＨＡ,,その他の設立登記法人,大阪府,大阪市淀川区,木川西１丁目６番２１号,,27,123,5320013,,,2025-12-16,清算の結了等,,,2024-09-09,1,,,,,アーシャ,0
2501,9120101025735,登記記録の閉鎖等,0,2026-01-16,2026-01-08,松原金属株式会社,,株式会社,大阪府,松原市,三宅中７丁目１番１８号,,27,217,5800046,,,2026-01-08,清算の結了等,,,2015-10-05,1,,,,,マツバラキンゾク,0
2504,9120101070153,登記記録の閉鎖等,0,2026-01-16,2026-01-08,冠美株式会社,,株式会社,大阪府,大阪市西区,立売堀４丁目６－２０－３０２号,,27,106,5500012,,,2026-01-08,清算の結了等,,,2024-08-13,1,,,,,カンビ,0
2511,9122002010857,登記記録の閉鎖等,0,2026-01-16,2026-01-13,有限会社ラブピュア,,有限会社,大阪府,四條畷市,雁屋南町５番３２号,,27,229,5750036,,,2026-01-13,清算の結了等,,,2015-10-05,1,,,,,ラブピュア,0
2533,9180001080123,登記記録の閉鎖等,0,2026-01-16,2026-01-13,株式会社エフテック,,株式会社,愛知県,長久手市,仏が根１０３番地１,,23,238,4801177,,,2026-01-13,清算の結了等,,,2015-10-05,1,,,,,エフテック,0
2561,9240001053510,登記記録の閉鎖等,0,2026-01-16,2026-01-09,株式会社はっぴいプラス,,株式会社,広島県,広島市西区,井口台３丁目３３番６９－１０７号,,34,104,7330844,,,2026-01-09,清算の結了等,,,2018-11-06,1,,,,,ハッピイプラス,0
2569,9260005003757,登記記録の閉鎖等,0,2026-01-16,2026-01-13,特定非営利活動法人きび電脳倶楽部,,その他の設立登記法人,岡山県,倉敷市,阿知３丁目８番６号,,33,202,7100055,,,2026-01-13,清算の結了等,,,2015-10-05,1,,,,,キビデンノウクラブ,0
2576,9290001078412,登記記録の閉鎖等,0,2026-01-16,2025-12-26,株式会社先駆建設,,株式会社,福岡県,大牟田市,諏訪町３丁目３７番地２,,40,202,8360051,,,2025-12-26,清算の結了等,,,2017-07-14,1,,,,,センクケンセツ,0
2579,9290002036451,登記記録の閉鎖等,0,2026-01-16,2026-01-05,有限会社シヤンドレス,,有限会社,福岡県,糟屋郡篠栗町,大字尾仲５８２－１０,,40,342,8112413,,,2026-01-05,清算の結了等,,,2015-10-05,1,,,,,,0
2582,9290801000070,登記記録の閉鎖等,0,2026-01-16,2025-12-26,株式会社アイ・シイ・ビー,,株式会社,福岡県,飯塚市,潤野１３５２番地１,,40,205,8200021,,,2025-12-26,清算の結了等,,,2015-10-05,1,,,,,アイシイビー,0
2606,9430002026025,登記記録の閉鎖等,0,2026-01-16,2026-01-08,有限会社丸秀後藤商事,,有限会社,北海道,札幌市中央区,円山西町２丁目１２番１２号,,01,101,0640944,,,2026-01-08,清算の結了等,,,2015-10-05,1,,,,,マルヒデゴトウショウジ,0
2609,9450001002289,登記記録の閉鎖等,0,2026-01-16,2026-01-16,錦峡観光物産株式会社,,株式会社,北海道,上川郡上川町,字共進２２８番地,,01,457,0781732,,,2026-01-16,登記官による閉鎖,,,2015-10-05,1,,,,,,0
2610,9450001003147,登記記録の閉鎖等,0,2026-01-16,2026-01-16,株式会社森口建設,,株式会社,北海道,旭川市,大町二条９丁目,,01,204,0700842,,,2026-01-16,登記官による閉鎖,,,2015-10-05,1,,,,,,0
2611,9450001003246,登記記録の閉鎖等,0,2026-01-16,2026-01-16,株式会社矢代商店,,株式会社,北海道,旭川市,十条通８丁目３０９７番地５,,01,204,0700040,,,2026-01-16,登記官による閉鎖,,,2015-10-05,1,,,,,,0
2612,9450001009375,登記記録の閉鎖等,0,2026-01-16,2026-01-16,海陸産業株式会社,,株式会社,北海道,紋別市,落石町２丁目１番地７,,01,219,0940007,,,2026-01-16,登記官による閉鎖,,,2015-10-05,1,,,,,,0
