sequenceNumber,corporateNumber,process,correct,updateDate,changeDate,name,nameImageId,kind,prefectureName,cityName,streetNumber,addressImageId,prefectureCode,cityCode,postCode,addressOutside,addressOutsideImageId,closeDate,closeCause,successorCorporateNumber,changeCause,assignmentDate,latest,enName,enPrefectureName,enCityName,enAddressOutside,furigana,hihyoji
6,1010003036997,新規,0,2022-02-10,2022-02-10,合同会社Ｃクリエイティブ,,合同会社,東京都,中央区,銀座７丁目１３番６号サガミビル２階,,13,102,1040061,,,,,,,2022-02-10,1,,,,,シークリエイティブ,0
7,1010005034578,新規,0,2022-02-10,2022-02-10,ＴＦ内幸町特定目的会社,,その他の設立登記法人,東京都,千代田区,丸の内３丁目１番１号東京共同会計事務所内,,13,101,1000005,,,,,,,2022-02-10,1,,,,,ティーエフウチサイワイチョウ,0
12,1010401165489,新規,0,2022-02-10,2022-02-10,株式会社Ａｏｕｌｅｅ,,株式会社,東京都,港区,愛宕２丁目３－１－３１１,,13,103,1050002,,,,,,,2022-02-10,1,,,,,アオリー,0
13,1010401165514,新規,0,2022-02-10,2022-02-10,株式会社フェムラーツ,,株式会社,東京都,港区,芝２丁目８番１２号,,13,103,1050014,,,,,,,2022-02-10,1,,,,,フェムラーツ,0
14,1010501048445,新規,0,2022-02-10,2022-02-10,株式会社アテンティブシステム,,株式会社,東京都,台東区,東上野２丁目１８番９号,,13,106,1100015,,,,,,,2022-02-10,1,,,,,アテンティブシステム,0
20,1010701042223,新規,0,2022-02-10,2022-02-10,Ｂｅｓｐｏｋｅ　Ａｕｔｏｍｏｔｉｖｅ株式会社,,株式会社,東京都,品川区,東五反田１丁目５番１－４１３号海老原国際税務事務所内,,13,109,1410022,,,,,,,2022-02-10,1,,,,,ビスポークオートモーティブ,0
21,1010703006102,新規,0,2022-02-10,2022-02-10,合同会社Ｎ＆Ｉ,,合同会社,東京都,品川区,上大崎２丁目１１番３－３０６号,,13,109,1410021,,,,,,,2022-02-10,1,,,,,エヌアンドアイ,0
22,1010703006110,新規,0,2022-02-10,2022-02-10,合同会社ＳＭＥ,,合同会社,東京都,品川区,旗の台５丁目１０番１０号,,13,109,1420064,,,,,,,2022-02-10,1,,,,,エスエムイー,0
26,1010801032727,新規,0,2022-02-10,2022-02-10,東京ダイニング株式会社,,株式会社,東京都,大田区,西蒲田６丁目３３番７号,,13,111,1440051,,,,,,,2022-02-10,1,,,,,トウキョウダイニング,0
29,1010905004259,新規,0,2022-02-10,2022-02-10,一般社団法人オールスターズ倶楽部,,その他の設立登記法人,東京都,世田谷区,成城８丁目３３番１６号東高ペアシティ・ルーセント成城４０２,,13,112,1570066,,,,,,,2022-02-10,1,,,,,オールスターズクラブ,0
35,1011001145526,新規,0,2022-02-10,2022-02-10,株式会社ＮＥＸＴ　ＢＯＸ,,株式会社,東京都,渋谷区,笹塚３丁目１番１１号プライムアーバン笹塚１０６,,13,113,1510073,,,,,,,2022-02-10,1,,,,,ネクストボックス,0
36,1011001145559,新規,0,2022-02-10,2022-02-10,株式会社ＡＰＦ,,株式会社,東京都,渋谷区,初台１丁目４７番４号第２加藤ビル,,13,113,1510061,,,,,,,2022-02-10,1,,,,,エーピーエフ,0
37,1011001145609,新規,0,2022-02-10,2022-02-10,株式会社クレアトライブ,,株式会社,東京都,渋谷区,恵比寿南２丁目３番１０号,,13,113,1500022,,,,,,,2022-02-10,1,,,,,クレアトライブ,0
45,1011101097782,新規,0,2022-02-10,2022-02-10,株式会社４６１０４,,株式会社,東京都,新宿区,歌舞伎町２丁目１３番６号メトロプラザ１２階Ｅ室,,13,104,1600021,,,,,,,2022-02-10,1,,,,,シロトシ,0
49,1011303004306,新規,0,2022-02-10,2022-02-10,ＳＡＭＵ　ＩＮＴＥＲＮＡＴＩＯＮＡＬ合同会社,,合同会社,東京都,杉並区,阿佐谷北５丁目２４番６－１０１号,,13,115,1660001,,,,,,,2022-02-10,1,,,,,サムインターナショナル,0
55,1011703003064,新規,0,2022-02-10,2022-02-10,合同会社マイラシク,,合同会社,東京都,江戸川区,北篠崎１丁目８番５号,,13,123,1330053,,,,,,,2022-02-10,1,,,,,マイラシク,0
61,1012701016925,新規,0,2022-02-10,2022-02-10,株式会社ＴＢＭ,,株式会社,東京都,西東京市,保谷町６丁目２５番８号１階,,13,229,2020015,,,,,,,2022-02-10,1,,,,,ティービーエム,0
62,1012801021395,新規,0,2022-02-10,2022-02-10,株式会社Ｌｅｂｅｎｓ　Ｇａｒｔｅｎ,,株式会社,東京都,日野市,多摩平６丁目４３番地の４,,13,212,1910062,,,,,,,2022-02-10,1,,,,,リーベンスガルテン,0
64,1012805003084,新規,0,2022-02-10,2022-02-10,一般社団法人ＰＯＣ,,その他の設立登記法人,東京都,国立市,東２丁目２番地１１ニューホープ１０２,,13,215,1860002,,,,,,,2022-02-10,1,,,,,ポック,0
68,1013301048672,新規,0,2022-02-10,2022-02-10,株式会社ネオグリフ,,株式会社,東京都,豊島区,池袋１丁目１１－１,,13,116,1700014,,,,,,,2022-02-10,1,,,,,ネオグリフ,0
74,1020001145196,新規,0,2022-02-10,2022-02-10,悠和システム株式会社,,株式会社,神奈川県,横浜市南区,六ツ川１丁目３０８番１３号３０３,,14,105,2320066,,,,,,,2022-02-10,1,,,,,ユウワシステム,0
81,1021001075152,新規,0,2022-02-10,2022-02-10,株式会社ＭｉｒａｉＥｓｔａｔｅ,,株式会社,神奈川県,藤沢市,円行２丁目２８番地の４桐ヶ谷ハイツ１０３,,14,205,2520805,,,,,,,2022-02-10,1,,,,,ミライエステート,0
83,1021003011394,新規,0,2022-02-10,2022-02-10,ｅ－Ｃｏａｓｔ合同会社,,合同会社,神奈川県,茅ヶ崎市,南湖５丁目１０－７,,14,207,2530061,,,,,,,2022-02-10,1,,,,,イーコースト,0
88,1030003018837,新規,0,2022-02-10,2022-02-10,ＯＮＥ　ＷＯＲＫＳ合同会社,,合同会社,埼玉県,久喜市,久本寺３４－６０,,11,232,3400212,,,,,,,2022-02-10,1,,,,,ワンワークス,0
94,1040001122177,新規,0,2022-02-10,2022-02-10,株式会社Ｒｅｓｏｒｎａ,,株式会社,千葉県,千葉市中央区,弁天１丁目１５番３号Ｂ１Ｆ,,12,101,2600045,,,,,,,2022-02-10,1,,,,,レゾルナ,0
95,1040001122185,新規,0,2022-02-10,2022-02-10,株式会社ＲＩＺＥ,,株式会社,千葉県,千葉市若葉区,千城台南４丁目７番８号,,12,104,2640003,,,,,,,2022-02-10,1,,,,,,0
99,1040003019446,新規,0,2022-02-10,2022-02-10,サン・アチーヴ合同会社,,合同会社,千葉県,八千代市,勝田台１丁目１４番地２０シントクビル３階,,12,221,2760023,,,,,,,2022-02-10,1,,,,,サンアチーヴ,0
100,1040003019470,新規,0,2022-02-10,2022-02-10,合同会社８２８ＰＬＡＮＮＩＮＧ,,合同会社,千葉県,船橋市,北本町１丁目１５番１－８２８号,,12,204,2730864,,,,,,,2022-02-10,1,,,,,ハチニーハチプランニング,0
104,1050001050591,新規,0,2022-02-10,2022-02-10,株式会社犬井産業,,株式会社,茨城県,北相馬郡利根町,大字羽中５５２番地６,,08,564,3001625,,,,,,,2022-02-10,1,,,,,イヌイサンギョウ,0
105,1050001050609,新規,0,2022-02-10,2022-02-10,株式会社Ｇ－ＳＴＹＬＥ,,株式会社,茨城県,古河市,諸川１０２８番地１,,08,204,3060126,,,,,,,2022-02-10,1,,,,,ジースタイル,0
112,1060001034560,新規,0,2022-02-10,2022-02-10,株式会社ＡＸＩＡ,,株式会社,栃木県,鹿沼市,奈佐原町１９５番地５,,09,205,3220528,,,,,,,2022-02-10,1,,,,,アクシア,0
113,1060005009947,新規,0,2022-02-10,2022-02-10,ＮＰＯ法人全国産後トータルケア協会,,その他の設立登記法人,栃木県,さくら市,氏家２９１９番地３０,,09,214,3291311,,,,,,,2022-02-10,1,,,,,ゼンコクサンゴトータルケアキョウカイ,0
137,1120001243675,新規,0,2022-02-10,2022-02-10,秋之念商貿株式会社,,株式会社,大阪府,大阪市東成区,東小橋１丁目１７－３１グランドハイツ東小橋３０３号室,,27,115,5370024,,,,,,,2022-02-10,1,,,,,アキノネンショウボウ,0
138,1120001243741,新規,0,2022-02-10,2022-02-10,養和健康管理株式会社,,株式会社,大阪府,大阪市天王寺区,味原町７番７－５０１号,,27,109,5430023,,,,,,,2022-02-10,1,,,,,ヨウワケンコウカンリ,0
139,1120001243758,新規,0,2022-02-10,2022-02-10,株式会社ヒーローズ,,株式会社,大阪府,大阪市北区,西天満６丁目２－１４,,27,127,5300047,,,,,,,2022-02-10,1,,,,,ヒーローズ,0
140,1120001243766,新規,0,2022-02-10,2022-02-10,株式会社Ｒｅ．ｍａｋｅ,,株式会社,大阪府,大阪市北区,鶴野町４番１１号朝日プラザ梅田２Ｆ,,27,127,5300014,,,,,,,2022-02-10,1,,,,,リメイク,0
141,1120001243790,新規,0,2022-02-10,2022-02-10,銘辰国際貿易株式会社,,株式会社,大阪府,大阪市住吉区,苅田１０丁目８番９－９号,,27,120,5580011,,,,,,,2022-02-10,1,,,,,メイシンコクサイボウエキ,0
142,1120003021113,新規,0,2022-02-10,2022-02-10,ＭＩＬ＆ＣＯ合同会社,,合同会社,大阪府,大阪市城東区,成育４丁目２８番３号,,27,118,5360007,,,,,,,2022-02-10,1,,,,,ミルアンドコー,0
144,1120005022786,新規,0,2022-02-10,2022-02-10,行政書士法人Ｃ－ｆｉｒｓｔ,,その他の設立登記法人,大阪府,大阪市西区,北堀江１丁目３番１７－６０３号,,27,106,5500014,,,,,,,2022-02-10,1,,,,,シーファースト,0
146,1120101065061,新規,0,2022-02-10,2022-02-10,株式会社夢宙Ｌａｂ,,株式会社,大阪府,泉南市,信達市場３１－９１,,27,228,5900504,,,,,,,2022-02-10,1,,,,,ムチュウラボ,0
147,1120103004570,新規,0,2022-02-10,2022-02-10,愛彩商会合同会社,,合同会社,大阪府,和泉市,府中町６丁目１４番３２－８０７号,,27,219,5940071,,,,,,,2022-02-10,1,,,,,アイショウカイ,0
150,1120901045584,新規,0,2022-02-10,2022-02-10,株式会社楽勝,,株式会社,大阪府,豊中市,桜の町３丁目３番７号,,27,203,5600054,,,,,,,2022-02-10,1,,,,,ラクショウ,0
151,1120901045592,新規,0,2022-02-10,2022-02-10,株式会社ｅｔｈｉｃａ,,株式会社,大阪府,箕面市,新稲３丁目１４番１０－２０６号,,27,220,5620005,,,,,,,2022-02-10,1,,,,,エシカ,0
165,1140001124881,新規,0,2022-02-10,2022-02-10,株式会社Ｉ,,株式会社,兵庫県,三田市,あかしあ台３丁目２７番地４０,,28,219,6691323,,,,,,,2022-02-10,1,,,,,アイ,0
183,1180003023491,新規,0,2022-02-10,2022-02-10,合同会社ブリュッケ,,合同会社,愛知県,名古屋市千種区,高見１丁目１１０１番地,,23,101,4640073,,,,,,,2022-02-10,1,,,,,ブリュッケ,0
186,1190001029119,新規,0,2022-02-10,2022-02-10,株式会社ＴＨＩＲＤ　ＰＬＡＣＥ,,株式会社,三重県,津市,下弁財町津興２５０番地１,,24,201,5140805,,,,,,,2022-02-10,1,,,,,サードプレイス,0
190,1200001039727,新規,0,2022-02-10,2022-02-10,株式会社ｅａｒｔｈ　ｈｏｌｄｉｎｇｓ,,株式会社,岐阜県,美濃加茂市,中部台４丁目１５番地６ＲａｓｃａｌＤ,,21,211,5050038,,,,,,,2022-02-10,1,,,,,アースホールディングス,0
199,1250001019410,新規,0,2022-02-10,2022-02-10,株式会社誼,,株式会社,山口県,山口市,鋳銭司９３７番地,,35,203,7471221,,,,,,,2022-02-10,1,,,,,ヨシミ,0
205,1280001008633,新規,0,2022-02-10,2022-02-10,株式会社イワミガーデンキーパー,,株式会社,島根県,益田市,幸町２番６３号,,32,204,6980021,,,,,,,2022-02-10,1,,,,,イワミガーデンキーパー,0
215,1300005007059,新規,0,2022-02-10,2022-02-10,一般社団法人ＫＯＪＹＯＫＡＮ,,その他の設立登記法人,佐賀県,小城市,小城町松尾２０５３番地,,41,208,8450004,,,,,,,2022-02-10,1,,,,,コウジョウカン,0
220,1320003003727,新規,0,2022-02-10,2022-02-10,合同会社ｂｌｏｓｓｏｍ,,合同会社,大分県,中津市,牛神町１丁目６番地２４,,44,203,8710016,,,,,,,2022-02-10,1,,,,,ブロッソム,0
253,1430003013599,新規,0,2022-02-10,2022-02-10,合同会社ファイングラウンド,,合同会社,北海道,夕張郡由仁町,古川８２４番地,,01,427,0691202,,,,,,,2022-02-10,1,,,,,ファイングラウンド,0
256,1470003002128,新規,0,2022-02-10,2022-02-10,合同会社オーラ,,合同会社,香川県,高松市,円座町１９６５番地２１,,37,201,7618044,,,,,,,2022-02-10,1,,,,,オーラ,0
259,1500001023997,新規,0,2022-02-10,2022-02-10,株式会社マリーノ,,株式会社,愛媛県,新居浜市,外山町１６番３２号,,38,205,7920823,,,,,,,2022-02-10,1,,,,,マリーノ,0
260,1700150107028,新規,0,2022-02-10,2022-02-10,ＭＥＡＭＥ　ＨＡＲＤＷＥＲＥ＆ＡＵＴＯ　ＰＡＲＴＳ　ＣＥＮＴＲＥ,,外国会社等,千葉県,旭市,清和甲１６３２－２－４,,12,215,2890507,スリランカ民主社会主義共和国ハイラプラ、ハットン４７／２３Ｂ,,,,,,2022-02-10,1,,,,,ミアミハードウエアアンドオートパーツセンター,0
267,2010001224504,新規,0,2022-02-10,2022-02-10,エムトレジャー株式会社,,株式会社,東京都,中央区,日本橋室町１丁目９番９号新室町ビル２Ｆ,,13,102,1030022,,,,,,,2022-02-10,1,,,,,エムトレジャー,0
281,2010401165505,新規,0,2022-02-10,2022-02-10,株式会社ＰｒｏＦｉｔ　ＳＧ,,株式会社,東京都,港区,南青山２丁目２番１５号,,13,103,1070062,,,,,,,2022-02-10,1,,,,,プロフィットエスジー,0
282,2010401165513,新規,0,2022-02-10,2022-02-10,Ｎｅｘｔ　Ｉｎｎｏｖａｔｉｏｎｓ株式会社,,株式会社,東京都,港区,浜松町２丁目２番１５号浜松町ダイヤビル２Ｆ,,13,103,1050013,,,,,,,2022-02-10,1,,,,,ネクストイノベーションズ,0
283,2010401165521,新規,0,2022-02-10,2022-02-10,あす未来研究所株式会社,,株式会社,東京都,港区,芝浦４丁目２１番１－１１１７号,,13,103,1080023,,,,,,,2022-02-10,1,,,,,アスミライケンキュウジョ,0
288,2010601060662,新規,0,2022-02-10,2022-02-10,三基ホールディングス株式会社,,株式会社,東京都,江東区,亀戸１丁目２８番６号,,13,108,1360071,,,,,,,2022-02-10,1,,,,,サンキホールディングス,0
309,2011001145533,新規,0,2022-02-10,2022-02-10,株式会社エアロスリム,,株式会社,東京都,渋谷区,東１丁目１番３６号キタ・ビルデンス１Ｆ,,13,113,1500011,,,,,,,2022-02-10,1,,,,,エアロスリム,0
310,2011001145599,新規,0,2022-02-10,2022-02-10,ＭＡＴＣＨＭＡＫＥＲ株式会社,,株式会社,東京都,渋谷区,宇田川町３６番２号ノア渋谷１３０１,,13,113,1500042,,,,,,,2022-02-10,1,,,,,マッチメイカー,0
316,2011003014125,新規,0,2022-02-10,2022-02-10,フィルムメーカー合同会社,,合同会社,東京都,渋谷区,神宮前２丁目２番３９－１６０１号ＴＨＥＣＯＵＲＴ神宮外苑,,13,113,1500001,,,,,,,2022-02-10,1,,,,,フィルムメーカー,0
318,2011005009420,新規,0,2022-02-10,2022-02-10,特定非営利活動法人ミュージカルライターズジャパン,,その他の設立登記法人,東京都,渋谷区,代々木２丁目２１番３号太閤コーポ代々木２０５,,13,113,1510053,,,,,,,2022-02-10,1,,,,,ミュージカルライターズジャパン,0
322,2011101097591,新規,0,2022-02-10,2022-02-10,株式会社カセイ,,株式会社,東京都,新宿区,西新宿３丁目３番１３号西新宿水間ビル６階,,13,104,1600023,,,,,,,2022-02-10,1,,,,,カセイ,0
323,2011101097740,新規,0,2022-02-10,2022-02-10,Ｔｏｗｅｒ　Ｒｅｓｅａｒｃｈ株式会社,,株式会社,東京都,新宿区,西新宿６丁目１２番１６号２ＦＢ,,13,104,1600023,,,,,,,2022-02-10,1,,,,,タワーリサーチ,0
325,2011105010138,新規,0,2022-02-10,2022-02-10,一般社団法人デジタル田園都市国家構想応援団,,その他の設立登記法人,東京都,新宿区,西新宿７丁目５番２５号,,13,104,1600023,,,,,,,2022-02-10,1,,,,,デジタルデンエントシコッカコウソウオウエンダン,0
327,2011301027547,新規,0,2022-02-10,2022-02-10,株式会社クレイドル,,株式会社,東京都,杉並区,善福寺４丁目１３－１８パルクリブラン３０１,,13,115,1670041,,,,,,,2022-02-10,1,,,,,クレイドル,0
329,2011303004305,新規,0,2022-02-10,2022-02-10,プラスファクター合同会社,,合同会社,東京都,杉並区,高円寺南４丁目４０番１０号,,13,115,1660003,,,,,,,2022-02-10,1,,,,,プラスファクター,0
339,2012401038847,新規,0,2022-02-10,2022-02-10,株式会社Ｍａｔｒｉｘ,,株式会社,東京都,調布市,国領町４丁目３１番地１－２０２号,,13,208,1820022,,,,,,,2022-02-10,1,,,,,マトリックス,0
353,2020001145187,新規,0,2022-02-10,2022-02-10,株式会社にこふじネットワーク,,株式会社,神奈川県,横浜市中区,本牧緑ケ丘４６番地１,,14,104,2310832,,,,,,,2022-02-10,1,,,,,ニコフジネットワーク,0
358,2021003011360,新規,0,2022-02-10,2022-02-10,合同会社Ｏｒｉｏｎ,,合同会社,神奈川県,横須賀市,平作１丁目４番１０－２０５号,,14,201,2380032,,,,,,,2022-02-10,1,,,,,オリオン,0
370,2030001146721,新規,0,2022-02-10,2022-02-10,Ｏ・ＤＡＶＩＤ　ＭＯＴＯＲＳ株式会社,,株式会社,埼玉県,草加市,谷塚上町１５１番地５スターキャッスル３０５号,,11,221,3400024,,,,,,,2022-02-10,1,,,,,オーディビッドモータース,0
371,2030001146770,新規,0,2022-02-10,2022-02-10,株式会社ハイノマ,,株式会社,埼玉県,さいたま市大宮区,宮町５丁目２８番地宝栄大宮第５ビル４０１,,11,103,3300802,,,,,,,2022-02-10,1,,,,,ハイノマ,0
372,2030003018828,新規,0,2022-02-10,2022-02-10,ＮＧＵＹＥＮ　ＳＡＮ合同会社,,合同会社,埼玉県,児玉郡神川町,大字元阿保８３５番地１,,11,383,3670247,,,,,,,2022-02-10,1,,,,,グエンサン,0
373,2030005020716,新規,0,2022-02-10,2022-02-10,特定非営利活動法人ｃｏｓｍｏｓ,,その他の設立登記法人,埼玉県,八潮市,中央３丁目２２番地１ウリュウ中央第一ビル１Ｆ,,11,234,3400816,,,,,,,2022-02-10,1,,,,,コスモス,0
378,2040001122176,新規,0,2022-02-10,2022-02-10,株式会社ジャパンオートパーツ,,株式会社,千葉県,佐倉市,大崎台２丁目１３番地４５,,12,212,2850817,,,,,,,2022-02-10,1,,,,,ジャパンオートパーツ,0
381,2050001050590,新規,0,2022-02-10,2022-02-10,株式会社マストネットワーク,,株式会社,茨城県,つくば市,栗原５１１５－５,,08,220,3050001,,,,,,,2022-02-10,1,,,,,マストネットワーク,0
384,2050005013016,新規,0,2022-02-10,2022-02-10,特定非営利活動法人ただいま,,その他の設立登記法人,茨城県,ひたちなか市,大字中根３５４２番地,,08,221,3120011,,,,,,,2022-02-10,1,,,,,,0
387,2060005009946,新規,0,2022-02-10,2022-02-10,司法書士法人ＪＩＮＳ　ＯＦＦＩＣＥ,,その他の設立登記法人,栃木県,下野市,石橋２４０番地３５,,09,216,3290511,,,,,,,2022-02-10,1,,,,,ジンズオフィス,0
388,2080001024749,新規,0,2022-02-10,2022-02-10,株式会社Ｌｉｖｅ　Ｉｎｎｏｖａｔｉｏｎ,,株式会社,静岡県,焼津市,小柳津４４３番地の１コーポ大屋敷Ａ１０２,,22,212,4250073,,,,,,,2022-02-10,1,,,,,ライブイノベーション,0
398,2090005007468,新規,0,2022-02-10,2022-02-10,一般社団法人ｐｕｂｌｉｃｈｏｕｓｅモモ,,その他の設立登記法人,山梨県,南アルプス市,沢登４５６番地,,19,208,4000302,,,,,,,2022-02-10,1,,,,,パブリックハウスモモ,0
405,2100003006412,新規,0,2022-02-10,2022-02-10,合同会社リオ,,合同会社,長野県,松本市,中央１丁目１５番７号,,20,202,3900811,,,,,,,2022-02-10,1,,,,,リオ,0
424,2120001243773,新規,0,2022-02-10,2022-02-10,錦尚株式会社,,株式会社,大阪府,大阪市中央区,谷町７丁目１番３９－３０１号Ｃ,,27,128,5420012,,,,,,,2022-02-10,1,,,,,キンジョウ,0
425,2120001243798,新規,0,2022-02-10,2022-02-10,アーキュリージャパン株式会社,,株式会社,大阪府,大阪市中央区,北浜１丁目１番２７号,,27,128,5410041,,,,,,,2022-02-10,1,,,,,アーキュリージャパン,0
426,2120001243807,新規,0,2022-02-10,2022-02-10,日青株式会社,,株式会社,大阪府,大阪市浪速区,難波中２丁目６－１５ユーアイプラザビル７０３号,,27,111,5560011,,,,,,,2022-02-10,1,,,,,ニッセイ,0
428,2120003021112,新規,0,2022-02-10,2022-02-10,Ｓ２－ＳＴＯＲＥ合同会社,,合同会社,大阪府,大阪市天王寺区,上汐３丁目５番１９号,,27,109,5430002,,,,,,,2022-02-10,1,,,,,エスツーストアー,0
429,2120003021120,新規,0,2022-02-10,2022-02-10,ｌｉｍａ　ｈｏ　ｏｌａ合同会社,,合同会社,大阪府,大阪市中央区,南船場１丁目３－１６グランドメゾン長堀橋３０３,,27,128,5420081,,,,,,,2022-02-10,1,,,,,リマホオラ,0
435,2120901045575,新規,0,2022-02-10,2022-02-10,ＧＩＮＳＯＲＡ株式会社,,株式会社,大阪府,茨木市,彩都あさぎ４丁目９番２４号,,27,211,5670085,,,,,,,2022-02-10,1,,,,,ギンソラ,0
454,2140003017348,新規,0,2022-02-10,2022-02-10,合同会社ｃｙ　ｄｅｓｉｇｎ,,合同会社,兵庫県,伊丹市,中央１丁目４番１６－７０１号,,28,207,6640851,,,,,,,2022-02-10,1,,,,,シーワイデザイン,0
455,2140005026041,新規,0,2022-02-10,2022-02-10,一般社団法人発酵美容研究所,,その他の設立登記法人,兵庫県,芦屋市,船戸町５番２６号,,28,206,6590093,,,,,,,2022-02-10,1,,,,,ハッコウビヨウケンキュウジョ,0
459,2180001149916,新規,0,2022-02-10,2022-02-10,株式会社ＷＡＫＵ　ＷＡＫＵ　ＣＯＭＰＡＮＹ,,株式会社,愛知県,知多郡武豊町,字平井畑６番地１,,23,447,4702326,,,,,,,2022-02-10,1,,,,,ワクワクカンパニー,0
460,2180001149957,新規,0,2022-02-10,2022-02-10,株式会社三友商事,,株式会社,愛知県,名古屋市名東区,新宿２丁目２２３番地シティブリッジ東山ハイツ３０２号,,23,115,4650063,,,,,,,2022-02-10,1,,,,,サンユウショウジ,0
465,2180003023490,新規,0,2022-02-10,2022-02-10,合同会社めおとばし事務所,,合同会社,愛知県,名古屋市北区,上飯田通３丁目７番地,,23,103,4620808,,,,,,,2022-02-10,1,,,,,メオトバシジムショ,0
476,2240001059282,新規,0,2022-02-10,2022-02-10,協和ガラス株式会社,,株式会社,広島県,福山市,地吹町６番２号,,34,207,7200816,,,,,,,2022-02-10,1,,,,,キョウワガラス,0
485,2260005011031,新規,0,2022-02-10,2022-02-10,ＪＴＰ協同組合,,その他の設立登記法人,岡山県,倉敷市,南畝３丁目１番８号,,33,202,7128055,,,,,,,2022-02-10,1,,,,,ジェイティピー,0
494,2290001096362,新規,0,2022-02-10,2022-02-10,株式会社Ｋ‐ＳＫＹ,,株式会社,福岡県,飯塚市,有安４０９番地１,,40,205,8200111,,,,,,,2022-02-10,1,,,,,ケースカイ,0
495,2290001096412,新規,0,2022-02-10,2022-02-10,株式会社ビーワゴン,,株式会社,福岡県,福岡市西区,周船寺３丁目２８番４号,,40,135,8190373,,,,,,,2022-02-10,1,,,,,ビーワゴン,0
500,2300003001789,新規,0,2022-02-10,2022-02-10,合同会社ピースフルガーデン,,合同会社,佐賀県,唐津市,町田１丁目１７番８２号,,41,202,8470821,,,,,,,2022-02-10,1,,,,,ピースフルガーデン,0
507,2360001030000,新規,0,2022-02-10,2022-02-10,株式会社Ｕｎｉｖｅｒｓｅ,,株式会社,沖縄県,豊見城市,字高安２５２番地１,,47,212,9010242,,,,,,,2022-02-10,1,,,,,ユニバース,0
521,2420005007789,新規,0,2022-02-10,2022-02-10,五所川原エコ協同組合,,その他の設立登記法人,青森県,五所川原市,大字漆川字鍋懸４９番地１,,02,205,0370017,,,,,,,2022-02-10,1,,,,,ゴショガワラエコ,0
528,2430003013623,新規,0,2022-02-10,2022-02-10,合同会社トライバルミート,,合同会社,北海道,札幌市中央区,北十二条西１６丁目１番３２号,,01,101,0600012,,,,,,,2022-02-10,1,,,,,トライバルミート,0
530,2450001013615,新規,0,2022-02-10,2022-02-10,株式会社ＮＥＸＴ　ＯＮＥ,,株式会社,北海道,旭川市,神楽三条４丁目１番２０号フレイア３０３,,01,204,0708003,,,,,,,2022-02-10,1,,,,,ネクストワン,0
546,3010001224503,新規,0,2022-02-10,2022-02-10,株式会社ＭＯＵＮＴＡＩＮ,,株式会社,東京都,千代田区,岩本町２丁目１３番６号ミツボシ第３ビル５０１号,,13,101,1010032,,,,,,,2022-02-10,1,,,,,マウンテン,0
555,3010401165454,新規,0,2022-02-10,2022-02-10,株式会社ａｇｋ,,株式会社,東京都,港区,白金１丁目１７番１号,,13,103,1080072,,,,,,,2022-02-10,1,,,,,エージーケー,0
556,3010401165479,新規,0,2022-02-10,2022-02-10,２００ＷＥＳＴ株式会社,,株式会社,東京都,港区,西麻布４丁目４－３－８０３,,13,103,1060031,,,,,,,2022-02-10,1,,,,,トゥーハンドレッドウエスト,0
557,3010401165520,新規,0,2022-02-10,2022-02-10,ユーフォリック株式会社,,株式会社,東京都,港区,南青山２丁目２番１５号,,13,103,1070062,,,,,,,2022-02-10,1,,,,,ユーフォリック,0
561,3010501048435,新規,0,2022-02-10,2022-02-10,株式会社プリベラ,,株式会社,東京都,台東区,根岸３丁目２４番１８号,,13,106,1100003,,,,,,,2022-02-10,1,,,,,プリベラ,0
584,3011401024022,新規,0,2022-02-10,2022-02-10,株式会社ジェーリード,,株式会社,東京都,板橋区,大山金井町５０番６号,,13,119,1730024,,,,,,,2022-02-10,1,,,,,ジェーリード,0
585,3011501027742,新規,0,2022-02-10,2022-02-10,株式会社英設計ホールディングス,,株式会社,東京都,北区,王子２丁目３２番７号,,13,117,1140002,,,,,,,2022-02-10,1,,,,,ハナブサセッケイホールディングス,0
587,3011701025018,新規,0,2022-02-10,2022-02-10,株式会社ＹＯＧＲＡＪ,,株式会社,東京都,江戸川区,西小岩３丁目３７番７－２０５号第２前田マンション,,13,123,1330057,,,,,,,2022-02-10,1,,,,,ヨグラージ,0
590,3012403005225,新規,0,2022-02-10,2022-02-10,合同会社ＭＡＤＲＩＳ　ＴＲＡＤＩＮＧ　ＣＯＭＰＡＮＹ,,合同会社,東京都,狛江市,駒井町２丁目３１番５号ヴィラ駒井１０４,,13,219,2010016,,,,,,,2022-02-10,1,,,,,マドリストレーディングカンパニー,0
600,3020001145203,新規,0,2022-02-10,2022-02-10,株式会社ＫＵＲＯ,,株式会社,神奈川県,川崎市宮前区,犬蔵１丁目７－１６エトワール１０７,,14,136,2160011,,,,,,,2022-02-10,1,,,,,クロ,0
601,3020001145211,新規,0,2022-02-10,2022-02-10,株式会社テンカンビオ,,株式会社,神奈川県,川崎市中原区,新丸子町７３９番地１５,,14,133,2110005,,,,,,,2022-02-10,1,,,,,テンカンビオ,0
608,3021003011384,新規,0,2022-02-10,2022-02-10,合同会社ｇｌｏｖａｔｉｏｎ,,合同会社,神奈川県,横須賀市,小矢部３丁目１６番５号,,14,201,2380026,,,,,,,2022-02-10,1,,,,,グロベーション,0
612,3030001146720,新規,0,2022-02-10,2022-02-10,株式会社ＥＡＳＴ　ＡＲＴ,,株式会社,埼玉県,川口市,大字赤井４９３番地の９,,11,203,3340073,,,,,,,2022-02-10,1,,,,,イーストアート,0
624,3040001122167,新規,0,2022-02-10,2022-02-10,株式会社ｋｎｅｗｉｔ,,株式会社,千葉県,柏市,末広町４番地５号金子ビルＡ棟２Ｆ,,12,217,2770842,,,,,,,2022-02-10,1,,,,,ニューイット,0
625,3040001122209,新規,0,2022-02-10,2022-02-10,株式会社椿,,株式会社,千葉県,佐倉市,王子台１丁目２２番１３号海佑ビル４Ｆ,,12,212,2850837,,,,,,,2022-02-10,1,,,,,ツバキ,0
626,3040003019469,新規,0,2022-02-10,2022-02-10,関東東北産業合同会社,,合同会社,千葉県,印西市,内野２丁目１番地,,12,231,2701347,,,,,,,2022-02-10,1,,,,,,0
629,3050001050607,新規,0,2022-02-10,2022-02-10,株式会社グリーンライフコーポレーション,,株式会社,茨城県,下妻市,鎌庭２１００番地６１,,08,210,3040819,,,,,,,2022-02-10,1,,,,,グリーンライフコーポレーション,0
651,3100001035057,新規,0,2022-02-10,2022-02-10,株式会社マウント長和,,株式会社,長野県,小県郡長和町,大門３６５２番地,,20,350,3860601,,,,,,,2022-02-10,1,,,,,マウントナガワ,0
653,3100003006403,新規,0,2022-02-10,2022-02-10,合同会社アントレ小粒,,合同会社,長野県,松本市,筑摩３丁目２２番１５,,20,202,3900821,,,,,,,2022-02-10,1,,,,,アントレコツブ,0
657,3110003004694,新規,0,2022-02-10,2022-02-10,高沢事務所合同会社,,合同会社,新潟県,新潟市西区,寺尾東３丁目６番１０号,,15,107,9502054,,,,,,,2022-02-10,1,,,,,タカサワジムショ,0
674,3120001243806,新規,0,2022-02-10,2022-02-10,株式会社ひぐらし,,株式会社,大阪府,大阪市東住吉区,照ケ丘矢田１丁目２１－６－１０１,,27,121,5460021,,,,,,,2022-02-10,1,,,,,ヒグラシ,0
683,3130005016380,新規,0,2022-02-10,2022-02-10,特定非営利活動法人Ａｃｃｅｐｔ　Ｂａｓｅ　Ｃａｍｐ　ｆｏｒ　Ｔｅａｃｈｅｒ,,その他の設立登記法人,京都府,京田辺市,天王庄谷６２番地の１,,26,211,6100326,,,,,,,2022-02-10,1,,,,,アクセプトベースキャンプフォーティーチャー,0
700,3180001149964,新規,0,2022-02-10,2022-02-10,ＭＩ株式会社,,株式会社,愛知県,北名古屋市,鹿田永塚５４番地,,23,234,4810004,,,,,,,2022-02-10,1,,,,,エムアイ,0
705,3180301035914,新規,0,2022-02-10,2022-02-10,エル工業株式会社,,株式会社,愛知県,豊田市,宝町十三塚１０７番地６,,23,211,4730908,,,,,,,2022-02-10,1,,,,,エルコウギョウ,0
707,3190001029117,新規,0,2022-02-10,2022-02-10,株式会社ＦＹＰ,,株式会社,三重県,津市,雲出伊倉津町１５７７－６,,24,201,5140302,,,,,,,2022-02-10,1,,,,,エフワイピー,0
722,3250001003635,新規,0,2022-02-10,2022-02-10,株式会社ムラタ,,株式会社,山口県,宇部市,大字西岐波１５６０番地の１,,35,202,7550151,,,,,,,2022-02-10,1,,,,,ムラタ,0
723,3250003003006,新規,0,2022-02-10,2022-02-10,合同会社竹中工業,,合同会社,山口県,宇部市,上条３丁目２番７－２０５号,,35,202,7550801,,,,,,,2022-02-10,1,,,,,タケナカコウギョウ,0
730,3290001096394,新規,0,2022-02-10,2022-02-10,株式会社グッドフェローズコーポレーション,,株式会社,福岡県,福岡市西区,西の丘２丁目３番１号,,40,135,8190046,,,,,,,2022-02-10,1,,,,,グッドフェローズコーポレーション,0
731,3290001096411,新規,0,2022-02-10,2022-02-10,株式会社ｃｏｃｏｈａ,,株式会社,福岡県,糸島市,志摩小富士９０５番地１,,40,230,8191321,,,,,,,2022-02-10,1,,,,,ココハ,0
737,3310001017711,新規,0,2022-02-10,2022-02-10,株式会社グラーテス,,株式会社,長崎県,長崎市,豊洋台１丁目３２番１０号,,42,201,8512216,,,,,,,2022-02-10,1,,,,,グラーテス,0
770,3440002010033,新規,0,2022-02-10,2022-02-10,寿都北自運輸有限会社,,有限会社,北海道,寿都郡寿都町,字渡島町１００番地,,01,392,0480406,,,,,,,2022-02-10,1,,,,,スッツキタジウンユ,0
789,4010001224502,新規,0,2022-02-10,2022-02-10,ミールホールディングス株式会社,,株式会社,東京都,中央区,京橋２丁目７番１４号,,13,102,1040031,,,,,,,2022-02-10,1,,,,,ミールホールディングス,0
790,4010001224535,新規,0,2022-02-10,2022-02-10,クロノス教育株式会社,,株式会社,東京都,中央区,銀座６丁目１３番１６号銀座ＷａｌｌビルＵＣＦ５階,,13,102,1040061,,,,,,,2022-02-10,1,,,,,クロノスキョウイク,0
791,4010003036953,新規,0,2022-02-10,2022-02-10,合同会社Ｈ＆Ｃ,,合同会社,東京都,中央区,銀座１丁目２２番１１号銀座大竹ビジデンス２階,,13,102,1040061,,,,,,,2022-02-10,1,,,,,エイチアンドシー,0
802,4010401165412,新規,0,2022-02-10,2022-02-10,サン共同デジタルマーケティング株式会社,,株式会社,東京都,港区,南青山１丁目１番１号新青山ビル東館１５階,,13,103,1070062,,,,,,,2022-02-10,1,,,,,サンキョウドウデジタルマーケティング,0
803,4010401165486,新規,0,2022-02-10,2022-02-10,株式会社ラ・メルブルー,,株式会社,東京都,港区,六本木２丁目２番２号イトーピア六本木４０８号室牛山税理士事務所内,,13,103,1060032,,,,,,,2022-02-10,1,,,,,ラメルブルー,0
804,4010401165544,新規,0,2022-02-10,2022-02-10,株式会社Ｈａｕｔｅ,,株式会社,東京都,港区,海岸１丁目１番１－１７１５号,,13,103,1050022,,,,,,,2022-02-10,1,,,,,オート,0
805,4010403027024,新規,0,2022-02-10,2022-02-10,ライフスタイルワークス合同会社,,合同会社,東京都,港区,東麻布２丁目３３－３,,13,103,1060044,,,,,,,2022-02-10,1,,,,,ライフスタイルワークス,0
807,4010403027065,新規,0,2022-02-10,2022-02-10,合同会社ＳＨＯＷ．,,合同会社,東京都,港区,六本木４丁目１２番１２号三江ビル２階,,13,103,1060032,,,,,,,2022-02-10,1,,,,,ショウテン,0
810,4010501048442,新規,0,2022-02-10,2022-02-10,株式会社ソアラダイニング,,株式会社,東京都,台東区,駒形２丁目７番４号,,13,106,1110043,,,,,,,2022-02-10,1,,,,,ソアラダイニング,0
811,4010501048450,新規,0,2022-02-10,2022-02-10,株式会社Ｌ　ａｕｔｕｍｎ,,株式会社,東京都,台東区,上野２丁目１２－１８,,13,106,1100005,,,,,,,2022-02-10,1,,,,,ロータム,0
814,4010601060669,新規,0,2022-02-10,2022-02-10,株式会社Ｏｔｉｓ,,株式会社,東京都,墨田区,東向島３丁目３２－４ＵＰＳ－１－１Ｆ,,13,107,1310032,,,,,,,2022-02-10,1,,,,,オーティス,0
815,4010603009375,新規,0,2022-02-10,2022-02-10,Ａ．Ｉ．Ｐ合同会社,,合同会社,東京都,江東区,南砂４丁目５番２４－１１０１号,,13,108,1360076,,,,,,,2022-02-10,1,,,,,エーアイピー,0
816,4010603009391,新規,0,2022-02-10,2022-02-10,ナインスセンス合同会社,,合同会社,東京都,江東区,東陽７丁目３番５－４０５号,,13,108,1350016,,,,,,,2022-02-10,1,,,,,ナインスセンス,0
822,4010901050337,新規,0,2022-02-10,2022-02-10,株式会社ＯＮ　ＡＩＲ,,株式会社,東京都,世田谷区,東玉川２丁目８－１２,,13,112,1580084,,,,,,,2022-02-10,1,,,,,オンエアー,0
827,4011003013991,新規,0,2022-02-10,2022-02-10,合同会社ニューミュージック,,合同会社,東京都,渋谷区,神泉町１２番７号,,13,113,1500045,,,,,,,2022-02-10,1,,,,,ニューミュージック,0
828,4011003014156,新規,0,2022-02-10,2022-02-10,Ａｒｅａｌ合同会社,,合同会社,東京都,目黒区,上目黒３丁目２２番５号,,13,110,1530051,,,,,,,2022-02-10,1,,,,,エリアル,0
844,4011601025736,新規,0,2022-02-10,2022-02-10,株式会社ハッピーテックスインターナショナル,,株式会社,東京都,練馬区,大泉学園町８丁目３番５号,,13,120,1780061,,,,,,,2022-02-10,1,,,,,ハッピーテックスインターナショナル,0
849,4011801040320,新規,0,2022-02-10,2022-02-10,ＣＬＡＭＰ株式会社,,株式会社,東京都,足立区,関原１丁目６番３０号,,13,121,1230852,,,,,,,2022-02-10,1,,,,,クランプ,0
869,4021005012438,新規,0,2022-02-10,2022-02-10,一般社団法人メドミライ研究所,,その他の設立登記法人,神奈川県,鎌倉市,材木座５丁目８番５号,,14,204,2480013,,,,,,,2022-02-10,1,,,,,メドミライケンキュウジョ,0
873,4030001146760,新規,0,2022-02-10,2022-02-10,株式会社セイビアー,,株式会社,埼玉県,富士見市,上沢３丁目２番２９号,,11,235,3540034,,,,,,,2022-02-10,1,,,,,セイビアー,0
878,4030005020714,新規,0,2022-02-10,2022-02-10,農事組合法人笑顔熊谷,,その他の設立登記法人,埼玉県,熊谷市,平戸３８３番地８,,11,202,3600021,,,,,,,2022-02-10,1,,,,,エガオクマガヤ,0
882,4040001122174,新規,0,2022-02-10,2022-02-10,株式会社ｄｅｓｉｇｎ大,,株式会社,千葉県,館山市,坂田４５６番地の１,,12,205,2940308,,,,,,,2022-02-10,1,,,,,デザインダイ,0
883,4040001122190,新規,0,2022-02-10,2022-02-10,株式会社ＬＵＭＩＮＯＵＳ,,株式会社,千葉県,松戸市,上本郷１７番地の１５,,12,207,2710064,,,,,,,2022-02-10,1,,,,,ルミナス,0
884,4040001122208,新規,0,2022-02-10,2022-02-10,株式会社おまご商会,,株式会社,千葉県,千葉市若葉区,小間子町６－５,,12,104,2650046,,,,,,,2022-02-10,1,,,,,オマゴショウカイ,0
886,4040003019476,新規,0,2022-02-10,2022-02-10,合同会社セントラルインベストメント６号,,合同会社,千葉県,船橋市,薬円台１丁目３０番１号,,12,204,2740077,,,,,,,2022-02-10,1,,,,,セントラルインベストメントロクゴウ,0
887,4040003019484,新規,0,2022-02-10,2022-02-10,合同会社船舶技術研究,,合同会社,千葉県,我孫子市,柴崎台４丁目３番２２号,,12,222,2701176,,,,,,,2022-02-10,1,,,,,センパクギジュツケンキュウ,0
889,4050001050589,新規,0,2022-02-10,2022-02-10,株式会社ＲＥＤ・ＳＴＲＥＡＭ,,株式会社,茨城県,石岡市,東光台３丁目８番４号,,08,205,3150033,,,,,,,2022-02-10,1,,,,,レッドストリーム,0
890,4050001050622,新規,0,2022-02-10,2022-02-10,株式会社ＴＢＤＥ,,株式会社,茨城県,土浦市,並木２丁目９番１３号,,08,203,3000061,,,,,,,2022-02-10,1,,,,,ティービーディーイー,0
896,4080101023087,新規,0,2022-02-10,2022-02-10,株式会社トラベルラウンジ沼津,,株式会社,静岡県,沼津市,大手町１丁目１番６号イーラｄｅビル２階,,22,203,4100801,,,,,,,2022-02-10,1,,,,,トラベルラウンジヌマヅ,0
903,4110001036433,新規,0,2022-02-10,2022-02-10,株式会社日本医療技術研究所,,株式会社,新潟県,見附市,新町１丁目２－５,,15,211,9540057,,,,,,,2022-02-10,1,,,,,ニホンイリョウギジュツケンキュウショ,0
926,4120005022791,新規,0,2022-02-10,2022-02-10,トリプルグッド司法書士法人,,その他の設立登記法人,大阪府,大阪市北区,大淀中１丁目１番３０号,,27,127,5310076,,,,,,,2022-02-10,1,,,,,トリプルグッド,0
929,4120103004568,新規,0,2022-02-10,2022-02-10,合同会社ＳＳシステム,,合同会社,大阪府,和泉市,春木町１１１６番地の１,,27,219,5941141,,,,,,,2022-02-10,1,,,,,エスエスシステム,0
957,4180001149930,新規,0,2022-02-10,2022-02-10,株式会社ＬＩＢ,,株式会社,愛知県,名古屋市北区,田幡１丁目１３番２５号プレサンスロジェ黒川１２０２号,,23,103,4620843,,,,,,,2022-02-10,1,,,,,リブ,0
977,4290001096393,新規,0,2022-02-10,2022-02-10,ティーアンドエム株式会社,,株式会社,福岡県,福岡市博多区,中洲５丁目３番８号,,40,132,8100801,,,,,,,2022-02-10,1,,,,,ティーアンドエム,0
978,4290001096419,新規,0,2022-02-10,2022-02-10,株式会社ＯＺＷＯＲＬＤ,,株式会社,福岡県,福岡市博多区,千代６丁目３－５,,40,132,8120044,,,,,,,2022-02-10,1,,,,,オズワールド,0
989,4360001029998,新規,0,2022-02-10,2022-02-10,株式会社八恒産,,株式会社,沖縄県,那覇市,長田２丁目２９番７－２号リブリー・プレイス４階,,47,201,9020077,,,,,,,2022-02-10,1,,,,,ハチコウサン,0
990,4360005006589,新規,0,2022-02-10,2022-02-10,一般社団法人ほしおかプロジェクト,,その他の設立登記法人,沖縄県,宜野湾市,我如古１丁目４３番２３－５０２号レーヴ宜野湾クレール,,47,205,9012214,,,,,,,2022-02-10,1,,,,,ホシオカプロジェクト,0
993,4380001032570,新規,0,2022-02-10,2022-02-10,かねなり造園土木株式会社,,株式会社,福島県,石川郡浅川町,大字東大畑字新町６２番地１,,07,504,9636218,,,,,,,2022-02-10,1,,,,,カネナリゾウエンドボク,0
1008,4490001010103,新規,0,2022-02-10,2022-02-10,いえの助株式会社,,株式会社,高知県,高知市,新本町２丁目１５－１０,,39,201,7800062,,,,,,,2022-02-10,1,,,,,イエノスケ,0
1019,5010401165411,新規,0,2022-02-10,2022-02-10,サン共同グループホールディングス株式会社,,株式会社,東京都,港区,南青山１丁目１番１号新青山ビル東館１５階,,13,103,1070062,,,,,,,2022-02-10,1,,,,,サンキョウドウグループホールディングス,0
1020,5010401165493,新規,0,2022-02-10,2022-02-10,株式会社Ｍ,,株式会社,東京都,港区,赤坂２丁目５番８号ヒューリックＪＰ赤坂ビル６０３,,13,103,1070052,,,,,,,2022-02-10,1,,,,,エム,0
1021,5010401165502,新規,0,2022-02-10,2022-02-10,株式会社トライブ,,株式会社,東京都,港区,赤坂３丁目１番１６号ＢＩビル７階,,13,103,1070052,,,,,,,2022-02-10,1,,,,,トライブ,0
1025,5010403027072,新規,0,2022-02-10,2022-02-10,ホーイジャパン合同会社,,合同会社,東京都,港区,海岸３丁目１９番２－８１１号,,13,103,1080022,,,,,,,2022-02-10,1,,,,,ホーイジャパン,0
1033,5010603009390,新規,0,2022-02-10,2022-02-10,合同会社みんなのＩＦＡ,,合同会社,東京都,墨田区,石原４丁目２８番３－８０２号,,13,107,1300011,,,,,,,2022-02-10,1,,,,,ミンナノアイエフエー,0
1040,5011001145613,新規,0,2022-02-10,2022-02-10,株式会社ビグロス,,株式会社,東京都,目黒区,下目黒１丁目２番２２－１００５号,,13,110,1530064,,,,,,,2022-02-10,1,,,,,ビグロス,0
1044,5011005009401,新規,0,2022-02-10,2022-02-10,行政書士法人ＡＲＵＴＯ,,その他の設立登記法人,東京都,渋谷区,東２丁目１２番５号ＡｔｅｌｉｅｒＥｓｔ６,,13,113,1500011,,,,,,,2022-02-10,1,,,,,アルト,0
1047,5011301027552,新規,0,2022-02-10,2022-02-10,株式会社ＴＭライブラリ,,株式会社,東京都,杉並区,上井草２丁目２９番２０－１０１号ラヴィドール杉並上井草,,13,115,1670023,,,,,,,2022-02-10,1,,,,,ティーエムライブラリ,0
1049,5011501027740,新規,0,2022-02-10,2022-02-10,株式会社Ａｎｆｉｎｉ　Ｃａｒｅｅｒ,,株式会社,東京都,荒川区,東日暮里６丁目２１番１１－１０８号,,13,118,1160014,,,,,,,2022-02-10,1,,,,,アンフィニキャリア,0
1053,5011601025735,新規,0,2022-02-10,2022-02-10,株式会社ＳＫ,,株式会社,東京都,練馬区,高野台４丁目９－１４,,13,120,1770033,,,,,,,2022-02-10,1,,,,,エスケー,0
1054,5011701025032,新規,0,2022-02-10,2022-02-10,株式会社ニュートラル,,株式会社,東京都,江戸川区,南篠崎町２丁目３３番６－４０３号,,13,123,1330065,,,,,,,2022-02-10,1,,,,,ニュートラル,0
1055,5011801040328,新規,0,2022-02-10,2022-02-10,株式会社ＳＫＯ,,株式会社,東京都,足立区,宮城１丁目１６番９－２０７,,13,121,1200047,,,,,,,2022-02-10,1,,,,,エスケイオウ,0
1061,5012401038844,新規,0,2022-02-10,2022-02-10,株式会社Ｇｏ－ＬＩＮＥ,,株式会社,東京都,府中市,浅間町４丁目８番地２,,13,206,1830001,,,,,,,2022-02-10,1,,,,,ゴーライン,0
1068,5013301048669,新規,0,2022-02-10,2022-02-10,株式会社オールイン,,株式会社,東京都,豊島区,長崎２丁目１の１２閑雅荘１階,,13,116,1710051,,,,,,,2022-02-10,1,,,,,オールイン,0
1074,5020001145201,新規,0,2022-02-10,2022-02-10,株式会社ＣＸＫ,,株式会社,神奈川県,川崎市幸区,南幸町２丁目５４番地１０１号,,14,132,2120016,,,,,,,2022-02-10,1,,,,,シーエックスケー,0
1080,5020003021292,新規,0,2022-02-10,2022-02-10,合同会社ＭＩＬＡＮ,,合同会社,神奈川県,横浜市神奈川区,六角橋３丁目２３番１０号,,14,102,2210802,,,,,,,2022-02-10,1,,,,,ミラン,0
1085,5030001146652,新規,0,2022-02-10,2022-02-10,株式会社Ｇｒｏｗ　Ｉｎｎｏｖｉａ,,株式会社,埼玉県,さいたま市,文蔵１丁目１６番１４号,,11,244,3360025,,,,,,,2022-02-10,1,,,,,グロウイノビア,0
1091,5030003018775,新規,0,2022-02-10,2022-02-10,ウラ投資合同会社,,合同会社,埼玉県,ふじみ野市,霞ケ丘１丁目４番９棟２０５号,,11,245,3560006,,,,,,,2022-02-10,1,,,,,ウラトウシ,0
1095,5040003019475,新規,0,2022-02-10,2022-02-10,合同会社セントラルインベストメント５号,,合同会社,千葉県,船橋市,薬円台１丁目３０番１号,,12,204,2740077,,,,,,,2022-02-10,1,,,,,セントラルインベストメントゴゴウ,0
1096,5040003019483,新規,0,2022-02-10,2022-02-10,合同会社愛花農園,,合同会社,千葉県,山武郡芝山町,岩山７９８番地,,12,409,2891608,,,,,,,2022-02-10,1,,,,,アイカノウエン,0
1097,5050001050605,新規,0,2022-02-10,2022-02-10,株式会社Ｌｉｍエンジニアリング,,株式会社,茨城県,ひたちなか市,大字金上９６３番地１,,08,221,3120022,,,,,,,2022-02-10,1,,,,,リムエンジニアリング,0
1098,5050001050613,新規,0,2022-02-10,2022-02-10,協同バイオ株式会社,,株式会社,茨城県,水戸市,城南２丁目５番１９号,,08,201,3100803,,,,,,,2022-02-10,1,,,,,キョウドウバイオ,0
1099,5050003006365,新規,0,2022-02-10,2022-02-10,合同会社Ｐ．ＭＡＲＵ,,合同会社,茨城県,つくば市,小白硲６７２番地１４４,,08,220,3050844,,,,,,,2022-02-10,1,,,,,ピーマル,0
1101,5060003003948,新規,0,2022-02-10,2022-02-10,ワークステーション天神合同会社,,合同会社,栃木県,佐野市,天神町７４５番地５,,09,204,3270847,,,,,,,2022-02-10,1,,,,,ワークステーションテンジン,0
1103,5080103002518,新規,0,2022-02-10,2022-02-10,合同会社Ｋ．Ｄ．Ｆ,,合同会社,静岡県,富士市,松岡５３０‐３ボナール田園２０２,,22,210,4160909,,,,,,,2022-02-10,1,,,,,ケーディーエフ,0
1113,5110003004692,新規,0,2022-02-10,2022-02-10,合同会社リレイズ,,合同会社,新潟県,長岡市,関原南４丁目３９３２番地,,15,202,9402039,,,,,,,2022-02-10,1,,,,,リレイズ,0
1126,5120001243779,新規,0,2022-02-10,2022-02-10,ケルビン株式会社,,株式会社,大阪府,大阪市中央区,船場中央２丁目１番４号船場センタービル４号館地下一階Ｂ１０８ＲＯＹＡＬＯＦＦＩＣＥ内,,27,128,5410055,,,,,,,2022-02-10,1,,,,,ケルビン,0
1127,5120001243795,新規,0,2022-02-10,2022-02-10,株式会社三鷹貿易,,株式会社,大阪府,大阪市生野区,巽西１丁目９番２６号,00125689,27,116,5440012,,,,,,,2022-02-10,1,,,,,ミタカボウエキ,0
1140,5130001071122,新規,0,2022-02-10,2022-02-10,株式会社ＫＯＳＥＩ,,株式会社,京都府,宇治市,六地蔵１丁目１５番地,,26,204,6110001,,,,,,,2022-02-10,1,,,,,コウセイ,0
1145,5140001124837,新規,0,2022-02-10,2022-02-10,株式会社こむらさき,,株式会社,兵庫県,神戸市中央区,栄町通３丁目６番２７ライオンズタワー神戸元町９０６号,,28,110,6500023,,,,,,,2022-02-10,1,,,,,コムラサキ,0
1146,5140001124878,新規,0,2022-02-10,2022-02-10,株式会社ＭＯＰ,,株式会社,兵庫県,姫路市,飾磨区堀川町１６番地ガレージロタス上野田０３号室,,28,201,6728025,,,,,,,2022-02-10,1,,,,,エムオーピー,0
1149,5140005026022,新規,0,2022-02-10,2022-02-10,農事組合法人井吹南営農組合,,その他の設立登記法人,兵庫県,神戸市西区,伊川谷町井吹２２３番地の２,,28,111,6512106,,,,,,,2022-02-10,1,,,,,イブキミナミエイノウクミアイ,0
1158,5180001149896,新規,0,2022-02-10,2022-02-10,アンブレラ株式会社,,株式会社,愛知県,名古屋市港区,浜１丁目１－１,,23,111,4550036,,,,,,,2022-02-10,1,,,,,アンブレラ,0
1159,5180001149954,新規,0,2022-02-10,2022-02-10,株式会社鵜飼加工,,株式会社,愛知県,一宮市,北今字川原２９番地２０,,23,203,4940004,,,,,,,2022-02-10,1,,,,,ウカイカコウ,0
1160,5180001149962,新規,0,2022-02-10,2022-02-10,株式会社ユニオン,,株式会社,愛知県,名古屋市港区,千鳥１丁目１３番１２号丸美ロイヤル１００２号,,23,111,4550031,,,,,,,2022-02-10,1,,,,,ユニオン,0
1164,5180301035912,新規,0,2022-02-10,2022-02-10,７ｉｒｉｓｅｒ株式会社,,株式会社,愛知県,豊田市,乙部ケ丘１丁目１９番地１６,,23,211,4700346,,,,,,,2022-02-10,1,,,,,セブンイリゼ,0
1169,5190001029115,新規,0,2022-02-10,2022-02-10,株式会社Ｂｉｇ　ｕｐ４３,,株式会社,三重県,度会郡玉城町,妙法寺６３９番地１３,,24,461,5190413,,,,,,,2022-02-10,1,,,,,ビッグアップフォースリー,0
1175,5240001059288,新規,0,2022-02-10,2022-02-10,株式会社МＬＣ,,株式会社,広島県,福山市,沼隈町大字草深１９３４番地６,,34,207,7200311,,,,,,,2022-02-10,1,,,,,エムエルシー,0
1178,5240005015329,新規,0,2022-02-10,2022-02-10,一般社団法人お墓奉心協会,,その他の設立登記法人,広島県,府中市,上下町小堀１７８番地１,,34,208,7293402,,,,,,,2022-02-10,1,,,,,オハカホウシンキョウカイ,0
1184,5260001036517,新規,0,2022-02-10,2022-02-10,株式会社山下産業,,株式会社,岡山県,岡山市北区,横井上１６６７番地１,,33,101,7011145,,,,,,,2022-02-10,1,,,,,ヤマシタサンギョウ,0
1187,5290001096401,新規,0,2022-02-10,2022-02-10,重村商事株式会社,,株式会社,福岡県,糟屋郡志免町,志免中央４丁目１２番３５号,,40,343,8112244,,,,,,,2022-02-10,1,,,,,シゲムラショウジ,0
1191,5290005018558,新規,0,2022-02-10,2022-02-10,特定非営利活動法人ＰＯＲＴ,,その他の設立登記法人,福岡県,久留米市,宮ノ陣町八丁島１７７３番地２,,40,203,8390805,,,,,,,2022-02-10,1,,,,,ポート,0
1196,5300001012793,新規,0,2022-02-10,2022-02-10,株式会社ＦＮＢグローバル,,株式会社,佐賀県,藤津郡太良町,大字大浦甲５６１番地,,41,441,8491614,,,,,,,2022-02-10,1,,,,,エフエヌビーグローバル,0
1200,5330001029439,新規,0,2022-02-10,2022-02-10,株式会社Ｇ５,,株式会社,熊本県,熊本市西区,池上町１３２４番地１,,43,103,8600048,,,,,,,2022-02-10,1,,,,,ジーファイブ,0
1209,5370001048195,新規,0,2022-02-10,2022-02-10,株式会社コヅツミ,,株式会社,宮城県,仙台市泉区,上谷刈字小堤１２番地の１１,,04,105,9813121,,,,,,,2022-02-10,1,,,,,コヅツミ,0
1212,5380005012535,新規,0,2022-02-10,2022-02-10,一般社団法人アップサイクル,,その他の設立登記法人,福島県,東白川郡塙町,大字塙字栄町２６番地９,,07,483,9635405,,,,,,,2022-02-10,1,,,,,アップサイクル,0
1214,5390001016786,新規,0,2022-02-10,2022-02-10,マイスリー白鷹株式会社,,株式会社,山形県,西置賜郡白鷹町,大字荒砥乙３５８番地１,,06,402,9920832,,,,,,,2022-02-10,1,,,,,マイスリーシラタカ,0
1221,5430001085983,新規,0,2022-02-10,2022-02-10,株式会社トマホークス,,株式会社,北海道,札幌市中央区,南四条西９丁目１００６番地１２,,01,101,0640804,,,,,,,2022-02-10,1,,,,,トマホークス,0
1223,5430003013620,新規,0,2022-02-10,2022-02-10,合同会社ＪＪ　Ｃｏｏｐｅｒａｔｉｏｎ,,合同会社,北海道,札幌市中央区,北三条西１２丁目２番地７メディオフラム札幌５０３号,,01,101,0600003,,,,,,,2022-02-10,1,,,,,ジェイジェイコオウピレイション,0
1225,5460101007141,新規,0,2022-02-10,2022-02-10,株式会社ボーンフリーファーム,,株式会社,北海道,上川郡清水町,字旭山５４２番地５,,01,636,0890355,,,,,,,2022-02-10,1,,,,,ボーンフリーファーム,0
1229,5700150107016,新規,0,2022-02-10,2022-02-10,Ｇｌｏｂａｌ　Ｃｏｍｍｏｄｉｔｉｅｓ　Ｃｅｙｌｏｎ,,外国会社等,千葉県,大網白里市,大網５６２１番地１－２Ｆ,,12,239,2993251,スリランカ民主社会主義共和国、キャンディ、ガンポラ、キャンディロード、１１,,,,,,2022-02-10,1,,,,,グローバルコモデイテイーズセイロン,0
1239,6010001224434,新規,0,2022-02-10,2022-02-10,株式会社ＲｅＳｏｗ,,株式会社,東京都,中央区,銀座６丁目１３番１６号銀座ＷａｌｌビルＵＣＦ５階,,13,102,1040061,,,,,,,2022-02-10,1,,,,,リソウ,0
1240,6010001224450,新規,0,2022-02-10,2022-02-10,トリプルエー株式会社,,株式会社,東京都,千代田区,丸の内１丁目８番３号丸の内トラストタワー本館,,13,101,1000005,,,,,,,2022-02-10,1,,,,,トリプルエー,0
1241,6010001224509,新規,0,2022-02-10,2022-02-10,株式会社全科,,株式会社,東京都,中央区,日本橋浜町２丁目９番１号,,13,102,1030007,,,,,,,2022-02-10,1,,,,,ゼンカ,0
1242,6010001224517,新規,0,2022-02-10,2022-02-10,フクロウ不動産株式会社,,株式会社,東京都,中央区,銀座５丁目１０番６号第一銀座ビル８階,,13,102,1040061,,,,,,,2022-02-10,1,,,,,フクロウフドウサン,0
1248,6010005034581,新規,0,2022-02-10,2022-02-10,一般社団法人バウム,,その他の設立登記法人,東京都,中央区,銀座７丁目１３番１２号サクセス銀座７ビル６階,,13,102,1040061,,,,,,,2022-02-10,1,,,,,バウム,0
1260,6010401165492,新規,0,2022-02-10,2022-02-10,永富商事株式会社,,株式会社,東京都,港区,赤坂３丁目６番１７号ダイムラービル４Ｆ,,13,103,1070052,,,,,,,2022-02-10,1,,,,,ナガトミショウジ,0
1261,6010401165534,新規,0,2022-02-10,2022-02-10,株式会社コトトモノ,,株式会社,東京都,港区,新橋５丁目８番４号柴田ビル３Ｆ,,13,103,1050004,,,,,,,2022-02-10,1,,,,,コトトモノ,0
1266,6010405020669,新規,0,2022-02-10,2022-02-10,一般社団法人ロナロナ,,その他の設立登記法人,東京都,港区,新橋３丁目７番７号,,13,103,1050004,,,,,,,2022-02-10,1,,,,,ロナロナ,0
1278,6010701042210,新規,0,2022-02-10,2022-02-10,株式会社ザ・アシスターズ,,株式会社,東京都,品川区,東五反田５丁目２番３－３１２号,,13,109,1410022,,,,,,,2022-02-10,1,,,,,ザアシスターズ,0
1279,6010701042219,新規,0,2022-02-10,2022-02-10,ＢｅｅｎｏＳｔｏｒｍ株式会社,,株式会社,東京都,品川区,北品川４丁目７番３５号,,13,109,1400001,,,,,,,2022-02-10,1,,,,,ビーノストーム,0
1284,6010803004059,新規,0,2022-02-10,2022-02-10,合同会社ＨＡＲＡ,,合同会社,東京都,大田区,西蒲田７丁目４番３－７１３号,,13,111,1440051,,,,,,,2022-02-10,1,,,,,ハラ,0
1287,6010901050335,新規,0,2022-02-10,2022-02-10,株式会社ＳＲＱ,,株式会社,東京都,世田谷区,奥沢７丁目１９番１２号,,13,112,1580083,,,,,,,2022-02-10,1,,,,,エスアールキュー,0
1293,6011001145612,新規,0,2022-02-10,2022-02-10,株式会社Ｍｉｒａｉｅ,,株式会社,東京都,目黒区,下目黒２丁目２１番２０－Ｓ３０２号シティハウス目黒ザ・ツイン,,13,110,1530064,,,,,,,2022-02-10,1,,,,,ミライエ,0
1294,6011001145629,新規,0,2022-02-10,2022-02-10,株式会社フロウ,,株式会社,東京都,目黒区,目黒３丁目１８番１号ＳｔｅｌｌａＡｒｇｅｎｔａ－Ｃ,,13,110,1530063,,,,,,,2022-02-10,1,,,,,フロウ,0
1296,6011201023634,新規,0,2022-02-10,2022-02-10,株式会社ＩＯＫ　Ｍ　ＪＡＰＡＮ,,株式会社,東京都,中野区,鷺宮４丁目４４番４－３０３号,,13,114,1650032,,,,,,,2022-02-10,1,,,,,アイオーケーエムジャパン,0
1297,6011303004301,新規,0,2022-02-10,2022-02-10,合同会社健好社,,合同会社,東京都,杉並区,梅里２丁目２２番４号,,13,115,1660011,,,,,,,2022-02-10,1,,,,,ケンコウシャ,0
1299,6011403003566,新規,0,2022-02-10,2022-02-10,榮合同会社,,合同会社,東京都,板橋区,仲宿３番８号１０９号室,,13,119,1730005,,,,,,,2022-02-10,1,,,,,サカエ,0
1303,6011603003523,新規,0,2022-02-10,2022-02-10,ＳＡＩＦＵＬ　ＯＮＯＤＥＲＡ合同会社,,合同会社,東京都,練馬区,関町北５丁目１６番２６号カーサマレーア２０２号,,13,120,1770051,,,,,,,2022-02-10,1,,,,,サイフルオノデラ,0
1307,6012401038843,新規,0,2022-02-10,2022-02-10,株式会社ｄｏｔ．ＡＣ,,株式会社,東京都,三鷹市,大沢４丁目５番６号,,13,204,1810015,,,,,,,2022-02-10,1,,,,,ドットエーシー,0
1314,6013301048668,新規,0,2022-02-10,2022-02-10,株式会社ＬＯＨＡＳ,,株式会社,東京都,豊島区,池袋２丁目５２番３号ルミナリータワー池袋２１０４号,,13,116,1710014,,,,,,,2022-02-10,1,,,,,ロハス,0
1319,6020001145200,新規,0,2022-02-10,2022-02-10,株式会社Ｌ－ＢＥ,,株式会社,神奈川県,横浜市港北区,日吉本町１丁目２０番５－２０１号,,14,109,2230062,,,,,,,2022-02-10,1,,,,,エルビー,0
1320,6020003021291,新規,0,2022-02-10,2022-02-10,合同会社ＰＴＬコンサルティング,,合同会社,神奈川県,横浜市港北区,新横浜２丁目１４番８号,,14,109,2220033,,,,,,,2022-02-10,1,,,,,ピーティーエルコンサルティング,0
1321,6020005015382,新規,0,2022-02-10,2022-02-10,ＮＰＯ法人莢・さや,,その他の設立登記法人,神奈川県,横浜市鶴見区,北寺尾６丁目３０番１２号,,14,101,2300074,,,,,,,2022-02-10,1,,,,,サヤサヤ,0
1332,6030001146734,新規,0,2022-02-10,2022-02-10,株式会社ＳＡＩＴＯ,,株式会社,埼玉県,新座市,片山３丁目１２－１４－２０２,,11,230,3520025,,,,,,,2022-02-10,1,,,,,サイトウ,0
1333,6030001146759,新規,0,2022-02-10,2022-02-10,株式会社滝澤設備工業,,株式会社,埼玉県,入間郡越生町,上野東２丁目７番地１０,,11,327,3500417,,,,,,,2022-02-10,1,,,,,タキザワセツビコウギョウ,0
1334,6030001146767,新規,0,2022-02-10,2022-02-10,株式会社ＣＯＣＯ　ＰＬＵＳ,,株式会社,埼玉県,加須市,大越５０１－１,,11,210,3470001,,,,,,,2022-02-10,1,,,,,ココプラス,0
1339,6030003018840,新規,0,2022-02-10,2022-02-10,ＧＯＯＤ　ＧＯＯＤＳ合同会社,,合同会社,埼玉県,蕨市,中央２丁目１３番９号,,11,223,3350004,,,,,,,2022-02-10,1,,,,,グッドグッズ,0
1351,6040003019474,新規,0,2022-02-10,2022-02-10,合同会社セントラルインベストメント４号,,合同会社,千葉県,船橋市,薬円台１丁目３０番１号,,12,204,2740077,,,,,,,2022-02-10,1,,,,,セントラルインベストメントヨンゴウ,0
1365,6080101023093,新規,0,2022-02-10,2022-02-10,株式会社東京サウンドボックス,,株式会社,静岡県,田方郡函南町,丹那４８４番地の１,00125686,22,325,4190105,,,,,,,2022-02-10,1,,,,,トウキョウサウンドボックス,0
1376,6120001243778,新規,0,2022-02-10,2022-02-10,Ｃａｔ　Ｃａｍｐｕｓ株式会社,,株式会社,大阪府,大阪市中央区,船場中央２丁目１番４号船場センタービル４号館地下一階Ｂ１０８ＲＯＹＡＬＯＦＦＩＣＥ内,,27,128,5410055,,,,,,,2022-02-10,1,,,,,キャットキャンパス,0
1377,6120001243811,新規,0,2022-02-10,2022-02-10,株式会社エムジーエヌ,,株式会社,大阪府,大阪市此花区,伝法３丁目９番２５号,,27,104,5540002,,,,,,,2022-02-10,1,,,,,エムジーエヌ,0
1388,6130001071121,新規,0,2022-02-10,2022-02-10,元未来株式会社,,株式会社,京都府,京都市上京区,百万遍町８１番地２グランタック千本４０５号室,,26,102,6028276,,,,,,,2022-02-10,1,,,,,モトミライ,0
1404,6140001124828,新規,0,2022-02-10,2022-02-10,ケンタナ株式会社,,株式会社,兵庫県,神戸市灘区,深田町４丁目１番１－１６０１号,,28,102,6570038,,,,,,,2022-02-10,1,,,,,ケンタナ,0
1405,6140001124860,新規,0,2022-02-10,2022-02-10,株式会社ＶＡＮＱ,,株式会社,兵庫県,宝塚市,中山桜台２丁目２２番１号,,28,214,6650877,,,,,,,2022-02-10,1,,,,,ヴァンク,0
1406,6140001124869,新規,0,2022-02-10,2022-02-10,株式会社アールエステート,,株式会社,兵庫県,加古川市,野口町二屋９８地の６,,28,210,6750013,,,,,,,2022-02-10,1,,,,,アールエステート,0
1407,6140001124877,新規,0,2022-02-10,2022-02-10,株式会社セルクル,,株式会社,兵庫県,神戸市須磨区,戎町１丁目４番２６号,,28,107,6540023,,,,,,,2022-02-10,1,,,,,セルクル,0
1408,6140001124885,新規,0,2022-02-10,2022-02-10,株式会社ＧＥＫＫＯ　ＣＯＮＳＵＬＴＩＮＧ,,株式会社,兵庫県,神戸市中央区,江戸町８５－１,,28,110,6500033,,,,,,,2022-02-10,1,,,,,ゲッコウコンサルティング,0
1409,6140001124893,新規,0,2022-02-10,2022-02-10,株式会社スプレッドサービス,,株式会社,兵庫県,明石市,和坂１丁目１５番３３－６号,,28,203,6730012,,,,,,,2022-02-10,1,,,,,スプレッドサービス,0
1415,6140003017336,新規,0,2022-02-10,2022-02-10,森川経営コンサルティング合同会社,,合同会社,兵庫県,神戸市中央区,山本通４丁目１４番２１号４０３号室,,28,110,6500003,,,,,,,2022-02-10,1,,,,,モリカワケイエイコンサルティング,0
1420,6150005009371,新規,0,2022-02-10,2022-02-10,特定非営利活動法人ＳＤＧｓ奈良,,その他の設立登記法人,奈良県,生駒市,上町１０８８－１,,29,209,6300131,,,,,,,2022-02-10,1,,,,,エスディジィズナラ,0
1421,6160005011038,新規,0,2022-02-10,2022-02-10,一般社団法人つばさ,,その他の設立登記法人,滋賀県,大津市,木戸１４４２番地の５,,25,201,5200514,,,,,,,2022-02-10,1,,,,,ツバサ,0
1431,6180001149953,新規,0,2022-02-10,2022-02-10,株式会社ブイトラスト,,株式会社,愛知県,春日井市,高山町２丁目７番地１９,,23,206,4860912,,,,,,,2022-02-10,1,,,,,ブイトラスト,0
1432,6180001149961,新規,0,2022-02-10,2022-02-10,みより株式会社,,株式会社,愛知県,名古屋市中区,栄２丁目６番１号ＲＴ白川ビル３０３号室,,23,106,4600008,,,,,,,2022-02-10,1,,,,,ミヨリ,0
1450,6260001036516,新規,0,2022-02-10,2022-02-10,株式会社Ｎ　ｐｒｏｊｅｃｔ,,株式会社,岡山県,倉敷市,連島３丁目８番４６号,,33,202,7128012,,,,,,,2022-02-10,1,,,,,エヌプロジェクト,0
1452,6290001096409,新規,0,2022-02-10,2022-02-10,Ｆｅｒｍｅｎｔｅｒ株式会社,,株式会社,福岡県,福岡市中央区,小笹４丁目５番３－１００９号,,40,133,8100033,,,,,,,2022-02-10,1,,,,,フェルマンテ,0
1464,6320001018887,新規,0,2022-02-10,2022-02-10,株式会社ＭＩＴＯＲＡ,,株式会社,大分県,宇佐市,大字四日市４４３０番地の１,,44,211,8790471,,,,,,,2022-02-10,1,,,,,ミトラ,0
1469,6330001029438,新規,0,2022-02-10,2022-02-10,株式会社キューブ,,株式会社,熊本県,合志市,豊岡２０１１－９７,,43,216,8611115,,,,,,,2022-02-10,1,,,,,キューブ,0
1472,6340001024495,新規,0,2022-02-10,2022-02-10,ＩＣＨＩＨＡＲＡ株式会社,,株式会社,鹿児島県,薩摩川内市,永利町５１２６番地４,,46,215,8950005,,,,,,,2022-02-10,1,,,,,イチハラ,0
1474,6350001017572,新規,0,2022-02-10,2022-02-10,株式会社ＹＭスポーツマネージメント,,株式会社,宮崎県,都城市,志比田町４８５１番地５,,45,202,8850093,,,,,,,2022-02-10,1,,,,,ワイエムスポーツマネージメント,0
1475,6350002018198,新規,0,2022-02-10,2022-02-10,有限会社徳永粘土瓦工業,,有限会社,宮崎県,西諸県郡高原町,大字西麓４４７番地,,45,361,8894412,,,,,,,2022-02-10,1,,,,,トクナガネンドカワラコウギョウ,0
1476,6360001029996,新規,0,2022-02-10,2022-02-10,Ｓｋｙ　Ｏｋｉｎａｗａ株式会社,,株式会社,沖縄県,宜野湾市,字真志喜６１９番地２００号,,47,205,9012224,,,,,,,2022-02-10,1,,,,,スカイオキナワ,0
1482,6400003002897,新規,0,2022-02-10,2022-02-10,合同会社Ｎ．Ｙ　Ｃｏｎｓｕｌｔｉｎｇ,,合同会社,岩手県,盛岡市,安倍館町２番２９号,,03,201,0200126,,,,,,,2022-02-10,1,,,,,エヌワイコンサルティング,0
1485,6420001017739,新規,0,2022-02-10,2022-02-10,株式会社ミナモトホーム,,株式会社,青森県,八戸市,岬台４丁目１番４７号,,02,203,0310842,,,,,,,2022-02-10,1,,,,,ミナモトホーム,0
1505,6700150107031,新規,0,2022-02-10,2022-02-10,南島原土地改良区,,その他,長崎県,南島原市,北有馬町戊２７４９番地,,42,214,8592305,,,,,,,2022-02-10,1,,,,,ミナミシマバラトチカイリヨウク,0
1518,7010001224417,新規,0,2022-02-10,2022-02-10,株式会社ＬＩＳＭ,,株式会社,東京都,文京区,本駒込４丁目３７番７－５０４号,,13,105,1130021,,,,,,,2022-02-10,1,,,,,リズム,0
1531,7010401165509,新規,0,2022-02-10,2022-02-10,株式会社ＯＳＭＡＮＴＯ,,株式会社,東京都,港区,白金台３丁目１５番１２号ヴィラージュ白金台３０６,,13,103,1080071,,,,,,,2022-02-10,1,,,,,,0
1532,7010401165517,新規,0,2022-02-10,2022-02-10,ＡＫＵＲＡ　ＧＲＯＵＰ株式会社,,株式会社,東京都,港区,南麻布５丁目１０－３２麻布広尾ナショナルコート４０７号室,,13,103,1060047,,,,,,,2022-02-10,1,,,,,アクラグループ,0
1533,7010401165525,新規,0,2022-02-10,2022-02-10,前原商事株式会社,,株式会社,東京都,港区,東新橋１丁目６番３号ザロイヤルパークホテルアイコニック東京汐留２４Ｆ,,13,103,1050021,,,,,,,2022-02-10,1,,,,,マエハラショウジ,0
1535,7010405020692,新規,0,2022-02-10,2022-02-10,虎ノ門ツー特定目的会社,,その他の設立登記法人,東京都,港区,虎ノ門３丁目２２番１０－２０１号,,13,103,1050001,,,,,,,2022-02-10,1,,,,,トラノモンツー,0
1537,7010603009389,新規,0,2022-02-10,2022-02-10,合同会社エイト,,合同会社,東京都,江東区,東雲２丁目６番１９号東京ベイリベロシティ８０５号,,13,108,1350062,,,,,,,2022-02-10,1,,,,,エイト,0
1541,7010701042218,新規,0,2022-02-10,2022-02-10,株式会社市川不動産,,株式会社,東京都,品川区,西品川２丁目７番５号インベスト大崎ＩＩ１０２,00125683,13,109,1410033,,,,,,,2022-02-10,1,,,,,イチカワフドウサン,0
1542,7010701042226,新規,0,2022-02-10,2022-02-10,株式会社桜スプリング,,株式会社,東京都,品川区,小山７丁目１６番５,,13,109,1420062,,,,,,,2022-02-10,1,,,,,サクラスプリング,0
1546,7010803004058,新規,0,2022-02-10,2022-02-10,オレンヂエステート合同会社,,合同会社,東京都,大田区,田園調布２丁目３５番１号,,13,111,1450071,,,,,,,2022-02-10,1,,,,,オレンヂエステート,0
1552,7011001145586,新規,0,2022-02-10,2022-02-10,グリッジパートナーズ株式会社,,株式会社,東京都,渋谷区,円山町５番５号Ｎａｖｉ渋谷Ｖ３階,00125684,13,113,1500044,,,,,,,2022-02-10,1,,,,,グリッジパートナーズ,0
1558,7011101097769,新規,0,2022-02-10,2022-02-10,ピッツァビーア株式会社,,株式会社,東京都,新宿区,新宿２丁目８番４－２０２号,,13,104,1600022,,,,,,,2022-02-10,1,,,,,ピッツァビーア,0
1559,7011105010141,新規,0,2022-02-10,2022-02-10,特定非営利活動法人楽笑,,その他の設立登記法人,東京都,新宿区,岩戸町１６番地メイジャー神楽坂７０２,,13,104,1620832,,,,,,,2022-02-10,1,,,,,ラクショウ,0
1562,7011303004300,新規,0,2022-02-10,2022-02-10,合同会社ＭＡＫＩ,,合同会社,東京都,杉並区,和田１丁目９番１２号レゾンＩＩ,00125681,13,115,1660012,,,,,,,2022-02-10,1,,,,,マキ,0
1566,7011401024019,新規,0,2022-02-10,2022-02-10,株式会社善兵衛,,株式会社,東京都,板橋区,徳丸４丁目１０番１７号,,13,119,1750083,,,,,,,2022-02-10,1,,,,,ゼンベエ,0
1579,7012401038842,新規,0,2022-02-10,2022-02-10,株式会社空想街ファクトリー,,株式会社,東京都,武蔵野市,吉祥寺本町２丁目３４番１０号,,13,203,1800004,,,,,,,2022-02-10,1,,,,,クウソウガイファクトリー,0
1581,7012403005238,新規,0,2022-02-10,2022-02-10,ユナネ合同会社,,合同会社,東京都,三鷹市,牟礼６丁目２３－８－６１０,,13,204,1810002,,,,,,,2022-02-10,1,,,,,ユナネ,0
1592,7020001145190,新規,0,2022-02-10,2022-02-10,株式会社むすび,,株式会社,神奈川県,横浜市都筑区,川和町１４７１番地コーポナカヤＩＩ－２０１号,00125688,14,118,2240057,,,,,,,2022-02-10,1,,,,,ムスビ,0
1596,7021001075155,新規,0,2022-02-10,2022-02-10,株式会社うせい,,株式会社,神奈川県,横須賀市,二葉２丁目５番１３号,,14,201,2390814,,,,,,,2022-02-10,1,,,,,ウセイ,0
1608,7040003019473,新規,0,2022-02-10,2022-02-10,合同会社セントラルインベストメント３号,,合同会社,千葉県,船橋市,薬円台１丁目３０番１号,,12,204,2740077,,,,,,,2022-02-10,1,,,,,セントラルインベストメントサンゴウ,0
1611,7060001034563,新規,0,2022-02-10,2022-02-10,株式会社ＭｏＳｉＭｏＳｉ,,株式会社,栃木県,下都賀郡壬生町,大字壬生丁１１３番地４０,,09,361,3210216,,,,,,,2022-02-10,1,,,,,モシモシ,0
1619,7080403004468,新規,0,2022-02-10,2022-02-10,合同会社サウンドインシュレーション,,合同会社,静岡県,浜松市北区,三方原町６８６番地の７,,22,135,4338105,,,,,,,2022-02-10,1,,,,,サウンドインシュレーション,0
1634,7120001243793,新規,0,2022-02-10,2022-02-10,Ｍ’ｓ　ＶＳＤ株式会社,,株式会社,大阪府,大阪市北区,豊崎３丁目１６番１６－４００７号,,27,127,5310072,,,,,,,2022-02-10,1,,,,,エムズヴイエスディー,0
1637,7120003021116,新規,0,2022-02-10,2022-02-10,合同会社Ａｌｂｕｍ,,合同会社,大阪府,大阪市住之江区,南港中４丁目７番２１－９３７号,,27,125,5590033,,,,,,,2022-02-10,1,,,,,アルバム,0
1639,7120901045587,新規,0,2022-02-10,2022-02-10,株式会社高建,00125687,株式会社,大阪府,茨木市,宮島３丁目３番２６号の１,,27,211,5670853,,,,,,,2022-02-10,1,,,,,タカケン,0
1645,7130001071112,新規,0,2022-02-10,2022-02-10,株式会社八工務店,,株式会社,京都府,京都市南区,上鳥羽清井町２４番地１リバパーク２０２号,,26,107,6018174,,,,,,,2022-02-10,1,,,,,ハチコウムテン,0
1646,7130001071129,新規,0,2022-02-10,2022-02-10,親信株式会社,,株式会社,京都府,京都市左京区,上高野鳥脇町３番地２６,,26,103,6060052,,,,,,,2022-02-10,1,,,,,シンシン,0
1657,7140001124868,新規,0,2022-02-10,2022-02-10,ピークブルー株式会社,,株式会社,兵庫県,神戸市東灘区,魚崎西町２丁目２番２－４０５号,,28,101,6580026,,,,,,,2022-02-10,1,,,,,ピークブルー,0
1658,7140001124884,新規,0,2022-02-10,2022-02-10,株式会社葺合不動産,,株式会社,兵庫県,神戸市中央区,野崎通３丁目３番２９号,,28,110,6510054,,,,,,,2022-02-10,1,,,,,フキアイフドウサン,0
1659,7140001124892,新規,0,2022-02-10,2022-02-10,株式会社プラスワン,,株式会社,兵庫県,西宮市,仁川町６丁目１４番１７号,,28,204,6620811,,,,,,,2022-02-10,1,,,,,プラスワン,0
1660,7150003002617,新規,0,2022-02-10,2022-02-10,Ｓｙｎｃｏｘ合同会社,,合同会社,奈良県,奈良市,中登美ヶ丘６丁目１３番２－５１６号,,29,201,6310003,,,,,,,2022-02-10,1,,,,,シンコックス,0
1664,7160005011037,新規,0,2022-02-10,2022-02-10,特定非営利活動法人青花製彩,,その他の設立登記法人,滋賀県,草津市,大路１丁目１８番地３２号,,25,206,5250032,,,,,,,2022-02-10,1,,,,,アオバナセイサイ,0
1672,7180001149936,新規,0,2022-02-10,2022-02-10,株式会社ワークスニシカワ,,株式会社,愛知県,名古屋市中川区,昭和橋通５丁目１８番地３,,23,110,4540852,,,,,,,2022-02-10,1,,,,,ワークスニシカワ,0
1684,7200001039738,新規,0,2022-02-10,2022-02-10,野田グループ太進建設株式会社,,株式会社,岐阜県,羽島郡笠松町,北及６４７番地,,21,303,5016064,,,,,,,2022-02-10,1,,,,,ノダグループタイシンケンセツ,0
1699,7290001096399,新規,0,2022-02-10,2022-02-10,株式会社Ａｉｓｙ,,株式会社,福岡県,朝倉市,大庭６６番地,,40,228,8381316,,,,,,,2022-02-10,1,,,,,エイジー,0
1712,7330001029437,新規,0,2022-02-10,2022-02-10,ＳｉｘｉＳホールディングス株式会社,,株式会社,熊本県,八代市,古閑浜町１７番地１,,43,202,8660891,,,,,,,2022-02-10,1,,,,,シクシーズホールディングス,0
1718,7360003011794,新規,0,2022-02-10,2022-02-10,合同会社Ｂａａｔａ,,合同会社,沖縄県,那覇市,字識名１１９８番地１,,47,201,9020078,,,,,,,2022-02-10,1,,,,,バータ,0
1728,7400001015776,新規,0,2022-02-10,2022-02-10,株式会社遠鉄,,株式会社,岩手県,盛岡市,手代森２２地割３１,,03,201,0200401,,,,,,,2022-02-10,1,,,,,トオテツ,0
1734,7430001085916,新規,0,2022-02-10,2022-02-10,株式会社第二オキ・ファーム,,株式会社,北海道,余市郡仁木町,西町２丁目１１番地,,01,407,0482406,,,,,,,2022-02-10,1,,,,,ダイニオキファーム,0
1738,7700150107014,新規,0,2022-02-10,2022-02-10,Ｓｕｍｏ　Ｍｏｔｏｒｓ　Ｌａｎｋａ　Ｌｔｄ,,外国会社等,千葉県,大網白里市,大網５６２１番地１,,12,239,2993251,スリランカ民主社会主義共和国、キャンディ、ガンポラ、パナボッカラマワタ、１３,,,,,,2022-02-10,1,,,,,スモモータースランカリミテツド,0
1739,7700150107030,新規,0,2022-02-10,2022-02-10,ＣＤ　ＰＲＯＪＥＫＴ　Ｓ．Ａ．,,外国会社等,,,,,,,,Ｊａｇｉｅｌｌｏｎｓｋａ　７４　ｓｔｒｅｅｔ，　０３－３０１　Ｗａｒｓａｗ，　Ｐｏｌａｎｄ,,,,,,2022-02-10,1,,,,,シーデイープロジエクトエスエー,0
1758,8010401165490,新規,0,2022-02-10,2022-02-10,株式会社スタオベ,,株式会社,東京都,港区,南青山２丁目６番１２号,,13,103,1070062,,,,,,,2022-02-10,1,,,,,スタオベ,0
1760,8010405020650,新規,0,2022-02-10,2022-02-10,一般社団法人ＥＳＧ投資基盤整備機構,,その他の設立登記法人,東京都,港区,新橋１丁目１２番９号,,13,103,1050004,,,,,,,2022-02-10,1,,,,,イーエスジートウシキバンセイビキコウ,0
1762,8010501048447,新規,0,2022-02-10,2022-02-10,株式会社Ｊｅｗｅｌｓ　ｏｆ　Ｊａｐａｎ,,株式会社,東京都,台東区,小島１丁目９番２号,,13,106,1110056,,,,,,,2022-02-10,1,,,,,ジューエルズオブジャパン,0
1769,8010603009388,新規,0,2022-02-10,2022-02-10,合同会社いざなみ,,合同会社,東京都,墨田区,緑１丁目４－７－２０２,,13,107,1300021,,,,,,,2022-02-10,1,,,,,イザナミ,0
1770,8010701042200,新規,0,2022-02-10,2022-02-10,株式会社ＧｉｍｍｉＴｅｃｈ,,株式会社,東京都,品川区,西品川１丁目１番１号住友不動産大崎ガーデンタワー９階ＴＵＮＮＥＬＴＯＫＹＯ,,13,109,1410033,,,,,,,2022-02-10,1,,,,,ギミテック,0
1771,8010703006112,新規,0,2022-02-10,2022-02-10,合同会社Ｗｉｚ,,合同会社,東京都,品川区,南品川６丁目７番２５号センチュリー大井町ゼームス坂５０２,,13,109,1400004,,,,,,,2022-02-10,1,,,,,ウィズ,0
1775,8010803004057,新規,0,2022-02-10,2022-02-10,合同会社ＯＲＡＮＧＥ,,合同会社,東京都,大田区,新蒲田２丁目１０番１１－１０４号,,13,111,1440054,,,,,,,2022-02-10,1,,,,,オレンジ,0
1777,8010901050341,新規,0,2022-02-10,2022-02-10,株式会社精英塾,,株式会社,東京都,世田谷区,北沢２丁目２９番７号,,13,112,1550031,,,,,,,2022-02-10,1,,,,,セイエイジュク,0
1783,8011001145445,新規,0,2022-02-10,2022-02-10,株式会社ＱＵＩＮＣＣＥ,,株式会社,東京都,渋谷区,神宮前６丁目２３番４号桑野ビル２階,,13,113,1500001,,,,,,,2022-02-10,1,,,,,クインス,0
1784,8011001145453,新規,0,2022-02-10,2022-02-10,株式会社ｗｅｌｌｉｅｖ,,株式会社,東京都,渋谷区,渋谷２丁目１９番１５宮益坂ビルディング６０９,,13,113,1500002,,,,,,,2022-02-10,1,,,,,ウェリーブ,0
1785,8011001145593,新規,0,2022-02-10,2022-02-10,株式会社ＴＨＲＥＥ,,株式会社,東京都,渋谷区,恵比寿西２丁目２０番１－５０７号パークナード代官山,,13,113,1500021,,,,,,,2022-02-10,1,,,,,スリー,0
1786,8011001145619,新規,0,2022-02-10,2022-02-10,株式会社ＳｏｏｏＮ,,株式会社,東京都,渋谷区,渋谷２丁目１９－１５－６０９,,13,113,1500002,,,,,,,2022-02-10,1,,,,,スーン,0
1794,8011101097727,新規,0,2022-02-10,2022-02-10,株式会社Ｐｅｔｔｉ　Ｇｒａ,,株式会社,東京都,新宿区,高田馬場４丁目４０－２５－１０１,,13,104,1690075,,,,,,,2022-02-10,1,,,,,,0
1796,8011103011454,新規,0,2022-02-10,2022-02-10,ＯＵＷＲ合同会社,,合同会社,東京都,新宿区,下落合１丁目８番１－７０５号,,13,104,1610033,,,,,,,2022-02-10,1,,,,,,0
1811,8011801040317,新規,0,2022-02-10,2022-02-10,株式会社ＭｉＫｉ管財,,株式会社,東京都,葛飾区,新小岩３丁目１９番１４号,,13,122,1240024,,,,,,,2022-02-10,1,,,,,ミキカンザイ,0
1817,8012801021389,新規,0,2022-02-10,2022-02-10,株式会社ビジネスサポート,,株式会社,東京都,武蔵村山市,中央３丁目３３番地の１２,,13,223,2080003,,,,,,,2022-02-10,1,,,,,ビジネスサポート,0
1824,8013301048666,新規,0,2022-02-10,2022-02-10,株式会社ムラカミ,,株式会社,東京都,豊島区,池袋４丁目９番１号,,13,116,1710014,,,,,,,2022-02-10,1,,,,,ムラカミ,0
1828,8020001145198,新規,0,2022-02-10,2022-02-10,株式会社リベシティ,,株式会社,神奈川県,横浜市神奈川区,台町１３番地１１－５０１号,,14,102,2210834,,,,,,,2022-02-10,1,,,,,リベシティ,0
1838,8030001146716,新規,0,2022-02-10,2022-02-10,株式会社サクラメディカル,,株式会社,埼玉県,さいたま市西区,大字指扇領別所３６６番地８１,,11,101,3310073,,,,,,,2022-02-10,1,,,,,サクラメディカル,0
1839,8030001146765,新規,0,2022-02-10,2022-02-10,ＩＣＨＩ株式会社,,株式会社,埼玉県,川越市,大字藤間１６１番地６,,11,201,3501142,,,,,,,2022-02-10,1,,,,,イチ,0
1842,8030003018830,新規,0,2022-02-10,2022-02-10,ＮＦＢコンサルティング合同会社,,合同会社,埼玉県,秩父市,下影森８４０番地８,,11,207,3691871,,,,,,,2022-02-10,1,,,,,エヌエフビーコンサルティング,0
1846,8040001122170,新規,0,2022-02-10,2022-02-10,天誠株式会社,,株式会社,千葉県,東金市,松之郷字下笹目沢３９９１番地１,,12,213,2830805,,,,,,,2022-02-10,1,,,,,テンセイ,0
1863,8080403004467,新規,0,2022-02-10,2022-02-10,合同会社Ｗｅｂｉｃｉｎｅ,,合同会社,静岡県,浜松市中区,砂山町３２３番１０号３階,,22,131,4300926,,,,,,,2022-02-10,1,,,,,ウェビシン,0
1868,8110001036421,新規,0,2022-02-10,2022-02-10,株式会社勘続,,株式会社,新潟県,上越市,稲田３丁目３番２号,,15,222,9430154,,,,,,,2022-02-10,1,,,,,カンツヅキ,0
1870,8110003004698,新規,0,2022-02-10,2022-02-10,合同会社坂田不動産鑑定,,合同会社,新潟県,上越市,大字藤塚３６５番地２ハイツ藤塚１０１,,15,222,9430121,,,,,,,2022-02-10,1,,,,,サカタフドウサンカンテイ,0
1892,8120001243784,新規,0,2022-02-10,2022-02-10,キュリオシード株式会社,,株式会社,大阪府,大阪市中央区,高麗橋１丁目５番６号東洋ビル６Ｆ,,27,128,5410043,,,,,,,2022-02-10,1,,,,,キュリオシード,0
1893,8120001243801,新規,0,2022-02-10,2022-02-10,恒普未来株式会社,,株式会社,大阪府,大阪市住之江区,粉浜西２丁目７番５号春日ビル,,27,125,5590007,,,,,,,2022-02-10,1,,,,,コウフミライ,0
1898,8120003021115,新規,0,2022-02-10,2022-02-10,福井エステート合同会社,,合同会社,大阪府,交野市,梅が枝５５番１４号,,27,230,5760042,,,,,,,2022-02-10,1,,,,,フクイエステート,0
1899,8120003021123,新規,0,2022-02-10,2022-02-10,合同会社訪問介護ニコニコ,,合同会社,大阪府,大阪市西区,川口４丁目２番６号,,27,106,5500021,,,,,,,2022-02-10,1,,,,,ホウモンカイゴニコニコ,0
1901,8120105009520,新規,0,2022-02-10,2022-02-10,一般社団法人みとり,,その他の設立登記法人,大阪府,堺市北区,船堂町２丁１０番１８号,,27,146,5918003,,,,,,,2022-02-10,1,,,,,ミトリ,0
1904,8120901045586,新規,0,2022-02-10,2022-02-10,株式会社カーザ・ヴィータ,,株式会社,大阪府,池田市,空港１丁目７番１１号ヴィラージュ空港２０４号室,,27,204,5630034,,,,,,,2022-02-10,1,,,,,カーザヴィータ,0
1915,8130001071094,新規,0,2022-02-10,2022-02-10,京都ハウスメンテナンス株式会社,,株式会社,京都府,京都市南区,吉祥院東浦町１６番地３,,26,107,6018333,,,,,,,2022-02-10,1,,,,,キョウトハウスメンテナンス,0
1924,8140001124875,新規,0,2022-02-10,2022-02-10,株式会社みそらクリエイト,,株式会社,兵庫県,明石市,山下町４番２０号サン明石１０２,,28,203,6730878,,,,,,,2022-02-10,1,,,,,ミソラクリエイト,0
1925,8140001124891,新規,0,2022-02-10,2022-02-10,シンクインク株式会社,,株式会社,兵庫県,神戸市中央区,生田町２丁目３番６－５０２号,,28,110,6510092,,,,,,,2022-02-10,1,,,,,シンクインク,0
1932,8140003017342,新規,0,2022-02-10,2022-02-10,合同会社スギノ,,合同会社,兵庫県,神戸市東灘区,岡本２丁目５－１７,,28,101,6580072,,,,,,,2022-02-10,1,,,,,スギノ,0
1945,8180001149943,新規,0,2022-02-10,2022-02-10,株式会社三六不動産,,株式会社,愛知県,一宮市,萩原町萩原字替土１３１０番地８,,23,203,4910353,,,,,,,2022-02-10,1,,,,,ミロクフドウサン,0
1946,8180003023485,新規,0,2022-02-10,2022-02-10,合同会社つばめ,,合同会社,愛知県,春日井市,篠木町２丁目１２８１番地１レガーロ・シノギ２Ｃ号,,23,206,4860851,,,,,,,2022-02-10,1,,,,,ツバメ,0
1947,8180003023493,新規,0,2022-02-10,2022-02-10,合同会社ライズウィン,,合同会社,愛知県,一宮市,三条字墓北５９番地１アーバンコープ２０３号,,23,203,4940003,,,,,,,2022-02-10,1,,,,,ライズウィン,0
1949,8180301035918,新規,0,2022-02-10,2022-02-10,トーヨー教材岡崎株式会社,,株式会社,愛知県,岡崎市,康生通東２丁目２２番地１,,23,202,4440045,,,,,,,2022-02-10,1,,,,,トーヨーキョウザイオカザキ,0
1964,8240001059319,新規,0,2022-02-10,2022-02-10,株式会社キカイヤ,,株式会社,広島県,福山市,瀬戸町地頭分３２－１フジコーポ１０７号室,,34,207,7210000,,,,,,,2022-02-10,1,,,,,キカイヤ,0
1972,8260001036514,新規,0,2022-02-10,2022-02-10,ＳｔｅｐＮａｖｉ株式会社,,株式会社,岡山県,倉敷市,中央１丁目２４－１０高橋北ビル２階南,00125680,33,202,7100046,,,,,,,2022-02-10,1,,,,,ステップナビ,0
1976,8280001008635,新規,0,2022-02-10,2022-02-10,ぐらん株式会社,,株式会社,島根県,松江市,浜乃木１丁目２５番２５号,,32,201,6900044,,,,,,,2022-02-10,1,,,,,グラン,0
1980,8290001096407,新規,0,2022-02-10,2022-02-10,株式会社浮羽グループ,,株式会社,福岡県,久留米市,田主丸町長栖７８１番地１,,40,203,8391201,,,,,,,2022-02-10,1,,,,,ウキハグループ,0
1983,8290003012139,新規,0,2022-02-10,2022-02-10,合同会社ＦＵＫＵ,,合同会社,福岡県,福岡市中央区,天神５丁目５番１９号２Ｆ－Ｂ,,40,133,8100001,,,,,,,2022-02-10,1,,,,,フク,0
1988,8300001012808,新規,0,2022-02-10,2022-02-10,ＭＷＳ販売株式会社,,株式会社,佐賀県,唐津市,千代田町２５６７番地２４,,41,202,8470041,,,,,,,2022-02-10,1,,,,,エムダブルエスハンバイ,0
1995,8350001006160,新規,0,2022-02-10,2022-02-10,イチマル産業株式会社,,株式会社,宮崎県,東臼杵郡門川町,大字門川尾末８４９９番地,,45,421,8890611,,,,,,,2022-02-10,1,,,,,イチマルサンギョウ,0
1998,8360001029994,新規,0,2022-02-10,2022-02-10,ＣО－ＬＥＡＲＮ　ＩＮ　ＧＲＡＣＥ株式会社,,株式会社,沖縄県,国頭郡本部町,字崎本部１８２０番地１,,47,308,9050225,,,,,,,2022-02-10,1,,,,,コラーンイングレース,0
2018,8400003002895,新規,0,2022-02-10,2022-02-10,合同会社ライフサポート東北,,合同会社,岩手県,盛岡市,黒石野２丁目１３番４５号黒澤長屋,,03,201,0200111,,,,,,,2022-02-10,1,,,,,ライフサポートトウホク,0
2025,8430001085956,新規,0,2022-02-10,2022-02-10,株式会社司住建,,株式会社,北海道,江別市,見晴台８６番地の１１,,01,217,0670042,,,,,,,2022-02-10,1,,,,,ツカサジュウケン,0
2029,8460301005041,新規,0,2022-02-10,2022-02-10,株式会社潤沢ライフ,,株式会社,北海道,北見市,小泉４２４番地２９,,01,208,0900001,,,,,,,2022-02-10,1,,,,,ジュンタクライフ,0
2032,8480001011651,新規,0,2022-02-10,2022-02-10,株式会社矢武工業,,株式会社,徳島県,徳島市,末広１丁目２番２５－１０６号,,36,201,7700866,,,,,,,2022-02-10,1,,,,,ヤタケコウギョウ,0
2035,8500001023999,新規,0,2022-02-10,2022-02-10,３３５株式会社,,株式会社,愛媛県,松山市,三番町２丁目１０－６Ｐｌｕｍ三番町２Ｆ,,38,201,7900003,,,,,,,2022-02-10,1,,,,,サンサンゴ,0
2041,9010001224514,新規,0,2022-02-10,2022-02-10,株式会社ＭＥＤＩＴＥＲＡＳ,,株式会社,東京都,千代田区,神田和泉町１番地２の１９石井ビル５階Ａ号室,,13,101,1010024,,,,,,,2022-02-10,1,,,,,メディテラス,0
2051,9010401165457,新規,0,2022-02-10,2022-02-10,ＳＯＵＬＡ株式会社,,株式会社,東京都,港区,港南１丁目７番１号,,13,103,1080075,,,,,,,2022-02-10,1,,,,,ソウラ,0
2056,9010601060664,新規,0,2022-02-10,2022-02-10,株式会社ＣＴＦ,,株式会社,東京都,墨田区,業平２丁目１６－１０イットービル３０１号室,,13,107,1300002,,,,,,,2022-02-10,1,,,,,シーティーエフ,0
2059,9010701042232,新規,0,2022-02-10,2022-02-10,ＡＳＡＮＴＥ株式会社,,株式会社,東京都,品川区,南品川３丁目４番８－２０３号,,13,109,1400004,,,,,,,2022-02-10,1,,,,,アサンテ,0
2073,9011001145386,新規,0,2022-02-10,2022-02-10,株式会社ＬＥＡＰ　Ａｄｖｉｓｏｒｙ　Ｓｅｒｖｉｃｅｓ,,株式会社,東京都,目黒区,中根２丁目１７番１９号ハープシール自由が丘２０５,,13,110,1520031,,,,,,,2022-02-10,1,,,,,リープアドバイザリーサービス,0
2074,9011001145618,新規,0,2022-02-10,2022-02-10,サイファークリエイション株式会社,,株式会社,東京都,渋谷区,円山町５番４号フィールＡ渋谷６１１,,13,113,1500044,,,,,,,2022-02-10,1,,,,,サイファークリエイション,0
2078,9011003014135,新規,0,2022-02-10,2022-02-10,ｆｏｒｅｓｔペレット合同会社,,合同会社,東京都,渋谷区,渋谷３丁目１番１－２０６号ＰＭＯ渋谷ＩＩ,00125690,13,113,1500002,,,,,,,2022-02-10,1,,,,,フォレストペレット,0
2085,9011501027745,新規,0,2022-02-10,2022-02-10,株式会社ｃｕｏｒｅ,,株式会社,東京都,北区,西ケ原２丁目２５番５－６０２号,,13,117,1140024,,,,,,,2022-02-10,1,,,,,クオーレ,0
2088,9011703003065,新規,0,2022-02-10,2022-02-10,Ｋ．Ｉ．Ｔ合同会社,,合同会社,東京都,江戸川区,東小岩１丁目２０－４１,,13,123,1330052,,,,,,,2022-02-10,1,,,,,ケイアイティー,0
2090,9011801040316,新規,0,2022-02-10,2022-02-10,株式会社Ｒｉｌａ　ｓａｌｉｃｅ,,株式会社,東京都,足立区,鹿浜７丁目１５番１号,,13,121,1230864,,,,,,,2022-02-10,1,,,,,リラサリーチェ,0
2102,9012701016926,新規,0,2022-02-10,2022-02-10,株式会社スタンレー住販,,株式会社,東京都,小平市,回田町３０８番地の１３,,13,211,1870013,,,,,,,2022-02-10,1,,,,,スタンレージュウハン,0
2105,9020001145189,新規,0,2022-02-10,2022-02-10,株式会社飛藤,,株式会社,神奈川県,横浜市戸塚区,上柏尾町４２９番地９コートマウンテンＢ－１０１号,,14,110,2440811,,,,,,,2022-02-10,1,,,,,トビフジ,0
2110,9021003011395,新規,0,2022-02-10,2022-02-10,合同会社宙日星,,合同会社,神奈川県,逗子市,久木３丁目１５－１５樅ノ木平２－Ａ,,14,208,2490001,,,,,,,2022-02-10,1,,,,,ソラニチセイ,0
2113,9030001146756,新規,0,2022-02-10,2022-02-10,ヘッズ株式会社,,株式会社,埼玉県,加須市,愛宕２丁目４番３６号,,11,210,3470057,,,,,,,2022-02-10,1,,,,,ヘッズ,0
2123,9040001122178,新規,0,2022-02-10,2022-02-10,小林観光株式会社,,株式会社,千葉県,船橋市,宮本９丁目１１－１－１３０７号,,12,204,2730003,,,,,,,2022-02-10,1,,,,,コバヤシカンコウ,0
2131,9080001024750,新規,0,2022-02-10,2022-02-10,ＫＯＵＭＡ株式会社,,株式会社,静岡県,藤枝市,岡部町内谷７２０番地の２４,,22,214,4211131,,,,,,,2022-02-10,1,,,,,コウマ,0
2147,9120001243461,新規,0,2022-02-10,2022-02-10,株式会社Ｍｉｒａｃｈｉ,,株式会社,大阪府,大阪市北区,東天満２丁目９番４号千代田ビル８階Ｆ号室,,27,127,5300044,,,,,,,2022-02-10,1,,,,,ミラージュ,0
2148,9120001243676,新規,0,2022-02-10,2022-02-10,玖昇株式会社,,株式会社,大阪府,大阪市東成区,東小橋１丁目１７－３１グランドハイツ東小橋５０７号室,,27,115,5370024,,,,,,,2022-02-10,1,,,,,キュウショウ,0
2158,9122001035574,新規,0,2022-02-10,2022-02-10,ジョブコレ大阪株式会社,,株式会社,大阪府,東大阪市,長田中１丁目４番３５号,,27,227,5770013,,,,,,,2022-02-10,1,,,,,ジョブコレオオサカ,0
2161,9130003007748,新規,0,2022-02-10,2022-02-10,合同会社コクシネル,,合同会社,京都府,亀岡市,南つつじケ丘大葉台２丁目２７番９号,,26,206,6210846,,,,,,,2022-02-10,1,,,,,コクシネル,0
2166,9140001124825,新規,0,2022-02-10,2022-02-10,株式会社セルリアン・ビクロ,,株式会社,兵庫県,神戸市中央区,港島南町１丁目５番地の４ＴＲＩ３Ｆ,,28,110,6500047,,,,,,,2022-02-10,1,,,,,セルリアンビクロ,0
2179,9180003023492,新規,0,2022-02-10,2022-02-10,合同会社ターンネクスト,,合同会社,愛知県,名古屋市中川区,富田町大字千音寺字川原田９００番地の６８,,23,110,4540971,,,,,,,2022-02-10,1,,,,,ターンネクスト,0
2180,9180303005249,新規,0,2022-02-10,2022-02-10,合同会社なないろ,,合同会社,愛知県,田原市,田原町栄巌７９番地１,,23,231,4413421,,,,,,,2022-02-10,1,,,,,ナナイロ,0
2181,9180305009297,新規,0,2022-02-10,2022-02-10,一般社団法人エルビスリー,,その他の設立登記法人,愛知県,豊橋市,呉服町２１番地,,23,201,4400804,,,,,,,2022-02-10,1,,,,,エルビスリー,0
2184,9200001039736,新規,0,2022-02-10,2022-02-10,株式会社ジースタッフ,,株式会社,岐阜県,大垣市,荒尾玉池２丁目２１番地,,21,202,5030035,,,,,,,2022-02-10,1,,,,,ジースタッフ,0
2208,9290001096397,新規,0,2022-02-10,2022-02-10,株式会社ネクステージ,,株式会社,福岡県,福岡市博多区,博多駅前３丁目７番３５号博多ハイテックビル５０５,,40,132,8120011,,,,,,,2022-02-10,1,,,,,ネクステージ,0
2221,9320003003728,新規,0,2022-02-10,2022-02-10,アクティブオメガ合同会社,,合同会社,大分県,大分市,末広町１丁目１番３２号６Ｆ,,44,201,8700027,,,,,,,2022-02-10,1,,,,,アクティブオメガ,0
2226,9330005010465,新規,0,2022-02-10,2022-02-10,一般社団法人キンケイトラスト,,その他の設立登記法人,熊本県,熊本市北区,龍田３丁目３２番１８号,,43,105,8618006,,,,,,,2022-02-10,1,,,,,キンケイトラスト,0
2239,9410001013100,新規,0,2022-02-10,2022-02-10,美南株式会社,,株式会社,秋田県,大館市,比内町扇田字町尻８７番地３,,05,204,0185701,,,,,,,2022-02-10,1,,,,,ビナン,0
2250,9700150107020,新規,0,2022-02-10,2022-02-10,Ａｒｕｎａ　Ｅｎｔｅｒｐｒｉｓｅｓ,,外国会社等,千葉県,山武市,上横地３１７３番地５,,12,237,2891313,スリランカ民主社会主義共和国、西部州、コロンボ地区、コロンボ６、マンニングプレイス、７７,,,,,,2022-02-10,1,,,,,アルナエンタープライズ,0
2251,9700150107029,新規,0,2022-02-10,2022-02-10,天偉国際開発股斌有限公司,00125685,外国会社等,東京都,豊島区,高田２丁目１６－１３－１７０１シティテラス目白,,13,116,1710033,台湾台南市東区東栄街５２号１階,,,,,,2022-02-10,1,,,,,テンイコクサイカイハツグーフンユウゲンコウシ,0
