sequenceNumber,corporateNumber,process,correct,updateDate,changeDate,name,nameImageId,kind,prefectureName,cityName,streetNumber,addressImageId,prefectureCode,cityCode,postCode,addressOutside,addressOutsideImageId,closeDate,closeCause,successorCorporateNumber,changeCause,assignmentDate,latest,enName,enPrefectureName,enCityName,enAddressOutside,furigana,hihyoji
10,1010001227012,新規,0,2022-06-03,2022-06-03,ユニバース株式会社,,株式会社,東京都,千代田区,神田神保町１丁目４４番地２,,13,101,1010051,,,,,,,2022-06-03,1,,,,,ユニバース,0
18,1010003037806,新規,0,2022-06-03,2022-06-03,ＲＰ　ＣＡＩＭ合同会社,,合同会社,東京都,文京区,本郷４丁目８番１７－１１０６号,,13,105,1130033,,,,,,,2022-06-03,1,,,,,アールピーカイム,0
22,1010005035089,新規,0,2022-06-03,2022-06-03,一般社団法人ＩＴ導入診断士協会,,その他の設立登記法人,東京都,千代田区,丸の内１丁目８番２号鉄鋼ビルディング４Ｆ,,13,101,1000005,,,,,,,2022-06-03,1,,,,,アイティードウニュウシンダンシキョウカイ,0
24,1010103001918,新規,0,2022-06-03,2022-06-03,合同会社惣志企画,,合同会社,東京都,八王子市,越野２０番地１２,,13,201,1920361,,,,,,,2022-06-03,1,,,,,ソウシキカク,0
35,1010403027811,新規,0,2022-06-03,2022-06-03,ＢＨＴ技術研究合同会社,,合同会社,東京都,港区,赤坂４丁目８番１９号,,13,103,1070052,,,,,,,2022-06-03,1,,,,,ビーエイチティーギジュツケンキュウ,0
41,1010501048908,新規,0,2022-06-03,2022-06-03,株式会社Ｒ＆Ｒ,,株式会社,東京都,台東区,小島１丁目１２番２号,,13,106,1110056,,,,,,,2022-06-03,1,,,,,アールアンドアール,0
47,1010703006267,新規,0,2022-06-03,2022-06-03,合同会社伊織,,合同会社,東京都,品川区,大崎３丁目５－３,,13,109,1410032,,,,,,,2022-06-03,1,,,,,イオリ,0
48,1010801033007,新規,0,2022-06-03,2022-06-03,羽田蒸留所株式会社,,株式会社,東京都,大田区,多摩川１丁目２３番１２号,,13,111,1460095,,,,,,,2022-06-03,1,,,,,ハネダジョウリュウジョ,0
51,1010901050959,新規,0,2022-06-03,2022-06-03,株式会社ｂｌｕｅ　ｖａｌｌｅｙ,,株式会社,東京都,世田谷区,玉川１丁目３番４号,,13,112,1580094,,,,,,,2022-06-03,1,,,,,ブルーバレー,0
59,1011001147836,新規,0,2022-06-03,2022-06-03,株式会社ＮＯＯＤＬＥＳ　ＨＯＮＤＡ,,株式会社,東京都,渋谷区,恵比寿南３丁目１番１号いちご恵比寿グリーングラス,,13,113,1500022,,,,,,,2022-06-03,1,,,,,ヌードルスホンダ,0
60,1011001147877,新規,0,2022-06-03,2022-06-03,Ｆｉ株式会社,,株式会社,東京都,渋谷区,宇田川町１番１２号,,13,113,1500042,,,,,,,2022-06-03,1,,,,,ファイ,0
66,1011101099011,新規,0,2022-06-03,2022-06-03,株式会社フェニックス,,株式会社,東京都,新宿区,市谷台町１３番２号,,13,104,1620066,,,,,,,2022-06-03,1,,,,,フェニックス,0
67,1011101099093,新規,0,2022-06-03,2022-06-03,株式会社ＫｅｙＭｅｍｓ,,株式会社,東京都,新宿区,西新宿１丁目４－１１全研プラザビル,,13,104,1600023,,,,,,,2022-06-03,1,,,,,キーメンス,0
82,1011803005092,新規,0,2022-06-03,2022-06-03,合同会社イロアス,,合同会社,東京都,足立区,綾瀬３丁目２１番１３号,,13,121,1200005,,,,,,,2022-06-03,1,,,,,イロアス,0
83,1012401039268,新規,0,2022-06-03,2022-06-03,株式会社ごえむ,,株式会社,東京都,狛江市,和泉本町１丁目３６番３－６１７号,,13,219,2010003,,,,,,,2022-06-03,1,,,,,ゴエム,0
85,1012701017089,新規,0,2022-06-03,2022-06-03,株式会社やさしい餃子,,株式会社,東京都,東村山市,本町２丁目１９番６１号,,13,213,1890014,,,,,,,2022-06-03,1,,,,,ヤサシイギョウザ,0
86,1012801021627,新規,0,2022-06-03,2022-06-03,株式会社グッドライフ,,株式会社,東京都,武蔵村山市,中原２丁目３８番地の１０,,13,223,2080035,,,,,,,2022-06-03,1,,,,,グッドライフ,0
100,1020001146731,新規,0,2022-06-03,2022-06-03,株式会社スエヒロ,,株式会社,神奈川県,川崎市高津区,久末４７８番地１,,14,134,2130026,,,,,,,2022-06-03,1,,,,,スエヒロ,0
101,1020001146764,新規,0,2022-06-03,2022-06-03,株式会社リ・ファンクション,,株式会社,神奈川県,横浜市中区,桜木町１丁目１０１番地１クロスゲート７階,,14,104,2310062,,,,,,,2022-06-03,1,,,,,リファンクション,0
104,1021001076142,新規,0,2022-06-03,2022-06-03,株式会社ハルタス,,株式会社,神奈川県,座間市,相武台３丁目１６番７号,,14,216,2520011,,,,,,,2022-06-03,1,,,,,ハルタス,0
107,1021003011790,新規,0,2022-06-03,2022-06-03,合同会社ＣＲＯＷＮ　ＡＲＣＨＥＲＹ　ＲＥＴＡＩＬ,,合同会社,神奈川県,相模原市南区,松が枝町１６番１２－７０４号,,14,153,2520313,,,,,,,2022-06-03,1,,,,,クラウンアーチェリーリテール,0
117,1030001148462,新規,0,2022-06-03,2022-06-03,株式会社笑福メディカルサービス,,株式会社,埼玉県,さいたま市北区,宮原町１丁目５８７番１号,,11,102,3310812,,,,,,,2022-06-03,1,,,,,ショウフクメディカルサービス,0
118,1030001148470,新規,0,2022-06-03,2022-06-03,株式会社ＣｒａｆｔＦｒｅａｋｓ,,株式会社,埼玉県,川口市,三ツ和１丁目１２番２号,,11,203,3340011,,,,,,,2022-06-03,1,,,,,クラフトフリークス,0
119,1030001148479,新規,0,2022-06-03,2022-06-03,株式会社ＳＳＳ,,株式会社,埼玉県,深谷市,上柴町東１丁目７番地４,,11,218,3660051,,,,,,,2022-06-03,1,,,,,エスエスエス,0
120,1030001148529,新規,0,2022-06-03,2022-06-03,ＫＥホールディングス株式会社,,株式会社,埼玉県,上尾市,本町３丁目８番７号,,11,219,3620014,,,,,,,2022-06-03,1,,,,,ケーイーホールディングス,0
129,1040001123687,新規,0,2022-06-03,2022-06-03,株式会社クリーンアップ,,株式会社,千葉県,四街道市,亀崎１７番地１,,12,228,2840011,,,,,,,2022-06-03,1,,,,,クリーンアップ,0
144,1050001051185,新規,0,2022-06-03,2022-06-03,古河じまん株式会社,,株式会社,茨城県,古河市,大手町７－６７,,08,204,3060032,,,,,,,2022-06-03,1,,,,,コガジマン,0
145,1060001034932,新規,0,2022-06-03,2022-06-03,高島圧送株式会社,00126745,株式会社,栃木県,宇都宮市,竹林町４３９番地,,09,201,3210974,,,,,,,2022-06-03,1,,,,,タカシマアッソウ,0
148,1080001024989,新規,0,2022-06-03,2022-06-03,株式会社ｏｒｉｇｉｎ,,株式会社,静岡県,静岡市駿河区,東新田４丁目１８番５－６号,,22,102,4210112,,,,,,,2022-06-03,1,,,,,オリジン,0
154,1080401025843,新規,0,2022-06-03,2022-06-03,サカセイサポート株式会社,,株式会社,静岡県,浜松市南区,米津町２２９７番地の２,,22,134,4328056,,,,,,,2022-06-03,1,,,,,サカセイサポート,0
155,1080401025851,新規,0,2022-06-03,2022-06-03,株式会社暖々,,株式会社,静岡県,浜松市東区,小池町１５７８番地の１,,22,132,4350056,,,,,,,2022-06-03,1,,,,,ダンダン,0
156,1080403004548,新規,0,2022-06-03,2022-06-03,ＦＡＬＡ合同会社,,合同会社,静岡県,浜松市中区,新津町２８０－１ラフォーレ新津３０３,,22,131,4300911,,,,,,,2022-06-03,1,,,,,ファーラ,0
158,1090001017604,新規,0,2022-06-03,2022-06-03,ＹＴＭ株式会社,,株式会社,山梨県,南巨摩郡富士川町,長澤５４４番地２,,19,368,4000505,,,,,,,2022-06-03,1,,,,,ワイティーエム,0
160,1090003002100,新規,0,2022-06-03,2022-06-03,合同会社ＨＯＰＥ園,,合同会社,山梨県,笛吹市,御坂町八千蔵２７６番地１三枝住宅,,19,211,4060806,,,,,,,2022-06-03,1,,,,,ホープエン,0
161,1100001035397,新規,0,2022-06-03,2022-06-03,ＴＩＮＴｔ株式会社,,株式会社,長野県,岡谷市,塚間町２丁目５番１８号グリーンフォルジュＡ２０１,00126756,20,204,3940026,,,,,,,2022-06-03,1,,,,,ティント,0
164,1110001036691,新規,0,2022-06-03,2022-06-03,上杉建設株式会社,,株式会社,新潟県,上越市,平成町４３８番地１雄志レジデンス１階,,15,222,9430151,,,,,,,2022-06-03,1,,,,,ウエスギケンセツ,0
165,1110001036709,新規,0,2022-06-03,2022-06-03,エム・ディ・エンジニアリング株式会社,,株式会社,新潟県,新潟市東区,豊１丁目１２番２９号,,15,102,9500812,,,,,,,2022-06-03,1,,,,,エムディエンジニアリング,0
166,1110001036717,新規,0,2022-06-03,2022-06-03,三和金属株式会社,,株式会社,新潟県,長岡市,十日町１６６２番地４,,15,202,9401131,,,,,,,2022-06-03,1,,,,,サンワキンゾク,0
167,1110003004779,新規,0,2022-06-03,2022-06-03,Ｓ．Ｔテック合同会社,,合同会社,新潟県,新潟市東区,上木戸５丁目１２番２１号フレッサ２０１号,,15,102,9500891,,,,,,,2022-06-03,1,,,,,エスティーテック,0
198,1120001246265,新規,0,2022-06-03,2022-06-03,株式会社乃が美ラボ,,株式会社,大阪府,大阪市中央区,心斎橋筋２丁目７番１８号,,27,128,5420085,,,,,,,2022-06-03,1,,,,,ノガミラボ,0
199,1120001246331,新規,0,2022-06-03,2022-06-03,株式会社ミンガル,,株式会社,大阪府,大阪市北区,茶屋町１９番１９号アプローズタワー１８階,,27,127,5300013,,,,,,,2022-06-03,1,,,,,ミンガル,0
200,1120001246364,新規,0,2022-06-03,2022-06-03,株式会社ＬＯＴＵＳ,,株式会社,大阪府,大阪市住吉区,長居西１丁目５番４号,,27,120,5580002,,,,,,,2022-06-03,1,,,,,ロータス,0
201,1120001246380,新規,0,2022-06-03,2022-06-03,つくもトータルサポート株式会社,,株式会社,大阪府,大阪市旭区,太子橋１丁目９番１７号,,27,117,5350001,,,,,,,2022-06-03,1,,,,,ツクモトータルサポート,0
202,1120001246389,新規,0,2022-06-03,2022-06-03,ＡｍＨｙｄｒｏ　Ｐａｃｉｆｉｃ株式会社,,株式会社,大阪府,大阪市阿倍野区,文の里２丁目２番５号サンテ文の里ハイム２０１号,,27,119,5450004,,,,,,,2022-06-03,1,,,,,アムハイドロパシフィック,0
203,1120001246397,新規,0,2022-06-03,2022-06-03,株式会社中尾工務店,,株式会社,大阪府,大阪市東住吉区,桑津２丁目１１番１１号,,27,121,5460041,,,,,,,2022-06-03,1,,,,,ナカオコウムテン,0
207,1120003021781,新規,0,2022-06-03,2022-06-03,合同会社ｉｓｏｌａ,,合同会社,大阪府,寝屋川市,木屋町６番２４号,,27,215,5720087,,,,,,,2022-06-03,1,,,,,イゾラ,0
214,1120101065664,新規,0,2022-06-03,2022-06-03,株式会社逵田商事,00126743,株式会社,大阪府,堺市西区,菱木３丁２６４６番地１,,27,144,5938315,,,,,,,2022-06-03,1,,,,,ツジタショウジ,0
215,1120101065672,新規,0,2022-06-03,2022-06-03,株式会社Ｎ２,,株式会社,大阪府,岸和田市,箕土路町２丁目８番４号,,27,202,5960801,,,,,,,2022-06-03,1,,,,,エヌツー,0
219,1120105009568,新規,0,2022-06-03,2022-06-03,一般社団法人地域共生支援センターこころ,,その他の設立登記法人,大阪府,堺市西区,鳳南町５丁５３１番地９３エスエスタウン２０１号室,,27,144,5938325,,,,,,,2022-06-03,1,,,,,チイキキョウセイシエンセンターココロ,0
224,1130001071902,新規,0,2022-06-03,2022-06-03,株式会社ＭＲＭ,,株式会社,京都府,京都市下京区,函谷鉾町１０１アーバンネット四条烏丸ビル７Ｆ,,26,106,6008009,,,,,,,2022-06-03,1,,,,,エムアールエム,0
225,1130001071927,新規,0,2022-06-03,2022-06-03,株式会社Ｄｅｓｉｇｎ　ｐｌｕｓ　Ｒ,,株式会社,京都府,京都市左京区,下鴨宮崎町１１９－１,,26,103,6060802,,,,,,,2022-06-03,1,,,,,デザインプラスアール,0
235,1140001126184,新規,0,2022-06-03,2022-06-03,株式会社４１０,,株式会社,兵庫県,丹波篠山市,菅１２０番地１,,28,221,6692312,,,,,,,2022-06-03,1,,,,,ヨンイチゼロ,0
238,1150001025591,新規,0,2022-06-03,2022-06-03,光金属株式会社,,株式会社,奈良県,北葛城郡王寺町,太子３丁目１番１２号,,29,425,6360023,,,,,,,2022-06-03,1,,,,,ヒカリキンゾク,0
241,1160001024246,新規,0,2022-06-03,2022-06-03,株式会社アットライフ,,株式会社,滋賀県,彦根市,正法寺町４７０－１１－１０２,,25,202,5220024,,,,,,,2022-06-03,1,,,,,アットライフ,0
243,1170001017133,新規,0,2022-06-03,2022-06-03,ＭＳＴＴ株式会社,,株式会社,和歌山県,和歌山市,小松原５丁目１番２号,,30,201,6408265,,,,,,,2022-06-03,1,,,,,エムエスティティ,0
249,1180001151559,新規,0,2022-06-03,2022-06-03,株式会社ＭＵＳＯＵ,,株式会社,愛知県,西春日井郡豊山町,大字豊場字神戸１９６番地,,23,342,4800202,,,,,,,2022-06-03,1,,,,,ムソウ,0
250,1180001151591,新規,0,2022-06-03,2022-06-03,アサノスチーム株式会社,,株式会社,愛知県,愛知郡東郷町,涼松１丁目１番地７,,23,302,4700163,,,,,,,2022-06-03,1,,,,,アサノスチーム,0
251,1180001151617,新規,0,2022-06-03,2022-06-03,株式会社Ｎ‐ｖｉｓｉｏｎ,,株式会社,愛知県,日進市,浅田町上小深田３番地６３,,23,230,4700124,,,,,,,2022-06-03,1,,,,,エヌビジョン,0
254,1180003023896,新規,0,2022-06-03,2022-06-03,合同会社ＳＯＮＡＸ,,合同会社,愛知県,名古屋市千種区,内山３丁目８番１６号,,23,101,4640075,,,,,,,2022-06-03,1,,,,,ソナックス,0
258,1180305009346,新規,0,2022-06-03,2022-06-03,一般社団法人おうちほいくし育成スクール協会,,その他の設立登記法人,愛知県,岡崎市,緑丘１丁目３－７,,23,202,4440806,,,,,,,2022-06-03,1,,,,,オウチホイクシイクセイスクールキョウカイ,0
263,1190001029465,新規,0,2022-06-03,2022-06-03,日興ホールディングス株式会社,,株式会社,三重県,桑名市,大字矢田３９０番地１,,24,205,5110821,,,,,,,2022-06-03,1,,,,,ニッコウホールディングス,0
268,1210001018952,新規,0,2022-06-03,2022-06-03,株式会社知と冒険の森,,株式会社,福井県,勝山市,村岡町寺尾第５１号１１番地,,18,206,9110023,,,,,,,2022-06-03,1,,,,,チトボウケンノモリ,0
269,1220001024883,新規,0,2022-06-03,2022-06-03,株式会社ヤマオメンテ,,株式会社,石川県,野々市市,粟田３丁目４０８番地２,,17,212,9218823,,,,,,,2022-06-03,1,,,,,ヤマオメンテ,0
270,1220001024891,新規,0,2022-06-03,2022-06-03,Ｊｏｉｎｔ　ＴＥＲＡＳＵ株式会社,,株式会社,石川県,金沢市,粟崎町２丁目３８６番地１,,17,201,9200226,,,,,,,2022-06-03,1,,,,,ジョイントテラス,0
271,1230001019387,新規,0,2022-06-03,2022-06-03,フルシン株式会社,,株式会社,富山県,黒部市,宇奈月町浦山９６７番地５,,16,207,9380862,,,,,,,2022-06-03,1,,,,,フルシン,0
274,1240001059861,新規,0,2022-06-03,2022-06-03,グリーンシード株式会社,,株式会社,広島県,広島市西区,草津新町２丁目３０－３－９０６号,,34,104,7330834,,,,,,,2022-06-03,1,,,,,グリーンシード,0
275,1240001059878,新規,0,2022-06-03,2022-06-03,株式会社小野造園,,株式会社,広島県,広島市安佐南区,中須１丁目４４番１７号,,34,105,7310121,,,,,,,2022-06-03,1,,,,,オノゾウエン,0
283,1250001019591,新規,0,2022-06-03,2022-06-03,株式会社とよら不動産,,株式会社,山口県,下関市,長府宮の内町１番３５号,,35,201,7520967,,,,,,,2022-06-03,1,,,,,トヨラフドウサン,0
284,1250001019600,新規,0,2022-06-03,2022-06-03,株式会社惠,,株式会社,山口県,宇部市,大字東岐波５８４２番地２,,35,202,7550241,,,,,,,2022-06-03,1,,,,,メグミ,0
286,1260001036891,新規,0,2022-06-03,2022-06-03,株式会社はやぶさ,,株式会社,岡山県,倉敷市,連島町連島１１０番地１,,33,202,7128011,,,,,,,2022-06-03,1,,,,,ハヤブサ,0
295,1290001097733,新規,0,2022-06-03,2022-06-03,株式会社ａ＆ｂコネクティッド,,株式会社,福岡県,福岡市中央区,渡辺通１丁目１番１号,,40,133,8100004,,,,,,,2022-06-03,1,,,,,エーアンドビーコネクティッド,0
296,1290001097758,新規,0,2022-06-03,2022-06-03,株式会社ビーエムエス,,株式会社,福岡県,久留米市,新合川１丁目８番２２号,,40,203,8390865,,,,,,,2022-06-03,1,,,,,ビーエムエス,0
297,1290001097774,新規,0,2022-06-03,2022-06-03,株式会社タステック,,株式会社,福岡県,筑紫野市,二日市中央１丁目７番１３号レジデンスアイ１０２,,40,217,8180072,,,,,,,2022-06-03,1,,,,,タステック,0
298,1290001097782,新規,0,2022-06-03,2022-06-03,ＧＡＲＤＥＮ　ＦＬＯＷ株式会社,,株式会社,福岡県,福岡市西区,姪浜駅南１丁目２番６号,,40,135,8190006,,,,,,,2022-06-03,1,,,,,ガーデンフロウ,0
299,1290001097799,新規,0,2022-06-03,2022-06-03,株式会社いくら,,株式会社,福岡県,福岡市中央区,今泉１丁目１３番２１号２Ｂ,,40,133,8100021,,,,,,,2022-06-03,1,,,,,イクラ,0
302,1290003012590,新規,0,2022-06-03,2022-06-03,合同会社ミウラ,,合同会社,福岡県,福岡市博多区,上牟田１丁目３番１３－４０５号,,40,132,8120006,,,,,,,2022-06-03,1,,,,,ミウラ,0
305,1290801028598,新規,0,2022-06-03,2022-06-03,トキヨリ株式会社,,株式会社,福岡県,北九州市小倉北区,魚町３丁目３番２０号,,40,106,8020006,,,,,,,2022-06-03,1,,,,,トキヨリ,0
306,1290805009553,新規,0,2022-06-03,2022-06-03,一般社団法人日本伝統文化未来機構,,その他の設立登記法人,福岡県,北九州市小倉北区,井堀１丁目２６－１７田園ビル１Ｆ,,40,106,8030835,,,,,,,2022-06-03,1,,,,,ニホンデントウブンカミライキコウ,0
307,1300001012954,新規,0,2022-06-03,2022-06-03,株式会社リアルフィッシャー,,株式会社,佐賀県,小城市,小城町畑田７７３番地１,,41,208,8450002,,,,,,,2022-06-03,1,,,,,リアルフィッシャー,0
309,1310001017878,新規,0,2022-06-03,2022-06-03,株式会社長崎心和,,株式会社,長崎県,松浦市,福島町鍋串免２４番地,,42,208,8480407,,,,,,,2022-06-03,1,,,,,ナガサキシンワ,0
310,1310001017886,新規,0,2022-06-03,2022-06-03,株式会社興石,,株式会社,長崎県,佐世保市,江迎町奥川内２５３番地１３,,42,202,8596121,,,,,,,2022-06-03,1,,,,,コウセキ,0
315,1320001019106,新規,0,2022-06-03,2022-06-03,こちょぱん株式会社,,株式会社,大分県,由布市,湯布院町川上３７２５番地１３,,44,213,8795102,,,,,,,2022-06-03,1,,,,,コチョパン,0
316,1320003003818,新規,0,2022-06-03,2022-06-03,Ｂ＆Ｒ合同会社,,合同会社,大分県,臼杵市,大字海添１７２番地の１０,,44,206,8750042,,,,,,,2022-06-03,1,,,,,ビーアンドアール,0
320,1330003009392,新規,0,2022-06-03,2022-06-03,合同会社田中美創,,合同会社,熊本県,熊本市中央区,桜町２番３６号ハウル桜町４０１,,43,101,8600805,,,,,,,2022-06-03,1,,,,,タナカビソウ,0
321,1330003009401,新規,0,2022-06-03,2022-06-03,ＦＥＴスタッフ合同会社,,合同会社,熊本県,菊池郡大津町,大字灰塚１５６番地,,43,403,8691226,,,,,,,2022-06-03,1,,,,,エフイーティースタッフ,0
325,1340001024772,新規,0,2022-06-03,2022-06-03,株式会社共進,,株式会社,鹿児島県,奄美市,名瀬大字仲勝２９９番地２３サザンハイツＢ１０３,,46,222,8940003,,,,,,,2022-06-03,1,,,,,キョウシン,0
326,1340001024780,新規,0,2022-06-03,2022-06-03,株式会社ゆう電,,株式会社,鹿児島県,鹿児島市,吉野町２６１８－２７,,46,201,8920871,,,,,,,2022-06-03,1,,,,,ユウデン,0
329,1350001017775,新規,0,2022-06-03,2022-06-03,株式会社大河設備,,株式会社,宮崎県,児湯郡川南町,大字平田１７８９番地１,,45,405,8891302,,,,,,,2022-06-03,1,,,,,オオカワセツビ,0
330,1350001017783,新規,0,2022-06-03,2022-06-03,株式会社ふかみ,,株式会社,宮崎県,児湯郡都農町,大字川北１６６番地６,,45,406,8891201,,,,,,,2022-06-03,1,,,,,フカミ,0
332,1350003004094,新規,0,2022-06-03,2022-06-03,合同会社ＢｌｏｏＭ,,合同会社,宮崎県,都城市,高崎町大牟田６２８５番地,,45,202,8894505,,,,,,,2022-06-03,1,,,,,ブルーム,0
333,1370001048629,新規,0,2022-06-03,2022-06-03,株式会社ＫＯ‐ＮＥＴＬＩＮＥ,,株式会社,宮城県,仙台市太白区,長町南３丁目１１番３１号,,04,104,9820012,,,,,,,2022-06-03,1,,,,,ケーオーネットライン,0
335,1380001032879,新規,0,2022-06-03,2022-06-03,ＴＮＲＩＮＫ株式会社,,株式会社,福島県,いわき市,勿来町四沢作田４番地の３１,,07,204,9790145,,,,,,,2022-06-03,1,,,,,ティーエヌリンク,0
336,1380003005189,新規,0,2022-06-03,2022-06-03,合同会社Ｏｒｉｅｎｓ,,合同会社,福島県,伊達郡川俣町,大字東福沢字香田１６番地の１,,07,308,9601405,,,,,,,2022-06-03,1,,,,,,0
337,1390001016914,新規,0,2022-06-03,2022-06-03,株式会社鳥や,,株式会社,山形県,東村山郡山辺町,大字山辺１４４６番地１８,,06,301,9900301,,,,,,,2022-06-03,1,,,,,トリヤ,0
341,1400003002943,新規,0,2022-06-03,2022-06-03,合同会社知正会,,合同会社,岩手県,盛岡市,本宮字水門２６番地２,,03,201,0200866,,,,,,,2022-06-03,1,,,,,チセイカイ,0
342,1410001013198,新規,0,2022-06-03,2022-06-03,株式会社絆翔,,株式会社,秋田県,仙北市,角館町上菅沢３６６番地３ＫａｈａｌａＢ棟２０２,,05,215,0140369,,,,,,,2022-06-03,1,,,,,キショウ,0
346,1420001017875,新規,0,2022-06-03,2022-06-03,倉谷電気株式会社,,株式会社,青森県,青森市,岡造道１丁目１４番１２号,,02,201,0300914,,,,,,,2022-06-03,1,,,,,クラヤデンキ,0
355,1430003013970,新規,0,2022-06-03,2022-06-03,合同会社ＴＥＮＧＵマーケット,,合同会社,北海道,札幌市中央区,南十二条西１丁目１番１－３０１号,,01,101,0640912,,,,,,,2022-06-03,1,,,,,テングマーケット,0
356,1450001013715,新規,0,2022-06-03,2022-06-03,Ａｑｕａ　ｐｉｔ株式会社,,株式会社,北海道,旭川市,三条西５丁目１－２０ガーデンハウス２０７,,01,204,0700053,,,,,,,2022-06-03,1,,,,,アクアピット,0
357,1450003002212,新規,0,2022-06-03,2022-06-03,合同会社桜広場,,合同会社,北海道,空知郡上富良野町,４００７番地１０,,01,460,0710500,,,,,,,2022-06-03,1,,,,,サクラヒロバ,0
359,1460001005703,新規,0,2022-06-03,2022-06-03,株式会社ＮＫ．ハウジング,,株式会社,北海道,釧路郡釧路町,光和８丁目４８番地１,,01,661,0880623,,,,,,,2022-06-03,1,,,,,エヌケイハウジング,0
368,1500001024252,新規,0,2022-06-03,2022-06-03,株式会社翔誠工業,,株式会社,愛媛県,新居浜市,中村１丁目１１番１９号,,38,205,7920044,,,,,,,2022-06-03,1,,,,,ショウセイコウギョウ,0
369,1500001024260,新規,0,2022-06-03,2022-06-03,株式会社ＭＡＴＳＵＫＩ,,株式会社,愛媛県,松山市,和泉南５丁目４番２２号,,38,201,7900941,,,,,,,2022-06-03,1,,,,,マツキ,0
373,1700150108967,新規,0,2022-06-03,2022-05-24,パスファインダ制作室,,その他,東京都,江東区,亀戸２丁目３７番１１号福島ビル３階,,13,108,1360071,,,,,,,2022-05-24,1,,,,,パスフアインダセイサクシツ,0
385,2010001227060,新規,0,2022-06-03,2022-06-03,株式会社Ｍ＆Ａフォース,,株式会社,東京都,中央区,日本橋小舟町１番９号,,13,102,1030024,,,,,,,2022-06-03,1,,,,,エムアンドエーフォース,0
386,2010001227069,新規,0,2022-06-03,2022-06-03,株式会社エーディージャストコーポレーション,,株式会社,東京都,中央区,銀座１丁目２１番７号,,13,102,1040061,,,,,,,2022-06-03,1,,,,,エーディージャストコーポレーション,0
392,2010003037805,新規,0,2022-06-03,2022-06-03,合同会社Ｘ‐ｃｈａｎｇｅ,,合同会社,東京都,千代田区,岩本町３丁目６－５木所ビル３Ｆ,,13,101,1010032,,,,,,,2022-06-03,1,,,,,エックスチェンジ,0
393,2010003037813,新規,0,2022-06-03,2022-06-03,ＡＮＮ総研合同会社,,合同会社,東京都,中央区,銀座１丁目２２－１１銀座大竹ビジデンス２階,,13,102,1040061,,,,,,,2022-06-03,1,,,,,エーエヌエヌソウケン,0
394,2010005035088,新規,0,2022-06-03,2022-06-03,一般社団法人日本視覚障害者コーチ協会,,その他の設立登記法人,東京都,千代田区,富士見２丁目７番２号ステージビル１７階,,13,101,1020071,,,,,,,2022-06-03,1,,,,,ニホンシカクショウガイシャコーチキョウカイ,0
395,2010101015200,新規,0,2022-06-03,2022-06-03,マイホーム不動産株式会社,,株式会社,東京都,八王子市,南町９番１号１Ｆ,,13,201,1920072,,,,,,,2022-06-03,1,,,,,マイホームフドウサン,0
397,2010401167724,新規,0,2022-06-03,2022-06-03,株式会社ＳＳＱＬ,,株式会社,東京都,港区,南麻布５丁目１５番２０－６０１号,,13,103,1060047,,,,,,,2022-06-03,1,,,,,エスエスキューエル,0
399,2010405021043,新規,0,2022-06-03,2022-06-03,一般社団法人南風会,,その他の設立登記法人,東京都,港区,南青山２丁目１２番１５号南青山２丁目ビル９Ｆ,,13,103,1070062,,,,,,,2022-06-03,1,,,,,ナンプウカイ,0
402,2010501048907,新規,0,2022-06-03,2022-06-03,花都商事株式会社,,株式会社,東京都,台東区,台東１丁目２４番９号ブライト秋葉原２Ｆ,,13,106,1100016,,,,,,,2022-06-03,1,,,,,ハナミヤコショウジ,0
403,2010503006607,新規,0,2022-06-03,2022-06-03,ＭＳ菊名合同会社,,合同会社,東京都,台東区,東上野５丁目１番８号上野富士ビル８階,,13,106,1100015,,,,,,,2022-06-03,1,,,,,エムエスキクナ,0
404,2010601061272,新規,0,2022-06-03,2022-06-03,株式会社Ｓｅｖｅｎｔｈ‐Ｐｉｔｃｈ,,株式会社,東京都,墨田区,向島２丁目９番１１－６０１号,,13,107,1310033,,,,,,,2022-06-03,1,,,,,セブンスピッチ,0
408,2010701042734,新規,0,2022-06-03,2022-06-03,シロクロ株式会社,,株式会社,東京都,品川区,上大崎３丁目１番１５－３０１号,,13,109,1410021,,,,,,,2022-06-03,1,,,,,シロクロ,0
409,2010701042750,新規,0,2022-06-03,2022-06-03,ブーンカンパニー株式会社,,株式会社,東京都,品川区,南大井３丁目２８番１１号,,13,109,1400013,,,,,,,2022-06-03,1,,,,,ブーンカンパニー,0
412,2010801033014,新規,0,2022-06-03,2022-06-03,株式会社ソア,,株式会社,東京都,大田区,大森西５丁目１番１２号,,13,111,1430015,,,,,,,2022-06-03,1,,,,,ソア,0
413,2010803004194,新規,0,2022-06-03,2022-06-03,合同会社ブライト,,合同会社,東京都,大田区,南馬込３丁目５－１－２０３,,13,111,1430025,,,,,,,2022-06-03,1,,,,,ブライト,0
428,2011101099092,新規,0,2022-06-03,2022-06-03,株式会社アースブルー,,株式会社,東京都,新宿区,西五軒町３番１０－４０３号,,13,104,1620812,,,,,,,2022-06-03,1,,,,,アースブルー,0
431,2011103011815,新規,0,2022-06-03,2022-06-03,元楽合同会社,,合同会社,東京都,新宿区,百人町２丁目１６番３号三香レジデンス３０３号,,13,104,1690073,,,,,,,2022-06-03,1,,,,,ゲンラク,0
446,2011801040792,新規,0,2022-06-03,2022-06-03,株式会社ＺＥＮＮＳＹＯＵ,,株式会社,東京都,葛飾区,新宿６丁目２番１－１６２２号シティタワー金町タワー棟,,13,122,1250051,,,,,,,2022-06-03,1,,,,,ゼンショー,0
451,2012803002797,新規,0,2022-06-03,2022-06-03,合同会社藤設備,,合同会社,東京都,昭島市,拝島町３丁目１１－７－１２１０,,13,207,1960002,,,,,,,2022-06-03,1,,,,,フジセツビ,0
452,2012805003125,新規,0,2022-06-03,2022-06-03,一般社団法人国分寺青年会議所,,その他の設立登記法人,東京都,国分寺市,本多２丁目３番地３国分寺市商工会館２階,,13,214,1850011,,,,,,,2022-06-03,1,,,,,コクブンジセイネンカイギショ,0
464,2020001146739,新規,0,2022-06-03,2022-06-03,ＢＯＯＫ　ＡＲＲＯＷＳ株式会社,,株式会社,神奈川県,横浜市港北区,綱島東１丁目２２－９Ｇ．Ｈｙｇｇｅ１０２号室,,14,109,2230052,,,,,,,2022-06-03,1,,,,,ブックアロウズ,0
465,2020001146747,新規,0,2022-06-03,2022-06-03,株式会社ＥＮＩＳＩＲＥ,,株式会社,神奈川県,横浜市瀬谷区,本郷３丁目１２番地２２,,14,114,2460015,,,,,,,2022-06-03,1,,,,,エニシーレ,0
468,2020003021865,新規,0,2022-06-03,2022-06-03,合同会社Ｂｏｓｑｕｅ　Ｍｏｒｒｏ,,合同会社,神奈川県,川崎市中原区,小杉町３丁目６００番地Ｋ３Ａザ・レジデンス３１１３,,14,133,2110063,,,,,,,2022-06-03,1,,,,,ボスケモッロ,0
481,2030003019520,新規,0,2022-06-03,2022-06-03,合同会社ＵＭＯＲ　ＩＮＴＥＲＮＡＴＩＯＮＡＬ,,合同会社,埼玉県,越谷市,蒲生茜町４０番地１０サニーハイツ茜３０１号室,,11,222,3430843,,,,,,,2022-06-03,1,,,,,ウモールインタナショナル,0
489,2040001123587,新規,0,2022-06-03,2022-06-03,勝田株式会社,,株式会社,千葉県,船橋市,丸山３丁目１７－７,,12,204,2730048,,,,,,,2022-06-03,1,,,,,カツタ,0
490,2040001123711,新規,0,2022-06-03,2022-06-03,株式会社ＲＩＰＥＹＡ,,株式会社,千葉県,野田市,西三ケ尾７４８－１,,12,208,2780015,,,,,,,2022-06-03,1,,,,,リペヤ,0
495,2040003020171,新規,0,2022-06-03,2022-06-03,合同会社太陽,,合同会社,千葉県,山武市,蓮沼ハ４８８０番地,,12,237,2891806,,,,,,,2022-06-03,1,,,,,タイヨウ,0
497,2040005021639,新規,0,2022-06-03,2022-06-03,税理士法人松丸会計事務所,,その他の設立登記法人,千葉県,柏市,南柏１丁目７番６－２０２号,,12,217,2770855,,,,,,,2022-06-03,1,,,,,マツマルカイケイジムショ,0
498,2050003006590,新規,0,2022-06-03,2022-06-03,合同会社ＳＩＭＰＳＯＮ　ＬＯＧＩＳＴＩＣＳ　ＬＩＭＩＴＥＤ,,合同会社,茨城県,つくば市,天久保３丁目１０番地１６,,08,220,3050005,,,,,,,2022-06-03,1,,,,,シンプソンロジスティックスリミテッド,0
500,2060001034931,新規,0,2022-06-03,2022-06-03,ファーストトレース株式会社,,株式会社,栃木県,宇都宮市,西原町６０２番地１６,,09,201,3200826,,,,,,,2022-06-03,1,,,,,ファーストトレース,0
502,2060005009987,新規,0,2022-06-03,2022-06-03,一般社団法人あいだ・に,,その他の設立登記法人,栃木県,那須塩原市,永田町３番８号,,09,213,3292727,,,,,,,2022-06-03,1,,,,,アイダニ,0
504,2070003004502,新規,0,2022-06-03,2022-06-03,Ｒａｆｔｅｌ合同会社,,合同会社,群馬県,高崎市,吉井町上奥平甲１９９１番地２,,10,202,3702139,,,,,,,2022-06-03,1,,,,,ラフテル,0
508,2080003002810,新規,0,2022-06-03,2022-06-03,合同会社ＹＮＡ,,合同会社,静岡県,焼津市,小土３１１番地の３,,22,212,4250086,,,,,,,2022-06-03,1,,,,,ワイエヌエー,0
513,2080105006263,新規,0,2022-06-03,2022-06-03,弁護士法人杉山法律事務所,,その他の設立登記法人,静岡県,富士市,伝法２８７８番地の２０,,22,210,4170061,,,,,,,2022-06-03,1,,,,,スギヤマホウリツジムショ,0
514,2080401025850,新規,0,2022-06-03,2022-06-03,株式会社磐誠電気工業,,株式会社,静岡県,磐田市,加茂８８１番地３,,22,211,4380804,,,,,,,2022-06-03,1,,,,,バンセイデンキコウギョウ,0
515,2080401025867,新規,0,2022-06-03,2022-06-03,ＡＫｇａｒａｇｅ株式会社,,株式会社,静岡県,磐田市,大当所１８５－３,,22,211,4380107,,,,,,,2022-06-03,1,,,,,エーケーガレージ,0
517,2090001017603,新規,0,2022-06-03,2022-06-03,株式会社ＭＴＯ,,株式会社,山梨県,甲府市,北口１丁目４番１２号セレクトビル,,19,201,4000024,,,,,,,2022-06-03,1,,,,,エムティオー,0
519,2100001035413,新規,0,2022-06-03,2022-06-03,株式会社あかな,,株式会社,長野県,長野市,大字若槻東条１２１０番地１４,,20,201,3810084,,,,,,,2022-06-03,1,,,,,アカナ,0
521,2110001036682,新規,0,2022-06-03,2022-06-03,Ｒｕｎｅ．株式会社,,株式会社,新潟県,三条市,帯織２３４２番地２,,15,204,9591117,,,,,,,2022-06-03,1,,,,,ルーン,0
522,2110003004778,新規,0,2022-06-03,2022-06-03,合同会社ＳＯＵ,,合同会社,新潟県,新潟市江南区,丸潟１丁目４番１０号,,15,104,9500146,,,,,,,2022-06-03,1,,,,,ソウ,0
536,2120001246280,新規,0,2022-06-03,2022-06-03,株式会社アルト,,株式会社,大阪府,大阪市中央区,農人橋２丁目１番３１号第６松屋ビル１０階,,27,128,5400011,,,,,,,2022-06-03,1,,,,,アルト,0
537,2120001246306,新規,0,2022-06-03,2022-06-03,株式会社マイト,,株式会社,大阪府,大阪市住之江区,南加賀屋３丁目２番１２号,,27,125,5590015,,,,,,,2022-06-03,1,,,,,マイト,0
538,2120001246314,新規,0,2022-06-03,2022-06-03,フェスターズ株式会社,,株式会社,大阪府,大阪市北区,芝田２丁目３番１６号,,27,127,5300012,,,,,,,2022-06-03,1,,,,,フェスターズ,0
539,2120001246330,新規,0,2022-06-03,2022-06-03,株式会社ワイリープス,,株式会社,大阪府,寝屋川市,高柳５丁目６番６号,,27,215,5720051,,,,,,,2022-06-03,1,,,,,ワイリープス,0
540,2120001246339,新規,0,2022-06-03,2022-06-03,あつた株式会社,,株式会社,大阪府,大阪市中央区,瓦町４丁目６番１５号本町プレタビル７０３,,27,128,5410048,,,,,,,2022-06-03,1,,,,,アツタ,0
541,2120001246405,新規,0,2022-06-03,2022-06-03,株式会社アジャスト,,株式会社,大阪府,寝屋川市,打上南町１１番１号,,27,215,5720861,,,,,,,2022-06-03,1,,,,,アジャスト,0
544,2120003021814,新規,0,2022-06-03,2022-06-03,合同会社ブライトアート,,合同会社,大阪府,大阪市北区,中崎西１丁目１－２３,,27,127,5300015,,,,,,,2022-06-03,1,,,,,ブライトアート,0
545,2120003021830,新規,0,2022-06-03,2022-06-03,合同会社オハコ,,合同会社,大阪府,大阪市西区,北堀江２丁目４番１１号,,27,106,5500014,,,,,,,2022-06-03,1,,,,,オハコ,0
549,2120101065671,新規,0,2022-06-03,2022-06-03,株式会社エフイーシー,,株式会社,大阪府,阪南市,鳥取中２０３番地の１３,,27,232,5990211,,,,,,,2022-06-03,1,,,,,エフイーシー,0
551,2120105009567,新規,0,2022-06-03,2022-06-03,サニー協同組合,,その他の設立登記法人,大阪府,堺市南区,釜室９７８番地１,,27,145,5900122,,,,,,,2022-06-03,1,,,,,サニー,0
554,2120901046045,新規,0,2022-06-03,2022-06-03,Ｃｒｅａｌｉｓ株式会社,,株式会社,大阪府,茨木市,白川３丁目２番３－３０２号,,27,211,5670832,,,,,,,2022-06-03,1,,,,,クレアリス,0
556,2120905006334,新規,0,2022-06-03,2022-06-03,一般社団法人スペシャリスト育成支援協会,,その他の設立登記法人,大阪府,摂津市,鳥飼中２丁目９番７号,,27,224,5660064,,,,,,,2022-06-03,1,,,,,スペシャリストイクセイシエンキョウカイ,0
559,2122001035928,新規,0,2022-06-03,2022-06-03,株式会社ＴＦＳ,,株式会社,大阪府,東大阪市,南荘町４－５,,27,227,5798024,,,,,,,2022-06-03,1,,,,,ティーエフエス,0
566,2130001071918,新規,0,2022-06-03,2022-06-03,株式会社フルカ,,株式会社,京都府,京都市中京区,桝屋町５１４コリスアルタス１Ｆ,,26,104,6040096,,,,,,,2022-06-03,1,,,,,フルカ,0
574,2140001126233,新規,0,2022-06-03,2022-06-03,株式会社Ｄｉｖｉｎｅ　Ｌｉｆｅ,,株式会社,兵庫県,明石市,林崎町３丁目５５３番地の１シーサイドパストラル林崎３０３号,,28,203,6730033,,,,,,,2022-06-03,1,,,,,ディバインライフ,0
575,2140001126241,新規,0,2022-06-03,2022-06-03,ラルゴ不動産株式会社,,株式会社,兵庫県,西宮市,田代町１番４６－７０１号,,28,204,6638201,,,,,,,2022-06-03,1,,,,,ラルゴフドウサン,0
576,2140001126274,新規,0,2022-06-03,2022-06-03,株式会社メディカルスタッフ,,株式会社,兵庫県,姫路市,飾東町庄８２番地１２,,28,201,6710218,,,,,,,2022-06-03,1,,,,,メディカルスタッフ,0
577,2140003017752,新規,0,2022-06-03,2022-06-03,合同会社フクトラスト,,合同会社,兵庫県,神戸市中央区,中尾町１３番１５号ディオレ新神戸Ｃ棟２０８号,,28,110,6510057,,,,,,,2022-06-03,1,,,,,フクトラスト,0
578,2140003017760,新規,0,2022-06-03,2022-06-03,合同会社ＳＨＩＮ,,合同会社,兵庫県,芦屋市,浜芦屋町８－１１,00126739,28,206,6590054,,,,,,,2022-06-03,1,,,,,シン,0
580,2160001024245,新規,0,2022-06-03,2022-06-03,株式会社スリーコール,,株式会社,滋賀県,草津市,新浜町８番地６,,25,206,5250067,,,,,,,2022-06-03,1,,,,,スリーコール,0
581,2160001024253,新規,0,2022-06-03,2022-06-03,克エンジニアリング株式会社,,株式会社,滋賀県,湖南市,石部西２丁目５番７号,,25,211,5203105,,,,,,,2022-06-03,1,,,,,カツエンジニアリング,0
587,2180001151525,新規,0,2022-06-03,2022-06-03,てきせつ株式会社,,株式会社,愛知県,名古屋市西区,那古野２丁目１４－１,,23,104,4510042,,,,,,,2022-06-03,1,,,,,テキセツ,0
588,2180001151574,新規,0,2022-06-03,2022-06-03,プレゼントウォーカー株式会社,,株式会社,愛知県,一宮市,起字用水添６３番地,,23,203,4940006,,,,,,,2022-06-03,1,,,,,プレゼントウォーカー,0
589,2180001151590,新規,0,2022-06-03,2022-06-03,株式会社デザインガーデン,,株式会社,愛知県,愛知郡東郷町,三ツ池４丁目７番地１２,,23,302,4700164,,,,,,,2022-06-03,1,,,,,デザインガーデン,0
590,2180001151616,新規,0,2022-06-03,2022-06-03,株式会社高御堂建設,,株式会社,愛知県,知多郡阿久比町,大字福住字申田５番地７６,,23,441,4702202,,,,,,,2022-06-03,1,,,,,タカミドウケンセツ,0
591,2180001151624,新規,0,2022-06-03,2022-06-03,株式会社ＩＰブレーン,,株式会社,愛知県,名古屋市千種区,月見坂町１丁目９番地の９,,23,101,4640056,,,,,,,2022-06-03,1,,,,,アイピーブレーン,0
594,2180003023895,新規,0,2022-06-03,2022-06-03,桑山通信合同会社,00126741,合同会社,愛知県,常滑市,金山字六治５８番地,,23,216,4790003,,,,,,,2022-06-03,1,,,,,クワヤマツウシン,0
604,2200001040114,新規,0,2022-06-03,2022-06-03,馬場興業株式会社,,株式会社,岐阜県,関市,下有知３６３４番地１２,,21,205,5013217,,,,,,,2022-06-03,1,,,,,ババコウギョウ,0
605,2200001040122,新規,0,2022-06-03,2022-06-03,山田農場たまご株式会社,,株式会社,岐阜県,関市,倉知１９００番地,,21,205,5013936,,,,,,,2022-06-03,1,,,,,ヤマダノウジョウタマゴ,0
606,2200001040130,新規,0,2022-06-03,2022-06-03,株式会社三煌,,株式会社,岐阜県,岐阜市,三輪９６２番地５６,,21,201,5012513,,,,,,,2022-06-03,1,,,,,サンコウ,0
610,2220001024882,新規,0,2022-06-03,2022-06-03,株式会社向南ガーデン,,株式会社,石川県,能美郡川北町,字土室コ２１８番地２,,17,324,9231261,,,,,,,2022-06-03,1,,,,,コウナンガーデン,0
611,2220001024890,新規,0,2022-06-03,2022-06-03,株式会社ＡＲＣＨＥ　Ｓｃｈｗｅｉｎ,,株式会社,石川県,金沢市,柳橋町チ１６番地,,17,201,9203133,,,,,,,2022-06-03,1,,,,,アルケーシュバイン,0
616,2240001059869,新規,0,2022-06-03,2022-06-03,株式会社アドバンス,,株式会社,広島県,尾道市,防地町１４番５１号,,34,205,7220041,,,,,,,2022-06-03,1,,,,,アドバンス,0
617,2240001059877,新規,0,2022-06-03,2022-06-03,株式会社上原商店,,株式会社,広島県,福山市,伏見町３番１９号,,34,207,7200062,,,,,,,2022-06-03,1,,,,,ウエハラショウテン,0
621,2250001019590,新規,0,2022-06-03,2022-06-03,株式会社シースリー,,株式会社,山口県,宇部市,草江２丁目４番４１号,,35,202,7550004,,,,,,,2022-06-03,1,,,,,シースリー,0
625,2260001036899,新規,0,2022-06-03,2022-06-03,株式会社ＳＵＮＦＬＯＷＥＲ,,株式会社,岡山県,倉敷市,児島柳田町４５６番地９８,,33,202,7110936,,,,,,,2022-06-03,1,,,,,サンフラワー,0
627,2280001008707,新規,0,2022-06-03,2022-06-03,株式会社ＬＳ　Ｄｒｅａｍ,,株式会社,島根県,出雲市,斐川町上直江９８２番地１,,32,203,6990624,,,,,,,2022-06-03,1,,,,,エルエスドリーム,0
635,2290001097732,新規,0,2022-06-03,2022-06-03,徳辰株式会社,,株式会社,福岡県,福岡市博多区,春町１丁目６番１０号,,40,132,8120872,,,,,,,2022-06-03,1,,,,,トクシン,0
636,2290001097740,新規,0,2022-06-03,2022-06-03,三日月ホーム株式会社,,株式会社,福岡県,福岡市東区,下原２丁目２４番３号,,40,131,8130002,,,,,,,2022-06-03,1,,,,,ミカヅキホーム,0
637,2290001097781,新規,0,2022-06-03,2022-06-03,株式会社スワ,,株式会社,福岡県,春日市,小倉２丁目１４９番地３,,40,218,8160824,,,,,,,2022-06-03,1,,,,,スワ,0
638,2290001097815,新規,0,2022-06-03,2022-06-03,株式会社ＯＫＢ,,株式会社,福岡県,福岡市城南区,梅林５丁目１０番７号,,40,136,8140144,,,,,,,2022-06-03,1,,,,,オーケービー,0
649,2300001012953,新規,0,2022-06-03,2022-06-03,株式会社中川電気,,株式会社,佐賀県,唐津市,神田２０２９番地２,,41,202,8470824,,,,,,,2022-06-03,1,,,,,ナカガワデンキ,0
650,2310001017877,新規,0,2022-06-03,2022-06-03,株式会社アールイー企画,,株式会社,長崎県,佐世保市,城山町８番２６号レジデンス城山３０１,,42,202,8570033,,,,,,,2022-06-03,1,,,,,アールイーキカク,0
652,2320003003817,新規,0,2022-06-03,2022-06-03,合同会社藤豊,,合同会社,大分県,中津市,大字是則１３０８番地１６,,44,203,8710003,,,,,,,2022-06-03,1,,,,,フジトヨ,0
655,2330003009400,新規,0,2022-06-03,2022-06-03,合同会社せいゆう,,合同会社,熊本県,熊本市東区,山ノ内１丁目４番１５ー６０１号,,43,102,8620914,,,,,,,2022-06-03,1,,,,,セイユウ,0
661,2340003003815,新規,0,2022-06-03,2022-06-03,食工房・笑心合同会社,,合同会社,鹿児島県,いちき串木野市,上名３０１８番地５,,46,219,8960052,,,,,,,2022-06-03,1,,,,,ショウジン,0
666,2360001030495,新規,0,2022-06-03,2022-06-03,株式会社Ｐｏｎｏｌｕａ,,株式会社,沖縄県,うるま市,与那城饒辺１００７番地７,,47,213,9042307,,,,,,,2022-06-03,1,,,,,ポノルア,0
675,2390001016921,新規,0,2022-06-03,2022-06-03,株式会社善栄機械,,株式会社,山形県,山形市,落合町７６番地３,,06,201,9900075,,,,,,,2022-06-03,1,,,,,ゼンエイキカイ,0
685,2450001013714,新規,0,2022-06-03,2022-06-03,株式会社かずき笑会,,株式会社,北海道,旭川市,二条通１８丁目４３４番地の２,,01,204,0788212,,,,,,,2022-06-03,1,,,,,,0
689,2480001011756,新規,0,2022-06-03,2022-06-03,株式会社円生,,株式会社,徳島県,吉野川市,鴨島町敷地５１５番地２,,36,205,7760031,,,,,,,2022-06-03,1,,,,,エンショウ,0
690,2500001024251,新規,0,2022-06-03,2022-06-03,株式会社しまなみ而今,,株式会社,愛媛県,今治市,旦甲２８２番地１１,,38,202,7991536,,,,,,,2022-06-03,1,,,,,シマナミニコン,0
691,2700150038536,新規,0,2022-06-03,2015-10-09,男鹿市職員互助会,,その他,秋田県,男鹿市,船川港船川字泉台６６番地１,,05,206,0100511,,,,,,,2015-10-09,1,,,,,オガシシヨクインゴジヨカイ,0
697,3010001227002,新規,0,2022-06-03,2022-06-03,株式会社ＯＮＥホールディングス,,株式会社,東京都,中央区,佃２丁目５番７－１０１７号,,13,102,1040051,,,,,,,2022-06-03,1,,,,,ワンホールディングス,0
698,3010001227076,新規,0,2022-06-03,2022-06-03,株式会社ＭＳＦパートナーズ,,株式会社,東京都,中央区,銀座１丁目２２番１１号銀座大竹ビジデンス２階,,13,102,1040061,,,,,,,2022-06-03,1,,,,,エムエスエフパートナーズ,0
704,3010003037804,新規,0,2022-06-03,2022-06-03,ＥＳＩソーラー合同会社,,合同会社,東京都,千代田区,二番町３番地１０,,13,101,1020084,,,,,,,2022-06-03,1,,,,,イーエスアイソーラー,0
706,3010005035095,新規,0,2022-06-03,2022-06-03,一般社団法人医器販協データベースセンター,,その他の設立登記法人,東京都,文京区,本郷３丁目３９番１７号ＫＯＧＡビル６階,,13,105,1130033,,,,,,,2022-06-03,1,,,,,イキハンキョウデータベースセンター,0
707,3010101015199,新規,0,2022-06-03,2022-06-03,株式会社安輝,,株式会社,東京都,八王子市,諏訪町５２－７,,13,201,1930812,,,,,,,2022-06-03,1,,,,,アンキ,0
727,3010601061271,新規,0,2022-06-03,2022-06-03,事務長さぽーと株式会社,,株式会社,東京都,墨田区,緑４丁目２４番１６－９０１号,,13,107,1300021,,,,,,,2022-06-03,1,,,,,ジムチョウサポート,0
729,3010605004086,新規,0,2022-06-03,2022-06-03,社会保険労務士法人恒輝,,その他の設立登記法人,東京都,墨田区,両国３丁目２５番５号ＪＥＩ両国ビル３階,,13,107,1300026,,,,,,,2022-06-03,1,,,,,コウキ,0
730,3010801033021,新規,0,2022-06-03,2022-06-03,株式会社吉川工務店,,株式会社,東京都,大田区,新蒲田３丁目１７番５号,,13,111,1440054,,,,,,,2022-06-03,1,,,,,ヨシカワコウムテン,0
733,3010901050965,新規,0,2022-06-03,2022-06-03,株式会社コペルニクス,,株式会社,東京都,世田谷区,瀬田３丁目２番７号,,13,112,1580095,,,,,,,2022-06-03,1,,,,,コペルニクス,0
740,3011001147826,新規,0,2022-06-03,2022-06-03,株式会社ギャプレス,,株式会社,東京都,渋谷区,南平台町１３番４号,,13,113,1500036,,,,,,,2022-06-03,1,,,,,ギャプレス,0
741,3011001147875,新規,0,2022-06-03,2022-06-03,株式会社ホットドッグホールディングス,,株式会社,東京都,渋谷区,恵比寿西２丁目２０番１４号,,13,113,1500021,,,,,,,2022-06-03,1,,,,,ホットドッグホールディングス,0
752,3011103011806,新規,0,2022-06-03,2022-06-03,ＨＩＦ　ＦＵＮＤ３号合同会社,,合同会社,東京都,新宿区,西新宿６丁目２１番１号アイタウン・プラザ２０３号,,13,104,1600023,,,,,,,2022-06-03,1,,,,,エイチアイエフファンドサンゴウ,0
761,3011703003153,新規,0,2022-06-03,2022-06-03,合同会社ａｋｉｒａ　ｏｆｆｉｃｅ,,合同会社,東京都,江戸川区,東葛西６丁目４７番１４－７０２号,,13,123,1340084,,,,,,,2022-06-03,1,,,,,アキラオフィス,0
765,3012401039266,新規,0,2022-06-03,2022-06-03,ＥＴＳエナジーカンパニー株式会社,,株式会社,東京都,府中市,美好町２丁目２７番地の８,,13,206,1830045,,,,,,,2022-06-03,1,,,,,イーティーエスエナジーカンパニー,0
769,3012801021625,新規,0,2022-06-03,2022-06-03,株式会社内藤設備,,株式会社,東京都,国立市,青柳２丁目１０番地の９０－５０１,,13,215,1860013,,,,,,,2022-06-03,1,,,,,ナイトウセツビ,0
778,3020001146721,新規,0,2022-06-03,2022-06-03,株式会社ＬａＶｉｅＥｎＲｏｓｅ,,株式会社,神奈川県,横浜市神奈川区,神大寺３丁目４番７－３０３号,,14,102,2210801,,,,,,,2022-06-03,1,,,,,ラヴィアンローズ,0
779,3020001146738,新規,0,2022-06-03,2022-06-03,株式会社Ａｒｃ　ｄｅ　Ｂｅａｕｔｅ,,株式会社,神奈川県,横浜市中区,元町３丁目１３６番地１,,14,104,2310861,,,,,,,2022-06-03,1,,,,,アルクドボーテ,0
780,3020001146762,新規,0,2022-06-03,2022-06-03,株式会社エヌエスケア,,株式会社,神奈川県,横浜市西区,浅間町１丁目２番６号ハイズヨコハマフェリーチェ２０２号,,14,103,2200072,,,,,,,2022-06-03,1,,,,,エヌエスケア,0
781,3020001146770,新規,0,2022-06-03,2022-06-03,株式会社バイオネット,,株式会社,神奈川県,横浜市都筑区,茅ケ崎東２丁目２番１０号,,14,118,2240033,,,,,,,2022-06-03,1,,,,,バイオネット,0
782,3020001146779,新規,0,2022-06-03,2022-06-03,株式会社ＳＩＬＯＫＵ,,株式会社,神奈川県,横浜市中区,元町１丁目２６番３号,,14,104,2310861,,,,,,,2022-06-03,1,,,,,シロク,0
783,3020001146787,新規,0,2022-06-03,2022-06-03,株式会社ヴィラ坂下,,株式会社,神奈川県,横浜市神奈川区,西寺尾４丁目２番３３号,,14,102,2210001,,,,,,,2022-06-03,1,,,,,ヴィラサカシタ,0
784,3020001146804,新規,0,2022-06-03,2022-06-03,ダイテックスホールディングス株式会社,,株式会社,神奈川県,川崎市幸区,堀川町５８０番地ソリッドスクエア西館８階,,14,132,2120013,,,,,,,2022-06-03,1,,,,,ダイテックスホールディングス,0
792,3021001076124,新規,0,2022-06-03,2022-06-03,ＯＴＥＳＳ９株式会社,,株式会社,神奈川県,相模原市緑区,西橋本５丁目４番２１号,,14,151,2520131,,,,,,,2022-06-03,1,,,,,オテスナイン,0
794,3021003011780,新規,0,2022-06-03,2022-06-03,合同会社ＢＫＮ,,合同会社,神奈川県,藤沢市,葛原２２４２－９,,14,205,2520822,,,,,,,2022-06-03,1,,,,,ビーケーエヌ,0
800,3030001148477,新規,0,2022-06-03,2022-06-03,株式会社Ｔ＆Ｈ,,株式会社,埼玉県,入間市,大字野田７６４番地１８,,11,225,3580054,,,,,,,2022-06-03,1,,,,,ティーアンドエイチ,0
801,3030001148568,新規,0,2022-06-03,2022-06-03,株式会社さとう塗装店,,株式会社,埼玉県,川越市,大字笠幡１５２８番地２７,,11,201,3501175,,,,,,,2022-06-03,1,,,,,サトウトソウテン,0
806,3030003019478,新規,0,2022-06-03,2022-06-03,合同会社日本インターナショナル,,合同会社,埼玉県,さいたま市西区,宮前町１４３６番地,,11,101,3310046,,,,,,,2022-06-03,1,,,,,ニホンインターナショナル,0
808,3040001123693,新規,0,2022-06-03,2022-06-03,株式会社ＴＳＣ,,株式会社,千葉県,千葉市美浜区,磯辺１丁目４０番１０号,,12,106,2610012,,,,,,,2022-06-03,1,,,,,ティーエスシー,0
814,3040003020088,新規,0,2022-06-03,2022-06-03,ＢＲＩＤＧＥ　ＣＯＵＲＴ合同会社,,合同会社,千葉県,千葉市緑区,あすみが丘６丁目６０－１４,,12,105,2670066,,,,,,,2022-06-03,1,,,,,ブリッジコート,0
815,3040003020154,新規,0,2022-06-03,2022-06-03,合同会社Ｃｏ‐ｂｅｃｏｍｉｎｇ,,合同会社,千葉県,習志野市,藤崎４丁目７－３１,,12,216,2750017,,,,,,,2022-06-03,1,,,,,コービカミング,0
817,3050001051159,新規,0,2022-06-03,2022-06-03,株式会社木村清掃店,,株式会社,茨城県,ひたちなか市,大字金上９０３,,08,221,3120022,,,,,,,2022-06-03,1,,,,,キムラセイソウテン,0
818,3060001034947,新規,0,2022-06-03,2022-06-03,株式会社エーワン,,株式会社,栃木県,鹿沼市,口粟野６０８番地５,,09,205,3220305,,,,,,,2022-06-03,1,,,,,エーワン,0
826,3080001024995,新規,0,2022-06-03,2022-06-03,株式会社中央水産,,株式会社,静岡県,焼津市,藤守２２９３番地の１７,,22,212,4210203,,,,,,,2022-06-03,1,,,,,チュウオウスイサン,0
830,3080403004554,新規,0,2022-06-03,2022-06-03,合同会社太厚興産,,合同会社,静岡県,袋井市,川井１３９８番地の１,,22,216,4370064,,,,,,,2022-06-03,1,,,,,タイコウコウサン,0
831,3090001017593,新規,0,2022-06-03,2022-06-03,株式会社輝,,株式会社,山梨県,大月市,初狩町下初狩３９０番地,,19,206,4010021,,,,,,,2022-06-03,1,,,,,ヒカリ,0
832,3090001017602,新規,0,2022-06-03,2022-06-03,株式会社裏春日,,株式会社,山梨県,甲府市,中央４丁目８番８号甲府中央マンション８０７,,19,201,4000032,,,,,,,2022-06-03,1,,,,,ウラカスガ,0
833,3090003002098,新規,0,2022-06-03,2022-06-03,合同会社Ｙａｍａｂｉｃｏ,,合同会社,山梨県,北杜市,長坂町白井沢３０３０番地４,,19,209,4080033,,,,,,,2022-06-03,1,,,,,ヤマビコ,0
835,3100001035395,新規,0,2022-06-03,2022-06-03,株式会社ＤＸテクノロジー,,株式会社,長野県,長野市,松代町松代７５７番地,,20,201,3811231,,,,,,,2022-06-03,1,,,,,ディーエックステクノロジー,0
839,3110001036698,新規,0,2022-06-03,2022-06-03,株式会社わたなべ企画,,株式会社,新潟県,新潟市東区,東明３丁目１番地１１ベルトピア東明２０１号,,15,102,9500853,,,,,,,2022-06-03,1,,,,,ワタナベキカク,0
840,3110003004777,新規,0,2022-06-03,2022-06-03,合同会社ヘルパーステーションさち,,合同会社,新潟県,新潟市東区,大山１丁目１番２７号,,15,102,9500067,,,,,,,2022-06-03,1,,,,,ヘルパーステーションサチ,0
850,3120001246305,新規,0,2022-06-03,2022-06-03,株式会社コム・タイズ,,株式会社,大阪府,大阪市淀川区,西中島５丁目１１番３号新大阪サンアールビル西館６０１号室,,27,123,5320011,,,,,,,2022-06-03,1,,,,,コムタイズ,0
851,3120001246321,新規,0,2022-06-03,2022-06-03,株式会社ＬＡＳ,,株式会社,大阪府,大阪市西淀川区,姫島５丁目４番２１号,,27,113,5550033,,,,,,,2022-06-03,1,,,,,エルエーエス,0
852,3120001246338,新規,0,2022-06-03,2022-06-03,マエストロガーデン株式会社,,株式会社,大阪府,大阪市住吉区,苅田８丁目１２番２４号大和川パピレス２０１,,27,120,5580011,,,,,,,2022-06-03,1,,,,,マエストロガーデン,0
853,3120001246346,新規,0,2022-06-03,2022-06-03,株式会社サンライズ,,株式会社,大阪府,大阪市北区,芝田１丁目１０番１０号,,27,127,5300012,,,,,,,2022-06-03,1,,,,,サンライズ,0
854,3120001246354,新規,0,2022-06-03,2022-06-03,株式会社ウィルキャリア,,株式会社,大阪府,大阪市北区,芝田１丁目１０番１０号,,27,127,5300012,,,,,,,2022-06-03,1,,,,,ウィルキャリア,0
855,3120001246379,新規,0,2022-06-03,2022-06-03,ＰＥＥＲＬＥＳＳ　ＦＡＳＨＩＯＮ株式会社,,株式会社,大阪府,大阪市此花区,梅香１丁目１９番１２号ボンジュール梅香３０４号室,,27,104,5540013,,,,,,,2022-06-03,1,,,,,ピアレスファッション,0
856,3120001246395,新規,0,2022-06-03,2022-06-03,株式会社ＢＩＧＭＡＮ,,株式会社,大阪府,大阪市平野区,加美北６丁目２－３,,27,126,5470001,,,,,,,2022-06-03,1,,,,,ビッグマン,0
857,3120003021813,新規,0,2022-06-03,2022-06-03,小蝴蝶合同会社,,合同会社,大阪府,大阪市中央区,谷町６丁目３番１１号ＳＵＮ’ＳＨＯＵＳＥＩＩ２Ｆ－Ｂ号室,00126738,27,128,5420012,,,,,,,2022-06-03,1,,,,,ショウコチョウ,0
858,3120003021821,新規,0,2022-06-03,2022-06-03,Ｇ‐ｎｅｔ合同会社,,合同会社,大阪府,枚方市,星丘２丁目３番６号,,27,210,5730013,,,,,,,2022-06-03,1,,,,,ジーネット,0
865,3120101065687,新規,0,2022-06-03,2022-06-03,株式会社西日本ハウス,,株式会社,大阪府,泉南市,幡代７２３番地の２,,27,228,5900524,,,,,,,2022-06-03,1,,,,,ニシニホンハウス,0
871,3130001071891,新規,0,2022-06-03,2022-06-03,株式会社クロスデザイン,,株式会社,京都府,京都市伏見区,南寝小屋町５７番地,,26,109,6128379,,,,,,,2022-06-03,1,,,,,クロスデザイン,0
872,3130001071917,新規,0,2022-06-03,2022-06-03,株式会社ＲｅＴＳ,,株式会社,京都府,京都市右京区,西院三蔵町９－２０９,,26,108,6160000,,,,,,,2022-06-03,1,,,,,リティーエス,0
873,3130001071925,新規,0,2022-06-03,2022-06-03,山口ハウジング株式会社,,株式会社,京都府,京都市左京区,下鴨東本町２６番地３デミ洛北ビル２階,,26,103,6060863,,,,,,,2022-06-03,1,,,,,ヤマグチハウジング,0
875,3130003007976,新規,0,2022-06-03,2022-06-03,合同会社ＫＹＯＮＥＳＴ,,合同会社,京都府,木津川市,木津南後背一丁目４９,,26,214,6190214,,,,,,,2022-06-03,1,,,,,キョウネスト,0
879,3140001126257,新規,0,2022-06-03,2022-06-03,奥原電気株式会社,,株式会社,兵庫県,神戸市長田区,梅ケ香町１丁目１７番２２号,,28,106,6530021,,,,,,,2022-06-03,1,,,,,オクハラデンキ,0
880,3140001126265,新規,0,2022-06-03,2022-06-03,株式会社ビヨ・ファーマ,,株式会社,兵庫県,神戸市中央区,楠町６丁目３－３－４０４,,28,110,6500017,,,,,,,2022-06-03,1,,,,,ビヨファーマ,0
885,3160001024252,新規,0,2022-06-03,2022-06-03,キャラメルボックス株式会社,,株式会社,滋賀県,長浜市,勝町９１番地１５,,25,203,5260042,,,,,,,2022-06-03,1,,,,,キャラメルボックス,0
899,3180001151532,新規,0,2022-06-03,2022-06-03,ワープステクノロジー株式会社,,株式会社,愛知県,名古屋市中区,栄５丁目２６番３９号ＧＳ栄ビル３Ｆ,,23,106,4600008,,,,,,,2022-06-03,1,,,,,ワープステクノロジー,0
900,3180001151549,新規,0,2022-06-03,2022-06-03,大栄エージェンシー株式会社,,株式会社,愛知県,名古屋市中区,千代田２丁目２０番１号エスティメゾン鶴舞８１２号,,23,106,4600012,,,,,,,2022-06-03,1,,,,,ダイエイエージェンシー,0
901,3180001151565,新規,0,2022-06-03,2022-06-03,株式会社Ｐａｃｈａ,,株式会社,愛知県,名古屋市中区,栄３丁目２７番７号シーアイマンション南大津８０１号,,23,106,4600008,,,,,,,2022-06-03,1,,,,,パシャ,0
902,3180001151573,新規,0,2022-06-03,2022-06-03,エージーティ株式会社,,株式会社,愛知県,名古屋市名東区,新宿１丁目９４番地,,23,115,4650063,,,,,,,2022-06-03,1,,,,,エージーティ,0
903,3180001151598,新規,0,2022-06-03,2022-06-03,株式会社三栗,,株式会社,愛知県,一宮市,栄４丁目５番２６号栄サンアイ１Ｆ,,23,203,4910858,,,,,,,2022-06-03,1,,,,,ミクリ,0
904,3180001151615,新規,0,2022-06-03,2022-06-03,株式会社イソムラ備工,,株式会社,愛知県,半田市,乙川深田町１丁目３４番地の５,,23,205,4750065,,,,,,,2022-06-03,1,,,,,イソムラビコウ,0
905,3180001151623,新規,0,2022-06-03,2022-06-03,ワライアエル株式会社,,株式会社,愛知県,名古屋市瑞穂区,佃町１丁目６番地２,,23,108,4670836,,,,,,,2022-06-03,1,,,,,ワライアエル,0
906,3180001151631,新規,0,2022-06-03,2022-06-03,株式会社ＨＵＬＫ,,株式会社,愛知県,名古屋市昭和区,桜山町４丁目６７番地の２,,23,107,4660044,,,,,,,2022-06-03,1,,,,,ハルク,0
911,3180301036292,新規,0,2022-06-03,2022-06-03,株式会社引込工事マルヤマ,,株式会社,愛知県,豊田市,高上２丁目２７番地１,,23,211,4710013,,,,,,,2022-06-03,1,,,,,ヒキコミコウジマルヤマ,0
912,3190005011707,新規,0,2022-06-03,2022-06-03,特定非営利活動法人ここ,,その他の設立登記法人,三重県,南牟婁郡御浜町,大字上野２６番地,,24,561,5195322,,,,,,,2022-06-03,1,,,,,ココ,0
915,3210003001517,新規,0,2022-06-03,2022-06-03,合同会社西畑冷熱工業,,合同会社,福井県,坂井市,春江町中筋第３９号２８番地５,,18,210,9190449,,,,,,,2022-06-03,1,,,,,ニシバタレイネツコウギョウ,0
918,3220001024873,新規,0,2022-06-03,2022-06-03,株式会社ＮＡＫＡＴＡ,,株式会社,石川県,金沢市,田上さくら１丁目９８番地,,17,201,9201157,,,,,,,2022-06-03,1,,,,,ナカタ,0
923,3230001019385,新規,0,2022-06-03,2022-06-03,アイクリエーション株式会社,,株式会社,富山県,富山市,上冨居３丁目１２番３４号,,16,201,9300835,,,,,,,2022-06-03,1,,,,,アイクリエーション,0
924,3240001059851,新規,0,2022-06-03,2022-06-03,株式会社オールライン,,株式会社,広島県,東広島市,八本松町飯田５０７番地２５,,34,212,7390141,,,,,,,2022-06-03,1,,,,,オールライン,0
925,3240001059868,新規,0,2022-06-03,2022-06-03,株式会社小林工務店,,株式会社,広島県,福山市,松永町４丁目３５番５３号,,34,207,7290104,,,,,,,2022-06-03,1,,,,,コバヤシコウムテン,0
933,3250001019598,新規,0,2022-06-03,2022-06-03,株式会社三上設備,,株式会社,山口県,山陽小野田市,大字郡１１１番地４,,35,216,7570002,,,,,,,2022-06-03,1,,,,,ミカミセツビ,0
937,3260001036907,新規,0,2022-06-03,2022-06-03,株式会社真誠工業,,株式会社,岡山県,津山市,西中２４８番地,,33,203,7081222,,,,,,,2022-06-03,1,,,,,シンセイコウギョウ,0
947,3290001097731,新規,0,2022-06-03,2022-06-03,株式会社ｐｒａｃｈｔ,,株式会社,福岡県,福岡市東区,和白丘３丁目２６番２９号,,40,131,8110213,,,,,,,2022-06-03,1,,,,,プラクト,0
948,3290001097772,新規,0,2022-06-03,2022-06-03,株式会社大和,,株式会社,福岡県,福岡市東区,舞松原２丁目１４番２１号,,40,131,8130042,,,,,,,2022-06-03,1,,,,,ヤマト,0
949,3290001097797,新規,0,2022-06-03,2022-06-03,株式会社エステート・ウエノ,,株式会社,福岡県,福岡市南区,五十川２丁目２８番９号,,40,134,8150001,,,,,,,2022-06-03,1,,,,,エステートウエノ,0
954,3320001019104,新規,0,2022-06-03,2022-06-03,株式会社南大分どうぶつ病院,,株式会社,大分県,大分市,大字荏隈３１９番地の１０,,44,201,8700889,,,,,,,2022-06-03,1,,,,,ミナミオオイタドウブツビョウイン,0
958,3330003009399,新規,0,2022-06-03,2022-06-03,合同会社大家環境設計,,合同会社,熊本県,熊本市東区,月出４丁目４番１４５－８０４号,,43,102,8620920,,,,,,,2022-06-03,1,,,,,オオイエカンキョウセッケイ,0
961,3340001024762,新規,0,2022-06-03,2022-06-03,株式会社電工舎,,株式会社,鹿児島県,霧島市,国分重久２０６６番地,,46,218,8994301,,,,,,,2022-06-03,1,,,,,デンコウシャ,0
966,3350001017773,新規,0,2022-06-03,2022-06-03,宮崎未来株式会社,,株式会社,宮崎県,宮崎市,祇園３丁目７１番地ラフィーナサイトＩＩ３０５号,00126735,45,201,8800024,,,,,,,2022-06-03,1,,,,,ミヤザキミライ,0
967,3350001017781,新規,0,2022-06-03,2022-06-03,株式会社ｂｌｏｏｍｉｎｇ　ｌａｂデイサービスかなで,,株式会社,宮崎県,都城市,太郎坊町２０６５番地２,,45,202,8850002,,,,,,,2022-06-03,1,,,,,ブルーミングラボデイサービスカナデ,0
974,3370001048619,新規,0,2022-06-03,2022-06-03,アヅテック株式会社,,株式会社,宮城県,仙台市宮城野区,栄１丁目４番２７号,,04,102,9830011,,,,,,,2022-06-03,1,,,,,アヅテック,0
979,3390001016920,新規,0,2022-06-03,2022-06-03,株式会社ナチュラル・チューニング・ジャパン,,株式会社,山形県,西村山郡西川町,大字綱取３６２番地４,,06,322,9900741,,,,,,,2022-06-03,1,,,,,ナチュラルチューニングジャパン,0
984,3410001013196,新規,0,2022-06-03,2022-06-03,株式会社佐藤工業,,株式会社,秋田県,横手市,金沢中野字上矢来沢２６７番地１,,05,203,0130814,,,,,,,2022-06-03,1,,,,,サトウコウギョウ,0
985,3410001013205,新規,0,2022-06-03,2022-06-03,株式会社イタバ工業,,株式会社,秋田県,大館市,字三ノ丸１３番地８,,05,204,0170897,,,,,,,2022-06-03,1,,,,,イタバコウギョウ,0
1002,3460001005701,新規,0,2022-06-03,2022-06-03,藤森建設株式会社,,株式会社,北海道,釧路市,白金町８番１０号,,01,206,0850034,,,,,,,2022-06-03,1,,,,,フジモリケンセツ,0
1005,3470005006447,新規,0,2022-06-03,2022-06-03,一般社団法人井上誠耕園グループ互助会,,その他の設立登記法人,香川県,小豆郡小豆島町,池田２３５２番地,,37,324,7614301,,,,,,,2022-06-03,1,,,,,イノウエセイコウエングループゴジョカイ,0
1006,3480001011755,新規,0,2022-06-03,2022-06-03,株式会社ａｎｄ　Ｇ,,株式会社,徳島県,徳島市,伊月町５丁目１７番地,,36,201,7700935,,,,,,,2022-06-03,1,,,,,アンドジー,0
1007,3480003001837,新規,0,2022-06-03,2022-06-03,Ｗｅｌｌ‐Ｒｉｃｈリテイリング合同会社,,合同会社,徳島県,徳島市,徳島本町３丁目６番地,,36,201,7700854,,,,,,,2022-06-03,1,,,,,ウェルリッチリテイリング,0
1010,3500001024250,新規,0,2022-06-03,2022-06-03,株式会社森実商工,,株式会社,愛媛県,四国中央市,川之江町８７４番地,,38,213,7990101,,,,,,,2022-06-03,1,,,,,モリザネショウコウ,0
1011,3500003002840,新規,0,2022-06-03,2022-06-03,合同会社Ｏ．Ｓ．Ａ興業,,合同会社,愛媛県,今治市,北高下町１丁目４番８号,,38,202,7940812,,,,,,,2022-06-03,1,,,,,オーエスエーコウギョウ,0
1014,3700150108684,新規,0,2022-06-03,2022-05-12,ＲＩＮＧＯ　Ｒｅｃｏｒｄｓ　Ｊａｐａｎ,,その他,東京都,港区,白金６丁目９－８,,13,103,1080072,,,,,,,2022-05-12,1,,,,,リンゴレコーズジヤパン,0
1028,4010001227034,新規,0,2022-06-03,2022-06-03,株式会社虹川や,,株式会社,東京都,千代田区,神田佐久間町３丁目３８番地第５ビル５Ｆ,,13,101,1010025,,,,,,,2022-06-03,1,,,,,ニジカワヤ,0
1031,4010005035086,新規,0,2022-06-03,2022-06-03,一般社団法人ＭＩＣＲＯ　ＯＷＮＥＲＳ,,その他の設立登記法人,東京都,中央区,銀座１丁目２２番１１号銀座大竹ビジデンス２Ｆ,,13,102,1040061,,,,,,,2022-06-03,1,,,,,マイクロオーナーズ,0
1036,4010401167697,新規,0,2022-06-03,2022-06-03,ＵｌｔｒａＤａｔａ株式会社,,株式会社,東京都,港区,北青山２丁目７番２６号,,13,103,1070061,,,,,,,2022-06-03,1,,,,,ウルトラデータ,0
1039,4010403027767,新規,0,2022-06-03,2022-06-03,Ｅｚｏ　Ａｓｓｅｔ　Ｍａｎａｇｅｍｅｎｔ合同会社,,合同会社,東京都,港区,西新橋１丁目４番１２号４階,,13,103,1050003,,,,,,,2022-06-03,1,,,,,エゾアセットマネジメント,0
1040,4010403027809,新規,0,2022-06-03,2022-06-03,合同会社Ｓｐｏｔｌｉｇｈｔ,,合同会社,東京都,港区,東新橋１丁目６番１号,,13,103,1050021,,,,,,,2022-06-03,1,,,,,スポットライト,0
1042,4010405021041,新規,0,2022-06-03,2022-06-03,一般社団法人正松社中,,その他の設立登記法人,東京都,港区,赤坂８丁目１０番３７号,,13,103,1070052,,,,,,,2022-06-03,1,,,,,セイショウシャチュウ,0
1043,4010501048905,新規,0,2022-06-03,2022-06-03,株式会社ルクア,,株式会社,東京都,台東区,上野５丁目２３番１１号スグルビル４Ｆ,,13,106,1100005,,,,,,,2022-06-03,1,,,,,ルクア,0
1044,4010501048913,新規,0,2022-06-03,2022-06-03,株式会社レグルス,,株式会社,東京都,台東区,上野５丁目２５番６号,,13,106,1100005,,,,,,,2022-06-03,1,,,,,レグルス,0
1045,4010503006605,新規,0,2022-06-03,2022-06-03,合同会社隆深,,合同会社,東京都,台東区,浅草５丁目４０番１１－１４０２号,,13,106,1110032,,,,,,,2022-06-03,1,,,,,タカミ,0
1050,4010801033004,新規,0,2022-06-03,2022-06-03,ＨｉｔｏＶｉｔｏ株式会社,,株式会社,東京都,大田区,上池台１丁目３９番１１号,,13,111,1450064,,,,,,,2022-06-03,1,,,,,ヒトヴィト,0
1051,4010805002946,新規,0,2022-06-03,2022-06-03,特定非営利活動法人ＯＳＥＫＫＡＩ,,その他の設立登記法人,東京都,大田区,南蒲田１丁目２２番２０号５階,,13,111,1440035,,,,,,,2022-06-03,1,,,,,オセッカイ,0
1056,4011001147841,新規,0,2022-06-03,2022-06-03,株式会社エムケー,,株式会社,東京都,渋谷区,宇田川町３６番１７号ニューシブヤマンション２０２,,13,113,1500042,,,,,,,2022-06-03,1,,,,,エムケー,0
1057,4011003014759,新規,0,2022-06-03,2022-06-03,オルキスコンサルティング合同会社,,合同会社,東京都,目黒区,碑文谷５丁目２番５号Ｔ＆Ａビル５階,,13,110,1520003,,,,,,,2022-06-03,1,,,,,オルキスコンサルティング,0
1058,4011003014783,新規,0,2022-06-03,2022-06-03,ＱｒａｆｔＭａｎｉａ合同会社,,合同会社,東京都,渋谷区,道玄坂１丁目１０－８渋谷道玄坂東急ビル２Ｆ－Ｃ,,13,113,1500043,,,,,,,2022-06-03,1,,,,,クラフトマニア,0
1064,4011101098984,新規,0,2022-06-03,2022-06-03,株式会社令和,,株式会社,東京都,新宿区,北新宿３丁目１－３,,13,104,1690074,,,,,,,2022-06-03,1,,,,,レイワ,0
1080,4011503005175,新規,0,2022-06-03,2022-06-03,アンビエントワークス合同会社,,合同会社,東京都,荒川区,荒川６丁目２８番３－４０２号エンゼルハイム町屋,,13,118,1160002,,,,,,,2022-06-03,1,,,,,アンビエントワークス,0
1084,4011705001732,新規,0,2022-06-03,2022-06-03,一般社団法人日本鳥刺し文化推進協会,,その他の設立登記法人,東京都,江戸川区,東小岩６丁目２６－１５,,13,123,1330052,,,,,,,2022-06-03,1,,,,,ニホントリサシブンカスイシンキョウカイ,0
1086,4011801040790,新規,0,2022-06-03,2022-06-03,株式会社ＳａａＳドクター,,株式会社,東京都,足立区,梅島３丁目１１－８,,13,121,1210816,,,,,,,2022-06-03,1,,,,,サースドクター,0
1087,4011801040816,新規,0,2022-06-03,2022-06-03,株式会社かたづけ仕事人,,株式会社,東京都,足立区,小台２丁目３番２１－１３０４号,,13,121,1200046,,,,,,,2022-06-03,1,,,,,カタヅケシゴトニン,0
1089,4012303001686,新規,0,2022-06-03,2022-06-03,合同会社リッチランド,,合同会社,東京都,町田市,鶴間１丁目１３番地１１,,13,209,1940004,,,,,,,2022-06-03,1,,,,,リッチランド,0
1090,4012401039257,新規,0,2022-06-03,2022-06-03,株式会社送建設,,株式会社,東京都,府中市,紅葉丘２丁目１２番地の１３,,13,206,1830004,,,,,,,2022-06-03,1,,,,,オクリケンセツ,0
1091,4012401039265,新規,0,2022-06-03,2022-06-03,株式会社ＴＥＸＩＡ,,株式会社,東京都,府中市,本町２丁目２０－１丸松ビル２０２,,13,206,1830027,,,,,,,2022-06-03,1,,,,,テクシア,0
1092,4012405004744,新規,0,2022-06-03,2022-06-03,一般社団法人桃咲会,,その他の設立登記法人,東京都,三鷹市,下連雀４丁目２番３５号,,13,204,1810013,,,,,,,2022-06-03,1,,,,,トウショウカイ,0
1100,4020001146729,新規,0,2022-06-03,2022-06-03,株式会社ユーズクラフト,,株式会社,神奈川県,川崎市幸区,神明町１丁目７番地－１０１号,,14,132,2120022,,,,,,,2022-06-03,1,,,,,ユーズクラフト,0
1101,4020001146794,新規,0,2022-06-03,2022-06-03,ソニック株式会社,,株式会社,神奈川県,横浜市鶴見区,鶴見中央１丁目１６番１３号,,14,101,2300051,,,,,,,2022-06-03,1,,,,,ソニック,0
1107,4020003021855,新規,0,2022-06-03,2022-06-03,Ｍｎｅｔ合同会社,,合同会社,神奈川県,横浜市戸塚区,原宿４丁目６－５,,14,110,2450063,,,,,,,2022-06-03,1,,,,,エムネット,0
1108,4020003021863,新規,0,2022-06-03,2022-06-03,Ｈｉｒｏ　ｋｏｇｙｏ合同会社,,合同会社,神奈川県,横浜市戸塚区,名瀬町２１５４番地９グリーンテラス名瀬１０５号,,14,110,2450051,,,,,,,2022-06-03,1,,,,,ヒロコウギョウ,0
1109,4021001076107,新規,0,2022-06-03,2022-06-03,株式会社富田造園,,株式会社,神奈川県,相模原市南区,相模台７丁目４０番６号,,14,153,2520321,,,,,,,2022-06-03,1,,,,,トミタゾウエン,0
1117,4030001148393,新規,0,2022-06-03,2022-06-03,Ｔｒａｕｍ　Ｇａｒａｇｅ株式会社,,株式会社,埼玉県,所沢市,小手指南５丁目９番地の１,,11,208,3591146,,,,,,,2022-06-03,1,,,,,トラオムガレージ,0
1128,4040001123726,新規,0,2022-06-03,2022-06-03,株式会社ＡＬＩＶＥ,,株式会社,千葉県,柏市,高田１０００番地３４,,12,217,2770861,,,,,,,2022-06-03,1,,,,,アライブ,0
1132,4050003006580,新規,0,2022-06-03,2022-06-03,合同会社フリーダムストーリー,,合同会社,茨城県,取手市,双葉３丁目９番９号,,08,217,3001501,,,,,,,2022-06-03,1,,,,,フリーダムストーリー,0
1135,4060001034946,新規,0,2022-06-03,2022-06-03,株式会社ｏｎｅクレスト,,株式会社,栃木県,那須烏山市,上境５８１番地９,,09,215,3210617,,,,,,,2022-06-03,1,,,,,ワンクレスト,0
1140,4070003004500,新規,0,2022-06-03,2022-06-03,アースプランニング合同会社,,合同会社,群馬県,高崎市,貝沢町２４３０番地１、１０１号,,10,202,3700042,,,,,,,2022-06-03,1,,,,,アースプランニング,0
1141,4080001024978,新規,0,2022-06-03,2022-06-03,アンラク貿易株式会社,,株式会社,静岡県,榛原郡吉田町,住吉２８番地の１４,,22,424,4210301,,,,,,,2022-06-03,1,,,,,アンラクボウエキ,0
1146,4080105006261,新規,0,2022-06-03,2022-06-03,一般社団法人ＯｎｅＴｗｏＴｈｒｅｅＡ,,その他の設立登記法人,静岡県,伊豆の国市,田原野４４０番地の４,,22,225,4102313,,,,,,,2022-06-03,1,,,,,ワントゥースリーエー,0
1148,4080401025849,新規,0,2022-06-03,2022-06-03,株式会社アーズ,,株式会社,静岡県,浜松市中区,名塚町１３４番地の１,,22,131,4300811,,,,,,,2022-06-03,1,,,,,アーズ,0
1149,4080401025865,新規,0,2022-06-03,2022-06-03,株式会社ｙ’ｓ　ｒｕｎ,,株式会社,静岡県,掛川市,金城２２番地の３・２Ｆ南,,22,213,4360073,,,,,,,2022-06-03,1,,,,,ワイズラン,0
1156,4090001017601,新規,0,2022-06-03,2022-06-03,株式会社石工の高畑,,株式会社,山梨県,甲州市,塩山三日市場３２１８番地２,,19,213,4040047,,,,,,,2022-06-03,1,,,,,イシクノタカバタケ,0
1158,4100001035394,新規,0,2022-06-03,2022-06-03,トラストリビング株式会社,,株式会社,長野県,長野市,平林１丁目２６番２１号岡沢ビル２階,,20,201,3810036,,,,,,,2022-06-03,1,,,,,トラストリビング,0
1159,4100001035403,新規,0,2022-06-03,2022-06-03,株式会社ミーヤ,,株式会社,長野県,長野市,若里１丁目２８番１８号,,20,201,3800928,,,,,,,2022-06-03,1,,,,,ミーヤ,0
1164,4110001036697,新規,0,2022-06-03,2022-06-03,株式会社エススタイル,,株式会社,新潟県,新潟市北区,須戸２丁目４番地６,,15,101,9503373,,,,,,,2022-06-03,1,,,,,エススタイル,0
1165,4110001036714,新規,0,2022-06-03,2022-06-03,株式会社ミック,,株式会社,新潟県,新潟市中央区,関屋田町２丁目２４９番地,,15,103,9518136,,,,,,,2022-06-03,1,,,,,ミック,0
1167,4110003004776,新規,0,2022-06-03,2022-06-03,合同会社千花,,合同会社,新潟県,長岡市,中之島宮内２５８番地,,15,202,9540157,,,,,,,2022-06-03,1,,,,,センカ,0
1177,4120001246238,新規,0,2022-06-03,2022-06-03,ＺＨＮ株式会社,,株式会社,大阪府,大阪市西成区,橘１丁目３番３号,,27,122,5570051,,,,,,,2022-06-03,1,,,,,ゼットエイチエヌ,0
1178,4120001246287,新規,0,2022-06-03,2022-06-03,株式会社岡本．商会,,株式会社,大阪府,大阪市東住吉区,南田辺５丁目３番５号,,27,121,5460033,,,,,,,2022-06-03,1,,,,,オカモトショウカイ,0
1179,4120001246320,新規,0,2022-06-03,2022-06-03,高山土木株式会社,,株式会社,大阪府,大阪市生野区,小路東５丁目５番２７号,,27,116,5440003,,,,,,,2022-06-03,1,,,,,タカヤマドボク,0
1180,4120001246403,新規,0,2022-06-03,2022-06-03,株式会社神崎企画,,株式会社,大阪府,大阪市住之江区,御崎２丁目６番２５号,,27,125,5590013,,,,,,,2022-06-03,1,,,,,カンザキキカク,0
1184,4120003021812,新規,0,2022-06-03,2022-06-03,ＳＴＥＬＬＡＨＫ合同会社,,合同会社,大阪府,大阪市浪速区,元町２丁目６番１３号ロックベイシスビル３０２号室,,27,111,5560016,,,,,,,2022-06-03,1,,,,,ステラエイチケイ,0
1188,4120101065686,新規,0,2022-06-03,2022-06-03,１０２ＧＲＯＵＰ株式会社,,株式会社,大阪府,藤井寺市,惣社１丁目１１番２２号,,27,226,5830005,,,,,,,2022-06-03,1,,,,,イチマルニグループ,0
1194,4120901046035,新規,0,2022-06-03,2022-06-03,株式会社プランタン,,株式会社,大阪府,豊中市,岡町６番２－１００２号,,27,203,5610885,,,,,,,2022-06-03,1,,,,,プランタン,0
1195,4120905006332,新規,0,2022-06-03,2022-06-03,一般社団法人Ａｒｔ　Ｐｈｉｌｏｓｏｐｈｙ,,その他の設立登記法人,大阪府,箕面市,小野原東５丁目２番１５－２０１号,,27,220,5620031,,,,,,,2022-06-03,1,,,,,アートフィロソフィー,0
1198,4130001071899,新規,0,2022-06-03,2022-06-03,マツイ電設工業株式会社,,株式会社,京都府,向日市,鶏冠井町沢ノ西１９番地の３７,,26,208,6170004,,,,,,,2022-06-03,1,,,,,マツイデンセツコウギョウ,0
1199,4130001071916,新規,0,2022-06-03,2022-06-03,京都コンツェルト株式会社,,株式会社,京都府,京都市上京区,寺町通今出川下る扇町２７３番地１,,26,102,6020848,,,,,,,2022-06-03,1,,,,,キョウトコンツェルト,0
1206,4140001126207,新規,0,2022-06-03,2022-06-03,株式会社シューラボ,,株式会社,兵庫県,神戸市中央区,磯辺通１丁目１番２０号,,28,110,6510084,,,,,,,2022-06-03,1,,,,,シューラボ,0
1207,4140001126272,新規,0,2022-06-03,2022-06-03,株式会社ふどたす,,株式会社,兵庫県,神戸市東灘区,御影中町８丁目３番３１号２０１号,,28,101,6580054,,,,,,,2022-06-03,1,,,,,フドタス,0
1208,4140001126280,新規,0,2022-06-03,2022-06-03,株式会社和幸,,株式会社,兵庫県,尼崎市,西難波町６丁目１３番１－２０６号,,28,202,6600893,,,,,,,2022-06-03,1,,,,,ワコウ,0
1212,4150005009398,新規,0,2022-06-03,2022-06-03,一般社団法人生活福祉協会,,その他の設立登記法人,奈良県,桜井市,大字東新堂３５０番地の１０,,29,206,6330068,,,,,,,2022-06-03,1,,,,,セイカツフクシキョウカイ,0
1214,4160001024251,新規,0,2022-06-03,2022-06-03,株式会社びわ製作所,,株式会社,滋賀県,長浜市,細江町５５５番地,,25,203,5260105,,,,,,,2022-06-03,1,,,,,ビワセイサクショ,0
1226,4180001151556,新規,0,2022-06-03,2022-06-03,株式会社空地鶏,,株式会社,愛知県,名古屋市北区,瑠璃光町１丁目２番地の１サントピア若葉１Ｂ,,23,103,4620866,,,,,,,2022-06-03,1,,,,,ソラジドリ,0
1227,4180001151572,新規,0,2022-06-03,2022-06-03,株式会社スズケンインベストメント,,株式会社,愛知県,名古屋市東区,東片端町８番地,,23,102,4610015,,,,,,,2022-06-03,1,,,,,スズケンインベストメント,0
1228,4180001151597,新規,0,2022-06-03,2022-06-03,ＭＩコンサルティング株式会社,,株式会社,愛知県,名古屋市緑区,姥子山２丁目１０２番地,,23,114,4580830,,,,,,,2022-06-03,1,,,,,エムアイコンサルティング,0
1229,4180001151614,新規,0,2022-06-03,2022-06-03,株式会社Ｌａｎｃｅ,,株式会社,愛知県,名古屋市中区,大須１丁目１６番１０号,,23,106,4600011,,,,,,,2022-06-03,1,,,,,ランス,0
1230,4180001151622,新規,0,2022-06-03,2022-06-03,株式会社ＴＳホールディングス,,株式会社,愛知県,名古屋市中区,錦３丁目２番２３号プレサンス錦エボリューション９０３号,,23,106,4600003,,,,,,,2022-06-03,1,,,,,ティーエスホールディングス,0
1237,4180301036291,新規,0,2022-06-03,2022-06-03,株式会社Ｋ,,株式会社,愛知県,蒲郡市,三谷北通３丁目１７３番地,,23,214,4430022,,,,,,,2022-06-03,1,,,,,ケイ,0
1244,4200001040120,新規,0,2022-06-03,2022-06-03,株式会社Ｋ・Ｐｌａｎｎｉｎｇ,,株式会社,岐阜県,岐阜市,玉姓町１丁目１８番地,,21,201,5008846,,,,,,,2022-06-03,1,,,,,ケイプランニング,0
1245,4200001040129,新規,0,2022-06-03,2022-06-03,株式会社高山アニマルクリニック,,株式会社,岐阜県,高山市,冬頭町６９７番地,,21,203,5060001,,,,,,,2022-06-03,1,,,,,タカヤマアニマルクリニック,0
1252,4220001024889,新規,0,2022-06-03,2022-06-03,辻瓦株式会社,00126742,株式会社,石川県,金沢市,鈴見台２丁目２１番５号,,17,201,9201161,,,,,,,2022-06-03,1,,,,,ツジガワラ,0
1253,4220003003296,新規,0,2022-06-03,2022-06-03,合同会社みかんサポーター,,合同会社,石川県,小松市,上寺町３７番地３,,17,203,9230935,,,,,,,2022-06-03,1,,,,,ミカンサポーター,0
1257,4230001019384,新規,0,2022-06-03,2022-06-03,株式会社新川物流サービス,,株式会社,富山県,下新川郡入善町,浦山新２５８番地,,16,342,9390633,,,,,,,2022-06-03,1,,,,,ニイカワブツリュウサービス,0
1258,4230001019401,新規,0,2022-06-03,2022-06-03,道路プラン建設株式会社,,株式会社,富山県,富山市,黒瀬北町１丁目９番地１グレイス・ハイム１０１号,,16,201,9398216,,,,,,,2022-06-03,1,,,,,ドウロプランケンセツ,0
1260,4240001059850,新規,0,2022-06-03,2022-06-03,株式会社シマ電工,,株式会社,広島県,広島市安佐南区,山本新町５丁目１６番１号,,34,105,7310139,,,,,,,2022-06-03,1,,,,,シマデンコウ,0
1261,4240001059875,新規,0,2022-06-03,2022-06-03,株式会社ケーディーエムフィールド,,株式会社,広島県,広島市安芸区,船越南２丁目５番２９号,,34,107,7360082,,,,,,,2022-06-03,1,,,,,ケーディーエムフィールド,0
1262,4240001059883,新規,0,2022-06-03,2022-06-03,株式会社カルフ,,株式会社,広島県,広島市西区,庚午北１丁目５番４号１Ｆ,,34,104,7330821,,,,,,,2022-06-03,1,,,,,カルフ,0
1275,4260005011095,新規,0,2022-06-03,2022-06-03,一般社団法人陽だまり,,その他の設立登記法人,岡山県,備前市,日生町日生１４３３番地１,,33,211,7013204,,,,,,,2022-06-03,1,,,,,ヒダマリ,0
1278,4280001008705,新規,0,2022-06-03,2022-06-03,株式会社Ｒｅ．２Ｐｒｏｄｕｃｔｓ,,株式会社,島根県,益田市,高津５丁目３０番７号,,32,204,6980041,,,,,,,2022-06-03,1,,,,,リーツープロダクツ,0
1280,4290001097730,新規,0,2022-06-03,2022-06-03,株式会社松井電気,,株式会社,福岡県,古賀市,庄２８５番地１,,40,223,8113116,,,,,,,2022-06-03,1,,,,,マツイデンキ,0
1281,4290001097747,新規,0,2022-06-03,2022-06-03,株式会社Ｃｈａｎｇｅ‐Ｕｐ,,株式会社,福岡県,福岡市博多区,東那珂３丁目５番２９－８０１号,,40,132,8120892,,,,,,,2022-06-03,1,,,,,チェンジアップ,0
1282,4290001097805,新規,0,2022-06-03,2022-06-03,スリーウイングスソフィア株式会社,,株式会社,福岡県,福岡市中央区,警固２丁目１６番６－４０１号フィットけやき,,40,133,8100023,,,,,,,2022-06-03,1,,,,,スリーウイングスソフィア,0
1285,4290003012588,新規,0,2022-06-03,2022-06-03,ＫＯＵ合同会社,,合同会社,福岡県,福岡市西区,福重３丁目８番８－１０６号,,40,135,8190022,,,,,,,2022-06-03,1,,,,,ケーオーユー,0
1287,4290005018708,新規,0,2022-06-03,2022-06-03,一般社団法人いいとキリストセンター,,その他の設立登記法人,福岡県,福岡市西区,横浜２丁目３５番１３号,,40,135,8190166,,,,,,,2022-06-03,1,,,,,イイトキリストセンター,0
1291,4290801028595,新規,0,2022-06-03,2022-06-03,エヌエス電気株式会社,,株式会社,福岡県,遠賀郡岡垣町,海老津駅前１０番６号,,40,383,8114236,,,,,,,2022-06-03,1,,,,,エヌエスデンキ,0
1294,4310001017883,新規,0,2022-06-03,2022-06-03,ベッドロック株式会社,,株式会社,長崎県,東彼杵郡川棚町,中組郷１６１３番地,,42,322,8593614,,,,,,,2022-06-03,1,,,,,ベッドロック,0
1300,4330001029794,新規,0,2022-06-03,2022-06-03,株式会社Ｙ’ｓ　ｃｏｍ,,株式会社,熊本県,熊本市北区,室園町２０番２５号,,43,105,8618072,,,,,,,2022-06-03,1,,,,,ワイズコム,0
1304,4340003003813,新規,0,2022-06-03,2022-06-03,合同会社みつばち,,合同会社,鹿児島県,奄美市,名瀬柳町１番１５号,,46,222,8940032,,,,,,,2022-06-03,1,,,,,ミツバチ,0
1305,4350001017772,新規,0,2022-06-03,2022-06-03,株式会社江古田,,株式会社,宮崎県,延岡市,柳沢町１丁目２番地２,,45,203,8820815,,,,,,,2022-06-03,1,,,,,エコタ,0
1306,4350001017780,新規,0,2022-06-03,2022-06-03,山根製作所株式会社,,株式会社,宮崎県,延岡市,山下町１丁目６－１－３－２階,,45,203,8820055,,,,,,,2022-06-03,1,,,,,ヤマネセイサクショ,0
1311,4360001030493,新規,0,2022-06-03,2022-06-03,株式会社チナジュン沖縄,,株式会社,沖縄県,うるま市,字赤道５０２番地１６,,47,213,9042245,,,,,,,2022-06-03,1,,,,,チナジュンオキナワ,0
1313,4370001048618,新規,0,2022-06-03,2022-06-03,株式会社ツクモ,,株式会社,宮城県,仙台市宮城野区,岩切字青津目１２８番地の１０,,04,102,9830821,,,,,,,2022-06-03,1,,,,,ツクモ,0
1314,4370001048626,新規,0,2022-06-03,2022-06-03,株式会社ＯＳ‐ＴＥＣＨ,,株式会社,宮城県,仙台市宮城野区,新田東１丁目１０番地の１ＬＭ小鶴新田センターパーク３０３,,04,102,9830039,,,,,,,2022-06-03,1,,,,,オーエステック,0
1315,4370001048634,新規,0,2022-06-03,2022-06-03,森工業株式会社,,株式会社,宮城県,亘理郡亘理町,荒浜字新御狩屋２２番地１,,04,361,9892311,,,,,,,2022-06-03,1,,,,,モリコウギョウ,0
1320,4380001032868,新規,0,2022-06-03,2022-06-03,株式会社Ｙ・Ｔサービス,,株式会社,福島県,二本松市,本町２丁目１番地９,,07,210,9640917,,,,,,,2022-06-03,1,,,,,ワイティーサービス,0
1325,4390001016911,新規,0,2022-06-03,2022-06-03,株式会社半田製作所,,株式会社,山形県,最上郡戸沢村,大字津谷２９番地,,06,367,9996311,,,,,,,2022-06-03,1,,,,,ハンダセイサクショ,0
1331,4410001013204,新規,0,2022-06-03,2022-06-03,株式会社アミエル,,株式会社,秋田県,大仙市,大曲丸子町９番１４号,,05,212,0140041,,,,,,,2022-06-03,1,,,,,アミエル,0
1333,4420001017872,新規,0,2022-06-03,2022-06-03,ものねる株式会社,,株式会社,青森県,八戸市,長苗代２丁目１３番１３号,,02,203,0391103,,,,,,,2022-06-03,1,,,,,モノネル,0
1348,4450001013712,新規,0,2022-06-03,2022-06-03,丸翔水産株式会社,,株式会社,北海道,稚内市,萩見４丁目１３番１９号,,01,214,0970016,,,,,,,2022-06-03,1,,,,,マルショウスイサン,0
1352,4470001019105,新規,0,2022-06-03,2022-06-03,株式会社梅井コーポレーション,,株式会社,香川県,高松市,十川東町５０６－１フィリー２１Ｃ棟１０７号,,37,201,7610434,,,,,,,2022-06-03,1,,,,,,0
1356,4480001011754,新規,0,2022-06-03,2022-06-03,雨を聴く株式会社,,株式会社,徳島県,徳島市,住吉５丁目３番５４－２０３号,,36,201,7700861,,,,,,,2022-06-03,1,,,,,アメヲキク,0
1363,4700150108857,新規,0,2022-06-03,2022-05-19,ＧＫＢパフォーマンス,,その他,東京都,東村山市,久米川町４丁目３６－２パークハイツ東村山Ｃ－５,,13,213,1890003,,,,,,,2022-05-19,1,,,,,ジーケービーパフオーマンス,0
1366,5010001226852,新規,0,2022-06-03,2022-06-03,株式会社ヒト・ソリューション,,株式会社,東京都,中央区,銀座１丁目２２番１１号２Ｆ,,13,102,1040061,,,,,,,2022-06-03,1,,,,,ヒトソリューション,0
1370,5010101015197,新規,0,2022-06-03,2022-06-03,株式会社光進工業,,株式会社,東京都,八王子市,楢原町５２４番地１０,,13,201,1930803,,,,,,,2022-06-03,1,,,,,コウシンコウギョウ,0
1378,5010401167606,新規,0,2022-06-03,2022-06-03,株式会社ＣａｓｔａｒＧａｍｉｎｇ,,株式会社,東京都,港区,芝５丁目２６－２４田町スクエア,,13,103,1080014,,,,,,,2022-06-03,1,,,,,キャスターゲーミング,0
1379,5010401167655,新規,0,2022-06-03,2022-06-03,ユーニスイースト株式会社,,株式会社,東京都,港区,六本木６丁目７番１４号,,13,103,1060032,,,,,,,2022-06-03,1,,,,,ユーニスイースト,0
1381,5010403027824,新規,0,2022-06-03,2022-06-03,合同会社バンブー,,合同会社,東京都,港区,南青山２丁目２番１５号ウィン青山９４２,,13,103,1070062,,,,,,,2022-06-03,1,,,,,バンブー,0
1382,5010501048904,新規,0,2022-06-03,2022-06-03,株式会社墨多商事,,株式会社,東京都,台東区,浅草橋５丁目８番３号新田ビル１階,,13,106,1110053,,,,,,,2022-06-03,1,,,,,スミダショウジ,0
1383,5010501048912,新規,0,2022-06-03,2022-06-03,株式会社スリーナイン,,株式会社,東京都,台東区,上野５丁目２５番６号,,13,106,1100005,,,,,,,2022-06-03,1,,,,,スリーナイン,0
1384,5010503006604,新規,0,2022-06-03,2022-06-03,合同会社Ｌｉｂｉａｍｏ,,合同会社,東京都,台東区,谷中７丁目１８番１３号,,13,106,1100001,,,,,,,2022-06-03,1,,,,,リビアーモ,0
1388,5010601061261,新規,0,2022-06-03,2022-06-03,株式会社トップ工業,,株式会社,東京都,墨田区,東向島３丁目３番１１号,,13,107,1310032,,,,,,,2022-06-03,1,,,,,,0
1390,5010701042756,新規,0,2022-06-03,2022-06-03,スタジオこんこん株式会社,,株式会社,東京都,品川区,大井７丁目３番１１号,,13,109,1400014,,,,,,,2022-06-03,1,,,,,スタジオコンコン,0
1391,5010705003366,新規,0,2022-06-03,2022-06-03,一般社団法人金松,,その他の設立登記法人,東京都,品川区,北品川２丁目２８番９号,,13,109,1400001,,,,,,,2022-06-03,1,,,,,カネショウ,0
1392,5010801033011,新規,0,2022-06-03,2022-06-03,株式会社東会興産,,株式会社,東京都,大田区,大森東４丁目２２番４号,,13,111,1430012,,,,,,,2022-06-03,1,,,,,トウカイコウサン,0
1394,5010803004191,新規,0,2022-06-03,2022-06-03,ｍｃｓＧｅａｒ合同会社,,合同会社,東京都,大田区,東雪谷３丁目２２番１２号,,13,111,1450065,,,,,,,2022-06-03,1,,,,,エムシーエスギア,0
1402,5010901050963,新規,0,2022-06-03,2022-06-03,ＰＡＢＬＯ株式会社,,株式会社,東京都,世田谷区,用賀３丁目８番１８号カマタグリーンハウス１０１－２０１,,13,112,1580097,,,,,,,2022-06-03,1,,,,,パブロ,0
1413,5011101099098,新規,0,2022-06-03,2022-06-03,株式会社ＢＨ製薬,,株式会社,東京都,新宿区,戸山１丁目１６番１３号ハイツアトム４０１号,,13,104,1620052,,,,,,,2022-06-03,1,,,,,ビーエイチセイヤク,0
1416,5011203003825,新規,0,2022-06-03,2022-06-03,合同会社エムエイチ,,合同会社,東京都,中野区,弥生町１丁目１２番７号メゾン・ド・エテール３０１,,13,114,1640013,,,,,,,2022-06-03,1,,,,,エムエイチ,0
1419,5011401024284,新規,0,2022-06-03,2022-06-03,株式会社ＴＫパートナーズ,,株式会社,東京都,板橋区,泉町５２番６－１０５号,,13,119,1740055,,,,,,,2022-06-03,1,,,,,ティーケーパートナーズ,0
1423,5011501028094,新規,0,2022-06-03,2022-06-03,株式会社ＡＯＲＢ,,株式会社,東京都,北区,中里１丁目４番４号横川ビル１階Ｃ号,,13,117,1140015,,,,,,,2022-06-03,1,,,,,エーオーアールビー,0
1425,5011603003615,新規,0,2022-06-03,2022-06-03,ｗｉｄｅ　ｒａｎｇｅ合同会社,,合同会社,東京都,練馬区,大泉町４丁目８番２９号グリーンタウン２Ｂ棟２０２号,,13,120,1780062,,,,,,,2022-06-03,1,,,,,ワイドレンジ,0
1434,5012301013006,新規,0,2022-06-03,2022-06-03,株式会社サトウ植木,,株式会社,東京都,町田市,小山町３２４４番地６,,13,209,1940212,,,,,,,2022-06-03,1,,,,,サトウウエキ,0
1435,5012303001685,新規,0,2022-06-03,2022-06-03,パセマ合同会社,,合同会社,東京都,町田市,忠生３丁目２番地２,,13,209,1940035,,,,,,,2022-06-03,1,,,,,パセマ,0
1436,5012401039264,新規,0,2022-06-03,2022-06-03,株式会社ばつくり,,株式会社,東京都,武蔵野市,吉祥寺北町１丁目１４番５号,,13,203,1800001,,,,,,,2022-06-03,1,,,,,バツクリ,0
1437,5012403005405,新規,0,2022-06-03,2022-06-03,合同会社ＬＣ,,合同会社,東京都,調布市,小島町３丁目４８－１４,,13,208,1820026,,,,,,,2022-06-03,1,,,,,エルシー,0
1441,5012701017085,新規,0,2022-06-03,2022-06-03,株式会社エスケー,,株式会社,東京都,小平市,天神町１丁目１番２４号,,13,211,1870004,,,,,,,2022-06-03,1,,,,,エスケー,0
1446,5013101008930,新規,0,2022-06-03,2022-06-03,株式会社ＰＥＴＲＯ,,株式会社,東京都,羽村市,双葉町２丁目１３番４７号,,13,227,2050022,,,,,,,2022-06-03,1,,,,,ペトロ,0
1450,5020001146744,新規,0,2022-06-03,2022-06-03,設計事務所アクア株式会社,,株式会社,神奈川県,横浜市都筑区,見花山１－３０見花山ビル３Ｆ,,14,118,2240066,,,,,,,2022-06-03,1,,,,,セッケイジムショアクア,0
1455,5020003021854,新規,0,2022-06-03,2022-06-03,ＷａｒｅｂｅＴｅｃｈｎｏｌｏｇｉｅｓ合同会社,,合同会社,神奈川県,横浜市中区,山下町１１２－３ポートタワー７０２,,14,104,2310023,,,,,,,2022-06-03,1,,,,,ワレベテクノロジーズ,0
1456,5020003021887,新規,0,2022-06-03,2022-06-03,合同会社ユア,,合同会社,神奈川県,横浜市中区,若葉町２丁目３１番地１ビクトリア・メイフェアハウス３０５号室,,14,104,2310056,,,,,,,2022-06-03,1,,,,,ユア,0
1457,5021001076122,新規,0,2022-06-03,2022-06-03,天郷株式会社,,株式会社,神奈川県,藤沢市,片瀬海岸１丁目４番３号,,14,205,2510035,,,,,,,2022-06-03,1,,,,,アマサト,0
1458,5021001076130,新規,0,2022-06-03,2022-06-03,株式会社ＷＯＷＮ,,株式会社,神奈川県,鎌倉市,大船１丁目１２－１０湘南第５ビル４Ｆ,,14,204,2470056,,,,,,,2022-06-03,1,,,,,ワオン,0
1460,5021003011795,新規,0,2022-06-03,2022-06-03,ＴＢＤＡ合同会社,,合同会社,神奈川県,平塚市,立野町１０番５号平塚マンション４Ｂ,,14,203,2540046,,,,,,,2022-06-03,1,,,,,ティビィディエイ,0
1469,5030001148450,新規,0,2022-06-03,2022-06-03,株式会社ハンブル,,株式会社,埼玉県,大里郡寄居町,大字西ノ入６２１番地５,,11,408,3691225,,,,,,,2022-06-03,1,,,,,ハンブル,0
1475,5030003019501,新規,0,2022-06-03,2022-06-03,合同会社ＫＡＧＡ,,合同会社,埼玉県,越谷市,赤山町１丁目３５番６号,,11,222,3430807,,,,,,,2022-06-03,1,,,,,カガ,0
1479,5040001123683,新規,0,2022-06-03,2022-06-03,株式会社ＦＡＢＥＲ,,株式会社,千葉県,四街道市,和良比１８６－１９,,12,228,2840044,,,,,,,2022-06-03,1,,,,,ファーベル,0
1480,5040001123691,新規,0,2022-06-03,2022-06-03,株式会社ワタセツ,,株式会社,千葉県,千葉市若葉区,都賀４丁目８番地１０号,,12,104,2640025,,,,,,,2022-06-03,1,,,,,ワタセツ,0
1481,5040001123709,新規,0,2022-06-03,2022-06-03,ＡＮＤＥ株式会社,,株式会社,千葉県,いすみ市,小池１３４３番地２,,12,238,2980013,,,,,,,2022-06-03,1,,,,,アンデ,0
1482,5040001123717,新規,0,2022-06-03,2022-06-03,株式会社ｃｌｏｖｅｒ,,株式会社,千葉県,香取市,北２丁目７番１０,,12,236,2870002,,,,,,,2022-06-03,1,,,,,クローバー,0
1483,5040001123725,新規,0,2022-06-03,2022-06-03,株式会社榎本スポーツ,,株式会社,千葉県,船橋市,小室町９０４番地Ａ―４棟４１１号,,12,204,2701471,,,,,,,2022-06-03,1,,,,,エノモトスポーツ,0
1484,5040003020177,新規,0,2022-06-03,2022-06-03,合同会社ＦＡＳＣＩＮＡＴＩＯＮ,,合同会社,千葉県,野田市,岡田６１９－１,,12,208,2700223,,,,,,,2022-06-03,1,,,,,ファシネーション,0
1487,5050001051149,新規,0,2022-06-03,2022-06-03,Ｏｒａｗ株式会社,,株式会社,茨城県,つくば市,学園の森２丁目１３番地１５３,,08,220,3050816,,,,,,,2022-06-03,1,,,,,オロー,0
1488,5050001051173,新規,0,2022-06-03,2022-06-03,株式会社岩本農場,,株式会社,茨城県,下妻市,鎌庭２０５２－７７,,08,210,3040819,,,,,,,2022-06-03,1,,,,,イワモトノウジョウ,0
1489,5050001051181,新規,0,2022-06-03,2022-06-03,株式会社ＡＺＰ,,株式会社,茨城県,笠間市,仁古田１１６７番地１８４,,08,216,3091714,,,,,,,2022-06-03,1,,,,,エーゼットピー,0
1498,5080001024985,新規,0,2022-06-03,2022-06-03,北村設備商会株式会社,,株式会社,静岡県,静岡市清水区,横砂西町８番１４号,,22,103,4240036,,,,,,,2022-06-03,1,,,,,キタムラセツビショウカイ,0
1499,5080001024993,新規,0,2022-06-03,2022-06-03,株式会社ＨＡＬＯ,,株式会社,静岡県,藤枝市,駅前１丁目８番３号ＦＵＪＩＥＤＡｍｉｋｉｎｅ１階フジキチ内,,22,214,4260034,,,,,,,2022-06-03,1,,,,,ハロ,0
1501,5080003002808,新規,0,2022-06-03,2022-06-03,合同会社ＤＲＥＡＭ　ＴＩＭＥ,,合同会社,静岡県,静岡市駿河区,池田１０９８番地プチシャトー２０２号,,22,102,4228005,,,,,,,2022-06-03,1,,,,,ドリームタイム,0
1507,5080103002600,新規,0,2022-06-03,2022-06-03,ｉｚｕｌｏｃａｔｅ合同会社,,合同会社,静岡県,三島市,川原ケ谷７４２番地の７,,22,206,4110022,,,,,,,2022-06-03,1,,,,,イズロケイト,0
1511,5080401025856,新規,0,2022-06-03,2022-06-03,株式会社ＡＯＩ,,株式会社,静岡県,浜松市東区,天王町１３１９番地の２,,22,132,4350052,,,,,,,2022-06-03,1,,,,,エーオーアイ,0
1512,5080401025864,新規,0,2022-06-03,2022-06-03,株式会社結び,,株式会社,静岡県,浜松市東区,有玉台１丁目２番３号,,22,132,4313126,,,,,,,2022-06-03,1,,,,,ムスビ,0
1513,5080403004552,新規,0,2022-06-03,2022-06-03,合同会社伝七,,合同会社,静岡県,浜松市東区,半田町５０２番地,,22,132,4313124,,,,,,,2022-06-03,1,,,,,デンシチ,0
1514,5080405007462,新規,0,2022-06-03,2022-06-03,一般社団法人浜松市戦没者追悼平和推進協会,,その他の設立登記法人,静岡県,浜松市南区,本郷町１３３３番地の２,,22,134,4300812,,,,,,,2022-06-03,1,,,,,ハママツシセンボツシャツイトウヘイワスイシンキョウカイ,0
1515,5090003002096,新規,0,2022-06-03,2022-06-03,Ｍ‐Ｃａｐｉｔａｌ合同会社,,合同会社,山梨県,韮崎市,藤井町坂井１３２,,19,207,4070002,,,,,,,2022-06-03,1,,,,,エムキャピタル,0
1516,5100001035385,新規,0,2022-06-03,2022-06-03,株式会社アットカラーズ,,株式会社,長野県,北佐久郡御代田町,大字御代田１６５４番地１－２Ｆ,,20,323,3890206,,,,,,,2022-06-03,1,,,,,アットカラーズ,0
1520,5110001036688,新規,0,2022-06-03,2022-06-03,株式会社Ａ‐１,,株式会社,新潟県,長岡市,平島１丁目１４４番地,,15,202,9401163,,,,,,,2022-06-03,1,,,,,エーワン,0
1521,5110001036713,新規,0,2022-06-03,2022-06-03,株式会社ＨＩＬＯ,,株式会社,新潟県,阿賀野市,女堂１４１９,,15,223,9591914,,,,,,,2022-06-03,1,,,,,ヒロ,0
1523,5110003004783,新規,0,2022-06-03,2022-06-03,合同会社ラパゴッド,,合同会社,新潟県,佐渡市,阿佛坊１８番地１,,15,224,9520303,,,,,,,2022-06-03,1,,,,,ラパゴッド,0
1539,5120001246237,新規,0,2022-06-03,2022-06-03,株式会社わかばとそらと,,株式会社,大阪府,守口市,寺方錦通３丁目６－２８,,27,209,5700042,,,,,,,2022-06-03,1,,,,,ワカバトソラト,0
1540,5120001246294,新規,0,2022-06-03,2022-06-03,株式会社ＷＢＦＰＰ,,株式会社,大阪府,大阪市浪速区,元町２丁目１１番１号,,27,111,5560016,,,,,,,2022-06-03,1,,,,,ダブリュービーエフピーピー,0
1541,5120001246328,新規,0,2022-06-03,2022-06-03,株式会社リライト,,株式会社,大阪府,大阪市淀川区,西中島２丁目４番２６号,,27,123,5320011,,,,,,,2022-06-03,1,,,,,リライト,0
1542,5120001246336,新規,0,2022-06-03,2022-06-03,株式会社カモガワ,,株式会社,大阪府,大阪市北区,梅田１丁目１－３大阪駅前第３ビル２９階１－１－１号室,,27,127,5300001,,,,,,,2022-06-03,1,,,,,カモガワ,0
1543,5120001246360,新規,0,2022-06-03,2022-06-03,株式会社マチュール,,株式会社,大阪府,大阪市北区,西天満４丁目１番１１号,,27,127,5300047,,,,,,,2022-06-03,1,,,,,マチュール,0
1544,5120001246369,新規,0,2022-06-03,2022-06-03,ＡＤデジタルラボラトリー株式会社,,株式会社,大阪府,大阪市阿倍野区,松崎町２丁目３番５８号,,27,119,5450053,,,,,,,2022-06-03,1,,,,,エーディーデジタルラボラトリー,0
1545,5120001246377,新規,0,2022-06-03,2022-06-03,ＲＡＺＥ株式会社,,株式会社,大阪府,大阪市浪速区,元町１丁目３番１８号１０１号,,27,111,5560016,,,,,,,2022-06-03,1,,,,,レイズ,0
1546,5120001246410,新規,0,2022-06-03,2022-06-03,株式会社未来建設,,株式会社,大阪府,門真市,一番町１５－３－２Ｆ,,27,223,5710033,,,,,,,2022-06-03,1,,,,,ミライケンセツ,0
1547,5120001246427,新規,0,2022-06-03,2022-06-03,株式会社ノックオンウッド,,株式会社,大阪府,大阪市北区,梅田２丁目４－９,,27,127,5300001,,,,,,,2022-06-03,1,,,,,ノックオンウッド,0
1553,5120101065685,新規,0,2022-06-03,2022-06-03,株式会社木村鉄筋工業,,株式会社,大阪府,泉佐野市,湊３丁目１６番３号,,27,213,5980063,,,,,,,2022-06-03,1,,,,,キムラテッキンコウギョウ,0
1554,5120101065702,新規,0,2022-06-03,2022-06-03,株式会社ゲインシャフト,,株式会社,大阪府,泉佐野市,佐野台２０番地の１８９,,27,213,5980075,,,,,,,2022-06-03,1,,,,,ゲインシャフト,0
1556,5120901046042,新規,0,2022-06-03,2022-06-03,ファインワークス株式会社,,株式会社,大阪府,豊中市,利倉東２丁目１４番１号,,27,203,5610846,,,,,,,2022-06-03,1,,,,,ファインワークス,0
1560,5130001071691,新規,0,2022-06-03,2022-06-03,益壽生技株式会社,,株式会社,京都府,京都市下京区,間之町通五条下る二丁目塗師屋町１２７－１－２階,,26,106,6000000,,,,,,,2022-06-03,1,,,,,ヤクジュセイギ,0
1561,5130001071923,新規,0,2022-06-03,2022-06-03,株式会社Ｈａｒｉｒｅ,,株式会社,京都府,京都市東山区,泉涌寺五葉ノ辻町７番地５６,00126759,26,105,6050974,,,,,,,2022-06-03,1,,,,,ハリレ,0
1564,5140001126271,新規,0,2022-06-03,2022-06-03,株式会社フェリス,,株式会社,兵庫県,川西市,見野２丁目３６番１１号,,28,217,6660105,,,,,,,2022-06-03,1,,,,,フェリス,0
1565,5140001126288,新規,0,2022-06-03,2022-06-03,株式会社リンテック,,株式会社,兵庫県,神戸市兵庫区,清水町８番１０号,,28,105,6520065,,,,,,,2022-06-03,1,,,,,リンテック,0
1570,5140003017758,新規,0,2022-06-03,2022-06-03,ｓａｋｕｒａ　ｂａｂｙ合同会社,,合同会社,兵庫県,伊丹市,西台１丁目６番１７－５０３号,,28,207,6640858,,,,,,,2022-06-03,1,,,,,サクラベビー,0
1571,5140005026204,新規,0,2022-06-03,2022-06-03,弁護士法人江戸町法律事務所,,その他の設立登記法人,兵庫県,神戸市中央区,明石町３０番地常盤ビル７階,,28,110,6500037,,,,,,,2022-06-03,1,,,,,エドマチホウリツジムショ,0
1572,5150001025605,新規,0,2022-06-03,2022-06-03,株式会社ビギスト,,株式会社,奈良県,香芝市,北今市４丁目２０３番地１ウェルズ２１北今市１０７号,,29,210,6390242,,,,,,,2022-06-03,1,,,,,ビギスト,0
1575,5160001024250,新規,0,2022-06-03,2022-06-03,株式会社宮新,,株式会社,滋賀県,守山市,小島町１６８６番地７,,25,207,5240002,,,,,,,2022-06-03,1,,,,,ミヤシン,0
1582,5180001151547,新規,0,2022-06-03,2022-06-03,ＤＹサービス株式会社,,株式会社,愛知県,名古屋市港区,春田野１丁目１６０３番地,,23,111,4550873,,,,,,,2022-06-03,1,,,,,ディーワイサービス,0
1583,5180001151563,新規,0,2022-06-03,2022-06-03,株式会社中京コンサルタンツ,,株式会社,愛知県,名古屋市中区,錦１丁目２０番２５号,,23,106,4600003,,,,,,,2022-06-03,1,,,,,チュウキョウコンサルタンツ,0
1595,5180303005343,新規,0,2022-06-03,2022-06-03,ＧＥＤ　ＣＯＮＮＥＣＴ合同会社,,合同会社,愛知県,安城市,三河安城本町２丁目１番地４安城第１東海ビル５０１,,23,212,4460059,,,,,,,2022-06-03,1,,,,,ジーイーディーコネクト,0
1603,5220001024888,新規,0,2022-06-03,2022-06-03,株式会社豊越ＳＴＹＬＥ,,株式会社,石川県,河北郡津幡町,字津幡ソ５６３番地５,,17,361,9290323,,,,,,,2022-06-03,1,,,,,トヨエツスタイル,0
1607,5240001059858,新規,0,2022-06-03,2022-06-03,株式会社アーチフィッツ,,株式会社,広島県,広島市中区,吉島西１丁目９番３‐１０１号,,34,101,7300823,,,,,,,2022-06-03,1,,,,,アーチフィッツ,0
1608,5240001059866,新規,0,2022-06-03,2022-06-03,株式会社升三電設工業,,株式会社,広島県,東広島市,西条中央６丁目１０番１８－１０９号浅原コーポＩ,00126757,34,212,7390025,,,,,,,2022-06-03,1,,,,,マッサンデンセツコウギョウ,0
1611,5250001019596,新規,0,2022-06-03,2022-06-03,株式会社山口造庭舎,,株式会社,山口県,防府市,仁井令町１５番８号,,35,206,7470841,,,,,,,2022-06-03,1,,,,,ヤマグチゾウテイシャ,0
1614,5250003003086,新規,0,2022-06-03,2022-06-03,合同会社いっこう,,合同会社,山口県,山口市,阿知須７４１８番地８,,35,203,7541277,,,,,,,2022-06-03,1,,,,,イッコウ,0
1617,5260001036896,新規,0,2022-06-03,2022-06-03,株式会社ＰＵＲＥ　ＬＩＧＨＴ,,株式会社,岡山県,倉敷市,児島下の町１０丁目２番２２号Ｆ－１,,33,202,7110906,,,,,,,2022-06-03,1,,,,,ピュアライト,0
1618,5260003003936,新規,0,2022-06-03,2022-06-03,合同会社大河興産,,合同会社,岡山県,津山市,新野東１４７４番地,,33,203,7081205,,,,,,,2022-06-03,1,,,,,タイガコウサン,0
1620,5280001008704,新規,0,2022-06-03,2022-06-03,ＯＧＡＷＡ株式会社,,株式会社,島根県,松江市,島根町多古４９５番地,,32,201,6901213,,,,,,,2022-06-03,1,,,,,オガワ,0
1625,5290001097754,新規,0,2022-06-03,2022-06-03,株式会社ＫＣＭ,,株式会社,福岡県,福岡市博多区,博多駅前３丁目３０番１号５Ｆ,,40,132,8120011,,,,,,,2022-06-03,1,,,,,ケーシーエム,0
1626,5290001097762,新規,0,2022-06-03,2022-06-03,株式会社Ｔａｂｉｙｕｎ　Ｎｅｘｔ,,株式会社,福岡県,福岡市中央区,天神１丁目９－１７福岡天神フコク生命ビル１５階,,40,133,8100001,,,,,,,2022-06-03,1,,,,,タビューンネクスト,0
1627,5290001097779,新規,0,2022-06-03,2022-06-03,株式会社ＳＣ,,株式会社,福岡県,福岡市早良区,田隈３丁目１番２９号,,40,137,8140174,,,,,,,2022-06-03,1,,,,,エスシー,0
1628,5290001097787,新規,0,2022-06-03,2022-06-03,株式会社ほんね,,株式会社,福岡県,福岡市博多区,上牟田２丁目７番８号,,40,132,8120006,,,,,,,2022-06-03,1,,,,,ホンネ,0
1629,5290001097795,新規,0,2022-06-03,2022-06-03,株式会社ＡＴＫ,,株式会社,福岡県,福岡市博多区,博多駅前３丁目１９番２３号簡ビル２階,,40,132,8120011,,,,,,,2022-06-03,1,,,,,エーティーケイ,0
1640,5290805009558,新規,0,2022-06-03,2022-06-03,特定非営利活動法人ＢｅＷｉｔｈ,,その他の設立登記法人,福岡県,北九州市小倉北区,金田２丁目１番３２号アヴィニール金田ＩＩ－Ｅ,00126734,40,106,8030816,,,,,,,2022-06-03,1,,,,,ビーウィズ,0
1644,5310001017882,新規,0,2022-06-03,2022-06-03,株式会社海生,,株式会社,長崎県,平戸市,田平町里免１６２２番地,,42,207,8594807,,,,,,,2022-06-03,1,,,,,カイジョウ,0
1645,5320001019102,新規,0,2022-06-03,2022-06-03,株式会社ＫＵＳＡＮＯ,,株式会社,大分県,日田市,大字十二町６０８番地４,,44,204,8770000,,,,,,,2022-06-03,1,,,,,クサノ,0
1648,5330001029785,新規,0,2022-06-03,2022-06-03,イノセントワーク株式会社,,株式会社,熊本県,八代市,宮地町１８２０番地１,,43,202,8660805,,,,,,,2022-06-03,1,,,,,イノセントワーク,0
1649,5330001029793,新規,0,2022-06-03,2022-06-03,株式会社金＿商事,00126746,株式会社,熊本県,熊本市北区,植木町清水１０３１番地４,,43,105,8610103,,,,,,,2022-06-03,1,,,,,ジンシンショウジ,0
1650,5340001024769,新規,0,2022-06-03,2022-06-03,株式会社肉のながはま,,株式会社,鹿児島県,熊毛郡中種子町,野間３９２２番地２,,46,501,8913604,,,,,,,2022-06-03,1,,,,,ニクノナガハマ,0
1651,5340001024785,新規,0,2022-06-03,2022-06-03,株式会社広平産業,,株式会社,鹿児島県,鹿児島市,川上町２７５１番地２５２,,46,201,8920875,,,,,,,2022-06-03,1,,,,,コウヘイサンギョウ,0
1654,5340003003812,新規,0,2022-06-03,2022-06-03,合同会社ミュウホーム,,合同会社,鹿児島県,伊佐市,大口山野５１８０番地,,46,224,8952635,,,,,,,2022-06-03,1,,,,,ミュウホーム,0
1655,5340005009469,新規,0,2022-06-03,2022-06-03,一般社団法人喜界町シルバー人材センター,,その他の設立登記法人,鹿児島県,大島郡喜界町,大字湾３８４番地１,,46,529,8916202,,,,,,,2022-06-03,1,,,,,キカイチョウシルバージンザイセンター,0
1663,5380001032875,新規,0,2022-06-03,2022-06-03,Ｉｃｈｉｄｏ株式会社,,株式会社,福島県,双葉郡富岡町,中央３丁目５３番地,,07,543,9791112,,,,,,,2022-06-03,1,,,,,イチド,0
1667,5400001015902,新規,0,2022-06-03,2022-06-03,株式会社洋野,,株式会社,岩手県,九戸郡洋野町,種市第２８地割６３番地１,,03,507,0287912,,,,,,,2022-06-03,1,,,,,ヒロノ,0
1671,5410001013203,新規,0,2022-06-03,2022-06-03,株式会社アールワイズ,,株式会社,秋田県,秋田市,保戸野原の町１１番４１号デザインテックビル２０２,,05,201,0100904,,,,,,,2022-06-03,1,,,,,アールワイズ,0
1677,5430003013967,新規,0,2022-06-03,2022-06-03,合同会社北海道３６９,,合同会社,北海道,石狩市,花川南五条４丁目１１８番地,,01,235,0613205,,,,,,,2022-06-03,1,,,,,ホッカイドウミロク,0
1678,5430003013975,新規,0,2022-06-03,2022-06-03,合同会社ＷＩＮＤＳ１６３,,合同会社,北海道,札幌市北区,新琴似十条１４丁目８－２０,,01,102,0010910,,,,,,,2022-06-03,1,,,,,ウインズイチロクサン,0
1682,5460103001464,新規,0,2022-06-03,2022-06-03,占いおまじないスピリチュアル合同会社,,合同会社,北海道,帯広市,西十五条南１１丁目１番地１２,,01,207,0800025,,,,,,,2022-06-03,1,,,,,ウラナイオマジナイスピリチュアル,0
1687,5470001019104,新規,0,2022-06-03,2022-06-03,株式会社ＳＨＩＮＪＩ,,株式会社,香川県,高松市,牟礼町原６２０番地３１,,37,201,7610123,,,,,,,2022-06-03,1,,,,,シンジ,0
1693,5480003001835,新規,0,2022-06-03,2022-06-03,合同会社祖谷の地美栄,,合同会社,徳島県,三好市,東祖谷新居屋７０番地,,36,208,7780205,,,,,,,2022-06-03,1,,,,,イヤノジビエ,0
1711,6010001226950,新規,0,2022-06-03,2022-06-03,株式会社ビビッドＬＡＢＯ,,株式会社,東京都,中央区,新川１丁目１１－６中原ビル１Ｆ,,13,102,1040033,,,,,,,2022-06-03,1,,,,,ビビッドラボ,0
1712,6010001227008,新規,0,2022-06-03,2022-06-03,ＫＣ‐Ｗｅｌｆａｒｅ株式会社,,株式会社,東京都,千代田区,霞が関３丁目２番１号,,13,101,1000013,,,,,,,2022-06-03,1,,,,,ケーシーウェルフェア,0
1713,6010001227057,新規,0,2022-06-03,2022-06-03,株式会社Ｍｏｌｓｙ,,株式会社,東京都,千代田区,岩本町１丁目５－１３－１６０４,,13,101,1010032,,,,,,,2022-06-03,1,,,,,モルシー,0
1714,6010001227065,新規,0,2022-06-03,2022-06-03,株式会社ＮＴＴＳｐｏｒｔｓＸ,,株式会社,東京都,千代田区,永田町２丁目１１番１号,,13,101,1000014,,,,,,,2022-06-03,1,,,,,エヌティティスポーツエックス,0
1717,6010005035084,新規,0,2022-06-03,2022-06-03,一般社団法人ＫＯホールディングス,,その他の設立登記法人,東京都,千代田区,丸の内３丁目１番１号東京共同会計事務所内,,13,101,1000005,,,,,,,2022-06-03,1,,,,,ケーオーホールディングス,0
1730,6010403027781,新規,0,2022-06-03,2022-06-03,合同会社ＮＫＳ６２０,,合同会社,東京都,港区,麻布十番２丁目５番１２号アザブビルディングＮｏ．３、６階,,13,103,1060045,,,,,,,2022-06-03,1,,,,,エヌケーエスロクニマル,0
1731,6010403027807,新規,0,2022-06-03,2022-06-03,合同会社ｋｅａｙ　ｄｉｖｉｓｉｏｎ,,合同会社,東京都,港区,浜松町２丁目２－１５浜松町ダイヤビル２Ｆ,,13,103,1050013,,,,,,,2022-06-03,1,,,,,キーディビジョン,0
1733,6010501048911,新規,0,2022-06-03,2022-06-03,株式会社フューチャーノバ,,株式会社,東京都,台東区,上野５丁目２５番６号,,13,106,1100005,,,,,,,2022-06-03,1,,,,,フューチャーノバ,0
1739,6010701042747,新規,0,2022-06-03,2022-06-03,エス・エー・エス建設株式会社,,株式会社,東京都,品川区,西五反田７丁目１番９号,,13,109,1410031,,,,,,,2022-06-03,1,,,,,エスエーエスケンセツ,0
1741,6010803004190,新規,0,2022-06-03,2022-06-03,３ＡＤＯ合同会社,,合同会社,東京都,大田区,千鳥３丁目１３番１４号,,13,111,1460083,,,,,,,2022-06-03,1,,,,,スリーアド,0
1747,6011001147872,新規,0,2022-06-03,2022-06-03,株式会社Ｔユニバース,,株式会社,東京都,目黒区,目黒１丁目１番３０号Ａ,,13,110,1530063,,,,,,,2022-06-03,1,,,,,ティーユニバース,0
1748,6011001147906,新規,0,2022-06-03,2022-06-03,株式会社ｔｙｐｏ,,株式会社,東京都,渋谷区,神宮前６丁目２３番４号,,13,113,1500001,,,,,,,2022-06-03,1,,,,,タイポ,0
1749,6011001147939,新規,0,2022-06-03,2022-06-03,株式会社ヴォーチェ,,株式会社,東京都,目黒区,洗足１丁目２５番１３号,,13,110,1520012,,,,,,,2022-06-03,1,,,,,ヴォーチェ,0
1750,6011003014773,新規,0,2022-06-03,2022-06-03,合同会社リーズバレー,,合同会社,東京都,渋谷区,道玄坂１丁目１０番８号渋谷道玄坂東急ビル２Ｆ－Ｃ,,13,113,1500043,,,,,,,2022-06-03,1,,,,,リーズバレー,0
1757,6011201023865,新規,0,2022-06-03,2022-06-03,株式会社ＴＣＳ,,株式会社,東京都,中野区,本町６丁目４２番２号豊坂方,,13,114,1640012,,,,,,,2022-06-03,1,,,,,ティーシーエス,0
1759,6011401024283,新規,0,2022-06-03,2022-06-03,株式会社柏崎表具インテリア,00126740,株式会社,東京都,板橋区,板橋１丁目４５番８号,,13,119,1730004,,,,,,,2022-06-03,1,,,,,カシワザキヒョウグインテリア,0
1761,6011501028093,新規,0,2022-06-03,2022-06-03,デフィー株式会社,,株式会社,東京都,北区,豊島４丁目１５番２５－８０６号,,13,117,1140003,,,,,,,2022-06-03,1,,,,,デフィー,0
1769,6012401039255,新規,0,2022-06-03,2022-06-03,株式会社ソラ,,株式会社,東京都,武蔵野市,吉祥寺本町２丁目１３番１０号,,13,203,1800004,,,,,,,2022-06-03,1,,,,,ソラ,0
1770,6012401039263,新規,0,2022-06-03,2022-06-03,株式会社Ｄｅａｒ,,株式会社,東京都,武蔵野市,吉祥寺本町２丁目２番３号,,13,203,1800004,,,,,,,2022-06-03,1,,,,,ディアー,0
1772,6012701017084,新規,0,2022-06-03,2022-06-03,株式会社ＬＥＡＰ,,株式会社,東京都,清瀬市,中里３丁目８８０番地３０,,13,221,2040003,,,,,,,2022-06-03,1,,,,,リープ,0
1773,6012803002793,新規,0,2022-06-03,2022-06-03,合同会社楽暮里,,合同会社,東京都,国分寺市,富士本３丁目２２番地７５,,13,214,1850031,,,,,,,2022-06-03,1,,,,,ラクリ,0
1790,6021003011778,新規,0,2022-06-03,2022-06-03,森のシーシャ合同会社,,合同会社,神奈川県,平塚市,紅谷町１２－６小宮ビル３階東側,,14,203,2540043,,,,,,,2022-06-03,1,,,,,モリノシーシャ,0
1800,6030003019450,新規,0,2022-06-03,2022-06-03,合同会社Ｎ２Ｌａｂ,,合同会社,埼玉県,朝霞市,根岸台７丁目１番２２号,,11,227,3510005,,,,,,,2022-06-03,1,,,,,エヌツーラボ,0
1803,6040001123724,新規,0,2022-06-03,2022-06-03,株式会社ソフィアジャパン,,株式会社,千葉県,鎌ケ谷市,右京塚１４番２７－１０号,,12,224,2730102,,,,,,,2022-06-03,1,,,,,ソフィアジャパン,0
1805,6040003020168,新規,0,2022-06-03,2022-06-03,Ｒｅａｌｐｈａ　Ａｎｔａｒｅｓ合同会社,,合同会社,千葉県,香取郡東庄町,笹川い４７１４－２５８,,12,349,2890601,,,,,,,2022-06-03,1,,,,,リアルファアンタレス,0
1810,6050001051156,新規,0,2022-06-03,2022-06-03,飛越産業株式会社,,株式会社,茨城県,古河市,釈迦１９９１番地エスポアールイナバ２１０室,,08,204,3060222,,,,,,,2022-06-03,1,,,,,トビコシサンギョウ,0
1814,6060001034936,新規,0,2022-06-03,2022-06-03,株式会社若林ハウス,,株式会社,栃木県,鹿沼市,西沢町４３１番地９,,09,205,3220344,,,,,,,2022-06-03,1,,,,,ワカバヤシハウス,0
1815,6060003004094,新規,0,2022-06-03,2022-06-03,合同会社ｉｎ　Ｄａｙ,,合同会社,栃木県,宇都宮市,西刑部町３１１番地１,,09,201,3210917,,,,,,,2022-06-03,1,,,,,インデイ,0
1818,6070001039273,新規,0,2022-06-03,2022-06-03,前橋農福総合ファーム株式会社,,株式会社,群馬県,前橋市,文京町４丁目７番３４号,,10,201,3710801,,,,,,,2022-06-03,1,,,,,マエバシノウフクソウゴウファーム,0
1821,6080001024976,新規,0,2022-06-03,2022-06-03,株式会社Ｗｉｎ‐Ｗｉｎ,,株式会社,静岡県,榛原郡吉田町,住吉３０７１番地の１,,22,424,4210301,,,,,,,2022-06-03,1,,,,,ウィンウィン,0
1822,6080001024984,新規,0,2022-06-03,2022-06-03,株式会社石川屋薬局,,株式会社,静岡県,静岡市葵区,常磐町２丁目５番地の２,,22,101,4200034,,,,,,,2022-06-03,1,,,,,イシカワヤヤッキョク,0
1823,6080103002599,新規,0,2022-06-03,2022-06-03,合同会社ＳＴＥＰＷＩＳＥ,,合同会社,静岡県,三島市,徳倉４丁目２３番３５号,,22,206,4110044,,,,,,,2022-06-03,1,,,,,ステップワイズ,0
1825,6080401025847,新規,0,2022-06-03,2022-06-03,株式会社豊田フルート,,株式会社,静岡県,湖西市,鷲津１３７８番地の５,,22,221,4310431,,,,,,,2022-06-03,1,,,,,トヨダフルート,0
1826,6080401025863,新規,0,2022-06-03,2022-06-03,株式会社Ａｒｒｏｗｓ　Ｐｌａｎｎｉｎｇ,,株式会社,静岡県,浜松市北区,三方原町４７５番地の２,,22,135,4338105,,,,,,,2022-06-03,1,,,,,アローズプランニング,0
1830,6090001017599,新規,0,2022-06-03,2022-06-03,株式会社あぐりフルーツ,,株式会社,山梨県,甲州市,塩山上塩後１１００番地,,19,213,4040045,,,,,,,2022-06-03,1,,,,,アグリフルーツ,0
1837,6110001036704,新規,0,2022-06-03,2022-06-03,株式会社ヘファイストス,,株式会社,新潟県,燕市,小関６４０番地１－２階,,15,213,9591286,,,,,,,2022-06-03,1,,,,,ヘファイストス,0
1838,6110001036712,新規,0,2022-06-03,2022-06-03,株式会社ベガンテオートハウス,,株式会社,新潟県,新潟市東区,中木戸３２３番地,,15,102,9500886,,,,,,,2022-06-03,1,,,,,ベガンテオートハウス,0
1845,6120001246310,新規,0,2022-06-03,2022-06-03,ハイパーテック株式会社,,株式会社,大阪府,大阪市西区,江之子島１丁目１０番１－７０１号,,27,106,5500006,,,,,,,2022-06-03,1,,,,,ハイパーテック,0
1846,6120001246327,新規,0,2022-06-03,2022-06-03,株式会社ＹＦＡＦ,,株式会社,大阪府,大阪市淀川区,西中島５丁目２－５－４０６,,27,123,5320011,,,,,,,2022-06-03,1,,,,,ワイファフ,0
1847,6120001246368,新規,0,2022-06-03,2022-06-03,ｅｒｅｎｏｖａｔｉｏｎ株式会社,,株式会社,大阪府,大阪市阿倍野区,天王寺町南３丁目８番２６号ＦＤＳＴＥＮＮＯＪＩＶＩＭ３０３,,27,119,5450002,,,,,,,2022-06-03,1,,,,,イーリノベーション,0
1848,6120001246392,新規,0,2022-06-03,2022-06-03,株式会社ＧＴＥＣ,,株式会社,大阪府,大阪市城東区,東中浜３丁目１番２３号,,27,118,5360023,,,,,,,2022-06-03,1,,,,,ジーテック,0
1849,6120001246434,新規,0,2022-06-03,2022-06-03,株式会社ＳＨＯ,,株式会社,大阪府,大阪市西区,川口３丁目１１－１２,,27,106,5500021,,,,,,,2022-06-03,1,,,,,ショー,0
1851,6120003021819,新規,0,2022-06-03,2022-06-03,合同会社あなろぐ,,合同会社,大阪府,大阪市西区,京町堀１丁目４番１６号,,27,106,5500003,,,,,,,2022-06-03,1,,,,,アナログ,0
1852,6120003021827,新規,0,2022-06-03,2022-06-03,ＴＬＰ貿易合同会社,,合同会社,大阪府,大阪市中央区,日本橋２丁目１９番６号,,27,128,5420073,,,,,,,2022-06-03,1,,,,,ティーエルピーボウエキ,0
1853,6120101065668,新規,0,2022-06-03,2022-06-03,株式会社ＥＮ不動産,,株式会社,大阪府,松原市,東新町２丁目１６０番地の２,,27,217,5800024,,,,,,,2022-06-03,1,,,,,エンフドウサン,0
1854,6120101065676,新規,0,2022-06-03,2022-06-03,株式会社フォレストエイト,,株式会社,大阪府,羽曳野市,羽曳が丘西３丁目７番４７号,,27,222,5830865,,,,,,,2022-06-03,1,,,,,フォレストエイト,0
1857,6120901046041,新規,0,2022-06-03,2022-06-03,株式会社ＫＵＲＵＭＩ,,株式会社,大阪府,豊中市,新千里西町３丁目７番７号,,27,203,5600083,,,,,,,2022-06-03,1,,,,,クルミ,0
1858,6120903004170,新規,0,2022-06-03,2022-06-03,合同会社Ｄ．デンタルセラミスト,,合同会社,大阪府,高槻市,上田辺町２番２０号松尾ビル４Ｆ,,27,207,5690805,,,,,,,2022-06-03,1,,,,,ディデンタルセラミスト,0
1861,6130001071872,新規,0,2022-06-03,2022-06-03,株式会社ヒューマンドラフト,,株式会社,京都府,亀岡市,曽我部町南条岩ケ谷１番地９０,,26,206,6210022,,,,,,,2022-06-03,1,,,,,ヒューマンドラフト,0
1871,6140001126238,新規,0,2022-06-03,2022-06-03,フェリアス不動産株式会社,,株式会社,兵庫県,西宮市,神楽町１１番２０－１０３号,,28,204,6620977,,,,,,,2022-06-03,1,,,,,フェリアスフドウサン,0
1872,6140001126287,新規,0,2022-06-03,2022-06-03,ＲＩＳＰＥＴＴＯ株式会社,,株式会社,兵庫県,西宮市,山口町上山口３丁目３１番４号,,28,204,6511421,,,,,,,2022-06-03,1,,,,,リスペット,0
1874,6150001025587,新規,0,2022-06-03,2022-06-03,株式会社ｔｈｒｅｅｔａｉｌｓ　ＪＡＰＡＮ,,株式会社,奈良県,生駒市,東生駒１丁目１７０番地４,,29,209,6300213,,,,,,,2022-06-03,1,,,,,スリーテイルズジャパン,0
1876,6170001017129,新規,0,2022-06-03,2022-06-03,株式会社三平,,株式会社,和歌山県,紀の川市,東大井４１１番地,,30,208,6496405,,,,,,,2022-06-03,1,,,,,サンペイ,0
1877,6170001017137,新規,0,2022-06-03,2022-06-03,株式会社堂脇,,株式会社,和歌山県,紀の川市,名手下２６５番地,,30,208,6496603,,,,,,,2022-06-03,1,,,,,ドウワキ,0
1880,6180001151505,新規,0,2022-06-03,2022-06-03,株式会社ＬＢ,,株式会社,愛知県,日進市,藤島町長塚７５番地９２２,00126736,23,230,4700102,,,,,,,2022-06-03,1,,,,,エルビー,0
1881,6180001151562,新規,0,2022-06-03,2022-06-03,株式会社永野事務所,,株式会社,愛知県,一宮市,浅野字野口７０番地２,,23,203,4910871,,,,,,,2022-06-03,1,,,,,ナガノジムショ,0
1882,6180001151570,新規,0,2022-06-03,2022-06-03,株式会社ＮＥＸＴ　ＳＥＥＤ,,株式会社,愛知県,名古屋市中区,丸の内２丁目１８番２０号,,23,106,4600002,,,,,,,2022-06-03,1,,,,,ネクストシード,0
1883,6180001151579,新規,0,2022-06-03,2022-06-03,犬山建築構造デザイン株式会社,,株式会社,愛知県,犬山市,大字犬山字中道２０番地８,,23,215,4840081,,,,,,,2022-06-03,1,,,,,イヌヤマケンチクコウゾウデザイン,0
1884,6180001151620,新規,0,2022-06-03,2022-06-03,株式会社サイタス,,株式会社,愛知県,名古屋市名東区,猪子石原２丁目１４１０番地,,23,115,4650008,,,,,,,2022-06-03,1,,,,,サイタス,0
1890,6180005019789,新規,0,2022-06-03,2022-06-03,行政書士法人千田久人事務所,,その他の設立登記法人,愛知県,名古屋市天白区,島田黒石３１０番地,,23,116,4680028,,,,,,,2022-06-03,1,,,,,センダヒサトジムショ,0
1898,6190001029485,新規,0,2022-06-03,2022-06-03,株式会社ヘルパーぬくもり,,株式会社,三重県,鈴鹿市,加佐登４丁目２３番２６号,,24,207,5130004,,,,,,,2022-06-03,1,,,,,ヘルパーヌクモリ,0
1902,6200001040110,新規,0,2022-06-03,2022-06-03,株式会社Ｆａｉｔｈ,,株式会社,岐阜県,羽島郡岐南町,八剣４丁目４６番地の１,,21,302,5016012,,,,,,,2022-06-03,1,,,,,フェイス,0
1903,6200001040135,新規,0,2022-06-03,2022-06-03,Ａｄｖａｎテック株式会社,,株式会社,岐阜県,多治見市,昭栄町３０番地の５５,,21,204,5070076,,,,,,,2022-06-03,1,,,,,アドバンテック,0
1905,6200005013351,新規,0,2022-06-03,2022-06-03,一般社団法人終活サポートセンター,,その他の設立登記法人,岐阜県,揖斐郡大野町,大字黒野１１１８番地３,,21,403,5010521,,,,,,,2022-06-03,1,,,,,シュウカツサポートセンター,0
1909,6210001018956,新規,0,2022-06-03,2022-06-03,株式会社あぶすと,,株式会社,福井県,福井市,毛矢２丁目１－９,,18,201,9188003,,,,,,,2022-06-03,1,,,,,アブスト,0
1913,6220001024887,新規,0,2022-06-03,2022-06-03,株式会社Ｔｅｓｅｒａ,,株式会社,石川県,金沢市,玉川町１番５号,,17,201,9200863,,,,,,,2022-06-03,1,,,,,テセラ,0
1914,6220001024895,新規,0,2022-06-03,2022-06-03,株式会社ＧＲＩＴ,,株式会社,石川県,金沢市,新保本３丁目１３４番地１,,17,201,9218062,,,,,,,2022-06-03,1,,,,,グリット,0
1916,6220003003294,新規,0,2022-06-03,2022-06-03,マルジュ合同会社,,合同会社,石川県,金沢市,東山１丁目２番８号,,17,201,9200831,,,,,,,2022-06-03,1,,,,,マルジュ,0
1920,6230001019390,新規,0,2022-06-03,2022-06-03,ＡＴ電設株式会社,,株式会社,富山県,富山市,山室荒屋新町１５番地２,,16,201,9398026,,,,,,,2022-06-03,1,,,,,エーティーデンセツ,0
1925,6240001059849,新規,0,2022-06-03,2022-06-03,株式会社リコピン,,株式会社,広島県,広島市安佐南区,大町西１丁目７番９号,,34,105,7310125,,,,,,,2022-06-03,1,,,,,リコピン,0
1926,6240001059857,新規,0,2022-06-03,2022-06-03,株式会社きゃっとくりにっくひろしま,,株式会社,広島県,広島市東区,愛宕町３番２７号愛宕ビル１０１,,34,102,7320054,,,,,,,2022-06-03,1,,,,,キャットクリニックヒロシマ,0
1927,6240001059865,新規,0,2022-06-03,2022-06-03,株式会社創伸塾,,株式会社,広島県,福山市,城見町１丁目２番２７号２階,,34,207,7200054,,,,,,,2022-06-03,1,,,,,ソウシンジュク,0
1928,6240001059873,新規,0,2022-06-03,2022-06-03,株式会社ＧＥＡＲ　ＭＥＳＨ,,株式会社,広島県,廿日市市,桜尾１丁目４番７号,,34,213,7380004,,,,,,,2022-06-03,1,,,,,ギアメッシュ,0
1932,6240003005636,新規,0,2022-06-03,2022-06-03,合同会社おおきなかぶ,,合同会社,広島県,福山市,千田町３丁目１８番１７－２号シャンテ千田１０１,,34,207,7200017,,,,,,,2022-06-03,1,,,,,オオキナカブ,0
1937,6260001036904,新規,0,2022-06-03,2022-06-03,株式会社大森電気,,株式会社,岡山県,岡山市南区,福富西１丁目１２番２１号（２０３）,,33,104,7028031,,,,,,,2022-06-03,1,,,,,オオモリデンキ,0
1942,6270001008539,新規,0,2022-06-03,2022-06-03,株式会社ＨＤ,,株式会社,鳥取県,鳥取市,末広温泉町６２４番地３ダイアパレスグラン末広通り９０２号,,31,201,6800833,,,,,,,2022-06-03,1,,,,,エイチディー,0
1943,6280001008703,新規,0,2022-06-03,2022-06-03,株式会社フレアー,,株式会社,島根県,松江市,学園南１丁目１９番１２号,,32,201,6900826,,,,,,,2022-06-03,1,,,,,フレアー,0
1946,6290001097720,新規,0,2022-06-03,2022-06-03,株式会社ＩＮＳＫ,,株式会社,福岡県,久留米市,西町１０９１番地８,,40,203,8300038,,,,,,,2022-06-03,1,,,,,アイエヌエスケイ,0
1947,6290001097729,新規,0,2022-06-03,2022-06-03,株式会社山大,,株式会社,福岡県,福岡市西区,北原１丁目１２番３０号,,40,135,8190379,,,,,,,2022-06-03,1,,,,,ヤマダイ,0
1948,6290001097737,新規,0,2022-06-03,2022-06-03,展芸株式会社,,株式会社,福岡県,福岡市博多区,博多駅前２丁目１１番２２－６０６号,,40,132,8120011,,,,,,,2022-06-03,1,,,,,テンゲイ,0
1949,6290001097786,新規,0,2022-06-03,2022-06-03,株式会社福岡軽貨物引越サービス,,株式会社,福岡県,福岡市南区,井尻５丁目２４番３０－２１０号,,40,134,8111302,,,,,,,2022-06-03,1,,,,,フクオカケイカモツヒッコシサービス,0
1950,6290001097794,新規,0,2022-06-03,2022-06-03,株式会社エコア・イーテック,,株式会社,福岡県,福岡市博多区,冷泉町４番２０号,,40,132,8120039,,,,,,,2022-06-03,1,,,,,エコアイーテック,0
1953,6290003012578,新規,0,2022-06-03,2022-06-03,合同会社ＳＡＤＡＨＡＲＵ　ＩＷＡＴＡ,,合同会社,福岡県,福岡市城南区,田島３丁目１９番１０号,,40,136,8140113,,,,,,,2022-06-03,1,,,,,サダハルイワタ,0
1955,6290005018706,新規,0,2022-06-03,2022-06-03,一般社団法人トータル・サポート,,その他の設立登記法人,福岡県,福岡市中央区,渡辺通４丁目１番１－１００２号,,40,133,8100004,,,,,,,2022-06-03,1,,,,,トータルサポート,0
1966,6320001019101,新規,0,2022-06-03,2022-06-03,株式会社ヤキノブ,,株式会社,大分県,大分市,畑中２丁目６番１１－１４０１号,,44,201,8700856,,,,,,,2022-06-03,1,,,,,ヤキノブ,0
1972,6340001024776,新規,0,2022-06-03,2022-06-03,株式会社新誠会,,株式会社,鹿児島県,志布志市,有明町伊崎田１０９８番地１,,46,221,8997401,,,,,,,2022-06-03,1,,,,,シンセイカイ,0
1975,6340003003803,新規,0,2022-06-03,2022-06-03,合同会社フィオーレ,,合同会社,鹿児島県,鹿児島市,伊敷台１丁目４番５号,,46,201,8900007,,,,,,,2022-06-03,1,,,,,フィオーレ,0
1976,6340005009468,新規,0,2022-06-03,2022-06-03,一般財団法人千の風,,その他の設立登記法人,鹿児島県,鹿児島市,東谷山２丁目４番６号,,46,201,8910113,,,,,,,2022-06-03,1,,,,,センノカゼ,0
1977,6350001017770,新規,0,2022-06-03,2022-06-03,株式会社Ｏｓｏｒａ,,株式会社,宮崎県,日南市,大字楠原１５６０番地,,45,204,8892514,,,,,,,2022-06-03,1,,,,,オソラ,0
1978,6350001017779,新規,0,2022-06-03,2022-06-03,株式会社遥工業,,株式会社,宮崎県,宮崎市,大字田吉６２６９番地１パームコート７０１号,,45,201,8800911,,,,,,,2022-06-03,1,,,,,ハルカコウギョウ,0
1981,6370001048616,新規,0,2022-06-03,2022-06-03,株式会社ＭＲＴ,,株式会社,宮城県,仙台市青葉区,下愛子字月橋５８番地の２１,,04,101,9893125,,,,,,,2022-06-03,1,,,,,エムアールティー,0
1982,6370001048624,新規,0,2022-06-03,2022-06-03,株式会社令和管財,,株式会社,宮城県,仙台市若林区,上飯田２丁目２７番１６号,,04,103,9840838,,,,,,,2022-06-03,1,,,,,レイワカンザイ,0
1983,6370001048640,新規,0,2022-06-03,2022-06-03,株式会社エレビー,,株式会社,宮城県,仙台市青葉区,双葉ケ丘１丁目３６番２号ドルチェ１０１,,04,101,9810924,,,,,,,2022-06-03,1,,,,,エレビー,0
1984,6370003005722,新規,0,2022-06-03,2022-06-03,合同会社Ｌａｎａ,,合同会社,宮城県,仙台市太白区,八木山本町１丁目３２番１４号杏ハウス１０３号,,04,104,9820801,,,,,,,2022-06-03,1,,,,,ラナ,0
1989,6380001032874,新規,0,2022-06-03,2022-06-03,好転株式会社,,株式会社,福島県,相馬郡新地町,谷地小屋字背中振１０番地の２２,,07,561,9792702,,,,,,,2022-06-03,1,,,,,コウテン,0
1994,6410001013202,新規,0,2022-06-03,2022-06-03,株式会社ハセベ板金,,株式会社,秋田県,秋田市,雄和椿川字長者屋敷１番地６,,05,201,0101211,,,,,,,2022-06-03,1,,,,,ハセベバンキン,0
1996,6420001017879,新規,0,2022-06-03,2022-06-03,株式会社Ｏｋｕｄａ,,株式会社,青森県,五所川原市,大字福山字実吉７３番地４,,02,205,0370612,,,,,,,2022-06-03,1,,,,,オクダ,0
1997,6420003002532,新規,0,2022-06-03,2022-06-03,合同会社下北自然環境センター,,合同会社,青森県,むつ市,大湊浜町１３番１３号,,02,208,0350085,,,,,,,2022-06-03,1,,,,,シモキタシゼンカンキョウセンター,0
2003,6430003013974,新規,0,2022-06-03,2022-06-03,合同会社Ｋａｉｒｏｓ,,合同会社,北海道,札幌市白石区,菊水九条３丁目５番３１号クレストパレス菊水５Ａ号,,01,104,0030809,,,,,,,2022-06-03,1,,,,,カイロス,0
2006,6460003000904,新規,0,2022-06-03,2022-06-03,ｋｏｋｏｃｈｉｅ　ｈｏｍｅ合同会社,,合同会社,北海道,釧路市,緑ケ岡５丁目５番７号,,01,206,0850814,,,,,,,2022-06-03,1,,,,,ココチエホーム,0
2009,6480001011752,新規,0,2022-06-03,2022-06-03,株式会社ＦＵＫＵＹＡＭＡ　ＰＬＵＳ,,株式会社,徳島県,小松島市,前原町字東３５番地の２,,36,203,7730013,,,,,,,2022-06-03,1,,,,,フクヤマプラス,0
2010,6480001011760,新規,0,2022-06-03,2022-06-03,株式会社アールエイ,,株式会社,徳島県,徳島市,庄町５丁目８１番地の１５４,,36,201,7700044,,,,,,,2022-06-03,1,,,,,アールエイ,0
2011,6500001024248,新規,0,2022-06-03,2022-06-03,魚一株式会社,,株式会社,愛媛県,今治市,南鳥生町４丁目４番３６号,,38,202,7940802,,,,,,,2022-06-03,1,,,,,ウオイチ,0
2013,6700150108624,新規,0,2022-06-03,2022-05-11,ＩＮＡＴＡＩ　ＭＵＳＩＣ,,その他,大阪府,豊能郡豊能町,ときわ台１丁目２３－２,,27,321,5630102,,,,,,,2022-05-11,1,,,,,イナタイミユージツク,0
2014,6700150108905,新規,0,2022-06-03,2022-05-20,人格なき社団　フレッシュフーズ,,その他,鹿児島県,出水郡長島町,鷹巣１６６６番地１,,46,404,8991401,,,,,,,2022-05-20,1,,,,,ジンカクナキシヤダンフレツシユフーズ,0
2023,7010001226999,新規,0,2022-06-03,2022-06-03,株式会社オフィス花華,,株式会社,東京都,千代田区,永田町２丁目９番６号,,13,101,1000014,,,,,,,2022-06-03,1,,,,,オフィスハナハナ,0
2024,7010001227097,新規,0,2022-06-03,2022-06-03,株式会社スパーク,,株式会社,東京都,千代田区,内神田１丁目１８番１１号東京ロイヤルプラザ１１０２号室,,13,101,1010047,,,,,,,2022-06-03,1,,,,,スパーク,0
2028,7010005035083,新規,0,2022-06-03,2022-06-03,特定非営利活動法人オアシス,,その他の設立登記法人,東京都,文京区,音羽１丁目２０番２号音羽ダイコクビル７０２号室,,13,105,1120013,,,,,,,2022-06-03,1,,,,,オアシス,0
2036,7010401167620,新規,0,2022-06-03,2022-06-03,株式会社ＤａｔａＦｏｒｍ,,株式会社,東京都,港区,浜松町２丁目２番１５号浜松町ダイヤビル２Ｆ,,13,103,1050013,,,,,,,2022-06-03,1,,,,,データフォーム,0
2037,7010401167736,新規,0,2022-06-03,2022-06-03,ユニオンテックグループ株式会社,,株式会社,東京都,港区,北青山３丁目３番５号東京建物青山ビル７階,,13,103,1070061,,,,,,,2022-06-03,1,,,,,ユニオンテックグループ,0
2038,7010401167769,新規,0,2022-06-03,2022-06-03,ＴｅｃＶｉｎｇ株式会社,,株式会社,東京都,港区,港南２丁目１６－１品川イーストワンタワー４Ｆ,,13,103,1080075,,,,,,,2022-06-03,1,,,,,テックヴィング,0
2042,7010403027772,新規,0,2022-06-03,2022-06-03,８９ｓｔｕｄｉｏ合同会社,,合同会社,東京都,港区,芝浦２丁目２番１５－５０７号,,13,103,1080023,,,,,,,2022-06-03,1,,,,,ハックスタジオ,0
2043,7010405021063,新規,0,2022-06-03,2022-06-03,ＮＳＣ一般社団法人,,その他の設立登記法人,東京都,港区,南青山１丁目１番１号新青山ビル西館７階,,13,103,1070062,,,,,,,2022-06-03,1,,,,,エヌエスシー,0
2045,7010501048910,新規,0,2022-06-03,2022-06-03,ＫＯＴＯ株式会社,,株式会社,東京都,台東区,秋葉原１番８号,,13,106,1100006,,,,,,,2022-06-03,1,,,,,コト,0
2050,7010701042746,新規,0,2022-06-03,2022-06-03,株式会社３Ｅプランニング,,株式会社,東京都,品川区,大井１丁目３５番７号アーマックス大井町６０３,,13,109,1400014,,,,,,,2022-06-03,1,,,,,スリーイープランニング,0
2051,7010701042762,新規,0,2022-06-03,2022-06-03,株式会社Ａ＆Ｙ　Ｔｅｃｈｎｏｌｏｇｙ,,株式会社,東京都,品川区,上大崎３丁目５番２号,,13,109,1410021,,,,,,,2022-06-03,1,,,,,エーアンドワイテクノロジー,0
2056,7010803004181,新規,0,2022-06-03,2022-06-03,合同会社ＥＳリサーチ＆コンサルティング,,合同会社,東京都,大田区,多摩川２丁目２７番６－１０９号,,13,111,1460095,,,,,,,2022-06-03,1,,,,,イーエスリサーチアンドコンサルティング,0
2066,7011001147830,新規,0,2022-06-03,2022-06-03,株式会社ＴＥＰＯ,,株式会社,東京都,渋谷区,神宮前６丁目２３番４号桑野ビル２階,,13,113,1500001,,,,,,,2022-06-03,1,,,,,テポ,0
2067,7011001147855,新規,0,2022-06-03,2022-06-03,関西ペイントブラーノ株式会社,,株式会社,東京都,渋谷区,神南１丁目７番７号,,13,113,1500041,,,,,,,2022-06-03,1,,,,,カンサイペイントブラーノ,0
2068,7011001147871,新規,0,2022-06-03,2022-06-03,株式会社Ｋユニバース,,株式会社,東京都,目黒区,目黒１丁目１番３０号Ａ,,13,110,1530063,,,,,,,2022-06-03,1,,,,,ケイユニバース,0
2069,7011001147905,新規,0,2022-06-03,2022-06-03,株式会社ｍａｓｓｉｖｅ,,株式会社,東京都,目黒区,青葉台１丁目１６番４号ＳＺビル,,13,110,1530042,,,,,,,2022-06-03,1,,,,,マッシブ,0
2070,7011001147946,新規,0,2022-06-03,2022-06-03,株式会社いつもそばに,,株式会社,東京都,渋谷区,道玄坂１丁目１０番８号２Ｆ－Ｃ,,13,113,1500043,,,,,,,2022-06-03,1,,,,,イツモソバニ,0
2071,7011003014756,新規,0,2022-06-03,2022-06-03,合同会社和泉グミ,,合同会社,東京都,目黒区,中根１丁目７番１６号目黒タワーヒルズ７０１,,13,110,1520031,,,,,,,2022-06-03,1,,,,,イズミグミ,0
2072,7011003014764,新規,0,2022-06-03,2022-06-03,合同会社アセンブル,,合同会社,東京都,渋谷区,神宮前６丁目２３番４号桑野ビル２階,,13,113,1500001,,,,,,,2022-06-03,1,,,,,アセンブル,0
2073,7011003014780,新規,0,2022-06-03,2022-06-03,合同会社ｎａｋａｔｓｕ．ｃｏｍ,,合同会社,東京都,渋谷区,神宮前６丁目２３番４号桑野ビル２Ｆ,,13,113,1500001,,,,,,,2022-06-03,1,,,,,ナカツドットコム,0
2087,7011201023864,新規,0,2022-06-03,2022-06-03,株式会社ＴｅｒｒａｉＮ,,株式会社,東京都,中野区,中野３丁目２８番２９号,,13,114,1640001,,,,,,,2022-06-03,1,,,,,テラン,0
2094,7011601025997,新規,0,2022-06-03,2022-06-03,株式会社ＴＹＫ,,株式会社,東京都,練馬区,大泉学園町８丁目３番９号,,13,120,1780061,,,,,,,2022-06-03,1,,,,,ティーワイケイ,0
2097,7011701025352,新規,0,2022-06-03,2022-06-03,株式会社なかのみらい,,株式会社,東京都,江戸川区,南篠崎町４丁目２０番１４号,,13,123,1330065,,,,,,,2022-06-03,1,,,,,ナカノミライ,0
2103,7012701017083,新規,0,2022-06-03,2022-06-03,株式会社イービレッジ内装,,株式会社,東京都,東村山市,恩多町１丁目３０番地６１,,13,213,1890011,,,,,,,2022-06-03,1,,,,,イービレッジナイソウ,0
2104,7012703002471,新規,0,2022-06-03,2022-06-03,合同会社Ｔｉｍｅ　Ｖａｌｕｅ,,合同会社,東京都,西東京市,下保谷４丁目６番２６号,,13,229,2020004,,,,,,,2022-06-03,1,,,,,タイムバリュー,0
2105,7012801021621,新規,0,2022-06-03,2022-06-03,株式会社コンシェンス,,株式会社,東京都,日野市,南平７丁目１７番地の２８,,13,212,1910041,,,,,,,2022-06-03,1,,,,,コンシェンス,0
2112,7020001146759,新規,0,2022-06-03,2022-06-03,星城商事株式会社,,株式会社,神奈川県,横浜市南区,共進町２丁目５１番地レオメゾン加藤２０２,,14,105,2320015,,,,,,,2022-06-03,1,,,,,セイジョウショウジ,0
2113,7020001146767,新規,0,2022-06-03,2022-06-03,株式会社せとぐち内装店,,株式会社,神奈川県,横浜市神奈川区,羽沢南１丁目２７番１７号,,14,102,2210866,,,,,,,2022-06-03,1,,,,,セトグチナイソウテン,0
2114,7020001146775,新規,0,2022-06-03,2022-06-03,株式会社Ｄ・Ｃ,,株式会社,神奈川県,横浜市保土ケ谷区,帷子町２丁目４７番地,,14,106,2400013,,,,,,,2022-06-03,1,,,,,ディーシー,0
2115,7020001146791,新規,0,2022-06-03,2022-06-03,株式会社テラフェーズ,,株式会社,神奈川県,横浜市港北区,大倉山１丁目１２番１１－２０３号,,14,109,2220037,,,,,,,2022-06-03,1,,,,,テラフェーズ,0
2124,7021005012534,新規,0,2022-06-03,2022-06-03,弁護士法人田中孝佳法律事務所,,その他の設立登記法人,神奈川県,相模原市中央区,相模原６丁目２２番９号－２０２,,14,152,2520231,,,,,,,2022-06-03,1,,,,,タナカタカヨシホウリツジムショ,0
2127,7030001148449,新規,0,2022-06-03,2022-06-03,株式会社エミー,,株式会社,埼玉県,越谷市,南越谷１丁目１６番地１６,,11,222,3430845,,,,,,,2022-06-03,1,,,,,エミー,0
2128,7030001148473,新規,0,2022-06-03,2022-06-03,株式会社ＡＩＲ　ＯＮＥ,,株式会社,埼玉県,川口市,大字石神１７４８番地の２,,11,203,3330823,,,,,,,2022-06-03,1,,,,,エアーワン,0
2129,7030003019508,新規,0,2022-06-03,2022-06-03,合同会社ＭｉｓＵ,,合同会社,埼玉県,川口市,戸塚南３丁目１２番２１号,,11,203,3330817,,,,,,,2022-06-03,1,,,,,エムイズユー,0
2133,7040001123723,新規,0,2022-06-03,2022-06-03,ＳＡＩＧＩＮ商店株式会社,,株式会社,千葉県,市川市,湊新田１丁目１３番１号,,12,203,2720132,,,,,,,2022-06-03,1,,,,,サイギンショウテン,0
2134,7040003020167,新規,0,2022-06-03,2022-06-03,北防合同会社,,合同会社,千葉県,船橋市,夏見台２丁目２２番２号,,12,204,2730866,,,,,,,2022-06-03,1,,,,,キタボウ,0
2138,7060001034927,新規,0,2022-06-03,2022-06-03,岩上商事株式会社,,株式会社,栃木県,宇都宮市,戸祭４丁目１６番２９号,,09,201,3200056,,,,,,,2022-06-03,1,,,,,イワカミショウジ,0
2139,7060001034935,新規,0,2022-06-03,2022-06-03,株式会社Ｙ＆Ｋ,,株式会社,栃木県,宇都宮市,花房２丁目９番１４号Ｋ・Ｉ・ＸシャラＮ棟１０５,,09,201,3200827,,,,,,,2022-06-03,1,,,,,ワイアンドケー,0
2141,7060003004093,新規,0,2022-06-03,2022-06-03,合同会社Ｍａｄｕｓｈａｎ　Ｅｎｔｅｒｐｒｉｓｅｓ,,合同会社,栃木県,足利市,小俣町３４０８番地１,,09,202,3260141,,,,,,,2022-06-03,1,,,,,マドゥシャンエンタープライゼズ,0
2145,7080001024983,新規,0,2022-06-03,2022-06-03,株式会社Ｒ‐ｉｎｇ,,株式会社,静岡県,静岡市駿河区,登呂６丁目８番１１号,,22,102,4228033,,,,,,,2022-06-03,1,,,,,リング,0
2151,7080401025846,新規,0,2022-06-03,2022-06-03,丸西不動産株式会社,,株式会社,静岡県,浜松市中区,和合町３１５番地の１７３８,,22,131,4338125,,,,,,,2022-06-03,1,,,,,マルニシフドウサン,0
2152,7080401025854,新規,0,2022-06-03,2022-06-03,ＲＹＯＷＡ　ＭＯＴＯＲ株式会社,,株式会社,静岡県,浜松市南区,参野町１７５番地,,22,134,4300816,,,,,,,2022-06-03,1,,,,,リョーワモーター,0
2153,7080401025862,新規,0,2022-06-03,2022-06-03,株式会社ハース・ジャパン静岡,,株式会社,静岡県,浜松市中区,鴨江２丁目１番１３号,,22,131,4328023,,,,,,,2022-06-03,1,,,,,ハースジャパンシズオカ,0
2155,7080403004550,新規,0,2022-06-03,2022-06-03,合同会社Ｌｉｂｒｅ,,合同会社,静岡県,菊川市,本所１４９９番地の１,,22,224,4390018,,,,,,,2022-06-03,1,,,,,リーブル,0
2156,7090001017598,新規,0,2022-06-03,2022-06-03,株式会社田村興業,,株式会社,山梨県,上野原市,大曽根２１６番地７,,19,212,4090131,,,,,,,2022-06-03,1,,,,,タムラコウギョウ,0
2159,7100001035391,新規,0,2022-06-03,2022-06-03,株式会社イイダメンテ,,株式会社,長野県,飯田市,座光寺４７８６番地９,,20,205,3950001,,,,,,,2022-06-03,1,,,,,イイダメンテ,0
2163,7110001036694,新規,0,2022-06-03,2022-06-03,株式会社一期一会,,株式会社,新潟県,新潟市西区,坂井東１丁目４番１号,,15,107,9502041,,,,,,,2022-06-03,1,,,,,イチゴイチエ,0
2180,7120001246301,新規,0,2022-06-03,2022-06-03,Ｒａｇｎａｌｓ株式会社,,株式会社,大阪府,大阪市北区,天満橋１丁目３番８号日宝ライフ東天満６０１号室,,27,127,5300042,,,,,,,2022-06-03,1,,,,,ラグナルズ,0
2181,7120001246326,新規,0,2022-06-03,2022-06-03,三七二一株式会社,,株式会社,大阪府,大阪市中央区,高津３丁目１４番３４－５０２号,,27,128,5420072,,,,,,,2022-06-03,1,,,,,サンナナニイチ,0
2182,7120001246334,新規,0,2022-06-03,2022-06-03,株式会社Ｋ＆Ｇ,,株式会社,大阪府,大阪市天王寺区,北河堀町１０番１－３０３号,,27,109,5430053,,,,,,,2022-06-03,1,,,,,ケーアンドジー,0
2183,7120001246342,新規,0,2022-06-03,2022-06-03,株式会社ａｎｄ．ｍｉｒａｉ,,株式会社,大阪府,大阪市北区,中崎西１丁目２番１３号サプライズビル５０２,,27,127,5300015,,,,,,,2022-06-03,1,,,,,アンドミライ,0
2184,7120001246350,新規,0,2022-06-03,2022-06-03,株式会社Ｗｉｌｌ,,株式会社,大阪府,大阪市東成区,中本５丁目１３番８,,27,115,5370022,,,,,,,2022-06-03,1,,,,,ウィル,0
2185,7120001246391,新規,0,2022-06-03,2022-06-03,株式会社大黒不動産,,株式会社,大阪府,大阪市淀川区,西中島７丁目９番３号,,27,123,5320011,,,,,,,2022-06-03,1,,,,,ダイコクフドウサン,0
2186,7120001246409,新規,0,2022-06-03,2022-06-03,ＪＳ建設株式会社,,株式会社,大阪府,大阪市西成区,北津守２丁目５番５－１号,,27,122,5570061,,,,,,,2022-06-03,1,,,,,ジェイエスケンセツ,0
2194,7120101065642,新規,0,2022-06-03,2022-06-03,株式会社巧,,株式会社,大阪府,泉佐野市,下瓦屋４丁目３番３５号,,27,213,5980062,,,,,,,2022-06-03,1,,,,,タクミ,0
2195,7120101065683,新規,0,2022-06-03,2022-06-03,株式会社十条,,株式会社,大阪府,泉佐野市,南中安松１１６６番地３号,,27,213,5980033,,,,,,,2022-06-03,1,,,,,ジュウジョウ,0
2196,7120101065700,新規,0,2022-06-03,2022-06-03,株式会社ワンプライス,,株式会社,大阪府,堺市北区,百舌鳥陵南町１丁５８－１８,,27,146,5918034,,,,,,,2022-06-03,1,,,,,ワンプライス,0
2206,7122001035923,新規,0,2022-06-03,2022-06-03,株式会社フジテック,,株式会社,大阪府,東大阪市,七軒家７番１４号,,27,227,5770005,,,,,,,2022-06-03,1,,,,,フジテック,0
2211,7130001071896,新規,0,2022-06-03,2022-06-03,株式会社Ｙ‐ＴＯＲＥ,,株式会社,京都府,京都市右京区,梅津南広町４６番地２,,26,108,6150901,,,,,,,2022-06-03,1,,,,,ワイトレ,0
2212,7130003007972,新規,0,2022-06-03,2022-06-03,合同会社リバーサイド,,合同会社,京都府,京都市西京区,松室地家町２番地６,,26,111,6158294,,,,,,,2022-06-03,1,,,,,リバーサイド,0
2220,7140001126204,新規,0,2022-06-03,2022-06-03,株式会社ＳＢＳ設計,,株式会社,兵庫県,神戸市中央区,相生町１丁目１番１－１８０５号,,28,110,6500025,,,,,,,2022-06-03,1,,,,,エスビーエスセッケイ,0
2221,7140001126245,新規,0,2022-06-03,2022-06-03,株式会社藤井設備,,株式会社,兵庫県,高砂市,神爪５丁目３－６,,28,216,6760808,,,,,,,2022-06-03,1,,,,,フジイセツビ,0
2222,7140001126278,新規,0,2022-06-03,2022-06-03,株式会社ＴＡＳＵ‐ｃｌｕｂ,,株式会社,兵庫県,神戸市北区,山田町上谷上字堺山１６番地の２,,28,109,6511242,,,,,,,2022-06-03,1,,,,,タスクラブ,0
2226,7140005026202,新規,0,2022-06-03,2022-06-03,一般社団法人いきいきライフ協会北神戸,,その他の設立登記法人,兵庫県,神戸市北区,東大池１丁目２０番２０号,,28,109,6511333,,,,,,,2022-06-03,1,,,,,,0
2231,7170001017128,新規,0,2022-06-03,2022-06-03,株式会社マエカワ,,株式会社,和歌山県,田辺市,稲成町３３７番地の３,,30,206,6460051,,,,,,,2022-06-03,1,,,,,マエカワ,0
2239,7180001151545,新規,0,2022-06-03,2022-06-03,ミラク株式会社,,株式会社,愛知県,名古屋市中区,橘１丁目２６番２３－５０１号,,23,106,4600016,,,,,,,2022-06-03,1,,,,,ミラク,0
2240,7180001151561,新規,0,2022-06-03,2022-06-03,株式会社アースメイクラボ,,株式会社,愛知県,名古屋市昭和区,御器所通３丁目２２番地フレストステージ御器所１００２号,,23,107,4660015,,,,,,,2022-06-03,1,,,,,アースメイクラボ,0
2241,7180001151578,新規,0,2022-06-03,2022-06-03,株式会社三木組,,株式会社,愛知県,あま市,中萱津足川５３番地,,23,237,4901113,,,,,,,2022-06-03,1,,,,,ミキグミ,0
2242,7180001151603,新規,0,2022-06-03,2022-06-03,株式会社Ｐ‐ｎｕｔｔｓ．,,株式会社,愛知県,一宮市,大和町馬引字郷東１番地２９パーク・ホームズ一宮５０７号,,23,203,4910931,,,,,,,2022-06-03,1,,,,,ピーナッツ,0
2247,7180301036289,新規,0,2022-06-03,2022-06-03,ＤＡＩＭＡＴＳＵホールディングス株式会社,,株式会社,愛知県,豊橋市,天伯町字春日野１０３番地５,,23,201,4418122,,,,,,,2022-06-03,1,,,,,ダイマツホールディングス,0
2255,7200001040118,新規,0,2022-06-03,2022-06-03,株式会社鮫島技建,,株式会社,岐阜県,美濃市,長瀬１９０番地１,,21,207,5013782,,,,,,,2022-06-03,1,,,,,サメジマギケン,0
2256,7200001040126,新規,0,2022-06-03,2022-06-03,株式会社Ｋ‐ｓｕｐｐｏｒｔ岐阜,,株式会社,岐阜県,養老郡養老町,有尾２０－４,,21,341,5031277,,,,,,,2022-06-03,1,,,,,ケイサポートギフ,0
2258,7200003005580,新規,0,2022-06-03,2022-06-03,合同会社鵜飼鋸加工所,,合同会社,岐阜県,瑞浪市,一色町２丁目１０９番地,,21,208,5096124,,,,,,,2022-06-03,1,,,,,ウカイノコカコウジョ,0
2261,7220001024894,新規,0,2022-06-03,2022-06-03,株式会社Ｕｔｓｕｗａ８３,,株式会社,石川県,小松市,白江町ハ７１番地１,,17,203,9230811,,,,,,,2022-06-03,1,,,,,ウツワヤサン,0
2267,7240001059856,新規,0,2022-06-03,2022-06-03,株式会社ミューズアートコーポレーション,,株式会社,広島県,広島市佐伯区,河内南２丁目１８番１６号,,34,108,7315153,,,,,,,2022-06-03,1,,,,,ミューズアートコーポレーション,0
2272,7250001019603,新規,0,2022-06-03,2022-06-03,クボタ電気工事株式会社,,株式会社,山口県,宇部市,上野中町８番３７号,,35,202,7550092,,,,,,,2022-06-03,1,,,,,クボタデンキコウジ,0
2280,7260003003934,新規,0,2022-06-03,2022-06-03,合同会社スプリング,,合同会社,岡山県,倉敷市,沖２２８番地,,33,202,7100836,,,,,,,2022-06-03,1,,,,,スプリング,0
2281,7270001008538,新規,0,2022-06-03,2022-06-03,ＦＲＯＮＴＩＥＲ株式会社,,株式会社,鳥取県,倉吉市,中河原３９９番地１,,31,203,6820856,,,,,,,2022-06-03,1,,,,,フロンティア,0
2284,7280001008702,新規,0,2022-06-03,2022-06-03,株式会社堀啓,,株式会社,島根県,益田市,あけぼの本町１１番地１７,,32,204,6980026,,,,,,,2022-06-03,1,,,,,ホリケイ,0
2291,7290001097728,新規,0,2022-06-03,2022-06-03,プロスエーアンドエヌ株式会社,,株式会社,福岡県,福岡市博多区,博多駅南５丁目２番２９－６０１号,,40,132,8120016,,,,,,,2022-06-03,1,,,,,プロスエーアンドエヌ,0
2292,7290001097736,新規,0,2022-06-03,2022-06-03,株式会社ファイン,,株式会社,福岡県,柳川市,西浜武５７５番地１,,40,207,8320081,,,,,,,2022-06-03,1,,,,,ファイン,0
2293,7290001097777,新規,0,2022-06-03,2022-06-03,株式会社ＵＮＩＴＥＤ　ＬＩＢＥＲＴＹ,,株式会社,福岡県,福岡市博多区,那珂６丁目１５番８号,00126758,40,132,8120893,,,,,,,2022-06-03,1,,,,,ユナイテッドリバティ,0
2294,7290001097785,新規,0,2022-06-03,2022-06-03,Ｅプラ株式会社,,株式会社,福岡県,福岡市東区,土井３丁目１７番１７－２０６号,,40,131,8130032,,,,,,,2022-06-03,1,,,,,イープラ,0
2295,7290001097793,新規,0,2022-06-03,2022-06-03,株式会社さくら商会,,株式会社,福岡県,福岡市城南区,梅林４丁目１－１城里生ビル１Ｆ,,40,136,8140144,,,,,,,2022-06-03,1,,,,,サクラショウカイ,0
2296,7290003012577,新規,0,2022-06-03,2022-06-03,レジデンス山門合同会社,,合同会社,福岡県,福岡市西区,下山門４丁目１０番１６号,,40,135,8190052,,,,,,,2022-06-03,1,,,,,レジデンスヤマト,0
2297,7290005018705,新規,0,2022-06-03,2022-06-03,税理士法人グロースアクト,,その他の設立登記法人,福岡県,福岡市南区,的場２丁目２５番５号中原ビル４０１,,40,134,8111314,,,,,,,2022-06-03,1,,,,,グロースアクト,0
2301,7300001012949,新規,0,2022-06-03,2022-06-03,ケーブルオガワ株式会社,,株式会社,佐賀県,多久市,北多久町大字小侍４６１９番地４,,41,204,8460002,,,,,,,2022-06-03,1,,,,,ケーブルオガワ,0
2302,7300003001850,新規,0,2022-06-03,2022-06-03,合同会社Ｖｉｊｕａｌ　Ｐｏｉｎｔ,,合同会社,佐賀県,佐賀市,大和町久池井２０１１－１５,,41,201,8490000,,,,,,,2022-06-03,1,,,,,ヴィジュアルポイント,0
2303,7310001017889,新規,0,2022-06-03,2022-06-03,株式会社湊鉄工,,株式会社,長崎県,西海市,西彼町小迎郷１０３２番地１,,42,212,8513422,,,,,,,2022-06-03,1,,,,,ミナトテッコウ,0
2304,7310001017897,新規,0,2022-06-03,2022-06-03,株式会社吉田組,,株式会社,長崎県,島原市,寺中町丙２４０８番地,,42,203,8550006,,,,,,,2022-06-03,1,,,,,ヨシダグミ,0
2313,7340001024767,新規,0,2022-06-03,2022-06-03,ＷｉｎＷｉｎ株式会社,,株式会社,鹿児島県,指宿市,山川福元５７６３番地,,46,210,8910511,,,,,,,2022-06-03,1,,,,,ウインウイン,0
2314,7340001024783,新規,0,2022-06-03,2022-06-03,株式会社アンサーグループ,,株式会社,鹿児島県,鹿児島市,石谷町２５０７番地１,,46,201,8992701,,,,,,,2022-06-03,1,,,,,アンサーグループ,0
2317,7340003003819,新規,0,2022-06-03,2022-06-03,合同会社ＢＥＣＴ,,合同会社,鹿児島県,鹿屋市,串良町上小原４５２４番地２８,,46,203,8931605,,,,,,,2022-06-03,1,,,,,ベクト,0
2318,7350001017778,新規,0,2022-06-03,2022-06-03,株式会社本田,,株式会社,宮崎県,日向市,大字細島１０８番地１０,,45,206,8830001,,,,,,,2022-06-03,1,,,,,ホンダ,0
2326,7380001032857,新規,0,2022-06-03,2022-06-03,株式会社ラプラス,,株式会社,福島県,郡山市,開成５丁目１８番２０号マイシティ開成２階,,07,203,9638851,,,,,,,2022-06-03,1,,,,,ラプラス,0
2337,7410003003670,新規,0,2022-06-03,2022-06-03,合同会社すまいる東北カンパニー,,合同会社,秋田県,秋田市,手形字十七流２０４番地,,05,201,0100851,,,,,,,2022-06-03,1,,,,,スマイルトウホクカンパニー,0
2342,7420001017878,新規,0,2022-06-03,2022-06-03,株式会社青森ホース,,株式会社,青森県,青森市,新田１丁目１０番２０号,,02,201,0380001,,,,,,,2022-06-03,1,,,,,アオモリホース,0
2350,7450005004341,新規,0,2022-06-03,2022-06-03,一般社団法人ソエルテ北海道,,その他の設立登記法人,北海道,旭川市,緑町２４丁目２１４３番地の５２,,01,204,0700823,,,,,,,2022-06-03,1,,,,,ソエルテホッカイドウ,0
2353,7460003000903,新規,0,2022-06-03,2022-06-03,合同会社ハイタッチ,,合同会社,北海道,釧路市,貝塚２丁目２３番４７号,,01,206,0850816,,,,,,,2022-06-03,1,,,,,ハイタッチ,0
2361,7500001024255,新規,0,2022-06-03,2022-06-03,空求建築設計工務株式会社,,株式会社,愛媛県,今治市,地堀３丁目１番１号,,38,202,7992117,,,,,,,2022-06-03,1,,,,,クウグケンチクセッケイコウム,0
2364,7700150107617,新規,0,2022-06-03,2022-04-01,スロームーブメント静岡実行委員会,,その他,静岡県,静岡市駿河区,有東１丁目１０－１８,,22,102,4228032,,,,,,,2022-04-01,1,,,,,スロームーブメントシズオカジツコウイインカイ,0
2369,8010001227071,新規,0,2022-06-03,2022-06-03,株式会社オルラカビナ,,株式会社,東京都,中央区,日本橋小伝馬町１６番１２号,,13,102,1030001,,,,,,,2022-06-03,1,,,,,オルラカビナ,0
2370,8010001227113,新規,0,2022-06-03,2022-06-03,大堯株式会社,,株式会社,東京都,中央区,東日本橋２丁目２８番４号日本橋ＣＥＴビル２階,,13,102,1030004,,,,,,,2022-06-03,1,,,,,ダイギョウ,0
2374,8010003037808,新規,0,2022-06-03,2022-06-03,紀の川蓄電所合同会社,,合同会社,東京都,千代田区,丸の内３丁目１番１号東京共同会計事務所内,,13,101,1000005,,,,,,,2022-06-03,1,,,,,キノカワチクデンショ,0
2383,8010401167710,新規,0,2022-06-03,2022-06-03,六六タイガー株式会社,,株式会社,東京都,港区,六本木６丁目１０番１号六本木ヒルズ森タワー１６階,,13,103,1060032,,,,,,,2022-06-03,1,,,,,ロクロクタイガー,0
2396,8010601061267,新規,0,2022-06-03,2022-06-03,株式会社ＬＵＮＥ,,株式会社,東京都,墨田区,千歳１丁目２－４プラウドフラット両国サウス５１７号室,,13,107,1300025,,,,,,,2022-06-03,1,,,,,ルーン,0
2398,8010603009561,新規,0,2022-06-03,2022-06-03,合同会社赤と青,,合同会社,東京都,江東区,木場５丁目８番４１－６０５号,,13,108,1350042,,,,,,,2022-06-03,1,,,,,アカトアオ,0
2403,8010801033017,新規,0,2022-06-03,2022-06-03,株式会社ＮＥＸＴｐｌａｎｎｉｎｇ,,株式会社,東京都,大田区,中央６丁目２２番１４号,,13,111,1430024,,,,,,,2022-06-03,1,,,,,ネクストプランニング,0
2406,8010901050969,新規,0,2022-06-03,2022-06-03,楽天モバイルインフラソリューション株式会社,,株式会社,東京都,世田谷区,玉川１丁目１４番１号,,13,112,1580094,,,,,,,2022-06-03,1,,,,,ラクテンモバイルインフラソリューション,0
2410,8010903007406,新規,0,2022-06-03,2022-06-03,合同会社ＧＣＨ　ＴＫＣ,,合同会社,東京都,世田谷区,岡本１丁目１７－１８岡本グリーンハイツ２０３,,13,112,1570076,,,,,,,2022-06-03,1,,,,,グッチティーケーシー,0
2411,8010903007414,新規,0,2022-06-03,2022-06-03,合同会社ラフプラン,,合同会社,東京都,世田谷区,粕谷２丁目２４番１－３１８号,,13,112,1570063,,,,,,,2022-06-03,1,,,,,ラフプラン,0
2414,8011001147854,新規,0,2022-06-03,2022-06-03,株式会社ＬＡＮＣＥ,,株式会社,東京都,渋谷区,神宮前６丁目２３番４号桑野ビル２Ｆ,,13,113,1500001,,,,,,,2022-06-03,1,,,,,ランス,0
2416,8011003014755,新規,0,2022-06-03,2022-06-03,ＫＣＳＣ合同会社,,合同会社,東京都,渋谷区,道玄坂１丁目１０番８号渋谷道玄坂東急ビル２Ｆ―Ｃ,,13,113,1500043,,,,,,,2022-06-03,1,,,,,ケイシーエスシー,0
2417,8011003014771,新規,0,2022-06-03,2022-06-03,合同会社ＮＥＯ　ＴＯＫＹＯ,,合同会社,東京都,渋谷区,代々木１丁目３－７－２０１,,13,113,1510053,,,,,,,2022-06-03,1,,,,,ネオトウキョウ,0
2427,8011101099062,新規,0,2022-06-03,2022-06-03,株式会社色香和,,株式会社,東京都,新宿区,高田馬場４丁目２３番２０号,,13,104,1690075,,,,,,,2022-06-03,1,,,,,イロカワ,0
2428,8011101099087,新規,0,2022-06-03,2022-06-03,株式会社ＤＪＳ,,株式会社,東京都,新宿区,新宿３丁目２３番４号新宿黒澤ビル二階,,13,104,1600022,,,,,,,2022-06-03,1,,,,,ディージェイエス,0
2429,8011401024273,新規,0,2022-06-03,2022-06-03,文華株式会社,,株式会社,東京都,板橋区,板橋２丁目６４番１０号板橋新生ビル３０５号室,,13,119,1730004,,,,,,,2022-06-03,1,,,,,ブンカ,0
2430,8011401024281,新規,0,2022-06-03,2022-06-03,株式会社ＡＫＩＭＩＣＨＩ,,株式会社,東京都,板橋区,前野町３丁目３３番１－９１３号,,13,119,1740063,,,,,,,2022-06-03,1,,,,,アキミチ,0
2432,8011601026004,新規,0,2022-06-03,2022-06-03,株式会社日本冒険映像,,株式会社,東京都,練馬区,桜台２丁目５２番７号,,13,120,1760002,,,,,,,2022-06-03,1,,,,,ニホンボウケンエイゾウ,0
2437,8012701017082,新規,0,2022-06-03,2022-06-03,株式会社Ｓｕｇａｒｔｏｐ,,株式会社,東京都,東村山市,本町２丁目４番地１０３眞和ビル１階,,13,213,1890014,,,,,,,2022-06-03,1,,,,,シュガートップ,0
2438,8012703002470,新規,0,2022-06-03,2022-06-03,Ｐｒｏｄｕｃｅ　Ｏｎｅ合同会社,,合同会社,東京都,東村山市,久米川町２丁目３１番地５４,,13,213,1890003,,,,,,,2022-06-03,1,,,,,プロデュースワン,0
2451,8020003021868,新規,0,2022-06-03,2022-06-03,正保ビジネスサポート合同会社,,合同会社,神奈川県,横浜市磯子区,杉田１丁目１番１－１４１０号,,14,107,2350033,,,,,,,2022-06-03,1,,,,,ショウホウビジネスサポート,0
2453,8021001076086,新規,0,2022-06-03,2022-06-03,株式会社Ｌｉｔｔｌｅ　Ｈａｐｐｙ,,株式会社,神奈川県,横須賀市,佐原５丁目１４番２－４号,,14,201,2390835,,,,,,,2022-06-03,1,,,,,リトルハッピー,0
2454,8021001076160,新規,0,2022-06-03,2022-06-03,株式会社ＬＩＦＩＸ,,株式会社,神奈川県,平塚市,紅谷町１３－４大雄ビル２Ｆ,,14,203,2540043,,,,,,,2022-06-03,1,,,,,リフィックス,0
2467,8030001148472,新規,0,2022-06-03,2022-06-03,株式会社小川塗装,,株式会社,埼玉県,所沢市,大字山口２３５番地の２ハイツ山田Ｂ－１０１,,11,208,3591145,,,,,,,2022-06-03,1,,,,,オガワトソウ,0
2468,8030001148480,新規,0,2022-06-03,2022-06-03,株式会社りぼーん,,株式会社,埼玉県,春日部市,増富６７２番４１号,,11,214,3440041,,,,,,,2022-06-03,1,,,,,リボーン,0
2469,8030001148555,新規,0,2022-06-03,2022-06-03,株式会社ＡＴＨＥＮＡ,,株式会社,埼玉県,さいたま市桜区,田島３丁目２９－６,,11,106,3380837,,,,,,,2022-06-03,1,,,,,アテナ,0
2476,8040001123672,新規,0,2022-06-03,2022-06-03,ＡＭＩＲＩ株式会社,,株式会社,千葉県,四街道市,美しが丘１丁目３１番７号ティファニーＡ１０１,,12,228,2840045,,,,,,,2022-06-03,1,,,,,アミリ,0
2477,8040001123714,新規,0,2022-06-03,2022-06-03,みまもりコール株式会社,,株式会社,千葉県,千葉市美浜区,中瀬１丁目３番地幕張テクノガーデンＣＢ棟３階,,12,106,2610023,,,,,,,2022-06-03,1,,,,,ミマモリコール,0
2478,8040001123722,新規,0,2022-06-03,2022-06-03,株式会社９Ｚ,,株式会社,千葉県,東金市,下谷８０番地７８,,12,213,2830054,,,,,,,2022-06-03,1,,,,,キューゼット,0
2488,8060001034926,新規,0,2022-06-03,2022-06-03,株式会社峯岸技研,,株式会社,栃木県,小山市,大字羽川２８１番地５,,09,208,3230012,,,,,,,2022-06-03,1,,,,,ミネギシケン,0
2491,8080001024974,新規,0,2022-06-03,2022-06-03,株式会社プロパティ,,株式会社,静岡県,島田市,向島町３０８３番地の４,,22,209,4270045,,,,,,,2022-06-03,1,,,,,プロパティ,0
2492,8080001024982,新規,0,2022-06-03,2022-06-03,エイチ・アイ・プランニング株式会社,,株式会社,静岡県,静岡市葵区,本通６丁目５番地の１,,22,101,4200064,,,,,,,2022-06-03,1,,,,,エイチアイプランニング,0
2494,8080003002813,新規,0,2022-06-03,2022-06-03,ＳＤＲＳ合同会社,,合同会社,静岡県,静岡市葵区,大岩１丁目６番１２－６号,,22,101,4200886,,,,,,,2022-06-03,1,,,,,エスディーアールズ,0
2497,8080401025845,新規,0,2022-06-03,2022-06-03,株式会社北風と太陽,,株式会社,静岡県,浜松市中区,中央２丁目９番１５号,,22,131,4300929,,,,,,,2022-06-03,1,,,,,キタカゼトタイヨウ,0
2498,8080401025861,新規,0,2022-06-03,2022-06-03,株式会社ＪＡＭＰＡＣＫ,,株式会社,静岡県,浜松市中区,和合町２２０番地の８４９,,22,131,4338125,,,,,,,2022-06-03,1,,,,,ジャムパック,0
2503,8090001017597,新規,0,2022-06-03,2022-06-03,株式会社ＵＭＡＭＩ,,株式会社,山梨県,韮崎市,中央町３番９号,,19,207,4070023,,,,,,,2022-06-03,1,,,,,ウマミ,0
2504,8090001017606,新規,0,2022-06-03,2022-06-03,株式会社清里ミルクプラント,,株式会社,山梨県,北杜市,高根町清里３５４５番地２６５,,19,209,4070301,,,,,,,2022-06-03,1,,,,,キヨサトミルクプラント,0
2507,8100001035408,新規,0,2022-06-03,2022-06-03,株式会社ＴＡＣ‐Ｋ,,株式会社,長野県,茅野市,金沢２７７７番地３,,20,214,3910012,,,,,,,2022-06-03,1,,,,,タック,0
2511,8110001036693,新規,0,2022-06-03,2022-06-03,株式会社伊丹電機,,株式会社,新潟県,新潟市西区,立仏１１９１－２,,15,107,9501103,,,,,,,2022-06-03,1,,,,,イタミデンキ,0
2512,8110001036710,新規,0,2022-06-03,2022-06-03,株式会社ワールドウィング新潟,,株式会社,新潟県,新潟市江南区,下早通柳田２丁目２番１７号,,15,104,9500150,,,,,,,2022-06-03,1,,,,,ワールドウィングニイガタ,0
2518,8120001246135,新規,0,2022-06-03,2022-06-03,京偉株式会社,,株式会社,大阪府,大阪市住吉区,我孫子東３丁目１４－３－５０１号,,27,120,5580013,,,,,,,2022-06-03,1,,,,,キョウイ,0
2519,8120001246333,新規,0,2022-06-03,2022-06-03,株式会社ＺＥＲＯ警備,,株式会社,大阪府,大阪市平野区,長吉長原３丁目５番２３号,,27,126,5470016,,,,,,,2022-06-03,1,,,,,ゼロケイビ,0
2520,8120001246374,新規,0,2022-06-03,2022-06-03,株式会社鍵研究所,,株式会社,大阪府,守口市,西郷通１丁目９番１３号,,27,209,5700034,,,,,,,2022-06-03,1,,,,,カギケンキュウショ,0
2521,8120001246382,新規,0,2022-06-03,2022-06-03,株式会社クリアリバー,,株式会社,大阪府,大阪市阿倍野区,阪南町１丁目１０番６号,,27,119,5450021,,,,,,,2022-06-03,1,,,,,クリアリバー,0
2522,8120001246399,新規,0,2022-06-03,2022-06-03,株式会社ＤＫ　Ｉｎｎｏｖａｔｉｏｎ　Ｊａｐａｎ,,株式会社,大阪府,大阪市中央区,久太郎町２丁目５番６号,,27,128,5410056,,,,,,,2022-06-03,1,,,,,ディーケーイノベーションジャパン,0
2525,8120003021809,新規,0,2022-06-03,2022-06-03,合同会社ｂｅｌｉｅｖｅ,,合同会社,大阪府,大阪市西成区,山王２丁目６番１０号,,27,122,5570001,,,,,,,2022-06-03,1,,,,,,0
2526,8120003021825,新規,0,2022-06-03,2022-06-03,合同会社谷垣,,合同会社,大阪府,大阪市生野区,林寺２丁目１０番１２号,,27,116,5440023,,,,,,,2022-06-03,1,,,,,タニガキ,0
2540,8122001035914,新規,0,2022-06-03,2022-06-03,株式会社ＤＯＴＥＤＡ,,株式会社,大阪府,東大阪市,南荘町１番７号,,27,227,5798024,,,,,,,2022-06-03,1,,,,,ドテダ,0
2545,8130001071920,新規,0,2022-06-03,2022-06-03,ヴェイ・エステート株式会社,,株式会社,京都府,京都市左京区,岩倉幡枝町２７７５番地２,,26,103,6060015,,,,,,,2022-06-03,1,,,,,ヴェイエステート,0
2546,8130001071937,新規,0,2022-06-03,2022-06-03,株式会社情熱,,株式会社,京都府,京都市西京区,嵐山薬師下町４－１０,,26,111,6160026,,,,,,,2022-06-03,1,,,,,ジョウネツ,0
2549,8130003007963,新規,0,2022-06-03,2022-06-03,合同会社ＤｅａｒＰａｒｔｎｅｒｓ,,合同会社,京都府,京田辺市,同志社山手３丁目１番地６４,,26,211,6100315,,,,,,,2022-06-03,1,,,,,ディアパートナー,0
2550,8130003007971,新規,0,2022-06-03,2022-06-03,合同会社ＣＯＣＯ,,合同会社,京都府,京都市右京区,鳴滝音戸山町４－２０７,,26,108,6168255,,,,,,,2022-06-03,1,,,,,ココ,0
2558,8140001126211,新規,0,2022-06-03,2022-06-03,株式会社Ｌ‐Ｂａｓｅ,,株式会社,兵庫県,神戸市西区,池上２丁目２０－１,,28,111,6512111,,,,,,,2022-06-03,1,,,,,エルベース,0
2559,8140001126228,新規,0,2022-06-03,2022-06-03,株式会社ＲＳフィールド,,株式会社,兵庫県,芦屋市,岩園町４８番１１号,,28,206,6590013,,,,,,,2022-06-03,1,,,,,アールエスフィールド,0
2560,8140001126269,新規,0,2022-06-03,2022-06-03,株式会社スマイル開発,,株式会社,兵庫県,神戸市須磨区,若草町３丁目１０番地の６,,28,107,6540112,,,,,,,2022-06-03,1,,,,,スマイルカイハツ,0
2561,8140001126285,新規,0,2022-06-03,2022-06-03,株式会社ピースロジック,,株式会社,兵庫県,尼崎市,武庫豊町３丁目４番１－７０５号,,28,202,6610045,,,,,,,2022-06-03,1,,,,,ピースロジック,0
2564,8150001025593,新規,0,2022-06-03,2022-06-03,株式会社Ｒｅｂｅｒｔｙ,,株式会社,奈良県,大和郡山市,筒井町２３６番地１２,,29,203,6391123,,,,,,,2022-06-03,1,,,,,リバティ,0
2567,8160003002581,新規,0,2022-06-03,2022-06-03,タグフィールド合同会社,,合同会社,滋賀県,守山市,伊勢町３９６番地１リジェール３０１号,,25,207,5240036,,,,,,,2022-06-03,1,,,,,タグフィールド,0
2570,8170001017135,新規,0,2022-06-03,2022-06-03,株式会社マサキ,,株式会社,和歌山県,西牟婁郡白浜町,１０６２番地の１４,,30,401,6492211,,,,,,,2022-06-03,1,,,,,マサキ,0
2572,8170003001731,新規,0,2022-06-03,2022-06-03,合同会社ハロ,,合同会社,和歌山県,和歌山市,永山４８－１,,30,201,6400302,,,,,,,2022-06-03,1,,,,,ハロ,0
2576,8180001151552,新規,0,2022-06-03,2022-06-03,株式会社ＬＦＣ,,株式会社,愛知県,名古屋市南区,豊田５丁目１０番７号,,23,112,4570841,,,,,,,2022-06-03,1,,,,,エルエフシー,0
2577,8180001151569,新規,0,2022-06-03,2022-06-03,株式会社かわばん,,株式会社,愛知県,名古屋市守山区,今尻町１２１０番地,,23,113,4630023,,,,,,,2022-06-03,1,,,,,カワバン,0
2578,8180001151577,新規,0,2022-06-03,2022-06-03,株式会社Ｄａｉｙｕ,,株式会社,愛知県,春日井市,下市場町６丁目６番地１０,,23,206,4860852,,,,,,,2022-06-03,1,,,,,ダイユー,0
2579,8180001151602,新規,0,2022-06-03,2022-06-03,株式会社ピースタジオ,,株式会社,愛知県,名古屋市千種区,猫洞通２丁目１７三旺マンション第２猫洞１０２,,23,101,4640032,,,,,,,2022-06-03,1,,,,,ピースタジオ,0
2581,8180005019787,新規,0,2022-06-03,2022-06-03,一般社団法人日本最先端技術研究所,,その他の設立登記法人,愛知県,名古屋市西区,名駅１丁目１番１７号名駅ダイヤメイテツビル１１階,,23,104,4510045,,,,,,,2022-06-03,1,,,,,ニホンサイセンタンギジュツケンキュウジョ,0
2594,8220001024885,新規,0,2022-06-03,2022-06-03,株式会社ＬＩＧ,,株式会社,石川県,金沢市,松村町ヌ２１０番地,,17,201,9200347,,,,,,,2022-06-03,1,,,,,リグ,0
2595,8220001024893,新規,0,2022-06-03,2022-06-03,株式会社空師,,株式会社,石川県,能美郡川北町,字土室丙１１４番地７８,,17,324,9231261,,,,,,,2022-06-03,1,,,,,ソラシ,0
2597,8220005008678,新規,0,2022-06-03,2022-06-03,一般社団法人ベイビーヒップス,,その他の設立登記法人,石川県,金沢市,下柿木畠１番地１５,,17,201,9200991,,,,,,,2022-06-03,1,,,,,ベイビーヒップス,0
2602,8240001059847,新規,0,2022-06-03,2022-06-03,株式会社ＯＫエステート,,株式会社,広島県,廿日市市,宮内１０９５番地１,,34,213,7380034,,,,,,,2022-06-03,1,,,,,オーケーエステート,0
2603,8240001059855,新規,0,2022-06-03,2022-06-03,株式会社デスクワークラボ,,株式会社,広島県,東広島市,西条町下見１１２０番地９,,34,212,7390044,,,,,,,2022-06-03,1,,,,,デスクワークラボ,0
2607,8250001019593,新規,0,2022-06-03,2022-06-03,株式会社小藤鈑金,,株式会社,山口県,防府市,大字切畑１３０４番地の１,,35,206,7471231,,,,,,,2022-06-03,1,,,,,コフジバンキン,0
2612,8260001036893,新規,0,2022-06-03,2022-06-03,株式会社一翔工業,,株式会社,岡山県,倉敷市,東富井９５８番地１,,33,202,7100847,,,,,,,2022-06-03,1,,,,,イチショウコウギョウ,0
2614,8280001008701,新規,0,2022-06-03,2022-06-03,株式会社ＯＹＧ,,株式会社,島根県,浜田市,三隅町三隅１０６２番地サンポートＹ１０２号室,,32,202,6993211,,,,,,,2022-06-03,1,,,,,オーワイジー,0
2621,8290001097719,新規,0,2022-06-03,2022-06-03,株式会社ＦＩＲＳＴ　ＥＳＳＥＮＣＥ,,株式会社,福岡県,福岡市中央区,薬院３丁目１１番４０－７０１号,,40,133,8100022,,,,,,,2022-06-03,1,,,,,ファーストエッセンス,0
2622,8290001097735,新規,0,2022-06-03,2022-06-03,株式会社ミューズ,,株式会社,福岡県,福岡市博多区,竹下１丁目１１番１１号,,40,132,8120895,,,,,,,2022-06-03,1,,,,,ミューズ,0
2623,8290001097751,新規,0,2022-06-03,2022-06-03,三つ葉株式会社,,株式会社,福岡県,久留米市,藤山町１５３９番地１,,40,203,8300053,,,,,,,2022-06-03,1,,,,,ミツバ,0
2624,8290001097768,新規,0,2022-06-03,2022-06-03,株式会社城美建設,,株式会社,福岡県,糸島市,高田５丁目２４番１－１０１号,,40,230,8191102,,,,,,,2022-06-03,1,,,,,ジョウビケンセツ,0
2635,8330001029782,新規,0,2022-06-03,2022-06-03,建築工房なかむら株式会社,,株式会社,熊本県,球磨郡錦町,大字西２０７番地４,,43,501,8680303,,,,,,,2022-06-03,1,,,,,ケンチクコウボウナカムラ,0
2636,8330001029799,新規,0,2022-06-03,2022-06-03,株式会社Ｔｕｒｎ　ｗａｙ,,株式会社,熊本県,熊本市北区,清水新地４丁目８番２０号,,43,105,8618075,,,,,,,2022-06-03,1,,,,,ターンウェイ,0
2637,8330003009394,新規,0,2022-06-03,2022-06-03,合同会社ファミリーホームふじのさと,,合同会社,熊本県,熊本市北区,龍田６丁目１７番４号,,43,105,8618006,,,,,,,2022-06-03,1,,,,,ファミリーホームフジノサト,0
2641,8340001024774,新規,0,2022-06-03,2022-06-03,株式会社オートリペア櫨本,,株式会社,鹿児島県,出水市,武本３１３７番地５,,46,208,8990215,,,,,,,2022-06-03,1,,,,,オートリペアハゼモト,0
2642,8340003003818,新規,0,2022-06-03,2022-06-03,合同会社吉嶺企画,,合同会社,鹿児島県,鹿児島市,下伊敷２丁目１７番６号,,46,201,8900005,,,,,,,2022-06-03,1,,,,,ヨシミネキカク,0
2644,8350001017769,新規,0,2022-06-03,2022-06-03,株式会社ＦＥＲＮＡ,,株式会社,宮崎県,宮崎市,大字赤江１６番地１,,45,201,8800912,,,,,,,2022-06-03,1,,,,,フェルナ,0
2645,8350001017777,新規,0,2022-06-03,2022-06-03,株式会社高千穂まちづくり公社,,株式会社,宮崎県,西臼杵郡高千穂町,大字三田井８０２番地３,,45,441,8821101,,,,,,,2022-06-03,1,,,,,タカチホマチヅクリコウシャ,0
2648,8350003004096,新規,0,2022-06-03,2022-06-03,合同会社一心木材,,合同会社,宮崎県,えびの市,大字栗下８９７番地,,45,209,8894221,,,,,,,2022-06-03,1,,,,,イッシンモクザイ,0
2651,8360003012057,新規,0,2022-06-03,2022-06-03,合同会社ｍｄｓ　ｇｒｏｕｐ,,合同会社,沖縄県,那覇市,真嘉比１丁目１６番１８号リアンケイ１０１号,,47,201,9020068,,,,,,,2022-06-03,1,,,,,エムディーエスグループ,0
2653,8370001048622,新規,0,2022-06-03,2022-06-03,株式会社シーワーク,,株式会社,宮城県,石巻市,茜平３丁目１番地４,,04,202,9860866,,,,,,,2022-06-03,1,,,,,シーワーク,0
2654,8370001048639,新規,0,2022-06-03,2022-06-03,仁和金属株式会社,,株式会社,宮城県,柴田郡柴田町,船岡土手内３丁目１番地２８メゾン船岡１０７,,04,323,9891602,,,,,,,2022-06-03,1,,,,,ジンワキンゾク,0
2656,8370003005720,新規,0,2022-06-03,2022-06-03,合同会社Ｙａｒｋ’ｓ,,合同会社,宮城県,柴田郡柴田町,槻木白幡４丁目６番５号,,04,323,9891754,,,,,,,2022-06-03,1,,,,,ヤークス,0
2657,8370005010487,新規,0,2022-06-03,2022-06-03,一般社団法人ｎｅｔｏｍ,,その他の設立登記法人,宮城県,東松島市,大塚字長浜１４３,,04,214,9810414,,,,,,,2022-06-03,1,,,,,ネットム,0
2660,8380003005190,新規,0,2022-06-03,2022-06-03,合同会社Ｌａ　Ｕｎｉｏｎ,,合同会社,福島県,福島市,大町１番１２号,,07,201,9608041,,,,,,,2022-06-03,1,,,,,,0
2668,8410001013200,新規,0,2022-06-03,2022-06-03,Ｃｒｅｅｒ　Ｏｆ　Ｔａｌｅｓ株式会社,,株式会社,秋田県,秋田市,広面字土手下１４番地２,,05,201,0100041,,,,,,,2022-06-03,1,,,,,クレエオブテイルズ,0
2673,8430001086764,新規,0,2022-06-03,2022-06-03,株式会社Ａ　ｔｅｃｈ,,株式会社,北海道,札幌市西区,琴似一条６丁目２番１－１０５号,,01,107,0630811,,,,,,,2022-06-03,1,,,,,エーテック,0
2674,8430003013972,新規,0,2022-06-03,2022-06-03,合同会社ＥＬＣＡＭＩＮＯ,,合同会社,北海道,白老郡白老町,字虎杖浜１８４番地１０,,01,578,0590641,,,,,,,2022-06-03,1,,,,,エルカミーノ,0
2675,8440003001464,新規,0,2022-06-03,2022-06-03,合同会社ＩｎＨｅａｌｉｎｇ,,合同会社,北海道,函館市,石川町４６１－１９,,01,202,0410802,,,,,,,2022-06-03,1,,,,,インヒーリング,0
2678,8450003002214,新規,0,2022-06-03,2022-06-03,合同会社ＮＡＫＡＦＵＲＡＮＯ　ＢＲＥＷＥＲＹ,,合同会社,北海道,空知郡中富良野町,北町９－２,,01,461,0710751,,,,,,,2022-06-03,1,,,,,ナカフラノブルワリー,0
2687,8480001011759,新規,0,2022-06-03,2022-06-03,株式会社古森エンジニアリング,,株式会社,徳島県,徳島市,南仲之町１丁目２５番地,,36,201,7700933,,,,,,,2022-06-03,1,,,,,フルモリエンジニアリング,0
2694,8500001024262,新規,0,2022-06-03,2022-06-03,ブルーローズ・凜株式会社,,株式会社,愛媛県,松山市,中一万町５番地１２,,38,201,7900804,,,,,,,2022-06-03,1,,,,,ブルーローズリン,0
2696,8500003002844,新規,0,2022-06-03,2022-06-03,合同会社Ｋｏｔａｂｏａｔ,,合同会社,愛媛県,松山市,高岡町６５３番地９－１Ｆ,,38,201,7918036,,,,,,,2022-06-03,1,,,,,コタボート,0
2698,8700150108993,新規,0,2022-06-03,2022-05-25,能楽寺井父娘会,,その他,神奈川県,横浜市神奈川区,松見町３丁目９４０－３６,,14,102,2210005,,,,,,,2022-05-25,1,,,,,ノウガクテライオヤコカイ,0
2704,9010001227112,新規,0,2022-06-03,2022-06-03,ＩＮＫ株式会社,,株式会社,東京都,千代田区,六番町４番地５,,13,101,1020085,,,,,,,2022-06-03,1,,,,,インク,0
2708,9010005035098,新規,0,2022-06-03,2022-06-03,一般社団法人オルタナ１３,,その他の設立登記法人,東京都,千代田区,丸の内３丁目１番１号東京共同会計事務所内,,13,101,1000005,,,,,,,2022-06-03,1,,,,,オルタナサーティーン,0
2709,9010101015193,新規,0,2022-06-03,2022-06-03,株式会社テーラーズ,,株式会社,東京都,八王子市,谷野町７１９番地７３９,,13,201,1920016,,,,,,,2022-06-03,1,,,,,テーラーズ,0
2722,9010601061258,新規,0,2022-06-03,2022-06-03,株式会社Ｍコーポレーション,,株式会社,東京都,江東区,三好１丁目８番３号,,13,108,1350022,,,,,,,2022-06-03,1,,,,,エムコーポレーション,0
2723,9010801033016,新規,0,2022-06-03,2022-06-03,株式会社藤正,,株式会社,東京都,大田区,西蒲田１丁目２番４号,,13,111,1440051,,,,,,,2022-06-03,1,,,,,フジマサ,0
2725,9010803004188,新規,0,2022-06-03,2022-06-03,合同会社Ｓｅｅｄ・Ｆ,,合同会社,東京都,大田区,蒲田本町１丁目２番５号,,13,111,1440053,,,,,,,2022-06-03,1,,,,,シードエフ,0
2729,9010901050943,新規,0,2022-06-03,2022-06-03,株式会社ＤＲＥＡＭ　ＭＡＲＫＥＴ,,株式会社,東京都,世田谷区,太子堂２丁目２２番１４号ヴィラゆり１０２,,13,112,1540004,,,,,,,2022-06-03,1,,,,,ドリームマーケット,0
2730,9010901050968,新規,0,2022-06-03,2022-06-03,株式会社ｏｎｅ’ｓ,,株式会社,東京都,世田谷区,駒沢２丁目１番５－４０２号,,13,112,1540012,,,,,,,2022-06-03,1,,,,,ワンス,0
2734,9010903007421,新規,0,2022-06-03,2022-06-03,合同会社ＡＭＥ,,合同会社,東京都,世田谷区,池尻２丁目３３番１５－８０４号,,13,112,1540001,,,,,,,2022-06-03,1,,,,,アメ,0
2735,9010905004318,新規,0,2022-06-03,2022-06-03,一般社団法人ＧＯＭＩＴＡＩＪＩ,,その他の設立登記法人,東京都,世田谷区,駒沢２丁目１６番１８号ロックダムコート３階,,13,112,1540012,,,,,,,2022-06-03,1,,,,,ゴミタイジ,0
2739,9011001147853,新規,0,2022-06-03,2022-06-03,株式会社ディレクターズＴ,,株式会社,東京都,渋谷区,渋谷３丁目２７番１１号,,13,113,1500002,,,,,,,2022-06-03,1,,,,,ディレクターズティー,0
2740,9011003014779,新規,0,2022-06-03,2022-06-03,合同会社ＩＤＥＡ　ＲＯＣＫＥＴ,,合同会社,東京都,目黒区,碑文谷５丁目２番５号Ｔ＆Ａビル５Ｆ,,13,110,1520003,,,,,,,2022-06-03,1,,,,,イデアロケット,0
2750,9011105010271,新規,0,2022-06-03,2022-06-03,行政書士法人フラット法務事務所,,その他の設立登記法人,東京都,新宿区,西新宿６丁目１２番７号,,13,104,1600023,,,,,,,2022-06-03,1,,,,,フラットホウムジムショ,0
2757,9011701025350,新規,0,2022-06-03,2022-06-03,一笙株式会社,,株式会社,東京都,江戸川区,江戸川４丁目１９カーサ茜Ｎｏ．２－１０２室,,13,123,1340013,,,,,,,2022-06-03,1,,,,,イッショウ,0
2762,9012401039260,新規,0,2022-06-03,2022-06-03,テイクス株式会社,,株式会社,東京都,多摩市,関戸５丁目１２番地の４,,13,224,2060011,,,,,,,2022-06-03,1,,,,,テイクス,0
2763,9012403005401,新規,0,2022-06-03,2022-06-03,Ｆｕｊｉ　Ｗｏｒｄｓ合同会社,,合同会社,東京都,調布市,富士見町１丁目１９番地１０,,13,208,1820033,,,,,,,2022-06-03,1,,,,,フジワーズ,0
2764,9012701017081,新規,0,2022-06-03,2022-06-03,株式会社ＲＯＮＤＯ　ｐａｌｅｔｔｅ,,株式会社,東京都,東村山市,栄町１丁目２８番地の１,,13,213,1890013,,,,,,,2022-06-03,1,,,,,ロンドパレット,0
2775,9020001146749,新規,0,2022-06-03,2022-06-03,株式会社インシュア,,株式会社,神奈川県,横浜市神奈川区,沢渡２３番地３４,,14,102,2210844,,,,,,,2022-06-03,1,,,,,インシュア,0
2776,9020001146757,新規,0,2022-06-03,2022-06-03,株式会社Ｒｅ　ｃｏｅｕｒ,,株式会社,神奈川県,川崎市中原区,今井南町１番２号アンソレイエ１０２,,14,133,2110064,,,,,,,2022-06-03,1,,,,,レクール,0
2777,9020001146773,新規,0,2022-06-03,2022-06-03,株式会社Ｓｅｃｕｒｉｔｙ＆Ｈｕｍａｎ　Ｃｏｎｎｅｃｔｉｏｎ,,株式会社,神奈川県,横浜市緑区,長津田みなみ台４丁目１番地１号,,14,113,2260018,,,,,,,2022-06-03,1,,,,,セキュリティアンドヒューマンコネクション,0
2778,9020001146823,新規,0,2022-06-03,2022-06-03,株式会社ホウコウ総合サービス,,株式会社,神奈川県,横浜市中区,尾上町５丁目７０番地－６０２,,14,104,2310015,,,,,,,2022-06-03,1,,,,,ホウコウソウゴウサービス,0
2790,9030001148463,新規,0,2022-06-03,2022-06-03,株式会社サンエルホールディングス,,株式会社,埼玉県,さいたま市見沼区,大和田町１丁目１９８８番地,,11,104,3370053,,,,,,,2022-06-03,1,,,,,サンエルホールディングス,0
2791,9030001148471,新規,0,2022-06-03,2022-06-03,光栄商会株式会社,,株式会社,埼玉県,北葛飾郡松伏町,大字大川戸２４１２番地,,11,465,3430106,,,,,,,2022-06-03,1,,,,,コウエイショウカイ,0
2792,9030001148538,新規,0,2022-06-03,2022-06-03,株式会社リクリオ,,株式会社,埼玉県,越谷市,東越谷１０丁目３番地４イキシアマンション１０５,,11,222,3430023,,,,,,,2022-06-03,1,,,,,リクリオ,0
2794,9030003019522,新規,0,2022-06-03,2022-06-03,Ｈｅｍａｎｉ　Ｈｏｌｄｉｎｇｓ　Ｊａｐａｎ合同会社,,合同会社,埼玉県,狭山市,新狭山２丁目１１番地の３２,,11,215,3501331,,,,,,,2022-06-03,1,,,,,ヘマニホールディングスジャパン,0
2797,9040001123721,新規,0,2022-06-03,2022-06-03,Ｅ．ｓｏｌｉｄ株式会社,,株式会社,千葉県,松戸市,六実２丁目２６番地の７,,12,207,2702204,,,,,,,2022-06-03,1,,,,,イーソリッド,0
2804,9050001051161,新規,0,2022-06-03,2022-06-03,株式会社菅原電通,,株式会社,茨城県,ひたちなか市,大字三反田３４１８－５,,08,221,3120021,,,,,,,2022-06-03,1,,,,,スガハラデンツウ,0
2809,9060001034933,新規,0,2022-06-03,2022-06-03,ＹＳ不動産株式会社,,株式会社,栃木県,宇都宮市,西大寛２丁目１番１７号,,09,201,3200866,,,,,,,2022-06-03,1,,,,,ワイエスフドウサン,0
2814,9080001024981,新規,0,2022-06-03,2022-06-03,株式会社ニシオ設備,,株式会社,静岡県,牧之原市,黒子８６番地,,22,226,4210504,,,,,,,2022-06-03,1,,,,,ニシオセツビ,0
2821,9080101023330,新規,0,2022-06-03,2022-06-03,株式会社三輪,,株式会社,静岡県,駿東郡長泉町,下土狩１１９４番地の５９,,22,342,4110943,,,,,,,2022-06-03,1,,,,,ミワ,0
2823,9080401025844,新規,0,2022-06-03,2022-06-03,株式会社松岡商店,,株式会社,静岡県,浜松市東区,上西町１２１９番地の３,,22,132,4350048,,,,,,,2022-06-03,1,,,,,マツオカショウテン,0
2824,9080401025852,新規,0,2022-06-03,2022-06-03,株式会社ひらの,,株式会社,静岡県,浜松市中区,曳馬４丁目１番１２号,,22,131,4300901,,,,,,,2022-06-03,1,,,,,ヒラノ,0
2825,9080401025860,新規,0,2022-06-03,2022-06-03,シェアドウゾ株式会社,,株式会社,静岡県,磐田市,西島３６７番地２９,,22,211,4380022,,,,,,,2022-06-03,1,,,,,シェアドウゾ,0
2826,9080403004557,新規,0,2022-06-03,2022-06-03,合同会社ＲＩＳＥＭＯＲＥ,,合同会社,静岡県,浜松市浜北区,於呂４３７４番地,,22,136,4340015,,,,,,,2022-06-03,1,,,,,ライズモア,0
2831,9100001035398,新規,0,2022-06-03,2022-06-03,株式会社ジンユウ金属商事,,株式会社,長野県,下高井郡木島平村,大字上木島３８番地１,,20,562,3892303,,,,,,,2022-06-03,1,,,,,ジンユウキンゾクショウジ,0
2842,9120001246316,新規,0,2022-06-03,2022-06-03,株式会社拓麻興業,,株式会社,大阪府,大阪市平野区,瓜破東３丁目５番２３号,,27,126,5470022,,,,,,,2022-06-03,1,,,,,タクマコウギョウ,0
2843,9120001246332,新規,0,2022-06-03,2022-06-03,株式会社京田設備工業,,株式会社,大阪府,大阪市阿倍野区,松虫通１丁目４番２号,,27,119,5450043,,,,,,,2022-06-03,1,,,,,キョウダセツビコウギョウ,0
2844,9120001246340,新規,0,2022-06-03,2022-06-03,株式会社ＳｏｎＳｕｎ‐Ｔｒａｄｉｎｇ,,株式会社,大阪府,大阪市福島区,野田２丁目２４番１１号,,27,103,5530005,,,,,,,2022-06-03,1,,,,,ソンサントレーディング,0
2845,9120001246407,新規,0,2022-06-03,2022-06-03,株式会社３２６,,株式会社,大阪府,大阪市中央区,島之内２丁目６番３－５０６号,,27,128,5420082,,,,,,,2022-06-03,1,,,,,サンニーロク,0
2852,9120003021808,新規,0,2022-06-03,2022-06-03,合同会社ＧＲＯＷＴＨ,,合同会社,大阪府,守口市,金田町２丁目４５番２２号,,27,209,5700011,,,,,,,2022-06-03,1,,,,,グロウス,0
2861,9120901046055,新規,0,2022-06-03,2022-06-03,福本株式会社,,株式会社,大阪府,豊中市,向丘１丁目７－１５グリーンハウス豊中５０２室,,27,203,5600053,,,,,,,2022-06-03,1,,,,,フクモト,0
2864,9120903004168,新規,0,2022-06-03,2022-06-03,合同会社ＡＹＡ,,合同会社,大阪府,池田市,伏尾町１４番地の１－２１２号,,27,204,5630011,,,,,,,2022-06-03,1,,,,,アヤ,0
2869,9140001126202,新規,0,2022-06-03,2022-06-03,株式会社ファム工業,,株式会社,兵庫県,姫路市,花田町加納原田７７番地１３,,28,201,6710252,,,,,,,2022-06-03,1,,,,,ファムコウギョウ,0
2870,9140001126268,新規,0,2022-06-03,2022-06-03,株式会社はしもと新聞舗,,株式会社,兵庫県,小野市,樫山町５４４番地１,,28,218,6751325,,,,,,,2022-06-03,1,,,,,ハシモトシンブンホ,0
2871,9140001126276,新規,0,2022-06-03,2022-06-03,株式会社伸テック,,株式会社,兵庫県,姫路市,東今宿６丁目７番６号,,28,201,6700056,,,,,,,2022-06-03,1,,,,,シンテック,0
2873,9140005026200,新規,0,2022-06-03,2022-06-03,医療法人ライフ,,その他の設立登記法人,兵庫県,神戸市垂水区,舞子台７丁目３番７号,,28,108,6550046,,,,,,,2022-06-03,1,,,,,ライフ,0
2878,9170001017134,新規,0,2022-06-03,2022-06-03,株式会社Ｍ・Ｎフーズ,,株式会社,和歌山県,田辺市,湊２番１０号,,30,206,6460031,,,,,,,2022-06-03,1,,,,,エムエヌフーズ,0
2884,9180001151535,新規,0,2022-06-03,2022-06-03,ハイブリッジアセットマネジメント株式会社,,株式会社,愛知県,春日井市,坂下町７丁目７６０番地１１９５,,23,206,4800305,,,,,,,2022-06-03,1,,,,,ハイブリッジアセットマネジメント,0
2885,9180001151551,新規,0,2022-06-03,2022-06-03,株式会社インテグリティ,,株式会社,愛知県,名古屋市北区,八代町２丁目６２番地の１,,23,103,4620043,,,,,,,2022-06-03,1,,,,,インテグリティ,0
2886,9180001151576,新規,0,2022-06-03,2022-06-03,株式会社Ｍ．Ｏ．Ｅ．Ｉ．,,株式会社,愛知県,一宮市,木曽川町門間字東郷１０番地,,23,203,4930002,,,,,,,2022-06-03,1,,,,,モエ,0
2887,9180001151601,新規,0,2022-06-03,2022-06-03,株式会社かわな,,株式会社,愛知県,名古屋市千種区,内山３丁目１０番１７号今池セントラルビル６階Ｅ号室,,23,101,4640075,,,,,,,2022-06-03,1,,,,,カワナ,0
2888,9180001151618,新規,0,2022-06-03,2022-06-03,株式会社エンワークス,,株式会社,愛知県,大府市,梶田町６丁目１７９番地,,23,223,4740071,,,,,,,2022-06-03,1,,,,,エンワークス,0
2893,9180003023897,新規,0,2022-06-03,2022-06-03,合同会社ＩＲＯＤＯＲＩ,,合同会社,愛知県,名古屋市中区,大須２丁目２０番３６号宝マンション６０１号室,,23,106,4600011,,,,,,,2022-06-03,1,,,,,イロドリ,0
2895,9180301036279,新規,0,2022-06-03,2022-06-03,株式会社ブライトフューチャー,,株式会社,愛知県,みよし市,莇生町水洗１２番１,,23,236,4700206,,,,,,,2022-06-03,1,,,,,ブライトフューチャー,0
2901,9180305009347,新規,0,2022-06-03,2022-06-03,一般社団法人日本ドライヘッドスペシャリスト協会,,その他の設立登記法人,愛知県,岡崎市,舳越町字東沖１０３番地１ルアレ０５,,23,202,4440902,,,,,,,2022-06-03,1,,,,,ニホンドライヘッドスペシャリストキョウカイ,0
2905,9200001040132,新規,0,2022-06-03,2022-06-03,株式会社ワイズ,,株式会社,岐阜県,羽島市,上中町長間１９３３番地１０,,21,209,5016311,,,,,,,2022-06-03,1,,,,,ワイズ,0
2910,9220001024892,新規,0,2022-06-03,2022-06-03,株式会社ＱＬＧソリューション,,株式会社,石川県,金沢市,鞍月４丁目４２番地,,17,201,9208203,,,,,,,2022-06-03,1,,,,,キューエルジーソリューション,0
2912,9230001019388,新規,0,2022-06-03,2022-06-03,株式会社優森Ｇｒｏｗ,,株式会社,富山県,氷見市,七分一３０５番地,,16,205,9350066,,,,,,,2022-06-03,1,,,,,ユウシングロウ,0
2916,9240001059854,新規,0,2022-06-03,2022-06-03,株式会社月守,,株式会社,広島県,福山市,引野町２丁目３番３号,,34,207,7210942,,,,,,,2022-06-03,1,,,,,ツキモリ,0
2917,9240001059870,新規,0,2022-06-03,2022-06-03,株式会社エレメンテナンス,,株式会社,広島県,三次市,下川立町９１０番地１４,,34,209,7296333,,,,,,,2022-06-03,1,,,,,エレメンテナンス,0
2922,9250001019592,新規,0,2022-06-03,2022-06-03,中村土木株式会社,,株式会社,山口県,下関市,豊浦町大字小串２４１１番地１９,,35,201,7596302,,,,,,,2022-06-03,1,,,,,ナカムラドボク,0
2923,9250001019601,新規,0,2022-06-03,2022-06-03,株式会社協栄熱設備,,株式会社,山口県,宇部市,松山町２丁目５番９号,,35,202,7550026,,,,,,,2022-06-03,1,,,,,キョウエイネツセツビ,0
2926,9260001036901,新規,0,2022-06-03,2022-06-03,株式会社Ｈｅａｒｔ　Ｐｅａｃｅ,,株式会社,岡山県,岡山市東区,可知５丁目１２９番地２４,,33,103,7048173,,,,,,,2022-06-03,1,,,,,ハートピース,0
2928,9260003003932,新規,0,2022-06-03,2022-06-03,フォレストフジモト合同会社,,合同会社,岡山県,津山市,加茂町公郷１６８２番地,,33,203,7093921,,,,,,,2022-06-03,1,,,,,フォレストフジモト,0
2937,9290001097742,新規,0,2022-06-03,2022-06-03,株式会社Ｒｉｖｅｒ　ｓｔｏｎｅ,,株式会社,福岡県,福岡市南区,玉川町６番１号清ビル１０３号,,40,134,8150037,,,,,,,2022-06-03,1,,,,,リバーストーン,0
2938,9290001097759,新規,0,2022-06-03,2022-06-03,Ｓｕｋｕｅａ　ｒｉｎｇｓ株式会社,,株式会社,福岡県,福岡市城南区,樋井川７丁目８番７－１０２号,,40,136,8140153,,,,,,,2022-06-03,1,,,,,スクエアリングス,0
2939,9290001097775,新規,0,2022-06-03,2022-06-03,株式会社エイチ・アイ・エヌ,,株式会社,福岡県,福岡市博多区,東那珂２丁目２０番４０号,,40,132,8120892,,,,,,,2022-06-03,1,,,,,エイチアイエヌ,0
2940,9290001097783,新規,0,2022-06-03,2022-06-03,株式会社エムアイコンサルタント,,株式会社,福岡県,福岡市南区,桧原１丁目１０番５号,,40,134,8111355,,,,,,,2022-06-03,1,,,,,エムアイコンサルタント,0
2941,9290001097800,新規,0,2022-06-03,2022-06-03,株式会社ファーストエステート,,株式会社,福岡県,福岡市中央区,六本松４丁目２番６号,,40,133,8100044,,,,,,,2022-06-03,1,,,,,ファーストエステート,0
2948,9310001017887,新規,0,2022-06-03,2022-06-03,水流商店株式会社,,株式会社,長崎県,佐世保市,塩浜町８番１号,,42,202,8570876,,,,,,,2022-06-03,1,,,,,ツルショウテン,0
2949,9310001017895,新規,0,2022-06-03,2022-06-03,株式会社ＦＲＥＥＤＯＭ,,株式会社,長崎県,佐世保市,保立町１５番１６号,,42,202,8570031,,,,,,,2022-06-03,1,,,,,フリーダム,0
2952,9320001019107,新規,0,2022-06-03,2022-06-03,ＩＬＬ株式会社,,株式会社,大分県,宇佐市,大字中原５８０番地の２,,44,211,8790463,,,,,,,2022-06-03,1,,,,,アイエルエル,0
2956,9330003009402,新規,0,2022-06-03,2022-06-03,合同会社Ａｎｇｅｌｏ＆Ｆａｂｉｏ,,合同会社,熊本県,熊本市中央区,下通１丁目６番４号,,43,101,8600807,,,,,,,2022-06-03,1,,,,,アンジェロアンドファビオ,0
2957,9340001024781,新規,0,2022-06-03,2022-06-03,株式会社ＭＭＰ,,株式会社,鹿児島県,鹿児島市,千日町３番５号くらかわビル地下１階,,46,201,8920843,,,,,,,2022-06-03,1,,,,,エムエムピー,0
2958,9350001017776,新規,0,2022-06-03,2022-06-03,株式会社Ｃ・Ｒ・Ｄ,,株式会社,宮崎県,延岡市,幸町１丁目６０番地２トレーラーハウス,,45,203,8820053,,,,,,,2022-06-03,1,,,,,シーアールディー,0
2961,9350003004095,新規,0,2022-06-03,2022-06-03,綸人合同会社,,合同会社,宮崎県,宮崎市,清武町加納３丁目４６番地５,,45,201,8891607,,,,,,,2022-06-03,1,,,,,リント,0
2964,9360001030497,新規,0,2022-06-03,2022-06-03,株式会社ＴＩＤＡ　ＣＲＥＡＴＩＯＮ,,株式会社,沖縄県,宮古島市,上野字新里１２１２,,47,214,9060202,,,,,,,2022-06-03,1,,,,,ティダクリエーション,0
2965,9360003012048,新規,0,2022-06-03,2022-06-03,合同会社ＳＲＫ,,合同会社,沖縄県,糸満市,西崎６丁目１９－２,,47,210,9010305,,,,,,,2022-06-03,1,,,,,エスアールケー,0
2968,9370001048638,新規,0,2022-06-03,2022-06-03,株式会社コナ雪,,株式会社,宮城県,仙台市泉区,上谷刈３丁目１５－１－３１８号,,04,105,9813121,,,,,,,2022-06-03,1,,,,,コナユキ,0
2975,9410001013199,新規,0,2022-06-03,2022-06-03,株式会社Ｓｔｒｏｎｇｐｌｕｓ,,株式会社,秋田県,秋田市,楢山大元町４番３４号,,05,201,0100031,,,,,,,2022-06-03,1,,,,,ストロングプラス,0
2976,9410001013208,新規,0,2022-06-03,2022-06-03,株式会社ｒｅｍｏｎｔｅｒ,,株式会社,秋田県,秋田市,中通２丁目５番１１号１Ｆ,,05,201,0100001,,,,,,,2022-06-03,1,,,,,ルモンテ,0
2988,9450001013708,新規,0,2022-06-03,2022-06-03,ヨコウチ運輸株式会社,,株式会社,北海道,旭川市,東光三条７丁目３番１１号フィオーレ２０４,,01,204,0788343,,,,,,,2022-06-03,1,,,,,ヨコウチウンユ,0
2989,9450001013716,新規,0,2022-06-03,2022-06-03,しんや農園株式会社,,株式会社,北海道,空知郡上富良野町,西４線北２３号,,01,460,0710504,,,,,,,2022-06-03,1,,,,,シンヤノウエン,0
2990,9450003002213,新規,0,2022-06-03,2022-06-03,合同会社初山別ライスセンター,,合同会社,北海道,苫前郡初山別村,字明里１６３９番地,,01,485,0784432,,,,,,,2022-06-03,1,,,,,ショサンベツライスセンター,0
2992,9460101007204,新規,0,2022-06-03,2022-06-03,株式会社タイム,,株式会社,北海道,帯広市,西十一条南１８丁目２番地５,,01,207,0800021,,,,,,,2022-06-03,1,,,,,タイム,0
2996,9500001024253,新規,0,2022-06-03,2022-06-03,株式会社山崎建設工業,00126744,株式会社,愛媛県,新居浜市,松原町９番１０号,,38,205,7920828,,,,,,,2022-06-03,1,,,,,ヤマサキケンセツコウギョウ,0
2997,9500001024261,新規,0,2022-06-03,2022-06-03,株式会社鮨たか山,,株式会社,愛媛県,松山市,三番町３丁目４番地１－３ＦＡ号,,38,201,7900003,,,,,,,2022-06-03,1,,,,,スシタカヤマ,0
2999,9500003002843,新規,0,2022-06-03,2022-06-03,合同会社オッケー,,合同会社,愛媛県,松山市,堀江町甲３１６番地５,,38,201,7992651,,,,,,,2022-06-03,1,,,,,,0
