sequenceNumber,corporateNumber,process,correct,updateDate,changeDate,name,nameImageId,kind,prefectureName,cityName,streetNumber,addressImageId,prefectureCode,cityCode,postCode,addressOutside,addressOutsideImageId,closeDate,closeCause,successorCorporateNumber,changeCause,assignmentDate,latest,enName,enPrefectureName,enCityName,enAddressOutside,furigana,hihyoji
7,1010001255806,新規,0,2025-06-20,2025-06-20,日本ＥＨＳ監査株式会社,,株式会社,東京都,中央区,日本橋兜町１７－２兜町第６葉山ビル４Ｆ,,13,102,1030026,,,,,,,2025-06-20,1,,,,,ニッポンイーエイチエスカンサ,0
8,1010001256085,新規,0,2025-06-20,2025-06-20,株式会社ゆめかパートナーズ,,株式会社,東京都,千代田区,神田神保町２丁目３８番１１号岩田ビル３階,,13,101,1010051,,,,,,,2025-06-20,1,,,,,ユメカパートナーズ,0
11,1010003047722,新規,0,2025-06-20,2025-06-20,合同会社イオグラフ,,合同会社,東京都,中央区,銀座１丁目１２番４号Ｎ＆Ｅ・ＢＬＤ．６階,,13,102,1040061,,,,,,,2025-06-20,1,,,,,イオグラフ,0
12,1010003047739,新規,0,2025-06-20,2025-06-20,蒼泉合同会社,,合同会社,東京都,中央区,日本橋久松町５番６－４０号,,13,102,1030005,,,,,,,2025-06-20,1,,,,,ソウセン,0
16,1010005040221,新規,0,2025-06-20,2025-06-20,クレイン・アンド・スターズ一般社団法人,,その他の設立登記法人,東京都,千代田区,内神田１丁目３番７号４０１あすな会計事務所内,,13,101,1010047,,,,,,,2025-06-20,1,,,,,クレインアンドスターズ,0
25,1010401191171,新規,0,2025-06-20,2025-06-20,株式会社Ｆｌｅｕｒ,,株式会社,東京都,港区,白金２丁目５番２０号,,13,103,1080072,,,,,,,2025-06-20,1,,,,,フルール,0
28,1010403035418,新規,0,2025-06-20,2025-06-20,Ｃａｐｉｒｅ合同会社,,合同会社,東京都,港区,南青山２丁目２－１５,,13,103,1070062,,,,,,,2025-06-20,1,,,,,カピーレ,0
34,1010603011623,新規,0,2025-06-20,2025-06-20,Ｃｏ．Ｈｕｇ合同会社,,合同会社,東京都,江東区,白河３丁目４－３イーストコモンズ清澄白河フロントタワー１８０３号,,13,108,1350021,,,,,,,2025-06-20,1,,,,,コハグ,0
38,1010901057616,新規,0,2025-06-20,2025-06-20,株式会社コトツク,,株式会社,東京都,世田谷区,岡本３丁目４０番２５号,,13,112,1570076,,,,,,,2025-06-20,1,,,,,コトツク,0
46,1011001170128,新規,0,2025-06-20,2025-06-20,株式会社ＧＩＮＫＧＯ　ＴＲＥＥ,,株式会社,東京都,渋谷区,東３丁目１６番３号,,13,113,1500011,,,,,,,2025-06-20,1,,,,,ギンコツリー,0
47,1011001170160,新規,0,2025-06-20,2025-06-20,株式会社コルティック,,株式会社,東京都,渋谷区,東３丁目１７－１２－４０４,,13,113,1500011,,,,,,,2025-06-20,1,,,,,コルティック,0
48,1011001170193,新規,0,2025-06-20,2025-06-20,ＷＥＡＬＴＨＹ　ＣＯＮＮＥＣＴ株式会社,,株式会社,東京都,渋谷区,渋谷２丁目１９番１９号ワコー宮益坂ビル５階,,13,113,1500002,,,,,,,2025-06-20,1,,,,,ウェルシーコネクト,0
49,1011001170268,新規,0,2025-06-20,2025-06-20,株式会社ＮＵＩＲＯ,,株式会社,東京都,渋谷区,恵比寿西２丁目４番８号ウィンド恵比寿ビル８Ｆ,,13,113,1500021,,,,,,,2025-06-20,1,,,,,ヌイロ,0
50,1011001170350,新規,0,2025-06-20,2025-06-20,株式会社ＬＫＤ,,株式会社,東京都,渋谷区,恵比寿１丁目３１番６号セーシェル恵比寿１０１,,13,113,1500013,,,,,,,2025-06-20,1,,,,,エルケーディー,0
51,1011001170598,新規,0,2025-06-20,2025-06-20,Ｇｏｏｄ　Ｌｕｃｋ株式会社,,株式会社,東京都,渋谷区,恵比寿１丁目１５番９号日宝恵比寿ビル４０３,,13,113,1500013,,,,,,,2025-06-20,1,,,,,グッドラック,0
52,1011001170680,新規,0,2025-06-20,2025-06-20,株式会社ｈｏｍｉｃａ,,株式会社,東京都,渋谷区,神南１丁目１１－５,,13,113,1500041,,,,,,,2025-06-20,1,,,,,ホミカ,0
53,1011001170714,新規,0,2025-06-20,2025-06-20,株式会社計,,株式会社,東京都,渋谷区,渋谷３丁目１５番４号アロス渋谷ビル５階,,13,113,1500002,,,,,,,2025-06-20,1,,,,,ハカラエ,0
54,1011003021832,新規,0,2025-06-20,2025-06-20,合同会社ｍｏｙｕ,,合同会社,東京都,渋谷区,恵比寿南２丁目２４番５号恵比寿向山スカイハイツ５０１号室,,13,113,1500022,,,,,,,2025-06-20,1,,,,,モユ,0
61,1011303005601,新規,0,2025-06-20,2025-06-20,岩井合同会社,,合同会社,東京都,杉並区,下高井戸３丁目２３番５号,,13,115,1680073,,,,,,,2025-06-20,1,,,,,イワイ,0
69,1011801046345,新規,0,2025-06-20,2025-06-20,株式会社清愛商事,,株式会社,東京都,足立区,綾瀬２丁目２８番１号,,13,121,1200005,,,,,,,2025-06-20,1,,,,,セイアイショウジ,0
74,1012401043245,新規,0,2025-06-20,2025-06-20,株式会社ＨＩＴＥ　ＵＰ,,株式会社,東京都,小金井市,中町３丁目２０－１６,,13,210,1840012,,,,,,,2025-06-20,1,,,,,ハイトアップ,0
75,1012401043253,新規,0,2025-06-20,2025-06-20,株式会社Ｔ＆Ｔ,,株式会社,東京都,小金井市,本町５丁目２４番４号,,13,210,1840004,,,,,,,2025-06-20,1,,,,,ティーアンドティー,0
86,1020001163454,新規,0,2025-06-20,2025-06-20,株式会社英,,株式会社,神奈川県,横浜市鶴見区,東寺尾中台７番２３－３０４号,,14,101,2300017,,,,,,,2025-06-20,1,,,,,ハナブサ,0
91,1021001085580,新規,0,2025-06-20,2025-06-20,株式会社Ｍｉｒａｉｓｅ,,株式会社,神奈川県,藤沢市,鵠沼橘１丁目１５番４－４０７号,00139631,14,205,2510024,,,,,,,2025-06-20,1,,,,,ミライズ,0
92,1021001085589,新規,0,2025-06-20,2025-06-20,株式会社Ｙ商事,,株式会社,神奈川県,足柄下郡湯河原町,中央１丁目１４番４号,,14,384,2590301,,,,,,,2025-06-20,1,,,,,ワイショウジ,0
98,1030001167198,新規,0,2025-06-20,2025-06-20,株式会社テクサポ,,株式会社,埼玉県,入間市,大字小谷田２５０番地１ホビースタジオ入間ＩＣ、Ｂ号室,,11,225,3580026,,,,,,,2025-06-20,1,,,,,テクサポ,0
99,1030001167215,新規,0,2025-06-20,2025-06-20,株式会社君埼,,株式会社,埼玉県,加須市,外田ケ谷３５９－２,,11,210,3470126,,,,,,,2025-06-20,1,,,,,クンキ,0
108,1040001139295,新規,0,2025-06-20,2025-06-20,セーフティ・ファースト株式会社,,株式会社,千葉県,富里市,日吉台５丁目１７番地１３,,12,233,2860201,,,,,,,2025-06-20,1,,,,,セーフティファースト,0
114,1040003027837,新規,0,2025-06-20,2025-06-20,Ｉｎｏｖｉａ　Ｍｅｄｉｃａ合同会社,,合同会社,千葉県,千葉市美浜区,若葉３丁目１番１８－２２０号,,12,106,2610014,,,,,,,2025-06-20,1,,,,,,0
115,1040003027853,新規,0,2025-06-20,2025-06-20,合同会社シュガー,,合同会社,千葉県,茂原市,上茂原１２９,,12,210,2970052,,,,,,,2025-06-20,1,,,,,シュガー,0
116,1040003027861,新規,0,2025-06-20,2025-06-20,合同会社ＡＣパルテノ,,合同会社,千葉県,千葉市中央区,松波２丁目４番１８号,,12,101,2600044,,,,,,,2025-06-20,1,,,,,エーシーパルテノ,0
120,1050001056829,新規,0,2025-06-20,2025-06-20,株式会社エスアイメタル,,株式会社,茨城県,下妻市,鎌庭２１００番地１４８,,08,210,3040819,,,,,,,2025-06-20,1,,,,,エスアイメタル,0
123,1060001038322,新規,0,2025-06-20,2025-06-20,株式会社ＰＴ,,株式会社,栃木県,佐野市,町谷町２６３番地２,,09,204,3270812,,,,,,,2025-06-20,1,,,,,ピーティー,0
124,1060003005601,新規,0,2025-06-20,2025-06-20,合同会社ｉｍａｋｏｋｏ,,合同会社,栃木県,那須烏山市,南大和久５２３－２,,09,215,3210533,,,,,,,2025-06-20,1,,,,,イマココ,0
127,1070001043057,新規,0,2025-06-20,2025-06-20,株式会社スリーナイン,,株式会社,群馬県,高崎市,日高町７８番地７,,10,202,3700002,,,,,,,2025-06-20,1,,,,,スリーナイン,0
128,1070003005963,新規,0,2025-06-20,2025-06-20,合同会社ＫＩＭ,,合同会社,群馬県,高崎市,問屋町西１丁目７番地２アーバンＫ・Ｆ１０２,,10,202,3700007,,,,,,,2025-06-20,1,,,,,ケイアイエム,0
133,1090001019336,新規,0,2025-06-20,2025-06-20,株式会社アルマ,,株式会社,山梨県,南アルプス市,曲輪田新田７０６番地２,,19,208,4000223,,,,,,,2025-06-20,1,,,,,アルマ,0
148,1120001276972,新規,0,2025-06-20,2025-06-20,株式会社ＢＬＳ,,株式会社,大阪府,大阪市中央区,東心斎橋２丁目２番１３号リップル三ツ寺ＩＩ３階,00139641,27,128,5420083,,,,,,,2025-06-20,1,,,,,ブリス,0
151,1120003029800,新規,0,2025-06-20,2025-06-20,合同会社ミモザ,,合同会社,大阪府,大阪市西区,新町２丁目１５番１０－６０２号,,27,106,5500013,,,,,,,2025-06-20,1,,,,,ミモザ,0
152,1120003029809,新規,0,2025-06-20,2025-06-20,ＹＯＩＮ合同会社,,合同会社,大阪府,大阪市西区,新町３丁目１番１７－１７１０号,,27,106,5500013,,,,,,,2025-06-20,1,,,,,ヨイン,0
153,1120005024997,新規,0,2025-06-20,2025-06-20,一般社団法人日本健康介護福祉協会,,その他の設立登記法人,大阪府,大阪市中央区,南久宝寺町４丁目５番１７号アップウェル船場２０１号,,27,128,5410058,,,,,,,2025-06-20,1,,,,,ニホンケンコウカイゴフクシキョウカイ,0
157,1120103006501,新規,0,2025-06-20,2025-06-20,合同会社ＫＳＢ,,合同会社,大阪府,泉大津市,板原町１丁目５番２１－５号,,27,206,5950033,,,,,,,2025-06-20,1,,,,,ケーエスビー,0
159,1120905006748,新規,0,2025-06-20,2025-06-20,特定非営利活動法人カタローグ服部天神,,その他の設立登記法人,大阪府,豊中市,服部南町１丁目１番２０号,,27,203,5610853,,,,,,,2025-06-20,1,,,,,カタローグハットリテンジン,0
162,1130003010560,新規,0,2025-06-20,2025-06-20,合同会社ｌａ　ｔｕａ　ｆｅｌｉｃｉｔａ,,合同会社,京都府,長岡京市,馬場２丁目２番２８号,,26,209,6170828,,,,,,,2025-06-20,1,,,,,ラトゥアフェリチタ,0
166,1140003022225,新規,0,2025-06-20,2025-06-20,Ａ＆Ｉ合同会社,,合同会社,兵庫県,神戸市中央区,加納町２丁目８番１２号プチドール北野３０１,,28,110,6500001,,,,,,,2025-06-20,1,,,,,エイアンドアイ,0
171,1160003003520,新規,0,2025-06-20,2025-06-20,合同会社ＳＩＥ,,合同会社,滋賀県,彦根市,鳥居本町１８６７番地３,,25,202,5220004,,,,,,,2025-06-20,1,,,,,エスアイイー,0
190,1200001043910,新規,0,2025-06-20,2025-06-20,株式会社ＰＥＡＣＥ　ＳＥＥＤ,,株式会社,岐阜県,羽島郡笠松町,長池３７２番地の１（スイートコーポ１１－３号室）,,21,303,5016063,,,,,,,2025-06-20,1,,,,,ピースシード,0
199,1260001040290,新規,0,2025-06-20,2025-06-20,株式会社はるか,,株式会社,岡山県,津山市,二宮１１９番地,,33,203,7080013,,,,,,,2025-06-20,1,,,,,ハルカ,0
209,1330001033320,新規,0,2025-06-20,2025-06-20,株式会社Ｗｅｌｌ　ＢｅＭｓ,,株式会社,熊本県,熊本市南区,日吉１丁目８番２０－１００７号,,43,104,8614109,,,,,,,2025-06-20,1,,,,,ウェルビームス,0
217,1370003007079,新規,0,2025-06-20,2025-06-20,合同会社Ｃ‐コンサル,,合同会社,宮城県,多賀城市,町前１丁目１７番６号,,04,209,9850845,,,,,,,2025-06-20,1,,,,,シーコンサル,0
221,1380003006071,新規,0,2025-06-20,2025-06-20,合同会社ミズラボ,,合同会社,福島県,郡山市,桑野４丁目４番地の５２,,07,203,9638025,,,,,,,2025-06-20,1,,,,,ミズラボ,0
222,1380005012984,新規,0,2025-06-20,2025-06-20,農事組合法人アグラン,,その他の設立登記法人,福島県,福島市,飯坂町平野字舘屋敷３５番地,,07,201,9600231,,,,,,,2025-06-20,1,,,,,アグラン,0
224,1400001017076,新規,0,2025-06-20,2025-06-20,株式会社ファースト・プラス,,株式会社,岩手県,盛岡市,下太田下川原１４番地１,,03,201,0200051,,,,,,,2025-06-20,1,,,,,ファーストプラス,0
229,1420001019186,新規,0,2025-06-20,2025-06-20,ツインズ株式会社,,株式会社,青森県,青森市,新町２丁目５番６号プレミスト青森新町ザ・タワー３０４号,,02,201,0300801,,,,,,,2025-06-20,1,,,,,ツインズ,0
231,1430001094682,新規,0,2025-06-20,2025-06-20,ニセコエクスプレス株式会社,,株式会社,北海道,磯谷郡蘭越町,字湯里１２０番地４１,,01,394,0481321,,,,,,,2025-06-20,1,,,,,ニセコエクスプレス,0
232,1430001094690,新規,0,2025-06-20,2025-06-20,株式会社Ｔｈｅｏ,,株式会社,北海道,札幌市西区,宮の沢二条１丁目８番２３－２０３号,,01,107,0630052,,,,,,,2025-06-20,1,,,,,テオ,0
233,1430001094699,新規,0,2025-06-20,2025-06-20,株式会社Ｗｏｌｋｉｎ,,株式会社,北海道,札幌市中央区,大通西１８丁目２番地３ザ・レーベン札幌大通ＭＡＳＴＥＲＳ　ＯＮＥ１３０５号,,01,101,0600042,,,,,,,2025-06-20,1,,,,,ウォルキン,0
234,1430001094716,新規,0,2025-06-20,2025-06-20,中央総合株式会社,,株式会社,北海道,札幌市豊平区,水車町８丁目１番１０号,,01,105,0620912,,,,,,,2025-06-20,1,,,,,チュウオウソウゴウ,0
236,1430003017781,新規,0,2025-06-20,2025-06-20,合同会社エコボックス,,合同会社,北海道,札幌市北区,篠路町上篠路５３番１号,,01,102,0028052,,,,,,,2025-06-20,1,,,,,エコボックス,0
243,1700150131184,新規,0,2025-06-20,2025-06-20,Ｒｉｎｕｄｉ　Ｅｎｔｅｒｐｒｉｓｅｓ,,外国会社等,京都府,相楽郡和束町,大字南小字大林６０番地,,26,365,6191213,Ａｌａｋｏｌａｄｅｎｉｙａ，Ｎｅｇｏｍｂｏ　Ｒｏａｄ，Ｋｕｒｕｎｅｇａｌａ,,,,,,2025-06-20,1,,,,,リヌデイエンタープライズ,0
244,1700150131192,新規,0,2025-06-20,2025-06-20,台灣黒輸伯食品有限公司,,外国会社等,茨城県,つくば市,上原３９９－１,,08,220,3050055,台南市官田區二鎮里成功街５５号,,,,,,2025-06-20,1,,,,,タイワンヘイルンボシヨクヒンユゲンコウシ,0
249,2010001255672,新規,0,2025-06-20,2025-06-20,Ｖａｎｄａ　Ｊａｐｏｎ株式会社,,株式会社,東京都,中央区,日本橋本町２丁目２番２号日本橋本町ＹＳビル在日フランス商工会議所内,,13,102,1030023,,,,,,,2025-06-20,1,,,,,ヴァンダジャポン,0
250,2010001256076,新規,0,2025-06-20,2025-06-20,Ｇｅｎｏｖａ株式会社,,株式会社,東京都,千代田区,丸の内２丁目５番２号,,13,101,1000005,,,,,,,2025-06-20,1,,,,,ジェノヴァ,0
251,2010003047705,新規,0,2025-06-20,2025-06-20,合同会社ＫＬＦ４,,合同会社,東京都,中央区,日本橋１丁目４番１号日本橋一丁目ビルディング,,13,102,1030027,,,,,,,2025-06-20,1,,,,,ケイエルエフフォー,0
254,2010101016735,新規,0,2025-06-20,2025-06-20,株式会社プランクトン技研,,株式会社,東京都,八王子市,横山町１０番１７－８０５,,13,201,1920081,,,,,,,2025-06-20,1,,,,,プランクトンギケン,0
261,2010401191121,新規,0,2025-06-20,2025-06-20,株式会社メディカルワーク,,株式会社,東京都,港区,芝１丁目９番３号芝マツラビル４階,,13,103,1050014,,,,,,,2025-06-20,1,,,,,メディカルワーク,0
262,2010401191162,新規,0,2025-06-20,2025-06-20,Ｂｒｅａｋ　Ｂａｓｅ株式会社,,株式会社,東京都,港区,西麻布１丁目８番１２号ＡＲＩＳＴＯ西麻布３Ｆ,,13,103,1060031,,,,,,,2025-06-20,1,,,,,ブレイクベース,0
267,2010405024483,新規,0,2025-06-20,2025-06-20,一般社団法人日本政治経済研究所,,その他の設立登記法人,東京都,港区,新橋２丁目１２番１７号新橋Ｉ－Ｎビル１階,,13,103,1050004,,,,,,,2025-06-20,1,,,,,ニッポンセイジケイザイケンキュウショ,0
278,2011001170176,新規,0,2025-06-20,2025-06-20,株式会社Ｕｒｂａｌｙｔｉｃｓ,,株式会社,東京都,渋谷区,神泉町１１－１１イーデンビル３Ｆ,,13,113,1500045,,,,,,,2025-06-20,1,,,,,アーバリティクス,0
279,2011001170242,新規,0,2025-06-20,2025-06-20,株式会社１０１６ＴｅｎＱｕａｄｒｉｌｌｉｏｎ,,株式会社,東京都,渋谷区,恵比寿西２丁目８番４号ＥＸ恵比寿西ビル５階,,13,113,1500021,,,,,,,2025-06-20,1,,,,,イチゼロイチロクテンカドリリオン,0
280,2011001170291,新規,0,2025-06-20,2025-06-20,株式会社ＢＲＯＳＳ　ＴＯＫＹＯ,,株式会社,東京都,目黒区,上目黒１丁目８番３０号,,13,110,1530051,,,,,,,2025-06-20,1,,,,,ブロストウキョウ,0
281,2011001170309,新規,0,2025-06-20,2025-06-20,株式会社ＶＥＮＥ　ＰＬＵＳ,,株式会社,東京都,渋谷区,神宮前３丁目３８番１号,,13,113,1500001,,,,,,,2025-06-20,1,,,,,ベネプラス,0
282,2011001170317,新規,0,2025-06-20,2025-06-20,株式会社ＳＵＮＡＢＡ,,株式会社,東京都,渋谷区,道玄坂１丁目１０番８号渋谷道玄坂東急ビル２Ｆ－Ｃ,,13,113,1500043,,,,,,,2025-06-20,1,,,,,スナバ,0
283,2011001170457,新規,0,2025-06-20,2025-06-20,株式会社アビリティパートナーズ,,株式会社,東京都,目黒区,下目黒５丁目３６番３０号,,13,110,1530064,,,,,,,2025-06-20,1,,,,,アビリティパートナーズ,0
284,2011001170713,新規,0,2025-06-20,2025-06-20,株式会社ＬＵＸＸ,,株式会社,東京都,目黒区,目黒本町３丁目５番１０号,,13,110,1520002,,,,,,,2025-06-20,1,,,,,ルクス,0
286,2011101112078,新規,0,2025-06-20,2025-06-20,株式会社あくせす,,株式会社,東京都,新宿区,高田馬場１丁目２８番１０号,,13,104,1690075,,,,,,,2025-06-20,1,,,,,アクセス,0
287,2011101112169,新規,0,2025-06-20,2025-06-20,株式会社ファナティー,,株式会社,東京都,新宿区,歌舞伎町１丁目１０番１号５階,,13,104,1600021,,,,,,,2025-06-20,1,,,,,ファナティー,0
291,2011103016062,新規,0,2025-06-20,2025-06-20,令和ダイニング合同会社,,合同会社,東京都,新宿区,高田馬場３丁目２２―１４Ｈａｂｉｔｅ・Ｈｉｄｅｍｉ４０２号室,,13,104,1690075,,,,,,,2025-06-20,1,,,,,レイワダイニング,0
302,2011503006588,新規,0,2025-06-20,2025-06-20,ＧＬＯＲＩＳＥ合同会社,,合同会社,東京都,北区,浮間３丁目１番２４第五アパート９１０号,,13,117,1150051,,,,,,,2025-06-20,1,,,,,グローライズ,0
309,2012403007197,新規,0,2025-06-20,2025-06-20,合同会社おかえり屋,,合同会社,東京都,武蔵野市,吉祥寺東町２丁目４０－１５,,13,203,1800002,,,,,,,2025-06-20,1,,,,,オカエリヤ,0
311,2013105001876,新規,0,2025-06-20,2025-06-20,ＮＰＯ法人リバーライフセービングクラブ青梅,,その他の設立登記法人,東京都,青梅市,大柳町１４０３番地の１,,13,205,1980086,,,,,,,2025-06-20,1,,,,,リバーライフセービングクラブオウメ,0
312,2013303007733,新規,0,2025-06-20,2025-06-20,みどりサービス合同会社,,合同会社,東京都,豊島区,南池袋３丁目１１番２６号,,13,116,1710022,,,,,,,2025-06-20,1,,,,,ミドリサービス,0
319,2020003028753,新規,0,2025-06-20,2025-06-20,カームストリーム合同会社,,合同会社,神奈川県,川崎市宮前区,土橋５丁目４番地２４ルネサンス宮前ハーモニープレイス１０１,,14,136,2160005,,,,,,,2025-06-20,1,,,,,カームストリーム,0
320,2020003028761,新規,0,2025-06-20,2025-06-20,ワールドプロダクツ合同会社,,合同会社,神奈川県,横浜市鶴見区,下野谷町１丁目４５－１４エコール鶴見２０２,,14,101,2300047,,,,,,,2025-06-20,1,,,,,ワールドプロダクツ,0
326,2021001085514,新規,0,2025-06-20,2025-06-20,株式会社Ｌｕｍｉ　Ｌｉｖｉｎｇ,,株式会社,神奈川県,足柄下郡箱根町,箱根字ドンキン５２７－７４,,14,382,2500521,,,,,,,2025-06-20,1,,,,,ルミリビング,0
329,2021003016120,新規,0,2025-06-20,2025-06-20,Ｗｅｓｔ２Ｅａｓｔ　ＢＮＢ合同会社,,合同会社,神奈川県,厚木市,中町４丁目１４番１号サクセス本厚木ビル５階－６階,,14,212,2430018,,,,,,,2025-06-20,1,,,,,ウェストトゥーイーストビーエヌビー,0
331,2030001167206,新規,0,2025-06-20,2025-06-20,株式会社くどう電気,,株式会社,埼玉県,飯能市,大字永田１０２－１吉建パレス１０５,,11,209,3570062,,,,,,,2025-06-20,1,,,,,クドウデンキ,0
332,2030001167230,新規,0,2025-06-20,2025-06-20,ＲＨ株式会社,,株式会社,埼玉県,川口市,大字西立野５３４番地の４サガミレジデンス３０１号,,11,203,3330813,,,,,,,2025-06-20,1,,,,,,0
344,2040001139303,新規,0,2025-06-20,2025-06-20,永福清源株式会社,,株式会社,千葉県,東金市,台方６９６番地１アークＢ２０５号室,,12,213,2830811,,,,,,,2025-06-20,1,,,,,エイフクセイゲン,0
345,2040003027869,新規,0,2025-06-20,2025-06-20,合同会社ＡＣフォルト,,合同会社,千葉県,千葉市中央区,松波２丁目４番１８号,,12,101,2600044,,,,,,,2025-06-20,1,,,,,エーシーフォルト,0
349,2050003009362,新規,0,2025-06-20,2025-06-20,ＡＤＮ　ＥＮＴＥＲＰＲＩＳＥＳ合同会社,,合同会社,茨城県,下妻市,本城町２丁目３９矢田部商事ビル２階２０５号室,,08,210,3040064,,,,,,,2025-06-20,1,,,,,,0
353,2060001038313,新規,0,2025-06-20,2025-06-20,株式会社ＨＯＰＥ,,株式会社,栃木県,矢板市,木幡１３４５番地１２,,09,211,3292142,,,,,,,2025-06-20,1,,,,,ホープ,0
354,2060001038321,新規,0,2025-06-20,2025-06-20,株式会社誇,,株式会社,栃木県,宇都宮市,白沢町２０２１番地３,,09,201,3291102,,,,,,,2025-06-20,1,,,,,ホコリ,0
361,2080401002718,新規,0,2025-06-20,2025-06-20,株式会社全慶園製作所,,株式会社,静岡県,浜松市浜名区,都田町６４１３番地の１,,22,139,4312102,,,,,,,2025-06-20,1,,,,,ゼンケイエンセイサクショ,0
368,2110001039363,新規,0,2025-06-20,2025-06-20,株式会社なるほどザ新潟Ｃｒｅａｔｉｖｅ　Ｗｏｒｋｓ,,株式会社,新潟県,新潟市東区,中島２丁目２番１２号,,15,102,9500824,,,,,,,2025-06-20,1,,,,,ナルホドザニイガタクリエイティブワークス,0
377,2120001276897,新規,0,2025-06-20,2025-06-20,株式会社誠和,,株式会社,大阪府,大阪市西成区,長橋２丁目６番６号Ｍｅｒｒｙ花園３０２号,,27,122,5570025,,,,,,,2025-06-20,1,,,,,セイワ,0
378,2120001276914,新規,0,2025-06-20,2025-06-20,楽済株式会社,,株式会社,大阪府,大阪市西淀川区,野里２丁目１４番１３－１０８号ＧＣオフィス,,27,113,5550024,,,,,,,2025-06-20,1,,,,,ラクサイ,0
379,2120001276971,新規,0,2025-06-20,2025-06-20,シンク不動産株式会社,,株式会社,大阪府,大阪市北区,梅田２丁目４番９号,,27,127,5300001,,,,,,,2025-06-20,1,,,,,シンクフドウサン,0
380,2120001276988,新規,0,2025-06-20,2025-06-20,引勝株式会社,,株式会社,大阪府,大阪市生野区,小路東６丁目８番１７号昭和エクセルビュー東大阪１０３－Ｇ１０,,27,116,5440003,,,,,,,2025-06-20,1,,,,,インショウ,0
381,2120001277020,新規,0,2025-06-20,2025-06-20,ソルビスコンサルティング株式会社,,株式会社,大阪府,大阪市北区,梅田１丁目３番１－４００号大阪駅前第１ビル４階１－１０７,,27,127,5300001,,,,,,,2025-06-20,1,,,,,ソルビスコンサルティング,0
382,2120001277037,新規,0,2025-06-20,2025-06-20,ＭＭ株式会社,,株式会社,大阪府,大阪市港区,三先１丁目１２番９－２０７号,,27,107,5520016,,,,,,,2025-06-20,1,,,,,エムエム,0
384,2120003029824,新規,0,2025-06-20,2025-06-20,合同会社伊織,,合同会社,大阪府,大阪市平野区,西脇２丁目９番１６号,,27,126,5470035,,,,,,,2025-06-20,1,,,,,イオリ,0
387,2120101071926,新規,0,2025-06-20,2025-06-20,ＧＯＬＤＥＮ　ＡＧＥ株式会社,,株式会社,大阪府,堺市堺区,宿院町東２丁２－１５－５０２号,,27,141,5900955,,,,,,,2025-06-20,1,,,,,ゴールデンエイジ,0
391,2130003010551,新規,0,2025-06-20,2025-06-20,合同会社ＡｐｏＳｔａｒ,,合同会社,京都府,長岡京市,神足１丁目３－１９,,26,209,6170833,,,,,,,2025-06-20,1,,,,,アポスター,0
394,2140001138971,新規,0,2025-06-20,2025-06-20,アグリメック株式会社,,株式会社,兵庫県,神戸市長田区,水笠通６丁目４番２号,,28,106,6530842,,,,,,,2025-06-20,1,,,,,アグリメック,0
397,2140003022190,新規,0,2025-06-20,2025-06-20,ＢＥＴＯＳ合同会社,,合同会社,兵庫県,神戸市垂水区,小束台東２番地の３,,28,108,6550061,,,,,,,2025-06-20,1,,,,,ビートス,0
400,2160001026844,新規,0,2025-06-20,2025-06-20,株式会社エラヴィア,,株式会社,滋賀県,守山市,石田町６６８番地１２,,25,207,5240014,,,,,,,2025-06-20,1,,,,,エラヴィア,0
401,2170001018675,新規,0,2025-06-20,2025-06-20,株式会社アール・コーポレーション,,株式会社,和歌山県,和歌山市,黒田１８５番地３,,30,201,6408341,,,,,,,2025-06-20,1,,,,,アールコーポレーション,0
404,2180001167380,新規,0,2025-06-20,2025-06-20,株式会社ＩＴサポート,,株式会社,愛知県,名古屋市中村区,並木２丁目３３２番地ローレルコート八田９０１号,,23,105,4530856,,,,,,,2025-06-20,1,,,,,アイティーサポート,0
405,2180003028647,新規,0,2025-06-20,2025-06-20,合同会社ＮＡＰＵＡ,,合同会社,愛知県,名古屋市中区,正木２丁目３番５５号プレサンスロジェ金山９０７号,,23,106,4600024,,,,,,,2025-06-20,1,,,,,ナプア,0
407,2180301039916,新規,0,2025-06-20,2025-06-20,株式会社Ｓｔａｂｌｅ　Ｆｏｒｃｅ,,株式会社,愛知県,高浜市,二池町４丁目２１３番地９,,23,227,4441322,,,,,,,2025-06-20,1,,,,,ステーブルフォース,0
414,2200003006880,新規,0,2025-06-20,2025-06-20,ＹＧ　ＴＲＡＤＩＮＧ合同会社,,合同会社,岐阜県,岐阜市,本荘２５９８－４坂井ビル４－Ｃ,,21,201,5008389,,,,,,,2025-06-20,1,,,,,ワイチトレーディング,0
415,2200003006889,新規,0,2025-06-20,2025-06-20,合同会社色波,,合同会社,岐阜県,岐阜市,南鶉１丁目１５番地２,,21,201,5008285,,,,,,,2025-06-20,1,,,,,イロハ,0
423,2230001020963,新規,0,2025-06-20,2025-06-20,株式会社三立商事,,株式会社,富山県,中新川郡上市町,中江上４０番地１,,16,322,9300313,,,,,,,2025-06-20,1,,,,,サンリツショウジ,0
427,2240001065090,新規,0,2025-06-20,2025-06-20,Ｂ‐ＤＡＳＨ株式会社,,株式会社,広島県,安芸郡熊野町,川角１丁目８番２８号,,34,307,7314223,,,,,,,2025-06-20,1,,,,,ビーダッシュ,0
431,2260001040298,新規,0,2025-06-20,2025-06-20,株式会社Ｇｒａｃｅ　Ｕｎｉｔｙ,,株式会社,岡山県,岡山市中区,倉益１３１番地８１,,33,102,7038263,,,,,,,2025-06-20,1,,,,,グレイスユニティ,0
435,2290001110461,新規,0,2025-06-20,2025-06-20,株式会社ＨＯＹＵ,,株式会社,福岡県,福岡市博多区,山王１丁目１番２４－７０３号,,40,132,8120015,,,,,,,2025-06-20,1,,,,,ホウユウ,0
444,2320001021168,新規,0,2025-06-20,2025-06-20,株式会社高山グリーンファーム,,株式会社,大分県,大分市,大字上戸次５５９７番地,,44,201,8797764,,,,,,,2025-06-20,1,,,,,,0
453,2370003007103,新規,0,2025-06-20,2025-06-20,ｈａｎａｒｉ合同会社,,合同会社,宮城県,仙台市青葉区,二日町５番７号ビジネスマンション二日町５０６,,04,101,9800802,,,,,,,2025-06-20,1,,,,,ハナリ,0
458,2430001094707,新規,0,2025-06-20,2025-06-20,株式会社ＨＡＬＥ　ＭＯＡ,,株式会社,北海道,札幌市西区,八軒十条三丁目１番３７号,,01,107,0630000,,,,,,,2025-06-20,1,,,,,ハレモア,0
460,2450001014654,新規,0,2025-06-20,2025-06-20,株式会社福祉ん漬,,株式会社,北海道,旭川市,東光十八条４丁目２番１３号,,01,204,0788358,,,,,,,2025-06-20,1,,,,,フクシンヅケ,0
461,2450003002681,新規,0,2025-06-20,2025-06-20,合同会社ＦＴＢ,,合同会社,北海道,旭川市,宮前一条４丁目３番６号,,01,204,0788391,,,,,,,2025-06-20,1,,,,,エフティービー,0
462,2460001006015,新規,0,2025-06-20,2025-06-20,株式会社ＥＳＳＥＡ,,株式会社,北海道,釧路市,愛国東４丁目２５番３号,,01,206,0850058,,,,,,,2025-06-20,1,,,,,,0
472,2700150131191,新規,0,2025-06-20,2025-06-20,Ｂｏｒｉｓ　Ｔｅｃｈｎｏｌｏｇｙ　Ｌｉｍｉｔｅｄ,,外国会社等,,,,,,,,Ｃｒａｉｇｍｕｉｒ　Ｃｈａｍｂｅｒｓ，Ｒｏａｄ　Ｔｏｗｎ，Ｔｏｒｔｏｌａ，ＶＧ　１１１０，Ｂｒｉｔｉｓｈ　Ｖｉｒｇｉｎ　Ｉｓｌａｎｄｓ,,,,,,2025-06-20,1,,,,,ボリステクノロジーリミテツド,0
473,2700150131200,新規,0,2025-06-20,2025-06-20,ＺＥＮ　ＡＩＲ　ＥＩＨＥＩＪＩ　実行委員会,,その他,福井県,福井市,新保１丁目１２０１,,18,201,9100833,,,,,,,2025-06-20,1,,,,,ゼンエアーエイヘイジジッコウイインカイ,0
478,3010001256109,新規,0,2025-06-20,2025-06-20,ＨＡＲＭＯＰＬＡＹ　Ｊａｐａｎ株式会社,,株式会社,東京都,千代田区,内幸町２丁目２番２号富国生命ビル１６階,,13,101,1000011,,,,,,,2025-06-20,1,,,,,ハーモプレイジャパン,0
480,3010003047745,新規,0,2025-06-20,2025-06-20,合同会社Ｓｉｌｖｉｓ,,合同会社,東京都,千代田区,神田和泉町１番地６－１６ヤマトビル４０５,,13,101,1010024,,,,,,,2025-06-20,1,,,,,シルヴィス,0
491,3010403035226,新規,0,2025-06-20,2025-06-20,合同会社ＭａｎｏＬｉｆｅ,,合同会社,東京都,港区,北青山１丁目３番１号アールキューブ青山３階,,13,103,1070061,,,,,,,2025-06-20,1,,,,,マノライフ,0
493,3010405024482,新規,0,2025-06-20,2025-06-20,一般社団法人Ｇｉｖｅ　Ｓｐａｃｅ　Ｕｒｂａｎ　Ｄｅｓｉｇｎ,,その他の設立登記法人,東京都,港区,南青山７丁目８番４号高樹ハイツ７Ｆ,,13,103,1070062,,,,,,,2025-06-20,1,,,,,ギブスペースアーバンデザイン,0
505,3010901057614,新規,0,2025-06-20,2025-06-20,株式会社ホマレ,,株式会社,東京都,世田谷区,太子堂４丁目１８番１５号マガザン三軒茶屋２・３Ｆ－３,,13,112,1540004,,,,,,,2025-06-20,1,,,,,ホマレ,0
509,3011001170175,新規,0,2025-06-20,2025-06-20,株式会社Ｍｉｎｉｆｉｒｅ,,株式会社,東京都,渋谷区,富ヶ谷１丁目１４番１４号４Ｆ,,13,113,1510063,,,,,,,2025-06-20,1,,,,,ミニファイア,0
510,3011001170332,新規,0,2025-06-20,2025-06-20,株式会社Ｌｅｉｔｗｅｇ,,株式会社,東京都,渋谷区,渋谷２丁目１番１号,,13,113,1500002,,,,,,,2025-06-20,1,,,,,ライトヴェーク,0
511,3011001170588,新規,0,2025-06-20,2025-06-20,株式会社Ｃａｎａｒｒｙ,,株式会社,東京都,渋谷区,渋谷２丁目１２番１２号三貴ビル７階,,13,113,1500002,,,,,,,2025-06-20,1,,,,,カナリー,0
513,3011003021822,新規,0,2025-06-20,2025-06-20,合同会社フロンティス・グループ,,合同会社,東京都,渋谷区,神山町３１番５－２０２号,,13,113,1500047,,,,,,,2025-06-20,1,,,,,フロンティスグループ,0
514,3011003021863,新規,0,2025-06-20,2025-06-20,合同会社ＹＯＫＵＹＯＫＵ,,合同会社,東京都,渋谷区,代々木１丁目４番３－２０４号レグノ・コラージュ,,13,113,1510053,,,,,,,2025-06-20,1,,,,,ヨクヨク,0
515,3011003021946,新規,0,2025-06-20,2025-06-20,合同会社ＡＩはたご,,合同会社,東京都,渋谷区,渋谷３丁目７－１高山ランド第１２ビル７階,,13,113,1500002,,,,,,,2025-06-20,1,,,,,エイアイハタゴ,0
521,3011101112127,新規,0,2025-06-20,2025-06-20,株式会社含章,,株式会社,東京都,新宿区,百人町１丁目１８番８号大久保カドビルＬｉｎｋＳｐａｃｅ百人町Ｄ０９,,13,104,1690073,,,,,,,2025-06-20,1,,,,,ガンショウ,0
522,3011201026433,新規,0,2025-06-20,2025-06-20,株式会社ちくわ,,株式会社,東京都,中野区,東中野１丁目３２－８ラミアカーサ１０８,,13,114,1640003,,,,,,,2025-06-20,1,,,,,チクワ,0
536,3013301054479,新規,0,2025-06-20,2025-06-20,株式会社ＣＬＡＳＳＥ,,株式会社,東京都,豊島区,千早１丁目１６番８号２０３,,13,116,1710044,,,,,,,2025-06-20,1,,,,,クラッセ,0
542,3020005016904,新規,0,2025-06-20,2025-06-20,特定非営利活動法人ライブアップ金沢,,その他の設立登記法人,神奈川県,横浜市金沢区,寺前１丁目１４番１０号,,14,108,2360014,,,,,,,2025-06-20,1,,,,,ライブアップカナザワ,0
545,3021001085546,新規,0,2025-06-20,2025-06-20,アンズ株式会社,,株式会社,神奈川県,藤沢市,弥勒寺３丁目５－１１,,14,205,2510016,,,,,,,2025-06-20,1,,,,,アンズ,0
546,3021003016177,新規,0,2025-06-20,2025-06-20,Ｐａｌｍ合同会社,,合同会社,神奈川県,藤沢市,亀井野８９１番地の５,,14,205,2520813,,,,,,,2025-06-20,1,,,,,パーム,0
551,3030001166982,新規,0,2025-06-20,2025-06-20,株式会社Ｐｒｏｇｒｅｓｓ,,株式会社,埼玉県,秩父市,別所１６５６－３,,11,207,3680054,,,,,,,2025-06-20,1,,,,,プログレス,0
552,3030001167106,新規,0,2025-06-20,2025-06-20,ＴＨＣ株式会社,,株式会社,埼玉県,川口市,仲町１－１５－３,,11,203,3320022,,,,,,,2025-06-20,1,,,,,,0
553,3030001167196,新規,0,2025-06-20,2025-06-20,株式会社Ｗ‐ＬＩＮＥ,,株式会社,埼玉県,さいたま市緑区,大字大牧１４９９番地１０,,11,109,3360922,,,,,,,2025-06-20,1,,,,,ダブルライン,0
555,3030003027035,新規,0,2025-06-20,2025-06-20,合同会社ＲＡＭＡＲ,,合同会社,埼玉県,所沢市,南住吉２１番９号,,11,208,3591125,,,,,,,2025-06-20,1,,,,,ラマー,0
556,3040001139120,新規,0,2025-06-20,2025-06-20,株式会社ＨＣＫホールディングス,,株式会社,千葉県,柏市,若柴６番地１１８,,12,217,2770871,,,,,,,2025-06-20,1,,,,,エイチシーケーホールディングス,0
560,3040003027851,新規,0,2025-06-20,2025-06-20,合同会社ＣＨＩＢＡ　ＦＡＲＭ蓄電所,,合同会社,千葉県,旭市,倉橋１３１５番地,,12,215,2892611,,,,,,,2025-06-20,1,,,,,チバファームチクデンショ,0
562,3050001056827,新規,0,2025-06-20,2025-06-20,美登利株式会社,,株式会社,茨城県,つくば市,下河原崎７３６高山Ｄ２５街区７３,,08,220,3002662,,,,,,,2025-06-20,1,,,,,,0
564,3050003009361,新規,0,2025-06-20,2025-06-20,ＭＡＬＩＫ　ＩＮＴＥＲＮＡＴＩＯＮＡＬ合同会社,,合同会社,茨城県,結城市,大字結城１１３９７－１アーバニティー２４、３０９号室,,08,207,3070001,,,,,,,2025-06-20,1,,,,,,0
568,3080003003485,新規,0,2025-06-20,2025-06-20,合同会社ＮＩＲＯ　ＣＯＲＰＯＲＡＴＩＯＮ,,合同会社,静岡県,静岡市清水区,蒲原新田１丁目９番１９号,,22,103,4213211,,,,,,,2025-06-20,1,,,,,ニロコーポレーション,0
573,3080403005288,新規,0,2025-06-20,2025-06-20,ＧＲＯＵＰ　ＢＲＡＺＩＬＬＡ合同会社,,合同会社,静岡県,袋井市,西同笠９１番地の３マヌハイツ２０１号室,,22,216,4371114,,,,,,,2025-06-20,1,,,,,グループブラジルラ,0
575,3090001019334,新規,0,2025-06-20,2025-06-20,國心電機株式会社,,株式会社,山梨県,富士吉田市,上吉田東３丁目１２番３４号,,19,202,4030032,,,,,,,2025-06-20,1,,,,,コクシンデンキ,0
578,3100001038704,新規,0,2025-06-20,2025-06-20,ＰＲＯＳＰＥＲ瀧澤株式会社,,株式会社,長野県,長野市,稲里１丁目１０番地１７,,20,201,3812243,,,,,,,2025-06-20,1,,,,,プロスパータキザワ,0
587,3120001276839,新規,0,2025-06-20,2025-06-20,太恒株式会社,,株式会社,大阪府,寝屋川市,美井元町１１番１８号３０３号室,,27,215,5720006,,,,,,,2025-06-20,1,,,,,タイコウ,0
588,3120001276946,新規,0,2025-06-20,2025-06-20,レクタスコンサルティング株式会社,,株式会社,大阪府,大阪市中央区,島町１丁目１番２号,,27,128,5400034,,,,,,,2025-06-20,1,,,,,レクタスコンサルティング,0
589,3120001276962,新規,0,2025-06-20,2025-06-20,炎藤株式会社,,株式会社,大阪府,大阪市中央区,高津３丁目１５－１０朝日プラザ夕陽ケ丘ＩＩＩ９０３号室,00139627,27,128,5420072,,,,,,,2025-06-20,1,,,,,エントウ,0
590,3120001276995,新規,0,2025-06-20,2025-06-20,株式会社Ｍｏａ,,株式会社,大阪府,大阪市東淀川区,下新庄３丁目９番３３－２１２号,,27,114,5330021,,,,,,,2025-06-20,1,,,,,モア,0
591,3120001277003,新規,0,2025-06-20,2025-06-20,ＷＡＫＵ　ＢＵＩＬＤ株式会社,,株式会社,大阪府,大阪市北区,梅田１丁目２番２号大阪駅前第２ビル１２－１２,,27,127,5300001,,,,,,,2025-06-20,1,,,,,ワクビル,0
592,3120001277028,新規,0,2025-06-20,2025-06-20,株式会社Ｄｉａｐｕｔ,,株式会社,大阪府,大阪市北区,天神西町６番７号ＶＥＮＺＡＩＴＥＮＢＬＤＧ．ＯＳＡＫＡ６階,,27,127,5300045,,,,,,,2025-06-20,1,,,,,ディアプット,0
593,3120001277036,新規,0,2025-06-20,2025-06-20,株式会社ＢｌｕｅＹｅｌｌｏｗ,,株式会社,大阪府,大阪市中央区,瓦屋町２丁目４番５号アルティ瓦屋町１階,,27,128,5420066,,,,,,,2025-06-20,1,,,,,ブルーイエロー,0
594,3120001277052,新規,0,2025-06-20,2025-06-20,株式会社Ｇａｕｄｉ,,株式会社,大阪府,大阪市中央区,博労町１丁目７番１号ＳＩＬＶＥＲ－ＢＡＣＫ・Ｇ－１ビル,,27,128,5410059,,,,,,,2025-06-20,1,,,,,ガウディ,0
595,3120001277085,新規,0,2025-06-20,2025-06-20,株式会社ミレーヴ,,株式会社,大阪府,大阪市北区,曾根崎２丁目３番５号,,27,127,5300057,,,,,,,2025-06-20,1,,,,,ミレーヴ,0
597,3120003029798,新規,0,2025-06-20,2025-06-20,昭正合同会社,,合同会社,大阪府,大阪市中央区,南船場３丁目１番１６号４階１１号,,27,128,5420081,,,,,,,2025-06-20,1,,,,,ショウセイ,0
598,3120003029807,新規,0,2025-06-20,2025-06-20,合同会社なにわ水道,,合同会社,大阪府,大阪市東住吉区,鷹合１丁目６番１号,,27,121,5460014,,,,,,,2025-06-20,1,,,,,ナニワスイドウ,0
601,3120101071925,新規,0,2025-06-20,2025-06-20,華霖商事株式会社,,株式会社,大阪府,大阪狭山市,大野西６８５番地１,,27,231,5890016,,,,,,,2025-06-20,1,,,,,カリンショウジ,0
602,3120101071933,新規,0,2025-06-20,2025-06-20,株式会社建築工房ここ,,株式会社,大阪府,阪南市,箱作１６７９,,27,232,5990232,,,,,,,2025-06-20,1,,,,,ケンチクコウボウココ,0
605,3120103006532,新規,0,2025-06-20,2025-06-20,合同会社グライドリンク,,合同会社,大阪府,和泉市,和気町３丁目１８－１７,,27,219,5940073,,,,,,,2025-06-20,1,,,,,グライドリンク,0
606,3120105010020,新規,0,2025-06-20,2025-06-20,一般社団法人ルリアン,,その他の設立登記法人,大阪府,羽曳野市,羽曳が丘１０丁目６番６号,,27,222,5830864,,,,,,,2025-06-20,1,,,,,ルリアン,0
607,3120905006746,新規,0,2025-06-20,2025-06-20,一般社団法人福井アセットマネジメント,,その他の設立登記法人,大阪府,茨木市,北春日丘１丁目６番４３号,,27,211,5670048,,,,,,,2025-06-20,1,,,,,フクイアセットマネジメント,0
613,3130003010550,新規,0,2025-06-20,2025-06-20,合同会社スターダストワン,,合同会社,京都府,宇治市,宇治壱番８２番地の２,,26,204,6110021,,,,,,,2025-06-20,1,,,,,スターダストワン,0
614,3130003010559,新規,0,2025-06-20,2025-06-20,合同会社ＨＹ＆Ｎ,,合同会社,京都府,京都市西京区,桂上野東町１４１番地ベルアビタシオン・ドゥ２１２,,26,111,6158003,,,,,,,2025-06-20,1,,,,,エイチワイアンドエヌ,0
619,3140001138987,新規,0,2025-06-20,2025-06-20,株式会社ＩＳＭ,,株式会社,兵庫県,神戸市中央区,磯辺通１丁目１番１８号カサベラ国際ビル７０７号室,,28,110,6510084,,,,,,,2025-06-20,1,,,,,イズム,0
620,3140001138995,新規,0,2025-06-20,2025-06-20,株式会社ＥＶＯＬＶＥ,,株式会社,兵庫県,宝塚市,川面６丁目１７番１８号,,28,214,6650842,,,,,,,2025-06-20,1,,,,,イヴォルヴ,0
627,3160001026843,新規,0,2025-06-20,2025-06-20,Ｓｎａｐ　Ｗｏｒｋｓ株式会社,,株式会社,滋賀県,栗東市,高野７５４番地Ａ号,,25,208,5203045,,,,,,,2025-06-20,1,,,,,スナップワークス,0
628,3160003003519,新規,0,2025-06-20,2025-06-20,合同会社Ｔｒｕｓｔｒｅｋ　Ｃｏｎｓｕｌｔｉｎｇ,,合同会社,滋賀県,栗東市,中沢２丁目１３番９－２０２号,,25,208,5203025,,,,,,,2025-06-20,1,,,,,トラストレックコンサルティング,0
641,3190001032327,新規,0,2025-06-20,2025-06-20,梅徳株式会社,,株式会社,三重県,四日市市,西新地５番２号西新地シティビル３階,,24,202,5100087,,,,,,,2025-06-20,1,,,,,ウメトク,0
642,3190003005090,新規,0,2025-06-20,2025-06-20,合同会社ミスティー,,合同会社,三重県,津市,白山町佐田１６６４－１,,24,201,5152621,,,,,,,2025-06-20,1,,,,,ミスティー,0
643,3200001043917,新規,0,2025-06-20,2025-06-20,株式会社リュディック,,株式会社,岐阜県,多治見市,宮前町２丁目５４番地,,21,204,5070025,,,,,,,2025-06-20,1,,,,,リュディック,0
653,3260003005224,新規,0,2025-06-20,2025-06-20,合同会社Ｒｔｒ,,合同会社,岡山県,岡山市北区,問屋町２２番地１０２ヴェルディ問屋町１３０７,,33,101,7000977,,,,,,,2025-06-20,1,,,,,アールティーアール,0
667,3300001014230,新規,0,2025-06-20,2025-06-20,株式会社アグリデポ,,株式会社,佐賀県,神埼市,千代田町詫田字三本松１１４２番地１,,41,210,8420061,,,,,,,2025-06-20,1,,,,,アグリデポ,0
669,3320001021167,新規,0,2025-06-20,2025-06-20,秦土地開発株式会社,,株式会社,大分県,大分市,畑中４丁目５番３１号,,44,201,8700856,,,,,,,2025-06-20,1,,,,,シントチカイハツ,0
672,3330003011066,新規,0,2025-06-20,2025-06-20,合同会社スリージョイント,,合同会社,熊本県,熊本市中央区,新市街１０－８,,43,101,8600803,,,,,,,2025-06-20,1,,,,,スリージョイント,0
687,3420003003137,新規,0,2025-06-20,2025-06-20,合同会社カナル・プラン,,合同会社,青森県,三戸郡五戸町,字正場沢２３番地１１,,02,442,0391545,,,,,,,2025-06-20,1,,,,,カナルプラン,0
691,3430001094697,新規,0,2025-06-20,2025-06-20,株式会社北勝工建,,株式会社,北海道,苫小牧市,花園町１丁目６番９号,,01,213,0530853,,,,,,,2025-06-20,1,,,,,ホクショウコウケン,0
692,3430001094714,新規,0,2025-06-20,2025-06-20,Ｆ‐ＰＬＵＳ株式会社,,株式会社,北海道,札幌市白石区,川北２２６５番地２,,01,104,0030859,,,,,,,2025-06-20,1,,,,,エフプラス,0
693,3430003017771,新規,0,2025-06-20,2025-06-20,合同会社ティースタイル,,合同会社,北海道,札幌市白石区,北郷２３５７番地５号,,01,104,0030849,,,,,,,2025-06-20,1,,,,,ティースタイル,0
694,3430003017788,新規,0,2025-06-20,2025-06-20,ｋｕｒｏｓｈｉｒｏ　ｗｏｒｋｓ合同会社,,合同会社,北海道,札幌市西区,西野八条２丁目９番２号,,01,107,0630038,,,,,,,2025-06-20,1,,,,,クロシロワークス,0
697,3470005006629,新規,0,2025-06-20,2025-06-20,エホバの証人の三木会衆,,その他の設立登記法人,香川県,木田郡三木町,大字下高岡２１６３－３,,37,341,7610704,,,,,,,2025-06-20,1,,,,,,0
699,3500001026362,新規,0,2025-06-20,2025-06-20,株式会社こころ旅行社,,株式会社,愛媛県,上浮穴郡久万高原町,久万３４８,,38,386,7911201,,,,,,,2025-06-20,1,,,,,ココロリョコウシャ,0
700,3700150131190,新規,0,2025-06-20,2025-06-20,ＮＹＭＡＮ，Ｐ．Ｃ．ＪＥＳＳＩＣＡ,,外国会社等,,,,,,,,５０５　Ｗｅｓｔ　１５ｔｈ　Ｓｔｒｅｅｔ　Ａｕｓｔｉｎ，Ｔｅｘａｓ　７８７０１,,,,,,2025-06-20,1,,,,,ニーマンピーシージエシカ,0
701,3700150131199,新規,0,2025-06-20,2025-06-20,明王台自治会連合会,,その他,広島県,福山市,明王台５丁目２２－１４,,34,207,7200834,,,,,,,2025-06-20,1,,,,,ミョウオウダイジチカイレンゴウカイ,0
705,4010001256090,新規,0,2025-06-20,2025-06-20,株式会社ＭＰコンサルティング,,株式会社,東京都,千代田区,九段南１丁目５番６号りそな九段ビル５Ｆ・ＫＳフロア,,13,101,1020074,,,,,,,2025-06-20,1,,,,,エムピーコンサルティング,0
706,4010001256108,新規,0,2025-06-20,2025-06-20,景耀株式会社,,株式会社,東京都,千代田区,永田町２丁目１７番１７号ＡＩＯＳ永田町３０８,,13,101,1000014,,,,,,,2025-06-20,1,,,,,ケイヨウ,0
720,4010401191160,新規,0,2025-06-20,2025-06-20,ＦＵＴＵＲＥ　ＧＡＴＥ株式会社,,株式会社,東京都,港区,西麻布１丁目８番１２号ＡＲＩＳＴＯ西麻布３Ｆ,,13,103,1060031,,,,,,,2025-06-20,1,,,,,フューチャーゲート,0
725,4010405024465,新規,0,2025-06-20,2025-06-20,弁護士法人マックスウィン法律事務所,,その他の設立登記法人,東京都,港区,麻布十番１丁目５番１０号アトラスビル６階,,13,103,1060045,,,,,,,2025-06-20,1,,,,,マックスウィンホウリツジムショ,0
728,4010501054242,新規,0,2025-06-20,2025-06-20,ＡＱＵＡ‐６１０株式会社,,株式会社,東京都,台東区,根岸３丁目１６番１７－１４０２号ルジェンテ・バリュ上野根岸,,13,106,1100003,,,,,,,2025-06-20,1,,,,,アクアルート,0
730,4010601067482,新規,0,2025-06-20,2025-06-20,株式会社義功プランニング,,株式会社,東京都,墨田区,墨田４丁目５５番６号,,13,107,1310031,,,,,,,2025-06-20,1,,,,,ギコウプランニング,0
750,4011001170249,新規,0,2025-06-20,2025-06-20,株式会社ＲＧ,,株式会社,東京都,渋谷区,恵比寿南１丁目１－１ヒューマックス恵比寿ビル８階,,13,113,1500022,,,,,,,2025-06-20,1,,,,,アールジー,0
751,4011001170315,新規,0,2025-06-20,2025-06-20,株式会社令和貿易,,株式会社,東京都,渋谷区,東１丁目２７番２号パークフラッツ渋谷代官山９０６,,13,113,1500011,,,,,,,2025-06-20,1,,,,,レイワボウエキ,0
752,4011001170331,新規,0,2025-06-20,2025-06-20,株式会社Ｃｏｂａｌｔ,,株式会社,東京都,渋谷区,渋谷２丁目１番１号,,13,113,1500002,,,,,,,2025-06-20,1,,,,,コバルト,0
753,4011001170348,新規,0,2025-06-20,2025-06-20,株式会社ＴＷＩＮＳ,,株式会社,東京都,渋谷区,恵比寿西２丁目８－４ＥＸ恵比寿西ビル６Ｆ,,13,113,1500021,,,,,,,2025-06-20,1,,,,,ツインズ,0
756,4011003021945,新規,0,2025-06-20,2025-06-20,合同会社はたご,,合同会社,東京都,渋谷区,渋谷３丁目７－１高山ランド第１２ビル７階,,13,113,1500002,,,,,,,2025-06-20,1,,,,,ハタゴ,0
760,4011101112142,新規,0,2025-06-20,2025-06-20,株式会社ＥＩＺＯ,,株式会社,東京都,新宿区,南山伏町１番２２－４０２号,,13,104,1620854,,,,,,,2025-06-20,1,,,,,エイゾウ,0
761,4011103016044,新規,0,2025-06-20,2025-06-20,合同会社ＬｉＭ,,合同会社,東京都,新宿区,東五軒町５番８－７０４号,,13,104,1620813,,,,,,,2025-06-20,1,,,,,リム,0
763,4011201026449,新規,0,2025-06-20,2025-06-20,オフィス坂井株式会社,,株式会社,東京都,中野区,白鷺２丁目９番９号,,13,114,1650035,,,,,,,2025-06-20,1,,,,,オフィスサカイ,0
764,4011301030656,新規,0,2025-06-20,2025-06-20,株式会社ＨＭＳ,,株式会社,東京都,杉並区,上高井戸２丁目２番４９号,,13,115,1680074,,,,,,,2025-06-20,1,,,,,エイチエムエス,0
768,4011503006586,新規,0,2025-06-20,2025-06-20,プレステージ合同会社,,合同会社,東京都,北区,豊島８丁目２番５号さくらコーポ２０１号,,13,117,1140003,,,,,,,2025-06-20,1,,,,,プレステージ,0
774,4011801046350,新規,0,2025-06-20,2025-06-20,株式会社葛飾リペアテクノス,,株式会社,東京都,葛飾区,西新小岩５丁目２１番３号,,13,122,1240025,,,,,,,2025-06-20,1,,,,,カツシカリペアテクノス,0
780,4012301014434,新規,0,2025-06-20,2025-06-20,株式会社フルノーティス,,株式会社,東京都,町田市,原町田６丁目１７番２１号デュオステージ町田ＭＡＸＩＶ９０５,,13,209,1940013,,,,,,,2025-06-20,1,,,,,フルノーティス,0
781,4012401043250,新規,0,2025-06-20,2025-06-20,Ｐｒｏｐｏｓａｌ　Ｎｉｎｊａ株式会社,,株式会社,東京都,調布市,若葉町１丁目４番地３３山丘ハイツ２０３号室,,13,208,1820003,,,,,,,2025-06-20,1,,,,,プロポーザルニンジャ,0
782,4012403007195,新規,0,2025-06-20,2025-06-20,合同会社マサハル,,合同会社,東京都,武蔵野市,吉祥寺本町１丁目２０番１号,,13,203,1800004,,,,,,,2025-06-20,1,,,,,マサハル,0
787,4013301054478,新規,0,2025-06-20,2025-06-20,株式会社ＭＹＡＮＭＡＲ　ＮＥＴＷＯＲＫ,,株式会社,東京都,豊島区,北大塚２丁目６番３号メゾン大塚５０２号,,13,116,1700004,,,,,,,2025-06-20,1,,,,,ミャンマーネットワーク,0
788,4013303007723,新規,0,2025-06-20,2025-06-20,Ｖｍａｓｔｅｒ経営創研合同会社,,合同会社,東京都,豊島区,東池袋２丁目６２番８号ＢＩＧオフィスプラザ池袋１２０６,,13,116,1700013,,,,,,,2025-06-20,1,,,,,ブイマスターケイエイソウケン,0
798,4020001163492,新規,0,2025-06-20,2025-06-20,株式会社Ｆｏｒｎｅｃｔ,,株式会社,神奈川県,川崎市多摩区,登戸新町４４４番地４,,14,135,2140013,,,,,,,2025-06-20,1,,,,,フォーネクト,0
799,4020001163501,新規,0,2025-06-20,2025-06-20,株式会社ＥＮＦＡＭＩＬＹ,,株式会社,神奈川県,横浜市青葉区,あざみ野２丁目３２－４０,,14,117,2250011,,,,,,,2025-06-20,1,,,,,エンファミリー,0
805,4021001085561,新規,0,2025-06-20,2025-06-20,株式会社ＯＴＡＣＯＮ,,株式会社,神奈川県,大和市,深見西２丁目５－３０－３３９,,14,213,2420018,,,,,,,2025-06-20,1,,,,,オタコン,0
806,4021001085586,新規,0,2025-06-20,2025-06-20,Ｌｏｏｐ＆Ｃｏ株式会社,,株式会社,神奈川県,藤沢市,片瀬海岸２丁目１８―２１リードシー片瀬江ノ島ビル３Ｆ,,14,205,2510035,,,,,,,2025-06-20,1,,,,,ループアンドコー,0
811,4021003016168,新規,0,2025-06-20,2025-06-20,ＢＢ　ＴＲＡＤＥＲＳ合同会社,,合同会社,神奈川県,相模原市中央区,田名５９８４番地１０－２Ｆ,,14,152,2520244,,,,,,,2025-06-20,1,,,,,ビービートレーダーズ,0
812,4021003016184,新規,0,2025-06-20,2025-06-20,合同会社三上質店,,合同会社,神奈川県,相模原市南区,磯部４４２０番地６,,14,153,2520327,,,,,,,2025-06-20,1,,,,,ミカミシチテン,0
820,4030001167179,新規,0,2025-06-20,2025-06-20,株式会社ＷＯＯＤＷＯＲＫＳ,,株式会社,埼玉県,所沢市,大字下安松１４８０番地の７,,11,208,3590024,,,,,,,2025-06-20,1,,,,,ウッドワークス,0
821,4030001167212,新規,0,2025-06-20,2025-06-20,精工株式会社,,株式会社,埼玉県,川口市,大字神戸４９６番地の５,,11,203,3330832,,,,,,,2025-06-20,1,,,,,セイコウ,0
830,4040001139268,新規,0,2025-06-20,2025-06-20,株式会社レアリゼ,,株式会社,千葉県,千葉市若葉区,富田町８０１番地,,12,104,2650041,,,,,,,2025-06-20,1,,,,,レアリゼ,0
831,4040003027859,新規,0,2025-06-20,2025-06-20,シオンプロパティ合同会社,,合同会社,千葉県,千葉市中央区,宮崎町７７７番地４３グランディールＢ１階,,12,101,2600805,,,,,,,2025-06-20,1,,,,,シオンプロパティ,0
832,4040003027867,新規,0,2025-06-20,2025-06-20,合同会社ＡＣテティス,,合同会社,千葉県,千葉市中央区,松波２丁目４番１８号,,12,101,2600044,,,,,,,2025-06-20,1,,,,,エーシーテティス,0
834,4050001056834,新規,0,2025-06-20,2025-06-20,株式会社エステティカ,,株式会社,茨城県,常総市,水海道川又町４３４番地１,,08,211,3030032,,,,,,,2025-06-20,1,,,,,エステティカ,0
839,4070001043054,新規,0,2025-06-20,2025-06-20,株式会社そうあい,,株式会社,群馬県,高崎市,石原町１５０３番地５,,10,202,3700864,,,,,,,2025-06-20,1,,,,,ソウアイ,0
846,4080403005287,新規,0,2025-06-20,2025-06-20,合同会社ＭｇＬｉｎｏＢｌｏｏｍ,,合同会社,静岡県,磐田市,下野部１３６１番地２,,22,211,4380112,,,,,,,2025-06-20,1,,,,,マグリノブルーム,0
848,4100003008200,新規,0,2025-06-20,2025-06-20,空間美術館合同会社,,合同会社,長野県,上伊那郡辰野町,大字辰野１７７７番地１,,20,382,3990421,,,,,,,2025-06-20,1,,,,,クウカンビジュツカン,0
849,4100003008241,新規,0,2025-06-20,2025-06-20,高澤合同会社,00139642,合同会社,長野県,長野市,篠ノ井会２２３番地,,20,201,3888004,,,,,,,2025-06-20,1,,,,,タカサワ,0
863,4120001276920,新規,0,2025-06-20,2025-06-20,瀾潤株式会社,,株式会社,大阪府,大阪市西成区,花園北１丁目７番１４号４０２－Ｃ号室,,27,122,5570016,,,,,,,2025-06-20,1,,,,,ランジュン,0
864,4120001276994,新規,0,2025-06-20,2025-06-20,株式会社天満月,,株式会社,大阪府,大阪市住之江区,粉浜３丁目１４番１１－１２０４号,,27,125,5590001,,,,,,,2025-06-20,1,,,,,アマミツツキ,0
865,4120001277010,新規,0,2025-06-20,2025-06-20,長栄株式会社,,株式会社,大阪府,大阪市西成区,玉出西１丁目３番３３号,,27,122,5570045,,,,,,,2025-06-20,1,,,,,チョウエイ,0
866,4120001277019,新規,0,2025-06-20,2025-06-20,株式会社いろどり,,株式会社,大阪府,大阪市天王寺区,烏ケ辻１丁目８番９－５０７号,,27,109,5430042,,,,,,,2025-06-20,1,,,,,イロドリ,0
867,4120001277043,新規,0,2025-06-20,2025-06-20,つなぐ株式会社,,株式会社,大阪府,大阪市天王寺区,味原町１３番９号サンエイ下味原第二ビル,,27,109,5430023,,,,,,,2025-06-20,1,,,,,ツナグ,0
868,4120001277051,新規,0,2025-06-20,2025-06-20,株式会社ＦＴＰ商事,,株式会社,大阪府,大阪市北区,梅田１丁目２番２号大阪駅前第２ビル１２－１２,,27,127,5300001,,,,,,,2025-06-20,1,,,,,エフティーピーショウジ,0
869,4120001277084,新規,0,2025-06-20,2025-06-20,株式会社ビーアル,,株式会社,大阪府,大阪市北区,曾根崎２丁目３番５号,,27,127,5300057,,,,,,,2025-06-20,1,,,,,ビーアル,0
871,4120003029780,新規,0,2025-06-20,2025-06-20,合同会社光輝,,合同会社,大阪府,大阪市阿倍野区,松崎町３丁目１番１１号グランドハウス２階,,27,119,5450053,,,,,,,2025-06-20,1,,,,,コウキ,0
879,4130001079785,新規,0,2025-06-20,2025-06-20,株式会社Ｌｅｔｉａｎ　Ｔｒａｄｉｎｇ,,株式会社,京都府,京都市左京区,浄土寺下南田町１２３番１５,,26,103,6068404,,,,,,,2025-06-20,1,,,,,レティアントレーディング,0
880,4130001079942,新規,0,2025-06-20,2025-06-20,株式会社Ｍ．Ｓ．リンクス,,株式会社,京都府,京都市左京区,下鴨泉川町５３番地８,,26,103,6060807,,,,,,,2025-06-20,1,,,,,エムエスリンクス,0
883,4130003010566,新規,0,2025-06-20,2025-06-20,Ａｘｉｓ合同会社,,合同会社,京都府,京都市伏見区,石田大山町７８番地３１,,26,109,6011433,,,,,,,2025-06-20,1,,,,,アクシス,0
888,4140001138986,新規,0,2025-06-20,2025-06-20,株式会社Ｓｗａｇ,,株式会社,兵庫県,宝塚市,山手台東５丁目９番４号,,28,214,6650887,,,,,,,2025-06-20,1,,,,,スワッグ,0
889,4140001138994,新規,0,2025-06-20,2025-06-20,株式会社Ｒｅ．ｄｉａｎｔ,,株式会社,兵庫県,加古川市,加古川町稲屋８９番地の１,,28,210,6750034,,,,,,,2025-06-20,1,,,,,レディアント,0
894,4140005027541,新規,0,2025-06-20,2025-06-20,一般社団法人姫路藩勤皇志士河合惣兵衛宗元顕彰会,,その他の設立登記法人,兵庫県,姫路市,宮上町１丁目１９２番地,,28,201,6700823,,,,,,,2025-06-20,1,,,,,ヒメジハンキンノウノシシカワイソウベエムネモトケンショウカイ,0
901,4160003003492,新規,0,2025-06-20,2025-06-20,空想舎合同会社,,合同会社,滋賀県,彦根市,平田町７１４－１Ｎａｓｕ９－１０２,,25,202,5220041,,,,,,,2025-06-20,1,,,,,クウソウシャ,0
913,4180003028653,新規,0,2025-06-20,2025-06-20,ＡＲＫ　ＴＲＡＤＩＮＧ合同会社,,合同会社,愛知県,名古屋市中区,千代田３丁目１８番６号アイビル４階Ａ,,23,106,4600012,,,,,,,2025-06-20,1,,,,,アークトレーディング,0
923,4200001043908,新規,0,2025-06-20,2025-06-20,ＡＳＩＡＮ　ＬＡＮＫＡ株式会社,,株式会社,岐阜県,岐阜市,鏡島西２丁目１４番１－３０７号鏡島ハイツ,,21,201,5010123,,,,,,,2025-06-20,1,,,,,アジアンランカ,0
924,4200001043916,新規,0,2025-06-20,2025-06-20,株式会社フローアップ,,株式会社,岐阜県,関市,肥田瀬２７７３－５,,21,205,5013911,,,,,,,2025-06-20,1,,,,,フローアップ,0
935,4250003003756,新規,0,2025-06-20,2025-06-20,合同会社リペア,,合同会社,山口県,宇部市,東平原１丁目５番１５－１０５号,,35,202,7550807,,,,,,,2025-06-20,1,,,,,リペア,0
939,4260001040288,新規,0,2025-06-20,2025-06-20,アポロ不動産株式会社,,株式会社,岡山県,岡山市北区,新屋敷町３丁目６番１号マ・ベル・エトワール４０１号室,,33,101,7000986,,,,,,,2025-06-20,1,,,,,アポロフドウサン,0
940,4260003005223,新規,0,2025-06-20,2025-06-20,合同会社行雲流水,,合同会社,岡山県,津山市,押入７９５番地１,,33,203,7081126,,,,,,,2025-06-20,1,,,,,コウウンリュウスイ,0
941,4260003005231,新規,0,2025-06-20,2025-06-20,ライフダイナミックス合同会社,,合同会社,岡山県,備前市,日生町寒河２４５８番地４０,,33,211,7013202,,,,,,,2025-06-20,1,,,,,ライフダイナミックス,0
953,4330001033318,新規,0,2025-06-20,2025-06-20,株式会社鳶大,,株式会社,熊本県,熊本市中央区,壺川１丁目１１番８－８０３号　ＣＨＡＩＮＯＮ壺川,,43,101,8600076,,,,,,,2025-06-20,1,,,,,トビダイ,0
960,4360001035377,新規,0,2025-06-20,2025-06-20,株式会社Ｍｉｌｏ　Ｆｒｏｙｏ,,株式会社,沖縄県,中頭郡北谷町,字砂辺３０３番地４ＹＥＮＮＳＨＯＵＳＩＮＧ５０２,,47,326,9040111,,,,,,,2025-06-20,1,,,,,ミロフロヨ,0
962,4370001052735,新規,0,2025-06-20,2025-06-20,株式会社プランタン,,株式会社,宮城県,仙台市青葉区,川平２丁目９番３５号,,04,101,9810954,,,,,,,2025-06-20,1,,,,,プランタン,0
974,4430001094696,新規,0,2025-06-20,2025-06-20,株式会社Ｅ４Ｔ,,株式会社,北海道,札幌市中央区,南四条西５丁目１０番地,,01,101,0640804,,,,,,,2025-06-20,1,,,,,イーフォーティー,0
978,4450001014652,新規,0,2025-06-20,2025-06-20,株式会社ウミトソラ,,株式会社,北海道,旭川市,永山四条１２丁目３番１０号,,01,204,0798414,,,,,,,2025-06-20,1,,,,,ウミトソラ,0
979,4490003002024,新規,0,2025-06-20,2025-06-20,合同会社シルバー,,合同会社,高知県,高知市,円行寺７１０番地３,,39,201,7800974,,,,,,,2025-06-20,1,,,,,シルバー,0
980,4700150131198,新規,0,2025-06-20,2025-06-20,ＨＩＬＬ　ＴＯＰ　ＭＯＴＯＲＳ,,外国会社等,千葉県,東金市,西中２３２番地４オフィスＤ,,12,213,2830045,スリランカ民主社会主義共和国、パッサラ、モナラガラロード、Ｎｏ．１２６／１,,,,,,2025-06-20,1,,,,,ヒルトツプモータース,0
984,5010001255934,新規,0,2025-06-20,2025-06-20,株式会社ブライシスコンサルティング,,株式会社,東京都,千代田区,麹町２丁目３番地２半蔵門ＰＲＥＸ・Ｎｏｒｔｈ－９Ｆ,,13,101,1020083,,,,,,,2025-06-20,1,,,,,ブライシスコンサルティング,0
995,5010401191184,新規,0,2025-06-20,2025-06-20,株式会社百,,株式会社,東京都,港区,南青山５丁目１７番６号青山グリーンハイツ４０５,,13,103,1070062,,,,,,,2025-06-20,1,,,,,ヒャク,0
1011,5011001170223,新規,0,2025-06-20,2025-06-20,Ｒｅｆａｃｔａ株式会社,,株式会社,東京都,渋谷区,富ヶ谷２丁目４４番８号富ヶ谷アパートメント２０３,,13,113,1510063,,,,,,,2025-06-20,1,,,,,リファクタ,0
1012,5011001170231,新規,0,2025-06-20,2025-06-20,株式会社クロノスケール,,株式会社,東京都,渋谷区,道玄坂１丁目１０番８号渋谷道玄坂東急ビル２Ｆ－Ｃ,,13,113,1500043,,,,,,,2025-06-20,1,,,,,クロノスケール,0
1013,5011001170248,新規,0,2025-06-20,2025-06-20,株式会社Ｇａｐｐｙ,,株式会社,東京都,渋谷区,道玄坂１丁目１０番８号渋谷道玄坂東急ビル２Ｆ－Ｃ,,13,113,1500043,,,,,,,2025-06-20,1,,,,,ギャッピー,0
1014,5011001170264,新規,0,2025-06-20,2025-06-20,株式会社Ｏｎｌｅｅ,,株式会社,東京都,渋谷区,神南１丁目１１番４号ＦＰＧリンクス神南５階,,13,113,1500041,,,,,,,2025-06-20,1,,,,,オンリー,0
1015,5011001170306,新規,0,2025-06-20,2025-06-20,株式会社Ｌｏｒｋ,,株式会社,東京都,渋谷区,恵比寿西２丁目４番８号ウィンド恵比寿ビル８Ｆ,,13,113,1500021,,,,,,,2025-06-20,1,,,,,ルーク,0
1016,5011001170322,新規,0,2025-06-20,2025-06-20,株式会社ＬＲｉｎｇ,,株式会社,東京都,渋谷区,円山町５番３号ＭＩＥＵＸ渋谷ビル８階,,13,113,1500044,,,,,,,2025-06-20,1,,,,,エルリング,0
1019,5011003021861,新規,0,2025-06-20,2025-06-20,アウラ合同会社,,合同会社,東京都,渋谷区,宇田川町３番１４－６０１号ザ・パークハウスアーバンス渋谷,,13,113,1500042,,,,,,,2025-06-20,1,,,,,アウラ,0
1030,5011305003046,新規,0,2025-06-20,2025-06-20,一般社団法人ＯＲＴＨＯ　ＥＬＩＴＥ,,その他の設立登記法人,東京都,杉並区,荻窪５丁目２９番１７－１０２号藤和シティホームズ荻窪駅前,,13,115,1670051,,,,,,,2025-06-20,1,,,,,オーソエリート,0
1035,5011701028423,新規,0,2025-06-20,2025-06-20,株式会社興順,,株式会社,東京都,江戸川区,東小松川１丁目１２－４,,13,123,1320033,,,,,,,2025-06-20,1,,,,,コウジュン,0
1044,5012401043258,新規,0,2025-06-20,2025-06-20,株式会社ＤＥＦＩＡＮＴ,,株式会社,東京都,三鷹市,井の頭４丁目９番１６号,,13,204,1810001,,,,,,,2025-06-20,1,,,,,ディファイアント,0
1049,5013301054485,新規,0,2025-06-20,2025-06-20,株式会社ＣＯＣＯＲＯ,,株式会社,東京都,豊島区,東池袋３丁目１－１サンシャイン６０－１２Ｆ,,13,116,1700013,,,,,,,2025-06-20,1,,,,,ココロ,0
1054,5020001163161,新規,0,2025-06-20,2025-06-20,株式会社Ｏ‐ＴＡＳ,,株式会社,神奈川県,横浜市西区,浅間町１丁目１８番地６小杉ハイツ１Ｆ,,14,103,2200072,,,,,,,2025-06-20,1,,,,,オータス,0
1055,5020001163509,新規,0,2025-06-20,2025-06-20,株式会社翠知,,株式会社,神奈川県,横浜市神奈川区,金港町５―１４クアドリフォリオ８階,,14,102,2210056,,,,,,,2025-06-20,1,,,,,スイチ,0
1064,5021001085536,新規,0,2025-06-20,2025-06-20,株式会社日緑苑,,株式会社,神奈川県,相模原市緑区,青野原２１８２番地３,,14,151,2520161,,,,,,,2025-06-20,1,,,,,,0
1065,5021001085552,新規,0,2025-06-20,2025-06-20,株式会社ＹＣＢ,,株式会社,神奈川県,平塚市,大神２丁目１９番２０号,,14,203,2540012,,,,,,,2025-06-20,1,,,,,ワイシービー,0
1081,5030001167178,新規,0,2025-06-20,2025-06-20,ＫＤＲＨＤ株式会社,,株式会社,埼玉県,川越市,諏訪町１０番地１３,,11,201,3501147,,,,,,,2025-06-20,1,,,,,ケーディーアールホールディングス,0
1082,5030001167194,新規,0,2025-06-20,2025-06-20,株式会社Ｂａｔｃｒａｆｔ,,株式会社,埼玉県,川口市,大字新堀１７６番地,,11,203,3340061,,,,,,,2025-06-20,1,,,,,バットクラフト,0
1085,5030003027000,新規,0,2025-06-20,2025-06-20,矢島商事合同会社,,合同会社,埼玉県,熊谷市,見晴町４４８番地２,,11,202,3600824,,,,,,,2025-06-20,1,,,,,ヤジマショウジ,0
1086,5030003027033,新規,0,2025-06-20,2025-06-20,合同会社ＮＯＷＫＥＮファーム,,合同会社,埼玉県,所沢市,所沢新町２４６３番地,,11,208,3590006,,,,,,,2025-06-20,1,,,,,ノウケンファーム,0
1095,5040001139250,新規,0,2025-06-20,2025-06-20,株式会社リベルテ,,株式会社,千葉県,千葉市花見川区,幕張本郷２丁目２０番２０号（株）ニッセイ国土開発ビル３０１号室,,12,102,2620033,,,,,,,2025-06-20,1,,,,,リベルテ,0
1096,5040001139267,新規,0,2025-06-20,2025-06-20,株式会社肉のたむら,,株式会社,千葉県,松戸市,小金原３丁目１７番地の６,,12,207,2700021,,,,,,,2025-06-20,1,,,,,ニクノタムラ,0
1097,5040001139275,新規,0,2025-06-20,2025-06-20,ＭＧ株式会社,,株式会社,千葉県,千葉市美浜区,高浜３丁目１番２号ブリリア稲毛海浜公園２１８,,12,106,2610003,,,,,,,2025-06-20,1,,,,,エムジー,0
1098,5040001139309,新規,0,2025-06-20,2025-06-20,ディスカスジャパン株式会社,,株式会社,千葉県,浦安市,日の出５丁目３番Ａ－１２０２号セレナヴィータ新浦安,,12,227,2790013,,,,,,,2025-06-20,1,,,,,ディスカスジャパン,0
1099,5040001139317,新規,0,2025-06-20,2025-06-20,株式会社サイアム成田商会,,株式会社,千葉県,成田市,成井４２９番地４,,12,211,2890114,,,,,,,2025-06-20,1,,,,,サイアムナリタショウカイ,0
1103,5040003027866,新規,0,2025-06-20,2025-06-20,合同会社ＡＣプシケ,,合同会社,千葉県,千葉市中央区,松波２丁目４番１８号,,12,101,2600044,,,,,,,2025-06-20,1,,,,,エーシープシケ,0
1104,5040003027874,新規,0,2025-06-20,2025-06-20,合同会社ＡＣテミス,,合同会社,千葉県,千葉市中央区,松波２丁目４番１８号,,12,101,2600044,,,,,,,2025-06-20,1,,,,,エーシーテミス,0
1106,5050001056833,新規,0,2025-06-20,2025-06-20,株式会社林トレーディング,,株式会社,茨城県,古河市,下片田７１６－５,,08,204,3060127,,,,,,,2025-06-20,1,,,,,ハヤシトレーディング,0
1108,5050003009368,新規,0,2025-06-20,2025-06-20,合同会社いずな,,合同会社,茨城県,猿島郡境町,大字西泉田１２０６番地４,,08,546,3060431,,,,,,,2025-06-20,1,,,,,イズナ,0
1118,5060003005614,新規,0,2025-06-20,2025-06-20,合同会社カミナリワークス,,合同会社,栃木県,那須塩原市,鍋掛１４７５番地７３１,,09,213,3250013,,,,,,,2025-06-20,1,,,,,カミナリワークス,0
1125,5080105006517,新規,0,2025-06-20,2025-06-20,一般社団法人富士南地区まちづくり協議会,,その他の設立登記法人,静岡県,富士市,森下５２番地の１,,22,210,4160949,,,,,,,2025-06-20,1,,,,,フジミナミチクマチヅクリキョウギカイ,0
1126,5080401027984,新規,0,2025-06-20,2025-06-20,株式会社ＣＨ‐Ｓｔｒｉｎｇ,,株式会社,静岡県,浜松市浜名区,新都田２丁目９番３４号,,22,139,4312103,,,,,,,2025-06-20,1,,,,,シーエイチストリング,0
1128,5090003002848,新規,0,2025-06-20,2025-06-20,合同会社ベルバードミー,,合同会社,山梨県,甲府市,大里町２４０３－７,,19,201,4000053,,,,,,,2025-06-20,1,,,,,ベルバードミー,0
1130,5100003008240,新規,0,2025-06-20,2025-06-20,合同会社ローカルフォレストリー,,合同会社,長野県,長野市,神楽橋７５番地１３８,,20,201,3810053,,,,,,,2025-06-20,1,,,,,ローカルフォレストリー,0
1141,5120001276977,新規,0,2025-06-20,2025-06-20,株式会社キャットウォーク,,株式会社,大阪府,大阪市中央区,西心斎橋１丁目１６番１２号ニューアメリカンプラザビル２階Ａ号,,27,128,5420086,,,,,,,2025-06-20,1,,,,,キャットウォーク,0
1142,5120001277001,新規,0,2025-06-20,2025-06-20,浩聖実業投資株式会社,,株式会社,大阪府,大阪市天王寺区,生玉町１０－２０朝日プラザ高津２－１２１４号,,27,109,5430071,,,,,,,2025-06-20,1,,,,,コウセイジツギョウトウシ,0
1143,5120001277018,新規,0,2025-06-20,2025-06-20,株式会社Ｍ．Ｙ　ＣＯＭＰＡＮＹ,,株式会社,大阪府,大阪市浪速区,湊町２丁目２番５－１７０７号,,27,111,5560017,,,,,,,2025-06-20,1,,,,,エムワイカンパニー,0
1144,5120001277034,新規,0,2025-06-20,2025-06-20,株式会社ＴＹＡＧＡ,,株式会社,大阪府,大阪市北区,梅田１丁目１－３大阪駅前第３ビル２９階１－１－１号室,,27,127,5300001,,,,,,,2025-06-20,1,,,,,ティアガ,0
1145,5120001277083,新規,0,2025-06-20,2025-06-20,株式会社クラフトフィックス,,株式会社,大阪府,大阪市北区,曾根崎２丁目３番５号,,27,127,5300057,,,,,,,2025-06-20,1,,,,,クラフトフィックス,0
1168,5140001138985,新規,0,2025-06-20,2025-06-20,株式会社ＰＲＥ．ＴＲＥ．,,株式会社,兵庫県,宍粟市,千種町河内１９５番地３,,28,227,6713232,,,,,,,2025-06-20,1,,,,,プレトレ,0
1174,5180001017203,新規,0,2025-06-20,2025-06-20,大平商事株式会社,,株式会社,愛知県,名古屋市東区,泉３丁目２８番５号,,23,102,4610001,,,,,,,2025-06-20,1,,,,,タイヘイショウジ,0
1178,5180001167353,新規,0,2025-06-20,2025-06-20,株式会社ｍｅｔａｍｏｒｐｈｏｓｉｓ,,株式会社,愛知県,名古屋市中村区,名駅４丁目２４番５号第２森ビル４０１,,23,105,4500002,,,,,,,2025-06-20,1,,,,,メタモルフォシス,0
1200,5240001065096,新規,0,2025-06-20,2025-06-20,広島ＬＧ株式会社,,株式会社,広島県,広島市中区,十日市二丁目１０－１８－２０６,,34,101,7300000,,,,,,,2025-06-20,1,,,,,ヒロシマエルジー,0
1201,5250003003747,新規,0,2025-06-20,2025-06-20,合同会社Ｌｉｆｅ　ｔｒｅｅ,,合同会社,山口県,光市,大字岩田２４８８番地４,,35,210,7430103,,,,,,,2025-06-20,1,,,,,ライフツリー,0
1210,5290001110483,新規,0,2025-06-20,2025-06-20,株式会社Ｌｉｌｙ,,株式会社,福岡県,福岡市早良区,西新４丁目９番１８－７号,,40,137,8140002,,,,,,,2025-06-20,1,,,,,リリー,0
1211,5290003017009,新規,0,2025-06-20,2025-06-20,Ｈａｎａｍａｒｕ　Ｃｏｎｓｕｌｔｉｎｇ合同会社,,合同会社,福岡県,福岡市博多区,博多駅前３丁目２７－２５第二岡部ビル８Ｆ・９Ｆ,,40,132,8120011,,,,,,,2025-06-20,1,,,,,ハナマルコンサルティング,0
1222,5330001033317,新規,0,2025-06-20,2025-06-20,株式会社山木,,株式会社,熊本県,菊池市,旭志麓１８２２番地１,,43,210,8691202,,,,,,,2025-06-20,1,,,,,ヤマギ,0
1228,5360001035368,新規,0,2025-06-20,2025-06-20,株式会社わくわくｄｏｋｉｄｏｋｉ,,株式会社,沖縄県,八重山郡竹富町,字黒島２６６６番地,,47,381,9071311,,,,,,,2025-06-20,1,,,,,ワクワクドキドキ,0
1230,5360003015013,新規,0,2025-06-20,2025-06-20,合同会社キッズライン,,合同会社,沖縄県,豊見城市,字豊崎３番地５９－４０１８,,47,212,9010225,,,,,,,2025-06-20,1,,,,,キッズライン,0
1243,5430001094712,新規,0,2025-06-20,2025-06-20,株式会社グローブリッジ,,株式会社,北海道,札幌市東区,北十九条東１丁目１番３２－７０１号,,01,103,0650019,,,,,,,2025-06-20,1,,,,,グローブリッジ,0
1244,5430003017794,新規,0,2025-06-20,2025-06-20,ルピナス合同会社,,合同会社,北海道,札幌市白石区,北郷四条５丁目９番２０号,,01,104,0030834,,,,,,,2025-06-20,1,,,,,,0
1251,5480005007095,新規,0,2025-06-20,2025-06-20,一般社団法人日本バレエ芸術振興協会,,その他の設立登記法人,徳島県,徳島市,北田宮２丁目５番４号,,36,201,7700003,,,,,,,2025-06-20,1,,,,,ニホンバレエゲイジュツシンコウキョウカイ,0
1258,5700150131065,新規,0,2025-06-20,2025-06-20,Ｎｉｎｇｂｏ　Ｌｉｎｇｄｕ　Ｅ－ｃｏｍｍｅｒｃｅ　Ｃｏ．Ｌｔｄ．,,外国会社等,,,,,,,,Ｊｉａｎｇｎａｎｌｕ１５５８ｈａｏ７ｌｏｕ７０８８－１３５２ｓｈｉ　Ｇａｏｘｉｎ，Ｎｉｎｇｂｏ，Ｚｈｅｊｉａｎｇ，Ｃｈｉｎａ,,,,,,2025-06-20,1,,,,,ニンボーリンドゥーディエンズーシャンウーヨウシエンゴンスー,0
1259,5700150131189,新規,0,2025-06-20,2025-06-20,ＣＡＲＳＯＮ，Ｐ．Ｃ．ＤＥＲＲＩＣＫ　Ｂ．,,外国会社等,,,,,,,,５０５　Ｗｅｓｔ　１５ｔｈ　Ｓｔｒｅｅｔ　Ａｕｓｔｉｎ，Ｔｅｘａｓ　７８７０１,,,,,,2025-06-20,1,,,,,カーソンピーシーデリツクビー,0
1260,5700150131197,新規,0,2025-06-20,2025-06-20,ＭＯＴＯＲＭＡＸ　ＩＮＴＥＲＮＡＴＩＯＮＡＬ,,外国会社等,千葉県,山武郡横芝光町,新島５２１４番地３－３,,12,410,2891736,スリランカ民主社会主義共和国、ナワラピティヤ、メインストリート、Ｎｏ．８３,,,,,,2025-06-20,1,,,,,モーターマツクスインターナシヨナル,0
1265,6010003047684,新規,0,2025-06-20,2025-06-20,ＮＡＭＢＡ１合同会社,,合同会社,東京都,千代田区,霞が関３丁目２番５号,,13,101,1000013,,,,,,,2025-06-20,1,,,,,ナンバワン,0
1267,6010005040225,新規,0,2025-06-20,2025-06-20,宇治プロパティー特定目的会社,,その他の設立登記法人,東京都,千代田区,丸の内１丁目１１番１号,,13,101,1000005,,,,,,,2025-06-20,1,,,,,ウジプロパティー,0
1297,6011001170197,新規,0,2025-06-20,2025-06-20,株式会社ｈａｎａｋｏｔｏｂａ．,,株式会社,東京都,渋谷区,恵比寿西２丁目４番８号ウィンド恵比寿ビル８Ｆ,,13,113,1500021,,,,,,,2025-06-20,1,,,,,ハナコトバ,0
1298,6011003021828,新規,0,2025-06-20,2025-06-20,Ｇ‐ＢＳ合同会社,,合同会社,東京都,渋谷区,恵比寿西２丁目４番８号ウィンド恵比寿ビル８Ｆ,,13,113,1500021,,,,,,,2025-06-20,1,,,,,ジービス,0
1299,6011003021836,新規,0,2025-06-20,2025-06-20,合同会社ＨＥＮＪＯ,,合同会社,東京都,渋谷区,神宮前６丁目２３番４号桑野ビル２階,,13,113,1500001,,,,,,,2025-06-20,1,,,,,ヘンジョウ,0
1300,6011005011034,新規,0,2025-06-20,2025-06-20,一般社団法人全国ＩＣＴ教育推進協会,,その他の設立登記法人,東京都,渋谷区,神南１丁目１１－４ＦＰＧリンクス神南５階,,13,113,1500041,,,,,,,2025-06-20,1,,,,,ゼンコクアイシーティーキョウイクスイシンキョウカイ,0
1306,6011201026439,新規,0,2025-06-20,2025-06-20,株式会社ＫＡＴ‐ＴＯＮ,,株式会社,東京都,中野区,中野１丁目３７番５号,,13,114,1640001,,,,,,,2025-06-20,1,,,,,カトーン,0
1307,6011201026455,新規,0,2025-06-20,2025-06-20,アイサポ株式会社,,株式会社,東京都,中野区,東中野１丁目５番２号,,13,114,1640003,,,,,,,2025-06-20,1,,,,,アイサポ,0
1310,6011303005605,新規,0,2025-06-20,2025-06-20,ケイジェイシンク合同会社,,合同会社,東京都,杉並区,善福寺２丁目１３番１２号,,13,115,1670041,,,,,,,2025-06-20,1,,,,,ケイジェイシンク,0
1312,6011603004744,新規,0,2025-06-20,2025-06-20,ＦＵＪＩＩ合同会社,,合同会社,東京都,練馬区,旭町１丁目１９番１０号,,13,120,1790071,,,,,,,2025-06-20,1,,,,,フジイ,0
1318,6011801046340,新規,0,2025-06-20,2025-06-20,ｔｍｓｋ株式会社,,株式会社,東京都,足立区,大谷田３丁目２０番５号,,13,121,1200001,,,,,,,2025-06-20,1,,,,,ティーエムエスケー,0
1319,6012305002136,新規,0,2025-06-20,2025-06-20,一般社団法人Ｄｒｅａｍｉｆｙ,,その他の設立登記法人,東京都,町田市,三輪緑山１丁目３番地２号緑山ヒルズ３１４号室,,13,209,1950055,,,,,,,2025-06-20,1,,,,,ドリミファイ,0
1335,6020001163482,新規,0,2025-06-20,2025-06-20,ＭＯＧテクノロジーズ株式会社,,株式会社,神奈川県,横浜市西区,北幸１丁目１１番１号水信ビル７階,,14,103,2200004,,,,,,,2025-06-20,1,,,,,エムオージーテクノロジーズ,0
1336,6020001163508,新規,0,2025-06-20,2025-06-20,株式会社ＯＳ,,株式会社,神奈川県,横浜市栄区,野七里１丁目２番１４－１４１２号,,14,115,2470024,,,,,,,2025-06-20,1,,,,,オーエス,0
1344,6021001085584,新規,0,2025-06-20,2025-06-20,エックスバイエックスプロジェクト株式会社,,株式会社,神奈川県,相模原市中央区,水郷田名３丁目３番９号,,14,152,2520246,,,,,,,2025-06-20,1,,,,,エックスバイエックスプロジェクト,0
1346,6021003016125,新規,0,2025-06-20,2025-06-20,合同会社ソライネ,,合同会社,神奈川県,秦野市,西田原５６番地の４７,,14,211,2570027,,,,,,,2025-06-20,1,,,,,ソライネ,0
1348,6030001167177,新規,0,2025-06-20,2025-06-20,輝都株式会社,,株式会社,埼玉県,越谷市,大字袋山８３５番地２パールマンション越谷２０３室,,11,222,3430032,,,,,,,2025-06-20,1,,,,,アキト,0
1352,6030003027040,新規,0,2025-06-20,2025-06-20,合同会社円相,,合同会社,埼玉県,川口市,金山町１番７号,,11,203,3320014,,,,,,,2025-06-20,1,,,,,エンソウ,0
1354,6040001139233,新規,0,2025-06-20,2025-06-20,株式会社カジメタ,,株式会社,千葉県,八千代市,萱田町５４２番地７１,,12,221,2760044,,,,,,,2025-06-20,1,,,,,カジメタ,0
1363,6040003027849,新規,0,2025-06-20,2025-06-20,合同会社タテケイ工芸,,合同会社,千葉県,銚子市,小浜町１７３７番地の１,,12,202,2880821,,,,,,,2025-06-20,1,,,,,タテケイコウゲイ,0
1364,6040003027857,新規,0,2025-06-20,2025-06-20,Ｆｕｊｉ合同会社,,合同会社,千葉県,八千代市,八千代台北１丁目１０番１６号八千代台チューリップビル１階,,12,221,2760031,,,,,,,2025-06-20,1,,,,,フジ,0
1365,6040003027865,新規,0,2025-06-20,2025-06-20,合同会社ＡＣエウノミ,,合同会社,千葉県,千葉市中央区,松波２丁目４番１８号,,12,101,2600044,,,,,,,2025-06-20,1,,,,,エーシーエウノミ,0
1377,6060001038318,新規,0,2025-06-20,2025-06-20,株式会社美竹,,株式会社,栃木県,芳賀郡芳賀町,大字西水沼９４６番地１,,09,345,3213324,,,,,,,2025-06-20,1,,,,,ミタケ,0
1379,6060003005613,新規,0,2025-06-20,2025-06-20,合同会社ＩＮＩＴＯ,,合同会社,栃木県,宇都宮市,西原町３５５０番地７ヴィラグロリエンテ西原１０２,,09,201,3200826,,,,,,,2025-06-20,1,,,,,イント,0
1384,6070003005967,新規,0,2025-06-20,2025-06-20,合同会社ＶＩｓｔ,,合同会社,群馬県,高崎市,西国分町７１番地３,,10,202,3703512,,,,,,,2025-06-20,1,,,,,ビスト,0
1397,6120001276976,新規,0,2025-06-20,2025-06-20,株式会社暁,,株式会社,大阪府,大阪市東淀川区,西淡路１丁目３番２６号,,27,114,5330031,,,,,,,2025-06-20,1,,,,,アカツキ,0
1398,6120001276992,新規,0,2025-06-20,2025-06-20,虎和創生株式会社,,株式会社,大阪府,大阪市城東区,関目５丁目１９番９号関目花博公館４０６Ａ,,27,118,5360008,,,,,,,2025-06-20,1,,,,,コワソウセイ,0
1399,6120001277000,新規,0,2025-06-20,2025-06-20,株式会社ヴィノラボ,,株式会社,大阪府,大阪市平野区,長吉出戸７丁目４番３号,,27,126,5470011,,,,,,,2025-06-20,1,,,,,ヴィノラボ,0
1400,6120001277009,新規,0,2025-06-20,2025-06-20,美久興業株式会社,,株式会社,大阪府,大阪市中央区,南船場１丁目５－１３－１２０３号,,27,128,5420081,,,,,,,2025-06-20,1,,,,,ビキュウコウギョウ,0
1401,6120001277017,新規,0,2025-06-20,2025-06-20,株式会社ＳＯＵ,,株式会社,大阪府,大阪市北区,梅田１丁目２番２号大阪駅前第２ビル１２－１２,,27,127,5300001,,,,,,,2025-06-20,1,,,,,ソウ,0
1402,6120001277082,新規,0,2025-06-20,2025-06-20,匠心株式会社,,株式会社,大阪府,大阪市浪速区,大国１丁目９番１４号５０２－Ｃ号室,,27,111,5560014,,,,,,,2025-06-20,1,,,,,ショウシン,0
1403,6120003029779,新規,0,2025-06-20,2025-06-20,Ｇｕｅｎ　Ｇｉａ合同会社,,合同会社,大阪府,大阪市浪速区,元町３丁目９－１０清水ビル３０２,,27,111,5560016,,,,,,,2025-06-20,1,,,,,グエンジャ,0
1404,6120003029795,新規,0,2025-06-20,2025-06-20,Ｍ＆ＫＴｒａｄｅ合同会社,,合同会社,大阪府,大阪市淀川区,宮原１丁目１－１新大阪阪急ビル３Ｆ,,27,123,5320003,,,,,,,2025-06-20,1,,,,,エムアンドケイトレード,0
1405,6120003029804,新規,0,2025-06-20,2025-06-20,Ｔｒｕｅ　Ｏｒｇａｎｉｃｓ　Ｈａｉｒ　Ｃｏ．合同会社,,合同会社,大阪府,大阪市西区,新町１丁目３０番１号,,27,106,5500013,,,,,,,2025-06-20,1,,,,,トゥルーオーガニックスヘアシーオー,0
1407,6120101071922,新規,0,2025-06-20,2025-06-20,株式会社大谷マリン,,株式会社,大阪府,阪南市,自然田２１６番地１,,27,232,5990212,,,,,,,2025-06-20,1,,,,,オオタニマリン,0
1408,6120101071930,新規,0,2025-06-20,2025-06-20,株式会社タレント,,株式会社,大阪府,堺市北区,長曽根町１３０番地４２さかい新事業創造センター,,27,146,5918025,,,,,,,2025-06-20,1,,,,,タレント,0
1415,6130001079874,新規,0,2025-06-20,2025-06-20,株式会社梅京禅,,株式会社,京都府,京都市北区,衣笠御所ノ内９,,26,101,6030000,,,,,,,2025-06-20,1,,,,,バイキョウゼン,0
1418,6130005017384,新規,0,2025-06-20,2025-06-20,一般社団法人Ｍｉｎｋａ　Ｐｒｅｓｅｒｖａｔｉｏｎ　Ｓｏｃｉｅｔｙ,,その他の設立登記法人,京都府,宮津市,字中波見８６番地,,26,205,6260212,,,,,,,2025-06-20,1,,,,,ミンカプレザベイションソシエティ,0
1428,6180003028486,新規,0,2025-06-20,2025-06-20,合同会社ｓｕｓｈｉ　ｓｐａｃｅ,,合同会社,愛知県,名古屋市千種区,光が丘２丁目６番５７号,,23,101,4640006,,,,,,,2025-06-20,1,,,,,スシスペース,0
1429,6180003028643,新規,0,2025-06-20,2025-06-20,合同会社ビー・アンビシャス,,合同会社,愛知県,江南市,藤ケ丘７丁目１番９号,,23,217,4838337,,,,,,,2025-06-20,1,,,,,ビーアンビシャス,0
1431,6180301039920,新規,0,2025-06-20,2025-06-20,株式会社ステラメール,,株式会社,愛知県,豊橋市,曙町字若松３５番地１ＣｌａｓｓｗｏｒｋＡｋｅｂｏｎｏＡ－２,,23,201,4418151,,,,,,,2025-06-20,1,,,,,ステラメール,0
1432,6180303006621,新規,0,2025-06-20,2025-06-20,ハッピースマイル合同会社,,合同会社,愛知県,豊田市,足助町狭石２７番地３,,23,211,4442424,,,,,,,2025-06-20,1,,,,,ハッピースマイル,0
1433,6190001032324,新規,0,2025-06-20,2025-06-20,株式会社大河コンサルティング,,株式会社,三重県,多気郡多気町,片野７６番地２０,,24,441,5192203,,,,,,,2025-06-20,1,,,,,タイガコンサルティング,0
1439,6200001043922,新規,0,2025-06-20,2025-06-20,株式会社モリコーポレーション,,株式会社,岐阜県,岐阜市,宇佐南４丁目５番５号,,21,201,5008367,,,,,,,2025-06-20,1,,,,,モリコーポレーション,0
1440,6200003006885,新規,0,2025-06-20,2025-06-20,合同会社ＯＫ工業,,合同会社,岐阜県,各務原市,各務西町２丁目２９８番地,,21,213,5090106,,,,,,,2025-06-20,1,,,,,オーケーコウギョウ,0
1452,6260001040286,新規,0,2025-06-20,2025-06-20,株式会社ＣＣＶＳ,,株式会社,岡山県,笠岡市,笠岡６００―２６,,33,205,7140081,,,,,,,2025-06-20,1,,,,,シーシーブイエス,0
1458,6290005019778,新規,0,2025-06-20,2025-06-20,一般社団法人ヤヨイ春日,,その他の設立登記法人,福岡県,春日市,春日公園８丁目２５番地３,,40,218,8160811,,,,,,,2025-06-20,1,,,,,ヤヨイカスガ,0
1467,6320005010246,新規,0,2025-06-20,2025-06-20,ＧＣＡ協同組合,,その他の設立登記法人,大分県,宇佐市,大字上田８１２番２,,44,211,8790453,,,,,,,2025-06-20,1,,,,,ジーシーエー,0
1486,6370001052733,新規,0,2025-06-20,2025-06-20,株式会社ｆｌｏｗ,,株式会社,宮城県,登米市,東和町米川字四十田２１－１,,04,212,9870901,,,,,,,2025-06-20,1,,,,,フロー,0
1492,6390001018022,新規,0,2025-06-20,2025-06-20,株式会社Ｒｙｕ,,株式会社,山形県,鶴岡市,日枝字大塚１４３番地３５,,06,203,9970824,,,,,,,2025-06-20,1,,,,,リュウ,0
1494,6390003002412,新規,0,2025-06-20,2025-06-20,ボール工房おがわ合同会社,,合同会社,山形県,新庄市,大字鳥越２８６６番地の８７,,06,205,9960041,,,,,,,2025-06-20,1,,,,,,0
1506,6700150131064,新規,0,2025-06-20,2025-06-20,ｔｉａｎｊｉｎｙｏｕｌａｎｄａｇｕｏｊｉｍａｏｙｉｙｏｕｘｉａｎｇｏｎｇｓｉ,,外国会社等,,,,,,,,ｔｉａｎｊｉｎｚｉｍａｏｓｈｉｙａｎｑｕ（ｚｈｏｎｇｘｉｎｓｈａｎｇｗｕｑｕ）ｈａｉｊｉｎｇｂｅｉｙｕａｎ１２－３－６０２－９,,,,,,2025-06-20,1,,,,,ティエンジンヨウランダーグオジーマオイーヨウシエンゴンスー,0
1507,6700150131188,新規,0,2025-06-20,2025-06-20,ＡＴＫＩＮＳ　Ｐ．Ｃ．ＺＡＣＨＡＲＹ　Ｔ．,,外国会社等,,,,,,,,３１２　Ｒｏｓａ　Ｌ．Ｐａｒｋｓ　ＡＶＥ，６ｔｈ　ＦＬ　Ｎａｓｈｖｉｌｌｅ，ＴＮ　３７２４３－１１０２,,,,,,2025-06-20,1,,,,,アトキンスピーシーザカリーテイー,0
1509,7010001256121,新規,0,2025-06-20,2025-06-20,株式会社バイブレーメン,,株式会社,東京都,千代田区,神田東松下町２８番地１６,,13,101,1010042,,,,,,,2025-06-20,1,,,,,バイブレーメン,0
1512,7010003047691,新規,0,2025-06-20,2025-06-20,至星合同会社,,合同会社,東京都,中央区,銀座６丁目１３番１６号銀座ＷａｌｌビルＵＣＦ５階,,13,102,1040061,,,,,,,2025-06-20,1,,,,,シセイ,0
1513,7010003047700,新規,0,2025-06-20,2025-06-20,イークラウドＮＥＸＴ１号合同会社,,合同会社,東京都,中央区,京橋２丁目２番１号京橋エドグランサウス４階トラスティルグループ内,,13,102,1040031,,,,,,,2025-06-20,1,,,,,イークラウドネクストイチゴウ,0
1530,7010401190878,新規,0,2025-06-20,2025-06-20,株式会社ＢｉｔａＰ,,株式会社,東京都,港区,芝４丁目７番６号芝ビルディング７０４,,13,103,1080014,,,,,,,2025-06-20,1,,,,,バイタップ,0
1531,7010401191216,新規,0,2025-06-20,2025-06-20,ソーシャルコインマーケティング株式会社,,株式会社,東京都,港区,南青山７丁目１番５号＆ＣＡＬＭｍｉｎａｍｉａｏｙａｍａ２Ｆ,,13,103,1070062,,,,,,,2025-06-20,1,,,,,ソーシャルコインマーケティング,0
1537,7010501054289,新規,0,2025-06-20,2025-06-20,達凱株式会社,,株式会社,東京都,台東区,台東３丁目５番１０号ダイアパレス御徒町第３－１０２－Ｐ号室,,13,106,1100016,,,,,,,2025-06-20,1,,,,,ダーカイ,0
1555,7011001169998,新規,0,2025-06-20,2025-06-20,株式会社Ｒｅｓｏｎａｌ,,株式会社,東京都,渋谷区,桜丘町２３番１７号シティコート桜丘４０８,,13,113,1500031,,,,,,,2025-06-20,1,,,,,レゾナル,0
1556,7011001170048,新規,0,2025-06-20,2025-06-20,株式会社ＳＫ,,株式会社,東京都,目黒区,中央町２丁目１５－５－３０５,,13,110,1520001,,,,,,,2025-06-20,1,,,,,エスケー,0
1557,7011001170238,新規,0,2025-06-20,2025-06-20,ＡｄｖｅｎｔｕｒｅＡＩ株式会社,,株式会社,東京都,渋谷区,桜丘町１８番４号,,13,113,1500031,,,,,,,2025-06-20,1,,,,,アドベンチャーエーアイ,0
1558,7011001170287,新規,0,2025-06-20,2025-06-20,碧棉谷紡績株式会社,,株式会社,東京都,渋谷区,富ヶ谷１丁目１４番１４号３階,,13,113,1510063,,,,,,,2025-06-20,1,,,,,ビーメングボウセキ,0
1559,7011001170320,新規,0,2025-06-20,2025-06-20,株式会社ｅｎａｂｌｅｒ,,株式会社,東京都,渋谷区,恵比寿４丁目２０番３号恵比寿ガーデンプレイスタワー１８階,,13,113,1500013,,,,,,,2025-06-20,1,,,,,イネーブラー,0
1564,7011101112123,新規,0,2025-06-20,2025-06-20,株式会社ミトリア,,株式会社,東京都,新宿区,西新宿７丁目１９－１５小田切ビル４Ｆ,,13,104,1600023,,,,,,,2025-06-20,1,,,,,ミトリア,0
1575,7012701018924,新規,0,2025-06-20,2025-06-20,ＭＨＴ株式会社,,株式会社,東京都,西東京市,田無町２丁目１９番３号,,13,229,1880011,,,,,,,2025-06-20,1,,,,,エムエイチティー,0
1578,7013103001460,新規,0,2025-06-20,2025-06-20,合同会社Ｋｉａｒａ　Ａｕｔｏ　Ｍａｒｔ,,合同会社,東京都,青梅市,成木１丁目２０番,,13,205,1980001,,,,,,,2025-06-20,1,,,,,キアラオートマート,0
1588,7020001163465,新規,0,2025-06-20,2025-06-20,株式会社カメリア,,株式会社,神奈川県,川崎市中原区,市ノ坪３８６番地５クレストフォルム武蔵小杉ブライトコート５０６,,14,133,2110016,,,,,,,2025-06-20,1,,,,,カメリア,0
1589,7020001163481,新規,0,2025-06-20,2025-06-20,株式会社ＬａｆｆＴｅｅ,,株式会社,神奈川県,横浜市港北区,篠原東３丁目２１番１０号,,14,109,2220022,,,,,,,2025-06-20,1,,,,,,0
1590,7020001163498,新規,0,2025-06-20,2025-06-20,ワイドツリー・アセットマネジメント株式会社,,株式会社,神奈川県,川崎市幸区,堀川町７２番地２１ラゾーナ川崎レジデンスＬ１６０１,,14,132,2120013,,,,,,,2025-06-20,1,,,,,ワイドツリーアセットマネジメント,0
1592,7020003028724,新規,0,2025-06-20,2025-06-20,カサナル合同会社,,合同会社,神奈川県,横浜市南区,別所５丁目９番２７－１号,,14,105,2320064,,,,,,,2025-06-20,1,,,,,カサナル,0
1595,7021001085583,新規,0,2025-06-20,2025-06-20,株式会社シーエーハーベスト,,株式会社,神奈川県,相模原市南区,麻溝台７丁目２４番６２号エイブルビル２Ｆ,,14,153,2520328,,,,,,,2025-06-20,1,,,,,シーエーハーベスト,0
1596,7021001085591,新規,0,2025-06-20,2025-06-20,株式会社Ｐｅａｒｌ　Ｗａｖｅ,,株式会社,神奈川県,茅ヶ崎市,東海岸北２丁目１番５７号２階,,14,207,2530053,,,,,,,2025-06-20,1,,,,,パールウェーブ,0
1609,7030001167176,新規,0,2025-06-20,2025-06-20,株式会社ＯＦＦＩＣＥ‐Ｋ,,株式会社,埼玉県,富士見市,関沢１丁目３番３２号,,11,235,3540025,,,,,,,2025-06-20,1,,,,,オフィスケイ,0
1610,7030001167192,新規,0,2025-06-20,2025-06-20,ＲＣ草刈サポート株式会社,,株式会社,埼玉県,比企郡滑川町,大字羽尾２３９８番地,,11,341,3550811,,,,,,,2025-06-20,1,,,,,アールシークサカリサポート,0
1611,7030001167201,新規,0,2025-06-20,2025-06-20,株式会社リガレ,,株式会社,埼玉県,上尾市,愛宕２丁目２３番３号メイベル３０２,,11,219,3620034,,,,,,,2025-06-20,1,,,,,リガレ,0
1617,7030003026702,新規,0,2025-06-20,2025-06-20,合同会社Ｓｕｒｐａｓｓ,,合同会社,埼玉県,志木市,館１丁目１番５号５０５,,11,228,3530006,,,,,,,2025-06-20,1,,,,,サーパス,0
1623,7040003027864,新規,0,2025-06-20,2025-06-20,合同会社ＡＣイレーネ,,合同会社,千葉県,千葉市中央区,松波２丁目４番１８号,,12,101,2600044,,,,,,,2025-06-20,1,,,,,エーシーイレーネ,0
1624,7040003027872,新規,0,2025-06-20,2025-06-20,合同会社ＡＣカリオペ,,合同会社,千葉県,千葉市中央区,松波２丁目４番１８号,,12,101,2600044,,,,,,,2025-06-20,1,,,,,エーシーカリオペ,0
1628,7050003009366,新規,0,2025-06-20,2025-06-20,ＴＬＨ　ＴＹＲＥ　ＧＬＯＢＡＬ　ＪＡＰＡＮ合同会社,,合同会社,茨城県,潮来市,日の出２丁目１２番地３３,,08,223,3112423,,,,,,,2025-06-20,1,,,,,ティーエルエイチタイヤグローバルジャパン,0
1630,7060001038317,新規,0,2025-06-20,2025-06-20,株式会社サンディプラニング,,株式会社,栃木県,栃木市,平柳町１丁目１９番３号早乙女ハイツ１号棟１０２,,09,203,3280012,,,,,,,2025-06-20,1,,,,,サンディプラニング,0
1655,7120001276926,新規,0,2025-06-20,2025-06-20,慧悦株式会社,,株式会社,大阪府,大阪市平野区,平野馬場１丁目５番２５－３０１号,,27,126,5470048,,,,,,,2025-06-20,1,,,,,エエツ,0
1656,7120001276959,新規,0,2025-06-20,2025-06-20,多米株式会社,,株式会社,大阪府,大阪市西成区,旭１丁目１０－２４－２０２号,,27,122,5570032,,,,,,,2025-06-20,1,,,,,タミ,0
1657,7120001277016,新規,0,2025-06-20,2025-06-20,株式会社ケイシン,,株式会社,大阪府,大阪市中央区,南船場３丁目２番２２号おおきに南船場ビル２０５,,27,128,5420081,,,,,,,2025-06-20,1,,,,,ケイシン,0
1658,7120001277040,新規,0,2025-06-20,2025-06-20,泰和商事株式会社,,株式会社,大阪府,大阪市住之江区,新北島１丁目４－１５－３０５,,27,125,5590024,,,,,,,2025-06-20,1,,,,,タイワショウジ,0
1677,7130001079907,新規,0,2025-06-20,2025-06-20,株式会社ＥＩＧＨＴＯＮＥ,,株式会社,京都府,京都市南区,久世大藪町４４８番地２５,,26,107,6010000,,,,,,,2025-06-20,1,,,,,エイトワン,0
1701,7180001167335,新規,0,2025-06-20,2025-06-20,株式会社テック,,株式会社,愛知県,名古屋市名東区,神月町１００１番地,,23,115,4650006,,,,,,,2025-06-20,1,,,,,テック,0
1702,7180001167368,新規,0,2025-06-20,2025-06-20,ＳＬＯＷＦＯＯＤＳ株式会社,,株式会社,愛知県,名古屋市名東区,貴船３丁目２０２番地の１,,23,115,4650058,,,,,,,2025-06-20,1,,,,,スローフーズ,0
1706,7180005021133,新規,0,2025-06-20,2025-06-20,一般社団法人Ｏｕｒ,,その他の設立登記法人,愛知県,名古屋市千種区,桜が丘１１９番地バンベール星ケ丘ヒルズ２０４号,,23,101,4640025,,,,,,,2025-06-20,1,,,,,アワー,0
1711,7190001032331,新規,0,2025-06-20,2025-06-20,起帆株式会社,,株式会社,三重県,鈴鹿市,安塚町４２８別棟,,24,207,5130818,,,,,,,2025-06-20,1,,,,,キボ,0
1712,7190003005087,新規,0,2025-06-20,2025-06-20,三木工業合同会社,,合同会社,三重県,桑名市,陽だまりの丘７丁目２４０１番地,,24,205,5110867,,,,,,,2025-06-20,1,,,,,ミキコウギョウ,0
1716,7200001043913,新規,0,2025-06-20,2025-06-20,株式会社ジェノフィブリクス,,株式会社,岐阜県,岐阜市,大学西１丁目２５番地４岐阜市公立大学法人岐阜薬科大学内,,21,201,5011113,,,,,,,2025-06-20,1,,,,,ジェノフィブリクス,0
1718,7200003006884,新規,0,2025-06-20,2025-06-20,合同会社丸一野研,,合同会社,岐阜県,岐阜市,元浜町５５番地,,21,201,5008007,,,,,,,2025-06-20,1,,,,,マルイチヤケン,0
1730,7250003003753,新規,0,2025-06-20,2025-06-20,合同会社萩学,,合同会社,山口県,萩市,大字東田町１４番地１,,35,204,7580047,,,,,,,2025-06-20,1,,,,,ハギガク,0
1732,7260001040293,新規,0,2025-06-20,2025-06-20,株式会社Ｍ’ｓカンパニー,,株式会社,岡山県,岡山市東区,瀬戸町沖２４１番地４,,33,103,7090855,,,,,,,2025-06-20,1,,,,,エムズカンパニー,0
1737,7290005019760,新規,0,2025-06-20,2025-06-20,一般社団法人がんばるっ祭実行委員会,,その他の設立登記法人,福岡県,久留米市,国分町７１９番地１,,40,203,8390863,,,,,,,2025-06-20,1,,,,,ガンバルッサイジッコウイインカイ,0
1742,7330001033315,新規,0,2025-06-20,2025-06-20,シェロン・テクニカ株式会社,,株式会社,熊本県,合志市,豊岡２０５４番地８２,,43,216,8611115,,,,,,,2025-06-20,1,,,,,シェロンテクニカ,0
1747,7370001052732,新規,0,2025-06-20,2025-06-20,清南機工株式会社,,株式会社,宮城県,仙台市太白区,西中田７丁目３０番１９号,,04,104,9811105,,,,,,,2025-06-20,1,,,,,セイナンキコウ,0
1759,7430003017784,新規,0,2025-06-20,2025-06-20,合同会社サポート未来,,合同会社,北海道,樺戸郡浦臼町,字ウラウシナイ１７１番地の１２,,01,431,0610600,,,,,,,2025-06-20,1,,,,,サポートミライ,0
1770,7480001012865,新規,0,2025-06-20,2025-06-20,株式会社アヴニール,,株式会社,徳島県,吉野川市,鴨島町鴨島６５７番地８,,36,205,7760010,,,,,,,2025-06-20,1,,,,,アヴニール,0
1774,7700150131063,新規,0,2025-06-20,2025-06-20,ｇｕａｎｇｚｈｏｕｓｈｉｗａｎｑｉｗｕｆａｎｇｂｕｙｏｕｘｉａｎｇｏｎｇｓｉ,,外国会社等,,,,,,,,ｇｕａｎｇｚｈｏｕｓｈｉｈｕａｄｕｑｕｓｈｉｌｉｎｇｚｈｅｎｌｉｎｇｎａｎｇｏｎｇｙｅｊｕｊｉｄｉａｎｓｈａｎｇｙｅｅｒｊｉｅ４９ｈａｏｙｉｃｅｎｇ,,,,,,2025-06-20,1,,,,,グワンジョウシーワンチーウーファンブーヨウシエンゴンスー,0
1775,7700150131187,新規,0,2025-06-20,2025-06-20,ＷＥＡＶＥＲ，Ｐ．Ｃ．ＡＤＡＭ　Ｊ．,,外国会社等,,,,,,,,５０５　Ｗｅｓｔ　１５ｔｈ　Ｓｔｒｅｅｔ　Ａｕｓｔｉｎ，Ｔｅｘａｓ　７８７０１,,,,,,2025-06-20,1,,,,,ウイーバーピーシーアダムジエイ,0
1776,7700150131212,新規,0,2025-06-20,2025-06-20,ＫＮＩＧＨＴＳＢＲＩＤＧＥ　ＡＳＳＥＴ　ＭＡＮＡＧＥＭＥＮＴ,,外国会社等,,,,,,,,ブリティッシュバージンアイランド　トルトラ地区　ロードタウン海外法人センター私書箱９２７,,,,,,2025-06-20,1,,,,,ナイツブリツジアセツトマネジメント,0
1782,8010005040207,新規,0,2025-06-20,2025-06-20,一般社団法人こども・子育て循環共創センター,,その他の設立登記法人,東京都,文京区,本駒込６丁目５番３号ビューネ本駒込７階,,13,105,1130021,,,,,,,2025-06-20,1,,,,,コドモコソダテジュンカンキョウソウセンター,0
1783,8010005040223,新規,0,2025-06-20,2025-06-20,一般社団法人Ｍｉｘ　Ｓａｎｄ　Ｋｕｍａｍｏｔｏ,,その他の設立登記法人,東京都,千代田区,霞が関３丁目２番５号,,13,101,1000013,,,,,,,2025-06-20,1,,,,,ミックスサンドクマモト,0
1795,8010401191173,新規,0,2025-06-20,2025-06-20,Ｋａｉｋａｋｕ　Ｖｅｎｔｕｒｅｓ株式会社,,株式会社,東京都,港区,六本木３丁目１番３０号ＡＢビル６階,,13,103,1060032,,,,,,,2025-06-20,1,,,,,カイカクベンチャーズ,0
1796,8010403035403,新規,0,2025-06-20,2025-06-20,合同会社ＢｉｔｅｗｅＬ,,合同会社,東京都,港区,南青山３丁目１番３６号青山丸竹ビル６Ｆ,,13,103,1070062,,,,,,,2025-06-20,1,,,,,バイトウェル,0
1797,8010403035411,新規,0,2025-06-20,2025-06-20,合同会社ベルポエニー,,合同会社,東京都,港区,六本木４丁目１０番３号第Ｖ大栄ビル８Ｆ,00139632,13,103,1060032,,,,,,,2025-06-20,1,,,,,ベルポエニー,0
1804,8010901057601,新規,0,2025-06-20,2025-06-20,株式会社ＥＶＥＯＮＥ,,株式会社,東京都,世田谷区,松原３丁目３０－１０－２Ｆ,,13,112,1560043,,,,,,,2025-06-20,1,,,,,エヴワン,0
1805,8010901057618,新規,0,2025-06-20,2025-06-20,株式会社ＲＥＰｉ,,株式会社,東京都,世田谷区,代沢２丁目２０番１４号,,13,112,1550032,,,,,,,2025-06-20,1,,,,,レピ,0
1810,8011001170253,新規,0,2025-06-20,2025-06-20,Ｓｕｎｕｐｃｏｍ株式会社,,株式会社,東京都,渋谷区,道玄坂１丁目１２番１号渋谷マークシティＷ２２階,,13,113,1500043,,,,,,,2025-06-20,1,,,,,サンプコン,0
1811,8011001170261,新規,0,2025-06-20,2025-06-20,Ｍ’ｓｔｉｍｅ株式会社,,株式会社,東京都,渋谷区,道玄坂１丁目１２－１渋谷マークシティ２２階,,13,113,1500043,,,,,,,2025-06-20,1,,,,,エムズタイム,0
1812,8011003021818,新規,0,2025-06-20,2025-06-20,合同会社マリースコット,,合同会社,東京都,渋谷区,笹塚２丁目１２番１４号２階,,13,113,1510073,,,,,,,2025-06-20,1,,,,,マリースコット,0
1815,8011101112122,新規,0,2025-06-20,2025-06-20,株式会社寅の予,,株式会社,東京都,新宿区,中落合２丁目２番１８－２０５号,,13,104,1610032,,,,,,,2025-06-20,1,,,,,トラノヨ,0
1816,8011103016024,新規,0,2025-06-20,2025-06-20,合同会社Ａ＆Ｃ,,合同会社,東京都,新宿区,百人町３丁目２８番５－７０２号,,13,104,1690073,,,,,,,2025-06-20,1,,,,,エーアンドシー,0
1819,8011201026445,新規,0,2025-06-20,2025-06-20,株式会社Ａｕｇｕｅ,,株式会社,東京都,中野区,中央１丁目２３番８－３０３号,,13,114,1640011,,,,,,,2025-06-20,1,,,,,オーグ,0
1821,8011301030669,新規,0,2025-06-20,2025-06-20,株式会社ａｌｓｔａｒ,,株式会社,東京都,杉並区,上荻３丁目１８―６―２０１,,13,115,1670043,,,,,,,2025-06-20,1,,,,,アルスター,0
1828,8011601028743,新規,0,2025-06-20,2025-06-20,株式会社ＣＲＡＦＥＥ,,株式会社,東京都,練馬区,桜台４丁目１－１５エミキューブ桜台ＩＩ１号室,00139630,13,120,1760002,,,,,,,2025-06-20,1,,,,,クラフィ,0
1831,8011801046322,新規,0,2025-06-20,2025-06-20,日本Ｆｏｒｂｅｓｔ株式会社,,株式会社,東京都,足立区,扇１丁目１１番２３号,,13,121,1230873,,,,,,,2025-06-20,1,,,,,ニホンフォーベスト,0
1836,8012401043247,新規,0,2025-06-20,2025-06-20,株式会社ルーク,,株式会社,東京都,多摩市,一ノ宮１丁目２４番地１メゾンドノア４１６号,,13,224,2060002,,,,,,,2025-06-20,1,,,,,ルーク,0
1846,8020001163464,新規,0,2025-06-20,2025-06-20,株式会社萩田軽工業,,株式会社,神奈川県,横浜市磯子区,杉田４丁目１３番８号,,14,107,2350033,,,,,,,2025-06-20,1,,,,,ハギタケイコウギョウ,0
1847,8020001163497,新規,0,2025-06-20,2025-06-20,株式会社ｔｏｃｏ　ａ　ｔｏｃｏ,,株式会社,神奈川県,横浜市青葉区,奈良町２４１５番地２８４,,14,117,2270036,,,,,,,2025-06-20,1,,,,,トコアトコ,0
1848,8020001163506,新規,0,2025-06-20,2025-06-20,ＹＨ興業株式会社,,株式会社,神奈川県,横浜市西区,浜松町２‐３２大森ビル２Ｆ,,14,103,2200055,,,,,,,2025-06-20,1,,,,,ワイエイチコウギョウ,0
1851,8020003028715,新規,0,2025-06-20,2025-06-20,合同会社ＮＯＬＥ,,合同会社,神奈川県,横浜市西区,浅間町１丁目４－３ウィザードビル４０２,,14,103,2200072,,,,,,,2025-06-20,1,,,,,ノール,0
1852,8020003028756,新規,0,2025-06-20,2025-06-20,サカルヤ・ジャパン合同会社,,合同会社,神奈川県,横浜市西区,浅間町１丁目４番地３ウィザードビル４０２,,14,103,2200072,,,,,,,2025-06-20,1,,,,,サカルヤジャパン,0
1857,8021001085574,新規,0,2025-06-20,2025-06-20,グロースコンサルティング株式会社,,株式会社,神奈川県,海老名市,上郷１丁目２９番１５－１０３号,,14,215,2430434,,,,,,,2025-06-20,1,,,,,グロースコンサルティング,0
1865,8030001167167,新規,0,2025-06-20,2025-06-20,ＳＬｉｎｔ株式会社,,株式会社,埼玉県,三郷市,鷹野３丁目１１１番地１３,,11,237,3410035,,,,,,,2025-06-20,1,,,,,スリント,0
1866,8030001167200,新規,0,2025-06-20,2025-06-20,株式会社ＢｉｇＲｉｖｅｒ２９,,株式会社,埼玉県,春日部市,南３丁目１４番３７号,,11,214,3440064,,,,,,,2025-06-20,1,,,,,ビッグリバーツーナイン,0
1874,8030003027039,新規,0,2025-06-20,2025-06-20,ＴＮＤ合同会社,,合同会社,埼玉県,入間市,東藤沢３丁目２番１３号ＫＩＶ商会館入間Ｃ号室,,11,225,3580012,,,,,,,2025-06-20,1,,,,,ティエヌディ,0
1875,8030003027047,新規,0,2025-06-20,2025-06-20,合同会社クリヨン,,合同会社,埼玉県,和光市,白子３丁目２番８号,,11,229,3510101,,,,,,,2025-06-20,1,,,,,クリヨン,0
1876,8030005022194,新規,0,2025-06-20,2025-06-20,一般社団法人虎子屋,,その他の設立登記法人,埼玉県,さいたま市見沼区,大字中川１４５番地４６,,11,104,3370043,,,,,,,2025-06-20,1,,,,,トラコヤ,0
1880,8040001139289,新規,0,2025-06-20,2025-06-20,株式会社ＫＥＥＰ,,株式会社,千葉県,旭市,川口２００４番地１,,12,215,2892535,,,,,,,2025-06-20,1,,,,,キープ,0
1882,8040003027797,新規,0,2025-06-20,2025-06-20,ＭＩＲＡＳＨ合同会社,,合同会社,千葉県,佐倉市,大崎台３丁目５－５サニプラーザＣ１０２,,12,212,2850817,,,,,,,2025-06-20,1,,,,,ミラッシュ,0
1883,8040003027863,新規,0,2025-06-20,2025-06-20,合同会社ＡＣエゲリア,,合同会社,千葉県,千葉市中央区,松波２丁目４番１８号,,12,101,2600044,,,,,,,2025-06-20,1,,,,,エーシーエゲリア,0
1884,8040003027871,新規,0,2025-06-20,2025-06-20,合同会社ＡＣルテティ,,合同会社,千葉県,千葉市中央区,松波２丁目４番１８号,,12,101,2600044,,,,,,,2025-06-20,1,,,,,エーシールテティ,0
1885,8040003027921,新規,0,2025-06-20,2025-06-20,合同会社アルグッド,,合同会社,千葉県,千葉市花見川区,浪花町３―３７,,12,102,2620024,,,,,,,2025-06-20,1,,,,,アルグッド,0
1894,8060001038316,新規,0,2025-06-20,2025-06-20,株式会社アイゼン,,株式会社,栃木県,鹿沼市,寺町１３４０番地,,09,205,3220057,,,,,,,2025-06-20,1,,,,,アイゼン,0
1895,8060003005603,新規,0,2025-06-20,2025-06-20,合同会社ＹｕＳｏｌ,,合同会社,栃木県,宇都宮市,平出町３７４２－１,,09,201,3210901,,,,,,,2025-06-20,1,,,,,ユーソル,0
1906,8090001019346,新規,0,2025-06-20,2025-06-20,株式会社Ｔ２国貿,,株式会社,山梨県,中巨摩郡昭和町,飯喰４５６番地６,,19,384,4093852,,,,,,,2025-06-20,1,,,,,ティーツーコクボウ,0
1917,8110001039358,新規,0,2025-06-20,2025-06-20,株式会社ＣＨＩＥＮＯＷＡ,,株式会社,新潟県,新潟市中央区,南笹口１丁目１番３８号コープオリンピア笹口８０８,,15,103,9500912,,,,,,,2025-06-20,1,,,,,チエノワ,0
1922,8120001276611,新規,0,2025-06-20,2025-06-20,千手株式会社,,株式会社,大阪府,大阪市生野区,巽北１丁目２１,,27,116,5440004,,,,,,,2025-06-20,1,,,,,センシュ,0
1923,8120001276842,新規,0,2025-06-20,2025-06-20,発発株式会社,,株式会社,大阪府,大阪市住吉区,長居２丁目２番８号サクセス長居１Ｃ,,27,120,5580003,,,,,,,2025-06-20,1,,,,,ハツハツ,0
1924,8120001276966,新規,0,2025-06-20,2025-06-20,ＤＥＬＩジャパン株式会社,,株式会社,大阪府,大阪市中央区,鎗屋町１丁目２番９号,,27,128,5400027,,,,,,,2025-06-20,1,,,,,デリジャパン,0
1925,8120001276990,新規,0,2025-06-20,2025-06-20,ＶｉＭａｘ　Ｈｅａｌｔｈ株式会社,,株式会社,大阪府,大阪市東成区,大今里３丁目１５番６号ＩｍａｚａｔｏＴｏｗｅｒ４０７Ｄ,,27,115,5370012,,,,,,,2025-06-20,1,,,,,ビマックスヘルス,0
1926,8120001276999,新規,0,2025-06-20,2025-06-20,Ｔｏｐｓｋｙ　Ｍａｒｋｅｔｉｎｇ株式会社,,株式会社,大阪府,大阪市東住吉区,杭全１丁目１７－１７－６０２号,,27,121,5460002,,,,,,,2025-06-20,1,,,,,トップスカイマーケティング,0
1927,8120001277007,新規,0,2025-06-20,2025-06-20,Ｒａｂｂｉｔ株式会社,,株式会社,大阪府,大阪市中央区,日本橋１丁目１０－１２,,27,128,5420073,,,,,,,2025-06-20,1,,,,,ラビット,0
1928,8120001277015,新規,0,2025-06-20,2025-06-20,株式会社Ｊｕｎｇｌｅｇｙｍ,,株式会社,大阪府,大阪市生野区,小路東３丁目１３番２６号,,27,116,5440003,,,,,,,2025-06-20,1,,,,,ジャングルジム,0
1929,8120001277072,新規,0,2025-06-20,2025-06-20,ＡＬＷＡＹＳ　ＳＨＵＮ株式会社,,株式会社,大阪府,大阪市生野区,新今里５丁目１５番１７号,,27,116,5440001,,,,,,,2025-06-20,1,,,,,オールウェイズシュン,0
1930,8120001277080,新規,0,2025-06-20,2025-06-20,株式会社ＴＧＲ,,株式会社,大阪府,大阪市北区,東天満２丁目２番１７号東天満パークビル,,27,127,5300044,,,,,,,2025-06-20,1,,,,,ティージーアール,0
1934,8120003029793,新規,0,2025-06-20,2025-06-20,豊瑞合同会社,,合同会社,大阪府,大阪市東成区,中道４丁目１６番２１－４１５号,,27,115,5370025,,,,,,,2025-06-20,1,,,,,ホウズイ,0
1935,8120003029819,新規,0,2025-06-20,2025-06-20,ＴＴ　ＫａｎＳａｉ合同会社,,合同会社,大阪府,大阪市平野区,喜連５丁目１番２２－１０２号,,27,126,5470027,,,,,,,2025-06-20,1,,,,,ティーティーカンサイ,0
1957,8140001138966,新規,0,2025-06-20,2025-06-20,株式会社ＷＡＴＡＢＥ,,株式会社,兵庫県,宝塚市,山手台東５丁目２６番１７号,,28,214,6650887,,,,,,,2025-06-20,1,,,,,ワタベ,0
1958,8140001138990,新規,0,2025-06-20,2025-06-20,ＥＮＲＥＩＳ株式会社,,株式会社,兵庫県,姫路市,香寺町土師５１６番地１,,28,201,6792163,,,,,,,2025-06-20,1,,,,,エンレイス,0
1959,8140001138999,新規,0,2025-06-20,2025-06-20,株式会社５３０．ｉｓｍ,,株式会社,兵庫県,明石市,野々上２丁目５番地の１２,,28,203,6730017,,,,,,,2025-06-20,1,,,,,ゴーサンマルイズム,0
1963,8150001028209,新規,0,2025-06-20,2025-06-20,株式会社ハイブリッヂ,,株式会社,奈良県,奈良市,三条町４７５松田ビル２Ｆ、ＹＡＭＡＴＯＢＡＳＥ,,29,201,6308244,,,,,,,2025-06-20,1,,,,,ハイブリッヂ,0
1967,8170001018678,新規,0,2025-06-20,2025-06-20,株式会社建設総合サポート,,株式会社,和歌山県,海南市,阪井１８０６－５,,30,202,6420024,,,,,,,2025-06-20,1,,,,,ケンセツソウゴウサポート,0
1968,8170005007157,新規,0,2025-06-20,2025-06-20,特定非営利活動法人動物福祉団体城下町にゃんこの会和歌山,,その他の設立登記法人,和歌山県,和歌山市,十三番丁２９番地,,30,201,6408150,,,,,,,2025-06-20,1,,,,,ドウブツフクシダンタイジョウカマチニャンコノカイワカヤマ,0
1973,8180301039919,新規,0,2025-06-20,2025-06-20,株式会社ＫＥＩＳＥＩ,,株式会社,愛知県,豊田市,大林町４丁目２６番地１,,23,211,4730902,,,,,,,2025-06-20,1,,,,,,0
1974,8180303006611,新規,0,2025-06-20,2025-06-20,合同会社青葉あけぼの不動産,,合同会社,愛知県,豊橋市,曙町字測点１０３番地の１,,23,201,4418151,,,,,,,2025-06-20,1,,,,,アオバアケボノフドウサン,0
1975,8180305009694,新規,0,2025-06-20,2025-06-20,管理組合法人エメラルドマンション南台,,その他の設立登記法人,愛知県,豊橋市,牛川町字南台１番地の２,,23,201,4400016,,,,,,,2025-06-20,1,,,,,エメラルドマンションミナミダイ,0
1978,8200003006883,新規,0,2025-06-20,2025-06-20,ＥｉｇｈｔＯｎｅ合同会社,,合同会社,岐阜県,加茂郡川辺町,石神９０４番地１,,21,503,5090303,,,,,,,2025-06-20,1,,,,,エイトワン,0
1987,8240001065093,新規,0,2025-06-20,2025-06-20,株式会社タカヲ,,株式会社,広島県,広島市佐伯区,隅の浜１丁目８番１－３０２号,,34,108,7315145,,,,,,,2025-06-20,1,,,,,タカヲ,0
1990,8240003007267,新規,0,2025-06-20,2025-06-20,合同会社ブルーバイソン,,合同会社,広島県,福山市,南蔵王町３丁目１５－２８,,34,207,7210973,,,,,,,2025-06-20,1,,,,,ブルーバイソン,0
1993,8250001021203,新規,0,2025-06-20,2025-06-20,Ａｔｅｌｉｅｒ　ＭｙＴＨ株式会社,,株式会社,山口県,周南市,大字徳山５１００番地の７,,35,215,7450851,,,,,,,2025-06-20,1,,,,,アトリエミース,0
1998,8260001040292,新規,0,2025-06-20,2025-06-20,株式会社いちず,,株式会社,岡山県,岡山市北区,大供本町７０９番地５,,33,101,7000911,,,,,,,2025-06-20,1,,,,,イチズ,0
2002,8290001110456,新規,0,2025-06-20,2025-06-20,ｏｆｆ株式会社,,株式会社,福岡県,福岡市中央区,薬院１丁目８－５－３０１,,40,133,8100022,,,,,,,2025-06-20,1,,,,,オフ,0
2003,8290003017022,新規,0,2025-06-20,2025-06-20,合同会社Ｐｒｅｖａｉｌ,,合同会社,福岡県,福岡市早良区,飯倉６丁目４１番５号,,40,137,8140161,,,,,,,2025-06-20,1,,,,,プリヴェイル,0
2006,8300001014226,新規,0,2025-06-20,2025-06-20,株式会社グローアス,,株式会社,佐賀県,唐津市,湊町９５０番地１,,41,202,8470133,,,,,,,2025-06-20,1,,,,,グローアス,0
2007,8310001019653,新規,0,2025-06-20,2025-06-20,株式会社シャイニンググループ,,株式会社,長崎県,南松浦郡新上五島町,有川郷２３３番地１,,42,411,8574211,,,,,,,2025-06-20,1,,,,,シャイニンググループ,0
2014,8360001035373,新規,0,2025-06-20,2025-06-20,株式会社Ｔ・Ｋ,,株式会社,沖縄県,うるま市,字豊原５６５番地１０,,47,213,9042233,,,,,,,2025-06-20,1,,,,,ティーケイ,0
2021,8420003003140,新規,0,2025-06-20,2025-06-20,合同会社ＶＩＤＡ　ＬＡＢ,,合同会社,青森県,弘前市,大字山道町２８番地１,,02,202,0368181,,,,,,,2025-06-20,1,,,,,ヴィダラボ,0
2040,8470001020769,新規,0,2025-06-20,2025-06-20,株式会社Ｎｉｗａ　Ｎｉｏｎｅ,,株式会社,香川県,三豊市,仁尾町仁尾丁４４６番地１０,,37,208,7691407,,,,,,,2025-06-20,1,,,,,ニワニワ,0
2042,8700150131186,新規,0,2025-06-20,2025-06-20,テファエルアンドシー株式会社,,外国会社等,東京都,豊島区,東池袋５丁目７番３号アゼリア東池袋４０１,,13,116,1700013,大韓民国ソウル特別市永登浦区堂山路７７（堂山洞２街）,,,,,,2025-06-20,1,,,,,テフアエルアンドシーカブシキガイシヤ,0
2043,8700150131194,新規,0,2025-06-20,2025-06-20,Ｈａｒｖａｒｄ　Ｂｕｓｉｎｅｓｓ　Ｓｃｈｏｏｌ　Ｐｕｂｌｉｓｈｉｎｇ　Ｃｏ,,外国会社等,,,,,,,,２０　Ｇｕｅｓｔ　Ｓｔｒｅｅｔ，Ｓｕｉｔｅ　４００，Ｂｒｉｇｈｔｏｎ，０２１３５　ＭＡ，ＵＳＡ,,,,,,2025-06-20,1,,,,,ハーバードビジネススクールパブリツシングコーポレーシヨン,0
2046,9010001256128,新規,0,2025-06-20,2025-06-20,株式会社ＩＮＦＩＮＩＴＹ,,株式会社,東京都,千代田区,平河町１丁目３番６号ＢＩＺＭＡＲＫＳ麹町,,13,101,1020093,,,,,,,2025-06-20,1,,,,,インフィニティ,0
2047,9010003047681,新規,0,2025-06-20,2025-06-20,シアノ合同会社,,合同会社,東京都,中央区,勝どき５丁目５－１４クレストシティレジデンス１７１１,,13,102,1040054,,,,,,,2025-06-20,1,,,,,シアノ,0
2048,9010003047731,新規,0,2025-06-20,2025-06-20,ＴＭＡＰＥ２０２５‐１マネジメント合同会社,,合同会社,東京都,千代田区,丸の内１丁目８番２号,,13,101,1000005,,,,,,,2025-06-20,1,,,,,ティーエムエーピーイーニゼロニゴイチマネジメント,0
2051,9010005040214,新規,0,2025-06-20,2025-06-20,一般社団法人国際再生医療推進協議会,,その他の設立登記法人,東京都,千代田区,神田神保町２丁目１０番２４号２Ｆ,,13,101,1010051,,,,,,,2025-06-20,1,,,,,コクサイサイセイイリョウスイシンキョウギカイ,0
2052,9010005040222,新規,0,2025-06-20,2025-06-20,一般社団法人ＲＩＣＰＪ１,,その他の設立登記法人,東京都,千代田区,霞が関３丁目２番５号,,13,101,1000013,,,,,,,2025-06-20,1,,,,,アールアイシーピージェーワン,0
2060,9010401191172,新規,0,2025-06-20,2025-06-20,株式会社解析技術研究所,,株式会社,東京都,港区,三田３丁目２－８箕浦ビル３Ｆ,,13,103,1080073,,,,,,,2025-06-20,1,,,,,カイセキギジュツケンキュウジョ,0
2076,9011001170194,新規,0,2025-06-20,2025-06-20,株式会社人つなぎ,,株式会社,東京都,渋谷区,恵比寿４丁目４－５第３伊藤ビル１０２号,,13,113,1500013,,,,,,,2025-06-20,1,,,,,ヒトツナギ,0
2077,9011001170351,新規,0,2025-06-20,2025-06-20,株式会社スライド,,株式会社,東京都,渋谷区,道玄坂１丁目１０番８号渋谷道玄坂東急ビル２Ｆ－Ｃ,,13,113,1500043,,,,,,,2025-06-20,1,,,,,スライド,0
2082,9011101112261,新規,0,2025-06-20,2025-06-20,株式会社ビズテック,,株式会社,東京都,新宿区,西新宿３丁目３番１３号西新宿水間ビル２Ｆ,,13,104,1600023,,,,,,,2025-06-20,1,,,,,ビズテック,0
2094,9012301014438,新規,0,2025-06-20,2025-06-20,株式会社スアイナーカーウ,,株式会社,東京都,町田市,木曽西１丁目３番４８号,,13,209,1940037,,,,,,,2025-06-20,1,,,,,スアイナーカーウ,0
2098,9012401043254,新規,0,2025-06-20,2025-06-20,株式会社ドゥーアメディカルグループ,,株式会社,東京都,多摩市,永山１丁目１１番２－１０４号,,13,224,2060025,,,,,,,2025-06-20,1,,,,,ドゥーアメディカルグループ,0
2099,9012401043262,新規,0,2025-06-20,2025-06-20,株式会社ｓｔｕｄｉｏｍｅｇａｎｅ　ａｒｃｈｉｔｅｃｔｓ,,株式会社,東京都,多摩市,落合４丁目１６番地１－１０５,,13,224,2060033,,,,,,,2025-06-20,1,,,,,スタジオメガネアーキテクツ,0
2110,9020001162374,新規,0,2025-06-20,2025-06-20,株式会社Ｌａ　Ｌｕｚ,,株式会社,神奈川県,横浜市南区,永田東３丁目１３番１８号ヒルズＭ１０２,,14,105,2320072,,,,,,,2025-06-20,1,,,,,ラルース,0
2111,9020001163488,新規,0,2025-06-20,2025-06-20,ＹＤＨ　ＪＡＰＡＮ株式会社,,株式会社,神奈川県,川崎市高津区,坂戸３丁目２－１,,14,134,2130012,,,,,,,2025-06-20,1,,,,,ワイデーエイチ,0
2114,9020003028755,新規,0,2025-06-20,2025-06-20,神亀ホールディングス合同会社,,合同会社,神奈川県,横浜市神奈川区,片倉１丁目８番８号,,14,102,2210865,,,,,,,2025-06-20,1,,,,,ジンキホールディングス,0
2121,9030001167166,新規,0,2025-06-20,2025-06-20,ＪＹ　Ｃａｐｉｔａｌ株式会社,,株式会社,埼玉県,朝霞市,浜崎２丁目６番２４号,,11,227,3510033,,,,,,,2025-06-20,1,,,,,ジェイワイキャピタル,0
2122,9030001167174,新規,0,2025-06-20,2025-06-20,株式会社ライトアップ,,株式会社,埼玉県,さいたま市南区,大字太田窪２５９０番地５リヴェール１０２号室,,11,108,3360015,,,,,,,2025-06-20,1,,,,,ライトアップ,0
2123,9030001167199,新規,0,2025-06-20,2025-06-20,株式会社Ｓｕｏｒｉａ,,株式会社,埼玉県,本庄市,児玉町児玉２２５１番地６,,11,211,3670212,,,,,,,2025-06-20,1,,,,,スオリア,0
2124,9030001167216,新規,0,2025-06-20,2025-06-20,株式会社タイヨウ,,株式会社,埼玉県,川口市,大字安行領根岸２０１８番地,,11,203,3330834,,,,,,,2025-06-20,1,,,,,タイヨウ,0
2125,9030001167224,新規,0,2025-06-20,2025-06-20,太平洋世紀株式会社,,株式会社,埼玉県,草加市,松原２丁目３番５－８１５号,,11,221,3400041,,,,,,,2025-06-20,1,,,,,タイヘイヨウセイキ,0
2130,9030003027013,新規,0,2025-06-20,2025-06-20,合同会社ＡＨＰ,,合同会社,埼玉県,川口市,並木２丁目１８－１８ウイズマンション１階１０１号室,,11,203,3320034,,,,,,,2025-06-20,1,,,,,エーエイチピー,0
2131,9030003027021,新規,0,2025-06-20,2025-06-20,ゼンユウ合同会社,,合同会社,埼玉県,児玉郡神川町,大字渡瀬４０５番地２,,11,383,3670301,,,,,,,2025-06-20,1,,,,,ゼンユウ,0
2132,9030003027038,新規,0,2025-06-20,2025-06-20,合同会社いろは,,合同会社,埼玉県,上尾市,富士見２丁目５番３－１０１号,,11,219,3620041,,,,,,,2025-06-20,1,,,,,イロハ,0
2137,9040001139305,新規,0,2025-06-20,2025-06-20,株式会社木乃花商店,,株式会社,千葉県,千葉市緑区,誉田町２丁目２３番地,,12,105,2660005,,,,,,,2025-06-20,1,,,,,コノハナショウテン,0
2139,9040003027862,新規,0,2025-06-20,2025-06-20,合同会社ＡＣビクトリ,,合同会社,千葉県,千葉市中央区,松波２丁目４番１８号,,12,101,2600044,,,,,,,2025-06-20,1,,,,,エーシービクトリ,0
2140,9040003027870,新規,0,2025-06-20,2025-06-20,合同会社ＡＣマッサリ,,合同会社,千葉県,千葉市中央区,松波２丁目４番１８号,,12,101,2600044,,,,,,,2025-06-20,1,,,,,エーシーマッサリ,0
2142,9050003009356,新規,0,2025-06-20,2025-06-20,合同会社ＨｕＳｙｎｃ,,合同会社,茨城県,下妻市,加養３３７２－２,,08,210,3040048,,,,,,,2025-06-20,1,,,,,,0
2145,9060001038315,新規,0,2025-06-20,2025-06-20,浅野食肉株式会社,,株式会社,栃木県,さくら市,南和田４６５番地,,09,214,3291406,,,,,,,2025-06-20,1,,,,,アサノショクニク,0
2147,9060003005602,新規,0,2025-06-20,2025-06-20,合同会社ａｒｕ,,合同会社,栃木県,宇都宮市,下栗町２９３２－３７,,09,201,3210923,,,,,,,2025-06-20,1,,,,,アル,0
2173,9120001276924,新規,0,2025-06-20,2025-06-20,株式会社Ｐｒｉｍｅ　Ｅｓｔａｔｅ,,株式会社,大阪府,大阪市西区,江之子島１丁目１０番１号,,27,106,5500006,,,,,,,2025-06-20,1,,,,,プライムエステート,0
2174,9120001276973,新規,0,2025-06-20,2025-06-20,イットグループ株式会社,,株式会社,大阪府,大阪市北区,梅田１丁目２番２号大阪駅前第２ビル１２－１２,,27,127,5300001,,,,,,,2025-06-20,1,,,,,イットグループ,0
2175,9120001276998,新規,0,2025-06-20,2025-06-20,株式会社オルカワン,,株式会社,大阪府,大阪市西淀川区,柏里１丁目１番１３号エクセルウィーン塚本４０２号室,00139629,27,113,5550022,,,,,,,2025-06-20,1,,,,,オルカワン,0
2176,9120001277014,新規,0,2025-06-20,2025-06-20,凱瑞株式会社,,株式会社,大阪府,大阪市東成区,神路４丁目５番２３号,,27,115,5370003,,,,,,,2025-06-20,1,,,,,カイルイ,0
2177,9120001277022,新規,0,2025-06-20,2025-06-20,梧桐商事株式会社,,株式会社,大阪府,大阪市東淀川区,豊新５丁目６番３－３０３号,,27,114,5330014,,,,,,,2025-06-20,1,,,,,ゴトウショウジ,0
2178,9120001277039,新規,0,2025-06-20,2025-06-20,ＭｅｔａＬｉｎｋ株式会社,,株式会社,大阪府,大阪市旭区,今市２丁目２０番３－３０３号,,27,117,5350011,,,,,,,2025-06-20,1,,,,,メタリンク,0
2180,9120003029784,新規,0,2025-06-20,2025-06-20,合同会社ＢＴＤ,,合同会社,大阪府,大阪市浪速区,塩草３丁目１１－３ＷｉｌｌＤｏ難波ｗ１－３０２,,27,111,5560024,,,,,,,2025-06-20,1,,,,,ビーティーディー,0
2181,9120003029801,新規,0,2025-06-20,2025-06-20,ＭＫＥ合同会社,,合同会社,大阪府,大阪市東成区,大今里南５丁目５番３号,,27,115,5370013,,,,,,,2025-06-20,1,,,,,エムケイイー,0
2188,9120103006535,新規,0,2025-06-20,2025-06-20,合同会社Ｋｏｍｏｒｅ,,合同会社,大阪府,堺市北区,百舌鳥赤畑町３－１４８－１４－２０２,,27,146,5910000,,,,,,,2025-06-20,1,,,,,コモレ,0
2199,9130003010553,新規,0,2025-06-20,2025-06-20,合同会社ＩＳケア,,合同会社,京都府,京都市下京区,四条堀川町２８５番地プレサンス京都四条堀川８０２号,,26,106,6008481,,,,,,,2025-06-20,1,,,,,アイエスケア,0
2219,9200001043911,新規,0,2025-06-20,2025-06-20,おぐちファーム株式会社,,株式会社,岐阜県,関市,下有知３３３９番地,,21,205,5013217,,,,,,,2025-06-20,1,,,,,オグチファーム,0
2223,9220001026749,新規,0,2025-06-20,2025-06-20,株式会社兎,,株式会社,石川県,河北郡内灘町,字大根布２丁目１１９番地,,17,365,9200266,,,,,,,2025-06-20,1,,,,,ウサギ,0
2228,9240003007266,新規,0,2025-06-20,2025-06-20,合同会社ビスケットベル,,合同会社,広島県,広島市安佐北区,可部東２丁目１６－３,,34,106,7310222,,,,,,,2025-06-20,1,,,,,ビスケットベル,0
2229,9250001021202,新規,0,2025-06-20,2025-06-20,株式会社総合クリエイト,,株式会社,山口県,周南市,清光台町１５番２４号,,35,215,7450653,,,,,,,2025-06-20,1,,,,,ソウゴウクリエイト,0
2238,9290001110471,新規,0,2025-06-20,2025-06-20,ＦＬＹジャパン株式会社,,株式会社,福岡県,福岡市博多区,豊２丁目２－７０－４０８,,40,132,8120042,,,,,,,2025-06-20,1,,,,,フライジャパン,0
2250,9330003011052,新規,0,2025-06-20,2025-06-20,Ｚｉｏｎ合同会社,,合同会社,熊本県,玉名郡南関町,大字豊永１９３９,,43,367,8610815,,,,,,,2025-06-20,1,,,,,シオン,0
2251,9330005010928,新規,0,2025-06-20,2025-06-20,一般財団法人火の国平和祈念さくら館,,その他の設立登記法人,熊本県,熊本市中央区,宮内３番１号熊本県護国神社内,,43,101,8600005,,,,,,,2025-06-20,1,,,,,ヒノクニヘイワキネンサクラカン,0
2256,9360001035372,新規,0,2025-06-20,2025-06-20,株式会社コネクト,,株式会社,沖縄県,糸満市,字糸満１１２９番地,,47,210,9010361,,,,,,,2025-06-20,1,,,,,コネクト,0
2264,9380001035395,新規,0,2025-06-20,2025-06-20,浪江未来ファーム株式会社,,株式会社,福島県,双葉郡浪江町,大字藤橋字原６１番３５号,,07,547,9791502,,,,,,,2025-06-20,1,,,,,ナミエミライファーム,0
2267,9400001017077,新規,0,2025-06-20,2025-06-20,株式会社ＣＡＲＢＥＥ,,株式会社,岩手県,盛岡市,上堂４丁目３番１５号,,03,201,0200125,,,,,,,2025-06-20,1,,,,,カービー,0
2277,9430001094700,新規,0,2025-06-20,2025-06-20,株式会社バイオパワー研究所,,株式会社,北海道,札幌市北区,北二十九条西４丁目２番１－２０３号,,01,102,0010029,,,,,,,2025-06-20,1,,,,,バイオパワーケンキュウジョ,0
2279,9430003017782,新規,0,2025-06-20,2025-06-20,ルミビス合同会社,,合同会社,北海道,千歳市,北光６丁目４番１１号,,01,224,0660033,,,,,,,2025-06-20,1,,,,,ルミビス,0
2285,9470001020768,新規,0,2025-06-20,2025-06-20,株式会社ＥＬＥＭＥＮＴＳ　ＣＬＯＵＤ四国,,株式会社,香川県,高松市,サンポート２番１号高松シンボルタワー・タワー棟４・５階情報通信交流館Ｓｅｔｏｕｃｈｉ－ｉ－Ｂａｓｅ内,,37,201,7600019,,,,,,,2025-06-20,1,,,,,エレメンツクラウドシコク,0
2287,9700150131185,新規,0,2025-06-20,2025-06-20,Ｉｎｄｅｇｅｎｅ　Ｌｉｍｉｔｅｄ,,外国会社等,,,,,,,,Ａｓｐｅｎ　Ｂｌｏｃｋ　Ｇ４，３ｒｄ　Ｆｌｏｏｒ，Ｍａｎｙａｔａ　Ｅｍｂａｓｓｙ　Ｂｕｓｉｎｅｓｓ　Ｐａｒｋ　Ｏｕｔｅｒ　Ｒｉｎｇ　Ｒｏａｄ，Ｎａｇａｗａｒａ，Ｂｅｎｇａｌｕｒｕ,,,,,,2025-06-20,1,,,,,インデジーンリミテツド,0
2288,9700150131193,新規,0,2025-06-20,2025-06-20,ＣＹＯ　ＨＯＬＤＩＮＧＳ　ＰＴＥ．ＬＴＤ．,,外国会社等,,,,,,,,９　Ｓｔｒａｉｔｓ　Ｖｉｅｗ　＃０６－０７，Ｍａｒｉｎａ　Ｏｎｅ　Ｗｅｓｔ　Ｔｏｗｅｒ　Ｓｉｎｇａｐｏｒｅ，０１８９３７,,,,,,2025-06-20,1,,,,,シーワイオーホールデイングス,0
