sequenceNumber,corporateNumber,process,correct,updateDate,changeDate,name,nameImageId,kind,prefectureName,cityName,streetNumber,addressImageId,prefectureCode,cityCode,postCode,addressOutside,addressOutsideImageId,closeDate,closeCause,successorCorporateNumber,changeCause,assignmentDate,latest,enName,enPrefectureName,enCityName,enAddressOutside,furigana,hihyoji
14,1010001243174,登記記録の閉鎖等,0,2024-10-07,2024-09-24,株式会社東京シェアオフィス,,株式会社,東京都,千代田区,神田錦町３丁目７－２,,13,101,1010054,,,2024-09-24,清算の結了等,,,2024-03-21,1,,,,,トウキョウシェアオフィス,0
24,1010005030684,登記記録の閉鎖等,0,2024-10-07,2024-10-01,広島西風新都特定目的会社,,その他の設立登記法人,東京都,千代田区,平河町１丁目６番１５号シルスフィア会計事務所内,,13,101,1020093,,,2024-10-01,清算の結了等,,,2019-08-30,1,,,,,ヒロシマセイフウシント,0
26,1010103002032,登記記録の閉鎖等,0,2024-10-07,2024-09-26,馳揚レンタル合同会社,,合同会社,東京都,八王子市,子安町１丁目４８番９号共立リライアンス子安２０２号室,,13,201,1920904,,,2024-09-26,清算の結了等,,,2022-12-07,1,,,,,チョウレンタル,0
49,1010902003131,登記記録の閉鎖等,0,2024-10-07,2024-10-01,有限会社大藏自動車商会,,有限会社,東京都,世田谷区,砧３丁目５番３号,,13,112,1570073,,,2024-10-01,清算の結了等,,,2015-10-05,1,,,,,オオクラジドウシャショウカイ,0
53,1011001149254,登記記録の閉鎖等,0,2024-10-07,2024-09-13,株式会社ＳＯＵＭＡ,,株式会社,東京都,渋谷区,渋谷２丁目１９－１５宮益坂ビルディング６０９,,13,113,1500002,,,2024-09-13,清算の結了等,,,2022-08-26,1,,,,,ソウマ,0
67,1011505000549,登記記録の閉鎖等,0,2024-10-07,2024-10-01,医療法人社団アネモネ会,,その他の設立登記法人,東京都,北区,浮間４丁目１番１２号,,13,117,1150051,,,2024-10-01,清算の結了等,,,2015-10-05,1,,,,,アネモネカイ,0
69,1011701009542,登記記録の閉鎖等,0,2024-10-07,2024-09-27,オフィスステーション株式会社,,株式会社,東京都,江戸川区,北小岩２丁目３０番７号,,13,123,1330051,,,2024-09-27,清算の結了等,,,2015-10-05,1,,,,,オフィスステーション,0
73,1011703002586,登記記録の閉鎖等,0,2024-10-07,2024-09-25,合同会社ハナマネジメント,,合同会社,東京都,江戸川区,船堀４丁目８番１号,,13,123,1340091,,,2024-09-25,清算の結了等,,,2020-07-01,1,,,,,ハナマネジメント,0
76,1012401009849,登記記録の閉鎖等,0,2024-10-07,2024-10-03,株式会社人事戦略コーチングハウス,,株式会社,東京都,調布市,飛田給１丁目２７番４号,,13,208,1820036,,,2024-10-03,清算の結了等,,,2015-10-05,1,,,,,ジンジセンリャクコーチングハウス,0
114,1040001059279,登記記録の閉鎖等,0,2024-10-07,2024-09-30,第一塗装工業株式会社,,株式会社,千葉県,茂原市,下永吉２８４７番地１,,12,210,2970035,,,2024-09-30,清算の結了等,,,2015-10-05,1,,,,,ダイイチトソウコウギョウ,0
128,1060002028512,登記記録の閉鎖等,0,2024-10-07,2024-10-01,有限会社新栄,,有限会社,栃木県,小山市,神鳥谷６丁目１番２６号,,09,208,3230034,,,2024-10-01,合併による解散等,2060001024940,令和６年１０月１日栃木県小山市神鳥谷六丁目１番２６号株式会社新井（2060001024940）に合併し解散,2015-10-05,1,,,,,シンエイ,0
141,1080401011158,登記記録の閉鎖等,0,2024-10-07,2024-09-30,株式会社アイ・エス自動車,,株式会社,静岡県,浜松市浜名区,根堅２００８番地の２,,22,139,4340016,,,2024-09-30,清算の結了等,,,2015-10-05,1,,,,,アイエスジドウシャ,0
142,1080401011728,登記記録の閉鎖等,0,2024-10-07,2024-09-30,株式会社ＫＥＩコーポレーション,,株式会社,静岡県,浜松市中央区,大平台４丁目２１番７号,,22,138,4328068,,,2024-09-30,清算の結了等,,,2015-10-05,1,,,,,ケイコーポレーヨン,0
151,1110002019150,登記記録の閉鎖等,0,2024-10-07,2024-09-30,有限会社三輝,,有限会社,新潟県,燕市,吉田西太田３６４番地４,,15,213,9590221,,,2024-09-30,清算の結了等,,,2015-10-05,1,,,,,サンキ,0
157,1120001163782,登記記録の閉鎖等,0,2024-10-07,2024-10-01,株式会社モン・シェール,,株式会社,東京都,江東区,東陽５丁目２４番１０号,,13,108,1350016,,,2024-10-01,清算の結了等,,,2015-10-05,1,,,,,モンシェール,0
158,1120001174549,登記記録の閉鎖等,0,2024-10-07,2024-10-02,株式会社グラント,,株式会社,大阪府,大阪市住吉区,庭井１丁目５番１８号,,27,120,5580012,,,2024-10-02,清算の結了等,,,2015-10-05,1,,,,,グラント,0
174,1120102004654,登記記録の閉鎖等,0,2024-10-07,2024-10-02,有限会社南大阪地所,,有限会社,大阪府,堺市北区,南花田町９５番地の８,,27,146,5918011,,,2024-10-02,清算の結了等,,,2015-10-05,1,,,,,ミナミオオサカチショ,0
179,1120902016997,登記記録の閉鎖等,0,2024-10-07,2024-10-01,寿建宅有限会社,,有限会社,大阪府,箕面市,新稲３丁目１７番２号,,27,220,5620005,,,2024-10-01,清算の結了等,,,2015-10-05,1,,,,,コトブキケンタク,0
182,1122001037776,登記記録の閉鎖等,0,2024-10-07,2024-10-02,株式会社ＡＤＥＰＡＤＯ一級建築士事務所,,株式会社,大阪府,東大阪市,東石切町５丁目５７４番１３,,27,227,5798011,,,2024-10-02,清算の結了等,,,2024-01-29,1,,,,,アデパドイッキュウケンチクシジムショ,0
191,1130002012442,登記記録の閉鎖等,0,2024-10-07,2024-07-08,有限会社武田美装,,有限会社,京都府,京都市山科区,御陵大谷町２－１８,,26,110,6078404,,,2024-07-08,清算の結了等,,,2015-10-05,1,,,,,タケダビソウ,0
197,1140001047323,登記記録の閉鎖等,0,2024-10-07,2024-10-01,株式会社尼崎ちきりや茶舗,,株式会社,兵庫県,尼崎市,神田北通６丁目１６８番地,,28,202,6600883,,,2024-10-01,清算の結了等,,,2015-10-05,1,,,,,アマガサキチキリヤチャホ,0
205,1140002049418,登記記録の閉鎖等,0,2024-10-07,2024-10-01,有限会社タイルストンクロダ,,有限会社,兵庫県,姫路市,山吹１丁目７番５号,,28,201,6700085,,,2024-10-01,清算の結了等,,,2015-10-05,1,,,,,タイルストンクロダ,0
210,1140005003314,登記記録の閉鎖等,0,2024-10-07,2024-10-03,神戸砂利石材商業協同組合,,その他の設立登記法人,兵庫県,神戸市長田区,南駒栄町１番８５号,,28,106,6530044,,,2024-10-03,清算の結了等,,,2015-10-05,1,,,,,コウベジャリセキザイ,0
212,1150001000165,登記記録の閉鎖等,0,2024-10-07,2024-10-02,株式会社イノベイト,,株式会社,奈良県,奈良市,二条町２丁目４番１４号,,29,201,6308002,,,2024-10-02,清算の結了等,,,2015-10-05,1,,,,,イノベイト,0
214,1160001016689,登記記録の閉鎖等,0,2024-10-07,2024-10-01,美松ソーラー発電株式会社,,株式会社,滋賀県,湖南市,平松北２丁目３番地,,25,211,5203235,,,2024-10-01,合併による解散等,4160001014748,令和６年１０月１日滋賀県湖南市平松北二丁目３番地美松株式会社（4160001014748）に合併し解散,2015-10-05,1,,,,,ミマツソーラーハツデン,0
224,1180001151699,登記記録の閉鎖等,0,2024-10-07,2024-09-24,ｉ統合医療株式会社,,株式会社,愛知県,名古屋市東区,泉１丁目２２番２６号,,23,102,4610001,,,2024-09-24,清算の結了等,,,2022-06-17,1,,,,,アイトウゴウイリョウ,0
225,1180001154231,登記記録の閉鎖等,0,2024-10-07,2024-09-25,株式会社ＩＲＯＤＯＲＩ,,株式会社,愛知県,名古屋市東区,白壁３丁目２５番２２号,,23,102,4610011,,,2024-09-25,清算の結了等,,,2022-12-16,1,,,,,イロドリ,0
245,1220001019000,登記記録の閉鎖等,0,2024-10-07,2024-10-01,株式会社スプリングス,,株式会社,石川県,小松市,白江町ト１２１番地１,,17,203,9230811,,,2024-10-01,合併による解散等,6220001012289,令和６年１０月１日石川県小松市白江町ト１２１番地１ニシ・ウエルネス株式会社（6220001012289）に合併し解散,2015-10-05,1,,,,,スプリングス,0
248,1230001004884,登記記録の閉鎖等,0,2024-10-07,2024-10-02,今井株式会社,,株式会社,富山県,富山市,大泉北町６番２０号,,16,201,9398097,,,2024-10-02,清算の結了等,,,2015-10-05,1,,,,,イマイ,0
253,1250002009749,登記記録の閉鎖等,0,2024-10-07,2024-10-01,有限会社南天堂,,有限会社,兵庫県,西宮市,東山台１丁目１４番地５番館５０３号,,28,204,6691133,,,2024-10-01,清算の結了等,,,2015-10-05,1,,,,,ナンテンドウ,0
261,1280002004730,登記記録の閉鎖等,0,2024-10-07,2024-10-04,有限会社スミセイコウ,,有限会社,島根県,安来市,日白町１８０番地,,32,206,6920005,,,2024-10-04,清算の結了等,,,2015-10-05,1,,,,,スミセイコウ,0
274,1290002031006,登記記録の閉鎖等,0,2024-10-07,2024-09-02,有限会社Ｔ・ＰＬＡＮ,,有限会社,福岡県,福岡市東区,御島崎１丁目３３番１０３号,,40,131,8130005,,,2024-09-02,清算の結了等,,,2015-10-05,1,,,,,,0
275,1290003002385,登記記録の閉鎖等,0,2024-10-07,2024-08-27,合資会社久保山商店,,合資会社,福岡県,嘉麻市,上山田４３１番地３,,40,227,8210012,,,2024-08-27,清算の結了等,,,2015-10-05,1,,,,,クボヤマショウテン,0
284,1310002001154,登記記録の閉鎖等,0,2024-10-07,2024-10-03,有限会社片岡鮮魚,,有限会社,長崎県,長崎市,京泊３丁目３番１号,,42,201,8512211,,,2024-10-03,清算の結了等,,,2015-10-05,1,,,,,カタオカセンギョ,0
309,1380001029339,登記記録の閉鎖等,0,2024-10-07,2024-10-01,株式会社タクティクス・ラボ,,株式会社,福島県,郡山市,大槻町字堀切西２番地７ミラマーレ堀切西Ａ棟,,07,203,9630201,,,2024-10-01,合併による解散等,1380001023928,令和６年１０月１日福島県郡山市大槻町字影反田１３番地の４株式会社タクティクス（1380001023928）に合併し解散,2018-08-08,1,,,,,,0
312,1400002008801,登記記録の閉鎖等,0,2024-10-07,2024-09-25,有限会社村田牛乳店,,有限会社,岩手県,花巻市,大迫町大迫第３地割１４８番地,,03,205,0283203,,,2024-09-25,清算の結了等,,,2015-10-05,1,,,,,ムラタギュウニュウテン,0
320,1430003005217,登記記録の閉鎖等,0,2024-10-07,2024-09-30,合同会社リーメイト・エンジニアリング,,合同会社,北海道,札幌市東区,北二十四条東１８丁目２番２０号,,01,103,0650024,,,2024-09-30,合併による解散等,2430001027708,令和６年９月３０日札幌市中央区北一条西三丁目３番地３３ＲｅｅＰＲＯビル株式会社リー・プログループ（2430001027708）に合併し解散,2015-10-05,1,,,,,リーメイトエンジニアリング,0
359,2010402000603,登記記録の閉鎖等,0,2024-10-07,2024-09-10,有限会社アン・タイム,,有限会社,東京都,目黒区,緑が丘２丁目２４番１３号,,13,110,1520034,,,2024-09-10,清算の結了等,,,2015-10-05,1,,,,,アンタイム,0
360,2010403027265,登記記録の閉鎖等,0,2024-10-07,2024-09-10,神谷町キャピタル・スリーＡ合同会社,,合同会社,東京都,港区,虎ノ門３丁目１８番１２－５０２号株式会社虎ノ門会計神谷町分室内,,13,103,1050001,,,2024-09-10,清算の結了等,,,2022-03-10,1,,,,,カミヤチョウキャピタルスリーエー,0
366,2010503006045,登記記録の閉鎖等,0,2024-10-07,2024-09-09,合同会社ｃａｌｍ,,合同会社,東京都,港区,南青山１丁目１５－３２－１０１,,13,103,1070062,,,2024-09-09,清算の結了等,,,2020-09-29,1,,,,,カーム,0
381,2011001138371,登記記録の閉鎖等,0,2024-10-07,2024-09-10,株式会社プロフェッショナルワン,,株式会社,東京都,渋谷区,神宮前１丁目１７番１号,,13,113,1500001,,,2024-09-10,清算の結了等,,,2021-02-09,1,,,,,プロフェッショナルワン,0
385,2011003007293,登記記録の閉鎖等,0,2024-10-07,2024-09-24,ＡＮＡＳＳＥＴ合同会社,,合同会社,東京都,千代田区,大手町１丁目７番２号大手町サンケイビル２７階,,13,101,1000004,,,2024-09-24,清算の結了等,,,2016-12-09,1,,,,,アナセット,0
403,2012402011019,登記記録の閉鎖等,0,2024-10-07,2024-10-03,有限会社向陽建設,,有限会社,東京都,調布市,富士見町４丁目３２番地１８,,13,208,1820033,,,2024-10-03,清算の結了等,,,2015-10-05,1,,,,,コウヨウケンセツ,0
427,2030001049957,登記記録の閉鎖等,0,2024-10-07,2024-09-30,株式会社エス・アンド・ジィ,,株式会社,埼玉県,朝霞市,本町２丁目１２番８－１０２号,,11,227,3510011,,,2024-09-30,清算の結了等,,,2015-10-05,1,,,,,エスアンドジィ,0
435,2040001061424,登記記録の閉鎖等,0,2024-10-07,2024-09-30,株式会社ビショップ,,株式会社,千葉県,香取郡多古町,十余三３４８番地の２,,12,347,2892306,,,2024-09-30,合併による解散等,9040001061376,令和６年９月３０日千葉県香取郡多古町十余三３４８番地２株式会社カクタ（9040001061376）に合併し解散,2015-10-05,1,,,,,ビショップ,0
439,2040001086140,登記記録の閉鎖等,0,2024-10-07,2024-09-30,株式会社テクノ電設,,株式会社,千葉県,流山市,加４丁目１８番地の１６渡辺ビル３－Ｂ,,12,220,2700176,,,2024-09-30,清算の結了等,,,2015-10-05,1,,,,,テクノデンセツ,0
444,2050001008705,登記記録の閉鎖等,0,2024-10-07,2024-09-30,株式会社ケイ・アイ,,株式会社,茨城県,水戸市,宮町１丁目７番４４号,,08,201,3100015,,,2024-09-30,清算の結了等,,,2015-10-05,1,,,,,ケイアイ,0
451,2060002016268,登記記録の閉鎖等,0,2024-10-07,2024-10-01,有限会社愛光舍牧場,,有限会社,栃木県,日光市,足尾町２１２６番地,,09,206,3211511,,,2024-10-01,清算の結了等,,,2015-10-05,1,,,,,アイコウシャボクジョウ,0
466,2080401017022,登記記録の閉鎖等,0,2024-10-07,2024-09-30,株式会社オービット,,株式会社,静岡県,磐田市,見付２３０８番地１,,22,211,4380086,,,2024-09-30,清算の結了等,,,2015-10-05,1,,,,,オービット,0
467,2080402010661,登記記録の閉鎖等,0,2024-10-07,2024-09-30,有限会社エムアイケー和,,有限会社,静岡県,浜松市中央区,西町５７番地の１,,22,138,4300821,,,2024-09-30,清算の結了等,,,2015-10-05,1,,,,,エムアイケーワ,0
473,2110002007732,登記記録の閉鎖等,0,2024-10-07,2024-09-27,有限会社サンファクトリー,,有限会社,新潟県,新潟市中央区,上所３丁目１５番９号プレイスアイル３０１号,,15,103,9500994,,,2024-09-27,清算の結了等,,,2015-10-05,1,,,,,サンファクトリー,0
479,2120001035576,登記記録の閉鎖等,0,2024-10-07,2024-10-03,大和印刷株式会社,,株式会社,大阪府,大阪市福島区,福島６丁目１５番１５号,,27,103,5530003,,,2024-10-03,清算の結了等,,,2015-10-05,1,,,,,ダイワインサツ,0
491,2120003016483,登記記録の閉鎖等,0,2024-10-07,2024-10-03,合同会社Ｒ．Ｆ．Ｒ,,合同会社,大阪府,守口市,佐太東町１丁目３１番８号,,27,209,5700017,,,2024-10-03,清算の結了等,,,2019-10-31,1,,,,,アールエフアール,0
508,2140001101756,登記記録の閉鎖等,0,2024-10-07,2024-10-02,株式会社大一建設,,株式会社,兵庫県,神戸市北区,唐櫃台１丁目２２番１５号,,28,109,6511332,,,2024-10-02,清算の結了等,,,2016-04-20,1,,,,,ダイイチケンセツ,0
513,2160001022380,登記記録の閉鎖等,0,2024-10-07,2024-10-03,株式会社ケイシンプラス,,株式会社,滋賀県,犬上郡多賀町,大字多賀１５５９番地３４,,25,443,5220341,,,2024-10-03,清算の結了等,,,2020-03-31,1,,,,,ケイシンプラス,0
545,2220002010741,登記記録の閉鎖等,0,2024-10-07,2024-09-30,有限会社寿司福助,,有限会社,石川県,小松市,福乃宮町１丁目１０６番地,,17,203,9230865,,,2024-09-30,清算の結了等,,,2015-10-05,1,,,,,スシフクスケ,0
554,2260001003924,登記記録の閉鎖等,0,2024-10-07,2024-10-04,大久弁当株式会社,,株式会社,岡山県,岡山市南区,大福３６７番地の３,,33,104,7010204,,,2024-10-04,清算の結了等,,,2015-10-05,1,,,,,ダイキュウベントウ,0
560,2290001027383,登記記録の閉鎖等,0,2024-10-07,2024-08-30,株式会社梅田商事,,株式会社,福岡県,福岡市中央区,荒戸１丁目８番１５－６０２号,,40,133,8100062,,,2024-08-30,清算の結了等,,,2015-10-05,1,,,,,ウメダショウジ,0
568,2290002049410,登記記録の閉鎖等,0,2024-10-07,2024-08-30,有限会社高田鉄工所,,有限会社,福岡県,久留米市,大石町７８番地,,40,203,8300049,,,2024-08-30,清算の結了等,,,2015-10-05,1,,,,,タカダテッコウショ,0
581,2340005006485,登記記録の閉鎖等,0,2024-10-07,2024-10-03,医療法人真知会,,その他の設立登記法人,鹿児島県,鹿屋市,今坂町１００４５番地３８,,46,203,8930057,,,2024-10-03,清算の結了等,,,2015-10-05,1,,,,,シンチカイ,0
588,2370002011725,登記記録の閉鎖等,0,2024-10-07,2024-09-24,有限会社鈴清,,有限会社,宮城県,仙台市青葉区,宮町２丁目３番１号,,04,101,9800004,,,2024-09-24,清算の結了等,,,2015-10-05,1,,,,,スズセイ,0
594,2400003003263,登記記録の閉鎖等,0,2024-10-07,2024-09-25,合同会社舘澤造園,,合同会社,岩手県,盛岡市,西見前１４地割９３番地２,,03,201,0200833,,,2024-09-25,清算の結了等,,,2024-05-09,1,,,,,タテサワゾウエン,0
597,2410003002990,登記記録の閉鎖等,0,2024-10-07,2024-10-01,やまびこ合同会社,,合同会社,秋田県,南秋田郡五城目町,浦横町字舘ノ下９３番地,,05,361,0181742,,,2024-10-01,清算の結了等,,,2016-04-08,1,,,,,,0
601,2430001036790,登記記録の閉鎖等,0,2024-10-07,2024-09-30,株式会社くるみ,,株式会社,北海道,札幌市手稲区,新発寒五条５丁目３番２５号,,01,109,0060805,,,2024-09-30,清算の結了等,,,2015-10-05,1,,,,,クルミ,0
623,3010001213324,登記記録の閉鎖等,0,2024-10-07,2024-09-24,佐賀洋上風力発電株式会社,,株式会社,東京都,中央区,築地２丁目１５番１９号ミレニアム築地７階,,13,102,1040045,,,2024-09-24,清算の結了等,,,2020-10-29,1,,,,,サガヨウジョウフウリョクハツデン,0
627,3010002005695,登記記録の閉鎖等,0,2024-10-07,2024-09-24,有限会社松利商店,,有限会社,東京都,文京区,白山５丁目１７番１８号,,13,105,1120001,,,2024-09-24,清算の結了等,,,2015-10-05,1,,,,,マツトシショウテン,0
633,3010401147816,登記記録の閉鎖等,0,2024-10-07,2024-09-10,株式会社ＩＰＴメディカルオフィス,,株式会社,東京都,港区,芝大門２丁目１番１３号６Ｆ,,13,103,1050012,,,2024-09-10,清算の結了等,,,2019-09-04,1,,,,,アイピーティーメディカルオフィス,0
687,3020001107657,登記記録の閉鎖等,0,2024-10-07,2024-09-30,株式会社ＥＳＳＫ,,株式会社,埼玉県,戸田市,本町３丁目１４番１４号,,11,224,3350023,,,2024-09-30,清算の結了等,,,2015-10-05,1,,,,,,0
697,3020002106708,登記記録の閉鎖等,0,2024-10-07,2024-10-01,王寿有限会社,,有限会社,東京都,豊島区,南池袋２丁目２９番１２号,,13,116,1710022,,,2024-10-01,合併による解散等,3013301021834,令和６年１０月１日東京都豊島区南池袋二丁目２９番１２号株式会社トラストファーマシー（3013301021834）に合併し解散,2015-10-05,1,,,,,オウジュ,0
699,3021001008762,登記記録の閉鎖等,0,2024-10-07,2024-10-01,軽スタジオ茅ヶ崎株式会社,,株式会社,神奈川県,茅ヶ崎市,茅ヶ崎２丁目１番４８号,,14,207,2530041,,,2024-10-01,合併による解散等,5021001007011,令和６年１０月１日神奈川県茅ヶ崎市茅ヶ崎二丁目１番５０号スズキアリーナ茅ヶ崎株式会社（5021001007011）に合併し解散,2015-10-05,1,,,,,ケイスタジオチガサキ,0
702,3021001044056,登記記録の閉鎖等,0,2024-10-07,2024-10-03,アール・ビー・サポート株式会社,,株式会社,神奈川県,横須賀市,上町３丁目３４番地,,14,201,2380017,,,2024-10-03,清算の結了等,,,2015-10-05,1,,,,,アールビーサポート,0
726,3040003005320,登記記録の閉鎖等,0,2024-10-07,2024-09-30,合同会社２ｃｖ－Ｔｒａｄｉｎｇ,,合同会社,千葉県,山武市,日向台４番地２,,12,237,2891206,,,2024-09-30,清算の結了等,,,2015-10-05,1,,,,,ツーシーヴィトレーディング,0
736,3080002000293,登記記録の閉鎖等,0,2024-10-07,2024-09-27,有限会社アトリエまきの,,有限会社,静岡県,静岡市葵区,大岩１丁目６番５２号,,22,101,4200886,,,2024-09-27,清算の結了等,,,2015-10-05,1,,,,,アトリエマキノ,0
743,3100002012526,登記記録の閉鎖等,0,2024-10-07,2024-09-26,有限会社竹澤書店,,有限会社,長野県,小諸市,相生町２丁目１番３号,,20,208,3840025,,,2024-09-26,清算の結了等,,,2015-10-05,1,,,,,タケザワショテン,0
747,3120001009620,登記記録の閉鎖等,0,2024-10-07,2024-10-03,杭全重機株式会社,,株式会社,大阪府,大阪市東住吉区,杭全２丁目５番１２号,,27,121,5460002,,,2024-10-03,清算の結了等,,,2015-10-05,1,,,,,クマタジュウキ,0
750,3120001124659,登記記録の閉鎖等,0,2024-10-07,2024-10-01,株式会社アートケア,,株式会社,大阪府,大阪市生野区,田島６丁目２番１８号,,27,116,5440011,,,2024-10-01,合併による解散等,4120001164638,令和６年１０月１日大阪市阿倍野区松崎町二丁目１番３６－４３０２号株式会社ＭＫコーポレーション（4120001164638）に合併し解散,2015-10-05,1,,,,,アートケア,0
753,3120001187680,登記記録の閉鎖等,0,2024-10-07,2024-10-03,ＴＵＧ　Ｔｒａｄｉｎｇ株式会社,,株式会社,大阪府,大阪市浪速区,難波中１丁目１４番１４号,,27,111,5560011,,,2024-10-03,清算の結了等,,,2015-10-05,1,,,,,タグトレーディング,0
758,3120002012029,登記記録の閉鎖等,0,2024-10-07,2024-09-30,有限会社ボデーショップ日高,,有限会社,大阪府,大阪市平野区,西脇２丁目１０番２７号,,27,126,5470035,,,2024-09-30,清算の結了等,,,2015-10-05,1,,,,,ボデーショップヒダカ,0
764,3120901028991,登記記録の閉鎖等,0,2024-10-07,2024-09-30,株式会社アドバンス経営,,株式会社,大阪府,豊中市,中桜塚５丁目１９番１８の１号,,27,203,5610881,,,2024-09-30,清算の結了等,,,2015-10-05,1,,,,,,0
777,3140001106498,登記記録の閉鎖等,0,2024-10-07,2024-09-26,Ｅ－ＢＯＮＤグループ株式会社,,株式会社,神奈川県,横浜市港北区,新横浜２丁目５番１０号第二楓ビル５Ｆ・Ｂ室,,14,109,2220033,,,2024-09-26,合併による解散等,6030001066965,令和６年９月１日埼玉県北葛飾郡松伏町築比地７９５番地１株式会社ウィーズ（6030001066965）に合併し解散,2017-06-12,1,,,,,イーボンドグループ,0
781,3140002026448,登記記録の閉鎖等,0,2024-10-07,2024-10-02,有限会社グラスマーブル,,有限会社,兵庫県,神戸市灘区,篠原南町７丁目６番１－８０５号,,28,102,6570059,,,2024-10-02,清算の結了等,,,2015-10-05,1,,,,,グラスマーブル,0
785,3150005000151,登記記録の閉鎖等,0,2024-10-07,2024-10-01,宗教法人カトリック善きサマリア人修道会,,その他の設立登記法人,奈良県,奈良市,法蓮町７４６番地,,29,201,6308113,,,2024-10-01,清算の結了等,,,2015-10-05,1,,,,,カトリックヨキサマリアジンシュウドウカイ,0
788,3170001015985,登記記録の閉鎖等,0,2024-10-07,2024-10-01,ラポールホールディングス株式会社,,株式会社,和歌山県,和歌山市,和歌浦西１丁目１番１９号,,30,201,6410024,,,2024-10-01,合併による解散等,2170001006853,令和６年１０月１日和歌山市和歌浦西一丁目１番１９号ラポール株式会社（2170001006853）に合併し解散,2020-03-09,1,,,,,ラポールホールディングス,0
793,3180001080599,登記記録の閉鎖等,0,2024-10-07,2024-09-24,株式会社新木重機,,株式会社,愛知県,瀬戸市,はぎの台２丁目５７番地,,23,204,4890905,,,2024-09-24,清算の結了等,,,2015-10-05,1,,,,,アラキジュウキ,0
823,3200002020171,登記記録の閉鎖等,0,2024-10-07,2024-10-03,有限会社コーポレーションサンビジネス,,有限会社,岐阜県,多治見市,上野町５丁目８８番地,,21,204,5070027,,,2024-10-03,清算の結了等,,,2015-10-05,1,,,,,コーポレーションサンビジネス,0
829,3240002002059,登記記録の閉鎖等,0,2024-10-07,2024-10-01,有限会社栄伸,,有限会社,広島県,広島市西区,己斐中３丁目３４番１２号,,34,104,7330813,,,2024-10-01,清算の結了等,,,2015-10-05,1,,,,,,0
832,3280002011989,登記記録の閉鎖等,0,2024-10-07,2024-10-04,桃太郎しいたけ有限会社,,有限会社,島根県,仁多郡奥出雲町,下阿井３７１番地６,,32,343,6991622,,,2024-10-04,清算の結了等,,,2015-10-05,1,,,,,モモタロウシイタケ,0
847,3290802015651,登記記録の閉鎖等,0,2024-10-07,2024-10-03,有限会社ユニツー,,有限会社,福岡県,北九州市八幡西区,浅川日の峯２丁目１０番１３号,,40,109,8070876,,,2024-10-03,清算の結了等,,,2015-10-05,1,,,,,ユニツー,0
864,3390002011499,登記記録の閉鎖等,0,2024-10-07,2024-09-26,有限会社Ｏ・Ｋプロジェクト,,有限会社,山形県,新庄市,金沢１５８２番地の８,,06,205,9960002,,,2024-09-26,清算の結了等,,,2015-10-05,1,,,,,オッケープロジェクト,0
867,3390005007263,登記記録の閉鎖等,0,2024-10-07,2024-09-27,特定非営利活動法人レインボープラン市民農場,,その他の設立登記法人,山形県,長井市,館町南１５番４５－６号,,06,209,9930013,,,2024-09-27,清算の結了等,,,2015-10-05,1,,,,,レインボープランシミンノウジョウ,0
872,3410002012164,登記記録の閉鎖等,0,2024-10-07,2024-10-01,有限会社イトウ,,有限会社,秋田県,大仙市,南外字上野９９番地１１１,,05,212,0191908,,,2024-10-01,清算の結了等,,,2015-10-05,1,,,,,イトウ,0
891,4010001227827,登記記録の閉鎖等,0,2024-10-07,2024-09-13,株式会社やくばと,,株式会社,東京都,中央区,築地１丁目１３番１号,,13,102,1040045,,,2024-09-13,合併による解散等,8011001073431,令和６年９月１日東京都中央区築地一丁目１３番１号メドピア株式会社（8011001073431）に合併し解散,2022-07-05,1,,,,,ヤクバト,0
903,4010005030319,登記記録の閉鎖等,0,2024-10-07,2024-10-01,金華山南特定目的会社,,その他の設立登記法人,東京都,千代田区,平河町１丁目６番１５号シルスフィア会計事務所内,,13,101,1020093,,,2024-10-01,清算の結了等,,,2019-06-13,1,,,,,キンカザンミナミ,0
909,4010501009972,登記記録の閉鎖等,0,2024-10-07,2024-09-26,株式会社七五ビル,,株式会社,東京都,台東区,松が谷１丁目２番３号,,13,106,1110036,,,2024-09-26,清算の結了等,,,2015-10-05,1,,,,,ナナゴビル,0
911,4010501025268,登記記録の閉鎖等,0,2024-10-07,2024-09-24,マディバ日韓株式会社,,株式会社,東京都,千代田区,内神田２丁目１４番１２号,,13,101,1010047,,,2024-09-24,清算の結了等,,,2015-10-05,1,,,,,マディバニッカン,0
933,4011002004620,登記記録の閉鎖等,0,2024-10-07,2024-09-10,石川商事有限会社,,有限会社,東京都,渋谷区,元代々木町８番４号,,13,113,1510062,,,2024-09-10,清算の結了等,,,2015-10-05,1,,,,,イシカワショウジ,0
934,4011003006830,登記記録の閉鎖等,0,2024-10-07,2024-09-24,ＡＮＡ合同会社,,合同会社,東京都,千代田区,大手町１丁目７番２号大手町サンケイビル２７階,,13,101,1000004,,,2024-09-24,清算の結了等,,,2016-05-31,1,,,,,アナ,0
953,4011601000144,登記記録の閉鎖等,0,2024-10-07,2024-10-02,株式会社アートヴィレッヂ,,株式会社,東京都,練馬区,東大泉１丁目３３番６－６０１号,,13,120,1780063,,,2024-10-02,清算の結了等,,,2015-10-05,1,,,,,アートヴィレッヂ,0
967,4012402017220,登記記録の閉鎖等,0,2024-10-07,2024-10-04,有限会社田中塗装,,有限会社,東京都,三鷹市,野崎３丁目２番４号,,13,204,1810014,,,2024-10-04,合併による解散等,1011001053803,令和６年８月３１日東京都渋谷区本町一丁目２０番２号株式会社ＮＩＫＫＯ（1011001053803）に合併し解散,2015-10-05,1,,,,,タナカトソウ,0
980,4020002077700,登記記録の閉鎖等,0,2024-10-07,2024-09-18,有限会社プラトーインベストメント,,有限会社,神奈川県,横浜市西区,みなとみらい４丁目７番１－１９１３,,14,103,2200012,,,2024-09-18,清算の結了等,,,2015-10-05,1,,,,,プラトーインベストメント,0
988,4030001063361,登記記録の閉鎖等,0,2024-10-07,2024-09-30,巣鴨運輸倉庫株式会社,,株式会社,埼玉県,朝霞市,泉水２丁目８番４号,,11,227,3510024,,,2024-09-30,清算の結了等,,,2015-10-05,1,,,,,スガモウンユソウコ,0
989,4030001103191,登記記録の閉鎖等,0,2024-10-07,2024-09-30,シンクフォーム株式会社,,株式会社,埼玉県,北本市,緑２丁目２７番地,,11,233,3640032,,,2024-09-30,清算の結了等,,,2015-10-05,1,,,,,シンクフォーム,0
992,4030002001122,登記記録の閉鎖等,0,2024-10-07,2024-09-30,有限会社伊藤リアルエージェント,,有限会社,埼玉県,さいたま市緑区,大字大牧字和田７７４番地,,11,109,3360922,,,2024-09-30,清算の結了等,,,2024-08-16,1,,,,,イトウリアルエージェント,0
993,4030002049905,登記記録の閉鎖等,0,2024-10-07,2024-09-27,有限会社みさと,,有限会社,埼玉県,三郷市,高州２丁目４０３番地２,,11,237,3410037,,,2024-09-27,清算の結了等,,,2015-10-05,1,,,,,ミサト,0
995,4030003001484,登記記録の閉鎖等,0,2024-10-07,2024-09-27,合同会社にじいろ企画,,合同会社,埼玉県,所沢市,大字上山口１８５８番地１１号グリーンヒルズ１０３,,11,208,3591153,,,2024-09-27,清算の結了等,,,2015-10-05,1,,,,,ニジイロキカク,0
1012,4070002023393,登記記録の閉鎖等,0,2024-10-07,2024-10-01,有限会社コウホウ,,有限会社,群馬県,みどり市,笠懸町久宮９８番地,,10,212,3792312,,,2024-10-01,清算の結了等,,,2015-10-05,1,,,,,コウホウ,0
1014,4080002017766,登記記録の閉鎖等,0,2024-10-07,2024-09-27,有限会社大一エンジニアリング,,有限会社,静岡県,藤枝市,駿河台２丁目１２番１２号,,22,214,4260077,,,2024-09-27,清算の結了等,,,2015-10-05,1,,,,,ダイイチエンジニアリング,0
1030,4110003002094,登記記録の閉鎖等,0,2024-10-07,2024-09-30,株式会社五十嵐建築事務所,,株式会社,新潟県,小千谷市,栄町５番１８号,,15,208,9470011,,,2024-09-30,清算の結了等,,,2015-10-05,1,,,,,イカラシケンチクジムショ,0
1033,4120001043180,登記記録の閉鎖等,0,2024-10-07,2024-10-01,幸福カード株式会社,00028158,株式会社,大阪府,大阪市西淀川区,柏里２丁目２番１号,,27,113,5550022,,,2024-10-01,合併による解散等,9120001007247,令和６年１０月１日大阪市西淀川区柏里二丁目２番１号関西総合信用株式会社（9120001007247）に合併し解散,2015-10-05,1,,,,,コウフクカード,0
1047,4122005002757,登記記録の閉鎖等,0,2024-10-07,2024-10-03,特定非営利活動法人桃源郷のさと,,その他の設立登記法人,大阪府,四條畷市,大字上田原５６５番地の３,,27,229,5750014,,,2024-10-03,清算の結了等,,,2015-10-05,1,,,,,トウゲンキョウノサト,0
1056,4130002029533,登記記録の閉鎖等,0,2024-10-07,2024-10-02,有限会社サンセット,,有限会社,京都府,京都市中京区,東洞院通蛸薬師下る元竹田町６３３番地シンフォニー四条烏丸１００１号,00037895,26,104,6048145,,,2024-10-02,清算の結了等,,,2015-10-05,1,,,,,サンセット,0
1058,4140001089890,登記記録の閉鎖等,0,2024-10-07,2024-10-01,スマートケア株式会社,,株式会社,兵庫県,姫路市,国府寺町８番地,,28,201,6700852,,,2024-10-01,清算の結了等,,,2015-10-05,1,,,,,スマートケア,0
1070,4170002003014,登記記録の閉鎖等,0,2024-10-07,2024-10-01,株式会社ノーステーブル,,株式会社,和歌山県,和歌山市,北新戎ノ丁２０番地,,30,201,6408017,,,2024-10-01,合併による解散等,2170001006853,令和６年１０月１日和歌山市和歌浦西一丁目１番１９号ラポール株式会社（2170001006853）に合併し解散,2015-10-05,1,,,,,ノーステーブル,0
1080,4180002017079,登記記録の閉鎖等,0,2024-10-07,2024-09-24,有限会社山本モータース,,有限会社,愛知県,名古屋市東区,出来町１丁目１０番２９号,,23,102,4610032,,,2024-09-24,清算の結了等,,,2015-10-05,1,,,,,ヤマモトモータース,0
1092,4200001001460,登記記録の閉鎖等,0,2024-10-07,2024-10-02,岐阜藤吉工業株式会社,,株式会社,岐阜県,岐阜市,花沢町２丁目１番地,,21,201,5008142,,,2024-10-02,合併による解散等,8180001032505,令和６年９月２１日名古屋市中村区太閤四丁目２番８号藤吉工業株式会社（8180001032505）に合併し解散,2015-10-05,1,,,,,ギフフジヨシコウギョウ,0
1098,4200002009932,登記記録の閉鎖等,0,2024-10-07,2024-10-02,有限会社みどり動物病院,,有限会社,岐阜県,本巣市,屋井９０６番地の１,,21,218,5010417,,,2024-10-02,清算の結了等,,,2015-10-05,1,,,,,ミドリドウブツビョウイン,0
1101,4230002008279,登記記録の閉鎖等,0,2024-10-07,2024-10-03,有限会社おおわり,,有限会社,富山県,下新川郡入善町,野中１０番地,,16,342,9380106,,,2024-10-03,清算の結了等,,,2015-10-05,1,,,,,オオワリ,0
1102,4230003002157,登記記録の閉鎖等,0,2024-10-07,2024-10-03,合同会社福祥来,,合同会社,富山県,南砺市,上津８００番地,,16,210,9391551,,,2024-10-03,清算の結了等,,,2024-02-22,1,,,,,フクショウライ,0
1106,4240002037855,登記記録の閉鎖等,0,2024-10-07,2024-09-27,大増木材有限会社,,有限会社,広島県,廿日市市,大野２丁目１１番２号,,34,213,7390434,,,2024-09-27,合併による解散等,6240002037977,令和６年９月２７日広島県廿日市市大野二丁目１１番２号株式会社宮島ビューマリーナ（6240002037977）に合併し解散,2015-10-05,1,,,,,オオマスモクザイ,0
1107,4240002048472,登記記録の閉鎖等,0,2024-10-07,2024-09-30,株式会社日本ユニテック,,株式会社,広島県,広島市中区,吉島西２丁目１３番５８号,,34,101,7300823,,,2024-09-30,清算の結了等,,,2015-10-05,1,,,,,ニホンユニテック,0
1109,4250001003295,登記記録の閉鎖等,0,2024-10-07,2024-10-01,新共建設株式会社,,株式会社,山口県,宇部市,大字妻崎開作１０５５番地,,35,202,7590204,,,2024-10-01,合併による解散等,2250001003280,令和６年１０月１日山口県宇部市大字妻崎開作１０５２番地１新川物流株式会社（2250001003280）に合併し解散,2015-10-05,1,,,,,シンキョウケンセツ,0
1113,4260002033241,登記記録の閉鎖等,0,2024-10-07,2024-10-03,有限会社藤波工業,,有限会社,岡山県,玉野市,槌ケ原２０９３番地,,33,204,7060141,,,2024-10-03,清算の結了等,,,2015-10-05,1,,,,,フジナミコウギョウ,0
1115,4270002000265,登記記録の閉鎖等,0,2024-10-07,2024-10-03,有限会社ウエルネスオキタ,,有限会社,鳥取県,鳥取市,美萩野２丁目２７９番地,,31,201,6890202,,,2024-10-03,清算の結了等,,,2015-10-05,1,,,,,,0
1116,4290001089587,登記記録の閉鎖等,0,2024-10-07,2024-08-28,株式会社ハルハル,,株式会社,福岡県,福岡市博多区,祇園町４番３－２０２号チサンマンション祇園,,40,132,8120038,,,2024-08-28,清算の結了等,,,2020-07-22,1,,,,,ハルハル,0
1132,4350002014190,登記記録の閉鎖等,0,2024-10-07,2024-09-30,有限会社三栄,,有限会社,宮崎県,都城市,菓子野町１００２８番地１,,45,202,8850111,,,2024-09-30,清算の結了等,,,2015-10-05,1,,,,,サンエイ,0
1155,4430002033851,登記記録の閉鎖等,0,2024-10-07,2024-09-30,有限会社エムワイシー,,有限会社,北海道,札幌市豊平区,豊平四条２丁目１番２０－１１０２号,,01,105,0620904,,,2024-09-30,清算の結了等,,,2015-10-05,1,,,,,エムワイシー,0
1180,5010005030185,登記記録の閉鎖等,0,2024-10-07,2024-10-02,一般社団法人ＷＨＡ３,,その他の設立登記法人,東京都,中央区,新川２丁目２７番１号,,13,102,1040033,,,2024-10-02,清算の結了等,,,2019-05-17,1,,,,,ダブリュエイチエースリー,0
1207,5011002004660,登記記録の閉鎖等,0,2024-10-07,2024-09-10,有限会社オゼール,,有限会社,東京都,渋谷区,神宮前５丁目５０番１号河島ビル１Ｆ,,13,113,1500001,,,2024-09-10,清算の結了等,,,2015-10-05,1,,,,,オゼール,0
1210,5011101091641,登記記録の閉鎖等,0,2024-10-07,2024-09-24,株式会社シェアラブ,,株式会社,東京都,新宿区,高田馬場４丁目３４番１４号ＣＡＳＡＫＳ１０７,,13,104,1690075,,,2024-09-24,清算の結了等,,,2020-06-23,1,,,,,シェアラブ,0
1221,5011401016991,登記記録の閉鎖等,0,2024-10-07,2024-10-01,株式会社アップルケア,,株式会社,東京都,港区,浜松町２丁目３番１号,,13,103,1050013,,,2024-10-01,合併による解散等,3010401103075,令和６年１０月１日東京都港区浜松町二丁目３番１号株式会社シノケンウェルネス（3010401103075）に合併し解散,2015-10-05,1,,,,,アップルケア,0
1247,5020001127471,登記記録の閉鎖等,0,2024-10-07,2024-10-03,株式会社寿ソリューション,,株式会社,神奈川県,厚木市,飯山２８２４番地１,,14,212,2430213,,,2024-10-03,清算の結了等,,,2018-08-07,1,,,,,コトブキソリューション,0
1261,5021003010046,登記記録の閉鎖等,0,2024-10-07,2024-10-03,合同会社倉見商店,,合同会社,神奈川県,高座郡寒川町,倉見１０６５番地,,14,321,2530101,,,2024-10-03,清算の結了等,,,2021-01-19,1,,,,,,0
1265,5030001086576,登記記録の閉鎖等,0,2024-10-07,2024-09-30,株式会社ポエム,,株式会社,埼玉県,深谷市,常盤町７１番地３４,,11,218,3660034,,,2024-09-30,清算の結了等,,,2015-10-05,1,,,,,ポエム,0
1266,5030001097862,登記記録の閉鎖等,0,2024-10-07,2024-09-30,ミツワ交通株式会社,,株式会社,埼玉県,深谷市,西島町２丁目１０番地１,,11,218,3660824,,,2024-09-30,清算の結了等,,,2015-10-05,1,,,,,ミツワコウツウ,0
1279,5040003008362,登記記録の閉鎖等,0,2024-10-07,2024-09-30,合同会社メイセイ商事,,合同会社,千葉県,千葉市稲毛区,穴川３丁目１１番１８号,,12,103,2630024,,,2024-09-30,清算の結了等,,,2016-03-16,1,,,,,メイセイショウジ,0
1290,5060002001671,登記記録の閉鎖等,0,2024-10-07,2024-10-01,有限会社魚勇商店,,有限会社,栃木県,宇都宮市,住吉町１３番１８号,,09,201,3200864,,,2024-10-01,合併による解散等,3060002008396,令和６年１０月１日栃木県宇都宮市住吉町１３番１８号株式会社マルミ・エンタープライズ（3060002008396）に合併し解散,2015-10-05,1,,,,,ウオユウショウテン,0
1294,5080002018334,登記記録の閉鎖等,0,2024-10-07,2024-09-25,有限会社ヤマノ,,有限会社,静岡県,藤枝市,稲川１丁目１番１５号,,22,214,4260022,,,2024-09-25,清算の結了等,,,2015-10-05,1,,,,,ヤマノ,0
1299,5080402019510,登記記録の閉鎖等,0,2024-10-07,2024-09-30,数田エンジン設計有限会社,,有限会社,静岡県,磐田市,城之崎１丁目１４番地の１５,,22,211,4380084,,,2024-09-30,清算の結了等,,,2015-10-05,1,,,,,カズタエンジンセッケイ,0
1314,5120002001500,登記記録の閉鎖等,0,2024-10-07,2024-09-27,有限会社舞華,,有限会社,大阪府,大阪市鶴見区,浜４丁目８番２号カトルセゾン１０３号,,27,124,5380035,,,2024-09-27,清算の結了等,,,2015-10-05,1,,,,,マイカ,0
1329,5130001062757,登記記録の閉鎖等,0,2024-10-07,2024-10-01,ＡＴＯ　Ｈｏｔｅｌ　Ｋｙｏｔｏ株式会社,,株式会社,京都府,京都市左京区,新丸太町通孫橋上る新丸太町７８番地３,,26,103,6068386,,,2024-10-01,清算の結了等,,,2018-08-16,1,,,,,アトホテルキョウト,0
1333,5130003002546,登記記録の閉鎖等,0,2024-10-07,2024-10-03,株式会社スマイルフォレスト,,株式会社,京都府,京都市山科区,勧修寺御所内町７７番地,,26,110,6078218,,,2024-10-03,清算の結了等,,,2015-10-05,1,,,,,スマイルフォレスト,0
1334,5140001018741,登記記録の閉鎖等,0,2024-10-07,2024-10-01,フイガロ株式会社,,株式会社,兵庫県,神戸市長田区,山下町１丁目２番８号,,28,106,6530852,,,2024-10-01,合併による解散等,1140001128008,令和６年１０月１日神戸市長田区山下町一丁目２番８号株式会社Ｍａｃｏｔｔｏ（1140001128008）に合併し解散,2015-10-05,1,,,,,フイガロ,0
1367,5200001041118,登記記録の閉鎖等,0,2024-10-07,2024-10-03,リンクフロー株式会社,,株式会社,岐阜県,岐阜市,長住町９丁目１１番地,,21,201,5008175,,,2024-10-03,清算の結了等,,,2023-03-30,1,,,,,リンクフロー,0
1373,5230001014095,登記記録の閉鎖等,0,2024-10-07,2024-10-01,株式会社中部五輪,,株式会社,富山県,富山市,奥田新町１２番３号,,16,201,9300857,,,2024-10-01,合併による解散等,6230001000961,令和６年１０月１日富山市奥田新町１２番３号株式会社五輪（6230001000961）に合併し解散,2015-10-05,1,,,,,チュウブゴリン,0
1378,5250002010901,登記記録の閉鎖等,0,2024-10-07,2024-09-30,有限会社鵬友,,有限会社,山口県,下関市,阿弥陀寺町１番２０号,,35,201,7500003,,,2024-09-30,清算の結了等,,,2015-10-05,1,,,,,ホウユウ,0
1383,5290001033593,登記記録の閉鎖等,0,2024-10-07,2024-09-02,株式会社アートサイエンス,,株式会社,福岡県,福岡市中央区,大名２丁目９－３５トウセン天神ビル９Ｆ,,40,133,8100041,,,2024-09-02,清算の結了等,,,2015-10-05,1,,,,,アートサイエンス,0
1395,5290801013043,登記記録の閉鎖等,0,2024-10-07,2024-10-03,株式会社有馬商事,,株式会社,福岡県,北九州市小倉南区,志井４丁目９番１０号,,40,107,8020985,,,2024-10-03,清算の結了等,,,2015-10-05,1,,,,,アリマショウジ,0
1401,5340002004480,登記記録の閉鎖等,0,2024-10-07,2024-10-03,有限会社サンブラザーズ,,有限会社,鹿児島県,鹿児島市,草牟田２丁目３７番５９号,,46,201,8900014,,,2024-10-03,清算の結了等,,,2015-10-05,1,,,,,サンブラザーズ,0
1415,5420001015826,登記記録の閉鎖等,0,2024-10-07,2024-09-30,株式会社エムアップ,,株式会社,青森県,弘前市,大字亀甲町２０番地,,02,202,0368332,,,2024-09-30,清算の結了等,,,2017-08-01,1,,,,,エムアップ,0
1425,5480001006687,登記記録の閉鎖等,0,2024-10-07,2024-10-03,篠原商事株式会社,,株式会社,徳島県,阿南市,福井町吉谷１３８番地１,,36,204,7791620,,,2024-10-03,清算の結了等,,,2015-10-05,1,,,,,シノハラショウジ,0
1434,6010001162452,登記記録の閉鎖等,0,2024-10-07,2024-09-24,モリゾウ株式会社,,株式会社,東京都,文京区,小石川２丁目２３番３号森岡ビル２階,,13,105,1120002,,,2024-09-24,清算の結了等,,,2015-10-05,1,,,,,モリゾウ,0
1464,6011101082482,登記記録の閉鎖等,0,2024-10-07,2024-09-27,株式会社まなかセレモニー,,株式会社,東京都,新宿区,上落合３丁目４番５号高木ビル１Ｆ,,13,104,1610034,,,2024-09-27,清算の結了等,,,2017-12-07,1,,,,,マナカセレモニー,0
1489,6013301044444,登記記録の閉鎖等,0,2024-10-07,2024-09-10,株式会社ドローンザワン,,株式会社,東京都,渋谷区,神宮前１丁目１７番１号,,13,113,1500001,,,2024-09-10,清算の結了等,,,2019-09-05,1,,,,,ドローンザワン,0
1518,6030002070768,登記記録の閉鎖等,0,2024-10-07,2024-10-01,有限会社システム計装,,有限会社,埼玉県,春日部市,備後東２丁目１９番２２号,,11,214,3440032,,,2024-10-01,清算の結了等,,,2015-10-05,1,,,,,システムケイソウ,0
1529,6050002007215,登記記録の閉鎖等,0,2024-10-07,2024-09-27,有限会社本多住建,,有限会社,茨城県,那珂郡東海村,大字村松２５１９番地３,,08,341,3191112,,,2024-09-27,清算の結了等,,,2015-10-05,1,,,,,ホンダジュウケン,0
1530,6050002015465,登記記録の閉鎖等,0,2024-10-07,2024-09-27,有限会社壮和技研,,有限会社,茨城県,石岡市,石岡２６９０番地の３,,08,205,3150001,,,2024-09-27,清算の結了等,,,2015-10-05,1,,,,,ソウワギケン,0
1536,6080001018086,登記記録の閉鎖等,0,2024-10-07,2024-09-25,株式会社サンリーフ,,株式会社,静岡県,焼津市,小柳津８５番地,,22,212,4250073,,,2024-09-25,清算の結了等,,,2015-10-05,1,,,,,サンリーフ,0
1551,6100002026069,登記記録の閉鎖等,0,2024-10-07,2024-09-27,有限会社ビジネスサービス,,有限会社,長野県,北安曇郡池田町,大字中鵜２５８７番地,,20,481,3998603,,,2024-09-27,清算の結了等,,,2015-10-05,1,,,,,ビジネスサービス,0
1552,6100002026473,登記記録の閉鎖等,0,2024-10-07,2024-09-24,有限会社下川設備,,有限会社,長野県,北安曇郡白馬村,大字神城２２７１１番地,,20,485,3999211,,,2024-09-24,清算の結了等,,,2015-10-05,1,,,,,シモカワセツビ,0
1556,6110002033386,登記記録の閉鎖等,0,2024-10-07,2024-09-30,有限会社山田工業,,有限会社,新潟県,南魚沼市,小栗山８４６番地１,,15,226,9496636,,,2024-09-30,清算の結了等,,,2015-10-05,1,,,,,ヤマダコウギョウ,0
1557,6110005001539,登記記録の閉鎖等,0,2024-10-07,2024-09-27,特定非営利活動法人介護と福祉のネットワークケー・アンド・ケー・ハートホーム,,その他の設立登記法人,新潟県,新潟市中央区,笹口２丁目９番４１号,,15,103,9500911,,,2024-09-27,清算の結了等,,,2015-10-05,1,,,,,,0
1558,6120001013248,登記記録の閉鎖等,0,2024-10-07,2024-10-02,株式会社ニップロ,,株式会社,大阪府,大阪市東成区,深江北３丁目１９番２３号,,27,115,5370001,,,2024-10-02,清算の結了等,,,2015-10-05,1,,,,,ニップロ,0
1564,6120001247127,登記記録の閉鎖等,0,2024-10-07,2024-10-01,株式会社ｓｔａｒｔｅｒ,,株式会社,大阪府,大阪市北区,梅田１丁目１－３大阪駅前第３ビル２９階１－１－１号,,27,127,5300001,,,2024-10-01,清算の結了等,,,2022-07-05,1,,,,,スターター,0
1565,6120001260732,登記記録の閉鎖等,0,2024-10-07,2024-10-01,天＿株式会社,00133038,株式会社,大阪府,大阪市中央区,淡路町３丁目６－１２ローズプラザ６０１号室,,27,128,5410047,,,2024-10-01,清算の結了等,,,2023-12-19,1,,,,,テンキ,0
1582,6130001008081,登記記録の閉鎖等,0,2024-10-07,2024-10-04,京公商事株式会社,,株式会社,京都府,京都市中京区,六角通烏丸東入堂之前町２４０番地プレミスト京都六角通堂之前町３０３号,,26,104,6048134,,,2024-10-04,清算の結了等,,,2015-10-05,1,,,,,ケイコウショウジ,0
1588,6140001108392,登記記録の閉鎖等,0,2024-10-07,2024-10-02,スペースクリエイティブ株式会社,,株式会社,兵庫県,神戸市東灘区,御影石町３丁目４番１８号,,28,101,6580045,,,2024-10-02,清算の結了等,,,2017-12-04,1,,,,,スペースクリエイティブ,0
1602,6180001041532,登記記録の閉鎖等,0,2024-10-07,2024-09-24,八木産業株式会社,,株式会社,愛知県,名古屋市千種区,星ケ丘２丁目３９番地の４,,23,101,4640801,,,2024-09-24,清算の結了等,,,2015-10-05,1,,,,,ヤギサンギョウ,0
1616,6180302015581,登記記録の閉鎖等,0,2024-10-07,2024-09-27,有限会社セルビア,,有限会社,愛知県,蒲郡市,宝町１４番１７号,,23,214,4430044,,,2024-09-27,清算の結了等,,,2015-10-05,1,,,,,セルビア,0
1622,6210001010698,登記記録の閉鎖等,0,2024-10-07,2024-10-01,ＪＸ金属敦賀リサイクル株式会社,,株式会社,福井県,敦賀市,若泉町１番地,,18,202,9140027,,,2024-10-01,清算の結了等,,,2015-10-05,1,,,,,ジェイエックスキンゾクツルガリサイクル,0
1628,6230001013146,登記記録の閉鎖等,0,2024-10-07,2024-10-01,北洋ウッドプランナー株式会社,,株式会社,富山県,射水市,松木４３９番地,,16,211,9340052,,,2024-10-01,合併による解散等,2230002013818,令和６年１０月１日富山県射水市松木２３３番地北洋興産株式会社（2230002013818）に合併し解散,2015-10-05,1,,,,,ホクヨウウッドプランナー,0
1636,6240002009332,登記記録の閉鎖等,0,2024-10-07,2024-10-02,大三商事有限会社,,有限会社,広島県,広島市東区,牛田早稲田１丁目１７－２４,,34,102,7320062,,,2024-10-02,清算の結了等,,,2015-10-05,1,,,,,ダイサンショウジ,0
1638,6260001004068,登記記録の閉鎖等,0,2024-10-07,2024-10-01,大和紙業株式会社,,株式会社,岡山県,岡山市北区,富田町２丁目３番１８号,,33,101,7000816,,,2024-10-01,清算の結了等,,,2015-10-05,1,,,,,,0
1639,6260001012401,登記記録の閉鎖等,0,2024-10-07,2024-10-01,株式会社アサヒウオッセ,,株式会社,岡山県,倉敷市,呼松１丁目１番８号,,33,202,7128053,,,2024-10-01,合併による解散等,6260001013465,令和６年１０月１日岡山県倉敷市呼松一丁目１番８号三共水産株式会社（6260001013465）に合併し解散,2015-10-05,1,,,,,アサヒウオッセ,0
1671,6380001018510,登記記録の閉鎖等,0,2024-10-07,2024-10-01,株式会社ヤシマテック,,株式会社,福島県,河沼郡会津坂下町,大字片門字仲ノ坂５１番地１,,07,421,9696581,,,2024-10-01,合併による解散等,8030001064629,令和６年１０月１日福島県河沼郡会津坂下町大字片門字仲ノ坂５１番地１八洲ゴム工業株式会社（8030001064629）に合併し解散,2015-10-05,1,,,,,ヤシマテック,0
1675,6400501000304,登記記録の閉鎖等,0,2024-10-07,2024-09-25,株式会社緑土会,,株式会社,岩手県,一関市,上大槻街５番６号,,03,209,0210882,,,2024-09-25,清算の結了等,,,2015-10-05,1,,,,,リョクドカイ,0
1676,6400502000360,登記記録の閉鎖等,0,2024-10-07,2024-09-25,有限会社じけいどう佐久薬局,,有限会社,岩手県,一関市,大手町６番１５号,,03,209,0210884,,,2024-09-25,清算の結了等,,,2015-10-05,1,,,,,ジケイドウサクヤッキョク,0
1679,6420001017251,登記記録の閉鎖等,0,2024-10-07,2024-10-02,株式会社ドリームパレット,,株式会社,青森県,青森市,大字大野字片岡４６番地１４ハイツ白峰１０１号,,02,201,0300852,,,2024-10-02,清算の結了等,,,2020-12-17,1,,,,,ドリームパレット,0
1680,6420002000611,登記記録の閉鎖等,0,2024-10-07,2024-10-02,有限会社越後谷目立加工センター,,有限会社,青森県,青森市,大字新城字山田１７０番地２,,02,201,0380042,,,2024-10-02,清算の結了等,,,2015-10-05,1,,,,,エチゴヤメタテカコウセンター,0
1691,6440002006169,登記記録の閉鎖等,0,2024-10-07,2024-10-01,有限会社イヨ食品,,有限会社,北海道,函館市,本通２丁目５５番２４号,,01,202,0410851,,,2024-10-01,合併による解散等,4440001000760,令和６年１０月１日北海道函館市臼尻町２４５番地久二野村水産株式会社（4440001000760）に合併し解散,2015-10-05,1,,,,,イヨショクヒン,0
1692,6460102000672,登記記録の閉鎖等,0,2024-10-07,2024-10-01,有限会社音更陸送運輸,,有限会社,北海道,河東郡音更町,木野大通東１３丁目１番地２２,,01,631,0800111,,,2024-10-01,清算の結了等,,,2015-10-05,1,,,,,オトフケリクソウウンユ,0
1702,7010001051209,登記記録の閉鎖等,0,2024-10-07,2024-09-26,株式会社アピスファーマシーＴＭ,,株式会社,東京都,中央区,日本橋人形町１丁目４番１４号,,13,102,1030013,,,2024-09-26,合併による解散等,6030001066965,令和６年９月１日埼玉県北葛飾郡松伏町築比地７９５番地１株式会社ウィーズ（6030001066965）に合併し解散,2015-10-05,1,,,,,アピスファーマシーティーエム,0
1714,7010005029465,登記記録の閉鎖等,0,2024-10-07,2024-10-01,白井中特定目的会社,,その他の設立登記法人,東京都,千代田区,平河町１丁目６番１５号シルスフィア会計事務所内,,13,101,1020093,,,2024-10-01,清算の結了等,,,2018-12-07,1,,,,,シロイナカ,0
1724,7010601025867,登記記録の閉鎖等,0,2024-10-07,2024-10-01,株式会社ミューコーポレーション,,株式会社,東京都,墨田区,緑２丁目１４番５－８０２号,,13,107,1300021,,,2024-10-01,合併による解散等,2010601010659,令和６年１０月１日東京都江東区新大橋二丁目１２番１５号ケニー株式会社（2010601010659）に合併し解散,2015-10-05,1,,,,,ミューコーポレーション,0
1736,7011001142641,登記記録の閉鎖等,0,2024-10-07,2024-09-10,株式会社プロジェクトシックス,,株式会社,東京都,渋谷区,千駄ヶ谷５丁目１３番１８号,,13,113,1510051,,,2024-09-10,清算の結了等,,,2021-09-10,1,,,,,プロジェクトシックス,0
1759,7020001057361,登記記録の閉鎖等,0,2024-10-07,2024-09-18,株式会社オフィスワイ・ケイ,,株式会社,神奈川県,横浜市中区,太田町１丁目１１番地３グリーンビル５Ｆ,,14,104,2310011,,,2024-09-18,清算の結了等,,,2015-10-05,1,,,,,オフィスワイケイ,0
1767,7020002005971,登記記録の閉鎖等,0,2024-10-07,2024-09-19,有限会社キヨー,,有限会社,神奈川県,横浜市都筑区,茅ケ崎東４丁目７番８号,,14,118,2240033,,,2024-09-19,清算の結了等,,,2015-10-05,1,,,,,キヨー,0
1774,7030001008248,登記記録の閉鎖等,0,2024-10-07,2024-10-02,武蔵野環境整備株式会社,,株式会社,埼玉県,さいたま市浦和区,常盤９丁目５番８号,,11,107,3300061,,,2024-10-02,合併による解散等,6010001050590,令和６年１０月１日東京都江東区佐賀一丁目３番７号月島ジェイテクノメンテサービス株式会社（6010001050590）に合併し解散,2015-10-05,1,,,,,ムサシノカンキョウセイビ,0
1780,7030002026240,登記記録の閉鎖等,0,2024-10-07,2024-09-30,有限会社早川電気商会,,有限会社,埼玉県,蕨市,中央２丁目２３番６号,,11,223,3350004,,,2024-09-30,清算の結了等,,,2015-10-05,1,,,,,ハヤカワデンキショウカイ,0
1781,7030002110531,登記記録の閉鎖等,0,2024-10-07,2024-09-30,有限会社エスアンドエーリニューアル設計,,有限会社,埼玉県,川口市,西川口３丁目２９番２０号７０２,,11,203,3320021,,,2024-09-30,清算の結了等,,,2015-10-05,1,,,,,エスアンドエーリニューアルセッケイ,0
1789,7050003003393,登記記録の閉鎖等,0,2024-10-07,2024-09-30,大洗新鮮組合同会社,,合同会社,茨城県,東茨城郡大洗町,港中央２３番地,,08,309,3111305,,,2024-09-30,清算の結了等,,,2016-09-02,1,,,,,オオアライシンセングミ,0
1796,7080102004091,登記記録の閉鎖等,0,2024-10-07,2024-10-02,有限会社アピカル・テクニカ,,有限会社,静岡県,裾野市,佐野１１２６番地,,22,220,4101118,,,2024-10-02,清算の結了等,,,2015-10-05,1,,,,,アピカルテクニカ,0
1797,7080102009826,登記記録の閉鎖等,0,2024-10-07,2024-10-02,有限会社尾上医院,,有限会社,静岡県,三島市,本町１番４２号,,22,206,4110855,,,2024-10-02,清算の結了等,,,2015-10-05,1,,,,,オノエイイン,0
1826,7120002025687,登記記録の閉鎖等,0,2024-10-07,2024-09-30,有限会社フロンティア,,有限会社,大阪府,大阪市東淀川区,菅原２丁目１３番２２号,,27,114,5330022,,,2024-09-30,清算の結了等,,,2015-10-05,1,,,,,フロンティア,0
1827,7120002029878,登記記録の閉鎖等,0,2024-10-07,2024-10-02,有限会社尾崎電気商会,,有限会社,大阪府,大阪市北区,大淀中５丁目３番１８号,,27,127,5310076,,,2024-10-02,清算の結了等,,,2015-10-05,1,,,,,オザキデンキショウカイ,0
1828,7120002036437,登記記録の閉鎖等,0,2024-10-07,2024-10-03,有限会社数楽会,,有限会社,大阪府,大阪市中央区,石町２丁目１番７－３１０号,,27,128,5400033,,,2024-10-03,清算の結了等,,,2015-10-05,1,,,,,スウラクカイ,0
1829,7120002045495,登記記録の閉鎖等,0,2024-10-07,2024-10-01,株式会社フレンド,,株式会社,東京都,港区,浜松町２丁目３番１号,,13,103,1050013,,,2024-10-01,合併による解散等,3010401103075,令和６年１０月１日東京都港区浜松町二丁目３番１号株式会社シノケンウェルネス（3010401103075）に合併し解散,2015-10-05,1,,,,,フレンド,0
1835,7120102016173,登記記録の閉鎖等,0,2024-10-07,2024-10-02,有限会社まるは,,有限会社,大阪府,八尾市,北本町２丁目９番２０号,,27,212,5810802,,,2024-10-02,清算の結了等,,,2015-10-05,1,,,,,マルハ,0
1836,7120103004549,登記記録の閉鎖等,0,2024-10-07,2024-10-02,合同会社ケノヴィア,,合同会社,大阪府,岸和田市,春木旭町１２番５７号,,27,202,5960005,,,2024-10-02,清算の結了等,,,2022-01-31,1,,,,,ケノヴィア,0
1844,7122002009604,登記記録の閉鎖等,0,2024-10-07,2024-10-03,有限会社塚本精機,,有限会社,大阪府,東大阪市,友井２丁目２０番１号,,27,227,5770816,,,2024-10-03,清算の結了等,,,2015-10-05,1,,,,,ツカモトセイキ,0
1860,7170001013408,登記記録の閉鎖等,0,2024-10-07,2024-10-03,味糧株式会社,,株式会社,和歌山県,和歌山市,鳴神４８５番地の３２,,30,201,6408303,,,2024-10-03,清算の結了等,,,2015-10-05,1,,,,,ミリョウ,0
1866,7180001155595,登記記録の閉鎖等,0,2024-10-07,2024-09-25,ＧＰ　Ｊａｐａｎ株式会社,,株式会社,愛知県,名古屋市千種区,本山町４丁目５５番地美Ｓｉｌｅｎｔｍｏｔｏｙａｍａ１階,,23,101,4640036,,,2024-09-25,清算の結了等,,,2023-04-05,1,,,,,ジーピージャパン,0
1882,7180303002149,登記記録の閉鎖等,0,2024-10-07,2024-09-26,知立木材合資会社,,合資会社,愛知県,知立市,山屋敷町山屋敷４７番地,,23,225,4720022,,,2024-09-26,清算の結了等,,,2015-10-05,1,,,,,チリュウモクザイ,0
1886,7200002004047,登記記録の閉鎖等,0,2024-10-07,2024-10-03,有限会社フルーツパーラー・カトリーヌ,,有限会社,岐阜県,岐阜市,平和通１丁目２１番地の１,,21,201,5020827,,,2024-10-03,清算の結了等,,,2015-10-05,1,,,,,フルーツパーラーカトリーヌ,0
1890,7220001003436,登記記録の閉鎖等,0,2024-10-07,2024-10-01,城南自動車株式会社,,株式会社,石川県,金沢市,泉野町１丁目９番９号,,17,201,9218034,,,2024-10-01,合併による解散等,8220001003807,令和６年１０月１日石川県金沢市若草町２番３６号平和タクシー株式会社（8220001003807）に合併し解散,2015-10-05,1,,,,,ジョウナンジドウシャ,0
1892,7240001002700,登記記録の閉鎖等,0,2024-10-07,2024-09-30,株式会社京善,,株式会社,広島県,広島市南区,出島２丁目１３番４９号,,34,103,7340013,,,2024-09-30,合併による解散等,6240001007031,令和６年９月３０日広島市南区出島二丁目１３番４９号司産業株式会社（6240001007031）に合併し解散,2015-10-05,1,,,,,キョウゼン,0
1895,7240002038066,登記記録の閉鎖等,0,2024-10-07,2024-09-27,有限会社三七人,00001179,有限会社,広島県,廿日市市,大野２丁目１１番２号,,34,213,7390434,,,2024-09-27,合併による解散等,6240002037977,令和６年９月２７日広島県廿日市市大野二丁目１１番２号株式会社宮島ビューマリーナ（6240002037977）に合併し解散,2015-10-05,1,,,,,ミナト,0
1900,7260001010742,登記記録の閉鎖等,0,2024-10-07,2024-10-03,株式会社重井興業,,株式会社,岡山県,岡山市北区,下高田１１３４番地１,,33,101,7011524,,,2024-10-03,清算の結了等,,,2015-10-05,1,,,,,,0
1904,7280001006169,登記記録の閉鎖等,0,2024-10-07,2024-10-04,株式会社プリント・ラボ,,株式会社,島根県,松江市,西津田８丁目１７番８号,,32,201,6900017,,,2024-10-04,清算の結了等,,,2015-10-05,1,,,,,プリントラボ,0
1905,7280003001572,登記記録の閉鎖等,0,2024-10-07,2024-10-04,合同会社なごみ庵,,合同会社,島根県,雲南市,吉田町吉田８９２番地１,,32,209,6902801,,,2024-10-04,清算の結了等,,,2022-01-28,1,,,,,ナゴミアン,0
1936,7370601000033,登記記録の閉鎖等,0,2024-10-07,2024-09-18,株式会社阿部鉄工所,,株式会社,宮城県,多賀城市,八幡４丁目７番４４号,,04,209,9850874,,,2024-09-18,清算の結了等,,,2015-10-05,1,,,,,アベテッコウショ,0
1959,8010001155842,登記記録の閉鎖等,0,2024-10-07,2024-09-24,株式会社ラディネス,,株式会社,東京都,中央区,日本橋人形町２丁目２４番５号,,13,102,1030013,,,2024-09-24,清算の結了等,,,2015-10-05,1,,,,,ラディネス,0
1986,8010405020799,登記記録の閉鎖等,0,2024-10-07,2024-09-10,一般社団法人神谷町キャピタル・スリー,,その他の設立登記法人,東京都,港区,虎ノ門３丁目１８番１２－５０２号株式会社虎ノ門会計神谷町分室内,,13,103,1050001,,,2024-09-10,清算の結了等,,,2022-03-10,1,,,,,カミヤチョウキャピタルスリー,0
2013,8011003011629,登記記録の閉鎖等,0,2024-10-07,2024-09-12,合同会社Ｉｄｉｏｍ,,合同会社,東京都,渋谷区,渋谷３丁目１番９号ＹＡＺＡＷＡビル３階,,13,113,1500002,,,2024-09-12,清算の結了等,,,2020-09-11,1,,,,,イディオム,0
2021,8011201013476,登記記録の閉鎖等,0,2024-10-07,2024-09-27,株式会社メディアエージェンシー,,株式会社,東京都,新宿区,新宿１丁目１３－１２ファーストビル地下１階,,13,104,1600022,,,2024-09-27,清算の結了等,,,2015-10-05,1,,,,,メディアエージェンシー,0
2024,8011401000695,登記記録の閉鎖等,0,2024-10-07,2024-09-30,株式会社入倉商会,,株式会社,東京都,板橋区,徳丸３丁目６番３号,,13,119,1750083,,,2024-09-30,清算の結了等,,,2015-10-05,1,,,,,イリクラショウカイ,0
2030,8011702009411,登記記録の閉鎖等,0,2024-10-07,2024-09-30,有限会社晴海商事,,有限会社,東京都,江戸川区,中央３丁目２０番１０号,,13,123,1320021,,,2024-09-30,清算の結了等,,,2015-10-05,1,,,,,ハルミショウジ,0
2038,8013201018249,登記記録の閉鎖等,0,2024-10-07,2024-09-06,株式会社春風庵,,株式会社,東京都,目黒区,鷹番２丁目９番９号,,13,110,1520004,,,2024-09-06,清算の結了等,,,2015-10-05,1,,,,,シュンプウアン,0
2049,8020002013239,登記記録の閉鎖等,0,2024-10-07,2024-09-19,有限会社リースキン新神奈川,,有限会社,神奈川県,横浜市戸塚区,矢部町８７１番地の３２,,14,110,2440002,,,2024-09-19,清算の結了等,,,2015-10-05,1,,,,,リースキンシンカナガワ,0
2057,8021003012857,登記記録の閉鎖等,0,2024-10-07,2024-10-03,合同会社Ｒｏｓｓｉ,,合同会社,神奈川県,相模原市緑区,青野原２９４６,,14,151,2520161,,,2024-10-03,清算の結了等,,,2023-03-08,1,,,,,ロッシ,0
2070,8030002048969,登記記録の閉鎖等,0,2024-10-07,2024-09-30,有限会社サクラ部品,,有限会社,埼玉県,三郷市,彦糸１丁目１６２番地２,,11,237,3410001,,,2024-09-30,清算の結了等,,,2015-10-05,1,,,,,サクラブヒン,0
2087,8060001031320,登記記録の閉鎖等,0,2024-10-07,2024-09-25,株式会社ＳＭＪ,,株式会社,栃木県,宇都宮市,西刑部町２７１２番地３７,,09,201,3210917,,,2024-09-25,清算の結了等,,,2019-02-13,1,,,,,エスエムジェイ,0
2092,8080001011469,登記記録の閉鎖等,0,2024-10-07,2024-09-27,株式会社安倍土木,,株式会社,静岡県,静岡市葵区,梅ケ島５６２７番地の１,,22,101,4212301,,,2024-09-27,清算の結了等,,,2015-10-05,1,,,,,アベドボク,0
2093,8080001014389,登記記録の閉鎖等,0,2024-10-07,2024-09-27,板倉プレス工業株式会社,,株式会社,静岡県,島田市,中河８９４番地の１,,22,209,4270103,,,2024-09-27,清算の結了等,,,2015-10-05,1,,,,,,0
2106,8090001016855,登記記録の閉鎖等,0,2024-10-07,2024-10-01,株式会社一心,,株式会社,山梨県,南都留郡山中湖村,山中６３番地２,,19,425,4010501,,,2024-10-01,合併による解散等,1090001010807,令和６年１０月１日山梨県南都留郡山中湖村山中６３番地２株式会社ＴＯＫＵＭＯ（1090001010807）に合併し解散,2021-02-19,1,,,,,イッシン,0
2126,8120003013541,登記記録の閉鎖等,0,2024-10-07,2024-09-30,合同会社キグナス,,合同会社,大阪府,大阪市此花区,朝日２丁目１８番８号３Ｆ,,27,104,5540011,,,2024-09-30,合併による解散等,6120003013502,令和６年９月３０日大阪市此花区朝日二丁目１８番８号３Ｆ合同会社ブライト（6120003013502）に合併し解散,2017-11-17,1,,,,,,0
2130,8120101055403,登記記録の閉鎖等,0,2024-10-07,2024-10-01,株式会社サンワ・サービス,,株式会社,大阪府,貝塚市,半田１丁目１７番－３－２０２号,,27,208,5970033,,,2024-10-01,清算の結了等,,,2016-09-21,1,,,,,サンワサービス,0
2135,8120102026097,登記記録の閉鎖等,0,2024-10-07,2024-10-02,有限会社レシア,,有限会社,大阪府,泉大津市,東豊中町１丁目６番２５号,,27,206,5950021,,,2024-10-02,清算の結了等,,,2015-10-05,1,,,,,レシア,0
2171,8180001107422,登記記録の閉鎖等,0,2024-10-07,2024-09-20,株式会社いちろ,,株式会社,愛知県,名古屋市守山区,幸心３丁目１４０７番地,,23,113,4630079,,,2024-09-20,清算の結了等,,,2015-10-05,1,,,,,イチロ,0
2209,8280002009087,登記記録の閉鎖等,0,2024-10-07,2024-10-03,有限会社エイワ運輸,,有限会社,島根県,江津市,都野津町２３４７番地１,,32,207,6950021,,,2024-10-03,清算の結了等,,,2015-10-05,1,,,,,エイワウンユ,0
2210,8290001023138,登記記録の閉鎖等,0,2024-10-07,2024-10-01,株式会社菅公テクノ,,株式会社,福岡県,久留米市,安武町武島１６４２番地１,,40,203,8300071,,,2024-10-01,合併による解散等,5290001049177,令和６年１０月１日福岡県久留米市安武町武島１６４２番地の１株式会社チクホー工機（5290001049177）に合併し解散,2015-10-05,1,,,,,カンコウテクノ,0
2231,8340002021358,登記記録の閉鎖等,0,2024-10-07,2024-10-02,有限会社前山商事,,有限会社,鹿児島県,奄美市,名瀬平田町１４番５号,,46,222,8940014,,,2024-10-02,清算の結了等,,,2015-10-05,1,,,,,マエヤマショウジ,0
2248,8430002051651,登記記録の閉鎖等,0,2024-10-07,2024-09-30,有限会社芦野工務所,00089550,有限会社,北海道,滝川市,泉町２丁目３番１２号,,01,225,0730042,,,2024-09-30,清算の結了等,,,2015-10-05,1,,,,,アシノコウムショ,0
2272,9010002051981,登記記録の閉鎖等,0,2024-10-07,2024-09-30,有限会社エイアンドエイ,,有限会社,東京都,板橋区,幸町１番１６－３０４号,,13,119,1730034,,,2024-09-30,清算の結了等,,,2015-10-05,1,,,,,エイアンドエイ,0
2273,9010003022172,登記記録の閉鎖等,0,2024-10-07,2024-09-25,ＢｉｏＴｅｌｅｍｅｔｒｙ　Ｒｅｓｅａｒｃｈ，Ｊａｐａｎ合同会社,,合同会社,東京都,千代田区,丸の内２丁目１番１号明治安田生命ビル１４階,,13,101,1000005,,,2024-09-25,清算の結了等,,,2015-10-05,1,,,,,バイオテレメトリーリサーチジャパン,0
2275,9010005029686,登記記録の閉鎖等,0,2024-10-07,2024-10-02,一般社団法人ＷＨＡ２,,その他の設立登記法人,東京都,中央区,新川２丁目２７番１号,,13,102,1040033,,,2024-10-02,清算の結了等,,,2019-02-04,1,,,,,ダブリュエイチエーツー,0
2278,9010403021336,登記記録の閉鎖等,0,2024-10-07,2024-10-01,築地インベストメンツ２合同会社,,合同会社,東京都,港区,六本木１丁目６番１号泉ガーデンタワー,,13,103,1060032,,,2024-10-01,清算の結了等,,,2019-08-28,1,,,,,ツキジインベストメンツツー,0
2293,9011001099401,登記記録の閉鎖等,0,2024-10-07,2024-09-10,スカイグリーン株式会社,,株式会社,東京都,港区,六本木６丁目８番５号,,13,103,1060032,,,2024-09-10,清算の結了等,,,2015-10-05,1,,,,,スカイグリーン,0
2302,9011101042095,登記記録の閉鎖等,0,2024-10-07,2024-10-02,株式会社三井ホームデザイン研究所,,株式会社,東京都,新宿区,神楽坂２丁目１７番地,,13,104,1620825,,,2024-10-02,合併による解散等,2011101020537,令和６年１０月１日東京都江東区新木場一丁目１８番６号三井ホーム株式会社（2011101020537）に合併し解散,2015-10-05,1,,,,,ミツイホームデザインケンキュウショ,0
2317,9011703000888,登記記録の閉鎖等,0,2024-10-07,2024-09-26,エクセルエデュケーション合同会社,,合同会社,東京都,江戸川区,北葛西２丁目１６番２０号,,13,123,1340081,,,2024-09-26,清算の結了等,,,2015-10-05,1,,,,,,0
2327,9020001147334,登記記録の閉鎖等,0,2024-10-07,2024-09-19,横浜ダイヤモンド株式会社,,株式会社,神奈川県,川崎市川崎区,駅前本町１１番地２川崎フロンティアビル４階,,14,131,2100007,,,2024-09-19,清算の結了等,,,2022-07-12,1,,,,,ヨコハマダイヤモンド,0
2345,9030001071475,登記記録の閉鎖等,0,2024-10-07,2024-09-30,株式会社小川弁当センター,,株式会社,埼玉県,比企郡小川町,大字大塚５８１番地,,11,343,3550328,,,2024-09-30,清算の結了等,,,2015-10-05,1,,,,,,0
2351,9030003002230,登記記録の閉鎖等,0,2024-10-07,2024-09-27,合同会社レクセル,,合同会社,埼玉県,所沢市,東狭山ケ丘３丁目６７４－７,,11,208,3591106,,,2024-09-27,清算の結了等,,,2015-10-05,1,,,,,レクセル,0
2372,9090001000610,登記記録の閉鎖等,0,2024-10-07,2024-10-01,株式会社ケー・ディープランニング,,株式会社,山梨県,甲府市,後屋町４７番地,,19,201,4000045,,,2024-10-01,合併による解散等,7090002002946,令和６年１０月１日山梨県甲府市後屋町４７番地株式会社マルブン（7090002002946）に合併し解散,2015-10-05,1,,,,,,0
2376,9090005004475,登記記録の閉鎖等,0,2024-10-07,2024-09-30,特定非営利活動法人住宅ギルド,,その他の設立登記法人,山梨県,南都留郡富士河口湖町,小立２５８６番地,,19,430,4010302,,,2024-09-30,清算の結了等,,,2015-10-05,1,,,,,ジュウタクギルド,0
2378,9100002005862,登記記録の閉鎖等,0,2024-10-07,2024-09-27,有限会社キタザワ,,有限会社,長野県,上水内郡飯綱町,大字牟礼２７２３番地,,20,590,3891211,,,2024-09-27,清算の結了等,,,2015-10-05,1,,,,,キタザワ,0
2381,9110002033581,登記記録の閉鎖等,0,2024-10-07,2024-09-30,有限会社大久保しいたけ,,有限会社,新潟県,南魚沼市,穴地新田４０７番地２,,15,226,9497246,,,2024-09-30,清算の結了等,,,2015-10-05,1,,,,,オオクボシイタケ,0
2389,9120001238164,登記記録の閉鎖等,0,2024-10-07,2024-09-24,株式会社ミラグリ,,株式会社,東京都,千代田区,神田佐久間町４丁目１９ザ・パークワンズ千代田佐久間町７０１,,13,101,1010025,,,2024-09-24,清算の結了等,,,2021-06-11,1,,,,,ミラグリ,0
2406,9120902008822,登記記録の閉鎖等,0,2024-10-07,2024-10-01,有限会社たんぽぽ,,有限会社,大阪府,摂津市,正雀２丁目１３番３１号永和ハイツフローラ１階,,27,224,5660023,,,2024-10-01,清算の結了等,,,2015-10-05,1,,,,,タンポポ,0
2413,9140001008268,登記記録の閉鎖等,0,2024-10-07,2024-10-01,神港メリヤス株式会社,,株式会社,兵庫県,神戸市灘区,水道筋３丁目１０番地,,28,102,6570831,,,2024-10-01,清算の結了等,,,2015-10-05,1,,,,,シンコウメリヤス,0
2418,9140002030948,登記記録の閉鎖等,0,2024-10-07,2024-10-01,有限会社サンヨー石油商事,,有限会社,兵庫県,小野市,万勝寺町７７４番地の７,,28,218,6751311,,,2024-10-01,清算の結了等,,,2015-10-05,1,,,,,サンヨーセキユショウジ,0
2432,9160005004988,登記記録の閉鎖等,0,2024-10-07,2024-10-03,南後谷生産森林組合,,その他の設立登記法人,滋賀県,犬上郡多賀町,大字南後谷１２７番地,,25,443,5220327,,,2024-10-03,清算の結了等,,,2015-10-05,1,,,,,ミナミウシロダニ,0
2436,9180001073011,登記記録の閉鎖等,0,2024-10-07,2024-09-25,株式会社名港フラワーライン,,株式会社,愛知県,名古屋市港区,船見町３４番地の１０,,23,111,4550027,,,2024-09-25,清算の結了等,,,2015-10-05,1,,,,,メイコウフラワーライン,0
2463,9240005015390,登記記録の閉鎖等,0,2024-10-07,2024-10-04,一般社団法人ＹＡＹＯＩ　ＭＥＤＩＣＡＬ,,その他の設立登記法人,広島県,広島市中区,幟町２番２１－１７０１号,,34,101,7300016,,,2024-10-04,清算の結了等,,,2022-05-12,1,,,,,ヤヨイメディカル,0
2464,9250001006987,登記記録の閉鎖等,0,2024-10-07,2024-09-30,株式会社関交,,株式会社,山口県,下関市,丸山町５丁目１番２６号,,35,201,7500019,,,2024-09-30,清算の結了等,,,2015-10-05,1,,,,,,0
2465,9260001006631,登記記録の閉鎖等,0,2024-10-07,2024-10-03,メルヘンフード株式会社,,株式会社,岡山県,岡山市東区,西大寺射越３７３番地,,33,103,7048121,,,2024-10-03,清算の結了等,,,2015-10-05,1,,,,,メルヘンフード,0
2466,9260001012472,登記記録の閉鎖等,0,2024-10-07,2024-10-01,株式会社アサヒポワソン,,株式会社,岡山県,倉敷市,呼松１丁目１番８号,,33,202,7128053,,,2024-10-01,合併による解散等,6260001013465,令和６年１０月１日岡山県倉敷市呼松一丁目１番８号三共水産株式会社（6260001013465）に合併し解散,2015-10-05,1,,,,,アサヒポワソン,0
2479,9290802002066,登記記録の閉鎖等,0,2024-10-07,2024-10-03,有限会社クールアンドスマイル美容室,,有限会社,福岡県,北九州市小倉北区,神幸町８番６号,,40,106,8020038,,,2024-10-03,清算の結了等,,,2015-10-05,1,,,,,クールアンドスマイルビヨウシツ,0
2488,9320002019064,登記記録の閉鎖等,0,2024-10-07,2024-10-02,有限会社コワフール和田,,有限会社,大分県,日田市,三本松１丁目６番２２号,,44,204,8770016,,,2024-10-02,清算の結了等,,,2015-10-05,1,,,,,,0
2498,9350002014616,登記記録の閉鎖等,0,2024-10-07,2024-10-01,有限会社永山商店,,有限会社,宮崎県,都城市,都原町７４２４番地,,45,202,8850094,,,2024-10-01,清算の結了等,,,2015-10-05,1,,,,,ナガヤマショウテン,0
2504,9370801000525,登記記録の閉鎖等,0,2024-10-07,2024-09-24,共同電気工事株式会社,,株式会社,宮城県,亘理郡亘理町,字龍円寺前１番地,,04,361,9892361,,,2024-09-24,清算の結了等,,,2015-10-05,1,,,,,キョウドウデンキコウジ,0
