sequenceNumber,corporateNumber,process,correct,updateDate,changeDate,name,nameImageId,kind,prefectureName,cityName,streetNumber,addressImageId,prefectureCode,cityCode,postCode,addressOutside,addressOutsideImageId,closeDate,closeCause,successorCorporateNumber,changeCause,assignmentDate,latest,enName,enPrefectureName,enCityName,enAddressOutside,furigana,hihyoji
13,1010001232012,新規,0,2023-01-12,2023-01-12,株式会社アッシュ・エム,,株式会社,東京都,文京区,大塚３丁目１３番１０－２０５号,,13,105,1120012,,,,,,,2023-01-12,1,,,,,アッシュエム,0
14,1010001232045,新規,0,2023-01-12,2023-01-12,三富株式会社,,株式会社,東京都,千代田区,神田神保町２丁目８番１６号,,13,101,1010051,,,,,,,2023-01-12,1,,,,,ミトミ,0
15,1010001232128,新規,0,2023-01-12,2023-01-12,株式会社ＴＡＥＺ,,株式会社,東京都,中央区,京橋３丁目３－１３平和ビル３号館３Ｆ,,13,102,1040031,,,,,,,2023-01-12,1,,,,,タエズ,0
19,1010103002057,新規,0,2023-01-12,2023-01-12,合同会社ＸＥＰＨＹ,,合同会社,東京都,八王子市,富士見町２６－１０,,13,201,1920044,,,,,,,2023-01-12,1,,,,,ゼフィ,0
31,1010401171776,新規,0,2023-01-12,2023-01-12,ＤＩＶＩＮＥ　ＱＵＥＳＴ　Ｅｎｔｅｒｔａｉｎｍｅｎｔ株式会社,,株式会社,東京都,港区,東麻布２丁目１８番３－２０１号,,13,103,1060044,,,,,,,2023-01-12,1,,,,,ディバインクエストエンターテインメント,0
35,1010403029254,新規,0,2023-01-12,2023-01-12,Ｈｅａｒｔｓｆａｒｍ　Ｊａｐａｎ合同会社,,合同会社,東京都,港区,赤坂４丁目４番８号ＶＯＲＴ赤坂ＩＩ,00129013,13,103,1070052,,,,,,,2023-01-12,1,,,,,ハーツファームジャパン,0
40,1010501049856,新規,0,2023-01-12,2023-01-12,株式会社オートクラフトホールディングス,,株式会社,東京都,台東区,東上野２丁目２５番１５号,,13,106,1100015,,,,,,,2023-01-12,1,,,,,オートクラフトホールディングス,0
41,1010501049864,新規,0,2023-01-12,2023-01-12,Ｎｅｗｔｏｎマーケティング株式会社,,株式会社,東京都,台東区,上野１丁目１６番１２号,,13,106,1100005,,,,,,,2023-01-12,1,,,,,ニュートンマーケティング,0
44,1010703006523,新規,0,2023-01-12,2023-01-12,佐野屋合同会社,,合同会社,東京都,品川区,北品川３丁目６番３８－３１１号,,13,109,1400001,,,,,,,2023-01-12,1,,,,,サノヤ,0
45,1010703006531,新規,0,2023-01-12,2023-01-12,合同会社ＴＵ,,合同会社,東京都,品川区,西五反田６丁目３番１９号Ｓ－ＶＵＩＴＴＯＮＫＡＭＢＡＲＡ５１０,,13,109,1410031,,,,,,,2023-01-12,1,,,,,ティーユー,0
51,1010901052303,新規,0,2023-01-12,2023-01-12,魔の巣株式会社,,株式会社,東京都,世田谷区,太子堂３丁目１８番２号三茶ビル１Ｆ,,13,112,1540004,,,,,,,2023-01-12,1,,,,,マノス,0
53,1010903007899,新規,0,2023-01-12,2023-01-12,合同会社ＣＡＮＳＯＫＳＨＡ,,合同会社,東京都,世田谷区,代沢２丁目４６－４－１０１,,13,112,1550032,,,,,,,2023-01-12,1,,,,,カンソクシャ,0
61,1011001151887,新規,0,2023-01-12,2023-01-12,パーセントラボ株式会社,,株式会社,東京都,目黒区,東山１丁目１５番３号,,13,110,1530043,,,,,,,2023-01-12,1,,,,,パーセントラボ,0
62,1011001151904,新規,0,2023-01-12,2023-01-12,株式会社ＬＡＦ,,株式会社,東京都,渋谷区,渋谷２丁目１９番１５号宮益坂ビルディング６０９,,13,113,1500002,,,,,,,2023-01-12,1,,,,,ラフ,0
63,1011001151920,新規,0,2023-01-12,2023-01-12,株式会社ＣＯＮｏＮ,,株式会社,東京都,目黒区,自由が丘２丁目２０番２号,,13,110,1520035,,,,,,,2023-01-12,1,,,,,コノン,0
64,1011001151929,新規,0,2023-01-12,2023-01-12,ＬＩＴＡ株式会社,,株式会社,東京都,渋谷区,道玄坂２丁目１５番１号,,13,113,1500043,,,,,,,2023-01-12,1,,,,,リタ,0
70,1011101101437,新規,0,2023-01-12,2023-01-12,株式会社ＭＡＴＲＯ,,株式会社,東京都,新宿区,西新宿６丁目５－１新宿アイランドタワー２０Ｆ,,13,104,1600023,,,,,,,2023-01-12,1,,,,,マトロ,0
77,1011405002232,新規,0,2023-01-12,2023-01-12,一般社団法人日本コーチングラボ協会,,その他の設立登記法人,東京都,板橋区,加賀２丁目３番１号加賀ガーデンハイツ４０４,,13,119,1730003,,,,,,,2023-01-12,1,,,,,ニホンコーチングラボキョウカイ,0
81,1011503005418,新規,0,2023-01-12,2023-01-12,合同会社ＲｅＦＲＥＡＫＳ,,合同会社,東京都,荒川区,東日暮里１丁目４１－１２－３０３,,13,118,1160014,,,,,,,2023-01-12,1,,,,,リフリークス,0
82,1011601026497,新規,0,2023-01-12,2023-01-12,株式会社ＤＩＣ,,株式会社,東京都,練馬区,小竹町２丁目４１番１号ＭＡＸＩＶ小竹向原４０６,,13,120,1760004,,,,,,,2023-01-12,1,,,,,ディーアイシー,0
87,1011701025944,新規,0,2023-01-12,2023-01-12,株式会社フミモト商事,,株式会社,東京都,江戸川区,一之江８丁目１番１３－９０２号,,13,123,1320024,,,,,,,2023-01-12,1,,,,,フミモトショウジ,0
90,1011801041775,新規,0,2023-01-12,2023-01-12,株式会社ＭＡ,,株式会社,東京都,足立区,西新井３丁目１２番１５号,,13,121,1230841,,,,,,,2023-01-12,1,,,,,エムエー,0
91,1011801041783,新規,0,2023-01-12,2023-01-12,株式会社ぼのぼの,,株式会社,東京都,足立区,千住仲町４９番１１－７１０号,,13,121,1200036,,,,,,,2023-01-12,1,,,,,ボノボノ,0
93,1011803005464,新規,0,2023-01-12,2023-01-12,ａｌｂａ合同会社,,合同会社,東京都,葛飾区,細田３丁目６番１３－６０７号ナイスアーバン京成高砂フロンテージ,,13,122,1240021,,,,,,,2023-01-12,1,,,,,アルバ,0
94,1012301013273,新規,0,2023-01-12,2023-01-12,株式会社鈴木青果,,株式会社,東京都,町田市,南大谷１１１７番地２８,,13,209,1940031,,,,,,,2023-01-12,1,,,,,スズキセイカ,0
95,1012301013281,新規,0,2023-01-12,2023-01-12,株式会社ＥＮＴＮＥ,,株式会社,東京都,町田市,原町田４丁目１１－１３天野ビル４Ｆ,,13,209,1940013,,,,,,,2023-01-12,1,,,,,エンテ,0
96,1012401040044,新規,0,2023-01-12,2023-01-12,株式会社秋池コンサルティング,,株式会社,東京都,府中市,晴見町３丁目２１番地の３２,,13,206,1830057,,,,,,,2023-01-12,1,,,,,アキイケコンサルティング,0
97,1012401040069,新規,0,2023-01-12,2023-01-12,株式会社Ｎｙ　Ｖａ,,株式会社,東京都,武蔵野市,吉祥寺本町１丁目１３番２号シラカバビル５階,,13,203,1800004,,,,,,,2023-01-12,1,,,,,ニーヴァ,0
99,1012705002335,新規,0,2023-01-12,2023-01-12,一般社団法人シニア１００年ライフサポーター協会,,その他の設立登記法人,東京都,小平市,津田町１丁目１８番３２－４０３号,,13,211,1870025,,,,,,,2023-01-12,1,,,,,シニアヒャクネンライフサポーターキョウカイ,0
105,1013103001202,新規,0,2023-01-12,2023-01-12,さんはぴ合同会社,,合同会社,東京都,青梅市,河辺町５丁目１０番地８ゴールド河辺４Ｆ,,13,205,1980036,,,,,,,2023-01-12,1,,,,,サンハピ,0
106,1013301050166,新規,0,2023-01-12,2023-01-12,株式会社ＣＯＭＢＩＡＩ,,株式会社,東京都,豊島区,東池袋１丁目３４番５号いちご東池袋ビル６階,,13,116,1700013,,,,,,,2023-01-12,1,,,,,コンビアイ,0
107,1013303006439,新規,0,2023-01-12,2023-01-12,おおた合同会社,,合同会社,東京都,豊島区,西池袋５丁目１７番１－３０９号,,13,116,1710021,,,,,,,2023-01-12,1,,,,,オオタ,0
108,1013303006447,新規,0,2023-01-12,2023-01-12,合同会社ＯＢＡＫＥ’ｓ　Ｍａｎｓｉｏｎ,,合同会社,東京都,豊島区,東池袋１丁目１７番１１号パークハイツ池袋１１０５,,13,116,1700013,,,,,,,2023-01-12,1,,,,,オバケズマンション,0
111,1020001149742,新規,0,2023-01-12,2023-01-12,株式会社ＦＭＣ,,株式会社,神奈川県,横浜市鶴見区,鶴見中央４丁目２番９号横山ビル４－６号室,,14,101,2300051,,,,,,,2023-01-12,1,,,,,エフエムシー,0
112,1020001149775,新規,0,2023-01-12,2023-01-12,株式会社ＬＩＦＩＸ,,株式会社,神奈川県,横浜市鶴見区,鶴見中央２丁目１８番１７号三栄ビル１０２号室,,14,101,2300051,,,,,,,2023-01-12,1,,,,,リフィックス,0
113,1020001149783,新規,0,2023-01-12,2023-01-12,株式会社リーフワン,,株式会社,神奈川県,横浜市中区,本牧町２丁目３１２番地,,14,104,2310806,,,,,,,2023-01-12,1,,,,,リーフワン,0
114,1020001149800,新規,0,2023-01-12,2023-01-12,株式会社ＡＵＢＥ,,株式会社,神奈川県,川崎市中原区,木月祗園町９番１号,,14,133,2110033,,,,,,,2023-01-12,1,,,,,オーブ,0
117,1021001077900,新規,0,2023-01-12,2023-01-12,株式会社湘南アイテクノロジーズ,,株式会社,神奈川県,藤沢市,辻堂元町１丁目１２番１４号,,14,205,2510043,,,,,,,2023-01-12,1,,,,,ショウナンアイテクノロジーズ,0
118,1021001077909,新規,0,2023-01-12,2023-01-12,株式会社オハイアリイ,,株式会社,神奈川県,大和市,中央林間７丁目９番３－５１１号,,14,213,2420007,,,,,,,2023-01-12,1,,,,,オハイアリイ,0
123,1030001151771,新規,0,2023-01-12,2023-01-12,株式会社富岡工業,,株式会社,埼玉県,新座市,野火止８丁目１５番２０－１０３号室,,11,230,3520011,,,,,,,2023-01-12,1,,,,,トミオカコウギョウ,0
124,1030001151854,新規,0,2023-01-12,2023-01-12,株式会社Ｆｕｋｕ,,株式会社,埼玉県,春日部市,西金野井５８３番地２,,11,214,3440112,,,,,,,2023-01-12,1,,,,,フク,0
125,1030001151870,新規,0,2023-01-12,2023-01-12,ＦＰＴプラン株式会社,,株式会社,埼玉県,川越市,大字今福１５６番地２１,,11,201,3501151,,,,,,,2023-01-12,1,,,,,エフピーティープラン,0
126,1030001151879,新規,0,2023-01-12,2023-01-12,株式会社チークピーシーズ,,株式会社,埼玉県,さいたま市緑区,東大門３丁目９番地１ランドステージ東川口パークサイド１０３,,11,109,3360964,,,,,,,2023-01-12,1,,,,,チークピーシーズ,0
127,1030001151887,新規,0,2023-01-12,2023-01-12,株式会社くるる,,株式会社,埼玉県,さいたま市浦和区,北浦和４丁目２番６号中村ビル４０２号室,,11,107,3300074,,,,,,,2023-01-12,1,,,,,クルル,0
128,1030001151895,新規,0,2023-01-12,2023-01-12,株式会社ウェディングメイト,,株式会社,埼玉県,白岡市,新白岡４丁目１－１３ニューホワイトヒル２０３,,11,246,3490212,,,,,,,2023-01-12,1,,,,,ウェディングメイト,0
132,1030003020941,新規,0,2023-01-12,2023-01-12,合同会社ＥＬＬＥ,,合同会社,埼玉県,川口市,芝樋ノ爪１丁目１６番１１号カーサレジオＫ１０２号,,11,203,3330852,,,,,,,2023-01-12,1,,,,,エル,0
136,1040001126483,新規,0,2023-01-12,2023-01-12,株式会社九十九里海の塩プロジェクト,,株式会社,千葉県,山武市,松ヶ谷イ１２４７番地５,,12,237,2891303,,,,,,,2023-01-12,1,,,,,クジュウクリウミノシオプロジェクト,0
137,1040001126590,新規,0,2023-01-12,2023-01-12,株式会社阿吽,,株式会社,千葉県,柏市,南増尾７丁目１２番４６号－１,,12,217,2770054,,,,,,,2023-01-12,1,,,,,アウン,0
138,1040001126608,新規,0,2023-01-12,2023-01-12,株式会社成嶋工業,,株式会社,千葉県,松戸市,金ケ作３９４番地６－１０４号,,12,207,2702251,,,,,,,2023-01-12,1,,,,,ナルシマコウギョウ,0
144,1050001052209,新規,0,2023-01-12,2023-01-12,株式会社新関フードサービス,,株式会社,茨城県,つくば市,上横場１９７９番地１,,08,220,3050854,,,,,,,2023-01-12,1,,,,,ニイゼキフードサービス,0
145,1050001052225,新規,0,2023-01-12,2023-01-12,株式会社柚ずりは,,株式会社,茨城県,古河市,宮前町２番１号,,08,204,3060031,,,,,,,2023-01-12,1,,,,,ユズリハ,0
146,1050001052241,新規,0,2023-01-12,2023-01-12,株式会社ＲＹＲＡ,,株式会社,茨城県,つくば市,桜２丁目７番地１,,08,220,3050003,,,,,,,2023-01-12,1,,,,,ライラ,0
150,1050003007144,新規,0,2023-01-12,2023-01-12,ｓｉｅｔｅ　ｔｒｅｓ合同会社,,合同会社,茨城県,龍ケ崎市,藤ケ丘４丁目７番地１２６,,08,208,3010855,,,,,,,2023-01-12,1,,,,,スウィエテトレス,0
153,1060003004363,新規,0,2023-01-12,2023-01-12,ＳＥＮ　ＴＨＡＲＵ　ＬＡＮＫＡ合同会社,,合同会社,栃木県,足利市,通６丁目３２２２タジマセツビ１Ｆ－Ｃ,,09,202,3260814,,,,,,,2023-01-12,1,,,,,センタルランカ,0
154,1070001039996,新規,0,2023-01-12,2023-01-12,株式会社ＧＦＫ,,株式会社,群馬県,太田市,原宿町３６１６番地,,10,205,3730071,,,,,,,2023-01-12,1,,,,,ジーエフケー,0
160,1100001036040,新規,0,2023-01-12,2023-01-12,株式会社坪田型枠興業,,株式会社,長野県,飯田市,鼎上山３１６４番地１,,20,205,3950806,,,,,,,2023-01-12,1,,,,,ツボタカタワクコウギョウ,0
171,1120001251554,新規,0,2023-01-12,2023-01-12,株式会社エム・ティー・アール,,株式会社,大阪府,大阪市鶴見区,鶴見４丁目１７番２４－１０１号,,27,124,5380053,,,,,,,2023-01-12,1,,,,,エムティーアール,0
172,1120001251579,新規,0,2023-01-12,2023-01-12,株式会社ＣＬＩＮＥ　ＮＥＯ,,株式会社,大阪府,大阪市住之江区,南港中５丁目１番１１－２０９号,,27,125,5590033,,,,,,,2023-01-12,1,,,,,シーラインネオ,0
173,1120001251612,新規,0,2023-01-12,2023-01-12,株式会社山下企画,,株式会社,大阪府,大阪市福島区,福島４丁目３番２３－１４０４号,,27,103,5530003,,,,,,,2023-01-12,1,,,,,ヤマシタキカク,0
174,1120001251620,新規,0,2023-01-12,2023-01-12,株式会社ＣＯＣＯ．,,株式会社,大阪府,大阪市北区,堂島１丁目４番４号,,27,127,5300003,,,,,,,2023-01-12,1,,,,,ココドット,0
175,1120001251637,新規,0,2023-01-12,2023-01-12,株式会社柏木,,株式会社,大阪府,大阪市東住吉区,今川８丁目１２番２４号アクト白鷺５０１号,,27,121,5460003,,,,,,,2023-01-12,1,,,,,カシワギ,0
176,1120001251645,新規,0,2023-01-12,2023-01-12,万豪株式会社,,株式会社,大阪府,大阪市浪速区,幸町２丁目３番１４号ダイトービル７０２号室,,27,111,5560021,,,,,,,2023-01-12,1,,,,,ワンホウ,0
177,1120003023167,新規,0,2023-01-12,2023-01-12,合同会社Ｍａｉｓｏｎ　Ｈ,,合同会社,大阪府,大阪市北区,梅田２丁目２番２号ヒルトンプラザウエスト１９階,,27,127,5300001,,,,,,,2023-01-12,1,,,,,メゾンアッシュ,0
180,1120005023388,新規,0,2023-01-12,2023-01-12,税理士法人Ｔａｋｕｍｉ,,その他の設立登記法人,大阪府,大阪市北区,天満２丁目１番２７号,,27,127,5300043,,,,,,,2023-01-12,1,,,,,タクミ,0
183,1120101066811,新規,0,2023-01-12,2023-01-12,株式会社ＴＡＮＧＯ,,株式会社,大阪府,河内長野市,美加の台７丁目２９番９号,,27,216,5860044,,,,,,,2023-01-12,1,,,,,タンゴ,0
184,1120103005016,新規,0,2023-01-12,2023-01-12,正和合同会社,,合同会社,大阪府,泉佐野市,日根野４０９１番地（８１０）,,27,213,5980021,,,,,,,2023-01-12,1,,,,,セイワ,0
185,1120901046954,新規,0,2023-01-12,2023-01-12,株式会社インテリアトラスト,,株式会社,大阪府,高槻市,唐崎南３丁目１５番１７号,,27,207,5690833,,,,,,,2023-01-12,1,,,,,インテリアトラスト,0
186,1120901046962,新規,0,2023-01-12,2023-01-12,株式会社ｗａｎ‐ｓｉｔｅ,,株式会社,大阪府,豊能郡能勢町,平通３２５番地,,27,322,5630356,,,,,,,2023-01-12,1,,,,,ワンサイト,0
187,1120901046970,新規,0,2023-01-12,2023-01-12,株式会社ＤＩＣＥ,,株式会社,大阪府,豊中市,曽根南町３丁目１９番２０号,,27,203,5610804,,,,,,,2023-01-12,1,,,,,ダイス,0
188,1120901046979,新規,0,2023-01-12,2023-01-12,株式会社エリモＨＤ,,株式会社,大阪府,箕面市,船場西２丁目２番１号,,27,220,5620036,,,,,,,2023-01-12,1,,,,,エリモホールディングス,0
191,1122001036571,新規,0,2023-01-12,2023-01-12,Ｙ．Ｋ．Ｇｌａｄ　Ｈｏｍｅ株式会社,,株式会社,大阪府,八尾市,太田３丁目２０８,,27,212,5810037,,,,,,,2023-01-12,1,,,,,ワイケーグラッドホーム,0
193,1122003002489,新規,0,2023-01-12,2023-01-12,合同会社アーデントラボ,,合同会社,大阪府,大東市,朋来１丁目２１番１３号３Ｆ,,27,218,5740034,,,,,,,2023-01-12,1,,,,,アーデントラボ,0
200,1130001073428,新規,0,2023-01-12,2023-01-12,株式会社Ｗｉｎｓｔ,,株式会社,京都府,京都市下京区,中堂寺粟田町９３番地ＫＲＰ４号館３階ＫＲＰＢＩＺＮＥＸＴ,,26,106,6008815,,,,,,,2023-01-12,1,,,,,ウィンスト,0
202,1130005016663,新規,0,2023-01-12,2023-01-12,社会保険労務士法人チームＳｍｉｌｅ,,その他の設立登記法人,京都府,京都市下京区,七条通新町東入西境町１４９番地,,26,106,6008218,,,,,,,2023-01-12,1,,,,,チームスマイル,0
205,1140001128635,新規,0,2023-01-12,2023-01-12,西宮スタジオ株式会社,,株式会社,兵庫県,西宮市,城ケ堀町２番２２号早川総合ビル２０５,,28,204,6620856,,,,,,,2023-01-12,1,,,,,ニシノミヤスタジオ,0
206,1140001128718,新規,0,2023-01-12,2023-01-12,株式会社彩,,株式会社,兵庫県,尼崎市,御園１丁目１０番１６号,,28,202,6610984,,,,,,,2023-01-12,1,,,,,サイ,0
207,1140001128750,新規,0,2023-01-12,2023-01-12,株式会社ｋｏｋｏｋａｒａ,,株式会社,兵庫県,洲本市,五色町鮎原神陽６００－１３８,,28,205,6561318,,,,,,,2023-01-12,1,,,,,ココカラ,0
208,1140003018578,新規,0,2023-01-12,2023-01-12,合同会社ＳＯＤＡＲＩ,,合同会社,兵庫県,加東市,藤田１８５６番地トワベール南山Ｂ－２０２号,,28,228,6731462,,,,,,,2023-01-12,1,,,,,ソダリ,0
209,1140005026447,新規,0,2023-01-12,2023-01-12,医療法人せいゆう会,,その他の設立登記法人,兵庫県,神戸市中央区,港島中町６丁目５番１号モードピア２Ｆ,,28,110,6500046,,,,,,,2023-01-12,1,,,,,セイユウカイ,0
211,1150001026078,新規,0,2023-01-12,2023-01-12,株式会社イチゴ太郎,,株式会社,奈良県,天理市,海知町４１３番地,,29,204,6320064,,,,,,,2023-01-12,1,,,,,イチゴタロウ,0
212,1150005009450,新規,0,2023-01-12,2023-01-12,医療法人みろく会,,その他の設立登記法人,奈良県,奈良市,佐保台１丁目３５７１番地の２０８,,29,201,6308105,,,,,,,2023-01-12,1,,,,,ミロクカイ,0
214,1170001017439,新規,0,2023-01-12,2023-01-12,株式会社阿部工業,,株式会社,和歌山県,岩出市,中島６７５番地の２２,,30,209,6496245,,,,,,,2023-01-12,1,,,,,アベコウギョウ,0
223,1180001154470,新規,0,2023-01-12,2023-01-12,さくらエア株式会社,,株式会社,愛知県,あま市,森８丁目７番地８,,23,237,4901107,,,,,,,2023-01-12,1,,,,,サクラエア,0
224,1180001154479,新規,0,2023-01-12,2023-01-12,タイムレスジャパン株式会社,,株式会社,愛知県,名古屋市中村区,名駅４丁目２４番５号第２森ビル４０１,,23,105,4500002,,,,,,,2023-01-12,1,,,,,タイムレスジャパン,0
225,1180001154487,新規,0,2023-01-12,2023-01-12,株式会社ＫＴＬ,,株式会社,愛知県,名古屋市瑞穂区,八勝通１丁目７番地の３,,23,108,4670042,,,,,,,2023-01-12,1,,,,,ケーティーエル,0
226,1180001154504,新規,0,2023-01-12,2023-01-12,株式会社Ｓ．Ａ．Ｓ．ａｒｃｈｉ,,株式会社,愛知県,名古屋市千種区,春里町２丁目５番地の１０（ヒルズ春里１０２号）,,23,101,4640038,,,,,,,2023-01-12,1,,,,,エスエーエスアーキ,0
227,1180001154512,新規,0,2023-01-12,2023-01-12,株式会社Ａ．Ｉ．Ａ,,株式会社,愛知県,名古屋市中川区,中郷３丁目１４２番地,,23,110,4540921,,,,,,,2023-01-12,1,,,,,エーアイエー,0
232,1180003024705,新規,0,2023-01-12,2023-01-12,合同会社ＶＥＧＥ　ｔｉｇｅｒ,,合同会社,愛知県,名古屋市中区,新栄３丁目１４番２３号,,23,106,4600007,,,,,,,2023-01-12,1,,,,,ベジタイガー,0
233,1180301036971,新規,0,2023-01-12,2023-01-12,株式会社葵メダカ,,株式会社,愛知県,岡崎市,国正町字上川田２１番地,,23,202,4440214,,,,,,,2023-01-12,1,,,,,アオイメダカ,0
234,1180301037012,新規,0,2023-01-12,2023-01-12,株式会社セントラルモール,,株式会社,愛知県,田原市,赤石６丁目３８番地,,23,231,4413422,,,,,,,2023-01-12,1,,,,,セントラルモール,0
235,1180303005561,新規,0,2023-01-12,2023-01-12,合同会社ＦＬＴ,,合同会社,愛知県,豊田市,日南町４丁目１１１番地ＳＤＨＩＬＬＳ４０７号室,,23,211,4710032,,,,,,,2023-01-12,1,,,,,エフエルティー,0
237,1200001040866,新規,0,2023-01-12,2023-01-12,パインウェイブ株式会社,,株式会社,岐阜県,岐阜市,早苗町７丁目６番地,,21,201,5008324,,,,,,,2023-01-12,1,,,,,パインウェイブ,0
245,1220005008726,新規,0,2023-01-12,2023-01-12,農事組合法人大地と朋,,その他の設立登記法人,石川県,鹿島郡中能登町,能登部下１１２部４２番地,,17,407,9291604,,,,,,,2023-01-12,1,,,,,ダイチトトモ,0
247,1230003001954,新規,0,2023-01-12,2023-01-12,合同会社石田工務店,,合同会社,富山県,砺波市,高波４７７番地,,16,208,9391341,,,,,,,2023-01-12,1,,,,,イシダコウムテン,0
252,1240001060927,新規,0,2023-01-12,2023-01-12,Ｅ‐ＣＲＡＦＴ株式会社,,株式会社,広島県,福山市,引野町２丁目１４番９号,,34,207,7210942,,,,,,,2023-01-12,1,,,,,イークラフト,0
253,1240001060943,新規,0,2023-01-12,2023-01-12,株式会社９１１,,株式会社,広島県,広島市中区,中島町１０番１１－１９０４号,,34,101,7300811,,,,,,,2023-01-12,1,,,,,キューイチイチ,0
258,1240003005970,新規,0,2023-01-12,2023-01-12,合同会社原野,,合同会社,広島県,三原市,本郷南５丁目２番３８号コンフォートハイム１０５号,,34,204,7290417,,,,,,,2023-01-12,1,,,,,ハラノ,0
261,1250005008797,新規,0,2023-01-12,2023-01-12,社会保険労務士法人もり労務管理コンサルティング,,その他の設立登記法人,山口県,下関市,観音崎町１２番５号,,35,201,7500012,,,,,,,2023-01-12,1,,,,,モリロウムカンリコンサルティング,0
266,1270001008709,新規,0,2023-01-12,2023-01-12,株式会社ウエタ住建,,株式会社,鳥取県,鳥取市,伏野１３９番地１,,31,201,6890201,,,,,,,2023-01-12,1,,,,,ウエタジュウケン,0
271,1290001100182,新規,0,2023-01-12,2023-01-12,株式会社Ｃｏｎｆｉａｎｃｅ,,株式会社,福岡県,福岡市博多区,博多駅前４丁目３０番１７号グランドステータス清川ビル１階,,40,132,8120011,,,,,,,2023-01-12,1,,,,,コンフィアンス,0
274,1290003013390,新規,0,2023-01-12,2023-01-12,合同会社ａｉｒ,,合同会社,福岡県,福岡市博多区,博多駅前１丁目２３‐１パークフロント博多駅前１‐５Ｆ‐Ｂ,,40,132,8120011,,,,,,,2023-01-12,1,,,,,エアー,0
275,1290003013399,新規,0,2023-01-12,2023-01-12,合同会社杉山土質,,合同会社,福岡県,福津市,津屋崎１丁目１７番１９号,,40,224,8113304,,,,,,,2023-01-12,1,,,,,スギヤマドシツ,0
276,1290003013408,新規,0,2023-01-12,2023-01-12,合同会社絆,,合同会社,福岡県,久留米市,天神町１５２番地４第６富太屋ビル１Ｆ,,40,203,8300033,,,,,,,2023-01-12,1,,,,,キズナ,0
277,1290005018909,新規,0,2023-01-12,2023-01-12,一般社団法人ＣＯＮ,,その他の設立登記法人,福岡県,福岡市東区,下原１丁目２２番２７号,,40,131,8130002,,,,,,,2023-01-12,1,,,,,シーオーエヌ,0
280,1290803004300,新規,0,2023-01-12,2023-01-12,合同会社ファータ,,合同会社,福岡県,田川市,大字弓削田４７６番地,,40,206,8260041,,,,,,,2023-01-12,1,,,,,ファータ,0
281,1310001018224,新規,0,2023-01-12,2023-01-12,株式会社Ｌｐｉｎ,,株式会社,長崎県,佐世保市,今福町８番２０号,,42,202,8570061,,,,,,,2023-01-12,1,,,,,ラパン,0
285,1320001019510,新規,0,2023-01-12,2023-01-12,株式会社ｖｉｉｒ,,株式会社,大分県,大分市,東大道２丁目５番５０号,,44,201,8700823,,,,,,,2023-01-12,1,,,,,ヴィール,0
288,1320005010044,新規,0,2023-01-12,2023-01-12,一般社団法人Ａｎｇｅ‐ライフサポート,,その他の設立登記法人,大分県,別府市,大字北石垣７２０番地の８,,44,202,8740000,,,,,,,2023-01-12,1,,,,,アンジェライフサポート,0
289,1330001030482,新規,0,2023-01-12,2023-01-12,株式会社桜小路,,株式会社,熊本県,熊本市東区,画図町大字所島３９２番地１０,,43,102,8620946,,,,,,,2023-01-12,1,,,,,サクラコウジ,0
290,1330001030490,新規,0,2023-01-12,2023-01-12,彩幸園株式会社,,株式会社,熊本県,熊本市北区,植木町一木３２５番地５,,43,105,8610135,,,,,,,2023-01-12,1,,,,,サイコウエン,0
293,1350001018121,新規,0,2023-01-12,2023-01-12,株式会社飯田林業,,株式会社,宮崎県,小林市,野尻町三ケ野山４３５５番地１,,45,205,8860213,,,,,,,2023-01-12,1,,,,,イイダリンギョウ,0
295,1360001031404,新規,0,2023-01-12,2023-01-12,株式会社Ｄｅｃｅｎｔｌｙ,,株式会社,沖縄県,那覇市,牧志２丁目１７－２７,,47,201,9000013,,,,,,,2023-01-12,1,,,,,ディセントリー,0
298,1360005006773,新規,0,2023-01-12,2023-01-12,一般社団法人Ｚ２号,,その他の設立登記法人,沖縄県,那覇市,おもろまち２丁目１３番１４号,,47,201,9000006,,,,,,,2023-01-12,1,,,,,ゼットニゴウ,0
301,1370001049445,新規,0,2023-01-12,2023-01-12,ＹＤＳ左官工業株式会社,,株式会社,宮城県,仙台市若林区,かすみ町１５番１０－２号,,04,103,9840822,,,,,,,2023-01-12,1,,,,,ワイディエス,0
302,1370001049461,新規,0,2023-01-12,2023-01-12,株式会社ムラカベ,,株式会社,宮城県,仙台市若林区,沖野３丁目８番２８号プロヌーブ沖野Ｉ－２０２,00129031,04,103,9840831,,,,,,,2023-01-12,1,,,,,ムラカベ,0
305,1370003005941,新規,0,2023-01-12,2023-01-12,合同会社ＯＣＴＯ,,合同会社,宮城県,仙台市青葉区,宮町３丁目６番１３号ＭＩＫビル３０７,,04,101,9800004,,,,,,,2023-01-12,1,,,,,オクトー,0
307,1380003005362,新規,0,2023-01-12,2023-01-12,合同会社小口左官,,合同会社,福島県,須賀川市,和田字弥六内１３５－７７,,07,207,9620813,,,,,,,2023-01-12,1,,,,,オグチサカン,0
308,1380005012662,新規,0,2023-01-12,2023-01-12,特定非営利活動法人優志会,,その他の設立登記法人,福島県,会津若松市,白虎町１７６番地の６,,07,202,9650024,,,,,,,2023-01-12,1,,,,,ユウシカイ,0
311,1410001013371,新規,0,2023-01-12,2023-01-12,ＨＫＴホールディングス株式会社,,株式会社,秋田県,大仙市,花館字中台２６番地１,,05,212,0140001,,,,,,,2023-01-12,1,,,,,エイチケイティホールディングス,0
312,1410003003742,新規,0,2023-01-12,2023-01-12,Ｄ‐ＰＬＡＮ合同会社,,合同会社,秋田県,仙北市,西木町西明寺字荒町東９４番地,,05,215,0140511,,,,,,,2023-01-12,1,,,,,ディープラン,0
315,1420001018122,新規,0,2023-01-12,2023-01-12,八警サービス株式会社,,株式会社,青森県,八戸市,大字中居林字藤ケ森１１番地２藤ケ森ハウス１号室,,02,203,0310002,,,,,,,2023-01-12,1,,,,,ハチケイサービス,0
321,1430001088164,新規,0,2023-01-12,2023-01-12,株式会社サークル,,株式会社,北海道,札幌市清田区,美しが丘二条８丁目１番９－３１０号,,01,110,0040812,,,,,,,2023-01-12,1,,,,,サークル,0
322,1430001088172,新規,0,2023-01-12,2023-01-12,株式会社漁鶏,,株式会社,北海道,札幌市中央区,南三条西３丁目１番地１,,01,101,0600063,,,,,,,2023-01-12,1,,,,,イサリドリ,0
323,1430001088180,新規,0,2023-01-12,2023-01-12,株式会社セキショー,,株式会社,北海道,札幌市東区,北二十七条東２０丁目２番９号,,01,103,0650027,,,,,,,2023-01-12,1,,,,,セキショー,0
325,1430005014620,新規,0,2023-01-12,2023-01-12,税理士法人笹山石丸会計事務所,,その他の設立登記法人,北海道,札幌市白石区,平和通９丁目北１番２９号,,01,104,0030029,,,,,,,2023-01-12,1,,,,,ササヤマイシマルカイケイジムショ,0
330,1470001019421,新規,0,2023-01-12,2023-01-12,株式会社ＴＫＯＮ,,株式会社,香川県,高松市,古馬場町９番地２７ＴＣビルディング２階,,37,201,7600045,,,,,,,2023-01-12,1,,,,,タカオニ,0
332,1480001011971,新規,0,2023-01-12,2023-01-12,株式会社ＬＵ‐ＥＣＯＬＩＮＯ,,株式会社,徳島県,徳島市,八万町橋本１９３番地の３,,36,201,7708078,,,,,,,2023-01-12,1,,,,,ルーエコリノ,0
333,1490005006884,新規,0,2023-01-12,2023-01-12,医療法人広末歯科矯正,,その他の設立登記法人,高知県,高知市,杉井流１２番７号,,39,201,7800072,,,,,,,2023-01-12,1,,,,,ヒロスエシカキョウセイ,0
334,1700150113678,新規,0,2023-01-12,2023-01-12,ｚｈｉｇｕｋｅｊｉ　ｓｈｅｎｚｈｅｎ　ｙｏｕｘｉａｎｇｏｎｇｓｉ,,外国会社等,,,,,,,,ｌｏｎｇｈｕａｊｉｅｄａｎ　ｙｏｕｓｏｎｇｓｈｅｑｕ　ｌｉｊｉｎｃｈｅｎｇｇｏｎｇｙｅｙｕａｎ　３ｈａｏｃｈａｎｇｆａｎｇ４ｌｏｕ　ｌｏｎｇｈｕａｑｕ　ｇｕａｎｇｄｏｎｇｓｈｅｎｇ　ｓｈｅｎｚｈｅｎｓｈｉ，Ｃｈｉｎａ,,,,,,2023-01-12,1,,,,,チコクカギシンセンユウゲンコウシ,0
339,2010001232036,新規,0,2023-01-12,2023-01-12,日本維生生物工学株式会社,,株式会社,東京都,千代田区,六番町１５番２号,,13,101,1020085,,,,,,,2023-01-12,1,,,,,ニホンイオセイブツコウガク,0
340,2010001232085,新規,0,2023-01-12,2023-01-12,株式会社スパークル,,株式会社,東京都,中央区,銀座８丁目１５番１０号銀座ダイヤビル１１０３号,,13,102,1040061,,,,,,,2023-01-12,1,,,,,スパークル,0
341,2010001232102,新規,0,2023-01-12,2023-01-12,株式会社ｃｉｃａｄａ,,株式会社,東京都,中央区,銀座１丁目１２番４号Ｎ＆ＥＢＬＤ．６Ｆ,,13,102,1040061,,,,,,,2023-01-12,1,,,,,シカーダ,0
342,2010001232127,新規,0,2023-01-12,2023-01-12,株式会社ＳＮＤ不動産,,株式会社,東京都,千代田区,麹町３丁目５－４麹町インテリジェントビル８階,,13,101,1020083,,,,,,,2023-01-12,1,,,,,エスエヌディフドウサン,0
343,2010001232143,新規,0,2023-01-12,2023-01-12,株式会社ＰＲＩＮＥＳＳ,,株式会社,東京都,千代田区,大手町１丁目６番１号大手町ビル１階,,13,101,1000004,,,,,,,2023-01-12,1,,,,,プリネス,0
344,2010001232151,新規,0,2023-01-12,2023-01-12,株式会社ＬＥ　ＬＩＥＮ,,株式会社,東京都,中央区,銀座１丁目２２番１１号銀座大竹ビジデンス２階,,13,102,1040061,,,,,,,2023-01-12,1,,,,,ルリアン,0
346,2010003039487,新規,0,2023-01-12,2023-01-12,リードテック合同会社,,合同会社,東京都,中央区,銀座１丁目１２番４号Ｎ＆ＥＢＬＤ．６Ｆ,,13,102,1040061,,,,,,,2023-01-12,1,,,,,リードテック,0
347,2010003039495,新規,0,2023-01-12,2023-01-12,ベスト・ソーラー合同会社,,合同会社,東京都,千代田区,丸の内３丁目１番１号東京共同会計事務所内,,13,101,1000005,,,,,,,2023-01-12,1,,,,,ベストソーラー,0
348,2010003039529,新規,0,2023-01-12,2023-01-12,合同会社ＫＫ　ＣＯＮＮＥＣＴ,,合同会社,東京都,中央区,銀座１丁目２２－１１,,13,102,1040061,,,,,,,2023-01-12,1,,,,,ケーケーコネクト,0
349,2010003039537,新規,0,2023-01-12,2023-01-12,Ｓ３ｕｐＣｏｍｐａｎｙ合同会社,,合同会社,東京都,千代田区,神田和泉町一丁目６番１６号ヤマトビル４０５,,13,101,1010024,,,,,,,2023-01-12,1,,,,,エスサンアップカンパニー,0
381,2010501049855,新規,0,2023-01-12,2023-01-12,株式会社ＣＲＯＳＳ,,株式会社,東京都,台東区,柳橋１丁目３０番２号５０１号室,,13,106,1110052,,,,,,,2023-01-12,1,,,,,クロス,0
382,2010501049863,新規,0,2023-01-12,2023-01-12,株式会社オウンライト,,株式会社,東京都,台東区,浅草橋１丁目１７番２号,,13,106,1110053,,,,,,,2023-01-12,1,,,,,オウンライト,0
386,2010701043708,新規,0,2023-01-12,2023-01-12,株式会社エヌシーワイ,,株式会社,東京都,品川区,東大井５丁目６番１０号,,13,109,1400011,,,,,,,2023-01-12,1,,,,,エヌシーワイ,0
391,2010901052302,新規,0,2023-01-12,2023-01-12,株式会社ＨＡＣＨＩＤＯ,,株式会社,東京都,世田谷区,下馬５丁目３４番２６－２０１号,,13,112,1540002,,,,,,,2023-01-12,1,,,,,ハチド,0
393,2010903007898,新規,0,2023-01-12,2023-01-12,合同会社ＸＯＮＥ,,合同会社,東京都,世田谷区,池尻３丁目３０番２号中央ビル４０５,,13,112,1540001,,,,,,,2023-01-12,1,,,,,ゾーン,0
402,2011001151837,新規,0,2023-01-12,2023-01-12,株式会社Ｏｈａｎａ　ｇｒｏｕｐ,,株式会社,東京都,渋谷区,東３丁目１３番１１号Ａ－ＰＬＡＣＥ恵比寿東５階,,13,113,1500011,,,,,,,2023-01-12,1,,,,,オハナグループ,0
403,2011001151878,新規,0,2023-01-12,2023-01-12,ＡＰＰＲＥＣＩＡＴＥ株式会社,,株式会社,東京都,目黒区,目黒本町３丁目６番１２号山田ビル１階,,13,110,1520002,,,,,,,2023-01-12,1,,,,,アプリーシエイト,0
405,2011003016055,新規,0,2023-01-12,2023-01-12,合同会社ｐｒｅｃｉｏｕｓ１,,合同会社,東京都,渋谷区,幡ヶ谷３丁目８０番１２－８０４号,,13,113,1510072,,,,,,,2023-01-12,1,,,,,プレシャスワン,0
406,2011003016063,新規,0,2023-01-12,2023-01-12,合同会社アンタンデュ,,合同会社,東京都,渋谷区,恵比寿西１丁目１０番１４号バルビゾン８８九階,,13,113,1500021,,,,,,,2023-01-12,1,,,,,アンタンデュ,0
409,2011101101403,新規,0,2023-01-12,2023-01-12,株式会社リージョナルライト,,株式会社,東京都,新宿区,西新宿３丁目３番１３号西新宿水間ビル２Ｆ,,13,104,1600023,,,,,,,2023-01-12,1,,,,,リージョナルライト,0
410,2011101101444,新規,0,2023-01-12,2023-01-12,ウッディ・アンド・カンパニー株式会社,,株式会社,東京都,新宿区,西新宿１丁目２６番２号新宿野村ビル３２階,,13,104,1600023,,,,,,,2023-01-12,1,,,,,ウッディアンドカンパニー,0
411,2011101101493,新規,0,2023-01-12,2023-01-12,株式会社ユーツーテック,,株式会社,東京都,新宿区,西新宿３丁目３番１３号西新宿水間ビル６階,,13,104,1600023,,,,,,,2023-01-12,1,,,,,ユーツーテック,0
419,2011201024330,新規,0,2023-01-12,2023-01-12,ビーズニーズ株式会社,,株式会社,東京都,中野区,中野５丁目２２番３号セボン中野１１３,,13,114,1640001,,,,,,,2023-01-12,1,,,,,ビーズニーズ,0
420,2011201024339,新規,0,2023-01-12,2023-01-12,唐瀛インベストメント株式会社,,株式会社,東京都,中野区,弥生町３丁目２０番４号,,13,114,1640013,,,,,,,2023-01-12,1,,,,,トウエイインベストメント,0
422,2011301028371,新規,0,2023-01-12,2023-01-12,株式会社企業コンプライアンス相談センター,,株式会社,東京都,杉並区,西荻北１丁目１２－３,,13,115,1670042,,,,,,,2023-01-12,1,,,,,キギョウコンプライアンスソウダンセンター,0
423,2011403003875,新規,0,2023-01-12,2023-01-12,ＤＥＶＩＮＥ　ＥＮＴＥＲＰＲＩＳＥ合同会社,,合同会社,東京都,板橋区,板橋３丁目２７番４－４０１号室第一三浦ビル,,13,119,1730004,,,,,,,2023-01-12,1,,,,,ディバインエンタープライズ,0
425,2011501028808,新規,0,2023-01-12,2023-01-12,ＨＡＢ株式会社,,株式会社,東京都,荒川区,東日暮里５丁目２１番３－藤喜ビル２０２号室,,13,118,1160014,,,,,,,2023-01-12,1,,,,,エイチエイビイ,0
430,2011601026488,新規,0,2023-01-12,2023-01-12,株式会社ＥＶＥ,,株式会社,東京都,練馬区,羽沢１丁目１番１０号,,13,120,1760003,,,,,,,2023-01-12,1,,,,,イヴ,0
431,2011601026496,新規,0,2023-01-12,2023-01-12,株式会社ボニデ,,株式会社,東京都,練馬区,中村北２丁目１０番６号,,13,120,1760023,,,,,,,2023-01-12,1,,,,,ボニデ,0
434,2011701025943,新規,0,2023-01-12,2023-01-12,株式会社エムアールティー,,株式会社,東京都,江戸川区,篠崎町４丁目２４番１５号,,13,123,1330061,,,,,,,2023-01-12,1,,,,,エムアールティー,0
436,2011703003360,新規,0,2023-01-12,2023-01-12,ａ＆ｈ合同会社,,合同会社,東京都,江戸川区,西葛西８丁目４番１３－５０３号,,13,123,1340088,,,,,,,2023-01-12,1,,,,,エーアンドエイチ,0
440,2012401040068,新規,0,2023-01-12,2023-01-12,株式会社ＧＮジャパン,,株式会社,東京都,武蔵野市,吉祥寺東町２丁目７番１０号,,13,203,1800002,,,,,,,2023-01-12,1,,,,,ジーエヌジャパン,0
443,2012403005762,新規,0,2023-01-12,2023-01-12,ｍｂｒａｃｅ合同会社,,合同会社,東京都,調布市,若葉町２丁目１０番地４６,,13,208,1820003,,,,,,,2023-01-12,1,,,,,エンブレース,0
446,2012703002617,新規,0,2023-01-12,2023-01-12,未病医学合同会社,,合同会社,東京都,小平市,喜平町１丁目９番２５－１号,,13,211,1870044,,,,,,,2023-01-12,1,,,,,ミビョウイガク,0
450,2013301050157,新規,0,2023-01-12,2023-01-12,ミライトジム株式会社,,株式会社,東京都,豊島区,東池袋１丁目４２－１４,,13,116,1700013,,,,,,,2023-01-12,1,,,,,ミライトジム,0
458,2020001149741,新規,0,2023-01-12,2023-01-12,株式会社Ａｓｓｉｓｔ,,株式会社,神奈川県,横浜市港北区,新羽町２６１５番地１パストラルポート２０８,,14,109,2230057,,,,,,,2023-01-12,1,,,,,アシスト,0
460,2020003023077,新規,0,2023-01-12,2023-01-12,Ｆｉｘ５０５合同会社,,合同会社,神奈川県,横浜市西区,浅間町１丁目４番地３ウィザードビル４０２,,14,103,2200072,,,,,,,2023-01-12,1,,,,,フィックスゴーマルゴ,0
465,2021001077899,新規,0,2023-01-12,2023-01-12,株式会社湘洋産業,,株式会社,神奈川県,平塚市,横内４２３２番地の８,,14,203,2540002,,,,,,,2023-01-12,1,,,,,ショウヨウサンギョウ,0
471,2030001151804,新規,0,2023-01-12,2023-01-12,株式会社ＮＲＹ,,株式会社,埼玉県,草加市,吉町５丁目９番１６号,,11,221,3400017,,,,,,,2023-01-12,1,,,,,エヌアールワイ,0
472,2030001151829,新規,0,2023-01-12,2023-01-12,不動産ＡＣＡＤＥＭＩＡ株式会社,,株式会社,埼玉県,所沢市,くすのき台３丁目１１番地の３,,11,208,3590037,,,,,,,2023-01-12,1,,,,,フドウサンアカデミア,0
473,2030001151845,新規,0,2023-01-12,2023-01-12,株式会社大谷興業,,株式会社,埼玉県,川越市,大字藤間１１２４番地２,,11,201,3501142,,,,,,,2023-01-12,1,,,,,オオタニコウギョウ,0
474,2030001151861,新規,0,2023-01-12,2023-01-12,株式会社オフィスＫｓａｍｕｒａｉ,,株式会社,埼玉県,さいたま市浦和区,北浦和１丁目２番７－９０３号,,11,107,3300074,,,,,,,2023-01-12,1,,,,,オフィスケイサムライ,0
475,2030001151886,新規,0,2023-01-12,2023-01-12,株式会社みさわ,,株式会社,埼玉県,さいたま市見沼区,大字南中丸４７番地１グランノワール１０２,,11,104,3370041,,,,,,,2023-01-12,1,,,,,ミサワ,0
476,2030001151894,新規,0,2023-01-12,2023-01-12,株式会社エムエイチ,,株式会社,埼玉県,川越市,小仙波町２丁目３２番地１３,,11,201,3500036,,,,,,,2023-01-12,1,,,,,エムエイチ,0
479,2030003020899,新規,0,2023-01-12,2023-01-12,合同会社ＴＯＫＡＲＥＸ,,合同会社,埼玉県,所沢市,三ケ島１丁目８１９番地の２,,11,208,3591164,,,,,,,2023-01-12,1,,,,,トカレックス,0
480,2030003020916,新規,0,2023-01-12,2023-01-12,合同会社金椿,,合同会社,埼玉県,所沢市,大字山口２４番地の１フォレストヒル２０７,,11,208,3591145,,,,,,,2023-01-12,1,,,,,カナグイ,0
483,2040001126433,新規,0,2023-01-12,2023-01-12,株式会社Ｂ‐Ｐｒｏｊｅｃｔ,,株式会社,千葉県,市川市,鬼高１丁目８番３－５０１号,,12,203,2720015,,,,,,,2023-01-12,1,,,,,ビープロジェクト,0
484,2040001126565,新規,0,2023-01-12,2023-01-12,株式会社Ｍ‐ＴＥＣＨ,,株式会社,千葉県,佐倉市,中志津２丁目２２番１７号,,12,212,2850843,,,,,,,2023-01-12,1,,,,,エムテック,0
485,2040001126573,新規,0,2023-01-12,2023-01-12,ＬＡＦＴＡ株式会社,,株式会社,千葉県,松戸市,北松戸１丁目６番２号１Ｆ,,12,207,2710063,,,,,,,2023-01-12,1,,,,,ラフタ,0
486,2040001126623,新規,0,2023-01-12,2023-01-12,株式会社ＡｉｒＳｔｙｌｅ,,株式会社,千葉県,千葉市若葉区,加曽利町８４１－１,,12,104,2640017,,,,,,,2023-01-12,1,,,,,エアースタイル,0
488,2040005021861,新規,0,2023-01-12,2023-01-12,社会保険労務士法人アクア事務所,,その他の設立登記法人,千葉県,木更津市,請西１１８７番地９,,12,206,2920801,,,,,,,2023-01-12,1,,,,,アクアジムショ,0
492,2070001039995,新規,0,2023-01-12,2023-01-12,荒川自動車株式会社,,株式会社,群馬県,みどり市,笠懸町鹿１９番地１,,10,212,3792313,,,,,,,2023-01-12,1,,,,,アラカワジドウシャ,0
493,2070001040004,新規,0,2023-01-12,2023-01-12,株式会社草津温泉麦酒,,株式会社,群馬県,吾妻郡草津町,大字草津３２３番地１,,10,426,3771711,,,,,,,2023-01-12,1,,,,,クサツオンセンバクシュ,0
494,2070001040012,新規,0,2023-01-12,2023-01-12,コタマファクトリー株式会社,,株式会社,群馬県,高崎市,本町１１７番地３,,10,202,3700813,,,,,,,2023-01-12,1,,,,,コタマファクトリー,0
495,2070003004782,新規,0,2023-01-12,2023-01-12,合同会社ＫＳＫ,,合同会社,群馬県,高崎市,江木町１１３１番地１,,10,202,3700046,,,,,,,2023-01-12,1,,,,,ケーエスケー,0
500,2100001036031,新規,0,2023-01-12,2023-01-12,株式会社ｃｏｌｏｒ,,株式会社,長野県,松本市,大字笹賀５５０７番地１,,20,202,3990033,,,,,,,2023-01-12,1,,,,,カラー,0
502,2110001037243,新規,0,2023-01-12,2023-01-12,株式会社エフパートナー,,株式会社,新潟県,新潟市中央区,西堀通４番町８１６番地１０、１１０６号,,15,103,9518061,,,,,,,2023-01-12,1,,,,,エフパートナー,0
516,2120001251421,新規,0,2023-01-12,2023-01-12,ＦＲＥＥＤＯＭ株式会社,,株式会社,大阪府,大阪市浪速区,大国２丁目５番３－４０５号,,27,111,5560014,,,,,,,2023-01-12,1,,,,,フリーダム,0
517,2120001251628,新規,0,2023-01-12,2023-01-12,株式会社Ｖｅｌｄ,,株式会社,大阪府,枚方市,氷室台１丁目１２番６号,,27,210,5730115,,,,,,,2023-01-12,1,,,,,ヴェルド,0
518,2120001251669,新規,0,2023-01-12,2023-01-12,道賜株式会社,,株式会社,大阪府,大阪市淀川区,西宮原２丁目６番１６号新大阪コーポビアネーズ２１７号室,,27,123,5320004,,,,,,,2023-01-12,1,,,,,ドウシ,0
519,2120001251702,新規,0,2023-01-12,2023-01-12,株式会社リビットフォトグラフィック,,株式会社,大阪府,大阪市住之江区,新北島５丁目２番５９－６０５号,,27,125,5590024,,,,,,,2023-01-12,1,,,,,リビットフォトグラフィック,0
523,2120101066785,新規,0,2023-01-12,2023-01-12,株式会社ＭＦＤ,,株式会社,大阪府,藤井寺市,小山新町５番４号,,27,226,5830031,,,,,,,2023-01-12,1,,,,,エムエフディ,0
524,2120101066793,新規,0,2023-01-12,2023-01-12,株式会社ａｔａｍａｓｕ,,株式会社,大阪府,岸和田市,戎町６番２２号,,27,202,5960022,,,,,,,2023-01-12,1,,,,,アタマス,0
525,2120101066802,新規,0,2023-01-12,2023-01-12,ＭＭＤ株式会社,,株式会社,大阪府,堺市北区,百舌鳥梅町１丁６５１番地８,,27,146,5918032,,,,,,,2023-01-12,1,,,,,エムエムディー,0
527,2120103005007,新規,0,2023-01-12,2023-01-12,合同会社マシーン工房Ｍ２,,合同会社,大阪府,南河内郡河南町,鈴美台３丁目４番３号,,27,382,5850026,,,,,,,2023-01-12,1,,,,,マシーンコウボウエムツー,0
528,2120103005023,新規,0,2023-01-12,2023-01-12,合同会社Ａｎｇｅ,,合同会社,大阪府,貝塚市,東１１４番地１,,27,208,5970085,,,,,,,2023-01-12,1,,,,,アンジュ,0
530,2120901046961,新規,0,2023-01-12,2023-01-12,Ｋ２ｃｏｎｎｅｃｔｅｄ株式会社,,株式会社,大阪府,高槻市,津之江北町３２番１８号,,27,207,5690821,,,,,,,2023-01-12,1,,,,,ケイツーコネクティッド,0
532,2122001036579,新規,0,2023-01-12,2023-01-12,株式会社ＡＲＫ・ＲＯＷ,,株式会社,大阪府,八尾市,竹渕東３丁目９４番地,,27,212,5810053,,,,,,,2023-01-12,1,,,,,アークロウ,0
539,2130001073435,新規,0,2023-01-12,2023-01-12,株式会社ｃｒｅａｄ,,株式会社,京都府,京都市下京区,玉津島町２９４－４Ｆ,,26,106,6008427,,,,,,,2023-01-12,1,,,,,クリード,0
547,2140001128667,新規,0,2023-01-12,2023-01-12,株式会社ｂｙ　ＨＡＲＵ,,株式会社,兵庫県,神戸市東灘区,本庄町１丁目１６－１４－２０４,,28,101,6580012,,,,,,,2023-01-12,1,,,,,バイハル,0
549,2140003018577,新規,0,2023-01-12,2023-01-12,Ｒ‐Ｒｅｆｉｎｉｎｇ合同会社,,合同会社,兵庫県,神戸市中央区,琴ノ緒町２丁目７－６アニメイト神戸５０５,,28,110,6510094,,,,,,,2023-01-12,1,,,,,アールリファイン,0
550,2140005026446,新規,0,2023-01-12,2023-01-12,一般社団法人Ａｉｎａ,,その他の設立登記法人,兵庫県,神戸市中央区,旗塚通７丁目１番１３号,,28,110,6510068,,,,,,,2023-01-12,1,,,,,アイナ,0
551,2150001026077,新規,0,2023-01-12,2023-01-12,株式会社アシスト,,株式会社,奈良県,大和高田市,昭和町３番５４号,,29,202,6350013,,,,,,,2023-01-12,1,,,,,アシスト,0
554,2160001024757,新規,0,2023-01-12,2023-01-12,株式会社夢心,,株式会社,滋賀県,湖南市,石部西１丁目１０－２７,,25,211,5203105,,,,,,,2023-01-12,1,,,,,ユメシン,0
558,2170001017438,新規,0,2023-01-12,2023-01-12,良栄水産株式会社,,株式会社,和歌山県,東牟婁郡串本町,大島１７９４番地３６,,30,428,6493633,,,,,,,2023-01-12,1,,,,,リョウエイスイサン,0
564,2180001154478,新規,0,2023-01-12,2023-01-12,株式会社ＭＥＣＡＤＯＣ,,株式会社,愛知県,知多市,新知字池添８５番地２,,23,224,4780017,,,,,,,2023-01-12,1,,,,,メカドック,0
565,2180001154486,新規,0,2023-01-12,2023-01-12,株式会社ＥＬＥＡＤ,,株式会社,愛知県,尾張旭市,東印場町３丁目９番地１４,,23,226,4880830,,,,,,,2023-01-12,1,,,,,エリード,0
566,2180001154544,新規,0,2023-01-12,2023-01-12,ハルカフィッシング株式会社,,株式会社,愛知県,名古屋市港区,小碓２丁目７７番地,,23,111,4550801,,,,,,,2023-01-12,1,,,,,ハルカフィッシング,0
567,2180001154569,新規,0,2023-01-12,2023-01-12,株式会社ＥＭＩ,,株式会社,愛知県,名古屋市中川区,長須賀２丁目９０６番地,,23,110,4540994,,,,,,,2023-01-12,1,,,,,イーエムアイ,0
568,2180003024695,新規,0,2023-01-12,2023-01-12,合同会社ａｃｅ,,合同会社,愛知県,名古屋市中村区,並木２丁目２４７番地の１,,23,105,4530856,,,,,,,2023-01-12,1,,,,,エース,0
569,2180003024704,新規,0,2023-01-12,2023-01-12,インスペクト合同会社,,合同会社,愛知県,瀬戸市,東権現町５４番地の１３４,,23,204,4890883,,,,,,,2023-01-12,1,,,,,インスペクト,0
570,2180301036987,新規,0,2023-01-12,2023-01-12,株式会社サミットインターナショナル,,株式会社,愛知県,豊橋市,西浜町２６番地９,,23,201,4410156,,,,,,,2023-01-12,1,,,,,サミットインターナショナル,0
571,2180303005560,新規,0,2023-01-12,2023-01-12,合同会社コハナスタッド,,合同会社,愛知県,刈谷市,御幸町１丁目２０７番地シティライフ刈谷３０２号室,,23,210,4480821,,,,,,,2023-01-12,1,,,,,コハナスタッド,0
572,2190001030083,新規,0,2023-01-12,2023-01-12,株式会社セイワ,,株式会社,三重県,松阪市,久保町１０５５番地２３コーポ和院１Ｆ,,24,204,5150044,,,,,,,2023-01-12,1,,,,,セイワ,0
573,2200001040857,新規,0,2023-01-12,2023-01-12,株式会社タンサイボウズ,,株式会社,岐阜県,多治見市,生田町６丁目１５９番地,,21,204,5070807,,,,,,,2023-01-12,1,,,,,タンサイボウズ,0
574,2200001040865,新規,0,2023-01-12,2023-01-12,Ｇ３５商業開発株式会社,,株式会社,岐阜県,岐阜市,徹明通２丁目１８番地,,21,201,5008879,,,,,,,2023-01-12,1,,,,,ジーサンジュウゴショウギョウカイハツ,0
579,2220001025220,新規,0,2023-01-12,2023-01-12,株式会社黒吉六,,株式会社,石川県,加賀市,田尻町浜山２番地６４,,17,206,9220552,,,,,,,2023-01-12,1,,,,,クロキチロク,0
580,2220001025229,新規,0,2023-01-12,2023-01-12,株式会社プルースト,,株式会社,石川県,金沢市,保古１丁目９３番地,,17,201,9218052,,,,,,,2023-01-12,1,,,,,プルースト,0
583,2230001019667,新規,0,2023-01-12,2023-01-12,株式会社ＮＩＣＯ,,株式会社,富山県,高岡市,木津２５１４番地,,16,202,9330857,,,,,,,2023-01-12,1,,,,,ニコ,0
591,2240001002077,新規,0,2023-01-12,2023-01-12,関西電機株式会社,,株式会社,広島県,広島市安佐南区,緑井６丁目１４番９号,,34,105,7310103,,,,,,,2023-01-12,1,,,,,カンサイデンキ,0
594,2240001060934,新規,0,2023-01-12,2023-01-12,株式会社アトモニ,,株式会社,広島県,広島市中区,東千田一丁目１番６１号ｈｉｔｏｔｏ広島ナレッジスクエア１Ｆいいオフィス広島,,34,101,7300000,,,,,,,2023-01-12,1,,,,,アトモニ,0
595,2240001060942,新規,0,2023-01-12,2023-01-12,株式会社ヴァリエステート,,株式会社,広島県,東広島市,西条下見５丁目１０番９号,,34,212,7390047,,,,,,,2023-01-12,1,,,,,ヴァリエステート,0
609,2260003004152,新規,0,2023-01-12,2023-01-12,ＰＳ‐ＰＬＡＮＮＩＮＧ合同会社,,合同会社,岡山県,岡山市北区,横井上１２４４番地２８,,33,101,7011145,,,,,,,2023-01-12,1,,,,,ピーエスプランニング,0
615,2290001100140,新規,0,2023-01-12,2023-01-12,株式会社三島商店,,株式会社,福岡県,糸島市,前原中央３丁目１９番４０号,,40,230,8191116,,,,,,,2023-01-12,1,,,,,ミシマショウテン,0
616,2290001100165,新規,0,2023-01-12,2023-01-12,フリーダムジャパン株式会社,,株式会社,福岡県,福岡市中央区,大濠２丁目１３番２８号ライオンズマンション大濠３０１号,,40,133,8100052,,,,,,,2023-01-12,1,,,,,フリーダムジャパン,0
617,2290001100173,新規,0,2023-01-12,2023-01-12,株式会社みやび総建,,株式会社,福岡県,柳川市,三橋町下百町１番地１３荒巻ビル２０２,,40,207,8320822,,,,,,,2023-01-12,1,,,,,ミヤビソウケン,0
618,2290001100181,新規,0,2023-01-12,2023-01-12,株式会社Ｇｅｎｅｒａｔｉｏｎ,,株式会社,福岡県,福岡市西区,愛宕１丁目１７番１３－７０１号,,40,135,8190015,,,,,,,2023-01-12,1,,,,,ジェネレーション,0
619,2290001100198,新規,0,2023-01-12,2023-01-12,株式会社ビーブリッジグローバル,,株式会社,福岡県,福岡市西区,西都１丁目７番２１アンビシャス・ＩＩＩ６０１号,00129023,40,135,8190367,,,,,,,2023-01-12,1,,,,,ビーブリッジグローバル,0
620,2290001100223,新規,0,2023-01-12,2023-01-12,株式会社ＴＲＵＮＫ　Ｐｒｏｊｅｃｔ,,株式会社,福岡県,筑後市,大字志４０９番地７,,40,211,8330017,,,,,,,2023-01-12,1,,,,,トランクプロジェクト,0
623,2290003013381,新規,0,2023-01-12,2023-01-12,合同会社ふくや,,合同会社,福岡県,三潴郡大木町,大字横溝１２５番地３,,40,522,8300405,,,,,,,2023-01-12,1,,,,,フクヤ,0
624,2290003013398,新規,0,2023-01-12,2023-01-12,合同会社スマイルシード,,合同会社,福岡県,春日市,春日原東町３丁目５４,,40,218,8160801,,,,,,,2023-01-12,1,,,,,スマイルシード,0
625,2290003013407,新規,0,2023-01-12,2023-01-12,合同会社カジのベジ,,合同会社,福岡県,久留米市,京町２８２番地４,,40,203,8300028,,,,,,,2023-01-12,1,,,,,カジノベジ,0
646,2330001030457,新規,0,2023-01-12,2023-01-12,株式会社山虎,,株式会社,熊本県,球磨郡多良木町,大字黒肥地１４８６番地１,,43,505,8680502,,,,,,,2023-01-12,1,,,,,ヤマトラ,0
647,2330001030481,新規,0,2023-01-12,2023-01-12,株式会社Ｎｅｘｚｏｎ,,株式会社,熊本県,熊本市東区,画図町大字下無田１４８３番地１,,43,102,8620945,,,,,,,2023-01-12,1,,,,,ネクゾン,0
649,2330003009672,新規,0,2023-01-12,2023-01-12,古田憲拡合同会社,,合同会社,熊本県,菊池市,泗水町吉富２０５番地８５,,43,210,8611201,,,,,,,2023-01-12,1,,,,,フルタノリヒロ,0
650,2340001025290,新規,0,2023-01-12,2023-01-12,株式会社屋久杉工房ヤマダ,,株式会社,鹿児島県,熊毛郡屋久島町,船行１０４６番地１２０,,46,505,8914312,,,,,,,2023-01-12,1,,,,,ヤクスギコウボウヤマダ,0
654,2350003004259,新規,0,2023-01-12,2023-01-12,合同会社はなえみ,,合同会社,宮崎県,東諸県郡綾町,大字南俣５９５番地５,,45,383,8801303,,,,,,,2023-01-12,1,,,,,ハナエミ,0
655,2360001031403,新規,0,2023-01-12,2023-01-12,株式会社ＴｅｂｉＣｏ,,株式会社,沖縄県,浦添市,宮城４丁目９番９号,,47,208,9012126,,,,,,,2023-01-12,1,,,,,テビコ,0
656,2370001049469,新規,0,2023-01-12,2023-01-12,株式会社ＹＲ,,株式会社,宮城県,仙台市宮城野区,仙台港北２丁目４番地の１,,04,102,9830007,,,,,,,2023-01-12,1,,,,,ワイアール,0
659,2380001033389,新規,0,2023-01-12,2023-01-12,株式会社サンエス工業,,株式会社,福島県,福島市,南沢又字上野原９番地の１,,07,201,9608254,,,,,,,2023-01-12,1,,,,,サンエスコウギョウ,0
661,2380003005361,新規,0,2023-01-12,2023-01-12,合同会社ＨｉＬａｎｄＣＩ,,合同会社,福島県,会津若松市,河東町八田字桜石２５番,,07,202,9693451,,,,,,,2023-01-12,1,,,,,ハイランドシーアイー,0
662,2400005008293,新規,0,2023-01-12,2023-01-12,一般社団法人奥州オリジン,,その他の設立登記法人,岩手県,奥州市,水沢中上野町７番１１号,,03,215,0230857,,,,,,,2023-01-12,1,,,,,,0
664,2420001018121,新規,0,2023-01-12,2023-01-12,株式会社レジステック,,株式会社,青森県,青森市,松森１丁目１５番５号,,02,201,0300965,,,,,,,2023-01-12,1,,,,,レジステック,0
666,2430001088188,新規,0,2023-01-12,2023-01-12,株式会社ｃｏｍ,,株式会社,北海道,札幌市白石区,本通１丁目南３番２８号,,01,104,0030026,,,,,,,2023-01-12,1,,,,,コム,0
668,2430003014605,新規,0,2023-01-12,2023-01-12,合同会社マネージメント,,合同会社,北海道,札幌市中央区,南十二条西１５丁目１－２６,,01,101,0640912,,,,,,,2023-01-12,1,,,,,マネージメント,0
669,2430003014613,新規,0,2023-01-12,2023-01-12,合同会社アイレベル,,合同会社,北海道,札幌市北区,北二十七条西７丁目３―７―５,,01,102,0010027,,,,,,,2023-01-12,1,,,,,アイレベル,0
670,2430003014646,新規,0,2023-01-12,2023-01-12,合同会社ＦＵＮＮＹ運送,,合同会社,北海道,札幌市中央区,南四条西４丁目４番地ＬＣ１５番館３階,,01,101,0640804,,,,,,,2023-01-12,1,,,,,ファニーウンソウ,0
677,2470003002333,新規,0,2023-01-12,2023-01-12,セイフティサービス合同会社,,合同会社,香川県,坂出市,中央町８番１４０－３０４号サーパス中央町,,37,203,7620056,,,,,,,2023-01-12,1,,,,,セイフティサービス,0
679,2480001011970,新規,0,2023-01-12,2023-01-12,株式会社シンゲン,,株式会社,徳島県,徳島市,応神町西貞方字鷹ノ橋８２番地の２,,36,201,7711155,,,,,,,2023-01-12,1,,,,,,0
681,2490001010377,新規,0,2023-01-12,2023-01-12,株式会社ダンクベルク,,株式会社,高知県,高知市,宝町３６番１６号,,39,201,7800914,,,,,,,2023-01-12,1,,,,,ダンクベルク,0
682,2500001024714,新規,0,2023-01-12,2023-01-12,株式会社エルドラドワールド,,株式会社,愛媛県,松山市,西長戸町２５０番地６,,38,201,7918017,,,,,,,2023-01-12,1,,,,,エルドラドワールド,0
685,2500005008556,新規,0,2023-01-12,2023-01-12,特定非営利活動法人子どもリエゾンえひめ,,その他の設立登記法人,愛媛県,松山市,平和通２丁目１番２号２０１,,38,201,7900807,,,,,,,2023-01-12,1,,,,,コドモリエゾンエヒメ,0
686,2700150113677,新規,0,2023-01-12,2023-01-12,ｓｈｅｎｚｈｅｎｓｈｉ　ｄｉｔａｉｅｒ　ｋｅｊｉｙｏｕｘｉａｎｇｏｎｇｓｉ,,外国会社等,,,,,,,,ｂａｏａｎｑｕｈａｎｇｃｈｅｎｇｊｉｅｄａｏ　ｈｕａｎｇｔｉａｎｓｈｅｑｕｄｏｎｇｗａｎｇｙａｎｇｇｏｎｇｙｅｑｕ５ｈａｏｃｈａｎｇｆａｎｇ３ｄｏｎｇ４０１　Ｓｈｅｎｚｈｅｎ　ｓｈｉ　Ｇｕａｎｇｄｏｎｇ　ｓｈｅｎｇ，Ｃｈｉｎａ,,,,,,2023-01-12,1,,,,,シンセンシテキタイジカギユウゲンコウシ,0
694,3010001232068,新規,0,2023-01-12,2023-01-12,株式会社Ｈａｕｏｌｉ,,株式会社,東京都,中央区,築地２丁目１番２‐１０１０号,,13,102,1040045,,,,,,,2023-01-12,1,,,,,ハウオリ,0
695,3010001232118,新規,0,2023-01-12,2023-01-12,双日ロイヤルカフェ株式会社,,株式会社,東京都,千代田区,内幸町２丁目１番１号,,13,101,1000011,,,,,,,2023-01-12,1,,,,,ソウジツロイヤルカフェ,0
698,3010003039494,新規,0,2023-01-12,2023-01-12,合同会社ＭＡＲＫ０１,,合同会社,東京都,千代田区,丸の内３丁目１番１号東京共同会計事務所内,,13,101,1000005,,,,,,,2023-01-12,1,,,,,マークゼロワン,0
699,3010005036093,新規,0,2023-01-12,2023-01-12,弁護士法人Ｂ＆Ｐ法律事務所,,その他の設立登記法人,東京都,千代田区,平河町１丁目６－４,,13,101,1020093,,,,,,,2023-01-12,1,,,,,ビーアンドピーホウリツジムショ,0
700,3010005036102,新規,0,2023-01-12,2023-01-12,司法書士法人リージェンツ,,その他の設立登記法人,東京都,千代田区,神田三崎町３丁目６番２号原島三崎町ビル２階,,13,101,1010061,,,,,,,2023-01-12,1,,,,,リージェンツ,0
721,3010401171782,新規,0,2023-01-12,2023-01-12,株式会社セントラルベース,,株式会社,東京都,港区,芝５丁目３６番４号札の辻スクエア９Ｆ,,13,103,1080014,,,,,,,2023-01-12,1,,,,,セントラルベース,0
734,3010501049838,新規,0,2023-01-12,2023-01-12,逸品ジャパン株式会社,,株式会社,東京都,台東区,上野３丁目３番８号,,13,106,1100005,,,,,,,2023-01-12,1,,,,,イッピンジャパン,0
736,3010503006845,新規,0,2023-01-12,2023-01-12,ＢＲＩＧＨＴ　ＣＨＩ合同会社,,合同会社,東京都,台東区,上野４丁目７番８号アメ横センタービル１Ｆ－３５,,13,106,1100005,,,,,,,2023-01-12,1,,,,,ブライトチー,0
738,3010805002996,新規,0,2023-01-12,2023-01-12,一般社団法人日本キリスト者共同体,,その他の設立登記法人,東京都,大田区,南久が原２丁目１６番１９号,,13,111,1460084,,,,,,,2023-01-12,1,,,,,ニホンキリストシャキョウドウタイ,0
752,3011001151836,新規,0,2023-01-12,2023-01-12,株式会社スマートビット,,株式会社,東京都,渋谷区,道玄坂１丁目１０番８号渋谷道玄坂東急ビル２Ｆ－Ｃ,,13,113,1500043,,,,,,,2023-01-12,1,,,,,スマートビット,0
753,3011001151869,新規,0,2023-01-12,2023-01-12,株式会社トップス,,株式会社,東京都,渋谷区,東３丁目８番２２号伊藤ビル１Ｆ,,13,113,1500011,,,,,,,2023-01-12,1,,,,,トップス,0
754,3011001151877,新規,0,2023-01-12,2023-01-12,株式会社ＲＥＣＥＳＳ,,株式会社,東京都,渋谷区,宇田川町１番１２号パークコート渋谷ザタワー３７０８,,13,113,1500042,,,,,,,2023-01-12,1,,,,,リセス,0
755,3011001151919,新規,0,2023-01-12,2023-01-12,株式会社Ｂｌｏｏｍ,,株式会社,東京都,渋谷区,桜丘町９番１７号ＡＮＤＦＩＲＳＴＢＬＤＧ．,,13,113,1500031,,,,,,,2023-01-12,1,,,,,ブルーム,0
756,3011001151951,新規,0,2023-01-12,2023-01-12,株式会社ＷＯＲＫＩＮＧ　ＦＯＯＤＩＥ,,株式会社,東京都,目黒区,青葉台３丁目１９番１１号８８．ＡＯＢＡＤＡＩ１階,,13,110,1530042,,,,,,,2023-01-12,1,,,,,ワーキングフーディー,0
757,3011003016070,新規,0,2023-01-12,2023-01-12,合同会社イージーナイン,,合同会社,東京都,渋谷区,道玄坂１丁目１０番８号渋谷道玄坂東急ビル２Ｆ－Ｃ,,13,113,1500043,,,,,,,2023-01-12,1,,,,,イージーナイン,0
768,3011101101419,新規,0,2023-01-12,2023-01-12,ＮＥＸＴＲＯＮ　ＪＡＰＡＮ株式会社,,株式会社,東京都,新宿区,四谷４丁目３０,,13,104,1600004,,,,,,,2023-01-12,1,,,,,ネクストロンジャパン,0
769,3011101101427,新規,0,2023-01-12,2023-01-12,株式会社ユーテラス,,株式会社,東京都,新宿区,高田馬場１丁目２８番３号工新ビル７０３,,13,104,1690075,,,,,,,2023-01-12,1,,,,,ユーテラス,0
774,3011301028370,新規,0,2023-01-12,2023-01-12,株式会社Ｈｏｒｉｚｏｎ　Ｚｅｒｏ,,株式会社,東京都,杉並区,清水１丁目３６番３号,,13,115,1670033,,,,,,,2023-01-12,1,,,,,ホライズンゼロ,0
775,3011403003874,新規,0,2023-01-12,2023-01-12,ケイジェイアシスト合同会社,,合同会社,東京都,板橋区,板橋１丁目９番７号ジュール板橋４０１号室,,13,119,1730004,,,,,,,2023-01-12,1,,,,,ケイジェイアシスト,0
781,3011601026487,新規,0,2023-01-12,2023-01-12,株式会社Ｖｉｃｔｏｒｙ＆ｃｏｎｎｅｃｔ,,株式会社,東京都,練馬区,東大泉１丁目３０番１３号,,13,120,1780063,,,,,,,2023-01-12,1,,,,,ビクトリーアンドコネクト,0
782,3011601026495,新規,0,2023-01-12,2023-01-12,株式会社Ｖｉｌｌコンサルタンツ,,株式会社,東京都,練馬区,練馬１丁目２０番８号日建練馬ビル２階,,13,120,1760001,,,,,,,2023-01-12,1,,,,,ヴィルコンサルタンツ,0
784,3011603003798,新規,0,2023-01-12,2023-01-12,ムカサ合同会社,,合同会社,東京都,練馬区,三原台１丁目２３番１２号,,13,120,1770031,,,,,,,2023-01-12,1,,,,,ムカサ,0
785,3011701025942,新規,0,2023-01-12,2023-01-12,株式会社虎建,,株式会社,東京都,江戸川区,松江２丁目１９番４号,,13,123,1320025,,,,,,,2023-01-12,1,,,,,トラケン,0
789,3012401040059,新規,0,2023-01-12,2023-01-12,Ｓｏｎｇ　ｆｏｒ　Ｌｉｌｙ株式会社,,株式会社,東京都,調布市,深大寺東町７丁目１６番地３,,13,208,1820012,,,,,,,2023-01-12,1,,,,,ソングフォーリリー,0
790,3012401040067,新規,0,2023-01-12,2023-01-12,ｃｏｌｌａｂ株式会社,,株式会社,東京都,三鷹市,下連雀７丁目１３－９－７０８,,13,204,1810013,,,,,,,2023-01-12,1,,,,,コラボ,0
798,3020001149658,新規,0,2023-01-12,2023-01-12,株式会社Ｓ‐Ｂｒｉｎｇ,,株式会社,神奈川県,川崎市中原区,上小田中６丁目１１－５ディアレイシャス武蔵中原４０１,,14,133,2110053,,,,,,,2023-01-12,1,,,,,エスブリング,0
799,3020001149749,新規,0,2023-01-12,2023-01-12,株式会社イケダ不動産,,株式会社,神奈川県,川崎市高津区,下野毛１丁目７番２５号,,14,134,2130006,,,,,,,2023-01-12,1,,,,,イケダフドウサン,0
800,3020001149757,新規,0,2023-01-12,2023-01-12,Ｕｎｉｑｏｓ株式会社,,株式会社,神奈川県,川崎市幸区,新小倉２番２－１３１５号,,14,132,2120031,,,,,,,2023-01-12,1,,,,,ユニコス,0
801,3020001149765,新規,0,2023-01-12,2023-01-12,株式会社ＣＯＹＥＬＬ,,株式会社,神奈川県,横浜市瀬谷区,五貫目町１０番地１マークスプリングス・メゾンＢ５３４号,,14,114,2460008,,,,,,,2023-01-12,1,,,,,コエル,0
802,3020001149773,新規,0,2023-01-12,2023-01-12,株式会社Ｒｅｇｌｅｅ,,株式会社,神奈川県,横浜市鶴見区,鶴見中央５丁目３番２号,,14,101,2300051,,,,,,,2023-01-12,1,,,,,リグリー,0
807,3021001077907,新規,0,2023-01-12,2023-01-12,株式会社Ｓｔｏｎｋｌｌｙ,,株式会社,神奈川県,茅ヶ崎市,浜竹１丁目１１番２８号,,14,207,2530021,,,,,,,2023-01-12,1,,,,,ストンクリー,0
808,3021003012589,新規,0,2023-01-12,2023-01-12,合同会社エルエス,,合同会社,神奈川県,小田原市,中町１丁目１番２－１００３号小田原セントラルハイツ,,14,206,2500005,,,,,,,2023-01-12,1,,,,,エルエス,0
813,3030001151811,新規,0,2023-01-12,2023-01-12,株式会社りん,,株式会社,埼玉県,越谷市,蒲生茜町２番１３号ピュアコーポイノウエ１階,,11,222,3430843,,,,,,,2023-01-12,1,,,,,リン,0
814,3030001151852,新規,0,2023-01-12,2023-01-12,株式会社Ｍａｋｅｆｒｏｍ１,,株式会社,埼玉県,さいたま市中央区,鈴谷８丁目６番２２号,,11,105,3380013,,,,,,,2023-01-12,1,,,,,メイクフロムワン,0
815,3030001151860,新規,0,2023-01-12,2023-01-12,株式会社ＨＡＳＨＩＲＵ,,株式会社,埼玉県,さいたま市浦和区,本太２丁目１１番１１号Ｃｏｒｎｅｒ・Ｇｒａｉｎ・Ｇ号室,,11,107,3300052,,,,,,,2023-01-12,1,,,,,ハシル,0
816,3030001151869,新規,0,2023-01-12,2023-01-12,株式会社ナヤ・グロー,,株式会社,埼玉県,さいたま市中央区,新中里４丁目１４番１８号,,11,105,3380011,,,,,,,2023-01-12,1,,,,,ナヤグロー,0
817,3030001151877,新規,0,2023-01-12,2023-01-12,株式会社スペーススタッフ,,株式会社,埼玉県,川口市,柳崎１丁目２１番１号,,11,203,3330861,,,,,,,2023-01-12,1,,,,,スペーススタッフ,0
818,3030001151885,新規,0,2023-01-12,2023-01-12,ｃａｒｅｌｉｎｋ株式会社,,株式会社,埼玉県,朝霞市,岡２丁目８－８４,,11,227,3510007,,,,,,,2023-01-12,1,,,,,ケアリンク,0
819,3030001151910,新規,0,2023-01-12,2023-01-12,ＪＭＫ工業株式会社,,株式会社,埼玉県,上尾市,春日１丁目１番５－３０３号,,11,219,3620074,,,,,,,2023-01-12,1,,,,,ジェイエムケーコウギョウ,0
823,3030003020923,新規,0,2023-01-12,2023-01-12,合同会社Ｃｅｒｂｅｒｅ,,合同会社,埼玉県,さいたま市大宮区,天沼町１丁目６２１番地９１－２０３号室,,11,103,3300834,,,,,,,2023-01-12,1,,,,,セルベール,0
824,3030003020931,新規,0,2023-01-12,2023-01-12,サニーファクトリー合同会社,,合同会社,埼玉県,吉川市,大字高久７８３番地,,11,243,3420035,,,,,,,2023-01-12,1,,,,,サニーファクトリー,0
827,3030005021102,新規,0,2023-01-12,2023-01-12,一般社団法人臨床心理職能開発機構,,その他の設立登記法人,埼玉県,さいたま市南区,南浦和２丁目２７番１２号アビアント３Ｆ,,11,108,3360017,,,,,,,2023-01-12,1,,,,,リンショウシンリショクノウカイハツキコウ,0
828,3030005021110,新規,0,2023-01-12,2023-01-12,一般社団法人会計事務所採用研究会,,その他の設立登記法人,埼玉県,さいたま市大宮区,桜木町２丁目３番地大宮マルイ７階,,11,103,3300854,,,,,,,2023-01-12,1,,,,,カイケイジムショサイヨウケンキュウカイ,0
831,3040001126564,新規,0,2023-01-12,2023-01-12,株式会社Ｍ．Ｋ．プランニング,,株式会社,千葉県,市川市,北方町４丁目１９４８番地４２,,12,203,2720811,,,,,,,2023-01-12,1,,,,,エムケープランニング,0
832,3040001126589,新規,0,2023-01-12,2023-01-12,株式会社小川運送,,株式会社,千葉県,富津市,海良７８番地の４,,12,226,2991616,,,,,,,2023-01-12,1,,,,,オガワウンソウ,0
833,3040001126597,新規,0,2023-01-12,2023-01-12,株式会社フィールドＭ,,株式会社,千葉県,千葉市若葉区,若松町２３１８番地１８,,12,104,2640021,,,,,,,2023-01-12,1,,,,,フィールドエム,0
834,3040001126606,新規,0,2023-01-12,2023-01-12,株式会社スタート,,株式会社,千葉県,千葉市若葉区,北谷津町３００－７－１,,12,104,2650067,,,,,,,2023-01-12,1,,,,,スタート,0
837,3040003021598,新規,0,2023-01-12,2023-01-12,合同会社８８３,,合同会社,千葉県,市川市,国分３丁目８－６,,12,203,2720834,,,,,,,2023-01-12,1,,,,,パパサン,0
838,3040003021664,新規,0,2023-01-12,2023-01-12,海音合同会社,,合同会社,千葉県,山武市,蓮沼ハの４９３１番地１,,12,237,2891806,,,,,,,2023-01-12,1,,,,,カイト,0
839,3040005021860,新規,0,2023-01-12,2023-01-12,社会保険労務士法人アクア事務所ｔ,,その他の設立登記法人,千葉県,木更津市,請西１１８７番地９,,12,206,2920801,,,,,,,2023-01-12,1,,,,,アクアジムショティー,0
840,3050001052207,新規,0,2023-01-12,2023-01-12,伊勢山技建株式会社,,株式会社,茨城県,石岡市,東成井９１１番地,,08,205,3150122,,,,,,,2023-01-12,1,,,,,イセヤマギケン,0
841,3060001035598,新規,0,2023-01-12,2023-01-12,株式会社ｌｉｎｋ．,,株式会社,栃木県,大田原市,富池８３７番地２,,09,210,3240004,,,,,,,2023-01-12,1,,,,,リンク,0
843,3070001040011,新規,0,2023-01-12,2023-01-12,アイアール住まいる株式会社,,株式会社,群馬県,前橋市,川原町１丁目３０番地１,,10,201,3710046,,,,,,,2023-01-12,1,,,,,アイアールスマイル,0
847,3080103002718,新規,0,2023-01-12,2023-01-12,合同会社ａｓｈ,,合同会社,静岡県,沼津市,下香貫汐入２１６７－１カレラ１０６,,22,203,4100822,,,,,,,2023-01-12,1,,,,,アッシュ,0
850,3110001037242,新規,0,2023-01-12,2023-01-12,株式会社高田内藤,,株式会社,新潟県,上越市,南本町３丁目３番１１号,,15,222,9430841,,,,,,,2023-01-12,1,,,,,タカダナイトウ,0
851,3110003004959,新規,0,2023-01-12,2023-01-12,Ｔ’ｓサポート合同会社,,合同会社,新潟県,南蒲原郡田上町,大字吉田新田丁２５８番地５３,,15,361,9591511,,,,,,,2023-01-12,1,,,,,ティーズサポート,0
861,3120001251420,新規,0,2023-01-12,2023-01-12,キリンホームズ株式会社,,株式会社,大阪府,大阪市北区,本庄東２丁目２番２４－２０１,,27,127,5310074,,,,,,,2023-01-12,1,,,,,キリンホームズ,0
862,3120001251635,新規,0,2023-01-12,2023-01-12,株式会社梛木工業,,株式会社,大阪府,大阪市大正区,小林東３丁目１８番２０号,,27,108,5510011,,,,,,,2023-01-12,1,,,,,ナギコウギョウ,0
863,3120001251651,新規,0,2023-01-12,2023-01-12,株式会社ｃｏｎｎｅｃｔｉｏｎ,,株式会社,大阪府,大阪市住之江区,西加賀屋２丁目６番１１号,,27,125,5590016,,,,,,,2023-01-12,1,,,,,コネクション,0
864,3120001251668,新規,0,2023-01-12,2023-01-12,日金株式会社,,株式会社,大阪府,大阪市淀川区,西中島５丁目７番１７号ビジネスヴィップ第２新大阪３０３号室,,27,123,5320011,,,,,,,2023-01-12,1,,,,,ニッキン,0
870,3120003023198,新規,0,2023-01-12,2023-01-12,合同会社コーチングスタッフ,,合同会社,大阪府,大阪市阿倍野区,阪南町４丁目１番２７号,,27,119,5450021,,,,,,,2023-01-12,1,,,,,コーチングスタッフ,0
872,3120101066801,新規,0,2023-01-12,2023-01-12,安室塗装工業株式会社,,株式会社,大阪府,和泉市,府中町７丁目１番９号２Ｃ,,27,219,5940071,,,,,,,2023-01-12,1,,,,,ヤスムロトソウコウギョウ,0
873,3120101066818,新規,0,2023-01-12,2023-01-12,方中株式会社,,株式会社,大阪府,堺市堺区,錦綾町１丁２番６号,,27,141,5900006,,,,,,,2023-01-12,1,,,,,ホウチュウ,0
875,3120901046969,新規,0,2023-01-12,2023-01-12,株式会社アモルホールディングス,,株式会社,大阪府,箕面市,船場西３丁目１番１０号,,27,220,5620036,,,,,,,2023-01-12,1,,,,,アモルホールディングス,0
877,3120903004454,新規,0,2023-01-12,2023-01-12,フェニックスリース合同会社,,合同会社,大阪府,箕面市,森町中３丁目７番２３号,,27,220,5630257,,,,,,,2023-01-12,1,,,,,フェニックスリース,0
883,3130003008421,新規,0,2023-01-12,2023-01-12,合同会社アルカス,,合同会社,京都府,舞鶴市,字喜多３９３番地５,,26,202,6240945,,,,,,,2023-01-12,1,,,,,アルカス,0
891,3140001128633,新規,0,2023-01-12,2023-01-12,株式会社シムクリエイト,,株式会社,兵庫県,明石市,松の内２丁目４－１０ユタカ第１ビル６階,,28,203,6730016,,,,,,,2023-01-12,1,,,,,シムクリエイト,0
892,3140001128641,新規,0,2023-01-12,2023-01-12,株式会社三輪設備,,株式会社,兵庫県,加古川市,野口町北野１２１４－１２,,28,210,6750011,,,,,,,2023-01-12,1,,,,,,0
893,3140001128666,新規,0,2023-01-12,2023-01-12,株式会社オフィストチオ,,株式会社,兵庫県,尼崎市,猪名寺１丁目２５番１０号,,28,202,6610981,,,,,,,2023-01-12,1,,,,,オフィストチオ,0
894,3140001128716,新規,0,2023-01-12,2023-01-12,株式会社ＫＹＯＴＥＣ,,株式会社,兵庫県,神戸市長田区,大橋町８丁目５番１５号,,28,106,6530037,,,,,,,2023-01-12,1,,,,,キョウテック,0
897,3140003018568,新規,0,2023-01-12,2023-01-12,合同会社Ｉｎｆｉｎｉｔｙ,,合同会社,兵庫県,神戸市北区,大沢町上大沢２９１２,,28,109,6511522,,,,,,,2023-01-12,1,,,,,インフィニティ,0
898,3140003018576,新規,0,2023-01-12,2023-01-12,ＳＡＲＡｎａｔｕｒａｌ合同会社,,合同会社,兵庫県,神戸市灘区,福住通８丁目１－２－７０３,,28,102,6570824,,,,,,,2023-01-12,1,,,,,サラナチュラル,0
899,3140003018584,新規,0,2023-01-12,2023-01-12,合同会社ＦＡＳＴ　ＲＥＴＡＩＬ,,合同会社,兵庫県,神戸市須磨区,東町１丁目３－４－１,,28,107,6540033,,,,,,,2023-01-12,1,,,,,ファストリテイル,0
900,3150001026076,新規,0,2023-01-12,2023-01-12,ＨＡＷ　ＮＡＮ　ＪＡＰＡＮ　ＳＥＲＶＩＣＥＳ株式会社,,株式会社,奈良県,生駒市,山崎町５番７－４０６号,,29,209,6300252,,,,,,,2023-01-12,1,,,,,ホーナンジャパンサービス,0
903,3160003002776,新規,0,2023-01-12,2023-01-12,合同会社ＧＲＡＢ,,合同会社,滋賀県,米原市,宇賀野６３番地１０,,25,214,5210062,,,,,,,2023-01-12,1,,,,,グラブ,0
908,3180001154469,新規,0,2023-01-12,2023-01-12,ＯＫＲ‐Ｗａｌｋｉｎｇ株式会社,,株式会社,愛知県,名古屋市天白区,平針１丁目１７０１番地アルビオコート天白Ｂ棟,,23,116,4680011,,,,,,,2023-01-12,1,,,,,オーケーアールウォーキング,0
909,3180001154485,新規,0,2023-01-12,2023-01-12,ホームリアルティ株式会社,,株式会社,愛知県,名古屋市中村区,椿町１３－１６サン・オフィス名駅新幹線口５１０号,,23,105,4530015,,,,,,,2023-01-12,1,,,,,ホームリアルティ,0
910,3180001154493,新規,0,2023-01-12,2023-01-12,株式会社Ｊａｇａｔ,,株式会社,愛知県,名古屋市中村区,名駅南３丁目１２番３５号山中ハイツ３Ａ号,,23,105,4500003,,,,,,,2023-01-12,1,,,,,ジャガット,0
912,3180003024711,新規,0,2023-01-12,2023-01-12,ＭＦ合同会社,,合同会社,愛知県,名古屋市中区,正木２丁目１３番２号イトーピア正木公園マンション３０２号,,23,106,4600024,,,,,,,2023-01-12,1,,,,,エムエフ,0
913,3180301036978,新規,0,2023-01-12,2023-01-12,ハート株式会社,,株式会社,愛知県,岡崎市,康生町３４１番地５,,23,202,4440052,,,,,,,2023-01-12,1,,,,,ハート,0
917,3190001030074,新規,0,2023-01-12,2023-01-12,株式会社ディーベース,,株式会社,三重県,四日市市,西山町７７４１番地６,,24,202,5121103,,,,,,,2023-01-12,1,,,,,ディーベース,0
919,3200001040864,新規,0,2023-01-12,2023-01-12,Ｍａｄｅ　ｉｔ．株式会社,,株式会社,岐阜県,岐阜市,矢島町１丁目６０番地,,21,201,5008082,,,,,,,2023-01-12,1,,,,,メイドイット,0
921,3210001019206,新規,0,2023-01-12,2023-01-12,株式会社オフィスウェイク,,株式会社,福井県,福井市,花堂中１丁目３番３１号,,18,201,9188014,,,,,,,2023-01-12,1,,,,,オフィスウェイク,0
926,3230001019674,新規,0,2023-01-12,2023-01-12,銘澤株式会社,,株式会社,富山県,富山市,水橋狐塚７９番地３０,,16,201,9390534,,,,,,,2023-01-12,1,,,,,メイザワ,0
936,3240001060891,新規,0,2023-01-12,2023-01-12,株式会社佐々木機工,,株式会社,広島県,廿日市市,大野中央１丁目１２番２２－１４号,,34,213,7390437,,,,,,,2023-01-12,1,,,,,ササキキコウ,0
937,3240001060941,新規,0,2023-01-12,2023-01-12,株式会社古谷組,,株式会社,広島県,広島市佐伯区,杉並台９番地１４,,34,108,7380514,,,,,,,2023-01-12,1,,,,,フルタニグミ,0
942,3250001019904,新規,0,2023-01-12,2023-01-12,ＤＳ　ＳＫＹ　ＷＯＲＫＳ株式会社,,株式会社,山口県,光市,大字小周防字地坂６７６番１,,35,210,7430061,,,,,,,2023-01-12,1,,,,,ディーエススカイワークス,0
948,3270005005535,新規,0,2023-01-12,2023-01-12,一般社団法人鳥取スポーツコミュニケーション,,その他の設立登記法人,鳥取県,米子市,新開６丁目１番３５号,,31,202,6830801,,,,,,,2023-01-12,1,,,,,トットリスポーツコミュニケーション,0
956,3290001100189,新規,0,2023-01-12,2023-01-12,光明電設株式会社,,株式会社,福岡県,福岡市城南区,七隈７丁目１６－３０－２Ｆ,,40,136,8140133,,,,,,,2023-01-12,1,,,,,コウメイデンセツ,0
957,3290001100197,新規,0,2023-01-12,2023-01-12,株式会社ＫＯＭ,,株式会社,福岡県,福岡市東区,多の津５丁目４８番３号,,40,131,8130034,,,,,,,2023-01-12,1,,,,,ケイオーエム,0
958,3290001100214,新規,0,2023-01-12,2023-01-12,福岡国際外語学院株式会社,,株式会社,福岡県,福岡市博多区,千代１丁目３０番２１号,,40,132,8120044,,,,,,,2023-01-12,1,,,,,フクオカコクサイガイゴガクイン,0
963,3290003013380,新規,0,2023-01-12,2023-01-12,合同会社しめじ,,合同会社,福岡県,福岡市博多区,博多駅前１丁目２３番１号ＰａｒｋＦｒｏｎｔ博多駅前一丁目５Ｆ－Ｂ,,40,132,8120011,,,,,,,2023-01-12,1,,,,,シメジ,0
964,3290003013406,新規,0,2023-01-12,2023-01-12,合同会社Ｓｐａｃｅｌｙ,,合同会社,福岡県,福岡市東区,香椎照葉７丁目５番３照葉ザ・タワー５０６号,,40,131,8130017,,,,,,,2023-01-12,1,,,,,スペースリー,0
965,3290801029215,新規,0,2023-01-12,2023-01-12,株式会社有働塗装,,株式会社,福岡県,北九州市八幡西区,香月西２丁目１１番１０号,,40,109,8071103,,,,,,,2023-01-12,1,,,,,ウドウトソウ,0
971,3320001019517,新規,0,2023-01-12,2023-01-12,株式会社柏村,,株式会社,大分県,大分市,大道町４丁目３－４５,,44,201,8700822,,,,,,,2023-01-12,1,,,,,カシワムラ,0
972,3320005010042,新規,0,2023-01-12,2023-01-12,医療法人新徳寺,,その他の設立登記法人,大分県,佐伯市,宇目大字小野市２８８４番地３,,44,205,8793301,,,,,,,2023-01-12,1,,,,,シントクジ,0
973,3330001030489,新規,0,2023-01-12,2023-01-12,株式会社ＥＬＳＯＬ．,,株式会社,熊本県,熊本市西区,上熊本１丁目２番３５号,,43,103,8600079,,,,,,,2023-01-12,1,,,,,エルソル,0
979,3360001031385,新規,0,2023-01-12,2023-01-12,株式会社オキジモ,,株式会社,沖縄県,島尻郡南風原町,字宮平８９４－１１,,47,350,9011104,,,,,,,2023-01-12,1,,,,,オキジモ,0
980,3360001031402,新規,0,2023-01-12,2023-01-12,株式会社つなぐビジョン,,株式会社,沖縄県,豊見城市,字豊崎１－１１７９Ｆステージ豊崎リバーフロント１００６号,,47,212,9010225,,,,,,,2023-01-12,1,,,,,ツナグビジョン,0
981,3360001031410,新規,0,2023-01-12,2023-01-12,株式会社ＳＭＫ,,株式会社,沖縄県,石垣市,字登野城６５３番地５フローラ黒嶋３０１,,47,207,9070004,,,,,,,2023-01-12,1,,,,,エスエムケイ,0
982,3360001031435,新規,0,2023-01-12,2023-01-12,株式会社想のパートナー,,株式会社,沖縄県,那覇市,壺屋２丁目６番２２号,,47,201,9020065,,,,,,,2023-01-12,1,,,,,ウムイノパートナー,0
984,3370001049443,新規,0,2023-01-12,2023-01-12,株式会社サトミキルン,,株式会社,宮城県,仙台市青葉区,台原６丁目１３番５号,,04,101,9810911,,,,,,,2023-01-12,1,,,,,サトミキルン,0
988,3380001033363,新規,0,2023-01-12,2023-01-12,株式会社ＭａＧＢ,,株式会社,福島県,双葉郡大熊町,大字下野上字清水２５２番地１,,07,545,9791308,,,,,,,2023-01-12,1,,,,,,0
989,3380001033388,新規,0,2023-01-12,2023-01-12,三裕株式会社,,株式会社,福島県,いわき市,内郷高坂町大町６７番地ネモトハイツ１０２,,07,204,9738408,,,,,,,2023-01-12,1,,,,,サンユウ,0
990,3380001033396,新規,0,2023-01-12,2023-01-12,株式会社エムカンパニー,,株式会社,福島県,郡山市,菜根５丁目４番１１号,,07,203,9638862,,,,,,,2023-01-12,1,,,,,エムカンパニー,0
991,3380003005360,新規,0,2023-01-12,2023-01-12,合同会社ＭＯＭＥＮＴ,,合同会社,福島県,郡山市,桑野３丁目１９―１６ヒルズ２１桑野１０１号,,07,203,9638025,,,,,,,2023-01-12,1,,,,,モーメント,0
997,3430001088170,新規,0,2023-01-12,2023-01-12,株式会社ウォルペ,,株式会社,北海道,札幌市北区,新琴似十二条４丁目１番２０号,,01,102,0010912,,,,,,,2023-01-12,1,,,,,ウォルペ,0
1000,3430003014612,新規,0,2023-01-12,2023-01-12,Ｔ．Ｍファーム合同会社,,合同会社,北海道,浦河郡浦河町,字上向別６６番地,,01,607,0570027,,,,,,,2023-01-12,1,,,,,ティーエムファーム,0
1001,3430003014629,新規,0,2023-01-12,2023-01-12,合同会社ネコメンレーシング,,合同会社,北海道,札幌市東区,北三十六条東１丁目７番６号,,01,103,0070836,,,,,,,2023-01-12,1,,,,,ネコメンレーシング,0
1008,3500001024713,新規,0,2023-01-12,2023-01-12,株式会社エルドラド,,株式会社,愛媛県,松山市,西長戸町２５０番地６,,38,201,7918017,,,,,,,2023-01-12,1,,,,,エルドラド,0
1022,4010001232133,新規,0,2023-01-12,2023-01-12,ルーカスホールディングス株式会社,,株式会社,東京都,千代田区,九段北１丁目１３番９号,,13,101,1020073,,,,,,,2023-01-12,1,,,,,ルーカスホールディングス,0
1023,4010001232141,新規,0,2023-01-12,2023-01-12,株式会社ＣＯＲＥ　ＣＯＮＮＥＣＴ,,株式会社,東京都,中央区,銀座１丁目２２番１１号銀座大竹ビジデンス２Ｆ,,13,102,1040061,,,,,,,2023-01-12,1,,,,,コアコネクト,0
1024,4010003039527,新規,0,2023-01-12,2023-01-12,ＯＣＴＯ　ＤＥＳＩＧＮ合同会社,,合同会社,東京都,中央区,日本橋大伝馬町１２－１７月村マンションＮＯ．３０－３０２,,13,102,1030011,,,,,,,2023-01-12,1,,,,,オクトデザイン,0
1025,4010003039543,新規,0,2023-01-12,2023-01-12,ＵＳＪ合同会社,,合同会社,東京都,千代田区,紀尾井町３番１０号紀尾井町ガーデンタワー２５０４号（Ｃ／Ｏｓｈｉｍａｄａ－ｏｆｆｉｃｅ）,,13,101,1020094,,,,,,,2023-01-12,1,,,,,ユーエスジェイ,0
1026,4010005036101,新規,0,2023-01-12,2023-01-12,一般社団法人障がい者就労研究所,,その他の設立登記法人,東京都,中央区,月島１丁目８番１－６０４号,,13,102,1040052,,,,,,,2023-01-12,1,,,,,ショウガイシャシュウロウケンキュウジョ,0
1027,4010101015479,新規,0,2023-01-12,2023-01-12,株式会社健美舎プラス,,株式会社,東京都,八王子市,館町１５３８番地５,,13,201,1930944,,,,,,,2023-01-12,1,,,,,ケンビシャプラス,0
1029,4010103002054,新規,0,2023-01-12,2023-01-12,合同会社ディフューザー,,合同会社,東京都,八王子市,新町９番１８－４０７号,,13,201,1920065,,,,,,,2023-01-12,1,,,,,ディフューザー,0
1060,4010503006844,新規,0,2023-01-12,2023-01-12,光ビジネス合同会社,,合同会社,東京都,台東区,東上野６丁目７番２号萬栄ビル３階,,13,106,1100015,,,,,,,2023-01-12,1,,,,,ヒカリビジネス,0
1063,4010601062418,新規,0,2023-01-12,2023-01-12,株式会社トナリア,,株式会社,東京都,江東区,東陽３丁目２８番９号,,13,108,1350016,,,,,,,2023-01-12,1,,,,,トナリア,0
1070,4010901052250,新規,0,2023-01-12,2023-01-12,株式会社ボンドヤード,,株式会社,東京都,世田谷区,上祖師谷５丁目３番２５号,,13,112,1570065,,,,,,,2023-01-12,1,,,,,ボンドヤード,0
1071,4010901052300,新規,0,2023-01-12,2023-01-12,株式会社ＳＡＲＡＶＡ,,株式会社,東京都,世田谷区,三宿２丁目１１番１７－２１５号,,13,112,1540005,,,,,,,2023-01-12,1,,,,,サラバ,0
1072,4010901052325,新規,0,2023-01-12,2023-01-12,天の翼株式会社,,株式会社,東京都,世田谷区,松原５丁目１５番１０号,,13,112,1560043,,,,,,,2023-01-12,1,,,,,アマノツバサ,0
1076,4011001151892,新規,0,2023-01-12,2023-01-12,株式会社Ｍｉｔｉａｒｙ,,株式会社,東京都,渋谷区,神宮前５丁目１５番２号ルクレ神宮前４０１,,13,113,1500001,,,,,,,2023-01-12,1,,,,,ミティアリー,0
1077,4011001151926,新規,0,2023-01-12,2023-01-12,先導日本研究開発センター株式会社,,株式会社,東京都,渋谷区,恵比寿南３丁目１番１号,,13,113,1500022,,,,,,,2023-01-12,1,,,,,センドウニホンケンキュウカイハツセンター,0
1078,4011001151959,新規,0,2023-01-12,2023-01-12,ＣＯＣＯＮＯ　Ｎａｔｕｒａｌ株式会社,,株式会社,東京都,渋谷区,広尾５丁目２４番３－９０１号,,13,113,1500012,,,,,,,2023-01-12,1,,,,,ココノナチュラル,0
1080,4011003016045,新規,0,2023-01-12,2023-01-12,合同会社ＲｅｎＱ,,合同会社,東京都,渋谷区,初台２丁目１７番１６号生源寺ハウス１階,,13,113,1510061,,,,,,,2023-01-12,1,,,,,リンク,0
1081,4011003016053,新規,0,2023-01-12,2023-01-12,合同会社ＣｒｙＭａｔｅｓ,,合同会社,東京都,渋谷区,道玄坂１丁目１０番８号渋谷道玄坂東急ビル２Ｆ―Ｃ,,13,113,1500043,,,,,,,2023-01-12,1,,,,,クライメイツ,0
1082,4011101101392,新規,0,2023-01-12,2023-01-12,ボンド丸山インターナショナル株式会社,,株式会社,東京都,新宿区,西新宿１丁目２６番２号新宿野村ビル３２階,,13,104,1600023,,,,,,,2023-01-12,1,,,,,ボンドマルヤマインターナショナル,0
1083,4011101101442,新規,0,2023-01-12,2023-01-12,ＭＢ　ＩＴ　ＰＡＲＫ株式会社,,株式会社,東京都,新宿区,百人町２丁目２１番１－２０２号,,13,104,1690073,,,,,,,2023-01-12,1,,,,,エムビーアイティーパーク,0
1086,4011201024329,新規,0,2023-01-12,2023-01-12,株式会社鋭金,,株式会社,東京都,中野区,鷺宮２丁目１６番６号コーポ鷺宮１－２０６,,13,114,1650032,,,,,,,2023-01-12,1,,,,,,0
1088,4011401024830,新規,0,2023-01-12,2023-01-12,株式会社タイヨウ美装,,株式会社,東京都,板橋区,前野町５丁目３３番５号ＳＫヒルズＩ１０１,00129017,13,119,1740063,,,,,,,2023-01-12,1,,,,,タイヨウビソウ,0
1089,4011403003865,新規,0,2023-01-12,2023-01-12,リバソル合同会社,,合同会社,東京都,板橋区,仲宿４７－３,,13,119,1730005,,,,,,,2023-01-12,1,,,,,リバソル,0
1094,4011801041764,新規,0,2023-01-12,2023-01-12,株式会社ゴリラパワーズ,,株式会社,東京都,足立区,扇１丁目１８番１７号,,13,121,1230873,,,,,,,2023-01-12,1,,,,,ゴリラパワーズ,0
1101,4012401040058,新規,0,2023-01-12,2023-01-12,株式会社着楽,,株式会社,東京都,府中市,美好町３丁目６番地の１尾崎コーポ１０３,,13,206,1830045,,,,,,,2023-01-12,1,,,,,キラク,0
1107,4013301050171,新規,0,2023-01-12,2023-01-12,株式会社ＫＥＹ,,株式会社,東京都,豊島区,池袋１丁目１５番７号セントパレス池袋１３０３号,,13,116,1700014,,,,,,,2023-01-12,1,,,,,キー,0
1108,4013303006444,新規,0,2023-01-12,2023-01-12,合同会社永羽,,合同会社,東京都,豊島区,千早４丁目３５番４号,,13,116,1710044,,,,,,,2023-01-12,1,,,,,トワ,0
1109,4013305003431,新規,0,2023-01-12,2023-01-12,一般社団法人第一経理グループ,,その他の設立登記法人,東京都,豊島区,南池袋１丁目１３番２号,,13,116,1710022,,,,,,,2023-01-12,1,,,,,ダイイチケイリグループ,0
1113,4020001149789,新規,0,2023-01-12,2023-01-12,株式会社ＫＲ,,株式会社,神奈川県,川崎市高津区,二子１丁目１７番１－２０８号,,14,134,2130002,,,,,,,2023-01-12,1,,,,,ケーアール,0
1116,4020003023050,新規,0,2023-01-12,2023-01-12,合同会社スマイル,,合同会社,神奈川県,横浜市神奈川区,大口通６５番地,,14,102,2210002,,,,,,,2023-01-12,1,,,,,スマイル,0
1117,4020003023067,新規,0,2023-01-12,2023-01-12,ｎａｎｄｏ合同会社,,合同会社,神奈川県,川崎市宮前区,初山１丁目３３番１７号,,14,136,2160026,,,,,,,2023-01-12,1,,,,,ナンド,0
1118,4020003023117,新規,0,2023-01-12,2023-01-12,合同会社Ｎｉｃｏ‐縁,,合同会社,神奈川県,横浜市青葉区,榎が丘４５－４６、２階,,14,117,2270063,,,,,,,2023-01-12,1,,,,,ニッコーエン,0
1123,4021001077864,新規,0,2023-01-12,2023-01-12,株式会社一桜,,株式会社,神奈川県,厚木市,恩名１丁目１３番４８号,,14,212,2430032,,,,,,,2023-01-12,1,,,,,イチオウ,0
1124,4021001077872,新規,0,2023-01-12,2023-01-12,株式会社ＭＮＳ,,株式会社,神奈川県,相模原市南区,相模大野７丁目３５番２－８１８号,,14,153,2520303,,,,,,,2023-01-12,1,,,,,エムエヌエス,0
1126,4021003012588,新規,0,2023-01-12,2023-01-12,合同会社ＳＨ,,合同会社,神奈川県,小田原市,高田３７９番地マリーノエル高田Ａ号室,,14,206,2500216,,,,,,,2023-01-12,1,,,,,エスエイチ,0
1133,4030001151868,新規,0,2023-01-12,2023-01-12,株式会社アンジェリーナ,,株式会社,埼玉県,川口市,並木３丁目１３番１４号ダイトービル弐番館６０１号室,,11,203,3320034,,,,,,,2023-01-12,1,,,,,アンジェリーナ,0
1134,4030001151876,新規,0,2023-01-12,2023-01-12,株式会社碧,,株式会社,埼玉県,本庄市,けや木２丁目２－３リリア本庄ビル１０３号,,11,211,3670042,,,,,,,2023-01-12,1,,,,,アオイ,0
1135,4030001151884,新規,0,2023-01-12,2023-01-12,株式会社ＴＷＩＮＳ,,株式会社,埼玉県,川口市,大字石神２９１番地の１５,,11,203,3330823,,,,,,,2023-01-12,1,,,,,ツインズ,0
1136,4030001151901,新規,0,2023-01-12,2023-01-12,株式会社果実屋,,株式会社,埼玉県,北本市,二ツ家１丁目３７４番地マリオン北本９０１,,11,233,3640014,,,,,,,2023-01-12,1,,,,,カジツヤ,0
1141,4030003020922,新規,0,2023-01-12,2023-01-12,合同会社おかげさま製作所,,合同会社,埼玉県,新座市,新堀２丁目５番１６号,,11,230,3520032,,,,,,,2023-01-12,1,,,,,オカゲサマセイサクジョ,0
1146,4040001126547,新規,0,2023-01-12,2023-01-12,株式会社コルドバ物流サービス,,株式会社,千葉県,富里市,七栄５３３番地６６,,12,233,2860221,,,,,,,2023-01-12,1,,,,,コルドバブツリュウサービス,0
1147,4040001126571,新規,0,2023-01-12,2023-01-12,株式会社シーライフ,,株式会社,千葉県,千葉市若葉区,千城台東２丁目３９番１号ダイアパレス千城台ＩＩ８１２号,00129021,12,104,2640002,,,,,,,2023-01-12,1,,,,,シーライフ,0
1148,4040001126596,新規,0,2023-01-12,2023-01-12,株式会社楽,,株式会社,千葉県,松戸市,日暮４丁目３番地の４,,12,207,2702253,,,,,,,2023-01-12,1,,,,,ガク,0
1149,4040001126605,新規,0,2023-01-12,2023-01-12,Ｂａｃｋ　Ｆｉｅｌｄ株式会社,,株式会社,千葉県,船橋市,西船６丁目９番２０－１０５号,,12,204,2730031,,,,,,,2023-01-12,1,,,,,バックフィールド,0
1151,4040003021614,新規,0,2023-01-12,2023-01-12,昊源国際合同会社,,合同会社,千葉県,山武郡九十九里町,小関２３２９番地２,,12,403,2830102,,,,,,,2023-01-12,1,,,,,コウゲンコクサイ,0
1152,4040003021663,新規,0,2023-01-12,2023-01-12,合同会社ＢｏｕｎｃｅＢａｃｋ,,合同会社,千葉県,松戸市,紙敷８０５番地の３,,12,207,2702221,,,,,,,2023-01-12,1,,,,,バウンスバック,0
1154,4050001052222,新規,0,2023-01-12,2023-01-12,株式会社ＡＢＢＡＳ　ＩＮＴＥＲＮＡＴＩＯＮＡＬ,,株式会社,茨城県,筑西市,辻２４４２番地１４,00129032,08,227,3080103,,,,,,,2023-01-12,1,,,,,アバースインターナショナル,0
1155,4060001035597,新規,0,2023-01-12,2023-01-12,株式会社パワーフレートジャパン,,株式会社,栃木県,佐野市,大橋町３１７１番地,,09,204,3270003,,,,,,,2023-01-12,1,,,,,パワーフレートジャパン,0
1156,4060003004369,新規,0,2023-01-12,2023-01-12,合同会社侍興業,,合同会社,栃木県,宇都宮市,本丸町１－３０宇都宮第３チサンマンション５０２,,09,201,3200817,,,,,,,2023-01-12,1,,,,,サムライコウギョウ,0
1158,4080001025398,新規,0,2023-01-12,2023-01-12,株式会社瀧澤ホールディングス,,株式会社,静岡県,静岡市葵区,山崎２丁目２６番地の６,,22,101,4211213,,,,,,,2023-01-12,1,,,,,タキザワホールディングス,0
1160,4090001017923,新規,0,2023-01-12,2023-01-12,広瀬石材株式会社,,株式会社,山梨県,甲州市,塩山上萩原２０４１番地２,,19,213,4040022,,,,,,,2023-01-12,1,,,,,ヒロセセキザイ,0
1161,4100001036038,新規,0,2023-01-12,2023-01-12,株式会社プレアデス,,株式会社,長野県,松本市,大字岡田下岡田４０４番地,,20,202,3900313,,,,,,,2023-01-12,1,,,,,プレアデス,0
1162,4100001036046,新規,0,2023-01-12,2023-01-12,株式会社エバーマムズ・コーポレーション,,株式会社,長野県,長野市,大字稲葉１７３１番地３３２,,20,201,3800911,,,,,,,2023-01-12,1,,,,,エバーマムズコーポレーション,0
1168,4110001037241,新規,0,2023-01-12,2023-01-12,株式会社ＩＣ＆Ｃ,,株式会社,新潟県,長岡市,越路中沢２９６番地４,,15,202,9495408,,,,,,,2023-01-12,1,,,,,アイシーアンドシー,0
1190,4120001251584,新規,0,2023-01-12,2023-01-12,株式会社Ａｌｌｅｇｒｏ　Ｇｒｏｕｐ,,株式会社,大阪府,大阪市東成区,大今里西２丁目１番６－８０２号,,27,115,5370014,,,,,,,2023-01-12,1,,,,,アレグログループ,0
1191,4120001251592,新規,0,2023-01-12,2023-01-12,株式会社住商,,株式会社,大阪府,大阪市淀川区,宮原５丁目３番４９号（松尾ビル４階）,,27,123,5320003,,,,,,,2023-01-12,1,,,,,,0
1192,4120001251618,新規,0,2023-01-12,2023-01-12,株式会社Ｌｉａｃｃ,,株式会社,大阪府,大阪市中央区,糸屋町１丁目２番１１－２２０５号,,27,128,5400022,,,,,,,2023-01-12,1,,,,,リアック,0
1193,4120001251626,新規,0,2023-01-12,2023-01-12,株式会社ｒｅｔｉｅｒｒａ,,株式会社,大阪府,大阪市中央区,安堂寺町２丁目３番５号第１８松屋ビル９０６号,,27,128,5420061,,,,,,,2023-01-12,1,,,,,レティエラ,0
1194,4120001251634,新規,0,2023-01-12,2023-01-12,株式会社ｃｏｍａｒｉ,,株式会社,大阪府,大阪市中央区,南久宝寺町４丁目３番１１号インテリジェンス御堂１００１号,,27,128,5410058,,,,,,,2023-01-12,1,,,,,コマリ,0
1195,4120001251642,新規,0,2023-01-12,2023-01-12,株式会社ＭＩＲＡＧＯ,,株式会社,大阪府,大阪市北区,梅田２丁目２番２号ヒルトンプラザウエストオフィスタワー１９階,,27,127,5300001,,,,,,,2023-01-12,1,,,,,ミラゴ,0
1196,4120001251650,新規,0,2023-01-12,2023-01-12,株式会社ｓａｎｂｏｗ　ｃｏ．,,株式会社,大阪府,大阪市住吉区,苅田９丁目１１番１０－２１４号,,27,120,5580011,,,,,,,2023-01-12,1,,,,,サンボウコドット,0
1197,4120001251667,新規,0,2023-01-12,2023-01-12,株式会社アウル,,株式会社,大阪府,寝屋川市,清水町１０－１９,,27,215,5720044,,,,,,,2023-01-12,1,,,,,アウル,0
1202,4120003023206,新規,0,2023-01-12,2023-01-12,合同会社ＫＯＩＫＥ　ＡＲＴ,,合同会社,大阪府,大阪市都島区,毛馬町３丁目７番２４号インディペンデンスハイツ６０５,,27,102,5340001,,,,,,,2023-01-12,1,,,,,コイケアート,0
1203,4120101066791,新規,0,2023-01-12,2023-01-12,株式会社エコプラス,,株式会社,大阪府,堺市西区,菱木１丁１３７６番地８７,,27,144,5938315,,,,,,,2023-01-12,1,,,,,エコプラス,0
1204,4120101066809,新規,0,2023-01-12,2023-01-12,株式会社ＭＩＣＨＩ,,株式会社,大阪府,泉佐野市,泉ケ丘４丁目１０番７号,,27,213,5980072,,,,,,,2023-01-12,1,,,,,ミチ,0
1205,4120101066817,新規,0,2023-01-12,2023-01-12,アシスト創建株式会社,,株式会社,大阪府,泉佐野市,上之郷１２８３,,27,213,5980024,,,,,,,2023-01-12,1,,,,,アシストソウケン,0
1206,4120101066825,新規,0,2023-01-12,2023-01-12,株式会社ＹＯＬＵ,,株式会社,大阪府,松原市,天美東７丁目６６,,27,217,5800032,,,,,,,2023-01-12,1,,,,,ヨル,0
1207,4120103004989,新規,0,2023-01-12,2023-01-12,合同会社ｍｏｔｈｅｒｓ．ｖｉｌｌａｇｅ,,合同会社,大阪府,大阪狭山市,東池尻２丁目１２７４番地の１,,27,231,5890004,,,,,,,2023-01-12,1,,,,,マザーズビレッジ,0
1208,4120105009664,新規,0,2023-01-12,2023-01-12,特定非営利活動法人ハッピーフロー,,その他の設立登記法人,大阪府,堺市北区,東上野芝町２丁４６８番地１エンゼルハイム上野芝７０２号,,27,146,5918035,,,,,,,2023-01-12,1,,,,,ハッピーフロー,0
1210,4120901046951,新規,0,2023-01-12,2023-01-12,株式会社ｓｏｉｌ　ｔｒｅｅ,,株式会社,大阪府,吹田市,千里丘北１番２４－１３１５号,,27,205,5650815,,,,,,,2023-01-12,1,,,,,ソイルツリー,0
1211,4120901046968,新規,0,2023-01-12,2023-01-12,ｉクローバー株式会社,,株式会社,大阪府,吹田市,豊津町１番１８号エクラート江坂ビル３Ｆ,,27,205,5640051,,,,,,,2023-01-12,1,,,,,アイクローバー,0
1212,4120901046976,新規,0,2023-01-12,2023-01-12,株式会社チームのトリセツ,,株式会社,大阪府,箕面市,今宮３丁目１１番３１－４０３号,,27,220,5620033,,,,,,,2023-01-12,1,,,,,チームノトリセツ,0
1213,4120903004453,新規,0,2023-01-12,2023-01-12,ＡＳ合同会社,,合同会社,大阪府,摂津市,別府２丁目１８番８号,,27,224,5660046,,,,,,,2023-01-12,1,,,,,アズ,0
1215,4122001036560,新規,0,2023-01-12,2023-01-12,株式会社ｇｕｔｔｉｙ,,株式会社,大阪府,東大阪市,瓜生堂２丁目２６－３,,27,227,5780946,,,,,,,2023-01-12,1,,,,,グティー,0
1216,4122001036569,新規,0,2023-01-12,2023-01-12,株式会社ＧＲＯＵＰ,,株式会社,大阪府,東大阪市,菱屋東１丁目１番２７－３０６号,,27,227,5780948,,,,,,,2023-01-12,1,,,,,グループ,0
1221,4130005016669,新規,0,2023-01-12,2023-01-12,特定非営利活動法人京都栄養士ネット,,その他の設立登記法人,京都府,京都市右京区,太秦八反田町１０番地の２４,,26,108,6168145,,,,,,,2023-01-12,1,,,,,キョウトエイヨウシネット,0
1227,4140001128640,新規,0,2023-01-12,2023-01-12,株式会社ハコ住む,,株式会社,兵庫県,加古川市,加古川町稲屋７１２,,28,210,6750034,,,,,,,2023-01-12,1,,,,,ハコスム,0
1228,4140001128698,新規,0,2023-01-12,2023-01-12,株式会社Ｖａｎｉｌｌａ　Ｓｈｅｒｂｅｔ‐Ｃｕｅ,,株式会社,兵庫県,豊岡市,下陰４４０番地の４０,,28,209,6680012,,,,,,,2023-01-12,1,,,,,バニラシャーベットキュー,0
1229,4140001128715,新規,0,2023-01-12,2023-01-12,富士リノベーション株式会社,,株式会社,兵庫県,西宮市,北六甲台５丁目２－１９,,28,204,6511413,,,,,,,2023-01-12,1,,,,,フジリノベーション,0
1230,4140001128748,新規,0,2023-01-12,2023-01-12,株式会社ＳＧＨ,,株式会社,兵庫県,加西市,青野原町１１０番地の２,,28,220,6790102,,,,,,,2023-01-12,1,,,,,エスジーエイチ,0
1232,4140003018575,新規,0,2023-01-12,2023-01-12,合同会社Ｓｍｉｌｅ,,合同会社,兵庫県,明石市,西明石南町２丁目１２－９,,28,203,6730041,,,,,,,2023-01-12,1,,,,,スマイル,0
1233,4140003018600,新規,0,2023-01-12,2023-01-12,ＹＥＳ　ＬＯＡ　ＡＣＡＤＥＭＹ合同会社,,合同会社,兵庫県,芦屋市,船戸町５－２６,,28,206,6590093,,,,,,,2023-01-12,1,,,,,イエスロアアカデミー,0
1234,4150001026067,新規,0,2023-01-12,2023-01-12,シナジーワークス株式会社,,株式会社,奈良県,奈良市,南京終町２丁目２６２－１－４０６,,29,201,6308141,,,,,,,2023-01-12,1,,,,,シナジーワークス,0
1236,4160001024747,新規,0,2023-01-12,2023-01-12,株式会社バイクガーデン,,株式会社,滋賀県,大津市,堂１丁目９番１５号,,25,201,5202116,,,,,,,2023-01-12,1,,,,,バイクガーデン,0
1239,4160003002775,新規,0,2023-01-12,2023-01-12,大西工業合同会社,,合同会社,滋賀県,高島市,安曇川町西万木２９０番地４,,25,212,5201212,,,,,,,2023-01-12,1,,,,,オオニシコウギョウ,0
1243,4180001154377,新規,0,2023-01-12,2023-01-12,株式会社ＫＳＺ,,株式会社,愛知県,名古屋市中区,大須４丁目１１番３９号,,23,106,4600011,,,,,,,2023-01-12,1,,,,,ケーエスゼット,0
1244,4180001154427,新規,0,2023-01-12,2023-01-12,株式会社ＡｂｉｆｕｎＸ,,株式会社,愛知県,名古屋市中区,栄２丁目２番地１号広小路伏見中駒ビル２Ｆ－９,,23,106,4600008,,,,,,,2023-01-12,1,,,,,アビファンエックス,0
1245,4180001154468,新規,0,2023-01-12,2023-01-12,株式会社ジョイリード,,株式会社,愛知県,名古屋市北区,若葉通１丁目２６番地,,23,103,4620854,,,,,,,2023-01-12,1,,,,,ジョイリード,0
1246,4180001154476,新規,0,2023-01-12,2023-01-12,株式会社永真,,株式会社,愛知県,一宮市,西五城字下切２８６番地５,,23,203,4940005,,,,,,,2023-01-12,1,,,,,エイシン,0
1247,4180001154484,新規,0,2023-01-12,2023-01-12,株式会社ラットガレージ,,株式会社,愛知県,日進市,岩崎町根裏３７番地１１,,23,230,4700131,,,,,,,2023-01-12,1,,,,,ラットガレージ,0
1248,4180001154492,新規,0,2023-01-12,2023-01-12,株式会社ＮＡＧＯＹＡ　ｔｒａｄｉｎｇ,,株式会社,愛知県,名古屋市中区,新栄１丁目１３番３１号,,23,106,4600007,,,,,,,2023-01-12,1,,,,,ナゴヤトレーディング,0
1249,4180001154518,新規,0,2023-01-12,2023-01-12,株式会社グリッターエイジェンシー,,株式会社,愛知県,名古屋市中区,栄３丁目１５番３３号栄ガスビル１３階,,23,106,4600008,,,,,,,2023-01-12,1,,,,,グリッターエイジェンシー,0
1250,4180001154534,新規,0,2023-01-12,2023-01-12,株式会社Ｌｉｂｅｒｔａ,,株式会社,愛知県,名古屋市天白区,植田３丁目１０９番地,,23,116,4680051,,,,,,,2023-01-12,1,,,,,リベルタ,0
1251,4180001154550,新規,0,2023-01-12,2023-01-12,株式会社ｍｏｔｔｅ．,,株式会社,愛知県,名古屋市北区,新堀町２４番地タウンハウス新堀町Ｆ号,,23,103,4620801,,,,,,,2023-01-12,1,,,,,モッテ,0
1253,4180003024719,新規,0,2023-01-12,2023-01-12,合同会社ｍｉｒｏｋｕ３６９,,合同会社,愛知県,名古屋市千種区,星が丘元町１５番１９号ＫＩＩ－ＯＫＡＳＡＮ－Ｂ．参番館９０３号室,00129030,23,101,4640802,,,,,,,2023-01-12,1,,,,,ミロクサンロクキュウ,0
1254,4180301036969,新規,0,2023-01-12,2023-01-12,株式会社高浜青果,,株式会社,愛知県,高浜市,湯山町８丁目９番地６,,23,227,4441332,,,,,,,2023-01-12,1,,,,,タカハマセイカ,0
1255,4180301036977,新規,0,2023-01-12,2023-01-12,株式会社和,,株式会社,愛知県,西尾市,米津町仲之畑３４番地１０,,23,213,4450802,,,,,,,2023-01-12,1,,,,,ナゴミ,0
1256,4180303005559,新規,0,2023-01-12,2023-01-12,合同会社Ｇ．Ｓ,,合同会社,愛知県,豊橋市,東岩田１丁目６番地１１,,23,201,4400033,,,,,,,2023-01-12,1,,,,,ジーエス,0
1259,4200001040863,新規,0,2023-01-12,2023-01-12,株式会社グッドルーム,,株式会社,岐阜県,羽島市,竹鼻町２３０番地,,21,209,5016241,,,,,,,2023-01-12,1,,,,,グッドルーム,0
1261,4220001025219,新規,0,2023-01-12,2023-01-12,家具工房赤尾株式会社,,株式会社,石川県,加賀市,宇谷町己１０番地１,,17,206,9220312,,,,,,,2023-01-12,1,,,,,カグコウボウアカオ,0
1264,4230001019673,新規,0,2023-01-12,2023-01-12,白熊地所株式会社,,株式会社,富山県,富山市,中市２丁目２２８番地５,,16,201,9398005,,,,,,,2023-01-12,1,,,,,シロクマジショ,0
1273,4240001060924,新規,0,2023-01-12,2023-01-12,株式会社グッドカラー,,株式会社,広島県,広島市安佐北区,落合南８丁目１０番３－１号,,34,106,7391732,,,,,,,2023-01-12,1,,,,,グッドカラー,0
1274,4240001060940,新規,0,2023-01-12,2023-01-12,株式会社Ｓ‐Ｆａｃｔｏｒｙ,,株式会社,広島県,福山市,瀬戸町地頭分７１番地２,,34,207,7210000,,,,,,,2023-01-12,1,,,,,エスファクトリー,0
1276,4240003005968,新規,0,2023-01-12,2023-01-12,合同会社ＲＩＳＥ,,合同会社,広島県,広島市佐伯区,五日市７丁目１３番１６－２０５号,,34,108,7315127,,,,,,,2023-01-12,1,,,,,ライズ,0
1278,4250001019911,新規,0,2023-01-12,2023-01-12,佑紀建設株式会社,,株式会社,山口県,宇部市,宮地町１４番３５号,,35,202,7550071,,,,,,,2023-01-12,1,,,,,ユウキケンセツ,0
1281,4260001037581,新規,0,2023-01-12,2023-01-12,株式会社医療経営コンサルティング,,株式会社,岡山県,岡山市中区,原尾島８５３番地４,,33,102,7038235,,,,,,,2023-01-12,1,,,,,イリョウケイエイコンサルティング,0
1283,4290001100072,新規,0,2023-01-12,2023-01-12,株式会社Ｗａｋｕｗａｋｕ　Ｃｏｎｎｅｃｔｉｏｎ,,株式会社,福岡県,福岡市博多区,博多駅前２丁目１９番１７号トーカン博多第５ビル３１２号室,,40,132,8120011,,,,,,,2023-01-12,1,,,,,ワクワクコネクション,0
1284,4290001100130,新規,0,2023-01-12,2023-01-12,株式会社フクオカアーステクニカル,,株式会社,福岡県,那珂川市,道善１丁目５３番地２第６三城ハイツ２０２号,,40,231,8111254,,,,,,,2023-01-12,1,,,,,フクオカアーステクニカル,0
1285,4290001100171,新規,0,2023-01-12,2023-01-12,株式会社喜楽研究会,,株式会社,福岡県,福岡市中央区,大宮２丁目１番４－１０２号,,40,133,8100013,,,,,,,2023-01-12,1,,,,,キラクケンキュウカイ,0
1286,4290001100196,新規,0,2023-01-12,2023-01-12,フクフク株式会社,,株式会社,福岡県,福岡市博多区,美野島３丁目２０番１－１４０１号,,40,132,8120017,,,,,,,2023-01-12,1,,,,,フクフク,0
1288,4290005018906,新規,0,2023-01-12,2023-01-12,一般社団法人ゆい庵,,その他の設立登記法人,福岡県,宗像市,池浦４１－１０,,40,220,8113401,,,,,,,2023-01-12,1,,,,,ユイアン,0
1290,4290801029206,新規,0,2023-01-12,2023-01-12,株式会社エーアールプラス,,株式会社,福岡県,北九州市小倉北区,重住３丁目７番１０号山内ビル２階２０１Ｂ号室,,40,106,8020011,,,,,,,2023-01-12,1,,,,,エーアールプラス,0
1293,4290805009625,新規,0,2023-01-12,2023-01-12,医療法人さかいメディカルクリニック,,その他の設立登記法人,福岡県,北九州市八幡西区,山寺町１１－８,,40,109,8060030,,,,,,,2023-01-12,1,,,,,サカイメディカルクリニック,0
1294,4300005007122,新規,0,2023-01-12,2023-01-12,医療法人希会,,その他の設立登記法人,佐賀県,佐賀市,川副町大字西古賀２４７番地１０,,41,201,8402204,,,,,,,2023-01-12,1,,,,,ノゾミカイ,0
1297,4320001019508,新規,0,2023-01-12,2023-01-12,株式会社ファシリティライフ,,株式会社,大分県,日田市,本町７番４１号,,44,204,8770014,,,,,,,2023-01-12,1,,,,,ファシリティライフ,0
1298,4320001019516,新規,0,2023-01-12,2023-01-12,株式会社藤和工業,,株式会社,大分県,大分市,角子南２丁目３番３３号チェルシー２０１,,44,201,8700242,,,,,,,2023-01-12,1,,,,,トウワコウギョウ,0
1299,4320003003988,新規,0,2023-01-12,2023-01-12,合同会社からだこころ健幸協会,,合同会社,大分県,杵築市,山香町大字野原９９１番地５６,,44,210,8791307,,,,,,,2023-01-12,1,,,,,カラダココロケンコウキョウカイ,0
1300,4330001030463,新規,0,2023-01-12,2023-01-12,株式会社Ｙ．ＰＬＵＳ,,株式会社,熊本県,上益城郡御船町,大字小坂２１２２番地１,,43,441,8613202,,,,,,,2023-01-12,1,,,,,ワイプラス,0
1301,4350001018127,新規,0,2023-01-12,2023-01-12,ＳＧＭ株式会社,,株式会社,宮崎県,都城市,下長飯町８９９番地２,,45,202,8850061,,,,,,,2023-01-12,1,,,,,エスジーエム,0
1303,4360001031418,新規,0,2023-01-12,2023-01-12,株式会社十九,,株式会社,沖縄県,名護市,城１丁目６番１号,,47,209,9050013,,,,,,,2023-01-12,1,,,,,ジュウク,0
1306,4370001049450,新規,0,2023-01-12,2023-01-12,株式会社大場興業,,株式会社,宮城県,大崎市,古川休塚字舞台４４番地２,,04,215,9896255,,,,,,,2023-01-12,1,,,,,オオバコウギョウ,0
1307,4370001049483,新規,0,2023-01-12,2023-01-12,株式会社タカシュウ,,株式会社,宮城県,塩竈市,泉沢町２２番３７号,,04,203,9850062,,,,,,,2023-01-12,1,,,,,タカシュウ,0
1310,4370003005939,新規,0,2023-01-12,2023-01-12,合同会社いくえ,,合同会社,宮城県,柴田郡柴田町,大字本船迫字上町１番地５,,04,323,9891621,,,,,,,2023-01-12,1,,,,,イクエ,0
1312,4380001033387,新規,0,2023-01-12,2023-01-12,株式会社フェリシティ,,株式会社,福島県,伊達市,梁川町字北本町１９番地６,,07,213,9600781,,,,,,,2023-01-12,1,,,,,フェリシティ,0
1316,4410001013369,新規,0,2023-01-12,2023-01-12,原板金株式会社,,株式会社,秋田県,仙北市,西木町門屋字六本杉２５０番地,,05,215,0140515,,,,,,,2023-01-12,1,,,,,ハラバンキン,0
1319,4430001088161,新規,0,2023-01-12,2023-01-12,丸昇重機工業株式会社,,株式会社,北海道,苫小牧市,澄川町７丁目１５番１３号,,01,213,0591271,,,,,,,2023-01-12,1,,,,,マルショウジュウキコウギョウ,0
1320,4430001088178,新規,0,2023-01-12,2023-01-12,株式会社のぶちゃん農園,,株式会社,北海道,美唄市,字峰延原野２６４５番地２４,,01,215,0720000,,,,,,,2023-01-12,1,,,,,ノブチャンノウエン,0
1321,4430001088186,新規,0,2023-01-12,2023-01-12,株式会社札幌沼田水産,,株式会社,北海道,札幌市豊平区,水車町１丁目６番１１－２０２号,,01,105,0620912,,,,,,,2023-01-12,1,,,,,サッポロヌマタスイサン,0
1322,4430001088194,新規,0,2023-01-12,2023-01-12,株式会社ＰＬＵＳ　ＮＯＲＴＨ,,株式会社,北海道,札幌市西区,西町南５丁目１番５号,,01,107,0630062,,,,,,,2023-01-12,1,,,,,プラスノース,0
1325,4430003014628,新規,0,2023-01-12,2023-01-12,合同会社Ｓｏｆｆｉｃｅ,,合同会社,北海道,札幌市中央区,北二条西１０丁目１番地１４植物園グランドハイツ２１０号,,01,101,0600002,,,,,,,2023-01-12,1,,,,,エスオフィス,0
1339,4470003002331,新規,0,2023-01-12,2023-01-12,合同会社古市保険事務所,,合同会社,香川県,高松市,木太町１６１２番地２,,37,201,7600080,,,,,,,2023-01-12,1,,,,,フルイチホケンジムショ,0
1340,4480001011969,新規,0,2023-01-12,2023-01-12,株式会社高橋工業,,株式会社,徳島県,吉野川市,鴨島町麻植塚３２９番地,,36,205,7760002,,,,,,,2023-01-12,1,,,,,タカハシコウギョウ,0
1345,4500001024712,新規,0,2023-01-12,2023-01-12,株式会社たいよう不動産,,株式会社,愛媛県,西予市,三瓶町朝立１番耕地３８６番地１６,,38,214,7960907,,,,,,,2023-01-12,1,,,,,タイヨウフドウサン,0
1355,5010001231976,新規,0,2023-01-12,2023-01-12,株式会社Ｓｏｆｔｗａｒｅ　Ｒｅｇｕｌａｔｉｏｎ,,株式会社,東京都,中央区,日本橋兜町１７－１日本橋ロイヤルプラザ７０６,,13,102,1030026,,,,,,,2023-01-12,1,,,,,ソフトウェアレギュレーション,0
1356,5010001232058,新規,0,2023-01-12,2023-01-12,株式会社人形町猫の病院,,株式会社,東京都,中央区,日本橋人形町２丁目７－２,,13,102,1030013,,,,,,,2023-01-12,1,,,,,,0
1357,5010001232124,新規,0,2023-01-12,2023-01-12,ＴＫマネジメント株式会社,,株式会社,東京都,千代田区,富士見２丁目４番９－２０４号,,13,101,1020071,,,,,,,2023-01-12,1,,,,,ティーケーマネジメント,0
1358,5010001232157,新規,0,2023-01-12,2023-01-12,株式会社ロングリーチビジネスパートナーズ,,株式会社,東京都,千代田区,麹町１丁目１２番地１住友不動産ふくおか半蔵門ビル３階,,13,101,1020083,,,,,,,2023-01-12,1,,,,,ロングリーチビジネスパートナーズ,0
1361,5010003039501,新規,0,2023-01-12,2023-01-12,ＱｕａｄＲｅａｌ　Ｊａｐａｎ　Ｓｅｒｖｉｃｅｓ合同会社,,合同会社,東京都,中央区,日本橋３丁目９番１号日本橋三丁目スクエア１１階トライコー株式会社内,,13,102,1030027,,,,,,,2023-01-12,1,,,,,クアッドリアルジャパンサービシーズ,0
1365,5010005036100,新規,0,2023-01-12,2023-01-12,税理士法人Ｔｗｏ　ｏｎｅｓ,,その他の設立登記法人,東京都,千代田区,岩本町１丁目４番２号,,13,101,1010032,,,,,,,2023-01-12,1,,,,,トゥーワンズ,0
1368,5010103002061,新規,0,2023-01-12,2023-01-12,合同会社Ｋグループ,,合同会社,東京都,八王子市,台町４丁目４４番１３号,,13,201,1930931,,,,,,,2023-01-12,1,,,,,ケイグループ,0
1387,5010403029275,新規,0,2023-01-12,2023-01-12,Ｋｅｔｊｅｎ　Ｊａｐａｎ合同会社,,合同会社,東京都,港区,赤坂７丁目１番１号,,13,103,1070052,,,,,,,2023-01-12,1,,,,,ケッチェンジャパン,0
1398,5010501049836,新規,0,2023-01-12,2023-01-12,株式会社ＹＡＫホールディングス,,株式会社,東京都,台東区,上野５丁目８番８号,,13,106,1100005,,,,,,,2023-01-12,1,,,,,ワイエーケーホールディングス,0
1406,5010603009936,新規,0,2023-01-12,2023-01-12,オーシャン・アセットマネジメント合同会社,,合同会社,東京都,墨田区,向島３丁目３１番１１号,,13,107,1310033,,,,,,,2023-01-12,1,,,,,オーシャンアセットマネジメント,0
1407,5010701043705,新規,0,2023-01-12,2023-01-12,ａｒｍ株式会社,,株式会社,東京都,品川区,東五反田３丁目１０番１０－２０９号,,13,109,1410022,,,,,,,2023-01-12,1,,,,,アーム,0
1414,5010901052299,新規,0,2023-01-12,2023-01-12,株式会社ミーツワン,,株式会社,東京都,世田谷区,代沢４丁目２番３－３０６号,,13,112,1550032,,,,,,,2023-01-12,1,,,,,ミーツワン,0
1415,5010901052316,新規,0,2023-01-12,2023-01-12,株式会社ブランケットクリエイティブ,,株式会社,東京都,世田谷区,池尻２丁目３３番１４号,,13,112,1540001,,,,,,,2023-01-12,1,,,,,ブランケットクリエイティブ,0
1416,5010901052324,新規,0,2023-01-12,2023-01-12,株式会社トップリーダーズ,,株式会社,東京都,世田谷区,北沢５丁目２７－９ＦＡＢＲＩＣ代々木上原３０３,,13,112,1550031,,,,,,,2023-01-12,1,,,,,トップリーダーズ,0
1422,5011001151834,新規,0,2023-01-12,2023-01-12,イマジエイト株式会社,,株式会社,東京都,渋谷区,渋谷３丁目６番２号エクラート渋谷ビル５階,,13,113,1500002,,,,,,,2023-01-12,1,,,,,イマジエイト,0
1423,5011001151917,新規,0,2023-01-12,2023-01-12,Ｍｓ　ｒｉｓｉｎｇ株式会社,,株式会社,東京都,渋谷区,代官山町１７番１号,,13,113,1500034,,,,,,,2023-01-12,1,,,,,エムズライジング,0
1424,5011003016060,新規,0,2023-01-12,2023-01-12,合同会社Ｇａｎｙｍｅｄｅｓ,,合同会社,東京都,渋谷区,本町１丁目６０番３号,,13,113,1510071,,,,,,,2023-01-12,1,,,,,ガニメデス,0
1425,5011003016085,新規,0,2023-01-12,2023-01-12,Ｆａｃｅｒｅ合同会社,,合同会社,東京都,渋谷区,渋谷２丁目１９―１５宮益坂ビルディング６０９,,13,113,1500002,,,,,,,2023-01-12,1,,,,,ファケレ,0
1428,5011101101383,新規,0,2023-01-12,2023-01-12,株式会社ＡＤＷＡＹＳ　ＤＥＥＥ,,株式会社,東京都,新宿区,西新宿８丁目１７番１号,,13,104,1600023,,,,,,,2023-01-12,1,,,,,アドウェイズディー,0
1429,5011101101417,新規,0,2023-01-12,2023-01-12,ＴＲＭアドバイザリー株式会社,,株式会社,東京都,新宿区,西新宿３丁目２番９号新宿ワシントンホテルビル本館２Ｆ,,13,104,1600023,,,,,,,2023-01-12,1,,,,,ティーアールエムアドバイザリー,0
1430,5011101101433,新規,0,2023-01-12,2023-01-12,株式会社アステリア,,株式会社,東京都,新宿区,納戸町３３番地市ヶ谷Ｓｉビル２階,,13,104,1620837,,,,,,,2023-01-12,1,,,,,アステリア,0
1431,5011101101441,新規,0,2023-01-12,2023-01-12,株式会社ＴＨＲＥＥ　Ｃｏｎｆｉａｎｃｅ,,株式会社,東京都,新宿区,上落合１丁目２４番１１号カーサ音羽３０３,,13,104,1610034,,,,,,,2023-01-12,1,,,,,スリーコンフィアンス,0
1432,5011201024328,新規,0,2023-01-12,2023-01-12,株式会社オーティーエディット,,株式会社,東京都,中野区,野方３丁目２９番１１号ヴィラ・エスペランサ３０５,,13,114,1650027,,,,,,,2023-01-12,1,,,,,オーティーエディット,0
1433,5011301028369,新規,0,2023-01-12,2023-01-12,株式会社メディトリーナ,,株式会社,東京都,杉並区,成田西３丁目３－２４,,13,115,1660016,,,,,,,2023-01-12,1,,,,,メディトリーナ,0
1437,5011501028821,新規,0,2023-01-12,2023-01-12,株式会社ＮＥＭＯ,,株式会社,東京都,荒川区,西日暮里２丁目３６－１ウインザーハウスＩ－２０１,00129029,13,118,1160013,,,,,,,2023-01-12,1,,,,,ニモ,0
1439,5011601026502,新規,0,2023-01-12,2023-01-12,株式会社エンターファイナンス,,株式会社,東京都,練馬区,田柄４丁目７番１０号,,13,120,1790073,,,,,,,2023-01-12,1,,,,,エンターファイナンス,0
1444,5011701025908,新規,0,2023-01-12,2023-01-12,株式会社ＣＨＩＳＥＬ,,株式会社,東京都,江戸川区,中葛西５丁目１２番４号,,13,123,1340083,,,,,,,2023-01-12,1,,,,,チセル,0
1445,5011701025916,新規,0,2023-01-12,2023-01-12,コロナド株式会社,,株式会社,東京都,江戸川区,東葛西４丁目３７番２号－３０２,,13,123,1340084,,,,,,,2023-01-12,1,,,,,コロナド,0
1446,5011701025940,新規,0,2023-01-12,2023-01-12,株式会社イトハ,,株式会社,東京都,江戸川区,江戸川２丁目３７番２９号,,13,123,1320013,,,,,,,2023-01-12,1,,,,,イトハ,0
1448,5012303001768,新規,0,2023-01-12,2023-01-12,合同会社Ｃｏｒｒｅｃｔ　ｏｎｅ,,合同会社,東京都,町田市,小山町１１１８番地１２,,13,209,1940212,,,,,,,2023-01-12,1,,,,,コレクトワン,0
1452,5012801022076,新規,0,2023-01-12,2023-01-12,株式会社Ｃｈｅｅｒｆｕｌ　Ｌｉｆｅ,,株式会社,東京都,立川市,栄町５丁目１番地の６,,13,202,1900003,,,,,,,2023-01-12,1,,,,,チアフルライフ,0
1455,5013301050170,新規,0,2023-01-12,2023-01-12,Ｗｏｒｋｅｎｃｅ株式会社,,株式会社,東京都,豊島区,池袋１丁目１５番７号セントパレス池袋１３０２号,,13,116,1700014,,,,,,,2023-01-12,1,,,,,ワーケンス,0
1456,5013303006443,新規,0,2023-01-12,2023-01-12,ｂｗｄａ合同会社,,合同会社,東京都,豊島区,高田３丁目２８番６号パークアクシス高田馬場４０３号,,13,116,1710033,,,,,,,2023-01-12,1,,,,,ビーダブリュエー,0
1466,5020001149730,新規,0,2023-01-12,2023-01-12,株式会社ミレニアム,,株式会社,神奈川県,川崎市高津区,千年３７８－２,,14,134,2130022,,,,,,,2023-01-12,1,,,,,ミレニアム,0
1467,5020001149771,新規,0,2023-01-12,2023-01-12,ふじ株式会社,,株式会社,神奈川県,横浜市港北区,日吉本町６丁目５７番５号,,14,109,2230062,,,,,,,2023-01-12,1,,,,,フジ,0
1468,5020001149838,新規,0,2023-01-12,2023-01-12,株式会社浜スパイス,,株式会社,神奈川県,横浜市中区,相生町４丁目６９番地１,,14,104,2310012,,,,,,,2023-01-12,1,,,,,ハマスパイス,0
1470,5020003023041,新規,0,2023-01-12,2023-01-12,ナカモト合同会社,,合同会社,神奈川県,横浜市青葉区,美しが丘西２丁目５３番地１７,,14,117,2250001,,,,,,,2023-01-12,1,,,,,ナカモト,0
1473,5021001077905,新規,0,2023-01-12,2023-01-12,株式会社ニシムラ内装,,株式会社,神奈川県,茅ヶ崎市,室田２丁目１４番１４号,,14,207,2530018,,,,,,,2023-01-12,1,,,,,,0
1479,5030001151834,新規,0,2023-01-12,2023-01-12,株式会社ＭＡＣ,,株式会社,埼玉県,川口市,朝日５丁目７番１４号,,11,203,3320001,,,,,,,2023-01-12,1,,,,,エムエーシー,0
1480,5030001151842,新規,0,2023-01-12,2023-01-12,ＸＢジャパン株式会社,,株式会社,埼玉県,越谷市,大間野町２丁目１９４,,11,222,3430844,,,,,,,2023-01-12,1,,,,,エックスビージャパン,0
1481,5030001151859,新規,0,2023-01-12,2023-01-12,株式会社ＴＯＲＯ,,株式会社,埼玉県,戸田市,大字新曽１８１４番地の１,,11,224,3350021,,,,,,,2023-01-12,1,,,,,トロ,0
1482,5030001151867,新規,0,2023-01-12,2023-01-12,不動さん絲屋株式会社,,株式会社,埼玉県,さいたま市北区,植竹町１丁目５６１番地４,,11,102,3310813,,,,,,,2023-01-12,1,,,,,フドウサンイトヤ,0
1483,5030001151875,新規,0,2023-01-12,2023-01-12,エムアンドアール株式会社,,株式会社,埼玉県,川越市,大字吉田６８７番地５０,,11,201,3500807,,,,,,,2023-01-12,1,,,,,エムアンドアール,0
1484,5030001151891,新規,0,2023-01-12,2023-01-12,株式会社Ｇｒｅｅｎ,,株式会社,埼玉県,さいたま市大宮区,桜木町２丁目３番地大宮マルイ７階,,11,103,3300854,,,,,,,2023-01-12,1,,,,,グリーン,0
1486,5030003020921,新規,0,2023-01-12,2023-01-12,ｒｉｒｉ合同会社,,合同会社,埼玉県,さいたま市岩槻区,大字長宮１０７８－３,,11,110,3390011,,,,,,,2023-01-12,1,,,,,リリ,0
1492,5040001126471,新規,0,2023-01-12,2023-01-12,株式会社匠商会,,株式会社,千葉県,千葉市若葉区,都賀４丁目１５番４号,,12,104,2640025,,,,,,,2023-01-12,1,,,,,タクミショウカイ,0
1493,5040001126562,新規,0,2023-01-12,2023-01-12,株式会社スリーエスビジネスイノベーション,,株式会社,千葉県,千葉市中央区,中央２丁目５番１号千葉中央ツインビル２号館１０階,,12,101,2600013,,,,,,,2023-01-12,1,,,,,スリーエスビジネスイノベーション,0
1494,5040001126570,新規,0,2023-01-12,2023-01-12,株式会社かみやど,,株式会社,千葉県,袖ケ浦市,横田１９９８番地,,12,229,2990236,,,,,,,2023-01-12,1,,,,,カミヤド,0
1495,5040001126587,新規,0,2023-01-12,2023-01-12,株式会社サクラ工房,,株式会社,千葉県,東金市,台方６３３,,12,213,2830811,,,,,,,2023-01-12,1,,,,,サクラコウボウ,0
1496,5040001126595,新規,0,2023-01-12,2023-01-12,株式会社仁商,,株式会社,千葉県,木更津市,ほたる野２丁目１８番地１９,,12,206,2920038,,,,,,,2023-01-12,1,,,,,ジンショウ,0
1497,5040001126604,新規,0,2023-01-12,2023-01-12,株式会社ぺいふる,,株式会社,千葉県,船橋市,坪井東６丁目２番１５号,,12,204,2740060,,,,,,,2023-01-12,1,,,,,ペイフル,0
1498,5040001126612,新規,0,2023-01-12,2023-01-12,株式会社まつもと工務店,,株式会社,千葉県,千葉市稲毛区,園生町９７２番地１０,,12,103,2630051,,,,,,,2023-01-12,1,,,,,マツモトコウムテン,0
1501,5040003021646,新規,0,2023-01-12,2023-01-12,合同会社ＹＯＫＯＳＵＫＡ　ＢＡＳＥ,,合同会社,千葉県,鴨川市,広場７５２番１号－６１１,,12,223,2960044,,,,,,,2023-01-12,1,,,,,ヨコスカベース,0
1502,5040003021662,新規,0,2023-01-12,2023-01-12,合同会社白亀,,合同会社,千葉県,佐倉市,石川５５９番地１０１,,12,212,2850813,,,,,,,2023-01-12,1,,,,,シラキ,0
1503,5040005021859,新規,0,2023-01-12,2023-01-12,社会保険労務士法人ＡＩＯＳ,,その他の設立登記法人,千葉県,松戸市,新松戸３丁目４１２番地横須賀ビル２Ｆ,,12,207,2700034,,,,,,,2023-01-12,1,,,,,アイオス,0
1504,5050001052213,新規,0,2023-01-12,2023-01-12,株式会社さかもと商会,,株式会社,茨城県,つくばみらい市,上長沼１９５０番地,,08,235,3002453,,,,,,,2023-01-12,1,,,,,サカモトショウカイ,0
1505,5060001035596,新規,0,2023-01-12,2023-01-12,株式会社山下コート,,株式会社,栃木県,足利市,山下町１０６６番地９,,09,202,3260846,,,,,,,2023-01-12,1,,,,,ヤマシタコート,0
1506,5070001040001,新規,0,2023-01-12,2023-01-12,株式会社ｉｍｂｌｏｓｓｏｍ,,株式会社,群馬県,高崎市,倉賀野町７６２番地９,,10,202,3701201,,,,,,,2023-01-12,1,,,,,インブロッサム,0
1508,5080001025397,新規,0,2023-01-12,2023-01-12,縁株式会社,,株式会社,静岡県,静岡市葵区,瀬名１丁目１１番５７号,,22,101,4200911,,,,,,,2023-01-12,1,,,,,エニシ,0
1511,5080403004692,新規,0,2023-01-12,2023-01-12,合同会社マーク室内工事,,合同会社,静岡県,浜松市中区,野口町５０５番地の２アーバンレジデンス２０８,,22,131,4300919,,,,,,,2023-01-12,1,,,,,マークシツナイコウジ,0
1513,5100001036037,新規,0,2023-01-12,2023-01-12,株式会社ＲＡＤＩＣＡＬ,,株式会社,長野県,松本市,大字島立５１４番地３,,20,202,3900852,,,,,,,2023-01-12,1,,,,,ラディカル,0
1517,5110001037208,新規,0,2023-01-12,2023-01-12,株式会社テクノナガイソラーレ,,株式会社,新潟県,新潟市東区,中野山４丁目１６番１７号,,15,102,9500841,,,,,,,2023-01-12,1,,,,,テクノナガイソラーレ,0
1519,5110005016884,新規,0,2023-01-12,2023-01-12,一般社団法人障害者協働ネットワーク,,その他の設立登記法人,新潟県,長岡市,五反田町３６６番地１,,15,202,9402036,,,,,,,2023-01-12,1,,,,,ショウガイシャキョウドウネットワーク,0
1531,5120001251419,新規,0,2023-01-12,2023-01-12,楽栄株式会社,,株式会社,大阪府,大阪市浪速区,日本橋４丁目５番１号日本橋ガーデンユービル３Ｆ,,27,111,5560005,,,,,,,2023-01-12,1,,,,,ラクエイ,0
1532,5120001251567,新規,0,2023-01-12,2023-01-12,株式会社ひかり,,株式会社,大阪府,寝屋川市,萱島南町１３番１７号,,27,215,5720825,,,,,,,2023-01-12,1,,,,,ヒカリ,0
1533,5120001251658,新規,0,2023-01-12,2023-01-12,株式会社エマーブルコンサルティング,,株式会社,大阪府,大阪市中央区,淡路町２丁目５番８号船場ビルディング１０９,,27,128,5410047,,,,,,,2023-01-12,1,,,,,エマーブルコンサルティング,0
1534,5120001251699,新規,0,2023-01-12,2023-01-12,株式会社ＲＥＡＬ,,株式会社,大阪府,大阪市淀川区,木川東４丁目１２番２５号,,27,123,5320012,,,,,,,2023-01-12,1,,,,,リアル,0
1539,5120003023213,新規,0,2023-01-12,2023-01-12,未来合同会社,,合同会社,大阪府,大阪市住吉区,庭井１丁目１３－１２－２階,,27,120,5580012,,,,,,,2023-01-12,1,,,,,ミライ,0
1540,5120003023221,新規,0,2023-01-12,2023-01-12,ヤオルテック合同会社,,合同会社,大阪府,大阪市北区,梅田１丁目１‐３大阪駅前第３ビル２９階１‐１‐１号室,,27,127,5300001,,,,,,,2023-01-12,1,,,,,ヤオルテック,0
1543,5120101066790,新規,0,2023-01-12,2023-01-12,株式会社アールズエフ,,株式会社,大阪府,堺市西区,浜寺石津町西５丁１２番７－２号,,27,144,5928333,,,,,,,2023-01-12,1,,,,,アールズエフ,0
1544,5120101066799,新規,0,2023-01-12,2023-01-12,株式会社藤広,,株式会社,大阪府,岸和田市,三田町９１３番地の３,,27,202,5960808,,,,,,,2023-01-12,1,,,,,フジヒロ,0
1545,5120101066824,新規,0,2023-01-12,2023-01-12,株式会社ひらのコーポレーション,,株式会社,大阪府,堺市美原区,さつき野西２丁目４－１７,,27,147,5870031,,,,,,,2023-01-12,1,,,,,ヒラノコーポレーション,0
1546,5120901046959,新規,0,2023-01-12,2023-01-12,株式会社ここはる,,株式会社,大阪府,吹田市,古江台４丁目２番６０号,,27,205,5650874,,,,,,,2023-01-12,1,,,,,ココハル,0
1547,5120903004452,新規,0,2023-01-12,2023-01-12,合同会社ＣＬＯＵＤ,,合同会社,大阪府,摂津市,鳥飼和道２丁目４番８号,,27,224,5660073,,,,,,,2023-01-12,1,,,,,クラウド,0
1548,5122003002493,新規,0,2023-01-12,2023-01-12,合同会社ＷＩＬＬＤ,,合同会社,大阪府,四條畷市,田原台９丁目１番１０号,,27,229,5750013,,,,,,,2023-01-12,1,,,,,ウィルド,0
1554,5130001073449,新規,0,2023-01-12,2023-01-12,株式会社ＭＩＺＵＥ,,株式会社,京都府,京都市伏見区,深草西浦町４丁目５６番地１－２０１,,26,109,6120029,,,,,,,2023-01-12,1,,,,,ミズエ,0
1555,5130005016668,新規,0,2023-01-12,2023-01-12,医療法人京美会,,その他の設立登記法人,京都府,京都市中京区,御池通室町東入龍池町４４８番地２伊と幸ビル５階,,26,104,6048176,,,,,,,2023-01-12,1,,,,,キョウビカイ,0
1556,5130005016676,新規,0,2023-01-12,2023-01-12,司法書士法人ＳＥＥＤ,,その他の設立登記法人,京都府,京都市右京区,西院西田町５３番地１,,26,108,6150055,,,,,,,2023-01-12,1,,,,,シード,0
1561,5140001128607,新規,0,2023-01-12,2023-01-12,未来コネクト株式会社,,株式会社,兵庫県,神戸市長田区,東尻池町２丁目４－１３,,28,106,6530022,,,,,,,2023-01-12,1,,,,,ミライコネクト,0
1562,5140001128631,新規,0,2023-01-12,2023-01-12,ましろ株式会社,,株式会社,兵庫県,尼崎市,水堂町２丁目１９番２０号,,28,202,6610026,,,,,,,2023-01-12,1,,,,,マシロ,0
1563,5140001128680,新規,0,2023-01-12,2023-01-12,株式会社匠クリエイティブ,,株式会社,兵庫県,芦屋市,朝日ケ丘町８番１８－２０８号,,28,206,6590012,,,,,,,2023-01-12,1,,,,,タクミクリエイティブ,0
1566,5140003018533,新規,0,2023-01-12,2023-01-12,合同会社タロウフーズ,,合同会社,兵庫県,西宮市,中前田町３－８－１０１,,28,204,6620857,,,,,,,2023-01-12,1,,,,,タロウフーズ,0
1567,5140003018574,新規,0,2023-01-12,2023-01-12,合同会社ＡＺｓｈｉｐ,,合同会社,兵庫県,三田市,武庫が丘７丁目４番地Ａ－１棟２０１号,,28,219,6691544,,,,,,,2023-01-12,1,,,,,アズシップ,0
1568,5150001026074,新規,0,2023-01-12,2023-01-12,株式会社Ｇ．Ｃ．Ｓ,,株式会社,奈良県,生駒市,上町５０４,,29,209,6300131,,,,,,,2023-01-12,1,,,,,ジーシーエス,0
1575,5180001154293,新規,0,2023-01-12,2023-01-12,近産ＨＤ株式会社,,株式会社,愛知県,名古屋市南区,浜田町１丁目１０番地,,23,112,4570822,,,,,,,2023-01-12,1,,,,,コンサンエイチディ,0
1576,5180001154384,新規,0,2023-01-12,2023-01-12,親和余合トレーディング株式会社,,株式会社,愛知県,名古屋市中川区,八熊通５丁目３４番地,,23,110,4540035,,,,,,,2023-01-12,1,,,,,シンワヨゴウトレーディング,0
1577,5180001154467,新規,0,2023-01-12,2023-01-12,株式会社東海コーケン,,株式会社,愛知県,東海市,富木島町東長口８７番地１８,,23,222,4760011,,,,,,,2023-01-12,1,,,,,トウカイコーケン,0
1578,5180001154475,新規,0,2023-01-12,2023-01-12,株式会社ファインズ,,株式会社,愛知県,瀬戸市,山手町６０番地の１,,23,204,4890989,,,,,,,2023-01-12,1,,,,,ファインズ,0
1579,5180001154483,新規,0,2023-01-12,2023-01-12,株式会社ＧＹＭＮＡ,,株式会社,愛知県,名古屋市天白区,平針１丁目１４０５,,23,116,4680011,,,,,,,2023-01-12,1,,,,,ジムナ,0
1580,5180001154517,新規,0,2023-01-12,2023-01-12,株式会社名探エステート,,株式会社,愛知県,名古屋市中区,大須４丁目１３番３２号,,23,106,4600011,,,,,,,2023-01-12,1,,,,,メイタンエステート,0
1584,5180301036968,新規,0,2023-01-12,2023-01-12,５１ＷＯＲＫＳ株式会社,,株式会社,愛知県,みよし市,三好丘緑３丁目７番地２２,,23,236,4700205,,,,,,,2023-01-12,1,,,,,ファイブワンワークス,0
1585,5180301036976,新規,0,2023-01-12,2023-01-12,株式会社ＤＳ商店,,株式会社,愛知県,豊田市,大島町片平１１番地１０,,23,211,4730935,,,,,,,2023-01-12,1,,,,,ディーエスショウテン,0
1587,5180303005558,新規,0,2023-01-12,2023-01-12,合同会社つむぎ,,合同会社,愛知県,豊橋市,西浜町１５番地１６,,23,201,4410156,,,,,,,2023-01-12,1,,,,,ツムギ,0
1592,5200001040862,新規,0,2023-01-12,2023-01-12,株式会社ＬＯＯＰ,,株式会社,岐阜県,不破郡垂井町,表佐１３０５番地の１,,21,361,5032122,,,,,,,2023-01-12,1,,,,,ループ,0
1593,5200003005806,新規,0,2023-01-12,2023-01-12,合同会社ペテトテ,,合同会社,岐阜県,羽島市,江吉良町江中７丁目２４番地,,21,209,5016238,,,,,,,2023-01-12,1,,,,,ペテトテ,0
1595,5210001019204,新規,0,2023-01-12,2023-01-12,株式会社ＣＬ,,株式会社,福井県,鯖江市,吉谷町６１番地,,18,207,9161105,,,,,,,2023-01-12,1,,,,,シーエル,0
1596,5220001025226,新規,0,2023-01-12,2023-01-12,フレッシュストリート株式会社,,株式会社,石川県,野々市市,藤平田１丁目２４６番地,,17,212,9218832,,,,,,,2023-01-12,1,,,,,フレッシュストリート,0
1600,5230001019672,新規,0,2023-01-12,2023-01-12,株式会社ビッグバン,,株式会社,富山県,富山市,田中町５丁目５番１２－１０８号インペリアルハイツ,,16,201,9300985,,,,,,,2023-01-12,1,,,,,ビッグバン,0
1614,5240001060931,新規,0,2023-01-12,2023-01-12,株式会社ＲＩＴＯＲＵ　ＢＥＡＲ,,株式会社,広島県,東広島市,八本松町原８８３０番地１２,,34,212,7390151,,,,,,,2023-01-12,1,,,,,リトルベアー,0
1615,5250001019919,新規,0,2023-01-12,2023-01-12,株式会社西工業,,株式会社,山口県,岩国市,川下町１丁目４番９号,,35,208,7400023,,,,,,,2023-01-12,1,,,,,ニシコウギョウ,0
1618,5260001037548,新規,0,2023-01-12,2023-01-12,株式会社小椋土建,,株式会社,岡山県,津山市,小原３１０番地９,,33,203,7080001,,,,,,,2023-01-12,1,,,,,オグラドケン,0
1619,5260001037580,新規,0,2023-01-12,2023-01-12,ナノグラフィカ株式会社,,株式会社,岡山県,岡山市北区,一宮８６０－２,,33,101,7011211,,,,,,,2023-01-12,1,,,,,ナノグラフィカ,0
1621,5270001008705,新規,0,2023-01-12,2023-01-12,株式会社ＬＥＡ,,株式会社,鳥取県,倉吉市,上井３６１番地１,,31,203,6820021,,,,,,,2023-01-12,1,,,,,レア,0
1623,5290001100170,新規,0,2023-01-12,2023-01-12,空とぶふどうさん株式会社,,株式会社,福岡県,糟屋郡志免町,志免２丁目２６番１２号,,40,343,8112202,,,,,,,2023-01-12,1,,,,,ソラトブフドウサン,0
1626,5290005018905,新規,0,2023-01-12,2023-01-12,ＭＩＲＡＩ総合会計税理士法人,,その他の設立登記法人,福岡県,飯塚市,花瀬１１番地１,,40,205,8200045,,,,,,,2023-01-12,1,,,,,ミライソウゴウカイケイ,0
1628,5290801029213,新規,0,2023-01-12,2023-01-12,株式会社アールエム,,株式会社,福岡県,行橋市,大字今井３６７０番地５,,40,213,8240018,,,,,,,2023-01-12,1,,,,,アールエム,0
1633,5290805009624,新規,0,2023-01-12,2023-01-12,一般社団法人いきいきライフ協会北九州・京築,,その他の設立登記法人,福岡県,豊前市,大字八屋１５６５番地５,,40,214,8280021,,,,,,,2023-01-12,1,,,,,イキイキライフキョウカイキタキュウシュウケイチク,0
1634,5320003003987,新規,0,2023-01-12,2023-01-12,ＣＯＮＱＵＥＲ合同会社,,合同会社,大分県,大分市,中央町３丁目７番２１－１１０１号,,44,201,8700035,,,,,,,2023-01-12,1,,,,,コンカー,0
1636,5330001030479,新規,0,2023-01-12,2023-01-12,株式会社タスクル,,株式会社,熊本県,上益城郡山都町,柳井原６７１番地３,,43,447,8613903,,,,,,,2023-01-12,1,,,,,タスクル,0
1640,5340001025288,新規,0,2023-01-12,2023-01-12,株式会社リンクス,,株式会社,鹿児島県,出水市,高尾野町柴引５８４番地４,,46,208,8990402,,,,,,,2023-01-12,1,,,,,リンクス,0
1641,5340001025296,新規,0,2023-01-12,2023-01-12,株式会社日之出興産,,株式会社,鹿児島県,鹿児島市,紫原５丁目４４－３２,,46,201,8900082,,,,,,,2023-01-12,1,,,,,ヒノデコウサン,0
1643,5340003004018,新規,0,2023-01-12,2023-01-12,ＬａｕｇＨｔｅｒ合同会社,,合同会社,鹿児島県,奄美市,名瀬大熊町１４２４番地,,46,222,8940009,,,,,,,2023-01-12,1,,,,,ラフター,0
1645,5350001018134,新規,0,2023-01-12,2023-01-12,株式会社ＳＵＩＴＥＤ,,株式会社,宮崎県,宮崎市,清水２丁目２番２号,,45,201,8800021,,,,,,,2023-01-12,1,,,,,スーテッド,0
1650,5360001031367,新規,0,2023-01-12,2023-01-12,株式会社ＴＲＡＮＳ　ＺＥＲＯ,,株式会社,沖縄県,中頭郡中城村,字南上原９６３番２号１階,,47,328,9012424,,,,,,,2023-01-12,1,,,,,トランスゼロ,0
1651,5360001031400,新規,0,2023-01-12,2023-01-12,株式会社Ｓｃｈｏｏｌ　Ｎｉｎｊａ　Ｏｋｉｎａｗａ,,株式会社,沖縄県,中頭郡北谷町,字浜川２１７番地３（１－Ｂ）,,47,326,9040112,,,,,,,2023-01-12,1,,,,,スクールニンジャオキナワ,0
1656,5370001049482,新規,0,2023-01-12,2023-01-12,株式会社ｍｉｚｕｍｏｔｏ,,株式会社,宮城県,仙台市青葉区,大町２丁目５番１２号,,04,101,9800804,,,,,,,2023-01-12,1,,,,,ミズモト,0
1657,5370003005946,新規,0,2023-01-12,2023-01-12,合同会社たつや,,合同会社,宮城県,仙台市太白区,西の平１丁目１５－３２,,04,104,9820825,,,,,,,2023-01-12,1,,,,,タツヤ,0
1658,5380001033386,新規,0,2023-01-12,2023-01-12,株式会社Ｉｔ’ｓ　ｓｏ　ｙｏｕ,,株式会社,福島県,伊達市,柳内２番地３１,,07,213,9600483,,,,,,,2023-01-12,1,,,,,イッツソーユー,0
1659,5380001033394,新規,0,2023-01-12,2023-01-12,ビコーズ株式会社,,株式会社,福島県,いわき市,平泉崎字下百目木８５番地,,07,204,9700112,,,,,,,2023-01-12,1,,,,,ビコーズ,0
1660,5380001033403,新規,0,2023-01-12,2023-01-12,株式会社Ｆｏｒｔｕｎｅ,,株式会社,福島県,福島市,荒井字前川原６番地の１９,,07,201,9602156,,,,,,,2023-01-12,1,,,,,フォーチュン,0
1665,5390003002033,新規,0,2023-01-12,2023-01-12,合同会社和田重機,,合同会社,山形県,鶴岡市,稲生１丁目１７番４４－８号,,06,203,9970834,,,,,,,2023-01-12,1,,,,,ワダジュウキ,0
1670,5410001013368,新規,0,2023-01-12,2023-01-12,櫻田水道株式会社,,株式会社,秋田県,仙北市,田沢湖田沢字沼田７１番地,,05,215,0141204,,,,,,,2023-01-12,1,,,,,サクラダスイドウ,0
1677,5430001088152,新規,0,2023-01-12,2023-01-12,株式会社トレスフィア,,株式会社,北海道,登別市,若草町３丁目９番地１２,,01,230,0590035,,,,,,,2023-01-12,1,,,,,トレスフィア,0
1678,5430001088177,新規,0,2023-01-12,2023-01-12,株式会社ｃｏｎｎｅｃｔ　Ｋ,,株式会社,北海道,札幌市中央区,南二条西７丁目６番地２日宝南２条ビル１０階,,01,101,0600062,,,,,,,2023-01-12,1,,,,,コネクトケー,0
1681,5430003014619,新規,0,2023-01-12,2023-01-12,ククリテクノロジー合同会社,,合同会社,北海道,札幌市北区,北三十五条西５丁目２番７－４０３号,,01,102,0010035,,,,,,,2023-01-12,1,,,,,ククリテクノロジー,0
1682,5430005014625,新規,0,2023-01-12,2023-01-12,一般社団法人日本少年合唱協会,,その他の設立登記法人,北海道,札幌市北区,新川三条１５丁目７番７号,,01,102,0010923,,,,,,,2023-01-12,1,,,,,ニホンショウネンガッショウキョウカイ,0
1690,5470001019426,新規,0,2023-01-12,2023-01-12,スターファイア株式会社,,株式会社,香川県,高松市,太田上町１００９番地５,,37,201,7618074,,,,,,,2023-01-12,1,,,,,スターファイア,0
1696,5470003002330,新規,0,2023-01-12,2023-01-12,合同会社藤田自動車,,合同会社,香川県,仲多度郡琴平町,五條９８５番地６,,37,403,7660003,,,,,,,2023-01-12,1,,,,,フジタジドウシャ,0
1698,5500001024711,新規,0,2023-01-12,2023-01-12,株式会社Ｐａｒｔｙ　Ｋｉｎｇｓ,,株式会社,愛媛県,松山市,久米窪田町４２２番地９,,38,201,7911101,,,,,,,2023-01-12,1,,,,,パーティキングス,0
1700,5700150113682,新規,0,2023-01-12,2023-01-12,ＡＤＡＮＳＯＮＩＡ　Ａｎｓｔａｌｔ,,外国会社等,,,,,,,,リヒテンシュタイン公国、ファドーツ市ＦＬ－９４９０　オイレシュトラーセ５、アルゲマイネス・トロイウンターネーメン,,,,,,2023-01-12,1,,,,,アダンソニアアンシユタルト,0
1709,6010001232032,新規,0,2023-01-12,2023-01-12,株式会社Ｃａｌｉｃｏ＆Ｂｒｏｗｎ　Ｔａｂｂｙ,,株式会社,東京都,千代田区,神田須田町１丁目１８番６号第一谷ビル４階,,13,101,1010041,,,,,,,2023-01-12,1,,,,,キャリコアンドブラウンタビー,0
1710,6010001232073,新規,0,2023-01-12,2023-01-12,ＡＴ　ＬＡＳＴ株式会社,,株式会社,東京都,中央区,銀座１丁目２２番１１号銀座大竹ビジデンス２階,,13,102,1040061,,,,,,,2023-01-12,1,,,,,アットラスト,0
1712,6010003039558,新規,0,2023-01-12,2023-01-12,合同会社ライブラ,,合同会社,東京都,中央区,新川２丁目１９番６－５０１号,,13,102,1040033,,,,,,,2023-01-12,1,,,,,ライブラ,0
1713,6010005036090,新規,0,2023-01-12,2023-01-12,税理士法人品川みなと,,その他の設立登記法人,東京都,中央区,銀座８丁目１７番５号ＴＨＥＨＵＢ銀座ＯＣＴ３１８,,13,102,1040061,,,,,,,2023-01-12,1,,,,,シナガワミナト,0
1715,6010101015485,新規,0,2023-01-12,2023-01-12,ｉｎａｈｏ株式会社,,株式会社,東京都,八王子市,東町２番５号ＴＭビル４Ｆ,,13,201,1920082,,,,,,,2023-01-12,1,,,,,イナホ,0
1733,6010401171805,新規,0,2023-01-12,2023-01-12,株式会社ＰＡＲＡＤＥ,,株式会社,東京都,港区,南青山５丁目１４番１号,,13,103,1070062,,,,,,,2023-01-12,1,,,,,パレード,0
1742,6010403029282,新規,0,2023-01-12,2023-01-12,下京ホスピタリティ合同会社,,合同会社,東京都,港区,赤坂４丁目１番３１号,,13,103,1070052,,,,,,,2023-01-12,1,,,,,シモギョウホスピタリティ,0
1743,6010403029308,新規,0,2023-01-12,2023-01-12,スターアジア建物合同会社,,合同会社,東京都,港区,愛宕２丁目５番１号愛宕グリーンヒルズＭＯＲＩタワー１８階,,13,103,1050002,,,,,,,2023-01-12,1,,,,,スターアジアタテモノ,0
1745,6010501049851,新規,0,2023-01-12,2023-01-12,株式会社ｓｐｒｉｔｅ,,株式会社,東京都,台東区,寿２丁目８－１０－１２０１号リバーレ浅草ウエスト,,13,106,1110042,,,,,,,2023-01-12,1,,,,,スプライト,0
1746,6010505003375,新規,0,2023-01-12,2023-01-12,一般社団法人ドライブワン,,その他の設立登記法人,東京都,台東区,北上野２丁目６－１３－８０１,,13,106,1100014,,,,,,,2023-01-12,1,,,,,ドライブワン,0
1750,6010701043679,新規,0,2023-01-12,2023-01-12,ＡＭ　Ｄｅｓｉｇｎ株式会社,,株式会社,東京都,品川区,北品川５丁目１０番１－１１０号,,13,109,1410001,,,,,,,2023-01-12,1,,,,,エムデザイン,0
1751,6010701043695,新規,0,2023-01-12,2023-01-12,ホシザキ販売株式会社,,株式会社,東京都,品川区,西品川１丁目１番１号,,13,109,1410033,,,,,,,2023-01-12,1,,,,,ホシザキハンバイ,0
1752,6010701043704,新規,0,2023-01-12,2023-01-12,株式会社オブライト,,株式会社,東京都,品川区,旗の台２丁目１番２２号もとまる２号館５ＦＢ,,13,109,1420064,,,,,,,2023-01-12,1,,,,,オブライト,0
1753,6010701043712,新規,0,2023-01-12,2023-01-12,株式会社ＫＡＮＡＭＥ,,株式会社,東京都,品川区,東五反田２丁目１９番７－６０３号,,13,109,1410022,,,,,,,2023-01-12,1,,,,,カナメ,0
1756,6010703006527,新規,0,2023-01-12,2023-01-12,スペシャリティキャスト合同会社,,合同会社,東京都,品川区,東五反田２丁目３番５号五反田中央ビル７Ｆ,,13,109,1410022,,,,,,,2023-01-12,1,,,,,スペシャリティキャスト,0
1763,6010901052323,新規,0,2023-01-12,2023-01-12,株式会社イムー,,株式会社,東京都,世田谷区,松原６丁目２６番１５号ツルヤビル,,13,112,1560043,,,,,,,2023-01-12,1,,,,,イムー,0
1768,6011001151858,新規,0,2023-01-12,2023-01-12,Ｊ．Ｒｏｏｔｓ株式会社,,株式会社,東京都,渋谷区,松濤１丁目２８番２号,,13,113,1500046,,,,,,,2023-01-12,1,,,,,ジェイルーツ,0
1769,6011001151882,新規,0,2023-01-12,2023-01-12,エフト株式会社,,株式会社,東京都,目黒区,中目黒４丁目５番７号アーバン未来中目黒,,13,110,1530061,,,,,,,2023-01-12,1,,,,,エフト,0
1770,6011001151890,新規,0,2023-01-12,2023-01-12,株式会社ＡＩＬＭＥ,,株式会社,東京都,渋谷区,鉢山町９番１５,,13,113,1500035,,,,,,,2023-01-12,1,,,,,エイルミー,0
1771,6011001151899,新規,0,2023-01-12,2023-01-12,株式会社マーゴス,,株式会社,東京都,渋谷区,代々木５丁目５５番７号,,13,113,1510053,,,,,,,2023-01-12,1,,,,,マーゴス,0
1772,6011001151908,新規,0,2023-01-12,2023-01-12,株式会社スカイエージネクスト,,株式会社,東京都,渋谷区,代々木４丁目４１番７号,,13,113,1510053,,,,,,,2023-01-12,1,,,,,スカイエージネクスト,0
1773,6011001151916,新規,0,2023-01-12,2023-01-12,株式会社Ｎｉｔｏｌａｎｄ,,株式会社,東京都,目黒区,目黒本町４丁目１２番１５－１００１号ダイアパレス学芸大学ＩＩ,00129022,13,110,1520002,,,,,,,2023-01-12,1,,,,,ニトランド,0
1774,6011001151932,新規,0,2023-01-12,2023-01-12,株式会社青木,,株式会社,東京都,渋谷区,道玄坂２丁目８番８号,,13,113,1500043,,,,,,,2023-01-12,1,,,,,アオキ,0
1777,6011003016092,新規,0,2023-01-12,2023-01-12,合同会社Ｏｆｆｉｃｅ　Ｒｉｓｉｎｇ　Ｓｈｕｎ,,合同会社,東京都,渋谷区,神宮前６丁目２３番４号桑野ビル２階,,13,113,1500001,,,,,,,2023-01-12,1,,,,,オフィスライジングシュン,0
1782,6011101101416,新規,0,2023-01-12,2023-01-12,株式会社Ｃｉｎｄｅｒｅｌａｘ,,株式会社,東京都,新宿区,西早稲田１丁目２２－３早稲田大学１９－３号館アントレプレナーシップセンター１２室,,13,104,1690051,,,,,,,2023-01-12,1,,,,,シンデレラックス,0
1783,6011101101424,新規,0,2023-01-12,2023-01-12,株式会社ビスカ・インターナショナル,,株式会社,東京都,新宿区,新宿６丁目２４番２０号,,13,104,1600022,,,,,,,2023-01-12,1,,,,,ビスカインターナショナル,0
1784,6011101101432,新規,0,2023-01-12,2023-01-12,株式会社イロイト,,株式会社,東京都,新宿区,西新宿３丁目３番１３号西新宿水間ビル６Ｆ,,13,104,1600023,,,,,,,2023-01-12,1,,,,,イロイト,0
1785,6011103012578,新規,0,2023-01-12,2023-01-12,合同会社高英,00129035,合同会社,東京都,新宿区,北新宿１丁目１７番１－７０３号,,13,104,1690074,,,,,,,2023-01-12,1,,,,,コウエイ,0
1787,6011201024343,新規,0,2023-01-12,2023-01-12,株式会社ブランチ,,株式会社,東京都,中野区,弥生町１丁目１１番１４－３０３号,,13,114,1640013,,,,,,,2023-01-12,1,,,,,ブランチ,0
1793,6011303004631,新規,0,2023-01-12,2023-01-12,Ａｕｇｕｓｔ　Ｖｉｌｅｌｌａ合同会社,,合同会社,東京都,杉並区,和田３丁目１１番１９号,,13,115,1660012,,,,,,,2023-01-12,1,,,,,アウグスヴィレリャ,0
1794,6011401024812,新規,0,2023-01-12,2023-01-12,株式会社Ｐｅｌｕｃｈｅ,,株式会社,東京都,板橋区,徳丸３丁目２２番１８－１１１３号,,13,119,1750083,,,,,,,2023-01-12,1,,,,,プリューシュ,0
1795,6011401024829,新規,0,2023-01-12,2023-01-12,株式会社ＺｅｒｏＧ,,株式会社,東京都,板橋区,徳丸５丁目３１番１８－２０７号,,13,119,1750083,,,,,,,2023-01-12,1,,,,,ゼロジー,0
1798,6011603003795,新規,0,2023-01-12,2023-01-12,合同会社３３３,,合同会社,東京都,練馬区,土支田２丁目４－２２,,13,120,1790076,,,,,,,2023-01-12,1,,,,,サン,0
1799,6011703003357,新規,0,2023-01-12,2023-01-12,ＤＭＣ合同会社,,合同会社,東京都,江戸川区,瑞江３丁目１２番３号,,13,123,1320011,,,,,,,2023-01-12,1,,,,,ディーエムシー,0
1801,6011801041762,新規,0,2023-01-12,2023-01-12,株式会社Ａｚ,,株式会社,東京都,足立区,大谷田４丁目２番１４号,,13,121,1200001,,,,,,,2023-01-12,1,,,,,アズ,0
1802,6011801041779,新規,0,2023-01-12,2023-01-12,ＭＨ株式会社,,株式会社,東京都,足立区,栗原３丁目２６番１号２Ｆ,,13,121,1230842,,,,,,,2023-01-12,1,,,,,エムエイチ,0
1807,6012301005415,新規,0,2023-01-12,2023-01-12,日産チェリー町田販売株式会社,,株式会社,東京都,町田市,小川３丁目２番地１,,13,209,1940003,,,,,,,2023-01-12,1,,,,,,0
1809,6012401040064,新規,0,2023-01-12,2023-01-12,株式会社ＭＹ　ＧＲＥＥＮ,,株式会社,東京都,多摩市,連光寺２丁目３０番地の１３,,13,224,2060021,,,,,,,2023-01-12,1,,,,,マイグリーン,0
1811,6012801022067,新規,0,2023-01-12,2023-01-12,株式会社アクアマリンネットワークス,,株式会社,東京都,国立市,東１丁目１５番地の１１、４４８ビル３Ｆ,,13,215,1860002,,,,,,,2023-01-12,1,,,,,アクアマリンネットワークス,0
1812,6012801022075,新規,0,2023-01-12,2023-01-12,株式会社三坪,,株式会社,東京都,立川市,柴崎町３丁目３番４号英ビル１階,,13,202,1900023,,,,,,,2023-01-12,1,,,,,サンツボ,0
1813,6012803002950,新規,0,2023-01-12,2023-01-12,ＬＡＮＴＥＲＮ合同会社,,合同会社,東京都,国立市,東１丁目３番地の５,,13,215,1860002,,,,,,,2023-01-12,1,,,,,ランタン,0
1816,6013305003421,新規,0,2023-01-12,2023-01-12,弁護士法人池袋吉田総合法律事務所,,その他の設立登記法人,東京都,豊島区,南池袋３丁目１８番３６号富美栄ビル,,13,116,1710022,,,,,,,2023-01-12,1,,,,,イケブクロヨシダソウゴウホウリツジムショ,0
1824,6020001149705,新規,0,2023-01-12,2023-01-12,アントワープデザイン株式会社,,株式会社,神奈川県,川崎市高津区,子母口７１９番地５,,14,134,2130023,,,,,,,2023-01-12,1,,,,,アントワープ,0
1825,6020001149754,新規,0,2023-01-12,2023-01-12,株式会社オフィス遥子,,株式会社,神奈川県,横浜市西区,浅間町１丁目４番３号ウィザードビル４０２,,14,103,2200072,,,,,,,2023-01-12,1,,,,,ヨウコ,0
1826,6020001149762,新規,0,2023-01-12,2023-01-12,ドライブ株式会社,,株式会社,神奈川県,横浜市中区,池袋６１－９横濱山手テラス壱番館２０７,,14,104,2310834,,,,,,,2023-01-12,1,,,,,ドライブ,0
1827,6020001149770,新規,0,2023-01-12,2023-01-12,株式会社田中企画,,株式会社,神奈川県,横浜市神奈川区,栄町１０番地３５,,14,102,2210052,,,,,,,2023-01-12,1,,,,,タナカキカク,0
1828,6020001149779,新規,0,2023-01-12,2023-01-12,グローバルシステム株式会社,,株式会社,神奈川県,横浜市鶴見区,下野谷町３丁目８８番地１４ＭＫａｎｎｅｘ１Ｆ,,14,101,2300047,,,,,,,2023-01-12,1,,,,,グローバルシステム,0
1829,6020001149795,新規,0,2023-01-12,2023-01-12,株式会社Ｎｏｖａ　Ｃｌｅａｒｌｙ,,株式会社,神奈川県,横浜市西区,浅間町１丁目４番３号ウィザードビル４０２,,14,103,2200072,,,,,,,2023-01-12,1,,,,,ノバクリアリー,0
1832,6020003023057,新規,0,2023-01-12,2023-01-12,合同会社ＪＭＫ,,合同会社,神奈川県,横浜市港北区,日吉本町１丁目３番５号星野ビル４階,,14,109,2230062,,,,,,,2023-01-12,1,,,,,ジェイエムケイ,0
1833,6020003023073,新規,0,2023-01-12,2023-01-12,合同会社ベルプラム,,合同会社,神奈川県,横浜市港北区,下田町４丁目１番８－２０６号,,14,109,2230064,,,,,,,2023-01-12,1,,,,,ベルプラム,0
1834,6020003023107,新規,0,2023-01-12,2023-01-12,合同会社ｕｎｐａｉｎｔｅｄ,,合同会社,神奈川県,横浜市西区,浅間町２丁目１０１―６アース浅間町４０６号室,,14,103,2200072,,,,,,,2023-01-12,1,,,,,アンペインテッド,0
1837,6021003012413,新規,0,2023-01-12,2023-01-12,合同会社ベルソネティア,,合同会社,神奈川県,秦野市,千村１丁目３番７０号,,14,211,2591324,,,,,,,2023-01-12,1,,,,,ベルソネティア,0
1838,6021003012586,新規,0,2023-01-12,2023-01-12,ＤＯｕＨＯＰＥ合同会社,,合同会社,神奈川県,伊勢原市,高森３丁目１２番３８号アロース２０１号,,14,214,2591114,,,,,,,2023-01-12,1,,,,,ドゥーユーホープ,0
1839,6021003012603,新規,0,2023-01-12,2023-01-12,ＤＤＣ合同会社,,合同会社,神奈川県,藤沢市,片瀬海岸３丁目８番６～４号,,14,205,2510035,,,,,,,2023-01-12,1,,,,,ディーディーシー,0
1844,6030001151800,新規,0,2023-01-12,2023-01-12,ＳＴＥＰ株式会社,,株式会社,埼玉県,志木市,幸町１丁目８番５４号,,11,228,3530005,,,,,,,2023-01-12,1,,,,,ステップ,0
1845,6030001151817,新規,0,2023-01-12,2023-01-12,株式会社ＴＲＭ,,株式会社,埼玉県,越谷市,宮本町１丁目１２１エスポワァール１番館１０６号室,,11,222,3430806,,,,,,,2023-01-12,1,,,,,ティーアールエム,0
1846,6030001151833,新規,0,2023-01-12,2023-01-12,株式会社ＰＡＲＣ,,株式会社,埼玉県,志木市,本町５丁目２４－２１－３階,,11,228,3530004,,,,,,,2023-01-12,1,,,,,パーク,0
1847,6030001151882,新規,0,2023-01-12,2023-01-12,株式会社ＥＫ不動産,,株式会社,埼玉県,所沢市,東所沢５丁目２番地の６,,11,208,3590021,,,,,,,2023-01-12,1,,,,,イーケーフドウサン,0
1848,6030001151899,新規,0,2023-01-12,2023-01-12,株式会社Ｉ．,,株式会社,埼玉県,川口市,幸町３丁目１１番３号メモリー幸町１階,,11,203,3320016,,,,,,,2023-01-12,1,,,,,アイ,0
1849,6030001151908,新規,0,2023-01-12,2023-01-12,株式会社Ｓ‐ＴＨＲＩＶＥ,,株式会社,埼玉県,川口市,大字安行原１２５４番地の７,,11,203,3340057,,,,,,,2023-01-12,1,,,,,エススライブ,0
1850,6030003020887,新規,0,2023-01-12,2023-01-12,合同会社Ｓｔｕｄｉｏニューキャッスル,,合同会社,埼玉県,川口市,芝富士２丁目２番１０号第３芝富士ハイツ２０１号,,11,203,3330854,,,,,,,2023-01-12,1,,,,,スタジオニューキャッスル,0
1851,6030003020920,新規,0,2023-01-12,2023-01-12,Ｐｅａｋ　Ｐｅｒｆｏｒｍａｎｃｅ合同会社,,合同会社,埼玉県,さいたま市緑区,芝原３丁目２番６号池田ビル２０１,,11,109,3360917,,,,,,,2023-01-12,1,,,,,ピークパフォーマンス,0
1852,6030003020929,新規,0,2023-01-12,2023-01-12,合同会社ＭＡＴ,,合同会社,埼玉県,北本市,本宿２丁目８３番地１０グリーンヒル１０７,,11,233,3640005,,,,,,,2023-01-12,1,,,,,マット,0
1859,6040001126586,新規,0,2023-01-12,2023-01-12,株式会社こむかい興業,,株式会社,千葉県,四街道市,栗山９３８番地Ｄ２０２,,12,228,2840027,,,,,,,2023-01-12,1,,,,,コムカイコウギョウ,0
1860,6040001126628,新規,0,2023-01-12,2023-01-12,株式会社ＥＸＴＲＡ,,株式会社,千葉県,松戸市,五香南２丁目１１－６,,12,207,2702212,,,,,,,2023-01-12,1,,,,,エクストラ,0
1865,6040003021406,新規,0,2023-01-12,2023-01-12,合同会社Ｐｉｎｋ　Ｂｕｌｌ,,合同会社,千葉県,我孫子市,我孫子２丁目５番１１８号シティアＢ棟,,12,222,2701166,,,,,,,2023-01-12,1,,,,,ピンクブル,0
1866,6040003021637,新規,0,2023-01-12,2023-01-12,アクショントゥーライズ合同会社,,合同会社,千葉県,千葉市花見川区,西小中台５番１１棟５０４号,,12,102,2620016,,,,,,,2023-01-12,1,,,,,アクショントゥーライズ,0
1867,6040003021645,新規,0,2023-01-12,2023-01-12,合同会社ヒロマル,,合同会社,千葉県,印西市,木下東２丁目９－１４,,12,231,2701323,,,,,,,2023-01-12,1,,,,,ヒロマル,0
1868,6040003021661,新規,0,2023-01-12,2023-01-12,薫れい合同会社,,合同会社,千葉県,市川市,南行徳１丁目１２番１号コーポメルローズ４Ｆ,,12,203,2720138,,,,,,,2023-01-12,1,,,,,グレイ,0
1869,6040005021866,新規,0,2023-01-12,2023-01-12,弁理士法人玄,,その他の設立登記法人,千葉県,千葉市花見川区,検見川町３丁目３０３番地１０－５０４号,,12,102,2620023,,,,,,,2023-01-12,1,,,,,ゲン,0
1871,6050003007148,新規,0,2023-01-12,2023-01-12,ＴａｌｅｎｔＰｉｃｋｓ合同会社,,合同会社,茨城県,取手市,藤代南３丁目１１番地３２,,08,217,3001516,,,,,,,2023-01-12,1,,,,,タレントピックス,0
1873,6080001025405,新規,0,2023-01-12,2023-01-12,株式会社アール電設,,株式会社,静岡県,静岡市葵区,羽鳥６丁目５番２８号,,22,101,4211215,,,,,,,2023-01-12,1,,,,,アールデンセツ,0
1876,6080401026250,新規,0,2023-01-12,2023-01-12,トーカイシャッター工事株式会社,,株式会社,静岡県,湖西市,吉美１６７８番地の１,,22,221,4310441,,,,,,,2023-01-12,1,,,,,トーカイシャッターコウジ,0
1882,6100003006838,新規,0,2023-01-12,2023-01-12,合同会社ＨａＲｕ,,合同会社,長野県,下高井郡山ノ内町,大字平穏７１４８番地５幸の湯ホテル内,,20,561,3810401,,,,,,,2023-01-12,1,,,,,ハル,0
1883,6100005012958,新規,0,2023-01-12,2023-01-12,一般社団法人Ｕｔｅｋｉａｎｉ,,その他の設立登記法人,長野県,安曇野市,穂高有明４０８２番地１,,20,220,3998301,,,,,,,2023-01-12,1,,,,,ウテキアニ,0
1893,6120001251582,新規,0,2023-01-12,2023-01-12,東旭株式会社,,株式会社,大阪府,大阪市城東区,中浜１丁目１７－１４－２Ｄ,,27,118,5360024,,,,,,,2023-01-12,1,,,,,トウキョク,0
1894,6120001251616,新規,0,2023-01-12,2023-01-12,株式会社ＰＥＣＨＥ,,株式会社,大阪府,大阪市福島区,福島４丁目５番４３－１１０３号,,27,103,5530003,,,,,,,2023-01-12,1,,,,,ペシェ,0
1895,6120001251632,新規,0,2023-01-12,2023-01-12,株式会社永劫建設,,株式会社,大阪府,大阪市城東区,鴫野西５丁目１３番４３号,,27,118,5360014,,,,,,,2023-01-12,1,,,,,エイゴウケンセツ,0
1896,6120001251640,新規,0,2023-01-12,2023-01-12,株式会社スクィーズフィールド,,株式会社,大阪府,大阪市阿倍野区,播磨町１丁目２４番２０号,,27,119,5450022,,,,,,,2023-01-12,1,,,,,スクィーズフィールド,0
1897,6120001251673,新規,0,2023-01-12,2023-01-12,株式会社マルホーム,,株式会社,大阪府,大阪市旭区,清水２丁目１０－１８,,27,117,5350021,,,,,,,2023-01-12,1,,,,,マルホーム,0
1898,6120001251681,新規,0,2023-01-12,2023-01-12,株式会社ダイケン,,株式会社,大阪府,大阪市此花区,春日出中２丁目１８番１４号１階,,27,104,5540022,,,,,,,2023-01-12,1,,,,,ダイケン,0
1902,6120003023187,新規,0,2023-01-12,2023-01-12,合同会社ＦＩＶＥ　ＳＴＡＲＣＯＭＰＡＮＹ,,合同会社,大阪府,大阪市平野区,平野南２丁目５番１５号,,27,126,5470031,,,,,,,2023-01-12,1,,,,,ファイブスターカンパニー,0
1903,6120003023212,新規,0,2023-01-12,2023-01-12,ラヴィロマンチック合同会社,,合同会社,大阪府,大阪市北区,中之島３丁目１番８号,,27,127,5300005,,,,,,,2023-01-12,1,,,,,ラヴィロマンチック,0
1904,6120003023229,新規,0,2023-01-12,2023-01-12,合同会社曉,,合同会社,大阪府,大阪市浪速区,恵美須東１丁目１５－１－３０１,,27,111,5560002,,,,,,,2023-01-12,1,,,,,アカツキ,0
1907,6120101066798,新規,0,2023-01-12,2023-01-12,株式会社ＯＲｉｎｋ,,株式会社,大阪府,羽曳野市,南古市１丁目１３番１０号,,27,222,5830858,,,,,,,2023-01-12,1,,,,,オーリンク,0
1908,6120101066815,新規,0,2023-01-12,2023-01-12,株式会社そわか,,株式会社,大阪府,泉大津市,東豊中町２丁目２番５号,,27,206,5950021,,,,,,,2023-01-12,1,,,,,ソワカ,0
1914,6120901046966,新規,0,2023-01-12,2023-01-12,株式会社マイキャリア,,株式会社,大阪府,茨木市,下穂積１丁目２番５号５０９,,27,211,5670041,,,,,,,2023-01-12,1,,,,,マイキャリア,0
1915,6120901046974,新規,0,2023-01-12,2023-01-12,株式会社ｈｓｄｅｓｉｇｎ,,株式会社,大阪府,吹田市,垂水町３丁目２４番１４－７０７号,,27,205,5640062,,,,,,,2023-01-12,1,,,,,エイチエスデザイン,0
1916,6120901046982,新規,0,2023-01-12,2023-01-12,ＬＩＥＮＥＸ株式会社,,株式会社,大阪府,豊中市,庄本町２丁目５番１４号－２３,,27,203,5610835,,,,,,,2023-01-12,1,,,,,リアネック,0
1917,6120905006405,新規,0,2023-01-12,2023-01-12,一般社団法人タチカエル,,その他の設立登記法人,大阪府,豊中市,上野東１丁目６番１２号２Ｆ,,27,203,5600013,,,,,,,2023-01-12,1,,,,,タチカエル,0
1919,6122001036559,新規,0,2023-01-12,2023-01-12,株式会社都設計,,株式会社,大阪府,東大阪市,衣摺５丁目１７番２７号,,27,227,5770827,,,,,,,2023-01-12,1,,,,,ミヤコセッケイ,0
1920,6122001036567,新規,0,2023-01-12,2023-01-12,株式会社関西ユアイノベーションパートナー,,株式会社,大阪府,東大阪市,稲葉３丁目１６－１４,,27,227,5780925,,,,,,,2023-01-12,1,,,,,カンサイユアイノベーションパートナー,0
1921,6122001036575,新規,0,2023-01-12,2023-01-12,株式会社オヤツムギ,,株式会社,大阪府,四條畷市,大字中野４５－１,,27,229,5750053,,,,,,,2023-01-12,1,,,,,オヤツムギ,0
1923,6122003002484,新規,0,2023-01-12,2023-01-12,合同会社Ｊ　ｓｔｙｌｅ,,合同会社,大阪府,八尾市,福万寺町３丁目６７番地の３,,27,212,5810842,,,,,,,2023-01-12,1,,,,,ジェイスタイル,0
1927,6130001073489,新規,0,2023-01-12,2023-01-12,株式会社ライフケアアルク,,株式会社,京都府,京都市右京区,太秦安井春日町６番地,,26,108,6168062,,,,,,,2023-01-12,1,,,,,ライフケアアルク,0
1933,6140001128647,新規,0,2023-01-12,2023-01-12,中煤株式会社,,株式会社,兵庫県,神戸市兵庫区,上沢通７丁目２番５号,,28,105,6520046,,,,,,,2023-01-12,1,,,,,ナカバイ,0
1934,6140001128655,新規,0,2023-01-12,2023-01-12,株式会社ＢＥ‐Ｍａｒｋ,,株式会社,兵庫県,三田市,武庫が丘５丁目１番地,,28,219,6691544,,,,,,,2023-01-12,1,,,,,ビーマーク,0
1935,6140001128713,新規,0,2023-01-12,2023-01-12,株式会社ｂｅ,,株式会社,兵庫県,尼崎市,武庫之荘本町１丁目１４－２６ワコーレ武庫之荘本町４０５号,,28,202,6610031,,,,,,,2023-01-12,1,,,,,ビー,0
1936,6140001128721,新規,0,2023-01-12,2023-01-12,株式会社Ｇｌｕｔｅ,,株式会社,兵庫県,多可郡多可町,八千代区下三原７６２番地下三原団地１０号,,28,365,6770131,,,,,,,2023-01-12,1,,,,,グルート,0
1937,6140001128746,新規,0,2023-01-12,2023-01-12,株式会社ＫＯＭＩＫＥＮ,,株式会社,兵庫県,姫路市,白浜町甲２４７６番地１,,28,201,6728023,,,,,,,2023-01-12,1,,,,,コミケン,0
1939,6140003018565,新規,0,2023-01-12,2023-01-12,ｅｎｊｏｙ　ｍａｓｔｅｒｓ合同会社,,合同会社,兵庫県,西宮市,若草町２丁目８番１号,,28,204,6638181,,,,,,,2023-01-12,1,,,,,エンジョイマスターズ,0
1940,6140003018581,新規,0,2023-01-12,2023-01-12,合同会社足立健事務所,,合同会社,兵庫県,姫路市,元町１１３番地１－２０２号,,28,201,6700049,,,,,,,2023-01-12,1,,,,,アダチケンジムショ,0
1943,6160001024753,新規,0,2023-01-12,2023-01-12,株式会社ドリームカラーズ,,株式会社,滋賀県,彦根市,開出今町１７３３番地５,,25,202,5220056,,,,,,,2023-01-12,1,,,,,ドリームカラーズ,0
1944,6160001024761,新規,0,2023-01-12,2023-01-12,株式会社おうみＰＬＡＮＮＩＮＧ,,株式会社,滋賀県,栗東市,小野１５番地３１,,25,208,5203016,,,,,,,2023-01-12,1,,,,,オウミプランニング,0
1952,6180001154474,新規,0,2023-01-12,2023-01-12,株式会社知見鉄筋工業,,株式会社,愛知県,名古屋市南区,元桜田町２丁目２５番地,,23,112,4570032,,,,,,,2023-01-12,1,,,,,チミテッキンコウギョウ,0
1953,6180001154524,新規,0,2023-01-12,2023-01-12,株式会社タツダ,,株式会社,愛知県,愛西市,戸倉町中屋敷４２番地１,,23,232,4960933,,,,,,,2023-01-12,1,,,,,タツダ,0
1954,6180001154557,新規,0,2023-01-12,2023-01-12,株式会社ディパーチャーズ,,株式会社,愛知県,名古屋市守山区,西島町４番３４号,,23,113,4630015,,,,,,,2023-01-12,1,,,,,ディパーチャーズ,0
1955,6180003024700,新規,0,2023-01-12,2023-01-12,合同会社Ｇｌｏｂａｌ　ＳＣＥＮＴ,,合同会社,愛知県,春日井市,高蔵寺町４丁目２０－１７,,23,206,4870013,,,,,,,2023-01-12,1,,,,,グローバルセント,0
1956,6180003024709,新規,0,2023-01-12,2023-01-12,合同会社道設計,,合同会社,愛知県,岩倉市,石仏町長福寺１７０番地,,23,228,4820034,,,,,,,2023-01-12,1,,,,,,0
1957,6180301036950,新規,0,2023-01-12,2023-01-12,株式会社グッドスタイル,,株式会社,愛知県,蒲郡市,新井形町殿海道２５番地３,,23,214,4430051,,,,,,,2023-01-12,1,,,,,,0
1958,6180301036975,新規,0,2023-01-12,2023-01-12,株式会社ティズ,,株式会社,愛知県,岡崎市,中島町字戸井２番地４,,23,202,4440226,,,,,,,2023-01-12,1,,,,,ティズ,0
1962,6180303005557,新規,0,2023-01-12,2023-01-12,合同会社ＣＨＩＣＡＧＯ＆Ｃｏ．,,合同会社,愛知県,豊橋市,中岩田５丁目６番地４（Ｄ）,,23,201,4400832,,,,,,,2023-01-12,1,,,,,シカゴアンドコー,0
1963,6180303005565,新規,0,2023-01-12,2023-01-12,合同会社徳成,,合同会社,愛知県,岡崎市,西大友町字桃々木３５番地,,23,202,4440904,,,,,,,2023-01-12,1,,,,,トクナリ,0
1964,6180305009432,新規,0,2023-01-12,2023-01-12,行政書士法人ＨＲＭ,,その他の設立登記法人,愛知県,岡崎市,美合町字南屋敷２３番地,,23,202,4440802,,,,,,,2023-01-12,1,,,,,エイチアールエム,0
1965,6190001030088,新規,0,2023-01-12,2023-01-12,株式会社ガスコイン,,株式会社,三重県,桑名市,多度町小山２６４２番地（１１街区１６）,,24,205,5110105,,,,,,,2023-01-12,1,,,,,ガスコイン,0
1976,6230001019671,新規,0,2023-01-12,2023-01-12,東亜メンテ株式会社,,株式会社,富山県,富山市,下赤江町１丁目１２番５４号,,16,201,9300813,,,,,,,2023-01-12,1,,,,,トウアメンテ,0
1983,6240001060930,新規,0,2023-01-12,2023-01-12,ＫＥＮＮＹ　ＭＡＲＩＴＩＭＥ　ＳＥＲＶＩＣＥＳ株式会社,,株式会社,広島県,呉市,中央７丁目６番６－８０３号,,34,202,7370051,,,,,,,2023-01-12,1,,,,,ケニーマリタイムサービス,0
1984,6240001060939,新規,0,2023-01-12,2023-01-12,株式会社ＳＡＮＳＥＩ,,株式会社,広島県,三原市,宮沖２丁目１１番１１号フラットゥリーＫＥ・２号室,,34,204,7230016,,,,,,,2023-01-12,1,,,,,サンセイ,0
1988,6240003005966,新規,0,2023-01-12,2023-01-12,サン・トーク合同会社,,合同会社,広島県,広島市西区,小河内町２丁目２０番５号,,34,104,7330025,,,,,,,2023-01-12,1,,,,,サントーク,0
1991,6250001019918,新規,0,2023-01-12,2023-01-12,株式会社ＴＮ,,株式会社,山口県,宇部市,西宇部南４丁目１１番５－８０５号オーヴィジョン宇部駅前,,35,202,7590208,,,,,,,2023-01-12,1,,,,,ティーエヌ,0
1993,6260001037547,新規,0,2023-01-12,2023-01-12,ＡＣＴＩＶＥ株式会社,,株式会社,岡山県,岡山市北区,清輝橋３丁目８－１３－１００４,,33,101,7000861,,,,,,,2023-01-12,1,,,,,アクティブ,0
1994,6260001037571,新規,0,2023-01-12,2023-01-12,株式会社ＭＡＧＯＫＯＲＯ　Ａｓｓｅｔ　Ｌａｂ,,株式会社,岡山県,岡山市北区,田益４５４番地,,33,101,7011154,,,,,,,2023-01-12,1,,,,,マゴコロアセットラボ,0
1998,6260003004149,新規,0,2023-01-12,2023-01-12,合同会社ＫＫＭカンパニー,,合同会社,岡山県,岡山市東区,中川町１０７８番地７３,,33,103,7048176,,,,,,,2023-01-12,1,,,,,ケーケーエムカンパニー,0
1999,6260003004157,新規,0,2023-01-12,2023-01-12,ＮＴ．ＮＥＸＴ合同会社,,合同会社,岡山県,岡山市北区,駅前町１丁目８－１岡山新光ビル５Ｆ,,33,101,7000023,,,,,,,2023-01-12,1,,,,,エヌティネクスト,0
2001,6270001008704,新規,0,2023-01-12,2023-01-12,株式会社ＲＩＳＥ,,株式会社,鳥取県,倉吉市,北野２９７番地,,31,203,6820857,,,,,,,2023-01-12,1,,,,,ライズ,0
2008,6290001100194,新規,0,2023-01-12,2023-01-12,株式会社おおつかガーデンサービス,,株式会社,福岡県,嘉麻市,上４９０番地３,,40,227,8200311,,,,,,,2023-01-12,1,,,,,オオツカガーデンサービス,0
2011,6290003013411,新規,0,2023-01-12,2023-01-12,布一合同会社,,合同会社,福岡県,福岡市早良区,飯倉３丁目４５番１７号ファミールピネス原２０５号室,,40,137,8140161,,,,,,,2023-01-12,1,,,,,ヌノイチ,0
2012,6290005018904,新規,0,2023-01-12,2023-01-12,医療法人日浦矯正クリニック,,その他の設立登記法人,福岡県,福岡市中央区,渡辺通２丁目１番８２号電気ビル北館２階,,40,133,8100004,,,,,,,2023-01-12,1,,,,,ヒウラキョウセイクリニック,0
2015,6290803004295,新規,0,2023-01-12,2023-01-12,魁スマートオンライン合同会社,,合同会社,福岡県,中間市,土手ノ内１丁目３３番７号,,40,215,8090033,,,,,,,2023-01-12,1,,,,,サキガケスマートオンライン,0
2016,6320001019514,新規,0,2023-01-12,2023-01-12,オフィスＵ．Ｅ株式会社,,株式会社,大分県,大分市,汐見１丁目７番８号ＡＸＩＡ・Ｈ,,44,201,8700253,,,,,,,2023-01-12,1,,,,,オフィスユーイー,0
2018,6320003003986,新規,0,2023-01-12,2023-01-12,合同会社ひまわり,,合同会社,大分県,大分市,森町西２丁目６番２号,,44,201,8700140,,,,,,,2023-01-12,1,,,,,ヒマワリ,0
2025,6350003004255,新規,0,2023-01-12,2023-01-12,Ｍｅｒｃｉ合同会社,,合同会社,宮崎県,宮崎市,吉村町平塚甲１８２９番地１Ｆ,,45,201,8800841,,,,,,,2023-01-12,1,,,,,メルシー,0
2031,6360003012629,新規,0,2023-01-12,2023-01-12,合同会社Ｆｅｌｌｏｗｓ商会,,合同会社,沖縄県,中頭郡読谷村,字宇座１８６１,,47,324,9040328,,,,,,,2023-01-12,1,,,,,フェローズショウカイ,0
2035,6370001049424,新規,0,2023-01-12,2023-01-12,株式会社ｍａｕｖｅ東北,,株式会社,宮城県,柴田郡柴田町,大字本船迫字下町１２番地１４,,04,323,9891621,,,,,,,2023-01-12,1,,,,,モーヴトウホク,0
2036,6370001049432,新規,0,2023-01-12,2023-01-12,株式会社スエナガ,,株式会社,宮城県,仙台市泉区,南中山１丁目２７番地の２３,,04,105,9813213,,,,,,,2023-01-12,1,,,,,スエナガ,0
2037,6370001049449,新規,0,2023-01-12,2023-01-12,株式会社ＥＮＫＥＮ,,株式会社,宮城県,仙台市泉区,実沢字六堂屋敷１８番地,,04,105,9813217,,,,,,,2023-01-12,1,,,,,エンケン,0
2038,6370003005945,新規,0,2023-01-12,2023-01-12,合同会社しょうご,,合同会社,宮城県,仙台市太白区,西の平１丁目１５－３２,,04,104,9820825,,,,,,,2023-01-12,1,,,,,ショウゴ,0
2039,6370005010588,新規,0,2023-01-12,2023-01-12,社会保険労務士法人人財経営,,その他の設立登記法人,宮城県,仙台市若林区,荒井５丁目８番地の１,,04,103,9840032,,,,,,,2023-01-12,1,,,,,ジンザイケイエイ,0
2042,6380001033385,新規,0,2023-01-12,2023-01-12,株式会社綺隆総業,,株式会社,福島県,相馬市,中野字黒木田１５２－１市住Ｋ２－３０３,,07,209,9760037,,,,,,,2023-01-12,1,,,,,キリュウソウギョウ,0
2043,6380001033393,新規,0,2023-01-12,2023-01-12,内田ファーム株式会社,,株式会社,福島県,相馬郡新地町,谷地杉目字清水１０６番地,,07,561,9792700,,,,,,,2023-01-12,1,,,,,ウチダファーム,0
2044,6380001033402,新規,0,2023-01-12,2023-01-12,株式会社Ｐｒｉｎｃｅｓｓ,,株式会社,福島県,福島市,泉字一本橋１３番地の１ハイムソレイユＢ１０２,,07,201,9608253,,,,,,,2023-01-12,1,,,,,プリンセス,0
2048,6390003002032,新規,0,2023-01-12,2023-01-12,合同会社フリード・マン,,合同会社,山形県,最上郡大蔵村,大字合海１８７３－２,,06,365,9960211,,,,,,,2023-01-12,1,,,,,フリードマン,0
2050,6400003003020,新規,0,2023-01-12,2023-01-12,合同会社ＨＥＡＲＴ　ＯＦ　ＨＥＡＲＴＳ,,合同会社,岩手県,盛岡市,黒石野３丁目２４番４号,,03,201,0200111,,,,,,,2023-01-12,1,,,,,ハートオブハーツ,0
2051,6410001013367,新規,0,2023-01-12,2023-01-12,株式会社ジオプラン,,株式会社,秋田県,横手市,駅西２丁目６番１４号オフィスｓｅａｂｉｒｄ１－Ａ,,05,203,0130049,,,,,,,2023-01-12,1,,,,,ジオプラン,0
2054,6420001018118,新規,0,2023-01-12,2023-01-12,ｍｉｎｉｍａｒｕ　ｃｏｍｐａｎｙ株式会社,,株式会社,青森県,八戸市,江陽４丁目２番９号アンジェニュ１０１号室,,02,203,0310801,,,,,,,2023-01-12,1,,,,,ミニマルカンパニー,0
2055,6420003002648,新規,0,2023-01-12,2023-01-12,合同会社木村建築,,合同会社,青森県,青森市,大字浜田字豊田３８１番地,,02,201,0300843,,,,,,,2023-01-12,1,,,,,キムラケンチク,0
2056,6430001088192,新規,0,2023-01-12,2023-01-12,株式会社Ｉｎｆｉｇａｔｅ,,株式会社,北海道,札幌市東区,北八条東４丁目１－２０サツドラホールディング株式会社本社２階,,01,103,0600908,,,,,,,2023-01-12,1,,,,,インフィゲート,0
2060,6430003014618,新規,0,2023-01-12,2023-01-12,合同会社ＮｕＥｖｏ,,合同会社,北海道,札幌市中央区,北一条西２０丁目２番５号ラ・ヴェルト円山,,01,101,0640821,,,,,,,2023-01-12,1,,,,,ヌエボ,0
2061,6430003014626,新規,0,2023-01-12,2023-01-12,合同会社３６９,,合同会社,北海道,札幌市北区,篠路九条２丁目１１番２号,,01,102,0028029,,,,,,,2023-01-12,1,,,,,ミロク,0
2062,6430003014634,新規,0,2023-01-12,2023-01-12,合同会社なみき商会,,合同会社,北海道,室蘭市,小橋内町２丁目１３番４号,,01,205,0510033,,,,,,,2023-01-12,1,,,,,ナミキショウカイ,0
2063,6430005014624,新規,0,2023-01-12,2023-01-12,中空知水道事業協同組合,,その他の設立登記法人,北海道,滝川市,黄金町東３丁目４番３３号,,01,225,0730012,,,,,,,2023-01-12,1,,,,,ナカソラチスイドウジギョウ,0
2068,6470001019417,新規,0,2023-01-12,2023-01-12,株式会社グリーンズ,,株式会社,香川県,高松市,丸亀町７番地１６－１２０８,,37,201,7600029,,,,,,,2023-01-12,1,,,,,グリーンズ,0
2071,6480001011975,新規,0,2023-01-12,2023-01-12,株式会社徳島新聞販売下板センター,,株式会社,徳島県,徳島市,中徳島町２丁目５番地２,,36,201,7700853,,,,,,,2023-01-12,1,,,,,トクシマシンブンハンバイシモイタセンター,0
2072,6480003001917,新規,0,2023-01-12,2023-01-12,合同会社ＹＯＵ,,合同会社,徳島県,徳島市,佐古二番町１番１９号,,36,201,7700022,,,,,,,2023-01-12,1,,,,,ヨウ,0
2073,6700150113681,新規,0,2023-01-12,2023-01-12,ＳｅｌｌｅｒＸ　Ｃｏｍｍｅｒｃｅ　ＧｍｂＨ,,外国会社等,,,,,,,,Ｊ＿ｇｅｒｓｔｒａ＿ｅ　４１，１０１１７　Ｂｅｒｌｉｎ，Ｇｅｒｍａｎｙ,00129027,,,,,2023-01-12,1,,,,,セラーエツクスコマースゲーエムベーハー,0
2080,7010001232130,新規,0,2023-01-12,2023-01-12,Ｐｕｌｌｕｍ株式会社,,株式会社,東京都,中央区,日本橋小舟町９番３号,,13,102,1030024,,,,,,,2023-01-12,1,,,,,プルム,0
2084,7010105002198,新規,0,2023-01-12,2023-01-12,一般社団法人ほっこりａｎｄふわり,,その他の設立登記法人,東京都,八王子市,千人町３丁目１１番２号,,13,201,1930835,,,,,,,2023-01-12,1,,,,,ホッコリアンドフワリ,0
2101,7010401171746,新規,0,2023-01-12,2023-01-12,株式会社ＩＮＤＵＳＴＲＹ　ＢＡＢＹ,,株式会社,東京都,港区,三田１丁目３番４０－８０２号,,13,103,1080073,,,,,,,2023-01-12,1,,,,,インダストリーベイビー,0
2105,7010403029240,新規,0,2023-01-12,2023-01-12,Ａｌｌｅｇｉｓ　Ｇｌｏｂａｌ　Ｓｏｌｕｔｉｏｎｓ合同会社,,合同会社,東京都,港区,虎ノ門１丁目７番１２号虎ノ門ファーストガーデン９階,,13,103,1050001,,,,,,,2023-01-12,1,,,,,アレギスグローバルソリューションズ,0
2113,7010505003374,新規,0,2023-01-12,2023-01-12,ティーダ税理士法人,,その他の設立登記法人,東京都,台東区,上野３丁目１６番２号,,13,106,1100005,,,,,,,2023-01-12,1,,,,,ティーダ,0
2126,7011001151808,新規,0,2023-01-12,2023-01-12,株式会社Ｒｉｔｏｌｉａ,,株式会社,東京都,渋谷区,神泉町１０番１５号,,13,113,1500045,,,,,,,2023-01-12,1,,,,,リトリア,0
2127,7011001151881,新規,0,2023-01-12,2023-01-12,ＢＥＳＴ　ＳＨＯＴ　ＣＯＮＳＵＬＴＩＮＧ株式会社,,株式会社,東京都,目黒区,碑文谷１丁目９番１３号,,13,110,1520003,,,,,,,2023-01-12,1,,,,,ベストショットコンサルティング,0
2128,7011001151923,新規,0,2023-01-12,2023-01-12,株式会社Ｅａｓｔ　Ｄｉｇ　Ａｇｅｎｃｙ,,株式会社,東京都,渋谷区,恵比寿４丁目２０番４号恵比寿ガーデンプレイス,,13,113,1500013,,,,,,,2023-01-12,1,,,,,イーストディグエージェンシー,0
2129,7011001151956,新規,0,2023-01-12,2023-01-12,ＨＥＲＯＥＳ株式会社,,株式会社,東京都,渋谷区,道玄坂１丁目１０番８号渋谷道玄坂東急ビル２Ｆ－Ｃ,,13,113,1500043,,,,,,,2023-01-12,1,,,,,ヒーローズ,0
2130,7011003016059,新規,0,2023-01-12,2023-01-12,合同会社ＴＡＳＧＬＡＮＺ,,合同会社,東京都,渋谷区,道玄坂１丁目１０番８号渋谷道玄坂東急ビル２Ｆ－Ｃ,,13,113,1500043,,,,,,,2023-01-12,1,,,,,タスグランツ,0
2135,7011101101415,新規,0,2023-01-12,2023-01-12,株式会社クロシロサーブ,,株式会社,東京都,新宿区,四谷４丁目２９番地５ロジマン御苑５０３,,13,104,1600004,,,,,,,2023-01-12,1,,,,,クロシロサーブ,0
2136,7011101101423,新規,0,2023-01-12,2023-01-12,株式会社アールフェロー,,株式会社,東京都,新宿区,高田馬場１丁目２１番１０号豊電ビル,,13,104,1690075,,,,,,,2023-01-12,1,,,,,アールフェロー,0
2137,7011103012569,新規,0,2023-01-12,2023-01-12,合同会社Ｒ＆Ｄ　Ｃｏｍｍｕｎｉｃａｔｉｏｎ,,合同会社,東京都,新宿区,西落合２丁目２１－７,,13,104,1610031,,,,,,,2023-01-12,1,,,,,アールアンドディーコミュニケーション,0
2138,7011201024342,新規,0,2023-01-12,2023-01-12,株式会社アールエキスパート,,株式会社,東京都,中野区,白鷺３丁目１８番１号,,13,114,1650035,,,,,,,2023-01-12,1,,,,,アールエキスパート,0
2140,7011301028367,新規,0,2023-01-12,2023-01-12,株式会社アイシャ,,株式会社,東京都,杉並区,天沼１丁目１６番１号西南荘１号室,,13,115,1670032,,,,,,,2023-01-12,1,,,,,アイシャ,0
2142,7011601026500,新規,0,2023-01-12,2023-01-12,佐藤興業株式会社,,株式会社,東京都,練馬区,西大泉３丁目２８番１８号ディアス泉Ｂ－１０２,,13,120,1780065,,,,,,,2023-01-12,1,,,,,サトウコウギョウ,0
2145,7011703003356,新規,0,2023-01-12,2023-01-12,合同会社ＷＡＴＷＯＲＫＳ,,合同会社,東京都,江戸川区,南葛西７丁目１番６－４１７号,,13,123,1340085,,,,,,,2023-01-12,1,,,,,ワットワークス,0
2146,7011801041761,新規,0,2023-01-12,2023-01-12,斉藤工業株式会社,,株式会社,東京都,葛飾区,柴又６丁目４番３号,,13,122,1250052,,,,,,,2023-01-12,1,,,,,サイトウコウギョウ,0
2147,7011803005459,新規,0,2023-01-12,2023-01-12,合同会社クスダマ,,合同会社,東京都,葛飾区,お花茶屋２丁目１７番７号,,13,122,1240003,,,,,,,2023-01-12,1,,,,,クスダマ,0
2148,7012303001766,新規,0,2023-01-12,2023-01-12,ブレスト合同会社,,合同会社,東京都,町田市,つくし野２丁目９番地４,,13,209,1940001,,,,,,,2023-01-12,1,,,,,ブレスト,0
2151,7012401040063,新規,0,2023-01-12,2023-01-12,株式会社グラフィカ,,株式会社,東京都,調布市,多摩川１丁目２９番地７,,13,208,1820025,,,,,,,2023-01-12,1,,,,,グラフィカ,0
2156,7012701017422,新規,0,2023-01-12,2023-01-12,株式会社Ｈｙｓｔｅｒｉｃａ,,株式会社,東京都,西東京市,富士町４丁目１２番７号,,13,229,2020014,,,,,,,2023-01-12,1,,,,,ヒステリカ,0
2159,7012801022074,新規,0,2023-01-12,2023-01-12,株式会社マナジス,,株式会社,東京都,東大和市,立野２丁目３番地の１１ジャスティス１Ｆ,,13,220,2070021,,,,,,,2023-01-12,1,,,,,マナジス,0
2160,7012803002974,新規,0,2023-01-12,2023-01-12,合同会社Ｌｉｆｅ　Ｈａｒｍｏｎｙ,,合同会社,東京都,国分寺市,西恋ヶ窪４丁目２４番地３５,,13,214,1850013,,,,,,,2023-01-12,1,,,,,ライフハーモニー,0
2176,7020001149729,新規,0,2023-01-12,2023-01-12,株式会社Ｓｏｃｉｏｓ,,株式会社,神奈川県,川崎市川崎区,藤崎４丁目４番６－３０４号グレースコート,,14,131,2100804,,,,,,,2023-01-12,1,,,,,,0
2177,7020001149761,新規,0,2023-01-12,2023-01-12,Ｍｏｖｅ　ｆｏｒ　Ｐｅｏｐｌｅ株式会社,,株式会社,神奈川県,横浜市西区,北幸２丁目１０－２８むつみビル３Ｆ,,14,103,2200004,,,,,,,2023-01-12,1,,,,,ムーブフォーピープル,0
2178,7020001149778,新規,0,2023-01-12,2023-01-12,株式会社ＶＡＬＬＥＴＴＡ,,株式会社,神奈川県,横浜市都筑区,中川中央１丁目３７番５号,,14,118,2240003,,,,,,,2023-01-12,1,,,,,バレッタ,0
2185,7021001077837,新規,0,2023-01-12,2023-01-12,株式会社ＴＲＥＩＺＥ,,株式会社,神奈川県,秦野市,渋沢７８４番地の３０,,14,211,2591322,,,,,,,2023-01-12,1,,,,,トレーズ,0
2186,7021001077861,新規,0,2023-01-12,2023-01-12,宏勝株式会社,,株式会社,神奈川県,相模原市中央区,鹿沼台１丁目１１番７－３０２号室,,14,152,2520233,,,,,,,2023-01-12,1,,,,,コウショウ,0
2187,7021001077903,新規,0,2023-01-12,2023-01-12,株式会社丸二,,株式会社,神奈川県,小田原市,堀之内２５５番地の８,,14,206,2500853,,,,,,,2023-01-12,1,,,,,マルニ,0
2188,7021003012585,新規,0,2023-01-12,2023-01-12,ＡＭＡＴＥＲＡＳ合同会社,,合同会社,神奈川県,鎌倉市,材木座４丁目１番７号,,14,204,2480013,,,,,,,2023-01-12,1,,,,,アマテラス,0
2195,7030001151808,新規,0,2023-01-12,2023-01-12,株式会社鈴木農産,,株式会社,埼玉県,羽生市,南羽生４丁目２０番地４,,11,216,3480071,,,,,,,2023-01-12,1,,,,,スズキノウサン,0
2196,7030001151849,新規,0,2023-01-12,2023-01-12,エスケープランニング株式会社,,株式会社,埼玉県,戸田市,早瀬２丁目２７番７号,,11,224,3350036,,,,,,,2023-01-12,1,,,,,エスケープランニング,0
2197,7030001151857,新規,0,2023-01-12,2023-01-12,Ｒｅｆｉｎｅ　Ｐｏｓｓｉｂｌｅ株式会社,,株式会社,埼玉県,草加市,中央１丁目１番１６号,,11,221,3400016,,,,,,,2023-01-12,1,,,,,リファインポッシブル,0
2198,7030001151873,新規,0,2023-01-12,2023-01-12,株式会社ＣＥＬ,,株式会社,埼玉県,大里郡寄居町,大字鉢形２７８番地６,,11,408,3691224,,,,,,,2023-01-12,1,,,,,シーイーエル,0
2199,7030001151881,新規,0,2023-01-12,2023-01-12,株式会社ＦＲＥＥ　ＳＴＹＬＥ,,株式会社,埼玉県,新座市,野火止８丁目９番３－６０６号,,11,230,3520011,,,,,,,2023-01-12,1,,,,,フリースタイル,0
2200,7030001151898,新規,0,2023-01-12,2023-01-12,株式会社薬局サポーター,,株式会社,埼玉県,桶川市,西１丁目１番１１号,,11,231,3630017,,,,,,,2023-01-12,1,,,,,ヤッキョクサポーター,0
2201,7030001151907,新規,0,2023-01-12,2023-01-12,株式会社アイワ,,株式会社,埼玉県,行田市,大字堤根１０６９番地１,,11,206,3610035,,,,,,,2023-01-12,1,,,,,アイワ,0
2203,7030003020936,新規,0,2023-01-12,2023-01-12,合同会社ＣＬＣ,,合同会社,埼玉県,入間市,黒須１丁目１２入間黒須１－２２１,,11,225,3580007,,,,,,,2023-01-12,1,,,,,シーエルシー,0
2204,7030003020944,新規,0,2023-01-12,2023-01-12,ＮＫ２合同会社,,合同会社,埼玉県,川口市,西川口２丁目２番１８－１０５号サンイング西川口,,11,203,3320021,,,,,,,2023-01-12,1,,,,,エヌケーツー,0
2210,7040001126569,新規,0,2023-01-12,2023-01-12,株式会社ＦＥＬＩＸ,,株式会社,千葉県,船橋市,湊町２丁目１２番２４号湊町日本橋ビル６階,,12,204,2730011,,,,,,,2023-01-12,1,,,,,フェリクス,0
2211,7040001126593,新規,0,2023-01-12,2023-01-12,株式会社櫻井興業,,株式会社,千葉県,八千代市,島田台７４１番地３４,,12,221,2760004,,,,,,,2023-01-12,1,,,,,サクライコウギョウ,0
2212,7040001126602,新規,0,2023-01-12,2023-01-12,株式会社イクスロジスティクス,,株式会社,千葉県,市川市,北方町４丁目１８６９－１ｗｅｌｌｓ２１－Ｂ号棟,,12,203,2720811,,,,,,,2023-01-12,1,,,,,イクスロジスティクス,0
2213,7040001126619,新規,0,2023-01-12,2023-01-12,信家不動産株式会社,,株式会社,千葉県,習志野市,藤崎２丁目１３番５号,,12,216,2750017,,,,,,,2023-01-12,1,,,,,シンヤフドウサン,0
2215,7040005021857,新規,0,2023-01-12,2023-01-12,社会保険労務士法人あいわ会,,その他の設立登記法人,千葉県,流山市,南流山２丁目２８番３号,,12,220,2700163,,,,,,,2023-01-12,1,,,,,アイワカイ,0
2223,7060001035594,新規,0,2023-01-12,2023-01-12,ＦＴＨ株式会社,,株式会社,栃木県,宇都宮市,江野町５番１１号,,09,201,3200802,,,,,,,2023-01-12,1,,,,,エフティーエイチ,0
2224,7070001040008,新規,0,2023-01-12,2023-01-12,サンビックス株式会社,,株式会社,群馬県,沼田市,戸鹿野町３９１番地８,,10,206,3780015,,,,,,,2023-01-12,1,,,,,サンビックス,0
2227,7080001025404,新規,0,2023-01-12,2023-01-12,株式会社友喜,,株式会社,静岡県,静岡市駿河区,小黒２丁目６番７号,,22,102,4228072,,,,,,,2023-01-12,1,,,,,ユウキ,0
2229,7080105006309,新規,0,2023-01-12,2023-01-12,Ｌｉｎｋｅｒ協同組合,,その他の設立登記法人,静岡県,駿東郡清水町,八幡４５番地の１,,22,341,4110906,,,,,,,2023-01-12,1,,,,,リンカー,0
2232,7090001017929,新規,0,2023-01-12,2023-01-12,天野保建築株式会社,,株式会社,山梨県,富士吉田市,上吉田東３丁目６番７号,,19,202,4030032,,,,,,,2023-01-12,1,,,,,アマノタモツケンチク,0
2234,7100001036035,新規,0,2023-01-12,2023-01-12,宮島鉄筋株式会社,,株式会社,長野県,松本市,大字和田１２５６番地１,,20,202,3901242,,,,,,,2023-01-12,1,,,,,ミヤジマテッキン,0
2235,7100001036043,新規,0,2023-01-12,2023-01-12,株式会社カルチバフローレス,,株式会社,長野県,上伊那郡箕輪町,大字中箕輪１６１１４番地１,,20,383,3994601,,,,,,,2023-01-12,1,,,,,カルチバフローレス,0
2237,7100003006837,新規,0,2023-01-12,2023-01-12,アトリエ・カムイ合同会社,,合同会社,長野県,北佐久郡軽井沢町,大字追分１４２５番地９,,20,321,3890115,,,,,,,2023-01-12,1,,,,,アトリエカムイ,0
2238,7110001037230,新規,0,2023-01-12,2023-01-12,越善フードサービス株式会社,,株式会社,新潟県,上越市,大和１丁目１番２１号,,15,222,9430861,,,,,,,2023-01-12,1,,,,,エチゼンフードサービス,0
2251,7120001251656,新規,0,2023-01-12,2023-01-12,エヌエヌツール株式会社,,株式会社,大阪府,大阪市鶴見区,鶴見６丁目６番４６号,,27,124,5380053,,,,,,,2023-01-12,1,,,,,エヌエヌツール,0
2252,7120001251664,新規,0,2023-01-12,2023-01-12,株式会社ＰｌｕｓＴｏｍ,,株式会社,大阪府,大阪市中央区,日本橋２丁目１５番１７号,,27,128,5420073,,,,,,,2023-01-12,1,,,,,プラストム,0
2253,7120001251672,新規,0,2023-01-12,2023-01-12,ＨＩＲＡＫＵ国際株式会社,,株式会社,大阪府,大阪市中央区,大手通１丁目４番１号ニュー大手ビル４０２号室,,27,128,5400021,,,,,,,2023-01-12,1,,,,,ヒラクコクサイ,0
2258,7120005023390,新規,0,2023-01-12,2023-01-12,税理士法人剱,00129018,その他の設立登記法人,大阪府,大阪市北区,西天満５丁目９番７号,,27,127,5300047,,,,,,,2023-01-12,1,,,,,ツルギ,0
2261,7120101066797,新規,0,2023-01-12,2023-01-12,株式会社アンテ,,株式会社,大阪府,松原市,小川５丁目２７番１５号,,27,217,5800002,,,,,,,2023-01-12,1,,,,,アンテ,0
2262,7120101066806,新規,0,2023-01-12,2023-01-12,株式会社エース・Ａ,,株式会社,大阪府,藤井寺市,藤井寺３丁目４番４３－４０３号,,27,226,5830024,,,,,,,2023-01-12,1,,,,,エースエー,0
2263,7120101066814,新規,0,2023-01-12,2023-01-12,未来株式会社,,株式会社,大阪府,和泉市,弥生町２丁目１２番２４号,,27,219,5940061,,,,,,,2023-01-12,1,,,,,ミライ,0
2266,7120103005010,新規,0,2023-01-12,2023-01-12,合同会社スワテック,,合同会社,大阪府,泉佐野市,佐野台２０番地の４２,,27,213,5980075,,,,,,,2023-01-12,1,,,,,スワテック,0
2273,7120901046981,新規,0,2023-01-12,2023-01-12,株式会社蕾,,株式会社,大阪府,茨木市,下穂積１丁目３番１号１,,27,211,5670041,,,,,,,2023-01-12,1,,,,,ツボミ,0
2275,7122001036558,新規,0,2023-01-12,2023-01-12,株式会社ワンナックフーズ,,株式会社,大阪府,東大阪市,足代新町１７番１０号第二新町ビル４０１号,,27,227,5770057,,,,,,,2023-01-12,1,,,,,ワンナックフーズ,0
2276,7122001036574,新規,0,2023-01-12,2023-01-12,株式会社アクシス,,株式会社,大阪府,柏原市,大県３丁目４番１６号,,27,221,5820018,,,,,,,2023-01-12,1,,,,,アクシス,0
2277,7122001036582,新規,0,2023-01-12,2023-01-12,株式会社タムラエステート,,株式会社,大阪府,東大阪市,下小阪５丁目１番２１号,,27,227,5770803,,,,,,,2023-01-12,1,,,,,タムラエステート,0
2289,7140001128638,新規,0,2023-01-12,2023-01-12,株式会社Ｔ．,,株式会社,兵庫県,芦屋市,東芦屋町１６番５５－２０２号,00129016,28,206,6590095,,,,,,,2023-01-12,1,,,,,ティードット,0
2290,7140001128662,新規,0,2023-01-12,2023-01-12,株式会社トォル,,株式会社,兵庫県,尼崎市,次屋３丁目６番４４号,,28,202,6610965,,,,,,,2023-01-12,1,,,,,トオル,0
2291,7140001128687,新規,0,2023-01-12,2023-01-12,株式会社Ａｒｄｏｒｅ,,株式会社,兵庫県,神戸市中央区,二宮町１丁目４番７－６０２号,,28,110,6510093,,,,,,,2023-01-12,1,,,,,アルドーレ,0
2292,7140001128695,新規,0,2023-01-12,2023-01-12,ＴＨＥ　ＢＬＵＥ株式会社,,株式会社,兵庫県,神戸市西区,井吹台西町６丁目４３番地３８号,,28,111,6512243,,,,,,,2023-01-12,1,,,,,ザブルー,0
2293,7140001128712,新規,0,2023-01-12,2023-01-12,株式会社ＪＦＯジャパン,,株式会社,兵庫県,神戸市中央区,磯上通８丁目１－１テッケンビル６Ｆ,,28,110,6510086,,,,,,,2023-01-12,1,,,,,ジェイエフオージャパン,0
2294,7140001128729,新規,0,2023-01-12,2023-01-12,株式会社Ｕｌａｃａｍｅｌｏｎ,,株式会社,兵庫県,高砂市,阿弥陀１丁目１７番２１号,,28,216,6760815,,,,,,,2023-01-12,1,,,,,ユーラカメロン,0
2297,7140005026441,新規,0,2023-01-12,2023-01-12,特定非営利活動法人運転事故防止推進協議会,,その他の設立登記法人,兵庫県,神戸市東灘区,本山南町３丁目６番１６－５０２号,,28,101,6580015,,,,,,,2023-01-12,1,,,,,ウンテンジコボウシスイシンキョウギカイ,0
2298,7150001026072,新規,0,2023-01-12,2023-01-12,株式会社リール,,株式会社,奈良県,奈良市,百楽園５丁目５番４－１０２号,,29,201,6310024,,,,,,,2023-01-12,1,,,,,リール,0
2299,7150001026080,新規,0,2023-01-12,2023-01-12,株式会社ＯＢＪＥ　ＧＲＯＵＰ,,株式会社,奈良県,奈良市,大宮町６丁目９番地の６ａｘｅ大宮３０１号,,29,201,6308115,,,,,,,2023-01-12,1,,,,,オブジェグループ,0
2300,7150003002856,新規,0,2023-01-12,2023-01-12,ノースフィールド合同会社,,合同会社,奈良県,北葛城郡河合町,大字佐味田４８０番地２Ｆ,,29,427,6360062,,,,,,,2023-01-12,1,,,,,ノースフィールド,0
2302,7160001024760,新規,0,2023-01-12,2023-01-12,八日市急配株式会社,,株式会社,滋賀県,東近江市,今堀町３８０番地４,,25,213,5270071,,,,,,,2023-01-12,1,,,,,ヨウカイチキュウハイ,0
2306,7180001154473,新規,0,2023-01-12,2023-01-12,株式会社ウイングビレジ,,株式会社,愛知県,名古屋市中村区,大日町１０番２６号,,23,105,4530034,,,,,,,2023-01-12,1,,,,,ウイングビレジ,0
2307,7180001154481,新規,0,2023-01-12,2023-01-12,株式会社ＱｕａｌｉｔｙＳｔａｒｔ,,株式会社,愛知県,名古屋市中村区,下広井町１丁目１４－８,,23,105,4500006,,,,,,,2023-01-12,1,,,,,クオリティスタート,0
2308,7180001154564,新規,0,2023-01-12,2023-01-12,株式会社ＯＮＥＳ　ｆｏｒｗａｒｄ,,株式会社,愛知県,知多郡東浦町,大字緒川字肥後原１番地の４９,,23,442,4702102,,,,,,,2023-01-12,1,,,,,ワンスフォワード,0
2310,7180003024699,新規,0,2023-01-12,2023-01-12,Ｐ．Ｍ．Ｐ合同会社,,合同会社,愛知県,名古屋市中川区,小本１丁目５番５号,,23,110,4540828,,,,,,,2023-01-12,1,,,,,ピーエムピー,0
2311,7180003024708,新規,0,2023-01-12,2023-01-12,合同会社Ｂａｃｋ　Ｄｏｏｒ,,合同会社,愛知県,名古屋市熱田区,古新町２丁目９７番地（セレーノ古新１０３号）,,23,109,4560064,,,,,,,2023-01-12,1,,,,,バックドア,0
2312,7180301036966,新規,0,2023-01-12,2023-01-12,ｋａｒｕ株式会社,,株式会社,愛知県,刈谷市,泉田町池之浦１０番地,,23,210,4480004,,,,,,,2023-01-12,1,,,,,,0
2313,7180301036990,新規,0,2023-01-12,2023-01-12,株式会社クラウドナインラボ,,株式会社,愛知県,安城市,東栄町２丁目８番１４号,,23,212,4460007,,,,,,,2023-01-12,1,,,,,クラウドナインラボ,0
2314,7190001030062,新規,0,2023-01-12,2023-01-12,株式会社ＮＥＸＥＥＤ,,株式会社,三重県,伊勢市,宮後１丁目１－３５－１１０２,,24,203,5160072,,,,,,,2023-01-12,1,,,,,ネクシード,0
2315,7190001030087,新規,0,2023-01-12,2023-01-12,株式会社末松工業,,株式会社,三重県,四日市市,山城町２７１番地２,,24,202,5128048,,,,,,,2023-01-12,1,,,,,スエマツコウギョウ,0
2316,7190001030104,新規,0,2023-01-12,2023-01-12,株式会社内村工業,,株式会社,三重県,三重郡朝日町,大字柿１１６１番地１,,24,343,5108103,,,,,,,2023-01-12,1,,,,,ウチムラコウギョウ,0
2318,7190003004188,新規,0,2023-01-12,2023-01-12,合同会社楽田ホールディングス,,合同会社,三重県,鈴鹿市,広瀬町２００４番地の２,,24,207,5130001,,,,,,,2023-01-12,1,,,,,ラクダホールディングス,0
2319,7190003004196,新規,0,2023-01-12,2023-01-12,合同会社Ｋａｋａ．Ｅｌａｍａ,,合同会社,三重県,鈴鹿市,岸岡町３０８５－２,,24,207,5100226,,,,,,,2023-01-12,1,,,,,カカエラマ,0
2323,7200003005795,新規,0,2023-01-12,2023-01-12,合同会社Ｄｈａｒｍａｈｎ岐阜,,合同会社,岐阜県,岐阜市,柳津町本郷５丁目８０番地４,,21,201,5016104,,,,,,,2023-01-12,1,,,,,ダルマンギフ,0
2324,7220001025224,新規,0,2023-01-12,2023-01-12,株式会社大崎興業,00129014,株式会社,石川県,金沢市,福久１丁目１５番地,,17,201,9203126,,,,,,,2023-01-12,1,,,,,オオサキコウギョウ,0
2326,7230001019670,新規,0,2023-01-12,2023-01-12,株式会社ｃａｒ‐ＲＥＮ,,株式会社,富山県,高岡市,本郷２丁目３２７番地３,,16,202,9330947,,,,,,,2023-01-12,1,,,,,カーレン,0
2335,7240001060938,新規,0,2023-01-12,2023-01-12,株式会社籠や,,株式会社,広島県,広島市東区,山根町２８番３２－７０２号,,34,102,7320048,,,,,,,2023-01-12,1,,,,,カゴヤ,0
2336,7240001060946,新規,0,2023-01-12,2023-01-12,株式会社マーベラス,,株式会社,広島県,尾道市,高須町１４３６番地,,34,205,7290141,,,,,,,2023-01-12,1,,,,,マーベラス,0
2340,7240003005965,新規,0,2023-01-12,2023-01-12,ヴィファレット合同会社,,合同会社,広島県,尾道市,美ノ郷町三成２１６番地４,,34,205,7220215,,,,,,,2023-01-12,1,,,,,ヴィファレット,0
2345,7260001037579,新規,0,2023-01-12,2023-01-12,株式会社貴成,,株式会社,岡山県,倉敷市,船穂町柳井原２３２２番地５,,33,202,7100263,,,,,,,2023-01-12,1,,,,,タカセイ,0
2348,7260003004156,新規,0,2023-01-12,2023-01-12,合同会社Ａ‐Ｋａｔｚｅ,,合同会社,岡山県,岡山市北区,出石町１丁目２番７号,,33,101,7000812,,,,,,,2023-01-12,1,,,,,アーカッツェ,0
2349,7270001008703,新規,0,2023-01-12,2023-01-12,株式会社Ｏｎｅ　Ｈｅａｒｔ,,株式会社,鳥取県,境港市,中野町４７番地,,31,204,6840041,,,,,,,2023-01-12,1,,,,,ワンハート,0
2353,7290001100053,新規,0,2023-01-12,2023-01-12,睿珂株式会社,,株式会社,福岡県,福岡市博多区,祇園町２－２４－１０６号,,40,132,8120038,,,,,,,2023-01-12,1,,,,,エイカ,0
2354,7290001100210,新規,0,2023-01-12,2023-01-12,株式会社津上商会,,株式会社,福岡県,福岡市早良区,城西３丁目２２番６号パークサイド西新３０１号室,,40,137,8140003,,,,,,,2023-01-12,1,,,,,ツガミショウカイ,0
2355,7290001100219,新規,0,2023-01-12,2023-01-12,株式会社ｃｈＡｒｔ,,株式会社,福岡県,久留米市,瀬下町１３４番地青木ビル３Ｆ,,40,203,8300025,,,,,,,2023-01-12,1,,,,,チャート,0
2356,7290003013402,新規,0,2023-01-12,2023-01-12,合同会社アイル・サポート,,合同会社,福岡県,福岡市西区,富士見３丁目２番４号,,40,135,8190387,,,,,,,2023-01-12,1,,,,,アイルサポート,0
2357,7290003013410,新規,0,2023-01-12,2023-01-12,ナイスフライト合同会社,,合同会社,福岡県,福岡市西区,西都１丁目１４番４－１２１０号ＭＪＲ九大学研都市レジデンス,,40,135,8190367,,,,,,,2023-01-12,1,,,,,ナイスフライト,0
2364,7310003004506,新規,0,2023-01-12,2023-01-12,合同会社フェリックス,,合同会社,長崎県,諫早市,本町３番１４号ＩＭビル１－２号室,,42,204,8540012,,,,,,,2023-01-12,1,,,,,フェリックス,0
2365,7320001019513,新規,0,2023-01-12,2023-01-12,株式会社つめくさ,,株式会社,大分県,大分市,三ケ田町３丁目２番１１号ボスコ南大分２０１号,,44,201,8700888,,,,,,,2023-01-12,1,,,,,ツメクサ,0
2366,7320003003985,新規,0,2023-01-12,2023-01-12,合同会社ｔｏｉ　ｅｔ　ｍｏｉ,,合同会社,大分県,大分市,古国府４丁目１番３５号,,44,201,8700844,,,,,,,2023-01-12,1,,,,,トワエモア,0
2367,7330001030477,新規,0,2023-01-12,2023-01-12,株式会社ライジング,,株式会社,熊本県,玉名市,青木８８２番地３,,43,206,8650004,,,,,,,2023-01-12,1,,,,,ライジング,0
2368,7330001030493,新規,0,2023-01-12,2023-01-12,株式会社和楽,,株式会社,熊本県,山鹿市,菊鹿町上永野１９４７番地,,43,208,8610404,,,,,,,2023-01-12,1,,,,,ワラク,0
2375,7350001018124,新規,0,2023-01-12,2023-01-12,株式会社アトリエモナークス,,株式会社,宮崎県,宮崎市,大字本郷北方２４９８番地３,,45,201,8800925,,,,,,,2023-01-12,1,,,,,アトリエモナークス,0
2376,7360001031423,新規,0,2023-01-12,2023-01-12,株式会社ミライズ,,株式会社,沖縄県,豊見城市,字豊崎１番地２４５,,47,212,9010225,,,,,,,2023-01-12,1,,,,,ミライズ,0
2380,7370001049480,新規,0,2023-01-12,2023-01-12,株式会社ゆう,,株式会社,宮城県,仙台市宮城野区,宮城野１丁目４番１２－５０５号,,04,102,9830045,,,,,,,2023-01-12,1,,,,,ユウ,0
2382,7370003005944,新規,0,2023-01-12,2023-01-12,合同会社かずき,,合同会社,宮城県,仙台市太白区,西の平１丁目１５－３２,,04,104,9820825,,,,,,,2023-01-12,1,,,,,カズキ,0
2383,7370005010587,新規,0,2023-01-12,2023-01-12,社会保険労務士法人リバー,,その他の設立登記法人,宮城県,仙台市青葉区,旭ケ丘３丁目１１番３号２階,,04,101,9810904,,,,,,,2023-01-12,1,,,,,リバー,0
2386,7380001033384,新規,0,2023-01-12,2023-01-12,株式会社Ｊｏｈｎ,,株式会社,福島県,二本松市,原セ諏訪４２２番地,,07,210,9640043,,,,,,,2023-01-12,1,,,,,ジャン,0
2387,7380001033392,新規,0,2023-01-12,2023-01-12,ＩＮＦＩＮＩＴＹ株式会社,,株式会社,福島県,西白河郡矢吹町,一本木１９３番地,,07,466,9690236,,,,,,,2023-01-12,1,,,,,インフィニティ,0
2388,7380001033401,新規,0,2023-01-12,2023-01-12,株式会社Ｐｌｏｉｏｎ,,株式会社,福島県,福島市,大町９－９,,07,201,9608041,,,,,,,2023-01-12,1,,,,,プロイオン,0
2390,7380003005357,新規,0,2023-01-12,2023-01-12,合同会社Ｔｒｉａｎｇｌｅ・Ｆ・Ｅｎｔｅｒｔａｉｎｍｅｎｔ,,合同会社,福島県,いわき市,錦町中迎３丁目６番地の９,,07,204,9748232,,,,,,,2023-01-12,1,,,,,トライアングルエフエンターテイメント,0
2393,7420001018125,新規,0,2023-01-12,2023-01-12,大川総業株式会社,,株式会社,青森県,弘前市,大字大川字平岡１６番地,,02,202,0368311,,,,,,,2023-01-12,1,,,,,オオカワソウギョウ,0
2394,7420003002647,新規,0,2023-01-12,2023-01-12,ティーグランデ合同会社,,合同会社,青森県,青森市,大字浦町字奥野２８７番地３,,02,201,0300842,,,,,,,2023-01-12,1,,,,,ティーグランデ,0
2395,7420005007834,新規,0,2023-01-12,2023-01-12,一般社団法人脳癒会Ｂｒａｉｎ’ｓＬａｂ．,,その他の設立登記法人,青森県,弘前市,大字元寺町４０番地,,02,202,0368355,,,,,,,2023-01-12,1,,,,,ノウイカイブラインズラボ,0
2397,7430001088150,新規,0,2023-01-12,2023-01-12,株式会社ユニルーラ,,株式会社,北海道,札幌市西区,発寒十条４丁目４番８号,,01,107,0630830,,,,,,,2023-01-12,1,,,,,ユニルーラ,0
2398,7430001088175,新規,0,2023-01-12,2023-01-12,株式会社Ｓｏｌ　Ｔｉｅｒｒａ,,株式会社,北海道,札幌市北区,北三十九条西５丁目１番１８号,,01,102,0010039,,,,,,,2023-01-12,1,,,,,ソルティエア,0
2399,7430001088183,新規,0,2023-01-12,2023-01-12,株式会社マルヒロ建設工業,,株式会社,北海道,苫小牧市,日の出町２丁目９－９－１Ｆ,,01,213,0530043,,,,,,,2023-01-12,1,,,,,マルヒロケンセツコウギョウ,0
2400,7430001088191,新規,0,2023-01-12,2023-01-12,株式会社松己商運,,株式会社,北海道,白老郡白老町,字竹浦２０７番地６,,01,578,0590642,,,,,,,2023-01-12,1,,,,,マツミショウウン,0
2401,7430003014617,新規,0,2023-01-12,2023-01-12,合同会社スリー,,合同会社,北海道,札幌市北区,北三十三条西３丁目２番１５号ＮＯＲＤ３３－１Ｆ,,01,102,0010033,,,,,,,2023-01-12,1,,,,,スリー,0
2405,7460101007313,新規,0,2023-01-12,2023-01-12,株式会社池ノ上木工,,株式会社,北海道,中川郡幕別町,札内みずほ町１４３番地１１５,,01,643,0890554,,,,,,,2023-01-12,1,,,,,イケノウエモッコウ,0
2412,7470001019424,新規,0,2023-01-12,2023-01-12,株式会社横岡自動車,,株式会社,香川県,高松市,林町３５１番地１２,,37,201,7610301,,,,,,,2023-01-12,1,,,,,ヨコオカジドウシャ,0
2415,7480003001916,新規,0,2023-01-12,2023-01-12,合同会社安環,,合同会社,徳島県,徳島市,川内町沖島３５９番地の１０,,36,201,7710142,,,,,,,2023-01-12,1,,,,,アンワ,0
2416,7700150113680,新規,0,2023-01-12,2023-01-12,Ｆｕｇｒｏ　ＧｅｏｔｅｃｈｎｉｃａｌＳｅｒｖｉｃｅｓ　Ｌｔｄ,,外国会社等,,,,,,,,１９／Ｆ，Ｆｕｇｒｏ　Ｈｏｕｓｅ　ＫＣＣ２，１　Ｋｗａｉ　Ｏｎ　Ｒｏａｄ，Ｋｗａｉ　Ｃｈｕｎｇ，Ｈｏｎｇ　Ｋｏｎｇ,,,,,,2023-01-12,1,,,,,フグロジオテクニカルサービスリミテツド,0
2432,8010001232063,新規,0,2023-01-12,2023-01-12,ＡＣＥＰ　ＪＡＰＡＮ株式会社,,株式会社,東京都,中央区,日本橋本町２丁目２番２号日本橋本町ＹＳビル２階在日フランス商工会議所内,,13,102,1030023,,,,,,,2023-01-12,1,,,,,アセップジャパン,0
2433,8010001232096,新規,0,2023-01-12,2023-01-12,株式会社オフィスるり,,株式会社,東京都,千代田区,神田多町２丁目１番地,,13,101,1010046,,,,,,,2023-01-12,1,,,,,オフィスルリ,0
2434,8010001232146,新規,0,2023-01-12,2023-01-12,ＳＫＹ株式会社,,株式会社,東京都,文京区,本駒込６丁目４番２３号,,13,105,1130021,,,,,,,2023-01-12,1,,,,,スカイ,0
2436,8010003039548,新規,0,2023-01-12,2023-01-12,ウーファ合同会社,,合同会社,東京都,中央区,銀座１丁目２２番地１１,,13,102,1040061,,,,,,,2023-01-12,1,,,,,ウーファ,0
2437,8010005036106,新規,0,2023-01-12,2023-01-12,ＣＴＦ２号特定目的会社,,その他の設立登記法人,東京都,中央区,八丁堀４丁目２番１０号ＡＯＪ税理士法人内,,13,102,1040032,,,,,,,2023-01-12,1,,,,,シーティーエフニゴウ,0
2439,8010101015483,新規,0,2023-01-12,2023-01-12,株式会社ＶＯｌｌ,,株式会社,東京都,八王子市,片倉町１０７４番地２１５,,13,201,1920914,,,,,,,2023-01-12,1,,,,,フォル,0
2440,8010103002059,新規,0,2023-01-12,2023-01-12,合同会社Ｋｉｒｕｈａ,,合同会社,東京都,八王子市,並木町５－１－２０８,,13,201,1930831,,,,,,,2023-01-12,1,,,,,キルハ,0
2465,8010401171778,新規,0,2023-01-12,2023-01-12,イナセナプロジェクト株式会社,,株式会社,東京都,港区,高輪３丁目６番１号,,13,103,1080074,,,,,,,2023-01-12,1,,,,,イナセナプロジェクト,0
2471,8010403029280,新規,0,2023-01-12,2023-01-12,合同会社Ｂ．ａ．ｅ,,合同会社,東京都,港区,麻布十番２丁目２０番７号５０１,,13,103,1060045,,,,,,,2023-01-12,1,,,,,ビーエーイー,0
2478,8010501049858,新規,0,2023-01-12,2023-01-12,株式会社ディファインシェイプ,,株式会社,東京都,台東区,下谷１丁目１３－１０光ビル５階,,13,106,1100004,,,,,,,2023-01-12,1,,,,,ディファインシェイプ,0
2479,8010505003373,新規,0,2023-01-12,2023-01-12,社会保険労務士法人グランディール,,その他の設立登記法人,東京都,台東区,浅草橋２丁目２０番１１号小沢ビル５Ｆ,,13,106,1110053,,,,,,,2023-01-12,1,,,,,グランディール,0
2483,8010701043702,新規,0,2023-01-12,2023-01-12,株式会社Ｆａｍｉｌｙ　Ｐｏｗｅｒ,,株式会社,東京都,品川区,二葉３丁目１４番１２号,,13,109,1420043,,,,,,,2023-01-12,1,,,,,ファミリーパワー,0
2493,8010901052263,新規,0,2023-01-12,2023-01-12,株式会社久,,株式会社,東京都,世田谷区,三宿１丁目３０番５号,,13,112,1540005,,,,,,,2023-01-12,1,,,,,キュウ,0
2494,8010901052296,新規,0,2023-01-12,2023-01-12,株式会社アルジス,,株式会社,東京都,世田谷区,経堂１丁目４番９号正興ビル２Ｆ,,13,112,1560052,,,,,,,2023-01-12,1,,,,,アルジス,0
2495,8010901052305,新規,0,2023-01-12,2023-01-12,株式会社Ｒｅｌｉｖｅ,,株式会社,東京都,世田谷区,玉川１丁目１５番１－２８０４号,,13,112,1580094,,,,,,,2023-01-12,1,,,,,リリブ,0
2499,8011001151732,新規,0,2023-01-12,2023-01-12,株式会社ＫＩＺＵＮＡ　ＣＡＲＥ,,株式会社,東京都,渋谷区,円山町５番５号Ｎａｖｉ渋谷Ｖ３階,,13,113,1500044,,,,,,,2023-01-12,1,,,,,キズナケア,0
2500,8011001151798,新規,0,2023-01-12,2023-01-12,株式会社ブックフロー,,株式会社,東京都,渋谷区,笹塚３丁目２３－７ＡＲＫＴｅｒｒａｃｅ１Ｆ,,13,113,1510073,,,,,,,2023-01-12,1,,,,,ブックフロー,0
2501,8011001151807,新規,0,2023-01-12,2023-01-12,株式会社ＹＵＫＩＣＨＩ,,株式会社,東京都,渋谷区,神宮前６丁目２３番４号桑野ビル２階,,13,113,1500001,,,,,,,2023-01-12,1,,,,,ユキチ,0
2502,8011001151939,新規,0,2023-01-12,2023-01-12,ＡＲＧＯ株式会社,,株式会社,東京都,渋谷区,恵比寿１丁目１番７号ＴＫビル３階,,13,113,1500013,,,,,,,2023-01-12,1,,,,,アルゴ,0
2503,8011003016058,新規,0,2023-01-12,2023-01-12,合同会社Ｌｉｔ　ｕｐ,,合同会社,東京都,渋谷区,神宮前６丁目２３番４号桑野ビル２階,,13,113,1500001,,,,,,,2023-01-12,1,,,,,ライトアップ,0
2507,8011103012568,新規,0,2023-01-12,2023-01-12,ビジネクション合同会社,,合同会社,東京都,新宿区,早稲田鶴巻町５７０,,13,104,1620041,,,,,,,2023-01-12,1,,,,,ビジネクション,0
2508,8011105010512,新規,0,2023-01-12,2023-01-12,一般社団法人日本を元気にする協会,,その他の設立登記法人,東京都,新宿区,新宿１丁目３６番２号新宿第七葉山ビル３Ｆ,,13,104,1600022,,,,,,,2023-01-12,1,,,,,ニホンヲゲンキニスルキョウカイ,0
2509,8011201024341,新規,0,2023-01-12,2023-01-12,株式会社えみさく,,株式会社,東京都,中野区,若宮３丁目３番１０号メゾン・ド・マルス３０８,,13,114,1650033,,,,,,,2023-01-12,1,,,,,エミサク,0
2512,8011301028374,新規,0,2023-01-12,2023-01-12,株式会社はる,,株式会社,東京都,杉並区,方南１丁目５１番６号メゾンフォレスト１－Ｃ,,13,115,1680062,,,,,,,2023-01-12,1,,,,,ハル,0
2515,8011401024827,新規,0,2023-01-12,2023-01-12,盛凱株式会社,,株式会社,東京都,板橋区,仲宿１６番４号,,13,119,1730005,,,,,,,2023-01-12,1,,,,,セイガイ,0
2520,8011601026499,新規,0,2023-01-12,2023-01-12,株式会社継承洞庫,,株式会社,東京都,練馬区,石神井町４丁目１－６－４１４,,13,120,1770041,,,,,,,2023-01-12,1,,,,,ケイショウドウコ,0
2526,8011801041785,新規,0,2023-01-12,2023-01-12,ＰＷＣ．Ｃ株式会社,,株式会社,東京都,足立区,千住４丁目２０番１号,,13,121,1200034,,,,,,,2023-01-12,1,,,,,ピーダブリューシードットシー,0
2528,8011803005466,新規,0,2023-01-12,2023-01-12,合同会社ピグマリオン,,合同会社,東京都,葛飾区,新小岩２丁目１番９－８０８号シティテラス新小岩,,13,122,1240024,,,,,,,2023-01-12,1,,,,,ピグマリオン,0
2529,8012301013275,新規,0,2023-01-12,2023-01-12,株式会社ＣＬＩＰ,,株式会社,東京都,町田市,真光寺町９３３番地６,,13,209,1950051,,,,,,,2023-01-12,1,,,,,クリップ,0
2530,8012303001773,新規,0,2023-01-12,2023-01-12,合同会社ＹＳＴ,,合同会社,東京都,町田市,小川６丁目２３番１－５３０号,,13,209,1940003,,,,,,,2023-01-12,1,,,,,ワイエスティー,0
2531,8012401040070,新規,0,2023-01-12,2023-01-12,株式会社Ｌｕｃｉｎａ,,株式会社,東京都,調布市,国領町４丁目９番地７,,13,208,1820022,,,,,,,2023-01-12,1,,,,,ルキナ,0
2532,8012701017421,新規,0,2023-01-12,2023-01-12,株式会社解工舎,,株式会社,東京都,東久留米市,前沢３丁目４番４０号前沢ビジネスプラザ,,13,222,2030032,,,,,,,2023-01-12,1,,,,,カイコウシャ,0
2536,8012801022073,新規,0,2023-01-12,2023-01-12,ＲＣ　ｌａｂ株式会社,,株式会社,東京都,東大和市,新堀１丁目１４２１番地の２３ランドフォレスト東大和１０３号,,13,220,2070012,,,,,,,2023-01-12,1,,,,,アールシーラボ,0
2537,8012803002973,新規,0,2023-01-12,2023-01-12,ｇｒｏｗｔｈ　Ｆｏｒｗａｒｄ合同会社,,合同会社,東京都,国立市,東１丁目３番地の５,,13,215,1860002,,,,,,,2023-01-12,1,,,,,グロースフォワード,0
2543,8020001149678,新規,0,2023-01-12,2023-01-12,株式会社アンバージャック,,株式会社,神奈川県,横浜市神奈川区,山内町１番地１ＫＡＮＥＳＥＩ内,,14,102,2210054,,,,,,,2023-01-12,1,,,,,アンバージャック,0
2544,8020001149728,新規,0,2023-01-12,2023-01-12,株式会社みつや,,株式会社,神奈川県,横浜市中区,南仲通３丁目３５番地横浜エクセレントＩＩＩＢ１階,00129020,14,104,2310006,,,,,,,2023-01-12,1,,,,,ミツヤ,0
2545,8020001149736,新規,0,2023-01-12,2023-01-12,株式会社プラテクト,,株式会社,神奈川県,横浜市戸塚区,名瀬町１９６９番地１０,,14,110,2450051,,,,,,,2023-01-12,1,,,,,プラテクト,0
2546,8020001149752,新規,0,2023-01-12,2023-01-12,スクアド株式会社,,株式会社,神奈川県,横浜市西区,北幸２丁目１０番地２８むつみビル３Ｆ,,14,103,2200004,,,,,,,2023-01-12,1,,,,,スクアド,0
2547,8020001149760,新規,0,2023-01-12,2023-01-12,株式会社ぽじぶる,,株式会社,神奈川県,横浜市都筑区,北山田６丁目５２番２－４０４号,,14,118,2240021,,,,,,,2023-01-12,1,,,,,ポジブル,0
2548,8020001149785,新規,0,2023-01-12,2023-01-12,吉川計装株式会社,,株式会社,神奈川県,横浜市緑区,東本郷４丁目５番１５号プレイス本郷３番館２０１,,14,113,2260002,,,,,,,2023-01-12,1,,,,,ヨシカワケイソウ,0
2549,8020001149802,新規,0,2023-01-12,2023-01-12,株式会社エネシフト,,株式会社,神奈川県,川崎市中原区,小杉町２丁目２７６番地１Ｅ２８０５,,14,133,2110063,,,,,,,2023-01-12,1,,,,,エネシフト,0
2551,8020003023006,新規,0,2023-01-12,2023-01-12,合同会社開工舎,,合同会社,神奈川県,横浜市神奈川区,羽沢南３丁目３２番１－３０７号,,14,102,2210866,,,,,,,2023-01-12,1,,,,,カイコウシャ,0
2556,8021001077902,新規,0,2023-01-12,2023-01-12,株式会社ＳＢＫ,,株式会社,神奈川県,相模原市中央区,陽光台５丁目７番１３号,,14,152,2520226,,,,,,,2023-01-12,1,,,,,エスビーケー,0
2557,8021003012584,新規,0,2023-01-12,2023-01-12,Ｓｈｉｎｏ　Ｓｔｙｌｅ合同会社,,合同会社,神奈川県,茅ヶ崎市,東海岸南１丁目３－１１,,14,207,2530054,,,,,,,2023-01-12,1,,,,,シノスタイル,0
2561,8030001151823,新規,0,2023-01-12,2023-01-12,株式会社ＯＫ,,株式会社,埼玉県,川口市,西青木１丁目３番２３号,,11,203,3320035,,,,,,,2023-01-12,1,,,,,オーケー,0
2562,8030001151848,新規,0,2023-01-12,2023-01-12,株式会社フレンドステージホールディングス,,株式会社,埼玉県,上尾市,富士見２丁目１番２５号,,11,219,3620041,,,,,,,2023-01-12,1,,,,,フレンドステージホールディングス,0
2563,8030001151856,新規,0,2023-01-12,2023-01-12,株式会社楽,,株式会社,埼玉県,さいたま市南区,文蔵２丁目２７番９－１号,,11,108,3360025,,,,,,,2023-01-12,1,,,,,ガク,0
2564,8030001151889,新規,0,2023-01-12,2023-01-12,株式会社Ｇｒｏｏｍｉｎｇ‐Ｓａｌｏｎ．ｊｐ,,株式会社,埼玉県,坂戸市,西坂戸３丁目１８－２６,,11,239,3500247,,,,,,,2023-01-12,1,,,,,グルーミングサロンドットジェーピー,0
2565,8030001151897,新規,0,2023-01-12,2023-01-12,株式会社Ｍ・Ｋ,,株式会社,埼玉県,飯能市,大字双柳６２３番地５エスペランサＩ２０２,00129033,11,209,3570021,,,,,,,2023-01-12,1,,,,,エムケー,0
2570,8030003020935,新規,0,2023-01-12,2023-01-12,合同会社ａｎｒｉ．,,合同会社,埼玉県,川口市,柳崎５丁目５番３号,,11,203,3330861,,,,,,,2023-01-12,1,,,,,アンリ,0
2573,8040001126551,新規,0,2023-01-12,2023-01-12,株式会社秋塗工,,株式会社,千葉県,船橋市,丸山４丁目４１番５号,,12,204,2730048,,,,,,,2023-01-12,1,,,,,シュウトコウ,0
2574,8040001126584,新規,0,2023-01-12,2023-01-12,株式会社ミサト建設,,株式会社,千葉県,茂原市,早野９５６番地,,12,210,2970037,,,,,,,2023-01-12,1,,,,,ミサトケンセツ,0
2576,8040003021676,新規,0,2023-01-12,2023-01-12,合同会社Ｓｏｐｈｉａｎｔ,,合同会社,千葉県,千葉市稲毛区,稲毛東２丁目８番６号古宮様方,,12,103,2630031,,,,,,,2023-01-12,1,,,,,ソフィアント,0
2585,8080005007505,新規,0,2023-01-12,2023-01-12,一般社団法人ワンフィールズ,,その他の設立登記法人,静岡県,静岡市葵区,安東２丁目２６番２２号,,22,101,4200882,,,,,,,2023-01-12,1,,,,,ワンフィールズ,0
2590,8100001036034,新規,0,2023-01-12,2023-01-12,株式会社セイワトレーディング,,株式会社,長野県,上伊那郡辰野町,大字辰野６３４番地１,,20,382,3990421,,,,,,,2023-01-12,1,,,,,セイワトレーディング,0
2591,8100001036042,新規,0,2023-01-12,2023-01-12,株式会社ＯＮＥ　ＡＲＴ３３,,株式会社,長野県,上伊那郡箕輪町,大字中箕輪３４０３番地１,,20,383,3994601,,,,,,,2023-01-12,1,,,,,ワンアートサーティースリー,0
2594,8100003006836,新規,0,2023-01-12,2023-01-12,クリアランス合同会社,,合同会社,長野県,千曲市,上山田温泉１丁目６６番地８・２Ｆ,,20,218,3890821,,,,,,,2023-01-12,1,,,,,クリアランス,0
2607,8120001251416,新規,0,2023-01-12,2023-01-12,株式会社タケダスタジオ,,株式会社,大阪府,枚方市,東山２丁目４１番地３５,,27,210,5731114,,,,,,,2023-01-12,1,,,,,ダケダスタジオ,0
2608,8120001251498,新規,0,2023-01-12,2023-01-12,株式会社ｃｏｍｅｄｙ,,株式会社,大阪府,大阪市中央区,心斎橋筋２丁目３番１０号英国館ビル３Ｆ,,27,128,5420085,,,,,,,2023-01-12,1,,,,,コメディ,0
2609,8120001251556,新規,0,2023-01-12,2023-01-12,東曜株式会社,,株式会社,大阪府,大阪市淀川区,西宮原２丁目５－４６－７１３,,27,123,5320004,,,,,,,2023-01-12,1,,,,,トウヨウ,0
2610,8120001251572,新規,0,2023-01-12,2023-01-12,株式会社サステナブル・ストーリー・ジャパン,,株式会社,大阪府,大阪市西区,北堀江１丁目６－１２四ツ橋中央ビル３階,,27,106,5500014,,,,,,,2023-01-12,1,,,,,サステナブルストーリージャパン,0
2611,8120001251589,新規,0,2023-01-12,2023-01-12,株式会社グランシードパートナーズ,,株式会社,大阪府,大阪市中央区,瓦町２丁目５－８瓦町スクエアビル２Ｆ,,27,128,5410048,,,,,,,2023-01-12,1,,,,,グランシードパートナーズ,0
2612,8120001251630,新規,0,2023-01-12,2023-01-12,ＳＯＺＯ企画株式会社,,株式会社,大阪府,大阪市生野区,巽南３丁目７番１１号,00129034,27,116,5440015,,,,,,,2023-01-12,1,,,,,ソーゾーキカク,0
2613,8120001251639,新規,0,2023-01-12,2023-01-12,株式会社ＭＥ　ｍｅｄｉｃａｌ,,株式会社,大阪府,大阪市中央区,本町４丁目５番６－１５０１号,,27,128,5410053,,,,,,,2023-01-12,1,,,,,ミーメディカル,0
2615,8120003023202,新規,0,2023-01-12,2023-01-12,日本エンタープライズ合同会社,,合同会社,大阪府,門真市,三ツ島５丁目２２番３４号,,27,223,5710015,,,,,,,2023-01-12,1,,,,,エンタープライズ,0
2616,8120005023398,新規,0,2023-01-12,2023-01-12,有田司法書士法人,,その他の設立登記法人,大阪府,大阪市中央区,谷町３丁目１番２５－５０１号,,27,128,5400012,,,,,,,2023-01-12,1,,,,,アリタ,0
2618,8120101066821,新規,0,2023-01-12,2023-01-12,株式会社ｍｙコーポレーション,,株式会社,大阪府,和泉市,府中町６丁目１４番３０号,,27,219,5940071,,,,,,,2023-01-12,1,,,,,マイコーポレーション,0
2620,8120901046964,新規,0,2023-01-12,2023-01-12,株式会社Ｘｆｏｕｎｄ,,株式会社,大阪府,茨木市,沢良宜西２丁目７－２８－５０３,,27,211,5670868,,,,,,,2023-01-12,1,,,,,エックスファウンド,0
2621,8120901046980,新規,0,2023-01-12,2023-01-12,株式会社ＰＡＳＴＥＬ,,株式会社,大阪府,高槻市,高槻町１３番１８号パステル神山６０１号,,27,207,5690803,,,,,,,2023-01-12,1,,,,,パステル,0
2622,8120901046989,新規,0,2023-01-12,2023-01-12,株式会社スノーフレーク,,株式会社,大阪府,豊中市,少路２丁目３番５５－８１８号,,27,203,5600004,,,,,,,2023-01-12,1,,,,,スノーフレーク,0
2625,8122001036549,新規,0,2023-01-12,2023-01-12,株式会社ＨＤＳ,,株式会社,大阪府,大東市,三箇６丁目１８番３３号,,27,218,5740077,,,,,,,2023-01-12,1,,,,,エイチディーエス,0
2626,8122001036557,新規,0,2023-01-12,2023-01-12,株式会社アイズテリア,,株式会社,大阪府,八尾市,弓削町南３丁目１８番地の５,,27,212,5810034,,,,,,,2023-01-12,1,,,,,アイズテリア,0
2628,8122003002490,新規,0,2023-01-12,2023-01-12,合同会社ＭＵＳＵＢＩ,,合同会社,大阪府,八尾市,長池町１丁目４０－４,,27,212,5810836,,,,,,,2023-01-12,1,,,,,ムスビ,0
2632,8130001073413,新規,0,2023-01-12,2023-01-12,株式会社ｅｎｔｈｐｌａｃｅ,,株式会社,京都府,長岡京市,開田１丁目２１番２２号,,26,209,6170826,,,,,,,2023-01-12,1,,,,,エンスプレイス,0
2642,8140001128629,新規,0,2023-01-12,2023-01-12,株式会社Ｋｌｅｌｉａ　Ｃｏｍｐａｎｙ,,株式会社,兵庫県,明石市,大蔵町２４番１０号フェリチターレ１０３号,,28,203,6730872,,,,,,,2023-01-12,1,,,,,クレリアカンパニー,0
2643,8140001128728,新規,0,2023-01-12,2023-01-12,ＳＴＡＲＤＯＭ株式会社,,株式会社,兵庫県,芦屋市,岩園町２３番２号,,28,206,6590013,,,,,,,2023-01-12,1,,,,,スターダム,0
2644,8140001128736,新規,0,2023-01-12,2023-01-12,ほこれる株式会社,,株式会社,兵庫県,姫路市,飾磨区亀山４５番地,,28,201,6728047,,,,,,,2023-01-12,1,,,,,ホコレル,0
2647,8140003018571,新規,0,2023-01-12,2023-01-12,ｍａｇｏｊｉｎ合同会社,,合同会社,兵庫県,神戸市中央区,磯上通８丁目１番２９号カサベラビルＣ＆Ｍ４０３号室,,28,110,6510086,,,,,,,2023-01-12,1,,,,,マゴジン,0
2649,8150001026063,新規,0,2023-01-12,2023-01-12,株式会社ＧＩＶＥ＆ＭＡＫＥ,,株式会社,奈良県,香芝市,下田西２丁目２７８－７香芝ビル２Ｆ,,29,210,6390231,,,,,,,2023-01-12,1,,,,,ギブアンドメイク,0
2650,8150003002855,新規,0,2023-01-12,2023-01-12,西岡建設合同会社,,合同会社,奈良県,天理市,和爾町６７７番地,,29,204,6320002,,,,,,,2023-01-12,1,,,,,ニシオカケンセツ,0
2652,8170003001814,新規,0,2023-01-12,2023-01-12,合同会社ＳＨＩＮ,,合同会社,和歌山県,橋本市,神野々１０２６番地の２７,,30,203,6480086,,,,,,,2023-01-12,1,,,,,シン,0
2654,8180001154472,新規,0,2023-01-12,2023-01-12,株式会社ａｉｍｓ,,株式会社,愛知県,名古屋市中村区,名駅４丁目２４番５号第２森ビル４０１,,23,105,4500002,,,,,,,2023-01-12,1,,,,,エイムス,0
2655,8180001154480,新規,0,2023-01-12,2023-01-12,株式会社ニチエイ不動産,,株式会社,愛知県,一宮市,馬見塚字郷内１２番地２,,23,203,4910874,,,,,,,2023-01-12,1,,,,,ニチエイフドウサン,0
2656,8180001154555,新規,0,2023-01-12,2023-01-12,株式会社コアカラー,,株式会社,愛知県,名古屋市昭和区,雪見町２丁目８番地の１,,23,107,4660005,,,,,,,2023-01-12,1,,,,,コアカラー,0
2658,8180003024698,新規,0,2023-01-12,2023-01-12,合同会社タイムハック,,合同会社,愛知県,一宮市,新生３丁目６番２６号レジデンス川上１０２号室,,23,203,4910912,,,,,,,2023-01-12,1,,,,,タイムハック,0
2659,8180003024715,新規,0,2023-01-12,2023-01-12,合同会社開闢,,合同会社,愛知県,名古屋市中区,錦３丁目１８番３１号,,23,106,4600003,,,,,,,2023-01-12,1,,,,,カイビャク,0
2662,8180301036973,新規,0,2023-01-12,2023-01-12,株式会社ＳＨＡＰＥ　ＯＦ　ＬＩＦＥ,,株式会社,愛知県,豊橋市,西幸町字浜池３３３番地の９豊橋サイエンスコア１０９,,23,201,4418113,,,,,,,2023-01-12,1,,,,,シェイプオブライフ,0
2663,8180301036981,新規,0,2023-01-12,2023-01-12,株式会社ＫＴ．Ｓｏｌｅｉｌ,,株式会社,愛知県,豊田市,竹町宮下８番地,,23,211,4730906,,,,,,,2023-01-12,1,,,,,ケーティーソレイル,0
2668,8180303005555,新規,0,2023-01-12,2023-01-12,８Ｇｉｆｔ合同会社,,合同会社,愛知県,岡崎市,明大寺町字向山２番地１０４,,23,202,4440864,,,,,,,2023-01-12,1,,,,,エイトギフト,0
2671,8190001030061,新規,0,2023-01-12,2023-01-12,株式会社京都発電所,,株式会社,三重県,伊賀市,西之澤５５４番地１０,,24,216,5191426,,,,,,,2023-01-12,1,,,,,キョウトハツデンショ,0
2672,8190001030094,新規,0,2023-01-12,2023-01-12,株式会社フリオ不動産,,株式会社,三重県,伊賀市,上野農人町５３７番地,,24,216,5180831,,,,,,,2023-01-12,1,,,,,フリオフドウサン,0
2673,8220001025223,新規,0,2023-01-12,2023-01-12,ｓａｂ．株式会社,,株式会社,石川県,七尾市,石崎町香島２丁目２５番地,,17,202,9260178,,,,,,,2023-01-12,1,,,,,サブ,0
2684,8240001060937,新規,0,2023-01-12,2023-01-12,株式会社コウワクリエイティブ,,株式会社,広島県,福山市,久松台２丁目６番１号,,34,207,7200083,,,,,,,2023-01-12,1,,,,,コウワクリエイティブ,0
2685,8240001060953,新規,0,2023-01-12,2023-01-12,ＳＫ　Ｈａｒｍｏｎｙ株式会社,,株式会社,広島県,広島市中区,大手町１丁目１番２６号大手町一番ビル３０５,,34,101,7300051,,,,,,,2023-01-12,1,,,,,,0
2696,8270001008702,新規,0,2023-01-12,2023-01-12,株式会社寺村モータース,,株式会社,鳥取県,鳥取市,福部町細川１３３７番地１,,31,201,6890102,,,,,,,2023-01-12,1,,,,,テラムラモータース,0
2697,8270001008710,新規,0,2023-01-12,2023-01-12,株式会社ＫＡＮＯＰＵＳ,,株式会社,鳥取県,境港市,清水町６７５番地,,31,204,6840001,,,,,,,2023-01-12,1,,,,,カノウプス,0
2699,8290001100143,新規,0,2023-01-12,2023-01-12,株式会社ラヴィ,,株式会社,福岡県,福岡市博多区,豊１丁目６番２５－４０２号,,40,132,8120042,,,,,,,2023-01-12,1,,,,,ラヴィ,0
2700,8290001100176,新規,0,2023-01-12,2023-01-12,ＳｈａｒｅＭｅｎｔｏｒｓ株式会社,,株式会社,福岡県,福岡市中央区,大名１丁目８番２５号杉の宮マンション７０４号,,40,133,8100041,,,,,,,2023-01-12,1,,,,,シェアメンターズ,0
2701,8290001100201,新規,0,2023-01-12,2023-01-12,株式会社ＫＯＵＳＥＩ,,株式会社,福岡県,宗像市,田野７９７番地４,,40,220,8113514,,,,,,,2023-01-12,1,,,,,コウセイ,0
2704,8290003013392,新規,0,2023-01-12,2023-01-12,合同会社Ｓａｌｔｙ,,合同会社,福岡県,福岡市東区,筥松３丁目２－３１アヴァンセ２０１,,40,131,8120061,,,,,,,2023-01-12,1,,,,,ソルティ,0
2705,8290801029193,新規,0,2023-01-12,2023-01-12,株式会社土谷トータルインテリア,,株式会社,福岡県,北九州市小倉南区,東水町５番５１号,,40,107,8020813,,,,,,,2023-01-12,1,,,,,ツチヤトータルインテリア,0
2706,8290801029210,新規,0,2023-01-12,2023-01-12,株式会社ケイプラン,,株式会社,福岡県,北九州市小倉北区,米町１丁目２番２２号,,40,106,8020003,,,,,,,2023-01-12,1,,,,,ケイプラン,0
2708,8300001013186,新規,0,2023-01-12,2023-01-12,株式会社Ｅｘｔｒａ　Ｃａｒｅｅｒ,,株式会社,佐賀県,神埼郡吉野ヶ里町,豆田１５２９－３,,41,327,8420033,,,,,,,2023-01-12,1,,,,,エクストラキャリア,0
2709,8300003001924,新規,0,2023-01-12,2023-01-12,合同会社リベルタス,,合同会社,佐賀県,鳥栖市,弥生が丘２丁目２５９番地,,41,203,8410005,,,,,,,2023-01-12,1,,,,,リベルタス,0
2712,8310003004505,新規,0,2023-01-12,2023-01-12,ＴＯＭＡＴＯ合同会社,,合同会社,長崎県,対馬市,厳原町西里３４６番地１０,,42,209,8170015,,,,,,,2023-01-12,1,,,,,トマト,0
2713,8320001019512,新規,0,2023-01-12,2023-01-12,株式会社Ｌｅａｐｓ,,株式会社,大分県,大分市,大字三芳６４２番地,,44,201,8700030,,,,,,,2023-01-12,1,,,,,リープス,0
2715,8330001030443,新規,0,2023-01-12,2023-01-12,株式会社Ｙ’ｓ,,株式会社,熊本県,熊本市北区,清水万石４丁目９番３８号,,43,105,8618068,,,,,,,2023-01-12,1,,,,,ワイズ,0
2720,8350001018115,新規,0,2023-01-12,2023-01-12,株式会社タイヤガーデン都城,,株式会社,宮崎県,都城市,吉尾町６１３５番地１,,45,202,8850006,,,,,,,2023-01-12,1,,,,,タイヤガーデンミヤコノジョウ,0
2721,8350001018123,新規,0,2023-01-12,2023-01-12,株式会社サスケ,,株式会社,宮崎県,宮崎市,大塚町宮田２８８７番地１,,45,201,8800951,,,,,,,2023-01-12,1,,,,,サスケ,0
2724,8360003012635,新規,0,2023-01-12,2023-01-12,合同会社ＷＡＴＴ,,合同会社,沖縄県,糸満市,西崎町３丁目１４番地３０２号,,47,210,9010306,,,,,,,2023-01-12,1,,,,,ワット,0
2728,8370001049455,新規,0,2023-01-12,2023-01-12,株式会社ＫＡＮＡＮ　ＦＡＲＭ,,株式会社,宮城県,東松島市,赤井字新川前２３番地８,,04,214,9810501,,,,,,,2023-01-12,1,,,,,カナンファーム,0
2729,8370001049463,新規,0,2023-01-12,2023-01-12,株式会社平塚商事,,株式会社,宮城県,仙台市青葉区,立町１６番２５－１２０４号,,04,101,9800822,,,,,,,2023-01-12,1,,,,,ヒラツカショウジ,0
2733,8370003005943,新規,0,2023-01-12,2023-01-12,合同会社えんどう,,合同会社,宮城県,仙台市青葉区,広瀬町４番３８,,04,101,9800873,,,,,,,2023-01-12,1,,,,,エンドウ,0
2738,8420001018124,新規,0,2023-01-12,2023-01-12,株式会社ａｉＧｉＳ,,株式会社,青森県,平川市,唐竹堀合２１番地８,,02,210,0360132,,,,,,,2023-01-12,1,,,,,アイギス,0
2740,8430001088216,新規,0,2023-01-12,2023-01-12,株式会社ジンギスカーン,,株式会社,北海道,札幌市白石区,栄通２１丁目２１番２２号,,01,104,0030021,,,,,,,2023-01-12,1,,,,,ジンギスカーン,0
2742,8430003014616,新規,0,2023-01-12,2023-01-12,ネオフィール手稲合同会社,,合同会社,北海道,札幌市手稲区,手稲本町二条４丁目７番１７－１１０３号,,01,109,0060022,,,,,,,2023-01-12,1,,,,,ネオフィール,0
2743,8430005014622,新規,0,2023-01-12,2023-01-12,一般社団法人すくいのて,,その他の設立登記法人,北海道,札幌市中央区,南四条西１３丁目３番５－１０１号,,01,101,0640804,,,,,,,2023-01-12,1,,,,,スクイノテ,0
2744,8440003001506,新規,0,2023-01-12,2023-01-12,合同会社ポシェット,,合同会社,北海道,函館市,湯川町３丁目９番２３－８１１号,,01,202,0420932,,,,,,,2023-01-12,1,,,,,ポシェット,0
2745,8460101007312,新規,0,2023-01-12,2023-01-12,前田工業株式会社,,株式会社,北海道,帯広市,南の森西８丁目２番１８号,,01,207,0800862,,,,,,,2023-01-12,1,,,,,マエダコウギョウ,0
2746,8460103001503,新規,0,2023-01-12,2023-01-12,ＴＭ企画合同会社,,合同会社,北海道,河東郡音更町,北鈴蘭南５丁目２－１,,01,631,0800306,,,,,,,2023-01-12,1,,,,,ティーエムキカク,0
2748,8480001011973,新規,0,2023-01-12,2023-01-12,株式会社福光,,株式会社,徳島県,小松島市,横須町１３番７７号,,36,203,7730006,,,,,,,2023-01-12,1,,,,,フクミツ,0
2753,8500001024717,新規,0,2023-01-12,2023-01-12,株式会社エイム,,株式会社,愛媛県,松山市,東石井６丁目１４番２２号,,38,201,7900932,,,,,,,2023-01-12,1,,,,,エイム,0
2754,8700150113507,新規,0,2023-01-12,2022-12-26,座キューピーマジック,,その他,東京都,東村山市,野口町３丁目３０－２１,,13,213,1890022,,,,,,,2022-12-26,1,,,,,ザキユーピーマジツク,0
2764,9010001231989,新規,0,2023-01-12,2023-01-12,株式会社ライフバリュークリエイト,,株式会社,東京都,中央区,湊１丁目９番８号八丁堀ウエストコート８Ｆ,,13,102,1040043,,,,,,,2023-01-12,1,,,,,ライフバリュークリエイト,0
2765,9010001232038,新規,0,2023-01-12,2023-01-12,株式会社Ａ＆Ａ　Ａｒｃｈｉｔｅｃｔｓ,,株式会社,東京都,中央区,日本橋本町２丁目３番１１号,,13,102,1030023,,,,,,,2023-01-12,1,,,,,エーアンドエーアーキテクツ,0
2766,9010001232120,新規,0,2023-01-12,2023-01-12,千代田パートナーズ・ビジネスサポート株式会社,,株式会社,東京都,千代田区,鍛冶町１丁目８番１号ＳＲビル９階,,13,101,1010044,,,,,,,2023-01-12,1,,,,,チヨダパートナーズビジネスサポート,0
2767,9010001232129,新規,0,2023-01-12,2023-01-12,ＳｔａｎｄａｒｄＧｒｏｕｐ株式会社,,株式会社,東京都,中央区,日本橋小舟町９番３号,,13,102,1030024,,,,,,,2023-01-12,1,,,,,スタンダードグループ,0
2768,9010003039489,新規,0,2023-01-12,2023-01-12,アセットＥ１合同会社,,合同会社,東京都,中央区,京橋２丁目２番１号京橋エドグラン,,13,102,1040031,,,,,,,2023-01-12,1,,,,,アセットイーワン,0
2773,9010101015482,新規,0,2023-01-12,2023-01-12,株式会社グロース,,株式会社,東京都,八王子市,松木２０番地１,,13,201,1920362,,,,,,,2023-01-12,1,,,,,グロース,0
2793,9010401171694,新規,0,2023-01-12,2023-01-12,株式会社Ｋｏｅｄａ‐ＪＰ,,株式会社,東京都,港区,赤坂６丁目１９番３３号,,13,103,1070052,,,,,,,2023-01-12,1,,,,,コエダジェイピー,0
2794,9010401171711,新規,0,2023-01-12,2023-01-12,株式会社Ｌｅａｄｅｒｓ　Ｊａｐａｎ,,株式会社,東京都,港区,南青山６丁目２番２号南青山ホームズ５０４号室,,13,103,1070062,,,,,,,2023-01-12,1,,,,,リーダーズジャパン,0
2795,9010401171835,新規,0,2023-01-12,2023-01-12,株式会社ｓｅａｍｌｅｓｓ,,株式会社,東京都,港区,六本木４丁目２番５号,,13,103,1060032,,,,,,,2023-01-12,1,,,,,シームレス,0
2800,9010403029255,新規,0,2023-01-12,2023-01-12,電球合同会社,,合同会社,東京都,港区,南麻布１丁目１番２２号,,13,103,1060047,,,,,,,2023-01-12,1,,,,,デンキュウ,0
2801,9010403029271,新規,0,2023-01-12,2023-01-12,ソルトワールド合同会社,,合同会社,東京都,港区,高輪４丁目２３番６号ハイホーム高輪７０８,,13,103,1080074,,,,,,,2023-01-12,1,,,,,ソルトワールド,0
2806,9010405021739,新規,0,2023-01-12,2023-01-12,一般社団法人スターアジア建物,,その他の設立登記法人,東京都,港区,虎ノ門５丁目１番４号,,13,103,1050001,,,,,,,2023-01-12,1,,,,,スターアジアタテモノ,0
2812,9010501049849,新規,0,2023-01-12,2023-01-12,ＳＰＩＮ株式会社,,株式会社,東京都,台東区,千束２丁目３４番６号宮路ビル２０１,,13,106,1110031,,,,,,,2023-01-12,1,,,,,スピン,0
2821,9010701043701,新規,0,2023-01-12,2023-01-12,株式会社ｍｏｒｎｉｎｇ　ｇｌｏｒｙ,,株式会社,東京都,品川区,二葉３丁目１－２３,,13,109,1420043,,,,,,,2023-01-12,1,,,,,モーニンググローリー,0
2822,9010703006516,新規,0,2023-01-12,2023-01-12,合同会社エスタシオン,,合同会社,東京都,品川区,戸越３丁目２番１号２０４,,13,109,1420041,,,,,,,2023-01-12,1,,,,,エスタシオン,0
2823,9010703006532,新規,0,2023-01-12,2023-01-12,合同会社Ｂｅｌｎｉｘ．ＭＩＹＵＫＩ,,合同会社,東京都,品川区,北品川１丁目１３番２号１１０３,,13,109,1400001,,,,,,,2023-01-12,1,,,,,ベルニクスミユキ,0
2828,9010901052295,新規,0,2023-01-12,2023-01-12,株式会社ノーブルスタイル世田谷,,株式会社,東京都,世田谷区,松原３丁目３０番１０号双葉屋ビル２階,,13,112,1560043,,,,,,,2023-01-12,1,,,,,ノーブルスタイルセタガヤ,0
2836,9011001151896,新規,0,2023-01-12,2023-01-12,株式会社Ｍ,,株式会社,東京都,目黒区,原町２丁目２番１２号ＣａｌｍＡｒｅａＤ,,13,110,1520011,,,,,,,2023-01-12,1,,,,,エム,0
2837,9011001151938,新規,0,2023-01-12,2023-01-12,株式会社ＶｉＳＴＡＲ　Ｊａｐａｎ,,株式会社,東京都,渋谷区,神泉町１０番１５号,,13,113,1500045,,,,,,,2023-01-12,1,,,,,ヴィスタージャパン,0
2838,9011001151962,新規,0,2023-01-12,2023-01-12,ＨＲエボリューション株式会社,,株式会社,東京都,渋谷区,神宮前６丁目２３番４号桑野ビル２階,,13,113,1500001,,,,,,,2023-01-12,1,,,,,エイチアールエボリューション,0
2839,9011003016049,新規,0,2023-01-12,2023-01-12,永澤アセットマネジメント合同会社,,合同会社,東京都,目黒区,三田１丁目１０番２号,,13,110,1530062,,,,,,,2023-01-12,1,,,,,ナガサワアセットマネジメント,0
2842,9011201024340,新規,0,2023-01-12,2023-01-12,株式会社ディーアップパートナー,,株式会社,東京都,中野区,中野２丁目１９番２号リードシー中野ビル３Ｆ,,13,114,1640001,,,,,,,2023-01-12,1,,,,,ディーアップパートナー,0
2845,9011205002532,新規,0,2023-01-12,2023-01-12,一般社団法人全国高齢者総合支援協会,,その他の設立登記法人,東京都,中野区,中央４丁目１番３号ボニータ新中野ビル４Ｆ,,13,114,1640011,,,,,,,2023-01-12,1,,,,,ゼンコクコウレイシャソウゴウシエンキョウカイ,0
2847,9011401024826,新規,0,2023-01-12,2023-01-12,株式会社ＨＫＹ,,株式会社,東京都,板橋区,四葉１丁目１９番１４号,,13,119,1750084,,,,,,,2023-01-12,1,,,,,エイチケーワイ,0
2848,9011403003869,新規,0,2023-01-12,2023-01-12,合同会社ＦＤＣ,,合同会社,東京都,板橋区,高島平３丁目１１番５－５０４,,13,119,1750082,,,,,,,2023-01-12,1,,,,,エフディーシー,0
2850,9011601026498,新規,0,2023-01-12,2023-01-12,株式会社ＢＩＧ　ＵＰ,,株式会社,東京都,練馬区,貫井４丁目９番４号,,13,120,1760021,,,,,,,2023-01-12,1,,,,,ビッグアップ,0
2854,9011703003354,新規,0,2023-01-12,2023-01-12,カルミア合同会社,,合同会社,東京都,江戸川区,西小岩１丁目２１番１号カーザヴェルデ５０５,,13,123,1330057,,,,,,,2023-01-12,1,,,,,カルミア,0
2855,9011801041784,新規,0,2023-01-12,2023-01-12,株式会社Ｔ２,,株式会社,東京都,足立区,西新井栄町１丁目１８番１－６１４号,,13,121,1230843,,,,,,,2023-01-12,1,,,,,ティーツー,0
2857,9012401040053,新規,0,2023-01-12,2023-01-12,株式会社ａｓｈｉｋａｎａ,,株式会社,東京都,調布市,東つつじケ丘１丁目１番地６,,13,208,1820005,,,,,,,2023-01-12,1,,,,,アシカナ,0
2858,9012701017420,新規,0,2023-01-12,2023-01-12,株式会社ストレイズ,,株式会社,東京都,東村山市,久米川町１丁目１８番地１５,,13,213,1890003,,,,,,,2023-01-12,1,,,,,ストレイズ,0
2859,9013301050167,新規,0,2023-01-12,2023-01-12,株式会社サイプレス,,株式会社,東京都,豊島区,池袋２丁目３６番１号,,13,116,1710014,,,,,,,2023-01-12,1,,,,,サイプレス,0
2860,9013301050175,新規,0,2023-01-12,2023-01-12,株式会社フクロウ,,株式会社,東京都,豊島区,上池袋４丁目３１番２８－６１１号,,13,116,1700012,,,,,,,2023-01-12,1,,,,,フクロウ,0
2861,9013305003427,新規,0,2023-01-12,2023-01-12,ＪＡＩＭＯ特定目的会社,,その他の設立登記法人,東京都,豊島区,長崎６丁目９番８－２０１号,,13,116,1710051,,,,,,,2023-01-12,1,,,,,,0
2866,9020003023021,新規,0,2023-01-12,2023-01-12,合同会社Ｃｕｏｂｌｉｏ,,合同会社,神奈川県,横浜市旭区,市沢町２０７番地２,,14,112,2410014,,,,,,,2023-01-12,1,,,,,クオブリオ,0
2867,9020003023038,新規,0,2023-01-12,2023-01-12,グラナイトリバーラボ・ジャパン・ソリューションズ合同会社,,合同会社,神奈川県,横浜市港北区,新横浜１丁目３番地１,,14,109,2220033,,,,,,,2023-01-12,1,,,,,グラナイトリバーラボジャパンソリューションズ,0
2868,9020003023054,新規,0,2023-01-12,2023-01-12,合同会社ＦＰアジアンリソーシズ,,合同会社,神奈川県,横浜市金沢区,西柴３丁目２０番２３号,,14,108,2360017,,,,,,,2023-01-12,1,,,,,エフピーアジアンリソーシズ,0
2870,9021001077851,新規,0,2023-01-12,2023-01-12,株式会社セレアル,,株式会社,神奈川県,秦野市,今泉３４１番地の１,,14,211,2570014,,,,,,,2023-01-12,1,,,,,セレアル,0
2871,9021001077901,新規,0,2023-01-12,2023-01-12,株式会社吉川建材,,株式会社,神奈川県,相模原市中央区,星が丘２丁目７番１７号,,14,152,2520238,,,,,,,2023-01-12,1,,,,,ヨシカワケンザイ,0
2883,9030001151830,新規,0,2023-01-12,2023-01-12,株式会社ＪＫＴ,,株式会社,埼玉県,草加市,瀬崎６丁目９番５１－２０５号,,11,221,3400022,,,,,,,2023-01-12,1,,,,,ジェイケイティ,0
2884,9030001151847,新規,0,2023-01-12,2023-01-12,株式会社むねきち,,株式会社,埼玉県,熊谷市,佐谷田２８４番地４,,11,202,3600023,,,,,,,2023-01-12,1,,,,,ムネキチ,0
2885,9030001151855,新規,0,2023-01-12,2023-01-12,シャキールカモシダＩＰ株式会社,,株式会社,埼玉県,さいたま市大宮区,大門町２丁目２０－２ＴＭＯ北棟２１０,,11,103,3300846,,,,,,,2023-01-12,1,,,,,シャキールカモシダアイピー,0
2886,9030001151863,新規,0,2023-01-12,2023-01-12,株式会社宇田庄園,,株式会社,埼玉県,川口市,大字安行１０４番地,,11,203,3340059,,,,,,,2023-01-12,1,,,,,ウダショウエン,0
2887,9030001151871,新規,0,2023-01-12,2023-01-12,株式会社Ｒｅｇｉｏｎａｌ　ｓｕｐｐｏｒｔ,,株式会社,埼玉県,鴻巣市,加美３丁目１番８号,,11,217,3650078,,,,,,,2023-01-12,1,,,,,リージョナルサポート,0
2888,9030001151896,新規,0,2023-01-12,2023-01-12,株式会社ＰＬＵＳ．ＢＥＹＯＮＤ,,株式会社,埼玉県,朝霞市,東弁財３丁目１５番３号,,11,227,3510022,,,,,,,2023-01-12,1,,,,,プラスビヨンド,0
2889,9030001151913,新規,0,2023-01-12,2023-01-12,株式会社すてら,,株式会社,埼玉県,戸田市,大字新曽１６８８－１,,11,224,3350021,,,,,,,2023-01-12,1,,,,,ステラ,0
2897,9030003020918,新規,0,2023-01-12,2023-01-12,合同会社鴻信,,合同会社,埼玉県,蓮田市,大字根金１８７７番地１,,11,238,3490131,,,,,,,2023-01-12,1,,,,,コウシン,0
2898,9030003020926,新規,0,2023-01-12,2023-01-12,Ｔ２プロジェクト合同会社,,合同会社,埼玉県,川口市,大字石神２３８番地の１３,,11,203,3330823,,,,,,,2023-01-12,1,,,,,ティーツープロジェクト,0
2899,9030005021105,新規,0,2023-01-12,2023-01-12,税理士法人ウィズ・イー,,その他の設立登記法人,埼玉県,飯能市,新町２３番地１,,11,209,3570004,,,,,,,2023-01-12,1,,,,,ウィズイー,0
2900,9030005021113,新規,0,2023-01-12,2023-01-12,司法書士法人相続・家族信託の窓口,,その他の設立登記法人,埼玉県,さいたま市浦和区,常盤２丁目１７番３号,,11,107,3300061,,,,,,,2023-01-12,1,,,,,ソウゾクカゾクシンタクノマドグチ,0
2904,9040001126591,新規,0,2023-01-12,2023-01-12,株式会社ウイム,,株式会社,千葉県,八街市,榎戸７０１番地８０,,12,230,2891106,,,,,,,2023-01-12,1,,,,,ウイム,0
2905,9040001126600,新規,0,2023-01-12,2023-01-12,株式会社ＭＹＣ,,株式会社,千葉県,船橋市,高根町６９８番地１２,,12,204,2740817,,,,,,,2023-01-12,1,,,,,エムワイシー,0
2906,9040001126609,新規,0,2023-01-12,2023-01-12,株式会社ガレージガンジー,,株式会社,千葉県,八千代市,米本２５０２番地１,,12,221,2760015,,,,,,,2023-01-12,1,,,,,ガレージガンジー,0
2910,9040003021659,新規,0,2023-01-12,2023-01-12,合同会社ＭＳＧＬｐａｒｔｎｅｒ,,合同会社,千葉県,千葉市中央区,富士見２丁目７番９号富士見ビル６０９号,,12,101,2600015,,,,,,,2023-01-12,1,,,,,エムエスジーエルパートナー,0
2912,9050001052226,新規,0,2023-01-12,2023-01-12,株式会社やす川,,株式会社,茨城県,牛久市,南３丁目１１番地１,,08,219,3001222,,,,,,,2023-01-12,1,,,,,ヤスカワ,0
2914,9050003007145,新規,0,2023-01-12,2023-01-12,合同会社１ｓｔＹｌｅ,,合同会社,茨城県,潮来市,辻１８９番地１,00129019,08,223,3112421,,,,,,,2023-01-12,1,,,,,ファーストスタイル,0
2915,9070001040006,新規,0,2023-01-12,2023-01-12,株式会社５Ｄ,,株式会社,群馬県,伊勢崎市,連取町１５２８番地１,,10,204,3720812,,,,,,,2023-01-12,1,,,,,ファイブディー,0
2917,9080101023743,新規,0,2023-01-12,2023-01-12,株式会社ＢＵＺＺ,,株式会社,静岡県,富士市,厚原２１５６番地,,22,210,4190201,,,,,,,2023-01-12,1,,,,,バズ,0
2918,9080401026248,新規,0,2023-01-12,2023-01-12,株式会社ミラプラス,,株式会社,静岡県,浜松市中区,高丘西３丁目４４番４号,,22,131,4338118,,,,,,,2023-01-12,1,,,,,ミラプラス,0
2919,9080403004689,新規,0,2023-01-12,2023-01-12,Ｓｑｕａｒｅ合同会社,,合同会社,静岡県,磐田市,上新屋５８４番地２,,22,211,4380831,,,,,,,2023-01-12,1,,,,,スクエア,0
2920,9100001036041,新規,0,2023-01-12,2023-01-12,ＴＣＷ株式会社,,株式会社,長野県,長野市,大字中御所岡田町１６６番地１,,20,201,3800936,,,,,,,2023-01-12,1,,,,,ティーシーダブリュー,0
2927,9110001037237,新規,0,2023-01-12,2023-01-12,Ｌｉｆｅ　Ｔｒａｖｅｒｓｅ株式会社,,株式会社,新潟県,南魚沼市,君沢３７４番地,,15,226,9496366,,,,,,,2023-01-12,1,,,,,ライフトラバース,0
2938,9120001251407,新規,0,2023-01-12,2023-01-12,宏達株式会社,,株式会社,大阪府,大阪市北区,梅田１丁目１２番１２号１１５号室,,27,127,5300001,,,,,,,2023-01-12,1,,,,,ヒロタツ,0
2939,9120001251670,新規,0,2023-01-12,2023-01-12,株式会社ＬＩＮＫＣＩＡＴＥ,,株式会社,大阪府,大阪市中央区,北浜東４番２４－６０６号,,27,128,5400031,,,,,,,2023-01-12,1,,,,,リンクシエイト,0
2940,9120005023397,新規,0,2023-01-12,2023-01-12,一般社団法人日本美肌睡眠指導士協会,,その他の設立登記法人,大阪府,大阪市北区,梅田１丁目２番２号大阪駅前第２ビル１２－１２,,27,127,5300001,,,,,,,2023-01-12,1,,,,,ニホンビハダスイミンシドウシキョウカイ,0
2944,9120101066804,新規,0,2023-01-12,2023-01-12,Ｓｈｅｒｐａ．株式会社,,株式会社,大阪府,堺市西区,平岡町１８５番地１２－３００４,,27,144,5938307,,,,,,,2023-01-12,1,,,,,シェルパドット,0
2945,9120101066812,新規,0,2023-01-12,2023-01-12,エドシーク株式会社,,株式会社,大阪府,堺市堺区,砂道町１丁６番２－２０４号,,27,141,5900002,,,,,,,2023-01-12,1,,,,,エドシーク,0
2949,9122001036564,新規,0,2023-01-12,2023-01-12,ツクルデザインワークス株式会社,,株式会社,大阪府,東大阪市,荒川３丁目２５番１１号,,27,227,5770843,,,,,,,2023-01-12,1,,,,,ツクルデザインワークス,0
2950,9122001036572,新規,0,2023-01-12,2023-01-12,株式会社エスピーホールディングス,,株式会社,大阪府,東大阪市,小阪２丁目２番１４号,,27,227,5770801,,,,,,,2023-01-12,1,,,,,エスピーホールディングス,0
2952,9130001073412,新規,0,2023-01-12,2023-01-12,平安林泉株式会社,,株式会社,京都府,京都市右京区,嵯峨野秋街道町５１番地３７,,26,108,6168314,,,,,,,2023-01-12,1,,,,,ヘイアンリンセン,0
2953,9130001073445,新規,0,2023-01-12,2023-01-12,株式会社紙秀,,株式会社,京都府,京都市上京区,今出川大宮東入元伊佐町２７２,,26,102,6020000,,,,,,,2023-01-12,1,,,,,カミヒデ,0
2959,9140001128669,新規,0,2023-01-12,2023-01-12,エムエーヒート株式会社,,株式会社,兵庫県,姫路市,香寺町須加院２番地５１３,,28,201,6792132,,,,,,,2023-01-12,1,,,,,エムエーヒート,0
2960,9140001128702,新規,0,2023-01-12,2023-01-12,株式会社ＤＡＬＥ　ＨＯＭＥ,,株式会社,兵庫県,神戸市北区,鳴子２丁目６番３号,,28,109,6511133,,,,,,,2023-01-12,1,,,,,デールホーム,0
2961,9140001128751,新規,0,2023-01-12,2023-01-12,株式会社山内プライス,,株式会社,兵庫県,西宮市,甲子園口２丁目２番３号なにわビル２階,,28,204,6638113,,,,,,,2023-01-12,1,,,,,ヤマウチプライス,0
2962,9140003018546,新規,0,2023-01-12,2023-01-12,合同会社グリーンヒル,,合同会社,兵庫県,三木市,緑が丘町西１丁目７番地の１２,,28,215,6730531,,,,,,,2023-01-12,1,,,,,グリーンヒル,0
2963,9140003018570,新規,0,2023-01-12,2023-01-12,ヒューマン・ルブ合同会社,,合同会社,兵庫県,丹波篠山市,西古佐１１３４番地４,,28,221,6692221,,,,,,,2023-01-12,1,,,,,ヒューマンルブ,0
2969,9180001154471,新規,0,2023-01-12,2023-01-12,株式会社スタジアム,,株式会社,愛知県,名古屋市中村区,下広井町１丁目１４－８,,23,105,4500006,,,,,,,2023-01-12,1,,,,,スタジアム,0
2970,9180001154546,新規,0,2023-01-12,2023-01-12,シエイドユー株式会社,,株式会社,愛知県,名古屋市中村区,太閤通５丁目２２番地の３１,,23,105,4530811,,,,,,,2023-01-12,1,,,,,シエイドユー,0
2971,9180001154554,新規,0,2023-01-12,2023-01-12,株式会社シーエフオー,,株式会社,愛知県,名古屋市中村区,名駅１丁目１番１号ＪＰタワー２１階,,23,105,4500002,,,,,,,2023-01-12,1,,,,,シーエフオー,0
2978,9180003024680,新規,0,2023-01-12,2023-01-12,合同会社ｐｕｒｅ,,合同会社,愛知県,名古屋市東区,矢田２丁目３番３１号,,23,102,4610040,,,,,,,2023-01-12,1,,,,,ピュア,0
2979,9180003024697,新規,0,2023-01-12,2023-01-12,合同会社谷口硝子店,,合同会社,愛知県,小牧市,常普請３丁目１２９番地２,,23,219,4850044,,,,,,,2023-01-12,1,,,,,タニグチガラステン,0
2980,9180003024706,新規,0,2023-01-12,2023-01-12,合同会社あさひ工業,,合同会社,愛知県,尾張旭市,瀬戸川町２丁目５６番地,,23,226,4880023,,,,,,,2023-01-12,1,,,,,アサヒコウギョウ,0
2981,9180003024714,新規,0,2023-01-12,2023-01-12,ミロワール合同会社,,合同会社,愛知県,尾張旭市,南新町中畑２３６番地,,23,226,4880041,,,,,,,2023-01-12,1,,,,,ミロワール,0
2982,9180301036964,新規,0,2023-01-12,2023-01-12,株式会社えぷろんファーム,,株式会社,愛知県,豊田市,宮上町３丁目３９番地３,,23,211,4710038,,,,,,,2023-01-12,1,,,,,エプロンファーム,0
2983,9180301036972,新規,0,2023-01-12,2023-01-12,株式会社Ｕ‐ＷＯＲＬＤ,,株式会社,愛知県,額田郡幸田町,大字野場字井戸田１００番地,,23,501,4440128,,,,,,,2023-01-12,1,,,,,ユーワールド,0
2984,9180301036989,新規,0,2023-01-12,2023-01-12,株式会社ソラリス,,株式会社,愛知県,安城市,高棚町郷４６９番地３ＲｏｓｅｔｔｅＡ１０２,00129028,23,212,4460053,,,,,,,2023-01-12,1,,,,,ソラリス,0
2987,9180302014382,新規,0,2023-01-12,2023-01-12,有限会社マサミ工業,,有限会社,愛知県,豊川市,伊奈町縫殿５３番地１１３,,23,207,4410105,,,,,,,2023-01-12,1,,,,,マサミコウギョウ,0
2988,9180303005546,新規,0,2023-01-12,2023-01-12,合同会社ＫＭＨショップ,,合同会社,愛知県,蒲郡市,豊岡町川筋２５番地,,23,214,4430011,,,,,,,2023-01-12,1,,,,,,0
2989,9180303005562,新規,0,2023-01-12,2023-01-12,合同会社インテリアクロ,,合同会社,愛知県,岡崎市,百々町字池ノ入１番地１８４,,23,202,4442115,,,,,,,2023-01-12,1,,,,,インテリアクロ,0
2994,9190001030060,新規,0,2023-01-12,2023-01-12,株式会社伊賀発電所,,株式会社,三重県,伊賀市,西之澤５５４番地１０,,24,216,5191426,,,,,,,2023-01-12,1,,,,,イガハツデンショ,0
2995,9190001030085,新規,0,2023-01-12,2023-01-12,株式会社丸銀商店,,株式会社,三重県,三重郡菰野町,大字菰野８５１５番地９,,24,341,5101233,,,,,,,2023-01-12,1,,,,,マルギンショウテン,0
2998,9190003004194,新規,0,2023-01-12,2023-01-12,合同会社熊野巡礼,,合同会社,三重県,多気郡大台町,大井３４８番地３,,24,443,5192518,,,,,,,2023-01-12,1,,,,,クマノジュンレイ,0
3000,9200001040859,新規,0,2023-01-12,2023-01-12,株式会社Ｆａｎｔａｓｉａ,,株式会社,岐阜県,郡上市,大和町牧８３３番地,,21,219,5014608,,,,,,,2023-01-12,1,,,,,ファンタジア,0
3001,9200003005802,新規,0,2023-01-12,2023-01-12,リオサス合同会社,,合同会社,岐阜県,高山市,国府町上広瀬１３００番地,,21,203,5094116,,,,,,,2023-01-12,1,,,,,リオサス,0
3003,9210003001602,新規,0,2023-01-12,2023-01-12,愛禅合同会社,,合同会社,福井県,越前市,村国３丁目１９番地１３,,18,209,9150084,,,,,,,2023-01-12,1,,,,,アイゼン,0
3013,9240001060928,新規,0,2023-01-12,2023-01-12,サンエスサポート株式会社,,株式会社,広島県,呉市,阿賀南４丁目１番３号,,34,202,7370004,,,,,,,2023-01-12,1,,,,,サンエスサポート,0
3014,9240001060936,新規,0,2023-01-12,2023-01-12,株式会社タダ不動産,,株式会社,広島県,福山市,新市町大字宮内２００番地４,,34,207,7293104,,,,,,,2023-01-12,1,,,,,タダフドウサン,0
3015,9240001060944,新規,0,2023-01-12,2023-01-12,株式会社輝工業,,株式会社,広島県,広島市安佐北区,亀山４丁目２番４号,,34,106,7310231,,,,,,,2023-01-12,1,,,,,テルコウギョウ,0
3020,9250001019907,新規,0,2023-01-12,2023-01-12,ローカル・エンターテイメント・デザイン株式会社,,株式会社,山口県,下関市,綾羅木新町３丁目７番１号,,35,201,7510865,,,,,,,2023-01-12,1,,,,,ローカルエンターテイメントデザイン,0
3023,9260001037560,新規,0,2023-01-12,2023-01-12,三宅工業株式会社,,株式会社,岡山県,井原市,芳井町宇戸川４３１２番地,,33,207,7142103,,,,,,,2023-01-12,1,,,,,ミヤケコウギョウ,0
3024,9260001037577,新規,0,2023-01-12,2023-01-12,株式会社ｍｉｓｓｉｏｎＯ．Ａ．Ｇ,,株式会社,岡山県,岡山市東区,瀬戸町瀬戸６２３－３,,33,103,7090861,,,,,,,2023-01-12,1,,,,,ミッションオーエージー,0
3027,9270001008701,新規,0,2023-01-12,2023-01-12,株式会社ｈｏｐ,,株式会社,鳥取県,西伯郡南部町,天萬４番地６,,31,389,6830201,,,,,,,2023-01-12,1,,,,,ホップ,0
3034,9290001100191,新規,0,2023-01-12,2023-01-12,株式会社ＢＯＫＫＡ,,株式会社,福岡県,福岡市中央区,今泉１丁目１７番２２号,,40,133,8100021,,,,,,,2023-01-12,1,,,,,ボッカ,0
3035,9290001100209,新規,0,2023-01-12,2023-01-12,株式会社モリモト不動産,,株式会社,福岡県,福岡市中央区,高砂１丁目１番２５号,,40,133,8100011,,,,,,,2023-01-12,1,,,,,モリモトフドウサン,0
3045,9320001019511,新規,0,2023-01-12,2023-01-12,株式会社ジョイフル商事,,株式会社,大分県,大分市,三川新町１丁目１番４５号,,44,201,8700141,,,,,,,2023-01-12,1,,,,,ジョイフルショウジ,0
3049,9330003009674,新規,0,2023-01-12,2023-01-12,古田圭範合同会社,,合同会社,熊本県,菊池市,西寺１９８７番地１　１０１号室ＳＨＥＬＬ　ｔｏｗｎ　ＫＵＲＥＮＡＩ,,43,210,8611323,,,,,,,2023-01-12,1,,,,,フルタヨシノリ,0
3050,9340001025292,新規,0,2023-01-12,2023-01-12,株式会社ｕｎｉｃａｒｅ,,株式会社,鹿児島県,鹿屋市,花岡町３９７７‐２,,46,203,8912304,,,,,,,2023-01-12,1,,,,,ユニケア,0
3052,9360001031413,新規,0,2023-01-12,2023-01-12,株式会社糸満リサイクルプロジェクト,,株式会社,沖縄県,糸満市,西崎町１丁目６番２,,47,210,9010306,,,,,,,2023-01-12,1,,,,,イトマンリサイクルプロジェクト,0
3053,9360001031421,新規,0,2023-01-12,2023-01-12,株式会社ウト,,株式会社,沖縄県,那覇市,松尾１丁目４番１号,,47,201,9000014,,,,,,,2023-01-12,1,,,,,ウト,0
3057,9370001049462,新規,0,2023-01-12,2023-01-12,株式会社ＳＵＢＳＴＡＮＣＥ,,株式会社,宮城県,大崎市,岩出山字二ノ構７９番地１,,04,215,9896436,,,,,,,2023-01-12,1,,,,,シュブスタンス,0
3058,9370001049479,新規,0,2023-01-12,2023-01-12,株式会社オフィスワンヘルス,,株式会社,宮城県,仙台市青葉区,国見ケ丘４丁目１７番地の２,,04,101,9893201,,,,,,,2023-01-12,1,,,,,オフィスワンヘルス,0
3059,9370001049487,新規,0,2023-01-12,2023-01-12,株式会社ＰＦＣ,,株式会社,宮城県,仙台市青葉区,本町２丁目９－８,,04,101,9800014,,,,,,,2023-01-12,1,,,,,ピーエフシー,0
3060,9370003005942,新規,0,2023-01-12,2023-01-12,小堀ファーム合同会社,,合同会社,宮城県,登米市,登米町日野渡日野渡３８番地,,04,212,9870704,,,,,,,2023-01-12,1,,,,,コホリファーム,0
3064,9380001033390,新規,0,2023-01-12,2023-01-12,株式会社リワーク,,株式会社,福島県,会津若松市,真宮新町南２丁目１３０番地,,07,202,9650103,,,,,,,2023-01-12,1,,,,,,0
3065,9380001033399,新規,0,2023-01-12,2023-01-12,株式会社ふたばラレス,,株式会社,福島県,双葉郡富岡町,曲田５５番地,,07,543,9791113,,,,,,,2023-01-12,1,,,,,フタバラレス,0
3067,9420001018123,新規,0,2023-01-12,2023-01-12,テイクワン株式会社,,株式会社,青森県,青森市,合浦１丁目７番３号,,02,201,0300902,,,,,,,2023-01-12,1,,,,,テイクワン,0
3068,9430001088181,新規,0,2023-01-12,2023-01-12,ウイズダム株式会社,,株式会社,北海道,札幌市中央区,北四条西７丁目５番地緑苑第２ビル１０１１号,,01,101,0600004,,,,,,,2023-01-12,1,,,,,ウイズダム,0
3070,9430003014615,新規,0,2023-01-12,2023-01-12,合同会社Ｃｈｕｕｓｈｉｎ,,合同会社,北海道,札幌市北区,北二十条西５丁目１番７号,,01,102,0010020,,,,,,,2023-01-12,1,,,,,チュウシン,0
3072,9440003001505,新規,0,2023-01-12,2023-01-12,合同会社北海ライフステップ,,合同会社,北海道,函館市,美原５丁目２６番１８号,,01,202,0410806,,,,,,,2023-01-12,1,,,,,ホッカイライフステップ,0
3077,9470005006482,新規,0,2023-01-12,2023-01-12,一般社団法人香川あんしんサポート協会,,その他の設立登記法人,香川県,高松市,三条町６２３番地１,,37,201,7618072,,,,,,,2023-01-12,1,,,,,カガワアンシンサポートキョウカイ,0
3082,9700150113679,新規,0,2023-01-12,2023-01-12,ＺｈｏｎｇＳｈａｎ　Ｊｉｎｘｉａｎｇ　Ｅｌｅｃｔｒｏｎｉｃｓ　Ｃｏ．，Ｌｔｄ,,外国会社等,,,,,,,,Ｐａｒｔ　ｏｎｅ　ｏｆ　Ｆｉｒｓｔ　Ｆｌｏｏｒ，Ｎｏ．９　ｏｆ　ＹｉＬｏｎｇ　１ｓｔ　Ｓｔｒｅｅｔ　２ｎｄ　Ｌａｎｅ，Ｘｉａｏｌｉ　Ｃｏｍｍｕｎｉｔｙ，ＤｏｎｇＦｅｎｇ　Ｔｏｗｎ，Ｚｈｏｎｇｓｈａｎ　Ｃｉｔｙ，Ｇｕａｎｇｄｏｎｇ　Ｐｒｏｖｉｎｃｅ，Ｃｈｉｎａ,,,,,,2023-01-12,1,,,,,チユウザンシキンゾウデンシユウゲンコウシ,0
