sequenceNumber,corporateNumber,process,correct,updateDate,changeDate,name,nameImageId,kind,prefectureName,cityName,streetNumber,addressImageId,prefectureCode,cityCode,postCode,addressOutside,addressOutsideImageId,closeDate,closeCause,successorCorporateNumber,changeCause,assignmentDate,latest,enName,enPrefectureName,enCityName,enAddressOutside,furigana,hihyoji
1,1010001080493,登記記録の閉鎖等,0,2023-10-30,2023-10-26,株式会社アーク・ルネッサンス,,株式会社,香川県,坂出市,西大浜北１丁目２番３３号,,37,203,7620053,,,2023-10-26,清算の結了等,,,2015-10-05,1,,,,,,0
33,1010405019484,登記記録の閉鎖等,0,2023-10-30,2023-10-19,ＲＢイーストホールディングス一般社団法人,,その他の設立登記法人,東京都,港区,虎ノ門３丁目２２番１０－２０１号,,13,103,1050001,,,2023-10-19,清算の結了等,,,2021-02-12,1,,,,,アールビーイーストホールディングス,0
35,1010601047553,登記記録の閉鎖等,0,2023-10-30,2023-10-26,株式会社Ｓｔａｒ　Ｊａｐａｎ,,株式会社,東京都,江東区,亀戸３丁目６２番１１号,,13,108,1360071,,,2023-10-26,清算の結了等,,,2015-10-05,1,,,,,,0
47,1011001010390,登記記録の閉鎖等,0,2023-10-30,2023-10-20,株式会社シティコム計画研究所,,株式会社,東京都,世田谷区,成城５丁目２５番１６号,,13,112,1570066,,,2023-10-20,清算の結了等,,,2015-10-05,1,,,,,,0
67,1011802026024,登記記録の閉鎖等,0,2023-10-30,2023-10-25,有限会社サンフォレスト,,有限会社,東京都,足立区,梅島２丁目３５番３号,,13,121,1210816,,,2023-10-25,清算の結了等,,,2015-10-05,1,,,,,サンフォレスト,0
90,1020002020365,登記記録の閉鎖等,0,2023-10-30,2023-10-17,有限会社浅井フアミリー企画,,有限会社,神奈川県,横浜市旭区,若葉台１丁目１番４０４号,,14,112,2410801,,,2023-10-17,清算の結了等,,,2015-10-05,1,,,,,アサイファミリーキカク,0
99,1030001014516,登記記録の閉鎖等,0,2023-10-30,2023-10-17,株式会社ツカサ,,株式会社,埼玉県,さいたま市大宮区,北袋町１丁目１８４番地４,,11,103,3300835,,,2023-10-17,清算の結了等,,,2015-10-05,1,,,,,ツカサ,0
104,1030001085012,登記記録の閉鎖等,0,2023-10-30,2023-10-02,秩父観光興業株式会社,,株式会社,埼玉県,熊谷市,曙町１丁目１番地,,11,202,3600033,,,2023-10-02,合併による解散等,7030001085015,令和５年１０月１日埼玉県熊谷市曙町一丁目１番地秩父鉄道観光バス株式会社（7030001085015）に合併し解散,2015-10-05,1,,,,,チチブカンコウコウギョウ,0
109,1030002067653,登記記録の閉鎖等,0,2023-10-30,2023-10-18,有限会社アライ設備工業,,有限会社,埼玉県,春日部市,豊町５丁目７番地１８,,11,214,3440066,,,2023-10-18,清算の結了等,,,2015-10-05,1,,,,,アライセツビコウギョウ,0
112,1030002080549,登記記録の閉鎖等,0,2023-10-30,2023-10-26,有限会社宙,,有限会社,群馬県,伊勢崎市,宮子町３５３３番地２９,,10,204,3720801,,,2023-10-26,清算の結了等,,,2015-10-05,1,,,,,,0
113,1030002082520,登記記録の閉鎖等,0,2023-10-30,2023-10-18,有限会社川久保木工,,有限会社,埼玉県,鴻巣市,箕田３５７０番地６,,11,217,3650062,,,2023-10-18,清算の結了等,,,2015-10-05,1,,,,,カワクボモッコウ,0
122,1040001106659,登記記録の閉鎖等,0,2023-10-30,2023-10-26,株式会社ＯＦＣヴィータ,,株式会社,東京都,江東区,豊洲５丁目５番１－８０１号,,13,108,1350061,,,2023-10-26,清算の結了等,,,2018-10-26,1,,,,,オーエフシーヴィータ,0
155,1120001198440,登記記録の閉鎖等,0,2023-10-30,2023-10-20,オーテックジャパン株式会社,,株式会社,大阪府,大阪市東成区,東中本１丁目１６番１６号,,27,115,5370021,,,2023-10-20,清算の結了等,,,2016-05-24,1,,,,,オーテックジャパン,0
156,1120001200998,登記記録の閉鎖等,0,2023-10-30,2023-10-23,株式会社Ｈ＆Ｃラボラトリー,,株式会社,大阪府,大阪市中央区,北浜１丁目１番２７号グランクリュ大阪北浜４０４,,27,128,5410041,,,2023-10-23,清算の結了等,,,2016-10-03,1,,,,,エイチアンドシーラボラトリー,0
157,1120001232645,登記記録の閉鎖等,0,2023-10-30,2023-10-19,株式会社ソルティズム,,株式会社,大阪府,大阪市北区,梅田１丁目１－３大阪駅前第３ビル２９階１－１－１号室,,27,127,5300001,,,2023-10-19,清算の結了等,,,2020-10-21,1,,,,,ソルティズム,0
182,1130003006798,登記記録の閉鎖等,0,2023-10-30,2023-10-13,合同会社ＣａｒｅＬｏｏｐｓ,,合同会社,京都府,京都市左京区,鹿ケ谷寺ノ前町６２番地９,,26,103,6068426,,,2023-10-13,清算の結了等,,,2020-10-05,1,,,,,,0
189,1140002015923,登記記録の閉鎖等,0,2023-10-30,2023-10-23,有限会社ポニー,,有限会社,兵庫県,神戸市中央区,三宮町１丁目６番１７号,,28,110,6500021,,,2023-10-23,清算の結了等,,,2015-10-05,1,,,,,ポニー,0
198,1180002011241,登記記録の閉鎖等,0,2023-10-30,2023-10-26,楠電子有限会社,,有限会社,愛知県,名古屋市北区,如意２丁目５９番地,,23,103,4620007,,,2023-10-26,清算の結了等,,,2015-10-05,1,,,,,クスノキデンシ,0
202,1180302022681,登記記録の閉鎖等,0,2023-10-30,2023-10-20,有限会社中央フード,,有限会社,愛知県,豊田市,土橋町８丁目２６番地１,,23,211,4710842,,,2023-10-20,清算の結了等,,,2015-10-05,1,,,,,チュウオウフード,0
208,1240001040169,登記記録の閉鎖等,0,2023-10-30,2023-10-05,甲和産業株式会社,,株式会社,広島県,三原市,西野１丁目１２番５号,,34,204,7230065,,,2023-10-05,清算の結了等,,,2015-10-05,1,,,,,コウワサンギョウ,0
214,1270002006728,登記記録の閉鎖等,0,2023-10-30,2023-10-26,有限会社長谷川養鶏場,,有限会社,鳥取県,米子市,大崎２５１３番地１,,31,202,6830104,,,2023-10-26,清算の結了等,,,2015-10-05,1,,,,,,0
243,1340002013007,登記記録の閉鎖等,0,2023-10-30,2023-10-27,有限会社フジイ設備,,有限会社,鹿児島県,鹿児島市,坂之上４丁目２３番４０号,,46,201,8910150,,,2023-10-27,清算の結了等,,,2015-10-05,1,,,,,フジイセツビ,0
244,1350003000746,登記記録の閉鎖等,0,2023-10-30,2023-10-20,合資会社西都自動車商会,,合資会社,宮崎県,西都市,大字妻１６４６番地,,45,208,8810033,,,2023-10-20,清算の結了等,,,2015-10-05,1,,,,,サイトジドウシャショウカイ,0
283,2010003030149,登記記録の閉鎖等,0,2023-10-30,2023-10-19,日光Ｐｌｕｓ１０ホールディング合同会社,,合同会社,東京都,千代田区,丸の内３丁目１番１号東京共同会計事務所内,,13,101,1000005,,,2023-10-19,清算の結了等,,,2019-07-04,1,,,,,ニッコウプラステンホールディング,0
284,2010003030586,登記記録の閉鎖等,0,2023-10-30,2023-10-18,アックスプロパティー合同会社,,合同会社,東京都,千代田区,丸の内１丁目１１番１号,,13,101,1000005,,,2023-10-18,清算の結了等,,,2019-09-10,1,,,,,アックスプロパティー,0
285,2010003040239,登記記録の閉鎖等,0,2023-10-30,2023-10-19,合同会社ＫＡＩＬＡ,,合同会社,東京都,中央区,日本橋室町１丁目１１番１２号日本橋水野ビル７階,,13,102,1030022,,,2023-10-19,清算の結了等,,,2023-04-07,1,,,,,カイラ,0
302,2010401157072,登記記録の閉鎖等,0,2023-10-30,2023-10-20,Ｂｌｕｅ　Ｂｅａｒ　Ａｉｒ　Ｓｅｒｖｉｃｅ株式会社,,株式会社,東京都,港区,港南２丁目１５番１号品川インターシティＡ棟２８階,,13,103,1080075,,,2023-10-20,清算の結了等,,,2020-12-15,1,,,,,ブルーベアエアーサービス,0
308,2010405009765,登記記録の閉鎖等,0,2023-10-30,2023-10-23,一般社団法人ＭＯＮＯ,,その他の設立登記法人,東京都,江東区,青海２丁目５番１０号テレコムセンタービル東棟１４階,,13,108,1350064,,,2023-10-23,清算の結了等,,,2015-10-05,1,,,,,モノ,0
309,2010501002442,登記記録の閉鎖等,0,2023-10-30,2023-10-26,株式会社石原商店,,株式会社,東京都,台東区,蔵前３丁目１７番２号,,13,106,1110051,,,2023-10-26,清算の結了等,,,2015-10-05,1,,,,,イシハラショウテン,0
310,2010601016342,登記記録の閉鎖等,0,2023-10-30,2023-10-26,緑衣料株式会社,,株式会社,東京都,墨田区,千歳３丁目３番１２号,,13,107,1300025,,,2023-10-26,清算の結了等,,,2015-10-05,1,,,,,ミドリイリョウ,0
312,2011001034934,登記記録の閉鎖等,0,2023-10-30,2023-10-25,株式会社カーボン・パートナーズ・アジアチカ,,株式会社,東京都,渋谷区,代々木５丁目２９番８－１１１号,,13,113,1510053,,,2023-10-25,清算の結了等,,,2015-10-05,1,,,,,カーボンパートナーズアジアチカ,0
333,2012401024707,登記記録の閉鎖等,0,2023-10-30,2023-10-25,クロア株式会社,,株式会社,東京都,小金井市,東町１丁目１６番２０号,,13,210,1840011,,,2023-10-25,清算の結了等,,,2015-10-05,1,,,,,,0
347,2020002043002,登記記録の閉鎖等,0,2023-10-30,2023-10-17,有限会社島田理髪館,,有限会社,神奈川県,横浜市中区,長者町５丁目７２番地,,14,104,2310033,,,2023-10-17,清算の結了等,,,2015-10-05,1,,,,,シマダリハツカン,0
350,2020003001545,登記記録の閉鎖等,0,2023-10-30,2023-10-17,合資会社大石金物店,,合資会社,神奈川県,横浜市南区,共進町１丁目３３番地,,14,105,2320015,,,2023-10-17,清算の結了等,,,2015-10-05,1,,,,,オオイシカナモノテン,0
410,2080401000036,登記記録の閉鎖等,0,2023-10-30,2023-10-26,株式会社ＢＥＮ企画,,株式会社,静岡県,浜松市中区,幸４丁目１９番１０号,,22,131,4338123,,,2023-10-26,清算の結了等,,,2015-10-05,1,,,,,ベンキカク,0
417,2110001017609,登記記録の閉鎖等,0,2023-10-30,2023-10-24,株式会社三井田金物店,,株式会社,新潟県,柏崎市,四谷１丁目１２番３４号,,15,205,9450046,,,2023-10-24,清算の結了等,,,2015-10-05,1,,,,,ミイダカナモノテン,0
424,2120001155473,登記記録の閉鎖等,0,2023-10-30,2023-10-26,株式会社カツラダ,,株式会社,大阪府,守口市,大宮通２丁目８番１８号,,27,209,5700033,,,2023-10-26,清算の結了等,,,2015-10-05,1,,,,,カツラダ,0
443,2120902014307,登記記録の閉鎖等,0,2023-10-30,2023-10-23,有限会社荒木産業,,有限会社,大阪府,池田市,神田１丁目２６番２３号,,27,204,5630043,,,2023-10-23,清算の結了等,,,2015-10-05,1,,,,,アラキサンギョウ,0
447,2130002004091,登記記録の閉鎖等,0,2023-10-30,2023-10-13,有限会社中村機業店,,有限会社,京都府,京都市北区,紫野上門前町３６番地の２,,26,101,6038217,,,2023-10-13,清算の結了等,,,2015-10-05,1,,,,,ナカムラキギョウテン,0
451,2140001040450,登記記録の閉鎖等,0,2023-10-30,2023-10-20,播磨西エナジック株式会社,,株式会社,兵庫県,赤穂市,加里屋１１２０番地の１２４,,28,212,6780239,,,2023-10-20,清算の結了等,,,2015-10-05,1,,,,,,0
458,2160005010968,登記記録の閉鎖等,0,2023-10-30,2023-10-26,滋賀県建設工事業協同組合,,その他の設立登記法人,滋賀県,米原市,枝折３６２番地,,25,214,5210032,,,2023-10-26,清算の結了等,,,2021-08-03,1,,,,,シガケンケンセツコウ,0
461,2180001037963,登記記録の閉鎖等,0,2023-10-30,2023-10-25,株式会社中日サロン,,株式会社,愛知県,名古屋市中区,栄４丁目１４番２１号,,23,106,4600008,,,2023-10-25,清算の結了等,,,2015-10-05,1,,,,,チュウニチサロン,0
467,2180001132104,登記記録の閉鎖等,0,2023-10-30,2023-10-27,株式会社ネクシア,,株式会社,愛知県,岡崎市,赤渋町字蔵西３６番地５,,23,202,4440241,,,2023-10-27,清算の結了等,,,2018-05-01,1,,,,,ネクシア,0
482,2210002009504,登記記録の閉鎖等,0,2023-10-30,2023-10-24,相互製缶有限会社,,有限会社,福井県,大野市,新塚原第１号５番地３,,18,205,9120825,,,2023-10-24,清算の結了等,,,2015-10-05,1,,,,,ソウゴセイカン,0
486,2240001060562,登記記録の閉鎖等,0,2023-10-30,2023-10-27,株式会社ＫＵＳＵＫＥ,,株式会社,広島県,福山市,南本庄４丁目９番２７号,,34,207,7200077,,,2023-10-27,清算の結了等,,,2022-10-28,1,,,,,クスケ,0
494,2290001010356,登記記録の閉鎖等,0,2023-10-30,2023-10-13,株式会社ヘルスケア経営研究所,,株式会社,福岡県,福岡市博多区,博多駅前１丁目５番１号博多大博通ビルディング７階,,40,132,8120011,,,2023-10-13,清算の結了等,,,2015-10-05,1,,,,,エルスケアケイエイケンキュウショ,0
495,2290001081406,登記記録の閉鎖等,0,2023-10-30,2023-10-17,株式会社縁ジョイらいふ,,株式会社,福岡県,福岡市博多区,住吉２丁目１７番１３号,,40,132,8120018,,,2023-10-17,清算の結了等,,,2018-05-08,1,,,,,エンジョイライフ,0
502,2290005017298,登記記録の閉鎖等,0,2023-10-30,2023-10-25,一般社団法人佐賀県任意売却支援協会,,その他の設立登記法人,福岡県,小郡市,光行３６６番地１,,40,216,8380132,,,2023-10-25,清算の結了等,,,2019-05-08,1,,,,,サガケンニンイバイキャクシエンキョウカイ,0
517,2370002006626,登記記録の閉鎖等,0,2023-10-30,2023-10-25,有限会社元基,,有限会社,宮城県,仙台市宮城野区,大梶１３番４０－５０７号,,04,102,9830835,,,2023-10-25,清算の結了等,,,2015-10-05,1,,,,,ゲンキ,0
521,2380002014660,登記記録の閉鎖等,0,2023-10-30,2023-10-18,有限会社たくみクリーン運輸,,有限会社,福島県,郡山市,菜根１丁目５番１２号,,07,203,9638862,,,2023-10-18,清算の結了等,,,2015-10-05,1,,,,,タクミクリーンウンユ,0
533,2500001001944,登記記録の閉鎖等,0,2023-10-30,2023-10-27,株式会社四国大幸建陶,,株式会社,愛媛県,松山市,南吉田町５８２番地,,38,201,7918042,,,2023-10-27,清算の結了等,,,2015-10-05,1,,,,,シコクダイコウケントウ,0
546,3010001225303,登記記録の閉鎖等,0,2023-10-30,2023-10-18,ＭＣＰイノベーションズ株式会社,,株式会社,東京都,千代田区,大手町１丁目８番１号,,13,101,1000004,,,2023-10-18,清算の結了等,,,2022-03-18,1,,,,,エムシーピーイノベーションズ,0
548,3010003027029,登記記録の閉鎖等,0,2023-10-30,2023-10-19,合同会社アルクトス・プロパティ,,合同会社,東京都,港区,虎ノ門３丁目８番２５号５階塚本拓也税理士事務所内,00121186,13,103,1050001,,,2023-10-19,清算の結了等,,,2018-02-26,1,,,,,アルクトスプロパティ,0
549,3010003031096,登記記録の閉鎖等,0,2023-10-30,2023-10-19,日光Ｐｌｕｓ１１ホールディング合同会社,,合同会社,東京都,千代田区,丸の内３丁目１番１号東京共同会計事務所内,,13,101,1000005,,,2023-10-19,清算の結了等,,,2019-11-20,1,,,,,ニッコウプラスイレブンホールディング,0
580,3010602020573,登記記録の閉鎖等,0,2023-10-30,2023-10-26,有限会社岡崎電機工業,00051738,有限会社,東京都,墨田区,墨田５丁目９番１６号,,13,107,1310031,,,2023-10-26,清算の結了等,,,2015-10-05,1,,,,,オカザキデンキコウギョウ,0
583,3010702011638,登記記録の閉鎖等,0,2023-10-30,2023-10-20,有限会社インタービット,,有限会社,東京都,港区,赤坂６丁目４番９号,,13,103,1070052,,,2023-10-20,清算の結了等,,,2015-10-05,1,,,,,インタービット,0
585,3010801029060,登記記録の閉鎖等,0,2023-10-30,2023-10-25,株式会社Ｂ＆ＭＡ,,株式会社,東京都,大田区,上池台２丁目３０番６号,,13,111,1450064,,,2023-10-25,清算の結了等,,,2018-08-06,1,,,,,ビーアンドエムエー,0
603,3011301027422,登記記録の閉鎖等,0,2023-10-30,2023-10-20,株式会社アサヒ,,株式会社,東京都,杉並区,阿佐谷北３丁目１番１３号,,13,115,1660001,,,2023-10-20,清算の結了等,,,2021-12-15,1,,,,,アサヒ,0
606,3011601001738,登記記録の閉鎖等,0,2023-10-30,2023-10-25,北資源株式会社,,株式会社,東京都,練馬区,旭町３丁目３０番１３号,,13,120,1790071,,,2023-10-25,清算の結了等,,,2015-10-05,1,,,,,キタシゲン,0
613,3012303000870,登記記録の閉鎖等,0,2023-10-30,2023-10-27,トレーディングジャパン合同会社,,合同会社,東京都,町田市,鶴川１丁目２０番１４,,13,209,1950061,,,2023-10-27,清算の結了等,,,2015-11-09,1,,,,,トレーディングジャパン,0
643,3030002113050,登記記録の閉鎖等,0,2023-10-30,2023-10-13,有限会社かねや産業,,有限会社,埼玉県,熊谷市,弥生１丁目３４番地,,11,202,3600044,,,2023-10-13,清算の結了等,,,2015-10-05,1,,,,,カネヤサンギョウ,0
646,3040002055894,登記記録の閉鎖等,0,2023-10-30,2023-10-16,有限会社ラーメンばやし,,有限会社,千葉県,成田市,花崎町５３３番地９,,12,211,2860033,,,2023-10-16,清算の結了等,,,2015-10-05,1,,,,,ラーメンバヤシ,0
655,3050002043031,登記記録の閉鎖等,0,2023-10-30,2023-10-12,丸武商事有限会社,,有限会社,茨城県,筑西市,小栗５１４１番地の８,,08,227,3091101,,,2023-10-12,清算の結了等,,,2015-10-05,1,,,,,マルタケショウジ,0
659,3060002010385,登記記録の閉鎖等,0,2023-10-30,2023-10-20,有限会社右京,,有限会社,栃木県,宇都宮市,ゆいの杜６丁目４番３０号,,09,201,3213226,,,2023-10-20,清算の結了等,,,2015-10-05,1,,,,,ウキョウ,0
660,3060005001902,登記記録の閉鎖等,0,2023-10-30,2023-10-25,特定非営利活動法人すいて,,その他の設立登記法人,栃木県,宇都宮市,不動前２丁目２番５３号株式　会社入江電機商会内,,09,201,3200833,,,2023-10-25,清算の結了等,,,2015-10-05,1,,,,,スイテ,0
667,3100001019191,登記記録の閉鎖等,0,2023-10-30,2023-10-16,株式会社南信興業,,株式会社,長野県,茅野市,金沢２９３９番地３７１,,20,214,3910012,,,2023-10-16,清算の結了等,,,2015-10-05,1,,,,,ナンシンコウギョウ,0
678,3120001117373,登記記録の閉鎖等,0,2023-10-30,2023-10-26,株式会社プラスパー,,株式会社,大阪府,大阪市中央区,北久宝寺町２丁目６番１０号,,27,128,5410057,,,2023-10-26,清算の結了等,,,2015-10-05,1,,,,,プラスパー,0
680,3120001214427,登記記録の閉鎖等,0,2023-10-30,2023-10-26,株式会社メドリエ,,株式会社,大阪府,大阪市北区,東天満２丁目９番４号,,27,127,5300044,,,2023-10-26,清算の結了等,,,2018-07-04,1,,,,,メドリエ,0
694,3120105001151,登記記録の閉鎖等,0,2023-10-30,2023-10-26,医療法人石原医院,,その他の設立登記法人,大阪府,堺市堺区,出島海岸通１丁１０番６号,,27,141,5900833,,,2023-10-26,清算の結了等,,,2015-10-05,1,,,,,イシハライイン,0
707,3130005016166,登記記録の閉鎖等,0,2023-10-30,2023-10-16,一般社団法人至世會,,その他の設立登記法人,京都府,京都市西京区,桂徳大寺町３１２番地ルーミナス桂２０２,,26,111,6158018,,,2023-10-16,清算の結了等,,,2021-04-21,1,,,,,シセイカイ,0
708,3140001009305,登記記録の閉鎖等,0,2023-10-30,2023-10-24,中央警備保障株式会社,,株式会社,兵庫県,神戸市兵庫区,島上町１丁目３番１５－３０７号,,28,105,6520833,,,2023-10-24,清算の結了等,,,2015-10-05,1,,,,,チュウオウケイビホショウ,0
709,3140001031102,登記記録の閉鎖等,0,2023-10-30,2023-10-25,株式会社エルズトップ,,株式会社,大阪府,大阪市都島区,東野田町１丁目２１番１４号,,27,102,5340024,,,2023-10-25,清算の結了等,,,2015-10-05,1,,,,,エルズトップ,0
725,3210001016426,登記記録の閉鎖等,0,2023-10-30,2023-10-23,株式会社木村土木企画,,株式会社,福井県,鯖江市,二丁掛町第５号５番地２５,,18,207,9160068,,,2023-10-23,清算の結了等,,,2016-08-03,1,,,,,キムラドボクキカク,0
735,3240005014200,登記記録の閉鎖等,0,2023-10-30,2023-10-16,広島トライオ協同組合,,その他の設立登記法人,広島県,安芸郡府中町,山田４丁目１５番８号,,34,302,7350004,,,2023-10-16,清算の結了等,,,2016-07-22,1,,,,,ヒロシマトライオ,0
747,3290002036226,登記記録の閉鎖等,0,2023-10-30,2023-10-16,有限会社ガラスナガサキ,,有限会社,福岡県,糟屋郡粕屋町,大字阿恵４６８番地の７,,40,349,8112300,,,2023-10-16,清算の結了等,,,2015-10-05,1,,,,,ガラスナガサキ,0
749,3290003006384,登記記録の閉鎖等,0,2023-10-30,2023-10-17,ＣＡＳＡＢＬＡＮＣＡ合同会社,,合同会社,福岡県,福岡市中央区,赤坂３丁目１３－２５グランドメゾン赤坂けやき通り９０１,,40,133,8100042,,,2023-10-17,清算の結了等,,,2016-03-30,1,,,,,カサブランカ,0
757,3310002010434,登記記録の閉鎖等,0,2023-10-30,2023-10-26,有限会社雀の巣,,有限会社,長崎県,佐世保市,梅田町５８番地１７,,42,202,8570017,,,2023-10-26,清算の結了等,,,2015-10-05,1,,,,,,0
759,3310002018221,登記記録の閉鎖等,0,2023-10-30,2023-10-26,有限会社水田工務店,,有限会社,長崎県,南島原市,深江町丁２２３８番地,,42,214,8591504,,,2023-10-26,清算の結了等,,,2015-10-05,1,,,,,,0
761,3320002019268,登記記録の閉鎖等,0,2023-10-30,2023-10-25,有限会社トータルワン,,有限会社,大分県,日田市,大字三和８２５番地３,,44,204,8770000,,,2023-10-25,清算の結了等,,,2015-10-05,1,,,,,トータルワン,0
774,3400602000024,登記記録の閉鎖等,0,2023-10-30,2023-10-16,有限会社アースチルドレン,,有限会社,岩手県,奥州市,水沢字寺小路２番地,,03,215,0230811,,,2023-10-16,清算の結了等,,,2015-10-05,1,,,,,アースチルドレン,0
789,3500001016834,登記記録の閉鎖等,0,2023-10-30,2023-10-26,株式会社ロブラング,,株式会社,愛媛県,喜多郡内子町,平岡甲７９６番地,,38,422,7950303,,,2023-10-26,清算の結了等,,,2015-10-05,1,,,,,ロブラング,0
804,4010003039386,登記記録の閉鎖等,0,2023-10-30,2023-10-18,ＩＯＪＩＤＡ合同会社,,合同会社,東京都,千代田区,岩本町３丁目１０番７号東自機ビル７階,,13,101,1010032,,,2023-10-18,清算の結了等,,,2022-12-21,1,,,,,イオジダ,0
813,4010402016457,登記記録の閉鎖等,0,2023-10-30,2023-10-20,有限会社藤スペースプラン,,有限会社,東京都,港区,三田４丁目１５番３２－３０３号,,13,103,1080073,,,2023-10-20,清算の結了等,,,2015-10-05,1,,,,,フジスペースプラン,0
820,4010601055165,登記記録の閉鎖等,0,2023-10-30,2023-10-13,株式会社Ｒｅｔａｉｌ　ＳＨＩＦＴ,,株式会社,東京都,港区,浜松町１丁目３０番５号浜松町スクエア,,13,103,1050013,,,2023-10-13,合併による解散等,2010401141877,令和５年１０月１日東京都港区浜松町一丁目３０番５号浜松町スクエア株式会社Ｒｅｔａｉｌ　ＡＩ（2010401141877）に合併し解散,2019-03-07,1,,,,,リテールシフト,0
839,4011103011714,登記記録の閉鎖等,0,2023-10-30,2023-10-26,合同会社あいるりめんば,,合同会社,東京都,新宿区,西新宿７丁目５－５Ｐｌａｚａ西新宿ＵＣＦ４０６,,13,104,1600023,,,2023-10-26,清算の結了等,,,2022-05-02,1,,,,,アイルリメンバ,0
858,4012401014986,登記記録の閉鎖等,0,2023-10-30,2023-10-19,株式会社Ｎ・Ｋ,,株式会社,東京都,国立市,富士見台３丁目９番地の８グリーンコーポ国立５０１,,13,215,1860003,,,2023-10-19,清算の結了等,,,2015-10-05,1,,,,,エヌケイ,0
862,4012402003468,登記記録の閉鎖等,0,2023-10-30,2023-10-19,有限会社ケー・エス商会,,有限会社,東京都,国分寺市,富士本３丁目２番地３０,,13,214,1850031,,,2023-10-19,清算の結了等,,,2015-10-05,1,,,,,,0
863,4013201013939,登記記録の閉鎖等,0,2023-10-30,2023-10-19,株式会社つつみ屋,,株式会社,東京都,世田谷区,下馬３丁目２２番１１号,,13,112,1540002,,,2023-10-19,清算の結了等,,,2015-10-05,1,,,,,ツツミヤ,0
867,4020001027805,登記記録の閉鎖等,0,2023-10-30,2023-10-18,株式会社冨田,,株式会社,神奈川県,横浜市青葉区,美しが丘５丁目２－１４たまセンター第２ビル２０９Ｄ,,14,117,2250002,,,2023-10-18,清算の結了等,,,2015-10-05,1,,,,,トミタ,0
897,4030005015978,登記記録の閉鎖等,0,2023-10-30,2023-10-17,特定非営利活動法人子育て応援クラブむくむく,,その他の設立登記法人,埼玉県,蕨市,塚越７丁目２３番２号,,11,223,3350002,,,2023-10-17,清算の結了等,,,2015-10-05,1,,,,,コソダテオウエンクラブムクムク,0
903,4040003009287,登記記録の閉鎖等,0,2023-10-30,2023-10-16,合同会社ＬＩＳＣＯ,,合同会社,千葉県,船橋市,大穴南４丁目１３番１３号,,12,204,2740067,,,2023-10-16,清算の結了等,,,2016-11-11,1,,,,,リスコ,0
912,4070002010516,登記記録の閉鎖等,0,2023-10-30,2023-10-26,有限会社須藤商店,,有限会社,群馬県,高崎市,乗附町９０１番地,,10,202,3700867,,,2023-10-26,清算の結了等,,,2015-10-05,1,,,,,ストウショウテン,0
921,4110002020337,登記記録の閉鎖等,0,2023-10-30,2023-10-25,有限会社太田ボーリング,,有限会社,新潟県,刈羽郡刈羽村,大字赤田北方２８４８番地,,15,504,9450325,,,2023-10-25,清算の結了等,,,2015-10-05,1,,,,,オオタボーリング,0
922,4110002032927,登記記録の閉鎖等,0,2023-10-30,2023-10-27,有限会社上吉百貨店,,有限会社,新潟県,南魚沼市,浦佐２４７２番地,,15,226,9497302,,,2023-10-27,清算の結了等,,,2015-10-05,1,,,,,,0
924,4120001078078,登記記録の閉鎖等,0,2023-10-30,2023-10-26,協永化成株式会社,,株式会社,大阪府,大阪市中央区,淡路町１丁目２番５号,,27,128,5410047,,,2023-10-26,清算の結了等,,,2015-10-05,1,,,,,キョウエイカセイ,0
925,4120001099611,登記記録の閉鎖等,0,2023-10-30,2023-10-20,株式会社大阪測器,,株式会社,大阪府,大阪市都島区,中野町４丁目３番９号,,27,102,5340027,,,2023-10-20,清算の結了等,,,2015-10-05,1,,,,,,0
956,4150002005937,登記記録の閉鎖等,0,2023-10-30,2023-10-27,有限会社誠のたまご,,有限会社,奈良県,天理市,福住町１０４９１番地,,29,204,6320122,,,2023-10-27,清算の結了等,,,2015-10-05,1,,,,,マコトノタマゴ,0
965,4180002027367,登記記録の閉鎖等,0,2023-10-30,2023-10-20,有限会社カガ屋,,有限会社,愛知県,名古屋市中村区,太閤通５丁目５番地,,23,105,4530811,,,2023-10-20,清算の結了等,,,2015-10-05,1,,,,,カガヤ,0
970,4180301028297,登記記録の閉鎖等,0,2023-10-30,2023-10-19,株式会社ゼニス,,株式会社,愛知県,豊橋市,牟呂公文町１３番地の２,,23,201,4418090,,,2023-10-19,清算の結了等,,,2015-10-05,1,,,,,ゼニス,0
976,4190005011714,登記記録の閉鎖等,0,2023-10-30,2023-10-20,尾鷲米穀販売協同組合,,その他の設立登記法人,三重県,尾鷲市,矢浜岡崎町２５３番地,,24,209,5193672,,,2023-10-20,清算の結了等,,,2022-06-27,1,,,,,オワセベイコクハンバイ,0
993,4240002051195,登記記録の閉鎖等,0,2023-10-30,2023-10-25,有限会社林工作所,,有限会社,広島県,尾道市,向島町９４３８番地の１,,34,205,7220073,,,2023-10-25,清算の結了等,,,2015-10-05,1,,,,,ハヤシコウサクショ,0
1009,4310003000425,登記記録の閉鎖等,0,2023-10-30,2023-10-25,光洋物産合資会社,,合資会社,長崎県,長崎市,若草町１８番４０号,,42,201,8528023,,,2023-10-25,清算の結了等,,,2015-10-05,1,,,,,,0
1010,4330001000920,登記記録の閉鎖等,0,2023-10-30,2023-10-20,株式会社きたじま商会,,株式会社,熊本県,熊本市中央区,国府本町１番２０号,,43,101,8620948,,,2023-10-20,清算の結了等,,,2015-10-05,1,,,,,,0
1028,4410002009424,登記記録の閉鎖等,0,2023-10-30,2023-10-24,有限会社さちえ,,有限会社,秋田県,北秋田市,住吉町９番１１号,,05,213,0183322,,,2023-10-24,清算の結了等,,,2015-10-05,1,,,,,サチエ,0
1039,4490001010334,登記記録の閉鎖等,0,2023-10-30,2023-10-26,エム・エム・ユニティ株式会社,,株式会社,高知県,香南市,野市町土居１２３３番地２,,39,211,7815212,,,2023-10-26,清算の結了等,,,2022-11-09,1,,,,,エムエムユニティ,0
1052,5010001225557,登記記録の閉鎖等,0,2023-10-30,2023-10-20,株式会社アイリス,,株式会社,東京都,千代田区,大手町１丁目２番１号,,13,101,1000004,,,2023-10-20,合併による解散等,7010003026448,令和５年１０月２０日東京都千代田区丸の内三丁目１番１号東京共同会計事務所内合同会社エメラルド（7010003026448）に合併し解散,2022-03-30,1,,,,,アイリス,0
1067,5010401170857,登記記録の閉鎖等,0,2023-10-30,2023-10-20,株式会社ＡＮＤＥＲＳ,,株式会社,東京都,港区,浜松町２丁目２－１５浜松町ダイヤビル２Ｆ,,13,103,1050013,,,2023-10-20,清算の結了等,,,2022-11-16,1,,,,,アンダース,0
1073,5010402029573,登記記録の閉鎖等,0,2023-10-30,2023-10-24,有限会社みなとパテント,,有限会社,神奈川県,南足柄市,塚原４６５０番地１７,,14,217,2500117,,,2023-10-24,清算の結了等,,,2015-10-05,1,,,,,ミナトパテント,0
1083,5010703006362,登記記録の閉鎖等,0,2023-10-30,2023-10-25,日本オフィスビル合同会社,,合同会社,東京都,品川区,上大崎３丁目１番１号目黒セントラルスクエア１５階,,13,109,1410021,,,2023-10-25,清算の結了等,,,2022-08-18,1,,,,,ニホンオフィスビル,0
1087,5010803001131,登記記録の閉鎖等,0,2023-10-30,2023-10-25,幸永サービス合同会社,,合同会社,東京都,小平市,小川町１丁目４７８番地の１５４上水の杜タウン・ガレージハウスＧ号室,,13,211,1870032,,,2023-10-25,清算の結了等,,,2015-10-05,1,,,,,コウエイサービス,0
1092,5010901025916,登記記録の閉鎖等,0,2023-10-30,2023-10-18,株式会社有美,,株式会社,東京都,世田谷区,赤堤１丁目４３番１号,,13,112,1560044,,,2023-10-18,清算の結了等,,,2015-10-05,1,,,,,ユウビ,0
1099,5011002020567,登記記録の閉鎖等,0,2023-10-30,2023-10-19,有限会社カシオブロス,,有限会社,東京都,港区,赤坂２丁目１９番８号赤坂２丁目アネックス７階,,13,103,1070052,,,2023-10-19,清算の結了等,,,2015-10-05,1,,,,,カシオブロス,0
1100,5011002035111,登記記録の閉鎖等,0,2023-10-30,2023-10-17,有限会社ウルトラブレイン,,有限会社,埼玉県,川口市,朝日４丁目１番１８号,,11,203,3320001,,,2023-10-17,清算の結了等,,,2015-10-05,1,,,,,ウルトラブレイン,0
1106,5011101086294,登記記録の閉鎖等,0,2023-10-30,2023-10-20,Ｅｆｕｎ　Ｊａｐａｎ株式会社,,株式会社,東京都,港区,東新橋２丁目９番７号ＹＡＨＡＴＡ汐留ビル５０１,,13,103,1050021,,,2023-10-20,清算の結了等,,,2018-12-17,1,,,,,イーファンジャパン,0
1144,5020001141720,登記記録の閉鎖等,0,2023-10-30,2023-10-18,株式会社エラフルー,,株式会社,神奈川県,横浜市青葉区,あざみ野３丁目３３－１５２,,14,117,2250011,,,2023-10-18,清算の結了等,,,2021-06-09,1,,,,,エラフルー,0
1155,5030001012482,登記記録の閉鎖等,0,2023-10-30,2023-10-17,株式会社ビーアールエムトゥワン,,株式会社,埼玉県,さいたま市大宮区,櫛引町１丁目５７７番地１６,00014574,11,103,3300851,,,2023-10-17,清算の結了等,,,2015-10-05,1,,,,,ビーアールエムトゥワン,0
1170,5030002051562,登記記録の閉鎖等,0,2023-10-30,2023-10-16,有限会社アミューズメントクラブ,,有限会社,埼玉県,三郷市,新和５丁目１２８番地１,,11,237,3410034,,,2023-10-16,清算の結了等,,,2015-10-05,1,,,,,アミューズメントクラブ,0
1172,5030002068631,登記記録の閉鎖等,0,2023-10-30,2023-10-16,有限会社鈴商,,有限会社,埼玉県,越谷市,大字平方３１９３番地２,,11,222,3430002,,,2023-10-16,清算の結了等,,,2015-10-05,1,,,,,スズショウ,0
1185,5040003006341,登記記録の閉鎖等,0,2023-10-30,2023-10-16,合同会社ワークアシスト,,合同会社,千葉県,千葉市中央区,院内１丁目１４番７号Ｋ＆Ｉビル３階Ａ室,,12,101,2600018,,,2023-10-16,清算の結了等,,,2015-10-05,1,,,,,ワークアシスト,0
1196,5080401016319,登記記録の閉鎖等,0,2023-10-30,2023-10-27,太田土建工業株式会社,,株式会社,静岡県,磐田市,掛塚１２０４番地の２,,22,211,4380234,,,2023-10-27,清算の結了等,,,2015-10-05,1,,,,,オオタドケンコウギョウ,0
1198,5080402003902,登記記録の閉鎖等,0,2023-10-30,2023-10-27,有限会社信和土木,,有限会社,静岡県,浜松市中区,葵西３丁目２７番３０号セジュール葵Ｃ号室,,22,131,4338111,,,2023-10-27,清算の結了等,,,2015-10-05,1,,,,,シンワドボク,0
1205,5100002010346,登記記録の閉鎖等,0,2023-10-30,2023-10-18,有限会社岩下建具店,,有限会社,長野県,佐久市,桜井３０６番地４,,20,217,3850056,,,2023-10-18,清算の結了等,,,2015-10-05,1,,,,,イワシタタテグテン,0
1211,5120001034328,登記記録の閉鎖等,0,2023-10-30,2023-10-20,株式会社イワセ,,株式会社,大阪府,大阪市福島区,野田５丁目９番２４号,,27,103,5530005,,,2023-10-20,清算の結了等,,,2015-10-05,1,,,,,イワセ,0
1212,5120001036539,登記記録の閉鎖等,0,2023-10-30,2023-10-26,松希イトー株式会社,,株式会社,大阪府,大阪市福島区,玉川４丁目１３番２４号,,27,103,5530004,,,2023-10-26,清算の結了等,,,2015-10-05,1,,,,,マツキ,0
1216,5120001241386,登記記録の閉鎖等,0,2023-10-30,2023-10-20,サンユービルド株式会社,,株式会社,大阪府,大阪市中央区,内本町２丁目１番１９号,,27,128,5400026,,,2023-10-20,清算の結了等,,,2021-10-22,1,,,,,サンユービルド,0
1231,5130002025192,登記記録の閉鎖等,0,2023-10-30,2023-10-13,有限会社大貴製作所,,有限会社,京都府,向日市,鶏冠井町馬司８番地の３,,26,208,6170004,,,2023-10-13,清算の結了等,,,2015-10-05,1,,,,,ダイキセイサクショ,0
1236,5140001083637,登記記録の閉鎖等,0,2023-10-30,2023-10-23,Ｌａｙ企画出版株式会社,,株式会社,兵庫県,伊丹市,中野西１丁目１４７－１－１８,,28,207,6640023,,,2023-10-23,清算の結了等,,,2015-10-05,1,,,,,レイキカクシュッパン,0
1249,5180001125022,登記記録の閉鎖等,0,2023-10-30,2023-10-13,ＮＣＡ２株式会社,,株式会社,愛知県,名古屋市天白区,中平５丁目１３０３番地,,23,116,4680014,,,2023-10-13,清算の結了等,,,2016-10-05,1,,,,,エヌシーエーツー,0
1262,5180302005864,登記記録の閉鎖等,0,2023-10-30,2023-10-20,有限会社エス・プランニング,,有限会社,愛知県,岡崎市,井田南町１番地９・２０１ビル２Ｆ,,23,202,4440068,,,2023-10-20,清算の結了等,,,2015-10-05,1,,,,,エスプランニング,0
1300,5290805009442,登記記録の閉鎖等,0,2023-10-30,2023-10-19,ＮＰＯ法人シャイニングスポーツ北九州,,その他の設立登記法人,福岡県,北九州市八幡西区,馬場山原７番１７号,,40,109,8071135,,,2023-10-19,清算の結了等,,,2021-05-17,1,,,,,シャイニングスポーツキタキュウシュウ,0
1310,5330002025230,登記記録の閉鎖等,0,2023-10-30,2023-10-23,有限会社大誠工業,,有限会社,熊本県,下益城郡美里町,名越谷７９１番地２,,43,348,8614736,,,2023-10-23,清算の結了等,,,2015-10-05,1,,,,,,0
1319,5380001024344,登記記録の閉鎖等,0,2023-10-30,2023-10-27,ＷＩＮＧ　ＥＮＥＲＧＹ株式会社,,株式会社,新潟県,燕市,吉田東栄町７番８号,,15,213,9590232,,,2023-10-27,清算の結了等,,,2015-10-05,1,,,,,ウイングエナジー,0
1322,5380002026273,登記記録の閉鎖等,0,2023-10-30,2023-10-23,有限会社水庭自動車,,有限会社,福島県,いわき市,平赤井字畑子沢１番地の７７,,07,204,9793131,,,2023-10-23,清算の結了等,,,2015-10-05,1,,,,,ミズバジドウシャ,0
1329,5430001051473,登記記録の閉鎖等,0,2023-10-30,2023-10-18,株式会社ＯＹＭネットワーク,,株式会社,北海道,小樽市,築港１１番５号ウィングべイ小樽５番街１階,00088730,01,203,0470008,,,2023-10-18,清算の結了等,,,2015-10-05,1,,,,,,0
1365,6010402019037,登記記録の閉鎖等,0,2023-10-30,2023-10-20,有限会社ティーアンドオーパートナーズ,,有限会社,東京都,港区,赤坂５丁目１番３１号,,13,103,1070052,,,2023-10-20,合併による解散等,7010401035364,令和５年１０月１日東京都港区赤坂４－２－８赤坂金春ビル５階Ｂリアルリンク株式会社（7010401035364）に合併し解散,2015-10-05,1,,,,,ティーアンドオーパートナーズ,0
1374,6011001111135,登記記録の閉鎖等,0,2023-10-30,2023-10-20,ユナイテッドクルー株式会社,,株式会社,東京都,港区,南青山１丁目３－１パークアクシス青山一丁目タワー１３０１,,13,103,1070062,,,2023-10-20,清算の結了等,,,2016-05-31,1,,,,,,0
1383,6011201015689,登記記録の閉鎖等,0,2023-10-30,2023-10-27,エムアンドシー株式会社,,株式会社,東京都,中野区,本町２丁目１５番６号,,13,114,1640012,,,2023-10-27,清算の結了等,,,2015-10-05,1,,,,,エムアンドシー,0
1394,6012301005662,登記記録の閉鎖等,0,2023-10-30,2023-10-27,シェイクハンズ株式会社,,株式会社,東京都,町田市,木曽東４丁目１９番４４号,,13,209,1940036,,,2023-10-27,清算の結了等,,,2015-10-05,1,,,,,シェイクハンズ,0
1395,6012401036921,登記記録の閉鎖等,0,2023-10-30,2023-10-26,株式会社テクノ,,株式会社,東京都,武蔵野市,御殿山１丁目５番３号第２ジョージパークハイツ３１３号室,,13,203,1800005,,,2023-10-26,清算の結了等,,,2020-09-08,1,,,,,テクノ,0
1400,6020001006848,登記記録の閉鎖等,0,2023-10-30,2023-10-17,株式会社マスカテイア・インフオメーシヨン・リサーチ,,株式会社,神奈川県,横浜市金沢区,泥亀１丁目１７番２０号,,14,108,2360021,,,2023-10-17,清算の結了等,,,2015-10-05,1,,,,,マスカテイアインフオメーシヨンリサーチ,0
1401,6020001011988,登記記録の閉鎖等,0,2023-10-30,2023-10-16,株式会社福山電設,,株式会社,神奈川県,横浜市青葉区,大場町３７３番地１４,,14,117,2250023,,,2023-10-16,清算の結了等,,,2015-10-05,1,,,,,フクヤマデンセツ,0
1408,6020002006087,登記記録の閉鎖等,0,2023-10-30,2023-10-18,有限会社崎谷商事,,有限会社,神奈川県,横浜市都筑区,池辺町３４４４番地２,,14,118,2240053,,,2023-10-18,清算の結了等,,,2015-10-05,1,,,,,サキヤショウジ,0
1409,6020002017638,登記記録の閉鎖等,0,2023-10-30,2023-10-17,有限会社森茂商店,,有限会社,神奈川県,横浜市西区,戸部本町４０番１０号,,14,103,2200041,,,2023-10-17,清算の結了等,,,2015-10-05,1,,,,,モリシゲショウテン,0
1421,6030001079810,登記記録の閉鎖等,0,2023-10-30,2023-10-23,株式会社オフィスＴＭＭ,,株式会社,東京都,千代田区,内神田３丁目２番１２号,,13,101,1010047,,,2023-10-23,清算の結了等,,,2015-10-05,1,,,,,オフィスティーエムエム,0
1429,6030002081047,登記記録の閉鎖等,0,2023-10-30,2023-10-13,有限会社入建材,,有限会社,埼玉県,児玉郡上里町,大字七本木９７９番地５,,11,385,3690306,,,2023-10-13,清算の結了等,,,2015-10-05,1,,,,,イリケンザイ,0
1442,6040002037931,登記記録の閉鎖等,0,2023-10-30,2023-10-16,有限会社佐藤デンタルラボラトリー,,有限会社,千葉県,鎌ケ谷市,丸山３丁目９番３３号,,12,224,2730103,,,2023-10-16,清算の結了等,,,2015-10-05,1,,,,,サトウデンタルラボラトリー,0
1449,6050001041710,登記記録の閉鎖等,0,2023-10-30,2023-10-20,宍戸井戸店株式会社,,株式会社,茨城県,潮来市,洲崎４５２番地２,,08,223,3112408,,,2023-10-20,清算の結了等,,,2016-10-13,1,,,,,シシドイドテン,0
1454,6050002008007,登記記録の閉鎖等,0,2023-10-30,2023-10-20,有限会社アサヒフーズ,,有限会社,茨城県,ひたちなか市,大字高野３９３番地,,08,221,3120002,,,2023-10-20,清算の結了等,,,2015-10-05,1,,,,,アサヒフーズ,0
1470,6080102011080,登記記録の閉鎖等,0,2023-10-30,2023-10-25,有限会社土狩プロパンガス商会,,有限会社,静岡県,駿東郡長泉町,下土狩１１３１番地,,22,342,4110943,,,2023-10-25,清算の結了等,,,2015-10-05,1,,,,,トガリプロパンガスショウカイ,0
1473,6080401019642,登記記録の閉鎖等,0,2023-10-30,2023-10-27,株式会社レーヴコーポレーション,,株式会社,静岡県,浜松市東区,半田山３丁目３４番６７号,,22,132,4313125,,,2023-10-27,清算の結了等,,,2015-10-05,1,,,,,レーヴコーポレーション,0
1477,6100002035499,登記記録の閉鎖等,0,2023-10-30,2023-10-18,有限会社クルーコーポレーション,,有限会社,長野県,伊那市,山寺２６００番地,,20,209,3960023,,,2023-10-18,清算の結了等,,,2015-10-05,1,,,,,クルーコーポレーション,0
1501,6120901013685,登記記録の閉鎖等,0,2023-10-30,2023-10-25,株式会社ティーエスエムシステム,,株式会社,大阪府,茨木市,郡山２丁目１４番７号の４,,27,211,5670071,,,2023-10-25,清算の結了等,,,2015-10-05,1,,,,,ティーエスエムシステム,0
1505,6130001006878,登記記録の閉鎖等,0,2023-10-30,2023-10-13,株式会社電気評論社,,株式会社,京都府,京都市左京区,吉田河原町１４番地近畿地方発明センター内,00035232,26,103,6068305,,,2023-10-13,清算の結了等,,,2015-10-05,1,,,,,デンキヒョウロンシャ,0
1508,6130001074090,登記記録の閉鎖等,0,2023-10-30,2023-10-12,とわ循環経済開発１号株式会社,,株式会社,京都府,京都市中京区,烏丸通錦小路上る手洗水町６５９番地烏丸中央ビル,,26,104,6048152,,,2023-10-12,清算の結了等,,,2023-04-17,1,,,,,トワジュンカンケイザイカイハツイチゴウ,0
1527,6180002063014,登記記録の閉鎖等,0,2023-10-30,2023-10-20,木ノ下組有限会社,,有限会社,愛知県,豊田市,新町３丁目８７番地５,,23,211,4710044,,,2023-10-20,清算の結了等,,,2015-10-05,1,,,,,,0
1529,6180002075348,登記記録の閉鎖等,0,2023-10-30,2023-10-25,有限会社アクアシステム,,有限会社,愛知県,丹羽郡大口町,余野６丁目２９７番地,,23,361,4800146,,,2023-10-25,清算の結了等,,,2015-10-05,1,,,,,アクアシステム,0
1535,6180305003501,登記記録の閉鎖等,0,2023-10-30,2023-10-19,医療法人芳賀歯科,,その他の設立登記法人,愛知県,豊川市,御津町西方日暮２３番地２,,23,207,4410312,,,2023-10-19,清算の結了等,,,2015-10-05,1,,,,,ハガシカ,0
1537,6190002009866,登記記録の閉鎖等,0,2023-10-30,2023-10-26,有限会社明伸,,有限会社,三重県,伊勢市,中須町１０００番地,,24,203,5160053,,,2023-10-26,清算の結了等,,,2015-10-05,1,,,,,,0
1554,6270002011070,登記記録の閉鎖等,0,2023-10-30,2023-10-25,有限会社三谷ガラス店,,有限会社,鳥取県,倉吉市,山根５６７番地１,,31,203,6820023,,,2023-10-25,清算の結了等,,,2015-10-05,1,,,,,ミタニガラステン,0
1575,6340002010973,登記記録の閉鎖等,0,2023-10-30,2023-10-26,有限会社コバリ,,有限会社,鹿児島県,鹿児島市,坂元町１２８７番地,,46,201,8920862,,,2023-10-26,清算の結了等,,,2015-10-05,1,,,,,コバリ,0
1598,6450002007488,登記記録の閉鎖等,0,2023-10-30,2023-10-26,有限会社サンキュウ,,有限会社,北海道,深川市,二条７番１９号,,01,228,0740002,,,2023-10-26,清算の結了等,,,2015-10-05,1,,,,,サンキュウ,0
1621,7010401135263,登記記録の閉鎖等,0,2023-10-30,2023-10-20,株式会社日本未来再生エネルギー技術研究所,,株式会社,東京都,港区,六本木３丁目２番１号六本木グランドタワー３２階,,13,103,1060032,,,2023-10-20,清算の結了等,,,2017-12-05,1,,,,,ニホンミライサイセイエネルギーギジュツケンキュウジョ,0
1622,7010401135833,登記記録の閉鎖等,0,2023-10-30,2023-10-26,株式会社エアトリステイ,,株式会社,東京都,港区,愛宕２丁目５番１号,,13,103,1050002,,,2023-10-26,合併による解散等,6011001151643,令和５年１０月１日東京都中央区銀座七丁目１６番２１号銀座木挽ビル３階株式会社羅針盤（6011001151643）に合併し解散,2018-01-09,1,,,,,エアトリステイ,0
1623,7010401149701,登記記録の閉鎖等,0,2023-10-30,2023-10-26,イントラードＤＭジャパン株式会社,,株式会社,東京都,新宿区,西新宿１丁目２０番３号西新宿高木ビル７階,00124327,13,104,1600023,,,2023-10-26,清算の結了等,,,2019-12-09,1,,,,,イントラードディーエムジャパン,0
1624,7010401155468,登記記録の閉鎖等,0,2023-10-30,2023-10-19,Ｂａｃｋｂａｓｅ　Ｊａｐａｎ株式会社,,株式会社,東京都,千代田区,霞が関３丁目２番６号東京倶楽部ビルディング１１階,,13,101,1000013,,,2023-10-19,清算の結了等,,,2020-10-05,1,,,,,バックベースジャパン,0
1676,7011803000823,登記記録の閉鎖等,0,2023-10-30,2023-10-24,ハナブサ・プランニング合資会社,,合資会社,東京都,葛飾区,東水元２丁目１０番４号,,13,122,1250033,,,2023-10-24,清算の結了等,,,2015-10-05,1,,,,,ハナブサプランニング,0
1678,7012302008143,登記記録の閉鎖等,0,2023-10-30,2023-10-27,有限会社タマデザイン,,有限会社,東京都,町田市,真光寺町１１５８番地８,,13,209,1950051,,,2023-10-27,清算の結了等,,,2015-10-05,1,,,,,タマデザイン,0
1684,7013202005560,登記記録の閉鎖等,0,2023-10-30,2023-10-25,有限会社芙蓉設計,,有限会社,東京都,目黒区,大橋１丁目２番地３号,,13,110,1530044,,,2023-10-25,清算の結了等,,,2015-10-05,1,,,,,フヨウセッケイ,0
1691,7013402007126,登記記録の閉鎖等,0,2023-10-30,2023-10-26,有限会社ビスタリカデザイン,,有限会社,東京都,多摩市,貝取１丁目４０番地４－４０２,,13,224,2060012,,,2023-10-26,清算の結了等,,,2015-10-05,1,,,,,ビスタリカデザイン,0
1696,7020001129986,登記記録の閉鎖等,0,2023-10-30,2023-10-17,株式会社エルフォート,,株式会社,神奈川県,横浜市南区,山王町４丁目２５番地６,,14,105,2320013,,,2023-10-17,清算の結了等,,,2019-02-19,1,,,,,エルフォート,0
1715,7030001065677,登記記録の閉鎖等,0,2023-10-30,2023-10-17,株式会社日幸ハウス,,株式会社,埼玉県,吉川市,木売２丁目１０番地８,,11,243,3420045,,,2023-10-17,清算の結了等,,,2015-10-05,1,,,,,ニッコウハウス,0
1733,7040001110523,登記記録の閉鎖等,0,2023-10-30,2023-10-16,株式会社ブリスライト,,株式会社,千葉県,柏市,十余二３３７番地４５８,,12,217,2770872,,,2023-10-16,清算の結了等,,,2019-08-28,1,,,,,ブリスライト,0
1763,7120001051940,登記記録の閉鎖等,0,2023-10-30,2023-10-26,ジェーティーエス株式会社,,株式会社,大阪府,大阪市北区,豊崎３丁目１１番６－８０３号,,27,127,5310072,,,2023-10-26,清算の結了等,,,2015-10-05,1,,,,,ジェーティーエス,0
1764,7120001081038,登記記録の閉鎖等,0,2023-10-30,2023-10-20,株式会社資産コンサルテーション,,株式会社,大阪府,大阪市中央区,瓦町３丁目２番１６号,,27,128,5410048,,,2023-10-20,清算の結了等,,,2015-10-05,1,,,,,シサンコンサルテーション,0
1765,7120001102801,登記記録の閉鎖等,0,2023-10-30,2023-10-23,ユウアイ建設株式会社,,株式会社,大阪府,大阪市天王寺区,上汐６丁目１番１８号,,27,109,5430002,,,2023-10-23,清算の結了等,,,2015-10-05,1,,,,,ユウアイケンセツ,0
1766,7120001135495,登記記録の閉鎖等,0,2023-10-30,2023-10-23,エルディエステート株式会社,,株式会社,大阪府,大阪市中央区,大手前１丁目７番３１号,,27,128,5400008,,,2023-10-23,清算の結了等,,,2015-10-05,1,,,,,,0
1769,7120001197503,登記記録の閉鎖等,0,2023-10-30,2023-10-20,株式会社リュックデザイン,,株式会社,大阪府,大阪市旭区,今市１丁目４番３２号アーバンハイツ今市３０２,,27,117,5350011,,,2023-10-20,清算の結了等,,,2016-04-12,1,,,,,リュックデザイン,0
1786,7122001004960,登記記録の閉鎖等,0,2023-10-30,2023-10-26,土屋運送株式会社,,株式会社,大阪府,東大阪市,高井田本通４丁目６番１６号,,27,227,5770066,,,2023-10-26,清算の結了等,,,2015-10-05,1,,,,,ツチヤウンソウ,0
1797,7130002030546,登記記録の閉鎖等,0,2023-10-30,2023-10-12,朝日電器京都販売有限会社,,有限会社,京都府,城陽市,市辺五島３１番地の２３,,26,207,6100114,,,2023-10-12,清算の結了等,,,2015-10-05,1,,,,,アサヒデンキキョウトハンバイ,0
1806,7140002003121,登記記録の閉鎖等,0,2023-10-30,2023-10-24,有限会社小中商店,,有限会社,兵庫県,神戸市灘区,記田町５丁目３番２１号,,28,102,6570034,,,2023-10-24,清算の結了等,,,2015-10-05,1,,,,,コナカショウテン,0
1821,7180302022271,登記記録の閉鎖等,0,2023-10-30,2023-10-20,システムサービス有限会社,,有限会社,愛知県,豊田市,前田町１丁目３１番地１,,23,211,4710874,,,2023-10-20,清算の結了等,,,2015-10-05,1,,,,,システムサービス,0
1830,7220005003119,登記記録の閉鎖等,0,2023-10-30,2023-10-26,特定非営利活動法人泉の家,,その他の設立登記法人,石川県,金沢市,城南２丁目４３番１８号,,17,201,9200966,,,2023-10-26,清算の結了等,,,2015-10-05,1,,,,,イズミノイエ,0
1846,7290001001111,登記記録の閉鎖等,0,2023-10-30,2023-10-17,株式会社木村建築研究所,,株式会社,福岡県,福岡市南区,五十川２丁目２５番２５号木村ビル,,40,134,8150001,,,2023-10-17,清算の結了等,,,2015-10-05,1,,,,,キムラケンチクケンキュウショ,0
1854,7300002005209,登記記録の閉鎖等,0,2023-10-30,2023-10-23,株式会社かんざき,,株式会社,佐賀県,神埼市,神埼町本堀３２０６番地１,,41,210,8420003,,,2023-10-23,清算の結了等,,,2015-10-05,1,,,,,カンザキ,0
1859,7310005005064,登記記録の閉鎖等,0,2023-10-30,2023-10-27,最上稲荷淨心教会,,その他の設立登記法人,長崎県,大村市,杭出津２丁目５３５番地２４,,42,205,8560828,,,2023-10-27,清算の結了等,,,2015-10-05,1,,,,,,0
1880,7380002028821,登記記録の閉鎖等,0,2023-10-30,2023-10-23,東栄工業有限会社,,有限会社,福島県,南相馬市,原町区下太田字小原２番地の１３,,07,212,9750041,,,2023-10-23,清算の結了等,,,2015-10-05,1,,,,,トウエイコウギョウ,0
1883,7390002006017,登記記録の閉鎖等,0,2023-10-30,2023-10-26,有限会社石岡屋,,有限会社,山形県,上山市,新丁４番７号,,06,207,9993152,,,2023-10-26,清算の結了等,,,2015-10-05,1,,,,,イシオカヤ,0
1886,7410001004002,登記記録の閉鎖等,0,2023-10-30,2023-10-25,株式会社エナジー,,株式会社,秋田県,秋田市,広面字大袋３９番地,,05,201,0100041,,,2023-10-25,清算の結了等,,,2015-10-05,1,,,,,,0
1921,8010002028048,登記記録の閉鎖等,0,2023-10-30,2023-10-23,有限会社シーエスシー,,有限会社,東京都,豊島区,東池袋３丁目１５番１４号クレール東池袋６０１号室,,13,116,1700013,,,2023-10-23,清算の結了等,,,2015-10-05,1,,,,,シーエスシー,0
1931,8010401113813,登記記録の閉鎖等,0,2023-10-30,2023-10-19,株式会社ヘレンカミンスキージャパン,,株式会社,東京都,港区,芝公園３丁目１番３８号,,13,103,1050011,,,2023-10-19,清算の結了等,,,2015-10-05,1,,,,,ヘレンカミンスキージャパン,0
1946,8010902002052,登記記録の閉鎖等,0,2023-10-30,2023-10-19,有限会社氏森工房,,有限会社,東京都,世田谷区,上北沢５丁目４番１７号,,13,112,1560057,,,2023-10-19,清算の結了等,,,2015-10-05,1,,,,,,0
1955,8011101065188,登記記録の閉鎖等,0,2023-10-30,2023-10-26,株式会社ファッションヘッドライン,,株式会社,東京都,新宿区,新宿５丁目１６番１０号,,13,104,1600022,,,2023-10-26,清算の結了等,,,2015-10-05,1,,,,,ファッションヘッドライン,0
1967,8011702012217,登記記録の閉鎖等,0,2023-10-30,2023-10-26,有限会社ユニット,,有限会社,東京都,江戸川区,松江３丁目３番１３号,,13,123,1320025,,,2023-10-26,清算の結了等,,,2015-10-05,1,,,,,ユニット,0
1970,8012802005878,登記記録の閉鎖等,0,2023-10-30,2023-10-20,有限会社たけいし,,有限会社,東京都,東大和市,南街３丁目５６番地の５,,13,220,2070014,,,2023-10-20,清算の結了等,,,2015-10-05,1,,,,,タケイシ,0
1999,8030002083801,登記記録の閉鎖等,0,2023-10-30,2023-10-16,有限会社さくら薬局,,有限会社,埼玉県,鴻巣市,吹上本町１丁目２番１１号,,11,217,3690115,,,2023-10-16,清算の結了等,,,2015-10-05,1,,,,,サクラヤッキョク,0
2008,8040002019184,登記記録の閉鎖等,0,2023-10-30,2023-10-16,有限会社やまやす商店,,有限会社,千葉県,習志野市,大久保１丁目２２番９号,,12,216,2750011,,,2023-10-16,清算の結了等,,,2015-10-05,1,,,,,ヤマヤスショウテン,0
2013,8050001022493,登記記録の閉鎖等,0,2023-10-30,2023-10-23,株式会社ネオ．ハウス,,株式会社,茨城県,神栖市,日川１９６３番地８９,,08,232,3140114,,,2023-10-23,清算の結了等,,,2015-10-05,1,,,,,ネオハウス,0
2016,8050002003179,登記記録の閉鎖等,0,2023-10-30,2023-10-24,有限会社森企画,,有限会社,茨城県,水戸市,米沢町４４８番地の１,,08,201,3100847,,,2023-10-24,清算の結了等,,,2015-10-05,1,,,,,,0
2020,8080002002566,登記記録の閉鎖等,0,2023-10-30,2023-10-27,有限会社静浦精工,,有限会社,静岡県,静岡市駿河区,西中原２丁目１番３７号,,22,102,4228053,,,2023-10-27,清算の結了等,,,2015-10-05,1,,,,,シズウラセイコウ,0
2021,8080002016392,登記記録の閉鎖等,0,2023-10-30,2023-10-27,有限会社ヤマコ小山商店,,有限会社,静岡県,焼津市,塩津８３番地の４,,22,212,4250085,,,2023-10-27,清算の結了等,,,2015-10-05,1,,,,,,0
2031,8100003000756,登記記録の閉鎖等,0,2023-10-30,2023-10-20,合同会社新海瓦工業,,合同会社,長野県,佐久市,北川４８８番地,,20,217,3840304,,,2023-10-20,清算の結了等,,,2015-10-05,1,,,,,シンガイカワラコウギョウ,0
2041,8120002038614,登記記録の閉鎖等,0,2023-10-30,2023-10-23,有限会社マイ企画,,有限会社,兵庫県,西宮市,高須町１丁目１番１５－２１０号,,28,204,6638141,,,2023-10-23,清算の結了等,,,2015-10-05,1,,,,,マイキカク,0
2061,8120903002040,登記記録の閉鎖等,0,2023-10-30,2023-10-25,合同会社エステート松出,,合同会社,大阪府,箕面市,小野原西２丁目５番２９号,,27,220,5620032,,,2023-10-25,清算の結了等,,,2016-10-25,1,,,,,エステートマツイデ,0
2075,8140002003310,登記記録の閉鎖等,0,2023-10-30,2023-10-24,有限会社ゼントレーディング,,有限会社,兵庫県,神戸市灘区,水道筋４丁目１番２１号,,28,102,6570831,,,2023-10-24,清算の結了等,,,2015-10-05,1,,,,,ゼントレーディング,0
2104,8290001021331,登記記録の閉鎖等,0,2023-10-30,2023-10-16,株式会社河祥工業,,株式会社,福岡県,福岡市東区,箱崎４丁目５番２－９０３号,,40,131,8120053,,,2023-10-16,清算の結了等,,,2015-10-05,1,,,,,カワショウコウギョウ,0
2132,8370001049496,登記記録の閉鎖等,0,2023-10-30,2023-10-23,Ｅａｓｔ　Ｊａｐａｎ　Ｗｏｏｄ株式会社,,株式会社,宮城県,栗原市,鶯沢袋島巡４４番地７,,04,213,9895401,,,2023-10-23,清算の結了等,,,2023-01-20,1,,,,,イーストジャパンウッド,0
2139,8400001009736,登記記録の閉鎖等,0,2023-10-30,2023-10-04,株式会社エコテックワールド釜石,,株式会社,岩手県,釜石市,大字平田第３地割７５番地１,,03,211,0260001,,,2023-10-04,清算の結了等,,,2015-10-05,1,,,,,エコテックワールドカマイシ,0
2155,8490001004134,登記記録の閉鎖等,0,2023-10-30,2023-10-26,株式会社バモスシステム,,株式会社,高知県,高知市,朝倉甲２８９番地２２,,39,201,7808061,,,2023-10-26,清算の結了等,,,2015-10-05,1,,,,,バモスシステム,0
2174,9010103000598,登記記録の閉鎖等,0,2023-10-30,2023-10-25,合同会社モノワーク,,合同会社,東京都,多摩市,唐木田１丁目８番地の１－１１０１,,13,224,2060035,,,2023-10-25,清算の結了等,,,2015-10-05,1,,,,,,0
2181,9010401149237,登記記録の閉鎖等,0,2023-10-30,2023-10-20,株式会社Ｅｍｐｉｒｅａｃｔ,,株式会社,東京都,港区,南青山２丁目２番１５号ウィン青山９４２,,13,103,1070062,,,2023-10-20,清算の結了等,,,2019-11-15,1,,,,,エンパイアアクト,0
2192,9010601035138,登記記録の閉鎖等,0,2023-10-30,2023-10-26,株式会社エフシー,,株式会社,東京都,江東区,亀戸１丁目１６番８号,,13,108,1360071,,,2023-10-26,清算の結了等,,,2015-10-05,1,,,,,エフシー,0
2197,9010902006366,登記記録の閉鎖等,0,2023-10-30,2023-10-17,有限会社サンコー商事,,有限会社,東京都,世田谷区,玉川台２丁目２０番６号,,13,112,1580096,,,2023-10-17,清算の結了等,,,2015-10-05,1,,,,,サンコーショウジ,0
2205,9011001145097,登記記録の閉鎖等,0,2023-10-30,2023-10-26,株式会社オーブ,,株式会社,東京都,新宿区,西新宿３丁目２番９号ワシントンビル本館２階,,13,104,1600023,,,2023-10-26,清算の結了等,,,2022-01-25,1,,,,,オーブ,0
2215,9011701018230,登記記録の閉鎖等,0,2023-10-30,2023-10-25,マル金商事株式会社,,株式会社,東京都,江戸川区,篠崎町７丁目１８番１４号,,13,123,1330061,,,2023-10-25,清算の結了等,,,2015-10-05,1,,,,,マルキンショウジ,0
2260,9030002082364,登記記録の閉鎖等,0,2023-10-30,2023-10-16,有限会社浅川工業,,有限会社,埼玉県,鴻巣市,宮前４６３番地２,,11,217,3650051,,,2023-10-16,清算の結了等,,,2015-10-05,1,,,,,アサカワコウギョウ,0
2278,9040002002494,登記記録の閉鎖等,0,2023-10-30,2023-10-13,有限会社おだか住販,,有限会社,千葉県,千葉市若葉区,千城台東１丁目２４番９号,,12,104,2640002,,,2023-10-13,清算の結了等,,,2015-10-05,1,,,,,オダカジュウハン,0
2283,9040002068536,登記記録の閉鎖等,0,2023-10-30,2023-10-16,有限会社袖ヶ浦たい肥,,有限会社,千葉県,袖ケ浦市,川原井２０７１番地の１１,,12,229,2990201,,,2023-10-16,清算の結了等,,,2015-10-05,1,,,,,ソデガウラタイヒ,0
2284,9040002073148,登記記録の閉鎖等,0,2023-10-30,2023-10-17,有限会社光成工業,,有限会社,千葉県,市原市,能満３０１番地６,,12,219,2900011,,,2023-10-17,清算の結了等,,,2015-10-05,1,,,,,コウセイコウギョウ,0
2303,9110002020571,登記記録の閉鎖等,0,2023-10-30,2023-10-24,有限会社三巧製作,,有限会社,新潟県,柏崎市,半田２丁目１０番２８号,,15,205,9450812,,,2023-10-24,清算の結了等,,,2015-10-05,1,,,,,サンコウセイサク,0
2312,9120001213935,登記記録の閉鎖等,0,2023-10-30,2023-10-26,グーシン電子ジャパン株式会社,,株式会社,大阪府,大阪市西区,西本町１丁目２－１,,27,106,5500005,,,2023-10-26,清算の結了等,,,2018-06-07,1,,,,,グーシンデンシジャパン,0
2327,9130001041237,登記記録の閉鎖等,0,2023-10-30,2023-10-13,株式会社ヒロタケ,,株式会社,京都府,福知山市,字天田３１番地の１,,26,201,6200000,,,2023-10-13,清算の結了等,,,2015-10-05,1,,,,,ヒロタケ,0
2360,9180301025661,登記記録の閉鎖等,0,2023-10-30,2023-10-23,株式会社プライド,,株式会社,愛知県,西尾市,吉良町荻原七曲２８番地１,,23,213,4440524,,,2023-10-23,清算の結了等,,,2015-10-05,1,,,,,プライド,0
2366,9230001000595,登記記録の閉鎖等,0,2023-10-30,2023-10-24,株式会社鼎デザイン建創,,株式会社,富山県,富山市,上赤江町１丁目３番７号,,16,201,9300816,,,2023-10-24,清算の結了等,,,2015-10-05,1,,,,,カナエデザインケンソウ,0
2369,9230005008288,登記記録の閉鎖等,0,2023-10-30,2023-10-27,医療法人社団木田小児科医院,,その他の設立登記法人,富山県,射水市,東太閤山３丁目８７番地,,16,211,9390319,,,2023-10-27,清算の結了等,,,2015-10-05,1,,,,,キダショウニカイイン,0
2373,9240005006282,登記記録の閉鎖等,0,2023-10-30,2023-10-13,呉平成個人タクシー協同組合,,その他の設立登記法人,広島県,呉市,焼山東３丁目１５番８号,,34,202,7370936,,,2023-10-13,清算の結了等,,,2015-10-05,1,,,,,クレヘイセイコジンタクシー,0
2394,9330005009144,登記記録の閉鎖等,0,2023-10-30,2023-10-19,特定非営利活動法人日本健康美容普及連盟,,その他の設立登記法人,熊本県,熊本市東区,新南部３丁目７番１３３号,,43,102,8618028,,,2023-10-19,清算の結了等,,,2015-10-05,1,,,,,ニホンケンコウビヨウフキュウレンメイ,0
2418,9380005010386,登記記録の閉鎖等,0,2023-10-30,2023-10-23,一般社団法人朝日座,,その他の設立登記法人,福島県,南相馬市,原町区金沢字堤下４１９番地,,07,212,9750021,,,2023-10-23,清算の結了等,,,2015-10-05,1,,,,,アサヒザ,0
