sequenceNumber,corporateNumber,process,correct,updateDate,changeDate,name,nameImageId,kind,prefectureName,cityName,streetNumber,addressImageId,prefectureCode,cityCode,postCode,addressOutside,addressOutsideImageId,closeDate,closeCause,successorCorporateNumber,changeCause,assignmentDate,latest,enName,enPrefectureName,enCityName,enAddressOutside,furigana,hihyoji
7,1010001247976,新規,0,2024-09-05,2024-09-05,株式会社Ｇ‐Ｓｔｙｒｅｘ,,株式会社,東京都,千代田区,神田東紺屋町３０番地サンハイツ神田北村ビル６０６号,,13,101,1010034,,,,,,,2024-09-05,1,,,,,ジースタイレックス,0
8,1010001248017,新規,0,2024-09-05,2024-09-05,株式会社ノスタルジック商会,,株式会社,東京都,中央区,銀座１丁目２２番１１号銀座大竹ビジデンス２Ｆ,,13,102,1040061,,,,,,,2024-09-05,1,,,,,ノスタルジックショウカイ,0
21,1010401184811,新規,0,2024-09-05,2024-09-05,美康生物科技日本株式会社,,株式会社,東京都,港区,新橋４丁目３１番３号,,13,103,1050004,,,,,,,2024-09-05,1,,,,,メイカンセイブツカギニホン,0
23,1010405023552,新規,0,2024-09-05,2024-09-05,Ａｌｂａｎｏ一般社団法人,,その他の設立登記法人,東京都,港区,西新橋１丁目１番１号ＥＰコンサルティングサービス内,,13,103,1050003,,,,,,,2024-09-05,1,,,,,,0
31,1010901055917,新規,0,2024-09-05,2024-09-05,株式会社ＳＯＮＯ　ＣＯＲＰＯＲＡＴＩＯＮ,,株式会社,東京都,世田谷区,玉川１丁目１５番２－５０４号,,13,112,1580094,,,,,,,2024-09-05,1,,,,,ソノコーポレーション,0
33,1010903009334,新規,0,2024-09-05,2024-09-05,Ｍａｐｌｅ３６９合同会社,,合同会社,東京都,世田谷区,梅丘１丁目５１番１３号,,13,112,1540022,,,,,,,2024-09-05,1,,,,,メイプルサンロクキュウ,0
42,1011001164328,新規,0,2024-09-05,2024-09-05,凌睿株式会社,,株式会社,東京都,渋谷区,恵比寿西１丁目３６番２号７０１号,,13,113,1500021,,,,,,,2024-09-05,1,,,,,リョウエイ,0
43,1011001164344,新規,0,2024-09-05,2024-09-05,株式会社みかんあじ,,株式会社,東京都,渋谷区,松濤２丁目７番１２－４０８号,,13,113,1500046,,,,,,,2024-09-05,1,,,,,ミカンアジ,0
44,1011001164468,新規,0,2024-09-05,2024-09-05,株式会社シーケンス,,株式会社,東京都,目黒区,中央町１丁目４番３－４１２号目黒第８コーポ,,13,110,1520001,,,,,,,2024-09-05,1,,,,,シーケンス,0
45,1011001164501,新規,0,2024-09-05,2024-09-05,ＤＥＦＩＴ株式会社,,株式会社,東京都,目黒区,中目黒３丁目３番２号ＥＧビル２階,,13,110,1530061,,,,,,,2024-09-05,1,,,,,デフィット,0
46,1011001164526,新規,0,2024-09-05,2024-09-05,株式会社オープンリーチ,,株式会社,東京都,渋谷区,代々木１丁目２４番５号ＪＯＹＧＡＲＤＥＮＹＯＹＯＧＩ１０３号,,13,113,1510053,,,,,,,2024-09-05,1,,,,,オープンリーチ,0
48,1011005010651,新規,0,2024-09-05,2024-09-05,ビラ・ローザ管理組合法人,,その他の設立登記法人,東京都,渋谷区,神宮前３丁目３１番１７号ビラ・ローザ内,,13,113,1500001,,,,,,,2024-09-05,1,,,,,ビラローザ,0
50,1011101108647,新規,0,2024-09-05,2024-09-05,株式会社ＤＮＥＸ,,株式会社,東京都,新宿区,大久保１丁目１２－３カーサ第二新宿７０７号室,,13,104,1690072,,,,,,,2024-09-05,1,,,,,ディネックス,0
51,1011101108671,新規,0,2024-09-05,2024-09-05,ＴＢＲ株式会社,,株式会社,東京都,新宿区,若松町３１番１号若松河田ステーションレジデンス７０１,,13,104,1620056,,,,,,,2024-09-05,1,,,,,ティービーアール,0
55,1011505002644,新規,0,2024-09-05,2024-09-05,一般社団法人ユーザーレビューマーケティング協会,,その他の設立登記法人,東京都,北区,滝野川６丁目３２番６－５０８号ライオンズマンション滝野川,,13,117,1140023,,,,,,,2024-09-05,1,,,,,ユーザーレビューマーケティングキョウカイ,0
59,1011701027593,新規,0,2024-09-05,2024-09-05,株式会社ＤＸ　Ｍｅｄｉａ　Ｊａｐａｎ,,株式会社,東京都,江戸川区,北葛西１丁目２４番２３号,,13,123,1340081,,,,,,,2024-09-05,1,,,,,ディーエックスメディアジャパン,0
62,1011805003391,新規,0,2024-09-05,2024-09-05,医療法人社団アイデアル,,その他の設立登記法人,東京都,足立区,谷中２丁目７番２号エクセル北綾瀬ＩＩ１階,00136197,13,121,1200006,,,,,,,2024-09-05,1,,,,,アイデアル,0
65,1012403006737,新規,0,2024-09-05,2024-09-05,合同会社茜雲,,合同会社,東京都,武蔵野市,境５丁目３２番９‐１０４号,,13,203,1800022,,,,,,,2024-09-05,1,,,,,アカネグモ,0
67,1013105001852,新規,0,2024-09-05,2024-09-05,医療法人社団ＶＩＤＡ,,その他の設立登記法人,東京都,あきる野市,二宮２２４４番地,,13,228,1970814,,,,,,,2024-09-05,1,,,,,ヴィーダ,0
76,1020001159056,新規,0,2024-09-05,2024-09-05,メディカルトランスポーター株式会社,,株式会社,神奈川県,川崎市多摩区,菅北浦２丁目６番８号カトレヤマンション１０５,,14,135,2140008,,,,,,,2024-09-05,1,,,,,メディカルトランスポーター,0
80,1020003026824,新規,0,2024-09-05,2024-09-05,合同会社Ｍａｉ　Ｃｏｎｎｅｃｔ,,合同会社,神奈川県,横浜市都筑区,北山田６丁目５２番２－３１０号,,14,118,2240021,,,,,,,2024-09-05,1,,,,,マイコネクト,0
82,1020005016518,新規,0,2024-09-05,2024-09-05,ツバキ行政書士法人,,その他の設立登記法人,神奈川県,川崎市川崎区,塩浜３丁目２４－９,,14,131,2100826,,,,,,,2024-09-05,1,,,,,ツバキ,0
83,1020005016526,新規,0,2024-09-05,2024-09-05,一般社団法人睡眠改善研究会,,その他の設立登記法人,神奈川県,横浜市西区,南幸２丁目１７番７号ヴェルディ横浜ビル６階,,14,103,2200005,,,,,,,2024-09-05,1,,,,,スイミンカイゼンケンキュウカイ,0
91,1021001083155,新規,0,2024-09-05,2024-09-05,株式会社ＫＲＥＩＧＨＴ,,株式会社,神奈川県,鎌倉市,岩瀬１丁目３４番１７号,,14,204,2470051,,,,,,,2024-09-05,1,,,,,クレイト,0
92,1021001083171,新規,0,2024-09-05,2024-09-05,株式会社城山館,,株式会社,神奈川県,足柄下郡湯河原町,城堀７３番地の１,,14,384,2590305,,,,,,,2024-09-05,1,,,,,シロヤマカン,0
110,1040003025733,新規,0,2024-09-05,2024-09-05,ＳＳ　ＴＲＡＤＩＮＧ合同会社,,合同会社,千葉県,山武市,森１４９７－１０,,12,237,2891214,,,,,,,2024-09-05,1,,,,,エスエストレーディング,0
115,1060001037464,新規,0,2024-09-05,2024-09-05,株式会社Ｒｅｅｃ,,株式会社,栃木県,宇都宮市,伝馬町１番１７号伝馬町ビル９０１,,09,201,3200035,,,,,,,2024-09-05,1,,,,,リーク,0
120,1070001042133,新規,0,2024-09-05,2024-09-05,株式会社三栄マネジメント,,株式会社,群馬県,太田市,安養寺町５４番地５,,10,205,3700422,,,,,,,2024-09-05,1,,,,,サンエイマネジメント,0
122,1080001026481,新規,0,2024-09-05,2024-09-05,株式会社魚格出口鮮魚店,,株式会社,静岡県,静岡市清水区,興津清見寺町９７番地,,22,103,4240206,,,,,,,2024-09-05,1,,,,,ウオカクデグチセンギョテン,0
141,1120001268251,新規,0,2024-09-05,2024-09-05,ＧＲＡＴＩＣＡ　Ｔｒａｄｉｎｇ株式会社,,株式会社,大阪府,大阪市東住吉区,東田辺３丁目１－１－３Ｆ－Ｄ,,27,121,5460032,,,,,,,2024-09-05,1,,,,,グラティカトレーディング,0
142,1120001268268,新規,0,2024-09-05,2024-09-05,株式会社アップフィールド,,株式会社,大阪府,大阪市中央区,博労町３丁目６番７号,,27,128,5410059,,,,,,,2024-09-05,1,,,,,アップフィールド,0
143,1120001268284,新規,0,2024-09-05,2024-09-05,株式会社福和工業,,株式会社,大阪府,大阪市東淀川区,豊新３丁目２０番５号リバーエステート４－Ｂ,,27,114,5330014,,,,,,,2024-09-05,1,,,,,フクワコウギョウ,0
144,1120001268292,新規,0,2024-09-05,2024-09-05,藤原建業株式会社,,株式会社,大阪府,大阪市西成区,松２丁目５番２４号,,27,122,5570034,,,,,,,2024-09-05,1,,,,,フジワラケンギョウ,0
145,1120001268301,新規,0,2024-09-05,2024-09-05,株式会社ＶＥＮＴＩ　ＤＵＥ,,株式会社,大阪府,大阪市天王寺区,上本町９丁目５番１４号,,27,109,5430001,,,,,,,2024-09-05,1,,,,,ベンティドゥエ,0
146,1120001268367,新規,0,2024-09-05,2024-09-05,株式会社泰安,,株式会社,大阪府,大阪市天王寺区,上汐４丁目５－４,,27,109,5430002,,,,,,,2024-09-05,1,,,,,タイアン,0
155,1120101070235,新規,0,2024-09-05,2024-09-05,株式会社トワ・エ・アシュエール,,株式会社,大阪府,泉北郡忠岡町,忠岡北２丁目３番５－５号,,27,341,5950811,,,,,,,2024-09-05,1,,,,,トワエアシュエール,0
161,1122003002984,新規,0,2024-09-05,2024-09-05,合同会社アイ・シー,,合同会社,大阪府,四條畷市,米崎町４－１２,,27,229,5750032,,,,,,,2024-09-05,1,,,,,アイシー,0
164,1130001077858,新規,0,2024-09-05,2024-09-05,株式会社ＧＯＲＡＱＵＥ,,株式会社,京都府,京都市下京区,七条通油小路東入大黒町２２７番地第２キョートビル４０２,,26,106,6008223,,,,,,,2024-09-05,1,,,,,ゴラクエ,0
166,1140001135697,新規,0,2024-09-05,2024-09-05,株式会社ＰＮＫラボ,,株式会社,兵庫県,神戸市灘区,原田通１丁目１番１５－１０３号,,28,102,6570837,,,,,,,2024-09-05,1,,,,,ピーエヌケーラボ,0
167,1140001135714,新規,0,2024-09-05,2024-09-05,株式会社パイナ,,株式会社,兵庫県,神戸市中央区,磯辺通１丁目１番１８号カサベラ国際プラザビル７０７号室,,28,110,6510084,,,,,,,2024-09-05,1,,,,,パイナ,0
170,1140003021020,新規,0,2024-09-05,2024-09-05,合同会社Ｆｏｕｒ　Ｒｉｃｈ　Ｅｃｒｅｓｓｅ,,合同会社,兵庫県,西宮市,里中町３丁目１番１２－３０３号,,28,204,6638183,,,,,,,2024-09-05,1,,,,,フォーリッチエクレッセ,0
171,1140003021037,新規,0,2024-09-05,2024-09-05,合同会社百景,,合同会社,兵庫県,豊岡市,日高町名色１５７２番地,,28,209,6695379,,,,,,,2024-09-05,1,,,,,ヒャッケイ,0
172,1140003021045,新規,0,2024-09-05,2024-09-05,合同会社佐和,,合同会社,兵庫県,神戸市兵庫区,新開地１丁目２番１８－９０８号,,28,105,6520811,,,,,,,2024-09-05,1,,,,,サワ,0
174,1150001027547,新規,0,2024-09-05,2024-09-05,株式会社ｌｒｉｔａ,,株式会社,奈良県,橿原市,久米町９１２番地神奈備ビルヂング１Ｆ,,29,205,6340063,,,,,,,2024-09-05,1,,,,,リタ,0
179,1180003027311,新規,0,2024-09-05,2024-09-05,ＮＩＣＥ合同会社,,合同会社,愛知県,岩倉市,野寄町山浦２５番地,,23,228,4820016,,,,,,,2024-09-05,1,,,,,ナイス,0
183,1180301039017,新規,0,2024-09-05,2024-09-05,ＴｒａｃｅＴｒｏｎｉｃ株式会社,,株式会社,愛知県,刈谷市,若松町３丁目９番地,,23,210,4480858,,,,,,,2024-09-05,1,,,,,トレーストロニック,0
184,1180301039025,新規,0,2024-09-05,2024-09-05,株式会社ＳＥＳ,,株式会社,愛知県,豊田市,朝日町４丁目３５番地６,,23,211,4710031,,,,,,,2024-09-05,1,,,,,エスイーエス,0
185,1190001031603,新規,0,2024-09-05,2024-09-05,株式会社永井管工,,株式会社,三重県,四日市市,小古曽１丁目３番３１号,,24,202,5100958,,,,,,,2024-09-05,1,,,,,ナガイカンコウ,0
218,1290001107079,新規,0,2024-09-05,2024-09-05,株式会社ゲートフォース,,株式会社,福岡県,福岡市博多区,東比恵３丁目２１番１９－４０２号,,40,132,8120007,,,,,,,2024-09-05,1,,,,,ゲートフォース,0
219,1290001107145,新規,0,2024-09-05,2024-09-05,Ｍ＆Ｓ株式会社,,株式会社,福岡県,福岡市中央区,鳥飼１丁目５番４５号鳥飼中央ビル７０１号,,40,133,8100053,,,,,,,2024-09-05,1,,,,,エムアンドエス,0
220,1290001107203,新規,0,2024-09-05,2024-09-05,ｋｅｙｔｏｎ株式会社,,株式会社,福岡県,福津市,花見が丘１丁目１－１,,40,224,8113214,,,,,,,2024-09-05,1,,,,,キートン,0
222,1290003015775,新規,0,2024-09-05,2024-09-05,合同会社ＣＬＥＡＲ　ＡＧＥＮＣＹ,,合同会社,福岡県,福岡市南区,和田１丁目１４－３４Ｄ－ｒｏｏｍ和田１０５号室,,40,134,8111343,,,,,,,2024-09-05,1,,,,,クリアエージェンシー,0
225,1310001019189,新規,0,2024-09-05,2024-09-05,株式会社フォックス,,株式会社,長崎県,佐世保市,卸本町１番地１８６,,42,202,8571162,,,,,,,2024-09-05,1,,,,,フォックス,0
226,1310001019197,新規,0,2024-09-05,2024-09-05,株式会社Ｇ．Ｇ．Ｐｌｕｓ,,株式会社,長崎県,佐世保市,天神２丁目１９－５,,42,202,8571174,,,,,,,2024-09-05,1,,,,,,0
228,1320001020690,新規,0,2024-09-05,2024-09-05,株式会社野田ビル,,株式会社,大分県,大分市,大字政所３６８４番地の２,,44,201,8700268,,,,,,,2024-09-05,1,,,,,,0
229,1320001020699,新規,0,2024-09-05,2024-09-05,株式会社進成建設,,株式会社,大分県,大分市,大在北３丁目２４９番地,,44,201,8700245,,,,,,,2024-09-05,1,,,,,シンセイケンセツ,0
231,1330001032438,新規,0,2024-09-05,2024-09-05,株式会社Ｚｅｔｔｏｎ,,株式会社,熊本県,熊本市中央区,花畑町１３番２６号第一銀杏ビル１Ｆ,,43,101,8600806,,,,,,,2024-09-05,1,,,,,ゼットン,0
235,1350003004739,新規,0,2024-09-05,2024-09-05,合同会社ソポ,,合同会社,宮崎県,宮崎市,新別府町城元３４２番地１,,45,201,8800834,,,,,,,2024-09-05,1,,,,,ソポ,0
238,1380001034768,新規,0,2024-09-05,2024-09-05,おでやれ古民家ファンド株式会社,,株式会社,福島県,白河市,影鬼越３０番地１１０,,07,205,9610886,,,,,,,2024-09-05,1,,,,,オデヤレコミンカファンド,0
242,1400001016771,新規,0,2024-09-05,2024-09-05,株式会社ドンパココ,,株式会社,岩手県,盛岡市,開運橋通２番６号ライオンズマンション菜園８０７号,,03,201,0200026,,,,,,,2024-09-05,1,,,,,ドンパココ,0
243,1410001013925,新規,0,2024-09-05,2024-09-05,株式会社みどりファーム,,株式会社,秋田県,潟上市,昭和大久保字北野海老漉沼端２９８番地,,05,211,0181401,,,,,,,2024-09-05,1,,,,,ミドリファーム,0
244,1420001018849,新規,0,2024-09-05,2024-09-05,株式会社ポム・マルシェ,,株式会社,青森県,弘前市,大字山王町１５番地１リアライズ山王５０５号,,02,202,0368341,,,,,,,2024-09-05,1,,,,,ポムマルシェ,0
247,1430001092620,新規,0,2024-09-05,2024-09-05,株式会社佑福,,株式会社,北海道,登別市,札内町７３番地４,,01,230,0590461,,,,,,,2024-09-05,1,,,,,ユウフク,0
248,1430001092629,新規,0,2024-09-05,2024-09-05,株式会社ＦＵＪＩ,,株式会社,北海道,札幌市中央区,南二条西７丁目９番地５,,01,101,0600062,,,,,,,2024-09-05,1,,,,,フジ,0
251,1460101007599,新規,0,2024-09-05,2024-09-05,株式会社ＦＰ十勝,,株式会社,北海道,帯広市,西二十二条南３丁目３５番地１１,,01,207,0802472,,,,,,,2024-09-05,1,,,,,エフピートカチ,0
253,1470001020362,新規,0,2024-09-05,2024-09-05,株式会社アイナズ成,,株式会社,香川県,高松市,太田上町１００６番地３,,37,201,7618074,,,,,,,2024-09-05,1,,,,,アイナズナリ,0
258,1500005008730,新規,0,2024-09-05,2024-09-05,特定非営利活動法人すくすくビーンズ,,その他の設立登記法人,愛媛県,今治市,四村２７１番地３,,38,202,7940862,,,,,,,2024-09-05,1,,,,,スクスクビーンズ,0
275,2010001246845,新規,0,2024-09-05,2024-09-05,ＡｃａＢｉｚ株式会社,,株式会社,東京都,中央区,銀座７丁目１３－２１銀座ｓｉｎｒｏｋｕｓｙｕビル,,13,102,1040061,,,,,,,2024-09-05,1,,,,,アカビズ,0
276,2010001247942,新規,0,2024-09-05,2024-09-05,株式会社ｍｅｄｉｅｒ,,株式会社,東京都,中央区,東日本橋２丁目２６－２－９０１,,13,102,1030004,,,,,,,2024-09-05,1,,,,,メディアー,0
277,2010001247950,新規,0,2024-09-05,2024-09-05,株式会社フローリッシュ,,株式会社,東京都,中央区,銀座１丁目１２番４号Ｎ＆ＥＢＬＤ．６Ｆ,,13,102,1040061,,,,,,,2024-09-05,1,,,,,フローリッシュ,0
278,2010001248081,新規,0,2024-09-05,2024-09-05,ＭＡＮＡＤＥＬ株式会社,,株式会社,東京都,中央区,銀座１丁目１２－４Ｎ＆ＥＢＬＤ７階,,13,102,1040061,,,,,,,2024-09-05,1,,,,,マナデル,0
282,2010003044743,新規,0,2024-09-05,2024-09-05,合同会社Ｔａｃｔｆｕｌ,,合同会社,東京都,中央区,銀座４丁目１０番１号,,13,102,1040061,,,,,,,2024-09-05,1,,,,,タクトフル,0
283,2010003044776,新規,0,2024-09-05,2024-09-05,合同会社ファーストルーラーズ,,合同会社,東京都,中央区,銀座１丁目２２番１１号銀座大竹ビジデンス２Ｆ,,13,102,1040061,,,,,,,2024-09-05,1,,,,,ファーストルーラーズ,0
285,2010005038784,新規,0,2024-09-05,2024-09-05,あづま小富士エナジーホールディングス一般社団法人,,その他の設立登記法人,東京都,千代田区,麹町２丁目８番地ＭＬＣ麹町ビル４階フィンポート税理士法人内,,13,101,1020083,,,,,,,2024-09-05,1,,,,,アヅマコフジエナジーホールディングス,0
289,2010401184595,新規,0,2024-09-05,2024-09-05,株式会社Ｚ,,株式会社,東京都,港区,六本木５丁目２番１号ほうらいやビル,,13,103,1060032,,,,,,,2024-09-05,1,,,,,ゼット,0
293,2010601065851,新規,0,2024-09-05,2024-09-05,株式会社アソシエ,,株式会社,東京都,墨田区,業平４丁目１１番１２号,,13,107,1300002,,,,,,,2024-09-05,1,,,,,アソシエ,0
294,2010601065868,新規,0,2024-09-05,2024-09-05,株式会社ＡＶＥＣ,,株式会社,東京都,江東区,森下４丁目４番１号,,13,108,1350004,,,,,,,2024-09-05,1,,,,,アヴェック,0
296,2010603011060,新規,0,2024-09-05,2024-09-05,明亮マネジメント合同会社,,合同会社,東京都,江東区,豊洲６丁目２番３１－１７０３号,,13,108,1350061,,,,,,,2024-09-05,1,,,,,メイリョウマネジメント,0
298,2010901055916,新規,0,2024-09-05,2024-09-05,株式会社リフェンリ,,株式会社,東京都,世田谷区,赤堤４丁目２番１６号１階,,13,112,1560044,,,,,,,2024-09-05,1,,,,,リフェンリ,0
309,2011003019941,新規,0,2024-09-05,2024-09-05,合同会社オフィスＭｓ,,合同会社,東京都,渋谷区,代官山町１７番３号,,13,113,1500034,,,,,,,2024-09-05,1,,,,,オフィスエムズ,0
310,2011005010659,新規,0,2024-09-05,2024-09-05,一般社団法人ライフワークサポート協会,,その他の設立登記法人,東京都,渋谷区,千駄ヶ谷５丁目１６番１０号,,13,113,1510051,,,,,,,2024-09-05,1,,,,,ライフワークサポートキョウカイ,0
319,2011101108670,新規,0,2024-09-05,2024-09-05,株式会社Ｄａｗｎ　Ｂｌｕｅ,,株式会社,東京都,新宿区,西新宿６丁目２１番１－２００５号,,13,104,1600023,,,,,,,2024-09-05,1,,,,,ドーンブルー,0
320,2011101108679,新規,0,2024-09-05,2024-09-05,株式会社ＡＬＴＮ,,株式会社,東京都,新宿区,大京町２番地４ＴｈｅＲｏｏｍ四谷大京町２０２,,13,104,1600015,,,,,,,2024-09-05,1,,,,,オルタナ,0
323,2011203004479,新規,0,2024-09-05,2024-09-05,合同会社ハカランダ,,合同会社,東京都,中野区,本町３丁目３０番１４－４０４号,,13,114,1640012,,,,,,,2024-09-05,1,,,,,ハカランダ,0
328,2011501031118,新規,0,2024-09-05,2024-09-05,株式会社ＳＯ,,株式会社,東京都,荒川区,東尾久４丁目２７番１２号シティドエル田端１０１,,13,118,1160012,,,,,,,2024-09-05,1,,,,,エスオー,0
329,2011503006209,新規,0,2024-09-05,2024-09-05,玲瓏合同会社,,合同会社,東京都,北区,滝野川７丁目３３番１２－３０３号,,13,117,1140023,,,,,,,2024-09-05,1,,,,,レイロウ,0
333,2011801044802,新規,0,2024-09-05,2024-09-05,五洲通商株式会社,,株式会社,東京都,足立区,古千谷本町２丁目１８番４号,,13,121,1210832,,,,,,,2024-09-05,1,,,,,ゴシュウツウショウ,0
336,2012401042254,新規,0,2024-09-05,2024-09-05,株式会社Ｔｒａｄｉｎｇ　Ａｒｍｓ,,株式会社,東京都,府中市,宮町１丁目１１番地の４イプセ府中１４０１,,13,206,1830023,,,,,,,2024-09-05,1,,,,,トレーディングアームス,0
346,2021001083146,新規,0,2024-09-05,2024-09-05,株式会社ＴＭＲ横須賀インテリア,,株式会社,神奈川県,横須賀市,衣笠町１９番９号,,14,201,2380025,,,,,,,2024-09-05,1,,,,,ティーエムアールヨコスカインテリア,0
347,2021001083162,新規,0,2024-09-05,2024-09-05,株式会社ＧＡマニュファクチャリング,,株式会社,神奈川県,小田原市,成田５４０番地１５,,14,206,2500862,,,,,,,2024-09-05,1,,,,,ジーエーマニュファクチャリング,0
350,2021003014974,新規,0,2024-09-05,2024-09-05,合同会社ＡＬＯＮＥＺ,,合同会社,神奈川県,逗子市,逗子１丁目６－２７ピアーズ３０１号室,,14,208,2490006,,,,,,,2024-09-05,1,,,,,アローンズ,0
359,2030001162280,新規,0,2024-09-05,2024-09-05,株式会社オクタグラム,,株式会社,埼玉県,春日部市,大沼５丁目３１番地２０８,,11,214,3440038,,,,,,,2024-09-05,1,,,,,オクタグラム,0
362,2030003025056,新規,0,2024-09-05,2024-09-05,ＩＲ　ＡＵＴＯ合同会社,,合同会社,埼玉県,久喜市,青葉５丁目１１番地３小林貸家７号室,,11,232,3460013,,,,,,,2024-09-05,1,,,,,アイアールオート,0
368,2040001135277,新規,0,2024-09-05,2024-09-05,ＳｕｎＨｉｒｏ株式会社,,株式会社,千葉県,柏市,若白毛８６５－１,,12,217,2701444,,,,,,,2024-09-05,1,,,,,サンヒロ,0
371,2040003025542,新規,0,2024-09-05,2024-09-05,合同会社めがねとくま,,合同会社,千葉県,松戸市,松戸２２９６番地の３ライオンズヒルズ松戸１０４,,12,207,2710092,,,,,,,2024-09-05,1,,,,,メガネトクマ,0
372,2040003025699,新規,0,2024-09-05,2024-09-05,合同会社ＭＯＮＡＣＯ　ＣＯＮＳＵＬＴＡＮＴ,,合同会社,千葉県,富里市,七栄４９６－３,,12,233,2860221,,,,,,,2024-09-05,1,,,,,モナココンサルタント,0
373,2040003025749,新規,0,2024-09-05,2024-09-05,合同会社まさゆき,,合同会社,千葉県,浦安市,高洲６丁目２番４－４１２号ザ・パークハウス新浦安マリンヴィラ,,12,227,2790023,,,,,,,2024-09-05,1,,,,,マサユキ,0
378,2060001037463,新規,0,2024-09-05,2024-09-05,ケーアップ株式会社,,株式会社,栃木県,足利市,五十部町６９９番地５,,09,202,3260843,,,,,,,2024-09-05,1,,,,,ケーアップ,0
382,2070001042140,新規,0,2024-09-05,2024-09-05,株式会社ＡｉｌｅＭｏｎｄｅ,,株式会社,群馬県,前橋市,本町１丁目５番１２号,,10,201,3710023,,,,,,,2024-09-05,1,,,,,エルモンド,0
384,2080003003288,新規,0,2024-09-05,2024-09-05,合同会社ヨネクＬａｂｏ,,合同会社,静岡県,静岡市清水区,蒲原新栄１３６番地の１,,22,103,4213202,,,,,,,2024-09-05,1,,,,,ヨネクラボ,0
389,2080403005090,新規,0,2024-09-05,2024-09-05,合同会社静岡医療福祉総合,,合同会社,静岡県,袋井市,中６０４－４,,22,216,4371125,,,,,,,2024-09-05,1,,,,,シズオカイリョウフクシソウゴウ,0
390,2080405007663,新規,0,2024-09-05,2024-09-05,一般社団法人Ｆｕｔｕｒｅ　Ｉｎｎｏｖａｔｉｏｎ　Ｌａｂ,,その他の設立登記法人,静岡県,磐田市,中泉１丁目１番１号,,22,211,4380078,,,,,,,2024-09-05,1,,,,,フューチャーイノベーションラボ,0
405,2120001268259,新規,0,2024-09-05,2024-09-05,株式会社パイルアップＰＬＵＳ,,株式会社,大阪府,寝屋川市,黒原新町９番１４－５号,,27,215,5720059,,,,,,,2024-09-05,1,,,,,パイルアッププラス,0
406,2120001268283,新規,0,2024-09-05,2024-09-05,繁星京都市役所前店分割準備株式会社,,株式会社,大阪府,大阪市北区,天満２丁目１－１２,,27,127,5300043,,,,,,,2024-09-05,1,,,,,ハンジョウキョウトシヤクショマエテンブンカツジュンビ,0
407,2120001268300,新規,0,2024-09-05,2024-09-05,株式会社ＡＳ　ＯＮＥ,,株式会社,大阪府,大阪市北区,浪花町１４番３３号,,27,127,5300022,,,,,,,2024-09-05,1,,,,,アズワン,0
408,2120001268358,新規,0,2024-09-05,2024-09-05,ＭＵＧＩ株式会社,,株式会社,大阪府,大阪市中央区,本町橋８番２－１１０２号,,27,128,5400029,,,,,,,2024-09-05,1,,,,,ムギ,0
411,2120005024526,新規,0,2024-09-05,2024-09-05,一般社団法人オクノウェルビーイング,,その他の設立登記法人,大阪府,大阪市中央区,道修町４丁目７番１０号,,27,128,5410045,,,,,,,2024-09-05,1,,,,,オクノウェルビーイング,0
414,2120101070242,新規,0,2024-09-05,2024-09-05,株式会社クリーンアップ,,株式会社,大阪府,松原市,西野々２丁目９番８号Ｂ－１５,,27,217,5800004,,,,,,,2024-09-05,1,,,,,クリーンアップ,0
431,2140001135713,新規,0,2024-09-05,2024-09-05,株式会社ＫＧケミカル,,株式会社,兵庫県,姫路市,豊富町神谷１２９番地３,,28,201,6792121,,,,,,,2024-09-05,1,,,,,ケージーケミカル,0
436,2140003021044,新規,0,2024-09-05,2024-09-05,合同会社ＢＬＵＥ　ＬＡＭＰ,,合同会社,兵庫県,神戸市中央区,磯上通８丁目１番２９号カサベラビルＣ＆Ｍ４０３号室,,28,110,6510086,,,,,,,2024-09-05,1,,,,,ブルーランプ,0
437,2140003021052,新規,0,2024-09-05,2024-09-05,華蓮合同会社,,合同会社,兵庫県,芦屋市,東芦屋町１１番１３号,00136194,28,206,6590095,,,,,,,2024-09-05,1,,,,,カレン,0
440,2150001027546,新規,0,2024-09-05,2024-09-05,株式会社ＴＫＭ,,株式会社,奈良県,宇陀市,榛原福地２４番地,,29,212,6330204,,,,,,,2024-09-05,1,,,,,ティーケーエム,0
450,2180301039032,新規,0,2024-09-05,2024-09-05,株式会社ラヴィネット,,株式会社,愛知県,刈谷市,野田町森前１番地１５,,23,210,4480803,,,,,,,2024-09-05,1,,,,,ラヴィネット,0
454,2190003004787,新規,0,2024-09-05,2024-09-05,ＯｃｔｏｐｕｓＶｉｌｌａｇｅ合同会社,,合同会社,三重県,桑名市,新地１０４番地,,24,205,5110832,,,,,,,2024-09-05,1,,,,,オクトパスヴィレッジ,0
460,2200001042804,新規,0,2024-09-05,2024-09-05,松久コンクリート工業株式会社,,株式会社,岐阜県,岐阜市,椿洞１１６１番地,,21,201,5020801,,,,,,,2024-09-05,1,,,,,マツヒサコンクリートコウギョウ,0
461,2200001042894,新規,0,2024-09-05,2024-09-05,株式会社ルミナス,,株式会社,岐阜県,岐阜市,長住町２丁目６番地２新岐阜ビル地下１階ＷＨＩＴＥ,,21,201,5008175,,,,,,,2024-09-05,1,,,,,ルミナス,0
466,2210001019900,新規,0,2024-09-05,2024-09-05,川研興業株式会社,,株式会社,福井県,越前市,本保町第１９号９番地の５,,18,209,9150806,,,,,,,2024-09-05,1,,,,,カワケンコウギョウ,0
471,2260003004879,新規,0,2024-09-05,2024-09-05,ＧｏｄＳｐｅｅｄ合同会社,,合同会社,岡山県,笠岡市,生江浜８２４番地,,33,205,7140055,,,,,,,2024-09-05,1,,,,,ゴッドスピード,0
487,2290001107193,新規,0,2024-09-05,2024-09-05,株式会社Ｄｒ．ＴＩＰＳ,,株式会社,福岡県,福岡市中央区,六本松４丁目１１番２６号ビバーチェハシモト８０２号,,40,133,8100044,,,,,,,2024-09-05,1,,,,,ドクターティップス,0
488,2290003015758,新規,0,2024-09-05,2024-09-05,ＷｅｂＸ合同会社,,合同会社,福岡県,福岡市南区,長丘１丁目１３番１８－２０２号田舎烹ビル,,40,134,8150075,,,,,,,2024-09-05,1,,,,,ウェブエックス,0
489,2290003015766,新規,0,2024-09-05,2024-09-05,合同会社プレッピング,,合同会社,福岡県,福岡市中央区,天神２丁目２番１２号Ｔ＆Ｊビルディング７Ｆ,,40,133,8100001,,,,,,,2024-09-05,1,,,,,プレッピング,0
491,2290801030859,新規,0,2024-09-05,2024-09-05,エイチ通商株式会社,,株式会社,福岡県,北九州市八幡東区,東田２丁目１番２２－９０８号,,40,108,8050071,,,,,,,2024-09-05,1,,,,,エイチツウショウ,0
493,2310001019196,新規,0,2024-09-05,2024-09-05,株式会社ポライテック,,株式会社,長崎県,長崎市,滑石２丁目２３番１６号Ｃａｓａ　Ｖｉｓｔａ　Ａ－２,,42,201,8528061,,,,,,,2024-09-05,1,,,,,ポライテック,0
494,2320001020698,新規,0,2024-09-05,2024-09-05,津田水産株式会社,,株式会社,大分県,佐伯市,蒲江大字森崎浦１４５番地８６,,44,205,8762404,,,,,,,2024-09-05,1,,,,,ツダスイサン,0
495,2330001032437,新規,0,2024-09-05,2024-09-05,株式会社西村自動車,,株式会社,熊本県,熊本市西区,上熊本３丁目２９番１０号,,43,103,8600079,,,,,,,2024-09-05,1,,,,,ニシムラジドウシャ,0
496,2330001032445,新規,0,2024-09-05,2024-09-05,株式会社ＳＫＳ,,株式会社,熊本県,熊本市中央区,中央街４番１８号５階,,43,101,8600802,,,,,,,2024-09-05,1,,,,,エスケイエス,0
500,2340001026776,新規,0,2024-09-05,2024-09-05,株式会社新園陽二設計室,,株式会社,鹿児島県,霧島市,牧園町宿窪田９４８番地,,46,218,8996507,,,,,,,2024-09-05,1,,,,,ニイゾノヨウジセッケイシツ,0
501,2350001019168,新規,0,2024-09-05,2024-09-05,株式会社山と,,株式会社,宮崎県,東臼杵郡門川町,須賀崎２丁目６２番地,,45,421,8890601,,,,,,,2024-09-05,1,,,,,ヤマト,0
505,2360001034166,新規,0,2024-09-05,2024-09-05,株式会社ＡＹＵＲＡ,,株式会社,沖縄県,宮古島市,平良字池間７６番地,,47,214,9060421,,,,,,,2024-09-05,1,,,,,アユラ,0
506,2360003014257,新規,0,2024-09-05,2024-09-05,合同会社キャロットドッグ,,合同会社,沖縄県,中頭郡北谷町,字桑江４７５－２７玉城アパート１０１,,47,326,9040103,,,,,,,2024-09-05,1,,,,,キャロットドッグ,0
511,2370001051689,新規,0,2024-09-05,2024-09-05,株式会社Ｎ・Ｓ・Ｃ,,株式会社,宮城県,白石市,福岡長袋字中河原８番１８,,04,206,9890232,,,,,,,2024-09-05,1,,,,,エヌエスシー,0
513,2380001034734,新規,0,2024-09-05,2024-09-05,エムブリッジ株式会社,,株式会社,福島県,いわき市,平中平窪東高砂５番地５‐２０１号,,07,204,9708002,,,,,,,2024-09-05,1,,,,,エムブリッジ,0
514,2380001034767,新規,0,2024-09-05,2024-09-05,株式会社国際人材機構,,株式会社,福島県,福島市,東浜町２４番１３号,,07,201,9608132,,,,,,,2024-09-05,1,,,,,コクサイジンザイキコウ,0
517,2400001016779,新規,0,2024-09-05,2024-09-05,株式会社岩手ＩＴサービス,,株式会社,岩手県,紫波郡紫波町,南日詰字箱清水３３１番地,,03,321,0283317,,,,,,,2024-09-05,1,,,,,イワテアイティーサービス,0
519,2420001018856,新規,0,2024-09-05,2024-09-05,株式会社アースグリーンエナジー,,株式会社,青森県,十和田市,西一番町１９番９号田島貸事務所１号室,,02,206,0340092,,,,,,,2024-09-05,1,,,,,アースグリーンエナジー,0
528,2430001092603,新規,0,2024-09-05,2024-09-05,ＪＫ‐Ｊｉｍｓｈｏ株式会社,,株式会社,北海道,虻田郡倶知安町,南四条東４丁目２番地３２,,01,400,0440014,,,,,,,2024-09-05,1,,,,,ジェイケイジムショ,0
529,2430001092628,新規,0,2024-09-05,2024-09-05,株式会社たのしむ,,株式会社,北海道,札幌市白石区,菊水七条２丁目３番２１号,,01,104,0030807,,,,,,,2024-09-05,1,,,,,タノシム,0
556,3010001248007,新規,0,2024-09-05,2024-09-05,株式会社まるみたまご,,株式会社,東京都,千代田区,神田須田町１丁目２８－４日宝神田ビル２Ｆ,,13,101,1010041,,,,,,,2024-09-05,1,,,,,マルミタマゴ,0
557,3010001248056,新規,0,2024-09-05,2024-09-05,株式会社ＧＲＡＣＥ,,株式会社,東京都,中央区,月島１丁目１３番１３号,,13,102,1040052,,,,,,,2024-09-05,1,,,,,グレイス,0
558,3010003044791,新規,0,2024-09-05,2024-09-05,ラグフル合同会社,,合同会社,東京都,文京区,本郷５丁目１－１１ＫＩＩＨＯＵＳＥ２０２,,13,105,1130033,,,,,,,2024-09-05,1,,,,,ラグフル,0
559,3010003044800,新規,0,2024-09-05,2024-09-05,合同会社ムムム,,合同会社,東京都,中央区,日本橋室町１丁目１１番１２号日本橋水野ビル７階,,13,102,1030022,,,,,,,2024-09-05,1,,,,,ムムム,0
560,3010003044825,新規,0,2024-09-05,2024-09-05,ＣＲＪ合同会社,,合同会社,東京都,中央区,勝どき６丁目３番１－２１０１号,,13,102,1040054,,,,,,,2024-09-05,1,,,,,シーアールジェイ,0
561,3010005038759,新規,0,2024-09-05,2024-09-05,医療法人社団高橋歯科クリニック文京,00136205,その他の設立登記法人,東京都,文京区,千石３丁目１番８号,,13,105,1120011,,,,,,,2024-09-05,1,,,,,タカハシシカクリニックブンキョウ,0
568,3010401184545,新規,0,2024-09-05,2024-09-05,株式会社ＴＧＣホールディングス,,株式会社,東京都,港区,六本木４丁目１２番８号,,13,103,1060032,,,,,,,2024-09-05,1,,,,,ティージーシーホールディングス,0
571,3010403033353,新規,0,2024-09-05,2024-09-05,ＢＡＮＳＯパートナーズ合同会社,,合同会社,東京都,港区,芝浦４丁目１９番１－３４１０号,,13,103,1080023,,,,,,,2024-09-05,1,,,,,バンソウパートナーズ,0
572,3010405023542,新規,0,2024-09-05,2024-09-05,一般社団法人京都６Ｊ,,その他の設立登記法人,東京都,港区,元赤坂１丁目１番８号赤坂コミュニティビル４階,,13,103,1070051,,,,,,,2024-09-05,1,,,,,キョウトシックスジェイ,0
586,3010901055923,新規,0,2024-09-05,2024-09-05,株式会社ＬＡＭＰ　Ａｒｃｈｉｔｅｃｔｓ,,株式会社,東京都,世田谷区,羽根木１丁目２１番１３－３０１号,,13,112,1560042,,,,,,,2024-09-05,1,,,,,ランプアーキテクツ,0
599,3011001164185,新規,0,2024-09-05,2024-09-05,株式会社Ａｂｏｄｙ,,株式会社,東京都,渋谷区,恵比寿南２丁目６－５タケハラビル１０１,,13,113,1500022,,,,,,,2024-09-05,1,,,,,エーボディ,0
601,3011105011135,新規,0,2024-09-05,2024-09-05,一般社団法人日本長寿協会,,その他の設立登記法人,東京都,新宿区,四谷４丁目２７番地１八重洲新宿御苑ビル３Ｆ,,13,104,1600004,,,,,,,2024-09-05,1,,,,,ニホンチョウジュキョウカイ,0
602,3011201025740,新規,0,2024-09-05,2024-09-05,徳海株式会社,,株式会社,東京都,中野区,鷺宮４丁目４４番１１号,,13,114,1650032,,,,,,,2024-09-05,1,,,,,トクカイ,0
603,3011201025773,新規,0,2024-09-05,2024-09-05,ＦＬＥＸ　Ｊａｐａｎ株式会社,,株式会社,東京都,中野区,本町２丁目４９番１３号板屋ビル３０１,,13,114,1640012,,,,,,,2024-09-05,1,,,,,フレックスジャパン,0
605,3011303005277,新規,0,2024-09-05,2024-09-05,ＰＡＡ合同会社,,合同会社,東京都,杉並区,井草２丁目３５番１２－６－１２０３号グランドメゾン杉並シーズン,,13,115,1670021,,,,,,,2024-09-05,1,,,,,ピーエーエー,0
607,3011501031117,新規,0,2024-09-05,2024-09-05,鴻業株式会社,,株式会社,東京都,荒川区,荒川５丁目３０番６号１０８号室,,13,118,1160002,,,,,,,2024-09-05,1,,,,,コウギョウ,0
611,3011601028021,新規,0,2024-09-05,2024-09-05,Ｍ＆Ｄ株式会社,,株式会社,東京都,練馬区,関町北５丁目１３－２５Ｄ号室,,13,120,1770051,,,,,,,2024-09-05,1,,,,,エムアンドディー,0
617,3012401042261,新規,0,2024-09-05,2024-09-05,株式会社フェンス,,株式会社,東京都,三鷹市,中原１丁目１５番１４号,,13,204,1810005,,,,,,,2024-09-05,1,,,,,フェンス,0
619,3012403006727,新規,0,2024-09-05,2024-09-05,合同会社ＬＯＬ,,合同会社,東京都,小金井市,本町１丁目１５－８－１０３トラスティふじの木,,13,210,1840004,,,,,,,2024-09-05,1,,,,,エルオーエル,0
620,3012701018432,新規,0,2024-09-05,2024-09-05,株式会社Ｐｉｌｉｎａ,,株式会社,東京都,小平市,御幸町３０６番地の３２,,13,211,1870012,,,,,,,2024-09-05,1,,,,,ピリナ,0
624,3013301053084,新規,0,2024-09-05,2024-09-05,株式会社リアライズラーニング,,株式会社,東京都,豊島区,駒込１丁目３番４－１００１号,,13,116,1700003,,,,,,,2024-09-05,1,,,,,リアライズラーニング,0
626,3013303007286,新規,0,2024-09-05,2024-09-05,合同会社アイコン,,合同会社,東京都,豊島区,長崎６丁目９番８－５０２号,,13,116,1710051,,,,,,,2024-09-05,1,,,,,アイコン,0
631,3020001159079,新規,0,2024-09-05,2024-09-05,株式会社東翔,,株式会社,神奈川県,川崎市幸区,小向西町４丁目４５番地１,,14,132,2120004,,,,,,,2024-09-05,1,,,,,トウショウ,0
640,3021001083153,新規,0,2024-09-05,2024-09-05,株式会社グリーンプロダクト,,株式会社,神奈川県,横須賀市,森崎５丁目１８番１号,,14,201,2380023,,,,,,,2024-09-05,1,,,,,グリーンプロダクト,0
655,3030001162305,新規,0,2024-09-05,2024-09-05,株式会社ウィン関東,,株式会社,埼玉県,所沢市,日吉町８番４号マスダ写真館ビル３階,,11,208,3591123,,,,,,,2024-09-05,1,,,,,ウィンカントウ,0
656,3030001162321,新規,0,2024-09-05,2024-09-05,株式会社Ｔ＆Ｃ,,株式会社,埼玉県,戸田市,上戸田３丁目３番１３－１０１号,,11,224,3350022,,,,,,,2024-09-05,1,,,,,ティーアンドシー,0
658,3030003025047,新規,0,2024-09-05,2024-09-05,合同会社ＯＳ　Ｌａｂ,,合同会社,埼玉県,川口市,大字峯９１１番地３,,11,203,3340056,,,,,,,2024-09-05,1,,,,,オーエスラボ,0
661,3040001135227,新規,0,2024-09-05,2024-09-05,マイスタイル株式会社,,株式会社,千葉県,船橋市,丸山４丁目４６番１２号,,12,204,2730048,,,,,,,2024-09-05,1,,,,,マイスタイル,0
671,3070003005573,新規,0,2024-09-05,2024-09-05,フィールメア合同会社,,合同会社,群馬県,太田市,鳥山上町２２２９番地２,,10,205,3730061,,,,,,,2024-09-05,1,,,,,フィールメア,0
683,3110001038686,新規,0,2024-09-05,2024-09-05,株式会社アクトアライズ,,株式会社,新潟県,新潟市江南区,酒屋町４８５番地１,,15,104,9500324,,,,,,,2024-09-05,1,,,,,アクトアライズ,0
690,3120001267689,新規,0,2024-09-05,2024-09-05,株式会社Ａｌｅｘ　ｂｙ,,株式会社,大阪府,大阪市北区,大淀南２丁目２番９号,,27,127,5310075,,,,,,,2024-09-05,1,,,,,アレックスバイ,0
691,3120001268282,新規,0,2024-09-05,2024-09-05,繁星神戸元町店分割準備株式会社,,株式会社,大阪府,大阪市北区,天満２丁目１－１２,,27,127,5300043,,,,,,,2024-09-05,1,,,,,ハンジョウコウベモトマチテンブンカツジュンビ,0
692,3120001268290,新規,0,2024-09-05,2024-09-05,Ｓ＆Ｔ株式会社,,株式会社,大阪府,大阪市生野区,新今里５丁目４番１６号,,27,116,5440001,,,,,,,2024-09-05,1,,,,,エスアンドティ,0
693,3120001268299,新規,0,2024-09-05,2024-09-05,株式会社セブンスターコーポレーション,,株式会社,大阪府,門真市,ひえ島町１０番２１号,,27,223,5710037,,,,,,,2024-09-05,1,,,,,セブンスターコーポレーション,0
694,3120001268324,新規,0,2024-09-05,2024-09-05,株式会社ゆめカナエもん,,株式会社,大阪府,大阪市東住吉区,照ケ丘矢田３丁目２１番１３号,,27,121,5460021,,,,,,,2024-09-05,1,,,,,ユメカナエモン,0
695,3120001268357,新規,0,2024-09-05,2024-09-05,アルト・インターナショナル株式会社,,株式会社,大阪府,大阪市中央区,南船場３丁目２番２８号日宝タイヨービル４Ｆ５号,,27,128,5420081,,,,,,,2024-09-05,1,,,,,アルトインターナショナル,0
696,3120001268381,新規,0,2024-09-05,2024-09-05,株式会社フィルバ,,株式会社,大阪府,大阪市淀川区,宮原４丁目１番４５号,,27,123,5320003,,,,,,,2024-09-05,1,,,,,フィルバ,0
700,3120003027430,新規,0,2024-09-05,2024-09-05,合同会社ＰＬＡＮ　Ｂ,,合同会社,大阪府,大阪市西区,西本町１丁目２番４号,,27,106,5500005,,,,,,,2024-09-05,1,,,,,プランビー,0
701,3120003027455,新規,0,2024-09-05,2024-09-05,合同会社サイバーテック,,合同会社,大阪府,大阪市中央区,南船場３丁目２番２２号おおきに南船場ビル２０５,,27,128,5420081,,,,,,,2024-09-05,1,,,,,サイバーテック,0
703,3120005024525,新規,0,2024-09-05,2024-09-05,ＪＡＳＥＡＮ協同組合,,その他の設立登記法人,大阪府,大阪市浪速区,桜川４丁目４番１４号,,27,111,5560022,,,,,,,2024-09-05,1,,,,,ジェイアセアン,0
712,3120901049724,新規,0,2024-09-05,2024-09-05,株式会社Ｍｅ‐Ｙｏｕ‐Ｋｎｏｗ,,株式会社,大阪府,茨木市,学園町３番５－３０９号,,27,211,5670833,,,,,,,2024-09-05,1,,,,,ミーユーノー,0
720,3140001135679,新規,0,2024-09-05,2024-09-05,ＭＡＣＦＲＥＹ　ＪＡＰＡＮ株式会社,,株式会社,兵庫県,神戸市東灘区,住吉山手８丁目９番８号,,28,101,6580063,,,,,,,2024-09-05,1,,,,,マックフリージャパン,0
721,3140001135687,新規,0,2024-09-05,2024-09-05,株式会社Ｄｒａｐｅ,,株式会社,兵庫県,神戸市垂水区,学が丘１丁目１５番２８号,,28,108,6550004,,,,,,,2024-09-05,1,,,,,ドレープ,0
722,3140001135695,新規,0,2024-09-05,2024-09-05,株式会社アスビジョン,,株式会社,兵庫県,神戸市北区,鈴蘭台南町７丁目１２－３１,,28,109,6511113,,,,,,,2024-09-05,1,,,,,アスビジョン,0
726,3140003021035,新規,0,2024-09-05,2024-09-05,ＨＯＮＧ　ＮＧＯＣ合同会社,,合同会社,兵庫県,神戸市兵庫区,湊町１丁目２番１５号ラルゴＴＮ３０１号室,,28,105,6520812,,,,,,,2024-09-05,1,,,,,ホンゴック,0
727,3150001027553,新規,0,2024-09-05,2024-09-05,株式会社かつお豆,,株式会社,奈良県,奈良市,中登美ヶ丘６丁目１９番５号,,29,201,6310003,,,,,,,2024-09-05,1,,,,,カツオマメ,0
729,3150003003362,新規,0,2024-09-05,2024-09-05,合同会社Ｋ　ＺＥＲＯ,,合同会社,奈良県,桜井市,大字三輪１３１－１７,,29,206,6330001,,,,,,,2024-09-05,1,,,,,ケーゼロ,0
735,3180001163107,新規,0,2024-09-05,2024-09-05,ｒｕｂｉｋ株式会社,,株式会社,愛知県,一宮市,九品町３丁目９番地１－１０２号,,23,203,4910079,,,,,,,2024-09-05,1,,,,,ルービック,0
736,3180001163131,新規,0,2024-09-05,2024-09-05,株式会社大矢知電気,,株式会社,愛知県,あま市,新居屋清明４９番地８,,23,237,4901105,,,,,,,2024-09-05,1,,,,,オオヤチデンキ,0
740,3180301039023,新規,0,2024-09-05,2024-09-05,玲和テクノロジーズ株式会社,,株式会社,愛知県,安城市,三河安城南町１丁目１５番地８サンテラス三河安城６階,,23,212,4460058,,,,,,,2024-09-05,1,,,,,レイワテクノロジーズ,0
742,3190001031601,新規,0,2024-09-05,2024-09-05,株式会社Ｂｒｏｏｋ,,株式会社,三重県,鈴鹿市,南若松町３５６０番地,,24,207,5100227,,,,,,,2024-09-05,1,,,,,ブルーク,0
745,3200001042811,新規,0,2024-09-05,2024-09-05,株式会社増尾商店,,株式会社,岐阜県,恵那市,岩村町２９９番地,,21,210,5097403,,,,,,,2024-09-05,1,,,,,マスオショウテン,0
746,3200001042893,新規,0,2024-09-05,2024-09-05,株式会社ＯＮＥ,,株式会社,岐阜県,瑞浪市,明世町月吉８２５番地,,21,208,5096131,,,,,,,2024-09-05,1,,,,,オーエヌイー,0
753,3240001063762,新規,0,2024-09-05,2024-09-05,株式会社ＥＸＴＥＣＨ,,株式会社,広島県,東広島市,黒瀬町津江６２８番地,,34,212,7392732,,,,,,,2024-09-05,1,,,,,エクステック,0
757,3240003006843,新規,0,2024-09-05,2024-09-05,ＮＡＢＡ合同会社,,合同会社,広島県,広島市佐伯区,五日市中央３丁目１５－５サンライズ五観橋ＩＩ２０３号室,00136203,34,108,7315128,,,,,,,2024-09-05,1,,,,,ナバ,0
758,3250001020795,新規,0,2024-09-05,2024-09-05,株式会社ＡＸＥＬ,,株式会社,山口県,下関市,豊浦町大字黒井２３３８番地４,,35,201,7596312,,,,,,,2024-09-05,1,,,,,アクセル,0
762,3260003004878,新規,0,2024-09-05,2024-09-05,合同会社妹尾自動車,,合同会社,岡山県,小田郡矢掛町,西川面１９２番地３,,33,461,7141222,,,,,,,2024-09-05,1,,,,,セノオジドウシャ,0
767,3290801030858,新規,0,2024-09-05,2024-09-05,株式会社一成,,株式会社,福岡県,北九州市小倉北区,片野１丁目４番７号,,40,106,8020064,,,,,,,2024-09-05,1,,,,,イッセイ,0
775,3310003004856,新規,0,2024-09-05,2024-09-05,合同会社Ｒｏｏｓｔ,,合同会社,長崎県,長崎市,中園町７番１０号,,42,201,8528155,,,,,,,2024-09-05,1,,,,,ルースト,0
778,3320005010182,新規,0,2024-09-05,2024-09-05,一般社団法人エシカル・エデュケーション・アカデミア,,その他の設立登記法人,大分県,大分市,羽屋４丁目９番９３号,,44,201,8700854,,,,,,,2024-09-05,1,,,,,エシカルエデュケーションアカデミア,0
780,3330001032428,新規,0,2024-09-05,2024-09-05,株式会社小さな会社の経営戦略ＬＡＢ,,株式会社,熊本県,荒尾市,川登１９８３番地１８,,43,204,8640131,,,,,,,2024-09-05,1,,,,,チイサナカイシャノケイエイセンリャクラボ,0
783,3330003010547,新規,0,2024-09-05,2024-09-05,合同会社矢津田ファーム,,合同会社,熊本県,上益城郡山都町,入佐３７６番地,,43,447,8613511,,,,,,,2024-09-05,1,,,,,ヤツダファーム,0
784,3350001019167,新規,0,2024-09-05,2024-09-05,株式会社Ｒｏｂｉｎ　Ｈｏｏｄ　Ｃｏｍｐａｎｙ,,株式会社,宮崎県,延岡市,柚の木田町４５２５番地１,,45,203,8820026,,,,,,,2024-09-05,1,,,,,ロビンフッドカンパニー,0
789,3360003014280,新規,0,2024-09-05,2024-09-05,合同会社ニューエスデザイン,,合同会社,沖縄県,那覇市,牧志２丁目１７番２７－４０１号,,47,201,9000013,,,,,,,2024-09-05,1,,,,,ニューエスデザイン,0
792,3380001034766,新規,0,2024-09-05,2024-09-05,ＺＥＮＳＨＩＮ株式会社,,株式会社,福島県,郡山市,富久山町久保田字岡ノ城３番地の１,,07,203,9638071,,,,,,,2024-09-05,1,,,,,ゼンシン,0
794,3390001017737,新規,0,2024-09-05,2024-09-05,株式会社企画屋本舗,,株式会社,山形県,山形市,富の中３丁目６番２０号,,06,201,9902463,,,,,,,2024-09-05,1,,,,,キカクヤホンポ,0
797,3400001016778,新規,0,2024-09-05,2024-09-05,ピースハート株式会社,,株式会社,岩手県,紫波郡紫波町,桜町字三本木１８番地,,03,321,0283307,,,,,,,2024-09-05,1,,,,,ピースハート,0
799,3420001018855,新規,0,2024-09-05,2024-09-05,株式会社Ｋ＆Ｋ,,株式会社,青森県,八戸市,大字朔日町３０番地,,02,203,0310087,,,,,,,2024-09-05,1,,,,,ケーアンドケー,0
800,3430001092593,新規,0,2024-09-05,2024-09-05,株式会社ＫＡＧＥジャパン,,株式会社,北海道,虻田郡倶知安町,北二条西１丁目大協ビル２階,,01,400,0440052,,,,,,,2024-09-05,1,,,,,カゲジャパン,0
801,3430001092619,新規,0,2024-09-05,2024-09-05,株式会社天照,,株式会社,北海道,登別市,新生町４丁目１２番地１,,01,230,0590032,,,,,,,2024-09-05,1,,,,,テンショウ,0
802,3430001092627,新規,0,2024-09-05,2024-09-05,ＴＭ電気通信設計株式会社,,株式会社,北海道,札幌市中央区,北一条東５丁目１０番地３,,01,101,0600031,,,,,,,2024-09-05,1,,,,,ティエムデンキツウシンセッケイ,0
804,3430003016757,新規,0,2024-09-05,2024-09-05,合同会社総合地盤開発,,合同会社,北海道,札幌市東区,北十八条東１６丁目４番２８号ボナールＮ１８－２０１,,01,103,0650018,,,,,,,2024-09-05,1,,,,,ソウゴウジバンカイハツ,0
809,3700150127049,新規,0,2024-09-05,2024-09-05,Ｅｘｃｅｌ　Ｔａｌｅｎｔ　Ｈｏｌｄｉｎｇｓ　Ｌｉｍｉｔｅｄ,,外国会社等,東京都,渋谷区,鉢山町１５－８－２０１,,13,113,1500035,Ｗｏｏｄｂｏｕｒｎｅ　Ｈａｌｌ，Ｒｏａｄ　Ｔｏｗｎ，Ｔｏｒｔｏｌａ，Ｂｒｉｔｉｓｈ　Ｖｉｒｇｉｎ　Ｉｓｌａｎｄｓ,,,,,,2024-09-05,1,,,,,エクセルタレントホールデイングズリミテツド,0
813,4010003044808,新規,0,2024-09-05,2024-09-05,合同会社ＳＭＩＬＥ,,合同会社,東京都,千代田区,神田須田町１丁目７番８号ＶＯＲＴ秋葉原ＩＶ２Ｆ,00136202,13,101,1010041,,,,,,,2024-09-05,1,,,,,スマイル,0
823,4010403033377,新規,0,2024-09-05,2024-09-05,合同会社ＣＬＡＲＫ　ＪＡＣＫ,,合同会社,東京都,港区,南青山２丁目２番１５号,,13,103,1070062,,,,,,,2024-09-05,1,,,,,クラークジャック,0
824,4010405023541,新規,0,2024-09-05,2024-09-05,一般社団法人京都５Ｊ,,その他の設立登記法人,東京都,港区,元赤坂１丁目１番８号赤坂コミュニティビル４階,,13,103,1070051,,,,,,,2024-09-05,1,,,,,キョウトファイブジェイ,0
825,4010405023558,新規,0,2024-09-05,2024-09-05,一般社団法人笛吹蓄電所,,その他の設立登記法人,東京都,港区,元赤坂１丁目１番８号赤坂コミュニティビル４階,,13,103,1070051,,,,,,,2024-09-05,1,,,,,フエフキチクデンジョ,0
826,4010501052865,新規,0,2024-09-05,2024-09-05,株式会社地域創生投資,,株式会社,東京都,台東区,池之端３丁目３番９－３０２号,,13,106,1100008,,,,,,,2024-09-05,1,,,,,チイキソウセイトウシ,0
828,4010601065817,新規,0,2024-09-05,2024-09-05,株式会社アピアランス,,株式会社,東京都,江東区,富岡１丁目４番１０号リバーハイツ門前仲町２０２,,13,108,1350047,,,,,,,2024-09-05,1,,,,,アピアランス,0
831,4010701046485,新規,0,2024-09-05,2024-09-05,株式会社クリエイトアンドテクノロジー,,株式会社,東京都,品川区,西五反田１丁目２６番２号五反田サンハイツ９１１,,13,109,1410031,,,,,,,2024-09-05,1,,,,,クリエイトアンドテクノロジー,0
832,4010801035363,新規,0,2024-09-05,2024-09-05,株式会社ＦＰＬＳＣ,,株式会社,東京都,大田区,大森本町１丁目８－１２－Ｓ－８０４,,13,111,1430011,,,,,,,2024-09-05,1,,,,,エフピーエルエスシー,0
836,4010903009331,新規,0,2024-09-05,2024-09-05,メディアステップ合同会社,,合同会社,東京都,世田谷区,赤堤２丁目２６番５号,,13,112,1560044,,,,,,,2024-09-05,1,,,,,メディアステップ,0
838,4011001164498,新規,0,2024-09-05,2024-09-05,株式会社ＩＮＥＦＦＩＣＩＥＮＴ,,株式会社,東京都,渋谷区,猿楽町２２番６号Ｃ号室,,13,113,1500033,,,,,,,2024-09-05,1,,,,,イネフィシエント,0
843,4011005010657,新規,0,2024-09-05,2024-09-05,一般社団法人最美会,,その他の設立登記法人,東京都,渋谷区,恵比寿南３丁目１１番１４号,,13,113,1500022,,,,,,,2024-09-05,1,,,,,サイビカイ,0
850,4011101108677,新規,0,2024-09-05,2024-09-05,株式会社トリプルアイデザイン,,株式会社,東京都,新宿区,西新宿６丁目５番１号新宿アイランドタワー２階,,13,104,1600023,,,,,,,2024-09-05,1,,,,,トリプルアイデザイン,0
852,4011201025772,新規,0,2024-09-05,2024-09-05,Ｃｏｗｅｌｌｎｅｘ株式会社,,株式会社,東京都,中野区,中野４丁目１０番２号,,13,114,1640001,,,,,,,2024-09-05,1,,,,,コヴェルネクス,0
857,4011503006215,新規,0,2024-09-05,2024-09-05,東京国際投資開発合同会社,,合同会社,東京都,北区,上十条４丁目２番２号,,13,117,1140034,,,,,,,2024-09-05,1,,,,,トウキョウコクサイトウシカイハツ,0
858,4011601028029,新規,0,2024-09-05,2024-09-05,ラ・ベルヴィ株式会社,,株式会社,東京都,練馬区,大泉町４丁目３９－３２,,13,120,1780062,,,,,,,2024-09-05,1,,,,,ラベルヴィ,0
860,4011801044800,新規,0,2024-09-05,2024-09-05,株式会社スマートキャピタル,,株式会社,東京都,葛飾区,西亀有４丁目２０番３号,,13,122,1250002,,,,,,,2024-09-05,1,,,,,スマートキャピタル,0
863,4012401042252,新規,0,2024-09-05,2024-09-05,オリエ株式会社,,株式会社,東京都,狛江市,岩戸北１丁目１２番１０－４０５号,,13,219,2010004,,,,,,,2024-09-05,1,,,,,オリエ,0
864,4012401042260,新規,0,2024-09-05,2024-09-05,株式会社フロア吉也,,株式会社,東京都,三鷹市,中原３丁目７番３４号,,13,204,1810005,,,,,,,2024-09-05,1,,,,,フロアヨシナリ,0
866,4012701018431,新規,0,2024-09-05,2024-09-05,株式会社ＬＯＧＩＣＴＲＥＥ,,株式会社,東京都,西東京市,住吉町６丁目１２番１５号,,13,229,2020005,,,,,,,2024-09-05,1,,,,,ロジックツリー,0
870,4013301053067,新規,0,2024-09-05,2024-09-05,株式会社梵天,,株式会社,東京都,豊島区,巣鴨３丁目１－１桜並木通りビル３０１,,13,116,1700002,,,,,,,2024-09-05,1,,,,,ボンテン,0
882,4020001158930,新規,0,2024-09-05,2024-09-05,株式会社日暉,,株式会社,神奈川県,横浜市西区,浅間町４丁目３５１番地７,,14,103,2200072,,,,,,,2024-09-05,1,,,,,ニッキ,0
896,4021001083152,新規,0,2024-09-05,2024-09-05,アイビス株式会社,,株式会社,神奈川県,相模原市南区,相南４丁目１６番１０号,,14,153,2520312,,,,,,,2024-09-05,1,,,,,アイビス,0
897,4021001083160,新規,0,2024-09-05,2024-09-05,株式会社ＺＥＲＯ　ＳＴＯＲＹ,,株式会社,神奈川県,大和市,中央２丁目７番２号,,14,213,2420021,,,,,,,2024-09-05,1,,,,,ゼロストーリー,0
898,4021001083177,新規,0,2024-09-05,2024-09-05,株式会社田野モータース,,株式会社,神奈川県,藤沢市,城南４丁目３番２６号,,14,205,2510057,,,,,,,2024-09-05,1,,,,,タノモータース,0
900,4021003014980,新規,0,2024-09-05,2024-09-05,引越市場合同会社,,合同会社,神奈川県,厚木市,愛名７９番地１,,14,212,2430038,,,,,,,2024-09-05,1,,,,,ヒッコシイチバ,0
902,4030001162279,新規,0,2024-09-05,2024-09-05,株式会社Ｄ．ｂｅｌｌ,,株式会社,埼玉県,川口市,大字差間４９６番地の２,,11,203,3330816,,,,,,,2024-09-05,1,,,,,ディーベル,0
908,4030005021836,新規,0,2024-09-05,2024-09-05,見沼土地家屋調査士法人,,その他の設立登記法人,埼玉県,さいたま市見沼区,大字蓮沼１０８５番地３０,,11,104,3370015,,,,,,,2024-09-05,1,,,,,ミヌマ,0
916,4040003025739,新規,0,2024-09-05,2024-09-05,ＳＨＥＲＰＡ　ＡＫＩＨＩＲＯ合同会社,,合同会社,千葉県,成田市,吾妻１丁目２３番地１（ビレッジハウス成田吾妻タワー８１６号）,,12,211,2860018,,,,,,,2024-09-05,1,,,,,シェルパアキヒロ,0
918,4040005022486,新規,0,2024-09-05,2024-09-05,特定非営利活動法人Ｍ＆Ｍ　Ｔａｂｌｅ,,その他の設立登記法人,千葉県,市川市,菅野１丁目２３番地２５号,,12,203,2720824,,,,,,,2024-09-05,1,,,,,エムアンドエムテーブル,0
921,4060001037461,新規,0,2024-09-05,2024-09-05,株式会社ＣＨＩＴＯＳＥ,,株式会社,栃木県,宇都宮市,日の出１丁目１１番１号Ｈ・Ｉ・Ｔビル３Ｆ,00136191,09,201,3200832,,,,,,,2024-09-05,1,,,,,チトセ,0
925,4070001042139,新規,0,2024-09-05,2024-09-05,綴る株式会社,,株式会社,群馬県,前橋市,西片貝町２丁目１１６番地３藤ハイツＢ棟２０１号室,,10,201,3710013,,,,,,,2024-09-05,1,,,,,ツヅル,0
929,4080003003286,新規,0,2024-09-05,2024-09-05,合同会社マックス,,合同会社,静岡県,藤枝市,岡部町岡部６６５番地の６,,22,214,4211121,,,,,,,2024-09-05,1,,,,,マックス,0
931,4080401027408,新規,0,2024-09-05,2024-09-05,株式会社ａｎｏｔｈｅｒ　ｌｉｆｅ,,株式会社,静岡県,浜松市中央区,松小池町６５７番地の１,,22,138,4350008,,,,,,,2024-09-05,1,,,,,アナザーライフ,0
935,4080403005089,新規,0,2024-09-05,2024-09-05,合同会社リング,,合同会社,静岡県,浜松市浜名区,神宮寺町１９番３８号,,22,139,4312216,,,,,,,2024-09-05,1,,,,,リング,0
938,4090003002634,新規,0,2024-09-05,2024-09-05,富士未来合同会社,,合同会社,山梨県,南都留郡富士河口湖町,大石８７４番地１,,19,430,4010305,,,,,,,2024-09-05,1,,,,,フジミライ,0
961,4120001268249,新規,0,2024-09-05,2024-09-05,楽満株式会社,,株式会社,大阪府,大阪市東住吉区,東田辺３丁目１－１－２Ｆ－Ｂ,,27,121,5460032,,,,,,,2024-09-05,1,,,,,ラクマン,0
962,4120001268298,新規,0,2024-09-05,2024-09-05,株式会社ＦＳＰ,,株式会社,大阪府,枚方市,車塚１丁目１－１－６階１号室,,27,210,5731159,,,,,,,2024-09-05,1,,,,,エフエスピー,0
963,4120001268307,新規,0,2024-09-05,2024-09-05,エムエスマリン株式会社,,株式会社,大阪府,大阪市大正区,千島１丁目１０番２０－１３０４号,,27,108,5510003,,,,,,,2024-09-05,1,,,,,エムエスマリン,0
964,4120001268331,新規,0,2024-09-05,2024-09-05,株式会社Ｇｌａｒｅ　Ｂａｓｅ,,株式会社,大阪府,大阪市平野区,平野東３丁目６番２６－２０５号,,27,126,5470043,,,,,,,2024-09-05,1,,,,,グレアベース,0
966,4120003027446,新規,0,2024-09-05,2024-09-05,合同会社ＤＭＴ,,合同会社,大阪府,大阪市西淀川区,野里１丁目１９－２６－２０５,,27,113,5550024,,,,,,,2024-09-05,1,,,,,ディーエムティー,0
967,4120003027470,新規,0,2024-09-05,2024-09-05,Ｍｓ合同会社,,合同会社,大阪府,大阪市平野区,西脇１丁目７－１３,,27,126,5470035,,,,,,,2024-09-05,1,,,,,エムズ,0
968,4120003027479,新規,0,2024-09-05,2024-09-05,合同会社シンコーアドヴァンス大阪,,合同会社,大阪府,大阪市北区,梅田１丁目１‐３大阪駅前第３ビル２９階１‐１‐１号室,,27,127,5300001,,,,,,,2024-09-05,1,,,,,シンコーアドヴァンスオオサカ,0
971,4120101070240,新規,0,2024-09-05,2024-09-05,株式会社アベイズ,,株式会社,大阪府,堺市北区,金岡町５４９番地９,,27,146,5918022,,,,,,,2024-09-05,1,,,,,アベイズ,0
976,4120901049731,新規,0,2024-09-05,2024-09-05,株式会社コネクト,,株式会社,大阪府,豊中市,服部本町１丁目１番１号,,27,203,5610852,,,,,,,2024-09-05,1,,,,,コネクト,0
978,4122001038417,新規,0,2024-09-05,2024-09-05,ＤＪプロジェクト株式会社,,株式会社,大阪府,東大阪市,西上小坂１２番１８号,,27,227,5770000,,,,,,,2024-09-05,1,,,,,ディージェイプロジェクト,0
979,4130001077855,新規,0,2024-09-05,2024-09-05,徳田電設株式会社,00136196,株式会社,京都府,京田辺市,草内山ノ下１９番地５,,26,211,6100311,,,,,,,2024-09-05,1,,,,,トクダデンセツ,0
980,4130001077863,新規,0,2024-09-05,2024-09-05,Ｗａｋｅ　Ａｃａｄｅｍｙ株式会社,,株式会社,京都府,京都市上京区,宮垣町９１－１０２,,26,102,6020853,,,,,,,2024-09-05,1,,,,,ウェイクアカデミー,0
989,4140001135661,新規,0,2024-09-05,2024-09-05,株式会社颯建,,株式会社,兵庫県,宝塚市,花屋敷荘園３丁目８番５号,,28,214,6650802,,,,,,,2024-09-05,1,,,,,ソウケン,0
990,4140001135686,新規,0,2024-09-05,2024-09-05,株式会社Ｕｎｉｏｎ,,株式会社,兵庫県,神戸市中央区,下山手通３丁目８番１１号メゾン下山手１０２号,,28,110,6500011,,,,,,,2024-09-05,1,,,,,ユニオン,0
991,4140001135711,新規,0,2024-09-05,2024-09-05,株式会社正悠マリン,,株式会社,兵庫県,姫路市,家島町坊勢６９１番地９,,28,201,6720103,,,,,,,2024-09-05,1,,,,,セイユウマリン,0
992,4140001135728,新規,0,2024-09-05,2024-09-05,株式会社ウィズアッシュ,,株式会社,兵庫県,神戸市中央区,海岸通３丁目１－１ＫＣＣビル４Ｆ,,28,110,6500024,,,,,,,2024-09-05,1,,,,,ウィズアッシュ,0
996,4140003021034,新規,0,2024-09-05,2024-09-05,合同会社ＬｉＬｉ,,合同会社,兵庫県,豊岡市,若松町１０番３号,,28,209,6680027,,,,,,,2024-09-05,1,,,,,リリ,0
997,4140003021050,新規,0,2024-09-05,2024-09-05,藤サービス合同会社,,合同会社,兵庫県,尼崎市,御園１丁目７番８号,,28,202,6610984,,,,,,,2024-09-05,1,,,,,フジサービス,0
1006,4170005007103,新規,0,2024-09-05,2024-09-05,一般社団法人ＬＩＧＨＴＨＯＵＳＥ　ＳＴＯＲＹ,,その他の設立登記法人,和歌山県,東牟婁郡串本町,樫野１０３５番地６,,30,428,6493631,,,,,,,2024-09-05,1,,,,,ライトハウスストーリー,0
1010,4180001163130,新規,0,2024-09-05,2024-09-05,株式会社ＫＯＴＯＭＥ,,株式会社,愛知県,名古屋市名東区,梅森坂２丁目１００７番地,,23,115,4650065,,,,,,,2024-09-05,1,,,,,コトメ,0
1011,4180001163147,新規,0,2024-09-05,2024-09-05,株式会社薬膳,,株式会社,愛知県,名古屋市東区,東大曽根町２９番１１号共栄ビル４Ｅ,,23,102,4610022,,,,,,,2024-09-05,1,,,,,ヤクゼン,0
1012,4180001163155,新規,0,2024-09-05,2024-09-05,株式会社ＣＨＡＩＮＯＮ東海,,株式会社,愛知県,名古屋市東区,東桜１丁目１１番１号,,23,102,4610005,,,,,,,2024-09-05,1,,,,,シェノントウカイ,0
1015,4180003027317,新規,0,2024-09-05,2024-09-05,合同会社アカウンティングパートナーズ,,合同会社,愛知県,名古屋市中村区,則武２丁目１４番地１１号名駅富士ビル１０号,,23,105,4530014,,,,,,,2024-09-05,1,,,,,アカウンティングパートナーズ,0
1017,4180301039030,新規,0,2024-09-05,2024-09-05,ＰＡＴＨＩＢＨＡＲＡ　ＴＲＡＤＩＮＧ株式会社,,株式会社,愛知県,知立市,昭和１丁目１２番地６,,23,225,4720011,,,,,,,2024-09-05,1,,,,,パティバラトレーディング,0
1021,4190001031617,新規,0,2024-09-05,2024-09-05,株式会社藤原牧場,,株式会社,三重県,伊勢市,小俣町明野４９０番地,,24,203,5190501,,,,,,,2024-09-05,1,,,,,フジワラボクジョウ,0
1026,4200001042810,新規,0,2024-09-05,2024-09-05,東濃食鳥鶏卵株式会社,,株式会社,岐阜県,中津川市,茄子川２００７番地の７４,,21,206,5099132,,,,,,,2024-09-05,1,,,,,トウノウショクチョウケイラン,0
1027,4200001042884,新規,0,2024-09-05,2024-09-05,株式会社まろぷち,,株式会社,岐阜県,加茂郡東白川村,越原２２３３－４,,21,507,5091301,,,,,,,2024-09-05,1,,,,,マロプチ,0
1033,4240001063778,新規,0,2024-09-05,2024-09-05,株式会社ｓｔｅｐ　ｕｐ,,株式会社,広島県,広島市中区,本通８番１３号,,34,101,7300035,,,,,,,2024-09-05,1,,,,,ステップアップ,0
1035,4240003006842,新規,0,2024-09-05,2024-09-05,合同会社Ｆｌｏｅｔｒｙ,,合同会社,広島県,広島市中区,千田町１丁目１６番１６号,,34,101,7300052,,,,,,,2024-09-05,1,,,,,フロエトリー,0
1036,4250003003558,新規,0,2024-09-05,2024-09-05,合同会社ＣＡＭＥＬ,,合同会社,山口県,山口市,米屋町１－６,,35,203,7530087,,,,,,,2024-09-05,1,,,,,キャメル,0
1045,4270003001667,新規,0,2024-09-05,2024-09-05,合同会社Ｒｏｂｕｓｔ,,合同会社,鳥取県,西伯郡大山町,東坪２１７番地１,,31,386,6893204,,,,,,,2024-09-05,1,,,,,ロブスト,0
1060,4290801030857,新規,0,2024-09-05,2024-09-05,株式会社ケイズプランニング,,株式会社,福岡県,北九州市小倉北区,竪町２丁目６番６－４０３号,,40,106,8030818,,,,,,,2024-09-05,1,,,,,ケイズプランニング,0
1065,4310003004855,新規,0,2024-09-05,2024-09-05,アマティ合同会社,,合同会社,長崎県,長崎市,西山本町２３番１６－２０５号,,42,201,8500005,,,,,,,2024-09-05,1,,,,,アマティ,0
1068,4330001032410,新規,0,2024-09-05,2024-09-05,ＯＡＳＩＳ株式会社,,株式会社,熊本県,熊本市中央区,下通１丁目３－８下通ＮＳビル６階,,43,101,8600807,,,,,,,2024-09-05,1,,,,,オアシス,0
1071,4340001026774,新規,0,2024-09-05,2024-09-05,株式会社ＫＡＮＯ‐ＫＥＮ,,株式会社,鹿児島県,熊毛郡中種子町,田島３５４８番地３,,46,501,8913607,,,,,,,2024-09-05,1,,,,,カノケン,0
1072,4340003004596,新規,0,2024-09-05,2024-09-05,合同会社Ｄｅｆｔ,,合同会社,鹿児島県,霧島市,国分中央６丁目１４番１８号,,46,218,8994332,,,,,,,2024-09-05,1,,,,,デフト,0
1073,4350001019166,新規,0,2024-09-05,2024-09-05,株式会社Ｋｒａｆｔ,,株式会社,宮崎県,東諸県郡綾町,大字北俣４１６３番地１１,,45,383,8801302,,,,,,,2024-09-05,1,,,,,クラフト,0
1084,4390001017736,新規,0,2024-09-05,2024-09-05,東根ガス株式会社,,株式会社,山形県,東根市,神町中央２丁目９番２１号,,06,211,9993763,,,,,,,2024-09-05,1,,,,,ヒガシネガス,0
1085,4390003002281,新規,0,2024-09-05,2024-09-05,合同会社プラムローザ,,合同会社,山形県,山形市,小白川町１丁目７番１３号,,06,201,9900021,,,,,,,2024-09-05,1,,,,,プラムローザ,0
1092,4420003002988,新規,0,2024-09-05,2024-09-05,合同会社レイ,,合同会社,青森県,三戸郡南部町,大字下名久井字左比代２番地５,,02,445,0390502,,,,,,,2024-09-05,1,,,,,レイ,0
1096,4430003016756,新規,0,2024-09-05,2024-09-05,合同会社まんねんサービス,,合同会社,北海道,石狩市,北生振１１２番地８,,01,235,0613362,,,,,,,2024-09-05,1,,,,,マンネンサービス,0
1098,4460103001647,新規,0,2024-09-05,2024-09-05,合同会社ＣＲＥＡＴＥ・ＬＯＣＡＬ,,合同会社,北海道,中川郡本別町,北３丁目３番地９,,01,646,0893334,,,,,,,2024-09-05,1,,,,,クリエイトローカル,0
1109,4490001010862,新規,0,2024-09-05,2024-09-05,株式会社ＫＯＫＵＺＯＵオート,,株式会社,高知県,高岡郡佐川町,加茂３２４０番地２,,39,402,7891204,,,,,,,2024-09-05,1,,,,,コクゾウオート,0
1114,4500001025859,新規,0,2024-09-05,2024-09-05,株式会社マックス,,株式会社,愛媛県,松山市,立花４丁目３－４０,,38,201,7900966,,,,,,,2024-09-05,1,,,,,マックス,0
1117,4700150127048,新規,0,2024-09-05,2024-09-05,ＸＸ１００３ＳＰＶＬＩＭＩＴＥＤ,,外国会社等,,,,,,,,Ｒｏｏｍ４，１１／Ｆ．，ＣｒａｗｆｏｒｄＨｏｕｓｅ，７０Ｑｕｅｅｎ’ｓＲｏａｄＣｅｎｔｒａｌ，Ｈｏｎｇｋｏｎｇ,,,,,,2024-09-05,1,,,,,エツクスエツクスワンゼロゼロスリーエスピーブイリミテツド,0
1127,5010001247980,新規,0,2024-09-05,2024-09-05,関東機械ホールディングス株式会社,,株式会社,東京都,千代田区,鍛冶町２丁目３番２号,,13,101,1010044,,,,,,,2024-09-05,1,,,,,カントウキカイホールディングス,0
1128,5010005038724,新規,0,2024-09-05,2024-09-05,一般社団法人パーフェクトゲームジャパン,,その他の設立登記法人,東京都,千代田区,麹町１丁目３番,,13,101,1020083,,,,,,,2024-09-05,1,,,,,パーフェクトゲームジャパン,0
1130,5010105002299,新規,0,2024-09-05,2024-09-05,社会福祉法人八王子市福祉事業協会,,その他の設立登記法人,東京都,八王子市,元横山町５９８番地,,13,201,1920000,,,,,,,2024-09-05,1,,,,,,0
1142,5010601065857,新規,0,2024-09-05,2024-09-05,カラビナ株式会社,,株式会社,東京都,江東区,亀戸４丁目１７番１２号,,13,108,1360071,,,,,,,2024-09-05,1,,,,,カラビナ,0
1145,5010701046492,新規,0,2024-09-05,2024-09-05,ＰＥＥＬＳ株式会社,,株式会社,東京都,品川区,西五反田２丁目９－７ドルミ五反田アンメゾン８０２,,13,109,1410031,,,,,,,2024-09-05,1,,,,,ピールズ,0
1146,5010803005090,新規,0,2024-09-05,2024-09-05,合同会社ＥＡＲＴＨ,,合同会社,東京都,大田区,西蒲田７丁目４１番２号,,13,111,1440051,,,,,,,2024-09-05,1,,,,,アース,0
1149,5010901055913,新規,0,2024-09-05,2024-09-05,株式会社カスヤ,,株式会社,東京都,世田谷区,中町３丁目２１番１号,,13,112,1580091,,,,,,,2024-09-05,1,,,,,カスヤ,0
1150,5010901055921,新規,0,2024-09-05,2024-09-05,株式会社我堂,,株式会社,東京都,世田谷区,若林３丁目６番１３－３１２号,,13,112,1540023,,,,,,,2024-09-05,1,,,,,ガドウ,0
1152,5010903009339,新規,0,2024-09-05,2024-09-05,アセット合同会社,,合同会社,東京都,世田谷区,梅丘１丁目２１―５,,13,112,1540022,,,,,,,2024-09-05,1,,,,,アセット,0
1157,5011001164497,新規,0,2024-09-05,2024-09-05,Ａｄａ株式会社,,株式会社,東京都,渋谷区,恵比寿４丁目３番１４号恵比寿ＳＳビル,,13,113,1500013,,,,,,,2024-09-05,1,,,,,エイダ,0
1160,5011101108635,新規,0,2024-09-05,2024-09-05,株式会社ＭＵＧＷＯＲＴ,,株式会社,東京都,新宿区,上落合３丁目２番１１号,,13,104,1610034,,,,,,,2024-09-05,1,,,,,マグワート,0
1161,5011101108676,新規,0,2024-09-05,2024-09-05,株式会社レオーネ,,株式会社,東京都,新宿区,西新宿３丁目３番１３号西新宿水間ビル２Ｆ,,13,104,1600023,,,,,,,2024-09-05,1,,,,,レオーネ,0
1163,5011103014880,新規,0,2024-09-05,2024-09-05,合同会社百人力,,合同会社,東京都,新宿区,百人町１丁目４番９号,,13,104,1690073,,,,,,,2024-09-05,1,,,,,ヒャクニンリキ,0
1169,5011301029978,新規,0,2024-09-05,2024-09-05,ＩＥＣ株式会社,,株式会社,東京都,杉並区,和泉２丁目４０番１４号,,13,115,1680063,,,,,,,2024-09-05,1,,,,,,0
1170,5011401026405,新規,0,2024-09-05,2024-09-05,株式会社ＴＨＥ　ＳＨＯＸ,,株式会社,東京都,板橋区,高島平４丁目１番１２号,,13,119,1750082,,,,,,,2024-09-05,1,,,,,ザショックス,0
1177,5011801044799,新規,0,2024-09-05,2024-09-05,泉株式会社,,株式会社,東京都,葛飾区,青戸８丁目２１番１８号,,13,122,1250062,,,,,,,2024-09-05,1,,,,,イズミ,0
1179,5011805003388,新規,0,2024-09-05,2024-09-05,天地の宮一般社団法人,,その他の設立登記法人,東京都,足立区,梅田７丁目１６番３号,,13,121,1230851,,,,,,,2024-09-05,1,,,,,アワノミヤ,0
1188,5020001158962,新規,0,2024-09-05,2024-09-05,株式会社よつば,,株式会社,神奈川県,横浜市神奈川区,金港町５－１４番地クアドフォリア８階,,14,102,2210056,,,,,,,2024-09-05,1,,,,,ヨツバ,0
1197,5021001083151,新規,0,2024-09-05,2024-09-05,株式会社ｌＩＮＸ,,株式会社,神奈川県,藤沢市,遠藤９２７番地の３,,14,205,2520816,,,,,,,2024-09-05,1,,,,,リンクス,0
1198,5021001083176,新規,0,2024-09-05,2024-09-05,株式会社ＢＲＭ,,株式会社,神奈川県,海老名市,中央３丁目２番９号,,14,215,2430432,,,,,,,2024-09-05,1,,,,,ビーアールエム,0
1200,5021003014971,新規,0,2024-09-05,2024-09-05,合同会社ファームパラダイス,,合同会社,神奈川県,足柄上郡大井町,上大井５０７番地,,14,362,2580016,,,,,,,2024-09-05,1,,,,,ファームパラダイス,0
1204,5030001162294,新規,0,2024-09-05,2024-09-05,株式会社ＨＫ,,株式会社,埼玉県,富士見市,大字水子４６５１番地エイメイ学院内２階,,11,235,3540011,,,,,,,2024-09-05,1,,,,,エイチケイ,0
1205,5030005021835,新規,0,2024-09-05,2024-09-05,Ｔ３建設事業協同組合,,その他の設立登記法人,埼玉県,さいたま市中央区,上峰１丁目３番１２号,,11,105,3380014,,,,,,,2024-09-05,1,,,,,ティースリーケンセツ,0
1213,5040001135217,新規,0,2024-09-05,2024-09-05,桜豊株式会社,,株式会社,千葉県,市川市,大洲２丁目１６番地１４,,12,203,2720032,,,,,,,2024-09-05,1,,,,,サクラトヨ,0
1217,5040003025746,新規,0,2024-09-05,2024-09-05,合同会社ガガライフ,,合同会社,千葉県,千葉市中央区,弁天４丁目５番２４－２号,,12,101,2600045,,,,,,,2024-09-05,1,,,,,ガガライフ,0
1218,5040003025762,新規,0,2024-09-05,2024-09-05,合同会社興成インベスト,,合同会社,千葉県,成田市,三里塚４７－５,,12,211,2860111,,,,,,,2024-09-05,1,,,,,コウセイインベスト,0
1222,5060001037460,新規,0,2024-09-05,2024-09-05,株式会社ＷＡＲＣ．ＷＡＲＣＳ,,株式会社,栃木県,鹿沼市,上殿町１９０番地７,,09,205,3220045,,,,,,,2024-09-05,1,,,,,ワークワークス,0
1227,5070001042113,新規,0,2024-09-05,2024-09-05,株式会社エニウェア,,株式会社,群馬県,伊勢崎市,下蓮町１８５番地４,,10,204,3720852,,,,,,,2024-09-05,1,,,,,エニウエア,0
1228,5070001042146,新規,0,2024-09-05,2024-09-05,株式会社ＭＣＬカンパニー,,株式会社,群馬県,太田市,古戸町１１８７番地３１,,10,205,3730826,,,,,,,2024-09-05,1,,,,,エムシーエルカンパニー,0
1256,5120001268272,新規,0,2024-09-05,2024-09-05,九十九クリエイト株式会社,,株式会社,大阪府,大阪市北区,梅田１丁目１番３号２９階１－１－１号室,,27,127,5300001,,,,,,,2024-09-05,1,,,,,ツクモクリエイト,0
1257,5120001268280,新規,0,2024-09-05,2024-09-05,株式会社セブン,,株式会社,大阪府,大阪市旭区,中宮５丁目３番２８号パークイースト１０１,,27,117,5350003,,,,,,,2024-09-05,1,,,,,セブン,0
1258,5120001268306,新規,0,2024-09-05,2024-09-05,株式会社床版工業,,株式会社,大阪府,大阪市住吉区,山之内３丁目１５番２２号杉本コーポ３０２号,,27,120,5580023,,,,,,,2024-09-05,1,,,,,ショウハンコウギョウ,0
1275,5130001077854,新規,0,2024-09-05,2024-09-05,株式会社肉洋食オオタケ,,株式会社,京都府,京都市東山区,宮川筋５丁目３４５－３,,26,105,6050801,,,,,,,2024-09-05,1,,,,,ニクヨウショクオオタケ,0
1276,5130001077887,新規,0,2024-09-05,2024-09-05,株式会社ＯＨＩＮＥＲＩ,,株式会社,京都府,京都市下京区,仏光寺通烏丸東入上柳町３３１番地,,26,106,6008099,,,,,,,2024-09-05,1,,,,,オヒネリ,0
1283,5140001135693,新規,0,2024-09-05,2024-09-05,株式会社川添工務店,,株式会社,兵庫県,姫路市,岡田５２７番地３,,28,201,6700982,,,,,,,2024-09-05,1,,,,,カワゾエコウムテン,0
1284,5140001135702,新規,0,2024-09-05,2024-09-05,Ｈｉｌｆｅ株式会社,,株式会社,兵庫県,明石市,樽屋町２１番１８号,,28,203,6730898,,,,,,,2024-09-05,1,,,,,ヒルフェ,0
1288,5140003021041,新規,0,2024-09-05,2024-09-05,Ａｇｅｌｉｔｙ合同会社,,合同会社,兵庫県,川辺郡猪名川町,白金１丁目９４番地１３,,28,301,6660257,,,,,,,2024-09-05,1,,,,,エイジェリティ,0
1289,5150001027535,新規,0,2024-09-05,2024-09-05,株式会社ＹＭＫ,,株式会社,奈良県,磯城郡三宅町,大字屏風４３０番地１５,,29,362,6360217,,,,,,,2024-09-05,1,,,,,ワイエムケイ,0
1303,5180005020764,新規,0,2024-09-05,2024-09-05,社会保険労務士法人Ｔ＆Ｍ,,その他の設立登記法人,愛知県,一宮市,大宮１丁目５番４号,,23,203,4910044,,,,,,,2024-09-05,1,,,,,ティーアンドエム,0
1316,5210001019897,新規,0,2024-09-05,2024-09-05,株式会社若越グリーンｓｏｌｕｔｉｏｎ,,株式会社,福井県,三方郡美浜町,大藪第４４号５番地の１,,18,442,9191146,,,,,,,2024-09-05,1,,,,,ジャクエツグリーンソリューション,0
1317,5240001063769,新規,0,2024-09-05,2024-09-05,株式会社秋建装,,株式会社,広島県,広島市西区,上天満町４番１５－２０４号,,34,104,7330021,,,,,,,2024-09-05,1,,,,,アキケンソウ,0
1318,5240003006841,新規,0,2024-09-05,2024-09-05,合同会社灯,,合同会社,広島県,広島市佐伯区,海老園１丁目４番１８－５０３号,,34,108,7315135,,,,,,,2024-09-05,1,,,,,アカリ,0
1336,5290801030856,新規,0,2024-09-05,2024-09-05,ランホールディングス株式会社,,株式会社,福岡県,田川市,大字位登１２６３番地５,,40,206,8260044,,,,,,,2024-09-05,1,,,,,ランホールディング,0
1337,5310001019193,新規,0,2024-09-05,2024-09-05,株式会社天翔,,株式会社,長崎県,佐世保市,小佐々町楠泊１８２２番地２２,,42,202,8570413,,,,,,,2024-09-05,1,,,,,テンショウ,0
1340,5330001032434,新規,0,2024-09-05,2024-09-05,株式会社ウィン九州,,株式会社,熊本県,熊本市中央区,下通１丁目１０番１号ＫＫ下通銀座クロスビル３階,,43,101,8600807,,,,,,,2024-09-05,1,,,,,ウィンキュウシュウ,0
1341,5330001032442,新規,0,2024-09-05,2024-09-05,株式会社Ｇ．Ｓ．グリーン,,株式会社,熊本県,熊本市南区,御幸笛田１丁目３番４５号,,43,104,8614172,,,,,,,2024-09-05,1,,,,,ジーエスグリーン,0
1343,5350003004743,新規,0,2024-09-05,2024-09-05,合同会社コネクトファームたかなべ,,合同会社,宮崎県,児湯郡高鍋町,大字上江４６４７－１,,45,401,8840006,,,,,,,2024-09-05,1,,,,,コネクトファームタカナベ,0
1344,5360001034163,新規,0,2024-09-05,2024-09-05,株式会社サウナムラ,,株式会社,沖縄県,那覇市,若狭２丁目７番１７号１階,,47,201,9000031,,,,,,,2024-09-05,1,,,,,サウナムラ,0
1354,5390001017735,新規,0,2024-09-05,2024-09-05,株式会社西塚畜産,,株式会社,山形県,尾花沢市,大字上柳渡戸１２３８番地,,06,212,9994332,,,,,,,2024-09-05,1,,,,,ニシヅカチクサン,0
1358,5390003002280,新規,0,2024-09-05,2024-09-05,合同会社ｃｌｏｕｄ９,,合同会社,山形県,米沢市,花沢町１丁目４番１５号,,06,202,9920022,,,,,,,2024-09-05,1,,,,,クラウドナイン,0
1359,5400001016776,新規,0,2024-09-05,2024-09-05,株式会社ＫＯＮＯＳ,,株式会社,岩手県,滝沢市,巣子１２４０番地７,,03,216,0200611,,,,,,,2024-09-05,1,,,,,コノス,0
1367,5430003016755,新規,0,2024-09-05,2024-09-05,合同会社Ｎｅｘｔ　Ｉｎｎｏｖａｔｉｏｎ,,合同会社,北海道,札幌市中央区,北三条東１０丁目１２１番地プレミストタワーズ札幌苗穂ブライトゲートＢ２６０８,,01,101,0600033,,,,,,,2024-09-05,1,,,,,ネクストイノベーション,0
1378,5700150127047,新規,0,2024-09-05,2024-09-05,株式会社　トンファＰＨＥ,,外国会社等,福岡県,福岡市中央区,渡辺通５丁目２４－３７－４０６号,,40,133,8100004,大韓民国釜山広域市江西区花田産団３路６０,,,,,,2024-09-05,1,,,,,カブシキガイシヤトンフアピーエイチイー,0
1383,6010001247996,新規,0,2024-09-05,2024-09-05,バイオマス水素エンジニアリング株式会社,,株式会社,東京都,中央区,日本橋室町３丁目３番１号,,13,102,1030022,,,,,,,2024-09-05,1,,,,,バイオマススイソエンジニアリング,0
1384,6010001248103,新規,0,2024-09-05,2024-09-05,アイエーホールディングス株式会社,,株式会社,東京都,千代田区,丸の内１丁目９番２号,,13,101,1000005,,,,,,,2024-09-05,1,,,,,アイエーホールディングス,0
1387,6010003044789,新規,0,2024-09-05,2024-09-05,ＴＭＡＰＥマネジメント合同会社,,合同会社,東京都,千代田区,丸の内１丁目８番２号,,13,101,1000005,,,,,,,2024-09-05,1,,,,,ティーエムエーピーイーマネジメント,0
1388,6010003044839,新規,0,2024-09-05,2024-09-05,あづま小富士エナジー合同会社,,合同会社,東京都,千代田区,麹町２丁目８番地ＭＬＣ麹町ビル４階フィンポート税理士法人内,,13,101,1020083,,,,,,,2024-09-05,1,,,,,アヅマコフジエナジー,0
1403,6010403033367,新規,0,2024-09-05,2024-09-05,合同会社ウスユキ,,合同会社,東京都,港区,南麻布５丁目２番２０号,,13,103,1060047,,,,,,,2024-09-05,1,,,,,ウスユキ,0
1404,6010405023507,新規,0,2024-09-05,2024-09-05,一般社団法人ケー・エフ・ブリッジ,,その他の設立登記法人,東京都,港区,虎ノ門３丁目２２番１０－２０１号,,13,103,1050001,,,,,,,2024-09-05,1,,,,,ケーエフブリッジ,0
1405,6010501052855,新規,0,2024-09-05,2024-09-05,Ｔ’ｎＴソリューション株式会社,,株式会社,東京都,台東区,蔵前４丁目２１番５号,,13,106,1110051,,,,,,,2024-09-05,1,,,,,ティーエヌティーソリューション,0
1406,6010501052863,新規,0,2024-09-05,2024-09-05,Ｈ＆Ｃｏ．株式会社,,株式会社,東京都,台東区,竜泉２丁目１９番１４号金竜コーポ５０１,,13,106,1100012,,,,,,,2024-09-05,1,,,,,エイチアンドコー,0
1419,6010901055912,新規,0,2024-09-05,2024-09-05,株式会社Ｃ．Ｒ．Ｅ．Ａ．Ｍ,,株式会社,東京都,世田谷区,上北沢４丁目３３番２１号,,13,112,1560057,,,,,,,2024-09-05,1,,,,,クリーム,0
1420,6010901055920,新規,0,2024-09-05,2024-09-05,株式会社東京フィルムアート,,株式会社,東京都,世田谷区,松原２丁目４６－９力蔵ビル２階,,13,112,1560043,,,,,,,2024-09-05,1,,,,,トウキョウフィルムアート,0
1424,6011001164422,新規,0,2024-09-05,2024-09-05,株式会社ＲｔｏＦ,,株式会社,東京都,渋谷区,恵比寿南２丁目６番１号２Ｆ,,13,113,1500022,,,,,,,2024-09-05,1,,,,,アールトゥエフ,0
1425,6011001164505,新規,0,2024-09-05,2024-09-05,株式会社エントレドール,,株式会社,東京都,渋谷区,渋谷２丁目１９番１５号宮益坂ビルディング６０９,,13,113,1500002,,,,,,,2024-09-05,1,,,,,エントレドール,0
1426,6011003019938,新規,0,2024-09-05,2024-09-05,ＮＡＭＩＮＯＬ合同会社,,合同会社,東京都,渋谷区,渋谷２丁目１９‐１５宮益坂ビルディング６０９,,13,113,1500002,,,,,,,2024-09-05,1,,,,,ナミノル,0
1431,6011101108634,新規,0,2024-09-05,2024-09-05,華興源株式会社,,株式会社,東京都,新宿区,新宿５丁目１２－１０デュオ・スカーラ新宿５０１号室,,13,104,1600022,,,,,,,2024-09-05,1,,,,,カコウゲン,0
1432,6011101108667,新規,0,2024-09-05,2024-09-05,株式会社Ｐｅｎｔａｓ,,株式会社,東京都,新宿区,西新宿８丁目８番１４－５０９号,,13,104,1600023,,,,,,,2024-09-05,1,,,,,ペンタス,0
1435,6011103014863,新規,0,2024-09-05,2024-09-05,ＣＳ千葉睦沢ＥＳＳ合同会社,,合同会社,東京都,新宿区,西新宿２丁目１番１号新宿三井ビル４３階,,13,104,1600023,,,,,,,2024-09-05,1,,,,,シーエスチバムツザワイーエスエス,0
1437,6011301029969,新規,0,2024-09-05,2024-09-05,ＪＤＲパートナーズ株式会社,,株式会社,東京都,杉並区,高円寺北３丁目４５番２号Ｔ・リモージュ１０７,,13,115,1660002,,,,,,,2024-09-05,1,,,,,ジェイディーアールパートナーズ,0
1443,6011501031114,新規,0,2024-09-05,2024-09-05,山佳産電株式会社,,株式会社,東京都,北区,志茂４丁目４８番４－９０８号,,13,117,1150042,,,,,,,2024-09-05,1,,,,,ヤマヨシサンデン,0
1447,6011503006213,新規,0,2024-09-05,2024-09-05,ＨＵＡＲＣ合同会社,,合同会社,東京都,北区,田端新町３丁目２１番３－１０２号Ｂ．ＣａｕｓｅＲｅｓｉｄｅｎｃｅ,,13,117,1140012,,,,,,,2024-09-05,1,,,,,ヒューアーク,0
1453,6011803006441,新規,0,2024-09-05,2024-09-05,合同会社ｓｏｆｆｉｏ,,合同会社,東京都,葛飾区,東金町１丁目４４番１号金町ＴＶビル１階,,13,122,1250041,,,,,,,2024-09-05,1,,,,,ソフィオ,0
1458,6012403006732,新規,0,2024-09-05,2024-09-05,ＭＵＳＴＡＲＤ合同会社,,合同会社,東京都,調布市,富士見町２丁目２１番地６,,13,208,1820033,,,,,,,2024-09-05,1,,,,,マスタード,0
1459,6012801023437,新規,0,2024-09-05,2024-09-05,アイ＆エフ・アソシエイト株式会社,,株式会社,東京都,立川市,錦町１丁目４番４号サニービル２階ＣＳ－２１７,,13,202,1900022,,,,,,,2024-09-05,1,,,,,アイアンドエフアソシエイト,0
1477,6020001158994,新規,0,2024-09-05,2024-09-05,村瀬商事株式会社,,株式会社,神奈川県,川崎市多摩区,登戸２６９９－４,,14,135,2140014,,,,,,,2024-09-05,1,,,,,ムラセショウジ,0
1482,6021001083150,新規,0,2024-09-05,2024-09-05,株式会社ａｆｆｅｃｔｉｏｎ,,株式会社,神奈川県,藤沢市,藤沢５４５－４２ＷＩＬＬ藤沢２０２,,14,205,2510052,,,,,,,2024-09-05,1,,,,,アフェクション,0
1483,6021001083159,新規,0,2024-09-05,2024-09-05,株式会社馬場工務店,,株式会社,神奈川県,海老名市,中河内１７４６－１,,14,215,2430416,,,,,,,2024-09-05,1,,,,,ババコウムテン,0
1488,6021003014979,新規,0,2024-09-05,2024-09-05,合同会社バディ,,合同会社,神奈川県,横須賀市,津久井１丁目２５番２－３０２号,,14,201,2390843,,,,,,,2024-09-05,1,,,,,バディ,0
1492,6030001162260,新規,0,2024-09-05,2024-09-05,株式会社ＧＲＡＮＴ,,株式会社,埼玉県,三郷市,谷中１４番地５６,,11,237,3410032,,,,,,,2024-09-05,1,,,,,グラント,0
1493,6030001162368,新規,0,2024-09-05,2024-09-05,Ｃｈａｒｔ株式会社,,株式会社,埼玉県,川越市,三久保町１５－２（３Ｆ）,,11,201,3500054,,,,,,,2024-09-05,1,,,,,チャート,0
1502,6040001135224,新規,0,2024-09-05,2024-09-05,株式会社ｉプロジェクト,,株式会社,千葉県,流山市,南流山６丁目２１番地４号伸晃ハイツ３－１０３,,12,220,2700163,,,,,,,2024-09-05,1,,,,,アイプロジェクト,0
1503,6040001135257,新規,0,2024-09-05,2024-09-05,株式会社ＲＥＬＩＣＨ,,株式会社,千葉県,柏市,松ケ崎１１７６番地９,,12,217,2770835,,,,,,,2024-09-05,1,,,,,レリック,0
1515,6060003005233,新規,0,2024-09-05,2024-09-05,合同会社クォンタビジョン,,合同会社,栃木県,宇都宮市,宝木本町１１９２番地９メゾンドマトゥＡ２０６,,09,201,3200075,,,,,,,2024-09-05,1,,,,,クォンタビジョン,0
1542,6120001268305,新規,0,2024-09-05,2024-09-05,株式会社Ｒｉｔｔｅｒ,,株式会社,大阪府,大阪市西区,北堀江１丁目２０番１５号長堀佐野ビル４０１号室,,27,106,5500014,,,,,,,2024-09-05,1,,,,,リッター,0
1543,6120001268338,新規,0,2024-09-05,2024-09-05,美和株式会社,,株式会社,大阪府,大阪市西成区,萩之茶屋２丁目８番３号ハイツニューコンパ３０７,,27,122,5570004,,,,,,,2024-09-05,1,,,,,ミワ,0
1544,6120001268387,新規,0,2024-09-05,2024-09-05,株式会社ユースフル,,株式会社,大阪府,大阪市都島区,都島北通１丁目１番４号ビル４階４０１号室,,27,102,5340014,,,,,,,2024-09-05,1,,,,,ユースフル,0
1547,6120003027452,新規,0,2024-09-05,2024-09-05,合同会社Ｒｉｃｈ　Ａｓｓｅｔ,,合同会社,大阪府,大阪市東住吉区,今川１丁目３番２号メゾン・ド・グランドール４０１号,,27,121,5460003,,,,,,,2024-09-05,1,,,,,リッチアセット,0
1551,6130001077853,新規,0,2024-09-05,2024-09-05,ＫＲ株式会社,,株式会社,京都府,京都市中京区,蛸薬師通烏丸東入一蓮社町３００番地パームビル３０５号,,26,104,6048146,,,,,,,2024-09-05,1,,,,,ケーアール,0
1552,6130001077861,新規,0,2024-09-05,2024-09-05,土氣株式会社,,株式会社,京都府,京都市中京区,柳馬場通夷川上る五丁目２２４番地３ー１Ｆ,,26,104,6040973,,,,,,,2024-09-05,1,,,,,ドキ,0
1557,6140001135684,新規,0,2024-09-05,2024-09-05,株式会社リセット,,株式会社,兵庫県,明石市,林崎町２丁目８番４号,,28,203,6730033,,,,,,,2024-09-05,1,,,,,リセット,0
1558,6140001135692,新規,0,2024-09-05,2024-09-05,株式会社ＣＯＭｒａｄｅ,,株式会社,兵庫県,西宮市,甲陽園東山町１２番５－３０２号,,28,204,6620012,,,,,,,2024-09-05,1,,,,,カムラッド,0
1559,6140001135701,新規,0,2024-09-05,2024-09-05,株式会社Ｍ．Ｕ,,株式会社,兵庫県,神戸市中央区,相生町１丁目１番１－３３０４号,,28,110,6500025,,,,,,,2024-09-05,1,,,,,エムユー,0
1560,6140001135718,新規,0,2024-09-05,2024-09-05,栄光リビング株式会社,,株式会社,兵庫県,尼崎市,開明町１丁目５７番地,,28,202,6600862,,,,,,,2024-09-05,1,,,,,エイコウリビング,0
1561,6140001135726,新規,0,2024-09-05,2024-09-05,株式会社ＧＥＮＳＵ,,株式会社,兵庫県,神戸市東灘区,御影塚町１丁目３－３９,,28,101,6580044,,,,,,,2024-09-05,1,,,,,ゲンス,0
1563,6140003021040,新規,0,2024-09-05,2024-09-05,合同会社ＭＫＬ,,合同会社,兵庫県,神戸市中央区,御幸通６丁目１番１５号御幸ビル８階,,28,110,6510087,,,,,,,2024-09-05,1,,,,,エムケーエル,0
1565,6140005027201,新規,0,2024-09-05,2024-09-05,一般社団法人つくる,,その他の設立登記法人,兵庫県,神戸市北区,花山中尾台２丁目９番地の９,,28,109,6511202,,,,,,,2024-09-05,1,,,,,ツクル,0
1569,6160005011335,新規,0,2024-09-05,2024-09-05,一般社団法人ガーディアンおおつ,,その他の設立登記法人,滋賀県,大津市,別保３丁目１番２４号ミキ本社ビル２０２号室,,25,201,5200835,,,,,,,2024-09-05,1,,,,,ガーディアンオオツ,0
1576,6180001163112,新規,0,2024-09-05,2024-09-05,株式会社ブランデュー,,株式会社,愛知県,名古屋市西区,児玉３丁目３７番２４号,,23,104,4510066,,,,,,,2024-09-05,1,,,,,ブランデュー,0
1577,6180001163137,新規,0,2024-09-05,2024-09-05,株式会社山内板金,,株式会社,愛知県,弥富市,前ケ須町東勘助１４１番地４,,23,235,4980017,,,,,,,2024-09-05,1,,,,,ヤマウチバンキン,0
1578,6180001163145,新規,0,2024-09-05,2024-09-05,山幸技建株式会社,,株式会社,愛知県,名古屋市中川区,一色新町３丁目８０６番地,,23,110,4540946,,,,,,,2024-09-05,1,,,,,サンコウギケン,0
1581,6180003027323,新規,0,2024-09-05,2024-09-05,合同会社Ｓ‐ＰＯＷＥＲ,,合同会社,愛知県,一宮市,木曽川町黒田字往還西南ノ切１６１メゾン・ド・クレセール１０１号室,,23,203,4930001,,,,,,,2024-09-05,1,,,,,エスパワー,0
1590,6200001042899,新規,0,2024-09-05,2024-09-05,株式会社Ｇｏａｌ’ｄ,,株式会社,岐阜県,関市,上之保１６０９６‐１,,21,205,5013601,,,,,,,2024-09-05,1,,,,,ゴールド,0
1597,6230001020514,新規,0,2024-09-05,2024-09-05,株式会社Ｔｒｅｅ　ｏｆ　Ｌｉｆｅ,,株式会社,富山県,南砺市,西明１６０番地１,,16,210,9391804,,,,,,,2024-09-05,1,,,,,ツリーオブライフ,0
1604,6240001063768,新規,0,2024-09-05,2024-09-05,株式会社Ｌａｎｄｃｌｅａｎ,,株式会社,広島県,三原市,深町５４４番地３,,34,204,7230001,,,,,,,2024-09-05,1,,,,,ランドクリーン,0
1615,6290001107149,新規,0,2024-09-05,2024-09-05,帆興株式会社,,株式会社,福岡県,福岡市中央区,天神２丁目２番１２号Ｔ＆Ｊビルディング７Ｆ,,40,133,8100001,,,,,,,2024-09-05,1,,,,,ファンシン,0
1617,6290003015795,新規,0,2024-09-05,2024-09-05,合同会社ＡｉｒｔｙＳ,,合同会社,福岡県,久留米市,中央町２番地４８－１１０１号,,40,203,8300023,,,,,,,2024-09-05,1,,,,,エアティス,0
1620,6310001019192,新規,0,2024-09-05,2024-09-05,中村工務店株式会社,,株式会社,長崎県,雲仙市,南串山町丙９７２６番地,,42,213,8540703,,,,,,,2024-09-05,1,,,,,ナカムラコウムテン,0
1621,6310001019201,新規,0,2024-09-05,2024-09-05,株式会社エンタープライズ,,株式会社,長崎県,佐世保市,大野町６０－２２　３Ｆ,,42,202,8570131,,,,,,,2024-09-05,1,,,,,エンタープライズ,0
1623,6330003010544,新規,0,2024-09-05,2024-09-05,合同会社８１９,,合同会社,熊本県,山鹿市,方保田３４７２番地１,,43,208,8610382,,,,,,,2024-09-05,1,,,,,ハチイチキュー,0
1625,6340002028702,新規,0,2024-09-05,2024-09-05,有限会社記念品のニュー光栄,,有限会社,鹿児島県,鹿児島市,東千石町２１番３８号,,46,201,8920842,,,,,,,2024-09-05,1,,,,,キネンヒンノニューコウエイ,0
1627,6360001034162,新規,0,2024-09-05,2024-09-05,國仲商店株式会社,,株式会社,沖縄県,宮古島市,伊良部字国仲５３１番地１,,47,214,9060505,,,,,,,2024-09-05,1,,,,,クニナカショウテン,0
1636,6380001034763,新規,0,2024-09-05,2024-09-05,株式会社ｃｌｅａｒ,,株式会社,福島県,二本松市,戸沢字桃前５６番地,,07,210,9640201,,,,,,,2024-09-05,1,,,,,クリア,0
1641,6420003002986,新規,0,2024-09-05,2024-09-05,エムサービス合同会社,,合同会社,青森県,八戸市,桜ケ丘４丁目２４番７号,,02,203,0310834,,,,,,,2024-09-05,1,,,,,エムサービス,0
1643,6430001092616,新規,0,2024-09-05,2024-09-05,ワンダーストレージナレッジ株式会社,,株式会社,北海道,札幌市白石区,南郷通１丁目北８番１号ディノス札幌白石ビル１階,,01,104,0030023,,,,,,,2024-09-05,1,,,,,ワンダーストレージナレッジ,0
1644,6430003016746,新規,0,2024-09-05,2024-09-05,アールズ企画合同会社,,合同会社,北海道,札幌市豊平区,平岸五条７丁目５番１６号,,01,105,0620935,,,,,,,2024-09-05,1,,,,,アールズキカク,0
1652,6460101007603,新規,0,2024-09-05,2024-09-05,株式会社米永,,株式会社,北海道,中川郡幕別町,忠類元忠類１３番地５,,01,643,0891716,,,,,,,2024-09-05,1,,,,,ヨネナガ,0
1658,6700150127046,新規,0,2024-09-05,2024-09-05,遼寧衆恵商務服務有限公司駐日本事務所,,外国会社等,神奈川県,横浜市中区,北仲通２丁目３０グッドビル北仲通り３階Ｂ,,14,104,2310003,中国遼寧省瀋陽市皇姑区黄河南大路９６－６号啓運商務ビル１１０６,,,,,,2024-09-05,1,,,,,リヨウネイシユウケイシヨウムフクムユウゲンコウシチユウニホンジムシヨ,0
1669,7010403033374,新規,0,2024-09-05,2024-09-05,Ｎｅｍｉ合同会社,,合同会社,東京都,港区,西新橋１丁目１番１号ＥＰコンサルティングサービス内,,13,103,1050003,,,,,,,2024-09-05,1,,,,,ネミ,0
1671,7010501052838,新規,0,2024-09-05,2024-09-05,株式会社セレクトワークス,,株式会社,東京都,台東区,鳥越１丁目２２番４号,,13,106,1110054,,,,,,,2024-09-05,1,,,,,セレクトワークス,0
1678,7010703007334,新規,0,2024-09-05,2024-09-05,ＣＷ　Ｐｏｗｅｒ　Ｅｌｅｃｔｒｏｎｉｃｓ合同会社,,合同会社,東京都,品川区,東品川４丁目１２－８品川シーサイドイーストタワー１５Ｆ,,13,109,1400002,,,,,,,2024-09-05,1,,,,,,0
1680,7010901055928,新規,0,2024-09-05,2024-09-05,株式会社Ｔｒａｉｎ　Ｄｉｆｆｅｒｅｎｔ,,株式会社,東京都,世田谷区,深沢５丁目３６番３号,,13,112,1580081,,,,,,,2024-09-05,1,,,,,トレインディファレント,0
1682,7010905004666,新規,0,2024-09-05,2024-09-05,医療法人社団桜友会,,その他の設立登記法人,東京都,世田谷区,南烏山４丁目１０番２号安田ビル１階２号室,,13,112,1570062,,,,,,,2024-09-05,1,,,,,オウユウカイ,0
1687,7011001164322,新規,0,2024-09-05,2024-09-05,金融世界株式会社,,株式会社,東京都,渋谷区,富ヶ谷１丁目１４番１４号４Ｆ,,13,113,1510063,,,,,,,2024-09-05,1,,,,,キンユウセカイ,0
1688,7011001164446,新規,0,2024-09-05,2024-09-05,株式会社Ｂａｎｔｉｃ,,株式会社,東京都,渋谷区,恵比寿４丁目２０番４号ガーデンプレイスグラススクエアＢ１,,13,113,1500013,,,,,,,2024-09-05,1,,,,,バンティック,0
1689,7011001164479,新規,0,2024-09-05,2024-09-05,株式会社事代コンサルティング,,株式会社,東京都,渋谷区,代々木３丁目５番７号シグマロイヤルハイツＡ２０６,,13,113,1510053,,,,,,,2024-09-05,1,,,,,コトシロコンサルティング,0
1692,7011005010654,新規,0,2024-09-05,2024-09-05,一般社団法人ＣＯＴＯＶＩＡ,,その他の設立登記法人,東京都,渋谷区,広尾１丁目３番１４号ＡＳＡＸ広尾ビル６階,,13,113,1500012,,,,,,,2024-09-05,1,,,,,コトビア,0
1696,7011101108609,新規,0,2024-09-05,2024-09-05,株式会社Ｅｓｔｈｅｒ,,株式会社,東京都,新宿区,百人町１丁目１８番８号大久保カドビルＬｉｎｋＳｐａｃｅ百人町Ｃ０６,,13,104,1690073,,,,,,,2024-09-05,1,,,,,エスター,0
1697,7011103014821,新規,0,2024-09-05,2024-09-05,合同会社バンドボックス,,合同会社,東京都,新宿区,高田馬場２丁目１７番地３号東京三協信用金庫本店ビル６階,,13,104,1690075,,,,,,,2024-09-05,1,,,,,バンドボックス,0
1707,7011601028026,新規,0,2024-09-05,2024-09-05,株式会社ＯＮＥ　ＰＨＡＲＥ,,株式会社,東京都,練馬区,平和台１丁目１５番１５号,,13,120,1790083,,,,,,,2024-09-05,1,,,,,ワンファーレ,0
1709,7011703003959,新規,0,2024-09-05,2024-09-05,合同会社早崎機工,,合同会社,東京都,江戸川区,上篠崎２丁目１番２号,,13,123,1330054,,,,,,,2024-09-05,1,,,,,ハヤサキキコウ,0
1710,7011803006440,新規,0,2024-09-05,2024-09-05,合同会社つらら,,合同会社,東京都,葛飾区,青戸３丁目３１－４磯太郎ビル２Ｆ,,13,122,1250062,,,,,,,2024-09-05,1,,,,,ツララ,0
1712,7012803003502,新規,0,2024-09-05,2024-09-05,合同会社成,,合同会社,東京都,国分寺市,北町２丁目２６番地６アーバンパレス北町１０３,,13,214,1850001,,,,,,,2024-09-05,1,,,,,ナル,0
1717,7013301053064,新規,0,2024-09-05,2024-09-05,Ｇ＆Ｂ　ＪＡＰＡＮ株式会社,,株式会社,東京都,豊島区,千川１丁目１番１３号,,13,116,1710041,,,,,,,2024-09-05,1,,,,,ジーアンドビージャパン,0
1724,7020001158886,新規,0,2024-09-05,2024-09-05,株式会社ヴィエムエス・ジャパン,,株式会社,神奈川県,横浜市西区,高島２丁目１９番１２号横浜スカイビル２０階,,14,103,2200011,,,,,,,2024-09-05,1,,,,,ヴィエムエスジャパン,0
1725,7020001159117,新規,0,2024-09-05,2024-09-05,株式会社ミツツ,,株式会社,神奈川県,横浜市青葉区,市ケ尾町１１６２番地１ファミリーコーポ市ケ尾１００８,,14,117,2250024,,,,,,,2024-09-05,1,,,,,ミツツ,0
1728,7020005016529,新規,0,2024-09-05,2024-09-05,一般社団法人ＧＲＥＥＮ　ＦＩＮＧＥＲＳ,,その他の設立登記法人,神奈川県,横浜市栄区,野七里１丁目２番１２ー１２２２号,,14,115,2470024,,,,,,,2024-09-05,1,,,,,グリーンフィンガーズ,0
1740,7030001162292,新規,0,2024-09-05,2024-09-05,小林ファーム株式会社,,株式会社,埼玉県,鴻巣市,明用３７５番地,,11,217,3690135,,,,,,,2024-09-05,1,,,,,コバヤシファーム,0
1741,7030001162342,新規,0,2024-09-05,2024-09-05,株式会社三和,,株式会社,埼玉県,さいたま市浦和区,高砂２丁目１３番１９号,,11,107,3300063,,,,,,,2024-09-05,1,,,,,サンワ,0
1750,7040001135272,新規,0,2024-09-05,2024-09-05,株式会社Ｕ・ＫＥＮ,,株式会社,千葉県,習志野市,津田沼３丁目１３－５－１３０７,,12,216,2750016,,,,,,,2024-09-05,1,,,,,ユーケン,0
1751,7040001135280,新規,0,2024-09-05,2024-09-05,株式会社ＡＮＤ１,,株式会社,千葉県,浦安市,東野１丁目１４番１０号東野マリーナ（１０２）,,12,227,2790042,,,,,,,2024-09-05,1,,,,,アンドワン,0
1756,7040003025686,新規,0,2024-09-05,2024-09-05,合同会社胤,,合同会社,千葉県,大網白里市,季美の森南１丁目１６番地１０,,12,239,2993241,,,,,,,2024-09-05,1,,,,,ツグミ,0
1760,7060001037459,新規,0,2024-09-05,2024-09-05,株式会社ｍＵｋｕ,,株式会社,栃木県,宇都宮市,宮の内１丁目２８番地３,,09,201,3210131,,,,,,,2024-09-05,1,,,,,ムク,0
1761,7060001037467,新規,0,2024-09-05,2024-09-05,株式会社齋藤塗装,,株式会社,栃木県,那須塩原市,豊浦南町１００番地８６６,,09,213,3250065,,,,,,,2024-09-05,1,,,,,サイトウトソウ,0
1764,7060003005232,新規,0,2024-09-05,2024-09-05,ＡＹＲＡ　ＴＲＡＤＩＮＧ合同会社,,合同会社,栃木県,足利市,鹿島町３１８番地１ツルガイハイツパート３－１０３号室,,09,202,3260844,,,,,,,2024-09-05,1,,,,,アイラトレーディング,0
1768,7070001042144,新規,0,2024-09-05,2024-09-05,株式会社オノフメディック,,株式会社,群馬県,桐生市,広沢町２丁目４１１８番地の２４,,10,203,3760013,,,,,,,2024-09-05,1,,,,,オノフメディック,0
1769,7070005010312,新規,0,2024-09-05,2024-09-05,一般社団法人サンローズホールディングス,,その他の設立登記法人,群馬県,前橋市,粕川町室沢１３７１番地１,,10,201,3710202,,,,,,,2024-09-05,1,,,,,サンローズホールディングス,0
1771,7080001026476,新規,0,2024-09-05,2024-09-05,株式会社ＫＩＮＵ,,株式会社,静岡県,焼津市,栄町６丁目７番１７号,,22,212,4250027,,,,,,,2024-09-05,1,,,,,キヌ,0
1785,7100003007752,新規,0,2024-09-05,2024-09-05,合同会社Ｏｆｆｉｃｅ　ｂｅｙｏｎｄ,,合同会社,長野県,茅野市,塚原１丁目１３番２４号ナチュールガーデン２０３号,,20,214,3910002,,,,,,,2024-09-05,1,,,,,オフィスビヨンド,0
1800,7120001268254,新規,0,2024-09-05,2024-09-05,株式会社谷町エステート,,株式会社,大阪府,大阪市中央区,谷町２丁目３番２号,,27,128,5400012,,,,,,,2024-09-05,1,,,,,タニマチエステート,0
1801,7120001268270,新規,0,2024-09-05,2024-09-05,株式会社アイシーリンクス,,株式会社,大阪府,守口市,金田町１丁目２２－２２,,27,209,5700011,,,,,,,2024-09-05,1,,,,,アイシーリンクス,0
1802,7120001268353,新規,0,2024-09-05,2024-09-05,株式会社ａｃｃｅｐｔ,,株式会社,大阪府,大阪市北区,大淀中２丁目１番１９－１１０３号,,27,127,5310076,,,,,,,2024-09-05,1,,,,,アクセプト,0
1807,7120003027468,新規,0,2024-09-05,2024-09-05,合同会社ＨＦ,,合同会社,大阪府,大阪市北区,梅田１丁目２番２号大阪駅前第２ビル１２－１２,,27,127,5300001,,,,,,,2024-09-05,1,,,,,エイチエフ,0
1810,7120101070254,新規,0,2024-09-05,2024-09-05,株式会社キョーシン,,株式会社,大阪府,堺市西区,鳳中町７丁５番地１２,,27,144,5938327,,,,,,,2024-09-05,1,,,,,キョーシン,0
1817,7120901049720,新規,0,2024-09-05,2024-09-05,伏見設計株式会社,,株式会社,大阪府,吹田市,山田東２丁目１番２号,,27,205,5650821,,,,,,,2024-09-05,1,,,,,フシミセッケイ,0
1820,7122001038414,新規,0,2024-09-05,2024-09-05,株式会社ＥＮＩＳＨＩ機工,,株式会社,大阪府,柏原市,本郷５丁目７番１１－７０８号,,27,221,5820001,,,,,,,2024-09-05,1,,,,,エニシキコウ,0
1822,7130001077852,新規,0,2024-09-05,2024-09-05,株式会社ＫＯＴＯ,,株式会社,京都府,京都市南区,上鳥羽清井町２０６番地,,26,107,6018174,,,,,,,2024-09-05,1,,,,,コト,0
1830,7140001135691,新規,0,2024-09-05,2024-09-05,株式会社バベル,,株式会社,兵庫県,神戸市西区,学園西町１丁目３番地の２、３０３号,,28,111,6512103,,,,,,,2024-09-05,1,,,,,バベル,0
1831,7140001135700,新規,0,2024-09-05,2024-09-05,株式会社マロンヴィレッジ,,株式会社,兵庫県,神戸市北区,藤原台中町７丁目２５番８号,,28,109,6511302,,,,,,,2024-09-05,1,,,,,マロンヴィレッジ,0
1832,7140001135725,新規,0,2024-09-05,2024-09-05,株式会社ＳＡＭＵＲＡＩ　ＰＥＡＲＬ,,株式会社,兵庫県,神戸市灘区,日尾町２丁目１番２号,,28,102,6570029,,,,,,,2024-09-05,1,,,,,サムライパール,0
1835,7140003021031,新規,0,2024-09-05,2024-09-05,合同会社Ｎ,,合同会社,兵庫県,神戸市兵庫区,上沢通７丁目１番２５号ベルズコート上沢１０１,,28,105,6520046,,,,,,,2024-09-05,1,,,,,エヌ,0
1836,7140003021048,新規,0,2024-09-05,2024-09-05,ゆたか合同会社,,合同会社,兵庫県,宝塚市,中筋４丁目１１－２３－１００,,28,214,6650874,,,,,,,2024-09-05,1,,,,,ユタカ,0
1838,7140005027200,新規,0,2024-09-05,2024-09-05,Ｓｗａｌｌｏｗ税理士法人,,その他の設立登記法人,兵庫県,西脇市,西脇１０７３番地の２石塚ビル３階,,28,213,6770015,,,,,,,2024-09-05,1,,,,,スワロウ,0
1845,7180003027314,新規,0,2024-09-05,2024-09-05,合同会社Ｓｏｌｅｉａ,,合同会社,愛知県,北名古屋市,九之坪北浦３１,,23,234,4810041,,,,,,,2024-09-05,1,,,,,ソレイア,0
1846,7180005020754,新規,0,2024-09-05,2024-09-05,一般社団法人ＡＬＬ　ＷＥＬＬ,,その他の設立登記法人,愛知県,愛知郡東郷町,白鳥３丁目１４番地１３,,23,302,4700155,,,,,,,2024-09-05,1,,,,,オールウェル,0
1848,7180303006257,新規,0,2024-09-05,2024-09-05,ヘキカイテック合同会社,,合同会社,愛知県,高浜市,二池町２丁目２番地２０,,23,227,4441322,,,,,,,2024-09-05,1,,,,,ヘキカイテック,0
1850,7190001031614,新規,0,2024-09-05,2024-09-05,マルミアウトワード株式会社,,株式会社,三重県,員弁郡東員町,大字穴太７０５番地,,24,324,5110243,,,,,,,2024-09-05,1,,,,,マルミアウトワード,0
1852,7200003006488,新規,0,2024-09-05,2024-09-05,合同会社常,,合同会社,岐阜県,大垣市,東町２丁目１４０番地５,,21,202,5030802,,,,,,,2024-09-05,1,,,,,ツネ,0
1860,7230003002286,新規,0,2024-09-05,2024-09-05,ＲＩＮＧＳ合同会社,,合同会社,富山県,中新川郡舟橋村,竹内５６番地１５,,16,321,9300289,,,,,,,2024-09-05,1,,,,,リングス,0
1868,7270001009049,新規,0,2024-09-05,2024-09-05,つなぐ株式会社,,株式会社,鳥取県,倉吉市,南昭和町９３番地,,31,203,6820805,,,,,,,2024-09-05,1,,,,,ツナグ,0
1873,7290001106554,新規,0,2024-09-05,2024-09-05,株式会社ＳｔａｒＰｌａｔｉｎｕｍ,,株式会社,福岡県,福岡市博多区,博多駅東３丁目６番３３号,,40,132,8120013,,,,,,,2024-09-05,1,,,,,スタープラチナ,0
1874,7290001107115,新規,0,2024-09-05,2024-09-05,株式会社セーフライド,,株式会社,福岡県,福岡市中央区,大名２丁目６番１１号,,40,133,8100041,,,,,,,2024-09-05,1,,,,,セーフライド,0
1883,7330001032440,新規,0,2024-09-05,2024-09-05,株式会社双翔,,株式会社,熊本県,合志市,野々島２５９２番地,,43,216,8611103,,,,,,,2024-09-05,1,,,,,ソウショウ,0
1893,7360001034145,新規,0,2024-09-05,2024-09-05,株式会社ひこ鉄筋工業,,株式会社,沖縄県,那覇市,首里石嶺町４丁目４４４番地１８,,47,201,9030804,,,,,,,2024-09-05,1,,,,,ヒコテッキンコウギョウ,0
1894,7360001034153,新規,0,2024-09-05,2024-09-05,株式会社ＣｈｒｏＮｏ　Ｔｅｃｈ,,株式会社,沖縄県,中頭郡中城村,字南上原２０９番地２ヴィラ南上原１０１号,,47,328,9012424,,,,,,,2024-09-05,1,,,,,クロノテック,0
1895,7360003014277,新規,0,2024-09-05,2024-09-05,合同会社らばつま,,合同会社,沖縄県,浦添市,字前田４９４,,47,208,9012102,,,,,,,2024-09-05,1,,,,,ラバツマ,0
1904,7380001034762,新規,0,2024-09-05,2024-09-05,株式会社リリリのリース,,株式会社,福島県,南相馬市,原町区雫字権現下７３番地の２,,07,212,9750042,,,,,,,2024-09-05,1,,,,,リリリノリース,0
1910,7420003002985,新規,0,2024-09-05,2024-09-05,合同会社はれのち,,合同会社,青森県,下北郡東通村,大字野牛字釜ノ平２７番地３,,02,424,0350103,,,,,,,2024-09-05,1,,,,,ハレノチ,0
1919,7430001092607,新規,0,2024-09-05,2024-09-05,株式会社トライブ,,株式会社,北海道,小樽市,奥沢４丁目１２番４号,,01,203,0470013,,,,,,,2024-09-05,1,,,,,トライブ,0
1922,7430003016753,新規,0,2024-09-05,2024-09-05,合同会社ＥＭＭＡ,,合同会社,北海道,札幌市北区,篠路一条１０丁目２０番１２号,,01,102,0028021,,,,,,,2024-09-05,1,,,,,エマ,0
1924,7460101007602,新規,0,2024-09-05,2024-09-05,株式会社レンティー,,株式会社,北海道,帯広市,西四条南２４丁目１２番地１,,01,207,0800014,,,,,,,2024-09-05,1,,,,,レンティー,0
1926,7470003002709,新規,0,2024-09-05,2024-09-05,合同会社ｋｅｉ,,合同会社,香川県,観音寺市,大野原町大野原３０８４番地１,,37,205,7691611,,,,,,,2024-09-05,1,,,,,ケイ,0
1935,7700150127045,新規,0,2024-09-05,2024-09-05,ＨＩＤＥＡ　Ｃｏ．，Ｌｔｄ,,外国会社等,,,,,,,,１４，Ｄａｅｗａｎｇｐａｎｇｙｏ－ｒｏ　６４５ｂｅｏｎ－ｇｉｌ，Ｂｕｎｄａｎｇ－ｇｕ，Ｓｅｏｎｇｎａｍ－ｓｉ，Ｇｙｅｏｎｇｇｉ－ｄｏ，Ｒｅｐｕｂｌｉｃ　ｏｆ　Ｋｏｒｅａ,,,,,,2024-09-05,1,,,,,カブシキガイシヤハイデイア,0
1940,8010001248035,新規,0,2024-09-05,2024-09-05,ワイケー機材株式会社,,株式会社,東京都,千代田区,富士見２丁目２番３号ドーム飯田橋２階,,13,101,1020071,,,,,,,2024-09-05,1,,,,,ワイケーキザイ,0
1943,8010005038762,新規,0,2024-09-05,2024-09-05,一般社団法人ＳＴ銀座,,その他の設立登記法人,東京都,千代田区,霞が関３丁目２番５号,,13,101,1000013,,,,,,,2024-09-05,1,,,,,エスティギンザ,0
1951,8010403033308,新規,0,2024-09-05,2024-09-05,ＨＭラボ合同会社,,合同会社,東京都,港区,芝浦４丁目２１番１,,13,103,1080023,,,,,,,2024-09-05,1,,,,,エイチエムラボ,0
1952,8010403033373,新規,0,2024-09-05,2024-09-05,Ａｌｂａｎｏ合同会社,,合同会社,東京都,港区,西新橋１丁目１番１号ＥＰコンサルティングサービス内,,13,103,1050003,,,,,,,2024-09-05,1,,,,,アルバノ,0
1953,8010405023546,新規,0,2024-09-05,2024-09-05,一般社団法人多様なモビリティの安全性向上推進協会,,その他の設立登記法人,東京都,港区,北青山１丁目２番３号青山ビル１２階,,13,103,1070061,,,,,,,2024-09-05,1,,,,,タヨウナモビリティノアンゼンセイコウジョウスイシンキョウカイ,0
1955,8010501052845,新規,0,2024-09-05,2024-09-05,株式会社Ｔｒｉ　ｔｏ,,株式会社,東京都,台東区,下谷２丁目２４番１１号ハイマート入谷１０５,,13,106,1100004,,,,,,,2024-09-05,1,,,,,トライトゥー,0
1956,8010503007566,新規,0,2024-09-05,2024-09-05,合同会社天草探究者,,合同会社,東京都,台東区,東上野５丁目１８－１,,13,106,1100015,,,,,,,2024-09-05,1,,,,,アマクサタンキュウシャ,0
1958,8010601065854,新規,0,2024-09-05,2024-09-05,株式会社高龍,,株式会社,東京都,墨田区,太平２丁目１９番４－３０２号,,13,107,1300012,,,,,,,2024-09-05,1,,,,,コウリュウ,0
1959,8010601065870,新規,0,2024-09-05,2024-09-05,株式会社ＹＳ,,株式会社,東京都,墨田区,緑４丁目４番５－８０８号パークアクシス錦糸町ウエスト,,13,107,1300021,,,,,,,2024-09-05,1,,,,,ワイエス,0
1960,8010603011063,新規,0,2024-09-05,2024-09-05,合同会社戸嶋ＨＲフィールド,,合同会社,東京都,江東区,千田７番１０号第２三英ビル３０６号,,13,108,1350013,,,,,,,2024-09-05,1,,,,,トジマエイチアールフィールド,0
1961,8010605004379,新規,0,2024-09-05,2024-09-05,医療法人社団ホワイトデンタル,,その他の設立登記法人,東京都,墨田区,東向島１丁目２８番１２号向島リリエンハイム１階,,13,107,1310032,,,,,,,2024-09-05,1,,,,,ホワイトデンタル,0
1964,8010901055927,新規,0,2024-09-05,2024-09-05,株式会社ヒノス,,株式会社,東京都,世田谷区,玉川４丁目１２－１６,,13,112,1580094,,,,,,,2024-09-05,1,,,,,ヒノス,0
1970,8011001164214,新規,0,2024-09-05,2024-09-05,株式会社Ｔｅｎｓｏｒ,,株式会社,東京都,渋谷区,渋谷２丁目１９－１５宮益坂ビルディング６０９,,13,113,1500002,,,,,,,2024-09-05,1,,,,,テンソル,0
1973,8011003019944,新規,0,2024-09-05,2024-09-05,合同会社Ｒｅａｄｙ　Ｓｔｏｃｋ,,合同会社,東京都,渋谷区,神宮前６丁目２３番４号桑野ビル２階,,13,113,1500001,,,,,,,2024-09-05,1,,,,,レディーストック,0
1976,8011101108640,新規,0,2024-09-05,2024-09-05,株式会社ｐｉｃｃｏｌｏ,,株式会社,東京都,新宿区,若葉１丁目１６番地１６テラス若葉Ｂ,,13,104,1600011,,,,,,,2024-09-05,1,,,,,ピッコロ,0
1977,8011101108673,新規,0,2024-09-05,2024-09-05,株式会社むらる,,株式会社,東京都,新宿区,西新宿３丁目３番１３号西新宿水間ビル６階,,13,104,1600023,,,,,,,2024-09-05,1,,,,,ムラル,0
1981,8011301029967,新規,0,2024-09-05,2024-09-05,株式会社井出興産,,株式会社,東京都,杉並区,永福２丁目３２番１８号,,13,115,1680064,,,,,,,2024-09-05,1,,,,,イデコウサン,0
1982,8011301029975,新規,0,2024-09-05,2024-09-05,Ｔ建築構想株式会社,,株式会社,東京都,杉並区,高円寺南２丁目１番１５号ＣｕｂｉｋＯｆｆｉｃｅ東高円寺１０４,,13,115,1660003,,,,,,,2024-09-05,1,,,,,ティーケンチクコウソウ,0
1984,8011501031120,新規,0,2024-09-05,2024-09-05,株式会社ちゅらＨＯＭＥ,,株式会社,東京都,北区,滝野川６丁目５６－１３－４１１,,13,117,1140023,,,,,,,2024-09-05,1,,,,,チュラホーム,0
1992,8012401042257,新規,0,2024-09-05,2024-09-05,株式会社ＨＫ,,株式会社,東京都,稲城市,東長沼８４６番地,,13,225,2060802,,,,,,,2024-09-05,1,,,,,エイチケイ,0
1996,8012801023443,新規,0,2024-09-05,2024-09-05,株式会社ｇｏｌｄ　ｓｏｌｕｍ,,株式会社,東京都,国立市,東３丁目１４番地の３９,,13,215,1860002,,,,,,,2024-09-05,1,,,,,ゴールドソルム,0
1998,8013101009505,新規,0,2024-09-05,2024-09-05,株式会社ゼロープ,,株式会社,東京都,西多摩郡瑞穂町,南平２丁目３８番地１２,,13,303,1901224,,,,,,,2024-09-05,1,,,,,ゼロープ,0
2000,8013301053063,新規,0,2024-09-05,2024-09-05,株式会社Ｍｉｓｉｒｌｏｕ,,株式会社,東京都,豊島区,西池袋３丁目２９番３号梅本ビル２階Ｂ,,13,116,1710021,,,,,,,2024-09-05,1,,,,,ミザルー,0
2012,8020001158968,新規,0,2024-09-05,2024-09-05,シトリン株式会社,,株式会社,神奈川県,横浜市磯子区,東町６番１３－１０７号,,14,107,2350005,,,,,,,2024-09-05,1,,,,,シトリン,0
2016,8020005016528,新規,0,2024-09-05,2024-09-05,一般社団法人家族食育支援協会,,その他の設立登記法人,神奈川県,横浜市神奈川区,六角橋３丁目２１番４号１Ｆ,,14,102,2210802,,,,,,,2024-09-05,1,,,,,カゾクショクイクシエンキョウカイ,0
2019,8021001083149,新規,0,2024-09-05,2024-09-05,株式会社ケイ・イー・シイ,,株式会社,神奈川県,茅ヶ崎市,松浪２丁目３番６号,,14,207,2530022,,,,,,,2024-09-05,1,,,,,ケイイーシイ,0
2020,8021001083157,新規,0,2024-09-05,2024-09-05,株式会社Ａｌｏｈａ　Ｅｎｇｌｉｓｈ英会話,,株式会社,神奈川県,茅ヶ崎市,新栄町１番４号,,14,207,2530044,,,,,,,2024-09-05,1,,,,,アロハイングリッシュエイカイワ,0
2021,8021001083165,新規,0,2024-09-05,2024-09-05,株式会社ＭＢＡ,,株式会社,神奈川県,相模原市緑区,下九沢１３３９番地１アールドソレイユ３０３,,14,151,2520134,,,,,,,2024-09-05,1,,,,,エムビーエー,0
2023,8021003014969,新規,0,2024-09-05,2024-09-05,湘南トレーディング合同会社,,合同会社,神奈川県,鎌倉市,腰越３丁目１９番１６号,,14,204,2480033,,,,,,,2024-09-05,1,,,,,ショウナントレーディング,0
2024,8021005013176,新規,0,2024-09-05,2024-09-05,特定非営利活動法人しっぽ村,,その他の設立登記法人,神奈川県,愛甲郡清川村,煤ヶ谷１１０４番地の５０,,14,402,2430112,,,,,,,2024-09-05,1,,,,,シッポムラ,0
2029,8030001162291,新規,0,2024-09-05,2024-09-05,株式会社高田食品,,株式会社,埼玉県,深谷市,岡部１８６６番地１,,11,218,3690211,,,,,,,2024-09-05,1,,,,,タカダショクヒン,0
2037,8040001135271,新規,0,2024-09-05,2024-09-05,株式会社ＧＵＩＴＡＲＴＺ,,株式会社,千葉県,千葉市美浜区,浜田１丁目３番地コロンブスシティ２２２号,,12,106,2610025,,,,,,,2024-09-05,1,,,,,ギターツ,0
2042,8040005022490,新規,0,2024-09-05,2024-09-05,ＮＰＯ法人もぐらの冒険,,その他の設立登記法人,千葉県,市原市,青柳６７６番地,,12,219,2990102,,,,,,,2024-09-05,1,,,,,モグラノボウケン,0
2044,8050001055353,新規,0,2024-09-05,2024-09-05,ファインテック株式会社,,株式会社,茨城県,土浦市,おおつ野６丁目５番３５号,,08,203,3000028,,,,,,,2024-09-05,1,,,,,ファインテック,0
2046,8050003008656,新規,0,2024-09-05,2024-09-05,ＩＮＴＥＲＰ合同会社,,合同会社,茨城県,守谷市,みずき野４丁目１１番地４,,08,224,3020121,,,,,,,2024-09-05,1,,,,,インタープ,0
2047,8060001037458,新規,0,2024-09-05,2024-09-05,株式会社きくちいちご園,,株式会社,栃木県,さくら市,箱森新田７６８番地５,,09,214,3291301,,,,,,,2024-09-05,1,,,,,キクチイチゴエン,0
2048,8060001037466,新規,0,2024-09-05,2024-09-05,株式会社ＩｎｆｉＪａｙｔｉｏｎ,,株式会社,栃木県,鹿沼市,貝島町５０１７番地１７,,09,205,3220027,,,,,,,2024-09-05,1,,,,,インフィジェイション,0
2056,8080401027412,新規,0,2024-09-05,2024-09-05,株式会社エムスリー,,株式会社,静岡県,浜松市中央区,葵西３丁目１７番１７号,,22,138,4338111,,,,,,,2024-09-05,1,,,,,エムスリー,0
2077,8120001268229,新規,0,2024-09-05,2024-09-05,株式会社Ｋ＆Ｙ,,株式会社,大阪府,大阪市生野区,巽中１丁目１９番３０号,00136195,27,116,5440013,,,,,,,2024-09-05,1,,,,,ケーアンドワイ,0
2078,8120001268294,新規,0,2024-09-05,2024-09-05,万伶株式会社,,株式会社,大阪府,大阪市中央区,南船場２丁目１番３号Ｂ１Ｆ,,27,128,5420081,,,,,,,2024-09-05,1,,,,,マンレイ,0
2100,8140001135690,新規,0,2024-09-05,2024-09-05,株式会社大洋レジデンス,,株式会社,兵庫県,明石市,大久保町高丘７丁目７番地の２０,,28,203,6740057,,,,,,,2024-09-05,1,,,,,タイヨウレジデンス,0
2101,8140001135699,新規,0,2024-09-05,2024-09-05,株式会社五国住建,,株式会社,兵庫県,神戸市西区,神出町南３９５－１３,,28,111,6512312,,,,,,,2024-09-05,1,,,,,ゴコクジュウケン,0
2102,8140001135716,新規,0,2024-09-05,2024-09-05,みや株式会社,,株式会社,兵庫県,尼崎市,大庄西町２丁目５番１号,,28,202,6600077,,,,,,,2024-09-05,1,,,,,ミヤ,0
2105,8140003021030,新規,0,2024-09-05,2024-09-05,ＮＴＵ合同会社,,合同会社,兵庫県,神戸市兵庫区,羽坂通４丁目１番１－８２１号,,28,105,6520805,,,,,,,2024-09-05,1,,,,,エヌティーユー,0
2112,8180001163168,新規,0,2024-09-05,2024-09-05,株式会社Ｌｅｉ,,株式会社,愛知県,名古屋市中川区,富永２丁目２６７番地の１,,23,110,4540964,,,,,,,2024-09-05,1,,,,,レイ,0
2117,8190001031596,新規,0,2024-09-05,2024-09-05,株式会社ベータ,,株式会社,三重県,亀山市,みずほ台１４番地８９,,24,210,5190105,,,,,,,2024-09-05,1,,,,,ベータ,0
2118,8190001031605,新規,0,2024-09-05,2024-09-05,株式会社ＲＰＳ,,株式会社,三重県,松阪市,中林町４０４番地２１,,24,204,5152111,,,,,,,2024-09-05,1,,,,,アールピーエス,0
2119,8190001031613,新規,0,2024-09-05,2024-09-05,株式会社おおくぼ商店,,株式会社,三重県,多気郡多気町,五佐奈９３４番地,,24,441,5192157,,,,,,,2024-09-05,1,,,,,オオクボショウテン,0
2130,8210001019903,新規,0,2024-09-05,2024-09-05,株式会社クリーンベースＲ,,株式会社,福井県,福井市,福町第３６号１０３番地２,,18,201,9188027,,,,,,,2024-09-05,1,,,,,クリーンベースアール,0
2132,8230001020520,新規,0,2024-09-05,2024-09-05,株式会社加口組,,株式会社,富山県,砺波市,庄川町庄４８２５番地,,16,208,9320302,,,,,,,2024-09-05,1,,,,,カグチクミ,0
2135,8240001063782,新規,0,2024-09-05,2024-09-05,株式会社Ｇｅｒｂｅｒａ,,株式会社,広島県,東広島市,西条町下三永８５０番地２０,,34,212,7390023,,,,,,,2024-09-05,1,,,,,ガーベラ,0
2147,8290801030861,新規,0,2024-09-05,2024-09-05,株式会社Ｙ’ｓテラ,,株式会社,福岡県,北九州市戸畑区,土取町７番７号,,40,105,8040014,,,,,,,2024-09-05,1,,,,,ワイズテラ,0
2149,8300001013896,新規,0,2024-09-05,2024-09-05,株式会社マキザカンパニー,,株式会社,佐賀県,佐賀市,兵庫南４丁目２１番１２号,,41,201,8490918,,,,,,,2024-09-05,1,,,,,マキザカンパニー,0
2150,8310001019190,新規,0,2024-09-05,2024-09-05,株式会社木村冷機,,株式会社,長崎県,島原市,有明町大三東甲２１５２番地１,,42,203,8591411,,,,,,,2024-09-05,1,,,,,キムラレイキ,0
2154,8320001020701,新規,0,2024-09-05,2024-09-05,おおいた未来まちづくり株式会社,,株式会社,大分県,大分市,府内町２丁目４番８号若竹ビル３１８号,,44,201,8700021,,,,,,,2024-09-05,1,,,,,オオイタミライマチヅクリ,0
2162,8360001034152,新規,0,2024-09-05,2024-09-05,株式会社Ｈａｐｐｙ　ＡＢＣこども英会話スクール,,株式会社,沖縄県,豊見城市,字上田５４５番地１９Ｃ－２,,47,212,9010243,,,,,,,2024-09-05,1,,,,,ハッピーエービーシーコドモエイカイワスクール,0
2170,8400001016781,新規,0,2024-09-05,2024-09-05,ＳＤＧｓ株式会社,,株式会社,岩手県,北上市,柳原町４丁目２－５３,,03,206,0240083,,,,,,,2024-09-05,1,,,,,エスディージーズ,0
2171,8410003003975,新規,0,2024-09-05,2024-09-05,合同会社ＫＡＺＵＫＩ,,合同会社,秋田県,秋田市,将軍野青山町７－３４セジュール青山Ｂ２０２,,05,201,0110932,,,,,,,2024-09-05,1,,,,,カズキ,0
2174,8430001092589,新規,0,2024-09-05,2024-09-05,株式会社ミル・リアン,,株式会社,北海道,札幌市厚別区,大谷地西４丁目５番１９号,,01,108,0040042,,,,,,,2024-09-05,1,,,,,ミルリアン,0
2175,8430001092606,新規,0,2024-09-05,2024-09-05,株式会社エヌディープラン,,株式会社,北海道,札幌市西区,西野七条９丁目１２番１２号,,01,107,0630037,,,,,,,2024-09-05,1,,,,,エヌディープラン,0
2177,8430003016744,新規,0,2024-09-05,2024-09-05,合同会社ＫＵＫＫＵ,,合同会社,北海道,札幌市豊平区,月寒西四条７丁目３番３０号,,01,105,0620024,,,,,,,2024-09-05,1,,,,,クック,0
2178,8430003016760,新規,0,2024-09-05,2024-09-05,合同会社めいらあ堂,,合同会社,北海道,札幌市中央区,南一条西１５丁目１－３１９シャトールレーヴ７０３号室,,01,101,0600061,,,,,,,2024-09-05,1,,,,,メイラアドウ,0
2189,8500003003322,新規,0,2024-09-05,2024-09-05,合同会社ＩＴＦＥＲＩＡ,,合同会社,愛媛県,松山市,祝谷２丁目１０番８号、１階,,38,201,7900833,,,,,,,2024-09-05,1,,,,,アイティーフェリア,0
2207,9010401184861,新規,0,2024-09-05,2024-09-05,株式会社ＭＹ　ＳＴＡＲ,,株式会社,東京都,港区,赤坂６丁目３番１５号,,13,103,1070052,,,,,,,2024-09-05,1,,,,,マイスター,0
2208,9010401184878,新規,0,2024-09-05,2024-09-05,株式会社Ｇｌｏｂａｌ　Ｂａｎｋ,,株式会社,東京都,港区,西新橋３丁目１７番７号１４０５,,13,103,1050003,,,,,,,2024-09-05,1,,,,,グローバルバンク,0
2210,9010403033315,新規,0,2024-09-05,2024-09-05,シェリーンエージェンシー合同会社,,合同会社,東京都,港区,愛宕１丁目１番１－２３０６号,,13,103,1050002,,,,,,,2024-09-05,1,,,,,シェリーンエージェンシー,0
2211,9010405023553,新規,0,2024-09-05,2024-09-05,Ｎｅｍｉ一般社団法人,,その他の設立登記法人,東京都,港区,西新橋１丁目１番１号ＥＰコンサルティングサービス内,,13,103,1050003,,,,,,,2024-09-05,1,,,,,ネミ,0
2213,9010501052737,新規,0,2024-09-05,2024-09-05,株式会社Ａｃｈｏｏ,,株式会社,東京都,台東区,上野桜木１丁目１２―２,,13,106,1100002,,,,,,,2024-09-05,1,,,,,アチュー,0
2214,9010601065845,新規,0,2024-09-05,2024-09-05,株式会社ＰＣＰＳヒタチ,,株式会社,東京都,江東区,亀戸１丁目４３番９号コープ野村中央棟３１９号,,13,108,1360071,,,,,,,2024-09-05,1,,,,,ピーシーピーエスヒタチ,0
2229,9011001164345,新規,0,2024-09-05,2024-09-05,株式会社Ｍａｒｋｅｍｉｓｔ,,株式会社,東京都,渋谷区,松濤２丁目７番１２－４０８号,,13,113,1500046,,,,,,,2024-09-05,1,,,,,マーケミスト,0
2230,9011001164411,新規,0,2024-09-05,2024-09-05,株式会社禮讃,,株式会社,東京都,渋谷区,松濤１丁目４番８号松濤ＥＡＳＴビル１Ｆ,,13,113,1500046,,,,,,,2024-09-05,1,,,,,ライサン,0
2231,9011003019919,新規,0,2024-09-05,2024-09-05,合同会社ＫＹＯ‐ＪＯＹ,,合同会社,東京都,渋谷区,渋谷２丁目１９‐１５宮益坂ビルディング６０９,,13,113,1500002,,,,,,,2024-09-05,1,,,,,キョージョイ,0
2237,9011103014877,新規,0,2024-09-05,2024-09-05,合同会社ｂｅｌｌｗｅｌｌ,,合同会社,東京都,新宿区,大久保１丁目１３番１０号１階,,13,104,1690072,,,,,,,2024-09-05,1,,,,,ベルウェル,0
2238,9011103014893,新規,0,2024-09-05,2024-09-05,合同会社リラクゼン,,合同会社,東京都,新宿区,四谷坂町１１番１－５０２号,,13,104,1600002,,,,,,,2024-09-05,1,,,,,リラクゼン,0
2241,9011301029966,新規,0,2024-09-05,2024-09-05,株式会社Ｋｉｍｔｅｃｈ,,株式会社,東京都,杉並区,阿佐谷南１丁目３番１２－２０７号,,13,115,1660004,,,,,,,2024-09-05,1,,,,,キムテック,0
2242,9011301029974,新規,0,2024-09-05,2024-09-05,株式会社Ｆａｍｉｌｌｅ,,株式会社,東京都,杉並区,松ノ木３丁目２８番８号グランデュオ高円寺ＩＩ１０１,00136192,13,115,1660014,,,,,,,2024-09-05,1,,,,,ファミール,0
2244,9011403004495,新規,0,2024-09-05,2024-09-05,モノクロベアー合同会社,,合同会社,東京都,板橋区,若木２丁目９番１４号,,13,119,1740065,,,,,,,2024-09-05,1,,,,,モノクロベアー,0
2255,9012401042248,新規,0,2024-09-05,2024-09-05,株式会社もん,,株式会社,東京都,府中市,宮西町５丁目１番地の２レ・フレール３０３,,13,206,1830022,,,,,,,2024-09-05,1,,,,,モン,0
2265,9020001158950,新規,0,2024-09-05,2024-09-05,トンボガス株式会社,,株式会社,神奈川県,横浜市神奈川区,鶴屋町１丁目４１番地２４１６号,,14,102,2210835,,,,,,,2024-09-05,1,,,,,トンボガス,0
2266,9020001159040,新規,0,2024-09-05,2024-09-05,ダブルグッド株式会社,,株式会社,神奈川県,横浜市戸塚区,名瀬町７０番地１ブリリアアーブリオ戸塚２１９号,,14,110,2450051,,,,,,,2024-09-05,1,,,,,ダブルグッド,0
2275,9021001083156,新規,0,2024-09-05,2024-09-05,株式会社弘真堂,,株式会社,神奈川県,相模原市中央区,淵野辺３丁目８番２号,,14,152,2520206,,,,,,,2024-09-05,1,,,,,コウシンドウ,0
2276,9021001083164,新規,0,2024-09-05,2024-09-05,株式会社Ａｆｙａ　ｉｎｖｅｓｔｍｅｎｔ,,株式会社,神奈川県,鎌倉市,腰越７９７番地１６,,14,204,2480033,,,,,,,2024-09-05,1,,,,,アフャインベストメント,0
2283,9021003014976,新規,0,2024-09-05,2024-09-05,合同会社フューチャークローバー,,合同会社,神奈川県,横須賀市,小矢部１丁目４１－３,,14,201,2380026,,,,,,,2024-09-05,1,,,,,フューチャークローバー,0
2290,9030001162290,新規,0,2024-09-05,2024-09-05,浦和栄喜株式会社,,株式会社,埼玉県,さいたま市南区,大字太田窪２０５０番地１（４０１）,,11,108,3360015,,,,,,,2024-09-05,1,,,,,ウラワエイキ,0
2291,9030001162324,新規,0,2024-09-05,2024-09-05,株式会社ＨＯＰ,,株式会社,埼玉県,三郷市,幸房１４４番地４,,11,237,3410026,,,,,,,2024-09-05,1,,,,,ホップ,0
2292,9030001162332,新規,0,2024-09-05,2024-09-05,株式会社ていてい亭,,株式会社,埼玉県,朝霞市,本町２丁目３番３３号シンフォニー第二９０２号室,,11,227,3510011,,,,,,,2024-09-05,1,,,,,テイテイテイ,0
2297,9040001135262,新規,0,2024-09-05,2024-09-05,地域活性ＡＩテクノロジーズ株式会社,,株式会社,千葉県,船橋市,西船４丁目１９番３号,,12,204,2730031,,,,,,,2024-09-05,1,,,,,チイキカッセイエーアイテクノロジーズ,0
2298,9040001135279,新規,0,2024-09-05,2024-09-05,友和スチール株式会社,,株式会社,千葉県,船橋市,田喜野井２丁目３３番２４号,,12,204,2740073,,,,,,,2024-09-05,1,,,,,ユウワスチール,0
2312,9060001037465,新規,0,2024-09-05,2024-09-05,株式会社ＳＯＷ,,株式会社,栃木県,宇都宮市,宮の内１丁目１７１番地３３,,09,201,3210131,,,,,,,2024-09-05,1,,,,,ソウ,0
2315,9060003005230,新規,0,2024-09-05,2024-09-05,合同会社ゴーマＣＳ,,合同会社,栃木県,宇都宮市,中里町３０１５番地１７,,09,201,3210414,,,,,,,2024-09-05,1,,,,,ゴーマシーエス,0
2318,9070001042134,新規,0,2024-09-05,2024-09-05,飯島恒産株式会社,,株式会社,群馬県,藤岡市,矢場６８１番地,,10,209,3750031,,,,,,,2024-09-05,1,,,,,イイジマコウサン,0
2319,9070001042142,新規,0,2024-09-05,2024-09-05,株式会社高昇工業,,株式会社,群馬県,伊勢崎市,曲沢町６７１－５１,,10,204,3792203,,,,,,,2024-09-05,1,,,,,タカショウコウギョウ,0
2323,9080001026482,新規,0,2024-09-05,2024-09-05,株式会社バクショウ,,株式会社,静岡県,静岡市葵区,常磐町１丁目５番地の４,,22,101,4200034,,,,,,,2024-09-05,1,,,,,バクショウ,0
2325,9080101024989,新規,0,2024-09-05,2024-09-05,株式会社金指,,株式会社,静岡県,賀茂郡河津町,湯ケ野１０３番地,,22,302,4130507,,,,,,,2024-09-05,1,,,,,カナザシ,0
2337,9110005017128,新規,0,2024-09-05,2024-09-05,特定非営利活動法人加治川コミュニティ,,その他の設立登記法人,新潟県,新発田市,住田５１０番地,,15,206,9592415,,,,,,,2024-09-05,1,,,,,カジカワコミュニティ,0
2351,9120001268319,新規,0,2024-09-05,2024-09-05,ＳＯＮＧ　ＨＯＮＧ商事株式会社,,株式会社,大阪府,大阪市鶴見区,放出東１丁目２９番２３号,,27,124,5380044,,,,,,,2024-09-05,1,,,,,ソングホングショウジ,0
2352,9120001268335,新規,0,2024-09-05,2024-09-05,株式会社ＡｉＰＨＡ,,株式会社,大阪府,大阪市北区,梅田１丁目１－３大阪駅前第３ビル２９階１－１－１号室,,27,127,5300001,,,,,,,2024-09-05,1,,,,,アイファ,0
2353,9120001268351,新規,0,2024-09-05,2024-09-05,玄兎商事株式会社,,株式会社,大阪府,大阪市淀川区,木川東１丁目６番５号,,27,123,5320012,,,,,,,2024-09-05,1,,,,,ゲントショウジ,0
2357,9120101070236,新規,0,2024-09-05,2024-09-05,株式会社華麟アドバンス,,株式会社,大阪府,泉大津市,東豊中町３丁目１番１５号ＵＯＫＥＮビル１階,,27,206,5950021,,,,,,,2024-09-05,1,,,,,カリンアドバンス,0
2362,9130001077859,新規,0,2024-09-05,2024-09-05,株式会社ｆｉｘａｌｌ,,株式会社,京都府,亀岡市,篠町広田２丁目３６番１１号,,26,206,6210834,,,,,,,2024-09-05,1,,,,,フィクサール,0
2363,9130003009835,新規,0,2024-09-05,2024-09-05,合同会社パワーネクト京都,,合同会社,京都府,福知山市,字堀２５９３番地サンライズビル２階,,26,201,6200000,,,,,,,2024-09-05,1,,,,,パワーネクトキョウト,0
2374,9140001135632,新規,0,2024-09-05,2024-09-05,株式会社ＨＩＲＯｅｓ,,株式会社,兵庫県,西宮市,東山台３丁目３５番地４,,28,204,6691133,,,,,,,2024-09-05,1,,,,,ヒーローズ,0
2375,9140001135698,新規,0,2024-09-05,2024-09-05,株式会社オーバルワン,,株式会社,兵庫県,神戸市中央区,生田町２丁目２番１７－１０７号,,28,110,6510092,,,,,,,2024-09-05,1,,,,,オーバルワン,0
2376,9140001135707,新規,0,2024-09-05,2024-09-05,株式会社翔賀運輸,,株式会社,兵庫県,神戸市北区,山田町下谷上字砂川１５番地サンリットアルファ２０３,,28,109,6511243,,,,,,,2024-09-05,1,,,,,ショウガウンユ,0
2377,9140001135715,新規,0,2024-09-05,2024-09-05,株式会社レガロプラス,,株式会社,兵庫県,姫路市,広畑区西夢前台６丁目２番地２階,,28,201,6711103,,,,,,,2024-09-05,1,,,,,レガロプラス,0
2382,9170003002101,新規,0,2024-09-05,2024-09-05,合同会社ＴＲＹＶＥＬＬ,,合同会社,和歌山県,和歌山市,森小手穂３１０番地,,30,201,6408312,,,,,,,2024-09-05,1,,,,,トライベル,0
2384,9180001163150,新規,0,2024-09-05,2024-09-05,株式会社ＡＫコーポレーション,,株式会社,愛知県,名古屋市港区,名港１丁目８番９号,,23,111,4550037,,,,,,,2024-09-05,1,,,,,エーケーコーポレーション,0
2385,9180001163167,新規,0,2024-09-05,2024-09-05,株式会社ＫＰＬＩＮＫ,,株式会社,愛知県,名古屋市名東区,扇町２丁目１番地の２ヴィアーレ星ヶ丘の森６０３号,,23,115,4650076,,,,,,,2024-09-05,1,,,,,ケーピーリンク,0
2391,9180003027320,新規,0,2024-09-05,2024-09-05,合同会社ＩＴＯ‐ＯＦＦＩＣＥ,,合同会社,愛知県,名古屋市千種区,千種１丁目１４番３７号グリーンハイツ千種５０１号,,23,101,4640858,,,,,,,2024-09-05,1,,,,,イトウオフィス,0
2392,9180005020752,新規,0,2024-09-05,2024-09-05,一般社団法人ｄｅｎａ,,その他の設立登記法人,愛知県,名古屋市港区,入場１丁目３００４番地グランドヒルズ入場１番館,,23,111,4550803,,,,,,,2024-09-05,1,,,,,ディナ,0
2394,9180301039026,新規,0,2024-09-05,2024-09-05,株式会社ＳＫＹＳＨＩＦＴ,,株式会社,愛知県,豊橋市,浜道町字管石２０番地２,,23,201,4418117,,,,,,,2024-09-05,1,,,,,スカイシフト,0
2408,9230001020511,新規,0,2024-09-05,2024-09-05,株式会社向井組,,株式会社,富山県,高岡市,太田２６９０番地１,,16,202,9330133,,,,,,,2024-09-05,1,,,,,ムカイグミ,0
2415,9250001020798,新規,0,2024-09-05,2024-09-05,株式会社ＨＭネット,,株式会社,山口県,長門市,東深川８４５番地アバンス２号館８０１号,,35,211,7594101,,,,,,,2024-09-05,1,,,,,,0
2429,9290001107195,新規,0,2024-09-05,2024-09-05,株式会社ハレサポ,,株式会社,福岡県,福岡市博多区,博多駅東１丁目１番３３号博多近代ビル９－０号室,,40,132,8120013,,,,,,,2024-09-05,1,,,,,ハレサポ,0
2434,9290801030860,新規,0,2024-09-05,2024-09-05,ｆｏｒ　Ｆ株式会社,,株式会社,福岡県,北九州市八幡東区,中尾２丁目１６番１９号,,40,108,8050025,,,,,,,2024-09-05,1,,,,,フォーエフ,0
2437,9330001032439,新規,0,2024-09-05,2024-09-05,株式会社おかととき,,株式会社,熊本県,熊本市北区,鶴羽田２丁目１３番３７号,,43,105,8615517,,,,,,,2024-09-05,1,,,,,オカトトキ,0
2443,9370001051690,新規,0,2024-09-05,2024-09-05,株式会社オハナ,,株式会社,宮城県,亘理郡山元町,高瀬字北沼７０番地,00136204,04,362,9892202,,,,,,,2024-09-05,1,,,,,オハナ,0
2456,9430001092596,新規,0,2024-09-05,2024-09-05,シクサー株式会社,,株式会社,北海道,砂川市,空知太西四条６丁目１番１８号,,01,226,0730174,,,,,,,2024-09-05,1,,,,,シクサー,0
2457,9430001092605,新規,0,2024-09-05,2024-09-05,株式会社サインアートシンドー,,株式会社,北海道,苫小牧市,新明町５丁目２５番２号,,01,213,0530055,,,,,,,2024-09-05,1,,,,,サインアートシンドー,0
2458,9430001092613,新規,0,2024-09-05,2024-09-05,株式会社ＳＥＬＬＶＩＳ,,株式会社,北海道,恵庭市,和光町１丁目６番６－４０１号,,01,231,0611406,,,,,,,2024-09-05,1,,,,,セルヴィス,0
2459,9430001092621,新規,0,2024-09-05,2024-09-05,株式会社Ｈｇ　ａｓｓｅｔ,,株式会社,北海道,札幌市北区,北二十条西４丁目２番３７号,,01,102,0010020,,,,,,,2024-09-05,1,,,,,エイチジーアセット,0
