sequenceNumber,corporateNumber,process,correct,updateDate,changeDate,name,nameImageId,kind,prefectureName,cityName,streetNumber,addressImageId,prefectureCode,cityCode,postCode,addressOutside,addressOutsideImageId,closeDate,closeCause,successorCorporateNumber,changeCause,assignmentDate,latest,enName,enPrefectureName,enCityName,enAddressOutside,furigana,hihyoji
5,1010001253751,新規,0,2025-04-08,2025-04-08,株式会社バーダーエンジニアリング,,株式会社,東京都,中央区,銀座８丁目１５番１０－４１５号,,13,102,1040061,,,,,,,2025-04-08,1,,,,,バーダーエンジニアリング,0
6,1010001253768,新規,0,2025-04-08,2025-04-08,株式会社ザネオンピクセル,,株式会社,東京都,文京区,春日２丁目１９－１２小石川ウォールズ３０３号室,,13,105,1120003,,,,,,,2025-04-08,1,,,,,ザネオンピクセル,0
7,1010001253900,新規,0,2025-04-08,2025-04-08,Ｍｕｓｏ　Ａｃｔｉｏｎ株式会社,,株式会社,東京都,千代田区,神田美土代町７－３石川ビル６階,,13,101,1010053,,,,,,,2025-04-08,1,,,,,ムソウアクション,0
8,1010001253958,新規,0,2025-04-08,2025-04-08,株式会社ＫＨＣ　Ｊａｐａｎ,,株式会社,東京都,千代田区,麹町２丁目２番２２号９階,,13,101,1020083,,,,,,,2025-04-08,1,,,,,ケーエイチシージャパン,0
9,1010001253999,新規,0,2025-04-08,2025-04-08,私たちが次世代へ日本の文化を紡いでいきたいという思いから作った株式会社,,株式会社,東京都,千代田区,神田小川町３丁目２８番地５ａｘｌｅ御茶ノ水Ｃ１９,,13,101,1010052,,,,,,,2025-04-08,1,,,,,ワタシタチガジセダイヘニホンノブンカヲツムイデイキタイトイウオモイカラツクッタ,0
10,1010003046939,新規,0,2025-04-08,2025-04-08,Ｓｐａｃｅ　Ａ‐Ｐｌｕｓ合同会社,,合同会社,東京都,文京区,目白台２丁目１０番１２号,,13,105,1120015,,,,,,,2025-04-08,1,,,,,スペースエープラス,0
11,1010003046971,新規,0,2025-04-08,2025-04-08,Ｓｏｕｌｚｏ　Ｊａｐａｎ合同会社,,合同会社,東京都,中央区,銀座１丁目２２番１１号銀座大竹ビジデンス２Ｆ,,13,102,1040061,,,,,,,2025-04-08,1,,,,,ソウゾウジャパン,0
12,1010003047004,新規,0,2025-04-08,2025-04-08,合同会社ＡＲＩＡ総合リサーチ,,合同会社,東京都,千代田区,富士見１丁目３－１１富士見デュープレックスＢ‘ｓ４Ｆ,,13,101,1020071,,,,,,,2025-04-08,1,,,,,アリアソウゴウリサーチ,0
13,1010003047012,新規,0,2025-04-08,2025-04-08,麹町リース１３合同会社,,合同会社,東京都,千代田区,麹町１丁目４番地半蔵門ファーストビル５階株式会社ファンドクリエーション内,,13,101,1020083,,,,,,,2025-04-08,1,,,,,コウジマチリースジュウサン,0
14,1010103002552,新規,0,2025-04-08,2025-04-08,合同会社ＳＩＮ,,合同会社,東京都,八王子市,戸吹町５７８－４,,13,201,1920001,,,,,,,2025-04-08,1,,,,,エスアイエヌ,0
18,1010401189307,新規,0,2025-04-08,2025-04-08,株式会社Ｔａｓｋｙ,,株式会社,東京都,港区,南青山２丁目２番１５号ウィン青山９４２,,13,103,1070062,,,,,,,2025-04-08,1,,,,,タスキー,0
19,1010401189364,新規,0,2025-04-08,2025-04-08,Ｃｌａｒｉｔｙ　Ｃｏｎｓｕｌｔｉｎｇ株式会社,,株式会社,東京都,港区,虎ノ門４丁目３番１号城山トラストタワー２７階,,13,103,1050001,,,,,,,2025-04-08,1,,,,,クラリティコンサルティング,0
20,1010403034799,新規,0,2025-04-08,2025-04-08,合同会社ＨｉＪｏＪｏ　Ｆｕｎｄ４６,,合同会社,東京都,港区,西新橋１丁目７番２号,,13,103,1050003,,,,,,,2025-04-08,1,,,,,ヒジョージョーファンドヨンジュウロク,0
21,1010403034816,新規,0,2025-04-08,2025-04-08,のぞみ大郷ソーラー合同会社,,合同会社,東京都,港区,芝５丁目２９番１９号ＰＭＯ田町ＩＶ８階,00138642,13,103,1080014,,,,,,,2025-04-08,1,,,,,ノゾミオオサトソーラー,0
22,1010405024294,新規,0,2025-04-08,2025-04-08,一般社団法人のぞみ大郷ソーラー,,その他の設立登記法人,東京都,港区,芝５丁目２９番１９号ＰＭＯ田町ＩＶ８階,00138641,13,103,1080014,,,,,,,2025-04-08,1,,,,,ノゾミオオサトソーラー,0
30,1010601067072,新規,0,2025-04-08,2025-04-08,株式会社ヒノトライフ,,株式会社,東京都,江東区,東雲１丁目９番１４－１０１３号,,13,108,1350062,,,,,,,2025-04-08,1,,,,,ヒノトライフ,0
31,1010605004435,新規,0,2025-04-08,2025-04-08,一般社団法人相撲振興普及会,,その他の設立登記法人,東京都,江東区,石島４番１号,,13,108,1350014,,,,,,,2025-04-08,1,,,,,スモウシンコウフキュウカイ,0
33,1010701047503,新規,0,2025-04-08,2025-04-08,４Ｄｉｖｉｎｉｔｙ　Ｊａｐａｎ株式会社,,株式会社,東京都,品川区,上大崎１丁目１２番６号,,13,109,1410021,,,,,,,2025-04-08,1,,,,,フォーディビニティージャパン,0
39,1010901057153,新規,0,2025-04-08,2025-04-08,株式会社リバレッジ’２５,,株式会社,東京都,世田谷区,下馬６丁目３２番４号,,13,112,1540002,,,,,,,2025-04-08,1,,,,,リバレッジニジュウゴ,0
46,1011005010965,新規,0,2025-04-08,2025-04-08,Ｂｅｂｒａｃｅ税理士法人,,その他の設立登記法人,東京都,渋谷区,渋谷１丁目３番９号,,13,113,1500002,,,,,,,2025-04-08,1,,,,,ビブレイス,0
49,1011101111205,新規,0,2025-04-08,2025-04-08,株式会社プロフィット,,株式会社,東京都,新宿区,西新宿３丁目３番１３号西新宿水間ビル６階,,13,104,1600023,,,,,,,2025-04-08,1,,,,,プロフィット,0
52,1011303005485,新規,0,2025-04-08,2025-04-08,合同会社ＣＯＮ‐ＮＡＮＯ,,合同会社,東京都,杉並区,梅里１丁目１９番１２号,,13,115,1660011,,,,,,,2025-04-08,1,,,,,コンナノ,0
53,1011303005493,新規,0,2025-04-08,2025-04-08,合同会社ＨＲＭアドバイザリー,,合同会社,東京都,杉並区,清水３丁目１１番２号,,13,115,1670033,,,,,,,2025-04-08,1,,,,,エイチアールエムアドバイザリー,0
54,1011401026978,新規,0,2025-04-08,2025-04-08,株式会社Ｋａｌｏｎ,,株式会社,東京都,板橋区,仲宿５８番１４号,,13,119,1730005,,,,,,,2025-04-08,1,,,,,カロン,0
55,1011401026986,新規,0,2025-04-08,2025-04-08,株式会社Ｆｌｙ　Ｈｉｇｈ,,株式会社,東京都,板橋区,南常盤台１丁目２２－９－４０５号,,13,119,1740072,,,,,,,2025-04-08,1,,,,,フライハイ,0
57,1011505002685,新規,0,2025-04-08,2025-04-08,一般社団法人日本薬業支援家協会,,その他の設立登記法人,東京都,北区,赤羽西１丁目２３－１コープ赤羽３０１,,13,117,1150055,,,,,,,2025-04-08,1,,,,,ニホンヤクガクシエンカキョウカイ,0
61,1011601028551,新規,0,2025-04-08,2025-04-08,株式会社メンテナンスファクトリー練馬,,株式会社,東京都,練馬区,豊玉中４丁目１３番９号,,13,120,1760013,,,,,,,2025-04-08,1,,,,,メンテナンスファクトリーネリマ,0
62,1011605002643,新規,0,2025-04-08,2025-04-08,行政書士法人進藤事務所,,その他の設立登記法人,東京都,練馬区,石神井町３丁目１６番１６号カーサ・ド・ヴァン１６－３０２号,,13,120,1770041,,,,,,,2025-04-08,1,,,,,シンドウジムショ,0
66,1011703004186,新規,0,2025-04-08,2025-04-08,合同会社メディはまなす,,合同会社,東京都,江戸川区,船堀３丁目７番１１号矢島ビル６０３,,13,123,1340091,,,,,,,2025-04-08,1,,,,,メディハマナス,0
69,1011801045891,新規,0,2025-04-08,2025-04-08,株式会社インフィニティ建設,,株式会社,東京都,足立区,江北３丁目３番１１号,,13,121,1230872,,,,,,,2025-04-08,1,,,,,インフィニティケンセツ,0
70,1011801045900,新規,0,2025-04-08,2025-04-08,株式会社たから興業,,株式会社,東京都,葛飾区,立石２丁目４番１４－１０３号,,13,122,1240012,,,,,,,2025-04-08,1,,,,,タカラコウギョウ,0
71,1011801045917,新規,0,2025-04-08,2025-04-08,株式会社藤田工業,,株式会社,東京都,足立区,花畑６丁目３８番１５号,,13,121,1210061,,,,,,,2025-04-08,1,,,,,フジタコウギョウ,0
73,1012701018789,新規,0,2025-04-08,2025-04-08,株式会社枠武,,株式会社,東京都,東村山市,美住町１丁目４番地１８Ｋ－６１７,,13,213,1890023,,,,,,,2025-04-08,1,,,,,ワクタケ,0
76,1013303007602,新規,0,2025-04-08,2025-04-08,ＩＭグループＩＰＯ・Ｍ＆Ａコンサルタント合同会社,,合同会社,東京都,豊島区,東池袋３丁目１番１号,,13,116,1700013,,,,,,,2025-04-08,1,,,,,アイエムグループアイピーオーエムアンドエーコンサルタント,0
77,1013303007610,新規,0,2025-04-08,2025-04-08,Ｒｅｍａｒｋ　Ａｕｔｏ　Ｌａｎｋａ合同会社,,合同会社,東京都,豊島区,南池袋１丁目９番１８号３４４号室,,13,116,1710022,,,,,,,2025-04-08,1,,,,,リマークオートランカ,0
78,1013303007627,新規,0,2025-04-08,2025-04-08,合同会社ラク育,,合同会社,東京都,豊島区,巣鴨１丁目７－６東邦アネックス２階,,13,116,1700002,,,,,,,2025-04-08,1,,,,,ラクイク,0
86,1020001162084,新規,0,2025-04-08,2025-04-08,株式会社ファインリテック,,株式会社,神奈川県,川崎市宮前区,土橋３丁目２６番地３,,14,136,2160005,,,,,,,2025-04-08,1,,,,,ファインリテック,0
87,1020001162092,新規,0,2025-04-08,2025-04-08,ＲＯＹＦＡ株式会社,,株式会社,神奈川県,横浜市青葉区,市ケ尾町４７５番地３,,14,117,2250024,,,,,,,2025-04-08,1,,,,,ロイファー,0
88,1020001162175,新規,0,2025-04-08,2025-04-08,横浜コミュニケーションデザイン株式会社,,株式会社,神奈川県,横浜市南区,三春台９９番地１５,,14,105,2320002,,,,,,,2025-04-08,1,,,,,ヨコハマコミュニケーションデザイン,0
89,1020001162183,新規,0,2025-04-08,2025-04-08,アサヒ住宅設備株式会社,,株式会社,神奈川県,横浜市中区,曙町３丁目４２番地ストークパレス横浜２０１,00138619,14,104,2310057,,,,,,,2025-04-08,1,,,,,アサヒジュウタクセツビ,0
90,1020001162217,新規,0,2025-04-08,2025-04-08,株式会社エムズコア,,株式会社,神奈川県,横浜市中区,若葉町２丁目３７－２浜銀パークビル４０１,,14,104,2310056,,,,,,,2025-04-08,1,,,,,エムズコア,0
91,1020001162299,新規,0,2025-04-08,2025-04-08,株式会社易航工業,,株式会社,神奈川県,川崎市宮前区,鷺沼４丁目２番地３大竹コーポＥ,,14,136,2160004,,,,,,,2025-04-08,1,,,,,イーハンコウギョウ,0
94,1020003028218,新規,0,2025-04-08,2025-04-08,田山貿易合同会社,,合同会社,神奈川県,横浜市旭区,川井本町８０番地１７,,14,112,2410803,,,,,,,2025-04-08,1,,,,,タヤマボウエキ,0
98,1021001084855,新規,0,2025-04-08,2025-04-08,株式会社ハコニワ,,株式会社,神奈川県,相模原市南区,古淵４丁目４１番３号,,14,153,2520344,,,,,,,2025-04-08,1,,,,,ハコニワ,0
99,1021001084863,新規,0,2025-04-08,2025-04-08,株式会社ハコウマ,,株式会社,神奈川県,茅ヶ崎市,堤８４５番地６,,14,207,2530006,,,,,,,2025-04-08,1,,,,,ハコウマ,0
104,1030001165838,新規,0,2025-04-08,2025-04-08,モーモペイント株式会社,,株式会社,埼玉県,坂戸市,大字浅羽１３５０番地３,,11,239,3500238,,,,,,,2025-04-08,1,,,,,モーモペイント,0
105,1030001165854,新規,0,2025-04-08,2025-04-08,株式会社ルーツ,,株式会社,埼玉県,北本市,高尾５丁目７６番地,,11,233,3640034,,,,,,,2025-04-08,1,,,,,ルーツ,0
114,1030003026501,新規,0,2025-04-08,2025-04-08,合同会社ＷＡＲＡＷＯＯ,,合同会社,埼玉県,三郷市,彦成１丁目２２５番地３,,11,237,3410003,,,,,,,2025-04-08,1,,,,,,0
115,1030003026518,新規,0,2025-04-08,2025-04-08,合同会社Ｄｅｖｉａｎｔ,,合同会社,埼玉県,入間市,大字上藤沢３９０番地４クレール５１１,,11,225,3580013,,,,,,,2025-04-08,1,,,,,ディビアント,0
116,1030005022119,新規,0,2025-04-08,2025-04-08,一般社団法人はんとく会,,その他の設立登記法人,埼玉県,秩父市,大宮５６４０番地２,,11,207,3680023,,,,,,,2025-04-08,1,,,,,ハントクカイ,0
123,1040001138099,新規,0,2025-04-08,2025-04-08,株式会社ＴＳ社,,株式会社,千葉県,市川市,高石神３１番１７号,,12,203,2720814,,,,,,,2025-04-08,1,,,,,ティーエスシャ,0
124,1040001138157,新規,0,2025-04-08,2025-04-08,株式会社ＫＧＳ,,株式会社,千葉県,柏市,東上町２番２８号第一水戸屋ビル３階,,12,217,2770011,,,,,,,2025-04-08,1,,,,,ケージーエス,0
125,1040001138173,新規,0,2025-04-08,2025-04-08,株式会社ＡＲＥＩＺ,,株式会社,千葉県,柏市,藤ケ谷１０１５番地,,12,217,2770931,,,,,,,2025-04-08,1,,,,,アレイズ,0
126,1040001138181,新規,0,2025-04-08,2025-04-08,株式会社Ｌｉｂｅｒａｌ,,株式会社,千葉県,千葉市中央区,松波２丁目３番１１号細川ビル１階,,12,101,2600044,,,,,,,2025-04-08,1,,,,,リベラル,0
127,1040001138207,新規,0,2025-04-08,2025-04-08,株式会社Ｋ‐ｔｅｃ‐ｓｙｓｔｅｍ,,株式会社,千葉県,松戸市,栄町西４丁目１２２３番地の２,,12,207,2710061,,,,,,,2025-04-08,1,,,,,ケーテックシステム,0
128,1040001138215,新規,0,2025-04-08,2025-04-08,みやび開発株式会社,,株式会社,千葉県,安房郡鋸南町,下佐久間３６１９番地の３,,12,463,2992115,,,,,,,2025-04-08,1,,,,,ミヤビカイハツ,0
129,1040001138223,新規,0,2025-04-08,2025-04-08,ＫＯＡ株式会社,,株式会社,千葉県,習志野市,津田沼５丁目１０－５－１０２,,12,216,2750016,,,,,,,2025-04-08,1,,,,,コア,0
130,1040001138248,新規,0,2025-04-08,2025-04-08,株式会社ｆａｂｅｒ,,株式会社,千葉県,船橋市,二和西４丁目１８番２５号,,12,204,2740806,,,,,,,2025-04-08,1,,,,,ファベル,0
131,1040001138256,新規,0,2025-04-08,2025-04-08,株式会社Ｆｉｃｕｓ,,株式会社,千葉県,我孫子市,湖北台１丁目１１番１９号,,12,222,2701132,,,,,,,2025-04-08,1,,,,,フィカス,0
133,1040003027275,新規,0,2025-04-08,2025-04-08,合同会社三洋,,合同会社,千葉県,東金市,家徳４０番地１７,,12,213,2830062,,,,,,,2025-04-08,1,,,,,ミヒロ,0
134,1040005022712,新規,0,2025-04-08,2025-04-08,医療法人社団三緑会,,その他の設立登記法人,千葉県,千葉市緑区,おゆみ野３丁目２２番６号かまとりクリニックビル２階,,12,105,2660031,,,,,,,2025-04-08,1,,,,,サンリョクカイ,0
137,1050001056457,新規,0,2025-04-08,2025-04-08,株式会社ＬＳＨ,,株式会社,茨城県,古河市,松並１丁目２１番２９号,,08,204,3060021,,,,,,,2025-04-08,1,,,,,エルエスエイチ,0
138,1050001056465,新規,0,2025-04-08,2025-04-08,株式会社ＦＡＩＷＯＮ,,株式会社,茨城県,常総市,中妻町３２８番地９,,08,211,3002505,,,,,,,2025-04-08,1,,,,,ファイヲン,0
140,1050003009173,新規,0,2025-04-08,2025-04-08,イナホインベスターズ合同会社,,合同会社,茨城県,小美玉市,上吉影４４８番地４８,,08,236,3113403,,,,,,,2025-04-08,1,,,,,イナホインベスターズ,0
147,1070001042810,新規,0,2025-04-08,2025-04-08,株式会社タケシン工業,,株式会社,群馬県,高崎市,下豊岡町１７５番地１６,,10,202,3700873,,,,,,,2025-04-08,1,,,,,タケシンコウギョウ,0
150,1080101025425,新規,0,2025-04-08,2025-04-08,アソット株式会社,,株式会社,静岡県,富士宮市,田中町５４３番地,,22,207,4180075,,,,,,,2025-04-08,1,,,,,アソット,0
156,1080403005240,新規,0,2025-04-08,2025-04-08,合同会社きした,,合同会社,静岡県,浜松市中央区,西ケ崎町６２４番地の５,,22,138,4313115,,,,,,,2025-04-08,1,,,,,キシタ,0
157,1090003002793,新規,0,2025-04-08,2025-04-08,佐藤総建合同会社,,合同会社,山梨県,笛吹市,石和町広瀬９７３番地,,19,211,4060035,,,,,,,2025-04-08,1,,,,,サトウソウケン,0
161,1100005013325,新規,0,2025-04-08,2025-04-08,一般社団法人ＧＯＫＩＧＥＮ　Ｎｉｐｐｏｎ,,その他の設立登記法人,長野県,下伊那郡松川町,元大島１７７３番地,,20,402,3993303,,,,,,,2025-04-08,1,,,,,ゴキゲンニッポン,0
175,1120001274027,新規,0,2025-04-08,2025-04-08,誠株式会社,,株式会社,大阪府,大阪市住之江区,西住之江３丁目８番４号,,27,125,5590005,,,,,,,2025-04-08,1,,,,,マコト,0
176,1120001274308,新規,0,2025-04-08,2025-04-08,南希株式会社,,株式会社,大阪府,大阪市都島区,東野田町１丁目１８－６－２０２号,,27,102,5340024,,,,,,,2025-04-08,1,,,,,ナンキ,0
177,1120001274687,新規,0,2025-04-08,2025-04-08,株式会社涵思俊,,株式会社,大阪府,大阪市生野区,小路２丁目１２番２２号２０１号室,,27,116,5440002,,,,,,,2025-04-08,1,,,,,カンシシュン,0
180,1120003029008,新規,0,2025-04-08,2025-04-08,合同会社Ｄｅｌｉｇｈｔ,,合同会社,大阪府,大阪市浪速区,桜川２丁目１４番２０－８０１号,,27,111,5560022,,,,,,,2025-04-08,1,,,,,ディライト,0
186,1120101071373,新規,0,2025-04-08,2025-04-08,株式会社ボックス,,株式会社,大阪府,堺市西区,上５２４－１１,,27,144,5938311,,,,,,,2025-04-08,1,,,,,ボックス,0
187,1120101071423,新規,0,2025-04-08,2025-04-08,ＩＤ工業株式会社,,株式会社,大阪府,泉北郡忠岡町,忠岡南３丁目６番２６号,,27,341,5950813,,,,,,,2025-04-08,1,,,,,アイディコウギョウ,0
188,1120101071431,新規,0,2025-04-08,2025-04-08,株式会社和泉栄光,,株式会社,大阪府,泉南市,信達岡中１２４３番地,,27,228,5900523,,,,,,,2025-04-08,1,,,,,イズミエイコウ,0
189,1120103006377,新規,0,2025-04-08,2025-04-08,合同会社あんしん,,合同会社,大阪府,貝塚市,澤１６番地１マスターズエル二色の浜１０３号,,27,208,5970062,,,,,,,2025-04-08,1,,,,,アンシン,0
191,1120901050683,新規,0,2025-04-08,2025-04-08,Ｓ‐ＬＩＦＩＸ株式会社,,株式会社,大阪府,茨木市,宇野辺１丁目２番９０３号,,27,211,5670042,,,,,,,2025-04-08,1,,,,,エスリフィックス,0
192,1120903005611,新規,0,2025-04-08,2025-04-08,ＫＴコンサルティング合同会社,,合同会社,大阪府,摂津市,南千里丘５番１３－１９０７号,,27,224,5660021,,,,,,,2025-04-08,1,,,,,ケーティーコンサルティング,0
199,1130001079318,新規,0,2025-04-08,2025-04-08,ＯＲＩＮＡＳ株式会社,,株式会社,京都府,京都市右京区,梅ケ畑猪ノ尻町１１番地,,26,108,6168272,,,,,,,2025-04-08,1,,,,,オリナス,0
200,1130001079383,新規,0,2025-04-08,2025-04-08,株式会社八千代装束店,,株式会社,京都府,京都市中京区,聚楽廻東町２０番地１０,,26,104,6048404,,,,,,,2025-04-08,1,,,,,ヤチヨショウゾクテン,0
207,1140001137966,新規,0,2025-04-08,2025-04-08,株式会社ｐｈｅｎｅｘ,,株式会社,兵庫県,尼崎市,下坂部２丁目１６番１３号,,28,202,6610975,,,,,,,2025-04-08,1,,,,,フェネクス,0
208,1140001137990,新規,0,2025-04-08,2025-04-08,株式会社バズエステート,,株式会社,兵庫県,姫路市,飾磨区構１丁目１１０番地,,28,201,6728071,,,,,,,2025-04-08,1,,,,,バズエステート,0
209,1140001138015,新規,0,2025-04-08,2025-04-08,アイルート株式会社,,株式会社,兵庫県,姫路市,広畑区蒲田２２２番地６,,28,201,6711102,,,,,,,2025-04-08,1,,,,,アイルート,0
210,1140001138023,新規,0,2025-04-08,2025-04-08,株式会社ペンギンフォレスト,,株式会社,兵庫県,神戸市東灘区,森北町６丁目３番８－２号,,28,101,6580001,,,,,,,2025-04-08,1,,,,,ペンギンフォレスト,0
211,1140001138056,新規,0,2025-04-08,2025-04-08,株式会社パソナふるさとマルシェ,,株式会社,兵庫県,淡路市,野島蟇浦８４１番地５,,28,226,6561721,,,,,,,2025-04-08,1,,,,,パソナフルサトマルシェ,0
212,1140001138072,新規,0,2025-04-08,2025-04-08,よしい電気株式会社,,株式会社,兵庫県,姫路市,神子岡前２丁目１６番２１号,,28,201,6700055,,,,,,,2025-04-08,1,,,,,ヨシイデンキ,0
213,1140001138089,新規,0,2025-04-08,2025-04-08,りんどう株式会社,,株式会社,兵庫県,神戸市灘区,摩耶埠頭１番地３－２０３,,28,102,6570854,,,,,,,2025-04-08,1,,,,,リンドウ,0
214,1140001138097,新規,0,2025-04-08,2025-04-08,株式会社ｃｏｐａｉｎ,,株式会社,兵庫県,尼崎市,西難波町４丁目６－２６－５０１号,,28,202,6600893,,,,,,,2025-04-08,1,,,,,コパン,0
222,1150001028017,新規,0,2025-04-08,2025-04-08,プロパッケージングサービス株式会社,,株式会社,奈良県,奈良市,帝塚山南５丁目８番４６号,00138659,29,201,6310064,,,,,,,2025-04-08,1,,,,,プロパッケージングサービス,0
223,1150003003554,新規,0,2025-04-08,2025-04-08,合同会社Ｌ．パートナー,,合同会社,奈良県,磯城郡田原本町,大字千代１６６－１アルヴィータ２０３号室,,29,363,6360246,,,,,,,2025-04-08,1,,,,,エルパートナー,0
226,1160001026655,新規,0,2025-04-08,2025-04-08,株式会社ＳＵＮＣＲＡＦＴ,,株式会社,滋賀県,愛知郡愛荘町,畑田１１番地,,25,425,5291323,,,,,,,2025-04-08,1,,,,,サンクラフト,0
227,1160001026663,新規,0,2025-04-08,2025-04-08,株式会社ＯＮＥ,,株式会社,滋賀県,彦根市,甘呂町２０８番地１,,25,202,5220046,,,,,,,2025-04-08,1,,,,,ワン,0
231,1170001018560,新規,0,2025-04-08,2025-04-08,ＥＤＰアドミン株式会社,,株式会社,和歌山県,和歌山市,有家２１２番地１７,,30,201,6408316,,,,,,,2025-04-08,1,,,,,イーディーピーアドミン,0
237,1180001166160,新規,0,2025-04-08,2025-04-08,株式会社ＭＩＬＬ,,株式会社,愛知県,西春日井郡豊山町,大字豊場字野田１５８番地秋善ビル１０３Ｒｅｓｔｙｌｅ,,23,342,4800202,,,,,,,2025-04-08,1,,,,,ミル,0
238,1180001166284,新規,0,2025-04-08,2025-04-08,株式会社Ｂａｄｄｉｘ,,株式会社,愛知県,名古屋市中区,栄２丁目１－１２ダイアパレス伏見１３０３号室,,23,106,4600008,,,,,,,2025-04-08,1,,,,,バディックス,0
239,1180001166292,新規,0,2025-04-08,2025-04-08,ＧＡＬＡＸＹホールディングス株式会社,,株式会社,愛知県,一宮市,伝法寺３丁目８番地２,,23,203,4910828,,,,,,,2025-04-08,1,,,,,ギャラクシーホールディングス,0
240,1180001166301,新規,0,2025-04-08,2025-04-08,株式会社ｏｎｅ＆ｏｎｌｙ,,株式会社,愛知県,春日井市,高蔵寺町３丁目５番地６,,23,206,4870013,,,,,,,2025-04-08,1,,,,,ワンアンドオンリー,0
241,1180001166342,新規,0,2025-04-08,2025-04-08,ＣＡＣＨＡ株式会社,,株式会社,愛知県,名古屋市北区,安井４丁目１４番４８号,,23,103,4620023,,,,,,,2025-04-08,1,,,,,カーチャ,0
245,1180005021031,新規,0,2025-04-08,2025-04-08,特定非営利活動法人みんなの力の相談窓口,,その他の設立登記法人,愛知県,名古屋市南区,戸部町１丁目３８番地の３,,23,112,4570043,,,,,,,2025-04-08,1,,,,,ミンナノチカラノソウダンマドグチ,0
252,1200001043613,新規,0,2025-04-08,2025-04-08,株式会社ミヤビ電設,,株式会社,岐阜県,中津川市,高山３４０番地４３,,21,206,5080204,,,,,,,2025-04-08,1,,,,,ミヤビデンセツ,0
254,1200003006766,新規,0,2025-04-08,2025-04-08,ＳＯＮＩＹＡ合同会社,,合同会社,岐阜県,大垣市,荒尾町字中牧野１８０２番地２３,,21,202,5030034,,,,,,,2025-04-08,1,,,,,ソニヤ,0
257,1220001026599,新規,0,2025-04-08,2025-04-08,株式会社キミトノート,,株式会社,石川県,能美市,大浜町オ３０番地１,,17,211,9290122,,,,,,,2025-04-08,1,,,,,キミトノート,0
258,1230001020832,新規,0,2025-04-08,2025-04-08,株式会社ヒメキ,,株式会社,富山県,射水市,松木２２番地２,,16,211,9340052,,,,,,,2025-04-08,1,,,,,ヒメキ,0
265,1240001064770,新規,0,2025-04-08,2025-04-08,株式会社イーデライト,,株式会社,広島県,尾道市,向島町６１５番地４,,34,205,7220073,,,,,,,2025-04-08,1,,,,,イーデライト,0
266,1240001064787,新規,0,2025-04-08,2025-04-08,株式会社ＫＧグループ,,株式会社,広島県,福山市,船町５番１８号Ａ,,34,207,7200043,,,,,,,2025-04-08,1,,,,,ケージーグループ,0
270,1240003007141,新規,0,2025-04-08,2025-04-08,合同会社Ｆｌｏｗｅｒ,,合同会社,広島県,広島市中区,本川町３丁目１番５号,,34,101,7300802,,,,,,,2025-04-08,1,,,,,フラワー,0
272,1260005011461,新規,0,2025-04-08,2025-04-08,医療法人社団ライフルーツ,,その他の設立登記法人,岡山県,岡山市北区,奥田１丁目９番８号,,33,101,7000933,,,,,,,2025-04-08,1,,,,,ライフルーツ,0
273,1270005005636,新規,0,2025-04-08,2025-04-08,一般社団法人あいおらいと,,その他の設立登記法人,鳥取県,鳥取市,気高町浜村３４２番地,,31,201,6890331,,,,,,,2025-04-08,1,,,,,アイオライト,0
278,1290001109505,新規,0,2025-04-08,2025-04-08,株式会社ナガヨシ,,株式会社,福岡県,福岡市東区,香椎照葉６丁目２－５１ＥＡＳＴ棟３６０２,,40,131,8130017,,,,,,,2025-04-08,1,,,,,ナガヨシ,0
279,1290001109521,新規,0,2025-04-08,2025-04-08,ＬＳ不動産販売株式会社,,株式会社,福岡県,福岡市東区,香住ヶ丘２丁目２９番７号,,40,131,8130003,,,,,,,2025-04-08,1,,,,,エルエスフドウサンハンバイ,0
280,1290001109570,新規,0,2025-04-08,2025-04-08,フォレストマネジメント株式会社,,株式会社,福岡県,飯塚市,下三緒４１番地２３,,40,205,8200012,,,,,,,2025-04-08,1,,,,,フォレストマネジメント,0
281,1290001109595,新規,0,2025-04-08,2025-04-08,株式会社ＢＥＮＥＦＩＴ　ＬＯＧＩＳＴＩＣＳ,,株式会社,福岡県,福岡市博多区,博多駅前２丁目１９番１７号トーカン博多第５ビル３１２号室,,40,132,8120011,,,,,,,2025-04-08,1,,,,,ベネフィットロジスティクス,0
284,1290003016633,新規,0,2025-04-08,2025-04-08,合同会社Ｐａｓｓｉｏｎ’３,,合同会社,福岡県,福岡市博多区,博多駅前３丁目２３番２０－１１０８号ウェルブライト博多ステーション,,40,132,8120011,,,,,,,2025-04-08,1,,,,,パッションサン,0
290,1320001021045,新規,0,2025-04-08,2025-04-08,株式会社エアーテクノス,,株式会社,大分県,大分市,大字松岡字万四郎１２４１番２,,44,201,8700125,,,,,,,2025-04-08,1,,,,,エアーテクノス,0
292,1330001033031,新規,0,2025-04-08,2025-04-08,株式会社ＡＳ‐ＬＩＮＥ,,株式会社,熊本県,上益城郡益城町,大字馬水７９３番地１２,,43,443,8612232,,,,,,,2025-04-08,1,,,,,エーエスライン,0
294,1330003010920,新規,0,2025-04-08,2025-04-08,合同会社合志福竹開発,,合同会社,熊本県,熊本市中央区,大江１丁目１２番４号,,43,101,8620971,,,,,,,2025-04-08,1,,,,,コウシフクタケカイハツ,0
295,1330005010893,新規,0,2025-04-08,2025-04-08,一般社団法人クラブこうし,,その他の設立登記法人,熊本県,合志市,福原２９２２番地,,43,216,8611116,,,,,,,2025-04-08,1,,,,,クラブコウシ,0
296,1340001027239,新規,0,2025-04-08,2025-04-08,株式会社Ｌ‐Ｏｎｅ,,株式会社,鹿児島県,鹿児島市,唐湊４丁目２１番１号,,46,201,8900081,,,,,,,2025-04-08,1,,,,,エルワン,0
298,1340005009844,新規,0,2025-04-08,2025-04-08,社会福祉法人ジョイントライフ,,その他の設立登記法人,鹿児島県,霧島市,隼人町真孝２６８１番地３,,46,218,8995102,,,,,,,2025-04-08,1,,,,,ジョイントライフ,0
301,1360001035000,新規,0,2025-04-08,2025-04-08,株式会社カーサカガンジ,,株式会社,沖縄県,沖縄市,与儀３丁目２１番２２号カーサカガンジ６Ｆ,,47,211,9042174,,,,,,,2025-04-08,1,,,,,カーサカガンジ,0
302,1360001035033,新規,0,2025-04-08,2025-04-08,農業生産法人株式会社たいよう,,株式会社,沖縄県,うるま市,字宇堅１３５番地１,,47,213,9042211,,,,,,,2025-04-08,1,,,,,ノウギョウセイサンホウジンタイヨウ,0
309,1380001035221,新規,0,2025-04-08,2025-04-08,株式会社ＤＭＣトラベル,,株式会社,福島県,耶麻郡猪苗代町,字葉山７１０５番地,,07,408,9693102,,,,,,,2025-04-08,1,,,,,ディーエムシートラベル,0
312,1390001017953,新規,0,2025-04-08,2025-04-08,株式会社Ａｍｉｃ,,株式会社,山形県,山形市,十日町２丁目３番３号,,06,201,9900031,,,,,,,2025-04-08,1,,,,,アミック,0
313,1400001016994,新規,0,2025-04-08,2025-04-08,株式会社ワラカン,,株式会社,岩手県,一関市,大町６番５１号ガーデンヨコヤ２Ｆ,,03,209,0210881,,,,,,,2025-04-08,1,,,,,ワラカン,0
319,1430001094113,新規,0,2025-04-08,2025-04-08,リュミエール株式会社,,株式会社,北海道,札幌市北区,新琴似六条１１丁目７番２３号,,01,102,0010906,,,,,,,2025-04-08,1,,,,,リュミエール,0
320,1430001094146,新規,0,2025-04-08,2025-04-08,株式会社ＩＵ　ｓｅｒｖｅｒとまこまい,,株式会社,北海道,苫小牧市,川沿町１丁目１３番３０号,,01,213,0530822,,,,,,,2025-04-08,1,,,,,アイユーサーバートマコマイ,0
324,1430003017492,新規,0,2025-04-08,2025-04-08,元気の道合同会社,,合同会社,北海道,札幌市東区,北二十二条東１３丁目２番１２阿部マンション２０６室,,01,103,0650022,,,,,,,2025-04-08,1,,,,,ゲンキノミチ,0
330,1480001012805,新規,0,2025-04-08,2025-04-08,あかつきでんき株式会社,,株式会社,徳島県,徳島市,国府町日開２４３番地１２,,36,201,7793117,,,,,,,2025-04-08,1,,,,,アカツキデンキ,0
332,1490001011013,新規,0,2025-04-08,2025-04-08,株式会社ＭＪフーズ,,株式会社,高知県,高知市,本町４丁目２番４４号グラン高知県庁前９Ｆ－Ａ,,39,201,7800870,,,,,,,2025-04-08,1,,,,,エムジェイフーズ,0
338,1700150129856,新規,0,2025-04-08,2025-04-08,ＨＡＮ　ＺＨＯＮＧ　ＧＯＵ　ＴＵ　ＸＩ　ＭＡＯ　ＹＩ　ＹＯＵ　ＸＩＡＮ　ＧＯＮＧ　ＳＩ,,外国会社等,,,,,,,,ｈａｎ　ｚｈｏｎｇ　ｌｕ　ｊｉｅ　ｄａｏ　ｂａｎ　ｓｈｉ　ｃｈｕ　ｈａｎ　ｙａｎｇ　ｌｕ　ｚｈｏｎｇ　ｊｉａｏ　ｂｉｎ　ｊｉａｎｇ　ｇｕｏ　ｊｉ　９　ｄｏｎｇ　５０３　ｓｈｉ　ｈａｎ　ｔａｉ　ｑｕ　ｈａｎ　ｚｈｏｎｇ　ｓｈｉ　ｓｈａｎ　ｘｉ　ｓｈｅｎｇ,,,,,,2025-04-08,1,,,,,ハンゾンゴウツウシマオイヨウシエンゴンスー,0
347,2010001253750,新規,0,2025-04-08,2025-04-08,株式会社ＨＹコーポレーション,,株式会社,東京都,中央区,銀座８丁目１５番１０－４１５号,,13,102,1040061,,,,,,,2025-04-08,1,,,,,エイチワイコーポレーション,0
348,2010001253759,新規,0,2025-04-08,2025-04-08,人事・行政実務パートナーズ株式会社,,株式会社,東京都,千代田区,神田須田町１丁目２６番２号松浦ビル５階,,13,101,1010041,,,,,,,2025-04-08,1,,,,,ジンジギョウセイジツムパートナーズ,0
349,2010001253866,新規,0,2025-04-08,2025-04-08,株式会社ＳＨＯＰＥ,,株式会社,東京都,中央区,銀座１丁目１２番４号Ｎ＆ＥＢＬＤ．６Ｆ,,13,102,1040061,,,,,,,2025-04-08,1,,,,,エスホープ,0
350,2010001253924,新規,0,2025-04-08,2025-04-08,株式会社アール・アーキラボ,,株式会社,東京都,千代田区,神田和泉町一丁目１３番１１号,,13,101,1010024,,,,,,,2025-04-08,1,,,,,アールアーキラボ,0
351,2010001253965,新規,0,2025-04-08,2025-04-08,三泉トラストリスクコンサルティング株式会社,,株式会社,東京都,中央区,日本橋本石町４丁目５番３号,,13,102,1030021,,,,,,,2025-04-08,1,,,,,サンセントラストリスクコンサルティング,0
354,2010003046970,新規,0,2025-04-08,2025-04-08,合同会社Ｔａｇ　Ｙｏｕ,,合同会社,東京都,千代田区,神田須田町１丁目７番８号ＶＯＲＴ秋葉原４２Ｆ,,13,101,1010041,,,,,,,2025-04-08,1,,,,,タグユー,0
355,2010003047003,新規,0,2025-04-08,2025-04-08,滋賀県愛荘町バッテリーＪＳＤ２４００１合同会社,,合同会社,東京都,千代田区,飯田橋４丁目５番１６号メトロシティ飯田橋５階,,13,101,1020072,,,,,,,2025-04-08,1,,,,,シガケンアイショウチョウバッテリージェイエスディーニーヨンゼロゼロイチ,0
363,2010401189330,新規,0,2025-04-08,2025-04-08,株式会社ＫａｎｐＡＩ,,株式会社,東京都,港区,六本木６丁目１０－１六本木ヒルズ森タワー１５Ｆ,,13,103,1060032,,,,,,,2025-04-08,1,,,,,カンパイ,0
364,2010401189421,新規,0,2025-04-08,2025-04-08,株式会社ａｒｃ,,株式会社,東京都,港区,北青山１丁目３番１号アールキューブ青山３階,,13,103,1070061,,,,,,,2025-04-08,1,,,,,アーク,0
365,2010403034823,新規,0,2025-04-08,2025-04-08,のぞみソーラーホールディングス２合同会社,,合同会社,東京都,港区,芝５丁目２９番１９号ＰＭＯ田町ＩＶ８階,00138636,13,103,1080014,,,,,,,2025-04-08,1,,,,,ノゾミソーラーホールディングスツー,0
371,2010501053881,新規,0,2025-04-08,2025-04-08,Ｊ・ＣＯＰＡＣＫ株式会社,,株式会社,東京都,台東区,柳橋１丁目２８番１号,,13,106,1110052,,,,,,,2025-04-08,1,,,,,ジェイコパック,0
378,2010701047502,新規,0,2025-04-08,2025-04-08,ステラアイズ株式会社,,株式会社,東京都,品川区,上大崎３丁目２番１号,,13,109,1410021,,,,,,,2025-04-08,1,,,,,ステラアイズ,0
379,2010701047527,新規,0,2025-04-08,2025-04-08,株式会社ルーラルプロ,,株式会社,東京都,品川区,小山３丁目１４番２－２００６号,,13,109,1420062,,,,,,,2025-04-08,1,,,,,ルーラルプロ,0
382,2010703007652,新規,0,2025-04-08,2025-04-08,合同会社アイアンクラウド,,合同会社,東京都,品川区,大井４丁目１１番１１号エステラス１Ｆ,,13,109,1400014,,,,,,,2025-04-08,1,,,,,アイアンクラウド,0
383,2010801036009,新規,0,2025-04-08,2025-04-08,株式会社Ｓｅｅｋｅｒ,,株式会社,東京都,大田区,大森北３丁目４－１,,13,111,1430016,,,,,,,2025-04-08,1,,,,,シカ,0
388,2010903009837,新規,0,2025-04-08,2025-04-08,Ｎインサイトワークス合同会社,,合同会社,東京都,世田谷区,上馬３丁目１４番１４号ラック駒沢１０２,,13,112,1540011,,,,,,,2025-04-08,1,,,,,エヌインサイトワークス,0
395,2011101111170,新規,0,2025-04-08,2025-04-08,瑞龍株式会社,,株式会社,東京都,新宿区,新宿５丁目１１番１３号－４Ｆ,,13,104,1600022,,,,,,,2025-04-08,1,,,,,ズイリュウ,0
396,2011101111204,新規,0,2025-04-08,2025-04-08,株式会社モーキ,,株式会社,東京都,新宿区,西新宿３丁目３番１３号西新宿水間ビル６階,,13,104,1600023,,,,,,,2025-04-08,1,,,,,モーキ,0
398,2011301030476,新規,0,2025-04-08,2025-04-08,幸田株式会社,,株式会社,東京都,杉並区,高円寺南３丁目２１番１０号,,13,115,1660003,,,,,,,2025-04-08,1,,,,,コウタ,0
399,2011301030484,新規,0,2025-04-08,2025-04-08,Ｏｒｂｉｔｅ株式会社,,株式会社,東京都,杉並区,成田東２丁目８番２号パークサイドＡ,,13,115,1660015,,,,,,,2025-04-08,1,,,,,オルヴィータ,0
401,2011401026993,新規,0,2025-04-08,2025-04-08,株式会社ＴＡＳＥｉ,,株式会社,東京都,板橋区,蓮根１丁目１１番１１号,,13,119,1740046,,,,,,,2025-04-08,1,,,,,タセイ,0
403,2011701028236,新規,0,2025-04-08,2025-04-08,株式会社ユニコスタ,,株式会社,東京都,江戸川区,平井１丁目１７―８,,13,123,1320035,,,,,,,2025-04-08,1,,,,,ユニコスタ,0
406,2011801045916,新規,0,2025-04-08,2025-04-08,株式会社Ｌ・Ｅ・Ｅ　Ｒｅａｌｔｙ,,株式会社,東京都,葛飾区,新宿６丁目２番１－１５３１号,,13,122,1250051,,,,,,,2025-04-08,1,,,,,リーリアルティ,0
407,2011803006783,新規,0,2025-04-08,2025-04-08,ＷＪＩ合同会社,,合同会社,東京都,葛飾区,立石５丁目５番６号,,13,122,1240012,,,,,,,2025-04-08,1,,,,,ダブルジェーアイ,0
410,2012401042964,新規,0,2025-04-08,2025-04-08,株式会社ＷＭ３,,株式会社,東京都,小金井市,梶野町１丁目２－３６ＰＯ－ＴＯ，Ｎ－０４,,13,210,1840002,,,,,,,2025-04-08,1,,,,,ダブルエムスリー,0
415,2012705002458,新規,0,2025-04-08,2025-04-08,一般社団法人そえぎ,,その他の設立登記法人,東京都,東村山市,久米川町５丁目３６番地１１－１０１号,,13,213,1890003,,,,,,,2025-04-08,1,,,,,ソエギ,0
421,2012803003688,新規,0,2025-04-08,2025-04-08,ｃａｒｅｅｒ　ｔｒｅｅ　ｆｏｒ　ｋｉｄ’ｓ合同会社,,合同会社,東京都,立川市,高松町１丁目２－１５モナーク立川高松町,,13,202,1900011,,,,,,,2025-04-08,1,,,,,キャリアツリーフォーキッズ,0
429,2020001162100,新規,0,2025-04-08,2025-04-08,Ａ＆Ｂｅｙｏｎｄ　Ｈｏｌｄｉｎｇｓ株式会社,,株式会社,神奈川県,横浜市南区,井土ケ谷中町３６ＯｒｃｈａｒｄＣｏｕｒｔＩＩ－２１０１,00138622,14,105,2320052,,,,,,,2025-04-08,1,,,,,エーアンドビヨンドホールディングス,0
430,2020001162125,新規,0,2025-04-08,2025-04-08,株式会社ＨＡＲＵＫＡ,,株式会社,神奈川県,横浜市神奈川区,栄町２－１キコー横浜ビル５０３号室,,14,102,2210052,,,,,,,2025-04-08,1,,,,,ハルカ,0
431,2020001162158,新規,0,2025-04-08,2025-04-08,音峰設計株式会社,,株式会社,神奈川県,横浜市神奈川区,六角橋２丁目３４番１９号,,14,102,2210802,,,,,,,2025-04-08,1,,,,,オトミネセッケイ,0
432,2020001162174,新規,0,2025-04-08,2025-04-08,株式会社ティーアムール,,株式会社,神奈川県,川崎市中原区,今井仲町３番４１号,,14,133,2110065,,,,,,,2025-04-08,1,,,,,ティーアムール,0
433,2020001162182,新規,0,2025-04-08,2025-04-08,第一日総建設株式会社,,株式会社,神奈川県,横浜市中区,弁天通３丁目４２番地４０１,,14,104,2310007,,,,,,,2025-04-08,1,,,,,ダイイチニッソウケンセツ,0
434,2020001162208,新規,0,2025-04-08,2025-04-08,株式会社ＳＡＭＵＲＡＩ,,株式会社,神奈川県,横浜市港北区,高田東３丁目３０番１９－１０５号,,14,109,2230065,,,,,,,2025-04-08,1,,,,,サムライ,0
435,2020001162216,新規,0,2025-04-08,2025-04-08,株式会社ティーピーホーム,,株式会社,神奈川県,横浜市都筑区,東山田町１２４６番地１,,14,118,2240024,,,,,,,2025-04-08,1,,,,,ティーピーホーム,0
436,2020001162224,新規,0,2025-04-08,2025-04-08,株式会社ＬＩＦＩＬＬ,,株式会社,神奈川県,横浜市中区,長者町２丁目５番地１４－６０１号,,14,104,2310033,,,,,,,2025-04-08,1,,,,,ライフィル,0
441,2021001084904,新規,0,2025-04-08,2025-04-08,株式会社ホンディン,,株式会社,神奈川県,藤沢市,大鋸２丁目２番１２号,,14,205,2510002,,,,,,,2025-04-08,1,,,,,ホンディン,0
442,2021001084912,新規,0,2025-04-08,2025-04-08,株式会社高善,00138657,株式会社,神奈川県,藤沢市,遠藤１４２１番地,,14,205,2520816,,,,,,,2025-04-08,1,,,,,タカゼン,0
447,2030001165812,新規,0,2025-04-08,2025-04-08,株式会社エンパテック,,株式会社,埼玉県,深谷市,大谷２９４０,,11,218,3660814,,,,,,,2025-04-08,1,,,,,エンパテック,0
448,2030001165837,新規,0,2025-04-08,2025-04-08,株式会社プウェハイテク,,株式会社,埼玉県,川口市,幸町１丁目７番１－２４０２号,,11,203,3320016,,,,,,,2025-04-08,1,,,,,プウェハイテク,0
449,2030001165853,新規,0,2025-04-08,2025-04-08,株式会社花子ホールディングス,,株式会社,埼玉県,北葛飾郡杉戸町,高野台南２丁目１３番地１１,,11,464,3450046,,,,,,,2025-04-08,1,,,,,ハナコホールディングス,0
450,2030001165886,新規,0,2025-04-08,2025-04-08,株式会社ＭＹ,,株式会社,埼玉県,春日部市,内牧２６１８番地１,,11,214,3440051,,,,,,,2025-04-08,1,,,,,エムワイ,0
453,2030003026500,新規,0,2025-04-08,2025-04-08,牧之合同会社,,合同会社,埼玉県,吉川市,大字半割２８７番地１,,11,243,3420024,,,,,,,2025-04-08,1,,,,,マキノ,0
454,2030003026525,新規,0,2025-04-08,2025-04-08,合同会社街の薬局,,合同会社,埼玉県,さいたま市中央区,上峰３丁目９番６号,,11,105,3380014,,,,,,,2025-04-08,1,,,,,マチノヤッキョク,0
455,2030003026533,新規,0,2025-04-08,2025-04-08,合同会社ＩＡＣ,,合同会社,埼玉県,さいたま市岩槻区,大字表慈恩寺１０１２番地４,,11,110,3390008,,,,,,,2025-04-08,1,,,,,アイエイシー,0
460,2040001138098,新規,0,2025-04-08,2025-04-08,株式会社ＴＫ社,,株式会社,千葉県,市川市,高石神３１番１７号,,12,203,2720814,,,,,,,2025-04-08,1,,,,,ティーケーシャ,0
461,2040001138164,新規,0,2025-04-08,2025-04-08,株式会社カーテンレイズ,,株式会社,千葉県,千葉市花見川区,幕張町３丁目１６２８番地２２,,12,102,2620032,,,,,,,2025-04-08,1,,,,,カーテンレイズ,0
462,2040001138189,新規,0,2025-04-08,2025-04-08,株式会社花道,,株式会社,千葉県,松戸市,小金原４丁目２９番地の１－２０２,,12,207,2700021,,,,,,,2025-04-08,1,,,,,ハナミチ,0
463,2040001138222,新規,0,2025-04-08,2025-04-08,鈴野株式会社,,株式会社,千葉県,成田市,本城３９－１９,,12,211,2860114,,,,,,,2025-04-08,1,,,,,スズノ,0
464,2040001138255,新規,0,2025-04-08,2025-04-08,株式会社元〆,00138618,株式会社,千葉県,四街道市,下志津新田２５１５番地,,12,228,2840006,,,,,,,2025-04-08,1,,,,,モトジメ,0
467,2040003027274,新規,0,2025-04-08,2025-04-08,合同会社加志,,合同会社,千葉県,習志野市,屋敷４丁目３番１－１１３３号,,12,216,2750004,,,,,,,2025-04-08,1,,,,,カシ,0
468,2040003027308,新規,0,2025-04-08,2025-04-08,合同会社Ｎｅｘｕｓ　Ｐｒｉｍｅ,,合同会社,千葉県,山武市,本須賀３８２８番地８,,12,237,2891305,,,,,,,2025-04-08,1,,,,,ネクサスプライム,0
469,2040003027340,新規,0,2025-04-08,2025-04-08,合同会社ＲＹＯ,,合同会社,千葉県,船橋市,湊町２丁目８－１パークハウスプレシア１３０５,,12,204,2730011,,,,,,,2025-04-08,1,,,,,アールワイオー,0
470,2040005022711,新規,0,2025-04-08,2025-04-08,印旛輸送事業協同組合,,その他の設立登記法人,千葉県,印旛郡酒々井町,下岩橋２０８番地５,,12,322,2850907,,,,,,,2025-04-08,1,,,,,インバユソウジギョウ,0
473,2050001056308,新規,0,2025-04-08,2025-04-08,ＪＡＰＡＮ　ＷＥＥＬＳ株式会社,,株式会社,茨城県,筑西市,村田６９７番地１６,,08,227,3004546,,,,,,,2025-04-08,1,,,,,ジャパンウィールス,0
477,2050003009172,新規,0,2025-04-08,2025-04-08,合同会社井郷工業,,合同会社,茨城県,神栖市,賀２１０８番地１８４,,08,232,3140134,,,,,,,2025-04-08,1,,,,,イゴウコウギョウ,0
478,2050003009180,新規,0,2025-04-08,2025-04-08,Ｌｕｍｉｅｒｅ合同会社,,合同会社,茨城県,水戸市,見和２丁目２４６番地１,,08,201,3100911,,,,,,,2025-04-08,1,,,,,ルミエール,0
482,2070001042792,新規,0,2025-04-08,2025-04-08,株式会社エコワークス,,株式会社,群馬県,桐生市,広沢町４丁目２０５９番地４,,10,203,3760013,,,,,,,2025-04-08,1,,,,,エコワークス,0
483,2070001042818,新規,0,2025-04-08,2025-04-08,株式会社原緑化,,株式会社,群馬県,吾妻郡嬬恋村,大字干俣２３３３番地１,,10,425,3771611,,,,,,,2025-04-08,1,,,,,ハラリョッカ,0
484,2070001042826,新規,0,2025-04-08,2025-04-08,株式会社トウミヤ,,株式会社,群馬県,前橋市,鼻毛石町１６６９番地５３,,10,201,3710244,,,,,,,2025-04-08,1,,,,,トウミヤ,0
486,2080001026860,新規,0,2025-04-08,2025-04-08,右官株式会社,,株式会社,静岡県,島田市,大津通１９４６番地の１５,,22,209,4270056,,,,,,,2025-04-08,1,,,,,ウカン,0
492,2080405007721,新規,0,2025-04-08,2025-04-08,一般社団法人スロボ協会,,その他の設立登記法人,静岡県,浜松市中央区,和合北３丁目７番５号,,22,138,4338127,,,,,,,2025-04-08,1,,,,,スロボキョウカイ,0
494,2090001019203,新規,0,2025-04-08,2025-04-08,株式会社ｗａｋａｂａ,,株式会社,山梨県,大月市,猿橋町藤崎４６９番地,,19,206,4090612,,,,,,,2025-04-08,1,,,,,ワカバ,0
500,2100005013324,新規,0,2025-04-08,2025-04-08,医療法人春日歯科医院,,その他の設立登記法人,長野県,駒ヶ根市,北町６番５号,,20,210,3994111,,,,,,,2025-04-08,1,,,,,カスガシカイイン,0
514,2120001274208,新規,0,2025-04-08,2025-04-08,麗湖インターナショナル株式会社,,株式会社,大阪府,大阪市北区,西天満５丁目９－１６ダイアパレス西天満４０４号室,,27,127,5300047,,,,,,,2025-04-08,1,,,,,レイコインターナショナル,0
515,2120001274265,新規,0,2025-04-08,2025-04-08,株式会社Ｃｈｒｏｎｏｓ,,株式会社,大阪府,大阪市阿倍野区,播磨町１丁目１８番２８号メゾンバンダナ１０２号,,27,119,5450022,,,,,,,2025-04-08,1,,,,,クロノス,0
517,2120003029023,新規,0,2025-04-08,2025-04-08,合同会社ブルーワークス,,合同会社,大阪府,大阪市北区,梅田１丁目２番２号大阪駅前第二ビル１２－１２,,27,127,5300001,,,,,,,2025-04-08,1,,,,,ブルーワークス,0
518,2120005024872,新規,0,2025-04-08,2025-04-08,社会保険労務士法人中田谷事務所,,その他の設立登記法人,大阪府,大阪市淀川区,西宮原１丁目８番３３号日宝新大阪第二ビル４階,,27,123,5320004,,,,,,,2025-04-08,1,,,,,ナカタヤジムショ,0
524,2120101071389,新規,0,2025-04-08,2025-04-08,株式会社蕎麦博,,株式会社,大阪府,河内長野市,南貴望ケ丘１番１９号,,27,216,5860092,,,,,,,2025-04-08,1,,,,,ソバヒロ,0
525,2120101071422,新規,0,2025-04-08,2025-04-08,株式会社ハヤノ,,株式会社,大阪府,高石市,取石２丁目１３番７号,,27,225,5920013,,,,,,,2025-04-08,1,,,,,ハヤノ,0
528,2120901050666,新規,0,2025-04-08,2025-04-08,株式会社ＬＰＲ,,株式会社,大阪府,吹田市,豊津町３－８コヤマビル１階,,27,205,5640051,,,,,,,2025-04-08,1,,,,,エルピーアール,0
531,2122001039053,新規,0,2025-04-08,2025-04-08,株式会社リアライ,,株式会社,大阪府,四條畷市,清滝新町１４－２,,27,229,5750062,,,,,,,2025-04-08,1,,,,,リアライ,0
532,2122003003164,新規,0,2025-04-08,2025-04-08,ＬＡＮ合同会社,,合同会社,大阪府,東大阪市,荒本新町９－１３,,27,227,5770022,,,,,,,2025-04-08,1,,,,,ラン,0
533,2130001079341,新規,0,2025-04-08,2025-04-08,株式会社ＭＴＳ,,株式会社,京都府,京都市伏見区,竹田向代町５８２番地,,26,109,6128418,,,,,,,2025-04-08,1,,,,,エムティーエス,0
534,2130001079366,新規,0,2025-04-08,2025-04-08,株式会社ＲＢＭコーポレーション,,株式会社,京都府,城陽市,中中ノ郷６６番地,,26,207,6100113,,,,,,,2025-04-08,1,,,,,アールビーエムコーポレーション,0
541,2140001137973,新規,0,2025-04-08,2025-04-08,株式会社オシバ電機商会,,株式会社,兵庫県,多可郡多可町,八千代区下野間８４３番地,,28,365,6770122,,,,,,,2025-04-08,1,,,,,オシバデンキショウカイ,0
542,2140001137998,新規,0,2025-04-08,2025-04-08,株式会社創発企画,,株式会社,兵庫県,神戸市中央区,浪花町６４番地三宮電電ビル３Ｆ,,28,110,6500035,,,,,,,2025-04-08,1,,,,,ソウハツキカク,0
543,2140001138022,新規,0,2025-04-08,2025-04-08,株式会社Ａｐｐａｒｅｌｗｏｒｋｓ,,株式会社,兵庫県,神戸市須磨区,竜が台６丁目９番地の２３,,28,107,6540141,,,,,,,2025-04-08,1,,,,,アパレルワークス,0
544,2140001138055,新規,0,2025-04-08,2025-04-08,株式会社ＴＥＩＫＥＮ,,株式会社,兵庫県,尼崎市,富松町３丁目３０番１９号,,28,202,6610003,,,,,,,2025-04-08,1,,,,,テイケン,0
545,2140001138063,新規,0,2025-04-08,2025-04-08,株式会社Ｆｉｒｓｔ,,株式会社,兵庫県,西宮市,甲風園１丁目６－５米田ビル２Ｆ,,28,204,6620832,,,,,,,2025-04-08,1,,,,,ファースト,0
546,2140001138071,新規,0,2025-04-08,2025-04-08,株式会社ＤＯＴｓ,,株式会社,兵庫県,神戸市西区,水谷３丁目１３番１３号,,28,111,6512121,,,,,,,2025-04-08,1,,,,,ドッツ,0
548,2140003021903,新規,0,2025-04-08,2025-04-08,合同会社花もり,,合同会社,兵庫県,南あわじ市,八木鳥井４４３番地３,,28,224,6560433,,,,,,,2025-04-08,1,,,,,ハナモリ,0
554,2150001028016,新規,0,2025-04-08,2025-04-08,株式会社十人十旅,,株式会社,奈良県,吉野郡十津川村,大字上野地４９番地の１,,29,449,6371103,,,,,,,2025-04-08,1,,,,,ジュウニントタビ,0
556,2160003003437,新規,0,2025-04-08,2025-04-08,合同会社ＰＥＡＲＬ　ＦＬＯＲＡ,,合同会社,滋賀県,大津市,におの浜３丁目４番１２－１１０２号ユニハイム大津におの浜,,25,201,5200801,,,,,,,2025-04-08,1,,,,,パールフローラ,0
557,2160003003445,新規,0,2025-04-08,2025-04-08,ＩＤＳ合同会社,,合同会社,滋賀県,守山市,水保町２８９２番地２琵琶湖プラザ７１５号,,25,207,5240102,,,,,,,2025-04-08,1,,,,,アイディーエス,0
559,2160005011388,新規,0,2025-04-08,2025-04-08,一般社団法人こなんがくどう岩根,,その他の設立登記法人,滋賀県,湖南市,岩根３７８１番地１,,25,211,5203252,,,,,,,2025-04-08,1,,,,,コナンガクドウイワネ,0
569,2180001166250,新規,0,2025-04-08,2025-04-08,株式会社ピカットクリーン,,株式会社,愛知県,あま市,下萱津銀杏木７０番地１エスペーロ銀杏２Ｃ号,,23,237,4901114,,,,,,,2025-04-08,1,,,,,ピカットクリーン,0
570,2180001166259,新規,0,2025-04-08,2025-04-08,株式会社ＢＬＵＥｅｉｇｈｔ,,株式会社,愛知県,名古屋市中村区,名駅３丁目４－１０アルティメイト名駅１ｓｔ２階,,23,105,4500002,,,,,,,2025-04-08,1,,,,,ブルーエイト,0
571,2180001166275,新規,0,2025-04-08,2025-04-08,株式会社ミノリズム,,株式会社,愛知県,名古屋市熱田区,大宝４丁目９番２７号,,23,109,4560062,,,,,,,2025-04-08,1,,,,,ミノリズム,0
572,2180001166283,新規,0,2025-04-08,2025-04-08,株式会社ＨＥＥ,,株式会社,愛知県,名古屋市北区,光音寺町字野方１９１９番地６８,,23,103,4620053,,,,,,,2025-04-08,1,,,,,エイチイーイー,0
573,2180001166309,新規,0,2025-04-08,2025-04-08,株式会社ｒｅｎｃｏｎｔｒｅ,,株式会社,愛知県,名古屋市千種区,宮根台１丁目３番３号香流橋ハイツ１０３,,23,101,4640008,,,,,,,2025-04-08,1,,,,,ランコント,0
574,2180001166317,新規,0,2025-04-08,2025-04-08,株式会社エーアイシステムズ,,株式会社,愛知県,名古屋市中区,古渡町１８番９号ＴＳＵＮＯＫＹＵ名古屋ビル,,23,106,4600025,,,,,,,2025-04-08,1,,,,,エーアイシステムズ,0
584,2200001043587,新規,0,2025-04-08,2025-04-08,株式会社ＲＵＢＩＮＯ　ＰＬＵＳ,,株式会社,岐阜県,岐阜市,菅生１丁目１２番１５号,,21,201,5020914,,,,,,,2025-04-08,1,,,,,ルビノプラス,0
587,2210001020131,新規,0,2025-04-08,2025-04-08,株式会社ＫＬＤｅｓｉｇＮ,,株式会社,福井県,福井市,二の宮２丁目３２番４８号－９０３,,18,201,9100015,,,,,,,2025-04-08,1,,,,,ケーエルデザイン,0
588,2220001026607,新規,0,2025-04-08,2025-04-08,経理再建株式会社,,株式会社,石川県,金沢市,武蔵町１４番３１号ＩＴビジネスプラザ武蔵,,17,201,9200855,,,,,,,2025-04-08,1,,,,,ケイリサイケン,0
589,2220001026615,新規,0,2025-04-08,2025-04-08,株式会社ルクスト,,株式会社,石川県,金沢市,吉原町ヨ１４２番地,,17,201,9203114,,,,,,,2025-04-08,1,,,,,ルクスト,0
600,2240001064745,新規,0,2025-04-08,2025-04-08,株式会社想創堂,,株式会社,広島県,廿日市市,宮内１９５３番地２,,34,213,7380034,,,,,,,2025-04-08,1,,,,,ソウソウドウ,0
614,2290001109504,新規,0,2025-04-08,2025-04-08,株式会社サカナヤデザイン,,株式会社,福岡県,福岡市博多区,井相田３丁目９番４号,,40,132,8120881,,,,,,,2025-04-08,1,,,,,サカナヤデザイン,0
615,2290001109512,新規,0,2025-04-08,2025-04-08,株式会社ＢＡＳＥ,,株式会社,福岡県,大野城市,白木原２丁目１番１１－７０２号,,40,219,8160943,,,,,,,2025-04-08,1,,,,,ベイス,0
616,2290001109553,新規,0,2025-04-08,2025-04-08,Ｉｄｅａｌ　Ｈａｒｄｗａｒｅ株式会社,,株式会社,福岡県,糟屋郡須惠町,大字旅石４５番地２,,40,344,8112221,,,,,,,2025-04-08,1,,,,,アイディールハードウェア,0
617,2290001109578,新規,0,2025-04-08,2025-04-08,株式会社まどかミライ,,株式会社,福岡県,大野城市,月の浦４丁目８番１３号,,40,219,8160983,,,,,,,2025-04-08,1,,,,,マドカミライ,0
618,2290001109644,新規,0,2025-04-08,2025-04-08,株式会社ホツマ,,株式会社,福岡県,福岡市東区,千早２丁目１番１号東海住宅ビル２０２,,40,131,8130044,,,,,,,2025-04-08,1,,,,,,0
622,2290003016640,新規,0,2025-04-08,2025-04-08,合同会社ムーンストラック,,合同会社,福岡県,福岡市南区,大橋４丁目１番１０号村山ビル１階,,40,134,8150033,,,,,,,2025-04-08,1,,,,,ムーンストラック,0
623,2290003016649,新規,0,2025-04-08,2025-04-08,合同会社Ｓ・Ｃ・Ｆ,,合同会社,福岡県,糸島市,篠原西２丁目１２番１号,,40,230,8191129,,,,,,,2025-04-08,1,,,,,エスシーエフ,0
624,2290005019699,新規,0,2025-04-08,2025-04-08,税理士法人ラフター,,その他の設立登記法人,福岡県,福岡市中央区,高砂１丁目１番２５号ニューガイアオフィス天神４０２号,,40,133,8100011,,,,,,,2025-04-08,1,,,,,ラフター,0
625,2290803005017,新規,0,2025-04-08,2025-04-08,Ｐａｃｉｆｉｃ合同会社,,合同会社,福岡県,北九州市小倉北区,三郎丸２丁目６番１２号,,40,106,8020061,,,,,,,2025-04-08,1,,,,,パシフィック,0
627,2310001019543,新規,0,2025-04-08,2025-04-08,ＩＮＳＩＤＥ　ＦＩＥＬＤ株式会社,,株式会社,長崎県,長崎市,銅座町１０番３号,,42,201,8500841,,,,,,,2025-04-08,1,,,,,インサイドフィールド,0
630,2310003004980,新規,0,2025-04-08,2025-04-08,合同会社エンテック,,合同会社,長崎県,佐世保市,日宇町２８５５番地７,,42,202,8571151,,,,,,,2025-04-08,1,,,,,エンテック,0
631,2320001021036,新規,0,2025-04-08,2025-04-08,ジェイリースフットボールクラブ株式会社,,株式会社,大分県,大分市,都町１丁目３番１９号大分中央ビル４階,,44,201,8700034,,,,,,,2025-04-08,1,,,,,ジェイリースフットボールクラブ,0
632,2320001021044,新規,0,2025-04-08,2025-04-08,株式会社ＨＯＬ,,株式会社,大分県,日田市,中央１丁目２番２０号ファーネスト日田中央８０３号,,44,204,8770015,,,,,,,2025-04-08,1,,,,,エイチオーエル,0
635,2340003004805,新規,0,2025-04-08,2025-04-08,合同会社ＰＥＡＫＨＯＲＮ,,合同会社,鹿児島県,指宿市,開聞十町２５１９番１５,,46,210,8910603,,,,,,,2025-04-08,1,,,,,ピークホーン,0
636,2340005009843,新規,0,2025-04-08,2025-04-08,一般社団法人とこしえ鹿児島,,その他の設立登記法人,鹿児島県,鹿児島市,西田２丁目１６番１５号パティオス森２０３号,,46,201,8900046,,,,,,,2025-04-08,1,,,,,トコシエカゴシマ,0
638,2360001035032,新規,0,2025-04-08,2025-04-08,株式会社Ｏｆｆｉｃｅ　ＯＴＯＨＡ,,株式会社,沖縄県,那覇市,泉崎２丁目３番地２０三医会ビル６階,,47,201,9000021,,,,,,,2025-04-08,1,,,,,オフィスオトハ,0
640,2360005007201,新規,0,2025-04-08,2025-04-08,一般社団法人北部青色申告会,,その他の設立登記法人,沖縄県,名護市,城２丁目１４番２号,,47,209,9050013,,,,,,,2025-04-08,1,,,,,ホクブアオイロシンコクカイ,0
643,2370001052456,新規,0,2025-04-08,2025-04-08,株式会社庭匠和,,株式会社,宮城県,柴田郡大河原町,大谷字見城前５３番地３６,,04,321,9891201,,,,,,,2025-04-08,1,,,,,ニワショウナゴミ,0
644,2370001052464,新規,0,2025-04-08,2025-04-08,ＧＥＮＵＩＮＥＳ株式会社,,株式会社,宮城県,亘理郡亘理町,逢隈田沢字早川１０番地３グランスクエアＢ２０４,00138646,04,361,9892383,,,,,,,2025-04-08,1,,,,,ジェニュインズ,0
645,2370003007020,新規,0,2025-04-08,2025-04-08,三本木パワーＡ３合同会社,,合同会社,宮城県,大崎市,三本木伊場野字中ノ坊３番地,,04,215,9896303,,,,,,,2025-04-08,1,,,,,サンボンギパワーエイスリー,0
646,2380005012950,新規,0,2025-04-08,2025-04-08,行政書士法人かんの事務所,,その他の設立登記法人,福島県,郡山市,桑野１丁目４番７号,,07,203,9638025,,,,,,,2025-04-08,1,,,,,カンノジムショ,0
647,2390001017944,新規,0,2025-04-08,2025-04-08,株式会社エクセレント,,株式会社,山形県,山形市,鳥居ケ丘１番４８号,,06,201,9902433,,,,,,,2025-04-08,1,,,,,エクセレント,0
648,2390001017952,新規,0,2025-04-08,2025-04-08,株式会社ＰｏｌｉＧｒａ,,株式会社,山形県,酒田市,東中の口町１番２８号,,06,204,9980855,,,,,,,2025-04-08,1,,,,,ポリグラ,0
650,2410003004070,新規,0,2025-04-08,2025-04-08,チャート合同会社,,合同会社,秋田県,秋田市,新屋北浜町８‐４１‐１０１,,05,201,0101608,,,,,,,2025-04-08,1,,,,,チャート,0
661,2430003017467,新規,0,2025-04-08,2025-04-08,合同会社輝栄,,合同会社,北海道,札幌市白石区,東札幌五条４丁目４－３８－５０２,,01,104,0030005,,,,,,,2025-04-08,1,,,,,コウエイ,0
665,2460101007697,新規,0,2025-04-08,2025-04-08,株式会社Ｒｅａｌｉｚａｒ,,株式会社,北海道,河東郡音更町,南鈴蘭北４丁目４番地１２,,01,631,0800311,,,,,,,2025-04-08,1,,,,,レアリサール,0
669,2470001020659,新規,0,2025-04-08,2025-04-08,株式会社マイルハウス,,株式会社,香川県,綾歌郡綾川町,陶３０９３番地１,,37,387,7612103,,,,,,,2025-04-08,1,,,,,マイルハウス,0
670,2480001012804,新規,0,2025-04-08,2025-04-08,ＡＷＡ貿易株式会社,,株式会社,徳島県,板野郡上板町,西分字サビ２５番地１５,,36,405,7711330,,,,,,,2025-04-08,1,,,,,アワボウエキ,0
673,2490001011012,新規,0,2025-04-08,2025-04-08,修工業株式会社,,株式会社,高知県,高知市,北本町２丁目２番２５号北本町ビル４Ｆ,,39,201,7800056,,,,,,,2025-04-08,1,,,,,シュウコウギョウ,0
674,2700150129847,新規,0,2025-04-08,2025-04-08,岡崎本宿駅西土地区画整理組合,,その他,愛知県,岡崎市,十王町２丁目９番地,,23,202,4440034,,,,,,,2025-04-08,1,,,,,オカザキモトジユクエキニシトチクカクセイリクミアイ,0
675,2700150129855,新規,0,2025-04-08,2025-04-08,ＳＨＩＮＺＯ　ＬＡＮＫＡ　ＰＶＴ　ＬＴＤ,,外国会社等,千葉県,夷隅郡大多喜町,下大多喜３２４５番地１オフィス７号,,12,441,2980202,スリランカ民主社会主義共和国、キャンディ、バトゥゴダ、ブルゴハテンナ、Ｎｏ．４１２,,,,,,2025-04-08,1,,,,,シンゾランカプライベートリミテツド,0
685,3010001253774,新規,0,2025-04-08,2025-04-08,株式会社ウェルビーイングオダ,,株式会社,東京都,千代田区,丸の内１丁目１１番１号パシフィックセンチュリープレイス丸の内１３階,,13,101,1000005,,,,,,,2025-04-08,1,,,,,ウェルビーイングオダ,0
686,3010001253832,新規,0,2025-04-08,2025-04-08,株式会社演奏舞台,,株式会社,東京都,千代田区,九段北１丁目１０番２号タイヤビル５Ｆ,,13,101,1020073,,,,,,,2025-04-08,1,,,,,エンソウブタイ,0
687,3010001253849,新規,0,2025-04-08,2025-04-08,株式会社トップオブ,,株式会社,東京都,中央区,日本橋本石町４丁目５番８号,,13,102,1030021,,,,,,,2025-04-08,1,,,,,トップオブ,0
688,3010001253956,新規,0,2025-04-08,2025-04-08,株式会社バディ＆カンパニー,,株式会社,東京都,中央区,日本橋室町１丁目１１番１２号日本橋水野ビル７階,,13,102,1030022,,,,,,,2025-04-08,1,,,,,バディアンドカンパニー,0
689,3010001253964,新規,0,2025-04-08,2025-04-08,ジャパンネクサス株式会社,,株式会社,東京都,中央区,銀座１丁目２２番１１号,,13,102,1040061,,,,,,,2025-04-08,1,,,,,ジャパンネクサス,0
692,3010003046953,新規,0,2025-04-08,2025-04-08,ＧＮＮＲＦ１合同会社,,合同会社,東京都,千代田区,丸の内１丁目４番１号東京共同会計事務所内,,13,101,1000005,,,,,,,2025-04-08,1,,,,,ジーエヌエヌアールエフワン,0
693,3010005039897,新規,0,2025-04-08,2025-04-08,一般社団法人映画館に行こう実行委員会,,その他の設立登記法人,東京都,中央区,日本橋１丁目１７番１２号,,13,102,1030027,,,,,,,2025-04-08,1,,,,,エイガカンニイコウジッコウイインカイ,0
697,3010401189346,新規,0,2025-04-08,2025-04-08,ｇｌｏｂａｌ　ｈａｒｍｏｎｙ　ｈｏｌｄｉｎｇｓ株式会社,,株式会社,東京都,港区,新橋２丁目２０番１５号新橋駅前ビル１号館７１６,,13,103,1050004,,,,,,,2025-04-08,1,,,,,グローバルハーモニーホールディングス,0
698,3010401189370,新規,0,2025-04-08,2025-04-08,スリーアイ２号株式会社,,株式会社,東京都,港区,海岸１丁目２番２０号汐留ビルディング１２階三井松島ホールディングス株式会社内,,13,103,1050022,,,,,,,2025-04-08,1,,,,,スリーアイニゴウ,0
699,3010401189412,新規,0,2025-04-08,2025-04-08,ＭＣＰ３８株式会社,,株式会社,東京都,港区,元赤坂１丁目１番８号株式会社赤坂国際会計内,,13,103,1070051,,,,,,,2025-04-08,1,,,,,エムシーピースリーエイト,0
700,3010401189552,新規,0,2025-04-08,2025-04-08,ＧＲＣコネクト株式会社,,株式会社,東京都,港区,高輪１丁目２７番３７－９１９号,,13,103,1080074,,,,,,,2025-04-08,1,,,,,ジーアールシーコネクト,0
701,3010403034814,新規,0,2025-04-08,2025-04-08,のぞみ野島大川ソーラー合同会社,,合同会社,東京都,港区,芝５丁目２９番１９号ＰＭＯ田町ＩＶ８階,00138640,13,103,1080014,,,,,,,2025-04-08,1,,,,,ノゾミノジマオオカワソーラー,0
702,3010403034822,新規,0,2025-04-08,2025-04-08,のぞみ太陽の郷ホールディングス合同会社,,合同会社,東京都,港区,芝５丁目２９番１９号ＰＭＯ田町ＩＶ８階,00138634,13,103,1080014,,,,,,,2025-04-08,1,,,,,ノゾミタイヨウノサトホールディングス,0
703,3010403034847,新規,0,2025-04-08,2025-04-08,合同会社Ｐｉｓｔｉｓ,,合同会社,東京都,港区,南青山３丁目１番３６号青山丸竹ビル６Ｆ,,13,103,1070062,,,,,,,2025-04-08,1,,,,,ピスティス,0
705,3010405024292,新規,0,2025-04-08,2025-04-08,一般社団法人のぞみ野島大川ソーラー,,その他の設立登記法人,東京都,港区,芝５丁目２９番１９号ＰＭＯ田町ＩＶ８階,00138639,13,103,1080014,,,,,,,2025-04-08,1,,,,,ノゾミノジマオオカワソーラー,0
706,3010405024301,新規,0,2025-04-08,2025-04-08,一般社団法人のぞみソーラーホールディングス２,,その他の設立登記法人,東京都,港区,芝５丁目２９番１９号ＰＭＯ田町ＩＶ８階,00138635,13,103,1080014,,,,,,,2025-04-08,1,,,,,ノゾミソーラーホールディングスツー,0
714,3010701047526,新規,0,2025-04-08,2025-04-08,株式会社ｄａ　ｃａｐｏ,,株式会社,東京都,品川区,東五反田１丁目１５－７,,13,109,1410022,,,,,,,2025-04-08,1,,,,,ダカーポ,0
715,3010801035991,新規,0,2025-04-08,2025-04-08,由希リアル株式会社,,株式会社,東京都,大田区,蒲田３丁目１９番４－１５０５号,,13,111,1440052,,,,,,,2025-04-08,1,,,,,ユウキリアル,0
722,3011101111228,新規,0,2025-04-08,2025-04-08,株式会社Ｅｙｅ２Ｐｒｏｊｅｃｔ,,株式会社,東京都,新宿区,四谷三栄町１５番４号第一原嶋ビル６０１号,,13,104,1600008,,,,,,,2025-04-08,1,,,,,アイツープロジェクト,0
723,3011101111236,新規,0,2025-04-08,2025-04-08,株式会社レモン,,株式会社,東京都,新宿区,愛住町２０－１２,,13,104,1600005,,,,,,,2025-04-08,1,,,,,レモン,0
724,3011101111269,新規,0,2025-04-08,2025-04-08,ジャイアントキリング株式会社,,株式会社,東京都,新宿区,西新宿５丁目２４番１７号ＳＩＬ西新宿６階,,13,104,1600023,,,,,,,2025-04-08,1,,,,,ジャイアントキリング,0
725,3011201026235,新規,0,2025-04-08,2025-04-08,株式会社ＡＡ,,株式会社,東京都,中野区,中野１丁目３３－１,,13,114,1640001,,,,,,,2025-04-08,1,,,,,ダブルエー,0
726,3011301030475,新規,0,2025-04-08,2025-04-08,株式会社ｎｉｃｏｔｔｏ,,株式会社,東京都,杉並区,荻窪５丁目１５６番地２テイジン荻窪スカイレジテル４１６,,13,115,1670051,,,,,,,2025-04-08,1,,,,,ニコット,0
732,3011401027000,新規,0,2025-04-08,2025-04-08,株式会社ＮＥＸＡ,,株式会社,東京都,板橋区,板橋４丁目４－３白鳩マンション３０５,,13,119,1730004,,,,,,,2025-04-08,1,,,,,ネクサ,0
736,3011403004666,新規,0,2025-04-08,2025-04-08,ダンテジャパン合同会社,,合同会社,東京都,板橋区,富士見町１４－５－２０１,,13,119,1740062,,,,,,,2025-04-08,1,,,,,ダンテジャパン,0
737,3011501031901,新規,0,2025-04-08,2025-04-08,株式会社三春,,株式会社,東京都,北区,岩淵町５番３号,,13,117,1150041,,,,,,,2025-04-08,1,,,,,ミハル,0
741,3011703004184,新規,0,2025-04-08,2025-04-08,無憂合同会社,,合同会社,東京都,江戸川区,西小岩５丁目１３番１３号小出マンション１５９号室,,13,123,1330057,,,,,,,2025-04-08,1,,,,,ムユウ,0
744,3011801045873,新規,0,2025-04-08,2025-04-08,小王子株式会社,,株式会社,東京都,葛飾区,金町５丁目２３番８号６０２号室,,13,122,1250042,,,,,,,2025-04-08,1,,,,,ショウオウジ,0
748,3011803006782,新規,0,2025-04-08,2025-04-08,ファイナンシャル・フリーダム合同会社,,合同会社,東京都,足立区,六町３丁目５番２８－４０５号,,13,121,1210073,,,,,,,2025-04-08,1,,,,,ファイナンシャルフリーダム,0
749,3011805003448,新規,0,2025-04-08,2025-04-08,一般社団法人心和,,その他の設立登記法人,東京都,葛飾区,白鳥３丁目１９番９号,,13,122,1250063,,,,,,,2025-04-08,1,,,,,ココロナゴム,0
750,3012301014328,新規,0,2025-04-08,2025-04-08,チコア株式会社,,株式会社,東京都,町田市,原町田４丁目１１番１３号天野ビル４階,,13,209,1940013,,,,,,,2025-04-08,1,,,,,チコア,0
751,3012401042955,新規,0,2025-04-08,2025-04-08,株式会社ｂａｋｕｇａ　ａｎｉｍａｔｉｏｎ　ｃｏｍｐａｎｙ,,株式会社,東京都,三鷹市,下連雀６丁目１番３３号三鷹ビル３Ｆ,,13,204,1810013,,,,,,,2025-04-08,1,,,,,バクガアニメーションカンパニー,0
753,3012701018787,新規,0,2025-04-08,2025-04-08,株式会社ゴーイング・ワタナベ,,株式会社,東京都,小平市,花小金井２丁目２４番２３号,,13,211,1870002,,,,,,,2025-04-08,1,,,,,ゴーイングワタナベ,0
760,3013301054082,新規,0,2025-04-08,2025-04-08,ＫＫ　ＳＹＳＴＥＭ　ＳＴＵＤＩＯ株式会社,,株式会社,東京都,豊島区,高松３丁目４番９号,,13,116,1710042,,,,,,,2025-04-08,1,,,,,ケイケイシステムスタジオ,0
764,3020001162140,新規,0,2025-04-08,2025-04-08,株式会社Ｌｉｆｅ＆Ｍｅｄｉｃａｌ　Ｓｏｌｕｔｉｏｎｓ,,株式会社,神奈川県,横浜市港北区,大曽根２丁目４５番８号,,14,109,2220003,,,,,,,2025-04-08,1,,,,,ライフアンドメディカルソリューションズ,0
765,3020001162198,新規,0,2025-04-08,2025-04-08,株式会社Ａｍｕｆｕｒｅａ,,株式会社,神奈川県,横浜市港北区,小机町５９番地コスモ横浜小机４０１号室,,14,109,2220036,,,,,,,2025-04-08,1,,,,,アムフレア,0
766,3020001162231,新規,0,2025-04-08,2025-04-08,エムビーテックＥＳＰ株式会社,,株式会社,神奈川県,横浜市港北区,新横浜３丁目２番地３,,14,109,2220033,,,,,,,2025-04-08,1,,,,,エムビーテックイーエスピー,0
767,3020001162248,新規,0,2025-04-08,2025-04-08,一野株式会社,,株式会社,神奈川県,川崎市多摩区,中野島４丁目１９番１０号ドブリーデン中野島１０５,,14,135,2140012,,,,,,,2025-04-08,1,,,,,イチノ,0
768,3020001162264,新規,0,2025-04-08,2025-04-08,ワタツミ株式会社,,株式会社,神奈川県,横浜市泉区,中田南１丁目１３番４号,,14,116,2450014,,,,,,,2025-04-08,1,,,,,ワタツミ,0
773,3020003028141,新規,0,2025-04-08,2025-04-08,合同会社湘南エアデザイン,,合同会社,神奈川県,横浜市西区,浅間町１丁目４－３ウィザードビル４０２,,14,103,2200072,,,,,,,2025-04-08,1,,,,,ショウナンエアデザイン,0
774,3020003028216,新規,0,2025-04-08,2025-04-08,Ｌｉ　Ａｒｃｈｉｔｅｃｔｕｒｅ合同会社,,合同会社,神奈川県,川崎市川崎区,駅前本町１１番地２川崎フロンティアビル４階,,14,131,2100007,,,,,,,2025-04-08,1,,,,,リアーキテクチャ,0
778,3021001084861,新規,0,2025-04-08,2025-04-08,株式会社Ｗａｌｐａｓｓａｇｅ,,株式会社,神奈川県,相模原市緑区,橋本２丁目４番４号１階,,14,151,2520143,,,,,,,2025-04-08,1,,,,,ワェルパサージュ,0
783,3021003015831,新規,0,2025-04-08,2025-04-08,Ｓｕｇａｒｌｉｎｋ合同会社,,合同会社,神奈川県,綾瀬市,大上５丁目６番２１号,,14,218,2521104,,,,,,,2025-04-08,1,,,,,シュガーリンク,0
791,3030001165654,新規,0,2025-04-08,2025-04-08,株式会社Ｃ‐エターナル,,株式会社,埼玉県,所沢市,北野新町２丁目１７番２０号,,11,208,3591155,,,,,,,2025-04-08,1,,,,,シーエターナル,0
792,3030001165811,新規,0,2025-04-08,2025-04-08,Ｒａｉｓｅ　ｏｎ株式会社,,株式会社,埼玉県,さいたま市岩槻区,本町５丁目１０－１５,,11,110,3390057,,,,,,,2025-04-08,1,,,,,レイズオン,0
793,3030001165844,新規,0,2025-04-08,2025-04-08,株式会社ｇｏｄａｉ　Ｂｌｏｏｍｔｅｃｈ,,株式会社,埼玉県,久喜市,河原井町１９番地,,11,232,3460028,,,,,,,2025-04-08,1,,,,,ゴダイブルームテック,0
794,3030001165852,新規,0,2025-04-08,2025-04-08,株式会社ヒコナ,,株式会社,埼玉県,富士見市,大字水子１５３５番地２２,,11,235,3540011,,,,,,,2025-04-08,1,,,,,ヒコナ,0
795,3030001165860,新規,0,2025-04-08,2025-04-08,株式会社折原果樹園,,株式会社,埼玉県,白岡市,太田新井５３２番地１,,11,246,3490225,,,,,,,2025-04-08,1,,,,,オリハラカジュエン,0
796,3030001165885,新規,0,2025-04-08,2025-04-08,Ｄｅｅｐ　Ｍａｔｃｈ株式会社,,株式会社,埼玉県,さいたま市南区,神明１丁目１６番３号,,11,108,3360023,,,,,,,2025-04-08,1,,,,,ディープマッチ,0
801,3030003026508,新規,0,2025-04-08,2025-04-08,合同会社大兼,,合同会社,埼玉県,春日部市,西金野井２３２番地１サニーグローヴ２０２,,11,214,3440112,,,,,,,2025-04-08,1,,,,,ダイカネ,0
802,3030003026532,新規,0,2025-04-08,2025-04-08,合同会社ＴｗｉｎＲａｙ,,合同会社,埼玉県,さいたま市中央区,新中里４丁目１６番９パーセル武創２－４０１号室,,11,105,3380011,,,,,,,2025-04-08,1,,,,,ツインレイ,0
803,3030005022109,新規,0,2025-04-08,2025-04-08,医療法人社団アイエス,,その他の設立登記法人,埼玉県,上尾市,宮本町３番２号Ａｇｅｏ－ｔｏｗｎ２Ｆ,,11,219,3620036,,,,,,,2025-04-08,1,,,,,アイエス,0
804,3040001138097,新規,0,2025-04-08,2025-04-08,株式会社ＴＹ社,,株式会社,千葉県,市川市,高石神３１番１７号,,12,203,2720814,,,,,,,2025-04-08,1,,,,,ティーワイシャ,0
805,3040001138155,新規,0,2025-04-08,2025-04-08,エイトコンサルタント株式会社,,株式会社,千葉県,柏市,大井８２９番地３,,12,217,2770902,,,,,,,2025-04-08,1,,,,,エイトコンサルタント,0
806,3040001138163,新規,0,2025-04-08,2025-04-08,株式会社ロマックス,,株式会社,千葉県,市原市,下野６８番地２,,12,219,2900154,,,,,,,2025-04-08,1,,,,,ロマックス,0
807,3040001138171,新規,0,2025-04-08,2025-04-08,株式会社ＳＴＲ,,株式会社,千葉県,千葉市若葉区,桜木５丁目９番１８号,,12,104,2640028,,,,,,,2025-04-08,1,,,,,エスティーアール,0
808,3040001138196,新規,0,2025-04-08,2025-04-08,ＩＷＡ　Ｉｍｐｌｅｍｅｎｔｓ株式会社,,株式会社,千葉県,柏市,みどり台３丁目２２番１０号,,12,217,2770884,,,,,,,2025-04-08,1,,,,,アイダブリュエーインプレメンツ,0
809,3040001138205,新規,0,2025-04-08,2025-04-08,株式会社トリニティ,,株式会社,千葉県,松戸市,栄町西３丁目１１１２番地の３,,12,207,2710061,,,,,,,2025-04-08,1,,,,,トリニティ,0
810,3040001138221,新規,0,2025-04-08,2025-04-08,株式会社エム・イー・コンサルティング,,株式会社,千葉県,千葉市美浜区,打瀬３丁目５番地マリンフォート３－２０１号,,12,106,2610013,,,,,,,2025-04-08,1,,,,,エムイーコンサルティング,0
814,3050001056439,新規,0,2025-04-08,2025-04-08,株式会社ＦＯＲ　ＬＩＮＫ,,株式会社,茨城県,潮来市,潮来９５番地２,,08,223,3112424,,,,,,,2025-04-08,1,,,,,フォーリンク,0
816,3050003009171,新規,0,2025-04-08,2025-04-08,合同会社隼組,,合同会社,茨城県,潮来市,大塚野２丁目４番地２３,,08,223,3112426,,,,,,,2025-04-08,1,,,,,ハヤブサグミ,0
819,3060001038072,新規,0,2025-04-08,2025-04-08,株式会社Ａ‐ＴＥＣＨ,,株式会社,栃木県,宇都宮市,簗瀬町２２７７番地２,,09,201,3210933,,,,,,,2025-04-08,1,,,,,エイテック,0
820,3060001038089,新規,0,2025-04-08,2025-04-08,株式会社コウガジャパン,,株式会社,栃木県,栃木市,藤岡町甲２５４９番地６,,09,203,3231105,,,,,,,2025-04-08,1,,,,,コウガジャパン,0
824,3070001042800,新規,0,2025-04-08,2025-04-08,パナソニック・ヤンマーＧＨＰ開発製造株式会社,,株式会社,群馬県,邑楽郡大泉町,坂田１丁目１番１号,,10,524,3700532,,,,,,,2025-04-08,1,,,,,パナソニックヤンマージーエイチピーカイハツセイゾウ,0
825,3070001042817,新規,0,2025-04-08,2025-04-08,株式会社ＮＥＤＵ　ＤＥＬＩＶＥＲＹ　ＳＥＲＶＩＣＥ,,株式会社,群馬県,安中市,原市１７２９番地４,,10,211,3790133,,,,,,,2025-04-08,1,,,,,ネヅデリバリーサービス,0
827,3070003005862,新規,0,2025-04-08,2025-04-08,ＡＮ　ＫＨＡＮＧ合同会社,,合同会社,群馬県,前橋市,総社町植野５５３番地２レオパレスアクシオン１０６号,,10,201,3710851,,,,,,,2025-04-08,1,,,,,アンカン,0
831,3080001026843,新規,0,2025-04-08,2025-04-08,株式会社ＦＯＲ　ＯＮＥ,,株式会社,静岡県,島田市,金谷根岸町８５番地の１,,22,209,4280018,,,,,,,2025-04-08,1,,,,,フォーワン,0
838,3080401027846,新規,0,2025-04-08,2025-04-08,株式会社Ｂａｂｙ　ｃａｒｅくわのわ,,株式会社,静岡県,浜松市中央区,葵西３丁目２番１３号,,22,138,4338111,,,,,,,2025-04-08,1,,,,,ベイビーケアクワノワ,0
840,3090001019202,新規,0,2025-04-08,2025-04-08,株式会社花屋丹澤,,株式会社,山梨県,中央市,西花輪３６３７番地１,,19,214,4093843,,,,,,,2025-04-08,1,,,,,ハナヤタンザワ,0
843,3110001039180,新規,0,2025-04-08,2025-04-08,株式会社克味製麺所,,株式会社,新潟県,十日町市,高田町３丁目南３０４番地６,,15,210,9480065,,,,,,,2025-04-08,1,,,,,カツミセイメンジョ,0
858,3120001274207,新規,0,2025-04-08,2025-04-08,＿宝株式会社,00138660,株式会社,大阪府,大阪市西成区,出城１丁目８番１９－４０３号,,27,122,5570024,,,,,,,2025-04-08,1,,,,,センボウ,0
859,3120001274297,新規,0,2025-04-08,2025-04-08,株式会社Ｔ‐ＲＩＡＬ,,株式会社,大阪府,大阪市東住吉区,矢田１丁目２７番２号サンパルス西野１０５号室,,27,121,5460023,,,,,,,2025-04-08,1,,,,,トライアル,0
860,3120001274306,新規,0,2025-04-08,2025-04-08,株式会社解剛,,株式会社,大阪府,大阪市西成区,萩之茶屋２丁目７番２５号松竹荘１階２号室,,27,122,5570004,,,,,,,2025-04-08,1,,,,,カイゴウ,0
861,3120001274330,新規,0,2025-04-08,2025-04-08,株式会社カメハウス,,株式会社,大阪府,大阪市住吉区,長居西１丁目５－１８,,27,120,5580002,,,,,,,2025-04-08,1,,,,,カメハウス,0
865,3120101071388,新規,0,2025-04-08,2025-04-08,株式会社エルミナ,,株式会社,大阪府,和泉市,唐国町２丁目１０番３－８号,,27,219,5941151,,,,,,,2025-04-08,1,,,,,エルミナ,0
873,3122001039069,新規,0,2025-04-08,2025-04-08,株式会社カタミ,,株式会社,大阪府,八尾市,桂町５丁目１８番１２号,,27,212,5810823,,,,,,,2025-04-08,1,,,,,カタミ,0
876,3130001079324,新規,0,2025-04-08,2025-04-08,ＫＫロジスティクス株式会社,,株式会社,京都府,八幡市,川口天神崎２６番１,,26,210,6148106,,,,,,,2025-04-08,1,,,,,ケイケイロジスティクス,0
877,3130001079407,新規,0,2025-04-08,2025-04-08,株式会社リーガルアドコム,,株式会社,京都府,京都市中京区,三条通烏丸西入御倉町８５番地１ＫＤＸ烏丸ビル４階,,26,104,6048166,,,,,,,2025-04-08,1,,,,,リーガルアドコム,0
880,3140001137972,新規,0,2025-04-08,2025-04-08,株式会社アルゴ,,株式会社,兵庫県,姫路市,下手野５丁目２３番４４－２号,,28,201,6700063,,,,,,,2025-04-08,1,,,,,アルゴ,0
881,3140001137997,新規,0,2025-04-08,2025-04-08,株式会社神田工務店,,株式会社,兵庫県,神戸市西区,玉津町田中４７５番地,,28,111,6512147,,,,,,,2025-04-08,1,,,,,カンダコウムテン,0
882,3140001138021,新規,0,2025-04-08,2025-04-08,株式会社Ｌｉｂｅｒｔｅ,,株式会社,兵庫県,神戸市中央区,磯辺通１丁目１番１８号カサベラ国際プラザビル７０７号室,,28,110,6510084,,,,,,,2025-04-08,1,,,,,リベルテ,0
883,3140001138054,新規,0,2025-04-08,2025-04-08,株式会社Ａｑｕａ　Ｍｅｄｉａ,,株式会社,兵庫県,川西市,けやき坂２丁目６番地の１０,,28,217,6660145,,,,,,,2025-04-08,1,,,,,アクアメディア,0
884,3140001138062,新規,0,2025-04-08,2025-04-08,株式会社アシストワーキング,,株式会社,兵庫県,神戸市東灘区,御影郡家１丁目２６番１０－１０１号,,28,101,6580048,,,,,,,2025-04-08,1,,,,,アシストワーキング,0
888,3140003021877,新規,0,2025-04-08,2025-04-08,合同会社Ｈｏｎｅｙ　ｃｏｌｏｒ,,合同会社,兵庫県,加古川市,別府町石町６番５,,28,210,6750127,,,,,,,2025-04-08,1,,,,,ハニーカラー,0
889,3140003021885,新規,0,2025-04-08,2025-04-08,合同会社エヌアセット,,合同会社,兵庫県,加古川市,尾上町長田３７７－２９,,28,210,6750024,,,,,,,2025-04-08,1,,,,,エヌアセット,0
892,3150001028015,新規,0,2025-04-08,2025-04-08,株式会社ＫＯＯＳ,,株式会社,奈良県,生駒市,萩の台１００４－２４,,29,209,6300224,,,,,,,2025-04-08,1,,,,,クース,0
894,3150003003552,新規,0,2025-04-08,2025-04-08,合同会社奈良県酪農ヘルパー,,合同会社,奈良県,橿原市,城殿町４５９番地,,29,205,6340033,,,,,,,2025-04-08,1,,,,,ナラケンラクノウヘルパー,0
896,3160001026645,新規,0,2025-04-08,2025-04-08,株式会社マキホールディングス,,株式会社,滋賀県,大津市,粟津町２番６３号,,25,201,5200832,,,,,,,2025-04-08,1,,,,,マキホールディングス,0
897,3160001026653,新規,0,2025-04-08,2025-04-08,読売近畿販売株式会社,,株式会社,滋賀県,草津市,南笠東２丁目７番７号,,25,206,5250071,,,,,,,2025-04-08,1,,,,,ヨミウリキンキハンバイ,0
908,3180001166175,新規,0,2025-04-08,2025-04-08,Ａｔａｒｉ　Ｃｏｎｓｕｌｔｉｎｇ株式会社,,株式会社,愛知県,名古屋市中区,金山１丁目１４番１６号トキワビル５階Ｖｏｌｔａｇｅ名古屋,,23,106,4600022,,,,,,,2025-04-08,1,,,,,アタリコンサルティング,0
909,3180001166200,新規,0,2025-04-08,2025-04-08,株式会社鹿野建設,,株式会社,愛知県,大府市,横根町箕手６９番地の４２,,23,223,4740011,,,,,,,2025-04-08,1,,,,,シカノケンセツ,0
910,3180001166209,新規,0,2025-04-08,2025-04-08,株式会社潤＆信,,株式会社,愛知県,名古屋市中村区,名駅３丁目２５－６一階,,23,105,4500002,,,,,,,2025-04-08,1,,,,,ジュンアンドシン,0
911,3180001166241,新規,0,2025-04-08,2025-04-08,ＵＬＴＥＣ株式会社,,株式会社,愛知県,名古屋市千種区,不老町１番地名古屋大学,,23,101,4640814,,,,,,,2025-04-08,1,,,,,ウルテック,0
912,3180001166282,新規,0,2025-04-08,2025-04-08,株式会社ＧＭＧコーポレーション,,株式会社,愛知県,稲沢市,祖父江町山崎上屋敷３９３番地,,23,220,4950002,,,,,,,2025-04-08,1,,,,,ジーエムジーコーポレーション,0
913,3180001166316,新規,0,2025-04-08,2025-04-08,株式会社ＳＥＣＯＮＤ　ＮＵＴＳ,,株式会社,愛知県,名古屋市中区,錦３丁目２２－７アークビル６階Ｂ,,23,106,4600003,,,,,,,2025-04-08,1,,,,,セカンドナッツ,0
917,3180003028258,新規,0,2025-04-08,2025-04-08,合同会社ランドバリュー,,合同会社,愛知県,清須市,西田中松本７３番地ＶＩＬＬＡＧＥ３０２,,23,233,4520933,,,,,,,2025-04-08,1,,,,,ランドバリュー,0
920,3180301039683,新規,0,2025-04-08,2025-04-08,株式会社ＧＭガーデン,,株式会社,愛知県,岡崎市,欠町字石ケ崎下タ通５番地１,,23,202,4440011,,,,,,,2025-04-08,1,,,,,ジーエムガーデン,0
925,3200001043628,新規,0,2025-04-08,2025-04-08,株式会社ヤスダ電工,,株式会社,岐阜県,大垣市,稲葉東３丁目２７番地,,21,202,5032224,,,,,,,2025-04-08,1,,,,,ヤスダデンコウ,0
928,3210001020122,新規,0,2025-04-08,2025-04-08,株式会社ＡＸＥＬＬ,,株式会社,福井県,敦賀市,野神４０号１４５番地の２,,18,202,9140121,,,,,,,2025-04-08,1,,,,,アクセル,0
935,3240001064760,新規,0,2025-04-08,2025-04-08,株式会社Ｅ‐Ｐｒｏｐｅｒｔｙ,,株式会社,広島県,広島市佐伯区,海老園１丁目１２番２８号,,34,108,7315135,,,,,,,2025-04-08,1,,,,,イープロパティ,0
936,3240001064777,新規,0,2025-04-08,2025-04-08,株式会社ＢＥＧＩＮＮＩＮＧ,,株式会社,広島県,広島市安佐南区,古市４丁目３番１０号,,34,105,7310123,,,,,,,2025-04-08,1,,,,,ビギニング,0
942,3260001040090,新規,0,2025-04-08,2025-04-08,センターバレー株式会社,,株式会社,岡山県,岡山市中区,西川原１丁目８番３２－３号,,33,102,7038258,,,,,,,2025-04-08,1,,,,,センターバレー,0
951,3290001109528,新規,0,2025-04-08,2025-04-08,株式会社グレープ,,株式会社,福岡県,八女市,本２８３番地６,,40,210,8340015,,,,,,,2025-04-08,1,,,,,グレープ,0
952,3290001109552,新規,0,2025-04-08,2025-04-08,株式会社ＩＫＫＡ,,株式会社,福岡県,福岡市中央区,白金１丁目３番４号,,40,133,8100012,,,,,,,2025-04-08,1,,,,,イッカ,0
955,3290005019707,新規,0,2025-04-08,2025-04-08,税理士法人宮崎税理士事務所,,その他の設立登記法人,福岡県,福岡市博多区,美野島２丁目６番４号,,40,132,8120017,,,,,,,2025-04-08,1,,,,,ミヤザキゼイリシジムショ,0
962,3320003004624,新規,0,2025-04-08,2025-04-08,合同会社ｅｅ,,合同会社,大分県,大分市,大手町１丁目３番７号,,44,201,8700022,,,,,,,2025-04-08,1,,,,,イーイー,0
965,3340001027237,新規,0,2025-04-08,2025-04-08,株式会社ＫＬＳ,,株式会社,鹿児島県,鹿児島市,小川町１７番１１号２０１,,46,201,8920817,,,,,,,2025-04-08,1,,,,,クルス,0
971,3360001034999,新規,0,2025-04-08,2025-04-08,株式会社ＣＬＥＡＮ　ＳＭＩＬＥ,,株式会社,沖縄県,中頭郡嘉手納町,字嘉手納４５８番地９金城アパート３０２,,47,325,9040203,,,,,,,2025-04-08,1,,,,,クリーンスマイル,0
976,3370001052463,新規,0,2025-04-08,2025-04-08,樺廣建総株式会社,,株式会社,宮城県,仙台市若林区,霞目２丁目１５番３０－２０１号,,04,103,9840035,,,,,,,2025-04-08,1,,,,,カヒロケンソウ,0
978,3390003002373,新規,0,2025-04-08,2025-04-08,合同会社吉園,,合同会社,山形県,鶴岡市,中橋字中入１９番地,,06,203,9970362,,,,,,,2025-04-08,1,,,,,キチエン,0
981,3400001017000,新規,0,2025-04-08,2025-04-08,株式会社フォレストファーム女鹿口,,株式会社,岩手県,二戸郡一戸町,奥中山字西田子９６７番地２,,03,524,0285134,,,,,,,2025-04-08,1,,,,,フォレストファームメガグチ,0
982,3410001014112,新規,0,2025-04-08,2025-04-08,株式会社アグリアカガワ,,株式会社,秋田県,山本郡八峰町,峰浜目名潟字中渡下台３９番地２,,05,349,0182502,,,,,,,2025-04-08,1,,,,,アグリアカガワ,0
984,3410003004078,新規,0,2025-04-08,2025-04-08,あきた発掘プロジェクト合同会社,,合同会社,秋田県,大仙市,幸町３番２７号,,05,212,0140012,,,,,,,2025-04-08,1,,,,,アキタハックツプロジェクト,0
985,3420001019069,新規,0,2025-04-08,2025-04-08,株式会社小笠原工務店,,株式会社,青森県,青森市,大字後萢字前橋１番地７,00138509,02,201,0300932,,,,,,,2025-04-08,1,,,,,オガサワラコウムテン,0
993,3440003001675,新規,0,2025-04-08,2025-04-08,合同会社ＢｌｕｅＳｋｙ,,合同会社,北海道,函館市,船見町２番２８－１０２号,,01,202,0400055,,,,,,,2025-04-08,1,,,,,ブルースカイ,0
996,3460101007696,新規,0,2025-04-08,2025-04-08,株式会社人と風,,株式会社,北海道,河西郡芽室町,東一条２丁目７番地２,,01,637,0820011,,,,,,,2025-04-08,1,,,,,ヒトトカゼ,0
997,3460103001706,新規,0,2025-04-08,2025-04-08,合同会社かさい,,合同会社,北海道,河東郡音更町,柳町仲区１０番地１,,01,631,0800122,,,,,,,2025-04-08,1,,,,,カサイ,0
999,3470005006620,新規,0,2025-04-08,2025-04-08,一般社団法人ハブラボ,,その他の設立登記法人,香川県,高松市,六条町１２７０番地２,,37,201,7610303,,,,,,,2025-04-08,1,,,,,,0
1006,3700150129854,新規,0,2025-04-08,2025-04-08,ＲＯＭＡＮ　ＭＯＴＯＲＳ,,外国会社等,千葉県,いすみ市,大原９２１０番地５－Ｄ,,12,238,2980004,スリランカ民主社会主義共和国、キャンディ、アクラナ、ドダンゴッラ、Ｎｏ．１７７／Ａ,,,,,,2025-04-08,1,,,,,ロマンモータース,0
1018,4010001253815,新規,0,2025-04-08,2025-04-08,株式会社コマースコネクト,,株式会社,東京都,千代田区,九段北４丁目２番１号市ヶ谷スクエアビル,,13,101,1020073,,,,,,,2025-04-08,1,,,,,コマースコネクト,0
1019,4010001253889,新規,0,2025-04-08,2025-04-08,株式会社ＵＯＮ,,株式会社,東京都,千代田区,神田須田町１丁目７番８号,,13,101,1010041,,,,,,,2025-04-08,1,,,,,ウオン,0
1020,4010003046993,新規,0,2025-04-08,2025-04-08,合同会社釜堀川グリーンみらい発電会社,,合同会社,東京都,中央区,銀座１丁目１４番５号銀座ウイングビル,,13,102,1040061,,,,,,,2025-04-08,1,,,,,カマホリカワグリーンミライハツデン,0
1030,4010401189428,新規,0,2025-04-08,2025-04-08,ＴＭＹホールディングス株式会社,,株式会社,東京都,港区,六本木７丁目１７番１０号ブランズ六本木１０１,,13,103,1060032,,,,,,,2025-04-08,1,,,,,ティーエムワイホールディングス,0
1031,4010401189436,新規,0,2025-04-08,2025-04-08,株式会社ツボタマ,,株式会社,東京都,港区,芝大門１丁目１１番８－９０１号,,13,103,1050012,,,,,,,2025-04-08,1,,,,,ツボタマ,0
1032,4010403034813,新規,0,2025-04-08,2025-04-08,のぞみ一箕ソーラー合同会社,,合同会社,東京都,港区,芝５丁目２９番１９号ＰＭＯ田町ＩＶ８階,00138638,13,103,1080014,,,,,,,2025-04-08,1,,,,,ノゾミイッキソーラー,0
1033,4010403034821,新規,0,2025-04-08,2025-04-08,のぞみ富士ソーラー合同会社,,合同会社,東京都,港区,芝５丁目２９番１９号ＰＭＯ田町ＩＶ８階,00138632,13,103,1080014,,,,,,,2025-04-08,1,,,,,ノゾミフジソーラー,0
1034,4010405024291,新規,0,2025-04-08,2025-04-08,一般社団法人のぞみ一箕ソーラー,,その他の設立登記法人,東京都,港区,芝５丁目２９番１９号ＰＭＯ田町ＩＶ８階,00138637,13,103,1080014,,,,,,,2025-04-08,1,,,,,ノゾミイッキソーラー,0
1035,4010405024300,新規,0,2025-04-08,2025-04-08,一般社団法人のぞみ太陽の郷ホールディングス,,その他の設立登記法人,東京都,港区,芝５丁目２９番１９号ＰＭＯ田町ＩＶ８階,00138633,13,103,1080014,,,,,,,2025-04-08,1,,,,,ノゾミタイヨウノサトホールディングス,0
1038,4010601067061,新規,0,2025-04-08,2025-04-08,株式会社ルミナリス,,株式会社,東京都,墨田区,両国２丁目３－７ロイヤルクレスト１０３,,13,107,1300026,,,,,,,2025-04-08,1,,,,,ルミナリス,0
1039,4010601067078,新規,0,2025-04-08,2025-04-08,株式会社アストリックス,,株式会社,東京都,墨田区,石原２丁目１３－１田中ビル４０１,,13,107,1300011,,,,,,,2025-04-08,1,,,,,アストリックス,0
1045,4010701047509,新規,0,2025-04-08,2025-04-08,株式会社モノリバ,,株式会社,東京都,品川区,南大井２丁目１１番４号,,13,109,1400013,,,,,,,2025-04-08,1,,,,,モノリバ,0
1046,4010701047525,新規,0,2025-04-08,2025-04-08,株式会社ナーサリーパートナーズ,,株式会社,東京都,品川区,西五反田１丁目３番８号,,13,109,1410031,,,,,,,2025-04-08,1,,,,,ナーサリーパートナーズ,0
1049,4010801035990,新規,0,2025-04-08,2025-04-08,株式会社ビックマウス東京,,株式会社,東京都,大田区,池上３丁目２２番１３号アーバン池上４０１,,13,111,1460082,,,,,,,2025-04-08,1,,,,,ビックマウストウキョウ,0
1053,4010903009827,新規,0,2025-04-08,2025-04-08,合同会社浅草１丁目開発,,合同会社,東京都,世田谷区,北沢４丁目２６番１号,,13,112,1550031,,,,,,,2025-04-08,1,,,,,アサクサイッチョウメカイハツ,0
1057,4011001168706,新規,0,2025-04-08,2025-04-08,株式会社ＭＡＶＮＩＱ,,株式会社,東京都,目黒区,目黒本町５丁目１３番５号ロータス武蔵小山ＩＩ－１０２,00138647,13,110,1520002,,,,,,,2025-04-08,1,,,,,マブニック,0
1058,4011001168796,新規,0,2025-04-08,2025-04-08,ＷＨＩＴＥ　ＤＥＳＩＧＮ　ＬＡＢ株式会社,,株式会社,東京都,渋谷区,道玄坂１丁目１０番８号渋谷道玄坂東急ビル２Ｆ－Ｃ,,13,113,1500043,,,,,,,2025-04-08,1,,,,,ホワイトデザインラボ,0
1060,4011003021334,新規,0,2025-04-08,2025-04-08,合同会社Ｂｒｉｏ,,合同会社,東京都,渋谷区,恵比寿４丁目５－２５－２０１,,13,113,1500013,,,,,,,2025-04-08,1,,,,,ブリオ,0
1061,4011005010938,新規,0,2025-04-08,2025-04-08,一般社団法人ＣＬＡＳＳ,,その他の設立登記法人,東京都,目黒区,青葉台１丁目２番５号レジーナ代官山,,13,110,1530042,,,,,,,2025-04-08,1,,,,,クラス,0
1067,4011101111193,新規,0,2025-04-08,2025-04-08,株式会社Ｌカート,,株式会社,東京都,新宿区,新宿２丁目１３－１０－１００５,,13,104,1600022,,,,,,,2025-04-08,1,,,,,エルカート,0
1068,4011101111210,新規,0,2025-04-08,2025-04-08,Ｇｏｌｄ　Ｈｉｌｌｓ株式会社,,株式会社,東京都,新宿区,西新宿３丁目１４番３号１階,,13,104,1600023,,,,,,,2025-04-08,1,,,,,ゴールドヒルズ,0
1069,4011101111235,新規,0,2025-04-08,2025-04-08,株式会社三晃エスエージェント,,株式会社,東京都,新宿区,新宿１丁目３６番２号,,13,104,1600022,,,,,,,2025-04-08,1,,,,,サンコウエスエージェント,0
1070,4011101111251,新規,0,2025-04-08,2025-04-08,株式会社マジオＤＳ西日本,,株式会社,東京都,新宿区,新宿５丁目１７番５号,,13,104,1600022,,,,,,,2025-04-08,1,,,,,マジオディーエスニシニホン,0
1071,4011101111284,新規,0,2025-04-08,2025-04-08,株式会社ｍｕｕｉ設計事務所,,株式会社,東京都,新宿区,左門町１番地１３第一凡ビル４階,,13,104,1600017,,,,,,,2025-04-08,1,,,,,ムーイセッケイジムショ,0
1072,4011201026250,新規,0,2025-04-08,2025-04-08,ＲＭＶＬ＆Ｃｏ株式会社,,株式会社,東京都,中野区,大和町１丁目１３番９号ＴＡＳ高円寺レジデンス５０２,,13,114,1650034,,,,,,,2025-04-08,1,,,,,アールエムブイエルアンドシーオー,0
1074,4011303005482,新規,0,2025-04-08,2025-04-08,合同会社セカンド,,合同会社,東京都,杉並区,高円寺南２丁目１３番１３号アーバンプレイス高円寺南Ａ２０１,,13,115,1660003,,,,,,,2025-04-08,1,,,,,セカンド,0
1077,4011601028549,新規,0,2025-04-08,2025-04-08,株式会社アイル,,株式会社,東京都,練馬区,下石神井４丁目１番１０号ＭＮビル,,13,120,1770042,,,,,,,2025-04-08,1,,,,,アイル,0
1079,4011703004183,新規,0,2025-04-08,2025-04-08,Ｓｏａｒ　Ｓｔａｒ合同会社,,合同会社,東京都,江戸川区,西小岩５丁目１３番１３号小出マンション１０９号室,,13,123,1330057,,,,,,,2025-04-08,1,,,,,ソアスター,0
1081,4011801045906,新規,0,2025-04-08,2025-04-08,株式会社アンドワン,,株式会社,東京都,葛飾区,青戸４丁目５番９号,,13,122,1250062,,,,,,,2025-04-08,1,,,,,アンドワン,0
1082,4011801045947,新規,0,2025-04-08,2025-04-08,株式会社独自路線,,株式会社,東京都,足立区,関原３丁目４５番６―１０２号ＳＱＵＡＲＥＳＮｉｓｈｉａｒａｉ,,13,121,1230852,,,,,,,2025-04-08,1,,,,,ドクジロセン,0
1084,4011803006781,新規,0,2025-04-08,2025-04-08,合同会社サードニクスワークス・トウキョウ,,合同会社,東京都,葛飾区,東立石４丁目３５番６号,,13,122,1240013,,,,,,,2025-04-08,1,,,,,サードニクスワークストウキョウ,0
1089,4012401042888,新規,0,2025-04-08,2025-04-08,株式会社ＥＴＯＩＬＥ,,株式会社,東京都,調布市,下石原１丁目２０番地３－１０１,,13,208,1820034,,,,,,,2025-04-08,1,,,,,エトワール,0
1090,4012401042962,新規,0,2025-04-08,2025-04-08,正地所株式会社,,株式会社,東京都,調布市,多摩川５丁目１１番地３ファインスクェア調布多摩川２０２,,13,208,1820025,,,,,,,2025-04-08,1,,,,,タダシジショ,0
1091,4012403007047,新規,0,2025-04-08,2025-04-08,千年王国文化研究所合同会社,,合同会社,東京都,調布市,富士見町２丁目４番地１,,13,208,1820033,,,,,,,2025-04-08,1,,,,,センネンオウコクブンカケンキュウジョ,0
1099,4020001162057,新規,0,2025-04-08,2025-04-08,株式会社ＡＱＵＡＳ,,株式会社,神奈川県,川崎市麻生区,向原３丁目１－１０－１,,14,137,2150007,,,,,,,2025-04-08,1,,,,,アクアス,0
1100,4020001162214,新規,0,2025-04-08,2025-04-08,フタバ株式会社,,株式会社,神奈川県,横浜市鶴見区,生麦３丁目５番１７－１１０１,,14,101,2300052,,,,,,,2025-04-08,1,,,,,フタバ,0
1101,4020001162263,新規,0,2025-04-08,2025-04-08,ｉ‐ｅａｒｔｈ株式会社,,株式会社,神奈川県,横浜市港北区,小机町３２３番地５３,,14,109,2220036,,,,,,,2025-04-08,1,,,,,アイアース,0
1107,4021001084910,新規,0,2025-04-08,2025-04-08,株式会社オーセンティカ,,株式会社,神奈川県,大和市,中央林間９丁目１２番１８号,,14,213,2420007,,,,,,,2025-04-08,1,,,,,オーセンティカ,0
1111,4021003015830,新規,0,2025-04-08,2025-04-08,合同会社Ｐｏｎｓ,,合同会社,神奈川県,藤沢市,本藤沢６丁目３番１１号,,14,205,2510875,,,,,,,2025-04-08,1,,,,,ポンス,0
1116,4030001165678,新規,0,2025-04-08,2025-04-08,ハッピーガーデン森田造園株式会社,,株式会社,埼玉県,本庄市,児玉町共栄２５６番地９,,11,211,3670206,,,,,,,2025-04-08,1,,,,,ハッピーガーデンモリタゾウエン,0
1117,4030001165777,新規,0,2025-04-08,2025-04-08,ＣＲＡＦＴ　ＭＡＣＨＩＮＥ株式会社,,株式会社,埼玉県,所沢市,東所沢２丁目３２番地の２６,,11,208,3590021,,,,,,,2025-04-08,1,,,,,クラフトマシン,0
1118,4030001165802,新規,0,2025-04-08,2025-04-08,Ａｓｂｇ株式会社,,株式会社,埼玉県,川口市,前川２丁目２７番地１５マエカワフォレスト３Ｆ,,11,203,3330842,,,,,,,2025-04-08,1,,,,,エーエスビージー,0
1119,4030001165843,新規,0,2025-04-08,2025-04-08,ＭＯＴＴＯＭＯ株式会社,,株式会社,埼玉県,志木市,柏町１丁目６番３４－１０７号,,11,228,3530007,,,,,,,2025-04-08,1,,,,,モットモ,0
1120,4030001165851,新規,0,2025-04-08,2025-04-08,株式会社ＨＭＴ,,株式会社,埼玉県,川口市,本蓮１丁目５番１９号,00138620,11,203,3340076,,,,,,,2025-04-08,1,,,,,エイチエムティー,0
1121,4030005022108,新規,0,2025-04-08,2025-04-08,一般社団法人アフターピルオンライン診療連携機構,,その他の設立登記法人,埼玉県,さいたま市大宮区,宮町１丁目６７,,11,103,3300802,,,,,,,2025-04-08,1,,,,,アフターピルオンラインシンリョウレンケイキコウ,0
1128,4040001138096,新規,0,2025-04-08,2025-04-08,株式会社ＴＭ社,,株式会社,千葉県,市川市,高石神３１番１７号,,12,203,2720814,,,,,,,2025-04-08,1,,,,,ティーエムシャ,0
1129,4040001138162,新規,0,2025-04-08,2025-04-08,株式会社Ｉｎｆｉｎｉｔｙ,,株式会社,千葉県,柏市,柏１丁目１番１０号ＫＡＳＨＩ－ＷＯＲＫビル,,12,217,2770005,,,,,,,2025-04-08,1,,,,,インフィニティ,0
1130,4040001138245,新規,0,2025-04-08,2025-04-08,株式会社イズムズ,,株式会社,千葉県,松戸市,大橋１４９－１,,12,207,2702224,,,,,,,2025-04-08,1,,,,,イズムズ,0
1133,4040003027272,新規,0,2025-04-08,2025-04-08,合同会社ＫＴ　ａｃｃｏｕｎｔｉｎｇ,,合同会社,千葉県,千葉市中央区,中央４丁目１０番８－２０１号,,12,101,2600013,,,,,,,2025-04-08,1,,,,,ケーティアカウンティング,0
1134,4040003027297,新規,0,2025-04-08,2025-04-08,パシフィックコーポレーション合同会社,,合同会社,千葉県,我孫子市,高野山２２６番地の３８,,12,222,2701145,,,,,,,2025-04-08,1,,,,,パシフィックコーポレーション,0
1138,4050001056446,新規,0,2025-04-08,2025-04-08,Ｍｙ土浦アドバンス株式会社,,株式会社,茨城県,土浦市,摩利山新田３２７番地２Ａ－１０１,,08,203,3000838,,,,,,,2025-04-08,1,,,,,マイツチウラアドバンス,0
1139,4050001056454,新規,0,2025-04-08,2025-04-08,株式会社セドナ,,株式会社,茨城県,つくば市,蓮沼１３４８番地１,,08,220,3003262,,,,,,,2025-04-08,1,,,,,セドナ,0
1140,4050001056462,新規,0,2025-04-08,2025-04-08,株式会社技研建設,,株式会社,茨城県,かすみがうら市,牛渡３２７５番地６,,08,230,3000213,,,,,,,2025-04-08,1,,,,,ギケンケンセツ,0
1141,4050001056470,新規,0,2025-04-08,2025-04-08,株式会社ＶＩＲＧＯ,,株式会社,茨城県,龍ケ崎市,若柴町３０５７番地７,,08,208,3010041,,,,,,,2025-04-08,1,,,,,ヴィルゴ,0
1142,4050003009170,新規,0,2025-04-08,2025-04-08,合同会社明工業,,合同会社,茨城県,神栖市,筒井１４７３番地１０７,,08,232,3140132,,,,,,,2025-04-08,1,,,,,アキコウギョウ,0
1143,4050003009179,新規,0,2025-04-08,2025-04-08,合同会社ヤマシチ,,合同会社,茨城県,下妻市,若柳甲５６１番地５,,08,210,3040012,,,,,,,2025-04-08,1,,,,,ヤマシチ,0
1144,4060001038088,新規,0,2025-04-08,2025-04-08,株式会社尚建,,株式会社,栃木県,鹿沼市,貝島町６５２番地２６１,,09,205,3220027,,,,,,,2025-04-08,1,,,,,,0
1148,4070001042790,新規,0,2025-04-08,2025-04-08,株式会社グリーンエクセラテック,,株式会社,群馬県,高崎市,上並榎町３８２番地１,,10,202,3700801,,,,,,,2025-04-08,1,,,,,グリーンエクセラテック,0
1149,4070001042832,新規,0,2025-04-08,2025-04-08,株式会社空と海,,株式会社,群馬県,前橋市,鼻毛石町１９９１番地４０,,10,201,3710244,,,,,,,2025-04-08,1,,,,,ソラトウミ,0
1152,4070003005861,新規,0,2025-04-08,2025-04-08,合同会社ｋｉｚｕｎａ,,合同会社,群馬県,邑楽郡大泉町,大字寄木戸１５２８－１,,10,524,3700535,,,,,,,2025-04-08,1,,,,,キズナ,0
1156,4080001026867,新規,0,2025-04-08,2025-04-08,株式会社ＮＫコーポレーション,,株式会社,静岡県,焼津市,与惣次２丁目１７番地の３,,22,212,4250034,,,,,,,2025-04-08,1,,,,,エヌケイコーポレーション,0
1158,4080003003435,新規,0,2025-04-08,2025-04-08,よつば合同会社,,合同会社,静岡県,島田市,相賀１１５２番地の２,,22,209,4270033,,,,,,,2025-04-08,1,,,,,ヨツバ,0
1162,4080401027845,新規,0,2025-04-08,2025-04-08,ＰＨＵＣＫＨＡＮＧ株式会社,,株式会社,静岡県,浜松市中央区,北島町５６８番地の２７,,22,138,4350041,,,,,,,2025-04-08,1,,,,,フックカン,0
1163,4090001019201,新規,0,2025-04-08,2025-04-08,株式会社梨大オープンイノベーション,,株式会社,山梨県,甲府市,武田４丁目４番３７号,,19,201,4000016,,,,,,,2025-04-08,1,,,,,ナシダイオープンイノベーション,0
1166,4100001038471,新規,0,2025-04-08,2025-04-08,株式会社ｃｒｅａｔｅＣ,,株式会社,長野県,諏訪郡原村,１００９７番地１,,20,363,3910100,,,,,,,2025-04-08,1,,,,,クリエイトシー,0
1168,4110001039155,新規,0,2025-04-08,2025-04-08,株式会社Ｃｌｏｖｅｒ,,株式会社,新潟県,長岡市,中興野２０番地２１,,15,202,9540131,,,,,,,2025-04-08,1,,,,,クローバー,0
1183,4120001274288,新規,0,2025-04-08,2025-04-08,株式会社ホータ,,株式会社,大阪府,大阪市西淀川区,歌島２丁目２番５号２Ｆ,,27,113,5550021,,,,,,,2025-04-08,1,,,,,ホータ,0
1184,4120001274313,新規,0,2025-04-08,2025-04-08,山井株式会社,,株式会社,大阪府,大阪市北区,西天満５丁目１１番２２－３０６号,,27,127,5300047,,,,,,,2025-04-08,1,,,,,ヤマイ,0
1189,4120003028989,新規,0,2025-04-08,2025-04-08,合同会社Ｅｖｏｌｉｃａ,,合同会社,大阪府,大阪市北区,梅田１丁目２番２号大阪駅前第２ビル１２‐１２,,27,127,5300001,,,,,,,2025-04-08,1,,,,,エボリカ,0
1190,4120003029054,新規,0,2025-04-08,2025-04-08,愛の子メディア合同会社,,合同会社,大阪府,大阪市中央区,島之内１丁目１１番１１－１２０４号,,27,128,5420082,,,,,,,2025-04-08,1,,,,,アイノコメディア,0
1192,4120005024862,新規,0,2025-04-08,2025-04-08,一般財団法人フロンティア学生支援財団,,その他の設立登記法人,大阪府,大阪市都島区,東野田町１丁目２１番１４号,,27,102,5340024,,,,,,,2025-04-08,1,,,,,フロンティアガクセイシエンザイダン,0
1193,4120005024879,新規,0,2025-04-08,2025-04-08,一般社団法人ＲＥＤＷＯＯＤ,,その他の設立登記法人,大阪府,大阪市生野区,林寺４丁目１３番１４号,,27,116,5440023,,,,,,,2025-04-08,1,,,,,レッドウッド,0
1194,4120005024887,新規,0,2025-04-08,2025-04-08,一般社団法人地球共生,,その他の設立登記法人,大阪府,大阪市中央区,南船場１丁目８番１１号日宝アラメゾン２０１,,27,128,5420081,,,,,,,2025-04-08,1,,,,,チキュウキョウセイ,0
1198,4120101071412,新規,0,2025-04-08,2025-04-08,株式会社Ｑｕｅｓｔｉｏｎ,,株式会社,大阪府,堺市西区,菱木３丁２６６１番地２,,27,144,5938315,,,,,,,2025-04-08,1,,,,,クエスチョン,0
1199,4120101071420,新規,0,2025-04-08,2025-04-08,株式会社Ｂｏｏｓｔｙｌｅ,,株式会社,大阪府,岸和田市,野田町２丁目５番２号,,27,202,5960076,,,,,,,2025-04-08,1,,,,,ブースタイル,0
1200,4120101071429,新規,0,2025-04-08,2025-04-08,株式会社Ｇｒｏｏｖｙ,,株式会社,大阪府,河内長野市,本町１１番２号ドムス河内長野５０４,,27,216,5860015,,,,,,,2025-04-08,1,,,,,グルーヴィー,0
1201,4120101071437,新規,0,2025-04-08,2025-04-08,株式会社興盛,,株式会社,大阪府,堺市美原区,多治井７２３,,27,147,5870012,,,,,,,2025-04-08,1,,,,,コウモリ,0
1206,4120903005609,新規,0,2025-04-08,2025-04-08,Ｆｉｏｒｅ　Ｃａｐｉｔａｌ　Ａｓｓｅｔｓ合同会社,,合同会社,大阪府,豊中市,本町７丁目６番２５号,,27,203,5600021,,,,,,,2025-04-08,1,,,,,フィオーレキャピタルアセッツ,0
1207,4122001039076,新規,0,2025-04-08,2025-04-08,株式会社ＩＨＤ,,株式会社,大阪府,東大阪市,菱屋西１丁目１０番３号,,27,227,5770807,,,,,,,2025-04-08,1,,,,,アイエイチディ,0
1211,4130005017337,新規,0,2025-04-08,2025-04-08,一般社団法人Ｂｒｉｇｈｔ　Ｔｏｍｏｒｒｏｗ,,その他の設立登記法人,京都府,京都市右京区,西院西淳和院町２０番３,,26,108,6150016,,,,,,,2025-04-08,1,,,,,ブライトトゥモロー,0
1218,4140001137971,新規,0,2025-04-08,2025-04-08,泰笠株式会社,,株式会社,兵庫県,神戸市北区,淡河町野瀬６４番地２,,28,109,6511623,,,,,,,2025-04-08,1,,,,,タイリ,0
1219,4140001137996,新規,0,2025-04-08,2025-04-08,株式会社ベルデ,,株式会社,兵庫県,宝塚市,小浜３丁目３番４号,,28,214,6650827,,,,,,,2025-04-08,1,,,,,ベルデ,0
1220,4140001138012,新規,0,2025-04-08,2025-04-08,株式会社山中,,株式会社,兵庫県,伊丹市,瑞穂町３丁目４９番地４,,28,207,6640013,,,,,,,2025-04-08,1,,,,,ヤマナカ,0
1221,4140001138020,新規,0,2025-04-08,2025-04-08,株式会社ａｉｍａｌｓ,,株式会社,兵庫県,神戸市垂水区,塩屋町２丁目４番５号,,28,108,6550872,,,,,,,2025-04-08,1,,,,,アイマルズ,0
1222,4140001138078,新規,0,2025-04-08,2025-04-08,株式会社ＲＩＭＩＣ,,株式会社,兵庫県,姫路市,飾磨区中島１０１３番地２１,,28,201,6728035,,,,,,,2025-04-08,1,,,,,リミック,0
1225,4140005027426,新規,0,2025-04-08,2025-04-08,ＡＳＴＯ社会保険労務士法人,,その他の設立登記法人,兵庫県,西宮市,羽衣町７－３０夙川グリーンタウン３階,,28,204,6620051,,,,,,,2025-04-08,1,,,,,アスト,0
1230,4150001027998,新規,0,2025-04-08,2025-04-08,ミライ工業株式会社,,株式会社,奈良県,大和高田市,今里町３４３番１号,,29,202,6350031,,,,,,,2025-04-08,1,,,,,ミライコウギョウ,0
1231,4150001028014,新規,0,2025-04-08,2025-04-08,株式会社ばらめく,,株式会社,奈良県,生駒郡平群町,大字福貴５５４番地,,29,342,6360936,,,,,,,2025-04-08,1,,,,,バラメク,0
1233,4150003003551,新規,0,2025-04-08,2025-04-08,合同会社企門遁甲,,合同会社,奈良県,奈良市,西笹鉾町４３－５奈良コーポラス４０４,,29,201,6308291,,,,,,,2025-04-08,1,,,,,キモントンコウ,0
1234,4160005011394,新規,0,2025-04-08,2025-04-08,特定非営利活動法人滋賀・まいばら空き家対策会,,その他の設立登記法人,滋賀県,米原市,長岡１２６９番地,,25,214,5210242,,,,,,,2025-04-08,1,,,,,シガマイバラアキヤタイサクカイ,0
1242,4180001166307,新規,0,2025-04-08,2025-04-08,株式会社ひなた道,,株式会社,愛知県,名古屋市瑞穂区,山下通５丁目８番地の１アネックス瑞穂４０５号,,23,108,4670062,,,,,,,2025-04-08,1,,,,,ヒナタミチ,0
1243,4180001166315,新規,0,2025-04-08,2025-04-08,株式会社ＨＡＲＵＫＡＺＥ,,株式会社,愛知県,春日井市,白山町８丁目１６番地２２,,23,206,4870034,,,,,,,2025-04-08,1,,,,,ハルカゼ,0
1244,4180001166323,新規,0,2025-04-08,2025-04-08,株式会社ＬＥＡＦＨ,,株式会社,愛知県,名古屋市中村区,名駅４丁目２４番５号第２森ビル４０１,,23,105,4500002,,,,,,,2025-04-08,1,,,,,リーフ,0
1245,4180003028281,新規,0,2025-04-08,2025-04-08,合同会社ＮＫ,,合同会社,愛知県,江南市,古知野町牧森１９９番地,,23,217,4838278,,,,,,,2025-04-08,1,,,,,エヌケー,0
1248,4180301039666,新規,0,2025-04-08,2025-04-08,株式会社グリンハウス,,株式会社,愛知県,豊田市,平芝町１丁目１番地２プレサンスロジェ豊田平芝ＣＬ、７０２号,,23,211,4710065,,,,,,,2025-04-08,1,,,,,グリンハウス,0
1250,4190001032111,新規,0,2025-04-08,2025-04-08,株式会社Ｍａｔｓｕｓｈｉｍａホールディングス,,株式会社,三重県,津市,香良洲町３９５２番地２８,,24,201,5140315,,,,,,,2025-04-08,1,,,,,マツシマホールディングス,0
1252,4190003004991,新規,0,2025-04-08,2025-04-08,合同会社ＥＧホールディングス,,合同会社,三重県,志摩市,磯部町穴川１３６５番地１０,,24,215,5170213,,,,,,,2025-04-08,1,,,,,イージーホールディングス,0
1256,4200001043610,新規,0,2025-04-08,2025-04-08,庭ノ笑株式会社,,株式会社,岐阜県,瑞穂市,田之上８７４番地１６,,21,216,5010304,,,,,,,2025-04-08,1,,,,,ニワノショウ,0
1257,4200001043619,新規,0,2025-04-08,2025-04-08,Ｍ・Ｙプロス株式会社,,株式会社,岐阜県,瑞浪市,北小田町１丁目１６４番地,,21,208,5096115,,,,,,,2025-04-08,1,,,,,エムワイプロス,0
1258,4200003006755,新規,0,2025-04-08,2025-04-08,合同会社カナウ,,合同会社,岐阜県,関市,倉知１２０２番地１,,21,205,5013936,,,,,,,2025-04-08,1,,,,,カナウ,0
1259,4200003006763,新規,0,2025-04-08,2025-04-08,ＪＡＰＡＮ　ＨＥＡＬＴＨ　ＢＥＡＵＴＹ　ＬＡＢ合同会社,,合同会社,岐阜県,大垣市,外野１丁目３２番地１,,21,202,5030933,,,,,,,2025-04-08,1,,,,,ジャパンヘルスビューティーラボ,0
1261,4210005010192,新規,0,2025-04-08,2025-04-08,医療法人孝久会,,その他の設立登記法人,福井県,福井市,大宮２丁目２７番２２号,,18,201,9100016,,,,,,,2025-04-08,1,,,,,コウキュウカイ,0
1265,4220001026588,新規,0,2025-04-08,2025-04-08,株式会社ＪＡＳＴＡＴＥ金沢,,株式会社,石川県,金沢市,松寺町未５９番地１,,17,201,9200011,,,,,,,2025-04-08,1,,,,,ジャステートカナザワ,0
1266,4220001026605,新規,0,2025-04-08,2025-04-08,株式会社ｆｏｏｔｂａｌｌ　Ｍｙ　ｓｔａｒ,,株式会社,石川県,河北郡内灘町,字鶴ケ丘５丁目１番地２２７,,17,365,9200271,,,,,,,2025-04-08,1,,,,,フットボールマイスター,0
1269,4240001064784,新規,0,2025-04-08,2025-04-08,株式会社３０３,,株式会社,広島県,広島市中区,流川町３番１４号２Ｆ,,34,101,7300028,,,,,,,2025-04-08,1,,,,,サンマルサン,0
1279,4270005005633,新規,0,2025-04-08,2025-04-08,一般社団法人日本楽健法協会,,その他の設立登記法人,鳥取県,米子市,両三柳４５７１番地１３,,31,202,6830853,,,,,,,2025-04-08,1,,,,,ニホンラッケンホウキョウカイ,0
1284,4290001109493,新規,0,2025-04-08,2025-04-08,株式会社永邁,,株式会社,福岡県,久留米市,合川町２０７番地１ハレアカラＢ棟１０３号,,40,203,8390861,,,,,,,2025-04-08,1,,,,,ナガユク,0
1285,4290001109502,新規,0,2025-04-08,2025-04-08,博大株式会社,,株式会社,福岡県,福岡市早良区,昭代２丁目２番３０号グランルーチェ西新２０１号室,,40,137,8140012,,,,,,,2025-04-08,1,,,,,ハクダイ,0
1286,4290001109519,新規,0,2025-04-08,2025-04-08,古川興業株式会社,,株式会社,福岡県,久留米市,青峰１丁目１１番５号,,40,203,8390853,,,,,,,2025-04-08,1,,,,,フルカワコウギョウ,0
1287,4290001109576,新規,0,2025-04-08,2025-04-08,株式会社ラパエンタープライズ,,株式会社,福岡県,福岡市博多区,博多駅前２丁目１３番８号ハタエビル６Ｆ,,40,132,8120011,,,,,,,2025-04-08,1,,,,,ラパエンタープライズ,0
1288,4290001109584,新規,0,2025-04-08,2025-04-08,大塗建装株式会社,,株式会社,福岡県,那珂川市,大字山田３６９番地１１,,40,231,8111244,,,,,,,2025-04-08,1,,,,,ダイトケンソウ,0
1294,4300001014139,新規,0,2025-04-08,2025-04-08,株式会社己,,株式会社,佐賀県,鳥栖市,姫方町２１５番地１,,41,203,8410023,,,,,,,2025-04-08,1,,,,,オノレ,0
1296,4310003004987,新規,0,2025-04-08,2025-04-08,合同会社居宅介護支援事業所べんてんの杜,,合同会社,長崎県,南松浦郡新上五島町,浦桑郷１００６番地,,42,411,8574511,,,,,,,2025-04-08,1,,,,,キョタクカイゴシエンジギョウショベンテンノモリ,0
1298,4330001033045,新規,0,2025-04-08,2025-04-08,株式会社Ｌ＆Ｆ,,株式会社,熊本県,熊本市東区,保田窪４丁目１４番９７号,,43,102,8620926,,,,,,,2025-04-08,1,,,,,エルアンドエフ,0
1303,4340003004811,新規,0,2025-04-08,2025-04-08,合同会社九六工房,,合同会社,鹿児島県,いちき串木野市,塩屋町２４番地,,46,219,8960023,,,,,,,2025-04-08,1,,,,,クロコウボウ,0
1304,4340005009841,新規,0,2025-04-08,2025-04-08,一般社団法人鹿児島県情報セキュリティ協議会,,その他の設立登記法人,鹿児島県,鹿児島市,東開町４－１０４,,46,201,8910115,,,,,,,2025-04-08,1,,,,,カゴシマケンジョウホウセキュリティキョウギカイ,0
1308,4360001034998,新規,0,2025-04-08,2025-04-08,南部クリーン株式会社,,株式会社,沖縄県,南城市,大里字高平３２３番地１,,47,215,9011205,,,,,,,2025-04-08,1,,,,,ナンブクリーン,0
1309,4360001035022,新規,0,2025-04-08,2025-04-08,株式会社マリーナエイトｉｎｋ．,,株式会社,沖縄県,中頭郡北谷町,美浜３丁目４番地５,,47,326,9040115,,,,,,,2025-04-08,1,,,,,マリーナエイトインク,0
1310,4360001035039,新規,0,2025-04-08,2025-04-08,マッチョシーサー株式会社,,株式会社,沖縄県,那覇市,松尾２丁目１６番４８号パトリア松尾２０１,,47,201,9000014,,,,,,,2025-04-08,1,,,,,マッチョシーサー,0
1312,4360005007199,新規,0,2025-04-08,2025-04-08,一般社団法人まどか学童クラブ,,その他の設立登記法人,沖縄県,うるま市,字高江洲３６１番地,,47,213,9042242,,,,,,,2025-04-08,1,,,,,マドカガクドウクラブ,0
1316,4370001052454,新規,0,2025-04-08,2025-04-08,株式会社Ｒ７,,株式会社,宮城県,仙台市青葉区,大町１丁目２－１６大町カープビル４階,,04,101,9800804,,,,,,,2025-04-08,1,,,,,アールセブン,0
1317,4370001052462,新規,0,2025-04-08,2025-04-08,大崎観光株式会社,,株式会社,宮城県,大崎市,三本木伊場野字中ノ坊３番地,,04,215,9896303,,,,,,,2025-04-08,1,,,,,オオサキカンコウ,0
1318,4370003007019,新規,0,2025-04-08,2025-04-08,三本木パワーＡ２合同会社,,合同会社,宮城県,大崎市,三本木伊場野字中ノ坊３番地,,04,215,9896303,,,,,,,2025-04-08,1,,,,,サンボンギパワーエイツー,0
1319,4370003007027,新規,0,2025-04-08,2025-04-08,合同会社ＳＥＡＤ,,合同会社,宮城県,富谷市,日吉台３丁目１１番地２０フィリスハイム大富１０１,,04,216,9813362,,,,,,,2025-04-08,1,,,,,シード,0
1322,4370005010937,新規,0,2025-04-08,2025-04-08,一般社団法人アバンツァーレスポーツクラブ,,その他の設立登記法人,宮城県,名取市,高舘吉田字前沖７５番地の１８,,04,207,9811242,,,,,,,2025-04-08,1,,,,,アバンツァーレスポーツクラブ,0
1331,4410001014111,新規,0,2025-04-08,2025-04-08,株式会社竹生ファームのしろ,,株式会社,秋田県,能代市,竹生字相染道南４２８番地,,05,202,0160016,,,,,,,2025-04-08,1,,,,,タコウファームノシロ,0
1332,4410003004077,新規,0,2025-04-08,2025-04-08,菱秋商事合同会社,,合同会社,秋田県,能代市,景林町１２番２７号,,05,202,0160892,,,,,,,2025-04-08,1,,,,,ヒシアキショウジ,0
1335,4410005006633,新規,0,2025-04-08,2025-04-08,一般社団法人よこてまちづくりラボ,,その他の設立登記法人,秋田県,横手市,八幡字八幡１６１番地,,05,203,0130071,,,,,,,2025-04-08,1,,,,,ヨコテマチヅクリラボ,0
1346,4450001014578,新規,0,2025-04-08,2025-04-08,株式会社タカシマホームズ,,株式会社,北海道,旭川市,豊岡二条１丁目６番１７号,,01,204,0788232,,,,,,,2025-04-08,1,,,,,タカシマホームズ,0
1348,4460103001705,新規,0,2025-04-08,2025-04-08,合同会社しみず,,合同会社,北海道,帯広市,西二十二条南３丁目２６番地１１,,01,207,0802472,,,,,,,2025-04-08,1,,,,,,0
1349,4470001020657,新規,0,2025-04-08,2025-04-08,株式会社ＰＥＡＣＥＭａｋｅｒ,,株式会社,香川県,高松市,香川町浅野９３３番地３,,37,201,7611703,,,,,,,2025-04-08,1,,,,,ピースメーカー,0
1351,4470003002851,新規,0,2025-04-08,2025-04-08,合同会社Ｔ’ｚＲＦ,,合同会社,香川県,坂出市,室町３丁目６番１５号２３１５ビル１階,,37,203,7620007,,,,,,,2025-04-08,1,,,,,ティーズアールアフ,0
1352,4480001012802,新規,0,2025-04-08,2025-04-08,株式会社Ｎｅｗ　Ｓｔｏｒｉｅｓ,,株式会社,徳島県,徳島市,徳島本町２丁目４２番地,,36,201,7700854,,,,,,,2025-04-08,1,,,,,ニューストーリーズ,0
1353,4490001011010,新規,0,2025-04-08,2025-04-08,株式会社ＮＴＣａｐｉｔａｌ,,株式会社,高知県,南国市,田村甲１０９番地３,,39,204,7830092,,,,,,,2025-04-08,1,,,,,エヌティーキャピタル,0
1355,4500005008777,新規,0,2025-04-08,2025-04-08,一般社団法人高岡河川管理組合,,その他の設立登記法人,愛媛県,松山市,高岡町５７７番地１,,38,201,7918036,,,,,,,2025-04-08,1,,,,,タカオカカセンカンリクミアイ,0
1356,4700150129853,新規,0,2025-04-08,2025-04-08,ＴＥＳＣＯ　ＭＯＴＯＲＳ,,外国会社等,千葉県,いすみ市,大原９２１０番地５－Ｂ,,12,238,2980004,スリランカ民主社会主義共和国、キャンディ、アクラナ、クルゴダ、Ｎｏ．２４１／Ｂ,,,,,,2025-04-08,1,,,,,テスコモータース,0
1361,5010001253946,新規,0,2025-04-08,2025-04-08,ＭＥＣ　Ｈｏｌｄｉｎｇｓ株式会社,,株式会社,東京都,千代田区,有楽町１丁目１３番２号第一生命日比谷ファースト１８階,,13,101,1000006,,,,,,,2025-04-08,1,,,,,エムイーシーホールディングス,0
1362,5010001253979,新規,0,2025-04-08,2025-04-08,ＦＪプロダクツ株式会社,,株式会社,東京都,中央区,日本橋室町１丁目１１番１２号日本橋水野ビル７階,,13,102,1030022,,,,,,,2025-04-08,1,,,,,エフジェイプロダクツ,0
1366,5010005039904,新規,0,2025-04-08,2025-04-08,ＤＵＮＥ一般社団法人,,その他の設立登記法人,東京都,千代田区,霞が関３丁目２番５号,,13,101,1000013,,,,,,,2025-04-08,1,,,,,テューン,0
1378,5010403034787,新規,0,2025-04-08,2025-04-08,アスピシャス・フィールド合同会社,,合同会社,東京都,港区,新橋４丁目１４番１号新橋ＡＵＮＢＬＤＧ４階,,13,103,1050004,,,,,,,2025-04-08,1,,,,,アスピシャスフィールド,0
1379,5010403034820,新規,0,2025-04-08,2025-04-08,のぞみ橘ソーラー合同会社,,合同会社,東京都,港区,芝５丁目２９番１９号ＰＭＯ田町ＩＶ８階,00138630,13,103,1080014,,,,,,,2025-04-08,1,,,,,ノゾミタチバナソーラー,0
1382,5010405024299,新規,0,2025-04-08,2025-04-08,一般社団法人のぞみ富士ソーラー,,その他の設立登記法人,東京都,港区,芝５丁目２９番１９号ＰＭＯ田町ＩＶ８階,00138631,13,103,1080014,,,,,,,2025-04-08,1,,,,,ノゾミフジソーラー,0
1387,5010701047524,新規,0,2025-04-08,2025-04-08,株式会社Ｚｅｎ　Ｂｅａｔ,,株式会社,東京都,品川区,上大崎３丁目１番２－３４０４号,,13,109,1410021,,,,,,,2025-04-08,1,,,,,ゼンビート,0
1391,5010901057141,新規,0,2025-04-08,2025-04-08,ＮＥＯ‐Ｃｏｍｍｏｎｓ株式会社,,株式会社,東京都,世田谷区,太子堂４丁目１８番１５号マガザン三軒茶屋２－３Ｆ－３,,13,112,1540004,,,,,,,2025-04-08,1,,,,,ネオコモンズ,0
1393,5010903009834,新規,0,2025-04-08,2025-04-08,合同会社ＭＫ,,合同会社,東京都,世田谷区,三軒茶屋２丁目１４番１２号三元ビルＢ１階,,13,112,1540024,,,,,,,2025-04-08,1,,,,,エムケー,0
1400,5011101111234,新規,0,2025-04-08,2025-04-08,ＳＵＺＵＮＯエステート株式会社,,株式会社,東京都,新宿区,下落合１丁目３番２２号,,13,104,1610033,,,,,,,2025-04-08,1,,,,,スズノエステート,0
1401,5011101111242,新規,0,2025-04-08,2025-04-08,株式会社ワセヨビ,,株式会社,東京都,新宿区,高田馬場４丁目９番９号,,13,104,1690075,,,,,,,2025-04-08,1,,,,,ワセヨビ,0
1402,5011101111341,新規,0,2025-04-08,2025-04-08,株式会社モイダ,,株式会社,東京都,新宿区,新宿２丁目１２番１３号新宿アントレサロンビル２階,,13,104,1600022,,,,,,,2025-04-08,1,,,,,モイダ,0
1403,5011103015722,新規,0,2025-04-08,2025-04-08,合同会社３Ｓ,,合同会社,東京都,新宿区,西早稲田３丁目６番５－４０５号,,13,104,1690051,,,,,,,2025-04-08,1,,,,,スリーエス,0
1404,5011103015747,新規,0,2025-04-08,2025-04-08,合同会社ｕｚｏ,,合同会社,東京都,新宿区,西新宿３丁目３番１３号西新宿水間ビル６階,,13,104,1600023,,,,,,,2025-04-08,1,,,,,ウゾ,0
1406,5011301030473,新規,0,2025-04-08,2025-04-08,株式会社ＫＡＭＩＪＩ,,株式会社,東京都,杉並区,天沼１丁目１０番１０号,,13,115,1670032,,,,,,,2025-04-08,1,,,,,カミジ,0
1408,5011401026999,新規,0,2025-04-08,2025-04-08,翼飛株式会社,,株式会社,東京都,板橋区,若木１丁目２７番３８―５１９号,,13,119,1740065,,,,,,,2025-04-08,1,,,,,ヨクトビ,0
1410,5011403004664,新規,0,2025-04-08,2025-04-08,合同会社めぐみコンサルティング,,合同会社,東京都,板橋区,小豆沢２丁目２０番１４－３０２号,,13,119,1740051,,,,,,,2025-04-08,1,,,,,メグミコンサルティング,0
1413,5011603004654,新規,0,2025-04-08,2025-04-08,スリークウォーターズ不動産合同会社,,合同会社,東京都,練馬区,桜台１丁目４番１号クウォータービル２０４号,,13,120,1760002,,,,,,,2025-04-08,1,,,,,スリークウォーターズフドウサン,0
1414,5011703004190,新規,0,2025-04-08,2025-04-08,アンドエーワークス合同会社,,合同会社,東京都,江戸川区,南篠崎町１丁目４－１０,,13,123,1330065,,,,,,,2025-04-08,1,,,,,アンドエーワークス,0
1415,5011705001888,新規,0,2025-04-08,2025-04-08,医療法人社団尚真会,,その他の設立登記法人,東京都,江戸川区,西瑞江３丁目６番９５号,,13,123,1320015,,,,,,,2025-04-08,1,,,,,ショウシンカイ,0
1416,5011801045921,新規,0,2025-04-08,2025-04-08,株式会社ガーディアンジャパン,,株式会社,東京都,足立区,竹の塚２丁目５－１２,,13,121,1210813,,,,,,,2025-04-08,1,,,,,カーディアンジャパン,0
1423,5011803006772,新規,0,2025-04-08,2025-04-08,合同会社ケニー・ソーラー,,合同会社,東京都,足立区,六町４丁目５番１号オーシャン鹿島３０４,,13,121,1210073,,,,,,,2025-04-08,1,,,,,ケニーソーラー,0
1429,5013301054048,新規,0,2025-04-08,2025-04-08,株式会社ＷＥＩＹＡ　Ｊａｐａｎ,,株式会社,東京都,豊島区,駒込３丁目１番３号,,13,116,1700003,,,,,,,2025-04-08,1,,,,,ウェイヤジャパン,0
1437,5020001162163,新規,0,2025-04-08,2025-04-08,コーク株式会社,,株式会社,神奈川県,横浜市港南区,港南中央通８－３６笠原ビル３階,,14,111,2330004,,,,,,,2025-04-08,1,,,,,コーク,0
1438,5020001162205,新規,0,2025-04-08,2025-04-08,株式会社ＡＯＣ,,株式会社,神奈川県,横浜市青葉区,美しが丘２丁目７番地１６、３０２,,14,117,2250002,,,,,,,2025-04-08,1,,,,,エーオーシー,0
1439,5020001162254,新規,0,2025-04-08,2025-04-08,株式会社千の竹マネジメント,,株式会社,神奈川県,横浜市西区,北幸２丁目１０番４８号むつみビル３階,,14,103,2200004,,,,,,,2025-04-08,1,,,,,センノタケマネジメント,0
1445,5020005016778,新規,0,2025-04-08,2025-04-08,一般社団法人ＣＧ先進技術教育研究会,,その他の設立登記法人,神奈川県,横浜市緑区,台村町３２番地３４,,14,113,2260014,,,,,,,2025-04-08,1,,,,,シージーセンシンギジュツキョウイクケンキュウカイ,0
1450,5021001084884,新規,0,2025-04-08,2025-04-08,株式会社千葉建鉄,,株式会社,神奈川県,綾瀬市,大上６丁目２番２２号メモリーハイツ１０２,,14,218,2521104,,,,,,,2025-04-08,1,,,,,チバケンテツ,0
1451,5021001084901,新規,0,2025-04-08,2025-04-08,株式会社湘和建工,,株式会社,神奈川県,南足柄市,中沼８２番地３,,14,217,2500123,,,,,,,2025-04-08,1,,,,,ショウワケンコウ,0
1453,5021003015813,新規,0,2025-04-08,2025-04-08,ＳＨＡＢＲＡＴＩ　Ｔｒａｄｉｎｇ　Ｊａｐｎ合同会社,,合同会社,神奈川県,愛甲郡愛川町,角田７７４番地６,,14,401,2430301,,,,,,,2025-04-08,1,,,,,シャブラティトレーディングジャパン,0
1458,5030001165826,新規,0,2025-04-08,2025-04-08,株式会社小晴,,株式会社,埼玉県,越谷市,赤山本町３番地２４ライオンズグローベル越谷ステーションプラザ１２０１号,,11,222,3430808,,,,,,,2025-04-08,1,,,,,コハル,0
1459,5030001165842,新規,0,2025-04-08,2025-04-08,株式会社あすなろ,,株式会社,埼玉県,所沢市,東所沢４丁目２番地の１５,,11,208,3590021,,,,,,,2025-04-08,1,,,,,アスナロ,0
1460,5030001165850,新規,0,2025-04-08,2025-04-08,株式会社オカザキ設備,,株式会社,埼玉県,春日部市,六軒町５５６番地,,11,214,3440012,,,,,,,2025-04-08,1,,,,,オカザキセツビ,0
1466,5040001138145,新規,0,2025-04-08,2025-04-08,アンサーリフォーム株式会社,,株式会社,千葉県,松戸市,古ケ崎４丁目３４５９番地の６,,12,207,2710068,,,,,,,2025-04-08,1,,,,,アンサーリフォーム,0
1467,5040001138186,新規,0,2025-04-08,2025-04-08,株式会社ケイ・エス・アイ,,株式会社,千葉県,浦安市,堀江６丁目１２番１号,,12,227,2790041,,,,,,,2025-04-08,1,,,,,ケイエスアイ,0
1468,5040001138194,新規,0,2025-04-08,2025-04-08,株式会社小和瀬鐵工所,00138623,株式会社,千葉県,香取郡東庄町,小座３１番地,,12,349,2890622,,,,,,,2025-04-08,1,,,,,コワセテッコウショ,0
1469,5040001138236,新規,0,2025-04-08,2025-04-08,あびこ技研株式会社,,株式会社,千葉県,我孫子市,東我孫子２丁目４－８,,12,222,2701144,,,,,,,2025-04-08,1,,,,,アビコギケン,0
1470,5040001138252,新規,0,2025-04-08,2025-04-08,株式会社ＢＲＡＩＮＣＨＩＬＤ,,株式会社,千葉県,習志野市,津田沼５丁目１３番４－８１１号,,12,216,2750016,,,,,,,2025-04-08,1,,,,,ブレインチャイルド,0
1471,5040001138260,新規,0,2025-04-08,2025-04-08,株式会社備後屋畳店,,株式会社,千葉県,匝瑳市,八日市場ロ１４２番地,,12,235,2892143,,,,,,,2025-04-08,1,,,,,ビンゴヤタタミテン,0
1478,5050001056445,新規,0,2025-04-08,2025-04-08,株式会社孝佳,,株式会社,茨城県,東茨城郡茨城町,大字奥谷１９７２番地３９,,08,302,3113156,,,,,,,2025-04-08,1,,,,,タカヨシ,0
1479,5050001056453,新規,0,2025-04-08,2025-04-08,株式会社石津興産,,株式会社,茨城県,神栖市,筒井１７５９番地１,,08,232,3140132,,,,,,,2025-04-08,1,,,,,イシヅコウサン,0
1480,5050001056461,新規,0,2025-04-08,2025-04-08,株式会社一水,,株式会社,茨城県,常陸大宮市,若林１８３０番地５,,08,225,3192222,,,,,,,2025-04-08,1,,,,,イッスイ,0
1483,5050003009112,新規,0,2025-04-08,2025-04-08,合同会社ＴＨＡＮＫ,,合同会社,茨城県,つくばみらい市,富士見ヶ丘１丁目２７番地１８５,,08,235,3002417,,,,,,,2025-04-08,1,,,,,サンク,0
1486,5060001038087,新規,0,2025-04-08,2025-04-08,株式会社青春応援団,,株式会社,栃木県,宇都宮市,細谷町２２９番地４,,09,201,3200074,,,,,,,2025-04-08,1,,,,,セイシュンオウエンダン,0
1489,5070001042823,新規,0,2025-04-08,2025-04-08,ゼロワンエステート株式会社,,株式会社,群馬県,藤岡市,下戸塚６０４番地６,,10,209,3750012,,,,,,,2025-04-08,1,,,,,ゼロワンエステート,0
1490,5070003005852,新規,0,2025-04-08,2025-04-08,Ｍｙ　ｃｏｌｌｅｃｔｉｏｎ合同会社,,合同会社,群馬県,高崎市,金井淵町１１９番地１,,10,202,3700882,,,,,,,2025-04-08,1,,,,,マイコレクション,0
1491,5080001026858,新規,0,2025-04-08,2025-04-08,株式会社ＲＥＳＰＩＲＥＲ,,株式会社,静岡県,静岡市葵区,住吉町２丁目２番,,22,101,4200016,,,,,,,2025-04-08,1,,,,,レスピレ,0
1492,5080001026866,新規,0,2025-04-08,2025-04-08,株式会社ＭＭＣ,,株式会社,静岡県,島田市,月坂２丁目１２番地の９,,22,209,4270112,,,,,,,2025-04-08,1,,,,,エムエムシー,0
1499,5080401027844,新規,0,2025-04-08,2025-04-08,株式会社はなぶさ,,株式会社,静岡県,磐田市,飛平松１０３番地３,,22,211,4380216,,,,,,,2025-04-08,1,,,,,ハナブサ,0
1502,5090001019209,新規,0,2025-04-08,2025-04-08,やまなし地域デザイン株式会社,,株式会社,山梨県,甲府市,丸の内１丁目２０番８号,,19,201,4000031,,,,,,,2025-04-08,1,,,,,ヤマナシチイキデザイン,0
1510,5110001039179,新規,0,2025-04-08,2025-04-08,株式会社石山調査,,株式会社,新潟県,新潟市東区,石山１丁目３番６７号,,15,102,9500852,,,,,,,2025-04-08,1,,,,,イシヤマチョウサ,0
1523,5120001274163,新規,0,2025-04-08,2025-04-08,株式会社グランフェイス,,株式会社,大阪府,大阪市北区,梅田１丁目２番２号大阪駅前第２ビル１２－１２,,27,127,5300001,,,,,,,2025-04-08,1,,,,,グランフェイス,0
1524,5120001274304,新規,0,2025-04-08,2025-04-08,ＴＨＲＥＥ　ＲＩＶＥＲＳ貿易株式会社,,株式会社,大阪府,大阪市中央区,日本橋２丁目６番４－９０３号,,27,128,5420073,,,,,,,2025-04-08,1,,,,,スリーリバーズボウエキ,0
1525,5120003029029,新規,0,2025-04-08,2025-04-08,ＳＨＩＲＯＫＵ合同会社,,合同会社,大阪府,大阪市生野区,新今里５丁目７番６－２０３号,,27,116,5440001,,,,,,,2025-04-08,1,,,,,シロク,0
1526,5120005024886,新規,0,2025-04-08,2025-04-08,一般社団法人インテリアコーディネーター協会関西,,その他の設立登記法人,大阪府,大阪市西区,北堀江１丁目６番２号サンワールドビル９Ｆ,,27,106,5500014,,,,,,,2025-04-08,1,,,,,インテリアコーディネーターキョウカイカンサイ,0
1530,5120101071386,新規,0,2025-04-08,2025-04-08,株式会社ｒｅｖｉｔａｌｉｚｅ,,株式会社,大阪府,堺市西区,鳳西町１丁７９番地２４,,27,144,5938326,,,,,,,2025-04-08,1,,,,,リバイタライズ,0
1531,5120101071394,新規,0,2025-04-08,2025-04-08,株式会社Ｐｅｅｂｌｅｓ　Ｇｌｏｂａｌ,,株式会社,大阪府,堺市堺区,御陵通５番１０－３号,,27,141,5900057,,,,,,,2025-04-08,1,,,,,ピーブルスグローバル,0
1532,5120101071411,新規,0,2025-04-08,2025-04-08,株式会社溝端工作所,,株式会社,大阪府,堺市中区,見野山７８番地２,,27,142,5998243,,,,,,,2025-04-08,1,,,,,ミゾバタコウサクショ,0
1541,5130001079322,新規,0,2025-04-08,2025-04-08,三笠商事株式会社,,株式会社,京都府,京都市南区,吉祥院西ノ庄西中町４６番地の２,,26,107,6018303,,,,,,,2025-04-08,1,,,,,ミカサショウジ,0
1543,5130003010334,新規,0,2025-04-08,2025-04-08,合同会社Ｔｒｅｋｏｏｄ,,合同会社,京都府,京都市東山区,東大路松原上る５丁目東入月見町１９番地,,26,105,6050829,,,,,,,2025-04-08,1,,,,,トレックウッド,0
1552,5140001137954,新規,0,2025-04-08,2025-04-08,株式会社緑灯,,株式会社,兵庫県,神戸市中央区,新港町１３番２－２１０４号,,28,110,6500041,,,,,,,2025-04-08,1,,,,,リョクトウ,0
1553,5140001137987,新規,0,2025-04-08,2025-04-08,株式会社スキルカム,,株式会社,兵庫県,川西市,西多田１丁目１４番１７－１５号,,28,217,6660138,,,,,,,2025-04-08,1,,,,,スキルカム,0
1554,5140001137995,新規,0,2025-04-08,2025-04-08,株式会社メルカート,,株式会社,兵庫県,加古川市,平岡町新在家２丁目２６８番地の１２セピアハウス１階,,28,210,6750101,,,,,,,2025-04-08,1,,,,,メルカート,0
1555,5140001138003,新規,0,2025-04-08,2025-04-08,株式会社ワンテリア,,株式会社,兵庫県,宝塚市,弥生町５－１宝塚エリー１０５,00138656,28,214,6650826,,,,,,,2025-04-08,1,,,,,ワンテリア,0
1556,5140001138011,新規,0,2025-04-08,2025-04-08,株式会社ＳＴＡ,,株式会社,兵庫県,宝塚市,平井４丁目５番１５号,,28,214,6650816,,,,,,,2025-04-08,1,,,,,エスティーエイ,0
1557,5140001138028,新規,0,2025-04-08,2025-04-08,株式会社木之下鉄工所,,株式会社,兵庫県,明石市,大久保町西島６９８番地の５,,28,203,6740065,,,,,,,2025-04-08,1,,,,,キノシタテッコウショ,0
1558,5140001138036,新規,0,2025-04-08,2025-04-08,マエカワ株式会社,,株式会社,兵庫県,神戸市垂水区,つつじが丘２丁目８番地の２０,,28,108,6550853,,,,,,,2025-04-08,1,,,,,マエカワ,0
1559,5140001138052,新規,0,2025-04-08,2025-04-08,株式会社鳥獣利活工房,,株式会社,兵庫県,豊岡市,竹野町森本１０３７番地,,28,209,6696332,,,,,,,2025-04-08,1,,,,,チョウジュウリカツコウボウ,0
1560,5140001138077,新規,0,2025-04-08,2025-04-08,株式会社ＯＫＵＭＵＲＡ,,株式会社,兵庫県,姫路市,南条２丁目１２４番地,,28,201,6700952,,,,,,,2025-04-08,1,,,,,オクムラ,0
1565,5140003021891,新規,0,2025-04-08,2025-04-08,ＶＩＶＡＳＶＮ合同会社,,合同会社,兵庫県,西宮市,今津水波町１２番５号パークハイムイトー１,,28,204,6638215,,,,,,,2025-04-08,1,,,,,ビバサン,0
1566,5140003021900,新規,0,2025-04-08,2025-04-08,合同会社ＫＡＲＭＡＡ,,合同会社,兵庫県,神戸市東灘区,魚崎南町７丁目１番２４号浜田ハイツ２０２号,,28,101,6580025,,,,,,,2025-04-08,1,,,,,カルマ,0
1567,5140003021917,新規,0,2025-04-08,2025-04-08,ＫｏＭｉキャピタル合同会社,,合同会社,兵庫県,芦屋市,西山町１５番８号,,28,206,6590083,,,,,,,2025-04-08,1,,,,,コミキャピタル,0
1570,5150001028021,新規,0,2025-04-08,2025-04-08,株式会社ＢＥＸ,,株式会社,奈良県,奈良市,六条３丁目１４,,29,201,6308043,,,,,,,2025-04-08,1,,,,,ベックス,0
1580,5160005011393,新規,0,2025-04-08,2025-04-08,医療法人あおあお在宅クリニック,,その他の設立登記法人,滋賀県,栗東市,中沢２丁目１１番１０号メゾン中沢１階,,25,208,5203025,,,,,,,2025-04-08,1,,,,,アオアオザイタククリニック,0
1581,5170001018565,新規,0,2025-04-08,2025-04-08,株式会社濱崎鉄筋工業,00138621,株式会社,和歌山県,和歌山市,松島３０９番地１７,,30,201,6408304,,,,,,,2025-04-08,1,,,,,ハマザキテッキンコウギョウ,0
1582,5170003002187,新規,0,2025-04-08,2025-04-08,合同会社福梅農園,,合同会社,和歌山県,西牟婁郡白浜町,堅田２４９７番地の３６,,30,401,6492201,,,,,,,2025-04-08,1,,,,,フクウメノウエン,0
1588,5180001166264,新規,0,2025-04-08,2025-04-08,プラマンジャパン株式会社,,株式会社,愛知県,名古屋市昭和区,山脇町４丁目１４番地,,23,107,4660063,,,,,,,2025-04-08,1,,,,,プラマンジャパン,0
1589,5180001166272,新規,0,2025-04-08,2025-04-08,株式会社ＡＲＥＳ,,株式会社,愛知県,岩倉市,大地町郷前２９番地Ｂｒｉｓａ１１１号,,23,228,4820026,,,,,,,2025-04-08,1,,,,,アレス,0
1590,5180001166289,新規,0,2025-04-08,2025-04-08,株式会社ケイトク,,株式会社,愛知県,あま市,新居屋八島１５７番地３,,23,237,4901105,,,,,,,2025-04-08,1,,,,,ケイトク,0
1591,5180001166306,新規,0,2025-04-08,2025-04-08,株式会社ブレイン・コラージュ,,株式会社,愛知県,名古屋市中村区,名駅４丁目２２番２２号,,23,105,4500002,,,,,,,2025-04-08,1,,,,,ブレインコラージュ,0
1592,5180001166322,新規,0,2025-04-08,2025-04-08,株式会社Ｃｕｒｅｔｅｉｎ　Ｊａｐａｎ,,株式会社,愛知県,大府市,桃山町５丁目７０番地,,23,223,4740026,,,,,,,2025-04-08,1,,,,,キュアテインジャパン,0
1603,5190001032135,新規,0,2025-04-08,2025-04-08,ＴＯＫＩＸ株式会社,,株式会社,三重県,松阪市,久保町１７０４番地,,24,204,5150044,,,,,,,2025-04-08,1,,,,,トキックス,0
1606,5200001043601,新規,0,2025-04-08,2025-04-08,株式会社梅村オートアシスト,,株式会社,岐阜県,加茂郡川辺町,中川辺３９番地５,,21,503,5090304,,,,,,,2025-04-08,1,,,,,ウメムラオートアシスト,0
1611,5200003006770,新規,0,2025-04-08,2025-04-08,エネルギッシュマム合同会社,,合同会社,岐阜県,大垣市,寺内町５丁目６６番地,,21,202,5030865,,,,,,,2025-04-08,1,,,,,エネルギッシュマム,0
1614,5220001026612,新規,0,2025-04-08,2025-04-08,株式会社金井総業,,株式会社,石川県,羽咋市,千里浜町チ３０９番地,,17,207,9250054,,,,,,,2025-04-08,1,,,,,カナイソウギョウ,0
1618,5240001064759,新規,0,2025-04-08,2025-04-08,株式会社からだ企画,,株式会社,広島県,広島市南区,京橋町１番７号アスティ広島京橋ビルディング,,34,103,7320828,,,,,,,2025-04-08,1,,,,,カラダキカク,0
1619,5240001064775,新規,0,2025-04-08,2025-04-08,株式会社ハスキー,,株式会社,広島県,広島市安佐北区,亀崎１丁目２番２６号,,34,106,7391742,,,,,,,2025-04-08,1,,,,,ハスキー,0
1624,5240005015931,新規,0,2025-04-08,2025-04-08,一般社団法人広島市サッカー協会,,その他の設立登記法人,広島県,広島市東区,牛田旭１丁目１０番３０号,,34,102,7320067,,,,,,,2025-04-08,1,,,,,ヒロシマシサッカーキョウカイ,0
1626,5270001009182,新規,0,2025-04-08,2025-04-08,株式会社ＹＥＢＩＳＵ,,株式会社,鳥取県,鳥取市,野坂６２７番地,,31,201,6801413,,,,,,,2025-04-08,1,,,,,エビス,0
1627,5270005005632,新規,0,2025-04-08,2025-04-08,一般社団法人日本ペアレント・トレーニング研究会,,その他の設立登記法人,鳥取県,米子市,西町８６番地鳥取大学医学系研究科臨床心理学講座井上雅彦研究室,,31,202,6830826,,,,,,,2025-04-08,1,,,,,ニホンペアレントトレーニングケンキュウカイ,0
1641,5290001109526,新規,0,2025-04-08,2025-04-08,Ｔ・Ｓメディカル株式会社,,株式会社,福岡県,八女市,吉田１４８９番地１,,40,210,8340006,,,,,,,2025-04-08,1,,,,,ティエスメディカル,0
1642,5290001109609,新規,0,2025-04-08,2025-04-08,株式会社日昌建設,,株式会社,福岡県,糸島市,末永４８６番地６,,40,230,8191572,,,,,,,2025-04-08,1,,,,,ニッショウケンセツ,0
1643,5290001109633,新規,0,2025-04-08,2025-04-08,株式会社ＩＣＳ,,株式会社,福岡県,福岡市南区,平和１丁目４番１３号,,40,134,8150071,,,,,,,2025-04-08,1,,,,,アイシーエス,0
1644,5290003016638,新規,0,2025-04-08,2025-04-08,合同会社ＵＭＡＹＡファーム,,合同会社,福岡県,糸島市,高上９,,40,230,8191143,,,,,,,2025-04-08,1,,,,,ウマヤファーム,0
1645,5290003016654,新規,0,2025-04-08,2025-04-08,合同会社ＲＹＫ,,合同会社,福岡県,福岡市博多区,博多駅前１丁目８－７エグゼ博多コンドミニアム２１０号,,40,132,8120011,,,,,,,2025-04-08,1,,,,,アールワイケイ,0
1650,5310001019524,新規,0,2025-04-08,2025-04-08,フジオカホールディングス株式会社,,株式会社,長崎県,長崎市,田中町５８２番地４,,42,201,8510134,,,,,,,2025-04-08,1,,,,,フジオカホールディングス,0
1660,5320001021033,新規,0,2025-04-08,2025-04-08,おおいたプラット株式会社,,株式会社,大分県,大分市,府内町３丁目４番１号,,44,201,8700021,,,,,,,2025-04-08,1,,,,,オオイタプラット,0
1664,5330001033028,新規,0,2025-04-08,2025-04-08,株式会社リヤズ,,株式会社,熊本県,熊本市南区,城南町阿高字穴町３２３番１,,43,104,8614224,,,,,,,2025-04-08,1,,,,,リヤズ,0
1667,5330005010898,新規,0,2025-04-08,2025-04-08,一般社団法人子育て応援Ｌａｂｏぱれっと,,その他の設立登記法人,熊本県,阿蘇郡西原村,大字小森８０９番地１１グレースＩ１０２号,00138624,43,432,8612402,,,,,,,2025-04-08,1,,,,,コソダテオウエンラボパレット,0
1669,5340001027251,新規,0,2025-04-08,2025-04-08,株式会社Ｋ．Ｔｅｃｋ．Ｋ．,,株式会社,鹿児島県,大島郡伊仙町,大字伊仙２５８８番地１,,46,532,8918201,,,,,,,2025-04-08,1,,,,,ケイテックケイ,0
1670,5340003004810,新規,0,2025-04-08,2025-04-08,合同会社泰勝,,合同会社,鹿児島県,大島郡瀬戸内町,大字古仁屋８７２－７,,46,525,8941508,,,,,,,2025-04-08,1,,,,,タイショウ,0
1671,5360001034989,新規,0,2025-04-08,2025-04-08,株式会社もしも防災,,株式会社,沖縄県,うるま市,石川８３９番地９,,47,213,9041106,,,,,,,2025-04-08,1,,,,,モシモボウサイ,0
1672,5360001034997,新規,0,2025-04-08,2025-04-08,株式会社琉球ウォール,,株式会社,沖縄県,沖縄市,山里３丁目１番８号,,47,211,9040033,,,,,,,2025-04-08,1,,,,,リュウキュウウォール,0
1674,5360003014832,新規,0,2025-04-08,2025-04-08,合同会社ＨＭＪ,,合同会社,沖縄県,豊見城市,字豊見城５５８番地１ハイグッドグラン３０３号,,47,212,9010241,,,,,,,2025-04-08,1,,,,,エイチエムジェイ,0
1676,5370001052461,新規,0,2025-04-08,2025-04-08,ＮａｎｏＦｒｏｎｔｉｅｒ株式会社,,株式会社,宮城県,仙台市青葉区,中央４丁目４―１９アーバンネット仙台中央ビル２Ｆ,,04,101,9800021,,,,,,,2025-04-08,1,,,,,ナノフロンティア,0
1677,5370003007018,新規,0,2025-04-08,2025-04-08,三本木パワーＡ１合同会社,,合同会社,宮城県,大崎市,三本木伊場野字中ノ坊３番地,,04,215,9896303,,,,,,,2025-04-08,1,,,,,サンボンギパワーエイワン,0
1683,5380005012948,新規,0,2025-04-08,2025-04-08,一般社団法人ダイヤモンドスターズ・マネジメント,,その他の設立登記法人,福島県,郡山市,大町２丁目１２番１３号宝栄郡山ビル７０３号,,07,203,9638001,,,,,,,2025-04-08,1,,,,,ダイヤモンドスターズマネジメント,0
1689,5410005006632,新規,0,2025-04-08,2025-04-08,農事組合法人榮田,,その他の設立登記法人,秋田県,南秋田郡大潟村,字西１丁目４番地１２,,05,368,0100445,,,,,,,2025-04-08,1,,,,,サカエダ,0
1699,5430001094134,新規,0,2025-04-08,2025-04-08,株式会社ＮＦＲＡＭＥ,,株式会社,北海道,札幌市白石区,北郷七条９丁目２３９６番地２２８,,01,104,0030837,,,,,,,2025-04-08,1,,,,,エヌフレーム,0
1702,5430003017497,新規,0,2025-04-08,2025-04-08,合同会社ニバリキ,,合同会社,北海道,札幌市豊平区,美園九条３丁目１番２７－９０１号,,01,105,0620009,,,,,,,2025-04-08,1,,,,,ニバリキ,0
1703,5430003017514,新規,0,2025-04-08,2025-04-08,合同会社洞爺ＢＡＳＥ,,合同会社,北海道,有珠郡壮瞥町,字仲洞爺１５番地,,01,575,0520105,,,,,,,2025-04-08,1,,,,,トウヤベース,0
1705,5460001005996,新規,0,2025-04-08,2025-04-08,株式会社こんの,,株式会社,北海道,釧路郡釧路町,光和３丁目５４番地,,01,661,0880623,,,,,,,2025-04-08,1,,,,,コンノ,0
1710,5470001020656,新規,0,2025-04-08,2025-04-08,株式会社空井農園,,株式会社,香川県,小豆郡小豆島町,安田甲１３７２番地１,,37,324,7614411,,,,,,,2025-04-08,1,,,,,ソライノウエン,0
1712,5470003002859,新規,0,2025-04-08,2025-04-08,レイマス合同会社,,合同会社,香川県,観音寺市,柞田町甲２１８３－１,,37,205,7680040,,,,,,,2025-04-08,1,,,,,,0
1717,5700150129860,新規,0,2025-04-08,2025-04-08,ＺＨＥＮＧＢＡＦＡＮＧ（ＸＩＡＭＥＮ）ＳＨＡＮＧＭＡＯ　ＹＯＵＸＩＡＮ　ＧＯＮＧＳＩ,,外国会社等,,,,,,,,ＸＩＮＧＬＩＮＷＡＮＬＵ　４９２ＨＡＯ　１０１ＤＡＮＹＵＡＮ　ＺＨＩＹＩ，ＪＩＭＥＩＱＵ，ＪＩＭＥＩＱＵ，ＦＵＪＩＡＮ,,,,,,2025-04-08,1,,,,,ジュヨンバーファーンシャアメンシャーンマオヨウシエンゴーンスー,0
1727,6010001253549,新規,0,2025-04-08,2025-04-08,株式会社日本資源開発,,株式会社,東京都,中央区,八丁堀２丁目３０番１５号東海ビル３階,,13,102,1040032,,,,,,,2025-04-08,1,,,,,ニホンシゲンカイハツ,0
1728,6010001253747,新規,0,2025-04-08,2025-04-08,株式会社ＢｔＡ,,株式会社,東京都,文京区,千石２丁目１１番９－３２６号,,13,105,1120011,,,,,,,2025-04-08,1,,,,,ビーティーエー,0
1729,6010001253805,新規,0,2025-04-08,2025-04-08,ＥＮＴＲＯＮ　ＧＬＯＢＡＬ　ＪＡＰＡＮ株式会社,,株式会社,東京都,中央区,銀座３丁目４番１号大倉別館５階,,13,102,1040061,,,,,,,2025-04-08,1,,,,,エントロングローバルジャパン,0
1730,6010001253813,新規,0,2025-04-08,2025-04-08,株式会社ＳＡＢ企画,,株式会社,東京都,中央区,東日本橋３丁目１０番１１号,,13,102,1030004,,,,,,,2025-04-08,1,,,,,エスエービーキカク,0
1731,6010001253846,新規,0,2025-04-08,2025-04-08,ａｒｃｂｒｉｃｋｓ株式会社,,株式会社,東京都,中央区,日本橋２丁目１番３号,,13,102,1030027,,,,,,,2025-04-08,1,,,,,アークブリックス,0
1733,6010005039837,新規,0,2025-04-08,2025-04-08,社会保険労務士法人助成金パートナーズ,,その他の設立登記法人,東京都,文京区,小石川２丁目３番１４号,,13,105,1120002,,,,,,,2025-04-08,1,,,,,ジョセイキンパートナーズ,0
1739,6010401189376,新規,0,2025-04-08,2025-04-08,株式会社オーランド,,株式会社,東京都,港区,赤坂７丁目７番５号,,13,103,1070052,,,,,,,2025-04-08,1,,,,,オーランド,0
1740,6010401189450,新規,0,2025-04-08,2025-04-08,ネクストリンクス株式会社,,株式会社,東京都,港区,芝４丁目１３番４号田町第１６藤島ビル５Ｆ,,13,103,1080014,,,,,,,2025-04-08,1,,,,,ネクストリンクス,0
1744,6010405024224,新規,0,2025-04-08,2025-04-08,一般社団法人６０歳からの健康経営,,その他の設立登記法人,東京都,港区,北青山１丁目３番１号アールキューブ青山３階,,13,103,1070061,,,,,,,2025-04-08,1,,,,,ロクジュッサイカラノケンコウケイエイ,0
1745,6010405024298,新規,0,2025-04-08,2025-04-08,一般社団法人のぞみ橘ソーラー,,その他の設立登記法人,東京都,港区,芝５丁目２９番１９号ＰＭＯ田町ＩＶ８階,00138629,13,103,1080014,,,,,,,2025-04-08,1,,,,,ノゾミタチバナソーラー,0
1753,6010801035989,新規,0,2025-04-08,2025-04-08,ｓｃｈｗａｒｚｅｎｂｅｒｇ．ｔｅｃｈ　Ｊａｐａｎ株式会社,,株式会社,東京都,大田区,田園調布５丁目３０番２８号,,13,111,1450071,,,,,,,2025-04-08,1,,,,,シュヴァルツェンベルクテックジャパン,0
1756,6010901057041,新規,0,2025-04-08,2025-04-08,株式会社ＲＰＧ,,株式会社,東京都,世田谷区,東玉川２丁目３９－７フラッフィー田園調布２０４号室,,13,112,1580084,,,,,,,2025-04-08,1,,,,,アールピージー,0
1757,6010901057140,新規,0,2025-04-08,2025-04-08,株式会社明和愛護動物病院,,株式会社,東京都,世田谷区,若林１丁目２３番５号,,13,112,1540023,,,,,,,2025-04-08,1,,,,,メイワアイゴドウブツビョウイン,0
1758,6010901057149,新規,0,2025-04-08,2025-04-08,エフェクタート株式会社,,株式会社,東京都,世田谷区,駒沢２丁目４５番９号,,13,112,1540012,,,,,,,2025-04-08,1,,,,,エフェクタート,0
1759,6010903009825,新規,0,2025-04-08,2025-04-08,Ｃａｐｉｔａｌ　Ｃｏｖｅ合同会社,,合同会社,東京都,世田谷区,太子堂３丁目２番１３号,,13,112,1540004,,,,,,,2025-04-08,1,,,,,キャピタルコーブ,0
1763,6011001168919,新規,0,2025-04-08,2025-04-08,東急リテールマネジメント株式会社,,株式会社,東京都,渋谷区,南平台町５番６号,,13,113,1500036,,,,,,,2025-04-08,1,,,,,トウキュウリテールマネジメント,0
1768,6011301030472,新規,0,2025-04-08,2025-04-08,ヴェルセンス株式会社,,株式会社,東京都,杉並区,松ノ木３丁目１３番６号,,13,115,1660014,,,,,,,2025-04-08,1,,,,,ヴェルセンス,0
1771,6011501031898,新規,0,2025-04-08,2025-04-08,株式会社メンテナンスファクトリー荒川,,株式会社,東京都,荒川区,南千住２丁目２４番１３号,,13,118,1160003,,,,,,,2025-04-08,1,,,,,メンテナンスファクトリーアラカワ,0
1773,6011503006477,新規,0,2025-04-08,2025-04-08,合同会社マッスルパウダー,,合同会社,東京都,荒川区,西日暮里１丁目６１番２１－６０３号西日暮里フラッツ,,13,118,1160013,,,,,,,2025-04-08,1,,,,,マッスルパウダー,0
1780,6011701028224,新規,0,2025-04-08,2025-04-08,株式会社Ｌ‐ＰＲＩＤＥ,,株式会社,東京都,江戸川区,西瑞江３丁目１９番１０号ウェルズパート１Ａ,,13,123,1320015,,,,,,,2025-04-08,1,,,,,エルプライド,0
1784,6011801045904,新規,0,2025-04-08,2025-04-08,株式会社光啓商事,,株式会社,東京都,葛飾区,高砂１丁目２５－２３－７０１青砥東パーク・ホームズ,,13,122,1250054,,,,,,,2025-04-08,1,,,,,コウケイショウジ,0
1785,6011801045929,新規,0,2025-04-08,2025-04-08,株式会社ＵＴＡＧＥ,,株式会社,東京都,葛飾区,東立石２丁目１１番８号,,13,122,1240013,,,,,,,2025-04-08,1,,,,,ウタゲ,0
1786,6011803006788,新規,0,2025-04-08,2025-04-08,合同会社アシスト,,合同会社,東京都,葛飾区,青戸３丁目３７番１５号京成青戸ビル３Ｆ,,13,122,1250062,,,,,,,2025-04-08,1,,,,,アシスト,0
1787,6011805003445,新規,0,2025-04-08,2025-04-08,一般社団法人葛飾区少年少女サッカー連盟,,その他の設立登記法人,東京都,葛飾区,堀切６丁目３４番１０号,,13,122,1240006,,,,,,,2025-04-08,1,,,,,カツシカクショウネンショウジョサッカーレンメイ,0
1788,6012303002138,新規,0,2025-04-08,2025-04-08,合同会社あんびしょん,,合同会社,東京都,町田市,野津田町３８番地２,,13,209,1950063,,,,,,,2025-04-08,1,,,,,アンビション,0
1790,6012401042944,新規,0,2025-04-08,2025-04-08,株式会社インマイライフ,,株式会社,東京都,武蔵野市,吉祥寺本町２丁目８番４号ｉ－ｏｆｆｉｃｅ吉祥寺,,13,203,1800004,,,,,,,2025-04-08,1,,,,,インマイライフ,0
1792,6012403007061,新規,0,2025-04-08,2025-04-08,合同会社騰華,,合同会社,東京都,調布市,八雲台１丁目４３番地１１,,13,208,1820015,,,,,,,2025-04-08,1,,,,,カトウカ,0
1793,6012701018784,新規,0,2025-04-08,2025-04-08,株式会社ＫＯＭＡＣＨＩ,,株式会社,東京都,西東京市,住吉町２丁目６番１０号,,13,229,2020005,,,,,,,2025-04-08,1,,,,,コマチ,0
1795,6013101009671,新規,0,2025-04-08,2025-04-08,株式会社風天,,株式会社,東京都,西多摩郡瑞穂町,大字箱根ケ崎１２０４－６,,13,303,1901221,,,,,,,2025-04-08,1,,,,,フウテン,0
1807,6020001162138,新規,0,2025-04-08,2025-04-08,トランツ株式会社,,株式会社,神奈川県,川崎市川崎区,大師河原１丁目１番１２号,,14,131,2100811,,,,,,,2025-04-08,1,,,,,トランツ,0
1808,6020001162170,新規,0,2025-04-08,2025-04-08,株式会社ＤＡＤＡ,,株式会社,神奈川県,川崎市中原区,市ノ坪３７８番地１ライオンズマンション元住吉第３－３０３,,14,133,2110016,,,,,,,2025-04-08,1,,,,,ダダ,0
1809,6020001162220,新規,0,2025-04-08,2025-04-08,ＳｅｒｅｎＮｅｘｕｓ株式会社,,株式会社,神奈川県,横浜市中区,桜木町１丁目１０１番地１クロスゲート７階,,14,104,2310062,,,,,,,2025-04-08,1,,,,,セレンネクサス,0
1814,6021001084859,新規,0,2025-04-08,2025-04-08,株式会社ＶｉＤＥＡｓ,,株式会社,神奈川県,小田原市,栢山１９３７番地の７,,14,206,2500852,,,,,,,2025-04-08,1,,,,,ヴィデアス,0
1815,6021001084917,新規,0,2025-04-08,2025-04-08,株式会社ＣＳＫ,,株式会社,神奈川県,座間市,新田宿５８４番地の３,,14,216,2520026,,,,,,,2025-04-08,1,,,,,シーエスケー,0
1818,6021005013319,新規,0,2025-04-08,2025-04-08,一般社団法人頭痛治療普及協会,,その他の設立登記法人,神奈川県,小田原市,栄町１丁目４番２号第１２松本ビル,,14,206,2500011,,,,,,,2025-04-08,1,,,,,ズツウチリョウフキュウキョウカイ,0
1823,6030001165668,新規,0,2025-04-08,2025-04-08,株式会社ＯＷＬ,,株式会社,埼玉県,草加市,住吉１丁目４番４号丹羽ビル２階,,11,221,3400014,,,,,,,2025-04-08,1,,,,,オウル,0
1824,6030001165825,新規,0,2025-04-08,2025-04-08,株式会社不死鳥,,株式会社,埼玉県,熊谷市,上之１３２８番地２シティハイムジュエリーＢ棟２０１号,,11,202,3600012,,,,,,,2025-04-08,1,,,,,フシチョウ,0
1825,6030001165833,新規,0,2025-04-08,2025-04-08,株式会社ＡＭＡＹＡＤＯＲＩ,,株式会社,埼玉県,白岡市,小久喜９２７－３－１０５,,11,246,3490217,,,,,,,2025-04-08,1,,,,,アマヤドリ,0
1826,6030001165841,新規,0,2025-04-08,2025-04-08,株式会社フェニックスサポート,,株式会社,埼玉県,川越市,大字笠幡３６３２番地５９,,11,201,3501175,,,,,,,2025-04-08,1,,,,,フェニックスサポート,0
1829,6030003026488,新規,0,2025-04-08,2025-04-08,Ｂｌｕｅ　Ｑｕａｒｔｚ合同会社,,合同会社,埼玉県,さいたま市浦和区,東仲町２５番２号Ｏ２ビル３階,,11,107,3300056,,,,,,,2025-04-08,1,,,,,ブルークオーツ,0
1830,6030003026521,新規,0,2025-04-08,2025-04-08,リクリア合同会社,,合同会社,埼玉県,深谷市,東方３４２０番地１,,11,218,3660041,,,,,,,2025-04-08,1,,,,,リクリア,0
1834,6040001138144,新規,0,2025-04-08,2025-04-08,ＮＥシビル株式会社,,株式会社,千葉県,千葉市緑区,高田町２２８２番地１１,,12,105,2660003,,,,,,,2025-04-08,1,,,,,エヌイーシビル,0
1835,6040001138160,新規,0,2025-04-08,2025-04-08,株式会社渡辺造園,,株式会社,千葉県,成田市,土屋１５９番地,,12,211,2860021,,,,,,,2025-04-08,1,,,,,ワタナベゾウエン,0
1836,6040001138177,新規,0,2025-04-08,2025-04-08,株式会社ｆｏｒ　ｔｈｅ,,株式会社,千葉県,野田市,柳沢５６番地の８リブ柳沢１－Ｂ,,12,208,2780006,,,,,,,2025-04-08,1,,,,,フォーザ,0
1837,6040001138193,新規,0,2025-04-08,2025-04-08,株式会社青木設備,,株式会社,千葉県,柏市,中新宿１丁目２０番４号,,12,217,2770066,,,,,,,2025-04-08,1,,,,,アオキセツビ,0
1838,6040001138202,新規,0,2025-04-08,2025-04-08,株式会社Ｉ’ｍ工房,,株式会社,千葉県,木更津市,矢那１１８番地２,,12,206,2920812,,,,,,,2025-04-08,1,,,,,アイムコウボウ,0
1839,6040001138227,新規,0,2025-04-08,2025-04-08,株式会社乃窓,,株式会社,千葉県,八千代市,島田台９８５,,12,221,2760004,,,,,,,2025-04-08,1,,,,,ノマド,0
1840,6040001138235,新規,0,2025-04-08,2025-04-08,株式会社ＧＣ,,株式会社,千葉県,千葉市花見川区,幕張町５丁目４１７番地１２８ＴＳビル１Ｆ,,12,102,2620032,,,,,,,2025-04-08,1,,,,,ジーシー,0
1841,6040001138251,新規,0,2025-04-08,2025-04-08,株式会社早川電気,,株式会社,千葉県,印旛郡栄町,安食３６８７－３,,12,329,2701516,,,,,,,2025-04-08,1,,,,,ハヤカワデンキ,0
1844,6040003027238,新規,0,2025-04-08,2025-04-08,合同会社テンダー,,合同会社,千葉県,千葉市中央区,富士見２丁目２３番６号ＫＡＮビル地下１階,,12,101,2600015,,,,,,,2025-04-08,1,,,,,テンダー,0
1845,6040003027295,新規,0,2025-04-08,2025-04-08,合同会社福介ＳＯＫ,,合同会社,千葉県,市川市,若宮３丁目５６番２４号ハルメゾン２０２,,12,203,2720812,,,,,,,2025-04-08,1,,,,,フクスケエスオーケー,0
1848,6050001056469,新規,0,2025-04-08,2025-04-08,株式会社ｄｏｇｓａｌｏｎ　ｐｏｏｃｈ,,株式会社,茨城県,牛久市,南４丁目４５番地１４,,08,219,3001222,,,,,,,2025-04-08,1,,,,,ドッグサロンプーチ,0
1851,6050003009169,新規,0,2025-04-08,2025-04-08,合同会社戸村工業,,合同会社,茨城県,神栖市,下幡木３９１９番地４０ロイヤルパレス１０１,,08,232,3140131,,,,,,,2025-04-08,1,,,,,トムラコウギョウ,0
1857,6070001042797,新規,0,2025-04-08,2025-04-08,株式会社Ｆａｂ　Ａｓｓｉｓｔ,,株式会社,群馬県,太田市,矢田堀町７５９番地,,10,205,3730016,,,,,,,2025-04-08,1,,,,,ファブアシスト,0
1858,6070001042814,新規,0,2025-04-08,2025-04-08,株式会社ふじおかメディアリンク,,株式会社,群馬県,藤岡市,立石８１０番地５,,10,209,3750002,,,,,,,2025-04-08,1,,,,,フジオカメディアリンク,0
1859,6070001042822,新規,0,2025-04-08,2025-04-08,株式会社ＴＡＮＡＫＡ　ＳＴＯＲＥ,,株式会社,群馬県,太田市,大原町４４４番地１アラモードＡ１０２,,10,205,3792304,,,,,,,2025-04-08,1,,,,,タナカストア,0
1864,6080101025412,新規,0,2025-04-08,2025-04-08,スパイラル建設不動産株式会社,,株式会社,静岡県,富士市,青葉町９９番地,,22,210,4160952,,,,,,,2025-04-08,1,,,,,スパイラルケンセツフドウサン,0
1865,6080103003291,新規,0,2025-04-08,2025-04-08,合同会社静岡個別進学館,,合同会社,静岡県,沼津市,寿町２１―３,,22,203,4100053,,,,,,,2025-04-08,1,,,,,シズオカコベツシンガクカン,0
1867,6080401027851,新規,0,2025-04-08,2025-04-08,株式会社ＮＯＡＨ,,株式会社,静岡県,浜松市中央区,坪井町２番地の２Ｌａｖｉｅ坪井町２０１,,22,138,4310202,,,,,,,2025-04-08,1,,,,,ノア,0
1875,6100005013329,新規,0,2025-04-08,2025-04-08,ながの行政書士法人,,その他の設立登記法人,長野県,長野市,大字鶴賀田町２１４４番地４,,20,201,3800815,,,,,,,2025-04-08,1,,,,,ナガノ,0
1876,6110001039178,新規,0,2025-04-08,2025-04-08,新潟塗装店株式会社,,株式会社,新潟県,南魚沼市,九日町８８４番地２,,15,226,9497312,,,,,,,2025-04-08,1,,,,,ニイガタトソウテン,0
1888,6120001274220,新規,0,2025-04-08,2025-04-08,株式会社ＡＴＡＲＵ商会,,株式会社,大阪府,大阪市中央区,南船場３丁目７番３２号榎本ビルディング,,27,128,5420081,,,,,,,2025-04-08,1,,,,,アタルショウカイ,0
1889,6120001274278,新規,0,2025-04-08,2025-04-08,株式会社ＡＨＩ,,株式会社,大阪府,大阪市生野区,巽中４丁目１６番１５－７０５号,,27,116,5440013,,,,,,,2025-04-08,1,,,,,エーエイチアイ,0
1890,6120001274294,新規,0,2025-04-08,2025-04-08,ゼニステクノロジー株式会社,,株式会社,大阪府,大阪市生野区,鶴橋４丁目１４番６－２Ｆ,,27,116,5440031,,,,,,,2025-04-08,1,,,,,ゼニステクノロジー,0
1891,6120001274303,新規,0,2025-04-08,2025-04-08,ＪＡＰＡＴＨ株式会社,,株式会社,大阪府,大阪市中央区,平野町１丁目８番１３号平野町八千代ビル３階,,27,128,5410046,,,,,,,2025-04-08,1,,,,,ジャパス,0
1893,6120003029028,新規,0,2025-04-08,2025-04-08,ＪＮＫ合同会社,,合同会社,大阪府,大阪市西成区,中開２丁目１番２０号８０８号室,,27,122,5570022,,,,,,,2025-04-08,1,,,,,ジェーエヌケー,0
1897,6120101071377,新規,0,2025-04-08,2025-04-08,株式会社ＦＣ,,株式会社,大阪府,堺市堺区,中三国ヶ丘町６丁５番１６号,,27,141,5900022,,,,,,,2025-04-08,1,,,,,エフシー,0
1899,6120103006364,新規,0,2025-04-08,2025-04-08,信和ホールディングス合同会社,,合同会社,大阪府,岸和田市,春木旭町３６番５１－３０５号,,27,202,5960005,,,,,,,2025-04-08,1,,,,,シンワホールディングス,0
1900,6120103006380,新規,0,2025-04-08,2025-04-08,政和商事合同会社,,合同会社,大阪府,岸和田市,天神山町２丁目９番６号１０７号室,,27,202,5960834,,,,,,,2025-04-08,1,,,,,セイワショウジ,0
1903,6120901050704,新規,0,2025-04-08,2025-04-08,株式会社ＳＫパートナーズ,,株式会社,大阪府,吹田市,広芝町４番３４号江坂第一ビル６階,,27,205,5640052,,,,,,,2025-04-08,1,,,,,エスケーパートナーズ,0
1910,6130001079305,新規,0,2025-04-08,2025-04-08,株式会社勝建設,,株式会社,京都府,京都市西京区,下津林番条町２２番地３,,26,111,6158057,,,,,,,2025-04-08,1,,,,,ショウケンセツ,0
1915,6140001138002,新規,0,2025-04-08,2025-04-08,株式会社杉昇,,株式会社,兵庫県,加古川市,尾上町口里８１４番地の１８,,28,210,6750022,,,,,,,2025-04-08,1,,,,,スギショウ,0
1916,6140001138019,新規,0,2025-04-08,2025-04-08,株式会社ｕｎＩＴ,,株式会社,兵庫県,西宮市,生瀬武庫川町２番３－２００２号,,28,204,6691104,,,,,,,2025-04-08,1,,,,,ユナイト,0
1917,6140001138076,新規,0,2025-04-08,2025-04-08,株式会社Ｍｅｄｉｕｍ,,株式会社,兵庫県,神戸市灘区,森後町２丁目２番１０号プラシード六甲３０５,,28,102,6570028,,,,,,,2025-04-08,1,,,,,メジューム,0
1919,6140003021874,新規,0,2025-04-08,2025-04-08,合同会社ＥＭＡＮＯＡ,,合同会社,兵庫県,伊丹市,梅ノ木２丁目１番１３－１０５号,,28,207,6640856,,,,,,,2025-04-08,1,,,,,エマノア,0
1921,6140005027449,新規,0,2025-04-08,2025-04-08,一般社団法人ＪＳＡＰＰ,,その他の設立登記法人,兵庫県,神戸市中央区,御幸通６丁目１番３１号フキ三宮ビル７０１,,28,110,6510087,,,,,,,2025-04-08,1,,,,,ジェイサップ,0
1922,6160001026650,新規,0,2025-04-08,2025-04-08,株式会社レークホールディングス,,株式会社,滋賀県,甲賀市,甲南町野尻４４３－１,,25,209,5203307,,,,,,,2025-04-08,1,,,,,レークホールディングス,0
1929,6180001166230,新規,0,2025-04-08,2025-04-08,株式会社ふわり,,株式会社,愛知県,名古屋市中川区,万場５丁目８１８番地,,23,110,4540997,,,,,,,2025-04-08,1,,,,,フワリ,0
1930,6180001166239,新規,0,2025-04-08,2025-04-08,４４７２株式会社,,株式会社,愛知県,名古屋市中村区,名駅４丁目２４番５号第２森ビル４０１,,23,105,4500002,,,,,,,2025-04-08,1,,,,,ヨシナニ,0
1931,6180001166296,新規,0,2025-04-08,2025-04-08,株式会社ＦＯＲＴＵＮＡ,,株式会社,愛知県,稲沢市,福島町屋敷９４番地,,23,220,4928441,,,,,,,2025-04-08,1,,,,,フォルタナ,0
1932,6180001166321,新規,0,2025-04-08,2025-04-08,恵方エステート株式会社,,株式会社,愛知県,名古屋市中区,丸の内２丁目１４番４号エグゼ丸の内４０５号,,23,106,4600002,,,,,,,2025-04-08,1,,,,,エホウエステート,0
1934,6180003028247,新規,0,2025-04-08,2025-04-08,リクロト・エステート合同会社,,合同会社,愛知県,名古屋市港区,入船２丁目２－４,,23,111,4550032,,,,,,,2025-04-08,1,,,,,リクロトエステート,0
1935,6180003028263,新規,0,2025-04-08,2025-04-08,合同会社ワイ・ソリューションズ,,合同会社,愛知県,稲沢市,大塚南５丁目１番地３ライオンズガーデン稲沢東棟６１２,,23,220,4928214,,,,,,,2025-04-08,1,,,,,ワイソリューションズ,0
1936,6180003028271,新規,0,2025-04-08,2025-04-08,合同会社革の爪,,合同会社,愛知県,知多郡阿久比町,大字萩字凸清水３０番地１,,23,441,4702205,,,,,,,2025-04-08,1,,,,,カワノツメ,0
1947,6200001043609,新規,0,2025-04-08,2025-04-08,株式会社ＯＭＮＩＳ,,株式会社,岐阜県,大垣市,貝曽根町６９番地１,,21,202,5030007,,,,,,,2025-04-08,1,,,,,オムニス,0
1949,6200003006761,新規,0,2025-04-08,2025-04-08,合同会社美濃園,,合同会社,岐阜県,関市,下有知４６９番地２,,21,205,5013217,,,,,,,2025-04-08,1,,,,,ミノエン,0
1962,6250003003688,新規,0,2025-04-08,2025-04-08,合同会社ＷＡＮ　ｃｏｍｐａｎｙ,,合同会社,山口県,下関市,大字田倉７１９番地,,35,201,7510883,,,,,,,2025-04-08,1,,,,,ワンカンパニー,0
1973,6290001109574,新規,0,2025-04-08,2025-04-08,株式会社ｉＤａｔａ,,株式会社,福岡県,福岡市中央区,小笹４丁目５番２－９０１号,,40,133,8100033,,,,,,,2025-04-08,1,,,,,アイデータ,0
1974,6290001109590,新規,0,2025-04-08,2025-04-08,株式会社ハーモニーライフ,,株式会社,福岡県,久留米市,津福今町５９０番地,,40,203,8300061,,,,,,,2025-04-08,1,,,,,ハーモニーライフ,0
1975,6290001109599,新規,0,2025-04-08,2025-04-08,株式会社中村工務店,,株式会社,福岡県,福岡市南区,曰佐４丁目２８番９号,,40,134,8111313,,,,,,,2025-04-08,1,,,,,ナカムラコウムテン,0
1980,6290801031408,新規,0,2025-04-08,2025-04-08,株式会社グリーンエンジ,,株式会社,福岡県,遠賀郡芦屋町,江川台１４番１号,,40,381,8070142,,,,,,,2025-04-08,1,,,,,グリーンエンジ,0
1981,6290801031424,新規,0,2025-04-08,2025-04-08,株式会社アジアスポーツマーケティング,,株式会社,福岡県,北九州市八幡西区,陣原３丁目２３番９号,,40,109,8070821,,,,,,,2025-04-08,1,,,,,アジアスポーツマーケティング,0
1983,6300003002263,新規,0,2025-04-08,2025-04-08,合同会社ＭＹ　ＨＡＴＣＨ,,合同会社,佐賀県,佐賀市,川副町大字南里５２番地２,,41,201,8402205,,,,,,,2025-04-08,1,,,,,マイハッチ,0
1992,6330005010897,新規,0,2025-04-08,2025-04-08,一般社団法人熊本市里親会,,その他の設立登記法人,熊本県,熊本市東区,桜木５丁目９－１０２里親支援センターゆうり内,,43,102,8612101,,,,,,,2025-04-08,1,,,,,クマモトシサトオヤカイ,0
1995,6340001027234,新規,0,2025-04-08,2025-04-08,株式会社Ｍｙ　Ｒｅｓｏｒｔ,,株式会社,鹿児島県,姶良市,加治木町小山田１０９１番地２,,46,225,8995203,,,,,,,2025-04-08,1,,,,,マイリゾート,0
1997,6350003004899,新規,0,2025-04-08,2025-04-08,合同会社カランコエ育みの会,,合同会社,宮崎県,都城市,祝吉３丁目９番地１８,,45,202,8850019,,,,,,,2025-04-08,1,,,,,カランコエハグクミノカイ,0
2000,6360003014815,新規,0,2025-04-08,2025-04-08,合同会社Ｗｏｒｌｄ　Ｈａｐｐｙ,,合同会社,沖縄県,うるま市,字高江洲９４２番地２,,47,213,9042242,,,,,,,2025-04-08,1,,,,,ワールドハッピー,0
2001,6360003014831,新規,0,2025-04-08,2025-04-08,湯川建材合同会社,,合同会社,沖縄県,石垣市,字新川３８１番地２,,47,207,9070024,,,,,,,2025-04-08,1,,,,,ユガワケンザイ,0
2002,6360005007206,新規,0,2025-04-08,2025-04-08,一般社団法人ＡＫＮ　ＰＲＯＪＥＣＴ,,その他の設立登記法人,沖縄県,那覇市,泊２丁目２４番地４サザリース泊４０２,,47,201,9000012,,,,,,,2025-04-08,1,,,,,エーケーエヌプロジェクト,0
2004,6370001052444,新規,0,2025-04-08,2025-04-08,株式会社広瀬システム,,株式会社,宮城県,仙台市青葉区,一番町１丁目１１番９号－３０７,,04,101,9800811,,,,,,,2025-04-08,1,,,,,ヒロセシステム,0
2005,6370003007017,新規,0,2025-04-08,2025-04-08,三本木メガソーラー発電合同会社,,合同会社,宮城県,大崎市,三本木伊場野字中ノ坊３番地,,04,215,9896303,,,,,,,2025-04-08,1,,,,,サンボンギメガソーラーハツデン,0
2006,6370003007025,新規,0,2025-04-08,2025-04-08,合同会社ＬＥＯ,,合同会社,宮城県,仙台市宮城野区,宮城野２丁目７番１号クレエメルベーユ１Ｆ,,04,102,9830045,,,,,,,2025-04-08,1,,,,,エルイーオー,0
2022,6430001094117,新規,0,2025-04-08,2025-04-08,株式会社オープンシーアイ,,株式会社,北海道,札幌市中央区,宮ケ丘１丁目２番１宮ヶ丘レジデンス神宮前６０４号,,01,101,0640959,,,,,,,2025-04-08,1,,,,,オープンシーアイ,0
2030,6470003002858,新規,0,2025-04-08,2025-04-08,シーディーエフ合同会社,,合同会社,香川県,観音寺市,大野原町丸井６０３番地２,,37,205,7691615,,,,,,,2025-04-08,1,,,,,,0
2031,6480001012800,新規,0,2025-04-08,2025-04-08,株式会社ｅｄｇｅ,,株式会社,徳島県,徳島市,安宅２丁目８番１－９号,,36,201,7700863,,,,,,,2025-04-08,1,,,,,エッジ,0
2034,6500005008783,新規,0,2025-04-08,2025-04-08,一般社団法人愛媛まさき町観光物産協会,,その他の設立登記法人,愛媛県,伊予郡松前町,大字筒井８５０,,38,401,7913120,,,,,,,2025-04-08,1,,,,,エヒメマサキチョウカンコウブッサンキョウカイ,0
2044,7010001253738,新規,0,2025-04-08,2025-04-08,ＥＣＯＰＡ若洲株式会社,,株式会社,東京都,中央区,日本橋浜町３丁目２１番１号,,13,102,1030007,,,,,,,2025-04-08,1,,,,,エコパワカス,0
2045,7010001253795,新規,0,2025-04-08,2025-04-08,株式会社ミラクル経理,,株式会社,東京都,中央区,日本橋１丁目４番１号日本橋一丁目ビルディング,,13,102,1030027,,,,,,,2025-04-08,1,,,,,ミラクルケイリ,0
2046,7010001253969,新規,0,2025-04-08,2025-04-08,プロフェッショナルリンクス株式会社,,株式会社,東京都,中央区,日本橋箱崎町２７－９オフィスヴェラ日本橋箱崎１階,,13,102,1030015,,,,,,,2025-04-08,1,,,,,プロフェッショナルリンクス,0
2047,7010003046990,新規,0,2025-04-08,2025-04-08,合同会社ＫＯＭ,,合同会社,東京都,文京区,千石４丁目６番１７－１０３号,,13,105,1120011,,,,,,,2025-04-08,1,,,,,ケーオーエム,0
2051,7010005039885,新規,0,2025-04-08,2025-04-08,一般社団法人ＳＣ００６,,その他の設立登記法人,東京都,千代田区,平河町１丁目６番１５号シルスフィア会計事務所内,,13,101,1020093,,,,,,,2025-04-08,1,,,,,エスシーゼロゼロロク,0
2062,7010401189318,新規,0,2025-04-08,2025-04-08,株式会社ＯＷＮ,,株式会社,東京都,港区,南青山２丁目２－１５,,13,103,1070062,,,,,,,2025-04-08,1,,,,,オウン,0
2063,7010401189400,新規,0,2025-04-08,2025-04-08,株式会社ｎｉｃｏｃｏｃｏ,,株式会社,東京都,港区,南青山３丁目１番３６号青山丸竹ビル６Ｆ,,13,103,1070062,,,,,,,2025-04-08,1,,,,,ニコココ,0
2064,7010403034810,新規,0,2025-04-08,2025-04-08,合同会社ヘルスケアアセットソリューション４号,,合同会社,東京都,港区,港南２丁目１５番３号,,13,103,1080075,,,,,,,2025-04-08,1,,,,,ヘルスケアアセットソリューションヨンゴウ,0
2065,7010403034819,新規,0,2025-04-08,2025-04-08,のぞみ上長折ソーラー合同会社,,合同会社,東京都,港区,芝５丁目２９番１９号ＰＭＯ田町ＩＶ８階,00138628,13,103,1080014,,,,,,,2025-04-08,1,,,,,ノゾミカミナガオリソーラー,0
2066,7010403034851,新規,0,2025-04-08,2025-04-08,乃木坂パートナーズ合同会社,,合同会社,東京都,港区,南青山３丁目１番３６号青山丸竹ビル６Ｆ,,13,103,1070062,,,,,,,2025-04-08,1,,,,,ノギザカパートナーズ,0
2068,7010405024297,新規,0,2025-04-08,2025-04-08,一般社団法人のぞみ上長折ソーラー,,その他の設立登記法人,東京都,港区,芝５丁目２９番１９号ＰＭＯ田町ＩＶ８階,00138627,13,103,1080014,,,,,,,2025-04-08,1,,,,,ノゾミカミナガオリソーラー,0
2070,7010503007781,新規,0,2025-04-08,2025-04-08,トラストフォーラム合同会社,,合同会社,東京都,台東区,根岸２丁目１番２－９０２号グランコートソフィア,,13,106,1100003,,,,,,,2025-04-08,1,,,,,トラストフォーラム,0
2075,7010803005337,新規,0,2025-04-08,2025-04-08,合同会社Ｆｌａｒｅ　Ｐｒｏ,,合同会社,東京都,大田区,蒲田１丁目４－２８,,13,111,1440052,,,,,,,2025-04-08,1,,,,,フレアプロ,0
2080,7010901057148,新規,0,2025-04-08,2025-04-08,ＦＳサービス株式会社,,株式会社,東京都,世田谷区,下馬６丁目１４番８－４０４号,,13,112,1540002,,,,,,,2025-04-08,1,,,,,エフエスサービス,0
2084,7011001169008,新規,0,2025-04-08,2025-04-08,株式会社ＳＥＥＤ　ＯＮＥ,,株式会社,東京都,渋谷区,神宮前４丁目１８番４号,,13,113,1500001,,,,,,,2025-04-08,1,,,,,シードワン,0
2085,7011005010935,新規,0,2025-04-08,2025-04-08,一般社団法人ＡＳＯＢＯ‐ＫＩＤＳ,,その他の設立登記法人,東京都,渋谷区,恵比寿西２丁目８番４号ＥＸ恵比寿西ビル５階,,13,113,1500021,,,,,,,2025-04-08,1,,,,,アソボウキッズ,0
2088,7011101111190,新規,0,2025-04-08,2025-04-08,拓智株式会社,,株式会社,東京都,新宿区,新宿１丁目２４番７－１３１３号,,13,104,1600022,,,,,,,2025-04-08,1,,,,,タクチ,0
2089,7011101111216,新規,0,2025-04-08,2025-04-08,株式会社ＣＡＲＡＳＵ,,株式会社,東京都,新宿区,新宿２丁目１２番１３号新宿アントレサロンビル２階,,13,104,1600022,,,,,,,2025-04-08,1,,,,,カラス,0
2090,7011101111298,新規,0,2025-04-08,2025-04-08,さくら管理株式会社,,株式会社,東京都,新宿区,西新宿７丁目１８番１２号新都心ビル３０３号室,,13,104,1600023,,,,,,,2025-04-08,1,,,,,サクラカンリ,0
2091,7011101111364,新規,0,2025-04-08,2025-04-08,株式会社インパーシャル,,株式会社,東京都,新宿区,西新宿３丁目３番１３号西新宿水間ビル２Ｆ,,13,104,1600023,,,,,,,2025-04-08,1,,,,,インパーシャル,0
2093,7011303005488,新規,0,2025-04-08,2025-04-08,合同会社Ａ．Ｍ．Ｋ．,,合同会社,東京都,杉並区,荻窪１丁目１９－１１第二野村ビル２０５,,13,115,1670051,,,,,,,2025-04-08,1,,,,,エイエムケイ,0
2095,7011501031897,新規,0,2025-04-08,2025-04-08,株式会社ｓｈａｄｏｗ,,株式会社,東京都,北区,浮間２丁目５番１２－２０９号,,13,117,1150051,,,,,,,2025-04-08,1,,,,,シャドウ,0
2098,7011503006476,新規,0,2025-04-08,2025-04-08,ＳＦＲコンサルティング合同会社,,合同会社,東京都,荒川区,南千住３丁目４０番１０―４１０号,,13,118,1160003,,,,,,,2025-04-08,1,,,,,エスエフアールコンサルティング,0
2102,7011801045928,新規,0,2025-04-08,2025-04-08,株式会社Ｙ’ｓ‐Ｄｅｓｉｇｎ,,株式会社,東京都,足立区,古千谷本町４丁目９番１３号,,13,121,1210832,,,,,,,2025-04-08,1,,,,,ワイズデザイン,0
2105,7011803006795,新規,0,2025-04-08,2025-04-08,ＴＥＣＨＯＮデジタル合同会社,,合同会社,東京都,足立区,保塚町５番１８号,,13,121,1210072,,,,,,,2025-04-08,1,,,,,テックオンデジタル,0
2106,7012301014316,新規,0,2025-04-08,2025-04-08,株式会社ハッピーエンド,,株式会社,東京都,町田市,南大谷３丁目７‐５,,13,209,1940031,,,,,,,2025-04-08,1,,,,,ハッピーエンド,0
2107,7012303002137,新規,0,2025-04-08,2025-04-08,合同会社たんぼ,,合同会社,東京都,町田市,中町３丁目１７番５号,,13,209,1940021,,,,,,,2025-04-08,1,,,,,タンボ,0
2108,7012401042951,新規,0,2025-04-08,2025-04-08,株式会社吉祥寺なかみち,,株式会社,東京都,武蔵野市,吉祥寺本町３丁目７番１５号,,13,203,1800004,,,,,,,2025-04-08,1,,,,,キチジョウジナカミチ,0
2110,7012701018783,新規,0,2025-04-08,2025-04-08,株式会社商工中金ＭＩＲＡＩハーベスト,,株式会社,東京都,東村山市,美住町２丁目１０番１号,,13,213,1890023,,,,,,,2025-04-08,1,,,,,ショウコウチュウキンミライハーベスト,0
2111,7012801023873,新規,0,2025-04-08,2025-04-08,株式会社奨偉,,株式会社,東京都,立川市,西砂町２丁目１５番地の９パークハイツ蛍１０６,,13,202,1900034,,,,,,,2025-04-08,1,,,,,ショウイ,0
2114,7012803003683,新規,0,2025-04-08,2025-04-08,合同会社リエゾン,,合同会社,東京都,日野市,大字日野５９７０番地の１４,,13,212,1910012,,,,,,,2025-04-08,1,,,,,リエゾン,0
2125,7020001162054,新規,0,2025-04-08,2025-04-08,株式会社ＡＲＩＡ,,株式会社,神奈川県,川崎市川崎区,大島上町１７―８,,14,131,2100836,,,,,,,2025-04-08,1,,,,,アリア,0
2126,7020001162104,新規,0,2025-04-08,2025-04-08,株式会社スカイフィールド,,株式会社,神奈川県,横浜市中区,日ノ出町２丁目１５３番１号,,14,104,2310066,,,,,,,2025-04-08,1,,,,,スカイフィールド,0
2127,7020001162129,新規,0,2025-04-08,2025-04-08,株式会社由岳,,株式会社,神奈川県,横浜市港北区,日吉２丁目１８番４２号,,14,109,2230061,,,,,,,2025-04-08,1,,,,,ユガク,0
2128,7020001162137,新規,0,2025-04-08,2025-04-08,株式会社ＢＨＣ　ＪＡＰＡＮ,,株式会社,神奈川県,横浜市南区,井土ケ谷中町３７番地６－２０１号,,14,105,2320052,,,,,,,2025-04-08,1,,,,,ビーエイチシージャパン,0
2129,7020001162153,新規,0,2025-04-08,2025-04-08,株式会社ＡＬＥＡＦ,,株式会社,神奈川県,横浜市中区,長者町９丁目１７４番地第５吉田ビル２０１,,14,104,2310033,,,,,,,2025-04-08,1,,,,,アリーフ,0
2130,7020001162211,新規,0,2025-04-08,2025-04-08,株式会社キューバッカ,,株式会社,神奈川県,横浜市磯子区,栗木２丁目２番４号,,14,107,2350041,,,,,,,2025-04-08,1,,,,,キューバッカ,0
2131,7020001162228,新規,0,2025-04-08,2025-04-08,花塚企画株式会社,,株式会社,神奈川県,川崎市宮前区,南平台２０番１６－３０２号,,14,136,2160024,,,,,,,2025-04-08,1,,,,,ハナツカキカク,0
2132,7020001162285,新規,0,2025-04-08,2025-04-08,ＫＯＤＡＣＨＩ株式会社,,株式会社,神奈川県,横浜市旭区,中希望が丘２１４番地２０,,14,112,2410825,,,,,,,2025-04-08,1,,,,,コダチ,0
2135,7020003028195,新規,0,2025-04-08,2025-04-08,合同会社マラソン二刀流,,合同会社,神奈川県,横浜市都筑区,茅ケ崎南４丁目１５番１－５０７号,,14,118,2240037,,,,,,,2025-04-08,1,,,,,マラソンニトウリュウ,0
2141,7021001084858,新規,0,2025-04-08,2025-04-08,株式会社ｗａｙｒｏａｄ,,株式会社,神奈川県,綾瀬市,落合南４丁目９番２７号,,14,218,2521115,,,,,,,2025-04-08,1,,,,,ウェイロード,0
2142,7021001084916,新規,0,2025-04-08,2025-04-08,株式会社Ｍ・Ｙインフィニティホールディングス,,株式会社,神奈川県,小田原市,板橋２７６番地１３,,14,206,2500034,,,,,,,2025-04-08,1,,,,,エムワイインフィニティホールディングス,0
2152,7030001165782,新規,0,2025-04-08,2025-04-08,株式会社クリーンファクトリー,,株式会社,埼玉県,越谷市,大字下間久里５６２番地９,,11,222,3430045,,,,,,,2025-04-08,1,,,,,クリーンファクトリー,0
2153,7030001165790,新規,0,2025-04-08,2025-04-08,富盛国際貿易株式会社,,株式会社,埼玉県,川越市,大字下広谷９９５番地５２,,11,201,3500804,,,,,,,2025-04-08,1,,,,,トミモリコクサイボウエキ,0
2154,7030001165799,新規,0,2025-04-08,2025-04-08,ＤＥ　ＴＵＲＩＳＭＯ　ＥＮ　ＪＡＰＯＮ株式会社,,株式会社,埼玉県,朝霞市,三原２丁目３４番２５－３０２,,11,227,3510025,,,,,,,2025-04-08,1,,,,,デトゥリスモエンハポン,0
2155,7030001165816,新規,0,2025-04-08,2025-04-08,株式会社ＫＡｉＲＯＳ,,株式会社,埼玉県,桶川市,坂田西３丁目１番地の１６,,11,231,3630018,,,,,,,2025-04-08,1,,,,,カイロス,0
2156,7030001165840,新規,0,2025-04-08,2025-04-08,株式会社ＶＡＫＴ,,株式会社,埼玉県,さいたま市大宮区,桜木町２丁目３番地大宮マルイビル７Ｆ,,11,103,3300854,,,,,,,2025-04-08,1,,,,,ブイエーケイティー,0
2157,7030001165873,新規,0,2025-04-08,2025-04-08,ウォーリンシンワクーパレッジ株式会社,,株式会社,埼玉県,加須市,麦倉２７４番地１,,11,210,3491212,,,,,,,2025-04-08,1,,,,,ウォーリンシンワクーパレッジ,0
2158,7030001165898,新規,0,2025-04-08,2025-04-08,恒友実業株式会社,,株式会社,埼玉県,さいたま市見沼区,東大宮４丁目９－６カナリヤビル１Ｆ,,11,104,3370051,,,,,,,2025-04-08,1,,,,,コウユウジツギョウ,0
2163,7030003026487,新規,0,2025-04-08,2025-04-08,合同会社みらいをかたちに,,合同会社,埼玉県,さいたま市浦和区,本太２丁目２番１８－７０２号,,11,107,3300052,,,,,,,2025-04-08,1,,,,,ミライヲカタチニ,0
2168,7040001138151,新規,0,2025-04-08,2025-04-08,株式会社アークグリーン,,株式会社,千葉県,勝浦市,守谷３９３番地３,,12,218,2995244,,,,,,,2025-04-08,1,,,,,アークグリーン,0
2169,7040001138168,新規,0,2025-04-08,2025-04-08,株式会社Ｎｏｂｅｄｉａ,,株式会社,千葉県,白井市,根２００番地の８５,,12,232,2701431,,,,,,,2025-04-08,1,,,,,ノベディア,0
2170,7040001138192,新規,0,2025-04-08,2025-04-08,株式会社石田,,株式会社,千葉県,袖ケ浦市,神納２丁目２６番地９,,12,229,2990257,,,,,,,2025-04-08,1,,,,,イシダ,0
2171,7040001138226,新規,0,2025-04-08,2025-04-08,ベティクロムエグロ株式会社,,株式会社,千葉県,野田市,木間ケ瀬９４５２,,12,208,2700222,,,,,,,2025-04-08,1,,,,,ベティクロムエグロ,0
2172,7040001138242,新規,0,2025-04-08,2025-04-08,高洋子株式会社,,株式会社,千葉県,流山市,江戸川台東１丁目１６０－３センタコートハルＩＩ２階Ｃ号室,00138661,12,220,2700111,,,,,,,2025-04-08,1,,,,,タカヨウコ,0
2173,7040001138250,新規,0,2025-04-08,2025-04-08,株式会社ホールズ,,株式会社,千葉県,鎌ケ谷市,南初富５丁目１番１５号,,12,224,2730123,,,,,,,2025-04-08,1,,,,,ホールズ,0
2174,7040001138259,新規,0,2025-04-08,2025-04-08,株式会社海建設工業,,株式会社,千葉県,野田市,桜の里２丁目５番地の１７,,12,208,2780048,,,,,,,2025-04-08,1,,,,,カイケンセツコウギョウ,0
2175,7040003027294,新規,0,2025-04-08,2025-04-08,合同会社ＫＭＫ,,合同会社,千葉県,千葉市中央区,中央３丁目４－１０千葉銀座ビル５Ｆ,,12,101,2600013,,,,,,,2025-04-08,1,,,,,ケイエムケイ,0
2176,7040003027303,新規,0,2025-04-08,2025-04-08,ＣＨＥＡＰ合同会社,,合同会社,千葉県,佐倉市,城２０４番地３３３,,12,212,2850815,,,,,,,2025-04-08,1,,,,,チアプ,0
2178,7050001056468,新規,0,2025-04-08,2025-04-08,株式会社昌和測量コンサルタント,,株式会社,茨城県,つくば市,吉沼１０２５番地１,,08,220,3002617,,,,,,,2025-04-08,1,,,,,ショウワソクリョウコンサルタント,0
2179,7050003009168,新規,0,2025-04-08,2025-04-08,合同会社Ｈ．Ｒ．Ｉ．,,合同会社,茨城県,鹿嶋市,大字港ケ丘１１４０番地５０スウィートオーシャンＡ１０２,,08,222,3140011,,,,,,,2025-04-08,1,,,,,エイチアールアイ,0
2180,7050003009176,新規,0,2025-04-08,2025-04-08,クレオモニア合同会社,,合同会社,茨城県,稲敷市,月出里２７３－４６,,08,229,3000521,,,,,,,2025-04-08,1,,,,,クレオモニア,0
2181,7050005013589,新規,0,2025-04-08,2025-04-08,一般社団法人オルカスポーツアカデミー,,その他の設立登記法人,茨城県,水戸市,白梅１丁目９番５号,,08,201,3100804,,,,,,,2025-04-08,1,,,,,オルカスポーツアカデミー,0
2185,7060001038077,新規,0,2025-04-08,2025-04-08,株式会社キクチ,,株式会社,栃木県,鹿沼市,上石川１４７７番地,,09,205,3220015,,,,,,,2025-04-08,1,,,,,キクチ,0
2187,7070001042805,新規,0,2025-04-08,2025-04-08,株式会社友利電気,,株式会社,群馬県,富岡市,上高尾１６６番地１１,,10,210,3702317,,,,,,,2025-04-08,1,,,,,トモリデンキ,0
2188,7070001042821,新規,0,2025-04-08,2025-04-08,株式会社つちのコト,,株式会社,群馬県,吾妻郡長野原町,大字北軽井沢１９２４番地１３６０,,10,424,3771412,,,,,,,2025-04-08,1,,,,,ツチノコト,0
2194,7080101025428,新規,0,2025-04-08,2025-04-08,土屋興業株式会社,,株式会社,静岡県,伊豆の国市,古奈１９８番地の５アストロハイム２０１号,,22,225,4102201,,,,,,,2025-04-08,1,,,,,ツチヤコウギョウ,0
2201,7100005013328,新規,0,2025-04-08,2025-04-08,一般社団法人長野県病院薬剤師会,,その他の設立登記法人,長野県,松本市,旭３丁目１番１号,,20,202,3900802,,,,,,,2025-04-08,1,,,,,ナガノケンビョウインヤクザイシカイ,0
2215,7120001274293,新規,0,2025-04-08,2025-04-08,株式会社Ｘ　ＴＥＡＭ　ＬＡＢ,,株式会社,大阪府,大阪市北区,大深町３－１,,27,127,5300011,,,,,,,2025-04-08,1,,,,,エックスチームラボ,0
2216,7120001274302,新規,0,2025-04-08,2025-04-08,株式会社Ｐｒｉｃｅｌｅｓｓ,,株式会社,大阪府,大阪市天王寺区,上本町１丁目１番１７号上本町吉住ビル１階,,27,109,5430001,,,,,,,2025-04-08,1,,,,,プライスレス,0
2217,7120001274310,新規,0,2025-04-08,2025-04-08,吉学建築株式会社,,株式会社,大阪府,大阪市西区,九条２丁目１７番１２号九条二丁目明人ビル２０２,,27,106,5500027,,,,,,,2025-04-08,1,,,,,ヨシガクケンチク,0
2221,7120003029043,新規,0,2025-04-08,2025-04-08,合同会社ＴＨＡＮＨ　ＮＧＯＣ,,合同会社,大阪府,大阪市西成区,松３丁目１１番２２号３０２号室,,27,122,5570034,,,,,,,2025-04-08,1,,,,,タンゴック,0
2227,7120101071418,新規,0,2025-04-08,2025-04-08,七宝株式会社,,株式会社,大阪府,羽曳野市,向野３丁目１１番３０号,,27,222,5830883,,,,,,,2025-04-08,1,,,,,シッポウ,0
2229,7120901050678,新規,0,2025-04-08,2025-04-08,株式会社日企ホールディングス,,株式会社,大阪府,吹田市,古江台１丁目２５番１号,,27,205,5650874,,,,,,,2025-04-08,1,,,,,ニッキホールディングス,0
2235,7130001079386,新規,0,2025-04-08,2025-04-08,神田竹細工店株式会社,,株式会社,京都府,京都市東山区,高台寺南門通下河原東入桝屋町３４９,,26,105,6050826,,,,,,,2025-04-08,1,,,,,カンダタケザイクテン,0
2236,7130001079403,新規,0,2025-04-08,2025-04-08,株式会社ＫＵＵＮＤＡ,,株式会社,京都府,久世郡久御山町,林垣内５４―２,,26,322,6130033,,,,,,,2025-04-08,1,,,,,クンダ,0
2238,7130003010357,新規,0,2025-04-08,2025-04-08,合同会社Ｅａｒｔｈ,,合同会社,京都府,京田辺市,興戸南鉾立９０－２２,,26,211,6100332,,,,,,,2025-04-08,1,,,,,アース,0
2246,7140001137993,新規,0,2025-04-08,2025-04-08,株式会社Ｋｈａｃｋ,,株式会社,兵庫県,姫路市,北夢前台２丁目２９番地,,28,201,6700075,,,,,,,2025-04-08,1,,,,,ケーハック,0
2247,7140001138001,新規,0,2025-04-08,2025-04-08,株式会社ＺＡＲＭＩＮ　ＧＲＯＵＰ,,株式会社,兵庫県,高砂市,阿弥陀１丁目１６番２０号,,28,216,6760815,,,,,,,2025-04-08,1,,,,,ザルミングループ,0
2248,7140001138026,新規,0,2025-04-08,2025-04-08,株式会社ＮｅｘｔＡｒ,,株式会社,兵庫県,尼崎市,鶴町７番地の８,,28,202,6600092,,,,,,,2025-04-08,1,,,,,ネクスター,0
2249,7140001138034,新規,0,2025-04-08,2025-04-08,ｍｉｉｔｏ株式会社,,株式会社,兵庫県,伊丹市,昆陽南５丁目１０番５号,,28,207,6640888,,,,,,,2025-04-08,1,,,,,ミイト,0
2250,7140001138075,新規,0,2025-04-08,2025-04-08,クリエイトシェアードトラスト株式会社,,株式会社,兵庫県,神戸市中央区,明石町４７番地ニッケ神戸ビル地下１階,,28,110,6500037,,,,,,,2025-04-08,1,,,,,クリエイトシェアードトラスト,0
2251,7140003021907,新規,0,2025-04-08,2025-04-08,合同会社コペルトゥーラ通信社,,合同会社,兵庫県,神戸市北区,ひよどり台５丁目５番地２４棟５０５号,,28,109,6511123,,,,,,,2025-04-08,1,,,,,コペルトゥーラツウシンシャ,0
2255,7150003003549,新規,0,2025-04-08,2025-04-08,合同会社サンライトプロジェクト,,合同会社,奈良県,奈良市,朱雀１丁目７番３０号,,29,201,6310806,,,,,,,2025-04-08,1,,,,,サンライトプロジェクト,0
2257,7160001026658,新規,0,2025-04-08,2025-04-08,株式会社Ｒｉｓｅ　Ｕｐ,,株式会社,滋賀県,草津市,岡本町１４６２番地１６,,25,206,5250044,,,,,,,2025-04-08,1,,,,,ライズアップ,0
2258,7160005011391,新規,0,2025-04-08,2025-04-08,一般社団法人たかしまスイッチ,,その他の設立登記法人,滋賀県,高島市,安曇川町西万木１０２８,,25,212,5201212,,,,,,,2025-04-08,1,,,,,タカシマスイッチ,0
2270,7180001166171,新規,0,2025-04-08,2025-04-08,株式会社ユタカ電気設備,,株式会社,愛知県,知多郡武豊町,字池田２丁目６８番地７,,23,447,4702329,,,,,,,2025-04-08,1,,,,,ユタカデンキセツビ,0
2271,7180001166254,新規,0,2025-04-08,2025-04-08,株式会社ＮＯＨ‐ＴＥＣＨ,,株式会社,愛知県,一宮市,新生３丁目７番２０号,,23,203,4910912,,,,,,,2025-04-08,1,,,,,ノウテック,0
2272,7180001166312,新規,0,2025-04-08,2025-04-08,株式会社Ｂｒｕｕｊｕ,,株式会社,愛知県,名古屋市守山区,村合町３４番地の４,,23,113,4630083,,,,,,,2025-04-08,1,,,,,ブルージュ,0
2273,7180001166329,新規,0,2025-04-08,2025-04-08,古建工業株式会社,,株式会社,愛知県,名古屋市北区,池花町２６１番地の１,,23,103,4620005,,,,,,,2025-04-08,1,,,,,フルケンコウギョウ,0
2276,7180003028254,新規,0,2025-04-08,2025-04-08,合同会社Ｍｉｘ,,合同会社,愛知県,知多市,旭６丁目３番地の２,,23,224,4780031,,,,,,,2025-04-08,1,,,,,ミックス,0
2280,7200001043616,新規,0,2025-04-08,2025-04-08,株式会社藤中解体興業,,株式会社,岐阜県,高山市,一之宮町４３７５番地１,,21,203,5093505,,,,,,,2025-04-08,1,,,,,フジナカカイタイコウギョウ,0
2281,7200001043624,新規,0,2025-04-08,2025-04-08,株式会社アルム,,株式会社,岐阜県,各務原市,川島松倉町２３５３番地７９,,21,213,5016022,,,,,,,2025-04-08,1,,,,,アルム,0
2288,7220001026602,新規,0,2025-04-08,2025-04-08,株式会社ＢＡＬＡＮＣＥ,,株式会社,石川県,金沢市,三馬１丁目３９１番地,,17,201,9218162,,,,,,,2025-04-08,1,,,,,バランス,0
2289,7220005008943,新規,0,2025-04-08,2025-04-08,特定非営利活動法人金沢カルチャーガイドネットワーク,,その他の設立登記法人,石川県,金沢市,田上の里２丁目１５３番地,,17,201,9201156,,,,,,,2025-04-08,1,,,,,カナザワカルチャーガイドネットワーク,0
2290,7230001020835,新規,0,2025-04-08,2025-04-08,株式会社Ｃ＆Ｇラボ,,株式会社,富山県,南砺市,下野２８２番地,,16,210,9391733,,,,,,,2025-04-08,1,,,,,シーアンドジーラボ,0
2302,7260001040095,新規,0,2025-04-08,2025-04-08,株式会社Ｙ’ｓ　Ｆａｒｍ,,株式会社,岡山県,岡山市東区,藤井５１番地１,,33,103,7038213,,,,,,,2025-04-08,1,,,,,ワイズファーム,0
2303,7260003005121,新規,0,2025-04-08,2025-04-08,合同会社Ｔｈｅ　Ｃｏｒｂｅｔｔ　Ｒｅｐｏｒｔ,,合同会社,岡山県,岡山市中区,八幡８３番地５,,33,102,7038254,,,,,,,2025-04-08,1,,,,,ザコルベットレポート,0
2309,7290001109524,新規,0,2025-04-08,2025-04-08,株式会社ＳｍａｌｌＰｌａｎｅｔ,,株式会社,福岡県,うきは市,吉井町９５９番地３,,40,225,8391321,,,,,,,2025-04-08,1,,,,,スモールプラネット,0
2310,7290001109581,新規,0,2025-04-08,2025-04-08,株式会社愁工業,,株式会社,福岡県,福岡市東区,千早１丁目４１番１２－１０１号Ｃｒｅｃｉａ千早,,40,131,8130044,,,,,,,2025-04-08,1,,,,,シュウコウギョウ,0
2311,7290001109631,新規,0,2025-04-08,2025-04-08,株式会社オールワンパートナーズ,,株式会社,福岡県,福岡市中央区,清川３丁目９番１５－５０６号,,40,133,8100005,,,,,,,2025-04-08,1,,,,,オールワンパートナーズ,0
2312,7290001109664,新規,0,2025-04-08,2025-04-08,株式会社エニシ,,株式会社,福岡県,福岡市博多区,博多駅南１丁目２番１８号１Ｆ,,40,132,8120016,,,,,,,2025-04-08,1,,,,,エニシ,0
2317,7290801031415,新規,0,2025-04-08,2025-04-08,エムアイ株式会社,,株式会社,福岡県,北九州市小倉南区,長尾４丁目１８番１５号,,40,107,8030274,,,,,,,2025-04-08,1,,,,,エムアイ,0
2318,7290803005020,新規,0,2025-04-08,2025-04-08,合同会社Ｌｉｎｋ,,合同会社,福岡県,北九州市八幡西区,陣原１丁目１２番１９号,,40,109,8070821,,,,,,,2025-04-08,1,,,,,リンク,0
2320,7310001019539,新規,0,2025-04-08,2025-04-08,株式会社Ｂｅａｕｔｙ　Ｓｔｕｄｉｏ　Ｅｌｅｇａｎｃｅ,,株式会社,長崎県,佐世保市,東山町２０番１２号,,42,202,8570842,,,,,,,2025-04-08,1,,,,,ビューティースタジオエレガンス,0
2321,7310003004984,新規,0,2025-04-08,2025-04-08,合同会社諸國まやｍｏｄｅｌ　ａｇｅｎｃｙ,,合同会社,長崎県,佐世保市,花高４丁目８番６号,,42,202,8593212,,,,,,,2025-04-08,1,,,,,モロクニマヤモデルエージェンシー,0
2323,7320003004620,新規,0,2025-04-08,2025-04-08,合同会社ＹＯＡＫＥ,,合同会社,大分県,日田市,吹上町１０番３０号,,44,204,8770083,,,,,,,2025-04-08,1,,,,,,0
2332,7360001034995,新規,0,2025-04-08,2025-04-08,株式会社ＴＵＮＡＧ,,株式会社,沖縄県,那覇市,字安里１０フレール高良５０１,,47,201,9020067,,,,,,,2025-04-08,1,,,,,ツナグ,0
2333,7360001035011,新規,0,2025-04-08,2025-04-08,株式会社仲間企画,,株式会社,沖縄県,那覇市,字松川３０６番地５,,47,201,9020062,,,,,,,2025-04-08,1,,,,,ナカマキカク,0
2334,7360001035044,新規,0,2025-04-08,2025-04-08,株式会社かがやきエステート,,株式会社,沖縄県,中頭郡中城村,字南上原４１６番地５、１２４街区１２－３画地,,47,328,9012424,,,,,,,2025-04-08,1,,,,,カガヤキエステート,0
2339,7370001052443,新規,0,2025-04-08,2025-04-08,株式会社南翔グループ,,株式会社,宮城県,仙台市青葉区,中山台２丁目２７ＹＳＫコーポ中山台３０１,,04,101,9893202,,,,,,,2025-04-08,1,,,,,ミナトグループ,0
2340,7370003007016,新規,0,2025-04-08,2025-04-08,合同会社マリアフローラ,,合同会社,宮城県,登米市,登米町寺池三日町６５番地１,,04,212,9870702,,,,,,,2025-04-08,1,,,,,マリアフローラ,0
2341,7370003007024,新規,0,2025-04-08,2025-04-08,合同会社Ｌｕｍｉｎｏｕｓ,,合同会社,宮城県,仙台市青葉区,立町６－１９,,04,101,9800822,,,,,,,2025-04-08,1,,,,,ルミナス,0
2344,7380001035199,新規,0,2025-04-08,2025-04-08,龍誠工業株式会社,,株式会社,福島県,南相馬市,原町区大原字小高根１９番２,,07,212,9750079,,,,,,,2025-04-08,1,,,,,リュウセイコウギョウ,0
2346,7410001014109,新規,0,2025-04-08,2025-04-08,株式会社小田嶋組,,株式会社,秋田県,鹿角市,十和田毛馬内字押出１２６番地,,05,209,0185334,,,,,,,2025-04-08,1,,,,,オダシマグミ,0
2347,7410005006630,新規,0,2025-04-08,2025-04-08,農事組合法人かけはし,,その他の設立登記法人,秋田県,湯沢市,八幡字熊ノ堂３３２番地,,05,207,0120007,,,,,,,2025-04-08,1,,,,,,0
2354,7430001094116,新規,0,2025-04-08,2025-04-08,株式会社飛成,,株式会社,北海道,札幌市東区,伏古八条４丁目２番１５号,,01,103,0070868,,,,,,,2025-04-08,1,,,,,ヒナリ,0
2361,7460103001702,新規,0,2025-04-08,2025-04-08,合同会社オフィスＴ,,合同会社,北海道,帯広市,大正本町東一条１丁目１１番地２,,01,207,0891241,,,,,,,2025-04-08,1,,,,,オフィスティ,0
2366,7700150129859,新規,0,2025-04-08,2025-04-08,ＳｈｅｎＺｈｅｎＳｈｉ　ＲａｎＫｅＫｅＪｉ　ＹｏｕＸｉａｎＧｏｎｇＳｉ,,外国会社等,,,,,,,,Ｕｎｉｔ　Ａ，１６ｔｈ　Ｆｌｏｏｒ，Ｈｕａｎｇ’ａｎ　Ｂｕｉｌｄｉｎｇ，Ｎｏ．１８，Ｆｕｍｉｎ　Ｒｏａｄ，Ｈｕａｎｇｇａｎｇ　Ｃｏｍｍｕｎｉｔｙ，Ｆｕｔｉａｎ　Ｓｔｒｅｅｔ，Ｆｕｔｉａｎ　Ｄｉｓｔｒｉｃｔ，Ｓｈｅｎｚｈｅｎ,,,,,,2025-04-08,1,,,,,シェンジェンシーゥランコーァコーァジーヨウシエンゴーンスー,0
2373,8010001253828,新規,0,2025-04-08,2025-04-08,株式会社ＮＪ,,株式会社,東京都,千代田区,麹町２丁目４番１１号麹町スクエアプラザ１１階,,13,101,1020083,,,,,,,2025-04-08,1,,,,,エヌジェー,0
2374,8010001253852,新規,0,2025-04-08,2025-04-08,公益技研株式会社,,株式会社,東京都,中央区,日本橋３丁目１番１４号,,13,102,1030027,,,,,,,2025-04-08,1,,,,,コウエキギケン,0
2375,8010001253893,新規,0,2025-04-08,2025-04-08,株式会社ＫＥＮ,,株式会社,東京都,中央区,銀座１丁目２２番１１号,,13,102,1040061,,,,,,,2025-04-08,1,,,,,ケン,0
2378,8010003047006,新規,0,2025-04-08,2025-04-08,クレアリーベ合同会社,,合同会社,東京都,千代田区,飯田橋２丁目１１番１０号総合経営ビル６階,,13,101,1020072,,,,,,,2025-04-08,1,,,,,クレアリーベ,0
2379,8010101016597,新規,0,2025-04-08,2025-04-08,株式会社ウチヤエステート,,株式会社,東京都,八王子市,横川町１９番地,,13,201,1930823,,,,,,,2025-04-08,1,,,,,ウチヤエステート,0
2384,8010401189449,新規,0,2025-04-08,2025-04-08,株式会社Ｖｅｒｉｔａｓ,,株式会社,東京都,港区,赤坂２丁目２１番４天翔オフィス赤坂ＡＮＮＥＸビル２０６－Ｆ号室,,13,103,1070052,,,,,,,2025-04-08,1,,,,,ベリタス,0
2385,8010401189507,新規,0,2025-04-08,2025-04-08,Ｇｅｎｉｘ　Ｊａｐａｎ株式会社,,株式会社,東京都,港区,赤坂２丁目８番１４－４０７号,,13,103,1070052,,,,,,,2025-04-08,1,,,,,ゲニックスジャパン,0
2388,8010403034801,新規,0,2025-04-08,2025-04-08,合同会社ＨｉＪｏＪｏ　Ｆｕｎｄ４８,,合同会社,東京都,港区,西新橋１丁目７番２号,,13,103,1050003,,,,,,,2025-04-08,1,,,,,ヒジョージョーファンドヨンジュウハチ,0
2389,8010403034818,新規,0,2025-04-08,2025-04-08,のぞみ崎守ソーラー合同会社,,合同会社,東京都,港区,芝５丁目２９番１９号ＰＭＯ田町ＩＶ８階,00138644,13,103,1080014,,,,,,,2025-04-08,1,,,,,ノゾミサキモリソーラー,0
2390,8010405024296,新規,0,2025-04-08,2025-04-08,一般社団法人のぞみ崎守ソーラー,,その他の設立登記法人,東京都,港区,芝５丁目２９番１９号ＰＭＯ田町ＩＶ８階,00138643,13,103,1080014,,,,,,,2025-04-08,1,,,,,ノゾミサキモリソーラー,0
2395,8010601067082,新規,0,2025-04-08,2025-04-08,株式会社ＨＰＳ,,株式会社,東京都,江東区,亀戸２丁目１８番７－８０２号,,13,108,1360071,,,,,,,2025-04-08,1,,,,,エチピーエス,0
2396,8010603011476,新規,0,2025-04-08,2025-04-08,合同会社Ｕｕｍａ,,合同会社,東京都,江東区,北砂４丁目９番１０号Ｔ・Ｓ砂町銀座１Ｆ,,13,108,1360073,,,,,,,2025-04-08,1,,,,,ウーマ,0
2397,8010701047521,新規,0,2025-04-08,2025-04-08,株式会社ＴＥＮＤＡ,,株式会社,東京都,品川区,西五反田３丁目６番２３－１００２号,,13,109,1410031,,,,,,,2025-04-08,1,,,,,テンダ,0
2401,8010901057147,新規,0,2025-04-08,2025-04-08,株式会社ｋｉｂａｔｓｕ,,株式会社,東京都,世田谷区,岡本１丁目１９番２１号,,13,112,1570076,,,,,,,2025-04-08,1,,,,,キバツ,0
2404,8010903009815,新規,0,2025-04-08,2025-04-08,合同会社ＭＡＳＥＡ,,合同会社,東京都,世田谷区,豪徳寺１丁目１８番９号,,13,112,1540021,,,,,,,2025-04-08,1,,,,,マーシー,0
2408,8011001168834,新規,0,2025-04-08,2025-04-08,株式会社ＧＯＯＤ　ＶＩＢＥＳ　ＡＧＥＮＣＹ,,株式会社,東京都,目黒区,青葉台４丁目７番７号,,13,110,1530042,,,,,,,2025-04-08,1,,,,,グッドバイブスエージェンシー,0
2414,8011301030470,新規,0,2025-04-08,2025-04-08,株式会社協伸,,株式会社,東京都,杉並区,高円寺南４丁目２８番３－５０６号高円寺ビル,,13,115,1660003,,,,,,,2025-04-08,1,,,,,キョウシン,0
2415,8011301030479,新規,0,2025-04-08,2025-04-08,株式会社エンドレス・マネジメント,,株式会社,東京都,杉並区,和泉２丁目２７番２７号マインド和亜ビルＢ１,,13,115,1680063,,,,,,,2025-04-08,1,,,,,エンドレスマネジメント,0
2417,8011401026988,新規,0,2025-04-08,2025-04-08,株式会社ＹｏｕｒＷａｙ,,株式会社,東京都,板橋区,舟渡１丁目１３番１０号アイ・タワー２階,,13,119,1740041,,,,,,,2025-04-08,1,,,,,ユアウェイ,0
2422,8011501031896,新規,0,2025-04-08,2025-04-08,株式会社みはし東京,,株式会社,東京都,荒川区,東尾久３丁目５番１０号,,13,118,1160012,,,,,,,2025-04-08,1,,,,,ミハシトウキョウ,0
2425,8011701028239,新規,0,2025-04-08,2025-04-08,日本騰飛株式会社,,株式会社,東京都,江戸川区,中央２丁目３３番６号,,13,123,1320021,,,,,,,2025-04-08,1,,,,,ニホントウヒ,0
2432,8011803006794,新規,0,2025-04-08,2025-04-08,ＡＮ　ＲＥＡＬＴＹ合同会社,,合同会社,東京都,足立区,本木北町２番２４号,,13,121,1230857,,,,,,,2025-04-08,1,,,,,エーエヌリアルティー,0
2434,8012401042942,新規,0,2025-04-08,2025-04-08,株式会社誠総業,,株式会社,東京都,調布市,国領町４丁目５１番地６アムール国領１０１,,13,208,1820022,,,,,,,2025-04-08,1,,,,,マコトソウギョウ,0
2435,8012401042959,新規,0,2025-04-08,2025-04-08,株式会社ＺＥＲＯ　ｔｏ　ＯＮＥ,,株式会社,東京都,調布市,多摩川４丁目８－４,,13,208,1820025,,,,,,,2025-04-08,1,,,,,ゼロトゥーワン,0
2449,8020001162144,新規,0,2025-04-08,2025-04-08,株式会社ＯＪ,,株式会社,神奈川県,川崎市川崎区,大島３丁目２７番１４－４号,,14,131,2100834,,,,,,,2025-04-08,1,,,,,オージェー,0
2450,8020001162152,新規,0,2025-04-08,2025-04-08,大和住設株式会社,,株式会社,神奈川県,川崎市麻生区,上麻生４丁目４４番地６号,,14,137,2150021,,,,,,,2025-04-08,1,,,,,ヤマトジュウセツ,0
2451,8020001162160,新規,0,2025-04-08,2025-04-08,株式会社プレアリンクス,,株式会社,神奈川県,川崎市宮前区,南野川２丁目１６番１４号,,14,136,2160042,,,,,,,2025-04-08,1,,,,,プレアリンクス,0
2452,8020001162210,新規,0,2025-04-08,2025-04-08,株式会社ｍａｇｎｅｔ,,株式会社,神奈川県,川崎市高津区,諏訪１丁目１９番９－２０６号,,14,134,2130004,,,,,,,2025-04-08,1,,,,,マグネット,0
2453,8020003028194,新規,0,2025-04-08,2025-04-08,シャインクリエイト合同会社,,合同会社,神奈川県,横浜市泉区,中田南４丁目８番８号,,14,116,2450014,,,,,,,2025-04-08,1,,,,,シャインクリエイト,0
2458,8021001084907,新規,0,2025-04-08,2025-04-08,株式会社ＲＥＨＥＬＬＯ,,株式会社,神奈川県,茅ヶ崎市,今宿７７３番地１和弐番館１０１,,14,207,2530072,,,,,,,2025-04-08,1,,,,,リハロー,0
2459,8021001084923,新規,0,2025-04-08,2025-04-08,株式会社仁幸メディカルサービス,,株式会社,神奈川県,平塚市,松風町１２番１５－２０１号エルザ湘南松風,,14,203,2540812,,,,,,,2025-04-08,1,,,,,ニコウメディカルサービス,0
2461,8021005013317,新規,0,2025-04-08,2025-04-08,医療法人社団新美会,,その他の設立登記法人,神奈川県,平塚市,紅谷町２番７号越野ビル３Ｆ,,14,203,2540043,,,,,,,2025-04-08,1,,,,,シンビカイ,0
2470,8030001165682,新規,0,2025-04-08,2025-04-08,株式会社ＴＯＩＲＯ,,株式会社,埼玉県,狭山市,大字上奥富８３６番地,,11,215,3501333,,,,,,,2025-04-08,1,,,,,トイロ,0
2471,8030001165740,新規,0,2025-04-08,2025-04-08,株式会社櫂結電業,,株式会社,埼玉県,川越市,大字小室４３７番地４,,11,201,3501106,,,,,,,2025-04-08,1,,,,,カイユウデンギョウ,0
2472,8030001165765,新規,0,2025-04-08,2025-04-08,株式会社プロペラ,,株式会社,埼玉県,川口市,領家５丁目１４番４０号,,11,203,3320004,,,,,,,2025-04-08,1,,,,,プロペラ,0
2473,8030001165856,新規,0,2025-04-08,2025-04-08,株式会社ケイズファクトリー,,株式会社,埼玉県,入間郡越生町,大字堂山１５９番地,,11,327,3500406,,,,,,,2025-04-08,1,,,,,ケイズファクトリー,0
2476,8030003026503,新規,0,2025-04-08,2025-04-08,ＲＳ　ＨＯＬＤＩＮＧＳ合同会社,,合同会社,埼玉県,北葛飾郡松伏町,大字松伏字内前野２４５０番地７,,11,465,3430111,,,,,,,2025-04-08,1,,,,,アールエスホールディングス,0
2478,8040001138167,新規,0,2025-04-08,2025-04-08,アールエム株式会社,,株式会社,千葉県,八千代市,村上３２５１番地１３,,12,221,2760028,,,,,,,2025-04-08,1,,,,,アールエム,0
2479,8040001138175,新規,0,2025-04-08,2025-04-08,株式会社ＴＭ音楽企画,,株式会社,千葉県,柏市,五條谷１番地の１５,,12,217,2770913,,,,,,,2025-04-08,1,,,,,ティーエムオンガクキカク,0
2482,8050003009159,新規,0,2025-04-08,2025-04-08,合同会社Ｄｏｌｃｅ　Ｍａｒｋｅｔｉｎｇ,,合同会社,茨城県,つくば市,吾妻１丁目５番７号,,08,220,3050031,,,,,,,2025-04-08,1,,,,,ドルチェマーケティング,0
2483,8050003009167,新規,0,2025-04-08,2025-04-08,合同会社卓工業,,合同会社,茨城県,鹿嶋市,神野２丁目２番３１号,,08,222,3140037,,,,,,,2025-04-08,1,,,,,スグルコウギョウ,0
2485,8060001038068,新規,0,2025-04-08,2025-04-08,株式会社シュガースプーン,,株式会社,栃木県,宇都宮市,塙田２丁目３番２号,,09,201,3200027,,,,,,,2025-04-08,1,,,,,シュガースプーン,0
2489,8070001042804,新規,0,2025-04-08,2025-04-08,ＲＳ株式会社,,株式会社,群馬県,前橋市,荒牧町２丁目１１番地６,,10,201,3710044,,,,,,,2025-04-08,1,,,,,アールエス,0
2491,8070003005858,新規,0,2025-04-08,2025-04-08,合同会社ベルサーブ,,合同会社,群馬県,太田市,龍舞町５６４８番地,,10,205,3730806,,,,,,,2025-04-08,1,,,,,ベルサーブ,0
2506,8090003002795,新規,0,2025-04-08,2025-04-08,合同会社ＥＤＤＹ,,合同会社,山梨県,都留市,田原４丁目５番３２号,,19,204,4020054,,,,,,,2025-04-08,1,,,,,エディ,0
2510,8100001038476,新規,0,2025-04-08,2025-04-08,株式会社ウェイズホールディングス,,株式会社,長野県,松本市,大字和田字南西原４０１０番地２８,,20,202,3901242,,,,,,,2025-04-08,1,,,,,ウェイズホールディングス,0
2511,8100001038484,新規,0,2025-04-08,2025-04-08,株式会社乃んきな子,,株式会社,長野県,大町市,大町２３５８番地２,,20,212,3980002,,,,,,,2025-04-08,1,,,,,ノンキナコ,0
2514,8100005013327,新規,0,2025-04-08,2025-04-08,弁護士法人はら協同法律事務所,,その他の設立登記法人,長野県,飯田市,鈴加町２丁目１６番地１,,20,205,3950084,,,,,,,2025-04-08,1,,,,,ハラキョウドウホウリツジムショ,0
2531,8120001274276,新規,0,2025-04-08,2025-04-08,株式会社Ｂｌｏｏｍ,,株式会社,大阪府,寝屋川市,寿町２番１０－１号,,27,215,5720029,,,,,,,2025-04-08,1,,,,,ブルーム,0
2532,8120001274292,新規,0,2025-04-08,2025-04-08,株式会社ＴＨＲＥＸ,,株式会社,大阪府,大阪市北区,梅田１丁目１番３号大阪駅前第３ビル２９階１－１－１号室,,27,127,5300001,,,,,,,2025-04-08,1,,,,,スレックス,0
2533,8120001274318,新規,0,2025-04-08,2025-04-08,株式会社まほろば,,株式会社,大阪府,大阪市城東区,東中浜９丁目１番５号,,27,118,5360023,,,,,,,2025-04-08,1,,,,,マホロバ,0
2536,8120003029034,新規,0,2025-04-08,2025-04-08,合同会社サウザンドリーフ,,合同会社,大阪府,大阪市東住吉区,湯里１丁目１１－２１ホーリーグラン１０２号,,27,121,5460013,,,,,,,2025-04-08,1,,,,,サウザンドリーフ,0
2542,8120101071383,新規,0,2025-04-08,2025-04-08,株式会社ＡＮＺ,,株式会社,大阪府,泉大津市,楠町西３番２１号,,27,206,5950038,,,,,,,2025-04-08,1,,,,,アンズ,0
2543,8120101071417,新規,0,2025-04-08,2025-04-08,株式会社Ｂｏｎｄ　ｃｏｒｐ．,,株式会社,大阪府,松原市,岡６丁目２番１号２階,,27,217,5800014,,,,,,,2025-04-08,1,,,,,ボンドコーポレーション,0
2544,8120101071433,新規,0,2025-04-08,2025-04-08,株式会社Ａｎｕｅｎｕｅ,,株式会社,大阪府,河内長野市,北貴望ケ丘１９番２１号,,27,216,5860091,,,,,,,2025-04-08,1,,,,,アーヌエヌエ,0
2549,8122001039064,新規,0,2025-04-08,2025-04-08,株式会社辻本塗装,,株式会社,大阪府,東大阪市,古箕輪１丁目１６番６号,,27,227,5780915,,,,,,,2025-04-08,1,,,,,ツジモトトソウ,0
2552,8130001079328,新規,0,2025-04-08,2025-04-08,株式会社英,,株式会社,京都府,京都市東山区,新門前通大和大路東入２丁目中之町２４８番地,,26,105,6050082,,,,,,,2025-04-08,1,,,,,ハナブサ,0
2553,8130001079344,新規,0,2025-04-08,2025-04-08,近畿オービス株式会社,,株式会社,京都府,京都市山科区,東野中井ノ上町１番地２１,,26,110,6078142,,,,,,,2025-04-08,1,,,,,キンキオービス,0
2556,8130003010356,新規,0,2025-04-08,2025-04-08,アトリエいしひろ合同会社,,合同会社,京都府,京田辺市,田辺西垣内２２番地の９,,26,211,6100331,,,,,,,2025-04-08,1,,,,,アトリエイシヒロ,0
2560,8140001137976,新規,0,2025-04-08,2025-04-08,株式会社オフィスネモ,,株式会社,兵庫県,明石市,新明町６番８号,,28,203,6730027,,,,,,,2025-04-08,1,,,,,オフィスネモ,0
2561,8140001137992,新規,0,2025-04-08,2025-04-08,株式会社中山商店,,株式会社,兵庫県,神戸市長田区,川西通４丁目１０３番地の１１,,28,106,6530834,,,,,,,2025-04-08,1,,,,,ナカヤマショウテン,0
2562,8140001138000,新規,0,2025-04-08,2025-04-08,株式会社ＡＲＣＳ,,株式会社,兵庫県,神戸市須磨区,須磨浦通６丁目１番２２号,,28,107,6540055,,,,,,,2025-04-08,1,,,,,アークス,0
2563,8140001138017,新規,0,2025-04-08,2025-04-08,株式会社Ｂｅｓｓｅｌ,,株式会社,兵庫県,神戸市西区,美賀多台４丁目２０番地の１９,,28,111,6512277,,,,,,,2025-04-08,1,,,,,ベッセル,0
2564,8140001138033,新規,0,2025-04-08,2025-04-08,株式会社ＴＲＩＧＧＥＲ,,株式会社,兵庫県,神戸市須磨区,東町２丁目１－１８,,28,107,6540033,,,,,,,2025-04-08,1,,,,,トリガー,0
2565,8140001138082,新規,0,2025-04-08,2025-04-08,株式会社すみれコンタクト,,株式会社,兵庫県,西宮市,門戸荘４番地１,,28,204,6620825,,,,,,,2025-04-08,1,,,,,,0
2570,8140003021880,新規,0,2025-04-08,2025-04-08,ＥＭＳ合同会社,,合同会社,兵庫県,川西市,けやき坂２丁目５２番地の１,,28,217,6660145,,,,,,,2025-04-08,1,,,,,イーエムエス,0
2572,8140005027455,新規,0,2025-04-08,2025-04-08,一般社団法人竹の会,,その他の設立登記法人,兵庫県,西宮市,甲風園１丁目５番２４号,,28,204,6620832,,,,,,,2025-04-08,1,,,,,タケノカイ,0
2577,8160001026657,新規,0,2025-04-08,2025-04-08,株式会社山笑う,,株式会社,滋賀県,高島市,安曇川町中野３１１番地,,25,212,5201204,,,,,,,2025-04-08,1,,,,,ヤマワラウ,0
2579,8170001018562,新規,0,2025-04-08,2025-04-08,山本設備株式会社,,株式会社,和歌山県,西牟婁郡白浜町,４８１番地の１,,30,401,6492211,,,,,,,2025-04-08,1,,,,,ヤマモトセツビ,0
2580,8180001166121,新規,0,2025-04-08,2025-04-08,Ｏｎｅ　Ｓｔｅｐ株式会社,,株式会社,愛知県,名古屋市南区,観音町５丁目２５番地,,23,112,4570845,,,,,,,2025-04-08,1,,,,,ワンステップ,0
2581,8180001166303,新規,0,2025-04-08,2025-04-08,株式会社エコワイズ,,株式会社,愛知県,名古屋市東区,葵１丁目１６番１３号かどのビル１階,,23,102,4610004,,,,,,,2025-04-08,1,,,,,エコワイズ,0
2582,8180001166311,新規,0,2025-04-08,2025-04-08,株式会社Ｂｏｒｄｅｒｌｅｓｓ,,株式会社,愛知県,名古屋市中区,栄２丁目１番１号,,23,106,4600008,,,,,,,2025-04-08,1,,,,,ボーダレス,0
2584,8180005021025,新規,0,2025-04-08,2025-04-08,弁護士法人ユナイテッド・パートナーズ,,その他の設立登記法人,愛知県,名古屋市中区,丸の内３丁目１７番１３号いちご丸の内ビル５階,,23,106,4600002,,,,,,,2025-04-08,1,,,,,ユナイテッドパートナーズ,0
2597,8210001020118,新規,0,2025-04-08,2025-04-08,アニール株式会社,,株式会社,福井県,鯖江市,柳町２丁目７番１７号,,18,207,9160047,,,,,,,2025-04-08,1,,,,,アニール,0
2598,8220001026601,新規,0,2025-04-08,2025-04-08,株式会社Ｋ‐Ｓｔｙｌｅ,,株式会社,石川県,七尾市,大野木町コ部３番地１,,17,202,9260362,,,,,,,2025-04-08,1,,,,,ケースタイル,0
2601,8230001020834,新規,0,2025-04-08,2025-04-08,株式会社ＩＭ黒部,,株式会社,富山県,黒部市,荻生１０６２番地,,16,207,9380801,,,,,,,2025-04-08,1,,,,,アイエムクロベ,0
2611,8250003003686,新規,0,2025-04-08,2025-04-08,ライフポシブル合同会社,,合同会社,山口県,山口市,陶１１１６番地１,,35,203,7540891,,,,,,,2025-04-08,1,,,,,ライフポシブル,0
2612,8260001040103,新規,0,2025-04-08,2025-04-08,株式会社一心,,株式会社,岡山県,総社市,下林２５６番地１,,33,208,7191122,,,,,,,2025-04-08,1,,,,,イッシン,0
2613,8260002027586,新規,0,2025-04-08,2025-04-08,有限会社葵,,有限会社,岡山県,久米郡久米南町,上弓削１００９番地,,33,663,7093612,,,,,,,2025-04-08,1,,,,,アオイ,0
2619,8290001109531,新規,0,2025-04-08,2025-04-08,株式会社セキュアリース,,株式会社,福岡県,糸島市,二丈深江２１７２番地２,,40,230,8191601,,,,,,,2025-04-08,1,,,,,セキュアリース,0
2620,8290001109556,新規,0,2025-04-08,2025-04-08,株式会社ＳＥＬ．,,株式会社,福岡県,福岡市中央区,今泉１丁目１８番３８号Ｓｈｉｎ－Ｔｅｎｊｉｎ３０１,,40,133,8100021,,,,,,,2025-04-08,1,,,,,セル,0
2621,8290001109597,新規,0,2025-04-08,2025-04-08,株式会社Ｌａｎｄ　Ａｒｃ　Ｂｕｉｌｄｉｎｇ,,株式会社,福岡県,福岡市中央区,大手門１丁目２番２３－２０７号,,40,133,8100074,,,,,,,2025-04-08,1,,,,,ランドアークビルディング,0
2623,8290003016643,新規,0,2025-04-08,2025-04-08,合同会社ｏｆｆｉｃｅ初村,,合同会社,福岡県,福岡市南区,皿山４丁目６番１０号,,40,134,8111365,,,,,,,2025-04-08,1,,,,,オフィスハツムラ,0
2626,8290801031414,新規,0,2025-04-08,2025-04-08,株式会社Ｔ・Ｓ・Ｙ,,株式会社,福岡県,北九州市門司区,中町５番２８－８０１号,,40,101,8000039,,,,,,,2025-04-08,1,,,,,ティーエスワイ,0
2636,8330005010895,新規,0,2025-04-08,2025-04-08,一般社団法人Ｓｍｉｌｅフォレスト,,その他の設立登記法人,熊本県,菊池郡菊陽町,大字原水１６２７番地２,,43,404,8691102,,,,,,,2025-04-08,1,,,,,スマイルフォレスト,0
2642,8360001035043,新規,0,2025-04-08,2025-04-08,株式会社Ｙ’ｓＰＥＡＣＥ,,株式会社,沖縄県,那覇市,壷屋二丁目３番２３号,,47,201,9000000,,,,,,,2025-04-08,1,,,,,ワイズピース,0
2649,8370001052426,新規,0,2025-04-08,2025-04-08,カルミア・コンサルティング株式会社,,株式会社,宮城県,仙台市青葉区,本町１丁目５番２８号カーニープレイス仙台駅前通６０３号室,,04,101,9800014,,,,,,,2025-04-08,1,,,,,カルミアコンサルティング,0
2650,8370001052459,新規,0,2025-04-08,2025-04-08,株式会社ドレーク,,株式会社,宮城県,牡鹿郡女川町,鷲神１丁目１５番２号,,04,581,9862247,,,,,,,2025-04-08,1,,,,,ドレーク,0
2653,8370003007007,新規,0,2025-04-08,2025-04-08,合同会社みずいろ,,合同会社,宮城県,黒川郡大郷町,味明字広畑１０番地の１１,,04,422,9813513,,,,,,,2025-04-08,1,,,,,ミズイロ,0
2673,8430001094115,新規,0,2025-04-08,2025-04-08,株式会社さくらホールディングス,,株式会社,北海道,札幌市東区,北二十四条東２１丁目７番３２号,,01,103,0650024,,,,,,,2025-04-08,1,,,,,サクラホールディングス,0
2676,8460001005993,新規,0,2025-04-08,2025-04-08,株式会社憲翔,,株式会社,北海道,釧路郡釧路町,南陽台７丁目２８番地,,01,661,0882152,,,,,,,2025-04-08,1,,,,,ケンショウ,0
2678,8470005006616,新規,0,2025-04-08,2025-04-08,農事組合法人ミタニ,,その他の設立登記法人,香川県,丸亀市,飯山町東坂元４１１７番地１,,37,202,7620081,,,,,,,2025-04-08,1,,,,,ミタニ,0
2680,8480003002252,新規,0,2025-04-08,2025-04-08,合同会社フォーエバー・デイライト,,合同会社,徳島県,徳島市,寺島本町東３丁目１５番地の５フレシアサーパス１００８号室,,36,201,7700832,,,,,,,2025-04-08,1,,,,,フォーエバーデイライト,0
2683,8700150129858,新規,0,2025-04-08,2025-04-08,Ｓｈｅｎｚｈｅｎ　Ａｓｈｉｔｕ　Ｔｅｃｈｎｏｌｏｇｙ　Ｃｏ．，Ｌｔｄ,,外国会社等,,,,,,,,２９０１，Ｂｌｏｃｋ　Ａ，Ｂｕｉｌｄｉｎｇ　１，Ｄｏｕｓｈｉ　Ｍｉｎｇｈｕｉ　Ｇａｒｄｅｎ，Ｎｏ．７，Ｊｉａｘｉａｎ　Ｒｏａｄ，Ｈａｉｗａｎｇ　Ｃｏｍｍｕｎｉｔｙ，Ｘｉｎ’ａｎ　Ｓｔｒｅｅｔ，Ｂａｏ’ａｎ　Ｄｉｓｔｒｉｃｔ，Ｓｈｅｎｚｈｅｎ，Ｃｈｉｎａ．５１８１００,,,,,,2025-04-08,1,,,,,シンセンアシトゥテクノロジーカンパニーリミテッド,0
2690,9010001253769,新規,0,2025-04-08,2025-04-08,ＡＩＶｉｓｏｒ株式会社,,株式会社,東京都,中央区,勝どき５丁目１２番４－２３０６号,,13,102,1040054,,,,,,,2025-04-08,1,,,,,エーアイヴァイザー,0
2691,9010001253892,新規,0,2025-04-08,2025-04-08,株式会社トランスＡＩ,,株式会社,東京都,文京区,春日１丁目６番５－３０５号,,13,105,1120003,,,,,,,2025-04-08,1,,,,,トランスエーアイ,0
2692,9010001253950,新規,0,2025-04-08,2025-04-08,Ａ．Ｔ．ＬＩＮＫＳ株式会社,,株式会社,東京都,中央区,新川１丁目３－２１ＢＩＺＳＭＡＲＴ茅場町５階,,13,102,1040033,,,,,,,2025-04-08,1,,,,,エーティーリンクス,0
2693,9010003046980,新規,0,2025-04-08,2025-04-08,合同会社ウインサーベラス,,合同会社,東京都,中央区,日本橋室町１丁目１１番１２号日本橋水野ビル７階,,13,102,1030022,,,,,,,2025-04-08,1,,,,,ウインサーベラス,0
2697,9010101016596,新規,0,2025-04-08,2025-04-08,Ｎｉｈｏｎｕｓａ　Ｔｒａｄｉｎｇ株式会社,,株式会社,東京都,八王子市,八木町７番６号２Ｆ,,13,201,1920055,,,,,,,2025-04-08,1,,,,,ニホヌサトレーディング,0
2698,9010101016613,新規,0,2025-04-08,2025-04-08,株式会社ＳＨＩ,,株式会社,東京都,八王子市,三崎町３番４号ＲＪスクエアビルＢ１,,13,201,1920084,,,,,,,2025-04-08,1,,,,,エスエイチアイ,0
2702,9010401189332,新規,0,2025-04-08,2025-04-08,ＮＳデンタルプラザ株式会社,,株式会社,東京都,港区,港南１丁目８番２３号,,13,103,1080075,,,,,,,2025-04-08,1,,,,,エヌエスデンタルプラザ,0
2703,9010401189357,新規,0,2025-04-08,2025-04-08,株式会社ミロクアライアンス,,株式会社,東京都,港区,赤坂２丁目１４番３３号三田ビル藤会館４階,,13,103,1070052,,,,,,,2025-04-08,1,,,,,ミロクアライアンス,0
2705,9010403034800,新規,0,2025-04-08,2025-04-08,合同会社ＨｉＪｏＪｏ　Ｆｕｎｄ４７,,合同会社,東京都,港区,西新橋１丁目７番２号,,13,103,1050003,,,,,,,2025-04-08,1,,,,,ヒジョージョーファンドヨンジュウナナ,0
2706,9010403034817,新規,0,2025-04-08,2025-04-08,のぞみ矢吹ソーラー合同会社,,合同会社,東京都,港区,芝５丁目２９番１９号ＰＭＯ田町ＩＶ８階,00138626,13,103,1080014,,,,,,,2025-04-08,1,,,,,ノゾミヤブキソーラー,0
2707,9010405024295,新規,0,2025-04-08,2025-04-08,一般社団法人のぞみ矢吹ソーラー,,その他の設立登記法人,東京都,港区,芝５丁目２９番１９号ＰＭＯ田町ＩＶ８階,00138625,13,103,1080014,,,,,,,2025-04-08,1,,,,,ノゾミヤブキソーラー,0
2708,9010503007788,新規,0,2025-04-08,2025-04-08,Ｕｎｉ‐Ｔ　Ｇｒｏｕｐ　Ｔｒａｄｉｎｇ合同会社,,合同会社,東京都,台東区,上野６丁目１６番１８号ＴＨＥ・ＢＬＯＯＭ・ＵＥＮＯ２ｎｄ７０１号室,,13,106,1100005,,,,,,,2025-04-08,1,,,,,ユニティーグループトレーディング,0
2710,9010601067065,新規,0,2025-04-08,2025-04-08,株式会社Ｓｃｈａｔｚ　Ｇｌａｎｚ,,株式会社,東京都,江東区,青海２丁目７番４号ＴｈｅＳＯＨＯ３０２,,13,108,1350064,,,,,,,2025-04-08,1,,,,,シャッツグランツ,0
2711,9010601067081,新規,0,2025-04-08,2025-04-08,株式会社Ａ＆Ｔ,,株式会社,東京都,江東区,新木場１丁目６番２０号,,13,108,1360082,,,,,,,2025-04-08,1,,,,,エーアンドティー,0
2716,9010901057138,新規,0,2025-04-08,2025-04-08,ＣＲＥＥＭＭ株式会社,,株式会社,東京都,世田谷区,鎌田４丁目１番３１号,,13,112,1570077,,,,,,,2025-04-08,1,,,,,クリーム,0
2717,9010901057162,新規,0,2025-04-08,2025-04-08,株式会社Ｇｌｙｓｔｉｃ　Ｄｅｓｉｇｎ,,株式会社,東京都,世田谷区,上用賀３丁目１番１９号,,13,112,1580098,,,,,,,2025-04-08,1,,,,,グリスティックデザイン,0
2718,9010903009830,新規,0,2025-04-08,2025-04-08,合同会社帰趣,,合同会社,東京都,世田谷区,南烏山６丁目１９番１３－４０４号,,13,112,1570062,,,,,,,2025-04-08,1,,,,,キシュ,0
2723,9011001168973,新規,0,2025-04-08,2025-04-08,Ａｒｋａｎｏｓ株式会社,,株式会社,東京都,渋谷区,神南１丁目１１－４ＦＰＧリンクス神南５階,,13,113,1500041,,,,,,,2025-04-08,1,,,,,アルカノス,0
2725,9011005010966,新規,0,2025-04-08,2025-04-08,一般社団法人ＦＵＬＬＷＯＮＤＥＲ,,その他の設立登記法人,東京都,渋谷区,道玄坂１丁目１０番８号渋谷道玄坂東急ビル２Ｆ－Ｃ,,13,113,1500043,,,,,,,2025-04-08,1,,,,,フルワンダー,0
2729,9011101111197,新規,0,2025-04-08,2025-04-08,シーズオン株式会社,,株式会社,東京都,新宿区,百人町１丁目９番１４号,,13,104,1690073,,,,,,,2025-04-08,1,,,,,シーズオン,0
2730,9011101111239,新規,0,2025-04-08,2025-04-08,ＭＳＢＰ株式会社,,株式会社,東京都,新宿区,西新宿６丁目１５番１号,,13,104,1600023,,,,,,,2025-04-08,1,,,,,エムエスビーピー,0
2731,9011101111255,新規,0,2025-04-08,2025-04-08,株式会社マジオトラスト,,株式会社,東京都,新宿区,新宿５丁目１７番５号,,13,104,1600022,,,,,,,2025-04-08,1,,,,,マジオトラスト,0
2732,9011103015727,新規,0,2025-04-08,2025-04-08,合同会社三葉商店,,合同会社,東京都,新宿区,大京町１２－１０,,13,104,1600015,,,,,,,2025-04-08,1,,,,,ミツバショウテン,0
2733,9011103015743,新規,0,2025-04-08,2025-04-08,合同会社ＲＡＭ,,合同会社,東京都,新宿区,高田馬場４丁目２番２２号ＤＩＰＳ高田馬場駅前３１１,,13,104,1690075,,,,,,,2025-04-08,1,,,,,アールエーエム,0
2736,9011201026246,新規,0,2025-04-08,2025-04-08,株式会社エネリンク,,株式会社,東京都,中野区,大和町１丁目６７番８号,,13,114,1650034,,,,,,,2025-04-08,1,,,,,エネリンク,0
2737,9011201026254,新規,0,2025-04-08,2025-04-08,株式会社Ｔ．Ｄ．Ｄ,,株式会社,東京都,中野区,松が丘２丁目１１番１３号,,13,114,1650024,,,,,,,2025-04-08,1,,,,,ティディディ,0
2739,9011303005486,新規,0,2025-04-08,2025-04-08,合同会社福田オーシャンズ,,合同会社,東京都,杉並区,下高井戸４丁目３１番２８号,,13,115,1680073,,,,,,,2025-04-08,1,,,,,フクダオーシャンズ,0
2740,9011303005494,新規,0,2025-04-08,2025-04-08,合同会社ＮＯＥＭ,,合同会社,東京都,杉並区,成田西２丁目１８番１７－１０１号,,13,115,1660016,,,,,,,2025-04-08,1,,,,,ノエム,0
2747,9011801045926,新規,0,2025-04-08,2025-04-08,株式会社Ｙ’ｓｂ,,株式会社,東京都,足立区,西竹の塚２丁目４番２１号,,13,121,1210822,,,,,,,2025-04-08,1,,,,,ワイズビー,0
2749,9011803006777,新規,0,2025-04-08,2025-04-08,Ｃｏｎｓｕｌｔｉｎｇ‐ＮｏＢ合同会社,,合同会社,東京都,葛飾区,東新小岩２丁目４番２０－３０２号ローレルコート新小岩,,13,122,1240023,,,,,,,2025-04-08,1,,,,,コンサルティングノブ,0
2754,9012401042941,新規,0,2025-04-08,2025-04-08,株式会社ｔｏｗｎｉｃｏ,,株式会社,東京都,武蔵野市,吉祥寺本町１丁目３１番１１号ＫＳビル８０４号室,,13,203,1800004,,,,,,,2025-04-08,1,,,,,タウニコ,0
2755,9012403007050,新規,0,2025-04-08,2025-04-08,合同会社ミライ動物医療研究センター,,合同会社,東京都,府中市,天神町３丁目１１番地の１モプティ天神３０２,,13,206,1830053,,,,,,,2025-04-08,1,,,,,ミライドウブツイリョウケンキュウセンター,0
2756,9013303007611,新規,0,2025-04-08,2025-04-08,合同会社ＲＡＣ,,合同会社,東京都,豊島区,南大塚３丁目４２番１０－７０５号,,13,116,1700005,,,,,,,2025-04-08,1,,,,,ラック,0
2764,9020001162201,新規,0,2025-04-08,2025-04-08,株式会社ｆｒｅｅｄｏｍ２５,,株式会社,神奈川県,川崎市宮前区,鷺沼４丁目１４番地２Ｄ－４１０,,14,136,2160004,,,,,,,2025-04-08,1,,,,,フリーダムトウェンティファイブ,0
2765,9020001162218,新規,0,2025-04-08,2025-04-08,株式会社ダールデザイン,,株式会社,神奈川県,横浜市青葉区,榎が丘１５番地８１,,14,117,2270063,,,,,,,2025-04-08,1,,,,,ダールデザイン,0
2766,9020001162226,新規,0,2025-04-08,2025-04-08,株式会社ＹＦ,,株式会社,神奈川県,横浜市中区,福富町西通４８番地新福富ビル１階,,14,104,2310042,,,,,,,2025-04-08,1,,,,,ワイエフ,0
2767,9020001162250,新規,0,2025-04-08,2025-04-08,ＨＡＢＡＮＥＲＯ　ＦＯＯＤＳ株式会社,,株式会社,神奈川県,横浜市鶴見区,東寺尾中台２番１９－２号,,14,101,2300017,,,,,,,2025-04-08,1,,,,,ハバネロフーズ,0
2768,9020003028235,新規,0,2025-04-08,2025-04-08,ＭＳトラストライン合同会社,,合同会社,神奈川県,横浜市都筑区,荏田東１丁目２３番２５号,,14,118,2240006,,,,,,,2025-04-08,1,,,,,エムエストラストライン,0
2773,9021001084906,新規,0,2025-04-08,2025-04-08,株式会社ＫｉｋｉＨｏｍｅｓ,,株式会社,神奈川県,相模原市中央区,清新２丁目１６番１９号,,14,152,2520216,,,,,,,2025-04-08,1,,,,,キキホームズ,0
2774,9021001084914,新規,0,2025-04-08,2025-04-08,株式会社ベコニング,,株式会社,神奈川県,相模原市緑区,橋本７丁目１１番１９号アビタシオＶＩＩＩ－２０２,00138658,14,151,2520143,,,,,,,2025-04-08,1,,,,,ベコニング,0
2775,9021001084922,新規,0,2025-04-08,2025-04-08,株式会社ドゥオートケア,,株式会社,神奈川県,相模原市緑区,田名２３４０－３,,14,151,2520124,,,,,,,2025-04-08,1,,,,,ドゥオートケア,0
2780,9021003015818,新規,0,2025-04-08,2025-04-08,内田タイル合同会社,,合同会社,神奈川県,茅ヶ崎市,十間坂２丁目１番５４号,,14,207,2530045,,,,,,,2025-04-08,1,,,,,ウチダタイル,0
2782,9030001165649,新規,0,2025-04-08,2025-04-08,株式会社Ｃｒｅｅｋ‐Ｗｏｒｋｓ,,株式会社,埼玉県,川口市,青木５丁目１４－３７,,11,203,3320031,,,,,,,2025-04-08,1,,,,,クリークワークス,0
2783,9030001165855,新規,0,2025-04-08,2025-04-08,株式会社彩進,,株式会社,埼玉県,川口市,並木２丁目２８番１８プレミスト川口並木５０５号室,,11,203,3320034,,,,,,,2025-04-08,1,,,,,サイシン,0
2784,9030003026444,新規,0,2025-04-08,2025-04-08,合同会社ｃｌｅｖｅｒ　ｍａｎａｇｅｍｅｎｔ,,合同会社,埼玉県,川口市,末広１丁目３番３１―７０３号,,11,203,3320006,,,,,,,2025-04-08,1,,,,,クレバーマネジメント,0
2787,9040001138166,新規,0,2025-04-08,2025-04-08,株式会社たてやまや,,株式会社,千葉県,館山市,船形１４２２番地,,12,205,2940056,,,,,,,2025-04-08,1,,,,,タテヤマヤ,0
2788,9040001138190,新規,0,2025-04-08,2025-04-08,株式会社ＫＬＡＫ,,株式会社,千葉県,鴨川市,内浦３４５番地,,12,223,2995502,,,,,,,2025-04-08,1,,,,,クラック,0
2789,9040001138216,新規,0,2025-04-08,2025-04-08,株式会社一里晃,,株式会社,千葉県,大網白里市,北今泉１１４５番地２,,12,239,2993201,,,,,,,2025-04-08,1,,,,,イチリコウ,0
2790,9040001138224,新規,0,2025-04-08,2025-04-08,株式会社希翔,,株式会社,千葉県,千葉市緑区,大椎町１１９９番地１７８,,12,105,2670065,,,,,,,2025-04-08,1,,,,,キショウ,0
2791,9040001138249,新規,0,2025-04-08,2025-04-08,アーバンテクス株式会社,,株式会社,千葉県,木更津市,貝渕３丁目１２番９７号,,12,206,2920833,,,,,,,2025-04-08,1,,,,,アーバンテクス,0
2792,9040001138257,新規,0,2025-04-08,2025-04-08,株式会社アートエステート,,株式会社,千葉県,市川市,市川３丁目１８番２号アートヒルズ３０１,,12,203,2720034,,,,,,,2025-04-08,1,,,,,アートエステート,0
2793,9040003027276,新規,0,2025-04-08,2025-04-08,ｉ‐Ｋｉｍ　Ｉｎｔｅｒｎａｔｉｏｎａｌ合同会社,,合同会社,千葉県,印西市,滝野２丁目９番２５号,,12,231,2702329,,,,,,,2025-04-08,1,,,,,アイキムインターナショナル,0
2794,9040003027301,新規,0,2025-04-08,2025-04-08,合同会社ルミナイトゲームス,,合同会社,千葉県,柏市,西原１丁目１０番３０号,,12,217,2770885,,,,,,,2025-04-08,1,,,,,ルミナイトゲームス,0
2798,9050003009182,新規,0,2025-04-08,2025-04-08,合同会社ライフケアパートナーズ,,合同会社,茨城県,常陸太田市,内堀町３２５０番地の７,,08,212,3130063,,,,,,,2025-04-08,1,,,,,ライフケアパートナーズ,0
2802,9070001042794,新規,0,2025-04-08,2025-04-08,株式会社ネクスト,,株式会社,群馬県,伊勢崎市,三室町６２１１番地,,10,204,3792235,,,,,,,2025-04-08,1,,,,,ネクスト,0
2806,9080001026862,新規,0,2025-04-08,2025-04-08,株式会社ＡＢ,,株式会社,静岡県,静岡市駿河区,南町３－２０－１０１,,22,102,4228067,,,,,,,2025-04-08,1,,,,,エービー,0
2807,9080001026870,新規,0,2025-04-08,2025-04-08,アクトアイズ株式会社,,株式会社,静岡県,静岡市清水区,袖師町５９５－３,,22,103,4240037,,,,,,,2025-04-08,1,,,,,アクトアイズ,0
2814,9090003002803,新規,0,2025-04-08,2025-04-08,合同会社グッドフルーツ,,合同会社,山梨県,笛吹市,石和町川中島９７番１号石和クレアール３０５,,19,211,4060024,,,,,,,2025-04-08,1,,,,,グッドフルーツ,0
2819,9110001039167,新規,0,2025-04-08,2025-04-08,株式会社地蔵庵,,株式会社,新潟県,新潟市北区,すみれ野４丁目１番２０号,,15,101,9503133,,,,,,,2025-04-08,1,,,,,ジゾウアン,0
2822,9110005017210,新規,0,2025-04-08,2025-04-08,一般社団法人日本基板ネットワーク,,その他の設立登記法人,新潟県,新潟市西蒲区,赤鏥１００２番地１,,15,108,9530042,,,,,,,2025-04-08,1,,,,,ニホンキバンネットワーク,0
2834,9120001274259,新規,0,2025-04-08,2025-04-08,株式会社山本ｓｕｎ,,株式会社,大阪府,大阪市中央区,南本町３丁目３番２５－１６０２号,,27,128,5410054,,,,,,,2025-04-08,1,,,,,ヤマモトサン,0
2835,9120001274300,新規,0,2025-04-08,2025-04-08,ＫＩＮＴＯＵＮ工業株式会社,,株式会社,大阪府,大阪市都島区,高倉町２丁目１－４ＭＥＣビル６Ｄ室,,27,102,5340011,,,,,,,2025-04-08,1,,,,,キントウンコウギョウ,0
2836,9120001274309,新規,0,2025-04-08,2025-04-08,株式会社未来ソリューション,,株式会社,大阪府,大阪市北区,天満４丁目１７－１５－２０２Ｃ,,27,127,5300043,,,,,,,2025-04-08,1,,,,,ミライソリューション,0
2838,9120003029017,新規,0,2025-04-08,2025-04-08,合同会社ＢｕｙＭａｔｅ,,合同会社,大阪府,大阪市浪速区,元町１丁目１２番９号難波ロイヤルハイツ２Ｂ号,,27,111,5560016,,,,,,,2025-04-08,1,,,,,バイメイト,0
2845,9120103006378,新規,0,2025-04-08,2025-04-08,合同会社こじま,,合同会社,大阪府,堺市南区,御池台１丁２８番１０８号,,27,145,5900134,,,,,,,2025-04-08,1,,,,,コジマ,0
2852,9130001079310,新規,0,2025-04-08,2025-04-08,株式会社Ｇａｚｏｎ,,株式会社,京都府,京田辺市,大住岡村４２番地１,,26,211,6100343,,,,,,,2025-04-08,1,,,,,ガゾン,0
2853,9130001079327,新規,0,2025-04-08,2025-04-08,株式会社ＡＣＴＩＳ,,株式会社,京都府,京都市北区,鞍馬口通寺町西入新御霊口町２５３番地３,,26,101,6038146,,,,,,,2025-04-08,1,,,,,アクティス,0
2854,9130001079351,新規,0,2025-04-08,2025-04-08,Ｉｎｃｌｕｓｉｖｅ　Ｓｏｃｉｅｔｙ株式会社,,株式会社,京都府,京都市右京区,太秦安井辰巳町１番地６,,26,108,6168072,,,,,,,2025-04-08,1,,,,,インクルーシブソサエティ,0
2855,9130001079384,新規,0,2025-04-08,2025-04-08,株式会社スリーエス,,株式会社,京都府,京都市山科区,椥辻草海道町２５－７６,00138645,26,110,6078162,,,,,,,2025-04-08,1,,,,,スリーエス,0
2856,9130001079418,新規,0,2025-04-08,2025-04-08,株式会社アトラスアンカー,,株式会社,京都府,八幡市,男山雄徳８番地１－Ｅ３－５０２,,26,210,6148371,,,,,,,2025-04-08,1,,,,,アトラスアンカー,0
2863,9140001138008,新規,0,2025-04-08,2025-04-08,須田ホールディングス株式会社,,株式会社,兵庫県,姫路市,北条口２丁目８５番地１１０３号,,28,201,6700935,,,,,,,2025-04-08,1,,,,,スダホールディングス,0
2864,9140001138016,新規,0,2025-04-08,2025-04-08,株式会社マイオ,,株式会社,兵庫県,加古川市,東神吉町神吉５９１番地の５１,,28,210,6750057,,,,,,,2025-04-08,1,,,,,マイオ,0
2865,9140001138024,新規,0,2025-04-08,2025-04-08,株式会社足立電子,,株式会社,兵庫県,丹波市,春日町黒井６４６番地２,,28,223,6694141,,,,,,,2025-04-08,1,,,,,アダチデンシ,0
2866,9140001138057,新規,0,2025-04-08,2025-04-08,株式会社エスミライ,,株式会社,兵庫県,姫路市,大津区天満１６２３番地,,28,201,6711143,,,,,,,2025-04-08,1,,,,,エスミライ,0
2867,9140001138073,新規,0,2025-04-08,2025-04-08,テイラージャパン株式会社,,株式会社,兵庫県,伊丹市,鴻池１丁目２番１６号３階,,28,207,6640006,,,,,,,2025-04-08,1,,,,,テイラージャパン,0
2868,9140003021871,新規,0,2025-04-08,2025-04-08,合同会社リコリオ,,合同会社,兵庫県,尼崎市,南塚口町５丁目６－１０キエチュード２０２号,,28,202,6610012,,,,,,,2025-04-08,1,,,,,リコリオ,0
2872,9150003003555,新規,0,2025-04-08,2025-04-08,ＨＯＲＩＺＯＮ合同会社,,合同会社,奈良県,奈良市,三条大路１丁目１０番４３号ＦＯＲＥＳＴＳＱＵＡＲＥ８Ｆ,,29,201,6308013,,,,,,,2025-04-08,1,,,,,ホライズン,0
2879,9170005007148,新規,0,2025-04-08,2025-04-08,学校法人うつほの杜学園,,その他の設立登記法人,和歌山県,田辺市,中辺路町川合１４５１番地,,30,206,6461417,,,,,,,2025-04-08,1,,,,,ウツホノモリガクエン,0
2886,9180001166236,新規,0,2025-04-08,2025-04-08,株式会社ミタニ,,株式会社,愛知県,名古屋市南区,笠寺町字西之門３８番地,,23,112,4570051,,,,,,,2025-04-08,1,,,,,ミタニ,0
2887,9180001166252,新規,0,2025-04-08,2025-04-08,株式会社ナカニシ,,株式会社,愛知県,名古屋市千種区,猫洞通３丁目２９番地アーバン北本山１階,,23,101,4640032,,,,,,,2025-04-08,1,,,,,ナカニシ,0
2888,9180001166269,新規,0,2025-04-08,2025-04-08,株式会社Ｊ．ＮＯＶＡ,,株式会社,愛知県,名古屋市北区,北久手町２１０番地の５,,23,103,4620001,,,,,,,2025-04-08,1,,,,,ジェーノバ,0
2889,9180001166293,新規,0,2025-04-08,2025-04-08,ＳＩＧテクノロジー株式会社,,株式会社,愛知県,名古屋市中村区,名駅４丁目２４番５号第２森ビル４０１,,23,105,4500002,,,,,,,2025-04-08,1,,,,,,0
2890,9180001166302,新規,0,2025-04-08,2025-04-08,株式会社みらい,,株式会社,愛知県,名古屋市中区,上前津２丁目１２番９号,,23,106,4600013,,,,,,,2025-04-08,1,,,,,ミライ,0
2891,9180001166310,新規,0,2025-04-08,2025-04-08,株式会社ウイングインターナショナル,,株式会社,愛知県,名古屋市中村区,名駅３丁目４－１０アルティメイト名駅１ｓｔ２階,,23,105,4500002,,,,,,,2025-04-08,1,,,,,,0
2892,9180001166343,新規,0,2025-04-08,2025-04-08,栗花堂株式会社,,株式会社,愛知県,名古屋市中区,栄５丁目２６番３９号ＧＳ栄ビル３Ｆ,,23,106,4600008,,,,,,,2025-04-08,1,,,,,リッカドウ,0
2907,9200003006759,新規,0,2025-04-08,2025-04-08,合同会社ｍｏｓｓ,,合同会社,岐阜県,可児市,室原４１２－２,,21,214,5090253,,,,,,,2025-04-08,1,,,,,モス,0
2914,9220001026600,新規,0,2025-04-08,2025-04-08,株式会社ティーコネクト,,株式会社,石川県,小松市,井口町に２９番地２,,17,203,9230316,,,,,,,2025-04-08,1,,,,,ティーコネクト,0
2917,9230001020833,新規,0,2025-04-08,2025-04-08,株式会社ＨＡＮＡＳＨＩＮ,,株式会社,富山県,小矢部市,石動町１番地３５,,16,209,9320053,,,,,,,2025-04-08,1,,,,,ハナシン,0
2925,9260001040069,新規,0,2025-04-08,2025-04-08,Ｒヨット船舶管理人株式会社,,株式会社,岡山県,岡山市北区,下石井２丁目１０番１２号,,33,101,7000907,,,,,,,2025-04-08,1,,,,,アールヨットセンパクカンリニン,0
2932,9290001109497,新規,0,2025-04-08,2025-04-08,ＡＩＭセキュリティ株式会社,,株式会社,福岡県,飯塚市,中３５０番地１,,40,205,8200065,,,,,,,2025-04-08,1,,,,,アイムセキリュリティ,0
2933,9290001109514,新規,0,2025-04-08,2025-04-08,株式会社古川商店,,株式会社,福岡県,福岡市中央区,高砂１丁目２２番２５号１Ｆ,,40,133,8100011,,,,,,,2025-04-08,1,,,,,フルカワショウテン,0
2934,9290001109539,新規,0,2025-04-08,2025-04-08,株式会社ＧｏｏｄＬｏｃａｌ九州,,株式会社,福岡県,福岡市中央区,天神１丁目１１番１号,,40,133,8100001,,,,,,,2025-04-08,1,,,,,グッドローカルキュウシュウ,0
2935,9290001109571,新規,0,2025-04-08,2025-04-08,ずぶずぶテック株式会社,,株式会社,福岡県,福岡市博多区,博多駅前１丁目２３番２号ＰａｒｋＦｒｏｎｔ博多駅前１丁目５Ｆ－Ｂ,,40,132,8120011,,,,,,,2025-04-08,1,,,,,ズブズブテック,0
2942,9290801031413,新規,0,2025-04-08,2025-04-08,株式会社アドバンス,,株式会社,福岡県,遠賀郡岡垣町,大字三吉１７３番地１,,40,383,8114205,,,,,,,2025-04-08,1,,,,,アドバンス,0
2943,9310003004982,新規,0,2025-04-08,2025-04-08,ニカットイノベーション合同会社,,合同会社,長崎県,佐世保市,吉岡町１１８２番地１号,,42,202,8570143,,,,,,,2025-04-08,1,,,,,ニカットイノベーション,0
2947,9320001021046,新規,0,2025-04-08,2025-04-08,株式会社Ｇｏｋｅｎインスペクション,,株式会社,大分県,大分市,寺崎町１丁目４番２５号Ｖｉｅｎｔｏ２０２,,44,201,8700137,,,,,,,2025-04-08,1,,,,,ゴウケンインスペクション,0
2949,9330003010938,新規,0,2025-04-08,2025-04-08,合同会社ＴＵＩＮ,,合同会社,熊本県,菊池郡菊陽町,大字津久礼１７９６番地１,,43,404,8691101,,,,,,,2025-04-08,1,,,,,トゥイン,0
2952,9340003004807,新規,0,2025-04-08,2025-04-08,合同会社中西,,合同会社,鹿児島県,志布志市,志布志町安楽２１３９番地５ボヌール壱番館２０５号,,46,221,8997104,,,,,,,2025-04-08,1,,,,,ナカニシ,0
2953,9350001019459,新規,0,2025-04-08,2025-04-08,株式会社オーナメントＴＡＧＵＣＨＩ,,株式会社,宮崎県,延岡市,古川町３０５番地１４,,45,203,8820063,,,,,,,2025-04-08,1,,,,,オーナメントタグチ,0
2954,9350001019475,新規,0,2025-04-08,2025-04-08,株式会社３Ｌｉｇｈｔｓ,,株式会社,宮崎県,宮崎市,大字芳士１７８７番地２,,45,201,8800123,,,,,,,2025-04-08,1,,,,,スリーライツ,0
2958,9360001034993,新規,0,2025-04-08,2025-04-08,株式会社沖縄美十,,株式会社,沖縄県,うるま市,勝連南風原５１９４番地５０,,47,213,9042311,,,,,,,2025-04-08,1,,,,,オキナワビジュウ,0
2959,9360001035001,新規,0,2025-04-08,2025-04-08,株式会社繁栄,,株式会社,沖縄県,那覇市,若狭３丁目２番２号,,47,201,9000031,,,,,,,2025-04-08,1,,,,,ハンエイ,0
2961,9360003014820,新規,0,2025-04-08,2025-04-08,合同会社ｆｒｅｅｂｉｒｄ,,合同会社,沖縄県,宜野湾市,長田４丁目１７番２７－３０２号サンハイツ長田,,47,205,9012212,,,,,,,2025-04-08,1,,,,,フリーバード,0
2963,9370003007014,新規,0,2025-04-08,2025-04-08,Ｆｒｅｅ　Ｗａｙ合同会社,,合同会社,宮城県,仙台市青葉区,折立３丁目９番２号ＧＬＡＮＶＩＥＷ青葉Ｄ－１,,04,101,9893161,,,,,,,2025-04-08,1,,,,,フリーウェイ,0
2964,9380001035239,新規,0,2025-04-08,2025-04-08,伊藤医療株式会社,,株式会社,福島県,郡山市,安積町日出山字旧屋敷３－１,,07,203,9630101,,,,,,,2025-04-08,1,,,,,イトウイリョウ,0
2981,9440001009590,新規,0,2025-04-08,2025-04-08,株式会社ふどうさんのたちばな,,株式会社,北海道,北斗市,追分２丁目２番３５号,,01,236,0490101,,,,,,,2025-04-08,1,,,,,フドウサンノタチバナ,0
2987,9470001020660,新規,0,2025-04-08,2025-04-08,株式会社ＦＫＹ,,株式会社,香川県,高松市,三谷町１０８番地５,,37,201,7610450,,,,,,,2025-04-08,1,,,,,エフケーワイ,0
2988,9480001012806,新規,0,2025-04-08,2025-04-08,株式会社かおり農園,,株式会社,徳島県,吉野川市,川島町三ツ島字道南３１番地５,,36,205,7793307,,,,,,,2025-04-08,1,,,,,カオリノウエン,0
2990,9490003002003,新規,0,2025-04-08,2025-04-08,合同会社菓福,,合同会社,高知県,安芸郡安田町,大字安田１７６０番地１,,39,304,7816421,,,,,,,2025-04-08,1,,,,,カフク,0
2992,9700150129857,新規,0,2025-04-08,2025-04-08,ｈａｎｇｚｈｏｕｙｕｑｉａｏｋｅｊｉｙｏｕｘｉａｎｇｏｎｇｓｉ,,外国会社等,,,,,,,,Ｘｉａｏｓｈａｎ　Ｅｃｏｎｏｍｉｃ　ａｎｄ　Ｔｅｃｈｎｏｌｏｇｉｃａｌ　Ｄｅｖｅｌｏｐｍｅｎｔ　Ｚｏｎｅ，Ｘｉａｏｓｈａｎ　Ｄｉｓｔｒｉｃｔ　Ｎｏ．１６－Ｃ３０７，Ｂｅｉｔａｎｇ　Ｒｏａｄ　Ｈａｎｇｚｈｏｕ　Ｃｉｔｙ　Ｚｈｅｊｉａｎｇ　Ｐｒｏｖｉｎｃｅ　ＣＮ　３１１２００,,,,,,2025-04-08,1,,,,,ハンゾウユチャオカギヨウシエンゴンスー,0
