sequenceNumber,corporateNumber,process,correct,updateDate,changeDate,name,nameImageId,kind,prefectureName,cityName,streetNumber,addressImageId,prefectureCode,cityCode,postCode,addressOutside,addressOutsideImageId,closeDate,closeCause,successorCorporateNumber,changeCause,assignmentDate,latest,enName,enPrefectureName,enCityName,enAddressOutside,furigana,hihyoji
14,1010003013427,登記記録の閉鎖等,0,2023-01-19,2023-01-11,合同会社バリューアップマネジメント・ツー,,合同会社,東京都,千代田区,飯田橋２丁目４番５号,,13,101,1020072,,,2023-01-11,清算の結了等,,,2015-10-05,1,,,,,,0
15,1010003017023,登記記録の閉鎖等,0,2023-01-19,2023-01-11,合同会社ＯＨＡＮＡ,,合同会社,山梨県,上野原市,上野原６３４９番地,,19,212,4090112,,,2023-01-11,清算の結了等,,,2015-10-05,1,,,,,オハナ,0
32,1010501001866,登記記録の閉鎖等,0,2023-01-19,2023-01-17,海老原包装株式会社,,株式会社,東京都,台東区,小島２丁目３番６号,,13,106,1110056,,,2023-01-17,清算の結了等,,,2015-10-05,1,,,,,エビハラホウソウ,0
45,1011001017221,登記記録の閉鎖等,0,2023-01-19,2023-01-04,株式会社日商管理サービス,,株式会社,東京都,渋谷区,代々木１丁目４５番１号,,13,113,1510053,,,2023-01-04,合併による解散等,5011001006823,令和５年１月１日東京都渋谷区代々木一丁目４５番１号株式会社グランインテリア（5011001006823）に合併し解散,2015-10-05,1,,,,,ニッショウカンリサービス,0
67,1011301020370,登記記録の閉鎖等,0,2023-01-19,2023-01-13,株式会社リアンカ,,株式会社,東京都,杉並区,荻窪５丁目８番１２号,,13,115,1670051,,,2023-01-13,清算の結了等,,,2015-10-05,1,,,,,,0
68,1011305001565,登記記録の閉鎖等,0,2023-01-19,2023-01-16,特定非営利活動法人日本学校教育高度化研究所,,その他の設立登記法人,京都府,京都市左京区,下鴨森ケ前町６４番地２０,,26,103,6060867,,,2023-01-16,清算の結了等,,,2015-10-05,1,,,,,ニホンガッコウキョウイクコウドカケンキュウショ,0
87,1030001023426,登記記録の閉鎖等,0,2023-01-19,2023-01-16,株式会社こころ,,株式会社,埼玉県,さいたま市大宮区,大成町１丁目１７２番地１,,11,103,3300852,,,2023-01-16,清算の結了等,,,2015-10-05,1,,,,,ココロ,0
117,1050002030460,登記記録の閉鎖等,0,2023-01-19,2023-01-11,共栄精工有限会社,,有限会社,茨城県,日立市,河原子町１丁目６番８号,,08,202,3160005,,,2023-01-11,清算の結了等,,,2015-10-05,1,,,,,キョウエイセイコウ,0
119,1060002015584,登記記録の閉鎖等,0,2023-01-19,2023-01-13,有限会社エフディピー,,有限会社,栃木県,日光市,森友１６３８番地１０,,09,206,3212335,,,2023-01-13,清算の結了等,,,2015-10-05,1,,,,,エフディピー,0
123,1070001002715,登記記録の閉鎖等,0,2023-01-19,2023-01-16,株式会社ファイン,,株式会社,群馬県,前橋市,関根町１丁目１１番地５,,10,201,3710047,,,2023-01-16,清算の結了等,,,2015-10-05,1,,,,,ファイン,0
133,1110001016223,登記記録の閉鎖等,0,2023-01-19,2023-01-18,株式会社関川製作所,,株式会社,新潟県,西蒲原郡弥彦村,美山５７４番地,,15,342,9590310,,,2023-01-18,清算の結了等,,,2015-10-05,1,,,,,,0
154,1120002038257,登記記録の閉鎖等,0,2023-01-19,2023-01-17,有限会社福島商店,,有限会社,大阪府,大阪市中央区,島之内２丁目５番４号,,27,128,5420082,,,2023-01-17,清算の結了等,,,2015-10-05,1,,,,,フクシマショウテン,0
166,1122001024097,登記記録の閉鎖等,0,2023-01-19,2023-01-17,株式会社浦野福太郎商店,,株式会社,大阪府,東大阪市,荒本新町７番５－１０１号,,27,227,5770022,,,2023-01-17,清算の結了等,,,2015-10-05,1,,,,,ウラノフクタロウショウテン,0
169,1130001015875,登記記録の閉鎖等,0,2023-01-19,2023-01-16,株式会社桃山企画,,株式会社,京都府,京都市伏見区,中島樋ノ上町１番地,,26,109,6128465,,,2023-01-16,清算の結了等,,,2015-10-05,1,,,,,モモヤマキカク,0
173,1130002014901,登記記録の閉鎖等,0,2023-01-19,2023-01-17,有限会社ホープ商会,,有限会社,京都府,京都市伏見区,下鳥羽円面田町３９番地の１,,26,109,6128474,,,2023-01-17,登記官による閉鎖,,,2015-10-05,1,,,,,,0
188,1180001098742,登記記録の閉鎖等,0,2023-01-19,2023-01-13,株式会社福原,,株式会社,愛知県,海部郡大治町,大字堀之内字大堀２１３番地,,23,424,4901137,,,2023-01-13,清算の結了等,,,2015-10-05,1,,,,,フクハラ,0
189,1180001111348,登記記録の閉鎖等,0,2023-01-19,2023-01-13,株式会社クリーン・ピア,,株式会社,愛知県,一宮市,時之島字古野２５番地２,,23,203,4910002,,,2023-01-13,清算の結了等,,,2015-10-05,1,,,,,クリーンピア,0
195,1180301010885,登記記録の閉鎖等,0,2023-01-19,2023-01-06,株式会社加藤製作所,,株式会社,愛知県,蒲郡市,丸山町３番１４号,,23,214,4430032,,,2023-01-06,清算の結了等,,,2015-10-05,1,,,,,カトウセイサクショ,0
208,1210001010406,登記記録の閉鎖等,0,2023-01-19,2023-01-18,株式会社サニースマイル,,株式会社,福井県,福井市,鮎川町第１３２号４番地,,18,201,9103402,,,2023-01-18,清算の結了等,,,2015-10-05,1,,,,,サニースマイル,0
215,1260002000946,登記記録の閉鎖等,0,2023-01-19,2023-01-17,今不動産有限会社,,有限会社,岡山県,岡山市北区,今７丁目２０番２号,,33,101,7000975,,,2023-01-17,清算の結了等,,,2015-10-05,1,,,,,イマフドウサン,0
217,1280002006933,登記記録の閉鎖等,0,2023-01-19,2023-01-16,有限会社アンビシャス,,有限会社,島根県,出雲市,西平田町２４３番地１,,32,203,6910002,,,2023-01-16,清算の結了等,,,2015-10-05,1,,,,,アンビシャス,0
221,1290002038868,登記記録の閉鎖等,0,2023-01-19,2023-01-16,有限会社カーメイトシゲマツ,,有限会社,福岡県,大野城市,平野台１丁目１５番２０号,,40,219,8160972,,,2023-01-16,清算の結了等,,,2015-10-05,1,,,,,カーメイトシゲマツ,0
229,1320002010518,登記記録の閉鎖等,0,2023-01-19,2023-01-18,有限会社ひなげし,,有限会社,大分県,大分市,久原中央１丁目４番３３号,,44,201,8700325,,,2023-01-18,清算の結了等,,,2015-10-05,1,,,,,,0
238,1370002012831,登記記録の閉鎖等,0,2023-01-19,2023-01-16,有限会社八幡堂薬局,,有限会社,宮城県,仙台市青葉区,八幡３丁目４番７号,,04,101,9800871,,,2023-01-16,清算の結了等,,,2015-10-05,1,,,,,ハチマンドウヤッキョク,0
242,1390002007342,登記記録の閉鎖等,0,2023-01-19,2023-01-13,有限会社サント美装,,有限会社,山形県,酒田市,光ケ丘５丁目３番４号,,06,204,9980061,,,2023-01-13,清算の結了等,,,2015-10-05,1,,,,,,0
255,1440001002058,登記記録の閉鎖等,0,2023-01-19,2023-01-12,株式会社北水ライン,,株式会社,北海道,函館市,金堀町９番１４号,,01,202,0420944,,,2023-01-12,清算の結了等,,,2015-10-05,1,,,,,ホクスイライン,0
257,1460001000282,登記記録の閉鎖等,0,2023-01-19,2023-01-18,川合漁業株式会社,,株式会社,北海道,釧路市,入舟５丁目５番２１号,,01,206,0850846,,,2023-01-18,登記官による閉鎖,,,2017-11-28,1,,,,,,0
258,1460002002988,登記記録の閉鎖等,0,2023-01-19,2023-01-18,有限会社丸昌渡部自動車整備工場,,有限会社,北海道,釧路市,星が浦大通３丁目１番３０号,,01,206,0840912,,,2023-01-18,登記官による閉鎖,,,2015-10-05,1,,,,,,0
262,1500001002497,登記記録の閉鎖等,0,2023-01-19,2023-01-17,株式会社大三企画,,株式会社,愛媛県,松山市,本町６丁目６－７－３０２号,,38,201,7900811,,,2023-01-17,登記官による閉鎖,,,2015-10-05,1,,,,,,0
263,1500001006184,登記記録の閉鎖等,0,2023-01-19,2023-01-17,株式会社ＩＣＯＡＬ,,株式会社,愛媛県,松山市,三番町４丁目８番地７,,38,201,7900003,,,2023-01-17,登記官による閉鎖,,,2015-10-05,1,,,,,,0
264,1500001009848,登記記録の閉鎖等,0,2023-01-19,2023-01-17,近藤縫製株式会社,,株式会社,愛媛県,新居浜市,北内町３丁目１１番２４号,,38,205,7920842,,,2023-01-17,登記官による閉鎖,,,2015-10-05,1,,,,,,0
265,1500001011647,登記記録の閉鎖等,0,2023-01-19,2023-01-17,四国興産株式会社,,株式会社,愛媛県,今治市,天保山町５丁目２番２０号,,38,202,7940032,,,2023-01-17,登記官による閉鎖,,,2015-10-05,1,,,,,,0
266,1500001020978,登記記録の閉鎖等,0,2023-01-19,2023-01-17,在間産業株式会社,,株式会社,愛媛県,今治市,黄金町５丁目５番地の８,,38,202,7940037,,,2023-01-17,登記官による閉鎖,,,2017-11-10,1,,,,,,0
268,1500002003593,登記記録の閉鎖等,0,2023-01-19,2023-01-17,有限会社ジル・コーポレーション,,有限会社,愛媛県,松山市,木屋町３丁目２番地４,,38,201,7900821,,,2023-01-17,登記官による閉鎖,,,2015-10-05,1,,,,,,0
271,1500002008626,登記記録の閉鎖等,0,2023-01-19,2023-01-17,有限会社助六,,有限会社,愛媛県,伊予郡松前町,大字筒井３５０番地,,38,401,7913120,,,2023-01-17,登記官による閉鎖,,,2015-10-05,1,,,,,,0
272,1500002016166,登記記録の閉鎖等,0,2023-01-19,2023-01-17,有限会社加藤損保サービス,,有限会社,愛媛県,新居浜市,喜光地町１丁目７番３９号,,38,205,7920826,,,2023-01-17,登記官による閉鎖,,,2015-10-05,1,,,,,,0
273,1500002017016,登記記録の閉鎖等,0,2023-01-19,2023-01-17,有限会社ニイハマカーセンター,,有限会社,愛媛県,新居浜市,平形町１１番２２号,,38,205,7920803,,,2023-01-17,登記官による閉鎖,,,2015-10-05,1,,,,,,0
274,1500002020135,登記記録の閉鎖等,0,2023-01-19,2023-01-17,有限会社村上組,,有限会社,愛媛県,今治市,伯方町有津甲１６９５番地の６,,38,202,7942301,,,2023-01-17,登記官による閉鎖,,,2015-10-05,1,,,,,,0
275,1500003000631,登記記録の閉鎖等,0,2023-01-19,2023-01-17,合名会社由井水産,,合名会社,愛媛県,西宇和郡伊方町,仁田之浜９８１番地,,38,442,7960306,,,2023-01-17,登記官による閉鎖,,,2015-10-05,1,,,,,,0
276,1500005008128,登記記録の閉鎖等,0,2023-01-19,2023-01-17,大三島町土地開発公社,,その他の設立登記法人,愛媛県,今治市,大三島町宮浦５７０８番地,,38,202,7941304,,,2023-01-17,登記官による閉鎖,,,2019-12-10,1,,,,,オオミシマチョウ,0
277,1500005008160,登記記録の閉鎖等,0,2023-01-19,2023-01-17,大谷開拓農業協同組合,,その他の設立登記法人,愛媛県,越智郡上島町,弓削下弓削甲１８３０番地,,38,356,7942506,,,2023-01-17,登記官による閉鎖,,,2020-02-19,1,,,,,オオタニカイタク,0
301,2010501031458,登記記録の閉鎖等,0,2023-01-19,2023-01-18,源生肌株式会社,,株式会社,東京都,台東区,入谷２丁目１６番１０号アムールマンション,,13,106,1100013,,,2023-01-18,清算の結了等,,,2015-10-05,1,,,,,ゲンセイキ,0
302,2010601044698,登記記録の閉鎖等,0,2023-01-19,2023-01-17,株式会社ＰＵＰ,,株式会社,東京都,墨田区,押上１丁目４６－６－１Ｆ,,13,107,1310045,,,2023-01-17,合併による解散等,1020001136162,令和５年１月１日横浜市港南区上大岡西一丁目６番１号株式会社ツクイ（1020001136162）に合併し解散,2015-10-05,1,,,,,ピーユーピー,0
319,2011002011180,登記記録の閉鎖等,0,2023-01-19,2023-01-10,有限会社藤巻商店,,有限会社,東京都,渋谷区,千駄ヶ谷３丁目４０番１２号,,13,113,1510051,,,2023-01-10,清算の結了等,,,2015-10-05,1,,,,,フジマキショウテン,0
320,2011101002064,登記記録の閉鎖等,0,2023-01-19,2023-01-16,株式会社インタラクティブ,,株式会社,埼玉県,狭山市,大字北入曽１４５８番地の２７,,11,215,3501315,,,2023-01-16,清算の結了等,,,2015-10-05,1,,,,,インタラクティブ,0
321,2011101039916,登記記録の閉鎖等,0,2023-01-19,2023-01-16,株式会社セクラス,,株式会社,東京都,新宿区,天神町１４番地,,13,104,1620808,,,2023-01-16,清算の結了等,,,2015-10-05,1,,,,,,0
330,2012302007455,登記記録の閉鎖等,0,2023-01-19,2023-01-16,有限会社セーフティテクノサービス,,有限会社,東京都,町田市,木曽東３丁目１８番２１号,,13,209,1940036,,,2023-01-16,清算の結了等,,,2015-10-05,1,,,,,セーフティテクノサービス,0
354,2030001122318,登記記録の閉鎖等,0,2023-01-19,2023-01-11,株式会社Ｇｏ　Ｔｈｒｏｕｇｈ,,株式会社,埼玉県,さいたま市浦和区,岸町４丁目２番１０号,,11,107,3300064,,,2023-01-11,清算の結了等,,,2017-09-26,1,,,,,ゴースルー,0
377,2060002018917,登記記録の閉鎖等,0,2023-01-19,2023-01-13,エム・ステンレス有限会社,,有限会社,栃木県,真岡市,京泉２１６番地１,,09,209,3214406,,,2023-01-13,清算の結了等,,,2015-10-05,1,,,,,エムステンレス,0
379,2080002004733,登記記録の閉鎖等,0,2023-01-19,2023-01-18,有限会社ハラキ,,有限会社,静岡県,静岡市駿河区,大谷３８００番地の３２６,,22,102,4228017,,,2023-01-18,清算の結了等,,,2015-10-05,1,,,,,ハラキ,0
380,2080002009880,登記記録の閉鎖等,0,2023-01-19,2023-01-13,有限会社こまごえ,,有限会社,静岡県,静岡市清水区,駒越中１丁目５番１０号,,22,103,4240904,,,2023-01-13,清算の結了等,,,2015-10-05,1,,,,,コマゴエ,0
381,2080101010079,登記記録の閉鎖等,0,2023-01-19,2023-01-17,株式会社大栄樹脂工業所,,株式会社,静岡県,富士市,蓼原９２３番地の３,,22,210,4160931,,,2023-01-17,清算の結了等,,,2015-10-05,1,,,,,ダイエイジュシコウギョウショ,0
383,2080102013948,登記記録の閉鎖等,0,2023-01-19,2023-01-16,有限会社サン晃永舎,,有限会社,静岡県,富士市,境３０９番地,,22,210,4170812,,,2023-01-16,清算の結了等,,,2015-10-05,1,,,,,サンコウエイシャ,0
396,2110002026146,登記記録の閉鎖等,0,2023-01-19,2023-01-16,有限会社ナグリン,,有限会社,新潟県,十日町市,水口沢１７７番地４,,15,210,9480144,,,2023-01-16,清算の結了等,,,2015-10-05,1,,,,,ナグリン,0
403,2120001223817,登記記録の閉鎖等,0,2023-01-19,2023-01-17,ＡＧＰ　Ｃａｔｅｒｉｎｇ＆Ｅｖｅｎｔｓｅｒｖｉｃｅ株式会社,,株式会社,大阪府,大阪市北区,豊崎３丁目２０番９号三栄ビル７０８号,,27,127,5310072,,,2023-01-17,清算の結了等,,,2019-09-17,1,,,,,エージーピーケータリングアンドイベントサービス,0
408,2120002080150,登記記録の閉鎖等,0,2023-01-19,2023-01-16,有限会社日の出物産,,有限会社,大阪府,門真市,江端町２８番地の１６,,27,223,5710012,,,2023-01-16,清算の結了等,,,2015-10-05,1,,,,,ヒノデブッサン,0
419,2120902022441,登記記録の閉鎖等,0,2023-01-19,2023-01-17,有限会社ＳＥＪ,,有限会社,大阪府,豊中市,新千里東町２丁目４番Ｄ７－１２０１号,,27,203,5600082,,,2023-01-17,清算の結了等,,,2015-10-05,1,,,,,エスイージェイ,0
437,2150002004759,登記記録の閉鎖等,0,2023-01-19,2023-01-13,有限会社アラキプレス産業,,有限会社,奈良県,大和郡山市,北郡山町１００番地の４３,,29,203,6391160,,,2023-01-13,清算の結了等,,,2015-10-05,1,,,,,アラキプレスサンギョウ,0
440,2160005002890,登記記録の閉鎖等,0,2023-01-19,2023-01-10,天理教近神分教会,,その他の設立登記法人,滋賀県,甲賀市,甲賀町神保１７１０番地の４,,25,209,5203404,,,2023-01-10,合併による解散等,9160005002760,令和５年１月１０日滋賀県甲賀市水口町新町一丁目１番３５号天理教水口大教会（9160005002760）に合併し解散,2015-10-05,1,,,,,テンリキョウキンシンブンキョウカイ,0
442,2180001025943,登記記録の閉鎖等,0,2023-01-19,2023-01-17,千和株式会社,,株式会社,愛知県,名古屋市西区,南押切町４丁目２１番地,,23,104,,,,2023-01-17,登記官による閉鎖,,,2017-11-08,1,,,,,,1
450,2180002069122,登記記録の閉鎖等,0,2023-01-19,2023-01-12,有限会社サンワスクリーン,,有限会社,愛知県,小牧市,大字池之内３２３２番地,,23,219,4850804,,,2023-01-12,清算の結了等,,,2015-10-05,1,,,,,,0
488,2310002015938,登記記録の閉鎖等,0,2023-01-19,2023-01-10,有限会社万鉄商会,,有限会社,長崎県,諫早市,飯盛町後田２９９３番地,,42,204,8541105,,,2023-01-10,清算の結了等,,,2015-10-05,1,,,,,マンテツショウカイ,0
511,2370302001070,登記記録の閉鎖等,0,2023-01-19,2023-01-13,有限会社さとう薬局,,有限会社,宮城県,石巻市,八幡町１丁目６番５号,,04,202,9860016,,,2023-01-13,清算の結了等,,,2015-10-05,1,,,,,サトウヤッキョク,0
513,2380002004190,登記記録の閉鎖等,0,2023-01-19,2023-01-13,株式会社ゼネラルファーマシー,,株式会社,福島県,福島市,永井川字北谷地７番地の１,,07,201,9601102,,,2023-01-13,合併による解散等,9010401095530,令和５年１月１日東京都千代田区丸の内一丁目９番２号株式会社ストレチア（9010401095530）に合併し解散,2015-10-05,1,,,,,ゼネラルファーマシー,0
537,2460001003937,登記記録の閉鎖等,0,2023-01-19,2023-01-18,株式会社釧路洋装社,,株式会社,北海道,釧路市,旭町７番３号,,01,206,0850011,,,2023-01-18,登記官による閉鎖,,,2015-10-05,1,,,,,,0
538,2460002000909,登記記録の閉鎖等,0,2023-01-19,2023-01-18,有限会社釧路塗料商事,,有限会社,北海道,釧路市,千代ノ浦２番２１号,,01,206,0850823,,,2023-01-18,登記官による閉鎖,,,2015-10-05,1,,,,,,0
539,2460002004959,登記記録の閉鎖等,0,2023-01-19,2023-01-18,有限会社ホシカル,,有限会社,北海道,川上郡標茶町,字西熊牛原野１５番地３,,01,664,0882300,,,2023-01-18,登記官による閉鎖,,,2015-10-05,1,,,,,,0
547,2500001005961,登記記録の閉鎖等,0,2023-01-19,2023-01-17,株式会社フレッシュおかざき,,株式会社,愛媛県,松山市,三番町２丁目１番地１,,38,201,7900003,,,2023-01-17,登記官による閉鎖,,,2015-10-05,1,,,,,,0
548,2500001012933,登記記録の閉鎖等,0,2023-01-19,2023-01-17,愛興産業株式会社,,株式会社,愛媛県,今治市,宮窪町余所国１１０番地９,,38,202,7942202,,,2023-01-17,登記官による閉鎖,,,2015-10-05,1,,,,,,0
549,2500001015928,登記記録の閉鎖等,0,2023-01-19,2023-01-17,株式会社はなみずき介護センター,,株式会社,愛媛県,宇和島市,保手１丁目５番１２号,,38,203,7980088,,,2023-01-17,登記官による閉鎖,,,2015-10-05,1,,,,,,0
551,2500001018600,登記記録の閉鎖等,0,2023-01-19,2023-01-17,四国住研株式会社,,株式会社,愛媛県,松山市,姫原３丁目８番２９号,,38,201,7918012,,,2023-01-17,登記官による閉鎖,,,2015-10-05,1,,,,,,0
552,2500001019581,登記記録の閉鎖等,0,2023-01-19,2023-01-17,株式会社丸吉商會,00105630,株式会社,愛媛県,松山市,北柳井町３４番地,,38,201,7910000,,,2023-01-17,登記官による閉鎖,,,2016-02-02,1,,,,,,1
553,2500001021711,登記記録の閉鎖等,0,2023-01-19,2023-01-17,株式会社ワイド・クリーン・ライン,,株式会社,愛媛県,西予市,三瓶町二及１番耕地２６９番地,,38,214,7960903,,,2023-01-17,登記官による閉鎖,,,2018-11-27,1,,,,,,0
554,2500002005473,登記記録の閉鎖等,0,2023-01-19,2023-01-17,有限会社ピアノキャリー,,有限会社,愛媛県,松山市,山越５丁目１４番２０号,,38,201,7918013,,,2023-01-17,登記官による閉鎖,,,2015-10-05,1,,,,,,0
555,2500002009763,登記記録の閉鎖等,0,2023-01-19,2023-01-17,有限会社ルネサンス,,有限会社,愛媛県,松山市,宮田町１３９番地６,,38,201,7900066,,,2023-01-17,登記官による閉鎖,,,2015-10-05,1,,,,,,0
556,2500002013063,登記記録の閉鎖等,0,2023-01-19,2023-01-17,有限会社浦中興業,,有限会社,愛媛県,西宇和郡伊方町,河内５３番地３,,38,442,7960305,,,2023-01-17,登記官による閉鎖,,,2015-10-05,1,,,,,,0
557,2500002015324,登記記録の閉鎖等,0,2023-01-19,2023-01-17,有限会社ロックウェル,,有限会社,愛媛県,西条市,北条１２５２番地１,,38,206,7991354,,,2023-01-17,登記官による閉鎖,,,2015-10-05,1,,,,,,0
558,2500002015811,登記記録の閉鎖等,0,2023-01-19,2023-01-17,有限会社伊藤衣料,,有限会社,愛媛県,新居浜市,磯浦町５番３０号,,38,205,7920002,,,2023-01-17,登記官による閉鎖,,,2015-10-05,1,,,,,,0
559,2500002019341,登記記録の閉鎖等,0,2023-01-19,2023-01-17,有限会社山田建設,,有限会社,愛媛県,今治市,八町東３丁目３番１１号,,38,202,7940831,,,2023-01-17,登記官による閉鎖,,,2015-10-05,1,,,,,,0
560,2500002020869,登記記録の閉鎖等,0,2023-01-19,2023-01-17,山中汽船有限会社,,有限会社,愛媛県,今治市,吉海町福田甲２１１２番地の１,,38,202,7942103,,,2023-01-17,登記官による閉鎖,,,2015-10-05,1,,,,,,0
561,2500002021842,登記記録の閉鎖等,0,2023-01-19,2023-01-17,有限会社ファミリーハウス,,有限会社,愛媛県,新居浜市,萩生２０３３番地１７,,38,205,7920050,,,2023-01-17,登記官による閉鎖,,,2015-10-05,1,,,,,,0
562,2500002023797,登記記録の閉鎖等,0,2023-01-19,2023-01-17,有限会社宇都宮建設,,有限会社,愛媛県,宇和島市,夏目町２丁目４番２１号,,38,203,7980083,,,2023-01-17,登記官による閉鎖,,,2015-10-05,1,,,,,,0
564,2500005006023,登記記録の閉鎖等,0,2023-01-19,2023-01-17,特定非営利活動法人エコマテリアル環境資源ネットワーク,,その他の設立登記法人,愛媛県,四国中央市,土居町上野甲１５２５番地,,38,213,7990721,,,2023-01-17,登記官による閉鎖,,,2015-10-05,1,,,,,,0
586,3010401117950,登記記録の閉鎖等,0,2023-01-19,2023-01-13,日本ＥＳＰ株式会社,,株式会社,東京都,港区,芝大門１丁目１０番１１号芝大門センタービル１０Ｆ,,13,103,1050012,,,2023-01-13,合併による解散等,4130001054466,令和５年１月１日京都市下京区柿本町５７９番地五条堀川ビル９０１株式会社ユニプラス（4130001054466）に合併し解散,2015-10-05,1,,,,,ニホンイーエスピー,0
597,3010701005021,登記記録の閉鎖等,0,2023-01-19,2023-01-06,株式会社コトノネ,,株式会社,東京都,目黒区,中目黒１丁目１番７１号ＫＮ代官山ビル３階,,13,110,1530061,,,2023-01-06,合併による解散等,6010701007568,令和５年１月１日東京都目黒区中目黒一丁目１番７１号ＫＮ代官山ビル３階株式会社ニュートラルコーポレーション（6010701007568）に合併し解散,2015-10-05,1,,,,,コトノネ,0
600,3011001073279,登記記録の閉鎖等,0,2023-01-19,2023-01-16,株式会社Ｋ・Ｆフーズ,,株式会社,東京都,渋谷区,恵比寿１丁目２２番２号,,13,113,1500013,,,2023-01-16,清算の結了等,,,2015-10-05,1,,,,,,0
629,3020001011322,登記記録の閉鎖等,0,2023-01-19,2023-01-16,港南建商株式会社,,株式会社,神奈川県,横浜市青葉区,あざみ野２丁目１９番１３,,14,117,2250011,,,2023-01-16,清算の結了等,,,2015-10-05,1,,,,,コウナンケンショウ,0
640,3020002075663,登記記録の閉鎖等,0,2023-01-19,2023-01-13,有限会社サカエ・プレシジョン,,有限会社,神奈川県,横浜市栄区,小菅ケ谷２丁目３８番１２号,,14,115,2470007,,,2023-01-13,清算の結了等,,,2015-10-05,1,,,,,サカエプレシジョン,0
646,3021003009742,登記記録の閉鎖等,0,2023-01-19,2023-01-13,合同会社セカンドステージ,,合同会社,神奈川県,藤沢市,藤沢１００６番地の１藤沢パーク・ホームズブロードマーク７０３号室,,14,205,2510052,,,2023-01-13,合併による解散等,5021003007612,令和５年１月１日神奈川県茅ヶ崎市浜竹二丁目２番５７号合同会社Ｒ＆Ａ（5021003007612）に合併し解散,2020-10-12,1,,,,,セカンドステージ,0
658,3030002098498,登記記録の閉鎖等,0,2023-01-19,2023-01-16,有限会社小川商会,,有限会社,埼玉県,越谷市,蒲生本町５番１５号,,11,222,3430837,,,2023-01-16,清算の結了等,,,2015-10-05,1,,,,,オガワショウカイ,0
675,3080001007835,登記記録の閉鎖等,0,2023-01-19,2023-01-18,株式会社カクイチライスセンター,,株式会社,静岡県,静岡市清水区,高橋５丁目１３番３７号,,22,103,4240041,,,2023-01-18,清算の結了等,,,2015-10-05,1,,,,,カクイチライスセンター,0
676,3080101015606,登記記録の閉鎖等,0,2023-01-19,2023-01-17,株式会社アサヒ東海リ・ミックス,,株式会社,静岡県,富士市,水戸島２丁目２２番５号,,22,210,4160921,,,2023-01-17,清算の結了等,,,2015-10-05,1,,,,,アサヒトウカイリミックス,0
680,3080401000679,登記記録の閉鎖等,0,2023-01-19,2023-01-16,遠州カートン株式会社,,株式会社,静岡県,浜松市南区,白羽町１３５番地,,22,134,4300846,,,2023-01-16,清算の結了等,,,2015-10-05,1,,,,,エンシュウカートン,0
709,3120901015668,登記記録の閉鎖等,0,2023-01-19,2023-01-17,株式会社マナベ,,株式会社,大阪府,三島郡島本町,高浜３丁目５番７号,,27,301,6180012,,,2023-01-17,清算の結了等,,,2015-10-05,1,,,,,マナベ,0
711,3120902019957,登記記録の閉鎖等,0,2023-01-19,2023-01-18,有限会社ムカイヤマ,,有限会社,大阪府,豊中市,若竹町２丁目８番２１号,,27,203,5610811,,,2023-01-18,清算の結了等,,,2015-10-05,1,,,,,ムカイヤマ,0
720,3140001009552,登記記録の閉鎖等,0,2023-01-19,2023-01-12,東海商事株式会社,,株式会社,兵庫県,神戸市中央区,元町通２丁目１番２号,,28,110,6500022,,,2023-01-12,清算の結了等,,,2015-10-05,1,,,,,トウカイショウジ,0
725,3140002019492,登記記録の閉鎖等,0,2023-01-19,2023-01-16,有限会社テクノトラスト,,有限会社,兵庫県,神戸市東灘区,森北町４丁目６番７号,,28,101,6580001,,,2023-01-16,清算の結了等,,,2015-10-05,1,,,,,テクノトラスト,0
729,3140005010473,登記記録の閉鎖等,0,2023-01-19,2023-01-11,株式会社但馬ガス供給センター,,株式会社,兵庫県,朝来市,和田山町枚田２４４番地,,28,225,6695261,,,2023-01-11,合併による解散等,6140001046659,令和５年１月１日兵庫県朝来市和田山町枚田２４４番地Ｈ＆Ｔｅｎｅｒｇｙ株式会社（6140001046659）に合併し解散,2015-10-05,1,,,,,タジマガスキョウキュウセンター,0
736,3180001098014,登記記録の閉鎖等,0,2023-01-19,2022-12-28,株式会社マリハム,,株式会社,愛知県,あま市,森８丁目１３番地２５,,23,237,4901107,,,2022-12-28,清算の結了等,,,2015-10-05,1,,,,,マリハム,0
750,3180302002905,登記記録の閉鎖等,0,2023-01-19,2023-01-10,有限会社夢屋,,有限会社,愛知県,岡崎市,中島町字井ノ上６５番地,,23,202,4440226,,,2023-01-10,清算の結了等,,,2015-10-05,1,,,,,ユメヤ,0
755,3200003000825,登記記録の閉鎖等,0,2023-01-19,2023-01-18,合資会社宮川薬店,,合資会社,岐阜県,岐阜市,真砂町６丁目２１番地,,21,201,5008864,,,2023-01-18,清算の結了等,,,2015-10-05,1,,,,,ミヤガワヤクテン,0
770,3240001037923,登記記録の閉鎖等,0,2023-01-19,2023-01-17,株式会社尾道マリン,,株式会社,広島県,尾道市,久保３丁目５番８号,,34,205,7220045,,,2023-01-17,清算の結了等,,,2015-10-05,1,,,,,オノミチマリン,0
817,3460002002615,登記記録の閉鎖等,0,2023-01-19,2023-01-18,有限会社北栄電裝商亊,,有限会社,北海道,釧路市,松浦町１４番１２号,,01,206,0850005,,,2023-01-18,登記官による閉鎖,,,2015-10-05,1,,,,,,0
818,3460002002739,登記記録の閉鎖等,0,2023-01-19,2023-01-18,有限会社松田水産,,有限会社,北海道,釧路市,南大通４丁目１番２０５５号,,01,206,0850841,,,2023-01-18,登記官による閉鎖,,,2015-10-05,1,,,,,,0
820,3460102007662,登記記録の閉鎖等,0,2023-01-19,2023-01-13,有限会社ふじサービス,,有限会社,北海道,帯広市,東三条南２０丁目１１番地,,01,207,0800803,,,2023-01-13,清算の結了等,,,2015-10-05,1,,,,,フジサービス,0
827,3500001005366,登記記録の閉鎖等,0,2023-01-19,2023-01-17,株式会社ナチュラル・Ｅ・マーケット,,株式会社,愛媛県,松山市,三番町４丁目７番地１４,,38,201,7900003,,,2023-01-17,登記官による閉鎖,,,2015-10-05,1,,,,,,0
828,3500001010366,登記記録の閉鎖等,0,2023-01-19,2023-01-17,株式会社ライン館,,株式会社,愛媛県,新居浜市,久保田町３丁目１１番５５号,,38,205,7920026,,,2023-01-17,登記官による閉鎖,,,2015-10-05,1,,,,,,0
829,3500001013897,登記記録の閉鎖等,0,2023-01-19,2023-01-17,株式会社湯之町,,株式会社,愛媛県,松山市,道後湯之町１９番４号,,38,201,7900842,,,2023-01-17,登記官による閉鎖,,,2015-10-05,1,,,,,,0
831,3500001021223,登記記録の閉鎖等,0,2023-01-19,2023-01-17,愛媛開発株式会社,,株式会社,愛媛県,今治市,室屋町３丁目２番地３８,,38,202,7940022,,,2023-01-17,登記官による閉鎖,,,2018-03-13,1,,,,,,0
832,3500001022304,登記記録の閉鎖等,0,2023-01-19,2023-01-17,株式会社竹内金属工業所,,株式会社,愛媛県,西条市,大町１２２８番地,,38,206,7930030,,,2023-01-17,登記官による閉鎖,,,2019-10-09,1,,,,,タケウチキンゾクコウギョウショ,0
834,3500002000192,登記記録の閉鎖等,0,2023-01-19,2023-01-17,セーフテイードライ有限会社,,有限会社,愛媛県,松山市,粟井河原３３５番地１,,38,201,7992463,,,2023-01-17,登記官による閉鎖,,,2015-10-05,1,,,,,,0
835,3500002003030,登記記録の閉鎖等,0,2023-01-19,2023-01-17,有限会社佐藤プラントシステム,,有限会社,愛媛県,松山市,白水台２丁目１０番地２,,38,201,7910113,,,2023-01-17,登記官による閉鎖,,,2015-10-05,1,,,,,サトウプラントシステム,0
836,3500002003807,登記記録の閉鎖等,0,2023-01-19,2023-01-17,有限会社成和土木,,有限会社,愛媛県,松山市,会津町３番１号,,38,201,7918076,,,2023-01-17,登記官による閉鎖,,,2015-10-05,1,,,,,,0
837,3500002005613,登記記録の閉鎖等,0,2023-01-19,2023-01-17,有限会社ビル・ギノ,,有限会社,愛媛県,松山市,一番町１丁目６番地１３,,38,201,7900001,,,2023-01-17,登記官による閉鎖,,,2015-10-05,1,,,,,,0
838,3500002011660,登記記録の閉鎖等,0,2023-01-19,2023-01-17,有限会社菊池,,有限会社,愛媛県,大洲市,新谷町甲３７番地,,38,207,7950073,,,2023-01-17,登記官による閉鎖,,,2015-10-05,1,,,,,,0
839,3500002013013,登記記録の閉鎖等,0,2023-01-19,2023-01-17,石居建設有限会社,,有限会社,愛媛県,八幡浜市,保内町須川２６９５番地,,38,204,7960112,,,2023-01-17,登記官による閉鎖,,,2015-10-05,1,,,,,,0
840,3500002014408,登記記録の閉鎖等,0,2023-01-19,2023-01-17,有限会社ビバ,,有限会社,愛媛県,西条市,大町１７６６番地２,,38,206,7930030,,,2023-01-17,登記官による閉鎖,,,2015-10-05,1,,,,,,0
841,3500002017427,登記記録の閉鎖等,0,2023-01-19,2023-01-17,有限会社ターボサーキット,,有限会社,愛媛県,新居浜市,郷３丁目１６番４号,,38,205,7920886,,,2023-01-17,登記官による閉鎖,,,2015-10-05,1,,,,,,0
842,3500002018854,登記記録の閉鎖等,0,2023-01-19,2023-01-17,有限会社肉の筒井,,有限会社,愛媛県,今治市,米屋町２丁目１番地１,,38,202,7940021,,,2023-01-17,登記官による閉鎖,,,2015-10-05,1,,,,,,0
843,3500002024431,登記記録の閉鎖等,0,2023-01-19,2023-01-17,有限会社白井谷第一農園,,有限会社,愛媛県,宇和島市,吉田町立間２番耕地２５５０番地,,38,203,7993730,,,2023-01-17,登記官による閉鎖,,,2017-09-27,1,,,,,,0
844,3500002024448,登記記録の閉鎖等,0,2023-01-19,2023-01-17,有限会社赤松農園,,有限会社,愛媛県,宇和島市,吉田町立間１番耕地２９７７番地,,38,203,7993730,,,2023-01-17,登記官による閉鎖,,,2019-06-21,1,,,,,アカマツノウエン,0
846,3500005001122,登記記録の閉鎖等,0,2023-01-19,2023-01-17,愛媛県医薬品小売商業組合,,その他の設立登記法人,愛媛県,松山市,三番町７丁目６番地９,,38,201,7900003,,,2023-01-17,登記官による閉鎖,,,2015-10-05,1,,,,,,0
847,3500005002260,登記記録の閉鎖等,0,2023-01-19,2023-01-17,砥部大南商店街協同組合,,その他の設立登記法人,愛媛県,伊予郡砥部町,大南３９４番地,,38,402,7912132,,,2023-01-17,登記官による閉鎖,,,2015-10-05,1,,,,,,0
848,3500005004604,登記記録の閉鎖等,0,2023-01-19,2023-01-17,ＮＰＯ法人障害者サポートセンター西条,,その他の設立登記法人,愛媛県,西条市,小松町北川６２番地７,,38,206,7991103,,,2023-01-17,登記官による閉鎖,,,2015-10-05,1,,,,,,0
849,3500005008027,登記記録の閉鎖等,0,2023-01-19,2023-01-17,日土村農業会,,その他の設立登記法人,愛媛県,八幡浜市,日土町２番耕地２８５番地,,38,204,7960170,,,2023-01-17,登記官による閉鎖,,,2018-12-13,1,,,,,ヒヅチムラ,0
853,4010001128331,登記記録の閉鎖等,0,2023-01-19,2023-01-10,株式会社ワールド情報,,株式会社,東京都,中央区,新川２丁目９番６号シュテルン中央ビル３階,,13,102,1040033,,,2023-01-10,合併による解散等,5010001137505,令和５年１月１日東京都中央区新川二丁目９番６号シュテルン中央ビル３階ペネトレイト・オブ・リミット株式会社（5010001137505）に合併し解散,2015-10-05,1,,,,,ワールドジョウホウ,0
861,4010401082517,登記記録の閉鎖等,0,2023-01-19,2023-01-12,Ｊ－Ｆｏｒｃｅ株式会社,,株式会社,埼玉県,和光市,白子３丁目２８－３５－３０２,,11,229,3510101,,,2023-01-12,清算の結了等,,,2015-10-05,1,,,,,ジェイフォース,0
866,4010401133146,登記記録の閉鎖等,0,2023-01-19,2023-01-17,株式会社シーエストマネジメントホールディングス,,株式会社,神奈川県,横浜市中区,山下町１０８番地小黒ビル２０３号室,,14,104,2310023,,,2023-01-17,清算の結了等,,,2017-08-23,1,,,,,シーエストマネジメントホールディングス,0
869,4010403016563,登記記録の閉鎖等,0,2023-01-19,2023-01-16,鳥居坂リアルエステート合同会社,,合同会社,東京都,台東区,台東３丁目２８番４号,,13,106,1100016,,,2023-01-16,清算の結了等,,,2017-05-18,1,,,,,トリイザカリアルエステート,0
874,4010702001373,登記記録の閉鎖等,0,2023-01-19,2023-01-11,有限会社エニーエンジニアリング,,有限会社,東京都,品川区,東五反田２丁目２０番２号,,13,109,1410022,,,2023-01-11,清算の結了等,,,2015-10-05,1,,,,,エニーエンジニアリング,0
880,4010902006651,登記記録の閉鎖等,0,2023-01-19,2023-01-16,有限会社サンシュウ,,有限会社,東京都,世田谷区,北烏山１丁目５５番１１号,,13,112,1570061,,,2023-01-16,清算の結了等,,,2015-10-05,1,,,,,,0
889,4011102017043,登記記録の閉鎖等,0,2023-01-19,2023-01-16,有限会社藤晃,,有限会社,東京都,新宿区,早稲田鶴巻町５６４番地,,13,104,1620041,,,2023-01-16,清算の結了等,,,2015-10-05,1,,,,,,0
912,4012801008704,登記記録の閉鎖等,0,2023-01-19,2023-01-10,株式会社ＭＥＳ,,株式会社,東京都,立川市,高松町１丁目１８番１７号,,13,202,1900011,,,2023-01-10,清算の結了等,,,2015-10-05,1,,,,,エムイーエス,0
917,4020001098573,登記記録の閉鎖等,0,2023-01-19,2023-01-12,株式会社ＨＩＲＯ　ＩＣＴ研究所,,株式会社,神奈川県,川崎市麻生区,金程１丁目３７番２１号,,14,137,2150006,,,2023-01-12,清算の結了等,,,2015-10-05,1,,,,,ヒロアイシーティーケンキュウジョ,0
926,4020002007244,登記記録の閉鎖等,0,2023-01-19,2023-01-12,有限会社ユー・アンド・アイ,,有限会社,神奈川県,横浜市都筑区,東方町９８５番地１５,,14,118,2240045,,,2023-01-12,清算の結了等,,,2015-10-05,1,,,,,ユーアンドアイ,0
930,4020002087939,登記記録の閉鎖等,0,2023-01-19,2023-01-12,有限会社インテリアイシイ,,有限会社,神奈川県,川崎市高津区,下野毛３丁目６番３５号,,14,134,2130006,,,2023-01-12,清算の結了等,,,2015-10-05,1,,,,,インテリアイシイ,0
941,4030002057206,登記記録の閉鎖等,0,2023-01-19,2023-01-16,有限会社カーサポート,,有限会社,埼玉県,上尾市,大字平方７５７番地１号,,11,219,3620059,,,2023-01-16,清算の結了等,,,2015-10-05,1,,,,,カーサポート,0
964,4050003004056,登記記録の閉鎖等,0,2023-01-19,2023-01-10,飛田合同会社,,合同会社,茨城県,ひたちなか市,高場２丁目１２番地４エテルノ・フィオーレＣ,,08,221,3120062,,,2023-01-10,清算の結了等,,,2018-01-15,1,,,,,トビタ,0
979,4080001020779,登記記録の閉鎖等,0,2023-01-19,2023-01-16,株式会社Ｃｈａｐｅｕ,,株式会社,静岡県,静岡市駿河区,中田２丁目３番２２号,,22,102,4228041,,,2023-01-16,清算の結了等,,,2016-03-03,1,,,,,シャペウ,0
1040,4180001090696,登記記録の閉鎖等,0,2023-01-19,2023-01-05,ディー・エフ・エム株式会社,,株式会社,東京都,新宿区,西新宿６丁目６番３号,,13,104,1600023,,,2023-01-05,合併による解散等,6011101038674,令和５年１月１日東京都新宿区西新宿六丁目６番３号株式会社テクノソリューションズ（6011101038674）に合併し解散,2015-10-05,1,,,,,ディーエフエム,0
1044,4180001138149,登記記録の閉鎖等,0,2023-01-19,2023-01-12,光洋パートナーズ株式会社,,株式会社,愛知県,名古屋市昭和区,滝川町４７番地の２４,,23,107,4660826,,,2023-01-12,清算の結了等,,,2019-09-20,1,,,,,コウヨウパートナーズ,0
1055,4180301024965,登記記録の閉鎖等,0,2023-01-19,2023-01-16,株式会社安城メディア・アート,,株式会社,愛知県,安城市,三河安城東町１丁目１６番地７,,23,212,4460057,,,2023-01-16,清算の結了等,,,2015-10-05,1,,,,,アンジョウメディアアート,0
1056,4180302019188,登記記録の閉鎖等,0,2023-01-19,2023-01-10,有限会社あさひ工芸,,有限会社,愛知県,知立市,南新地３丁目３番地１３,,23,225,4720053,,,2023-01-10,清算の結了等,,,2015-10-05,1,,,,,アサヒコウゲイ,0
1069,4240001015515,登記記録の閉鎖等,0,2023-01-19,2023-01-13,東洋インキ中四国株式会社,,株式会社,広島県,広島市中区,橋本町１０番６号,,34,101,7300015,,,2023-01-13,合併による解散等,9010001139175,令和５年１月１日東京都中央区京橋二丁目２番１号東洋インキ株式会社（9010001139175）に合併し解散,2015-10-05,1,,,,,トウヨウインキチュウシコク,0
1070,4240001020382,登記記録の閉鎖等,0,2023-01-19,2023-01-18,株式会社ライト,,株式会社,広島県,広島市東区,中山新町３丁目１７番８号,,34,102,7320021,,,2023-01-18,清算の結了等,,,2015-10-05,1,,,,,ライト,0
1071,4240001042352,登記記録の閉鎖等,0,2023-01-19,2023-01-17,株式会社Ａコーポレーション,,株式会社,広島県,広島市安佐南区,川内２丁目３７番２－３０３号,,34,105,7310102,,,2023-01-17,清算の結了等,,,2015-10-05,1,,,,,エーコーポレーション,0
1073,4240002014739,登記記録の閉鎖等,0,2023-01-19,2023-01-18,古川酒店有限会社,,有限会社,広島県,広島市南区,宇品御幸５丁目４番１４号,,34,103,7340015,,,2023-01-18,清算の結了等,,,2015-10-05,1,,,,,フルカワサケテン,0
1091,4370001001007,登記記録の閉鎖等,0,2023-01-19,2023-01-13,東洋インキ東北株式会社,,株式会社,宮城県,仙台市泉区,明通３丁目２７番,,04,105,9813206,,,2023-01-13,合併による解散等,9010001139175,令和５年１月１日東京都中央区京橋二丁目２番１号東洋インキ株式会社（9010001139175）に合併し解散,2015-10-05,1,,,,,トウヨウインキトウホク,0
1105,4460001003506,登記記録の閉鎖等,0,2023-01-19,2023-01-18,株式会社釧路自動車,,株式会社,北海道,釧路市,旭町３０番８号,,01,206,0850011,,,2023-01-18,登記官による閉鎖,,,2015-10-05,1,,,,,,0
1106,4460002004718,登記記録の閉鎖等,0,2023-01-19,2023-01-18,有限会社山の人びと,,有限会社,北海道,厚岸郡浜中町,茶内西１０線１９４番地,,01,663,0881369,,,2023-01-18,登記官による閉鎖,,,2015-10-05,1,,,,,,0
1114,4500001006181,登記記録の閉鎖等,0,2023-01-19,2023-01-17,株式会社Ｄｅａｒ,,株式会社,愛媛県,松山市,緑町１丁目３番地２８,,38,201,7900806,,,2023-01-17,登記官による閉鎖,,,2015-10-05,1,,,,,,0
1115,4500001012097,登記記録の閉鎖等,0,2023-01-19,2023-01-17,株式会社西原商店,,株式会社,愛媛県,今治市,栄町３丁目１番地の１４,,38,202,7940023,,,2023-01-17,登記官による閉鎖,,,2015-10-05,1,,,,,,0
1116,4500001016197,登記記録の閉鎖等,0,2023-01-19,2023-01-17,ガガスタジオ株式会社,,株式会社,愛媛県,四国中央市,金田町金川１４８４番地,,38,213,7990123,,,2023-01-17,登記官による閉鎖,,,2015-10-05,1,,,,,,0
1119,4500001019621,登記記録の閉鎖等,0,2023-01-19,2023-01-17,西部建設株式会社,,株式会社,愛媛県,八幡浜市,産業通１３番７号,,38,204,7968004,,,2023-01-17,登記官による閉鎖,,,2016-02-12,1,,,,,セイブケンセツ,0
1121,4500001022971,登記記録の閉鎖等,0,2023-01-19,2023-01-17,株式会社ローンズタイム,,株式会社,愛媛県,松山市,湊町４丁目３番地２１,,38,201,7900012,,,2023-01-17,登記官による閉鎖,,,2020-10-21,1,,,,,ローンズタイム,0
1123,4500002000506,登記記録の閉鎖等,0,2023-01-19,2023-01-17,有限会社アートネームプレート,,有限会社,愛媛県,松山市,美沢２丁目３番１２号,,38,201,7918022,,,2023-01-17,登記官による閉鎖,,,2015-10-05,1,,,,,,0
1124,4500002005728,登記記録の閉鎖等,0,2023-01-19,2023-01-17,有限会社ふくはら,,有限会社,愛媛県,松山市,築山町１番２８号,,38,201,7900864,,,2023-01-17,登記官による閉鎖,,,2015-10-05,1,,,,,,0
1125,4500002007113,登記記録の閉鎖等,0,2023-01-19,2023-01-17,有限会社山本鮮魚,,有限会社,愛媛県,松山市,南久米町２６４番地２,,38,201,7900924,,,2023-01-17,登記官による閉鎖,,,2015-10-05,1,,,,,,0
1126,4500002011123,登記記録の閉鎖等,0,2023-01-19,2023-01-17,有限会社八木冷機工業,,有限会社,愛媛県,東温市,牛渕６５３番地,,38,215,7910213,,,2023-01-17,登記官による閉鎖,,,2015-10-05,1,,,,,,0
1127,4500002011230,登記記録の閉鎖等,0,2023-01-19,2023-01-17,有限会社若藤工業,,有限会社,愛媛県,上浮穴郡久万高原町,柳井川２９６５番地,,38,386,7911801,,,2023-01-17,登記官による閉鎖,,,2015-10-05,1,,,,,,0
1128,4500002015941,登記記録の閉鎖等,0,2023-01-19,2023-01-17,有限会社飯尾工業,,有限会社,愛媛県,新居浜市,萩生２１３３番地５,,38,205,7920050,,,2023-01-17,登記官による閉鎖,,,2015-10-05,1,,,,,,0
1129,4500002018317,登記記録の閉鎖等,0,2023-01-19,2023-01-17,有限会社さのや,,有限会社,愛媛県,今治市,米屋町１丁目１番地２８,,38,202,7940021,,,2023-01-17,登記官による閉鎖,,,2015-10-05,1,,,,,,0
1130,4500002019364,登記記録の閉鎖等,0,2023-01-19,2023-01-17,有限会社行本不動産,,有限会社,愛媛県,今治市,常盤町４丁目４番地７,,38,202,7940015,,,2023-01-17,登記官による閉鎖,,,2015-10-05,1,,,,,,0
1131,4500002024141,登記記録の閉鎖等,0,2023-01-19,2023-01-17,有限会社徳永酒店,,有限会社,愛媛県,宇和島市,泉町３丁目１番４６号,,38,203,7980026,,,2023-01-17,登記官による閉鎖,,,2016-07-13,1,,,,,トクナガサケテン,0
1132,4500002024471,登記記録の閉鎖等,0,2023-01-19,2023-01-17,有限会社水谷農園,,有限会社,愛媛県,宇和島市,吉田町沖村甲１７０３番地,,38,203,7993751,,,2023-01-17,登記官による閉鎖,,,2021-06-16,1,,,,,ミズタニノウエン,0
1133,4500005006905,登記記録の閉鎖等,0,2023-01-19,2023-01-17,特定非営利活動法人北条鹿島の風早社中,,その他の設立登記法人,愛媛県,松山市,土手内１８４番地１４,,38,201,7992432,,,2023-01-17,登記官による閉鎖,,,2015-10-05,1,,,,,,0
1134,4500005008307,登記記録の閉鎖等,0,2023-01-19,2023-01-17,荏原村農業会,,その他の設立登記法人,愛媛県,松山市,東方町甲１２７２番地,,38,201,7911123,,,2023-01-17,登記官による閉鎖,,,2021-02-02,1,,,,,エバラムラ,0
1137,5010001060046,登記記録の閉鎖等,0,2023-01-19,2023-01-10,株式会社洋商,,株式会社,東京都,中央区,築地６丁目４番５号シティスクエア築地３０２,,13,102,1040045,,,2023-01-10,清算の結了等,,,2015-10-05,1,,,,,ヨウショウ,0
1142,5010003013621,登記記録の閉鎖等,0,2023-01-19,2023-01-11,合同会社ジュピター・スリー,,合同会社,東京都,千代田区,麹町４丁目３番２９号,,13,101,1020083,,,2023-01-11,清算の結了等,,,2015-10-05,1,,,,,,0
1147,5010401107925,登記記録の閉鎖等,0,2023-01-19,2022-12-28,株式会社Ａｓ　ａｒｏｕｎｄ,,株式会社,東京都,港区,南青山５丁目１７番６号,,13,103,1070062,,,2022-12-28,清算の結了等,,,2015-10-05,1,,,,,エースアラウンド,0
1198,5011601019968,登記記録の閉鎖等,0,2023-01-19,2023-01-13,株式会社長谷川立案,,株式会社,東京都,世田谷区,北沢２丁目２７番９号,,13,112,1550031,,,2023-01-13,清算の結了等,,,2015-10-05,1,,,,,ハセガワリツアン,0
1206,5012701011625,登記記録の閉鎖等,0,2023-01-19,2023-01-17,株式会社ＳＡＹ東京,,株式会社,東京都,西東京市,泉町６丁目９番１６号,,13,229,2020011,,,2023-01-17,清算の結了等,,,2015-10-05,1,,,,,エスエーワイトウキョウ,0
1208,5013201015199,登記記録の閉鎖等,0,2023-01-19,2023-01-16,株式会社ウェーブモーション,,株式会社,東京都,目黒区,下目黒５丁目２８番１４号,,13,110,1530064,,,2023-01-16,清算の結了等,,,2015-10-05,1,,,,,ウェーブモーション,0
1235,5021003004980,登記記録の閉鎖等,0,2023-01-19,2023-01-13,合同会社ネクストステージ,,合同会社,神奈川県,相模原市南区,相模大野３丁目３番２－１８０１号,,14,153,2520303,,,2023-01-13,合併による解散等,9012301010602,令和４年１１月３０日東京都港区南青山二丁目２番１５号ウィン青山９４２号室Ｎｉｇｈｔ＆Ｄａｙｓ株式会社（9012301010602）に合併し解散,2015-10-05,1,,,,,ネクストステージ,0
1238,5021003009294,登記記録の閉鎖等,0,2023-01-19,2023-01-13,合同会社エース,,合同会社,神奈川県,藤沢市,藤沢１００９－６中島ビル３ＦＮＥＫＴＯＮＫＩＴＡＧＵＣＨＩ,,14,205,2510052,,,2023-01-13,清算の結了等,,,2020-04-22,1,,,,,エース,0
1247,5030002079892,登記記録の閉鎖等,0,2023-01-19,2023-01-17,株式会社ガッツカンパニー,,株式会社,東京都,新宿区,新宿５丁目１１番３０号新宿第五葉山ビル３階,,13,104,1600022,,,2023-01-17,清算の結了等,,,2015-10-05,1,,,,,ガッツカンパニー,0
1249,5030003011144,登記記録の閉鎖等,0,2023-01-19,2023-01-16,水渊合同会社,,合同会社,埼玉県,川口市,大字芝６９９０番地の３６南浦和クイーンコーポＢ棟１０５号,,11,203,3330866,,,2023-01-16,清算の結了等,,,2017-12-07,1,,,,,スイエン,0
1252,5040001092284,登記記録の閉鎖等,0,2023-01-19,2023-01-11,株式会社新成,,株式会社,千葉県,山武市,森７４８番地４,,12,237,2891214,,,2023-01-11,清算の結了等,,,2015-10-05,1,,,,,シンセイ,0
1270,5060002039992,登記記録の閉鎖等,0,2023-01-19,2023-01-16,有限会社吉岡産業,,有限会社,栃木県,佐野市,飛駒町１４１６番地２,,09,204,3270231,,,2023-01-16,清算の結了等,,,2015-10-05,1,,,,,ヨシオカサンギョウ,0
1273,5080001023401,登記記録の閉鎖等,0,2023-01-19,2023-01-18,リオンエステート株式会社,,株式会社,静岡県,静岡市駿河区,富士見台１丁目１番１４号,,22,102,4228026,,,2023-01-18,清算の結了等,,,2020-02-21,1,,,,,リオンエステート,0
1274,5080101021577,登記記録の閉鎖等,0,2023-01-19,2023-01-16,株式会社Ｏ．Ｓ技建,,株式会社,静岡県,御殿場市,二の岡１丁目５番１５－１０６号,,22,215,4120025,,,2023-01-16,清算の結了等,,,2020-01-20,1,,,,,オーエスギケン,0
1294,5120101020574,登記記録の閉鎖等,0,2023-01-19,2023-01-16,宝名刺株式会社,,株式会社,大阪府,高石市,高師浜１丁目３番３５－２０５号,,27,225,5920004,,,2023-01-16,清算の結了等,,,2015-10-05,1,,,,,タカラメイシ,0
1295,5120101048095,登記記録の閉鎖等,0,2023-01-19,2023-01-18,株式会社エコリーズ,,株式会社,大阪府,松原市,東新町３丁目５番１７－３１２号,,27,217,5800024,,,2023-01-18,清算の結了等,,,2015-10-05,1,,,,,,0
1308,5140001036140,登記記録の閉鎖等,0,2023-01-19,2023-01-16,大西産業株式会社,,株式会社,兵庫県,三木市,福井１９２１の１,,28,215,6730433,,,2023-01-16,清算の結了等,,,2015-10-05,1,,,,,オオニシサンギョウ,0
1318,5140002018212,登記記録の閉鎖等,0,2023-01-19,2023-01-13,有限会社いずみ,,有限会社,兵庫県,神戸市須磨区,南町１丁目５番１３号,,28,107,6540036,,,2023-01-13,清算の結了等,,,2015-10-05,1,,,,,イズミ,0
1325,5180001121335,登記記録の閉鎖等,0,2023-01-19,2023-01-11,株式会社第一産業,,株式会社,愛知県,名古屋市港区,入船１丁目４番１８号,,23,111,4550032,,,2023-01-11,清算の結了等,,,2015-12-15,1,,,,,ダイイチサンギョウ,0
1354,5240002017856,登記記録の閉鎖等,0,2023-01-19,2023-01-18,有限会社世茂亀屋,,有限会社,広島県,広島市南区,宇品御幸５丁目４番１４号,,34,103,7340015,,,2023-01-18,清算の結了等,,,2015-10-05,1,,,,,ヨモギヤ,0
1368,5290001048856,登記記録の閉鎖等,0,2023-01-19,2023-01-06,三光産業株式会社,,株式会社,福岡県,久留米市,東町３０番地の１９,,40,203,8300032,,,2023-01-06,清算の結了等,,,2022-11-28,1,,,,,サンコウサンギョウ,0
1370,5290003009443,登記記録の閉鎖等,0,2023-01-19,2023-01-13,合同会社恵比寿堂,,合同会社,福岡県,柳川市,三橋町江曲１７７番地３えぐち建築ビル１階,,40,207,8320825,,,2023-01-13,清算の結了等,,,2019-10-24,1,,,,,エビスドウ,0
1393,5390001006473,登記記録の閉鎖等,0,2023-01-19,2023-01-16,株式会社日本海レンタカー,,株式会社,山形県,酒田市,東泉町３丁目１８番地の１７,,06,204,9980013,,,2023-01-16,清算の結了等,,,2015-10-05,1,,,,,ニホンカイレンタカー,0
1398,5430001002963,登記記録の閉鎖等,0,2023-01-19,2023-01-12,株式会社オーツカ,,株式会社,北海道,札幌市中央区,南二十一条西１３丁目２番６号,,01,101,0640921,,,2023-01-12,清算の結了等,,,2015-10-05,1,,,,,オーツカ,0
1400,5430001025881,登記記録の閉鎖等,0,2023-01-19,2023-01-13,東洋インキ北海道株式会社,,株式会社,北海道,札幌市西区,西町南１１丁目１番３６号,,01,107,0630062,,,2023-01-13,合併による解散等,9010001139175,令和５年１月１日東京都中央区京橋二丁目２番１号東洋インキ株式会社（9010001139175）に合併し解散,2015-10-05,1,,,,,トウヨウインキホッカイドウ,0
1407,5430002048477,登記記録の閉鎖等,0,2023-01-19,2023-01-11,有限会社和田商店,,有限会社,北海道,千歳市,信濃３丁目２１番９号,,01,224,0660038,,,2023-01-11,清算の結了等,,,2015-10-05,1,,,,,,0
1410,5460001000898,登記記録の閉鎖等,0,2023-01-19,2023-01-18,株式会社綜合技建工業,,株式会社,北海道,釧路市,入江町７番２７号,,01,206,0850008,,,2023-01-18,登記官による閉鎖,,,2015-10-05,1,,,,,,0
1411,5460001001038,登記記録の閉鎖等,0,2023-01-19,2023-01-18,株式会社大楽組,,株式会社,北海道,釧路市,大楽毛４丁目９番１１号,,01,206,0840917,,,2023-01-18,登記官による閉鎖,,,2015-10-05,1,,,,,,0
1413,5460002002076,登記記録の閉鎖等,0,2023-01-19,2023-01-18,有限会社道東家電サービスセンター,,有限会社,北海道,釧路市,大町５丁目１番３号,,01,206,0850847,,,2023-01-18,登記官による閉鎖,,,2015-10-05,1,,,,,,0
1414,5460002002695,登記記録の閉鎖等,0,2023-01-19,2023-01-18,有限会社北海道マコモ普及センター,,有限会社,北海道,釧路市,愛国東３丁目５番１６号,,01,206,0850058,,,2023-01-18,登記官による閉鎖,,,2015-10-05,1,,,,,,0
1417,5480002014714,登記記録の閉鎖等,0,2023-01-19,2023-01-16,近森有限会社,,有限会社,徳島県,美馬市,脇町大字猪尻字建神社下南１４１番地１,,36,207,7793602,,,2023-01-16,清算の結了等,,,2015-10-05,1,,,,,コンモリ,0
1421,5500001000365,登記記録の閉鎖等,0,2023-01-19,2023-01-17,東開発株式会社,,株式会社,愛媛県,松山市,道後樋又４番２６号,,38,201,7900825,,,2023-01-17,登記官による閉鎖,,,2015-10-05,1,,,,,,0
1422,5500001008136,登記記録の閉鎖等,0,2023-01-19,2023-01-17,株式会社ひより,,株式会社,愛媛県,大洲市,長浜町下須戒甲３２１番地２,,38,207,7993441,,,2023-01-17,登記官による閉鎖,,,2015-10-05,1,,,,,,0
1423,5500001013680,登記記録の閉鎖等,0,2023-01-19,2023-01-17,株式会社おかけや,,株式会社,愛媛県,東温市,見奈良１５４０番地２０,,38,215,7910211,,,2023-01-17,登記官による閉鎖,,,2015-10-05,1,,,,,,0
1424,5500001015917,登記記録の閉鎖等,0,2023-01-19,2023-01-17,株式会社あぐりや,,株式会社,愛媛県,北宇和郡松野町,大字松丸４００番地,,38,484,7982101,,,2023-01-17,登記官による閉鎖,,,2015-10-05,1,,,,,アグリヤ,0
1426,5500002013837,登記記録の閉鎖等,0,2023-01-19,2023-01-17,有限会社みかんちゃん,,有限会社,愛媛県,八幡浜市,郷１番耕地１２４７番地１,,38,204,7968020,,,2023-01-17,登記官による閉鎖,,,2015-10-05,1,,,,,,0
1427,5500002014579,登記記録の閉鎖等,0,2023-01-19,2023-01-17,有限会社読売西条東販売所,,有限会社,愛媛県,西条市,大町４３２番地の４,,38,206,7930030,,,2023-01-17,登記官による閉鎖,,,2015-10-05,1,,,,,,0
1428,5500002015750,登記記録の閉鎖等,0,2023-01-19,2023-01-17,有限会社安藤工務店,,有限会社,愛媛県,新居浜市,御蔵町１２番４６号,,38,205,7920047,,,2023-01-17,登記官による閉鎖,,,2015-10-05,1,,,,,,0
1429,5500002016146,登記記録の閉鎖等,0,2023-01-19,2023-01-17,有限会社国安ガラス店,,有限会社,愛媛県,新居浜市,中須賀町２丁目３番２６号,,38,205,7920012,,,2023-01-17,登記官による閉鎖,,,2015-10-05,1,,,,,,0
1430,5500002016336,登記記録の閉鎖等,0,2023-01-19,2023-01-17,有限会社小山工業,,有限会社,愛媛県,新居浜市,船木甲２１１０番地の１,,38,205,7920856,,,2023-01-17,登記官による閉鎖,,,2015-10-05,1,,,,,,0
1431,5500002019099,登記記録の閉鎖等,0,2023-01-19,2023-01-17,マツイ・マリン有限会社,,有限会社,愛媛県,今治市,北宝来町３丁目１番２８号,,38,202,7940028,,,2023-01-17,登記官による閉鎖,,,2015-10-05,1,,,,,,0
1432,5500002020222,登記記録の閉鎖等,0,2023-01-19,2023-01-17,有限会社赤尾組,,有限会社,愛媛県,今治市,上浦町井口３３１６番地,,38,202,7941402,,,2023-01-17,登記官による閉鎖,,,2015-10-05,1,,,,,,0
1435,6010001049708,登記記録の閉鎖等,0,2023-01-19,2023-01-04,ダイアナユーエスエイ株式会社,,株式会社,東京都,中央区,銀座６丁目９番６号,,13,102,1040061,,,2023-01-04,清算の結了等,,,2015-10-05,1,,,,,ダイアナユーエスエイ,0
1439,6010001129360,登記記録の閉鎖等,0,2023-01-19,2023-01-18,株式会社世紀ＧＯＬＤ,,株式会社,東京都,台東区,上野５丁目２２番地１１,,13,106,1100005,,,2023-01-18,清算の結了等,,,2015-10-05,1,,,,,セイキゴオルド,0
1447,6010001213511,登記記録の閉鎖等,0,2023-01-19,2023-01-16,株式会社侍ネット,,株式会社,東京都,新宿区,西新宿３丁目３番１３号西新宿水間ビル６階,,13,104,1600023,,,2023-01-16,清算の結了等,,,2020-11-12,1,,,,,サムライネット,0
1457,6010401126321,登記記録の閉鎖等,0,2023-01-19,2022-12-28,株式会社リエムツー,,株式会社,東京都,港区,六本木６丁目５番２０号－３０３,,13,103,1060032,,,2022-12-28,清算の結了等,,,2016-08-05,1,,,,,リエムツー,0
1462,6010403018979,登記記録の閉鎖等,0,2023-01-19,2023-01-13,合同会社山吹,,合同会社,東京都,港区,麻布台２丁目３番７号,,13,103,1060041,,,2023-01-13,合併による解散等,7010001157187,令和５年１月１日東京都中央区新川二丁目１７番８号株式会社ブルースカイ（7010001157187）に合併し解散,2018-07-24,1,,,,,ヤマブキ,0
1486,6011001016284,登記記録の閉鎖等,0,2023-01-19,2023-01-13,株式会社東京かねみつ,,株式会社,東京都,渋谷区,笹塚３丁目２４番５号,00064357,13,113,1510073,,,2023-01-13,合併による解散等,7140001036469,令和５年１月１日兵庫県三木市福井一丁目８番１１号東洋カネミツ株式会社（7140001036469）に合併し解散,2015-10-05,1,,,,,トウキョウカネミツ,0
1500,6011101060819,登記記録の閉鎖等,0,2023-01-19,2023-01-16,株式会社Ｓ＆Ｐ,,株式会社,東京都,目黒区,中根１丁目２番１３号,,13,110,1520031,,,2023-01-16,清算の結了等,,,2015-10-05,1,,,,,エスアンドピー,0
1513,6011701000430,登記記録の閉鎖等,0,2023-01-19,2023-01-18,株式会社飯倉工業,,株式会社,東京都,江戸川区,平井６丁目１番１３号,,13,123,1320035,,,2023-01-18,清算の結了等,,,2015-10-05,1,,,,,,0
1545,6021002027965,登記記録の閉鎖等,0,2023-01-19,2023-01-13,有限会社岩瀬商店,,有限会社,神奈川県,相模原市緑区,二本松４丁目２８番４号,,14,151,2520137,,,2023-01-13,清算の結了等,,,2015-10-05,1,,,,,イワセショウテン,0
1553,6030001124962,登記記録の閉鎖等,0,2023-01-19,2023-01-16,株式会社フォーディーアイズ,,株式会社,埼玉県,志木市,本町４丁目１７番１３号１Ｆ,,11,228,3530004,,,2023-01-16,清算の結了等,,,2018-04-04,1,,,,,フォーディーアイズ,0
1554,6030001134730,登記記録の閉鎖等,0,2023-01-19,2023-01-16,株式会社Ｈｉｎａｔａ,,株式会社,埼玉県,さいたま市大宮区,桜木町２丁目３番地大宮マルイ５階,,11,103,3300854,,,2023-01-16,清算の結了等,,,2020-01-14,1,,,,,ヒナタ,0
1555,6030002087754,登記記録の閉鎖等,0,2023-01-19,2023-01-16,有限会社福田ニット縫製,,有限会社,埼玉県,越谷市,新越谷１丁目３８番地９,,11,222,3430857,,,2023-01-16,清算の結了等,,,2015-10-05,1,,,,,フクダニットホウセイ,0
1584,6080401012746,登記記録の閉鎖等,0,2023-01-19,2023-01-16,株式会社ライトスクエア,,株式会社,静岡県,浜松市中区,元城町１１５番地の１５,,22,131,4300946,,,2023-01-16,清算の結了等,,,2015-10-05,1,,,,,ライトスクエア,0
1589,6100002002763,登記記録の閉鎖等,0,2023-01-19,2023-01-10,有限会社第一急便,,有限会社,長野県,長野市,青木島町大塚９３６番地５,,20,201,3812205,,,2023-01-10,清算の結了等,,,2015-10-05,1,,,,,ダイイチキュウビン,0
1595,6110001030120,登記記録の閉鎖等,0,2023-01-19,2023-01-18,株式会社アースリックス,,株式会社,新潟県,三条市,東新保１３番２０号,,15,204,9550863,,,2023-01-18,清算の結了等,,,2015-10-05,1,,,,,アースリックス,0
1602,6120001227211,登記記録の閉鎖等,0,2023-01-19,2023-01-13,ｂポート株式会社,,株式会社,沖縄県,那覇市,銘苅２丁目３番６号那覇市ＩＴ創造館５０６号,,47,201,9000004,,,2023-01-13,清算の結了等,,,2020-02-17,1,,,,,ビーポート,0
1611,6120002045686,登記記録の閉鎖等,0,2023-01-19,2023-01-12,有限会社マーケティング・アドバンス,,有限会社,奈良県,生駒市,東生駒３丁目２０７番地２７８,,29,209,6300213,,,2023-01-12,清算の結了等,,,2015-10-05,1,,,,,マーケティングアドバンス,0
1628,6130001063408,登記記録の閉鎖等,0,2023-01-19,2023-01-13,株式会社Ｏｒｋｓ,,株式会社,京都府,京都市西京区,御陵大枝山町３丁目１０番地５,,26,111,6101102,,,2023-01-13,清算の結了等,,,2018-11-29,1,,,,,オークス,0
1629,6130002015523,登記記録の閉鎖等,0,2023-01-19,2023-01-13,有限会社あさひ商事,,有限会社,京都府,京都市中京区,西ノ京小堀町２番地,,26,104,6048383,,,2023-01-13,清算の結了等,,,2015-10-05,1,,,,,アサヒショウジ,0
1653,6180001029172,登記記録の閉鎖等,0,2023-01-19,2023-01-06,株式会社アイティーオー,,株式会社,愛知県,名古屋市中村区,名駅４丁目５番２７号,,23,105,4500002,,,2023-01-06,清算の結了等,,,2022-08-09,1,,,,,アイティーオー,0
1658,6180001089670,登記記録の閉鎖等,0,2023-01-19,2023-01-17,株式会社小栗自動車,,株式会社,愛知県,名古屋市守山区,大字下志段味字穴ケ洞２２７５番地,,23,113,4630003,,,2023-01-17,登記官による閉鎖,,,2015-10-05,1,,,,,,0
1662,6190001020295,登記記録の閉鎖等,0,2023-01-19,2023-01-18,株式会社テクノグリーン中部,,株式会社,三重県,四日市市,楠町北五味塚３３７番地１,,24,202,5100103,,,2023-01-18,清算の結了等,,,2015-10-05,1,,,,,テクノグリーンチュウブ,0
1679,6280002010682,登記記録の閉鎖等,0,2023-01-19,2023-01-17,有限会社あしたば,,有限会社,島根県,鹿足郡津和野町,池村１９９７番地４,,32,501,6995216,,,2023-01-17,清算の結了等,,,2015-10-05,1,,,,,アシタバ,0
1694,6360001012580,登記記録の閉鎖等,0,2023-01-19,2023-01-13,株式会社北部農産,,株式会社,沖縄県,国頭郡金武町,字金武４１１５番地,,47,314,9041201,,,2023-01-13,清算の結了等,,,2015-10-05,1,,,,,ホクブノウサン,0
1702,6390001012636,登記記録の閉鎖等,0,2023-01-19,2023-01-13,株式会社土屋総業,,株式会社,山形県,山形市,飯田３丁目２番２２号,,06,201,9902332,,,2023-01-13,清算の結了等,,,2015-10-05,1,,,,,ツチヤソウギョウ,0
1709,6430001079605,登記記録の閉鎖等,0,2023-01-19,2023-01-12,プロシード・デザイン株式会社,,株式会社,北海道,亀田郡七飯町,鳴川２丁目９番６号,,01,337,0411112,,,2023-01-12,清算の結了等,,,2019-08-06,1,,,,,プロシードデザイン,0
1713,6440001004801,登記記録の閉鎖等,0,2023-01-19,2023-01-12,株式会社むうとん,,株式会社,北海道,函館市,中道２丁目３４番１号,,01,202,0410853,,,2023-01-12,清算の結了等,,,2015-10-05,1,,,,,ムウトン,0
1716,6450002003322,登記記録の閉鎖等,0,2023-01-19,2023-01-16,有限会社高島塗装,,有限会社,北海道,旭川市,川端町三条５丁目２番１６号,,01,204,0700813,,,2023-01-16,清算の結了等,,,2015-10-05,1,,,,,タカシマトソウ,0
1719,6460001003669,登記記録の閉鎖等,0,2023-01-19,2023-01-18,東都商事株式会社,,株式会社,北海道,釧路市,錦町４丁目９番地,,01,206,0850016,,,2023-01-18,登記官による閉鎖,,,2015-10-05,1,,,,,,0
1721,6460401001215,登記記録の閉鎖等,0,2023-01-19,2023-01-18,株式会社根室魚菜加工,,株式会社,北海道,根室市,花咲港３１４番地,,01,223,0870032,,,2023-01-18,登記官による閉鎖,,,2020-11-12,1,,,,,ネムロギョサイカコウ,0
1726,6500001003516,登記記録の閉鎖等,0,2023-01-19,2023-01-17,富士企画システム株式会社,,株式会社,愛媛県,松山市,上野町甲８７４番地,,38,201,7911136,,,2023-01-17,登記官による閉鎖,,,2015-10-05,1,,,,,,0
1727,6500001010818,登記記録の閉鎖等,0,2023-01-19,2023-01-17,株式会社三光,,株式会社,愛媛県,西条市,朔日市２２番地１,,38,206,7930027,,,2023-01-17,登記官による閉鎖,,,2015-10-05,1,,,,,,0
1728,6500001012905,登記記録の閉鎖等,0,2023-01-19,2023-01-17,四国建設株式会社,,株式会社,愛媛県,今治市,上浦町井口３３１６番地,,38,202,7941402,,,2023-01-17,登記官による閉鎖,,,2015-10-05,1,,,,,,0
1730,6500002001510,登記記録の閉鎖等,0,2023-01-19,2023-01-17,有限会社エステートアキ,,有限会社,愛媛県,松山市,下伊台町１７２３番地,,38,201,7910112,,,2023-01-17,登記官による閉鎖,,,2015-10-05,1,,,,,,0
1731,6500002001584,登記記録の閉鎖等,0,2023-01-19,2023-01-17,有限会社エムアール研究所,,有限会社,愛媛県,松山市,新石手２４７番地７,,38,201,7900901,,,2023-01-17,登記官による閉鎖,,,2015-10-05,1,,,,,エムアールケンキュウショ,0
1732,6500002003928,登記記録の閉鎖等,0,2023-01-19,2023-01-17,有限会社大栄電気,,有限会社,愛媛県,松山市,石手白石１７３番地,,38,201,7900902,,,2023-01-17,登記官による閉鎖,,,2015-10-05,1,,,,,,0
1733,6500002005370,登記記録の閉鎖等,0,2023-01-19,2023-01-17,花岡運送有限会社,,有限会社,愛媛県,松山市,南吉田町２４３８番１,,38,201,7918042,,,2023-01-17,登記官による閉鎖,,,2015-10-05,1,,,,,,0
1734,6500002008844,登記記録の閉鎖等,0,2023-01-19,2023-01-17,有限会社薫農園,,有限会社,愛媛県,松山市,中島大浦１５０５番地,,38,201,7914501,,,2023-01-17,登記官による閉鎖,,,2017-10-23,1,,,,,,0
1735,6500002010503,登記記録の閉鎖等,0,2023-01-19,2023-01-17,有限会社オカ,,有限会社,愛媛県,松山市,河野中須賀４７７番地２,,38,201,7992438,,,2023-01-17,登記官による閉鎖,,,2015-10-05,1,,,,,,0
1736,6500002011682,登記記録の閉鎖等,0,2023-01-19,2023-01-17,有限会社河野電機商会,,有限会社,愛媛県,大洲市,大洲２０６番地１,,38,207,7950012,,,2023-01-17,登記官による閉鎖,,,2015-10-05,1,,,,,,0
1739,6500002019164,登記記録の閉鎖等,0,2023-01-19,2023-01-17,有限会社マリニワ,,有限会社,愛媛県,今治市,馬越町３丁目３番３６号,,38,202,7940062,,,2023-01-17,登記官による閉鎖,,,2015-10-05,1,,,,,,0
1740,6500002021491,登記記録の閉鎖等,0,2023-01-19,2023-01-17,伊豫商事有限会社,,有限会社,愛媛県,四国中央市,上分町８２１番地１７,,38,213,7990121,,,2023-01-17,登記官による閉鎖,,,2015-10-05,1,,,,,,0
1741,6500002022795,登記記録の閉鎖等,0,2023-01-19,2023-01-17,有限会社杉村工業,,有限会社,愛媛県,宇和島市,坂下津字日振新田甲４０７番地の１の内２,,38,203,7980087,,,2023-01-17,登記官による閉鎖,,,2015-10-05,1,,,,,,0
1742,6500002023356,登記記録の閉鎖等,0,2023-01-19,2023-01-17,有限会社三幸丸農園,,有限会社,愛媛県,宇和島市,吉田町白浦外６６２番地,,38,203,7993741,,,2023-01-17,登記官による閉鎖,,,2015-10-05,1,,,,,,0
1743,6500002024346,登記記録の閉鎖等,0,2023-01-19,2023-01-17,有限会社渡邊鐵工所,,有限会社,愛媛県,松山市,港山町５番６号,,38,201,7918085,,,2023-01-17,登記官による閉鎖,,,2015-10-05,1,,,,,,0
1744,6500002024429,登記記録の閉鎖等,0,2023-01-19,2023-01-17,有限会社ヤング商会,,有限会社,愛媛県,松山市,南歩行町３０番地,,38,201,7910000,,,2023-01-17,登記官による閉鎖,,,2017-09-15,1,,,,,,0
1745,6500002024437,登記記録の閉鎖等,0,2023-01-19,2023-01-17,有限会社大蔵不動産,,有限会社,愛媛県,新居浜市,西喜光地町９番４２号,,38,205,7920827,,,2023-01-17,登記官による閉鎖,,,2018-05-23,1,,,,,,0
1746,6500005004700,登記記録の閉鎖等,0,2023-01-19,2023-01-17,今治織物工業協同組合,,その他の設立登記法人,愛媛県,今治市,常盤町４丁目１番地１,,38,202,7940015,,,2023-01-17,登記官による閉鎖,,,2015-12-02,1,,,,,,0
1747,6500005008008,登記記録の閉鎖等,0,2023-01-19,2023-01-17,東予理容美容協同組合,,その他の設立登記法人,愛媛県,新居浜市,甲４６５番地の３,,38,205,7920000,,,2023-01-17,登記官による閉鎖,,,2018-10-16,1,,,,,トウヨリヨウビヨウ,0
1758,7010401113979,登記記録の閉鎖等,0,2023-01-19,2023-01-12,株式会社ＧＤＯゴルフテック,,株式会社,東京都,品川区,東五反田２丁目１０番２号,,13,109,1410022,,,2023-01-12,合併による解散等,9010401040981,令和５年１月１日東京都品川区東五反田二丁目１０番２号株式会社ゴルフダイジェスト・オンライン（9010401040981）に合併し解散,2015-10-05,1,,,,,ジーディーオーゴルフテック,0
1763,7010403014473,登記記録の閉鎖等,0,2023-01-19,2022-12-28,合同会社ＰＢＴＦ１,,合同会社,東京都,港区,虎ノ門５丁目３番２０号株式会社アカウンティング・マネジメント・サービス内,,13,103,1050001,,,2022-12-28,清算の結了等,,,2016-02-25,1,,,,,ピービーティーエフワン,0
1767,7010505001320,登記記録の閉鎖等,0,2023-01-19,2023-01-18,特定非営利活動法人ＡＰＥＸ,,その他の設立登記法人,東京都,台東区,根岸１丁目５番１２号,,13,106,1100003,,,2023-01-18,清算の結了等,,,2015-10-05,1,,,,,アペックス,0
1773,7010801010207,登記記録の閉鎖等,0,2023-01-19,2023-01-10,株式会社富士柴製作所,,株式会社,東京都,大田区,仲池上２丁目１０番４号,,13,111,1460081,,,2023-01-10,清算の結了等,,,2015-10-05,1,,,,,フジシバセイサクジョ,0
1779,7011001053236,登記記録の閉鎖等,0,2023-01-19,2023-01-16,リンク・ハート株式会社,,株式会社,東京都,渋谷区,渋谷２丁目５番７号第１本間ビル３０３号,,13,113,1500002,,,2023-01-16,清算の結了等,,,2015-10-05,1,,,,,,0
1781,7011001134977,登記記録の閉鎖等,0,2023-01-19,2023-01-16,Ｘ－Ｌｏｏｋｕｐ株式会社,,株式会社,東京都,目黒区,柿の木坂１丁目２０番１７号クレードルパレス柿の木坂１０１号室,,13,110,1520022,,,2023-01-16,清算の結了等,,,2020-07-28,1,,,,,エックスルックアップ,0
1788,7011002026166,登記記録の閉鎖等,0,2023-01-19,2023-01-10,有限会社エフピーアイスタジオ,,有限会社,東京都,渋谷区,神宮前１丁目１５番１１号シャトーヒロ新館２８２号室,,13,113,1500001,,,2023-01-10,清算の結了等,,,2015-10-05,1,,,,,エフピーアイスタジオ,0
1795,7011105009811,登記記録の閉鎖等,0,2023-01-19,2023-01-06,ＮＢ１ホールディングス一般社団法人,,その他の設立登記法人,東京都,新宿区,四谷２丁目９番地１５東京ユナイテッド綜合事務所内,,13,104,1600004,,,2023-01-06,清算の結了等,,,2021-05-25,1,,,,,エヌビーワンホールディングス,0
1807,7011705001481,登記記録の閉鎖等,0,2023-01-19,2023-01-17,特定非営利活動法人日本自立支援推進機構,,その他の設立登記法人,東京都,江戸川区,南小岩１丁目１０番１５号,,13,123,1330056,,,2023-01-17,清算の結了等,,,2017-09-08,1,,,,,ニホンジリツシエンスイシンキコウ,0
1820,7013201004068,登記記録の閉鎖等,0,2023-01-19,2023-01-16,株式会社トータス,,株式会社,東京都,目黒区,緑が丘３丁目７番１４号,,13,110,1520034,,,2023-01-16,清算の結了等,,,2015-10-05,1,,,,,,0
1822,7013301049772,登記記録の閉鎖等,0,2023-01-19,2023-01-16,株式会社和牛仁,,株式会社,東京都,豊島区,西池袋１丁目４番３号藤巻ビル１Ｆ,,13,116,1710021,,,2023-01-16,清算の結了等,,,2022-10-13,1,,,,,ワギュウジン,0
1824,7020001015476,登記記録の閉鎖等,0,2023-01-19,2023-01-13,株式会社トゥー設計,,株式会社,神奈川県,横浜市西区,高島２丁目１０番１３号,,14,103,2200011,,,2023-01-13,清算の結了等,,,2015-10-05,1,,,,,トゥーセッケイ,0
1827,7020001027744,登記記録の閉鎖等,0,2023-01-19,2023-01-16,株式会社都市建築環境研究所,00009392,株式会社,神奈川県,横浜市中区,本牧間門３４番１０号,,14,104,2310825,,,2023-01-16,清算の結了等,,,2015-10-05,1,,,,,トシケンチクカンキョウケンキュウショ,0
1844,7030001097761,登記記録の閉鎖等,0,2023-01-19,2023-01-16,日本ロジスティクス株式会社,,株式会社,埼玉県,坂戸市,日の出町５番２４－１４０２号,,11,239,3500225,,,2023-01-16,清算の結了等,,,2015-10-05,1,,,,,ニホンロジスティクス,0
1857,7040002060354,登記記録の閉鎖等,0,2023-01-19,2023-01-13,有限会社内川経営,,有限会社,千葉県,佐倉市,西志津３丁目１４番９号,,12,212,2850845,,,2023-01-13,清算の結了等,,,2015-10-05,1,,,,,ウチカワケイエイ,0
1861,7050001008221,登記記録の閉鎖等,0,2023-01-19,2023-01-12,株式会社岩間堆肥,,株式会社,茨城県,笠間市,安居字上平３０５４番地１,,08,216,3190206,,,2023-01-12,合併による解散等,5040001067088,令和５年１月１日千葉県我孫子市中峠台７番地の１１株式会社リサイクル（5040001067088）に合併し解散,2015-10-05,1,,,,,,0
1866,7070001001315,登記記録の閉鎖等,0,2023-01-19,2023-01-13,株式会社斎藤利二商店,,株式会社,群馬県,前橋市,元総社町１５７番地１,,10,201,3710846,,,2023-01-13,清算の結了等,,,2015-10-05,1,,,,,サイトウトシジショウテン,0
1870,7080103000718,登記記録の閉鎖等,0,2023-01-19,2023-01-16,合資会社葉根実,,合資会社,静岡県,富士市,本市場１３５番地の１,,22,210,4160906,,,2023-01-16,清算の結了等,,,2015-10-05,1,,,,,ハネミ,0
1871,7090001005314,登記記録の閉鎖等,0,2023-01-19,2023-01-04,株式会社ＳＡＴ,,株式会社,山梨県,南アルプス市,桃園４１３番地１,,19,208,4000301,,,2023-01-04,清算の結了等,,,2015-10-05,1,,,,,エスエーティー,0
1876,7110002029788,登記記録の閉鎖等,0,2023-01-19,2023-01-17,有限会社ハローファッション,,有限会社,新潟県,長岡市,浦４９４３番地,,15,202,9495406,,,2023-01-17,清算の結了等,,,2015-10-05,1,,,,,ハローファッション,0
1881,7120001151666,登記記録の閉鎖等,0,2023-01-19,2023-01-13,東洋インキグラフィックス西日本株式会社,,株式会社,大阪府,寝屋川市,讃良西町６番６号,,27,215,5720818,,,2023-01-13,合併による解散等,9010001139175,令和５年１月１日東京都中央区京橋二丁目２番１号東洋インキ株式会社（9010001139175）に合併し解散,2015-10-05,1,,,,,トウヨウインキグラフィックスニシニホン,0
1941,7180302013452,登記記録の閉鎖等,0,2023-01-19,2023-01-12,有限会社三幸住宅,,有限会社,愛知県,豊川市,新豊町２丁目８２番地,,23,207,4420012,,,2023-01-12,清算の結了等,,,2015-10-05,1,,,,,サンコウジュウタク,0
1945,7190001016251,登記記録の閉鎖等,0,2023-01-19,2023-01-17,増田電気工事株式会社,,株式会社,三重県,四日市市,新正３丁目７番３６号,,24,202,5100064,,,2023-01-17,清算の結了等,,,2015-10-05,1,,,,,マスダデンキコウジ,0
1957,7220001016891,登記記録の閉鎖等,0,2023-01-19,2023-01-10,株式会社角谷工務店,,株式会社,石川県,珠洲市,宝立町鵜飼１字５番１号地,,17,205,9271222,,,2023-01-10,清算の結了等,,,2015-10-05,1,,,,,カドヤコウムテン,0
1963,7260001025971,登記記録の閉鎖等,0,2023-01-19,2023-01-18,オフィスＵｔｉｌｉｔｙ株式会社,,株式会社,岡山県,倉敷市,玉島柏島３７７１番地８,,33,202,7138123,,,2023-01-18,清算の結了等,,,2015-10-05,1,,,,,オフィスユーティリティ,0
1966,7290001019970,登記記録の閉鎖等,0,2023-01-19,2023-01-13,東洋インキ九州株式会社,,株式会社,福岡県,福岡市東区,松島４丁目１２番１号,,40,131,8130062,,,2023-01-13,合併による解散等,9010001139175,令和５年１月１日東京都中央区京橋二丁目２番１号東洋インキ株式会社（9010001139175）に合併し解散,2015-10-05,1,,,,,トウヨウインキキュウシュウ,0
1967,7290001023592,登記記録の閉鎖等,0,2023-01-19,2023-01-16,デリウダイラ・フィルムズ株式会社,,株式会社,福岡県,福岡市西区,愛宕浜１丁目５番６号,,40,135,8190013,,,2023-01-16,清算の結了等,,,2015-10-05,1,,,,,デリウダイラフィルムズ,0
1996,7390002005910,登記記録の閉鎖等,0,2023-01-19,2023-01-13,有限会社ホームネットワーク,,有限会社,山形県,山形市,十日町４丁目７番３５号,,06,201,9900031,,,2023-01-13,清算の結了等,,,2015-10-05,1,,,,,ホームネットワーク,0
1997,7390002008376,登記記録の閉鎖等,0,2023-01-19,2023-01-13,有限会社なかせ,,有限会社,山形県,酒田市,三之宮３８番地,,06,204,9996723,,,2023-01-13,清算の結了等,,,2015-10-05,1,,,,,,0
2003,7410002009215,登記記録の閉鎖等,0,2023-01-19,2023-01-16,有限会社サンメディカル,,有限会社,秋田県,北秋田郡上小阿仁村,小沢田字向川原７０番地１,,05,327,0184421,,,2023-01-16,清算の結了等,,,2015-10-05,1,,,,,サンメディカル,0
2009,7430001040458,登記記録の閉鎖等,0,2023-01-19,2023-01-13,株式会社アスクゲートネクサス,,株式会社,北海道,帯広市,西九条南１３丁目４番１２,,01,207,0800019,,,2023-01-13,合併による解散等,5450001011665,令和５年１月１日北海道北見市中央三輪一丁目３７１番地７株式会社アスクゲートイースト（5450001011665）に合併し解散,2015-10-05,1,,,,,アスクゲートネクサス,0
2014,7430003008981,登記記録の閉鎖等,0,2023-01-19,2023-01-11,合同会社ビリーフ,,合同会社,北海道,札幌市白石区,北郷九条７丁目２番１１号,,01,104,0030839,,,2023-01-11,清算の結了等,,,2017-12-25,1,,,,,ビリーフ,0
2017,7460002002495,登記記録の閉鎖等,0,2023-01-19,2023-01-18,有限会社ブテイツクおおみち,,有限会社,北海道,白糠郡白糠町,東二条南２丁目１番地４,,01,668,0880302,,,2023-01-18,登記官による閉鎖,,,2015-10-05,1,,,,,,0
2018,7460002002586,登記記録の閉鎖等,0,2023-01-19,2023-01-18,有限会社ほてい屋綿業,,有限会社,北海道,釧路市,寿３丁目１番２６号,,01,206,0850026,,,2023-01-18,登記官による閉鎖,,,2015-10-05,1,,,,,,0
2019,7460002003452,登記記録の閉鎖等,0,2023-01-19,2023-01-18,有限会社渡辺建設工業,,有限会社,北海道,釧路市,大川町７番８号,,01,206,0850837,,,2023-01-18,登記官による閉鎖,,,2015-10-05,1,,,,,,0
2021,7460301003566,登記記録の閉鎖等,0,2023-01-19,2023-01-16,北見水産工業株式会社,,株式会社,北海道,網走市,南七条東６丁目１番地,,01,211,0930007,,,2023-01-16,清算の結了等,,,2022-02-16,1,,,,,,0
2024,7500001003449,登記記録の閉鎖等,0,2023-01-19,2023-01-17,株式会社ヒラタ,,株式会社,愛媛県,松山市,三津１丁目７番２９号,,38,201,7918061,,,2023-01-17,登記官による閉鎖,,,2015-10-05,1,,,,,,0
2025,7500001005676,登記記録の閉鎖等,0,2023-01-19,2023-01-17,株式会社愛媛住宅管理センター,,株式会社,愛媛県,松山市,土居田町１０４番地１,,38,201,7900056,,,2023-01-17,登記官による閉鎖,,,2015-10-05,1,,,,,,0
2026,7500001006690,登記記録の閉鎖等,0,2023-01-19,2023-01-17,株式会社小次郎,,株式会社,愛媛県,伊予郡松前町,大字西古泉４８１番地７,,38,401,7913134,,,2023-01-17,登記官による閉鎖,,,2015-10-05,1,,,,,,0
2027,7500001008712,登記記録の閉鎖等,0,2023-01-19,2023-01-17,株式会社伊須農場,,株式会社,愛媛県,東温市,南野田６０３番地第１,,38,215,7910214,,,2023-01-17,登記官による閉鎖,,,2015-10-05,1,,,,,,0
2028,7500001009917,登記記録の閉鎖等,0,2023-01-19,2023-01-17,株式会社五月建設,,株式会社,愛媛県,新居浜市,城下町４番１３号,,38,205,7920814,,,2023-01-17,登記官による閉鎖,,,2015-10-05,1,,,,,,0
2029,7500001022812,登記記録の閉鎖等,0,2023-01-19,2023-01-17,廣川石油興業株式会社,00120377,株式会社,愛媛県,東温市,則之内甲２５９６番地の７,,38,215,7910311,,,2023-01-17,登記官による閉鎖,,,2020-08-06,1,,,,,ヒロカワセキユ,0
2030,7500002001121,登記記録の閉鎖等,0,2023-01-19,2023-01-17,有限会社いろはや玩具店,,有限会社,愛媛県,松山市,大街道２丁目６番地４,,38,201,7900004,,,2023-01-17,登記官による閉鎖,,,2015-10-05,1,,,,,,0
2031,7500002012127,登記記録の閉鎖等,0,2023-01-19,2023-01-17,有限会社栄島鉄工,,有限会社,愛媛県,大洲市,長浜町晴海１番地５,,38,207,7993412,,,2023-01-17,登記官による閉鎖,,,2015-10-05,1,,,,,,0
2032,7500002016029,登記記録の閉鎖等,0,2023-01-19,2023-01-17,有限会社愛媛新聞エリアサービス新居浜南,,有限会社,愛媛県,新居浜市,西喜光地町２番２８号,,38,205,7920827,,,2023-01-17,登記官による閉鎖,,,2015-10-05,1,,,,,,0
2033,7500002017803,登記記録の閉鎖等,0,2023-01-19,2023-01-17,有限会社今治冷機,,有限会社,愛媛県,今治市,近見町３丁目４番７号,,38,202,7940007,,,2023-01-17,登記官による閉鎖,,,2015-10-05,1,,,,,,0
2034,7500002023330,登記記録の閉鎖等,0,2023-01-19,2023-01-17,有限会社恵家農園,,有限会社,愛媛県,宇和島市,吉田町河内甲１６１３番地,,38,203,7993752,,,2023-01-17,登記官による閉鎖,,,2015-10-05,1,,,,,,0
2035,7500002024428,登記記録の閉鎖等,0,2023-01-19,2023-01-17,伯方被服有限会社,,有限会社,愛媛県,今治市,伯方町大字伊方甲２１２６番地第２,,38,202,7940000,,,2023-01-17,登記官による閉鎖,,,2017-07-24,1,,,,,ハカタヒフク,0
2036,7500002024460,登記記録の閉鎖等,0,2023-01-19,2023-01-17,八幸建設有限会社,,有限会社,愛媛県,八幡浜市,１３９５番地,,38,204,7960088,,,2023-01-17,登記官による閉鎖,,,2020-01-28,1,,,,,ハチコウケンセツ,0
2037,7500003000816,登記記録の閉鎖等,0,2023-01-19,2023-01-17,しまなみ貿易合同会社,,合同会社,愛媛県,今治市,伯方町北浦甲５２０番地１,,38,202,7942304,,,2023-01-17,登記官による閉鎖,,,2015-10-05,1,,,,,,0
2038,7500005002034,登記記録の閉鎖等,0,2023-01-19,2023-01-17,特定非営利活動法人えひめ電子化支援センター,,その他の設立登記法人,愛媛県,松山市,久万ノ台９４１番地１,,38,201,7918016,,,2023-01-17,登記官による閉鎖,,,2015-10-05,1,,,,,,0
2039,7500005004468,登記記録の閉鎖等,0,2023-01-19,2023-01-17,協同組合ハイクリエート,,その他の設立登記法人,愛媛県,新居浜市,政枝町３丁目２番１号,,38,205,7920032,,,2023-01-17,登記官による閉鎖,,,2015-10-05,1,,,,,,0
2040,7500005004757,登記記録の閉鎖等,0,2023-01-19,2023-01-17,関前機帆船協同組合,,その他の設立登記法人,愛媛県,今治市,関前岡村甲１２番地１３,,38,202,7941101,,,2023-01-17,登記官による閉鎖,,,2015-10-05,1,,,,,,0
2042,8010001156089,登記記録の閉鎖等,0,2023-01-19,2023-01-16,株式会社暁,,株式会社,東京都,世田谷区,等々力２丁目１５番１２－２０９号,,13,112,1580082,,,2023-01-16,合併による解散等,7230001019349,令和５年１月１日富山県射水市作道２１４０番地３株式会社ＢＶＢＲＯＴＨＥＲＳ（7230001019349）に合併し解散,2015-10-05,1,,,,,アカツキ,0
2050,8010003013800,登記記録の閉鎖等,0,2023-01-19,2023-01-11,合同会社ジュピター・フォー,,合同会社,東京都,千代田区,飯田橋２丁目４番５号,,13,101,1020072,,,2023-01-11,清算の結了等,,,2015-10-05,1,,,,,,0
2065,8010403018614,登記記録の閉鎖等,0,2023-01-19,2023-01-13,合同会社ジャスミン,,合同会社,東京都,港区,麻布台２丁目３番７号,,13,103,1060041,,,2023-01-13,合併による解散等,7010001157187,令和５年１月１日東京都中央区新川二丁目１７番８号株式会社ブルースカイ（7010001157187）に合併し解散,2018-05-17,1,,,,,,0
2076,8011001115687,登記記録の閉鎖等,0,2023-01-19,2023-01-16,株式会社ＫＡＶＥ　ＣＡＦＥ,,株式会社,東京都,渋谷区,宇田川町２３番１０号－３階,,13,113,1500042,,,2023-01-16,清算の結了等,,,2017-04-05,1,,,,,カベカフ,0
2080,8011002010607,登記記録の閉鎖等,0,2023-01-19,2023-01-04,有限会社ボイスパブリッシャーズ,,有限会社,東京都,渋谷区,富ヶ谷２丁目２番１号,,13,113,1510063,,,2023-01-04,合併による解散等,6011001073458,令和５年１月１日東京都渋谷区富ケ谷二丁目１番１０号株式会社ボイスミュージック（6011001073458）に合併し解散,2015-10-05,1,,,,,ボイスパブリッシャーズ,0
2081,8011005007526,登記記録の閉鎖等,0,2023-01-19,2023-01-12,一般社団法人カラーユアスポーツ,,その他の設立登記法人,東京都,渋谷区,代々木１丁目５８番１号石山ビル４階,,13,113,1510053,,,2023-01-12,清算の結了等,,,2018-02-02,1,,,,,カラーユアスポーツ,0
2120,8020002053598,登記記録の閉鎖等,0,2023-01-19,2023-01-13,ブリッジ有限会社,,有限会社,神奈川県,横浜市泉区,和泉中央南３丁目６番１１号,,14,116,2450023,,,2023-01-13,清算の結了等,,,2015-10-05,1,,,,,ブリッジ,0
2121,8020003008196,登記記録の閉鎖等,0,2023-01-19,2023-01-16,意仁茂合同会社,,合同会社,神奈川県,横浜市栄区,元大橋２丁目３７番４号,,14,115,2470011,,,2023-01-16,清算の結了等,,,2015-10-05,1,,,,,イニモ,0
2125,8021001015515,登記記録の閉鎖等,0,2023-01-19,2022-12-26,株式会社相模ファーム,,株式会社,神奈川県,相模原市南区,大野台６丁目１９番１２号,,14,153,2520331,,,2022-12-26,合併による解散等,9080102000007,令和４年１２月２５日神奈川県相模原市南区大野台六丁目１９番１２号株式会社フジック（9080102000007）に合併し解散,2015-10-05,1,,,,,,0
2144,8040001096794,登記記録の閉鎖等,0,2023-01-19,2023-01-13,株式会社Ｃ．Ｉ．ＷＯＲＫＳ,,株式会社,千葉県,柏市,十余二２８７番地６６３プラザオフィスゲイン２,,12,217,2770872,,,2023-01-13,清算の結了等,,,2016-09-02,1,,,,,シーアイワークス,0
2163,8060002030800,登記記録の閉鎖等,0,2023-01-19,2023-01-13,有限会社ウッドワークプランニング,,有限会社,栃木県,下野市,笹原８３番地２,,09,216,3290402,,,2023-01-13,清算の結了等,,,2015-10-05,1,,,,,ウッドワークプランニング,0
2167,8070002016815,登記記録の閉鎖等,0,2023-01-19,2023-01-12,有限会社小井土デンキ設備,,有限会社,群馬県,甘楽郡下仁田町,大字吉崎１３８番地１０,,10,382,3702604,,,2023-01-12,清算の結了等,,,2015-10-05,1,,,,,,0
2188,8110001017487,登記記録の閉鎖等,0,2023-01-19,2023-01-17,株式会社新潟水処理,,株式会社,新潟県,柏崎市,常盤台４番１号,,15,205,9450834,,,2023-01-17,清算の結了等,,,2015-10-05,1,,,,,ニイガタミズショリ,0
2197,8120101063026,登記記録の閉鎖等,0,2023-01-19,2023-01-17,株式会社ＩＫＥ,,株式会社,大阪府,羽曳野市,南古市２丁目９番１２号,,27,222,5830858,,,2023-01-17,清算の結了等,,,2021-02-03,1,,,,,アイケーイー,0
2200,8120901042030,登記記録の閉鎖等,0,2023-01-19,2023-01-16,京華株式会社,,株式会社,大阪府,茨木市,山手台７丁目１０－９－１,,27,211,5670009,,,2023-01-16,清算の結了等,,,2019-11-19,1,,,,,ケイカ,0
2201,8120905003912,登記記録の閉鎖等,0,2023-01-19,2023-01-06,天理教晴野宮分教会,,その他の設立登記法人,大阪府,豊中市,服部本町３丁目２番１０号,,27,203,5610852,,,2023-01-06,合併による解散等,1140005018320,令和５年１月５日兵庫県川西市加茂一丁目９番５号天理教川西野分教会（1140005018320）に合併し解散,2015-10-05,1,,,,,,0
2218,8150001009893,登記記録の閉鎖等,0,2023-01-19,2022-12-28,澤田建材株式会社,,株式会社,奈良県,宇陀市,榛原萩原１７４番地の２,,29,212,6330253,,,2022-12-28,清算の結了等,,,2015-10-05,1,,,,,サワダケンザイ,0
2223,8170001015948,登記記録の閉鎖等,0,2023-01-19,2023-01-18,株式会社Ｂｅｎｅｆｉｔ　ＭＳＫ,,株式会社,和歌山県,和歌山市,湊１８２０－５８,,30,201,6408404,,,2023-01-18,清算の結了等,,,2020-02-06,1,,,,,ベネフィットエムエスケー,0
2225,8170003000989,登記記録の閉鎖等,0,2023-01-19,2023-01-05,和歌山ワイナリー合同会社,,合同会社,和歌山県,有田郡有田川町,大字垣倉５０－１０,,30,366,6430812,,,2023-01-05,合併による解散等,4170001007370,令和４年１２月３１日和歌山県有田市初島町浜１０００番地株式会社ＴＯＡ（4170001007370）に合併し解散,2015-10-05,1,,,,,ワカヤマワイナリー,0
2247,8220001016429,登記記録の閉鎖等,0,2023-01-19,2023-01-17,能登大地株式会社,,株式会社,石川県,七尾市,能登島百万石町２７番地３,,17,202,9260224,,,2023-01-17,清算の結了等,,,2015-10-05,1,,,,,ノトダイチ,0
2249,8230001019034,登記記録の閉鎖等,0,2023-01-19,2023-01-17,株式会社たかた,,株式会社,富山県,高岡市,中保１３０４番地,,16,202,9330331,,,2023-01-17,清算の結了等,,,2021-10-15,1,,,,,タカタ,0
2284,8330001016905,登記記録の閉鎖等,0,2023-01-19,2023-01-18,三協株式会社,,株式会社,熊本県,熊本市西区,蓮台寺５丁目６番１０号,,43,103,8600055,,,2023-01-18,合併による解散等,1380001014530,令和５年１月１日東京都荒川区東日暮里五丁目４８番５号ミツエイ株式会社（1380001014530）に合併し解散,2015-10-05,1,,,,,サンキョウ,0
2297,8400002011600,登記記録の閉鎖等,0,2023-01-19,2023-01-13,有限会社佐々木建設,,有限会社,岩手県,釜石市,甲子町第２地割５０番地２,,03,211,0260055,,,2023-01-13,清算の結了等,,,2015-10-05,1,,,,,ササキケンセツ,0
2308,8430005006454,登記記録の閉鎖等,0,2023-01-19,2023-01-17,釈迦如来精舎,00090050,その他の設立登記法人,北海道,美唄市,西二条北７丁目２番５号,,01,215,0720031,,,2023-01-17,清算の結了等,,,2015-10-05,1,,,,,,0
2311,8460001000771,登記記録の閉鎖等,0,2023-01-19,2023-01-18,株式会社昭和オート,,株式会社,北海道,釧路市,光陽町１１番４号,,01,206,0850051,,,2023-01-18,登記官による閉鎖,,,2015-10-05,1,,,,,,0
2312,8460002000408,登記記録の閉鎖等,0,2023-01-19,2023-01-18,有限会社オートシチク,,有限会社,北海道,釧路市,愛国東３丁目２１番１４号,,01,206,0850058,,,2023-01-18,登記官による閉鎖,,,2015-10-05,1,,,,,,0
2316,8500001002490,登記記録の閉鎖等,0,2023-01-19,2023-01-17,大誠商事株式会社,,株式会社,愛媛県,松山市,来住町１３５５番地１,,38,201,7911102,,,2023-01-17,登記官による閉鎖,,,2015-10-05,1,,,,,,0
2317,8500001005502,登記記録の閉鎖等,0,2023-01-19,2023-01-17,株式会社ワークスチール,,株式会社,愛媛県,伊予郡松前町,大字北黒田６９番地３,,38,401,7913102,,,2023-01-17,登記官による閉鎖,,,2015-10-05,1,,,,,,0
2318,8500001009981,登記記録の閉鎖等,0,2023-01-19,2023-01-17,株式会社ヤマヂ,,株式会社,愛媛県,新居浜市,新田町１丁目５番１号,,38,205,7920003,,,2023-01-17,登記官による閉鎖,,,2015-10-05,1,,,,,,0
2319,8500001012622,登記記録の閉鎖等,0,2023-01-19,2023-01-17,株式会社環境石材センター,,株式会社,愛媛県,今治市,宮ヶ崎山ノ下８８３番地３６,,38,202,7991537,,,2023-01-17,登記官による閉鎖,,,2015-10-05,1,,,,,,0
2320,8500001013050,登記記録の閉鎖等,0,2023-01-19,2023-01-17,株式会社伊予産業,,株式会社,愛媛県,今治市,国分１丁目１７番１６号,,38,202,7991533,,,2023-01-17,登記官による閉鎖,,,2015-10-05,1,,,,,,0
2323,8500001014239,登記記録の閉鎖等,0,2023-01-19,2023-01-17,株式会社岡田組,,株式会社,愛媛県,四国中央市,中曽根町２６３３番地１,,38,213,7990413,,,2023-01-17,登記官による閉鎖,,,2015-10-05,1,,,,,,0
2324,8500001017737,登記記録の閉鎖等,0,2023-01-19,2023-01-17,城山土地株式会社,,株式会社,愛媛県,大洲市,大洲４８５番地,,38,207,7950012,,,2023-01-17,登記官による閉鎖,,,2021-04-09,1,,,,,シロヤマトチ,0
2325,8500002002309,登記記録の閉鎖等,0,2023-01-19,2023-01-17,有限会社杏林,,有限会社,愛媛県,松山市,南町１丁目６番３２号,,38,201,7900856,,,2023-01-17,登記官による閉鎖,,,2015-10-05,1,,,,,,0
2326,8500002002762,登記記録の閉鎖等,0,2023-01-19,2023-01-17,有限会社ごだい,,有限会社,愛媛県,松山市,小坂５丁目８番１２号,,38,201,7900963,,,2023-01-17,登記官による閉鎖,,,2015-10-05,1,,,,,,0
2327,8500002003595,登記記録の閉鎖等,0,2023-01-19,2023-01-17,有限会社眞和機工商会,,有限会社,愛媛県,松山市,千舟町１丁目４番地５,,38,201,7900011,,,2023-01-17,登記官による閉鎖,,,2015-10-05,1,,,,,,0
2328,8500002006879,登記記録の閉鎖等,0,2023-01-19,2023-01-17,有限会社紅葉,,有限会社,愛媛県,松山市,紅葉町３番４１号,,38,201,7900861,,,2023-01-17,登記官による閉鎖,,,2015-10-05,1,,,,,,0
2329,8500002011078,登記記録の閉鎖等,0,2023-01-19,2023-01-17,有限会社東温読売販売,,有限会社,愛媛県,東温市,志津川１７６３番地１,,38,215,7910204,,,2023-01-17,登記官による閉鎖,,,2015-10-05,1,,,,,,0
2330,8500002017505,登記記録の閉鎖等,0,2023-01-19,2023-01-17,有限会社ウェルネスライン,,有限会社,愛媛県,新居浜市,垣生１丁目７番４０号,,38,205,7920872,,,2023-01-17,登記官による閉鎖,,,2015-10-05,1,,,,,,0
2331,8500002017579,登記記録の閉鎖等,0,2023-01-19,2023-01-17,有限会社コマ重機産業,,有限会社,愛媛県,今治市,桜井３丁目２番４５号,,38,202,7991522,,,2023-01-17,登記官による閉鎖,,,2015-10-05,1,,,,,,0
2332,8500002018593,登記記録の閉鎖等,0,2023-01-19,2023-01-17,有限会社丹下組,,有限会社,愛媛県,今治市,波方町波方甲２０４９番地の１,,38,202,7992101,,,2023-01-17,登記官による閉鎖,,,2015-10-05,1,,,,,,0
2333,8500002021366,登記記録の閉鎖等,0,2023-01-19,2023-01-17,有限会社命泉宝ミキ,,有限会社,愛媛県,四国中央市,三島宮川３丁目１０番１８号,,38,213,7990404,,,2023-01-17,登記官による閉鎖,,,2015-10-05,1,,,,,,0
2334,8500002024435,登記記録の閉鎖等,0,2023-01-19,2023-01-17,田渕建設有限会社,,有限会社,愛媛県,八幡浜市,大字松柏丙８５１番地第２,,38,204,7960088,,,2023-01-17,登記官による閉鎖,,,2018-04-17,1,,,,,,0
2335,8500005001968,登記記録の閉鎖等,0,2023-01-19,2023-01-17,特定非営利活動法人ＰＡＡＬ・パール,,その他の設立登記法人,愛媛県,松山市,平和通２丁目３番地７号,,38,201,7900807,,,2023-01-17,登記官による閉鎖,,,2015-10-05,1,,,,,,0
2336,8500005007791,登記記録の閉鎖等,0,2023-01-19,2023-01-17,無限責任味栗負債整理組合,,その他の設立登記法人,愛媛県,松山市,浅海原甲１１０８番地,,38,201,7992401,,,2023-01-17,登記官による閉鎖,,,2016-08-29,1,,,,,ミクリ,0
2344,9010001180204,登記記録の閉鎖等,0,2023-01-19,2023-01-10,株式会社ウェルストーン,,株式会社,東京都,千代田区,九段南１丁目５番６号りそな九段ビル５階ＫＳフロア,,13,101,1020074,,,2023-01-10,清算の結了等,,,2016-12-13,1,,,,,ウェルストーン,0
2358,9010405018900,登記記録の閉鎖等,0,2023-01-19,2022-12-23,一般社団法人医療美容協会,,その他の設立登記法人,東京都,港区,港南１丁目９－３６アレア品川１３階エキスパートオフィス品川８０１号室,,13,103,1080075,,,2022-12-23,清算の結了等,,,2020-07-22,1,,,,,イリョウビヨウキョウカイ,0
2376,9011001115686,登記記録の閉鎖等,0,2023-01-19,2023-01-17,株式会社ＫＡＶＥ　ＪＡＰＡＮ,,株式会社,東京都,渋谷区,宇田川町２３番１０号－２階,,13,113,1500042,,,2023-01-17,清算の結了等,,,2017-04-06,1,,,,,,0
2387,9011101079526,登記記録の閉鎖等,0,2023-01-19,2023-01-10,株式会社目白電機工業所,,株式会社,埼玉県,朝霞市,根岸台８丁目６番３２号,,11,227,3510005,,,2023-01-10,清算の結了等,,,2017-02-09,1,,,,,メジロデンキコウギョウショ,0
2421,9020003013336,登記記録の閉鎖等,0,2023-01-19,2023-01-16,ＡＵＴＨＯＲＩＺＥＤ合同会社,,合同会社,神奈川県,横浜市西区,北幸１丁目１１番５号相鉄ＫＳビル９階,,14,103,2200004,,,2023-01-16,清算の結了等,,,2017-09-28,1,,,,,,0
2437,9030002032204,登記記録の閉鎖等,0,2023-01-19,2023-01-16,有限会社和美工業,,有限会社,埼玉県,所沢市,大字坂之下字前２２６番地１,,11,208,3590012,,,2023-01-16,清算の結了等,,,2015-10-05,1,,,,,,0
2439,9030005019545,登記記録の閉鎖等,0,2023-01-19,2023-01-11,ＮＰＯ法人ＰＨ７,,その他の設立登記法人,埼玉県,富士見市,大字鶴馬２６１２番地３,,11,235,3540021,,,2023-01-11,清算の結了等,,,2019-08-01,1,,,,,ピーエイチセブン,0
2441,9040001103005,登記記録の閉鎖等,0,2023-01-19,2023-01-17,株式会社凛前,,株式会社,千葉県,船橋市,習志野台１丁目１７番１号,,12,204,2740063,,,2023-01-17,合併による解散等,2010701016688,令和５年１月１日東京都品川区東五反田二丁目６番５号株式会社プレンティー（2010701016688）に合併し解散,2018-01-05,1,,,,,リンゼン,0
2467,9110001010276,登記記録の閉鎖等,0,2023-01-19,2023-01-17,ラムダソリューション株式会社,,株式会社,新潟県,新潟市中央区,室町２丁目４５番地６,,15,103,9518005,,,2023-01-17,清算の結了等,,,2015-10-05,1,,,,,ラムダソリューション,0
2508,9140001086553,登記記録の閉鎖等,0,2023-01-19,2023-01-04,株式会社マエストロ,,株式会社,兵庫県,神戸市垂水区,つつじが丘１丁目１１９８番地の４７,,28,108,6550853,,,2023-01-04,清算の結了等,,,2015-10-05,1,,,,,マエストロ,0
2518,9180001006623,登記記録の閉鎖等,0,2023-01-19,2023-01-13,杉山電機工業株式会社,,株式会社,愛知県,名古屋市緑区,若田３丁目７１５番地,,23,114,4580034,,,2023-01-13,清算の結了等,,,2015-10-05,1,,,,,スギヤマデンキコウギョウ,0
2523,9180002063218,登記記録の閉鎖等,0,2023-01-19,2023-01-17,有限会社イチケン,,有限会社,愛知県,日進市,浅田町平子５９番地１,,23,230,4700124,,,2023-01-17,登記官による閉鎖,,,2015-10-05,1,,,,,,0
2543,9220001023886,登記記録の閉鎖等,0,2023-01-19,2023-01-18,コルトン株式会社,,株式会社,石川県,金沢市,東山３丁目５番１０号,,17,201,9200831,,,2023-01-18,清算の結了等,,,2020-12-21,1,,,,,コルトン,0
2567,9340001009171,登記記録の閉鎖等,0,2023-01-19,2023-01-06,株式会社宮之城Ｎ・Ｊ,,株式会社,鹿児島県,薩摩郡さつま町,柏原３０３７番地１,,46,392,8952104,,,2023-01-06,合併による解散等,7120001115175,令和５年１月１日大阪市中央区南本町一丁目５－１Ｎ・Ｊプランニング株式会社（7120001115175）に合併し解散,2015-10-05,1,,,,,,0
2574,9370001004830,登記記録の閉鎖等,0,2023-01-19,2023-01-13,株式会社小幡精密,,株式会社,宮城県,仙台市宮城野区,中野字柳原１８番地の７,,04,102,9830013,,,2023-01-13,清算の結了等,,,2015-10-05,1,,,,,,0
2582,9410001012481,登記記録の閉鎖等,0,2023-01-19,2023-01-04,株式会社花彩,,株式会社,秋田県,鹿角市,十和田大湯字川原ノ湯２９番地１,,05,209,0185421,,,2023-01-04,合併による解散等,5410001006504,令和５年１月１日秋田県鹿角郡小坂町小坂字五十刈５番地３株式会社タナックス（5410001006504）に合併し解散,2020-04-17,1,,,,,カサイ,0
2594,9460002005414,登記記録の閉鎖等,0,2023-01-19,2023-01-17,有限会社司水産,,有限会社,北海道,釧路市,春採２丁目６番１号,,01,206,0850813,,,2023-01-17,清算の結了等,,,2015-10-05,1,,,,,ツカサスイサン,0
2597,9460302004413,登記記録の閉鎖等,0,2023-01-19,2023-01-16,有限会社東條菓子舗,,有限会社,北海道,網走市,南八条西１丁目９番地,,01,211,0930018,,,2023-01-16,清算の結了等,,,2015-10-05,1,,,,,,0
2598,9500001002515,登記記録の閉鎖等,0,2023-01-19,2023-01-17,株式会社予州,,株式会社,愛媛県,松山市,空港通７丁目１２番１４号空港マンション２０７号,,38,201,7910054,,,2023-01-17,登記官による閉鎖,,,2015-10-05,1,,,,,,0
2599,9500001002531,登記記録の閉鎖等,0,2023-01-19,2023-01-17,太邦設備株式会社,,株式会社,愛媛県,松山市,美沢２丁目１番１６号,,38,201,7918022,,,2023-01-17,登記官による閉鎖,,,2015-10-05,1,,,,,,0
2600,9500001005732,登記記録の閉鎖等,0,2023-01-19,2023-01-17,株式会社エフシービジネス,,株式会社,愛媛県,松山市,二番町２丁目９番地１,,38,201,7900002,,,2023-01-17,登記官による閉鎖,,,2015-10-05,1,,,,,,0
2601,9500001010617,登記記録の閉鎖等,0,2023-01-19,2023-01-17,株式会社アイテック,,株式会社,愛媛県,新居浜市,庄内町１丁目４番１１５号,,38,205,7920811,,,2023-01-17,登記官による閉鎖,,,2015-10-05,1,,,,,,0
2602,9500001014527,登記記録の閉鎖等,0,2023-01-19,2023-01-17,アルコ空調電器販売株式会社,,株式会社,愛媛県,四国中央市,川之江町２０９２番地５,,38,213,7990101,,,2023-01-17,登記官による閉鎖,,,2015-10-05,1,,,,,,0
2604,9500002000170,登記記録の閉鎖等,0,2023-01-19,2023-01-17,四国刃物製作有限会社,,有限会社,愛媛県,松山市,北条辻２７３番地の４,00007645,38,201,7992430,,,2023-01-17,登記官による閉鎖,,,2015-10-05,1,,,,,,0
2605,9500002000492,登記記録の閉鎖等,0,2023-01-19,2023-01-17,アイトータルサービス有限会社,,有限会社,愛媛県,松山市,山越５丁目１４番２０号,,38,201,7918013,,,2023-01-17,登記官による閉鎖,,,2015-10-05,1,,,,,,0
2606,9500002001953,登記記録の閉鎖等,0,2023-01-19,2023-01-17,影内タイル有限会社,,有限会社,愛媛県,松山市,桑原７丁目３番２７号,,38,201,7900911,,,2023-01-17,登記官による閉鎖,,,2015-10-05,1,,,,,,0
2607,9500002002258,登記記録の閉鎖等,0,2023-01-19,2023-01-17,有限会社義野塗装店,,有限会社,愛媛県,松山市,一番町１丁目６番地１３,,38,201,7900001,,,2023-01-17,登記官による閉鎖,,,2015-10-05,1,,,,,,0
2608,9500002005194,登記記録の閉鎖等,0,2023-01-19,2023-01-17,有限会社ニューワイド,,有限会社,愛媛県,松山市,東長戸４丁目９番４号,,38,201,7918005,,,2023-01-17,登記官による閉鎖,,,2015-10-05,1,,,,,,0
2609,9500002009468,登記記録の閉鎖等,0,2023-01-19,2023-01-17,有限会社チョミーズ,,有限会社,愛媛県,松山市,道後樋又二丁目１６番地,,38,201,7900825,,,2023-01-17,登記官による閉鎖,,,2015-10-05,1,,,,,,0
2610,9500002011928,登記記録の閉鎖等,0,2023-01-19,2023-01-17,有限会社山本製材所,,有限会社,愛媛県,大洲市,上須戒丁７６１番地,,38,207,7950032,,,2023-01-17,登記官による閉鎖,,,2015-10-05,1,,,,,,0
2611,9500002012100,登記記録の閉鎖等,0,2023-01-19,2023-01-17,有限会社山田建設,,有限会社,愛媛県,喜多郡内子町,宿間甲１１７番地１,,38,422,7950305,,,2023-01-17,登記官による閉鎖,,,2015-10-05,1,,,,,,0
2613,9500002022669,登記記録の閉鎖等,0,2023-01-19,2023-01-17,有限会社きくち会計,,有限会社,愛媛県,宇和島市,賀古町２丁目２番４２号,,38,203,7980053,,,2023-01-17,登記官による閉鎖,,,2015-10-05,1,,,,,,0
2614,9500002024442,登記記録の閉鎖等,0,2023-01-19,2023-01-17,有限会社新池農園,,有限会社,愛媛県,松山市,客甲５２５番地,,38,201,7992454,,,2023-01-17,登記官による閉鎖,,,2019-01-17,1,,,,,シンイケノウエン,0
2615,9500002024475,登記記録の閉鎖等,0,2023-01-19,2023-01-17,有限会社戸田商会,,有限会社,愛媛県,四国中央市,土居町土居１１１５番地の２,,38,213,7990711,,,2023-01-17,登記官による閉鎖,,,2021-10-14,1,,,,,トダショウカイ,0
2616,9500003000384,登記記録の閉鎖等,0,2023-01-19,2023-01-17,読売センター三津浜合名会社,,合名会社,愛媛県,松山市,古三津２丁目２０番３３号,,38,201,7918067,,,2023-01-17,登記官による閉鎖,,,2015-10-05,1,,,,,,0
2618,9500005001884,登記記録の閉鎖等,0,2023-01-19,2023-01-17,西部商業サービス協同組合,,その他の設立登記法人,愛媛県,松山市,祓川２丁目７番２４号,,38,201,7918066,,,2023-01-17,登記官による閉鎖,,,2015-10-05,1,,,,,,0
2619,9500005007700,登記記録の閉鎖等,0,2023-01-19,2023-01-17,西条市西条農業会,,その他の設立登記法人,愛媛県,西条市,大町２００番地１,,38,206,7930030,,,2023-01-17,登記官による閉鎖,,,2015-10-05,1,,,,,,0
2620,9500005008285,登記記録の閉鎖等,0,2023-01-19,2023-01-17,無限責任久主第一負債整理組合,,その他の設立登記法人,愛媛県,上浮穴郡久万高原町,黒藤川４０番地第１,,38,386,7911515,,,2023-01-17,登記官による閉鎖,,,2020-11-20,1,,,,,,0
