sequenceNumber,corporateNumber,process,correct,updateDate,changeDate,name,nameImageId,kind,prefectureName,cityName,streetNumber,addressImageId,prefectureCode,cityCode,postCode,addressOutside,addressOutsideImageId,closeDate,closeCause,successorCorporateNumber,changeCause,assignmentDate,latest,enName,enPrefectureName,enCityName,enAddressOutside,furigana,hihyoji
3,1010001149512,登記記録の閉鎖等,0,2025-11-05,2025-10-31,株式会社ピースフル,,株式会社,長野県,伊那市,西春近８０４７番地１,,20,209,3994431,,,2025-10-31,清算の結了等,,,2015-10-05,1,,,,,ピースフル,0
5,1010001237787,登記記録の閉鎖等,0,2025-11-05,2025-10-24,アスター株式会社,,株式会社,東京都,中央区,銀座１丁目１５番７号,,13,102,1040061,,,2025-10-24,清算の結了等,,,2023-08-16,1,,,,,アスター,0
15,1010401158864,登記記録の閉鎖等,0,2025-11-05,2025-10-06,ネクスト株式会社,,株式会社,東京都,港区,南青山２丁目２番１５号,,13,103,1070062,,,2025-10-06,清算の結了等,,,2021-03-17,1,,,,,ネクスト,0
18,1010403029980,登記記録の閉鎖等,0,2025-11-05,2025-10-06,花菱合同会社,,合同会社,東京都,港区,西新橋１丁目１番１号ＥＰコンサルティングサービス内,,13,103,1050003,,,2025-10-06,清算の結了等,,,2023-04-20,1,,,,,ハナビシ,0
48,1011101044215,登記記録の閉鎖等,0,2025-11-05,2025-10-03,株式会社天啓,,株式会社,東京都,新宿区,百人町３丁目９番６号,,13,104,1690073,,,2025-10-03,清算の結了等,,,2015-10-05,1,,,,,テンケイ,0
54,1011301017508,登記記録の閉鎖等,0,2025-11-05,2025-10-29,株式会社Ｈ．Ｍ．Ｍ,,株式会社,東京都,杉並区,善福寺３丁目７番２号,,13,115,1670041,,,2025-10-29,清算の結了等,,,2015-10-05,1,,,,,エイチエムエム,0
58,1011402009395,登記記録の閉鎖等,0,2025-11-05,2025-09-26,有限会社Ｒｉｃｈｂｌａｃｋ,,有限会社,東京都,港区,浜松町２丁目２番１５号浜松町ダイヤビル２Ｆ,,13,103,1050013,,,2025-09-26,清算の結了等,,,2015-10-05,1,,,,,リッチブラック,0
69,1013301029986,登記記録の閉鎖等,0,2025-11-05,2025-10-01,株式会社ベスト・プラクティス,,株式会社,東京都,新宿区,西新宿６丁目３番１号新宿アイランドウイング６階,,13,104,1600023,,,2025-10-01,合併による解散等,8011101097033,令和７年１０月１日東京都新宿区西新宿六丁目５番１号新宿アイランドタワー４１階株式会社ＴＩＥＲＯ（8011101097033）に合併し解散,2015-10-05,1,,,,,ベストプラクティス,0
75,1020001000797,登記記録の閉鎖等,0,2025-11-05,2025-10-27,たかもと株式会社,,株式会社,神奈川県,横浜市戸塚区,名瀬町７６７番地３８サングレイス参番館２０２,,14,110,2450051,,,2025-10-27,清算の結了等,,,2015-10-05,1,,,,,タカモト,0
76,1020001045000,登記記録の閉鎖等,0,2025-11-05,2025-10-24,株式会社ＳＩＭＰＬＥ・ＦＯＯＤ,,株式会社,神奈川県,横浜市都筑区,あゆみが丘６番７－７０１号,,14,118,2240016,,,2025-10-24,清算の結了等,,,2015-10-05,1,,,,,シンプルフード,0
82,1020002087231,登記記録の閉鎖等,0,2025-11-05,2025-10-23,有限会社ピンヘッドクリエイティブハウス,,有限会社,神奈川県,川崎市宮前区,犬蔵２丁目１３番５８－６１０号,,14,136,2160011,,,2025-10-23,清算の結了等,,,2015-10-05,1,,,,,ピンヘッドクリエイティブハウス,0
83,1020003014440,登記記録の閉鎖等,0,2025-11-05,2025-10-22,合同会社Ｂｌｕｅ　Ｇｒｅｅｎ,,合同会社,神奈川県,横浜市青葉区,美しが丘３丁目３８番地１６,,14,117,2250002,,,2025-10-22,清算の結了等,,,2018-06-08,1,,,,,ブルーグリーン,0
85,1020003027938,登記記録の閉鎖等,0,2025-11-05,2025-10-21,ＭＨＣ合同会社,,合同会社,神奈川県,横浜市青葉区,荏田西２丁目１番８－４０３号,,14,117,2250014,,,2025-10-21,清算の結了等,,,2025-03-04,1,,,,,エムエイチシー,0
93,1030001027195,登記記録の閉鎖等,0,2025-11-05,2025-10-28,日進エンジニアリング株式会社,,株式会社,埼玉県,入間市,豊岡１丁目４番８号,,11,225,3580003,,,2025-10-28,清算の結了等,,,2015-10-05,1,,,,,ニッシンエンジニアリング,0
120,1110002001612,登記記録の閉鎖等,0,2025-11-05,2025-10-29,有限会社風間重機,,有限会社,新潟県,新潟市西区,流通センター６丁目２番地１,,15,107,9502031,,,2025-10-29,清算の結了等,,,2015-10-05,1,,,,,カザマジュウキ,0
122,1110002026527,登記記録の閉鎖等,0,2025-11-05,2025-10-31,有限会社行司,,有限会社,新潟県,糸魚川市,上刈１丁目４番７号,,15,216,9410064,,,2025-10-31,清算の結了等,,,2015-10-05,1,,,,,,0
126,1120001188516,登記記録の閉鎖等,0,2025-11-05,2025-10-29,株式会社三和国際ビジネスセンター,,株式会社,大阪府,大阪市淀川区,東三国２丁目３０番１号４－Ｆ,,27,123,5320002,,,2025-10-29,清算の結了等,,,2015-10-05,1,,,,,サンワコクサイビジネスセンター,0
139,1120003026640,登記記録の閉鎖等,0,2025-11-05,2025-10-17,合同会社ＳＰＮ,,合同会社,大阪府,大阪市北区,梅田１丁目２番２号大阪駅前第２ビル１２－１２,,27,127,5300001,,,2025-10-17,清算の結了等,,,2024-05-22,1,,,,,エスピーエヌ,0
149,1122005002999,登記記録の閉鎖等,0,2025-11-05,2025-10-20,一般社団法人セミーマネジメント,,その他の設立登記法人,大阪府,東大阪市,中石切町６丁目３番５４号,,27,227,5798014,,,2025-10-20,清算の結了等,,,2015-10-05,1,,,,,セミーマネジメント,0
154,1130003009090,登記記録の閉鎖等,0,2025-11-05,2025-10-31,合同会社Ｌｕｂｈ,,合同会社,京都府,京都市下京区,朱雀宝蔵町４４番地協栄ビル２階京都朱雀スタジオ,,26,106,6008846,,,2025-10-31,清算の結了等,,,2023-10-23,1,,,,,ローバ,0
156,1140001104891,登記記録の閉鎖等,0,2025-11-05,2025-10-20,ＫＢＴ株式会社,,株式会社,兵庫県,南あわじ市,伊加利２３番地１,,28,224,6560651,,,2025-10-20,清算の結了等,,,2017-01-31,1,,,,,ケービーティー,0
159,1140002036432,登記記録の閉鎖等,0,2025-11-05,2025-10-28,有限会社萩原製版,,有限会社,兵庫県,加古川市,加古川町粟津８３番地の１,,28,210,6750039,,,2025-10-28,清算の結了等,,,2015-10-05,1,,,,,ハギワラセイハン,0
160,1140003019444,登記記録の閉鎖等,0,2025-11-05,2025-10-30,合同会社ＭＡＫＯＴＯファーム,,合同会社,兵庫県,たつの市,御津町岩見２９番地２,,28,229,6711331,,,2025-10-30,清算の結了等,,,2023-08-21,1,,,,,マコトファーム,0
165,1180002039407,登記記録の閉鎖等,0,2025-11-05,2025-10-31,有限会社魚友,,有限会社,愛知県,海部郡蟹江町,源氏３丁目１９８番地,,23,425,4970055,,,2025-10-31,清算の結了等,,,2015-10-05,1,,,,,ウオトモ,0
169,1180003025694,登記記録の閉鎖等,0,2025-11-05,2025-10-29,合同会社エニープロモーション,,合同会社,愛知県,名古屋市港区,七番町５丁目４番地９,,23,111,4550001,,,2025-10-29,清算の結了等,,,2023-09-06,1,,,,,エニープロモーション,0
170,1180301025438,登記記録の閉鎖等,0,2025-11-05,2025-11-04,株式会社ジョイフット,,株式会社,愛知県,岡崎市,宇頭町字下山田１６番地１,,23,202,4440905,,,2025-11-04,清算の結了等,,,2015-10-05,1,,,,,ジョイフット,0
188,1240002005674,登記記録の閉鎖等,0,2025-11-05,2025-10-30,有限会社光進工業,,有限会社,広島県,広島市安芸区,矢野西１丁目５番２２号,,34,107,7360085,,,2025-10-30,清算の結了等,,,2015-10-05,1,,,,,コウシンコウギョウ,0
205,1290002029165,登記記録の閉鎖等,0,2025-11-05,2025-10-07,有限会社インフィニティ,,有限会社,福岡県,福岡市中央区,大宮１丁目３番１４号,,40,133,8100013,,,2025-10-07,清算の結了等,,,2015-10-05,1,,,,,インフィニティ,0
206,1290002051524,登記記録の閉鎖等,0,2025-11-05,2025-10-03,有限会社ベジタブル・コミュニケーションズ,,有限会社,福岡県,久留米市,長門石５丁目３番１４号,,40,203,8300027,,,2025-10-03,清算の結了等,,,2015-10-05,1,,,,,ベジタブルコミュニケーションズ,0
207,1290003014513,登記記録の閉鎖等,0,2025-11-05,2025-10-06,合同会社Ａｒｃｔｕｒｕｓ,,合同会社,福岡県,福岡市中央区,清川３丁目１－２１リヴァージュ清川１０３号室,,40,133,8100005,,,2025-10-06,清算の結了等,,,2023-10-23,1,,,,,アルクトゥルス,0
218,1320002018866,登記記録の閉鎖等,0,2025-11-05,2025-10-30,有限会社白石薄板工房,,有限会社,大分県,日田市,三本松２丁目２番５号,,44,204,8770016,,,2025-10-30,清算の結了等,,,2015-10-05,1,,,,,シライシウスイタコウボウ,0
223,1350003002247,登記記録の閉鎖等,0,2025-11-05,2025-10-29,潤和商事合同会社,,合同会社,宮崎県,宮崎市,村角町北田８２番地１県営住宅２０１棟８号,,45,201,8800837,,,2025-10-29,清算の結了等,,,2015-10-05,1,,,,,ジュンワショウジ,0
254,2010003026460,登記記録の閉鎖等,0,2025-11-05,2025-10-27,ムーンリアルエステイト合同会社,,合同会社,東京都,中央区,銀座３丁目１２番１２－３０２号,,13,102,1040061,,,2025-10-27,清算の結了等,,,2017-11-17,1,,,,,ムーンリアルエステイト,0
259,2010401122720,登記記録の閉鎖等,0,2025-11-05,2025-10-07,ありがとうジャパン株式会社,,株式会社,東京都,港区,南麻布３丁目１０－１９南麻布コンパウンド２０１,,13,103,1060047,,,2025-10-07,合併による解散等,6010401149693,令和７年１０月１日東京都港区南麻布３－１０－１９南麻布コンパウンド２０１ありがとうトラベル株式会社（6010401149693）に合併し解散,2016-01-25,1,,,,,アリガトウジャパン,0
262,2010401158863,登記記録の閉鎖等,0,2025-11-05,2025-10-06,ファースト株式会社,,株式会社,東京都,港区,浜松町２丁目２番１５号浜松町ダイヤビル２Ｆ,,13,103,1050013,,,2025-10-06,清算の結了等,,,2021-03-17,1,,,,,ファースト,0
264,2010403011343,登記記録の閉鎖等,0,2025-11-05,2025-10-29,テトラ合同会社,,合同会社,東京都,中央区,日本橋室町４丁目３番９号,,13,102,1030022,,,2025-10-29,合併による解散等,8010003020004,令和７年１０月２９日東京都中央区日本橋室町四丁目３番９号ソルプレーザ合同会社（8010003020004）に合併し解散,2015-10-05,1,,,,,テトラ,0
268,2010405022066,登記記録の閉鎖等,0,2025-11-05,2025-10-06,花菱一般社団法人,,その他の設立登記法人,東京都,港区,西新橋１丁目１番１号ＥＰコンサルティングサービス内,,13,103,1050003,,,2025-10-06,清算の結了等,,,2023-04-18,1,,,,,ハナビシ,0
276,2010602009329,登記記録の閉鎖等,0,2025-11-05,2025-10-27,有限会社大川工業所,,有限会社,東京都,墨田区,菊川３丁目２３番３号,,13,107,1300024,,,2025-10-27,清算の結了等,,,2015-10-05,1,,,,,,0
320,2020001060683,登記記録の閉鎖等,0,2025-11-05,2025-10-20,秀和ホームズ株式会社,,株式会社,神奈川県,横浜市中区,花咲町１丁目４６番１ＧＳプラザ桜木町３１１号,,14,104,2310063,,,2025-10-20,清算の結了等,,,2015-10-05,1,,,,,シュウワホームズ,0
335,2030001088303,登記記録の閉鎖等,0,2025-11-05,2025-10-27,株式会社御宿ゴルフ倶楽部,,株式会社,埼玉県,深谷市,本田６４２２番地,,11,218,3691105,,,2025-10-27,清算の結了等,,,2025-10-09,1,,,,,オンジュクゴルフクラブ,0
351,2040001131490,登記記録の閉鎖等,0,2025-11-05,2025-10-01,株式会社ＡＬＯＨＡ，Ａｎｅｌａ,,株式会社,千葉県,山武郡横芝光町,宮川６０４１番地１,,12,410,2891727,,,2025-10-01,清算の結了等,,,2023-12-22,1,,,,,アロハアーネラ,0
361,2060001025682,登記記録の閉鎖等,0,2025-11-05,2025-10-31,株式会社イタル,,株式会社,栃木県,足利市,葉鹿町２丁目３４番地２,,09,202,3260143,,,2025-10-31,清算の結了等,,,2015-10-05,1,,,,,イタル,0
364,2080002006119,登記記録の閉鎖等,0,2025-11-05,2025-10-29,有限会社山中家具工業,,有限会社,静岡県,静岡市葵区,産女１０６２番地の１１,,22,101,4211222,,,2025-10-29,清算の結了等,,,2015-10-05,1,,,,,ヤマナカカグコウギョウ,0
365,2080101018626,登記記録の閉鎖等,0,2025-11-05,2025-10-30,匯投医療株式会社,,株式会社,静岡県,静岡市清水区,尾羽１１９番地の１,,22,103,4240103,,,2025-10-30,清算の結了等,,,2015-10-05,1,,,,,カイトウイリョウ,0
394,2130001065176,登記記録の閉鎖等,0,2025-11-05,2025-10-27,株式会社ＡＭＫ,,株式会社,京都府,宇治市,小倉町堀池１８番地の２５,,26,204,6110042,,,2025-10-27,清算の結了等,,,2019-08-30,1,,,,,エーエムケー,0
407,2170001010161,登記記録の閉鎖等,0,2025-11-05,2025-10-31,株式会社豊実,,株式会社,和歌山県,御坊市,湯川町財部２０７番地の３,,30,205,6440011,,,2025-10-31,清算の結了等,,,2015-10-05,1,,,,,ホウジツ,0
414,2180001143621,登記記録の閉鎖等,0,2025-11-05,2025-10-30,株式会社ＮＯＢ,,株式会社,愛知県,名古屋市緑区,桶狭間神明１６５７番地,,23,114,4580919,,,2025-10-30,清算の結了等,,,2020-11-18,1,,,,,エヌオービー,0
417,2180005018308,登記記録の閉鎖等,0,2025-11-05,2025-10-31,一般社団法人ＭＣＡ学会,,その他の設立登記法人,愛知県,名古屋市天白区,池見２丁目８８番地愛知電子工業ビル内,,23,116,4680067,,,2025-10-31,清算の結了等,,,2019-06-21,1,,,,,エムシーエーガッカイ,0
422,2180302025691,登記記録の閉鎖等,0,2025-11-05,2025-11-04,有限会社福島商会,,有限会社,愛知県,豊田市,梅坪町３丁目３番地６コルポカステロＩＩ１０１号,00112820,23,211,4710064,,,2025-11-04,清算の結了等,,,2015-10-05,1,,,,,フクシマショウカイ,0
436,2240001030400,登記記録の閉鎖等,0,2025-11-05,2025-10-29,共立不動産株式会社,,株式会社,広島県,福山市,野上町３丁目１番２号,,34,207,7200815,,,2025-10-29,清算の結了等,,,2015-10-05,1,,,,,キョウリツフドウサン,0
444,2240002026100,登記記録の閉鎖等,0,2025-11-05,2025-10-29,有限会社並木五番街,,有限会社,広島県,広島市中区,三川町５番１１号,,34,101,7300029,,,2025-10-29,清算の結了等,,,2015-10-05,1,,,,,ナミキゴバンガイ,0
446,2240002050777,登記記録の閉鎖等,0,2025-11-05,2025-10-29,有限会社スミツクス,,有限会社,広島県,尾道市,新浜２丁目２番２１号,,34,205,7220014,,,2025-10-29,清算の結了等,,,2015-10-05,1,,,,,スミックス,0
455,2270001004079,登記記録の閉鎖等,0,2025-11-05,2025-11-04,株式会社ウチダフーズ,,株式会社,鳥取県,境港市,外江町２０６６番地,,31,204,6840071,,,2025-11-04,清算の結了等,,,2015-10-05,1,,,,,ウチダフーズ,0
479,2330001015771,登記記録の閉鎖等,0,2025-11-05,2025-10-27,株式会社ＲＢコーポレーション,,株式会社,熊本県,天草市,深海町４３６２番地２,,43,215,8631511,,,2025-10-27,清算の結了等,,,2015-10-05,1,,,,,アールビーコーポレーション,0
482,2330001027809,登記記録の閉鎖等,0,2025-11-05,2025-10-28,伊藤水産株式会社,,株式会社,熊本県,玉名市,岱明町鍋１６８８番地,,43,206,8690211,,,2025-10-28,清算の結了等,,,2020-09-03,1,,,,,イトウスイサン,0
499,2400002005038,登記記録の閉鎖等,0,2025-11-05,2025-10-22,有限会社丸円,,有限会社,岩手県,盛岡市,中野１丁目２９番３７号,,03,201,0200816,,,2025-10-22,清算の結了等,,,2015-10-05,1,,,,,マルエン,0
503,2430002023912,登記記録の閉鎖等,0,2025-11-05,2025-10-30,有限会社日本インルーム,,有限会社,北海道,札幌市豊平区,西岡一条９丁目１１番２号,,01,105,0620031,,,2025-10-30,清算の結了等,,,2015-10-05,1,,,,,ニホンインルーム,0
506,2450002010628,登記記録の閉鎖等,0,2025-11-05,2025-10-23,岡崎林業有限会社,,有限会社,北海道,枝幸郡枝幸町,歌登志美宇丹３７７１番地４,,01,514,0985441,,,2025-10-23,清算の結了等,,,2015-10-05,1,,,,,オカザキリンギョウ,0
525,3010003032929,登記記録の閉鎖等,0,2025-11-05,2025-10-20,合同会社ダブルオーテン,,合同会社,東京都,中央区,日本橋１丁目４番１号日本橋一丁目ビルディング,,13,102,1030027,,,2025-10-20,清算の結了等,,,2020-09-04,1,,,,,ダブルオーテン,0
550,3011001146828,登記記録の閉鎖等,0,2025-11-05,2025-10-03,株式会社プロセスデザインエデュケーション,,株式会社,東京都,港区,六本木６丁目２－３１六本木ヒルズノースタワー１７階,,13,103,1060032,,,2025-10-03,合併による解散等,4010401096888,令和７年１０月１日東京都港区六本木６－２－３１六本木ヒルズノースタワー１７階株式会社プロセスデザインエージェント（4010401096888）に合併し解散,2022-04-11,1,,,,,プロセスデザインエデュケーション,0
601,3013103000581,登記記録の閉鎖等,0,2025-11-05,2025-10-29,ＰＩＹＵＭＩ　ＪＡＰＡＮ合同会社,,合同会社,東京都,福生市,大字熊川２３５番地１３,,13,218,1970003,,,2025-10-29,清算の結了等,,,2015-10-05,1,,,,,ピユミジャパン,0
602,3013202001638,登記記録の閉鎖等,0,2025-11-05,2025-11-04,有限会社オフィストーイ,,有限会社,東京都,世田谷区,上馬２丁目３７番１２－１０１号,,13,112,1540011,,,2025-11-04,清算の結了等,,,2015-10-05,1,,,,,オフィストーイ,0
616,3021001051928,登記記録の閉鎖等,0,2025-11-05,2025-10-21,株式会社ルプテック,,株式会社,神奈川県,相模原市中央区,向陽町４番１４号,,14,152,2520214,,,2025-10-21,清算の結了等,,,2015-10-05,1,,,,,ルプテック,0
624,3030001076769,登記記録の閉鎖等,0,2025-11-05,2025-10-27,長谷川工営株式会社,,株式会社,埼玉県,川口市,西川口４丁目１９番２２号,,11,203,3320021,,,2025-10-27,清算の結了等,,,2015-10-05,1,,,,,ハセガワコウエイ,0
638,3040001016195,登記記録の閉鎖等,0,2025-11-05,2025-10-03,トランスネット株式会社,,株式会社,千葉県,千葉市緑区,おゆみ野南４丁目２３番地１２,,12,105,2660033,,,2025-10-03,清算の結了等,,,2015-10-05,1,,,,,トランスネット,0
642,3050001012350,登記記録の閉鎖等,0,2025-11-05,2025-10-27,株式会社片山土建,,株式会社,茨城県,土浦市,神立中央２丁目１１番９号,,08,203,3000011,,,2025-10-27,清算の結了等,,,2015-10-05,1,,,,,カタヤマドケン,0
652,3080101003841,登記記録の閉鎖等,0,2025-11-05,2025-10-31,株式会社サンレイ,,株式会社,静岡県,駿東郡長泉町,下土狩４８４番地の１２,,22,342,4110943,,,2025-10-31,清算の結了等,,,2015-10-05,1,,,,,サンレイ,0
660,3120001230069,登記記録の閉鎖等,0,2025-11-05,2025-10-24,株式会社田舎の風,,株式会社,大阪府,大阪市中央区,久太郎町４丁目２番９号新中央ビル２Ｆ,,27,128,5410056,,,2025-10-24,清算の結了等,,,2020-07-07,1,,,,,イナカノカゼ,0
670,3120003019964,登記記録の閉鎖等,0,2025-11-05,2025-10-15,合同会社ＫＫ,,合同会社,大阪府,大阪市天王寺区,上汐６丁目３番７－６０２号,,27,109,5430002,,,2025-10-15,清算の結了等,,,2021-08-06,1,,,,,ケーケー,0
701,3180001008484,登記記録の閉鎖等,0,2025-11-05,2025-10-28,株式会社秀和,,株式会社,愛知県,名古屋市昭和区,東畑町１丁目４３番地,,23,107,4660014,,,2025-10-28,清算の結了等,,,2015-10-05,1,,,,,シュウワ,0
710,3180002083997,登記記録の閉鎖等,0,2025-11-05,2025-10-20,有限会社松下塗装店,,有限会社,愛知県,半田市,新宮町５丁目２２７番地の３,,23,205,4750931,,,2025-10-20,清算の結了等,,,2015-10-05,1,,,,,マツシタトソウテン,0
715,3180301013408,登記記録の閉鎖等,0,2025-11-05,2025-10-29,株式会社名廣精機,,株式会社,愛知県,安城市,和泉町北大木４番地１７,,23,212,4441223,,,2025-10-29,清算の結了等,,,2015-10-05,1,,,,,メイコウセイキ,0
719,3200001017219,登記記録の閉鎖等,0,2025-11-05,2025-10-30,東和エバグリーン株式会社,,株式会社,岐阜県,美濃加茂市,太田町２８番地１サーパス美濃太田駅前６０１号,,21,211,5050041,,,2025-10-30,清算の結了等,,,2015-10-05,1,,,,,トウワエバグリーン,0
745,3290005004287,登記記録の閉鎖等,0,2025-11-05,2025-10-07,特定非営利活動法人博多の歴史と文化の寺社町ネット,,その他の設立登記法人,福岡県,福岡市博多区,博多駅前３丁目７番８号,,40,132,8120011,,,2025-10-07,清算の結了等,,,2015-10-05,1,,,,,ハカタノレキシトブンカノジシャチョウネット,0
749,3290801024224,登記記録の閉鎖等,0,2025-11-05,2025-10-23,株式会社あわーず福岡筑豊,,株式会社,福岡県,田川郡川崎町,大字田原５４７番地の１,,40,605,8270004,,,2025-10-23,合併による解散等,8290801017900,令和７年１０月２３日福岡県田川郡川崎町大字田原５４７番地の１株式会社ＫＴネットワーク（8290801017900）に合併し解散,2017-12-22,1,,,,,アワーズフクオカチクホウ,0
754,3300002010542,登記記録の閉鎖等,0,2025-11-05,2025-10-29,有限会社中川鮮魚店,,有限会社,佐賀県,唐津市,妙見町７１３９番地の１,,41,202,8470863,,,2025-10-29,清算の結了等,,,2015-10-05,1,,,,,ナカガワセンギョテン,0
767,3370605000082,登記記録の閉鎖等,0,2025-11-05,2025-10-21,医療法人社団利府内科胃腸科医院,,その他の設立登記法人,宮城県,宮城郡利府町,中央２丁目８番地４,,04,406,9810104,,,2025-10-21,清算の結了等,,,2015-10-05,1,,,,,リフナイカイチョウカイイン,0
769,3380002006269,登記記録の閉鎖等,0,2025-11-05,2025-10-17,前木企業有限会社,,有限会社,福島県,伊達市,保原町字六丁目１７番地,,07,213,9600616,,,2025-10-17,清算の結了等,,,2015-10-05,1,,,,,マエキキギョウ,0
774,3390002015104,登記記録の閉鎖等,0,2025-11-05,2025-10-27,有限会社あすなろ薬局,,有限会社,山形県,西置賜郡白鷹町,大字荒砥乙１０７２番地の５,,06,402,9920832,,,2025-10-27,清算の結了等,,,2015-10-05,1,,,,,アスナロヤッキョク,0
776,3430001060682,登記記録の閉鎖等,0,2025-11-05,2025-10-20,株式会社ｒａｖｅ,,株式会社,神奈川県,川崎市中原区,今井仲町９番２０－１０３号,,14,133,2110065,,,2025-10-20,清算の結了等,,,2015-10-05,1,,,,,レイブ,0
784,3450002004050,登記記録の閉鎖等,0,2025-11-05,2025-10-30,有限会社中田燃料,,有限会社,北海道,旭川市,豊岡八条３丁目２番３号,,01,204,0788238,,,2025-10-30,清算の結了等,,,2015-10-05,1,,,,,,0
788,3500002016767,登記記録の閉鎖等,0,2025-11-05,2025-10-31,有限会社東販,,有限会社,愛媛県,新居浜市,庄内町３丁目１０番４０号,,38,205,7920811,,,2025-10-31,清算の結了等,,,2015-10-05,1,,,,,トウハン,0
794,4010001247420,登記記録の閉鎖等,0,2025-11-05,2025-10-24,株式会社ＥａｓｅＣａｒｅｅｒ,,株式会社,東京都,中央区,銀座３丁目１４番１３号,,13,102,1040061,,,2025-10-24,清算の結了等,,,2024-08-15,1,,,,,イーズキャリア,0
802,4010003036887,登記記録の閉鎖等,0,2025-11-05,2025-10-24,ジェイコアレジ５合同会社３,,合同会社,東京都,千代田区,丸の内１丁目４番１号東京共同会計事務所内,,13,101,1000005,,,2025-10-24,清算の結了等,,,2022-02-03,1,,,,,ジェイコアレジファイブサン,0
807,4010401024097,登記記録の閉鎖等,0,2025-11-05,2025-10-14,株式会社長谷工アイネット,,株式会社,東京都,港区,芝３丁目８番２号,,13,103,1050014,,,2025-10-14,清算の結了等,,,2015-10-05,1,,,,,ハセコウアイネット,0
815,4010401186953,登記記録の閉鎖等,0,2025-11-05,2025-10-06,Ａｌｅｘ株式会社,,株式会社,東京都,港区,芝１丁目１５番７－７０１号,,13,103,1050014,,,2025-10-06,清算の結了等,,,2024-12-11,1,,,,,アレックス,0
837,4010902006387,登記記録の閉鎖等,0,2025-11-05,2025-10-29,有限会社三恵ハウジング,,有限会社,東京都,世田谷区,桜上水３丁目１３番２０号,,13,112,1560045,,,2025-10-29,清算の結了等,,,2015-10-05,1,,,,,サンケイハウジング,0
852,4011103008644,登記記録の閉鎖等,0,2025-11-05,2025-10-24,合同会社広島八丁堀インベスターズ,,合同会社,東京都,千代田区,大手町２丁目２番２号アーバンネット大手町ビル,,13,101,1000004,,,2025-10-24,清算の結了等,,,2019-03-06,1,,,,,ヒロシマハッチョウボリインベスターズ,0
861,4011801006189,登記記録の閉鎖等,0,2025-11-05,2025-10-28,ウザワ住宅設備株式会社,,株式会社,東京都,足立区,梅田２丁目８番７号,,13,121,1230851,,,2025-10-28,清算の結了等,,,2015-10-05,1,,,,,ウザワジュウタクセツビ,0
862,4011801024463,登記記録の閉鎖等,0,2025-11-05,2025-10-31,株式会社Ｓ．Ｆ．Ｒ．,,株式会社,東京都,葛飾区,立石２丁目３３番８号,,13,122,1240012,,,2025-10-31,清算の結了等,,,2015-10-05,1,,,,,エスエフアール,0
872,4020001115205,登記記録の閉鎖等,0,2025-11-05,2025-10-20,株式会社隆栄,,株式会社,神奈川県,横浜市青葉区,恩田町３２７６番地１カルムＨ,,14,117,2270065,,,2025-10-20,清算の結了等,,,2016-03-10,1,,,,,,0
877,4020002077667,登記記録の閉鎖等,0,2025-11-05,2025-10-20,有限会社ＳＩＭＰＬＥ,,有限会社,神奈川県,横浜市港南区,日野中央１丁目１６番１０号,,14,111,2340053,,,2025-10-20,清算の結了等,,,2015-10-05,1,,,,,シンプル,0
878,4020003006352,登記記録の閉鎖等,0,2025-11-05,2025-10-20,株式会社フレッシュグッズ,,株式会社,神奈川県,川崎市多摩区,菅１丁目３番６号,,14,135,2140001,,,2025-10-20,清算の結了等,,,2015-10-05,1,,,,,フレッシュグッズ,0
895,4030002050961,登記記録の閉鎖等,0,2025-11-05,2025-10-27,有限会社テクノサービス,,有限会社,埼玉県,三郷市,仁蔵２９５番地,,11,237,3410023,,,2025-10-27,清算の結了等,,,2015-10-05,1,,,,,テクノサービス,0
902,4040001027596,登記記録の閉鎖等,0,2025-11-05,2025-10-29,松澤商事株式会社,,株式会社,東京都,葛飾区,南水元３丁目４番１－１０１０号,,13,122,1250035,,,2025-10-29,清算の結了等,,,2015-10-05,1,,,,,マツザワショウジ,0
907,4050001024312,登記記録の閉鎖等,0,2025-11-05,2025-10-23,柳生商事株式会社,,株式会社,茨城県,北茨城市,磯原町上相田６３５番地５,,08,215,3191544,,,2025-10-23,合併による解散等,6050002032675,令和７年９月１日茨城県北茨城市磯原町上相田６３５番地５柳生運送株式会社（6050002032675）に合併し解散,2015-10-05,1,,,,,ヤギュウショウジ,0
914,4070005002460,登記記録の閉鎖等,0,2025-11-05,2025-10-30,株式会社第一ガス,,株式会社,群馬県,高崎市,上豊岡町５７０番地２,,10,202,3700871,,,2025-10-30,合併による解散等,9070001014348,令和７年１０月１日東京都中央区京橋三丁目１番１号株式会社ミツウロコヴェッセル（9070001014348）に合併し解散,2015-10-05,1,,,,,ダイイチガス,0
923,4100002001123,登記記録の閉鎖等,0,2025-11-05,2025-10-31,有限会社柏萬呉服店,,有限会社,長野県,長野市,柳町３７番地,,20,201,3800805,,,2025-10-31,清算の結了等,,,2015-10-05,1,,,,,カシマンゴフクテン,0
924,4100002020619,登記記録の閉鎖等,0,2025-11-05,2025-10-31,有限会社滝野屋商店,,有限会社,長野県,松本市,北深志１丁目３番８号,,20,202,3900872,,,2025-10-31,清算の結了等,,,2015-10-05,1,,,,,タキノヤショウテン,0
926,4110002011583,登記記録の閉鎖等,0,2025-11-05,2025-10-29,有限会社アイコウ,,有限会社,新潟県,新潟市西蒲区,巻甲４２７６番地８,,15,108,9530041,,,2025-10-29,清算の結了等,,,2015-10-05,1,,,,,アイコウ,0
928,4120001153558,登記記録の閉鎖等,0,2025-11-05,2025-10-31,株式会社エコライン,,株式会社,大阪府,寝屋川市,香里北之町１１番６号,,27,215,5720080,,,2025-10-31,合併による解散等,5120002077400,令和７年１０月３１日大阪府寝屋川市香里北之町１１番６号株式会社エムエス管理（5120002077400）に合併し解散,2015-10-05,1,,,,,エコライン,0
932,4120001259719,登記記録の閉鎖等,0,2025-11-05,2025-10-31,株式会社Ｃｈａｎｇｅ　ｎｏｗ,,株式会社,大阪府,大阪市西区,江戸堀２丁目１－１江戸堀センタービル９階,,27,106,5500002,,,2025-10-31,清算の結了等,,,2023-11-17,1,,,,,チェンジナウ,0
949,4130001047973,登記記録の閉鎖等,0,2025-11-05,2025-10-28,訪問看護ステーションあかり株式会社,,株式会社,京都府,京都市右京区,西院下花田町５番地１レジデンス・オザック５０８号,,26,108,6150004,,,2025-10-28,清算の結了等,,,2015-10-05,1,,,,,ホウモンカンゴステーションアカリ,0
961,4180001088352,登記記録の閉鎖等,0,2025-11-05,2025-10-28,株式会社グラヴィス,,株式会社,愛知県,名古屋市中区,栄３丁目１１番３１号,,23,106,4600008,,,2025-10-28,清算の結了等,,,2015-10-05,1,,,,,グラヴィス,0
965,4180005017712,登記記録の閉鎖等,0,2025-11-05,2025-10-31,ＪＵＭＰ事業協同組合,,その他の設立登記法人,愛知県,名古屋市東区,東大曽根町１６番４号,,23,102,4610022,,,2025-10-31,清算の結了等,,,2018-03-12,1,,,,,ジャンプ,0
966,4180301006278,登記記録の閉鎖等,0,2025-11-05,2025-10-29,株式会社中部ニット,,株式会社,愛知県,豊橋市,多米中町４丁目２３番地の２０,,23,201,4400027,,,2025-10-29,清算の結了等,,,2015-10-05,1,,,,,チュウブニット,0
985,4260001021676,登記記録の閉鎖等,0,2025-11-05,2025-10-31,備前交通株式会社,,株式会社,岡山県,備前市,東片上５０番地の１,,33,211,7050022,,,2025-10-31,清算の結了等,,,2015-10-05,1,,,,,ビゼンコウツウ,0
986,4260002019496,登記記録の閉鎖等,0,2025-11-05,2025-10-30,有限会社田坂工業所,,有限会社,岡山県,倉敷市,連島町連島４３８８番地の２,,33,202,7128011,,,2025-10-30,清算の結了等,,,2015-10-05,1,,,,,タサカコウギョウショ,0
1010,4310002002694,登記記録の閉鎖等,0,2025-11-05,2025-10-29,有限会社福田土木,,有限会社,長崎県,長崎市,大谷町５番２０号,,42,201,8500062,,,2025-10-29,清算の結了等,,,2015-10-05,1,,,,,フクダドボク,0
1035,4450002012226,登記記録の閉鎖等,0,2025-11-05,2025-10-31,有限会社弘版,,有限会社,北海道,増毛郡増毛町,暑寒町３丁目１１４番地,,01,481,0770215,,,2025-10-31,清算の結了等,,,2015-10-05,1,,,,,コウハン,0
1039,4500001001315,登記記録の閉鎖等,0,2025-11-05,2025-11-04,株式会社かわもと,,株式会社,愛媛県,松山市,久米窪田町１１７１番地３,,38,201,7911101,,,2025-11-04,清算の結了等,,,2015-10-05,1,,,,,カワモト,0
1052,5010001234228,登記記録の閉鎖等,0,2025-11-05,2025-10-06,株式会社ミンカブソリューションサービシーズ,,株式会社,東京都,港区,東新橋１丁目９番１号,,13,103,1050021,,,2025-10-06,合併による解散等,4010401098942,令和７年１０月１日東京都港区東新橋一丁目９番１号株式会社ミンカブ・ジ・インフォノイド（4010401098942）に合併し解散,2023-04-06,1,,,,,ミンカブソリューションサービシーズ,0
1054,5010003028917,登記記録の閉鎖等,0,2025-11-05,2025-10-24,ジェイコアレジ合同会社３,,合同会社,東京都,千代田区,丸の内１丁目４番１号東京共同会計事務所内,,13,101,1000005,,,2025-10-24,清算の結了等,,,2018-12-13,1,,,,,ジェイコアレジサン,0
1055,5010003036886,登記記録の閉鎖等,0,2025-11-05,2025-10-24,ジェイコアレジ５合同会社２,,合同会社,東京都,千代田区,丸の内１丁目４番１号東京共同会計事務所内,,13,101,1000005,,,2025-10-24,清算の結了等,,,2022-02-03,1,,,,,ジェイコアレジファイブニ,0
1056,5010003046431,登記記録の閉鎖等,0,2025-11-05,2025-10-22,合同会社絆,,合同会社,東京都,中央区,八丁堀４丁目１２番２０号,,13,102,1040032,,,2025-10-22,清算の結了等,,,2025-02-18,1,,,,,キズナ,0
1057,5010005033551,登記記録の閉鎖等,0,2025-11-05,2025-10-31,ヒビヤ一般社団法人,,その他の設立登記法人,東京都,千代田区,有楽町１丁目５番１号,,13,101,1000006,,,2025-10-31,清算の結了等,,,2021-06-22,1,,,,,ヒビヤ,0
1060,5010403024474,登記記録の閉鎖等,0,2025-11-05,2025-10-22,東陽オフィス合同会社,,合同会社,東京都,中央区,日本橋３丁目９番１号日本橋三丁目スクエア１１階,,13,102,1030027,,,2025-10-22,清算の結了等,,,2021-01-12,1,,,,,トウヨウオフィス,0
1069,5010702012733,登記記録の閉鎖等,0,2025-11-05,2025-10-28,有限会社エフノワ,,有限会社,東京都,品川区,戸越１丁目２８番５号,,13,109,1420041,,,2025-10-28,清算の結了等,,,2015-10-05,1,,,,,エフノワ,0
1113,5013101006777,登記記録の閉鎖等,0,2025-11-05,2025-10-03,株式会社星コーポレーション,,株式会社,東京都,港区,港南１丁目９番３６号,,13,103,1080075,,,2025-10-03,清算の結了等,,,2015-10-05,1,,,,,ホシコーポレーション,0
1114,5013301017748,登記記録の閉鎖等,0,2025-11-05,2025-10-31,ＫＫテクノロジーズ株式会社,,株式会社,東京都,新宿区,新宿３丁目１２番４号新宿Ｎタウンプラザ３０９号,,13,104,1600022,,,2025-10-31,合併による解散等,7011003005276,令和７年１０月２５日東京都中央区日本橋室町一丁目１３番１号ＤＫノア４階株式会社サイブリッジ（7011003005276）に合併し解散,2015-10-05,1,,,,,ケーケーテクノロジーズ,0
1153,5040001029303,登記記録の閉鎖等,0,2025-11-05,2025-10-06,株式会社栄和エンタープライズ,,株式会社,千葉県,浦安市,弁天３丁目２番５１－２号,,12,227,2790026,,,2025-10-06,清算の結了等,,,2015-10-05,1,,,,,エイワエンタープライズ,0
1191,5120005020712,登記記録の閉鎖等,0,2025-11-05,2025-10-31,一般社団法人日本広報支援機構,,その他の設立登記法人,大阪府,大阪市北区,小松原町２番４号,,27,127,5300018,,,2025-10-31,清算の結了等,,,2019-02-12,1,,,,,ニホンコウホウシエンキコウ,0
1194,5120102017933,登記記録の閉鎖等,0,2025-11-05,2025-10-28,有限会社大阪カーユニオン,,有限会社,大阪府,羽曳野市,野々上１丁目１１番２０号,,27,222,5830871,,,2025-10-28,清算の結了等,,,2015-10-05,1,,,,,オオサカカーユニオン,0
1207,5130001026299,登記記録の閉鎖等,0,2025-11-05,2025-10-31,株式会社ビーンズ・スクエア,,株式会社,京都府,京都市北区,小山西元町２６番地５,,26,101,6038113,,,2025-10-31,清算の結了等,,,2015-10-05,1,,,,,ビーンズスクエア,0
1222,5180001066638,登記記録の閉鎖等,0,2025-11-05,2025-10-30,株式会社エッジ,,株式会社,愛知県,名古屋市中区,栄１丁目２２番２号ＬＨ名古屋６０１,,23,106,4600008,,,2025-10-30,清算の結了等,,,2015-10-05,1,,,,,エッジ,0
1226,5180002083269,登記記録の閉鎖等,0,2025-11-05,2025-10-29,有限会社カメヤ,,有限会社,愛知県,半田市,更生町２丁目１５２番地の３,,23,205,4750856,,,2025-10-29,清算の結了等,,,2015-10-05,1,,,,,カメヤ,0
1227,5180003024148,登記記録の閉鎖等,0,2025-11-05,2025-10-22,合同会社五塔,,合同会社,愛知県,名古屋市中区,栄１丁目２２番２３号（藤和シティホームズ栄１５０２号）,,23,106,4600008,,,2025-10-22,清算の結了等,,,2022-08-12,1,,,,,ゴトウ,0
1242,5240002047548,登記記録の閉鎖等,0,2025-11-05,2025-10-21,有限会社シンコウ,,有限会社,広島県,福山市,松永町４丁目１６番４７－９０４号,,34,207,7290104,,,2025-10-21,清算の結了等,,,2015-10-05,1,,,,,シンコウ,0
1251,5290001001352,登記記録の閉鎖等,0,2025-11-05,2025-10-29,株式会社澤永商店,,株式会社,福岡県,福岡市南区,大楠３丁目１１番３０号,,40,134,8150082,,,2025-10-29,合併による解散等,2122001009171,令和７年１０月１日大阪府東大阪市本庄中二丁目２番３３号大西機工株式会社（2122001009171）に合併し解散,2015-10-05,1,,,,,サワナガショウテン,0
1275,5330002004622,登記記録の閉鎖等,0,2025-11-05,2025-10-27,有限会社ザ・ベイクド・ポテト,,有限会社,熊本県,熊本市西区,春日４丁目２－３３,,43,103,8600047,,,2025-10-27,清算の結了等,,,2015-10-05,1,,,,,ザベイクドポテト,0
1278,5350002015139,登記記録の閉鎖等,0,2025-11-05,2025-10-29,有限会社山内造園土木,,有限会社,宮崎県,都城市,菖蒲原町２０号１番地３,,45,202,8850034,,,2025-10-29,清算の結了等,,,2015-10-05,1,,,,,ヤマウチゾウエンドボク,0
1282,5370005003915,登記記録の閉鎖等,0,2025-11-05,2025-10-22,一般社団法人健康デザイン研究所,,その他の設立登記法人,宮城県,仙台市泉区,南光台東２丁目２４番２１号,,04,105,9818001,,,2025-10-22,清算の結了等,,,2015-10-05,1,,,,,ケンコウデザインケンキュウジョ,0
1304,5500002002716,登記記録の閉鎖等,0,2025-11-05,2025-11-04,有限会社甲和,,有限会社,愛媛県,松山市,越智３丁目８番４号,,38,201,7900933,,,2025-11-04,清算の結了等,,,2015-10-05,1,,,,,コウワ,0
1315,6010001206382,登記記録の閉鎖等,0,2025-11-05,2025-10-24,ｉｓｃｒｅａｍ株式会社,,株式会社,東京都,千代田区,大手町１丁目６番１号大手町ビル２階（ＭＩＲＡＩ・ＬＡＢ・ＰＡＬＥＴＴＥ）,,13,101,1000004,,,2025-10-24,清算の結了等,,,2020-01-08,1,,,,,アイスクリーム,0
1320,6010003034468,登記記録の閉鎖等,0,2025-11-05,2025-10-24,日光Ｐｌｕｓ１７合同会社４,,合同会社,東京都,千代田区,丸の内１丁目４番１号東京共同会計事務所内,,13,101,1000005,,,2025-10-24,清算の結了等,,,2021-03-23,1,,,,,ニッコウプラスセブンティーンヨン,0
1321,6010003036530,登記記録の閉鎖等,0,2025-11-05,2025-10-24,ジェイコアレジ４合同会社２,,合同会社,東京都,千代田区,丸の内１丁目４番１号東京共同会計事務所内,,13,101,1000005,,,2025-10-24,清算の結了等,,,2021-12-15,1,,,,,ジェイコアレジフォーニ,0
1330,6010401174592,登記記録の閉鎖等,0,2025-11-05,2025-10-07,Ｆｌｅｘ　Ｂａｔｔｅｒｙ　Ｉｎｖｅｓｔｍｅｎｔ株式会社,,株式会社,東京都,港区,北青山２丁目５番１号,,13,103,1070061,,,2025-10-07,清算の結了等,,,2023-05-24,1,,,,,フレックスバッテリーインベストメント,0
1338,6010601011554,登記記録の閉鎖等,0,2025-11-05,2025-10-01,株式会社オズネット,,株式会社,千葉県,船橋市,本中山４丁目１３番３号,,12,204,2730035,,,2025-10-01,清算の結了等,,,2015-10-05,1,,,,,オズネット,0
1339,6010601027220,登記記録の閉鎖等,0,2025-11-05,2025-10-24,株式会社サクレ,,株式会社,東京都,文京区,目白台１丁目９番１３号,,13,105,1120015,,,2025-10-24,清算の結了等,,,2015-10-05,1,,,,,サクレ,0
1340,6010602005019,登記記録の閉鎖等,0,2025-11-05,2025-10-07,有限会社タハラ,,有限会社,千葉県,船橋市,宮本８丁目７番８号,,12,204,2730003,,,2025-10-07,清算の結了等,,,2015-10-05,1,,,,,タハラ,0
1341,6010701039099,登記記録の閉鎖等,0,2025-11-05,2025-10-29,ＣｌｏｖｅｒＤｉｇｉｔａｌ株式会社,,株式会社,東京都,品川区,東大井４丁目７番１４号ホマーロ品川３０４号室,,13,109,1400011,,,2025-10-29,清算の結了等,,,2020-04-07,1,,,,,クローバーデジタル,0
1342,6010702008706,登記記録の閉鎖等,0,2025-11-05,2025-10-29,有限会社芳寿司商事,,有限会社,東京都,品川区,西五反田２丁目１２番１５－２０２号,,13,109,1410031,,,2025-10-29,清算の結了等,,,2015-10-05,1,,,,,ヨシズシショウジ,0
1344,6010803004356,登記記録の閉鎖等,0,2025-11-05,2025-10-27,合同会社高千穂コーポレーション,,合同会社,東京都,大田区,西蒲田５丁目１番８号サンクレストヨコセ２０５,,13,111,1440051,,,2025-10-27,清算の結了等,,,2022-11-21,1,,,,,タカチホコーポレーション,0
1353,6010901056828,登記記録の閉鎖等,0,2025-11-05,2025-10-30,株式会社Ｈ＆Ａ,,株式会社,東京都,世田谷区,祖師谷３丁目１７番２２－２０８号,,13,112,1570072,,,2025-10-30,清算の結了等,,,2025-02-18,1,,,,,エイチアンドエー,0
1355,6011001145109,登記記録の閉鎖等,0,2025-11-05,2025-10-08,ブラックバッジグループ株式会社,,株式会社,東京都,渋谷区,東１丁目２番２０号１４１１号室,,13,113,1500011,,,2025-10-08,清算の結了等,,,2022-01-19,1,,,,,ブラックバッジグループ,0
1363,6011101076377,登記記録の閉鎖等,0,2025-11-05,2025-10-06,株式会社フォレスト,,株式会社,東京都,新宿区,大京町２６番地,,13,104,1600015,,,2025-10-06,清算の結了等,,,2016-03-17,1,,,,,フォレスト,0
1368,6011103014194,登記記録の閉鎖等,0,2025-11-05,2025-10-01,浦安プロパティーズ合同会社,,合同会社,東京都,新宿区,四谷２丁目９番地１５東京ユナイテッド綜合事務所内,,13,104,1600004,,,2025-10-01,清算の結了等,,,2024-03-13,1,,,,,ウラヤスプロパティーズ,0
1380,6011801024247,登記記録の閉鎖等,0,2025-11-05,2025-10-29,株式会社アクアトレーディングス,,株式会社,静岡県,藤枝市,下之郷８６９－１,,22,214,4260203,,,2025-10-29,清算の結了等,,,2015-10-05,1,,,,,,0
1390,6020001080777,登記記録の閉鎖等,0,2025-11-05,2025-10-20,株式会社長野工業,,株式会社,神奈川県,横浜市神奈川区,平川町１２番地８,,14,102,2210812,,,2025-10-20,清算の結了等,,,2015-10-05,1,,,,,ナガノコウギョウ,0
1392,6020001090388,登記記録の閉鎖等,0,2025-11-05,2025-11-04,東友精工株式会社,,株式会社,東京都,西多摩郡瑞穂町,大字石畑１５７５,,13,303,1901211,,,2025-11-04,清算の結了等,,,2015-10-05,1,,,,,トウユウセイコウ,0
1400,6020002041919,登記記録の閉鎖等,0,2025-11-05,2025-10-20,有限会社神奈川八光堂,,有限会社,神奈川県,横浜市中区,末吉町３丁目５１番地,,14,104,2310055,,,2025-10-20,清算の結了等,,,2015-10-05,1,,,,,,0
1406,6030001026861,登記記録の閉鎖等,0,2025-11-05,2025-10-27,株式会社協立電気工事,,株式会社,埼玉県,入間市,鍵山１丁目１５番２５号,,11,225,3580004,,,2025-10-27,清算の結了等,,,2015-10-05,1,,,,,キョウリツデンキコウジ,0
1408,6030001127957,登記記録の閉鎖等,0,2025-11-05,2025-10-27,ＡＲＥＳＴＡ株式会社,,株式会社,埼玉県,川口市,元郷５丁目２０番２１号１０３,,11,203,3320011,,,2025-10-27,清算の結了等,,,2018-10-24,1,,,,,アレスタ,0
1424,6050001006655,登記記録の閉鎖等,0,2025-11-05,2025-10-24,株式会社ひたちなか食品,,株式会社,茨城県,ひたちなか市,平磯町遠原５３５７番地,,08,221,3111203,,,2025-10-24,清算の結了等,,,2015-10-05,1,,,,,ヒタチナカショクヒン,0
1434,6080002007492,登記記録の閉鎖等,0,2025-11-05,2025-10-31,ＡＤＩＳ静岡ＧＨ株式会社,,株式会社,静岡県,静岡市駿河区,登呂６丁目２番２９号,,22,102,4228033,,,2025-10-31,合併による解散等,4011001032003,令和７年１０月１日東京都渋谷区恵比寿一丁目１９番１５号あいおいニッセイ同和インシュアランスサービス株式会社（4011001032003）に合併し解散,2015-10-05,1,,,,,エーディーアイエスシズオカジーエイチ,0
1438,6080103002129,登記記録の閉鎖等,0,2025-11-05,2025-10-22,合同会社フリーダム企画,,合同会社,神奈川県,横浜市都筑区,茅ケ崎中央４４番５－８０３号,,14,118,2240032,,,2025-10-22,清算の結了等,,,2020-04-07,1,,,,,フリーダムキカク,0
1439,6080401014453,登記記録の閉鎖等,0,2025-11-05,2025-10-31,ビバレッジファーム株式会社,,株式会社,静岡県,掛川市,家代４１３番地,,22,213,4360225,,,2025-10-31,清算の結了等,,,2015-10-05,1,,,,,ビバレッジファーム,0
1440,6080401020204,登記記録の閉鎖等,0,2025-11-05,2025-10-31,桜ネットジャパン株式会社,,株式会社,静岡県,袋井市,袋井３０８番地の１７,,22,216,4370026,,,2025-10-31,清算の結了等,,,2015-10-05,1,,,,,サクラネットジャパン,0
1475,6120005004284,登記記録の閉鎖等,0,2025-11-05,2025-10-30,鶴ケ丘本通商店街振興組合,,その他の設立登記法人,大阪府,大阪市阿倍野区,西田辺町２丁目２番１５号,,27,119,5450014,,,2025-10-30,清算の結了等,,,2015-10-05,1,,,,,ツルガオカホンドオリショウテンガイ,0
1483,6130005013004,登記記録の閉鎖等,0,2025-11-05,2025-10-31,社会保険労務士法人西尾事務所,,その他の設立登記法人,京都府,京都市中京区,錦小路通室町東入る占出山町３０８ヤマチュウビル２階Ｎ１０,,26,104,6040000,,,2025-10-31,清算の結了等,,,2015-10-05,1,,,,,ニシオジムショ,0
1488,6160001001694,登記記録の閉鎖等,0,2025-11-05,2025-10-24,株式会社ビワコサッシセンター,,株式会社,滋賀県,大津市,比叡辻１丁目１１番１４号,00044185,25,201,5200104,,,2025-10-24,清算の結了等,,,2015-10-05,1,,,,,ビワコサッシセンター,0
1489,6160001018144,登記記録の閉鎖等,0,2025-11-05,2025-10-30,株式会社ＡＳＵＮＡＲＯ,,株式会社,滋賀県,栗東市,北中小路３６５番地８,,25,208,5203037,,,2025-10-30,清算の結了等,,,2015-10-05,1,,,,,アスナロ,0
1491,6180001000018,登記記録の閉鎖等,0,2025-11-05,2025-10-28,アイシン電装株式会社,,株式会社,愛知県,名古屋市守山区,今尻町１０８番地,,23,113,4630023,,,2025-10-28,清算の結了等,,,2015-10-05,1,,,,,アイシンデンソウ,0
1505,6180302024566,登記記録の閉鎖等,0,2025-11-05,2025-10-29,有限会社レンゲ,,有限会社,愛知県,豊田市,小坂本町１丁目１４番地２,,23,211,4710034,,,2025-10-29,清算の結了等,,,2015-10-05,1,,,,,レンゲ,0
1517,6230001009499,登記記録の閉鎖等,0,2025-11-05,2025-10-31,バンドウ製畳所株式会社,,株式会社,富山県,砺波市,頼成２２６番地２,,16,208,9391431,,,2025-10-31,清算の結了等,,,2015-10-05,1,,,,,バンドウセイジョウショ,0
1552,6310005001147,登記記録の閉鎖等,0,2025-11-05,2025-11-04,長崎計器協業組合,,その他の設立登記法人,長崎県,長崎市,大橋町５番２７号,,42,201,8528134,,,2025-11-04,清算の結了等,,,2015-10-05,1,,,,,ナガサキケイキ,0
1559,6330001009076,登記記録の閉鎖等,0,2025-11-05,2025-10-29,株式会社エムティ企画,,株式会社,熊本県,熊本市東区,若葉１丁目３番１２号,,43,102,8620903,,,2025-10-29,清算の結了等,,,2015-10-05,1,,,,,エムティキカク,0
1565,6350002004470,登記記録の閉鎖等,0,2025-11-05,2025-10-30,有限会社まるや海産,,有限会社,宮崎県,宮崎市,大字熊野１５７９番地,,45,201,8892151,,,2025-10-30,清算の結了等,,,2015-10-05,1,,,,,マルヤカイサン,0
1589,6450001008933,登記記録の閉鎖等,0,2025-11-05,2025-10-22,高木商事株式会社,,株式会社,北海道,留萌市,明元町４丁目３５番地,,01,212,0770041,,,2025-10-22,清算の結了等,,,2015-10-05,1,,,,,タカギショウジ,0
1595,6490002001487,登記記録の閉鎖等,0,2025-11-05,2025-10-31,有限会社高知チャイルド社,,有限会社,高知県,高知市,西久万字高野谷３４９番地１,,39,201,7800984,,,2025-10-31,清算の結了等,,,2015-10-05,1,,,,,コウチチャイルドシャ,0
1597,6500002004637,登記記録の閉鎖等,0,2025-11-05,2025-10-31,有限会社寺本測量設計管理事務所,,有限会社,愛媛県,松山市,天山１丁目６番２８号,,38,201,7900951,,,2025-10-31,清算の結了等,,,2015-10-05,1,,,,,テラモトソクリョウセッケイカンリジムショ,0
1603,7010001016814,登記記録の閉鎖等,0,2025-11-05,2025-10-27,株式会社三興広告社,,株式会社,東京都,千代田区,岩本町２丁目８番１０号神田永谷マンション５０１号,,13,101,1010032,,,2025-10-27,清算の結了等,,,2015-10-05,1,,,,,サンコウコウコクシャ,0
1609,7010001141430,登記記録の閉鎖等,0,2025-11-05,2025-10-24,紀尾井町調剤株式会社,,株式会社,東京都,千代田区,紀尾井町３番１９号,,13,101,1020094,,,2025-10-24,清算の結了等,,,2015-10-05,1,,,,,キオイチョウチョウザイ,0
1616,7010003024088,登記記録の閉鎖等,0,2025-11-05,2025-10-24,合同会社ココファンド２,,合同会社,東京都,中央区,日本橋１丁目４番１号,,13,102,1030027,,,2025-10-24,清算の結了等,,,2016-09-12,1,,,,,ココファンドツー,0
1639,7010501051121,登記記録の閉鎖等,0,2025-11-05,2025-10-24,郁金香蕉株式会社,,株式会社,東京都,江東区,森下５丁目６番６号ファーストホーム森下３０１,,13,108,1350004,,,2025-10-24,清算の結了等,,,2023-09-27,1,,,,,ユクキンコウショウ,0
1640,7010601000358,登記記録の閉鎖等,0,2025-11-05,2025-10-24,株式会社アサカテクノ・コーポレーション,,株式会社,東京都,江東区,千田１０番１６号,,13,108,1350013,,,2025-10-24,清算の結了等,,,2015-10-05,1,,,,,アサカテクノコーポレーション,0
1646,7010901011014,登記記録の閉鎖等,0,2025-11-05,2025-10-30,株式会社ボン,,株式会社,東京都,世田谷区,等々力４丁目１３番２０号,,13,112,1580082,,,2025-10-30,清算の結了等,,,2015-10-05,1,,,,,ボン,0
1651,7010902014767,登記記録の閉鎖等,0,2025-11-05,2025-11-04,有限会社みどり,,有限会社,東京都,世田谷区,代田５丁目７番１２号,,13,112,1550033,,,2025-11-04,清算の結了等,,,2015-10-05,1,,,,,ミドリ,0
1654,7011001112792,登記記録の閉鎖等,0,2025-11-05,2025-10-27,ＣＭ　ＳＥＲＶＩＣＥＳ株式会社,,株式会社,神奈川県,横浜市中区,尾上町４丁目５７番地尾上町ビルディング８Ｆ,,14,104,2310015,,,2025-10-27,清算の結了等,,,2016-09-21,1,,,,,シーエムサービシズ,0
1658,7011003012792,登記記録の閉鎖等,0,2025-11-05,2025-10-07,合同会社ＣＲＩＦＥ,,合同会社,千葉県,習志野市,屋敷２丁目１４番６号,,12,216,2750004,,,2025-10-07,清算の結了等,,,2021-05-28,1,,,,,,0
1671,7011801016350,登記記録の閉鎖等,0,2025-11-05,2025-10-31,株式会社ＧＡＲＢＯ,,株式会社,東京都,葛飾区,立石２丁目３３番８号,,13,122,1240012,,,2025-10-31,清算の結了等,,,2015-10-05,1,,,,,ガルボ,0
1688,7020001131018,登記記録の閉鎖等,0,2025-11-05,2025-10-20,株式会社バリューワークスエデュケイト,,株式会社,神奈川県,川崎市高津区,千年１４１番地３,,14,134,2130022,,,2025-10-20,清算の結了等,,,2019-05-10,1,,,,,バリューワークスエデュケイト,0
1689,7020001148870,登記記録の閉鎖等,0,2025-11-05,2025-10-22,株式会社ＰＶＳ　Ｆｏｏｄｓ,,株式会社,神奈川県,川崎市多摩区,南生田４丁目２０番１８号,,14,135,2140036,,,2025-10-22,清算の結了等,,,2022-11-07,1,,,,,ピーブイエスフーズ,0
1690,7020002019369,登記記録の閉鎖等,0,2025-11-05,2025-10-27,有限会社トム印刷工芸,,有限会社,神奈川県,横浜市港南区,東永谷３丁目５２番３２号,,14,111,2330011,,,2025-10-27,清算の結了等,,,2015-10-05,1,,,,,トムインサツコウゲイ,0
1713,7030001155552,登記記録の閉鎖等,0,2025-11-05,2025-10-27,株式会社３ＤＨＥＸＡ,,株式会社,埼玉県,川越市,大字南田島８０１番地２,,11,201,3500027,,,2025-10-27,清算の結了等,,,2023-08-24,1,,,,,スリーディーヘキサ,0
1736,7040002100580,登記記録の閉鎖等,0,2025-11-05,2025-10-07,有限会社渡辺星工業,,有限会社,千葉県,南房総市,安馬谷２８４７番地,,12,234,2992522,,,2025-10-07,清算の結了等,,,2015-10-05,1,,,,,ワタナベホシコウギョウ,0
1746,7080001003285,登記記録の閉鎖等,0,2025-11-05,2025-10-31,株式会社田中屏風店,00067232,株式会社,静岡県,静岡市葵区,田町７丁目５３番地の４,,22,101,4200068,,,2025-10-31,清算の結了等,,,2015-10-05,1,,,,,タナカビョウブテン,0
1762,7120001249551,登記記録の閉鎖等,0,2025-11-05,2025-10-29,株式会社Ｇｒａｎｔ　Ｂｕｓｉｎｅｓｓ　Ａｓｓｏｃｉａｔｅｓ,,株式会社,大阪府,大阪市中央区,博労町１丁目９番８号,,27,128,5410059,,,2025-10-29,合併による解散等,9290001086836,令和７年９月３０日大阪市中央区博労町一丁目９－８堺筋ＭＳビル８Ｆ株式会社Ｇｒａｎｔ（9290001086836）に合併し解散,2022-10-17,1,,,,,グラントビジネスアソシエイツ,0
1766,7120002080253,登記記録の閉鎖等,0,2025-11-05,2025-10-28,有限会社マリコ,,有限会社,大阪府,門真市,末広町４０番１１号,,27,223,5710030,,,2025-10-28,清算の結了等,,,2015-10-05,1,,,,,マリコ,0
1779,7122001013557,登記記録の閉鎖等,0,2025-11-05,2025-10-21,株式会社フェイスワーク,,株式会社,大阪府,東大阪市,南上小阪４番３５号,,27,227,5770814,,,2025-10-21,清算の結了等,,,2015-10-05,1,,,,,フェイスワーク,0
1782,7130001035570,登記記録の閉鎖等,0,2025-11-05,2025-10-31,京都茶華道具館株式会社,,株式会社,京都府,亀岡市,保津町三ノ坪４５番地の１,,26,206,6210005,,,2025-10-31,清算の結了等,,,2015-10-05,1,,,,,キョウトチャカドウグカン,0
1787,7140001039067,登記記録の閉鎖等,0,2025-11-05,2025-10-22,ダブルディアート株式会社,,株式会社,兵庫県,宍粟市,一宮町須行名４０５番地の１,,28,227,6714133,,,2025-10-22,清算の結了等,,,2015-10-05,1,,,,,ダブルディアート,0
1790,7150001021214,登記記録の閉鎖等,0,2025-11-05,2025-10-31,株式会社ＩＫＭ,,株式会社,奈良県,奈良市,芝辻町４丁目２－２新大宮伝宝ビル４Ｆ,00108946,29,201,6308114,,,2025-10-31,清算の結了等,,,2017-01-16,1,,,,,アイケイエム,0
1792,7160001001504,登記記録の閉鎖等,0,2025-11-05,2025-10-31,株式会社日伸開発,,株式会社,滋賀県,大津市,大萱２丁目６番２号,,25,201,5202144,,,2025-10-31,清算の結了等,,,2015-10-05,1,,,,,ニッシンカイハツ,0
1805,7180302020317,登記記録の閉鎖等,0,2025-11-05,2025-10-29,有限会社山源農園,,有限会社,愛知県,碧南市,天神町１丁目２６番地,,23,209,4470033,,,2025-10-29,清算の結了等,,,2015-10-05,1,,,,,ヤマゲンノウエン,0
1810,7200001007298,登記記録の閉鎖等,0,2025-11-05,2025-10-28,大豊工機株式会社,,株式会社,岐阜県,各務原市,鵜沼朝日町２丁目６３番地,,21,213,5090145,,,2025-10-28,清算の結了等,,,2015-10-05,1,,,,,タイホウコウキ,0
1811,7200001014724,登記記録の閉鎖等,0,2025-11-05,2025-10-31,フジコーホーム株式会社,,株式会社,岐阜県,不破郡関ケ原町,大字関ケ原２４９０番地の１１３,,21,362,5031501,,,2025-10-31,合併による解散等,6200001014725,令和７年１０月３１日岐阜県不破郡関ケ原町大字関ケ原２４９０番地の１１３株式会社藤塚工務店（6200001014725）に合併し解散,2015-10-05,1,,,,,フジコーホーム,0
1813,7210001011489,登記記録の閉鎖等,0,2025-11-05,2025-10-30,株式会社エバ,,株式会社,福井県,越前市,神明町２番２４号,,18,209,9150066,,,2025-10-30,清算の結了等,,,2015-10-05,1,,,,,エバ,0
1825,7290001016274,登記記録の閉鎖等,0,2025-11-05,2025-10-03,福八木株式会社,,株式会社,福岡県,福岡市博多区,上川端町４番２２５号,,40,132,8120026,,,2025-10-03,清算の結了等,,,2015-10-05,1,,,,,フクヤギ,0
1826,7290001044416,登記記録の閉鎖等,0,2025-11-05,2025-10-07,株式会社Ｋｅｙ’ｓ,,株式会社,福岡県,朝倉市,中原７９－１,,40,228,8380056,,,2025-10-07,清算の結了等,,,2015-10-05,1,,,,,ケイズ,0
1842,7310001009556,登記記録の閉鎖等,0,2025-11-05,2025-10-31,株式会社浦野淡水,,株式会社,長崎県,西海市,大瀬戸町多以良外郷２５９０番地１,,42,212,8572311,,,2025-10-31,清算の結了等,,,2015-10-05,1,,,,,ウラノタンスイ,0
1843,7310001019670,登記記録の閉鎖等,0,2025-11-05,2025-10-31,甘味処澪株式会社,,株式会社,長崎県,佐世保市,若竹台町３１番地アートインブルーム２０２号室,,42,202,8593204,,,2025-10-31,清算の結了等,,,2025-07-03,1,,,,,カンミドコロミオ,0
1869,7420001016541,登記記録の閉鎖等,0,2025-11-05,2025-10-10,株式会社Ｌ・Ｓ物流,,株式会社,青森県,青森市,大字合子沢字松森２５９番地１４,,02,201,0300134,,,2025-10-10,合併による解散等,1420002000021,令和７年１０月１日青森市大字合子沢字松森２５９番地１４株式会社ロジ・サポート青森（1420002000021）に合併し解散,2019-03-29,1,,,,,エルエスブツリュウ,0
1878,7480003000447,登記記録の閉鎖等,0,2025-11-05,2025-11-04,合同会社プチトマト,,合同会社,徳島県,徳島市,安宅２丁目７番２２号,,36,201,7700863,,,2025-11-04,清算の結了等,,,2015-10-05,1,,,,,プチトマト,0
1884,8010001138005,登記記録の閉鎖等,0,2025-11-05,2025-10-23,オカツーフィッシュブロス株式会社,,株式会社,東京都,江東区,豊洲３丁目６番５－２８０４号,,13,108,1350061,,,2025-10-23,清算の結了等,,,2015-10-05,1,,,,,オカツーフィッシュブロス,0
1892,8010003036529,登記記録の閉鎖等,0,2025-11-05,2025-10-24,ジェイコアレジ４合同会社１,,合同会社,東京都,千代田区,丸の内１丁目４番１号東京共同会計事務所内,,13,101,1000005,,,2025-10-24,清算の結了等,,,2021-12-15,1,,,,,ジェイコアレジフォーイチ,0
1911,8010601006742,登記記録の閉鎖等,0,2025-11-05,2025-10-23,株式会社明勝,,株式会社,東京都,江東区,深川２丁目７番５号,,13,108,1350033,,,2025-10-23,清算の結了等,,,2015-10-05,1,,,,,メイショウ,0
1936,8011602002210,登記記録の閉鎖等,0,2025-11-05,2025-10-29,有限会社小川自動車,,有限会社,東京都,練馬区,豊玉北４丁目８番２２号,,13,120,1760012,,,2025-10-29,清算の結了等,,,2015-10-05,1,,,,,オガワジドウシャ,0
1941,8012301011345,登記記録の閉鎖等,0,2025-11-05,2025-10-29,ＭＥマイホーム計画町田株式会社,,株式会社,東京都,町田市,木曽西３丁目４番３号,,13,209,1940037,,,2025-10-29,合併による解散等,4020001149450,令和７年１０月１日横浜市瀬谷区三ツ境１番地９ブルーヘンビル２階エムイーＰＬＵＳ横浜株式会社（4020001149450）に合併し解散,2018-04-06,1,,,,,エムイーマイホームケイカクマチダ,0
1942,8012401020997,登記記録の閉鎖等,0,2025-11-05,2025-10-27,株式会社阪野コーポレーション,,株式会社,東京都,国分寺市,西恋ヶ窪４丁目２５番地３１,,13,214,1850013,,,2025-10-27,清算の結了等,,,2015-10-05,1,,,,,バンノコーポレーション,0
1953,8020001154348,登記記録の閉鎖等,0,2025-11-05,2025-10-20,株式会社権,,株式会社,神奈川県,川崎市宮前区,初山２丁目２６番２－２号,,14,136,2160026,,,2025-10-20,清算の結了等,,,2023-11-08,1,,,,,,0
1956,8020002044580,登記記録の閉鎖等,0,2025-11-05,2025-10-22,有限会社平尾商店,,有限会社,神奈川県,横浜市中区,花咲町２丁目６３番地,,14,104,2310063,,,2025-10-22,清算の結了等,,,2015-10-05,1,,,,,ヒラオショウテン,0
1957,8020002082060,登記記録の閉鎖等,0,2025-11-05,2025-10-20,有限会社ユニオンセンター,,有限会社,神奈川県,川崎市幸区,戸手２丁目４番１２号,,14,132,2120005,,,2025-10-20,清算の結了等,,,2015-10-05,1,,,,,ユニオンセンター,0
1962,8020003019961,登記記録の閉鎖等,0,2025-11-05,2025-10-22,前田照亀合同会社,,合同会社,神奈川県,横浜市青葉区,美しが丘西３丁目５５番地８１,,14,117,2250001,,,2025-10-22,清算の結了等,,,2021-06-11,1,,,,,マエダテルカメ,0
1963,8020005009894,登記記録の閉鎖等,0,2025-11-05,2025-10-20,特定非営利活動法人子ども支援サポートセンター,,その他の設立登記法人,神奈川県,川崎市川崎区,渡田東町１８番１５号ダイカビル２階,,14,131,2100842,,,2025-10-20,清算の結了等,,,2015-10-05,1,,,,,コドモシエンサポートセンター,0
1980,8030001137145,登記記録の閉鎖等,0,2025-11-05,2025-10-27,株式会社ユーズキャビデザインセクト,,株式会社,埼玉県,新座市,栗原５丁目１５番４号ホワイト・エンジェル１０６号室,,11,230,3520035,,,2025-10-27,清算の結了等,,,2020-07-06,1,,,,,ユーズキャビデザインセクト,0
1984,8030002077811,登記記録の閉鎖等,0,2025-11-05,2025-10-28,有限会社内田エステイト,,有限会社,埼玉県,川越市,石原町１丁目８番地２,,11,201,3500824,,,2025-10-28,清算の結了等,,,2015-10-05,1,,,,,ウチダエステイト,0
1986,8030002116354,登記記録の閉鎖等,0,2025-11-05,2025-10-27,有限会社アンクル,,有限会社,埼玉県,深谷市,上柴町東７丁目２０番地３,,11,218,3660051,,,2025-10-27,清算の結了等,,,2015-10-05,1,,,,,アンクル,0
2002,8050003005447,登記記録の閉鎖等,0,2025-11-05,2025-10-28,ＨｏｍｅＤＥＭＯ合同会社,,合同会社,茨城県,水戸市,見川５丁目１２２４－１,,08,201,3100912,,,2025-10-28,清算の結了等,,,2020-10-27,1,,,,,ホウムデモ,0
2008,8070002014991,登記記録の閉鎖等,0,2025-11-05,2025-10-30,有限会社新野建設,,有限会社,群馬県,安中市,高別当３０３番地の２,,10,211,3790132,,,2025-10-30,清算の結了等,,,2015-10-05,1,,,,,ニイノケンセツ,0
2018,8100002004717,登記記録の閉鎖等,0,2025-11-05,2025-10-27,有限会社松栄,,有限会社,長野県,長野市,大字稲葉１２５８番地１,,20,201,3800911,,,2025-10-27,清算の結了等,,,2015-10-05,1,,,,,マツエイ,0
2026,8120001204514,登記記録の閉鎖等,0,2025-11-05,2025-10-21,サンフロッキー株式会社,,株式会社,大阪府,東大阪市,衣摺６丁目９番２７号,,27,227,5770827,,,2025-10-21,清算の結了等,,,2017-03-22,1,,,,,サンフロッキー,0
2028,8120001258824,登記記録の閉鎖等,0,2025-11-05,2025-10-27,株式会社ビアンココン,,株式会社,大阪府,大阪市中央区,谷町６丁目４番８号,,27,128,5420012,,,2025-10-27,清算の結了等,,,2023-10-13,1,,,,,ビアンココン,0
2033,8120103005777,登記記録の閉鎖等,0,2025-11-05,2025-10-27,合同会社ＮＯＶＡ,,合同会社,大阪府,堺市北区,金岡町５４５番地（９０３号室）,,27,146,5918022,,,2025-10-27,清算の結了等,,,2024-04-11,1,,,,,ノヴァ,0
2042,8122005003000,登記記録の閉鎖等,0,2025-11-05,2025-10-20,一般社団法人セミーロジスティクス,,その他の設立登記法人,大阪府,東大阪市,中石切町６丁目３番５４号,,27,227,5798014,,,2025-10-20,清算の結了等,,,2015-10-05,1,,,,,セミーロジスティクス,0
2043,8130001008451,登記記録の閉鎖等,0,2025-11-05,2025-10-31,株式会社チャイルド社,,株式会社,京都府,京都市西京区,松尾大利町２０番地の４７,,26,111,6158282,,,2025-10-31,清算の結了等,,,2015-10-05,1,,,,,チャイルドシャ,0
2044,8130001047292,登記記録の閉鎖等,0,2025-11-05,2025-10-27,株式会社吉田,,株式会社,京都府,宇治市,小倉町堀池１８番地の２５,,26,204,6110042,,,2025-10-27,清算の結了等,,,2015-10-05,1,,,,,ヨシダ,0
2057,8180001091443,登記記録の閉鎖等,0,2025-11-05,2025-10-22,株式会社ＷＯＲＫＳ,,株式会社,愛知県,名古屋市守山区,今尻町４１３番地,,23,113,4630023,,,2025-10-22,清算の結了等,,,2015-10-05,1,,,,,ワークス,0
2069,8240001030824,登記記録の閉鎖等,0,2025-11-05,2025-10-31,株式会社三拓,,株式会社,広島県,福山市,駅家町大字万能倉１２９５番地の２,,34,207,7201131,,,2025-10-31,清算の結了等,,,2015-10-05,1,,,,,サンタク,0
2080,8260001005741,登記記録の閉鎖等,0,2025-11-05,2025-10-31,株式会社フォーナイン,,株式会社,岡山県,岡山市北区,玉柏４４１番地の１,,33,101,7012142,,,2025-10-31,清算の結了等,,,2015-10-05,1,,,,,フォーナイン,0
2082,8260001017332,登記記録の閉鎖等,0,2025-11-05,2025-10-28,株式会社倉敷精工,,株式会社,岡山県,倉敷市,中畝８丁目５番３７－５号,,33,202,7128051,,,2025-10-28,清算の結了等,,,2015-10-05,1,,,,,クラシキセイコウ,0
2085,8290001013337,登記記録の閉鎖等,0,2025-11-05,2025-10-03,三研食材株式会社,,株式会社,福岡県,福岡市博多区,諸岡５丁目１番１５号,,40,132,8120894,,,2025-10-03,清算の結了等,,,2015-10-05,1,,,,,サンケンショクザイ,0
2089,8290001092678,登記記録の閉鎖等,0,2025-11-05,2025-10-03,株式会社あん,,株式会社,福岡県,筑紫野市,二日市中央３丁目９‐４５‐２０１号,,40,217,8180072,,,2025-10-03,清算の結了等,,,2021-04-13,1,,,,,アン,0
2101,8310001019505,登記記録の閉鎖等,0,2025-11-05,2025-10-29,株式会社田尾礦山,,株式会社,長崎県,五島市,富江町田尾郷１３９０番地,,42,211,8530203,,,2025-10-29,清算の結了等,,,2025-03-24,1,,,,,,0
2102,8310005008495,登記記録の閉鎖等,0,2025-11-05,2025-10-30,一般社団法人ＵＳ,,その他の設立登記法人,長崎県,諫早市,城見町２０番１８－１３０１号,,42,204,8540005,,,2025-10-30,清算の結了等,,,2021-03-16,1,,,,,ユーエス,0
2118,8380002032161,登記記録の閉鎖等,0,2025-11-05,2025-10-27,有限会社寿田薬局,,有限会社,福島県,耶麻郡猪苗代町,字新町４９３０番地,,07,408,9693122,,,2025-10-27,清算の結了等,,,2015-10-05,1,,,,,スダヤッキョク,0
2119,8390001013120,登記記録の閉鎖等,0,2025-11-05,2025-10-31,株式会社ＺＥＮＩＴＨ,,株式会社,山形県,山形市,南栄町１丁目１番４８－２号メゾンソレイユＣ号,,06,201,9902445,,,2025-10-31,清算の結了等,,,2015-10-05,1,,,,,ゼニス,0
2127,8460302004364,登記記録の閉鎖等,0,2025-11-05,2025-11-04,有限会社アグリサポート,,有限会社,北海道,網走郡大空町,東藻琴４９番地の１５,,01,564,0993244,,,2025-11-04,清算の結了等,,,2015-10-05,1,,,,,,0
2138,9010001142303,登記記録の閉鎖等,0,2025-11-05,2025-10-21,株式会社ＰＲＥＭＥＤＩＣＯ,,株式会社,東京都,中央区,日本橋本石町３丁目３番１０号ダイワビル４階,,13,102,1030021,,,2025-10-21,清算の結了等,,,2015-10-05,1,,,,,プレメディコ,0
2160,9010703004271,登記記録の閉鎖等,0,2025-11-05,2025-10-28,ＨＫＮＥＸＴ合同会社,,合同会社,東京都,品川区,東品川３丁目２４番２０,,13,109,1400002,,,2025-10-28,清算の結了等,,,2018-05-21,1,,,,,エイチケーネクスト,0
2168,9010903006687,登記記録の閉鎖等,0,2025-11-05,2025-11-04,Ｓｔｕｄｙｎｅｔ　Ｊａｐａｎ合同会社,,合同会社,東京都,世田谷区,北烏山６丁目１１番３－１００３号,,13,112,1570061,,,2025-11-04,清算の結了等,,,2021-07-27,1,,,,,スタディネットジャパン,0
2178,9011102027351,登記記録の閉鎖等,0,2025-11-05,2025-10-24,フューチャープラス株式会社,,株式会社,東京都,多摩市,貝取１丁目１５番地の６,,13,224,2060012,,,2025-10-24,清算の結了等,,,2015-10-05,1,,,,,フューチャープラス,0
2179,9011103013284,登記記録の閉鎖等,0,2025-11-05,2025-10-01,合同会社ジェイ・イー・エム,,合同会社,東京都,新宿区,下宮比町１番４号,,13,104,1620822,,,2025-10-01,清算の結了等,,,2023-07-24,1,,,,,ジェイイーエム,0
2186,9011802012504,登記記録の閉鎖等,0,2025-11-05,2025-11-04,有限会社幸和,,有限会社,東京都,足立区,南花畑４丁目１２番１２号,,13,121,1210062,,,2025-11-04,清算の結了等,,,2015-10-05,1,,,,,コウワ,0
2188,9011802016240,登記記録の閉鎖等,0,2025-11-05,2025-10-24,有限会社土井工務店,,有限会社,東京都,足立区,新田３丁目３１番１２号,,13,121,1230865,,,2025-10-24,清算の結了等,,,2015-10-05,1,,,,,ドイコウムテン,0
2201,9020001123260,登記記録の閉鎖等,0,2025-11-05,2025-10-10,リバティーソフト株式会社,,株式会社,神奈川県,横浜市保土ケ谷区,和田２丁目１３番２号高橋店舗,,14,106,2400065,,,2025-10-10,清算の結了等,,,2017-10-03,1,,,,,リバティーソフト,0
2211,9021001032055,登記記録の閉鎖等,0,2025-11-05,2025-10-16,湯河原観光事業株式会社,,株式会社,神奈川県,足柄下郡湯河原町,宮上４５８番地,,14,384,2590314,,,2025-10-16,清算の結了等,,,2015-10-05,1,,,,,ユガワラカンコウジギョウ,0
2224,9030001142061,登記記録の閉鎖等,0,2025-11-05,2025-10-27,株式会社ＴＲＹ,,株式会社,埼玉県,川口市,本前川３丁目３０番１２号,,11,203,3330849,,,2025-10-27,清算の結了等,,,2021-05-10,1,,,,,トライ,0
2244,9040002054395,登記記録の閉鎖等,0,2025-11-05,2025-10-06,日本テクノ有限会社,,有限会社,千葉県,流山市,西初石２丁目９２９番地の１ルネサンス初石５０７,,12,220,2700121,,,2025-10-06,清算の結了等,,,2015-10-05,1,,,,,ニホンテクノ,0
2246,9050001001091,登記記録の閉鎖等,0,2025-11-05,2025-10-27,佐藤製本株式会社,,株式会社,茨城県,水戸市,元石川町２５２２番地の４５,,08,201,3100843,,,2025-10-27,清算の結了等,,,2015-10-05,1,,,,,サトウセイホン,0
2255,9070001023976,登記記録の閉鎖等,0,2025-11-05,2025-10-30,株式会社ミツウロコヴェッセル草津,,株式会社,群馬県,吾妻郡草津町,大字前口４１１番地２,,10,426,3771712,,,2025-10-30,合併による解散等,9070001014348,令和７年１０月１日東京都中央区京橋三丁目１番１号株式会社ミツウロコヴェッセル（9070001014348）に合併し解散,2015-10-05,1,,,,,ミツウロコヴェッセルクサツ,0
2260,9080101017555,登記記録の閉鎖等,0,2025-11-05,2025-11-04,株式会社フレミア,,株式会社,静岡県,沼津市,岡宮１０１２番地の１,,22,203,4100011,,,2025-11-04,合併による解散等,4021001034989,令和７年１１月１日静岡県沼津市岡宮１０１２番地の１キャピタルランド株式会社（4021001034989）に合併し解散,2015-10-05,1,,,,,フレミア,0
2269,9110002002545,登記記録の閉鎖等,0,2025-11-05,2025-10-28,有限会社佐藤製作所,,有限会社,新潟県,新潟市東区,月見町２番４号,,15,102,9500061,,,2025-10-28,清算の結了等,,,2015-10-05,1,,,,,サトウセイサクジョ,0
2287,9120002001678,登記記録の閉鎖等,0,2025-11-05,2025-10-30,有限会社入山商会,,有限会社,大阪府,大阪市北区,茶屋町６番２号水野ビル,,27,127,5300013,,,2025-10-30,清算の結了等,,,2015-10-05,1,,,,,イリヤマショウカイ,0
2295,9120901008096,登記記録の閉鎖等,0,2025-11-05,2025-10-20,ビル設備管理株式会社,,株式会社,大阪府,吹田市,原町２丁目３４番１３号,,27,205,5640004,,,2025-10-20,清算の結了等,,,2015-10-05,1,,,,,ビルセツビカンリ,0
2298,9130001006165,登記記録の閉鎖等,0,2025-11-05,2025-11-04,株式会社河内工務店,,株式会社,滋賀県,大津市,本堅田４丁目１５番２５－９０６号,,25,201,5200242,,,2025-11-04,清算の結了等,,,2015-10-05,1,,,,,カワウチコウムテン,0
2310,9180001078720,登記記録の閉鎖等,0,2025-11-05,2025-10-28,株式会社佳五,,株式会社,愛知県,瀬戸市,矢形町３番地,,23,204,4890866,,,2025-10-28,清算の結了等,,,2015-10-05,1,,,,,カゴ,0
2313,9180001121208,登記記録の閉鎖等,0,2025-11-05,2025-10-31,ブルースカイランドリー株式会社,,株式会社,愛知県,名古屋市中区,丸の内１丁目１５番２０号,,23,106,4600002,,,2025-10-31,合併による解散等,6180001089209,令和７年１０月３１日名古屋市中区丸の内一丁目１６番１５号株式会社ジーアイビー（6180001089209）に合併し解散,2015-12-03,1,,,,,ブルースカイランドリー,0
2314,9180001139373,登記記録の閉鎖等,0,2025-11-05,2025-10-28,株式会社ＡＲＭＹペイント,,株式会社,愛知県,春日井市,鳥居松町７丁目４８番地５,,23,206,4860844,,,2025-10-28,清算の結了等,,,2019-12-26,1,,,,,アーミーペイント,0
2317,9180002080519,登記記録の閉鎖等,0,2025-11-05,2025-10-22,オガワ商事有限会社,,有限会社,愛知県,稲沢市,駅前１丁目１０番９号,,23,220,4928143,,,2025-10-22,清算の結了等,,,2015-10-05,1,,,,,オガワショウジ,0
2323,9200002007147,登記記録の閉鎖等,0,2025-11-05,2025-10-28,有限会社大堀管財,,有限会社,岐阜県,各務原市,鵜沼朝日町２丁目６３番地,,21,213,5090145,,,2025-10-28,清算の結了等,,,2015-10-05,1,,,,,オオホリカンザイ,0
2333,9240002048947,登記記録の閉鎖等,0,2025-11-05,2025-10-30,有限会社葵設計システム,,有限会社,広島県,安芸郡府中町,千代１番３８号,,34,302,7350027,,,2025-10-30,清算の結了等,,,2015-10-05,1,,,,,アオイセッケイシステム,0
2339,9270002007909,登記記録の閉鎖等,0,2025-11-05,2025-10-30,有限会社福瀬建設,,有限会社,鳥取県,境港市,竹内町２３６０番地１,,31,204,6840043,,,2025-10-30,清算の結了等,,,2015-10-05,1,,,,,フクセケンセツ,0
2344,9290001022601,登記記録の閉鎖等,0,2025-11-05,2025-10-30,株式会社プロテック,,株式会社,福岡県,福岡市中央区,高砂１丁目９番３号,,40,133,8100011,,,2025-10-30,合併による解散等,8011001047006,令和７年１０月１日東京都千代田区丸の内一丁目８番２号ほけんの窓口グループ株式会社（8011001047006）に合併し解散,2015-10-05,1,,,,,,0
2346,9290001061079,登記記録の閉鎖等,0,2025-11-05,2025-10-03,株式会社和一交易,,株式会社,福岡県,福岡市博多区,吉塚３丁目３１番６１号,,40,132,8120041,,,2025-10-03,清算の結了等,,,2015-10-05,1,,,,,ワイチコウエキ,0
2362,9300003001089,登記記録の閉鎖等,0,2025-11-05,2025-10-03,合同会社ＪＳＨ,,合同会社,福岡県,久留米市,新合川２丁目１番１３－５０２号,,40,203,8390865,,,2025-10-03,清算の結了等,,,2015-10-05,1,,,,,ジェイエスエイチ,0
2364,9330005009813,登記記録の閉鎖等,0,2025-11-05,2025-10-29,一般社団法人みもら,,その他の設立登記法人,熊本県,熊本市北区,鶴羽田１丁目５番１９号,,43,105,8615517,,,2025-10-29,清算の結了等,,,2018-02-02,1,,,,,ミモラ,0
2379,9430001044003,登記記録の閉鎖等,0,2025-11-05,2025-10-23,北海道塗装工業株式会社,,株式会社,北海道,千歳市,朝日町４丁目２９番地,,01,224,0660043,,,2025-10-23,清算の結了等,,,2015-10-05,1,,,,,ホッカイドウトソウコウギョウ,0
2383,9450002004838,登記記録の閉鎖等,0,2025-11-05,2025-10-30,有限会社ボックス,,有限会社,北海道,旭川市,亀吉二条１丁目４番２０号,,01,204,0700082,,,2025-10-30,清算の結了等,,,2015-10-05,1,,,,,ボックス,0
2387,9500002010756,登記記録の閉鎖等,0,2025-11-05,2025-11-04,有限会社イーエル,,有限会社,愛媛県,伊予郡砥部町,五本松１３４番地,,38,402,7912133,,,2025-11-04,清算の結了等,,,2015-10-05,1,,,,,イーエル,0
