sequenceNumber,corporateNumber,process,correct,updateDate,changeDate,name,nameImageId,kind,prefectureName,cityName,streetNumber,addressImageId,prefectureCode,cityCode,postCode,addressOutside,addressOutsideImageId,closeDate,closeCause,successorCorporateNumber,changeCause,assignmentDate,latest,enName,enPrefectureName,enCityName,enAddressOutside,furigana,hihyoji
6,1010001236046,新規,0,2023-06-15,2023-06-15,株式会社ＳＨＩＮＡＮＯＫＩ,,株式会社,東京都,中央区,銀座１丁目１２番４号Ｎ＆ＥＢＬＤ．６Ｆ,,13,102,1040061,,,,,,,2023-06-15,1,,,,,シナノキ,0
7,1010001236129,新規,0,2023-06-15,2023-06-15,株式会社ＳＫＹ　ＣＡＳＴＬＥ　ＦＩＬＭ,,株式会社,東京都,千代田区,九段北１丁目１０番１号九段勧業ビル５階,,13,101,1020073,,,,,,,2023-06-15,1,,,,,スカイキャッスルフィルム,0
8,1010001236137,新規,0,2023-06-15,2023-06-15,ＤｅｅｐＢｌｕｅ　Ｎｅｔｗｏｒｋ株式会社,,株式会社,東京都,千代田区,神田三崎町２丁目１０番１１号Ｐｅｇビル３Ｂ－５,,13,101,1010061,,,,,,,2023-06-15,1,,,,,ディップブルーネットワーク,0
14,1010003040850,新規,0,2023-06-15,2023-06-15,ＬＩＦＩＸ合同会社,,合同会社,東京都,文京区,千駄木３丁目４８番２号Ｕｃｏｕｒｔ千駄木４０２,,13,105,1130022,,,,,,,2023-06-15,1,,,,,リフィックス,0
15,1010003040867,新規,0,2023-06-15,2023-06-15,合同会社Ｙｏｓｈｉｔａｔｓｕ,,合同会社,東京都,中央区,銀座１丁目２２番１１号,,13,102,1040061,,,,,,,2023-06-15,1,,,,,ヨシタツ,0
19,1010401175001,新規,0,2023-06-15,2023-06-15,ＵＮＯＭＩ株式会社,,株式会社,東京都,港区,三田１丁目２番１８号ＴＴＤビル,,13,103,1080073,,,,,,,2023-06-15,1,,,,,ウノミ,0
20,1010401175018,新規,0,2023-06-15,2023-06-15,ＪＰ９９‐ｓｑｕｉｓｈｙ株式会社,,株式会社,東京都,港区,赤坂４丁目１３番５号,,13,103,1070052,,,,,,,2023-06-15,1,,,,,ジェーピーキューキュースクイシイ,0
21,1010401175050,新規,0,2023-06-15,2023-06-15,株式会社メイプル,,株式会社,東京都,港区,芝３丁目８番２号,,13,103,1050014,,,,,,,2023-06-15,1,,,,,メイプル,0
22,1010401175059,新規,0,2023-06-15,2023-06-15,ｔｈｅ　Ｍｉｒａｃｌｅ株式会社,,株式会社,東京都,港区,赤坂４丁目１３番８－５０２号,,13,103,1070052,,,,,,,2023-06-15,1,,,,,ザミラクル,0
23,1010401175091,新規,0,2023-06-15,2023-06-15,正信ソーラージャパン株式会社,,株式会社,東京都,港区,浜松町２丁目２番１５号,,13,103,1050013,,,,,,,2023-06-15,1,,,,,セイシンソーラージャパン,0
24,1010401175109,新規,0,2023-06-15,2023-06-15,株式会社ＫＪＢ,,株式会社,東京都,港区,元麻布２丁目１２番３号元麻布マンション２０２号,,13,103,1060046,,,,,,,2023-06-15,1,,,,,ケージェイビー,0
26,1010501050599,新規,0,2023-06-15,2023-06-15,ＦＩＲＳＴ　ＷＩＮＴＯＰ　ＬＯＧＩＳＴＩＣＳ株式会社,,株式会社,東京都,台東区,上野２丁目７番７号,,13,106,1100005,,,,,,,2023-06-15,1,,,,,ファーストウィントップロジスティクス,0
27,1010503007044,新規,0,2023-06-15,2023-06-15,ＰＡＣＩＦＩＣ　ＧＡＴＥ合同会社,,合同会社,東京都,台東区,上野７丁目１３番１０－６１２号,,13,106,1100005,,,,,,,2023-06-15,1,,,,,パシフィックゲート,0
39,1010901053243,新規,0,2023-06-15,2023-06-15,Ｂ‐ＹＯＵＴＨ株式会社,,株式会社,東京都,世田谷区,池尻３丁目１６番２４－１０５号,,13,112,1540001,,,,,,,2023-06-15,1,,,,,ビーユース,0
58,1011103013151,新規,0,2023-06-15,2023-06-15,ＨＩＦ　ＦＵＮＤ６号合同会社,,合同会社,東京都,新宿区,西新宿６丁目２１番１号アイタウン・プラザ２０３号,,13,104,1600023,,,,,,,2023-06-15,1,,,,,エイチアイエフファンドロクゴウ,0
59,1011105010691,新規,0,2023-06-15,2023-06-15,一般社団法人淡路町ＧＰ,,その他の設立登記法人,東京都,新宿区,四谷２丁目９番地１５東京ユナイテッド綜合事務所内,,13,104,1600004,,,,,,,2023-06-15,1,,,,,アワジチョウジーピー,0
69,1011501029427,新規,0,2023-06-15,2023-06-15,星和株式会社,,株式会社,東京都,北区,浮間１丁目１番１４号リムジンビル３２３,,13,117,1150051,,,,,,,2023-06-15,1,,,,,セイワ,0
70,1011501029435,新規,0,2023-06-15,2023-06-15,株式会社ＮＡ建築設計事務所,,株式会社,東京都,北区,東田端１丁目３番５－６０６号コスモ田端グレイスフォーム,,13,117,1140013,,,,,,,2023-06-15,1,,,,,エヌエイケンチクセッケイジムショ,0
71,1011503005649,新規,0,2023-06-15,2023-06-15,ＩＳコンサルティング合同会社,,合同会社,東京都,北区,赤羽南１丁目４番１２号－４０４,,13,117,1150044,,,,,,,2023-06-15,1,,,,,アイエスコンサルティング,0
74,1011603003957,新規,0,2023-06-15,2023-06-15,ＴＦカペラ合同会社,,合同会社,東京都,練馬区,氷川台４丁目４７番１８号,,13,120,1790084,,,,,,,2023-06-15,1,,,,,ティーエフカペラ,0
79,1012301013488,新規,0,2023-06-15,2023-06-15,ＳＭＢ株式会社,,株式会社,東京都,町田市,中町１丁目２番２号森町ビル１Ｆ,,13,209,1940021,,,,,,,2023-06-15,1,,,,,エスエムビイ,0
83,1013303006661,新規,0,2023-06-15,2023-06-15,ＡＲＩＵＮ合同会社,,合同会社,東京都,豊島区,南池袋１丁目９番１８号２２７号室,,13,116,1710022,,,,,,,2023-06-15,1,,,,,アリウン,0
90,1030001154213,新規,0,2023-06-15,2023-06-15,株式会社リブラテック,,株式会社,埼玉県,蕨市,塚越３丁目１３番１４号,,11,223,3350002,,,,,,,2023-06-15,1,,,,,リブラテック,0
91,1030001154411,新規,0,2023-06-15,2023-06-15,株式会社ハレカ,,株式会社,埼玉県,川口市,桜町１丁目５番１８号,,11,203,3340001,,,,,,,2023-06-15,1,,,,,ハレカ,0
94,1050001053000,新規,0,2023-06-15,2023-06-15,株式会社煌,,株式会社,茨城県,水戸市,大塚町１８８４番地の２クレストハウスＢ棟１０２号,,08,201,3114143,,,,,,,2023-06-15,1,,,,,キラメキ,0
97,1050003007581,新規,0,2023-06-15,2023-06-15,ＫＫＳ　ＪＡＰＡＮ合同会社,,合同会社,茨城県,猿島郡境町,大字染谷１４４３番地１,,08,546,3060421,,,,,,,2023-06-15,1,,,,,ケイケイエスジャパン,0
98,1060001036086,新規,0,2023-06-15,2023-06-15,株式会社支縁,,株式会社,栃木県,宇都宮市,越戸３丁目５番８号,,09,201,3210951,,,,,,,2023-06-15,1,,,,,シエン,0
100,1060003004603,新規,0,2023-06-15,2023-06-15,ＴＡＤＹ合同会社,,合同会社,栃木県,小山市,駅東通り１丁目３１番１６号柏コーポ４０２号,,09,208,3230022,,,,,,,2023-06-15,1,,,,,,0
125,1120001255613,新規,0,2023-06-15,2023-06-15,株式会社甲森,,株式会社,大阪府,大阪市西区,千代崎２丁目１２番６号７階,,27,106,5500023,,,,,,,2023-06-15,1,,,,,ヨロイモリ,0
126,1120001255654,新規,0,2023-06-15,2023-06-15,株式会社ビジョン．ホールディングス,,株式会社,大阪府,大阪市北区,野崎町６番７号,,27,127,5300055,,,,,,,2023-06-15,1,,,,,ビジョンホールディングス,0
127,1120001255695,新規,0,2023-06-15,2023-06-15,株式会社クラブウラノス,,株式会社,大阪府,大阪市北区,西天満３丁目７番１７号,,27,127,5300047,,,,,,,2023-06-15,1,,,,,クラブウラノス,0
128,1120001255704,新規,0,2023-06-15,2023-06-15,ＢＵＺＭ株式会社,,株式会社,大阪府,大阪市西区,京町堀２丁目８－２４メゾンカルム４０１,,27,106,5500003,,,,,,,2023-06-15,1,,,,,バズム,0
129,1120001255712,新規,0,2023-06-15,2023-06-15,株式会社２９６０,,株式会社,大阪府,大阪市淀川区,西中島７丁目１２－２３ホーククレセント第一ビル６Ｆ,,27,123,5320011,,,,,,,2023-06-15,1,,,,,フクロクジュウ,0
130,1120001255729,新規,0,2023-06-15,2023-06-15,Ａｉｐｉｃｔｏｒｓ株式会社,,株式会社,大阪府,大阪市淀川区,東三国６丁目１２－１１,,27,123,5320002,,,,,,,2023-06-15,1,,,,,エーアイピクターズ,0
131,1120001255778,新規,0,2023-06-15,2023-06-15,株式会社門井事務所,,株式会社,大阪府,大阪市東淀川区,大道南３丁目１０番２６号,,27,114,5330012,,,,,,,2023-06-15,1,,,,,カドイジムショ,0
136,1120101067743,新規,0,2023-06-15,2023-06-15,株式会社Ｍａｓｔｅｒ’ｓ,,株式会社,大阪府,岸和田市,春木本町７－１ロイヤルヴェール山下１０４,,27,202,5960034,,,,,,,2023-06-15,1,,,,,マスターズ,0
145,1140001130525,新規,0,2023-06-15,2023-06-15,株式会社ＴＫＨ,,株式会社,兵庫県,姫路市,岡田３５０番地１ジヴェルニー岡田９０３,,28,201,6700982,,,,,,,2023-06-15,1,,,,,ティーケーエイチ,0
146,1140001130541,新規,0,2023-06-15,2023-06-15,株式会社ユウアンドアイ,,株式会社,兵庫県,神戸市須磨区,大手町７丁目５番２７号,,28,107,6540013,,,,,,,2023-06-15,1,,,,,ユウアンドアイ,0
149,1150001026482,新規,0,2023-06-15,2023-06-15,株式会社プラスＯＮＥ,,株式会社,奈良県,北葛城郡王寺町,久度２丁目２番２号１００８,,29,425,6360003,,,,,,,2023-06-15,1,,,,,プラスワン,0
153,1180001156772,新規,0,2023-06-15,2023-06-15,ＮＡＴＵＲＡＬ　ＢＥＡＵＴＹ　ＯＣＥＡＮＳ株式会社,,株式会社,愛知県,名古屋市東区,泉３丁目１７番１０号泉ビル３階,,23,102,4610001,,,,,,,2023-06-15,1,,,,,ナチュラルビューティーオーシャンズ,0
154,1180001156780,新規,0,2023-06-15,2023-06-15,株式会社日本クリーンスタッフ,,株式会社,愛知県,名古屋市天白区,大坪２丁目１８０８番地天野ビル１０２号,,23,116,4680072,,,,,,,2023-06-15,1,,,,,ニホンクリーンスタッフ,0
158,1180003025265,新規,0,2023-06-15,2023-06-15,合同会社まほろばコンサル,,合同会社,愛知県,名古屋市瑞穂区,東栄町４丁目７番地の１,,23,108,4670017,,,,,,,2023-06-15,1,,,,,シャマホロバコンサル,0
168,1180303005743,新規,0,2023-06-15,2023-06-15,合同会社ＢＡＬＯＲＡＭＡ,,合同会社,愛知県,豊橋市,向山町字三ノ輪１３番地６,,23,201,4400864,,,,,,,2023-06-15,1,,,,,バロラマ,0
176,1210001019356,新規,0,2023-06-15,2023-06-15,株式会社ＭＥＭＥ,,株式会社,福井県,敦賀市,＿生野８３号２番地の１９,00130861,18,202,9140000,,,,,,,2023-06-15,1,,,,,メメ,0
177,1230005009310,新規,0,2023-06-15,2023-06-15,トラスト協同組合,,その他の設立登記法人,富山県,富山市,婦中町田島５４６番地３,,16,201,9392702,,,,,,,2023-06-15,1,,,,,トラスト,0
201,1290003014026,新規,0,2023-06-15,2023-06-15,合同会社福岡ビルマネージメント,,合同会社,福岡県,福岡市東区,香住ヶ丘４丁目９番１８号,,40,131,8130003,,,,,,,2023-06-15,1,,,,,フクオカビルマネージメント,0
217,1340003004153,新規,0,2023-06-15,2023-06-15,合同会社ユメカケル,,合同会社,鹿児島県,鹿児島市,中山町１９６５番地１,,46,201,8910105,,,,,,,2023-06-15,1,,,,,ユメカケル,0
218,1350005006163,新規,0,2023-06-15,2023-06-15,サンマンション大塚管理組合法人,,その他の設立登記法人,宮崎県,宮崎市,大塚町窪田３２７２番地,,45,201,8800951,,,,,,,2023-06-15,1,,,,,サンマンションオオツカ,0
222,1370001050089,新規,0,2023-06-15,2023-06-15,株式会社ＬＥＡＤ・Ｌｉｖｉｎｇ,,株式会社,宮城県,仙台市泉区,上谷刈字羽黒山６番地の５９,,04,105,9813121,,,,,,,2023-06-15,1,,,,,リードリビング,0
236,1430001089352,新規,0,2023-06-15,2023-06-15,株式会社海ノ月,,株式会社,北海道,札幌市西区,西野十条８丁目１３番８号,,01,107,0630040,,,,,,,2023-06-15,1,,,,,ウミノツキ,0
241,1480001012128,新規,0,2023-06-15,2023-06-15,株式会社川野工務店,,株式会社,徳島県,名西郡石井町,石井字白鳥３３番地１,,36,341,7793234,,,,,,,2023-06-15,1,,,,,カワノコウムテン,0
242,1500001025003,新規,0,2023-06-15,2023-06-15,Ｂｏｅｈｍｅｒ　ＣＡＭ　Ｒｅｖｏｌｕｔｉｏｎ株式会社,,株式会社,愛媛県,松山市,千舟町４丁目１－４ヒラキビル２０１,,38,201,7900011,,,,,,,2023-06-15,1,,,,,ベイマーキャムレボリューション,0
244,1700150117464,新規,0,2023-06-15,2023-06-15,ＧＵＡＮＧＺＨＯＵ　ＨＵＡＬＡＩ　ＴＲＡＤＩＮＧ　ＣＯ．，ＬＴＤ．,,外国会社等,,,,,,,,Ｒｏｏｍ　２０５　Ｂｕｉｌｄｉｎｇ　Ｎｏ．１　Ｙａｒｄ　Ｎｏ．１　ＨｅＺｈｅｎｇＪｉｅ　ＢａｉＹｕｎ　Ｄｉｓｔｒｉｃｔ　Ｇｕａｎｇｚｈｏｕ　Ｇｕａｎｇｄｏｎｇ　５１００００　ＣＮ,,,,,,2023-06-15,1,,,,,グワンジヨウシーフワーライマオイーヨウシエンゴンスー,0
245,1700150117480,新規,0,2023-06-15,2023-06-15,Ｓｈｅｎｚｈｅｎｓｈｉ　Ｈａｉｃｈｕａｎｇｓｈａｎｇｗｕｙｏｕｘｉａｎｇｏｎｇｓｉ,,外国会社等,,,,,,,,ｆｕｔｉａｎｑｕｓｈａｔｏｕｊｉｅｄａｏｔｉａｎａｎｓｈｅｑｕｔａｉｒａｎｓｉｌｕ　ｔａｉｒａｎｋｅｊｉｙｕａｎ１０３ｄｏｎｇ３２５　Ｓｈｅｎｚｈｅｎｓｈｉ　Ｇｕａｎｇｄｏｎｇｓｈｅｎｇ　ＣＮ,,,,,,2023-06-15,1,,,,,シンセンシハイツゥアンシャンウユウゲンコウシ,0
246,1700150117489,新規,0,2023-06-15,2023-06-15,ｓｈａｎｔｏｕｓｈｉ　ｌｅｅｒｋｅｊｉ　ｙｏｕｘｉａｎｇｏｎｇｓｉ,,外国会社等,,,,,,,,ｇｕａｎｇｄｏｎｇｓｈｅｎｇ　ｓｈａｎｔｏｕｓｈｉ　ｌｏｎｇｈｕｑｕ　ｓｏｎｇｓｈａｎｌｕ　１１８ｈａｏＡｄｏｎｇ６７６,,,,,,2023-06-15,1,,,,,シャントウシレエルケジユウゲンコウシ,0
247,1700150117497,新規,0,2023-06-15,2023-06-15,ＴＯＫＹＯ　ＷＨＥＥＬＳ,,外国会社等,千葉県,長生郡長生村,水口１２４１番地３２オフィス１号,,12,423,2994335,スリランカ民主社会主義共和国、クルネガラ、マッラワピティヤ、タッキヤロード、１１０－１,,,,,,2023-06-15,1,,,,,トウキヨウホイールズ,0
256,2010001236169,新規,0,2023-06-15,2023-06-15,株式会社三共新設,,株式会社,東京都,中央区,日本橋室町４丁目１番１４号,,13,102,1030022,,,,,,,2023-06-15,1,,,,,サンキョウシンセツ,0
257,2010003040866,新規,0,2023-06-15,2023-06-15,Ｅｎｊｏｙ　Ｔｏｋｙｏ合同会社,,合同会社,東京都,文京区,弥生２丁目１４番８－１０６号,,13,105,1130032,,,,,,,2023-06-15,1,,,,,インジョイトウキョウ,0
258,2010003040874,新規,0,2023-06-15,2023-06-15,合同会社ピーアールジェイ・パートナーズ,,合同会社,東京都,千代田区,二番町３番地４,,13,101,1020084,,,,,,,2023-06-15,1,,,,,ピーアールジェイパートナーズ,0
259,2010003040890,新規,0,2023-06-15,2023-06-15,合同会社ＢＣＪ‐７３,,合同会社,東京都,千代田区,丸の内１丁目１番１号パレスビル５階,,13,101,1000005,,,,,,,2023-06-15,1,,,,,ビーシージェイセブンティースリー,0
277,2010401175017,新規,0,2023-06-15,2023-06-15,株式会社Ａｒｃｔｕｒｕｓ,,株式会社,東京都,港区,芝浦４丁目１２－３６－１９０７,,13,103,1080023,,,,,,,2023-06-15,1,,,,,アークトゥールス,0
278,2010401175033,新規,0,2023-06-15,2023-06-15,株式会社子育てサポートリアルティ,,株式会社,東京都,港区,港南１丁目２番７０号,,13,103,1080075,,,,,,,2023-06-15,1,,,,,コソダテサポートリアルティ,0
279,2010401175090,新規,0,2023-06-15,2023-06-15,トランス不動産株式会社,,株式会社,東京都,港区,新橋１丁目１８番２１号第一日比谷ビル６１４,,13,103,1050004,,,,,,,2023-06-15,1,,,,,トランスフドウサン,0
280,2010403030319,新規,0,2023-06-15,2023-06-15,合同会社ＨＲＭＴ,,合同会社,東京都,港区,台場１丁目１番２－１３０７号,,13,103,1350091,,,,,,,2023-06-15,1,,,,,エッチアールエムティー,0
281,2010403030327,新規,0,2023-06-15,2023-06-15,合同会社クロスフレームラボ,,合同会社,東京都,港区,浜松町２丁目２番１５号浜松町ダイヤビル２Ｆ,,13,103,1050013,,,,,,,2023-06-15,1,,,,,クロスフレームラボ,0
285,2010601063269,新規,0,2023-06-15,2023-06-15,株式会社アザステ,,株式会社,東京都,江東区,豊洲５丁目５－１－３６０３,,13,108,1350061,,,,,,,2023-06-15,1,,,,,アザステ,0
290,2010703006737,新規,0,2023-06-15,2023-06-15,合同会社Ｗ,,合同会社,東京都,品川区,西五反田８丁目１０－２１,,13,109,1410031,,,,,,,2023-06-15,1,,,,,ダブル,0
291,2010801034045,新規,0,2023-06-15,2023-06-15,株式会社インボイスクアッド,,株式会社,東京都,大田区,大森西１丁目１５番３号,,13,111,1430015,,,,,,,2023-06-15,1,,,,,インボイスクアッド,0
292,2010801034053,新規,0,2023-06-15,2023-06-15,株式会社響喜,,株式会社,東京都,大田区,東雪谷４丁目２４番４号,,13,111,1450065,,,,,,,2023-06-15,1,,,,,ヒビキ,0
295,2010901053242,新規,0,2023-06-15,2023-06-15,株式会社ＳＨＡＫＥ　ＨＡＮＤＳ,,株式会社,東京都,世田谷区,喜多見６丁目２３番４号ソレアード成城南Ｄ棟１,,13,112,1570067,,,,,,,2023-06-15,1,,,,,シェイクハンズ,0
315,2011603003956,新規,0,2023-06-15,2023-06-15,合同会社万ノ木コーポレーション,,合同会社,東京都,練馬区,羽沢２丁目１１番８号,,13,120,1760003,,,,,,,2023-06-15,1,,,,,マンノキコーポレーション,0
326,2012401040638,新規,0,2023-06-15,2023-06-15,株式会社ハニカム,,株式会社,東京都,調布市,調布ケ丘２丁目１２番１号調布ザ・ハウス１０４,,13,208,1820021,,,,,,,2023-06-15,1,,,,,ハニカム,0
328,2012703002732,新規,0,2023-06-15,2023-06-15,合同会社レイヴン,,合同会社,東京都,東村山市,青葉町３丁目３２番地２１コーポ秋津２０７,,13,213,1890002,,,,,,,2023-06-15,1,,,,,レイヴン,0
334,2020001152118,新規,0,2023-06-15,2023-06-15,株式会社Ｃａｓａ,,株式会社,神奈川県,横浜市港北区,菊名１丁目１６番２３号,,14,109,2220011,,,,,,,2023-06-15,1,,,,,カーサ,0
340,2020003024059,新規,0,2023-06-15,2023-06-15,合同会社ｍａｒｕｍｅｒｏ,,合同会社,神奈川県,横浜市旭区,白根２丁目３１番１―６０２号,,14,112,2410005,,,,,,,2023-06-15,1,,,,,マルメロ,0
344,2021001079342,新規,0,2023-06-15,2023-06-15,哲希株式会社,,株式会社,神奈川県,伊勢原市,桜台１丁目９－５,,14,214,2591132,,,,,,,2023-06-15,1,,,,,テツキ,0
353,2030001154377,新規,0,2023-06-15,2023-06-15,カヤ株式会社,,株式会社,埼玉県,川口市,上青木西３丁目１０番６号,,11,203,3330845,,,,,,,2023-06-15,1,,,,,カヤ,0
359,2040001128784,新規,0,2023-06-15,2023-06-15,株式会社Ｈｕｇ‐Ｍｅ,,株式会社,千葉県,八千代市,緑が丘西３丁目８番地１０,,12,221,2760040,,,,,,,2023-06-15,1,,,,,ハグミィ,0
360,2040001128842,新規,0,2023-06-15,2023-06-15,株式会社ノイルーエ,,株式会社,千葉県,八千代市,八千代台南１丁目３１番１２号,,12,221,2760033,,,,,,,2023-06-15,1,,,,,ノイルーエ,0
364,2050001052991,新規,0,2023-06-15,2023-06-15,株式会社龍木,,株式会社,茨城県,龍ケ崎市,長山４丁目１番地３５,,08,208,3010042,,,,,,,2023-06-15,1,,,,,リュウボク,0
365,2060001036085,新規,0,2023-06-15,2023-06-15,Ｈａｒｅｔｏ　Ｄｅｓｉｇｎ株式会社,,株式会社,栃木県,さくら市,上阿久津１４０６番地１,,09,214,3291316,,,,,,,2023-06-15,1,,,,,ハレトデザイン,0
370,2090005007575,新規,0,2023-06-15,2023-06-15,一般社団法人みあげて,,その他の設立登記法人,山梨県,西八代郡市川三郷町,市川大門１７７７番地１,,19,346,4093601,,,,,,,2023-06-15,1,,,,,ミアゲテ,0
371,2100001036519,新規,0,2023-06-15,2023-06-15,株式会社ＫＡＲＩＮＯ・ＬＸ,,株式会社,長野県,松本市,並柳４丁目１４番１１号,,20,202,3900825,,,,,,,2023-06-15,1,,,,,カリーノエルエックス,0
372,2100003007047,新規,0,2023-06-15,2023-06-15,Ｈ２Ｉｎｎｏｖａｔｏｒ合同会社,,合同会社,長野県,北安曇郡白馬村,大字北城１４９２０－２８３,,20,485,3999301,,,,,,,2023-06-15,1,,,,,エイチツーイノベーター,0
376,2110003005090,新規,0,2023-06-15,2023-06-15,合同会社愛ＹＡＭＡＤＡ,,合同会社,新潟県,新潟市中央区,大島１０６番地１,,15,103,9500953,,,,,,,2023-06-15,1,,,,,アイヤマダ,0
389,2120001255703,新規,0,2023-06-15,2023-06-15,株式会社アベンジャーズ,,株式会社,大阪府,大阪市平野区,平野元町４番７－１０１号,,27,126,5470047,,,,,,,2023-06-15,1,,,,,アベンジャーズ,0
390,2120001255711,新規,0,2023-06-15,2023-06-15,株式会社シルナジャパン,,株式会社,大阪府,大阪市中央区,本町橋２番２４号,,27,128,5400029,,,,,,,2023-06-15,1,,,,,シルナジャパン,0
391,2120001255728,新規,0,2023-06-15,2023-06-15,ビズファウンド株式会社,,株式会社,大阪府,交野市,東倉治５丁目４番１７号,,27,230,5760061,,,,,,,2023-06-15,1,,,,,ビズファウンド,0
392,2120001255736,新規,0,2023-06-15,2023-06-15,株式会社松本組,,株式会社,大阪府,寝屋川市,国松町４５番６号,,27,215,5720016,,,,,,,2023-06-15,1,,,,,マツモトグミ,0
394,2120101067734,新規,0,2023-06-15,2023-06-15,株式会社ＮＭＫ,,株式会社,大阪府,堺市北区,百舌鳥赤畑町２丁９４番地６、２Ｆ,,27,146,5918037,,,,,,,2023-06-15,1,,,,,エヌエムケー,0
395,2120101067750,新規,0,2023-06-15,2023-06-15,サニーオート株式会社,,株式会社,大阪府,松原市,天美我堂７丁目４９８番地の３,,27,217,5800026,,,,,,,2023-06-15,1,,,,,サニーオート,0
412,2140001130532,新規,0,2023-06-15,2023-06-15,ＴＣ株式会社,,株式会社,兵庫県,神戸市中央区,多聞通１丁目３番１１号ハイツ神戸２１１号室,,28,110,6500015,,,,,,,2023-06-15,1,,,,,ティーシー,0
418,2150003002984,新規,0,2023-06-15,2023-06-15,奈良山月合同会社,,合同会社,奈良県,奈良市,四条大路１丁目３番２０－１１号,,29,201,6308014,,,,,,,2023-06-15,1,,,,,ナラサンゲツ,0
422,2180001156771,新規,0,2023-06-15,2023-06-15,株式会社サンエム,,株式会社,愛知県,知多市,梅が丘１丁目１４番地の１,,23,224,4780016,,,,,,,2023-06-15,1,,,,,サンエム,0
427,2190001030488,新規,0,2023-06-15,2023-06-15,大福通商株式会社,,株式会社,三重県,桑名市,大字小貝須７７９番地１０,,24,205,5110841,,,,,,,2023-06-15,1,,,,,ダイフクツウショウ,0
431,2200005013495,新規,0,2023-06-15,2023-06-15,一般社団法人アマヤル,,その他の設立登記法人,岐阜県,岐阜市,長良７１４番地１,,21,201,5020071,,,,,,,2023-06-15,1,,,,,アマヤル,0
438,2260001038037,新規,0,2023-06-15,2023-06-15,ＲＭＴ＆カスタマーサービス株式会社,,株式会社,岡山県,浅口市,金光町占見新田２５３８番地,,33,216,7190104,,,,,,,2023-06-15,1,,,,,アールエムティーアンドカスタマーサービス,0
439,2260003004334,新規,0,2023-06-15,2023-06-15,合同会社くらふく,,合同会社,岡山県,倉敷市,南畝５丁目６番７号,,33,202,7128055,,,,,,,2023-06-15,1,,,,,クラフク,0
444,2290001101956,新規,0,2023-06-15,2023-06-15,株式会社みゆきコーポレーション,,株式会社,福岡県,福岡市城南区,長尾４丁目１６番１６－５０２号,,40,136,8140123,,,,,,,2023-06-15,1,,,,,ミユキコーポレーション,0
446,2290003014025,新規,0,2023-06-15,2023-06-15,合同会社メルクーバ,,合同会社,福岡県,福岡市中央区,天神２丁目２番１２号Ｔ＆Ｊビルディング７Ｆ,,40,133,8100001,,,,,,,2023-06-15,1,,,,,メルクーバ,0
456,2390003002110,新規,0,2023-06-15,2023-06-15,合同会社ビジネスブリッジ,,合同会社,山形県,米沢市,通町２丁目５番６３号,,06,202,9920025,,,,,,,2023-06-15,1,,,,,ビジネスブリッジ,0
467,2430001089327,新規,0,2023-06-15,2023-06-15,株式会社ｉ．ｍ．ｉ,,株式会社,北海道,札幌市中央区,南二条東２丁目１６番地,,01,101,0600052,,,,,,,2023-06-15,1,,,,,アイエムアイ,0
471,2430003015157,新規,0,2023-06-15,2023-06-15,合同会社チリー,,合同会社,北海道,札幌市北区,屯田四条７丁目１－１ミズキビル１Ｆ,,01,102,0020854,,,,,,,2023-06-15,1,,,,,チリー,0
481,2700150115161,新規,0,2023-06-15,2023-06-15,ＢＰ　ＭＯＢＩＬＥ　ＬＬＣ,,外国会社等,,,,,,,,７９０１　４ｔｈ　Ｓｔｒｅｅｔ　Ｎ　Ｓｔｅ　５３４０　Ｓｔ　Ｐｅｔｅｒｓｂｕｒｇ，ＦＬ，３３７０２－４３０５，ＵＳＡ,,,,,,2023-06-15,1,,,,,ビーピーモバイルエルエルシー,0
482,2700150117463,新規,0,2023-06-15,2023-06-15,ＴＩＡＮＣＨＡＮＧ　ＭＯＮＴ　ＭＡＲＴＥ　ＩＮＴＥＲＮＡＴＩＯＮＡＬ　ＴＲＡＤＥ　Ｃｏ　Ｌｔｄ,,外国会社等,,,,,,,,Ｃｈｕａｎｔａｎｇ　Ｖｉｌｌａｇｅ　Ｔｉａｎｃｈａｎｇ　Ｃｉｔｙ　Ａｎｈｕｉ　２３９３５５　ＣＮ,,,,,,2023-06-15,1,,,,,テイエンジヤンシーモンマーターグオジーマオイーヨウシエンゴンスー,0
483,2700150117488,新規,0,2023-06-15,2023-06-15,Ｔｉａｎｍｅｎ　Ｐｏｌｉｚｕｏ　Ｍａｏｙｉ　Ｙｏｕｘｉａｎｇｏｎｇｓｉ,,外国会社等,,,,,,,,Ｔｉａｎｍｅｎｓｈｉｊｉｎｇｌｉｎｇｊｉｅｄａｏｘｉｓｉｌｕ６ｈａｏ　ｘｉｈｕｙｕｙｕａｎＤ－１－３０３　ＣＮ,,,,,,2023-06-15,1,,,,,テャンメンポリズオマオイユウゲンコウシ,0
484,2700150117496,新規,0,2023-06-15,2023-06-15,Ｍ．Ｈ．Ｍ．ＴＲＡＤＥＲＳ,,外国会社等,千葉県,長生郡長生村,水口１２４１番地３２オフィス２号,,12,423,2994335,スリランカ民主社会主義共和国、キャンディ、アクラナ、クルゴダノース、５３－３,,,,,,2023-06-15,1,,,,,エムエイチエムトレーダース,0
487,3010001236102,新規,0,2023-06-15,2023-06-15,株式会社ＴＷＯＴＯＭ,,株式会社,東京都,中央区,銀座１丁目２２番１１号銀座大竹ビジデンス２階,,13,102,1040061,,,,,,,2023-06-15,1,,,,,トゥートム,0
488,3010001236151,新規,0,2023-06-15,2023-06-15,株式会社サプリタウン,,株式会社,東京都,中央区,日本橋３丁目２番１４号新槇町ビル別館第一１階,,13,102,1030027,,,,,,,2023-06-15,1,,,,,サプリタウン,0
489,3010003040865,新規,0,2023-06-15,2023-06-15,合同会社ｔｍａａ,,合同会社,東京都,千代田区,神田小川町３丁目２８番５号,,13,101,1010052,,,,,,,2023-06-15,1,,,,,ティーエムエーエー,0
498,3010401175016,新規,0,2023-06-15,2023-06-15,株式会社アルタゲート,,株式会社,東京都,港区,東麻布２丁目３５番１号ＫＣビル６Ｆ,,13,103,1060044,,,,,,,2023-06-15,1,,,,,アルタゲート,0
499,3010401175024,新規,0,2023-06-15,2023-06-15,株式会社ＹＯＴＯＲＩＥ,,株式会社,東京都,港区,南青山３丁目１番３６号青山丸竹ビル６Ｆ,,13,103,1070062,,,,,,,2023-06-15,1,,,,,ヨトリエ,0
500,3010401175032,新規,0,2023-06-15,2023-06-15,Ｌｅｍａｉｒｅ　Ｊａｐａｎ株式会社,,株式会社,東京都,港区,虎ノ門２丁目２番５号共同通信会館４階ＳＣＳ国際税理士法人内,,13,103,1050001,,,,,,,2023-06-15,1,,,,,ルメールジャパン,0
501,3010401175040,新規,0,2023-06-15,2023-06-15,株式会社柏潤,,株式会社,東京都,港区,赤坂７丁目９番５号赤坂Ｑビル２０６,,13,103,1070052,,,,,,,2023-06-15,1,,,,,ハクジュン,0
502,3010401175057,新規,0,2023-06-15,2023-06-15,ａｉｄａ株式会社,,株式会社,東京都,港区,北青山１丁目３番１号アールキューブ青山３階,,13,103,1070061,,,,,,,2023-06-15,1,,,,,アイダ,0
503,3010403030318,新規,0,2023-06-15,2023-06-15,ハムケン合同会社,,合同会社,東京都,港区,北青山３丁目４－３,,13,103,1070061,,,,,,,2023-06-15,1,,,,,ハムケン,0
504,3010403030342,新規,0,2023-06-15,2023-06-15,玉景コンサルティング合同会社,,合同会社,東京都,港区,南麻布１丁目１５番４号,,13,103,1060047,,,,,,,2023-06-15,1,,,,,ギョクケイコンサルティング,0
506,3010405022214,新規,0,2023-06-15,2023-06-15,一般財団法人柳川育英財団,,その他の設立登記法人,東京都,港区,芝公園２丁目３番６号,,13,103,1050011,,,,,,,2023-06-15,1,,,,,ヤナガワイクエイザイダン,0
519,3011003017003,新規,0,2023-06-15,2023-06-15,合同会社ｄｅｓｉｇｎ８１,,合同会社,東京都,渋谷区,神泉町１０－１７ハイシティ渋谷４０３号室,,13,113,1500045,,,,,,,2023-06-15,1,,,,,デザインハチイチ,0
530,3011503005647,新規,0,2023-06-15,2023-06-15,どっとまる合同会社,,合同会社,東京都,北区,滝野川１丁目１番１－４０１号ＥＸＬ１１１,,13,117,1140023,,,,,,,2023-06-15,1,,,,,ドットマル,0
532,3011701026338,新規,0,2023-06-15,2023-06-15,飲月株式会社,,株式会社,東京都,江戸川区,西小岩５丁目１２番１６号ＫＵＲＡＳＳＫＯＩＷＡ・２Ｇ,,13,123,1330057,,,,,,,2023-06-15,1,,,,,インゲツ,0
535,3011803005693,新規,0,2023-06-15,2023-06-15,合同会社メソッド・キャピタル,,合同会社,東京都,葛飾区,亀有５丁目４８番５号,,13,122,1250061,,,,,,,2023-06-15,1,,,,,メソッドキャピタル,0
540,3012705002358,新規,0,2023-06-15,2023-06-15,一般社団法人あいりす,,その他の設立登記法人,東京都,東村山市,美住町１丁目２１－２０,,13,213,1890023,,,,,,,2023-06-15,1,,,,,アイリス,0
549,3020001152083,新規,0,2023-06-15,2023-06-15,ＭＲ＆Ｃカンパニー株式会社,,株式会社,神奈川県,横浜市旭区,中希望が丘８２－７,,14,112,2410825,,,,,,,2023-06-15,1,,,,,エムアールアンドシーカンパニー,0
555,3020005016037,新規,0,2023-06-15,2023-06-15,一般社団法人神奈川県自動車販売店協会,,その他の設立登記法人,神奈川県,横浜市都筑区,池辺町３６６３番地,,14,118,2240053,,,,,,,2023-06-15,1,,,,,カナガワケンジドウシャハンバイテンキョウカイ,0
562,3030001154376,新規,0,2023-06-15,2023-06-15,株式会社Ｒｅｌａｘ,,株式会社,埼玉県,川口市,前上町２１番地３レオネクストはな１０３,,11,203,3330843,,,,,,,2023-06-15,1,,,,,リラックス,0
563,3030001154475,新規,0,2023-06-15,2023-06-15,株式会社Ｈｏｐｅｆｕｌ,,株式会社,埼玉県,新座市,片山１丁目１６番１６号,,11,230,3520025,,,,,,,2023-06-15,1,,,,,ホープフル,0
567,3030005021300,新規,0,2023-06-15,2023-06-15,ＮＰＯ法人文化共創協会,,その他の設立登記法人,埼玉県,本庄市,けや木１丁目２４番１５号,,11,211,3670042,,,,,,,2023-06-15,1,,,,,ブンカキョウソウキョウカイ,0
574,3050001052999,新規,0,2023-06-15,2023-06-15,株式会社テクテクアーキテクツラボ,,株式会社,茨城県,水戸市,千波町１９９４番地の２５,,08,201,3100851,,,,,,,2023-06-15,1,,,,,テクテクアーキテクツラボ,0
584,3080401026542,新規,0,2023-06-15,2023-06-15,株式会社ＫＵＭＡＫＩＲＩＹＡ,,株式会社,静岡県,浜松市中区,田町２３１番地の８プレイスワン田町２０１,,22,131,4300944,,,,,,,2023-06-15,1,,,,,クマキリヤ,0
586,3090001018179,新規,0,2023-06-15,2023-06-15,株式会社ＡＩＴコンサル研究所,,株式会社,山梨県,甲斐市,下今井２１７７番地,,19,210,4000105,,,,,,,2023-06-15,1,,,,,アイティコンサルケンキュウジョ,0
587,3100001036468,新規,0,2023-06-15,2023-06-15,株式会社翔電工,,株式会社,長野県,安曇野市,堀金三田４１０番地８,,20,220,3998212,,,,,,,2023-06-15,1,,,,,ショウデンコウ,0
599,3120001255529,新規,0,2023-06-15,2023-06-15,龍井空間株式会社,,株式会社,大阪府,大阪市大正区,三軒家西３丁目４番１６号中山ビル３０９Ｃ,,27,108,5510001,,,,,,,2023-06-15,1,,,,,リュウイクウカン,0
600,3120001255669,新規,0,2023-06-15,2023-06-15,株式会社ＨＡＫＡ　ＴＲＡＶＥＬ,,株式会社,大阪府,大阪市西区,西本町１丁目１３番３８号５２３,,27,106,5500005,,,,,,,2023-06-15,1,,,,,ハカトラベル,0
601,3120001255677,新規,0,2023-06-15,2023-06-15,株式会社キャリアバリュー,,株式会社,大阪府,大阪市中央区,日本橋１丁目１８－１日本一会館４階４０５号,,27,128,5420073,,,,,,,2023-06-15,1,,,,,キャリアバリュー,0
602,3120001255685,新規,0,2023-06-15,2023-06-15,株式会社ステムリンク,,株式会社,大阪府,大阪市西区,阿波座２丁目３番２３号,,27,106,5500011,,,,,,,2023-06-15,1,,,,,ステムリンク,0
603,3120001255702,新規,0,2023-06-15,2023-06-15,株式会社鉞,,株式会社,大阪府,大阪市平野区,加美北１丁目１８番９号,,27,126,5470001,,,,,,,2023-06-15,1,,,,,マサカリ,0
604,3120001255727,新規,0,2023-06-15,2023-06-15,株式会社テイクオン,,株式会社,大阪府,大阪市城東区,中浜２丁目１６番２３号,,27,118,5360024,,,,,,,2023-06-15,1,,,,,テイクオン,0
605,3120001255826,新規,0,2023-06-15,2023-06-15,株式会社ｌｉｖｅ　ｕｐ,,株式会社,大阪府,大阪市住之江区,北加賀屋２丁目５番３２号,,27,125,5590011,,,,,,,2023-06-15,1,,,,,リヴアップ,0
607,3120003024295,新規,0,2023-06-15,2023-06-15,合同会社オメガ,,合同会社,大阪府,大阪市西淀川区,歌島３丁目５番５－３０１,,27,113,5550021,,,,,,,2023-06-15,1,,,,,オメガ,0
613,3130001074548,新規,0,2023-06-15,2023-06-15,株式会社Ｐｅｒｔｉｃａ,,株式会社,京都府,京都市山科区,上野山田４－２,,26,110,6078442,,,,,,,2023-06-15,1,,,,,ペルティカ,0
614,3130001074556,新規,0,2023-06-15,2023-06-15,株式会社エレクレスト,,株式会社,京都府,向日市,上植野町十ケ坪７－５,,26,208,6170006,,,,,,,2023-06-15,1,,,,,エレクレスト,0
615,3130003008792,新規,0,2023-06-15,2023-06-15,合同会社Ｉｌ　ｅｔａｉｔ　ｕｎｅ　ｆｏｉｓ,,合同会社,京都府,京都市中京区,河原町通二条下る一之船入町３７６クロトビル３Ｆ,,26,104,6040924,,,,,,,2023-06-15,1,,,,,イレテチュンフワ,0
623,3140001130507,新規,0,2023-06-15,2023-06-15,株式会社マルキョウホテルズ,,株式会社,兵庫県,神戸市中央区,浜辺通５丁目１番１４号,,28,110,6510083,,,,,,,2023-06-15,1,,,,,マルキョウホテルズ,0
624,3140001130531,新規,0,2023-06-15,2023-06-15,株式会社優笑創建,,株式会社,兵庫県,神崎郡市川町,近平２５７番地,,28,442,6792327,,,,,,,2023-06-15,1,,,,,ユウショウソウケン,0
640,3180301037480,新規,0,2023-06-15,2023-06-15,ＴＡＮＡＡＫＫ　ＥＶＧＲＩＤ株式会社,,株式会社,愛知県,豊橋市,駅前大通１丁目１３５番地,,23,201,4400888,,,,,,,2023-06-15,1,,,,,タナークイーブイグリッド,0
642,3190001030495,新規,0,2023-06-15,2023-06-15,株式会社徳道,,株式会社,三重県,津市,大里窪田町２８９４番地,,24,201,5140125,,,,,,,2023-06-15,1,,,,,トクドウ,0
645,3200005013494,新規,0,2023-06-15,2023-06-15,特定非営利活動法人ぎふ外国人サポートセンター,,その他の設立登記法人,岐阜県,岐阜市,琴塚２丁目１５番２３号,,21,201,5008222,,,,,,,2023-06-15,1,,,,,ギフガイコクジンサポートセンター,0
648,3240001061667,新規,0,2023-06-15,2023-06-15,株式会社ブレッシング,,株式会社,広島県,三原市,本郷北２丁目１８番４１号,,34,204,7290418,,,,,,,2023-06-15,1,,,,,ブレッシング,0
657,3260001038036,新規,0,2023-06-15,2023-06-15,株式会社ＨＡＬＯ,,株式会社,岡山県,岡山市北区,津島本町１６番３３号,,33,101,7000089,,,,,,,2023-06-15,1,,,,,ハロ,0
669,3290001101947,新規,0,2023-06-15,2023-06-15,株式会社Ｋ．Ｒサポート,,株式会社,福岡県,糟屋郡志免町,別府１丁目２０－６,,40,343,8112205,,,,,,,2023-06-15,1,,,,,ケーアールサポート,0
672,3290003014032,新規,0,2023-06-15,2023-06-15,合同会社ＦＵＮ　ＴＥＡＭ,,合同会社,福岡県,福岡市中央区,春吉２丁目１０－６モントーレ天神１４０６,,40,133,8100003,,,,,,,2023-06-15,1,,,,,ファンチーム,0
688,3340003004151,新規,0,2023-06-15,2023-06-15,合同会社ＭＡＲＶＥＬ,,合同会社,鹿児島県,霧島市,隼人町姫城９０８番地１０,,46,218,8995111,,,,,,,2023-06-15,1,,,,,マーベル,0
689,3350003004381,新規,0,2023-06-15,2023-06-15,合同会社ＮＩＣＯ,,合同会社,宮崎県,延岡市,平原町２丁目１３４３番地１号,,45,203,8820866,,,,,,,2023-06-15,1,,,,,ニコ,0
693,3360003013068,新規,0,2023-06-15,2023-06-15,ｆｒｅｓｃａ合同会社,,合同会社,沖縄県,うるま市,石川山城８１４－１ホワイトリーフ３階,,47,213,9041113,,,,,,,2023-06-15,1,,,,,フレスカ,0
711,3420001018302,新規,0,2023-06-15,2023-06-15,株式会社ＫＥＮ設備,,株式会社,青森県,五所川原市,字上平井町５４番地９,,02,205,0370054,,,,,,,2023-06-15,1,,,,,ケンセツビ,0
716,3430001089342,新規,0,2023-06-15,2023-06-15,株式会社ＺＥＰＥＴ,,株式会社,北海道,札幌市白石区,東札幌二条６丁目９番１３号ルーブル富士１Ｆ,,01,104,0030002,,,,,,,2023-06-15,1,,,,,ゼペット,0
717,3430001089359,新規,0,2023-06-15,2023-06-15,株式会社ＷＡＫＥＬ,,株式会社,北海道,札幌市中央区,北五条西１１丁目１５番地４,,01,101,0600005,,,,,,,2023-06-15,1,,,,,ワケル,0
720,3430003015156,新規,0,2023-06-15,2023-06-15,合同会社ＰｏｒｔｏＰａｒｃｏ,,合同会社,北海道,小樽市,花園２丁目１０番４号ヴォンジュール花園２０１号,,01,203,0470024,,,,,,,2023-06-15,1,,,,,ポルトパルコ,0
723,3500001025001,新規,0,2023-06-15,2023-06-15,株式会社タウラスアルファ,,株式会社,愛媛県,越智郡上島町,弓削下弓削１０００番地,,38,356,7942506,,,,,,,2023-06-15,1,,,,,タウラスアルファ,0
726,3700150117462,新規,0,2023-06-15,2023-06-15,ＹＯＵＲＳ　ＦＡＳＨＩＯＮ　ＪＥＷＥＬＲＹ　ＬＩＭＩＴＥＤ,,外国会社等,,,,,,,,ＲＯＯＭ　１１０１　１１／Ｆ　ＳＡＮ　ＴＯＩ　ＢＵＩＬＤＩＮＧ　１３９　ＣＯＮＮＡＵＧＨＴ　ＲＤ　ＣＥＮＴＲＡＬ　Ｈｏｎｇｋｏｎｇ　Ｈｏｎｇｋｏｎｇ,,,,,,2023-06-15,1,,,,,ヨウシーシーシヤンシーピンシヤンガンヨウシエンゴンスー,0
727,3700150117479,新規,0,2023-06-15,2023-06-15,ＨＯＮＧＫＯＮＧ　ＳＯＬＡＲＴＥＣＨ　ＩＮＴＥＲＮＡＴＩＯＮＡＬ　ＴＲＡＤＥ　ＣＯ．，ＬＩＭＩＴＥＤ,,外国会社等,,,,,,,,１９Ｈ，ＭＡＸＧＲＡＮＤ　ＰＬＡＺＡ，ＮＯ．３　ＴＡＩ　ＹＡＵ　ＳＴＲＥＥＴ，ＳＡＮ　ＰＯ　ＫＯＮＧ　ＫＬ,,,,,,2023-06-15,1,,,,,ホンコンソーラーテックインターナショナルトレードカンパニーリミテッド,0
728,3700150117487,新規,0,2023-06-15,2023-06-15,Ｗｉｌｌｅｄｅｒ　Ｉｎｃ．,,外国会社等,東京都,新宿区,西落合１丁目２５－１５－１０１,,13,104,1610031,アメリカ合衆国テキサス州オースティン市ブラゾス通り７０１番７２０号,,,,,,2023-06-15,1,,,,,ウイルダーインク,0
729,3700150117495,新規,0,2023-06-15,2023-06-15,Ｓｈｅｎｚｈｅｎ　Ｂａｎｊｉａｎｇｙｕｎ　Ｔｒａｄｉｎｇ　Ｃｏ．，Ｌｔｄ．,,外国会社等,,,,,,,,Ｒｏｏｍ　３９３，３ｒｄ　Ｆｌｏｏｒ，Ｎｏ．３０１０，Ｂａｎｘｕｅｇａｎｇ　Ａｖｅｎｕｅ，Ｂａｎｔｉａｎ　Ｃｏｍｍｕｎｉｔｙ，Ｂａｎｔｉａｎ　Ｓｔｒｅｅｔ，Ｌｏｎｇｇａｎｇ　Ｄｉｓｔｒｉｃｔ，ＳｈｅｎＺｈｅｎＳｈｉ　ＧｕａｎｇＤｏｎｇ　Ｓｈｅｎｇ　ＣＮ,,,,,,2023-06-15,1,,,,,シェンゼェンバンジャンユントレーディングカンパニーリシテッド,0
732,4010001235953,新規,0,2023-06-15,2023-06-15,株式会社Ｆｉｔ　Ｎｅｔｗｏｒｋｓ,,株式会社,東京都,千代田区,富士見１丁目３番１１号,,13,101,1020071,,,,,,,2023-06-15,1,,,,,フィットネットワークス,0
733,4010001236035,新規,0,2023-06-15,2023-06-15,ＪＡＰＡＮ　ＣＭＣ株式会社,,株式会社,東京都,中央区,銀座１丁目２２番１１号銀座大竹ビジデンス２Ｆ,,13,102,1040061,,,,,,,2023-06-15,1,,,,,ジャパンシーエムシー,0
734,4010001236068,新規,0,2023-06-15,2023-06-15,今日興マネジメント株式会社,,株式会社,東京都,中央区,湊３丁目１３番８号３０１号室,,13,102,1040043,,,,,,,2023-06-15,1,,,,,キョウコウマネジメント,0
735,4010001236076,新規,0,2023-06-15,2023-06-15,Ｐｉａｎｔｅ株式会社,,株式会社,東京都,千代田区,東神田１丁目６番８－２０２号,,13,101,1010031,,,,,,,2023-06-15,1,,,,,ピアンテ,0
736,4010001236101,新規,0,2023-06-15,2023-06-15,株式会社ジャパンスペシャリティエージェンシー,,株式会社,東京都,千代田区,内幸町２丁目２番２号,,13,101,1000011,,,,,,,2023-06-15,1,,,,,ジャパンスペシャリティエージェンシー,0
737,4010001236118,新規,0,2023-06-15,2023-06-15,株式会社ゴールドフォレスト,,株式会社,東京都,千代田区,麹町２丁目５番地２ゴールドフォレスト半蔵門１３０１号,,13,101,1020083,,,,,,,2023-06-15,1,,,,,ゴールドフォレスト,0
738,4010003040815,新規,0,2023-06-15,2023-06-15,タイエンコンサルティング合同会社,,合同会社,東京都,中央区,銀座１丁目１２番４号Ｎ＆ＥＢＬＤ．６Ｆ,,13,102,1040061,,,,,,,2023-06-15,1,,,,,タイエンコンサルティング,0
748,4010401175015,新規,0,2023-06-15,2023-06-15,株式会社ＮＩＩＺＡＷＡ,,株式会社,東京都,港区,南青山３丁目１番３６号青山丸竹ビル６Ｆ,,13,103,1070062,,,,,,,2023-06-15,1,,,,,ニイザワ,0
753,4010403030325,新規,0,2023-06-15,2023-06-15,ＢＨＳ合同会社,,合同会社,東京都,港区,南青山３丁目１番３６号青山丸竹ビル６Ｆ,,13,103,1070062,,,,,,,2023-06-15,1,,,,,ビーエイチエス,0
756,4010501050605,新規,0,2023-06-15,2023-06-15,株式会社ネフリティス,,株式会社,東京都,台東区,千束１丁目１９－１１－１２０２,,13,106,1110031,,,,,,,2023-06-15,1,,,,,ネフリティス,0
757,4010501050613,新規,0,2023-06-15,2023-06-15,株式会社Ｔｈｅ　Ｆｒｉｅｎｄｓ　Ｓｐｏｒｔｓ　Ｃｏｍｐａｎｙ,,株式会社,東京都,台東区,浅草３丁目３４番１０号ロワール浅草３０１,,13,106,1110032,,,,,,,2023-06-15,1,,,,,ザフレンズスポーツカンパニー,0
758,4010503007041,新規,0,2023-06-15,2023-06-15,合同会社Ａ‐ＺＥＲＯ,,合同会社,東京都,台東区,浅草橋１丁目１１―９ＴＨＥＤＡＹＡＳＡＫＵＳＡＢＡＳＨＩ４０５,,13,106,1110053,,,,,,,2023-06-15,1,,,,,エーゼロ,0
765,4010901053257,新規,0,2023-06-15,2023-06-15,株式会社Ｖｅｒｄｉｃｔ,,株式会社,東京都,世田谷区,若林４丁目３０番６－３０１号パラスト若林公園,,13,112,1540023,,,,,,,2023-06-15,1,,,,,ヴァーディクト,0
782,4011503005646,新規,0,2023-06-15,2023-06-15,ＴＨＡＩ　ＨＯＡ合同会社,,合同会社,東京都,荒川区,町屋３丁目８番１５号ヴィチーノ町屋２０２号室,,13,118,1160001,,,,,,,2023-06-15,1,,,,,タイホア,0
784,4011603003954,新規,0,2023-06-15,2023-06-15,合同会社ＬＩＭ,,合同会社,東京都,練馬区,西大泉３丁目１８番１８号,,13,120,1780065,,,,,,,2023-06-15,1,,,,,リム,0
788,4012401040636,新規,0,2023-06-15,2023-06-15,株式会社ＥＭＳＹ,,株式会社,東京都,調布市,布田３丁目３８番地３ライオンズガーデン調布けやきの杜３０５,,13,208,1820024,,,,,,,2023-06-15,1,,,,,イーエムエスワイ,0
789,4012703002730,新規,0,2023-06-15,2023-06-15,合同会社ｌｉｂｅｒｍｅｎｔ,,合同会社,東京都,東久留米市,下里３丁目１９番９号ペルセウス１０１,,13,222,2030043,,,,,,,2023-06-15,1,,,,,リベルマン,0
792,4013301050907,新規,0,2023-06-15,2023-06-15,株式会社Ｕ２ｗｅｂ,,株式会社,東京都,豊島区,東池袋３丁目２０番１号,,13,116,1700013,,,,,,,2023-06-15,1,,,,,ユーツーウェブ,0
797,4020001152090,新規,0,2023-06-15,2023-06-15,東呉株式会社,,株式会社,神奈川県,横浜市中区,蓬莱町２丁目６番地２ライオンズマンション関内第３－７０１室,,14,104,2310048,,,,,,,2023-06-15,1,,,,,トウゴ,0
800,4021003013215,新規,0,2023-06-15,2023-06-15,合同会社ＴＳ,,合同会社,神奈川県,厚木市,旭町４丁目１６番１７号９－１０３,,14,212,2430014,,,,,,,2023-06-15,1,,,,,ティーエス,0
805,4030003021945,新規,0,2023-06-15,2023-06-15,ｈｕｇｅ　Ａ合同会社,,合同会社,埼玉県,入間市,大字仏子８７９番地１４,,11,225,3580053,,,,,,,2023-06-15,1,,,,,ハグエー,0
811,4060001036075,新規,0,2023-06-15,2023-06-15,株式会社サクラ,,株式会社,栃木県,小山市,東城南１丁目１５番地２,,09,208,3230829,,,,,,,2023-06-15,1,,,,,サクラ,0
815,4080001025670,新規,0,2023-06-15,2023-06-15,株式会社ＭＹプランニングス,,株式会社,静岡県,静岡市駿河区,丸子３１３３番地の５,,22,102,4210103,,,,,,,2023-06-15,1,,,,,エムワイプランニングス,0
821,4110001037621,新規,0,2023-06-15,2023-06-15,株式会社ＥｄｕＭｅ,,株式会社,新潟県,新潟市西区,五十嵐中島５丁目１４番２３号,,15,107,9502162,,,,,,,2023-06-15,1,,,,,エデュミー,0
831,4120001255651,新規,0,2023-06-15,2023-06-15,株式会社Ｌ．ＳＵＮＲＩＳＥ,,株式会社,大阪府,大阪市東成区,神路４丁目５番３０号,,27,115,5370003,,,,,,,2023-06-15,1,,,,,エルサンライズ,0
832,4120001255701,新規,0,2023-06-15,2023-06-15,潤城株式会社,,株式会社,大阪府,大阪市西成区,玉出西２丁目１２番１１号チェリーハイツ３０５,,27,122,5570045,,,,,,,2023-06-15,1,,,,,ジュンジョウ,0
833,4120001255718,新規,0,2023-06-15,2023-06-15,株式会社ＣＬＡＭＰ,,株式会社,大阪府,大阪市鶴見区,緑１丁目１２－２５,,27,124,5380054,,,,,,,2023-06-15,1,,,,,クランプ,0
834,4120001255767,新規,0,2023-06-15,2023-06-15,株式会社ノート,,株式会社,大阪府,大阪市中央区,常盤町１丁目４－１ライオンズマンション東本町６０９,,27,128,5400028,,,,,,,2023-06-15,1,,,,,ノート,0
835,4120001255800,新規,0,2023-06-15,2023-06-15,株式会社サンパペル,,株式会社,大阪府,大阪市鶴見区,鶴見４丁目１番１２号,,27,124,5380053,,,,,,,2023-06-15,1,,,,,サンパペル,0
836,4120003024278,新規,0,2023-06-15,2023-06-15,ゼロシックステレマーケティング合同会社,,合同会社,大阪府,大阪市城東区,関目４丁目７番１１号,,27,118,5360008,,,,,,,2023-06-15,1,,,,,ゼロシックステレマーケティング,0
841,4120901047669,新規,0,2023-06-15,2023-06-15,株式会社ジェネラス,,株式会社,大阪府,豊中市,螢池北町２丁目３番４８－３０４号,,27,203,5600031,,,,,,,2023-06-15,1,,,,,ジェネラス,0
854,4140001130547,新規,0,2023-06-15,2023-06-15,ユニオンエンジニアリング株式会社,,株式会社,兵庫県,神戸市中央区,布引町１丁目１番８号,,28,110,6510097,,,,,,,2023-06-15,1,,,,,ユニオンエンジニアリング,0
860,4140003019193,新規,0,2023-06-15,2023-06-15,ＭＴ　ＴＲＡＤＩＮＧ合同会社,,合同会社,兵庫県,神戸市長田区,雲雀ヶ丘３丁目６－１－３０４,,28,106,6530879,,,,,,,2023-06-15,1,,,,,エムティートレーディング,0
861,4140003019202,新規,0,2023-06-15,2023-06-15,合同会社来味,,合同会社,兵庫県,姫路市,白浜町寺家１丁目２００番地,,28,201,6728012,,,,,,,2023-06-15,1,,,,,クミ,0
867,4170005007020,新規,0,2023-06-15,2023-06-15,特定非営利活動法人Ｈａｐｐｉｎｅｓｓ　Ｋｉｄｓ　Ｌａｂｏ,,その他の設立登記法人,和歌山県,和歌山市,栄谷９５９番地２４３,,30,201,6408441,,,,,,,2023-06-15,1,,,,,ハピネスキッズラボ,0
885,4240001061682,新規,0,2023-06-15,2023-06-15,株式会社ＴＥＭＰＥＲＡＴＵＲＥ,,株式会社,広島県,広島市中区,東白島町１３番６－５０１号,,34,101,7300004,,,,,,,2023-06-15,1,,,,,テンプチャー,0
892,4270001008796,新規,0,2023-06-15,2023-06-15,株式会社ヤマテック,,株式会社,鳥取県,境港市,外江町２９７３番地１,,31,204,6840071,,,,,,,2023-06-15,1,,,,,ヤマテック,0
903,4290003014023,新規,0,2023-06-15,2023-06-15,ＨＩ　ＬＩＦＥ合同会社,,合同会社,福岡県,福岡市西区,福重３丁目１２－２１－１Ｆ,,40,135,8190022,,,,,,,2023-06-15,1,,,,,ハイライフ,0
905,4290803004438,新規,0,2023-06-15,2023-06-15,合同会社ＹＥＬＬ,,合同会社,福岡県,田川郡香春町,大字中津原２７２４番地仲江アパート１０１号,,40,601,8221405,,,,,,,2023-06-15,1,,,,,エール,0
917,4350001018408,新規,0,2023-06-15,2023-06-15,株式会社ＴＲＹ,,株式会社,宮崎県,宮崎市,中央通３番２号鷲頭ビル１Ｆ,,45,201,8800002,,,,,,,2023-06-15,1,,,,,トライ,0
918,4360001032168,新規,0,2023-06-15,2023-06-15,リーチ株式会社,,株式会社,沖縄県,名護市,大北４丁目１７番４－１０７号ハイグレースＴｕｈａ,,47,209,9050019,,,,,,,2023-06-15,1,,,,,リーチ,0
921,4380001033783,新規,0,2023-06-15,2023-06-15,レインボー食品株式会社,,株式会社,福島県,いわき市,渡辺町上釜戸字青谷８３番地,,07,204,9728336,,,,,,,2023-06-15,1,,,,,レインボーショクヒン,0
929,4430001089358,新規,0,2023-06-15,2023-06-15,株式会社ＯＡＳＩＳ　ＧＡＲＤＥＮ,,株式会社,北海道,札幌市中央区,南一条西２０丁目１番６－５０５号,,01,101,0640801,,,,,,,2023-06-15,1,,,,,オアシスガーデン,0
939,4700150117461,新規,0,2023-06-15,2023-06-15,ｗｕｈａｎｓｈｉｂａｎｇｐｕｔｅｊｉｎｃｈｕｋｏｕｙｏｕｘｉａｎｇｏｎｇｓｉ,,外国会社等,,,,,,,,ｚｈｏｎｇｎａｎｌｕ２－６ｇｏｎｇｈａｎｇｇｕａｎｇｃｈａｎｇＢ，ＣｄｏｎｇＣｚｕｏ２５ｃｅｎｇＤ２，ｗｕｃｈａｎｇｑｕ，ｗｕｈａｎｓｈｉ，４３００００，ＣＮ,,,,,,2023-06-15,1,,,,,ウーハンシーバンプータージンチユーコウヨウシエンゴンスー,0
940,4700150117478,新規,0,2023-06-15,2023-06-15,Ｙｉｗｕｓｈｉ　Ｗｕｓｉ　Ｍａｏｙｉ　Ｙｏｕｘｉａｎｇｏｎｇｓｉ,,外国会社等,,,,,,,,ｂｅｉ　ｙｕａｎ　ｊｉｅ　ｄａｏ　ｗａｎｇ　ｄａｏ　ｌｕ　３１６ｈａｏ　ｌｏｎｇ　ｘｉａｎｇ　ｄａ　ｓｈａ　７ｌｏｕ　７１５ｓｈｉ　ｙｉ　ｗｕ　ｓｈｉ　ｚｈｅ　ｊｉａｎｇ　ｓｈｅｎｇ,,,,,,2023-06-15,1,,,,,イウシウシマオイユウゲンコウシ,0
941,4700150117494,新規,0,2023-06-15,2023-06-15,ＳＨＥＮＺＨＥＮ　ＧＵＡＮＬＩＮＸＩＮ　ＫＥＪＩ　ＹＯＵ　ＸＩＡＮ　ＧＯＮＧ　ＳＩ,,外国会社等,,,,,,,,Ｊｉｎ　ｔａｎｇ　ｌｕ　３　ｈａｏ　ｌｏｎｇｇａｎｇｑｕ　ｈｅｎｇｇａｎｇｊｉｅｄａｏ　ｌｉｕｙｕｅｎｉｕｓｈｉｐｕ　ｓｈｅｎｚｈｅｎ　ｇｕａｎｇｄｏｎｇ　ｚｈｏｎｇｇｕｏ,,,,,,2023-06-15,1,,,,,シンセングゥアンリンシンケジユウゲンコウシ,0
949,5010001236067,新規,0,2023-06-15,2023-06-15,株式会社１０４ＷＯＲＫＳ,,株式会社,東京都,中央区,東日本橋２丁目８－３ＪＭＦビル東日本橋０１,,13,102,1030004,,,,,,,2023-06-15,1,,,,,トヨワークス,0
950,5010001236117,新規,0,2023-06-15,2023-06-15,株式会社Ｋａｎａｏｔｏ,,株式会社,東京都,中央区,月島１丁目３番１２号,,13,102,1040052,,,,,,,2023-06-15,1,,,,,カナオト,0
951,5010001236166,新規,0,2023-06-15,2023-06-15,ヘレウスノーブルライトジャパン株式会社,,株式会社,東京都,文京区,大塚２丁目９番３号,,13,105,1120012,,,,,,,2023-06-15,1,,,,,ヘレウスノーブルライトジャパン,0
952,5010001236190,新規,0,2023-06-15,2023-06-15,株式会社ＩＴソリューションズ,,株式会社,東京都,中央区,築地３丁目１－４築地武蔵野マンション９０２,,13,102,1040045,,,,,,,2023-06-15,1,,,,,アイティソリューションズ,0
959,5010003040871,新規,0,2023-06-15,2023-06-15,ＳＥＶＥＮ　ＳＥＡＳ　ＦＯＯＤ合同会社,,合同会社,東京都,中央区,月島３丁目２番７号,,13,102,1040052,,,,,,,2023-06-15,1,,,,,セブンシーズフード,0
962,5010401175014,新規,0,2023-06-15,2023-06-15,株式会社易購,,株式会社,東京都,港区,浜松町２丁目２番１５号浜松町ダイヤビル２Ｆ,,13,103,1050013,,,,,,,2023-06-15,1,,,,,イーゴウ,0
963,5010401175022,新規,0,2023-06-15,2023-06-15,株式会社ａｉｉｏ,,株式会社,東京都,港区,南青山２丁目４番１２号,,13,103,1070062,,,,,,,2023-06-15,1,,,,,アイオ,0
964,5010401175030,新規,0,2023-06-15,2023-06-15,株式会社ＴｅａｍＣＭＯ,,株式会社,東京都,港区,南青山２丁目２番１５号ウィン青山９４２,,13,103,1070062,,,,,,,2023-06-15,1,,,,,チームシーエムオー,0
965,5010401175039,新規,0,2023-06-15,2023-06-15,Ｄｙｎａｍｉｃｓ　Ｂａｎｋ株式会社,,株式会社,東京都,港区,東麻布１丁目９番１１号,,13,103,1060044,,,,,,,2023-06-15,1,,,,,ダイナミクスバンク,0
966,5010401175055,新規,0,2023-06-15,2023-06-15,サービスＧＪ株式会社,,株式会社,東京都,港区,海岸３丁目１６－９－７０１,,13,103,1080022,,,,,,,2023-06-15,1,,,,,サービスジージェイ,0
967,5010401175096,新規,0,2023-06-15,2023-06-15,ＧＩＰ株式会社,,株式会社,東京都,港区,芝５丁目３６番４号札の辻スクエア９階,,13,103,1080014,,,,,,,2023-06-15,1,,,,,ジーアイピー,0
968,5010403030332,新規,0,2023-06-15,2023-06-15,穿合同会社,,合同会社,東京都,港区,浜松町２丁目２番１５号浜松町ダイヤビル２Ｆ,,13,103,1050013,,,,,,,2023-06-15,1,,,,,セン,0
972,5010405022212,新規,0,2023-06-15,2023-06-15,特定非営利活動法人東京囃子塾,,その他の設立登記法人,東京都,港区,海岸３丁目９番４０号１７０６号室,,13,103,1080022,,,,,,,2023-06-15,1,,,,,トウキョウハヤシジュク,0
974,5010501050604,新規,0,2023-06-15,2023-06-15,株式会社金沢,,株式会社,東京都,台東区,台東１丁目２４番９号ブライト秋葉原Ｂ１階,,13,106,1100016,,,,,,,2023-06-15,1,,,,,カナザワ,0
982,5011001155109,新規,0,2023-06-15,2023-06-15,株式会社ＨＡＮＡＢＩ,,株式会社,東京都,渋谷区,恵比寿１丁目２２－２１－３０１,,13,113,1500013,,,,,,,2023-06-15,1,,,,,ハナビ,0
990,5011201024716,新規,0,2023-06-15,2023-06-15,株式会社ｔｒｙ‐ｇｒｏｕｐ,,株式会社,東京都,中野区,上高田３丁目４０番６号もはんビル２Ｆ,,13,114,1640002,,,,,,,2023-06-15,1,,,,,トライグループ,0
992,5011203004105,新規,0,2023-06-15,2023-06-15,Ｓｔｅｌｌａ合同会社,,合同会社,東京都,中野区,若宮１丁目３－４,,13,114,1650033,,,,,,,2023-06-15,1,,,,,ステラ,0
995,5011401025209,新規,0,2023-06-15,2023-06-15,森聯コンサルティング株式会社,,株式会社,東京都,板橋区,若木２丁目２１－３上板橋ダイカンプラザシティ２－３１２号室,,13,119,1740065,,,,,,,2023-06-15,1,,,,,シンレンコンサルティング,0
996,5011503005645,新規,0,2023-06-15,2023-06-15,合同会社ＮＩＫＩ,,合同会社,東京都,荒川区,西日暮里１丁目４５－８,,13,118,1160013,,,,,,,2023-06-15,1,,,,,ニキ,0
1020,5030001154416,新規,0,2023-06-15,2023-06-15,さいたまレンタカー株式会社,,株式会社,埼玉県,さいたま市岩槻区,上野３丁目５番８,,11,110,3390073,,,,,,,2023-06-15,1,,,,,サイタマレンタカー,0
1021,5030001154473,新規,0,2023-06-15,2023-06-15,株式会社アヤメ興業,,株式会社,埼玉県,熊谷市,銀座６丁目３番３６号,,11,202,3600032,,,,,,,2023-06-15,1,,,,,アヤメコウギョウ,0
1024,5030005021298,新規,0,2023-06-15,2023-06-15,医療法人仁志会,,その他の設立登記法人,埼玉県,深谷市,上敷免３６５番地,,11,218,3660029,,,,,,,2023-06-15,1,,,,,ジンシカイ,0
1047,5080101024076,新規,0,2023-06-15,2023-06-15,株式会社ＲｅＳＵＲＵＧＡ,,株式会社,静岡県,伊豆市,土肥６３８番地,,22,222,4103302,,,,,,,2023-06-15,1,,,,,リスルガ,0
1048,5080401026540,新規,0,2023-06-15,2023-06-15,株式会社０９Ｇａｒａｇｅ,,株式会社,静岡県,浜松市東区,中郡町５９９番地,,22,132,4313111,,,,,,,2023-06-15,1,,,,,ナインガレージ,0
1055,5110001037612,新規,0,2023-06-15,2023-06-15,株式会社エスアール,,株式会社,新潟県,新潟市東区,松和町１２番３０号,,15,102,9500027,,,,,,,2023-06-15,1,,,,,エスアール,0
1059,5120001255717,新規,0,2023-06-15,2023-06-15,九宇宝株式会社,,株式会社,大阪府,大阪市西成区,橘３丁目１４番１号１０９号,,27,122,5570051,,,,,,,2023-06-15,1,,,,,キュウウホウ,0
1060,5120001255725,新規,0,2023-06-15,2023-06-15,株式会社ｍａｙｕｐａｎ,,株式会社,大阪府,枚方市,高塚町２５番１－１００３号,,27,210,5730035,,,,,,,2023-06-15,1,,,,,マユパン,0
1064,5120003024293,新規,0,2023-06-15,2023-06-15,合同会社ちるどれん,,合同会社,大阪府,大阪市生野区,小路東１丁目２－２１,,27,116,5440003,,,,,,,2023-06-15,1,,,,,チルドレン,0
1065,5120003024310,新規,0,2023-06-15,2023-06-15,Ｔｏｍスニーカー合同会社,,合同会社,大阪府,大阪市西区,九条南４丁目１５－１４,,27,106,5500025,,,,,,,2023-06-15,1,,,,,トムスニーカー,0
1068,5120101067748,新規,0,2023-06-15,2023-06-15,株式会社ＧＭＨ,,株式会社,大阪府,堺市北区,東上野芝町２丁４５２番地６,,27,146,5918035,,,,,,,2023-06-15,1,,,,,ジーエムエイチ,0
1069,5120103005276,新規,0,2023-06-15,2023-06-15,合同会社ＡＲＡＮＣＨＡ,,合同会社,大阪府,貝塚市,小瀬５０５番地２,,27,208,5970021,,,,,,,2023-06-15,1,,,,,アランチャ,0
1071,5120901047668,新規,0,2023-06-15,2023-06-15,株式会社ＳＯＲＡ,,株式会社,大阪府,吹田市,清水１０番１－１０６号,,27,205,5650805,,,,,,,2023-06-15,1,,,,,ソラ,0
1073,5120903004683,新規,0,2023-06-15,2023-06-15,合同会社ちむぐくる,,合同会社,大阪府,豊中市,庄内栄町１丁目７番３号,,27,203,5610834,,,,,,,2023-06-15,1,,,,,チムグクル,0
1080,5130003008790,新規,0,2023-06-15,2023-06-15,Ｊ．ＲＯＡＤ合同会社,,合同会社,京都府,向日市,寺戸町殿長２９番地の２サンイースト２０２,,26,208,6170002,,,,,,,2023-06-15,1,,,,,ジェイロード,0
1088,5140001130513,新規,0,2023-06-15,2023-06-15,株式会社菓澄想,,株式会社,兵庫県,赤穂市,加里屋４０番地６赤穂プラザハイツ１０４,,28,212,6780239,,,,,,,2023-06-15,1,,,,,カスミソウ,0
1089,5140001130521,新規,0,2023-06-15,2023-06-15,株式会社八雲,,株式会社,兵庫県,宝塚市,口谷東２丁目６番６号,,28,214,6650812,,,,,,,2023-06-15,1,,,,,ヤクモ,0
1090,5140001130546,新規,0,2023-06-15,2023-06-15,ユニオンシステムズ株式会社,,株式会社,兵庫県,神戸市中央区,布引町１丁目１番８号,,28,110,6510097,,,,,,,2023-06-15,1,,,,,ユニオンシステムズ,0
1093,5140003019201,新規,0,2023-06-15,2023-06-15,Ｇ　ＳＴＲＥＡＭ合同会社,,合同会社,兵庫県,姫路市,小姓町３５－１船場西ビル２階３号,,28,201,6700043,,,,,,,2023-06-15,1,,,,,ジーストリーム,0
1096,5150001026487,新規,0,2023-06-15,2023-06-15,株式会社フラワー・オブ・ライフ,,株式会社,奈良県,生駒市,鹿ノ台南１丁目５番地１４,,29,209,6300113,,,,,,,2023-06-15,1,,,,,フラワーオブライフ,0
1106,5180001156752,新規,0,2023-06-15,2023-06-15,株式会社Ｐｕｙｏｌ,,株式会社,愛知県,名古屋市千種区,池下町２丁目６３番地の２５グランドメゾン池下ザ・タワー３８０５号,,23,101,4640066,,,,,,,2023-06-15,1,,,,,プジョル,0
1115,5190001030493,新規,0,2023-06-15,2023-06-15,株式会社おそうじ屋さん,,株式会社,三重県,四日市市,西浜田町２番３号ティーダ１０１,,24,202,5100073,,,,,,,2023-06-15,1,,,,,オソウジヤサン,0
1134,5250005008827,新規,0,2023-06-15,2023-06-15,一般社団法人たきびれっじ,,その他の設立登記法人,山口県,下関市,豊北町大字滝部４７５番地３,,35,201,7595511,,,,,,,2023-06-15,1,,,,,タキビレッジ,0
1136,5260005011243,新規,0,2023-06-15,2023-06-15,協同組合ＦＢ,,その他の設立登記法人,岡山県,岡山市北区,奥田本町２３番１７号,,33,101,7000932,,,,,,,2023-06-15,1,,,,,エフビー,0
1137,5270001008795,新規,0,2023-06-15,2023-06-15,株式会社鳥取理学療法センター,,株式会社,鳥取県,倉吉市,関金町大鳥居６３９番地,,31,203,6820402,,,,,,,2023-06-15,1,,,,,トットリリガクリョウホウセンター,0
1146,5290001101929,新規,0,2023-06-15,2023-06-15,株式会社アクア,,株式会社,福岡県,福岡市博多区,吉塚４丁目３番１８号,,40,132,8120041,,,,,,,2023-06-15,1,,,,,アクア,0
1147,5290001101937,新規,0,2023-06-15,2023-06-15,トラストジュエリー株式会社,,株式会社,福岡県,福岡市東区,箱崎３丁目８番１４－２０１号,,40,131,8120053,,,,,,,2023-06-15,1,,,,,トラストジュエリー,0
1151,5290801029618,新規,0,2023-06-15,2023-06-15,株式会社新入農産企画,,株式会社,福岡県,直方市,大字上新入２０３５番地６,,40,204,8220033,,,,,,,2023-06-15,1,,,,,シンニュウノウサンキカク,0
1156,5330003009884,新規,0,2023-06-15,2023-06-15,合同会社Ａｓｓｉｓｔ　Ｙｏｕ,,合同会社,熊本県,合志市,須屋２５７８番地２キャッスル須屋３０１号,,43,216,8611102,,,,,,,2023-06-15,1,,,,,アシストユー,0
1181,5430001089324,新規,0,2023-06-15,2023-06-15,株式会社齊藤商事,,株式会社,北海道,札幌市東区,東雁来町３００番２１７,,01,103,0070820,,,,,,,2023-06-15,1,,,,,サイトウショウジ,0
1182,5430001089349,新規,0,2023-06-15,2023-06-15,株式会社ＲＡＤ,,株式会社,北海道,石狩市,花川北二条１丁目５番地１４,,01,235,0613212,,,,,,,2023-06-15,1,,,,,ラッド,0
1184,5430003015146,新規,0,2023-06-15,2023-06-15,合同会社工藤電機,,合同会社,北海道,小樽市,潮見台２丁目３番２号和光ハイツ３号棟２０３号室,,01,203,0470002,,,,,,,2023-06-15,1,,,,,クドウデンキ,0
1186,5480003001991,新規,0,2023-06-15,2023-06-15,合同会社桃源郷,,合同会社,徳島県,徳島市,八万町上福万２２０番地８,,36,201,7708073,,,,,,,2023-06-15,1,,,,,トウゲンキョウ,0
1187,5500001025008,新規,0,2023-06-15,2023-06-15,株式会社光,,株式会社,愛媛県,今治市,別名１７９番地３,,38,202,7940065,,,,,,,2023-06-15,1,,,,,コウ,0
1190,5700150117460,新規,0,2023-06-15,2023-06-15,ＮａｎＣｈｅｎｇＺｉＹｕａｎＭａｏＹｉＹｏｕＸｉａｎＧｏｎｇＳｉ,,外国会社等,,,,,,,,Ｎａｎ　Ｃｈｅｎｇ　Ｘｉａｎ　Ｊｉａｎ　Ｃｈａｎｇ　Ｚｈｅｎ　Ｘｉ　Ｙｕａｎ　Ｘｉａｏ　Ｑｕ　１４　Ｄｏｎｇ　１　Ｄａｎ　Ｙｕａｎ　Ｆｕ　Ｚｈｏｕ　Ｓｈｉ　Ｊｉａｎｇ　Ｘｉ　Ｓｈｅｎｇ　３４４７００　ＣＮ,,,,,,2023-06-15,1,,,,,ナンチヨンズーユエンマオイーヨウシエンゴンスー,0
1191,5700150117477,新規,0,2023-06-15,2023-06-15,ＺＨＩＹＵＮ　ＩＮＦＯＲＭＡＴＩＯＮ（ＩＮＴＥＲＮＡＴＩＯＮＡＬ）ＴＥＣＨＮＯＬＯＧＹ　ＣＯ．，ＬＩＭＩＴＥＤ,,外国会社等,,,,,,,,Ｒｏｏｍ　１４１１，Ｓｉｌｖｅｒｃｏｒｄ　Ｔｏｗｅｒ　１，３０　Ｃａｎｔｏｎ　Ｒｏａｄ，Ｔｓｉｍｓｈａｔｓｕｉ，Ｋｏｗｌｏｏｎ，Ｈｏｎｇ　Ｋｏｎｇ,,,,,,2023-06-15,1,,,,,ジユンインフォメーションインターナショナルテクノロジーカンパニーリミテッド,0
1192,5700150117493,新規,0,2023-06-15,2023-06-15,ＪｉｕＪｉａｎｇ　ＸｕａｎＹｉＧｅＳｈａｎｇＭａｏ　ＹｏｕＸｉａｎＧｏｎｇＳｉ,,外国会社等,,,,,,,,ＪｉａｎｇＸｉＳｈｅｎｇＪｉｕＪｉａｎｇＳｈｉＬｉａｎＸｉＱｕＣｈａｎｇＨｏｎｇＤａＤａｏ１６８ＨａｏＫａｉＦａＧｏｎｇＳｉＤａＬｏｕ５Ｌｏｕ５０６Ｓｈｉ,,,,,,2023-06-15,1,,,,,ジュジャンスェンイゲシャンマオユウゲンコウシ,0
1200,6010001236082,新規,0,2023-06-15,2023-06-15,株式会社ＹＡＢＹ,,株式会社,東京都,千代田区,東神田２丁目９番１９－５１２号,,13,101,1010031,,,,,,,2023-06-15,1,,,,,ヤビー,0
1201,6010001236157,新規,0,2023-06-15,2023-06-15,株式会社１ｓｔ　Ｂａｂｙ,,株式会社,東京都,千代田区,麹町２丁目５番地２－１２０１号,,13,101,1020083,,,,,,,2023-06-15,1,,,,,ファーストベイビー,0
1202,6010001236165,新規,0,2023-06-15,2023-06-15,株式会社ＮＡＫＥＤ,,株式会社,東京都,中央区,銀座１丁目１２番４号Ｎ＆ＥＢＬＤ．６Ｆ,,13,102,1040061,,,,,,,2023-06-15,1,,,,,ネイキッド,0
1205,6010003040870,新規,0,2023-06-15,2023-06-15,エナジー・トランジション・ベンチャーズ合同会社,,合同会社,東京都,千代田区,大手町２丁目３番２号,,13,101,1000004,,,,,,,2023-06-15,1,,,,,エナジートランジションベンチャーズ,0
1217,6010401174948,新規,0,2023-06-15,2023-06-15,株式会社ＯＭＯＫＵＲＡ,,株式会社,東京都,港区,北青山１丁目３番１号アールキューブ青山３階,,13,103,1070061,,,,,,,2023-06-15,1,,,,,オモクラ,0
1218,6010401175013,新規,0,2023-06-15,2023-06-15,ｖｉｎｏｍｅｚｃａｌ株式会社,,株式会社,東京都,港区,元麻布３丁目１０番９号山水ハイム元麻布６０２,,13,103,1060046,,,,,,,2023-06-15,1,,,,,ヴィノメスカル,0
1219,6010401175038,新規,0,2023-06-15,2023-06-15,ＲＥＩＧＮ株式会社,,株式会社,東京都,港区,東麻布１丁目９番１１号,,13,103,1060044,,,,,,,2023-06-15,1,,,,,レイジン,0
1220,6010401175046,新規,0,2023-06-15,2023-06-15,株式会社レインボーツリーリゾート,,株式会社,東京都,港区,南青山２丁目２番１５号,,13,103,1070062,,,,,,,2023-06-15,1,,,,,レインボーツリーリゾート,0
1224,6010403030315,新規,0,2023-06-15,2023-06-15,合同会社Ｌａ　Ｌｏｕｐｉｏｔｅ,,合同会社,東京都,港区,浜松町２丁目２番１５号浜松町ダイヤビル２Ｆ,,13,103,1050013,,,,,,,2023-06-15,1,,,,,ラルピョット,0
1226,6010405022203,新規,0,2023-06-15,2023-06-15,一般社団法人東京都相続支援協会,,その他の設立登記法人,東京都,港区,新橋３丁目９番１０号天翔新橋ビル８０１号,,13,103,1050004,,,,,,,2023-06-15,1,,,,,トウキョウトソウゾクシエンキョウカイ,0
1230,6010601063257,新規,0,2023-06-15,2023-06-15,株式会社Ｃａｒｎｅｌｉａｎ,,株式会社,東京都,墨田区,江東橋３丁目５番８号,,13,107,1300022,,,,,,,2023-06-15,1,,,,,カーネリアン,0
1234,6010901053255,新規,0,2023-06-15,2023-06-15,株式会社Ｓｈｕｋｅｙ’ｓ,,株式会社,東京都,世田谷区,上北沢４丁目２８番８号,,13,112,1560057,,,,,,,2023-06-15,1,,,,,シュウキーズ,0
1245,6011201024715,新規,0,2023-06-15,2023-06-15,睿億株式会社,,株式会社,東京都,中野区,江古田４丁目２５－３,,13,114,1650022,,,,,,,2023-06-15,1,,,,,エイオク,0
1252,6011501029430,新規,0,2023-06-15,2023-06-15,株式会社ＳＵＮＲＩＳＥ,,株式会社,東京都,北区,東十条３丁目１０番１－１３０３号,,13,117,1140001,,,,,,,2023-06-15,1,,,,,サンライズ,0
1253,6011801042579,新規,0,2023-06-15,2023-06-15,株式会社リバーノース,,株式会社,東京都,足立区,西新井４丁目１８番１３号,,13,121,1230841,,,,,,,2023-06-15,1,,,,,リバーノース,0
1255,6012401040634,新規,0,2023-06-15,2023-06-15,Ｑｕｅｅｎ　Ｂａｔｔｅｒｙ　Ｍｅｔａｌｓ株式会社,,株式会社,東京都,武蔵野市,吉祥寺南町３丁目１５番１２－２０３,,13,203,1800003,,,,,,,2023-06-15,1,,,,,クイーンバッテリーメタルズ,0
1256,6012701017695,新規,0,2023-06-15,2023-06-15,株式会社ＳＥＩＳＩＮ,,株式会社,東京都,西東京市,ひばりが丘２丁目１３番１８号シルクハイツ１Ｆ,,13,229,2020001,,,,,,,2023-06-15,1,,,,,セイシン,0
1268,6020001151999,新規,0,2023-06-15,2023-06-15,越ノ酒匠株式会社,,株式会社,神奈川県,横浜市鶴見区,栄町通４丁目３８番地１２ＫＹハウスＩＩ１０６号室,00130857,14,101,2300038,,,,,,,2023-06-15,1,,,,,コシノシュショウ,0
1269,6020001152089,新規,0,2023-06-15,2023-06-15,ＬＣ　Ｉｎｖｅｓｔｍｅｎｔ株式会社,,株式会社,神奈川県,川崎市川崎区,小川町１６－１７－５０３,,14,131,2100023,,,,,,,2023-06-15,1,,,,,エルスィインヴェストゥメント,0
1270,6020001152106,新規,0,2023-06-15,2023-06-15,ＩＤＥＡＬ‐ＣＡＲＥＥＲＢＲＩＤＧＥ　ＪＡＰＡＮ株式会社,,株式会社,神奈川県,横浜市中区,山手町２６１－１マートルコート山手２６１番館２０４号室,,14,104,2310862,,,,,,,2023-06-15,1,,,,,イデアルキャリアブリッジジャパン,0
1278,6030001154373,新規,0,2023-06-15,2023-06-15,東京重量物車輌株式会社,,株式会社,埼玉県,三郷市,早稲田１丁目５－５－１０４,,11,237,3410018,,,,,,,2023-06-15,1,,,,,トウキョウジュウリョウブツシャリョウ,0
1280,6030003021943,新規,0,2023-06-15,2023-06-15,合同会社Ｃａｌｍｅ,,合同会社,埼玉県,入間市,大字仏子６番地６,,11,225,3580053,,,,,,,2023-06-15,1,,,,,カルム,0
1281,6030003021968,新規,0,2023-06-15,2023-06-15,合同会社翔電社,,合同会社,埼玉県,東松山市,大字上野本２６４―９,,11,212,3550073,,,,,,,2023-06-15,1,,,,,ショウデンシャ,0
1285,6040005022039,新規,0,2023-06-15,2023-06-15,特定非営利活動法人ＪＵＤＯ　ＷＯＲＫＳ　ＪＡＰＡＮ,,その他の設立登記法人,千葉県,市川市,欠真間２丁目１３番２０号,,12,203,2720142,,,,,,,2023-06-15,1,,,,,ジュウドウワークスジャパン,0
1290,6080401026548,新規,0,2023-06-15,2023-06-15,株式会社グッドキャスト,,株式会社,静岡県,浜松市中区,早馬町３番地５早馬町冨士物産ビル４階,,22,131,4300916,,,,,,,2023-06-15,1,,,,,グッドキャスト,0
1292,6110005016958,新規,0,2023-06-15,2023-06-15,農事組合法人新潟たじり,,その他の設立登記法人,新潟県,長岡市,寺泊田尻２９５番地,,15,202,9590146,,,,,,,2023-06-15,1,,,,,ニイガタタジリ,0
1301,6120001255658,新規,0,2023-06-15,2023-06-15,株式会社ＮＭＣマネージメント,,株式会社,大阪府,大阪市東淀川区,東中島１丁目１７番５－６１７号,,27,114,5330033,,,,,,,2023-06-15,1,,,,,エヌエムシーマネジメント,0
1302,6120001255666,新規,0,2023-06-15,2023-06-15,株式会社リュミエール,,株式会社,大阪府,大阪市平野区,背戸口１丁目１０番６号,,27,126,5470034,,,,,,,2023-06-15,1,,,,,リュミエール,0
1303,6120001255674,新規,0,2023-06-15,2023-06-15,ＢｒｅｅｚｉＢ株式会社,,株式会社,大阪府,大阪市東住吉区,住道矢田７丁目３１番８号,,27,121,5460022,,,,,,,2023-06-15,1,,,,,ブリージビー,0
1304,6120001255682,新規,0,2023-06-15,2023-06-15,株式会社ＭＹコーポレーション,,株式会社,大阪府,大阪市淀川区,西中島４丁目１３－１１,,27,123,5320011,,,,,,,2023-06-15,1,,,,,エムワイコーポレーション,0
1305,6120001255699,新規,0,2023-06-15,2023-06-15,株式会社ハウス不動産情報,,株式会社,大阪府,大阪市此花区,春日出南３丁目３－４１,,27,104,5540023,,,,,,,2023-06-15,1,,,,,ハウスフドウサンジョウホウ,0
1306,6120001255716,新規,0,2023-06-15,2023-06-15,株式会社リーパス・バディ,,株式会社,大阪府,大阪市中央区,高麗橋２丁目５番１８号,,27,128,5410043,,,,,,,2023-06-15,1,,,,,リーパスバディ,0
1309,6120003024301,新規,0,2023-06-15,2023-06-15,３６９マーケティング合同会社,,合同会社,大阪府,大阪市生野区,鶴橋３丁目１番３８－４０６号,,27,116,5440031,,,,,,,2023-06-15,1,,,,,ミロクマーケティング,0
1311,6120101067747,新規,0,2023-06-15,2023-06-15,株式会社エーストラスト,,株式会社,大阪府,泉大津市,西港町７番１２号,,27,206,5950052,,,,,,,2023-06-15,1,,,,,エーストラスト,0
1312,6120901047667,新規,0,2023-06-15,2023-06-15,株式会社Ｓ．Ａ．Ｔ,,株式会社,大阪府,高槻市,氷室町２丁目３８番１１‐１０１号,,27,207,5691141,,,,,,,2023-06-15,1,,,,,エスエーティー,0
1316,6130003008773,新規,0,2023-06-15,2023-06-15,合同会社カイダンラボ,,合同会社,京都府,福知山市,字篠尾１２５７番地,,26,201,6200000,,,,,,,2023-06-15,1,,,,,カイダンラボ,0
1318,6140001130545,新規,0,2023-06-15,2023-06-15,株式会社クリーンワン,,株式会社,兵庫県,伊丹市,西野５丁目３５１番地１,,28,207,6640028,,,,,,,2023-06-15,1,,,,,クリーンワン,0
1332,6180001156735,新規,0,2023-06-15,2023-06-15,新都キャピタル株式会社,,株式会社,愛知県,名古屋市中区,栄１丁目８番１６号,,23,106,4600008,,,,,,,2023-06-15,1,,,,,シントキャピタル,0
1333,6180001156768,新規,0,2023-06-15,2023-06-15,松葉商会株式会社,,株式会社,愛知県,名古屋市中区,新栄３丁目１４－１５－３０２,,23,106,4600007,,,,,,,2023-06-15,1,,,,,マツバショウカイ,0
1334,6180001156784,新規,0,2023-06-15,2023-06-15,株式会社グロリア,,株式会社,愛知県,名古屋市中川区,細米町２丁目６９番地,,23,110,4540847,,,,,,,2023-06-15,1,,,,,グロリア,0
1352,6260001038033,新規,0,2023-06-15,2023-06-15,株式会社フェアカム,,株式会社,岡山県,岡山市中区,＿東町１丁目２番１６号,00130855,33,102,7038247,,,,,,,2023-06-15,1,,,,,フェアカム,0
1358,6290001101812,新規,0,2023-06-15,2023-06-15,株式会社ＮＥＯクリエイト,,株式会社,福岡県,三井郡大刀洗町,大字山隈１３１４－４,,40,503,8301226,,,,,,,2023-06-15,1,,,,,ネオクリエイト,0
1359,6290001101936,新規,0,2023-06-15,2023-06-15,株式会社スカイパレード,,株式会社,福岡県,糟屋郡篠栗町,和田３丁目２７－７,,40,342,8112414,,,,,,,2023-06-15,1,,,,,スカイパレード,0
1368,6330001030965,新規,0,2023-06-15,2023-06-15,株式会社ＫＥＮＭＡＮ,,株式会社,熊本県,合志市,須屋３７４８番地,,43,216,8611102,,,,,,,2023-06-15,1,,,,,ケンマン,0
1374,6360001032166,新規,0,2023-06-15,2023-06-15,株式会社くゆ喜,00130856,株式会社,沖縄県,八重山郡与那国町,字与那国５９番地２,,47,382,9071801,,,,,,,2023-06-15,1,,,,,クユキ,0
1375,6360001032174,新規,0,2023-06-15,2023-06-15,かふう沖縄株式会社,,株式会社,沖縄県,宜野湾市,大山２丁目９番２号前田商事第一ビル１Ｂ,,47,205,9012223,,,,,,,2023-06-15,1,,,,,カフウオキナワ,0
1378,6370003006175,新規,0,2023-06-15,2023-06-15,ｂｉｎｂｌｅ合同会社,,合同会社,宮城県,仙台市若林区,河原町２丁目２番１９号フォーチュンヒルズ２－１０３,,04,103,9840816,,,,,,,2023-06-15,1,,,,,ビンブル,0
1381,6370005010646,新規,0,2023-06-15,2023-06-15,医療法人新中道皮ふ科クリニック,,その他の設立登記法人,宮城県,宮城郡利府町,新中道２丁目５番１０号,,04,406,9810114,,,,,,,2023-06-15,1,,,,,シンナカミチヒフカクリニック,0
1390,6390001017288,新規,0,2023-06-15,2023-06-15,株式会社山形重機,,株式会社,山形県,山形市,蔵王半郷１６２０番地１,,06,201,9902305,,,,,,,2023-06-15,1,,,,,ヤマガタジュウキ,0
1394,6430001089331,新規,0,2023-06-15,2023-06-15,株式会社Ｈｏｐｅ,,株式会社,北海道,札幌市東区,苗穂町１０丁目３番３－１０１号,,01,103,0650043,,,,,,,2023-06-15,1,,,,,ホープ,0
1395,6430003015145,新規,0,2023-06-15,2023-06-15,合同会社みんぴい商会,,合同会社,北海道,札幌市北区,拓北五条４丁目６番７号,,01,102,0028065,,,,,,,2023-06-15,1,,,,,ミンピイショウカイ,0
1398,6500001025007,新規,0,2023-06-15,2023-06-15,株式会社リバーズエコ,,株式会社,愛媛県,伊予郡砥部町,宮内２番地,,38,402,7912120,,,,,,,2023-06-15,1,,,,,リバーズエコ,0
1402,6700150117476,新規,0,2023-06-15,2023-06-15,ＶＩＲＴＵＡＬ　ＬＩＧＨＴ　ＴＥＣＨＮＯＬＯＧＹ　ＬＩＭＩＴＥＤ,,外国会社等,,,,,,,,３００　ＬＯＣＫＨＡＲＴ　ＲＯＡＤ，ＷＡＮ　ＣＨＡＩ，ＦＬＡＴ／ＲＭ　Ａ　１２／Ｆ　ＺＪ　３００，ＨＫ　ＨＫ,,,,,,2023-06-15,1,,,,,バーチャルライトテクノロジーリミティッド,0
1403,6700150117484,新規,0,2023-06-15,2023-06-15,Ｓｈａｎｇｈａｉ　ＹｅＪｉａ　Ｉｍｐｏｒｔ　＆　Ｅｘｐｏｒｔ　Ｃｏ．，Ｌｔｄ．,,外国会社等,,,,,,,,Ｓｈａｎｇｈａｉ　Ｓｈａｎｇｈａｉ　ｙａｎｇｐｕｄｉｓｔｒｉｃｔ　ｎｉｎｇｗｕｒｏａｄ　ｎｏ２６９　ｒｍ１０２ｂｌｄｇ１,,,,,,2023-06-15,1,,,,,シャンハイイェジャインポートエクスポートカンパニーリミテッド,0
1404,6700150117492,新規,0,2023-06-15,2023-06-15,Ｓｈｅｎｚｈｅｎ　Ｙｏｕｙｉｎｇｚｈｏｎｇ　Ｔｅｃｈｎｏｌｏｇｙ　Ｃｏ．，Ｌｔｄ,,外国会社等,,,,,,,,１８２０，Ｂｌｏｃｋ　Ｂ，Ｔｉａｎｘｉａ　Ｉｎｔｅｒｎａｔｉｏｎａｌ　Ｃｅｎｔｅｒ，Ｎｏ．８　Ｔａｏｙｕａｎ　Ｒｏａｄ，Ｄａｗａｎｇｓｈａｎ　Ｃｏｍｍｕｎｉｔｙ，Ｎａｎｔｏｕ　Ｓｔｒｅｅｔ，Ｎａｎｓｈａｎ　Ｄｉｓｔｒｉｃｔ，Ｓｈｅｎｚｈｅｎ　Ｇｕａｎｇｄｏｎｇ　ＣＮ,,,,,,2023-06-15,1,,,,,シェンゼェンヨウインヂョンテクナロジーカンパニーリシテッド,0
1412,7010001236073,新規,0,2023-06-15,2023-06-15,株式会社フリューゲル,,株式会社,東京都,文京区,千駄木３丁目２９番９号,,13,105,1130022,,,,,,,2023-06-15,1,,,,,フリューゲル,0
1413,7010001236081,新規,0,2023-06-15,2023-06-15,株式会社Ｖ＆Ｕ　Ｃｏｎｓｕｌｔｉｎｇ,,株式会社,東京都,文京区,小石川１丁目２３番２－９０２号,,13,105,1120002,,,,,,,2023-06-15,1,,,,,ヴィーアンドユーコンサルティング,0
1414,7010001236131,新規,0,2023-06-15,2023-06-15,あずさ株式会社,,株式会社,東京都,中央区,銀座６丁目６番１号,,13,102,1040061,,,,,,,2023-06-15,1,,,,,アズサ,0
1415,7010001236164,新規,0,2023-06-15,2023-06-15,株式会社ノスリ,,株式会社,東京都,小笠原村,父島字小曲コーヒー山,,13,421,1002101,,,,,,,2023-06-15,1,,,,,ノスリ,0
1416,7010001236172,新規,0,2023-06-15,2023-06-15,株式会社ゆーろほーぷ,,株式会社,東京都,中央区,佃２丁目１０番９－２９０３号,,13,102,1040051,,,,,,,2023-06-15,1,,,,,ユーロホープ,0
1417,7010001236197,新規,0,2023-06-15,2023-06-15,株式会社Ｐ２Ｘ,,株式会社,東京都,千代田区,丸の内２丁目２番１号岸本ビルヂング６階,,13,101,1000005,,,,,,,2023-06-15,1,,,,,ピーツーエックス,0
1418,7010003040845,新規,0,2023-06-15,2023-06-15,シンフォニー合同会社,,合同会社,東京都,中央区,銀座１丁目６番１１号土志田ビルディング３Ｆ,,13,102,1040061,,,,,,,2023-06-15,1,,,,,シンフォニー,0
1422,7010401174971,新規,0,2023-06-15,2023-06-15,小鳥株式会社,,株式会社,東京都,港区,元赤坂１丁目２番７号,,13,103,1070051,,,,,,,2023-06-15,1,,,,,コトリ,0
1423,7010401174996,新規,0,2023-06-15,2023-06-15,ファンク株式会社,,株式会社,東京都,港区,白金台４丁目２－１０ランドステージ白金台２０２,,13,103,1080071,,,,,,,2023-06-15,1,,,,,ファンク,0
1424,7010401175012,新規,0,2023-06-15,2023-06-15,株式会社アットプラス,,株式会社,東京都,港区,浜松町２丁目２番１５号浜松町ダイヤビル２階,,13,103,1050013,,,,,,,2023-06-15,1,,,,,アットプラス,0
1425,7010401175037,新規,0,2023-06-15,2023-06-15,株式会社アイディアルマジック,,株式会社,東京都,港区,南青山３丁目１３番２号山川ビル２階,,13,103,1070062,,,,,,,2023-06-15,1,,,,,アイディアルマジック,0
1426,7010401175053,新規,0,2023-06-15,2023-06-15,Ｋ‐ＦＡＳ株式会社,,株式会社,東京都,港区,東麻布１丁目６－８－６０２,,13,103,1060044,,,,,,,2023-06-15,1,,,,,ケーファズ,0
1427,7010401175061,新規,0,2023-06-15,2023-06-15,株式会社ＩＳＭ,,株式会社,東京都,港区,東麻布３丁目１０番１号アーデン麻布４０１号室,,13,103,1060044,,,,,,,2023-06-15,1,,,,,イズム,0
1429,7010403030322,新規,0,2023-06-15,2023-06-15,アテナ・アソシエイツ合同会社,,合同会社,東京都,港区,南青山３丁目１番３号スプライン青山東急ビル３階,,13,103,1070062,,,,,,,2023-06-15,1,,,,,アテナアソシエイツ,0
1430,7010403030330,新規,0,2023-06-15,2023-06-15,合同会社ＮＥＷ　ＬＡＢＥＬ,,合同会社,東京都,港区,六本木３丁目１５番２４号,,13,103,1060032,,,,,,,2023-06-15,1,,,,,ニューレーベル,0
1432,7010501050569,新規,0,2023-06-15,2023-06-15,ブリッジゴールド株式会社,,株式会社,東京都,台東区,上野３丁目６番７号泉ビル５階,,13,106,1100005,,,,,,,2023-06-15,1,,,,,ブリッジゴールド,0
1438,7010601063264,新規,0,2023-06-15,2023-06-15,ＪＵグループホールディングス株式会社,,株式会社,東京都,墨田区,横川３丁目７番１０号,,13,107,1300003,,,,,,,2023-06-15,1,,,,,ジェーユーグループホールディングス,0
1453,7011001155040,新規,0,2023-06-15,2023-06-15,ＹＯＮ株式会社,,株式会社,東京都,渋谷区,円山町５番５号Ｎａｖｉ渋谷Ｖ３階,,13,113,1500044,,,,,,,2023-06-15,1,,,,,ヨン,0
1460,7011101103254,新規,0,2023-06-15,2023-06-15,株式会社Ｊｏｂｓ,,株式会社,東京都,新宿区,西新宿３丁目３番１３号西新宿水間ビル６階,,13,104,1600023,,,,,,,2023-06-15,1,,,,,ジョブズ,0
1462,7011103013154,新規,0,2023-06-15,2023-06-15,Ｒｙｚｅｎ合同会社,,合同会社,東京都,新宿区,西新宿３丁目３番１３号西新宿水間ビル２Ｆ,,13,104,1600023,,,,,,,2023-06-15,1,,,,,ライゼン,0
1463,7011203004111,新規,0,2023-06-15,2023-06-15,ＮＢＯエンターテインメント合同会社,,合同会社,東京都,中野区,弥生町１丁目５０番１２号メゾンブロア２０３号,,13,114,1640013,,,,,,,2023-06-15,1,,,,,ンボエンターテイメント,0
1470,7011501029413,新規,0,2023-06-15,2023-06-15,株式会社風景,,株式会社,東京都,北区,浮間１丁目１番１４号リムジンビル３１３,,13,117,1150051,,,,,,,2023-06-15,1,,,,,フウケイ,0
1471,7011605002530,新規,0,2023-06-15,2023-06-15,特定非営利活動法人うちねこ２２,,その他の設立登記法人,東京都,練馬区,東大泉３丁目５０番１０号植村ビル２階,,13,120,1780063,,,,,,,2023-06-15,1,,,,,ウチネコニャンニャン,0
1472,7011801042586,新規,0,2023-06-15,2023-06-15,株式会社ＰＭＰ,,株式会社,東京都,足立区,宮城１丁目１３番２号,,13,121,1200047,,,,,,,2023-06-15,1,,,,,ピーエムピー,0
1474,7011805003279,新規,0,2023-06-15,2023-06-15,一般社団法人福祉のみらい,,その他の設立登記法人,東京都,足立区,綾瀬２丁目３６番２号,,13,121,1200005,,,,,,,2023-06-15,1,,,,,フクシノミライ,0
1482,7020001152096,新規,0,2023-06-15,2023-06-15,Ａ‐Ｌｉｎｋ株式会社,,株式会社,神奈川県,川崎市高津区,末長２丁目１０－１６溝の口スペック５０１号室,,14,134,2130013,,,,,,,2023-06-15,1,,,,,エーリンク,0
1483,7020001152105,新規,0,2023-06-15,2023-06-15,株式会社ナガツキ,,株式会社,神奈川県,横浜市磯子区,新杉田町３番地５ライオンズマンション３０６号,,14,107,2350032,,,,,,,2023-06-15,1,,,,,ナガツキ,0
1484,7020001152113,新規,0,2023-06-15,2023-06-15,株式会社マイフィットダンス,,株式会社,神奈川県,横浜市港南区,港南台３丁目１１番３１号殿山グリーンビル２０１,,14,111,2340054,,,,,,,2023-06-15,1,,,,,マイフィットダンス,0
1489,7020005016033,新規,0,2023-06-15,2023-06-15,一般社団法人横浜川崎海上コンテナ協会,,その他の設立登記法人,神奈川県,横浜市中区,本牧ふ頭１番１０号ターミナルオフィスセンター３０１号,,14,104,2310811,,,,,,,2023-06-15,1,,,,,ヨコハマカワサキカイジョウコンテナキョウカイ,0
1492,7021001079239,新規,0,2023-06-15,2023-06-15,株式会社ＦＡＣＴＯＲＩＺＥ,,株式会社,神奈川県,横須賀市,三春町２丁目３２番地,,14,201,2380014,,,,,,,2023-06-15,1,,,,,ファクトライズ,0
1497,7030003021934,新規,0,2023-06-15,2023-06-15,合同会社ＳＨＯＯＴＥＲ　ＯＮＥ,,合同会社,埼玉県,さいたま市中央区,下落合５丁目１７番１－１号,,11,105,3380002,,,,,,,2023-06-15,1,,,,,シューターワン,0
1498,7030003021983,新規,0,2023-06-15,2023-06-15,合同会社ＢＡＲＵ,,合同会社,埼玉県,さいたま市桜区,栄和３丁目１５番２号,,11,106,3380823,,,,,,,2023-06-15,1,,,,,バル,0
1504,7040003022799,新規,0,2023-06-15,2023-06-15,スターズ合同会社,,合同会社,千葉県,茂原市,緑ケ丘３丁目１７番地１,,12,210,2970065,,,,,,,2023-06-15,1,,,,,スターズ,0
1518,7080401026547,新規,0,2023-06-15,2023-06-15,株式会社ＲＥＡＬＩＺＥ,,株式会社,静岡県,浜松市浜北区,小林１６３８－１８,,22,136,4340031,,,,,,,2023-06-15,1,,,,,リアライズ,0
1524,7110001037619,新規,0,2023-06-15,2023-06-15,株式会社ノーストレーディング,,株式会社,新潟県,阿賀野市,高田１２８番地６,,15,223,9591971,,,,,,,2023-06-15,1,,,,,ノーストレーディング,0
1526,7110005016957,新規,0,2023-06-15,2023-06-15,一般社団法人南魚沼防災活動センター,,その他の設立登記法人,新潟県,南魚沼市,二日町１３８番地１,,15,226,9496772,,,,,,,2023-06-15,1,,,,,ミナミウオヌマボウサイカツドウセンター,0
1533,7120001255715,新規,0,2023-06-15,2023-06-15,株式会社３６９,,株式会社,大阪府,大阪市北区,曾根崎新地２丁目１番１３号,,27,127,5300002,,,,,,,2023-06-15,1,,,,,ミロク,0
1543,7120103005266,新規,0,2023-06-15,2023-06-15,Ｔ＆Ｔ合同会社,,合同会社,大阪府,堺市堺区,中安井町３丁３番地９,,27,141,5900063,,,,,,,2023-06-15,1,,,,,ティアンドティ,0
1546,7122001037052,新規,0,2023-06-15,2023-06-15,株式会社毎日興産,,株式会社,大阪府,東大阪市,本町１５－４毎日興産ビル,,27,227,5798045,,,,,,,2023-06-15,1,,,,,マイニチコウサン,0
1547,7130003008789,新規,0,2023-06-15,2023-06-15,合同会社ＳＡ‐Ｌ,,合同会社,京都府,京都市南区,久世殿城町５２４番地１,,26,107,6018205,,,,,,,2023-06-15,1,,,,,エスエーエル,0
1552,7140001130420,新規,0,2023-06-15,2023-06-15,株式会社Ｎａｔｕｒａｌ　Ｌｉｆｅ,,株式会社,兵庫県,尼崎市,武庫元町１丁目１３番１２号２０３,,28,202,6610043,,,,,,,2023-06-15,1,,,,,,0
1553,7140001130528,新規,0,2023-06-15,2023-06-15,株式会社ＳＲＨ,,株式会社,兵庫県,尼崎市,東園田町４丁目１０１番地の７ナイトービル,,28,202,6610953,,,,,,,2023-06-15,1,,,,,エスアールエイチ,0
1558,7150001026485,新規,0,2023-06-15,2023-06-15,株式会社Ｍｉｃｏｎｎｅ,,株式会社,奈良県,橿原市,十市町７９９番地,,29,205,6340008,,,,,,,2023-06-15,1,,,,,ミコネ,0
1567,7180003025375,新規,0,2023-06-15,2023-06-15,合同会社チャンドラマン,,合同会社,愛知県,名古屋市中区,栄３丁目１２番６号インペリアルプラザＢ１,,23,106,4600008,,,,,,,2023-06-15,1,,,,,チャンドラマン,0
1570,7180005020250,新規,0,2023-06-15,2023-06-15,特定非営利活動法人はじめの一歩あおば,,その他の設立登記法人,愛知県,名古屋市守山区,桜坂２丁目２３０８番地,,23,113,4630018,,,,,,,2023-06-15,1,,,,,ハジメノイッポアオバ,0
1578,7220003003533,新規,0,2023-06-15,2023-06-15,合同会社キュリオラボ,,合同会社,石川県,かほく市,木津ロ７７‐６,,17,209,9291171,,,,,,,2023-06-15,1,,,,,キュリオラボ,0
1584,7260001038040,新規,0,2023-06-15,2023-06-15,ダイヤエンジ株式会社,,株式会社,岡山県,岡山市南区,浦安本町２１番地１０,,33,104,7028026,,,,,,,2023-06-15,1,,,,,ダイヤエンジ,0
1598,7290001101951,新規,0,2023-06-15,2023-06-15,株式会社清海,00130867,株式会社,福岡県,福岡市東区,松香台２丁目６番１号崎村ビル２０２号室,,40,131,8130004,,,,,,,2023-06-15,1,,,,,セイカイ,0
1612,7370001050091,新規,0,2023-06-15,2023-06-15,株式会社Ｒ＆Ｔ企画,,株式会社,宮城県,仙台市若林区,大和町４丁目７番７号,,04,103,9840042,,,,,,,2023-06-15,1,,,,,アールアンドティーキカク,0
1615,7370003006174,新規,0,2023-06-15,2023-06-15,合同会社エスポワール,,合同会社,宮城県,仙台市若林区,大和町５丁目１１番３２－１００２号,,04,103,9840042,,,,,,,2023-06-15,1,,,,,エスポワール,0
1620,7390001017287,新規,0,2023-06-15,2023-06-15,株式会社白飛,,株式会社,山形県,山形市,江俣４丁目１８番４３号,,06,201,9900861,,,,,,,2023-06-15,1,,,,,ハクト,0
1633,7500001025006,新規,0,2023-06-15,2023-06-15,株式会社Ｋ’ｓダイヤ,,株式会社,愛媛県,松山市,山西町７６９番地９,,38,201,7918026,,,,,,,2023-06-15,1,,,,,ケーズダイヤ,0
1634,7700150117459,新規,0,2023-06-15,2023-06-15,Ａｒｔｉｓｔ　Ｉｎ　Ｒｅｓｉｄｅｎｃｅ　ＬＬＣ,,外国会社等,,,,,,,,アメリカ合衆国ネバダ州８９４５１　ローズウッドサークル　インクラインビレッジ７９６,,,,,,2023-06-15,1,,,,,アーテイストインレジデンスエルエルシー,0
1635,7700150117475,新規,0,2023-06-15,2023-06-15,ｓｈｅｎ　ｚｈｅｎ　ｃｈａｎｇ　ｃｈｕａｎ　ｍａｏ　ｙｉ　ｙｏｕ　ｘｉａｎ　ｇｏｎｇ　ｓｉ,,外国会社等,,,,,,,,ｌｕｏｈｕｑｕｎａｎｈｕｊｉｅｄａｏｊｉａｂｅｉｓｈｅｑｕ　ｄｏｎｇｍｅｎｎａｎｌｕ３００７ｈａｏｊｉｎｌｏｎｇｄａｓｈａｓｈｉｌｉｕｃｅｎｇ１６０８Ｍ３　ｓｈｅｎｚｈｅｎｓｈｉ,,,,,,2023-06-15,1,,,,,シンセンチャンツァンマオイユウゲンコウシ,0
1636,7700150117483,新規,0,2023-06-15,2023-06-15,Ｓｈｅｎｚｈｅｎ　Ｌｉａｎｈｅ　Ｆｅｎｇｃｈｅｎｇ　Ｚｈｕａｎｇｓｈｉ　Ｓｈｅｊｉ　Ｌｔｄ,,外国会社等,,,,,,,,Ｆｅｎｇｙｅｇｏｎｇｙｕ　Ａ１２１０，Ｎａｎｓｈａｎｊｉｅｄａｏ　Ｎａｎｓｈａｎｄａｄａｏ　１０８６，Ｎａｎｓｈａｎ，Ｓｈｅｎｚｈｅｎ，Ｇｕａｎｇｄｏｎｇ,,,,,,2023-06-15,1,,,,,シンセンレェンヘフェンチェンツゥアンシシェジリミテッド,0
1637,7700150117491,新規,0,2023-06-15,2023-06-15,Ｓｈｅｎｚｈｅｎｓｈｉ　Ｃｈｕａｎｇｌｉｈｏｎｇ　ｍａｏｙｉ　ｙｏｕｘｉａｎｇｏｎｇｓｉ,,外国会社等,,,,,,,,ｈｅｎｇｇａｎｇｊｉｅｄａｏ　ｌｉｕｙｕｅｓｈｅｑｕ　ｄｏｎｇｃｈｅｎｇｚｈｏｎｇｘｉｎｈｕａｙｕａｎ（ｅｒｑｉ）Ｆ２４０５　ｓｈｅｎｚｈｅｎｓｈｉ　ｌｏｎｇｇａｎｇｑｕ　ｇｕａｎｇｄｏｎｇｓｈｅｎｇ　ＣＮ,,,,,,2023-06-15,1,,,,,シェンゼェンシチゥアンリホンマオイユウゲンコウシ,0
1640,8010001236163,新規,0,2023-06-15,2023-06-15,株式会社Ｊ・ＲＥＶＯ,,株式会社,東京都,中央区,銀座１丁目１２番４号Ｎ＆ＥＢＬＤ．６Ｆ,,13,102,1040061,,,,,,,2023-06-15,1,,,,,ジェーレボ,0
1641,8010003040844,新規,0,2023-06-15,2023-06-15,ＲＣＯＭＢ合同会社,,合同会社,東京都,千代田区,丸の内２丁目１番１号明治生命館７階ディーエルエイ・パイパー東京パートナーシップ外国法共同事業法律事務所内,,13,101,1000005,,,,,,,2023-06-15,1,,,,,アールシーオーエムビー,0
1642,8010003040869,新規,0,2023-06-15,2023-06-15,ＳＧＥＴ札幌２蓄電所合同会社,,合同会社,東京都,千代田区,丸の内３丁目１番１号東京共同会計事務所内,,13,101,1000005,,,,,,,2023-06-15,1,,,,,エスゲットサッポロニチクデンショ,0
1652,8010401175036,新規,0,2023-06-15,2023-06-15,株式会社Ｋ＆Ｋデザイン,,株式会社,東京都,港区,港南２丁目１７番１号京王品川ビル２Ｆ,,13,103,1080075,,,,,,,2023-06-15,1,,,,,ケーアンドケーデザイン,0
1653,8010401175060,新規,0,2023-06-15,2023-06-15,株式会社ＡＧｒｏｗｔｈ　Ｏｎｅ,,株式会社,東京都,港区,虎ノ門３丁目１８番６号朝日虎ノ門マンション６１４号室,,13,103,1050001,,,,,,,2023-06-15,1,,,,,アグロウスワン,0
1655,8010403030321,新規,0,2023-06-15,2023-06-15,合同会社ＤＯＯＰ,,合同会社,東京都,港区,芝４丁目６番１３号,,13,103,1080014,,,,,,,2023-06-15,1,,,,,ドゥープ,0
1659,8010501050584,新規,0,2023-06-15,2023-06-15,株式会社霧海風,,株式会社,東京都,台東区,浅草橋３丁目１０番７号ヴォーガコルテ浅草橋ＩＩ１００２号,00130852,13,106,1110053,,,,,,,2023-06-15,1,,,,,ムカイゼ,0
1670,8010901053253,新規,0,2023-06-15,2023-06-15,アルテミス・アポロン株式会社,,株式会社,東京都,世田谷区,千歳台４丁目２６番２号芦花公園スカイハイツ６０３,,13,112,1570071,,,,,,,2023-06-15,1,,,,,アルテミスアポロン,0
1678,8011001155031,新規,0,2023-06-15,2023-06-15,ＨＯＣＯ株式会社,,株式会社,東京都,目黒区,上目黒４丁目３２番６号,,13,110,1530051,,,,,,,2023-06-15,1,,,,,ホコ,0
1679,8011001155056,新規,0,2023-06-15,2023-06-15,株式会社ＡＰＰＩ,,株式会社,東京都,目黒区,目黒１丁目４番１６号目黒Ｇビル７Ｆ,,13,110,1530063,,,,,,,2023-06-15,1,,,,,エイピーピーアイ,0
1680,8011003016999,新規,0,2023-06-15,2023-06-15,合同会社ＹＮＯ,,合同会社,東京都,渋谷区,神南１丁目１２－１４宮田ビル６Ｆ,,13,113,1500041,,,,,,,2023-06-15,1,,,,,ワイエヌオー,0
1685,8011103013153,新規,0,2023-06-15,2023-06-15,合同会社ＴＨＲＥＥ,,合同会社,東京都,新宿区,新宿７丁目２４番１号６０２,,13,104,1600022,,,,,,,2023-06-15,1,,,,,スリー,0
1689,8011503005650,新規,0,2023-06-15,2023-06-15,合同会社ＹＫシステムデザイン,,合同会社,東京都,北区,神谷１丁目２９番８－８０２号グランドール神谷,,13,117,1150043,,,,,,,2023-06-15,1,,,,,ワイケイシステムデザイン,0
1693,8011603003959,新規,0,2023-06-15,2023-06-15,合同会社Ｃｅｌｅｓｔｅ　Ｂｌｕｅ,,合同会社,東京都,練馬区,旭町１丁目５番１４号,,13,120,1790071,,,,,,,2023-06-15,1,,,,,セレステブルー,0
1699,8011801042577,新規,0,2023-06-15,2023-06-15,株式会社明秀,,株式会社,東京都,足立区,中央本町３丁目１７－１２－１０１７,,13,121,1210011,,,,,,,2023-06-15,1,,,,,メイシュウ,0
1700,8011801042585,新規,0,2023-06-15,2023-06-15,株式会社ウェルビーイング,,株式会社,東京都,足立区,足立４丁目６番１５号,,13,121,1200015,,,,,,,2023-06-15,1,,,,,ウェルビーイング,0
1707,8012403006029,新規,0,2023-06-15,2023-06-15,合同会社トーゲツ,,合同会社,東京都,府中市,栄町２丁目２８番地の７,,13,206,1830051,,,,,,,2023-06-15,1,,,,,トーゲツ,0
1713,8013301050903,新規,0,2023-06-15,2023-06-15,株式会社ＪＢＴ,,株式会社,東京都,豊島区,南大塚３丁目１２－３ダンサイドビル４Ｆ,,13,116,1700005,,,,,,,2023-06-15,1,,,,,ジェービーティー,0
1724,8020001152079,新規,0,2023-06-15,2023-06-15,株式会社橙百合,,株式会社,神奈川県,川崎市中原区,小杉町２丁目２２８番地１,,14,133,2110063,,,,,,,2023-06-15,1,,,,,トモエ,0
1730,8020003024061,新規,0,2023-06-15,2023-06-15,コバテック合同会社,,合同会社,神奈川県,横浜市中区,本牧町２丁目３１３番地７サングレイス本牧２０４号室,,14,104,2310806,,,,,,,2023-06-15,1,,,,,コバテック,0
1745,8030003021933,新規,0,2023-06-15,2023-06-15,爍宇合同会社,,合同会社,埼玉県,川口市,飯塚３丁目１－２４－３０２,,11,203,3320023,,,,,,,2023-06-15,1,,,,,ラクウ,0
1747,8030005021295,新規,0,2023-06-15,2023-06-15,特定非営利活動法人ありのままでスバラシイ,,その他の設立登記法人,埼玉県,さいたま市大宮区,桜木町２丁目５４６－１ワイエス桜木２１－２０２号室,,11,103,3300854,,,,,,,2023-06-15,1,,,,,アリノママデスバラシイ,0
1756,8050001052994,新規,0,2023-06-15,2023-06-15,大昭ホールディングス株式会社,,株式会社,茨城県,龍ケ崎市,１６８６番地,,08,208,3010000,,,,,,,2023-06-15,1,,,,,ダイショウホールディングス,0
1763,8060001036088,新規,0,2023-06-15,2023-06-15,株式会社アルガ,,株式会社,栃木県,宇都宮市,城南３丁目２番２１号,,09,201,3210117,,,,,,,2023-06-15,1,,,,,アルガ,0
1780,8080401026546,新規,0,2023-06-15,2023-06-15,株式会社ＳＴサービス,,株式会社,静岡県,浜松市浜北区,西美薗１８７０番地の１６ベルメゾン宮裏１０５,,22,136,4340033,,,,,,,2023-06-15,1,,,,,エスティーサービス,0
1783,8080403004806,新規,0,2023-06-15,2023-06-15,合同会社杉,,合同会社,静岡県,浜松市東区,小池町７２１番地の１,,22,132,4350056,,,,,,,2023-06-15,1,,,,,スギ,0
1787,8110001037618,新規,0,2023-06-15,2023-06-15,Ｍ・Ｅ・Ｓ株式会社,,株式会社,新潟県,長岡市,中之島字根岸８４６番地１,,15,202,9540124,,,,,,,2023-06-15,1,,,,,エムイーエス,0
1798,8120001255672,新規,0,2023-06-15,2023-06-15,ＭＳ株式会社,,株式会社,大阪府,大阪市東成区,東中本１丁目１５番１４号,,27,115,5370021,,,,,,,2023-06-15,1,,,,,エムエス,0
1799,8120001255680,新規,0,2023-06-15,2023-06-15,株式会社Ｇスピリッツ,,株式会社,大阪府,大阪市北区,天神橋５丁目７番１０号,,27,127,5300041,,,,,,,2023-06-15,1,,,,,ジースピリッツ,0
1800,8120001255730,新規,0,2023-06-15,2023-06-15,櫻龍株式会社,,株式会社,大阪府,大阪市西成区,橘１丁目３番６号,,27,122,5570051,,,,,,,2023-06-15,1,,,,,エイリュウ,0
1803,8120003024299,新規,0,2023-06-15,2023-06-15,ＴＨＩＮＨ　ＨＩＥＵ合同会社,,合同会社,大阪府,大阪市生野区,巽北１丁目２１番２９号１１１３号室,00130854,27,116,5440004,,,,,,,2023-06-15,1,,,,,ティンヒエウ,0
1807,8120903004689,新規,0,2023-06-15,2023-06-15,合同会社まみー,,合同会社,大阪府,豊中市,千里園３丁目６番１０号千里園マンションＣ２０２,,27,203,5600046,,,,,,,2023-06-15,1,,,,,マミー,0
1820,8140001130519,新規,0,2023-06-15,2023-06-15,株式会社宝翔,,株式会社,兵庫県,宝塚市,安倉南２丁目１８番１２号,,28,214,6650823,,,,,,,2023-06-15,1,,,,,ホウショウ,0
1822,8140003019207,新規,0,2023-06-15,2023-06-15,合同会社七菓,,合同会社,兵庫県,神戸市須磨区,妙法寺字菅ノ池３－１フィーカ須磨の丘１階,,28,107,6540121,,,,,,,2023-06-15,1,,,,,ナナカ,0
1831,8180001156782,新規,0,2023-06-15,2023-06-15,株式会社ＫＧＴｓｅｎｓｅ,,株式会社,愛知県,名古屋市名東区,高社２丁目２７番地,,23,115,4650095,,,,,,,2023-06-15,1,,,,,ケージーティーセンス,0
1838,8200003005992,新規,0,2023-06-15,2023-06-15,合同会社ホヌ,,合同会社,岐阜県,高山市,名田町４丁目１９番地５,,21,203,5060021,,,,,,,2023-06-15,1,,,,,ホヌ,0
1861,8290001101918,新規,0,2023-06-15,2023-06-15,株式会社未来輝く研究所,,株式会社,福岡県,筑紫野市,二日市南３丁目９番１号１Ｆ,,40,217,8180057,,,,,,,2023-06-15,1,,,,,ミライカガヤクケンキュウジョ,0
1862,8290001101950,新規,0,2023-06-15,2023-06-15,株式会社新生不動産,,株式会社,福岡県,福岡市南区,大橋１丁目２７番１６号,,40,134,8150033,,,,,,,2023-06-15,1,,,,,シンセイフドウサン,0
1868,8290803004442,新規,0,2023-06-15,2023-06-15,Ｍａ　ｖｉｅ合同会社,,合同会社,福岡県,北九州市小倉南区,沼緑町５丁目６番１号,,40,107,8000207,,,,,,,2023-06-15,1,,,,,マヴィ,0
1872,8350003004377,新規,0,2023-06-15,2023-06-15,とんかつ合同会社,,合同会社,宮崎県,延岡市,下伊形町５９８１番地４プチメゾン大村１０５,,45,203,8890504,,,,,,,2023-06-15,1,,,,,トンカツ,0
1873,8360001032172,新規,0,2023-06-15,2023-06-15,Ｃ株式会社,,株式会社,沖縄県,浦添市,勢理客２丁目１５番２４号１０１号室,,47,208,9012122,,,,,,,2023-06-15,1,,,,,シー,0
1874,8360005006866,新規,0,2023-06-15,2023-06-15,一般社団法人コザミクストピア,,その他の設立登記法人,沖縄県,沖縄市,照屋１丁目１番７号,,47,211,9040011,,,,,,,2023-06-15,1,,,,,コザミクストピア,0
1878,8370001050082,新規,0,2023-06-15,2023-06-15,株式会社高一,00130865,株式会社,宮城県,仙台市泉区,七北田字東裏６９番地,,04,105,9813131,,,,,,,2023-06-15,1,,,,,タカイチ,0
1879,8370001050090,新規,0,2023-06-15,2023-06-15,株式会社ビーネクスト,,株式会社,宮城県,仙台市太白区,長町６丁目１３番２号フリシャー仙台ビル,,04,104,9820011,,,,,,,2023-06-15,1,,,,,ビーネクスト,0
1884,8380001033788,新規,0,2023-06-15,2023-06-15,株式会社大黒商会,,株式会社,福島県,須賀川市,森宿字安積田２１５番地,,07,207,9620001,,,,,,,2023-06-15,1,,,,,ダイコクショウカイ,0
1896,8450001014021,新規,0,2023-06-15,2023-06-15,株式会社リアルアザラシ,,株式会社,北海道,旭川市,永山九条１２丁目１番４号パレスシャリオ１０３号室,,01,204,0798419,,,,,,,2023-06-15,1,,,,,リアルアザラシ,0
1897,8470001019662,新規,0,2023-06-15,2023-06-15,ｅｎ．株式会社,,株式会社,香川県,高松市,三谷町４３４８番地８,,37,201,7610450,,,,,,,2023-06-15,1,,,,,エン,0
1900,8500001025005,新規,0,2023-06-15,2023-06-15,株式会社チアフル,,株式会社,愛媛県,東温市,志津川南４丁目８番地２５,,38,215,7910206,,,,,,,2023-06-15,1,,,,,チアフル,0
1903,8700150117458,新規,0,2023-06-15,2023-06-15,亡高橋信司　相続財産,00130834,その他,東京都,三鷹市,下連雀３丁目３３番１３号三鷹第ニビル３０８号室　正岡法律事務所,,13,204,1810013,,,,,,,2023-06-15,1,,,,,ボウタカハシシンジソウゾクザイサン,0
1904,8700150117466,新規,0,2023-06-15,2023-06-15,Ｙｏｎｇｋａｎｇ　ｓｈｉ　ｊｉｎｙａｏ　ｍａｏｙｉ　ｙｏｕｘｉａｎｇｏｎｇｓｉ,,外国会社等,,,,,,,,ｂａｉｃｈｕａｎｃｕｎ　ｓｈａｎｇｓｈｉｚｉｒａｎｃｕｎ１６１ｈａｏ　ｙｏｎｇｋａｎｇｓｈｉ　ｚｈｉｙｉｎｇｚｈｅｎ　Ｚｈｅｊｉａｎｇｓｈｅｎｇ　ｊｉｎｈｕａｓｈｉ,,,,,,2023-06-15,1,,,,,ヨンカンシージンヤオマオイーヨウシエンゴンスー,0
1905,8700150117474,新規,0,2023-06-15,2023-06-15,ｓｈｅｎ　ｚｈｅｎ　ｗａｎ　ｚｉ　ｋｅ　ｊｉ　ｙｏｕ　ｘｉａｎ　ｇｏｎｇ　ｓｉ,,外国会社等,,,,,,,,１００１．Ｂｕｉｌｄｉｎｇ　Ａ，Ｃｈｕａｎｇｘｉｎｄａｓｈａ，Ｎｏ．１９８，Ｄａｘｉｎ　Ｒｏａｄ　Ｍａｊｉａｌｏｎｇ　Ｃｏｍｍｕｎｉｔｙ，Ｎａｎｔｏｕ　Ｒｏａｄ，Ｎａｎｓｈａｎ　Ｄｉｓｔｒｉｃｔ　ＳＨＥＮＺＨＥＮ　ＧＵＡＮＧＤＯＮＧ,,,,,,2023-06-15,1,,,,,シンセンワンジケジユウゲンコウシ,0
1906,8700150117482,新規,0,2023-06-15,2023-06-15,ＱＵＡＮＺＨＯＵ　ＪＩＮＦＵＢＥＩ　ＴＲＡＤＩＮＧ　ＣＯ．，ＬＴＤ．,,外国会社等,,,,,,,,ｆｕｊｉａｎｓｈｅｎｇ　ｑｕａｎｚｈｏｕｓｈｉ　ｓｈｉｓｈｉｓｈｉ　ｌｉｎｇｘｉｕｚｈｅｎｎａｎｙａｎｇｌｕ２８８ｈａｏ　ｓｈｉｓｈｉｇｕｏｊｉｑｉｎｇｆａｎｇｃｈｅｎｇ１ｈａｏ　ｘｉｅｚｉｌｏｕ９０５ｈａｏＡ２ｓｈｉ　ｑｕａｎｚｈｏｕｓｈｉ　ｆｕｊｉａｎｓｈｅｎｇ　ＣＮ,,,,,,2023-06-15,1,,,,,ツェンゾォウジンフベイトゥレイディングカンパニーリミテッド,0
1907,8700150117490,新規,0,2023-06-15,2023-06-15,ｘｉａｍｅｎ　ｐｕｌａｓｉｌｉｇｅ　ｋｅｊｉ　ｙｏｕｘｉａｎｇｏｎｇｓｉ,,外国会社等,,,,,,,,ｈｕ　ｌｉ　ｑｕ　ｙｕａｎ　ｓｈａｎ　ｎａｎ　ｌｕ　６７５　ｈａｏ　Ｂ１１４　ｓｈｉ　ｘｉａ　ｍｅｎ　ｓｈｉ　ｆｕ　ｊｉａｎ　ＣＮ,,,,,,2023-06-15,1,,,,,シャメンプラスリゲケジユウゲンコウシ,0
1913,9010001236030,新規,0,2023-06-15,2023-06-15,橋本石油株式会社,,株式会社,東京都,中央区,月島２丁目６番１２号,,13,102,1040052,,,,,,,2023-06-15,1,,,,,ハシモトセキユ,0
1918,9010003040868,新規,0,2023-06-15,2023-06-15,ＳＧＥＴ札幌１蓄電所合同会社,,合同会社,東京都,千代田区,丸の内３丁目１番１号東京共同会計事務所内,,13,101,1000005,,,,,,,2023-06-15,1,,,,,エスゲットサッポロイチチクデンショ,0
1919,9010003040876,新規,0,2023-06-15,2023-06-15,三方良合同会社,,合同会社,東京都,文京区,本郷１丁目３１番１２号プラウド本郷一丁目ディアージュ１００２号室,,13,105,1130033,,,,,,,2023-06-15,1,,,,,サンポウヨシ,0
1938,9010405022200,新規,0,2023-06-15,2023-06-15,弁護士法人麻布十番総合法律事務所,,その他の設立登記法人,東京都,港区,麻布十番２丁目２０番１４号麻布十番ハウス２０４,,13,103,1060045,,,,,,,2023-06-15,1,,,,,アザブジュウバンソウゴウホウリツジムショ,0
1946,9010701044419,新規,0,2023-06-15,2023-06-15,アトリエコード株式会社,,株式会社,東京都,品川区,東大井６丁目１７－１－１Ｆ,,13,109,1400011,,,,,,,2023-06-15,1,,,,,アトリエコード,0
1952,9010903008238,新規,0,2023-06-15,2023-06-15,合同会社カトルヴァントロワ,,合同会社,東京都,世田谷区,下馬１丁目２２－８,,13,112,1540002,,,,,,,2023-06-15,1,,,,,カトルヴァントロワ,0
1953,9010905004490,新規,0,2023-06-15,2023-06-15,一般社団法人仁,,その他の設立登記法人,東京都,世田谷区,太子堂２丁目１番１号,,13,112,1540004,,,,,,,2023-06-15,1,,,,,ジン,0
1981,9011801042584,新規,0,2023-06-15,2023-06-15,ＡＷＳ株式会社,,株式会社,東京都,足立区,東和３丁目１０番１０－１１１号,,13,121,1200003,,,,,,,2023-06-15,1,,,,,エーダブリュエス,0
1982,9011805003277,新規,0,2023-06-15,2023-06-15,一般社団法人独立進歩学会,,その他の設立登記法人,東京都,葛飾区,宝町１丁目１７番１３号グランシャリオ２０１,,13,122,1240005,,,,,,,2023-06-15,1,,,,,,0
1987,9012803003095,新規,0,2023-06-15,2023-06-15,合同会社英智エデュケーション,,合同会社,東京都,国分寺市,南町３丁目２３番４号第三浦野ビル３階,,13,214,1850021,,,,,,,2023-06-15,1,,,,,エイチエデュケーション,0
2000,9021001079344,新規,0,2023-06-15,2023-06-15,株式会社ＬＳＣ,,株式会社,神奈川県,横須賀市,若松町１丁目１５番地高田ビル２Ｆ,,14,201,2380007,,,,,,,2023-06-15,1,,,,,エルエスシー,0
2001,9021003013219,新規,0,2023-06-15,2023-06-15,合同会社猫山,,合同会社,神奈川県,鎌倉市,由比ガ浜３丁目６番１２－１０５号,,14,204,2480014,,,,,,,2023-06-15,1,,,,,ネコヤマ,0
2015,9040001128844,新規,0,2023-06-15,2023-06-15,株式会社ムーブ,,株式会社,千葉県,船橋市,坪井東５丁目１８番１９号,,12,204,2740060,,,,,,,2023-06-15,1,,,,,ムーブ,0
2018,9050001052977,新規,0,2023-06-15,2023-06-15,株式会社ＳＫＲ,,株式会社,茨城県,小美玉市,江戸１８７番地３,,08,236,3190122,,,,,,,2023-06-15,1,,,,,,0
2025,9070003004982,新規,0,2023-06-15,2023-06-15,シーマユナイテッドフットボールクラブ合同会社,,合同会社,群馬県,高崎市,京目町１０８番地６,,10,202,3700011,,,,,,,2023-06-15,1,,,,,シーマユナイテッドフットボールクラブ,0
2026,9080001025674,新規,0,2023-06-15,2023-06-15,株式会社ＬＯＢＢ’Ｓ,,株式会社,静岡県,静岡市駿河区,下川原５丁目５番２７号,,22,102,4210113,,,,,,,2023-06-15,1,,,,,ロブス,0
2030,9080401026545,新規,0,2023-06-15,2023-06-15,テラノテクノロジー株式会社,,株式会社,静岡県,浜松市東区,西塚町３１４番地の２８,,22,132,4350044,,,,,,,2023-06-15,1,,,,,テラノテクノロジー,0
2031,9090001018173,新規,0,2023-06-15,2023-06-15,株式会社スカーシティ,,株式会社,山梨県,甲府市,中央２丁目１３番２０号４階,,19,201,4000032,,,,,,,2023-06-15,1,,,,,スカーシティ,0
2039,9120001255696,新規,0,2023-06-15,2023-06-15,Ｒｅ‐Ｍａｒｋｅｔ株式会社,,株式会社,大阪府,大阪市中央区,南本町２丁目４番１６号本町デビスビル７階,,27,128,5410054,,,,,,,2023-06-15,1,,,,,リマーケ,0
2042,9120003024298,新規,0,2023-06-15,2023-06-15,ＤＡＮ合同会社,,合同会社,大阪府,大阪市浪速区,日本橋３丁目１番２７号６０５号室,,27,111,5560005,,,,,,,2023-06-15,1,,,,,ダン,0
2043,9120003024315,新規,0,2023-06-15,2023-06-15,合同会社明和,,合同会社,大阪府,大阪市生野区,中川東２丁目２０番１５号,,27,116,5440006,,,,,,,2023-06-15,1,,,,,メイワ,0
2050,9120101067752,新規,0,2023-06-15,2023-06-15,Ｃｅｎｔｒｏ株式会社,,株式会社,大阪府,羽曳野市,軽里３丁目４番５号,,27,222,5830854,,,,,,,2023-06-15,1,,,,,セントロ,0
2051,9120901047664,新規,0,2023-06-15,2023-06-15,ステージ２１管理株式会社,,株式会社,大阪府,豊中市,本町５丁目１番１号,,27,203,5600021,,,,,,,2023-06-15,1,,,,,ステージニジュウイチ,0
2059,9130001074567,新規,0,2023-06-15,2023-06-15,株式会社ＡＴＫ,,株式会社,京都府,与謝郡与謝野町,字男山２８番地１８,,26,465,6292261,,,,,,,2023-06-15,1,,,,,エーティーケー,0
2063,9130003008787,新規,0,2023-06-15,2023-06-15,ケーロクヨン合同会社,,合同会社,京都府,京都市下京区,朱雀宝蔵町４４番地協栄ビル２階京都朱雀スタジオ,,26,106,6008846,,,,,,,2023-06-15,1,,,,,ケーロクヨン,0
2077,9140001130542,新規,0,2023-06-15,2023-06-15,ＨＦ　ＡＵＴＯ株式会社,,株式会社,兵庫県,加古郡稲美町,下草谷字東北野４４１番地の８８,,28,381,6751101,,,,,,,2023-06-15,1,,,,,エイチエフオート,0
2080,9140003019197,新規,0,2023-06-15,2023-06-15,ｏｈ合同会社,,合同会社,兵庫県,明石市,二見町西二見１５３１番地４アルファスマート西二見駅前５０６号室,,28,203,6740094,,,,,,,2023-06-15,1,,,,,オウ,0
2081,9140003019206,新規,0,2023-06-15,2023-06-15,ユニバース合同会社,,合同会社,兵庫県,神戸市長田区,御屋敷通２丁目５－２,,28,106,6530843,,,,,,,2023-06-15,1,,,,,ユニバース,0
2094,9180001156749,新規,0,2023-06-15,2023-06-15,株式会社ユーズエージェンシー,,株式会社,愛知県,名古屋市中区,錦３丁目２番２３号,,23,106,4600003,,,,,,,2023-06-15,1,,,,,ユーズエージェンシー,0
2124,9290001101933,新規,0,2023-06-15,2023-06-15,株式会社ＳＯＬＡ,,株式会社,福岡県,福岡市中央区,那の川２丁目５番１２－２０３号,00130851,40,133,8100015,,,,,,,2023-06-15,1,,,,,ソラ,0
2137,9350001018411,新規,0,2023-06-15,2023-06-15,株式会社楓星木材,,株式会社,宮崎県,宮崎市,下北方町野田５９０番地６,,45,201,8800035,,,,,,,2023-06-15,1,,,,,フウセイモクザイ,0
2142,9360001032163,新規,0,2023-06-15,2023-06-15,株式会社うみぶどうファーム,,株式会社,沖縄県,名護市,宮里１丁目２８－８南西ビル２Ｆ,,47,209,9050011,,,,,,,2023-06-15,1,,,,,ウミブドウファーム,0
2160,9430003015159,新規,0,2023-06-15,2023-06-15,合同会社リブラ,,合同会社,北海道,札幌市西区,山の手一条１３丁目５番２６号,,01,107,0630001,,,,,,,2023-06-15,1,,,,,リブラ,0
2163,9470001019661,新規,0,2023-06-15,2023-06-15,株式会社クリエスト,,株式会社,香川県,観音寺市,大野原町大野原１７１３番地１,,37,205,7691611,,,,,,,2023-06-15,1,,,,,クリエイト,0
2168,9500003003049,新規,0,2023-06-15,2023-06-15,松山みかんエナジー合同会社,,合同会社,愛媛県,松山市,湊町６丁目６番地２,,38,201,7900012,,,,,,,2023-06-15,1,,,,,マツヤマミカンエナジー,0
2169,9700150116616,新規,0,2023-06-15,2023-06-15,ＵＳ　Ｄｉｒｅｃｔ　Ｅ－Ｃｏｍｍｅｒｃｅ　Ｌｉｍｉｔｅｄ,,外国会社等,,,,,,,,Ｓｏｕｔｈ　Ｂｌｏｃｋ，Ｔｈｅ　Ｃｏｎｃｏｕｒｓｅ　Ｂｕｉｌｄｉｎｇ　１１０－１１５　Ａｉｒｓｉｄｅ　Ｂｕｓｉｎｅｓｓ　Ｐａｒｋ，Ｓｗｏｒｄｓ　Ｃｏ，Ｄｕｂｌｉｎ　Ｉｒｅｌａｎｄ,,,,,,2023-06-15,1,,,,,ユーエスデイレクトイーコマースリミテツド,0
2170,9700150117457,新規,0,2023-06-15,2023-06-15,亡藤井千秋　相続財産,,その他,東京都,三鷹市,下連雀３丁目３３番１３号三鷹第二ビル３０８号室　正岡法律事務所,,13,204,1810013,,,,,,,2023-06-15,1,,,,,ボウフジイチアキソウゾクザイサン,0
2171,9700150117465,新規,0,2023-06-15,2023-06-15,ｙｉ　ｗｕ　ｓｈｉ　ｑｉｎ　ｙｕ　ｄｉａｎ　ｚｉ　ｓｈａｎｇ　ｗｕ　ｙｏｕ　ｘｉａｎ　ｇｏｎｇ　ｓｉ,,外国会社等,,,,,,,,ｃｈｏｕ　ｊｉａｎｇ　ｊｉｅ　ｄａｏ　ｌｉ　ｍｉｎｇ　ｃｕｎ　ｆｕ　ｋａｎｇ　ｌｕ　ｑｉ　ｈａｏ　３０３　ｓｈｉ　ｙｉ　ｗｕ　ｓｈｉ　ｚｈｅ　ｊｉａｎｇ　ｓｈｅｎｇ　３２２０００　ＣＮ,,,,,,2023-06-15,1,,,,,イーウーシーチンイーデイエンズーシヤンウーヨウシエンゴンスー,0
2172,9700150117481,新規,0,2023-06-15,2023-06-15,Ｓｈｅｎｚｈｅｎ　Ｇｏｎｇｊｉｎ　Ｈｏｎｇｔｕ　Ｔｒａｄｉｎｇ　Ｃｏ．，Ｌｔｄ．,,外国会社等,,,,,,,,６Ｇ　Ａ４ＢＵＩＬＤＩＮＧ　ＹＵＬＩＮＧ　ＧＡＲＤＥＮ　ＢＵＳＨＡ　ＲＤ　ＬＯＮＧＧＡＮＧ　ＤＩＳＴＲＩＣＴ　ＳＨＥＮＺＨＥＮ　ＧＵＡＮＧＤＯＮＧ　ＣＮ,,,,,,2023-06-15,1,,,,,シンセンゴンジンホンツトゥレイディングカンパニーリミテッド,0
2173,9700150117498,新規,0,2023-06-15,2023-06-15,スカイインタナショナルトレーディングプライベートリミテッド,,外国会社等,東京都,八王子市,子安町２丁目１３－１６＿花コーポ２階２４号室,,13,201,1920904,ネパール連邦民主共和国カトマンズ行政部トカ自治体第９区,,,,,,2023-06-15,1,,,,,スカイインタナシヨナルトレーデイングプライベートリミテツド,0
