sequenceNumber,corporateNumber,process,correct,updateDate,changeDate,name,nameImageId,kind,prefectureName,cityName,streetNumber,addressImageId,prefectureCode,cityCode,postCode,addressOutside,addressOutsideImageId,closeDate,closeCause,successorCorporateNumber,changeCause,assignmentDate,latest,enName,enPrefectureName,enCityName,enAddressOutside,furigana,hihyoji
8,1010003036568,新規,0,2021-12-14,2021-12-14,マーケシフト合同会社,,合同会社,東京都,中央区,銀座１丁目２２番１１号銀座大竹ビジデンス２階,,13,102,1040061,,,,,,,2021-12-14,1,,,,,マーケシフト,0
18,1010401164400,新規,0,2021-12-14,2021-12-14,株式会社ファータイルフロント,,株式会社,東京都,港区,麻布十番１丁目２番７号ラフィネ麻布十番７０１号室,,13,103,1060045,,,,,,,2021-12-14,1,,,,,ファータイルフロント,0
19,1010401164441,新規,0,2021-12-14,2021-12-14,株式会社Ｘｓｔ,,株式会社,東京都,港区,南青山７丁目８－１５,,13,103,1070062,,,,,,,2021-12-14,1,,,,,クロスト,0
22,1010403026697,新規,0,2021-12-14,2021-12-14,エターナルニューガイア合同会社,,合同会社,東京都,港区,芝１丁目１５番１３－１１０１号,,13,103,1050014,,,,,,,2021-12-14,1,,,,,エターナルニューガイア,0
23,1010403026706,新規,0,2021-12-14,2021-12-14,合同会社Ｏｘｆｏｒｄ,,合同会社,東京都,港区,虎ノ門５丁目１番４号,,13,103,1050001,,,,,,,2021-12-14,1,,,,,オックスフォード,0
24,1010405020517,新規,0,2021-12-14,2021-12-14,Ｓａｋｕｒａ　Ｉｎｖｅｓｔｍｅｎｔ　Ｈｏｌｄｉｎｇｓ一般社団法人,,その他の設立登記法人,東京都,港区,虎ノ門４丁目３番１号城山トラストタワー２７階ＳａｎｎｅＧｒｏｕｐＪａｐａｎ株式会社内,,13,103,1050001,,,,,,,2021-12-14,1,,,,,サクラインベストメントホールディングス,0
29,1010601060382,新規,0,2021-12-14,2021-12-14,株式会社ｅ－ｐａｌｅｔｔｅ　ｌａｂ,,株式会社,東京都,墨田区,立花５丁目１８番５－４０３号,,13,107,1310043,,,,,,,2021-12-14,1,,,,,イーパレットラボ,0
30,1010603009304,新規,0,2021-12-14,2021-12-14,合同会社ｋ－プランニング,,合同会社,東京都,江東区,佐賀２丁目７－２フィース水天宮前３０２,,13,108,1350031,,,,,,,2021-12-14,1,,,,,ケイプランニング,0
32,1010701041935,新規,0,2021-12-14,2021-12-14,ＡＵＲＡ　Ｍｅｄｉｃａｌ　Ｇｒｏｕｐ株式会社,,株式会社,東京都,品川区,東大井１丁目９番３２号,,13,109,1400011,,,,,,,2021-12-14,1,,,,,アウラメディカルグループ,0
42,1010801032578,新規,0,2021-12-14,2021-12-14,株式会社ＬＥＡＬＬＩＶ,,株式会社,東京都,大田区,仲六郷３丁目２７番１号Ｍａｉｓｏｎａｕｃａｌｍｅ１０１,,13,111,1440055,,,,,,,2021-12-14,1,,,,,レアリヴ,0
43,1010901049984,新規,0,2021-12-14,2021-12-14,アイビーランド株式会社,,株式会社,東京都,世田谷区,喜多見４丁目１番１８号,,13,112,1570067,,,,,,,2021-12-14,1,,,,,アイビーランド,0
44,1010901049992,新規,0,2021-12-14,2021-12-14,株式会社ＳＨＯ　ＴＩＭＥ,,株式会社,東京都,世田谷区,池尻３丁目１３番３号パル・コート池尻１０３,,13,112,1540001,,,,,,,2021-12-14,1,,,,,ショータイム,0
45,1010903007008,新規,0,2021-12-14,2021-12-14,合同会社ハート・オブ・ゴールド,,合同会社,東京都,世田谷区,代田１丁目２２番１０号ハイセレサ世田谷代田シティハウス２０５,,13,112,1550033,,,,,,,2021-12-14,1,,,,,ハートオブゴールド,0
52,1011001144503,新規,0,2021-12-14,2021-12-14,株式会社ウティリスト,,株式会社,東京都,目黒区,目黒３丁目３番２６号,,13,110,1530063,,,,,,,2021-12-14,1,,,,,ウティリスト,0
53,1011003013854,新規,0,2021-12-14,2021-12-14,合同会社ＳｕｎｄａｅＣａ,,合同会社,東京都,渋谷区,神宮前２丁目５－６アマデウスハウス４０８,,13,113,1500001,,,,,,,2021-12-14,1,,,,,サンデーシーエイ,0
54,1011003013862,新規,0,2021-12-14,2021-12-14,合同会社ｓｔｕｄｉｏ　ｙＡＢｏ,,合同会社,東京都,目黒区,東山３丁目１番１１号サンサーラ東山６０３,,13,110,1530043,,,,,,,2021-12-14,1,,,,,スタジオヤボ,0
62,1011101097155,新規,0,2021-12-14,2021-12-14,株式会社ａｔＶｉｌｌａｇｅ,,株式会社,東京都,新宿区,西新宿７丁目１３番７号,,13,104,1600023,,,,,,,2021-12-14,1,,,,,アットヴィレッジ,0
63,1011103011262,新規,0,2021-12-14,2021-12-14,吉飛合同会社,,合同会社,東京都,新宿区,西新宿３丁目３番１３号西新宿水間ビル６階,,13,104,1600023,,,,,,,2021-12-14,1,,,,,ヨシトビ,0
64,1011103011270,新規,0,2021-12-14,2021-12-14,合同会社ｅｌ,,合同会社,東京都,新宿区,歌舞伎町１丁目３番１５号,,13,104,1600021,,,,,,,2021-12-14,1,,,,,エル,0
69,1011401023901,新規,0,2021-12-14,2021-12-14,株式会社Ｌｉｎｋａｇｅ,,株式会社,東京都,板橋区,大和町２２番４号,,13,119,1730012,,,,,,,2021-12-14,1,,,,,リンケージ,0
73,1011801040059,新規,0,2021-12-14,2021-12-14,株式会社日中総合研究所,,株式会社,東京都,葛飾区,青戸２丁目８番４号,,13,122,1250062,,,,,,,2021-12-14,1,,,,,ニッチュウソウゴウケンキュウショ,0
75,1012301012804,新規,0,2021-12-14,2021-12-14,ＴＡＴみらいパートナーズ株式会社,,株式会社,東京都,町田市,小山町５３４８番地４,,13,209,1940212,,,,,,,2021-12-14,1,,,,,ティーエイティーミライパートナーズ,0
86,1012401038641,新規,0,2021-12-14,2021-12-14,株式会社エンジョイアカデミー・ジャパン,,株式会社,東京都,小金井市,中町４丁目４番２５号,,13,210,1840012,,,,,,,2021-12-14,1,,,,,エンジョイアカデミージャパン,0
95,1013301048425,新規,0,2021-12-14,2021-12-14,株式会社Ｔｏｓｈｉｍａ．Ｊａｐａｎ,,株式会社,東京都,豊島区,南長崎４丁目４番１号山武長崎ビル３０３,,13,116,1710052,,,,,,,2021-12-14,1,,,,,トシマジャパン,0
104,1020001144289,新規,0,2021-12-14,2021-12-14,株式会社メドケアジャパン,,株式会社,神奈川県,川崎市中原区,上小田中３丁目２３番３２号ヴァンベール１階,,14,133,2110053,,,,,,,2021-12-14,1,,,,,メドケアジャパン,0
105,1020001144322,新規,0,2021-12-14,2021-12-14,株式会社平本商事,,株式会社,神奈川県,横浜市瀬谷区,瀬谷３丁目７番地１６,,14,114,2460031,,,,,,,2021-12-14,1,,,,,ヒラモトショウジ,0
106,1020001144330,新規,0,2021-12-14,2021-12-14,株式会社ハイビス,,株式会社,神奈川県,川崎市中原区,上小田中３丁目２９番２－７２５号,,14,133,2110053,,,,,,,2021-12-14,1,,,,,ハイビス,0
109,1020003020983,新規,0,2021-12-14,2021-12-14,ハードウェアストラテジー合同会社,,合同会社,神奈川県,横浜市青葉区,美しが丘３丁目６－９,,14,117,2250002,,,,,,,2021-12-14,1,,,,,ハードウェアストラテジー,0
113,1021001074740,新規,0,2021-12-14,2021-12-14,株式会社ＹＴ＆ＭＨ,,株式会社,神奈川県,鎌倉市,由比ガ浜４丁目３番２４号,,14,204,2480014,,,,,,,2021-12-14,1,,,,,ワイティアンドエムエイチ,0
117,1030001145757,新規,0,2021-12-14,2021-12-14,株式会社Ｄｒｅａｍ　Ｏｎｅ,,株式会社,埼玉県,志木市,上宗岡４丁目６番４７号グリーンパーク２０９号室,,11,228,3530001,,,,,,,2021-12-14,1,,,,,ドリームワン,0
118,1030001145848,新規,0,2021-12-14,2021-12-14,株式会社アクトグラム,,株式会社,埼玉県,さいたま市見沼区,堀崎町１００９番地３,,11,104,3370052,,,,,,,2021-12-14,1,,,,,アクトグラム,0
119,1030001145864,新規,0,2021-12-14,2021-12-14,株式会社中華そばイデタ,,株式会社,埼玉県,幸手市,東２丁目２０－４０,,11,240,3400114,,,,,,,2021-12-14,1,,,,,チュウカソバイデタ,0
123,1030005020659,新規,0,2021-12-14,2021-12-14,一般社団法人蕨バイトゥンヌール文化センター,,その他の設立登記法人,埼玉県,蕨市,中央１丁目２８－４ビンテージ蕨４０５号室,,11,223,3350004,,,,,,,2021-12-14,1,,,,,ワラビバイトゥンヌールブンカセンター,0
139,1040003019116,新規,0,2021-12-14,2021-12-14,ライフプラン合同会社,,合同会社,千葉県,千葉市若葉区,高品町８９９番地１高品ハイツ１棟９１２号,,12,104,2640024,,,,,,,2021-12-14,1,,,,,ライフプラン,0
147,1060001034370,新規,0,2021-12-14,2021-12-14,株式会社永楽保険事務所,,株式会社,栃木県,宇都宮市,西原３丁目４番２３号,,09,201,3200862,,,,,,,2021-12-14,1,,,,,エイラクホケンジムショ,0
153,1070001038734,新規,0,2021-12-14,2021-12-14,スターハウス株式会社,,株式会社,群馬県,伊勢崎市,国定町２丁目１９５９番地１４,,10,204,3792221,,,,,,,2021-12-14,1,,,,,スターハウス,0
160,1080401025521,新規,0,2021-12-14,2021-12-14,株式会社Ｃｏｌｏｒｆｕｌ　Ｓｔｕｄｉｏ,,株式会社,静岡県,浜松市中区,田町２２３－２１ビオラ田町３Ｆ,,22,131,4300944,,,,,,,2021-12-14,1,,,,,カラフルスタジオ,0
178,1120001242438,新規,0,2021-12-14,2021-12-14,Ｇｏｏｄ　Ｌｉｆｅ　Ｔｒａｄｉｎｇ株式会社,,株式会社,大阪府,大阪市浪速区,敷津西１丁目１２－２１アンビエス難波６０１,,27,111,5560015,,,,,,,2021-12-14,1,,,,,グッドライフトレーディング,0
179,1120001242446,新規,0,2021-12-14,2021-12-14,株式会社メディアリーチ,,株式会社,大阪府,大阪市北区,芝田２丁目８－１１共栄ビル３Ｆ,,27,127,5300012,,,,,,,2021-12-14,1,,,,,メディアリーチ,0
180,1120001242462,新規,0,2021-12-14,2021-12-14,株式会社ｌｅａｆ,,株式会社,大阪府,大阪市中央区,本町１丁目６番１８号,,27,128,5410053,,,,,,,2021-12-14,1,,,,,リーフ,0
181,1120001242504,新規,0,2021-12-14,2021-12-14,平成ホールディングス株式会社,,株式会社,大阪府,大阪市淀川区,三国本町３丁目８番１２－７０７号,,27,123,5320005,,,,,,,2021-12-14,1,,,,,ヘイセイホールディングス,0
182,1120001242512,新規,0,2021-12-14,2021-12-14,株式会社ＭＡＲＵＩＣＨＩ,,株式会社,大阪府,大阪市北区,豊崎４丁目４番３号,,27,127,5310072,,,,,,,2021-12-14,1,,,,,マルイチ,0
185,1120005022654,新規,0,2021-12-14,2021-12-14,一般社団法人ファイブテンホールディングス,,その他の設立登記法人,大阪府,大阪市城東区,永田２丁目７番３号,,27,118,5360022,,,,,,,2021-12-14,1,,,,,ファイブテンホールディングス,0
187,1120901045345,新規,0,2021-12-14,2021-12-14,株式会社エスアールシー,,株式会社,大阪府,茨木市,上泉町１番３号,,27,211,5670811,,,,,,,2021-12-14,1,,,,,エスアールシー,0
194,1130001070714,新規,0,2021-12-14,2021-12-14,ｅｎｉｓｈｉ株式会社,,株式会社,京都府,京都市下京区,東洞院通綾小路下る扇酒屋町２８９番地デ・リードビル４０２,,26,106,6008095,,,,,,,2021-12-14,1,,,,,エニシ,0
195,1130001070722,新規,0,2021-12-14,2021-12-14,Ａｌｐｈａ　Ｉｄｅｎｔｉｔｙ株式会社,,株式会社,京都府,京都市右京区,梅津神田町４７－３０７,,26,108,6150902,,,,,,,2021-12-14,1,,,,,アルファアイデンティティ,0
201,1140001124163,新規,0,2021-12-14,2021-12-14,株式会社ＳｈｉＡｒｅａｌｌ,,株式会社,兵庫県,加古川市,別府町新野辺１２００番地の２３,,28,210,6750131,,,,,,,2021-12-14,1,,,,,シアリオール,0
202,1140001124171,新規,0,2021-12-14,2021-12-14,株式会社ＣｈａｐｔｅｒＯｎｅ,,株式会社,兵庫県,高砂市,荒井町千鳥２丁目１５番３１号,,28,216,6760004,,,,,,,2021-12-14,1,,,,,チャプターワン,0
203,1140001124196,新規,0,2021-12-14,2021-12-14,サイトウエアテクノ株式会社,,株式会社,兵庫県,神戸市須磨区,大手町８丁目３－２０,,28,107,6540013,,,,,,,2021-12-14,1,,,,,サイトウエアテクノ,0
206,1140003017092,新規,0,2021-12-14,2021-12-14,合同会社バニックス,,合同会社,兵庫県,神戸市西区,学園東町３丁目３番５号,,28,111,6512102,,,,,,,2021-12-14,1,,,,,バニックス,0
209,1150001025170,新規,0,2021-12-14,2021-12-14,株式会社Ｍ－ＴＥＣＨ,,株式会社,奈良県,香芝市,磯壁５丁目８番２９号,,29,210,6390236,,,,,,,2021-12-14,1,,,,,エムテック,0
210,1150003002564,新規,0,2021-12-14,2021-12-14,合同会社クリスタルデザイン,,合同会社,奈良県,香芝市,関屋４３４番地,,29,210,6390255,,,,,,,2021-12-14,1,,,,,クリスタルデザイン,0
213,1160001023875,新規,0,2021-12-14,2021-12-14,株式会社アポロ,,株式会社,滋賀県,栗東市,中沢１丁目２番３－２０２号ハイツ坂下Ｂ,,25,208,5203025,,,,,,,2021-12-14,1,,,,,アポロ,0
220,1180001149099,新規,0,2021-12-14,2021-12-14,株式会社ＦｒｅｅＷｏｒｋｓ,,株式会社,愛知県,豊明市,西川町島原９番地１１野村ビル３Ｆ,,23,229,4701121,,,,,,,2021-12-14,1,,,,,フリーワークス,0
234,1220001024594,新規,0,2021-12-14,2021-12-14,株式会社Ａｒｍｓ,,株式会社,石川県,かほく市,白尾カ１番地,,17,209,9291177,,,,,,,2021-12-14,1,,,,,アームズ,0
240,1240001059060,新規,0,2021-12-14,2021-12-14,株式会社Ｇｒａｃｅ,,株式会社,広島県,広島市中区,富士見町１６番４号,,34,101,7300043,,,,,,,2021-12-14,1,,,,,グレイス,0
244,1240005015308,新規,0,2021-12-14,2021-12-14,川本社会保険労務士法人,,その他の設立登記法人,広島県,福山市,新市町大字戸手２３２１番地６,,34,207,7293101,,,,,,,2021-12-14,1,,,,,カワモト,0
247,1250001019303,新規,0,2021-12-14,2021-12-14,Ｂｒｏｔｔａｒｅ株式会社,,株式会社,山口県,岩国市,錦町中ノ瀬２７５番地１,,35,208,7400722,,,,,,,2021-12-14,1,,,,,ブロッターレ,0
254,1260003003741,新規,0,2021-12-14,2021-12-14,アップルハート合同会社,,合同会社,岡山県,岡山市中区,四御神１７１番地７,,33,102,7038201,,,,,,,2021-12-14,1,,,,,アップルハート,0
256,1290001095737,新規,0,2021-12-14,2021-12-14,株式会社ＢＥＡＤ,,株式会社,福岡県,福岡市中央区,薬院１丁目１６番１５号,,40,133,8100022,,,,,,,2021-12-14,1,,,,,ビード,0
260,1290801028078,新規,0,2021-12-14,2021-12-14,株式会社一結,,株式会社,福岡県,北九州市小倉北区,東篠崎１丁目１８番３５号,,40,106,8020072,,,,,,,2021-12-14,1,,,,,イッケツ,0
262,1290805009495,新規,0,2021-12-14,2021-12-14,医療法人錦秋会,,その他の設立登記法人,福岡県,北九州市八幡東区,枝光２丁目４番１５号,,40,108,8050002,,,,,,,2021-12-14,1,,,,,キンシュウカイ,0
267,1320001018784,新規,0,2021-12-14,2021-12-14,ＵＰｆｏｒｃｅＬｉｆｔ株式会社,,株式会社,大分県,大分市,金池町２丁目１番１９号大分駅前ビル２Ｆ,,44,201,8700026,,,,,,,2021-12-14,1,,,,,アップフォースリフト,0
274,1330001029277,新規,0,2021-12-14,2021-12-14,Ｊａｐａｎ　Ａｄｖａｎｃｅｄ　Ｓｅｍｉｃｏｎｄｕｃｔｏｒ　Ｍａｎｕｆａｃｔｕｒｉｎｇ株式会社,,株式会社,熊本県,熊本市中央区,下通１丁目３番８号下通ＮＳビル６Ｆ,,43,101,8600807,,,,,,,2021-12-14,1,,,,,ジャパンアドバンストセミコンダクターマニュファクチャリング,0
276,1340003003650,新規,0,2021-12-14,2021-12-14,合同会社ビクトリー,,合同会社,鹿児島県,鹿児島市,吉野町８７１番地３五代ハイツ１０１号,,46,201,8920871,,,,,,,2021-12-14,1,,,,,ビクトリー,0
277,1340005009381,新規,0,2021-12-14,2021-12-14,一般社団法人Ｍ　ｐｌｕｓ,,その他の設立登記法人,鹿児島県,鹿児島市,坂之上６丁目２８番５７号,,46,201,8910150,,,,,,,2021-12-14,1,,,,,エムプラス,0
278,1350001017461,新規,0,2021-12-14,2021-12-14,株式会社Ｋａｎａｍｅサービス,,株式会社,宮崎県,宮崎市,大字新名爪字谷廻４１３８番地１,,45,201,8800124,,,,,,,2021-12-14,1,,,,,カナメサービス,0
283,1360003011651,新規,0,2021-12-14,2021-12-14,ＩｎｎｏｖａｔｉｏｎＸ合同会社,,合同会社,沖縄県,中頭郡北谷町,字宮城１番地１アルトゥーレ美浜１１１２,,47,326,9040113,,,,,,,2021-12-14,1,,,,,イノベーションエックス,0
287,1370001047944,新規,0,2021-12-14,2021-12-14,株式会社リバーマウンテン,,株式会社,宮城県,仙台市青葉区,大町１丁目３番２５号,,04,101,9800804,,,,,,,2021-12-14,1,,,,,リバーマウンテン,0
299,1390001016716,新規,0,2021-12-14,2021-12-14,株式会社Ｓ‐ＰＡＭ,,株式会社,山形県,西村山郡河北町,谷地中央２丁目１番１２号,,06,321,9993512,,,,,,,2021-12-14,1,,,,,エスパム,0
307,1430001085533,新規,0,2021-12-14,2021-12-14,株式会社ルスツキャピタル,,株式会社,北海道,虻田郡喜茂別町,字相川８４番地１８,,01,398,0440215,,,,,,,2021-12-14,1,,,,,ルスツキャピタル,0
308,1430001085582,新規,0,2021-12-14,2021-12-14,株式会社ｎＢ,,株式会社,北海道,札幌市手稲区,西宮の沢三条１丁目９番２２号,,01,109,0060003,,,,,,,2021-12-14,1,,,,,エヌビー,0
312,1430003013450,新規,0,2021-12-14,2021-12-14,合同会社ピッチャーガエシ,,合同会社,北海道,札幌市南区,藤野二条８丁目１１番５号,,01,106,0612282,,,,,,,2021-12-14,1,,,,,ピッチャーガエシ,0
317,1480001011575,新規,0,2021-12-14,2021-12-14,秋田林業株式会社,,株式会社,徳島県,三好市,山城町大野４６４番地,,36,208,7795333,,,,,,,2021-12-14,1,,,,,アキタリンギョウ,0
319,1480005006869,新規,0,2021-12-14,2021-12-14,木屋平スプラウト協同組合,,その他の設立登記法人,徳島県,美馬市,木屋平字川井２２４番地,,36,207,7770302,,,,,,,2021-12-14,1,,,,,コヤダイラスプラウト,0
322,1500001023865,新規,0,2021-12-14,2021-12-14,株式会社金沢製菓,,株式会社,愛媛県,伊予市,尾崎１２９番地１,,38,210,7993127,,,,,,,2021-12-14,1,,,,,カナザワセイカ,0
342,2010401164399,新規,0,2021-12-14,2021-12-14,株式会社アルファ,,株式会社,東京都,港区,東麻布２丁目２３番３－５０２号,,13,103,1060044,,,,,,,2021-12-14,1,,,,,アルファ,0
343,2010401164424,新規,0,2021-12-14,2021-12-14,株式会社Ｓｅｒｐｅｎｔ　Ｐａｒｔｎｅｒｓ,,株式会社,東京都,港区,三田３丁目５番２７号,,13,103,1080073,,,,,,,2021-12-14,1,,,,,サーペントパートナーズ,0
344,2010403026705,新規,0,2021-12-14,2021-12-14,合同会社千歳中央エナジー,,合同会社,東京都,港区,虎ノ門３丁目２２番１０－２０１号,,13,103,1050001,,,,,,,2021-12-14,1,,,,,チトセチュウオウエナジー,0
354,2010901049991,新規,0,2021-12-14,2021-12-14,株式会社川島範久建築設計事務所,,株式会社,東京都,世田谷区,北沢３丁目２４番１４号２－Ａ,,13,112,1550031,,,,,,,2021-12-14,1,,,,,カワシマノリヒサケンチクセッケイジムショ,0
367,2011001144493,新規,0,2021-12-14,2021-12-14,株式会社アトラタフェレス,,株式会社,東京都,目黒区,大橋２丁目７番１０号カドル大橋３０５,,13,110,1530044,,,,,,,2021-12-14,1,,,,,アトラタフェレス,0
368,2011001144502,新規,0,2021-12-14,2021-12-14,株式会社オルメカ,,株式会社,東京都,渋谷区,神宮前６丁目２９番４号原宿ｋｏｍｉｙａビル６階,,13,113,1500001,,,,,,,2021-12-14,1,,,,,オルメカ,0
369,2011001144510,新規,0,2021-12-14,2021-12-14,株式会社クラウザーテール,,株式会社,東京都,渋谷区,神宮前６丁目２３番４号桑野ビル２階,,13,113,1500001,,,,,,,2021-12-14,1,,,,,クラウザーテール,0
370,2011001144519,新規,0,2021-12-14,2021-12-14,株式会社ＳＴＯＣＫ　ＩＭＡＧＥ　ＢＡＣＫＧＲＯＵＮＤ．,,株式会社,東京都,渋谷区,恵比寿南３丁目１０番１２号,,13,113,1500022,,,,,,,2021-12-14,1,,,,,ストックイメージバックグラウンド,0
373,2011003013853,新規,0,2021-12-14,2021-12-14,合同会社Ｔｏｐｒｉｄｅ,,合同会社,東京都,渋谷区,神宮前６丁目２３番４号桑野ビル２階,,13,113,1500001,,,,,,,2021-12-14,1,,,,,トップライド,0
374,2011005009346,新規,0,2021-12-14,2021-12-14,一般社団法人日本川崎病学会,,その他の設立登記法人,東京都,渋谷区,広尾４丁目１番２２号日本赤十字社医療センター小児科医局内,,13,113,1500012,,,,,,,2021-12-14,1,,,,,ニホンカワサキビョウガッカイ,0
378,2011101097170,新規,0,2021-12-14,2021-12-14,株式会社Ｓｏｃｉａｌ－Ｉｍｐａｃｔ,,株式会社,東京都,新宿区,西新宿８丁目３番１号,,13,104,1600023,,,,,,,2021-12-14,1,,,,,ソーシャルインパクト,0
379,2011101097179,新規,0,2021-12-14,2021-12-14,株式会社ハナミミカンパニー,,株式会社,東京都,新宿区,北新宿４丁目４番１６号シティハウス新宿柏木６０４,,13,104,1690074,,,,,,,2021-12-14,1,,,,,ハナミミカンパニー,0
384,2011401023891,新規,0,2021-12-14,2021-12-14,Ｈｉｗａ株式会社,,株式会社,東京都,板橋区,南常盤台２丁目１９番１２－２０３号,,13,119,1740072,,,,,,,2021-12-14,1,,,,,ヒワ,0
385,2011401023900,新規,0,2021-12-14,2021-12-14,株式会社クリエイションスター,,株式会社,東京都,板橋区,大谷口上町６４番７号,,13,119,1730032,,,,,,,2021-12-14,1,,,,,クリエイションスター,0
386,2011401023909,新規,0,2021-12-14,2021-12-14,株式会社Ｂｒａｎｃｏ,,株式会社,東京都,板橋区,高島平１丁目１０番４号ライゼホビー２番,,13,119,1750082,,,,,,,2021-12-14,1,,,,,ブランコ,0
395,2011803004878,新規,0,2021-12-14,2021-12-14,ＤＯＴ合同会社,,合同会社,東京都,葛飾区,宝町２丁目９－８,,13,122,1240005,,,,,,,2021-12-14,1,,,,,ディーオーティー,0
396,2012301012803,新規,0,2021-12-14,2021-12-14,株式会社エミナルエステート,,株式会社,東京都,町田市,中町１丁目２番５号,,13,209,1940021,,,,,,,2021-12-14,1,,,,,エミナルエステート,0
402,2012703002369,新規,0,2021-12-14,2021-12-14,あさひホームコンサル合同会社,,合同会社,東京都,西東京市,富士町２丁目４番２－２号,,13,229,2020014,,,,,,,2021-12-14,1,,,,,アサヒホームコンサル,0
412,2012801021270,新規,0,2021-12-14,2021-12-14,株式会社スマイトワ,,株式会社,東京都,立川市,幸町１丁目２９番地２６,,13,202,1900002,,,,,,,2021-12-14,1,,,,,スマイトワ,0
414,2013303005951,新規,0,2021-12-14,2021-12-14,合同会社ＴＡＫＡＳＨＩ,,合同会社,東京都,豊島区,巣鴨３丁目２９番３号ＷＩＮＣＯビル２０２号室,,13,116,1700002,,,,,,,2021-12-14,1,,,,,タカシ,0
429,2020003020982,新規,0,2021-12-14,2021-12-14,合同会社ＷＩＮＣＴ,,合同会社,神奈川県,川崎市中原区,上丸子八幡町５８７,,14,133,2110001,,,,,,,2021-12-14,1,,,,,ウインクト,0
430,2020005015304,新規,0,2021-12-14,2021-12-14,ＮＰＯ法人結,,その他の設立登記法人,神奈川県,横浜市栄区,小菅ケ谷２丁目１番１－７０５号,,14,115,2470007,,,,,,,2021-12-14,1,,,,,ユイ,0
433,2021001074748,新規,0,2021-12-14,2021-12-14,株式会社Ｈｉ－ＳＴＡＮＤＡＲＤ,,株式会社,神奈川県,厚木市,上荻野６２８０番地１２,,14,212,2430201,,,,,,,2021-12-14,1,,,,,ハイスタンダード,0
434,2021003011179,新規,0,2021-12-14,2021-12-14,一成合同会社,,合同会社,神奈川県,愛甲郡愛川町,中津７２８５番地の２,,14,401,2430303,,,,,,,2021-12-14,1,,,,,イチナリ,0
440,2030001145863,新規,0,2021-12-14,2021-12-14,株式会社アイクリーニング,,株式会社,埼玉県,入間郡三芳町,大字上富２１２０番地４,,11,324,3540045,,,,,,,2021-12-14,1,,,,,アイクリーニング,0
444,2030003018472,新規,0,2021-12-14,2021-12-14,合同会社Ｈｅｓｔｉａ　Ｊａｐａｎ,,合同会社,埼玉県,川口市,幸町１丁目３番２４号１２０５川口パークホームズセンターコート,,11,203,3320016,,,,,,,2021-12-14,1,,,,,ヘスティアジャパン,0
445,2030003018497,新規,0,2021-12-14,2021-12-14,合同会社Ｍａｙ,,合同会社,埼玉県,春日部市,西金野井４５８番地２１,,11,214,3440112,,,,,,,2021-12-14,1,,,,,メイ,0
449,2040001121368,新規,0,2021-12-14,2021-12-14,マーシーズ株式会社,,株式会社,千葉県,千葉市中央区,富士見１丁目２－３アジア会館,,12,101,2600015,,,,,,,2021-12-14,1,,,,,マーシーズ,0
461,2080101022982,新規,0,2021-12-14,2021-12-14,株式会社ブロッサム,,株式会社,静岡県,三島市,北沢２５３番地２２,,22,206,4110805,,,,,,,2021-12-14,1,,,,,ブロッサム,0
465,2080401025529,新規,0,2021-12-14,2021-12-14,Ｐ＆Ｓパートナーズ株式会社,,株式会社,静岡県,掛川市,下垂木２４２８番地の１,,22,213,4360222,,,,,,,2021-12-14,1,,,,,ピーアンドエスパートナーズ,0
479,2120001242486,新規,0,2021-12-14,2021-12-14,株式会社テイショウメディカル,,株式会社,大阪府,大阪市中央区,内平野町１丁目５番５号内平野町ビル４階,,27,128,5400037,,,,,,,2021-12-14,1,,,,,テイショウメディカル,0
480,2120001242511,新規,0,2021-12-14,2021-12-14,株式会社ＦＯＲ　ＹＯＵＲＳ,,株式会社,大阪府,大阪市西区,江戸堀１丁目８番１７号イーエム肥後橋２０１号,,27,106,5500002,,,,,,,2021-12-14,1,,,,,フォーユアーズ,0
482,2120003020766,新規,0,2021-12-14,2021-12-14,キム合同会社,,合同会社,大阪府,大阪市東成区,中道２丁目２０番７号,,27,115,5370025,,,,,,,2021-12-14,1,,,,,キム,0
483,2120005022653,新規,0,2021-12-14,2021-12-14,弁護士法人塩路総合法律事務所,,その他の設立登記法人,大阪府,大阪市中央区,難波３丁目７番１２号ＧＰ・ＧＡＴＥビル７階,,27,128,5420076,,,,,,,2021-12-14,1,,,,,シオジソウゴウホウリツジムショ,0
492,2130001070713,新規,0,2021-12-14,2021-12-14,株式会社古都プランニング,,株式会社,京都府,京都市西京区,御陵大枝山町３丁目１１番地１２,,26,111,6101102,,,,,,,2021-12-14,1,,,,,コトプランニング,0
497,2140001124162,新規,0,2021-12-14,2021-12-14,株式会社ＦｏｒＮｅｘｔ,,株式会社,兵庫県,伊丹市,広畑２丁目４６番地１,,28,207,6640014,,,,,,,2021-12-14,1,,,,,フォーネクスト,0
498,2140001124170,新規,0,2021-12-14,2021-12-14,株式会社創パネルシステム,,株式会社,兵庫県,尼崎市,若王寺３丁目１３番３７号,,28,202,6610974,,,,,,,2021-12-14,1,,,,,ソウパネルシステム,0
499,2140001124187,新規,0,2021-12-14,2021-12-14,株式会社ファーストケア,,株式会社,兵庫県,神戸市中央区,栄町通６丁目１番１８号ライオンズスクエア神戸元町１１０３,,28,110,6500023,,,,,,,2021-12-14,1,,,,,ファーストケア,0
502,2140002071148,新規,0,2021-12-14,2021-12-14,有限会社山下工務店,,有限会社,兵庫県,加西市,殿原町４３８番地の１,,28,220,6752445,,,,,,,2021-12-14,1,,,,,,0
504,2140003017100,新規,0,2021-12-14,2021-12-14,盛栄合同会社,,合同会社,兵庫県,神戸市中央区,元町通２丁目１番１４号磯崎ビル２階,,28,110,6500022,,,,,,,2021-12-14,1,,,,,セイエイ,0
508,2150003002563,新規,0,2021-12-14,2021-12-14,合同会社Ｍ＆Ｃ,,合同会社,奈良県,生駒郡三郷町,立野北２丁目２４番１３号（１０２号室）,,29,343,6360821,,,,,,,2021-12-14,1,,,,,エムアンドシー,0
514,2180003023284,新規,0,2021-12-14,2021-12-14,合同会社リウォーク,,合同会社,愛知県,西春日井郡豊山町,大字豊場字志水１６番地９,,23,342,4800202,,,,,,,2021-12-14,1,,,,,リウォーク,0
520,2190001028937,新規,0,2021-12-14,2021-12-14,株式会社ケアテクノサービス,,株式会社,三重県,多気郡明和町,大字明星２２８９番地２,,24,442,5150313,,,,,,,2021-12-14,1,,,,,ケアテクノサービス,0
526,2200001039528,新規,0,2021-12-14,2021-12-14,株式会社壮武ＨＤ,,株式会社,岐阜県,関市,武芸川町平６７４番地の１の１の２,,21,205,5012606,,,,,,,2021-12-14,1,,,,,ソウブエイチディー,0
528,2200003005395,新規,0,2021-12-14,2021-12-14,合同会社タイムズアウトドア,,合同会社,岐阜県,可児市,広見６８０番地１,,21,214,5090214,,,,,,,2021-12-14,1,,,,,タイムズアウトドア,0
532,2240001059051,新規,0,2021-12-14,2021-12-14,安芸備後株式会社,,株式会社,広島県,広島市南区,宇品神田５丁目６番１号,,34,103,7340004,,,,,,,2021-12-14,1,,,,,アキビンゴ,0
537,2240005015307,新規,0,2021-12-14,2021-12-14,一般社団法人スポーツクラブＮＵＭＡＴＡ,,その他の設立登記法人,広島県,広島市安佐南区,伴南４丁目８番２７号,,34,105,7313168,,,,,,,2021-12-14,1,,,,,スポーツクラブヌマタ,0
540,2260001036313,新規,0,2021-12-14,2021-12-14,株式会社ライムス,,株式会社,岡山県,都窪郡早島町,早島７１４番地１,,33,423,7010304,,,,,,,2021-12-14,1,,,,,ライムス,0
541,2270001008410,新規,0,2021-12-14,2021-12-14,株式会社紅ｆａｃｔｏｒｙ,,株式会社,鳥取県,鳥取市,吉方温泉４丁目２６６番地,,31,201,6800841,,,,,,,2021-12-14,1,,,,,クレナイファクトリー,0
544,2290005018453,新規,0,2021-12-14,2021-12-14,税理士法人オリオン,,その他の設立登記法人,福岡県,福岡市中央区,大名２丁目４番３８チサンマンション天神ＩＩＩ３１３,00125136,40,133,8100041,,,,,,,2021-12-14,1,,,,,オリオン,0
545,2290005018461,新規,0,2021-12-14,2021-12-14,宮崎会計税理士法人,00125137,その他の設立登記法人,福岡県,福岡市中央区,舞鶴３丁目１番２２号,,40,133,8100073,,,,,,,2021-12-14,1,,,,,ミヤザキカイケイ,0
546,2290801028069,新規,0,2021-12-14,2021-12-14,Ｎｅｘｔ　ｉｎｎｏｖａｔｉｏｎ株式会社,,株式会社,福岡県,北九州市小倉北区,上富野４丁目１６番２９号,,40,106,8020022,,,,,,,2021-12-14,1,,,,,ネクストイノベーション,0
564,2330003009169,新規,0,2021-12-14,2021-12-14,しらぎく工房合同会社,,合同会社,熊本県,菊池郡菊陽町,大字津久礼３０３６番地ＯＫシェーネ光の森Ａ－２０２,,43,404,8691101,,,,,,,2021-12-14,1,,,,,シラギクコウボウ,0
565,2340001024334,新規,0,2021-12-14,2021-12-14,株式会社みらい住建,,株式会社,鹿児島県,霧島市,国分重久１８９４番地３,,46,218,8994301,,,,,,,2021-12-14,1,,,,,ミライジュウケン,0
570,2360001029752,新規,0,2021-12-14,2021-12-14,株式会社ラポール,,株式会社,沖縄県,浦添市,城間１丁目３番１３号１０２号室,,47,208,9012133,,,,,,,2021-12-14,1,,,,,ラポール,0
572,2370001047943,新規,0,2021-12-14,2021-12-14,株式会社読売センター白石蔵王,,株式会社,宮城県,白石市,福岡長袋字上河原６番地２,,04,206,9890232,,,,,,,2021-12-14,1,,,,,ヨミウリセンターシロイシザオウ,0
573,2370001047951,新規,0,2021-12-14,2021-12-14,株式会社コンセプション不動産管理,,株式会社,宮城県,仙台市青葉区,中央３丁目５－３０Ｔ＆ＩＮＥＸＴ３Ｆ３０３号室,,04,101,9800021,,,,,,,2021-12-14,1,,,,,コンセプションフドウサンカンリ,0
584,2390001016707,新規,0,2021-12-14,2021-12-14,株式会社サームス電通,,株式会社,山形県,米沢市,徳町７番４０－３号,,06,202,9920047,,,,,,,2021-12-14,1,,,,,サームスデンツウ,0
586,2400001015707,新規,0,2021-12-14,2021-12-14,株式会社飛奏建設,,株式会社,岩手県,花巻市,北笹間１７地割８番地,,03,205,0250132,,,,,,,2021-12-14,1,,,,,ヒカケンセツ,0
594,2430001085565,新規,0,2021-12-14,2021-12-14,未来投資株式会社,,株式会社,北海道,札幌市中央区,南十二条西１４丁目２番１号Ｂｏｒｎ１２１４－２０１室,,01,101,0640912,,,,,,,2021-12-14,1,,,,,ミライトウシ,0
595,2430001085573,新規,0,2021-12-14,2021-12-14,株式会社ピースエア,,株式会社,北海道,札幌市手稲区,新発寒七条１０丁目４番１８号,,01,109,0060807,,,,,,,2021-12-14,1,,,,,ピースエア,0
604,2500001023864,新規,0,2021-12-14,2021-12-14,株式会社将来,,株式会社,愛媛県,宇和島市,津島町上畑地甲１３５０番地１,,38,203,7983323,,,,,,,2021-12-14,1,,,,,ショウライ,0
619,3010001223158,新規,0,2021-12-14,2021-12-14,株式会社メタファクトリー,,株式会社,東京都,千代田区,鍛冶町２丁目８番７号,,13,101,1010044,,,,,,,2021-12-14,1,,,,,メタファクトリー,0
620,3010001223182,新規,0,2021-12-14,2021-12-14,株式会社セルフデザイン,,株式会社,東京都,文京区,本郷１丁目２１番７－９０３号,,13,105,1130033,,,,,,,2021-12-14,1,,,,,セルフデザイン,0
622,3010003036541,新規,0,2021-12-14,2021-12-14,合同会社まんのう・丸亀ＹＫＬ太陽光発電所,,合同会社,東京都,中央区,日本橋浜町２丁目７番１号小田ビル３Ｆ,,13,102,1030007,,,,,,,2021-12-14,1,,,,,マンノウマルガメワイケーエルタイヨウコウハツデンショ,0
624,3010101014985,新規,0,2021-12-14,2021-12-14,Ｐｅｐ株式会社,,株式会社,東京都,八王子市,椚田町２７９番地１,,13,201,1930942,,,,,,,2021-12-14,1,,,,,ペップ,0
629,3010401164407,新規,0,2021-12-14,2021-12-14,株式会社ＭＩＣ,,株式会社,東京都,港区,赤坂８丁目１３番地１９号インペリアル赤坂壱番館３０８,,13,103,1070052,,,,,,,2021-12-14,1,,,,,エムアイシー,0
631,3010403026704,新規,0,2021-12-14,2021-12-14,合同会社ゴールドＪ０,,合同会社,東京都,港区,虎ノ門３丁目２２番１０－２０１号,,13,103,1050001,,,,,,,2021-12-14,1,,,,,ゴールドジェイゼロ,0
633,3010405020507,新規,0,2021-12-14,2021-12-14,特定目的会社ゴールドＩ,,その他の設立登記法人,東京都,港区,虎ノ門３丁目２２番１０－２０１号,,13,103,1050001,,,,,,,2021-12-14,1,,,,,ゴールドアイ,0
639,3010701041933,新規,0,2021-12-14,2021-12-14,株式会社ティーケーエス,,株式会社,東京都,品川区,戸越１丁目１番１―３０４号,,13,109,1420041,,,,,,,2021-12-14,1,,,,,ティーケーエス,0
641,3010901049999,新規,0,2021-12-14,2021-12-14,株式会社サンピーク,,株式会社,東京都,世田谷区,玉川１丁目１５番地２二子玉川ライズタワーイースト３７０６,,13,112,1580094,,,,,,,2021-12-14,1,,,,,サンピーク,0
644,3010903007014,新規,0,2021-12-14,2021-12-14,タカハシ合同会社,,合同会社,東京都,世田谷区,上北沢３丁目６番１８号日神デュオステージ上北沢５０２,,13,112,1560057,,,,,,,2021-12-14,1,,,,,タカハシ,0
652,3011001144534,新規,0,2021-12-14,2021-12-14,株式会社ＮＥＨカンパニー,,株式会社,東京都,渋谷区,恵比寿３丁目４２番１４号Ｋ＆Ｍアネックス３０１,,13,113,1500013,,,,,,,2021-12-14,1,,,,,エヌイーエイチカンパニー,0
654,3011005009345,新規,0,2021-12-14,2021-12-14,一般財団法人紺屋・南場財団,,その他の設立登記法人,東京都,渋谷区,上原２丁目２５番４－３１２号,,13,113,1510064,,,,,,,2021-12-14,1,,,,,コンヤナンバザイダン,0
658,3011201023471,新規,0,2021-12-14,2021-12-14,株式会社グレースハイツ,,株式会社,東京都,中野区,東中野４丁目２７番３９号,,13,114,1640003,,,,,,,2021-12-14,1,,,,,グレースハイツ,0
661,3011301027414,新規,0,2021-12-14,2021-12-14,株式会社スタジオディープ,,株式会社,東京都,杉並区,高円寺南１丁目１番６号アルム３０２,,13,115,1660003,,,,,,,2021-12-14,1,,,,,スタジオディープ,0
666,3011401023908,新規,0,2021-12-14,2021-12-14,株式会社ベリーラッシュジャパン,,株式会社,東京都,板橋区,板橋１丁目４８番４号２Ｂ,,13,119,1730004,,,,,,,2021-12-14,1,,,,,ベリーラッシュジャパン,0
670,3011501027560,新規,0,2021-12-14,2021-12-14,株式会社アーチャー,,株式会社,東京都,北区,浮間１丁目１番１４－３２６号,,13,117,1150051,,,,,,,2021-12-14,1,,,,,アーチャー,0
673,3011801040065,新規,0,2021-12-14,2021-12-14,株式会社Ａｔｌｌｅｃｔ,,株式会社,東京都,足立区,江北４丁目１４番１－４０１号,,13,121,1230872,,,,,,,2021-12-14,1,,,,,アトレクト,0
693,3020001144312,新規,0,2021-12-14,2021-12-14,株式会社ＳＢＳＦ,,株式会社,神奈川県,横浜市戸塚区,秋葉町３５３番地１３,,14,110,2450052,,,,,,,2021-12-14,1,,,,,エスビーエスエフ,0
694,3020001144345,新規,0,2021-12-14,2021-12-14,株式会社ＨＹ,,株式会社,神奈川県,横浜市戸塚区,平戸町７１７番地５,,14,110,2440803,,,,,,,2021-12-14,1,,,,,エイチワイ,0
697,3020003020973,新規,0,2021-12-14,2021-12-14,合同会社ＦＫＭ管理,,合同会社,神奈川県,横浜市港南区,上永谷２丁目１９番３号,,14,111,2330012,,,,,,,2021-12-14,1,,,,,エフケイエムカンリ,0
698,3020003020981,新規,0,2021-12-14,2021-12-14,合同会社Ｐｈｏｔｏ－Ｃｌｅ,,合同会社,神奈川県,横浜市旭区,鶴ケ峰２丁目２２番地西友鶴ケ峰店頭,,14,112,2410022,,,,,,,2021-12-14,1,,,,,フォトクル,0
707,3021001074714,新規,0,2021-12-14,2021-12-14,新和開発エンジニアリング株式会社,,株式会社,神奈川県,横須賀市,西浦賀町５丁目３９番地,,14,201,2390824,,,,,,,2021-12-14,1,,,,,シンワカイハツエンジニアリング,0
710,3030001145805,新規,0,2021-12-14,2021-12-14,株式会社ウーリー,,株式会社,埼玉県,羽生市,大字須影６１５番地１５,,11,216,3480033,,,,,,,2021-12-14,1,,,,,ウーリー,0
735,3060001034377,新規,0,2021-12-14,2021-12-14,株式会社ＰＵＢＬＩＣ,,株式会社,栃木県,宇都宮市,伝馬町１－１７伝馬町ビル９階,,09,201,3200035,,,,,,,2021-12-14,1,,,,,パブリック,0
741,3070003004328,新規,0,2021-12-14,2021-12-14,Ｓｕｎｒｉｓｅ　Ｉｎｔｅｒｎａｔｉｏｎａｌ合同会社,,合同会社,群馬県,邑楽郡大泉町,城之内１丁目２２番１４－１０３号城之内アーバンハイツ,,10,524,3700518,,,,,,,2021-12-14,1,,,,,,0
743,3080001024632,新規,0,2021-12-14,2021-12-14,株式会社栄南,,株式会社,静岡県,藤枝市,五十海１丁目７番１９号,,22,214,4260015,,,,,,,2021-12-14,1,,,,,エイナン,0
751,3090001017321,新規,0,2021-12-14,2021-12-14,甲府観光開発株式会社,,株式会社,山梨県,甲府市,湯村３丁目１０番５号,,19,201,4000073,,,,,,,2021-12-14,1,,,,,コウフカンコウカイハツ,0
759,3110003004653,新規,0,2021-12-14,2021-12-14,ＴＩＧ合同会社,,合同会社,新潟県,新発田市,荒町甲２０４３番地１５,,15,206,9592311,,,,,,,2021-12-14,1,,,,,ティーアイジー,0
766,3120001242477,新規,0,2021-12-14,2021-12-14,株式会社三宝,,株式会社,大阪府,大阪市生野区,巽中２丁目１３番１５号,00125132,27,116,5440013,,,,,,,2021-12-14,1,,,,,サンポウ,0
767,3120003020749,新規,0,2021-12-14,2021-12-14,エンパイヤーホールディングカンパニー合同会社,,合同会社,大阪府,大阪市中央区,久太郎町１丁目９番６号商栄ビル４０１,,27,128,5410056,,,,,,,2021-12-14,1,,,,,エンパイヤーホールディングカンパニー,0
773,3120901045343,新規,0,2021-12-14,2021-12-14,株式会社エム・アイ・エム,,株式会社,大阪府,豊中市,西緑丘１丁目３番１－４１８号,,27,203,5600005,,,,,,,2021-12-14,1,,,,,エムアイエム,0
774,3120905006242,新規,0,2021-12-14,2021-12-14,特定非営利活動法人一歩二歩三歩,,その他の設立登記法人,大阪府,箕面市,粟生間谷東１丁目３０番６号,,27,220,5620022,,,,,,,2021-12-14,1,,,,,イッポニホサンポ,0
776,3122001035431,新規,0,2021-12-14,2021-12-14,株式会社ＬＥＸＩＡ,,株式会社,大阪府,東大阪市,俊徳町５丁目４番２８号グレイスコート３０１号,,27,227,5770831,,,,,,,2021-12-14,1,,,,,レクシア,0
785,3140001124178,新規,0,2021-12-14,2021-12-14,株式会社えがふる,,株式会社,兵庫県,加古川市,尾上町安田９２０,,28,210,6750021,,,,,,,2021-12-14,1,,,,,エガフル,0
786,3140001124194,新規,0,2021-12-14,2021-12-14,Ｂｏｒｎ　Ｓｕｎ株式会社,,株式会社,兵庫県,神戸市北区,星和台６丁目８番地の８,,28,109,6511121,,,,,,,2021-12-14,1,,,,,ボーンサン,0
793,3140003017099,新規,0,2021-12-14,2021-12-14,合同会社パイロッテック,,合同会社,兵庫県,神戸市中央区,磯辺通４丁目１－２８－１７１１,,28,110,6510084,,,,,,,2021-12-14,1,,,,,パイロッテック,0
794,3140005025892,新規,0,2021-12-14,2021-12-14,一般社団法人プロジェネラリストナース協会,,その他の設立登記法人,兵庫県,神戸市灘区,篠原南町５丁目１番９－１号,,28,102,6570059,,,,,,,2021-12-14,1,,,,,プロジェネラリストナースキョウカイ,0
796,3150001025177,新規,0,2021-12-14,2021-12-14,愛正寺ビル管理株式会社,,株式会社,奈良県,奈良市,法蓮町１６３番地の１愛正寺ビル２階管理事務所,,29,201,6308113,,,,,,,2021-12-14,1,,,,,アイショウジビルカンリ,0
798,3160001023873,新規,0,2021-12-14,2021-12-14,株式会社Ｌｉｎｋ,,株式会社,滋賀県,草津市,岡本町７５１番地１２,,25,206,5250044,,,,,,,2021-12-14,1,,,,,リンク,0
811,3180301035724,新規,0,2021-12-14,2021-12-14,株式会社ＬｉＮＫ,,株式会社,愛知県,岡崎市,欠町字広見西通６,,23,202,4440011,,,,,,,2021-12-14,1,,,,,リンク,0
818,3200001039535,新規,0,2021-12-14,2021-12-14,ＺＥＰＨＹＲ株式会社,,株式会社,岐阜県,岐阜市,芥見東山１０－１０,,21,201,5013112,,,,,,,2021-12-14,1,,,,,ゼファー,0
823,3240001059059,新規,0,2021-12-14,2021-12-14,株式会社森元,,株式会社,広島県,広島市東区,牛田本町１丁目５番１４－１１０１号,,34,102,7320066,,,,,,,2021-12-14,1,,,,,モリモト,0
831,3260001036304,新規,0,2021-12-14,2021-12-14,ＯＮＥ　ＶＯＹＡＧＥ株式会社,,株式会社,岡山県,倉敷市,日ノ出町２丁目６番２８号,,33,202,7100063,,,,,,,2021-12-14,1,,,,,ワンボヤージュ,0
832,3260001036320,新規,0,2021-12-14,2021-12-14,株式会社中乃や,,株式会社,岡山県,倉敷市,児島唐琴１丁目１６番１号,,33,202,7110904,,,,,,,2021-12-14,1,,,,,ナカノヤ,0
840,3290001095727,新規,0,2021-12-14,2021-12-14,株式会社ＬＥＡＴＥＣＨ,,株式会社,福岡県,福岡市中央区,長浜１丁目２番６－１００３号,,40,133,8100072,,,,,,,2021-12-14,1,,,,,リーテック,0
841,3290001095735,新規,0,2021-12-14,2021-12-14,株式会社コスト,,株式会社,福岡県,福岡市博多区,中洲２丁目６番１２号中洲セントラル第５ラインビル４階,,40,132,8100801,,,,,,,2021-12-14,1,,,,,コスト,0
843,3290003011839,新規,0,2021-12-14,2021-12-14,チルランド合同会社,,合同会社,福岡県,福岡市博多区,博多駅南５丁目４－１,,40,132,8120016,,,,,,,2021-12-14,1,,,,,チルランド,0
844,3290801028076,新規,0,2021-12-14,2021-12-14,株式会社ハピネスサン住建,,株式会社,福岡県,北九州市八幡西区,里中２丁目２番１３－６号,,40,109,8070846,,,,,,,2021-12-14,1,,,,,ハピネスサンジュウケン,0
847,3300003001763,新規,0,2021-12-14,2021-12-14,ぞうむしプロ合同会社,,合同会社,佐賀県,鳥栖市,桜町１２０５,,41,203,8410014,,,,,,,2021-12-14,1,,,,,,0
855,3330003009168,新規,0,2021-12-14,2021-12-14,合同会社ＳＡＲＫＳ,,合同会社,熊本県,熊本市北区,楡木５丁目１１番５号,,43,105,8618083,,,,,,,2021-12-14,1,,,,,サークス,0
857,3340001024325,新規,0,2021-12-14,2021-12-14,株式会社ＰＨＬＯＸ,,株式会社,鹿児島県,鹿児島市,宇宿１丁目４６番１号Ｕフラット２０２号,,46,201,8900073,,,,,,,2021-12-14,1,,,,,フロックス,0
859,3350001017468,新規,0,2021-12-14,2021-12-14,株式会社河野電工,,株式会社,宮崎県,宮崎市,月見ケ丘３丁目８番６号,,45,201,8800926,,,,,,,2021-12-14,1,,,,,カワノデンコウ,0
878,3390001016714,新規,0,2021-12-14,2021-12-14,株式会社野口鉱油,,株式会社,山形県,山形市,南原町３丁目１９番４号,,06,201,9902413,,,,,,,2021-12-14,1,,,,,ノグチコウユ,0
879,3400001015706,新規,0,2021-12-14,2021-12-14,株式会社Ｅ－ＳＴＹＬＥ,,株式会社,岩手県,奥州市,江刺岩谷堂字小名丸沢３０３番地２,,03,215,0231101,,,,,,,2021-12-14,1,,,,,イースタイル,0
888,3430001085564,新規,0,2021-12-14,2021-12-14,株式会社Ｍｔ．,,株式会社,北海道,美唄市,字美唄１０６３番地１（進徳町２区）,,01,215,0720000,,,,,,,2021-12-14,1,,,,,エムティー,0
889,3430001085572,新規,0,2021-12-14,2021-12-14,株式会社ツルカフェ,,株式会社,北海道,札幌市中央区,宮の森二条５丁目２－８－１０５,,01,101,0640952,,,,,,,2021-12-14,1,,,,,ツルカフェ,0
890,3430001085580,新規,0,2021-12-14,2021-12-14,株式会社札幌総合美装,,株式会社,北海道,札幌市西区,発寒六条９丁目１７番２８号エフビル６－１０１号,,01,107,0630826,,,,,,,2021-12-14,1,,,,,サッポロソウゴウビソウ,0
895,3440001008994,新規,0,2021-12-14,2021-12-14,株式会社北海道ダイビングサービス,,株式会社,北海道,函館市,港町３丁目５番１９号,,01,202,0410821,,,,,,,2021-12-14,1,,,,,ホッカイドウダイビングサービス,0
900,3470001018859,新規,0,2021-12-14,2021-12-14,高原釦株式会社,,株式会社,香川県,さぬき市,大川町富田中１５０４番地,,37,206,7610902,,,,,,,2021-12-14,1,,,,,タカハラボタン,0
901,3470005006397,新規,0,2021-12-14,2021-12-14,一般社団法人全国わくわく課協会,,その他の設立登記法人,香川県,東かがわ市,三本松６８０番地１９,,37,207,7692601,,,,,,,2021-12-14,1,,,,,ゼンコクワクワクカキョウカイ,0
902,3500001023863,新規,0,2021-12-14,2021-12-14,早野産業株式会社,,株式会社,愛媛県,西条市,喜多台４８８番地７,,38,206,7991343,,,,,,,2021-12-14,1,,,,,ハヤノサンギョウ,0
931,4010001223264,新規,0,2021-12-14,2021-12-14,東京ＩＴパートナーズ株式会社,,株式会社,東京都,千代田区,岩本町３丁目１０番７号東自機ビル７Ｆ,,13,101,1010032,,,,,,,2021-12-14,1,,,,,トウキョウアイティーパートナーズ,0
944,4010401164414,新規,0,2021-12-14,2021-12-14,株式会社ＵＨＢ,,株式会社,東京都,港区,南青山２丁目２番１５号ＷｉｎＡｏｙａｍａビルＵＣＦ６３５,,13,103,1070062,,,,,,,2021-12-14,1,,,,,ユーエイチビー,0
945,4010401164422,新規,0,2021-12-14,2021-12-14,ｉＲａｙ　Ｊａｐａｎ株式会社,,株式会社,東京都,港区,赤坂２丁目２３番１号アークヒルズ・フロントタワーＩｎＣｏｎｔｒｏｌ内,,13,103,1070052,,,,,,,2021-12-14,1,,,,,イーレイジャパン,0
946,4010401164430,新規,0,2021-12-14,2021-12-14,株式会社アスファリス,,株式会社,東京都,港区,南青山１丁目１１番３０号,,13,103,1070062,,,,,,,2021-12-14,1,,,,,アスファリス,0
948,4010405020514,新規,0,2021-12-14,2021-12-14,一般社団法人東京中央信用調査,,その他の設立登記法人,東京都,港区,芝公園２丁目６番１１号芝公園アビタシオン７０５,,13,103,1050011,,,,,,,2021-12-14,1,,,,,トウキョウチュウオウシンヨウチョウサ,0
950,4010601060363,新規,0,2021-12-14,2021-12-14,ＡＮ株式会社,,株式会社,東京都,墨田区,太平１丁目１５番３号３０１室,,13,107,1300012,,,,,,,2021-12-14,1,,,,,エイエヌ,0
951,4010601060388,新規,0,2021-12-14,2021-12-14,昂技研株式会社,,株式会社,東京都,江東区,大島３丁目４－７山口ビル５階,,13,108,1360072,,,,,,,2021-12-14,1,,,,,コウギケン,0
952,4010603009301,新規,0,2021-12-14,2021-12-14,合同会社ｆｒｏｇｉｒａｆｆｅ,,合同会社,東京都,墨田区,菊川１丁目１２番５－３０６号,,13,107,1300024,,,,,,,2021-12-14,1,,,,,フロジラフィー,0
961,4011101097169,新規,0,2021-12-14,2021-12-14,株式会社ＰＪＩ日本研究所,,株式会社,東京都,新宿区,四谷２丁目２番１８号ＶＯＲＴ四谷５階,,13,104,1600004,,,,,,,2021-12-14,1,,,,,ピイジェイアイニホンケンキュウショ,0
962,4011103011268,新規,0,2021-12-14,2021-12-14,ＡｓｔｒａＳｅｎｓ合同会社,,合同会社,東京都,新宿区,西新宿３丁目３番１３号西新宿水間ビル６階,,13,104,1600023,,,,,,,2021-12-14,1,,,,,アストラセンス,0
964,4011201023479,新規,0,2021-12-14,2021-12-14,株式会社８‐ｂｅａｔ　Ｃｏｌｏｒｓ,,株式会社,東京都,中野区,中野５丁目２０,,13,114,1640001,,,,,,,2021-12-14,1,,,,,エイトビートカラーズ,0
970,4011401023907,新規,0,2021-12-14,2021-12-14,五百川建設株式会社,,株式会社,東京都,板橋区,南常盤台１丁目３０番２２号,,13,119,1740072,,,,,,,2021-12-14,1,,,,,イモガワケンセツ,0
971,4011601025604,新規,0,2021-12-14,2021-12-14,株式会社ＭＩＰ,,株式会社,東京都,練馬区,石神井台７丁目１３番１８号,,13,120,1770045,,,,,,,2021-12-14,1,,,,,エムアイピー,0
972,4011603003467,新規,0,2021-12-14,2021-12-14,合同会社ハレラボ,,合同会社,東京都,練馬区,光が丘２丁目７番３－１４０４号,,13,120,1790072,,,,,,,2021-12-14,1,,,,,ハレラボ,0
974,4011801040064,新規,0,2021-12-14,2021-12-14,株式会社エグゼ,,株式会社,東京都,足立区,西伊興１丁目２番２号,,13,121,1210824,,,,,,,2021-12-14,1,,,,,エグゼ,0
976,4012301012801,新規,0,2021-12-14,2021-12-14,株式会社Ｎａ　Ｔｅａｍ,,株式会社,東京都,町田市,成瀬４丁目７番１７号,,13,209,1940044,,,,,,,2021-12-14,1,,,,,ナチーム,0
979,4012403005158,新規,0,2021-12-14,2021-12-14,合同会社えたなーる,,合同会社,東京都,三鷹市,中原１丁目３番２３号ハイツＫＥＮ２０１,,13,204,1810005,,,,,,,2021-12-14,1,,,,,エタナール,0
981,4012801021269,新規,0,2021-12-14,2021-12-14,株式会社Ｎｅｓｔ,,株式会社,東京都,立川市,高松町３丁目６番１１号,,13,202,1900011,,,,,,,2021-12-14,1,,,,,ネスト,0
999,4020001144328,新規,0,2021-12-14,2021-12-14,麦麦提株式会社,,株式会社,神奈川県,川崎市川崎区,砂子１丁目５番地８第一諏訪ビル２０２号,,14,131,2100006,,,,,,,2021-12-14,1,,,,,マイマイティ,0
1000,4020001144336,新規,0,2021-12-14,2021-12-14,株式会社アクティブハート,,株式会社,神奈川県,横浜市金沢区,金沢町１５４番地４,,14,108,2360015,,,,,,,2021-12-14,1,,,,,アクティブハート,0
1001,4020001144344,新規,0,2021-12-14,2021-12-14,株式会社ｍｕｋｏｕｅ,,株式会社,神奈川県,横浜市鶴見区,佃野町２１番４５号２Ｆ,,14,101,2300061,,,,,,,2021-12-14,1,,,,,ムコウエ,0
1003,4020002047050,新規,0,2021-12-14,2021-12-14,有限会社横浜美装工業,,有限会社,神奈川県,横浜市都筑区,折本町１５０３番地３,,14,118,2240043,,,,,,,2021-12-14,1,,,,,,0
1008,4021001074746,新規,0,2021-12-14,2021-12-14,株式会社トラッドアローズ,,株式会社,神奈川県,相模原市南区,上鶴間本町９丁目５６番１号,,14,153,2520318,,,,,,,2021-12-14,1,,,,,トラッドアローズ,0
1010,4021003011177,新規,0,2021-12-14,2021-12-14,Ｇ３Ｎｅｘｔ合同会社,,合同会社,神奈川県,大和市,深見西６丁目３－２２－６０１,,14,213,2420018,,,,,,,2021-12-14,1,,,,,ジースリーネクスト,0
1012,4021005012388,新規,0,2021-12-14,2021-12-14,特定非営利活動法人こどもサポート,,その他の設立登記法人,神奈川県,平塚市,四之宮２丁目１７－１５,,14,203,2540014,,,,,,,2021-12-14,1,,,,,コドモサポート,0
1024,4040001121333,新規,0,2021-12-14,2021-12-14,株式会社美堂,,株式会社,千葉県,松戸市,松戸１４９５番地の３１,,12,207,2710092,,,,,,,2021-12-14,1,,,,,ビドウ,0
1025,4040001121382,新規,0,2021-12-14,2021-12-14,株式会社ＧＡＫＵ,,株式会社,千葉県,船橋市,三山６丁目４６－１,,12,204,2740072,,,,,,,2021-12-14,1,,,,,ガク,0
1035,4060001034384,新規,0,2021-12-14,2021-12-14,株式会社神山商事,,株式会社,栃木県,鹿沼市,仁神堂町２７番地７,,09,205,3220003,,,,,,,2021-12-14,1,,,,,カミヤマショウジ,0
1038,4070001038731,新規,0,2021-12-14,2021-12-14,株式会社興伸建設,,株式会社,群馬県,藤岡市,下栗須４３０番地１,,10,209,3750014,,,,,,,2021-12-14,1,,,,,コウシンケンセツ,0
1042,4080101022980,新規,0,2021-12-14,2021-12-14,株式会社ＭＯＲＩ－ＴＥＣ,,株式会社,静岡県,伊東市,川奈１３４８番地の１７,,22,208,4140044,,,,,,,2021-12-14,1,,,,,モリテック,0
1068,4120001242484,新規,0,2021-12-14,2021-12-14,株式会社サンウェッグ,,株式会社,大阪府,大阪市城東区,放出西３丁目３番１７号,,27,118,5360011,,,,,,,2021-12-14,1,,,,,サンウェッグ,0
1078,4130001070711,新規,0,2021-12-14,2021-12-14,ルートサイン株式会社,,株式会社,京都府,京都市左京区,下鴨貴船町２３番地１,,26,103,6060813,,,,,,,2021-12-14,1,,,,,ルートサイン,0
1079,4130002035754,新規,0,2021-12-14,2021-12-14,丸昌染匠有限会社,,有限会社,京都府,京都市中京区,西の京船塚町１８番地の１２,00125098,26,104,6040000,,,,,,,2021-12-14,1,,,,,マルショウセンショウ,0
1080,4130003007637,新規,0,2021-12-14,2021-12-14,合同会社しだし,,合同会社,京都府,京都市左京区,吉田泉殿町６８番地２４,,26,103,6068301,,,,,,,2021-12-14,1,,,,,シダシ,0
1085,4140001124169,新規,0,2021-12-14,2021-12-14,０７８ガード株式会社,,株式会社,兵庫県,神戸市垂水区,城が山３丁目５番６号１Ｆ,,28,108,6550884,,,,,,,2021-12-14,1,,,,,ゼロナナハチガード,0
1086,4140001124177,新規,0,2021-12-14,2021-12-14,株式会社三星,,株式会社,兵庫県,神戸市長田区,東尻池町４丁目１１番９号,,28,106,6530022,,,,,,,2021-12-14,1,,,,,サンセイ,0
1087,4140001124185,新規,0,2021-12-14,2021-12-14,寶グローバル株式会社,,株式会社,兵庫県,神戸市東灘区,住吉山手７丁目９番６号,,28,101,6580063,,,,,,,2021-12-14,1,,,,,バオグローバル,0
1089,4150005009357,新規,0,2021-12-14,2021-12-14,一般社団法人ライフシフト睡眠メンタリーヘルス協会,,その他の設立登記法人,奈良県,奈良市,中登美ヶ丘４丁目２番地１３－４０４号,,29,201,6310003,,,,,,,2021-12-14,1,,,,,ライフシフトスイミンメンタリーヘルスキョウカイ,0
1093,4160001023872,新規,0,2021-12-14,2021-12-14,株式会社ｄｉｍｏ,,株式会社,滋賀県,野洲市,南櫻１８６９番地４,,25,210,5202322,,,,,,,2021-12-14,1,,,,,デイーモ,0
1116,4180301035715,新規,0,2021-12-14,2021-12-14,株式会社江馬建築,,株式会社,愛知県,岡崎市,福岡町字屋敷２番地４,,23,202,4440825,,,,,,,2021-12-14,1,,,,,エマケンチク,0
1117,4180301035731,新規,0,2021-12-14,2021-12-14,株式会社コンフォートライフ,,株式会社,愛知県,岡崎市,大門５丁目１番地１５,,23,202,4442135,,,,,,,2021-12-14,1,,,,,コンフォートライフ,0
1124,4190001028935,新規,0,2021-12-14,2021-12-14,株式会社Ｌｉｂｅｒｔｙ,,株式会社,三重県,津市,垂水２０１０番地１１２,,24,201,5140821,,,,,,,2021-12-14,1,,,,,リバティー,0
1129,4240001059058,新規,0,2021-12-14,2021-12-14,株式会社ＴＬＤ,,株式会社,広島県,福山市,御幸町大字上岩成３６２番地５,,34,207,7200001,,,,,,,2021-12-14,1,,,,,ティーエルディー,0
1131,4250001019300,新規,0,2021-12-14,2021-12-14,株式会社廉工業,,株式会社,山口県,下関市,形山みどり町３番３１号,,35,201,7510885,,,,,,,2021-12-14,1,,,,,レンコウギョウ,0
1132,4250005008712,新規,0,2021-12-14,2021-12-14,一般社団法人おいでませ湯野,,その他の設立登記法人,山口県,周南市,大字湯野４３４１番地,,35,215,7451132,,,,,,,2021-12-14,1,,,,,オイデマセユノ,0
1133,4260001036303,新規,0,2021-12-14,2021-12-14,株式会社ＷＯＲＫ　ＳＭＩＬＥ　ＣＯＮＳＵＬＴＩＮＧ,,株式会社,岡山県,岡山市南区,福浜町１５番１０号,,33,104,7028035,,,,,,,2021-12-14,1,,,,,ワークスマイルコンサルティング,0
1135,4290001095619,新規,0,2021-12-14,2021-12-14,株式会社ＴＩＭＥＬＥＳＳ,,株式会社,福岡県,福岡市中央区,港３丁目４番２５号,,40,133,8100075,,,,,,,2021-12-14,1,,,,,タイムレス,0
1136,4290001095718,新規,0,2021-12-14,2021-12-14,株式会社Ｇプラス,,株式会社,福岡県,福岡市西区,内浜１丁目７番１－３０３号,,40,135,8190005,,,,,,,2021-12-14,1,,,,,ジープラス,0
1137,4290001095726,新規,0,2021-12-14,2021-12-14,株式会社Ｈｏｍｅ,,株式会社,福岡県,福津市,中央６丁目２１番１７号,,40,224,8113217,,,,,,,2021-12-14,1,,,,,ホーム,0
1139,4290801028075,新規,0,2021-12-14,2021-12-14,カイケン株式会社,,株式会社,福岡県,北九州市小倉北区,下富野２丁目１番２７号,,40,106,8020023,,,,,,,2021-12-14,1,,,,,カイケン,0
1141,4290803004009,新規,0,2021-12-14,2021-12-14,Ｋａｔｓｕ　Ｐｒｏｊｅｃｔ合同会社,,合同会社,福岡県,北九州市戸畑区,中原東３丁目７番１５号,,40,105,8040012,,,,,,,2021-12-14,1,,,,,カツプロジェクト,0
1144,4300001012737,新規,0,2021-12-14,2021-12-14,株式会社セキワ,,株式会社,佐賀県,佐賀市,久保泉町川久保３３４３番地２９,,41,201,8490000,,,,,,,2021-12-14,1,,,,,セキワ,0
1152,4330001029274,新規,0,2021-12-14,2021-12-14,株式会社Ｊｏａｌ,,株式会社,熊本県,水俣市,大園町１丁目１２番３号天神ハイツ４０１号,,43,205,8670042,,,,,,,2021-12-14,1,,,,,ジョアル,0
1160,4360001029750,新規,0,2021-12-14,2021-12-14,株式会社Ｋｗａｔｃｈｅｅ,,株式会社,沖縄県,うるま市,字西原８５６－４,,47,213,9042204,,,,,,,2021-12-14,1,,,,,クヮッチー,0
1173,4380001032397,新規,0,2021-12-14,2021-12-14,丸建建設工業株式会社,,株式会社,福島県,郡山市,字道場４５０番地１,,07,203,9638824,,,,,,,2021-12-14,1,,,,,マルケンケンセツコウギョウ,0
1183,4430001085571,新規,0,2021-12-14,2021-12-14,株式会社ｇｒｉｎ’ｓ,,株式会社,北海道,札幌市中央区,南六条西３丁目６番地２３第８桂和ビル５階４号,,01,101,0640806,,,,,,,2021-12-14,1,,,,,グリンズ,0
1184,4430003013448,新規,0,2021-12-14,2021-12-14,合同会社フォルティウス,,合同会社,北海道,札幌市中央区,南二条西２４丁目２－１７,,01,101,0640802,,,,,,,2021-12-14,1,,,,,フォルティウス,0
1186,4450001013555,新規,0,2021-12-14,2021-12-14,株式会社ピースプロデュース,,株式会社,北海道,旭川市,旭町一条１９丁目２１５７番地の２２,,01,204,0700831,,,,,,,2021-12-14,1,,,,,ピースプロデュース,0
1191,4480001011580,新規,0,2021-12-14,2021-12-14,株式会社ｈｏｓｏｎａｇａ,,株式会社,徳島県,小松島市,金磯町１２番６９号,,36,203,7730007,,,,,,,2021-12-14,1,,,,,ホソナガ,0
1198,4500001023862,新規,0,2021-12-14,2021-12-14,株式会社ＮＯＩＲ,,株式会社,愛媛県,松山市,六軒家町５番１３号,,38,201,7918021,,,,,,,2021-12-14,1,,,,,ノワール,0
1199,4500001023870,新規,0,2021-12-14,2021-12-14,株式会社Ｄ－ＭＡＸ,,株式会社,愛媛県,伊予郡松前町,大字出作１６６番地３,,38,401,7913162,,,,,,,2021-12-14,1,,,,,ディーマックス,0
1213,5010401164413,新規,0,2021-12-14,2021-12-14,ＨＫ＆Ｃｏ．株式会社,,株式会社,東京都,港区,芝浦４丁目２０番地２芝浦アイランドブルームタワー４００８,,13,103,1080023,,,,,,,2021-12-14,1,,,,,エイチケイアンドカンパニー,0
1216,5010501048202,新規,0,2021-12-14,2021-12-14,ＦＳミライ株式会社,,株式会社,東京都,台東区,台東１丁目１２番１１号秋葉原ＫＭＤビル１Ｆ,,13,106,1100016,,,,,,,2021-12-14,1,,,,,エフエスミライ,0
1217,5010601060379,新規,0,2021-12-14,2021-12-14,新日金属株式会社,,株式会社,東京都,墨田区,押上１丁目１５番２号,,13,107,1310045,,,,,,,2021-12-14,1,,,,,シンニチキンゾク,0
1220,5010703006024,新規,0,2021-12-14,2021-12-14,合同会社Ｓｕｎｔｏｎ,,合同会社,東京都,品川区,大井６丁目９番３２号,,13,109,1400014,,,,,,,2021-12-14,1,,,,,サントン,0
1221,5010801032574,新規,0,2021-12-14,2021-12-14,株式会社キュリオシティリソーセス,,株式会社,東京都,大田区,西蒲田４丁目２８番９号キュリオシティ西蒲田２０１,,13,111,1440051,,,,,,,2021-12-14,1,,,,,キュリオシティリソーセス,0
1223,5010901049948,新規,0,2021-12-14,2021-12-14,株式会社ＲＡ,,株式会社,東京都,世田谷区,瀬田４丁目２２番１６号ハイライフ瀬田２０６,,13,112,1580095,,,,,,,2021-12-14,1,,,,,アールエー,0
1226,5010903007012,新規,0,2021-12-14,2021-12-14,合同会社ＮＦＧ,,合同会社,東京都,世田谷区,大原１丁目４０番１３号,,13,112,1560041,,,,,,,2021-12-14,1,,,,,エヌエフジー,0
1227,5011001066719,新規,0,2021-12-14,2021-12-14,ヴァリオス株式会社,,株式会社,東京都,渋谷区,千駄ヶ谷１丁目３０－８,,13,113,1510051,,,,,,,2021-12-14,1,,,,,,0
1232,5011003013826,新規,0,2021-12-14,2021-12-14,カーマインワークス合同会社,,合同会社,東京都,渋谷区,恵比寿１丁目１０番６号清園ビル５階,,13,113,1500013,,,,,,,2021-12-14,1,,,,,カーマインワークス,0
1234,5011103011283,新規,0,2021-12-14,2021-12-14,プラスアルファ合同会社,,合同会社,東京都,新宿区,大久保２丁目１番３－１１０２号,,13,104,1690072,,,,,,,2021-12-14,1,,,,,プラスアルファ,0
1237,5011201023478,新規,0,2021-12-14,2021-12-14,株式会社ケンゴ内装,,株式会社,東京都,中野区,若宮１丁目２０番２号,,13,114,1650033,,,,,,,2021-12-14,1,,,,,ケンゴナイソウ,0
1240,5011401023906,新規,0,2021-12-14,2021-12-14,株式会社リクリアートＢ＆Ｔ,,株式会社,東京都,板橋区,南常盤台１丁目２３番１９－１０４号,,13,119,1740072,,,,,,,2021-12-14,1,,,,,リクリアートビーアンドティー,0
1246,5011603003466,新規,0,2021-12-14,2021-12-14,合同会社でん,,合同会社,東京都,練馬区,氷川台４丁目４４番１８－３０６号,,13,120,1790084,,,,,,,2021-12-14,1,,,,,デン,0
1248,5011801040055,新規,0,2021-12-14,2021-12-14,株式会社サンノアース,,株式会社,東京都,葛飾区,金町５丁目３６番９号,,13,122,1250042,,,,,,,2021-12-14,1,,,,,サンノアース,0
1250,5012301012800,新規,0,2021-12-14,2021-12-14,株式会社ｗｏｒｌｄ’ｓ　ｅｎｄ,,株式会社,東京都,町田市,南成瀬１丁目２番２号ＯＳＪ成瀬ビル３Ｆ,,13,209,1940045,,,,,,,2021-12-14,1,,,,,ワールズエンド,0
1253,5012401038638,新規,0,2021-12-14,2021-12-14,株式会社Ｂａｉｂａｉｌｉｎ,,株式会社,東京都,府中市,紅葉丘１丁目１８－２０,,13,206,1830004,,,,,,,2021-12-14,1,,,,,バイバイリン,0
1256,5012801021276,新規,0,2021-12-14,2021-12-14,株式会社ＤＪＢ,,株式会社,東京都,国立市,東１丁目４番地の２４ＴＯＫＩＯ国立タワー１３０２,,13,215,1860002,,,,,,,2021-12-14,1,,,,,ディージェービー,0
1260,5013301048396,新規,0,2021-12-14,2021-12-14,株式会社Ｗｏｎｄｅｒｆｕｌ　Ｅｙｅｓ,,株式会社,東京都,豊島区,南池袋１丁目９番１８－３４１号,,13,116,1710022,,,,,,,2021-12-14,1,,,,,ワンダフルアイズ,0
1266,5020001144319,新規,0,2021-12-14,2021-12-14,株式会社ＳＴ　Ｅｄｅｎ,,株式会社,神奈川県,横浜市中区,扇町２丁目５番地１４,,14,104,2310027,,,,,,,2021-12-14,1,,,,,エスティーエデン,0
1267,5020001144343,新規,0,2021-12-14,2021-12-14,Ｗ－ＩＮＧ株式会社,,株式会社,神奈川県,横浜市保土ケ谷区,境木町８８番地５,,14,106,2400034,,,,,,,2021-12-14,1,,,,,ウィング,0
1275,5021001074737,新規,0,2021-12-14,2021-12-14,株式会社ＣＹＳ,,株式会社,神奈川県,茅ヶ崎市,東海岸北３丁目８番１５号ヒルズ茅ヶ崎３０２,,14,207,2530053,,,,,,,2021-12-14,1,,,,,シーワイエス,0
1281,5021005012387,新規,0,2021-12-14,2021-12-14,ＮＰＯ法人湘南バレエ・コンペティション,,その他の設立登記法人,神奈川県,平塚市,松風町１２番１５－１０３号ＥＬＳＡ湘南松風,,14,203,2540812,,,,,,,2021-12-14,1,,,,,ショウナンバレエコンペティション,0
1300,5040001121332,新規,0,2021-12-14,2021-12-14,株式会社光明国際商事,,株式会社,千葉県,柏市,今谷南町４番２１－３号,,12,217,2770073,,,,,,,2021-12-14,1,,,,,コウミョウコクサイショウジ,0
1308,5060001034375,新規,0,2021-12-14,2021-12-14,株式会社ＳＴＡＲＳ　ＩＮＤＵＳＴＲＩＥＳ,,株式会社,栃木県,宇都宮市,今泉町３００９番地４,,09,201,3210962,,,,,,,2021-12-14,1,,,,,スターズインダストリーズ,0
1327,5110003004651,新規,0,2021-12-14,2021-12-14,合同会社和笑,,合同会社,新潟県,五泉市,旭町７番５１号,,15,218,9591862,,,,,,,2021-12-14,1,,,,,ワララ,0
1346,5120001242467,新規,0,2021-12-14,2021-12-14,ポリゴン株式会社,,株式会社,大阪府,大阪市淀川区,西宮原３丁目２番１号新大阪ビジネス第２ニッケンマンション４０８号室,,27,123,5320004,,,,,,,2021-12-14,1,,,,,ポリゴン,0
1347,5120001242483,新規,0,2021-12-14,2021-12-14,ジェイライツアーツ株式会社,,株式会社,大阪府,大阪市住之江区,粉浜１丁目２番１６号,,27,125,5590001,,,,,,,2021-12-14,1,,,,,ジェイライツアーツ,0
1348,5120001242500,新規,0,2021-12-14,2021-12-14,株式会社大陸鉱業,,株式会社,大阪府,大阪市都島区,大東町１丁目１０番３７－３１７号,,27,102,5340002,,,,,,,2021-12-14,1,,,,,タイリクコウギョウ,0
1349,5120001242517,新規,0,2021-12-14,2021-12-14,株式会社ファームリンク,,株式会社,大阪府,大阪市浪速区,日本橋４丁目１７番２０号,,27,111,5560005,,,,,,,2021-12-14,1,,,,,ファームリンク,0
1350,5120003020755,新規,0,2021-12-14,2021-12-14,聖美合同会社,,合同会社,大阪府,大阪市平野区,長吉六反２丁目７番１６号,,27,126,5470012,,,,,,,2021-12-14,1,,,,,セイビ,0
1351,5120003020771,新規,0,2021-12-14,2021-12-14,センコウボイス合同会社,,合同会社,大阪府,大阪市西成区,南津守６丁目４番１１号ロフティ玉出４０１,,27,122,5570063,,,,,,,2021-12-14,1,,,,,センコウボイス,0
1357,5130001070660,新規,0,2021-12-14,2021-12-14,株式会社田河機設,,株式会社,京都府,京都市伏見区,羽束師菱川町６１０番地７５,,26,109,6128487,,,,,,,2021-12-14,1,,,,,タガワキセツ,0
1358,5130001070702,新規,0,2021-12-14,2021-12-14,株式会社アイテック,,株式会社,京都府,京都市西京区,桂木ノ下町１番地の１６８,,26,111,6158072,,,,,,,2021-12-14,1,,,,,アイテック,0
1359,5130001070710,新規,0,2021-12-14,2021-12-14,株式会社Ｌｉｂｂｙ,,株式会社,京都府,京都市伏見区,羽束師志水町１７番地６,,26,109,6128485,,,,,,,2021-12-14,1,,,,,リビー,0
1360,5130003007636,新規,0,2021-12-14,2021-12-14,合同会社ヨモ長浦,,合同会社,京都府,京都市右京区,西院西平町８番地セゾン高辻５０５号,00125131,26,108,6150023,,,,,,,2021-12-14,1,,,,,ヨモナガウラ,0
1362,5140001124176,新規,0,2021-12-14,2021-12-14,株式会社えあわせ,,株式会社,兵庫県,尼崎市,大庄西町１丁目２番１５号,,28,202,6600077,,,,,,,2021-12-14,1,,,,,エアワセ,0
1363,5140001124184,新規,0,2021-12-14,2021-12-14,株式会社関西サポート工業,,株式会社,兵庫県,姫路市,市之郷町３丁目１番地,,28,201,6700943,,,,,,,2021-12-14,1,,,,,カンサイサポートコウギョウ,0
1366,5140005025949,新規,0,2021-12-14,2021-12-14,医療法人社団山名眼科医院,,その他の設立登記法人,兵庫県,高砂市,荒井町千鳥３丁目７番６号,,28,216,6760004,,,,,,,2021-12-14,1,,,,,ヤマナガンカイイン,0
1367,5150001025167,新規,0,2021-12-14,2021-12-14,ＡＮＴＨＥＭ株式会社,,株式会社,奈良県,生駒市,鹿ノ台南２丁目９－７,,29,209,6300113,,,,,,,2021-12-14,1,,,,,アンセム,0
1375,5180005019550,新規,0,2021-12-14,2021-12-14,医療法人ＴＭ会,,その他の設立登記法人,愛知県,丹羽郡大口町,余野６丁目１２３番地,,23,361,4800146,,,,,,,2021-12-14,1,,,,,ティーエムカイ,0
1379,5180305009276,新規,0,2021-12-14,2021-12-14,一般社団法人イシュカ,,その他の設立登記法人,愛知県,刈谷市,井ケ谷町広沢１,,23,210,4480001,,,,,,,2021-12-14,1,,,,,,0
1380,5190001028934,新規,0,2021-12-14,2021-12-14,株式会社ＭＪオート,,株式会社,三重県,四日市市,ときわ５丁目３番１０号ＬＵＣＥ・３Ａ,,24,202,5100834,,,,,,,2021-12-14,1,,,,,エムジェイオート,0
1384,5210005010002,新規,0,2021-12-14,2021-12-14,特定非営利活動法人災害共生支援機構ｆｒｏｍ,,その他の設立登記法人,福井県,三方上中郡若狭町,気山第１２９号３番地,,18,501,9191301,,,,,,,2021-12-14,1,,,,,サイガイキョウセイシエンキコウフロム,0
1385,5240001059049,新規,0,2021-12-14,2021-12-14,株式会社ランバージャック,,株式会社,広島県,広島市安佐北区,安佐町大字くすの木台５４８番地３０,,34,106,7313363,,,,,,,2021-12-14,1,,,,,ランバージャック,0
1386,5240001059057,新規,0,2021-12-14,2021-12-14,株式会社ＪＩＲＯ,,株式会社,広島県,広島市中区,上八丁堀７－１,,34,101,7300012,,,,,,,2021-12-14,1,,,,,ジロー,0
1398,5260005011004,新規,0,2021-12-14,2021-12-14,医療法人社団泉樹会,,その他の設立登記法人,岡山県,新見市,西方４５０番地,,33,210,7180017,,,,,,,2021-12-14,1,,,,,センジュカイ,0
1404,5290001095709,新規,0,2021-12-14,2021-12-14,株式会社ＰＬＡＮＴＳ,,株式会社,福岡県,福岡市城南区,別府４丁目１４番５号,,40,136,8140104,,,,,,,2021-12-14,1,,,,,プランツ,0
1405,5290001095717,新規,0,2021-12-14,2021-12-14,株式会社ＭＯＲＩ産業,,株式会社,福岡県,糟屋郡新宮町,夜臼６丁目４番１号,,40,345,8110110,,,,,,,2021-12-14,1,,,,,モリサンギョウ,0
1406,5290001095733,新規,0,2021-12-14,2021-12-14,株式会社千隼,,株式会社,福岡県,福岡市博多区,竹下２丁目４番６８号,,40,132,8120895,,,,,,,2021-12-14,1,,,,,チハヤ,0
1407,5290003011936,新規,0,2021-12-14,2021-12-14,合同会社Ｅｉｓｅｎ,,合同会社,福岡県,福岡市中央区,天神２丁目３番１０号天神パインクレスト７１９号,,40,133,8100001,,,,,,,2021-12-14,1,,,,,アイゼン,0
1408,5290005018450,新規,0,2021-12-14,2021-12-14,医療法人鳳歯会,,その他の設立登記法人,福岡県,福岡市西区,大字田尻１０２番３号,,40,135,8190383,,,,,,,2021-12-14,1,,,,,ホウシカイ,0
1409,5290005018459,新規,0,2021-12-14,2021-12-14,医療法人共仁会,,その他の設立登記法人,福岡県,福岡市博多区,南八幡町２丁目３番１０号,,40,132,8120886,,,,,,,2021-12-14,1,,,,,キョウジンカイ,0
1411,5290801028066,新規,0,2021-12-14,2021-12-14,株式会社カワグチ,,株式会社,福岡県,北九州市門司区,吉志１丁目２７番８－１０２号,,40,101,8000114,,,,,,,2021-12-14,1,,,,,カワグチ,0
1412,5290801028074,新規,0,2021-12-14,2021-12-14,エフケー興産株式会社,,株式会社,福岡県,北九州市門司区,松原１丁目６番１０号アライブ・マツバラＩ１０６号,00125133,40,101,8000064,,,,,,,2021-12-14,1,,,,,エフケーコウサン,0
1413,5290801028082,新規,0,2021-12-14,2021-12-14,株式会社ＡＫＫＹ,,株式会社,福岡県,北九州市若松区,東二島５丁目１４番４０号,,40,103,8080102,,,,,,,2021-12-14,1,,,,,エーケイケイワイ,0
1416,5310001017627,新規,0,2021-12-14,2021-12-14,株式会社マルショウ,,株式会社,長崎県,壱岐市,勝本町坂本触６番地３,,42,210,8115531,,,,,,,2021-12-14,1,,,,,マルショウ,0
1417,5320001018772,新規,0,2021-12-14,2021-12-14,株式会社アローズ,,株式会社,大分県,大分市,にじが丘２丁目２番地の５,,44,201,8700874,,,,,,,2021-12-14,1,,,,,アローズ,0
1418,5320001018789,新規,0,2021-12-14,2021-12-14,株式会社和大,,株式会社,大分県,別府市,亀川浜田町５番２３号トレステーラＤｕｖａ１０３,,44,202,8740014,,,,,,,2021-12-14,1,,,,,カズヒロ,0
1421,5330003009166,新規,0,2021-12-14,2021-12-14,合同会社ＹＯＳＨＩ,,合同会社,熊本県,熊本市中央区,世安３丁目３番２５号,,43,101,8600827,,,,,,,2021-12-14,1,,,,,ヨシ,0
1423,5340001024331,新規,0,2021-12-14,2021-12-14,株式会社ＮＥＸＴ,,株式会社,鹿児島県,鹿児島市,明和１丁目２５番１号,,46,201,8900024,,,,,,,2021-12-14,1,,,,,ネクスト,0
1426,5350001017466,新規,0,2021-12-14,2021-12-14,株式会社コトブキファーム,,株式会社,宮崎県,都城市,五十町１４１０番地１,,45,202,8850084,,,,,,,2021-12-14,1,,,,,コトブキファーム,0
1428,5360003011648,新規,0,2021-12-14,2021-12-14,合同会社ＴＥＲＲＡＣＥ,,合同会社,沖縄県,豊見城市,字瀬長１７４番地６ウミカジテラスＮｏ１６,,47,212,9010233,,,,,,,2021-12-14,1,,,,,テラス,0
1431,5370001047932,新規,0,2021-12-14,2021-12-14,結樹工建株式会社,,株式会社,宮城県,仙台市泉区,根白石字薬師堂道西２番地の１,,04,105,9813221,,,,,,,2021-12-14,1,,,,,ユウキコウケン,0
1436,5380001032396,新規,0,2021-12-14,2021-12-14,株式会社サンテラス,,株式会社,福島県,福島市,大森字唐橋２番地の５グレイス・ドミール１０１,,07,201,9601101,,,,,,,2021-12-14,1,,,,,サンテラス,0
1441,5390001016712,新規,0,2021-12-14,2021-12-14,ＫＳ工業株式会社,,株式会社,山形県,鶴岡市,稲生１丁目５‐３,,06,203,9970834,,,,,,,2021-12-14,1,,,,,ケーエスコウギョウ,0
1442,5390005008929,新規,0,2021-12-14,2021-12-14,保證責任尾花澤町新町負債整理組合,,その他の設立登記法人,山形県,尾花沢市,大字尾花沢,,06,212,9994221,,,,,,,2021-12-14,1,,,,,ホショウセキニンオバナザワマチシンマチ,0
1451,5430001085570,新規,0,2021-12-14,2021-12-14,レイワハウス株式会社,,株式会社,北海道,札幌市北区,太平十二条５丁目２番２号佐藤ビル１Ｆ,,01,102,0028012,,,,,,,2021-12-14,1,,,,,レイワハウス,0
1452,5430001085579,新規,0,2021-12-14,2021-12-14,株式会社アイリス,,株式会社,北海道,札幌市南区,澄川二条３丁目１０－１６,,01,106,0050002,,,,,,,2021-12-14,1,,,,,アイリス,0
1454,5430003013447,新規,0,2021-12-14,2021-12-14,合同会社八朔,,合同会社,北海道,札幌市豊平区,福住一条１丁目１４番１２号,,01,105,0620041,,,,,,,2021-12-14,1,,,,,ハッサク,0
1460,5450005004319,新規,0,2021-12-14,2021-12-14,中頓別町特定地域づくり事業協同組合,,その他の設立登記法人,北海道,枝幸郡中頓別町,字中頓別１７２番地６,,01,513,0985551,,,,,,,2021-12-14,1,,,,,ナカトンベツチョウトクテイチイキヅクリ,0
1480,6010001223080,新規,0,2021-12-14,2021-12-14,金川株式会社,,株式会社,東京都,千代田区,飯田橋２丁目５番１号飯田橋ＳＮビル３０２号,,13,101,1020072,,,,,,,2021-12-14,1,,,,,キンカワ,0
1484,6010003036506,新規,0,2021-12-14,2021-12-14,合同会社ＰＥＣＯ,,合同会社,東京都,中央区,銀座１丁目１２－４Ｎ＆Ｅ＿ＢＬＤ．７階,,13,102,1040061,,,,,,,2021-12-14,1,,,,,ペコ,0
1491,6010401164362,新規,0,2021-12-14,2021-12-14,Ｎｉｐｐｏｎ　Ｇｏｌｄ＆Ｃｏｐｐｅｒ株式会社,,株式会社,東京都,港区,赤坂１丁目１１番１２－５０４号,,13,103,1070052,,,,,,,2021-12-14,1,,,,,ニッポンゴールドアンドコッパー,0
1492,6010401164412,新規,0,2021-12-14,2021-12-14,株式会社ドルフィン・バリュー・アップ５号,,株式会社,東京都,港区,芝公園１丁目１番１号住友不動産御成門タワー７階,,13,103,1050011,,,,,,,2021-12-14,1,,,,,ドルフィンバリューアップゴゴウ,0
1495,6010405020512,新規,0,2021-12-14,2021-12-14,一般社団法人ＳＨ千歳中央,,その他の設立登記法人,東京都,港区,虎ノ門３丁目２２番１０－２０１号,,13,103,1050001,,,,,,,2021-12-14,1,,,,,エスエイチチトセチュウオウ,0
1499,6010603009308,新規,0,2021-12-14,2021-12-14,合同会社ビッグボス,,合同会社,東京都,江東区,越中島２丁目１番３２－２０２号,,13,108,1350044,,,,,,,2021-12-14,1,,,,,ビッグボス,0
1500,6010701041930,新規,0,2021-12-14,2021-12-14,株式会社Ｆｅｃｔ,,株式会社,東京都,品川区,大崎３丁目５―２エステージ大崎ビル６階,,13,109,1410032,,,,,,,2021-12-14,1,,,,,フェクト,0
1506,6010901049988,新規,0,2021-12-14,2021-12-14,株式会社２１２２,,株式会社,東京都,世田谷区,野毛２丁目２０番２３－３１２号,,13,112,1580092,,,,,,,2021-12-14,1,,,,,ニイチニニ,0
1518,6011003013841,新規,0,2021-12-14,2021-12-14,合同会社ヒトリデ,,合同会社,東京都,渋谷区,渋谷２丁目１９－１５宮益坂ビルディング６０９,,13,113,1500002,,,,,,,2021-12-14,1,,,,,ヒトリデ,0
1523,6011101097159,新規,0,2021-12-14,2021-12-14,株式会社ｖａｃｉｌａｎｄｏ,,株式会社,東京都,新宿区,四谷４丁目２４番２号１０２Ｄ,,13,104,1600004,,,,,,,2021-12-14,1,,,,,バシランド,0
1527,6011401023905,新規,0,2021-12-14,2021-12-14,株式会社Ｔｒｅ　ｇａｔｔｉ,,株式会社,東京都,板橋区,徳丸３丁目１５番２号,,13,119,1750083,,,,,,,2021-12-14,1,,,,,トレガッティ,0
1531,6011601025602,新規,0,2021-12-14,2021-12-14,株式会社高橋管財,,株式会社,東京都,練馬区,南大泉５丁目２１番８号,,13,120,1780064,,,,,,,2021-12-14,1,,,,,タカハシカンザイ,0
1532,6011801040054,新規,0,2021-12-14,2021-12-14,株式会社ＳＴＫＥＹ,,株式会社,東京都,葛飾区,西新小岩１丁目３番４－１０３号,,13,122,1240025,,,,,,,2021-12-14,1,,,,,ステキィ,0
1538,6012401038629,新規,0,2021-12-14,2021-12-14,株式会社むかいやま,,株式会社,東京都,府中市,紅葉丘３丁目２３番地の３２,,13,206,1830004,,,,,,,2021-12-14,1,,,,,ムカイヤマ,0
1539,6012401038645,新規,0,2021-12-14,2021-12-14,株式会社ＵＧＯＨ,,株式会社,東京都,調布市,上石原３丁目４４番２号,,13,208,1820035,,,,,,,2021-12-14,1,,,,,ウゴウ,0
1544,6012801021275,新規,0,2021-12-14,2021-12-14,株式会社Ｏｎｓｉｔｅ　Ａｕｄｉｏ,,株式会社,東京都,立川市,富士見町４丁目１５番５号,,13,202,1900013,,,,,,,2021-12-14,1,,,,,オンサイトオーディオ,0
1546,6013301048420,新規,0,2021-12-14,2021-12-14,株式会社ＳＤＸホールディングス,,株式会社,東京都,豊島区,南池袋３丁目８番３－２０２号,,13,116,1710022,,,,,,,2021-12-14,1,,,,,エスディーエックスホールディングス,0
1559,6020001144334,新規,0,2021-12-14,2021-12-14,株式会社白帆,,株式会社,神奈川県,横浜市神奈川区,金港町８番地１ドゥーエ横浜駅前１９０４号,,14,102,2210056,,,,,,,2021-12-14,1,,,,,ハクホ,0
1562,6021001074736,新規,0,2021-12-14,2021-12-14,株式会社Ｌｕｎａ,,株式会社,神奈川県,相模原市中央区,鹿沼台１丁目１５番９号センチュリー鹿沼２０１,,14,152,2520233,,,,,,,2021-12-14,1,,,,,ルナ,0
1566,6030001145827,新規,0,2021-12-14,2021-12-14,株式会社クローバー,,株式会社,埼玉県,川口市,大字里１４６１番地の８,,11,203,3340005,,,,,,,2021-12-14,1,,,,,クローバー,0
1575,6040001121331,新規,0,2021-12-14,2021-12-14,株式会社ＦＩＲＳＴＲＡＹ,,株式会社,千葉県,船橋市,本町１丁目１３番２３号ＭＨビル２０１,,12,204,2730005,,,,,,,2021-12-14,1,,,,,ファーストレイ,0
1576,6040001121364,新規,0,2021-12-14,2021-12-14,株式会社ＩＰＬＵＳ,,株式会社,千葉県,千葉市中央区,神明町１番地２２,,12,101,2600022,,,,,,,2021-12-14,1,,,,,アイプラス,0
1577,6040001121372,新規,0,2021-12-14,2021-12-14,株式会社ＴＭＴシステム,,株式会社,千葉県,千葉市中央区,仁戸名町４６７番地１５,,12,101,2600801,,,,,,,2021-12-14,1,,,,,ティーエムティーシステム,0
1582,6050001050307,新規,0,2021-12-14,2021-12-14,株式会社成,,株式会社,茨城県,那珂郡東海村,舟石川駅西４丁目９番１号,,08,341,3191116,,,,,,,2021-12-14,1,,,,,ナリ,0
1585,6060001034358,新規,0,2021-12-14,2021-12-14,Ｌｉｌｙａｓ株式会社,,株式会社,栃木県,足利市,五十部町７５０番地１,,09,202,3260843,,,,,,,2021-12-14,1,,,,,リリーアズ,0
1586,6060001034374,新規,0,2021-12-14,2021-12-14,株式会社小野ファーム,,株式会社,栃木県,さくら市,狹間田１７９４番地１,,09,214,3291305,,,,,,,2021-12-14,1,,,,,オノファーム,0
1596,6080001024638,新規,0,2021-12-14,2021-12-14,株式会社ヒロプランニング,,株式会社,静岡県,藤枝市,大東町２７８番地の１,,22,214,4260044,,,,,,,2021-12-14,1,,,,,ヒロプランニング,0
1604,6100002036613,新規,0,2021-12-14,2021-12-14,正泉有限会社,,有限会社,長野県,飯田市,座光寺４０８２番地,,20,205,3950001,,,,,,,2021-12-14,1,,,,,ショウセン,0
1607,6110003004642,新規,0,2021-12-14,2021-12-14,合同会社レスティア,,合同会社,新潟県,新潟市西区,寺尾北１丁目１２－２１－３,,15,107,9502061,,,,,,,2021-12-14,1,,,,,レスティア,0
1618,6120001242466,新規,0,2021-12-14,2021-12-14,漢和貿易株式会社,,株式会社,大阪府,大阪市中央区,平野町３丁目１番６号ＢｉｚＭｉｉＸ－Ｙｏｄｏｙａｂａｓｈｉ３０８号室,,27,128,5410046,,,,,,,2021-12-14,1,,,,,カンワボウエキ,0
1619,6120001242474,新規,0,2021-12-14,2021-12-14,株式会社デイブＧ,,株式会社,大阪府,大阪市中央区,船場中央３丁目１番７号船場センタービル７号館２０５号室,,27,128,5410055,,,,,,,2021-12-14,1,,,,,デイブジー,0
1620,6120001242516,新規,0,2021-12-14,2021-12-14,株式会社ｃｉａｔｒｅ　ＥＣ,,株式会社,大阪府,大阪市北区,本庄西１丁目１３番１１号,,27,127,5310073,,,,,,,2021-12-14,1,,,,,シアターイーシー,0
1624,6120003020713,新規,0,2021-12-14,2021-12-14,ＬＡＵＭ合同会社,,合同会社,大阪府,大阪市中央区,瓦町３丁目３番１６号ＯＷＬ瓦町ビル４Ｆ,,27,128,5410048,,,,,,,2021-12-14,1,,,,,ラウム,0
1628,6120901045332,新規,0,2021-12-14,2021-12-14,株式会社Ｈａｖｉｎｇ,,株式会社,大阪府,三島郡島本町,青葉３丁目２番４号,,27,301,6180015,,,,,,,2021-12-14,1,,,,,ハビング,0
1629,6122001035429,新規,0,2021-12-14,2021-12-14,株式会社ＮＴＫ,,株式会社,大阪府,東大阪市,稲田本町２丁目７番８号,,27,227,5770007,,,,,,,2021-12-14,1,,,,,エヌティケー,0
1636,6130001070718,新規,0,2021-12-14,2021-12-14,株式会社京和,,株式会社,京都府,京都市南区,唐橋西平垣町４５－２ジャストビル４Ｆ,,26,107,6018468,,,,,,,2021-12-14,1,,,,,キョウワ,0
1645,6140001124175,新規,0,2021-12-14,2021-12-14,株式会社メゾン・ドゥ・シャルトルズ,,株式会社,兵庫県,神戸市中央区,三宮町３丁目９番１６号クマガイビル３階,,28,110,6500021,,,,,,,2021-12-14,1,,,,,メゾンドゥシャルトルズ,0
1647,6140005025948,新規,0,2021-12-14,2021-12-14,医療法人社団明晴会,,その他の設立登記法人,兵庫県,淡路市,岩屋９８５番地,,28,226,6562401,,,,,,,2021-12-14,1,,,,,メイセイカイ,0
1664,6180305009275,新規,0,2021-12-14,2021-12-14,一般社団法人ひまわりクラブ,,その他の設立登記法人,愛知県,安城市,御幸本町１１番１７号,,23,212,4460032,,,,,,,2021-12-14,1,,,,,ヒマワリクラブ,0
1666,6190005011654,新規,0,2021-12-14,2021-12-14,一般社団法人心理社会的リハビリテーション・星心会,,その他の設立登記法人,三重県,四日市市,山城町５９番地４,,24,202,5128048,,,,,,,2021-12-14,1,,,,,シンリシャカイテキリハビリテーションセイシンカイ,0
1667,6200001039524,新規,0,2021-12-14,2021-12-14,株式会社サミット,,株式会社,岐阜県,多治見市,田代町１丁目１８番地,,21,204,5070036,,,,,,,2021-12-14,1,,,,,サミット,0
1669,6220003003170,新規,0,2021-12-14,2021-12-14,合同会社ヤボ,,合同会社,石川県,金沢市,昭和町７番５号＋ＣＲＥＷ３Ｆ,,17,201,9200856,,,,,,,2021-12-14,1,,,,,ヤボ,0
1673,6240001059056,新規,0,2021-12-14,2021-12-14,株式会社ネクシィ,,株式会社,広島県,福山市,神辺町大字川北１１８９番地１,,34,207,7202123,,,,,,,2021-12-14,1,,,,,ネクシィ,0
1693,6290001095699,新規,0,2021-12-14,2021-12-14,株式会社ルアナ,,株式会社,福岡県,福岡市早良区,野芥８丁目１７番６号,,40,137,8140171,,,,,,,2021-12-14,1,,,,,ルアナ,0
1699,6290003011935,新規,0,2021-12-14,2021-12-14,合同会社梅田紳士服,,合同会社,福岡県,福岡市南区,井尻３丁目３２－２３－２０２,,40,134,8111302,,,,,,,2021-12-14,1,,,,,ウメダシンシフク,0
1701,6290005018458,新規,0,2021-12-14,2021-12-14,一般社団法人社会価値創造デザイン研究機構,,その他の設立登記法人,福岡県,福岡市早良区,室見３丁目１０番２２号,,40,137,8140015,,,,,,,2021-12-14,1,,,,,シャカイカチソウゾウデザインケンキュウキコウ,0
1702,6290005018466,新規,0,2021-12-14,2021-12-14,医療法人シルキーライフ,,その他の設立登記法人,福岡県,糟屋郡須惠町,大字須恵字古宮７６９番３,,40,344,8112100,,,,,,,2021-12-14,1,,,,,シルキーライフ,0
1704,6290801028065,新規,0,2021-12-14,2021-12-14,株式会社ひびきの経営コンサルティング,,株式会社,福岡県,北九州市若松区,ひびきの１番８号,,40,103,8080135,,,,,,,2021-12-14,1,,,,,ヒビキノケイエイコンサルティング,0
1705,6290801028073,新規,0,2021-12-14,2021-12-14,株式会社ソア,,株式会社,福岡県,北九州市小倉北区,香春口２丁目５番１３号,,40,106,8020084,,,,,,,2021-12-14,1,,,,,ソア,0
1719,6360003011647,新規,0,2021-12-14,2021-12-14,合同会社エイトホーム,,合同会社,沖縄県,那覇市,辻２丁目１１－３－２Ｆ,,47,201,9000037,,,,,,,2021-12-14,1,,,,,,0
1723,6370005010407,新規,0,2021-12-14,2021-12-14,医療法人千歩会,,その他の設立登記法人,宮城県,気仙沼市,田谷１１番１１,,04,205,9880045,,,,,,,2021-12-14,1,,,,,センホカイ,0
1746,6430001085561,新規,0,2021-12-14,2021-12-14,株式会社パレード,,株式会社,北海道,札幌市手稲区,新発寒六条５丁目５－２,,01,109,0060806,,,,,,,2021-12-14,1,,,,,パレード,0
1748,6430003013446,新規,0,2021-12-14,2021-12-14,合同会社ＣＬＡＲＵＳ企画,,合同会社,北海道,札幌市白石区,平和通１丁目北１５番２６－１０１号,,01,104,0030029,,,,,,,2021-12-14,1,,,,,クラルスキカク,0
1765,7010003036546,新規,0,2021-12-14,2021-12-14,合同会社データピッケル,,合同会社,東京都,中央区,銀座１丁目２２番１１号銀座大竹ビジデンス２階,,13,102,1040061,,,,,,,2021-12-14,1,,,,,データピッケル,0
1777,7010401164403,新規,0,2021-12-14,2021-12-14,株式会社Ｂｏｓａｙ,,株式会社,東京都,港区,元赤坂１丁目２－１７,,13,103,1070051,,,,,,,2021-12-14,1,,,,,ボーセイ,0
1779,7010403026700,新規,0,2021-12-14,2021-12-14,Ｖｉｇｉｌａｎｔｅ合同会社,,合同会社,東京都,港区,浜松町２丁目４番１号世界貿易センタービルディング南館１７階,,13,103,1050013,,,,,,,2021-12-14,1,,,,,ヴィジランテ,0
1780,7010403026709,新規,0,2021-12-14,2021-12-14,ゼロスリーフォー合同会社,,合同会社,東京都,港区,南青山２丁目２番１５号ウィン青山９４２,,13,103,1070062,,,,,,,2021-12-14,1,,,,,ゼロスリーフォー,0
1781,7010405020511,新規,0,2021-12-14,2021-12-14,一般社団法人ゴールドＪ０,,その他の設立登記法人,東京都,港区,虎ノ門３丁目２２番１０－２０１号,,13,103,1050001,,,,,,,2021-12-14,1,,,,,ゴールドジェイゼロ,0
1782,7010505003283,新規,0,2021-12-14,2021-12-14,一般社団法人八千代持株管理会,,その他の設立登記法人,東京都,台東区,浅草橋５丁目２０番８号,,13,106,1110053,,,,,,,2021-12-14,1,,,,,ヤチヨモチカブカンリカイ,0
1784,7010601060377,新規,0,2021-12-14,2021-12-14,株式会社ＬＡＺＯ,,株式会社,東京都,江東区,富岡１丁目２２番２７号,,13,108,1350047,,,,,,,2021-12-14,1,,,,,ラソ,0
1785,7010603009307,新規,0,2021-12-14,2021-12-14,ＪＶＭＥＤＩＡ合同会社,,合同会社,東京都,江東区,亀戸５丁目６番２１号,,13,108,1360071,,,,,,,2021-12-14,1,,,,,ジェーブイメディア,0
1792,7010801032548,新規,0,2021-12-14,2021-12-14,株式会社ｃｌｏｎｅ,,株式会社,東京都,大田区,仲池上２丁目２０番８号グランエッグス仲池上０７号室,,13,111,1460081,,,,,,,2021-12-14,1,,,,,クローン,0
1793,7010801032572,新規,0,2021-12-14,2021-12-14,株式会社ＭＡＳＳ企画,,株式会社,東京都,大田区,東雪谷３丁目３０－１,,13,111,1450065,,,,,,,2021-12-14,1,,,,,マスキカク,0
1796,7010901049987,新規,0,2021-12-14,2021-12-14,株式会社Ｙ．Ａ．Ｓ．Ｙ,,株式会社,東京都,世田谷区,野毛２丁目２０番２３－３１２号,,13,112,1580092,,,,,,,2021-12-14,1,,,,,ワイエーエスワイ,0
1797,7010901049995,新規,0,2021-12-14,2021-12-14,株式会社ＴＹ．Ｐ＆Ｐ,,株式会社,東京都,世田谷区,成城１丁目６番２５号セサミハウス成城４０３,,13,112,1570066,,,,,,,2021-12-14,1,,,,,ティワイドットピィアンドピィ,0
1799,7010903007010,新規,0,2021-12-14,2021-12-14,合同会社Ｈｏｕｓｅ＆Ｔｕｒｆ,,合同会社,東京都,世田谷区,上野毛１丁目２５番４号,,13,112,1580093,,,,,,,2021-12-14,1,,,,,ハウスアンドターフ,0
1810,7011103011265,新規,0,2021-12-14,2021-12-14,合同会社インサイトマーケティング,,合同会社,東京都,新宿区,西新宿６丁目１０番１号日土地西新宿ビル８階,,13,104,1600023,,,,,,,2021-12-14,1,,,,,インサイトマーケティング,0
1811,7011201023476,新規,0,2021-12-14,2021-12-14,株式会社アートメディックス,,株式会社,東京都,中野区,中野３丁目３４番３２－１００７号,,13,114,1640001,,,,,,,2021-12-14,1,,,,,アートメディックス,0
1813,7011401023904,新規,0,2021-12-14,2021-12-14,高丁商事株式会社,,株式会社,東京都,板橋区,南常盤台２丁目２番６号常盤台パールマンション５０２号室,,13,119,1740072,,,,,,,2021-12-14,1,,,,,コウテイショウジ,0
1825,7011801040053,新規,0,2021-12-14,2021-12-14,家ｃｏｍ株式会社,,株式会社,東京都,足立区,伊興本町１丁目１２番２号上野ビル２０１,,13,121,1210807,,,,,,,2021-12-14,1,,,,,イエコム,0
1830,7012303001626,新規,0,2021-12-14,2021-12-14,合同会社Ｇｒｏｗｔｈ,,合同会社,東京都,町田市,原町田１丁目１６番１６号,,13,209,1940013,,,,,,,2021-12-14,1,,,,,グロース,0
1831,7012401038644,新規,0,2021-12-14,2021-12-14,株式会社ＨＡＲＤＥＳ,,株式会社,東京都,狛江市,和泉本町１丁目３５番７－４０５号,,13,219,2010003,,,,,,,2021-12-14,1,,,,,ハーデス,0
1839,7012801021274,新規,0,2021-12-14,2021-12-14,株式会社幸苑,,株式会社,東京都,日野市,旭が丘２丁目２９番地の１５,,13,212,1910065,,,,,,,2021-12-14,1,,,,,コウエン,0
1841,7012803002660,新規,0,2021-12-14,2021-12-14,ＣＴＲ　Ｍａｎａｇｅｍｅｎｔ合同会社,,合同会社,東京都,国分寺市,南町３丁目８番１７号,,13,214,1850021,,,,,,,2021-12-14,1,,,,,シーティーアールマネージメント,0
1847,7020003020978,新規,0,2021-12-14,2021-12-14,合同会社ワンヴォイスミュージック,,合同会社,神奈川県,横浜市中区,本牧原５番３－９０４号,,14,104,2310821,,,,,,,2021-12-14,1,,,,,ワンヴォイスミュージック,0
1851,7021001074719,新規,0,2021-12-14,2021-12-14,７８株式会社,,株式会社,神奈川県,鎌倉市,由比ガ浜３丁目７番４号,,14,204,2480014,,,,,,,2021-12-14,1,,,,,セブンティエイト,0
1852,7021001074735,新規,0,2021-12-14,2021-12-14,株式会社ハーベストホーム,,株式会社,神奈川県,大和市,福田２丁目４番地２桜ケ丘コーポ３Ａ,,14,213,2420024,,,,,,,2021-12-14,1,,,,,ハーベストホーム,0
1853,7021003011182,新規,0,2021-12-14,2021-12-14,合同会社サニーナース,,合同会社,神奈川県,横須賀市,津久井４丁目１番３号高橋店舗２階,,14,201,2390843,,,,,,,2021-12-14,1,,,,,サニーナース,0
1854,7021005012385,新規,0,2021-12-14,2021-12-14,医療法人社団ひだまり会,,その他の設立登記法人,神奈川県,伊勢原市,桜台１丁目３番３号いせはらｃｏｍａ２階,,14,214,2591132,,,,,,,2021-12-14,1,,,,,ヒダマリカイ,0
1858,7030001145834,新規,0,2021-12-14,2021-12-14,株式会社ｈｏｌｙｆａｉｒｙ,,株式会社,埼玉県,川口市,並木３丁目２６－１０,,11,203,3320034,,,,,,,2021-12-14,1,,,,,ホーリーフェアリー,0
1864,7030003018286,新規,0,2021-12-14,2021-12-14,合同会社ＴＨＲＥＥＳＥＶＥＮＳ,,合同会社,埼玉県,さいたま市南区,関１丁目６番２１号,,11,108,3360038,,,,,,,2021-12-14,1,,,,,スリーセブンス,0
1865,7030005020661,新規,0,2021-12-14,2021-12-14,土地家屋調査士法人ヴェルテックスプラン埼玉,,その他の設立登記法人,埼玉県,さいたま市南区,鹿手袋４丁目１６番５号,,11,108,3360031,,,,,,,2021-12-14,1,,,,,ヴェルテックスプランサイタマ,0
1873,7040001121363,新規,0,2021-12-14,2021-12-14,株式会社ホワイトスピカ,,株式会社,千葉県,八千代市,ゆりのき台１丁目２－５セントラルビル１Ｂ,,12,221,2760042,,,,,,,2021-12-14,1,,,,,ホワイトスピカ,0
1878,7050001050306,新規,0,2021-12-14,2021-12-14,株式会社ｐｏｌｉｔｅ,,株式会社,茨城県,筑西市,小川１３９１番地３６２,,08,227,3080857,,,,,,,2021-12-14,1,,,,,プライト,0
1892,7080001024629,新規,0,2021-12-14,2021-12-14,株式会社ＧＲＥＥＮ,,株式会社,静岡県,静岡市葵区,牧ケ谷２２９２番地,,22,101,4211221,,,,,,,2021-12-14,1,,,,,グリーン,0
1894,7080101022978,新規,0,2021-12-14,2021-12-14,株式会社ＡＺ,,株式会社,静岡県,富士宮市,中島町５５８番地,,22,207,4180045,,,,,,,2021-12-14,1,,,,,エーゼット,0
1896,7080403004427,新規,0,2021-12-14,2021-12-14,合同会社Ｓ．Ｒ．ＬＡＮＫＡ,,合同会社,静岡県,御前崎市,上朝比奈３３５０番地の１,,22,223,4371601,,,,,,,2021-12-14,1,,,,,エスアールランカ,0
1906,7100005012800,新規,0,2021-12-14,2021-12-14,一般財団法人村石スポーツ振興財団,,その他の設立登記法人,長野県,千曲市,上山田温泉２丁目２番地２,,20,218,3890821,,,,,,,2021-12-14,1,,,,,ムライシスポーツシンコウザイダン,0
1908,7110003004633,新規,0,2021-12-14,2021-12-14,ＨＮＴオート合同会社,,合同会社,新潟県,南魚沼市,浦佐１１８８－２グローバルＩＴパーク内オフィス＃４,,15,226,9497302,,,,,,,2021-12-14,1,,,,,エイチエヌティー,0
1911,7120001027627,新規,0,2021-12-14,2021-12-14,株式会社鈴金,,株式会社,大阪府,大阪市大正区,泉尾１丁目２３番１５号,,27,108,5510031,,,,,,,2021-12-14,1,,,,,スズキン,0
1917,7120001242457,新規,0,2021-12-14,2021-12-14,株式会社ＡＬＩＶＥ,,株式会社,大阪府,大阪市中央区,西心斎橋２丁目４番２号８Ｆ,,27,128,5420086,,,,,,,2021-12-14,1,,,,,アライブ,0
1919,7120003020761,新規,0,2021-12-14,2021-12-14,合同会社クイックＫ,,合同会社,大阪府,大阪市淀川区,西中島４丁目８番４－９０５号,,27,123,5320011,,,,,,,2021-12-14,1,,,,,クイックケー,0
1920,7120005022657,新規,0,2021-12-14,2021-12-14,特定非営利活動法人ＥＸＤ－Ｊａｐａｎ,,その他の設立登記法人,大阪府,大阪市中央区,伏見町３丁目２－１２春海ビル４階,,27,128,5410044,,,,,,,2021-12-14,1,,,,,イーエックスディージャパン,0
1928,7122001035428,新規,0,2021-12-14,2021-12-14,株式会社トレイル,,株式会社,大阪府,東大阪市,長田中１丁目１番５号,,27,227,5770013,,,,,,,2021-12-14,1,,,,,トレイル,0
1931,7130001070709,新規,0,2021-12-14,2021-12-14,株式会社ホクト,,株式会社,京都府,京都市上京区,大宮通今宮御旅所下る東入東若宮町５５番地の２,,26,102,6020086,,,,,,,2021-12-14,1,,,,,ホクト,0
1934,7130003007634,新規,0,2021-12-14,2021-12-14,合同会社ゆりかエージェンシー,,合同会社,京都府,京都市山科区,御陵血洗町３６－３０５,,26,110,6078428,,,,,,,2021-12-14,1,,,,,ユリカエージェンシー,0
1938,7140001124182,新規,0,2021-12-14,2021-12-14,ＳＵＭＩＲＥ株式会社,,株式会社,兵庫県,神戸市長田区,四番町７丁目５番アロバス第二ビル２０１号,,28,106,6530004,,,,,,,2021-12-14,1,,,,,スミレ,0
1939,7140001124190,新規,0,2021-12-14,2021-12-14,株式会社イチカ,,株式会社,兵庫県,三木市,別所町興治７２４番地の３６１,,28,215,6730442,,,,,,,2021-12-14,1,,,,,イチカ,0
1940,7140003017087,新規,0,2021-12-14,2021-12-14,合同会社Ｋ,,合同会社,兵庫県,神戸市垂水区,瑞穂通８－２９,,28,108,6550022,,,,,,,2021-12-14,1,,,,,ケー,0
1941,7140005025947,新規,0,2021-12-14,2021-12-14,医療法人社団おおすぎ眼科,,その他の設立登記法人,兵庫県,神戸市灘区,水道筋５丁目２番２号セイントビル３階,,28,102,6570831,,,,,,,2021-12-14,1,,,,,オオスギガンカ,0
1946,7170005006936,新規,0,2021-12-14,2021-12-14,特定非営利活動法人若者応援センターヨリドコ,,その他の設立登記法人,和歌山県,新宮市,仲之町３丁目１番地８,,30,207,6470018,,,,,,,2021-12-14,1,,,,,ワカモノオウエンセンターヨリドコ,0
1951,7180001149127,新規,0,2021-12-14,2021-12-14,ＳｕｎＫ株式会社,,株式会社,愛知県,名古屋市守山区,城南町１１番１６号,,23,113,4630014,,,,,,,2021-12-14,1,,,,,サンク,0
1952,7180001149143,新規,0,2021-12-14,2021-12-14,株式会社リアンローズ,,株式会社,愛知県,名古屋市守山区,西城２丁目３０番２８号,,23,113,4630084,,,,,,,2021-12-14,1,,,,,リアンローズ,0
1957,7180005019549,新規,0,2021-12-14,2021-12-14,日本電産モビリティ労働組合,,その他の設立登記法人,愛知県,小牧市,大字大草字年上坂６３６８番地,,23,219,4850802,,,,,,,2021-12-14,1,,,,,ニホンデンサンモビリティ,0
1958,7180005019557,新規,0,2021-12-14,2021-12-14,医療法人ふしみ矯正歯科,,その他の設立登記法人,愛知県,名古屋市中区,錦１丁目２０番１０号ＨＲ・ＮＥＴ伏見ビル３階,,23,106,4600003,,,,,,,2021-12-14,1,,,,,フシミキョウセイシカ,0
1960,7190001006764,新規,0,2021-12-14,2021-12-14,大一住宅株式会社,,株式会社,三重県,伊勢市,宇治浦田３丁目１６番３号,,24,203,5160026,,,,,,,2021-12-14,1,,,,,ダイイチジュウタク,0
1967,7240001059047,新規,0,2021-12-14,2021-12-14,株式会社ｖｅｔａｒｔｚ,,株式会社,広島県,広島市安佐北区,亀山５丁目２番８号,,34,106,7310231,,,,,,,2021-12-14,1,,,,,ベットアーツ,0
1968,7240001059055,新規,0,2021-12-14,2021-12-14,Ｃａｓｅ　Ｓｙｓｔｅｍ株式会社,,株式会社,広島県,広島市東区,上大須賀町４番２号,,34,102,7320056,,,,,,,2021-12-14,1,,,,,ケースシステム,0
1972,7260001036309,新規,0,2021-12-14,2021-12-14,株式会社瀬戸内テック,,株式会社,岡山県,瀬戸内市,邑久町福山４９０番地,,33,212,7014245,,,,,,,2021-12-14,1,,,,,セトウチテック,0
1974,7260005011002,新規,0,2021-12-14,2021-12-14,医療法人社団ｐｅａｃｅ　ｐｌａｎ,,その他の設立登記法人,岡山県,岡山市北区,野田屋町１丁目１１番１号－２０１,,33,101,7000815,,,,,,,2021-12-14,1,,,,,ピースプラン,0
1979,7290001095715,新規,0,2021-12-14,2021-12-14,株式会社伊東教材,,株式会社,福岡県,福岡市城南区,鳥飼６丁目１１－１３,,40,136,8140103,,,,,,,2021-12-14,1,,,,,イトウキョウザイ,0
1982,7290801028072,新規,0,2021-12-14,2021-12-14,株式会社リペアジェイ,,株式会社,福岡県,北九州市若松区,高須西２丁目１番１７号ヴェルディ高須ＩＩＢ１Ｆ,00125134,40,103,8080146,,,,,,,2021-12-14,1,,,,,リペアジェイ,0
1983,7290801028080,新規,0,2021-12-14,2021-12-14,株式会社エンタープライズ・タケ,,株式会社,福岡県,直方市,大字下新入６６０番地３,,40,204,8220032,,,,,,,2021-12-14,1,,,,,エンタープライズタケ,0
1991,7320001018779,新規,0,2021-12-14,2021-12-14,株式会社エフエヌ工業,,株式会社,大分県,中津市,大字植野９６５番地１,,44,203,8790103,,,,,,,2021-12-14,1,,,,,エフエヌコウギョウ,0
1992,7320001018787,新規,0,2021-12-14,2021-12-14,株式会社加藤鉄筋工業,,株式会社,大分県,大分市,三佐２丁目３番８号,,44,201,8700108,,,,,,,2021-12-14,1,,,,,カトウテッキンコウギョウ,0
1993,7330003009172,新規,0,2021-12-14,2021-12-14,合同会社Ｌｅ・ｖｉｓａｇｅ,,合同会社,熊本県,熊本市中央区,帯山３丁目１５番１８号,,43,101,8620924,,,,,,,2021-12-14,1,,,,,ルヴィサージュ,0
1997,7360001029764,新規,0,2021-12-14,2021-12-14,株式会社ＩＤＳ,,株式会社,沖縄県,糸満市,字糸満２２７８番地,,47,210,9010361,,,,,,,2021-12-14,1,,,,,アイディーエス,0
2009,7370003005515,新規,0,2021-12-14,2021-12-14,オフィスＮＳ合同会社,,合同会社,宮城県,黒川郡大衡村,大衡字尾西１２２番地１,,04,424,9813602,,,,,,,2021-12-14,1,,,,,オフィスエヌエス,0
2014,7380001032403,新規,0,2021-12-14,2021-12-14,株式会社輝粋,,株式会社,福島県,伊達郡桑折町,字北町１１３番地７,,07,301,9691601,,,,,,,2021-12-14,1,,,,,キスイ,0
2017,7390001016710,新規,0,2021-12-14,2021-12-14,株式会社タイムゾーンジャパン,,株式会社,山形県,西村山郡大江町,大字左沢３２１番地,,06,324,9901101,,,,,,,2021-12-14,1,,,,,タイムゾーンジャパン,0
2019,7400001015710,新規,0,2021-12-14,2021-12-14,株式会社サンモール,,株式会社,岩手県,盛岡市,西青山３丁目７番１０号,,03,201,0200132,,,,,,,2021-12-14,1,,,,,サンモール,0
2025,7430003013445,新規,0,2021-12-14,2021-12-14,カイルアビーチインベスターズ合同会社,,合同会社,北海道,札幌市東区,北二十二条東２０丁目４番１０号,,01,103,0650022,,,,,,,2021-12-14,1,,,,,カイルアビーチインベスターズ,0
2026,7430003013453,新規,0,2021-12-14,2021-12-14,合同会社Ｗｉｓｔｙ,,合同会社,北海道,札幌市中央区,北十一条西１５丁目１番３９号,,01,101,0600011,,,,,,,2021-12-14,1,,,,,ウィスティー,0
2034,7480001011578,新規,0,2021-12-14,2021-12-14,株式会社つばさ,,株式会社,徳島県,徳島市,佐古八番町５番１５号杉田ビル１０６号,,36,201,7700028,,,,,,,2021-12-14,1,,,,,ツバサ,0
2043,8010001223186,新規,0,2021-12-14,2021-12-14,ＫＤＤＩ　Ｓｏｎｉｃ－Ｆａｌｃｏｎ株式会社,,株式会社,東京都,千代田区,飯田橋３丁目１０番１０号,,13,101,1020072,,,,,,,2021-12-14,1,,,,,ケイディーディーアイソニックファルコン,0
2044,8010001223203,新規,0,2021-12-14,2021-12-14,株式会社ａｎｄ　ｔｉａｏ,,株式会社,東京都,中央区,銀座１丁目２２番１１号銀座大竹ビジデンス２階,,13,102,1040061,,,,,,,2021-12-14,1,,,,,アンドティアオ,0
2045,8010003036545,新規,0,2021-12-14,2021-12-14,合同会社ＭＵＲＦ若葉,,合同会社,東京都,中央区,日本橋２丁目７番１号,,13,102,1030027,,,,,,,2021-12-14,1,,,,,エムユーアールエフワカバ,0
2046,8010005034324,新規,0,2021-12-14,2021-12-14,一般社団法人ＭＵＲＦ,,その他の設立登記法人,東京都,中央区,日本橋２丁目７番１号,,13,102,1030027,,,,,,,2021-12-14,1,,,,,エムユーアールエフ,0
2057,8010403026699,新規,0,2021-12-14,2021-12-14,合同会社Ｋ２,,合同会社,東京都,港区,六本木６丁目１１番１８号,,13,103,1060032,,,,,,,2021-12-14,1,,,,,ケーツー,0
2058,8010403026716,新規,0,2021-12-14,2021-12-14,合同会社ＳＡＭＵＲＡＩ１７,,合同会社,東京都,港区,赤坂２丁目１０番５号税理士法人赤坂国際会計事務所内,,13,103,1070052,,,,,,,2021-12-14,1,,,,,サムライセブンティーン,0
2068,8010901049986,新規,0,2021-12-14,2021-12-14,株式会社アールジー,,株式会社,東京都,世田谷区,大原２丁目２７番３１－７０２号,,13,112,1560041,,,,,,,2021-12-14,1,,,,,アールジー,0
2075,8011001144471,新規,0,2021-12-14,2021-12-14,株式会社プレイメイド,,株式会社,東京都,渋谷区,神南１丁目５番１４号三船ビル１０２,,13,113,1500041,,,,,,,2021-12-14,1,,,,,プレイメイド,0
2077,8011003013856,新規,0,2021-12-14,2021-12-14,合同会社鹿華,,合同会社,東京都,渋谷区,代々木３丁目１５番１３号レジデンス代々木２０３,,13,113,1510053,,,,,,,2021-12-14,1,,,,,ロッカ,0
2078,8011003013864,新規,0,2021-12-14,2021-12-14,合同会社トラストバンク浜松,,合同会社,東京都,渋谷区,渋谷２丁目２４番１２号,,13,113,1500002,,,,,,,2021-12-14,1,,,,,トラストバンクハママツ,0
2079,8011005009357,新規,0,2021-12-14,2021-12-14,一般社団法人横瀬記念支援機構,,その他の設立登記法人,東京都,渋谷区,神宮前４丁目１７番９－２０２号,,13,113,1500001,,,,,,,2021-12-14,1,,,,,ヨコセキネンシエンキコウ,0
2084,8011103011272,新規,0,2021-12-14,2021-12-14,ＭＡＲＣＨ合同会社,,合同会社,東京都,新宿区,西新宿３丁目７番１号新宿パークタワー３０階,,13,104,1600023,,,,,,,2021-12-14,1,,,,,マーチ,0
2091,8011401023903,新規,0,2021-12-14,2021-12-14,矢野商事株式会社,,株式会社,東京都,板橋区,大山東町３２番１２号,,13,119,1730014,,,,,,,2021-12-14,1,,,,,ヤノショウジ,0
2096,8011801040052,新規,0,2021-12-14,2021-12-14,株式会社ネイソル,,株式会社,東京都,葛飾区,お花茶屋２丁目１８番２－１０１号,,13,122,1240003,,,,,,,2021-12-14,1,,,,,ネイソル,0
2099,8012301012806,新規,0,2021-12-14,2021-12-14,株式会社全力サポート,,株式会社,東京都,町田市,中町２丁目２１番１号鶴屋ビル３Ｆ－Ａ,,13,209,1940021,,,,,,,2021-12-14,1,,,,,ゼンリョクサポート,0
2106,8020001144340,新規,0,2021-12-14,2021-12-14,クリーンマインド株式会社,,株式会社,神奈川県,横浜市青葉区,美しが丘５丁目３４番地２－２０３,,14,117,2250002,,,,,,,2021-12-14,1,,,,,クリーンマインド,0
2112,8021001074759,新規,0,2021-12-14,2021-12-14,株式会社ＥｖｅｒＬａｓｔｉｎｇ,,株式会社,神奈川県,大和市,中央２丁目４番１１号レジデンス大和駅中央３０２号,,14,213,2420021,,,,,,,2021-12-14,1,,,,,エヴァーラスティング,0
2118,8021003011181,新規,0,2021-12-14,2021-12-14,テルジュメディア合同会社,,合同会社,神奈川県,横須賀市,山科台５番１２号,,14,201,2380312,,,,,,,2021-12-14,1,,,,,テルジュメディア,0
2127,8030001145783,新規,0,2021-12-14,2021-12-14,株式会社大扇,,株式会社,埼玉県,富士見市,山室２丁目８番６号,,11,235,3540022,,,,,,,2021-12-14,1,,,,,ダイセン,0
2128,8030001145866,新規,0,2021-12-14,2021-12-14,株式会社ＭＦＧテクノ,,株式会社,埼玉県,鴻巣市,屈巣２７２３番地７,,11,217,3650014,,,,,,,2021-12-14,1,,,,,エムエフジイテクノ,0
2141,8040001121379,新規,0,2021-12-14,2021-12-14,梛興業株式会社,,株式会社,千葉県,市川市,入船１０番７－２０１号（フォレスト・入船）,,12,203,2720134,,,,,,,2021-12-14,1,,,,,ナギコウギョウ,0
2144,8040003019076,新規,0,2021-12-14,2021-12-14,合同会社アヤーンコーポレーション,,合同会社,千葉県,野田市,谷津１２９３番地の１９,,12,208,2780046,,,,,,,2021-12-14,1,,,,,アヤーンコーポレーション,0
2145,8040003019101,新規,0,2021-12-14,2021-12-14,合同会社Ｄ２４,,合同会社,千葉県,柏市,松葉町１丁目１３番地１、１２棟３号,,12,217,2770827,,,,,,,2021-12-14,1,,,,,ディーニジュウヨン,0
2153,8050003006255,新規,0,2021-12-14,2021-12-14,合同会社ルミアソーシャルサービス,,合同会社,茨城県,牛久市,田宮町２２９－５,,08,219,3001236,,,,,,,2021-12-14,1,,,,,ルミアソーシャルサービス,0
2166,8080101022977,新規,0,2021-12-14,2021-12-14,株式会社アウル,,株式会社,静岡県,富士市,永田町１丁目８７番地,,22,210,4170055,,,,,,,2021-12-14,1,,,,,アウル,0
2170,8080401025523,新規,0,2021-12-14,2021-12-14,株式会社金子総建,,株式会社,静岡県,浜松市北区,三ヶ日町大谷５６１番地の１,,22,135,4311407,,,,,,,2021-12-14,1,,,,,カネコソウケン,0
2185,8120001242472,新規,0,2021-12-14,2021-12-14,株式会社ＳＨＩＯＪＩ　ＬＡＷ,,株式会社,大阪府,大阪市中央区,難波３丁目７番１２号ＧＰ・ＧＡＴＥビル７階,,27,128,5420076,,,,,,,2021-12-14,1,,,,,シオジロー,0
2197,8120901045347,新規,0,2021-12-14,2021-12-14,株式会社サコテックホールディングス,,株式会社,大阪府,吹田市,山手町４丁目１１番７号,,27,205,5640073,,,,,,,2021-12-14,1,,,,,サコテックホールディングス,0
2200,8122001035435,新規,0,2021-12-14,2021-12-14,ＲＩＳＩＮＧ株式会社,,株式会社,大阪府,東大阪市,玉串町東３丁目１番８号１階,,27,227,5780932,,,,,,,2021-12-14,1,,,,,ライジン,0
2201,8122003002235,新規,0,2021-12-14,2021-12-14,合同会社颯,,合同会社,大阪府,柏原市,古町１丁目１番３３号,,27,221,5820008,,,,,,,2021-12-14,1,,,,,ハヤテ,0
2203,8130001070708,新規,0,2021-12-14,2021-12-14,株式会社雄智創業,,株式会社,京都府,京都市下京区,油小路通五条下る中金仏町２１６番地リーガル京都五条堀川６０１,,26,106,6008332,,,,,,,2021-12-14,1,,,,,ユウチソウギョウ,0
2204,8130001070716,新規,0,2021-12-14,2021-12-14,株式会社かくや,,株式会社,京都府,京都市左京区,一乗寺樋ノ口町３５番地２,,26,103,6068167,,,,,,,2021-12-14,1,,,,,カクヤ,0
2210,8140003017103,新規,0,2021-12-14,2021-12-14,Ｍ＆Ｃ合同会社,,合同会社,兵庫県,姫路市,土山５丁目１番８号,,28,201,6700996,,,,,,,2021-12-14,1,,,,,エムアンドシー,0
2211,8140005025946,新規,0,2021-12-14,2021-12-14,医療法人社団下山眼科,,その他の設立登記法人,兵庫県,明石市,硯町２丁目５番６６号,,28,203,6730028,,,,,,,2021-12-14,1,,,,,シモヤマガンカ,0
2213,8150001025172,新規,0,2021-12-14,2021-12-14,大和プロパティマネジメント株式会社,,株式会社,奈良県,北葛城郡河合町,泉台２丁目１５番２４号,,29,427,6360091,,,,,,,2021-12-14,1,,,,,ヤマトプロパティマネジメント,0
2215,8160001023869,新規,0,2021-12-14,2021-12-14,株式会社ミクスト,,株式会社,滋賀県,草津市,追分８丁目１５番１１号,,25,206,5250047,,,,,,,2021-12-14,1,,,,,ミクスト,0
2216,8160001023877,新規,0,2021-12-14,2021-12-14,梅工房株式会社,,株式会社,滋賀県,近江八幡市,安養寺町１５番地６,,25,204,5230045,,,,,,,2021-12-14,1,,,,,ウメコウボウ,0
2217,8170001016905,新規,0,2021-12-14,2021-12-14,株式会社森エステート,,株式会社,和歌山県,和歌山市,鳴神７６－１０,,30,201,6408303,,,,,,,2021-12-14,1,,,,,モリエステート,0
2222,8180001149076,新規,0,2021-12-14,2021-12-14,株式会社ひまわり,,株式会社,愛知県,知多郡美浜町,大字布土字和田１８０,,23,446,4702401,,,,,,,2021-12-14,1,,,,,ヒマワリ,0
2226,8180005019523,新規,0,2021-12-14,2021-12-14,一般社団法人ミツケダス,,その他の設立登記法人,愛知県,名古屋市中村区,太閤３丁目７番７６号,,23,105,4530801,,,,,,,2021-12-14,1,,,,,ミツケダス,0
2227,8180005019556,新規,0,2021-12-14,2021-12-14,医療法人わしの歯科クリニック,,その他の設立登記法人,愛知県,名古屋市昭和区,川名山町１丁目８８番地マルベリーヒル川名山１階,,23,107,4660827,,,,,,,2021-12-14,1,,,,,ワシノシカクリニック,0
2232,8180301035728,新規,0,2021-12-14,2021-12-14,株式会社ＴＨカンパニー,,株式会社,愛知県,知立市,宝３丁目５番地１,,23,225,4720056,,,,,,,2021-12-14,1,,,,,ティーエイチカンパニー,0
2235,8190001028931,新規,0,2021-12-14,2021-12-14,株式会社西井電気設備,,株式会社,三重県,松阪市,郷津町２６４番地１４,,24,204,5150002,,,,,,,2021-12-14,1,,,,,ニシイデンキセツビ,0
2238,8200001039522,新規,0,2021-12-14,2021-12-14,株式会社ＭＩＺＵＮＯ,,株式会社,岐阜県,不破郡垂井町,栗原７５７番地,,21,361,5032123,,,,,,,2021-12-14,1,,,,,ミズノ,0
2245,8240001059046,新規,0,2021-12-14,2021-12-14,株式会社Ｂ‐ＳＭＩＬＥ,,株式会社,広島県,広島市安佐南区,山本新町５丁目３０番１０号,,34,105,7310139,,,,,,,2021-12-14,1,,,,,ビースマイル,0
2246,8240001059062,新規,0,2021-12-14,2021-12-14,株式会社ＡＧＳ　ＪＡＰＡＮ,,株式会社,広島県,廿日市市,阿品台北６番３４号,,34,213,7380051,,,,,,,2021-12-14,1,,,,,エージーエスジャパン,0
2251,8260001036316,新規,0,2021-12-14,2021-12-14,岡山ライフ株式会社,,株式会社,岡山県,岡山市中区,平井１１１１番地４,,33,102,7038282,,,,,,,2021-12-14,1,,,,,オカヤマライフ,0
2254,8290001095730,新規,0,2021-12-14,2021-12-14,株式会社ＳＡＲＡＩ,,株式会社,福岡県,福岡市中央区,舞鶴３丁目６番１－１００５号,,40,133,8100073,,,,,,,2021-12-14,1,,,,,サライ,0
2255,8290003011933,新規,0,2021-12-14,2021-12-14,井田・菅原宅建合同会社,,合同会社,福岡県,宗像市,自由ヶ丘１丁目８－８,,40,220,8114163,,,,,,,2021-12-14,1,,,,,イダスガワラタッケン,0
2256,8290005018472,新規,0,2021-12-14,2021-12-14,医療法人カルミア,,その他の設立登記法人,福岡県,福岡市城南区,別府３丁目７番３号,,40,136,8140104,,,,,,,2021-12-14,1,,,,,カルミア,0
2264,8330001029270,新規,0,2021-12-14,2021-12-14,株式会社ＫＥＯＮ,,株式会社,熊本県,菊池郡菊陽町,大字久保田２０７０番地,,43,404,8691103,,,,,,,2021-12-14,1,,,,,ケイオン,0
2269,8350001017463,新規,0,2021-12-14,2021-12-14,日々とデザイン株式会社,,株式会社,宮崎県,延岡市,島浦町７３６番地５,,45,203,8820096,,,,,,,2021-12-14,1,,,,,ヒビトデザイン,0
2283,8370001047938,新規,0,2021-12-14,2021-12-14,株式会社イマカミコーポレーション,,株式会社,宮城県,仙台市泉区,加茂１丁目３０番地の１２,,04,105,9813122,,,,,,,2021-12-14,1,,,,,イマカミコーポレーション,0
2284,8370001047946,新規,0,2021-12-14,2021-12-14,株式会社ＮＳＰ,,株式会社,宮城県,仙台市若林区,卸町東４丁目３番１５号,,04,103,9840002,,,,,,,2021-12-14,1,,,,,エヌエスピー,0
2297,8460301005025,新規,0,2021-12-14,2021-12-14,株式会社メイ・シン,,株式会社,北海道,北見市,緑ケ丘５丁目６番１５号,,01,208,0900067,,,,,,,2021-12-14,1,,,,,メイシン,0
2298,8462501000920,新規,0,2021-12-14,2021-12-14,株式会社ＵＩＦ,,株式会社,北海道,野付郡別海町,西春別４１０番地の１２,,01,691,0882576,,,,,,,2021-12-14,1,,,,,ユーアイエフ,0
2299,8470001018870,新規,0,2021-12-14,2021-12-14,ＴＹＳＭ株式会社,,株式会社,香川県,高松市,西の丸町７－１３,,37,201,7600021,,,,,,,2021-12-14,1,,,,,ティーワイエスエム,0
2301,8480001011577,新規,0,2021-12-14,2021-12-14,株式会社レッカーサービス矢武,,株式会社,徳島県,名西郡石井町,石井字重松７２１番地２,,36,341,7793231,,,,,,,2021-12-14,1,,,,,レッカーサービスヤタケ,0
2303,8500001023867,新規,0,2021-12-14,2021-12-14,株式会社ワンス,,株式会社,愛媛県,四国中央市,金生町山田井８１９番地,,38,213,7990112,,,,,,,2021-12-14,1,,,,,ワンス,0
2319,9010001223128,新規,0,2021-12-14,2021-12-14,株式会社むにゅえる,,株式会社,東京都,中央区,銀座１丁目１２番４号Ｎ＆Ｅ・ＢＬＤ．７階,,13,102,1040061,,,,,,,2021-12-14,1,,,,,ムニュエル,0
2320,9010001223144,新規,0,2021-12-14,2021-12-14,Ｆｉｌｏ株式会社,,株式会社,東京都,千代田区,五番町１２番地６五番町マンション３０１号,,13,101,1020076,,,,,,,2021-12-14,1,,,,,フィロー,0
2321,9010001223210,新規,0,2021-12-14,2021-12-14,株式会社とき,,株式会社,東京都,千代田区,東神田１丁目１１番７号ハイツ神田岩本町３０４,,13,101,1010031,,,,,,,2021-12-14,1,,,,,トキ,0
2322,9010003036544,新規,0,2021-12-14,2021-12-14,合同会社ＭＵＲＦ参宮橋,,合同会社,東京都,中央区,日本橋２丁目７番１号,,13,102,1030027,,,,,,,2021-12-14,1,,,,,エムユーアールエフサングウバシ,0
2323,9010105002139,新規,0,2021-12-14,2021-12-14,行政書士法人オフィス・プレアデス,,その他の設立登記法人,東京都,八王子市,旭町６番６号,,13,201,1920083,,,,,,,2021-12-14,1,,,,,オフィスプレアデス,0
2335,9010401164401,新規,0,2021-12-14,2021-12-14,株式会社ＬＯＣＡＬＯＯ,,株式会社,東京都,港区,白金１丁目１２番１７－５０４号,,13,103,1080072,,,,,,,2021-12-14,1,,,,,ローカルー,0
2336,9010401164426,新規,0,2021-12-14,2021-12-14,株式会社Ｌｏｖｅ　Ｄｏｔ,,株式会社,東京都,港区,南青山２丁目２番１５号,,13,103,1070062,,,,,,,2021-12-14,1,,,,,ラブドット,0
2338,9010405020501,新規,0,2021-12-14,2021-12-14,一般社団法人日本華僑不動産協会,,その他の設立登記法人,東京都,港区,赤坂３丁目２－８,,13,103,1070052,,,,,,,2021-12-14,1,,,,,ニホンカキョウフドウサンキョウイカイ,0
2340,9010601060383,新規,0,2021-12-14,2021-12-14,株式会社ウエサカ,,株式会社,東京都,墨田区,本所４丁目２８番８号,,13,107,1300004,,,,,,,2021-12-14,1,,,,,ウエサカ,0
2342,9010703006037,新規,0,2021-12-14,2021-12-14,ＭＭＨ合同会社,,合同会社,東京都,品川区,大崎３丁目５番３号,,13,109,1410032,,,,,,,2021-12-14,1,,,,,エムエムエイチ,0
2348,9010903007009,新規,0,2021-12-14,2021-12-14,合同会社ゼニス,,合同会社,東京都,世田谷区,八幡山３丁目１１－７,,13,112,1560056,,,,,,,2021-12-14,1,,,,,ゼニス,0
2361,9011001144512,新規,0,2021-12-14,2021-12-14,株式会社もつぞう,,株式会社,東京都,目黒区,上目黒２丁目４４－７－３０２,,13,110,1530051,,,,,,,2021-12-14,1,,,,,モツゾウ,0
2362,9011001144537,新規,0,2021-12-14,2021-12-14,Ｔｏｈｏ　Ｇａｒｄｅｎ株式会社,,株式会社,東京都,渋谷区,神宮前２丁目１６番２０号,,13,113,1500001,,,,,,,2021-12-14,1,,,,,トウホウガーデン,0
2366,9011003013863,新規,0,2021-12-14,2021-12-14,合同会社トラストバンク菊川,,合同会社,東京都,渋谷区,渋谷２丁目２４番１２号,,13,113,1500002,,,,,,,2021-12-14,1,,,,,トラストバンクキクガワ,0
2382,9011801040068,新規,0,2021-12-14,2021-12-14,株式会社共栄,,株式会社,東京都,葛飾区,青戸４丁目１６－２２,,13,122,1250062,,,,,,,2021-12-14,1,,,,,キョウエイ,0
2385,9012301012805,新規,0,2021-12-14,2021-12-14,Ｖ　ＴＥＣジャパン株式会社,,株式会社,東京都,町田市,上小山田町２０２１番地１,,13,209,1940201,,,,,,,2021-12-14,1,,,,,ブイテックジャパン,0
2386,9012305001977,新規,0,2021-12-14,2021-12-14,一般社団法人学術・教育総合支援機構,,その他の設立登記法人,東京都,町田市,中町３丁目１０番地６号,,13,209,1940021,,,,,,,2021-12-14,1,,,,,ガクジュツキョウイクソウゴウシエンキコウ,0
2387,9012703002362,新規,0,2021-12-14,2021-12-14,合同会社Ｑｕａｎｔｉｆｙ,,合同会社,東京都,東久留米市,浅間町３丁目２０番１５号,,13,222,2030012,,,,,,,2021-12-14,1,,,,,クオンティファイ,0
2388,9012703002370,新規,0,2021-12-14,2021-12-14,ｔｈｅ　ｇｒｉｄ．合同会社,,合同会社,東京都,東久留米市,浅間町２丁目１５－１８,,13,222,2030012,,,,,,,2021-12-14,1,,,,,ザグリッド,0
2393,9012801021272,新規,0,2021-12-14,2021-12-14,株式会社ＬＹＣＡ　ＭＯＴＯＲＳ　ＪＡＰＡＮ,,株式会社,東京都,武蔵村山市,伊奈平５丁目８３番地の２,,13,223,2080023,,,,,,,2021-12-14,1,,,,,ライカモーターズジャパン,0
2401,9020001144331,新規,0,2021-12-14,2021-12-14,宝明株式会社,,株式会社,神奈川県,横浜市中区,本牧町２丁目３０４番地,,14,104,2310806,,,,,,,2021-12-14,1,,,,,ホウメイ,0
2402,9020001144356,新規,0,2021-12-14,2021-12-14,融峰株式会社,,株式会社,神奈川県,川崎市多摩区,堰２丁目１２番３８－２号,,14,135,2140022,,,,,,,2021-12-14,1,,,,,ユウホウ,0
2407,9020005015306,新規,0,2021-12-14,2021-12-14,一般社団法人こども食堂レインボー,,その他の設立登記法人,神奈川県,横浜市港南区,日野中央３丁目１番１３－１０４号,,14,111,2340053,,,,,,,2021-12-14,1,,,,,,0
2423,9030001145799,新規,0,2021-12-14,2021-12-14,株式会社中山ウェブスクール,,株式会社,埼玉県,さいたま市南区,沼影１丁目３３番２３号シャトー沼影１Ｆ,,11,108,3360027,,,,,,,2021-12-14,1,,,,,ナカヤマウェブスクール,0
2424,9030001145865,新規,0,2021-12-14,2021-12-14,株式会社関根建設,,株式会社,埼玉県,春日部市,赤沼１６８１,,11,214,3440015,,,,,,,2021-12-14,1,,,,,セキネケンセツ,0
2430,9030003018499,新規,0,2021-12-14,2021-12-14,大宮コンサルティング合同会社,,合同会社,埼玉県,さいたま市大宮区,堀の内町１丁目５３－４,,11,103,3300804,,,,,,,2021-12-14,1,,,,,オオミヤコンサルティング,0
2436,9040001121329,新規,0,2021-12-14,2021-12-14,株式会社Ｒｅｌａｔｉｏｎｓｈｉｐｓ,,株式会社,千葉県,浦安市,明海６丁目１番１０号３８－４号室,,12,227,2790014,,,,,,,2021-12-14,1,,,,,リレーションシップス,0
2439,9040003019083,新規,0,2021-12-14,2021-12-14,樽石デジタル技術研究所合同会社,,合同会社,千葉県,白井市,けやき台１丁目２番１棟７０５号,,12,232,2701433,,,,,,,2021-12-14,1,,,,,タルイシデジタルギジュツケンキュウジョ,0
2440,9050001050295,新規,0,2021-12-14,2021-12-14,株式会社セレスト,,株式会社,茨城県,水戸市,けやき台３丁目３６ＨＩビル１Ｆ,,08,201,3100842,,,,,,,2021-12-14,1,,,,,セレスト,0
2442,9050003006246,新規,0,2021-12-14,2021-12-14,合同会社ＢＡＮＤＯ,,合同会社,茨城県,坂東市,寺久１４９番地,,08,228,3060656,,,,,,,2021-12-14,1,,,,,バンドウ,0
2446,9070003004330,新規,0,2021-12-14,2021-12-14,合同会社トリアージョ,,合同会社,群馬県,高崎市,棟高町７３０番地７３,,10,202,3703521,,,,,,,2021-12-14,1,,,,,トリアージョ,0
2452,9080103002480,新規,0,2021-12-14,2021-12-14,合同会社Ｂ・Ｓ　ＣＯＲＰＯＲＡＴＩＯＮ,,合同会社,静岡県,富士市,蓼原１６９４番地,,22,210,4160931,,,,,,,2021-12-14,1,,,,,ビーエスコーポレーション,0
2454,9080401025522,新規,0,2021-12-14,2021-12-14,株式会社ｖｅｒｔ,,株式会社,静岡県,浜松市西区,白洲町２９７４番地,,22,133,4311204,,,,,,,2021-12-14,1,,,,,ヴェール,0
2460,9100001034895,新規,0,2021-12-14,2021-12-14,株式会社エスネットサービス,,株式会社,長野県,下高井郡木島平村,大字上木島１４５２番地,,20,562,3892303,,,,,,,2021-12-14,1,,,,,エスネットサービス,0
2462,9100003006315,新規,0,2021-12-14,2021-12-14,信州八雲園合同会社,,合同会社,長野県,長野市,豊野町豊野１９０８番地,,20,201,3891105,,,,,,,2021-12-14,1,,,,,シンシュウヤグモエン,0
2464,9110001036263,新規,0,2021-12-14,2021-12-14,越州機工株式会社,,株式会社,新潟県,上越市,春日野２丁目３番２号,,15,222,9430803,,,,,,,2021-12-14,1,,,,,エッシュウキコウ,0
2474,9120001242430,新規,0,2021-12-14,2021-12-14,株式会社ヨシミオートサービス,,株式会社,大阪府,守口市,八雲東町１丁目４番４号,,27,209,5700021,,,,,,,2021-12-14,1,,,,,ヨシミオートサービス,0
2475,9120001242488,新規,0,2021-12-14,2021-12-14,スギタクレスト株式会社,,株式会社,大阪府,大阪市城東区,今福東１丁目４番１９号,,27,118,5360002,,,,,,,2021-12-14,1,,,,,スギタクレスト,0
2476,9120001242496,新規,0,2021-12-14,2021-12-14,株式会社クレス,,株式会社,大阪府,大阪市北区,南森町２丁目４番５号,,27,127,5300054,,,,,,,2021-12-14,1,,,,,クレス,0
2477,9120001242505,新規,0,2021-12-14,2021-12-14,株式会社Ｋ＆Ｋ,,株式会社,大阪府,大阪市中央区,南久宝寺町１丁目７番１０号シャンクレール１００２,,27,128,5410058,,,,,,,2021-12-14,1,,,,,ケーアンドケー,0
2484,9120003020768,新規,0,2021-12-14,2021-12-14,合同会社マウンテン,,合同会社,大阪府,大阪市住之江区,安立４丁目１６番２３号,,27,125,5590003,,,,,,,2021-12-14,1,,,,,マウンテン,0
2487,9120005022655,新規,0,2021-12-14,2021-12-14,一般財団法人Ｓｋｙ大浦ＩＣＴ奨学財団,,その他の設立登記法人,大阪府,大阪市淀川区,宮原３丁目４番３０号ニッセイ新大阪ビル２０階,,27,123,5320003,,,,,,,2021-12-14,1,,,,,スカイオオウラアイシーティーショウガクザイダン,0
2491,9120101064782,新規,0,2021-12-14,2021-12-14,インフィニティ株式会社,,株式会社,大阪府,松原市,高見の里３丁目１１番１２－２０５号,,27,217,5800021,,,,,,,2021-12-14,1,,,,,インフィニティ,0
2493,9120901045354,新規,0,2021-12-14,2021-12-14,株式会社しょく,,株式会社,大阪府,箕面市,箕面６丁目４番４３号,,27,220,5620001,,,,,,,2021-12-14,1,,,,,ショク,0
2496,9120903003938,新規,0,2021-12-14,2021-12-14,合同会社ＫＭＹ,,合同会社,大阪府,高槻市,氷室町１丁目２２－１,,27,207,5691141,,,,,,,2021-12-14,1,,,,,ケーエムワイ,0
2498,9122001035434,新規,0,2021-12-14,2021-12-14,株式会社未来のかたち,,株式会社,大阪府,東大阪市,小阪１丁目１２番１２号小阪プラザ２Ｆ,,27,227,5770801,,,,,,,2021-12-14,1,,,,,ミライノカタチ,0
2501,9130001070723,新規,0,2021-12-14,2021-12-14,株式会社Ｃ－Ｌｉｆｅ,,株式会社,京都府,京都市左京区,修学院泉殿町１３番地４,,26,103,6068042,,,,,,,2021-12-14,1,,,,,シーライフ,0
2507,9140001124172,新規,0,2021-12-14,2021-12-14,株式会社永八,,株式会社,兵庫県,西宮市,北口町１番１号アクタ西宮西館１０９号,,28,204,6638035,,,,,,,2021-12-14,1,,,,,エイハチ,0
2508,9140001124189,新規,0,2021-12-14,2021-12-14,森下設備株式会社,,株式会社,兵庫県,宍粟市,山崎町加生４００番地１,,28,227,6712570,,,,,,,2021-12-14,1,,,,,モリシタセツビ,0
2510,9140003017085,新規,0,2021-12-14,2021-12-14,レアメタルリサイクル環境合同会社,,合同会社,兵庫県,相生市,大谷町３８５８番地１,,28,208,6780043,,,,,,,2021-12-14,1,,,,,レアメタルリサイクルカンキョウ,0
2511,9140003017093,新規,0,2021-12-14,2021-12-14,ケイケイジェイ・プランニング合同会社,,合同会社,兵庫県,姫路市,夢前町菅生澗４４３番地１,,28,201,6712134,,,,,,,2021-12-14,1,,,,,ケイケイジェイプランニング,0
2515,9150001025171,新規,0,2021-12-14,2021-12-14,ＧＯＤＨＡＮＤ株式会社,,株式会社,奈良県,橿原市,木原町２１５－３,,29,205,6340004,,,,,,,2021-12-14,1,,,,,ゴッドハンド,0
2524,9180005019547,新規,0,2021-12-14,2021-12-14,特定非営利活動法人ミントの会,,その他の設立登記法人,愛知県,名古屋市緑区,鳴海町字中汐田２２２番地１,,23,114,4580801,,,,,,,2021-12-14,1,,,,,ミントノカイ,0
2527,9190001028930,新規,0,2021-12-14,2021-12-14,株式会社小浜電気,,株式会社,三重県,松阪市,荒木町１７４番地１２,,24,204,5150007,,,,,,,2021-12-14,1,,,,,コハマデンキ,0
2532,9220001024595,新規,0,2021-12-14,2021-12-14,株式会社４ＬＩＦＥ,,株式会社,石川県,金沢市,大友３丁目２１番地,,17,201,9208205,,,,,,,2021-12-14,1,,,,,フォーライフ,0
2534,9240001059045,新規,0,2021-12-14,2021-12-14,株式会社マルガミ,,株式会社,広島県,広島市南区,段原１丁目３番１３号,,34,103,7320811,,,,,,,2021-12-14,1,,,,,マルガミ,0
2535,9240001059053,新規,0,2021-12-14,2021-12-14,株式会社モナクリエイト,,株式会社,広島県,広島市中区,舟入町５番９号,,34,101,7300841,,,,,,,2021-12-14,1,,,,,モナクリエイト,0
2537,9240003005402,新規,0,2021-12-14,2021-12-14,知３６９合同会社,,合同会社,広島県,広島市東区,山根町２７番１－７０７号,,34,102,7320048,,,,,,,2021-12-14,1,,,,,トモミロク,0
2541,9260001036315,新規,0,2021-12-14,2021-12-14,ｊｄｉ株式会社,,株式会社,岡山県,岡山市北区,柳町２丁目９－２５アルファスマート西川緑道公園１００１,,33,101,7000904,,,,,,,2021-12-14,1,,,,,ジェーディーアイ,0
2544,9290001095696,新規,0,2021-12-14,2021-12-14,Ｆ＆Ｋ株式会社,,株式会社,福岡県,福岡市中央区,春吉１丁目１６番８号ＶＥＧＡ天神南２０２号,,40,133,8100003,,,,,,,2021-12-14,1,,,,,エフアンドケー,0
2545,9290001095713,新規,0,2021-12-14,2021-12-14,株式会社Ａ．Ｗ．Ｓ,,株式会社,福岡県,福岡市中央区,赤坂１丁目９番９号,,40,133,8100042,,,,,,,2021-12-14,1,,,,,エーダブリューエス,0
2546,9290001095721,新規,0,2021-12-14,2021-12-14,株式会社ａｎｄｅｎｔｒａｃｔｅ,,株式会社,福岡県,福岡市東区,原田３丁目５番４１号,,40,131,8120063,,,,,,,2021-12-14,1,,,,,アンドアントラクト,0
2550,9290003011932,新規,0,2021-12-14,2021-12-14,合同会社ＢＩＬＬＩＯＮ,,合同会社,福岡県,福岡市博多区,博多駅前３丁目７番３５号博多ハイテックビル５０５号,,40,132,8120011,,,,,,,2021-12-14,1,,,,,ビリオン,0
2551,9290003011940,新規,0,2021-12-14,2021-12-14,合同会社ビッグマム,,合同会社,福岡県,福岡市博多区,東那珂２丁目３番３５－２号,,40,132,8120892,,,,,,,2021-12-14,1,,,,,ビッグマム,0
2552,9290005018463,新規,0,2021-12-14,2021-12-14,一般社団法人学校経営アドヴァンス,,その他の設立登記法人,福岡県,那珂川市,五郎丸２丁目１３番地１,,40,231,8111252,,,,,,,2021-12-14,1,,,,,ガッコウケイエイアドヴァンス,0
2553,9290801028079,新規,0,2021-12-14,2021-12-14,ラーン株式会社,,株式会社,福岡県,北九州市小倉南区,湯川新町１丁目１８番２９号,,40,107,8000256,,,,,,,2021-12-14,1,,,,,ラーン,0
2560,9320001018785,新規,0,2021-12-14,2021-12-14,株式会社アート,,株式会社,大分県,臼杵市,大字末広５３番地の１０,,44,206,8750022,,,,,,,2021-12-14,1,,,,,アート,0
2567,9340003003651,新規,0,2021-12-14,2021-12-14,ＤＮ工業合同会社,,合同会社,鹿児島県,鹿児島市,春山町２４５番地６,,46,201,8992704,,,,,,,2021-12-14,1,,,,,ディーエヌコウギョウ,0
2572,9360001029746,新規,0,2021-12-14,2021-12-14,株式会社ｗａｋｗａｋ,,株式会社,沖縄県,宮古島市,平良字西里８４８番地６第２嘉数マンション７０１,,47,214,9060012,,,,,,,2021-12-14,1,,,,,ワクワク,0
2579,9370001047945,新規,0,2021-12-14,2021-12-14,株式会社アークデザイン,,株式会社,宮城県,仙台市青葉区,赤坂２丁目１１番地の１６,,04,101,9893211,,,,,,,2021-12-14,1,,,,,アークデザイン,0
2585,9390001016709,新規,0,2021-12-14,2021-12-14,日本第二楽器製造株式会社,,株式会社,山形県,上山市,南町６番２４号,,06,207,9993135,,,,,,,2021-12-14,1,,,,,ニッポンダイニガッキセイゾウ,0
2591,9430001085534,新規,0,2021-12-14,2021-12-14,株式会社ルスツインベストメント,,株式会社,北海道,虻田郡喜茂別町,字相川８４番地１８,,01,398,0440215,,,,,,,2021-12-14,1,,,,,ルスツインベストメント,0
2592,9430001085583,新規,0,2021-12-14,2021-12-14,株式会社ＳＩエンジニアリング,,株式会社,北海道,札幌市南区,澄川四条４丁目１番２５－２０６号,,01,106,0050004,,,,,,,2021-12-14,1,,,,,エスアイエンジニアリング,0
2597,9430003013451,新規,0,2021-12-14,2021-12-14,合同会社ＬｉＢ,,合同会社,北海道,苫小牧市,川沿町５丁目６番３０号,,01,213,0530822,,,,,,,2021-12-14,1,,,,,リブ,0
2598,9460103001411,新規,0,2021-12-14,2021-12-14,合同会社アテナ統合獣医ケア,,合同会社,北海道,帯広市,清流東２丁目４番地３,,01,207,0800871,,,,,,,2021-12-14,1,,,,,アテナトウゴウジュウイケア,0
2599,9480001011576,新規,0,2021-12-14,2021-12-14,株式会社ＷＩＮＧ,,株式会社,徳島県,徳島市,応神町古川字戎子野６７番地６ピース・レジーナ３０２,,36,201,7711151,,,,,,,2021-12-14,1,,,,,ウイング,0
2600,9500001023866,新規,0,2021-12-14,2021-12-14,株式会社辰工務店,,株式会社,愛媛県,八幡浜市,五反田１番耕地５００番地１,,38,204,7968010,,,,,,,2021-12-14,1,,,,,タツコウムテン,0
