sequenceNumber,corporateNumber,process,correct,updateDate,changeDate,name,nameImageId,kind,prefectureName,cityName,streetNumber,addressImageId,prefectureCode,cityCode,postCode,addressOutside,addressOutsideImageId,closeDate,closeCause,successorCorporateNumber,changeCause,assignmentDate,latest,enName,enPrefectureName,enCityName,enAddressOutside,furigana,hihyoji
16,1010402002757,登記記録の閉鎖等,0,2022-08-23,2022-07-27,有限会社オオヒロ,,有限会社,東京都,港区,六本木７丁目３番２号ラポール乃木坂２０４号,,13,103,1060032,,,2022-07-27,清算の結了等,,,2015-10-05,1,,,,,オオヒロ,0
19,1010602021350,登記記録の閉鎖等,0,2022-08-23,2022-08-17,有限会社アスカクリエーション,,有限会社,東京都,墨田区,緑１丁目２１番８号,,13,107,1300021,,,2022-08-17,清算の結了等,,,2015-10-05,1,,,,,アスカクリエーション,0
20,1010701035920,登記記録の閉鎖等,0,2022-08-23,2022-08-16,株式会社ＴＯＫＹＯ　ＡＵＣＴＩＯＮ,,株式会社,神奈川県,横浜市中区,曙町２丁目１９－１曙町新井ビル８Ｆ,,14,104,2310057,,,2022-08-16,清算の結了等,,,2018-06-12,1,,,,,トウキョウオークション,0
24,1011001007239,登記記録の閉鎖等,0,2022-08-23,2022-08-03,株式会社ケーエス管理,,株式会社,東京都,渋谷区,渋谷２丁目１９番１９号,,13,113,1500002,,,2022-08-03,清算の結了等,,,2015-10-05,1,,,,,ケーエスカンリ,0
60,1012402000476,登記記録の閉鎖等,0,2022-08-23,2022-08-17,有限会社遠藤建築研究所,,有限会社,東京都,府中市,栄町２丁目１５番地３５,,13,206,1830051,,,2022-08-17,清算の結了等,,,2015-10-05,1,,,,,エンドウケンチクケンキュウジョ,0
68,1020001088197,登記記録の閉鎖等,0,2022-08-23,2022-08-12,パルム株式会社,,株式会社,神奈川県,横浜市金沢区,能見台東５番Ｇ－１４０４号,,14,108,2360058,,,2022-08-12,清算の結了等,,,2015-10-05,1,,,,,パルム,0
82,1030001086695,登記記録の閉鎖等,0,2022-08-23,2022-08-12,株式会社アイ・ケー技研,,株式会社,埼玉県,行田市,藤原町２丁目２２番地１,,11,206,3610016,,,2022-08-12,清算の結了等,,,2015-10-05,1,,,,,,0
89,1030002075417,登記記録の閉鎖等,0,2022-08-23,2022-07-29,有限会社山形屋商店,,有限会社,埼玉県,川越市,大字砂新田１５７番地,,11,201,3501137,,,2022-07-29,清算の結了等,,,2015-10-05,1,,,,,,0
91,1040002061903,登記記録の閉鎖等,0,2022-08-23,2022-07-20,有限会社インターフェイス,,有限会社,千葉県,四街道市,みそら１丁目８番２号,,12,228,2840023,,,2022-07-20,清算の結了等,,,2015-10-05,1,,,,,インターフェイス,0
99,1050002041474,登記記録の閉鎖等,0,2022-08-23,2022-08-19,有限会社ワイ・ティー,,有限会社,茨城県,常総市,左平太新田７０４番地,,08,211,3002735,,,2022-08-19,清算の結了等,,,2015-10-05,1,,,,,ワイティー,0
116,1120001218446,登記記録の閉鎖等,0,2022-08-23,2022-08-12,株式会社タスクル,,株式会社,大阪府,大阪市東淀川区,東淡路１丁目５－５１,,27,114,5330023,,,2022-08-12,清算の結了等,,,2019-01-21,1,,,,,タスクル,0
141,1180305003373,登記記録の閉鎖等,0,2022-08-23,2022-08-17,特定非営利活動法人来夢,,その他の設立登記法人,愛知県,豊橋市,柱二番町８６番地,,23,201,4418053,,,2022-08-17,清算の結了等,,,2015-10-05,1,,,,,ライム,0
179,1360001022584,登記記録の閉鎖等,0,2022-08-23,2022-08-10,株式会社沖縄ＡＩ,,株式会社,沖縄県,浦添市,勢理客４丁目１６番９号,,47,208,9012122,,,2022-08-10,清算の結了等,,,2017-07-07,1,,,,,オキナワエーアイ,0
186,1370003005289,登記記録の閉鎖等,0,2022-08-23,2022-08-15,ｉｉｅｓｔ合同会社,,合同会社,宮城県,仙台市太白区,長町南４丁目２番５６－８０８号,,04,104,9820012,,,2022-08-15,清算の結了等,,,2021-06-23,1,,,,,イイエスト,0
191,1430002014747,登記記録の閉鎖等,0,2022-08-23,2022-08-18,有限会社成田デザイン事務所,,有限会社,北海道,札幌市中央区,南二十四条西１４丁目１番１号,,01,101,0640924,,,2022-08-18,清算の結了等,,,2015-10-05,1,,,,,,0
202,2010001132946,登記記録の閉鎖等,0,2022-08-23,2022-08-04,株式会社Ｂ．Ａ．Ｒ,,株式会社,東京都,中央区,銀座１丁目３－３ＧＩビル７Ｆ,,13,102,1040061,,,2022-08-04,清算の結了等,,,2015-10-05,1,,,,,ビーエーアール,0
207,2010001174518,登記記録の閉鎖等,0,2022-08-23,2022-08-08,Ｖ＆Ｎ　ＴＥＣＨ株式会社,,株式会社,東京都,千代田区,神田神保町３丁目１１番１号,,13,101,1010051,,,2022-08-08,清算の結了等,,,2016-03-30,1,,,,,バンテック,0
213,2010002005399,登記記録の閉鎖等,0,2022-08-23,2022-08-10,有限会社フルヤ商事,,有限会社,東京都,文京区,本郷１丁目１２番１０号,,13,105,1130033,,,2022-08-10,清算の結了等,,,2015-10-05,1,,,,,フルヤショウジ,0
241,2011002021997,登記記録の閉鎖等,0,2022-08-23,2022-08-03,有限会社慶久,,有限会社,東京都,渋谷区,本町１丁目２番１号,,13,113,1510071,,,2022-08-03,清算の結了等,,,2015-10-05,1,,,,,ヨシヒサ,0
255,2012702005050,登記記録の閉鎖等,0,2022-08-23,2022-08-22,有限会社山田興業,,有限会社,東京都,西東京市,保谷町６丁目２１番１４号,,13,229,2020015,,,2022-08-22,清算の結了等,,,2015-10-05,1,,,,,ヤマダコウギョウ,0
260,2020001097503,登記記録の閉鎖等,0,2022-08-23,2022-08-15,スペース・エイド株式会社,,株式会社,神奈川県,横浜市中区,野毛町４丁目１７３－２,,14,104,2310064,,,2022-08-15,清算の結了等,,,2015-10-05,1,,,,,スペースエイド,0
278,2030002119783,登記記録の閉鎖等,0,2022-08-23,2022-08-10,有限会社古谷工務店,,有限会社,埼玉県,飯能市,大字中山３２３番地の４,,11,209,3570006,,,2022-08-10,清算の結了等,,,2015-10-05,1,,,,,フルヤコウムテン,0
295,2040005018478,登記記録の閉鎖等,0,2022-08-23,2022-08-09,特定非営利活動法人南房総農育プロジェクト,,その他の設立登記法人,千葉県,館山市,藤原８３７番地,,12,205,2940224,,,2022-08-09,清算の結了等,,,2015-10-05,1,,,,,ミナミボウソウノウイクプロジェクト,0
296,2040005019591,登記記録の閉鎖等,0,2022-08-23,2022-08-10,関東ロジスティクス協同組合,,その他の設立登記法人,千葉県,松戸市,松戸２０６３番地１０号グランドール１階,,12,207,2710092,,,2022-08-10,清算の結了等,,,2017-06-28,1,,,,,カントウロジスティクス,0
306,2110001022369,登記記録の閉鎖等,0,2022-08-23,2022-08-19,共栄機械株式会社,,株式会社,新潟県,長岡市,稲保１丁目３１４番地３,,15,202,9400877,,,2022-08-19,清算の結了等,,,2015-10-05,1,,,,,キョウエイキカイ,0
331,2140002031044,登記記録の閉鎖等,0,2022-08-23,2022-08-17,有限会社仲上呉服店,,有限会社,兵庫県,三木市,本町２丁目１０番２８号,,28,215,6730431,,,2022-08-17,清算の結了等,,,2015-10-05,1,,,,,,0
347,2220001013027,登記記録の閉鎖等,0,2022-08-23,2022-08-18,ＳＰＣ関西株式会社,,株式会社,大阪府,東大阪市,金岡４丁目６番１１号,,27,227,5770823,,,2022-08-18,清算の結了等,,,2015-10-05,1,,,,,エスピーシーカンサイ,0
369,2340002021727,登記記録の閉鎖等,0,2022-08-23,2022-08-18,有限会社備アルミ建具,,有限会社,鹿児島県,大島郡瀬戸内町,大字古仁屋字松江１０番地２,,46,525,8941505,,,2022-08-18,清算の結了等,,,2015-10-05,1,,,,,ソナエアルミタテグ,0
372,2370002017391,登記記録の閉鎖等,0,2022-08-23,2022-08-15,有限会社ピーアート・サイキ,,有限会社,宮城県,仙台市若林区,六丁の目南町１番１２号,,04,103,9840013,,,2022-08-15,清算の結了等,,,2015-10-05,1,,,,,,0
375,2370802001181,登記記録の閉鎖等,0,2022-08-23,2022-08-12,有限会社アイテック,,有限会社,宮城県,亘理郡山元町,坂元字大作堤下１６番地２,,04,362,9892111,,,2022-08-12,清算の結了等,,,2015-10-05,1,,,,,アイテック,0
379,2390002015815,登記記録の閉鎖等,0,2022-08-23,2022-08-18,有限会社山吉醤油店,00085050,有限会社,山形県,寒河江市,末広町２番７号,,06,206,9910033,,,2022-08-18,清算の結了等,,,2015-10-05,1,,,,,ヤマキチショウユテン,0
381,2420001012545,登記記録の閉鎖等,0,2022-08-23,2022-08-12,東北勧業株式会社,,株式会社,青森県,むつ市,大畑町上野９６番地８,,02,208,0394401,,,2022-08-12,清算の結了等,,,2015-10-05,1,,,,,トウホクカンギョウ,0
395,3010002017914,登記記録の閉鎖等,0,2022-08-23,2022-08-12,有限会社エスティーシージャパン,,有限会社,東京都,中央区,日本橋人形町３丁目７番１３－５０７号,,13,102,1030013,,,2022-08-12,清算の結了等,,,2015-10-05,1,,,,,エスティーシージャパン,0
412,3010703004005,登記記録の閉鎖等,0,2022-08-23,2022-08-22,株式会社ＩＳエンタープライズ,,株式会社,東京都,府中市,多磨町２丁目１４番地の２６グリーンサイド１０３,,13,206,1830002,,,2022-08-22,清算の結了等,,,2017-12-21,1,,,,,アイエスエンタープライズ,0
424,3011002023927,登記記録の閉鎖等,0,2022-08-23,2022-08-12,株式会社イエローブレイン,,株式会社,神奈川県,横浜市青葉区,美しが丘２丁目２０－１５プラザウィスタリア３０２,,14,117,2250002,,,2022-08-12,清算の結了等,,,2015-10-05,1,,,,,イエローブレイン,0
433,3011402017784,登記記録の閉鎖等,0,2022-08-23,2022-08-22,有限会社普通図柄,,有限会社,東京都,板橋区,小豆沢２丁目２６番１８号,,13,119,1740051,,,2022-08-22,清算の結了等,,,2015-10-05,1,,,,,,0
434,3011601003073,登記記録の閉鎖等,0,2022-08-23,2022-08-18,信南建設株式会社,,株式会社,東京都,練馬区,大泉学園町６丁目１番１２号,,13,120,1780061,,,2022-08-18,清算の結了等,,,2015-10-05,1,,,,,,0
443,3020001011223,登記記録の閉鎖等,0,2022-08-23,2022-08-15,株式会社紀陽ハウジング,,株式会社,神奈川県,横浜市青葉区,市ケ尾町１１５３番２ライオンズプラザ市ヶ尾１０１号,,14,117,2250024,,,2022-08-15,清算の結了等,,,2015-10-05,1,,,,,キヨウハウジング,0
450,3020002021270,登記記録の閉鎖等,0,2022-08-23,2022-08-12,有限会社寿縫製,,有限会社,神奈川県,横浜市旭区,中希望が丘９７番地の１５,,14,112,2410825,,,2022-08-12,清算の結了等,,,2015-10-05,1,,,,,コトブキホウセイ,0
464,3040001005545,登記記録の閉鎖等,0,2022-08-23,2022-08-15,株式会社トリオ東部販売,,株式会社,千葉県,千葉市若葉区,都賀３丁目３１番６号,,12,104,2640025,,,2022-08-15,清算の結了等,,,2015-10-05,1,,,,,,0
493,3070005004994,登記記録の閉鎖等,0,2022-08-23,2022-08-12,パシフイツク工業協同組合,,その他の設立登記法人,群馬県,桐生市,仲町３丁目１０番３０号,,10,203,3760035,,,2022-08-12,清算の結了等,,,2015-10-05,1,,,,,パシフィックコウギョウ,0
498,3120001030717,登記記録の閉鎖等,0,2022-08-23,2022-08-18,株式会社さかい,,株式会社,大阪府,大阪市住之江区,泉２丁目１番９２号,,27,125,5590023,,,2022-08-18,清算の結了等,,,2015-10-05,1,,,,,,0
499,3120001034668,登記記録の閉鎖等,0,2022-08-23,2022-08-18,株式会社蒲田商店,,株式会社,大阪府,大阪市福島区,野田１丁目１番８６号大阪市中央卸売市場内,,27,103,5530005,,,2022-08-18,清算の結了等,,,2015-10-05,1,,,,,,0
503,3120001181080,登記記録の閉鎖等,0,2022-08-23,2022-08-19,ゼル株式会社,,株式会社,大阪府,大阪市中央区,日本橋２丁目１２番１４号第２昭栄３０２,,27,128,5420073,,,2022-08-19,清算の結了等,,,2015-10-05,1,,,,,ゼル,0
511,3120005008222,登記記録の閉鎖等,0,2022-08-23,2022-07-25,特定非営利活動法人ＢＡＯＢＡＢＣＬＵＢ,,その他の設立登記法人,大阪府,大阪市天王寺区,小橋２－１２,,27,109,5430000,,,2022-07-25,清算の結了等,,,2015-10-05,1,,,,,バオバブクラブ,0
528,3140001069803,登記記録の閉鎖等,0,2022-08-23,2022-08-12,日本スウェージロック株式会社,,株式会社,兵庫県,西宮市,鳴尾浜１丁目１番地１,,28,204,6638142,,,2022-08-12,合併による解散等,8140001073197,令和４年７月３１日兵庫県西宮市鳴尾浜一丁目１番地１日本スウェージロックＦＳＴ株式会社（8140001073197）に合併し解散,2015-10-05,1,,,,,ニホンスウェージロック,0
548,3190005003976,登記記録の閉鎖等,0,2022-08-23,2022-08-22,特定非営利活動法人ぺがさす,,その他の設立登記法人,三重県,津市,美里町家所２５５７番地の２,,24,201,5142104,,,2022-08-22,清算の結了等,,,2015-10-05,1,,,,,ペガサス,0
550,3200005008924,登記記録の閉鎖等,0,2022-08-23,2022-08-19,中津川木材工業協同組合,,その他の設立登記法人,岐阜県,中津川市,苗木４５８６番地の５０,,21,206,5080101,,,2022-08-19,清算の結了等,,,2015-10-05,1,,,,,ナカツガワモクザイコウギョウ,0
559,3280001007204,登記記録の閉鎖等,0,2022-08-23,2022-08-22,協和建設株式会社,,株式会社,島根県,松江市,美保関町森山１３６１番地１５,,32,201,6901312,,,2022-08-22,清算の結了等,,,2016-04-26,1,,,,,キョウワケンセツ,0
573,3330001006398,登記記録の閉鎖等,0,2022-08-23,2022-08-16,株式会社システムインテグレーション研究所,,株式会社,熊本県,熊本市中央区,北千反畑町４番３号,,43,101,8600855,,,2022-08-16,清算の結了等,,,2015-10-05,1,,,,,システムインテグレーションケンキュウショ,0
581,3380002014180,登記記録の閉鎖等,0,2022-08-23,2022-08-12,有限会社ユーヴェリック,,有限会社,福島県,郡山市,栄町９番３号アパルトマン３０６号,,07,203,9638872,,,2022-08-12,清算の結了等,,,2015-10-05,1,,,,,ユーヴェリック,0
586,3420002007411,登記記録の閉鎖等,0,2022-08-23,2022-08-09,有限会社スズキアルト八戸,,有限会社,青森県,八戸市,下長８丁目１番２８号,,02,203,0391164,,,2022-08-09,清算の結了等,,,2015-10-05,1,,,,,スズキアルトハチノヘ,0
589,3430002054709,登記記録の閉鎖等,0,2022-08-23,2022-08-19,有限会社多来渡ソーイング,,有限会社,北海道,小樽市,花園３丁目１２番１４号,,01,203,0470024,,,2022-08-19,清算の結了等,,,2015-10-05,1,,,,,,0
616,4010403023139,登記記録の閉鎖等,0,2022-08-23,2022-08-12,合同会社Ｘｅｎｏｎ,,合同会社,東京都,千代田区,丸の内３丁目１番１号東京共同会計事務所内,,13,101,1000005,,,2022-08-12,清算の結了等,,,2020-06-15,1,,,,,ゼナン,0
617,4010405011315,登記記録の閉鎖等,0,2022-08-23,2022-08-04,特定非営利活動法人スポーツウィンターミーティング,,その他の設立登記法人,東京都,港区,虎ノ門４丁目３番１号,,13,103,1050001,,,2022-08-04,清算の結了等,,,2015-10-05,1,,,,,スポーツウィンターミーティング,0
622,4010801000763,登記記録の閉鎖等,0,2022-08-23,2022-08-19,イーストンサービス株式会社,,株式会社,東京都,墨田区,立花４丁目１９番５号,,13,107,1310043,,,2022-08-19,清算の結了等,,,2015-10-05,1,,,,,イーストンサービス,0
670,4030002009545,登記記録の閉鎖等,0,2022-08-23,2022-08-10,有限会社トップスタッフ,,有限会社,埼玉県,さいたま市南区,鹿手袋５丁目２番４０号,,11,108,3360031,,,2022-08-10,清算の結了等,,,2015-10-05,1,,,,,トップスタッフ,0
686,4040001081973,登記記録の閉鎖等,0,2022-08-23,2022-08-15,株式会社Ｃｈｏｉｃｅ,,株式会社,千葉県,船橋市,本町４丁目３９番１０－２階,,12,204,2730005,,,2022-08-15,清算の結了等,,,2015-10-05,1,,,,,チョイス,0
702,4070002035694,登記記録の閉鎖等,0,2022-08-23,2022-08-10,田村林業有限会社,,有限会社,群馬県,利根郡みなかみ町,吹路２９６番地,,10,449,3791402,,,2022-08-10,清算の結了等,,,2015-10-05,1,,,,,タムラリンギョウ,0
703,4080002013419,登記記録の閉鎖等,0,2022-08-23,2022-08-18,あさひ情報処理サービス有限会社,,有限会社,静岡県,島田市,１２５４番地の１２,,22,209,4270000,,,2022-08-18,清算の結了等,,,2015-10-05,1,,,,,アサヒジョウホウショリサービス,0
706,4080102012089,登記記録の閉鎖等,0,2022-08-23,2022-08-22,有限会社若松建設,,有限会社,静岡県,三島市,加茂７２番地の８,,22,206,4110023,,,2022-08-22,清算の結了等,,,2015-10-05,1,,,,,ワカマツケンセツ,0
718,4120001140291,登記記録の閉鎖等,0,2022-08-23,2022-08-22,ＤＡＩＳＹＯＵ株式会社,,株式会社,兵庫県,姫路市,花影町１丁目４１番地,,28,201,6700047,,,2022-08-22,清算の結了等,,,2015-10-05,1,,,,,,0
738,4140003015374,登記記録の閉鎖等,0,2022-08-23,2022-08-17,合同会社トラスティ,,合同会社,兵庫県,神戸市兵庫区,駅前通４丁目３番３号棟２０３号室,,28,105,6520898,,,2022-08-17,清算の結了等,,,2020-09-14,1,,,,,トラスティ,0
744,4180001064444,登記記録の閉鎖等,0,2022-08-23,2022-08-18,株式会社丹羽惣商店,,株式会社,愛知県,名古屋市中川区,尾頭橋３丁目２２番９号,,23,110,4540012,,,2022-08-18,清算の結了等,,,2015-10-05,1,,,,,ニワソウショウテン,0
751,4180302009016,登記記録の閉鎖等,0,2022-08-23,2022-08-18,有限会社ナルセ,,有限会社,愛知県,豊橋市,花園町１０番地,,23,201,4400895,,,2022-08-18,清算の結了等,,,2015-10-05,1,,,,,ナルセ,0
767,4260002017731,登記記録の閉鎖等,0,2022-08-23,2022-08-19,有限会社倉敷新京,,有限会社,岡山県,倉敷市,帯高５０７番地の２,,33,202,7100023,,,2022-08-19,清算の結了等,,,2015-10-05,1,,,,,クラシキシンキョウ,0
780,4330001025711,登記記録の閉鎖等,0,2022-08-23,2022-08-16,宇城ワイン株式会社,,株式会社,熊本県,宇城市,小川町南小川３８５,,43,213,8690614,,,2022-08-16,清算の結了等,,,2018-10-02,1,,,,,ウキワイン,0
796,4410001013187,登記記録の閉鎖等,0,2022-08-23,2022-08-18,藤井物産株式会社,,株式会社,秋田県,南秋田郡八郎潟町,字中田３８番地,,05,363,0181614,,,2022-08-18,清算の結了等,,,2022-05-30,1,,,,,フジイブッサン,0
833,5010403023253,登記記録の閉鎖等,0,2022-08-23,2022-08-12,ＳＡＧＬ１合同会社,,合同会社,東京都,千代田区,丸の内３丁目１番１号東京共同会計事務所内,,13,101,1000005,,,2022-08-12,清算の結了等,,,2020-07-09,1,,,,,エスエージーエルワン,0
834,5010403023591,登記記録の閉鎖等,0,2022-08-23,2022-08-12,合同会社ＵＲＦＧＤ,,合同会社,東京都,千代田区,丸の内３丁目１番１号東京共同会計事務所内,,13,101,1000005,,,2022-08-12,清算の結了等,,,2020-08-31,1,,,,,ユーアールエフジーディー,0
861,5011401021744,登記記録の閉鎖等,0,2022-08-23,2022-08-23,バコーインターナショナル株式会社,,株式会社,東京都,板橋区,板橋１丁目１４番１０－７０２号,,13,119,1730004,,,2022-08-23,清算の結了等,,,2019-04-09,1,,,,,バコーインターナショナル,0
863,5011402002660,登記記録の閉鎖等,0,2022-08-23,2022-08-19,有限会社貴船,,有限会社,東京都,豊島区,池袋１丁目７番３２号,,13,116,1700014,,,2022-08-19,清算の結了等,,,2015-10-05,1,,,,,キフネ,0
880,5013201010464,登記記録の閉鎖等,0,2022-08-23,2022-08-03,株式会社スポーツアンドファッショングランプリオギノ,,株式会社,東京都,目黒区,八雲３丁目２１番５号,,13,110,1520023,,,2022-08-03,清算の結了等,,,2015-10-05,1,,,,,スポーツアンドファッショングランプリオギノ,0
889,5020002011427,登記記録の閉鎖等,0,2022-08-23,2022-08-12,有限会社オダ商会,,有限会社,神奈川県,横浜市戸塚区,平戸２丁目１５番４４号,,14,110,2440802,,,2022-08-12,清算の結了等,,,2015-10-05,1,,,,,オダショウカイ,0
894,5021002002102,登記記録の閉鎖等,0,2022-08-23,2022-08-22,有限会社佐藤商会,00012910,有限会社,神奈川県,藤沢市,下土棚６０４番地の７,,14,205,2520807,,,2022-08-22,清算の結了等,,,2015-10-05,1,,,,,サトウショウカイ,0
915,5060002020291,登記記録の閉鎖等,0,2022-08-23,2022-08-15,有限会社神電,,有限会社,栃木県,鹿沼市,茂呂１２６５番地,,09,205,3220026,,,2022-08-15,清算の結了等,,,2015-10-05,1,,,,,カミデン,0
924,5080002010299,登記記録の閉鎖等,0,2022-08-23,2022-08-19,スズキ梱包運輸有限会社,,有限会社,静岡県,静岡市清水区,下野２０１番地の３,,22,103,4220000,,,2022-08-19,清算の結了等,,,2015-10-05,1,,,,,スズキコンポウウンユ,0
939,5120002017364,登記記録の閉鎖等,0,2022-08-23,2022-08-19,有限会社オーティホーム,,有限会社,大阪府,大阪市住之江区,粉浜３丁目１０番１４号,,27,125,5590001,,,2022-08-19,清算の結了等,,,2015-10-05,1,,,,,オーティホーム,0
945,5120101030499,登記記録の閉鎖等,0,2022-08-23,2022-08-18,大阪エース総合運輸株式会社,,株式会社,大阪府,堺市中区,八田西町３丁４番２０号,,27,142,5998265,,,2022-08-18,清算の結了等,,,2015-10-05,1,,,,,オオサカエースソウゴウウンユ,0
954,5130001036819,登記記録の閉鎖等,0,2022-08-23,2022-08-08,株式会社ティ・アイ・シー,,株式会社,京都府,木津川市,木津神田６番地１２７,,26,214,6190214,,,2022-08-08,合併による解散等,6130001056881,令和４年７月２９日京都府京田辺市松井ケ丘一丁目２番地４株式会社ｃｏｌｏｒｆｕｌ（6130001056881）に合併し解散,2015-10-05,1,,,,,ティアイシー,0
962,5160005006906,登記記録の閉鎖等,0,2022-08-23,2022-08-22,特定非営利活動法人菜の花プロジェクトネットワーク,,その他の設立登記法人,滋賀県,近江八幡市,安土町下豊浦３番地,,25,204,5211311,,,2022-08-22,清算の結了等,,,2015-10-05,1,,,,,ナノハナプロジェクトネットワーク,0
975,5230005003978,登記記録の閉鎖等,0,2022-08-23,2022-08-22,佛性寺,,その他の設立登記法人,富山県,下新川郡入善町,青木１２３６番地,,16,342,9390643,,,2022-08-22,清算の結了等,,,2015-10-05,1,,,,,,0
997,5290005007651,登記記録の閉鎖等,0,2022-08-23,2022-08-12,特定非営利活動法人九州沖縄子ども文化芸術協会,,その他の設立登記法人,熊本県,熊本市中央区,本山１丁目６番９号白木ビル３階,,43,101,8600821,,,2022-08-12,清算の結了等,,,2015-10-05,1,,,,,キュウシュウオキナワコドモブンカゲイジュツキョウカイ,0
1000,5290805001036,登記記録の閉鎖等,0,2022-08-23,2022-08-22,医療法人佐久間小児科医院,,その他の設立登記法人,福岡県,北九州市戸畑区,小芝１丁目１番４０号,,40,105,8040092,,,2022-08-22,清算の結了等,,,2015-10-05,1,,,,,サクマショウニカイイン,0
1016,5380005010737,登記記録の閉鎖等,0,2022-08-23,2022-08-12,特定非営利活動法人つながっぺ南相馬,,その他の設立登記法人,福島県,南相馬市,小高区塚原字諏訪原６７－３,,07,212,9792104,,,2022-08-12,清算の結了等,,,2015-10-05,1,,,,,ツナガッペミナミソウマ,0
1024,5430002059318,登記記録の閉鎖等,0,2022-08-23,2022-08-09,有限会社トヨタ商事,,有限会社,北海道,苫小牧市,末広町１丁目６番３号,,01,213,0530011,,,2022-08-09,清算の結了等,,,2015-10-05,1,,,,,トヨタショウジ,0
1026,5470001000724,登記記録の閉鎖等,0,2022-08-23,2022-08-22,株式会社枝川眼鏡光学機店,,株式会社,香川県,高松市,兵庫町１番地８,,37,201,7600024,,,2022-08-22,清算の結了等,,,2015-10-05,1,,,,,エダガワガンキョウコウガクキテン,0
1032,6010001194925,登記記録の閉鎖等,0,2022-08-23,2022-08-12,Ｍｏｒｎｉｎｇ　Ｈｏｒｉｚｏｎ株式会社,,株式会社,東京都,文京区,本郷３丁目４３番１３号南江堂第二ビル３階,,13,105,1130033,,,2022-08-12,清算の結了等,,,2018-09-20,1,,,,,モーニングホライズン,0
1033,6010001212364,登記記録の閉鎖等,0,2022-08-23,2022-08-01,日本橋ホールディングス株式会社,,株式会社,東京都,中央区,日本橋本石町２丁目１番１号,,13,102,1030021,,,2022-08-01,清算の結了等,,,2020-09-24,1,,,,,ニホンバシホールディングス,0
1036,6010002000520,登記記録の閉鎖等,0,2022-08-23,2022-08-12,有限会社石崎編集事務所,,有限会社,東京都,文京区,本郷１丁目２８番１３号メゾンウィスタリア３０２号,,13,105,1130033,,,2022-08-12,清算の結了等,,,2015-10-05,1,,,,,イシザキヘンシュウジムショ,0
1068,6011101012489,登記記録の閉鎖等,0,2022-08-23,2022-08-22,田沢株式会社,,株式会社,東京都,新宿区,早稲田鶴巻町３０８番１,,13,104,1620041,,,2022-08-22,清算の結了等,,,2015-10-05,1,,,,,タザワ,0
1075,6011502005629,登記記録の閉鎖等,0,2022-08-23,2022-08-12,有限会社マリーゴールド,,有限会社,東京都,文京区,本駒込５丁目１０番７号,,13,105,1130021,,,2022-08-12,清算の結了等,,,2015-10-05,1,,,,,マリーゴールド,0
1096,6021001002135,登記記録の閉鎖等,0,2022-08-23,2022-08-19,株式会社丸光産業,,株式会社,神奈川県,藤沢市,石川６丁目１０番地の１０,,14,205,2520815,,,2022-08-19,清算の結了等,,,2015-10-05,1,,,,,マルミツサンギョウ,0
1106,6030001125028,登記記録の閉鎖等,0,2022-08-23,2022-08-10,株式会社ハンドメイドデリカ,,株式会社,埼玉県,戸田市,大字新曽１３９０番地の１,,11,224,3350021,,,2022-08-10,清算の結了等,,,2018-04-05,1,,,,,ハンドメイドデリカ,0
1121,6040002075345,登記記録の閉鎖等,0,2022-08-23,2022-08-10,有限会社宮原商店,,有限会社,千葉県,市原市,八幡１１８９番地,,12,219,2900062,,,2022-08-10,清算の結了等,,,2015-10-05,1,,,,,ミヤハラショウテン,0
1132,6060002040339,登記記録の閉鎖等,0,2022-08-23,2022-08-17,有限会社総合建設椎名,,有限会社,栃木県,佐野市,植上町１３４２番地,,09,204,3270832,,,2022-08-17,清算の結了等,,,2015-10-05,1,,,,,ソウゴウケンセツシイナ,0
1137,6080401000148,登記記録の閉鎖等,0,2022-08-23,2022-08-18,株式会社アクト浜松,,株式会社,静岡県,浜松市東区,半田山２丁目７番１号,,22,132,4313125,,,2022-08-18,清算の結了等,,,2015-10-05,1,,,,,アクトハママツ,0
1159,6120105008549,登記記録の閉鎖等,0,2022-08-23,2022-08-22,一般社団法人金木犀,,その他の設立登記法人,大阪府,豊中市,曽根西町３丁目５番３４号コスモハイツ曽根２０１号,,27,203,5610801,,,2022-08-22,清算の結了等,,,2016-08-12,1,,,,,キンモクセイ,0
1170,6140001099054,登記記録の閉鎖等,0,2022-08-23,2022-08-18,株式会社エニム,,株式会社,大阪府,大阪市城東区,関目３丁目８番３１号３０６号室,,27,118,5360008,,,2022-08-18,清算の結了等,,,2015-10-05,1,,,,,,0
1184,6180002040517,登記記録の閉鎖等,0,2022-08-23,2022-08-12,有限会社大幸,,有限会社,愛知県,名古屋市名東区,一社４丁目２２１番地,,23,115,4650093,,,2022-08-12,清算の結了等,,,2015-10-05,1,,,,,ダイコウ,0
1186,6180005016547,登記記録の閉鎖等,0,2022-08-23,2022-08-17,特定非営利活動法人ラオス未来,,その他の設立登記法人,愛知県,名古屋市中村区,名駅４丁目２番２８号名古屋第二埼玉ビル４階名嶋・綿貫法律事務所内,,23,105,4500002,,,2022-08-17,清算の結了等,,,2015-12-07,1,,,,,ラオスミライ,0
1188,6190001014529,登記記録の閉鎖等,0,2022-08-23,2022-08-18,株式会社オンダ化成,,株式会社,三重県,三重郡川越町,大字豊田５１２番地の１,,24,344,5108122,,,2022-08-18,清算の結了等,,,2015-10-05,1,,,,,オンダカセイ,0
1204,6290801024725,登記記録の閉鎖等,0,2022-08-23,2022-08-19,株式会社ヨリフジ,,株式会社,福岡県,北九州市小倉南区,八幡町２５番４号,,40,107,8020805,,,2022-08-19,清算の結了等,,,2018-06-29,1,,,,,ヨリフジ,0
1208,6310002018391,登記記録の閉鎖等,0,2022-08-23,2022-08-19,ナンコウ産業有限会社,,有限会社,長崎県,南島原市,西有家町龍石５００９番地,,42,214,8592216,,,2022-08-19,清算の結了等,,,2015-10-05,1,,,,,ナンコウサンギョウ,0
1223,6380001000468,登記記録の閉鎖等,0,2022-08-23,2022-08-03,株式会社コオダ,,株式会社,福島県,福島市,鎌田字卸町１４番地の４,,07,201,9600102,,,2022-08-03,清算の結了等,,,2015-10-05,1,,,,,コオダ,0
1228,6410001005397,登記記録の閉鎖等,0,2022-08-23,2022-08-18,やまと商事株式会社,,株式会社,秋田県,由利本荘市,薬師堂字中道１２８番地４,,05,210,0150041,,,2022-08-18,清算の結了等,,,2015-10-05,1,,,,,,0
1244,7010001001989,登記記録の閉鎖等,0,2022-08-23,2022-08-18,株式会社キード,,株式会社,東京都,墨田区,立花１丁目３１番１４号,,13,107,1310043,,,2022-08-18,清算の結了等,,,2015-10-05,1,,,,,キード,0
1247,7010001145729,登記記録の閉鎖等,0,2022-08-23,2022-08-17,株式会社マインドソリューション,,株式会社,東京都,足立区,千住旭町七丁目１６番地,,13,121,1200026,,,2022-08-17,清算の結了等,,,2015-10-05,1,,,,,マインドソリューション,0
1250,7010001201944,登記記録の閉鎖等,0,2022-08-23,2022-08-12,Ｏｃｅａｎ　Ｂｉｎａｒｙ株式会社,,株式会社,東京都,千代田区,神田佐久間町３丁目２１番地５ヒガシカンダビル３０７号,,13,101,1010025,,,2022-08-12,清算の結了等,,,2019-06-27,1,,,,,オーシャンバイナリー,0
1251,7010001209129,登記記録の閉鎖等,0,2022-08-23,2022-08-12,イセテン株式会社,,株式会社,東京都,文京区,本郷３丁目４３番１３号南江堂第２ビル３Ｆ,,13,105,1130033,,,2022-08-12,清算の結了等,,,2020-04-17,1,,,,,イセテン,0
1262,7010401124910,登記記録の閉鎖等,0,2022-08-23,2022-08-03,セレブスタイル株式会社,,株式会社,東京都,港区,南青山４丁目１７番１６号リュベール南青山１０１,,13,103,1070062,,,2022-08-03,清算の結了等,,,2016-05-23,1,,,,,セレブスタイル,0
1264,7010403024076,登記記録の閉鎖等,0,2022-08-23,2022-08-12,合同会社ＳＡ　ＰＲＯＰＥＲＴＹ１,,合同会社,東京都,千代田区,丸の内３丁目１番１号東京共同会計事務所内,,13,101,1000005,,,2022-08-12,清算の結了等,,,2020-11-10,1,,,,,エスエープロパティワン,0
1269,7010601044974,登記記録の閉鎖等,0,2022-08-23,2022-08-19,株式会社アゲイン,,株式会社,東京都,江東区,大島５丁目５２番７号,,13,108,1360072,,,2022-08-19,清算の結了等,,,2015-10-05,1,,,,,アゲイン,0
1296,7011802015450,登記記録の閉鎖等,0,2022-08-23,2022-08-18,有限会社宅間商店,,有限会社,東京都,足立区,東和１丁目１２番９号,,13,121,1200003,,,2022-08-18,清算の結了等,,,2015-10-05,1,,,,,タクマショウテン,0
1302,7013301043536,登記記録の閉鎖等,0,2022-08-23,2022-08-17,株式会社ＫＩＮＶ,,株式会社,東京都,豊島区,東池袋２丁目５０番１５号３階３０４,,13,116,1700013,,,2022-08-17,清算の結了等,,,2019-03-05,1,,,,,ケーアイエヌヴィー,0
1303,7020001081436,登記記録の閉鎖等,0,2022-08-23,2022-08-15,株式会社レナセンティア,,株式会社,神奈川県,川崎市川崎区,池田２丁目３番４号パピヨン池田２０２,,14,131,2100022,,,2022-08-15,清算の結了等,,,2015-10-05,1,,,,,レナセンティア,0
1320,7030001066361,登記記録の閉鎖等,0,2022-08-23,2022-08-10,株式会社ソーシャルビジネスサポート,,株式会社,埼玉県,越谷市,南越谷１丁目１番地５２,,11,222,3430845,,,2022-08-10,清算の結了等,,,2015-10-05,1,,,,,,0
1334,7040001066352,登記記録の閉鎖等,0,2022-08-23,2022-08-10,株式会社ピーティーエス,,株式会社,千葉県,柏市,十余二２１７番地,,12,217,2770872,,,2022-08-10,清算の結了等,,,2015-10-05,1,,,,,ピーティーエス,0
1341,7040003009128,登記記録の閉鎖等,0,2022-08-23,2022-08-05,合同会社まどか,,合同会社,千葉県,千葉市中央区,新宿２丁目９番７号,,12,101,2600021,,,2022-08-05,清算の結了等,,,2016-10-05,1,,,,,マドカ,0
1351,7080401016696,登記記録の閉鎖等,0,2022-08-23,2022-08-22,株式会社エル・プラン,,株式会社,静岡県,磐田市,福田中島３５７１番地１,,22,211,4371204,,,2022-08-22,清算の結了等,,,2015-10-05,1,,,,,エルプラン,0
1352,7090002010098,登記記録の閉鎖等,0,2022-08-23,2022-08-19,有限会社エクステリア企画,,有限会社,山梨県,都留市,四日市場３１２番地の１,,19,204,4020005,,,2022-08-19,清算の結了等,,,2015-10-05,1,,,,,,0
1389,7140002039776,登記記録の閉鎖等,0,2022-08-23,2022-08-22,有限会社アトモスフィア,,有限会社,兵庫県,尼崎市,南武庫之荘２丁目２４番２２号,,28,202,6610033,,,2022-08-22,清算の結了等,,,2015-10-05,1,,,,,アトモスフィア,0
1395,7180001119154,登記記録の閉鎖等,0,2022-08-23,2022-08-10,ＨＳＧコーポレーション株式会社,,株式会社,東京都,中央区,東日本橋１丁目３番１０号六波羅ビル２階,,13,102,1030004,,,2022-08-10,清算の結了等,,,2015-10-05,1,,,,,エイチエスジーコーポレーション,0
1402,7190002007852,登記記録の閉鎖等,0,2022-08-23,2022-08-17,有限会社有明,,有限会社,三重県,鈴鹿市,平野町７１８番地の１,,24,207,5130835,,,2022-08-17,清算の結了等,,,2015-10-05,1,,,,,,0
1427,7320002017326,登記記録の閉鎖等,0,2022-08-23,2022-08-18,有限会社マルヤマ,,有限会社,大分県,佐伯市,大字堅田２４１１番地の１,,44,205,8761512,,,2022-08-18,清算の結了等,,,2015-10-05,1,,,,,マルヤマ,0
1444,7420002005741,登記記録の閉鎖等,0,2022-08-23,2022-08-19,有限会社虹ヶ丘ケア・ファミリー,,有限会社,青森県,青森市,虹ケ丘１丁目３番地２２,,02,201,0300948,,,2022-08-19,清算の結了等,,,2015-10-05,1,,,,,ニジガオカケアファミリー,0
1461,8010101013033,登記記録の閉鎖等,0,2022-08-23,2022-08-10,トラストケア株式会社,,株式会社,東京都,八王子市,下恩方町２０６６番地３８,,13,201,1920154,,,2022-08-10,清算の結了等,,,2017-10-04,1,,,,,トラストケア,0
1466,8010403021312,登記記録の閉鎖等,0,2022-08-23,2022-08-12,合同会社Ｓｐｉｒａｌ,,合同会社,東京都,千代田区,丸の内３丁目１番１号東京共同会計事務所内,,13,101,1000005,,,2022-08-12,清算の結了等,,,2019-08-22,1,,,,,スパイラル,0
1467,8010405016120,登記記録の閉鎖等,0,2022-08-23,2022-08-05,一般財団法人日本財団ボランティアサポートセンター,,その他の設立登記法人,東京都,港区,赤坂１丁目２－２日本財団ビル３階,,13,103,1070052,,,2022-08-05,清算の結了等,,,2017-10-06,1,,,,,ニッポンザイダンボランティアサポートセンター,0
1499,8011702017744,登記記録の閉鎖等,0,2022-08-23,2022-08-12,有限会社黒田商事,,有限会社,千葉県,柏市,西原３丁目８番１８号セルフィール西原１０５,,12,217,2770885,,,2022-08-12,清算の結了等,,,2015-10-05,1,,,,,,0
1507,8020003014211,登記記録の閉鎖等,0,2022-08-23,2022-08-12,Ｆ合同会社,,合同会社,神奈川県,横浜市南区,中島町４丁目６８番地４,,14,105,2320055,,,2022-08-12,清算の結了等,,,2018-04-18,1,,,,,エフ,0
1516,8030001058614,登記記録の閉鎖等,0,2022-08-23,2022-08-10,株式会社川越大樹,,株式会社,埼玉県,川越市,野田町２丁目１番２３号,,11,201,3501115,,,2022-08-10,清算の結了等,,,2015-10-05,1,,,,,カワゴエダイキ,0
1537,8060005004875,登記記録の閉鎖等,0,2022-08-23,2022-08-10,小山食肉事業協同組合,,その他の設立登記法人,栃木県,小山市,乙女３丁目１２番１６号,,09,208,3290214,,,2022-08-10,清算の結了等,,,2015-10-05,1,,,,,オヤマショクニク,0
1539,8070001025569,登記記録の閉鎖等,0,2022-08-23,2022-08-10,株式会社ＳＨＣ,,株式会社,群馬県,前橋市,大友町３丁目１２番地５,,10,201,3710847,,,2022-08-10,清算の結了等,,,2015-10-05,1,,,,,エスエイチシー,0
1564,8140005021425,登記記録の閉鎖等,0,2022-08-23,2022-08-09,一般社団法人ＷｉＴＨｓ,,その他の設立登記法人,兵庫県,神戸市東灘区,向洋町中５丁目６番地の２、１４２０号,,28,101,6580032,,,2022-08-09,清算の結了等,,,2015-10-05,1,,,,,ウィズ,0
1599,8290801004262,登記記録の閉鎖等,0,2022-08-23,2022-08-22,株式会社アクティブアリアケ,,株式会社,福岡県,北九州市小倉南区,若園２丁目１３番６号,,40,107,8020816,,,2022-08-22,清算の結了等,,,2015-10-05,1,,,,,アクティブアリアケ,0
1600,8290802003767,登記記録の閉鎖等,0,2022-08-23,2022-08-19,有限会社タイコウ工業,,有限会社,福岡県,北九州市小倉北区,熊谷１丁目３４番１８号,,40,106,8030864,,,2022-08-19,清算の結了等,,,2015-10-05,1,,,,,タイコウコウギョウ,0
1601,8300001005605,登記記録の閉鎖等,0,2022-08-23,2022-08-18,伊万里乳販株式会社,,株式会社,佐賀県,伊万里市,伊万里町乙５５番地１,,41,205,8480046,,,2022-08-18,清算の結了等,,,2015-10-05,1,,,,,イマリニュウハン,0
1602,8300001008616,登記記録の閉鎖等,0,2022-08-23,2022-08-18,株式会社川越流通企画,,株式会社,佐賀県,小城市,小城町１６０番地１２,,41,208,8450001,,,2022-08-18,清算の結了等,,,2015-10-05,1,,,,,,0
1603,8300001009779,登記記録の閉鎖等,0,2022-08-23,2022-08-17,株式会社ハーベスト,,株式会社,佐賀県,唐津市,鏡４７５１番地２,,41,202,8470022,,,2022-08-17,清算の結了等,,,2015-10-05,1,,,,,ハーベスト,0
1614,8370005002914,登記記録の閉鎖等,0,2022-08-23,2022-08-15,特定非営利活動法人環境エネルギー技術研究所,,その他の設立登記法人,宮城県,仙台市宮城野区,榴ケ岡５番地,,04,102,9830851,,,2022-08-15,清算の結了等,,,2015-10-05,1,,,,,カンキョウエネルギーギジュツケンキュウショ,0
1627,8460301004803,登記記録の閉鎖等,0,2022-08-23,2022-08-18,株式会社喰創,,株式会社,北海道,網走市,南七条東２丁目２番地,,01,211,0930007,,,2022-08-18,清算の結了等,,,2019-07-01,1,,,,,ショクソウ,0
1629,8470002014984,登記記録の閉鎖等,0,2022-08-23,2022-08-22,有限会社四国図面,,有限会社,香川県,坂出市,白金町３丁目７番２７号,,37,203,7620042,,,2022-08-22,清算の結了等,,,2015-10-05,1,,,,,トラストキタ,0
1632,8480005001558,登記記録の閉鎖等,0,2022-08-23,2022-08-22,特定非営利活動法人徳島県ボランティア協議会,,その他の設立登記法人,徳島県,徳島市,川内町鶴島１２０番地の１,,36,201,7710117,,,2022-08-22,清算の結了等,,,2015-10-05,1,,,,,,0
1636,9010001026571,登記記録の閉鎖等,0,2022-08-23,2022-08-12,パシフィックチャータリング株式会社,,株式会社,東京都,中央区,京橋３丁目１４番６号,,13,102,1040031,,,2022-08-12,清算の結了等,,,2015-10-05,1,,,,,パシフィックチャータリング,0
1650,9010401033408,登記記録の閉鎖等,0,2022-08-23,2022-08-10,株式会社創報,,株式会社,東京都,千代田区,内神田２丁目５番６号,,13,101,1010047,,,2022-08-10,清算の結了等,,,2015-10-05,1,,,,,ソウホウ,0
1656,9010401163659,登記記録の閉鎖等,0,2022-08-23,2022-08-02,株式会社Ｒｅａｌ,,株式会社,東京都,渋谷区,道玄坂１丁目１７番９号ヴェラハイツ道玄坂６０１,,13,113,1500043,,,2022-08-02,清算の結了等,,,2021-11-05,1,,,,,リアル,0
1662,9010501036475,登記記録の閉鎖等,0,2022-08-23,2022-08-22,株式会社はやあげ,,株式会社,東京都,台東区,根岸３丁目２３番８－１０１号,,13,106,1100003,,,2022-08-22,清算の結了等,,,2015-10-05,1,,,,,ハヤアゲ,0
1664,9010505003190,登記記録の閉鎖等,0,2022-08-23,2022-08-22,税理士法人伴走経営,,その他の設立登記法人,東京都,台東区,上野３丁目１５番７号ＵｅｎｏＹｏｕｒ４０２号室,,13,106,1100005,,,2022-08-22,清算の結了等,,,2020-11-19,1,,,,,バンソウケイエイ,0
1669,9010805000474,登記記録の閉鎖等,0,2022-08-23,2022-08-15,京浜トラック事業協同組合,,その他の設立登記法人,東京都,大田区,東馬込１丁目１２番１２号,,13,111,1430022,,,2022-08-15,清算の結了等,,,2015-10-05,1,,,,,ケイヒントラック,0
1670,9010902026125,登記記録の閉鎖等,0,2022-08-23,2022-08-17,有限会社グラッパ・イイダデザイン,,有限会社,東京都,世田谷区,船橋５丁目２４番２号,,13,112,1560055,,,2022-08-17,清算の結了等,,,2015-10-05,1,,,,,グラッパイイダデザイン,0
1679,9011101002660,登記記録の閉鎖等,0,2022-08-23,2022-08-22,エースシステムエンヂニアリング株式会社,,株式会社,東京都,新宿区,中井１丁目１０番６号,,13,104,1610035,,,2022-08-22,清算の結了等,,,2015-10-05,1,,,,,,0
1707,9020003006785,登記記録の閉鎖等,0,2022-08-23,2022-08-16,合同会社クロスラボ,,合同会社,神奈川県,横浜市青葉区,奈良町１５６６番地５６６,,14,117,2270036,,,2022-08-16,清算の結了等,,,2015-10-05,1,,,,,クロスラボ,0
1722,9030003015793,登記記録の閉鎖等,0,2022-08-23,2022-08-10,合同会社スズキ音楽教室,,合同会社,埼玉県,さいたま市浦和区,前地３丁目２－７,,11,107,3300053,,,2022-08-10,清算の結了等,,,2020-08-31,1,,,,,スズキオンガクキョウシツ,0
1740,9060002016393,登記記録の閉鎖等,0,2022-08-23,2022-08-12,有限会社小代行川庵そば組合,,有限会社,栃木県,日光市,小代３７１番地,,09,206,3211107,,,2022-08-12,清算の結了等,,,2015-10-05,1,,,,,コシロナメガワアンソバクミアイ,0
1744,9080001009413,登記記録の閉鎖等,0,2022-08-23,2022-08-19,株式会社リック,,株式会社,静岡県,静岡市清水区,松原町３番１６号,,22,103,4240825,,,2022-08-19,清算の結了等,,,2015-10-05,1,,,,,リック,0
1746,9080105000557,登記記録の閉鎖等,0,2022-08-23,2022-08-19,医療法人社団クラール会,,その他の設立登記法人,静岡県,駿東郡長泉町,下土狩４４５番地の１５,,22,342,4110943,,,2022-08-19,清算の結了等,,,2015-10-05,1,,,,,クラールカイ,0
1750,9120001169277,登記記録の閉鎖等,0,2022-08-23,2022-08-18,株式会社トゥルージャスティスレヨン,,株式会社,大阪府,大阪市中央区,北久宝寺町４丁目３番１２号,,27,128,5410057,,,2022-08-18,清算の結了等,,,2015-10-05,1,,,,,,0
1753,9120002062828,登記記録の閉鎖等,0,2022-08-23,2022-08-15,有限会社関西レップ,,有限会社,大阪府,大阪市西区,立売堀２丁目５番４１号,,27,106,5500012,,,2022-08-15,清算の結了等,,,2015-10-05,1,,,,,カンサイレップ,0
1771,9140003000396,登記記録の閉鎖等,0,2022-08-23,2022-08-19,湊川土地合名会社,,合名会社,兵庫県,神戸市中央区,元町通３丁目１２番３号,,28,110,6500022,,,2022-08-19,清算の結了等,,,2015-10-05,1,,,,,ミナトガワトチ,0
1778,9180001009659,登記記録の閉鎖等,0,2022-08-23,2022-08-16,株式会社洋々,,株式会社,愛知県,名古屋市昭和区,鶴舞４丁目２番１０号,,23,107,4660064,,,2022-08-16,清算の結了等,,,2022-06-30,1,,,,,ヨウヨウ,0
1785,9180002035150,登記記録の閉鎖等,0,2022-08-23,2022-08-17,有限会社芳和,,有限会社,東京都,世田谷区,赤堤３丁目２番１７－３０４号,,13,112,1560044,,,2022-08-17,清算の結了等,,,2015-10-05,1,,,,,ホウワ,0
1797,9230002006534,登記記録の閉鎖等,0,2022-08-23,2022-08-22,有限会社マルトク,,有限会社,富山県,富山市,田畠２４０番地１６,,16,201,9301331,,,2022-08-22,清算の結了等,,,2015-10-05,1,,,,,,0
1820,9350002012248,登記記録の閉鎖等,0,2022-08-23,2022-08-18,武田住建有限会社,,有限会社,宮崎県,延岡市,野地町６丁目２０５１番地,,45,203,8820802,,,2022-08-18,清算の結了等,,,2015-10-05,1,,,,,タケダジュウケン,0
1824,9380001016924,登記記録の閉鎖等,0,2022-08-23,2022-08-12,浪江エアコンサービス株式会社,,株式会社,福島県,双葉郡浪江町,大字川添字中ノ目７２番地,,07,547,9791531,,,2022-08-12,清算の結了等,,,2015-10-05,1,,,,,ナミエエアコンサービス,0
1834,9430001041025,登記記録の閉鎖等,0,2022-08-23,2022-08-09,株式会社アクト・クリエーション,,株式会社,北海道,札幌市清田区,美しが丘五条６丁目３番１４号,,01,110,0040815,,,2022-08-09,清算の結了等,,,2015-10-05,1,,,,,アクトクリエーション,0
