sequenceNumber,corporateNumber,process,correct,updateDate,changeDate,name,nameImageId,kind,prefectureName,cityName,streetNumber,addressImageId,prefectureCode,cityCode,postCode,addressOutside,addressOutsideImageId,closeDate,closeCause,successorCorporateNumber,changeCause,assignmentDate,latest,enName,enPrefectureName,enCityName,enAddressOutside,furigana,hihyoji
5,1010001186638,登記記録の閉鎖等,0,2025-11-25,2025-11-19,ジーホールディングス株式会社,,株式会社,東京都,中央区,新川１丁目１番７号ＧＥＭＳ茅場町８階,,13,102,1040033,,,2025-11-19,合併による解散等,1130001046227,令和７年１０月１日京都市下京区中堂寺坊城町２８－５革命ビル株式会社京都勝牛（1130001046227）に合併し解散,2017-10-03,1,,,,,ジーホールディングス,0
17,1010401108976,登記記録の閉鎖等,0,2025-11-25,2025-11-14,株式会社坂井精肉店,,株式会社,埼玉県,さいたま市中央区,下落合６丁目１８番７号,,11,105,3380002,,,2025-11-14,合併による解散等,2470001012689,令和７年１０月３１日香川県三豊市詫間町詫間２１１２番地１４０サヌキ畜産フーズ株式会社（2470001012689）に合併し解散,2015-10-05,1,,,,,サカイセイニクテン,0
29,1010901030102,登記記録の閉鎖等,0,2025-11-25,2025-11-20,株式会社オザキ,,株式会社,東京都,世田谷区,深沢２丁目１２番１－４０１号,,13,112,1580081,,,2025-11-20,清算の結了等,,,2015-10-05,1,,,,,オザキ,0
47,1011301000991,登記記録の閉鎖等,0,2025-11-25,2025-11-18,永福建設株式会社,,株式会社,東京都,杉並区,桃井１丁目４番１５－５０３号,,13,115,1670034,,,2025-11-18,清算の結了等,,,2015-10-05,1,,,,,エイフクケンセツ,0
55,1012703003277,登記記録の閉鎖等,0,2025-11-25,2025-11-17,合同会社アールカンパニー,,合同会社,東京都,西東京市,西原町４丁目５番９７号,,13,229,1880004,,,2025-11-17,清算の結了等,,,2025-05-26,1,,,,,アールカンパニー,0
58,1013205001273,登記記録の閉鎖等,0,2025-11-25,2025-10-28,医療法人社団恵絢会,,その他の設立登記法人,東京都,目黒区,鷹番２丁目１９番１７号城南鷹番ビル３階,,13,110,1520004,,,2025-10-28,清算の結了等,,,2015-10-05,1,,,,,ケイジュンカイ,0
67,1020002028045,登記記録の閉鎖等,0,2025-11-25,2025-11-18,有限会社ヘアーサロンセト,,有限会社,神奈川県,横浜市神奈川区,大口通７８番地の２,,14,102,2210002,,,2025-11-18,清算の結了等,,,2015-10-05,1,,,,,ヘアーサロンセト,0
68,1020002102741,登記記録の閉鎖等,0,2025-11-25,2025-11-18,有限会社サイワイ・エステート,,有限会社,神奈川県,川崎市幸区,鹿島田１丁目１番５－１０５号－１,,14,132,2120058,,,2025-11-18,清算の結了等,,,2015-10-05,1,,,,,サイワイエステート,0
71,1021001049940,登記記録の閉鎖等,0,2025-11-25,2025-11-04,株式会社しょうなんＲＯＯＦ,,株式会社,神奈川県,茅ヶ崎市,十間坂２丁目５番２８－１０１号ベルメゾン湘南,,14,207,2530045,,,2025-11-04,清算の結了等,,,2015-10-05,1,,,,,,0
73,1021001070970,登記記録の閉鎖等,0,2025-11-25,2025-11-04,株式会社クレアーレ,,株式会社,神奈川県,伊勢原市,高森１１２２番地の１ロイヤルタウン高森Ｃ－３０２号,,14,214,2591114,,,2025-11-04,清算の結了等,,,2020-10-05,1,,,,,クレアーレ,0
86,1030002100414,登記記録の閉鎖等,0,2025-11-25,2025-11-18,有限会社伊沢製作所,,有限会社,埼玉県,川口市,領家４丁目３番７号,,11,203,3320004,,,2025-11-18,清算の結了等,,,2015-10-05,1,,,,,イザワセイサクショ,0
120,1120005012432,登記記録の閉鎖等,0,2025-11-25,2025-11-19,特定非営利活動法人ひとねっと,,その他の設立登記法人,大阪府,大阪市西淀川区,大野３丁目２番３８号,,27,113,5550043,,,2025-11-19,清算の結了等,,,2015-10-05,1,,,,,ヒトネット,0
124,1120901009597,登記記録の閉鎖等,0,2025-11-25,2025-11-07,摂津ボーリング工業株式会社,,株式会社,大阪府,摂津市,鳥飼上３丁目６番８号,,27,224,5660062,,,2025-11-07,清算の結了等,,,2015-10-05,1,,,,,セッツボーリングコウギョウ,0
137,1160001008067,登記記録の閉鎖等,0,2025-11-25,2025-11-19,ウエステイ工業株式会社,,株式会社,滋賀県,愛知郡愛荘町,市１１０番地,,25,425,5291313,,,2025-11-19,清算の結了等,,,2015-10-05,1,,,,,ウエステイコウギョウ,0
139,1170001015252,登記記録の閉鎖等,0,2025-11-25,2025-11-21,エネセレクト株式会社,,株式会社,和歌山県,和歌山市,西小二里２丁目１番４５号,,30,201,6410031,,,2025-11-21,清算の結了等,,,2018-07-05,1,,,,,エネセレクト,0
154,1200005001947,登記記録の閉鎖等,0,2025-11-25,2025-11-21,特定非営利活動法人ログハウスセルフビルド普及協会,,その他の設立登記法人,岐阜県,岐阜市,琴塚１丁目１番４０号,,21,201,5008222,,,2025-11-21,清算の結了等,,,2015-10-05,1,,,,,ログハウスセルフビルドフキュウキョウカイ,0
157,1220005006531,登記記録の閉鎖等,0,2025-11-25,2025-11-19,圓正寺,,その他の設立登記法人,石川県,輪島市,門前町池田９の４５甲番地,,17,204,9272354,,,2025-11-19,清算の結了等,,,2015-10-05,1,,,,,,0
162,1290005018636,登記記録の閉鎖等,0,2025-11-25,2025-10-29,一般社団法人シニアドリームプロジェクト,,その他の設立登記法人,福岡県,久留米市,荒木町藤田１４９５番地６,,40,203,8300064,,,2025-10-29,清算の結了等,,,2022-04-25,1,,,,,シニアドリームプロジェクト,0
166,1310001004793,登記記録の閉鎖等,0,2025-11-25,2025-11-20,株式会社エム企画,,株式会社,長崎県,長崎市,小江原３丁目７番８号,,42,201,8511132,,,2025-11-20,清算の結了等,,,2015-10-05,1,,,,,エムキカク,0
178,1350005005124,登記記録の閉鎖等,0,2025-11-25,2025-11-18,一般社団法人都城ミュージカルクラブ,,その他の設立登記法人,宮崎県,都城市,高城町大井手１２８１番地１,,45,202,8851203,,,2025-11-18,清算の結了等,,,2015-10-05,1,,,,,ミヤコノジョウミュージカルクラブ,0
188,1390001009827,登記記録の閉鎖等,0,2025-11-25,2025-11-20,株式会社キデン,,株式会社,山形県,米沢市,八幡原３丁目４４５２番地３２,,06,202,9921128,,,2025-11-20,清算の結了等,,,2015-10-05,1,,,,,キデン,0
217,2010001245392,登記記録の閉鎖等,0,2025-11-25,2025-11-07,株式会社Ｔａｎｇｅｎｔｓ,,株式会社,東京都,中央区,銀座７丁目１３番２１号銀座ｓｉｎｒｏｋｕｓｙｕビル２階,,13,102,1040061,,,2025-11-07,清算の結了等,,,2024-06-04,1,,,,,タンジェンツ,0
218,2010001247653,登記記録の閉鎖等,0,2025-11-25,2025-11-14,株式会社ニューパスウェイズ・キロ,,株式会社,東京都,豊島区,池袋２丁目５３－３スクエア２１－２０３,,13,116,1710014,,,2025-11-14,清算の結了等,,,2024-08-23,1,,,,,ニューパスウェイズキロ,0
221,2010002020217,登記記録の閉鎖等,0,2025-11-25,2025-11-11,有限会社佐野工業所,,有限会社,東京都,江東区,塩浜２丁目１１番１８号,,13,108,1350043,,,2025-11-11,清算の結了等,,,2015-10-05,1,,,,,サノコウギョウショ,0
224,2010401057586,登記記録の閉鎖等,0,2025-11-25,2025-10-31,株式会社アール・ドゥー,,株式会社,東京都,港区,南青山５丁目１７番２号,,13,103,1070062,,,2025-10-31,清算の結了等,,,2015-10-05,1,,,,,,0
226,2010401099587,登記記録の閉鎖等,0,2025-11-25,2025-11-19,バリューアップマネジメント株式会社,,株式会社,東京都,港区,港南３丁目７番１６－９０２号,,13,103,1080075,,,2025-11-19,合併による解散等,3011001095208,令和７年１１月１日東京都渋谷区神宮前六丁目２８番５号アルファブレーンコンサルティング株式会社（3011001095208）に合併し解散,2015-10-05,1,,,,,,0
227,2010401144855,登記記録の閉鎖等,0,2025-11-25,2025-10-31,株式会社ＦＡＮＴＥＲＩＡ,,株式会社,東京都,港区,南麻布５丁目４番２号,,13,103,1060047,,,2025-10-31,清算の結了等,,,2019-04-05,1,,,,,ファンテリア,0
244,2010503007290,登記記録の閉鎖等,0,2025-11-25,2025-11-17,柳恵キングハイツ合同会社,,合同会社,東京都,台東区,駒形１丁目７番６号,,13,106,1110043,,,2025-11-17,清算の結了等,,,2024-01-09,1,,,,,リュウケイキングハイツ,0
271,2011202004736,登記記録の閉鎖等,0,2025-11-25,2025-11-17,有限会社ハウスビルダーサトウ,,有限会社,東京都,中野区,南台３丁目４５番５号,,13,114,1640014,,,2025-11-17,清算の結了等,,,2015-10-05,1,,,,,,0
274,2011302010766,登記記録の閉鎖等,0,2025-11-25,2025-11-17,有限会社アトリエ・オム・リベラ,,有限会社,東京都,杉並区,方南１丁目３３番２４号,,13,115,1680062,,,2025-11-17,清算の結了等,,,2015-10-05,1,,,,,アトリエオムリベラ,0
277,2011602010879,登記記録の閉鎖等,0,2025-11-25,2025-11-18,有限会社リップス,,有限会社,埼玉県,入間市,豊岡１丁目１番１号１６２２,,11,225,3580003,,,2025-11-18,清算の結了等,,,2015-10-05,1,,,,,リップス,0
292,2013303004078,登記記録の閉鎖等,0,2025-11-25,2025-11-19,ラクル合同会社,,合同会社,東京都,目黒区,大岡山１丁目３７番３２号,,13,110,1520033,,,2025-11-19,合併による解散等,5010403018591,令和７年１０月２９日東京都港区浜松町二丁目２番１５号アリラック合同会社（5010403018591）に合併し解散,2018-03-08,1,,,,,ラクル,0
308,2020002101560,登記記録の閉鎖等,0,2025-11-25,2025-11-18,有限会社ケー・ツー・エム,,有限会社,神奈川県,川崎市宮前区,鷺沼１丁目１８番地１１ニューウェル７０２,,14,136,2160004,,,2025-11-18,清算の結了等,,,2015-10-05,1,,,,,ケーツーエム,0
314,2021002020271,登記記録の閉鎖等,0,2025-11-25,2025-11-06,有限会社サガミ空圧設備,,有限会社,神奈川県,相模原市中央区,田名７１８５番地,,14,152,2520244,,,2025-11-06,清算の結了等,,,2015-10-05,1,,,,,サガミクウアツセツビ,0
315,2021002020569,登記記録の閉鎖等,0,2025-11-25,2025-11-04,有限会社さがみ野ファーマシー,,有限会社,神奈川県,相模原市中央区,矢部３丁目４番６号,,14,152,2520232,,,2025-11-04,清算の結了等,,,2015-10-05,1,,,,,,0
318,2030001124792,登記記録の閉鎖等,0,2025-11-25,2025-11-17,株式会社モチモ,,株式会社,埼玉県,新座市,堀ノ内１丁目６番１１－５０７号,,11,230,3520023,,,2025-11-17,清算の結了等,,,2018-03-22,1,,,,,モチモ,0
325,2040002094448,登記記録の閉鎖等,0,2025-11-25,2025-10-21,有限会社ジーエム根本,,有限会社,千葉県,柏市,松ケ崎１２１番地,,12,217,2770835,,,2025-10-21,清算の結了等,,,2015-10-05,1,,,,,ジーエムネモト,0
328,2050001049996,登記記録の閉鎖等,0,2025-11-25,2025-11-14,株式会社ＡＲＩＳＥ,,株式会社,茨城県,常総市,大崎町１５７番地,,08,211,3030012,,,2025-11-14,清算の結了等,,,2021-10-15,1,,,,,アライズ,0
338,2090001006688,登記記録の閉鎖等,0,2025-11-25,2025-11-19,株式会社ネット１１０,,株式会社,山梨県,甲府市,酒折町１３３８番地２１９,,19,201,4000804,,,2025-11-19,清算の結了等,,,2015-10-05,1,,,,,ネットイチイチゼロ,0
372,2180001029382,登記記録の閉鎖等,0,2025-11-25,2025-11-19,株式会社井桁千製菓,,株式会社,愛知県,名古屋市中村区,十王町３番８号,,23,105,4530035,,,2025-11-19,清算の結了等,,,2015-10-05,1,,,,,イゲセンセイカ,0
391,2220001011716,登記記録の閉鎖等,0,2025-11-25,2025-11-18,アイワ印刷株式会社,,株式会社,石川県,小松市,旭町１９番地,,17,203,9230953,,,2025-11-18,清算の結了等,,,2015-10-05,1,,,,,アイワインサツ,0
394,2220002016185,登記記録の閉鎖等,0,2025-11-25,2025-11-19,有限会社北陸大門輸送,,有限会社,石川県,珠洲市,宝立町南黒丸５字６０番地１,,17,205,9271224,,,2025-11-19,清算の結了等,,,2015-10-05,1,,,,,ホクリクダイモンユソウ,0
412,2290005002424,登記記録の閉鎖等,0,2025-11-25,2025-11-18,福岡中央米穀商協同組合,,その他の設立登記法人,福岡県,福岡市中央区,今泉２丁目４番２４－７０３号,,40,133,8100021,,,2025-11-18,清算の結了等,,,2015-10-05,1,,,,,フクオカチュウオウベイコクショウ,0
415,2290801025058,登記記録の閉鎖等,0,2025-11-25,2025-11-12,株式会社九北,,株式会社,福岡県,北九州市若松区,二島１丁目２番２６－５０５号,,40,103,8080103,,,2025-11-12,清算の結了等,,,2018-11-01,1,,,,,キュウホク,0
419,2300002000899,登記記録の閉鎖等,0,2025-11-25,2025-11-20,有限会社高木瀬賃貸倉庫,,有限会社,佐賀県,佐賀市,高木瀬町大字長瀬１７５０番地,,41,201,8490917,,,2025-11-20,清算の結了等,,,2015-10-05,1,,,,,タカキセチンタイソウコ,0
425,2330001025234,登記記録の閉鎖等,0,2025-11-25,2025-11-17,株式会社村上商店,,株式会社,熊本県,八代市,泉町下岳１２８３番地１,,43,202,8694403,,,2025-11-17,清算の結了等,,,2018-04-17,1,,,,,ムラカミショウテン,0
432,2360002018044,登記記録の閉鎖等,0,2025-11-25,2025-11-19,有限会社国吉電設,,有限会社,沖縄県,宜野湾市,大謝名３丁目５番２０号,,47,205,9012225,,,2025-11-19,清算の結了等,,,2015-10-05,1,,,,,クニヨシデンセツ,0
447,2430001059206,登記記録の閉鎖等,0,2025-11-25,2025-11-21,株式会社クリエイト・アクト,,株式会社,北海道,札幌市豊平区,平岸三条１８丁目４番１０－４０１号,,01,105,0620933,,,2025-11-21,清算の結了等,,,2015-10-05,1,,,,,クリエイトアクト,0
452,2430002032005,登記記録の閉鎖等,0,2025-11-25,2025-11-18,有限会社ピュアフーズ,,有限会社,北海道,札幌市北区,新川五条３丁目３番１８－５０１号,,01,102,0010925,,,2025-11-18,清算の結了等,,,2015-10-05,1,,,,,ピュアフーズ,0
461,3010001198326,登記記録の閉鎖等,0,2025-11-25,2025-11-11,株式会社ネクストエムズ,,株式会社,東京都,千代田区,岩本町２丁目１番８号エヌエービル２階,,13,101,1010032,,,2025-11-11,清算の結了等,,,2019-02-07,1,,,,,ネクストエムズ,0
475,3010005032935,登記記録の閉鎖等,0,2025-11-25,2025-11-20,千葉稲毛特定目的会社,,その他の設立登記法人,東京都,千代田区,平河町１丁目６番１５号シルスフィア会計事務所内,,13,101,1020093,,,2025-11-20,清算の結了等,,,2021-02-12,1,,,,,チバイナゲ,0
476,3010005036226,登記記録の閉鎖等,0,2025-11-25,2025-11-20,一般社団法人Ｃｒｙｐｔｏ,,その他の設立登記法人,東京都,中央区,日本橋兜町５番１号兜町第１平和ビル７階,,13,102,1030026,,,2025-11-20,清算の結了等,,,2023-02-06,1,,,,,クリプト,0
480,3010101001091,登記記録の閉鎖等,0,2025-11-25,2025-11-21,株式会社桑原工業所,,株式会社,東京都,八王子市,下恩方町７７８番地,,13,201,1920154,,,2025-11-21,清算の結了等,,,2015-10-05,1,,,,,クワハラコウギョウショ,0
483,3010401137882,登記記録の閉鎖等,0,2025-11-25,2025-11-06,株式会社Ｍｏｖｉｎｇ　Ｉｎｎ,,株式会社,東京都,港区,北青山２丁目５番８号,,13,103,1070061,,,2025-11-06,合併による解散等,9010401026527,令和７年１１月１日東京都港区北青山二丁目５番８号フレックス株式会社（9010401026527）に合併し解散,2018-04-19,1,,,,,ムービングイン,0
497,3010403026662,登記記録の閉鎖等,0,2025-11-25,2025-10-30,マウスファンディング合同会社,,合同会社,東京都,港区,虎ノ門３丁目２２番１０－２０１号,,13,103,1050001,,,2025-10-30,清算の結了等,,,2021-12-06,1,,,,,マウスファンディング,0
499,3010403029847,登記記録の閉鎖等,0,2025-11-25,2025-11-11,合同会社コースカ,,合同会社,東京都,千代田区,丸の内１丁目４番１号東京共同会計事務所内,,13,101,1000005,,,2025-11-11,清算の結了等,,,2023-04-10,1,,,,,コースカ,0
506,3010602019681,登記記録の閉鎖等,0,2025-11-25,2025-11-17,有限会社トップ,,有限会社,東京都,墨田区,両国４丁目６番９号,,13,107,1300026,,,2025-11-17,清算の結了等,,,2015-10-05,1,,,,,,0
545,3013101006671,登記記録の閉鎖等,0,2025-11-25,2025-11-21,株式会社ライカ,,株式会社,東京都,あきる野市,野辺３０２番地１,,13,228,1970823,,,2025-11-21,清算の結了等,,,2015-10-05,1,,,,,,0
548,3013301027798,登記記録の閉鎖等,0,2025-11-25,2025-11-12,株式会社ＮＨ通商,,株式会社,東京都,豊島区,池袋３丁目３番１５号,,13,116,1710014,,,2025-11-12,清算の結了等,,,2015-10-05,1,,,,,エヌエイチツウショウ,0
552,3013303004085,登記記録の閉鎖等,0,2025-11-25,2025-11-19,シフト合同会社,,合同会社,東京都,目黒区,大岡山１丁目３７番３２号,,13,110,1520033,,,2025-11-19,合併による解散等,5010403018591,令和７年１０月２９日東京都港区浜松町二丁目２番１５号アリラック合同会社（5010403018591）に合併し解散,2018-03-15,1,,,,,シフト,0
556,3020001019159,登記記録の閉鎖等,0,2025-11-25,2025-10-30,横浜架設株式会社,,株式会社,神奈川県,横浜市鶴見区,矢向１丁目２０番４０－５１４号,,14,101,2300001,,,2025-10-30,清算の結了等,,,2015-10-05,1,,,,,ヨコハマカセツ,0
560,3020001136367,登記記録の閉鎖等,0,2025-11-25,2025-10-31,株式会社Ｓｍａｒｔ　Ｓｔａｒｔｕｐ　Ｓｙｓｔｅｍｓ,,株式会社,東京都,港区,麻布十番１丁目２番７号ラフィネ麻布十番７０１号室,,13,103,1060045,,,2025-10-31,清算の結了等,,,2020-06-05,1,,,,,スマートスタートアップシステムズ,0
569,3021001066158,登記記録の閉鎖等,0,2025-11-25,2025-11-05,株式会社メディサポ,,株式会社,神奈川県,鎌倉市,手広４丁目３８番２２号,,14,204,2480036,,,2025-11-05,清算の結了等,,,2018-12-06,1,,,,,メディサポ,0
585,3040001079614,登記記録の閉鎖等,0,2025-11-25,2025-10-29,株式会社シルクウェーブ,,株式会社,千葉県,野田市,山崎２７０２番地の１０８,,12,208,2780022,,,2025-10-29,清算の結了等,,,2015-10-05,1,,,,,シルクウェーブ,0
591,3040002085396,登記記録の閉鎖等,0,2025-11-25,2025-10-27,有限会社カイケンホクユー,,有限会社,千葉県,銚子市,川口町２丁目６５２８番地の１０１,,12,202,2880001,,,2025-10-27,清算の結了等,,,2015-10-05,1,,,,,カイケンホクユー,0
592,3040002096939,登記記録の閉鎖等,0,2025-11-25,2025-10-17,有限会社惠友,,有限会社,千葉県,野田市,三ツ堀１３７６番地の８,,12,208,2780011,,,2025-10-17,清算の結了等,,,2015-10-05,1,,,,,ケイユウ,0
609,3070002028765,登記記録の閉鎖等,0,2025-11-25,2025-11-19,有限会社川島石油,,有限会社,群馬県,邑楽郡邑楽町,大字中野３５１３番地の７,,10,525,3700603,,,2025-11-19,清算の結了等,,,2015-10-05,1,,,,,カワシマセキユ,0
611,3070005008129,登記記録の閉鎖等,0,2025-11-25,2025-11-18,特定非営利活動法人元気の郷,,その他の設立登記法人,群馬県,渋川市,北橘町八崎７４４番地１,,10,208,3770064,,,2025-11-18,清算の結了等,,,2015-10-05,1,,,,,ゲンキノサト,0
613,3080401002923,登記記録の閉鎖等,0,2025-11-25,2025-11-14,株式会社第二週刊テレビ,,株式会社,静岡県,浜松市中央区,有玉南町１７５８番地の１,,22,138,4313122,,,2025-11-14,清算の結了等,,,2015-10-05,1,,,,,ダイニシュウカンテレビ,0
615,3110001030957,登記記録の閉鎖等,0,2025-11-25,2025-11-20,ジョイフルクリエイト株式会社,,株式会社,新潟県,新発田市,西園町１丁目３番１０号,,15,206,9570058,,,2025-11-20,清算の結了等,,,2015-10-05,1,,,,,ジョイフルクリエイト,0
634,3120903005691,登記記録の閉鎖等,0,2025-11-25,2025-11-14,ｔｅｔｏｔｅ合同会社,,合同会社,大阪府,豊中市,北緑丘２丁目１番９―１０１,,27,203,5600001,,,2025-11-14,清算の結了等,,,2025-05-27,1,,,,,テトテ,0
638,3130001012144,登記記録の閉鎖等,0,2025-11-25,2025-11-20,京都省力化機器株式会社,,株式会社,京都府,京都市下京区,西七条西八反田町１４１－１,,26,106,6008892,,,2025-11-20,清算の結了等,,,2015-10-05,1,,,,,キョウトショウリョクカキキ,0
651,3150001015772,登記記録の閉鎖等,0,2025-11-25,2025-11-19,株式会社タナカコーポレーション,,株式会社,奈良県,五條市,大野新田町２４３番地,,29,207,6370015,,,2025-11-19,清算の結了等,,,2015-10-05,1,,,,,タナカコーポレーション,0
652,3150002004287,登記記録の閉鎖等,0,2025-11-25,2025-11-20,有限会社中畑造園,,有限会社,奈良県,生駒市,北田原町２０８９番地,,29,209,6300142,,,2025-11-20,清算の結了等,,,2015-10-05,1,,,,,ナカハタゾウエン,0
655,3160003002223,登記記録の閉鎖等,0,2025-11-25,2025-11-19,合同会社ほほえみ,,合同会社,滋賀県,甲賀市,甲賀町高嶺８８８番地１,,25,209,5203424,,,2025-11-19,清算の結了等,,,2021-02-17,1,,,,,ホホエミ,0
662,3180001060923,登記記録の閉鎖等,0,2025-11-25,2025-11-17,株式会社セントラルネオ,,株式会社,愛知県,名古屋市北区,駒止町２丁目６９番地３,,23,103,4620059,,,2025-11-17,清算の結了等,,,2015-10-05,1,,,,,,0
677,3220001025896,登記記録の閉鎖等,0,2025-11-25,2025-11-20,株式会社ハウスマン,,株式会社,石川県,七尾市,田鶴浜町に部３７番地,,17,202,9292121,,,2025-11-20,清算の結了等,,,2024-04-24,1,,,,,ハウスマン,0
696,3290002036630,登記記録の閉鎖等,0,2025-11-25,2025-11-12,有限会社タカキデンソー,,有限会社,福岡県,糟屋郡粕屋町,大字大隈字唐臼４２番１,,40,349,8112302,,,2025-11-12,清算の結了等,,,2015-10-05,1,,,,,タカキデンソー,0
717,3360002007698,登記記録の閉鎖等,0,2025-11-25,2025-11-20,三ツ星商事有限会社,,有限会社,沖縄県,那覇市,曙１丁目２番５号１階１－Ａ号室,,47,201,9000002,,,2025-11-20,清算の結了等,,,2015-10-05,1,,,,,ミツボシショウジ,0
734,3430001075838,登記記録の閉鎖等,0,2025-11-25,2025-11-20,株式会社ＢＵＩＬＤ　ＬＩＮＫ,,株式会社,北海道,札幌市北区,新琴似三条２丁目５番１８号１Ｆ,,01,102,0010903,,,2025-11-20,清算の結了等,,,2018-02-05,1,,,,,ビルドリンク,0
739,3430002057711,登記記録の閉鎖等,0,2025-11-25,2025-11-13,有限会社丸治田中漁業,,有限会社,北海道,岩内郡岩内町,字敷島内６７番地,,01,402,0450025,,,2025-11-13,清算の結了等,,,2015-10-05,1,,,,,マルジタナカギョギョウ,0
759,4010401009560,登記記録の閉鎖等,0,2025-11-25,2025-10-30,株式会社コーエーエレクトロニクス,,株式会社,東京都,港区,高輪１丁目８番６号,,13,103,1080074,,,2025-10-30,清算の結了等,,,2015-10-05,1,,,,,コーエーエレクトロニクス,0
780,4010601025143,登記記録の閉鎖等,0,2025-11-25,2025-11-14,株式会社ワールド・ツー,,株式会社,東京都,江東区,福住２丁目８番１２号,,13,108,1350032,,,2025-11-14,清算の結了等,,,2015-10-05,1,,,,,ワールドツー,0
787,4010701023575,登記記録の閉鎖等,0,2025-11-25,2025-11-17,株式会社粋彩庵,,株式会社,東京都,品川区,東大井２丁目２７番２２号,,13,109,1400011,,,2025-11-17,清算の結了等,,,2015-10-05,1,,,,,スイサイアン,0
788,4010802012122,登記記録の閉鎖等,0,2025-11-25,2025-11-17,有限会社ビルドアップ,,有限会社,東京都,大田区,多摩川１丁目３２番４号,,13,111,1460095,,,2025-11-17,清算の結了等,,,2015-10-05,1,,,,,ビルドアップ,0
790,4010903004902,登記記録の閉鎖等,0,2025-11-25,2025-11-19,カノン合同会社,,合同会社,東京都,世田谷区,玉川田園調布１丁目５番６号,,13,112,1580085,,,2025-11-19,合併による解散等,5010403018591,令和７年１０月２９日東京都港区浜松町二丁目２番１５号アリラック合同会社（5010403018591）に合併し解散,2019-04-17,1,,,,,カノン,0
798,4011101044930,登記記録の閉鎖等,0,2025-11-25,2025-11-18,株式会社タウン企画,,株式会社,埼玉県,さいたま市緑区,美園４丁目１番地２センターフィールド浦和美園弐番街１４０４,,11,109,3360967,,,2025-11-18,清算の結了等,,,2015-10-05,1,,,,,タウンキカク,0
810,4011801028027,登記記録の閉鎖等,0,2025-11-25,2025-11-18,株式会社イデビュホールディングス,,株式会社,東京都,足立区,西新井５丁目６番７号,,13,121,1230841,,,2025-11-18,清算の結了等,,,2015-10-05,1,,,,,,0
838,4021002071346,登記記録の閉鎖等,0,2025-11-25,2025-11-04,有限会社大山洋品店,,有限会社,神奈川県,三浦市,三崎２丁目２番７号,,14,210,2380243,,,2025-11-04,清算の結了等,,,2015-10-05,1,,,,,オオヤマヨウヒンテン,0
843,4030001127174,登記記録の閉鎖等,0,2025-11-25,2025-11-17,アーキハウス株式会社,,株式会社,埼玉県,鶴ヶ島市,大字鶴ヶ丘８１番地１鶴ヶ島駅通りダイカンプラザ０１０１号,,11,241,3502204,,,2025-11-17,清算の結了等,,,2018-08-29,1,,,,,アーキハウス,0
851,4030003017027,登記記録の閉鎖等,0,2025-11-25,2025-11-17,リンクアシスタンス合同会社,,合同会社,埼玉県,さいたま市岩槻区,南平野４丁目８番１号,,11,110,3390051,,,2025-11-17,清算の結了等,,,2021-04-08,1,,,,,リンクアシスタンス,0
853,4040001073533,登記記録の閉鎖等,0,2025-11-25,2025-10-28,株式会社村田瓦店,,株式会社,千葉県,袖ケ浦市,坂戸市場１７４１番地７,,12,229,2990262,,,2025-10-28,清算の結了等,,,2015-10-05,1,,,,,ムラタカワラテン,0
861,4040002081725,登記記録の閉鎖等,0,2025-11-25,2025-10-23,六ツ野倉庫有限会社,,有限会社,千葉県,茂原市,六ツ野北高根飛地字風袋台３１９７番地の３,,12,210,2970012,,,2025-10-23,清算の結了等,,,2015-10-05,1,,,,,ムツノソウコ,0
915,4140001039037,登記記録の閉鎖等,0,2025-11-25,2025-11-19,株式会社下村測量設計事務所,,株式会社,兵庫県,宍粟市,山崎町須賀澤１１７番地の１,,28,227,6712500,,,2025-11-19,清算の結了等,,,2015-10-05,1,,,,,シモムラソクリョウセッケイジムショ,0
927,4180001052548,登記記録の閉鎖等,0,2025-11-25,2025-11-17,株式会社インドやフード,,株式会社,愛知県,名古屋市守山区,廿軒家３番１９号,,23,113,4630065,,,2025-11-17,清算の結了等,,,2015-10-05,1,,,,,,0
978,4430005013405,登記記録の閉鎖等,0,2025-11-25,2025-11-19,一般社団法人支援ボランティア団体ぽっけ,,その他の設立登記法人,北海道,滝川市,北滝の川１１９８番地１９,,01,225,0730001,,,2025-11-19,清算の結了等,,,2018-05-09,1,,,,,シエンボランティアダンタイポッケ,0
982,5010001013771,登記記録の閉鎖等,0,2025-11-25,2025-11-11,関東東映ビデオ販売株式会社,,株式会社,東京都,千代田区,岩本町２丁目１番８号,,13,101,1010032,,,2025-11-11,清算の結了等,,,2015-10-05,1,,,,,カントウトウエイビデオハンバイ,0
1007,5010101003037,登記記録の閉鎖等,0,2025-11-25,2025-11-20,株式会社布屋,,株式会社,東京都,八王子市,旭町７番７号,,13,201,1920083,,,2025-11-20,清算の結了等,,,2015-10-05,1,,,,,ヌノヤ,0
1011,5010401090270,登記記録の閉鎖等,0,2025-11-25,2025-11-04,株式会社ピーバイピー,,株式会社,神奈川県,三浦郡葉山町,一色１３７２,,14,301,2400111,,,2025-11-04,清算の結了等,,,2015-10-05,1,,,,,ピーバイピー,0
1012,5010401098396,登記記録の閉鎖等,0,2025-11-25,2025-10-30,汐留エステート株式会社,,株式会社,東京都,港区,海岸１丁目７番１号,,13,103,1050022,,,2025-10-30,清算の結了等,,,2015-10-05,1,,,,,シオドメエステート,0
1015,5010401146502,登記記録の閉鎖等,0,2025-11-25,2025-10-31,ジュピターパートナーズ株式会社,,株式会社,東京都,港区,六本木１丁目９番１０号アークヒルズ仙石山森タワー２５階,,13,103,1060032,,,2025-10-31,清算の結了等,,,2019-07-01,1,,,,,ジュピターパートナーズ,0
1017,5010401186242,登記記録の閉鎖等,0,2025-11-25,2025-10-31,株式会社パワープレート・ジャパン,,株式会社,東京都,港区,虎ノ門４丁目１番１３号プライムテラス神谷町７階,,13,103,1050001,,,2025-10-31,清算の結了等,,,2024-11-13,1,,,,,パワープレートジャパン,0
1023,5010501031711,登記記録の閉鎖等,0,2025-11-25,2025-11-21,株式会社ｔｓｂｍ,,株式会社,東京都,多摩市,落合１丁目１５番地２,,13,224,2060033,,,2025-11-21,清算の結了等,,,2015-10-05,1,,,,,ティーエスビーエム,0
1025,5010502019680,登記記録の閉鎖等,0,2025-11-25,2025-11-17,有限会社Ｇコーポレーション,,有限会社,東京都,台東区,東上野３丁目１６番３号,,13,106,1100015,,,2025-11-17,清算の結了等,,,2015-10-05,1,,,,,,0
1033,5010601059223,登記記録の閉鎖等,0,2025-11-25,2025-11-17,株式会社ｏｐｔｉｍＡＺ,,株式会社,東京都,台東区,竜泉１丁目１０番３号,,13,106,1100012,,,2025-11-17,清算の結了等,,,2021-04-27,1,,,,,オプティマズ,0
1057,5011101106812,登記記録の閉鎖等,0,2025-11-25,2025-10-08,株式会社ＬＤＸ,,株式会社,東京都,新宿区,西新宿６丁目３番１号,,13,104,1600023,,,2025-10-08,合併による解散等,1011001126724,令和７年１０月１日東京都新宿区西新宿六丁目３番１号株式会社キタムラ・ホールディングス（1011001126724）に合併し解散,2024-04-05,1,,,,,エルディーエックス,0
1074,5013301027771,登記記録の閉鎖等,0,2025-11-25,2025-11-19,株式会社ナガデフ,,株式会社,北海道,札幌市豊平区,豊平三条１１丁目２－１－１０１,,01,105,0620903,,,2025-11-19,清算の結了等,,,2015-10-05,1,,,,,ナガデフ,0
1092,5021001072492,登記記録の閉鎖等,0,2025-11-25,2025-11-04,株式会社堀翔,,株式会社,神奈川県,横須賀市,衣笠町３６番３号アミティ衣笠Ａ２０１,,14,201,2380025,,,2025-11-04,清算の結了等,,,2021-03-30,1,,,,,ホリショウ,0
1096,5030001036250,登記記録の閉鎖等,0,2025-11-25,2025-11-18,日光精機株式会社,,株式会社,埼玉県,八潮市,大字木曽根５１４番地２,,11,234,3400813,,,2025-11-18,合併による解散等,3011401007209,令和７年１１月１日茨城県稲敷郡阿見町福田８４番地１日本メカニック株式会社（3011401007209）に合併し解散,2015-10-05,1,,,,,ニッコウセイキ,0
1107,5030002028932,登記記録の閉鎖等,0,2025-11-25,2025-11-18,有限会社吉方,,有限会社,埼玉県,所沢市,緑町４丁目８番１５号,,11,208,3591111,,,2025-11-18,清算の結了等,,,2015-10-05,1,,,,,キッポウ,0
1122,5050001048905,登記記録の閉鎖等,0,2025-11-25,2025-11-14,株式会社どうみき,,株式会社,茨城県,行方市,羽生１５６番地１,,08,233,3113507,,,2025-11-14,清算の結了等,,,2021-03-22,1,,,,,ドウミキ,0
1138,5110005014814,登記記録の閉鎖等,0,2025-11-25,2025-11-21,一般社団法人新潟県調理師会,,その他の設立登記法人,新潟県,新潟市西区,真砂２丁目１０番４号,,15,107,9502074,,,2025-11-21,清算の結了等,,,2015-10-05,1,,,,,ニイガタケンチョウリシカイ,0
1156,5122001017361,登記記録の閉鎖等,0,2025-11-25,2025-11-04,株式会社ビスト,,株式会社,大阪府,大東市,新田旭町３番５号,,27,218,5740053,,,2025-11-04,合併による解散等,4122002011538,令和７年１１月１日大阪府大東市北条一丁目５番３２号株式会社ビスト・ワン（4122002011538）に合併し解散,2015-10-05,1,,,,,ビスト,0
1179,5180002014430,登記記録の閉鎖等,0,2025-11-25,2025-11-17,有限会社南部鈑金工業所,,有限会社,愛知県,名古屋市南区,砂口町２２２番地,,23,112,4570054,,,2025-11-17,清算の結了等,,,2015-10-05,1,,,,,ナンブバンキンコウギョウショ,0
1181,5180301016499,登記記録の閉鎖等,0,2025-11-25,2025-11-19,株式会社ＯＨＡＮＡ,,株式会社,愛知県,刈谷市,桜町１丁目５３番地,,23,210,4480028,,,2025-11-19,合併による解散等,1130001046227,令和７年１０月１日京都市下京区中堂寺坊城町２８－５革命ビル株式会社京都勝牛（1130001046227）に合併し解散,2015-10-05,1,,,,,オハナ,0
1187,5200002002449,登記記録の閉鎖等,0,2025-11-25,2025-11-19,有限会社鈴木工業リカーショップ,,有限会社,岐阜県,岐阜市,大宝町２丁目７番地,,21,201,5008851,,,2025-11-19,清算の結了等,,,2015-10-05,1,,,,,スズキコウギョウリカーショップ,0
1216,5300003001092,登記記録の閉鎖等,0,2025-11-25,2025-11-20,ＨＫＭＣｏ．合同会社,,合同会社,佐賀県,唐津市,双水２６４２番地１４,,41,202,8470001,,,2025-11-20,清算の結了等,,,2015-10-05,1,,,,,エイチケイエムシーオー,0
1241,5490005001650,登記記録の閉鎖等,0,2025-11-25,2025-11-20,高知県竹資源事業協同組合,,その他の設立登記法人,高知県,高知市,北新田町１９番２１号,,39,201,7818003,,,2025-11-20,清算の結了等,,,2015-10-05,1,,,,,コウチケンタケシゲン,0
1242,5500001011494,登記記録の閉鎖等,0,2025-11-25,2025-11-21,蔵敷印刷株式会社,,株式会社,愛媛県,今治市,黄金町４丁目４番地１９,,38,202,7940037,,,2025-11-21,清算の結了等,,,2015-10-05,1,,,,,,0
1257,6010401097488,登記記録の閉鎖等,0,2025-11-25,2025-10-30,株式会社ＡＫ　ｄｉｒｅｃｔｉｏｎ,,株式会社,東京都,港区,六本木６丁目１２番４号六本木ヒルズレジデンス８１４号,,13,103,1060032,,,2025-10-30,清算の結了等,,,2015-10-05,1,,,,,エーケーディレクション,0
1280,6010403019671,登記記録の閉鎖等,0,2025-11-25,2025-10-31,合同会社ＢＲＤ１,,合同会社,東京都,港区,赤坂４丁目２番６号アクタス税理士法人内,,13,103,1070052,,,2025-10-31,清算の結了等,,,2018-11-15,1,,,,,ビーアールディーワン,0
1305,6011001125960,登記記録の閉鎖等,0,2025-11-25,2025-11-19,株式会社ベター,,株式会社,東京都,目黒区,目黒３丁目４番３号,,13,110,1530063,,,2025-11-19,合併による解散等,6020001060119,令和７年１０月３１日横浜市栄区公田町１５４２番地３株式会社エムエスエヌ（6020001060119）に合併し解散,2019-01-09,1,,,,,ベター,0
1309,6011003018849,登記記録の閉鎖等,0,2025-11-25,2025-10-24,合同会社ＲＩＣＥ,,合同会社,東京都,渋谷区,代々木１丁目５７－２ドルミ代々木１２０４,,13,113,1510053,,,2025-10-24,清算の結了等,,,2024-04-03,1,,,,,ライス,0
1325,6012802007827,登記記録の閉鎖等,0,2025-11-25,2025-11-17,有限会社ベストキャリーサービス,,有限会社,東京都,東村山市,野口町１丁目２３－２３,,13,213,1890022,,,2025-11-17,清算の結了等,,,2015-10-05,1,,,,,ベストキャリーサービス,0
1326,6013201015231,登記記録の閉鎖等,0,2025-11-25,2025-10-20,株式会社リーディング,,株式会社,東京都,港区,六本木７丁目２１番２１号,,13,103,1060032,,,2025-10-20,清算の結了等,,,2015-10-05,1,,,,,リーディング,0
1338,6020002086278,登記記録の閉鎖等,0,2025-11-25,2025-11-14,有限会社クリシー,,有限会社,神奈川県,川崎市宮前区,馬絹三丁目５番３３号,,14,136,2160035,,,2025-11-14,清算の結了等,,,2015-10-05,1,,,,,クリシー,0
1341,6020005001234,登記記録の閉鎖等,0,2025-11-25,2025-11-14,一般社団法人神奈川中国帰国者福祉援護協会,,その他の設立登記法人,神奈川県,横浜市中区,吉田町５番地４第６吉田ビル３－Ｂ,,14,104,2310041,,,2025-11-14,清算の結了等,,,2015-10-05,1,,,,,カナガワチュウゴクキコクシャフクシエンゴキョウカイ,0
1345,6021001056899,登記記録の閉鎖等,0,2025-11-25,2025-11-06,株式会社Ｒｉｓｉｎｇ　Ｓｈｉｎｅ,,株式会社,神奈川県,厚木市,飯山南２丁目１３番２６号,,14,212,2430218,,,2025-11-06,清算の結了等,,,2015-10-05,1,,,,,ライジングシャイン,0
1350,6021002070643,登記記録の閉鎖等,0,2025-11-25,2025-11-04,有限会社オフィス・シノハラ,,有限会社,神奈川県,逗子市,池子３丁目２番７号,,14,208,2490003,,,2025-11-04,清算の結了等,,,2015-10-05,1,,,,,,0
1352,6021003015639,登記記録の閉鎖等,0,2025-11-25,2025-11-04,合同会社岩本理容,,合同会社,神奈川県,足柄下郡湯河原町,土肥５丁目２‐２７,,14,384,2590303,,,2025-11-04,清算の結了等,,,2025-03-04,1,,,,,イワモトリヨウ,0
1359,6030002009386,登記記録の閉鎖等,0,2025-11-25,2025-11-18,有限会社東光ゴム製作所,,有限会社,埼玉県,さいたま市桜区,栄和６丁目９番７号,,11,106,3380823,,,2025-11-18,清算の結了等,,,2015-10-05,1,,,,,トウコウゴム,0
1370,6040001091748,登記記録の閉鎖等,0,2025-11-25,2025-10-23,台東建物管理株式会社,,株式会社,千葉県,流山市,おおたかの森南１丁目６番地の１シティハウスおおたかの森９０２,,12,220,2700139,,,2025-10-23,清算の結了等,,,2015-10-05,1,,,,,ダイトウタテモノカンリ,0
1383,6070002008921,登記記録の閉鎖等,0,2025-11-25,2025-11-19,有限会社慧鴻土地開発,,有限会社,群馬県,高崎市,倉賀野町甲１５７４番地,,10,202,3701201,,,2025-11-19,清算の結了等,,,2015-10-05,1,,,,,エイコウトチカイハツ,0
1390,6100001007805,登記記録の閉鎖等,0,2025-11-25,2025-11-18,株式会社エース,,株式会社,長野県,北佐久郡立科町,大字芦田１８７３番地１,,20,324,3842305,,,2025-11-18,清算の結了等,,,2015-10-05,1,,,,,エース,0
1394,6110001022852,登記記録の閉鎖等,0,2025-11-25,2025-11-10,株式会社田丸,,株式会社,新潟県,長岡市,東高見１丁目１番６号,,15,202,9400006,,,2025-11-10,清算の結了等,,,2015-10-05,1,,,,,タマル,0
1395,6110001024155,登記記録の閉鎖等,0,2025-11-25,2025-11-14,株式会社アクト,,株式会社,新潟県,長岡市,江陽２丁目１４番２号,,15,202,9402015,,,2025-11-14,清算の結了等,,,2015-10-05,1,,,,,アクト,0
1400,6120001146213,登記記録の閉鎖等,0,2025-11-25,2025-11-20,株式会社ユニティー,,株式会社,大阪府,大阪市天王寺区,清水谷町１９番１０号,,27,109,5430011,,,2025-11-20,清算の結了等,,,2015-10-05,1,,,,,ユニティー,0
1410,6120002020549,登記記録の閉鎖等,0,2025-11-25,2025-11-13,有限会社弘田興業,,有限会社,大阪府,大阪市中央区,北浜２丁目３番１０号,,27,128,5410041,,,2025-11-13,清算の結了等,,,2015-10-05,1,,,,,ヒロタコウギョウ,0
1414,6120101062062,登記記録の閉鎖等,0,2025-11-25,2025-11-13,株式会社ＴＯＩＲＯＹＡ,,株式会社,大阪府,堺市中区,楢葉１４９番地１,,27,142,5998252,,,2025-11-13,清算の結了等,,,2020-07-28,1,,,,,トイロヤ,0
1428,6140002065261,登記記録の閉鎖等,0,2025-11-25,2025-11-19,有限会社アキエンジニアリング,,有限会社,兵庫県,川辺郡猪名川町,白金３丁目６番地５,,28,301,6660257,,,2025-11-19,清算の結了等,,,2015-10-05,1,,,,,アキエンジニアリング,0
1436,6180001017524,登記記録の閉鎖等,0,2025-11-25,2025-11-18,東海製薬株式会社,,株式会社,愛知県,名古屋市中川区,江松１丁目１０５番地,,23,110,4540954,,,2025-11-18,清算の結了等,,,2015-10-05,1,,,,,トウカイセイヤク,0
1441,6180001102103,登記記録の閉鎖等,0,2025-11-25,2025-11-17,株式会社菊八重会,,株式会社,愛知県,丹羽郡大口町,外坪１丁目１８８番地,,23,361,4800125,,,2025-11-17,清算の結了等,,,2015-10-05,1,,,,,,0
1450,6180002021896,登記記録の閉鎖等,0,2025-11-25,2025-11-19,友田工業有限会社,,有限会社,愛知県,名古屋市天白区,梅が丘４丁目１７０７番地,,23,116,4680004,,,2025-11-19,清算の結了等,,,2015-10-05,1,,,,,トモダコウギョウ,0
1459,6200002011903,登記記録の閉鎖等,0,2025-11-25,2025-11-19,有限会社アポロ,,有限会社,岐阜県,羽島郡笠松町,美笠通２丁目５番地,,21,303,5016088,,,2025-11-19,清算の結了等,,,2015-10-05,1,,,,,アポロ,0
1465,6240002045914,登記記録の閉鎖等,0,2025-11-25,2025-11-18,有限会社ザ・ブレイク,,有限会社,広島県,福山市,沼隈町大字常石１８３２番地,,34,207,7200313,,,2025-11-18,清算の結了等,,,2015-10-05,1,,,,,ザブレイク,0
1467,6250002007616,登記記録の閉鎖等,0,2025-11-25,2025-11-20,有限会社エコパーク,,有限会社,山口県,宇部市,大字西岐波１４６５番地,,35,202,7550151,,,2025-11-20,清算の結了等,,,2015-10-05,1,,,,,エコパーク,0
1472,6260001028926,登記記録の閉鎖等,0,2025-11-25,2025-11-17,株式会社Ｎｅｘｔ　Ｐｅａｃｅ,,株式会社,岡山県,津山市,山北６３０番地２,,33,203,7080004,,,2025-11-17,清算の結了等,,,2015-11-02,1,,,,,ネクストピース,0
1488,6290003016001,登記記録の閉鎖等,0,2025-11-25,2025-11-21,范氏合同会社,,合同会社,福岡県,福岡市博多区,博多駅東１丁目１－３３はかた近代ビル,,40,132,8120013,,,2025-11-21,清算の結了等,,,2024-11-01,1,,,,,ファンシ,0
1497,6330001028943,登記記録の閉鎖等,0,2025-11-25,2025-11-17,株式会社ＫＥＰホールディングス,,株式会社,熊本県,熊本市西区,新土河原１丁目１２番５３号,,43,103,8600056,,,2025-11-17,清算の結了等,,,2021-08-30,1,,,,,ケーイーピーホールディングス,0
1506,6420001011106,登記記録の閉鎖等,0,2025-11-25,2025-11-12,藤大産業株式会社,,株式会社,青森県,上北郡六戸町,大字犬落瀬字明土１４番地３,,02,405,0392371,,,2025-11-12,清算の結了等,,,2015-10-05,1,,,,,トウダイサンギョウ,0
1509,6430001016649,登記記録の閉鎖等,0,2025-11-25,2025-11-19,宮澤総合サービス株式会社,,株式会社,北海道,札幌市北区,北二十三条西４丁目２番３号,,01,102,0010023,,,2025-11-19,清算の結了等,,,2015-10-05,1,,,,,ミヤザワソウゴウサービス,0
1521,6450002012166,登記記録の閉鎖等,0,2025-11-25,2025-11-20,羽幌住宅建設有限会社,,有限会社,北海道,苫前郡羽幌町,南六条４丁目２２番地の１,,01,484,0784106,,,2025-11-20,清算の結了等,,,2015-10-05,1,,,,,ハボロジュウタクケンセツ,0
1532,7010002043799,登記記録の閉鎖等,0,2025-11-25,2025-11-11,有限会社はばたく,,有限会社,東京都,千代田区,岩本町２丁目１番８号,,13,101,1010032,,,2025-11-11,清算の結了等,,,2015-10-05,1,,,,,ハバタク,0
1535,7010401142508,登記記録の閉鎖等,0,2025-11-25,2025-10-31,株式会社デントフェイシャル,,株式会社,東京都,港区,東新橋２丁目１８番３号,,13,103,1050021,,,2025-10-31,清算の結了等,,,2018-12-07,1,,,,,デントフェイシャル,0
1536,7010401148769,登記記録の閉鎖等,0,2025-11-25,2025-10-31,ＫＯＮＵＸ　Ｊａｐａｎ株式会社,,株式会社,東京都,港区,赤坂１丁目１４番１５号,,13,103,1070052,,,2025-10-31,清算の結了等,,,2019-10-21,1,,,,,コノックスジャパン,0
1545,7010403029835,登記記録の閉鎖等,0,2025-11-25,2025-10-31,合同会社勾当台ホテル運営,,合同会社,東京都,港区,六本木１丁目９番１０号アークヒルズ仙石山森タワー４０階,,13,103,1060032,,,2025-10-31,清算の結了等,,,2023-03-31,1,,,,,コウトウダイホテルウンエイ,0
1546,7010405023423,登記記録の閉鎖等,0,2025-11-25,2025-10-30,Ａ４ＪＰ　Ｍｉｎａｍｉ　Ａｏｙａｍａ特定目的会社,,その他の設立登記法人,東京都,港区,六本木１丁目６番１号泉ガーデンタワー１２階,,13,103,1060032,,,2025-10-30,清算の結了等,,,2024-08-08,1,,,,,エーフォージェイピーミナミアオヤマ,0
1550,7010701025065,登記記録の閉鎖等,0,2025-11-25,2025-11-17,株式会社操装,,株式会社,東京都,品川区,大崎３丁目６番２１号,,13,109,1410032,,,2025-11-17,清算の結了等,,,2015-10-05,1,,,,,ソウソウ,0
1559,7010901028248,登記記録の閉鎖等,0,2025-11-25,2025-11-14,ファーイーストマン株式会社,,株式会社,東京都,大田区,田園調布１丁目４－１,,13,111,1450071,,,2025-11-14,清算の結了等,,,2015-10-05,1,,,,,ファーイーストマン,0
1560,7010901054582,登記記録の閉鎖等,0,2025-11-25,2025-11-20,株式会社Ｋｉｄｓ　Ｒｅｃｏｒｄ,,株式会社,東京都,世田谷区,鎌田２丁目１０番４－３０４号,,13,112,1570077,,,2025-11-20,清算の結了等,,,2024-01-24,1,,,,,キッズレコード,0
1566,7011001000452,登記記録の閉鎖等,0,2025-11-25,2025-10-30,株式会社青の時代,,株式会社,東京都,渋谷区,恵比寿西２丁目２０番８号,,13,113,1500021,,,2025-10-30,清算の結了等,,,2015-10-05,1,,,,,アオノジダイ,0
1567,7011001006929,登記記録の閉鎖等,0,2025-11-25,2025-10-28,クリオ・マニファクチャー株式会社,,株式会社,東京都,渋谷区,代々木２丁目２１番１１号ベルテ代々木ＩＩ,00053068,13,113,1510053,,,2025-10-28,清算の結了等,,,2015-10-05,1,,,,,クリオマニファクチャー,0
1574,7011002036537,登記記録の閉鎖等,0,2025-11-25,2025-10-28,有限会社エヌ・タスク,,有限会社,東京都,渋谷区,渋谷３丁目８番１２号,,13,113,1500002,,,2025-10-28,清算の結了等,,,2015-10-05,1,,,,,エヌタスク,0
1589,7013101000571,登記記録の閉鎖等,0,2025-11-25,2025-11-12,高周波工業株式会社,00059660,株式会社,東京都,羽村市,神明台２丁目５番地３９号,,13,227,2050023,,,2025-11-12,清算の結了等,,,2015-10-05,1,,,,,コウシュウハコウギョウ,0
1606,7021002038029,登記記録の閉鎖等,0,2025-11-25,2025-11-05,清水産業有限会社,,有限会社,神奈川県,秦野市,尾尻４９５番地の６,,14,211,2570011,,,2025-11-05,清算の結了等,,,2015-10-05,1,,,,,シミズサンギョウ,0
1630,7040001051965,登記記録の閉鎖等,0,2025-11-25,2025-10-29,大成産業株式会社,,株式会社,千葉県,君津市,下湯江１０８７,,12,225,2991131,,,2025-10-29,清算の結了等,,,2015-10-05,1,,,,,,0
1665,7120005023102,登記記録の閉鎖等,0,2025-11-25,2025-11-20,一般社団法人いきいきライフ協会枚方,,その他の設立登記法人,大阪府,枚方市,岡本町７番１号,,27,210,5730031,,,2025-11-20,清算の結了等,,,2022-07-26,1,,,,,イキイキライフキョウカイヒラカタ,0
1666,7120101028426,登記記録の閉鎖等,0,2025-11-25,2025-11-13,株式会社シモパ,,株式会社,大阪府,大阪狭山市,西山台６丁目２番４号,,27,231,5890022,,,2025-11-13,清算の結了等,,,2015-10-05,1,,,,,シモパ,0
1669,7120101052046,登記記録の閉鎖等,0,2025-11-25,2025-11-17,株式会社高月ケアセンター,,株式会社,大阪府,泉北郡忠岡町,高月南３丁目４番３－６号,,27,341,5950802,,,2025-11-17,清算の結了等,,,2015-10-05,1,,,,,タカツキケアセンター,0
1671,7120102003444,登記記録の閉鎖等,0,2025-11-25,2025-11-11,有限会社東和鉄工,,有限会社,大阪府,堺市堺区,材木町西１丁２番６号,,27,141,5900941,,,2025-11-11,清算の結了等,,,2015-10-05,1,,,,,トウワテッコウ,0
1673,7120901013973,登記記録の閉鎖等,0,2025-11-25,2025-11-07,株式会社ＣＯＤコンサルタント,,株式会社,大阪府,吹田市,豊津町１２番５号,,27,205,5640051,,,2025-11-07,合併による解散等,5120901013918,令和７年９月３０日大阪府吹田市豊津町１２番５号株式会社コスモ教育出版（5120901013918）に合併し解散,2015-10-05,1,,,,,シーオーディーコンサルタント,0
1676,7120903000557,登記記録の閉鎖等,0,2025-11-25,2025-11-13,アスリートクラブ合同会社,,合同会社,大阪府,茨木市,耳原１丁目６番３２－１０５号,,27,211,5670006,,,2025-11-13,清算の結了等,,,2015-10-05,1,,,,,アスリートクラブ,0
1689,7140002028795,登記記録の閉鎖等,0,2025-11-25,2025-11-19,有限会社幸栄塗装,,有限会社,兵庫県,加古郡稲美町,印南４７４－８,,28,381,6751111,,,2025-11-19,清算の結了等,,,2015-10-05,1,,,,,コウエイトソウ,0
1698,7180001158359,登記記録の閉鎖等,0,2025-11-25,2025-11-18,株式会社Ｌｉｎｏ’ａ,,株式会社,愛知県,知多郡美浜町,新栄２丁目３番地１２,,23,446,4703234,,,2025-11-18,清算の結了等,,,2023-10-11,1,,,,,リノア,0
1721,7240001054972,登記記録の閉鎖等,0,2025-11-25,2025-11-19,株式会社おのえ,,株式会社,広島県,広島市中区,鶴見町８番４号,,34,101,7300045,,,2025-11-19,清算の結了等,,,2019-09-27,1,,,,,オノエ,0
1737,7290801011904,登記記録の閉鎖等,0,2025-11-25,2025-11-12,上野海運株式会社,,株式会社,福岡県,遠賀郡水巻町,梅ノ木団地５６番４号,,40,382,8070006,,,2025-11-12,清算の結了等,,,2015-10-05,1,,,,,ウエノカイウン,0
1739,7310003004794,登記記録の閉鎖等,0,2025-11-25,2025-11-21,合同会社ＡＰＥＸ,,合同会社,長崎県,長崎市,長浦町３３８１番地,,42,201,8513212,,,2025-11-21,清算の結了等,,,2024-05-17,1,,,,,エーペックス,0
1741,7320005001392,登記記録の閉鎖等,0,2025-11-25,2025-11-18,大分県公衆浴場業生活衛生同業組合,,その他の設立登記法人,大分県,大分市,大字下郡３４７５番地の１,,44,201,8700951,,,2025-11-18,清算の結了等,,,2015-10-05,1,,,,,オオイタケンコウシュウヨクジョウギョウセイカツエイセイドウギョウクミアイ,0
1747,7370002013056,登記記録の閉鎖等,0,2025-11-25,2025-11-17,有限会社ビルディングリサーチ構造研究所,,有限会社,宮城県,仙台市青葉区,大町１丁目２番１号ライオンビル２階,,04,101,9800804,,,2025-11-17,清算の結了等,,,2015-10-05,1,,,,,ビルディングリサーチコウゾウケンキュウショ,0
1748,7370002020820,登記記録の閉鎖等,0,2025-11-25,2025-11-13,ラピックス有限会社,,有限会社,宮城県,仙台市泉区,松陵４丁目１８番地７,,04,105,9813108,,,2025-11-13,清算の結了等,,,2015-10-05,1,,,,,ラピックス,0
1749,7370005004077,登記記録の閉鎖等,0,2025-11-25,2025-11-14,一般社団法人そらのこ保育園,,その他の設立登記法人,宮城県,仙台市泉区,東黒松１９番３４号,,04,105,9818005,,,2025-11-14,清算の結了等,,,2015-10-05,1,,,,,ソラノコホイクエン,0
1755,7430001015468,登記記録の閉鎖等,0,2025-11-25,2025-11-19,扶洋エステート株式会社,,株式会社,北海道,札幌市中央区,南一条西１２丁目４番地,,01,101,0600061,,,2025-11-19,清算の結了等,,,2015-10-05,1,,,,,フヨウエステート,0
1782,8010005006026,登記記録の閉鎖等,0,2025-11-25,2025-11-19,特定非営利活動法人電子コミュニティ推進協会,,その他の設立登記法人,東京都,中央区,京橋２丁目５番２１号ＮＳビル１０階,,13,102,1040031,,,2025-11-19,清算の結了等,,,2015-10-05,1,,,,,デンシコミュニティスイシンキョウカイ,0
1783,8010005023120,登記記録の閉鎖等,0,2025-11-25,2025-11-18,ヒラツカ特定目的会社,,その他の設立登記法人,東京都,中央区,日本橋１丁目４番１号,,13,102,1030027,,,2025-11-18,清算の結了等,,,2015-10-05,1,,,,,ヒラツカ,0
1794,8010402007989,登記記録の閉鎖等,0,2025-11-25,2025-11-05,有限会社高信,,有限会社,神奈川県,海老名市,扇町１４番２－１３０６号,,14,215,2430436,,,2025-11-05,清算の結了等,,,2015-10-05,1,,,,,タカシン,0
1797,8010403029834,登記記録の閉鎖等,0,2025-11-25,2025-10-31,合同会社仙台駅西ホテル運営,,合同会社,東京都,港区,六本木１丁目９番１０号アークヒルズ仙石山森タワー４０階,,13,103,1060032,,,2025-10-31,清算の結了等,,,2023-03-31,1,,,,,センダイエキニシホテルウンエイ,0
1812,8010702015428,登記記録の閉鎖等,0,2025-11-25,2025-11-17,有限会社ローヤル通販,,有限会社,東京都,品川区,大崎３丁目６番２１号,,13,109,1410032,,,2025-11-17,清算の結了等,,,2015-10-05,1,,,,,ローヤルツウハン,0
1813,8010703005915,登記記録の閉鎖等,0,2025-11-25,2025-10-22,合同会社ＤＡＫ,,合同会社,千葉県,柏市,手賀７８６番地,,12,217,2701465,,,2025-10-22,清算の結了等,,,2021-08-25,1,,,,,ディーエーケー,0
1818,8011001103857,登記記録の閉鎖等,0,2025-11-25,2025-10-31,株式会社栄和地所,,株式会社,東京都,港区,新橋２丁目１１番１０号,,13,103,1050004,,,2025-10-31,清算の結了等,,,2015-10-05,1,,,,,エイワジショ,0
1848,8011802005830,登記記録の閉鎖等,0,2025-11-25,2025-11-12,有限会社中村屋,,有限会社,東京都,葛飾区,奥戸２丁目２６番１号,,13,122,1240022,,,2025-11-12,清算の結了等,,,2015-10-05,1,,,,,ナカムラヤ,0
1854,8012402023090,登記記録の閉鎖等,0,2025-11-25,2025-11-10,有限会社プランビセ,,有限会社,東京都,武蔵野市,吉祥寺南町３丁目５－１吉祥寺ＰＬＵＳ一階,,13,203,1800003,,,2025-11-10,清算の結了等,,,2015-10-05,1,,,,,プランビセ,0
1855,8012403007010,登記記録の閉鎖等,0,2025-11-25,2025-11-17,ＨＡＷＫＳ合同会社,,合同会社,東京都,府中市,八幡町２丁目２０番地の３０,,13,206,1830016,,,2025-11-17,清算の結了等,,,2025-03-10,1,,,,,ホークス,0
1871,8020002097141,登記記録の閉鎖等,0,2025-11-25,2025-11-14,有限会社澤田解体,,有限会社,神奈川県,川崎市川崎区,田島町４番１８号,,14,131,2100853,,,2025-11-14,清算の結了等,,,2015-10-05,1,,,,,サワダカイタイ,0
1879,8021001057136,登記記録の閉鎖等,0,2025-11-25,2025-11-06,東風飾件ＪＡＰＡＮ株式会社,,株式会社,神奈川県,海老名市,中央３丁目３番３２号,,14,215,2430432,,,2025-11-06,清算の結了等,,,2015-10-05,1,,,,,トンプウショッケンジャパン,0
1880,8021001069742,登記記録の閉鎖等,0,2025-11-25,2025-11-04,システムライン株式会社,,株式会社,神奈川県,綾瀬市,深谷上６丁目１３番３２号,,14,218,2521108,,,2025-11-04,清算の結了等,,,2020-04-13,1,,,,,システムライン,0
1881,8021002005969,登記記録の閉鎖等,0,2025-11-25,2025-11-04,有限会社クレセル,,有限会社,神奈川県,藤沢市,大庭５０７７番地の９,,14,205,2510861,,,2025-11-04,清算の結了等,,,2015-10-05,1,,,,,クレセル,0
1882,8021002044736,登記記録の閉鎖等,0,2025-11-25,2025-11-04,有限会社大西生花店,,有限会社,神奈川県,海老名市,東柏ケ谷２丁目２４番８号,,14,215,2430401,,,2025-11-04,清算の結了等,,,2015-10-05,1,,,,,オオニシセイカテン,0
1887,8030001032420,登記記録の閉鎖等,0,2025-11-25,2025-11-17,株式会社フジタホールディングス,,株式会社,埼玉県,久喜市,久喜東２丁目４番１号,,11,232,3460016,,,2025-11-17,清算の結了等,,,2015-10-05,1,,,,,フジタホールディングス,0
1932,8110001036140,登記記録の閉鎖等,0,2025-11-25,2025-11-21,株式会社ＳＵＫＥＴＴＯ,,株式会社,新潟県,長岡市,弓町２丁目３番２６号,,15,202,9400047,,,2025-11-21,清算の結了等,,,2021-10-25,1,,,,,,0
1940,8120002052887,登記記録の閉鎖等,0,2025-11-25,2025-11-18,サッチアンドサッチ有限会社,,有限会社,大阪府,大阪市中央区,南本町１丁目５番１５号,,27,128,5410054,,,2025-11-18,清算の結了等,,,2015-10-05,1,,,,,サッチアンドサッチ,0
1945,8120101048753,登記記録の閉鎖等,0,2025-11-25,2025-11-12,八木ホーム株式会社,,株式会社,大阪府,岸和田市,下池田町１丁目１７番８号,,27,202,5960811,,,2025-11-12,清算の結了等,,,2015-10-05,1,,,,,ヤギホーム,0
1956,8122002017151,登記記録の閉鎖等,0,2025-11-25,2025-11-04,有限会社コスモアート,,有限会社,大阪府,八尾市,山賀町５丁目５８番地,,27,212,5810812,,,2025-11-04,合併による解散等,8122001005594,令和７年１１月１日大阪府八尾市山賀町五丁目５８番地新山工業株式会社（8122001005594）に合併し解散,2015-10-05,1,,,,,コスモアート,0
1971,8180001014692,登記記録の閉鎖等,0,2025-11-25,2025-11-18,株式会社末若事務所,,株式会社,愛知県,名古屋市港区,土古町４丁目３番地,,23,111,4550068,,,2025-11-18,清算の結了等,,,2015-10-05,1,,,,,スエワカジムショ,0
1975,8180001112265,登記記録の閉鎖等,0,2025-11-25,2025-11-17,株式会社フロンティア,,株式会社,愛知県,名古屋市西区,牛島町六丁目１番地,,23,104,4510046,,,2025-11-17,清算の結了等,,,2015-10-05,1,,,,,,0
1983,8180002045910,登記記録の閉鎖等,0,2025-11-25,2025-11-20,有限会社フェードインリサーチ,,有限会社,愛知県,名古屋市中区,栄３丁目２２番２２号,,23,106,4600008,,,2025-11-20,清算の結了等,,,2015-10-05,1,,,,,フェードインリサーチ,0
1991,8200001010870,登記記録の閉鎖等,0,2025-11-25,2025-11-19,株式会社カトウ冷機,,株式会社,岐阜県,羽島郡岐南町,八剣４丁目６４番地,,21,302,5016012,,,2025-11-19,清算の結了等,,,2015-10-05,1,,,,,カトウレイキ,0
1994,8230001007550,登記記録の閉鎖等,0,2025-11-25,2025-11-07,北陸建材工業株式会社,,株式会社,富山県,下新川郡入善町,五郎八３３０４番地,,16,342,9390655,,,2025-11-07,合併による解散等,2230001007622,令和７年１１月７日富山県下新川郡朝日町月山１９４７番地両越自動車株式会社（2230001007622）に合併し解散,2015-10-05,1,,,,,ホクリクケンザイコウギョウ,0
1995,8250002016045,登記記録の閉鎖等,0,2025-11-25,2025-11-19,有限会社ひかり,,有限会社,山口県,周南市,大字鹿野上２８３７番地の１,,35,215,7450302,,,2025-11-19,清算の結了等,,,2015-10-05,1,,,,,,0
1999,8260005003213,登記記録の閉鎖等,0,2025-11-25,2025-11-20,企業組合ケアさくら,,その他の設立登記法人,岡山県,岡山市北区,建部町建部上３２０－１,,33,101,7093142,,,2025-11-20,清算の結了等,,,2015-10-05,1,,,,,ケアサクラ,0
2017,8290801012447,登記記録の閉鎖等,0,2025-11-25,2025-11-12,菱栄石油株式会社,,株式会社,福岡県,遠賀郡水巻町,梅ノ木団地５６番４号,,40,382,8070006,,,2025-11-12,清算の結了等,,,2015-10-05,1,,,,,リョウエイセキユ,0
2019,8290802020580,登記記録の閉鎖等,0,2025-11-25,2025-11-19,有限会社福永鉄工所,,有限会社,福岡県,直方市,大字知古１７６１番地４７,,40,204,8220022,,,2025-11-19,合併による解散等,8020001074125,令和７年１１月１日川崎市川崎区浅野町５番８号日本高速削孔株式会社（8020001074125）に合併し解散,2015-10-05,1,,,,,フクナガテッコウジョ,0
2021,8310002004101,登記記録の閉鎖等,0,2025-11-25,2025-11-21,有限会社西九州リースピア,,有限会社,長崎県,長崎市,女の都４丁目１７番１５号,,42,201,8528144,,,2025-11-21,清算の結了等,,,2015-10-05,1,,,,,ニシキュウシュウリースピア,0
2022,8310003004199,登記記録の閉鎖等,0,2025-11-25,2025-11-21,合同会社福まん家福田本店,,合同会社,長崎県,長崎市,平戸小屋町１６番２３号３０１,,42,201,8528006,,,2025-11-21,清算の結了等,,,2021-11-01,1,,,,,フクマンヤフクダホンテン,0
2026,8350001011078,登記記録の閉鎖等,0,2025-11-25,2025-11-17,株式会社リンクドプロビンス,,株式会社,宮崎県,えびの市,大字大河平１２１０番地,,45,209,8894314,,,2025-11-17,清算の結了等,,,2015-10-05,1,,,,,リンクドプロビンス,0
2034,8370305000915,登記記録の閉鎖等,0,2025-11-25,2025-11-14,特定非営利活動法人まちの寄り合い所・うめばたけ,,その他の設立登記法人,宮城県,石巻市,田道町１丁目１番１８号,,04,202,9860872,,,2025-11-14,清算の結了等,,,2015-10-05,1,,,,,マチノヨリアイトコロウメバタケ,0
2040,8420005003023,登記記録の閉鎖等,0,2025-11-25,2025-11-14,八戸市土地開発公社,,その他の設立登記法人,青森県,八戸市,内丸１丁目１番１号,,02,203,0310075,,,2025-11-14,清算の結了等,,,2015-10-05,1,,,,,ハチノヘシ,0
2042,8430001051982,登記記録の閉鎖等,0,2025-11-25,2025-11-13,株式会社旺勢建設,,株式会社,北海道,岩内郡岩内町,字東山１３８番地の６,,01,402,0450002,,,2025-11-13,清算の結了等,,,2015-10-05,1,,,,,,0
2069,9010403029833,登記記録の閉鎖等,0,2025-11-25,2025-10-31,合同会社仙台駅南ホテル運営,,合同会社,東京都,港区,六本木１丁目９番１０号アークヒルズ仙石山森タワー４０階,,13,103,1060032,,,2025-10-31,清算の結了等,,,2023-03-31,1,,,,,センダイエキミナミホテルウンエイ,0
2097,9011501019437,登記記録の閉鎖等,0,2025-11-25,2025-11-19,株式会社ネクスト・エム,,株式会社,東京都,荒川区,南千住５丁目２５番２号,,13,118,1160003,,,2025-11-19,清算の結了等,,,2015-10-05,1,,,,,ネクストエム,0
2100,9011801028096,登記記録の閉鎖等,0,2025-11-25,2025-11-18,株式会社ｉ－ｌｏｇｉ,,株式会社,東京都,足立区,西新井５丁目６番７号,,13,121,1230841,,,2025-11-18,清算の結了等,,,2015-10-05,1,,,,,アイロジ,0
2118,9013302002530,登記記録の閉鎖等,0,2025-11-25,2025-11-11,有限会社オフィスヤマザキ,,有限会社,東京都,豊島区,上池袋１丁目１１番８号,,13,116,1700012,,,2025-11-11,清算の結了等,,,2015-10-05,1,,,,,オフィスヤマザキ,0
2128,9020002104383,登記記録の閉鎖等,0,2025-11-25,2025-11-19,有限会社赤石フーズ,,有限会社,東京都,稲城市,東長沼１７００番地の８,,13,225,2060802,,,2025-11-19,清算の結了等,,,2015-10-05,1,,,,,アカイシフーズ,0
2135,9021002051657,登記記録の閉鎖等,0,2025-11-25,2025-11-06,有限会社ケイビーエス,,有限会社,神奈川県,小田原市,栢山８９３番地の３,,14,206,2500852,,,2025-11-06,清算の結了等,,,2015-10-05,1,,,,,ケイビーエス,0
2150,9030002079468,登記記録の閉鎖等,0,2025-11-25,2025-11-17,ランマイ・タイ・アジア有限会社,,有限会社,埼玉県,川越市,田町５番地１田町ビル２階,,11,201,3501113,,,2025-11-17,清算の結了等,,,2015-10-05,1,,,,,ランマイタイアジア,0
2159,9040002101874,登記記録の閉鎖等,0,2025-11-25,2025-10-24,有限会社仲佐屋薬局,,有限会社,千葉県,いすみ市,大原７９５１番地,,12,238,2980004,,,2025-10-24,清算の結了等,,,2015-10-05,1,,,,,ナカサヤヤッキョク,0
2161,9040003007633,登記記録の閉鎖等,0,2025-11-25,2025-10-23,台東住建合同会社,,合同会社,千葉県,流山市,おおたかの森南１丁目６番地の１シティハウスおおたかの森９０２,,12,220,2700139,,,2025-10-23,清算の結了等,,,2015-10-05,1,,,,,ダイトウジュウケン,0
2162,9040003015388,登記記録の閉鎖等,0,2025-11-25,2025-11-04,合同会社パビリオン,,合同会社,千葉県,木更津市,港南台４丁目２９番地６,,12,206,2920827,,,2025-11-04,清算の結了等,,,2020-05-19,1,,,,,パビリオン,0
2178,9110002028854,登記記録の閉鎖等,0,2025-11-25,2025-11-21,有限会社ピカイチ,,有限会社,新潟県,長岡市,東坂之上町３丁目２番地４,,15,202,9400066,,,2025-11-21,清算の結了等,,,2015-10-05,1,,,,,,0
2189,9120102001322,登記記録の閉鎖等,0,2025-11-25,2025-11-12,有限会社紀北商運,,有限会社,大阪府,堺市西区,北条町１丁１４番４号,,27,144,5938302,,,2025-11-12,清算の結了等,,,2015-10-05,1,,,,,キホクショウウン,0
2195,9122001007549,登記記録の閉鎖等,0,2025-11-25,2025-11-11,村上鉄工株式会社,,株式会社,大阪府,東大阪市,高井田西１丁目５番６号,,27,227,5770067,,,2025-11-11,清算の結了等,,,2015-10-05,1,,,,,ムラカミテッコウ,0
2198,9122001033537,登記記録の閉鎖等,0,2025-11-25,2025-11-13,株式会社デブロテック,,株式会社,大阪府,東大阪市,荒本北３丁目５番１３号,,27,227,5770011,,,2025-11-13,清算の結了等,,,2020-03-26,1,,,,,デブロテック,0
2230,9270001007067,登記記録の閉鎖等,0,2025-11-25,2025-11-19,川端商事株式会社,,株式会社,鳥取県,東伯郡湯梨浜町,はわい長瀬７００番地１１,,31,370,6820722,,,2025-11-19,清算の結了等,,,2016-10-04,1,,,,,カワバタショウジ,0
2243,9290002001158,登記記録の閉鎖等,0,2025-11-25,2025-11-10,有限会社洛柿舎,,有限会社,福岡県,福岡市西区,生の松原３丁目１０番２２号,,40,135,8190055,,,2025-11-10,清算の結了等,,,2015-10-05,1,,,,,ラクシシャ,0
2268,9360003012080,登記記録の閉鎖等,0,2025-11-25,2025-11-11,アセットファイナンス福岡中洲合同会社,,合同会社,東京都,中央区,京橋２丁目７番１９号,,13,102,1040031,,,2025-11-11,清算の結了等,,,2022-06-15,1,,,,,アセットファイナンスフクオカナカス,0
2275,9380002026690,登記記録の閉鎖等,0,2025-11-25,2025-11-14,有限会社ヨシダ保険サービス,,有限会社,福島県,いわき市,常磐松が台１２６番地,,07,204,9728323,,,2025-11-14,清算の結了等,,,2015-10-05,1,,,,,ヨシダホケンサービス,0
2276,9380003005685,登記記録の閉鎖等,0,2025-11-25,2025-11-17,合同会社ｒｏｐｅ,,合同会社,福島県,須賀川市,あおば町１４２番地,,07,207,9620811,,,2025-11-17,清算の結了等,,,2024-02-16,1,,,,,ロープ,0
2279,9400001008943,登記記録の閉鎖等,0,2025-11-25,2025-11-13,株式会社ＳＶＣ,,株式会社,岩手県,花巻市,南万丁目１０１６番地８,,03,205,0250055,,,2025-11-13,清算の結了等,,,2015-10-05,1,,,,,エスブイシー,0
2280,9400001015725,登記記録の閉鎖等,0,2025-11-25,2025-11-13,株式会社宮本燃料店,,株式会社,岩手県,一関市,大東町摺沢字街道下２３番地,00125322,03,209,0290523,,,2025-11-13,清算の結了等,,,2022-01-06,1,,,,,ミヤモトネンリョウテン,0
2289,9470002009018,登記記録の閉鎖等,0,2025-11-25,2025-11-19,有限会社シーエス企画,,有限会社,香川県,高松市,太田上町９８番地４,,37,201,7618074,,,2025-11-19,清算の結了等,,,2015-10-05,1,,,,,シーエスキカク,0
