sequenceNumber,corporateNumber,process,correct,updateDate,changeDate,name,nameImageId,kind,prefectureName,cityName,streetNumber,addressImageId,prefectureCode,cityCode,postCode,addressOutside,addressOutsideImageId,closeDate,closeCause,successorCorporateNumber,changeCause,assignmentDate,latest,enName,enPrefectureName,enCityName,enAddressOutside,furigana,hihyoji
13,1010001227409,新規,0,2022-06-20,2022-06-20,ＴＡＫＩアライアンスグループ株式会社,,株式会社,東京都,千代田区,鍛冶町１丁目５番４号ＮＡビル７Ｆ,,13,101,1010044,,,,,,,2022-06-20,1,,,,,タキアライアンスグループ,0
14,1010001227417,新規,0,2022-06-20,2022-06-20,株式会社ＤＡＮＦＴＹＳ,,株式会社,東京都,中央区,日本橋本町３丁目３番６号ワカ末ビル４Ｆ,,13,102,1030023,,,,,,,2022-06-20,1,,,,,ダンフティーズ,0
15,1010001227524,新規,0,2022-06-20,2022-06-20,株式会社ＫＲコーポレーション,,株式会社,東京都,中央区,京橋３丁目１番１号東京スクエアガーデン,,13,102,1040031,,,,,,,2022-06-20,1,,,,,ケーアールコーポレーション,0
19,1010005035155,新規,0,2022-06-20,2022-06-20,一般社団法人ＡＰＬＳ　Ｓｅｎｄａｉ,,その他の設立登記法人,東京都,千代田区,丸の内３丁目１番１号東京共同会計事務所内,,13,101,1000005,,,,,,,2022-06-20,1,,,,,アプルスセンダイ,0
27,1010401168079,新規,0,2022-06-20,2022-06-20,ＷＩＮＳＵＮ　ＪＡＰＡＮ株式会社,,株式会社,東京都,港区,芝浦４丁目１６番１４－２１０３号,,13,103,1080023,,,,,,,2022-06-20,1,,,,,ウェンサンジャパン,0
31,1010403027885,新規,0,2022-06-20,2022-06-20,Ｋｅｙｃｏｔｔ合同会社,,合同会社,東京都,港区,浜松町２丁目２番１５号,,13,103,1050013,,,,,,,2022-06-20,1,,,,,キーコット,0
32,1010403027910,新規,0,2022-06-20,2022-06-20,合同会社ＹＡ,,合同会社,東京都,港区,虎ノ門４丁目１番２０,,13,103,1050001,,,,,,,2022-06-20,1,,,,,ヤ,0
33,1010403027919,新規,0,2022-06-20,2022-06-20,Ｓｉｍｐｌｅ　Ｔｈｉｎｇｓ合同会社,,合同会社,東京都,港区,元麻布３丁目１番６号,,13,103,1060046,,,,,,,2022-06-20,1,,,,,シンプルシングス,0
34,1010403027927,新規,0,2022-06-20,2022-06-20,合同会社グロース・パートナー,,合同会社,東京都,港区,西新橋１丁目１７番６号高嶋ビル４階,,13,103,1050003,,,,,,,2022-06-20,1,,,,,グロースパートナー,0
35,1010403027935,新規,0,2022-06-20,2022-06-20,合同会社アサイモータース,,合同会社,東京都,港区,西麻布２丁目２３番１３号,,13,103,1060031,,,,,,,2022-06-20,1,,,,,アサイモータース,0
37,1010405021085,新規,0,2022-06-20,2022-06-20,ＥＳＲ‐ＬＯＧＯＳ　ＲＥＩＴ　ＴＭＫ１特定目的会社,,その他の設立登記法人,東京都,港区,虎ノ門３丁目２２番１０－２０１号,,13,103,1050001,,,,,,,2022-06-20,1,,,,,イーエスアールロゴスリートティーエムケーワン,0
40,1010601061356,新規,0,2022-06-20,2022-06-20,ＡＪ　ｌｅｅ株式会社,,株式会社,東京都,江東区,東雲２丁目６番２５－１００１号,,13,108,1350062,,,,,,,2022-06-20,1,,,,,エージェーリー,0
41,1010603009592,新規,0,2022-06-20,2022-06-20,ＴＢＣ合同会社,,合同会社,東京都,江東区,東雲１丁目９番４１－４３０１号,,13,108,1350062,,,,,,,2022-06-20,1,,,,,ティービーシー,0
53,1011001148132,新規,0,2022-06-20,2022-06-20,株式会社余白,,株式会社,東京都,渋谷区,西原２丁目２６－５,,13,113,1510066,,,,,,,2022-06-20,1,,,,,ヨハク,0
54,1011001148140,新規,0,2022-06-20,2022-06-20,株式会社マスヒロ,,株式会社,東京都,渋谷区,神宮前６丁目２３番４号,,13,113,1500001,,,,,,,2022-06-20,1,,,,,マスヒロ,0
55,1011001148149,新規,0,2022-06-20,2022-06-20,株式会社ＴＨＥ　ＣＲＥＡＴＯＲ,,株式会社,東京都,目黒区,青葉台３丁目６番２８－２５０３,,13,110,1530042,,,,,,,2022-06-20,1,,,,,ザクリエイター,0
56,1011003014885,新規,0,2022-06-20,2022-06-20,合同会社スタジオアミュゼ,,合同会社,東京都,渋谷区,渋谷２丁目１９番１５号宮益坂ビルディング６０９,,13,113,1500002,,,,,,,2022-06-20,1,,,,,,0
60,1011101099110,新規,0,2022-06-20,2022-06-20,ＲＩＺＡＰテクノロジーズ株式会社,,株式会社,東京都,新宿区,北新宿２丁目２１番１号,,13,104,1690074,,,,,,,2022-06-20,1,,,,,ライザップテクノロジーズ,0
63,1011501028164,新規,0,2022-06-20,2022-06-20,株式会社リープ測量,,株式会社,東京都,荒川区,西尾久７丁目１３番４－１０１号,,13,118,1160011,,,,,,,2022-06-20,1,,,,,リープソクリョウ,0
64,1011503005194,新規,0,2022-06-20,2022-06-20,ＡＫホールディングス合同会社,,合同会社,東京都,北区,上中里１丁目１５番１号,,13,117,1140016,,,,,,,2022-06-20,1,,,,,エーケーホールディングス,0
66,1011705001735,新規,0,2022-06-20,2022-06-20,一般社団法人養生ダイエット協会,,その他の設立登記法人,東京都,江戸川区,南葛西６丁目１２番１－１００３号,,13,123,1340085,,,,,,,2022-06-20,1,,,,,ヨウジョウダイエットキョウカイ,0
71,1012403005441,新規,0,2022-06-20,2022-06-20,合同会社Ｐｉｍｅｎｔ,,合同会社,東京都,調布市,若葉町３丁目１０番５号ルーブル若葉町１０１,,13,208,1820003,,,,,,,2022-06-20,1,,,,,ピーマン,0
72,1012801021668,新規,0,2022-06-20,2022-06-20,ＭＩＮＥＲ　ＷＬＯ株式会社,,株式会社,東京都,立川市,錦町１丁目４番４号サニービル,,13,202,1900022,,,,,,,2022-06-20,1,,,,,ミンアルダブルエルオー,0
76,1013301049266,新規,0,2022-06-20,2022-06-20,ＳＮＴ株式会社,,株式会社,東京都,豊島区,東池袋５丁目７番３号東池袋ビル２Ｆリードシ,,13,116,1700013,,,,,,,2022-06-20,1,,,,,エスエヌティー,0
81,1020001146896,新規,0,2022-06-20,2022-06-20,株式会社国際パズル,,株式会社,神奈川県,横浜市港南区,東芹が谷８－１９かおり荘１０２,,14,111,2330005,,,,,,,2022-06-20,1,,,,,コクサイパズル,0
82,1020001146946,新規,0,2022-06-20,2022-06-20,株式会社スマークス,,株式会社,神奈川県,横浜市磯子区,杉田８丁目４４番１８号,,14,107,2350033,,,,,,,2022-06-20,1,,,,,スマークス,0
91,1020003021949,新規,0,2022-06-20,2022-06-20,合同会社ＭＹＣＲＡＦＴ,,合同会社,神奈川県,横浜市戸塚区,上矢部町１１５４番地１０,,14,110,2450053,,,,,,,2022-06-20,1,,,,,マイクラフト,0
93,1021001076308,新規,0,2022-06-20,2022-06-20,湘南Ｂｒｅｅｚｅ株式会社,,株式会社,神奈川県,藤沢市,本鵠沼２丁目１８番２０号,00126930,14,205,2510028,,,,,,,2022-06-20,1,,,,,ショウナンブリーズ,0
108,1040001123910,新規,0,2022-06-20,2022-06-20,シーワン株式会社,,株式会社,千葉県,柏市,西町８番２０－４号,,12,217,2770844,,,,,,,2022-06-20,1,,,,,シーワン,0
109,1040001123927,新規,0,2022-06-20,2022-06-20,株式会社平井グループ,,株式会社,千葉県,千葉市若葉区,西都賀３丁目１番５号,,12,104,2640026,,,,,,,2022-06-20,1,,,,,ヒライグループ,0
119,1060001034998,新規,0,2022-06-20,2022-06-20,株式会社サンライズ,,株式会社,栃木県,矢板市,扇町２丁目２番２９号フォンテ１－１０１,,09,211,3292161,,,,,,,2022-06-20,1,,,,,サンライズ,0
120,1060001035006,新規,0,2022-06-20,2022-06-20,株式会社ＳＴ４,,株式会社,栃木県,那須塩原市,太夫塚６丁目２３３番地７８,,09,213,3292735,,,,,,,2022-06-20,1,,,,,エスティーフォー,0
142,1120001246802,新規,0,2022-06-20,2022-06-20,株式会社ａｒｉｋａ,,株式会社,大阪府,大阪市福島区,鷺洲４丁目３－２２－６１１,,27,103,5530002,,,,,,,2022-06-20,1,,,,,アリカ,0
171,1130001071984,新規,0,2022-06-20,2022-06-20,ソラル株式会社,,株式会社,京都府,八幡市,欽明台中央４２番地１０,,26,210,6148295,,,,,,,2022-06-20,1,,,,,ソラル,0
172,1130005016507,新規,0,2022-06-20,2022-06-20,一般社団法人もくよう会,,その他の設立登記法人,京都府,舞鶴市,字上福井１８２３番地,,26,202,6240951,,,,,,,2022-06-20,1,,,,,モクヨウカイ,0
179,1140001126382,新規,0,2022-06-20,2022-06-20,株式会社ＲＵＳＨｅｘｐｒｅｓｓ,,株式会社,兵庫県,明石市,大久保町江井島６０８番地の１,,28,203,6740064,,,,,,,2022-06-20,1,,,,,ラッシュエクスプレス,0
180,1140001126408,新規,0,2022-06-20,2022-06-20,株式会社Ｃｒｅｏ　Ｐｌｕｓ,,株式会社,兵庫県,伊丹市,中央２丁目９番２９号,,28,207,6640851,,,,,,,2022-06-20,1,,,,,クレオプラス,0
181,1140001126440,新規,0,2022-06-20,2022-06-20,光成株式会社,,株式会社,兵庫県,西宮市,苦楽園二番町１０番１９号,,28,204,6620082,,,,,,,2022-06-20,1,,,,,コウセイ,0
199,1160001024295,新規,0,2022-06-20,2022-06-20,株式会社西村工業,,株式会社,滋賀県,彦根市,中藪町７２１番地４,,25,202,5220051,,,,,,,2022-06-20,1,,,,,ニシムラコウギョウ,0
203,1170003001738,新規,0,2022-06-20,2022-06-20,合同会社ＡＣカンパニー,,合同会社,和歌山県,海南市,大野中３４１番地５,,30,202,6420022,,,,,,,2022-06-20,1,,,,,エーシーカンパニー,0
211,1180001151773,新規,0,2022-06-20,2022-06-20,株式会社Ｇａｒａｇｅ　ＦＡＬ,,株式会社,愛知県,春日井市,勝川町１丁目５番地９,,23,206,4860945,,,,,,,2022-06-20,1,,,,,ガレージエフエーエル,0
212,1180001151807,新規,0,2022-06-20,2022-06-20,伊藤システム株式会社,,株式会社,愛知県,東海市,加木屋町陀々法師１４番地２９２まとい３階,,23,222,4770032,,,,,,,2022-06-20,1,,,,,イトウシステム,0
219,1180301036344,新規,0,2022-06-20,2022-06-20,Ｌｅａｎ　Ｍｏｂｉｌｉｔｙ株式会社,,株式会社,愛知県,みよし市,三好町中島２４番地中島ビル,,23,236,4700224,,,,,,,2022-06-20,1,,,,,リーンモビリティ,0
225,1200005013356,新規,0,2022-06-20,2022-06-20,一般社団法人岐阜県地域おこし協力隊ネットワーク,,その他の設立登記法人,岐阜県,関市,下之保１１１９番地１,,21,205,5013521,,,,,,,2022-06-20,1,,,,,ギフケンチイキオコシキョウリョクタイネットワーク,0
232,1240001059960,新規,0,2022-06-20,2022-06-20,株式会社Ｃｏｎｎｅｃｔ,,株式会社,広島県,広島市東区,中山西２丁目３４番１４‐１‐１０２号,,34,102,7320025,,,,,,,2022-06-20,1,,,,,コネクト,0
235,1240003005657,新規,0,2022-06-20,2022-06-20,革仙家Ｓｔｙｌｅ合同会社,,合同会社,広島県,広島市佐伯区,湯来町大字多田３５２７番１,,34,108,7380721,,,,,,,2022-06-20,1,,,,,カワセンヤスタイル,0
236,1250001019617,新規,0,2022-06-20,2022-06-20,株式会社ＮＦ,,株式会社,山口県,下関市,本町２丁目９番２０号,,35,201,7510815,,,,,,,2022-06-20,1,,,,,エヌエフ,0
250,1290001097766,新規,0,2022-06-20,2022-06-20,タグチホールディングス株式会社,,株式会社,福岡県,福岡市博多区,古門戸町３番１号,,40,132,8120029,,,,,,,2022-06-20,1,,,,,タグチホールディングス,0
253,1290003012640,新規,0,2022-06-20,2022-06-20,ＳｔａｙＧｏｌｄ合同会社,,合同会社,福岡県,大野城市,川久保２丁目４番５－３０３号キャッスル川久保,,40,219,8160905,,,,,,,2022-06-20,1,,,,,ステイゴールド,0
254,1290003012649,新規,0,2022-06-20,2022-06-20,介護人材ラボ合同会社,,合同会社,福岡県,福岡市中央区,警固２丁目１３－１７－１３０８,,40,133,8100023,,,,,,,2022-06-20,1,,,,,カイゴジンザイラボ,0
257,1290005018727,新規,0,2022-06-20,2022-06-20,一般社団法人文化芸術創造推進協議会,,その他の設立登記法人,福岡県,福岡市南区,大楠３丁目２１番５号高宮東ビル２階,,40,134,8150082,,,,,,,2022-06-20,1,,,,,ブンカゲイジュツソウゾウスイシンキョウギカイ,0
276,1360001030570,新規,0,2022-06-20,2022-06-20,ミツバチＧｏ株式会社,,株式会社,沖縄県,宮古島市,平良字西里１１２４番地６,,47,214,9060012,,,,,,,2022-06-20,1,,,,,ミツバチゴー,0
277,1360001030579,新規,0,2022-06-20,2022-06-20,一心食品株式会社,,株式会社,沖縄県,南城市,大里字大城１９２７番地,,47,215,9011203,,,,,,,2022-06-20,1,,,,,イッシンショクヒン,0
280,1360005006674,新規,0,2022-06-20,2022-06-20,税理士法人ニライ,,その他の設立登記法人,沖縄県,中頭郡北谷町,字浜川８番地２４しまぜんビル２Ｆ－Ｂ,,47,326,9040112,,,,,,,2022-06-20,1,,,,,ニライ,0
283,1380001032904,新規,0,2022-06-20,2022-06-20,株式会社リコエイト,,株式会社,福島県,南相馬市,原町区日の出町１６７－７,,07,212,9750038,,,,,,,2022-06-20,1,,,,,リコエイト,0
288,1400003002951,新規,0,2022-06-20,2022-06-20,合同会社ゆあのいえ,,合同会社,岩手県,盛岡市,大沢川原１丁目１番２４－９０２号,,03,201,0200025,,,,,,,2022-06-20,1,,,,,ユアノイエ,0
290,1420003002537,新規,0,2022-06-20,2022-06-20,合同会社ＳＵＮＳ,,合同会社,青森県,弘前市,大字城東中央４丁目２－３,,02,202,0368093,,,,,,,2022-06-20,1,,,,,サンズ,0
294,1440001009103,新規,0,2022-06-20,2022-06-20,株式会社ＫＡＺ,,株式会社,北海道,北斗市,市渡４９２番地の１０,,01,236,0411242,,,,,,,2022-06-20,1,,,,,カズ,0
299,1500001024285,新規,0,2022-06-20,2022-06-20,株式会社ＴＮＫ　ＷＯＲＫＳ,,株式会社,愛媛県,松山市,北条辻３７４番地３,00126920,38,201,7992430,,,,,,,2022-06-20,1,,,,,,0
301,1700150023340,新規,0,2022-06-20,2015-10-09,薬業福祉共済会,,その他,大阪府,大阪市中央区,内平野町３丁目２－５,,27,128,5400037,,,,,,,2015-10-09,1,,,,,ヤクギヨウフクシキヨウサイカイ,0
304,1700150109362,新規,0,2022-06-20,2022-06-10,Ｂ機関,,その他,東京都,杉並区,阿佐谷南２丁目１１番地２３号,,13,115,1660004,,,,,,,2022-06-10,1,,,,,ビーキカン,0
305,1700150110122,新規,0,2022-06-20,2022-06-20,モルビート・インク,,外国会社等,東京都,渋谷区,桜丘町２９－２４,,13,113,1500031,アメリカ合衆国カリフォルニア州トーランス市スペンサー・ストリート４０３０番１０１号,,,,,,2022-06-20,1,,,,,モルビートインク,0
311,2010001227498,新規,0,2022-06-20,2022-06-20,ファイブアイランド株式会社,,株式会社,東京都,中央区,月島１丁目２２番１－２９０９号,,13,102,1040052,,,,,,,2022-06-20,1,,,,,ファイブアイランド,0
312,2010001227507,新規,0,2022-06-20,2022-06-20,株式会社ＡＩＤＮ,,株式会社,東京都,千代田区,平河町２丁目５番２－８０１号,,13,101,1020093,,,,,,,2022-06-20,1,,,,,アイデン,0
313,2010001227531,新規,0,2022-06-20,2022-06-20,株式会社サムポローニア,,株式会社,東京都,千代田区,大手町２丁目２番１号,,13,101,1000004,,,,,,,2022-06-20,1,,,,,サムポローニア,0
315,2010003037904,新規,0,2022-06-20,2022-06-20,中島商事合同会社,,合同会社,東京都,中央区,日本橋堀留町２丁目７－２－３０８,,13,102,1030012,,,,,,,2022-06-20,1,,,,,ナカジマショウジ,0
322,2010401168020,新規,0,2022-06-20,2022-06-20,株式会社Ｄｅｒａｉｌ,,株式会社,東京都,港区,赤坂２丁目６番１５－４０５号,,13,103,1070052,,,,,,,2022-06-20,1,,,,,ディレイル,0
323,2010401168037,新規,0,2022-06-20,2022-06-20,株式会社サンク,,株式会社,東京都,港区,南麻布２丁目３番２２号,,13,103,1060047,,,,,,,2022-06-20,1,,,,,サンク,0
324,2010401168061,新規,0,2022-06-20,2022-06-20,株式会社ＳＴＡＲＦＩＥＬＤ,,株式会社,東京都,港区,赤坂６丁目８番２－４０３号,,13,103,1070052,,,,,,,2022-06-20,1,,,,,スターフィールド,0
327,2010403027926,新規,0,2022-06-20,2022-06-20,合同会社シグマ,,合同会社,東京都,港区,南青山１丁目３番１号,,13,103,1070062,,,,,,,2022-06-20,1,,,,,シグマ,0
328,2010405021126,新規,0,2022-06-20,2022-06-20,ＪＭシェラタン一般社団法人,,その他の設立登記法人,東京都,港区,六本木１丁目９番１０号アークヒルズ仙石山森タワー４０階,,13,103,1060032,,,,,,,2022-06-20,1,,,,,ジェイエムシェラタン,0
337,2010801033063,新規,0,2022-06-20,2022-06-20,海徳株式会社,,株式会社,東京都,大田区,矢口１丁目１６番１９号コスモビルＩＩ３０８室,00126931,13,111,1460093,,,,,,,2022-06-20,1,,,,,カイトク,0
338,2010803004211,新規,0,2022-06-20,2022-06-20,イープランニング合同会社,,合同会社,東京都,大田区,山王２丁目３０番１４号,,13,111,1430023,,,,,,,2022-06-20,1,,,,,イープランニング,0
346,2011001148098,新規,0,2022-06-20,2022-06-20,ＥｎＬｕｘ株式会社,,株式会社,東京都,目黒区,碑文谷３丁目３番１９－２０２号パークホームズ碑文谷ロジュマン,,13,110,1520003,,,,,,,2022-06-20,1,,,,,エンルクス,0
347,2011001148107,新規,0,2022-06-20,2022-06-20,株式会社ＲＥＶＥＲＳＩ,,株式会社,東京都,渋谷区,神宮前６丁目２３－４桑野ビル２階,,13,113,1500001,,,,,,,2022-06-20,1,,,,,リバーシ,0
348,2011001148148,新規,0,2022-06-20,2022-06-20,株式会社イーサポ,,株式会社,東京都,渋谷区,恵比寿西２丁目１番１０号,,13,113,1500021,,,,,,,2022-06-20,1,,,,,イーサポ,0
351,2011003014884,新規,0,2022-06-20,2022-06-20,Ｎａｔｕｒａｒｉｕｍ合同会社,,合同会社,東京都,目黒区,中根１丁目２番１０－６０５号ドレッセ都立大学,,13,110,1520031,,,,,,,2022-06-20,1,,,,,ナチュラリウム,0
355,2011105010286,新規,0,2022-06-20,2022-06-20,インスワーク社会保険労務士法人,,その他の設立登記法人,東京都,新宿区,西新宿７丁目１番７号新宿ダイカンプラザＡ１０１８,,13,104,1600023,,,,,,,2022-06-20,1,,,,,インスワーク,0
361,2011401024329,新規,0,2022-06-20,2022-06-20,株式会社Ｆｏｒ　ｆｉｌｏ,,株式会社,東京都,板橋区,宮本町１２番９号フォーリア板橋本町１０２号,,13,119,1740054,,,,,,,2022-06-20,1,,,,,フォーフィーロ,0
364,2011501028147,新規,0,2022-06-20,2022-06-20,ＴＯＵＣＨＢｅａｕｔｙ株式会社,,株式会社,東京都,荒川区,東日暮里３丁目２８番５号,,13,118,1160014,,,,,,,2022-06-20,1,,,,,タッチビューティー,0
365,2011503005193,新規,0,2022-06-20,2022-06-20,合同会社ＫＥＹＡＫＩ,,合同会社,東京都,北区,赤羽北３丁目１５番１７号,,13,117,1150052,,,,,,,2022-06-20,1,,,,,ケヤキ,0
368,2011603003626,新規,0,2022-06-20,2022-06-20,合同会社ＡＮＥＢＥＭＯ,,合同会社,東京都,練馬区,平和台１丁目３６番１５シーズリカルド平和台２０１号,,13,120,1790083,,,,,,,2022-06-20,1,,,,,アネベモ,0
369,2011801040883,新規,0,2022-06-20,2022-06-20,ＧｏｏＧｒｅｅ株式会社,,株式会社,東京都,足立区,北加平町２１番６－４０１号,,13,121,1210056,,,,,,,2022-06-20,1,,,,,グーグリー,0
370,2011801040891,新規,0,2022-06-20,2022-06-20,株式会社グローバルクリーン,,株式会社,東京都,葛飾区,お花茶屋１丁目１７番１０号,,13,122,1240003,,,,,,,2022-06-20,1,,,,,グローバルクリーン,0
371,2011803005141,新規,0,2022-06-20,2022-06-20,合同会社ＧＲＡＤＥ　ＲＩＺＥ,,合同会社,東京都,葛飾区,堀切４丁目６３番９号,,13,122,1240006,,,,,,,2022-06-20,1,,,,,グレードライズ,0
384,2013301049249,新規,0,2022-06-20,2022-06-20,株式会社テンフロント,,株式会社,東京都,豊島区,要町１丁目３７－５,,13,116,1710043,,,,,,,2022-06-20,1,,,,,テンフロント,0
392,2020001147019,新規,0,2022-06-20,2022-06-20,島田石材株式会社,,株式会社,神奈川県,川崎市川崎区,藤崎１丁目２１番８号,,14,131,2100804,,,,,,,2022-06-20,1,,,,,シマダセキザイ,0
396,2020003021948,新規,0,2022-06-20,2022-06-20,合同会社Ｙ．Ｍ．Ｃｃ,,合同会社,神奈川県,横浜市保土ケ谷区,新桜ケ丘１丁目６４番４－３０４号,,14,106,2400036,,,,,,,2022-06-20,1,,,,,ワイエムシー,0
406,2021001076216,新規,0,2022-06-20,2022-06-20,株式会社Ｋａｏｍｉ　Ｇｌａｓｓｙ,,株式会社,神奈川県,茅ヶ崎市,出口町６番４９号出口町テラスＢ－２,,14,207,2530028,,,,,,,2022-06-20,1,,,,,カオミグラッシー,0
407,2021001076298,新規,0,2022-06-20,2022-06-20,マーロウＲ株式会社,,株式会社,神奈川県,横須賀市,平成町２丁目７番地１ベイテックビル１階,,14,201,2380013,,,,,,,2022-06-20,1,,,,,マーロウアール,0
428,2040005021655,新規,0,2022-06-20,2022-06-20,一般社団法人全国キッチンカー協会,,その他の設立登記法人,千葉県,柏市,あけぼの４丁目７番２０号長谷川荘１Ｃ号,,12,217,2770841,,,,,,,2022-06-20,1,,,,,ゼンコクキッチンカーキョウカイ,0
431,2050003006624,新規,0,2022-06-20,2022-06-20,ＴＯＫＹＯ　ＬＡＮＫＡ合同会社,,合同会社,茨城県,筑西市,海老ヶ島１１３４番地３,,08,227,3004517,,,,,,,2022-06-20,1,,,,,トーキョーランカー,0
436,2060001034997,新規,0,2022-06-20,2022-06-20,ｏｆｆｉｃｅ‐Ｄｕｙ株式会社,,株式会社,栃木県,那須塩原市,一区町１００－１５,,09,213,3292732,,,,,,,2022-06-20,1,,,,,オフィスジィ,0
437,2060003004107,新規,0,2022-06-20,2022-06-20,合同会社漆工房すずき,,合同会社,栃木県,宇都宮市,鶴田町２４９２番地２２,,09,201,3200851,,,,,,,2022-06-20,1,,,,,ウルシコウボウスズキ,0
446,2070001039335,新規,0,2022-06-20,2022-06-20,株式会社アイソトーププラス,,株式会社,群馬県,前橋市,関根町３丁目１番地２２,,10,201,3710047,,,,,,,2022-06-20,1,,,,,アイソトーププラス,0
448,2080001025029,新規,0,2022-06-20,2022-06-20,ＲｅＦｌｅｘ株式会社,,株式会社,静岡県,藤枝市,高洲４８番地の１,,22,214,4260046,,,,,,,2022-06-20,1,,,,,リフレックス,0
468,2120001246751,新規,0,2022-06-20,2022-06-20,ＣＯＭＳＬＩＮＥ株式会社,,株式会社,大阪府,大阪市北区,中崎西１丁目３番９－４０５号,,27,127,5300015,,,,,,,2022-06-20,1,,,,,コムズライン,0
469,2120001246801,新規,0,2022-06-20,2022-06-20,株式会社Ｋ＆Ｍ,,株式会社,大阪府,大阪市中央区,上本町西２丁目５番５２号コーポシャルム１０２号,,27,128,5420062,,,,,,,2022-06-20,1,,,,,ケーアンドエム,0
475,2120101065779,新規,0,2022-06-20,2022-06-20,株式会社ｍｕｎｉ,,株式会社,大阪府,松原市,高見の里２丁目６１番２号,,27,217,5800021,,,,,,,2022-06-20,1,,,,,ムニ,0
476,2120105009575,新規,0,2022-06-20,2022-06-20,行政書士法人オフィスつばさ,,その他の設立登記法人,大阪府,堺市堺区,新町３番４号アトリエール堺新町１階,,27,141,5900079,,,,,,,2022-06-20,1,,,,,オフィスツバサ,0
479,2120901046128,新規,0,2022-06-20,2022-06-20,ＴＭＪ・ｐｒｏｖｅｎｃｅ株式会社,,株式会社,大阪府,吹田市,千里山西５丁目４６番５号１Ｂ号室,,27,205,5650851,,,,,,,2022-06-20,1,,,,,ティエムジェイプロヴァンス,0
482,2130001071991,新規,0,2022-06-20,2022-06-20,株式会社Ｉｒｉｓｅｅ,,株式会社,京都府,宇治市,菟道平町２８－１アル・プラザ宇治東３Ｆ,00126942,26,204,6110000,,,,,,,2022-06-20,1,,,,,イリゼ,0
484,2130005016506,新規,0,2022-06-20,2022-06-20,一般社団法人日本ぺたほめアカデミー協会,,その他の設立登記法人,京都府,京都市中京区,西ノ京船塚町１８番地３,00126938,26,104,6048426,,,,,,,2022-06-20,1,,,,,ニホンペタホメアカデミーキョウカイ,0
497,2140003017802,新規,0,2022-06-20,2022-06-20,合同会社フォレスティ企画,,合同会社,兵庫県,神戸市東灘区,本山中町１丁目１６番１号,,28,101,6580016,,,,,,,2022-06-20,1,,,,,フォレスティキカク,0
501,2160001024294,新規,0,2022-06-20,2022-06-20,株式会社Ｂｕｚｚ　Ｂｅｇｉｎ,,株式会社,滋賀県,栗東市,小平井３丁目１０番２０－２０２号エル・アールＫ,,25,208,5203034,,,,,,,2022-06-20,1,,,,,バズビギン,0
503,2160003002595,新規,0,2022-06-20,2022-06-20,ＧＫＴＥＣ合同会社,,合同会社,滋賀県,栗東市,安養寺５丁目４－１４,,25,208,5203015,,,,,,,2022-06-20,1,,,,,ジーケーテック,0
504,2160003002604,新規,0,2022-06-20,2022-06-20,合同会社Ｒｅａｌ,,合同会社,滋賀県,草津市,大路１丁目４番１２－２０５号大丸ソイビル,,25,206,5250032,,,,,,,2022-06-20,1,,,,,リアル,0
512,2180001151707,新規,0,2022-06-20,2022-06-20,株式会社翔栄工業,,株式会社,愛知県,東海市,加木屋町中井道９７番地ヴォーグ２１（１０１号）,,23,222,4770032,,,,,,,2022-06-20,1,,,,,ショウエイコウギョウ,0
513,2180001151797,新規,0,2022-06-20,2022-06-20,株式会社銘和実業,,株式会社,愛知県,名古屋市緑区,赤松５１３番地の１,,23,114,4580837,,,,,,,2022-06-20,1,,,,,メイワジツギョウ,0
514,2180001151806,新規,0,2022-06-20,2022-06-20,株式会社オブリガード,,株式会社,愛知県,名古屋市熱田区,千代田町５番１５号,,23,109,4560073,,,,,,,2022-06-20,1,,,,,オブリガード,0
517,2180003023953,新規,0,2022-06-20,2022-06-20,ＡＭＡ　ｉｎｔｅｒｎａｔｉｏｎａｌ合同会社,,合同会社,愛知県,名古屋市港区,惟信町３丁目２５番地の１シャトーラメールＣ－３,,23,111,4550823,,,,,,,2022-06-20,1,,,,,エーエムエーインターナショナル,0
525,2200001040188,新規,0,2022-06-20,2022-06-20,株式会社かどま,,株式会社,岐阜県,羽島郡笠松町,門間５７０番地の１,,21,303,5016065,,,,,,,2022-06-20,1,,,,,カドマ,0
540,2240003005672,新規,0,2022-06-20,2022-06-20,合同会社Ｃｈａｒｌｍｅ,,合同会社,広島県,広島市中区,中町１－９エフスタイル並木通り６０２,,34,101,7300037,,,,,,,2022-06-20,1,,,,,シャルム,0
541,2260001036965,新規,0,2022-06-20,2022-06-20,株式会社久屋,,株式会社,岡山県,倉敷市,宮前４１８－３,,33,202,7100065,,,,,,,2022-06-20,1,,,,,ヒサヤ,0
544,2280001008723,新規,0,2022-06-20,2022-06-20,株式会社ジャンブレ,,株式会社,島根県,松江市,上乃木６丁目７番５号,,32,201,6900015,,,,,,,2022-06-20,1,,,,,ジャンブレ,0
547,2290003012623,新規,0,2022-06-20,2022-06-20,合同会社カイト,,合同会社,福岡県,福岡市早良区,次郎丸６丁目４番５号,,40,137,8140165,,,,,,,2022-06-20,1,,,,,カイト,0
548,2290003012631,新規,0,2022-06-20,2022-06-20,リフライズエンターテイメント合同会社,,合同会社,福岡県,福岡市博多区,博多駅東１丁目２番２－８０５号,,40,132,8120013,,,,,,,2022-06-20,1,,,,,リフライズエンターテイメント,0
550,2290005018726,新規,0,2022-06-20,2022-06-20,一般社団法人縫の里,,その他の設立登記法人,福岡県,福岡市東区,塩浜１丁目２８－１５メゾンドコスモス１０３号,,40,131,8110203,,,,,,,2022-06-20,1,,,,,ヌイノサト,0
560,2330003009425,新規,0,2022-06-20,2022-06-20,合同会社ＳＯＤＡＴＺ,,合同会社,熊本県,山鹿市,鹿本町御宇田１６９番地３,,43,208,8610304,,,,,,,2022-06-20,1,,,,,ソダッツ,0
568,2360001030561,新規,0,2022-06-20,2022-06-20,宮テクメンテサービス株式会社,,株式会社,沖縄県,宜野湾市,宜野湾１丁目２２番２７－２０１号,,47,205,9012211,,,,,,,2022-06-20,1,,,,,ミヤテクメンテサービス,0
569,2360001030578,新規,0,2022-06-20,2022-06-20,株式会社雅環境ソリューション,,株式会社,沖縄県,島尻郡南風原町,字津嘉山１３８０番地２,,47,350,9011117,,,,,,,2022-06-20,1,,,,,ミヤビカンキョウソリューション,0
570,2360001030586,新規,0,2022-06-20,2022-06-20,株式会社立志企画,,株式会社,沖縄県,那覇市,壺川３丁目１番１０号田良島ビル２－Ａ,,47,201,9000025,,,,,,,2022-06-20,1,,,,,リッシキカク,0
571,2360001030594,新規,0,2022-06-20,2022-06-20,Ｓｋｙｎｅｔ株式会社,,株式会社,沖縄県,宜野湾市,大謝名２丁目３番５号１－Ａ,,47,205,9012225,,,,,,,2022-06-20,1,,,,,スカイネット,0
575,2360003012095,新規,0,2022-06-20,2022-06-20,合同会社縁豊企画,,合同会社,沖縄県,中頭郡北谷町,字吉原７２８番地６ワイズエステムコート北谷パークヒルズ３０２,,47,326,9040105,,,,,,,2022-06-20,1,,,,,エンポウキカク,0
576,2360005006673,新規,0,2022-06-20,2022-06-20,一般社団法人ｎａｌｕ,,その他の設立登記法人,沖縄県,中頭郡読谷村,字都屋９３番地,,47,324,9040305,,,,,,,2022-06-20,1,,,,,ナルー,0
578,2370001048677,新規,0,2022-06-20,2022-06-20,株式会社すめらぎファミリア,,株式会社,宮城県,仙台市宮城野区,燕沢東２丁目７番３７号,,04,102,9830822,,,,,,,2022-06-20,1,,,,,スメラギファミリア,0
579,2370001048693,新規,0,2022-06-20,2022-06-20,株式会社石神彫刻工房,,株式会社,宮城県,柴田郡川崎町,大字今宿字黒岩山３番地,,04,324,9891502,,,,,,,2022-06-20,1,,,,,イシガミチョウコクコウボウ,0
588,2410001013214,新規,0,2022-06-20,2022-06-20,株式会社Ｇｌｅｅ,,株式会社,秋田県,秋田市,八橋本町３丁目２１番２８号,,05,201,0100973,,,,,,,2022-06-20,1,,,,,グリー,0
593,2500001024284,新規,0,2022-06-20,2022-06-20,株式会社五六,,株式会社,愛媛県,松山市,三番町２丁目６番地１８参番館ビル３Ｆ,,38,201,7900003,,,,,,,2022-06-20,1,,,,,ゴロク,0
610,3010001227506,新規,0,2022-06-20,2022-06-20,株式会社ＭＹ　ｄｏｃｔｏｒｓ,,株式会社,東京都,千代田区,飯田橋４丁目４番９号ダイアパレス飯田橋４１０号室,,13,101,1020072,,,,,,,2022-06-20,1,,,,,マイドクターズ,0
613,3010003037911,新規,0,2022-06-20,2022-06-20,ラベエネェディクション合同会社,,合同会社,東京都,千代田区,平河町１丁目６番１５号ＵＳビル８Ｆ,,13,101,1020093,,,,,,,2022-06-20,1,,,,,ラベエネェディクション,0
615,3010005035153,新規,0,2022-06-20,2022-06-20,一般社団法人村山財産管理,,その他の設立登記法人,東京都,千代田区,永田町２丁目１２番４号リオ・パートナーズ総合事務所内,,13,101,1000014,,,,,,,2022-06-20,1,,,,,ムラヤマザイサンカンリ,0
622,3010401167913,新規,0,2022-06-20,2022-06-20,株式会社Ｍｉｒａｌｂａ,,株式会社,東京都,港区,南青山１丁目３番１－２６０８号,,13,103,1070062,,,,,,,2022-06-20,1,,,,,ミラルバ,0
623,3010401167987,新規,0,2022-06-20,2022-06-20,株式会社Ｊａｐａｎ　ＮＦＴ　Ｍａｒｋｅｔ,,株式会社,東京都,港区,海岸３丁目６－３２レグノオンザベイ８０５,,13,103,1080022,,,,,,,2022-06-20,1,,,,,ジャパンエヌエフティーマーケット,0
624,3010401168044,新規,0,2022-06-20,2022-06-20,株式会社レンレン,,株式会社,東京都,港区,麻布狸穴町４４番地１－９０９,,13,103,1060042,,,,,,,2022-06-20,1,,,,,レンレン,0
625,3010401168052,新規,0,2022-06-20,2022-06-20,デルタコンサルティング株式会社,,株式会社,東京都,港区,西新橋１丁目２１番１２号諸橋ビル３階丸山公認会計士・税理士事務所内,,13,103,1050003,,,,,,,2022-06-20,1,,,,,デルタコンサルティング,0
626,3010401168085,新規,0,2022-06-20,2022-06-20,株式会社ＭＹ　ＣＯＬＬＥＣＴ,,株式会社,東京都,港区,浜松町２丁目２番１５号浜松町ダイヤビル２Ｆ,,13,103,1050013,,,,,,,2022-06-20,1,,,,,マイコレクト,0
628,3010403027925,新規,0,2022-06-20,2022-06-20,合同会社Ｚｅｎ,,合同会社,東京都,港区,南青山２丁目２番１５号,,13,103,1070062,,,,,,,2022-06-20,1,,,,,ゼン,0
629,3010403027933,新規,0,2022-06-20,2022-06-20,合同会社Ｇｅｍｓｔｏｎｅ,,合同会社,東京都,港区,赤坂４丁目５－２１バルミー赤坂１０６,,13,103,1070052,,,,,,,2022-06-20,1,,,,,ジェムストーン,0
630,3010405021091,新規,0,2022-06-20,2022-06-20,一般社団法人サステナブルソーラー,,その他の設立登記法人,東京都,港区,元赤坂１丁目１番７号,,13,103,1070051,,,,,,,2022-06-20,1,,,,,サステナブルソーラー,0
631,3010405021125,新規,0,2022-06-20,2022-06-20,ＪＭハマル一般社団法人,,その他の設立登記法人,東京都,港区,六本木１丁目９番１０号アークヒルズ仙石山森タワー４０階,,13,103,1060032,,,,,,,2022-06-20,1,,,,,ジェイエムハマル,0
653,3011001148064,新規,0,2022-06-20,2022-06-20,Ｓｙｎａｘｉｓ株式会社,,株式会社,東京都,渋谷区,松濤１丁目２８－２ワークコート渋谷松濤,,13,113,1500046,,,,,,,2022-06-20,1,,,,,シナクシス,0
654,3011001148114,新規,0,2022-06-20,2022-06-20,株式会社ＹＥＬＬＯＷ　ＢＵＳＨ,,株式会社,東京都,渋谷区,神宮前５丁目１７－２４－３Ｆ,,13,113,1500001,,,,,,,2022-06-20,1,,,,,イエローブッシュ,0
655,3011001148122,新規,0,2022-06-20,2022-06-20,株式会社ディグレース,,株式会社,東京都,目黒区,碑文谷２丁目１６番１２号サンヴェール目黒碑文谷１０５,,13,110,1520003,,,,,,,2022-06-20,1,,,,,ディグレース,0
656,3011001148130,新規,0,2022-06-20,2022-06-20,株式会社Ｇｒａｔｅｆｕｌ　Ｌｉｆｅ,,株式会社,東京都,目黒区,目黒１丁目９番４－１１１号,,13,110,1530063,,,,,,,2022-06-20,1,,,,,グレイトフルライフ,0
657,3011001148147,新規,0,2022-06-20,2022-06-20,株式会社ｗｉｔｈｂｅａ,,株式会社,東京都,渋谷区,上原１丁目４１番５号,,13,113,1510064,,,,,,,2022-06-20,1,,,,,ウィズビー,0
658,3011001148155,新規,0,2022-06-20,2022-06-20,株式会社チルタイム,,株式会社,東京都,渋谷区,神南１丁目２３番１４号,,13,113,1500041,,,,,,,2022-06-20,1,,,,,チルタイム,0
663,3011003014867,新規,0,2022-06-20,2022-06-20,合同会社Ｃｏｍｅ　Ｔｒｕｅ,,合同会社,東京都,渋谷区,道玄坂１丁目１０番８号渋谷道玄坂東急ビル２Ｆ―Ｃ,,13,113,1500043,,,,,,,2022-06-20,1,,,,,カムトゥルー,0
670,3011103011871,新規,0,2022-06-20,2022-06-20,ＢａｙＳｉｔｅ合同会社,,合同会社,東京都,新宿区,西新宿３丁目３－１３西新宿水間ビル６階,,13,104,1600023,,,,,,,2022-06-20,1,,,,,ベイサイト,0
675,3011503005192,新規,0,2022-06-20,2022-06-20,合同会社ＩＢ　Ｌｅａｒｎｉｎｇ　Ｓｔａｔｉｏｎ,,合同会社,東京都,荒川区,東尾久３丁目４番２号青田マンション３０２,,13,118,1160012,,,,,,,2022-06-20,1,,,,,アイビーラーニングステーション,0
678,3011701025389,新規,0,2022-06-20,2022-06-20,愛心クリーンサービス株式会社,,株式会社,東京都,江戸川区,中央４丁目８番２号,,13,123,1320021,,,,,,,2022-06-20,1,,,,,アミクリーンサービス,0
683,3011801040890,新規,0,2022-06-20,2022-06-20,株式会社リテラ,,株式会社,東京都,足立区,千住１丁目３７番２号プティーボワービル６０１,,13,121,1200034,,,,,,,2022-06-20,1,,,,,リテラ,0
684,3011803005140,新規,0,2022-06-20,2022-06-20,合同会社武寿司,,合同会社,東京都,足立区,千住橋戸町５０番地,,13,121,1200038,,,,,,,2022-06-20,1,,,,,タケズシ,0
692,3013301049248,新規,0,2022-06-20,2022-06-20,株式会社Ｂｉｔａｌ,,株式会社,東京都,豊島区,南大塚２丁目１１番１０号ミモザビル３階,,13,116,1700005,,,,,,,2022-06-20,1,,,,,バイタル,0
693,3013301049264,新規,0,2022-06-20,2022-06-20,株式会社ＫＡＳＡＩ,,株式会社,東京都,豊島区,千早１丁目２３番１３号,,13,116,1710044,,,,,,,2022-06-20,1,,,,,カサイ,0
694,3013301049272,新規,0,2022-06-20,2022-06-20,株式会社ＡＢＳ　ＪＡＰＡＮ,,株式会社,東京都,豊島区,要町３丁目１３番３号,,13,116,1710043,,,,,,,2022-06-20,1,,,,,エービーエスジャパン,0
700,3020001146944,新規,0,2022-06-20,2022-06-20,株式会社ＮｉｎｅＣｏｍｐａｎｙ,,株式会社,神奈川県,川崎市高津区,久本１丁目１０番１号３０１,,14,134,2130011,,,,,,,2022-06-20,1,,,,,ナインカンパニー,0
707,3021001076280,新規,0,2022-06-20,2022-06-20,株式会社Ｙ・Ｓ・Ｒ　ＴＲＡＤＩＮＧ,,株式会社,神奈川県,南足柄市,塚原１３５９番地１,,14,217,2500117,,,,,,,2022-06-20,1,,,,,,0
708,3021001076289,新規,0,2022-06-20,2022-06-20,株式会社ピープル,,株式会社,神奈川県,相模原市緑区,橋本３丁目２７番６号Ｓ＆Ｙビル４Ｆ－２,,14,151,2520143,,,,,,,2022-06-20,1,,,,,ピープル,0
709,3021001076297,新規,0,2022-06-20,2022-06-20,９．５ｔｈ　Ｄｅｓｉｇｎ株式会社,,株式会社,神奈川県,鎌倉市,津４３７番地１・３０７,,14,204,2480032,,,,,,,2022-06-20,1,,,,,,0
710,3021003011839,新規,0,2022-06-20,2022-06-20,合同会社浜根,,合同会社,神奈川県,横須賀市,野比４丁目７番１３号,,14,201,2390841,,,,,,,2022-06-20,1,,,,,ハマネ,0
723,3040001123925,新規,0,2022-06-20,2022-06-20,株式会社ナミメン,,株式会社,千葉県,松戸市,六高台７丁目２６番地の１１,,12,207,2702203,,,,,,,2022-06-20,1,,,,,ナミメン,0
728,3060001034996,新規,0,2022-06-20,2022-06-20,株式会社ｍｙ　ｏｗｎ　ｃｒｅｓｃｅｎｔ,,株式会社,栃木県,宇都宮市,中戸祭町７８９番地１３,,09,201,3200052,,,,,,,2022-06-20,1,,,,,マイオウンクレセント,0
732,3070001039334,新規,0,2022-06-20,2022-06-20,株式会社Ｃｙｎｔｈｉａ,,株式会社,群馬県,邑楽郡明和町,新里６５５番地３,,10,522,3700708,,,,,,,2022-06-20,1,,,,,シンシア,0
733,3070001039342,新規,0,2022-06-20,2022-06-20,ＴＯＹＯヘルスケアホールディング株式会社,,株式会社,群馬県,北群馬郡吉岡町,大字大久保５８２,,10,345,3703602,,,,,,,2022-06-20,1,,,,,トウヨウヘルスケアホールディング,0
736,3080001025028,新規,0,2022-06-20,2022-06-20,株式会社Ｓａｉｔｏ’ｓＯｎｅ‐Ｏｆｆ,,株式会社,静岡県,静岡市清水区,草薙１０３５番地の１２,,22,103,4240886,,,,,,,2022-06-20,1,,,,,サイトウズワンオフ,0
743,3090001017627,新規,0,2022-06-20,2022-06-20,ＩＧＣＨ　ＭＯＮ株式会社,,株式会社,山梨県,富士吉田市,上吉田５３６８番地の１－５号室,,19,202,4030005,,,,,,,2022-06-20,1,,,,,,0
758,3120001246775,新規,0,2022-06-20,2022-06-20,Ｐｓｙｃｈｅ　Ｃｈｅｍｉｃａｌｓ株式会社,,株式会社,大阪府,大阪市西区,本田３丁目７番６－５０１号,,27,106,5500022,,,,,,,2022-06-20,1,,,,,サイケケミカルズ,0
759,3120001246800,新規,0,2022-06-20,2022-06-20,株式会社河崎笑店,00126928,株式会社,大阪府,大阪市都島区,網島町６番１４号,,27,102,5340026,,,,,,,2022-06-20,1,,,,,カワサキショウテン,0
760,3120001246809,新規,0,2022-06-20,2022-06-20,株式会社ファーストリンク,,株式会社,大阪府,大阪市此花区,西九条１丁目３３番１３号オークラ第２ビル２階,,27,104,5540012,,,,,,,2022-06-20,1,,,,,ファーストリンク,0
766,3120003021920,新規,0,2022-06-20,2022-06-20,オネスト合同会社,,合同会社,大阪府,大阪市中央区,内本町２丁目４番１６号オフィスポート内本町ビル１１０４,,27,128,5400026,,,,,,,2022-06-20,1,,,,,オネスト,0
772,3120101065778,新規,0,2022-06-20,2022-06-20,株式会社家不動産,,株式会社,大阪府,堺市西区,鳳北町３丁１５０番地,,27,144,5938328,,,,,,,2022-06-20,1,,,,,イエフドウサン,0
776,3120901046093,新規,0,2022-06-20,2022-06-20,株式会社ＨＲＫクリエイト,,株式会社,大阪府,豊中市,南桜塚１丁目１３番５８－２０１号,,27,203,5610882,,,,,,,2022-06-20,1,,,,,エイチアールケークリエイト,0
779,3130001071982,新規,0,2022-06-20,2022-06-20,株式会社Ｊ‐Ｃｏｍｐａｎｙ,,株式会社,京都府,宇治市,小倉町西山８２番地Ｄ・Ａコート１Ｆ,,26,204,6110042,,,,,,,2022-06-20,1,,,,,ジェイカンパニー,0
780,3130001071999,新規,0,2022-06-20,2022-06-20,Ｋｉｍｏｎｏｍｙ株式会社,,株式会社,京都府,京都市下京区,朱雀宝蔵町４４番地協栄ビル２階和文化推進協会内,,26,106,6008846,,,,,,,2022-06-20,1,,,,,キモノミー,0
782,3130005016505,新規,0,2022-06-20,2022-06-20,一般社団法人ペットエンバーミングラボ,,その他の設立登記法人,京都府,京都市伏見区,久我石原町２－４,,26,109,6128491,,,,,,,2022-06-20,1,,,,,ペットエンバーミングラボ,0
789,3140001126356,新規,0,2022-06-20,2022-06-20,株式会社カルボン,,株式会社,兵庫県,芦屋市,前田町６番６－５０１号,,28,206,6590071,,,,,,,2022-06-20,1,,,,,カルボン,0
790,3140001126372,新規,0,2022-06-20,2022-06-20,株式会社Ｒａｍｂｏｄ　Ｊａｐａｎ,,株式会社,兵庫県,神戸市中央区,熊内町４丁目１２番４号新神戸アパートメント１１０６号,,28,110,6510056,,,,,,,2022-06-20,1,,,,,ランボードジャパン,0
791,3140001126414,新規,0,2022-06-20,2022-06-20,株式会社ハミングバード,,株式会社,兵庫県,神戸市灘区,大内通６丁目２番１３号,,28,102,6570833,,,,,,,2022-06-20,1,,,,,ハミングバード,0
796,3140003017818,新規,0,2022-06-20,2022-06-20,ホーンプバック合同会社,,合同会社,兵庫県,宝塚市,向月町１７－７－１０７号,,28,214,6650832,,,,,,,2022-06-20,1,,,,,ホーンプバック,0
800,3160001024302,新規,0,2022-06-20,2022-06-20,株式会社アイテックコーポレーション,,株式会社,滋賀県,長浜市,高月町熊野１３２４番地４,,25,203,5290271,,,,,,,2022-06-20,1,,,,,アイテックコーポレーション,0
804,3160003002603,新規,0,2022-06-20,2022-06-20,レズモス合同会社,,合同会社,滋賀県,近江八幡市,八木町４０２番地,,25,204,5230051,,,,,,,2022-06-20,1,,,,,レズモス,0
814,3180001151739,新規,0,2022-06-20,2022-06-20,株式会社ティエムエフホールディングス,,株式会社,愛知県,一宮市,三ツ井５丁目１８番５号,,23,203,4910827,,,,,,,2022-06-20,1,,,,,ティエムエフホールディングス,0
815,3180001151755,新規,0,2022-06-20,2022-06-20,株式会社エパヌウィール,,株式会社,愛知県,名古屋市天白区,鴻の巣１丁目５０４番地,,23,116,4680003,,,,,,,2022-06-20,1,,,,,エパヌウィール,0
816,3180001151796,新規,0,2022-06-20,2022-06-20,小林興業株式会社,,株式会社,愛知県,名古屋市港区,土古町４丁目６５番地の１,,23,111,4550068,,,,,,,2022-06-20,1,,,,,コバヤシコウギョウ,0
817,3180001151813,新規,0,2022-06-20,2022-06-20,株式会社ワールドタイトトレーディング,,株式会社,愛知県,名古屋市港区,港栄３丁目１１番１１号,,23,111,4550015,,,,,,,2022-06-20,1,,,,,ワールドタイトトレーディング,0
818,3180001151821,新規,0,2022-06-20,2022-06-20,株式会社ａｎｄ　ＭＯＲＥ,,株式会社,愛知県,名古屋市中区,大須１丁目７番１４号パークＩＭビル２Ｆ,,23,106,4600011,,,,,,,2022-06-20,1,,,,,アンドモア,0
826,3200001040195,新規,0,2022-06-20,2022-06-20,株式会社ＥＮ,,株式会社,岐阜県,大垣市,昼飯町９８番地,,21,202,5032216,,,,,,,2022-06-20,1,,,,,エン,0
828,3200003005592,新規,0,2022-06-20,2022-06-20,合同会社Ｅｓｎ,,合同会社,岐阜県,可児市,広見４丁目４０番地ライオンズマンション１０２号,,21,214,5090214,,,,,,,2022-06-20,1,,,,,イーエスエヌ,0
845,3240001059959,新規,0,2022-06-20,2022-06-20,株式会社藤田技建,,株式会社,広島県,廿日市市,天神１１番７号,,34,213,7380012,,,,,,,2022-06-20,1,,,,,フジタギケン,0
852,3260001036964,新規,0,2022-06-20,2022-06-20,株式会社ピアーサーティー南関東,,株式会社,岡山県,倉敷市,宮前４１８－３,,33,202,7100065,,,,,,,2022-06-20,1,,,,,ピアーサーティーミナミカントウ,0
853,3270001008558,新規,0,2022-06-20,2022-06-20,株式会社Ｓｕｎ　ｉｎ　Ａｕｔｏ,,株式会社,鳥取県,鳥取市,湖山町東４丁目７番地,,31,201,6800942,,,,,,,2022-06-20,1,,,,,サンインオート,0
860,3290001097979,新規,0,2022-06-20,2022-06-20,株式会社ホテリエ,,株式会社,福岡県,福岡市博多区,博多駅南１丁目１５番１号,,40,132,8120016,,,,,,,2022-06-20,1,,,,,ホテリエ,0
861,3290001097987,新規,0,2022-06-20,2022-06-20,ＣＯＭＯＴＯ貿易株式会社,,株式会社,福岡県,福岡市東区,雁の巣２丁目１４番７号プレジールハイツ２０１号室,,40,131,8110206,,,,,,,2022-06-20,1,,,,,コモトボウエキ,0
868,3320001019145,新規,0,2022-06-20,2022-06-20,株式会社ｒｅｂｌｕｅ・ＵＳＡ,,株式会社,大分県,宇佐市,大字和気１０６９番地の２,,44,211,8791135,,,,,,,2022-06-20,1,,,,,レブルウサ,0
882,3360001030569,新規,0,2022-06-20,2022-06-20,株式会社ＡＩＭＳ,,株式会社,沖縄県,中頭郡西原町,字小波津６２４番地１,,47,329,9030118,,,,,,,2022-06-20,1,,,,,エイムス,0
885,3360003012103,新規,0,2022-06-20,2022-06-20,合同会社うむい,,合同会社,沖縄県,南城市,大里字稲嶺１９９５番地１,,47,215,9011204,,,,,,,2022-06-20,1,,,,,ウムイ,0
897,3390001016937,新規,0,2022-06-20,2022-06-20,株式会社想造舎,,株式会社,山形県,寒河江市,栄町２‐２,,06,206,9910034,,,,,,,2022-06-20,1,,,,,ソウゾウシャ,0
911,3430001086819,新規,0,2022-06-20,2022-06-20,株式会社スカイオートカンパニー,,株式会社,北海道,札幌市清田区,清田３３３番地９３,,01,110,0040859,,,,,,,2022-06-20,1,,,,,スカイオートカンパニー,0
920,3700150109369,新規,0,2022-06-20,2022-06-10,なんば悪役組合,,その他,大阪府,大阪市天王寺区,勝山２丁目１７－１７ヒルトン幸和６０２,,27,109,5430043,,,,,,,2022-06-10,1,,,,,ナンバアクヤククミアイ,0
921,3700150109443,新規,0,2022-06-20,2022-06-10,グループＫ,,その他,東京都,中野区,本町６丁目２０－７－２Ｆ,,13,114,1640012,,,,,,,2022-06-10,1,,,,,グループケー,0
925,4010001227348,新規,0,2022-06-20,2022-06-20,株式会社Ｎｉｔｙ,,株式会社,東京都,中央区,銀座７丁目１３番６号サガミビル２階,,13,102,1040061,,,,,,,2022-06-20,1,,,,,ニティ,0
926,4010001227505,新規,0,2022-06-20,2022-06-20,ＨＭＡＸ株式会社,,株式会社,東京都,中央区,東日本橋２丁目２８番５号５０８,,13,102,1030004,,,,,,,2022-06-20,1,,,,,エイチマックス,0
927,4010001227513,新規,0,2022-06-20,2022-06-20,明石ビジネスサポート株式会社,,株式会社,東京都,中央区,湊３丁目８番１－７０８号,,13,102,1040043,,,,,,,2022-06-20,1,,,,,アカシビジネスサポート,0
928,4010001227521,新規,0,2022-06-20,2022-06-20,Ｕｎｉｏｎ　ｌａｂ株式会社,,株式会社,東京都,中央区,日本橋久松町６番９号ＡＳＯＮＥ日本橋Ｅａｓｔ６階,,13,102,1030005,,,,,,,2022-06-20,1,,,,,ユニオンラボ,0
931,4010003037885,新規,0,2022-06-20,2022-06-20,合同会社ｌｕｍｏ,,合同会社,東京都,中央区,銀座６丁目１３番１６号銀座ＷａｌｌビルＵＣＦ５０１,,13,102,1040061,,,,,,,2022-06-20,1,,,,,ルーモ,0
948,4010401167937,新規,0,2022-06-20,2022-06-20,株式会社ＨＲ　Ｂｅｓｔ　Ｐａｒｔｎｅｒｓ,,株式会社,東京都,港区,新橋４丁目３１番３号第３名和ビル２Ｆ,,13,103,1050004,,,,,,,2022-06-20,1,,,,,エイチアールベストパートナーズ,0
949,4010403027841,新規,0,2022-06-20,2022-06-20,合同会社バリュープラス,,合同会社,東京都,港区,芝浦４丁目２１番１―２９０９号,,13,103,1080023,,,,,,,2022-06-20,1,,,,,バリュープラス,0
950,4010403027866,新規,0,2022-06-20,2022-06-20,合同会社ＭＩＲＯＫＵ,,合同会社,東京都,港区,海岸１丁目４―２２ＳＮビル６階Ｃｏ．Ｐｏｌａｒｉｓ（同）内,,13,103,1050022,,,,,,,2022-06-20,1,,,,,ミロク,0
951,4010403027924,新規,0,2022-06-20,2022-06-20,ＷＥＨ２合同会社,,合同会社,東京都,港区,赤坂１丁目１２番３２号アーク森ビル２２階,,13,103,1070052,,,,,,,2022-06-20,1,,,,,ダブルイーエイチツー,0
952,4010403027949,新規,0,2022-06-20,2022-06-20,ＪＭシェラタン２合同会社,,合同会社,東京都,港区,六本木１丁目９番１０号アークヒルズ仙石山森タワー４０階,,13,103,1060032,,,,,,,2022-06-20,1,,,,,ジェイエムシェラタンツー,0
954,4010405021124,新規,0,2022-06-20,2022-06-20,一般社団法人Ｃｒａｐｏｍ,,その他の設立登記法人,東京都,港区,虎ノ門３丁目２２番１０－２０１号,,13,103,1050001,,,,,,,2022-06-20,1,,,,,クラポム,0
959,4010601061295,新規,0,2022-06-20,2022-06-20,株式会社サカモトデンキ,,株式会社,東京都,江東区,南砂２丁目２番１１－９０５号,,13,108,1360076,,,,,,,2022-06-20,1,,,,,サカモトデンキ,0
960,4010601061353,新規,0,2022-06-20,2022-06-20,株式会社光速ＪＰ,,株式会社,東京都,江東区,亀戸９丁目１０番１号,,13,108,1360071,,,,,,,2022-06-20,1,,,,,コウソクジェイピー,0
984,4011001148039,新規,0,2022-06-20,2022-06-20,株式会社ＳＭＨ,,株式会社,東京都,渋谷区,神宮前６丁目２３番４号桑野ビル２階,,13,113,1500001,,,,,,,2022-06-20,1,,,,,エスエムエイチ,0
985,4011001148063,新規,0,2022-06-20,2022-06-20,株式会社アネランリンク,,株式会社,東京都,渋谷区,南平台町６番１１号ジョイヒルズ南平台３０３号室,,13,113,1500036,,,,,,,2022-06-20,1,,,,,アネランリンク,0
986,4011001148121,新規,0,2022-06-20,2022-06-20,株式会社ＬＯＲＤＮ,,株式会社,東京都,渋谷区,恵比寿４丁目２０番３号恵比寿ガーデンプレイスタワー１８階,,13,113,1500013,,,,,,,2022-06-20,1,,,,,ローダン,0
987,4011001148138,新規,0,2022-06-20,2022-06-20,プロフィット建設株式会社,,株式会社,東京都,渋谷区,円山町５－５Ｎａｖｉ渋谷ｖ３Ｆ,,13,113,1500044,,,,,,,2022-06-20,1,,,,,プロフィットケンセツ,0
991,4011101099264,新規,0,2022-06-20,2022-06-20,株式会社セカラボ,,株式会社,東京都,新宿区,市谷八幡町２番地１ＤＳ市ヶ谷ビル３Ｆ,,13,104,1620844,,,,,,,2022-06-20,1,,,,,セカラボ,0
998,4011501028161,新規,0,2022-06-20,2022-06-20,株式会社東誼誠,,株式会社,東京都,荒川区,西日暮里５丁目１番１７号,,13,118,1160013,,,,,,,2022-06-20,1,,,,,トウギセイ,0
1001,4011503005191,新規,0,2022-06-20,2022-06-20,華樽合同会社,,合同会社,東京都,荒川区,東日暮里１丁目１５番６号ラ・マンションメイト,,13,118,1160014,,,,,,,2022-06-20,1,,,,,カソン,0
1011,4012301013023,新規,0,2022-06-20,2022-06-20,Ａｎｄｏ　Ｃｏｒｐｏｒａｔｉｏｎ株式会社,,株式会社,東京都,町田市,原町田１丁目４番１０号オーベルグランディオ町田１１０８号室,,13,209,1940013,,,,,,,2022-06-20,1,,,,,アンドウコーポレーション,0
1012,4012305002014,新規,0,2022-06-20,2022-06-20,一般社団法人メタバースアカデミー,,その他の設立登記法人,東京都,町田市,上小山田町３０３０番地１０,,13,209,1940201,,,,,,,2022-06-20,1,,,,,メタバースアカデミー,0
1016,4013303006188,新規,0,2022-06-20,2022-06-20,合同会社インクルーシブ,,合同会社,東京都,豊島区,南大塚２丁目３８番１号リードシー大塚ビル８－７,,13,116,1700005,,,,,,,2022-06-20,1,,,,,インクルーシブ,0
1026,4020001146943,新規,0,2022-06-20,2022-06-20,株式会社Ｒｅｓｕｍｅ,,株式会社,神奈川県,川崎市多摩区,寺尾台１丁目１０番地５,,14,135,2140005,,,,,,,2022-06-20,1,,,,,リジューム,0
1030,4020003021913,新規,0,2022-06-20,2022-06-20,合同会社ＬＸＸＩＩ,,合同会社,神奈川県,横浜市西区,北幸１丁目１１番１号水信ビル７階,,14,103,2200004,,,,,,,2022-06-20,1,,,,,セブンツー,0
1035,4021001076206,新規,0,2022-06-20,2022-06-20,株式会社Ｔｏｋｙｏ　ＤＲ．ＪＯＨＮＳＯＮ’Ｓ抗加齢研究所,,株式会社,神奈川県,足柄下郡真鶴町,岩６７６－１８,,14,383,2590202,,,,,,,2022-06-20,1,,,,,トウキョウドクタージョンソンズコウカレイケンキュウショ,0
1036,4021001076271,新規,0,2022-06-20,2022-06-20,株式会社知,,株式会社,神奈川県,相模原市南区,相模台２丁目２番２号ガーデンビルＩＩ３階,00126924,14,153,2520321,,,,,,,2022-06-20,1,,,,,チ,0
1037,4021001076296,新規,0,2022-06-20,2022-06-20,株式会社ＨＩＢＩＳＨＩＮ,,株式会社,神奈川県,相模原市南区,麻溝台３０６０番地,,14,153,2520328,,,,,,,2022-06-20,1,,,,,ヒビシン,0
1041,4021005012545,新規,0,2022-06-20,2022-06-20,一般社団法人ホリスティックライフクリエーション協会,,その他の設立登記法人,神奈川県,平塚市,土屋２２９５番５号,,14,203,2591205,,,,,,,2022-06-20,1,,,,,ホリスティックライフクリエーションキョウカイ,0
1052,4030005020887,新規,0,2022-06-20,2022-06-20,社会福祉法人博雅会,,その他の設立登記法人,埼玉県,加須市,日出安１２６８番,,11,210,3470102,,,,,,,2022-06-20,1,,,,,ハクガカイ,0
1053,4030005020895,新規,0,2022-06-20,2022-06-20,一般社団法人東アジア歴史文化研究所,,その他の設立登記法人,埼玉県,さいたま市北区,日進町３丁目４７９番地１,,11,102,3310823,,,,,,,2022-06-20,1,,,,,ヒガシアジアレキシブンカケンキュウジョ,0
1055,4040001123858,新規,0,2022-06-20,2022-06-20,株式会社サンライズ・エム,,株式会社,千葉県,千葉市中央区,白旗２丁目１１番１１号,,12,101,2600841,,,,,,,2022-06-20,1,,,,,サンライズエム,0
1058,4040003020260,新規,0,2022-06-20,2022-06-20,合同会社ＴＡＫＡＭＡＹＵ,,合同会社,千葉県,佐倉市,井野１９３番地２ハーモニーヒルズユーカリの森７０２号,,12,212,2850855,,,,,,,2022-06-20,1,,,,,タカマユ,0
1064,4050001051249,新規,0,2022-06-20,2022-06-20,株式会社わくわく農場,,株式会社,茨城県,稲敷市,新橋２４３番地,,08,229,3000613,,,,,,,2022-06-20,1,,,,,ワクワクノウジョウ,0
1075,4070001039317,新規,0,2022-06-20,2022-06-20,株式会社ピスモニー,,株式会社,群馬県,館林市,大手町７番１８号－８０４号室,,10,207,3740023,,,,,,,2022-06-20,1,,,,,ピスモニー,0
1076,4070001039358,新規,0,2022-06-20,2022-06-20,株式会社会花,,株式会社,群馬県,吾妻郡長野原町,大字大津８３７番地２,,10,424,3771308,,,,,,,2022-06-20,1,,,,,アイカ,0
1084,4080401025898,新規,0,2022-06-20,2022-06-20,株式会社Ｆｕｒｉｘ,,株式会社,静岡県,浜松市中区,新津町５４０－２,,22,131,4300911,,,,,,,2022-06-20,1,,,,,フリックス,0
1105,4120001246758,新規,0,2022-06-20,2022-06-20,株式会社エムユーエル,,株式会社,大阪府,大阪市中央区,玉造２丁目２５番２０号４０２,,27,128,5400004,,,,,,,2022-06-20,1,,,,,エムユーエル,0
1114,4120103004741,新規,0,2022-06-20,2022-06-20,ＧＹＡＮＵ　ＧＲＯＵＰ合同会社,,合同会社,大阪府,松原市,東新町４丁目１０番２６号,,27,217,5800024,,,,,,,2022-06-20,1,,,,,ギャヌグループ,0
1121,4130001072006,新規,0,2022-06-20,2022-06-20,株式会社岩崎興業,00126923,株式会社,京都府,京都市西京区,松室吾田神町１３１－４０８,,26,111,6158202,,,,,,,2022-06-20,1,,,,,イワサキコウギョウ,0
1128,4140001126388,新規,0,2022-06-20,2022-06-20,株式会社リーファ,,株式会社,兵庫県,明石市,中崎１丁目１番１号マリンパレス明石,,28,203,6730883,,,,,,,2022-06-20,1,,,,,リーファ,0
1129,4140001126396,新規,0,2022-06-20,2022-06-20,ＰｌｕｓＯｎｅ株式会社,,株式会社,兵庫県,芦屋市,岩園町４９番５６号,,28,206,6590013,,,,,,,2022-06-20,1,,,,,プラスワン,0
1130,4140001126405,新規,0,2022-06-20,2022-06-20,株式会社エイト,,株式会社,兵庫県,神戸市東灘区,深江浜町１番地の１神戸東部中央卸売市場青果５番内,,28,101,6580023,,,,,,,2022-06-20,1,,,,,エイト,0
1131,4140001126454,新規,0,2022-06-20,2022-06-20,株式会社ＧＯＯＤ　ＭＥＭＯＲＹ,,株式会社,兵庫県,明石市,材木町１２－２２,,28,203,6730893,,,,,,,2022-06-20,1,,,,,グッドメモリー,0
1132,4140003017742,新規,0,2022-06-20,2022-06-20,合同会社ＷｏｎｄｅｒＬａｎｄ,,合同会社,兵庫県,神戸市東灘区,向洋町中７丁目２番地ウエストコート９番街１１１２号室,,28,101,6580032,,,,,,,2022-06-20,1,,,,,ワンダーランド,0
1133,4140003017817,新規,0,2022-06-20,2022-06-20,合同会社一貴,,合同会社,兵庫県,尼崎市,稲葉元町１丁目２番１９－４０５号,,28,202,6600055,,,,,,,2022-06-20,1,,,,,ヒトキ,0
1149,4180001151746,新規,0,2022-06-20,2022-06-20,株式会社スワン,,株式会社,愛知県,名古屋市中村区,日ノ宮町１丁目３０番地の２,,23,105,4530823,,,,,,,2022-06-20,1,,,,,スワン,0
1150,4180001151762,新規,0,2022-06-20,2022-06-20,株式会社千葉工業,,株式会社,愛知県,東海市,富木島町伏見４丁目２番地６プリムローズ伏見（４０５号）,,23,222,4760012,,,,,,,2022-06-20,1,,,,,チバコウギョウコウ,0
1151,4180001151787,新規,0,2022-06-20,2022-06-20,ｍｉＲａｉ．株式会社,,株式会社,愛知県,小牧市,外堀３丁目１１３,,23,219,4850039,,,,,,,2022-06-20,1,,,,,ミライドット,0
1172,4260001036963,新規,0,2022-06-20,2022-06-20,株式会社シーエスマリン,,株式会社,岡山県,倉敷市,大内１１８０番地５,,33,202,7100817,,,,,,,2022-06-20,1,,,,,シーエスマリン,0
1173,4260001036971,新規,0,2022-06-20,2022-06-20,イーエスジージャパン株式会社,,株式会社,岡山県,瀬戸内市,長船町福里９３番地２,,33,212,7014275,,,,,,,2022-06-20,1,,,,,イーエスジージャパン,0
1174,4260003003953,新規,0,2022-06-20,2022-06-20,合同会社Ａｐｉｎｕｓ,,合同会社,岡山県,瀬戸内市,邑久町豊原１６７番地１１,,33,212,7014223,,,,,,,2022-06-20,1,,,,,アピナス,0
1175,4280001008721,新規,0,2022-06-20,2022-06-20,株式会社エニーコーポレーション,,株式会社,島根県,松江市,栄町２６７－２７,,32,201,6900042,,,,,,,2022-06-20,1,,,,,,0
1195,4330001029836,新規,0,2022-06-20,2022-06-20,株式会社光の森クレーン工業,,株式会社,熊本県,菊池郡菊陽町,新山１丁目１２番７号,,43,404,8691109,,,,,,,2022-06-20,1,,,,,ヒカリノモリクレーンコウギョウ,0
1216,4390001016936,新規,0,2022-06-20,2022-06-20,株式会社シノワリ・トレーディング,,株式会社,山形県,天童市,大字山口３３７５番地２,,06,210,9940101,,,,,,,2022-06-20,1,,,,,シノワリトレーディング,0
1219,4420001017906,新規,0,2022-06-20,2022-06-20,株式会社ＭＡＰ,,株式会社,青森県,八戸市,江陽１丁目１９番１３号,,02,203,0310801,,,,,,,2022-06-20,1,,,,,エムエーピー,0
1231,4500001024282,新規,0,2022-06-20,2022-06-20,株式会社絆,,株式会社,愛媛県,松山市,歩行町２丁目３番地１４パレスデン歩行町１００１号,,38,201,7900801,,,,,,,2022-06-20,1,,,,,キズナ,0
1233,4700150108799,新規,0,2022-06-20,2022-05-18,天草サーカス,,その他,熊本県,天草市,河浦町久留２９２５,,43,215,8631214,,,,,,,2022-05-18,1,,,,,アマクササーカス,0
1234,4700150109186,新規,0,2022-06-20,2022-06-02,リンデンプロモーション,,その他,埼玉県,上尾市,本町３丁目１１－７,,11,219,3620014,,,,,,,2022-06-02,1,,,,,リンデンプロモーシヨン,0
1235,4700150109236,新規,0,2022-06-20,2022-06-07,演劇集団東京ストーリーテラー,,その他,埼玉県,所沢市,北所沢町２０１１－２－３０２,,11,208,3590046,,,,,,,2022-06-07,1,,,,,エンゲキシユウダントウキヨウストーリーテラー,0
1241,5010001227454,新規,0,2022-06-20,2022-06-20,株式会社Ｐｒｅｍｉｕｍ　Ｐｒｏｐｅｒｔｙ,,株式会社,東京都,千代田区,平河町２丁目４番８号,,13,101,1020093,,,,,,,2022-06-20,1,,,,,プレミアムプロパティ,0
1242,5010003037926,新規,0,2022-06-20,2022-06-20,メディカル・サポート・システムズ合同会社,,合同会社,東京都,中央区,佃２丁目１番１－４００１号,,13,102,1040051,,,,,,,2022-06-20,1,,,,,メディカルサポートシステムズ,0
1249,5010401168133,新規,0,2022-06-20,2022-06-20,株式会社アップル,,株式会社,東京都,港区,赤坂３丁目１２番１１号,,13,103,1070052,,,,,,,2022-06-20,1,,,,,アップル,0
1250,5010403027931,新規,0,2022-06-20,2022-06-20,合同会社Ｂｅｌｌｅｇｒａｎｄｉｒ,,合同会社,東京都,港区,東麻布１丁目２９番１２－３０２号,,13,103,1060044,,,,,,,2022-06-20,1,,,,,ベルグランディール,0
1251,5010403027948,新規,0,2022-06-20,2022-06-20,ＪＭシェラタン１合同会社,,合同会社,東京都,港区,六本木１丁目９番１０号アークヒルズ仙石山森タワー４０階,,13,103,1060032,,,,,,,2022-06-20,1,,,,,ジェイエムシェラタンワン,0
1265,5011001148104,新規,0,2022-06-20,2022-06-20,株式会社ＫＬＯＣＫ　ＵＰ,,株式会社,東京都,目黒区,目黒２丁目１１－３,,13,110,1530063,,,,,,,2022-06-20,1,,,,,クロックアップ,0
1266,5011001148120,新規,0,2022-06-20,2022-06-20,株式会社豊南,,株式会社,東京都,目黒区,上目黒２丁目２５番１３号,,13,110,1530051,,,,,,,2022-06-20,1,,,,,,0
1267,5011001148129,新規,0,2022-06-20,2022-06-20,株式会社ＳＯＲＡ,,株式会社,東京都,渋谷区,神宮前６丁目２３番４号桑野ビル２Ｆ,,13,113,1500001,,,,,,,2022-06-20,1,,,,,ソラ,0
1268,5011001148137,新規,0,2022-06-20,2022-06-20,株式会社イノベル,,株式会社,東京都,渋谷区,神宮前６丁目２３－４桑野ビル２Ｆ,,13,113,1500001,,,,,,,2022-06-20,1,,,,,イノベル,0
1269,5011001148236,新規,0,2022-06-20,2022-06-20,株式会社ＳＣＮ,,株式会社,東京都,目黒区,中目黒４丁目１２－７－１１１０,,13,110,1530061,,,,,,,2022-06-20,1,,,,,エスシーエヌ,0
1279,5011301027866,新規,0,2022-06-20,2022-06-20,ＳＴ商会株式会社,,株式会社,東京都,杉並区,高円寺南１丁目５番９号,,13,115,1660003,,,,,,,2022-06-20,1,,,,,エスティーショウカイ,0
1286,5011503005190,新規,0,2022-06-20,2022-06-20,合同会社丹,,合同会社,東京都,北区,王子５丁目５番３－７０１号シーメゾン王子神谷,,13,117,1140002,,,,,,,2022-06-20,1,,,,,タン,0
1293,5011801040889,新規,0,2022-06-20,2022-06-20,ヘルスケアワークスデザイン株式会社,,株式会社,東京都,足立区,鹿浜７丁目２６番１５－１００１号,,13,121,1230864,,,,,,,2022-06-20,1,,,,,ヘルスケアワークスデザイン,0
1301,5012801021656,新規,0,2022-06-20,2022-06-20,株式会社ナクティス,,株式会社,東京都,立川市,錦町１丁目２－１３中島ビル２階,,13,202,1900022,,,,,,,2022-06-20,1,,,,,ナクティス,0
1304,5013301049246,新規,0,2022-06-20,2022-06-20,株式会社森口,,株式会社,東京都,豊島区,池袋２丁目２３番４－２０５号,,13,116,1710014,,,,,,,2022-06-20,1,,,,,モリグチ,0
1312,5020003021953,新規,0,2022-06-20,2022-06-20,ネガディーム合同会社,,合同会社,神奈川県,横浜市港北区,新横浜１丁目１９番地１５アール・ケープラザ新横浜７０２号室,,14,109,2220033,,,,,,,2022-06-20,1,,,,,ネガディーム,0
1314,5020005015573,新規,0,2022-06-20,2022-06-20,一般社団法人横浜プログラミングアカデミー,,その他の設立登記法人,神奈川県,横浜市泉区,岡津町１９６番地５,,14,116,2450003,,,,,,,2022-06-20,1,,,,,ヨコハマプログラミングアカデミー,0
1315,5021001076295,新規,0,2022-06-20,2022-06-20,ＭＩＹＵ　ＣＨＥＭ株式会社,,株式会社,神奈川県,秦野市,今川町６番２号,,14,211,2570051,,,,,,,2022-06-20,1,,,,,ミユケム,0
1333,5040001123873,新規,0,2022-06-20,2022-06-20,株式会社松本住設,,株式会社,千葉県,木更津市,中里６８５番地１,,12,206,2920064,,,,,,,2022-06-20,1,,,,,マツモトジュウセツ,0
1344,5060003004112,新規,0,2022-06-20,2022-06-20,合同会社ＤＸストラテジー,,合同会社,栃木県,栃木市,倭町１４番７号,,09,203,3280037,,,,,,,2022-06-20,1,,,,,ディーエックスストラテジー,0
1348,5070003004499,新規,0,2022-06-20,2022-06-20,合同会社ＳａＬｕｃｅ,,合同会社,群馬県,藤岡市,本郷２０４２－３,,10,209,3750023,,,,,,,2022-06-20,1,,,,,サルチェ,0
1365,5120001246732,新規,0,2022-06-20,2022-06-20,株式会社ＨＰ　Ｍｅｄｉａ,,株式会社,大阪府,大阪市浪速区,敷津東３丁目３番９－３０３号,,27,111,5560012,,,,,,,2022-06-20,1,,,,,エイチピーメディア,0
1366,5120001246749,新規,0,2022-06-20,2022-06-20,株式会社りふぉーむカンパニー,,株式会社,大阪府,枚方市,星丘２丁目３３番２１号,,27,210,5730013,,,,,,,2022-06-20,1,,,,,リフォームカンパニー,0
1368,5120003021935,新規,0,2022-06-20,2022-06-20,ＫＡＺＷＯＲＫＳ合同会社,,合同会社,大阪府,大阪市北区,天満１丁目１４番７号兼森ビル２００,,27,127,5300043,,,,,,,2022-06-20,1,,,,,カズワークス,0
1370,5120005023005,新規,0,2022-06-20,2022-06-20,一般財団法人シオノギ感染症研究振興財団,,その他の設立登記法人,大阪府,大阪市中央区,道修町３丁目１番８号,,27,128,5410045,,,,,,,2022-06-20,1,,,,,シオノギカンセンショウケンキュウシンコウザイダン,0
1380,5130001071980,新規,0,2022-06-20,2022-06-20,株式会社プラントベースドフード,,株式会社,京都府,京都市東山区,亀井町４０,,26,105,6050803,,,,,,,2022-06-20,1,,,,,プラントベースドフード,0
1381,5130001071989,新規,0,2022-06-20,2022-06-20,株式会社フォルツァ,,株式会社,京都府,京都市左京区,岩倉三宅町７番地グランディール北嶺１Ｆ,,26,103,6060022,,,,,,,2022-06-20,1,,,,,フォルツァ,0
1382,5130001072005,新規,0,2022-06-20,2022-06-20,株式会社ファインド開発,,株式会社,京都府,京都市山科区,西野山射庭ノ上町１０８－１,,26,110,6078307,,,,,,,2022-06-20,1,,,,,ファインドカイハツ,0
1393,5140001126379,新規,0,2022-06-20,2022-06-20,株式会社ささやま,,株式会社,兵庫県,神戸市垂水区,西舞子８丁目５番２６号,,28,108,6550048,,,,,,,2022-06-20,1,,,,,ササヤマ,0
1394,5140001126395,新規,0,2022-06-20,2022-06-20,株式会社Ｒｅｒｉｓｅ,,株式会社,兵庫県,神戸市垂水区,名谷町１８８９－２,,28,108,6550852,,,,,,,2022-06-20,1,,,,,リライズ,0
1395,5140001126429,新規,0,2022-06-20,2022-06-20,株式会社ｋｉｂｉｄａｎｇｏｗｅｓｔ,,株式会社,兵庫県,西宮市,柏堂町４番３１号,,28,204,6620097,,,,,,,2022-06-20,1,,,,,キビダンゴウエスト,0
1399,5140003017790,新規,0,2022-06-20,2022-06-20,ハートコミット合同会社,,合同会社,兵庫県,明石市,大久保町ゆりのき通２丁目５０番地の６Ａ棟１００６号,,28,203,6740068,,,,,,,2022-06-20,1,,,,,ハートコミット,0
1400,5140003017832,新規,0,2022-06-20,2022-06-20,ツイストワークス合同会社,,合同会社,兵庫県,神戸市東灘区,御影郡家１丁目２９－２３,,28,101,6580048,,,,,,,2022-06-20,1,,,,,ツイストワークス,0
1402,5150001025638,新規,0,2022-06-20,2022-06-20,株式会社ＴＯ’ｚ,,株式会社,奈良県,天理市,川原城町８８６番地,,29,204,6320016,,,,,,,2022-06-20,1,,,,,トズ,0
1406,5160003002592,新規,0,2022-06-20,2022-06-20,合同会社ＫＲＮＲ,,合同会社,滋賀県,東近江市,外町５６１番地１,,25,213,5270042,,,,,,,2022-06-20,1,,,,,ケイアールエヌアール,0
1407,5170001017162,新規,0,2022-06-20,2022-06-20,スカイテック工業株式会社,,株式会社,和歌山県,紀の川市,古和田３５２番地１,,30,208,6496432,,,,,,,2022-06-20,1,,,,,スカイテックコウギョウ,0
1413,5180001151811,新規,0,2022-06-20,2022-06-20,株式会社武居,,株式会社,愛知県,名古屋市中区,錦３丁目１３番３０号ＡＣＢビル北館２階２－Ｇ号室,,23,106,4600003,,,,,,,2022-06-20,1,,,,,タケイ,0
1414,5180001151828,新規,0,2022-06-20,2022-06-20,株式会社清水ステンレス,,株式会社,愛知県,春日井市,松河戸町３丁目６番地８ＬＵＮＡＲＩＡ２０３号,,23,206,4860932,,,,,,,2022-06-20,1,,,,,シミズステンレス,0
1416,5180003023950,新規,0,2022-06-20,2022-06-20,合同会社カノン,,合同会社,愛知県,名古屋市千種区,唐山町１丁目５６番地の２,,23,101,4640806,,,,,,,2022-06-20,1,,,,,カノン,0
1419,5180301036324,新規,0,2022-06-20,2022-06-20,株式会社えんとしん,,株式会社,愛知県,豊田市,小坂本町１丁目５－５ＹＡＭＡＴＯ　ＢＬＤＧ　２階,,23,211,4710034,,,,,,,2022-06-20,1,,,,,エントシン,0
1420,5180301036349,新規,0,2022-06-20,2022-06-20,株式会社ピケット,,株式会社,愛知県,岡崎市,箱柳町字猫沢２３番地８,,23,202,4440001,,,,,,,2022-06-20,1,,,,,ピケット,0
1432,5230001019417,新規,0,2022-06-20,2022-06-20,株式会社レーヴ,,株式会社,富山県,富山市,総曲輪１丁目７番３号大信ビル００３,,16,201,9300083,,,,,,,2022-06-20,1,,,,,レーヴ,0
1442,5260001036970,新規,0,2022-06-20,2022-06-20,株式会社岡北砕石,,株式会社,岡山県,岡山市東区,瀬戸町弓削１０６６－２,,33,103,7090843,,,,,,,2022-06-20,1,,,,,コウホクサイセキ,0
1448,5260005011103,新規,0,2022-06-20,2022-06-20,一般社団法人ぴあ,,その他の設立登記法人,岡山県,倉敷市,川入７５０番地６田園マンションＡ１０２,,33,202,7100811,,,,,,,2022-06-20,1,,,,,ピア,0
1450,5270001008564,新規,0,2022-06-20,2022-06-20,株式会社風,,株式会社,鳥取県,米子市,上福原３丁目１番６－１４０１号,,31,202,6830004,,,,,,,2022-06-20,1,,,,,カゼ,0
1459,5290801028652,新規,0,2022-06-20,2022-06-20,株式会社ＳＡＮＷＡ・ＴＥＣ,,株式会社,福岡県,北九州市戸畑区,飛幡町２番２号,,40,105,8040001,,,,,,,2022-06-20,1,,,,,サンワテック,0
1466,5330001029851,新規,0,2022-06-20,2022-06-20,株式会社たか不動産,,株式会社,熊本県,熊本市中央区,国府２丁目１３番１６号,,43,101,8620949,,,,,,,2022-06-20,1,,,,,タカフドウサン,0
1474,5360003012076,新規,0,2022-06-20,2022-06-20,ＭＩＯ合同会社,,合同会社,沖縄県,国頭郡本部町,字辺名地４５３番地５,,47,308,9050224,,,,,,,2022-06-20,1,,,,,ミオ,0
1480,5400001015919,新規,0,2022-06-20,2022-06-20,株式会社実聖社,,株式会社,岩手県,奥州市,胆沢南都田字小十文字２４７番３,,03,215,0230401,,,,,,,2022-06-20,1,,,,,ジッセイシャ,0
1492,5430003014016,新規,0,2022-06-20,2022-06-20,幽世霊廟合同会社,,合同会社,北海道,札幌市中央区,北五条西２９丁目２番１‐２０４号,,01,101,0640825,,,,,,,2022-06-20,1,,,,,カクリヨレイビョウ,0
1503,5700150104698,新規,0,2022-06-20,2021-09-14,Ｐｒａｙ　ｆｏｒ　ａｌｌ　Ｊａｐａｎ,,その他,東京都,あきる野市,草花２１２１－２２,,13,228,1970802,,,,,,,2021-09-14,1,,,,,プレイフオーオールジヤパン,0
1505,6010003037909,新規,0,2022-06-20,2022-06-20,ゴッパ・ジャパン合同会社,,合同会社,東京都,中央区,湊３丁目３番３号エルパティオみなと１Ｆ,,13,102,1040043,,,,,,,2022-06-20,1,,,,,,0
1506,6010003037933,新規,0,2022-06-20,2022-06-20,合同会社ジョイントアクシア,,合同会社,東京都,中央区,東日本橋２丁目２３番地４号ルート東日本橋ビル３Ｆ,,13,102,1030004,,,,,,,2022-06-20,1,,,,,,0
1513,6010401168066,新規,0,2022-06-20,2022-06-20,株式会社ラフォーレ,,株式会社,東京都,港区,東麻布３丁目１０番１ー３０３号,,13,103,1060044,,,,,,,2022-06-20,1,,,,,ラフォーレ,0
1514,6010401168090,新規,0,2022-06-20,2022-06-20,シロ株式会社,,株式会社,東京都,港区,芝浦２丁目１３番７－６０７号,,13,103,1080023,,,,,,,2022-06-20,1,,,,,シロ,0
1518,6010403027897,新規,0,2022-06-20,2022-06-20,Ｃｒｏｓｓ　Ｒｅｓｅａｒｃｈ合同会社,,合同会社,東京都,港区,高輪２丁目１６番３９号Ｃ号室,,13,103,1080074,,,,,,,2022-06-20,1,,,,,クロスリサーチ,0
1519,6010403027922,新規,0,2022-06-20,2022-06-20,Ｃｏｒｓａｉｒ　Ｊａｐａｎ合同会社,,合同会社,東京都,港区,南麻布３丁目１９番２３号オーク南麻布ビル２階,,13,103,1060047,,,,,,,2022-06-20,1,,,,,コルセアジャパン,0
1520,6010403027947,新規,0,2022-06-20,2022-06-20,ＪＭハマル合同会社,,合同会社,東京都,港区,六本木１丁目９番１０号アークヒルズ仙石山森タワー４０階,,13,103,1060032,,,,,,,2022-06-20,1,,,,,ジェイエムハマル,0
1539,6011001148111,新規,0,2022-06-20,2022-06-20,株式会社Ｓｙｍｃ’Ｆａｍｉｌｙ,,株式会社,東京都,渋谷区,恵比寿２丁目１３番１２号コートヒルズ広尾南７０２号室,,13,113,1500013,,,,,,,2022-06-20,1,,,,,シンクファミリー,0
1540,6011001148128,新規,0,2022-06-20,2022-06-20,株式会社ギャラペイ,,株式会社,東京都,渋谷区,恵比寿１丁目２０番２－１１０４号,,13,113,1500013,,,,,,,2022-06-20,1,,,,,ギャラペイ,0
1541,6011001148136,新規,0,2022-06-20,2022-06-20,株式会社ＴＡＮＣ,,株式会社,東京都,目黒区,駒場１丁目２－３ＭＡＣ駒場コート３０８,,13,110,1530041,,,,,,,2022-06-20,1,,,,,タンク,0
1546,6011101099270,新規,0,2022-06-20,2022-06-20,ネクストグッドライフ株式会社,,株式会社,東京都,新宿区,新宿１丁目２４番７号－５１０号,,13,104,1600022,,,,,,,2022-06-20,1,,,,,ネクストグッドライフ,0
1550,6011301027857,新規,0,2022-06-20,2022-06-20,株式会社ワイプログレス,,株式会社,東京都,杉並区,堀ノ内１丁目９番１７号,,13,115,1660013,,,,,,,2022-06-20,1,,,,,ワイプログレス,0
1552,6011401024333,新規,0,2022-06-20,2022-06-20,ＤＡＹＯ株式会社,,株式会社,東京都,板橋区,本町１１番１５号シャンテ西が丘Ａ－１０２号室,,13,119,1730001,,,,,,,2022-06-20,1,,,,,ダヨ,0
1556,6011703003175,新規,0,2022-06-20,2022-06-20,バイメカニズム合同会社,,合同会社,東京都,江戸川区,東葛西８丁目１６番１５号,,13,123,1340084,,,,,,,2022-06-20,1,,,,,バイメカニズム,0
1560,6012301013013,新規,0,2022-06-20,2022-06-20,株式会社ＫＵＲＯＫＯ,,株式会社,東京都,町田市,小川２丁目３５番地８,,13,209,1940003,,,,,,,2022-06-20,1,,,,,クロコ,0
1566,6013301049245,新規,0,2022-06-20,2022-06-20,株式会社安李,,株式会社,東京都,豊島区,池袋２丁目６８番５－１００５号,,13,116,1710014,,,,,,,2022-06-20,1,,,,,アンリ,0
1567,6013301049261,新規,0,2022-06-20,2022-06-20,菊地物資貿易株式会社,,株式会社,東京都,豊島区,西池袋１丁目３１－５白井ビル３０９号室,,13,116,1710021,,,,,,,2022-06-20,1,,,,,キクチブッシボウエキ,0
1574,6020001147007,新規,0,2022-06-20,2022-06-20,ときわ運輸株式会社,,株式会社,神奈川県,横浜市西区,浜松町２番２５号,,14,103,2200055,,,,,,,2022-06-20,1,,,,,トキワウンユ,0
1577,6021001076261,新規,0,2022-06-20,2022-06-20,株式会社ミープラ,,株式会社,神奈川県,小田原市,南鴨宮３丁目４６番１２号,,14,206,2500875,,,,,,,2022-06-20,1,,,,,ミープラ,0
1578,6021001076303,新規,0,2022-06-20,2022-06-20,株式会社湘南ビューティーサロン,,株式会社,神奈川県,藤沢市,辻堂神台２丁目２－１アイクロス湘南１階Ｇ,,14,205,2510041,,,,,,,2022-06-20,1,,,,,ショウナンビューティーサロン,0
1598,6040003020267,新規,0,2022-06-20,2022-06-20,合同会社Ｏｆｆｉｃｅ　Ｋ,,合同会社,千葉県,松戸市,横須賀２丁目１３番地の３１サンパティーク１０１号,,12,207,2700031,,,,,,,2022-06-20,1,,,,,オフィスケー,0
1628,6120003021892,新規,0,2022-06-20,2022-06-20,インサイト合同会社,,合同会社,大阪府,大阪市北区,西天満５丁目１３番１１号シエルディー東梅田７０２号室,,27,127,5300047,,,,,,,2022-06-20,1,,,,,,0
1629,6120003021918,新規,0,2022-06-20,2022-06-20,Ｋ．Ｔ合同会社,,合同会社,大阪府,大阪市西区,南堀江１丁目２６番１５－２５０４号,,27,106,5500015,,,,,,,2022-06-20,1,,,,,ケーティー,0
1634,6120901046132,新規,0,2022-06-20,2022-06-20,株式会社本多舗道,,株式会社,大阪府,高槻市,高西町２０番１２号,,27,207,5690061,,,,,,,2022-06-20,1,,,,,ホンダホドウ,0
1640,6122001035981,新規,0,2022-06-20,2022-06-20,株式会社ゼロ１,,株式会社,大阪府,八尾市,萱振町１丁目８０番地の２,,27,212,5810834,,,,,,,2022-06-20,1,,,,,ゼロワン,0
1641,6122003002360,新規,0,2022-06-20,2022-06-20,合同会社ユモストイノベーション,,合同会社,大阪府,東大阪市,花園東町２丁目１４番２８号,,27,227,5780931,,,,,,,2022-06-20,1,,,,,ユモストイノベーション,0
1644,6130001072004,新規,0,2022-06-20,2022-06-20,株式会社島田商事,,株式会社,京都府,京都市中京区,河原町二条下ル一之船入町３７６,,26,104,6040000,,,,,,,2022-06-20,1,,,,,シマダショウジ,0
1655,6140001126361,新規,0,2022-06-20,2022-06-20,株式会社ＬＵＣＫＹ,,株式会社,兵庫県,神戸市中央区,琴ノ緒町２丁目３番５号ネオダイキョー三宮９０８号室,,28,110,6510094,,,,,,,2022-06-20,1,,,,,ラッキー,0
1656,6140001126394,新規,0,2022-06-20,2022-06-20,泰進建設株式会社,,株式会社,兵庫県,姫路市,南条１０番地２Ｔ－ＢＬＤ南条３階３０１号室,,28,201,6700952,,,,,,,2022-06-20,1,,,,,タイシンケンセツ,0
1657,6140001126436,新規,0,2022-06-20,2022-06-20,株式会社僕らと仕事,,株式会社,兵庫県,三木市,加佐８７１番地の４,,28,215,6730402,,,,,,,2022-06-20,1,,,,,ボクラトシゴト,0
1658,6140003017798,新規,0,2022-06-20,2022-06-20,合同会社ＦｕｎＦｕｎＦｕｎｎｙ,,合同会社,兵庫県,加古川市,加古川町美乃利３１０番地の２１,,28,210,6750062,,,,,,,2022-06-20,1,,,,,ファンファンファニー,0
1660,6150001025637,新規,0,2022-06-20,2022-06-20,アテナ株式会社,,株式会社,奈良県,大和郡山市,天井町１７７番地,,29,203,6391135,,,,,,,2022-06-20,1,,,,,アテナ,0
1664,6150003002709,新規,0,2022-06-20,2022-06-20,ＥＤＳ　ＴＲＡＤＩＮＧ合同会社,,合同会社,奈良県,大和高田市,大字築山１４３番地３９,,29,202,6350071,,,,,,,2022-06-20,1,,,,,イーディエストレーディング,0
1667,6160003002600,新規,0,2022-06-20,2022-06-20,合同会社リアルエステート野口,,合同会社,滋賀県,大津市,螢谷１２番１６号,,25,201,5200853,,,,,,,2022-06-20,1,,,,,リアルエステートノグチ,0
1671,6160005011095,新規,0,2022-06-20,2022-06-20,一般社団法人野路町有施設財産等住宅基盤管理会,,その他の設立登記法人,滋賀県,草津市,野路５丁目８番３号,,25,206,5250059,,,,,,,2022-06-20,1,,,,,ノジチョウユウシセツザイサントウジュウタクキバンカンリカイ,0
1678,6180001151802,新規,0,2022-06-20,2022-06-20,株式会社Ｍｉｍｉ,,株式会社,愛知県,名古屋市中区,大須３丁目３７番８号,,23,106,4600011,,,,,,,2022-06-20,1,,,,,ミミ,0
1679,6180001151827,新規,0,2022-06-20,2022-06-20,株式会社ＬＡＣＯ,,株式会社,愛知県,名古屋市西区,那古野１丁目２０番２１号,,23,104,4510042,,,,,,,2022-06-20,1,,,,,ラコ,0
1685,6180005019806,新規,0,2022-06-20,2022-06-20,一般社団法人つながり探究所,,その他の設立登記法人,愛知県,名古屋市守山区,緑ヶ丘９０１番地緑ヶ丘センター１０４号,,23,113,4630009,,,,,,,2022-06-20,1,,,,,ツナガリタンキュウジョ,0
1687,6180301036348,新規,0,2022-06-20,2022-06-20,株式会社ヒポガエル,,株式会社,愛知県,西尾市,平坂町北新田１５番地１白壁スクエアＦ,,23,213,4440305,,,,,,,2022-06-20,1,,,,,ヒポガエル,0
1693,6200001040192,新規,0,2022-06-20,2022-06-20,シモジマ化成株式会社,,株式会社,岐阜県,揖斐郡大野町,大字大野８２０番地３５,,21,403,5010513,,,,,,,2022-06-20,1,,,,,シモジマカセイ,0
1695,6210001018964,新規,0,2022-06-20,2022-06-20,株式会社カーキ,,株式会社,福井県,越前市,千福町１５０,,18,209,9150846,,,,,,,2022-06-20,1,,,,,カーキ,0
1712,6250001019620,新規,0,2022-06-20,2022-06-20,株式会社ＣｒｙｐｔｏＣｏｃｏ,,株式会社,山口県,山口市,佐山４０２番地,,35,203,7540894,,,,,,,2022-06-20,1,,,,,クリプトココ,0
1717,6260003003951,新規,0,2022-06-20,2022-06-20,合同会社ＲＡＫＵＥＮ,,合同会社,岡山県,倉敷市,東富井７７９－２,,33,202,7100847,,,,,,,2022-06-20,1,,,,,,0
1722,6290001097902,新規,0,2022-06-20,2022-06-20,藤田電設工業株式会社,,株式会社,福岡県,糸島市,波多江字馬渡２９７番地６,,40,230,8191104,,,,,,,2022-06-20,1,,,,,フジタデンセツコウギョウ,0
1725,6290801028651,新規,0,2022-06-20,2022-06-20,株式会社ＬＵＣＡＳ　ＡＮＤ　ＣＯ,,株式会社,福岡県,北九州市小倉南区,上吉田３丁目１２－１２パルティール２０００Ｂ棟２０１,,40,107,8000201,,,,,,,2022-06-20,1,,,,,ルーカスエンドコ,0
1754,6420001017904,新規,0,2022-06-20,2022-06-20,ＣｈａｐｔｅｒＯｎｅ株式会社,,株式会社,青森県,八戸市,南類家２丁目４番２号ルミハーモＢ,,02,203,0310004,,,,,,,2022-06-20,1,,,,,チャプターワン,0
1755,6430001086840,新規,0,2022-06-20,2022-06-20,株式会社無双,,株式会社,北海道,札幌市中央区,北一条西３丁目３番２７号札幌北１条駅前通りビル９階,,01,101,0600001,,,,,,,2022-06-20,1,,,,,ムソウ,0
1760,6450001013727,新規,0,2022-06-20,2022-06-20,株式会社リスタ,,株式会社,北海道,旭川市,東三条３丁目１番３号,,01,204,0700023,,,,,,,2022-06-20,1,,,,,,0
1761,6460001005707,新規,0,2022-06-20,2022-06-20,株式会社ｈｉｎｄ,,株式会社,北海道,釧路市,星が浦北２丁目１番２１号,,01,206,0840911,,,,,,,2022-06-20,1,,,,,ハインド,0
1773,6700150107634,新規,0,2022-06-20,2022-04-01,げんこつ団,,その他,東京都,杉並区,久我山５丁目３１－３１－１０３,,13,115,1680082,,,,,,,2022-04-01,1,,,,,ゲンコツダン,0
1774,6700150109036,新規,0,2022-06-20,2022-05-26,京都橘高校サッカー部後援会,,その他,京都府,京都市西京区,桂清水町４３－６,,26,111,6158013,,,,,,,2022-05-26,1,,,,,キヨウトタチバナコウコウサツカーブコウエンカイ,0
1775,6700150110076,新規,0,2022-06-20,2022-06-20,八町自治会,,その他,富山県,富山市,八町４９４５－１,,16,201,9302226,,,,,,,2022-06-20,1,,,,,ハツチヨウジチカイ,0
1783,7010001227477,新規,0,2022-06-20,2022-06-20,Ｓｐａｃｅ　ＤＣＪ株式会社,,株式会社,東京都,千代田区,神田東松下町４１番地１,,13,101,1010042,,,,,,,2022-06-20,1,,,,,スペースディーシージェイ,0
1784,7010001227502,新規,0,2022-06-20,2022-06-20,株式会社チケミー,,株式会社,東京都,文京区,小石川３丁目１１番地６号石川富山明倫学館５０４号室,,13,105,1120002,,,,,,,2022-06-20,1,,,,,チケミー,0
1785,7010001227551,新規,0,2022-06-20,2022-06-20,Ｄｒａｘ　Ａｓｉａ　Ｊａｐａｎ株式会社,,株式会社,東京都,千代田区,丸の内３丁目２番２号丸の内二重橋ビル２階,,13,101,1000005,,,,,,,2022-06-20,1,,,,,ドラックスアジアジャパン,0
1789,7010003037916,新規,0,2022-06-20,2022-06-20,ＤＷＳ合同会社,,合同会社,東京都,千代田区,九段北４丁目１番３号,,13,101,1020073,,,,,,,2022-06-20,1,,,,,,0
1800,7010401167991,新規,0,2022-06-20,2022-06-20,株式会社Ｄｉｌｅｃｔａ,,株式会社,東京都,港区,赤坂８丁目４－１４青山タワープレイス８Ｆ,,13,103,1070052,,,,,,,2022-06-20,1,,,,,ディレクタ,0
1801,7010401168040,新規,0,2022-06-20,2022-06-20,株式会社１００４,,株式会社,東京都,港区,麻布台１丁目１１－７,,13,103,1060041,,,,,,,2022-06-20,1,,,,,イチマルマルヨン,0
1802,7010401168049,新規,0,2022-06-20,2022-06-20,エヌペックスシステム株式会社,,株式会社,東京都,港区,浜松町２丁目２番１５号浜松町ダイヤビル２Ｆ,,13,103,1050013,,,,,,,2022-06-20,1,,,,,エヌペックスシステム,0
1803,7010401168057,新規,0,2022-06-20,2022-06-20,ＣＭＢＢ　Ｃｏｎｓｕｌｔｉｎｇ株式会社,,株式会社,東京都,港区,芝大門２丁目２番１号ＡＣＮ芝大門ビルディングＳ－０８,,13,103,1050012,,,,,,,2022-06-20,1,,,,,シーエムビービーコンサルティング,0
1804,7010401168065,新規,0,2022-06-20,2022-06-20,株式会社みかん,,株式会社,東京都,港区,西麻布３丁目１３番１６－６０５号,,13,103,1060031,,,,,,,2022-06-20,1,,,,,ミカン,0
1805,7010401168073,新規,0,2022-06-20,2022-06-20,株式会社港の夢,,株式会社,東京都,港区,西麻布３丁目２１番２０－５０３号,,13,103,1060031,,,,,,,2022-06-20,1,,,,,ミナトノユメ,0
1807,7010403027954,新規,0,2022-06-20,2022-06-20,橘キャピタル・マネジメント合同会社,,合同会社,東京都,港区,西麻布４丁目５番１０－７１０号,,13,103,1060031,,,,,,,2022-06-20,1,,,,,タチバナキャピタルマネジメント,0
1809,7010405021121,新規,0,2022-06-20,2022-06-20,ＵＩ　ＩｔａＳｅｎ特定目的会社,,その他の設立登記法人,東京都,港区,元赤坂１丁目１番７号,,13,103,1070051,,,,,,,2022-06-20,1,,,,,ユーアイイタセン,0
1816,7010603009595,新規,0,2022-06-20,2022-06-20,メタテック合同会社,,合同会社,東京都,江東区,亀戸２丁目３４番４号,,13,108,1360071,,,,,,,2022-06-20,1,,,,,メタテック,0
1818,7010801033050,新規,0,2022-06-20,2022-06-20,株式会社ラダンツァ・フルール,,株式会社,東京都,大田区,上池台３丁目１番２号ラグーナセレＩ２０５,00126925,13,111,1450064,,,,,,,2022-06-20,1,,,,,ラダンツァフルール,0
1820,7010805002951,新規,0,2022-06-20,2022-06-20,一般社団法人蒲田大好き委員会,,その他の設立登記法人,東京都,大田区,中央３丁目２２番２１－１０３号,,13,111,1430024,,,,,,,2022-06-20,1,,,,,カマタダイスキイインカイ,0
1844,7011001148093,新規,0,2022-06-20,2022-06-20,株式会社エアプロダクション,,株式会社,東京都,渋谷区,渋谷２丁目１９－１５宮益坂ビルディング６０９,,13,113,1500002,,,,,,,2022-06-20,1,,,,,エアプロダクション,0
1845,7011001148110,新規,0,2022-06-20,2022-06-20,株式会社エクスペリフル,,株式会社,東京都,渋谷区,代官山町８番２０号テルハウス２０１,,13,113,1500034,,,,,,,2022-06-20,1,,,,,エクスペリフル,0
1846,7011001148119,新規,0,2022-06-20,2022-06-20,株式会社テスターホールディングス,,株式会社,東京都,目黒区,上目黒５丁目１番５号,,13,110,1530051,,,,,,,2022-06-20,1,,,,,,0
1847,7011001148135,新規,0,2022-06-20,2022-06-20,株式会社Ｒｉｓｕｓ　Ｏｎｅ,,株式会社,東京都,渋谷区,渋谷１丁目１５－１２ＬＡＩＤＯＵＴＳＨＩＢＵＹＡ２０４,,13,113,1500002,,,,,,,2022-06-20,1,,,,,リーゾスワン,0
1848,7011001148151,新規,0,2022-06-20,2022-06-20,株式会社リバドリ,,株式会社,東京都,渋谷区,道玄坂１丁目１０番８号渋谷道玄坂東急ビル２Ｆ－Ｃ,,13,113,1500043,,,,,,,2022-06-20,1,,,,,リバドリ,0
1849,7011001148201,新規,0,2022-06-20,2022-06-20,株式会社ＦＡＩＲ　ＳＴＡＴＥ,,株式会社,東京都,渋谷区,本町３丁目２番１０号,,13,113,1510071,,,,,,,2022-06-20,1,,,,,フェアステイト,0
1851,7011003014839,新規,0,2022-06-20,2022-06-20,合同会社グランドキャピタル,,合同会社,東京都,渋谷区,恵比寿４丁目６番１０号恵比寿ホークビル４階,,13,113,1500013,,,,,,,2022-06-20,1,,,,,グランドキャピタル,0
1854,7011101099278,新規,0,2022-06-20,2022-06-20,ＤｉＭＥＮＳＩＯＮＡＬ　ＬＩＮＫＳ株式会社,,株式会社,東京都,新宿区,西新宿８丁目５番９号コーポラス芹澤４０Ｄ,,13,104,1600023,,,,,,,2022-06-20,1,,,,,ディメンショナルリンクス,0
1869,7011801040879,新規,0,2022-06-20,2022-06-20,グロリアス株式会社,,株式会社,東京都,足立区,大谷田５丁目３－１６,,13,121,1200001,,,,,,,2022-06-20,1,,,,,グロリアス,0
1870,7011801040887,新規,0,2022-06-20,2022-06-20,株式会社Ａｔ．,,株式会社,東京都,足立区,東和５丁目７番２２号東和マンション２０１号スタジオ,,13,121,1200003,,,,,,,2022-06-20,1,,,,,アタル,0
1876,7012801021654,新規,0,2022-06-20,2022-06-20,カラーテクア株式会社,,株式会社,東京都,日野市,三沢３丁目２番地の１３根本ビル２階,,13,212,1910032,,,,,,,2022-06-20,1,,,,,カラーテクア,0
1879,7013301049260,新規,0,2022-06-20,2022-06-20,未創楽株式会社,,株式会社,東京都,豊島区,南池袋１丁目１６番２０号,,13,116,1710022,,,,,,,2022-06-20,1,,,,,ミソウラク,0
1880,7013303006193,新規,0,2022-06-20,2022-06-20,アイビス・プラネット合同会社,,合同会社,東京都,豊島区,南大塚２丁目１１－１０ミモザビル３Ｆ,,13,116,1700005,,,,,,,2022-06-20,1,,,,,アイビスプラネット,0
1885,7020003021951,新規,0,2022-06-20,2022-06-20,タイドマーク合同会社,,合同会社,神奈川県,横浜市戸塚区,原宿５丁目２７番１３号ドルフ原宿２０１号室,,14,110,2450063,,,,,,,2022-06-20,1,,,,,タイドマーク,0
1887,7021001076302,新規,0,2022-06-20,2022-06-20,株式会社でじま屋,,株式会社,神奈川県,三浦市,南下浦町上宮田１４４３ＦＤカーサＩＩ三浦海岸２０２,00126922,14,210,2380101,,,,,,,2022-06-20,1,,,,,デジマヤ,0
1893,7030001148705,新規,0,2022-06-20,2022-06-20,アルマトレード株式会社,,株式会社,埼玉県,坂戸市,大字片柳７１８－７,,11,239,3500219,,,,,,,2022-06-20,1,,,,,アルマトレード,0
1900,7040001123938,新規,0,2022-06-20,2022-06-20,株式会社ｉＷｉｎｇｓ,,株式会社,千葉県,野田市,みずき４丁目１２番地の６,,12,208,2780027,,,,,,,2022-06-20,1,,,,,アイウイングス,0
1908,7060001034984,新規,0,2022-06-20,2022-06-20,株式会社心結,,株式会社,栃木県,足利市,堀込町１００１番地２９,,09,202,3260831,,,,,,,2022-06-20,1,,,,,ココミ,0
1909,7060001035000,新規,0,2022-06-20,2022-06-20,高根沢工務店株式会社,00126927,株式会社,栃木県,那須郡那須町,大字高久丙３１７０番地３,,09,407,3250302,,,,,,,2022-06-20,1,,,,,タカネザワコウムテン,0
1911,7060005009990,新規,0,2022-06-20,2022-06-20,一般社団法人福祉コラボちむぐくる,,その他の設立登記法人,栃木県,宇都宮市,福岡町１２７７番地２３,,09,201,3210342,,,,,,,2022-06-20,1,,,,,フクシコラボチムグクル,0
1923,7080101023365,新規,0,2022-06-20,2022-06-20,さとやまつくる株式会社,,株式会社,静岡県,伊豆市,湯ケ島１３４８番地,,22,222,4103206,,,,,,,2022-06-20,1,,,,,サトヤマツクル,0
1926,7090003002111,新規,0,2022-06-20,2022-06-20,ＺｅｒＯｎｅ‐ｐｒｏｊｅｃｔ合同会社,,合同会社,山梨県,南都留郡富士河口湖町,船津３０３０番地１４シャルムメゾンＩＩ１０３号室,00126937,19,430,4010301,,,,,,,2022-06-20,1,,,,,ゼロワンプロジェクト,0
1941,7120001246656,新規,0,2022-06-20,2022-06-20,株式会社結進,,株式会社,大阪府,大阪市阿倍野区,天王寺町北３丁目１４番１４－２０８号,,27,119,5450001,,,,,,,2022-06-20,1,,,,,ユイシン,0
1942,7120001246706,新規,0,2022-06-20,2022-06-20,アイスリーホールディングス株式会社,,株式会社,大阪府,大阪市中央区,瓦町３丁目１番３－１４０２号,,27,128,5410048,,,,,,,2022-06-20,1,,,,,アイスリーホールディングス,0
1943,7120001246796,新規,0,2022-06-20,2022-06-20,株式会社ｍｕｓｅ,,株式会社,大阪府,大阪市中央区,本町４丁目４－１６コートハウス４１６,,27,128,5410053,,,,,,,2022-06-20,1,,,,,ミューズ,0
1944,7120001246805,新規,0,2022-06-20,2022-06-20,株式会社ｒｉｅｒ,,株式会社,大阪府,大阪市天王寺区,六万体町５番２３号ライフデザイン・夕陽ヶ丘４０１号,,27,109,5430074,,,,,,,2022-06-20,1,,,,,リール,0
1945,7120001246821,新規,0,2022-06-20,2022-06-20,ＯＮＥ株式会社,,株式会社,大阪府,大阪市北区,曾根崎新地１丁目５番１０号４階,,27,127,5300002,,,,,,,2022-06-20,1,,,,,ワン,0
1958,7120905006338,新規,0,2022-06-20,2022-06-20,一般社団法人シニアライフ協会,,その他の設立登記法人,大阪府,豊中市,長興寺南３丁目７番３４号,,27,203,5610874,,,,,,,2022-06-20,1,,,,,シニアライフキョウカイ,0
1963,7130001071970,新規,0,2022-06-20,2022-06-20,株式会社円心,,株式会社,京都府,京都市左京区,静市静原町７３２番地,,26,103,6011121,,,,,,,2022-06-20,1,,,,,エンシン,0
1964,7130001071979,新規,0,2022-06-20,2022-06-20,環和総合サービス株式会社,,株式会社,京都府,京都市山科区,竹鼻堂ノ前町２４－６,,26,110,6078085,,,,,,,2022-06-20,1,,,,,カンワソウゴウサービス,0
1965,7130001071995,新規,0,2022-06-20,2022-06-20,株式会社友工房,,株式会社,京都府,相楽郡精華町,大字乾谷小字北里内４３番地１,,26,366,6190233,,,,,,,2022-06-20,1,,,,,ユウコウボウ,0
1972,7140001126377,新規,0,2022-06-20,2022-06-20,株式会社マイハウスアイデアズ,,株式会社,兵庫県,伊丹市,南町１丁目１番１－６０１号,,28,207,6640854,,,,,,,2022-06-20,1,,,,,マイハウスアイデアズ,0
1973,7140001126385,新規,0,2022-06-20,2022-06-20,株式会社霞興産,,株式会社,兵庫県,神戸市垂水区,霞ケ丘６丁目４番２６号,,28,108,6550039,,,,,,,2022-06-20,1,,,,,カスミコウサン,0
1974,7140001126393,新規,0,2022-06-20,2022-06-20,株式会社柴楓,,株式会社,兵庫県,西宮市,石刎町１８番１３－１０２号,,28,204,6620074,,,,,,,2022-06-20,1,,,,,シフウ,0
1975,7140001126410,新規,0,2022-06-20,2022-06-20,株式会社ＨＡＫＵＧＥＩ‐ＤＯ,,株式会社,兵庫県,芦屋市,翠ケ丘町１０番１－１０１号,,28,206,6590014,,,,,,,2022-06-20,1,,,,,ハクゲイドウ,0
1976,7140003017789,新規,0,2022-06-20,2022-06-20,合同会社ＦＡＮＴＡＳＩＳＴＡ,,合同会社,兵庫県,神戸市垂水区,城が山１丁目１０番１号,,28,108,6550884,,,,,,,2022-06-20,1,,,,,ファンタジスタ,0
1977,7140003017806,新規,0,2022-06-20,2022-06-20,合同会社Ｓｔａｒ　ｐｅａｒｌ,,合同会社,兵庫県,神戸市西区,玉津町水谷３４番地の４,,28,111,6512121,,,,,,,2022-06-20,1,,,,,スターパール,0
1978,7150003002708,新規,0,2022-06-20,2022-06-20,合同会社カサフェリス,,合同会社,奈良県,奈良市,三松３丁目１番７号,,29,201,6310074,,,,,,,2022-06-20,1,,,,,カサフェリス,0
1988,7180001151801,新規,0,2022-06-20,2022-06-20,株式会社大浦商店,,株式会社,愛知県,海部郡大治町,大字西條字苅屋橋８５番地大治ハイメゾン１０６号,,23,424,4901144,,,,,,,2022-06-20,1,,,,,オオウラショウテン,0
1991,7180003023957,新規,0,2022-06-20,2022-06-20,合同会社リングオブサン,,合同会社,愛知県,名古屋市中村区,靖国町１丁目１３０ｓｅｒｅｎｏ４０１,,23,105,4530065,,,,,,,2022-06-20,1,,,,,リングオブサン,0
1996,7180301036347,新規,0,2022-06-20,2022-06-20,株式会社アダプト,,株式会社,愛知県,刈谷市,小垣江町下９１番地１,,23,210,4480813,,,,,,,2022-06-20,1,,,,,アダプト,0
2000,7190003004015,新規,0,2022-06-20,2022-06-20,ＪＡＧ　Ｇｒｏｕｐ　Ｊａｐａｎ合同会社,,合同会社,三重県,鈴鹿市,長澤町２５２７番地の１,,24,207,5190314,,,,,,,2022-06-20,1,,,,,ジャググループジャパン,0
2007,7220003003302,新規,0,2022-06-20,2022-06-20,合同会社近藤工業,,合同会社,石川県,小松市,吉竹町と７２番地１,,17,203,9230835,,,,,,,2022-06-20,1,,,,,コンドウコウギョウ,0
2011,7240001059955,新規,0,2022-06-20,2022-06-20,株式会社エル,,株式会社,広島県,福山市,春日台１９番１３号,,34,207,7210916,,,,,,,2022-06-20,1,,,,,エル,0
2015,7250003003092,新規,0,2022-06-20,2022-06-20,合同会社イダテン,,合同会社,山口県,山口市,鋳銭司３００２,,35,203,7471221,,,,,,,2022-06-20,1,,,,,イダテン,0
2020,7260003003950,新規,0,2022-06-20,2022-06-20,ＲｅｃＬｉｆｅ合同会社,,合同会社,岡山県,岡山市北区,大安寺東町２２番１５－９号,,33,101,7000063,,,,,,,2022-06-20,1,,,,,リクライフ,0
2024,7290001097934,新規,0,2022-06-20,2022-06-20,ＴＮＯソリューション株式会社,,株式会社,福岡県,福岡市博多区,博多駅前４丁目１８番１９号,,40,132,8120011,,,,,,,2022-06-20,1,,,,,ティエヌオーソリューション,0
2029,7290003012627,新規,0,2022-06-20,2022-06-20,合同会社Ｋ’ｓカンパニー,,合同会社,福岡県,久留米市,上津町２２２８番地９７６,,40,203,8300052,,,,,,,2022-06-20,1,,,,,ケーズカンパニー,0
2031,7290801028642,新規,0,2022-06-20,2022-06-20,株式会社ＪＩＭＯＮＯ,,株式会社,福岡県,宮若市,乙野４５７,,40,226,8220131,,,,,,,2022-06-20,1,,,,,ジモノ,0
2033,7300001012973,新規,0,2022-06-20,2022-06-20,株式会社山下畜産,,株式会社,佐賀県,杵島郡白石町,大字戸ケ里２８３５番地１１,,41,425,8491203,,,,,,,2022-06-20,1,,,,,ヤマシタチクサン,0
2039,7340001024825,新規,0,2022-06-20,2022-06-20,株式会社拓く,,株式会社,鹿児島県,鹿児島市,東谷山６丁目６番１７号,,46,201,8910113,,,,,,,2022-06-20,1,,,,,ヒラク,0
2045,7360003012108,新規,0,2022-06-20,2022-06-20,ＤＴ合同会社,,合同会社,沖縄県,那覇市,安里１丁目１番４６－２０５号エステート安里,,47,201,9020067,,,,,,,2022-06-20,1,,,,,デイーティー,0
2046,7360005006677,新規,0,2022-06-20,2022-06-20,一般社団法人ソーシャルサポートジャパン,,その他の設立登記法人,沖縄県,那覇市,字小禄４１４番地３,,47,201,9010152,,,,,,,2022-06-20,1,,,,,ソーシャルサポートジャパン,0
2048,7370005010496,新規,0,2022-06-20,2022-06-20,医療法人知心会,,その他の設立登記法人,宮城県,仙台市青葉区,旭ケ丘４丁目１番１号,,04,101,9810904,,,,,,,2022-06-20,1,,,,,チシンカイ,0
2055,7430001086872,新規,0,2022-06-20,2022-06-20,株式会社Ｒｕｙｋａ,,株式会社,北海道,札幌市中央区,南三条東２丁目１５番地１グランドタワー札幌２７０３号,,01,101,0600053,,,,,,,2022-06-20,1,,,,,ルイカ,0
2056,7430001086906,新規,0,2022-06-20,2022-06-20,株式会社ライブラ,,株式会社,北海道,千歳市,里美２丁目１番地４,,01,224,0660055,,,,,,,2022-06-20,1,,,,,ライブラ,0
2058,7430003014014,新規,0,2022-06-20,2022-06-20,ＦＬＡＴ　ＳＰＡＣＥ合同会社,,合同会社,北海道,札幌市豊平区,月寒東五条１４丁目３番１３号,,01,105,0620055,,,,,,,2022-06-20,1,,,,,フラットスペース,0
2061,7450001013726,新規,0,2022-06-20,2022-06-20,株式会社ＲＥプラス,,株式会社,北海道,旭川市,宮前一条２丁目１番１２－１１０５号,,01,204,0788391,,,,,,,2022-06-20,1,,,,,アールイープラス,0
2065,7500003002853,新規,0,2022-06-20,2022-06-20,合同会社ビューティワークスラボラトリー,,合同会社,愛媛県,松山市,南梅本町１０９２－１４,,38,201,7910245,,,,,,,2022-06-20,1,,,,,ビューティワークスラボラトリー,0
2069,7700150110109,新規,0,2022-06-20,2022-06-20,ＤＡＳＡ　ＭＯＴＯＲＳ＆ＷＥＬＤＩＮＧ　ＷＯＲＫＳ,,外国会社等,千葉県,東金市,極楽寺８１８番地５Ｃ,,12,213,2830835,スリランカ民主社会主義共和国、カドゥガンナワ、キャンディロード、２１３Ｃ,,,,,,2022-06-20,1,,,,,ダサモータースアンドウエルデイングワークス,0
2079,8010001227492,新規,0,2022-06-20,2022-06-20,株式会社ＭＩＲＡＶＡＮＣＥ,,株式会社,東京都,中央区,新富１丁目１６番８号新富町営和ビルＢ１階,,13,102,1040041,,,,,,,2022-06-20,1,,,,,ミラヴァンス,0
2090,8010401168089,新規,0,2022-06-20,2022-06-20,株式会社ＳＥＥＫＥＲ　ＣＲＥＡＴＩＶＥ　ＳＴＵＤＩＯ,,株式会社,東京都,港区,南青山３丁目３番２４号,,13,103,1070062,,,,,,,2022-06-20,1,,,,,シーカークリエイティブスタジオ,0
2092,8010403027929,新規,0,2022-06-20,2022-06-20,合同会社Ｆａｍｉｌｉａ,,合同会社,東京都,港区,赤坂４丁目８番１９号,,13,103,1070052,,,,,,,2022-06-20,1,,,,,ファミリア,0
2093,8010403027937,新規,0,2022-06-20,2022-06-20,合同会社Ｃｒａｐｏｍ,,合同会社,東京都,港区,虎ノ門３丁目２２番１０－２０１号,,13,103,1050001,,,,,,,2022-06-20,1,,,,,クラポム,0
2095,8010501048991,新規,0,2022-06-20,2022-06-20,株式会社輝不動産,,株式会社,東京都,台東区,台東１丁目２９番３号,,13,106,1100016,,,,,,,2022-06-20,1,,,,,カガヤキフドウサン,0
2097,8010805002950,新規,0,2022-06-20,2022-06-20,一般社団法人安定化銀イオン水普及機構,,その他の設立登記法人,東京都,大田区,下丸子４丁目９番１４－２０２号,,13,111,1460092,,,,,,,2022-06-20,1,,,,,アンテイカギンイオンフキュウキコウ,0
2104,8011001148118,新規,0,2022-06-20,2022-06-20,株式会社ＮＥＷＯＬＤ　ＣＡＰＩＴＡＬ,,株式会社,東京都,渋谷区,渋谷２丁目１１番５号クロスオフィス渋谷メディオ,,13,113,1500002,,,,,,,2022-06-20,1,,,,,ニューオールドキャピタル,0
2105,8011001148126,新規,0,2022-06-20,2022-06-20,株式会社ＭＩＬ,,株式会社,東京都,渋谷区,代々木２丁目３０－４,,13,113,1510053,,,,,,,2022-06-20,1,,,,,ミル,0
2106,8011001148134,新規,0,2022-06-20,2022-06-20,株式会社ＹＵＳＵＡＬ,,株式会社,東京都,渋谷区,千駄ヶ谷２丁目３番４－２０６号,,13,113,1510051,,,,,,,2022-06-20,1,,,,,ユージュアル,0
2107,8011001148142,新規,0,2022-06-20,2022-06-20,株式会社ロールアップ,,株式会社,東京都,渋谷区,道玄坂１丁目１０番８号渋谷道玄坂東急ビル２Ｆ－Ｃ,,13,113,1500043,,,,,,,2022-06-20,1,,,,,ロールアップ,0
2108,8011001148241,新規,0,2022-06-20,2022-06-20,株式会社Ｒ．Ｏ．Ｅ．,,株式会社,東京都,渋谷区,神宮前６丁目２８番９号,,13,113,1500001,,,,,,,2022-06-20,1,,,,,アールオーイー,0
2109,8011003014887,新規,0,2022-06-20,2022-06-20,合同会社９６８,,合同会社,東京都,渋谷区,神宮前６丁目２３番４号桑野ビル２階,,13,113,1500001,,,,,,,2022-06-20,1,,,,,キューロクハチ,0
2112,8011101099269,新規,0,2022-06-20,2022-06-20,ＥＬＢＥＫ株式会社,,株式会社,東京都,新宿区,大久保２丁目３３番１２号ｓｔｕｄｉｏＲＥＢＥＣＣＡ３０１,,13,104,1690072,,,,,,,2022-06-20,1,,,,,エルベク,0
2121,8011403003696,新規,0,2022-06-20,2022-06-20,ＳＡＮＩＡ合同会社,,合同会社,東京都,板橋区,南常盤台２丁目１７－２キャビタルときわ台ＩＩ１０２,00126926,13,119,1740072,,,,,,,2022-06-20,1,,,,,サニア,0
2126,8011501028158,新規,0,2022-06-20,2022-06-20,株式会社喜楽,,株式会社,東京都,北区,赤羽台３丁目２番２０号,,13,117,1150053,,,,,,,2022-06-20,1,,,,,キラク,0
2138,8012403005443,新規,0,2022-06-20,2022-06-20,合同会社ＣＨＩＮＥＮ,,合同会社,東京都,府中市,府中町２丁目３－８,,13,206,1830055,,,,,,,2022-06-20,1,,,,,チネン,0
2143,8013301049268,新規,0,2022-06-20,2022-06-20,株式会社正申,,株式会社,東京都,豊島区,長崎３丁目９－１０コーポ太田１階,,13,116,1710051,,,,,,,2022-06-20,1,,,,,セイシン,0
2149,8020001147005,新規,0,2022-06-20,2022-06-20,株式会社環和,,株式会社,神奈川県,川崎市川崎区,渡田２丁目１３番８号,,14,131,2100837,,,,,,,2022-06-20,1,,,,,,0
2155,8021001076284,新規,0,2022-06-20,2022-06-20,湘南リサイクル支援センター株式会社,,株式会社,神奈川県,横須賀市,公郷町２丁目１９－３,,14,201,2380022,,,,,,,2022-06-20,1,,,,,ショウナンリサイクルシエンセンター,0
2156,8021001076292,新規,0,2022-06-20,2022-06-20,株式会社ＭＩＹＡＢＩ,,株式会社,神奈川県,秦野市,鶴巻南２丁目７番４－１０４号,,14,211,2570002,,,,,,,2022-06-20,1,,,,,ミヤビ,0
2160,8021003011842,新規,0,2022-06-20,2022-06-20,合同会社やまとうみ,,合同会社,神奈川県,相模原市南区,大野台２丁目１２番２－２１０号,,14,153,2520331,,,,,,,2022-06-20,1,,,,,ヤマトウミ,0
2170,8030003019548,新規,0,2022-06-20,2022-06-20,合同会社ｗｅｅｂ　ｏｎ,,合同会社,埼玉県,久喜市,久喜東５丁目１７―８,,11,232,3460016,,,,,,,2022-06-20,1,,,,,ウェーブオン,0
2171,8030003019622,新規,0,2022-06-20,2022-06-20,合同会社リバーサイド,,合同会社,埼玉県,戸田市,大字新曽２２４１番地（ルネサンス北戸田８０２号室）,,11,224,3350021,,,,,,,2022-06-20,1,,,,,リバーサイド,0
2172,8030003019630,新規,0,2022-06-20,2022-06-20,孝成合同会社,,合同会社,埼玉県,川口市,南鳩ヶ谷７丁目２６番１９号,,11,203,3340013,,,,,,,2022-06-20,1,,,,,コウセイ,0
2184,8040003020298,新規,0,2022-06-20,2022-06-20,Ｇｏｏｄ　Ｔｉｍｅ合同会社,,合同会社,千葉県,千葉市中央区,今井２丁目１１番１２－５０４号,,12,101,2600834,,,,,,,2022-06-20,1,,,,,グッタイム,0
2194,8070001039354,新規,0,2022-06-20,2022-06-20,ＫＥＥＰ警備保障株式会社,,株式会社,群馬県,前橋市,下大島町１２２０番地２０,,10,201,3792152,,,,,,,2022-06-20,1,,,,,キープケイビホショウ,0
2202,8080101023364,新規,0,2022-06-20,2022-06-20,日佑運輸株式会社,,株式会社,静岡県,富士市,中里１１１番地の６,,22,210,4170826,,,,,,,2022-06-20,1,,,,,ニチユウウンユ,0
2203,8080105006266,新規,0,2022-06-20,2022-06-20,一般社団法人クアツーリズム,,その他の設立登記法人,静岡県,御殿場市,中畑６９６番地の２,,22,215,4120006,,,,,,,2022-06-20,1,,,,,クアツーリズム,0
2211,8110001036751,新規,0,2022-06-20,2022-06-20,株式会社ミライズ不動産,,株式会社,新潟県,新潟市秋葉区,あおば通１丁目１０番１０号,,15,105,9560017,,,,,,,2022-06-20,1,,,,,ミライズフドウサン,0
2222,8120001246721,新規,0,2022-06-20,2022-06-20,武田株式会社,,株式会社,大阪府,大阪市西淀川区,柏里２丁目７－２６ラピース塚本６０５室,,27,113,5550022,,,,,,,2022-06-20,1,,,,,タケダ,0
2223,8120001246746,新規,0,2022-06-20,2022-06-20,ＭＦホールディングス株式会社,,株式会社,大阪府,大阪市淀川区,宮原５丁目１番２８号新大阪八千代ビル別館,,27,123,5320003,,,,,,,2022-06-20,1,,,,,エムエフホールディングス,0
2224,8120003021932,新規,0,2022-06-20,2022-06-20,ＫＳＧ合同会社,,合同会社,大阪府,大阪市西淀川区,御幣島２丁目８番３６－３０４号,,27,113,5550012,,,,,,,2022-06-20,1,,,,,ケーエスジー,0
2241,8130001072019,新規,0,2022-06-20,2022-06-20,株式会社いかがお過ごしでしょうか,,株式会社,京都府,京都市上京区,宮垣町９１－１０２,,26,102,6020853,,,,,,,2022-06-20,1,,,,,イカガオスゴシデショウカ,0
2246,8130005016509,新規,0,2022-06-20,2022-06-20,一般社団法人未来コンシェルジュ,,その他の設立登記法人,京都府,京都市西京区,樫原石畑町１７番地の１,,26,111,6158181,,,,,,,2022-06-20,1,,,,,ミライコンシェルジュ,0
2257,8140001126252,新規,0,2022-06-20,2022-06-20,株式会社大永商店,,株式会社,兵庫県,神戸市須磨区,神の谷１丁目１番９１－４０１号,,28,107,6540162,,,,,,,2022-06-20,1,,,,,オオエショウテン,0
2258,8140001126392,新規,0,2022-06-20,2022-06-20,株式会社リビルドホーム,,株式会社,兵庫県,西宮市,段上町１丁目７番３号,,28,204,6638006,,,,,,,2022-06-20,1,,,,,リビルドホーム,0
2259,8140001126434,新規,0,2022-06-20,2022-06-20,柴山水産加工株式会社,,株式会社,兵庫県,美方郡香美町,香住区沖浦９１１番地の８,,28,585,6696433,,,,,,,2022-06-20,1,,,,,シバヤマスイサンカコウ,0
2264,8140003017796,新規,0,2022-06-20,2022-06-20,合同会社ケアセンター・タスカル,,合同会社,兵庫県,神戸市須磨区,衣掛町４丁目１番１４号,,28,107,6540048,,,,,,,2022-06-20,1,,,,,ケアセンタータスカル,0
2277,8160003002598,新規,0,2022-06-20,2022-06-20,合同会社Ｊａｍ,,合同会社,滋賀県,大津市,瀬田３丁目３３番１６号,,25,201,5202134,,,,,,,2022-06-20,1,,,,,ジャム,0
2291,8180003023956,新規,0,2022-06-20,2022-06-20,合同会社ユー・コーポレーション,,合同会社,愛知県,名古屋市西区,中小田井２丁目５８番地の１グラン・コート中小田井７０３号,,23,104,4520822,,,,,,,2022-06-20,1,,,,,ユーコーポレーション,0
2293,8180301036346,新規,0,2022-06-20,2022-06-20,株式会社薫風,,株式会社,愛知県,高浜市,小池町４丁目９番地１,,23,227,4441303,,,,,,,2022-06-20,1,,,,,クンプウ,0
2294,8180303005365,新規,0,2022-06-20,2022-06-20,ＵＮＯ合同会社,,合同会社,愛知県,岡崎市,若松町字宮前３５番地３７,,23,202,4440826,,,,,,,2022-06-20,1,,,,,ウノ,0
2297,8200001040190,新規,0,2022-06-20,2022-06-20,株式会社飛騨岐阜人,00126935,株式会社,岐阜県,飛騨市,古川町栄町二丁目５番７号,,21,217,5061100,,,,,,,2022-06-20,1,,,,,ヒダギフト,0
2299,8200003005588,新規,0,2022-06-20,2022-06-20,合同会社ＭＩＳＡＫＡ,,合同会社,岐阜県,美濃加茂市,本郷町７丁目６－８７,,21,211,5050027,,,,,,,2022-06-20,1,,,,,ミサカ,0
2311,8260001036968,新規,0,2022-06-20,2022-06-20,矢音株式会社,,株式会社,岡山県,井原市,井原町１２１番地５,,33,207,7150019,,,,,,,2022-06-20,1,,,,,ヤオン,0
2330,8290803004129,新規,0,2022-06-20,2022-06-20,合同会社ＰＳファーマシー,,合同会社,福岡県,北九州市八幡西区,紅梅２丁目４番１２号ＴＨＥ　ＳＱＵＡＲＥ　ＫＯＢＡＩ　ＰＲＥＭＩＵＭ９０２号室,,40,109,8060011,,,,,,,2022-06-20,1,,,,,ピーエスファーマシー,0
2336,8340003003834,新規,0,2022-06-20,2022-06-20,合同会社みらい,,合同会社,鹿児島県,鹿児島市,田上５丁目５番３３号,,46,201,8900034,,,,,,,2022-06-20,1,,,,,ミライ,0
2338,8350001017810,新規,0,2022-06-20,2022-06-20,株式会社生産法人アグリパーク綾,,株式会社,宮崎県,東諸県郡綾町,大字南俣５３５３番地１６７,,45,383,8801303,,,,,,,2022-06-20,1,,,,,セイサンホウジンアグリパークアヤ,0
2344,8360001030580,新規,0,2022-06-20,2022-06-20,株式会社琉美石材,,株式会社,沖縄県,沖縄市,与儀２丁目１番３号,,47,211,9042174,,,,,,,2022-06-20,1,,,,,リュウビセキザイ,0
2348,8360003012107,新規,0,2022-06-20,2022-06-20,合同会社ヨゾラ,,合同会社,沖縄県,名護市,宇茂佐の森４丁目３番地３プロフィット朝４０１号室,,47,209,9050009,,,,,,,2022-06-20,1,,,,,ヨゾラ,0
2349,8370001048671,新規,0,2022-06-20,2022-06-20,株式会社フィナンシャルマネジメントコネクト,,株式会社,宮城県,仙台市青葉区,花京院１丁目２番１５号,,04,101,9800013,,,,,,,2022-06-20,1,,,,,フィナンシャルマネジメントコネクト,0
2359,8390003001973,新規,0,2022-06-20,2022-06-20,合同会社ＨＡＲＳ,,合同会社,山形県,東村山郡山辺町,大字山辺２７９７番地７,,06,301,9900301,,,,,,,2022-06-20,1,,,,,ハーズ,0
2366,8430001086855,新規,0,2022-06-20,2022-06-20,株式会社ＳＨＲフード,,株式会社,北海道,札幌市北区,屯田九条２丁目８番１５号,,01,102,0020859,,,,,,,2022-06-20,1,,,,,エスエイチアールフード,0
2367,8430001086871,新規,0,2022-06-20,2022-06-20,株式会社藤６４工業,,株式会社,北海道,札幌市南区,藤野六条４丁目３０番３号,,01,106,0612286,,,,,,,2022-06-20,1,,,,,フジロクヨンコウギョウ,0
2379,8500003002852,新規,0,2022-06-20,2022-06-20,合同会社ベスト,,合同会社,愛媛県,松山市,道後多幸町６番１６号,,38,201,7900841,,,,,,,2022-06-20,1,,,,,ベスト,0
2381,8700150108531,新規,0,2022-06-20,2022-05-09,青森県水産流通適正化協議会,,その他,青森県,青森市,長島１丁目１－１,,02,201,0300861,,,,,,,2022-05-09,1,,,,,アオモリケンスイサンリユウツウテキセイカキヨウギカイ,0
2382,8700150110124,新規,0,2022-06-20,2022-06-20,東京駅前八重洲一丁目東Ａ地区市街地再開発組合,,その他,東京都,中央区,八重洲１丁目４番１６号,,13,102,1030028,,,,,,,2022-06-20,1,,,,,トウキヨウエキマエヤエスイツチヨウメヒガシエーチクシガイチサイカイハツクミアイ,0
2385,9010001227525,新規,0,2022-06-20,2022-06-20,株式会社ＭＲコーポレーション,,株式会社,東京都,中央区,京橋３丁目１番１号東京スクエアガーデン,,13,102,1040031,,,,,,,2022-06-20,1,,,,,エムアールコーポレーション,0
2386,9010001227533,新規,0,2022-06-20,2022-06-20,ｐｉｘｉｕ株式会社,,株式会社,東京都,中央区,東日本橋２丁目２８番４号日本橋ＣＥＴビル２階,,13,102,1030004,,,,,,,2022-06-20,1,,,,,ヒキュウ,0
2392,9010103001935,新規,0,2022-06-20,2022-06-20,合同会社ａｃａｔｔ,,合同会社,東京都,八王子市,子安町１丁目３０番７号,,13,201,1920904,,,,,,,2022-06-20,1,,,,,アカット,0
2399,9010401168047,新規,0,2022-06-20,2022-06-20,ＣＹＢＥＲＢＩＺ　ＪＡＰＡＮ株式会社,,株式会社,東京都,港区,三田１丁目２番１８号ＴＴＤビル,,13,103,1080073,,,,,,,2022-06-20,1,,,,,サイバービズジャパン,0
2400,9010401168088,新規,0,2022-06-20,2022-06-20,Ｌｉｌｍｉｍｉｙｙ株式会社,,株式会社,東京都,港区,南青山２丁目２番８号ＤＦビル５階,,13,103,1070062,,,,,,,2022-06-20,1,,,,,リルミミー,0
2401,9010403027928,新規,0,2022-06-20,2022-06-20,ｈｉｔｓ，ｊａｐａｎ合同会社,,合同会社,東京都,港区,南青山２丁目２番１５号,,13,103,1070062,,,,,,,2022-06-20,1,,,,,ヒッツジャパン,0
2403,9010405021086,新規,0,2022-06-20,2022-06-20,一般社団法人トーイとアート,,その他の設立登記法人,東京都,港区,麻布十番２丁目７番１４号３０１,,13,103,1060045,,,,,,,2022-06-20,1,,,,,トーイトアート,0
2405,9010603009593,新規,0,2022-06-20,2022-06-20,ワイズアセットマネジメント合同会社,,合同会社,東京都,江東区,豊洲５丁目１番１３－２９２１号,,13,108,1350061,,,,,,,2022-06-20,1,,,,,ワイズアセットマネジメント,0
2432,9011001148067,新規,0,2022-06-20,2022-06-20,株式会社Ｗｈｏｌｅ　Ｋｅｉｋｉ　Ｔｏｋｙｏ,,株式会社,東京都,目黒区,目黒１丁目３－２３マンション目黒苑４１１,,13,110,1530063,,,,,,,2022-06-20,1,,,,,ホールケイキトウキョウ,0
2433,9011001148091,新規,0,2022-06-20,2022-06-20,株式会社Ｉｓｅａ,,株式会社,東京都,渋谷区,富ヶ谷１丁目１４－１２,,13,113,1510063,,,,,,,2022-06-20,1,,,,,アイシー,0
2434,9011001148100,新規,0,2022-06-20,2022-06-20,株式会社ＡＭＢＩＥＮＴＥ,,株式会社,東京都,渋谷区,神宮前６丁目２９－４原宿小宮ビル６Ｆ,,13,113,1500001,,,,,,,2022-06-20,1,,,,,アンビエンテ,0
2435,9011001148133,新規,0,2022-06-20,2022-06-20,株式会社ＳｅｃｏｎｄＣｕｌｔｕｒｅＰｌｕｓ,,株式会社,東京都,渋谷区,宇田川町３６－１７ニューシブヤマンション１０１,,13,113,1500042,,,,,,,2022-06-20,1,,,,,セカンドカルチャープラス,0
2436,9011001148158,新規,0,2022-06-20,2022-06-20,株式会社ロシュト・コンドウ,,株式会社,東京都,渋谷区,代々木１丁目６－３,,13,113,1510053,,,,,,,2022-06-20,1,,,,,ロシュトコンドウ,0
2438,9011103011858,新規,0,2022-06-20,2022-06-20,合同会社サンズロック,,合同会社,東京都,新宿区,西新宿３丁目３番１３号西新宿水間ビル２階,,13,104,1600023,,,,,,,2022-06-20,1,,,,,サンズロック,0
2440,9011403003695,新規,0,2022-06-20,2022-06-20,Ｂｅａｕｔｙ　Ｂｙ　ＥＩ合同会社,,合同会社,東京都,板橋区,向原１丁目５番２０－２０１号,,13,119,1730036,,,,,,,2022-06-20,1,,,,,ビューティーバイイー,0
2456,9013301049242,新規,0,2022-06-20,2022-06-20,Ａ株式会社,,株式会社,東京都,豊島区,池袋２丁目３６番１号ＩＮＦＩＮＩＴＹＩＫＥＢＵＫＵＲＯ６Ｆ,,13,116,1710014,,,,,,,2022-06-20,1,,,,,エー,0
2458,9013303006200,新規,0,2022-06-20,2022-06-20,東弘合同会社,,合同会社,東京都,豊島区,東池袋１丁目３６番地７池袋陽光ハイツ８０４号,,13,116,1700013,,,,,,,2022-06-20,1,,,,,トウヒロ,0
2465,9020001146897,新規,0,2022-06-20,2022-06-20,神奈川寝台株式会社,,株式会社,神奈川県,川崎市川崎区,小川町１８番地５レヴィール川崎３０５,,14,131,2100023,,,,,,,2022-06-20,1,,,,,カナガワシンダイ,0
2473,9021001076291,新規,0,2022-06-20,2022-06-20,株式会社ＲＣＬＩＦＥ,,株式会社,神奈川県,平塚市,豊田平等寺３３８番地３,,14,203,2540086,,,,,,,2022-06-20,1,,,,,アールシーライフ,0
2474,9021003011841,新規,0,2022-06-20,2022-06-20,田中合同会社,,合同会社,神奈川県,相模原市中央区,水郷田名２丁目７番１５号,,14,152,2520246,,,,,,,2022-06-20,1,,,,,タナカ,0
2476,9030003019638,新規,0,2022-06-20,2022-06-20,マノア合同会社,,合同会社,埼玉県,さいたま市大宮区,大成町３丁目３０７番地６０６号,,11,103,3300852,,,,,,,2022-06-20,1,,,,,マノア,0
2482,9040001123886,新規,0,2022-06-20,2022-06-20,株式会社ｉ．ｍｏ,,株式会社,千葉県,茂原市,粟生野字北蓮沼４番１,,12,210,2994106,,,,,,,2022-06-20,1,,,,,アイモ,0
2489,9040003020289,新規,0,2022-06-20,2022-06-20,合同会社アカデミックファウンデーション,,合同会社,千葉県,館山市,北条１８５８－５,,12,205,2940045,,,,,,,2022-06-20,1,,,,,アカデミックファウンデーション,0
2491,9040005021657,新規,0,2022-06-20,2022-06-20,特定非営利活動法人ひまわり,,その他の設立登記法人,千葉県,いすみ市,小沢６０番地１,,12,238,2980012,,,,,,,2022-06-20,1,,,,,ヒマワリ,0
2499,9060001035007,新規,0,2022-06-20,2022-06-20,連和企画株式会社,,株式会社,栃木県,宇都宮市,中里町４０３番地７,,09,201,3210414,,,,,,,2022-06-20,1,,,,,レンワキカク,0
2501,9070001039353,新規,0,2022-06-20,2022-06-20,ＬＩＮＸ株式会社,,株式会社,群馬県,藤岡市,藤岡８０３番地２,,10,209,3750024,,,,,,,2022-06-20,1,,,,,リンクス,0
2511,9110001036750,新規,0,2022-06-20,2022-06-20,株式会社ＳＫ,,株式会社,新潟県,新潟市秋葉区,川口５３１番地３,,15,105,9560015,,,,,,,2022-06-20,1,,,,,エスケー,0
2512,9110003004796,新規,0,2022-06-20,2022-06-20,Ａｉｒ　Ｗｏｒｋ　Ｊａｐａｎ合同会社,,合同会社,新潟県,新潟市東区,東中野山５丁目１４番１７号,,15,102,9500836,,,,,,,2022-06-20,1,,,,,,0
2523,9120001246745,新規,0,2022-06-20,2022-06-20,ＫａｎｎｏＥｓｔａｔｅ株式会社,,株式会社,大阪府,大阪市北区,天神橋２丁目４番１７号千代田第一ビル３Ｆ,,27,127,5300041,,,,,,,2022-06-20,1,,,,,カンノエステート,0
2524,9120001246803,新規,0,2022-06-20,2022-06-20,株式会社カツウェル,,株式会社,大阪府,大阪市城東区,鴫野東１丁目７番１０号,,27,118,5360013,,,,,,,2022-06-20,1,,,,,カツウェル,0
2529,9120003021915,新規,0,2022-06-20,2022-06-20,新華合同会社,,合同会社,大阪府,大阪市西淀川区,柏里２丁目７－２６ラピース塚本４０１室,,27,113,5550022,,,,,,,2022-06-20,1,,,,,シンカ,0
2530,9120003021931,新規,0,2022-06-20,2022-06-20,ＶＮＪＰサービス合同会社,,合同会社,大阪府,大阪市東成区,大今里１丁目３５番２０号,,27,115,5370012,,,,,,,2022-06-20,1,,,,,ブイエヌジェーピーサービス,0
2539,9120901046138,新規,0,2022-06-20,2022-06-20,株式会社ＹＯＬＯ,,株式会社,大阪府,豊中市,浜２丁目１６－１,,27,203,5610817,,,,,,,2022-06-20,1,,,,,ヨロ,0
2540,9122001035954,新規,0,2022-06-20,2022-06-20,株式会社Ｉｎｓｔａｌｌａｔｉｏｎ,,株式会社,大阪府,柏原市,法善寺２丁目４番３号,,27,221,5820005,,,,,,,2022-06-20,1,,,,,インストレーション,0
2545,9130005016508,新規,0,2022-06-20,2022-06-20,一般社団法人Ｌｕｍｅｄｉａ,,その他の設立登記法人,京都府,京都市上京区,宮垣町９１番地１０２,,26,102,6020853,,,,,,,2022-06-20,1,,,,,ルメディア,0
2558,9140001126350,新規,0,2022-06-20,2022-06-20,株式会社ＧＯＬ‐ＴＥＣＨ,,株式会社,兵庫県,尼崎市,水堂町１丁目２９番２７－２０７号,,28,202,6610026,,,,,,,2022-06-20,1,,,,,ゴルテック,0
2559,9140001126417,新規,0,2022-06-20,2022-06-20,株式会社リベラルライフ,,株式会社,兵庫県,神戸市中央区,神若通５丁目１番６号,,28,110,6510067,,,,,,,2022-06-20,1,,,,,リベラルライフ,0
2566,9140003017779,新規,0,2022-06-20,2022-06-20,合同会社ＬＴ,,合同会社,兵庫県,神戸市兵庫区,水木通８丁目１番２０号３０５号,,28,105,6520802,,,,,,,2022-06-20,1,,,,,エルティー,0
2568,9150001025642,新規,0,2022-06-20,2022-06-20,天の下株式会社,,株式会社,奈良県,香芝市,狐井３３０番地１シャーメゾンノースゲート２０１号,,29,210,6390234,,,,,,,2022-06-20,1,,,,,テンノシタ,0
2569,9160003002597,新規,0,2022-06-20,2022-06-20,合同会社カタオカ,,合同会社,滋賀県,甲賀市,甲賀町滝１２４番地,,25,209,5203432,,,,,,,2022-06-20,1,,,,,カタオカ,0
2577,9180303005364,新規,0,2022-06-20,2022-06-20,Ｔｒｕｓｔ合同会社,,合同会社,愛知県,豊橋市,駅前大通１丁目１８坂田ビル２Ｆ,,23,201,4400888,,,,,,,2022-06-20,1,,,,,トラスト,0
2581,9200001040157,新規,0,2022-06-20,2022-06-20,株式会社Ｔｓｕｋｕｓｈｉ,,株式会社,岐阜県,山県市,小倉６１０番地２,,21,215,5012124,,,,,,,2022-06-20,1,,,,,ツクシ,0
2582,9200001040198,新規,0,2022-06-20,2022-06-20,株式会社杉本カンパニー,,株式会社,岐阜県,多治見市,笠原町３７４４番地の８,,21,204,5070901,,,,,,,2022-06-20,1,,,,,スギモトカンパニー,0
2592,9240003005674,新規,0,2022-06-20,2022-06-20,合同会社メディカルサポート広島,,合同会社,広島県,広島市南区,猿猴橋町６番３４－１号,,34,103,7320823,,,,,,,2022-06-20,1,,,,,メディカルサポートヒロシマ,0
2597,9260003003949,新規,0,2022-06-20,2022-06-20,合同会社ＣＫＳ,,合同会社,岡山県,総社市,下林１２３６番地１,,33,208,7191122,,,,,,,2022-06-20,1,,,,,シーケーエス,0
2604,9290005018728,新規,0,2022-06-20,2022-06-20,一般社団法人日中友好促進協会,,その他の設立登記法人,福岡県,福岡市東区,千早４丁目２１－５５－１８０５号,,40,131,8130044,,,,,,,2022-06-20,1,,,,,ニッチュウユウコウソクシンキョウカイ,0
2609,9330001029848,新規,0,2022-06-20,2022-06-20,株式会社メイクル,,株式会社,熊本県,上天草市,大矢野町中１００４３番地２８,,43,212,8693603,,,,,,,2022-06-20,1,,,,,メイクル,0
2618,9360005006675,新規,0,2022-06-20,2022-06-20,一般社団法人ｍｉｒｕｊｏｊｏ,,その他の設立登記法人,沖縄県,中頭郡読谷村,字宇座１４番地３伊良皆家１０２号室,,47,324,9040328,,,,,,,2022-06-20,1,,,,,ミルジョジョ,0
2631,9400003002952,新規,0,2022-06-20,2022-06-20,合同会社成海,,合同会社,岩手県,奥州市,水沢字桜屋敷２６３番地１０,,03,215,0230865,,,,,,,2022-06-20,1,,,,,ナルミ,0
2643,9440001009104,新規,0,2022-06-20,2022-06-20,七飯木材株式会社,,株式会社,北海道,亀田郡七飯町,本町７丁目６５７番地,,01,337,0411111,,,,,,,2022-06-20,1,,,,,ナナエモクザイ,0
2645,9490001010206,新規,0,2022-06-20,2022-06-20,ＦＡ株式会社,,株式会社,高知県,高知市,福井町２１３５番地２９,,39,201,7800965,,,,,,,2022-06-20,1,,,,,エフエー,0
2650,9700150106328,新規,0,2022-06-20,2021-12-21,劇団シアターザロケッツ,,その他,東京都,狛江市,東和泉４丁目３－１８東和泉壱番館１号,,13,219,2010014,,,,,,,2021-12-21,1,,,,,ゲキダンシアターザロケツツ,0
