sequenceNumber,corporateNumber,process,correct,updateDate,changeDate,name,nameImageId,kind,prefectureName,cityName,streetNumber,addressImageId,prefectureCode,cityCode,postCode,addressOutside,addressOutsideImageId,closeDate,closeCause,successorCorporateNumber,changeCause,assignmentDate,latest,enName,enPrefectureName,enCityName,enAddressOutside,furigana,hihyoji
14,1010001200539,登記記録の閉鎖等,0,2023-10-06,2023-10-02,Ｚデータ株式会社,,株式会社,東京都,千代田区,紀尾井町１番３号,,13,101,1020094,,,2023-10-02,合併による解散等,4010401039979,令和５年１０月１日東京都千代田区紀尾井町１番３号ＬＩＮＥヤフー株式会社（4010401039979）に合併し解散,2019-04-26,1,,,,,,0
45,1010502007490,登記記録の閉鎖等,0,2023-10-06,2023-10-02,有限会社スバル,,有限会社,東京都,台東区,上野３丁目２４番６号上野フロンティアタワー１６階,,13,106,1100005,,,2023-10-02,合併による解散等,4010501031068,令和５年１０月１日東京都台東区上野三丁目２４番６号上野フロンティアタワー１６階スーゴルフィナンシャル株式会社（4010501031068）に合併し解散,2015-10-05,1,,,,,スバル,0
48,1010602003448,登記記録の閉鎖等,0,2023-10-06,2023-09-29,有限会社竹田工務店,,有限会社,東京都,江東区,千石２丁目６番１４号,,13,108,1350015,,,2023-09-29,清算の結了等,,,2015-10-05,1,,,,,タケダコウムテン,0
53,1010701038493,登記記録の閉鎖等,0,2023-10-06,2023-10-02,株式会社広報プロパートナーズ,,株式会社,東京都,品川区,上大崎３丁目１番３０号,,13,109,1410021,,,2023-10-02,清算の結了等,,,2019-11-20,1,,,,,コウホウプロパートナーズ,0
61,1011001068561,登記記録の閉鎖等,0,2023-10-06,2023-10-05,ＧＥＯＧＲＡＰＨ株式会社,,株式会社,東京都,渋谷区,円山町２８番８号,,13,113,1500044,,,2023-10-05,清算の結了等,,,2015-10-05,1,,,,,,0
66,1011101016379,登記記録の閉鎖等,0,2023-10-06,2023-10-03,日本ソアー株式会社,,株式会社,東京都,新宿区,新宿２丁目６番３－１１０９号,,13,104,1600022,,,2023-10-03,清算の結了等,,,2015-10-05,1,,,,,ニホンソアー,0
72,1011103008985,登記記録の閉鎖等,0,2023-10-06,2023-10-03,合同会社ジェイ・ヴイ・ジー,,合同会社,東京都,新宿区,下宮比町１番４号,,13,104,1620822,,,2023-10-03,清算の結了等,,,2019-08-01,1,,,,,ジェイヴイジー,0
80,1011501003175,登記記録の閉鎖等,0,2023-10-06,2023-09-29,株式会社トーキ,,株式会社,東京都,北区,滝野川７丁目２番７－７０９号,,13,117,1140023,,,2023-09-29,清算の結了等,,,2015-10-05,1,,,,,トーキ,0
91,1011802010580,登記記録の閉鎖等,0,2023-10-06,2023-10-02,有限会社エムズ・ファミリー,,有限会社,東京都,足立区,日ノ出町４０番６号,,13,121,1200021,,,2023-10-02,清算の結了等,,,2015-10-05,1,,,,,エムズファミリー,0
92,1011802027303,登記記録の閉鎖等,0,2023-10-06,2023-10-02,株式会社プルデントテクノ,,株式会社,東京都,足立区,江北１丁目２８番１０号,,13,121,1230872,,,2023-10-02,合併による解散等,7010601060600,令和５年１０月１日東京都足立区東六月町１番６号株式会社葛飾冷機センター（7010601060600）に合併し解散,2015-10-05,1,,,,,プルデントテクノ,0
95,1012401007316,登記記録の閉鎖等,0,2023-10-06,2023-10-02,イメージ・ワールド・コーポレーション株式会社,,株式会社,東京都,調布市,布田５丁目４９番１号,,13,208,1820024,,,2023-10-02,清算の結了等,,,2015-10-05,1,,,,,イメージワールドコーポレーション,0
103,1013301004642,登記記録の閉鎖等,0,2023-10-06,2023-10-03,株式会社笹本塗装店,,株式会社,東京都,板橋区,熊野町１６番７号,,13,119,1730025,,,2023-10-03,清算の結了等,,,2015-10-05,1,,,,,ササモトトソウテン,0
119,1021001000374,登記記録の閉鎖等,0,2023-10-06,2023-09-28,株式会社おおもり,,株式会社,神奈川県,藤沢市,白旗４丁目２番１号,,14,205,2510051,,,2023-09-28,清算の結了等,,,2015-10-05,1,,,,,オオモリ,0
120,1021001011982,登記記録の閉鎖等,0,2023-10-06,2023-10-02,株式会社光司,,株式会社,神奈川県,相模原市南区,東林間６丁目１９番１５号,,14,153,2520311,,,2023-10-02,清算の結了等,,,2015-10-05,1,,,,,コウジ,0
136,1030002066218,登記記録の閉鎖等,0,2023-10-06,2023-09-12,公志技建有限会社,,有限会社,埼玉県,和光市,本町１４番３５号吉橋コーポ２,,11,229,3510114,,,2023-09-12,清算の結了等,,,2015-10-05,1,,,,,コウシギケン,0
138,1030002109901,登記記録の閉鎖等,0,2023-10-06,2023-09-12,有限会社コワフール,,有限会社,埼玉県,川口市,坂下町２丁目２番１０号,,11,203,3340003,,,2023-09-12,清算の結了等,,,2015-10-05,1,,,,,コワフール,0
172,1080402017212,登記記録の閉鎖等,0,2023-10-06,2023-09-28,有限会社岡田書店,,有限会社,静岡県,掛川市,連雀２番地の１４,,22,213,4360093,,,2023-09-28,清算の結了等,,,2023-08-17,1,,,,,オカダショテン,0
185,1120001175225,登記記録の閉鎖等,0,2023-10-06,2023-10-02,株式会社ライフケア・デザイン,,株式会社,大阪府,大阪市東淀川区,東中島１丁目１８番２２号,,27,114,5330033,,,2023-10-02,合併による解散等,2120001165010,令和５年１０月１日大阪市東淀川区東中島一丁目１８番２２号株式会社ライフケア・ビジョン（2120001165010）に合併し解散,2015-10-05,1,,,,,ライフケアデザイン,0
188,1120001236373,登記記録の閉鎖等,0,2023-10-06,2023-10-02,株式会社ＵＴＣ,,株式会社,大阪府,大阪市中央区,南船場２丁目６番１０号,,27,128,5420081,,,2023-10-02,合併による解散等,9120001181406,令和５年１０月１日大阪市中央区南船場二丁目６番１０号株式会社打越会計事務所（9120001181406）に合併し解散,2021-04-01,1,,,,,ユーティーシー,0
213,1130002032886,登記記録の閉鎖等,0,2023-10-06,2023-09-21,有限会社水谷建設,,有限会社,京都府,福知山市,字長田１５４番地の２,,26,201,6200000,,,2023-09-21,清算の結了等,,,2015-10-05,1,,,,,ミズタニケンセツ,0
234,1180001121149,登記記録の閉鎖等,0,2023-10-06,2023-10-02,株式会社Ｔ－ｔｈｒｅｅ,,株式会社,愛知県,名古屋市中区,錦２丁目１８番５号白川第六ビル１階１０２号室,,23,106,4600003,,,2023-10-02,清算の結了等,,,2015-11-25,1,,,,,ティースリー,0
236,1180001156401,登記記録の閉鎖等,0,2023-10-06,2023-10-02,株式会社ＪＰマネジメントパートナーズ,,株式会社,愛知県,名古屋市緑区,神の倉４丁目１９２番地グラウィスＫ２０３号室,,23,114,4580812,,,2023-10-02,清算の結了等,,,2023-05-25,1,,,,,ピージェイマネジメントパートナーズ,0
237,1180002042914,登記記録の閉鎖等,0,2023-10-06,2023-10-02,有限会社大生,,有限会社,愛知県,名古屋市港区,寛政町１丁目１番地の２,,23,111,4550066,,,2023-10-02,清算の結了等,,,2015-10-05,1,,,,,タイセイ,0
249,1200002003970,登記記録の閉鎖等,0,2023-10-06,2023-10-02,有限会社藤銀,,有限会社,岐阜県,岐阜市,中西郷４丁目１１７番地,,21,201,5011177,,,2023-10-02,清算の結了等,,,2015-10-05,1,,,,,フジギン,0
250,1200005009511,登記記録の閉鎖等,0,2023-10-06,2023-10-05,特定非営利活動法人地球の未来,,その他の設立登記法人,岐阜県,恵那市,三郷町野井１３３番地の３２,,21,210,5097123,,,2023-10-05,清算の結了等,,,2015-10-05,1,,,,,チキュウノミライ,0
257,1230002012498,登記記録の閉鎖等,0,2023-10-06,2023-10-04,有限会社ジロザ,,有限会社,富山県,高岡市,京田３９４番地の６,,16,202,9330874,,,2023-10-04,清算の結了等,,,2015-10-05,1,,,,,ジロザ,0
258,1240001035937,登記記録の閉鎖等,0,2023-10-06,2023-10-02,株式会社すがはら薬局,,株式会社,広島県,福山市,駅家町大字法成寺１０８番地８,,34,207,7202413,,,2023-10-02,清算の結了等,,,2015-10-05,1,,,,,スガハラヤッキョク,0
266,1260001007637,登記記録の閉鎖等,0,2023-10-06,2023-09-27,株式会社ロッツ,,株式会社,広島県,広島市東区,二葉の里３丁目３番１号,,34,102,7320057,,,2023-09-27,清算の結了等,,,2015-10-05,1,,,,,ロッツ,0
276,1290001080895,登記記録の閉鎖等,0,2023-10-06,2023-09-25,ＴｏｍｏＬｏｏｐ株式会社,,株式会社,福岡県,福岡市西区,愛宕浜２丁目３番１－３０４号,,40,135,8190013,,,2023-09-25,清算の結了等,,,2018-03-26,1,,,,,トモループ,0
291,1290802001109,登記記録の閉鎖等,0,2023-10-06,2023-10-04,有限会社鬼塚自動車,,有限会社,福岡県,北九州市小倉北区,大手町６番１７－５０５号,,40,106,8030814,,,2023-10-04,清算の結了等,,,2015-10-05,1,,,,,オニツカジドウシャ,0
292,1290803001801,登記記録の閉鎖等,0,2023-10-06,2023-10-04,合同会社在宅電子化療養研究所,,合同会社,福岡県,遠賀郡芦屋町,高浜町１８番４０号,,40,381,8070122,,,2023-10-04,清算の結了等,,,2015-10-05,1,,,,,ザイタクデンシカリョウヨウケンキュウショ,0
294,1310001000454,登記記録の閉鎖等,0,2023-10-06,2023-10-02,京華園ビル株式会社,,株式会社,長崎県,長崎市,新地町９番７号,,42,201,8500842,,,2023-10-02,合併による解散等,2310001000453,令和５年９月３０日長崎市新地町９番７号株式会社京華園（2310001000453）に合併し解散,2015-10-05,1,,,,,キョウカエンビル,0
300,1330002002935,登記記録の閉鎖等,0,2023-10-06,2023-10-02,九州補償コンサルタント有限会社,,有限会社,熊本県,熊本市中央区,黒髪６丁目１３番５号,,43,101,8600862,,,2023-10-02,清算の結了等,,,2015-10-05,1,,,,,キュウシュウホショウコンサルタント,0
306,1340001015284,登記記録の閉鎖等,0,2023-10-06,2023-09-29,株式会社エーファイブ,,株式会社,鹿児島県,志布志市,松山町尾野見１３９番地５,,46,221,8997603,,,2023-09-29,清算の結了等,,,2015-10-05,1,,,,,エーファイブ,0
328,1430001048119,登記記録の閉鎖等,0,2023-10-06,2023-09-25,石狩興業株式会社,,株式会社,北海道,滝川市,栄町２丁目７番１７号,,01,225,0730031,,,2023-09-25,清算の結了等,,,2015-10-05,1,,,,,イシカリコウギョウ,0
332,1440002008640,登記記録の閉鎖等,0,2023-10-06,2023-10-03,有限会社まるよ林商店,,有限会社,北海道,二海郡八雲町,相生町１０５番地の７,,01,346,0493113,,,2023-10-03,清算の結了等,,,2015-10-05,1,,,,,マルヨハヤシショウテン,0
344,2010001045850,登記記録の閉鎖等,0,2023-10-06,2023-10-03,新日本ナムラスケール株式会社,,株式会社,東京都,葛飾区,青戸４丁目１４番２１号,,13,122,1250062,,,2023-10-03,清算の結了等,,,2015-10-05,1,,,,,シンニホンナムラスケール,0
365,2010005024909,登記記録の閉鎖等,0,2023-10-06,2023-09-29,社会保険労務士法人あかなぎ事務所,,その他の設立登記法人,東京都,千代田区,神田多町２丁目１番地神田東山ビル７階,,13,101,1010046,,,2023-09-29,清算の結了等,,,2016-02-01,1,,,,,アカナギジムショ,0
370,2010101001084,登記記録の閉鎖等,0,2023-10-06,2023-10-02,株式会社黒部製作所,,株式会社,東京都,町田市,原町田３丁目３番２７－１７１２号,,13,209,1940013,,,2023-10-02,清算の結了等,,,2015-10-05,1,,,,,クロベセイサクショ,0
373,2010401020288,登記記録の閉鎖等,0,2023-10-06,2023-10-04,東洋運輸倉庫株式会社,,株式会社,東京都,新宿区,西新宿８丁目１７番１号,,13,104,1600023,,,2023-10-04,合併による解散等,5010601031801,令和５年１０月１日東京都新宿区西新宿八丁目１７番１号ＳＢＳロジコム株式会社（5010601031801）に合併し解散,2015-10-05,1,,,,,トウヨウウンユソウコ,0
374,2010401107184,登記記録の閉鎖等,0,2023-10-06,2023-10-02,ヤナセヴィークルワールド株式会社,,株式会社,東京都,港区,芝浦１丁目６番３８号,,13,103,1050023,,,2023-10-02,合併による解散等,8010401069857,令和５年１０月１日東京都港区芝浦一丁目６番３８号ヤナセオートモーティブ株式会社（8010401069857）に合併し解散,2015-10-05,1,,,,,ヤナセヴィークルワールド,0
403,2011001056326,登記記録の閉鎖等,0,2023-10-06,2023-10-02,フクイ・ホールディングス株式会社,,株式会社,東京都,世田谷区,用賀４丁目１０番５号,,13,112,1580097,,,2023-10-02,合併による解散等,2011101021238,令和５年１０月１日東京都世田谷区用賀四丁目１０番５号株式会社ｂ－ｅｘ（2011101021238）に合併し解散,2015-10-05,1,,,,,フクイホールディングス,0
423,2011302016318,登記記録の閉鎖等,0,2023-10-06,2023-10-02,有限会社ＹＯＵＫＯＵ,,有限会社,東京都,杉並区,高井戸西２丁目１７番２９号,,13,115,1680071,,,2023-10-02,清算の結了等,,,2015-10-05,1,,,,,ヨウコウ,0
442,2020001082265,登記記録の閉鎖等,0,2023-10-06,2023-09-28,株式会社モトス,,株式会社,神奈川県,川崎市川崎区,昭和１丁目５番４号コーポＴ＆Ｓ１０７号,,14,131,2100813,,,2023-09-28,清算の結了等,,,2015-10-05,1,,,,,モトス,0
449,2020002036014,登記記録の閉鎖等,0,2023-10-06,2023-09-29,有限会社みかく堂,,有限会社,神奈川県,横浜市港北区,日吉３丁目１５番１１号,,14,109,2230061,,,2023-09-29,清算の結了等,,,2015-10-05,1,,,,,ミカクドウ,0
459,2021002030320,登記記録の閉鎖等,0,2023-10-06,2023-10-02,有限会社カサイ工業,,有限会社,神奈川県,相模原市南区,大野台３丁目２５番１６号,,14,153,2520331,,,2023-10-02,清算の結了等,,,2015-10-05,1,,,,,カサイコウギョウ,0
484,2050002035079,登記記録の閉鎖等,0,2023-10-06,2023-09-29,有限会社小田部緑地,,有限会社,茨城県,常陸太田市,白羽町１４１２番地の１０,,08,212,3110324,,,2023-09-29,清算の結了等,,,2015-10-05,1,,,,,コタベリョクチ,0
488,2060002014965,登記記録の閉鎖等,0,2023-10-06,2023-10-02,有限会社サクセス,,有限会社,栃木県,日光市,森友１０１６番地,,09,206,3212335,,,2023-10-02,清算の結了等,,,2015-10-05,1,,,,,サクセス,0
505,2120001124528,登記記録の閉鎖等,0,2023-10-06,2023-10-02,長岡香料商事株式会社,,株式会社,大阪府,大阪市中央区,北久宝寺町２丁目２番６号,,27,128,5410057,,,2023-10-02,清算の結了等,,,2015-10-05,1,,,,,ナガオカコウリョウショウジ,0
506,2120001137595,登記記録の閉鎖等,0,2023-10-06,2023-10-04,株式会社Ｔポイント,,株式会社,大阪府,枚方市,岡東町１２番２号,,27,210,5730032,,,2023-10-04,合併による解散等,8011001091920,令和５年１０月１日東京都渋谷区南平台町１６番１７号ＣＣＣＭＫホールディングス株式会社（8011001091920）に合併し解散,2015-10-05,1,,,,,ティーポイント,0
520,2120002072676,登記記録の閉鎖等,0,2023-10-06,2023-09-28,有限会社ちゃんこ部屋,,有限会社,大阪府,寝屋川市,香里南之町２８番２４－６１１号,,27,215,5720084,,,2023-09-28,清算の結了等,,,2015-10-05,1,,,,,チャンコベヤ,0
522,2120002079985,登記記録の閉鎖等,0,2023-10-06,2023-09-28,有限会社ヴィスプロ,,有限会社,大阪府,門真市,元町３番１８号,,27,223,5710057,,,2023-09-28,清算の結了等,,,2015-10-05,1,,,,,,0
526,2120101043504,登記記録の閉鎖等,0,2023-10-06,2023-10-02,ＩＭフーズ株式会社,,株式会社,大阪府,和泉市,幸２丁目６番６号,,27,219,5940005,,,2023-10-02,合併による解散等,3120101004240,令和５年９月３０日大阪府堺市中区毛穴町１２６番地１大和食品株式会社（3120101004240）に合併し解散,2015-10-05,1,,,,,アイエムフーズ,0
540,2130001011023,登記記録の閉鎖等,0,2023-10-06,2023-10-02,株式会社大京,,株式会社,京都府,京都市南区,吉祥院新田弐ノ段町１０４番地の１,00035365,26,107,6018317,,,2023-10-02,合併による解散等,9030001003544,令和５年９月１日埼玉県さいたま市大宮区桜木町一丁目１１番地５株式会社サイサン（9030001003544）に合併し解散,2015-10-05,1,,,,,ダイキョウ,0
567,2180002068215,登記記録の閉鎖等,0,2023-10-06,2023-10-02,有限会社カトウサービス,,有限会社,愛知県,春日井市,乙輪町１丁目７７番地,,23,206,4860832,,,2023-10-02,合併による解散等,6180001075704,令和５年１０月１日愛知県小牧市大字大草字清水洞２３０４番地の１加藤梱包運輸株式会社（6180001075704）に合併し解散,2015-10-05,1,,,,,カトウサービス,0
610,2290802002543,登記記録の閉鎖等,0,2023-10-06,2023-10-04,有限会社光英興産,,有限会社,福岡県,北九州市小倉北区,堺町２丁目４番１４号,,40,106,8020005,,,2023-10-04,清算の結了等,,,2015-10-05,1,,,,,コウエイコウサン,0
616,2340001005152,登記記録の閉鎖等,0,2023-10-06,2023-10-03,大伸テクノス株式会社,,株式会社,鹿児島県,鹿児島市,荒田２丁目６７番４号,,46,201,8900054,,,2023-10-03,清算の結了等,,,2015-10-05,1,,,,,ダイシンテクノス,0
619,2340002018566,登記記録の閉鎖等,0,2023-10-06,2023-10-03,有限会社小田薬品,,有限会社,鹿児島県,指宿市,湯の浜１丁目１８番１２号,,46,210,8910406,,,2023-10-03,清算の結了等,,,2015-10-05,1,,,,,オダヤクヒン,0
628,2410001013016,登記記録の閉鎖等,0,2023-10-06,2023-10-02,株式会社Ｌｏｃａｌ　Ｄｅｓｉｇｎ,,株式会社,秋田県,秋田市,八橋大畑２丁目３番１号ＷｈｉｔｅＣｕｂｅ１Ｆ,,05,201,0100962,,,2023-10-02,合併による解散等,6410001010298,令和５年１０月１日秋田市八橋大畑二丁目３番１号ＷｈｉｔｅＣｕｂｅ１Ｆ株式会社Ｌｏｃａｌ　Ｐｏｗｅｒ（6410001010298）に合併し解散,2021-11-16,1,,,,,ローカルデザイン,0
629,2430001050750,登記記録の閉鎖等,0,2023-10-06,2023-09-25,株式会社ノースビジョン,,株式会社,北海道,小樽市,若竹町２７番１６号,,01,203,0470001,,,2023-09-25,清算の結了等,,,2015-10-05,1,,,,,ノースビジョン,0
639,2450001003005,登記記録の閉鎖等,0,2023-10-06,2023-10-05,株式会社丸一尾崎塗装工業,,株式会社,北海道,旭川市,忠和四条６丁目４番２４号,,01,204,0708044,,,2023-10-05,清算の結了等,,,2015-10-05,1,,,,,マルイチオザキトソウコウギョウ,0
668,3010001200818,登記記録の閉鎖等,0,2023-10-06,2023-10-02,ヤフー株式会社,,株式会社,東京都,千代田区,紀尾井町１番３号,,13,101,1020094,,,2023-10-02,合併による解散等,4010401039979,令和５年１０月１日東京都千代田区紀尾井町１番３号ＬＩＮＥヤフー株式会社（4010401039979）に合併し解散,2019-05-15,1,,,,,,0
680,3010005034634,登記記録の閉鎖等,0,2023-10-06,2023-10-03,須磨エクイップメント一般社団法人,,その他の設立登記法人,東京都,千代田区,丸の内３丁目１番１号東京共同会計事務所内,,13,101,1000005,,,2023-10-03,清算の結了等,,,2022-02-25,1,,,,,スマエクイップメント,0
682,3010401020799,登記記録の閉鎖等,0,2023-10-06,2023-09-15,株式会社東京三和,,株式会社,東京都,港区,新橋３丁目５番１３号,,13,103,1050004,,,2023-09-15,清算の結了等,,,2015-10-05,1,,,,,トウキョウサンワ,0
692,3010403026497,登記記録の閉鎖等,0,2023-10-06,2023-09-19,みなと合同会社,,合同会社,東京都,港区,元赤坂１丁目１番７号,,13,103,1070051,,,2023-09-19,清算の結了等,,,2021-11-24,1,,,,,ミナト,0
705,3011001099480,登記記録の閉鎖等,0,2023-10-06,2023-10-05,株式会社ＰＬＡＳＴＩＣ社,,株式会社,東京都,渋谷区,円山町２８番８号,,13,113,1500044,,,2023-10-05,清算の結了等,,,2015-10-05,1,,,,,,0
706,3011001119544,登記記録の閉鎖等,0,2023-10-06,2023-09-29,クアッドスペース株式会社,,株式会社,東京都,渋谷区,恵比寿１丁目１５番９－４０３号,,13,113,1500013,,,2023-09-29,清算の結了等,,,2017-12-05,1,,,,,クアッドスペース,0
719,3011105008453,登記記録の閉鎖等,0,2023-10-06,2023-10-03,一般社団法人ジェイ・エス・ゼッド,,その他の設立登記法人,東京都,新宿区,下宮比町１番４号,,13,104,1620822,,,2023-10-03,清算の結了等,,,2018-07-23,1,,,,,ジェイエスゼッド,0
721,3011401000097,登記記録の閉鎖等,0,2023-10-06,2023-10-03,ジーンワールド株式会社,,株式会社,東京都,板橋区,小茂根２丁目２８番１号,,13,119,1730037,,,2023-10-03,清算の結了等,,,2015-10-05,1,,,,,ジーンワールド,0
735,3012401001738,登記記録の閉鎖等,0,2023-10-06,2023-10-04,株式会社ＫＪナビツアーズ,,株式会社,東京都,新宿区,新宿３丁目３番１号,,13,104,1600022,,,2023-10-04,清算の結了等,,,2015-10-05,1,,,,,ケイジェイナビツアーズ,0
753,3021001046589,登記記録の閉鎖等,0,2023-10-06,2023-10-02,株式会社ジールコンサルティング,,株式会社,福岡県,福岡市中央区,地行２丁目１７番１４号,,40,133,8100064,,,2023-10-02,清算の結了等,,,2015-10-05,1,,,,,ジールコンサルティング,0
754,3021001064260,登記記録の閉鎖等,0,2023-10-06,2023-09-28,株式会社ＡＩ－ＣＨＩＳＨＩＫＩ,,株式会社,神奈川県,大和市,中央林間５丁目５番３４号フェリース中央林間２０１,,14,213,2420007,,,2023-09-28,清算の結了等,,,2018-03-02,1,,,,,アイチシキ,0
757,3021002034956,登記記録の閉鎖等,0,2023-10-06,2023-10-02,有限会社笹本製作所,,有限会社,神奈川県,伊勢原市,石田９０３番地の４,,14,214,2591116,,,2023-10-02,清算の結了等,,,2015-10-05,1,,,,,ササモトセイサクショ,0
761,3030001098029,登記記録の閉鎖等,0,2023-10-06,2023-09-13,株式会社アトラックス,,株式会社,埼玉県,さいたま市南区,大谷場１丁目１７番２７号,,11,108,3360016,,,2023-09-13,清算の結了等,,,2015-10-05,1,,,,,アトラックス,0
765,3030002033604,登記記録の閉鎖等,0,2023-10-06,2023-09-13,有限会社小泉設計事務所,,有限会社,埼玉県,狭山市,大字水野１２３１番地の４,,11,215,3501317,,,2023-09-13,清算の結了等,,,2015-10-05,1,,,,,コイズミセッケイジムショ,0
793,3080005000308,登記記録の閉鎖等,0,2023-10-06,2023-10-03,神習教井伊谷講社,,その他の設立登記法人,静岡県,静岡市駿河区,八幡２丁目１６番１３号,,22,102,4228076,,,2023-10-03,清算の結了等,,,2015-10-05,1,,,,,シンシュウキョウイイノヤコウシャ,0
797,3080105001073,登記記録の閉鎖等,0,2023-10-06,2023-10-02,特定非営利活動法人まちづくりセンターぬまづ,,その他の設立登記法人,静岡県,沼津市,北高島町１９番５号,,22,203,4100054,,,2023-10-02,清算の結了等,,,2015-10-05,1,,,,,マチヅクリセンターヌマヅ,0
799,3080402014505,登記記録の閉鎖等,0,2023-10-06,2023-09-25,有限会社ＮＥＧ,,有限会社,静岡県,浜松市南区,法枝町８８３番地の１,,22,134,4328053,,,2023-09-25,清算の結了等,,,2015-10-05,1,,,,,エヌイージー,0
828,3120101031301,登記記録の閉鎖等,0,2023-10-06,2023-10-04,山都合板興業株式会社,,株式会社,大阪府,富田林市,若松町東３丁目７番２３号,,27,214,5840023,,,2023-10-04,清算の結了等,,,2015-10-05,1,,,,,ヤマトゴウハンコウギョウ,0
831,3120101037901,登記記録の閉鎖等,0,2023-10-06,2023-10-03,株式会社ワールド・アイ,,株式会社,大阪府,岸和田市,下池田町１丁目９番２２号,,27,202,5960811,,,2023-10-03,清算の結了等,,,2015-10-05,1,,,,,ワールドアイ,0
842,3130001002599,登記記録の閉鎖等,0,2023-10-06,2023-09-27,株式会社栄文堂,,株式会社,京都府,京都市左京区,北門前町４８７,,26,103,6068352,,,2023-09-27,清算の結了等,,,2015-10-05,1,,,,,エイブンドウ,0
845,3130001050202,登記記録の閉鎖等,0,2023-10-06,2023-09-27,エス・フォース株式会社,,株式会社,京都府,宇治市,伊勢田町井尻７０－２０,,26,204,6110043,,,2023-09-27,清算の結了等,,,2015-10-05,1,,,,,エスフォース,0
857,3150001012183,登記記録の閉鎖等,0,2023-10-06,2023-10-04,株式会社谷川木工所,,株式会社,奈良県,生駒郡平群町,大字櫟原３６番地の１,,29,342,6360944,,,2023-10-04,清算の結了等,,,2015-10-05,1,,,,,タニガワモッコウジョ,0
861,3160002005235,登記記録の閉鎖等,0,2023-10-06,2023-10-02,有限会社ポリスターエンジニアリング,,有限会社,滋賀県,湖南市,石部口３丁目４番１３号,,25,211,5203114,,,2023-10-02,合併による解散等,1160001004999,令和５年９月３０日滋賀県湖南市石部口三丁目４番１３号日本ポリスター株式会社（1160001004999）に合併し解散,2015-10-05,1,,,,,ポリスターエンジニアリング,0
865,3180001116700,登記記録の閉鎖等,0,2023-10-06,2023-10-02,株式会社シバタファーム,,株式会社,愛知県,瀬戸市,上半田川町２１８番地,,23,204,4801211,,,2023-10-02,清算の結了等,,,2015-10-05,1,,,,,シバタファーム,0
872,3180002069451,登記記録の閉鎖等,0,2023-10-06,2023-10-02,中部サービス有限会社,,有限会社,愛知県,小牧市,常普請２丁目１５２番地,,23,219,4850044,,,2023-10-02,清算の結了等,,,2015-10-05,1,,,,,チュウブサービス,0
875,3180301008705,登記記録の閉鎖等,0,2023-10-06,2023-09-25,株式会社東海サポート,,株式会社,愛知県,豊川市,伊奈町南山新田３５０－７９,,23,207,4410105,,,2023-09-25,清算の結了等,,,2015-10-05,1,,,,,トウカイサポート,0
878,3190001012304,登記記録の閉鎖等,0,2023-10-06,2023-10-02,新友技研株式会社,,株式会社,三重県,桑名市,大字坂井４４４番地,,24,205,5110939,,,2023-10-02,合併による解散等,2190001012305,令和５年１０月１日三重県桑名市大字坂井４４４番地新友鋳造株式会社（2190001012305）に合併し解散,2015-10-05,1,,,,,シンユウギケン,0
884,3200001017722,登記記録の閉鎖等,0,2023-10-06,2023-10-02,福永建設株式会社,,株式会社,岐阜県,可児市,広見４丁目１１番地,,21,214,5090214,,,2023-10-02,合併による解散等,7200001023873,令和５年１０月１日岐阜県中津川市加子母１００５番地株式会社中島工務店（7200001023873）に合併し解散,2015-10-05,1,,,,,フクナガケンセツ,0
911,3280001003351,登記記録の閉鎖等,0,2023-10-06,2023-10-03,株式会社ローダー,,株式会社,島根県,出雲市,大津新崎町６丁目２番地,,32,203,6930012,,,2023-10-03,清算の結了等,,,2015-10-05,1,,,,,ローダー,0
926,3330001010152,登記記録の閉鎖等,0,2023-10-06,2023-09-28,建竜建設株式会社,,株式会社,熊本県,熊本市南区,川尻１丁目３番２３号,,43,104,8614115,,,2023-09-28,清算の結了等,,,2015-10-05,1,,,,,,0
934,3340001004145,登記記録の閉鎖等,0,2023-10-06,2023-10-02,株式会社三国器械,,株式会社,鹿児島県,鹿児島市,西別府町２９４１番地４５,,46,201,8900033,,,2023-10-02,清算の結了等,,,2015-10-05,1,,,,,ミクニキカイ,0
938,3360001023498,登記記録の閉鎖等,0,2023-10-06,2023-09-29,株式会社Ｔｒｉｅｄ　ａｎｄ　Ｔｒｕｅ,,株式会社,沖縄県,那覇市,おもろまち４丁目１６番１８号ステーションサイド２１　２０４号,,47,201,9000006,,,2023-09-29,清算の結了等,,,2018-02-06,1,,,,,トライデアンドトゥルー,0
941,3370001016963,登記記録の閉鎖等,0,2023-10-06,2023-10-03,グリーン・クリエイト株式会社,,株式会社,宮城県,黒川郡大和町,もみじケ丘１丁目９番地の６,,04,421,9813622,,,2023-10-03,清算の結了等,,,2015-10-05,1,,,,,グリーンクリエイト,0
946,3370002010296,登記記録の閉鎖等,0,2023-10-06,2023-10-03,有限会社オプト,,有限会社,宮城県,仙台市青葉区,一番町１丁目５番７号,,04,101,9800811,,,2023-10-03,清算の結了等,,,2015-10-05,1,,,,,オプト,0
952,3400001001664,登記記録の閉鎖等,0,2023-10-06,2023-09-29,株式会社森政吉商店,,株式会社,岩手県,盛岡市,加賀野２丁目２番２７号,,03,201,0200807,,,2023-09-29,清算の結了等,,,2015-10-05,1,,,,,モリマサキチショウテン,0
953,3400001012802,登記記録の閉鎖等,0,2023-10-06,2023-09-28,株式会社藤清工務店,,株式会社,岩手県,上閉伊郡大槌町,小鎚第２３地割９１番地１,00085528,03,461,0281121,,,2023-09-28,清算の結了等,,,2015-10-05,1,,,,,フジセイコウムテン,0
988,4010003014331,登記記録の閉鎖等,0,2023-10-06,2023-09-28,ＫＢＤＢ合同会社,,合同会社,東京都,中央区,銀座６丁目６番１号,,13,102,1040061,,,2023-09-28,清算の結了等,,,2015-10-05,1,,,,,ケービーディービー,0
990,4010005024923,登記記録の閉鎖等,0,2023-10-06,2023-10-03,一般社団法人バチルス普及推進機構,,その他の設立登記法人,東京都,中央区,日本橋室町４丁目１番１４号小島ビル２階,,13,102,1030022,,,2023-10-03,清算の結了等,,,2016-02-05,1,,,,,バチルスフキュウスイシンキコウ,0
1014,4010501046248,登記記録の閉鎖等,0,2023-10-06,2023-10-04,株式会社ＬＴＶ,,株式会社,東京都,台東区,東上野３丁目１８番７号上野駅前ビル３階,,13,106,1100015,,,2023-10-04,清算の結了等,,,2020-09-24,1,,,,,エルティブイ,0
1016,4010505000589,登記記録の閉鎖等,0,2023-10-06,2023-10-04,医療法人社団健信会,,その他の設立登記法人,東京都,台東区,駒形１丁目５番１７号,,13,106,1110043,,,2023-10-04,清算の結了等,,,2015-10-05,1,,,,,ケンシンカイ,0
1033,4011001119527,登記記録の閉鎖等,0,2023-10-06,2023-10-02,株式会社買えるＡｂｅｍａＴＶ社,,株式会社,東京都,渋谷区,宇田川町４０番１号,,13,113,1500042,,,2023-10-02,清算の結了等,,,2017-12-07,1,,,,,カエルアベマティーヴィーシャ,0
1041,4011101084522,登記記録の閉鎖等,0,2023-10-06,2023-10-04,イソレ株式会社,,株式会社,東京都,新宿区,大京町１９番地２アビテ四谷大京町２０７,,13,104,1600015,,,2023-10-04,清算の結了等,,,2018-06-19,1,,,,,イソレ,0
1050,4011501026306,登記記録の閉鎖等,0,2023-10-06,2023-10-04,Ｂｏｎ　Ｇｏｕｔ株式会社,,株式会社,東京都,台東区,入谷１丁目２７番５号,,13,106,1100013,,,2023-10-04,清算の結了等,,,2020-10-23,1,,,,,ボングゥー,0
1057,4011801012749,登記記録の閉鎖等,0,2023-10-06,2023-10-03,株式会社山崎商店,,株式会社,東京都,足立区,千住２丁目２２番地,,13,121,1200034,,,2023-10-03,清算の結了等,,,2015-10-05,1,,,,,ヤマザキショウテン,0
1079,4020002082205,登記記録の閉鎖等,0,2023-10-06,2023-09-28,有限会社渡邊自動車,00011426,有限会社,神奈川県,川崎市幸区,南加瀬１丁目７番１０号４０８,,14,132,2120055,,,2023-09-28,清算の結了等,,,2015-10-05,1,,,,,ワタナベジドウシャ,0
1084,4020005013181,登記記録の閉鎖等,0,2023-10-06,2023-09-27,特定非営利活動法人瀬谷はまっ子クラブ,,その他の設立登記法人,神奈川県,横浜市瀬谷区,中央２番地２９ミドルレジデンスオオエ３０３,,14,114,2460014,,,2023-09-27,清算の結了等,,,2017-07-03,1,,,,,セヤハマッコクラブ,0
1095,4030003008521,登記記録の閉鎖等,0,2023-10-06,2023-09-12,ノニサンエイト合同会社,,合同会社,埼玉県,比企郡鳩山町,大字泉井字沼上１２７２番地２,,11,348,3500305,,,2023-09-12,清算の結了等,,,2016-03-09,1,,,,,ノニサンエイト,0
1113,4060002019021,登記記録の閉鎖等,0,2023-10-06,2023-09-29,有限会社富田,,有限会社,栃木県,下野市,柴２５５番地１３,,09,216,3290412,,,2023-09-29,清算の結了等,,,2015-10-05,1,,,,,トミタ,0
1132,4080401023183,登記記録の閉鎖等,0,2023-10-06,2023-10-02,株式会社ＣＯＣＯＭ,,株式会社,静岡県,浜松市西区,和光町５０５番地の１,,22,133,4311101,,,2023-10-02,合併による解散等,4080401012070,令和５年１０月２日静岡県浜松市西区和光町５０５番地の１株式会社エムエスケイ（4080401012070）に合併し解散,2018-09-21,1,,,,,ココム,0
1141,4100002019553,登記記録の閉鎖等,0,2023-10-06,2023-09-28,有限会社オザワ美術,,有限会社,長野県,松本市,並柳４丁目１０番７号,,20,202,3900825,,,2023-09-28,清算の結了等,,,2015-10-05,1,,,,,オザワビジュツ,0
1148,4120001011939,登記記録の閉鎖等,0,2023-10-06,2023-09-29,株式会社オーケーエー,,株式会社,大阪府,大阪市東成区,東小橋３丁目９番１３号,,27,115,5370024,,,2023-09-29,合併による解散等,3120001011948,令和５年８月１日大阪市東成区東小橋三丁目９番１３号岡安ゴム株式会社（3120001011948）に合併し解散,2015-10-05,1,,,,,オーケーエー,0
1152,4120001055663,登記記録の閉鎖等,0,2023-10-06,2023-10-02,アイエス・エヌ株式会社,,株式会社,大阪府,大阪市北区,天満１丁目６番８号,,27,127,5300043,,,2023-10-02,合併による解散等,7120001249502,令和５年１０月１日大阪市北区天満一丁目６番８号株式会社せせらぎ出版（7120001249502）に合併し解散,2015-10-05,1,,,,,アイエスエヌ,0
1165,4120101024320,登記記録の閉鎖等,0,2023-10-06,2023-10-03,株式会社ユーズクリエイト,,株式会社,大阪府,堺市堺区,三宝町６丁３１２番地の３（３０３号）,,27,141,5900906,,,2023-10-03,清算の結了等,,,2015-10-05,1,,,,,ユーズクリエイト,0
1180,4122002015357,登記記録の閉鎖等,0,2023-10-06,2023-10-02,有限会社コスモ理研,,有限会社,大阪府,柏原市,本郷４丁目７７番地の２,,27,221,5820001,,,2023-10-02,清算の結了等,,,2015-10-05,1,,,,,コスモリケン,0
1191,4140001053277,登記記録の閉鎖等,0,2023-10-06,2023-10-04,株式会社三晃,,株式会社,兵庫県,尼崎市,神田北通２丁目２０番地,,28,202,6600883,,,2023-10-04,合併による解散等,4140001049580,令和５年９月３０日兵庫県尼崎市神田北通二丁目２０番地第一殖産株式会社（4140001049580）に合併し解散,2015-10-05,1,,,,,サンコウ,0
1203,4150002002240,登記記録の閉鎖等,0,2023-10-06,2023-10-04,有限会社飛鳥システム制御,,有限会社,奈良県,奈良市,紀寺町９８８番地の１１,,29,201,6308306,,,2023-10-04,清算の結了等,,,2015-10-05,1,,,,,アスカシステムセイギョ,0
1211,4170005005973,登記記録の閉鎖等,0,2023-10-06,2023-10-06,一般財団法人リビングソーシャルプロジェクト,,その他の設立登記法人,和歌山県,和歌山市,湊本町１丁目２３番地,,30,201,6408222,,,2023-10-06,清算の結了等,,,2015-10-05,1,,,,,リビングソーシャルプロジェクト,0
1212,4180001052283,登記記録の閉鎖等,0,2023-10-06,2023-10-02,株式会社コスモフレッシュ,,株式会社,愛知県,西春日井郡豊山町,大字豊場字幸田１１番１,,23,342,4800202,,,2023-10-02,合併による解散等,1180001051858,令和５年１０月１日愛知県西春日井郡豊山町大字豊場字八反１０７番地エース商事株式会社（1180001051858）に合併し解散,2015-10-05,1,,,,,コスモフレッシュ,0
1226,4200001013159,登記記録の閉鎖等,0,2023-10-06,2023-10-03,あんしん保険サービス株式会社,,株式会社,岐阜県,大垣市,安井町３丁目２８番地,,21,202,5030837,,,2023-10-03,清算の結了等,,,2015-10-05,1,,,,,アンシンホケンサービス,0
1227,4200001015048,登記記録の閉鎖等,0,2023-10-06,2023-10-03,株式会社ニシワキ,,株式会社,岐阜県,養老郡養老町,口ケ島３４４番地の１,,21,341,5031323,,,2023-10-03,清算の結了等,,,2015-10-05,1,,,,,ニシワキ,0
1232,4200002015492,登記記録の閉鎖等,0,2023-10-06,2023-10-03,有限会社サンクリーン雅,,有限会社,岐阜県,揖斐郡揖斐川町,脛永１５１１番地の２,00081030,21,401,5010622,,,2023-10-03,清算の結了等,,,2015-10-05,1,,,,,サンクリーンミヤビ,0
1233,4200003002250,登記記録の閉鎖等,0,2023-10-06,2023-10-02,合同会社Ｃ＆Ｅ　ＡＵＴＯ,,合同会社,岐阜県,関市,西田原１１２番地５,,21,205,5013928,,,2023-10-02,清算の結了等,,,2015-10-05,1,,,,,シーアンドイーオート,0
1264,4260001013368,登記記録の閉鎖等,0,2023-10-06,2023-10-02,山陽運輸機工株式会社,,株式会社,岡山県,倉敷市,水島海岸通２丁目１番地,,33,202,7128071,,,2023-10-02,合併による解散等,6260001014240,令和５年１０月１日岡山県倉敷市水島海岸通二丁目１番地中谷興運株式会社（6260001014240）に合併し解散,2015-10-05,1,,,,,サンヨウウンユキコウ,0
1273,4290001072824,登記記録の閉鎖等,0,2023-10-06,2023-09-26,株式会社クイック・エージェント,,株式会社,福岡県,福岡市東区,香椎駅前２丁目８番１８－１１０１号,,40,131,8130013,,,2023-09-26,清算の結了等,,,2016-02-08,1,,,,,,0
1284,4310002005862,登記記録の閉鎖等,0,2023-10-06,2023-09-25,有限会社やまの一想庵,,有限会社,長崎県,長崎市,岩川町１２番５号,,42,201,8528106,,,2023-09-25,清算の結了等,,,2015-10-05,1,,,,,ヤマノイッソウアン,0
1314,4380001003373,登記記録の閉鎖等,0,2023-10-06,2023-10-02,株式会社Ｇｒａｎｔｉｃ,,株式会社,福島県,福島市,渡利字大久保７７番地の１,,07,201,9608141,,,2023-10-02,清算の結了等,,,2015-10-05,1,,,,,グランテック,0
1318,4410001012189,登記記録の閉鎖等,0,2023-10-06,2023-10-02,株式会社Ｌｏｃａｌ　Ｓｏｌｕｔｉｏｎ,,株式会社,秋田県,秋田市,八橋大畑２丁目３番１号ＷｈｉｔｅＣｕｂｅ１Ｆ,,05,201,0100962,,,2023-10-02,合併による解散等,6410001010298,令和５年１０月１日秋田市八橋大畑二丁目３番１号ＷｈｉｔｅＣｕｂｅ１Ｆ株式会社Ｌｏｃａｌ　Ｐｏｗｅｒ（6410001010298）に合併し解散,2019-05-20,1,,,,,ローカルソリューション,0
1319,4410001012321,登記記録の閉鎖等,0,2023-10-06,2023-09-29,株式会社Ｈ．Ｍ．Ａ．,,株式会社,秋田県,横手市,田中町４番２７号,,05,203,0130024,,,2023-09-29,清算の結了等,,,2019-11-05,1,,,,,エイチエムエー,0
1323,4430002051333,登記記録の閉鎖等,0,2023-10-06,2023-09-21,有限会社土田農場,,有限会社,北海道,夕張郡長沼町,東３線南２番地,,01,428,0691453,,,2023-09-21,清算の結了等,,,2015-10-05,1,,,,,ツチダノウジョウ,0
1350,5010401020277,登記記録の閉鎖等,0,2023-10-06,2023-10-02,東洋安全硝子株式会社,,株式会社,東京都,港区,芝３丁目１６番１２号,,13,103,1050014,,,2023-10-02,合併による解散等,4010401017068,令和５年１０月１日東京都港区芝三丁目１６番１２号ＡＧＣオートモーティブウィンドウシステムズ株式会社（4010401017068）に合併し解散,2015-10-05,1,,,,,トウヨウアンゼンガラス,0
1351,5010401052089,登記記録の閉鎖等,0,2023-10-06,2023-09-12,株式会社ウォータープランニングワークス,,株式会社,埼玉県,熊谷市,銀座２丁目１１８番地芙蓉ビル１Ｆ－Ａ,,11,202,3600032,,,2023-09-12,清算の結了等,,,2015-10-05,1,,,,,ウォータープランニングワークス,0
1361,5010502022016,登記記録の閉鎖等,0,2023-10-06,2023-10-03,有限会社クリエ,,有限会社,東京都,江東区,塩浜１丁目４番３３－３３１号,,13,108,1350043,,,2023-10-03,清算の結了等,,,2015-10-05,1,,,,,クリエ,0
1371,5010802011692,登記記録の閉鎖等,0,2023-10-06,2023-10-02,有限会社浜崎製作所,,有限会社,東京都,大田区,矢口２丁目２９番１号,,13,111,1460093,,,2023-10-02,清算の結了等,,,2015-10-05,1,,,,,ハマザキセイサクジョ,0
1392,5011103010129,登記記録の閉鎖等,0,2023-10-06,2023-10-03,合同会社ＥＳ４６,,合同会社,東京都,新宿区,下宮比町１番４号,,13,104,1620822,,,2023-10-03,清算の結了等,,,2020-10-21,1,,,,,イーエスヨンジュウロク,0
1436,5030001041382,登記記録の閉鎖等,0,2023-10-06,2023-09-11,サカガミ商事株式会社,,株式会社,埼玉県,上尾市,大字原市３３３５番地２,,11,219,3620021,,,2023-09-11,清算の結了等,,,2015-10-05,1,,,,,サカガミショウジ,0
1448,5030002095139,登記記録の閉鎖等,0,2023-10-06,2023-09-12,有限会社ノニ愛飲ネット,,有限会社,埼玉県,坂戸市,大字栄３２３番１フジビル２０１,,11,239,3500213,,,2023-09-12,清算の結了等,,,2015-10-05,1,,,,,,0
1449,5030003008520,登記記録の閉鎖等,0,2023-10-06,2023-09-12,ノニーズゲート合同会社,,合同会社,埼玉県,坂戸市,大字栄３２３番地１－１０５号,,11,239,3500213,,,2023-09-12,清算の結了等,,,2016-03-09,1,,,,,ノニーズゲート,0
1487,5120001045779,登記記録の閉鎖等,0,2023-10-06,2023-10-02,東和商事株式会社,,株式会社,大阪府,大阪市西区,土佐堀１丁目４番１１号,,27,106,5500001,,,2023-10-02,合併による解散等,8120001082365,令和５年１０月１日大阪市西区土佐堀一丁目４番１１号ダンヘルスケア株式会社（8120001082365）に合併し解散,2015-10-05,1,,,,,トウワショウジ,0
1488,5120001110896,登記記録の閉鎖等,0,2023-10-06,2023-10-02,株式会社ダイレクト,,株式会社,大阪府,大阪市中央区,安土町１丁目７番１３号トヤマビル,,27,128,5410052,,,2023-10-02,清算の結了等,,,2015-10-05,1,,,,,ダイレクト,0
1490,5120001164364,登記記録の閉鎖等,0,2023-10-06,2023-09-27,株式会社エムテック,,株式会社,大阪府,寝屋川市,国松町１９番９号,,27,215,5720016,,,2023-09-27,清算の結了等,,,2015-10-05,1,,,,,エムテック,0
1493,5120001243119,登記記録の閉鎖等,0,2023-10-06,2023-10-03,ＤＬＭ株式会社,,株式会社,大阪府,大阪市浪速区,敷津東１丁目６番２号,,27,111,5560012,,,2023-10-03,合併による解散等,4010501033799,令和５年９月１日東京都港区西新橋三丁目２４番９号コネクト株式会社（4010501033799）に合併し解散,2022-01-14,1,"DLM Co.,Ltd.",,,,ディエルエム,0
1520,5140001061279,登記記録の閉鎖等,0,2023-10-06,2023-10-02,株式会社福岡工務店,,株式会社,兵庫県,姫路市,福中町５番地,,28,201,6700017,,,2023-10-02,清算の結了等,,,2015-10-05,1,,,,,フクオカコウムテン,0
1521,5140001094493,登記記録の閉鎖等,0,2023-10-06,2023-10-02,株式会社ＦＡＣＴ,,株式会社,兵庫県,神戸市須磨区,飛松町１丁目１－１,,28,107,6540012,,,2023-10-02,清算の結了等,,,2015-10-05,1,,,,,,0
1522,5140001107379,登記記録の閉鎖等,0,2023-10-06,2023-10-03,株式会社アイケアラボ,,株式会社,兵庫県,三田市,富士が丘６丁目１７番地２,,28,219,6691547,,,2023-10-03,清算の結了等,,,2017-09-01,1,,,,,アイケアラボ,0
1526,5140002001102,登記記録の閉鎖等,0,2023-10-06,2023-10-02,株式会社Ｓ．Ｓ開発,,株式会社,兵庫県,神戸市中央区,布引町１丁目１番８号,,28,110,6510097,,,2023-10-02,合併による解散等,5140001031637,令和５年１０月１日神戸市中央区布引町一丁目１番８号株式会社アップス（5140001031637）に合併し解散,2015-10-05,1,,,,,エスエスカイハツ,0
1547,5180302012068,登記記録の閉鎖等,0,2023-10-06,2023-09-28,有限会社フジショウコーポレーション,,有限会社,愛知県,豊橋市,小池町字西海戸１７番地の３,,23,201,4418042,,,2023-09-28,清算の結了等,,,2015-10-05,1,,,,,フジショウコーポレーション,0
1553,5200002012869,登記記録の閉鎖等,0,2023-10-06,2023-10-02,田辺鉄工株式会社,,株式会社,岐阜県,大垣市,静里町７７０番地１,,21,202,5030983,,,2023-10-02,清算の結了等,,,2015-10-05,1,,,,,タナベテッコウ,0
1559,5240001038449,登記記録の閉鎖等,0,2023-10-06,2023-09-19,備後イ草染土販売株式会社,,株式会社,広島県,尾道市,美ノ郷町三成字新沖田２１１番地の７,,34,205,7220215,,,2023-09-19,合併による解散等,4240001038301,令和５年９月１６日広島県尾道市美ノ郷町三成字新沖田２１１番地の７中国ペイント株式会社（4240001038301）に合併し解散,2015-10-05,1,,,,,ビンゴイグサセンドハンバイ,0
1564,5240002049379,登記記録の閉鎖等,0,2023-10-06,2023-10-02,有限会社岩本組,,有限会社,広島県,竹原市,田ノ浦２丁目１番１０号,,34,203,7250023,,,2023-10-02,清算の結了等,,,2015-10-05,1,,,,,イワモトグミ,0
1598,5400003002428,登記記録の閉鎖等,0,2023-10-06,2023-09-27,合同会社丸坂いさごだ,,合同会社,岩手県,盛岡市,三本柳１０地割２２番地４,,03,201,0200831,,,2023-09-27,清算の結了等,,,2019-01-30,1,,,,,マルサカイサゴダ,0
1599,5420002003061,登記記録の閉鎖等,0,2023-10-06,2023-10-02,有限会社ヤマタケ商事,,有限会社,青森県,青森市,富田３丁目１８番８号,,02,201,0380004,,,2023-10-02,清算の結了等,,,2015-10-05,1,,,,,ヤマタケショウジ,0
1603,5430005012182,登記記録の閉鎖等,0,2023-10-06,2023-09-21,ＮＰＯ法人オアシスＨＯＫＫＡＩＤＯ,,その他の設立登記法人,北海道,札幌市中央区,南三条西２５丁目１－２９,,01,101,0640803,,,2023-09-21,清算の結了等,,,2015-10-05,1,,,,,オアシスホッカイドウ,0
1605,5460102002356,登記記録の閉鎖等,0,2023-10-06,2023-10-02,有限会社道東保温,,有限会社,北海道,河東郡音更町,南鈴蘭南１丁目６番地６,,01,631,0800312,,,2023-10-02,清算の結了等,,,2015-10-05,1,,,,,ドウトウホオン,0
1622,6010003034170,登記記録の閉鎖等,0,2023-10-06,2023-09-28,北畠インベストメント合同会社,,合同会社,東京都,千代田区,丸の内３丁目１番１号東京共同会計事務所内,,13,101,1000005,,,2023-09-28,清算の結了等,,,2021-02-15,1,,,,,キタバタケインベストメント,0
1631,6010401123467,登記記録の閉鎖等,0,2023-10-06,2023-10-02,株式会社パワープレイパブリッシング,,株式会社,大阪府,大阪市天王寺区,烏ケ辻２丁目１２番６－６０４号,00131679,27,109,5430042,,,2023-10-02,清算の結了等,,,2016-03-09,1,,,,,パワープレイパブリッシング,0
1632,6010401135751,登記記録の閉鎖等,0,2023-10-06,2023-10-02,ＨＡＰＳモバイル株式会社,,株式会社,東京都,港区,海岸１丁目７番１号,,13,103,1050022,,,2023-10-02,合併による解散等,9010401052465,令和５年１０月１日東京都港区海岸一丁目７番１号ソフトバンク株式会社（9010401052465）に合併し解散,2017-12-27,1,,,,,ハップスモバイル,0
1653,6010701042805,登記記録の閉鎖等,0,2023-10-06,2023-10-02,株式会社東京カンテイビジネスサービス,,株式会社,東京都,品川区,上大崎３丁目８番３号,,13,109,1410021,,,2023-10-02,合併による解散等,4010701006464,令和５年１０月１日東京都品川区上大崎三丁目８番３号株式会社東京カンテイ（4010701006464）に合併し解散,2022-06-14,1,,,,,トウキョウカンテイビジネスサービス,0
1658,6010901026211,登記記録の閉鎖等,0,2023-10-06,2023-09-28,株式会社ウェブビズ,,株式会社,東京都,世田谷区,梅丘１丁目１９番１０号,,13,112,1540022,,,2023-09-28,清算の結了等,,,2015-10-05,1,,,,,ウェブビズ,0
1692,6011702011105,登記記録の閉鎖等,0,2023-10-06,2023-10-03,有限会社丸山自動車,,有限会社,東京都,江戸川区,南小岩７丁目３１番３号,,13,123,1330056,,,2023-10-03,清算の結了等,,,2015-10-05,1,,,,,マルヤマジドウシャ,0
1706,6020001078821,登記記録の閉鎖等,0,2023-10-06,2023-10-02,株式会社エイブル,,株式会社,神奈川県,横浜市旭区,左近山４４８番地の３左近山団地９街区７棟４０４号,,14,112,2410831,,,2023-10-02,清算の結了等,,,2015-10-05,1,,,,,エイブル,0
1742,6040005010646,登記記録の閉鎖等,0,2023-10-06,2023-09-20,医療法人社団日向台クリニック,,その他の設立登記法人,千葉県,山武市,椎崎１３５４番地２,,12,237,2891205,,,2023-09-20,清算の結了等,,,2015-10-05,1,,,,,ヒュウガダイクリニック,0
1748,6050002006167,登記記録の閉鎖等,0,2023-10-06,2023-10-02,有限会社ユニオン測技,,有限会社,茨城県,水戸市,城東５丁目５番１９号,,08,201,3100012,,,2023-10-02,清算の結了等,,,2015-10-05,1,,,,,ユニオンソクギ,0
1761,6080401025962,登記記録の閉鎖等,0,2023-10-06,2023-10-03,株式会社ワークナビ浜松,,株式会社,静岡県,浜松市中区,早馬町３番地５早馬町冨士物産ビル,,22,131,4300916,,,2023-10-03,合併による解散等,9180001156567,令和５年１０月１日名古屋市中区栄四丁目１６番３３号日本経済新聞社名古屋支社ビル５階株式会社ワークナビ派遣（9180001156567）に合併し解散,2022-07-20,1,,,,,ワークナビハママツ,0
1763,6090001009811,登記記録の閉鎖等,0,2023-10-06,2023-10-02,株式会社スエヒロ観光,,株式会社,山梨県,南都留郡忍野村,内野１９９番地の１７,,19,424,4010512,,,2023-10-02,清算の結了等,,,2015-10-05,1,,,,,スエヒロカンコウ,0
1764,6100002008843,登記記録の閉鎖等,0,2023-10-06,2023-09-28,有限会社丸田牛肉本店,,有限会社,長野県,須坂市,大字須坂９４番地,,20,207,3820000,,,2023-09-28,清算の結了等,,,2015-10-05,1,,,,,マルタギュウニクホンテン,0
1765,6100002032018,登記記録の閉鎖等,0,2023-10-06,2023-09-28,ヤシロ精機有限会社,,有限会社,長野県,岡谷市,堀ノ内１丁目１５番５号,,20,204,3940024,,,2023-09-28,清算の結了等,,,2015-10-05,1,,,,,ヤシロセイキ,0
1774,6110005003188,登記記録の閉鎖等,0,2023-10-06,2023-10-02,公益財団法人環日本海経済研究所,,その他の設立登記法人,新潟県,新潟市中央区,万代島５番１号,,15,103,9500078,,,2023-10-02,清算の結了等,,,2015-10-05,1,,,,,カンニホンカイケイザイケンキュウジョ,0
1785,6120002038351,登記記録の閉鎖等,0,2023-10-06,2023-09-28,有限会社ブライダルジョイ,,有限会社,大阪府,大阪市中央区,内本町１丁目４番９－５０６号,,27,128,5400026,,,2023-09-28,清算の結了等,,,2015-10-05,1,,,,,,0
1803,6130001067292,登記記録の閉鎖等,0,2023-10-06,2023-09-21,株式会社龍商店,,株式会社,京都府,宇治市,宇治東内５番地,,26,204,6110021,,,2023-09-21,清算の結了等,,,2020-07-17,1,,,,,タツショウテン,0
1811,6140001064289,登記記録の閉鎖等,0,2023-10-06,2023-10-02,粟賀神姫タクシー株式会社,,株式会社,兵庫県,神崎郡神河町,中村３９番地の１,,28,446,6792413,,,2023-10-02,合併による解散等,8140001059270,令和５年１０月１日兵庫県宍粟市山崎町山田８０番地２株式会社ウイング神姫（8140001059270）に合併し解散,2015-10-05,1,,,,,アワガシンキタクシー,0
1825,6180001044469,登記記録の閉鎖等,0,2023-10-06,2023-10-02,株式会社電脳販売,,株式会社,愛知県,名古屋市熱田区,神宮３丁目７番１号,,23,109,4560031,,,2023-10-02,合併による解散等,7180001021582,令和５年１０月１日名古屋市熱田区神宮三丁目７番１号株式会社エイチ・オー・エス（7180001021582）に合併し解散,2015-10-05,1,,,,,デンノウハンバイ,0
1828,6180001084655,登記記録の閉鎖等,0,2023-10-06,2023-10-02,東陽ホーム株式会社,,株式会社,愛知県,一宮市,森本２丁目２番１２号,,23,203,4910831,,,2023-10-02,清算の結了等,,,2015-10-05,1,,,,,トウヨウホーム,0
1835,6180002019016,登記記録の閉鎖等,0,2023-10-06,2023-10-02,有限会社ノブオ,,有限会社,愛知県,名古屋市中川区,中郷４丁目１９４番地,,23,110,4540921,,,2023-10-02,清算の結了等,,,2015-10-05,1,,,,,ノブオ,0
1841,6190001008068,登記記録の閉鎖等,0,2023-10-06,2023-10-02,日本アシスト株式会社,,株式会社,三重県,志摩市,阿児町鵜方１２２６番地８,,24,215,5170501,,,2023-10-02,清算の結了等,,,2015-10-05,1,,,,,ニホンアシスト,0
1849,6200001014782,登記記録の閉鎖等,0,2023-10-06,2023-10-03,株式会社こまつや,,株式会社,岐阜県,不破郡垂井町,１８０４番地の１,,21,361,5032121,,,2023-10-03,清算の結了等,,,2015-10-05,1,,,,,コマツヤ,0
1852,6200001025879,登記記録の閉鎖等,0,2023-10-06,2023-10-03,飛騨塗装株式会社,00076746,株式会社,岐阜県,下呂市,瀬戸４２６番地,,21,220,5092136,,,2023-10-03,清算の結了等,,,2015-10-05,1,,,,,ヒダトソウ,0
1894,6330002004910,登記記録の閉鎖等,0,2023-10-06,2023-09-29,有限会社新装工業,,有限会社,熊本県,熊本市中央区,黒髪５丁目３７番１２号,,43,101,8600862,,,2023-09-29,清算の結了等,,,2015-10-05,1,,,,,シンソウコウギョウ,0
1905,6380001003883,登記記録の閉鎖等,0,2023-10-06,2023-09-27,株式会社エフ・エム・ケー,,株式会社,福島県,伊達郡川俣町,飯坂字下中居８番地の１,,07,308,9601401,,,2023-09-27,清算の結了等,,,2015-10-05,1,,,,,エフエムケー,0
1920,6430001017069,登記記録の閉鎖等,0,2023-10-06,2023-09-25,株式会社森設備,,株式会社,北海道,札幌市中央区,南十五条西１６丁目１番４０号,,01,101,0640915,,,2023-09-25,清算の結了等,,,2015-10-05,1,,,,,モリセツビ,0
1926,6430002051918,登記記録の閉鎖等,0,2023-10-06,2023-09-21,有限会社押切理容院,,有限会社,北海道,芦別市,上芦別町９４番地の３０３,00089569,01,216,0791371,,,2023-09-21,清算の結了等,,,2015-10-05,1,,,,,,0
1927,6440002002077,登記記録の閉鎖等,0,2023-10-06,2023-10-04,柴田商事有限会社,,有限会社,北海道,函館市,宝来町２３番１号,,01,202,0400043,,,2023-10-04,清算の結了等,,,2015-10-05,1,,,,,シバタショウジ,0
1931,6470005005116,登記記録の閉鎖等,0,2023-10-06,2023-09-29,特定非営利活動法人粟井あじさいアグリ,,その他の設立登記法人,香川県,観音寺市,粟井町１５５３番地２,,37,205,7680052,,,2023-09-29,清算の結了等,,,2015-10-05,1,,,,,アワイアジサイアグリ,0
1933,6500001015528,登記記録の閉鎖等,0,2023-10-06,2023-10-03,株式会社マルキ,,株式会社,愛媛県,宇和島市,恵美須町２丁目３番３６号,,38,203,7980032,,,2023-10-03,清算の結了等,,,2015-10-05,1,,,,,マルキ,0
1941,7010001163648,登記記録の閉鎖等,0,2023-10-06,2023-09-28,株式会社ハルリ,,株式会社,東京都,文京区,小石川５丁目３０番１６号,,13,105,1120002,,,2023-09-28,清算の結了等,,,2015-10-05,1,,,,,ハルリ,0
1947,7010005014566,登記記録の閉鎖等,0,2023-10-06,2023-09-14,一般財団法人武田計測先端知財団,,その他の設立登記法人,東京都,文京区,弥生２丁目１１番１６号東京大学武田先端知ビル,,13,105,1130032,,,2023-09-14,清算の結了等,,,2015-10-05,1,,,,,タケダケイソクセンタンチザイダン,0
1952,7010005034903,登記記録の閉鎖等,0,2023-10-06,2023-10-02,岡山早島デベロップメント特定目的会社,,その他の設立登記法人,東京都,中央区,日本橋１丁目４番１号日本橋一丁目ビルディング,,13,102,1030027,,,2023-10-02,清算の結了等,,,2022-04-19,1,,,,,オカヤマハヤシマデベロップメント,0
1983,7011203002619,登記記録の閉鎖等,0,2023-10-06,2023-10-04,ディーアウトボックス合同会社,,合同会社,東京都,中野区,上鷺宮３丁目７番２７号,,13,114,1650031,,,2023-10-04,清算の結了等,,,2017-09-01,1,,,,,ディーアウトボックス,0
2007,7020001055076,登記記録の閉鎖等,0,2023-10-06,2023-09-28,株式会社マーキュリー企画,,株式会社,神奈川県,横浜市神奈川区,鶴屋町２丁目９番地１６,,14,102,2210835,,,2023-09-28,清算の結了等,,,2015-10-05,1,,,,,マーキュリーキカク,0
2024,7030001056965,登記記録の閉鎖等,0,2023-10-06,2023-09-12,株式会社ヴィジィ,,株式会社,埼玉県,川越市,岸町１丁目２７番地５２,,11,201,3501131,,,2023-09-12,清算の結了等,,,2015-10-05,1,,,,,ヴィジィ,0
2043,7030002095368,登記記録の閉鎖等,0,2023-10-06,2023-09-12,有限会社ＳＳＡ,,有限会社,埼玉県,比企郡鳩山町,大字赤沼２３５３番地３,,11,348,3500321,,,2023-09-12,清算の結了等,,,2015-10-05,1,,,,,,0
2064,7050002042327,登記記録の閉鎖等,0,2023-10-06,2023-10-03,有限会社中丸商会,,有限会社,茨城県,筑西市,甲８５２番地の１,,08,227,3080021,,,2023-10-03,清算の結了等,,,2015-10-05,1,,,,,,0
2066,7060001006678,登記記録の閉鎖等,0,2023-10-06,2023-09-28,株式会社ベンチャーフードスクール,,株式会社,栃木県,宇都宮市,鶴田町３３９９番地,,09,201,3200851,,,2023-09-28,清算の結了等,,,2015-10-05,1,,,,,ベンチャーフードスクール,0
2083,7080402014451,登記記録の閉鎖等,0,2023-10-06,2023-10-02,有限会社Ｋ’Ｓビルド,,有限会社,静岡県,浜松市東区,豊町５７１番地,,22,132,4313101,,,2023-10-02,清算の結了等,,,2015-10-05,1,,,,,ケーズビルド,0
2087,7100002030945,登記記録の閉鎖等,0,2023-10-06,2023-09-27,有限会社ウエハラ塗装,,有限会社,長野県,岡谷市,神明町２丁目９番１０号,,20,204,3940004,,,2023-09-27,清算の結了等,,,2015-10-05,1,,,,,ウエハラトソウ,0
2088,7110002019005,登記記録の閉鎖等,0,2023-10-06,2023-10-02,有限会社岡本鉄工所,,有限会社,新潟県,燕市,東太田６８７０番地４,,15,213,9591289,,,2023-10-02,清算の結了等,,,2015-10-05,1,,,,,オカモトテッコウショ,0
2091,7120001015359,登記記録の閉鎖等,0,2023-10-06,2023-10-02,株式会社宝島,,株式会社,大阪府,大阪市城東区,今福東１丁目４番１９号,,27,118,5360002,,,2023-10-02,合併による解散等,1120001163741,令和５年１０月１日大阪市城東区今福東一丁目４番１９号紀南古座株式会社（1120001163741）に合併し解散,2015-10-05,1,,,,,ホウジマ,0
2093,7120001084676,登記記録の閉鎖等,0,2023-10-06,2023-09-27,株式会社ツルヤ,,株式会社,大阪府,大阪市中央区,心斎橋筋２丁目１番２０号,,27,128,5420085,,,2023-09-27,清算の結了等,,,2023-03-16,1,,,,,ツルヤ,0
2096,7120001215256,登記記録の閉鎖等,0,2023-10-06,2023-10-05,株式会社ＰＣマイスターズ,,株式会社,東京都,台東区,東上野１丁目２１番６号,,13,106,1100015,,,2023-10-05,清算の結了等,,,2018-08-09,1,,,,,ピーシーマイスターズ,0
2097,7120001232838,登記記録の閉鎖等,0,2023-10-06,2023-09-27,ＤＯＮＧＳＨＩＪＩＥｕｎｉｏｎ株式会社,,株式会社,大阪府,大阪市浪速区,芦原１丁目１番７－１０１号室,,27,111,5560029,,,2023-09-27,清算の結了等,,,2020-11-09,1,,,,,ドンシジュウニオン,0
2115,7120901007133,登記記録の閉鎖等,0,2023-10-06,2023-09-28,株式会社創作や,,株式会社,大阪府,吹田市,豊津町２番１号第２中田ビル,,27,205,5640051,,,2023-09-28,清算の結了等,,,2015-10-05,1,,,,,ソウサクヤ,0
2120,7122001029719,登記記録の閉鎖等,0,2023-10-06,2023-10-02,株式会社拓工業,,株式会社,大阪府,東大阪市,加納３丁目１番地１,,27,227,5780901,,,2023-10-02,清算の結了等,,,2016-06-23,1,,,,,タクコウギョウ,0
2125,7130001056864,登記記録の閉鎖等,0,2023-10-06,2023-09-27,株式会社恵,,株式会社,京都府,京都市伏見区,横大路貴船２６番地２,,26,109,6128297,,,2023-09-27,清算の結了等,,,2016-02-16,1,,,,,メグミ,0
2135,7140001113458,登記記録の閉鎖等,0,2023-10-06,2023-10-02,山崎興業株式会社,00116389,株式会社,兵庫県,姫路市,花田町高木５５８番地７,,28,201,6710256,,,2023-10-02,清算の結了等,,,2019-04-23,1,,,,,ヤマサキコウギョウ,0
2142,7160001006791,登記記録の閉鎖等,0,2023-10-06,2023-10-02,株式会社高山燃料,00109230,株式会社,滋賀県,長浜市,宮司町３９９番地,,25,203,5260831,,,2023-10-02,合併による解散等,9030001003544,令和５年９月１日埼玉県さいたま市大宮区桜木町一丁目１１番地５株式会社サイサン（9030001003544）に合併し解散,2015-10-05,1,,,,,タカヤマネンリョウ,0
2147,7180001059020,登記記録の閉鎖等,0,2023-10-06,2023-10-02,加藤商品株式会社,,株式会社,愛知県,名古屋市東区,相生町２７番地の１,,23,102,4610012,,,2023-10-02,合併による解散等,5180001115015,令和５年１０月１日名古屋市東区相生町２７番地１オトワ株式会社（5180001115015）に合併し解散,2015-10-05,1,,,,,カトウショウヒン,0
2161,7190003003446,登記記録の閉鎖等,0,2023-10-06,2023-09-29,合同会社Ｂｒｕｔａｌ　Ｐｒｏｄｕｃｔｉｏｎ,,合同会社,三重県,亀山市,川合町１２１３番地３５,,24,210,5190103,,,2023-09-29,清算の結了等,,,2020-08-06,1,,,,,ブルータルプロダクション,0
2176,7240001029173,登記記録の閉鎖等,0,2023-10-06,2023-10-02,株式会社キャノンファーム,,株式会社,広島県,東広島市,黒瀬町南方字下条１５８０番地１,,34,212,7392503,,,2023-10-02,合併による解散等,7240001027648,令和５年１０月１日広島県呉市倉橋町９６９４番地の７株式会社出来商店（7240001027648）に合併し解散,2015-10-05,1,,,,,キャノンファーム,0
2181,7260002004066,登記記録の閉鎖等,0,2023-10-06,2023-10-04,有限会社三陽損保,,有限会社,岡山県,岡山市中区,湊１５０番地９,,33,102,7038266,,,2023-10-04,清算の結了等,,,2015-10-05,1,,,,,サンヨウソンポ,0
2182,7270002004420,登記記録の閉鎖等,0,2023-10-06,2023-10-03,有限会社岡嶋工務店,,有限会社,鳥取県,八頭郡八頭町,船岡１３２６番地,,31,329,6800471,,,2023-10-03,清算の結了等,,,2015-10-05,1,,,,,オカジマコウムテン,0
2183,7270005005548,登記記録の閉鎖等,0,2023-10-06,2023-10-04,農事組合法人牛伏開発組合,,その他の設立登記法人,鳥取県,八頭郡智頭町,大字智頭３６４番地,,31,328,6891402,,,2023-10-04,清算の結了等,,,2023-03-31,1,,,,,ウシフセカイハツクミアイ,0
2184,7280002008370,登記記録の閉鎖等,0,2023-10-06,2023-10-02,有限会社俵大正堂薬局,,有限会社,島根県,浜田市,相生町３９７１番地１,,32,202,6970034,,,2023-10-02,清算の結了等,,,2015-10-05,1,,,,,タワラタイショウドウヤッキョク,0
2194,7290802011944,登記記録の閉鎖等,0,2023-10-06,2023-10-04,有限会社辰巳冷機,,有限会社,福岡県,北九州市門司区,上藤松３丁目６番２８号,,40,101,8000044,,,2023-10-04,清算の結了等,,,2015-10-05,1,,,,,タツミレイキ,0
2205,7340002008240,登記記録の閉鎖等,0,2023-10-06,2023-10-04,有限会社ふくもと,,有限会社,鹿児島県,鹿児島市,下伊敷１丁目５４番１号,,46,201,8900005,,,2023-10-04,清算の結了等,,,2015-10-05,1,,,,,フクモト,0
2212,7380002015860,登記記録の閉鎖等,0,2023-10-06,2023-10-02,有限会社アイカム,,有限会社,福島県,郡山市,緑ケ丘東４丁目２４番地の１２,,07,203,9630702,,,2023-10-02,清算の結了等,,,2015-10-05,1,,,,,アイカム,0
2215,7420001016021,登記記録の閉鎖等,0,2023-10-06,2023-10-02,株式会社小山内工務店,,株式会社,青森県,北津軽郡中泊町,大字尾別字浅井１９７番地１５,,02,387,0370304,,,2023-10-02,清算の結了等,,,2018-01-12,1,,,,,オサナイコウムテン,0
2223,7430002047238,登記記録の閉鎖等,0,2023-10-06,2023-09-22,有限会社今井測量設計,,有限会社,北海道,千歳市,清水町３丁目１６番地,,01,224,0660041,,,2023-09-22,清算の結了等,,,2015-10-05,1,,,,,イマイソクリョウセッケイ,0
2224,7430002049399,登記記録の閉鎖等,0,2023-10-06,2023-09-20,有限会社武長,,有限会社,北海道,岩見沢市,三条西１３丁目３番地２,,01,210,0680023,,,2023-09-20,清算の結了等,,,2015-10-05,1,,,,,タケチョウ,0
2230,7470002005349,登記記録の閉鎖等,0,2023-10-06,2023-10-04,有限会社ノジマ,,有限会社,香川県,高松市,一宮町１５３４番地８,,37,201,7618084,,,2023-10-04,清算の結了等,,,2015-10-05,1,,,,,ノジマ,0
2233,7470003001462,登記記録の閉鎖等,0,2023-10-06,2023-10-02,合資会社紅工業,,合資会社,香川県,高松市,国分寺町新居４２１番地８,,37,201,7690101,,,2023-10-02,清算の結了等,,,2018-09-18,1,,,,,クレナイコウギョウ,0
2238,7500002009965,登記記録の閉鎖等,0,2023-10-06,2023-10-05,有限会社せきしん,,有限会社,愛媛県,松山市,来住町１４５８番地４,,38,201,7911102,,,2023-10-05,清算の結了等,,,2015-10-05,1,,,,,セキシン,0
2251,8010001124095,登記記録の閉鎖等,0,2023-10-06,2023-10-04,株式会社ディ・アル・ケイ・ネット,,株式会社,静岡県,熱海市,泉１１１番９号,,22,205,4130001,,,2023-10-04,清算の結了等,,,2015-10-05,1,,,,,ディアルケイネット,0
2257,8010001199385,登記記録の閉鎖等,0,2023-10-06,2023-10-02,Ｚ　Ｅｎｔｅｒｔａｉｎｍｅｎｔ株式会社,,株式会社,東京都,千代田区,紀尾井町１番３号,,13,101,1020094,,,2023-10-02,合併による解散等,4010401039979,令和５年１０月１日東京都千代田区紀尾井町１番３号ＬＩＮＥヤフー株式会社（4010401039979）に合併し解散,2019-03-19,1,,,,,,0
2262,8010003036883,登記記録の閉鎖等,0,2023-10-06,2023-09-28,合同会社尾張２,,合同会社,東京都,中央区,日本橋１丁目４番１号日本橋一丁目ビルディング,,13,102,1030027,,,2023-09-28,清算の結了等,,,2022-02-01,1,,,,,オワリニ,0
2266,8010005033796,登記記録の閉鎖等,0,2023-10-06,2023-10-03,アスタービッド一般社団法人,,その他の設立登記法人,東京都,千代田区,丸の内３丁目１番１号東京共同会計事務所内,,13,101,1000005,,,2023-10-03,清算の結了等,,,2021-08-10,1,,,,,アスタービッド,0
2273,8010501043027,登記記録の閉鎖等,0,2023-10-06,2023-10-03,株式会社ニューブリリア,,株式会社,東京都,台東区,浅草橋１丁目２５番６号,,13,106,1110053,,,2023-10-03,清算の結了等,,,2018-09-04,1,,,,,ニューブリリア,0
2293,8011001113344,登記記録の閉鎖等,0,2023-10-06,2023-09-28,株式会社ＮＡＤｓ,,株式会社,東京都,世田谷区,奥沢２丁目３１番３号フォレＡ棟,,13,112,1580083,,,2023-09-28,清算の結了等,,,2016-10-27,1,,,,,ナッズ,0
2306,8011101086432,登記記録の閉鎖等,0,2023-10-06,2023-10-02,株式会社ＮＬＮ福祉サービス,,株式会社,東京都,品川区,東品川１丁目３番１０号,,13,109,1400002,,,2023-10-02,合併による解散等,2122001017182,令和５年１０月１日東京都品川区東品川一丁目３番１０号アートチャイルドケア株式会社（2122001017182）に合併し解散,2019-01-04,1,,,,,エヌエルエヌフクシサービス,0
2321,8011605001242,登記記録の閉鎖等,0,2023-10-06,2023-10-02,特定非営利活動法人日本ライフアシスト協会,,その他の設立登記法人,東京都,練馬区,南田中３丁目２６番３号,,13,120,1770035,,,2023-10-02,清算の結了等,,,2015-10-05,1,,,,,ニホンライフアシストキョウカイ,0
2337,8013202006418,登記記録の閉鎖等,0,2023-10-06,2023-10-02,有限会社メディカルリサーチ,,有限会社,東京都,目黒区,中根１丁目２２番３号,,13,110,1520031,,,2023-10-02,清算の結了等,,,2015-10-05,1,,,,,メディカルリサーチ,0
2338,8013301005007,登記記録の閉鎖等,0,2023-10-06,2023-10-02,株式会社佐竹信一商店,,株式会社,東京都,豊島区,東池袋５丁目３９番１５号,,13,116,1700013,,,2023-10-02,清算の結了等,,,2015-10-05,1,,,,,サタケシンイチショウテン,0
2344,8020001125340,登記記録の閉鎖等,0,2023-10-06,2023-09-27,株式会社イーストポイント,,株式会社,神奈川県,横浜市都筑区,南山田２丁目１番３－１２０６号,,14,118,2240029,,,2023-09-27,清算の結了等,,,2018-03-06,1,,,,,イーストポイント,0
2401,8110002032997,登記記録の閉鎖等,0,2023-10-06,2023-10-03,有限会社関組,,有限会社,新潟県,南魚沼市,岡６１４番地１,,15,226,9497122,,,2023-10-03,清算の結了等,,,2015-10-05,1,,,,,セキグミ,0
2407,8120001119035,登記記録の閉鎖等,0,2023-10-06,2023-10-02,エイト恒産株式会社,,株式会社,大阪府,大阪市北区,梅田３丁目４番５号毎日新聞ビル,,27,127,5300001,,,2023-10-02,合併による解散等,4120001077583,令和５年１０月１日大阪市北区梅田三丁目４番５号毎日新聞ビル山本地所株式会社（4120001077583）に合併し解散,2015-10-05,1,,,,,エイトコウサン,0
2408,8120001140206,登記記録の閉鎖等,0,2023-10-06,2023-09-28,株式会社ウィントップ,,株式会社,大阪府,大阪市淀川区,加島４丁目１３番７号,,27,123,5320031,,,2023-09-28,清算の結了等,,,2015-10-05,1,,,,,,0
2409,8120001158306,登記記録の閉鎖等,0,2023-10-06,2023-09-28,弥生建設株式会社,,株式会社,大阪府,門真市,元町３番１３号,,27,223,5710057,,,2023-09-28,清算の結了等,,,2015-10-05,1,,,,,,0
2422,8120002075104,登記記録の閉鎖等,0,2023-10-06,2023-09-28,有限会社マチノ鋼管商会,,有限会社,大阪府,枚方市,香里園町１２番８２号,,27,210,5730086,,,2023-09-28,清算の結了等,,,2015-10-05,1,,,,,マチノコウカンショウカイ,0
2428,8120101034002,登記記録の閉鎖等,0,2023-10-06,2023-10-04,株式会社芙蓉,,株式会社,大阪府,河内長野市,荘園町２６番６号,,27,216,5860093,,,2023-10-04,清算の結了等,,,2015-10-05,1,,,,,フヨウ,0
2434,8122001016476,登記記録の閉鎖等,0,2023-10-06,2023-10-02,株式会社全設計事務所,,株式会社,大阪府,四條畷市,岡山２丁目１番３２号,,27,229,5750002,,,2023-10-02,清算の結了等,,,2015-10-05,1,,,,,ゼンセッケイジムショ,0
2454,8160001016162,登記記録の閉鎖等,0,2023-10-06,2023-10-04,株式会社トップアートメタリコン,,株式会社,滋賀県,草津市,西渋川１丁目１番２６－５１６号,,25,206,5250025,,,2023-10-04,清算の結了等,,,2015-10-05,1,,,,,トップアートメタリコン,0
2459,8170002005469,登記記録の閉鎖等,0,2023-10-06,2023-10-05,有限会社イケガミ,,有限会社,和歌山県,和歌山市,弘西２６３番地,,30,201,6496339,,,2023-10-05,清算の結了等,,,2015-10-05,1,,,,,イケガミ,0
2474,8200001023897,登記記録の閉鎖等,0,2023-10-06,2023-10-02,安保建設株式会社,,株式会社,岐阜県,中津川市,福岡１０８１番地１２,,21,206,5080203,,,2023-10-02,合併による解散等,7200001023873,令和５年１０月１日岐阜県中津川市加子母１００５番地株式会社中島工務店（7200001023873）に合併し解散,2015-10-05,1,,,,,アボケンセツ,0
2479,8200002025959,登記記録の閉鎖等,0,2023-10-06,2023-10-02,松下通商有限会社,,有限会社,岐阜県,高山市,桐生町２丁目３１９番地,,21,203,5060004,,,2023-10-02,清算の結了等,,,2015-10-05,1,,,,,マツシタツウショウ,0
2480,8200003004631,登記記録の閉鎖等,0,2023-10-06,2023-10-02,プリクションａｌｐｈａ合同会社,,合同会社,岐阜県,可児市,塩６５９番地１０,,21,214,5090251,,,2023-10-02,合併による解散等,7200003003782,令和５年１０月１日岐阜県羽島郡岐南町三宅三丁目１９４プリクション合同会社（7200003003782）に合併し解散,2019-11-14,1,,,,,プリクションアルファ,0
2499,8270001004643,登記記録の閉鎖等,0,2023-10-06,2023-10-03,株式会社カツキ,,株式会社,鳥取県,境港市,竹内団地１１７番地,,31,204,6840046,,,2023-10-03,清算の結了等,,,2015-10-05,1,,,,,カツキ,0
2518,8310002019628,登記記録の閉鎖等,0,2023-10-06,2023-10-05,有限会社椿山商運,,有限会社,長崎県,松浦市,御厨町里免３８２番地の２,,42,208,8594752,,,2023-10-05,清算の結了等,,,2015-10-05,1,,,,,,0
2525,8340001016549,登記記録の閉鎖等,0,2023-10-06,2023-10-02,株式会社志布志メガソーラー発電,,株式会社,鹿児島県,鹿児島市,鴨池新町１番１号,,46,201,8900064,,,2023-10-02,合併による解散等,4340001017633,令和５年１０月１日鹿児島市鴨池新町１番１号株式会社鹿児島ソーラーファーム（4340001017633）に合併し解散,2015-10-05,1,,,,,シブシメガソーラーハツデン,0
2551,8430002051271,登記記録の閉鎖等,0,2023-10-06,2023-09-25,有限会社木村商会,,有限会社,北海道,夕張郡長沼町,あかね２丁目１４番１０号,,01,428,0691335,,,2023-09-25,清算の結了等,,,2015-10-05,1,,,,,,0
2553,8440001007752,登記記録の閉鎖等,0,2023-10-06,2023-10-02,株式会社カギジュウ,,株式会社,北海道,茅部郡森町,字砂原５丁目６６番地１,,01,345,0492222,,,2023-10-02,清算の結了等,,,2015-10-05,1,,,,,カギジュウ,0
2586,9010102001688,登記記録の閉鎖等,0,2023-10-06,2023-10-02,有限会社皆誠,,有限会社,東京都,八王子市,大楽寺町２１３番地の１６,,13,201,1930816,,,2023-10-02,清算の結了等,,,2015-10-05,1,,,,,カイセイ,0
2633,9011101095333,登記記録の閉鎖等,0,2023-10-06,2023-10-04,株式会社ｌｉｌ,,株式会社,東京都,新宿区,下落合３丁目１５番２３号,,13,104,1610033,,,2023-10-04,清算の結了等,,,2021-06-09,1,,,,,リル,0
2653,9012301006410,登記記録の閉鎖等,0,2023-10-06,2023-10-02,伸永サービス株式会社,,株式会社,東京都,町田市,中町４丁目１３番１９号,,13,209,1940021,,,2023-10-02,清算の結了等,,,2015-10-05,1,,,,,シンエイサービス,0
2663,9020001001549,登記記録の閉鎖等,0,2023-10-06,2023-09-28,冨田手芸株式会社,,株式会社,神奈川県,横浜市瀬谷区,卸本町９２７９番地の４０,,14,114,2460001,,,2023-09-28,清算の結了等,,,2015-10-05,1,,,,,トミタシュゲイ,0
2673,9020002048738,登記記録の閉鎖等,0,2023-10-06,2023-09-28,有限会社えぶりぼでえアンドかぶらぎ,,有限会社,神奈川県,横浜市神奈川区,富家町１番地の１３スカイハイツトーカイ２５０７号室,,14,102,2210821,,,2023-09-28,清算の結了等,,,2015-10-05,1,,,,,エブリボデエアンドカブラギ,0
2690,9030002061269,登記記録の閉鎖等,0,2023-10-06,2023-09-01,有限会社サカエ薬局,,有限会社,埼玉県,新座市,野火止１丁目１４番１０号,,11,230,3520011,,,2023-09-01,清算の結了等,,,2015-10-05,1,,,,,サカエヤッキョク,0
2708,9060002010628,登記記録の閉鎖等,0,2023-10-06,2023-09-29,有限会社イー・デザイン,,有限会社,栃木県,宇都宮市,下砥上町１３８番地１４,,09,201,3200852,,,2023-09-29,清算の結了等,,,2015-10-05,1,,,,,イーデザイン,0
2715,9080102013545,登記記録の閉鎖等,0,2023-10-06,2023-10-03,有限会社大竹組,,有限会社,静岡県,富士市,厚原１７５番地の４２,,22,210,4190201,,,2023-10-03,清算の結了等,,,2015-10-05,1,,,,,オオタケグミ,0
2718,9080402003122,登記記録の閉鎖等,0,2023-10-06,2023-10-02,有限会社サカエ,,有限会社,静岡県,浜松市南区,芳川町５６２番地,,22,134,4300813,,,2023-10-02,清算の結了等,,,2015-10-05,1,,,,,サカエ,0
2727,9120001144453,登記記録の閉鎖等,0,2023-10-06,2023-10-02,株式会社アルマダスタイル,,株式会社,大阪府,大阪市淀川区,西中島４丁目３番８号新大阪阪神ビル,,27,123,5320011,,,2023-10-02,清算の結了等,,,2015-10-05,1,,,,,アルマダスタイル,0
2728,9120001145435,登記記録の閉鎖等,0,2023-10-06,2023-10-02,株式会社スタジオばく,,株式会社,大阪府,大阪市西区,本田３丁目５番８号１００１,,27,106,5500022,,,2023-10-02,清算の結了等,,,2015-10-05,1,,,,,スタジオバク,0
2739,9120101054775,登記記録の閉鎖等,0,2023-10-06,2023-10-03,株式会社ｈａｙａｓｈｉ,,株式会社,大阪府,富田林市,北大伴町１丁目１０－３,,27,214,5840042,,,2023-10-03,清算の結了等,,,2016-05-16,1,,,,,ハヤシ,0
2742,9120101066291,登記記録の閉鎖等,0,2023-10-06,2023-10-02,三郎電子株式会社,,株式会社,大阪府,泉佐野市,松風台２丁目１３番１７号,,27,213,5980008,,,2023-10-02,清算の結了等,,,2022-10-05,1,,,,,サブロウデンシ,0
2759,9140001019190,登記記録の閉鎖等,0,2023-10-06,2023-10-05,神鋼スラグ製品株式会社,,株式会社,兵庫県,神戸市中央区,脇浜海岸通１丁目５番１号,,28,110,6510073,,,2023-10-05,合併による解散等,6140001005714,令和５年１０月１日神戸市中央区脇浜海岸通二丁目２番４号株式会社神戸製鋼所（6140001005714）に合併し解散,2015-10-05,1,,,,,シンコウスラグセイヒン,0
2763,9140002031533,登記記録の閉鎖等,0,2023-10-06,2023-10-05,オーエムシージャパン有限会社,,有限会社,兵庫県,三木市,吉川町金会１５１２番地,,28,215,6731232,,,2023-10-05,清算の結了等,,,2015-10-05,1,,,,,オーエムシージャパン,0
2766,9150001015651,登記記録の閉鎖等,0,2023-10-06,2023-10-03,株式会社北建設工業,,株式会社,奈良県,五條市,今井町１５６４番地の１,,29,207,6370004,,,2023-10-03,清算の結了等,,,2015-10-05,1,,,,,キタケンセツコウギョウ,0
2801,9250002003380,登記記録の閉鎖等,0,2023-10-06,2023-10-02,有限会社フードセンターにしむら,,有限会社,山口県,防府市,大字台道１２６０番地の３,,35,206,7471232,,,2023-10-02,清算の結了等,,,2015-10-05,1,,,,,フードセンターニシムラ,0
2806,9290001052136,登記記録の閉鎖等,0,2023-10-06,2023-09-25,株式会社葵・介護センター,,株式会社,福岡県,飯塚市,立岩１２１３番地２,,40,205,8200003,,,2023-09-25,清算の結了等,,,2015-10-05,1,,,,,,0
2816,9290002026584,登記記録の閉鎖等,0,2023-10-06,2023-09-25,有限会社ケイズ,,有限会社,福岡県,那珂川市,後野４丁目１３番５号,,40,231,8111241,,,2023-09-25,清算の結了等,,,2015-10-05,1,,,,,ケイズ,0
2827,9330001004413,登記記録の閉鎖等,0,2023-10-06,2023-09-29,株式会社マルニシ,,株式会社,熊本県,熊本市東区,長嶺西２丁目２番１８号,,43,102,8618037,,,2023-09-29,清算の結了等,,,2015-10-05,1,,,,,マルニシ,0
2844,9410002005195,登記記録の閉鎖等,0,2023-10-06,2023-09-29,エビス交通有限会社,,有限会社,秋田県,秋田市,外旭川字小谷地１３３番地５,,05,201,0100802,,,2023-09-29,清算の結了等,,,2015-10-05,1,,,,,,0
2860,9430005011800,登記記録の閉鎖等,0,2023-10-06,2023-09-21,特定非営利活動法人みみをすますプロジェクト,,その他の設立登記法人,北海道,札幌市北区,新川五条１６丁目２番１０号,,01,102,0010925,,,2023-09-21,清算の結了等,,,2015-10-05,1,,,,,ミミヲスマスプロジェクト,0
2864,9450002006339,登記記録の閉鎖等,0,2023-10-06,2023-10-03,有限会社ガード・プレセーブ,,有限会社,北海道,旭川市,東七条８丁目２番１４号,,01,204,0700027,,,2023-10-03,清算の結了等,,,2015-10-05,1,,,,,ガードプレセーブ,0
2866,9470001001017,登記記録の閉鎖等,0,2023-10-06,2023-10-03,株式会社えざき,,株式会社,香川県,高松市,朝日新町１３番３号,,37,201,7600064,,,2023-10-03,合併による解散等,7500001001171,令和５年９月３０日愛媛県松山市空港通一丁目８番１６号株式会社えざき（7500001001171）に合併し解散,2015-10-05,1,,,,,エザキ,0
2868,9470002009083,登記記録の閉鎖等,0,2023-10-06,2023-10-04,有限会社美容室みちこ,,有限会社,香川県,高松市,高松町２１５５番地１１,,37,201,7610104,,,2023-10-04,清算の結了等,,,2015-10-05,1,,,,,ビヨウシツミチコ,0
2874,9700150115881,登記記録の閉鎖等,0,2023-10-06,2023-09-08,相続財産法人故石村良治,,その他,青森県,青森市,緑３丁目８番地１,,02,201,0300845,,,2023-09-08,その他の清算の結了等,,,2023-04-28,1,,,,,ソウゾクザイサンホウジンコイシムラリョウジ,0
