sequenceNumber,corporateNumber,process,correct,updateDate,changeDate,name,nameImageId,kind,prefectureName,cityName,streetNumber,addressImageId,prefectureCode,cityCode,postCode,addressOutside,addressOutsideImageId,closeDate,closeCause,successorCorporateNumber,changeCause,assignmentDate,latest,enName,enPrefectureName,enCityName,enAddressOutside,furigana,hihyoji
2,1010001129407,登記記録の閉鎖等,0,2024-11-26,2024-11-11,ＣＡＣ株式会社,,株式会社,東京都,千代田区,鍛冶町１丁目６番１号日東合同ビル４階,,13,101,1010044,,,2024-11-11,清算の結了等,,,2015-10-05,1,,,,,,0
10,1010005033555,登記記録の閉鎖等,0,2024-11-26,2024-11-20,原宿プロパティー特定目的会社,,その他の設立登記法人,東京都,千代田区,丸の内１丁目１１番１号,,13,101,1000005,,,2024-11-20,清算の結了等,,,2021-06-25,1,,,,,ハラジュクプロパティー,0
12,1010401046417,登記記録の閉鎖等,0,2024-11-26,2024-11-21,ジャパンエステートデベロップメント株式会社,,株式会社,大阪府,大阪市中央区,今橋２丁目５番８号トレードピア淀屋橋１６階,,27,128,5410042,,,2024-11-21,清算の結了等,,,2015-10-05,1,,,,,ジャパンエステートデベロップメント,0
17,1010403009149,登記記録の閉鎖等,0,2024-11-26,2024-11-11,ユナイテッド・ジョイント合同会社,,合同会社,東京都,中央区,日本橋３丁目９番１号日本橋三丁目スクエア１１階,,13,102,1030027,,,2024-11-11,清算の結了等,,,2015-10-05,1,,,,,ユナイテッドジョイント,0
23,1010405021102,登記記録の閉鎖等,0,2024-11-26,2024-11-21,ＥＳＲ３３特定目的会社,,その他の設立登記法人,東京都,港区,浜松町１丁目２０番１０号ライオネス浜松町５０６号室,,13,103,1050013,,,2024-11-21,清算の結了等,,,2022-06-21,1,,,,,イーエスアールサンジュウサン,0
45,1011001123738,登記記録の閉鎖等,0,2024-11-26,2024-11-01,株式会社Ｑｕｅｓｑｕ,,株式会社,東京都,渋谷区,恵比寿４丁目２０－３恵比寿ガーデンプレイスタワー４Ｆ,,13,113,1500013,,,2024-11-01,合併による解散等,9160001012466,令和６年１１月１日東京都渋谷区恵比寿４－２０－３恵比寿ガーデンプレイスタワー４Ｆ株式会社ＬＡＬＡＬＡ　Ｐｌｕｓ（9160001012466）に合併し解散,2018-08-15,1,,,,,クエスク,0
58,1011201003293,登記記録の閉鎖等,0,2024-11-26,2024-11-25,株式会社中央建設,,株式会社,東京都,中野区,江古田２丁目１０番１７号,,13,114,1650022,,,2024-11-25,清算の結了等,,,2015-10-05,1,,,,,チュウオウケンセツ,0
74,1013202011911,登記記録の閉鎖等,0,2024-11-26,2024-10-23,有限会社レインフォレスト,,有限会社,東京都,目黒区,自由が丘３丁目１６番１９号,,13,110,1520035,,,2024-10-23,清算の結了等,,,2015-10-05,1,,,,,レインフォレスト,0
114,1070002016284,登記記録の閉鎖等,0,2024-11-26,2024-11-22,有限会社サンコー,,有限会社,群馬県,甘楽郡甘楽町,大字国峰１８１４番地１,,10,384,3702205,,,2024-11-22,清算の結了等,,,2015-10-05,1,,,,,サンコー,0
123,1100005000661,登記記録の閉鎖等,0,2024-11-26,2024-10-09,天理教信聖分教会,,その他の設立登記法人,長野県,長野市,篠ノ井会２２５番地,,20,201,3888004,,,2024-10-09,合併による解散等,3100005006038,令和６年１０月９日長野県松本市大字南浅間６２４番地天理教信陽分教会（3100005006038）に合併し解散,2015-10-05,1,,,,,テンリキョウシンセイブンキョウカイ,0
124,1110001012619,登記記録の閉鎖等,0,2024-11-26,2024-11-19,株式会社三和車体,,株式会社,新潟県,新発田市,中曽根字中坪１３２０番地１,,15,206,9570000,,,2024-11-19,清算の結了等,,,2015-10-05,1,,,,,サンワシャタイ,0
130,1120002014704,登記記録の閉鎖等,0,2024-11-26,2024-11-22,有限会社光洋,,有限会社,大阪府,大阪市大正区,鶴町３丁目２０番３０号,,27,108,5510023,,,2024-11-22,清算の結了等,,,2015-10-05,1,,,,,コウヨウ,0
139,1120101064906,登記記録の閉鎖等,0,2024-11-26,2024-10-10,株式会社ＩＣＨＩＢＡＮ,,株式会社,大阪府,堺市北区,百舌鳥赤畑町１丁２１－１,,27,146,5918037,,,2024-10-10,合併による解散等,8120102000928,令和６年１０月１日大阪府堺市北区中百舌鳥町六丁８８２番地の３株式会社大阪フーズ（8120102000928）に合併して解散,2022-01-11,1,,,,,イチバン,0
140,1120102021055,登記記録の閉鎖等,0,2024-11-26,2024-11-20,有限会社ケイテック,,有限会社,大阪府,岸和田市,吉井町３丁目２８番１３－５０６号,,27,202,5960002,,,2024-11-20,清算の結了等,,,2015-10-05,1,,,,,ケイテック,0
156,1140002049649,登記記録の閉鎖等,0,2024-11-26,2024-11-19,有限会社坪田学院姫路義塾,,有限会社,兵庫県,姫路市,山田町多田２３２番地,,28,201,6792111,,,2024-11-19,清算の結了等,,,2015-10-05,1,,,,,ツボタガクインヒメジギジュク,0
166,1180003026610,登記記録の閉鎖等,0,2024-11-26,2024-11-22,合同会社Ｇｒｏｗｔｈ＆Ｓｙｏ　ｃｏｎｓｕｌｔａｎｔ,,合同会社,愛知県,名古屋市中村区,本陣通４丁目１１番１号,,23,105,4530041,,,2024-11-22,清算の結了等,,,2024-04-11,1,,,,,グロースアンドショウコンサルタント,0
172,1190002007271,登記記録の閉鎖等,0,2024-11-26,2024-11-22,有限会社結城建設,,有限会社,三重県,四日市市,三滝台２丁目１４番地１７,,24,202,5120933,,,2024-11-22,清算の結了等,,,2015-10-05,1,,,,,ユウキケンセツ,0
183,1250001001806,登記記録の閉鎖等,0,2024-11-26,2024-11-22,東和レジスター山口販売株式会社,,株式会社,山口県,山口市,小郡栄町４番１８－７０４号,,35,203,7540026,,,2024-11-22,清算の結了等,,,2015-10-05,1,,,,,トウワレジスターヤマグチハンバイ,0
189,1260002016323,登記記録の閉鎖等,0,2024-11-26,2024-11-25,アバンステクノサービス有限会社,,有限会社,岡山県,倉敷市,真備町尾崎２６７９番地,,33,202,7101304,,,2024-11-25,清算の結了等,,,2015-10-05,1,,,,,,0
190,1270002000342,登記記録の閉鎖等,0,2024-11-26,2024-11-25,有限会社オートヨネムラ,,有限会社,鳥取県,鳥取市,賀露町西１丁目３００７番地,,31,201,6800908,,,2024-11-25,清算の結了等,,,2015-10-05,1,,,,,オートヨネムラ,0
204,1290005005502,登記記録の閉鎖等,0,2024-11-26,2024-09-26,金刀比羅神社,,その他の設立登記法人,福岡県,糟屋郡新宮町,大字相島１２６９番地,,40,345,8110118,,,2024-09-26,合併による解散等,5290005005580,令和６年９月２６日福岡県糟屋郡新宮町大字相島１３６８番地若宮神社（5290005005580）に合併し解散,2015-10-05,1,,,,,,0
208,1310002018371,登記記録の閉鎖等,0,2024-11-26,2024-11-25,有限会社石橋組,,有限会社,長崎県,南島原市,西有家町龍石８２８番地２,,42,214,8592216,,,2024-11-25,清算の結了等,,,2015-10-05,1,,,,,イシバシクミ,0
225,1400001003852,登記記録の閉鎖等,0,2024-11-26,2024-10-08,エヌケー紫波株式会社,,株式会社,岩手県,紫波郡紫波町,稲藤字升形２０１番地,,03,321,0283451,,,2024-10-08,合併による解散等,4380001006062,令和６年１０月１日福島県郡山市鶴見坦一丁目１４番５号株式会社内藤工業所（4380001006062）に合併し解散,2015-10-05,1,,,,,エヌケーシワ,0
238,1460102000388,登記記録の閉鎖等,0,2024-11-26,2024-11-21,有限会社エンクウ,,有限会社,北海道,帯広市,西十九条南２丁目２７番６号,,01,207,0802469,,,2024-11-21,清算の結了等,,,2015-10-05,1,,,,,エンクウ,0
255,2010003030933,登記記録の閉鎖等,0,2024-11-26,2024-11-11,武田ファイナンシング合同会社,,合同会社,東京都,中央区,日本橋本町２丁目１番１号,,13,102,1030023,,,2024-11-11,清算の結了等,,,2019-10-28,1,,,,,タケダファイナンシング,0
270,2010405019780,登記記録の閉鎖等,0,2024-11-26,2024-11-01,船橋ロジスティクスデベロップメント特定目的会社,,その他の設立登記法人,東京都,港区,六本木１丁目６番１号泉ガーデンタワー,,13,103,1060032,,,2024-11-01,清算の結了等,,,2021-05-06,1,,,,,,0
279,2010802014384,登記記録の閉鎖等,0,2024-11-26,2024-11-18,有限会社室井建装,,有限会社,東京都,大田区,池上７丁目８番１５号,,13,111,1460082,,,2024-11-18,清算の結了等,,,2015-10-05,1,,,,,ムロイケンソウ,0
289,2011001130386,登記記録の閉鎖等,0,2024-11-26,2024-11-01,株式会社プロテクションエージェンシー,,株式会社,東京都,渋谷区,道玄坂２丁目１５－１ノア道玄坂１１０３号室,,13,113,1500043,,,2024-11-01,清算の結了等,,,2019-10-11,1,,,,,プロテクションエージェンシー,0
303,2011101106823,登記記録の閉鎖等,0,2024-11-26,2024-11-14,サンワエステート株式会社,,株式会社,東京都,新宿区,山吹町１３０番地５ＤＡＯ・ＳＰＡＣＥ神楽坂２０２,,13,104,1620801,,,2024-11-14,清算の結了等,,,2024-04-05,1,,,,,サンワエステート,0
306,2011102000991,登記記録の閉鎖等,0,2024-11-26,2024-11-14,有限会社隠居屋,,有限会社,東京都,新宿区,歌舞伎町１丁目２番７－８０８号,,13,104,1600021,,,2024-11-14,清算の結了等,,,2015-10-05,1,,,,,インキョヤ,0
350,2021001027895,登記記録の閉鎖等,0,2024-11-26,2024-11-25,大地リサーチ株式会社,,株式会社,神奈川県,大和市,上和田２６６０番地１,,14,213,2420014,,,2024-11-25,清算の結了等,,,2015-10-05,1,,,,,ダイチリサーチ,0
353,2021002025023,登記記録の閉鎖等,0,2024-11-26,2024-11-25,有限会社ヤマキ商事,,有限会社,神奈川県,相模原市南区,双葉２丁目１番１２号,,14,153,2520316,,,2024-11-25,清算の結了等,,,2015-10-05,1,,,,,,0
367,2030002058890,登記記録の閉鎖等,0,2024-11-26,2024-11-21,タイムスペースデザイン有限会社,,有限会社,埼玉県,朝霞市,宮戸２丁目１０番８号,,11,227,3510031,,,2024-11-21,清算の結了等,,,2015-10-05,1,,,,,タイムスペースデザイン,0
373,2040001046680,登記記録の閉鎖等,0,2024-11-26,2024-11-22,株式会社大野工務店,,株式会社,千葉県,佐倉市,岩富１６４７番地の１,,12,212,2850071,,,2024-11-22,清算の結了等,,,2015-10-05,1,,,,,オオノコウムテン,0
374,2040001062471,登記記録の閉鎖等,0,2024-11-26,2024-11-22,株式会社マルエイ坂本,,株式会社,千葉県,銚子市,明神町１丁目１２９番地,,12,202,2880002,,,2024-11-22,清算の結了等,,,2015-10-05,1,,,,,マルエイサカモト,0
377,2040001072594,登記記録の閉鎖等,0,2024-11-26,2024-11-20,株式会社ヴィクト,,株式会社,千葉県,野田市,尾崎７８６番地２９,,12,208,2700235,,,2024-11-20,清算の結了等,,,2015-10-05,1,,,,,ヴィクト,0
382,2040002099075,登記記録の閉鎖等,0,2024-11-26,2024-11-21,有限会社トラスト,,有限会社,千葉県,野田市,清水公園東２丁目９番地の５,,12,208,2780047,,,2024-11-21,清算の結了等,,,2015-10-05,1,,,,,トラスト,0
383,2040002101154,登記記録の閉鎖等,0,2024-11-26,2024-11-21,有限会社石田商店,,有限会社,千葉県,鴨川市,天津１５６３番地２号,,12,223,2995503,,,2024-11-21,清算の結了等,,,2015-10-05,1,,,,,イシダショウテン,0
384,2050001010289,登記記録の閉鎖等,0,2024-11-26,2024-11-19,土浦つくば積水樹脂株式会社,,株式会社,茨城県,土浦市,東中貫町２番地２,,08,203,3000006,,,2024-11-19,合併による解散等,9120001059651,令和６年１１月１日大阪市北区西天満二丁目４番４号積水樹脂株式会社（9120001059651）に合併し解散,2015-10-05,1,,,,,ツチウラツクバセキスイジュシ,0
387,2050002031598,登記記録の閉鎖等,0,2024-11-26,2024-11-18,有限会社リビング丸山,,有限会社,茨城県,日立市,大みか町２丁目２８番２号,,08,202,3191221,,,2024-11-18,清算の結了等,,,2015-10-05,1,,,,,リビングマルヤマ,0
415,2120002049162,登記記録の閉鎖等,0,2024-11-26,2024-11-22,有限会社トレンドモンド,,有限会社,大阪府,大阪市中央区,北久宝寺町２丁目２番７号,,27,128,5410057,,,2024-11-22,清算の結了等,,,2015-10-05,1,,,,,トレンドモンド,0
428,2130001076504,登記記録の閉鎖等,0,2024-11-26,2024-11-19,株式会社Ｂｅａｕｔｙ　Ｈｉｌｌｓ　Ｊａｐａｎ,,株式会社,京都府,京都市下京区,鍵屋町３４７番地１,,26,106,6008057,,,2024-11-19,清算の結了等,,,2024-03-25,1,,,,,ビューティーヒルズジャパン,0
432,2140001054319,登記記録の閉鎖等,0,2024-11-26,2024-11-21,株式会社日伸商会,,株式会社,兵庫県,尼崎市,長洲中通１丁目１番７号Ｍ＆Ｍグリーム尼崎駅前５０１号,,28,202,6600802,,,2024-11-21,清算の結了等,,,2015-10-05,1,,,,,,0
439,2140002059201,登記記録の閉鎖等,0,2024-11-26,2024-11-22,有限会社アズマシステム,,有限会社,兵庫県,西宮市,門前町７番３号,,28,204,6638013,,,2024-11-22,清算の結了等,,,2015-10-05,1,,,,,アズマシステム,0
443,2180001024078,登記記録の閉鎖等,0,2024-11-26,2024-11-18,株式会社ナリタ工業,,株式会社,愛知県,名古屋市天白区,島田５丁目１２０８番地,,23,116,4680056,,,2024-11-18,清算の結了等,,,2015-10-05,1,,,,,ナリタコウギョウ,0
455,2180301019488,登記記録の閉鎖等,0,2024-11-26,2024-11-22,株式会社山一電機,,株式会社,愛知県,豊田市,三軒町６丁目３４番地１,,23,211,4710037,,,2024-11-22,清算の結了等,,,2015-10-05,1,,,,,ヤマイチデンキ,0
457,2180302007847,登記記録の閉鎖等,0,2024-11-26,2024-11-18,有限会社松濤,,有限会社,愛知県,豊橋市,花田町字荒木３０番地,,23,201,4418019,,,2024-11-18,清算の結了等,,,2015-10-05,1,,,,,ショウトウ,0
458,2190003003434,登記記録の閉鎖等,0,2024-11-26,2024-11-22,合同会社ちゃい,,合同会社,三重県,松阪市,高町４６０番地３,,24,204,5150011,,,2024-11-22,清算の結了等,,,2020-07-15,1,,,,,チャイ,0
459,2200001001396,登記記録の閉鎖等,0,2024-11-26,2024-11-22,株式会社岐阜不動産鑑定評価所,,株式会社,岐阜県,岐阜市,日野北４丁目５番８号,,21,201,5008207,,,2024-11-22,清算の結了等,,,2015-10-05,1,,,,,ギフフドウサンカンテイヒョウカショ,0
460,2200001025775,登記記録の閉鎖等,0,2024-11-26,2024-11-22,株式会社トリショウ,,株式会社,岐阜県,下呂市,小川１１８１番地,,21,220,5092203,,,2024-11-22,清算の結了等,,,2015-10-05,1,,,,,トリショウ,0
463,2210002014454,登記記録の閉鎖等,0,2024-11-26,2024-11-25,有限会社大浦ニット,,有限会社,福井県,越前市,東千福町６番９号,,18,209,9150847,,,2024-11-25,清算の結了等,,,2024-11-20,1,,,,,オオウラニット,0
472,2240002011044,登記記録の閉鎖等,0,2024-11-26,2024-11-20,有限会社藤栄建設,,有限会社,広島県,広島市安佐北区,あさひが丘３丁目１９番４号,,34,106,7313361,,,2024-11-20,清算の結了等,,,2015-10-05,1,,,,,トウエイケンセツ,0
495,2310001001113,登記記録の閉鎖等,0,2024-11-26,2024-11-15,中央石油株式会社,,株式会社,長崎県,長崎市,小ケ倉町３丁目４６７番地,,42,201,8500961,,,2024-11-15,清算の結了等,,,2015-10-05,1,,,,,チュウオウセキユ,0
521,2430005006501,登記記録の閉鎖等,0,2024-11-26,2024-10-29,天理教十北分教会,,その他の設立登記法人,北海道,美唄市,東六条北４丁目６番７号,,01,215,0720007,,,2024-10-29,合併による解散等,5450005003254,令和６年１０月２４日北海道留萌市見晴町二丁目２番地天理教留萌港分教会（5450005003254）に合併し解散,2015-10-05,1,,,,,テンリキョウトオホクブンキョウカイ,0
522,2460301003959,登記記録の閉鎖等,0,2024-11-26,2024-11-25,株式会社きたら倶楽部,,株式会社,北海道,北見市,双葉町１丁目１番１８号,,01,208,0900054,,,2024-11-25,清算の結了等,,,2015-10-05,1,,,,,キタラクラブ,0
523,2460302000369,登記記録の閉鎖等,0,2024-11-26,2024-11-22,有限会社加藤塗装,,有限会社,北海道,北見市,西三輪２丁目６３２番地１８,,01,208,0900838,,,2024-11-22,清算の結了等,,,2015-10-05,1,,,,,カトウトソウ,0
532,3010001192469,登記記録の閉鎖等,0,2024-11-26,2024-11-18,株式会社もり一,,株式会社,東京都,北区,滝野川２丁目２３番６号メイプルヒルズ滝野川ビル３０１号室,,13,117,1140023,,,2024-11-18,合併による解散等,1011501004719,令和６年１０月１８日東京都北区滝野川二丁目２３番６号メイプルヒルズ滝野川ビル３０１号室株式会社森商事（1011501004719）に合併し解散,2018-06-15,1,,,,,モリイチ,0
544,3010401108149,登記記録の閉鎖等,0,2024-11-26,2024-10-15,株式会社ＩＪＴＴ,,株式会社,神奈川県,横浜市神奈川区,金港町１番地７,,14,102,2210056,,,2024-10-15,合併による解散等,9010401173716,令和６年１０月１日東京都港区港南一丁目２番７０号品川シーズンテラスＡＲＴＳ‐１株式会社（9010401173716）に合併し解散,2015-10-05,1,,,,,アイジェイティティ,0
545,3010401145539,登記記録の閉鎖等,0,2024-11-26,2024-09-25,株式会社ハンドルホールディングス,,株式会社,東京都,港区,南青山５丁目１２番３号リアン南青山１Ｆ,,13,103,1070062,,,2024-09-25,合併による解散等,9010401082561,令和６年９月２５日東京都港区南青山三丁目３番３号リビエラ南青山ビルＡ株式会社キューブリック（9010401082561）に合併し解散,2019-05-16,1,,,,,ハンドルホールディングス,0
549,3010405019854,登記記録の閉鎖等,0,2024-11-26,2024-11-20,ＭＡＲ　ＩＯＪ一般社団法人,,その他の設立登記法人,東京都,中央区,銀座１丁目６番１１号アースタックス税理士法人内,,13,102,1040061,,,2024-11-20,清算の結了等,,,2021-05-28,1,,,,,エムエーアールアイオージェー,0
553,3010502022653,登記記録の閉鎖等,0,2024-11-26,2024-11-20,有限会社オーダス,,有限会社,東京都,台東区,鳥越１丁目３２番６号,,13,106,1110054,,,2024-11-20,清算の結了等,,,2015-10-05,1,,,,,オーダス,0
565,3011001058305,登記記録の閉鎖等,0,2024-11-26,2024-11-06,株式会社ＪＡＰＡＮコンテンツサービス,,株式会社,東京都,渋谷区,道玄坂２丁目１８番１１号,,13,113,1500043,,,2024-11-06,清算の結了等,,,2015-10-05,1,,,,,ジャパンコンテンツサービス,0
595,3011703001000,登記記録の閉鎖等,0,2024-11-26,2024-11-21,合同会社ウイズユー,,合同会社,東京都,江戸川区,北葛西１丁目１７番１６号,,13,123,1340081,,,2024-11-21,清算の結了等,,,2015-10-05,1,,,,,ウイズユー,0
604,3012802003036,登記記録の閉鎖等,0,2024-11-26,2024-11-05,有限会社ケィ・ビー・ワン,,有限会社,東京都,昭島市,郷地町３丁目１６番１９号,,13,207,1960032,,,2024-11-05,清算の結了等,,,2015-10-05,1,,,,,ケィビーワン,0
613,3020002038182,登記記録の閉鎖等,0,2024-11-26,2024-11-15,有限会社三広建設,,有限会社,神奈川県,横浜市鶴見区,馬場１丁目２６番１５号,,14,101,2300076,,,2024-11-15,清算の結了等,,,2015-10-05,1,,,,,サンコウケンセツ,0
619,3021001026070,登記記録の閉鎖等,0,2024-11-26,2024-10-18,ヤマト自動車硝子株式会社,,株式会社,神奈川県,大和市,深見東１丁目１番１１号,,14,213,2420012,,,2024-10-18,合併による解散等,2011001013252,令和６年１０月１日神奈川県横浜市都筑区中川七丁目１番２０号大東株式会社（2011001013252）に合併し解散,2015-10-05,1,,,,,ヤマトジドウシャガラス,0
630,3040001036367,登記記録の閉鎖等,0,2024-11-26,2024-11-22,株式会社鳥海建具店,,株式会社,千葉県,松戸市,中和倉２２４番地,,12,207,2700025,,,2024-11-22,清算の結了等,,,2015-10-05,1,,,,,トリウミタテグテン,0
633,3040002024148,登記記録の閉鎖等,0,2024-11-26,2024-11-22,有限会社中音次,,有限会社,千葉県,船橋市,市場１丁目８番１号,,12,204,2730001,,,2024-11-22,清算の結了等,,,2015-10-05,1,,,,,ナカオトジ,0
637,3050001016855,登記記録の閉鎖等,0,2024-11-26,2024-11-12,株式会社トプスシステムズ,,株式会社,東京都,中央区,銀座１丁目１２－４Ｎ＆Ｅ、ＢＬＤ．７階,,13,102,1040061,,,2024-11-12,清算の結了等,,,2015-10-05,1,,,,,トプスシステムズ,0
652,3080001016539,登記記録の閉鎖等,0,2024-11-26,2024-11-21,株式会社園田工務店,,株式会社,静岡県,藤枝市,青葉町４丁目１番２７号,,22,214,4260066,,,2024-11-21,清算の結了等,,,2015-10-05,1,,,,,ソノダコウムテン,0
659,3100002032953,登記記録の閉鎖等,0,2024-11-26,2024-11-21,有限会社センユウ,,有限会社,長野県,伊那市,長谷市野瀬１３１５番地,,20,209,3960405,,,2024-11-21,清算の結了等,,,2015-10-05,1,,,,,センユウ,0
661,3100005011855,登記記録の閉鎖等,0,2024-11-26,2024-11-15,介護人材交流協同組合,,その他の設立登記法人,長野県,松本市,野溝東１丁目４番２６号,,20,202,3990034,,,2024-11-15,清算の結了等,,,2016-05-06,1,,,,,カイゴジンザイコウリュウ,0
673,3120001232874,登記記録の閉鎖等,0,2024-11-26,2024-11-22,株式会社匠海,,株式会社,大阪府,大阪市阿倍野区,松崎町４丁目１１番２３－９０１号,,27,119,5450053,,,2024-11-22,清算の結了等,,,2020-11-04,1,,,,,タクミ,0
678,3120002078367,登記記録の閉鎖等,0,2024-11-26,2024-11-22,有限会社国際観光,,有限会社,大阪府,守口市,大日東町１２番８号協和ビル,,27,209,5700016,,,2024-11-22,清算の結了等,,,2015-10-05,1,,,,,,0
682,3120901015692,登記記録の閉鎖等,0,2024-11-26,2024-11-20,株式会社源,,株式会社,大阪府,摂津市,三島３丁目４番３１号,,27,224,5660022,,,2024-11-20,清算の結了等,,,2015-10-05,1,,,,,ミナモト,0
696,3140005020539,登記記録の閉鎖等,0,2024-11-26,2024-11-22,特定非営利活動法人かのん福祉園,,その他の設立登記法人,兵庫県,姫路市,別所町佐土３丁目５８番地,,28,201,6710224,,,2024-11-22,清算の結了等,,,2015-10-05,1,,,,,カノンフクシエン,0
712,3180301020734,登記記録の閉鎖等,0,2024-11-26,2024-11-20,足助・旭・稲武交通株式会社,,株式会社,愛知県,豊田市,大井町砂田２３番地４,,23,211,4442501,,,2024-11-20,清算の結了等,,,2015-10-05,1,,,,,アスケアサヒイナブコウツウ,0
714,3180302025435,登記記録の閉鎖等,0,2024-11-26,2024-11-15,三河ホームガス有限会社,,有限会社,愛知県,みよし市,打越町三本松３０番地２１０,,23,236,4700213,,,2024-11-15,清算の結了等,,,2015-10-05,1,,,,,ミカワホームガス,0
717,3190001001513,登記記録の閉鎖等,0,2024-11-26,2024-11-22,ＫＳ株式会社,,株式会社,大阪府,大阪市中央区,道修町１丁目６番７号ＪＭＦビル北浜０１（９階）,,27,128,5410045,,,2024-11-22,清算の結了等,,,2015-10-05,1,,,,,ケーエス,0
725,3210001014256,登記記録の閉鎖等,0,2024-11-26,2024-11-22,ベイフロントプラザおおい株式会社,,株式会社,福井県,大飯郡おおい町,成海第１号８番地,,18,483,9192107,,,2024-11-22,清算の結了等,,,2015-10-05,1,,,,,ベイフロントプラザオオイ,0
733,3280003000636,登記記録の閉鎖等,0,2024-11-26,2024-11-22,合同会社サンリットノバ,,合同会社,島根県,出雲市,稲岡町４１番地,,32,203,6930071,,,2024-11-22,清算の結了等,,,2015-10-05,1,,,,,サンリットノバ,0
734,3280005007448,登記記録の閉鎖等,0,2024-11-26,2024-11-12,一般社団法人日本コミュニケーションエステティック協会,,その他の設立登記法人,島根県,浜田市,日脚町１８５番地１２（３）,,32,202,6971322,,,2024-11-12,清算の結了等,,,2021-11-19,1,,,,,ニホンコミュニケーションエステティックキョウカイ,0
736,3290001068633,登記記録の閉鎖等,0,2024-11-26,2024-11-22,株式会社アジアフードサービス,,株式会社,福岡県,福岡市博多区,綱場町８番３１号,,40,132,8120024,,,2024-11-22,合併による解散等,7310001011636,令和６年１０月１日長崎県佐世保市谷郷町４番３号丸菱不動産株式会社（7310001011636）に合併し解散,2015-10-05,1,,,,,アジアフードサービス,0
742,3290005009006,登記記録の閉鎖等,0,2024-11-26,2024-10-07,天満神社,,その他の設立登記法人,福岡県,八女市,酒井田４８２番地,,40,210,8340042,,,2024-10-07,合併による解散等,7290005008879,令和６年１０月７日福岡県八女市酒井田８７４番地熊野神社（7290005008879）に合併し解散,2015-10-05,1,,,,,,0
765,3410001007108,登記記録の閉鎖等,0,2024-11-26,2024-11-12,秋北建設工業株式会社,,株式会社,秋田県,能代市,字下悪戸８３番地の２,,05,202,0160113,,,2024-11-12,清算の結了等,,,2015-10-05,1,,,,,シュウホクケンセツコウギョウ,0
766,3420005003176,登記記録の閉鎖等,0,2024-11-26,2024-11-20,来満牧野畜産農業協同組合,,その他の設立登記法人,青森県,三戸郡田子町,大字関字関９６番地１,,02,443,0390316,,,2024-11-20,清算の結了等,,,2015-10-05,1,,,,,ライマンボクヤチクサン,0
772,3430002012303,登記記録の閉鎖等,0,2024-11-26,2024-11-20,有限会社高丸石油ガス,,有限会社,北海道,札幌市北区,新川三条８丁目８番２５号,,01,102,0010923,,,2024-11-20,合併による解散等,3430001056029,令和６年１１月１日札幌市北区新琴似五条十六丁目５番１５号ライトレート株式会社（3430001056029）に合併し解散,2015-10-05,1,,,,,タカマルセキユガス,0
773,3430002033332,登記記録の閉鎖等,0,2024-11-26,2024-11-12,有限会社まほろばネット北海道,,有限会社,北海道,札幌市南区,石山三条６丁目１３番１６号,,01,106,0050843,,,2024-11-12,清算の結了等,,,2015-10-05,1,,,,,,0
776,3500001021082,登記記録の閉鎖等,0,2024-11-26,2024-11-01,株式会社トータルペイメントサービス,,株式会社,愛媛県,松山市,三番町３丁目９番地３,,38,201,7900003,,,2024-11-01,合併による解散等,9500001005757,令和６年１１月１日愛媛県松山市三番町三丁目９番地３株式会社まちペイ（9500001005757）に合併し解散,2018-01-04,1,,,,,トータルペイメントサービス,0
800,4010003029791,登記記録の閉鎖等,0,2024-11-26,2024-11-13,四谷プロパティ合同会社,,合同会社,東京都,千代田区,丸の内３丁目１番１号東京共同会計事務所内,,13,101,1000005,,,2024-11-13,清算の結了等,,,2019-05-14,1,,,,,ヨツヤプロパティ,0
816,4010703006553,登記記録の閉鎖等,0,2024-11-26,2024-11-20,三晃化成ホールディングス合同会社,,合同会社,東京都,江東区,豊洲５丁目６番２９－１２３０号,,13,108,1350061,,,2024-11-20,清算の結了等,,,2023-01-23,1,,,,,サンコウカセイホールディングス,0
828,4011001145671,登記記録の閉鎖等,0,2024-11-26,2024-10-18,プレミアムウォーター富士株式会社,,株式会社,山梨県,富士吉田市,上吉田４５９７番地の１,,19,202,4030005,,,2024-10-18,合併による解散等,5011001136629,令和６年１０月１日岐阜県本巣郡北方町柱本池之頭二丁目１番１プレミアムウォーター中部株式会社（5011001136629）に合併し解散,2022-02-16,1,,,,,,0
854,4011802019909,登記記録の閉鎖等,0,2024-11-26,2024-11-20,有限会社山野マーク製作所,,有限会社,東京都,足立区,千住龍田町４番３０号,,13,121,1200042,,,2024-11-20,清算の結了等,,,2015-10-05,1,,,,,,0
864,4013305000247,登記記録の閉鎖等,0,2024-11-26,2024-10-18,天理教上干分教会,,その他の設立登記法人,東京都,豊島区,池袋３丁目１４番１９号,,13,116,1710014,,,2024-10-18,合併による解散等,2010705000275,令和６年１０月３日東京都品川区東五反田五丁目２５番１号天理教日本橋大教會（2010705000275）に合併し解散,2015-10-05,1,,,,,,0
866,4020001005133,登記記録の閉鎖等,0,2024-11-26,2024-11-05,新栄興業株式会社,,株式会社,神奈川県,横浜市旭区,二俣川１丁目８６番地の８,,14,112,2410821,,,2024-11-05,清算の結了等,,,2015-10-05,1,,,,,,0
927,4120002064531,登記記録の閉鎖等,0,2024-11-26,2024-11-22,有限会社備工業,,有限会社,大阪府,大阪市東淀川区,大隅１丁目１番１９号,,27,114,5330015,,,2024-11-22,清算の結了等,,,2015-10-05,1,,,,,ソナエコウギョウ,0
934,4120901042182,登記記録の閉鎖等,0,2024-11-26,2024-11-22,株式会社ケアメイト,,株式会社,大阪府,豊中市,箕輪１丁目１５番２号,,27,203,5600035,,,2024-11-22,清算の結了等,,,2020-01-06,1,,,,,ケアメイト,0
947,4140001066023,登記記録の閉鎖等,0,2024-11-26,2024-11-21,伸和メンテック株式会社,,株式会社,兵庫県,姫路市,白浜町甲８３７番地１,,28,201,6728023,,,2024-11-21,清算の結了等,,,2015-10-05,1,,,,,シンワメンテック,0
953,4150002009715,登記記録の閉鎖等,0,2024-11-26,2024-11-20,有限会社中谷塗装工業,,有限会社,奈良県,大和高田市,大字神楽１７３番地の５,,29,202,6350026,,,2024-11-20,清算の結了等,,,2015-10-05,1,,,,,ナカタニトソウコウギョウ,0
957,4180002019513,登記記録の閉鎖等,0,2024-11-26,2024-11-19,有限会社三旗製作所,,有限会社,愛知県,名古屋市中川区,助光２丁目１５３２番地,,23,110,4540947,,,2024-11-19,清算の結了等,,,2015-10-05,1,,,,,ミハタセイサクショ,0
960,4180303003199,登記記録の閉鎖等,0,2024-11-26,2024-11-15,合同会社稲垣精工,,合同会社,愛知県,安城市,宇頭茶屋町北裏１３２番地１,,23,212,4460005,,,2024-11-15,清算の結了等,,,2015-10-05,1,,,,,イナガキセイコウ,0
968,4230001001540,登記記録の閉鎖等,0,2024-11-26,2024-11-21,大洋不動産株式会社,,株式会社,富山県,富山市,中央通り２丁目２番２０号,,16,201,9300044,,,2024-11-21,清算の結了等,,,2015-10-05,1,,,,,タイヨウフドウサン,0
976,4240001049661,登記記録の閉鎖等,0,2024-11-26,2024-11-25,株式会社坂栄,,株式会社,広島県,東広島市,三永３丁目１７番２５－３０７号,,34,212,7390026,,,2024-11-25,清算の結了等,,,2016-07-15,1,,,,,,0
997,4290005005499,登記記録の閉鎖等,0,2024-11-26,2024-09-26,高妻神社,,その他の設立登記法人,福岡県,糟屋郡新宮町,大字相島７３１番地,,40,345,8110118,,,2024-09-26,合併による解散等,5290005005580,令和６年９月２６日福岡県糟屋郡新宮町大字相島１３６８番地若宮神社（5290005005580）に合併し解散,2015-10-05,1,,,,,,0
998,4290802012697,登記記録の閉鎖等,0,2024-11-26,2024-11-15,有限会社スタジオジュンコ・ジャパン,,有限会社,福岡県,北九州市八幡西区,鳴水町２番２８号,,40,109,8060052,,,2024-11-15,清算の結了等,,,2015-10-05,1,,,,,,0
1002,4340001003484,登記記録の閉鎖等,0,2024-11-26,2024-11-21,株式会社ハートメディカル,,株式会社,鹿児島県,鹿児島市,宇宿２丁目１４番２５号,,46,201,8900073,,,2024-11-21,清算の結了等,,,2015-10-05,1,,,,,ハートメディカル,0
1005,4340002012872,登記記録の閉鎖等,0,2024-11-26,2024-11-22,有限会社環境クリエートサービス,,有限会社,鹿児島県,鹿児島市,四元町１２５２番地,,46,201,8992708,,,2024-11-22,清算の結了等,,,2015-10-05,1,,,,,カンキョウクリエートサービス,0
1008,4360003011021,登記記録の閉鎖等,0,2024-11-26,2024-11-22,合同会社沖縄サンクリーン,,合同会社,沖縄県,宜野湾市,志真志３丁目８番１３－１０３号,,47,205,9012213,,,2024-11-22,清算の結了等,,,2021-03-31,1,,,,,オキナワサンクリーン,0
1009,4370001011088,登記記録の閉鎖等,0,2024-11-26,2024-11-19,宮城フロント工業株式会社,,株式会社,宮城県,仙台市青葉区,高松２丁目１５番２２号,,04,101,9810907,,,2024-11-19,清算の結了等,,,2015-10-05,1,,,,,ミヤギフロントコウギョウ,0
1012,4380001020963,登記記録の閉鎖等,0,2024-11-26,2024-11-13,常陽化成株式会社,,株式会社,福島県,いわき市,泉町下川字八合６１番地の４,,07,204,9718183,,,2024-11-13,清算の結了等,,,2015-10-05,1,,,,,ジョウヨウカセイ,0
1017,4430001070656,登記記録の閉鎖等,0,2024-11-26,2024-11-25,株式会社鳩澤建設工業,,株式会社,北海道,札幌市清田区,北野五条４丁目２番１３号,,01,110,0040865,,,2024-11-25,清算の結了等,,,2016-01-15,1,,,,,,0
1018,4430001075184,登記記録の閉鎖等,0,2024-11-26,2024-11-25,株式会社ＢＥＳＴＳＴＹＬＥ,,株式会社,北海道,札幌市中央区,南二条東２丁目１６番地,,01,101,0600052,,,2024-11-25,清算の結了等,,,2017-10-20,1,,,,,ベストスタイル,0
1025,4470002008115,登記記録の閉鎖等,0,2024-11-26,2024-11-18,有限会社杉興産,,有限会社,香川県,高松市,築地町１３番地４,,37,201,7600061,,,2024-11-18,清算の結了等,,,2015-10-05,1,,,,,スギコウサン,0
1029,4490002009400,登記記録の閉鎖等,0,2024-11-26,2024-10-16,有限会社イワイ,,有限会社,高知県,高岡郡日高村,沖名字穴田３６３２番地９,,39,410,7812152,,,2024-10-16,合併による解散等,6500001014686,令和６年１０月１日愛媛県四国中央市金生町下分１０５７番地１株式会社スギウラ（6500001014686）に合併し解散,2015-10-05,1,,,,,イワイ,0
1031,4490002013154,登記記録の閉鎖等,0,2024-11-26,2024-11-13,有限会社仙頭建設,,有限会社,高知県,室戸市,吉良川町乙１９３６番地２,,39,202,7816831,,,2024-11-13,清算の結了等,,,2015-10-05,1,,,,,セントウケンセツ,0
1041,5010001087163,登記記録の閉鎖等,0,2024-11-26,2024-11-12,シェイクハンド株式会社,,株式会社,東京都,中央区,銀座１丁目２２番１－１４０７号,,13,102,1040061,,,2024-11-12,清算の結了等,,,2015-10-05,1,,,,,シェイクハンド,0
1043,5010001144451,登記記録の閉鎖等,0,2024-11-26,2024-11-11,株式会社ＣＭＡＸ　ＪＡＰＡＮ,,株式会社,東京都,千代田区,富士見２丁目１０番２号,,13,101,1020071,,,2024-11-11,清算の結了等,,,2015-10-05,1,,,,,シーマックスジャパン,0
1051,5010001212423,登記記録の閉鎖等,0,2024-11-26,2024-11-11,株式会社ｓａｐｉｅｎｓ,,株式会社,東京都,中央区,日本橋浜町２丁目１番９号クオリア日本橋浜町１００５号,,13,102,1030007,,,2024-11-11,清算の結了等,,,2020-09-18,1,,,,,サピエンス,0
1054,5010003038115,登記記録の閉鎖等,0,2024-11-26,2024-11-11,ＲＥＤ　ＲＯＣＫ合同会社,,合同会社,東京都,中央区,銀座１丁目１２番４号Ｎ＆ＥＢＬＤ．６Ｆ,,13,102,1040061,,,2024-11-11,清算の結了等,,,2022-07-12,1,,,,,レッドロック,0
1068,5010501015185,登記記録の閉鎖等,0,2024-11-26,2024-11-20,株式会社山口商店,,株式会社,東京都,台東区,柳橋１丁目１番４－６０５号,,13,106,1110052,,,2024-11-20,清算の結了等,,,2015-10-05,1,,,,,ヤマグチショウテン,0
1075,5010701001035,登記記録の閉鎖等,0,2024-11-26,2024-11-20,イマイカンパニー株式会社,,株式会社,東京都,品川区,北品川４丁目７番３７－１７２５,,13,109,1400001,,,2024-11-20,清算の結了等,,,2015-10-05,1,,,,,イマイカンパニー,0
1083,5010802008813,登記記録の閉鎖等,0,2024-11-26,2024-11-11,有限会社高久工業,,有限会社,東京都,大田区,北馬込２丁目１０番３号,,13,111,1430021,,,2024-11-11,清算の結了等,,,2015-10-05,1,,,,,,0
1097,5011001145670,登記記録の閉鎖等,0,2024-11-26,2024-10-18,プレミアムウォーター朝来株式会社,,株式会社,兵庫県,朝来市,立野１４４番地,,28,225,6793424,,,2024-10-18,合併による解散等,5011001136629,令和６年１０月１日岐阜県本巣郡北方町柱本池之頭二丁目１番１プレミアムウォーター中部株式会社（5011001136629）に合併し解散,2022-02-17,1,,,,,プレミアムウォーターアサゴ,0
1108,5011101069712,登記記録の閉鎖等,0,2024-11-26,2024-10-25,ＲｅｄＳｐｏｔ株式会社,,株式会社,愛知県,名古屋市中村区,名駅１丁目１番１号ＪＰタワー名古屋１９Ｆ,,23,105,4500002,,,2024-10-25,合併による解散等,2180001061708,令和６年１０月１日名古屋市中村区名駅一丁目１番１号ＪＰタワー名古屋１９Ｆシェアリングテクノロジー株式会社（2180001061708）に合併し解散,2015-10-05,1,,,,,レッドスポット,0
1115,5011603003020,登記記録の閉鎖等,0,2024-11-26,2024-11-18,合同会社はりがや工房,,合同会社,東京都,練馬区,富士見台４丁目１８番１７号,,13,120,1770034,,,2024-11-18,清算の結了等,,,2020-08-04,1,,,,,ハリガヤコウボウ,0
1132,5020001016286,登記記録の閉鎖等,0,2024-11-26,2024-11-15,横浜通運株式会社,,株式会社,神奈川県,横浜市神奈川区,栄町１１番地の４,,14,102,2210052,,,2024-11-15,清算の結了等,,,2015-10-05,1,,,,,ヨコハマツウウン,0
1136,5020001096394,登記記録の閉鎖等,0,2024-11-26,2024-11-15,株式会社アンダーグラウンドワークス,,株式会社,神奈川県,横浜市旭区,若葉台１丁目４番９０３号,,14,112,2410801,,,2024-11-15,清算の結了等,,,2015-10-05,1,,,,,アンダーグラウンドワークス,0
1147,5020002093572,登記記録の閉鎖等,0,2024-11-26,2024-11-13,マイクロサーボ有限会社,,有限会社,神奈川県,川崎市多摩区,菅仙谷２丁目１７番１－３０６号,,14,135,2140006,,,2024-11-13,清算の結了等,,,2015-10-05,1,,,,,マイクロサーボ,0
1159,5030003024501,登記記録の閉鎖等,0,2024-11-26,2024-11-21,合同会社かろみ,,合同会社,埼玉県,飯能市,大字川寺２１０―２,,11,209,3570044,,,2024-11-21,清算の結了等,,,2024-06-13,1,,,,,カロミ,0
1168,5050002045934,登記記録の閉鎖等,0,2024-11-26,2024-11-15,有限会社田沼縫製工業,,有限会社,茨城県,猿島郡境町,１５１２番地,,08,546,3060433,,,2024-11-15,清算の結了等,,,2024-08-19,1,,,,,タヌマホウセイコウギョウ,0
1170,5080001004962,登記記録の閉鎖等,0,2024-11-26,2024-11-19,株式会社マルス商店,,株式会社,静岡県,静岡市葵区,清閑町１１番１号,,22,101,4200047,,,2024-11-19,清算の結了等,,,2015-10-05,1,,,,,マルスショウテン,0
1174,5080105001625,登記記録の閉鎖等,0,2024-11-26,2024-10-16,天理教田京分教会,,その他の設立登記法人,静岡県,伊豆の国市,田京３５６番地,,22,225,4102315,,,2024-10-16,合併による解散等,7080105001961,令和６年１０月１６日静岡県田方郡函南町間宮１２１番地の１天理教田方分教会（7080105001961）に合併し解散,2015-10-05,1,,,,,,0
1200,5120102007439,登記記録の閉鎖等,0,2024-11-26,2024-11-25,株式会社ＫＳＤＣ,,株式会社,大阪府,堺市南区,赤坂台５丁３５番１１号,,27,145,5900144,,,2024-11-25,清算の結了等,,,2015-10-05,1,,,,,ケイエスディーシー,0
1206,5130001042651,登記記録の閉鎖等,0,2024-11-26,2024-11-21,株式会社栄和洋品,,株式会社,京都府,京丹後市,峰山町杉谷２７番地の２,,26,212,6270012,,,2024-11-21,清算の結了等,,,2015-10-05,1,,,,,エイワヨウヒン,0
1216,5140002015614,登記記録の閉鎖等,0,2024-11-26,2024-11-21,有限会社ヒラタ商店,,有限会社,兵庫県,神戸市中央区,布引町４丁目３番１０号,,28,110,6510097,,,2024-11-21,清算の結了等,,,2015-10-05,1,,,,,ヒラタショウテン,0
1222,5180001077593,登記記録の閉鎖等,0,2024-11-26,2024-11-19,アイテクノコーポ株式会社,,株式会社,愛知県,小牧市,小牧２丁目１０番地,,23,219,4850041,,,2024-11-19,清算の結了等,,,2015-10-05,1,,,,,アイテクノコーポ,0
1225,5180002079127,登記記録の閉鎖等,0,2024-11-26,2024-11-20,有限会社柴工業,,有限会社,愛知県,一宮市,あずら１丁目１３番２５号,,23,203,4910835,,,2024-11-20,清算の結了等,,,2015-10-05,1,,,,,シバコウギョウ,0
1226,5180002084845,登記記録の閉鎖等,0,2024-11-26,2024-11-18,有限会社シスター美容院,,有限会社,愛知県,大府市,吉川町１丁目１７１番地,,23,223,4740046,,,2024-11-18,清算の結了等,,,2015-10-05,1,,,,,シスタービヨウイン,0
1245,5240001018203,登記記録の閉鎖等,0,2024-11-26,2024-11-25,株式会社丸佐冷熱システム,,株式会社,広島県,広島市西区,楠木町２丁目２番１－１号,,34,104,7330002,,,2024-11-25,清算の結了等,,,2015-10-05,1,,,,,,0
1247,5240002002552,登記記録の閉鎖等,0,2024-11-26,2024-11-25,有限会社エム・エム・シー,,有限会社,広島県,広島市東区,中山東１丁目４番１７－８号,,34,102,7320023,,,2024-11-25,清算の結了等,,,2015-10-05,1,,,,,エムエムシー,0
1248,5240002038522,登記記録の閉鎖等,0,2024-11-26,2024-11-25,有限会社報徳農園,,有限会社,広島県,福山市,内海町イ２６０３番地の３,,34,207,7222631,,,2024-11-25,清算の結了等,,,2015-10-05,1,,,,,,0
1251,5250005002383,登記記録の閉鎖等,0,2024-11-26,2024-11-05,天理教陽ノ海分教会,,その他の設立登記法人,山口県,山陽小野田市,大字小野田８６９番地の４,,35,216,7560817,,,2024-11-05,合併による解散等,1250005002387,令和６年１１月５日山口県宇部市北条一丁目６番１０号天理教朝海分教会（1250005002387）に合併し解散,2015-10-05,1,,,,,テンリキョウヨウノウミブンキョウカイ,0
1255,5260001001082,登記記録の閉鎖等,0,2024-11-26,2024-11-21,岡山水販株式会社,,株式会社,岡山県,岡山市南区,市場１丁目１番地,,33,104,7028052,,,2024-11-21,清算の結了等,,,2015-10-05,1,,,,,オカヤマスイハン,0
1257,5260002011064,登記記録の閉鎖等,0,2024-11-26,2024-11-21,有限会社クタニ,,有限会社,岡山県,赤磐市,桜が丘西９丁目１番地４,,33,213,7090802,,,2024-11-21,清算の結了等,,,2015-10-05,1,,,,,クタニ,0
1260,5290001024865,登記記録の閉鎖等,0,2024-11-26,2024-11-01,株式会社ＫＹＯＴＡＮ,,株式会社,福岡県,小郡市,小板井４９８番地１,,40,216,8380143,,,2024-11-01,合併による解散等,7010001145530,令和６年１１月１日福岡県小郡市小板井４９８番地１株式会社エリアホールディングス（7010001145530）に合併し解散,2015-10-05,1,,,,,キョウタン,0
1299,5410001005902,登記記録の閉鎖等,0,2024-11-26,2024-11-20,株式会社秋田鶏病中央研究所,,株式会社,秋田県,大館市,白沢字松原７３９番地１,,05,204,0170002,,,2024-11-20,清算の結了等,,,2015-10-05,1,,,,,アキタケイビョウチュウオウケンキュウショ,0
1307,5430001083871,登記記録の閉鎖等,0,2024-11-26,2024-11-25,株式会社ＪＩＮＢ,,株式会社,北海道,札幌市中央区,南二条西３丁目１番地７ＭＯＤＡビル３Ｆ,,01,101,0600062,,,2024-11-25,清算の結了等,,,2021-04-12,1,,,,,ジンビ,0
1311,5430005000476,登記記録の閉鎖等,0,2024-11-26,2024-10-18,宗教法人天理教豊平分教会,,その他の設立登記法人,北海道,札幌市豊平区,水車町１丁目３番３号,,01,105,0620912,,,2024-10-18,合併による解散等,1450005001708,令和６年１０月１０日北海道深川市六条７番１号天理教雨龍大教会（1450005001708）に合併し解散,2015-10-05,1,,,,,テンリキョウトヨヒラブンキョウカイ,0
1317,6010001191914,登記記録の閉鎖等,0,2024-11-26,2024-11-13,株式会社Ｚｏｏｏｐｓ　Ｈｏｌｄｉｎｇｓ,,株式会社,東京都,千代田区,神田和泉町１番地１２－１５ＯＳビル４階,,13,101,1010024,,,2024-11-13,清算の結了等,,,2018-05-21,1,,,,,ズープスホールディングス,0
1334,6010003039863,登記記録の閉鎖等,0,2024-11-26,2024-11-13,Ｓｔａｒ合同会社,,合同会社,東京都,千代田区,丸の内３丁目１番１号東京共同会計事務所内,,13,101,1000005,,,2024-11-13,清算の結了等,,,2023-02-21,1,,,,,スター,0
1371,6011001020492,登記記録の閉鎖等,0,2024-11-26,2024-11-01,富士アスパイアー株式会社,,株式会社,東京都,渋谷区,南平台町１５番１３号,,13,113,1500036,,,2024-11-01,合併による解散等,9011001020531,令和６年１１月１日東京都渋谷区南平台町１５番１３号富士スチール株式会社（9011001020531）に合併し解散,2015-10-05,1,,,,,フジアスパイアー,0
1397,6011505002029,登記記録の閉鎖等,0,2024-11-26,2024-10-24,社会保険労務士法人やさか事務所,,その他の設立登記法人,東京都,荒川区,西日暮里５丁目２７番２号グリーンリーフ大塚３階,,13,118,1160013,,,2024-10-24,合併による解散等,8080405007658,令和６年１０月１７日静岡県浜松市中央区三方原町２４７番地の１社会保険労務士法人Ｍ＆パートナーズ（8080405007658）に合併し解散,2016-11-07,1,,,,,,0
1412,6013201013359,登記記録の閉鎖等,0,2024-11-26,2024-10-29,株式会社ワイ・アンド・ケイ,,株式会社,東京都,目黒区,祐天寺２丁目１１番１１号,,13,110,1530052,,,2024-10-29,清算の結了等,,,2015-10-05,1,,,,,ワイアンドケイ,0
1413,6013202002575,登記記録の閉鎖等,0,2024-11-26,2024-11-06,有限会社コスモエステート,,有限会社,東京都,目黒区,五本木２丁目１４番７号,,13,110,1530053,,,2024-11-06,清算の結了等,,,2015-10-05,1,,,,,コスモエステート,0
1418,6020001068079,登記記録の閉鎖等,0,2024-11-26,2024-11-15,株式会社タイヤショップジャパン,,株式会社,神奈川県,川崎市宮前区,水沢３丁目１番１７号,,14,136,2160012,,,2024-11-15,清算の結了等,,,2015-10-05,1,,,,,タイヤショップジャパン,0
1427,6020001148153,登記記録の閉鎖等,0,2024-11-26,2024-11-15,元視芯智能科技株式会社,,株式会社,神奈川県,横浜市西区,高島１丁目２番５号,,14,103,2200011,,,2024-11-15,清算の結了等,,,2022-09-15,1,,,,,メタシリコン,0
1431,6021001049688,登記記録の閉鎖等,0,2024-11-26,2024-11-25,株式会社福田建設,,株式会社,神奈川県,横須賀市,平作７丁目９番８号１０２,,14,201,2380032,,,2024-11-25,清算の結了等,,,2015-10-05,1,,,,,,0
1435,6021002055537,登記記録の閉鎖等,0,2024-11-26,2024-11-25,有限会社理容宇佐美,,有限会社,神奈川県,足柄上郡大井町,上大井４３番地４,,14,362,2580016,,,2024-11-25,清算の結了等,,,2015-10-05,1,,,,,リヨウウサミ,0
1443,6040001016911,登記記録の閉鎖等,0,2024-11-26,2024-11-21,オークラ衣料株式会社,,株式会社,千葉県,八街市,八街に３２８番地４８,,12,230,2891103,,,2024-11-21,清算の結了等,,,2015-10-05,1,,,,,オークライリョウ,0
1448,6040002087448,登記記録の閉鎖等,0,2024-11-26,2024-11-21,有限会社北總,00020936,有限会社,千葉県,香取市,助沢８６３番地,,12,236,2870107,,,2024-11-21,清算の結了等,,,2015-10-05,1,,,,,ホクソウ,0
1466,6120001102934,登記記録の閉鎖等,0,2024-11-26,2024-11-22,野洲ほほえみピーエフアイ株式会社,,株式会社,大阪府,大阪市中央区,北浜東４番３３号,,27,128,5400031,,,2024-11-22,清算の結了等,,,2015-10-05,1,,,,,ヤスホホエミピーエフアイ,0
1467,6120001221932,登記記録の閉鎖等,0,2024-11-26,2024-11-22,株式会社ＵＳ・ホールディングス,,株式会社,大阪府,大阪市城東区,諏訪４丁目３番２号ポレスター城東深江橋１３０１号,,27,118,5360021,,,2024-11-22,清算の結了等,,,2019-06-21,1,,,,,ユーエスホールディングス,0
1488,6120901015715,登記記録の閉鎖等,0,2024-11-26,2024-11-22,ブルズアンドベアーズ株式会社,,株式会社,大阪府,吹田市,豊津町１１番３７号真建ビル４階,,27,205,5640051,,,2024-11-22,清算の結了等,,,2015-10-05,1,,,,,ブルズアンドベアーズ,0
1494,6130001075279,登記記録の閉鎖等,0,2024-11-26,2024-11-21,日進株式会社,,株式会社,京都府,京都市山科区,西野山階町４５番地３－Ｂ２０１号,,26,110,6078346,,,2024-11-21,清算の結了等,,,2023-09-27,1,,,,,ニッシン,0
1511,6180001047595,登記記録の閉鎖等,0,2024-11-26,2024-11-18,株式会社日本ラミネット,,株式会社,愛知県,名古屋市千種区,覚王山通８丁目７０－１（サンクレア池下２－９０９）,,23,101,4640841,,,2024-11-18,清算の結了等,,,2015-10-05,1,,,,,ニホンラミネット,0
1532,6210002011968,登記記録の閉鎖等,0,2024-11-26,2024-11-12,宮原商事有限会社,,有限会社,福井県,越前市,村国１丁目７番１号,,18,209,9150084,,,2024-11-12,清算の結了等,,,2015-10-05,1,,,,,ミヤハラショウジ,0
1555,6290005010183,登記記録の閉鎖等,0,2024-11-26,2024-09-10,天理教千年川分教会,,その他の設立登記法人,福岡県,久留米市,三潴町草場４３８番地,,40,203,8300105,,,2024-09-10,合併による解散等,7290005010166,令和６年９月１０日福岡県久留米市三潴町草場４４１番地天理教三潴分教会（7290005010166）に合併し解散,2015-10-05,1,,,,,テンリキョウチトセガワブンキョウカイ,0
1556,6290005010225,登記記録の閉鎖等,0,2024-11-26,2024-09-10,天理教城島分教会,,その他の設立登記法人,福岡県,久留米市,城島町城島４９６番地３の６,,40,203,8300207,,,2024-09-10,合併による解散等,7290005010166,令和６年９月１０日福岡県久留米市三潴町草場４４１番地天理教三潴分教会（7290005010166）に合併し解散,2015-10-05,1,,,,,テンリキョウジョウジマブンキョウカイ,0
1558,6320001009820,登記記録の閉鎖等,0,2024-11-26,2024-11-01,株式会社くじゅう高原ガンジー牧場,,株式会社,大分県,竹田市,久住町大字久住４００４番地５６,,44,208,8780201,,,2024-11-01,合併による解散等,5320001003700,令和６年１１月１日大分市横田二丁目１０番２８号株式会社秀観（5320001003700）と合併し解散,2015-10-05,1,,,,,クジュウコウゲンガンジーボクジョウ,0
1559,6320001014390,登記記録の閉鎖等,0,2024-11-26,2024-11-25,株式会社ＴＳＦ,,株式会社,大分県,大分市,乙津町１番１６号,,44,201,8700145,,,2024-11-25,清算の結了等,,,2015-10-05,1,,,,,ティーエスエフ,0
1560,6320002001355,登記記録の閉鎖等,0,2024-11-26,2024-11-22,有限会社エヌエヌケイ,,有限会社,大分県,大分市,大字上宗方５６７番地の１１,,44,201,8701152,,,2024-11-22,清算の結了等,,,2015-10-05,1,,,,,,0
1561,6330001024141,登記記録の閉鎖等,0,2024-11-26,2024-10-04,福源株式会社,,株式会社,熊本県,熊本市南区,田迎６丁目１１－１６,,43,104,8620962,,,2024-10-04,清算の結了等,,,2017-06-06,1,,,,,フクゲン,0
1569,6380001013494,登記記録の閉鎖等,0,2024-11-26,2024-11-13,株式会社甦生,,株式会社,福島県,いわき市,泉町下川字八合６１番地の４,,07,204,9718183,,,2024-11-13,清算の結了等,,,2015-10-05,1,,,,,コウセイ,0
1573,6400003003177,登記記録の閉鎖等,0,2024-11-26,2024-11-15,ヴィジョンエッジ合同会社,,合同会社,岩手県,盛岡市,本町通２丁目１番２１号,,03,201,0200015,,,2024-11-15,清算の結了等,,,2023-11-22,1,,,,,ヴィジョンエッジ,0
1575,6400005007556,登記記録の閉鎖等,0,2024-11-26,2024-11-18,特定非営利活動法人いわて地域活性化フォーラム,,その他の設立登記法人,岩手県,滝沢市,巣子２０８番地３１,,03,216,0200611,,,2024-11-18,清算の結了等,,,2015-10-05,1,,,,,イワテチイキカッセイカフォーラム,0
1578,6430001020188,登記記録の閉鎖等,0,2024-11-26,2024-10-10,伊藤忠エネクスホームライフ北海道株式会社,,株式会社,北海道,札幌市中央区,北一条西３丁目３番地,,01,101,0600001,,,2024-10-10,合併による解散等,3240001017355,令和６年１０月１日広島市中区橋本町１０番１０号伊藤忠エネクスホームライフ西日本株式会社（3240001017355）に合併し解散,2015-10-05,1,,,,,イトウチュウエネクスホームライフホッカイドウ,0
1591,6500001001841,登記記録の閉鎖等,0,2024-11-26,2024-11-22,株式会社サンユー技研,,株式会社,愛媛県,松山市,石手白石２０７番地１１,,38,201,7900902,,,2024-11-22,清算の結了等,,,2015-10-05,1,,,,,サンユーギケン,0
1600,7010001185849,登記記録の閉鎖等,0,2024-11-26,2024-11-18,メルキオール株式会社,,株式会社,東京都,文京区,湯島４丁目６番１１号,,13,105,1130034,,,2024-11-18,合併による解散等,5010001151258,令和６年１１月１日徳島県鳴門市大麻町桧字蔭ケ谷２番９阿波コミュニティエネルギー株式会社（5010001151258）に合併し解散,2017-08-25,1,,,,,メルキオール,0
1601,7010001187614,登記記録の閉鎖等,0,2024-11-26,2024-11-18,カスパール株式会社,,株式会社,東京都,文京区,湯島４丁目６番１１号,,13,105,1130034,,,2024-11-18,合併による解散等,1010001152375,令和６年１１月１日徳島県鳴門市鳴門町土佐泊浦字大毛２４６番８土佐泊コミュニティエネルギー株式会社（1010001152375）に合併し解散,2017-11-14,1,,,,,カスパール,0
1609,7010401104722,登記記録の閉鎖等,0,2024-11-26,2024-11-21,株式会社ＣＵＳＩ－ＮＡ,,株式会社,兵庫県,西宮市,甲風園１丁目９番８号睦ビル１階,,28,204,6620832,,,2024-11-21,清算の結了等,,,2015-10-05,1,,,,,クシナ,0
1611,7010401169352,登記記録の閉鎖等,0,2024-11-26,2024-11-11,ポラリス・メディカルサービス株式会社,,株式会社,東京都,港区,新橋６丁目２０番８号,,13,103,1050004,,,2024-11-11,清算の結了等,,,2022-08-26,1,,,,,ポラリスメディカルサービス,0
1617,7010601025529,登記記録の閉鎖等,0,2024-11-26,2024-11-20,株式会社大江戸運送店,,株式会社,東京都,江東区,南砂２丁目２８番２２号,,13,108,1360076,,,2024-11-20,清算の結了等,,,2015-10-05,1,,,,,オオエドウンソウテン,0
1658,7012305000436,登記記録の閉鎖等,0,2024-11-26,2024-11-18,特定非営利活動法人菜の花まちだ,,その他の設立登記法人,東京都,町田市,成瀬が丘２丁目２７番１,,13,209,1940011,,,2024-11-18,清算の結了等,,,2015-10-05,1,,,,,,0
1659,7012401018860,登記記録の閉鎖等,0,2024-11-26,2024-10-28,株式会社善,,株式会社,東京都,国分寺市,並木町２丁目２３番地４,,13,214,1850005,,,2024-10-28,合併による解散等,8012401025393,令和６年１０月２６日東京都国分寺市並木町二丁目２３番地５美創空間株式会社ＹＥＳ（8012401025393）に合併し解散,2015-10-05,1,,,,,ゼン,0
1662,7020001014338,登記記録の閉鎖等,0,2024-11-26,2024-10-30,株式会社栄光,,株式会社,神奈川県,横浜市西区,浜松町２番５号,,14,103,2200055,,,2024-10-30,清算の結了等,,,2015-10-05,1,,,,,,0
1681,7030002045843,登記記録の閉鎖等,0,2024-11-26,2024-11-18,有限会社マレーナ,,有限会社,埼玉県,草加市,北谷２丁目１番１２号,,11,221,3400046,,,2024-11-18,清算の結了等,,,2015-10-05,1,,,,,マレーナ,0
1683,7030005006421,登記記録の閉鎖等,0,2024-11-26,2024-10-16,天理教小室分教会,,その他の設立登記法人,埼玉県,北足立郡伊奈町,大字小室６３０１番地,,11,301,3620806,,,2024-10-16,合併による解散等,8030005002741,令和６年１０月１６日埼玉県蓮田市大字蓮田９７４番地宗教法人天理教蓮田分教会（8030005002741）に合併し解散,2015-10-05,1,,,,,テンリキョウコムロブンキョウカイ,0
1684,7030005009440,登記記録の閉鎖等,0,2024-11-26,2024-11-20,上里町管工事業協同組合,,その他の設立登記法人,埼玉県,児玉郡上里町,大字金久保１００３番地,,11,385,3690301,,,2024-11-20,清算の結了等,,,2015-10-05,1,,,,,カミサトマチカンコウジギョウ,0
1686,7040001104120,登記記録の閉鎖等,0,2024-11-26,2024-11-20,研造株式会社,,株式会社,千葉県,船橋市,金堀町３４８番地１３,,12,204,2740054,,,2024-11-20,清算の結了等,,,2018-04-06,1,,,,,ケンゾウ,0
1689,7040001130810,登記記録の閉鎖等,0,2024-11-26,2024-11-20,株式会社コフレ,,株式会社,千葉県,松戸市,松戸１３９５番地の３アークシティ松戸１Ｆ,,12,207,2710092,,,2024-11-20,清算の結了等,,,2023-11-07,1,,,,,コフレ,0
1697,7060002028911,登記記録の閉鎖等,0,2024-11-26,2024-11-21,栃南タクシー有限会社,,有限会社,栃木県,小山市,城山町３丁目１４番１９号,,09,208,3230025,,,2024-11-21,清算の結了等,,,2015-10-05,1,,,,,トチナンタクシー,0
1702,7080002014199,登記記録の閉鎖等,0,2024-11-26,2024-11-20,有限会社岡島製材所,,有限会社,静岡県,島田市,川根町笹間上１７０３番地,,22,209,4280211,,,2024-11-20,清算の結了等,,,2015-10-05,1,,,,,オカジマセイザイショ,0
1709,7100002033345,登記記録の閉鎖等,0,2024-11-26,2024-11-19,有限会社美義屋旅館,,有限会社,長野県,伊那市,山寺１８７６番地,,20,209,3960023,,,2024-11-19,清算の結了等,,,2015-10-05,1,,,,,ミヨシヤリョカン,0
1714,7120001098585,登記記録の閉鎖等,0,2024-11-26,2024-11-22,株式会社昌和商會,,株式会社,大阪府,大阪市浪速区,元町２丁目５番１６号高見ビル１Ｆ,,27,111,5560016,,,2024-11-22,清算の結了等,,,2015-10-05,1,,,,,ショウワショウカイ,0
1717,7120001165815,登記記録の閉鎖等,0,2024-11-26,2024-11-21,デジタルサイン株式会社,,株式会社,大阪府,大阪市淀川区,西中島６丁目２番３号チサンマンション第７新大阪２１２号,,27,123,5320011,,,2024-11-21,清算の結了等,,,2015-10-05,1,,,,,デジタルサイン,0
1737,7130001004071,登記記録の閉鎖等,0,2024-11-26,2024-11-22,ユリ楽器株式会社,,株式会社,京都府,京都市上京区,下立売通千本東入下る中務町４９１番地の６９,,26,102,6028158,,,2024-11-22,清算の結了等,,,2015-10-05,1,,,,,ユリガッキ,0
1751,7180001069325,登記記録の閉鎖等,0,2024-11-26,2024-11-19,三栄産工業株式会社,,株式会社,愛知県,豊明市,栄町根崎１０番地,,23,229,4701161,,,2024-11-19,清算の結了等,,,2015-10-05,1,,,,,サンエイサンコウギョウ,0
1762,7180301033600,登記記録の閉鎖等,0,2024-11-26,2024-11-19,株式会社ｌｕｍｉｎｏｓｏ,,株式会社,愛知県,岡崎市,康生通東２丁目２２番地１,,23,202,4440045,,,2024-11-19,清算の結了等,,,2020-04-03,1,,,,,ルミノソ,0
1771,7210001018162,登記記録の閉鎖等,0,2024-11-26,2024-11-18,株式会社ｆｌａｐ　ｃｏｎｎｅｃｔｉｏｎ,,株式会社,福井県,福井市,木田３丁目３１１３－１,,18,201,9188105,,,2024-11-18,合併による解散等,9130001058149,令和６年１１月１８日福井市木田三丁目３１１３－２株式会社ＦＬＡＰ　ｉｎｃ．（9130001058149）に合併し解散,2020-10-06,1,,,,,フラップコネクション,0
1773,7220005001907,登記記録の閉鎖等,0,2024-11-26,2024-11-01,医療法人社団六豊会,,その他の設立登記法人,石川県,金沢市,もりの里３丁目７６番地,,17,201,9201167,,,2024-11-01,合併による解散等,5220005001818,令和６年１１月１日石川県金沢市桜町２４番３０号医療法人社団金沢（5220005001818）に合併し解散,2015-10-05,1,,,,,リクホウカイ,0
1774,7240001000803,登記記録の閉鎖等,0,2024-11-26,2024-11-25,株式会社イトー,,株式会社,広島県,広島市安佐北区,口田南９丁目１１番２３号,,34,106,7391733,,,2024-11-25,清算の結了等,,,2015-10-05,1,,,,,イトー,0
1781,7250002009512,登記記録の閉鎖等,0,2024-11-26,2024-11-22,有限会社下関配車センター,,有限会社,山口県,下関市,岬之町１８番２０号,,35,201,7500014,,,2024-11-22,清算の結了等,,,2015-10-05,1,,,,,シモノセキハイシャセンター,0
1784,7260003001814,登記記録の閉鎖等,0,2024-11-26,2024-11-21,グリーンキーパー合同会社,,合同会社,岡山県,新見市,西方１３９番地６,,33,210,7180017,,,2024-11-21,清算の結了等,,,2015-10-05,1,,,,,グリーンキーパー,0
1785,7260003004081,登記記録の閉鎖等,0,2024-11-26,2024-11-20,おおぞら設計事務所合同会社,,合同会社,岡山県,岡山市北区,本町６－３６,,33,101,7000901,,,2024-11-20,清算の結了等,,,2022-10-28,1,,,,,オオゾラセッケイジムショ,0
1786,7270001008488,登記記録の閉鎖等,0,2024-11-26,2024-10-25,株式会社吉岡商店,00126208,株式会社,鳥取県,境港市,竹内団地２７８番地７,,31,204,6840046,,,2024-10-25,合併による解散等,8270003000797,令和６年１０月１日鳥取県倉吉市上井町一丁目３７０番地合同会社ごっつお（8270003000797）に合併し解散,2022-04-08,1,,,,,ヨシオカショウテン,0
1810,7310002012088,登記記録の閉鎖等,0,2024-11-26,2024-11-20,有限会社よしむら,,有限会社,長崎県,佐世保市,瀬戸越町１２９１番地,,42,202,8570135,,,2024-11-20,清算の結了等,,,2015-10-05,1,,,,,ヨシムラ,0
1812,7320003001056,登記記録の閉鎖等,0,2024-11-26,2024-11-22,合同会社アミジェム,,合同会社,大分県,佐伯市,１０３８５番地１,,44,205,8760000,,,2024-11-22,清算の結了等,,,2015-10-05,1,,,,,,0
1827,7380002027253,登記記録の閉鎖等,0,2024-11-26,2024-11-13,有限会社昴,,有限会社,福島県,いわき市,泉町下川字八合６１番地の４,,07,204,9718183,,,2024-11-13,清算の結了等,,,2015-10-05,1,,,,,スバル,0
1828,7380003004805,登記記録の閉鎖等,0,2024-11-26,2024-11-13,太陽建設工業合同会社,,合同会社,福島県,伊達郡川俣町,字鉄炮町５４番地,,07,308,9601421,,,2024-11-13,清算の結了等,,,2020-12-14,1,,,,,タイヨウケンセツコウギョウ,0
1830,7390002008855,登記記録の閉鎖等,0,2024-11-26,2024-11-13,有限会社カナウチ酒類サービス,,有限会社,山形県,東田川郡庄内町,三ケ沢字宮田１５３番地,,06,428,9996602,,,2024-11-13,清算の結了等,,,2015-10-05,1,,,,,カナウチシュルイサービス,0
1831,7400002010636,登記記録の閉鎖等,0,2024-11-26,2024-11-20,株式会社佐々木鳥居会計事務所,,株式会社,岩手県,宮古市,黒田町６番２２号,,03,202,0270085,,,2024-11-20,清算の結了等,,,2015-10-05,1,,,,,ササキトリイカイケイジムショ,0
1837,7430001040953,登記記録の閉鎖等,0,2024-11-26,2024-11-25,北斗工業株式会社,,株式会社,北海道,札幌市豊平区,福住三条１０丁目２番１－１０２号,,01,105,0620043,,,2024-11-25,清算の結了等,,,2015-10-05,1,,,,,ホクトコウギョウ,0
1852,7460101000359,登記記録の閉鎖等,0,2024-11-26,2024-11-22,株式会社カーエム滑川,,株式会社,北海道,帯広市,西十六条北２丁目３８番８号,,01,207,0800046,,,2024-11-22,清算の結了等,,,2015-10-05,1,,,,,カーエムナメリカワ,0
1860,8010001185848,登記記録の閉鎖等,0,2024-11-26,2024-11-18,バルタザール株式会社,,株式会社,東京都,文京区,湯島４丁目６番１１号,,13,105,1130034,,,2024-11-18,合併による解散等,3010401102977,令和６年１１月１日徳島県鳴門市大麻町桧字蔭ケ谷２番９鳴門コミュニティエネルギー株式会社（3010401102977）に合併し解散,2017-08-25,1,,,,,バルタザール,0
1928,8011102011455,登記記録の閉鎖等,0,2024-11-26,2024-11-14,藤田乳業有限会社,,有限会社,東京都,新宿区,西落合１丁目２２番４号,,13,104,1610031,,,2024-11-14,清算の結了等,,,2015-10-05,1,,,,,フジタニュウギョウ,0
1943,8011801020112,登記記録の閉鎖等,0,2024-11-26,2024-11-20,株式会社ＳＫトータルサービス,,株式会社,東京都,葛飾区,水元５丁目１４番１１号,,13,122,1250032,,,2024-11-20,清算の結了等,,,2015-10-05,1,,,,,エスケイトータルサービス,0
1974,8021002053027,登記記録の閉鎖等,0,2024-11-26,2024-11-22,有限会社別所鉄工所,,有限会社,神奈川県,小田原市,南町４丁目７番３１号,,14,206,2500013,,,2024-11-22,清算の結了等,,,2015-10-05,1,,,,,ベッショテッコウショ,0
1993,8040001122542,登記記録の閉鎖等,0,2024-11-26,2024-11-18,株式会社ヒットプラス,,株式会社,東京都,練馬区,春日町４丁目２０番１号,,13,120,1790074,,,2024-11-18,清算の結了等,,,2022-03-08,1,,,,,ヒットプラス,0
2014,8090001010230,登記記録の閉鎖等,0,2024-11-26,2024-11-21,山梨コンクリート株式会社,,株式会社,山梨県,富士吉田市,下吉田東１丁目２４番６号,,19,202,4030008,,,2024-11-21,清算の結了等,,,2015-10-05,1,,,,,ヤマナシコンクリート,0
2019,8100005012840,登記記録の閉鎖等,0,2024-11-26,2024-11-22,一般社団法人Ｇｌｏｂａｌ　Ｓｔｅｐ,,その他の設立登記法人,長野県,松本市,高宮中１番３５号,,20,202,3900834,,,2024-11-22,清算の結了等,,,2022-03-29,1,,,,,グローバルステップ,0
2020,8110001008395,登記記録の閉鎖等,0,2024-11-26,2024-11-20,株式会社クリスタル技研,,株式会社,新潟県,新潟市西蒲区,葉萱場７６番地乙,,15,108,9530034,,,2024-11-20,清算の結了等,,,2015-10-05,1,,,,,クリスタルギケン,0
2030,8120003019547,登記記録の閉鎖等,0,2024-11-26,2024-11-15,Ｃｈｅｚ　ｍｏｉ合同会社,,合同会社,大阪府,大阪市都島区,友渕町１丁目５番７－７０８号,,27,102,5340016,,,2024-11-15,清算の結了等,,,2021-06-08,1,,,,,シェモア,0
2041,8120902000144,登記記録の閉鎖等,0,2024-11-26,2024-11-20,有限会社アルプラザ茨木,00033630,有限会社,大阪府,茨木市,上郡２丁目６番２８号,,27,211,5670065,,,2024-11-20,清算の結了等,,,2015-10-05,1,,,,,アルプラザイバラキ,0
2052,8140001012808,登記記録の閉鎖等,0,2024-11-26,2024-11-20,株式会社カワイ,,株式会社,兵庫県,神戸市兵庫区,駅前通５丁目２番１３号,,28,105,6520898,,,2024-11-20,清算の結了等,,,2015-10-05,1,,,,,カワイ,0
2053,8140001018648,登記記録の閉鎖等,0,2024-11-26,2024-11-22,内外興産株式会社,,株式会社,兵庫県,神戸市須磨区,月見山本町２丁目１－６,,28,107,6540051,,,2024-11-22,清算の結了等,,,2015-10-05,1,,,,,,0
2063,8180001028346,登記記録の閉鎖等,0,2024-11-26,2024-11-20,株式会社大輝商事,,株式会社,愛知県,名古屋市緑区,鶴が沢１丁目２５０６番地,,23,114,4580814,,,2024-11-20,清算の結了等,,,2015-10-05,1,,,,,ダイキショウジ,0
2076,8180303005340,登記記録の閉鎖等,0,2024-11-26,2024-11-13,合同会社藤守建設,,合同会社,愛知県,豊田市,上野町５丁目８番地４リバーサイド鬼頭３０３,,23,211,4710015,,,2024-11-13,清算の結了等,,,2022-05-31,1,,,,,フジモリケンセツ,0
2078,8180305006139,登記記録の閉鎖等,0,2024-11-26,2024-10-09,真月院,00075491,その他の設立登記法人,愛知県,豊田市,和会町上屋敷３８番地,,23,211,4701216,,,2024-10-09,合併による解散等,3180305005582,令和６年１０月９日愛知県豊田市桝塚東町西郷８番地行福寺（3180305005582）に合併し解散,2015-10-05,1,,,,,,0
2086,8200005001890,登記記録の閉鎖等,0,2024-11-26,2024-11-18,特定非営利活動法人やっとかめ,,その他の設立登記法人,岐阜県,岐阜市,徹明通８丁目２６番地,,21,201,5008879,,,2024-11-18,清算の結了等,,,2015-10-05,1,,,,,ヤットカメ,0
2087,8200005003359,登記記録の閉鎖等,0,2024-11-26,2024-11-25,特定非営利活動法人つみつみいちごファーム,,その他の設立登記法人,岐阜県,本巣市,曽井中島１８８７番地５,,21,218,5011205,,,2024-11-25,清算の結了等,,,2015-10-05,1,,,,,ツミツミイチゴファーム,0
2089,8220001024852,登記記録の閉鎖等,0,2024-11-26,2024-11-21,株式会社イチゴイチエ,,株式会社,石川県,金沢市,寺町４丁目８番地１２号,,17,201,9218033,,,2024-11-21,清算の結了等,,,2022-05-20,1,,,,,イチゴイチエ,0
2090,8220002004845,登記記録の閉鎖等,0,2024-11-26,2024-11-22,有限会社ヒサダ,,有限会社,石川県,金沢市,大豆田本町ヌ３３番地,,17,201,9200047,,,2024-11-22,清算の結了等,,,2015-10-05,1,,,,,,0
2095,8240001041383,登記記録の閉鎖等,0,2024-11-26,2024-11-25,アイプランニング株式会社,,株式会社,広島県,廿日市市,大野１丁目１１番１号,,34,213,7390434,,,2024-11-25,清算の結了等,,,2015-10-05,1,,,,,アイプランニング,0
2097,8240002044947,登記記録の閉鎖等,0,2024-11-26,2024-11-20,山岡技研有限会社,,有限会社,広島県,福山市,郷分町４９５番地の２,,34,207,7200093,,,2024-11-20,清算の結了等,,,2015-10-05,1,,,,,ヤマオカギケン,0
2110,8290005000397,登記記録の閉鎖等,0,2024-11-26,2024-09-30,天理教新御博分教会,,その他の設立登記法人,福岡県,福岡市南区,花畑１丁目４４番６号,,40,134,8111356,,,2024-09-30,合併による解散等,7290005000398,令和６年９月３０日福岡市中央区平尾二丁目２０番８号天理教大御博分教会（7290005000398）に合併し解散,2015-10-05,1,,,,,テンリキョウシンミハクブンキョウカイ,0
2115,8310002007970,登記記録の閉鎖等,0,2024-11-26,2024-11-21,有限会社井手商店,,有限会社,長崎県,長崎市,京泊３丁目３番１号Ａ５１,,42,201,8512211,,,2024-11-21,清算の結了等,,,2015-10-05,1,,,,,,0
2119,8340002013982,登記記録の閉鎖等,0,2024-11-26,2024-11-14,有限会社野間電工,,有限会社,鹿児島県,霧島市,隼人町小田３０６０番地３,,46,218,8995105,,,2024-11-14,清算の結了等,,,2015-10-05,1,,,,,,0
2123,8370302002253,登記記録の閉鎖等,0,2024-11-26,2024-11-15,有限会社孫太屋,,有限会社,宮城県,石巻市,和渕字和渕町８８番地,,04,202,9871102,,,2024-11-15,清算の結了等,,,2015-10-05,1,,,,,マゴタヤ,0
2124,8370802000698,登記記録の閉鎖等,0,2024-11-26,2024-11-18,有限会社ライフ・プランニング,,有限会社,宮城県,名取市,杉ケ袋字築道１２番地の１,,04,207,9811214,,,2024-11-18,清算の結了等,,,2015-10-05,1,,,,,ライフプランニング,0
2170,9010403011840,登記記録の閉鎖等,0,2024-11-26,2024-11-12,合同会社エーアイアセット,,合同会社,東京都,中央区,銀座２丁目１０番８号マニエラ銀座ビル４階,,13,102,1040061,,,2024-11-12,清算の結了等,,,2015-10-05,1,,,,,エーアイアセット,0
2177,9010505002977,登記記録の閉鎖等,0,2024-11-26,2024-11-18,特定非営利活動法人Ｔｏｍｏｓ,,その他の設立登記法人,東京都,台東区,蔵前４丁目２０番１１号大浦ビル２Ｆ,,13,106,1110051,,,2024-11-18,清算の結了等,,,2019-02-06,1,,,,,トモス,0
2180,9010701041110,登記記録の閉鎖等,0,2024-11-26,2024-11-21,ＮＡＴＯＮＡ第一株式会社,,株式会社,東京都,中野区,江古田１丁目１９番１１号,,13,114,1650022,,,2024-11-21,清算の結了等,,,2021-06-21,1,,,,,ナトナダイイチ,0
2181,9010703006838,登記記録の閉鎖等,0,2024-11-26,2024-11-20,中和産業ホールディングス合同会社,,合同会社,東京都,江東区,豊洲５丁目６番２９－１２３０号,,13,108,1350061,,,2024-11-20,清算の結了等,,,2023-08-29,1,,,,,チュウワサンギョウホールディングス,0
2204,9011005006163,登記記録の閉鎖等,0,2024-11-26,2024-10-30,一般社団法人ファミリービルダー協会,,その他の設立登記法人,東京都,目黒区,五本木３丁目２０番５号,,13,110,1530053,,,2024-10-30,清算の結了等,,,2015-10-05,1,,,,,ファミリービルダーキョウカイ,0
2216,9011103012740,登記記録の閉鎖等,0,2024-11-26,2024-11-13,埼玉米山会計株式会社,,株式会社,東京都,新宿区,西新宿３丁目３番１３号西新宿水間ビル６階,,13,104,1600023,,,2024-11-13,合併による解散等,5010001177609,令和６年１１月１２日東京都新宿区西新宿三丁目３番１３号西新宿水間ビル２Ｆポーカーギルド株式会社（5010001177609）に合併し解散,2023-02-24,1,,,,,サイタマヨネヤマカイケイ,0
2225,9011301001710,登記記録の閉鎖等,0,2024-11-26,2024-11-22,株式会社かみもと,,株式会社,東京都,杉並区,下高井戸５丁目４番２４号,,13,115,1680073,,,2024-11-22,清算の結了等,,,2015-10-05,1,,,,,,0
2235,9011802019755,登記記録の閉鎖等,0,2024-11-26,2024-11-22,山弘有限会社,,有限会社,東京都,足立区,伊興３丁目６番１２号,,13,121,1210823,,,2024-11-22,清算の結了等,,,2015-10-05,1,,,,,ヤマヒロ,0
2239,9012702012957,登記記録の閉鎖等,0,2024-11-26,2024-11-12,有限会社ワイアールエス,,有限会社,東京都,東久留米市,本町１丁目３番４６号,,13,222,2030053,,,2024-11-12,清算の結了等,,,2015-10-05,1,,,,,ワイアールエス,0
2240,9013101000660,登記記録の閉鎖等,0,2024-11-26,2024-11-20,株式会社玉川苑,,株式会社,東京都,羽村市,羽中４丁目１２番１号,,13,227,2050015,,,2024-11-20,清算の結了等,,,2015-10-05,1,,,,,タマガワエン,0
2241,9013202003777,登記記録の閉鎖等,0,2024-11-26,2024-11-05,有限会社創匠,,有限会社,東京都,目黒区,緑が丘１丁目１８番１２号,,13,110,1520034,,,2024-11-05,清算の結了等,,,2015-10-05,1,,,,,ソウショウ,0
2247,9020001088966,登記記録の閉鎖等,0,2024-11-26,2024-11-11,株式会社エムエムコーポレーション,,株式会社,神奈川県,川崎市宮前区,有馬１丁目５番１８－４０５号,,14,136,2160003,,,2024-11-11,清算の結了等,,,2015-10-05,1,,,,,エムエムコーポレーション,0
2253,9020002005697,登記記録の閉鎖等,0,2024-11-26,2024-11-14,有限会社金田製作所,00010178,有限会社,神奈川県,横浜市都筑区,早渕１丁目２８番２号,,14,118,2240025,,,2024-11-14,清算の結了等,,,2015-10-05,1,,,,,カネダセイサクショ,0
2257,9021001064635,登記記録の閉鎖等,0,2024-11-26,2024-11-25,株式会社サンズエンタプライズ,,株式会社,神奈川県,相模原市南区,相模台３丁目１０番２８号,,14,153,2520321,,,2024-11-25,清算の結了等,,,2018-04-20,1,,,,,,0
2263,9021002050031,登記記録の閉鎖等,0,2024-11-26,2024-11-25,有限会社サン無線システム,,有限会社,神奈川県,足柄下郡湯河原町,吉浜３２１番地の４,,14,384,2590312,,,2024-11-25,清算の結了等,,,2015-10-05,1,,,,,サンムセンシステム,0
2264,9021003008350,登記記録の閉鎖等,0,2024-11-26,2024-11-25,ひまわり合同会社,,合同会社,神奈川県,海老名市,東柏ケ谷２丁目２５－２０マルキビル２Ｆ,,14,215,2430401,,,2024-11-25,清算の結了等,,,2019-04-22,1,,,,,ヒマワリ,0
2273,9030002086134,登記記録の閉鎖等,0,2024-11-26,2024-11-21,有限会社境,,有限会社,埼玉県,越谷市,大字下間久里８８６番地の６６,,11,222,3430045,,,2024-11-21,清算の結了等,,,2015-10-05,1,,,,,サカイ,0
2279,9040001020241,登記記録の閉鎖等,0,2024-11-26,2024-11-21,株式会社三喜,,株式会社,千葉県,船橋市,習志野台２丁目４９番１６号,,12,204,2740063,,,2024-11-21,清算の結了等,,,2015-10-05,1,,,,,サンキ,0
2286,9040002026444,登記記録の閉鎖等,0,2024-11-26,2024-11-21,有限会社ワシオ工芸,,有限会社,千葉県,船橋市,松が丘４丁目４４番１０号,,12,204,2740064,,,2024-11-21,清算の結了等,,,2015-10-05,1,,,,,ワシオコウゲイ,0
2290,9040005019899,登記記録の閉鎖等,0,2024-11-26,2024-11-08,特定非営利活動法人南房総ビジネス協議会,,その他の設立登記法人,千葉県,南房総市,平久里下３０番地５,,12,234,2992206,,,2024-11-08,清算の結了等,,,2018-03-16,1,,,,,ミナミボウソウビジネスキョウギカイ,0
2299,9080101011442,登記記録の閉鎖等,0,2024-11-26,2024-11-22,株式会社三宝工務店,,株式会社,静岡県,富士宮市,宝町１３番５号,,22,207,4180055,,,2024-11-22,清算の結了等,,,2015-10-05,1,,,,,サンポウコウムテン,0
2301,9080103001391,登記記録の閉鎖等,0,2024-11-26,2024-11-25,津田鉄筋工業合同会社,,合同会社,静岡県,御殿場市,東山６１８－６東山ガーデンハイツ２０１,,22,215,4120024,,,2024-11-25,清算の結了等,,,2015-10-05,1,,,,,,0
2305,9100003001332,登記記録の閉鎖等,0,2024-11-26,2024-11-18,合資会社東信堂寺西薬局,,合資会社,長野県,上田市,塩川２９２８番地１,,20,203,3860401,,,2024-11-18,清算の結了等,,,2015-10-05,1,,,,,トウシンドウテラニシヤッキョク,0
2306,9100005006049,登記記録の閉鎖等,0,2024-11-26,2024-10-09,天理教神林分教会,,その他の設立登記法人,長野県,松本市,大字神林３９７５番地,,20,202,3901243,,,2024-10-09,合併による解散等,3100005006038,令和６年１０月９日長野県松本市大字南浅間６２４番地天理教信陽分教会（3100005006038）に合併し解散,2015-10-05,1,,,,,テンリキョウカンバヤシブンキョウカイ,0
2337,9130001039454,登記記録の閉鎖等,0,2024-11-26,2024-11-21,株式会社なっぷ,,株式会社,京都府,八幡市,美濃山幸水１８番地６,,26,210,6148279,,,2024-11-21,清算の結了等,,,2015-10-05,1,,,,,ナップ,0
2364,9180302010308,登記記録の閉鎖等,0,2024-11-26,2024-11-14,有限会社山照物産,,有限会社,愛知県,豊橋市,牧野町２１８番地の２,,23,201,4418112,,,2024-11-14,清算の結了等,,,2015-10-05,1,,,,,ヤマテルブッサン,0
2381,9260002022388,登記記録の閉鎖等,0,2024-11-26,2024-11-22,有限会社イリミテ,,有限会社,岡山県,倉敷市,二子１３０番地の８,,33,202,7010115,,,2024-11-22,清算の結了等,,,2015-10-05,1,,,,,イリミテ,0
2383,9270002004732,登記記録の閉鎖等,0,2024-11-26,2024-11-21,有限会社ヤマケン,,有限会社,鳥取県,八頭郡智頭町,大字三吉４６１番地２,,31,328,6891434,,,2024-11-21,清算の結了等,,,2015-10-05,1,,,,,ヤマケン,0
2384,9290001051963,登記記録の閉鎖等,0,2024-11-26,2024-10-25,アシストユアライフ株式会社,,株式会社,福岡県,久留米市,宮ノ陣２丁目２番５５号,,40,203,8390801,,,2024-10-25,清算の結了等,,,2015-10-05,1,,,,,,0
2406,9340001012308,登記記録の閉鎖等,0,2024-11-26,2024-11-20,ＳＨＩＮＫＡ　Ｆｏｒｃｅ鹿児島株式会社,,株式会社,鹿児島県,霧島市,国分清水３８２番地,,46,218,8994304,,,2024-11-20,合併による解散等,3330001009681,令和６年１０月１日熊本県合志市竹迫２３０番地ＳＨＩＮＫＡ　Ｆｏｒｃｅ株式会社（3330001009681）に合併し解散,2015-10-05,1,,,,,シンカフォースカゴシマ,0
2408,9340005004862,登記記録の閉鎖等,0,2024-11-26,2024-11-15,瀬戸内町森林組合,,その他の設立登記法人,鹿児島県,大島郡瀬戸内町,大字古仁屋字松江２３番地,,46,525,8941505,,,2024-11-15,清算の結了等,,,2015-10-05,1,,,,,セトウチチョウ,0
2409,9350001015219,登記記録の閉鎖等,0,2024-11-26,2024-11-22,株式会社ＫＴＫ,,株式会社,大分県,大分市,生石４丁目３番８号,,44,201,8700003,,,2024-11-22,清算の結了等,,,2018-04-12,1,,,,,ケイティケイ,0
2425,9430001010723,登記記録の閉鎖等,0,2024-11-26,2024-11-11,株式会社ティアール,,株式会社,北海道,札幌市東区,北三十九条東３丁目１番５号,,01,103,0070839,,,2024-11-11,清算の結了等,,,2015-10-05,1,,,,,ティアール,0
2430,9430002030290,登記記録の閉鎖等,0,2024-11-26,2024-11-25,有限会社遊山,,有限会社,北海道,札幌市中央区,南四条東４丁目１１番地マストライフ南４条１０１号,,01,101,0600054,,,2024-11-25,清算の結了等,,,2015-10-05,1,,,,,ユサン,0
2431,9430002055619,登記記録の閉鎖等,0,2024-11-26,2024-11-19,有限会社優理美容材料店,,有限会社,北海道,小樽市,稲穂４丁目１番１０号,,01,203,0470032,,,2024-11-19,清算の結了等,,,2015-10-05,1,,,,,ユリビヨウザイリョウテン,0
2437,9450001000045,登記記録の閉鎖等,0,2024-11-26,2024-11-25,揚原建装工業株式会社,,株式会社,北海道,旭川市,三条通３丁目右４号,,01,204,0700033,,,2024-11-25,清算の結了等,,,2015-10-05,1,,,,,アゲハラケンソウコウギョウ,0
