sequenceNumber,corporateNumber,process,correct,updateDate,changeDate,name,nameImageId,kind,prefectureName,cityName,streetNumber,addressImageId,prefectureCode,cityCode,postCode,addressOutside,addressOutsideImageId,closeDate,closeCause,successorCorporateNumber,changeCause,assignmentDate,latest,enName,enPrefectureName,enCityName,enAddressOutside,furigana,hihyoji
4,1010005034784,新規,0,2022-04-04,2022-04-04,ロイヤル国際協同組合,,その他の設立登記法人,東京都,中央区,佃２丁目１－２－５０１,,13,102,1040051,,,,,,,2022-04-04,1,,,,,ロイヤルコクサイ,0
8,1010401166512,新規,0,2022-04-04,2022-04-04,株式会社ＭｅＤｕｓ,,株式会社,東京都,港区,赤坂４丁目２番３号,,13,103,1070052,,,,,,,2022-04-04,1,,,,,ミーダス,0
9,1010401166520,新規,0,2022-04-04,2022-04-04,ＴＡＤＡ’Ｃ株式会社,,株式会社,東京都,港区,赤坂３丁目１９番１号東京農村４Ｆ,,13,103,1070052,,,,,,,2022-04-04,1,,,,,タダノシー,0
10,1010401166561,新規,0,2022-04-04,2022-04-04,フェイスパートナーズ株式会社,,株式会社,東京都,港区,虎ノ門４丁目３番１号,,13,103,1050001,,,,,,,2022-04-04,1,,,,,フェイスパートナーズ,0
13,1010501048668,新規,0,2022-04-04,2022-04-04,株式会社Ｓｗｅｌｌ,,株式会社,東京都,台東区,浅草橋３丁目３４番１０号パールクレストビル７０１,,13,106,1110053,,,,,,,2022-04-04,1,,,,,スウェル,0
14,1010501048676,新規,0,2022-04-04,2022-04-04,黒中隊株式会社,,株式会社,東京都,台東区,浅草橋２丁目８番６－２０９号,,13,106,1110053,,,,,,,2022-04-04,1,,,,,クロチュウタイ,0
17,1010603009469,新規,0,2022-04-04,2022-04-04,合同会社めぐり,,合同会社,東京都,江東区,大島３丁目１８－１０,,13,108,1360072,,,,,,,2022-04-04,1,,,,,メグリ,0
20,1010901050612,新規,0,2022-04-04,2022-04-04,株式会社ムトウ,,株式会社,東京都,世田谷区,代田５丁目１７－１８エクサムシモキタザワ１０３,,13,112,1550033,,,,,,,2022-04-04,1,,,,,ムトウ,0
21,1010903007271,新規,0,2022-04-04,2022-04-04,合同会社Ｌｏｎｇｔｉｎ,,合同会社,東京都,世田谷区,代田５丁目１７－１８ｅｘａｍｓｈｉｍｏｋｉｔａｚａｗ１０３,,13,112,1550033,,,,,,,2022-04-04,1,,,,,ロンティン,0
33,1011101098368,新規,0,2022-04-04,2022-04-04,株式会社メディカルリサーチ,,株式会社,東京都,新宿区,新宿１丁目２３－１６－６Ｆ,,13,104,1600022,,,,,,,2022-04-04,1,,,,,メディカルリサーチ,0
34,1011301027688,新規,0,2022-04-04,2022-04-04,株式会社バーチャルイベントコンサルティング,,株式会社,東京都,杉並区,阿佐谷南１丁目３８－８,,13,115,1660004,,,,,,,2022-04-04,1,,,,,バーチャルイベントコンサルティング,0
38,1011501027892,新規,0,2022-04-04,2022-04-04,株式会社ハーク,,株式会社,東京都,北区,赤羽１丁目７番９号赤羽第一葉山ビル４階,,13,117,1150045,,,,,,,2022-04-04,1,,,,,ハーク,0
39,1011501027918,新規,0,2022-04-04,2022-04-04,株式会社ミクト,,株式会社,東京都,北区,赤羽１丁目５９番９号,,13,117,1150045,,,,,,,2022-04-04,1,,,,,ミクト,0
46,1012803002740,新規,0,2022-04-04,2022-04-04,Ｉｎｔｅｒｌｉｎｋ合同会社,,合同会社,東京都,国分寺市,富士本１丁目３２番地４６,,13,214,1850031,,,,,,,2022-04-04,1,,,,,インターリンク,0
48,1020001145915,新規,0,2022-04-04,2022-04-04,株式会社Ｎｅｗ　Ｅｒａ　ＴＯＫＹＯ　Ｅｎｔｅｒｔａｉｎｍｅｎｔ,,株式会社,神奈川県,横浜市保土ケ谷区,上菅田町１５３８番地の１０,,14,106,2400051,,,,,,,2022-04-04,1,,,,,ニューエラトーキョーエンターテインメント,0
55,1021001075565,新規,0,2022-04-04,2022-04-04,株式会社信愛建商,,株式会社,神奈川県,厚木市,温水１９８３番地１８,,14,212,2430033,,,,,,,2022-04-04,1,,,,,シンアイケンショウ,0
57,1021003011535,新規,0,2022-04-04,2022-04-04,ａＷＯＲＫＳ合同会社,,合同会社,神奈川県,横須賀市,公郷町２丁目１９番地８,,14,201,2380022,,,,,,,2022-04-04,1,,,,,エーワークス,0
65,1040001122854,新規,0,2022-04-04,2022-04-04,株式会社エムアージュ,,株式会社,千葉県,千葉市花見川区,武石町１丁目１６４２番地,,12,102,2620031,,,,,,,2022-04-04,1,,,,,エムアージュ,0
69,1040003019776,新規,0,2022-04-04,2022-04-04,エヌライン合同会社,,合同会社,千葉県,印西市,若萩１丁目８番地２０,,12,231,2701609,,,,,,,2022-04-04,1,,,,,エヌライン,0
80,1070001039105,新規,0,2022-04-04,2022-04-04,エルスピーナアイズ株式会社,,株式会社,群馬県,高崎市,貝沢町９６９番地１,,10,202,3700042,,,,,,,2022-04-04,1,,,,,エルスピーナアイズ,0
81,1070001039113,新規,0,2022-04-04,2022-04-04,株式会社Ｐｒｉｍｅ　ｔｉｍｅ,,株式会社,群馬県,前橋市,千代田町５丁目６番１号－１階,,10,201,3710022,,,,,,,2022-04-04,1,,,,,プライムタイム,0
82,1070005009970,新規,0,2022-04-04,2022-04-04,医療法人ＳＤＨ,,その他の設立登記法人,群馬県,北群馬郡榛東村,大字山子田１４８２番地２,,10,344,3703502,,,,,,,2022-04-04,1,,,,,エスディーエイチ,0
84,1080001024840,新規,0,2022-04-04,2022-04-04,株式会社キャリアネット,,株式会社,静岡県,静岡市駿河区,西中原２丁目４番１０号２階Ａ号室,,22,102,4228053,,,,,,,2022-04-04,1,,,,,キャリアネット,0
86,1080101023197,新規,0,2022-04-04,2022-04-04,株式会社フロントワーク,,株式会社,静岡県,富士市,松岡６０５番地の１６,,22,210,4160909,,,,,,,2022-04-04,1,,,,,フロントワーク,0
90,1100005012847,新規,0,2022-04-04,2022-04-04,一般社団法人ｃｏｍｐａｓｓ,,その他の設立登記法人,長野県,長野市,三輪９丁目４３番１８号,,20,201,3800803,,,,,,,2022-04-04,1,,,,,コンパス,0
100,1120001244830,新規,0,2022-04-04,2022-04-04,株式会社オンリーワン,,株式会社,大阪府,大阪市北区,梅田１丁目１－３大阪駅前第３ビル２９階１－１－１号室,,27,127,5300001,,,,,,,2022-04-04,1,,,,,オンリーワン,0
107,1122003002308,新規,0,2022-04-04,2022-04-04,合同会社一心建設工業,,合同会社,大阪府,東大阪市,新家中町１番８－６０４号,,27,227,5770027,,,,,,,2022-04-04,1,,,,,イッシンケンセツコウギョウ,0
110,1130001071464,新規,0,2022-04-04,2022-04-04,株式会社小林嘉風苑,,株式会社,京都府,京都市北区,紫竹栗栖町２９番地の２１,,26,101,6038435,,,,,,,2022-04-04,1,,,,,コバヤシカフウエン,0
111,1130001071472,新規,0,2022-04-04,2022-04-04,株式会社におい科学研究所,,株式会社,京都府,京都市南区,吉祥院長田町４８ビアンコジャパン内,,26,107,6018362,,,,,,,2022-04-04,1,,,,,ニオイカガクケンキュウショ,0
112,1130003007854,新規,0,2022-04-04,2022-04-04,Ｆｕｋｕｎａｇａ．ＬＬＣ合同会社,,合同会社,京都府,京都市南区,久世東土川町２９１－３,,26,107,6018204,,,,,,,2022-04-04,1,,,,,フクナガエルエルシー,0
116,1140001125418,新規,0,2022-04-04,2022-04-04,株式会社ライズスタイル,,株式会社,兵庫県,神戸市西区,伊川谷町長坂９７８グランドポイント１号棟,,28,111,6512104,,,,,,,2022-04-04,1,,,,,ライズスタイル,0
117,1140001125533,新規,0,2022-04-04,2022-04-04,株式会社Ｏｈ‐Ｌｉｎｋ,,株式会社,兵庫県,神戸市中央区,下山手通４丁目１４－１０,,28,110,6500011,,,,,,,2022-04-04,1,,,,,オーリンク,0
124,1160001024089,新規,0,2022-04-04,2022-04-04,株式会社森雅建築,,株式会社,滋賀県,大津市,逢坂１丁目１４－２０,00126138,25,201,5200054,,,,,,,2022-04-04,1,,,,,モリマサケンチク,0
129,1180001150627,新規,0,2022-04-04,2022-04-04,株式会社ｔｒｙａｎｇｌｅ,,株式会社,愛知県,江南市,高屋町十六田１６９番地１,,23,217,4838064,,,,,,,2022-04-04,1,,,,,トライアングル,0
130,1180001150643,新規,0,2022-04-04,2022-04-04,株式会社ａｓＵ福祉機構,,株式会社,愛知県,名古屋市緑区,鳴海町字上ノ山２番地１,,23,114,4580842,,,,,,,2022-04-04,1,,,,,アズユーフクシキコウ,0
139,1200001039900,新規,0,2022-04-04,2022-04-04,株式会社ソンセリテ,,株式会社,岐阜県,瑞浪市,稲津町小里１１６３番地の１５,,21,208,5096103,,,,,,,2022-04-04,1,,,,,ソンセリテ,0
140,1200001039925,新規,0,2022-04-04,2022-04-04,株式会社ビズコア,,株式会社,岐阜県,関市,寿町２丁目２番３号,,21,205,5013908,,,,,,,2022-04-04,1,,,,,ビズコア,0
154,1260001036693,新規,0,2022-04-04,2022-04-04,株式会社クレド,,株式会社,岡山県,岡山市中区,東川原２５０番地４２,,33,102,7038255,,,,,,,2022-04-04,1,,,,,クレド,0
155,1260001036710,新規,0,2022-04-04,2022-04-04,和源株式会社,,株式会社,岡山県,井原市,七日市町１２２番地１,,33,207,7150014,,,,,,,2022-04-04,1,,,,,ワゲン,0
156,1260003003865,新規,0,2022-04-04,2022-04-04,スマイルランチ合同会社,,合同会社,岡山県,総社市,真壁１８１番地１,,33,208,7191134,,,,,,,2022-04-04,1,,,,,スマイルランチ,0
157,1260005011057,新規,0,2022-04-04,2022-04-04,司法書士法人吉井財務,,その他の設立登記法人,岡山県,岡山市北区,青江１丁目４番１６号,,33,101,7000941,,,,,,,2022-04-04,1,,,,,ヨシイザイム,0
164,1290001097056,新規,0,2022-04-04,2022-04-04,株式会社北岡建設,,株式会社,福岡県,久留米市,山川町１３５３番地１４,,40,203,8390817,,,,,,,2022-04-04,1,,,,,キタオカケンセツ,0
165,1290001097080,新規,0,2022-04-04,2022-04-04,株式会社庭考房,,株式会社,福岡県,福岡市西区,大字金武７１１番地,,40,135,8190035,,,,,,,2022-04-04,1,,,,,ニワコウボウ,0
177,1340001024616,新規,0,2022-04-04,2022-04-04,株式会社エスデネック,,株式会社,鹿児島県,鹿児島市,平川町６０２２番地１,,46,201,8910133,,,,,,,2022-04-04,1,,,,,エスデネック,0
180,1350001017676,新規,0,2022-04-04,2022-04-04,株式会社Ｓｔａｎｄ　Ｕｐ　Ｌａｂ,,株式会社,宮崎県,宮崎市,大工３丁目２９６番地２レクシア宮崎大橋アクアテラス３０１号,,45,201,8800015,,,,,,,2022-04-04,1,,,,,スタンドアップラボ,0
184,1350005006056,新規,0,2022-04-04,2022-04-04,医療法人桜光会いまいクリニック,,その他の設立登記法人,宮崎県,宮崎市,吉村町ハシテ甲２３８０番地１,,45,201,8800841,,,,,,,2022-04-04,1,,,,,オウコウカイイマイクリニック,0
185,1370001048380,新規,0,2022-04-04,2022-04-04,株式会社由巧,,株式会社,宮城県,仙台市宮城野区,鶴巻２丁目２番１０号,,04,102,9830024,,,,,,,2022-04-04,1,,,,,ヨシコウ,0
187,1370003005636,新規,0,2022-04-04,2022-04-04,合同会社アメジストロック,,合同会社,宮城県,仙台市泉区,住吉台西４丁目５番地の３,,04,105,9813223,,,,,,,2022-04-04,1,,,,,アメジストロック,0
198,1390001016848,新規,0,2022-04-04,2022-04-04,株式会社ファーグ,,株式会社,山形県,南陽市,金山４７９４番地,,06,213,9920471,,,,,,,2022-04-04,1,,,,,ファーグ,0
199,1450001013649,新規,0,2022-04-04,2022-04-04,株式会社ｈｉｎｏｋｉｄａ,,株式会社,北海道,旭川市,永山二条２１丁目３番１４号,,01,204,0798412,,,,,,,2022-04-04,1,,,,,ヒノキダ,0
200,1460001005678,新規,0,2022-04-04,2022-04-04,株式会社冨坂,,株式会社,北海道,阿寒郡鶴居村,字幌呂原野第一基線２７番地６,,01,667,0851200,,,,,,,2022-04-04,1,,,,,トミサカ,0
201,1460305001976,新規,0,2022-04-04,2022-04-04,農事組合法人高園第二生産組合,,その他の設立登記法人,北海道,常呂郡訓子府町,字高園２２４番地３,,01,549,0991405,,,,,,,2022-04-04,1,,,,,タカゾノダイニセイサンクミアイ,0
203,1480001011690,新規,0,2022-04-04,2022-04-04,住まいる建設株式会社,,株式会社,徳島県,徳島市,南出来島町１丁目７０番地の２,,36,201,7700824,,,,,,,2022-04-04,1,,,,,スマイルケンセツ,0
205,1500001024087,新規,0,2022-04-04,2022-04-04,株式会社ＨＫＴ,,株式会社,愛媛県,松山市,西長戸町６２番地２,,38,201,7918017,,,,,,,2022-04-04,1,,,,,エイチケイティ,0
206,1500001024095,新規,0,2022-04-04,2022-04-04,愛ちゃん株式会社,,株式会社,愛媛県,松山市,鴨川２丁目１１番３８号,,38,201,7918004,,,,,,,2022-04-04,1,,,,,アイチャン,0
207,1500001024104,新規,0,2022-04-04,2022-04-04,株式会社ＲＳ仙波,,株式会社,愛媛県,東温市,南方１７３８番地２５,,38,215,7910301,,,,,,,2022-04-04,1,,,,,アールエスセンバ,0
209,1700150104834,新規,0,2022-04-04,2021-09-21,ｅＮ　ｐｒｏｊｅｃｔ,,その他,東京都,新宿区,北新宿２丁目３－１６Ｍ．Ｆｌａｔ４０２,,13,104,1690074,,,,,,,2021-09-21,1,,,,,エンプロジエクト,0
210,1700150104958,新規,0,2022-04-04,2021-10-04,マーベラス・スタジオ,,その他,宮城県,仙台市青葉区,台原５丁目１３－２４,,04,101,9810911,,,,,,,2021-10-04,1,,,,,マーベラススタジオ,0
223,2010403027380,新規,0,2022-04-04,2022-04-04,合同会社ＲＳコンサルティング,,合同会社,東京都,港区,高輪４丁目１５番７号,,13,103,1080074,,,,,,,2022-04-04,1,,,,,アールエスコンサルティング,0
224,2010405020895,新規,0,2022-04-04,2022-04-04,Ｄｉｓｃｏｖｅｒｙ２一般社団法人,,その他の設立登記法人,東京都,港区,赤坂２丁目１０番５号税理士法人赤坂国際会計事務所内,,13,103,1070052,,,,,,,2022-04-04,1,,,,,ディスカバリーツー,0
225,2010501048659,新規,0,2022-04-04,2022-04-04,株式会社浅草物流,,株式会社,東京都,台東区,浅草６丁目２２番１６－１００３号コンフォラス浅草,,13,106,1110032,,,,,,,2022-04-04,1,,,,,アサクサブツリュウ,0
226,2010701042429,新規,0,2022-04-04,2022-04-04,株式会社ＴＫＧ,,株式会社,東京都,品川区,上大崎２丁目１７番３号,,13,109,1410021,,,,,,,2022-04-04,1,,,,,ティーケージー,0
235,2011001146226,新規,0,2022-04-04,2022-04-04,ＡＴＯ株式会社,,株式会社,東京都,渋谷区,道玄坂１丁目１０番５号,,13,113,1500043,,,,,,,2022-04-04,1,,,,,アト,0
236,2011001146572,新規,0,2022-04-04,2022-04-04,ＳＯＵＱ株式会社,,株式会社,東京都,渋谷区,神宮前６丁目２３－４桑野ビル２Ｆ,,13,113,1500001,,,,,,,2022-04-04,1,,,,,スーク,0
237,2011001146663,新規,0,2022-04-04,2022-04-04,株式会社Ｍｏｕｎｔａｉｎ,,株式会社,東京都,渋谷区,神宮前５丁目７番２０号,,13,113,1500001,,,,,,,2022-04-04,1,,,,,マウンテン,0
245,2011601025845,新規,0,2022-04-04,2022-04-04,株式会社ウエプロジェクト,,株式会社,東京都,練馬区,練馬１丁目２０番８号日建練馬ビル２Ｆ,,13,120,1760001,,,,,,,2022-04-04,1,,,,,ウエプロジョクト,0
259,2020001145872,新規,0,2022-04-04,2022-04-04,すなおハート株式会社,,株式会社,神奈川県,横浜市神奈川区,菅田町２８４９番地９,,14,102,2210864,,,,,,,2022-04-04,1,,,,,スナオハート,0
260,2020001145889,新規,0,2022-04-04,2022-04-04,株式会社Ｌｕｍｉｎｏｕｓ　Ａｒｔｗｏｒｋｓ,,株式会社,神奈川県,横浜市西区,北幸１丁目１１番１号水信ビル７階,,14,103,2200004,,,,,,,2022-04-04,1,,,,,ルミナスアートワークス,0
261,2020001145955,新規,0,2022-04-04,2022-04-04,株式会社ＮＩＪＩＮ,,株式会社,神奈川県,横浜市港北区,篠原町９９２－２,,14,109,2220026,,,,,,,2022-04-04,1,,,,,ニジン,0
265,2020003021535,新規,0,2022-04-04,2022-04-04,合同会社スリーゲイン,,合同会社,神奈川県,横浜市金沢区,六浦南２丁目３３番１４号,,14,108,2360038,,,,,,,2022-04-04,1,,,,,スリーゲイン,0
269,2021001075564,新規,0,2022-04-04,2022-04-04,株式会社ＨＡＬＣＯＮ,,株式会社,神奈川県,厚木市,下荻野５８９番地１,,14,212,2430203,,,,,,,2022-04-04,1,,,,,アルコン,0
270,2021003011534,新規,0,2022-04-04,2022-04-04,合同会社太平兄弟,,合同会社,神奈川県,平塚市,土屋２２９５番地の６０,,14,203,2591205,,,,,,,2022-04-04,1,,,,,タヘイキョウダイ,0
271,2021003011542,新規,0,2022-04-04,2022-04-04,合同会社喜栄工業,,合同会社,神奈川県,秦野市,鈴張町６番４９号,,14,211,2570055,,,,,,,2022-04-04,1,,,,,ユキマサコウギョウ,0
275,2040001122812,新規,0,2022-04-04,2022-04-04,株式会社エリアライブ,,株式会社,千葉県,成田市,中台１丁目１番地１（１１棟５０５号）,,12,211,2860015,,,,,,,2022-04-04,1,,,,,エリアライブ,0
276,2040001122820,新規,0,2022-04-04,2022-04-04,株式会社グリシーヌ,,株式会社,千葉県,松戸市,日暮３丁目５番地の５,,12,207,2702253,,,,,,,2022-04-04,1,,,,,グリシーヌ,0
278,2040003019767,新規,0,2022-04-04,2022-04-04,家賃が実る家投資事業第１号合同会社,,合同会社,千葉県,いすみ市,岩船１８７２番地１南房総オーシャンフロントヴィラ２Ｆ,,12,238,2980011,,,,,,,2022-04-04,1,,,,,ヤチンガミノルイエトウシジギョウダイイチゴウ,0
285,2070001039095,新規,0,2022-04-04,2022-04-04,株式会社長井製作所,,株式会社,群馬県,渋川市,中郷４６０番地５９,,10,208,3770202,,,,,,,2022-04-04,1,,,,,ナガイセイサクショ,0
289,2080001024831,新規,0,2022-04-04,2022-04-04,株式会社ＩＧＩ,,株式会社,静岡県,島田市,金谷代官町２８４番地の１６,,22,209,4280012,,,,,,,2022-04-04,1,,,,,アイジーアイ,0
290,2080001024848,新規,0,2022-04-04,2022-04-04,株式会社ジョーショウ,,株式会社,静岡県,静岡市葵区,瀬名川１丁目３２番３７号,,22,101,4200913,,,,,,,2022-04-04,1,,,,,ジョーショウ,0
294,2080003002769,新規,0,2022-04-04,2022-04-04,Ｒｉｔａ合同会社,,合同会社,静岡県,静岡市葵区,沓谷５丁目５８番地の２７,,22,101,4200816,,,,,,,2022-04-04,1,,,,,リタ,0
295,2080101023196,新規,0,2022-04-04,2022-04-04,株式会社ゲンキッズプラス,,株式会社,静岡県,伊東市,岡４３番地２,,22,208,4140055,,,,,,,2022-04-04,1,,,,,ゲンキッズプラス,0
296,2080105006239,新規,0,2022-04-04,2022-04-04,アインス税理士法人,,その他の設立登記法人,静岡県,三島市,西本町１１番５号ＴＯＫＥＮビル２Ｆ,,22,206,4110847,,,,,,,2022-04-04,1,,,,,アインス,0
297,2090001017495,新規,0,2022-04-04,2022-04-04,Ｊ．Ａ株式会社,,株式会社,山梨県,富士吉田市,上吉田５３６８番地の１－２号室,,19,202,4030005,,,,,,,2022-04-04,1,,,,,,0
310,2120001244788,新規,0,2022-04-04,2022-04-04,ＷＯＲＴＨ株式会社,,株式会社,大阪府,大阪市中央区,玉造１丁目２３－１０－２階,,27,128,5400004,,,,,,,2022-04-04,1,,,,,ワース,0
311,2120001244796,新規,0,2022-04-04,2022-04-04,株式会社キズナ,,株式会社,大阪府,大阪市西区,南堀江４丁目７番１－８２３号,,27,106,5500015,,,,,,,2022-04-04,1,,,,,キズナ,0
315,2122001035721,新規,0,2022-04-04,2022-04-04,株式会社まなこ,,株式会社,大阪府,四條畷市,楠公２丁目９番１１号,,27,229,5750023,,,,,,,2022-04-04,1,,,,,マナコ,0
317,2122003002307,新規,0,2022-04-04,2022-04-04,合同会社アルティア,,合同会社,大阪府,東大阪市,衣摺５丁目２０番３７号,,27,227,5770827,,,,,,,2022-04-04,1,,,,,アルティア,0
321,2130001071439,新規,0,2022-04-04,2022-04-04,大和寿商事運輸株式会社,,株式会社,京都府,木津川市,加茂町兎並船屋４８番地１,,26,214,6191112,,,,,,,2022-04-04,1,,,,,ヤマトジュショウジウンユ,0
328,2140001125474,新規,0,2022-04-04,2022-04-04,株式会社Ｃｈｅｒｉｓｈ　Ｌｉｖｉｎｇ,,株式会社,兵庫県,神戸市東灘区,御影郡家１丁目２５番１４－８０１号,,28,101,6580048,,,,,,,2022-04-04,1,,,,,チェリッシュリビング,0
329,2140001125532,新規,0,2022-04-04,2022-04-04,株式会社ＡＣＳ　Ｖｅｔ,,株式会社,兵庫県,神戸市中央区,中山手通４丁目３－６,,28,110,6500004,,,,,,,2022-04-04,1,,,,,エーシーエスベット,0
332,2160001024088,新規,0,2022-04-04,2022-04-04,株式会社森工務店,,株式会社,滋賀県,甲賀市,信楽町長野３４３番地,,25,209,5291851,,,,,,,2022-04-04,1,,,,,モリコウムテン,0
336,2170001017033,新規,0,2022-04-04,2022-04-04,株式会社Ｗａｎ　ｌｉｆｅ,,株式会社,和歌山県,西牟婁郡上富田町,朝来３２６番地の３５８,,30,404,6492105,,,,,,,2022-04-04,1,,,,,ワンライフ,0
344,2180001150618,新規,0,2022-04-04,2022-04-04,ＡｒｏｕｎｄＥＰ株式会社,,株式会社,愛知県,一宮市,大和町福森字郷中４６番地１,,23,203,4910935,,,,,,,2022-04-04,1,,,,,アラウンドイーピー,0
345,2180001150683,新規,0,2022-04-04,2022-04-04,株式会社ＫＡＥＲＵ,,株式会社,愛知県,名古屋市瑞穂区,直来町４丁目３０番地の６,,23,108,4670865,,,,,,,2022-04-04,1,,,,,カエル,0
346,2180001150717,新規,0,2022-04-04,2022-04-04,株式会社サピュイエ,,株式会社,愛知県,名古屋市中区,栄３丁目２番３号名古屋日興證券ビル４階,,23,106,4600008,,,,,,,2022-04-04,1,,,,,サピュイエ,0
353,2180003023672,新規,0,2022-04-04,2022-04-04,合同会社ＴＳＭＭ,,合同会社,愛知県,名古屋市瑞穂区,弥富町字桜ケ岡１７番地の１,,23,108,4670000,,,,,,,2022-04-04,1,,,,,ティーエスエムエム,0
357,2200001039916,新規,0,2022-04-04,2022-04-04,ＧＲＣ・ＰＥＤＲＩＳ株式会社,,株式会社,岐阜県,岐阜市,折立３１４番地１セイナビル２階Ａ,,21,201,5011132,,,,,,,2022-04-04,1,,,,,ジーアールシーペドリス,0
358,2200001039924,新規,0,2022-04-04,2022-04-04,株式会社ＣＲＡＦＴ３６,,株式会社,岐阜県,関市,下有知５４６８番地１,,21,205,5013217,,,,,,,2022-04-04,1,,,,,クラフトサンジュウロク,0
359,2200001039940,新規,0,2022-04-04,2022-04-04,株式会社三輝,,株式会社,岐阜県,岐阜市,茜部新所４丁目７８番地,,21,201,5008263,,,,,,,2022-04-04,1,,,,,サンキ,0
365,2240001059522,新規,0,2022-04-04,2022-04-04,株式会社富寿,,株式会社,広島県,福山市,御幸町中津原４４３番地１,,34,207,7210000,,,,,,,2022-04-04,1,,,,,トミヒサ,0
368,2240003005573,新規,0,2022-04-04,2022-04-04,Ｔｐｌａｃｅ合同会社,,合同会社,広島県,広島市中区,袋町２番２５号,,34,101,7300036,,,,,,,2022-04-04,1,,,,,ティープレイス,0
374,2260001036684,新規,0,2022-04-04,2022-04-04,Ｐｈｉ　Ｗｅｄｇｅ株式会社,,株式会社,岡山県,総社市,新本７２７１番地,,33,208,7101203,,,,,,,2022-04-04,1,,,,,ファイウェッジ,0
375,2260001036692,新規,0,2022-04-04,2022-04-04,株式会社Ｐｌｕｓ　Ｌｉｎｏ,,株式会社,岡山県,岡山市北区,伊島町２丁目２２番２９号,,33,101,7000016,,,,,,,2022-04-04,1,,,,,プラスリノ,0
376,2260001036701,新規,0,2022-04-04,2022-04-04,株式会社快活工房,,株式会社,岡山県,岡山市南区,豊成２丁目４番２０号,,33,104,7000942,,,,,,,2022-04-04,1,,,,,カイカツコウボウ,0
377,2260001036718,新規,0,2022-04-04,2022-04-04,株式会社フォレスト,,株式会社,岡山県,岡山市北区,大供１丁目６番１号,,33,101,7000913,,,,,,,2022-04-04,1,,,,,フォレスト,0
378,2260003003864,新規,0,2022-04-04,2022-04-04,ダイソウキッチン合同会社,,合同会社,岡山県,総社市,真壁１８１番地１,,33,208,7191134,,,,,,,2022-04-04,1,,,,,ダイソウキッチン,0
385,2290001097022,新規,0,2022-04-04,2022-04-04,株式会社Ｉｎ‐Ｏｕｔ,,株式会社,福岡県,糟屋郡粕屋町,大字江辻１７５番地,00126136,40,349,8112313,,,,,,,2022-04-04,1,,,,,インアウト,0
389,2290005018610,新規,0,2022-04-04,2022-04-04,一般社団法人九州地質調査業協会,,その他の設立登記法人,福岡県,福岡市博多区,博多駅東２丁目４番３０号,,40,132,8120013,,,,,,,2022-04-04,1,,,,,キュウシュウチシツチョウサギョウキョウカイ,0
391,2310001017786,新規,0,2022-04-04,2022-04-04,株式会社浪方勇希事務所,,株式会社,長崎県,長崎市,油屋町１番１号,,42,201,8500832,,,,,,,2022-04-04,1,,,,,ナミカタユウキジムショ,0
398,2360003011898,新規,0,2022-04-04,2022-04-04,合同会社ＳＡｓｔｙｌｅ,,合同会社,沖縄県,中頭郡読谷村,字古堅１７５番地２,,47,324,9040314,,,,,,,2022-04-04,1,,,,,エスエースタイル,0
408,2400005008228,新規,0,2022-04-04,2022-04-04,一般財団法人岩手県薬剤師会検査センター,,その他の設立登記法人,岩手県,盛岡市,上堂３丁目１７番３７号,,03,201,0200125,,,,,,,2022-04-04,1,,,,,イワテケンヤクザイシカイケンサセンター,0
412,2430001086332,新規,0,2022-04-04,2022-04-04,日本環境設備株式会社,,株式会社,北海道,札幌市豊平区,月寒東二条１６丁目１１番３号,,01,105,0620052,,,,,,,2022-04-04,1,,,,,ニホンカンキョウセツビ,0
416,2460001005677,新規,0,2022-04-04,2022-04-04,東北海道住宅供給株式会社,,株式会社,北海道,釧路市,昭和中央４丁目４番１４号,,01,206,0840910,,,,,,,2022-04-04,1,,,,,ヒガシホッカイドウジュウタクキョウキュウ,0
420,2500001024094,新規,0,2022-04-04,2022-04-04,株式会社久保建設,,株式会社,愛媛県,伊予市,中山町出渕２番耕地３７５７番地,,38,210,7913204,,,,,,,2022-04-04,1,,,,,クボケンセツ,0
421,2500001024103,新規,0,2022-04-04,2022-04-04,株式会社仙波工業,,株式会社,愛媛県,松山市,北吉田町１２２４番地８,,38,201,7918041,,,,,,,2022-04-04,1,,,,,センバコウギョウ,0
422,2500001024111,新規,0,2022-04-04,2022-04-04,株式会社ＡＭＢＥＲ　ＭＡＳＴ,,株式会社,愛媛県,松山市,衣山５丁目８１５番地２,,38,201,7918025,,,,,,,2022-04-04,1,,,,,アンバーマスト,0
423,2700150036564,新規,0,2022-04-04,2015-10-09,岩手医学会,,その他,岩手県,紫波郡矢巾町,医大通１丁目１－１岩手医科大学内,,03,322,0283609,,,,,,,2015-10-09,1,,,,,イワテイガツカイ,0
425,2700150105534,新規,0,2022-04-04,2021-10-29,あづみ野サウンドスケープ,,その他,長野県,安曇野市,穂高３９８７－８,,20,220,3998303,,,,,,,2021-10-29,1,,,,,アヅミノサウンドスケープ,0
426,2700150107316,新規,0,2022-04-04,2022-03-09,ＷＨＩＴＥ　ＷＡＹ,,その他,東京都,板橋区,幸町１９－５泉食品ビル３０２,,13,119,1730034,,,,,,,2022-03-09,1,,,,,ホワイトウエイ,0
438,3010403027396,新規,0,2022-04-04,2022-04-04,リバティＩＰ合同会社,,合同会社,東京都,港区,北青山２丁目７番１３号プラセオ青山ビル３階,,13,103,1070061,,,,,,,2022-04-04,1,,,,,リバティアイピー,0
439,3010405020894,新規,0,2022-04-04,2022-04-04,Ｄｉｓｃｏｖｅｒｙ１一般社団法人,,その他の設立登記法人,東京都,港区,赤坂２丁目１０番５号税理士法人赤坂国際会計事務所内,,13,103,1070052,,,,,,,2022-04-04,1,,,,,ディスカバリーワン,0
443,3010601060918,新規,0,2022-04-04,2022-04-04,墨田ベース株式会社,,株式会社,東京都,墨田区,千歳３丁目１７番２３号,,13,107,1300025,,,,,,,2022-04-04,1,,,,,スミダベース,0
455,3010901050610,新規,0,2022-04-04,2022-04-04,株式会社スーパーイージー,,株式会社,東京都,世田谷区,三軒茶屋１丁目３３－１１,,13,112,1540024,,,,,,,2022-04-04,1,,,,,スーパーイージー,0
456,3010901050619,新規,0,2022-04-04,2022-04-04,株式会社あのね,,株式会社,東京都,世田谷区,北沢２丁目１９－１２白川ビル４Ｆ,,13,112,1550031,,,,,,,2022-04-04,1,,,,,アノネ,0
459,3011001146019,新規,0,2022-04-04,2022-04-04,株式会社プロスパー,,株式会社,東京都,渋谷区,円山町５－５,,13,113,1500044,,,,,,,2022-04-04,1,,,,,プロスパー,0
460,3011001146670,新規,0,2022-04-04,2022-04-04,株式会社アレーズ,,株式会社,東京都,渋谷区,神宮前６丁目２３番４号桑野ビル２階,,13,113,1500001,,,,,,,2022-04-04,1,,,,,アレーズ,0
461,3011001146679,新規,0,2022-04-04,2022-04-04,株式会社ｃｏｔｔａｇｅ,,株式会社,東京都,目黒区,中目黒２丁目８番１７－３０４号マイキャッスル中目黒ＩＩＩ,00126131,13,110,1530061,,,,,,,2022-04-04,1,,,,,コテージ,0
463,3011005009519,新規,0,2022-04-04,2022-04-04,一般社団法人発起社,,その他の設立登記法人,東京都,目黒区,目黒２丁目１１番３,,13,110,1530063,,,,,,,2022-04-04,1,,,,,ホッキシャ,0
469,3011601025836,新規,0,2022-04-04,2022-04-04,株式会社トレジャーハント,,株式会社,東京都,練馬区,谷原４丁目１３番８号,,13,120,1770032,,,,,,,2022-04-04,1,,,,,トレジャーハント,0
470,3011601025844,新規,0,2022-04-04,2022-04-04,株式会社東興,,株式会社,東京都,練馬区,中村南１丁目２０番１１号ルミエール・神田Ａ－１０７,,13,120,1760025,,,,,,,2022-04-04,1,,,,,トウコウ,0
472,3011801040528,新規,0,2022-04-04,2022-04-04,株式会社ＫＰ,,株式会社,東京都,足立区,西伊興４丁目８番１５号,,13,121,1210824,,,,,,,2022-04-04,1,,,,,ケーピー,0
478,3012401039027,新規,0,2022-04-04,2022-04-04,株式会社そらまめ,,株式会社,東京都,調布市,布田１丁目４３番地３,,13,208,1820024,,,,,,,2022-04-04,1,,,,,ソラマメ,0
480,3012701017005,新規,0,2022-04-04,2022-04-04,株式会社シャイニングハウス,,株式会社,東京都,東村山市,秋津町５丁目１９番地８９,,13,213,1890001,,,,,,,2022-04-04,1,,,,,シャイニングハウス,0
481,3012703002434,新規,0,2022-04-04,2022-04-04,結い合同会社,,合同会社,東京都,小平市,天神町４丁目２９番９－３０３号,,13,211,1870004,,,,,,,2022-04-04,1,,,,,ユイ,0
484,3012803002739,新規,0,2022-04-04,2022-04-04,合同会社２ｐｉｅｃｅ,,合同会社,東京都,国分寺市,内藤２丁目２番２７号,,13,214,1850033,,,,,,,2022-04-04,1,,,,,トゥーピース,0
494,3020001145921,新規,0,2022-04-04,2022-04-04,株式会社コンソル,,株式会社,神奈川県,横浜市西区,北軽井沢５５番地２６,,14,103,2200001,,,,,,,2022-04-04,1,,,,,コンソル,0
495,3020001145954,新規,0,2022-04-04,2022-04-04,株式会社いすず,,株式会社,神奈川県,横浜市南区,大岡２丁目１６番１７号,,14,105,2320061,,,,,,,2022-04-04,1,,,,,イスズ,0
497,3021001075563,新規,0,2022-04-04,2022-04-04,株式会社エヌオーアール,,株式会社,神奈川県,茅ヶ崎市,小和田３丁目１３番６号ＳＵＮ１０１号,,14,207,2530012,,,,,,,2022-04-04,1,,,,,エヌオーアール,0
498,3021001075571,新規,0,2022-04-04,2022-04-04,株式会社ヤマノウチ,,株式会社,神奈川県,鎌倉市,岡本１５００番地１鎌倉グランマークス５３２号,,14,204,2470072,,,,,,,2022-04-04,1,,,,,ヤマノウチ,0
506,3030001147512,新規,0,2022-04-04,2022-04-04,株式会社コンサルフルサポート,,株式会社,埼玉県,久喜市,吉羽５丁目１４番地２,,11,232,3460014,,,,,,,2022-04-04,1,,,,,コンサルフルサポート,0
514,3040003019790,新規,0,2022-04-04,2022-04-04,合同会社花夏,,合同会社,千葉県,松戸市,上本郷６１８番地の１マンション第八松戸７２１号,,12,207,2710064,,,,,,,2022-04-04,1,,,,,カカ,0
515,3050003006466,新規,0,2022-04-04,2022-04-04,合同会社セブン,,合同会社,茨城県,取手市,戸頭６丁目２番６号,,08,217,3020034,,,,,,,2022-04-04,1,,,,,セブン,0
520,3080001024847,新規,0,2022-04-04,2022-04-04,株式会社プレイスカラー,,株式会社,静岡県,藤枝市,前島３丁目８番１号,,22,214,4260067,,,,,,,2022-04-04,1,,,,,プレイスカラー,0
521,3080001024855,新規,0,2022-04-04,2022-04-04,アイケミホールディングス株式会社,,株式会社,静岡県,静岡市清水区,興津中町１６４２番地,,22,103,4240204,,,,,,,2022-04-04,1,,,,,アイケミホールディングス,0
522,3080105006238,新規,0,2022-04-04,2022-04-04,医療法人社団Ｋ・Ｋ,,その他の設立登記法人,静岡県,駿東郡清水町,久米田２７番地の１,,22,341,4110911,,,,,,,2022-04-04,1,,,,,ケーケー,0
542,3120001244795,新規,0,2022-04-04,2022-04-04,株式会社中島商会,,株式会社,大阪府,大阪市東住吉区,住道矢田７丁目１１番１０号,,27,121,5460022,,,,,,,2022-04-04,1,,,,,ナカジマショウカイ,0
554,3122001035737,新規,0,2022-04-04,2022-04-04,名嘉設備株式会社,,株式会社,大阪府,東大阪市,下六万寺町２丁目１番２５号,,27,227,5798066,,,,,,,2022-04-04,1,,,,,ナカセツビ,0
556,3130001071462,新規,0,2022-04-04,2022-04-04,Ｏｃｔｐｓ株式会社,,株式会社,京都府,京都市中京区,丸太町通西洞院東入田中町１２４番地,,26,104,6040081,,,,,,,2022-04-04,1,,,,,オクトピース,0
563,3140001125432,新規,0,2022-04-04,2022-04-04,ノイマン株式会社,,株式会社,兵庫県,尼崎市,西難波町４丁目１番１２号,,28,202,6600893,,,,,,,2022-04-04,1,,,,,ノイマン,0
566,3140005026115,新規,0,2022-04-04,2022-04-04,医療法人社団いとうメンタルクリニック,,その他の設立登記法人,兵庫県,三田市,駅前町１－３８ＪＲ三田駅ＮＫビル４階,,28,219,6691528,,,,,,,2022-04-04,1,,,,,イトウメンタルクリニック,0
568,3160001024079,新規,0,2022-04-04,2022-04-04,株式会社ＵｐＦｉｅｌｄ,,株式会社,滋賀県,大津市,青山６丁目１０番５号,,25,201,5202101,,,,,,,2022-04-04,1,,,,,アップフィールド,0
574,3180001150609,新規,0,2022-04-04,2022-04-04,造形システム株式会社,,株式会社,愛知県,春日井市,中央通２丁目１０１番地アップルコート春日井１０７号,,23,206,4860825,,,,,,,2022-04-04,1,,,,,ゾウケイシステム,0
575,3180001150666,新規,0,2022-04-04,2022-04-04,株式会社Ｗｏｒｋｓ２,,株式会社,愛知県,豊明市,沓掛町下高根４１番地３,,23,229,4701106,,,,,,,2022-04-04,1,,,,,ワークスツー,0
576,3180001150674,新規,0,2022-04-04,2022-04-04,株式会社ＮＩＮＥ．,,株式会社,愛知県,犬山市,松本町２丁目３７番地,,23,215,4840086,,,,,,,2022-04-04,1,,,,,ナイン,0
577,3180001150699,新規,0,2022-04-04,2022-04-04,株式会社ＴＯＷＡ　ＦＯＲＥＳＴＲＹ,,株式会社,愛知県,瀬戸市,窯町５２０番地の１,,23,204,4801219,,,,,,,2022-04-04,1,,,,,トウワフォレストリー,0
578,3180001150716,新規,0,2022-04-04,2022-04-04,株式会社スプロング,,株式会社,愛知県,名古屋市守山区,鳥神町１１１番地,,23,113,4630088,,,,,,,2022-04-04,1,,,,,スプロング,0
579,3180005019701,新規,0,2022-04-04,2022-04-04,一般社団法人Ｆｉｎｅ介護研究会,,その他の設立登記法人,愛知県,一宮市,一宮字石坪４４番地１,,23,203,4910059,,,,,,,2022-04-04,1,,,,,ファインカイゴケンキュウカイ,0
586,3200001039898,新規,0,2022-04-04,2022-04-04,ナガヤ電業株式会社,,株式会社,岐阜県,揖斐郡大野町,大字大野１００４番地１１,,21,403,5010513,,,,,,,2022-04-04,1,,,,,ナガヤデンギョウ,0
587,3200001039923,新規,0,2022-04-04,2022-04-04,株式会社ＴＯＰ　ＲＯＡＤ,,株式会社,岐阜県,加茂郡八百津町,上牧野３６２番地１,,21,505,5050304,,,,,,,2022-04-04,1,,,,,トップロード,0
588,3200001039931,新規,0,2022-04-04,2022-04-04,株式会社ＳＫＹ　ＡＩＬＥＳＳ,,株式会社,岐阜県,岐阜市,鷺山東２丁目１番５号,,21,201,5020850,,,,,,,2022-04-04,1,,,,,スカイエルズ,0
598,3240003005572,新規,0,2022-04-04,2022-04-04,合同会社ＮＯＡＨ,,合同会社,広島県,広島市西区,三篠町３丁目８－２２田中ビル１０２,,34,104,7330003,,,,,,,2022-04-04,1,,,,,ノア,0
603,3260001036683,新規,0,2022-04-04,2022-04-04,株式会社アルザン,,株式会社,岡山県,岡山市中区,＿東町１丁目１３番２０号,00126130,33,102,7038247,,,,,,,2022-04-04,1,,,,,アルザン,0
604,3260001036709,新規,0,2022-04-04,2022-04-04,株式会社おもせか,,株式会社,岡山県,岡山市北区,田益１４９２番地５,,33,101,7011154,,,,,,,2022-04-04,1,,,,,オモセカ,0
605,3260003003863,新規,0,2022-04-04,2022-04-04,Ｄアシスト合同会社,,合同会社,岡山県,総社市,真壁１８１番地１,,33,208,7191134,,,,,,,2022-04-04,1,,,,,ディアシスト,0
611,3290001097038,新規,0,2022-04-04,2022-04-04,株式会社ａｒＵ,,株式会社,福岡県,福岡市南区,市崎１丁目１番１６号１Ｆ,,40,134,8150084,,,,,,,2022-04-04,1,,,,,アル,0
612,3290001097046,新規,0,2022-04-04,2022-04-04,株式会社Ｆｅｌｉｃｅ　ＳＤＣ,,株式会社,福岡県,福岡市南区,野間４丁目１７番３０号大池ニューハイツ１階,,40,134,8150041,,,,,,,2022-04-04,1,,,,,フェリーチェエスディーシー,0
613,3290001097054,新規,0,2022-04-04,2022-04-04,一彩建設株式会社,,株式会社,福岡県,糟屋郡宇美町,宇美２丁目１０番４号,,40,341,8112101,,,,,,,2022-04-04,1,,,,,ヒイロケンセツ,0
614,3290001097062,新規,0,2022-04-04,2022-04-04,株式会社カネガエ,,株式会社,福岡県,福岡市東区,香椎台１丁目１４番９号,,40,131,8130014,,,,,,,2022-04-04,1,,,,,カネガエ,0
615,3290001097070,新規,0,2022-04-04,2022-04-04,株式会社せいもん払い,,株式会社,福岡県,福岡市博多区,上川端町５番１０７号,,40,132,8120026,,,,,,,2022-04-04,1,,,,,セイモンバライ,0
616,3290001097079,新規,0,2022-04-04,2022-04-04,株式会社Ｋ＆Ｊコンサル,,株式会社,福岡県,福岡市中央区,桜坂１丁目１５番８－６０２号,,40,133,8100024,,,,,,,2022-04-04,1,,,,,ケイアンドジェイコンサル,0
617,3290001097087,新規,0,2022-04-04,2022-04-04,株式会社ｙａｎｏ商会,,株式会社,福岡県,福岡市東区,三苫４丁目５－１８－４０３,,40,131,8110201,,,,,,,2022-04-04,1,,,,,ヤノショウカイ,0
622,3290003012358,新規,0,2022-04-04,2022-04-04,ＡＧＬＩＥＲ合同会社,,合同会社,福岡県,春日市,須玖南４丁目８３番地,,40,218,8160863,,,,,,,2022-04-04,1,,,,,アグリエ,0
631,3330003009309,新規,0,2022-04-04,2022-04-04,合同会社オフィス佐藤,,合同会社,熊本県,宇城市,松橋町松橋４０７番地７,,43,213,8690502,,,,,,,2022-04-04,1,,,,,オフィスサトウ,0
632,3340003003748,新規,0,2022-04-04,2022-04-04,合同会社ＲｏＬｏ　ｓｅｌｅｃｔ,,合同会社,鹿児島県,姶良市,宮島町２２番地４,,46,225,8995432,,,,,,,2022-04-04,1,,,,,ロロセレクト,0
641,3400001015846,新規,0,2022-04-04,2022-04-04,株式会社ＡｔｏＺテクノロジ,,株式会社,岩手県,盛岡市,上田４丁目３－５,,03,201,0200066,,,,,,,2022-04-04,1,,,,,エイトゥゼットテクノロジ,0
642,3400005008235,新規,0,2022-04-04,2022-04-04,一般社団法人滝沢市観光物産協会,,その他の設立登記法人,岩手県,滝沢市,下鵜飼１番地１５,,03,216,0200665,,,,,,,2022-04-04,1,,,,,タキザワシカンコウブッサンキョウカイ,0
646,3430001086315,新規,0,2022-04-04,2022-04-04,株式会社ＮＯＮ,,株式会社,北海道,札幌市豊平区,月寒中央通５丁目２番１２号２Ｆ,,01,105,0620020,,,,,,,2022-04-04,1,,,,,ノン,0
647,3450001013655,新規,0,2022-04-04,2022-04-04,株式会社ニシイファーム,,株式会社,北海道,富良野市,字西達布６号地,,01,229,0760201,,,,,,,2022-04-04,1,,,,,ニシイファーム,0
648,3460001005676,新規,0,2022-04-04,2022-04-04,株式会社リースキン釧路,,株式会社,北海道,釧路市,昭和中央２丁目５番４号,,01,206,0840910,,,,,,,2022-04-04,1,,,,,リースキンクシロ,0
649,3460303000755,新規,0,2022-04-04,2022-04-04,合同会社トラスト,,合同会社,北海道,北見市,小泉３９７番地１１,,01,208,0900001,,,,,,,2022-04-04,1,,,,,トラスト,0
650,3500001024110,新規,0,2022-04-04,2022-04-04,株式会社アイコーポレーション,,株式会社,愛媛県,松山市,西石井２丁目６番１号,,38,201,7900931,,,,,,,2022-04-04,1,,,,,アイコーポレーション,0
662,4010401166501,新規,0,2022-04-04,2022-04-04,株式会社ＷＴＡ,,株式会社,東京都,港区,虎ノ門２丁目３番１７号,,13,103,1050001,,,,,,,2022-04-04,1,,,,,ダブルティーエー,0
663,4010401166526,新規,0,2022-04-04,2022-04-04,株式会社ＧＡＢＲＩＥＬＬＥ・Ｓ,,株式会社,東京都,港区,六本木３丁目７番１号,,13,103,1060032,,,,,,,2022-04-04,1,,,,,ガブリエルエス,0
664,4010401166550,新規,0,2022-04-04,2022-04-04,ＦＬＨ株式会社,,株式会社,東京都,港区,北青山３丁目５－４０、１階,,13,103,1070061,,,,,,,2022-04-04,1,,,,,エフエルエイチ,0
665,4010401166575,新規,0,2022-04-04,2022-04-04,株式会社ＣｌａＮ　Ｅｎｔｅｒｔａｉｎｍｅｎｔ,,株式会社,東京都,港区,東新橋１丁目６番１号,,13,103,1050021,,,,,,,2022-04-04,1,,,,,クランエンターテインメント,0
666,4010403027379,新規,0,2022-04-04,2022-04-04,合同会社やまぐち,,合同会社,東京都,港区,浜松町２丁目２番１５号浜松町ダイヤビル２Ｆ,,13,103,1050013,,,,,,,2022-04-04,1,,,,,ヤマグチ,0
667,4010501048665,新規,0,2022-04-04,2022-04-04,株式会社Ｓｅｎｓｈｕｋａｉ　Ｍａｋｅ　Ｃｏ,,株式会社,東京都,台東区,寿３丁目１５番１２号,,13,106,1110042,,,,,,,2022-04-04,1,,,,,センシュカイメイクコー,0
681,4011001146661,新規,0,2022-04-04,2022-04-04,株式会社Ｍａｄｓｕｎ,,株式会社,東京都,渋谷区,初台１丁目２９番１３号ベルエール加藤２０２,,13,113,1510061,,,,,,,2022-04-04,1,,,,,マッドサン,0
682,4011003014445,新規,0,2022-04-04,2022-04-04,合同会社Ｒａｙｓ,,合同会社,東京都,渋谷区,道玄坂１丁目１０－８渋谷道玄坂東急ビル２Ｆ－Ｃ,,13,113,1500043,,,,,,,2022-04-04,1,,,,,レイズ,0
683,4011003014461,新規,0,2022-04-04,2022-04-04,合同会社Ｌｉｎｏｎ,,合同会社,東京都,渋谷区,猿楽町１１番３号,,13,113,1500033,,,,,,,2022-04-04,1,,,,,リノン,0
689,4011101098316,新規,0,2022-04-04,2022-04-04,ａｎｄａｉｄ株式会社,,株式会社,東京都,新宿区,新宿６丁目２７－２９－７２３,,13,104,1600022,,,,,,,2022-04-04,1,,,,,アンドエイド,0
690,4011103011532,新規,0,2022-04-04,2022-04-04,合同会社Ｓｐａｄｅ,,合同会社,東京都,新宿区,四谷坂町３－１７－３０２,,13,104,1600002,,,,,,,2022-04-04,1,,,,,スペード,0
694,4011301027685,新規,0,2022-04-04,2022-04-04,ＭＪ株式会社,,株式会社,東京都,杉並区,今川２丁目５番７－４０７号,,13,115,1670035,,,,,,,2022-04-04,1,,,,,エムジェイ,0
696,4011601025835,新規,0,2022-04-04,2022-04-04,株式会社グローバルリンク,,株式会社,東京都,練馬区,中村北４丁目２４－１７シェル中村橋２０６号,,13,120,1760023,,,,,,,2022-04-04,1,,,,,グローバルリンク,0
697,4011601025851,新規,0,2022-04-04,2022-04-04,株式会社シマノ,,株式会社,東京都,練馬区,氷川台４丁目４６番５号,,13,120,1790084,,,,,,,2022-04-04,1,,,,,シマノ,0
699,4012403005307,新規,0,2022-04-04,2022-04-04,合同会社Ｙ．Ａ企画,,合同会社,東京都,稲城市,向陽台６丁目１２番地アルボの丘１－３０１号,,13,225,2060803,,,,,,,2022-04-04,1,,,,,ワイドットエーキカク,0
708,4020001145879,新規,0,2022-04-04,2022-04-04,株式会社グローバルウィング,,株式会社,神奈川県,横浜市港南区,笹下５丁目１４番２号,,14,111,2340052,,,,,,,2022-04-04,1,,,,,グローバルウィング,0
709,4020001145937,新規,0,2022-04-04,2022-04-04,高梨工業株式会社,00126133,株式会社,神奈川県,横浜市保土ケ谷区,新桜ケ丘１丁目４１番１２－３号,,14,106,2400036,,,,,,,2022-04-04,1,,,,,タカナシコウギョウ,0
711,4020003021541,新規,0,2022-04-04,2022-04-04,ＭｕｃｃａＷｏｒｋｓ合同会社,,合同会社,神奈川県,横浜市旭区,二俣川２丁目８７番地１,,14,112,2410821,,,,,,,2022-04-04,1,,,,,ムッカワークス,0
714,4021001075562,新規,0,2022-04-04,2022-04-04,株式会社Ｉ．Ｔ．Ｏ,,株式会社,神奈川県,横須賀市,ハイランド１丁目４７番１５号,,14,201,2390833,,,,,,,2022-04-04,1,,,,,アイティオー,0
715,4021001075570,新規,0,2022-04-04,2022-04-04,ｍｏｎｏｔｏ　ｗｏｒｋ株式会社,,株式会社,神奈川県,相模原市緑区,下九沢２４０３番地１,,14,151,2520134,,,,,,,2022-04-04,1,,,,,モノトワーク,0
718,4021005012470,新規,0,2022-04-04,2022-04-04,医療法人ＲＥＹ　ＬＩＮＫ,,その他の設立登記法人,神奈川県,三浦郡葉山町,堀内６７４番地の１,,14,301,2400112,,,,,,,2022-04-04,1,,,,,レイリンク,0
731,4040001122819,新規,0,2022-04-04,2022-04-04,タイアンホーム株式会社,,株式会社,千葉県,八街市,富山１０８９番地,,12,230,2891141,,,,,,,2022-04-04,1,,,,,タイアンホーム,0
737,4050001050886,新規,0,2022-04-04,2022-04-04,株式会社あじまん,,株式会社,茨城県,龍ケ崎市,長山８丁目３番地３（３０９号室）,,08,208,3010042,,,,,,,2022-04-04,1,,,,,アジマン,0
738,4050003006465,新規,0,2022-04-04,2022-04-04,合同会社常葉陸運,,合同会社,茨城県,水戸市,成沢町４４３番地の１０,,08,201,3114207,,,,,,,2022-04-04,1,,,,,ジョウヨウリクウン,0
742,4070001039102,新規,0,2022-04-04,2022-04-04,株式会社ＡＩＮＵＳホールディングス,,株式会社,群馬県,伊勢崎市,八寸町４７６７番地,,10,204,3792236,,,,,,,2022-04-04,1,,,,,アイナスホールディングス,0
743,4070001039110,新規,0,2022-04-04,2022-04-04,サークル株式会社,,株式会社,群馬県,高崎市,鼻高町５３５番地２,,10,202,3700868,,,,,,,2022-04-04,1,,,,,サークル,0
744,4080001024846,新規,0,2022-04-04,2022-04-04,株式会社Ｔｒａｎｃｈｅ,,株式会社,静岡県,静岡市駿河区,大坪町３番２６号リブラ石田１階,,22,102,4228075,,,,,,,2022-04-04,1,,,,,トランシェ,0
745,4090005007474,新規,0,2022-04-04,2022-04-04,一般社団法人Ｙ・Ｔ・Ｏ工芸,,その他の設立登記法人,山梨県,北都留郡丹波山村,２０８３番地,,19,443,4090300,,,,,,,2022-04-04,1,,,,,ワイティーオーコウゲイ,0
747,4100003006476,新規,0,2022-04-04,2022-04-04,合同会社アドベンチャー,,合同会社,長野県,長野市,三輪９丁目１７－１アートヒルズ１０２号室,,20,201,3800803,,,,,,,2022-04-04,1,,,,,アドベンチャー,0
757,4120001244794,新規,0,2022-04-04,2022-04-04,ライズインフィニティ株式会社,,株式会社,大阪府,大阪市西区,北堀江１丁目１９番８号四ツ橋ＫＭビル４Ｆ,,27,106,5500014,,,,,,,2022-04-04,1,,,,,ライズインフィニティ,0
764,4122001035728,新規,0,2022-04-04,2022-04-04,株式会社ワカサ電気,,株式会社,大阪府,八尾市,楠根町２丁目６６番地の１１,,27,212,5810814,,,,,,,2022-04-04,1,,,,,ワカサデンキ,0
765,4122001035736,新規,0,2022-04-04,2022-04-04,松下産業株式会社,,株式会社,大阪府,東大阪市,水走３丁目９番３号,,27,227,5780921,,,,,,,2022-04-04,1,,,,,マツシタサンギョウ,0
766,4130001071437,新規,0,2022-04-04,2022-04-04,株式会社ＦＡＮＭＡ,,株式会社,京都府,京都市右京区,西京極堤外町１３番地１プレデコート西京極１０２,,26,108,6150854,,,,,,,2022-04-04,1,,,,,ファンマ,0
770,4140001125456,新規,0,2022-04-04,2022-04-04,株式会社Ｍアプロ,,株式会社,兵庫県,明石市,貴崎４丁目１５番１７－４０３号,,28,203,6730037,,,,,,,2022-04-04,1,,,,,エムアプロ,0
771,4140001125530,新規,0,2022-04-04,2022-04-04,アキラ建設株式会社,,株式会社,兵庫県,西宮市,小曽根町１丁目２番１４号,,28,204,6638122,,,,,,,2022-04-04,1,,,,,アキラケンセツ,0
778,4140005026080,新規,0,2022-04-04,2022-04-04,あじさい協同組合,,その他の設立登記法人,兵庫県,三木市,福井１丁目７－３４,,28,215,6730433,,,,,,,2022-04-04,1,,,,,アジサイ,0
779,4140005026114,新規,0,2022-04-04,2022-04-04,医療法人社団アキヨシクリニック,,その他の設立登記法人,兵庫県,神戸市須磨区,飛松町３丁目１番２号,,28,107,6540012,,,,,,,2022-04-04,1,,,,,アキヨシクリニック,0
780,4140005026122,新規,0,2022-04-04,2022-04-04,一般社団法人尼西清流会,,その他の設立登記法人,兵庫県,尼崎市,大島２丁目３４番１号,,28,202,6600076,,,,,,,2022-04-04,1,,,,,アマニシセイリュウカイ,0
791,4180001150715,新規,0,2022-04-04,2022-04-04,電丸株式会社,,株式会社,愛知県,名古屋市昭和区,出口町２丁目３３番地の３,,23,107,4660041,,,,,,,2022-04-04,1,,,,,デンマル,0
798,4200001039906,新規,0,2022-04-04,2022-04-04,株式会社勝工業,,株式会社,岐阜県,岐阜市,西改田字米野９３番地３,,21,201,5011163,,,,,,,2022-04-04,1,,,,,カツコウギョウ,0
800,4220005008649,新規,0,2022-04-04,2022-04-04,一般社団法人家庭問題福祉対策協議会,,その他の設立登記法人,石川県,小松市,日末町そ９６番地,,17,203,9230983,,,,,,,2022-04-04,1,,,,,カテイモンダイフクシタイサクキョウギカイ,0
804,4240001059520,新規,0,2022-04-04,2022-04-04,株式会社Ｕｐ　Ｈｏｌｅ,,株式会社,広島県,福山市,引野町４丁目１６番２９号１０２,,34,207,7210942,,,,,,,2022-04-04,1,,,,,アップホール,0
805,4240003005571,新規,0,2022-04-04,2022-04-04,合同会社Ｍｕｕ,,合同会社,広島県,廿日市市,宮内１丁目１番１６－９号,,34,213,7380034,,,,,,,2022-04-04,1,,,,,ムー,0
808,4260001036690,新規,0,2022-04-04,2022-04-04,株式会社ｍｅプランニング,,株式会社,岡山県,岡山市南区,福浜西町６番１７号,,33,104,7028034,,,,,,,2022-04-04,1,,,,,エムイープランニング,0
818,4330003009308,新規,0,2022-04-04,2022-04-04,合同会社１,,合同会社,熊本県,熊本市南区,銭塘町１５８１番地,,43,104,8614126,,,,,,,2022-04-04,1,,,,,イチ,0
819,4340001024613,新規,0,2022-04-04,2022-04-04,株式会社７２０ｃｈａｎｎｅｌ,,株式会社,鹿児島県,鹿児島市,武２丁目１２番６号グランドパレスプライムスクエア鹿児島中央４０１,,46,201,8900045,,,,,,,2022-04-04,1,,,,,セブントゥエンティーチャンネル,0
820,4340001024621,新規,0,2022-04-04,2022-04-04,ＳｏＦｕｎ九州株式会社,,株式会社,鹿児島県,鹿児島市,照国町１４番２３号佐土原ビル２０２号,,46,201,8920841,,,,,,,2022-04-04,1,,,,,ソーファンキュウシュウ,0
823,4370001048386,新規,0,2022-04-04,2022-04-04,株式会社デイ・アーキテクツ,,株式会社,宮城県,仙台市青葉区,一番町１丁目１５番１９号,,04,101,9800811,,,,,,,2022-04-04,1,,,,,デイアーキテクツ,0
824,4370005010458,新規,0,2022-04-04,2022-04-04,一般財団法人まちと人と,,その他の設立登記法人,宮城県,石巻市,中央２丁目７番３８号,,04,202,9860822,,,,,,,2022-04-04,1,,,,,マチトヒトト,0
835,4390001016845,新規,0,2022-04-04,2022-04-04,アグイット株式会社,,株式会社,山形県,東村山郡山辺町,大字山辺８３４番地,,06,301,9900301,,,,,,,2022-04-04,1,,,,,アグイット,0
836,4390001016853,新規,0,2022-04-04,2022-04-04,野川宝石株式会社,,株式会社,山形県,天童市,老野森１丁目４番３２号,,06,210,9940013,,,,,,,2022-04-04,1,,,,,ノガワホウセキ,0
839,4430001086306,新規,0,2022-04-04,2022-04-04,株式会社麗人Ｌｏｖｅ・Ｅａｒｔｈ,,株式会社,北海道,伊達市,舟岡町２００番地１３５,,01,233,0520014,,,,,,,2022-04-04,1,,,,,レイジンラブアース,0
840,4430001086314,新規,0,2022-04-04,2022-04-04,株式会社朋承工業,,株式会社,北海道,札幌市北区,篠路三条８丁目９番８号アクアテール２０３号,,01,102,0028023,,,,,,,2022-04-04,1,,,,,ホウショウコウギョウ,0
846,4460301005053,新規,0,2022-04-04,2022-04-04,株式会社ベイクウィル,,株式会社,北海道,北見市,寿町４丁目７番１５号,,01,208,0900065,,,,,,,2022-04-04,1,,,,,ベイクウィル,0
850,4500001024101,新規,0,2022-04-04,2022-04-04,株式会社Ｋａｓｈｉ　ｅｔ．,,株式会社,愛媛県,宇和島市,神田川原５６番地１,,38,203,7980070,,,,,,,2022-04-04,1,,,,,カシエト,0
858,5010401166582,新規,0,2022-04-04,2022-04-04,株式会社雨久花,,株式会社,東京都,港区,六本木１丁目６番１号泉ガーデンタワー１２階,,13,103,1060032,,,,,,,2022-04-04,1,,,,,ミズアオイ,0
866,5011001146677,新規,0,2022-04-04,2022-04-04,株式会社ヘンドリックス・アドバイザーズ,,株式会社,東京都,渋谷区,神山町１１番１５号神山フォレスト２Ｆ,,13,113,1500047,,,,,,,2022-04-04,1,,,,,ヘンドリックスアドバイザーズ,0
873,5011103011630,新規,0,2022-04-04,2022-04-04,合同会社Ｂａｔｃｈ,,合同会社,東京都,新宿区,山吹町３５３－３イマス山吹町ビル５Ｆ,,13,104,1620801,,,,,,,2022-04-04,1,,,,,バッチ,0
874,5011105010201,新規,0,2022-04-04,2022-04-04,司法書士法人酒井事務所,,その他の設立登記法人,東京都,新宿区,高田馬場１丁目３４番８－５０３号,,13,104,1690075,,,,,,,2022-04-04,1,,,,,サカイジムショ,0
876,5011203003783,新規,0,2022-04-04,2022-04-04,ＴＮ合同会社,,合同会社,東京都,中野区,中央１丁目２３番２３号三和中央Ａ,,13,114,1640011,,,,,,,2022-04-04,1,,,,,ティーエヌ,0
879,5011305002816,新規,0,2022-04-04,2022-04-04,医療法人社団Ｈｅａｌｔｈｙ　Ｔｅｅｔｈ　Ｄｅｓｉｇｎ,,その他の設立登記法人,東京都,杉並区,天沼３丁目６番１号荻窪深澤ビル１階,,13,115,1670032,,,,,,,2022-04-04,1,,,,,ヘルシーティースデザイン,0
882,5011601025834,新規,0,2022-04-04,2022-04-04,株式会社ＢＸ　Ｌａｂｓ,,株式会社,東京都,練馬区,東大泉７丁目１５番３０－１１０号,,13,120,1780063,,,,,,,2022-04-04,1,,,,,ビーエックスラボ,0
883,5011701025156,新規,0,2022-04-04,2022-04-04,テックシステムズ株式会社,,株式会社,東京都,江戸川区,西小岩２丁目１２番９号ミントＶ１０１,,13,123,1330057,,,,,,,2022-04-04,1,,,,,テックシステムズ,0
887,5012401039025,新規,0,2022-04-04,2022-04-04,株式会社カミーユジャポン,,株式会社,東京都,狛江市,東野川２丁目８番３－１号,,13,219,2010002,,,,,,,2022-04-04,1,,,,,カミーユジャポン,0
890,5012801021482,新規,0,2022-04-04,2022-04-04,ケンコー株式会社,,株式会社,東京都,日野市,三沢３丁目１１番地の２,,13,212,1910032,,,,,,,2022-04-04,1,,,,,ケンコー,0
892,5013101008880,新規,0,2022-04-04,2022-04-04,株式会社Ｋ．Ｋ　ｗｏｒｋｓ,,株式会社,東京都,青梅市,新町８丁目７番地の２,,13,205,1980024,,,,,,,2022-04-04,1,,,,,ケーケーワークス,0
903,5020001145853,新規,0,2022-04-04,2022-04-04,株式会社誠和の心,,株式会社,神奈川県,横浜市青葉区,新石川２丁目１３番地１８グレイスビーノ３０２,,14,117,2250003,,,,,,,2022-04-04,1,,,,,セイワノココロ,0
904,5020001145928,新規,0,2022-04-04,2022-04-04,株式会社１０１,,株式会社,神奈川県,横浜市南区,白妙町４丁目４２番地１ヴァンティアン横濱８０４号室,,14,105,2320023,,,,,,,2022-04-04,1,,,,,イチマルイチ,0
905,5020001145936,新規,0,2022-04-04,2022-04-04,Ａｑｕｂｉ株式会社,,株式会社,神奈川県,横浜市戸塚区,上倉田町９８１,,14,110,2440816,,,,,,,2022-04-04,1,,,,,アクビ,0
911,5021001075561,新規,0,2022-04-04,2022-04-04,株式会社和ゑ鶴,,株式会社,神奈川県,相模原市緑区,東橋本１丁目５番１０号,,14,151,2520144,,,,,,,2022-04-04,1,,,,,アエヅル,0
912,5021001075578,新規,0,2022-04-04,2022-04-04,株式会社武蔵野Ｊｒサービス,,株式会社,神奈川県,厚木市,山際５３２番地１３,,14,212,2430803,,,,,,,2022-04-04,1,,,,,ムサシノジュニアサービス,0
919,5030001147519,新規,0,2022-04-04,2022-04-04,株式会社ゆいカンパニー,,株式会社,埼玉県,春日部市,米島９６２番地７４,,11,214,3440115,,,,,,,2022-04-04,1,,,,,ユイカンパニー,0
920,5030005020779,新規,0,2022-04-04,2022-04-04,医療法人橙緑会,,その他の設立登記法人,埼玉県,東松山市,松葉町４丁目８番３号,,11,212,3550017,,,,,,,2022-04-04,1,,,,,トウリョクカイ,0
924,5040001122826,新規,0,2022-04-04,2022-04-04,ラビット株式会社,,株式会社,千葉県,四街道市,旭ケ丘５丁目８番６号,,12,228,2840024,,,,,,,2022-04-04,1,,,,,ラビット,0
925,5040001122875,新規,0,2022-04-04,2022-04-04,株式会社鈴木商店,,株式会社,千葉県,市川市,中国分５丁目４番４号,,12,203,2720835,,,,,,,2022-04-04,1,,,,,スズキショウテン,0
930,5050001050877,新規,0,2022-04-04,2022-04-04,ＴＫヤマグチ株式会社,,株式会社,茨城県,結城市,大字久保田６１番地７８,,08,207,3070012,,,,,,,2022-04-04,1,,,,,ティーケイヤマグチ,0
931,5050003006472,新規,0,2022-04-04,2022-04-04,合同会社ゆたか,,合同会社,茨城県,日立市,神田町１１９２番地７,,08,202,3191233,,,,,,,2022-04-04,1,,,,,ユタカ,0
934,5070003004441,新規,0,2022-04-04,2022-04-04,ティーワーク北関東合同会社,,合同会社,群馬県,高崎市,萩原町２７９番地２,,10,202,3700013,,,,,,,2022-04-04,1,,,,,ティーワークキタカントウ,0
935,5080001024837,新規,0,2022-04-04,2022-04-04,株式会社ＴＲＩＳＥ,,株式会社,静岡県,藤枝市,岡部町子持坂３０６番地の１,,22,214,4211122,,,,,,,2022-04-04,1,,,,,トライズ,0
936,5080001024845,新規,0,2022-04-04,2022-04-04,株式会社絡厨,,株式会社,静岡県,静岡市葵区,瀬名川１丁目２７番３６号,,22,101,4200913,,,,,,,2022-04-04,1,,,,,カラクリヤ,0
939,5080101023193,新規,0,2022-04-04,2022-04-04,株式会社中山プランテックス,,株式会社,静岡県,富士市,木島７８４番地の８,,22,210,4213304,,,,,,,2022-04-04,1,,,,,ナカヤマプランテックス,0
943,5110001036531,新規,0,2022-04-04,2022-04-04,柏崎あい・あーるエナジー株式会社,,株式会社,新潟県,柏崎市,日石町２番１号,,15,205,9450054,,,,,,,2022-04-04,1,,,,,カシワザキアイアールエナジー,0
960,5120001244793,新規,0,2022-04-04,2022-04-04,リンクデザイン株式会社,,株式会社,大阪府,大阪市城東区,関目３丁目１６番１０号五大産業ビル２０７,,27,118,5360008,,,,,,,2022-04-04,1,,,,,リンクデザイン,0
971,5120901045762,新規,0,2022-04-04,2022-04-04,株式会社Ｓｐｒｉｎｇ　Ｈｉｌｌ,,株式会社,大阪府,豊中市,春日町２丁目１３番３８－１０１号,,27,203,5600052,,,,,,,2022-04-04,1,,,,,スプリングヒル,0
975,5130001071444,新規,0,2022-04-04,2022-04-04,Ｓｍａｒｔ　Ｔｉｓｓｕｅｓ株式会社,,株式会社,京都府,京都市下京区,中堂寺粟田町９３番地ＫＲＰ４号館３階ＫＲＰＢＩＺＮＥＸＴ,,26,106,6008815,,,,,,,2022-04-04,1,,,,,スマートティッシュス,0
987,5180001150615,新規,0,2022-04-04,2022-04-04,株式会社オフィス深見,,株式会社,愛知県,あま市,森８丁目１４番地１３,,23,237,4901107,,,,,,,2022-04-04,1,,,,,オフィスフカミ,0
988,5180001150623,新規,0,2022-04-04,2022-04-04,株式会社わんにゃん,,株式会社,愛知県,知多郡阿久比町,大字卯坂字下同志鐘１番地の１０,,23,441,4702212,,,,,,,2022-04-04,1,,,,,ワンニャン,0
989,5180001150648,新規,0,2022-04-04,2022-04-04,株式会社クレスト,,株式会社,愛知県,清須市,西枇杷島町古城２丁目２４番地１１,,23,233,4520001,,,,,,,2022-04-04,1,,,,,クレスト,0
995,5200003005525,新規,0,2022-04-04,2022-04-04,合同会社ＭＡＲＺＳ,,合同会社,岐阜県,高山市,赤保木町１１７４番地１２,,21,203,5060045,,,,,,,2022-04-04,1,,,,,マーズ,0
1000,5220001024764,新規,0,2022-04-04,2022-04-04,株式会社めくみ,,株式会社,石川県,野々市市,下林４丁目４８番地,,17,212,9218831,,,,,,,2022-04-04,1,,,,,メクミ,0
1009,5240003005570,新規,0,2022-04-04,2022-04-04,合同会社ハウスリビング,,合同会社,広島県,広島市西区,庚午北４丁目５番２３－１０２号,,34,104,7330821,,,,,,,2022-04-04,1,,,,,ハウスリビング,0
1015,5260001036698,新規,0,2022-04-04,2022-04-04,株式会社ｂｅｌｋ,,株式会社,岡山県,倉敷市,児島唐琴町７,,33,202,7110905,,,,,,,2022-04-04,1,,,,,ベルク,0
1016,5260003003861,新規,0,2022-04-04,2022-04-04,ＦＦＷ合同会社,,合同会社,岡山県,岡山市中区,関４２５番地１１ルグラン関Ｂ－１０１,,33,102,7038232,,,,,,,2022-04-04,1,,,,,エフエフダブリュー,0
1023,5290001097011,新規,0,2022-04-04,2022-04-04,株式会社ＺＥＲＯ,,株式会社,福岡県,福岡市博多区,千代６丁目３番５号,,40,132,8120044,,,,,,,2022-04-04,1,,,,,ゼロ,0
1024,5290001097036,新規,0,2022-04-04,2022-04-04,株式会社新洋工務店,,株式会社,福岡県,福岡市博多区,博多駅南３丁目３番１２号,,40,132,8120016,,,,,,,2022-04-04,1,,,,,シンヨウコウムテン,0
1025,5290001097077,新規,0,2022-04-04,2022-04-04,株式会社アップヴィレッジ,,株式会社,福岡県,福岡市西区,野方６丁目２８番３０号,,40,135,8190043,,,,,,,2022-04-04,1,,,,,アップヴィレッジ,0
1026,5290001097085,新規,0,2022-04-04,2022-04-04,株式会社津留崎電工,00126139,株式会社,福岡県,久留米市,大善寺町中津５４８番地４,,40,203,8300077,,,,,,,2022-04-04,1,,,,,ツルサキデンコウ,0
1030,5340001024612,新規,0,2022-04-04,2022-04-04,株式会社ＩＫＥＤＡ住設,,株式会社,鹿児島県,鹿児島市,上福元町６８３８番地１２,,46,201,8910116,,,,,,,2022-04-04,1,,,,,イケダジュウセツ,0
1031,5340005009436,新規,0,2022-04-04,2022-04-04,一般社団法人東加世田会,,その他の設立登記法人,鹿児島県,南さつま市,笠沙町片浦４１８０番地,,46,220,8971301,,,,,,,2022-04-04,1,,,,,ヒガシカセダカイ,0
1032,5350001017672,新規,0,2022-04-04,2022-04-04,綾かしのき林業株式会社,,株式会社,宮崎県,東諸県郡綾町,大字北俣１０７６番地２,,45,383,8801302,,,,,,,2022-04-04,1,,,,,アヤカシノキリンギョウ,0
1037,5370001048393,新規,0,2022-04-04,2022-04-04,株式会社ウイング,,株式会社,宮城県,仙台市宮城野区,清水沼３丁目３番３３－３０２号,,04,102,9830845,,,,,,,2022-04-04,1,,,,,ウイング,0
1050,5400001015836,新規,0,2022-04-04,2022-04-04,株式会社日本ボデー,,株式会社,岩手県,花巻市,石鳥谷町中寺林第７地割３８番地７６,,03,205,0283171,,,,,,,2022-04-04,1,,,,,ニホンボデー,0
1055,5430001086305,新規,0,2022-04-04,2022-04-04,株式会社ネクストプラン,,株式会社,北海道,札幌市白石区,平和通６丁目南３番３号,,01,104,0030028,,,,,,,2022-04-04,1,,,,,ネクストプラン,0
1057,5450001013653,新規,0,2022-04-04,2022-04-04,株式会社輝龍,,株式会社,北海道,雨竜郡北竜町,字三谷３３番地１,,01,437,0782513,,,,,,,2022-04-04,1,,,,,コウリュウ,0
1065,5500001024117,新規,0,2022-04-04,2022-04-04,株式会社矢野自動車,,株式会社,愛媛県,新居浜市,郷２丁目３番３８号,,38,205,7920886,,,,,,,2022-04-04,1,,,,,ヤノジドウシャ,0
1066,5500001024125,新規,0,2022-04-04,2022-04-04,株式会社グラフィックデザイン事務所ストローク,,株式会社,愛媛県,松山市,山越３丁目１１－３,,38,201,7918013,,,,,,,2022-04-04,1,,,,,グラフィックデザインジムショストローク,0
1069,5700150104707,新規,0,2022-04-04,2021-09-14,無情報,,その他,埼玉県,戸田市,上戸田５丁目２－１８,,11,224,3350022,,,,,,,2021-09-14,1,,,,,ノーインフオメーシヨン,0
1073,6010005034796,新規,0,2022-04-04,2022-04-04,税理士法人山崎会計事務所,00126132,その他の設立登記法人,東京都,千代田区,神田須田町１丁目８番７号神田前原ビル２階,,13,101,1010041,,,,,,,2022-04-04,1,,,,,ヤマサキカイケイジムショ,0
1074,6010401166516,新規,0,2022-04-04,2022-04-04,ＭＤＫ株式会社,,株式会社,東京都,港区,港南２丁目１６番１号４Ｆ,,13,103,1080075,,,,,,,2022-04-04,1,,,,,エムディーケー,0
1083,6010903007259,新規,0,2022-04-04,2022-04-04,セールスエージェント合同会社,,合同会社,東京都,世田谷区,玉川１丁目３番２１号ＴＯＰ二子玉川第２－３０３号室,,13,112,1580094,,,,,,,2022-04-04,1,,,,,セールスエージェント,0
1084,6010903007275,新規,0,2022-04-04,2022-04-04,Ｏｆｆｉｃｅ　Ｓｕｎ　Ｆｉｅｌｄ合同会社,,合同会社,東京都,世田谷区,代田５丁目１９番４号,,13,112,1550033,,,,,,,2022-04-04,1,,,,,オフィスサンフィールド,0
1092,6011101098363,新規,0,2022-04-04,2022-04-04,株式会社ＲＹＮＯ,,株式会社,東京都,新宿区,横寺町３６番地１８カグラハウス３０２,,13,104,1620831,,,,,,,2022-04-04,1,,,,,ライノ,0
1093,6011101098371,新規,0,2022-04-04,2022-04-04,比睿山製薬株式会社,,株式会社,東京都,新宿区,榎町３４－３榎町ビル５階,,13,104,1620806,,,,,,,2022-04-04,1,,,,,ヒエイザンセイヤク,0
1094,6011101098388,新規,0,2022-04-04,2022-04-04,株式会社ＥＣ　Ｌｏｇｉｃ,,株式会社,東京都,新宿区,大久保２丁目５番２０－９０３号,,13,104,1690072,,,,,,,2022-04-04,1,,,,,イーシーロジック,0
1095,6011103011621,新規,0,2022-04-04,2022-04-04,合同会社Ｂｅａｔｂｏｘ　Ｌａｂ．,,合同会社,東京都,新宿区,西新宿３丁目３－１３西新宿水間ビル６階,,13,104,1600023,,,,,,,2022-04-04,1,,,,,ビートボックスラボ,0
1097,6011301027683,新規,0,2022-04-04,2022-04-04,株式会社ｅｍｂｅｒ,,株式会社,東京都,杉並区,阿佐谷南１丁目３６番１６号第５７東京ビル２Ｆ２４号室,,13,115,1660004,,,,,,,2022-04-04,1,,,,,エンバー,0
1101,6011501027896,新規,0,2022-04-04,2022-04-04,株式会社フローラルウイング,,株式会社,東京都,北区,浮間５丁目７番１０号,,13,117,1150051,,,,,,,2022-04-04,1,,,,,フローラルウイング,0
1103,6011601025833,新規,0,2022-04-04,2022-04-04,株式会社ＫＴＳ,,株式会社,東京都,練馬区,田柄２丁目２８番８号,,13,120,1790073,,,,,,,2022-04-04,1,,,,,ケーティーエス,0
1104,6011603003564,新規,0,2022-04-04,2022-04-04,合同会社ストフ,,合同会社,東京都,練馬区,向山３丁目１１番１０号,,13,120,1760022,,,,,,,2022-04-04,1,,,,,ストフ,0
1110,6012403005305,新規,0,2022-04-04,2022-04-04,Ｈｉｒａｉ．Ｃａｒｅ　ａｎｄ．合同会社,,合同会社,東京都,稲城市,若葉台３丁目１番地の１若葉台ワルツの杜Ａ棟５０９号室,,13,225,2060824,,,,,,,2022-04-04,1,,,,,ヒライケアアンド,0
1111,6012405004718,新規,0,2022-04-04,2022-04-04,一般社団法人武蔵野アニメ協議会,,その他の設立登記法人,東京都,武蔵野市,八幡町４丁目１３番５号,,13,203,1800011,,,,,,,2022-04-04,1,,,,,ムサシノアニメキョウギカイ,0
1113,6012701017010,新規,0,2022-04-04,2022-04-04,株式会社マイティビル,,株式会社,東京都,西東京市,東町３丁目１４番２７号,,13,229,2020012,,,,,,,2022-04-04,1,,,,,マイティビル,0
1114,6012801021481,新規,0,2022-04-04,2022-04-04,株式会社コスモス,,株式会社,東京都,国分寺市,東恋ヶ窪３丁目２０番地９グランプラド国分寺１３０３,,13,214,1850014,,,,,,,2022-04-04,1,,,,,コスモス,0
1120,6021001075569,新規,0,2022-04-04,2022-04-04,ｗｅａｋ　ｉｎｓｅｃｔｓ株式会社,,株式会社,神奈川県,相模原市中央区,由野台１丁目１番１０号,,14,152,2520222,,,,,,,2022-04-04,1,,,,,ウィークインセクツ,0
1121,6021001075585,新規,0,2022-04-04,2022-04-04,株式会社武創,,株式会社,神奈川県,藤沢市,遠藤３２３８番地の１,,14,205,2520816,,,,,,,2022-04-04,1,,,,,ブソウ,0
1122,6021001075602,新規,0,2022-04-04,2022-04-04,株式会社ちゅうりっぷ,,株式会社,神奈川県,藤沢市,湘南台３丁目１３番１０号,,14,205,2520804,,,,,,,2022-04-04,1,,,,,チュウリップ,0
1126,6021003011547,新規,0,2022-04-04,2022-04-04,合同会社ＨＳシーケンス,,合同会社,神奈川県,相模原市中央区,淵野辺本町２丁目１４番６号,,14,152,2520202,,,,,,,2022-04-04,1,,,,,エイチエスシーケンス,0
1133,6040001122817,新規,0,2022-04-04,2022-04-04,株式会社ＫＤ,,株式会社,千葉県,八千代市,勝田１２７８番地２５,,12,221,2760024,,,,,,,2022-04-04,1,,,,,ケーディー,0
1134,6040001122833,新規,0,2022-04-04,2022-04-04,株式会社Ｍｉｘ　Ｔｒｅｅｓ,,株式会社,千葉県,流山市,江戸川台西２丁目２０１クレスト江戸川台２０５,,12,220,2700115,,,,,,,2022-04-04,1,,,,,ミックストゥリーズ,0
1142,6050001050876,新規,0,2022-04-04,2022-04-04,つくばテック株式会社,,株式会社,茨城県,つくば市,高野４０４番地,,08,220,3002642,,,,,,,2022-04-04,1,,,,,ツクバテック,0
1143,6050001050892,新規,0,2022-04-04,2022-04-04,株式会社ＰＵＲＥ　ＤＩＮＩＮＧ,,株式会社,茨城県,水戸市,堀町４３８番地の１ピュアスタイル１０１号,,08,201,3100903,,,,,,,2022-04-04,1,,,,,ピュアダイニング,0
1146,6070001039100,新規,0,2022-04-04,2022-04-04,株式会社トライブ,,株式会社,群馬県,前橋市,朝倉町１３３番地１,,10,201,3710811,,,,,,,2022-04-04,1,,,,,トライブ,0
1147,6070001039109,新規,0,2022-04-04,2022-04-04,リトリル株式会社,,株式会社,群馬県,高崎市,栄町３番１１号高崎バナーズビル３－５Ｆ,,10,202,3700841,,,,,,,2022-04-04,1,,,,,リトリル,0
1148,6070003004440,新規,0,2022-04-04,2022-04-04,合同会社Ｐａｒａｄｉｓｅ　Ｌａｎｋａ　Ｅｎｔｅｒｐｒｉｓｅｓ,,合同会社,群馬県,邑楽郡邑楽町,大字石打３９２番地１,,10,525,3700604,,,,,,,2022-04-04,1,,,,,パラダイスランカエンタープライゼズ,0
1150,6080001024852,新規,0,2022-04-04,2022-04-04,株式会社フロムケイ,,株式会社,静岡県,静岡市葵区,秋山町５番１号,,22,101,4200948,,,,,,,2022-04-04,1,,,,,フロムケイ,0
1154,6080101023184,新規,0,2022-04-04,2022-04-04,野木巧業株式会社,,株式会社,静岡県,駿東郡小山町,中島３１４番地の９,,22,344,4101302,,,,,,,2022-04-04,1,,,,,ノギコウギョウ,0
1155,6080101023192,新規,0,2022-04-04,2022-04-04,株式会社清修電気,,株式会社,静岡県,沼津市,下河原町１丁目１１番地の９,,22,203,4100841,,,,,,,2022-04-04,1,,,,,セイシュウデンキ,0
1164,6120001244776,新規,0,2022-04-04,2022-04-04,日本冠雲株式会社,,株式会社,大阪府,大阪市生野区,巽北１丁目１番１号１Ｆ－Ａ,,27,116,5440004,,,,,,,2022-04-04,1,,,,,ニホンカンウン,0
1165,6120001244792,新規,0,2022-04-04,2022-04-04,株式会社Ｂｌｕｅ,,株式会社,大阪府,大阪市鶴見区,安田４丁目８－２６－６０２,,27,124,5380032,,,,,,,2022-04-04,1,,,,,ブルー,0
1173,6122003002311,新規,0,2022-04-04,2022-04-04,合同会社Ｏｆｆｉｃｅ　Ｆｏｒ　ＯＮＥ,,合同会社,大阪府,東大阪市,四条町１２番２５－８０１号,,27,227,5798053,,,,,,,2022-04-04,1,,,,,オフィスフォーワン,0
1182,6140005026120,新規,0,2022-04-04,2022-04-04,医療法人社団わきさか歯科クリニック,,その他の設立登記法人,兵庫県,加古川市,加古川町粟津７７１番地４,,28,210,6750039,,,,,,,2022-04-04,1,,,,,ワキサカシカクリニック,0
1183,6160003002534,新規,0,2022-04-04,2022-04-04,Ｉｎｆｉｎｉｔｙ　Ｓｐｒｏｕｔ合同会社,,合同会社,滋賀県,草津市,東矢倉３丁目３３番４１－２号,,25,206,5250054,,,,,,,2022-04-04,1,,,,,インフィニティスプラウト,0
1185,6170001017038,新規,0,2022-04-04,2022-04-04,株式会社林組,,株式会社,和歌山県,有田郡広川町,大字広１９番地１,,30,362,6430071,,,,,,,2022-04-04,1,,,,,ハヤシグミ,0
1189,6180001150606,新規,0,2022-04-04,2022-04-04,Ｆｒｉｃｃａ株式会社,,株式会社,愛知県,名古屋市東区,泉１丁目２番３号,,23,102,4610001,,,,,,,2022-04-04,1,,,,,フリッカ,0
1190,6180001150614,新規,0,2022-04-04,2022-04-04,株式会社アンダーワイズ,,株式会社,愛知県,名古屋市西区,幅下１丁目１０番３４号,,23,104,4510041,,,,,,,2022-04-04,1,,,,,アンダーワイズ,0
1191,6180001150639,新規,0,2022-04-04,2022-04-04,株式会社メディナス,,株式会社,愛知県,名古屋市中区,栄１丁目１３番４号,,23,106,4600008,,,,,,,2022-04-04,1,,,,,メディナス,0
1192,6180001150647,新規,0,2022-04-04,2022-04-04,株式会社ＭＩＳＡＷＡ,,株式会社,愛知県,江南市,勝佐町東郷１３６番地,,23,217,4838037,,,,,,,2022-04-04,1,,,,,ミサワ,0
1193,6180001150671,新規,0,2022-04-04,2022-04-04,株式会社ＵＥ,,株式会社,愛知県,一宮市,小信中島字西五反田４６番地４,,23,203,4940007,,,,,,,2022-04-04,1,,,,,ウエ,0
1198,6180003023660,新規,0,2022-04-04,2022-04-04,Ｔ‐Ｈ　ＴＥＳＬＡ合同会社,,合同会社,愛知県,名古屋市中村区,牛田通１丁目１７番地Ａ号室,,23,105,4530853,,,,,,,2022-04-04,1,,,,,ティーエイチテスラ,0
1204,6200001039945,新規,0,2022-04-04,2022-04-04,株式会社ＴＹＰ,,株式会社,岐阜県,岐阜市,永楽町１丁目８番地５,,21,201,5008133,,,,,,,2022-04-04,1,,,,,ティワイピー,0
1207,6240001059535,新規,0,2022-04-04,2022-04-04,株式会社ミチレイ,,株式会社,広島県,尾道市,因島重井町６５０４番地,,34,205,7222102,,,,,,,2022-04-04,1,,,,,ミチレイ,0
1213,6260001036689,新規,0,2022-04-04,2022-04-04,株式会社ＯＳアドバンス,,株式会社,岡山県,岡山市北区,西古松２丁目２４番５号,,33,101,7000927,,,,,,,2022-04-04,1,,,,,オーエスアドバンス,0
1214,6260001036697,新規,0,2022-04-04,2022-04-04,株式会社ナカシマブレインズ,,株式会社,岡山県,岡山市北区,中島田町２丁目３番１９号,,33,101,7000982,,,,,,,2022-04-04,1,,,,,ナカシマブレインズ,0
1215,6260001036714,新規,0,2022-04-04,2022-04-04,Ｒｅｍｉｘ株式会社,,株式会社,岡山県,岡山市中区,平井５丁目５番２８－１号,,33,102,7038282,,,,,,,2022-04-04,1,,,,,リミックス,0
1217,6260003003860,新規,0,2022-04-04,2022-04-04,合同会社ＳＫＹ　ＳＴＡＲ,,合同会社,岡山県,浅口市,寄島町５３４５,,33,216,7140101,,,,,,,2022-04-04,1,,,,,スカイスター,0
1227,6290001097010,新規,0,2022-04-04,2022-04-04,株式会社ＫＰＵ,,株式会社,福岡県,那珂川市,大字別所４４９番地３,,40,231,8111245,,,,,,,2022-04-04,1,,,,,ケイプ,0
1228,6290001097027,新規,0,2022-04-04,2022-04-04,株式会社メディエート,,株式会社,福岡県,福岡市東区,香住ヶ丘５丁目３番１６号,,40,131,8130003,,,,,,,2022-04-04,1,,,,,メディエート,0
1231,6320001019002,新規,0,2022-04-04,2022-04-04,株式会社サトシンＭ,,株式会社,大分県,大分市,大字曲５９７番地,,44,201,8700946,,,,,,,2022-04-04,1,,,,,サトシンエム,0
1234,6340001024611,新規,0,2022-04-04,2022-04-04,株式会社オフィス加治屋,,株式会社,鹿児島県,鹿児島市,中町１０番２号５Ｆ,,46,201,8920827,,,,,,,2022-04-04,1,,,,,オフィスカジヤ,0
1236,6370001048376,新規,0,2022-04-04,2022-04-04,株式会社ｂｅａｒｄ,,株式会社,宮城県,仙台市泉区,西中山２丁目１５番３号,,04,105,9813218,,,,,,,2022-04-04,1,,,,,ビアード,0
1237,6370001048401,新規,0,2022-04-04,2022-04-04,株式会社マロン＆アップル,,株式会社,宮城県,仙台市宮城野区,萩野町３丁目１８番地の１４,,04,102,9830043,,,,,,,2022-04-04,1,,,,,マロンアンドアップル,0
1243,6400005008232,新規,0,2022-04-04,2022-04-04,一般社団法人ＫーＬｉｖｅｌｙ,,その他の設立登記法人,岩手県,滝沢市,鵜飼細谷地７１番地４,,03,216,0200651,,,,,,,2022-04-04,1,,,,,ケーライブリー,0
1250,6430001086312,新規,0,2022-04-04,2022-04-04,株式会社日本テックオール,,株式会社,北海道,札幌市白石区,北郷五条３丁目１１番８号３０２号,,01,104,0030835,,,,,,,2022-04-04,1,,,,,ニホンテックオール,0
1254,6480001011694,新規,0,2022-04-04,2022-04-04,株式会社ミツイコネクト,,株式会社,徳島県,徳島市,北佐古一番町４番２７号,,36,201,7700011,,,,,,,2022-04-04,1,,,,,ミツイコネクト,0
1255,6500001024090,新規,0,2022-04-04,2022-04-04,株式会社ＥＩＧＨＴ　ＤＥＳＩＧＮ,,株式会社,愛媛県,松山市,福音寺町２８０番地の１,,38,201,7900921,,,,,,,2022-04-04,1,,,,,エイトデザイン,0
1256,6500001024108,新規,0,2022-04-04,2022-04-04,株式会社雅,,株式会社,愛媛県,松山市,三津１丁目４番１２号,,38,201,7918061,,,,,,,2022-04-04,1,,,,,ミヤビ,0
1259,6700150105679,新規,0,2022-04-04,2021-11-10,ミワコミュージック,,その他,東京都,新宿区,西新宿４丁目１７－３－５０１,,13,104,1600023,,,,,,,2021-11-10,1,,,,,ミワコミユージツク,0
1260,6700150106181,新規,0,2022-04-04,2021-12-10,ＣＡＲＡＴＯＲＩＵＭ,,その他,東京都,大田区,下丸子１丁目２０－３－５０１,,13,111,1460092,,,,,,,2021-12-10,1,,,,,カラトリウム,0
1263,7010005034837,新規,0,2022-04-04,2022-04-04,誠国際監査法人,,その他の設立登記法人,東京都,中央区,日本橋人形町１丁目７番１０号,,13,102,1030013,,,,,,,2022-04-04,1,,,,,マコトコクサイ,0
1269,7010401166515,新規,0,2022-04-04,2022-04-04,株式会社エディットラボ,,株式会社,東京都,港区,虎ノ門１丁目１６番６号虎ノ門ＲＡＰＯ－ＴＯビルＵＣＦ７０３,,13,103,1050001,,,,,,,2022-04-04,1,,,,,エディットラボ,0
1275,7010901050623,新規,0,2022-04-04,2022-04-04,株式会社スリーシーズ,,株式会社,東京都,世田谷区,千歳台６丁目１６番２－１４０１号,,13,112,1570071,,,,,,,2022-04-04,1,,,,,スリーシーズ,0
1277,7011001146576,新規,0,2022-04-04,2022-04-04,株式会社サブスクライン,,株式会社,東京都,渋谷区,渋谷２丁目１９番１５－６０９号宮益坂ビルディング,,13,113,1500002,,,,,,,2022-04-04,1,,,,,サブスクライン,0
1278,7011001146659,新規,0,2022-04-04,2022-04-04,株式会社Ｗｉｓｓｅｅｄ‐ｔｈｅ　ｔｅｒｒａ,,株式会社,東京都,渋谷区,神宮前５丁目１５番２号,,13,113,1500001,,,,,,,2022-04-04,1,,,,,ウィズシードザテラ,0
1279,7011001146667,新規,0,2022-04-04,2022-04-04,株式会社創作の間,,株式会社,東京都,渋谷区,桜丘町２３－１７,,13,113,1500031,,,,,,,2022-04-04,1,,,,,ソウサクノマ,0
1284,7011101098387,新規,0,2022-04-04,2022-04-04,株式会社ａｒｍｙ,,株式会社,東京都,新宿区,歌舞伎町１丁目１２番９号タテハナビル２階,,13,104,1600021,,,,,,,2022-04-04,1,,,,,アーミー,0
1286,7011103011629,新規,0,2022-04-04,2022-04-04,合同会社Ｎｅｘｔ　Ｓｔｙｌｅ,,合同会社,東京都,新宿区,高田馬場２丁目７番１１－５０１号,,13,104,1690075,,,,,,,2022-04-04,1,,,,,ネクストスタイル,0
1290,7011303004366,新規,0,2022-04-04,2022-04-04,合同会社えむけん,,合同会社,東京都,杉並区,清水３丁目７－２２,,13,115,1670033,,,,,,,2022-04-04,1,,,,,エムケン,0
1291,7011305002814,新規,0,2022-04-04,2022-04-04,一般社団法人まなびの塾フリービー,,その他の設立登記法人,東京都,杉並区,上高井戸２丁目２番３３－５０４号,,13,115,1680074,,,,,,,2022-04-04,1,,,,,マナビノジュクフリービー,0
1293,7011401024134,新規,0,2022-04-04,2022-04-04,株式会社ＦＡＲＭＲＯＩＤ,,株式会社,東京都,板橋区,舟渡３丁目２２番４号,,13,119,1740041,,,,,,,2022-04-04,1,,,,,ファームロイド,0
1294,7011403003615,新規,0,2022-04-04,2022-04-04,アシストデンキ合同会社,,合同会社,東京都,板橋区,大和町２５番９－２０１号,,13,119,1730012,,,,,,,2022-04-04,1,,,,,アシストデンキ,0
1295,7011503005115,新規,0,2022-04-04,2022-04-04,合同会社ニャニャショップ,,合同会社,東京都,北区,田端新町１丁目７－１４ビズフィールド西日暮里３０２,,13,117,1140012,,,,,,,2022-04-04,1,,,,,ニャニャショップ,0
1296,7011701025179,新規,0,2022-04-04,2022-04-04,株式会社ＩＮＤＥＰ,,株式会社,東京都,江戸川区,西葛西３丁目９－３５－８０４,,13,123,1340088,,,,,,,2022-04-04,1,,,,,インデップ,0
1301,7012401039031,新規,0,2022-04-04,2022-04-04,株式会社ワイズ,,株式会社,東京都,調布市,国領町３丁目６番地１－２０２号,,13,208,1820022,,,,,,,2022-04-04,1,,,,,ワイズ,0
1314,7020001145991,新規,0,2022-04-04,2022-04-04,Ｈａｐｐｉｎｅｓｓ　ｌａｎｄ株式会社,,株式会社,神奈川県,横浜市西区,平沼１丁目４０番１号嶋森ビル８階,,14,103,2200023,,,,,,,2022-04-04,1,,,,,ハピネスランド,0
1318,7021001075568,新規,0,2022-04-04,2022-04-04,れいめい晴耕園株式会社,,株式会社,神奈川県,厚木市,船子１１４０番地,,14,212,2430034,,,,,,,2022-04-04,1,,,,,レイメイセイコウエン,0
1319,7021003011538,新規,0,2022-04-04,2022-04-04,ＳＳＣ合同会社,,合同会社,神奈川県,藤沢市,宮前５２７番地,,14,205,2510014,,,,,,,2022-04-04,1,,,,,エスエスシー,0
1323,7030005020777,新規,0,2022-04-04,2022-04-04,医療法人社団松医会,,その他の設立登記法人,埼玉県,所沢市,くすのき台１丁目１４番地５グランエミオ所沢３Ｆ,,11,208,3590037,,,,,,,2022-04-04,1,,,,,ショウイカイ,0
1327,7040001122857,新規,0,2022-04-04,2022-04-04,株式会社アソビヨンド,,株式会社,千葉県,館山市,沼９８５番地１０,,12,205,2940034,,,,,,,2022-04-04,1,,,,,アソビヨンド,0
1333,7070001039108,新規,0,2022-04-04,2022-04-04,株式会社グリーンエネルギー,,株式会社,群馬県,高崎市,上豊岡町２０５番地１０,,10,202,3700871,,,,,,,2022-04-04,1,,,,,グリーンエネルギー,0
1337,7080001024843,新規,0,2022-04-04,2022-04-04,ＴＯＭ’ｓ株式会社,,株式会社,静岡県,静岡市葵区,伝馬町１番地の３,,22,101,4200858,,,,,,,2022-04-04,1,,,,,トムズ,0
1338,7080001024851,新規,0,2022-04-04,2022-04-04,青野工業株式会社,,株式会社,静岡県,静岡市清水区,吉川５５３番地の１,,22,103,4240055,,,,,,,2022-04-04,1,,,,,アオノコウギョウ,0
1342,7100001035210,新規,0,2022-04-04,2022-04-04,株式会社ＮＡホテルサービス,,株式会社,長野県,長野市,南千歳２丁目８番地５,,20,201,3800823,,,,,,,2022-04-04,1,,,,,エヌエイホテルサービス,0
1353,7120001244783,新規,0,2022-04-04,2022-04-04,株式会社ジルファミー,,株式会社,大阪府,守口市,紅屋町３番６号,,27,209,5700075,,,,,,,2022-04-04,1,,,,,ジルファミー,0
1354,7120001244800,新規,0,2022-04-04,2022-04-04,ＫＡＺＫＩ株式会社,,株式会社,大阪府,大阪市平野区,平野市町１丁目１番１３号申野オフィス２Ｆ,,27,126,5470042,,,,,,,2022-04-04,1,,,,,カズキ,0
1355,7120001244817,新規,0,2022-04-04,2022-04-04,Ｕｓｅｆｕｌ　Ｄａｙｓ株式会社,,株式会社,大阪府,大阪市城東区,関目２丁目７番８号,,27,118,5360008,,,,,,,2022-04-04,1,,,,,ユースフルデイズ,0
1359,7120003021396,新規,0,2022-04-04,2022-04-04,合同会社７Ｃｏｎｓｕｌｔｉｎｇ,,合同会社,大阪府,大阪市淀川区,西中島３丁目１１番１４号,,27,123,5320011,,,,,,,2022-04-04,1,,,,,セブンコンサルティング,0
1364,7120101065312,新規,0,2022-04-04,2022-04-04,株式会社川端興業,,株式会社,大阪府,堺市堺区,西湊町５丁１番１４号,,27,141,5900835,,,,,,,2022-04-04,1,,,,,カワバタコウギョウ,0
1366,7122001035725,新規,0,2022-04-04,2022-04-04,株式会社丸高製作所,,株式会社,大阪府,東大阪市,楠根２丁目６番２８号,,27,227,5770006,,,,,,,2022-04-04,1,,,,,マルタカセイサクショ,0
1376,7140001125437,新規,0,2022-04-04,2022-04-04,株式会社ＨＳ,,株式会社,兵庫県,神戸市長田区,御蔵通５丁目５番地,,28,106,6530014,,,,,,,2022-04-04,1,,,,,エイチエス,0
1383,7180001150563,新規,0,2022-04-04,2022-04-04,松本水道株式会社,,株式会社,愛知県,半田市,南二ツ坂町１丁目８番地の９,,23,205,4750926,,,,,,,2022-04-04,1,,,,,マツモトスイドウ,0
1384,7180001150729,新規,0,2022-04-04,2022-04-04,株式会社六十六,,株式会社,愛知県,名古屋市東区,白壁２丁目１番２０号,,23,102,4610011,,,,,,,2022-04-04,1,,,,,ロクジュウロク,0
1397,7200001039903,新規,0,2022-04-04,2022-04-04,株式会社みろく,,株式会社,岐阜県,各務原市,成清町６丁目１３２番地,,21,213,5040935,,,,,,,2022-04-04,1,,,,,ミロク,0
1398,7200001039928,新規,0,2022-04-04,2022-04-04,株式会社友凪出版,,株式会社,岐阜県,瑞穂市,牛牧１５６８番地７,,21,216,5010234,,,,,,,2022-04-04,1,,,,,ユウナギシュッパン,0
1401,7240001059559,新規,0,2022-04-04,2022-04-04,株式会社Ｏｆｆｉｃｅ　Ｋａｎｎａ,,株式会社,広島県,広島市安佐北区,可部南２丁目１０番４５号,,34,106,7310223,,,,,,,2022-04-04,1,,,,,オフィスカンナ,0
1407,7240003005569,新規,0,2022-04-04,2022-04-04,合同会社Ｒｅ．ｂｉｒｔｈ,,合同会社,広島県,福山市,神辺町字湯野１０００番地２０,,34,207,7202121,,,,,,,2022-04-04,1,,,,,リバース,0
1414,7260001036688,新規,0,2022-04-04,2022-04-04,株式会社オーケークリーン企画,,株式会社,岡山県,岡山市南区,浜野２丁目５番２９－２号,,33,104,7000845,,,,,,,2022-04-04,1,,,,,オーケークリーンキカク,0
1415,7260001036696,新規,0,2022-04-04,2022-04-04,株式会社ＡＲＣＡＮＡ,,株式会社,岡山県,岡山市北区,鹿田本町７番２４号３Ｆ,,33,101,7000915,,,,,,,2022-04-04,1,,,,,アルカナ,0
1421,7280001008669,新規,0,2022-04-04,2022-04-04,株式会社鶴原農園,,株式会社,島根県,松江市,上乃木１丁目２６番１３号,,32,201,6900015,,,,,,,2022-04-04,1,,,,,ツルハラノウエン,0
1424,7290001097018,新規,0,2022-04-04,2022-04-04,福岡森林企画株式会社,,株式会社,福岡県,古賀市,花鶴丘３丁目７番６号,,40,223,8113104,,,,,,,2022-04-04,1,,,,,フクオカシンリンキカク,0
1425,7290001097026,新規,0,2022-04-04,2022-04-04,株式会社ＦＦＧ　Ｓｕｃｃｅｓｓｉｏｎ,,株式会社,福岡県,福岡市南区,高宮５丁目２番５号５階,,40,134,8150083,,,,,,,2022-04-04,1,,,,,エフエフジーサクセション,0
1428,7290003012338,新規,0,2022-04-04,2022-04-04,合同会社寧,,合同会社,福岡県,福岡市博多区,千代４丁目１４番１１号Ｔ１０３号,,40,132,8120044,,,,,,,2022-04-04,1,,,,,ネイ,0
1429,7290003012354,新規,0,2022-04-04,2022-04-04,合同会社Ｃａｒｉｎｅ,,合同会社,福岡県,糸島市,志摩初２４９番地,,40,230,8191312,,,,,,,2022-04-04,1,,,,,カリーネ,0
1430,7330001029585,新規,0,2022-04-04,2022-04-04,株式会社ＴＥＮＴＡＯ,,株式会社,熊本県,荒尾市,大島１４６番地３サンネージュＢ棟,,43,204,8640057,,,,,,,2022-04-04,1,,,,,テンタオ,0
1433,7340001024610,新規,0,2022-04-04,2022-04-04,株式会社ビーテック,,株式会社,鹿児島県,姶良市,平松７５４６番地３号,,46,225,8995652,,,,,,,2022-04-04,1,,,,,ビーテック,0
1434,7340005009434,新規,0,2022-04-04,2022-04-04,一般社団法人二官橋柳元,,その他の設立登記法人,鹿児島県,姶良市,加治木町木田２８１２番地１,,46,225,8995241,,,,,,,2022-04-04,1,,,,,ニカンバシヤナギモト,0
1435,7350001017679,新規,0,2022-04-04,2022-04-04,株式会社マルナカ,,株式会社,宮崎県,串間市,大字南方２２１９番地,,45,207,8880007,,,,,,,2022-04-04,1,,,,,マルナカ,0
1442,7370001048367,新規,0,2022-04-04,2022-04-04,進大工業株式会社,,株式会社,宮城県,宮城郡七ヶ浜町,境山１丁目１６番２６号,,04,404,9850824,,,,,,,2022-04-04,1,,,,,シンダイコウギョウ,0
1443,7370001048375,新規,0,2022-04-04,2022-04-04,株式会社エスプランニング,,株式会社,宮城県,仙台市青葉区,本町２丁目１９番１－７０６号,,04,101,9800014,,,,,,,2022-04-04,1,,,,,エスプランニング,0
1444,7370001048391,新規,0,2022-04-04,2022-04-04,ばす・すとっぷ株式会社,,株式会社,宮城県,仙台市泉区,七北田字朴木沢９３番地の１,,04,105,9813131,,,,,,,2022-04-04,1,,,,,バスストップ,0
1462,7500001024098,新規,0,2022-04-04,2022-04-04,ラケットショップハマナカ株式会社,,株式会社,愛媛県,松山市,西一万町８番地９,,38,201,7900805,,,,,,,2022-04-04,1,,,,,ラケットショップハマナカ,0
1463,7500001024107,新規,0,2022-04-04,2022-04-04,株式会社村一番,,株式会社,愛媛県,松山市,和泉南５丁目３番１号,,38,201,7900941,,,,,,,2022-04-04,1,,,,,ムライチバン,0
1464,7500001024123,新規,0,2022-04-04,2022-04-04,ＴＡＩＳＥＩ工業株式会社,,株式会社,愛媛県,大洲市,森山甲９３４番地３,,38,207,7950087,,,,,,,2022-04-04,1,,,,,タイセイコウギョウ,0
1471,8010401166530,新規,0,2022-04-04,2022-04-04,いぶき株式会社,,株式会社,東京都,港区,芝５丁目１３番１１号,,13,103,1080014,,,,,,,2022-04-04,1,,,,,イブキ,0
1474,8010503006551,新規,0,2022-04-04,2022-04-04,合同会社木下フード,,合同会社,東京都,台東区,上野２丁目８－７ＳＥＩＫＡビル５Ｆ,,13,106,1100005,,,,,,,2022-04-04,1,,,,,キノシタフード,0
1476,8010601060905,新規,0,2022-04-04,2022-04-04,株式会社ライズ,,株式会社,東京都,墨田区,菊川２丁目１０番１－２０２号,,13,107,1300024,,,,,,,2022-04-04,1,,,,,ライズ,0
1477,8010603009470,新規,0,2022-04-04,2022-04-04,合同会社ＳｈｉｍａＣｏ,,合同会社,東京都,江東区,大島３丁目１８－１０,,13,108,1360072,,,,,,,2022-04-04,1,,,,,シマコ,0
1490,8011501027903,新規,0,2022-04-04,2022-04-04,三月株式会社,,株式会社,東京都,北区,赤羽北２丁目１５番１－９１９号,,13,117,1150052,,,,,,,2022-04-04,1,,,,,サンガツ,0
1491,8011501027911,新規,0,2022-04-04,2022-04-04,株式会社ニトリデジタルベース,,株式会社,東京都,北区,神谷３丁目６番２０号,,13,117,1150043,,,,,,,2022-04-04,1,,,,,ニトリデジタルベース,0
1493,8011503005122,新規,0,2022-04-04,2022-04-04,合同会社中野建設,,合同会社,東京都,荒川区,町屋１丁目１５番４号,,13,118,1160001,,,,,,,2022-04-04,1,,,,,ナカノケンセツ,0
1494,8011603003554,新規,0,2022-04-04,2022-04-04,合同会社リバーシブル,,合同会社,東京都,練馬区,旭町２丁目３０番２０号エルハイツ成増,,13,120,1790071,,,,,,,2022-04-04,1,,,,,リバーシブル,0
1495,8011805003162,新規,0,2022-04-04,2022-04-04,一般社団法人ＥＳ　ＬＥＡＧＵＥ,,その他の設立登記法人,東京都,足立区,西新井２丁目２６番１１号,,13,121,1230841,,,,,,,2022-04-04,1,,,,,エスリーグ,0
1496,8012401039039,新規,0,2022-04-04,2022-04-04,株式会社祐,,株式会社,東京都,武蔵野市,吉祥寺本町１丁目２３番７号沢村ビル２階,,13,203,1800004,,,,,,,2022-04-04,1,,,,,ユウ,0
1499,8013301048889,新規,0,2022-04-04,2022-04-04,株式会社クリエイト,,株式会社,東京都,豊島区,西池袋１丁目３９番４号,,13,116,1710021,,,,,,,2022-04-04,1,,,,,クリエイト,0
1502,8020001145875,新規,0,2022-04-04,2022-04-04,株式会社ＴＩＭＥ　ｏｆ　ＳＥＬＥＣＴＩＯＮ,,株式会社,神奈川県,横浜市中区,山下町２番地産業貿易センタービル,,14,104,2310023,,,,,,,2022-04-04,1,,,,,タイムオブセレクション,0
1503,8020001145891,新規,0,2022-04-04,2022-04-04,華億建装株式会社,,株式会社,神奈川県,横浜市南区,中村町５丁目３１９番地３ワコーレ吉野町ガーデン２２３号,,14,105,2320033,,,,,,,2022-04-04,1,,,,,ハナオクケンソウ,0
1510,8021001075567,新規,0,2022-04-04,2022-04-04,株式会社Ｕ．Ｄ．Ｙ,,株式会社,神奈川県,相模原市緑区,牧野５２１１番地,,14,151,2520186,,,,,,,2022-04-04,1,,,,,ユーディーワイ,0
1511,8021001075575,新規,0,2022-04-04,2022-04-04,株式会社廣田興業,,株式会社,神奈川県,小田原市,入生田１８３番地,,14,206,2500031,,,,,,,2022-04-04,1,,,,,ヒロタコウギョウ,0
1512,8021003011529,新規,0,2022-04-04,2022-04-04,ｐｕｒｅｗａｔｅｒ合同会社,,合同会社,神奈川県,藤沢市,湘南台６丁目２７番地の９アルカディア湘南１０２,,14,205,2520804,,,,,,,2022-04-04,1,,,,,ピュアウォーター,0
1513,8021003011537,新規,0,2022-04-04,2022-04-04,合同会社ＫＡＭＡＺＵ　ＥＳＴＡＴＥ,,合同会社,神奈川県,逗子市,新宿３丁目１１番３６号,,14,208,2490007,,,,,,,2022-04-04,1,,,,,カマズエステイト,0
1514,8021005012467,新規,0,2022-04-04,2022-04-04,一般社団法人湘南里山ファーム,,その他の設立登記法人,神奈川県,茅ヶ崎市,下寺尾１４７４番地,,14,207,2530081,,,,,,,2022-04-04,1,,,,,,0
1521,8040001122831,新規,0,2022-04-04,2022-04-04,株式会社ＥＡＳＥ,,株式会社,千葉県,四街道市,四街道１５４９番地１１（グラン・コート四街道３０４号）,,12,228,2840005,,,,,,,2022-04-04,1,,,,,イーエーエスイー,0
1527,8070001039098,新規,0,2022-04-04,2022-04-04,株式会社美ら海,,株式会社,群馬県,高崎市,上中居町２９７番地１,,10,202,3700851,,,,,,,2022-04-04,1,,,,,チュラウミ,0
1533,8080001024842,新規,0,2022-04-04,2022-04-04,株式会社Ｋａｗａｎｏ,,株式会社,静岡県,静岡市駿河区,下川原２丁目８番１７号,,22,102,4210113,,,,,,,2022-04-04,1,,,,,カワノ,0
1534,8080001024850,新規,0,2022-04-04,2022-04-04,ｏｒｙｚａ　ｆａｒｍ株式会社,,株式会社,静岡県,藤枝市,青南町４丁目１５番地の６,,22,214,4260063,,,,,,,2022-04-04,1,,,,,オリザファーム,0
1537,8080101023190,新規,0,2022-04-04,2022-04-04,株式会社昌建,,株式会社,静岡県,富士宮市,万野原新田３１３７番地の２,,22,207,4180001,,,,,,,2022-04-04,1,,,,,マサケン,0
1538,8080103002564,新規,0,2022-04-04,2022-04-04,合同会社矢田住設,,合同会社,静岡県,田方郡函南町,畑毛２２９番地の１１,,22,325,4190111,,,,,,,2022-04-04,1,,,,,ヤタジュウセツ,0
1539,8080401025713,新規,0,2022-04-04,2022-04-04,株式会社ＪＯＹ環境,,株式会社,静岡県,浜松市浜北区,内野１９２１番地の１,,22,136,4340044,,,,,,,2022-04-04,1,,,,,ジョイカンキョウ,0
1540,8090001017498,新規,0,2022-04-04,2022-04-04,株式会社ｏｆｆｉｃｅ　Ｋｏｔｓｕｇａｉ,,株式会社,山梨県,中巨摩郡昭和町,西条４７４番地３,,19,384,4093866,,,,,,,2022-04-04,1,,,,,オフィスコツガイ,0
1560,8120003021387,新規,0,2022-04-04,2022-04-04,ＩｇｎｉｔＤｅｓｉｇｎ合同会社,,合同会社,大阪府,大阪市西区,江戸堀１丁目１５番１３号,,27,106,5500002,,,,,,,2022-04-04,1,,,,,イグニットデザイン,0
1573,8140001125469,新規,0,2022-04-04,2022-04-04,株式会社ＩＷＳＫ,,株式会社,兵庫県,加古川市,平岡町新在家２１９９番地の２９,,28,210,6750101,,,,,,,2022-04-04,1,,,,,アイダブリューエスケー,0
1578,8160001024090,新規,0,2022-04-04,2022-04-04,株式会社つかした建築,,株式会社,滋賀県,長浜市,内保町２３６７番地５,,25,203,5260244,,,,,,,2022-04-04,1,,,,,ツカシタケンチク,0
1581,8180001150604,新規,0,2022-04-04,2022-04-04,株式会社ペコリーノ,,株式会社,愛知県,一宮市,昭和２丁目２番２３号,,23,203,4910917,,,,,,,2022-04-04,1,,,,,ペコリーノ,0
1582,8180001150612,新規,0,2022-04-04,2022-04-04,株式会社サンマテオ,,株式会社,愛知県,知多郡東浦町,大字緒川字寿久茂８８番地,,23,442,4702102,,,,,,,2022-04-04,1,,,,,サンマテオ,0
1583,8180001150637,新規,0,2022-04-04,2022-04-04,株式会社ライツマン,,株式会社,愛知県,瀬戸市,山手町４番地の２,,23,204,4890989,,,,,,,2022-04-04,1,,,,,ライツマン,0
1584,8180001150645,新規,0,2022-04-04,2022-04-04,Ａｕｒｏｒａ株式会社,,株式会社,愛知県,丹羽郡扶桑町,大字高雄字下山４５８番地,,23,362,4800102,,,,,,,2022-04-04,1,,,,,オーロラ,0
1585,8180001150678,新規,0,2022-04-04,2022-04-04,株式会社ＳＦＶ,,株式会社,愛知県,名古屋市西区,こも原町２０１番地の１,,23,104,4520824,,,,,,,2022-04-04,1,,,,,エスエフブイ,0
1586,8180001150686,新規,0,2022-04-04,2022-04-04,株式会社ユニテック,,株式会社,愛知県,名古屋市西区,城西１丁目５番１号,,23,104,4510031,,,,,,,2022-04-04,1,,,,,ユニテック,0
1587,8180001150728,新規,0,2022-04-04,2022-04-04,株式会社青井設備工業,,株式会社,愛知県,一宮市,木曽川町門間字西郷５０６番地１,,23,203,4930002,,,,,,,2022-04-04,1,,,,,アオイセツビコウギョウ,0
1594,8200001039927,新規,0,2022-04-04,2022-04-04,株式会社ＲＹＳ　ＲＥＡＬＩＺＥ,,株式会社,岐阜県,岐阜市,高砂町１丁目１７番地岐阜イーストライジング２４・２階,,21,201,5008407,,,,,,,2022-04-04,1,,,,,リズリアライズ,0
1597,8220001024794,新規,0,2022-04-04,2022-04-04,株式会社一誠,,株式会社,石川県,金沢市,彦三町１丁目１４番２０－１号,,17,201,9200901,,,,,,,2022-04-04,1,,,,,イッセイ,0
1600,8240001059525,新規,0,2022-04-04,2022-04-04,株式会社向山鈑金工作所,,株式会社,広島県,尾道市,瀬戸田町瀬戸田３９３番地２,,34,205,7222411,,,,,,,2022-04-04,1,,,,,ムカイヤマバンキンコウサクショ,0
1608,8260001036687,新規,0,2022-04-04,2022-04-04,宏遠貿易株式会社,,株式会社,岡山県,岡山市東区,可知１丁目７３番地３,,33,103,7048173,,,,,,,2022-04-04,1,,,,,ホンユェンボウエキ,0
1609,8260001036695,新規,0,2022-04-04,2022-04-04,株式会社ちゅうぎんキャピタルパートナーズ,,株式会社,岡山県,岡山市北区,丸の内１丁目１５番２０号ちゅうぎん本店ビル９階,,33,101,7000823,,,,,,,2022-04-04,1,,,,,チュウギンキャピタルパートナーズ,0
1610,8260001036704,新規,0,2022-04-04,2022-04-04,株式会社Ｋｊ,,株式会社,岡山県,倉敷市,水島南緑町９番１９号,,33,202,7128023,,,,,,,2022-04-04,1,,,,,ケイジェイ,0
1611,8260001036712,新規,0,2022-04-04,2022-04-04,株式会社ＦＵＬＨＯＵＳＥ,,株式会社,岡山県,井原市,上出部町９３番地,,33,207,7150021,,,,,,,2022-04-04,1,,,,,フルハウス,0
1612,8260003003859,新規,0,2022-04-04,2022-04-04,合同会社エボリューションＵＴＡＫＡ,,合同会社,岡山県,和気郡和気町,福富６１３番地９,,33,346,7090442,,,,,,,2022-04-04,1,,,,,エボリューションウタカ,0
1625,8290001097017,新規,0,2022-04-04,2022-04-04,株式会社Ａ‐ｈａ　Ｃｏｒｐｏｒａｔｉｏｎ,,株式会社,福岡県,太宰府市,通古賀３丁目１１番地２１号フィールド都府楼２Ｆ,,40,221,8180104,,,,,,,2022-04-04,1,,,,,アーハコーポレーション,0
1626,8290001097033,新規,0,2022-04-04,2022-04-04,株式会社ＴＯＣ,,株式会社,福岡県,福岡市博多区,吉塚４丁目１１番３４号,,40,132,8120041,,,,,,,2022-04-04,1,,,,,ティーオーシー,0
1627,8290001097041,新規,0,2022-04-04,2022-04-04,株式会社ＮＡ設計事務所,,株式会社,福岡県,福岡市博多区,美野島２丁目１６番８号,,40,132,8120017,,,,,,,2022-04-04,1,,,,,エヌエーセッケイジムショ,0
1628,8290001097066,新規,0,2022-04-04,2022-04-04,株式会社西嶋工業,,株式会社,福岡県,福岡市西区,戸切１丁目７番２０号,,40,135,8190032,,,,,,,2022-04-04,1,,,,,ニシジマコウギョウ,0
1629,8290001097074,新規,0,2022-04-04,2022-04-04,株式会社聖建,,株式会社,福岡県,福岡市早良区,西新６丁目９番３０－１０３号,,40,137,8140002,,,,,,,2022-04-04,1,,,,,セイケン,0
1630,8290001097082,新規,0,2022-04-04,2022-04-04,株式会社ＣＯＯ,,株式会社,福岡県,福岡市中央区,今泉２丁目４番２４－２０８号,,40,133,8100021,,,,,,,2022-04-04,1,,,,,クー,0
1633,8290003012353,新規,0,2022-04-04,2022-04-04,合同会社むすび,,合同会社,福岡県,福岡市早良区,飯倉６丁目７番３－２０３号,,40,137,8140161,,,,,,,2022-04-04,1,,,,,ムスビ,0
1639,8330001029584,新規,0,2022-04-04,2022-04-04,株式会社レリアンス九州,,株式会社,熊本県,熊本市東区,長嶺南８丁目４番７号,,43,102,8618039,,,,,,,2022-04-04,1,,,,,レリアンスキュウシュウ,0
1643,8340001024626,新規,0,2022-04-04,2022-04-04,株式会社ミヤボク宮下牧場,,株式会社,鹿児島県,日置市,伊集院町恋之原９８９番地１,,46,216,8992524,,,,,,,2022-04-04,1,,,,,ミヤボクミヤシタボクジョウ,0
1645,8340005009433,新規,0,2022-04-04,2022-04-04,特定非営利活動法人新鹿児島グルメ都市企画,,その他の設立登記法人,鹿児島県,鹿児島市,中央町１８番地１,,46,201,8900053,,,,,,,2022-04-04,1,,,,,シンカゴシマグルメトシキカク,0
1651,8360001030176,新規,0,2022-04-04,2022-04-04,株式会社Ａｄａｍ,,株式会社,沖縄県,中頭郡読谷村,字宇座１８６１残波リゾートアクティビティパーク内,,47,324,9040328,,,,,,,2022-04-04,1,,,,,アダム,0
1653,8370001048366,新規,0,2022-04-04,2022-04-04,ＴＯＫ株式会社,,株式会社,宮城県,仙台市若林区,若林３丁目１３番１７－２０１号,,04,103,9840826,,,,,,,2022-04-04,1,,,,,ティーオーケー,0
1654,8370003005638,新規,0,2022-04-04,2022-04-04,合同会社プレシアル,,合同会社,宮城県,富谷市,富ケ丘１丁目１６－１９,,04,216,9813352,,,,,,,2022-04-04,1,,,,,プレシアル,0
1663,8400001015833,新規,0,2022-04-04,2022-04-04,株式会社メディカルサービス,,株式会社,岩手県,盛岡市,神明町６番６―９１４号,,03,201,0200884,,,,,,,2022-04-04,1,,,,,メディカルサービス,0
1664,8400001015841,新規,0,2022-04-04,2022-04-04,株式会社緑幸匠園,,株式会社,岩手県,二戸市,堀野字大河原毛１５２番地１,,03,213,0286105,,,,,,,2022-04-04,1,,,,,リョッコウショウエン,0
1678,8490001010149,新規,0,2022-04-04,2022-04-04,株式会社司設備,,株式会社,高知県,高知市,仁井田８２３番地５,,39,201,7810112,,,,,,,2022-04-04,1,,,,,ツカサセツビ,0
1681,8500001024097,新規,0,2022-04-04,2022-04-04,株式会社リブネット,,株式会社,愛媛県,松山市,古川南３丁目１６番４３号,,38,201,7900943,,,,,,,2022-04-04,1,,,,,リブネット,0
1682,8500001024106,新規,0,2022-04-04,2022-04-04,株式会社ＡＧＲＥＳＴ,,株式会社,愛媛県,松山市,新浜町１番３８号,,38,201,7918083,,,,,,,2022-04-04,1,,,,,アグレスト,0
1683,8500001024114,新規,0,2022-04-04,2022-04-04,Ｔ‐コンサルティング株式会社,,株式会社,愛媛県,松山市,真砂町６番地４,,38,201,7900021,,,,,,,2022-04-04,1,,,,,ティーコンサルティング,0
1686,8500003002803,新規,0,2022-04-04,2022-04-04,合同会社酒井ピッグファーム,,合同会社,愛媛県,北宇和郡鬼北町,大字久保２５５,,38,488,7981314,,,,,,,2022-04-04,1,,,,,サカイピッグファーム,0
1687,8500005008476,新規,0,2022-04-04,2022-04-04,企業組合えひめオーガニック,,その他の設立登記法人,愛媛県,喜多郡内子町,五十崎甲１３７１番地６,,38,422,7950301,,,,,,,2022-04-04,1,,,,,エヒメオーガニック,0
1688,8700150100744,新規,0,2022-04-04,2020-10-20,大西松久会,,その他,兵庫県,川西市,平野２丁目２３－２７,,28,217,6660121,,,,,,,2020-10-20,1,,,,,オオニシシヨウキユウカイ,0
1695,9010401166521,新規,0,2022-04-04,2022-04-04,株式会社ＳＹホールディングス,,株式会社,東京都,港区,六本木６丁目１０番１号六本木ヒルズ森タワー１６階,,13,103,1060032,,,,,,,2022-04-04,1,,,,,エスワイホールディングス,0
1696,9010401166620,新規,0,2022-04-04,2022-04-04,株式会社ＳＥＮＳＥ,,株式会社,東京都,港区,六本木３丁目１６番２６号ハリファックスビル８階,,13,103,1060032,,,,,,,2022-04-04,1,,,,,センス,0
1699,9010501048660,新規,0,2022-04-04,2022-04-04,トンカチ株式会社,,株式会社,東京都,台東区,橋場１丁目１７番１５号,,13,106,1110023,,,,,,,2022-04-04,1,,,,,トンカチ,0
1700,9010501048669,新規,0,2022-04-04,2022-04-04,株式会社ＮＣＬ,,株式会社,東京都,台東区,上野１丁目１番１０号,,13,106,1100005,,,,,,,2022-04-04,1,,,,,エヌシーエル,0
1706,9010903007272,新規,0,2022-04-04,2022-04-04,合同会社そそ,,合同会社,東京都,世田谷区,成城５丁目１５番１１号,,13,112,1570066,,,,,,,2022-04-04,1,,,,,ソソ,0
1708,9011001146665,新規,0,2022-04-04,2022-04-04,ＡＸＩＯＭ株式会社,,株式会社,東京都,渋谷区,円山町５番５号Ｎａｖｉ渋谷Ｖ３階,,13,113,1500044,,,,,,,2022-04-04,1,,,,,アクシアム,0
1713,9011101098360,新規,0,2022-04-04,2022-04-04,株式会社ｃｈｅｅｒ　ｕｐ’ｓ,,株式会社,東京都,新宿区,市谷柳町９番地ＤｅＬＣＣＳ市谷柳町１００１,,13,104,1620061,,,,,,,2022-04-04,1,,,,,チアアップズ,0
1717,9011401024140,新規,0,2022-04-04,2022-04-04,株式会社Ｉ・Ｔ・Ｏ,,株式会社,東京都,板橋区,徳丸６丁目４１番１－１０５号,,13,119,1750083,,,,,,,2022-04-04,1,,,,,アイティーオー,0
1719,9011501027902,新規,0,2022-04-04,2022-04-04,株式会社アクティブスターファイナンス,,株式会社,東京都,荒川区,荒川５丁目１－１３山路ビル２階,,13,118,1160002,,,,,,,2022-04-04,1,,,,,アクティブスターファイナンス,0
1720,9011601025847,新規,0,2022-04-04,2022-04-04,株式会社Ｗｉｌｌ　Ｄｒｉｖｅｒ,,株式会社,東京都,練馬区,練馬１丁目２０－８日建練馬ビル２Ｆ,,13,120,1760001,,,,,,,2022-04-04,1,,,,,ウィルドライバー,0
1721,9011601025855,新規,0,2022-04-04,2022-04-04,三坂不動産株式会社,,株式会社,東京都,練馬区,下石神井２丁目３１－５－５０２,,13,120,1770042,,,,,,,2022-04-04,1,,,,,ミサカフドウサン,0
1731,9020001145874,新規,0,2022-04-04,2022-04-04,株式会社シグマハーモニクス,,株式会社,神奈川県,横浜市港北区,樽町１丁目１８番４３号,,14,109,2220001,,,,,,,2022-04-04,1,,,,,シグマハーモニクス,0
1740,9030003019126,新規,0,2022-04-04,2022-04-04,合同会社ＡｔｏＥハビッツ,,合同会社,埼玉県,所沢市,大字山口５２５１－８５－１－１０２,,11,208,3591145,,,,,,,2022-04-04,1,,,,,エートゥーイーハビッツ,0
1745,9040001122756,新規,0,2022-04-04,2022-04-04,株式会社ＫＥＧ,,株式会社,千葉県,八街市,八街ほ９７１番地１９,,12,230,2891115,,,,,,,2022-04-04,1,,,,,ケーイージー,0
1748,9040003019810,新規,0,2022-04-04,2022-04-04,合同会社Ｆｉｒｓｔ　Ｌｏｒｄ,,合同会社,千葉県,市原市,ちはら台南４丁目１２－１４,,12,219,2900142,,,,,,,2022-04-04,1,,,,,ファーストロード,0
1756,9070001039097,新規,0,2022-04-04,2022-04-04,株式会社住建ＰＬＵＳ,,株式会社,群馬県,藤岡市,下栗須４３番地１０,,10,209,3750014,,,,,,,2022-04-04,1,,,,,ジュウケンプラス,0
1761,9090001017497,新規,0,2022-04-04,2022-04-04,株式会社Ｖｅｓｐｅｒ,,株式会社,山梨県,甲府市,里吉４丁目４番１８号ＴＭビル１Ｆ,,19,201,4000822,,,,,,,2022-04-04,1,,,,,ヴェスパー,0
1762,9100001035209,新規,0,2022-04-04,2022-04-04,株式会社ハコヤマファーム,,株式会社,長野県,上田市,芳田２４７番地,,20,203,3860151,,,,,,,2022-04-04,1,,,,,ハコヤマファーム,0
1780,9122003002309,新規,0,2022-04-04,2022-04-04,合同会社ホットケア,,合同会社,大阪府,四條畷市,中野新町１３番１８号シャルマン四條畷１１０号,,27,229,5750054,,,,,,,2022-04-04,1,,,,,ホットケア,0
1789,9140001125410,新規,0,2022-04-04,2022-04-04,株式会社オフィスＭＭ．ＫＵＲＯＤＡ,,株式会社,兵庫県,西宮市,大井手町１１番２９号,,28,204,6620036,,,,,,,2022-04-04,1,,,,,オフィスエムエムクロダ,0
1790,9140001125427,新規,0,2022-04-04,2022-04-04,スリーナイン株式会社,,株式会社,兵庫県,神戸市中央区,加納町２丁目１３－１６北野ダイヤハイツ１０１,,28,110,6500001,,,,,,,2022-04-04,1,,,,,スリーナイン,0
1791,9140005026101,新規,0,2022-04-04,2022-04-04,一般社団法人日本ストレスマネジメント協会,,その他の設立登記法人,兵庫県,神戸市中央区,東町１２３番地の１,,28,110,6500031,,,,,,,2022-04-04,1,,,,,ニホンストレスマネジメントキョウカイ,0
1794,9160001024098,新規,0,2022-04-04,2022-04-04,株式会社フィリップ,,株式会社,滋賀県,草津市,穴村町３８５番地３,,25,206,5250012,,,,,,,2022-04-04,1,,,,,フィリップ,0
1805,9180001150636,新規,0,2022-04-04,2022-04-04,株式会社ＳＴＡＲ‐ＣＬＵＢ,,株式会社,愛知県,名古屋市西区,城町１２５番地,,23,104,4520842,,,,,,,2022-04-04,1,,,,,スタークラブ,0
1806,9180001150644,新規,0,2022-04-04,2022-04-04,株式会社ＷＡＳＥＩ　ＧＯＬＦ　ＪＡＰＡＮ,,株式会社,愛知県,西春日井郡豊山町,大字豊場字高前１５７番地,,23,342,4800202,,,,,,,2022-04-04,1,,,,,ワセイゴルフジャパン,0
1807,9180001150727,新規,0,2022-04-04,2022-04-04,株式会社季乃美,,株式会社,愛知県,一宮市,桜１丁目２番８号,,23,203,4910036,,,,,,,2022-04-04,1,,,,,キノミ,0
1813,9200001039918,新規,0,2022-04-04,2022-04-04,株式会社しずい細胞研究所,,株式会社,岐阜県,岐阜市,柳戸１番地１,,21,201,5011112,,,,,,,2022-04-04,1,,,,,シズイサイボウケンキュウジョ,0
1814,9200001039942,新規,0,2022-04-04,2022-04-04,ウェブタイズ株式会社,,株式会社,岐阜県,岐阜市,此花町６丁目１２オペラスＫＯＮＯＨＡＮＡ２階２０１号室,,21,201,5008333,,,,,,,2022-04-04,1,,,,,ウェブタイズ,0
1818,9240001059524,新規,0,2022-04-04,2022-04-04,ＬｉｆｅＶｉｓｉｏｎ株式会社,,株式会社,広島県,尾道市,高須町５１３０番地２,,34,205,7290141,,,,,,,2022-04-04,1,,,,,ライフビジョン,0
1819,9240001059549,新規,0,2022-04-04,2022-04-04,株式会社Ｔ‐ＷＦＯＯＤＳ,,株式会社,広島県,広島市西区,草津港１丁目５番６号,,34,104,7330832,,,,,,,2022-04-04,1,,,,,ティーダブルフーズ,0
1822,9260001036686,新規,0,2022-04-04,2022-04-04,株式会社大英総業,,株式会社,岡山県,倉敷市,沖新町７０番地２,,33,202,7100837,,,,,,,2022-04-04,1,,,,,ダイエイソウギョウ,0
1823,9260001036694,新規,0,2022-04-04,2022-04-04,株式会社永山設備,,株式会社,岡山県,岡山市南区,藤田６４８番地６３,,33,104,7010221,,,,,,,2022-04-04,1,,,,,ナガヤマセツビ,0
1828,9290001097024,新規,0,2022-04-04,2022-04-04,株式会社Ａ．ＷＡＶＥ,,株式会社,福岡県,福岡市早良区,室見５丁目１３番２１号,,40,137,8140015,,,,,,,2022-04-04,1,,,,,エーウェーブ,0
1829,9290001097057,新規,0,2022-04-04,2022-04-04,株式会社ＢＵＬＫ　ＢＬＥＳＳ,,株式会社,福岡県,大野城市,白木原５丁目７番５－８０１号サンパール白木原,,40,219,8160943,,,,,,,2022-04-04,1,,,,,バルクブレス,0
1830,9290001097081,新規,0,2022-04-04,2022-04-04,株式会社Ｆｒｅｅ　Ｃｏｌｏｒｓ,,株式会社,福岡県,福岡市中央区,天神２丁目１４番２号,,40,133,8100001,,,,,,,2022-04-04,1,,,,,フリーカラーズ,0
1831,9290003012344,新規,0,2022-04-04,2022-04-04,合同会社Ａｒｃｈ,,合同会社,福岡県,春日市,上白水７丁目１７５－６,,40,218,8160844,,,,,,,2022-04-04,1,,,,,アーチ,0
1832,9300001012864,新規,0,2022-04-04,2022-04-04,株式会社サンノミヤ,,株式会社,佐賀県,小城市,小城町松尾３６１０番地１,,41,208,8450004,,,,,,,2022-04-04,1,,,,,サンノミヤ,0
1837,9310005008602,新規,0,2022-04-04,2022-04-04,一般社団法人出島,,その他の設立登記法人,長崎県,長崎市,清水町１７番７号,,42,201,8528041,,,,,,,2022-04-04,1,,,,,デジマ,0
1839,9320001018991,新規,0,2022-04-04,2022-04-04,株式会社ＡＤＶＡＮＣＥ,,株式会社,大分県,大分市,碩田町３丁目１番１号ニューガイア大分北２０２号,,44,201,8700048,,,,,,,2022-04-04,1,,,,,,0
1856,9370001048365,新規,0,2022-04-04,2022-04-04,株式会社創天,,株式会社,宮城県,仙台市青葉区,中山吉成２丁目６番６号,,04,101,9893203,,,,,,,2022-04-04,1,,,,,ソウテン,0
1862,9400001015840,新規,0,2022-04-04,2022-04-04,石研工業株式会社,,株式会社,岩手県,盛岡市,玉山字川久保３番地,,03,201,0200202,,,,,,,2022-04-04,1,,,,,イシケンコウギョウ,0
1870,9460001005679,新規,0,2022-04-04,2022-04-04,株式会社Ｓ・Ｓファーム,,株式会社,北海道,阿寒郡鶴居村,字久著呂原野北１７線西３２番地２２,,01,667,0851200,,,,,,,2022-04-04,1,,,,,エスエスファーム,0
1877,9500001024088,新規,0,2022-04-04,2022-04-04,株式会社ｍａｔｓｕｒｕ,,株式会社,愛媛県,伊予市,下吾川３４１番地１５,,38,210,7993111,,,,,,,2022-04-04,1,,,,,マツル,0
1878,9500001024096,新規,0,2022-04-04,2022-04-04,株式会社タナカ,,株式会社,愛媛県,松山市,古川西３丁目１３番５号,,38,201,7900944,,,,,,,2022-04-04,1,,,,,タナカ,0
1879,9500001024105,新規,0,2022-04-04,2022-04-04,株式会社ルシアン,,株式会社,愛媛県,松山市,東川町乙４４番地７,,38,201,7910133,,,,,,,2022-04-04,1,,,,,ルシアン,0
1880,9500001024113,新規,0,2022-04-04,2022-04-04,株式会社Ｍ‐テック,,株式会社,愛媛県,松山市,中村５丁目３番１５号,,38,201,7900964,,,,,,,2022-04-04,1,,,,,エムテック,0
1881,9700150105866,新規,0,2022-04-04,2021-11-18,てづくりカンパニー,,その他,東京都,調布市,深大寺北町４丁目１１－５,,13,208,1820011,,,,,,,2021-11-18,1,,,,,テヅクリカンパニー,0
