sequenceNumber,corporateNumber,process,correct,updateDate,changeDate,name,nameImageId,kind,prefectureName,cityName,streetNumber,addressImageId,prefectureCode,cityCode,postCode,addressOutside,addressOutsideImageId,closeDate,closeCause,successorCorporateNumber,changeCause,assignmentDate,latest,enName,enPrefectureName,enCityName,enAddressOutside,furigana,hihyoji
15,1010001235469,新規,0,2023-05-22,2023-05-22,ホップ・イン・楽株式会社,,株式会社,東京都,中央区,新川１丁目１７番１８号,,13,102,1040033,,,,,,,2023-05-22,1,,,,,ホップインラク,0
16,1010001235510,新規,0,2023-05-22,2023-05-22,株式会社グローバルタレントアソシエイツ,,株式会社,東京都,中央区,日本橋浜町３丁目１６番７号,,13,102,1030007,,,,,,,2023-05-22,1,,,,,グローバルタレントアソシエイツ,0
17,1010001235519,新規,0,2023-05-22,2023-05-22,株式会社Ｋａｉｓｅｒ,,株式会社,東京都,文京区,本郷４丁目２６番８号山憲ビル２０１,,13,105,1130033,,,,,,,2023-05-22,1,,,,,カイザー,0
27,1010003040652,新規,0,2023-05-22,2023-05-22,オスカーＵＳファンディング１５合同会社,,合同会社,東京都,千代田区,丸の内３丁目１番１号東京共同会計事務所内,,13,101,1000005,,,,,,,2023-05-22,1,,,,,オスカーユーエスファンディングフィフティーン,0
28,1010005036723,新規,0,2023-05-22,2023-05-22,一般社団法人がん安心サポート協会,,その他の設立登記法人,東京都,中央区,晴海１丁目８－１１Ｙ２４Ｆ,,13,102,1040053,,,,,,,2023-05-22,1,,,,,ガンアンシンサポートキョウカイ,0
38,1010401174457,新規,0,2023-05-22,2023-05-22,株式会社プロジェクトカンパニー準備会社,,株式会社,東京都,港区,六本木１丁目６番１号,,13,103,1060032,,,,,,,2023-05-22,1,,,,,プロジェクトカンパニージュンビガイシャ,0
39,1010401174465,新規,0,2023-05-22,2023-05-22,Ｄｅｓｃａｒｔｅｓ　Ｉｎｓｕｒａｎｃｅ　Ｊａｐａｎ株式会社,,株式会社,東京都,港区,東麻布１丁目２３番５号ＰＭＣビル４階,,13,103,1060044,,,,,,,2023-05-22,1,,,,,デカルトインシュアランスジャパン,0
40,1010401174507,新規,0,2023-05-22,2023-05-22,株式会社オーシャン,,株式会社,東京都,港区,三田２丁目７番７号ザ・パームス三田５０２,,13,103,1080073,,,,,,,2023-05-22,1,,,,,オーシャン,0
41,1010401174515,新規,0,2023-05-22,2023-05-22,株式会社ＮＡＬＡ,,株式会社,東京都,港区,愛宕１丁目１番１－１６１０号,,13,103,1050002,,,,,,,2023-05-22,1,,,,,エヌエーエルエー,0
46,1010405022109,新規,0,2023-05-22,2023-05-22,コタエル・デジタル・ギルド労働者協同組合,,その他の設立登記法人,東京都,港区,虎ノ門１丁目１７番１号虎ノ門ヒルズビジネスタワー１５階,,13,103,1050001,,,,,,,2023-05-22,1,,,,,コタエルデジタルギルド,0
73,1011003016857,新規,0,2023-05-22,2023-05-22,デザインエナジー合同会社,,合同会社,東京都,渋谷区,東１丁目３２－１２,,13,113,1500011,,,,,,,2023-05-22,1,,,,,,0
77,1011101102922,新規,0,2023-05-22,2023-05-22,株式会社Ｉｔｏｓｈｉ　Ａｓａｎｏ,,株式会社,東京都,新宿区,荒木町２２番地,,13,104,1600007,,,,,,,2023-05-22,1,,,,,イトシアサノ,0
78,1011101102939,新規,0,2023-05-22,2023-05-22,Ｊ．Ｔ．Ｃ元亨株式会社,,株式会社,東京都,新宿区,百人町２丁目１番４５号赤煉瓦２４１,,13,104,1690073,,,,,,,2023-05-22,1,,,,,ジェーティーシーゲンコウ,0
79,1011101102947,新規,0,2023-05-22,2023-05-22,Ｅ＆Ｋ株式会社,,株式会社,東京都,新宿区,下宮比町２－２８飯田橋ハイタウン１０２３号,,13,104,1620822,,,,,,,2023-05-22,1,,,,,イーアンドケー,0
83,1011401025138,新規,0,2023-05-22,2023-05-22,株式会社ネクサス,,株式会社,東京都,板橋区,赤塚６丁目１３番１４号,,13,119,1750092,,,,,,,2023-05-22,1,,,,,ネクサス,0
92,1011801042410,新規,0,2023-05-22,2023-05-22,株式会社たんぽぽケア,,株式会社,東京都,葛飾区,鎌倉４丁目３１番１４号ステラ鎌倉１０１,,13,122,1250053,,,,,,,2023-05-22,1,,,,,タンポポケア,0
95,1012401040548,新規,0,2023-05-22,2023-05-22,株式会社Ｈａｍｍｏｃｋ,,株式会社,東京都,三鷹市,北野１丁目１番３号,,13,204,1810003,,,,,,,2023-05-22,1,,,,,ハンモック,0
105,1020001151707,新規,0,2023-05-22,2023-05-22,株式会社アーキテクトラボ,,株式会社,神奈川県,川崎市多摩区,登戸２４６５番地ＳＥＡＳＯＮＳＥＡＳＴ２０４,,14,135,2140014,,,,,,,2023-05-22,1,,,,,アーキテクトラボ,0
110,1020005016006,新規,0,2023-05-22,2023-05-22,一般社団法人日本ラクロールスイム協会,,その他の設立登記法人,神奈川県,川崎市宮前区,鷺沼１丁目１５番地８クレアーレ鷺沼１０５,,14,136,2160004,,,,,,,2023-05-22,1,,,,,ニホンラクロールスイムキョウカイ,0
111,1021001079120,新規,0,2023-05-22,2023-05-22,スモールベアサービス株式会社,,株式会社,神奈川県,座間市,東原１丁目７番１３号,,14,216,2520004,,,,,,,2023-05-22,1,,,,,スモールベアサービス,0
119,1030001153867,新規,0,2023-05-22,2023-05-22,株式会社間,,株式会社,埼玉県,ふじみ野市,上福岡１丁目５番２３号青柳ビル２Ｆ,,11,245,3560004,,,,,,,2023-05-22,1,,,,,マ,0
120,1030001153917,新規,0,2023-05-22,2023-05-22,株式会社Ｃｏｍｐａｓｓ,,株式会社,埼玉県,川口市,南鳩ヶ谷４丁目１７番１６－１０３号,,11,203,3340013,,,,,,,2023-05-22,1,,,,,コンパス,0
121,1030001153974,新規,0,2023-05-22,2023-05-22,株式会社エヌエイト,,株式会社,埼玉県,川口市,元郷２丁目１２番１１号,,11,203,3320011,,,,,,,2023-05-22,1,,,,,エヌエイト,0
122,1030001153982,新規,0,2023-05-22,2023-05-22,株式会社ＫＧＣ　Ｉｎｖｅｓｔ,,株式会社,埼玉県,川口市,西川口１丁目３８番２３号,,11,203,3320021,,,,,,,2023-05-22,1,,,,,ケージーシーインベスト,0
123,1030001153990,新規,0,2023-05-22,2023-05-22,株式会社ｎｏｎｄ,,株式会社,埼玉県,本庄市,児玉町上真下２６３番地１,,11,211,3670205,,,,,,,2023-05-22,1,,,,,ノンド,0
124,1030001153999,新規,0,2023-05-22,2023-05-22,株式会社ＳＨＯＷ　ＴＩＭＥ,,株式会社,埼玉県,和光市,白子１丁目１９番３号,,11,229,3510101,,,,,,,2023-05-22,1,,,,,ショータイム,0
125,1030001154015,新規,0,2023-05-22,2023-05-22,株式会社ＪＵＳＡＮＫＯ,,株式会社,埼玉県,さいたま市見沼区,東大宮１丁目１２－２２第１０大宮ハイツ３０１,,11,104,3370051,,,,,,,2023-05-22,1,,,,,ジュウサンコ,0
133,1030003021774,新規,0,2023-05-22,2023-05-22,麒麟合同会社,,合同会社,埼玉県,越谷市,北越谷２丁目４２番地１２,,11,222,3430026,,,,,,,2023-05-22,1,,,,,キリン,0
136,1030005021260,新規,0,2023-05-22,2023-05-22,特定非営利活動法人カンフォータブル・ケア普及協会,,その他の設立登記法人,埼玉県,東松山市,大字東平１２７７番地１１２,,11,212,3550002,,,,,,,2023-05-22,1,,,,,カンフォータブルケアフキュウキョウカイ,0
146,1070001040475,新規,0,2023-05-22,2023-05-22,株式会社Ｈａｌ‐ＲＥＳＯＲＴ,,株式会社,群馬県,高崎市,柳川町１－５高崎Ｍビル６０３,,10,202,3700815,,,,,,,2023-05-22,1,,,,,ハルリゾート,0
149,1080001025632,新規,0,2023-05-22,2023-05-22,株式会社ＦＩＮＥ　ＨＯＭＥ’Ｓ,,株式会社,静岡県,静岡市駿河区,中島１２７４番地の１カーサライトワンＡ－３０１,,22,102,4228046,,,,,,,2023-05-22,1,,,,,ファインホームズ,0
150,1080101024022,新規,0,2023-05-22,2023-05-22,株式会社リベリュール,,株式会社,静岡県,沼津市,岡宮１１０９番地の１パラネミスタ３０５,,22,203,4100011,,,,,,,2023-05-22,1,,,,,リベリュール,0
165,1120001255076,新規,0,2023-05-22,2023-05-22,三葉株式会社,,株式会社,大阪府,大阪市中央区,徳井町２丁目２番１１号ライオンズマンション東本町第三８０２号室,,27,128,5400025,,,,,,,2023-05-22,1,,,,,ミツバ,0
166,1120001255084,新規,0,2023-05-22,2023-05-22,ＳＴＵＤＩＯ　ＣＡＳＡ株式会社,,株式会社,大阪府,大阪市中央区,谷町４丁目７番２－６０２号,,27,128,5400012,,,,,,,2023-05-22,1,,,,,スタジオカーザ,0
167,1120001255092,新規,0,2023-05-22,2023-05-22,株式会社ＲＥＬＩＦＥ,,株式会社,大阪府,大阪市此花区,西九条１丁目７番１０号２０１,,27,104,5540012,,,,,,,2023-05-22,1,,,,,リライフ,0
168,1120001255101,新規,0,2023-05-22,2023-05-22,潁川株式会社,,株式会社,大阪府,大阪市平野区,平野本町４丁目１０－６平野第一マンション１０２号室,,27,126,5470044,,,,,,,2023-05-22,1,,,,,エイカワ,0
171,1120003024025,新規,0,2023-05-22,2023-05-22,＿研合同会社,00130570,合同会社,大阪府,大阪市北区,中津２丁目８番Ｃ－１１１５号室,,27,127,5310071,,,,,,,2023-05-22,1,,,,,クケン,0
172,1120003024124,新規,0,2023-05-22,2023-05-22,合同会社インターバルフィールド,,合同会社,大阪府,大阪市住之江区,粉浜西２丁目７番９号,,27,125,5590007,,,,,,,2023-05-22,1,,,,,インターバルフィールド,0
179,1122001037000,新規,0,2023-05-22,2023-05-22,株式会社ＣＨＵＮＧＡＵＴＯ,,株式会社,大阪府,東大阪市,池島町８丁目１番３０号,,27,227,5798064,,,,,,,2023-05-22,1,,,,,チュンオート,0
185,1140001130260,新規,0,2023-05-22,2023-05-22,福銘商事株式会社,,株式会社,兵庫県,神戸市兵庫区,荒田町２丁目７番６－１号,,28,105,6520032,,,,,,,2023-05-22,1,,,,,フクメイショウジ,0
193,1160001025054,新規,0,2023-05-22,2023-05-22,ＡＴ　ＦＲＥＳＨ株式会社,,株式会社,滋賀県,大津市,本宮２丁目２９番４８号,,25,201,5200804,,,,,,,2023-05-22,1,,,,,エィティーフレッシュ,0
194,1170001017612,新規,0,2023-05-22,2023-05-22,株式会社ダイヤ文具,,株式会社,和歌山県,田辺市,上屋敷２丁目９番１７号,,30,206,6460036,,,,,,,2023-05-22,1,,,,,ダイヤブング,0
197,1180003025240,新規,0,2023-05-22,2023-05-22,ｏｎｅ　ｃｌｏｖｅｒ合同会社,,合同会社,愛知県,名古屋市守山区,瀬古３丁目１０２６番地,,23,113,4630068,,,,,,,2023-05-22,1,,,,,ワンクローバー,0
198,1180003025257,新規,0,2023-05-22,2023-05-22,ＧＲＯＷ合同会社,,合同会社,愛知県,名古屋市昭和区,滝子町１８－１５オープンレジデンシア桜山４０２,,23,107,4660053,,,,,,,2023-05-22,1,,,,,グロウ,0
206,1240003006151,新規,0,2023-05-22,2023-05-22,合同会社Ａｆａ,,合同会社,広島県,福山市,新市町大字宮内２１７番地２０,,34,207,7293104,,,,,,,2023-05-22,1,,,,,アーファ,0
213,1260005011230,新規,0,2023-05-22,2023-05-22,協同組合いろは,,その他の設立登記法人,岡山県,玉野市,東紅陽台２丁目１９番地２４,,33,204,7060131,,,,,,,2023-05-22,1,,,,,イロハ,0
225,1360001032022,新規,0,2023-05-22,2023-05-22,株式会社ザ・フール,,株式会社,沖縄県,那覇市,字国場７２０番地５,,47,201,9020075,,,,,,,2023-05-22,1,,,,,ザフール,0
226,1360001032055,新規,0,2023-05-22,2023-05-22,株式会社アイランドシルバー,,株式会社,沖縄県,那覇市,牧志２丁目１７－２７－４０１,,47,201,9000013,,,,,,,2023-05-22,1,,,,,アイランドシルバー,0
228,1370005010634,新規,0,2023-05-22,2023-05-22,一般社団法人ナトカリ普及協会,,その他の設立登記法人,宮城県,仙台市青葉区,中央３丁目５番１７号,,04,101,9800021,,,,,,,2023-05-22,1,,,,,ナトカリフキュウキョウカイ,0
235,1430001089154,新規,0,2023-05-22,2023-05-22,株式会社ＣＨＲ,,株式会社,北海道,札幌市西区,西野四条３丁目１０番１号３０２,,01,107,0630034,,,,,,,2023-05-22,1,,,,,シーエイチアール,0
242,1700150106046,新規,0,2023-05-22,2021-12-02,三重県南部医療的ケア地域支援連携会議,,その他,三重県,尾鷲市,中央町１０番４３号,,24,209,5193615,,,,,,,2021-12-02,1,,,,,ミエケンナンブイリヨウテキケアチイキシエンレンケイカイギ,0
243,1700150116334,新規,0,2023-05-22,2023-05-22,Ｓｈｅｎｚｈｅｎ　Ｄａｐｕ　Ｔｅｃｈｎｏｌｏｇｙ　Ｃｏ．，Ｌｔｄ．,,外国会社等,,,,,,,,１８Ｄ，Ｂｕｉｌｄｉｎｇ　Ｎｏ．９，Ｐｈａｓｅ　８ｔｈ　ｏｆ　Ｗａｎｋｅ　５ｔｈ　Ｐａｒｋ　ＢａｎＴｉａｎ，ＬｏｎｇＧａｎｇ　Ｄｉｓｔｒｉｃｔ　Ｓｈｅｎｚｈｅｎ　Ｇｕａｎｇｄｏｎｇ,,,,,,2023-05-22,1,,,,,シンセンダプテクノロジーカンパニーリミテッド,0
253,2010001235443,新規,0,2023-05-22,2023-05-22,株式会社エフェクトワークス,,株式会社,東京都,千代田区,九段南１丁目５番６号りそな九段ビル５ＫＫＳフロア,,13,101,1020074,,,,,,,2023-05-22,1,,,,,エフェクトワークス,0
258,2010003040577,新規,0,2023-05-22,2023-05-22,合同会社モンカナン,,合同会社,東京都,中央区,日本橋浜町２丁目３５番４号日本橋浜町パークビル１００２号,,13,102,1030007,,,,,,,2023-05-22,1,,,,,モンカナン,0
259,2010003040635,新規,0,2023-05-22,2023-05-22,ＣＡＴＳ　ＡＮＤ　ＳＨＥＥＰ合同会社,,合同会社,東京都,文京区,千駄木５丁目１９番６号ＬＵＣＥ千駄木１０５,,13,105,1130022,,,,,,,2023-05-22,1,,,,,キャッツアンドシープ,0
261,2010005036697,新規,0,2023-05-22,2023-05-22,一般社団法人アイコン,,その他の設立登記法人,東京都,文京区,関口１丁目２番８号,,13,105,1120014,,,,,,,2023-05-22,1,,,,,アイコン,0
262,2010005036714,新規,0,2023-05-22,2023-05-22,一般社団法人ｉ‐ＰＥＴ,,その他の設立登記法人,東京都,千代田区,麹町６丁目５番地１カトリック麹町聖イグナチオ教会ガラルダ神父気付,00130574,13,101,1020083,,,,,,,2023-05-22,1,,,,,アイペット,0
278,2010401174316,新規,0,2023-05-22,2023-05-22,株式会社エスケーシー,,株式会社,東京都,港区,芝１丁目９番２号ベルメゾン芝１３０１,,13,103,1050014,,,,,,,2023-05-22,1,,,,,エスケーシー,0
279,2010401174415,新規,0,2023-05-22,2023-05-22,株式会社ＫＡＩＸＩＡホールディングス,,株式会社,東京都,港区,西新橋２丁目８番６号,,13,103,1050003,,,,,,,2023-05-22,1,,,,,カイシアホールディングス,0
280,2010401174480,新規,0,2023-05-22,2023-05-22,株式会社乳幼児保育研究所,,株式会社,東京都,港区,芝浦２丁目７番１１－１６０１号,,13,103,1080023,,,,,,,2023-05-22,1,,,,,ニュウヨウジホイクケンキュウジョ,0
281,2010401174530,新規,0,2023-05-22,2023-05-22,株式会社ソルーエムジャパン,,株式会社,東京都,港区,西新橋１丁目９番１号アコール新橋７階,,13,103,1050003,,,,,,,2023-05-22,1,,,,,ソルーエムジャパン,0
285,2010503007002,新規,0,2023-05-22,2023-05-22,ファストホース合同会社,,合同会社,東京都,台東区,上野３丁目２番１号エクセレントビル２Ｆ,,13,106,1100005,,,,,,,2023-05-22,1,,,,,ファストホース,0
288,2010801033971,新規,0,2023-05-22,2023-05-22,株式会社くすりのホーライ,,株式会社,東京都,大田区,中央３丁目２４番２０号,,13,111,1430024,,,,,,,2023-05-22,1,,,,,クスリノホーライ,0
302,2011001154476,新規,0,2023-05-22,2023-05-22,クリアデラ株式会社,,株式会社,東京都,渋谷区,道玄坂１丁目１６番６号,,13,113,1500043,,,,,,,2023-05-22,1,,,,,クリアデラ,0
303,2011001154534,新規,0,2023-05-22,2023-05-22,ＲＩＱアセットワークス株式会社,,株式会社,東京都,渋谷区,東４丁目１２番１号,,13,113,1500011,,,,,,,2023-05-22,1,,,,,アールアイキューアセットワークス,0
308,2011101102938,新規,0,2023-05-22,2023-05-22,株式会社スイセイ,,株式会社,東京都,新宿区,西新宿３丁目３番１３号西新宿水間ビル２階,,13,104,1600023,,,,,,,2023-05-22,1,,,,,スイセイ,0
309,2011103013068,新規,0,2023-05-22,2023-05-22,フミーズ．Ａｒｔ合同会社,,合同会社,東京都,新宿区,西新宿３丁目３－１３西新宿水間ビル６Ｆ,,13,104,1600023,,,,,,,2023-05-22,1,,,,,フミーズアート,0
315,2011601026827,新規,0,2023-05-22,2023-05-22,株式会社西貝,,株式会社,東京都,練馬区,中村南３丁目８番１０号,,13,120,1760025,,,,,,,2023-05-22,1,,,,,ニシガイ,0
318,2011801042450,新規,0,2023-05-22,2023-05-22,ＮＯＲＴＨ２株式会社,,株式会社,東京都,足立区,中川４丁目１２番１２号メゾン・ド・富士１００号室,,13,121,1200002,,,,,,,2023-05-22,1,,,,,ノースツー,0
323,2012403005985,新規,0,2023-05-22,2023-05-22,合同会社コスケ,,合同会社,東京都,三鷹市,上連雀１丁目１６番４４－１０１号,,13,204,1810012,,,,,,,2023-05-22,1,,,,,コスケ,0
324,2012801022368,新規,0,2023-05-22,2023-05-22,株式会社Ｔｒｉｇｒａｍ,,株式会社,東京都,武蔵村山市,大南５丁目３７番地の５,,13,223,2080013,,,,,,,2023-05-22,1,,,,,トリグラム,0
327,2013301050801,新規,0,2023-05-22,2023-05-22,株式会社ＮＧＮＴ,,株式会社,東京都,豊島区,池袋２丁目３３番１０号,,13,116,1710014,,,,,,,2023-05-22,1,,,,,エヌジーエヌティー,0
341,2020003023936,新規,0,2023-05-22,2023-05-22,ＩＳＨＩＷＡＴＡ　ＨＯＵＳＥ合同会社,,合同会社,神奈川県,横浜市鶴見区,市場上町１０番３－１１１４,,14,101,2300021,,,,,,,2023-05-22,1,,,,,イシワタハウス,0
355,2030001153783,新規,0,2023-05-22,2023-05-22,株式会社プロジェクトＫ,,株式会社,埼玉県,川口市,江戸袋１丁目２１番１０号,,11,203,3340075,,,,,,,2023-05-22,1,,,,,プロジェクトケイ,0
356,2030001153908,新規,0,2023-05-22,2023-05-22,株式会社誠幸ｌｉｎｋ,,株式会社,埼玉県,越谷市,大字袋山４４２番地１－３０３号,,11,222,3430032,,,,,,,2023-05-22,1,,,,,セイコウリンク,0
357,2030001153940,新規,0,2023-05-22,2023-05-22,百瑞株式会社,,株式会社,埼玉県,川口市,南町２丁目２番５号,,11,203,3320026,,,,,,,2023-05-22,1,,,,,ヒャクズイ,0
358,2030001153981,新規,0,2023-05-22,2023-05-22,株式会社Ｎ’ｓ　Ｏｎｅ,,株式会社,埼玉県,さいたま市大宮区,桜木町２丁目３番地大宮マルイ７階,,11,103,3300854,,,,,,,2023-05-22,1,,,,,エヌズワン,0
359,2030001153998,新規,0,2023-05-22,2023-05-22,東心工業株式会社,,株式会社,埼玉県,羽生市,東３丁目１４番１８号,,11,216,3480052,,,,,,,2023-05-22,1,,,,,トウシンコウギョウ,0
360,2030001154006,新規,0,2023-05-22,2023-05-22,株式会社ＡＺホールディングス,,株式会社,埼玉県,さいたま市浦和区,北浦和１丁目２番５号,,11,107,3300074,,,,,,,2023-05-22,1,,,,,エーゼットホールディングス,0
361,2030001154014,新規,0,2023-05-22,2023-05-22,株式会社櫻井建装,,株式会社,埼玉県,川口市,青木１丁目５番３１号,,11,203,3320031,,,,,,,2023-05-22,1,,,,,サクライケンソウ,0
362,2030001154022,新規,0,2023-05-22,2023-05-22,株式会社拓志電設,,株式会社,埼玉県,深谷市,小前田１４５４番地７,,11,218,3691246,,,,,,,2023-05-22,1,,,,,タクシデンセツ,0
363,2030001154063,新規,0,2023-05-22,2023-05-22,株式会社上野工業,,株式会社,埼玉県,川口市,芝下１丁目１番３２号２階,,11,203,3330848,,,,,,,2023-05-22,1,,,,,ウエノコウギョウ,0
369,2030003021716,新規,0,2023-05-22,2023-05-22,アイ・インテリジェンス合同会社,,合同会社,埼玉県,所沢市,大字北秋津３９４番地の１５,,11,208,3590038,,,,,,,2023-05-22,1,,,,,アイインテリジェンス,0
370,2030003021732,新規,0,2023-05-22,2023-05-22,合同会社本当創造,,合同会社,埼玉県,熊谷市,弥藤吾１６０－６三合ビル２０３号室,,11,202,3600203,,,,,,,2023-05-22,1,,,,,ホントウソウゾウ,0
371,2030003021740,新規,0,2023-05-22,2023-05-22,ＫＹカンパニー合同会社,,合同会社,埼玉県,久喜市,栗橋東６丁目１１－２１,,11,232,3491103,,,,,,,2023-05-22,1,,,,,ケーワイカンパニー,0
372,2030003021781,新規,0,2023-05-22,2023-05-22,合同会社ＢＩＮＧＯ,,合同会社,埼玉県,吉川市,栄町１４２８番地１ラフレーズ１０１号,,11,243,3420050,,,,,,,2023-05-22,1,,,,,ビンゴ,0
373,2030003021798,新規,0,2023-05-22,2023-05-22,合同会社青年,,合同会社,埼玉県,川口市,芝新町８－７,,11,203,3330851,,,,,,,2023-05-22,1,,,,,セイネン,0
377,2040003022663,新規,0,2023-05-22,2023-05-22,スカイ合同会社,,合同会社,千葉県,富里市,日吉台１丁目２７番地９,,12,233,2860201,,,,,,,2023-05-22,1,,,,,スカイ,0
410,2120001254944,新規,0,2023-05-22,2023-05-22,幻の光株式会社,,株式会社,大阪府,大阪市東住吉区,鷹合４丁目２１番１６号１Ｆ－Ｂ,,27,121,5460014,,,,,,,2023-05-22,1,,,,,マボロシノヒカリ,0
411,2120001255100,新規,0,2023-05-22,2023-05-22,元素株式会社,,株式会社,大阪府,大阪市中央区,上本町西３丁目２番６号柴田興産ビル３０６Ｃ,,27,128,5420062,,,,,,,2023-05-22,1,,,,,ゲンソ,0
413,2120103005221,新規,0,2023-05-22,2023-05-22,合同会社エスポアハウス,,合同会社,大阪府,堺市西区,上野芝町５丁７番６－２号,,27,144,5938301,,,,,,,2023-05-22,1,,,,,エスポアハウス,0
415,2120901047547,新規,0,2023-05-22,2023-05-22,株式会社ＳＥＥＫＡＤ,,株式会社,大阪府,吹田市,泉町４丁目３８番２８－３０２号,,27,205,5640041,,,,,,,2023-05-22,1,,,,,シークアド,0
416,2120903004645,新規,0,2023-05-22,2023-05-22,合同会社リリーフ,,合同会社,大阪府,高槻市,月見町２番１９号,,27,207,5691122,,,,,,,2023-05-22,1,,,,,リリーフ,0
420,2130001074342,新規,0,2023-05-22,2023-05-22,株式会社工藤総合鑑定,,株式会社,京都府,舞鶴市,字堀小字棒谷口３８４番１,,26,202,6240812,,,,,,,2023-05-22,1,,,,,クドウソウゴウカンテイ,0
421,2130001074350,新規,0,2023-05-22,2023-05-22,株式会社映楽堂,,株式会社,京都府,京都市上京区,大心院町２９番地５,,26,102,6020003,,,,,,,2023-05-22,1,,,,,エイラクドウ,0
438,2150001026416,新規,0,2023-05-22,2023-05-22,株式会社彩耕,,株式会社,奈良県,大和郡山市,千日町１４番地１６,,29,203,6391053,,,,,,,2023-05-22,1,,,,,サイコウ,0
439,2150003002968,新規,0,2023-05-22,2023-05-22,合同会社誠愛,,合同会社,奈良県,御所市,大字元町４１３番地の１０,,29,208,6392301,,,,,,,2023-05-22,1,,,,,セイアイ,0
445,2180001156400,新規,0,2023-05-22,2023-05-22,株式会社ＨＭ商会,,株式会社,愛知県,名古屋市港区,藤前４丁目５１７番地,,23,111,4550855,,,,,,,2023-05-22,1,,,,,エイチエムショウカイ,0
448,2200001041335,新規,0,2023-05-22,2023-05-22,株式会社リーノ,,株式会社,岐阜県,大垣市,和合新町１丁目１５番地中村第３ビル２０６号室,,21,202,5030801,,,,,,,2023-05-22,1,,,,,リーノ,0
450,2240001061560,新規,0,2023-05-22,2023-05-22,株式会社三次ヘルシー製麺所,,株式会社,広島県,三次市,三次町１６０４番地９,,34,209,7280021,,,,,,,2023-05-22,1,,,,,ミヨシヘルシーセイメンジョ,0
451,2240003006150,新規,0,2023-05-22,2023-05-22,ＥＳＧパートナーズ合同会社,,合同会社,広島県,福山市,南本庄１丁目８番３１号,,34,207,7200077,,,,,,,2023-05-22,1,,,,,イーエスジーパートナーズ,0
457,2280001008946,新規,0,2023-05-22,2023-05-22,株式会社リープスアンドバウンズ,,株式会社,島根県,出雲市,斐川町荘原２２３５番地４,,32,203,6990502,,,,,,,2023-05-22,1,,,,,リープスアンドバウンズ,0
470,2290005019047,新規,0,2023-05-22,2023-05-22,特定非営利活動法人スマイルナプキンプロジェクト,,その他の設立登記法人,福岡県,福岡市博多区,三筑２丁目４番２１号サングレート博多ロイヤルパーク７０１,,40,132,8120887,,,,,,,2023-05-22,1,,,,,スマイルナプキンプロジェクト,0
471,2290801029538,新規,0,2023-05-22,2023-05-22,株式会社ガナイーシャ,,株式会社,福岡県,北九州市小倉南区,守恒２丁目８番３２－２０６号,,40,107,8020972,,,,,,,2023-05-22,1,,,,,ガナイーシャ,0
480,2330003009854,新規,0,2023-05-22,2023-05-22,Ｅｍｉｌｙ　Ａｒｔ　Ｏｆｆｉｃｅ合同会社,,合同会社,熊本県,菊池郡菊陽町,大字原水１１５６番地１２,,43,404,8691102,,,,,,,2023-05-22,1,,,,,エミリーアートオフィス,0
485,2360001032046,新規,0,2023-05-22,2023-05-22,株式会社Ｈ２Ｏ,,株式会社,沖縄県,浦添市,安波茶１丁目５３－１３,,47,208,9012114,,,,,,,2023-05-22,1,,,,,エイチツーオー,0
486,2360001032054,新規,0,2023-05-22,2023-05-22,ブレイス株式会社,,株式会社,沖縄県,宜野湾市,真志喜１丁目３番１号Ｂ１０２号,,47,205,9012224,,,,,,,2023-05-22,1,,,,,ブレイス,0
487,2360003012979,新規,0,2023-05-22,2023-05-22,合同会社Ｒａｐｐｏｒｔ,,合同会社,沖縄県,南城市,佐敷字津波古１０８５Ｒａｐｐｏｒｔ４０１号室,,47,215,9011414,,,,,,,2023-05-22,1,,,,,ラポール,0
489,2360005006855,新規,0,2023-05-22,2023-05-22,一般社団法人来福寺,,その他の設立登記法人,沖縄県,中頭郡北谷町,字吉原７２８番地６ワイズエステムコート北谷パークヒルズ２０７,,47,326,9040105,,,,,,,2023-05-22,1,,,,,ライフクジ,0
491,2370005010633,新規,0,2023-05-22,2023-05-22,一般社団法人Ｖｉａ,,その他の設立登記法人,宮城県,仙台市青葉区,春日町５番２２号,,04,101,9800821,,,,,,,2023-05-22,1,,,,,ビア,0
504,2430001089120,新規,0,2023-05-22,2023-05-22,株式会社アシストプラス,,株式会社,北海道,札幌市白石区,本通４丁目北２番１－１００２号,,01,104,0030027,,,,,,,2023-05-22,1,,,,,アシストプラス,0
520,2700150116333,新規,0,2023-05-22,2023-05-22,ｓｈａｎｇｈａｉ　ｒｏｎｇｗｅｉｘｉｎｘｉｋｅｊｉ　ｙｏｕｘｉａｎｇｏｎｇｓｉ,,外国会社等,,,,,,,,Ｒｏｏｍ　Ｊ，Ｒｏｏｍ　２２０１，Ｎｏ．８８８　Ｍｏｙｕ　Ｓｏｕｔｈ　Ｒｏａｄ，Ａｎｔｉｎｇ　Ｔｏｗｎ　Ｓｈａｎｇｈａｉ　Ｊｉａｄｉｎｇ　ｄｉｓｔｒｉｃｔ　Ｓｈａｎｇｈａｉ,,,,,,2023-05-22,1,,,,,シャンハイロンウェイシンシケジユウゲンコウシ,0
529,3010001235509,新規,0,2023-05-22,2023-05-22,株式会社ＤｅｎｔＧＯ,,株式会社,東京都,千代田区,九段北１丁目３番２号大橋ビル７Ｆ,,13,101,1020073,,,,,,,2023-05-22,1,,,,,デントゴー,0
530,3010001235517,新規,0,2023-05-22,2023-05-22,三京株式会社,,株式会社,東京都,文京区,水道２丁目４－１－４０６,,13,105,1120005,,,,,,,2023-05-22,1,,,,,サンキョウ,0
534,3010005036721,新規,0,2023-05-22,2023-05-22,一般社団法人トリニティスイス,,その他の設立登記法人,東京都,中央区,日本橋１丁目４番１号,,13,102,1030027,,,,,,,2023-05-22,1,,,,,トリニティスイス,0
535,3010101015653,新規,0,2023-05-22,2023-05-22,花マル塾株式会社,,株式会社,東京都,八王子市,旭町１２番１８号ひのき八王子ビル５階,,13,201,1920083,,,,,,,2023-05-22,1,,,,,ハナマルジュク,0
554,3010405022081,新規,0,2023-05-22,2023-05-22,一般社団法人陽だまりクリニック,,その他の設立登記法人,東京都,港区,六本木６丁目１番２６号六本木天城ビル３階,,13,103,1060032,,,,,,,2023-05-22,1,,,,,ヒダマリクリニック,0
556,3010601063136,新規,0,2023-05-22,2023-05-22,日本丘比徳科技株式会社,,株式会社,東京都,江東区,亀戸６丁目３１番１－４０７号,,13,108,1360071,,,,,,,2023-05-22,1,,,,,ニホンキュウビトクカギ,0
557,3010605004202,新規,0,2023-05-22,2023-05-22,一般社団法人ＲＥＸＥＲ,,その他の設立登記法人,東京都,墨田区,業平４丁目１６番６号,,13,107,1300002,,,,,,,2023-05-22,1,,,,,レクサー,0
559,3010701044283,新規,0,2023-05-22,2023-05-22,ブロス株式会社,,株式会社,東京都,品川区,西五反田７丁目１番１号マルキビル２階,,13,109,1410031,,,,,,,2023-05-22,1,,,,,ブロス,0
579,3011301028726,新規,0,2023-05-22,2023-05-22,株式会社アポロ,,株式会社,東京都,杉並区,和田１丁目６８番１９号,,13,115,1660012,,,,,,,2023-05-22,1,,,,,,0
586,3011501029326,新規,0,2023-05-22,2023-05-22,株式会社サーピッド,,株式会社,東京都,荒川区,東尾久２丁目２－９三祥ビル２３９号,,13,118,1160012,,,,,,,2023-05-22,1,,,,,サーピッド,0
592,3011801042441,新規,0,2023-05-22,2023-05-22,株式会社セイスタート,,株式会社,東京都,足立区,鹿浜８丁目３１番１号,,13,121,1230864,,,,,,,2023-05-22,1,,,,,セイスタート,0
596,3011805003274,新規,0,2023-05-22,2023-05-22,特定非営利活動法人ＮＰＯ日本災害支援協力協会,,その他の設立登記法人,東京都,葛飾区,東立石４丁目４３番３－２０６号ダイアパレスグランデージ立石,,13,122,1240013,,,,,,,2023-05-22,1,,,,,,0
602,3012403005984,新規,0,2023-05-22,2023-05-22,Ｓａｋｕｒａ合同会社,,合同会社,東京都,武蔵野市,吉祥寺東町２丁目３１番１１号吉祥寺の家０２,,13,203,1800002,,,,,,,2023-05-22,1,,,,,サクラ,0
607,3012703002707,新規,0,2023-05-22,2023-05-22,合同会社２ｎｄＳｈｏｔ,,合同会社,東京都,東久留米市,氷川台１丁目１８番１号,,13,222,2030004,,,,,,,2023-05-22,1,,,,,セカンドショット,0
608,3012801022367,新規,0,2023-05-22,2023-05-22,Ｂｅｌｌｅ　Ｓｏｍｍｅ株式会社,,株式会社,東京都,武蔵村山市,残堀５丁目２０－５パルテノン２０７,,13,223,2080034,,,,,,,2023-05-22,1,,,,,ベルソム,0
616,3020001151705,新規,0,2023-05-22,2023-05-22,ＭＡＳＯＮ株式会社,,株式会社,神奈川県,川崎市川崎区,小川町１６－１７ＭＦプラザ５０３,,14,131,2100023,,,,,,,2023-05-22,1,,,,,マソン,0
623,3021001079102,新規,0,2023-05-22,2023-05-22,株式会社スマートチャット,,株式会社,神奈川県,綾瀬市,吉岡１３３５番地３,,14,218,2521124,,,,,,,2023-05-22,1,,,,,スマートチャット,0
640,3030001153980,新規,0,2023-05-22,2023-05-22,Ｎｅｘｔ　ｌｅｖｅｌ株式会社,,株式会社,埼玉県,越谷市,大字恩間６３０番地１,,11,222,3430033,,,,,,,2023-05-22,1,,,,,ネクストレベル,0
641,3030001153989,新規,0,2023-05-22,2023-05-22,株式会社ＲＡＹ,,株式会社,埼玉県,川口市,元郷２丁目１５番１－３１１２号エルザタワー５５,,11,203,3320011,,,,,,,2023-05-22,1,,,,,レイ,0
646,3030005021259,新規,0,2023-05-22,2023-05-22,一般社団法人Ｗｉｎｏｋ　Ｍｕａ,,その他の設立登記法人,埼玉県,所沢市,東狭山ケ丘６丁目２８３５番地２,,11,208,3591106,,,,,,,2023-05-22,1,,,,,ウィノックムーア,0
648,3040001128503,新規,0,2023-05-22,2023-05-22,スリースカイ株式会社,,株式会社,千葉県,船橋市,坪井西１丁目９番２７号,,12,204,2740069,,,,,,,2023-05-22,1,,,,,スリースカイ,0
660,3050003007522,新規,0,2023-05-22,2023-05-22,合同会社ピースオブケイク,,合同会社,茨城県,土浦市,川口１丁目７番２号森輝ビル２０２号,,08,203,3000033,,,,,,,2023-05-22,1,,,,,ピースオブケイク,0
661,3060003004551,新規,0,2023-05-22,2023-05-22,合同会社Ｍｅｌｉａ　Ｋｉｄｓ　Ｊａｐａｎ,,合同会社,栃木県,小山市,大字土塔２３４番地９６,,09,208,3230812,,,,,,,2023-05-22,1,,,,,メリアキッズジャパン,0
666,3110001037556,新規,0,2023-05-22,2023-05-22,株式会社新潟不動産ファクトリー販売,,株式会社,新潟県,新潟市中央区,堀之内南３丁目７番２１号,,15,103,9500982,,,,,,,2023-05-22,1,,,,,ニイガタフドウサンファクトリーハンバイ,0
675,3120001254943,新規,0,2023-05-22,2023-05-22,株式会社贏利,,株式会社,大阪府,大阪市淀川区,田川北２丁目５－３４・Ｄ棟１０２号室,,27,123,5320021,,,,,,,2023-05-22,1,,,,,エイリ,0
676,3120001255058,新規,0,2023-05-22,2023-05-22,Ａｉｒ　Ｖｉｌｌａｇｅ株式会社,,株式会社,大阪府,大阪市此花区,春日出中１丁目１２番２３号,,27,104,5540022,,,,,,,2023-05-22,1,,,,,エアヴィレッジ,0
677,3120001255090,新規,0,2023-05-22,2023-05-22,ＨＧＴＡ株式会社,,株式会社,大阪府,大阪市住之江区,粉浜西１丁目４番３号エバーグリーン住吉１０２,,27,125,5590007,,,,,,,2023-05-22,1,,,,,エイチジーティーエー,0
681,3120101067576,新規,0,2023-05-22,2023-05-22,株式会社Ａｒｃｈｅ,,株式会社,大阪府,堺市堺区,神明町東１丁２番６－２号,,27,141,5900935,,,,,,,2023-05-22,1,,,,,アルケー,0
684,3120901047546,新規,0,2023-05-22,2023-05-22,株式会社銀ちゃん,,株式会社,大阪府,茨木市,宮島１丁目１番１号,,27,211,5670853,,,,,,,2023-05-22,1,,,,,ギンチャン,0
685,3120901047554,新規,0,2023-05-22,2023-05-22,ＳＫＹゴゴフーズ株式会社,,株式会社,大阪府,豊中市,服部西町１丁目９番４６号,,27,203,5610858,,,,,,,2023-05-22,1,,,,,エスケイワイゴゴフーズ,0
691,3130003008735,新規,0,2023-05-22,2023-05-22,アジア・スタンドアップ・ファーストペンギン合同会社,,合同会社,京都府,京都市西京区,大原野東境谷町１丁目１番地５－２０４,,26,111,6101143,,,,,,,2023-05-22,1,,,,,アジアスタンドアップファーストペンギン,0
698,3140001130226,新規,0,2023-05-22,2023-05-22,株式会社ＧＲＥＥＮ　ＦＬＡＧ,,株式会社,兵庫県,西宮市,与古道町３－２９－２０１,,28,204,6620917,,,,,,,2023-05-22,1,,,,,グリーンフラッグ,0
700,3150001026415,新規,0,2023-05-22,2023-05-22,株式会社カーパーツ,,株式会社,奈良県,奈良市,高畑町４０番地の１,,29,201,6308301,,,,,,,2023-05-22,1,,,,,カーパーツ,0
707,3170001017619,新規,0,2023-05-22,2023-05-22,株式会社Ｙ．Ｂ．Ｆ,,株式会社,和歌山県,和歌山市,新堀東１丁目８番６号,,30,201,6410042,,,,,,,2023-05-22,1,,,,,ワイビーエフ,0
713,3180001156408,新規,0,2023-05-22,2023-05-22,株式会社キャストパフォーマ,,株式会社,愛知県,名古屋市中区,新栄２丁目４４番２０号名古屋ＡＳＴＯＮビル２Ｆ－１号室,,23,106,4600007,,,,,,,2023-05-22,1,,,,,キャストパフォーマ,0
714,3180003025255,新規,0,2023-05-22,2023-05-22,ＫＩＮＹＡＭＡＨＡ　ＴＲＡＤＥＲＳ合同会社,,合同会社,愛知県,名古屋市港区,春田野１丁目２２０６番地グランプリハイツ３０１号室,,23,111,4550873,,,,,,,2023-05-22,1,,,,,キンヤマハトレーダーズ,0
727,3240001061543,新規,0,2023-05-22,2023-05-22,株式会社山根建設,,株式会社,広島県,福山市,神村町６６９７番地１,,34,207,7290112,,,,,,,2023-05-22,1,,,,,ヤマネケンセツ,0
732,3260001037970,新規,0,2023-05-22,2023-05-22,株式会社歴史・防災まちづくり研究所,,株式会社,岡山県,津山市,林田町１８番地,,33,203,7080836,,,,,,,2023-05-22,1,,,,,レキシボウサイマチヅクリケンキュウジョ,0
749,3330003009853,新規,0,2023-05-22,2023-05-22,合同会社Ｌｉｂｅｒ,,合同会社,熊本県,天草郡苓北町,志岐３０番地７,,43,531,8632503,,,,,,,2023-05-22,1,,,,,リベル,0
757,3360001032037,新規,0,2023-05-22,2023-05-22,株式会社七,,株式会社,沖縄県,沖縄市,松本５丁目２０番４号,,47,211,9042151,,,,,,,2023-05-22,1,,,,,ナナ,0
758,3360001032053,新規,0,2023-05-22,2023-05-22,株式会社成城,,株式会社,沖縄県,うるま市,与那城１５８番地２,,47,213,9042303,,,,,,,2023-05-22,1,,,,,セイジョウ,0
759,3360003012986,新規,0,2023-05-22,2023-05-22,合同会社マクトゥー企画,,合同会社,沖縄県,うるま市,石川曙１丁目９番２７号,,47,213,9041107,,,,,,,2023-05-22,1,,,,,マクトゥーキカク,0
760,3360005006854,新規,0,2023-05-22,2023-05-22,一般社団法人名護ベテル教会,,その他の設立登記法人,沖縄県,名護市,大東２丁目９番１号,,47,209,9050016,,,,,,,2023-05-22,1,,,,,ナゴベテルキョウカイ,0
762,3370001049963,新規,0,2023-05-22,2023-05-22,株式会社斎藤鋼業,,株式会社,宮城県,石巻市,のぞみ野４丁目２２番地１２,,04,202,9860860,,,,,,,2023-05-22,1,,,,,サイトウコウギョウ,0
765,3390001017258,新規,0,2023-05-22,2023-05-22,沼沢工業株式会社,,株式会社,山形県,東村山郡山辺町,大字山辺２９７０,,06,301,9900301,,,,,,,2023-05-22,1,,,,,ヌマザワコウギョウ,0
769,3420001018269,新規,0,2023-05-22,2023-05-22,株式会社ＭｉＲＥＳＳＯ,,株式会社,青森県,三沢市,大字三沢字下久保５９番地３８３号,,02,207,0330022,,,,,,,2023-05-22,1,,,,,ミレッソ,0
770,3420003002725,新規,0,2023-05-22,2023-05-22,合同会社木葉,,合同会社,青森県,弘前市,大字常盤坂４丁目１２番地７,,02,202,0368263,,,,,,,2023-05-22,1,,,,,コノハ,0
774,3430001089128,新規,0,2023-05-22,2023-05-22,アウルゼロリミット株式会社,,株式会社,北海道,札幌市東区,北四十六条東９丁目６番８号,,01,103,0070846,,,,,,,2023-05-22,1,,,,,アウルゼロリミット,0
781,3450001013993,新規,0,2023-05-22,2023-05-22,株式会社旭川総建,,株式会社,北海道,旭川市,東光四条３丁目１番２号,,01,204,0788344,,,,,,,2023-05-22,1,,,,,アサヒカワソウケン,0
789,3480003001985,新規,0,2023-05-22,2023-05-22,合同会社満室の都,,合同会社,徳島県,徳島市,幸町２丁目２６番地三谷ビル３Ｆ,,36,201,7700847,,,,,,,2023-05-22,1,,,,,マンシツノミヤコ,0
792,3700150023413,新規,0,2023-05-22,2015-10-09,大阪府中小企業家同友会,,その他,大阪府,大阪市中央区,農人橋２丁目１－３０タニマチヤギビル４Ｆ,,27,128,5400011,,,,,,,2015-10-09,1,,,,,オオサカフチユウシヨウキギヨウカドウユウカイ,0
793,3700150116332,新規,0,2023-05-22,2023-05-22,ｈｕｉｚｈｏｕｓｈｉ　ｓｈｕｎｊｉａｙｉｌｉａｏｑｉｘｉｅ　ｙｏｕｘｉａｎｇｏｎｇｓｉ,,外国会社等,,,,,,,,Ｎｏ．８－７，８，Ｓｏｕｔｈ　Ｌａｃｅ　Ｒｏａｄ，Ｍａｉ　Ｄｉ　Ｈｕｉｚｈｏｕ　Ｃｉｔｙ，Ｇｕａｎｇｄｏｎｇ　Ｐｒｏｖｉｎｃｅ,,,,,,2023-05-22,1,,,,,ホゥイゾォウシスンジャイリァオチシェユウゲンコウシ,0
809,4010001235508,新規,0,2023-05-22,2023-05-22,ＨＡＹ株式会社,,株式会社,東京都,中央区,銀座１丁目１２番４号Ｎ＆ＥＢＬＤ．６Ｆ,,13,102,1040061,,,,,,,2023-05-22,1,,,,,ヘイ,0
813,4010005036704,新規,0,2023-05-22,2023-05-22,特定非営利活動法人ちりつも,,その他の設立登記法人,東京都,文京区,本駒込６丁目５番１１－４０１号,,13,105,1130021,,,,,,,2023-05-22,1,,,,,チリツモ,0
814,4010005036720,新規,0,2023-05-22,2023-05-22,弁護士法人東京国際法律事務所,,その他の設立登記法人,東京都,千代田区,霞が関１丁目４番２号大同生命霞が関ビル,,13,101,1000013,,,,,,,2023-05-22,1,,,,,トウキョウコクサイホウリツジムショ,0
833,4010401174454,新規,0,2023-05-22,2023-05-22,睦月安株式会社,,株式会社,東京都,港区,浜松町１丁目１１番１４号パレステュディオ浜松町６０７号,,13,103,1050013,,,,,,,2023-05-22,1,,,,,ムツキアン,0
834,4010403030143,新規,0,2023-05-22,2023-05-22,合同会社ＩＢ,,合同会社,東京都,港区,浜松町２丁目２番１５号浜松町ダイヤビル２Ｆ,,13,103,1050013,,,,,,,2023-05-22,1,,,,,アイビー,0
836,4010405022155,新規,0,2023-05-22,2023-05-22,一般社団法人ＭＹパール,,その他の設立登記法人,東京都,港区,虎ノ門３丁目２２番１０－２０１号,,13,103,1050001,,,,,,,2023-05-22,1,,,,,エムワイパール,0
841,4010501050489,新規,0,2023-05-22,2023-05-22,株式会社ルート,,株式会社,東京都,台東区,根岸４丁目１３番５号,,13,106,1100003,,,,,,,2023-05-22,1,,,,,ルート,0
842,4010505003410,新規,0,2023-05-22,2023-05-22,税理士法人間庭・飯田合同事務所,,その他の設立登記法人,東京都,台東区,東上野３丁目１４番７号龍田ビル５階,,13,106,1100015,,,,,,,2023-05-22,1,,,,,マニワイイダゴウドウジムショ,0
846,4010601063069,新規,0,2023-05-22,2023-05-22,株式会社Ａｌｔｅｒｎａｔｉｖｅ　Ｗｉｎｄｓ,,株式会社,東京都,墨田区,江東橋４丁目１５番８号ＷＡＪ錦糸町ビル５Ｆ,,13,107,1300022,,,,,,,2023-05-22,1,,,,,オルタナティブウインズ,0
849,4010803004556,新規,0,2023-05-22,2023-05-22,合同会社ウィステリアワン,,合同会社,東京都,大田区,西糀谷１丁目１０番９号キングハウス蒲田１０１号,,13,111,1440034,,,,,,,2023-05-22,1,,,,,,0
863,4011001154425,新規,0,2023-05-22,2023-05-22,株式会社ｍｕｔｅｓ,,株式会社,東京都,渋谷区,神宮前６丁目２３番４号桑野ビル２階,,13,113,1500001,,,,,,,2023-05-22,1,,,,,ミューツ,0
864,4011001154490,新規,0,2023-05-22,2023-05-22,３秒敬語株式会社,,株式会社,東京都,渋谷区,渋谷２丁目１９－１５宮益坂ビルディング６０９,,13,113,1500002,,,,,,,2023-05-22,1,,,,,サンビョウケイゴ,0
873,4011003016854,新規,0,2023-05-22,2023-05-22,合同会社コープラス,,合同会社,東京都,渋谷区,道玄坂１丁目１０番８号渋谷道玄坂東急ビル２Ｆ－Ｃ,,13,113,1500043,,,,,,,2023-05-22,1,,,,,コープラス,0
874,4011003016862,新規,0,2023-05-22,2023-05-22,合同会社プラキャス,,合同会社,東京都,渋谷区,幡ヶ谷３丁目３９番１２号渋谷ウェストビル１階,,13,113,1510072,,,,,,,2023-05-22,1,,,,,プラキャス,0
876,4011103013033,新規,0,2023-05-22,2023-05-22,合同会社ソレスト,,合同会社,東京都,新宿区,新宿１丁目９番１号６Ｆ,,13,104,1600022,,,,,,,2023-05-22,1,,,,,ソレスト,0
877,4011103013074,新規,0,2023-05-22,2023-05-22,合同会社ＳｔｏｃｋＦｉｒｅ,,合同会社,東京都,新宿区,西新宿７丁目５番９号ファーストリアルタワー新宿１５１３,,13,104,1600023,,,,,,,2023-05-22,1,,,,,ストックファイア,0
878,4011301028725,新規,0,2023-05-22,2023-05-22,株式会社ＭＳ．ブルースカイ,,株式会社,東京都,杉並区,和田１丁目３６番地１４号,,13,115,1660012,,,,,,,2023-05-22,1,,,,,エムエスブルースカイ,0
883,4011801042440,新規,0,2023-05-22,2023-05-22,鴻憶株式会社,,株式会社,東京都,足立区,栗原３丁目２６番１号２Ｆ,,13,121,1230842,,,,,,,2023-05-22,1,,,,,コウオク,0
884,4011801042449,新規,0,2023-05-22,2023-05-22,株式会社ハルラルソフト,,株式会社,東京都,足立区,中央本町１丁目１６番１－７０２号,,13,121,1200011,,,,,,,2023-05-22,1,,,,,ハルラルソフト,0
891,4012403005983,新規,0,2023-05-22,2023-05-22,合同会社たまもの舎,,合同会社,東京都,武蔵野市,吉祥寺本町３丁目１０番３号エスカイア吉祥寺,,13,203,1800004,,,,,,,2023-05-22,1,,,,,タマモノシャ,0
892,4012403005991,新規,0,2023-05-22,2023-05-22,合同会社アドラー,,合同会社,東京都,調布市,菊野台１丁目４０番３号サホダコーポＮｏ．１、２１１,,13,208,1820007,,,,,,,2023-05-22,1,,,,,アドラー,0
898,4020001151679,新規,0,2023-05-22,2023-05-22,株式会社ＦＯＯＤＳＬＩＮＫＳ,,株式会社,神奈川県,横浜市都筑区,中川中央１丁目２１－３ドューエセンター北２０１,,14,118,2240003,,,,,,,2023-05-22,1,,,,,フーズリンクス,0
904,4021001079118,新規,0,2023-05-22,2023-05-22,ＫＲ’ｓ株式会社,,株式会社,神奈川県,厚木市,三田２９５８番地,,14,212,2430211,,,,,,,2023-05-22,1,,,,,ケーアールズ,0
914,4030001153939,新規,0,2023-05-22,2023-05-22,武藤建装株式会社,,株式会社,埼玉県,戸田市,中町２丁目２２番１３－１０２号（大和田ハイツ）,,11,224,3350012,,,,,,,2023-05-22,1,,,,,ムトウケンソウ,0
915,4030001153988,新規,0,2023-05-22,2023-05-22,株式会社フリーボウズ,,株式会社,埼玉県,川越市,大字鯨井１５８０番地１（ベルセーヌＢ１０３号室）,,11,201,3500815,,,,,,,2023-05-22,1,,,,,フリーボウズ,0
916,4030001154020,新規,0,2023-05-22,2023-05-22,株式会社首都圏管理管財研究所,,株式会社,埼玉県,朝霞市,三原５丁目１０番７０－３０３号,,11,227,3510025,,,,,,,2023-05-22,1,,,,,シュトケンカンリカンザイケンキュウジョ,0
923,4030003021805,新規,0,2023-05-22,2023-05-22,合同会社Ｓｏｗ,,合同会社,埼玉県,吉川市,栄町７５２番地３,,11,243,3420050,,,,,,,2023-05-22,1,,,,,ソウ,0
927,4040001128428,新規,0,2023-05-22,2023-05-22,エネコアドバンス株式会社,,株式会社,千葉県,千葉市稲毛区,緑町２丁目１９番７号,,12,103,2630023,,,,,,,2023-05-22,1,,,,,エネコアドバンス,0
932,4040003022653,新規,0,2023-05-22,2023-05-22,ＯＣＥＡＮ　ＢＥＡＣＨ合同会社,,合同会社,千葉県,松戸市,古ケ崎１９２番地の６,,12,207,2710068,,,,,,,2023-05-22,1,,,,,オーシャンビーチ,0
938,4070003004946,新規,0,2023-05-22,2023-05-22,０３ＰＬＡＮ合同会社,,合同会社,群馬県,前橋市,表町２丁目１６－７－６０２,,10,201,3710024,,,,,,,2023-05-22,1,,,,,ゼロサンプラン,0
944,4110001037555,新規,0,2023-05-22,2023-05-22,株式会社ＫＩＴ,,株式会社,新潟県,燕市,水道町４丁目２０番６８号,,15,213,9591262,,,,,,,2023-05-22,1,,,,,キット,0
957,4120001254034,新規,0,2023-05-22,2023-05-22,株式会社ＶｉｔａＢｅｒｕ,,株式会社,大阪府,大阪市北区,西天満５丁目１１番３号河合ビル４０４,,27,127,5300047,,,,,,,2023-05-22,1,,,,,ビタベル,0
962,4120003024121,新規,0,2023-05-22,2023-05-22,合同会社ＮＥＸＴＬＩＮＥ,,合同会社,大阪府,大阪市北区,梅田１丁目２番２号大阪駅前第２ビル１２－１２,,27,127,5300001,,,,,,,2023-05-22,1,,,,,ネクストライン,0
966,4120901047504,新規,0,2023-05-22,2023-05-22,株式会社幸手技,,株式会社,大阪府,高槻市,大字原１１０９番地の７,,27,207,5691051,,,,,,,2023-05-22,1,,,,,サチシュギ,0
967,4120903004651,新規,0,2023-05-22,2023-05-22,合同会社ＬＧＣ,,合同会社,大阪府,吹田市,藤白台１丁目１番１８－１０７号,,27,205,5650873,,,,,,,2023-05-22,1,,,,,エルジーシー,0
981,4170001017618,新規,0,2023-05-22,2023-05-22,株式会社ＴＳＫ,,株式会社,和歌山県,海南市,重根東２丁目１０番３号,,30,202,6420018,,,,,,,2023-05-22,1,,,,,ティーエスケー,0
982,4180001156398,新規,0,2023-05-22,2023-05-22,しろはまホームズ株式会社,,株式会社,愛知県,名古屋市千種区,豊年町１４番１３号,,23,101,4640076,,,,,,,2023-05-22,1,,,,,シロハマホームズ,0
983,4180001156407,新規,0,2023-05-22,2023-05-22,株式会社かざりや,,株式会社,愛知県,知多郡美浜町,大字野間字本郷７番地１,,23,446,4703235,,,,,,,2023-05-22,1,,,,,カザリヤ,0
986,4180301037406,新規,0,2023-05-22,2023-05-22,華玲株式会社,,株式会社,愛知県,豊田市,広久手町５丁目３０－１９,,23,211,4710036,,,,,,,2023-05-22,1,,,,,カレイ,0
994,4240001061534,新規,0,2023-05-22,2023-05-22,株式会社Ｇｕｓｈ,,株式会社,広島県,広島市安佐南区,大塚西７丁目３２番１３号,,34,105,7313167,,,,,,,2023-05-22,1,,,,,ガッシュ,0
999,4290001101459,新規,0,2023-05-22,2023-05-22,株式会社竜洸,,株式会社,福岡県,福岡市博多区,東光寺町１丁目１１番２７号イーストパル博多ＩＩ１Ｆ－Ｂ号室,00130561,40,132,8120896,,,,,,,2023-05-22,1,,,,,リュウコウ,0
1000,4290001101599,新規,0,2023-05-22,2023-05-22,Ｓｅｅｆｉｅｌｄ株式会社,,株式会社,福岡県,福岡市博多区,住吉４丁目４番２１号,,40,132,8120018,,,,,,,2023-05-22,1,,,,,シーフィールド,0
1001,4290005019037,新規,0,2023-05-22,2023-05-22,一般財団法人多田家保存会,,その他の設立登記法人,福岡県,朝倉郡筑前町,森山４１７番地,,40,447,8380804,,,,,,,2023-05-22,1,,,,,タダケホゾンカイ,0
1002,4290005019045,新規,0,2023-05-22,2023-05-22,医療法人美慶,,その他の設立登記法人,福岡県,福岡市中央区,笹丘１丁目１１番１３号,,40,133,8100034,,,,,,,2023-05-22,1,,,,,ミノリ,0
1007,4330001030884,新規,0,2023-05-22,2023-05-22,株式会社オーサポート,,株式会社,熊本県,熊本市西区,二本木１丁目４番１１号,,43,103,8600051,,,,,,,2023-05-22,1,,,,,オーサポート,0
1012,4360003012977,新規,0,2023-05-22,2023-05-22,合同会社Ｓｕｎｎｙ　Ｍａｒｋｅｔｉｎｇ　Ｇｒｏｕｐｓ,,合同会社,沖縄県,浦添市,伊祖４丁目１番１４－５０１号てだこハイム伊祖,,47,208,9012132,,,,,,,2023-05-22,1,,,,,サニーマーケティンググループ,0
1013,4360003012985,新規,0,2023-05-22,2023-05-22,合同会社Ｏ,,合同会社,沖縄県,那覇市,久茂地２丁目１４番１９号ライブリー久茂地２－Ｂ,,47,201,9000015,,,,,,,2023-05-22,1,,,,,オー,0
1014,4360005006853,新規,0,2023-05-22,2023-05-22,一般社団法人屋宜原家の教会,,その他の設立登記法人,沖縄県,中頭郡北中城村,字屋宜原２２８番地,,47,327,9012304,,,,,,,2023-05-22,1,,,,,ヤギバルイエノキョウカイ,0
1018,4370001049987,新規,0,2023-05-22,2023-05-22,株式会社ＫＳ工業,,株式会社,宮城県,大崎市,三本木字北町９３番１号ひまわりハイツＣ号室,,04,215,9896321,,,,,,,2023-05-22,1,,,,,ケーエスコウギョウ,0
1026,4420003002724,新規,0,2023-05-22,2023-05-22,合同会社スマイル,,合同会社,青森県,八戸市,大字尻内町字メドツ河原７番地６コーポファインＢ,,02,203,0391101,,,,,,,2023-05-22,1,,,,,,0
1027,4430001089119,新規,0,2023-05-22,2023-05-22,株式会社エムシー華,,株式会社,北海道,沙流郡日高町,字厚賀町１５７番地５,,01,601,0592243,,,,,,,2023-05-22,1,,,,,エムシーハナ,0
1028,4430001089135,新規,0,2023-05-22,2023-05-22,株式会社Ｗｅｅｄ,,株式会社,北海道,札幌市中央区,北五条西１１丁目１６番地１ライズ北５条７階,,01,101,0600005,,,,,,,2023-05-22,1,,,,,ウィード,0
1039,4700150116331,新規,0,2023-05-22,2023-05-22,Ｚｈｅｊｉａｎｇ　Ｚｈｏｎｇｍｅｉ　Ｒｉｈｕａ　Ｙｏｕｘｉａｎｇｏｎｇｓｉ,,外国会社等,,,,,,,,Ｊｉｎｄｏｎｇｊｉｎｇｊｉｋａｉｆａｑｕ　Ｊｉｎｇａｎｇｄａｄａｏｄｏｎｇ　１６４８　ｈａｏ　Ｊｉｎｈｕａ　Ｚｈｅｊｉａｎｇ,,,,,,2023-05-22,1,,,,,ゼジャンゾンメイルィホァユウゲンコウシ,0
1071,5010401174486,新規,0,2023-05-22,2023-05-22,株式会社ａｉｒｕ,,株式会社,東京都,港区,新橋１丁目１１番３号岩井ビル７階,,13,103,1050004,,,,,,,2023-05-22,1,,,,,アイル,0
1075,5010403030142,新規,0,2023-05-22,2023-05-22,新向合同会社,,合同会社,東京都,港区,赤坂５丁目５番１０－１１０３号,,13,103,1070052,,,,,,,2023-05-22,1,,,,,シンコウ,0
1088,5010703006701,新規,0,2023-05-22,2023-05-22,ｂｉｔｂａｎｋ　Ｖｅｎｔｕｒｅｓ合同会社,,合同会社,東京都,品川区,西五反田７丁目２０番９号,,13,109,1410031,,,,,,,2023-05-22,1,,,,,ビットバンクベンチャーズ,0
1093,5010801033969,新規,0,2023-05-22,2023-05-22,株式会社ＳＡＲＥＥＥ’ｓ,,株式会社,東京都,大田区,大森北１丁目１２番８号,,13,111,1430016,,,,,,,2023-05-22,1,,,,,サリーズ,0
1102,5011001154507,新規,0,2023-05-22,2023-05-22,株式会社エルフク,,株式会社,東京都,渋谷区,神宮前６丁目２３番４号桑野ビル２階,,13,113,1500001,,,,,,,2023-05-22,1,,,,,エルフク,0
1104,5011003016861,新規,0,2023-05-22,2023-05-22,Ｂｉｇ　Ｆｌｙ　Ａｎａｌｙｔｉｃｓ合同会社,,合同会社,東京都,渋谷区,渋谷３丁目１－９渋谷ＹＡＺＡＷＡビル,,13,113,1500002,,,,,,,2023-05-22,1,,,,,ビックフライアナリティクス,0
1108,5011101102885,新規,0,2023-05-22,2023-05-22,株式会社ＶＲ　ＩＭＡＧＩＮＡＴＯＲＳ,,株式会社,東京都,新宿区,北新宿１丁目３５番１号コンシェリア新宿ノースフロンティア４０２号室,,13,104,1690074,,,,,,,2023-05-22,1,,,,,ヴィアールイマジネーターズ,0
1109,5011101102943,新規,0,2023-05-22,2023-05-22,株式会社バイネーム,,株式会社,東京都,新宿区,新宿２丁目５番１２号,,13,104,1600022,,,,,,,2023-05-22,1,,,,,バイネーム,0
1110,5011101102951,新規,0,2023-05-22,2023-05-22,株式会社ＡＡＹＡＮＫ,,株式会社,東京都,新宿区,北新宿１丁目１番１６号ＪＳビル９０２,,13,104,1690074,,,,,,,2023-05-22,1,,,,,アヤンク,0
1115,5011301028724,新規,0,2023-05-22,2023-05-22,株式会社Ｌｏｇｉｃ　Ｌｉｎｋ,,株式会社,東京都,杉並区,大宮１丁目２２番６８号,,13,115,1680061,,,,,,,2023-05-22,1,,,,,ロジックリンク,0
1124,5011801042448,新規,0,2023-05-22,2023-05-22,株式会社Ａｌｖｅｒｓ,,株式会社,東京都,足立区,日ノ出町２７番２－１００１号,,13,121,1200021,,,,,,,2023-05-22,1,,,,,アルバス,0
1128,5012403005990,新規,0,2023-05-22,2023-05-22,合同会社心心佐野,,合同会社,東京都,府中市,紅葉丘１丁目１２番地の２１,,13,206,1830004,,,,,,,2023-05-22,1,,,,,シンシンサノ,0
1150,5020001151595,新規,0,2023-05-22,2023-05-22,ルーセンス株式会社,,株式会社,神奈川県,横浜市港北区,綱島西５丁目２番３１号,,14,109,2230053,,,,,,,2023-05-22,1,,,,,ルーセンス,0
1151,5020001151678,新規,0,2023-05-22,2023-05-22,株式会社Ｐｏｒｔｅｒ　Ｂｅｌｌｓ横浜,,株式会社,神奈川県,横浜市戸塚区,上矢部町８８７番地１,,14,110,2450053,,,,,,,2023-05-22,1,,,,,ポーターベルズヨコハマ,0
1152,5020001151703,新規,0,2023-05-22,2023-05-22,株式会社Ｋハウス,,株式会社,神奈川県,川崎市川崎区,砂子１丁目１０番地２ソシオ砂子ビル１２０３,,14,131,2100006,,,,,,,2023-05-22,1,,,,,ケーハウス,0
1153,5020001151711,新規,0,2023-05-22,2023-05-22,株式会社バビルサブックス,,株式会社,神奈川県,横浜市港北区,師岡町１９９番地２２,,14,109,2220002,,,,,,,2023-05-22,1,,,,,バビルサブックス,0
1156,5021001079125,新規,0,2023-05-22,2023-05-22,アイコネクション株式会社,,株式会社,神奈川県,海老名市,中央２丁目９－５０,,14,215,2430432,,,,,,,2023-05-22,1,,,,,アイコネクション,0
1157,5021005012817,新規,0,2023-05-22,2023-05-22,一般社団法人発電ガラス推進普及協会,,その他の設立登記法人,神奈川県,茅ヶ崎市,東海岸南１丁目６番２５号ラコスタデルソル１０３,,14,207,2530054,,,,,,,2023-05-22,1,,,,,ハツデンガラススイシンフキュウキョウカイ,0
1165,5030001153921,新規,0,2023-05-22,2023-05-22,株式会社未来ハウス,,株式会社,埼玉県,さいたま市大宮区,桜木町１丁目６番地９２ＨＯＴＥＬメイン１Ｆ,,11,103,3300854,,,,,,,2023-05-22,1,,,,,ミライハウス,0
1166,5030001153954,新規,0,2023-05-22,2023-05-22,株式会社７Ａ,,株式会社,埼玉県,草加市,谷塚仲町８０番地２,00130571,11,221,3400025,,,,,,,2023-05-22,1,,,,,セブンエー,0
1167,5030001153962,新規,0,2023-05-22,2023-05-22,株式会社リベロトータルサービス,,株式会社,埼玉県,さいたま市大宮区,寿能町２丁目４４７番地２,,11,103,3300805,,,,,,,2023-05-22,1,,,,,リベロトータルサービス,0
1168,5030001153987,新規,0,2023-05-22,2023-05-22,株式会社優和建工,,株式会社,埼玉県,さいたま市緑区,大字中尾２４６０番地,,11,109,3360932,,,,,,,2023-05-22,1,,,,,ユウワケンコウ,0
1169,5030001154003,新規,0,2023-05-22,2023-05-22,株式会社ＡＹマネージメント,,株式会社,埼玉県,川口市,元郷２丁目１５番１－３９０７号,,11,203,3320011,,,,,,,2023-05-22,1,,,,,エイワイマネージメント,0
1170,5030001154011,新規,0,2023-05-22,2023-05-22,濤株式会社,,株式会社,埼玉県,越谷市,赤山町１丁目２５２番地１ハイホーム越谷２０１,,11,222,3430807,,,,,,,2023-05-22,1,,,,,トウ,0
1171,5030001154044,新規,0,2023-05-22,2023-05-22,株式会社ｌｉｆｅ,,株式会社,埼玉県,比企郡川島町,大字下伊草１１１番地１,,11,346,3500157,,,,,,,2023-05-22,1,,,,,ライフ,0
1177,5030003021787,新規,0,2023-05-22,2023-05-22,たーち合同会社,,合同会社,埼玉県,川口市,東領家２丁目６番２号,,11,203,3320003,,,,,,,2023-05-22,1,,,,,ターチ,0
1183,5040005022007,新規,0,2023-05-22,2023-05-22,医療法人社団田那村会,,その他の設立登記法人,千葉県,印西市,中央北２丁目１番地３サンクタス千葉ニュータウン中央１５１６号,,12,231,2701350,,,,,,,2023-05-22,1,,,,,,0
1186,5050001052873,新規,0,2023-05-22,2023-05-22,株式会社ワンライフ,,株式会社,茨城県,龍ケ崎市,松ケ丘１丁目４番１号,,08,208,3010853,,,,,,,2023-05-22,1,,,,,ワンライフ,0
1190,5050003007504,新規,0,2023-05-22,2023-05-22,合同会社大木ホーメスト,,合同会社,茨城県,守谷市,松前台３丁目２０番地１オルビエート１０９,,08,224,3020102,,,,,,,2023-05-22,1,,,,,オオキホーメスト,0
1191,5050003007520,新規,0,2023-05-22,2023-05-22,ＵＤＮ　ＴＲＡＤＩＮＧ合同会社,,合同会社,茨城県,常総市,崎房９２４番地２,,08,211,3002747,,,,,,,2023-05-22,1,,,,,ユーディーエヌトレーディング,0
1198,5070003004953,新規,0,2023-05-22,2023-05-22,合同会社ＳＩＹＡＭ　ＴＲＡＤＩＮＧ,,合同会社,群馬県,太田市,本町３番５,,10,205,3730057,,,,,,,2023-05-22,1,,,,,シヤムトレーデイング,0
1204,5110001037554,新規,0,2023-05-22,2023-05-22,株式会社ムサインターナショナル,,株式会社,新潟県,加茂市,大字後須田１５１２番地１,,15,209,9591303,,,,,,,2023-05-22,1,,,,,ムサインターナショナル,0
1206,5110003005055,新規,0,2023-05-22,2023-05-22,Ｎｅｘｔ‐Ｇ合同会社,,合同会社,新潟県,妙高市,大字二俣２８０番地,,15,217,9492101,,,,,,,2023-05-22,1,,,,,ネクストジー,0
1210,5120001255097,新規,0,2023-05-22,2023-05-22,株式会社エムズプランニング,,株式会社,大阪府,大阪市中央区,瓦町２丁目３－３,,27,128,5410048,,,,,,,2023-05-22,1,,,,,エムズプランニング,0
1215,5120101067582,新規,0,2023-05-22,2023-05-22,クレネージユ株式会社,,株式会社,大阪府,堺市堺区,向陵東町２丁１０番２０号,,27,141,5900025,,,,,,,2023-05-22,1,,,,,クレネージユ,0
1216,5120103005235,新規,0,2023-05-22,2023-05-22,合同会社ＳＵＮＮＹ　ＨＡＰＰＩＮＥＳＳ,,合同会社,大阪府,和泉市,小田町１丁目１番７号,,27,219,5940074,,,,,,,2023-05-22,1,,,,,サニーハピネス,0
1223,5130001074356,新規,0,2023-05-22,2023-05-22,株式会社梅田屋,,株式会社,京都府,京都市伏見区,横大路一本木２１－７,,26,109,6128252,,,,,,,2023-05-22,1,,,,,ウメダヤ,0
1231,5140001130232,新規,0,2023-05-22,2023-05-22,株式会社アルセント,,株式会社,兵庫県,神戸市兵庫区,水木通４丁目１番６号,,28,105,6520802,,,,,,,2023-05-22,1,,,,,アルセント,0
1232,5140001130240,新規,0,2023-05-22,2023-05-22,ＫＭマネジメント株式会社,,株式会社,兵庫県,西宮市,上甲東園１丁目８番１０号,,28,204,6620813,,,,,,,2023-05-22,1,,,,,ケイエムマネジメント,0
1233,5140001130257,新規,0,2023-05-22,2023-05-22,株式会社梶原建設,,株式会社,兵庫県,尼崎市,西昆陽３丁目３１番５号アビタシオン西昆陽Ｃ棟１０号,,28,202,6610047,,,,,,,2023-05-22,1,,,,,カジハラケンセツ,0
1234,5140001130265,新規,0,2023-05-22,2023-05-22,株式会社ＫＫＡ＆Ａ,,株式会社,兵庫県,芦屋市,岩園町３３番３号,,28,206,6590013,,,,,,,2023-05-22,1,,,,,ケーケーエーアンドエー,0
1246,5180001156166,新規,0,2023-05-22,2023-05-22,株式会社ウィルコネクト,,株式会社,愛知県,名古屋市昭和区,山脇町１丁目５プランドールＪ＆Ｃ１０１号,,23,107,4660063,,,,,,,2023-05-22,1,,,,,ウィルコネクト,0
1247,5180001156397,新規,0,2023-05-22,2023-05-22,サンライズプロ株式会社,,株式会社,愛知県,春日井市,松河戸町字段下１４００番地,,23,206,4860932,,,,,,,2023-05-22,1,,,,,サンライズプロ,0
1248,5180001156406,新規,0,2023-05-22,2023-05-22,株式会社ＲＯＨＮＡ,,株式会社,愛知県,名古屋市天白区,元八事３丁目３４０番地,,23,116,4680066,,,,,,,2023-05-22,1,,,,,ロナ,0
1250,5180301037405,新規,0,2023-05-22,2023-05-22,株式会社スマイルサポート,,株式会社,愛知県,豊田市,衣ケ原３丁目１２番地,,23,211,4710856,,,,,,,2023-05-22,1,,,,,スマイルサポート,0
1251,5180303005715,新規,0,2023-05-22,2023-05-22,ＷＡＫＡＢＡ合同会社,,合同会社,愛知県,豊川市,市田町下新屋２１番地の１,,23,207,4420862,,,,,,,2023-05-22,1,,,,,ワカバ,0
1256,5220003003519,新規,0,2023-05-22,2023-05-22,宮川商事合同会社,,合同会社,石川県,加賀市,大聖寺弓町６１番地１７,,17,206,9220813,,,,,,,2023-05-22,1,,,,,ミヤカワショウジ,0
1261,5240003006148,新規,0,2023-05-22,2023-05-22,合同会社２ｎｄ　ｉｎｎｏｖａｔｉｏｎ,,合同会社,広島県,福山市,春日町６丁目１番３１号,,34,207,7210907,,,,,,,2023-05-22,1,,,,,セカンドイノベイション,0
1269,5280001008943,新規,0,2023-05-22,2023-05-22,奥出雲椎茸株式会社,,株式会社,島根県,仁多郡奥出雲町,三沢９８番地３,,32,343,6991513,,,,,,,2023-05-22,1,,,,,オクイズモシイタケ,0
1273,5290001101598,新規,0,2023-05-22,2023-05-22,株式会社日創ライフ,,株式会社,福岡県,福岡市博多区,博多駅前１丁目２３－２ＰａｒｋＦｒｏｎｔ博多駅前１丁目８Ｆ,,40,132,8120011,,,,,,,2023-05-22,1,,,,,ニッソウライフ,0
1274,5290001101607,新規,0,2023-05-22,2023-05-22,株式会社ベジタス,,株式会社,福岡県,久留米市,通東町１－７－２Ｆ,,40,203,8300016,,,,,,,2023-05-22,1,,,,,ベジタス,0
1281,5300003001968,新規,0,2023-05-22,2023-05-22,合同会社なごみ,,合同会社,佐賀県,唐津市,大名小路５番４６号,,41,202,8470012,,,,,,,2023-05-22,1,,,,,ナゴミ,0
1282,5310001018419,新規,0,2023-05-22,2023-05-22,株式会社Ｓｏｌｖｅｒ８,,株式会社,長崎県,長崎市,千々町７１１番地ロ,,42,201,8510245,,,,,,,2023-05-22,1,,,,,ソルバーエイト,0
1283,5320003004085,新規,0,2023-05-22,2023-05-22,合同会社ＥＮＷＡ,,合同会社,大分県,別府市,大字北石垣１３１－９,,44,202,8740000,,,,,,,2023-05-22,1,,,,,エンワ,0
1293,5350001018365,新規,0,2023-05-22,2023-05-22,エンリッチ株式会社,,株式会社,宮崎県,宮崎市,中村東１丁目２番２７号アモント中村２０１,,45,201,8800904,,,,,,,2023-05-22,1,,,,,エンリッチ,0
1295,5360001032019,新規,0,2023-05-22,2023-05-22,株式会社モーグス,,株式会社,沖縄県,浦添市,前田３丁目１－１６,,47,208,9012102,,,,,,,2023-05-22,1,,,,,モーグス,0
1296,5360001032043,新規,0,2023-05-22,2023-05-22,株式会社パインリビング,,株式会社,沖縄県,うるま市,字江洲１５３番地８,,47,213,9042244,,,,,,,2023-05-22,1,,,,,パインリビング,0
1297,5360003012984,新規,0,2023-05-22,2023-05-22,合同会社農業生産法人沖縄自然植物ファーム,,合同会社,沖縄県,名護市,字親川４８０番地ハイツ大城１０５号,,47,209,9051146,,,,,,,2023-05-22,1,,,,,オキナワシゼンショクブツファーム,0
1300,5370003006135,新規,0,2023-05-22,2023-05-22,合同会社ＷＡＫＵＷＡＫＵライフクリエイト,,合同会社,宮城県,柴田郡村田町,大字村田字西２４番３,,04,322,9891305,,,,,,,2023-05-22,1,,,,,ワクワクライフクリエイト,0
1315,5430001089118,新規,0,2023-05-22,2023-05-22,マジカルヒューマンテクノロジー株式会社,,株式会社,北海道,苫小牧市,字錦岡７６１番地の１,,01,213,0591275,,,,,,,2023-05-22,1,,,,,マジカルヒューマンテクノロジー,0
1316,5430001089126,新規,0,2023-05-22,2023-05-22,晃洋コネクション株式会社,,株式会社,北海道,虻田郡洞爺湖町,香川１２３番地,,01,584,0495831,,,,,,,2023-05-22,1,,,,,コウヨウコネクション,0
1317,5430001089159,新規,0,2023-05-22,2023-05-22,株式会社エムエス商事,,株式会社,北海道,札幌市中央区,伏見２丁目６番６号,,01,101,0640942,,,,,,,2023-05-22,1,,,,,エムエスショウジ,0
1318,5430003015047,新規,0,2023-05-22,2023-05-22,ＮＯＲＤ　Ｌｉｎｋｓ合同会社,,合同会社,北海道,札幌市北区,百合が原７丁目１３番７号,,01,102,0028081,,,,,,,2023-05-22,1,,,,,ノードリンクス,0
1325,5500001024942,新規,0,2023-05-22,2023-05-22,株式会社ｓｆ．,,株式会社,愛媛県,東温市,横河原３３９番地１,,38,215,7910203,,,,,,,2023-05-22,1,,,,,エスエフドット,0
1326,5700150116330,新規,0,2023-05-22,2023-05-22,Ｓｕｚｈｏｕ　Ｈｏｎｇｙｉｑｕａｎ　Ｍａｏｙｉ，ＣＯ，ＬＴＤ,,外国会社等,,,,,,,,Ｙｕａｎｈｅｊｉｅｄａｏ　Ｑｕａｎｊｉｅｆａｎｇ　２－１１４　Ｓｕｚｈｏｕｓｈｉ　Ｘｉａｎｇｃｈｅｎｇｑｕ　Ｊｉａｎｇｓｕ,,,,,,2023-05-22,1,,,,,スゾォウホンイツェンマオイカンパニーリミテッド,0
1339,6010001235431,新規,0,2023-05-22,2023-05-22,東商コネクトサービス株式会社,,株式会社,東京都,中央区,新川１丁目３番３号,,13,102,1040033,,,,,,,2023-05-22,1,,,,,トウショウコネクトサービス,0
1343,6010003040648,新規,0,2023-05-22,2023-05-22,合同会社リブライト,,合同会社,東京都,中央区,銀座１丁目１２番４号Ｎ＆ＥＢＬＤ．６Ｆ,,13,102,1040061,,,,,,,2023-05-22,1,,,,,リブライト,0
1344,6010003040664,新規,0,2023-05-22,2023-05-22,バリュークリエイション合同会社,,合同会社,東京都,千代田区,九段南１丁目５番６号りそな九段ビル５階ＫＳフロア,,13,101,1020074,,,,,,,2023-05-22,1,,,,,バリュークリエイション,0
1345,6010005036719,新規,0,2023-05-22,2023-05-22,技術研究組合水素小型モビリティ・エンジン研究組合,,その他の設立登記法人,東京都,中央区,八重洲２丁目２番１号八重洲セントラルタワー７階,,13,102,1040028,,,,,,,2023-05-22,1,,,,,スイソコガタモビリティエンジンケンキュウクミアイ,0
1346,6010005036727,新規,0,2023-05-22,2023-05-22,一般社団法人祺盛会,,その他の設立登記法人,東京都,文京区,音羽１丁目１７番１３－８０３号,,13,105,1120013,,,,,,,2023-05-22,1,,,,,キセイカイ,0
1361,6010401174452,新規,0,2023-05-22,2023-05-22,株式会社エーマヴィ,,株式会社,東京都,港区,浜松町１丁目２０番１０号ライオネス浜松町５０６号,,13,103,1050013,,,,,,,2023-05-22,1,,,,,エーマヴィ,0
1362,6010401174477,新規,0,2023-05-22,2023-05-22,株式会社ＮＯＢＬＥＡＣＴＳ,,株式会社,東京都,港区,浜松町２丁目２番１５号浜松町ダイヤビル２Ｆ,,13,103,1050013,,,,,,,2023-05-22,1,,,,,ノーブルアクツ,0
1363,6010401174519,新規,0,2023-05-22,2023-05-22,株式会社スプリング・ウィンド,,株式会社,東京都,港区,南青山１丁目１７番１０号,,13,103,1070062,,,,,,,2023-05-22,1,,,,,スプリングウィンド,0
1364,6010401174535,新規,0,2023-05-22,2023-05-22,株式会社アーバンデベロップメント,,株式会社,東京都,港区,芝大門２丁目７番５号ＭＴビル６階,,13,103,1050012,,,,,,,2023-05-22,1,,,,,アーバンデベロップメント,0
1370,6010505003409,新規,0,2023-05-22,2023-05-22,一般社団法人東京特殊浴場暴力団等排除推進協議会,,その他の設立登記法人,東京都,台東区,浅草５丁目６０番６号草薙ビル１階,,13,106,1110032,,,,,,,2023-05-22,1,,,,,トウキョウトクシュヨクジョウボウリョクダントウハイジョスイシンキョウギカイ,0
1371,6010601063141,新規,0,2023-05-22,2023-05-22,株式会社ＴＡＤＡＭ,,株式会社,東京都,墨田区,業平１丁目６－３業平橋住宅４３０,,13,107,1300002,,,,,,,2023-05-22,1,,,,,タダム,0
1388,6011001154506,新規,0,2023-05-22,2023-05-22,株式会社エイトピークスベース,,株式会社,東京都,渋谷区,渋谷１丁目２０番１１－４０９号,,13,113,1500002,,,,,,,2023-05-22,1,,,,,エイトピークスベース,0
1389,6011003016836,新規,0,2023-05-22,2023-05-22,ａｓｏｂｉ合同会社,,合同会社,東京都,渋谷区,神宮前１丁目９－３０ＦＬＥＧ原宿地下１階,,13,113,1500001,,,,,,,2023-05-22,1,,,,,アソビ,0
1392,6011101102942,新規,0,2023-05-22,2023-05-22,株式会社米川,,株式会社,東京都,新宿区,北新宿１丁目１３番８号・１Ｆ,,13,104,1690074,,,,,,,2023-05-22,1,,,,,ヨネカワ,0
1395,6011303004763,新規,0,2023-05-22,2023-05-22,合同会社Ｎｏｒｍ,,合同会社,東京都,杉並区,上高井戸１丁目１３－３コディア八幡山６０７,,13,115,1680074,,,,,,,2023-05-22,1,,,,,,0
1401,6011801042439,新規,0,2023-05-22,2023-05-22,京展株式会社,,株式会社,東京都,足立区,栗原３丁目２６番１号２Ｆ,,13,121,1230842,,,,,,,2023-05-22,1,,,,,キョウテン,0
1409,6012401040543,新規,0,2023-05-22,2023-05-22,株式会社エフェクトリー,,株式会社,東京都,調布市,西つつじケ丘１丁目３８番地３３,,13,208,1820006,,,,,,,2023-05-22,1,,,,,エフェクトリー,0
1414,6013101009176,新規,0,2023-05-22,2023-05-22,華源商業株式会社,,株式会社,東京都,福生市,大字福生８９１番地,,13,218,1970011,,,,,,,2023-05-22,1,,,,,ハナモトショウギョウ,0
1422,6020001151685,新規,0,2023-05-22,2023-05-22,株式会社ＶＮＫ,,株式会社,神奈川県,横浜市金沢区,寺前１丁目１３番９－３号,,14,108,2360014,,,,,,,2023-05-22,1,,,,,ブイエヌケー,0
1426,6020003023882,新規,0,2023-05-22,2023-05-22,ＭＡＣＡＲＲＥ合同会社,,合同会社,神奈川県,横浜市港北区,師岡町２９８―１アドリーム大倉山６０５,,14,109,2220002,,,,,,,2023-05-22,1,,,,,マカレ,0
1427,6020003023940,新規,0,2023-05-22,2023-05-22,合同会社カクサ商店,,合同会社,神奈川県,横浜市青葉区,藤が丘１丁目２７番地１９櫻井マンション２Ｆ,,14,117,2270043,,,,,,,2023-05-22,1,,,,,カクサショウテン,0
1431,6021001079099,新規,0,2023-05-22,2023-05-22,株式会社Ｈａｒｂｏｕｒ　Ｃｏｎｓｕｌｔｉｎｇ,,株式会社,神奈川県,茅ヶ崎市,浜須賀１４番１－１０７号,,14,207,2530035,,,,,,,2023-05-22,1,,,,,ハーバーコンサルティング,0
1438,6030001154010,新規,0,2023-05-22,2023-05-22,株式会社ブライト経営サービス,,株式会社,埼玉県,草加市,八幡町５２０番地８,,11,221,3400006,,,,,,,2023-05-22,1,,,,,ブライトケイエイサービス,0
1439,6030001154019,新規,0,2023-05-22,2023-05-22,株式会社Ｃｌｏｖｅｒ　ｅｔ　Ｆｉｏｒｉ,,株式会社,埼玉県,上尾市,春日１丁目１９番地３６クイーンズタウン１号室,,11,219,3620074,,,,,,,2023-05-22,1,,,,,クローバーエフィオーリ,0
1440,6030001154035,新規,0,2023-05-22,2023-05-22,株式会社エムズクラフト,,株式会社,埼玉県,草加市,旭町３丁目３番１９－１０号,,11,221,3400053,,,,,,,2023-05-22,1,,,,,エムズクラフト,0
1446,6030003021794,新規,0,2023-05-22,2023-05-22,合同会社フジ克不動産,,合同会社,埼玉県,児玉郡美里町,大字白石４２３番地２,,11,381,3670117,,,,,,,2023-05-22,1,,,,,フジカツフドウサン,0
1450,6040001128426,新規,0,2023-05-22,2023-05-22,株式会社ＣＯＮＮＥＣＴ,,株式会社,千葉県,千葉市花見川区,宮野木台４丁目２３番２１号Ｎ・ＹハイツＢ１０１号,,12,102,2620015,,,,,,,2023-05-22,1,,,,,コネクト,0
1453,6040003022668,新規,0,2023-05-22,2023-05-22,Ｔｈｅｏｒｙ合同会社,,合同会社,千葉県,松戸市,中根長津町５２－１,,12,207,2710054,,,,,,,2023-05-22,1,,,,,セオリー,0
1454,6040005021998,新規,0,2023-05-22,2023-05-22,医療法人社団三矢会,,その他の設立登記法人,千葉県,富里市,七栄６４６番地,,12,233,2860221,,,,,,,2023-05-22,1,,,,,ミツヤカイ,0
1455,6040005022030,新規,0,2023-05-22,2023-05-22,一般社団法人ギャンブル依存症支援対策協議会,,その他の設立登記法人,千葉県,市原市,白金町４丁目３８－２サンライズ白金３０３,,12,219,2900059,,,,,,,2023-05-22,1,,,,,ギャンブルイゾンショウシエンタイサクキョウギカイ,0
1464,6060003004557,新規,0,2023-05-22,2023-05-22,Ｌｕｎｄ合同会社,,合同会社,栃木県,日光市,今市１００５番地５,,09,206,3211261,,,,,,,2023-05-22,1,,,,,ルンド,0
1483,6120001255047,新規,0,2023-05-22,2023-05-22,株式会社ａｒｂｏｌ　ｇｒａｎｄｅ,,株式会社,大阪府,大阪市福島区,福島１丁目６－１８クリスタルハウス１Ｆ,,27,103,5530003,,,,,,,2023-05-22,1,,,,,アルボルグランデ,0
1484,6120001255088,新規,0,2023-05-22,2023-05-22,株式会社龍盛,,株式会社,大阪府,大阪市中央区,島之内２丁目６番５号,,27,128,5420082,,,,,,,2023-05-22,1,,,,,リュウセイ,0
1490,6120103005234,新規,0,2023-05-22,2023-05-22,合同会社ラヴィアンローズ,,合同会社,大阪府,泉大津市,松之浜町１丁目１７番２４号,,27,206,5950072,,,,,,,2023-05-22,1,,,,,ラヴィアンローズ,0
1502,6122001036996,新規,0,2023-05-22,2023-05-22,株式会社ＲＢ建築設計事務所,,株式会社,大阪府,東大阪市,花園東町１丁目１番２２号オノデマンション２Ｂ,,27,227,5780931,,,,,,,2023-05-22,1,,,,,アールビーケンチクセッケイジムショ,0
1508,6140001130256,新規,0,2023-05-22,2023-05-22,株式会社藤本商事,,株式会社,兵庫県,西宮市,羽衣町５番３６号,,28,204,6620051,,,,,,,2023-05-22,1,,,,,フジモトショウジ,0
1512,6170001017616,新規,0,2023-05-22,2023-05-22,株式会社ＬｉｖｉｎｇＭａｎａｇｅｍｅｎｔ,,株式会社,和歌山県,和歌山市,栗栖１０５５番地,,30,201,6408305,,,,,,,2023-05-22,1,,,,,リビングマネジメント,0
1519,6180001156388,新規,0,2023-05-22,2023-05-22,株式会社エム・プランニング,,株式会社,愛知県,海部郡蟹江町,富吉１丁目４９５番地メイプルハイツ２０７,,23,425,4970058,,,,,,,2023-05-22,1,,,,,エムプランニング,0
1521,6180003025252,新規,0,2023-05-22,2023-05-22,ＭＯＫＴＡＮ合同会社,,合同会社,愛知県,名古屋市西区,名駅２丁目７番５号金太郎ビル１階,,23,104,4510045,,,,,,,2023-05-22,1,,,,,モクタン,0
1523,6180303005714,新規,0,2023-05-22,2023-05-22,合同会社ＯＺＷ,,合同会社,愛知県,岡崎市,戸崎町字牛転２番地１４６,,23,202,4440840,,,,,,,2023-05-22,1,,,,,オージーダブル,0
1533,6250002020825,新規,0,2023-05-22,2023-05-22,有限会社豊伸建設,,有限会社,山口県,宇部市,西小串１丁目３番８号,,35,202,7550049,,,,,,,2023-05-22,1,,,,,ホウシンケンセツ,0
1538,6260005011234,新規,0,2023-05-22,2023-05-22,労働者協同組合ｓｏｕ,,その他の設立登記法人,岡山県,岡山市南区,千鳥町１－１７,,33,104,7028037,,,,,,,2023-05-22,1,,,,,ソウ,0
1543,6290001101606,新規,0,2023-05-22,2023-05-22,株式会社ナオリキ,,株式会社,福岡県,福岡市東区,香椎台４丁目１８番９号,,40,131,8130014,,,,,,,2023-05-22,1,,,,,ナオリキ,0
1545,6300003001967,新規,0,2023-05-22,2023-05-22,合同会社鳶浩,,合同会社,佐賀県,三養基郡上峰町,大字堤３９７１番地３,,41,345,8490124,,,,,,,2023-05-22,1,,,,,トビヒロ,0
1553,6340001025592,新規,0,2023-05-22,2023-05-22,株式会社オートショップキンコウ,,株式会社,鹿児島県,鹿屋市,旭原町２７９８番地３,,46,203,8930022,,,,,,,2023-05-22,1,,,,,オートショップキンコウ,0
1562,6360001032018,新規,0,2023-05-22,2023-05-22,株式会社ＳＵＮＮＹ,,株式会社,沖縄県,那覇市,具志１丁目１０番２５号ソレイ・ユ３０１,,47,201,9010146,,,,,,,2023-05-22,1,,,,,サニー,0
1563,6360001032042,新規,0,2023-05-22,2023-05-22,株式会社ミネラルリソース,,株式会社,沖縄県,那覇市,上之屋１丁目１９番２４－１４０５号,,47,201,9000011,,,,,,,2023-05-22,1,,,,,ミネラルリソース,0
1564,6360001032050,新規,0,2023-05-22,2023-05-22,株式会社サン・パティー,,株式会社,沖縄県,南城市,知念字久高８２番地,,47,215,9011501,,,,,,,2023-05-22,1,,,,,サンパティー,0
1568,6370001049985,新規,0,2023-05-22,2023-05-22,株式会社仙石建築,,株式会社,宮城県,角田市,横倉字戸ノ内６６番地１,,04,208,9811512,,,,,,,2023-05-22,1,,,,,センゴクケンチク,0
1572,6420001018266,新規,0,2023-05-22,2023-05-22,株式会社ｄｅｎｔａｌ　ｖｉｓｉｏｎ,,株式会社,青森県,黒石市,大字浅瀬石字清川１１番地１,,02,204,0360343,,,,,,,2023-05-22,1,,,,,デンタルビジョン,0
1577,6430001089117,新規,0,2023-05-22,2023-05-22,株式会社鶴建,,株式会社,北海道,千歳市,信濃３丁目２３番５号,,01,224,0660038,,,,,,,2023-05-22,1,,,,,ツルケン,0
1578,6430001089125,新規,0,2023-05-22,2023-05-22,株式会社エイヴィス,,株式会社,北海道,樺戸郡月形町,１００１番地２３,,01,430,0610500,,,,,,,2023-05-22,1,,,,,エイヴィス,0
1579,6430003015054,新規,0,2023-05-22,2023-05-22,日本健康技術研究所合同会社,,合同会社,北海道,勇払郡安平町,追分本町３丁目３８番地,,01,585,0591911,,,,,,,2023-05-22,1,,,,,ニホンケンコウギジュツケンキュウショ,0
1580,6430003015062,新規,0,2023-05-22,2023-05-22,ＰＥＴＨ合同会社,,合同会社,北海道,札幌市北区,北十条西２丁目９－３グランファーレ札幌６０２,,01,102,0010010,,,,,,,2023-05-22,1,,,,,ピーイーティーエイチ,0
1581,6440001009263,新規,0,2023-05-22,2023-05-22,株式会社ＭＯＭＩＪＩ,,株式会社,北海道,北斗市,中山１番地１,,01,236,0411243,,,,,,,2023-05-22,1,,,,,モミジ,0
1583,6490001010480,新規,0,2023-05-22,2023-05-22,ＳＰＩＮＡ　ＪＡＰＡＮ株式会社,,株式会社,高知県,高知市,高須西町５番１７号,,39,201,7818114,,,,,,,2023-05-22,1,,,,,スピーナジャパン,0
1584,6500001024941,新規,0,2023-05-22,2023-05-22,株式会社スムイエトイロ,,株式会社,愛媛県,松山市,古三津１丁目３番１５号,,38,201,7918067,,,,,,,2023-05-22,1,,,,,スムイエトイロ,0
1586,6700150089047,新規,0,2023-05-22,2018-05-29,津北ロータリークラブ,,その他,三重県,津市,栄町１丁目８１７富士フィルムビジネスイノベーションジャパン株式会社　三重支社内,,24,201,5140004,,,,,,,2018-05-29,1,,,,,ツキタロータリークラブ,0
1595,7010003040614,新規,0,2023-05-22,2023-05-22,東京レジ３７合同会社,,合同会社,東京都,千代田区,丸の内３丁目１番１号東京共同会計事務所内,,13,101,1000005,,,,,,,2023-05-22,1,,,,,トウキョウレジサーティセブン,0
1597,7010005036726,新規,0,2023-05-22,2023-05-22,一般社団法人ムーバルトーラス,,その他の設立登記法人,東京都,千代田区,丸の内３丁目１番１号東京共同会計事務所内,,13,101,1000005,,,,,,,2023-05-22,1,,,,,ムーバルトーラス,0
1607,7010401174484,新規,0,2023-05-22,2023-05-22,株式会社モロナガ,,株式会社,東京都,港区,新橋５丁目１６番１号,,13,103,1050004,,,,,,,2023-05-22,1,,,,,モロナガ,0
1608,7010401174492,新規,0,2023-05-22,2023-05-22,株式会社ＭＯＪマーケティング,,株式会社,東京都,港区,南青山３丁目１番３６号青山丸竹ビル６Ｆ,,13,103,1070062,,,,,,,2023-05-22,1,,,,,エムオージェイマーケティング,0
1609,7010401174534,新規,0,2023-05-22,2023-05-22,株式会社ＢＬＥＮＤ,,株式会社,東京都,港区,麻布台１丁目９番１０号飯倉ＩＴビル７階,,13,103,1060041,,,,,,,2023-05-22,1,,,,,ブレンド,0
1617,7010701044288,新規,0,2023-05-22,2023-05-22,Ａｋｉｖｅｒｓｅ株式会社,,株式会社,東京都,品川区,上大崎２丁目１０番１１号アビティ目黒７０８,,13,109,1410021,,,,,,,2023-05-22,1,,,,,アキバース,0
1618,7010703006690,新規,0,2023-05-22,2023-05-22,合同会社Ａｍｂｉｇｕｉｔｙ,,合同会社,東京都,品川区,小山３丁目１５－２パークシティ武蔵小山ザタワー３７１１,,13,109,1420062,,,,,,,2023-05-22,1,,,,,アムビギュイティ,0
1630,7011001154488,新規,0,2023-05-22,2023-05-22,インダストリアル・ドリーム株式会社,,株式会社,東京都,渋谷区,道玄坂１丁目１０番８号渋谷道玄坂東急ビル２Ｆ－Ｃ,,13,113,1500043,,,,,,,2023-05-22,1,,,,,インダストリアルドリーム,0
1632,7011003016868,新規,0,2023-05-22,2023-05-22,グラップル合同会社,,合同会社,東京都,渋谷区,神宮前６丁目２３番４号桑野ビル２Ｆ,,13,113,1500001,,,,,,,2023-05-22,1,,,,,グラップル,0
1636,7011103013055,新規,0,2023-05-22,2023-05-22,合同会社大森,,合同会社,東京都,新宿区,四谷２丁目９番地１５東京ユナイテッド綜合事務所内,,13,104,1600004,,,,,,,2023-05-22,1,,,,,オオモリ,0
1637,7011605002522,新規,0,2023-05-22,2023-05-22,一般社団法人むすび,,その他の設立登記法人,東京都,練馬区,大泉学園町７丁目１９番１５号,,13,120,1780061,,,,,,,2023-05-22,1,,,,,ムスビ,0
1638,7011701026251,新規,0,2023-05-22,2023-05-22,ＴＹエステート株式会社,,株式会社,東京都,江戸川区,中葛西６丁目１３番１６号,,13,123,1340083,,,,,,,2023-05-22,1,,,,,ティーワイエステート,0
1641,7011801042438,新規,0,2023-05-22,2023-05-22,ＡＭＩ　ＲＡＨＭＡＮ株式会社,,株式会社,東京都,足立区,西新井本町４丁目１０番４号,,13,121,1230845,,,,,,,2023-05-22,1,,,,,アミラマン,0
1644,7012403005989,新規,0,2023-05-22,2023-05-22,ＦＪスパーク合同会社,,合同会社,東京都,三鷹市,牟礼３丁目９番７‐５０６号,,13,204,1810002,,,,,,,2023-05-22,1,,,,,エフジェイスパーク,0
1655,7020001151684,新規,0,2023-05-22,2023-05-22,株式会社Ｇｏａｌ‐Ｐａｔｈ,,株式会社,神奈川県,横浜市西区,浅間町１丁目４番地３ウィザードビル４０２,,14,103,2200072,,,,,,,2023-05-22,1,,,,,ゴールパス,0
1670,7030001153894,新規,0,2023-05-22,2023-05-22,株式会社アフターキャリア,,株式会社,埼玉県,さいたま市緑区,美園４丁目１１番地８アークプレッソＪ２０６,,11,109,3360967,,,,,,,2023-05-22,1,,,,,アフターキャリア,0
1671,7030001153969,新規,0,2023-05-22,2023-05-22,貴島工業株式会社,,株式会社,埼玉県,さいたま市南区,神明２丁目１番１９－３０２号,,11,108,3360023,,,,,,,2023-05-22,1,,,,,キジマコウギョウ,0
1672,7030001153977,新規,0,2023-05-22,2023-05-22,株式会社リトルビーンズ,,株式会社,埼玉県,狭山市,鵜ノ木２０番１５号,,11,215,3501323,,,,,,,2023-05-22,1,,,,,リトルビーンズ,0
1673,7030001154001,新規,0,2023-05-22,2023-05-22,幸絆・運輸株式会社,,株式会社,埼玉県,上尾市,原市北１丁目１１番地１４,,11,219,3620026,,,,,,,2023-05-22,1,,,,,コウキウンユ,0
1674,7030001154042,新規,0,2023-05-22,2023-05-22,億騰物産株式会社,,株式会社,埼玉県,川越市,小仙波町２丁目９番地１６,,11,201,3500036,,,,,,,2023-05-22,1,,,,,イトウブッサン,0
1679,7030003021793,新規,0,2023-05-22,2023-05-22,合同会社フジクリーンホールディングス,,合同会社,埼玉県,八潮市,大字八條２３１６番地６,,11,234,3400801,,,,,,,2023-05-22,1,,,,,フジクリーンホールディングス,0
1687,7050001052839,新規,0,2023-05-22,2023-05-22,ＴＩＮ株式会社,,株式会社,茨城県,猿島郡五霞町,大字幸主８１０番地,,08,542,3060304,,,,,,,2023-05-22,1,,,,,ティーアイエヌ,0
1688,7050001052871,新規,0,2023-05-22,2023-05-22,株式会社トップグリット,,株式会社,茨城県,水戸市,栄町１丁目８番２０号,,08,201,3100064,,,,,,,2023-05-22,1,,,,,トップグリット,0
1694,7060005010098,新規,0,2023-05-22,2023-05-22,一般社団法人Ｊａｐａｎ　Ｇｅｎｅｒａｌ　Ｏｒｃｈｅｓｔｒａ,,その他の設立登記法人,栃木県,真岡市,大谷台町２１番地１１,,09,209,3214338,,,,,,,2023-05-22,1,,,,,ジャパンジェネラルオーケストラ,0
1702,7080401026497,新規,0,2023-05-22,2023-05-22,株式会社ポラリス,,株式会社,静岡県,浜松市中区,田町２３１番地の８,,22,131,4300944,,,,,,,2023-05-22,1,,,,,ポラリス,0
1710,7110001037552,新規,0,2023-05-22,2023-05-22,株式会社ＲｅａＬｉｚｅ,,株式会社,新潟県,北蒲原郡聖籠町,大字諏訪山１５８６番地２０,,15,307,9570117,,,,,,,2023-05-22,1,,,,,リアライズ,0
1720,7120001255046,新規,0,2023-05-22,2023-05-22,株式会社マナテック,,株式会社,大阪府,大阪市淀川区,西三国４丁目３番４号,,27,123,5320006,,,,,,,2023-05-22,1,,,,,マナテック,0
1721,7120001255054,新規,0,2023-05-22,2023-05-22,ＳＳＡ株式会社,,株式会社,大阪府,大阪市旭区,太子橋１丁目１番１－４０３号,,27,117,5350001,,,,,,,2023-05-22,1,,,,,エスエスエー,0
1727,7120101067580,新規,0,2023-05-22,2023-05-22,株式会社ＭｅｉＴＥＣ,,株式会社,大阪府,堺市北区,百舌鳥梅北町５丁２４７番地１０,,27,146,5918031,,,,,,,2023-05-22,1,,,,,メイテック,0
1730,7120901047550,新規,0,2023-05-22,2023-05-22,ウエストフィールド株式会社,,株式会社,大阪府,豊中市,夕日丘３丁目１０番１８－４０５号,,27,203,5610864,,,,,,,2023-05-22,1,,,,,ウエストフィールド,0
1744,7140001130230,新規,0,2023-05-22,2023-05-22,株式会社Ｇｒａｎｄ　Ｃｈａｒｉｏｔ’ｓ,,株式会社,兵庫県,三田市,下深田７４６番地４１７,,28,219,6691543,,,,,,,2023-05-22,1,,,,,グランシャリオズ,0
1745,7140001130247,新規,0,2023-05-22,2023-05-22,株式会社インタービルサービス,,株式会社,兵庫県,神戸市中央区,下山手通２丁目１３番１９号シルバービル,,28,110,6500011,,,,,,,2023-05-22,1,,,,,インタービルサービス,0
1746,7140001130255,新規,0,2023-05-22,2023-05-22,ｅＡｔ　ｅａｓｅ株式会社,,株式会社,兵庫県,淡路市,久留麻１２２９番地５,,28,226,6562311,,,,,,,2023-05-22,1,,,,,イートイーズ,0
1747,7140001130263,新規,0,2023-05-22,2023-05-22,株式会社エミライフプラス,,株式会社,兵庫県,神戸市長田区,御蔵通６丁目５０,,28,106,6530014,,,,,,,2023-05-22,1,,,,,エミライフプラス,0
1749,7140003019125,新規,0,2023-05-22,2023-05-22,合同会社海坊主,,合同会社,兵庫県,明石市,大久保町西島６９３番地６０３号室,,28,203,6740065,,,,,,,2023-05-22,1,,,,,ウミボウズ,0
1756,7180001156354,新規,0,2023-05-22,2023-05-22,Ｎ・トラスト株式会社,,株式会社,愛知県,名古屋市中川区,吉津１丁目２１０７番地,,23,110,4540981,,,,,,,2023-05-22,1,,,,,エヌトラスト,0
1757,7180003025251,新規,0,2023-05-22,2023-05-22,Ｓ’ｚ合同会社,,合同会社,愛知県,名古屋市名東区,扇町２丁目１番地の２ヴィアーレ星ヶ丘の森５２０号室,,23,115,4650076,,,,,,,2023-05-22,1,,,,,エスズ,0
1763,7180303005713,新規,0,2023-05-22,2023-05-22,合同会社ｕｍｂｅｒ,,合同会社,愛知県,岡崎市,宮地町字柳畑５１番地１,,23,202,4440202,,,,,,,2023-05-22,1,,,,,アンバー,0
1764,7180305009480,新規,0,2023-05-22,2023-05-22,アセンブル協同組合,,その他の設立登記法人,愛知県,豊川市,御津町広石広国１６番地２,,23,207,4410321,,,,,,,2023-05-22,1,,,,,,0
1779,7250001020098,新規,0,2023-05-22,2023-05-22,アイアンワークス株式会社,,株式会社,山口県,防府市,八王子２丁目８番９号,,35,206,7470037,,,,,,,2023-05-22,1,,,,,アイアンワークス,0
1789,7290003013939,新規,0,2023-05-22,2023-05-22,合同会社ワイズプラス,,合同会社,福岡県,飯塚市,綱分４１３番地１１７,,40,205,8200101,,,,,,,2023-05-22,1,,,,,ワイズプラス,0
1795,7350001018363,新規,0,2023-05-22,2023-05-22,株式会社Ｋａｉｒ,,株式会社,宮崎県,宮崎市,高岡町五町１３４番地１,,45,201,8802322,,,,,,,2023-05-22,1,,,,,カイル,0
1799,7360003012966,新規,0,2023-05-22,2023-05-22,合同会社ｇｃｏｎ,,合同会社,沖縄県,那覇市,首里儀保町１丁目２１－９,,47,201,9030821,,,,,,,2023-05-22,1,,,,,ジーコン,0
1805,7390003002097,新規,0,2023-05-22,2023-05-22,合同会社Ｓｅｒｅｎｏ,,合同会社,山形県,東置賜郡高畠町,大字露藤２２１０－１,,06,381,9920323,,,,,,,2023-05-22,1,,,,,セレーノ,0
1806,7400003003085,新規,0,2023-05-22,2023-05-22,合同会社Ｓｕｎｎｙ　Ｃｏｎｔｉｎｅｎｔ,,合同会社,岩手県,花巻市,豊沢町２－１８,,03,205,0250089,,,,,,,2023-05-22,1,,,,,サニーコンティネント,0
1808,7420005007850,新規,0,2023-05-22,2023-05-22,一般社団法人ミライク,,その他の設立登記法人,青森県,北津軽郡鶴田町,大字鶴田字生松６５番地３,,02,384,0383503,,,,,,,2023-05-22,1,,,,,ミライク,0
1811,7430001089157,新規,0,2023-05-22,2023-05-22,株式会社リンクスリー,,株式会社,北海道,小樽市,松ケ枝１丁目１３番５号シャロン１１３５　２０１号室,,01,203,0470022,,,,,,,2023-05-22,1,,,,,リンクスリー,0
1815,7430003015061,新規,0,2023-05-22,2023-05-22,ＨＭ総研合同会社,,合同会社,北海道,札幌市西区,琴似二条６丁目２番２６,,01,107,0630812,,,,,,,2023-05-22,1,,,,,エッチエムソウケン,0
1821,7490003001782,新規,0,2023-05-22,2023-05-22,ＫＳＴ合同会社,,合同会社,高知県,高知市,本町１丁目３番１８号山崎ビル１Ｆ,,39,201,7800870,,,,,,,2023-05-22,1,,,,,ケイエスティー,0
1832,7700150116329,新規,0,2023-05-22,2023-05-22,ｎａｎｊｉｎｇ　ｒｕｉｄｏｎｇｈｕｉｔｏｎｇｗａｎｇｌｕｏ　ｙｏｕｘｉａｎｇｏｎｇｓｉ,,外国会社等,,,,,,,,ｎａｎｊｉｎｇ　ｂａｉｘｉａｇａｏｘｉｎｊｕｓｈｕｃｈａｎｙｅｙｕａｎｑｕ　３ｈａｏｌｏｕ　ｑｉｎｈｕａｉｑｕ　ｙｏｎｇｆｅｎｇｄａｄａｏ８ｈａｏ　ｎａｎｊｉｎｇ,,,,,,2023-05-22,1,,,,,ナンジンルイドンホゥイトンワンロゥユウゲンコウシ,0
1847,8010001235405,新規,0,2023-05-22,2023-05-22,株式会社Ｗｈｉｔｅ　Ｓｐａｒｋ,,株式会社,東京都,中央区,銀座１丁目１２番４号Ｎ＆ＥＢＬＤ．６Ｆ,,13,102,1040061,,,,,,,2023-05-22,1,,,,,ホワイトスパーク,0
1848,8010001235512,新規,0,2023-05-22,2023-05-22,株式会社ＢＲパートナーズ,,株式会社,東京都,千代田区,富士見１丁目３－１１富士見デュープレックスＢ’ｓ４Ｆ,,13,101,1020071,,,,,,,2023-05-22,1,,,,,ビーアールパートナーズ,0
1854,8010003040596,新規,0,2023-05-22,2023-05-22,ブラックベルトコンサルティング合同会社,,合同会社,東京都,中央区,銀座１丁目１２番４号Ｎ＆Ｅ－ＢＬＤ．７階,,13,102,1040061,,,,,,,2023-05-22,1,,,,,ブラックベルトコンサルティング,0
1857,8010005036709,新規,0,2023-05-22,2023-05-22,Ａ４ＪＰ　Ｏｃｔｏｂａｌｌ一般社団法人,,その他の設立登記法人,東京都,中央区,日本橋３丁目９番１号日本橋三丁目スクエア１１階,,13,102,1030027,,,,,,,2023-05-22,1,,,,,エーフォージェイピーオクトボール,0
1858,8010005036725,新規,0,2023-05-22,2023-05-22,一般社団法人ガイア,,その他の設立登記法人,東京都,千代田区,丸の内３丁目１番１号東京共同会計事務所内,,13,101,1000005,,,,,,,2023-05-22,1,,,,,ガイア,0
1867,8010401174161,新規,0,2023-05-22,2023-05-22,株式会社ＳＤＳ,,株式会社,東京都,港区,東麻布１丁目９番１１号８０４号室,,13,103,1060044,,,,,,,2023-05-22,1,,,,,エスディーエス,0
1868,8010401174434,新規,0,2023-05-22,2023-05-22,Ｋｉｔｏｎ　Ｊａｐａｎ株式会社,,株式会社,東京都,港区,赤坂１丁目１２番１２号榎坂ビル３階,,13,103,1070052,,,,,,,2023-05-22,1,,,,,キートンジャパン,0
1875,8010402038860,新規,0,2023-05-22,2023-05-22,有限会社萩原産業,,有限会社,東京都,港区,西麻布３丁目１３番２０号,,13,103,1060031,,,,,,,2023-05-22,1,,,,,ハギワラサンギョウ,0
1877,8010405022119,新規,0,2023-05-22,2023-05-22,一般社団法人Ｓ＆Ｄｘ２,,その他の設立登記法人,東京都,港区,東新橋１丁目５番２号汐留シティセンター８階,,13,103,1050021,,,,,,,2023-05-22,1,,,,,エスアンドディーエックスニ,0
1880,8010701044287,新規,0,2023-05-22,2023-05-22,Ｂｕｎｇｙ　Ｊａｐａｎ　Ｒｙｕｊｉｎ株式会社,,株式会社,東京都,品川区,東五反田１丁目１９番７号１階,,13,109,1410022,,,,,,,2023-05-22,1,,,,,バンジージャパンリュウジン,0
1887,8010803004552,新規,0,2023-05-22,2023-05-22,合同会社ＩＫＤ,,合同会社,東京都,大田区,大森東５丁目３７番２６号,,13,111,1430012,,,,,,,2023-05-22,1,,,,,アイケイデー,0
1888,8010805003024,新規,0,2023-05-22,2023-05-22,長嶋茂雄一般財団法人,,その他の設立登記法人,東京都,大田区,田園調布３丁目２９番１９号,,13,111,1450071,,,,,,,2023-05-22,1,,,,,ナガシマシゲオ,0
1907,8011101102932,新規,0,2023-05-22,2023-05-22,株式会社ユリイカ,,株式会社,東京都,新宿区,西新宿６丁目９番１号７０２号室,,13,104,1600023,,,,,,,2023-05-22,1,,,,,ユリイカ,0
1908,8011103013070,新規,0,2023-05-22,2023-05-22,Ｓｏｒａ　Ｐａｘ合同会社,,合同会社,東京都,新宿区,西新宿３丁目３番１３号西新宿水間ビル２Ｆ,,13,104,1600023,,,,,,,2023-05-22,1,,,,,ソラパックス,0
1927,8013303006630,新規,0,2023-05-22,2023-05-22,ＦＯＧ合同会社,,合同会社,東京都,豊島区,南池袋１丁目２１番５号第７野荻ビルＴＨＥＨＵＢ池袋ＳＯＵＴＨ,,13,116,1710022,,,,,,,2023-05-22,1,,,,,エフオージー,0
1932,8020001151709,新規,0,2023-05-22,2023-05-22,株式会社ｐｌｕｍ,,株式会社,神奈川県,横浜市瀬谷区,阿久和東２丁目１５番地９,,14,114,2460023,,,,,,,2023-05-22,1,,,,,プラム,0
1933,8020001151717,新規,0,2023-05-22,2023-05-22,株式会社アルファホールディングス,,株式会社,神奈川県,横浜市金沢区,泥亀２丁目８番９号,,14,108,2360021,,,,,,,2023-05-22,1,,,,,アルファホールディングス,0
1937,8020003023880,新規,0,2023-05-22,2023-05-22,合同会社ＪＣＹＳ,,合同会社,神奈川県,横浜市港北区,下田町４丁目１サンヴァリエ日吉１３号棟４１０,,14,109,2230064,,,,,,,2023-05-22,1,,,,,ジェイシーワイエス,0
1951,8030001153695,新規,0,2023-05-22,2023-05-22,株式会社つばさラボ,,株式会社,埼玉県,川口市,本前川１丁目３２番１１号,,11,203,3330849,,,,,,,2023-05-22,1,,,,,ツバサラボ,0
1952,8030001153869,新規,0,2023-05-22,2023-05-22,株式会社小牟寅,,株式会社,埼玉県,さいたま市大宮区,三橋２丁目２０６番地１,,11,103,3300856,,,,,,,2023-05-22,1,,,,,コムトラ,0
1953,8030001153943,新規,0,2023-05-22,2023-05-22,株式会社ＫＫＩカンパニー,,株式会社,埼玉県,川越市,大字山田１６８９番地１５,,11,201,3500822,,,,,,,2023-05-22,1,,,,,ケーケーアイカンパニー,0
1954,8030001154009,新規,0,2023-05-22,2023-05-22,株式会社寿々電,,株式会社,埼玉県,越谷市,東町３丁目３７５番地８,,11,222,3430826,,,,,,,2023-05-22,1,,,,,スズデン,0
1955,8030001154025,新規,0,2023-05-22,2023-05-22,株式会社Ｐｒｏｏｆ,,株式会社,埼玉県,川口市,戸塚２丁目１９番２１－１０２号ロイヤルメゾンＩＩ,00130573,11,203,3330811,,,,,,,2023-05-22,1,,,,,プルーフ,0
1963,8030003021735,新規,0,2023-05-22,2023-05-22,３Ｄ　Ｓｏｌｕｔｉｏｎｅｒ合同会社,,合同会社,埼玉県,さいたま市中央区,上落合４丁目１２－２０,,11,105,3380001,,,,,,,2023-05-22,1,,,,,スリーディーソリューショナー,0
1964,8030003021751,新規,0,2023-05-22,2023-05-22,合同会社内田園,,合同会社,埼玉県,川口市,大字西立野２１１番地,,11,203,3330813,,,,,,,2023-05-22,1,,,,,ウチダエン,0
1965,8030003021784,新規,0,2023-05-22,2023-05-22,合同会社ＲＯＣＫＳ,,合同会社,埼玉県,越谷市,西方１丁目３３４８番地４,,11,222,3430822,,,,,,,2023-05-22,1,,,,,ロックス,0
1975,8060001035998,新規,0,2023-05-22,2023-05-22,栃木県中央電気工業株式会社,,株式会社,栃木県,宇都宮市,下欠町８６６番地,,09,201,3200853,,,,,,,2023-05-22,1,,,,,トチギケンチュウオウデンキコウギョウ,0
1979,8060005010097,新規,0,2023-05-22,2023-05-22,一般社団法人栃木ＣＰＡ,,その他の設立登記法人,栃木県,宇都宮市,新町２丁目３番１４号,,09,201,3200831,,,,,,,2023-05-22,1,,,,,トチギシーピーエー,0
1984,8080003002986,新規,0,2023-05-22,2023-05-22,合同会社ＹＩ,,合同会社,静岡県,静岡市駿河区,南町１４番２５号エスパティオ６階,,22,102,4228067,,,,,,,2023-05-22,1,,,,,ワイアイ,0
1992,8100001036422,新規,0,2023-05-22,2023-05-22,株式会社総合リフォーム,,株式会社,長野県,飯田市,白山町２丁目６１９９番地３,,20,205,3950076,,,,,,,2023-05-22,1,,,,,ソウゴウリフォーム,0
2005,8120001255004,新規,0,2023-05-22,2023-05-22,金子工業株式会社,,株式会社,大阪府,大阪市東淀川区,淡路４丁目１６番１１号,,27,114,5330032,,,,,,,2023-05-22,1,,,,,カネココウギョウ,0
2006,8120001255020,新規,0,2023-05-22,2023-05-22,株式会社ＢＵＣＫＳ,,株式会社,大阪府,大阪市北区,梅田１丁目１番３号大阪駅前第３ビル２９階１－１－１号室,,27,127,5300001,,,,,,,2023-05-22,1,,,,,バックス,0
2007,8120001255061,新規,0,2023-05-22,2023-05-22,株式会社Ｆ．Ｒ．Ａ．Ｃ,,株式会社,大阪府,大阪市鶴見区,放出東１丁目５番２８－３１０号,,27,124,5380044,,,,,,,2023-05-22,1,,,,,フラック,0
2011,8120003024118,新規,0,2023-05-22,2023-05-22,騰達プラ合同会社,,合同会社,大阪府,大阪市阿倍野区,松虫通１丁目３番３４号,,27,119,5450043,,,,,,,2023-05-22,1,,,,,トウタツプラ,0
2012,8120003024126,新規,0,2023-05-22,2023-05-22,ＬｕｘＣｙｃｌｅ合同会社,,合同会社,大阪府,大阪市中央区,心斎橋筋２丁目２番２２号小大丸ビル３階Ｅ号室,,27,128,5420085,,,,,,,2023-05-22,1,,,,,ロックスサイコ,0
2017,8120901047533,新規,0,2023-05-22,2023-05-22,元利國際株式会社,,株式会社,大阪府,高槻市,郡家新町１番４３号２Ａ室,,27,207,5691136,,,,,,,2023-05-22,1,,,,,ガンリコクサイ,0
2031,8140001130221,新規,0,2023-05-22,2023-05-22,株式会社ＡＮＮＩＶＥＲＳＡＲＹ　ＢＥＡＵＴＹ　ＳＵＰＰＯＲＴ,,株式会社,兵庫県,神戸市西区,二ツ屋１丁目１０番７号リベルテ西神戸１０２,,28,111,6512142,,,,,,,2023-05-22,1,,,,,アニバーサリービューティーサポート,0
2032,8140001130254,新規,0,2023-05-22,2023-05-22,株式会社ｉｎｓｐｉｒｅ,,株式会社,兵庫県,三田市,武庫が丘５丁目１番地Ｋ棟１３０２号,,28,219,6691544,,,,,,,2023-05-22,1,,,,,インスパイアー,0
2033,8140001130262,新規,0,2023-05-22,2023-05-22,株式会社佐脇,,株式会社,兵庫県,神戸市中央区,三宮町３丁目７番１３号,,28,110,6500021,,,,,,,2023-05-22,1,,,,,サワキ,0
2035,8140005026622,新規,0,2023-05-22,2023-05-22,特定非営利活動法人ＢｉｚＷｏｒｌｄ　Ｊａｐａｎ,,その他の設立登記法人,兵庫県,神戸市中央区,浪花町５６起業プラザひょうご内,,28,110,6500035,,,,,,,2023-05-22,1,,,,,ビズワールドジャパン,0
2037,8160001025056,新規,0,2023-05-22,2023-05-22,ＰＱ株式会社,,株式会社,滋賀県,高島市,今津町今津１５８２番地５,,25,212,5201621,,,,,,,2023-05-22,1,,,,,ピーキュー,0
2049,8180303005712,新規,0,2023-05-22,2023-05-22,合同会社まちかつサポート,,合同会社,愛知県,岡崎市,材木町２丁目６６番地１,,23,202,4440057,,,,,,,2023-05-22,1,,,,,マチカツサポート,0
2050,8190001030425,新規,0,2023-05-22,2023-05-22,株式会社Ｌｉ‐Ｒａｃｋ,,株式会社,三重県,鈴鹿市,若松北３丁目１３番３７号,,24,207,5100223,,,,,,,2023-05-22,1,,,,,ライラック,0
2051,8200001041338,新規,0,2023-05-22,2023-05-22,株式会社はすはら屋,,株式会社,岐阜県,郡上市,高鷲町鮎立１９３９番地２,,21,219,5015304,,,,,,,2023-05-22,1,,,,,ハスハラヤ,0
2056,8240001061555,新規,0,2023-05-22,2023-05-22,株式会社Ｍｅｒｒｙ　Ｌａｂ,,株式会社,広島県,広島市東区,二葉の里２丁目８番１５－１０１号,,34,102,7320057,,,,,,,2023-05-22,1,,,,,メリーラボ,0
2063,8260001037974,新規,0,2023-05-22,2023-05-22,株式会社加藤工務店,,株式会社,岡山県,総社市,駅南２丁目４３番地８,,33,208,7191137,,,,,,,2023-05-22,1,,,,,カトウコウムテン,0
2071,8300001013310,新規,0,2023-05-22,2023-05-22,ＳＲ　Ｗｉｔｈ株式会社,,株式会社,佐賀県,唐津市,和多田海士町５番１４号,,41,202,8470071,,,,,,,2023-05-22,1,,,,,エスアールウィズ,0
2075,8300005007143,新規,0,2023-05-22,2023-05-22,行政書士法人あさみ事務所,,その他の設立登記法人,佐賀県,佐賀市,神野東３丁目２番１０号神野ビル２階,,41,201,8400804,,,,,,,2023-05-22,1,,,,,アサミジムショ,0
2081,8320001019768,新規,0,2023-05-22,2023-05-22,株式会社Ｔａｔａｒａ,,株式会社,大分県,日田市,大肥本町１２１８,,44,204,8770000,,,,,,,2023-05-22,1,,,,,,0
2085,8360001032040,新規,0,2023-05-22,2023-05-22,株式会社スマイルレボ,,株式会社,沖縄県,中頭郡北谷町,字吉原１０５５番地１２,,47,326,9040105,,,,,,,2023-05-22,1,,,,,スマイルレボ,0
2091,8370001049983,新規,0,2023-05-22,2023-05-22,株式会社ユーハウス工房,,株式会社,宮城県,仙台市太白区,人来田１丁目２６番１７号,,04,104,9820222,,,,,,,2023-05-22,1,,,,,ユーハウスコウボウ,0
2110,8430001089164,新規,0,2023-05-22,2023-05-22,株式会社Ｓａｕｎａｄａ　Ｆａｍｉｌｉａ,,株式会社,北海道,札幌市北区,北十七条西４丁目１番１７－６０４号,,01,102,0010017,,,,,,,2023-05-22,1,,,,,サウナダファミリア,0
2115,8430003015044,新規,0,2023-05-22,2023-05-22,ＫＴＴ合同会社,,合同会社,北海道,札幌市北区,北十二条西３丁目１番１－７０１号,,01,102,0010012,,,,,,,2023-05-22,1,,,,,ケーティーティー,0
2116,8430003015077,新規,0,2023-05-22,2023-05-22,合同会社ｍａｋｅ　ｔｒａｎｓｐａｒｅｎｔ,,合同会社,北海道,札幌市東区,北二十五条東２０丁目６番１０号,,01,103,0650025,,,,,,,2023-05-22,1,,,,,メイクトランスパレント,0
2122,8470003002427,新規,0,2023-05-22,2023-05-22,合同会社ＬｅａｐＦｏｒｗａｒｄ,,合同会社,香川県,高松市,岡本町１５５７番地５７,,37,201,7618047,,,,,,,2023-05-22,1,,,,,リープフォワード,0
2124,8490003001781,新規,0,2023-05-22,2023-05-22,合同会社Ｌ．Ｃ,,合同会社,高知県,安芸市,本町１丁目３番１３号,,39,203,7840004,,,,,,,2023-05-22,1,,,,,エルシー,0
2131,8700150116328,新規,0,2023-05-22,2023-05-22,ｚｈｅｊｉａｎｇ　ｊｉｎｈａｏｔａｉｙａｎｇｎｅｎｇｋｅｊｉ　ｙｏｕｘｉａｎｇｏｎｇｓｉ,,外国会社等,,,,,,,,ｍｉｎｌｉａｎｌｕ３８８ｈａｏ　ｔｏｎｇｘｉａｎｇｓｈｉ　ｓｈｉｍｅｎｚｈｅｎ,,,,,,2023-05-22,1,,,,,ゼジャンジンハォタイヤンネンユウゲンコウシ,0
2142,9010001235461,新規,0,2023-05-22,2023-05-22,株式会社ひとつまみ,,株式会社,東京都,中央区,日本橋室町１丁目１１番１２号日本橋水野ビル７階,,13,102,1030022,,,,,,,2023-05-22,1,,,,,ヒトツマミ,0
2145,9010005036724,新規,0,2023-05-22,2023-05-22,山佐産業ＱＦＡ一般社団法人,,その他の設立登記法人,東京都,千代田区,丸の内３丁目１番１号東京共同会計事務所内,,13,101,1000005,,,,,,,2023-05-22,1,,,,,ヤマササンギョウキューエフエー,0
2162,9010401174417,新規,0,2023-05-22,2023-05-22,株式会社ＧｎＢ,,株式会社,東京都,港区,南青山２丁目２－８ＤＦビル２Ｆ,,13,103,1070062,,,,,,,2023-05-22,1,,,,,ジーエンビー,0
2163,9010401174482,新規,0,2023-05-22,2023-05-22,株式会社ハイブアイキュー,,株式会社,東京都,港区,浜松町２丁目２番１５号浜松町ダイヤビル２Ｆ,,13,103,1050013,,,,,,,2023-05-22,1,,,,,ハイブアイキュー,0
2164,9010401174499,新規,0,2023-05-22,2023-05-22,株式会社ＮＡホールディングス,,株式会社,東京都,港区,赤坂４丁目８番１０号,,13,103,1070052,,,,,,,2023-05-22,1,,,,,エヌエーホールディングス,0
2167,9010403030155,新規,0,2023-05-22,2023-05-22,合同会社ＮＬＡＮＤ,,合同会社,東京都,港区,南青山３丁目１番３６号青山丸竹ビル６Ｆ,,13,103,1070062,,,,,,,2023-05-22,1,,,,,エヌランド,0
2171,9010601063130,新規,0,2023-05-22,2023-05-22,株式会社ヴィックスリアルエステートリアルティ,,株式会社,東京都,墨田区,錦糸３丁目２番１号アルカイースト２階,,13,107,1300013,,,,,,,2023-05-22,1,,,,,ヴィックスリアルエステートリアルティ,0
2175,9010701044286,新規,0,2023-05-22,2023-05-22,Ｂｕｎｇｙ　Ｊａｐａｎ　Ｇｉｆｕ株式会社,,株式会社,東京都,品川区,東五反田１丁目１９番７号１階,,13,109,1410022,,,,,,,2023-05-22,1,,,,,バンジージャパンギフ,0
2181,9010803004551,新規,0,2023-05-22,2023-05-22,合同会社マイラス,,合同会社,東京都,大田区,南久が原１丁目１９番５号,,13,111,1460084,,,,,,,2023-05-22,1,,,,,マイラス,0
2214,9011501029320,新規,0,2023-05-22,2023-05-22,雲和テック株式会社,,株式会社,東京都,北区,王子５丁目１－１,,13,117,1140002,,,,,,,2023-05-22,1,,,,,モナテック,0
2217,9011701026258,新規,0,2023-05-22,2023-05-22,株式会社盛世工業,,株式会社,東京都,江戸川区,篠崎町７丁目１番１３号アビタシオン篠崎２０１,,13,123,1330061,,,,,,,2023-05-22,1,,,,,セイセコウギョウ,0
2221,9013301050794,新規,0,2023-05-22,2023-05-22,株式会社ｅｙｅｄｒｏｐｓ,,株式会社,東京都,豊島区,南池袋１丁目１１番１９－１４１１号,,13,116,1710022,,,,,,,2023-05-22,1,,,,,アイドロップス,0
2222,9013301050803,新規,0,2023-05-22,2023-05-22,株式会社フォーエバー,,株式会社,東京都,豊島区,東池袋３丁目１１番７号,,13,116,1700013,,,,,,,2023-05-22,1,,,,,フォーエバー,0
2236,9021001079088,新規,0,2023-05-22,2023-05-22,株式会社ＭＡＹＢＩＩ,,株式会社,神奈川県,鎌倉市,城廻７３６番地１６,,14,204,2470074,,,,,,,2023-05-22,1,,,,,メイビ,0
2237,9021001079121,新規,0,2023-05-22,2023-05-22,株式会社オーネ,,株式会社,神奈川県,秦野市,北矢名１１４番地の４,,14,211,2570006,,,,,,,2023-05-22,1,,,,,オーネ,0
2254,9030001153942,新規,0,2023-05-22,2023-05-22,株式会社福田,,株式会社,埼玉県,草加市,氷川町２１０４番地１７,,11,221,3400034,,,,,,,2023-05-22,1,,,,,フクダ,0
2255,9030001153959,新規,0,2023-05-22,2023-05-22,株式会社Ｙ＆Ｙリアルエステート,,株式会社,埼玉県,草加市,新里町１０３８番地６,,11,221,3400031,,,,,,,2023-05-22,1,,,,,ワイアンドワイリアルエステート,0
2256,9030001153975,新規,0,2023-05-22,2023-05-22,知財管理ソリューションズ株式会社,,株式会社,埼玉県,草加市,中根１丁目１－１－１１８,,11,221,3400005,,,,,,,2023-05-22,1,,,,,チザイカンリソリューションズ,0
2257,9030001153991,新規,0,2023-05-22,2023-05-22,株式会社ＢｌｕｅＢｕｄｄｙ,,株式会社,埼玉県,朝霞市,浜崎４丁目６番５５－３０１号,,11,227,3510033,,,,,,,2023-05-22,1,,,,,ブルーバディ,0
2258,9030001154024,新規,0,2023-05-22,2023-05-22,株式会社ＡＩＳ,,株式会社,埼玉県,さいたま市大宮区,桜木町１丁目１０番地１６シーノ大宮ノースウィング１３Ｆ,,11,103,3300854,,,,,,,2023-05-22,1,,,,,エーアイエス,0
2262,9030003021775,新規,0,2023-05-22,2023-05-22,ＴＡＢＡＳＳＵＭ合同会社,,合同会社,埼玉県,川口市,並木１丁目２２ー９和風ハイツ２０５号室,,11,203,3320034,,,,,,,2023-05-22,1,,,,,タバスム,0
2263,9030003021791,新規,0,2023-05-22,2023-05-22,合同会社Ｔ．Ｋ．Ｇ．,,合同会社,埼玉県,鴻巣市,登戸３０６番地７,,11,217,3650052,,,,,,,2023-05-22,1,,,,,ティーケージー,0
2282,9080001025633,新規,0,2023-05-22,2023-05-22,株式会社ＳＫサポート,,株式会社,静岡県,静岡市葵区,大岩２丁目４番７号,,22,101,4200886,,,,,,,2023-05-22,1,,,,,エスケーサポート,0
2283,9080003002985,新規,0,2023-05-22,2023-05-22,合同会社サンパイン,,合同会社,静岡県,静岡市駿河区,南町４番１４－７０２号,,22,102,4228067,,,,,,,2023-05-22,1,,,,,サンパイン,0
2289,9090003002316,新規,0,2023-05-22,2023-05-22,合同会社ＨＩＭＯＫＵＲＩ,,合同会社,山梨県,南都留郡富士河口湖町,船津６９６７－１０２,,19,430,4010301,,,,,,,2023-05-22,1,,,,,ヒモクリ,0
2292,9100003007024,新規,0,2023-05-22,2023-05-22,ＹＳＫ合同会社,,合同会社,長野県,佐久市,原６１３番１－１０２号室,,20,217,3850052,,,,,,,2023-05-22,1,,,,,ワイエスケー,0
2308,9120001255003,新規,0,2023-05-22,2023-05-22,株式会社永宣,,株式会社,大阪府,大阪市中央区,日本橋１丁目５番１５号オーシャン日本一１２０２号,,27,128,5420073,,,,,,,2023-05-22,1,,,,,エイセン,0
2309,9120001255028,新規,0,2023-05-22,2023-05-22,ハクキ株式会社,,株式会社,大阪府,大阪市淀川区,西中島５丁目７番１７号ビジネスヴィップ第２新大阪４０６号室,,27,123,5320011,,,,,,,2023-05-22,1,,,,,ハクキ,0
2310,9120001255085,新規,0,2023-05-22,2023-05-22,ＨＴ株式会社,,株式会社,大阪府,大阪市中央区,内本町１丁目２番１５号谷四スクエアビル５Ｆ－１２,,27,128,5400026,,,,,,,2023-05-22,1,,,,,エイチティー,0
2311,9120001255110,新規,0,2023-05-22,2023-05-22,株式会社ＮＴＤホールディングス,,株式会社,大阪府,大阪市北区,末広町３番３号,,27,127,5300053,,,,,,,2023-05-22,1,,,,,エヌティーディー,0
2315,9120003024117,新規,0,2023-05-22,2023-05-22,有楽合同会社,,合同会社,大阪府,大阪市生野区,巽北２丁目１１番１４号２０３号室,00130575,27,116,5440004,,,,,,,2023-05-22,1,,,,,ユウラク,0
2320,9120103005231,新規,0,2023-05-22,2023-05-22,合同会社Ｆｉｎｄ　Ｆｕｎ,,合同会社,大阪府,藤井寺市,春日丘３丁目１４－２３,,27,226,5830026,,,,,,,2023-05-22,1,,,,,ファインドファン,0
2328,9122001037001,新規,0,2023-05-22,2023-05-22,株式会社ソアテック,,株式会社,大阪府,東大阪市,日下町２丁目１２番１５号,,27,227,5798003,,,,,,,2023-05-22,1,,,,,ソアテック,0
2337,9130001074344,新規,0,2023-05-22,2023-05-22,株式会社要,,株式会社,京都府,京都市伏見区,桃山町大島３８番地２,,26,109,6128006,,,,,,,2023-05-22,1,,,,,カナメ,0
2341,9140001130253,新規,0,2023-05-22,2023-05-22,株式会社ｃｈｅｒｉｒ,,株式会社,兵庫県,三田市,三輪１丁目７番４１－２０１号,,28,219,6691513,,,,,,,2023-05-22,1,,,,,シェリア,0
2342,9140001130261,新規,0,2023-05-22,2023-05-22,モノトーンプラス株式会社,,株式会社,兵庫県,神戸市北区,道場町生野６３０－２,,28,109,6511503,,,,,,,2023-05-22,1,,,,,モノトーンプラス,0
2346,9140003019123,新規,0,2023-05-22,2023-05-22,合同会社兵庫総合研究所,,合同会社,兵庫県,姫路市,砥堀３７番地６,,28,201,6700802,,,,,,,2023-05-22,1,,,,,ヒョウゴソウゴウケンキュウショ,0
2355,9180001156369,新規,0,2023-05-22,2023-05-22,株式会社ハーツアイズ,,株式会社,愛知県,名古屋市守山区,森孝２丁目７０２番地,,23,113,4630035,,,,,,,2023-05-22,1,,,,,ハーツアイズ,0
2356,9180001156385,新規,0,2023-05-22,2023-05-22,株式会社ｍ．１,,株式会社,愛知県,名古屋市北区,中切町４丁目６８番地の２,,23,103,4620051,,,,,,,2023-05-22,1,,,,,エムワン,0
2357,9180001156402,新規,0,2023-05-22,2023-05-22,株式会社Ｃｈｒｏｎｏ　Ｂｅａｕｔｅ,,株式会社,愛知県,江南市,高屋町大松原１１９番地１,,23,217,4838086,,,,,,,2023-05-22,1,,,,,クロノボーテ,0
2363,9200001041279,新規,0,2023-05-22,2023-05-22,株式会社カネ政製陶所,,株式会社,岐阜県,多治見市,滝呂町９丁目６７番地,,21,204,5070813,,,,,,,2023-05-22,1,,,,,カネマサセイトウショ,0
2369,9240001061521,新規,0,2023-05-22,2023-05-22,ＥＰＩＣＬＯＮＧ株式会社,,株式会社,広島県,福山市,入船町１丁目４番２０号,,34,207,7200801,,,,,,,2023-05-22,1,,,,,エピックロング,0
2370,9240001061562,新規,0,2023-05-22,2023-05-22,株式会社ＣＧパートナーズ,,株式会社,広島県,広島市中区,十日市町２丁目３番８号,,34,101,7300805,,,,,,,2023-05-22,1,,,,,シージーパートナーズ,0
2375,9240003006152,新規,0,2023-05-22,2023-05-22,サイードトレーディング合同会社,,合同会社,広島県,東広島市,西条町郷曽３６３－２７ハムレットコミューンＨ棟１０３,,34,212,7390035,,,,,,,2023-05-22,1,,,,,サイードトレーディング,0
2377,9240005015580,新規,0,2023-05-22,2023-05-22,一般社団法人広島アーティスト協会,,その他の設立登記法人,広島県,広島市中区,白島九軒町１８番１０号,,34,101,7300003,,,,,,,2023-05-22,1,,,,,ヒロシマアーティストキョウカイ,0
2384,9260001037973,新規,0,2023-05-22,2023-05-22,株式会社ネクステージ,,株式会社,岡山県,笠岡市,春日台３４８番地１,,33,205,7140025,,,,,,,2023-05-22,1,,,,,ネクステージ,0
2386,9270005005554,新規,0,2023-05-22,2023-05-22,土地家屋調査士法人中島事務所,,その他の設立登記法人,鳥取県,米子市,錦海町１丁目６番１１号,,31,202,6830825,,,,,,,2023-05-22,1,,,,,トチカオクチョウサシナカシマジムショ,0
2394,9290001101561,新規,0,2023-05-22,2023-05-22,株式会社ソティエ,,株式会社,福岡県,福岡市東区,若宮４丁目１８番１６号,,40,131,8130036,,,,,,,2023-05-22,1,,,,,ソティエ,0
2397,9310001018423,新規,0,2023-05-22,2023-05-22,株式会社スーパーソニック,,株式会社,長崎県,対馬市,厳原町国分１３７６番地３,,42,209,8170022,,,,,,,2023-05-22,1,,,,,スーパーソニック,0
2407,9360001032048,新規,0,2023-05-22,2023-05-22,株式会社砂川重機,,株式会社,沖縄県,石垣市,新栄町５１番地１２,,47,207,9070014,,,,,,,2023-05-22,1,,,,,スナガワジュウキ,0
2416,9430001089130,新規,0,2023-05-22,2023-05-22,株式会社Ｋ’ｓエステート,,株式会社,北海道,札幌市中央区,大通西２４丁目１番１２号,,01,101,0640820,,,,,,,2023-05-22,1,,,,,ケーズエステート,0
2417,9430001089163,新規,0,2023-05-22,2023-05-22,ブレイヴァリー株式会社,,株式会社,北海道,札幌市豊平区,平岸二条９丁目１番４７－６０２号,,01,105,0620932,,,,,,,2023-05-22,1,,,,,ブレイヴァリー,0
2418,9430003015043,新規,0,2023-05-22,2023-05-22,合同会社青空,,合同会社,北海道,札幌市北区,北十七条西２丁目１番１７号,,01,102,0010017,,,,,,,2023-05-22,1,,,,,アオゾラ,0
2419,9470001019629,新規,0,2023-05-22,2023-05-22,株式会社笑,,株式会社,香川県,木田郡三木町,大字下高岡２０１８番地３２,,37,341,7610704,,,,,,,2023-05-22,1,,,,,エミ,0
