sequenceNumber,corporateNumber,process,correct,updateDate,changeDate,name,nameImageId,kind,prefectureName,cityName,streetNumber,addressImageId,prefectureCode,cityCode,postCode,addressOutside,addressOutsideImageId,closeDate,closeCause,successorCorporateNumber,changeCause,assignmentDate,latest,enName,enPrefectureName,enCityName,enAddressOutside,furigana,hihyoji
28,1010803004872,登記記録の閉鎖等,0,2025-09-09,2025-09-02,合同会社Ｃｌｅｖｅｒ,,合同会社,東京都,大田区,蒲田５丁目２０番３号,,13,111,1440052,,,2025-09-02,清算の結了等,,,2024-03-07,1,,,,,クレバー,0
38,1011101020975,登記記録の閉鎖等,0,2025-09-09,2025-08-12,株式会社明友エステート,,株式会社,東京都,新宿区,矢来町６８番地,,13,104,1620805,,,2025-08-12,清算の結了等,,,2015-10-05,1,,,,,メイユウエステート,0
68,1013301020565,登記記録の閉鎖等,0,2025-09-09,2025-08-29,株式会社いずみごう保険サービス,,株式会社,東京都,豊島区,南大塚２丁目４５番８号,,13,116,1700005,,,2025-08-29,清算の結了等,,,2015-10-05,1,,,,,イズミゴウホケンサービス,0
75,1020001123598,登記記録の閉鎖等,0,2025-09-09,2025-09-01,株式会社ＯＸ,,株式会社,兵庫県,神戸市兵庫区,大開通２丁目３番２１号,,28,105,6520803,,,2025-09-01,合併による解散等,8140001089978,令和７年９月１日神戸市兵庫区大開通二丁目３番２１号株式会社Ｇｏｏｄ　Ｔｒａｄｅ　Ｊａｐａｎ（8140001089978）に合併し解散,2017-10-30,1,,,,,オックス,0
79,1020002072828,登記記録の閉鎖等,0,2025-09-09,2025-08-22,有限会社田中ビジネスパートナー,,有限会社,神奈川県,横浜市戸塚区,名瀬町７７０番地１４,,14,110,2450051,,,2025-08-22,清算の結了等,,,2015-10-05,1,,,,,タナカビジネスパートナー,0
85,1021001053026,登記記録の閉鎖等,0,2025-09-09,2025-08-25,株式会社バボナターレ,,株式会社,東京都,豊島区,池袋２丁目５０番９号４Ｆ,,13,116,1710014,,,2025-08-25,清算の結了等,,,2015-10-05,1,,,,,,0
90,1021002061267,登記記録の閉鎖等,0,2025-09-09,2025-09-02,有限会社昌平堂薬局,,有限会社,神奈川県,平塚市,袖ケ浜１４番１６号,,14,203,2540813,,,2025-09-02,清算の結了等,,,2015-10-05,1,,,,,ショウヘイドウヤッキョク,0
91,1021002071365,登記記録の閉鎖等,0,2025-09-09,2025-08-06,有限会社オフィスビー,,有限会社,神奈川県,三浦市,岬陽町１１番４号,,14,210,2380222,,,2025-08-06,清算の結了等,,,2015-10-05,1,,,,,オフィスビー,0
111,1040003024470,登記記録の閉鎖等,0,2025-09-09,2025-08-18,ＴＹ合同会社,,合同会社,千葉県,千葉市美浜区,稲毛海岸４丁目９番１号東映マンションＡ棟１００８号,,12,106,2610005,,,2025-08-18,清算の結了等,,,2024-03-05,1,,,,,ティーワイ,0
117,1060002012342,登記記録の閉鎖等,0,2025-09-09,2025-09-03,有限会社鶴見設備工業,,有限会社,栃木県,塩谷郡高根沢町,大字伏久１２１番地,,09,386,3291203,,,2025-09-03,清算の結了等,,,2015-10-05,1,,,,,ツルミセツビコウギョウ,0
143,1100002008864,登記記録の閉鎖等,0,2025-09-09,2025-09-03,有限会社丸越,,有限会社,長野県,須坂市,大字須坂３１３番地,,20,207,3820000,,,2025-09-03,清算の結了等,,,2015-10-05,1,,,,,マルコシ,0
146,1100002013848,登記記録の閉鎖等,0,2025-09-09,2025-09-03,有限会社久保田薬局,,有限会社,長野県,上田市,天神１丁目８番１号,,20,203,3860025,,,2025-09-03,清算の結了等,,,2015-10-05,1,,,,,クボタヤッキョク,0
148,1110002003237,登記記録の閉鎖等,0,2025-09-09,2025-08-27,有限会社松月堂,,有限会社,新潟県,新潟市西区,内野町１１６３番地,,15,107,9502112,,,2025-08-27,清算の結了等,,,2015-10-05,1,,,,,ショウゲツドウ,0
149,1110002015397,登記記録の閉鎖等,0,2025-09-09,2025-08-26,有限会社長谷川輪業,,有限会社,新潟県,北蒲原郡聖籠町,大字蓮野３０１４番地,00070802,15,307,9570124,,,2025-08-26,清算の結了等,,,2015-10-05,1,,,,,ハセガワリンギョウ,0
181,1130002026277,登記記録の閉鎖等,0,2025-09-09,2025-08-26,有限会社共栄電子製作所,,有限会社,京都府,久世郡久御山町,野村村東９６番地の１,,26,322,6130023,,,2025-08-26,清算の結了等,,,2015-10-05,1,,,,,キョウエイデンシセイサクショ,0
189,1180001004782,登記記録の閉鎖等,0,2025-09-09,2025-08-21,株式会社テンリュウ,,株式会社,東京都,千代田区,麹町２丁目５番地４第２押田ビル２階敬天総合法律事務所内,,13,101,1020083,,,2025-08-21,清算の結了等,,,2015-10-05,1,,,,,テンリュウ,0
194,1180003014870,登記記録の閉鎖等,0,2025-09-09,2025-08-07,合同会社ｅｓｔ,,合同会社,愛知県,名古屋市瑞穂区,直来町４丁目１２－１,,23,108,4670865,,,2025-08-07,清算の結了等,,,2015-10-05,1,,,,,エスト,0
210,1240001007382,登記記録の閉鎖等,0,2025-09-09,2025-09-01,株式会社トータテ都市開発,,株式会社,広島県,広島市中区,国泰寺町２丁目４番７号,,34,101,7300042,,,2025-09-01,合併による解散等,5240001007536,令和７年９月１日広島市中区千田町二丁目５番４４号株式会社トータテハウジング（5240001007536）に合併し解散,2015-10-05,1,,,,,トータテトシカイハツ,0
223,1290001103160,登記記録の閉鎖等,0,2025-09-09,2025-08-14,株式会社叶鑑,,株式会社,福岡県,福岡市東区,多の津５丁目１－８－２０８,,40,131,8130034,,,2025-08-14,清算の結了等,,,2023-09-28,1,,,,,カナカン,0
233,1290805000842,登記記録の閉鎖等,0,2025-09-09,2025-09-01,電九協北九州電設協同組合,,その他の設立登記法人,福岡県,北九州市小倉北区,篠崎２丁目２３番２１号,,40,106,8030861,,,2025-09-01,清算の結了等,,,2015-10-05,1,,,,,デンキュウキョウキタキュウシュウデンセツ,0
238,1310001012961,登記記録の閉鎖等,0,2025-09-09,2025-09-05,株式会社　ささえ,,株式会社,長崎県,大村市,宮小路３丁目１９７１番地３,,42,205,8560807,,,2025-09-05,清算の結了等,,,2015-10-05,1,,,,,ササエ,0
247,1350002013682,登記記録の閉鎖等,0,2025-09-09,2025-09-02,有限会社アイ・ディ・ライン,,有限会社,宮崎県,都城市,都北町５０２３番地１,,45,202,8850004,,,2025-09-02,清算の結了等,,,2015-10-05,1,,,,,アイディライン,0
248,1360001015902,登記記録の閉鎖等,0,2025-09-09,2025-09-02,株式会社Ｄ．Ｄ,,株式会社,沖縄県,沖縄市,南桃原１丁目４番２号２Ｆ,,47,211,9040035,,,2025-09-02,清算の結了等,,,2015-10-05,1,,,,,ディーディー,0
275,1700150064673,登記記録の閉鎖等,0,2025-09-09,2023-04-01,平川郷管理組合,,その他,鹿児島県,薩摩郡さつま町,平川７４１２－１,,46,392,8951807,,,2023-04-01,その他の清算の結了等,,,2015-10-09,1,,,,,ヒラカワノサトカンリクミアイ,0
276,1700150105816,登記記録の閉鎖等,0,2025-09-09,2025-05-31,歌友会,,その他,東京都,江東区,大島８丁目３番８号,,13,108,1360072,,,2025-05-31,その他の清算の結了等,,,2021-11-16,1,,,,,カユウカイ,0
277,1700150123479,登記記録の閉鎖等,0,2025-09-09,2025-03-31,カルコスビルマンション敷地売却組合,,その他,宮城県,仙台市青葉区,二日町１３番２２号,,04,101,9800802,,,2025-03-31,その他の清算の結了等,,,2024-01-22,1,,,,,カルコスビルマンシヨンシキチバイキヤククミアイ,0
285,2010001171317,登記記録の閉鎖等,0,2025-09-09,2025-08-28,ノーバジェット・コミュニケーションズ株式会社,,株式会社,東京都,千代田区,神田須田町２丁目２５番地１６,,13,101,1010041,,,2025-08-28,清算の結了等,,,2015-10-28,1,,,,,ノーバジェットコミュニケーションズ,0
288,2010001232696,登記記録の閉鎖等,0,2025-09-09,2025-09-03,顔が見える農産物生産流通推進協議会株式会社,,株式会社,東京都,江東区,富岡１丁目１２番８号,,13,108,1350047,,,2025-09-03,清算の結了等,,,2023-02-07,1,,,,,カオガミエルノウサンブツセイサンリュウツウスイシンキョウギカイ,0
301,2010005029817,登記記録の閉鎖等,0,2025-09-09,2025-08-21,一般社団法人コアラボラトリー協会,,その他の設立登記法人,東京都,中央区,八丁堀３丁目７番７号原田ビル１階,,13,102,1040032,,,2025-08-21,清算の結了等,,,2019-03-06,1,,,,,コアラボラトリーキョウカイ,0
354,2011502015318,登記記録の閉鎖等,0,2025-09-09,2025-09-04,有限会社亮和内装,,有限会社,東京都,荒川区,東尾久５丁目２３番５号,,13,118,1160012,,,2025-09-04,清算の結了等,,,2015-10-05,1,,,,,リョウワナイソウ,0
357,2011602004798,登記記録の閉鎖等,0,2025-09-09,2025-09-01,株式会社信成,,株式会社,埼玉県,朝霞市,幸町２丁目３番３０号,,11,227,3510015,,,2025-09-01,清算の結了等,,,2015-10-05,1,,,,,シンセイ,0
361,2011703001843,登記記録の閉鎖等,0,2025-09-09,2025-09-01,合同会社ＵＳＰ,,合同会社,東京都,江戸川区,中葛西２丁目４番４７号,,13,123,1340083,,,2025-09-01,合併による解散等,5011703001576,令和７年９月１日東京都江戸川区中葛西二丁目４番４７号エヌ・エム・マネージメント合同会社（5011703001576）に合併し解散,2017-09-11,1,,,,,ユーエスピー,0
362,2011801008856,登記記録の閉鎖等,0,2025-09-09,2025-09-02,株式会社菅田設備工業所,,株式会社,東京都,足立区,柳原２丁目３１番９号,,13,121,1200022,,,2025-09-02,清算の結了等,,,2015-10-05,1,,,,,スガタセツビコウギョウショ,0
366,2011802016115,登記記録の閉鎖等,0,2025-09-09,2025-08-14,有限会社東京食養研究所,,有限会社,東京都,文京区,千駄木３丁目２８番９－２０２号,,13,105,1130022,,,2025-08-14,清算の結了等,,,2015-10-05,1,,,,,トウキョウショクヨウケンキュウショ,0
367,2011803003161,登記記録の閉鎖等,0,2025-09-09,2025-09-03,合同会社ｃｈｏｃｏｔｔｏ,,合同会社,東京都,葛飾区,東金町２丁目３０番１０号サンルーフ東金町１階,,13,122,1250041,,,2025-09-03,清算の結了等,,,2018-01-15,1,,,,,チョコット,0
385,2013303007080,登記記録の閉鎖等,0,2025-09-09,2025-08-29,合同会社ＵＮＩＯＮ,,合同会社,東京都,豊島区,東池袋１丁目３３番４号ニュー池袋ハイツ６０２,,13,116,1700013,,,2025-08-29,清算の結了等,,,2024-04-08,1,,,,,ユニオン,0
423,2050001020676,登記記録の閉鎖等,0,2025-09-09,2025-09-01,株式会社総合イノベート,,株式会社,茨城県,神栖市,知手中央９丁目１１番１９号,,08,232,3140112,,,2025-09-01,清算の結了等,,,2015-10-05,1,,,,,,0
424,2050001020734,登記記録の閉鎖等,0,2025-09-09,2025-09-01,日通鹿島輸送株式会社,,株式会社,茨城県,神栖市,東深芝２８番地５,,08,232,3140103,,,2025-09-01,清算の結了等,,,2015-10-05,1,,,,,ニッツウカシマユソウ,0
435,2070002010039,登記記録の閉鎖等,0,2025-09-09,2025-09-03,有限会社斎藤モールド,,有限会社,群馬県,高崎市,下滝町４３３番地,,10,202,3700026,,,2025-09-03,清算の結了等,,,2015-10-05,1,,,,,サイトウモールド,0
437,2080002017504,登記記録の閉鎖等,0,2025-09-09,2025-09-03,有限会社小本自動車商会,,有限会社,静岡県,藤枝市,下藪田８８番地,,22,214,4260201,,,2025-09-03,清算の結了等,,,2015-10-05,1,,,,,コモトジドウシャショウカイ,0
448,2100002031907,登記記録の閉鎖等,0,2025-09-09,2025-09-04,有限会社みすおモータース,,有限会社,長野県,岡谷市,７５番地１,,20,204,3940091,,,2025-09-04,清算の結了等,,,2015-10-05,1,,,,,ミスオモータース,0
459,2120001204156,登記記録の閉鎖等,0,2025-09-09,2025-08-29,創新株式会社,,株式会社,大阪府,大阪市住吉区,我孫子東２丁目９－７サンアビコ東マンション１０１,,27,120,5580013,,,2025-08-29,清算の結了等,,,2017-03-06,1,,,,,ソウシン,0
479,2120002073220,登記記録の閉鎖等,0,2025-09-09,2025-09-01,有限会社容香,,有限会社,大阪府,枚方市,星丘２丁目２番５５号,,27,210,5730013,,,2025-09-01,清算の結了等,,,2015-10-05,1,,,,,ヨウコウ,0
501,2140001100163,登記記録の閉鎖等,0,2025-09-09,2025-09-03,株式会社マルデン,,株式会社,兵庫県,神戸市長田区,駒ケ林町３丁目１６番５号,,28,106,6530043,,,2025-09-03,清算の結了等,,,2015-11-27,1,,,,,マルデン,0
503,2140001130284,登記記録の閉鎖等,0,2025-09-09,2025-09-03,株式会社ｓｔｙｌｅ８２,,株式会社,兵庫県,神戸市中央区,琴ノ緒町４丁目５－７商工印刷ビル２階,,28,110,6510094,,,2025-09-03,清算の結了等,,,2023-05-24,1,,,,,スタイルハチニー,0
512,2160002007331,登記記録の閉鎖等,0,2025-09-09,2025-09-04,有限会社橋本屋,,有限会社,滋賀県,長浜市,木之本町木之本１０８７番地,,25,203,5290425,,,2025-09-04,清算の結了等,,,2015-10-05,1,,,,,ハシモトヤ,0
527,2210001017342,登記記録の閉鎖等,0,2025-09-09,2025-09-02,株式会社セイリオスマイル,,株式会社,福井県,越前市,府中１丁目６番１０号岩端ビル,,18,209,9150071,,,2025-09-02,清算の結了等,,,2018-11-14,1,,,,,セイリオスマイル,0
533,2240001053822,登記記録の閉鎖等,0,2025-09-09,2025-09-03,株式会社彩クラフト,,株式会社,広島県,東広島市,西条昭和町１５番１０号,,34,212,7390014,,,2025-09-03,清算の結了等,,,2019-01-21,1,,,,,イロドリクラフト,0
535,2240003005945,登記記録の閉鎖等,0,2025-09-09,2025-09-03,ＹＥＬＬＯＴＲＥＥ合同会社,,合同会社,広島県,東広島市,西条町寺家５６３７番地８カシータＳＴ・Ｆ棟,,34,212,7390041,,,2025-09-03,清算の結了等,,,2022-12-27,1,,,,,イエローツリー,0
549,2290802001660,登記記録の閉鎖等,0,2025-09-09,2025-09-05,有限会社九州木機,,有限会社,福岡県,北九州市小倉南区,横代東町１丁目５番６号,,40,107,8020822,,,2025-09-05,清算の結了等,,,2015-10-05,1,,,,,キュウシュウモッキ,0
559,2350005001741,登記記録の閉鎖等,0,2025-09-09,2025-09-03,医療法人裕仁会,,その他の設立登記法人,宮崎県,宮崎市,大字田吉８２０番地１,,45,201,8800911,,,2025-09-03,清算の結了等,,,2015-10-05,1,,,,,ユウジンカイ,0
576,2410001010665,登記記録の閉鎖等,0,2025-09-09,2025-09-05,ほくと酸素株式会社,,株式会社,秋田県,秋田市,下新城中野字琵琶沼２００番地２５,,05,201,0100146,,,2025-09-05,清算の結了等,,,2015-10-05,1,,,,,ホクトサンソ,0
580,2430002053216,登記記録の閉鎖等,0,2025-09-09,2025-08-25,有限会社森電気商会,,有限会社,北海道,芦別市,北三条西１丁目８番地６,,01,216,0750003,,,2025-08-25,清算の結了等,,,2015-10-05,1,,,,,モリデンキショウカイ,0
587,2490001009411,登記記録の閉鎖等,0,2025-09-09,2025-09-04,シミズ・アグリプラス株式会社,,株式会社,高知県,香南市,野市町大谷２６番地,,39,211,7815233,,,2025-09-04,清算の結了等,,,2019-11-12,1,,,,,シミズアグリプラス,0
591,2700150051010,登記記録の閉鎖等,0,2025-09-09,2025-03-31,村椿振興会生地駅業務,,その他,富山県,黒部市,吉田４２６０－２,,16,207,9380005,,,2025-03-31,その他の清算の結了等,,,2015-10-09,1,,,,,ムラツバキシンコウカイイクヂエキギヨウム,0
592,2700150102688,登記記録の閉鎖等,0,2025-09-09,2023-03-10,島根県建築住宅施策推進協議会,,その他,島根県,松江市,東本町２丁目６０番地,,32,201,6900842,,,2023-03-10,その他の清算の結了等,,,2021-04-07,1,,,,,シマネケンケンチクジユウタクセサクスイシンキヨウギカイ,0
594,3010001061673,登記記録の閉鎖等,0,2025-09-09,2025-08-18,東京明三株式会社,,株式会社,千葉県,市川市,原木３丁目１６番３号３０４室,,12,203,2720004,,,2025-08-18,清算の結了等,,,2015-10-05,1,,,,,トウキョウメイサン,0
602,3010001168353,登記記録の閉鎖等,0,2025-09-09,2025-09-01,ミツミメタル株式会社,,株式会社,東京都,千代田区,六番町１３番地１,,13,101,1020085,,,2025-09-01,合併による解散等,7010001195303,令和７年９月１日東京都千代田区六番町１３番地１ミツミ九州株式会社（7010001195303）に合併し解散,2015-10-05,1,,,,,ミツミメタル,0
643,3010802008889,登記記録の閉鎖等,0,2025-09-09,2025-09-02,有限会社高正精機,,有限会社,東京都,大田区,本羽田１丁目３番１５号,,13,111,1440044,,,2025-09-02,清算の結了等,,,2015-10-05,1,,,,,タカマサセイキ,0
647,3011001016584,登記記録の閉鎖等,0,2025-09-09,2025-08-01,株式会社東急百貨店,,株式会社,東京都,渋谷区,道玄坂２丁目２４番１号,,13,113,1500043,,,2025-08-01,合併による解散等,7011001016291,令和７年８月１日東京都渋谷区南平台町５番６号東急株式会社（7011001016291）に合併し解散,2015-10-05,1,,,,,トウキュウヒャッカテン,0
670,3011401001038,登記記録の閉鎖等,0,2025-09-09,2025-09-02,恵美電気工業株式会社,,株式会社,東京都,板橋区,南常盤台１丁目７番２号,,13,119,1740072,,,2025-09-02,清算の結了等,,,2015-10-05,1,,,,,エミデンキコウギョウ,0
676,3011802014489,登記記録の閉鎖等,0,2025-09-09,2025-09-02,有限会社鈴乃家,,有限会社,東京都,足立区,鹿浜５丁目２１番１６号,,13,121,1230864,,,2025-09-02,清算の結了等,,,2015-10-05,1,,,,,スズノヤ,0
677,3011803005405,登記記録の閉鎖等,0,2025-09-09,2025-09-02,ＨＨＪｏｂｓ合同会社,,合同会社,東京都,葛飾区,高砂５丁目６番１５号,,13,122,1250054,,,2025-09-02,清算の結了等,,,2022-12-01,1,,,,,エイチエイチジョブス,0
679,3012401011068,登記記録の閉鎖等,0,2025-09-09,2025-09-04,株式会社クオート,,株式会社,東京都,武蔵野市,吉祥寺南町２丁目２０番１３号,,13,203,1800003,,,2025-09-04,清算の結了等,,,2015-10-05,1,,,,,クオート,0
680,3012401017610,登記記録の閉鎖等,0,2025-09-09,2025-09-03,株式会社実装パートナーズ,,株式会社,東京都,小金井市,貫井南町４丁目５番５号,,13,210,1840014,,,2025-09-03,清算の結了等,,,2015-10-05,1,,,,,ジッソウパートナーズ,0
699,3020001156563,登記記録の閉鎖等,0,2025-09-09,2025-08-22,株式会社結和,,株式会社,神奈川県,横浜市泉区,下和泉１丁目１４番１９号,,14,116,2450021,,,2025-08-22,清算の結了等,,,2024-04-08,1,,,,,ユウワ,0
701,3020002087675,登記記録の閉鎖等,0,2025-09-09,2025-08-22,有限会社ワイエスデイ,,有限会社,神奈川県,川崎市宮前区,有馬９丁目８番１９号,,14,136,2160003,,,2025-08-22,清算の結了等,,,2015-10-05,1,,,,,ワイエスデイ,0
704,3021001024693,登記記録の閉鎖等,0,2025-09-09,2025-09-04,株式会社シーダース,,株式会社,神奈川県,厚木市,岡田３０５０番地,,14,212,2430021,,,2025-09-04,清算の結了等,,,2015-10-05,1,,,,,シーダース,0
705,3021001037803,登記記録の閉鎖等,0,2025-09-09,2025-09-01,株式会社みやびきもの,,株式会社,神奈川県,中郡二宮町,一色１３１３番地の１７,,14,342,2590134,,,2025-09-01,清算の結了等,,,2015-10-05,1,,,,,ミヤビキモノ,0
710,3021002041556,登記記録の閉鎖等,0,2025-09-09,2025-09-03,有限会社高橋設計測量事務所,,有限会社,神奈川県,大和市,林間２丁目６番３９号１０１,,14,213,2420003,,,2025-09-03,清算の結了等,,,2015-10-05,1,,,,,タカハシセッケイソクリョウジムショ,0
726,3030003021814,登記記録の閉鎖等,0,2025-09-09,2025-09-01,合同会社よんりんしゃ,,合同会社,埼玉県,桶川市,北１丁目２０番２号,,11,231,3630011,,,2025-09-01,清算の結了等,,,2023-05-26,1,,,,,ヨンリンシャ,0
760,3100001035461,登記記録の閉鎖等,0,2025-09-09,2025-09-05,株式会社佑建,,株式会社,長野県,上水内郡飯綱町,大字倉井２０７２番地１,,20,590,3891204,,,2025-09-05,清算の結了等,,,2022-06-21,1,,,,,ユウケン,0
765,3110001033464,登記記録の閉鎖等,0,2025-09-09,2025-08-27,日本リーガル株式会社,,株式会社,新潟県,新潟市中央区,東大通１丁目１番１５号,,15,103,9500087,,,2025-08-27,清算の結了等,,,2018-08-22,1,,,,,ニホンリーガル,0
767,3120001011155,登記記録の閉鎖等,0,2025-09-09,2025-09-01,三鷹建設株式会社,,株式会社,大阪府,大阪市東住吉区,鷹合２丁目８番１２号,,27,121,5460014,,,2025-09-01,清算の結了等,,,2015-10-05,1,,,,,ミタカケンセツ,0
769,3120001120996,登記記録の閉鎖等,0,2025-09-09,2025-09-02,株式会社樟永通信,,株式会社,大阪府,大阪市都島区,都島中通３丁目１７番３号,,27,102,5340022,,,2025-09-02,合併による解散等,8120001185804,令和７年９月１日大阪市都島区都島中通三丁目１７番３号株式会社ｐｒｏｃｃ（8120001185804）に合併し解散,2015-10-05,1,,,,,ショウエイツウシン,0
800,3130001071537,登記記録の閉鎖等,0,2025-09-09,2025-08-20,株式会社Ｖｅｌａ　Ｆｌａｍａｎｔｅ,,株式会社,京都府,京都市下京区,烏丸通七条下る東塩小路町７３５－１京阪京都ビル８階,,26,106,6008216,,,2025-08-20,清算の結了等,,,2022-04-13,1,,,,,ヴェラフラマンテ,0
813,3140002013297,登記記録の閉鎖等,0,2025-09-09,2025-09-01,有限会社岡ベーカリー,,有限会社,兵庫県,神戸市中央区,二宮町４丁目４番３号,,28,110,6510093,,,2025-09-01,清算の結了等,,,2015-10-05,1,,,,,オカベーカリー,0
819,3170001005318,登記記録の閉鎖等,0,2025-09-09,2025-09-01,株式会社薬誠堂,,株式会社,和歌山県,和歌山市,新庄３９８番地の１,,30,201,6496264,,,2025-09-01,清算の結了等,,,2015-10-05,1,,,,,ヤクセイドウ,0
825,3170005000422,登記記録の閉鎖等,0,2025-09-09,2025-09-05,寂光院,,その他の設立登記法人,和歌山県,和歌山市,松江中１丁目１４番４６号,,30,201,6408423,,,2025-09-05,清算の結了等,,,2015-10-05,1,,,,,ジャッコウイン,0
840,3210001018991,登記記録の閉鎖等,0,2025-09-09,2025-09-05,株式会社Ｓｈｏｐｐｉｎｇ　ＧＯ,,株式会社,福井県,敦賀市,呉竹町２丁目３番１１号,,18,202,9140802,,,2025-09-05,清算の結了等,,,2022-07-07,1,,,,,ショッピングゴー,0
855,3260001028433,登記記録の閉鎖等,0,2025-09-09,2025-07-31,株式会社桃太郎,,株式会社,岡山県,津山市,総社６０８番地２,,33,203,7080007,,,2025-07-31,合併による解散等,8260001029220,令和７年７月３１日岡山県津山市林田１７７番地６株式会社ａｎｄ　ｍｏｍｏ（8260001029220）に合併し解散,2015-10-05,1,,,,,モモタロウ,0
860,3290002055473,登記記録の閉鎖等,0,2025-09-09,2025-08-13,有限会社大伸商事,,有限会社,福岡県,大牟田市,有明町２丁目２番地１７,,40,202,8360842,,,2025-08-13,清算の結了等,,,2015-10-05,1,,,,,ダイシンショウジ,0
862,3290005016687,登記記録の閉鎖等,0,2025-09-09,2025-08-22,エメラルドタウン和白団地管理組合法人,,その他の設立登記法人,福岡県,福岡市東区,和白東１丁目２０番１０号,,40,131,8110214,,,2025-08-22,清算の結了等,,,2017-12-07,1,,,,,エメラルドタウンワジロダンチ,0
863,3290801007170,登記記録の閉鎖等,0,2025-09-09,2025-09-01,株式会社ＳＰジャパン,,株式会社,東京都,三鷹市,下連雀３丁目４３－２１－１１０１,,13,204,1810013,,,2025-09-01,清算の結了等,,,2015-10-05,1,,,,,エスピージャパン,0
870,3310001014436,登記記録の閉鎖等,0,2025-09-09,2025-09-04,株式会社エコー,,株式会社,長崎県,諫早市,幸町６８番１０号,,42,204,8540022,,,2025-09-04,清算の結了等,,,2016-09-06,1,,,,,エコー,0
872,3310003003503,登記記録の閉鎖等,0,2025-09-09,2025-09-04,合同会社ＨＩＴ,,合同会社,長崎県,対馬市,美津島町濃部１６２番地,,42,209,8171104,,,2025-09-04,清算の結了等,,,2018-06-20,1,,,,,エイチアイティー,0
880,3330002007593,登記記録の閉鎖等,0,2025-09-09,2025-08-29,有限会社永野電設,,有限会社,熊本県,熊本市中央区,八王寺町１６番４８号,,43,101,8600831,,,2025-08-29,清算の結了等,,,2015-10-05,1,,,,,ナガノデンセツ,0
882,3340001007313,登記記録の閉鎖等,0,2025-09-09,2025-09-01,南陽電子株式会社,,株式会社,鹿児島県,霧島市,隼人町内９４１番地,,46,218,8995116,,,2025-09-01,清算の結了等,,,2015-10-05,1,,,,,ナンヨウデンシ,0
888,3370001004332,登記記録の閉鎖等,0,2025-09-09,2025-08-18,東北魚類販売株式会社,,株式会社,宮城県,仙台市若林区,卸町東５丁目２番１８号,,04,103,9840002,,,2025-08-18,清算の結了等,,,2015-10-05,1,,,,,トウホクギョルイハンバイ,0
890,3380001014066,登記記録の閉鎖等,0,2025-09-09,2025-08-29,株式会社ユーサイドシステム,,株式会社,福島県,いわき市,鹿島町下矢田字宿畑１２番地,,07,204,9718132,,,2025-08-29,清算の結了等,,,2015-10-05,1,,,,,ユーサイドシステム,0
893,3390001004883,登記記録の閉鎖等,0,2025-09-09,2025-09-01,株式会社旅館三恵,,株式会社,山形県,上山市,葉山４番２１号,,06,207,9993242,,,2025-09-01,清算の結了等,,,2015-10-05,1,,,,,リョカンミツエ,0
897,3430003011386,登記記録の閉鎖等,0,2025-09-09,2025-08-25,合同会社ＬＳフューチャー,,合同会社,北海道,札幌市白石区,南郷通１丁目北９番１－４０５号,,01,104,0030023,,,2025-08-25,清算の結了等,,,2020-03-23,1,,,,,エルエスフューチャー,0
900,3440002005322,登記記録の閉鎖等,0,2025-09-09,2025-09-04,有限会社レックフジ電器,,有限会社,北海道,函館市,戸倉町２６番３号,,01,202,0420953,,,2025-09-04,清算の結了等,,,2015-10-05,1,,,,,レックフジデンキ,0
906,3700150121654,登記記録の閉鎖等,0,2025-09-09,2025-03-31,ミズベリング旭川,,その他,北海道,上川郡東神楽町,南一条東１丁目３－１２,,01,453,0711502,,,2025-03-31,その他の清算の結了等,,,2023-11-01,1,,,,,ミズベリングアサヒカワ,0
938,4010801028292,登記記録の閉鎖等,0,2025-09-09,2025-09-08,ヨシダフーズインターナショナルジャパン株式会社,,株式会社,東京都,品川区,南品川２丁目２番１０号南品川Ｎビル７階,,13,109,1400004,,,2025-09-08,合併による解散等,8140001044611,令和７年８月３１日兵庫県加古郡稲美町蛸草３２３番地の１日の出ホールディングス株式会社（8140001044611）に合併し解散,2017-11-07,1,,,,,ヨシダフーズインターナショナルジャパン,0
939,4010802008624,登記記録の閉鎖等,0,2025-09-09,2025-09-02,有限会社武井製作所,,有限会社,東京都,大田区,本羽田２丁目９番２号,,13,111,1440044,,,2025-09-02,清算の結了等,,,2015-10-05,1,,,,,タケイセイサクショ,0
958,4011103012464,登記記録の閉鎖等,0,2025-09-09,2025-08-08,合同会社ｗｏｌｆ　ｗａｌｋ,,合同会社,東京都,新宿区,大久保１丁目８番２１－１０１号,,13,104,1690072,,,2025-08-08,清算の結了等,,,2022-12-06,1,,,,,ウルフウォーク,0
960,4011202002457,登記記録の閉鎖等,0,2025-09-09,2025-09-01,有限会社堺屋吉田商店,00054269,有限会社,東京都,中野区,本町１丁目３２番５号,,13,114,1640012,,,2025-09-01,清算の結了等,,,2015-10-05,1,,,,,サカイヤヨシダショウテン,0
966,4011501001928,登記記録の閉鎖等,0,2025-09-09,2025-09-03,株式会社サンライト,,株式会社,東京都,北区,田端２丁目６番２３－５０１号,,13,117,1140014,,,2025-09-03,清算の結了等,,,2015-10-05,1,,,,,サンライト,0
969,4011701010043,登記記録の閉鎖等,0,2025-09-09,2025-09-04,株式会社アクシスエンジニアリング,,株式会社,東京都,中央区,新川１丁目６番１号,,13,102,1040033,,,2025-09-04,合併による解散等,1270001002166,令和７年９月１日鳥取市扇町７番地鳥取フコク生命駅前ビル７階アクシスＩＴパートナーズ株式会社（1270001002166）に合併し解散,2015-10-05,1,,,,,アクシスエンジニアリング,0
980,4013301040676,登記記録の閉鎖等,0,2025-09-09,2025-08-29,株式会社ＦＯＳ　Ｉｎｖｅｓｔｉｎｇ,,株式会社,東京都,豊島区,南池袋２丁目１２番５号,,13,116,1710022,,,2025-08-29,清算の結了等,,,2017-06-15,1,,,,,フォスインベスティング,0
983,4013303004398,登記記録の閉鎖等,0,2025-09-09,2025-08-29,観光資源開発合同会社,,合同会社,東京都,豊島区,南大塚２丁目１１－１０ミモザビル３階,,13,116,1700005,,,2025-08-29,清算の結了等,,,2018-11-21,1,,,,,カンコウシゲンカイハツ,0
999,4030001007426,登記記録の閉鎖等,0,2025-09-09,2025-09-01,株式会社フジコン,,株式会社,埼玉県,さいたま市見沼区,染谷１丁目４７番地,,11,104,3370026,,,2025-09-01,清算の結了等,,,2015-10-05,1,,,,,フジコン,0
1030,4050001046422,登記記録の閉鎖等,0,2025-09-09,2025-09-04,株式会社泰洋,,株式会社,東京都,八王子市,西寺方町４４５番地１エニーハイツ２０２,,13,201,1920153,,,2025-09-04,清算の結了等,,,2019-08-20,1,,,,,タイヨウ,0
1071,4120002038824,登記記録の閉鎖等,0,2025-09-09,2025-09-01,ミティ商事有限会社,,有限会社,大阪府,大阪市中央区,東心斎橋１丁目３番１８号,,27,128,5420083,,,2025-09-01,清算の結了等,,,2015-10-05,1,,,,,ミティショウジ,0
1093,4130002033725,登記記録の閉鎖等,0,2025-09-09,2025-08-28,有限会社堀鉄工所,,有限会社,京都府,京丹後市,大宮町口大野５８８番地,,26,212,6292501,,,2025-08-28,清算の結了等,,,2015-10-05,1,,,,,ホリテッコウショ,0
1100,4140003009632,登記記録の閉鎖等,0,2025-09-09,2025-09-03,合同会社あゆむ,,合同会社,兵庫県,神戸市中央区,北長狭通４丁目７番２８－６０１号,,28,110,6500012,,,2025-09-03,清算の結了等,,,2015-10-05,1,,,,,アユム,0
1109,4180001067694,登記記録の閉鎖等,0,2025-09-09,2025-08-21,株式会社出口,,株式会社,愛知県,日進市,赤池町箕ノ手２番地１９８４,,23,230,4700126,,,2025-08-21,清算の結了等,,,2015-10-05,1,,,,,デグチ,0
1121,4200001002327,登記記録の閉鎖等,0,2025-09-09,2025-09-04,株式会社サンワ,,株式会社,岐阜県,岐阜市,熊野町３番地２,,21,201,5008372,,,2025-09-04,清算の結了等,,,2015-10-05,1,,,,,サンワ,0
1122,4200003005162,登記記録の閉鎖等,0,2025-09-09,2025-09-01,合同会社ピュアライト,,合同会社,岐阜県,瑞穂市,重里１９９６番地,,21,216,5010311,,,2025-09-01,清算の結了等,,,2021-04-05,1,,,,,ピュアライト,0
1138,4280002001312,登記記録の閉鎖等,0,2025-09-09,2025-09-08,有限会社大伸電機,,有限会社,島根県,松江市,浜乃木７丁目５番２３号,,32,201,6900044,,,2025-09-08,清算の結了等,,,2015-10-05,1,,,,,ダイシンデンキ,0
1139,4280002009784,登記記録の閉鎖等,0,2025-09-09,2025-09-05,有限会社あすなろ建設,,有限会社,島根県,益田市,有明町４番６４号,,32,204,6980022,,,2025-09-05,清算の結了等,,,2015-10-05,1,,,,,アスナロケンセツ,0
1150,4330002019555,登記記録の閉鎖等,0,2025-09-09,2025-08-29,有限会社井芹総合開発,,有限会社,熊本県,上益城郡甲佐町,大字東寒野６３０番地,,43,444,8614608,,,2025-08-29,清算の結了等,,,2015-10-05,1,,,,,イセリソウゴウカイハツ,0
1155,4340002000415,登記記録の閉鎖等,0,2025-09-09,2025-08-27,有限会社松元調剤薬局,,有限会社,鹿児島県,鹿児島市,上谷口町２８６２番地,,46,201,8992703,,,2025-08-27,清算の結了等,,,2015-10-05,1,,,,,マツモトチョウザイヤッキョク,0
1162,4370802001072,登記記録の閉鎖等,0,2025-09-09,2025-08-26,有限会社ホテル小野,,有限会社,宮城県,岩沼市,阿武隈１丁目３番３３号,,04,211,9892435,,,2025-08-26,清算の結了等,,,2015-10-05,1,,,,,ホテルオノ,0
1167,4400602001748,登記記録の閉鎖等,0,2025-09-09,2025-08-29,有限会社リード保険事務所,,有限会社,岩手県,奥州市,水沢羽田町字芦ヶ沢１８番地,00112957,03,215,0230132,,,2025-08-29,清算の結了等,,,2015-10-05,1,,,,,リードホケンジムショ,0
1171,4450002011590,登記記録の閉鎖等,0,2025-09-09,2025-09-04,有限会社サロベツ夢楽,,有限会社,北海道,天塩郡豊富町,字上サロベツ１１８３番地２８,,01,516,0984100,,,2025-09-04,清算の結了等,,,2015-10-05,1,,,,,サロベツムラ,0
1172,4470002013643,登記記録の閉鎖等,0,2025-09-09,2025-09-03,有限会社鳥坂エム・エス・ティーゴルフ,,有限会社,香川県,善通寺市,吉原町２１０８番地,,37,204,7650061,,,2025-09-03,清算の結了等,,,2015-10-05,1,,,,,トッサカエムエスティゴルフ,0
1179,4500001016627,登記記録の閉鎖等,0,2025-09-09,2025-09-08,株式会社渡部自動車,,株式会社,愛媛県,東温市,松瀬川甲１１２８番地２,,38,215,7910314,,,2025-09-08,清算の結了等,,,2015-10-05,1,,,,,ワタナベジドウシャ,0
1180,4700150024947,登記記録の閉鎖等,0,2025-09-09,2024-06-01,神戸屋企業年金基金,,その他,大阪府,大阪市東淀川区,豊新２丁目１６番１４号,,27,114,5330014,,,2024-06-01,その他の清算の結了等,,,2015-10-09,1,,,,,コウベヤキギヨウネンキンキキン,0
1181,4700150034236,登記記録の閉鎖等,0,2025-09-09,2024-03-31,留萌市幌糠コミュニティセンター運営協議会,,その他,北海道,留萌市,大字留萌村字幌糠１８５４番地の７,,01,212,0783164,,,2024-03-31,その他の清算の結了等,,,2015-10-09,1,,,,,ルモイシホロヌカコミユニテイセンターウンエイキヨウギカイ,0
1182,4700150109161,登記記録の閉鎖等,0,2025-09-09,2023-03-31,たてやまラテンフェスティバル実行委員会,,その他,千葉県,館山市,見物１５－１,,12,205,2940305,,,2023-03-31,その他の清算の結了等,,,2022-06-01,1,,,,,タテヤマラテンフエステイバルジツコウイインカイ,0
1184,5010001048314,登記記録の閉鎖等,0,2025-09-09,2025-09-02,株式会社誠秀貿易,,株式会社,東京都,小金井市,前原町１丁目１１番２０号,,13,210,1840013,,,2025-09-02,清算の結了等,,,2015-10-05,1,,,,,セイシュウボウエキ,0
1191,5010001181305,登記記録の閉鎖等,0,2025-09-09,2025-08-29,株式会社ゼータプラス,,株式会社,東京都,中央区,日本橋大伝馬町１２番７号,,13,102,1030011,,,2025-08-29,清算の結了等,,,2017-02-08,1,,,,,ゼータプラス,0
1201,5010003042521,登記記録の閉鎖等,0,2025-09-09,2025-07-29,キラリズム合同会社,,合同会社,東京都,中央区,日本橋室町１丁目１１番１２号日本橋水野ビル７階,,13,102,1030022,,,2025-07-29,清算の結了等,,,2023-12-21,1,,,,,キラリズム,0
1208,5010005029517,登記記録の閉鎖等,0,2025-09-09,2025-08-15,社会保険労務士法人ＨＲ・Ｂｕｄｄｙ,,その他の設立登記法人,東京都,千代田区,神田佐久間町３丁目２１番５号ヒガシカンダビル３０７号,,13,101,1010025,,,2025-08-15,清算の結了等,,,2018-12-25,1,,,,,,0
1255,5011103012372,登記記録の閉鎖等,0,2025-09-09,2025-08-12,合同会社シー,,合同会社,東京都,新宿区,百人町１丁目１４番９号２０２,,13,104,1690073,,,2025-08-12,清算の結了等,,,2022-11-10,1,,,,,シー,0
1272,5012301010820,登記記録の閉鎖等,0,2025-09-09,2025-08-28,株式会社あまの屋,,株式会社,東京都,町田市,南町田５丁目１０番４１号ジェイパーク南町田２０８,,13,209,1940005,,,2025-08-28,清算の結了等,,,2017-01-06,1,,,,,アマノヤ,0
1274,5012702014156,登記記録の閉鎖等,0,2025-09-09,2025-08-08,有限会社田中ニュース,,有限会社,東京都,港区,南青山２丁目２番１５号,,13,103,1070062,,,2025-08-08,清算の結了等,,,2015-10-05,1,,,,,タナカニュース,0
1296,5020002032563,登記記録の閉鎖等,0,2025-09-09,2025-08-25,有限会社石井生花店,,有限会社,神奈川県,横浜市港北区,大豆戸町３９９番地,,14,109,2220032,,,2025-08-25,清算の結了等,,,2015-10-05,1,,,,,,0
1302,5021001024064,登記記録の閉鎖等,0,2025-09-09,2025-09-01,株式会社アース自動車,,株式会社,神奈川県,秦野市,平沢１６７番地の１,,14,211,2570015,,,2025-09-01,清算の結了等,,,2015-10-05,1,,,,,アースジドウシャ,0
1303,5021001030896,登記記録の閉鎖等,0,2025-09-09,2025-09-01,ＦＡＲ株式会社,,株式会社,神奈川県,相模原市南区,御園５丁目５番２６号,,14,153,2520317,,,2025-09-01,清算の結了等,,,2015-10-05,1,,,,,エフエイアール,0
1309,5030001027828,登記記録の閉鎖等,0,2025-09-09,2025-09-01,株式会社プロウッド,,株式会社,埼玉県,入間市,大字狭山ケ原１０８番地１４,,11,225,3580032,,,2025-09-01,清算の結了等,,,2015-10-05,1,,,,,プロウッド,0
1337,5060002020358,登記記録の閉鎖等,0,2025-09-09,2025-09-04,有限会社関口鉄工所,,有限会社,栃木県,鹿沼市,村井町１６０番地５,,09,205,3220048,,,2025-09-04,清算の結了等,,,2015-10-05,1,,,,,セキグチテッコウジョ,0
1339,5070003002420,登記記録の閉鎖等,0,2025-09-09,2025-09-03,合同会社日本ボーデン研究所,,合同会社,群馬県,高崎市,下滝町１１番地１滝川ハイツＡ１０７号,,10,202,3700026,,,2025-09-03,清算の結了等,,,2015-10-05,1,,,,,ニホンボーデンケンキュウジョ,0
1360,5120001145554,登記記録の閉鎖等,0,2025-09-09,2025-09-02,エムコス株式会社,,株式会社,大阪府,大阪市城東区,関目１丁目２２番２８号,,27,118,5360008,,,2025-09-02,清算の結了等,,,2015-10-05,1,,,,,エムコス,0
1362,5120001187638,登記記録の閉鎖等,0,2025-09-09,2025-08-29,株式会社八王子開発,,株式会社,大阪府,大阪市中央区,島之内１丁目２２番２０号,,27,128,5420082,,,2025-08-29,清算の結了等,,,2015-10-05,1,,,,,ハチオウジカイハツ,0
1372,5120002008677,登記記録の閉鎖等,0,2025-09-09,2025-09-02,有限会社船倉鉄工,,有限会社,大阪府,大阪市城東区,鴫野西３丁目３番２４号,,27,118,5360014,,,2025-09-02,清算の結了等,,,2015-10-05,1,,,,,フナクラテッコウ,0
1391,5130002001680,登記記録の閉鎖等,0,2025-09-09,2025-09-01,有限会社森本塗装,,有限会社,京都府,京都市右京区,谷口梅津間町７番地の１２,,26,108,6168014,,,2025-09-01,清算の結了等,,,2015-10-05,1,,,,,モリモトトソウ,0
1394,5140001114730,登記記録の閉鎖等,0,2025-09-09,2025-08-25,株式会社カラーリーフ,,株式会社,兵庫県,伊丹市,西野６丁目３３－１,,28,207,6640028,,,2025-08-25,清算の結了等,,,2019-09-02,1,,,,,カラーリーフ,0
1396,5140002020746,登記記録の閉鎖等,0,2025-09-09,2025-09-05,株式会社パル,,株式会社,兵庫県,神戸市灘区,新在家南町１丁目２番２号サザンモールセカンドストリート２Ｆ,,28,102,6570864,,,2025-09-05,合併による解散等,7120901028880,令和７年９月１日大阪市北区本庄東二丁目２番３０号株式会社エコスモ（7120901028880）に合併し解散,2015-10-05,1,,,,,パル,0
1398,5160001007412,登記記録の閉鎖等,0,2025-09-09,2025-09-04,株式会社エムイーテクノ,,株式会社,滋賀県,長浜市,相撲町１３３０番地の１４,,25,203,5260017,,,2025-09-04,清算の結了等,,,2015-10-05,1,,,,,エムイーテクノ,0
1403,5180001064162,登記記録の閉鎖等,0,2025-09-09,2025-08-29,株式会社ふくけんコンサルタント,,株式会社,愛知県,名古屋市千種区,北千種２丁目１番４号新萱場荘６０３,,23,101,4640083,,,2025-08-29,清算の結了等,,,2015-10-05,1,,,,,フクケンコンサルタント,0
1405,5180001090480,登記記録の閉鎖等,0,2025-09-09,2025-08-29,日本訪問鍼灸推進協会株式会社,,株式会社,愛知県,丹羽郡扶桑町,大字柏森字中島４０１番地,,23,362,4800103,,,2025-08-29,清算の結了等,,,2015-10-05,1,,,,,ニホンホウモンシンキュウスイシンキョウカイ,0
1413,5200001002887,登記記録の閉鎖等,0,2025-09-09,2025-09-03,相互土地株式会社,,株式会社,岐阜県,岐阜市,長住町７丁目４番地,,21,201,5008175,,,2025-09-03,清算の結了等,,,2015-10-05,1,,,,,ソウゴトチ,0
1419,5220002006464,登記記録の閉鎖等,0,2025-09-09,2025-09-05,有限会社小笠原鉄工所,,有限会社,石川県,金沢市,観音堂町ヘ６７番地２,,17,201,9200352,,,2025-09-05,清算の結了等,,,2015-10-05,1,,,,,オガサワラテッコウショ,0
1433,5290001035920,登記記録の閉鎖等,0,2025-09-09,2025-08-13,株式会社ジェイ・ジー・エス・オー,,株式会社,福岡県,福岡市博多区,祇園町８番１２号ロータリー大和１１１１,,40,132,8120038,,,2025-08-13,清算の結了等,,,2015-10-05,1,,,,,ジェイジーエスオー,0
1442,5300002007124,登記記録の閉鎖等,0,2025-09-09,2025-09-05,有限会社フォーライフ企画,,有限会社,佐賀県,藤津郡太良町,大字伊福甲１９１６番地,,41,441,8491601,,,2025-09-05,清算の結了等,,,2015-10-05,1,,,,,フォーライフキカク,0
1446,5330001017105,登記記録の閉鎖等,0,2025-09-09,2025-08-21,株式会社新生カラー,,株式会社,熊本県,熊本市東区,上南部３丁目２７番６４号,,43,102,8618010,,,2025-08-21,清算の結了等,,,2015-10-05,1,,,,,シンセイカラー,0
1453,5350002010602,登記記録の閉鎖等,0,2025-09-09,2025-09-01,有限会社佐藤測量,,有限会社,宮崎県,日向市,南町８番３８号,,45,206,8830036,,,2025-09-01,清算の結了等,,,2015-10-05,1,,,,,サトウソクリョウ,0
1462,5400001009994,登記記録の閉鎖等,0,2025-09-09,2025-09-02,株式会社Ｍ・Ｔデンタルラボ,,株式会社,岩手県,釜石市,只越町３丁目５番１５号,,03,211,0260021,,,2025-09-02,清算の結了等,,,2015-10-05,1,,,,,エムティデンタルラボ,0
1464,5430002009768,登記記録の閉鎖等,0,2025-09-09,2025-08-25,有限会社祥雲舎,,有限会社,北海道,札幌市中央区,宮の森三条３丁目２番８－３０１号,,01,101,0640953,,,2025-08-25,清算の結了等,,,2015-10-05,1,,,,,ショウウンシャ,0
1474,5480002009020,登記記録の閉鎖等,0,2025-09-09,2025-09-08,有限会社河野商店,,有限会社,徳島県,吉野川市,美郷字古土地１３７番地の５,,36,205,7793505,,,2025-09-08,清算の結了等,,,2015-10-05,1,,,,,カワノショウテン,0
1486,6010005027404,登記記録の閉鎖等,0,2025-09-09,2025-08-21,一般社団法人日本舞踊スポーツ科学協会,,その他の設立登記法人,東京都,中央区,築地２丁目１１番２６号築地ＭＫビル７Ｆ,,13,102,1040045,,,2025-08-21,清算の結了等,,,2017-09-07,1,,,,,ニホンオドリスポーツサイエンスキョウカイ,0
1493,6010405020438,登記記録の閉鎖等,0,2025-09-09,2025-08-15,ジー・ジェイ・レジデンス・セブン一般社団法人,,その他の設立登記法人,東京都,港区,六本木１丁目９番１０号アークヒルズ仙石山森タワー４０階,,13,103,1060032,,,2025-08-15,清算の結了等,,,2021-11-18,1,,,,,ジージェイレジデンスセブン,0
1526,6011105006859,登記記録の閉鎖等,0,2025-09-09,2025-08-05,一般社団法人日本ピアカウンセリングアカデミー,,その他の設立登記法人,東京都,新宿区,新宿５丁目１８番２０号ルックハイツ新宿８０３号,,13,104,1600022,,,2025-08-05,清算の結了等,,,2015-10-05,1,,,,,ニホンピアカウンセリングアカデミー,0
1545,6011805003081,登記記録の閉鎖等,0,2025-09-09,2025-08-29,一般社団法人日本中国ハンドメイド協会,,その他の設立登記法人,広島県,福山市,草戸町１丁目２－２６,,34,207,7200831,,,2025-08-29,清算の結了等,,,2021-06-22,1,,,,,ニホンチュウゴクハンドメイドキョウカイ,0
1551,6013205001211,登記記録の閉鎖等,0,2025-09-09,2025-08-01,特定非営利活動法人めぐろチャイルドライン,,その他の設立登記法人,東京都,目黒区,東山１丁目１７番１２号,,13,110,1530043,,,2025-08-01,清算の結了等,,,2015-10-05,1,,,,,メグロチャイルドライン,0
1552,6013301014991,登記記録の閉鎖等,0,2025-09-09,2025-08-25,株式会社エフビージープランニング,,株式会社,東京都,豊島区,千早３丁目４番６号,,13,116,1710044,,,2025-08-25,清算の結了等,,,2015-10-05,1,,,,,エフビージープランニング,0
1556,6013302021673,登記記録の閉鎖等,0,2025-09-09,2025-08-25,有限会社オンリーワン,,有限会社,東京都,豊島区,雑司が谷３丁目３番２５－４０５号,,13,116,1710032,,,2025-08-25,清算の結了等,,,2015-10-05,1,,,,,オンリーワン,0
1558,6020001094777,登記記録の閉鎖等,0,2025-09-09,2025-09-01,株式会社チェスト,,株式会社,神奈川県,藤沢市,片瀬２丁目２番５－４０７号,,14,205,2510032,,,2025-09-01,清算の結了等,,,2015-10-05,1,,,,,チェスト,0
1560,6020001098068,登記記録の閉鎖等,0,2025-09-09,2025-08-25,株式会社ＡＩＲ,,株式会社,神奈川県,横浜市泉区,和泉中央北４丁目１５番２４号ＡＩＲビル１Ｆ,,14,116,2450024,,,2025-08-25,清算の結了等,,,2015-10-05,1,,,,,エアー,0
1565,6020002006450,登記記録の閉鎖等,0,2025-09-09,2025-08-26,有限会社匠建舎,,有限会社,神奈川県,横浜市都筑区,東山田町１５８３番地,,14,118,2240024,,,2025-08-26,清算の結了等,,,2015-10-05,1,,,,,ショウケンシャ,0
1568,6020003027743,登記記録の閉鎖等,0,2025-09-09,2025-08-22,合同会社Ａｌｉ,,合同会社,神奈川県,川崎市幸区,戸手２丁目１０番８フラットイスミ３０３,,14,132,2120005,,,2025-08-22,清算の結了等,,,2025-02-07,1,,,,,アリィ,0
1594,6040002015375,登記記録の閉鎖等,0,2025-09-09,2025-08-18,有限会社ＫＡＺ測量,,有限会社,千葉県,千葉市稲毛区,稲毛東６丁目５番１６号ビューシティＩＮＡＧＥ３０５号,,12,103,2630031,,,2025-08-18,清算の結了等,,,2015-10-05,1,,,,,カズソクリョウ,0
1615,6100002010493,登記記録の閉鎖等,0,2025-09-09,2025-09-03,有限会社上原商事,,有限会社,長野県,佐久市,中込字立石２９６２番地４,,20,217,3850051,,,2025-09-03,清算の結了等,,,2015-10-05,1,,,,,ウエハラショウジ,0
1616,6110001036027,登記記録の閉鎖等,0,2025-09-09,2025-08-25,きゃらこむ株式会社,,株式会社,新潟県,見附市,新町１丁目２－５,,15,211,9540057,,,2025-08-25,清算の結了等,,,2021-09-03,1,,,,,キャラコム,0
1619,6120001016399,登記記録の閉鎖等,0,2025-09-09,2025-08-28,明和住研株式会社,,株式会社,大阪府,大阪市城東区,今福東２丁目９番２６号,,27,118,5360002,,,2025-08-28,清算の結了等,,,2022-11-22,1,,,,,メイワジュウケン,0
1626,6120001213293,登記記録の閉鎖等,0,2025-09-09,2025-08-29,株式会社アモールコスメ,,株式会社,大阪府,大阪市浪速区,日本橋５丁目７番１０号山田ビル２０６号室,,27,111,5560005,,,2025-08-29,清算の結了等,,,2018-05-11,1,,,,,アモールコスメ,0
1648,6130001040472,登記記録の閉鎖等,0,2025-09-09,2025-09-01,株式会社イナヨー,,株式会社,京都府,宮津市,字獅子崎１２３番地の６,,26,205,6260065,,,2025-09-01,清算の結了等,,,2015-10-05,1,,,,,,0
1664,6140002047425,登記記録の閉鎖等,0,2025-09-09,2025-09-02,有限会社石敏鮮魚,,有限会社,兵庫県,姫路市,網干区新在家６７１番地,,28,201,6711234,,,2025-09-02,清算の結了等,,,2015-10-05,1,,,,,イシトシセンギョ,0
1678,6180002092013,登記記録の閉鎖等,0,2025-09-09,2025-08-29,有限会社坂井板金,,有限会社,愛知県,海部郡大治町,大字三本木字村部１３６番地の２,,23,424,4901142,,,2025-08-29,清算の結了等,,,2015-10-05,1,,,,,サカイバンキン,0
1681,6200001019690,登記記録の閉鎖等,0,2025-09-09,2025-09-04,株式会社村井製作所,,株式会社,岐阜県,関市,神明町１丁目４番８号,,21,205,5013905,,,2025-09-04,清算の結了等,,,2015-10-05,1,,,,,ムライセイサクショ,0
1687,6220001016455,登記記録の閉鎖等,0,2025-09-09,2025-09-04,株式会社ニュー青海荘,,株式会社,石川県,七尾市,和倉町ワ部２番地４,,17,202,9260175,,,2025-09-04,清算の結了等,,,2015-10-05,1,,,,,,0
1698,6290001067913,登記記録の閉鎖等,0,2025-09-09,2025-08-13,株式会社ｓｔａｒｇｉｆｔ,,株式会社,福岡県,福岡市東区,和白３丁目６番１８－５０７号,,40,131,8110202,,,2025-08-13,清算の結了等,,,2015-10-05,1,,,,,,0
1710,6300005006980,登記記録の閉鎖等,0,2025-09-09,2025-09-03,みやき町特定地域づくり事業協同組合,,その他の設立登記法人,佐賀県,三養基郡みやき町,大字白壁２４７０番地２,,41,346,8490111,,,2025-09-03,清算の結了等,,,2021-03-08,1,,,,,ミヤキチョウトクテイチイキヅクリ,0
1714,6330001005422,登記記録の閉鎖等,0,2025-09-09,2025-09-02,エル販売株式会社,,株式会社,熊本県,熊本市南区,流通団地１丁目５７番地,,43,104,8620967,,,2025-09-02,合併による解散等,1480001005627,令和７年９月１日徳島県鳴門市瀬戸町明神字板屋島１２１番地５東暘貿易株式会社（1480001005627）に合併し解散,2015-10-05,1,,,,,エルハンバイ,0
1726,6370001040168,登記記録の閉鎖等,0,2025-09-09,2025-08-27,株式会社うまいもの劇団,,株式会社,宮城県,仙台市太白区,中田町字寺浦１０番地の３８,,04,104,9811103,,,2025-08-27,清算の結了等,,,2016-09-01,1,,,,,ウマイモノゲキダン,0
1727,6370002003941,登記記録の閉鎖等,0,2025-09-09,2025-09-05,有限会社三浦青果,,有限会社,宮城県,仙台市太白区,鈎取本町１丁目１２番６６号,,04,104,9820805,,,2025-09-05,清算の結了等,,,2015-10-05,1,,,,,ミウラセイカ,0
1736,6430001013704,登記記録の閉鎖等,0,2025-09-09,2025-08-22,株式会社パルフードサービス,,株式会社,北海道,札幌市西区,二十四軒三条７丁目３番３５号,,01,107,0630803,,,2025-08-22,清算の結了等,,,2015-10-05,1,,,,,パルフードサービス,0
1751,6700150021967,登記記録の閉鎖等,0,2025-09-09,2024-10-31,白馬八方尾根スキースクール,,その他,長野県,北安曇郡白馬村,大字北城八方３９０１,,20,485,3999301,,,2024-10-31,その他の清算の結了等,,,2015-10-09,1,,,,,ハクバハツポウオネスキースクール,0
1752,6700150035323,登記記録の閉鎖等,0,2025-09-09,2025-03-31,南知床標津町観光協会,,その他,北海道,標津郡標津町,南三条西１丁目１－６,,01,693,0861653,,,2025-03-31,その他の清算の結了等,,,2015-10-09,1,,,,,ミナミシレトコシベツチヨウカンコウキヨウカイ,0
1753,6700150109861,登記記録の閉鎖等,0,2025-09-09,2025-04-01,Ｋｏｂｅ　Ｉｎｔｅｒｎａｔｉｏｎａｌ　Ａｒｔ,,その他,兵庫県,神戸市中央区,山本通１丁目７－１１ドゥマンビル２Ｆ,,28,110,6500003,,,2025-04-01,その他の清算の結了等,,,2022-06-16,1,,,,,コウベインターナシヨナルアート,0
1754,6700150117212,登記記録の閉鎖等,0,2025-09-09,2024-04-01,江北町シルバー人材センター,,その他,佐賀県,杵島郡江北町,大字山口２６３７－７,,41,424,8490501,,,2024-04-01,その他の清算の結了等,,,2023-06-09,1,,,,,コウホクマチシルバージンザイセンター,0
1772,7010401082332,登記記録の閉鎖等,0,2025-09-09,2025-09-04,株式会社クローバー,,株式会社,神奈川県,厚木市,温水１９２９番１,,14,212,2430033,,,2025-09-04,合併による解散等,7060001008550,令和７年９月１日栃木県日光市土沢１８５２番地１株式会社ヨックモッククレア（7060001008550）に合併し解散,2015-10-05,1,,,,,クローバー,0
1781,7010405019256,登記記録の閉鎖等,0,2025-09-09,2025-08-15,一般社団法人名古屋レジデンシャルマスターリース,,その他の設立登記法人,東京都,港区,元赤坂１丁目１番７－１００６号,,13,103,1070051,,,2025-08-15,清算の結了等,,,2020-11-13,1,,,,,ナゴヤレジデンシャルマスターリース,0
1802,7010902014932,登記記録の閉鎖等,0,2025-09-09,2025-09-05,有限会社宮武建築計画設計事務所,,有限会社,東京都,世田谷区,八幡山３丁目２３番２３号,,13,112,1560056,,,2025-09-05,清算の結了等,,,2015-10-05,1,,,,,ミヤタケケンチクケイカクセッケイジムショ,0
1859,7020002046149,登記記録の閉鎖等,0,2025-09-09,2025-08-25,有限会社ルナ・コレクション,,有限会社,神奈川県,横浜市中区,新山下２丁目２番１－３０６号,,14,104,2310801,,,2025-08-25,清算の結了等,,,2015-10-05,1,,,,,ルナコレクション,0
1866,7021001033146,登記記録の閉鎖等,0,2025-09-09,2025-09-01,株式会社報丞,,株式会社,神奈川県,小田原市,曽我別所４０８番地,,14,206,2500205,,,2025-09-01,合併による解散等,7021001032528,令和７年９月１日神奈川県小田原市曽我別所４０８番地株式会社川久保組（7021001032528）に合併し解散,2015-10-05,1,,,,,ホウショウ,0
1873,7030001023370,登記記録の閉鎖等,0,2025-09-09,2025-09-01,株式会社山口架設工業,,株式会社,埼玉県,さいたま市岩槻区,大字岩槻６９４５番地,,11,110,3390061,,,2025-09-01,清算の結了等,,,2015-10-05,1,,,,,ヤマグチカセツコウギョウ,0
1882,7030002080989,登記記録の閉鎖等,0,2025-09-09,2025-09-01,有限会社森盛,,有限会社,埼玉県,本庄市,本庄３丁目８番５号,,11,211,3670051,,,2025-09-01,清算の結了等,,,2015-10-05,1,,,,,モリセイ,0
1886,7040001015037,登記記録の閉鎖等,0,2025-09-09,2025-08-18,株式会社バンヨー,,株式会社,千葉県,習志野市,東習志野２丁目１８番１７号,,12,216,2750001,,,2025-08-18,清算の結了等,,,2015-10-05,1,,,,,バンヨー,0
1891,7060002041261,登記記録の閉鎖等,0,2025-09-09,2025-09-04,有限会社大田原サウナ,,有限会社,栃木県,大田原市,中央１丁目１５番１号,,09,210,3240056,,,2025-09-04,清算の結了等,,,2025-06-05,1,,,,,オオタワラサウナ,0
1893,7080002000348,登記記録の閉鎖等,0,2025-09-09,2025-09-03,有限会社歩内装,,有限会社,静岡県,静岡市葵区,羽鳥大門町８番４１号,,22,101,4211216,,,2025-09-03,清算の結了等,,,2015-10-05,1,,,,,アユミナイソウ,0
1909,7120001177042,登記記録の閉鎖等,0,2025-09-09,2025-09-05,株式会社ＢＯＫＡＮ,,株式会社,福岡県,福岡市博多区,博多駅中央街５番１１号,,40,132,8120012,,,2025-09-05,合併による解散等,3120001097161,令和７年９月１日大阪市淀川区西中島六丁目３番１４号株式会社ビジネスブレーン（3120001097161）に合併し解散,2015-10-05,1,,,,,ボカン,0
1917,7120001272181,登記記録の閉鎖等,0,2025-09-09,2025-08-28,ＣｈａｒｇｅＸＯ株式会社,,株式会社,大阪府,大阪市北区,中之島６丁目１番３８－２３０７号,,27,127,5300005,,,2025-08-28,清算の結了等,,,2025-01-24,1,,,,,チャージエックスオー,0
1939,7130002009706,登記記録の閉鎖等,0,2025-09-09,2025-09-01,有限会社岡丸屋扇舗,,有限会社,京都府,京都市東山区,宮川筋５丁目３４５番地,,26,105,6050801,,,2025-09-01,清算の結了等,,,2015-10-05,1,,,,,オカマルヤセンポ,0
1943,7140001063892,登記記録の閉鎖等,0,2025-09-09,2025-09-04,株式会社網干小林ミシン商会,,株式会社,兵庫県,姫路市,網干区新在家１３４９番地,,28,201,6711234,,,2025-09-04,清算の結了等,,,2015-10-05,1,,,,,アボシコバヤシミシンショウカイ,0
1944,7140001069717,登記記録の閉鎖等,0,2025-09-09,2025-09-02,西川商事株式会社,,株式会社,兵庫県,西宮市,南甲子園３丁目８番８号,,28,204,6638153,,,2025-09-02,清算の結了等,,,2015-10-05,1,,,,,ニシカワショウジ,0
1950,7150003002542,登記記録の閉鎖等,0,2025-09-09,2025-09-01,合同会社ピースオブソサエティ,,合同会社,奈良県,奈良市,中登美ヶ丘６丁目１３番１－３０１号,,29,201,6310003,,,2025-09-01,清算の結了等,,,2021-11-11,1,,,,,ピースオブソサエティ,0
1951,7160001001058,登記記録の閉鎖等,0,2025-09-09,2025-09-03,株式会社滋賀メディカル,,株式会社,滋賀県,大津市,瀬田１丁目２２番６号,,25,201,5202134,,,2025-09-03,清算の結了等,,,2015-10-05,1,,,,,シガメディカル,0
1953,7180001032761,登記記録の閉鎖等,0,2025-09-09,2025-09-01,株式会社正久,,株式会社,愛知県,名古屋市中村区,名駅３丁目８番７号,,23,105,4500002,,,2025-09-01,清算の結了等,,,2015-10-05,1,,,,,マサヒサ,0
1972,7210002012940,登記記録の閉鎖等,0,2025-09-09,2025-09-04,建築板金田中有限会社,,有限会社,福井県,鯖江市,糺町第２０号３番地の５,,18,207,9160004,,,2025-09-04,清算の結了等,,,2015-10-05,1,,,,,ケンチクバンキンタナカ,0
1975,7240001000514,登記記録の閉鎖等,0,2025-09-09,2025-09-04,株式会社アド・タイム,,株式会社,広島県,広島市東区,中山南１丁目１０番３０号,,34,102,7320024,,,2025-09-04,清算の結了等,,,2015-10-05,1,,,,,,0
1978,7240002042927,登記記録の閉鎖等,0,2025-09-09,2025-09-02,有限会社ペガサス,,有限会社,広島県,福山市,丸之内２丁目１２番６号,,34,207,7200061,,,2025-09-02,清算の結了等,,,2015-10-05,1,,,,,ペガサス,0
1979,7240005002432,登記記録の閉鎖等,0,2025-09-09,2025-09-01,広島木材産業開発協同組合,,その他の設立登記法人,広島県,広島市南区,皆実町４丁目１１番１９号,,34,103,7340007,,,2025-09-01,清算の結了等,,,2015-10-05,1,,,,,ヒロシマモクザイサンギョウカイハツ,0
1984,7260002033767,登記記録の閉鎖等,0,2025-09-09,2025-08-01,有限会社インテリアセンターフクシマ,,有限会社,岡山県,真庭市,開田４７４番地,,33,214,7193111,,,2025-08-01,清算の結了等,,,2015-10-05,1,,,,,インテリアセンターフシシマ,0
1991,7290003000961,登記記録の閉鎖等,0,2025-09-09,2025-08-12,合資会社都市興産,,合資会社,福岡県,福岡市城南区,梅林３丁目２番１号,,40,136,8140144,,,2025-08-12,清算の結了等,,,2015-10-05,1,,,,,,0
1997,7310002001561,登記記録の閉鎖等,0,2025-09-09,2025-09-04,有限会社熊商店,,有限会社,長崎県,長崎市,高浜町３２０３番地の６９,,42,201,8510503,,,2025-09-04,清算の結了等,,,2015-10-05,1,,,,,クマショウテン,0
2002,7350002003760,登記記録の閉鎖等,0,2025-09-09,2025-09-03,有限会社東野水産,,有限会社,宮崎県,宮崎市,新別府町前浜１４０１番地８８,,45,201,8800834,,,2025-09-03,清算の結了等,,,2015-10-05,1,,,,,ヒガシノスイサン,0
2006,7370001002068,登記記録の閉鎖等,0,2025-09-09,2025-08-27,日和電気株式会社,,株式会社,宮城県,仙台市太白区,茂庭字人来田西３番地１,,04,104,9820251,,,2025-08-27,清算の結了等,,,2015-10-05,1,,,,,,0
2012,7470001008682,登記記録の閉鎖等,0,2025-09-09,2025-09-02,アルプスエアー株式会社,,株式会社,香川県,仲多度郡多度津町,若葉町４番５４号,,37,404,7640023,,,2025-09-02,清算の結了等,,,2015-10-05,1,,,,,アルプスエアー,0
2023,8010001241147,登記記録の閉鎖等,0,2025-09-09,2025-09-05,株式会社ＪＳＫ１４,,株式会社,東京都,千代田区,麹町２丁目６番地５,,13,101,1020083,,,2025-09-05,合併による解散等,9100001005839,令和７年９月１日長野県上高井郡小布施町大字雁田３６１番地１ＤＭノバフォーム株式会社（9100001005839）に合併し解散,2023-12-27,1,,,,,ジェイエスケイジュウヨン,0
2064,8010802008265,登記記録の閉鎖等,0,2025-09-09,2025-09-03,有限会社太陽精器製作所,,有限会社,東京都,大田区,大森西７丁目２番１０号,,13,111,1430015,,,2025-09-03,清算の結了等,,,2015-10-05,1,,,,,タイヨウセイキセイサクショ,0
2087,8011702012480,登記記録の閉鎖等,0,2025-09-09,2025-09-02,有限会社ラビアン美容室,,有限会社,東京都,江戸川区,中央１丁目２番１０－５０３号　レヴィール江戸川中央,,13,123,1320021,,,2025-09-02,清算の結了等,,,2015-10-05,1,,,,,ラビアンビヨウシツ,0
2088,8011802004774,登記記録の閉鎖等,0,2025-09-09,2025-09-01,有限会社タカ彫金工房,,有限会社,東京都,葛飾区,東水元４丁目１４番１２号,,13,122,1250033,,,2025-09-01,清算の結了等,,,2015-10-05,1,,,,,タカチョウキンコウボウ,0
2095,8012405003057,登記記録の閉鎖等,0,2025-09-09,2025-08-27,特定非営利活動法人学凛社教育研究所,,その他の設立登記法人,東京都,国分寺市,南町３丁目１４番３号,,13,214,1850021,,,2025-08-27,清算の結了等,,,2015-10-05,1,,,,,ガクリンシャキョウイクケンキュウショ,0
2100,8013301037529,登記記録の閉鎖等,0,2025-09-09,2025-08-29,ジービーライズ株式会社,,株式会社,東京都,豊島区,南池袋２丁目４９番７号,,13,116,1710022,,,2025-08-29,清算の結了等,,,2015-10-05,1,,,,,ジービーライズ,0
2101,8013301040094,登記記録の閉鎖等,0,2025-09-09,2025-09-01,株式会社キッズ・アルカディア,,株式会社,東京都,豊島区,長崎５丁目９番１５号１０４号室,,13,116,1710051,,,2025-09-01,清算の結了等,,,2017-02-17,1,,,,,キッズアルカディア,0
2129,8030001086136,登記記録の閉鎖等,0,2025-09-09,2025-09-01,株式会社安部商事,,株式会社,埼玉県,深谷市,本住町１番３８号,,11,218,3660823,,,2025-09-01,合併による解散等,1030001095630,令和７年９月１日埼玉県深谷市本住町１番３８号安部株式会社（1030001095630）に合併し解散,2015-10-05,1,,,,,アンベショウジ,0
2144,8040001063968,登記記録の閉鎖等,0,2025-09-09,2025-08-15,株式会社高崎屋商店,00019358,株式会社,千葉県,香取市,野田５５番地３,,12,236,2890314,,,2025-08-15,清算の結了等,,,2015-10-05,1,,,,,タカサキヤショウテン,0
2146,8040001131436,登記記録の閉鎖等,0,2025-09-09,2025-08-08,偉美株式会社,,株式会社,千葉県,千葉市花見川区,幕張本郷１丁目７番地５,,12,102,2620033,,,2025-08-08,清算の結了等,,,2023-12-19,1,,,,,イミ,0
2177,8100002035200,登記記録の閉鎖等,0,2025-09-09,2025-09-04,有限会社坂本屋建材,,有限会社,長野県,上伊那郡辰野町,大字赤羽３８６番地,,20,382,3990424,,,2025-09-04,清算の結了等,,,2015-10-05,1,,,,,サカモトヤケンザイ,0
2183,8120001021942,登記記録の閉鎖等,0,2025-09-09,2025-08-29,株式会社山城製作所,,株式会社,大阪府,大阪市平野区,加美正覚寺４丁目７番３２号,,27,126,5470006,,,2025-08-29,清算の結了等,,,2015-10-05,1,,,,,,0
2213,8130005005924,登記記録の閉鎖等,0,2025-09-09,2025-08-22,特定非営利活動法人芸術の街京都創生プロジェクト,,その他の設立登記法人,京都府,京都市中京区,清水町３５２佐藤ビル２Ｆ,,26,104,6040911,,,2025-08-22,清算の結了等,,,2015-10-05,1,,,,,ゲイジュツノマチキョウトソウセイプロジェクト,0
2244,8210002002156,登記記録の閉鎖等,0,2025-09-09,2025-09-05,高橋商事有限会社,,有限会社,福井県,福井市,二の宮２丁目２７番３８号,,18,201,9100015,,,2025-09-05,清算の結了等,,,2015-10-05,1,,,,,タカハシショウジ,0
2246,8220001008558,登記記録の閉鎖等,0,2025-09-09,2025-09-05,石川グリーンタクシー株式会社,,株式会社,石川県,金沢市,西念４丁目１４番１８号,,17,201,9200024,,,2025-09-05,清算の結了等,,,2015-10-05,1,,,,,,0
2252,8240001006485,登記記録の閉鎖等,0,2025-09-09,2025-09-03,株式会社玉重電設,,株式会社,広島県,広島市西区,己斐上２丁目７５－１４,,34,104,7330815,,,2025-09-03,清算の結了等,,,2015-10-05,1,,,,,タマシゲデンセツ,0
2255,8240002013043,登記記録の閉鎖等,0,2025-09-09,2025-09-02,有限会社広島美装,,有限会社,広島県,広島市西区,三篠北町５番１１号,,34,104,7330006,,,2025-09-02,清算の結了等,,,2015-10-05,1,,,,,ヒロシマビソウ,0
2267,8290005019165,登記記録の閉鎖等,0,2025-09-09,2025-08-25,ＮＰＯ法人Ｒａｓｉｋｕ,,その他の設立登記法人,福岡県,福岡市早良区,荒江２丁目６番１－３０１号,,40,137,8140021,,,2025-08-25,清算の結了等,,,2023-09-29,1,,,,,ラシク,0
2271,8330001000207,登記記録の閉鎖等,0,2025-09-09,2025-08-29,株式会社アプロ,,株式会社,熊本県,熊本市中央区,手取本町３番１４号,,43,101,8600808,,,2025-08-29,清算の結了等,,,2025-08-14,1,,,,,アプロ,0
2274,8350002012496,登記記録の閉鎖等,0,2025-09-09,2025-09-01,有限会社花岡鐵工所,,有限会社,宮崎県,延岡市,土々呂町６丁目１７５２番地３,,45,203,8890513,,,2025-09-01,清算の結了等,,,2015-10-05,1,,,,,ハナオカテッコウショ,0
2278,8370001016463,登記記録の閉鎖等,0,2025-09-09,2025-08-27,エスシーケー株式会社,,株式会社,宮城県,仙台市泉区,南光台４丁目２９番３７号,,04,105,9818003,,,2025-08-27,清算の結了等,,,2015-10-05,1,,,,,エスシーケー,0
2281,8380002028457,登記記録の閉鎖等,0,2025-09-09,2025-08-28,有限会社伸栄設備,,有限会社,福島県,相馬市,日下石字高根沢５５８番地の３,,07,209,9792522,,,2025-08-28,清算の結了等,,,2015-10-05,1,,,,,,0
2296,8480002013093,登記記録の閉鎖等,0,2025-09-09,2025-09-05,有限会社四宮水道工業所,,有限会社,徳島県,阿南市,津乃峰町新浜６２番地１９,,36,204,7740021,,,2025-09-05,清算の結了等,,,2015-10-05,1,,,,,シノミヤスイドウコウギョウショ,0
2297,8480002015783,登記記録の閉鎖等,0,2025-09-09,2025-09-08,有限会社福島美建,,有限会社,徳島県,三好郡東みよし町,加茂１４９９番地１０,,36,489,7794701,,,2025-09-08,清算の結了等,,,2015-10-05,1,,,,,フクシマビケン,0
2300,8490005001103,登記記録の閉鎖等,0,2025-09-09,2025-09-08,末広教会,,その他の設立登記法人,高知県,高知市,西町８番地,,39,201,7800925,,,2025-09-08,清算の結了等,,,2015-10-05,1,,,,,スエヒロキョウカイ,0
2304,8700150071515,登記記録の閉鎖等,0,2025-09-09,2025-05-28,白金一丁目東部北地区市街地再開発組合,,その他,東京都,港区,白金１丁目２９－４白金ＴＮＫビル３階,,13,103,1080072,,,2025-05-28,その他の清算の結了等,,,2016-02-26,1,,,,,シロカネイツチヨウメトウブキタチクシガイチサイカイハツクミアイ,0
2311,9010001255212,登記記録の閉鎖等,0,2025-09-09,2025-09-04,株式会社Ｄ１,,株式会社,東京都,千代田区,永田町２丁目１１番１号山王パークタワー５階トラスティーズ・コンサルティングＬＬＰ内,,13,101,1000014,,,2025-09-04,合併による解散等,8010401140394,令和７年８月６日東京都港区赤坂九丁目７番１号ミッドタウン・タワー３２Ｆ株式会社Ｄｉｒｂａｔｏ（8010401140394）に合併し解散,2025-05-22,1,,,,,ディーワン,0
2322,9010003042204,登記記録の閉鎖等,0,2025-09-09,2025-08-22,ＥＮＣ合同会社,,合同会社,東京都,中央区,八丁堀４丁目２番１０号ＡＯＪ税理士法人内,,13,102,1040032,,,2025-08-22,清算の結了等,,,2023-11-15,1,,,,,イーエヌシー,0
2348,9010602003300,登記記録の閉鎖等,0,2025-09-09,2025-09-01,有限会社江東印刷,,有限会社,東京都,墨田区,亀沢４丁目１５番１２号,,13,107,1300014,,,2025-09-01,清算の結了等,,,2015-10-05,1,,,,,コウトウインサツ,0
2365,9011002025884,登記記録の閉鎖等,0,2025-09-09,2025-08-07,有限会社エル・ジェイ,,有限会社,東京都,渋谷区,千駄ヶ谷３丁目１３番２０号第７宮庭マンション１階,,13,113,1510051,,,2025-08-07,清算の結了等,,,2015-10-05,1,,,,,エルジェイ,0
2370,9011101074527,登記記録の閉鎖等,0,2025-09-09,2025-08-12,株式会社神話,,株式会社,東京都,新宿区,西新宿７丁目１９番７号,,13,104,1600023,,,2025-08-12,清算の結了等,,,2015-10-05,1,,,,,シンワ,0
2379,9011201018929,登記記録の閉鎖等,0,2025-09-09,2025-09-05,株式会社ネサンス,,株式会社,東京都,中野区,中央３丁目１番４号,,13,114,1640011,,,2025-09-05,合併による解散等,2010001176836,令和７年９月１日東京都中央区日本橋浜町一丁目９番１２号株式会社大山（2010001176836）に合併し解散,2016-03-08,1,,,,,ネサンス,0
2417,9021001048480,登記記録の閉鎖等,0,2025-09-09,2025-09-03,株式会社グランシャルレ,,株式会社,神奈川県,厚木市,飯山７９５番地２,,14,212,2430213,,,2025-09-03,清算の結了等,,,2015-10-05,1,,,,,グランシャルレ,0
2418,9021001050404,登記記録の閉鎖等,0,2025-09-09,2025-09-02,株式会社インドの恵み,,株式会社,大阪府,枚方市,田口山２丁目３１－１,,27,210,5730001,,,2025-09-02,清算の結了等,,,2015-10-05,1,,,,,インドノメグミ,0
2423,9030001139669,登記記録の閉鎖等,0,2025-09-09,2025-09-01,Ｓｔａｒｂｒｉｇｈｔｚ株式会社,,株式会社,埼玉県,戸田市,笹目２丁目２０番地１,,11,224,3350034,,,2025-09-01,合併による解散等,5030003016894,令和７年９月１日さいたま市岩槻区大字上野１０９番地１０株式会社エイト（5030003016894）に合併し解散,2020-12-10,1,,,,,スターブライツ,0
2433,9040001058629,登記記録の閉鎖等,0,2025-09-09,2025-08-15,株式会社竹端電気,,株式会社,千葉県,山武郡九十九里町,西野１３１８番地７,,12,403,2830116,,,2025-08-15,清算の結了等,,,2015-10-05,1,,,,,タケハタデンキ,0
2447,9070002028339,登記記録の閉鎖等,0,2025-09-09,2025-09-03,有限会社太田屋本店,,有限会社,群馬県,太田市,本町１６番１９号,,10,205,3730057,,,2025-09-03,清算の結了等,,,2015-10-05,1,,,,,オオタヤホンテン,0
2462,9120001133076,登記記録の閉鎖等,0,2025-09-09,2025-09-02,株式会社ＷＰＳ,,株式会社,大阪府,大阪市中央区,久太郎町４丁目１番３号,,27,128,5410056,,,2025-09-02,清算の結了等,,,2015-10-05,1,,,,,ダブルピーエス,0
2470,9120001259549,登記記録の閉鎖等,0,2025-09-09,2025-08-29,株式会社宝塚ウェルネスアカデミー,,株式会社,大阪府,大阪市北区,芝田１丁目１３番１６号,,27,127,5300012,,,2025-08-29,清算の結了等,,,2023-11-09,1,,,,,タカラヅカウェルネスアカデミー,0
2480,9120003010224,登記記録の閉鎖等,0,2025-09-09,2025-08-27,合同会社宣友会,,合同会社,大阪府,大阪市北区,野崎町７番８号,,27,127,5300055,,,2025-08-27,合併による解散等,5120001135035,令和７年８月５日大阪市北区野崎町７番８号株式会社大阪オリコミトランスポート（5120001135035）に合併し解散,2015-10-05,1,,,,,センユウカイ,0
2481,9120005015873,登記記録の閉鎖等,0,2025-09-09,2025-09-04,特定非営利活動法人体育活動スポーツワンダー,,その他の設立登記法人,大阪府,大阪市東住吉区,南田辺３丁目１番８－４０１号,,27,121,5460033,,,2025-09-04,清算の結了等,,,2015-10-05,1,,,,,タイイクカツドウスポーツワンダー,0
2490,9122001013373,登記記録の閉鎖等,0,2025-09-09,2025-08-29,株式会社アクセス,,株式会社,大阪府,大阪市中央区,本町４丁目５番１５号,,27,128,5410053,,,2025-08-29,清算の結了等,,,2015-10-05,1,,,,,アクセス,0
2493,9130001000671,登記記録の閉鎖等,0,2025-09-09,2025-08-28,株式会社京滋西村工務店,,株式会社,京都府,京都市右京区,西京極北庄境町６５番地,,26,108,6150802,,,2025-08-28,清算の結了等,,,2015-10-05,1,,,,,ケイジニシムラコウムテン,0
2510,9140001121839,登記記録の閉鎖等,0,2025-09-09,2025-09-02,株式会社ＺＥＳＴ,,株式会社,兵庫県,西宮市,田中町５番１５－８０５号,,28,204,6620973,,,2025-09-02,清算の結了等,,,2021-06-07,1,,,,,ゼスト,0
2517,9160002012804,登記記録の閉鎖等,0,2025-09-09,2025-09-04,有限会社永松装蹄所,,有限会社,滋賀県,栗東市,上砥山８００番地１５,,25,208,5203004,,,2025-09-04,清算の結了等,,,2015-10-05,1,,,,,ナガマツソウテイショ,0
2530,9180301026775,登記記録の閉鎖等,0,2025-09-09,2025-08-27,株式会社ＪＰ・ワークス,,株式会社,愛知県,豊橋市,大岩町字岩田１３番地１,,23,201,4413147,,,2025-08-27,合併による解散等,8180302009838,令和７年８月１８日愛知県豊橋市大岩町字岩田１３番地１ママ食材株式会社（8180302009838）に合併し解散,2015-10-05,1,,,,,ジェイピーワークス,0
2533,9200001038928,登記記録の閉鎖等,0,2025-09-09,2025-09-04,株式会社ＩＤＥＡＬ,,株式会社,岐阜県,岐阜市,折立１６７番地４,,21,201,5011132,,,2025-09-04,清算の結了等,,,2021-07-27,1,,,,,アイデアル,0
2544,9240002020237,登記記録の閉鎖等,0,2025-09-09,2025-09-02,有限会社クラップス,,有限会社,広島県,広島市中区,江波西１丁目２番８号,,34,101,7300831,,,2025-09-02,清算の結了等,,,2015-10-05,1,,,,,クラップス,0
2557,9290805003235,登記記録の閉鎖等,0,2025-09-09,2025-09-02,日蓮宗妙光教会,,その他の設立登記法人,福岡県,北九州市門司区,大字大里１３３２番地の５,,40,101,8000014,,,2025-09-02,清算の結了等,,,2015-10-05,1,,,,,ニチレンシュウミョウコウキョウカイ,0
2561,9320003001236,登記記録の閉鎖等,0,2025-09-09,2025-09-05,合資会社井上材木店,,合資会社,大分県,日田市,中本町５番３７号,,44,204,8770047,,,2025-09-05,清算の結了等,,,2015-10-05,1,,,,,イノウエザイモクテン,0
2565,9340002021456,登記記録の閉鎖等,0,2025-09-09,2025-09-02,有限会社八千代酒販,,有限会社,鹿児島県,奄美市,名瀬古田町２１番２５号,,46,222,8940016,,,2025-09-02,清算の結了等,,,2015-10-05,1,,,,,ヤチヨシュハン,0
2566,9340002025507,登記記録の閉鎖等,0,2025-09-09,2025-09-01,有限会社三和ファーム,,有限会社,鹿児島県,鹿屋市,札元２丁目３６９６番１,,46,203,8930013,,,2025-09-01,合併による解散等,4340001013946,令和７年９月１日鹿児島県鹿屋市札元二丁目３６９６番１三和物産株式会社（4340001013946）に合併し解散,2015-10-05,1,,,,,サンワファーム,0
2567,9350001005707,登記記録の閉鎖等,0,2025-09-09,2025-09-02,株式会社東京国際技術研究所,,株式会社,宮崎県,児湯郡高鍋町,大字上江７６９７番地３０１,,45,401,8840006,,,2025-09-02,清算の結了等,,,2015-10-05,1,,,,,トウキョウコクサイギジュツケンキュウショ,0
2569,9370001046724,登記記録の閉鎖等,0,2025-09-09,2025-08-18,東日本フーズ株式会社,,株式会社,宮城県,仙台市若林区,六丁目字細谷３５番地の４,,04,103,9840031,,,2025-08-18,清算の結了等,,,2021-02-19,1,,,,,ヒガシニホンフーズ,0
2572,9370102000654,登記記録の閉鎖等,0,2025-09-09,2025-08-21,有限会社らくコーポレーション,,有限会社,宮城県,柴田郡柴田町,大字本船迫字上町４１番地,,04,323,9891621,,,2025-08-21,清算の結了等,,,2015-10-05,1,,,,,ラクコーポレーション,0
2575,9380002001652,登記記録の閉鎖等,0,2025-09-09,2025-08-29,有限会社シグマー商事,,有限会社,福島県,福島市,佐原字竹ノ森３番地,,07,201,9602158,,,2025-08-29,清算の結了等,,,2015-10-05,1,,,,,,0
2576,9380002025123,登記記録の閉鎖等,0,2025-09-09,2025-08-27,有限会社ドリーム・ハウス,,有限会社,福島県,いわき市,三和町下三坂字立町６４番地,,07,204,9701376,,,2025-08-27,清算の結了等,,,2015-10-05,1,,,,,ドリームハウス,0
2581,9410002006516,登記記録の閉鎖等,0,2025-09-09,2025-09-04,有限会社秋田縫製,,有限会社,秋田県,由利本荘市,薬師堂字谷地１１８番地１,,05,210,0150041,,,2025-09-04,清算の結了等,,,2016-04-11,1,,,,,,0
2587,9430001050331,登記記録の閉鎖等,0,2025-09-09,2025-08-25,株式会社ヒシワイ日米商会,,株式会社,北海道,小樽市,稲穂４丁目５番１７号,,01,203,0470032,,,2025-08-25,清算の結了等,,,2015-10-05,1,,,,,ヒシワイニチベイショウカイ,0
2596,9470001002493,登記記録の閉鎖等,0,2025-09-09,2025-09-03,株式会社大栄食品,,株式会社,香川県,高松市,新北町１６番１２号,,37,201,7600001,,,2025-09-03,清算の結了等,,,2015-10-05,1,,,,,ダイエイショクヒン,0
2601,9700150102822,登記記録の閉鎖等,0,2025-09-09,2025-04-01,ワーカーズ・コレクティブふくろうさん,,その他,山梨県,北杜市,長坂町大八田３９１３,,19,209,4080034,,,2025-04-01,その他の清算の結了等,,,2021-04-15,1,,,,,ワーカーズコレクテイブフクロウサン,0
2602,9700150106781,登記記録の閉鎖等,0,2025-09-09,2024-01-01,配色デザインスタジオ,,その他,神奈川県,相模原市緑区,三井１３５２－２８,,14,151,2520151,,,2024-01-01,その他の清算の結了等,,,2022-01-24,1,,,,,ハイシヨクデザインスタジオ,0
