sequenceNumber,corporateNumber,process,correct,updateDate,changeDate,name,nameImageId,kind,prefectureName,cityName,streetNumber,addressImageId,prefectureCode,cityCode,postCode,addressOutside,addressOutsideImageId,closeDate,closeCause,successorCorporateNumber,changeCause,assignmentDate,latest,enName,enPrefectureName,enCityName,enAddressOutside,furigana,hihyoji
4,1010001227508,新規,0,2022-06-21,2022-06-21,株式会社Ｐ＆Ｌｉｅｎ,,株式会社,東京都,中央区,築地２丁目１番２号プライム築地ビル３階,,13,102,1040045,,,,,,,2022-06-21,1,,,,,ピーアンドリアン,0
5,1010001227532,新規,0,2022-06-21,2022-06-21,諾佳株式会社,,株式会社,東京都,中央区,湊３丁目１３－８－２０１,,13,102,1040043,,,,,,,2022-06-21,1,,,,,ダクヨシ,0
6,1010001227549,新規,0,2022-06-21,2022-06-21,株式会社ｗｅ　ｅｑｕａｌ,,株式会社,東京都,中央区,銀座１丁目２２番１１号銀座大竹ビジデンス２階,,13,102,1040061,,,,,,,2022-06-21,1,,,,,ウィーイコール,0
13,1010003037888,新規,0,2022-06-21,2022-06-21,ｘＷＩＮアセットマネジメントジャパン合同会社,,合同会社,東京都,千代田区,大手町１丁目６番１号大手町ビル４階ＦＩＮＯＬＡＢ内,,13,101,1000004,,,,,,,2022-06-21,1,,,,,エックスウィンアセットマネジメントジャパン,0
14,1010003037905,新規,0,2022-06-21,2022-06-21,合同会社日本丸,,合同会社,東京都,中央区,月島１丁目２番１３号Ｙ’ｓビルディング２階,,13,102,1040052,,,,,,,2022-06-21,1,,,,,ニホンマル,0
15,1010003037938,新規,0,2022-06-21,2022-06-21,合同会社Ｇｅｍｉｎｉ１,,合同会社,東京都,中央区,八丁堀４丁目２番１０号ＡＯＪ税理士法人内,,13,102,1040032,,,,,,,2022-06-21,1,,,,,ジェミニワン,0
16,1010003037954,新規,0,2022-06-21,2022-06-21,ＴＨＧマスター１合同会社,,合同会社,東京都,千代田区,丸の内１丁目１１番１号パシフィックセンチュリープレイス丸の内１７階,,13,101,1000005,,,,,,,2022-06-21,1,,,,,ティーエイチジーマスターワン,0
18,1010005035163,新規,0,2022-06-21,2022-06-21,一般社団法人コーポレート・アクション・ジャパン,,その他の設立登記法人,東京都,千代田区,丸の内３丁目１番１号東京共同会計事務所内,,13,101,1000005,,,,,,,2022-06-21,1,,,,,コーポレートアクションジャパン,0
23,1010405021069,新規,0,2022-06-21,2022-06-21,一般社団法人日本声ヨガ協会,,その他の設立登記法人,東京都,港区,南青山２丁目２番１５－５３１号,,13,103,1070062,,,,,,,2022-06-21,1,,,,,ニホンコエヨガキョウカイ,0
24,1010405021102,新規,0,2022-06-21,2022-06-21,ＥＳＲ３３特定目的会社,,その他の設立登記法人,東京都,港区,浜松町１丁目２０番１０号ライオネス浜松町５０６号室,,13,103,1050013,,,,,,,2022-06-21,1,,,,,イーエスアールサンジュウサン,0
25,1010501048981,新規,0,2022-06-21,2022-06-21,株式会社ＭｅＭ,,株式会社,東京都,台東区,浅草橋１丁目２４番１号高政ビル３Ｆ,,13,106,1110053,,,,,,,2022-06-21,1,,,,,エムイーエム,0
30,1010603009601,新規,0,2022-06-21,2022-06-21,合同会社ネクスト,,合同会社,東京都,墨田区,立花４丁目２０－１２、２Ｆ,,13,107,1310043,,,,,,,2022-06-21,1,,,,,ネクスト,0
41,1010901051081,新規,0,2022-06-21,2022-06-21,株式会社ウィート,,株式会社,東京都,世田谷区,代沢２丁目２５番３号メゾンドイズミ２０３,,13,112,1550032,,,,,,,2022-06-21,1,,,,,ウィート,0
51,1011001148198,新規,0,2022-06-21,2022-06-21,Ｎｕｔｒａｂｏｌｔ　Ｄｉｓｔｒｉｂｕｔｉｏｎ　Ｊａｐａｎ株式会社,,株式会社,東京都,渋谷区,千駄ヶ谷５丁目２７－３やまとビル８Ｆ,,13,113,1510051,,,,,,,2022-06-21,1,,,,,ニュートラボルトディストリビューションジャパン,0
55,1011003014869,新規,0,2022-06-21,2022-06-21,合同会社ＩＸ,,合同会社,東京都,目黒区,目黒４丁目１２番６－１０８号ＣＡＳＳＩＡ目黒,,13,110,1530063,,,,,,,2022-06-21,1,,,,,ナイン,0
58,1011301027861,新規,0,2022-06-21,2022-06-21,Ａ‐Ｓｔｕｄｉｏ株式会社,,株式会社,東京都,杉並区,下高井戸４丁目１８番７号,,13,115,1680073,,,,,,,2022-06-21,1,,,,,エースタジオ,0
62,1011401024338,新規,0,2022-06-21,2022-06-21,株式会社プラスアルファ,,株式会社,東京都,板橋区,大山東町１番１０－１５０５号,,13,119,1730014,,,,,,,2022-06-21,1,,,,,プラスアルファ,0
64,1011501028172,新規,0,2022-06-21,2022-06-21,ＫＡＦＬＩ１株式会社,,株式会社,東京都,北区,東十条４丁目４－１５,,13,117,1140001,,,,,,,2022-06-21,1,,,,,カフリワン,0
70,1011801040892,新規,0,2022-06-21,2022-06-21,ＭＴＳ株式会社,,株式会社,東京都,葛飾区,水元２丁目９番１５号ハイツ田中第２－３０１,,13,122,1250032,,,,,,,2022-06-21,1,,,,,エムティーエス,0
76,1012401039326,新規,0,2022-06-21,2022-06-21,株式会社インプルーブサービス,,株式会社,東京都,調布市,調布ケ丘３丁目３９番１号藤和シティホームズ調布ヶ丘,,13,208,1820021,,,,,,,2022-06-21,1,,,,,インプルーブサービス,0
82,1013105001803,新規,0,2022-06-21,2022-06-21,特定非営利活動法人Ｃａｆｅ２２５ｉ,,その他の設立登記法人,東京都,あきる野市,油平４９番地７瀬沼ビル２０２,,13,228,1970827,,,,,,,2022-06-21,1,,,,,,0
95,1020001146987,新規,0,2022-06-21,2022-06-21,株式会社アイ・レジャー・エンターテインメント,,株式会社,神奈川県,川崎市川崎区,日進町１番地１１川崎ルフロン１０階,,14,131,2100024,,,,,,,2022-06-21,1,,,,,アイレジャーエンターテインメント,0
96,1020001146995,新規,0,2022-06-21,2022-06-21,株式会社ネクスト,,株式会社,神奈川県,横浜市中区,曙町１丁目８番地斉藤ビル２０１,,14,104,2310057,,,,,,,2022-06-21,1,,,,,ネクスト,0
97,1020001147011,新規,0,2022-06-21,2022-06-21,株式会社ダイブ,,株式会社,神奈川県,横浜市西区,岡野１丁目９番７号リーベスト岡野町ビル２階Ａ区画,,14,103,2200073,,,,,,,2022-06-21,1,,,,,ダイブ,0
111,1030001148719,新規,0,2022-06-21,2022-06-21,株式会社Ｓ‐ＨＡＭＫＫ,,株式会社,埼玉県,さいたま市大宮区,土手町１丁目２番ＪＡ共済埼玉ビル２階,,11,103,3300801,,,,,,,2022-06-21,1,,,,,エスハマック,0
112,1030001148735,新規,0,2022-06-21,2022-06-21,株式会社Ｈａｂｉｔ,,株式会社,埼玉県,さいたま市浦和区,大東３丁目１３番１５－１号,,11,107,3300043,,,,,,,2022-06-21,1,,,,,ハビット,0
113,1030001148792,新規,0,2022-06-21,2022-06-21,株式会社八光,,株式会社,埼玉県,所沢市,東所沢２丁目３２－２６,,11,208,3590021,,,,,,,2022-06-21,1,,,,,ハチコウ,0
114,1030001148801,新規,0,2022-06-21,2022-06-21,株式会社岡部不動産,,株式会社,埼玉県,ふじみ野市,亀久保１８７６番地,,11,245,3560051,,,,,,,2022-06-21,1,,,,,オカベフドウサン,0
119,1030003019637,新規,0,2022-06-21,2022-06-21,合同会社ＪＡＭＵＮＡ,,合同会社,埼玉県,川口市,戸塚鋏町７番６号市ヶ谷ビル２階,,11,203,3330805,,,,,,,2022-06-21,1,,,,,ジャムナ,0
124,1040001123902,新規,0,2022-06-21,2022-06-21,株式会社ＭＡＳＴＥＲ’Ｓ　ＩＮＴＥＲＮＡＴＩＯＮＡＬ,,株式会社,千葉県,四街道市,大日２３５３番地,,12,228,2840001,,,,,,,2022-06-21,1,,,,,マスターズインターナショナル,0
134,1070001039344,新規,0,2022-06-21,2022-06-21,株式会社ＧＮＭソリューション,,株式会社,群馬県,藤岡市,藤岡１７５７番地３ウエハラビル２０１,,10,209,3750024,,,,,,,2022-06-21,1,,,,,ジーエヌエムソリューション,0
135,1070001039352,新規,0,2022-06-21,2022-06-21,株式会社藤一物産,,株式会社,群馬県,伊勢崎市,境保泉４０５番地５,,10,204,3700128,,,,,,,2022-06-21,1,,,,,フジイチブッサン,0
136,1070003004511,新規,0,2022-06-21,2022-06-21,合同会社田尻商事,,合同会社,群馬県,みどり市,笠懸町阿左美８６１番地１,,10,212,3792311,,,,,,,2022-06-21,1,,,,,タジリショウジ,0
142,1080401025901,新規,0,2022-06-21,2022-06-21,株式会社ニック,,株式会社,静岡県,浜松市東区,大瀬町１７３７番地の１,,22,132,4313113,,,,,,,2022-06-21,1,,,,,ニック,0
143,1080405007466,新規,0,2022-06-21,2022-06-21,司法書士法人仲瀬事務所,,その他の設立登記法人,静岡県,浜松市東区,植松町１４７４番地の９,,22,132,4300803,,,,,,,2022-06-21,1,,,,,ナカセジムショ,0
151,1100001035455,新規,0,2022-06-21,2022-06-21,株式会社アパルトマン,,株式会社,長野県,長野市,上松２丁目２２番８号,,20,201,3800802,,,,,,,2022-06-21,1,,,,,アパルトマン,0
152,1100002007362,新規,0,2022-06-21,2022-06-21,東開発有限会社,,有限会社,長野県,長野市,柳町２８番地,,20,201,3800805,,,,,,,2022-06-21,1,,,,,アズマカイハツ,0
153,1100005012888,新規,0,2022-06-21,2022-06-21,特定非営利活動法人上田福祉事業支援友の会,,その他の設立登記法人,長野県,上田市,吉田５５８番地２,,20,203,3861105,,,,,,,2022-06-21,1,,,,,ウエダフクシジギョウシエントモノカイ,0
165,1120001246760,新規,0,2022-06-21,2022-06-21,株式会社タルトリエ,,株式会社,大阪府,大阪市中央区,平野町２丁目２番７号北浜コンソール６０５,,27,128,5410046,,,,,,,2022-06-21,1,,,,,タルトリエ,0
166,1120001246868,新規,0,2022-06-21,2022-06-21,株式会社美次優,,株式会社,大阪府,大阪市浪速区,稲荷１丁目６－１シャトー湊町３０５号室,,27,111,5560023,,,,,,,2022-06-21,1,,,,,ミジユ,0
171,1120003021939,新規,0,2022-06-21,2022-06-21,合同会社おおさか興業,,合同会社,大阪府,大阪市北区,西天満３丁目４番５号西天満ワークビル７０２号,,27,127,5300047,,,,,,,2022-06-21,1,,,,,オオサカコウギョウ,0
172,1120005023009,新規,0,2022-06-21,2022-06-21,一般社団法人日本ウォーターアクティビティ協会,,その他の設立登記法人,大阪府,枚方市,村野高見台１０番５号,,27,210,5730014,,,,,,,2022-06-21,1,,,,,ニホンウォーターアクティビティキョウカイ,0
175,1120901046129,新規,0,2022-06-21,2022-06-21,株式会社コネクトファーム,,株式会社,大阪府,豊中市,上野西１丁目１番２５号,,27,203,5600011,,,,,,,2022-06-21,1,,,,,コネクトファーム,0
183,1130001071992,新規,0,2022-06-21,2022-06-21,株式会社サンチュール,,株式会社,京都府,京都市下京区,二人司町２１番地２７,,26,106,6008824,,,,,,,2022-06-21,1,,,,,サンチュール,0
195,1140001126424,新規,0,2022-06-21,2022-06-21,株式会社Ｌｅｏｎ,,株式会社,兵庫県,姫路市,城東町４９２番地１１,,28,201,6700841,,,,,,,2022-06-21,1,,,,,レオン,0
196,1140001126432,新規,0,2022-06-21,2022-06-21,株式会社八起,,株式会社,兵庫県,神戸市垂水区,星が丘２丁目３番３７号,,28,108,6550032,,,,,,,2022-06-21,1,,,,,ヤオキ,0
198,1140003017803,新規,0,2022-06-21,2022-06-21,合同会社ＡＷＬ,,合同会社,兵庫県,神戸市北区,有野台３丁目５番の１,,28,109,6511321,,,,,,,2022-06-21,1,,,,,アウル,0
200,1160001024304,新規,0,2022-06-21,2022-06-21,株式会社Ｙ’Ｓリクルート,,株式会社,滋賀県,湖南市,夏見字柳ノ内１００３番地３,,25,211,5203223,,,,,,,2022-06-21,1,,,,,ワイズリクルート,0
205,1180001151815,新規,0,2022-06-21,2022-06-21,キヨナリ企画株式会社,,株式会社,愛知県,清須市,土器野２５３番地７,,23,233,4520914,,,,,,,2022-06-21,1,,,,,キヨナリキカク,0
209,1180003023962,新規,0,2022-06-21,2022-06-21,合同会社ｅｎｄｏｒｐｈｉｎ,,合同会社,愛知県,江南市,赤童子町白山１６－４,,23,217,4838224,,,,,,,2022-06-21,1,,,,,エンドルフィン,0
213,1180301036352,新規,0,2022-06-21,2022-06-21,株式会社Ｔｏｐ　Ｗｏｒｌｄ,,株式会社,愛知県,豊田市,花沢町ヲチ合１１番地３３,,23,211,4443231,,,,,,,2022-06-21,1,,,,,トップワールド,0
221,1200003005594,新規,0,2022-06-21,2022-06-21,合同会社Ｓｉｇｎ　Ｍａｔｅ,,合同会社,岐阜県,高山市,国府町広瀬町２０５番地１－１０１,,21,203,5094119,,,,,,,2022-06-21,1,,,,,サインメイト,0
223,1220003003308,新規,0,2022-06-21,2022-06-21,合同会社キノシタ商会,,合同会社,石川県,金沢市,直江北１丁目７０,,17,201,9208218,,,,,,,2022-06-21,1,,,,,キノシタショウカイ,0
233,1260001036966,新規,0,2022-06-21,2022-06-21,株式会社コチラエ,,株式会社,岡山県,岡山市北区,大内田６７５番地,,33,101,7010165,,,,,,,2022-06-21,1,,,,,コチラエ,0
237,1280001008724,新規,0,2022-06-21,2022-06-21,株式会社野良人間,,株式会社,島根県,安来市,伯太町下小竹９５６－１,,32,206,6920323,,,,,,,2022-06-21,1,,,,,,0
244,1290001097989,新規,0,2022-06-21,2022-06-21,株式会社ナレッジソリューション,,株式会社,福岡県,福岡市博多区,祇園町８番１３号,,40,132,8120038,,,,,,,2022-06-21,1,,,,,ナレッジソリューション,0
245,1290001097997,新規,0,2022-06-21,2022-06-21,Ａｖｅｎｉｒ株式会社,,株式会社,福岡県,福岡市南区,平和１丁目２５番６－１号,,40,134,8150071,,,,,,,2022-06-21,1,,,,,アヴェニール,0
246,1290001098005,新規,0,2022-06-21,2022-06-21,株式会社ＮＫＲ,,株式会社,福岡県,久留米市,東和町５－７－１Ｃ,,40,203,8300035,,,,,,,2022-06-21,1,,,,,エヌケーアール,0
247,1290003012657,新規,0,2022-06-21,2022-06-21,合同会社ＴＲＥＳ＆,,合同会社,福岡県,福岡市東区,香椎駅前１丁目１９番４号２Ｆ－１,,40,131,8130013,,,,,,,2022-06-21,1,,,,,トレスアンド,0
252,1290801028656,新規,0,2022-06-21,2022-06-21,株式会社ＳＨエンジニアリング,,株式会社,福岡県,北九州市小倉南区,長尾２丁目６番２３号,,40,107,8030274,,,,,,,2022-06-21,1,,,,,エスエッチエンジニアリング,0
259,1320005010003,新規,0,2022-06-21,2022-06-21,一般社団法人別府市タクシー協会,,その他の設立登記法人,大分県,別府市,大字南立石２０４２番地の１,,44,202,8740000,,,,,,,2022-06-21,1,,,,,ベップシタクシーキョウカイ,0
271,1340003003832,新規,0,2022-06-21,2022-06-21,エーエヌスライダー合同会社,,合同会社,鹿児島県,薩摩川内市,大小路町４番２３号サンパーク川内１１０１,,46,215,8950076,,,,,,,2022-06-21,1,,,,,エーエヌスライダー,0
278,1370001048703,新規,0,2022-06-21,2022-06-21,株式会社昇輝興業,,株式会社,宮城県,仙台市青葉区,赤坂２丁目２番地の１６,,04,101,9893211,,,,,,,2022-06-21,1,,,,,ショウキコウギョウ,0
282,1380001032912,新規,0,2022-06-21,2022-06-21,株式会社かねひろ商事,,株式会社,福島県,郡山市,堤２丁目２３３番地の２堤２番館３０２号,,07,203,9630205,,,,,,,2022-06-21,1,,,,,カネヒロショウジ,0
284,1380003005206,新規,0,2022-06-21,2022-06-21,万＿合同会社,00126952,合同会社,福島県,いわき市,四倉町上仁井田字雁又４０－１,,07,204,9790202,,,,,,,2022-06-21,1,,,,,マンキン,0
288,1390001016939,新規,0,2022-06-21,2022-06-21,ＡＬＦＡ株式会社,,株式会社,山形県,山形市,小立４丁目１９番５号マンションシオリ１０１号,,06,201,9902402,,,,,,,2022-06-21,1,,,,,アルファ,0
290,1390003001971,新規,0,2022-06-21,2022-06-21,合同会社ＲｅｔｒｅａｔＧｒｏｕｐ,,合同会社,山形県,長井市,本町１丁目８‐７,,06,209,9930007,,,,,,,2022-06-21,1,,,,,リトリートグループ,0
305,1430001086878,新規,0,2022-06-21,2022-06-21,株式会社ノーザンフォレスト,,株式会社,北海道,札幌市清田区,北野四条５丁目２番２５号,,01,110,0040864,,,,,,,2022-06-21,1,,,,,ノーザンフォレスト,0
306,1430001086886,新規,0,2022-06-21,2022-06-21,株式会社リョーゾーコーポレーション,,株式会社,北海道,札幌市中央区,南二十八条西１２丁目２番１５号ＲＥＩＷＡテラス２Ｆ,,01,101,0640928,,,,,,,2022-06-21,1,,,,,リョーゾーコーポレーション,0
307,1430001086894,新規,0,2022-06-21,2022-06-21,松坂食品株式会社,,株式会社,北海道,札幌市豊平区,美園四条２丁目２番１号カリーナハイム２０１号,,01,105,0620004,,,,,,,2022-06-21,1,,,,,マツサカショクヒン,0
308,1430003014036,新規,0,2022-06-21,2022-06-21,合同会社テクノ札幌,,合同会社,北海道,札幌市北区,屯田八条２丁目９番２６号,,01,102,0020858,,,,,,,2022-06-21,1,,,,,テクノサッポロ,0
310,1450003002220,新規,0,2022-06-21,2022-06-21,合同会社ＯＮＥ,,合同会社,北海道,宗谷郡猿払村,知来別４６９０番地３,,01,511,0986341,,,,,,,2022-06-21,1,,,,,ワン,0
313,1470001019124,新規,0,2022-06-21,2022-06-21,株式会社東亜梱包,,株式会社,香川県,綾歌郡宇多津町,２６２８番地８９２サンハイツ宇多津８０６,,37,386,7690210,,,,,,,2022-06-21,1,,,,,トウアコンポウ,0
314,1470003002202,新規,0,2022-06-21,2022-06-21,合同会社松田酒店,,合同会社,香川県,丸亀市,西平山町２８６番地,,37,202,7630041,,,,,,,2022-06-21,1,,,,,マツダサケテン,0
317,1490001010213,新規,0,2022-06-21,2022-06-21,株式会社さくらいペットクリニック,,株式会社,高知県,高知市,桜井町１丁目８番３５号,,39,201,7800821,,,,,,,2022-06-21,1,,,,,サクライペットクリニック,0
321,1700150110205,新規,0,2022-06-21,2022-06-21,ＥＬＩＺＡＢＥＴＨ　ＫＬＩＮＧＥＮＳＭＩＴＨ　Ｐ．Ｃ．,,外国会社等,,,,,,,,２　Ｈｏｕｓｔｏｎ　Ｃｅｎｔｅｒ，　９０９　Ｆａｎｎｉｎ，　Ｓｕｉｔｅ　２０００，　Ｈｏｕｓｔｏｎ，　ＴＸ　７７０１０－１０２８　ＵＳＡ,,,,,,2022-06-21,1,,,,,エリザベスクリンジンスミスピーシー,0
326,2010001227366,新規,0,2022-06-21,2022-06-21,株式会社ＧＴホームズ,,株式会社,東京都,千代田区,二番町９番地３ＴＨＥＢＡＳＥ麹町３階,,13,101,1020084,,,,,,,2022-06-21,1,,,,,ジーティーホームズ,0
327,2010001227473,新規,0,2022-06-21,2022-06-21,株式会社メタバーストレーディング,,株式会社,東京都,千代田区,神田三崎町３丁目３番３号４０４,,13,101,1010061,,,,,,,2022-06-21,1,,,,,メタバーストレーディング,0
328,2010001227515,新規,0,2022-06-21,2022-06-21,株式会社コルサーレ,,株式会社,東京都,文京区,水道１丁目２番１０号,,13,105,1120005,,,,,,,2022-06-21,1,,,,,コルサーレ,0
334,2010005035162,新規,0,2022-06-21,2022-06-21,一般社団法人ＤＳソーラープロジェクトＨＤガンマ,,その他の設立登記法人,東京都,千代田区,丸の内３丁目１番１号東京共同会計事務所内,,13,101,1000005,,,,,,,2022-06-21,1,,,,,ディーエスソーラープロジェクトエイチディーガンマ,0
347,2010401168103,新規,0,2022-06-21,2022-06-21,株式会社ｕｎｒｕｌｙ,,株式会社,東京都,港区,西麻布１丁目２番１４－８０１号,,13,103,1060031,,,,,,,2022-06-21,1,,,,,アンルーリー,0
356,2010703006282,新規,0,2022-06-21,2022-06-21,ＦＲＥＹＲ　Ｂａｔｔｅｒｙ　Ｊａｐａｎ合同会社,,合同会社,東京都,品川区,西大井５丁目１５番２６号,,13,109,1400015,,,,,,,2022-06-21,1,,,,,フレイルバッテリージャパン,0
368,2011001147926,新規,0,2022-06-21,2022-06-21,ウィズ株式会社,,株式会社,東京都,渋谷区,東１丁目２７番１０号,,13,113,1500011,,,,,,,2022-06-21,1,,,,,ウィズ,0
376,2011101099299,新規,0,2022-06-21,2022-06-21,株式会社Ｗｏｒｌｄ　Ｓｔａｎｄａｒｄ,,株式会社,東京都,新宿区,大久保１丁目２番１号天翔オフィス東新宿７０５,,13,104,1690072,,,,,,,2022-06-21,1,,,,,ワールドスタンダード,0
384,2011401024337,新規,0,2022-06-21,2022-06-21,株式会社喜七屋,,株式会社,東京都,板橋区,南常盤台１丁目１１番６号レフア南常盤台１０１号室,,13,119,1740072,,,,,,,2022-06-21,1,,,,,キシチヤ,0
406,2013301049232,新規,0,2022-06-21,2022-06-21,Ｔｅａｌ　Ｃｏｎｓｕｌｔｉｎｇ株式会社,,株式会社,東京都,豊島区,東池袋１丁目１７番１１号パークハイツ池袋１１０５号,,13,116,1700013,,,,,,,2022-06-21,1,,,,,ティールコンサルティング,0
407,2013301049273,新規,0,2022-06-21,2022-06-21,クリエイションメゾン株式会社,,株式会社,東京都,豊島区,長崎１丁目２４番６号,,13,116,1710051,,,,,,,2022-06-21,1,,,,,クリエイションメゾン,0
411,2020001147002,新規,0,2022-06-21,2022-06-21,株式会社ブルーポイント,,株式会社,神奈川県,横浜市青葉区,しらとり台４６番地４０,,14,117,2270054,,,,,,,2022-06-21,1,,,,,ブルーポイント,0
412,2020001147027,新規,0,2022-06-21,2022-06-21,株式会社快創デザイン,,株式会社,神奈川県,横浜市中区,長者町１丁目３番７号長者町福神ビル３階３０１号室,,14,104,2310033,,,,,,,2022-06-21,1,,,,,カイソウデザイン,0
413,2021001076315,新規,0,2022-06-21,2022-06-21,株式会社メビウス,,株式会社,神奈川県,綾瀬市,寺尾北３丁目１２番３７号,,14,218,2521131,,,,,,,2022-06-21,1,,,,,メビウス,0
428,2030001148750,新規,0,2022-06-21,2022-06-21,ソラヴュント株式会社,,株式会社,埼玉県,加須市,戸崎２４０番地１,,11,210,3470108,,,,,,,2022-06-21,1,,,,,ソラヴュント,0
429,2030001148800,新規,0,2022-06-21,2022-06-21,株式会社ＭＩＣ,,株式会社,埼玉県,戸田市,大字新曽２１６６番地（ハック北戸田クレシア５０２号室）,,11,224,3350021,,,,,,,2022-06-21,1,,,,,エムアイシー,0
433,2030003019479,新規,0,2022-06-21,2022-06-21,合同会社Ｃｒｅｘ,,合同会社,埼玉県,深谷市,宿根５０３番地１,,11,218,3660810,,,,,,,2022-06-21,1,,,,,クレックス,0
434,2030003019644,新規,0,2022-06-21,2022-06-21,合同会社ルフェール,,合同会社,埼玉県,川越市,大字砂８８１番地２グランディール１０３号室,,11,201,3501133,,,,,,,2022-06-21,1,,,,,ルフェール,0
436,2030005020897,新規,0,2022-06-21,2022-06-21,ひよこ協同組合,,その他の設立登記法人,埼玉県,さいたま市浦和区,岸町７丁目１２番１号,,11,107,3300064,,,,,,,2022-06-21,1,,,,,ヒヨコ,0
442,2040001123926,新規,0,2022-06-21,2022-06-21,株式会社ＧＭ　ＪＡＰＡＮ,,株式会社,千葉県,八千代市,大和田新田１０７７番地１７１,,12,221,2760046,,,,,,,2022-06-21,1,,,,,ジーエムジャパン,0
457,2080001025004,新規,0,2022-06-21,2022-06-21,株式会社伸和セキュリティ,,株式会社,静岡県,静岡市葵区,瀬名１丁目１６番１号アベニューウ瀬名１０３,,22,101,4200911,,,,,,,2022-06-21,1,,,,,シンワセキュリティ,0
459,2080103002611,新規,0,2022-06-21,2022-06-21,Ｒ＆Ｐジャパン合同会社,,合同会社,静岡県,三島市,西本町４－１３,,22,206,4110847,,,,,,,2022-06-21,1,,,,,アールアンドピージャパン,0
460,2080401025900,新規,0,2022-06-21,2022-06-21,株式会社ＡＫｐｏｗｅｒ,,株式会社,静岡県,御前崎市,塩原新田８３５番地の１サンビレッジ１０７,,22,223,4371614,,,,,,,2022-06-21,1,,,,,エイケイパワー,0
477,2120001246834,新規,0,2022-06-21,2022-06-21,株式会社Ｒｏｕｇｅｔ,,株式会社,大阪府,枚方市,星丘２丁目２番３０号,,27,210,5730013,,,,,,,2022-06-21,1,,,,,ルジェ,0
478,2120001246867,新規,0,2022-06-21,2022-06-21,米粒株式会社,,株式会社,大阪府,大阪市東成区,神路４丁目３－１０スターレジデンス新深江４０２号室,,27,115,5370003,,,,,,,2022-06-21,1,,,,,ベイリュウ,0
483,2120005023008,新規,0,2022-06-21,2022-06-21,一般社団法人日本皮膚病理組織学会,,その他の設立登記法人,大阪府,大阪市阿倍野区,旭町１丁目４番３号大阪公立大学大学院医学研究科皮膚科内,,27,119,5450051,,,,,,,2022-06-21,1,,,,,ニホンヒフビョウリソシキガッカイ,0
490,2122001035985,新規,0,2022-06-21,2022-06-21,株式会社松下興業,,株式会社,大阪府,東大阪市,玉串町東１丁目３番５６号,,27,227,5780932,,,,,,,2022-06-21,1,,,,,マツシタコウギョウ,0
492,2130001071983,新規,0,2022-06-21,2022-06-21,ネオモビ株式会社,,株式会社,京都府,京都市左京区,吉田牛ノ宮町６番地１,,26,103,6068302,,,,,,,2022-06-21,1,,,,,ネオモビ,0
496,2130003008001,新規,0,2022-06-21,2022-06-21,合同会社たなか不動産,,合同会社,京都府,宇治市,槇島町落合２０番地,,26,204,6110041,,,,,,,2022-06-21,1,,,,,タナカフドウサン,0
510,2140001126431,新規,0,2022-06-21,2022-06-21,株式会社ＡＲＧＵＳ,,株式会社,兵庫県,芦屋市,三条南町４－１２ウエストコート芦屋１０１,00126946,28,206,6590086,,,,,,,2022-06-21,1,,,,,アルゴス,0
511,2140001126448,新規,0,2022-06-21,2022-06-21,株式会社凛々建設,,株式会社,兵庫県,神戸市兵庫区,新開地６丁目２番２５号,,28,105,6520811,,,,,,,2022-06-21,1,,,,,リンリンケンセツ,0
512,2140001126464,新規,0,2022-06-21,2022-06-21,株式会社エムワイフーズ,,株式会社,兵庫県,神戸市東灘区,青木６丁目２番１７号,,28,101,6580027,,,,,,,2022-06-21,1,,,,,エムワイフーズ,0
521,2150001025640,新規,0,2022-06-21,2022-06-21,株式会社ＫＲＤサービス,,株式会社,奈良県,北葛城郡上牧町,米山台２丁目３番１３号,,29,424,6390213,,,,,,,2022-06-21,1,,,,,ケイアールディサービス,0
527,2160001024303,新規,0,2022-06-21,2022-06-21,株式会社諸井工業,,株式会社,滋賀県,草津市,東草津１丁目４番５３号吉田ビル３０２,,25,206,5250033,,,,,,,2022-06-21,1,,,,,モロイコウギョウ,0
542,2190001029530,新規,0,2022-06-21,2022-06-21,株式会社ＲＥＡＬ,,株式会社,三重県,四日市市,諏訪栄町４－１０アピカビル３Ｆ,,24,202,5100086,,,,,,,2022-06-21,1,,,,,リアル,0
545,2200001040196,新規,0,2022-06-21,2022-06-21,株式会社ＣＵＢＥ吉城,,株式会社,岐阜県,飛騨市,古川町中野１０５２番地,,21,217,5094262,,,,,,,2022-06-21,1,,,,,キューブヨシキ,0
550,2220003003307,新規,0,2022-06-21,2022-06-21,合同会社蕎味櫂,,合同会社,石川県,金沢市,東山１丁目２３‐１０,,17,201,9200831,,,,,,,2022-06-21,1,,,,,キョウミカイ,0
555,2230003001870,新規,0,2022-06-21,2022-06-21,クラフトベルク合同会社,,合同会社,富山県,富山市,安野屋町１丁目１０番１５号サンレオ安野屋１０６号,,16,201,9300087,,,,,,,2022-06-21,1,,,,,クラフトベルク,0
571,2260001036973,新規,0,2022-06-21,2022-06-21,ＹＡＭＡＭＯＴＯ　ＳＡＬＡＤ株式会社,,株式会社,岡山県,岡山市北区,伊福町１丁目６番１６号,,33,101,7000013,,,,,,,2022-06-21,1,,,,,ヤマモトサラダ,0
576,2290001097988,新規,0,2022-06-21,2022-06-21,株式会社カラーパック,,株式会社,福岡県,福岡市東区,千早４丁目２１－５５－１８０５号,,40,131,8130044,,,,,,,2022-06-21,1,,,,,カラーパック,0
577,2290001097996,新規,0,2022-06-21,2022-06-21,株式会社旭不動産,,株式会社,福岡県,福岡市博多区,麦野５丁目１番１６号,,40,132,8120882,,,,,,,2022-06-21,1,,,,,アサヒフドウサン,0
578,2290001098004,新規,0,2022-06-21,2022-06-21,株式会社亀六商店,,株式会社,福岡県,糸島市,南風台７丁目８番３号,,40,230,8191137,,,,,,,2022-06-21,1,,,,,カメロクショウテン,0
579,2290001098012,新規,0,2022-06-21,2022-06-21,株式会社山内事務所,,株式会社,福岡県,福岡市城南区,長尾３丁目１３番６－３０３号,,40,136,8140123,,,,,,,2022-06-21,1,,,,,ヤマウチジムショ,0
583,2290003012656,新規,0,2022-06-21,2022-06-21,Ｋ‐ｗｏｒｋｓ合同会社,,合同会社,福岡県,福岡市東区,箱崎ふ頭３丁目７番２０－２０１号,,40,131,8120051,,,,,,,2022-06-21,1,,,,,ケイワークス,0
586,2290801028655,新規,0,2022-06-21,2022-06-21,株式会社ＪＡＰＡＮ　ＰＡＣＩＦＩＣ　ＤＩＶＥＲＳ,,株式会社,福岡県,北九州市小倉北区,赤坂３丁目６番２２号１Ｆ,,40,106,8020032,,,,,,,2022-06-21,1,,,,,ジャパンパシフィックダイバーズ,0
588,2310003004394,新規,0,2022-06-21,2022-06-21,合同会社山脇サービス,,合同会社,長崎県,長崎市,西海町８２７番地４,,42,201,8513101,,,,,,,2022-06-21,1,,,,,ヤマワキサービス,0
590,2320003003825,新規,0,2022-06-21,2022-06-21,合同会社アイセンス,,合同会社,大分県,国東市,国東町鶴川１２４６番地,,44,214,8730503,,,,,,,2022-06-21,1,,,,,アイセンス,0
591,2330001029854,新規,0,2022-06-21,2022-06-21,株式会社アナン,,株式会社,熊本県,熊本市中央区,西子飼町４番１７－１号,,43,101,8600853,,,,,,,2022-06-21,1,,,,,アナン,0
601,2370001048702,新規,0,2022-06-21,2022-06-21,宝沢設備株式会社,,株式会社,宮城県,仙台市太白区,西中田３丁目２番３６号アメニティ南仙台１－２０７,,04,104,9811105,,,,,,,2022-06-21,1,,,,,ホウザワセツビ,0
602,2370003005742,新規,0,2022-06-21,2022-06-21,合同会社ＰＨＡＮＴＯＭ　ＡＰＥＣ,,合同会社,宮城県,東松島市,赤井字新川前２６番地１,,04,214,9810501,,,,,,,2022-06-21,1,,,,,ファントムエイペック,0
608,2380001032903,新規,0,2022-06-21,2022-06-21,株式会社Ｂａｌｉｍ,,株式会社,福島県,会津若松市,緑町８番６２号,,07,202,9650867,,,,,,,2022-06-21,1,,,,,バルム,0
612,2390001016938,新規,0,2022-06-21,2022-06-21,株式会社ｔａｋｅｍｏ,,株式会社,山形県,山形市,飯田西４丁目４番１７号ほなみビル１Ｆ,,06,201,9902331,,,,,,,2022-06-21,1,,,,,タケモ,0
619,2420001017890,新規,0,2022-06-21,2022-06-21,株式会社北陽建設工業,,株式会社,青森県,青森市,浪岡大字増館字富岡１７６番地２,,02,201,0381333,,,,,,,2022-06-21,1,,,,,ホクヨウケンセツコウギョウ,0
620,2420003002536,新規,0,2022-06-21,2022-06-21,合同会社ゆらっくすコーポレーション,,合同会社,青森県,八戸市,白銀２丁目７番地４,,02,203,0310821,,,,,,,2022-06-21,1,,,,,ユラックスコーポレーション,0
625,2430001086877,新規,0,2022-06-21,2022-06-21,株式会社ＭＩＴＯＭＩ北海道,,株式会社,北海道,札幌市中央区,北三条東５丁目５番地岩佐ビル２階,,01,101,0600033,,,,,,,2022-06-21,1,,,,,ミトミホッカイドウ,0
626,2430003014027,新規,0,2022-06-21,2022-06-21,合同会社肉の菜味亭,,合同会社,北海道,北広島市,白樺町１丁目８番地６,,01,234,0611144,,,,,,,2022-06-21,1,,,,,ニクノナミテイ,0
631,2460103001467,新規,0,2022-06-21,2022-06-21,合同会社ＦＲＵＩ,,合同会社,北海道,帯広市,東一条南６丁目４番地１,,01,207,0800801,,,,,,,2022-06-21,1,,,,,フルイ,0
636,2490003001671,新規,0,2022-06-21,2022-06-21,合同会社Ａ．ａｎｄ．Ｄ,,合同会社,高知県,高知市,針木東町２０番２号,,39,201,7808086,,,,,,,2022-06-21,1,,,,,エーアンドディー,0
639,2700150110204,新規,0,2022-06-21,2022-06-21,ＡＮＴＨＯＮＹ　ＧＵＥＲＩＮＯ　Ｐ．Ｃ．,,外国会社等,,,,,,,,２　Ｈｏｕｓｔｏｎ　Ｃｅｎｔｅｒ，　９０９　Ｆａｎｎｉｎ，　Ｓｕｉｔｅ　２０００，　Ｈｏｕｓｔｏｎ，　ＴＸ　７７０１０－１０２８　ＵＳＡ,,,,,,2022-06-21,1,,,,,アントニーギヤリンノピーシー,0
656,3010005035161,新規,0,2022-06-21,2022-06-21,一般社団法人スプリングジー,,その他の設立登記法人,東京都,千代田区,丸の内３丁目１番１号東京共同会計事務所内,,13,101,1000005,,,,,,,2022-06-21,1,,,,,スプリングジー,0
660,3010401167467,新規,0,2022-06-21,2022-06-21,Ｒｅｌａｔｉｖ　Ｈｏｌｄｉｎｇｓ株式会社,,株式会社,東京都,港区,虎ノ門５丁目１３番１号７階,,13,103,1050001,,,,,,,2022-06-21,1,,,,,リラティブホールディングス,0
661,3010401168119,新規,0,2022-06-21,2022-06-21,株式会社ＢＵＺＺ　ＧＲＯＵＮＤ,,株式会社,東京都,港区,赤坂２丁目１３番２０号,,13,103,1070052,,,,,,,2022-06-21,1,,,,,バズグラウンド,0
663,3010403027958,新規,0,2022-06-21,2022-06-21,合同会社こたつ,,合同会社,東京都,港区,六本木３丁目１６番１９－１２０２号,,13,103,1060032,,,,,,,2022-06-21,1,,,,,コタツ,0
666,3010501048996,新規,0,2022-06-21,2022-06-21,藍時代株式会社,,株式会社,東京都,台東区,東上野３丁目２８－４－６０３号室,,13,106,1100015,,,,,,,2022-06-21,1,,,,,アイジダイ,0
673,3010603009599,新規,0,2022-06-21,2022-06-21,ＷＩＹ商事合同会社,,合同会社,東京都,江東区,毛利２丁目１０番１３－６０１号,,13,108,1350001,,,,,,,2022-06-21,1,,,,,ダブリューアイワイショウジ,0
674,3010701042840,新規,0,2022-06-21,2022-06-21,株式会社協和企画,,株式会社,東京都,品川区,北品川１丁目１７番２号,,13,109,1400001,,,,,,,2022-06-21,1,,,,,キョウワキカク,0
675,3010701042849,新規,0,2022-06-21,2022-06-21,株式会社ＲｅＡＬ,,株式会社,東京都,品川区,小山２丁目１２番１１号ＭＥＧＵＲＯＰＡＲＫＨＩＬＬＳ１０６,,13,109,1420062,,,,,,,2022-06-21,1,,,,,リアル,0
695,3011003014875,新規,0,2022-06-21,2022-06-21,合同会社Ｓａｉｄｅｒ,,合同会社,東京都,渋谷区,神宮前６丁目２３番４号桑野ビル２階,,13,113,1500001,,,,,,,2022-06-21,1,,,,,サイダー,0
696,3011005009618,新規,0,2022-06-21,2022-06-21,一般社団法人いきいきライフ協会渋谷第一,,その他の設立登記法人,東京都,渋谷区,渋谷１丁目３番１８号ビラモデルナＡ２１０,,13,113,1500002,,,,,,,2022-06-21,1,,,,,イキイキライフキョウカイシブヤダイイチ,0
699,3011101099281,新規,0,2022-06-21,2022-06-21,ＷＩＮＥＸ株式会社,,株式会社,東京都,新宿区,西早稲田２丁目４番２６号５階,,13,104,1690051,,,,,,,2022-06-21,1,,,,,ウィーネックス,0
700,3011101099298,新規,0,2022-06-21,2022-06-21,ＳＡＫＵＲＡ　Ｓ９株式会社,,株式会社,東京都,新宿区,高田馬場２丁目１９番７号タックイレブン高田馬場９０６号室,,13,104,1690075,,,,,,,2022-06-21,1,,,,,,0
701,3011105010285,新規,0,2022-06-21,2022-06-21,特定非営利活動法人デジタル教育協会,,その他の設立登記法人,東京都,新宿区,新宿５丁目１１－３０,,13,104,1600022,,,,,,,2022-06-21,1,,,,,デジタルキョウイクキョウカイ,0
702,3011301027868,新規,0,2022-06-21,2022-06-21,Ｈａｎｄａホールディングス株式会社,,株式会社,東京都,杉並区,西荻南２丁目２０番９号,,13,115,1670053,,,,,,,2022-06-21,1,,,,,ハンダホールディングス,0
703,3011401024336,新規,0,2022-06-21,2022-06-21,株式会社右あがり,,株式会社,東京都,板橋区,志村２丁目１６番２号,,13,119,1740056,,,,,,,2022-06-21,1,,,,,ミギアガリ,0
706,3011403003701,新規,0,2022-06-21,2022-06-21,合同会社ＮＯＢＩＳＯＮ,,合同会社,東京都,板橋区,仲町２９番１２第２コーポセブン１０１号,,13,119,1730022,,,,,,,2022-06-21,1,,,,,ノビソン,0
708,3011505002477,新規,0,2022-06-21,2022-06-21,特定非営利活動法人ダンスウェーブ,,その他の設立登記法人,東京都,荒川区,西日暮里５丁目３０番６号,,13,118,1160013,,,,,,,2022-06-21,1,,,,,ダンスウェーブ,0
717,3012401039324,新規,0,2022-06-21,2022-06-21,株式会社ｌｉｖｅａｒｔｈ,,株式会社,東京都,調布市,多摩川５丁目８番地２,,13,208,1820025,,,,,,,2022-06-21,1,,,,,リバース,0
718,3012405004753,新規,0,2022-06-21,2022-06-21,特定非営利活動法人エスポート,,その他の設立登記法人,東京都,府中市,若松町４丁目３番２号河内ビル２０１,,13,206,1830005,,,,,,,2022-06-21,1,,,,,エスポート,0
720,3012801021666,新規,0,2022-06-21,2022-06-21,ＩＫＥ株式会社,,株式会社,東京都,東大和市,向原４丁目７番地の４,,13,220,2070013,,,,,,,2022-06-21,1,,,,,アイケーイー,0
723,3020001146985,新規,0,2022-06-21,2022-06-21,株式会社テックメンテサービス,,株式会社,神奈川県,川崎市宮前区,西野川２丁目２２－４７グリーンフィールド石川１０２,,14,136,2160044,,,,,,,2022-06-21,1,,,,,テックメンテサービス,0
724,3020001147001,新規,0,2022-06-21,2022-06-21,株式会社ＴＨＥ　ＳＵＮ,,株式会社,神奈川県,横浜市神奈川区,浦島丘１７番地１横浜浦島丘ヒルズ１０４号,,14,102,2210062,,,,,,,2022-06-21,1,,,,,ザサン,0
725,3020001147026,新規,0,2022-06-21,2022-06-21,株式会社ビー・ケース,,株式会社,神奈川県,川崎市高津区,坂戸３丁目２番１号,,14,134,2130012,,,,,,,2022-06-21,1,,,,,ビーケース,0
726,3020001147034,新規,0,2022-06-21,2022-06-21,株式会社ヘルマン,,株式会社,神奈川県,横浜市旭区,中希望が丘１０５番地２２,,14,112,2410825,,,,,,,2022-06-21,1,,,,,ヘルマン,0
760,3030005020896,新規,0,2022-06-21,2022-06-21,一般社団法人乳幼児アレルギーケア協会,,その他の設立登記法人,埼玉県,さいたま市大宮区,桜木町１丁目３６６－９大宮西口ビル２Ｆ,,11,103,3300854,,,,,,,2022-06-21,1,,,,,ニュウヨウジアレルギーケアキョウカイ,0
774,3070001039326,新規,0,2022-06-21,2022-06-21,株式会社マルチライフ,,株式会社,群馬県,館林市,近藤町８０７番地,,10,207,3740042,,,,,,,2022-06-21,1,,,,,マルチライフ,0
775,3070001039350,新規,0,2022-06-21,2022-06-21,株式会社マツオカプランニング,,株式会社,群馬県,前橋市,上新田町９１８番地６,,10,201,3710821,,,,,,,2022-06-21,1,,,,,マツオカプランニング,0
781,3080401025899,新規,0,2022-06-21,2022-06-21,丸晃工業株式会社,,株式会社,静岡県,浜松市南区,小沢渡町８１６番地,,22,134,4328063,,,,,,,2022-06-21,1,,,,,マルコウコウギョウ,0
783,3100001035445,新規,0,2022-06-21,2022-06-21,株式会社Ａ・Ｓ・Ｃ,,株式会社,長野県,安曇野市,豊科４６８２番地３プラザ寿２階３号,,20,220,3998205,,,,,,,2022-06-21,1,,,,,エーエスシー,0
784,3100001035461,新規,0,2022-06-21,2022-06-21,株式会社佑建,,株式会社,長野県,上水内郡飯綱町,大字倉井２０７２番地１,,20,590,3891204,,,,,,,2022-06-21,1,,,,,ユウケン,0
799,3120001246791,新規,0,2022-06-21,2022-06-21,株式会社フィオデザイン,,株式会社,大阪府,寝屋川市,秦町３０番２５号,,27,215,5720848,,,,,,,2022-06-21,1,,,,,フィオデザイン,0
800,3120001246825,新規,0,2022-06-21,2022-06-21,株式会社天満橋経営,,株式会社,大阪府,大阪市中央区,島町１丁目４番８号カノヤビル１０階,,27,128,5400034,,,,,,,2022-06-21,1,,,,,テンマバシケイエイ,0
801,3120001246858,新規,0,2022-06-21,2022-06-21,株式会社功,,株式会社,大阪府,大阪市浪速区,稲荷１丁目６－１シャトー湊町３０３号室,,27,111,5560023,,,,,,,2022-06-21,1,,,,,イサオ,0
802,3120001246866,新規,0,2022-06-21,2022-06-21,宇川株式会社,,株式会社,大阪府,大阪市東成区,神路４丁目３－１０スターレジデンス新深江２０８号室,,27,115,5370003,,,,,,,2022-06-21,1,,,,,ウガワ,0
807,3120003021887,新規,0,2022-06-21,2022-06-21,ルーベルウエルネス合同会社,,合同会社,大阪府,大阪市北区,中崎西２丁目３番３９号,,27,127,5300015,,,,,,,2022-06-21,1,,,,,ルーベルウエルネス,0
810,3120005023007,新規,0,2022-06-21,2022-06-21,一般社団法人エール,,その他の設立登記法人,大阪府,大阪市浪速区,立葉１丁目４番７－３０１号,,27,111,5560020,,,,,,,2022-06-21,1,,,,,エール,0
811,3120101065786,新規,0,2022-06-21,2022-06-21,ＵＮＡＲＩ株式会社,,株式会社,大阪府,貝塚市,橋本６２５番地５,,27,208,5970043,,,,,,,2022-06-21,1,,,,,ウナリ,0
817,3120903004198,新規,0,2022-06-21,2022-06-21,ＯＭＳ合同会社,,合同会社,大阪府,豊中市,南桜塚２丁目１３番１－８０６号,,27,203,5610882,,,,,,,2022-06-21,1,,,,,オーエムエス,0
818,3130001071974,新規,0,2022-06-21,2022-06-21,株式会社Ｋａｋｙｏ,,株式会社,京都府,京都市東山区,三条白川橋東入四丁目中之町２０３Ｓｃｈｉｌｆ神宮道１Ｆ,,26,105,6050000,,,,,,,2022-06-21,1,,,,,カキョウ,0
819,3130003008009,新規,0,2022-06-21,2022-06-21,合同会社Ｃｒａｆｔｍａｎ　Ｆａｃｉｌｉｔｙ,,合同会社,京都府,京都市左京区,静市市原町９１０番地６０,,26,103,6011123,,,,,,,2022-06-21,1,,,,,クラフトマンファシリティー,0
832,3140001126406,新規,0,2022-06-21,2022-06-21,株式会社しぇのん,,株式会社,兵庫県,西宮市,天道町１９－１２オリーブ２、２０１号,,28,204,6638104,,,,,,,2022-06-21,1,,,,,シェノン,0
835,3140003017801,新規,0,2022-06-21,2022-06-21,合同会社Ｓｏｔｅｒ,,合同会社,兵庫県,神戸市西区,井吹台東町１丁目３番地２－１７０４号,,28,111,6512242,,,,,,,2022-06-21,1,,,,,ソテル,0
843,3180001151838,新規,0,2022-06-21,2022-06-21,株式会社平川建設,,株式会社,愛知県,愛知郡東郷町,大字春木字上針廻間５８８－３０９,,23,302,4700162,,,,,,,2022-06-21,1,,,,,ヒラカワケンセツ,0
846,3180301036350,新規,0,2022-06-21,2022-06-21,株式会社朝倉商店,,株式会社,愛知県,豊橋市,上野町字新上野１２番地の２,,23,201,4418157,,,,,,,2022-06-21,1,,,,,アサクラショウテン,0
854,3200001040204,新規,0,2022-06-21,2022-06-21,株式会社ＬＡＮＤ　ＰＯＲＴＥＲ,,株式会社,岐阜県,岐阜市,柳津町本郷３丁目２７番地奥村ビル２－Ｂ,,21,201,5016104,,,,,,,2022-06-21,1,,,,,ランドポーター,0
859,3220003003306,新規,0,2022-06-21,2022-06-21,合同会社ＮＯＡＨ,,合同会社,石川県,加賀市,山代温泉北部１丁目９９番地アルファステージ１０１号室,,17,206,9220243,,,,,,,2022-06-21,1,,,,,ノア,0
870,3260001036972,新規,0,2022-06-21,2022-06-21,株式会社翔華商事,,株式会社,岡山県,岡山市中区,江並３８０‐１,,33,102,7028004,,,,,,,2022-06-21,1,,,,,ショウカショウジ,0
879,3290001098003,新規,0,2022-06-21,2022-06-21,株式会社デンセツエフ,,株式会社,福岡県,糸島市,荻浦６２４番地１,,40,230,8191121,,,,,,,2022-06-21,1,,,,,デンセツエフ,0
880,3290001098011,新規,0,2022-06-21,2022-06-21,株式会社ＲＩＷＢ,,株式会社,福岡県,福岡市西区,周船寺１丁目１３－３８－２０２,,40,135,8190373,,,,,,,2022-06-21,1,,,,,リウェビー,0
886,3290801028646,新規,0,2022-06-21,2022-06-21,株式会社ＫＹ会計,,株式会社,福岡県,北九州市小倉北区,愛宕１丁目３番３号以和貴ビル９０３号室,,40,106,8030828,,,,,,,2022-06-21,1,,,,,ケーワイカイケイ,0
887,3290801028654,新規,0,2022-06-21,2022-06-21,株式会社ＧＯＥＮ,,株式会社,福岡県,北九州市八幡西区,東鳴水５丁目２番４０号,,40,109,8060051,,,,,,,2022-06-21,1,,,,,ゴエン,0
892,3310001017918,新規,0,2022-06-21,2022-06-21,株式会社Ｒｉｃｋｅｎ,,株式会社,長崎県,長崎市,築町５番１７号サイモンサウスビル１１０号,,42,201,8500877,,,,,,,2022-06-21,1,,,,,リッケン,0
894,3310003004393,新規,0,2022-06-21,2022-06-21,合同会社Ｓｔｙｌｅ　Ｂｅ　Ｏｆｆｉｃｅ,,合同会社,長崎県,長崎市,若草町１８番１０－１６０７号,,42,201,8528023,,,,,,,2022-06-21,1,,,,,スタイルビーオフィス,0
897,3310005008616,新規,0,2022-06-21,2022-06-21,特定非営利活動法人長崎てんかんグループ,,その他の設立登記法人,長崎県,大村市,久原２丁目１００１番地１,,42,205,8560835,,,,,,,2022-06-21,1,,,,,ナガサキテンカングループ,0
898,3320001019153,新規,0,2022-06-21,2022-06-21,株式会社ＳＨＩＰ,,株式会社,大分県,大分市,金池町２丁目１番１０号ウォーカービル大分駅前４Ｆ－Ｈ,,44,201,8700026,,,,,,,2022-06-21,1,,,,,シップ,0
901,3330001029853,新規,0,2022-06-21,2022-06-21,損保ＡＩ鑑定株式会社,,株式会社,熊本県,熊本市中央区,水道町４番３号ＤＯＲＯビル地下２Ｆ,,43,101,8600844,,,,,,,2022-06-21,1,,,,,ソンポエーアイカンテイ,0
910,3360005006672,新規,0,2022-06-21,2022-06-21,一般社団法人ＥａｒｔｈのＣＯＣＯＲＯ,,その他の設立登記法人,沖縄県,石垣市,字大川２７８番地ＴＡＭＡビルＩＩ２０１号室,00126944,47,207,9070022,,,,,,,2022-06-21,1,,,,,アースノココロ,0
912,3370001048701,新規,0,2022-06-21,2022-06-21,株式会社Ｉｍａｇｅ,,株式会社,宮城県,名取市,堀内字梅２８番地の６,,04,207,9892412,,,,,,,2022-06-21,1,,,,,イメージ,0
913,3370005010500,新規,0,2022-06-21,2022-06-21,農事組合法人アグリホープ米泉,,その他の設立登記法人,宮城県,加美郡加美町,米泉字坂ノ上３番地,,04,445,9814415,,,,,,,2022-06-21,1,,,,,アグリホープコメイズミ,0
922,3380003005204,新規,0,2022-06-21,2022-06-21,合同会社ＯＮＯＤＡ,,合同会社,福島県,福島市,御山町１番１６号セトルグリー２－Ａ号室,,07,201,9608012,,,,,,,2022-06-21,1,,,,,オノダ,0
932,3430001086876,新規,0,2022-06-21,2022-06-21,株式会社あき山商会,,株式会社,北海道,苫小牧市,字錦岡１５０番地の１,,01,213,0591275,,,,,,,2022-06-21,1,,,,,アキヤマショウカイ,0
933,3430001086892,新規,0,2022-06-21,2022-06-21,株式会社ＭＯＣＨＩＣＨＩ,,株式会社,北海道,江別市,文京台東町３８番地の３,,01,217,0690834,,,,,,,2022-06-21,1,,,,,モチチ,0
934,3430003014026,新規,0,2022-06-21,2022-06-21,合同会社ＳＡＴＯ,,合同会社,北海道,札幌市白石区,平和通８丁目南４番１号,,01,104,0030028,,,,,,,2022-06-21,1,,,,,サトウ,0
942,3700150110203,新規,0,2022-06-21,2022-06-21,ＢＥＮＪＡＭＩＮ　ＢＥＲＮＥＬＬ，Ｐ．Ｃ．,,外国会社等,,,,,,,,２　Ｈｏｕｓｔｏｎ　Ｃｅｎｔｅｒ，　９０９　Ｆａｎｎｉｎ，　Ｓｕｉｔｅ　２０００，　Ｈｏｕｓｔｏｎ，　ＴＸ　７７０１０－１０２８　ＵＳＡ,,,,,,2022-06-21,1,,,,,ベンジヤミンベネルピーシー,0
959,4010001227538,新規,0,2022-06-21,2022-06-21,株式会社エルティー,,株式会社,東京都,千代田区,大手町１丁目２番１号,,13,101,1000004,,,,,,,2022-06-21,1,,,,,エルティー,0
960,4010001227554,新規,0,2022-06-21,2022-06-21,株式会社Ｍｅｉｖｉ,,株式会社,東京都,中央区,晴海３丁目６番８－４６０６号,,13,102,1040053,,,,,,,2022-06-21,1,,,,,メイヴィー,0
984,4010701042848,新規,0,2022-06-21,2022-06-21,株式会社あかりえ,,株式会社,東京都,品川区,戸越１丁目１４番８号,,13,109,1420041,,,,,,,2022-06-21,1,,,,,アカリエ,0
989,4010901051070,新規,0,2022-06-21,2022-06-21,山市産業株式会社,,株式会社,東京都,世田谷区,瀬田３丁目７番３号,,13,112,1580095,,,,,,,2022-06-21,1,,,,,,0
1002,4011703003177,新規,0,2022-06-21,2022-06-21,合同会社林直人商事,,合同会社,東京都,江戸川区,西葛西８丁目２番１－１２１０号,,13,123,1340088,,,,,,,2022-06-21,1,,,,,ハヤシナオトショウジ,0
1009,4012401039323,新規,0,2022-06-21,2022-06-21,株式会社Ｂａｌｏｎ,,株式会社,東京都,三鷹市,下連雀４丁目２２－１７三鷹ガーデンハウス１３０１,,13,204,1810013,,,,,,,2022-06-21,1,,,,,バロン,0
1011,4012403005447,新規,0,2022-06-21,2022-06-21,合同会社ＷＯＮＤＥＲＬＡＮＤ,,合同会社,東京都,三鷹市,井の頭２丁目４番１６号パークサイド井の頭２０１,,13,204,1810001,,,,,,,2022-06-21,1,,,,,ワンダーランド,0
1015,4012803002812,新規,0,2022-06-21,2022-06-21,オフィス蔦谷合同会社,00126953,合同会社,東京都,昭島市,昭和町５丁目１１番６号,,13,207,1960015,,,,,,,2022-06-21,1,,,,,オフィスツタヤ,0
1025,4020001146984,新規,0,2022-06-21,2022-06-21,株式会社ココサナ,,株式会社,神奈川県,横浜市南区,六ツ川２丁目１２６番４号,,14,105,2320066,,,,,,,2022-06-21,1,,,,,ココサナ,0
1026,4020001146992,新規,0,2022-06-21,2022-06-21,東力株式会社,,株式会社,神奈川県,川崎市川崎区,小川町１６－１７－５０２,,14,131,2100023,,,,,,,2022-06-21,1,,,,,トウリョク,0
1027,4020001147025,新規,0,2022-06-21,2022-06-21,アビイ・ロード株式会社,,株式会社,神奈川県,横浜市港北区,綱島東３丁目２番２３－２１０号,,14,109,2230052,,,,,,,2022-06-21,1,,,,,アビイロード,0
1037,4020003021962,新規,0,2022-06-21,2022-06-21,ＳＥＮＡＮＡＹＡＫＡ　ＩＮＴＥＲＮＡＴＩＯＮＡＬ合同会社,,合同会社,神奈川県,川崎市多摩区,南生田７丁目９－５ルミエール市村１０２号室,,14,135,2140036,,,,,,,2022-06-21,1,,,,,セナナヤカインターナショナル,0
1038,4020003021970,新規,0,2022-06-21,2022-06-21,合同会社わかる塾,,合同会社,神奈川県,横浜市神奈川区,金港町１番地１１－６０３号,,14,102,2210056,,,,,,,2022-06-21,1,,,,,ワカルジュク,0
1039,4020003021987,新規,0,2022-06-21,2022-06-21,合同会社Ｊ　ＧＡＲＥＧＥ,,合同会社,神奈川県,横浜市南区,清水ケ丘２３４番地,,14,105,2320007,,,,,,,2022-06-21,1,,,,,ジェイガレッジ,0
1048,4021003011846,新規,0,2022-06-21,2022-06-21,Ｊ．Ｋ商会合同会社,,合同会社,神奈川県,高座郡寒川町,大蔵３４７６番地１,,14,321,2530104,,,,,,,2022-06-21,1,,,,,ジェイケイショウカイ,0
1055,4030001148765,新規,0,2022-06-21,2022-06-21,株式会社アストラクト,,株式会社,埼玉県,八潮市,大字鶴ケ曽根９１８番地メゾンダージューボ１０２号室,,11,234,3400802,,,,,,,2022-06-21,1,,,,,アストラクト,0
1056,4030001148798,新規,0,2022-06-21,2022-06-21,株式会社ザビ,,株式会社,埼玉県,富士見市,水谷東３丁目２８番５号,,11,235,3540013,,,,,,,2022-06-21,1,,,,,ザビ,0
1060,4030003019601,新規,0,2022-06-21,2022-06-21,合同会社コロレアール,,合同会社,埼玉県,さいたま市南区,鹿手袋４丁目１２番１２号４０５,,11,108,3360031,,,,,,,2022-06-21,1,,,,,コロレアール,0
1061,4030003019634,新規,0,2022-06-21,2022-06-21,合同会社Ｓ‐Ｈ‐Ｅ‐Ｌ,,合同会社,埼玉県,深谷市,荒川２６８番地,,11,218,3691245,,,,,,,2022-06-21,1,,,,,シェル,0
1068,4040003020302,新規,0,2022-06-21,2022-06-21,秋葉圧接合同会社,,合同会社,千葉県,千葉市緑区,茂呂町４０８番地,,12,105,2660023,,,,,,,2022-06-21,1,,,,,アキバアッセツ,0
1073,4060003004113,新規,0,2022-06-21,2022-06-21,ＣｏｎｎｅｃｔＸ合同会社,,合同会社,栃木県,下都賀郡壬生町,大字壬生甲３８０３－４４,,09,361,3210214,,,,,,,2022-06-21,1,,,,,コネクトクロス,0
1082,4080001025027,新規,0,2022-06-21,2022-06-21,株式会社Ｂｅｅ　ｕｐ,,株式会社,静岡県,静岡市駿河区,富士見台１丁目１７番２１－２０７号,,22,102,4228026,,,,,,,2022-06-21,1,,,,,ビーアップ,0
1084,4080101023368,新規,0,2022-06-21,2022-06-21,株式会社バズハウス,,株式会社,静岡県,三島市,本町２－４,,22,206,4110855,,,,,,,2022-06-21,1,,,,,バズハウス,0
1086,4090005007499,新規,0,2022-06-21,2022-06-21,一般社団法人天子七廟観光協会,,その他の設立登記法人,山梨県,富士吉田市,大明見３３３５番地,,19,202,4030003,,,,,,,2022-06-21,1,,,,,テンシナナビョウカンコウキョウカイ,0
1087,4100003006591,新規,0,2022-06-21,2022-06-21,合同会社みやけん,,合同会社,長野県,北安曇郡白馬村,大字北城３０２０番地８６８,,20,485,3999301,,,,,,,2022-06-21,1,,,,,ミヤケン,0
1098,4120001246543,新規,0,2022-06-21,2022-06-21,トリイサーチ株式会社,,株式会社,大阪府,大阪市北区,天満２丁目１１番４号内田ビル３Ｆ大阪ＥＣＳサロン,,27,127,5300043,,,,,,,2022-06-21,1,,,,,トリイサーチ,0
1099,4120001246766,新規,0,2022-06-21,2022-06-21,和利株式会社,,株式会社,大阪府,大阪市西成区,花園南１丁目１１番１８号１０２号室,,27,122,5570015,,,,,,,2022-06-21,1,,,,,,0
1100,4120001246824,新規,0,2022-06-21,2022-06-21,株式会社ＦＵＬＬ　ＦＵＮ,,株式会社,大阪府,大阪市西区,江之子島１丁目７－３奥内阿波座駅前１１１１号室,,27,106,5500006,,,,,,,2022-06-21,1,,,,,フルファン,0
1101,4120001246857,新規,0,2022-06-21,2022-06-21,綿延株式会社,,株式会社,大阪府,大阪市東成区,神路４丁目３－１０スターレジデンス新深江５０２,,27,115,5370003,,,,,,,2022-06-21,1,,,,,メンエン,0
1102,4120001246865,新規,0,2022-06-21,2022-06-21,麓北株式会社,,株式会社,大阪府,大阪市北区,天満２丁目１－１２天満橋ＳＥビル４階,,27,127,5300043,,,,,,,2022-06-21,1,,,,,レイホク,0
1108,4120101065785,新規,0,2022-06-21,2022-06-21,株式会社なるなる,,株式会社,大阪府,堺市北区,常磐町３丁７番地２１,,27,146,5918001,,,,,,,2022-06-21,1,,,,,ナルナル,0
1115,4130001071998,新規,0,2022-06-21,2022-06-21,株式会社Ｎ‐ｐｌａｃｅ,,株式会社,京都府,京都市中京区,夷川通堺町東入ル亀屋町１６３番地２Ｍｅ１ｓｔｂｌｄｇ２Ｆ,,26,104,6040000,,,,,,,2022-06-21,1,,,,,エヌプレイス,0
1131,4140001126339,新規,0,2022-06-21,2022-06-21,株式会社肉の丹波屋,,株式会社,兵庫県,丹波市,春日町黒井８９２番地,,28,223,6694141,,,,,,,2022-06-21,1,,,,,ニクノタンバヤ,0
1132,4140001126438,新規,0,2022-06-21,2022-06-21,株式会社ウェルクリエイト,,株式会社,兵庫県,神戸市灘区,鶴甲２丁目１１番１－２０６号,,28,102,6570011,,,,,,,2022-06-21,1,,,,,ウェルクリエイト,0
1140,4160001024301,新規,0,2022-06-21,2022-06-21,株式会社コレット,,株式会社,滋賀県,草津市,若竹町１番２号,,25,206,5250031,,,,,,,2022-06-21,1,,,,,コレット,0
1141,4160003002602,新規,0,2022-06-21,2022-06-21,合同会社ラック,,合同会社,滋賀県,大津市,大石東３丁目８番１２号,,25,201,5202264,,,,,,,2022-06-21,1,,,,,ラック,0
1142,4170001017163,新規,0,2022-06-21,2022-06-21,株式会社島設備,,株式会社,和歌山県,和歌山市,榎原７６番地１,,30,201,6408434,,,,,,,2022-06-21,1,,,,,シマセツビ,0
1155,4180301036358,新規,0,2022-06-21,2022-06-21,株式会社あつみ田原ファーム,,株式会社,愛知県,田原市,野田町西荒古２３番地,,23,231,4413432,,,,,,,2022-06-21,1,,,,,アツミタハラファーム,0
1161,4200003005591,新規,0,2022-06-21,2022-06-21,合同会社ＬｉｆｅＢｌｅｎｄ,,合同会社,岐阜県,岐阜市,須賀１丁目１番７号,,21,201,5008289,,,,,,,2022-06-21,1,,,,,ライフブレンド,0
1163,4220003003305,新規,0,2022-06-21,2022-06-21,合同会社ｃｏｌｏｒｅｒ,,合同会社,石川県,金沢市,八日市出町２４３番地１０,,17,201,9218063,,,,,,,2022-06-21,1,,,,,クロレ,0
1166,4230001019418,新規,0,2022-06-21,2022-06-21,高山創建株式会社,,株式会社,富山県,富山市,呉羽町６４４４番地８,,16,201,9300138,,,,,,,2022-06-21,1,,,,,タカヤマソウケン,0
1172,4240001059966,新規,0,2022-06-21,2022-06-21,株式会社Ｗｐｉａ,,株式会社,広島県,呉市,吉浦東本町２丁目７－３７,,34,202,7370852,,,,,,,2022-06-21,1,,,,,ピア,0
1182,4260005011104,新規,0,2022-06-21,2022-06-21,一般社団法人ＧＲＩＭＰ　ＪＡＰＡＮ,,その他の設立登記法人,岡山県,総社市,中原５１２番地２,,33,208,7191133,,,,,,,2022-06-21,1,,,,,グリンプジャパン,0
1188,4290001097986,新規,0,2022-06-21,2022-06-21,株式会社Ｌａｕｌｅ’ａ,,株式会社,福岡県,福岡市中央区,白金１丁目２番１３号,,40,133,8100012,,,,,,,2022-06-21,1,,,,,ラウレア,0
1189,4290001098002,新規,0,2022-06-21,2022-06-21,グランドライフ株式会社,,株式会社,福岡県,大野城市,白木原１丁目１３番６－６０１号コアマンション白木原,,40,219,8160943,,,,,,,2022-06-21,1,,,,,グランドライフ,0
1192,4290003012646,新規,0,2022-06-21,2022-06-21,合同会社Ｍｕｃｈａｂｕｒｉ,,合同会社,福岡県,福岡市城南区,別府３丁目２番３５号,,40,136,8140104,,,,,,,2022-06-21,1,,,,,ムチャブリ,0
1195,4290801028653,新規,0,2022-06-21,2022-06-21,株式会社ＧＲＧ,,株式会社,福岡県,行橋市,南大橋４丁目２番３１号,,40,213,8240032,,,,,,,2022-06-21,1,,,,,ジーアールジー,0
1199,4310001017917,新規,0,2022-06-21,2022-06-21,株式会社ＴＡＳＣＡＬ,,株式会社,長崎県,長崎市,大黒町１４番５号,,42,201,8500057,,,,,,,2022-06-21,1,,,,,タスカル,0
1200,4310003004392,新規,0,2022-06-21,2022-06-21,合同会社オフィスけい,,合同会社,長崎県,長崎市,川原町６５０番地,,42,201,8510407,,,,,,,2022-06-21,1,,,,,オフィスケイ,0
1202,4330001029852,新規,0,2022-06-21,2022-06-21,株式会社中原産業,00126955,株式会社,熊本県,合志市,竹迫１６３９番地３,,43,216,8611114,,,,,,,2022-06-21,1,,,,,ナカハラサンギョウ,0
1208,4350001017806,新規,0,2022-06-21,2022-06-21,株式会社梅田制作,,株式会社,宮崎県,日向市,曽根町１丁目５番地ＨＹＵＧＡＢＡＳＥ内,,45,206,8830011,,,,,,,2022-06-21,1,,,,,ウメダセイサク,0
1214,4360001030568,新規,0,2022-06-21,2022-06-21,株式会社リンク,,株式会社,沖縄県,名護市,字為又２６５番地３－１０１,,47,209,9050005,,,,,,,2022-06-21,1,,,,,リンク,0
1215,4360001030601,新規,0,2022-06-21,2022-06-21,株式会社Ｋ‐ＬＩＮＥ,,株式会社,沖縄県,うるま市,字宇堅４７２－１－１０３,,47,213,9042211,,,,,,,2022-06-21,1,,,,,ケーライン,0
1220,4370001048700,新規,0,2022-06-21,2022-06-21,株式会社ａｎｄＹｏｕ,,株式会社,宮城県,仙台市太白区,長町１丁目７番３７号２階,,04,104,9820011,,,,,,,2022-06-21,1,,,,,アンドユー,0
1221,4370003005740,新規,0,2022-06-21,2022-06-21,サイバーノーツ合同会社,,合同会社,宮城県,仙台市泉区,北中山３丁目３３番地の４,,04,105,9813215,,,,,,,2022-06-21,1,,,,,サイバーノーツ,0
1225,4380003005194,新規,0,2022-06-21,2022-06-21,合同会社ＲＥＳＴＡ,,合同会社,福島県,須賀川市,影沼町１２０－２,,07,207,9620031,,,,,,,2022-06-21,1,,,,,リスタ,0
1241,4430001086875,新規,0,2022-06-21,2022-06-21,株式会社ＡＣＡコーポレーション,,株式会社,北海道,室蘭市,高砂町１丁目４９番２２号,,01,205,0500072,,,,,,,2022-06-21,1,,,,,エーシーエーコーポレーション,0
1242,4430001086883,新規,0,2022-06-21,2022-06-21,株式会社ＡＫコーポレーション,,株式会社,北海道,札幌市中央区,円山西町７丁目１番３号,,01,101,0640944,,,,,,,2022-06-21,1,,,,,エーケーコーポレーション,0
1243,4430001086891,新規,0,2022-06-21,2022-06-21,株式会社職人養成塾,,株式会社,北海道,札幌市北区,北二十一条西５丁目２番２０号４０１,,01,102,0010021,,,,,,,2022-06-21,1,,,,,ショクニンショウセイジュク,0
1245,4430003014025,新規,0,2022-06-21,2022-06-21,合同会社ＫＲサービス,,合同会社,北海道,札幌市中央区,南四条西３丁目３番地１第２Ｇビル４階ハイアート内,,01,101,0640804,,,,,,,2022-06-21,1,,,,,ケイアールサービス,0
1252,4490001010210,新規,0,2022-06-21,2022-06-21,株式会社Ｗｉｓｈ　Ｂｏｘ,,株式会社,高知県,高知市,札場７番２０号パストラーレ札場６０３号室,,39,201,7810085,,,,,,,2022-06-21,1,,,,,ウィッシュボックス,0
1253,4700150110202,新規,0,2022-06-21,2022-06-21,桃和有限公司,,外国会社等,,,,,,,,台湾桃図市桃園区北門里三民路二段１９７号２階,,,,,,2022-06-21,1,,,,,トウワユウゲンコウシ,0
1268,5010003037934,新規,0,2022-06-21,2022-06-21,合同会社スプリングジー,,合同会社,東京都,千代田区,丸の内３丁目１番１号東京共同会計事務所内,,13,101,1000005,,,,,,,2022-06-21,1,,,,,スプリングジー,0
1273,5010005035135,新規,0,2022-06-21,2022-06-21,一般社団法人職業リハビリテーション・カウンセリング協会,,その他の設立登記法人,東京都,千代田区,神田神保町１丁目２番１０号第三日東ビル４階,,13,101,1010051,,,,,,,2022-06-21,1,,,,,ショクギョウリハビリテーションカウンセリングキョウカイ,0
1275,5010401168067,新規,0,2022-06-21,2022-06-21,Ｎｅｘｔｂａｓｅ　Ｊａｐａｎ　Ｌｉｍｉｔｅｄ株式会社,,株式会社,東京都,港区,元麻布３丁目１番６号,,13,103,1060046,,,,,,,2022-06-21,1,,,,,ネクストベースジャパンリミテッド,0
1280,5010501049002,新規,0,2022-06-21,2022-06-21,株式会社ＣＨＩＬＬＡＸ,,株式会社,東京都,台東区,台東４丁目４番２－１０１号,,13,106,1100016,,,,,,,2022-06-21,1,,,,,チラックス,0
1281,5010503006620,新規,0,2022-06-21,2022-06-21,Ｍｏｄａｉ合同会社,,合同会社,東京都,台東区,東上野１丁目１７－２,,13,106,1100015,,,,,,,2022-06-21,1,,,,,モダイ,0
1284,5010601061344,新規,0,2022-06-21,2022-06-21,株式会社ＰＡＳＳ,,株式会社,東京都,江東区,越中島２丁目１０番１０号稲田ビル２階,,13,108,1350044,,,,,,,2022-06-21,1,,,,,パス,0
1285,5010601061360,新規,0,2022-06-21,2022-06-21,株式会社ＬＩＬＹ,,株式会社,東京都,墨田区,緑１丁目１－５，エクアス両国３０２,,13,107,1300021,,,,,,,2022-06-21,1,,,,,リリー,0
1292,5010701042839,新規,0,2022-06-21,2022-06-21,株式会社アールエフネクスト,,株式会社,東京都,品川区,荏原５丁目１６番８号,,13,109,1420063,,,,,,,2022-06-21,1,,,,,アールエフネクスト,0
1308,5011001147948,新規,0,2022-06-21,2022-06-21,株式会社リリー・ローズ,,株式会社,東京都,渋谷区,渋谷２丁目１９番１５号宮益坂ビルディング６０９,,13,113,1500002,,,,,,,2022-06-21,1,,,,,リリーローズ,0
1309,5011001148269,新規,0,2022-06-21,2022-06-21,株式会社もしもファクトリー,,株式会社,東京都,渋谷区,恵比寿４丁目２０番４号,,13,113,1500013,,,,,,,2022-06-21,1,,,,,モシモファクトリー,0
1313,5011501028160,新規,0,2022-06-21,2022-06-21,隣家株式会社,,株式会社,東京都,北区,東田端２丁目９番１７号三協マンション２０２号室,,13,117,1140013,,,,,,,2022-06-21,1,,,,,リンカ,0
1314,5011501028177,新規,0,2022-06-21,2022-06-21,株式会社参源,,株式会社,東京都,北区,田端新町２丁目５番２－６０５号ウィルローズ田端,,13,117,1140012,,,,,,,2022-06-21,1,,,,,サンゲン,0
1322,5012401039322,新規,0,2022-06-21,2022-06-21,株式会社中島商店,,株式会社,東京都,府中市,宮西町４丁目２０番地の６,,13,206,1830022,,,,,,,2022-06-21,1,,,,,ナカジマショウテン,0
1324,5012403005446,新規,0,2022-06-21,2022-06-21,ＴＫホールディングス合同会社,,合同会社,東京都,武蔵野市,境３丁目９番１１号,,13,203,1800022,,,,,,,2022-06-21,1,,,,,ティーケーホールディングス,0
1325,5012703002481,新規,0,2022-06-21,2022-06-21,合同会社Ｒｅ’ＳＴＯＲＫ,,合同会社,東京都,東久留米市,中央町３丁目１５－１,,13,222,2030054,,,,,,,2022-06-21,1,,,,,リストーク,0
1331,5020001147024,新規,0,2022-06-21,2022-06-21,株式会社未蕾,,株式会社,神奈川県,横浜市旭区,二俣川１丁目６３番１,,14,112,2410821,,,,,,,2022-06-21,1,,,,,ミライ,0
1332,5020001147032,新規,0,2022-06-21,2022-06-21,源不動産株式会社,,株式会社,神奈川県,横浜市西区,戸部本町５０番１９号,,14,103,2200041,,,,,,,2022-06-21,1,,,,,ミナモトフドウサン,0
1339,5021001076304,新規,0,2022-06-21,2022-06-21,本田興産株式会社,,株式会社,神奈川県,相模原市中央区,陽光台１丁目２－１１,,14,152,2520226,,,,,,,2022-06-21,1,,,,,ホンダコウサン,0
1347,5030001148806,新規,0,2022-06-21,2022-06-21,株式会社ＦＵＬＣＲＵＭ,,株式会社,埼玉県,さいたま市浦和区,仲町１丁目９番１０－１１０５号,,11,107,3300062,,,,,,,2022-06-21,1,,,,,フルクラム,0
1352,5030003019641,新規,0,2022-06-21,2022-06-21,合同会社ＴＴ　Ｐｒｏｄｕｃｔ,,合同会社,埼玉県,川口市,西川口１丁目９番８号スカイコート西川口５－５０６号,,11,203,3320021,,,,,,,2022-06-21,1,,,,,ティーティープロダクト,0
1358,5040003020301,新規,0,2022-06-21,2022-06-21,合同会社ホットスタッフ,,合同会社,千葉県,印西市,竹袋１９７番地１,,12,231,2701325,,,,,,,2022-06-21,1,,,,,ホットスタッフ,0
1363,5070001039340,新規,0,2022-06-21,2022-06-21,みんなで子育ち株式会社,,株式会社,群馬県,邑楽郡大泉町,大字古氷７０５番地の１４,,10,524,3700536,,,,,,,2022-06-21,1,,,,,ミンナデコソダチ,0
1369,5080101023367,新規,0,2022-06-21,2022-06-21,株式会社スワ企画,,株式会社,静岡県,熱海市,中央町２番２号新玉ビル２Ｆ,,22,205,4130015,,,,,,,2022-06-21,1,,,,,スワキカク,0
1373,5080401025897,新規,0,2022-06-21,2022-06-21,株式会社ＧＡＬＥ,,株式会社,静岡県,浜松市中区,曳馬５丁目５番２５号,,22,131,4300901,,,,,,,2022-06-21,1,,,,,ゲイル,0
1376,5100003006590,新規,0,2022-06-21,2022-06-21,合同会社ｍｏｆ,,合同会社,長野県,中野市,大字田麦１０６９番地,,20,211,3830065,,,,,,,2022-06-21,1,,,,,モフ,0
1395,5120001246856,新規,0,2022-06-21,2022-06-21,景善株式会社,,株式会社,大阪府,大阪市東成区,神路４丁目３－１０スターレジデンス新深江５０４号室,,27,115,5370003,,,,,,,2022-06-21,1,,,,,ケイゼン,0
1396,5120001246864,新規,0,2022-06-21,2022-06-21,ピュア＆シンプル株式会社,,株式会社,大阪府,大阪市中央区,内本町２丁目３－１１内本町グリーンビル７Ｆ７０８,,27,128,5400026,,,,,,,2022-06-21,1,,,,,ピュアアンドシンプル,0
1400,5120003021943,新規,0,2022-06-21,2022-06-21,合同会社ＭＨＭ,,合同会社,大阪府,大阪市西淀川区,佃１丁目１番６４－２２号,,27,113,5550001,,,,,,,2022-06-21,1,,,,,エムエイチエム,0
1404,5120103004740,新規,0,2022-06-21,2022-06-21,合同会社オーガニックＮＳＫ,,合同会社,大阪府,岸和田市,加守町４丁目５－２８,,27,202,5960042,,,,,,,2022-06-21,1,,,,,オーガニックエヌエスケイ,0
1407,5120901046133,新規,0,2022-06-21,2022-06-21,Ｎ２エンジニアリング株式会社,,株式会社,大阪府,箕面市,今宮３丁目４－２２,,27,220,5620033,,,,,,,2022-06-21,1,,,,,エヌツーエンジニアリング,0
1410,5130001071972,新規,0,2022-06-21,2022-06-21,株式会社ＭＡＴＵＯ,,株式会社,京都府,綴喜郡井手町,大字多賀小字下川２８番地の１,,26,343,6100301,,,,,,,2022-06-21,1,,,,,マツオ,0
1419,5140001126445,新規,0,2022-06-21,2022-06-21,株式会社松岡塗装店,,株式会社,兵庫県,美方郡香美町,香住区香住１７９２番地の１,,28,585,6696544,,,,,,,2022-06-21,1,,,,,マツオカトソウテン,0
1422,5140003017808,新規,0,2022-06-21,2022-06-21,樂久登窯合同会社,,合同会社,兵庫県,洲本市,五色町鳥飼浦２６６７番地２,,28,205,6561344,,,,,,,2022-06-21,1,,,,,ラクトガマ,0
1423,5140003017816,新規,0,2022-06-21,2022-06-21,合同会社瀬貴鞍,,合同会社,兵庫県,芦屋市,平田北町２番３－２０２号,,28,206,6590073,,,,,,,2022-06-21,1,,,,,セキクラ,0
1425,5140005026212,新規,0,2022-06-21,2022-06-21,一般社団法人日本美容整形療法師会,,その他の設立登記法人,兵庫県,西宮市,甲子園口北町３番３号,,28,204,6638112,,,,,,,2022-06-21,1,,,,,ニホンビヨウセイケイリョウホウシカイ,0
1428,5160001024300,新規,0,2022-06-21,2022-06-21,株式会社さくら不動産,,株式会社,滋賀県,湖南市,若竹町１番地１５,,25,211,5203216,,,,,,,2022-06-21,1,,,,,サクラフドウサン,0
1429,5160003002601,新規,0,2022-06-21,2022-06-21,合同会社Ｆ＆Ｔ,,合同会社,滋賀県,大津市,芝原１丁目３番６－Ｂ２０３号,,25,201,5202117,,,,,,,2022-06-21,1,,,,,エフアンドティ,0
1437,5180301036357,新規,0,2022-06-21,2022-06-21,株式会社グランドライン,,株式会社,愛知県,碧南市,若松町１丁目２１５番地２,,23,209,4470836,,,,,,,2022-06-21,1,,,,,グランドライン,0
1438,5180303005368,新規,0,2022-06-21,2022-06-21,合同会社Ｍｙ　Ｌｏｔｕｓ,,合同会社,愛知県,豊田市,土橋町４丁目７５番地ＢＵＬＳ１２,,23,211,4710842,,,,,,,2022-06-21,1,,,,,マイロータス,0
1441,5190005011713,新規,0,2022-06-21,2022-06-21,農事組合法人大林肥育牛組合,,その他の設立登記法人,三重県,伊賀市,波敷野６７番地,,24,216,5181318,,,,,,,2022-06-21,1,,,,,オオバヤシヒイクギュウクミアイ,0
1444,5210003001523,新規,0,2022-06-21,2022-06-21,合同会社ゼロワン,,合同会社,福井県,坂井市,春江町西太郎丸第１８号６０番地ウエストグリーンＡ１０１号室,,18,210,9190474,,,,,,,2022-06-21,1,,,,,ゼロワン,0
1445,5220001024913,新規,0,2022-06-21,2022-06-21,株式会社エムエス・アイ,,株式会社,石川県,金沢市,田上本町２丁目１７９番地,,17,201,9201155,,,,,,,2022-06-21,1,,,,,エムエスアイ,0
1446,5220003003304,新規,0,2022-06-21,2022-06-21,合同会社ミドル,,合同会社,石川県,金沢市,みずき１丁目３８番地,,17,201,9200201,,,,,,,2022-06-21,1,,,,,ミドル,0
1452,5240001059965,新規,0,2022-06-21,2022-06-21,広島塗装ＢＡＳＥ株式会社,,株式会社,広島県,広島市安佐北区,安佐町大字飯室６８７９番地２４,,34,106,7311142,,,,,,,2022-06-21,1,,,,,ヒロシマトソウベース,0
1457,5250003003103,新規,0,2022-06-21,2022-06-21,Ｐｌｕｓ合同会社,,合同会社,山口県,下松市,南花岡６丁目１番１６号,,35,207,7440027,,,,,,,2022-06-21,1,,,,,プラス,0
1462,5270003001419,新規,0,2022-06-21,2022-06-21,合同会社カスミソウ,,合同会社,鳥取県,鳥取市,若葉台南３丁目２１番９号,,31,201,6891112,,,,,,,2022-06-21,1,,,,,カスミソウ,0
1470,5290003012653,新規,0,2022-06-21,2022-06-21,合同会社てとてっと,,合同会社,福岡県,福岡市南区,花畑１丁目４６－９－２０２,,40,134,8111356,,,,,,,2022-06-21,1,,,,,テトテット,0
1475,5320001019151,新規,0,2022-06-21,2022-06-21,株式会社ＫＭＳ大分,,株式会社,大分県,大分市,大字旦野原９１０番地の４４,,44,201,8701124,,,,,,,2022-06-21,1,,,,,ケイエムエスオオイタ,0
1487,5370001048699,新規,0,2022-06-21,2022-06-21,株式会社クドウエンジニア,,株式会社,宮城県,仙台市宮城野区,栄５丁目１６番１号プラスパー１オイズミ２０２,,04,102,9830011,,,,,,,2022-06-21,1,,,,,クドウエンジニア,0
1491,5380001032917,新規,0,2022-06-21,2022-06-21,工房０３１６株式会社,,株式会社,福島県,いわき市,小名浜大原字中野地２番地の４コーポオーガストＢ－Ｆ,,07,204,9718111,,,,,,,2022-06-21,1,,,,,コウボウゼロサンイチロク,0
1508,5430001086882,新規,0,2022-06-21,2022-06-21,株式会社Ｂｒｉｌｌａｎｔｅ,,株式会社,北海道,札幌市北区,北七条西４丁目１番１号トーカン札幌第一キャステール６０７,,01,102,0600807,,,,,,,2022-06-21,1,,,,,ブリランテ,0
1516,5430003014032,新規,0,2022-06-21,2022-06-21,イヤサカ合同会社,,合同会社,北海道,岩見沢市,幌向南一条５丁目４００番地１,,01,210,0690371,,,,,,,2022-06-21,1,,,,,イヤサカ,0
1518,5450001013728,新規,0,2022-06-21,2022-06-21,株式会社ルシード,,株式会社,北海道,旭川市,五条通１８丁目１４０４番地の１,,01,204,0788215,,,,,,,2022-06-21,1,,,,,,0
1519,5460001005708,新規,0,2022-06-21,2022-06-21,株式会社ＷＯＯＤ,,株式会社,北海道,川上郡弟子屈町,中央２丁目１０番４号,,01,665,0883211,,,,,,,2022-06-21,1,,,,,ウッド,0
1539,6010001227511,新規,0,2022-06-21,2022-06-21,ケーフォー株式会社,,株式会社,東京都,文京区,向丘２丁目２８番１３号,,13,105,1130023,,,,,,,2022-06-21,1,,,,,ケーフォー,0
1540,6010001227528,新規,0,2022-06-21,2022-06-21,株式会社Ｄ．Ｆｏｒｃｅ,,株式会社,東京都,中央区,銀座１丁目１２番４号Ｎ＆Ｅ，ＢＬＤ．７階,,13,102,1040061,,,,,,,2022-06-21,1,,,,,ディーフォース,0
1542,6010003037941,新規,0,2022-06-21,2022-06-21,Ｎ’ｓ　Ｌｉｆｅ合同会社,,合同会社,東京都,中央区,日本橋室町４丁目１番１４号,,13,102,1030022,,,,,,,2022-06-21,1,,,,,エヌズライフ,0
1543,6010005035159,新規,0,2022-06-21,2022-06-21,一般社団法人ヨコハマライン２,,その他の設立登記法人,東京都,千代田区,神田神保町１丁目１１番地さくら綜合事務所内,,13,101,1010051,,,,,,,2022-06-21,1,,,,,ヨコハマラインツー,0
1549,6010401168124,新規,0,2022-06-21,2022-06-21,ショッピングピエロ株式会社,,株式会社,東京都,港区,元赤坂１丁目２番１７号赤坂Ｋタワーレジデンス３００６号,,13,103,1070051,,,,,,,2022-06-21,1,,,,,ショッピングピエロ,0
1552,6010501048993,新規,0,2022-06-21,2022-06-21,株式会社ＭＡＧ　ＨＵＢ　ＪＡＰＡＮ,,株式会社,東京都,台東区,松が谷２丁目９番１号,,13,106,1110036,,,,,,,2022-06-21,1,,,,,マグハブジャパン,0
1557,6010701042821,新規,0,2022-06-21,2022-06-21,株式会社ｇｙｐｓｏｐｈｉｌａ,,株式会社,東京都,品川区,大井６丁目２０番２４－２０８号,,13,109,1400014,,,,,,,2022-06-21,1,,,,,ジプソフィラ,0
1558,6010705003373,新規,0,2022-06-21,2022-06-21,一般社団法人愛蘭会,,その他の設立登記法人,東京都,品川区,旗の台４丁目７番４号,,13,109,1420064,,,,,,,2022-06-21,1,,,,,アイランカイ,0
1559,6010903007473,新規,0,2022-06-21,2022-06-21,Ｍ．ＩＬＡＮＤ合同会社,,合同会社,東京都,世田谷区,桜丘３丁目１９番１２号,,13,112,1560054,,,,,,,2022-06-21,1,,,,,エムアイランド,0
1565,6011001148094,新規,0,2022-06-21,2022-06-21,株式会社エストディオ,,株式会社,東京都,目黒区,上目黒４丁目１０－３菱和パレス３０３,,13,110,1530051,,,,,,,2022-06-21,1,,,,,エストディオ,0
1566,6011003014864,新規,0,2022-06-21,2022-06-21,Ｋａｒｏｒｉｎｏ合同会社,,合同会社,東京都,渋谷区,道玄坂１丁目１０－８渋谷道玄坂東急ビル２Ｆ－Ｃ,,13,113,1500043,,,,,,,2022-06-21,1,,,,,カロリノ,0
1579,6011403003698,新規,0,2022-06-21,2022-06-21,合同会社ｃａｍｉｎｏ,,合同会社,東京都,板橋区,本町３６番１－７０２号,,13,119,1730001,,,,,,,2022-06-21,1,,,,,カミノ,0
1587,6011801001907,新規,0,2022-06-21,2022-06-21,株式会社三陽,,株式会社,東京都,葛飾区,新小岩４丁目３４番１３号,,13,122,1240024,,,,,,,2022-06-21,1,,,,,サンヨウ,0
1593,6012403005445,新規,0,2022-06-21,2022-06-21,合同会社ＭＯＳＱＵＩＴＯ,,合同会社,東京都,狛江市,中和泉５丁目２６番１２号,,13,219,2010012,,,,,,,2022-06-21,1,,,,,モスキート,0
1594,6012703002480,新規,0,2022-06-21,2022-06-21,ＡＲＵＮ合同会社,,合同会社,東京都,小平市,学園東町１丁目１６番３２号寿壮２階２０２号室,,13,211,1870043,,,,,,,2022-06-21,1,,,,,アルン,0
1597,6013301049286,新規,0,2022-06-21,2022-06-21,株式会社ＡＳＫ,,株式会社,東京都,豊島区,東池袋３丁目２１番２１－１９１３号,,13,116,1700013,,,,,,,2022-06-21,1,,,,,エーエスケー,0
1600,6020001146982,新規,0,2022-06-21,2022-06-21,ｙｏｓｓｙｐｒｏｊｅｃｔ株式会社,,株式会社,神奈川県,川崎市幸区,戸手４丁目１０番１号フジトピア川崎４０２号室,,14,132,2120005,,,,,,,2022-06-21,1,,,,,ヨッシープロジェクト,0
1601,6020001147015,新規,0,2022-06-21,2022-06-21,コムカイ電気株式会社,,株式会社,神奈川県,川崎市幸区,小向町３番６－１１０１号,,14,132,2120003,,,,,,,2022-06-21,1,,,,,コムカイデンキ,0
1604,6020003021960,新規,0,2022-06-21,2022-06-21,ケープキャピタル合同会社,,合同会社,神奈川県,横浜市瀬谷区,竹村町２－１４,,14,114,2460005,,,,,,,2022-06-21,1,,,,,ケープキャピタル,0
1605,6020003021969,新規,0,2022-06-21,2022-06-21,合同会社コンティニュエーション,,合同会社,神奈川県,川崎市川崎区,池田１丁目１１番１３－５０４号クオス川崎ＡＸＴＩＳ,,14,131,2100022,,,,,,,2022-06-21,1,,,,,コンティニュエーション,0
1606,6020003021977,新規,0,2022-06-21,2022-06-21,ＲＡＭ合同会社,,合同会社,神奈川県,横浜市西区,西平沼町４番１－Ｅ２３０２号,,14,103,2200024,,,,,,,2022-06-21,1,,,,,アールエーエム,0
1608,6021001076311,新規,0,2022-06-21,2022-06-21,株式会社ラティフ,,株式会社,神奈川県,秦野市,千村４丁目７－１３,,14,211,2591324,,,,,,,2022-06-21,1,,,,,ラティフ,0
1617,6030001148656,新規,0,2022-06-21,2022-06-21,株式会社カイマストラスト,,株式会社,埼玉県,鶴ヶ島市,富士見２丁目６番２５号,,11,241,3502201,,,,,,,2022-06-21,1,,,,,カイマストラスト,0
1618,6030001148796,新規,0,2022-06-21,2022-06-21,株式会社メタエッグ,,株式会社,埼玉県,本庄市,西富田７４３番地１１号,,11,211,3670035,,,,,,,2022-06-21,1,,,,,メタエッグ,0
1619,6030001148805,新規,0,2022-06-21,2022-06-21,株式会社ミノル総業,,株式会社,埼玉県,さいたま市大宮区,仲町３丁目１７－１仲三大鉄ビル３階,,11,103,3300845,,,,,,,2022-06-21,1,,,,,ミノルソウギョウ,0
1625,6040001123930,新規,0,2022-06-21,2022-06-21,ＭＯＫ株式会社,,株式会社,千葉県,佐倉市,西志津２丁目１０番３９号,,12,212,2850845,,,,,,,2022-06-21,1,,,,,モック,0
1630,6050003006629,新規,0,2022-06-21,2022-06-21,ベイフラワー合同会社,,合同会社,茨城県,土浦市,東崎町１３番３号、Ｃ－９０２,,08,203,3000031,,,,,,,2022-06-21,1,,,,,ベイフラワー,0
1635,6080101023366,新規,0,2022-06-21,2022-06-21,Ｐ’ｓ株式会社,,株式会社,静岡県,富士宮市,田中町１８３番地の１１,,22,207,4180075,,,,,,,2022-06-21,1,,,,,ピーズ,0
1639,6080403004568,新規,0,2022-06-21,2022-06-21,ａｎｇｅ合同会社,,合同会社,静岡県,菊川市,下平川２２６番地の５,,22,224,4371514,,,,,,,2022-06-21,1,,,,,アンジュ,0
1661,6120001246814,新規,0,2022-06-21,2022-06-21,株式会社宮前みゆきブランディング研究所,,株式会社,大阪府,大阪市北区,堂山町１番５号三共梅田ビル７階,,27,127,5300027,,,,,,,2022-06-21,1,,,,,ミヤマエミユキブランディングケンキュウジョ,0
1662,6120001246839,新規,0,2022-06-21,2022-06-21,株式会社ライフインベスト,,株式会社,大阪府,大阪市中央区,南船場２丁目６番２１－７０３号,,27,128,5420081,,,,,,,2022-06-21,1,,,,,ライフインベスト,0
1663,6120001246855,新規,0,2022-06-21,2022-06-21,株式会社ディンプル,,株式会社,大阪府,大阪市北区,同心１丁目７番２５－４０３,,27,127,5300035,,,,,,,2022-06-21,1,,,,,ディンプル,0
1664,6120001246863,新規,0,2022-06-21,2022-06-21,三安株式会社,,株式会社,大阪府,大阪市中央区,谷町６丁目３－１２プレアール谷町５０２,,27,128,5420012,,,,,,,2022-06-21,1,,,,,ミヤス,0
1672,6120101065775,新規,0,2022-06-21,2022-06-21,株式会社スカイ,,株式会社,大阪府,羽曳野市,河原城１９番地の１,,27,222,5830867,,,,,,,2022-06-21,1,,,,,スカイ,0
1673,6120901046140,新規,0,2022-06-21,2022-06-21,株式会社ＪＩＭＳ,,株式会社,大阪府,高槻市,南芥川町１６番２６－４０６号,,27,207,5691124,,,,,,,2022-06-21,1,,,,,ジムス,0
1680,6130001072012,新規,0,2022-06-21,2022-06-21,ｓｅｔｓｕｎａ株式会社,,株式会社,京都府,京都市東山区,音羽町３１０－２０１,,26,105,6050833,,,,,,,2022-06-21,1,,,,,セツナ,0
1691,6140001126428,新規,0,2022-06-21,2022-06-21,Ｒｍｙｋｓ株式会社,,株式会社,兵庫県,神戸市中央区,加納町６丁目３番１－５０４号,,28,110,6500001,,,,,,,2022-06-21,1,,,,,アールミックス,0
1693,6140003017807,新規,0,2022-06-21,2022-06-21,合同会社Ｓｈｉｎｉｎｇ　Ｓｍｉｌｅ　Ｌｉｎｋ,,合同会社,兵庫県,高砂市,神爪１丁目１６番５号,,28,216,6760808,,,,,,,2022-06-21,1,,,,,シャイニングスマイルリンク,0
1699,6160001024299,新規,0,2022-06-21,2022-06-21,ＳＫＹＬＩＧ株式会社,,株式会社,滋賀県,長浜市,常喜町５４３番地,,25,203,5260823,,,,,,,2022-06-21,1,,,,,スカイリグ,0
1716,6200001040201,新規,0,2022-06-21,2022-06-21,畑中建築設計株式会社,,株式会社,岐阜県,大垣市,外渕２丁目１４９番地６,,21,202,5030934,,,,,,,2022-06-21,1,,,,,ハタナカケンチクセッケイ,0
1720,6210001018972,新規,0,2022-06-21,2022-06-21,株式会社安部書店,,株式会社,福井県,福井市,上野本町４丁目１１５番地,,18,201,9100134,,,,,,,2022-06-21,1,,,,,アベショテン,0
1722,6220001024912,新規,0,2022-06-21,2022-06-21,株式会社レスキューＫ,,株式会社,石川県,かほく市,内日角イ１０２番地１,,17,209,9291126,,,,,,,2022-06-21,1,,,,,レスキューケー,0
1723,6220003003303,新規,0,2022-06-21,2022-06-21,合同会社ＣｏＣｏ,,合同会社,石川県,金沢市,鳴和台７１番地ハイカムールシュマンＡ１０５号,,17,201,9200815,,,,,,,2022-06-21,1,,,,,ココ,0
1729,6250003003102,新規,0,2022-06-21,2022-06-21,島のみかん合同会社,,合同会社,山口県,大島郡周防大島町,大字西安下庄１０２４－２,,35,305,7422806,,,,,,,2022-06-21,1,,,,,シマノミカン,0
1732,6270001008563,新規,0,2022-06-21,2022-06-21,株式会社クリアーナ,,株式会社,鳥取県,倉吉市,上井町１丁目３６１番地ＴＨＥＡＬＰＨＡＰＲＥＭＩＥＲ駅前通り３０３号室,,31,203,6820022,,,,,,,2022-06-21,1,,,,,クリアーナ,0
1739,6290001098000,新規,0,2022-06-21,2022-06-21,株式会社ＹＡＳＵ,,株式会社,福岡県,春日市,桜ヶ丘１丁目１０８番地,,40,218,8160872,,,,,,,2022-06-21,1,,,,,ヤス,0
1740,6290001098009,新規,0,2022-06-21,2022-06-21,株式会社Ｇマレット,,株式会社,福岡県,那珂川市,松木１丁目２０番地４０６号,,40,231,8111251,,,,,,,2022-06-21,1,,,,,ジーマレット,0
1742,6290003012660,新規,0,2022-06-21,2022-06-21,合同会社ライジング,,合同会社,福岡県,福岡市南区,桧原６丁目２０－９,,40,134,8111355,,,,,,,2022-06-21,1,,,,,ライジング,0
1745,6320001019150,新規,0,2022-06-21,2022-06-21,株式会社トライアングル,,株式会社,大分県,別府市,野口元町４番３０号,,44,202,8740933,,,,,,,2022-06-21,1,,,,,トライアングル,0
1746,6330001029834,新規,0,2022-06-21,2022-06-21,Ａｇｒｉ　Ｂａｓｅ　Ｃｌｕｂ株式会社,,株式会社,熊本県,八代市,新浜町壱号１番地５,,43,202,8660031,,,,,,,2022-06-21,1,,,,,アグリベースクラブ,0
1748,6340001024826,新規,0,2022-06-21,2022-06-21,株式会社Ｎａｉｓｈｉ,,株式会社,鹿児島県,いちき串木野市,本浜町９７番地,,46,219,8960042,,,,,,,2022-06-21,1,,,,,ナイシ,0
1757,6370001048698,新規,0,2022-06-21,2022-06-21,株式会社Ｚ　ｇｒｅｅｎ,,株式会社,宮城県,富谷市,杜乃橋１丁目３番地１７,,04,216,9813363,,,,,,,2022-06-21,1,,,,,ゼットグリーン,0
1758,6370001048707,新規,0,2022-06-21,2022-06-21,株式会社ＭＳＢ,,株式会社,宮城県,仙台市宮城野区,田子西２丁目１６番地の５,,04,102,9830026,,,,,,,2022-06-21,1,,,,,エムエスビー,0
1770,6400001015918,新規,0,2022-06-21,2022-06-21,株式会社北東北環境システム,,株式会社,岩手県,奥州市,江刺岩谷堂字向山３番地１５７,,03,215,0231101,,,,,,,2022-06-21,1,,,,,キタトウホクカンキョウシステム,0
1776,6430001086873,新規,0,2022-06-21,2022-06-21,株式会社ｏｎｓｅｍｉｌｏ,,株式会社,北海道,札幌市西区,発寒十一条６丁目１番９号,,01,107,0630831,,,,,,,2022-06-21,1,,,,,オンセミロ,0
1777,6430001086881,新規,0,2022-06-21,2022-06-21,株式会社ホスキュア,,株式会社,北海道,札幌市白石区,東札幌五条１丁目１番１号札幌市産業振興センター３階,,01,104,0030005,,,,,,,2022-06-21,1,,,,,ホスキュア,0
1780,6430003014031,新規,0,2022-06-21,2022-06-21,合同会社まゆみ商会,,合同会社,北海道,札幌市中央区,南一条西１０丁目３番地南一条道銀ビル３階,,01,101,0600061,,,,,,,2022-06-21,1,,,,,マユミショウカイ,0
1781,6430005014491,新規,0,2022-06-21,2022-06-21,一般財団法人遺品整理士認定協会,,その他の設立登記法人,北海道,千歳市,柏台南１丁目３－１千歳アルカディア・プラザ４階,,01,224,0660009,,,,,,,2022-06-21,1,,,,,イヒンセイリシニンテイキョウカイ,0
1792,6700150110200,新規,0,2022-06-21,2022-06-21,樂源未來（香港）有限会社,,外国会社等,大阪府,大阪市北区,豊崎３丁目１６－１６ブランズタワー梅田２００９,,27,127,5310072,Ｆｌａｔ０４，１１Ｆ，Ｂｌｏｃｋ３０，Ｈｅｎｇ　Ｆａ　Ｃｈｕｅｎ　Ｃｈａｉ　Ｗａｎ，Ｈｏｎｇ　Ｋｏｎｇ,,,,,,2022-06-21,1,,,,,ラクゲンミライホンコンユウゲンガイシヤ,0
1793,6700150110209,新規,0,2022-06-21,2022-06-21,ＭＡＮ　Ｅｎｅｒｇｙ　Ｓｏｌｕｔｉｏｎｓ　ＳＥ,,外国会社等,,,,,,,,Ｓｔａｄｔｂａｃｈｓｔｒａｓｓｅ　１，　８６１５３　Ａｕｇｓｂｕｒｇ　Ｇｅｒｍａｎｙ,,,,,,2022-06-21,1,,,,,マンエナジーソルーシヨンズエスイー,0
1801,7010001227378,新規,0,2022-06-21,2022-06-21,株式会社セールスのタクミ,,株式会社,東京都,中央区,晴海３丁目１３番１－４７２４号,,13,102,1040053,,,,,,,2022-06-21,1,,,,,セールスノタクミ,0
1802,7010003037908,新規,0,2022-06-21,2022-06-21,合同会社ＮＦＴオーケストラ,,合同会社,東京都,中央区,銀座１丁目１２－４Ｎ＆ＥＢＬＤ．７階,,13,102,1040061,,,,,,,2022-06-21,1,,,,,エヌエフティオーケストラ,0
1803,7010003037932,新規,0,2022-06-21,2022-06-21,合同会社ヨコハマライン２,,合同会社,東京都,千代田区,神田神保町１丁目１１番地さくら綜合事務所内,,13,101,1010051,,,,,,,2022-06-21,1,,,,,ヨコハマラインツー,0
1804,7010003037940,新規,0,2022-06-21,2022-06-21,Ｆｕｔａｔｓｕ合同会社,,合同会社,東京都,千代田区,霞が関３丁目２番５号,,13,101,1000013,,,,,,,2022-06-21,1,,,,,フタツ,0
1810,7010005035166,新規,0,2022-06-21,2022-06-21,一般社団法人Ｆｕｔａｔｓｕ,,その他の設立登記法人,東京都,千代田区,霞が関３丁目２番５号,,13,101,1000013,,,,,,,2022-06-21,1,,,,,フタツ,0
1818,7010403027723,新規,0,2022-06-21,2022-06-21,Ｍ’ｓ　Ｑｕａｌｉｔｙ合同会社,,合同会社,東京都,港区,南青山２丁目２番１５号,,13,103,1070062,,,,,,,2022-06-21,1,,,,,エムズクオリティ,0
1819,7010505003317,新規,0,2022-06-21,2022-06-21,一般社団法人Ｍｅｄｉａ　ｉｓ　Ｈｏｐｅ,,その他の設立登記法人,東京都,台東区,蔵前３丁目１７番３号蔵前インテリジェントビル８階一般財団法人地球・人間環境フォーラム（ＧＥＦ）内,,13,106,1110051,,,,,,,2022-06-21,1,,,,,メディアイズホープ,0
1822,7010701042812,新規,0,2022-06-21,2022-06-21,株式会社Ｃｌａｕｄｅｌ,,株式会社,東京都,品川区,小山台１丁目２６番２０号,,13,109,1420061,,,,,,,2022-06-21,1,,,,,クローデル,0
1830,7010901051084,新規,0,2022-06-21,2022-06-21,株式会社鈴木企画,,株式会社,東京都,世田谷区,北沢３丁目１５番７－３０３号,,13,112,1550031,,,,,,,2022-06-21,1,,,,,スズキキカク,0
1843,7011003014863,新規,0,2022-06-21,2022-06-21,合同会社ＷＡＬＫＯＮＡＩＲ,,合同会社,東京都,目黒区,三田２丁目１８番１４－１０４号ＣｌｏｖｅｒＨｉｌｌｓ,,13,110,1530062,,,,,,,2022-06-21,1,,,,,ウォークオンエア,0
1852,7011101099294,新規,0,2022-06-21,2022-06-21,株式会社ＮＡＲＥ,,株式会社,東京都,新宿区,百人町１丁目１７－７ピュアーズ大久保ビル５階,,13,104,1690073,,,,,,,2022-06-21,1,,,,,ナレ,0
1863,7011301027864,新規,0,2022-06-21,2022-06-21,株式会社Ｔ’ｅｎｅｔ,,株式会社,東京都,杉並区,高円寺北３丁目３８番４号,,13,115,1660002,,,,,,,2022-06-21,1,,,,,テネット,0
1866,7011401024340,新規,0,2022-06-21,2022-06-21,株式会社ＡＲ　Ｍａｒｋｅｔｉｎｇ,,株式会社,東京都,板橋区,高島平１丁目３０番１２－４０１号,,13,119,1750082,,,,,,,2022-06-21,1,,,,,エーアールマーケティング,0
1869,7011403003697,新規,0,2022-06-21,2022-06-21,スンダリヨガ合同会社,,合同会社,東京都,板橋区,中板橋１４番１１号ホープビル４０５,,13,119,1730016,,,,,,,2022-06-21,1,,,,,スンダリヨガ,0
1871,7011501028175,新規,0,2022-06-21,2022-06-21,株式会社コロ,,株式会社,東京都,荒川区,南千住７丁目３１番３号,,13,118,1160003,,,,,,,2022-06-21,1,,,,,コロ,0
1876,7011801040895,新規,0,2022-06-21,2022-06-21,株式会社春吉,,株式会社,東京都,足立区,竹の塚５丁目４番１号,,13,121,1210813,,,,,,,2022-06-21,1,,,,,ハルヨシ,0
1887,7012701017109,新規,0,2022-06-21,2022-06-21,ＭＩＲＡＩＥ株式会社,,株式会社,東京都,清瀬市,野塩４丁目１０５番地２２,,13,221,2040004,,,,,,,2022-06-21,1,,,,,ミライエ,0
1888,7012801021670,新規,0,2022-06-21,2022-06-21,株式会社カスケーディング,,株式会社,東京都,国分寺市,光町１丁目２４番３３号,,13,214,1850034,,,,,,,2022-06-21,1,,,,,カスケーディング,0
1901,7020001147006,新規,0,2022-06-21,2022-06-21,株式会社ＳＤ通運,,株式会社,神奈川県,横浜市中区,弥生町２丁目１５番１号,,14,104,2310058,,,,,,,2022-06-21,1,,,,,エスディーツウウン,0
1903,7020003021976,新規,0,2022-06-21,2022-06-21,ＡＩＯＩ合同会社,,合同会社,神奈川県,横浜市都筑区,中川１丁目２番Ｅ－１１０１号,,14,118,2240001,,,,,,,2022-06-21,1,,,,,アイオイ,0
1919,7030003019623,新規,0,2022-06-21,2022-06-21,合同会社ｃｅｎｔｏ　ｆｉｏｒｉ,,合同会社,埼玉県,春日部市,永沼１９０９,,11,214,3440123,,,,,,,2022-06-21,1,,,,,セントフィオリ,0
1928,7040003020282,新規,0,2022-06-21,2022-06-21,合同会社Ｈａｙａｍｅ,,合同会社,千葉県,船橋市,高瀬町３１番地８ウェリス南船橋１０５号,,12,204,2730014,,,,,,,2022-06-21,1,,,,,ハヤメ,0
1931,7060001035009,新規,0,2022-06-21,2022-06-21,株式会社ＲＹＳＥ,,株式会社,栃木県,足利市,朝倉町３丁目１０番地６,,09,202,3260823,,,,,,,2022-06-21,1,,,,,ライズ,0
1942,7080401025904,新規,0,2022-06-21,2022-06-21,株式会社ＵＴ企画,,株式会社,静岡県,磐田市,見付３８４３番地１,,22,211,4380086,,,,,,,2022-06-21,1,,,,,ユーティキカク,0
1965,7120901046131,新規,0,2022-06-21,2022-06-21,ハウスプレイス株式会社,,株式会社,大阪府,豊中市,曽根東町１丁目１番２３号,,27,203,5610802,,,,,,,2022-06-21,1,,,,,ハウスプレイス,0
1973,7130001072003,新規,0,2022-06-21,2022-06-21,株式会社山田設備工業,,株式会社,京都府,京都市伏見区,下鳥羽南三町１８番地,,26,109,6128478,,,,,,,2022-06-21,1,,,,,ヤマダセツビコウギョウ,0
1981,7140001126402,新規,0,2022-06-21,2022-06-21,Ａ　ＯＮＥ株式会社,,株式会社,兵庫県,神戸市中央区,相生町５丁目１０番１８号シティビル神戸７０３号室,,28,110,6500025,,,,,,,2022-06-21,1,,,,,エーワン,0
1982,7140001126427,新規,0,2022-06-21,2022-06-21,株式会社Ｗ．Ｉ．Ｐ　ｋｏｂｅ,,株式会社,兵庫県,神戸市須磨区,千守町１丁目５－３２すまでらコーポ２０３,,28,107,6540072,,,,,,,2022-06-21,1,,,,,ウィップコウベ,0
1989,7160001024298,新規,0,2022-06-21,2022-06-21,哲誓堂株式会社,,株式会社,滋賀県,大津市,坂本１丁目２１番２２号,,25,201,5200113,,,,,,,2022-06-21,1,,,,,テッセイドウ,0
1994,7180001151834,新規,0,2022-06-21,2022-06-21,ＩＰＢホールディングス株式会社,,株式会社,愛知県,名古屋市天白区,平針２丁目１００９番地,,23,116,4680011,,,,,,,2022-06-21,1,,,,,アイピービーホールディングス,0
1995,7180001151842,新規,0,2022-06-21,2022-06-21,デザインマーケティング株式会社,,株式会社,愛知県,名古屋市瑞穂区,竹田町２丁目１４番地ライオンズマンション桜山西４０３,,23,108,4670873,,,,,,,2022-06-21,1,,,,,デザインマーケティング,0
2001,7180301036355,新規,0,2022-06-21,2022-06-21,株式会社佐藤工務店,,株式会社,愛知県,豊橋市,船渡町字船渡３６番地４７,,23,201,4418072,,,,,,,2022-06-21,1,,,,,サトウコウムテン,0
2003,7190001000750,新規,0,2022-06-21,2022-06-21,株式会社トップハウス,,株式会社,三重県,津市,広明町４１８番地１,,24,201,5140006,,,,,,,2022-06-21,1,,,,,,0
2004,7190001029526,新規,0,2022-06-21,2022-06-21,バリアスホーム株式会社,,株式会社,三重県,津市,芸濃町雲林院２１７９番６,,24,201,5142204,,,,,,,2022-06-21,1,,,,,バリアスホーム,0
2009,7200001040191,新規,0,2022-06-21,2022-06-21,株式会社ミアビズ,,株式会社,岐阜県,美濃加茂市,加茂野町今泉８９２番地,,21,211,5050052,,,,,,,2022-06-21,1,,,,,ミアビズ,0
2010,7200001040200,新規,0,2022-06-21,2022-06-21,株式会社ＡＣＴ,,株式会社,岐阜県,岐阜市,若宮町５丁目２４番地丸山ビル３階,,21,201,5008828,,,,,,,2022-06-21,1,,,,,アクト,0
2024,7260001036969,新規,0,2022-06-21,2022-06-21,イワックス株式会社,,株式会社,岡山県,瀬戸内市,牛窓町長浜３８０４番地２,,33,212,7014301,,,,,,,2022-06-21,1,,,,,イワックス,0
2029,7290001097991,新規,0,2022-06-21,2022-06-21,株式会社ＧＧＵ,,株式会社,福岡県,福岡市中央区,大名１丁目９番５０号,,40,133,8100041,,,,,,,2022-06-21,1,,,,,ジージーユー,0
2034,7290003012619,新規,0,2022-06-21,2022-06-21,合同会社ＣＡＭＰＪＮＫＹ,,合同会社,福岡県,大牟田市,千代町２－１,,40,202,8360035,,,,,,,2022-06-21,1,,,,,キャンプジャンキー,0
2035,7290003012651,新規,0,2022-06-21,2022-06-21,合同会社悠設計,,合同会社,福岡県,福岡市東区,唐原２丁目２０番５号マルンフォレストＩＩ２０１号室,00126943,40,131,8130001,,,,,,,2022-06-21,1,,,,,ユウセッケイ,0
2039,7290801028659,新規,0,2022-06-21,2022-06-21,株式会社ペットメモリアル想花,,株式会社,福岡県,中間市,太賀３丁目５番２２号,,40,215,8090015,,,,,,,2022-06-21,1,,,,,ペットメモリアルソウカ,0
2040,7290803004146,新規,0,2022-06-21,2022-06-21,合同会社ネクストムーブ,,合同会社,福岡県,北九州市小倉北区,上富野１丁目１－２９,,40,106,8020022,,,,,,,2022-06-21,1,,,,,ネクストムーブ,0
2042,7290805009564,新規,0,2022-06-21,2022-06-21,一般社団法人インテリアペインター協会,,その他の設立登記法人,福岡県,北九州市門司区,清見２丁目６番６号,,40,101,8010882,,,,,,,2022-06-21,1,,,,,インテリアペインターキョウカイ,0
2066,7400001015917,新規,0,2022-06-21,2022-06-21,株式会社ＦＫＲ,,株式会社,岩手県,奥州市,胆沢小山字小十文字１３５番地,,03,215,0230402,,,,,,,2022-06-21,1,,,,,エフケーアール,0
2074,7460301005075,新規,0,2022-06-21,2022-06-21,株式会社ビーアールエム,,株式会社,北海道,北見市,中央三輪１丁目３６２番地８,,01,208,0900837,,,,,,,2022-06-21,1,,,,,ビーアールエム,0
2082,7700150110208,新規,0,2022-06-21,2022-06-21,苗林實業有限公司,,外国会社等,東京都,渋谷区,猿楽町４－７インプレストコア代官山２０４室,,13,113,1500033,台湾台北市内湖區瑞光路５１３巷２６號８楼之２,,,,,,2022-06-21,1,,,,,ビヨウリンジツギヨウユウゲンコウシ,0
2090,8010001227352,新規,0,2022-06-21,2022-06-21,株式会社Ｆｒｅｅｅｋｓ,,株式会社,東京都,千代田区,丸の内１丁目８番２号,,13,101,1000005,,,,,,,2022-06-21,1,,,,,フリークス,0
2092,8010005035165,新規,0,2022-06-21,2022-06-21,一般社団法人Ｇｅｍｉｎｉ１,,その他の設立登記法人,東京都,中央区,八丁堀４丁目２番１０号ＡＯＪ税理士法人内,,13,102,1040032,,,,,,,2022-06-21,1,,,,,ジェミニワン,0
2100,8010401167982,新規,0,2022-06-21,2022-06-21,ベンチャーサポートセンター株式会社,,株式会社,東京都,港区,元麻布１丁目３番１－１００２号元麻布ヒルズフォレストタワー,,13,103,1060046,,,,,,,2022-06-21,1,,,,,ベンチャーサポートセンター,0
2101,8010401168080,新規,0,2022-06-21,2022-06-21,デカトロンディストリビューションジャポン株式会社,,株式会社,東京都,港区,港南２丁目１５－１品川インターシティＡ棟２８階,,13,103,1080075,,,,,,,2022-06-21,1,,,,,デカトロンディストリビューションジャポン,0
2102,8010401168114,新規,0,2022-06-21,2022-06-21,株式会社ｗａｇｏｔｏ,,株式会社,東京都,港区,赤坂４丁目３番５号,,13,103,1070052,,,,,,,2022-06-21,1,,,,,ワゴト,0
2112,8010601061358,新規,0,2022-06-21,2022-06-21,株式会社ＧＰｘ　Ｊａｐａｎ,,株式会社,東京都,江東区,豊洲２丁目５番１号,,13,108,1350061,,,,,,,2022-06-21,1,,,,,ジーピーエックスジャパン,0
2113,8010603009594,新規,0,2022-06-21,2022-06-21,合同会社スプラウト,,合同会社,東京都,江東区,富岡１丁目１０番３－８０５号,,13,108,1350047,,,,,,,2022-06-21,1,,,,,スプラウト,0
2114,8010603009603,新規,0,2022-06-21,2022-06-21,合同会社ａｔｏ,,合同会社,東京都,江東区,平野２丁目１６－２３サニーハイム門前仲町４０３,,13,108,1350023,,,,,,,2022-06-21,1,,,,,アト,0
2125,8010901051091,新規,0,2022-06-21,2022-06-21,株式会社Ｄｃｅｎｔ,,株式会社,東京都,世田谷区,池尻４丁目２８番２１－５０８号,,13,112,1540001,,,,,,,2022-06-21,1,,,,,ディーセント,0
2126,8010901051100,新規,0,2022-06-21,2022-06-21,株式会社六〇商会,,株式会社,東京都,世田谷区,太子堂３丁目２番１６号,,13,112,1540004,,,,,,,2022-06-21,1,,,,,ロクマルショウカイ,0
2128,8010903007447,新規,0,2022-06-21,2022-06-21,ＹＡＫＡＮ合同会社,,合同会社,東京都,世田谷区,下馬６丁目５番２号スマイル学大２０２,,13,112,1540002,,,,,,,2022-06-21,1,,,,,ヤカン,0
2136,8011003014870,新規,0,2022-06-21,2022-06-21,ブルーテラス合同会社,,合同会社,東京都,渋谷区,神宮前６丁目２３番４号桑野ビル２階,,13,113,1500001,,,,,,,2022-06-21,1,,,,,ブルーテラス,0
2137,8011003014879,新規,0,2022-06-21,2022-06-21,サザランドスタイル合同会社,,合同会社,東京都,渋谷区,渋谷２丁目１９－１５宮益坂ビルディング６０９,,13,113,1500002,,,,,,,2022-06-21,1,,,,,サザランドスタイル,0
2138,8011103011875,新規,0,2022-06-21,2022-06-21,合同会社メディアクルー,,合同会社,東京都,新宿区,若松町８番６－１１０３号,,13,104,1620056,,,,,,,2022-06-21,1,,,,,メディアクルー,0
2150,8011603003629,新規,0,2022-06-21,2022-06-21,合同会社文化資源社,,合同会社,東京都,練馬区,桜台６丁目３０番７号,,13,120,1760002,,,,,,,2022-06-21,1,,,,,ブンカシゲンシャ,0
2158,8013301049284,新規,0,2022-06-21,2022-06-21,金木源株式会社,,株式会社,東京都,豊島区,東池袋２丁目６２番９号サンハイツ東池袋６０２号室,,13,116,1700013,,,,,,,2022-06-21,1,,,,,キンモクゲン,0
2170,8020001146997,新規,0,2022-06-21,2022-06-21,ｍｏｏｒｅ株式会社,,株式会社,神奈川県,横浜市港北区,新横浜３丁目７番地７新横浜アリーナ通りビル３Ｆ,,14,109,2220033,,,,,,,2022-06-21,1,,,,,モーア,0
2171,8020001147013,新規,0,2022-06-21,2022-06-21,株式会社ＮＥＸＴ　ＩＤＥＡ,,株式会社,神奈川県,川崎市幸区,古市場１７５６番地２,,14,132,2120052,,,,,,,2022-06-21,1,,,,,ネクストアイデア,0
2172,8020001147038,新規,0,2022-06-21,2022-06-21,株式会社Ｈ＆Ｓ,,株式会社,神奈川県,横浜市南区,永楽町１丁目９番地１,,14,105,2320031,,,,,,,2022-06-21,1,,,,,エイチアンドエス,0
2176,8020003021959,新規,0,2022-06-21,2022-06-21,合同会社一絢ランティング,,合同会社,神奈川県,横浜市港南区,上大岡西３丁目６番５号リブリ上大岡西１０８,,14,111,2330002,,,,,,,2022-06-21,1,,,,,イチアヤランティング,0
2177,8020003021967,新規,0,2022-06-21,2022-06-21,合同会社ピザの虎,,合同会社,神奈川県,横浜市中区,新山下２丁目８番ベイサイド新山下,,14,104,2310801,,,,,,,2022-06-21,1,,,,,ピザノトラ,0
2186,8030001148786,新規,0,2022-06-21,2022-06-21,ＬＯＮＮＩ株式会社,,株式会社,埼玉県,本庄市,児玉町児玉１１２７番地,,11,211,3670212,,,,,,,2022-06-21,1,,,,,ロンニ,0
2195,8040001123945,新規,0,2022-06-21,2022-06-21,株式会社コーセー,,株式会社,千葉県,千葉市稲毛区,宮野木町２１３３番地２８,,12,103,2630054,,,,,,,2022-06-21,1,,,,,コーセー,0
2196,8040001123961,新規,0,2022-06-21,2022-06-21,株式会社ＳＵＮＺ,,株式会社,千葉県,船橋市,前原西８丁目２３番３－１０２号,,12,204,2740825,,,,,,,2022-06-21,1,,,,,サンズ,0
2205,8080401025903,新規,0,2022-06-21,2022-06-21,株式会社ＳＩＭＯ,,株式会社,静岡県,磐田市,城之崎３丁目２番地２,,22,211,4380084,,,,,,,2022-06-21,1,,,,,シモ,0
2208,8100001035449,新規,0,2022-06-21,2022-06-21,ロク・ノザワ株式会社,,株式会社,長野県,下高井郡野沢温泉村,大字豊郷新田９７３１,,20,563,3892502,,,,,,,2022-06-21,1,,,,,ロクノザワ,0
2225,8120001246779,新規,0,2022-06-21,2022-06-21,株式会社アーシアン,,株式会社,大阪府,大阪市住吉区,苅田３丁目１２番１１号第２エクセルハイム１０５,,27,120,5580011,,,,,,,2022-06-21,1,,,,,アーシアン,0
2226,8120001246795,新規,0,2022-06-21,2022-06-21,株式会社平和産業,,株式会社,大阪府,大阪市住之江区,住之江３丁目８番１５号,,27,125,5590004,,,,,,,2022-06-21,1,,,,,ヘイワサンギョウ,0
2227,8120001246837,新規,0,2022-06-21,2022-06-21,株式会社４Ｄｓｙｓｔｅｍ,,株式会社,大阪府,大阪市西区,北堀江１丁目２２－２５プレジール北堀江１１階,,27,106,5500014,,,,,,,2022-06-21,1,,,,,フォーディーシステム,0
2228,8120001246853,新規,0,2022-06-21,2022-06-21,株式会社ペイストレージ,,株式会社,大阪府,大阪市東淀川区,豊新５丁目１６番６号河合ハイツ４０２号,,27,114,5330014,,,,,,,2022-06-21,1,,,,,ペイストレージ,0
2233,8120003021916,新規,0,2022-06-21,2022-06-21,合同会社ＨｏｎｅｓｔｙＪａｐａｎ,,合同会社,大阪府,大阪市西成区,千本北２丁目１８番２号,,27,122,5570053,,,,,,,2022-06-21,1,,,,,オネスティジャパン,0
2234,8120003021940,新規,0,2022-06-21,2022-06-21,合同会社ファイブラック,,合同会社,大阪府,大阪市平野区,加美東７丁目１番１１号,,27,126,5470002,,,,,,,2022-06-21,1,,,,,ファイブラック,0
2239,8120901046139,新規,0,2022-06-21,2022-06-21,株式会社花やしき,,株式会社,大阪府,池田市,石橋２丁目２番３号,,27,204,5630032,,,,,,,2022-06-21,1,,,,,ハナヤシキ,0
2245,8130001071978,新規,0,2022-06-21,2022-06-21,株式会社古殿研究所,,株式会社,京都府,相楽郡精華町,精華台２丁目１７番地７,,26,366,6190238,,,,,,,2022-06-21,1,,,,,コドノケンキュウショ,0
2246,8130001071994,新規,0,2022-06-21,2022-06-21,株式会社ＨＡＲＫ　ＫＹＯＴＯ,,株式会社,京都府,京都市中京区,三条通高倉東入桝屋町５３番地１Ｄｕｃｅｍｉｘビルヂング４０１,,26,104,6048111,,,,,,,2022-06-21,1,,,,,ハークキョウト,0
2250,8140001126401,新規,0,2022-06-21,2022-06-21,株式会社ＴＲＩＶＥ,,株式会社,兵庫県,三田市,ゆりのき台６丁目２４－２６,,28,219,6691324,,,,,,,2022-06-21,1,,,,,トライブ,0
2251,8140001126467,新規,0,2022-06-21,2022-06-21,天一株式会社,,株式会社,兵庫県,神戸市灘区,高徳町１丁目３番１９号,,28,102,6570025,,,,,,,2022-06-21,1,,,,,テンイチ,0
2263,8150005009403,新規,0,2022-06-21,2022-06-21,一般社団法人教育ＩＣＴ政策支援機構,,その他の設立登記法人,奈良県,奈良市,三条町４７５番地松田ビル２階ＹＡＭＡＴＯＢＡＳＥ,,29,201,6308244,,,,,,,2022-06-21,1,,,,,キョウイクアイシーティーセイサクシエンキコウ,0
2274,8200001040199,新規,0,2022-06-21,2022-06-21,高山興業株式会社,,株式会社,岐阜県,高山市,山田町１２７６番地３,,21,203,5060058,,,,,,,2022-06-21,1,,,,,タカヤマコウギョウ,0
2276,8200005013358,新規,0,2022-06-21,2022-06-21,一般社団法人家族同様の会,,その他の設立登記法人,岐阜県,岐阜市,高尾町１丁目１１番地５,,21,201,5008162,,,,,,,2022-06-21,1,,,,,カゾクドウヨウノカイ,0
2283,8230003001873,新規,0,2022-06-21,2022-06-21,合同会社リンク,,合同会社,富山県,富山市,神通本町１丁目９番１号レジデンス雅尚３０２号室,,16,201,9300008,,,,,,,2022-06-21,1,,,,,リンク,0
2300,8290001097966,新規,0,2022-06-21,2022-06-21,ＧＯＯＤ　ＦＯＲＴＵＮＥ株式会社,,株式会社,福岡県,福岡市南区,井尻４丁目２番４６号,,40,134,8111302,,,,,,,2022-06-21,1,,,,,グッドフォーチュン,0
2301,8290001097990,新規,0,2022-06-21,2022-06-21,株式会社南福岡企画,,株式会社,福岡県,福岡市博多区,銀天町２丁目３番３号牛昌ビル８０１,,40,132,8120879,,,,,,,2022-06-21,1,,,,,ミナミフクオカキカク,0
2304,8290003012634,新規,0,2022-06-21,2022-06-21,エヌ合同会社,,合同会社,福岡県,福岡市博多区,博多駅南１丁目４－１０アイビースクエア１３０７,,40,132,8120016,,,,,,,2022-06-21,1,,,,,エヌ,0
2305,8290003012650,新規,0,2022-06-21,2022-06-21,合同会社ワインとごちそう,,合同会社,福岡県,福岡市早良区,百道浜３丁目９番３３－９０１号,,40,137,8140001,,,,,,,2022-06-21,1,,,,,ワイントゴチソウ,0
2306,8290003012659,新規,0,2022-06-21,2022-06-21,ＭＫＫ合同会社,,合同会社,福岡県,小郡市,希みが丘５丁目１番地９,,40,216,8380107,,,,,,,2022-06-21,1,,,,,エムケイケイ,0
2308,8290801028658,新規,0,2022-06-21,2022-06-21,株式会社ＳＡＩＳＨＩＫＩ,,株式会社,福岡県,北九州市門司区,大字門司３４９２番地,,40,101,8010855,,,,,,,2022-06-21,1,,,,,サイシキ,0
2314,8340001024824,新規,0,2022-06-21,2022-06-21,アイコウ株式会社,,株式会社,鹿児島県,薩摩川内市,御陵下町１番５９号,,46,215,8950061,,,,,,,2022-06-21,1,,,,,アイコウ,0
2320,8370001048705,新規,0,2022-06-21,2022-06-21,株式会社六花コーポレーション,,株式会社,宮城県,仙台市青葉区,宮町３丁目６番１５－１号,,04,101,9800004,,,,,,,2022-06-21,1,,,,,リッカコーポレーション,0
2321,8370001048713,新規,0,2022-06-21,2022-06-21,ＨＲＬ株式会社,,株式会社,宮城県,伊具郡丸森町,筆甫字川下一２１番地６,,04,341,9812201,,,,,,,2022-06-21,1,,,,,ハル,0
2335,8400001015916,新規,0,2022-06-21,2022-06-21,株式会社千田板金,,株式会社,岩手県,奥州市,前沢古城字丑沢３５番地,,03,215,0294201,,,,,,,2022-06-21,1,,,,,チダバンキン,0
2338,8420003002539,新規,0,2022-06-21,2022-06-21,合同会社しゅうりＰＩＴ,,合同会社,青森県,五所川原市,字雛田１９８番地９,,02,205,0370061,,,,,,,2022-06-21,1,,,,,シュウリピット,0
2351,8470001019126,新規,0,2022-06-21,2022-06-21,株式会社コーエイ,,株式会社,香川県,仲多度郡多度津町,家中３番４８号,,37,404,7640002,,,,,,,2022-06-21,1,,,,,コーエイ,0
2353,8470003002204,新規,0,2022-06-21,2022-06-21,金魚のガタキン合同会社,,合同会社,香川県,さぬき市,造田是弘５３６－３,,37,206,7692312,,,,,,,2022-06-21,1,,,,,キンギョノガタキン,0
2359,8500001024287,新規,0,2022-06-21,2022-06-21,株式会社小池ししゅう,,株式会社,愛媛県,今治市,大西町別府２４０６番地１,,38,202,7992209,,,,,,,2022-06-21,1,,,,,コイケシシュウ,0
2360,8700150110207,新規,0,2022-06-21,2022-06-21,ＰＲＯＷＯＲＬＤ　ＨＯＬＤＩＮＧＳ　ＬＩＭＩＴＥＤ,,外国会社等,東京都,渋谷区,神宮前１丁目２３－８ブリスベージュ神宮前６１１号室,,13,113,1500001,Ｐａｌｍ　Ｇｒｏｖｅ　Ｈｏｕｓｅ，　Ｐ．Ｏ．Ｂｏｘ　４３８，　Ｒｏａｄ　Ｔｏｗｎ，　Ｔｏｒｔｏｌａ，　Ｂｒｉｔｉｓｈ　Ｖｉｒｇｉｎ　Ｉｓｌａｎｄｓ,,,,,,2022-06-21,1,,,,,プロワールドホールデイングスリミテツド,0
2370,9010001227475,新規,0,2022-06-21,2022-06-21,株式会社サマサマトレーディング,,株式会社,東京都,千代田区,神田三崎町３丁目３番３号３０２,,13,101,1010061,,,,,,,2022-06-21,1,,,,,サマサマトレーディング,0
2371,9010001227517,新規,0,2022-06-21,2022-06-21,株式会社ＦＲ,,株式会社,東京都,千代田区,九段南１丁目５番６号りそな九段ビル５Ｆ・ＫＳフロア,,13,101,1020074,,,,,,,2022-06-21,1,,,,,エフアール,0
2372,9010001227541,新規,0,2022-06-21,2022-06-21,株式会社ＭＧパートナーズ,,株式会社,東京都,中央区,晴海２丁目３番３０号１５階,,13,102,1040053,,,,,,,2022-06-21,1,,,,,エムジーパートナーズ,0
2376,9010003037939,新規,0,2022-06-21,2022-06-21,立山杉凛道合同会社,,合同会社,東京都,中央区,月島１丁目２６番４号長正社ビル３Ｆ,,13,102,1040052,,,,,,,2022-06-21,1,,,,,タテヤマスギリンドウ,0
2379,9010005035164,新規,0,2022-06-21,2022-06-21,一般社団法人銀河基金,,その他の設立登記法人,東京都,中央区,日本橋室町４丁目４番３号喜助日本橋室町ビル５階,,13,102,1030022,,,,,,,2022-06-21,1,,,,,ギンガキキン,0
2397,9010501048990,新規,0,2022-06-21,2022-06-21,日本万泰株式会社,,株式会社,東京都,台東区,上野３丁目１１番５号,,13,106,1100005,,,,,,,2022-06-21,1,,,,,ニホンマンタイ,0
2398,9010501048999,新規,0,2022-06-21,2022-06-21,株式会社ウェルサーブ,,株式会社,東京都,台東区,寿３丁目１５番１２号,,13,106,1110042,,,,,,,2022-06-21,1,,,,,ウェルサーブ,0
2404,9010701042843,新規,0,2022-06-21,2022-06-21,株式会社みやぷろ,,株式会社,東京都,品川区,荏原２丁目１７番２３－４０３号,,13,109,1420063,,,,,,,2022-06-21,1,,,,,ミヤプロ,0
2407,9010803004213,新規,0,2022-06-21,2022-06-21,トラストリブレゾン合同会社,,合同会社,東京都,大田区,大森東５丁目３６番２号,,13,111,1430012,,,,,,,2022-06-21,1,,,,,トラストリブレゾン,0
2411,9010901051082,新規,0,2022-06-21,2022-06-21,株式会社メルトレオ,,株式会社,東京都,世田谷区,池尻３丁目１２番１０号センチュリーハイツ池尻３０３号室,,13,112,1540001,,,,,,,2022-06-21,1,,,,,メルトレオ,0
2412,9010901051099,新規,0,2022-06-21,2022-06-21,株式会社Ｓｖｏｌｔａ,,株式会社,東京都,世田谷区,下馬６丁目１６番１０－６１０号,,13,112,1540002,,,,,,,2022-06-21,1,,,,,スボルタ,0
2419,9011001148232,新規,0,2022-06-21,2022-06-21,栄光ホールディングス株式会社,,株式会社,東京都,渋谷区,松濤１丁目２６番１０号,,13,113,1500046,,,,,,,2022-06-21,1,,,,,エイコウホールディングス,0
2424,9011103011874,新規,0,2022-06-21,2022-06-21,合同会社猫会議,,合同会社,東京都,新宿区,早稲田鶴巻町５７９－５安生ビル１Ｆ,,13,104,1620041,,,,,,,2022-06-21,1,,,,,ネコカイギ,0
2428,9011401024339,新規,0,2022-06-21,2022-06-21,株式会社メディカルスペースクリエイツ,,株式会社,東京都,板橋区,小茂根５丁目１４番３号,,13,119,1730037,,,,,,,2022-06-21,1,,,,,メディカルスペースクリエイツ,0
2431,9011501028173,新規,0,2022-06-21,2022-06-21,ヒカリ株式会社,,株式会社,東京都,荒川区,東日暮里４丁目１９番８号ザグランデレガーロ東日暮里３０７号室,,13,118,1160014,,,,,,,2022-06-21,1,,,,,ヒカリ,0
2433,9011503005195,新規,0,2022-06-21,2022-06-21,合同会社西徳,,合同会社,東京都,北区,東十条２丁目１２番１７,,13,117,1140001,,,,,,,2022-06-21,1,,,,,ニシトク,0
2438,9011701025391,新規,0,2022-06-21,2022-06-21,株式会社百花,,株式会社,東京都,江戸川区,一之江７丁目７０－１３,,13,123,1320024,,,,,,,2022-06-21,1,,,,,ヒャッカ,0
2452,9013301049259,新規,0,2022-06-21,2022-06-21,株式会社ＬＡＲＭＥ,,株式会社,東京都,豊島区,東池袋１丁目４３番１０－３１１号,,13,116,1700013,,,,,,,2022-06-21,1,,,,,ラルム,0
2461,9020001146971,新規,0,2022-06-21,2022-06-21,株式会社天使の里,,株式会社,神奈川県,川崎市川崎区,四谷下町２１番１号,,14,131,2100827,,,,,,,2022-06-21,1,,,,,テンシノサト,0
2463,9020003021966,新規,0,2022-06-21,2022-06-21,ボウノットデザイン合同会社,,合同会社,神奈川県,川崎市中原区,下小田中３丁目２８－３３－１０２,,14,133,2110041,,,,,,,2022-06-21,1,,,,,ボウノットデザイン,0
2464,9020003021974,新規,0,2022-06-21,2022-06-21,合同会社Ｋｙｒｉｏｓ,,合同会社,神奈川県,川崎市麻生区,はるひ野２丁目２６番１０号,,14,137,2150036,,,,,,,2022-06-21,1,,,,,キリオス,0
2473,9021001076267,新規,0,2022-06-21,2022-06-21,株式会社赤心,,株式会社,神奈川県,横須賀市,阿部倉８番１号,,14,201,2380033,,,,,,,2022-06-21,1,,,,,,0
2474,9021001076300,新規,0,2022-06-21,2022-06-21,新横クリニック株式会社,,株式会社,神奈川県,足柄下郡真鶴町,岩８７４番地１９０,,14,383,2590202,,,,,,,2022-06-21,1,,,,,シンヨコクリニック,0
2475,9021005012549,新規,0,2022-06-21,2022-06-21,一般社団法人全国障害学生支援センター,,その他の設立登記法人,神奈川県,相模原市南区,上鶴間本町３丁目１４番２２号田園コーポ３号室,,14,153,2520318,,,,,,,2022-06-21,1,,,,,ゼンコクショウガイガクセイシエンセンター,0
2488,9030001148793,新規,0,2022-06-21,2022-06-21,株式会社ふじみ野メタル,,株式会社,埼玉県,入間郡三芳町,大字上富２０３４番地２,,11,324,3540045,,,,,,,2022-06-21,1,,,,,フジミノメタル,0
2489,9030001148802,新規,0,2022-06-21,2022-06-21,ＳＭＹ株式会社,,株式会社,埼玉県,さいたま市浦和区,仲町２丁目１９番２３－８号,,11,107,3300062,,,,,,,2022-06-21,1,,,,,エスエムワイ,0
2498,9040001123944,新規,0,2022-06-21,2022-06-21,株式会社Ｒｉｎｎｅ,,株式会社,千葉県,成田市,堀之内３８６－３,,12,211,2860107,,,,,,,2022-06-21,1,,,,,リンネ,0
2503,9040003020306,新規,0,2022-06-21,2022-06-21,森部産業合同会社,,合同会社,千葉県,船橋市,南三咲１丁目３０－４５,,12,204,2740813,,,,,,,2022-06-21,1,,,,,モリベサンギョウ,0
2507,9050001051252,新規,0,2022-06-21,2022-06-21,株式会社Ｖｌｉｎｅ,,株式会社,茨城県,取手市,戸頭６丁目２番６号,,08,217,3020034,,,,,,,2022-06-21,1,,,,,ブライン,0
2511,9060001035015,新規,0,2022-06-21,2022-06-21,株式会社ＡＬＶＩＮＡ,,株式会社,栃木県,宇都宮市,戸祭１丁目１２番２６号,,09,201,3200056,,,,,,,2022-06-21,1,,,,,アルヴィナ,0
2518,9080001025030,新規,0,2022-06-21,2022-06-21,株式会社ＤＡ‐ＹＡＭＡ,,株式会社,静岡県,静岡市駿河区,池田１３７１番地の６９,,22,102,4228005,,,,,,,2022-06-21,1,,,,,ダーヤマ,0
2535,9120001246712,新規,0,2022-06-21,2022-06-21,錦＿株式会社,00126945,株式会社,大阪府,大阪市生野区,巽北１丁目１番１号３Ｆ－Ａ,,27,116,5440004,,,,,,,2022-06-21,1,,,,,キンシン,0
2536,9120001246786,新規,0,2022-06-21,2022-06-21,タカバマ株式会社,,株式会社,大阪府,大阪市北区,豊崎３丁目１６番１６－１１０１号,,27,127,5310072,,,,,,,2022-06-21,1,,,,,タカバマ,0
2537,9120001246828,新規,0,2022-06-21,2022-06-21,エスケースリー株式会社,,株式会社,大阪府,大阪市阿倍野区,王子町３丁目１２番１０－９０３号,,27,119,5450023,,,,,,,2022-06-21,1,,,,,エスケースリー,0
2540,9120101065780,新規,0,2022-06-21,2022-06-21,株式会社Ｐａｉｎ　ｄｅ　Ｓｉｎｇｅ,,株式会社,大阪府,堺市西区,津久野町１丁８番１５号,,27,144,5938322,,,,,,,2022-06-21,1,,,,,パンドサンジュ,0
2543,9130001071969,新規,0,2022-06-21,2022-06-21,株式会社ハイスペック,,株式会社,京都府,八幡市,橋本栗ケ谷４０番地３０,,26,210,6148327,,,,,,,2022-06-21,1,,,,,ハイスペック,0
2544,9130003008011,新規,0,2022-06-21,2022-06-21,合同会社堺町御門前平七,,合同会社,京都府,京都市中京区,丸太町通堺町東入鍵屋町７３番地,,26,104,6040801,,,,,,,2022-06-21,1,,,,,サカイマチゴモンマエヘイシチ,0
2556,9140001126409,新規,0,2022-06-21,2022-06-21,株式会社ケイサービス,,株式会社,兵庫県,尼崎市,西難波町２丁目４－１５,,28,202,6600893,,,,,,,2022-06-21,1,,,,,ケイサービス,0
2557,9140001126433,新規,0,2022-06-21,2022-06-21,日本グローバル株式会社,,株式会社,兵庫県,尼崎市,杭瀬南新町２丁目１２－２３,,28,202,6600822,,,,,,,2022-06-21,1,,,,,ニホングローバル,0
2558,9140001126458,新規,0,2022-06-21,2022-06-21,株式会社Ｗｈｉｔｅ　Ｓｈｅｐａｒｄ,,株式会社,兵庫県,高砂市,曽根町７４８番地の１,,28,216,6760082,,,,,,,2022-06-21,1,,,,,ホワイトシェパード,0
2565,9160001024296,新規,0,2022-06-21,2022-06-21,シーコーポレーション株式会社,,株式会社,滋賀県,大津市,苗鹿３丁目２番１号,,25,201,5200102,,,,,,,2022-06-21,1,,,,,シーコーポレーション,0
2582,9180001151808,新規,0,2022-06-21,2022-06-21,アップドライブ株式会社,,株式会社,愛知県,名古屋市千種区,松竹町２丁目５５番地の２,,23,101,4640823,,,,,,,2022-06-21,1,,,,,アップドライブ,0
2589,9200005013357,新規,0,2022-06-21,2022-06-21,弁理士法人崇河特許事務所,,その他の設立登記法人,岐阜県,岐阜市,加納本町４丁目５番地１２,,21,201,5008474,,,,,,,2022-06-21,1,,,,,ソウガトッキョジムショ,0
2594,9240001059961,新規,0,2022-06-21,2022-06-21,株式会社ａｓ　ｏｎｅプロジェクト,,株式会社,広島県,福山市,引野町５７３８番地４沖浦ニュータウン２－２,,34,207,7210942,,,,,,,2022-06-21,1,,,,,アズワンプロジェクト,0
2601,9260001036967,新規,0,2022-06-21,2022-06-21,株式会社Ｊｏｉｎｔｌｙ,,株式会社,岡山県,総社市,中央３丁目９番地１０６,,33,208,7191131,,,,,,,2022-06-21,1,,,,,ジョイントリー,0
2605,9280001008717,新規,0,2022-06-21,2022-06-21,株式会社Ｓｕｎ　ｉｎ　Ａｕｔｏ,,株式会社,島根県,松江市,浜乃木２丁目１４番６号,,32,201,6900044,,,,,,,2022-06-21,1,,,,,サンインオート,0
2617,9290003012658,新規,0,2022-06-21,2022-06-21,合同会社エム・パワーズ,,合同会社,福岡県,福岡市早良区,四箇田団地３９番１０１号,,40,137,8140176,,,,,,,2022-06-21,1,,,,,エムパワーズ,0
2623,9290801028657,新規,0,2022-06-21,2022-06-21,株式会社Ｇ‐Ｌａｂ,,株式会社,福岡県,北九州市門司区,大里本町３丁目８－２０－１３０１,,40,101,8000063,,,,,,,2022-06-21,1,,,,,ジーラボ,0
2628,9320001019148,新規,0,2022-06-21,2022-06-21,株式会社下尾谷開発,,株式会社,大分県,日田市,大山町東大山１９８６番地３,,44,204,8770202,,,,,,,2022-06-21,1,,,,,シモオタニカイハツ,0
2631,9330003009427,新規,0,2022-06-21,2022-06-21,ベルアンドロワ合同会社,,合同会社,熊本県,山鹿市,鹿北町岩野４０９３番地１,,43,208,8610603,,,,,,,2022-06-21,1,,,,,ベルアンドロワ,0
2635,9350003004104,新規,0,2022-06-21,2022-06-21,合同会社すずらん,,合同会社,宮崎県,東臼杵郡門川町,平城西３７番地,,45,421,8890626,,,,,,,2022-06-21,1,,,,,スズラン,0
2639,9370001048695,新規,0,2022-06-21,2022-06-21,Ｊｅｔ株式会社,,株式会社,宮城県,仙台市太白区,西中田１丁目１６番３号,,04,104,9811105,,,,,,,2022-06-21,1,,,,,ジェット,0
2640,9370001048704,新規,0,2022-06-21,2022-06-21,株式会社ウッドワークスＨＩＫＡＲＩ,,株式会社,宮城県,柴田郡柴田町,大字船岡字新田８８番地,,04,323,9891606,,,,,,,2022-06-21,1,,,,,ウッドワークスヒカリ,0
2644,9380003005207,新規,0,2022-06-21,2022-06-21,会津地酒支援プロジェクト合同会社,,合同会社,福島県,会津若松市,追手町５番２４号,,07,202,9650873,,,,,,,2022-06-21,1,,,,,アイヅジザケシエンプロジェクト,0
2654,9410001013216,新規,0,2022-06-21,2022-06-21,株式会社ＡＧＲＩＳＭ,,株式会社,秋田県,横手市,黒川字寺村３８番地３,,05,203,0130826,,,,,,,2022-06-21,1,,,,,アグリズム,0
2656,9410003003677,新規,0,2022-06-21,2022-06-21,Ｆｏｒｅｓｔ合同会社,,合同会社,秋田県,大仙市,高関上郷字田中６５番地内１,,05,212,0140103,,,,,,,2022-06-21,1,,,,,フォレスト,0
2665,9430001086879,新規,0,2022-06-21,2022-06-21,株式会社Ａｌｖａ,,株式会社,北海道,札幌市中央区,南十一条西７丁目１－２６－１０５,,01,101,0640811,,,,,,,2022-06-21,1,,,,,アルバ,0
2666,9430001086895,新規,0,2022-06-21,2022-06-21,株式会社一,,株式会社,北海道,北広島市,虹ヶ丘６丁目９番地２２,,01,234,0611103,,,,,,,2022-06-21,1,,,,,イチ,0
2673,9470001019125,新規,0,2022-06-21,2022-06-21,株式会社３ＲＰａｒｋｓ,,株式会社,香川県,仲多度郡まんのう町,吉野下１０３５番地１,,37,406,7660022,,,,,,,2022-06-21,1,,,,,スリーアールパークス,0
2677,9500001024286,新規,0,2022-06-21,2022-06-21,株式会社かがやきホールディングス,,株式会社,愛媛県,四国中央市,中之庄町７０番地１,,38,213,7990422,,,,,,,2022-06-21,1,,,,,カガヤキホールディングス,0
2682,9700150110206,新規,0,2022-06-21,2022-06-21,ＤＡＮＩＡ　ＳＬＩＭ　Ｐ．Ａ．,,外国会社等,,,,,,,,２　Ｈｏｕｓｔｏｎ　Ｃｅｎｔｅｒ，　９０９　Ｆａｎｎｉｎ，　Ｓｕｉｔｅ　２０００，　Ｈｏｕｓｔｏｎ，　ＴＸ　７７０１０－１０２８　ＵＳＡ,,,,,,2022-06-21,1,,,,,ダニアスリムピーエー,0
