sequenceNumber,corporateNumber,process,correct,updateDate,changeDate,name,nameImageId,kind,prefectureName,cityName,streetNumber,addressImageId,prefectureCode,cityCode,postCode,addressOutside,addressOutsideImageId,closeDate,closeCause,successorCorporateNumber,changeCause,assignmentDate,latest,enName,enPrefectureName,enCityName,enAddressOutside,furigana,hihyoji
6,1010003039380,新規,0,2022-12-19,2022-12-19,ｉｋｏｈａ合同会社,,合同会社,東京都,文京区,本駒込５丁目４５番１１号,,13,105,1130021,,,,,,,2022-12-19,1,,,,,イコハ,0
14,1010401171371,新規,0,2022-12-19,2022-12-19,Ｏｎ　Ｃｕｅ株式会社,,株式会社,東京都,港区,高輪２丁目１５番３１－２１０号,,13,103,1080074,,,,,,,2022-12-19,1,,,,,オンキュー,0
15,1010401171388,新規,0,2022-12-19,2022-12-19,株式会社ＣＶｌｏｇｉｃ,,株式会社,東京都,港区,虎ノ門４丁目３番２０号神谷町ＭＴビル１４階,,13,103,1050001,,,,,,,2022-12-19,1,,,,,シーブイロジック,0
16,1010401171396,新規,0,2022-12-19,2022-12-19,株式会社ｗｙ　Ｉｎｃ．,,株式会社,東京都,港区,南青山３丁目１番３６号青山丸竹ビル６階,,13,103,1070062,,,,,,,2022-12-19,1,,,,,ワイインク,0
23,1010501049773,新規,0,2022-12-19,2022-12-19,Ａｒｒａｙｓｙｓ　Ｍｅｄｉｃａｌ　Ｅｑｕｉｐｍｅｎｔ株式会社,,株式会社,東京都,台東区,上野６丁目７番１６川久保ビル７２１号,,13,106,1100005,,,,,,,2022-12-19,1,,,,,アレイスメディカルイクウィップメント,0
41,1011001151508,新規,0,2022-12-19,2022-12-19,Ｃａｒｒｉｃｋ　Ｊａｐａｎ株式会社,,株式会社,東京都,渋谷区,広尾５丁目４番１２号,,13,113,1500012,,,,,,,2022-12-19,1,,,,,カリックジャパン,0
46,1011101101222,新規,0,2022-12-19,2022-12-19,株式会社Ａｓｓｉｓｔ,,株式会社,東京都,新宿区,高田馬場３丁目３番１号,,13,104,1690075,,,,,,,2022-12-19,1,,,,,アシスト,0
48,1011103012509,新規,0,2022-12-19,2022-12-19,合同会社新明,,合同会社,東京都,新宿区,北新宿１丁目１２番１２－４２１号,,13,104,1690074,,,,,,,2022-12-19,1,,,,,シンメイ,0
49,1011303004611,新規,0,2022-12-19,2022-12-19,合同会社高円寺会計,,合同会社,東京都,杉並区,高円寺南２丁目１番２号,,13,115,1660003,,,,,,,2022-12-19,1,,,,,コウエンジカイケイ,0
52,1011501028759,新規,0,2022-12-19,2022-12-19,ＴＲＩＯ株式会社,,株式会社,東京都,荒川区,町屋２丁目２番１０号ＧｒａｎＡｒｒｏｗＭＡＣＨＩＹＡ２０３,,13,118,1160001,,,,,,,2022-12-19,1,,,,,トリオ,0
56,1011701025886,新規,0,2022-12-19,2022-12-19,株式会社Ｇ．Ｆ．Ｂ,,株式会社,東京都,江戸川区,東葛西１丁目２９－６,,13,123,1340084,,,,,,,2022-12-19,1,,,,,ジィーエフビー,0
63,1012801022022,新規,0,2022-12-19,2022-12-19,株式会社ＰＥＡＣＥ,,株式会社,東京都,国立市,北２丁目２０番の３,,13,215,1860001,,,,,,,2022-12-19,1,,,,,ピース,0
75,1021001077751,新規,0,2022-12-19,2022-12-19,株式会社Ａｔｔｒａｃｔｅｃｈ,,株式会社,神奈川県,足柄上郡中井町,井ノ口２６６４番地,,14,361,2590151,,,,,,,2022-12-19,1,,,,,アトラクテック,0
79,1030001151482,新規,0,2022-12-19,2022-12-19,株式会社セブンノックス,,株式会社,埼玉県,越谷市,蒲生寿町１８番４８号７０２号,,11,222,3430836,,,,,,,2022-12-19,1,,,,,セブンノックス,0
80,1030001151549,新規,0,2022-12-19,2022-12-19,株式会社アグリネーション,,株式会社,埼玉県,比企郡川島町,大字出丸下郷９２６番地１,,11,346,3500141,,,,,,,2022-12-19,1,,,,,アグリネーション,0
86,1030003020743,新規,0,2022-12-19,2022-12-19,合同会社ＢＯＳＳ,,合同会社,埼玉県,鴻巣市,前砂２０５番地４,,11,217,3690132,,,,,,,2022-12-19,1,,,,,ボス,0
87,1030003020768,新規,0,2022-12-19,2022-12-19,合同会社ブレーメン,,合同会社,埼玉県,川口市,大字石神１９５０－１８,,11,203,3330823,,,,,,,2022-12-19,1,,,,,ブレーメン,0
88,1030005021095,新規,0,2022-12-19,2022-12-19,一般社団法人極真空手道連盟極真館,,その他の設立登記法人,埼玉県,蕨市,塚越５丁目５番３号,,11,223,3350002,,,,,,,2022-12-19,1,,,,,キョクシンカラテドウレンメイキョクシンカン,0
96,1040001126260,新規,0,2022-12-19,2022-12-19,株式会社ＴＨＮ,,株式会社,千葉県,八千代市,村上１５９７番地８６,,12,221,2760028,,,,,,,2022-12-19,1,,,,,ティーエイチエヌ,0
97,1040001126285,新規,0,2022-12-19,2022-12-19,株式会社サンレール,,株式会社,千葉県,成田市,囲護台３丁目１３番地３ＭＩＩＩマンションＡ棟２０２号室,00128837,12,211,2860035,,,,,,,2022-12-19,1,,,,,サンレール,0
100,1040003021526,新規,0,2022-12-19,2022-12-19,合同会社ピュアライツ,,合同会社,千葉県,野田市,中根２３５番地,,12,208,2780031,,,,,,,2022-12-19,1,,,,,ピュアライツ,0
101,1050001052092,新規,0,2022-12-19,2022-12-19,株式会社Ｍ＆Ｆ,,株式会社,茨城県,那珂郡東海村,大字須和間２００３番地４,,08,341,3191114,,,,,,,2022-12-19,1,,,,,エムアンドエフ,0
102,1060001035534,新規,0,2022-12-19,2022-12-19,株式会社Ｂｕｅｎａ　Ｖｉｄａ,,株式会社,栃木県,那須塩原市,末広町７７番地２０３,,09,213,3250061,,,,,,,2022-12-19,1,,,,,ブエナビダ,0
114,1090001017892,新規,0,2022-12-19,2022-12-19,有川サービス株式会社,,株式会社,山梨県,甲州市,塩山三日市場３３０７番地４,,19,213,4040047,,,,,,,2022-12-19,1,,,,,,0
130,1120001251091,新規,0,2022-12-19,2022-12-19,辛辞株式会社,,株式会社,大阪府,大阪市平野区,平野馬場１丁目５番２５号,,27,126,5470048,,,,,,,2022-12-19,1,,,,,シンジ,0
131,1120001251133,新規,0,2022-12-19,2022-12-19,株式会社ＦＩＶＥＺ,,株式会社,大阪府,大阪市天王寺区,大道４丁目１０番１３号寺田町吉泉ビル４階,,27,109,5430052,,,,,,,2022-12-19,1,,,,,ファイブズ,0
132,1120001251158,新規,0,2022-12-19,2022-12-19,株式会社プティタプティ,,株式会社,大阪府,大阪市都島区,都島北通１丁目１１番１５号,,27,102,5340014,,,,,,,2022-12-19,1,,,,,プティタプティ,0
133,1120001251166,新規,0,2022-12-19,2022-12-19,株式会社ペルショワール,,株式会社,大阪府,大阪市北区,曾根崎新地１丁目５番７号森ビルＢ１,,27,127,5300002,,,,,,,2022-12-19,1,,,,,ペルショワール,0
134,1120001251182,新規,0,2022-12-19,2022-12-19,株式会社Ｃ３,,株式会社,大阪府,大阪市北区,中津１丁目２番２１号,,27,127,5310071,,,,,,,2022-12-19,1,,,,,シースリー,0
139,1120005023355,新規,0,2022-12-19,2022-12-19,一般社団法人ＵＰＦ大阪,,その他の設立登記法人,大阪府,大阪市阿倍野区,阪南町５丁目２３番１１号グランデマルマン３０Ａ,,27,119,5450021,,,,,,,2022-12-19,1,,,,,,0
140,1120101066687,新規,0,2022-12-19,2022-12-19,株式会社マミメロ,,株式会社,大阪府,岸和田市,加守町２丁目１５番６号,,27,202,5960042,,,,,,,2022-12-19,1,,,,,マミメロ,0
141,1120101066695,新規,0,2022-12-19,2022-12-19,株式会社ＫＢＳ,,株式会社,大阪府,堺市北区,東浅香山町３丁１４５番地１浅香山団地５－１０６号,,27,146,5918008,,,,,,,2022-12-19,1,,,,,ケービーエス,0
142,1120103004983,新規,0,2022-12-19,2022-12-19,合同会社ハピファム,,合同会社,大阪府,泉南郡熊取町,五門西３丁目２３番６号,,27,361,5900415,,,,,,,2022-12-19,1,,,,,,0
146,1130001073279,新規,0,2022-12-19,2022-12-19,謙藍株式会社,,株式会社,京都府,京都市下京区,富永町３５８－４１３,,26,106,6008023,,,,,,,2022-12-19,1,,,,,ケンラン,0
147,1130001073312,新規,0,2022-12-19,2022-12-19,株式会社らっしゅなも,,株式会社,京都府,京都市下京区,松原通烏丸東入上る因幡堂町７２８番地２,,26,106,6000000,,,,,,,2022-12-19,1,,,,,ラッシュナモ,0
158,1160001024700,新規,0,2022-12-19,2022-12-19,株式会社スマートアグリ研究所,,株式会社,滋賀県,大津市,関津５丁目３番４号,,25,201,5202277,,,,,,,2022-12-19,1,,,,,スマートアグリケンキュウショ,0
159,1160001024709,新規,0,2022-12-19,2022-12-19,藤栄建設株式会社,,株式会社,滋賀県,東近江市,八日市東本町６番５５号,,25,213,5270025,,,,,,,2022-12-19,1,,,,,トウエイケンセツ,0
171,1180003024622,新規,0,2022-12-19,2022-12-19,ｃｒｅａｔｅ．．ｔｈｅ　ｆｕｔｕｒｅ合同会社,,合同会社,愛知県,名古屋市中村区,羽衣町２４番地Ｂｌｏｉｓ中村３Ａ号,,23,105,4530026,,,,,,,2022-12-19,1,,,,,クリエイトザフューチャー,0
172,1180005020025,新規,0,2022-12-19,2022-12-19,一般社団法人アハトレーニング協会,,その他の設立登記法人,愛知県,日進市,北新町殿ケ池上５４６番地１,,23,230,4700103,,,,,,,2022-12-19,1,,,,,アハトレーニングキョウカイ,0
173,1180005020033,新規,0,2022-12-19,2022-12-19,医療法人ふじのはな,,その他の設立登記法人,愛知県,一宮市,泉１丁目１５番２号北斗ビル５階,,23,203,4910861,,,,,,,2022-12-19,1,,,,,フジノハナ,0
174,1180005020041,新規,0,2022-12-19,2022-12-19,医療法人ＯＳＨＩＭＵＲＡ　ＭＥＤＩＣＡＬ,,その他の設立登記法人,愛知県,名古屋市中川区,細米町１丁目７番地,,23,110,4540847,,,,,,,2022-12-19,1,,,,,オシムラメディカル,0
201,1320001019469,新規,0,2022-12-19,2022-12-19,株式会社ＡＬＬ‐ｉｎ,,株式会社,大分県,日田市,丸山２丁目４番６１号,,44,204,8770008,,,,,,,2022-12-19,1,,,,,オールイン,0
215,1360005006757,新規,0,2022-12-19,2022-12-19,一般社団法人てだこｋｉｄｓ,,その他の設立登記法人,沖縄県,浦添市,当山２丁目２３番１３号,,47,208,9012104,,,,,,,2022-12-19,1,,,,,テダコキッズ,0
219,1370001049387,新規,0,2022-12-19,2022-12-19,株式会社ＴＳＵＮＡＧＵ,,株式会社,宮城県,宮城郡七ヶ浜町,遠山１丁目２番６８号,,04,404,9850823,,,,,,,2022-12-19,1,,,,,ツナグ,0
221,1380003005346,新規,0,2022-12-19,2022-12-19,オフィスクラリス合同会社,,合同会社,福島県,いわき市,小名浜愛宕上１０番地の２,,07,204,9718166,,,,,,,2022-12-19,1,,,,,,0
223,1400001016094,新規,0,2022-12-19,2022-12-19,株式会社レクエルド,,株式会社,岩手県,盛岡市,みたけ１丁目７番２３号５Ｆ,,03,201,0200122,,,,,,,2022-12-19,1,,,,,レクエルド,0
226,1420003002628,新規,0,2022-12-19,2022-12-19,合同会社ＫＣ‐１９インベストメント,,合同会社,青森県,上北郡七戸町,字森ノ上１００番地１,,02,402,0392827,,,,,,,2022-12-19,1,,,,,ケイシージュウキュウインベストメント,0
229,1430001088049,新規,0,2022-12-19,2022-12-19,株式会社ココイチカ,,株式会社,北海道,札幌市中央区,北四条西２４丁目２番１－２０８号,,01,101,0640824,,,,,,,2022-12-19,1,,,,,ココイチカ,0
230,1430001088057,新規,0,2022-12-19,2022-12-19,株式会社１ＬＩＴ,,株式会社,北海道,札幌市中央区,南二条西５丁目３１番地５,,01,101,0600062,,,,,,,2022-12-19,1,,,,,イチリット,0
231,1430003014556,新規,0,2022-12-19,2022-12-19,合同会社助っ人,,合同会社,北海道,登別市,桜木町１丁目８－１５コンフォーティア桜木１０１号室,,01,230,0590023,,,,,,,2022-12-19,1,,,,,スケット,0
234,1480003001905,新規,0,2022-12-19,2022-12-19,Ｅｘｃｅｅｄ　Ａｌｌ合同会社,,合同会社,徳島県,徳島市,大原町千代ケ丸山７－７２,,36,201,7708012,,,,,,,2022-12-19,1,,,,,イクシードオール,0
243,1700150113414,新規,0,2022-12-19,2022-12-19,ＳＫＣ未来素材株式会社,,外国会社等,東京都,千代田区,大手町２丁目１番１号大手町野村ビル８Ｆ,,13,101,1000004,大韓民国京畿道水原市長安区長安路３０９番ギル８４（亭子洞）,,,,,,2022-12-19,1,,,,,エスケーシーミライソザイカブシキガイシヤ,0
252,2010001231698,新規,0,2022-12-19,2022-12-19,株式会社Ｓｏｃｉａｌ　Ｋｉｔｃｈｅｎ,,株式会社,東京都,中央区,日本橋兜町６－７兜町第７平和ビル１階,,13,102,1030026,,,,,,,2022-12-19,1,,,,,ソーシャルキッチン,0
255,2010005035880,新規,0,2022-12-19,2022-12-19,一般社団法人在日ベトナム人ライフサポートアソシエイツ,,その他の設立登記法人,東京都,中央区,新川１丁目８－８アクロス新川ビル２階,,13,102,1040033,,,,,,,2022-12-19,1,,,,,ザイニチベトナムジンライフサポートアソシエイツ,0
256,2010005035930,新規,0,2022-12-19,2022-12-19,一般社団法人全国ラムネ協会,,その他の設立登記法人,東京都,千代田区,神田須田町２丁目９番地２,,13,101,1010041,,,,,,,2022-12-19,1,,,,,ゼンコクラムネキョウカイ,0
263,2010401171395,新規,0,2022-12-19,2022-12-19,ＤＯＳＩＧＮ株式会社,,株式会社,東京都,港区,南青山３丁目１０番４１号ジュエル青山２０１,,13,103,1070062,,,,,,,2022-12-19,1,,,,,トーサイン,0
268,2010601062312,新規,0,2022-12-19,2022-12-19,株式会社ユウシンエキスプレス,,株式会社,東京都,江東区,枝川１丁目１５番９－１２７号,,13,108,1350051,,,,,,,2022-12-19,1,,,,,ユウシンエキスプレス,0
282,2011001151481,新規,0,2022-12-19,2022-12-19,株式会社アイレップフレール,,株式会社,東京都,渋谷区,恵比寿４丁目２０番３号,,13,113,1500013,,,,,,,2022-12-19,1,,,,,アイレップフレール,0
283,2011003015949,新規,0,2022-12-19,2022-12-19,合同会社いりのい,,合同会社,東京都,目黒区,東山１丁目２６番１号小野木ビル東山２０１,,13,110,1530043,,,,,,,2022-12-19,1,,,,,イリノイ,0
285,2011101101221,新規,0,2022-12-19,2022-12-19,スクー株式会社,,株式会社,東京都,新宿区,西新宿７丁目１番７号新宿ダイカンプラザＡ館７１２号室,,13,104,1600023,,,,,,,2022-12-19,1,,,,,スクー,0
288,2011401024782,新規,0,2022-12-19,2022-12-19,株式会社キャンペ,,株式会社,東京都,板橋区,上板橋１丁目１９番１１－７０２号,,13,119,1740076,,,,,,,2022-12-19,1,,,,,キャンペ,0
294,2011503005400,新規,0,2022-12-19,2022-12-19,アジア商事合同会社,,合同会社,東京都,北区,赤羽１丁目１番７号新日本パレスビル３Ｆ,,13,117,1150045,,,,,,,2022-12-19,1,,,,,,0
298,2011701025885,新規,0,2022-12-19,2022-12-19,サトシマトリックス株式会社,,株式会社,東京都,江戸川区,船堀３丁目７番１１号矢島ビル２０２号,,13,123,1340091,,,,,,,2022-12-19,1,,,,,サトシマトリックス,0
308,2013101009080,新規,0,2022-12-19,2022-12-19,株式会社ＴＴＫ,,株式会社,東京都,福生市,南田園３丁目１３―１ルシオールメゾン２０２,,13,218,1970004,,,,,,,2022-12-19,1,,,,,ティーティーケー,0
310,2013301050082,新規,0,2022-12-19,2022-12-19,クローザー株式会社,,株式会社,東京都,豊島区,南大塚２丁目３８番１号ＲＥＩＤ－Ｃ大塚ビル７－１２,,13,116,1700005,,,,,,,2022-12-19,1,,,,,クローザー,0
326,2021001077750,新規,0,2022-12-19,2022-12-19,スタリオン株式会社,,株式会社,神奈川県,相模原市中央区,相模原３丁目８番４号ツカサビル地下１階,,14,152,2520231,,,,,,,2022-12-19,1,,,,,スタリオン,0
331,2030001151465,新規,0,2022-12-19,2022-12-19,家リパブリック株式会社,,株式会社,埼玉県,東松山市,松葉町２丁目１０番１６号,,11,212,3550017,,,,,,,2022-12-19,1,,,,,イエリパブリック,0
332,2030001151498,新規,0,2022-12-19,2022-12-19,株式会社ｋｉｔｏ警備グループ,,株式会社,埼玉県,川口市,栄町３丁目２番２０号川口駅前ビル２階,,11,203,3320017,,,,,,,2022-12-19,1,,,,,キトーケイビグループ,0
333,2030001151515,新規,0,2022-12-19,2022-12-19,株式会社ＫＵＳＨ,,株式会社,埼玉県,本庄市,駅南１丁目９番１号３階,,11,211,3670041,,,,,,,2022-12-19,1,,,,,クシュ,0
334,2030001151548,新規,0,2022-12-19,2022-12-19,株式会社Ｉ．Ｎ．Ｏ．,,株式会社,埼玉県,川越市,三光町１１番地５,,11,201,3500067,,,,,,,2022-12-19,1,,,,,アイエヌオー,0
338,2030003020775,新規,0,2022-12-19,2022-12-19,合同会社向英,,合同会社,埼玉県,川口市,戸塚東１丁目２１番８号,,11,203,3330802,,,,,,,2022-12-19,1,,,,,コウエイ,0
346,2050001052091,新規,0,2022-12-19,2022-12-19,株式会社ＨＯＰＥ,,株式会社,茨城県,つくば市,竹園３丁目１５番地ウエリスつくば竹園１４１４号,,08,220,3050032,,,,,,,2022-12-19,1,,,,,ホープ,0
354,2080001025350,新規,0,2022-12-19,2022-12-19,Ｔ．Ａ．Ｅアセットマネジメント株式会社,,株式会社,静岡県,静岡市清水区,草薙１丁目３番１５号マークスアネシスタワー草薙２６０１,,22,103,4240886,,,,,,,2022-12-19,1,,,,,ティエイイーアセットマネジメント,0
358,2080105006305,新規,0,2022-12-19,2022-12-19,一般社団法人レディース鍼灸協会,,その他の設立登記法人,静岡県,沼津市,大手町３丁目４番１６号マルトモビル４階,,22,203,4100801,,,,,,,2022-12-19,1,,,,,レディースシンキュウキョウカイ,0
359,2080401026205,新規,0,2022-12-19,2022-12-19,株式会社Ｒｅ‐ｏｎ,,株式会社,静岡県,磐田市,城之崎３丁目７番地５,,22,211,4380084,,,,,,,2022-12-19,1,,,,,リオン,0
361,2090001017891,新規,0,2022-12-19,2022-12-19,株式会社ＲａＭｏ,,株式会社,山梨県,甲府市,住吉５丁目２４－１７,,19,201,4000851,,,,,,,2022-12-19,1,,,,,ラモ,0
362,2090001017900,新規,0,2022-12-19,2022-12-19,株式会社山梨ＴＥＣＨ,,株式会社,山梨県,山梨市,下石森５５０番地１,,19,205,4050015,,,,,,,2022-12-19,1,,,,,ヤマナシテック,0
382,2120001251090,新規,0,2022-12-19,2022-12-19,株式会社タカス薬局,,株式会社,大阪府,大阪市淀川区,西三国２丁目８番１７号,,27,123,5320006,,,,,,,2022-12-19,1,,,,,タカスヤッキョク,0
383,2120001251132,新規,0,2022-12-19,2022-12-19,一本正棕貿易株式会社,,株式会社,大阪府,大阪市浪速区,元町１丁目７番２－７０５号,,27,111,5560016,,,,,,,2022-12-19,1,,,,,イッポンセイソウボウエキ,0
384,2120001251140,新規,0,2022-12-19,2022-12-19,株式会社齋藤工業,,株式会社,大阪府,大阪市東淀川区,上新庄２丁目２０番４５号１０２号室,,27,114,5330006,,,,,,,2022-12-19,1,,,,,サイトウコウギョウ,0
385,2120001251173,新規,0,2022-12-19,2022-12-19,株式会社アドファイン,,株式会社,大阪府,大阪市生野区,巽北１丁目６番１７号,00128835,27,116,5440004,,,,,,,2022-12-19,1,,,,,アドファイン,0
386,2120003023100,新規,0,2022-12-19,2022-12-19,ＴＫサービス合同会社,,合同会社,大阪府,枚方市,香里園町１９番３号,,27,210,5730086,,,,,,,2022-12-19,1,,,,,ティーケイサービス,0
393,2120103004982,新規,0,2022-12-19,2022-12-19,合同会社エネフリド,,合同会社,大阪府,松原市,東新町３丁目１１番１２号,,27,217,5800024,,,,,,,2022-12-19,1,,,,,エネフリド,0
400,2130001073328,新規,0,2022-12-19,2022-12-19,三木生和株式会社,,株式会社,京都府,京都市伏見区,深草野田町８番地丸喜ビル２Ｆ西側,,26,109,6120024,,,,,,,2022-12-19,1,,,,,ミキセイワ,0
404,2140001128436,新規,0,2022-12-19,2022-12-19,株式会社エーエスラボ,,株式会社,兵庫県,神戸市須磨区,妙法寺字宮ノ下５１番地の１２,,28,107,6540121,,,,,,,2022-12-19,1,,,,,エーエスラボ,0
405,2140001128452,新規,0,2022-12-19,2022-12-19,株式会社大日,,株式会社,兵庫県,神戸市中央区,中山手通１丁目２６－１－５Ｆ－Ｄ,,28,110,6500004,,,,,,,2022-12-19,1,,,,,ダイニチ,0
406,2140001128469,新規,0,2022-12-19,2022-12-19,株式会社秀栄,,株式会社,兵庫県,神戸市東灘区,御影郡家１丁目４番４号,,28,101,6580048,,,,,,,2022-12-19,1,,,,,シュウエイ,0
426,2180001154263,新規,0,2022-12-19,2022-12-19,株式会社ジオコンサルタント,,株式会社,愛知県,名古屋市守山区,小幡中３丁目２７番２４号,,23,113,4630013,,,,,,,2022-12-19,1,,,,,ジオコンサルタント,0
432,2180003024596,新規,0,2022-12-19,2022-12-19,合同会社キミッツ,,合同会社,愛知県,名古屋市中区,新栄１丁目４９－１８,,23,106,4600007,,,,,,,2022-12-19,1,,,,,キミッツ,0
433,2180003024605,新規,0,2022-12-19,2022-12-19,せいしん合同会社,,合同会社,愛知県,名古屋市中区,丸の内２丁目１７番２６－７０５号,,23,106,4600002,,,,,,,2022-12-19,1,,,,,セイシン,0
434,2180005020032,新規,0,2022-12-19,2022-12-19,一般社団法人ＥｓｏＫ,,その他の設立登記法人,愛知県,名古屋市守山区,元郷１丁目１３１０番地,,23,113,4630025,,,,,,,2022-12-19,1,,,,,エソケー,0
438,2180301036921,新規,0,2022-12-19,2022-12-19,Ｐａｌｍ株式会社,,株式会社,愛知県,豊川市,小坂井町門並３３番地２－３Ｆ,,23,207,4410103,,,,,,,2022-12-19,1,,,,,パーム,0
439,2180305009428,新規,0,2022-12-19,2022-12-19,医療法人赤松町わたなべ内科クリニック,,その他の設立登記法人,愛知県,安城市,赤松町前川１６番３,,23,212,4460046,,,,,,,2022-12-19,1,,,,,アカマツチョウワタナベナイカクリニック,0
442,2200001040790,新規,0,2022-12-19,2022-12-19,株式会社ＡＨＡＬＩＦＥ,,株式会社,岐阜県,岐阜市,薮田南１丁目８番４号,,21,201,5008384,,,,,,,2022-12-19,1,,,,,アハライフ,0
450,2220003003414,新規,0,2022-12-19,2022-12-19,万福合同会社,,合同会社,石川県,金沢市,諸江町下丁１７５番地７,,17,201,9200017,,,,,,,2022-12-19,1,,,,,マンプク,0
452,2240003005937,新規,0,2022-12-19,2022-12-19,合同会社ＡＧ,,合同会社,広島県,広島市東区,牛田東１丁目３－２５－３０３,,34,102,7320063,,,,,,,2022-12-19,1,,,,,エージー,0
459,2290003013324,新規,0,2022-12-19,2022-12-19,ＹＥＮ　ＪＡＰＡＮ合同会社,,合同会社,福岡県,福岡市東区,箱崎４丁目３３番２４号,,40,131,8120053,,,,,,,2022-12-19,1,,,,,イエンジャパン,0
466,2310003004493,新規,0,2022-12-19,2022-12-19,合同会社ＳＩＮ‐ＦＯＲＷＡＲＤ,,合同会社,長崎県,長崎市,けやき台町１－１,,42,201,8528146,,,,,,,2022-12-19,1,,,,,シンフォワード,0
469,2320003003973,新規,0,2022-12-19,2022-12-19,ＳＥプランニング合同会社,,合同会社,大分県,大分市,公園通り１丁目３番地６,,44,201,8700173,,,,,,,2022-12-19,1,,,,,エスイープランニング,0
476,2360001031329,新規,0,2022-12-19,2022-12-19,株式会社エナック,,株式会社,沖縄県,南城市,玉城字親慶原２２５番地５・２Ｆ,,47,215,9010608,,,,,,,2022-12-19,1,,,,,エナック,0
477,2360001031337,新規,0,2022-12-19,2022-12-19,株式会社ＩＧＮＩＳ　ＳＥＣＵＲＩＴＹ,,株式会社,沖縄県,沖縄市,高原５丁目３番１２号２Ｆ奥号室,,47,211,9042171,,,,,,,2022-12-19,1,,,,,イグニスセキュリティ,0
478,2370001049394,新規,0,2022-12-19,2022-12-19,株式会社グッジョイ,,株式会社,宮城県,仙台市青葉区,水の森３丁目３４番８号,,04,101,9810962,,,,,,,2022-12-19,1,,,,,グッジョイ,0
479,2370003005924,新規,0,2022-12-19,2022-12-19,合同会社ハートミラー,,合同会社,宮城県,仙台市青葉区,中央４丁目８番１７号小林ビル１Ｆ,,04,101,9800021,,,,,,,2022-12-19,1,,,,,ハートミラー,0
485,2420003002619,新規,0,2022-12-19,2022-12-19,合同会社ＫＣ‐１０インベストメント,,合同会社,青森県,上北郡七戸町,字森ノ上１００番地１,,02,402,0392827,,,,,,,2022-12-19,1,,,,,ケイシージュウインベストメント,0
486,2420003002627,新規,0,2022-12-19,2022-12-19,合同会社ＫＣ‐１８インベストメント,,合同会社,青森県,上北郡七戸町,字森ノ上１００番地１,,02,402,0392827,,,,,,,2022-12-19,1,,,,,ケイシージュウハチインベストメント,0
487,2430001088056,新規,0,2022-12-19,2022-12-19,株式会社ｐｌｕｓ　ｐ　ｖｉｌｌａｇｅ,,株式会社,北海道,千歳市,みどり台北１丁目８番２号,,01,224,0660083,,,,,,,2022-12-19,1,,,,,プラスピーヴィレッジ,0
488,2430001088072,新規,0,2022-12-19,2022-12-19,株式会社アマタイブ,,株式会社,北海道,札幌市白石区,菊水一条４丁目１番１２号,,01,104,0030801,,,,,,,2022-12-19,1,,,,,アマタイブ,0
491,2430003014555,新規,0,2022-12-19,2022-12-19,合同会社Ｆａｔｏ,,合同会社,北海道,札幌市北区,新琴似五条１７丁目１番１－３０６号,,01,102,0010905,,,,,,,2022-12-19,1,,,,,ファト,0
492,2430003014563,新規,0,2022-12-19,2022-12-19,合同会社ととのう,,合同会社,北海道,札幌市北区,北二十五条西１８丁目１番１８号,,01,102,0010025,,,,,,,2022-12-19,1,,,,,トトノウ,0
493,2430003014571,新規,0,2022-12-19,2022-12-19,Ｉ‐ｓｔａｇｅ合同会社,,合同会社,北海道,札幌市北区,新琴似十条１丁目３番７号,,01,102,0010910,,,,,,,2022-12-19,1,,,,,アイステージ,0
496,2470001019387,新規,0,2022-12-19,2022-12-19,アイディールガーデン株式会社,,株式会社,香川県,高松市,由良町９０５番地４,,37,201,7610441,,,,,,,2022-12-19,1,,,,,アイディールガーデン,0
500,2490001010360,新規,0,2022-12-19,2022-12-19,株式会社こうりょうホールディングス,,株式会社,高知県,高知市,一宮中町３丁目１番２号,,39,201,7818134,,,,,,,2022-12-19,1,,,,,コウリョウホールディングス,0
503,2500001024664,新規,0,2022-12-19,2022-12-19,株式会社エルプラス,,株式会社,愛媛県,松山市,東長戸４丁目２番２８号,,38,201,7918005,,,,,,,2022-12-19,1,,,,,エルプラス,0
506,2500003002932,新規,0,2022-12-19,2022-12-19,合同会社まほろば,,合同会社,愛媛県,今治市,郷新屋敷町１丁目１番４０号,,38,202,7940826,,,,,,,2022-12-19,1,,,,,マホロバ,0
524,3010401171337,新規,0,2022-12-19,2022-12-19,株式会社Ｍｅｉｌｌｙ,,株式会社,東京都,港区,南青山４丁目１８番１１号フォレストヒルズイーストウィング２Ｆ,,13,103,1070062,,,,,,,2022-12-19,1,,,,,メイリー,0
525,3010401171394,新規,0,2022-12-19,2022-12-19,アライバルズ株式会社,,株式会社,東京都,港区,東麻布２丁目３５番１号ＫＣビル６Ｆ,,13,103,1060044,,,,,,,2022-12-19,1,,,,,アライバルズ,0
536,3010801033500,新規,0,2022-12-19,2022-12-19,南陽株式会社,,株式会社,東京都,大田区,西六郷１丁目３５番３号,,13,111,1440056,,,,,,,2022-12-19,1,,,,,ナンヨウ,0
552,3011003015931,新規,0,2022-12-19,2022-12-19,ＬＩＶＥ　ＭＥ合同会社,,合同会社,東京都,渋谷区,渋谷２丁目１９－１５宮益坂ビルディング６０９,,13,113,1500002,,,,,,,2022-12-19,1,,,,,ライブミー,0
554,3011101101212,新規,0,2022-12-19,2022-12-19,みらい承継農業株式会社,,株式会社,東京都,新宿区,西落合２丁目１０番１６号,,13,104,1610031,,,,,,,2022-12-19,1,,,,,ミライショウケイノウギョウ,0
557,3011103012507,新規,0,2022-12-19,2022-12-19,新富士インター倉庫合同会社,,合同会社,東京都,新宿区,四谷４丁目３２番８号ＹＫＢサニービル６階,,13,104,1600004,,,,,,,2022-12-19,1,,,,,シンフジインターソウコ,0
562,3011401024781,新規,0,2022-12-19,2022-12-19,株式会社Ｒ．Ａ．,,株式会社,東京都,板橋区,赤塚３丁目２６番地７,,13,119,1750092,,,,,,,2022-12-19,1,,,,,アールエー,0
576,3012401039968,新規,0,2022-12-19,2022-12-19,株式会社レインフラワー,,株式会社,東京都,調布市,仙川町３丁目１－３丸商ビル２Ｆ,,13,208,1820002,,,,,,,2022-12-19,1,,,,,レインフラワー,0
587,3020003022929,新規,0,2022-12-19,2022-12-19,ＮＮＨ合同会社,,合同会社,神奈川県,川崎市高津区,子母口４４番地,,14,134,2130023,,,,,,,2022-12-19,1,,,,,エヌエヌエイチ,0
599,3030001151530,新規,0,2022-12-19,2022-12-19,小野株式会社,,株式会社,埼玉県,入間郡毛呂山町,岩井東１丁目２７－２エクセレントハイム１０３号室,,11,326,3500467,,,,,,,2022-12-19,1,,,,,オノ,0
604,3030003020774,新規,0,2022-12-19,2022-12-19,平安商事合同会社,,合同会社,埼玉県,川口市,大字安行領根岸２８０４番地の２デュオガーデン川口さくらの杜７０７号,,11,203,3330834,,,,,,,2022-12-19,1,,,,,ヘイアンショウジ,0
624,3070001039912,新規,0,2022-12-19,2022-12-19,リンリンファーム株式会社,,株式会社,群馬県,前橋市,富士見町時沢１１５４番地７,,10,201,3710104,,,,,,,2022-12-19,1,,,,,リンリンファーム,0
625,3070003004757,新規,0,2022-12-19,2022-12-19,合同会社ＭＡＰ,,合同会社,群馬県,伊勢崎市,田中島町１４２８‐２１,,10,204,3720802,,,,,,,2022-12-19,1,,,,,マップ,0
631,3090001017890,新規,0,2022-12-19,2022-12-19,ｌｉｌｄｏｔｓ株式会社,,株式会社,山梨県,富士吉田市,下吉田４丁目１番２７号ＮＳＩビル１Ｆ,,19,202,4030004,,,,,,,2022-12-19,1,,,,,,0
632,3090001017899,新規,0,2022-12-19,2022-12-19,株式会社ヨダファーム,,株式会社,山梨県,中央市,藤巻１５２０番地,,19,214,4093833,,,,,,,2022-12-19,1,,,,,ヨダファーム,0
634,3090003002214,新規,0,2022-12-19,2022-12-19,合同会社クリエイティブミュージカル,,合同会社,山梨県,南都留郡富士河口湖町,船津２４４２番地１富士桜１,,19,430,4010301,,,,,,,2022-12-19,1,,,,,,0
648,3120001251024,新規,0,2022-12-19,2022-12-19,ケーアール設備株式会社,,株式会社,大阪府,大阪市東淀川区,大道南３丁目１３番６－１０１号,,27,114,5330012,,,,,,,2022-12-19,1,,,,,ケーアールセツビ,0
649,3120001251081,新規,0,2022-12-19,2022-12-19,株式会社Ｇｏｌｄ,,株式会社,大阪府,大阪市北区,兎我野町１３－６,,27,127,5300056,,,,,,,2022-12-19,1,,,,,ゴールド,0
650,3120001251098,新規,0,2022-12-19,2022-12-19,株式会社ＢＲＯＴＨＥＲ,,株式会社,大阪府,枚方市,津田駅前２丁目２５番５号ヨコヤママンション１号館３０３,,27,210,5730125,,,,,,,2022-12-19,1,,,,,ブラザー,0
651,3120001251131,新規,0,2022-12-19,2022-12-19,日金商事株式会社,,株式会社,大阪府,大阪市大正区,南恩加島６丁目１７番２６号,,27,108,5510021,,,,,,,2022-12-19,1,,,,,ニッキンショウジ,0
652,3120001251164,新規,0,2022-12-19,2022-12-19,株式会社まこと企画,,株式会社,大阪府,大阪市城東区,放出西２丁目８番１０号,,27,118,5360011,,,,,,,2022-12-19,1,,,,,マコトキカク,0
656,3120103004981,新規,0,2022-12-19,2022-12-19,合同会社みろく企画,,合同会社,大阪府,和泉市,納花町１２６－２,,27,219,5941116,,,,,,,2022-12-19,1,,,,,ミロクキカク,0
658,3120905006399,新規,0,2022-12-19,2022-12-19,特定非営利活動法人茨木シニアＩＣＴアソシエーション,,その他の設立登記法人,大阪府,茨木市,北春日丘２丁目１７番２７号,,27,211,5670048,,,,,,,2022-12-19,1,,,,,イバラキシニアアイシーティアソシエーション,0
667,3130001073302,新規,0,2022-12-19,2022-12-19,株式会社ｓｕｒｅ　ｔｏ　ｗｏｒｋ,,株式会社,京都府,木津川市,南加茂台１丁目１３番地４,,26,214,6191127,,,,,,,2022-12-19,1,,,,,シェアートゥーウォーク,0
671,3130003008388,新規,0,2022-12-19,2022-12-19,合同会社クラリス,,合同会社,京都府,京都市西京区,川島莚田町９番地３ＳＨＡＲＥＤＥＰＡＲＴＭＥＮＴ,,26,111,6158105,,,,,,,2022-12-19,1,,,,,クラリス,0
675,3140001128451,新規,0,2022-12-19,2022-12-19,Ｒｏｋｋｏ　Ｉｎｖｅｓｔｍｅｎｔ　Ｐａｒｔｎｅｒｓ株式会社,,株式会社,兵庫県,西宮市,苦楽園四番町５番３８号,,28,204,6620088,,,,,,,2022-12-19,1,,,,,ロッコーインベストメントパートナーズ,0
677,3140005026412,新規,0,2022-12-19,2022-12-19,一般社団法人日本療育福祉推進協会,,その他の設立登記法人,兵庫県,神戸市中央区,北長狭通４丁目５－９ベレオ元町山手１階,,28,110,6500012,,,,,,,2022-12-19,1,,,,,ニホンリョウイクフクシスイシンキョウカイ,0
687,3180003024612,新規,0,2022-12-19,2022-12-19,合同会社八善コーポレーション,,合同会社,愛知県,名古屋市中村区,名駅３丁目４－１０アルティメイト名駅１ｓｔ、２階,,23,105,4500002,,,,,,,2022-12-19,1,,,,,ハチゼンコーポレーション,0
688,3180005020031,新規,0,2022-12-19,2022-12-19,医療法人歯科院南荒子の森,,その他の設立登記法人,愛知県,名古屋市中川区,若山町４丁目４３番地,,23,110,4540876,,,,,,,2022-12-19,1,,,,,シカインミナミアラコノモリ,0
692,3180301036920,新規,0,2022-12-19,2022-12-19,株式会社雅,,株式会社,愛知県,西尾市,米津町里７１番地５,,23,213,4450802,,,,,,,2022-12-19,1,,,,,ミヤビ,0
695,3190001030033,新規,0,2022-12-19,2022-12-19,株式会社セブンマリン,,株式会社,三重県,津市,安濃町太田１６６４番地１７,,24,201,5142304,,,,,,,2022-12-19,1,,,,,セブンマリン,0
697,3190003004175,新規,0,2022-12-19,2022-12-19,合同会社ｒ．ｍ．ｆ,,合同会社,三重県,三重郡菰野町,大字潤田１０６４番地,,24,341,5101253,,,,,,,2022-12-19,1,,,,,アールエムエフ,0
705,3220001025186,新規,0,2022-12-19,2022-12-19,株式会社ブエナスカサス,,株式会社,石川県,白山市,鹿島平５８番地６８,,17,210,9290206,,,,,,,2022-12-19,1,,,,,ブエナスカサス,0
719,3290001099959,新規,0,2022-12-19,2022-12-19,株式会社ファイブエイト,,株式会社,福岡県,福岡市早良区,西新２丁目１８番２４号,,40,137,8140002,,,,,,,2022-12-19,1,,,,,ファイブエイト,0
721,3290003013307,新規,0,2022-12-19,2022-12-19,合同会社桜喜,,合同会社,福岡県,大牟田市,諏訪町３丁目３１番地１諏訪アパート２０１,,40,202,8360051,,,,,,,2022-12-19,1,,,,,オウキ,0
724,3290801029132,新規,0,2022-12-19,2022-12-19,株式会社ＦＥＬＩＸ,,株式会社,福岡県,遠賀郡岡垣町,東松原２丁目８－１３,,40,383,8114228,,,,,,,2022-12-19,1,,,,,フェリックス,0
729,3310001018172,新規,0,2022-12-19,2022-12-19,株式会社光工業,,株式会社,長崎県,大村市,本町４５０番地２,,42,205,8560832,,,,,,,2022-12-19,1,,,,,,0
734,3320001019475,新規,0,2022-12-19,2022-12-19,３ＣＯ株式会社,,株式会社,大分県,大分市,大字下郡９９３番地の１,,44,201,8700951,,,,,,,2022-12-19,1,,,,,サンコー,0
742,3360001031328,新規,0,2022-12-19,2022-12-19,株式会社與那覇興産,,株式会社,沖縄県,宜野湾市,嘉数４丁目２２番２号,,47,205,9012226,,,,,,,2022-12-19,1,,,,,ヨナハコウサン,0
743,3360001031344,新規,0,2022-12-19,2022-12-19,株式会社ＴＨＩＲＤ工務店,,株式会社,沖縄県,名護市,字屋部１２５８番地１,,47,209,9050007,,,,,,,2022-12-19,1,,,,,サードコウムテン,0
745,3360005006755,新規,0,2022-12-19,2022-12-19,一般社団法人虹の会,,その他の設立登記法人,沖縄県,浦添市,港川２丁目２２番６－６１０号ユアサハイムＢ棟,,47,208,9012134,,,,,,,2022-12-19,1,,,,,ニジノカイ,0
747,3370001049393,新規,0,2022-12-19,2022-12-19,株式会社きむたく,,株式会社,宮城県,仙台市青葉区,国分町３丁目３番１号定禅寺ヒルズ５階,,04,101,9800803,,,,,,,2022-12-19,1,,,,,キムタク,0
752,3380003005344,新規,0,2022-12-19,2022-12-19,合同会社再生屋Ｒｉｎｏ,,合同会社,福島県,伊達郡川俣町,字赤坂１４番地,,07,308,9601465,,,,,,,2022-12-19,1,,,,,サイセイヤリノ,0
755,3420003002618,新規,0,2022-12-19,2022-12-19,合同会社ＫＣ‐０９インベストメント,,合同会社,青森県,上北郡七戸町,字森ノ上１００番地１,,02,402,0392827,,,,,,,2022-12-19,1,,,,,ケイシーゼロキュウインベストメント,0
756,3420003002626,新規,0,2022-12-19,2022-12-19,合同会社ＫＣ‐１７インベストメント,,合同会社,青森県,上北郡七戸町,字森ノ上１００番地１,,02,402,0392827,,,,,,,2022-12-19,1,,,,,ケイシージュウナナインベストメント,0
757,3420003002634,新規,0,2022-12-19,2022-12-19,合同会社ＫＣ‐２５インベストメント,,合同会社,青森県,上北郡七戸町,字森ノ上１００番地１,,02,402,0392827,,,,,,,2022-12-19,1,,,,,ケイシーニジュウゴインベストメント,0
759,3430005014610,新規,0,2022-12-19,2022-12-19,有限責任札幌平和住宅組合,,その他の設立登記法人,北海道,札幌市中央区,南十条西１５丁目１４２５番地,,01,101,0640810,,,,,,,2022-12-19,1,,,,,ユウゲンセキニンサッポロヘイワ,0
762,3470001019386,新規,0,2022-12-19,2022-12-19,株式会社さくら,,株式会社,香川県,三豊市,財田町財田上６９５２番地１,,37,208,7690401,,,,,,,2022-12-19,1,,,,,サクラ,0
765,3500001024663,新規,0,2022-12-19,2022-12-19,株式会社ウォルト,,株式会社,愛媛県,西条市,神拝甲２３３番地１,,38,206,7930041,,,,,,,2022-12-19,1,,,,,ウォルト,0
767,3700150113239,新規,0,2022-12-19,2022-12-05,サンハウス第２刈谷管理組合,,その他,愛知県,刈谷市,新栄町１丁目５番,,23,210,4480843,,,,,,,2022-12-05,1,,,,,サンハウスダイニカリヤカンリクミアイ,0
768,3700150113395,新規,0,2022-12-19,2022-12-15,大泉パティシエクラブ,,その他,東京都,練馬区,大泉学園町７丁目２－２５,,13,120,1780061,,,,,,,2022-12-15,1,,,,,オオイズミパテイシエクラブ,0
775,4010001231630,新規,0,2022-12-19,2022-12-19,株式会社ＭＥＴＡＶＩＳＩＯＮ,,株式会社,東京都,中央区,勝どき１丁目８番１号,,13,102,1040054,,,,,,,2022-12-19,1,,,,,メタビジョン,0
776,4010001231746,新規,0,2022-12-19,2022-12-19,株式会社ＨＭ２３,,株式会社,東京都,千代田区,神田平河町１番地第３東ビル６Ｆ,,13,101,1010027,,,,,,,2022-12-19,1,,,,,エイチエムトゥエンティースリー,0
791,4010401171229,新規,0,2022-12-19,2022-12-19,株式会社モアセッツ,,株式会社,東京都,港区,三田１丁目３－４０麻布十番ＢＵＳＩＮＥＳＳＣＵＢＥ－Ｓ天翔オフィス麻布十番７階７０１号室,,13,103,1080073,,,,,,,2022-12-19,1,,,,,モアセッツ,0
792,4010401171352,新規,0,2022-12-19,2022-12-19,ＢＬＵＥ　ＳＫＹ株式会社,,株式会社,東京都,港区,赤坂９丁目１番７号,,13,103,1070052,,,,,,,2022-12-19,1,,,,,ブルースカイ,0
793,4010401171393,新規,0,2022-12-19,2022-12-19,Ｈｒｅｅｄ株式会社,,株式会社,東京都,港区,赤坂４丁目１３番５号赤坂オフィスハイツ,,13,103,1070052,,,,,,,2022-12-19,1,,,,,フレッド,0
794,4010401171427,新規,0,2022-12-19,2022-12-19,株式会社ＪＥインベストメント,,株式会社,東京都,港区,赤坂６丁目１５番１１号,,13,103,1070052,,,,,,,2022-12-19,1,,,,,ジェイイーインベストメント,0
796,4010403029160,新規,0,2022-12-19,2022-12-19,合同会社アローエナジー,,合同会社,東京都,港区,新橋２丁目１６番１号,,13,103,1050004,,,,,,,2022-12-19,1,,,,,アローエナジー,0
799,4010601062319,新規,0,2022-12-19,2022-12-19,株式会社ＫＩＭＩ,,株式会社,東京都,江東区,冬木４番５号リバーサイド冬木４０１,,13,108,1350041,,,,,,,2022-12-19,1,,,,,キミ,0
804,4010701043623,新規,0,2022-12-19,2022-12-19,株式会社千楽,,株式会社,東京都,品川区,八潮５丁目１２番６８－９０６号,,13,109,1400003,,,,,,,2022-12-19,1,,,,,センラク,0
817,4011005009872,新規,0,2022-12-19,2022-12-19,一般社団法人オーケストラ響,,その他の設立登記法人,東京都,渋谷区,神山町１２番３－４０５号,,13,113,1500047,,,,,,,2022-12-19,1,,,,,オーケストラヒビキ,0
818,4011005009880,新規,0,2022-12-19,2022-12-19,一般社団法人ＣＨＡＲＩＴＹ　Ｘ,,その他の設立登記法人,東京都,渋谷区,千駄ヶ谷１丁目９番１１号フレンシア外苑西２１６,,13,113,1510051,,,,,,,2022-12-19,1,,,,,チャリティーエックス,0
821,4011101101211,新規,0,2022-12-19,2022-12-19,株式会社ぴーす,,株式会社,東京都,新宿区,西新宿３丁目３番１３号西新宿水間ビル６階,,13,104,1600023,,,,,,,2022-12-19,1,,,,,ピース,0
822,4011203003966,新規,0,2022-12-19,2022-12-19,ＥａｓｙＧｏｉｎｇ合同会社,,合同会社,東京都,中野区,上高田１丁目１５番１０号,,13,114,1640002,,,,,,,2022-12-19,1,,,,,イージーゴーイング,0
829,4011605002483,新規,0,2022-12-19,2022-12-19,一般社団法人グローバル伝統文化促進会,,その他の設立登記法人,東京都,練馬区,中村北１丁目１１－６－２２０８室,,13,120,1760023,,,,,,,2022-12-19,1,,,,,グローバルデントウブンカソクシンカイ,0
832,4011801041698,新規,0,2022-12-19,2022-12-19,株式会社ＳＯＵ,,株式会社,東京都,葛飾区,東金町３丁目６番２０号ベルシャトゥ金町６０２号,,13,122,1250041,,,,,,,2022-12-19,1,,,,,ソウ,0
833,4011803005437,新規,0,2022-12-19,2022-12-19,合同会社マルケイ,,合同会社,東京都,葛飾区,堀切１丁目４１番１１－１０１号,,13,122,1240006,,,,,,,2022-12-19,1,,,,,マルケイ,0
836,4012403005744,新規,0,2022-12-19,2022-12-19,わかばソリューションズ合同会社,,合同会社,東京都,府中市,緑町２丁目１６番地の５,,13,206,1830006,,,,,,,2022-12-19,1,,,,,ワカバソリューションズ,0
841,4013301050080,新規,0,2022-12-19,2022-12-19,精元株式会社,,株式会社,東京都,豊島区,東池袋１丁目４４番２号パラッシオ池袋２０５号室,,13,116,1700013,,,,,,,2022-12-19,1,,,,,セイゲン,0
845,4020001149459,新規,0,2022-12-19,2022-12-19,ＧＷデザイン株式会社,,株式会社,神奈川県,横浜市中区,不老町１丁目５番地５柏野ビル５階,,14,104,2310032,,,,,,,2022-12-19,1,,,,,ジーダブリューデザイン,0
846,4020001149483,新規,0,2022-12-19,2022-12-19,株式会社ヨキトモ,,株式会社,神奈川県,横浜市南区,真金町２丁目２０－９－３０２,,14,105,2320021,,,,,,,2022-12-19,1,,,,,ヨキトモ,0
848,4020005015780,新規,0,2022-12-19,2022-12-19,医療法人社団開誠慈会,,その他の設立登記法人,神奈川県,川崎市中原区,小杉町３丁目２４９番地２号クレアホームズ小杉１階,,14,133,2110063,,,,,,,2022-12-19,1,,,,,カイセイジカイ,0
857,4030001151496,新規,0,2022-12-19,2022-12-19,株式会社ワンコレクト,,株式会社,埼玉県,川越市,脇田本町１０番地１７伊勢原七番館４０６号室,,11,201,3501123,,,,,,,2022-12-19,1,,,,,ワンコレクト,0
858,4030001151538,新規,0,2022-12-19,2022-12-19,株式会社ソルトンライト,,株式会社,埼玉県,日高市,大字中鹿山３９４番地２６,,11,242,3501232,,,,,,,2022-12-19,1,,,,,ソルトンライト,0
863,4040001126266,新規,0,2022-12-19,2022-12-19,株式会社東京建窓,,株式会社,千葉県,流山市,南流山６丁目１６番地の２,,12,220,2700163,,,,,,,2022-12-19,1,,,,,トウキョウケンソウ,0
864,4040001126282,新規,0,2022-12-19,2022-12-19,エスト電設株式会社,,株式会社,千葉県,市原市,五所１９５２番地１０,,12,219,2900066,,,,,,,2022-12-19,1,,,,,エストデンセツ,0
869,4040003021507,新規,0,2022-12-19,2022-12-19,Ｓｅｒａｍ　Ｉｎｔｅｒｎａｔｉｏｎａｌ合同会社,,合同会社,千葉県,山武郡芝山町,高田１１８０番３のＢ,,12,409,2891623,,,,,,,2022-12-19,1,,,,,セーラムインターナショナル,0
870,4040003021515,新規,0,2022-12-19,2022-12-19,アイテック合同会社,,合同会社,千葉県,館山市,高井２６８番地の２５,,12,205,2940041,,,,,,,2022-12-19,1,,,,,アイテック,0
871,4050001052123,新規,0,2022-12-19,2022-12-19,株式会社ＢＥＥＳ,,株式会社,茨城県,水戸市,白梅２丁目９－１１アルファビル３０２号,,08,201,3100804,,,,,,,2022-12-19,1,,,,,ビーズ,0
876,4050005013187,新規,0,2022-12-19,2022-12-19,一般社団法人カランコエ,,その他の設立登記法人,茨城県,水戸市,渡里町３２６６番地１,,08,201,3100902,,,,,,,2022-12-19,1,,,,,カランコエ,0
909,4120001250990,新規,0,2022-12-19,2022-12-19,株式会社ＩＮＭＹＬＩＦＥ,,株式会社,大阪府,大阪市天王寺区,上本町３丁目２番１５号大写ビル７階Ｂ,,27,109,5430001,,,,,,,2022-12-19,1,,,,,インマイライフ,0
910,4120001251089,新規,0,2022-12-19,2022-12-19,明楽株式会社,,株式会社,大阪府,大阪市平野区,平野馬場１丁目５番２５号,,27,126,5470048,,,,,,,2022-12-19,1,,,,,メイラク,0
911,4120001251130,新規,0,2022-12-19,2022-12-19,株式会社クマロジック,,株式会社,大阪府,大阪市中央区,本町２丁目６番５号,,27,128,5410053,,,,,,,2022-12-19,1,,,,,クマロジック,0
914,4120101066684,新規,0,2022-12-19,2022-12-19,株式会社エスポワール,,株式会社,大阪府,和泉市,のぞみ野２丁目１番１－１４１０号,,27,219,5941105,,,,,,,2022-12-19,1,,,,,エスポワール,0
925,4130001073318,新規,0,2022-12-19,2022-12-19,シスマックス株式会社,,株式会社,京都府,京丹後市,弥栄町和田野４９０番地,,26,212,6270131,,,,,,,2022-12-19,1,,,,,シスマックス,0
930,4140001128475,新規,0,2022-12-19,2022-12-19,株式会社ｃｒａｆｔ,,株式会社,兵庫県,西宮市,甲子園口３丁目９番２３号,,28,204,6638113,,,,,,,2022-12-19,1,,,,,クラフト,0
938,4160003002759,新規,0,2022-12-19,2022-12-19,合同会社Ｆ．ＮｅｔＷｏｒｋ,,合同会社,滋賀県,東近江市,妙法寺町７９４番地４ハイツタニグチＡ２号室,,25,213,5270046,,,,,,,2022-12-19,1,,,,,エフネットワーク,0
944,4180001154237,新規,0,2022-12-19,2022-12-19,株式会社エムズコーポレーション,,株式会社,愛知県,春日井市,西山町１５９９番地２１３,,23,206,4860803,,,,,,,2022-12-19,1,,,,,エムズコーポレーション,0
946,4180005020022,新規,0,2022-12-19,2022-12-19,一般社団法人みんなの種まき,,その他の設立登記法人,愛知県,名古屋市西区,赤城町１８７番地の１,,23,104,4520813,,,,,,,2022-12-19,1,,,,,ミンナノタネマキ,0
947,4180005020039,新規,0,2022-12-19,2022-12-19,医療法人英朋会,,その他の設立登記法人,愛知県,名古屋市中区,正木４丁目８番７号れんが橋ビル３階,,23,106,4600024,,,,,,,2022-12-19,1,,,,,エイホウカイ,0
956,4200001040780,新規,0,2022-12-19,2022-12-19,株式会社クリーン代行,,株式会社,岐阜県,岐阜市,六条東１丁目１３番７号,,21,201,5008353,,,,,,,2022-12-19,1,,,,,クリーンダイコウ,0
970,4260001037508,新規,0,2022-12-19,2022-12-19,株式会社ウイズプラント,,株式会社,岡山県,瀬戸内市,邑久町大富６７３番地４,,33,212,7014234,,,,,,,2022-12-19,1,,,,,ウイズプラント,0
971,4260003004126,新規,0,2022-12-19,2022-12-19,山足合同会社,,合同会社,岡山県,笠岡市,神島６３９６番地１５,,33,205,7140044,,,,,,,2022-12-19,1,,,,,ヤマアシ,0
978,4290003013330,新規,0,2022-12-19,2022-12-19,合同会社パローマ,,合同会社,福岡県,福岡市博多区,博多駅前１‐２３‐１パークフロント博多駅前一丁目５Ｆ‐Ｂ,,40,132,8120000,,,,,,,2022-12-19,1,,,,,パローマ,0
982,4290803004289,新規,0,2022-12-19,2022-12-19,合同会社ジゲン,,合同会社,福岡県,北九州市戸畑区,中原東２丁目１０番８－３０７号,,40,105,8040012,,,,,,,2022-12-19,1,,,,,ジゲン,0
991,4320001019466,新規,0,2022-12-19,2022-12-19,株式会社まるにうめばち,,株式会社,大分県,宇佐市,院内町香下１４８６番地,,44,211,8720311,,,,,,,2022-12-19,1,,,,,マルニウメバチ,0
992,4320001019474,新規,0,2022-12-19,2022-12-19,いろはに株式会社,,株式会社,大分県,津久見市,綱代９５番２１,,44,207,8792400,,,,,,,2022-12-19,1,,,,,イロハニ,0
993,4330001030414,新規,0,2022-12-19,2022-12-19,永村企画株式会社,,株式会社,熊本県,熊本市中央区,壺川１丁目８番６４号,,43,101,8600076,,,,,,,2022-12-19,1,,,,,ナガムラキカク,0
1005,4380003005343,新規,0,2022-12-19,2022-12-19,合同会社Ｈ　ａｎｄ　Ｋ　ｐｌｕｓ,,合同会社,福島県,白河市,久田野塚田３３番地１ラヴァーズハウスＩ－１０２,00128838,07,205,9610011,,,,,,,2022-12-19,1,,,,,エイチアンドケイプラス,0
1007,4390001017100,新規,0,2022-12-19,2022-12-19,五十嵐左官工業株式会社,,株式会社,山形県,鶴岡市,藤の花１丁目２３番地３０,,06,203,9997602,,,,,,,2022-12-19,1,,,,,イカラシサカンコウギョウ,0
1009,4400001016091,新規,0,2022-12-19,2022-12-19,株式会社三陸保険事務所,,株式会社,岩手県,久慈市,宇部町第６地割３５番地,,03,207,0288111,,,,,,,2022-12-19,1,,,,,サンリクホケンジムショ,0
1010,4400003003006,新規,0,2022-12-19,2022-12-19,イノベージュセブン合同会社,,合同会社,岩手県,盛岡市,緑が丘２丁目１０－８－Ｂ－２０２,,03,201,0200117,,,,,,,2022-12-19,1,,,,,イノベージュセブン,0
1011,4420003002617,新規,0,2022-12-19,2022-12-19,合同会社ＫＣ‐０８インベストメント,,合同会社,青森県,上北郡七戸町,字森ノ上１００番地１,,02,402,0392827,,,,,,,2022-12-19,1,,,,,ケイシーゼロハチインベストメント,0
1012,4420003002625,新規,0,2022-12-19,2022-12-19,合同会社ＫＣ‐１６インベストメント,,合同会社,青森県,上北郡七戸町,字森ノ上１００番地１,,02,402,0392827,,,,,,,2022-12-19,1,,,,,ケイシージュウロクインベストメント,0
1013,4420003002633,新規,0,2022-12-19,2022-12-19,合同会社ＫＣ‐２４インベストメント,,合同会社,青森県,上北郡七戸町,字森ノ上１００番地１,,02,402,0392827,,,,,,,2022-12-19,1,,,,,ケイシーニジュウヨンインベストメント,0
1018,4460101007299,新規,0,2022-12-19,2022-12-19,株式会社ＬｉｆｅＵｐ,,株式会社,北海道,帯広市,東一条南１３丁目２０番地まるせん第３ハイム２０２号室,,01,207,0800801,,,,,,,2022-12-19,1,,,,,ライフアップ,0
1019,4460103001498,新規,0,2022-12-19,2022-12-19,合同会社昌和重装,,合同会社,北海道,河西郡芽室町,東芽室北１線４番地２３,,01,637,0820004,,,,,,,2022-12-19,1,,,,,ショウワジュウソウ,0
1024,4500005008546,新規,0,2022-12-19,2022-12-19,医療法人いい歯科クリニック,,その他の設立登記法人,愛媛県,松山市,余戸南５丁目１３番２５号,,38,201,7900047,,,,,,,2022-12-19,1,,,,,イイシカクリニック,0
1025,4700150113411,新規,0,2022-12-19,2022-12-19,Ｖｉａ　Ｌｉｃｅｎｓｉｎｇ　Ｃｏｒｐｏｒａｔｉｏｎ,,外国会社等,東京都,千代田区,永田町２丁目１１番１号山王パークタワー３階,,13,101,1000014,アメリカ合衆国カリフォルニア州サンフランシスコ、マーケット・ストリート１２７５,,,,,,2022-12-19,1,,,,,ヴイアライセンシングコーポレーシヨン,0
1038,5010001231745,新規,0,2022-12-19,2022-12-19,株式会社リズモ,,株式会社,東京都,中央区,銀座８丁目１４番９号－１１０２,,13,102,1040061,,,,,,,2022-12-19,1,,,,,リズモ,0
1042,5010101015461,新規,0,2022-12-19,2022-12-19,株式会社エヌデザインワークス,,株式会社,東京都,八王子市,三崎町８番１号メインステージ八王子ＴｏｋｙｏＷｅｓｔ７０３号,,13,201,1920084,,,,,,,2022-12-19,1,,,,,エヌデザインワークス,0
1047,5010405021668,新規,0,2022-12-19,2022-12-19,一般社団法人板硝子協会,,その他の設立登記法人,東京都,港区,高輪１丁目３番１３号ＮＢＦ高輪ビル４階,,13,103,1080074,,,,,,,2022-12-19,1,,,,,イタガラスキョウカイ,0
1052,5010603009903,新規,0,2022-12-19,2022-12-19,Ｋ．Ａ．Ｃ合同会社,,合同会社,東京都,江東区,森下１丁目１３番２－５０６号,,13,108,1350004,,,,,,,2022-12-19,1,,,,,ケーエーシー,0
1053,5010701043622,新規,0,2022-12-19,2022-12-19,ＳｕｎＬｉｎｅ株式会社,,株式会社,東京都,品川区,西五反田８丁目１－７ダイアパレス西五反田７０１号室,,13,109,1410031,,,,,,,2022-12-19,1,,,,,サンライン,0
1058,5011001151495,新規,0,2022-12-19,2022-12-19,株式会社ＴｅｃｈＢｏｘ,,株式会社,東京都,渋谷区,恵比寿２丁目２８番７号秀ビル２階,,13,113,1500013,,,,,,,2022-12-19,1,,,,,テックボックス,0
1065,5011101101210,新規,0,2022-12-19,2022-12-19,株式会社Ｏ’ｓコーポレーション,,株式会社,東京都,新宿区,西新宿６丁目１０番１号,,13,104,1600023,,,,,,,2022-12-19,1,,,,,オーズコーポレーション,0
1066,5011101101227,新規,0,2022-12-19,2022-12-19,株式会社ＥｘｏＶＥＲＴＥＸ,,株式会社,東京都,新宿区,上落合３丁目１４番１２号,,13,104,1610034,,,,,,,2022-12-19,1,,,,,エクソバーテックス,0
1079,5011801041706,新規,0,2022-12-19,2022-12-19,株式会社おかたづけ田中くん,,株式会社,東京都,足立区,宮城１丁目１３番９号,,13,121,1200047,,,,,,,2022-12-19,1,,,,,オカタヅケタナカクン,0
1081,5011803005436,新規,0,2022-12-19,2022-12-19,合同会社藤島,,合同会社,東京都,葛飾区,白鳥２丁目２０番１７号レオパレス白鳥２０２,,13,122,1250063,,,,,,,2022-12-19,1,,,,,フジシマ,0
1084,5012403005743,新規,0,2022-12-19,2022-12-19,長橋コンサルティング合同会社,,合同会社,東京都,狛江市,岩戸北４丁目２０－５,,13,219,2010004,,,,,,,2022-12-19,1,,,,,ナガバシコンサルティング,0
1097,5020001149458,新規,0,2022-12-19,2022-12-19,株式会社シーエン,,株式会社,神奈川県,川崎市高津区,久地１丁目４０番１－２０２号,,14,134,2130032,,,,,,,2022-12-19,1,,,,,シーエン,0
1100,5021001077756,新規,0,2022-12-19,2022-12-19,株式会社Ｋ　ＢＬＯＯＭ,,株式会社,神奈川県,相模原市中央区,相模原４丁目３番２０号,,14,152,2520231,,,,,,,2022-12-19,1,,,,,ケイブルーム,0
1103,5021003012513,新規,0,2022-12-19,2022-12-19,Ｌｉｖｅｌｙ合同会社,,合同会社,神奈川県,藤沢市,羽鳥１丁目１番１０号,,14,205,2510056,,,,,,,2022-12-19,1,,,,,ライブリー,0
1104,5021003012521,新規,0,2022-12-19,2022-12-19,ＫＥＮＳＨＩＮ合同会社,,合同会社,神奈川県,平塚市,山下２丁目２番１５－８０２号県営平塚山下アパート,,14,203,2540911,,,,,,,2022-12-19,1,,,,,ケンシン,0
1111,5030001151512,新規,0,2022-12-19,2022-12-19,和廣建設工業株式会社,,株式会社,埼玉県,さいたま市桜区,桜田１丁目６番２７号,,11,106,3380833,,,,,,,2022-12-19,1,,,,,ワコウケンセツコウギョウ,0
1112,5030001151537,新規,0,2022-12-19,2022-12-19,株式会社グロース,,株式会社,埼玉県,鶴ヶ島市,大字鶴ヶ丘５２番地１６,,11,241,3502204,,,,,,,2022-12-19,1,,,,,グロース,0
1115,5030003020772,新規,0,2022-12-19,2022-12-19,合同会社ＫＯＵＴＡ　ＩＮＴＥＲＮＡＴＩＯＮＡＬ,,合同会社,埼玉県,朝霞市,大字溝沼５２４番地,,11,227,3510023,,,,,,,2022-12-19,1,,,,,コウタインターナショナル,0
1120,5040001126273,新規,0,2022-12-19,2022-12-19,株式会社ａｓｖｉｓｉｏｎ,,株式会社,千葉県,柏市,新柏３丁目９番地７,,12,217,2770084,,,,,,,2022-12-19,1,,,,,アスビジョン,0
1122,5040003021514,新規,0,2022-12-19,2022-12-19,ＳＴＡＲ　ＴＲＡＤＥ合同会社,,合同会社,千葉県,習志野市,本大久保２丁目４－８－３０５,,12,216,2750012,,,,,,,2022-12-19,1,,,,,スタートレード,0
1123,5040003021522,新規,0,2022-12-19,2022-12-19,合同会社ＴＡＩＴＯ,,合同会社,千葉県,船橋市,高根台１丁目１１番１４号,,12,204,2740065,,,,,,,2022-12-19,1,,,,,タイト,0
1131,5070001039943,新規,0,2022-12-19,2022-12-19,江田不動産株式会社,,株式会社,群馬県,前橋市,江田町３０７番地３,,10,201,3710836,,,,,,,2022-12-19,1,,,,,エダフドウサン,0
1132,5080001025356,新規,0,2022-12-19,2022-12-19,株式会社ウィルコーポレーション,,株式会社,静岡県,静岡市葵区,駒形通３丁目３番１４号,,22,101,4200042,,,,,,,2022-12-19,1,,,,,ウィルコーポレーション,0
1135,5080101023697,新規,0,2022-12-19,2022-12-19,株式会社フルフレッジ,,株式会社,静岡県,富士市,天間１９１０番地の１,,22,210,4190205,,,,,,,2022-12-19,1,,,,,フルフレッジ,0
1141,5090001017889,新規,0,2022-12-19,2022-12-19,株式会社富士Ｍ＆Ｈコンサルタンツ,,株式会社,山梨県,富士吉田市,下吉田８丁目２２番１４号２８８７－２,,19,202,4030004,,,,,,,2022-12-19,1,,,,,フジエムアンドエイチコンサルタンツ,0
1142,5090001017897,新規,0,2022-12-19,2022-12-19,株式会社ドバシホールディングス,,株式会社,山梨県,甲府市,落合町５５１番地７,,19,201,4000834,,,,,,,2022-12-19,1,,,,,ドバシホールディングス,0
1145,5090003002212,新規,0,2022-12-19,2022-12-19,合同会社ＰＯＮ,,合同会社,山梨県,北杜市,長坂町夏秋８６５番地２,,19,209,4080035,,,,,,,2022-12-19,1,,,,,ピーオーエヌ,0
1168,5120001251039,新規,0,2022-12-19,2022-12-19,株式会社廣商,00128840,株式会社,大阪府,大阪市西区,京町堀１丁目１１番７号京旺ビル４階Ｂ号室,,27,106,5500003,,,,,,,2022-12-19,1,,,,,ヒロショウ,0
1169,5120001251187,新規,0,2022-12-19,2022-12-19,ＢＬＩＴＺ　ＡＩＲ株式会社,,株式会社,大阪府,大阪市北区,中津２丁目８－Ｄ－１１２６,,27,127,5310071,,,,,,,2022-12-19,1,,,,,ブリッツエアー,0
1170,5120001251195,新規,0,2022-12-19,2022-12-19,日本国家画院株式会社,,株式会社,大阪府,大阪市中央区,東心斎橋１丁目９番１９号ミトオリアートビル４０６号,,27,128,5420083,,,,,,,2022-12-19,1,,,,,ニホンコッカガイン,0
1192,5140001128466,新規,0,2022-12-19,2022-12-19,株式会社エムエーオー,,株式会社,兵庫県,芦屋市,奥池町３３番８号,,28,206,6590003,,,,,,,2022-12-19,1,,,,,エムエーオー,0
1193,5140003018467,新規,0,2022-12-19,2022-12-19,合同会社ハセ川,,合同会社,兵庫県,姫路市,飾東町庄２４１番地９,,28,201,6710218,,,,,,,2022-12-19,1,,,,,ハセガワ,0
1195,5140005026410,新規,0,2022-12-19,2022-12-19,Ｓ行政書士法人,,その他の設立登記法人,兵庫県,尼崎市,塚口町１丁目３３番２６号,,28,202,6610002,,,,,,,2022-12-19,1,,,,,エス,0
1208,5180005020038,新規,0,2022-12-19,2022-12-19,医療法人豊峰会,,その他の設立登記法人,愛知県,名古屋市中区,新栄町１丁目３番地日丸名古屋ビル６階,,23,106,4600004,,,,,,,2022-12-19,1,,,,,トヨミネカイ,0
1211,5180301036910,新規,0,2022-12-19,2022-12-19,株式会社ＵＺＵ,,株式会社,愛知県,豊田市,今町６丁目２２番地４,,23,211,4710823,,,,,,,2022-12-19,1,,,,,ウズ,0
1212,5180301036919,新規,0,2022-12-19,2022-12-19,株式会社ＭＵＵ,,株式会社,愛知県,豊橋市,大手町１０１番地,,23,201,4400805,,,,,,,2022-12-19,1,,,,,ムウ,0
1218,5220003003411,新規,0,2022-12-19,2022-12-19,Ｍａｒｃｏ合同会社,,合同会社,石川県,野々市市,御経塚２丁目２６７番２Ｆ,,17,212,9218801,,,,,,,2022-12-19,1,,,,,マッコ,0
1219,5230001019631,新規,0,2022-12-19,2022-12-19,Ｓ‐ｆａｍｉｌｌｅ株式会社,,株式会社,富山県,富山市,婦中町長沢３９５６番３,,16,201,9392606,,,,,,,2022-12-19,1,,,,,エスファミーユ,0
1225,5260001037507,新規,0,2022-12-19,2022-12-19,株式会社ＳＨ商店,,株式会社,岡山県,倉敷市,神田１丁目３番２２号,,33,202,7128061,,,,,,,2022-12-19,1,,,,,エスエイチショウテン,0
1233,5290001099965,新規,0,2022-12-19,2022-12-19,株式会社Ｉｒｏｄｏｒｉ,,株式会社,福岡県,春日市,原町２丁目５２番地,,40,218,8160804,,,,,,,2022-12-19,1,,,,,イロドリ,0
1243,5360001031334,新規,0,2022-12-19,2022-12-19,株式会社琉球トラストワン,,株式会社,沖縄県,中頭郡西原町,上原１丁目１８番地の３ワイズグランスカイ西原１２０１号,,47,329,9030125,,,,,,,2022-12-19,1,,,,,リュウキュウトラストワン,0
1247,5370001049391,新規,0,2022-12-19,2022-12-19,株式会社ディーサポート,,株式会社,宮城県,気仙沼市,長磯原１３１番地８,,04,205,9880233,,,,,,,2022-12-19,1,,,,,ディーサポート,0
1250,5380001033345,新規,0,2022-12-19,2022-12-19,株式会社アメージングコーポレーション,,株式会社,福島県,いわき市,勿来町関田西１丁目７番地の８,,07,204,9790146,,,,,,,2022-12-19,1,,,,,アメージングコーポレーション,0
1252,5400001016090,新規,0,2022-12-19,2022-12-19,株式会社藤丈,,株式会社,岩手県,盛岡市,西見前１５地割５３番地,,03,201,0200833,,,,,,,2022-12-19,1,,,,,フジタケ,0
1254,5420003002616,新規,0,2022-12-19,2022-12-19,合同会社ＫＣ‐０７インベストメント,,合同会社,青森県,上北郡七戸町,字森ノ上１００番地１,,02,402,0392827,,,,,,,2022-12-19,1,,,,,ケイシーゼロナナインベストメント,0
1255,5420003002624,新規,0,2022-12-19,2022-12-19,合同会社ＫＣ‐１５インベストメント,,合同会社,青森県,上北郡七戸町,字森ノ上１００番地１,,02,402,0392827,,,,,,,2022-12-19,1,,,,,ケイシージュウゴインベストメント,0
1256,5420003002632,新規,0,2022-12-19,2022-12-19,合同会社ＫＣ‐２３インベストメント,,合同会社,青森県,上北郡七戸町,字森ノ上１００番地１,,02,402,0392827,,,,,,,2022-12-19,1,,,,,ケイシーニジュウサンインベストメント,0
1259,5430001088061,新規,0,2022-12-19,2022-12-19,株式会社ＴＡＤＯＫＯＲＯ　ＭＥＡＴ,,株式会社,北海道,虻田郡洞爺湖町,旭町５番地１,,01,584,0495611,,,,,,,2022-12-19,1,,,,,タドコロミート,0
1260,5430003014552,新規,0,2022-12-19,2022-12-19,合同会社Ｄｅｓａｆｉｏ,,合同会社,北海道,札幌市東区,中沼五条２丁目１番１号,,01,103,0070005,,,,,,,2022-12-19,1,,,,,デサフィオ,0
1262,5460101007298,新規,0,2022-12-19,2022-12-19,株式会社義ファーム,,株式会社,北海道,河東郡上士幌町,字居辺東１７線３０９番地,,01,633,0801406,,,,,,,2022-12-19,1,,,,,ヨシファーム,0
1274,6010001231711,新規,0,2022-12-19,2022-12-19,株式会社ＧＭＴ,,株式会社,東京都,千代田区,神田西福田町３－２ハトヤビル４階,,13,101,1010037,,,,,,,2022-12-19,1,,,,,ジーエムティー,0
1280,6010401171367,新規,0,2022-12-19,2022-12-19,株式会社ＮＯＺＯＭＩ,,株式会社,東京都,港区,南青山５丁目４番３５号たつむらビル６１０号室,,13,103,1070062,,,,,,,2022-12-19,1,,,,,ノゾミ,0
1281,6010401171391,新規,0,2022-12-19,2022-12-19,コネクト・スルー株式会社,,株式会社,東京都,港区,浜松町２丁目２番１５号浜松町ダイヤビル２Ｆ,,13,103,1050013,,,,,,,2022-12-19,1,,,,,コネクトスルー,0
1282,6010401171417,新規,0,2022-12-19,2022-12-19,株式会社ＴＯ３,,株式会社,東京都,港区,浜松町２丁目２番１５号浜松町ダイヤビル２Ｆ,,13,103,1050013,,,,,,,2022-12-19,1,,,,,ティーオースリー,0
1297,6011001151577,新規,0,2022-12-19,2022-12-19,株式会社アスコット・メディック,,株式会社,東京都,渋谷区,神宮前３丁目１番３０号,,13,113,1500001,,,,,,,2022-12-19,1,,,,,アスコットメディック,0
1298,6011003015937,新規,0,2022-12-19,2022-12-19,合同会社ボラード,,合同会社,東京都,渋谷区,道玄坂２丁目２９番１８号,,13,113,1500043,,,,,,,2022-12-19,1,,,,,ボラード,0
1299,6011003015945,新規,0,2022-12-19,2022-12-19,合同会社ビオラ,,合同会社,東京都,渋谷区,松濤１丁目１３番１８号,,13,113,1500046,,,,,,,2022-12-19,1,,,,,ビオラ,0
1309,6011101101234,新規,0,2022-12-19,2022-12-19,株式会社西富士ゴルフ倶楽部,,株式会社,東京都,新宿区,西新宿１丁目８番３号,,13,104,1600023,,,,,,,2022-12-19,1,,,,,ニシフジゴルフクラブ,0
1311,6011205002527,新規,0,2022-12-19,2022-12-19,一般社団法人仏教再生機構,,その他の設立登記法人,東京都,中野区,中野１丁目２４番２号パークレジナス中野１０２号室,,13,114,1640001,,,,,,,2022-12-19,1,,,,,ブッキョウサイセイキコウ,0
1326,6013101009077,新規,0,2022-12-19,2022-12-19,株式会社ＬＤＰＬＡＮ,,株式会社,東京都,福生市,大字熊川７６６番地１,,13,218,1970003,,,,,,,2022-12-19,1,,,,,エルディプラン,0
1338,6020001149449,新規,0,2022-12-19,2022-12-19,ＦｉＺ株式会社,,株式会社,神奈川県,横浜市保土ケ谷区,宮田町３丁目２９１番地１２,,14,106,2400002,,,,,,,2022-12-19,1,,,,,フィズ,0
1341,6020003022918,新規,0,2022-12-19,2022-12-19,合同会社Ｋｅｉｎ物流改善研究所,,合同会社,神奈川県,横浜市保土ケ谷区,常盤台１７－１－２１８,,14,106,2400067,,,,,,,2022-12-19,1,,,,,ケインブツリュウカイゼンケンキュウジョ,0
1342,6020005015770,新規,0,2022-12-19,2022-12-19,一般社団法人国際抗加齢先端美容医学会,,その他の設立登記法人,神奈川県,川崎市麻生区,万福寺１丁目２６番１１の１パークホームズ新百合ヶ丘ブライトグレイス,,14,137,2150004,,,,,,,2022-12-19,1,,,,,コクサイコウカレイセンタンビヨウイガクカイ,0
1343,6020005015779,新規,0,2022-12-19,2022-12-19,一般社団法人ＥｘＧａｌａｐａｇｏ,,その他の設立登記法人,神奈川県,川崎市宮前区,馬絹１丁目２０番１４号,,14,136,2160035,,,,,,,2022-12-19,1,,,,,エクスガラパゴ,0
1351,6021003012495,新規,0,2022-12-19,2022-12-19,合同会社優商事,,合同会社,神奈川県,横須賀市,長井３丁目８番２２－７号,,14,201,2380316,,,,,,,2022-12-19,1,,,,,マサルショウジ,0
1356,6030001151536,新規,0,2022-12-19,2022-12-19,Ｕｔｅｃ株式会社,,株式会社,埼玉県,吉川市,大字吉屋７７１番地１,,11,243,3420013,,,,,,,2022-12-19,1,,,,,ユーテック,0
1361,6030003020771,新規,0,2022-12-19,2022-12-19,合同会社クリア・コンプリート,,合同会社,埼玉県,さいたま市中央区,円阿弥２丁目６番１２号,,11,105,3380007,,,,,,,2022-12-19,1,,,,,クリアコンプリート,0
1365,6040001126280,新規,0,2022-12-19,2022-12-19,株式会社ＳＫエンジニアリング,,株式会社,千葉県,市川市,新田３丁目７番１７－１０３号,,12,203,2720035,,,,,,,2022-12-19,1,,,,,エスケーエンジニアリング,0
1366,6040001126297,新規,0,2022-12-19,2022-12-19,株式会社ＬＯＯＰ,,株式会社,千葉県,四街道市,大日５９番地２３,,12,228,2840001,,,,,,,2022-12-19,1,,,,,ループ,0
1369,6040005021841,新規,0,2022-12-19,2022-12-19,ＮＰＯ法人とき,,その他の設立登記法人,千葉県,八千代市,萱田町５３５番地１１,,12,221,2760044,,,,,,,2022-12-19,1,,,,,トキ,0
1374,6070001039942,新規,0,2022-12-19,2022-12-19,株式会社マルヒロ,,株式会社,群馬県,安中市,原市２丁目５番４３号,,10,211,3790133,,,,,,,2022-12-19,1,,,,,マルヒロ,0
1376,6070003004762,新規,0,2022-12-19,2022-12-19,合同会社サバービア,,合同会社,群馬県,伊勢崎市,八坂町６番地１４,,10,204,3720044,,,,,,,2022-12-19,1,,,,,サバービア,0
1377,6080101023688,新規,0,2022-12-19,2022-12-19,株式会社ｅｌ　ｍｏｓｓｏ,,株式会社,静岡県,伊東市,湯川６６２番地の２９４ロワジール伊東湯川２０７号,,22,208,4140002,,,,,,,2022-12-19,1,,,,,エルモッソ,0
1378,6080101023696,新規,0,2022-12-19,2022-12-19,株式会社フィールドビレッジ,,株式会社,静岡県,沼津市,大岡１０４３番地２８,,22,203,4100022,,,,,,,2022-12-19,1,,,,,フィールドビレッジ,0
1382,6090001017896,新規,0,2022-12-19,2022-12-19,株式会社たっぷり,,株式会社,山梨県,上野原市,大野１２９４番地,,19,212,4090123,,,,,,,2022-12-19,1,,,,,タップリ,0
1390,6110003004948,新規,0,2022-12-19,2022-12-19,合同会社ＨＳナーシング,,合同会社,新潟県,新潟市西区,真砂４丁目６‐３３,,15,107,9502074,,,,,,,2022-12-19,1,,,,,エイチエスナーシング,0
1395,6120001251104,新規,0,2022-12-19,2022-12-19,日本潤華株式会社,,株式会社,大阪府,大阪市西成区,長橋２丁目６番２７号３０２号室,,27,122,5570025,,,,,,,2022-12-19,1,,,,,ニッポンジュンカ,0
1396,6120001251137,新規,0,2022-12-19,2022-12-19,株式会社夢人,,株式会社,大阪府,大阪市北区,梅田２丁目２番２号ヒルトンプラザウエストオフィスタワー１９階,,27,127,5300001,,,,,,,2022-12-19,1,,,,,ムジン,0
1397,6120001251203,新規,0,2022-12-19,2022-12-19,Ａｍａｒｏｋ株式会社,,株式会社,大阪府,大阪市中央区,瓦町４丁目４番１４号日宝ニュー本町ビル４Ｆ５号室,,27,128,5410048,,,,,,,2022-12-19,1,,,,,アマロック,0
1412,6130001073316,新規,0,2022-12-19,2022-12-19,株式会社バインオークリゾート,,株式会社,京都府,京都市中京区,押小路通高倉西入左京町１３８番地,,26,104,6040833,,,,,,,2022-12-19,1,,,,,バインオークリゾート,0
1417,6140001128481,新規,0,2022-12-19,2022-12-19,株式会社エスポワール,,株式会社,兵庫県,西宮市,西宮浜４丁目４番６－２０１号,,28,204,6620934,,,,,,,2022-12-19,1,,,,,エスポワール,0
1425,6180001154243,新規,0,2022-12-19,2022-12-19,株式会社オールグラント,,株式会社,愛知県,一宮市,奥町字丁田４３番地２インサイドＩ１０１号,00128841,23,203,4910201,,,,,,,2022-12-19,1,,,,,オールグラント,0
1428,6180005020037,新規,0,2022-12-19,2022-12-19,医療法人一元会,,その他の設立登記法人,愛知県,知多郡武豊町,字祠峯２丁目１３３番地,,23,447,4702303,,,,,,,2022-12-19,1,,,,,イチゲンカイ,0
1432,6180301036918,新規,0,2022-12-19,2022-12-19,株式会社ガレージ９９４,,株式会社,愛知県,豊田市,山之手９丁目９４番地,,23,211,4710833,,,,,,,2022-12-19,1,,,,,ガレージキュウキュウヨン,0
1444,6220001025175,新規,0,2022-12-19,2022-12-19,株式会社ＡＲＵ,,株式会社,石川県,小松市,大領中町１丁目２２７番地,,17,203,9230962,,,,,,,2022-12-19,1,,,,,アル,0
1456,6290001099948,新規,0,2022-12-19,2022-12-19,株式会社ＥＡＲＳ,,株式会社,福岡県,福岡市早良区,藤崎１丁目２番１６号グラン．シャリオ藤崎１０１,,40,137,8140013,,,,,,,2022-12-19,1,,,,,イアーズ,0
1457,6290001099956,新規,0,2022-12-19,2022-12-19,株式会社クサノネ,,株式会社,福岡県,福岡市中央区,天神１丁目１番１号,,40,133,8100001,,,,,,,2022-12-19,1,,,,,クサノネ,0
1458,6290001099964,新規,0,2022-12-19,2022-12-19,株式会社日本機能性食品研究会,,株式会社,福岡県,福岡市博多区,豊１丁目１番２号１Ｆ,,40,132,8120042,,,,,,,2022-12-19,1,,,,,ニホンキノウセイショクヒンケンキュウカイ,0
1459,6290003013312,新規,0,2022-12-19,2022-12-19,ＬＩＥＮＡ．合同会社,,合同会社,福岡県,福岡市中央区,今川１丁目２１番１０－６０３号,,40,133,8100054,,,,,,,2022-12-19,1,,,,,リエナ,0
1465,6360001031325,新規,0,2022-12-19,2022-12-19,株式会社ハレ,,株式会社,沖縄県,浦添市,宮城６丁目１７番６号,,47,208,9012126,,,,,,,2022-12-19,1,,,,,ハレ,0
1466,6360001031333,新規,0,2022-12-19,2022-12-19,株式会社Ｃ＆Ｖ,,株式会社,沖縄県,沖縄市,松本５丁目１１番３６号プロスパーホーム４０４,,47,211,9042151,,,,,,,2022-12-19,1,,,,,シーアンドブイ,0
1467,6360001031341,新規,0,2022-12-19,2022-12-19,株式会社Ｏｙｓｔｅｒ　ｄｅｐｏｔ,,株式会社,沖縄県,中頭郡北谷町,字宮城２番地９５賀数ビル１０２,,47,326,9040113,,,,,,,2022-12-19,1,,,,,オイスターデポ,0
1469,6360003012562,新規,0,2022-12-19,2022-12-19,合同会社野村,,合同会社,沖縄県,豊見城市,字豊崎１番地３０８,,47,212,9010225,,,,,,,2022-12-19,1,,,,,ノムラ,0
1470,6370001049382,新規,0,2022-12-19,2022-12-19,Ｅｌ　Ｃｏｌｌａｇｅ株式会社,,株式会社,宮城県,仙台市青葉区,中山吉成３丁目７番１５号,,04,101,9893203,,,,,,,2022-12-19,1,,,,,エルコラージュ,0
1473,6380001033344,新規,0,2022-12-19,2022-12-19,株式会社ＰＲＩＭＡＣＹ,,株式会社,福島県,いわき市,平塩字塩向２２番地の１,,07,204,9708022,,,,,,,2022-12-19,1,,,,,プライマシー,0
1477,6420003002615,新規,0,2022-12-19,2022-12-19,合同会社ＫＣ‐０６インベストメント,,合同会社,青森県,上北郡七戸町,字森ノ上１００番地１,,02,402,0392827,,,,,,,2022-12-19,1,,,,,ケイシーゼロロクインベストメント,0
1478,6420003002623,新規,0,2022-12-19,2022-12-19,合同会社ＫＣ‐１４インベストメント,,合同会社,青森県,上北郡七戸町,字森ノ上１００番地１,,02,402,0392827,,,,,,,2022-12-19,1,,,,,ケイシージュウヨンインベストメント,0
1479,6420003002631,新規,0,2022-12-19,2022-12-19,合同会社ＫＣ‐２２インベストメント,,合同会社,青森県,上北郡七戸町,字森ノ上１００番地１,,02,402,0392827,,,,,,,2022-12-19,1,,,,,ケイシーニジュウニインベストメント,0
1486,6430001088069,新規,0,2022-12-19,2022-12-19,株式会社アンザイＫＪ,,株式会社,北海道,札幌市南区,石山東５丁目１３番１７号,,01,106,0050850,,,,,,,2022-12-19,1,,,,,アンザイケイジェイ,0
1487,6430003014568,新規,0,2022-12-19,2022-12-19,合同会社Ｂ＆Ｈ,,合同会社,北海道,札幌市白石区,東札幌四条４丁目６番５号,,01,104,0030004,,,,,,,2022-12-19,1,,,,,ビーアンドエイチ,0
1494,6480001011950,新規,0,2022-12-19,2022-12-19,百年海株式会社,,株式会社,徳島県,徳島市,万代町５丁目７番地の４,,36,201,7700941,,,,,,,2022-12-19,1,,,,,ヒャクネンウミ,0
1502,6700150113319,新規,0,2022-12-19,2022-12-08,六日町観光協会,,その他,新潟県,南魚沼市,六日町１３９,,15,226,9496680,,,,,,,2022-12-08,1,,,,,ムイカマチカンコウキヨウカイ,0
1510,7010003039359,新規,0,2022-12-19,2022-12-19,合同会社Ｃｈａｍｐｉｏｎｅ,,合同会社,東京都,中央区,日本橋１丁目１３‐１日鉄日本橋ビル３階,,13,102,1030027,,,,,,,2022-12-19,1,,,,,チャンピオーネ,0
1517,7010401171341,新規,0,2022-12-19,2022-12-19,株式会社アンリアルイズム,,株式会社,東京都,港区,白金台５丁目３番６号白金台セントラルビル５階,,13,103,1080071,,,,,,,2022-12-19,1,,,,,アンリアルイズム,0
1519,7010403029141,新規,0,2022-12-19,2022-12-19,合同会社ＭＩＣ,,合同会社,東京都,港区,南青山２丁目２番１５号,,13,103,1070062,,,,,,,2022-12-19,1,,,,,エムアイシー,0
1520,7010403029158,新規,0,2022-12-19,2022-12-19,Ｒｅｔｏｏｌ合同会社,,合同会社,東京都,港区,赤坂４丁目１２－７ＨＴピア赤坂５０８,,13,103,1070052,,,,,,,2022-12-19,1,,,,,リツール,0
1523,7010601062316,新規,0,2022-12-19,2022-12-19,ＹＬＦ　ＩＮＴＥＲＮＥＴ　ＪＡＰＡＮ株式会社,,株式会社,東京都,江東区,亀戸３丁目４番２号,,13,108,1360071,,,,,,,2022-12-19,1,,,,,ユルフインターネットジャパン,0
1534,7011003015936,新規,0,2022-12-19,2022-12-19,４ＪＰ合同会社,,合同会社,東京都,渋谷区,神宮前６丁目２３番４号桑野ビル２階,,13,113,1500001,,,,,,,2022-12-19,1,,,,,フォージェイピー,0
1539,7011101101217,新規,0,2022-12-19,2022-12-19,株式会社Ｋ　Ｐｌｕｓ,,株式会社,東京都,新宿区,四谷三栄町１６番８号ＴＡＳ四谷レジデンス３０６,,13,104,1600008,,,,,,,2022-12-19,1,,,,,ケープラス,0
1540,7011101101225,新規,0,2022-12-19,2022-12-19,株式会社ハプワース,,株式会社,東京都,新宿区,西新宿３丁目３番１３号西新宿水間ビル６階,,13,104,1600023,,,,,,,2022-12-19,1,,,,,ハプワース,0
1541,7011103012511,新規,0,2022-12-19,2022-12-19,合同会社ＺＵＭＩＸ,,合同会社,東京都,新宿区,中落合３丁目１６番４号,,13,104,1610032,,,,,,,2022-12-19,1,,,,,ズミックス,0
1543,7011203003963,新規,0,2022-12-19,2022-12-19,合同会社ＲＯＫＡ　ＢＣＰＣＤ,,合同会社,東京都,中野区,弥生町３丁目１２番４－２０２号,,13,114,1640013,,,,,,,2022-12-19,1,,,,,ロカビーシーピーシーディー,0
1546,7011501028761,新規,0,2022-12-19,2022-12-19,株式会社クレセル,,株式会社,東京都,荒川区,西日暮里２丁目３２番２０号,,13,118,1160013,,,,,,,2022-12-19,1,,,,,クレセル,0
1552,7011703003331,新規,0,2022-12-19,2022-12-19,合同会社ＳＡＫＵＲＡ,,合同会社,東京都,江戸川区,東葛西６丁目４２－８,,13,123,1340084,,,,,,,2022-12-19,1,,,,,サクラ,0
1554,7011801041695,新規,0,2022-12-19,2022-12-19,東京鳥居物産株式会社,,株式会社,東京都,葛飾区,亀有５丁目４２－１レクセルマンション亀有９０４,,13,122,1250061,,,,,,,2022-12-19,1,,,,,トウキョウトリイブッサン,0
1556,7012801022033,新規,0,2022-12-19,2022-12-19,株式会社だるまＨＯＭＥ,,株式会社,東京都,武蔵村山市,大南３丁目１３１番地の１グランウェイハイツＡ棟２０２,,13,223,2080013,,,,,,,2022-12-19,1,,,,,ダルマホーム,0
1558,7013303006409,新規,0,2022-12-19,2022-12-19,合同会社原不動産開発,,合同会社,東京都,豊島区,目白１丁目４番１５－１５０５号,,13,116,1710031,,,,,,,2022-12-19,1,,,,,ハラフドウサンカイハツ,0
1562,7020001149448,新規,0,2022-12-19,2022-12-19,東豊インベスト株式会社,,株式会社,神奈川県,横浜市中区,桜木町１丁目１０１番地１クロスゲート７階,,14,104,2310062,,,,,,,2022-12-19,1,,,,,トウホウインベスト,0
1563,7020001149480,新規,0,2022-12-19,2022-12-19,＿宝商事株式会社,00128834,株式会社,神奈川県,横浜市中区,南仲通４丁目４０番地,,14,104,2310006,,,,,,,2022-12-19,1,,,,,チンホウショウジ,0
1572,7021001077721,新規,0,2022-12-19,2022-12-19,Ｂ・ＳＭＩＬＥ株式会社,,株式会社,神奈川県,茅ヶ崎市,みずき３丁目１５番地１１,,14,207,2530088,,,,,,,2022-12-19,1,,,,,ビースマイル,0
1573,7021001077738,新規,0,2022-12-19,2022-12-19,株式会社フジハウス,,株式会社,神奈川県,大和市,深見３８５９番地２２,,14,213,2420011,,,,,,,2022-12-19,1,,,,,フジハウス,0
1585,7030001151493,新規,0,2022-12-19,2022-12-19,株式会社ＯｂｅｎＴＥＮ,,株式会社,埼玉県,ふじみ野市,上福岡１丁目１２番１１号,,11,245,3560004,,,,,,,2022-12-19,1,,,,,オベンテン,0
1586,7030001151502,新規,0,2022-12-19,2022-12-19,株式会社ＮＣＩ開発,,株式会社,埼玉県,さいたま市北区,宮原町２丁目９０番４号,,11,102,3310812,,,,,,,2022-12-19,1,,,,,エヌシーアイカイハツ,0
1587,7030001151535,新規,0,2022-12-19,2022-12-19,株式会社ＳＰＣ,,株式会社,埼玉県,さいたま市緑区,大字中尾１８２４番地３,,11,109,3360932,,,,,,,2022-12-19,1,,,,,エスピーシー,0
1596,7040001126288,新規,0,2022-12-19,2022-12-19,株式会社ＬＰＤ,,株式会社,千葉県,柏市,みどり台４丁目２３番１２号,,12,217,2770884,,,,,,,2022-12-19,1,,,,,エルピーディー,0
1599,7040003021529,新規,0,2022-12-19,2022-12-19,ＩＮＣＥＰＴＩＯＮ合同会社,,合同会社,千葉県,船橋市,本町４丁目４５番１０号,,12,204,2730005,,,,,,,2022-12-19,1,,,,,インセプション,0
1603,7050003007097,新規,0,2022-12-19,2022-12-19,幸福合同会社,,合同会社,茨城県,結城郡八千代町,大字若１４１３番地３,,08,521,3003544,,,,,,,2022-12-19,1,,,,,コウフク,0
1610,7080003002913,新規,0,2022-12-19,2022-12-19,ＳＥＮＡ　ＥＮＴＥＲＰＲＩＳＥ合同会社,,合同会社,静岡県,静岡市葵区,瀬名２丁目３２番２４－１０２号,,22,101,4200911,,,,,,,2022-12-19,1,,,,,セナエンタプライズ,0
1611,7080101023695,新規,0,2022-12-19,2022-12-19,ｅｃｏ貿易株式会社,,株式会社,静岡県,富士市,伝法１６５６番地の１０,,22,210,4170061,,,,,,,2022-12-19,1,,,,,エコボウエキ,0
1615,7100001035978,新規,0,2022-12-19,2022-12-19,株式会社山本興業,,株式会社,長野県,中野市,大字小田中５６６番地１フォレスターＢ１０１,,20,211,3830037,,,,,,,2022-12-19,1,,,,,ヤマモトコウギョウ,0
1636,7120001251152,新規,0,2022-12-19,2022-12-19,株式会社あきら,,株式会社,大阪府,大阪市淀川区,宮原１丁目１９番２３号ステュディオ新御堂３０３室,,27,123,5320003,,,,,,,2022-12-19,1,,,,,アキラ,0
1638,7120003023104,新規,0,2022-12-19,2022-12-19,合同会社エスエイティ,,合同会社,大阪府,大阪市大正区,平尾４丁目１７番３号川忠ビル１０８,,27,108,5510012,,,,,,,2022-12-19,1,,,,,エスエイティ,0
1642,7122001036509,新規,0,2022-12-19,2022-12-19,株式会社ミニム,,株式会社,大阪府,東大阪市,横沼町３丁目１２番２号,,27,227,5770808,,,,,,,2022-12-19,1,,,,,ミニム,0
1647,7130003008384,新規,0,2022-12-19,2022-12-19,合同会社ＩＳＳＩＫＩ,,合同会社,京都府,京都市伏見区,深草西伊達町８７－９２,,26,109,6120876,,,,,,,2022-12-19,1,,,,,イッシキ,0
1651,7140001128423,新規,0,2022-12-19,2022-12-19,株式会社五常,,株式会社,兵庫県,姫路市,阿保甲７番地３３カーサノーブル３０２,,28,201,6700944,,,,,,,2022-12-19,1,,,,,ゴジョウ,0
1665,7180003024609,新規,0,2022-12-19,2022-12-19,ＣｈｅｌｓｅａＳｔｕｄｉｏ合同会社,,合同会社,愛知県,小牧市,大字三ツ渕１８７２番地２,,23,219,4850075,,,,,,,2022-12-19,1,,,,,チェルシースタジオ,0
1667,7180005020036,新規,0,2022-12-19,2022-12-19,医療法人ミネルヴァ,,その他の設立登記法人,愛知県,名古屋市中村区,名駅２丁目４４番２号オーキッドＧビル６階,,23,105,4500002,,,,,,,2022-12-19,1,,,,,ミネルヴァ,0
1671,7180305009415,新規,0,2022-12-19,2022-12-19,一般社団法人あいせい青空教室,,その他の設立登記法人,愛知県,豊橋市,大岩町字車田２０番地,,23,201,4413147,,,,,,,2022-12-19,1,,,,,アイセイアオゾラキョウシツ,0
1678,7220001025182,新規,0,2022-12-19,2022-12-19,株式会社武衛門,,株式会社,石川県,白山市,長島町７２番地,,17,210,9240848,,,,,,,2022-12-19,1,,,,,ブエイモン,0
1683,7240001060814,新規,0,2022-12-19,2022-12-19,株式会社カレッジ,,株式会社,広島県,尾道市,御調町貝ケ原７９番地７,,34,205,7220312,,,,,,,2022-12-19,1,,,,,カレッジ,0
1695,7290001099963,新規,0,2022-12-19,2022-12-19,株式会社ＡＺ‐ｇｌｉｖｅ,,株式会社,福岡県,福岡市中央区,舞鶴１丁目４番１号,,40,133,8100073,,,,,,,2022-12-19,1,,,,,アズグライブ,0
1703,7350001018082,新規,0,2022-12-19,2022-12-19,株式会社井上煙火,,株式会社,宮崎県,都城市,松元町７街区６号,,45,202,8850077,,,,,,,2022-12-19,1,,,,,イノウエエンカ,0
1706,7370001049381,新規,0,2022-12-19,2022-12-19,株式会社芳賀内装,,株式会社,宮城県,仙台市泉区,館４丁目２７番地の１,,04,105,9813214,,,,,,,2022-12-19,1,,,,,ハガナイソウ,0
1708,7380001033343,新規,0,2022-12-19,2022-12-19,Ｚｅｒｏ株式会社,,株式会社,福島県,南相馬市,小高区片草字片草迫２１７番地の３,00128833,07,212,9792101,,,,,,,2022-12-19,1,,,,,ゼロ,0
1710,7390005008984,新規,0,2022-12-19,2022-12-19,特定非営利活動法人かほくびと,,その他の設立登記法人,山形県,西村山郡河北町,谷地字十二堂５番地の４,,06,321,9993511,,,,,,,2022-12-19,1,,,,,カホクビト,0
1711,7400001016089,新規,0,2022-12-19,2022-12-19,株式会社ピースホールディングス,,株式会社,岩手県,大船渡市,大船渡町字赤沢１２番地１７,,03,203,0220002,,,,,,,2022-12-19,1,,,,,ピースホールディングス,0
1714,7420003002622,新規,0,2022-12-19,2022-12-19,合同会社ＫＣ‐１３インベストメント,,合同会社,青森県,上北郡七戸町,字森ノ上１００番地１,,02,402,0392827,,,,,,,2022-12-19,1,,,,,ケイシージュウサンインベストメント,0
1715,7420003002630,新規,0,2022-12-19,2022-12-19,合同会社ＫＣ‐２１インベストメント,,合同会社,青森県,上北郡七戸町,字森ノ上１００番地１,,02,402,0392827,,,,,,,2022-12-19,1,,,,,ケイシーニジュウイチインベストメント,0
1723,7430001088051,新規,0,2022-12-19,2022-12-19,株式会社かたわら,,株式会社,北海道,札幌市東区,北八条東４丁目１番２０号,,01,103,0600908,,,,,,,2022-12-19,1,,,,,カタワラ,0
1724,7430001088068,新規,0,2022-12-19,2022-12-19,株式会社Ｋ．Ｒ,,株式会社,北海道,札幌市白石区,中央三条３丁目６番３３号３階,,01,104,0030013,,,,,,,2022-12-19,1,,,,,ケーアール,0
1725,7430003014567,新規,0,2022-12-19,2022-12-19,合同会社ｄａｗｎ　ｔｏ　ｄｕｓｋ,,合同会社,北海道,札幌市中央区,南六条西２６丁目４番１０号,,01,101,0640806,,,,,,,2022-12-19,1,,,,,ドーントゥダスク,0
1730,7480003001908,新規,0,2022-12-19,2022-12-19,Ｎ．ＧＲＥＥＮ合同会社,,合同会社,徳島県,徳島市,徳島本町３丁目６番地,,36,201,7700854,,,,,,,2022-12-19,1,,,,,エヌグリーン,0
1731,7490001010364,新規,0,2022-12-19,2022-12-19,高知アンカー工業株式会社,,株式会社,高知県,高知市,一宮２７２６番地,,39,201,7818130,,,,,,,2022-12-19,1,,,,,,0
1750,8010401171381,新規,0,2022-12-19,2022-12-19,株式会社ＫＣ,,株式会社,東京都,港区,北青山２丁目７番１３号,,13,103,1070061,,,,,,,2022-12-19,1,,,,,ケーシー,0
1755,8010403029165,新規,0,2022-12-19,2022-12-19,アップライトジャパン合同会社,,合同会社,東京都,港区,浜松町２丁目２番１５号浜松町ダイヤビル２Ｆ,,13,103,1050013,,,,,,,2022-12-19,1,,,,,アップライトジャパン,0
1769,8011001151476,新規,0,2022-12-19,2022-12-19,株式会社ＢＢ,,株式会社,東京都,目黒区,目黒３丁目４番８－６０２号,,13,110,1530063,,,,,,,2022-12-19,1,,,,,ビービー,0
1770,8011001151534,新規,0,2022-12-19,2022-12-19,株式会社リコロン,,株式会社,東京都,目黒区,中目黒１丁目３番８号,,13,110,1530061,,,,,,,2022-12-19,1,,,,,リコロン,0
1771,8011001151559,新規,0,2022-12-19,2022-12-19,株式会社アイル,,株式会社,東京都,目黒区,東が丘２丁目２番２号コーポイーストヒル２０５,,13,110,1520021,,,,,,,2022-12-19,1,,,,,アイル,0
1780,8011101101208,新規,0,2022-12-19,2022-12-19,ａ．ｍ　ｃｏｍｐａｎｙ株式会社,,株式会社,東京都,新宿区,西新宿３丁目３番１３号西新宿水間ビル２Ｆ,,13,104,1600023,,,,,,,2022-12-19,1,,,,,エーエムカンパニー,0
1781,8011101101216,新規,0,2022-12-19,2022-12-19,明堯株式会社,00128836,株式会社,東京都,新宿区,北新宿３丁目３－１５パークレジデンス北新宿１０１号室,,13,104,1690074,,,,,,,2022-12-19,1,,,,,メイヨウ,0
1782,8011101101224,新規,0,2022-12-19,2022-12-19,株式会社ｍａｉｓｕｔｏ,,株式会社,東京都,新宿区,西新宿３丁目３番１３号西新宿水間ビル６階,,13,104,1600023,,,,,,,2022-12-19,1,,,,,マイスト,0
1784,8011103012510,新規,0,2022-12-19,2022-12-19,合同会社Ａｐｌｕｓ,,合同会社,東京都,新宿区,中落合４丁目２６番３号,,13,104,1610032,,,,,,,2022-12-19,1,,,,,エープラス,0
1786,8011303004613,新規,0,2022-12-19,2022-12-19,中嶋合同会社,,合同会社,東京都,杉並区,清水２丁目１４番１７号,,13,115,1670033,,,,,,,2022-12-19,1,,,,,ナカジマ,0
1794,8011703003330,新規,0,2022-12-19,2022-12-19,ＮＢＦグローバル合同会社,,合同会社,東京都,江戸川区,西葛西６丁目１２番９号Ｅｇｇ’ｓ２３－２０３号,,13,123,1340088,,,,,,,2022-12-19,1,,,,,エヌビーエフグローバル,0
1797,8012803002957,新規,0,2022-12-19,2022-12-19,合同会社アンフィニ,,合同会社,東京都,国立市,富士見台３丁目２２番地の５セイチビル３０３,,13,215,1860003,,,,,,,2022-12-19,1,,,,,アンフィニ,0
1812,8030001151534,新規,0,2022-12-19,2022-12-19,株式会社優輝,,株式会社,埼玉県,白岡市,高岩２０７９番地１１,,11,246,3490213,,,,,,,2022-12-19,1,,,,,ユウキ,0
1814,8030003020745,新規,0,2022-12-19,2022-12-19,合同会社ＩＮＦＹ,,合同会社,埼玉県,川口市,大字東本郷１４９７番地の２６,,11,203,3340063,,,,,,,2022-12-19,1,,,,,インフィ,0
1815,8030003020778,新規,0,2022-12-19,2022-12-19,合同会社Ａ．Ｑ,,合同会社,埼玉県,川越市,野田町１丁目４番地１８（ハイツオギネ２０１号室）,,11,201,3501115,,,,,,,2022-12-19,1,,,,,アイエンキュウ,0
1824,8040001126262,新規,0,2022-12-19,2022-12-19,株式会社ライフサポート佐倉,,株式会社,千葉県,佐倉市,井野１５６５番地１２,,12,212,2850855,,,,,,,2022-12-19,1,,,,,ライフサポートサクラ,0
1825,8040003021478,新規,0,2022-12-19,2022-12-19,ＨＭＬ合同会社,,合同会社,千葉県,旭市,ハの９５９番地８,,12,215,2892521,,,,,,,2022-12-19,1,,,,,エイチエムエル,0
1832,8090001017894,新規,0,2022-12-19,2022-12-19,株式会社中西製作所,,株式会社,山梨県,南都留郡道志村,８４３８番地,,19,422,4020200,,,,,,,2022-12-19,1,,,,,,0
1840,8110003004946,新規,0,2022-12-19,2022-12-19,合同会社庄川平,,合同会社,新潟県,見附市,石地町５７５番地,,15,211,9540013,,,,,,,2022-12-19,1,,,,,ショウガワダイラ,0
1851,8120001251135,新規,0,2022-12-19,2022-12-19,沢心株式会社,,株式会社,大阪府,枚方市,牧野北町７番６号,,27,210,5731149,,,,,,,2022-12-19,1,,,,,サワココロ,0
1852,8120001251176,新規,0,2022-12-19,2022-12-19,楽活日本株式会社,,株式会社,大阪府,大阪市天王寺区,味原町７－７,,27,109,5430023,,,,,,,2022-12-19,1,,,,,ラクセイジャパン,0
1859,8120101066631,新規,0,2022-12-19,2022-12-19,関西コネクト株式会社,,株式会社,大阪府,堺市美原区,多治井３５２番地６,,27,147,5870012,,,,,,,2022-12-19,1,,,,,カンサイコネクト,0
1860,8120101066664,新規,0,2022-12-19,2022-12-19,株式会社ｐｌｕｓ．Ｍ,,株式会社,大阪府,泉大津市,助松町２丁目１２番２０号,,27,206,5950071,,,,,,,2022-12-19,1,,,,,プラスドットエム,0
1861,8120103004985,新規,0,2022-12-19,2022-12-19,ＹＵＲＡＫＵ合同会社,,合同会社,大阪府,堺市堺区,香ヶ丘町５丁２番１０号,,27,141,5900011,,,,,,,2022-12-19,1,,,,,ユラク,0
1865,8120901046881,新規,0,2022-12-19,2022-12-19,株式会社エフズテック,,株式会社,大阪府,豊中市,蛍池中町二丁目５－１２,,27,203,5600000,,,,,,,2022-12-19,1,,,,,エフズテック,0
1867,8122001036508,新規,0,2022-12-19,2022-12-19,株式会社でんき屋,,株式会社,大阪府,東大阪市,楠根３丁目４番１３号,,27,227,5770006,,,,,,,2022-12-19,1,,,,,デンキヤ,0
1872,8130001073314,新規,0,2022-12-19,2022-12-19,風物株式会社,,株式会社,京都府,京都市北区,大北山原谷乾町４７番地５,,26,101,6038487,,,,,,,2022-12-19,1,,,,,フウブツ,0
1873,8130001073322,新規,0,2022-12-19,2022-12-19,澄行株式会社,,株式会社,京都府,京都市南区,東九条河西町２６番地マ・メゾン２０１,,26,107,6018014,,,,,,,2022-12-19,1,,,,,チョウコウ,0
1881,8140001128414,新規,0,2022-12-19,2022-12-19,株式会社コプロコーポレーション,,株式会社,兵庫県,高砂市,荒井町新浜２丁目１１番２５号,,28,216,6760008,,,,,,,2022-12-19,1,,,,,コプロコーポレーション,0
1886,8160001024710,新規,0,2022-12-19,2022-12-19,株式会社ＤＩＶＩＮＡ,,株式会社,滋賀県,大津市,粟津町１２番１５号ブレーンビル石山２Ａ,,25,201,5200832,,,,,,,2022-12-19,1,,,,,ディヴィーナ,0
1893,8180001154266,新規,0,2022-12-19,2022-12-19,株式会社メディサポ中部,,株式会社,愛知県,名古屋市中村区,則武１丁目９番９号ノリタケ第二ビル５５号,,23,105,4530014,,,,,,,2022-12-19,1,,,,,メディサポチュウブ,0
1896,8180005020035,新規,0,2022-12-19,2022-12-19,医療法人わたひふ会,,その他の設立登記法人,愛知県,名古屋市昭和区,滝子通３丁目１０番地１滝子メディカルステーション２階,,23,107,4660055,,,,,,,2022-12-19,1,,,,,ワタヒフカイ,0
1907,8220003003400,新規,0,2022-12-19,2022-12-19,合同会社ＮＩＴＯＣＲＡＦＴ,,合同会社,石川県,羽咋市,千里浜町ト２３３番１,,17,207,9250054,,,,,,,2022-12-19,1,,,,,,0
1915,8250001019890,新規,0,2022-12-19,2022-12-19,株式会社Ｖｉｖａｌｕｃａ,,株式会社,山口県,下関市,幡生宮の下町２６番８号グローメリヤ宮の下１Ｆ,,35,201,7510829,,,,,,,2022-12-19,1,,,,,ヴィバルチェ,0
1920,8260005011174,新規,0,2022-12-19,2022-12-19,一般社団法人かさおか島ラボ,,その他の設立登記法人,岡山県,笠岡市,白石島３０３５番地２,,33,205,7140036,,,,,,,2022-12-19,1,,,,,カサオカシマラボ,0
1928,8290001099871,新規,0,2022-12-19,2022-12-19,あおい企画株式会社,,株式会社,福岡県,久留米市,荘島町３３０番地３,,40,203,8300042,,,,,,,2022-12-19,1,,,,,アオイキカク,0
1929,8290001099946,新規,0,2022-12-19,2022-12-19,株式会社Ｆｏｒｔｕｎｅ　ｗｅａｌｔｈ,,株式会社,福岡県,福岡市中央区,清川２丁目６－２　２Ｆ,,40,133,8100005,,,,,,,2022-12-19,1,,,,,フォーチューンウェルス,0
1940,8360003012569,新規,0,2022-12-19,2022-12-19,合同会社すくばり,,合同会社,沖縄県,宮古島市,平良字西里３００番地しきしま２Ｆ,,47,214,9060012,,,,,,,2022-12-19,1,,,,,スクバリ,0
1950,8400001016088,新規,0,2022-12-19,2022-12-19,石川グループホールディングス株式会社,,株式会社,岩手県,盛岡市,西青山２丁目３１番１１号,,03,201,0200132,,,,,,,2022-12-19,1,,,,,イシカワグループホールディングス,0
1952,8420003002621,新規,0,2022-12-19,2022-12-19,合同会社ＫＣ‐１２インベストメント,,合同会社,青森県,上北郡七戸町,字森ノ上１００番地１,,02,402,0392827,,,,,,,2022-12-19,1,,,,,ケイシージュウニインベストメント,0
1954,8430001088050,新規,0,2022-12-19,2022-12-19,ｓａｃｏｒｏｎ株式会社,,株式会社,北海道,札幌市東区,北九条東１丁目３番１号サーム北９条８０３号室,,01,103,0600909,,,,,,,2022-12-19,1,,,,,サコロン,0
1955,8430001088067,新規,0,2022-12-19,2022-12-19,株式会社Ｋ‐ＳＨＯ,,株式会社,北海道,札幌市南区,真駒内柏丘５丁目９番１２号,,01,106,0050022,,,,,,,2022-12-19,1,,,,,ケーショウ,0
1962,8480001011949,新規,0,2022-12-19,2022-12-19,株式会社Ｆ‐Ｓｔｙｌｅｓ,,株式会社,徳島県,海部郡牟岐町,大字灘字大牟岐田１１番地４,,36,383,7750005,,,,,,,2022-12-19,1,,,,,エフスタイルズ,0
1963,8480003001907,新規,0,2022-12-19,2022-12-19,半田データサービス合同会社,,合同会社,徳島県,美馬郡つるぎ町,半田字田井２４４番地,,36,468,7794402,,,,,,,2022-12-19,1,,,,,ハンダデータサービス,0
1968,8500001024659,新規,0,2022-12-19,2022-12-19,株式会社ビーアールジー,,株式会社,愛媛県,松山市,歩行町１丁目１３番３号１Ｆプログレッソ御宝,,38,201,7900801,,,,,,,2022-12-19,1,,,,,ビーアールジー,0
1970,8700150113424,新規,0,2022-12-19,2022-12-19,スターインターナショナル,,外国会社等,茨城県,結城市,大字上山川字大久保５７２１－３,,08,207,3070021,スリランカ民主社会主義共和国、バナガデニヤ、コロンボロード、２８Ｂ,,,,,,2022-12-19,1,,,,,スターインターナシヨナル,0
1985,9010401171356,新規,0,2022-12-19,2022-12-19,株式会社ＺＩＳＥＤＡＩ,,株式会社,東京都,港区,北青山２丁目７番９号,,13,103,1070061,,,,,,,2022-12-19,1,,,,,ジセダイ,0
1986,9010401171414,新規,0,2022-12-19,2022-12-19,株式会社ＫＭＡサポート,,株式会社,東京都,港区,西麻布２丁目２番２号,,13,103,1060031,,,,,,,2022-12-19,1,,,,,ケーエムエーサポート,0
1987,9010403029164,新規,0,2022-12-19,2022-12-19,合同会社サイン,,合同会社,東京都,港区,赤坂４丁目１４番１４－２３０９号,,13,103,1070052,,,,,,,2022-12-19,1,,,,,サイン,0
1992,9010601062322,新規,0,2022-12-19,2022-12-19,株式会社小林昆虫,,株式会社,東京都,江東区,猿江２丁目８番８号,,13,108,1350003,,,,,,,2022-12-19,1,,,,,コバヤシコンチュウ,0
1998,9010903007818,新規,0,2022-12-19,2022-12-19,合同会社ｍｏｒ,,合同会社,東京都,世田谷区,上馬３丁目１５番８－９０１号,,13,112,1540011,,,,,,,2022-12-19,1,,,,,モア,0
2002,9011001151475,新規,0,2022-12-19,2022-12-19,株式会社ＣｏｆｆｅｅＴｉｍｅ,,株式会社,東京都,渋谷区,桜丘町２８番６号,,13,113,1500031,,,,,,,2022-12-19,1,,,,,コーヒータイム,0
2003,9011001151517,新規,0,2022-12-19,2022-12-19,株式会社ＮＩＩＮＡＮＡ,,株式会社,東京都,目黒区,青葉台４丁目４－１６－３０４,,13,110,1530042,,,,,,,2022-12-19,1,,,,,ニイナナ,0
2004,9011001151558,新規,0,2022-12-19,2022-12-19,株式会社ＡＲＢＬＯＯＭ,,株式会社,東京都,渋谷区,神宮前４丁目１４番１３号ハイシティ表参道１１５号,,13,113,1500001,,,,,,,2022-12-19,1,,,,,アルブルーム,0
2005,9011003015892,新規,0,2022-12-19,2022-12-19,合同会社ｔｒｉｐｌｅＳ,,合同会社,東京都,渋谷区,千駄ヶ谷３丁目２番８号,,13,113,1510051,,,,,,,2022-12-19,1,,,,,トリプルエス,0
2010,9011101101231,新規,0,2022-12-19,2022-12-19,源泉投資株式会社,,株式会社,東京都,新宿区,中井１丁目９番９号,,13,104,1610035,,,,,,,2022-12-19,1,,,,,ゲンセントウシ,0
2014,9011203003961,新規,0,2022-12-19,2022-12-19,ランポイ合同会社,,合同会社,東京都,中野区,中央２丁目５番４号プレミール中野４０２,,13,114,1640011,,,,,,,2022-12-19,1,,,,,ランポイ,0
2015,9011303004612,新規,0,2022-12-19,2022-12-19,合同会社バーグククル,,合同会社,東京都,杉並区,高円寺北２丁目９番３号クレスト高円寺,,13,115,1660002,,,,,,,2022-12-19,1,,,,,バーグククル,0
2016,9011401024784,新規,0,2022-12-19,2022-12-19,株式会社東家,,株式会社,東京都,板橋区,中丸町４７番１１号,,13,119,1730026,,,,,,,2022-12-19,1,,,,,トウチ,0
2017,9011403003852,新規,0,2022-12-19,2022-12-19,合同会社ＦＧＳ,,合同会社,東京都,板橋区,高島平１丁目３５番１５－３０２号,,13,119,1750082,,,,,,,2022-12-19,1,,,,,エフジーエス,0
2024,9011805003236,新規,0,2022-12-19,2022-12-19,一般社団法人積徳積善会,,その他の設立登記法人,東京都,足立区,東綾瀬１丁目３－３－６０３,,13,121,1200004,,,,,,,2022-12-19,1,,,,,セキトクセキゼンカイ,0
2029,9012801022031,新規,0,2022-12-19,2022-12-19,株式会社アウルファイナンシャルパートナー,,株式会社,東京都,立川市,砂川町４丁目３４番地の２７サンドルフ１１３号,,13,202,1900031,,,,,,,2022-12-19,1,,,,,アウルファイナンシャルパートナー,0
2030,9012803002956,新規,0,2022-12-19,2022-12-19,合同会社ｇｒｏｗｔｈ　ＴＹＬＭ,,合同会社,東京都,武蔵村山市,岸１丁目５２－３ウエストハイツ３０１号室,,13,223,2080031,,,,,,,2022-12-19,1,,,,,グロウスティーワイエルエム,0
2047,9020001149438,新規,0,2022-12-19,2022-12-19,つなぐ株式会社,,株式会社,神奈川県,横浜市泉区,和泉中央南５丁目１９番３８号,,14,116,2450023,,,,,,,2022-12-19,1,,,,,ツナグ,0
2048,9020001149462,新規,0,2022-12-19,2022-12-19,ハニープランニング株式会社,,株式会社,神奈川県,横浜市西区,浅間町１丁目４番３号ウィザードビル４０２,,14,103,2200072,,,,,,,2022-12-19,1,,,,,ハニープランニング,0
2058,9030001151509,新規,0,2022-12-19,2022-12-19,株式会社Ｒ’ｓ不動産エージェンシー,,株式会社,埼玉県,川口市,前川４丁目１６番１号藤ビル１０１,,11,203,3330842,,,,,,,2022-12-19,1,,,,,アールズフドウサンエージェンシー,0
2059,9030003020777,新規,0,2022-12-19,2022-12-19,ケアサービスリリィ合同会社,,合同会社,埼玉県,新座市,馬場２丁目３番１４号,,11,230,3520016,,,,,,,2022-12-19,1,,,,,ケアサービスリリィ,0
2067,9040001126286,新規,0,2022-12-19,2022-12-19,Ｒｉｃｈｍａｎ　Ｂｒｏｔｈｅｒｓ株式会社,,株式会社,千葉県,松戸市,二十世紀が丘萩町２７４番地の３東宏ビルＢ１Ｆ,,12,207,2710086,,,,,,,2022-12-19,1,,,,,リッチマンブラザーズ,0
2070,9050001052102,新規,0,2022-12-19,2022-12-19,株式会社わち,,株式会社,茨城県,土浦市,乙戸南２丁目１８番１７号,,08,203,3000845,,,,,,,2022-12-19,1,,,,,ワチ,0
2076,9080101023693,新規,0,2022-12-19,2022-12-19,株式会社ＲＳＹ,,株式会社,静岡県,富士市,伝法７６７番地の１２,,22,210,4170061,,,,,,,2022-12-19,1,,,,,アールエスワイ,0
2078,9080103002712,新規,0,2022-12-19,2022-12-19,ＡＫＡＯ合同会社,,合同会社,静岡県,熱海市,笹良ヶ台町１番１２号,,22,205,4130037,,,,,,,2022-12-19,1,,,,,アカオ,0
2080,9090001017893,新規,0,2022-12-19,2022-12-19,株式会社Ｋ・ＨＯＰＥ,,株式会社,山梨県,上野原市,上野原６６８番地,,19,212,4090112,,,,,,,2022-12-19,1,,,,,,0
2086,9110003004945,新規,0,2022-12-19,2022-12-19,合同会社小林,,合同会社,新潟県,見附市,新潟町２４４７番地,,15,211,9540006,,,,,,,2022-12-19,1,,,,,コバヤシ,0
2093,9120001251019,新規,0,2022-12-19,2022-12-19,Ｔ’ｓ　ＯＮＡＩＲ株式会社,,株式会社,大阪府,大阪市中央区,西心斎橋１丁目１３番１８号,,27,128,5420086,,,,,,,2022-12-19,1,,,,,ティーズオンエア,0
2094,9120001251142,新規,0,2022-12-19,2022-12-19,Ｈｅａｌｔｈ　Ｓｐａｃｅ株式会社,,株式会社,大阪府,大阪市北区,梅田１丁目２番２号大阪駅前第２ビル１２－１２,,27,127,5300001,,,,,,,2022-12-19,1,,,,,ヘルススペース,0
2095,9120001251150,新規,0,2022-12-19,2022-12-19,株式会社渡辺電装,,株式会社,大阪府,門真市,千石東町２３番２２号,,27,223,5710013,,,,,,,2022-12-19,1,,,,,ワタナベデンソウ,0
2096,9120001251159,新規,0,2022-12-19,2022-12-19,株式会社ＸＳＯＭＭ　ＨＲ,,株式会社,大阪府,門真市,ひえ島町１７番３０号,,27,223,5710037,,,,,,,2022-12-19,1,,,,,エクソムヒューマンリソース,0
2097,9120003023110,新規,0,2022-12-19,2022-12-19,ＳＶＬ合同会社,,合同会社,大阪府,大阪市淀川区,宮原２丁目８番１１号第６クリスタル新大阪２０８号,,27,123,5320003,,,,,,,2022-12-19,1,,,,,エスブイエル,0
2098,9120003023119,新規,0,2022-12-19,2022-12-19,ＩＴｐａｌ合同会社,,合同会社,大阪府,大阪市北区,梅田１丁目２番２号大阪駅前第２ビル１２―１２,,27,127,5300001,,,,,,,2022-12-19,1,,,,,アイティパル,0
2100,9120101066696,新規,0,2022-12-19,2022-12-19,株式会社ＳＴ,,株式会社,大阪府,堺市堺区,南三国ヶ丘町６丁５番１７号グラムール三国ヶ丘２０３,,27,141,5900023,,,,,,,2022-12-19,1,,,,,エスティイ,0
2105,9130001073321,新規,0,2022-12-19,2022-12-19,同興株式会社,,株式会社,京都府,京都市南区,東九条河西町２６番地マ・メゾン２０３,,26,107,6018014,,,,,,,2022-12-19,1,,,,,ドウコウ,0
2112,9140001128470,新規,0,2022-12-19,2022-12-19,株式会社Ｌｉｌｙ,,株式会社,兵庫県,川西市,けやき坂４丁目２１番地の３,,28,217,6660145,,,,,,,2022-12-19,1,,,,,リリー,0
2118,9180001154216,新規,0,2022-12-19,2022-12-19,ＯＺ　Ｃｌｅａｎｉｎｇ株式会社,,株式会社,愛知県,名古屋市瑞穂区,井の元町６２番地,,23,108,4670057,,,,,,,2022-12-19,1,,,,,オズクリーニング,0
2120,9180005020034,新規,0,2022-12-19,2022-12-19,医療法人わかば,,その他の設立登記法人,愛知県,名古屋市名東区,高針台３丁目１０２０番地,,23,115,4650054,,,,,,,2022-12-19,1,,,,,ワカバ,0
2126,9200001040792,新規,0,2022-12-19,2022-12-19,株式会社西和工業,,株式会社,岐阜県,安八郡輪之内町,福束字城浦４３０５番地２３,,21,382,5030235,,,,,,,2022-12-19,1,,,,,セイワコウギョウ,0
2136,9250001019881,新規,0,2022-12-19,2022-12-19,株式会社しの設計,,株式会社,山口県,下関市,長府珠の浦町３番１７号,,35,201,7520961,,,,,,,2022-12-19,1,,,,,シノセッケイ,0
2137,9260001037503,新規,0,2022-12-19,2022-12-19,株式会社Ａ．ｚ．ｃｏｍｐａｎｙ,,株式会社,岡山県,倉敷市,亀島２丁目６番２７号,,33,202,7128013,,,,,,,2022-12-19,1,,,,,エイゼットカンパニー,0
2145,9290001099953,新規,0,2022-12-19,2022-12-19,Ｒｉｓｉｎｇ株式会社,,株式会社,福岡県,八女市,本町１２１－１－４,,40,210,8340031,,,,,,,2022-12-19,1,,,,,ライジング,0
2148,9310001018167,新規,0,2022-12-19,2022-12-19,壱岐ハウジング株式会社,,株式会社,長崎県,壱岐市,郷ノ浦町田中触９４８番地１,,42,210,8115117,,,,,,,2022-12-19,1,,,,,イキハウジング,0
2151,9340003003998,新規,0,2022-12-19,2022-12-19,ｓｔｏ．ｊｏｉｎ‐ｕｓ合同会社,,合同会社,鹿児島県,鹿児島市,西千石町１番３０号パークハイツ８０２号,,46,201,8920847,,,,,,,2022-12-19,1,,,,,エスティーオードットジョイナス,0
2153,9360001031330,新規,0,2022-12-19,2022-12-19,叶匠株式会社,,株式会社,沖縄県,国頭郡国頭村,字辺土名２０５番地,,47,301,9051411,,,,,,,2022-12-19,1,,,,,カショー,0
2154,9360003012576,新規,0,2022-12-19,2022-12-19,合同会社ピックアップサービス,,合同会社,沖縄県,宮古島市,下地字川満１６８８番地１４,,47,214,9060301,,,,,,,2022-12-19,1,,,,,ピックアップサービス,0
2156,9370001049388,新規,0,2022-12-19,2022-12-19,株式会社ハチ,,株式会社,宮城県,仙台市青葉区,中山６丁目１９番３４号,,04,101,9810952,,,,,,,2022-12-19,1,,,,,ハチ,0
2163,9390005008982,新規,0,2022-12-19,2022-12-19,特定非営利活動法人ひゃくねん森プロジェクト,,その他の設立登記法人,山形県,鶴岡市,三瀬甲２３番地,,06,203,9997463,,,,,,,2022-12-19,1,,,,,ヒャクネンモリプロジェクト,0
2167,9420003002620,新規,0,2022-12-19,2022-12-19,合同会社ＫＣ‐１１インベストメント,,合同会社,青森県,上北郡七戸町,字森ノ上１００番地１,,02,402,0392827,,,,,,,2022-12-19,1,,,,,ケイシージュウイチインベストメント,0
2168,9420003002629,新規,0,2022-12-19,2022-12-19,合同会社ＫＣ‐２０インベストメント,,合同会社,青森県,上北郡七戸町,字森ノ上１００番地１,,02,402,0392827,,,,,,,2022-12-19,1,,,,,ケイシーニジュウインベストメント,0
2170,9430001088066,新規,0,2022-12-19,2022-12-19,株式会社華龍白石亭,,株式会社,北海道,夕張郡長沼町,旭町南３丁目２番１８号,,01,428,0691343,,,,,,,2022-12-19,1,,,,,カリュウシライシテイ,0
2171,9430001088074,新規,0,2022-12-19,2022-12-19,株式会社剣龍,,株式会社,北海道,札幌市東区,北十九条東１７丁目３－１０リラパレス４０１,,01,103,0650019,,,,,,,2022-12-19,1,,,,,ケンリュウ,0
2178,9430003014557,新規,0,2022-12-19,2022-12-19,ウィズム合同会社,,合同会社,北海道,札幌市北区,北七条西４丁目１番地１トーカン札幌第一キャステール６０７,,01,102,0600807,,,,,,,2022-12-19,1,,,,,ウィズム,0
2186,9700150113415,新規,0,2022-12-19,2022-12-19,ＭＡＬＩＭＧＥ　ＰＶＴ　ＬＴＤ,,外国会社等,千葉県,山武市,和田１１６２番地１－２０３,,12,237,2891334,スリランカ民主社会主義共和国、チラウ、ムンガンダルワイリッパデニヤ、３４６－Ａ,,,,,,2022-12-19,1,,,,,マリムゲピーヴイテイエルテイデイ,0
