sequenceNumber,corporateNumber,process,correct,updateDate,changeDate,name,nameImageId,kind,prefectureName,cityName,streetNumber,addressImageId,prefectureCode,cityCode,postCode,addressOutside,addressOutsideImageId,closeDate,closeCause,successorCorporateNumber,changeCause,assignmentDate,latest,enName,enPrefectureName,enCityName,enAddressOutside,furigana,hihyoji
4,1010001189640,登記記録の閉鎖等,0,2025-12-05,2025-11-21,株式会社ＦＬＩＰ第２０２号,,株式会社,東京都,千代田区,丸の内２丁目７番２号,,13,101,1000005,,,2025-11-21,清算の結了等,,,2018-02-16,1,,,,,エフエルアイピーダイニヒャクニゴウ,0
10,1010001244973,登記記録の閉鎖等,0,2025-12-05,2025-11-19,広景株式会社,,株式会社,東京都,文京区,白山１丁目６－４文京ＶｅｎｔｕｒｅＢａｓｅＡ０６,,13,105,1130001,,,2025-11-19,清算の結了等,,,2024-05-17,1,,,,,コウケイ,0
44,1010702003736,登記記録の閉鎖等,0,2025-12-05,2025-12-01,有限会社シー．エー．ティー,,有限会社,東京都,品川区,西五反田４丁目２０番８号,,13,109,1410031,,,2025-12-01,清算の結了等,,,2015-10-05,1,,,,,シーエーティー,0
69,1012401005220,登記記録の閉鎖等,0,2025-12-05,2025-12-01,株式会社ガイナックス,,株式会社,東京都,杉並区,高円寺南４丁目７番３サンシャイン高円寺８０３号,,13,115,1660003,,,2025-12-01,清算の結了等,,,2015-10-05,1,,,,,ガイナックス,0
86,1020001133770,登記記録の閉鎖等,0,2025-12-05,2025-11-14,株式会社カストル,,株式会社,神奈川県,横浜市緑区,中山１丁目９番２号和知ビル２Ｆ,,14,113,2260019,,,2025-11-14,合併による解散等,3020001101775,令和７年１１月１日神奈川県横浜市緑区中山一丁目９番２号和知ビル２Ｆ株式会社若武者ケア横浜北部（3020001101775）に合併し解散,2019-11-25,1,,,,,カストル,0
100,1021003012401,登記記録の閉鎖等,0,2025-12-05,2025-11-14,合同会社ＨＯＰＥ,,合同会社,神奈川県,横須賀市,岩戸３丁目３８－４第一ベストビル２Ｆ,,14,201,2390844,,,2025-11-14,合併による解散等,9021001044026,令和７年１１月１日神奈川県横須賀市岩戸三丁目３８番４号第一ベストビル２Ｆ株式会社若武者ケア湘南（9021001044026）に合併し解散,2022-11-22,1,,,,,ホープ,0
102,1030001006356,登記記録の閉鎖等,0,2025-12-05,2025-11-27,株式会社日栄ハウジング,,株式会社,埼玉県,さいたま市南区,南浦和３丁目４６番１０号,,11,108,3360017,,,2025-11-27,清算の結了等,,,2015-10-05,1,,,,,ニチエイハウジング,0
113,1030002003922,登記記録の閉鎖等,0,2025-12-05,2025-12-01,有限会社城所木材店,,有限会社,埼玉県,さいたま市緑区,大字大門１７２３番地２,,11,109,3360963,,,2025-12-01,清算の結了等,,,2015-10-05,1,,,,,キドコロモクザイテン,0
114,1030002069559,登記記録の閉鎖等,0,2025-12-05,2025-12-01,有限会社ラポール,,有限会社,埼玉県,春日部市,道順川戸２５番地１２,,11,214,3440047,,,2025-12-01,清算の結了等,,,2015-10-05,1,,,,,ラポール,0
119,1040001120338,登記記録の閉鎖等,0,2025-12-05,2025-11-04,株式会社ラーショ,,株式会社,千葉県,柏市,柏３丁目６番１６号,,12,217,2770005,,,2025-11-04,合併による解散等,2040002096436,令和７年１１月１日千葉県柏市明原一丁目７番２６号３階株式会社清水商事（2040002096436）に合併し解散,2021-09-29,1,,,,,ラーショ,0
138,1080102010426,登記記録の閉鎖等,0,2025-12-05,2025-12-03,有限会社敷島屋旅館,,有限会社,静岡県,三島市,泉町７番１７号,,22,206,4110037,,,2025-12-03,清算の結了等,,,2015-10-05,1,,,,,シキシマヤリョカン,0
142,1080402016032,登記記録の閉鎖等,0,2025-12-05,2025-11-26,有限会社嶋田建築,,有限会社,静岡県,浜松市浜名区,引佐町井伊谷１５８４番地の４,,22,139,4312212,,,2025-11-26,清算の結了等,,,2015-10-05,1,,,,,シマダケンチク,0
148,1120001036096,登記記録の閉鎖等,0,2025-12-05,2025-12-02,橋川印刷紙業株式会社,,株式会社,大阪府,大阪市此花区,西九条２丁目１０番５号,,27,104,5540012,,,2025-12-02,清算の結了等,,,2015-10-05,1,,,,,ハシカワインサツシギョウ,0
153,1120001212192,登記記録の閉鎖等,0,2025-12-05,2025-11-28,信捷医療設備株式会社,,株式会社,東京都,墨田区,横川３丁目６番７号２－Ｊ室,,13,107,1300003,,,2025-11-28,清算の結了等,,,2018-03-26,1,,,,,シンショウイリョウセツビ,0
160,1120002021709,登記記録の閉鎖等,0,2025-12-05,2025-12-02,有限会社クリエートビル,,有限会社,大阪府,大阪市西区,靱本町１丁目１６番１８号,,27,106,5500004,,,2025-12-02,清算の結了等,,,2015-10-05,1,,,,,クリエートビル,0
162,1120002049972,登記記録の閉鎖等,0,2025-12-05,2025-12-02,有限会社ベストダイシン,,有限会社,大阪府,大阪市浪速区,日本橋３丁目１番２６号,,27,111,5560005,,,2025-12-02,清算の結了等,,,2015-10-05,1,,,,,ベストダイシン,0
179,1130002015742,登記記録の閉鎖等,0,2025-12-05,2025-12-02,有限会社ウエノ,,有限会社,滋賀県,大津市,におの浜２丁目２番ルネ大津３号棟８０８号室,,25,201,5200801,,,2025-12-02,清算の結了等,,,2015-10-05,1,,,,,ウエノ,0
183,1140001086916,登記記録の閉鎖等,0,2025-12-05,2025-12-02,株式会社アンシン,,株式会社,兵庫県,芦屋市,松ノ内町３番７－４０７号,,28,206,6590094,,,2025-12-02,清算の結了等,,,2015-10-05,1,,,,,アンシン,0
192,1180001007372,登記記録の閉鎖等,0,2025-12-05,2025-12-02,株式会社北幸,,株式会社,愛知県,名古屋市港区,名港１丁目１４番１７号,,23,111,4550037,,,2025-12-02,清算の結了等,,,2015-10-05,1,,,,,ホッコウ,0
202,1180002079865,登記記録の閉鎖等,0,2025-12-05,2025-12-02,有限会社ＩＴＯサポート,,有限会社,愛知県,一宮市,多加木２丁目２番１７号,,23,203,4910837,,,2025-12-02,清算の結了等,,,2015-10-05,1,,,,,イトーサポート,0
207,1180301012527,登記記録の閉鎖等,0,2025-12-05,2025-12-01,株式会社ＡＵＴＯ　ＣＡＲＳ,,株式会社,愛知県,岡崎市,小呂町字１丁目１２番地２,,23,202,4440009,,,2025-12-01,合併による解散等,5180301031845,令和７年１２月１日愛知県岡崎市小呂町字一丁目１２番地２ＹＭＳ株式会社（5180301031845）に合併し解散,2015-10-05,1,,,,,オートカーズ,0
208,1180301021858,登記記録の閉鎖等,0,2025-12-05,2025-12-03,株式会社メタルリンクス,,株式会社,愛知県,愛知郡東郷町,白鳥１丁目８番地２,,23,302,4700155,,,2025-12-03,清算の結了等,,,2015-10-05,1,,,,,メタルリンクス,0
209,1180301037284,登記記録の閉鎖等,0,2025-12-05,2025-11-28,株式会社蒼,,株式会社,愛知県,豊田市,畝部東町船場８７番地,,23,211,4701211,,,2025-11-28,清算の結了等,,,2023-04-12,1,,,,,アオ,0
221,1220002006757,登記記録の閉鎖等,0,2025-12-05,2025-12-03,有限会社一清,,有限会社,石川県,金沢市,西大桑町１３番１７号,,17,201,9218102,,,2025-12-03,清算の結了等,,,2015-10-05,1,,,,,イッセイ,0
242,1290803003161,登記記録の閉鎖等,0,2025-12-05,2025-12-02,ＹＨＣ合同会社,,合同会社,福岡県,田川郡川崎町,大字池尻４５０番地１,,40,605,8270002,,,2025-12-02,清算の結了等,,,2018-07-19,1,,,,,ワイエイチシー,0
259,1360002017352,登記記録の閉鎖等,0,2025-12-05,2025-12-01,有限会社森川設備工業,,有限会社,沖縄県,宜野湾市,真志喜１丁目１３番１号,,47,205,9012224,,,2025-12-01,清算の結了等,,,2015-10-05,1,,,,,モリカワセツビコウギョウ,0
276,1470002013976,登記記録の閉鎖等,0,2025-12-05,2025-12-01,有限会社さぬき果匠会,,有限会社,香川県,善通寺市,吉原町１４０７番地の１,,37,204,7650061,,,2025-12-01,合併による解散等,1470002012870,令和７年１２月１日香川県善通寺市吉原町３１２８番地１株式会社キウイバードコーポレーション（1470002012870）に合併し解散,2015-10-05,1,,,,,サヌキカショウカイ,0
284,2010001145147,登記記録の閉鎖等,0,2025-12-05,2025-11-21,株式会社ＳＨＩＰ第３２号,,株式会社,東京都,千代田区,丸の内２丁目７番２号,,13,101,1000005,,,2025-11-21,清算の結了等,,,2015-10-05,1,,,,,エスエイチアイピーダイサンジュウニゴウ,0
285,2010001179855,登記記録の閉鎖等,0,2025-12-05,2025-11-21,株式会社ＦＬＩＰ第１５７号,,株式会社,東京都,千代田区,丸の内２丁目７番２号,,13,101,1000005,,,2025-11-21,清算の結了等,,,2016-11-29,1,,,,,エフエルアイピーダイヒャクゴジュウナナゴウ,0
292,2010003034884,登記記録の閉鎖等,0,2025-12-05,2025-11-21,ジェイエルシティホールディング合同会社,,合同会社,東京都,千代田区,丸の内１丁目４番１号東京共同会計事務所内,,13,101,1000005,,,2025-11-21,清算の結了等,,,2021-05-25,1,,,,,ジェイエルシティホールディング,0
296,2010401119675,登記記録の閉鎖等,0,2025-12-05,2025-12-01,白井アセットマネジメント株式会社,,株式会社,東京都,府中市,西原町１丁目１５番２号,,13,206,1830046,,,2025-12-01,合併による解散等,6012401031526,令和７年１２月１日東京都府中市西原町一丁目１５番２号株式会社オール星光（6012401031526）に合併し解散,2015-10-05,1,,,,,シライアセットマネジメント,0
309,2010501046522,登記記録の閉鎖等,0,2025-12-05,2025-11-12,株式会社ルクバト,,株式会社,東京都,渋谷区,東１丁目３番１号カミニート７号室,,13,113,1500011,,,2025-11-12,清算の結了等,,,2020-11-20,1,,,,,ルクバト,0
317,2010801000113,登記記録の閉鎖等,0,2025-12-05,2025-11-21,株式会社アイ・エル・イー,,株式会社,東京都,大田区,北馬込２丁目４８番１２号,,13,111,1430021,,,2025-11-21,清算の結了等,,,2025-08-04,1,,,,,アイエルイー,0
323,2011001059700,登記記録の閉鎖等,0,2025-12-05,2025-12-02,デリックスジャパンビジネスサポート株式会社,,株式会社,東京都,中野区,丸山２丁目２２番１号,,13,114,1650021,,,2025-12-02,清算の結了等,,,2015-10-05,1,,,,,,0
336,2011101043760,登記記録の閉鎖等,0,2025-12-05,2025-12-01,オオハタ・エステート株式会社,,株式会社,東京都,昭島市,美堀町５丁目２０番７－９０５号,,13,207,1960001,,,2025-12-01,清算の結了等,,,2015-10-05,1,,,,,オオハタエステート,0
345,2011203001880,登記記録の閉鎖等,0,2025-12-05,2025-12-03,合同会社ピースフル,,合同会社,東京都,府中市,是政４丁目８番地の１,,13,206,1830014,,,2025-12-03,合併による解散等,1012403001465,令和７年１２月１日東京都府中市是政四丁目８番地の１ルイシャトレ府中是政４０６合同会社ユーフォリア（1012403001465）に合併し解散,2015-10-05,1,,,,,ピースフル,0
358,2011701015738,登記記録の閉鎖等,0,2025-12-05,2025-12-01,株式会社ＴＭデザインスタジオ,,株式会社,東京都,江戸川区,小松川４丁目６７番地１,,13,123,1320034,,,2025-12-01,清算の結了等,,,2015-10-05,1,,,,,ティーエムデザインスタジオ,0
362,2012401023989,登記記録の閉鎖等,0,2025-12-05,2025-12-01,株式会社キユーピーエッグワールドトレーディング,,株式会社,東京都,調布市,仙川町２丁目５番地７,,13,208,1820002,,,2025-12-01,合併による解散等,4012401007544,令和７年１２月１日東京都調布市仙川町二丁目５番地７キユーピータマゴ株式会社（4012401007544）に合併し解散,2015-10-05,1,,,,,キユーピーエッグワールドトレーディング,0
366,2020001014672,登記記録の閉鎖等,0,2025-12-05,2025-12-02,株式会社グランド・ハウジング,,株式会社,神奈川県,茅ヶ崎市,緑が浜１２番１０－４０２号,,14,207,2530034,,,2025-12-02,清算の結了等,,,2015-10-05,1,,,,,グランドハウジング,0
369,2020002075490,登記記録の閉鎖等,0,2025-12-05,2025-12-01,有限会社阿部製作所,,有限会社,神奈川県,横浜市港北区,樽町１丁目１９番６号,00011320,14,109,2220001,,,2025-12-01,清算の結了等,,,2015-10-05,1,,,,,アベセイサクショ,0
380,2021003014462,登記記録の閉鎖等,0,2025-12-05,2025-09-09,合同会社岩崎,,合同会社,神奈川県,相模原市中央区,陽光台２丁目１番５号,,14,152,2520226,,,2025-09-09,清算の結了等,,,2024-05-08,1,,,,,イワサキ,0
382,2030001025289,登記記録の閉鎖等,0,2025-12-05,2025-11-27,株式会社読売新聞所沢センター,,株式会社,埼玉県,所沢市,上新井５丁目２番地の２４,,11,208,3591142,,,2025-11-27,清算の結了等,,,2015-10-05,1,,,,,ヨミウリシンブントコロザワセンター,0
392,2030003013465,登記記録の閉鎖等,0,2025-12-05,2025-11-27,合同会社梁建,,合同会社,埼玉県,新座市,新座１丁目５番４号,,11,230,3520006,,,2025-11-27,清算の結了等,,,2019-04-24,1,,,,,リョウケン,0
396,2030005018504,登記記録の閉鎖等,0,2025-12-05,2025-11-04,特定非営利活動法人健康増進推進会議,,その他の設立登記法人,埼玉県,さいたま市見沼区,大和田町１丁目４９３番地１,,11,104,3370053,,,2025-11-04,清算の結了等,,,2017-05-15,1,,,,,ケンコウゾウシンスイシンカイギ,0
402,2040002071257,登記記録の閉鎖等,0,2025-12-05,2025-11-11,有限会社鈴木商会,,有限会社,千葉県,富津市,金谷２２６７番地１０,,12,226,2991861,,,2025-11-11,清算の結了等,,,2015-10-05,1,,,,,スズキショウカイ,0
413,2070001008224,登記記録の閉鎖等,0,2025-12-05,2025-12-03,株式会社藤工事,,株式会社,群馬県,高崎市,下滝町３７１番地１１,,10,202,3700026,,,2025-12-03,清算の結了等,,,2015-10-05,1,,,,,フジコウジ,0
415,2070002013826,登記記録の閉鎖等,0,2025-12-05,2025-12-04,有限会社榛風,,有限会社,群馬県,高崎市,井出町１８４番地の２,,10,202,3703534,,,2025-12-04,清算の結了等,,,2015-10-05,1,,,,,シンプウ,0
432,2120001199553,登記記録の閉鎖等,0,2025-12-05,2025-12-03,株式会社ＧＨＩＢＬＩ　ＦＩＯＲＥ,,株式会社,大阪府,大阪市中央区,備後町２丁目５番８号,,27,128,5410051,,,2025-12-03,合併による解散等,8120001154692,令和７年１２月３日大阪市中央区備後町二丁目５番８号株式会社ソニックウェーブ（8120001154692）に合併し解散,2016-07-26,1,,,,,ギブリフィオーレ,0
481,2180001021918,登記記録の閉鎖等,0,2025-12-05,2025-12-01,三邦株式会社,,株式会社,愛知県,名古屋市瑞穂区,春山町１０番地３－１０５,,23,108,4670024,,,2025-12-01,清算の結了等,,,2015-10-05,1,,,,,サンポウ,0
483,2180001046246,登記記録の閉鎖等,0,2025-12-05,2025-12-01,株式会社丸玉運送名古屋,,株式会社,愛知県,名古屋市港区,潮凪町１番地の２,,23,111,4550844,,,2025-12-01,合併による解散等,4180001094565,令和７年１２月１日愛知県東海市名和町天王前３３番地の１株式会社丸玉運送（4180001094565）に合併し解散,2015-10-05,1,,,,,マルタマウンソウナゴヤ,0
557,2430001056797,登記記録の閉鎖等,0,2025-12-05,2025-12-01,株式会社総合産業,,株式会社,北海道,室蘭市,崎守町３８７番地１１,,01,205,0500055,,,2025-12-01,清算の結了等,,,2015-10-05,1,,,,,ソウゴウサンギョウ,0
566,2490002008742,登記記録の閉鎖等,0,2025-12-05,2025-12-03,有限会社ドライブイン足摺,00006655,有限会社,高知県,土佐清水市,清水ヶ丘１３番２号,,39,209,7870330,,,2025-12-03,清算の結了等,,,2015-10-05,1,,,,,ドライブインアシズリ,0
573,3010001035058,登記記録の閉鎖等,0,2025-12-05,2025-11-21,株式会社朝日屋呉服店,,株式会社,東京都,中央区,月島３丁目４番７号,,13,102,1040052,,,2025-11-21,清算の結了等,,,2015-10-05,1,,,,,アサヒヤゴフクテン,0
574,3010001145146,登記記録の閉鎖等,0,2025-12-05,2025-11-21,株式会社ＳＨＩＰ第３１号,,株式会社,東京都,千代田区,丸の内２丁目７番２号,,13,101,1000005,,,2025-11-21,清算の結了等,,,2015-10-05,1,,,,,エスエイチアイピーダイサンジュウイチゴウ,0
600,3010403024443,登記記録の閉鎖等,0,2025-12-05,2025-11-19,合同会社Ｕｎｉｃｏｄｅ,,合同会社,群馬県,高崎市,竜見町３－１３カルパ・ロッサ２４号室,,10,202,3700835,,,2025-11-19,清算の結了等,,,2021-01-12,1,,,,,ユニコード,0
604,3010502016119,登記記録の閉鎖等,0,2025-12-05,2025-12-01,有限会社ナカシン企画,,有限会社,東京都,葛飾区,新宿５丁目１６番３号,,13,122,1250051,,,2025-12-01,清算の結了等,,,2015-10-05,1,,,,,ナカシンキカク,0
607,3010502020590,登記記録の閉鎖等,0,2025-12-05,2025-12-01,有限会社高橋真珠,,有限会社,東京都,台東区,東上野１丁目１２番６号,,13,106,1100015,,,2025-12-01,清算の結了等,,,2015-10-05,1,,,,,タカハシシンジュ,0
639,3011301002763,登記記録の閉鎖等,0,2025-12-05,2025-12-01,株式会社三英,,株式会社,東京都,杉並区,清水３丁目２６番１８号,,13,115,1670033,,,2025-12-01,合併による解散等,6011302001398,令和７年１２月１日東京都杉並区阿佐谷南三丁目３２番３号株式会社英新興産（6011302001398）に合併し解散,2015-10-05,1,,,,,サンエイ,0
664,3020001161836,登記記録の閉鎖等,0,2025-12-05,2025-11-27,株式会社みんなの樹,,株式会社,神奈川県,横浜市中区,吉浜町１番地２パークスクエア横浜１０１２号室,,14,104,2310024,,,2025-11-27,清算の結了等,,,2025-03-18,1,,,,,ミンナノキ,0
665,3020003018646,登記記録の閉鎖等,0,2025-12-05,2025-12-01,合同会社ランティ,,合同会社,神奈川県,横浜市戸塚区,上矢部町２６４８番地３ヒルズ島台２０５号,,14,110,2450053,,,2025-12-01,清算の結了等,,,2020-10-14,1,,,,,ランティ,0
686,3030003020931,登記記録の閉鎖等,0,2025-12-05,2025-12-01,サニーファクトリー合同会社,,合同会社,埼玉県,吉川市,大字高久７８３番地,,11,243,3420035,,,2025-12-01,清算の結了等,,,2023-01-12,1,,,,,サニーファクトリー,0
690,3040001115138,登記記録の閉鎖等,0,2025-12-05,2025-11-11,エースビジネスマシン株式会社,,株式会社,千葉県,我孫子市,湖北台９丁目１６番９号,,12,222,2701132,,,2025-11-11,清算の結了等,,,2020-09-18,1,,,,,エースビジネスマシン,0
707,3080002014764,登記記録の閉鎖等,0,2025-12-05,2025-12-01,有限会社山丸,,有限会社,静岡県,榛原郡吉田町,川尻２１０９番地の１,,22,424,4210302,,,2025-12-01,清算の結了等,,,2015-10-05,1,,,,,ヤママル,0
712,3090002001175,登記記録の閉鎖等,0,2025-12-05,2025-12-01,株式会社小板橋宝飾,,株式会社,山梨県,西八代郡市川三郷町,市川大門２４６１番地７,,19,346,4093601,,,2025-12-01,清算の結了等,,,2015-10-05,1,,,,,コイタバシホウショク,0
716,3110002034874,登記記録の閉鎖等,0,2025-12-05,2025-12-01,有限会社真野印刷,,有限会社,新潟県,佐渡市,真野新町６９１番地１,,15,224,9520318,,,2025-12-01,清算の結了等,,,2015-10-05,1,,,,,マノインサツ,0
732,3120001262293,登記記録の閉鎖等,0,2025-12-05,2025-12-01,徳錦株式会社,,株式会社,大阪府,大阪市阿倍野区,相生通２丁目７－４５,,27,119,5450033,,,2025-12-01,清算の結了等,,,2024-02-16,1,,,,,トクキン,0
767,3150001024360,登記記録の閉鎖等,0,2025-12-05,2025-12-01,株式会社エイトス,,株式会社,奈良県,天理市,兵庫町３０７番地,,29,204,6320044,,,2025-12-01,合併による解散等,9150001010347,令和７年１２月１日奈良県橿原市北八木町一丁目１番８号橿原中央ビル株式会社エヌ・ジー・エス（9150001010347）に合併し解散,2021-02-02,1,,,,,エイトス,0
773,3170002008708,登記記録の閉鎖等,0,2025-12-05,2025-12-02,有限会社北新電器,,有限会社,和歌山県,田辺市,今福町１１番地,,30,206,6460043,,,2025-12-02,清算の結了等,,,2015-10-05,1,,,,,キタシンデンキ,0
775,3180001071417,登記記録の閉鎖等,0,2025-12-05,2025-12-02,株式会社インシュア,,株式会社,愛知県,名古屋市千種区,上野３丁目４番１９号,,23,101,4640082,,,2025-12-02,清算の結了等,,,2015-10-05,1,,,,,インシュア,0
817,3330001028938,登記記録の閉鎖等,0,2025-12-05,2025-12-01,株式会社Ｂｉｒｔｈｉｎｋ,,株式会社,熊本県,熊本市東区,石原１丁目３番３０号,,43,102,8618046,,,2025-12-01,清算の結了等,,,2021-08-25,1,,,,,バーシンク,0
820,3330002009739,登記記録の閉鎖等,0,2025-12-05,2025-12-02,有限会社増田ガス産業,,有限会社,熊本県,熊本市西区,花園４丁目１番４３号,,43,103,8600072,,,2025-12-02,清算の結了等,,,2015-10-05,1,,,,,マスダガスサンギョウ,0
823,3340005004249,登記記録の閉鎖等,0,2025-12-05,2025-12-01,協同組合西之表ショッピングセンター,,その他の設立登記法人,鹿児島県,西之表市,天神町３番地１２,,46,213,8913115,,,2025-12-01,清算の結了等,,,2015-10-05,1,,,,,ニシノオモテショッピングセンター,0
825,3350002012170,登記記録の閉鎖等,0,2025-12-05,2025-12-01,有限会社シンコー電気,,有限会社,宮崎県,延岡市,野地町６丁目２０５９番地３,,45,203,8820802,,,2025-12-01,清算の結了等,,,2015-10-05,1,,,,,シンコーデンキ,0
827,3350005002788,登記記録の閉鎖等,0,2025-12-05,2025-12-01,宮崎県北電気工事業協同組合,,その他の設立登記法人,宮崎県,延岡市,桜園町１７１番地１,,45,203,8820036,,,2025-12-01,清算の結了等,,,2015-10-05,1,,,,,ミヤザキケンポクデンキコウ,0
844,3410002005226,登記記録の閉鎖等,0,2025-12-05,2025-12-02,株式会社千秋矢留会,,株式会社,秋田県,秋田市,千秋矢留町２番８号,,05,201,0100877,,,2025-12-02,清算の結了等,,,2015-10-05,1,,,,,センシュウヤドメカイ,0
845,3410005003656,登記記録の閉鎖等,0,2025-12-05,2025-12-03,協同組合能代商業卸センター,,その他の設立登記法人,秋田県,能代市,字五雲岱１６番地３,,05,202,0160883,,,2025-12-03,清算の結了等,,,2015-10-05,1,,,,,ノシロショウギョウオロシセンター,0
846,3420001013848,登記記録の閉鎖等,0,2025-12-05,2025-12-01,株式会社渋谷葬儀店,,株式会社,青森県,北津軽郡鶴田町,大字鶴田字生松１７１番地２,,02,384,0383503,,,2025-12-01,清算の結了等,,,2015-10-05,1,,,,,シブタニソウギテン,0
848,3420002009688,登記記録の閉鎖等,0,2025-12-05,2025-12-01,有限会社三浦鉄工所,,有限会社,青森県,三戸郡五戸町,字下モ沢向７番地３,,02,442,0391518,,,2025-12-01,清算の結了等,,,2015-10-05,1,,,,,ミウラテッコウショ,0
849,3430001020975,登記記録の閉鎖等,0,2025-12-05,2025-12-01,株式会社日本庭園,,株式会社,北海道,札幌市厚別区,厚別南３丁目２番２０号,,01,108,0040022,,,2025-12-01,合併による解散等,4430001017970,令和７年１２月１日札幌市厚別区厚別南三丁目２番２５号株式会社四宮造園（4430001017970）に合併し解散,2015-10-05,1,,,,,ニホンテイエン,0
850,3430001037284,登記記録の閉鎖等,0,2025-12-05,2025-12-01,株式会社クレド,,株式会社,北海道,札幌市西区,発寒六条９丁目１番１０号,,01,107,0630826,,,2025-12-01,合併による解散等,4430001014844,令和７年１２月１日札幌市西区西野三条二丁目１番５４号株式会社北新商事（4430001014844）に合併し解散,2015-10-05,1,,,,,クレド,0
869,4010001145145,登記記録の閉鎖等,0,2025-12-05,2025-11-21,株式会社ＳＨＩＰ第３０号,,株式会社,東京都,千代田区,丸の内２丁目７番２号,,13,101,1000005,,,2025-11-21,清算の結了等,,,2015-10-05,1,,,,,エスエイチアイピーダイサンジュウゴウ,0
885,4010401134986,登記記録の閉鎖等,0,2025-12-05,2025-11-11,株式会社Ｋｏｔｏｈｏｇｉ,,株式会社,東京都,港区,芝浦１丁目１３番１０号,,13,103,1050023,,,2025-11-11,清算の結了等,,,2017-11-15,1,,,,,コトホギ,0
891,4010403008949,登記記録の閉鎖等,0,2025-12-05,2025-11-11,ニューストーンインターナショナル株式会社,,株式会社,東京都,港区,港南４丁目６番２号ワールドシティタワーズ１４０２,,13,103,1080075,,,2025-11-11,清算の結了等,,,2015-10-05,1,,,,,,0
894,4010405023145,登記記録の閉鎖等,0,2025-12-05,2025-11-12,一般社団法人メトロ,,その他の設立登記法人,東京都,港区,芝２丁目１０番６号ＥＡＲＴＨＳＨＩＢＡＢＬＤ．３Ｆイントリム内,,13,103,1050014,,,2025-11-12,清算の結了等,,,2024-04-05,1,,,,,メトロ,0
906,4011001036193,登記記録の閉鎖等,0,2025-12-05,2025-11-12,ソーホー・スクエア・ジャパン株式会社,,株式会社,東京都,渋谷区,恵比寿４丁目２０番３号恵比寿ガーデンプレイスタワー,,13,113,1500013,,,2025-11-12,合併による解散等,2011003002955,令和７年１１月１日東京都渋谷区恵比寿四丁目２０番３号恵比寿ガーデンプレイスタワー２５階ＶＭＬ＆Ｏｇｉｌｖｙ　Ｊａｐａｎ合同会社（2011003002955）に合併し解散,2015-10-05,1,Soho Square Japan K.K.,Tokyo,"Yebisu Garden Place Tower, 20-3, Ebisu 4-chome, Shibuya-ku",,ソーホースクエアジャパン,0
928,4011202001244,登記記録の閉鎖等,0,2025-12-05,2025-12-02,有限会社オーナリ,,有限会社,東京都,中野区,野方２丁目１８番５号,,13,114,1650027,,,2025-12-02,清算の結了等,,,2015-10-05,1,,,,,オーナリ,0
929,4011301015574,登記記録の閉鎖等,0,2025-12-05,2025-12-02,株式会社クレデンシャル総合研究所,,株式会社,東京都,杉並区,荻窪３丁目４７番１８号,,13,115,1670051,,,2025-12-02,清算の結了等,,,2015-10-05,1,,,,,クレデンシャルソウゴウケンキュウショ,0
930,4011401003603,登記記録の閉鎖等,0,2025-12-05,2025-12-02,ソーワ技研工業株式会社,,株式会社,東京都,板橋区,常盤台１丁目３０番１５号,,13,119,1740071,,,2025-12-02,清算の結了等,,,2015-10-05,1,,,,,ソーワギケンコウギョウ,0
935,4011701023549,登記記録の閉鎖等,0,2025-12-05,2025-12-01,株式会社ママン東京,,株式会社,東京都,江戸川区,北小岩２丁目１３番９号,,13,123,1330051,,,2025-12-01,清算の結了等,,,2020-06-10,1,,,,,ママントウキョウ,0
945,4012401017171,登記記録の閉鎖等,0,2025-12-05,2025-12-03,裕広ハガネ株式会社,,株式会社,東京都,府中市,紅葉丘３丁目６番地の６,,13,206,1830004,,,2025-12-03,清算の結了等,,,2015-10-05,1,,,,,,0
946,4012401023558,登記記録の閉鎖等,0,2025-12-05,2025-12-03,株式会社黄緑,,株式会社,東京都,武蔵野市,吉祥寺東町２丁目２４番２５号,,13,203,1800002,,,2025-12-03,清算の結了等,,,2015-10-05,1,,,,,,0
950,4020001001875,登記記録の閉鎖等,0,2025-12-05,2025-12-01,オタカ商事株式会社,,株式会社,神奈川県,横浜市緑区,竹山４丁目１番地３,,14,113,2260005,,,2025-12-01,清算の結了等,,,2015-10-05,1,,,,,オタカショウジ,0
955,4020001075515,登記記録の閉鎖等,0,2025-12-05,2025-12-03,株式会社国頭建設工業,,株式会社,神奈川県,川崎市川崎区,境町９番１２号,,14,131,2100838,,,2025-12-03,清算の結了等,,,2015-10-05,1,,,,,クニガミケンセツコウギョウ,0
956,4020001090381,登記記録の閉鎖等,0,2025-12-05,2025-12-01,株式会社あおば,,株式会社,神奈川県,横浜市青葉区,荏田町１５５番地１３,,14,117,2250013,,,2025-12-01,清算の結了等,,,2015-10-05,1,,,,,アオバ,0
965,4020002068955,登記記録の閉鎖等,0,2025-12-05,2025-12-02,有限会社エスアンドエス・テクノ,,有限会社,神奈川県,横浜市都筑区,中川２丁目６番２３,,14,118,2240001,,,2025-12-02,清算の結了等,,,2015-10-05,1,,,,,エスアンドエステクノ,0
980,4030001055458,登記記録の閉鎖等,0,2025-12-05,2025-12-01,株式会社フーズネットワーク,,株式会社,埼玉県,川越市,霞ケ関東４丁目２番地１１,,11,201,3501103,,,2025-12-01,清算の結了等,,,2015-10-05,1,,,,,フーズネットワーク,0
993,4040001100907,登記記録の閉鎖等,0,2025-12-05,2025-11-11,震旦株式会社,,株式会社,千葉県,我孫子市,緑２丁目１０番３４号,,12,222,2701153,,,2025-11-11,清算の結了等,,,2017-07-12,1,,,,,シンタン,0
1007,4070001001391,登記記録の閉鎖等,0,2025-12-05,2025-12-02,株式会社山水,,株式会社,群馬県,前橋市,亀里町１３１０番地,,10,201,3792147,,,2025-12-02,清算の結了等,,,2015-10-05,1,,,,,サンスイ,0
1028,4090001012585,登記記録の閉鎖等,0,2025-12-05,2025-12-01,メディアストア株式会社,,株式会社,山梨県,甲府市,里吉１丁目１番２４号,,19,201,4000822,,,2025-12-01,清算の結了等,,,2015-10-05,1,,,,,メディアストア,0
1040,4120001112183,登記記録の閉鎖等,0,2025-12-05,2025-12-02,株式会社創琳,,株式会社,大阪府,大阪市中央区,上汐１丁目５番５－２０３号,,27,128,5420064,,,2025-12-02,清算の結了等,,,2015-10-05,1,,,,,ソウリン,0
1050,4120005022313,登記記録の閉鎖等,0,2025-12-05,2025-12-03,行政書士法人東方法務,,その他の設立登記法人,大阪府,大阪市福島区,福島６丁目１９番１２号ダンテＳＫ梅田７０１室,,27,103,5530003,,,2025-12-03,清算の結了等,,,2021-06-14,1,,,,,トウホウホウム,0
1087,4170002011132,登記記録の閉鎖等,0,2025-12-05,2025-12-02,有限会社キシタニ総合事務所,,有限会社,和歌山県,新宮市,新宮４５７番地の８,,30,207,6470081,,,2025-12-02,清算の結了等,,,2015-10-05,1,,,,,キシタニソウゴウジムショ,0
1113,4220005006041,登記記録の閉鎖等,0,2025-12-05,2025-12-03,一般財団法人日本海むら開発公社,,その他の設立登記法人,石川県,輪島市,門前町走出６の６９番地,,17,204,9272151,,,2025-12-03,清算の結了等,,,2015-10-05,1,,,,,ニホンカイムラカイハツコウシャ,0
1137,4350005003728,登記記録の閉鎖等,0,2025-12-05,2025-12-02,医療法人誠心会,,その他の設立登記法人,宮崎県,都城市,小松原町１１６１番地の３,,45,202,8850022,,,2025-12-02,清算の結了等,,,2015-10-05,1,,,,,セイシンカイ,0
1143,4370102000485,登記記録の閉鎖等,0,2025-12-05,2025-11-28,浜大工業有限会社,,有限会社,宮城県,柴田郡柴田町,大字四日市場字神明３番地の１,,04,323,9891743,,,2025-11-28,清算の結了等,,,2015-10-05,1,,,,,ハマダイコウギョウ,0
1145,4380003001516,登記記録の閉鎖等,0,2025-12-05,2025-12-01,合資会社川合屋陶器店,,合資会社,福島県,相馬市,中村字田町１０番地,,07,209,9760042,,,2025-12-01,清算の結了等,,,2015-10-05,1,,,,,カワイヤトウキテン,0
1150,4410002001612,登記記録の閉鎖等,0,2025-12-05,2025-12-03,有限会社斎藤産業,,有限会社,秋田県,秋田市,雄和妙法字薊沢１３０番地,,05,201,0101223,,,2025-12-03,清算の結了等,,,2015-10-05,1,,,,,サイトウサンギョウ,0
1153,4430001010190,登記記録の閉鎖等,0,2025-12-05,2025-12-01,株式会社たじま屋,,株式会社,北海道,札幌市東区,北十二条東７丁目１番地,,01,103,0650012,,,2025-12-01,合併による解散等,5430002003738,令和７年１２月１日札幌市北区北六条西六丁目１番地４株式会社大下商店（5430002003738）に合併し解散,2015-10-05,1,,,,,タジマヤ,0
1157,4430001034462,登記記録の閉鎖等,0,2025-12-05,2025-12-01,株式会社Ｐ．Ｍ．Ｃ,,株式会社,北海道,札幌市清田区,美しが丘四条５丁目３番１６号,,01,110,0040814,,,2025-12-01,合併による解散等,7430001069398,令和７年１２月１日札幌市白石区東札幌五条二丁目４番３０号株式会社アインファーマシーズ（7430001069398）に合併し解散,2015-10-05,1,,,,,ピーエムシー,0
1174,4500001018367,登記記録の閉鎖等,0,2025-12-05,2025-12-03,ＷＯＮＤＥＲ　ＣＲＥＡＴＥＳ株式会社,,株式会社,愛媛県,伊予郡砥部町,宮内１４０４番地１Ｓステージ２Ｆ,,38,402,7912120,,,2025-12-03,清算の結了等,,,2015-10-05,1,,,,,ワンダークリエイツ,0
1180,5010001129683,登記記録の閉鎖等,0,2025-12-05,2025-12-01,株式会社尚友堂,,株式会社,東京都,荒川区,南千住３丁目４０番１０－１４０９号,,13,118,1160003,,,2025-12-01,清算の結了等,,,2015-10-05,1,,,,,ショウユウドウ,0
1207,5010401017174,登記記録の閉鎖等,0,2025-12-05,2025-11-12,株式会社ダンシングハート,,株式会社,東京都,渋谷区,神宮前４丁目２番１６号,,13,113,1500001,,,2025-11-12,清算の結了等,,,2015-10-05,1,,,,,ダンシングハート,0
1210,5010401090196,登記記録の閉鎖等,0,2025-12-05,2025-11-12,デザイン・ダイレクト・トウキョウ合同会社,,合同会社,東京都,渋谷区,恵比寿４丁目２０番３号恵比寿ガーデンプレイスタワー２５階,,13,113,1500013,,,2025-11-12,合併による解散等,2011003002955,令和７年１１月１日東京都渋谷区恵比寿四丁目２０番３号恵比寿ガーデンプレイスタワー２５階ＶＭＬ＆Ｏｇｉｌｖｙ　Ｊａｐａｎ合同会社（2011003002955）に合併し解散,2015-10-05,1,,,,,デザインダイレクトトウキョウ,0
1232,5010901037077,登記記録の閉鎖等,0,2025-12-05,2025-12-01,エーティーコリンズ株式会社,,株式会社,東京都,杉並区,久我山３丁目４３番１３号,,13,115,1680082,,,2025-12-01,合併による解散等,9011301015875,令和７年１２月１日東京都杉並区久我山三丁目４３番１３号株式会社ワンダーランド（9011301015875）に合併し解散,2015-11-13,1,,,,,エーティーコリンズ,0
1236,5011001132017,登記記録の閉鎖等,0,2025-12-05,2025-11-11,株式会社Ｂｅｌｌａ　Ｎｏｎｎａ,,株式会社,東京都,渋谷区,円山町５番５号Ｎａｖｉ渋谷Ｖ３階,00118816,13,113,1500044,,,2025-11-11,清算の結了等,,,2020-01-27,1,,,,,ベッラノンナ,0
1245,5011101074381,登記記録の閉鎖等,0,2025-12-05,2025-12-02,ニックブルー株式会社,,株式会社,山梨県,北杜市,高根町清里３５４５番地６５２６,,19,209,4070301,,,2025-12-02,合併による解散等,1020001149973,令和７年１０月２日東京都新宿区西新宿二丁目６番１号マイクロジェット株式会社（1020001149973）に合併し解散,2015-10-05,1,,,,,ニックブルー,0
1272,5012402008334,登記記録の閉鎖等,0,2025-12-05,2025-12-04,有限会社東海リニューアル,,有限会社,東京都,狛江市,西野川２丁目２９番３号,,13,219,2010001,,,2025-12-04,清算の結了等,,,2015-10-05,1,,,,,トウカイリニューアル,0
1286,5020001073476,登記記録の閉鎖等,0,2025-12-05,2025-12-03,株式会社田辺エンタープライズ,,株式会社,神奈川県,川崎市川崎区,中島２丁目１１番２号,,14,131,2100806,,,2025-12-03,清算の結了等,,,2015-10-05,1,,,,,タナベエンタープライズ,0
1342,5060002030506,登記記録の閉鎖等,0,2025-12-05,2025-12-03,有限会社山定,,有限会社,栃木県,下野市,祇園１丁目２１番１１,00024703,09,216,3290434,,,2025-12-03,清算の結了等,,,2015-10-05,1,,,,,ヤマサダ,0
1344,5060003002636,登記記録の閉鎖等,0,2025-12-05,2025-12-03,荒明クリエイティブ鋼業合同会社,,合同会社,栃木県,栃木市,薗部町１丁目１３番５号,,09,203,3280074,,,2025-12-03,清算の結了等,,,2017-08-18,1,,,,,アラアケクリエイティブコウギョウ,0
1353,5080401000768,登記記録の閉鎖等,0,2025-12-05,2025-11-26,ＡＰＰ・ＡｓｉａＰａｃｉｆｉｃ株式会社,,株式会社,静岡県,磐田市,下野部２０２９番地の２,,22,211,4380112,,,2025-11-26,清算の結了等,,,2015-10-05,1,,,,,エーピーピーアジアパシフィック,0
1359,5090001006446,登記記録の閉鎖等,0,2025-12-05,2025-12-02,株式会社飯田油店,,株式会社,山梨県,笛吹市,八代町南８７９番地７,,19,211,4060822,,,2025-12-02,清算の結了等,,,2015-10-05,1,,,,,イイダアブラテン,0
1364,5100002014256,登記記録の閉鎖等,0,2025-12-05,2025-12-02,有限会社スター電子,,有限会社,長野県,上田市,蒼久保１０５６番地の２９,,20,203,3860155,,,2025-12-02,清算の結了等,,,2015-10-05,1,,,,,スターデンシ,0
1369,5110002021409,登記記録の閉鎖等,0,2025-12-05,2025-12-02,有限会社石田急送,,有限会社,新潟県,村上市,宿田２２５番２８,,15,212,9593435,,,2025-12-02,清算の結了等,,,2015-10-05,1,,,,,イシダキュウソウ,0
1371,5120001148061,登記記録の閉鎖等,0,2025-12-05,2025-12-02,千成株式会社,,株式会社,大阪府,寝屋川市,点野３丁目３８番２７号,,27,215,5720077,,,2025-12-02,清算の結了等,,,2015-10-05,1,,,,,センナリ,0
1389,5120101001863,登記記録の閉鎖等,0,2025-12-05,2025-11-28,喜多印刷株式会社,,株式会社,大阪府,堺市堺区,老松町３丁７３番地４,,27,141,5900824,,,2025-11-28,清算の結了等,,,2015-10-05,1,,,,,キタインサツ,0
1398,5122001004756,登記記録の閉鎖等,0,2025-12-05,2025-11-27,タックシステム株式会社,,株式会社,大阪府,東大阪市,中石切町５丁目１２番２５号,,27,227,5798014,,,2025-11-27,清算の結了等,,,2015-10-05,1,,,,,タックシステム,0
1412,5140001032874,登記記録の閉鎖等,0,2025-12-05,2025-12-02,株式会社Ｓ．Ｒ．Ｋ,,株式会社,兵庫県,芦屋市,親王塚町９番１２号,,28,206,6590016,,,2025-12-02,清算の結了等,,,2015-10-05,1,,,,,エスアールケー,0
1427,5180001082239,登記記録の閉鎖等,0,2025-12-05,2025-10-14,株式会社エスコ,,株式会社,愛知県,一宮市,浅井町尾関字北田３５番地,,23,203,4910101,,,2025-10-14,合併による解散等,1180001059868,令和７年１０月１日名古屋市南区豊三丁目２７番１９号こうようサポート株式会社（1180001059868）に合併し解散,2015-10-05,1,,,,,エスコ,0
1440,5180002090835,登記記録の閉鎖等,0,2025-12-05,2025-11-28,有限会社しょうぶ会,,有限会社,愛知県,海部郡蟹江町,大字須成字敵目１５８０番地２,,23,425,4970031,,,2025-11-28,清算の結了等,,,2015-10-05,1,,,,,ショウブカイ,0
1441,5180003025864,登記記録の閉鎖等,0,2025-12-05,2025-12-02,合同会社Ｌ＆Ｓ,,合同会社,愛知県,名古屋市東区,泉３丁目１４番１２号アーデン泉プレミア２０４号,,23,102,4610001,,,2025-12-02,清算の結了等,,,2023-10-17,1,,,,,エルアンドエス,0
1448,5180303006309,登記記録の閉鎖等,0,2025-12-05,2025-12-02,合同会社ブーケ,,合同会社,愛知県,田原市,豊島町釜鋳硲８７番地７,,23,231,4413417,,,2025-12-02,清算の結了等,,,2024-10-21,1,,,,,,0
1451,5200002006235,登記記録の閉鎖等,0,2025-12-05,2025-12-01,有限会社すずらん福祉サービス,,有限会社,岐阜県,岐阜市,上川手３８２番地２,,21,201,5008245,,,2025-12-01,清算の結了等,,,2015-10-05,1,,,,,スズランフクシサービス,0
1454,5210001002705,登記記録の閉鎖等,0,2025-12-05,2025-12-01,株式会社八田工務店,,株式会社,福井県,福井市,羽坂町第９号２番地の１,,18,201,9188075,,,2025-12-01,清算の結了等,,,2015-10-05,1,,,,,ハッタコウムテン,0
1464,5250005007473,登記記録の閉鎖等,0,2025-12-05,2025-12-02,一般財団法人新南陽地区漁業振興基金,,その他の設立登記法人,山口県,周南市,築港町１１番１７号,,35,215,7450025,,,2025-12-02,合併による解散等,3250005007475,令和７年１２月１日山口県周南市築港町１１番１７号一般財団法人徳山地区漁業振興基金（3250005007475）に合併し解散,2015-10-05,1,,,,,シンナンヨウチクギョギョウシンコウキキン,0
1469,5280002010659,登記記録の閉鎖等,0,2025-12-05,2025-12-01,有限会社六日市フード光長,,有限会社,島根県,鹿足郡吉賀町,六日市４２６番地１,,32,505,6995513,,,2025-12-01,清算の結了等,,,2015-10-05,1,,,,,ムイカイチフードミツナガ,0
1471,5290001031374,登記記録の閉鎖等,0,2025-12-05,2025-11-28,株式会社コーセーアセットプラン,,株式会社,福岡県,福岡市中央区,舞鶴２丁目２番１１号,,40,133,8100073,,,2025-11-28,清算の結了等,,,2015-10-05,1,,,,,コーセーアセットプラン,0
1500,5400001003898,登記記録の閉鎖等,0,2025-12-05,2025-11-27,株式会社八重畑製材所,,株式会社,岩手県,紫波郡紫波町,北日詰字八反田２７番地,,03,321,0283309,,,2025-11-27,清算の結了等,,,2015-10-05,1,,,,,ヤエハタセイザイショ,0
1503,5430001017037,登記記録の閉鎖等,0,2025-12-05,2025-12-01,株式会社森岡建設興業,,株式会社,北海道,札幌市豊平区,月寒東四条１６丁目４番２５号,,01,105,0620054,,,2025-12-01,清算の結了等,,,2015-10-05,1,,,,,モリオカケンセツコウギョウ,0
1505,5430001049179,登記記録の閉鎖等,0,2025-12-05,2025-12-01,株式会社ケーエイチフーズ,,株式会社,北海道,札幌市中央区,大通西１丁目１５番３号,,01,101,0600042,,,2025-12-01,合併による解散等,5430002042141,令和７年１２月１日札幌市中央区大通西一丁目１５番３号株式会社二十三（5430002042141）に合併し解散,2015-10-05,1,,,,,ケーエイチフーズ,0
1558,6010602023986,登記記録の閉鎖等,0,2025-12-05,2025-12-02,有限会社片桐工業,,有限会社,東京都,江東区,亀戸９丁目３７番４号,,13,108,1360071,,,2025-12-02,清算の結了等,,,2015-10-05,1,,,,,カタギリコウギョウ,0
1569,6011001042470,登記記録の閉鎖等,0,2025-12-05,2025-11-12,ベイツアジアジャパン合同会社,,合同会社,東京都,渋谷区,恵比寿４丁目２０番３号恵比寿ガーデンプレイス・タワー,,13,113,1500013,,,2025-11-12,合併による解散等,2011003002955,令和７年１１月１日東京都渋谷区恵比寿四丁目２０番３号恵比寿ガーデンプレイスタワー２５階ＶＭＬ＆Ｏｇｉｌｖｙ　Ｊａｐａｎ合同会社（2011003002955）に合併し解散,2015-10-05,1,Bates Asia Japan GK,Tokyo,"Yebisu Garden Place Tower, 20-3, Ebisu 4-chome, Shibuya-ku",,ベイツアジアジャパン,0
1570,6011001046587,登記記録の閉鎖等,0,2025-12-05,2025-11-12,オグルヴィ・パブリック・リレーションズ・ワールドワイド・ジャパン株式会社,,株式会社,東京都,渋谷区,恵比寿４丁目２０番３号恵比寿ガーデンプレイスタワー２５階,,13,113,1500013,,,2025-11-12,合併による解散等,2011003002955,令和７年１１月１日東京都渋谷区恵比寿四丁目２０番３号恵比寿ガーデンプレイスタワー２５階ＶＭＬ＆Ｏｇｉｌｖｙ　Ｊａｐａｎ合同会社（2011003002955）に合併し解散,2015-10-05,1,Ogilvy Public Relations Worldwide  (Japan) K.K.,Tokyo,"25th Floor, Yebisu Garden Place Tower, 20-3, Ebisu 4-chome, Shibuya-ku",,オグルヴィパブリックリレーションズワールドワイドジャパン,0
1595,6011305002781,登記記録の閉鎖等,0,2025-12-05,2025-12-02,行政書士法人不動産法務研究所,,その他の設立登記法人,東京都,杉並区,堀ノ内３丁目４９番３－２０３号,,13,115,1660013,,,2025-12-02,清算の結了等,,,2021-10-05,1,,,,,フドウサンホウムケンキュウジョ,0
1614,6013301043413,登記記録の閉鎖等,0,2025-12-05,2025-11-27,日本ロジファクトリー株式会社,,株式会社,東京都,豊島区,東池袋３丁目１番１号サンシャイン６０－４５階,,13,116,1700013,,,2025-11-27,清算の結了等,,,2019-02-07,1,,,,,ニホンロジファクトリー,0
1617,6020001014818,登記記録の閉鎖等,0,2025-12-05,2025-12-01,株式会社小竹鉄工所,,株式会社,神奈川県,横浜市中区,住吉町２丁目２１番地１,,14,104,2310013,,,2025-12-01,清算の結了等,,,2015-10-05,1,,,,,コタケテッコウショ,0
1618,6020001034147,登記記録の閉鎖等,0,2025-12-05,2025-12-02,株式会社木の実,,株式会社,神奈川県,横浜市港北区,綱島西２丁目７番１８号,,14,109,2230053,,,2025-12-02,清算の結了等,,,2015-10-05,1,,,,,コノミ,0
1619,6020001040525,登記記録の閉鎖等,0,2025-12-05,2025-12-01,株式会社プログレス,,株式会社,神奈川県,横浜市港北区,綱島西２丁目５番１３号,,14,109,2230053,,,2025-12-01,清算の結了等,,,2015-10-05,1,,,,,プログレス,0
1628,6020002030392,登記記録の閉鎖等,0,2025-12-05,2025-11-26,有限会社鈴新商店,,有限会社,神奈川県,横浜市南区,堀ノ内町２丁目２３２番地４８,,14,105,2320042,,,2025-11-26,清算の結了等,,,2015-10-05,1,,,,,スズシンショウテン,0
1629,6020002055324,登記記録の閉鎖等,0,2025-12-05,2025-11-27,有限会社タカ不動産企画,,有限会社,神奈川県,横浜市鶴見区,下末吉２丁目６番１３号,,14,101,2300012,,,2025-11-27,合併による解散等,4020001017112,令和７年１１月２７日横浜市鶴見区下末吉二丁目６番１３号協和木材産業株式会社（4020001017112）に合併し解散,2015-10-05,1,,,,,タカフドウサンキカク,0
1630,6020003015979,登記記録の閉鎖等,0,2025-12-05,2025-12-02,合同会社ストーン,,合同会社,神奈川県,横浜市港北区,大豆戸町５３５番地５,,14,109,2220032,,,2025-12-02,合併による解散等,5010403020754,令和７年１１月１日東京都港区浜松町二丁目２番１５号合同会社千葉エステート（5010403020754）に合併し解散,2019-04-26,1,,,,,ストーン,0
1637,6021002071798,登記記録の閉鎖等,0,2025-12-05,2025-11-14,有限会社まがりや,,有限会社,神奈川県,三浦市,南下浦町金田２８１番地の３,,14,210,2380103,,,2025-11-14,清算の結了等,,,2015-10-05,1,,,,,マガリヤ,0
1665,6050001035076,登記記録の閉鎖等,0,2025-12-05,2025-11-28,株式会社常陸太田鋸目立加工所,,株式会社,茨城県,常陸太田市,高柿町６５番地,,08,212,3130113,,,2025-11-28,清算の結了等,,,2015-10-05,1,,,,,ヒタチオオタノコメダテカコウジョ,0
1666,6050001038467,登記記録の閉鎖等,0,2025-12-05,2025-11-28,株式会社大峰,,株式会社,茨城県,水戸市,酒門町４３９３番地８,,08,201,3100841,,,2025-11-28,清算の結了等,,,2015-10-05,1,,,,,タイホウ,0
1675,6060001021819,登記記録の閉鎖等,0,2025-12-05,2025-12-02,トチプラ産業株式会社,,株式会社,栃木県,宇都宮市,峰４丁目５番１３号,,09,201,3210942,,,2025-12-02,清算の結了等,,,2015-10-05,1,,,,,トチプラサンギョウ,0
1685,6120001023404,登記記録の閉鎖等,0,2025-12-05,2025-11-04,サクラ軽金属株式会社,,株式会社,大阪府,大阪市天王寺区,舟橋町１８番３号,,27,109,5430024,,,2025-11-04,清算の結了等,,,2015-10-05,1,,,,,サクラケイキンゾク,0
1698,6120001263529,登記記録の閉鎖等,0,2025-12-05,2025-12-03,株式会社Ｔスタッフ,,株式会社,大阪府,大阪市中央区,大手前１丁目７番３１号,,27,128,5400008,,,2025-12-03,清算の結了等,,,2024-03-28,1,,,,,ティースタッフ,0
1728,6140001104243,登記記録の閉鎖等,0,2025-12-05,2025-12-03,コトラ株式会社,,株式会社,兵庫県,姫路市,亀山１丁目２２８－１,,28,201,6700973,,,2025-12-03,清算の結了等,,,2016-12-06,1,,,,,,0
1757,6190002010452,登記記録の閉鎖等,0,2025-12-05,2025-12-01,有限会社鍛冶佶鉄工所,,有限会社,三重県,鳥羽市,相差町１２７４番地１,,24,211,5170032,,,2025-12-01,清算の結了等,,,2015-10-05,1,,,,,カジヨシテッコウショ,0
1758,6190002018982,登記記録の閉鎖等,0,2025-12-05,2025-11-25,有限会社愛和電機,,有限会社,三重県,四日市市,曽井町６１８番地２,,24,202,5120922,,,2025-11-25,清算の結了等,,,2015-10-05,1,,,,,,0
1776,6240002026807,登記記録の閉鎖等,0,2025-12-05,2025-12-01,有限会社ヒラノアルミ工業,,有限会社,広島県,広島市安佐北区,可部町大字桐原１４８１番地７,,34,106,7310214,,,2025-12-01,清算の結了等,,,2015-10-05,1,,,,,ヒラノアルミコウギョウ,0
1782,6290001064002,登記記録の閉鎖等,0,2025-12-05,2025-11-28,株式会社山の神工房,,株式会社,福岡県,八女市,立花町下辺春１３１２番地１,,40,210,8340073,,,2025-11-28,清算の結了等,,,2015-10-05,1,,,,,ヤマノカミコウボウ,0
1794,6320002021287,登記記録の閉鎖等,0,2025-12-05,2025-12-01,有限会社ワイショップ山手,,有限会社,大分県,中津市,大字島田５９番地,,44,203,8710033,,,2025-12-01,清算の結了等,,,2015-10-05,1,,,,,ワイショップヤマテ,0
1798,6330002004126,登記記録の閉鎖等,0,2025-12-05,2025-12-01,有限会社コヒラ,,有限会社,熊本県,熊本市東区,小山６丁目１番５号,,43,102,8618045,,,2025-12-01,清算の結了等,,,2015-10-05,1,,,,,コヒラ,0
1802,6340002024684,登記記録の閉鎖等,0,2025-12-05,2025-12-01,有限会社吉永園,,有限会社,鹿児島県,南九州市,頴娃町郡６１９９番地３,,46,223,8910701,,,2025-12-01,清算の結了等,,,2015-10-05,1,,,,,ヨシナガエン,0
1803,6350002018512,登記記録の閉鎖等,0,2025-12-05,2025-12-01,有限会社松形養鶏,,有限会社,宮崎県,えびの市,大字東長江浦１６７６番地７９０,,45,209,8894231,,,2025-12-01,清算の結了等,,,2015-10-05,1,,,,,マツカタヨウケイ,0
1806,6360002012745,登記記録の閉鎖等,0,2025-12-05,2025-12-02,有限会社リッカ,,有限会社,沖縄県,沖縄市,古謝１丁目２４番２１号,,47,211,9042161,,,2025-12-02,清算の結了等,,,2015-10-05,1,,,,,リッカ,0
1807,6360003005070,登記記録の閉鎖等,0,2025-12-05,2025-11-28,合資会社リデル,,合資会社,沖縄県,石垣市,字登野城６２４番地の３,,47,207,9070004,,,2025-11-28,清算の結了等,,,2015-10-05,1,,,,,リデル,0
1841,6450002010608,登記記録の閉鎖等,0,2025-12-05,2025-12-02,有限会社丸正清水商店,,有限会社,北海道,枝幸郡枝幸町,歌登西町１２１番地,,01,514,0985206,,,2025-12-02,清算の結了等,,,2015-10-05,1,,,,,マルショウシミズショウテン,0
1843,6460005001454,登記記録の閉鎖等,0,2025-12-05,2025-12-02,一般社団法人レーヴ,,その他の設立登記法人,北海道,釧路市,千歳町１番３０号,,01,206,0850825,,,2025-12-02,清算の結了等,,,2015-10-05,1,,,,,レーヴ,0
1854,7010001037199,登記記録の閉鎖等,0,2025-12-05,2025-11-21,株式会社インター,,株式会社,東京都,中央区,日本橋人形町１丁目５番５号,,13,102,1030013,,,2025-11-21,清算の結了等,,,2015-10-05,1,,,,,インター,0
1858,7010001189643,登記記録の閉鎖等,0,2025-12-05,2025-11-21,株式会社ＦＬＩＰ第２０５号,,株式会社,東京都,千代田区,丸の内２丁目７番２号,,13,101,1000005,,,2025-11-21,清算の結了等,,,2018-02-16,1,,,,,エフエルアイピーダイニヒャクゴゴウ,0
1867,7010005021752,登記記録の閉鎖等,0,2025-12-05,2025-12-03,一般社団法人ワゲン医療・福祉グループ,,その他の設立登記法人,東京都,千代田区,麹町３丁目５番２号,,13,101,1020083,,,2025-12-03,清算の結了等,,,2015-10-05,1,,,,,ワゲンイリョウフクシグループ,0
1881,7010503005208,登記記録の閉鎖等,0,2025-12-05,2025-12-01,Ｔｈｏｕｇｈｔ－ＦＡＣＴＯＲＹ合同会社,,合同会社,東京都,台東区,浅草６丁目４０番１３号,,13,106,1110032,,,2025-12-01,清算の結了等,,,2018-02-05,1,,,,,ソートファクトリー,0
1887,7010701038389,登記記録の閉鎖等,0,2025-12-05,2025-12-01,株式会社Ｍｉｒｅｙ,,株式会社,東京都,品川区,上大崎４丁目３番６号同潤社ビル３０２,,13,109,1410021,,,2025-12-01,清算の結了等,,,2019-10-30,1,,,,,ミレイ,0
1918,7012801009872,登記記録の閉鎖等,0,2025-12-05,2025-12-03,エンプラン株式会社,,株式会社,東京都,昭島市,拝島町２丁目２番１７号,,13,207,1960002,,,2025-12-03,清算の結了等,,,2015-10-05,1,,,,,エンプラン,0
1974,7030003021653,登記記録の閉鎖等,0,2025-12-05,2025-11-19,合同会社芸能説経節れいわ組,,合同会社,埼玉県,川口市,桜町３丁目１８番３号,,11,203,3340001,,,2025-11-19,清算の結了等,,,2023-05-01,1,,,,,ゲイノウセッキョウブシレイワグミ,0
1986,7040002060461,登記記録の閉鎖等,0,2025-12-05,2025-11-10,有限会社大里造園土木,,有限会社,千葉県,佐倉市,飯塚５３番地１,,12,212,2850076,,,2025-11-10,清算の結了等,,,2015-10-05,1,,,,,オオサトゾウエンドボク,0
1992,7060002034488,登記記録の閉鎖等,0,2025-12-05,2025-12-02,有限会社長島寝具店,,有限会社,栃木県,下都賀郡壬生町,通町５番３０号,,09,361,3210227,,,2025-12-02,清算の結了等,,,2015-10-05,1,,,,,ナガシマシングテン,0
1993,7060005007581,登記記録の閉鎖等,0,2025-12-05,2025-12-03,一般社団法人栃木県労働者福祉センター,,その他の設立登記法人,栃木県,宇都宮市,上戸祭町４５５番地１,,09,201,3200051,,,2025-12-03,清算の結了等,,,2015-10-05,1,,,,,トチギケンロウドウシャフクシセンター,0
1998,7080105005624,登記記録の閉鎖等,0,2025-12-05,2025-12-03,社会保険労務士法人佐野貴盛事務所,,その他の設立登記法人,静岡県,富士市,今泉２０９１番地の４,,22,210,4170001,,,2025-12-03,清算の結了等,,,2016-04-13,1,,,,,サノタカモリジムショ,0
2003,7080405005258,登記記録の閉鎖等,0,2025-12-05,2025-11-25,天龍社綿スフ織物構造改善工業組合,,その他の設立登記法人,静岡県,磐田市,福田中島２２６番地の４,,22,211,4371204,,,2025-11-25,清算の結了等,,,2015-10-05,1,,,,,テンリュウシャメンスフオリモノコウゾウカイゼン,0
2031,7122001021790,登記記録の閉鎖等,0,2025-12-05,2025-11-27,株式会社ヨシトシ,,株式会社,大阪府,八尾市,福万寺町南４丁目１番地の２６,,27,212,5810843,,,2025-11-27,清算の結了等,,,2015-10-05,1,,,,,ヨシトシ,0
2072,7180002001369,登記記録の閉鎖等,0,2025-12-05,2025-12-01,有限会社藤原業務店,,有限会社,愛知県,名古屋市守山区,瀬古３丁目１４４０番地,,23,113,4630068,,,2025-12-01,清算の結了等,,,2015-10-05,1,,,,,フジワラギョウムテン,0
2087,7200002013329,登記記録の閉鎖等,0,2025-12-05,2025-12-03,有限会社和光,,有限会社,岐阜県,大垣市,池尻町１３１５番地,,21,202,5032204,,,2025-12-03,清算の結了等,,,2015-10-05,1,,,,,ワコウ,0
2090,7210001000203,登記記録の閉鎖等,0,2025-12-05,2025-12-02,株式会社宇野製作所,,株式会社,福井県,福井市,若栄町３２５番地,,18,201,9100831,,,2025-12-02,清算の結了等,,,2015-10-05,1,,,,,ウノセイサクショ,0
2097,7240001061515,登記記録の閉鎖等,0,2025-12-05,2025-12-01,株式会社ヒトシオ,,株式会社,広島県,広島市中区,国泰寺町１丁目９番２７－３０８号,,34,101,7300042,,,2025-12-01,合併による解散等,1240001026119,令和７年１２月１日広島市中区橋本町５番１６－１００１号株式会社タダホールディングス（1240001026119）に合併し解散,2023-05-15,1,,,,,ヒトシオ,0
2111,7290001074066,登記記録の閉鎖等,0,2025-12-05,2025-11-11,ＬＵＣＴヒューマンサービス株式会社,,株式会社,福岡県,福岡市南区,老司３丁目４２番３号,,40,134,8111346,,,2025-11-11,清算の結了等,,,2016-05-27,1,,,,,エルユーシーティーヒューマンサービス,0
2115,7290003011694,登記記録の閉鎖等,0,2025-12-05,2025-11-11,ＲａｙＺｅｎアドバイザリー合同会社,,合同会社,福岡県,福岡市中央区,天神１丁目９番１７号１５階,,40,133,8100001,,,2025-11-11,清算の結了等,,,2021-10-15,1,,,,,レイゼンアドバイザリー,0
2119,7290005017376,登記記録の閉鎖等,0,2025-12-05,2025-11-17,一般社団法人幼児英語保育教育支援協会,,その他の設立登記法人,福岡県,福岡市東区,多の津４丁目１９番１７号,,40,131,8130034,,,2025-11-17,清算の結了等,,,2019-07-22,1,,,,,ヨウジエイゴホイクキョウイクシエンキョウカイ,0
2120,7290005018580,登記記録の閉鎖等,0,2025-12-05,2025-11-18,一般社団法人九州沖縄グリーンプロジェクト,,その他の設立登記法人,福岡県,八女市,星野村１４２４０番地,,40,210,8340201,,,2025-11-18,清算の結了等,,,2022-02-28,1,,,,,キュウシュウオキナワグリーンプロジェクト,0
2123,7290802022660,登記記録の閉鎖等,0,2025-12-05,2025-12-02,行橋開発有限会社,,有限会社,福岡県,行橋市,西宮市１丁目８番７号,,40,213,8240031,,,2025-12-02,清算の結了等,,,2015-10-05,1,,,,,ユクハシカイハツ,0
2125,7310005007564,登記記録の閉鎖等,0,2025-12-05,2025-12-03,特定非営利活動法人九州環境測定協会,,その他の設立登記法人,長崎県,南島原市,北有馬町乙４１８８番地,,42,214,8592302,,,2025-12-03,清算の結了等,,,2015-10-05,1,,,,,キュウシュウカンキョウソクテイキョウカイ,0
2126,7330001022020,登記記録の閉鎖等,0,2025-12-05,2025-12-01,株式会社きもとの蔵,,株式会社,熊本県,八代市,千反町２丁目１８号５番地,,43,202,8660053,,,2025-12-01,清算の結了等,,,2015-10-05,1,,,,,キモトノクラ,0
2147,7400602001605,登記記録の閉鎖等,0,2025-12-05,2025-11-28,有限会社コンサルティングオフィス,,有限会社,岩手県,奥州市,前沢あすか通３丁目３番地３,,03,215,0294209,,,2025-11-28,清算の結了等,,,2015-10-05,1,,,,,コンサルティングオフィス,0
2150,7420001011732,登記記録の閉鎖等,0,2025-12-05,2025-11-25,二北運送株式会社,,株式会社,青森県,上北郡東北町,字柳沢５９番地２４,,02,408,0392665,,,2025-11-25,清算の結了等,,,2015-10-05,1,,,,,ニホクウンソウ,0
2154,7490001002097,登記記録の閉鎖等,0,2025-12-05,2025-12-03,ヤマサ物流株式会社,,株式会社,高知県,高知市,五台山４９９４番地,,39,201,7818125,,,2025-12-03,清算の結了等,,,2015-10-05,1,,,,,ヤマサブツリュウ,0
2159,8010001047255,登記記録の閉鎖等,0,2025-12-05,2025-12-02,株式会社尋源,,株式会社,東京都,中央区,日本橋２丁目１６番８号,,13,102,1030027,,,2025-12-02,合併による解散等,5180001079433,令和７年１１月１日愛知県尾張旭市東栄町四丁目８番地の１旭千代田工業株式会社（5180001079433）に合併し解散,2015-10-05,1,,,,,ジンゲン,0
2177,8010003039779,登記記録の閉鎖等,0,2025-12-05,2025-11-20,合同会社Ｃｒｙｐｔｏ　Ｆｕｎｄ２号,,合同会社,東京都,中央区,日本橋兜町５番１号兜町第１平和ビル７階,,13,102,1030026,,,2025-11-20,清算の結了等,,,2023-02-07,1,,,,,クリプトファンドニゴウ,0
2178,8010003040332,登記記録の閉鎖等,0,2025-12-05,2025-11-28,Ｓ　ＦＲＯＮＴＩＥＲ合同会社,,合同会社,東京都,葛飾区,堀切２丁目２－９,,13,122,1240006,,,2025-11-28,清算の結了等,,,2023-04-14,1,,,,,エスフロンティア,0
2184,8010101001814,登記記録の閉鎖等,0,2025-12-05,2025-12-02,株式会社ジョルソン八王子,,株式会社,東京都,八王子市,千人町４丁目１１番１１号,,13,201,1930835,,,2025-12-02,清算の結了等,,,2015-10-05,1,,,,,ジョルソンハチオウジ,0
2212,8011001106050,登記記録の閉鎖等,0,2025-12-05,2025-11-28,トランスコスモスアメリカ株式会社,,株式会社,東京都,豊島区,東池袋３丁目１番１号,,13,116,1700013,,,2025-11-28,清算の結了等,,,2015-10-05,1,,,,,トランスコスモスアメリカ,0
2228,8011103010084,登記記録の閉鎖等,0,2025-12-05,2025-12-03,Ｂｉｓｈ株式会社,,株式会社,東京都,港区,芝３丁目１５番１４号ヒキタカ芝公園ビル９Ｆ,,13,103,1050014,,,2025-12-03,合併による解散等,8010001237475,令和７年１０月３１日東京都渋谷区代々木二丁目１番１号新宿マインズタワー８Ｆ株式会社ＯＭＯＴ（8010001237475）に合併し解散,2020-10-14,1,,,,,ビッシュ,0
2235,8011305000429,登記記録の閉鎖等,0,2025-12-05,2025-11-21,日蓮宗龍王教会,00054621,その他の設立登記法人,東京都,杉並区,和田３丁目１７番１号,,13,115,1660012,,,2025-11-21,清算の結了等,,,2015-10-05,1,,,,,ニチレンシュウリュウオウキョウカイ,0
2236,8011401013920,登記記録の閉鎖等,0,2025-12-05,2025-12-01,株式会社コンビネーション,,株式会社,東京都,杉並区,下高井戸２丁目１０番３－１３１５号,,13,115,1680073,,,2025-12-01,清算の結了等,,,2015-10-05,1,,,,,コンビネーション,0
2255,8020001141809,登記記録の閉鎖等,0,2025-12-05,2025-12-01,株式会社フィアレス,,株式会社,神奈川県,横浜市西区,高島２丁目１１番２号スカイメナー横浜５１９,,14,103,2200011,,,2025-12-01,清算の結了等,,,2021-06-21,1,,,,,フィアレス,0
2256,8020001150974,登記記録の閉鎖等,0,2025-12-05,2025-12-03,要ホーム株式会社,,株式会社,神奈川県,川崎市幸区,鹿島田１丁目１６番２６号,,14,132,2120058,,,2025-12-03,清算の結了等,,,2023-04-05,1,,,,,カナメホーム,0
2265,8020003004971,登記記録の閉鎖等,0,2025-12-05,2025-12-03,合同会社エヌ・ソリューションズ,,合同会社,神奈川県,横浜市鶴見区,駒岡４丁目１０番１９号,,14,101,2300071,,,2025-12-03,清算の結了等,,,2015-10-05,1,,,,,エヌソリューションズ,0
2274,8030001073101,登記記録の閉鎖等,0,2025-12-05,2025-11-28,株式会社オリエンタル,,株式会社,埼玉県,川口市,青木２丁目５番８号,,11,203,3320031,,,2025-11-28,清算の結了等,,,2015-10-05,1,,,,,オリエンタル,0
2275,8030001086251,登記記録の閉鎖等,0,2025-12-05,2025-12-01,椿バス株式会社,,株式会社,埼玉県,深谷市,原郷２１５１番地３４,,11,218,3660035,,,2025-12-01,清算の結了等,,,2015-10-05,1,,,,,ツバキバス,0
2286,8040001053218,登記記録の閉鎖等,0,2025-12-05,2025-11-12,株式会社アリアドネ,,株式会社,千葉県,木更津市,羽鳥野３丁目１番地１２０,,12,206,2920819,,,2025-11-12,清算の結了等,,,2015-10-05,1,,,,,アリアドネ,0
2297,8060002001355,登記記録の閉鎖等,0,2025-12-05,2025-12-03,有限会社井上自動車工場,,有限会社,栃木県,宇都宮市,長岡町８５６番地８０,,09,201,3200004,,,2025-12-03,清算の結了等,,,2015-10-05,1,,,,,イノウエジドウシャコウジョウ,0
2306,8080002018026,登記記録の閉鎖等,0,2025-12-05,2025-12-01,有限会社増田建築工業,,有限会社,静岡県,藤枝市,花倉１１５４番地,,22,214,4260205,,,2025-12-01,清算の結了等,,,2015-10-05,1,,,,,マスダケンチクコウギョウ,0
2307,8080101013695,登記記録の閉鎖等,0,2025-12-05,2025-12-02,株式会社天呉商会,,株式会社,静岡県,伊東市,川奈１２２８番地の１５８,,22,208,4140044,,,2025-12-02,清算の結了等,,,2015-10-05,1,,,,,テンゴショウカイ,0
2316,8090001011096,登記記録の閉鎖等,0,2025-12-05,2025-12-01,株式会社三幸,,株式会社,山梨県,韮崎市,本町１丁目１０番５号,,19,207,4070024,,,2025-12-01,清算の結了等,,,2015-10-05,1,,,,,サンコウ,0
2320,8100001011020,登記記録の閉鎖等,0,2025-12-05,2025-12-02,株式会社信州特産物直売センター,,株式会社,長野県,上田市,西内２０５番地３,,20,203,3860322,,,2025-12-02,清算の結了等,,,2015-10-05,1,,,,,シンシュウトクサンブツチョクバイセンター,0
2321,8100001025680,登記記録の閉鎖等,0,2025-12-05,2025-12-02,株式会社のんのん,,株式会社,長野県,伊那市,美篶４１２８番地,,20,209,3960111,,,2025-12-02,清算の結了等,,,2015-10-05,1,,,,,ノンノン,0
2322,8100001026274,登記記録の閉鎖等,0,2025-12-05,2025-12-01,株式会社フォーラムワン,,株式会社,兵庫県,神戸市垂水区,星が丘１丁目４番６４－２号,,28,108,6550032,,,2025-12-01,清算の結了等,,,2015-10-05,1,,,,,フォーラムワン,0
2324,8100002015367,登記記録の閉鎖等,0,2025-12-05,2025-12-01,有限会社日本旅行企画,,有限会社,長野県,上田市,上田原４９１番地７,,20,203,3861102,,,2025-12-01,清算の結了等,,,2015-10-05,1,,,,,ニホンリョコウキカク,0
2329,8110002019499,登記記録の閉鎖等,0,2025-12-05,2025-12-02,有限会社松原金型,,有限会社,新潟県,燕市,吉田水道町４番９号,,15,213,9590234,,,2025-12-02,清算の結了等,,,2015-10-05,1,,,,,マツバラカナガタ,0
2355,8120901034614,登記記録の閉鎖等,0,2025-12-05,2025-11-19,Ｒｅｐｅｒｔｏｉｒｅ　Ｇｅｎｅｓｉｓ株式会社,,株式会社,東京都,中央区,日本橋本町３丁目１１番５号,,13,102,1030023,,,2025-11-19,清算の結了等,,,2015-10-05,1,,,,,レパトアジェネシス,0
2375,8170001006410,登記記録の閉鎖等,0,2025-12-05,2025-12-04,株式会社Ｔ＆Ｅ,,株式会社,和歌山県,和歌山市,新和歌浦３番４８号,,30,201,6410023,,,2025-12-04,清算の結了等,,,2015-10-05,1,,,,,ティーアンドイー,0
2383,8180001133716,登記記録の閉鎖等,0,2025-12-05,2025-12-01,清泉精密株式会社,,株式会社,愛知県,名古屋市千種区,徳川山町１丁目１０番２３号,,23,101,4640031,,,2025-12-01,清算の結了等,,,2018-09-19,1,,,,,セイセンセイミツ,0
2385,8180001160339,登記記録の閉鎖等,0,2025-12-05,2025-12-02,株式会社ＬＨＧ,,株式会社,愛知県,名古屋市中区,丸の内２丁目１６番４号チサンマンション丸の内第６・７０７号室,,23,106,4600002,,,2025-12-02,清算の結了等,,,2024-03-01,1,,,,,エルエイチジー,0
2390,8180301025274,登記記録の閉鎖等,0,2025-12-05,2025-12-01,株式会社トラ三,,株式会社,愛知県,碧南市,上町３丁目４５番地,,23,209,4470074,,,2025-12-01,清算の結了等,,,2015-10-05,1,,,,,トラサン,0
2392,8180302025975,登記記録の閉鎖等,0,2025-12-05,2025-12-01,エスピートラスト株式会社,,株式会社,愛知県,豊田市,駒場町小松脇２番地の１,,23,211,4730925,,,2025-12-01,清算の結了等,,,2015-10-05,1,,,,,エスピートラスト,0
2405,8240002024255,登記記録の閉鎖等,0,2025-12-05,2025-12-01,有限会社ケイアイテクノ,,有限会社,広島県,広島市安佐南区,長束６丁目１０番１６－３０５号,,34,105,7310135,,,2025-12-01,清算の結了等,,,2015-10-05,1,,,,,ケイアイテクノ,0
2424,8320002005346,登記記録の閉鎖等,0,2025-12-05,2025-12-02,ハイメック有限会社,,有限会社,大分県,大分市,乙津港町１丁目１番１５号,,44,201,8700146,,,2025-12-02,清算の結了等,,,2015-10-05,1,,,,,ハイメック,0
2429,8330002018702,登記記録の閉鎖等,0,2025-12-05,2025-12-01,有限会社富士ホテル,,有限会社,熊本県,山鹿市,昭和町５０６番地,,43,208,8610515,,,2025-12-01,合併による解散等,3330001000228,令和７年１２月１日熊本市南区幸田二丁目７番１号株式会社ＡＲＩＡＫＥ（3330001000228）に合併し解散,2015-10-05,1,,,,,フジホテル,0
2444,8380002005191,登記記録の閉鎖等,0,2025-12-05,2025-12-01,有限会社大橋総合事務所,,有限会社,福島県,伊達郡桑折町,大字成田字二本木３５番地,,07,301,9691652,,,2025-12-01,清算の結了等,,,2015-10-05,1,,,,,オオハシソウゴウジムショ,0
2446,8380005005643,登記記録の閉鎖等,0,2025-12-05,2025-12-01,医療法人泰成会,00084475,その他の設立登記法人,福島県,いわき市,四倉町字西三丁目１４番地の９,,07,204,9790201,,,2025-12-01,清算の結了等,,,2015-10-05,1,,,,,タイセイカイ,0
2448,8390002008623,登記記録の閉鎖等,0,2025-12-05,2025-12-02,有限会社ユーネット,,有限会社,山形県,酒田市,北里町３番１９号,,06,204,9980028,,,2025-12-02,清算の結了等,,,2015-10-05,1,,,,,,0
2460,8450001007041,登記記録の閉鎖等,0,2025-12-05,2025-12-01,株式会社Ｈａｉｒ　ｃｏｎｃｉｅｒｇｅ,,株式会社,北海道,旭川市,一条通３丁目２３番地１,,01,204,0700031,,,2025-12-01,清算の結了等,,,2015-10-05,1,,,,,ヘアーコンシェルジュ,0
2467,9010001179857,登記記録の閉鎖等,0,2025-12-05,2025-11-21,株式会社ＦＬＩＰ第１５９号,,株式会社,東京都,千代田区,丸の内２丁目７番２号,,13,101,1000005,,,2025-11-21,清算の結了等,,,2016-11-29,1,,,,,エフエルアイピーダイヒャクゴジュウキュウゴウ,0
2473,9010001224357,登記記録の閉鎖等,0,2025-12-05,2025-12-01,株式会社ランドプロデュース,,株式会社,東京都,江東区,豊洲１丁目２番２７号,,13,108,1350061,,,2025-12-01,清算の結了等,,,2022-02-07,1,,,,,ランドプロデュース,0
2481,9010003037294,登記記録の閉鎖等,0,2025-12-05,2025-11-21,合同会社オルタナ１２,,合同会社,東京都,千代田区,丸の内１丁目４番１号東京共同会計事務所内,,13,101,1000005,,,2025-11-21,清算の結了等,,,2022-03-22,1,,,,,オルタナトウェルブ,0
2482,9010003039778,登記記録の閉鎖等,0,2025-12-05,2025-11-20,合同会社Ｃｒｙｐｔｏ　Ｆｕｎｄ１号,,合同会社,東京都,中央区,日本橋兜町５番１号兜町第１平和ビル７階,,13,102,1030026,,,2025-11-20,清算の結了等,,,2023-02-07,1,,,,,クリプトファンドイチゴウ,0
2490,9010105002320,登記記録の閉鎖等,0,2025-12-05,2025-12-02,社会保険労務士法人だいち,,その他の設立登記法人,東京都,八王子市,元本郷町３丁目１５番７号,,13,201,1920051,,,2025-12-02,清算の結了等,,,2025-01-27,1,,,,,ダイチ,0
2491,9010401026188,登記記録の閉鎖等,0,2025-12-05,2025-11-10,株式会社ブレインズワーク・アソシエイツ,,株式会社,東京都,港区,赤坂４丁目５番１７号,,13,103,1070052,,,2025-11-10,清算の結了等,,,2015-10-05,1,,,,,ブレインズワークアソシエイツ,0
2492,9010401072967,登記記録の閉鎖等,0,2025-12-05,2025-11-11,株式会社アーチ,,株式会社,東京都,港区,北青山３丁目１５番１３号,,13,103,1070061,,,2025-11-11,清算の結了等,,,2015-10-05,1,,,,,アーチ,0
2511,9010701043164,登記記録の閉鎖等,0,2025-12-05,2025-12-01,株式会社Ｇｏｏｄ　Ｓｔａｎｃｅ,,株式会社,東京都,品川区,上大崎３丁目１４－３７ＪＥＳＣＯ目黒ビル５Ｆ,,13,109,1410021,,,2025-12-01,清算の結了等,,,2022-09-05,1,,,,,グッドスタンス,0
2512,9010805001282,登記記録の閉鎖等,0,2025-12-05,2025-11-12,特定非営利活動法人日本洞穴探検協会,,その他の設立登記法人,千葉県,千葉市稲毛区,小仲台２丁目６－１,,12,103,2630043,,,2025-11-12,清算の結了等,,,2015-10-05,1,,,,,ニホンドウケツタンケンキョウカイ,0
2539,9011301023663,登記記録の閉鎖等,0,2025-12-05,2025-12-01,永江フードリサーチ株式会社,,株式会社,東京都,杉並区,桃井３丁目６番１－７２７号,,13,115,1670034,,,2025-12-01,清算の結了等,,,2017-11-24,1,,,,,ナガエフードリサーチ,0
2542,9011402017548,登記記録の閉鎖等,0,2025-12-05,2025-12-04,有限会社トラベルウェーブ,,有限会社,東京都,武蔵野市,吉祥寺北町１丁目２６番１３号,,13,203,1800001,,,2025-12-04,清算の結了等,,,2015-10-05,1,,,,,トラベルウェーブ,0
2555,9013302002753,登記記録の閉鎖等,0,2025-12-05,2025-12-04,有限会社ケイアイプレス,,有限会社,東京都,豊島区,東池袋１丁目３６番７号,,13,116,1700013,,,2025-12-04,清算の結了等,,,2015-10-05,1,,,,,ケイアイプレス,0
2572,9030001039836,登記記録の閉鎖等,0,2025-12-05,2025-11-27,株式会社トレーラービレッジ,,株式会社,埼玉県,三郷市,彦倉２丁目３０番１号,,11,237,3410053,,,2025-11-27,清算の結了等,,,2015-10-05,1,,,,,トレーラービレッジ,0
2573,9030001057821,登記記録の閉鎖等,0,2025-12-05,2025-11-27,ケアフェイス株式会社,,株式会社,埼玉県,入間郡三芳町,大字北永井３７５番地６,,11,324,3540044,,,2025-11-27,清算の結了等,,,2015-10-05,1,,,,,ケアフェイス,0
2580,9030002022915,登記記録の閉鎖等,0,2025-12-05,2025-11-26,有限会社ラスティ,,有限会社,埼玉県,さいたま市北区,今羽町４７７－１７－１５－２０３,,11,102,3310801,,,2025-11-26,清算の結了等,,,2015-10-05,1,,,,,ラスティ,0
2582,9030002049818,登記記録の閉鎖等,0,2025-12-05,2025-12-01,有限会社マリエーヌ,,有限会社,埼玉県,三郷市,早稲田２丁目１８番地６森ビル２ー１０２号室,,11,237,3410018,,,2025-12-01,清算の結了等,,,2015-10-05,1,,,,,マリエーヌ,0
2589,9040001008864,登記記録の閉鎖等,0,2025-12-05,2025-11-11,株式会社草野商事,,株式会社,千葉県,千葉市緑区,古市場町４７４番地５６,,12,105,2660026,,,2025-11-11,清算の結了等,,,2015-10-05,1,,,,,,0
2592,9040001124918,登記記録の閉鎖等,0,2025-12-05,2025-11-10,株式会社高木,,株式会社,千葉県,市川市,新井３丁目２１番９号,,12,203,2720144,,,2025-11-10,清算の結了等,,,2022-09-07,1,,,,,タカギ,0
2605,9080102003942,登記記録の閉鎖等,0,2025-12-05,2025-11-27,有限会社ながしま,,有限会社,静岡県,沼津市,戸田６９番地の２,,22,203,4103402,,,2025-11-27,清算の結了等,,,2015-10-05,1,,,,,ナガシマ,0
2606,9080105001968,登記記録の閉鎖等,0,2025-12-05,2025-12-03,三島地区学校生活協同組合,,その他の設立登記法人,静岡県,三島市,西本町３番２２号,,22,206,4110847,,,2025-12-03,清算の結了等,,,2015-10-05,1,,,,,ミシマチクガッコウ,0
2607,9080401006175,登記記録の閉鎖等,0,2025-12-05,2025-11-25,株式会社望洋莊,,株式会社,静岡県,湖西市,鷲津２９３２番地,,22,221,4310431,,,2025-11-25,清算の結了等,,,2015-10-05,1,,,,,ボウヨウソウ,0
2617,9120001113904,登記記録の閉鎖等,0,2025-12-05,2025-12-02,アドプラン株式会社,,株式会社,大阪府,大阪市天王寺区,上汐３丁目２番１７号コモド上汐５Ｆ,,27,109,5430002,,,2025-12-02,清算の結了等,,,2015-10-05,1,,,,,アドプラン,0
2620,9120001142713,登記記録の閉鎖等,0,2025-12-05,2025-12-01,株式会社Ｆ＆Ｄサービス,,株式会社,大阪府,大阪市西区,江戸堀３丁目１番３１号,,27,106,5500002,,,2025-12-01,合併による解散等,2120001142711,令和７年１２月１日大阪市西区江戸堀三丁目１番３１号株式会社Ｒ＆Ｈ（2120001142711）に合併し解散,2015-10-05,1,,,,,エフアンドディサービス,0
2647,9140001082395,登記記録の閉鎖等,0,2025-12-05,2025-12-01,株式会社東部,,株式会社,兵庫県,宝塚市,大原野字同道１７番地１,,28,214,6691211,,,2025-12-01,清算の結了等,,,2015-10-05,1,,,,,トウブ,0
2652,9140002037266,登記記録の閉鎖等,0,2025-12-05,2025-12-01,野々村デンソー有限会社,,有限会社,兵庫県,高砂市,松陽１丁目５番２０号,,28,216,6760077,,,2025-12-01,清算の結了等,,,2015-10-05,1,,,,,ノノムラデンソー,0
2660,9180001096053,登記記録の閉鎖等,0,2025-12-05,2025-12-01,末吉設備工業株式会社,,株式会社,愛知県,名古屋市緑区,大高町字二番割５６,,23,114,4598001,,,2025-12-01,清算の結了等,,,2015-10-05,1,,,,,スエヨシセツビコウギョウ,0
2669,9180002069330,登記記録の閉鎖等,0,2025-12-05,2025-12-01,有限会社ソラリア,,有限会社,愛知県,小牧市,大字舟津１０３０番地,,23,219,4850073,,,2025-12-01,清算の結了等,,,2015-10-05,1,,,,,ソラリア,0
2670,9180002077416,登記記録の閉鎖等,0,2025-12-05,2025-12-03,有限会社フタバ工機,,有限会社,愛知県,一宮市,丹陽町伝法寺字筬塚１０６９番地,,23,203,4910822,,,2025-12-03,清算の結了等,,,2015-10-05,1,,,,,フタバコウキ,0
2671,9180002078356,登記記録の閉鎖等,0,2025-12-05,2025-12-01,有限会社舟橋保険サービス,,有限会社,愛知県,一宮市,開明字出屋敷６０番２,,23,203,4940001,,,2025-12-01,清算の結了等,,,2015-10-05,1,,,,,フナハシホケンサービス,0
2687,9230002011484,登記記録の閉鎖等,0,2025-12-05,2025-12-02,有限会社たかみや毛糸店,,有限会社,富山県,高岡市,御旅屋町１１０７番地,,16,202,9330029,,,2025-12-02,清算の結了等,,,2015-10-05,1,,,,,タカミヤケイトテン,0
2699,9290001023896,登記記録の閉鎖等,0,2025-12-05,2025-11-21,株式会社機能水細胞分析センター,,株式会社,福岡県,福岡市博多区,博多駅東２丁目１３番３４号,,40,132,8120013,,,2025-11-21,清算の結了等,,,2015-10-05,1,,,,,キノウスイサイボウブンセキセンター,0
2708,9290005012243,登記記録の閉鎖等,0,2025-12-05,2025-11-14,大牟田漁業協同組合連合会,,その他の設立登記法人,福岡県,大牟田市,大字唐船字塩浜６５番地の７,,40,202,8360003,,,2025-11-14,清算の結了等,,,2015-10-05,1,,,,,オオムタ,0
2717,9340001026266,登記記録の閉鎖等,0,2025-12-05,2025-12-01,株式会社ＷＡＲＤＯＧ,,株式会社,鹿児島県,鹿児島市,牟礼岡３丁目１７番３号,,46,201,8911306,,,2025-12-01,清算の結了等,,,2024-02-05,1,,,,,ウォードッグ,0
2731,9370501000189,登記記録の閉鎖等,0,2025-12-05,2025-11-28,株式会社気仙沼エレクトロニクスコーポレーション,,株式会社,宮城県,気仙沼市,波路上原１２４番地の１,,04,205,9880253,,,2025-11-28,清算の結了等,,,2015-10-05,1,,,,,ケセンヌマエレクトロニクスコーポレーション,0
2732,9370502000907,登記記録の閉鎖等,0,2025-12-05,2025-12-01,有限会社ムサシヤ,,有限会社,宮城県,気仙沼市,八日町２丁目１番１４号,,04,205,9880084,,,2025-12-01,清算の結了等,,,2015-10-05,1,,,,,ムサシヤ,0
2734,9380002034826,登記記録の閉鎖等,0,2025-12-05,2025-11-28,有限会社サワダ,,有限会社,福島県,喜多方市,字中町２８８６番地,,07,208,9660073,,,2025-11-28,清算の結了等,,,2015-10-05,1,,,,,サワダ,0
2737,9430001067350,登記記録の閉鎖等,0,2025-12-05,2025-11-28,Ｌａｖａ　Ｌｏｕｎｇｅ株式会社,,株式会社,北海道,虻田郡倶知安町,字山田１９１番地１９,,01,400,0440081,,,2025-11-28,清算の結了等,,,2015-10-05,1,,,,,ラバラウンジ,0
2743,9450002002016,登記記録の閉鎖等,0,2025-12-05,2025-12-02,有限会社ケーアールシグナス,,有限会社,北海道,旭川市,忠和二条６丁目６番地の１３５２,,01,204,0708042,,,2025-12-02,清算の結了等,,,2015-10-05,1,,,,,ケーアールシグナス,0
2745,9450002005935,登記記録の閉鎖等,0,2025-12-05,2025-12-03,有限会社山谷測量設計,,有限会社,北海道,旭川市,豊岡四条２丁目５番２３号,,01,204,0788234,,,2025-12-03,清算の結了等,,,2015-10-05,1,,,,,ヤマヤソクリョウセッケイ,0
2748,9490002011467,登記記録の閉鎖等,0,2025-12-05,2025-12-03,有限会社丸桧,,有限会社,高知県,香美市,土佐山田町佐野７１番地,,39,212,7820079,,,2025-12-03,清算の結了等,,,2015-10-05,1,,,,,マルヒ,0
