sequenceNumber,corporateNumber,process,correct,updateDate,changeDate,name,nameImageId,kind,prefectureName,cityName,streetNumber,addressImageId,prefectureCode,cityCode,postCode,addressOutside,addressOutsideImageId,closeDate,closeCause,successorCorporateNumber,changeCause,assignmentDate,latest,enName,enPrefectureName,enCityName,enAddressOutside,furigana,hihyoji
11,1010001138738,登記記録の閉鎖等,0,2023-07-03,2023-06-26,株式会社永和産業,,株式会社,東京都,中央区,日本橋人形町３丁目７番５号,,13,102,1030013,,,2023-06-26,清算の結了等,,,2015-10-05,1,,,,,エイワサンギョウ,0
31,1010403015683,登記記録の閉鎖等,0,2023-07-03,2023-06-30,合同会社つくしインベストメント,,合同会社,東京都,港区,北青山１丁目２番３号,,13,103,1070061,,,2023-06-30,清算の結了等,,,2016-12-01,1,,,,,ツクシインベストメント,0
38,1010702009361,登記記録の閉鎖等,0,2023-07-03,2023-06-28,有限会社ネットワークデリバリーサービス,,有限会社,東京都,品川区,東大井２丁目１８番４号,,13,109,1400011,,,2023-06-28,清算の結了等,,,2015-10-05,1,,,,,ネットワークデリバリーサービス,0
50,1011101087420,登記記録の閉鎖等,0,2023-07-03,2023-06-29,青山食品株式会社,,株式会社,東京都,新宿区,大久保２丁目１３番４号北原ビル８０６号室,,13,104,1690072,,,2023-06-29,清算の結了等,,,2019-04-17,1,,,,,アオヤマショクヒン,0
92,1030003010819,登記記録の閉鎖等,0,2023-07-03,2023-06-28,合同会社ｌｉｂｒａ,,合同会社,東京都,荒川区,町屋７丁目１９番５－７１６号,,13,118,1160001,,,2023-06-28,清算の結了等,,,2017-09-25,1,,,,,リブラ,0
116,1080101020566,登記記録の閉鎖等,0,2023-07-03,2023-06-28,株式会社ＳＯＬＵＮＡ,,株式会社,静岡県,沼津市,原１８０５番地,,22,203,4100312,,,2023-06-28,清算の結了等,,,2018-06-25,1,,,,,ソルナ,0
126,1110002020703,登記記録の閉鎖等,0,2023-07-03,2023-06-26,有限会社高橋鉄工所,,有限会社,新潟県,柏崎市,田塚１丁目３番２４号,,15,205,9450032,,,2023-06-26,清算の結了等,,,2015-10-05,1,,,,,タカハシテッコウジョ,0
128,1120001124545,登記記録の閉鎖等,0,2023-07-03,2023-06-22,株式会社ラ・ポール,,株式会社,山口県,周南市,新宿通３丁目２２番地,,35,215,7450056,,,2023-06-22,清算の結了等,,,2015-10-05,1,,,,,ラポール,0
131,1120001219898,登記記録の閉鎖等,0,2023-07-03,2023-06-28,株式会社藤パートナーズ,,株式会社,大阪府,大阪市西成区,南津守７丁目４番３２号ビバリーヒルズ玉出西５Ａ号,,27,122,5570063,,,2023-06-28,清算の結了等,,,2019-03-26,1,,,,,フジパートナーズ,0
132,1120001226366,登記記録の閉鎖等,0,2023-07-03,2023-06-26,株式会社ケイズテクノサービス,,株式会社,大阪府,大阪市鶴見区,諸口３丁目３番３８グランデ鶴見１０２号,,27,124,5380051,,,2023-06-26,清算の結了等,,,2020-01-14,1,,,,,ケイズテクノサービス,0
143,1120901012469,登記記録の閉鎖等,0,2023-07-03,2023-06-21,株式会社リライフコーポレーション,,株式会社,大阪府,三島郡島本町,水無瀬２丁目３番６号,,27,301,6180014,,,2023-06-21,清算の結了等,,,2015-10-05,1,,,,,リライフコーポレーション,0
155,1140002006286,登記記録の閉鎖等,0,2023-07-03,2023-06-26,垂水廉売市場不動産有限会社,,有限会社,兵庫県,神戸市垂水区,宮本町４番１６号３０３,,28,108,6550028,,,2023-06-26,清算の結了等,,,2015-10-05,1,,,,,タルミレンバイイチバフドウサン,0
169,1180001100904,登記記録の閉鎖等,0,2023-07-03,2023-06-28,株式会社八大,,株式会社,愛知県,稲沢市,日下部松野町２丁目１５６番地,,23,220,4928184,,,2023-06-28,清算の結了等,,,2015-10-05,1,,,,,ハチダイ,0
176,1180002079857,登記記録の閉鎖等,0,2023-07-03,2023-06-27,有限会社ライフサークル,,有限会社,愛知県,一宮市,猿海道２丁目１３番地９,,23,203,4910838,,,2023-06-27,清算の結了等,,,2015-10-05,1,,,,,ライフサークル,0
182,1190005009892,登記記録の閉鎖等,0,2023-07-03,2023-06-22,農事組合法人久米東部営農組合,,その他の設立登記法人,三重県,桑名市,大字志知３８８３番地３,,24,205,5110937,,,2023-06-22,清算の結了等,,,2015-10-05,1,,,,,クメトウブエイノウクミアイ,0
184,1240002050407,登記記録の閉鎖等,0,2023-07-03,2023-06-28,有限会社ビッグ・ベア,,有限会社,広島県,尾道市,美ノ郷町中野７００番地,,34,205,7220211,,,2023-06-28,清算の結了等,,,2015-10-05,1,,,,,ビッグベア,0
199,1310005006209,登記記録の閉鎖等,0,2023-07-03,2023-06-26,医療法人林歯科医院,,その他の設立登記法人,長崎県,平戸市,浦の町７１２番地,,42,207,8595111,,,2023-06-26,清算の結了等,,,2015-10-05,1,,,,,ハヤシシカイイン,0
211,1380001026138,登記記録の閉鎖等,0,2023-07-03,2023-06-27,株式会社ルボアール,,株式会社,福島県,いわき市,平谷川瀬２丁目１９－３,,07,204,9708036,,,2023-06-27,清算の結了等,,,2015-11-09,1,,,,,ルボアール,0
217,1450001007576,登記記録の閉鎖等,0,2023-07-03,2023-06-26,株式会社坂上設備工業,,株式会社,北海道,士別市,東十条６丁目,,01,220,0950042,,,2023-06-26,清算の結了等,,,2015-10-05,1,,,,,サカガミセツビコウギョウ,0
219,1470002005486,登記記録の閉鎖等,0,2023-07-03,2023-06-27,有限会社花の店中尾,,有限会社,香川県,高松市,成合町５４２番地４,,37,201,7618081,,,2023-06-27,清算の結了等,,,2015-10-05,1,,,,,ハナノミセナカオ,0
260,2010401074805,登記記録の閉鎖等,0,2023-07-03,2023-06-26,株式会社ウイニングステージ,,株式会社,東京都,渋谷区,渋谷４丁目１番４号１０１,,13,113,1500002,,,2023-06-26,清算の結了等,,,2015-10-05,1,,,,,ウイニングステージ,0
266,2010401161636,登記記録の閉鎖等,0,2023-07-03,2023-06-16,株式会社ＳＬ　Ｈｏｕｓｅ　ｏｆ　Ｃｏｎｓｕｌｔａｎｃｙ＆Ｅｖｅｎｔ　Ｍａｎａｇｅｍｅｎｔ,,株式会社,東京都,港区,浜松町２丁目２番１５号浜松町ダイヤビル２Ｆ,,13,103,1050013,,,2023-06-16,清算の結了等,,,2021-07-28,1,,,,,エスエルハウスオブコンサルタンシーアンドイベントマネジメント,0
272,2010501033248,登記記録の閉鎖等,0,2023-07-03,2023-06-27,株式会社赤坂串助,,株式会社,東京都,台東区,駒形１丁目７番６－１０２号柳恵キングハイツ,,13,106,1110043,,,2023-06-27,清算の結了等,,,2015-10-05,1,,,,,アカサカクシスケ,0
289,2011001095927,登記記録の閉鎖等,0,2023-07-03,2023-06-14,株式会社シード食品,,株式会社,埼玉県,越谷市,南越谷１丁目６番２０号ユニーブル新越谷１０３号,,11,222,3430845,,,2023-06-14,清算の結了等,,,2015-10-05,1,,,,,シードショクヒン,0
301,2011101006172,登記記録の閉鎖等,0,2023-07-03,2023-06-26,株式会社ケ・アンド・ケ,,株式会社,東京都,新宿区,四谷４丁目１３番地１２,,13,104,1600004,,,2023-06-26,清算の結了等,,,2023-01-23,1,,,,,ケアンドケ,0
314,2011802004210,登記記録の閉鎖等,0,2023-07-03,2023-06-28,有限会社ステイタス,,有限会社,東京都,葛飾区,東金町４丁目２９番１４号,,13,122,1250041,,,2023-06-28,清算の結了等,,,2015-10-05,1,,,,,ステイタス,0
347,2030005017266,登記記録の閉鎖等,0,2023-07-03,2023-06-14,一般社団法人日本焚き火コミュニケーション協会,,その他の設立登記法人,埼玉県,和光市,白子１丁目１０番３０－４１６号,,11,229,3510101,,,2023-06-14,清算の結了等,,,2015-10-05,1,,,,,ニホンタキビコミュニケーションキョウカイ,0
350,2040002019248,登記記録の閉鎖等,0,2023-07-03,2023-06-16,有限会社本州不動産鑑定所,,有限会社,千葉県,習志野市,本大久保４丁目４番８１号,,12,216,2750012,,,2023-06-16,清算の結了等,,,2015-10-05,1,,,,,ホンシュウフドウサンカンテイジョ,0
354,2040002056712,登記記録の閉鎖等,0,2023-07-03,2023-06-15,有限会社勝田商会,,有限会社,千葉県,印旛郡栄町,安食３６９５番地,,12,329,2701516,,,2023-06-15,清算の結了等,,,2015-10-05,1,,,,,カツタショウカイ,0
356,2040003021467,登記記録の閉鎖等,0,2023-07-03,2023-06-15,合同会社森,,合同会社,千葉県,香取郡多古町,南玉造１６５４番地１０４,,12,347,2892325,,,2023-06-15,清算の結了等,,,2022-12-14,1,,,,,モリ,0
358,2040005021003,登記記録の閉鎖等,0,2023-07-03,2023-06-13,一般社団法人日本ＶＴｕｂｅｒ協会,,その他の設立登記法人,千葉県,柏市,東上町２－２８第１水戸屋ビル３階,,12,217,2770011,,,2023-06-13,清算の結了等,,,2020-11-24,1,,,,,ニホンブイチューバーキョウカイ,0
398,2120001230573,登記記録の閉鎖等,0,2023-07-03,2023-06-28,株式会社ガルベラ・メディカル,,株式会社,大阪府,大阪市西区,立売堀１丁目２番１４号,,27,106,5500012,,,2023-06-28,合併による解散等,8010401067357,令和５年４月３０日東京都港区虎ノ門三丁目２３番６号株式会社ガルベラ・パートナーズ（8010401067357）に合併し解散,2020-07-27,1,,,,,ガルベラメディカル,0
404,2120005005922,登記記録の閉鎖等,0,2023-07-03,2023-06-27,親交会無線協同組合,,その他の設立登記法人,大阪府,大阪市都島区,中野町２丁目１５番１２号,,27,102,5340027,,,2023-06-27,清算の結了等,,,2015-10-05,1,,,,,シンコウカイムセン,0
411,2130001014447,登記記録の閉鎖等,0,2023-07-03,2023-06-23,コスモ出版株式会社,,株式会社,京都府,京都市伏見区,深草堀田町１０番地１,,26,109,6120026,,,2023-06-23,清算の結了等,,,2015-10-05,1,,,,,コスモシュッパン,0
434,2210002012227,登記記録の閉鎖等,0,2023-07-03,2023-06-26,有限会社中條和紙,,有限会社,福井県,越前市,岩本町第１７号２５番地,,18,209,9150233,,,2023-06-26,清算の結了等,,,2015-10-05,1,,,,,ナカジョウワシ,0
440,2240001031497,登記記録の閉鎖等,0,2023-07-03,2023-06-28,株式会社富屋,,株式会社,広島県,福山市,北吉津町２丁目５番８号,,34,207,7200073,,,2023-06-28,清算の結了等,,,2015-10-05,1,,,,,トミヤ,0
448,2260001000483,登記記録の閉鎖等,0,2023-07-03,2023-06-27,株式会社泉屋,,株式会社,岡山県,岡山市東区,西大寺中１丁目４番１０号,,33,103,7048116,,,2023-06-27,清算の結了等,,,2015-10-05,1,,,,,イズミヤ,0
459,2330001020664,登記記録の閉鎖等,0,2023-07-03,2023-06-23,株式会社Ｓｔｙｌｅ　Ｓａｔｏｍｉ,,株式会社,熊本県,熊本市中央区,上通町８番１４号Ｋ・シードビル,,43,101,8600845,,,2023-06-23,清算の結了等,,,2015-10-05,1,,,,,スタイルサトミ,0
462,2330002018575,登記記録の閉鎖等,0,2023-07-03,2023-06-23,有限会社高野タクシー,00097780,有限会社,熊本県,山鹿市,山鹿９２番地の３,,43,208,8610501,,,2023-06-23,清算の結了等,,,2015-10-05,1,,,,,タカノタクシー,0
475,2430001017923,登記記録の閉鎖等,0,2023-07-03,2023-06-19,ヨシダ防水工業株式会社,,株式会社,北海道,札幌市西区,西野八条２丁目２番２号,,01,107,0630038,,,2023-06-19,清算の結了等,,,2015-10-05,1,,,,,ヨシダボウスイコウギョウ,0
480,2460102002268,登記記録の閉鎖等,0,2023-07-03,2023-06-29,有限会社鳥せい帯広西二十五条店,,有限会社,北海道,帯広市,西二十五条南３丁目２３番地５,,01,207,0802475,,,2023-06-29,清算の結了等,,,2015-10-05,1,,,,,トリセイオビヒロニシニジュウゴジョウテン,0
484,2460302005046,登記記録の閉鎖等,0,2023-07-03,2023-06-30,有限会社丸三とらや菓子司,,有限会社,北海道,斜里郡小清水町,南町１丁目１８番２６号,,01,547,0993642,,,2023-06-30,清算の結了等,,,2015-10-05,1,,,,,,0
506,3010001099557,登記記録の閉鎖等,0,2023-07-03,2023-06-26,株式会社エムコム,,株式会社,東京都,千代田区,九段南２丁目６番１３号,,13,101,1020074,,,2023-06-26,清算の結了等,,,2015-10-05,1,,,,,エムコム,0
513,3010401017762,登記記録の閉鎖等,0,2023-07-03,2023-06-28,株式会社中城デザイン事務所,,株式会社,東京都,世田谷区,北烏山１丁目４７番１５号,,13,112,1570061,,,2023-06-28,清算の結了等,,,2015-10-05,1,,,,,ナカジョウデザイン,0
526,3010501015550,登記記録の閉鎖等,0,2023-07-03,2023-06-27,株式会社渡辺フード・サービス,,株式会社,東京都,台東区,駒形１丁目７番６－１０２号柳恵キングハイツ,,13,106,1110043,,,2023-06-27,清算の結了等,,,2015-10-05,1,,,,,ワタナベフードサービス,0
527,3010501033263,登記記録の閉鎖等,0,2023-07-03,2023-06-27,株式会社渡辺商店,,株式会社,東京都,台東区,駒形１丁目７番６－１０２号柳恵キングハイツ,,13,106,1110043,,,2023-06-27,清算の結了等,,,2015-10-05,1,,,,,ワタナベショウテン,0
528,3010502017744,登記記録の閉鎖等,0,2023-07-03,2023-06-29,有限会社山形屋総研,,有限会社,東京都,台東区,西浅草３丁目１８番１１号,,13,106,1110035,,,2023-06-29,清算の結了等,,,2015-10-05,1,,,,,,0
529,3010505002917,登記記録の閉鎖等,0,2023-07-03,2023-06-27,一般社団法人生活環境メディエーション協会,,その他の設立登記法人,東京都,台東区,三ノ輪２丁目８番５－５０３号,,13,106,1100011,,,2023-06-27,清算の結了等,,,2018-07-13,1,,,,,セイカツカンキョウメディエーションキョウカイ,0
538,3010901011562,登記記録の閉鎖等,0,2023-07-03,2023-06-29,マルミヤ新和建設株式会社,,株式会社,東京都,世田谷区,松原１丁目２９番３号,,13,112,1560043,,,2023-06-29,清算の結了等,,,2015-10-05,1,,,,,マルミヤシンワケンセツ,0
542,3011001027400,登記記録の閉鎖等,0,2023-07-03,2023-06-23,株式会社ゴールドプランニング,,株式会社,東京都,渋谷区,桜丘町２６番１号,,13,113,1500031,,,2023-06-23,清算の結了等,,,2015-10-05,1,,,,,ゴールドプランニング,0
558,3011002000190,登記記録の閉鎖等,0,2023-07-03,2023-06-29,有限会社アイク,,有限会社,東京都,板橋区,稲荷台２６番１５号１０２,,13,119,1730002,,,2023-06-29,清算の結了等,,,2015-10-05,1,,,,,アイク,0
583,3020001005068,登記記録の閉鎖等,0,2023-07-03,2023-06-26,三神測量設計株式会社,,株式会社,神奈川県,横浜市旭区,二俣川１丁目４５番４４号,,14,112,2410821,,,2023-06-26,清算の結了等,,,2015-10-05,1,,,,,サンシンソクリョウセッケイ,0
590,3021002018100,登記記録の閉鎖等,0,2023-07-03,2023-06-27,岩本設計有限会社,,有限会社,神奈川県,相模原市南区,磯部上谷戸１４５７－３５,,14,153,2520327,,,2023-06-27,清算の結了等,,,2015-10-05,1,,,,,イワモトセッケイ,0
591,3021002035046,登記記録の閉鎖等,0,2023-07-03,2023-06-27,有限会社シール堂神奈川印刷,,有限会社,神奈川県,伊勢原市,板戸６８９番地の５,,14,214,2591145,,,2023-06-27,清算の結了等,,,2015-10-05,1,,,,,シールドウカナガワインサツ,0
608,3040001027011,登記記録の閉鎖等,0,2023-07-03,2023-06-15,ドゥ・ベストホーム株式会社,,株式会社,千葉県,市川市,行徳駅前３丁目１番１９号,,12,203,2720133,,,2023-06-15,清算の結了等,,,2015-10-05,1,,,,,ドゥベストホーム,0
621,3050002028569,登記記録の閉鎖等,0,2023-07-03,2023-06-26,有限会社茂木物流,,有限会社,茨城県,潮来市,島須４６６番地,,08,223,3112434,,,2023-06-26,清算の結了等,,,2015-10-05,1,,,,,,0
625,3070001013974,登記記録の閉鎖等,0,2023-07-03,2023-06-29,大美賀木材株式会社,,株式会社,群馬県,太田市,大原町１８１４番地２１,,10,205,3792304,,,2023-06-29,清算の結了等,,,2015-10-05,1,,,,,オオミカモクザイ,0
633,3080102008690,登記記録の閉鎖等,0,2023-07-03,2023-06-28,有限会社三田工業,,有限会社,静岡県,伊豆市,大野９８５番地,,22,222,4102402,,,2023-06-28,清算の結了等,,,2015-10-05,1,,,,,,0
634,3080102016124,登記記録の閉鎖等,0,2023-07-03,2023-06-28,有限会社アイ・ティ・サポート,,有限会社,静岡県,富士市,永田町２丁目２５番地の１,,22,210,4170055,,,2023-06-28,清算の結了等,,,2015-10-05,1,,,,,アイティサポート,0
637,3080402008127,登記記録の閉鎖等,0,2023-07-03,2023-06-14,有限会社三輪木型製作所,,有限会社,静岡県,浜松市中区,領家２丁目９番１３号,,22,131,4300852,,,2023-06-14,清算の結了等,,,2015-10-05,1,,,,,ミワキガタセイサクショ,0
638,3080403004249,登記記録の閉鎖等,0,2023-07-03,2023-06-28,セイコウ合同会社,,合同会社,静岡県,浜松市中区,常盤町１３３－２８,,22,131,4300917,,,2023-06-28,清算の結了等,,,2021-04-22,1,,,,,セイコウ,0
640,3090001007223,登記記録の閉鎖等,0,2023-07-03,2023-06-21,株式会社希穏,,株式会社,山梨県,笛吹市,御坂町成田１７３９番地７,,19,211,4060801,,,2023-06-21,清算の結了等,,,2015-10-05,1,,,,,キオン,0
648,3120001156842,登記記録の閉鎖等,0,2023-07-03,2023-06-30,株式会社守口オート,,株式会社,大阪府,守口市,西郷通２丁目４番８号,,27,209,5700034,,,2023-06-30,清算の結了等,,,2015-10-05,1,,,,,モリグチオート,0
650,3120001205319,登記記録の閉鎖等,0,2023-07-03,2023-06-26,株式会社Ｉｎｆｉｎｉｔｙ,,株式会社,大阪府,大阪市西区,江戸堀１丁目２３－３５、１０Ｆ,,27,106,5500002,,,2023-06-26,清算の結了等,,,2017-05-02,1,,,,,,0
669,3170001008295,登記記録の閉鎖等,0,2023-07-03,2023-06-28,岡本工産株式会社,,株式会社,和歌山県,岩出市,高塚２２７番地の２,,30,209,6496223,,,2023-06-28,清算の結了等,,,2015-10-05,1,,,,,オカモトコウサン,0
676,3180002065236,登記記録の閉鎖等,0,2023-07-03,2023-06-23,有限会社内山工務店,,有限会社,愛知県,春日井市,花長町２丁目２４番地の４,,23,206,4860951,,,2023-06-23,清算の結了等,,,2015-10-05,1,,,,,ウチヤマコウムテン,0
687,3220001012663,登記記録の閉鎖等,0,2023-07-03,2023-06-29,株式会社佐野ニツト,,株式会社,石川県,能美市,佐野町イ４７番地,,17,211,9231112,,,2023-06-29,清算の結了等,,,2015-10-05,1,,,,,サノニット,0
692,3240002034787,登記記録の閉鎖等,0,2023-07-03,2023-06-28,有限会社藤産業,,有限会社,広島県,呉市,音戸町渡子３丁目１０番３号,,34,202,7371217,,,2023-06-28,清算の結了等,,,2015-10-05,1,,,,,フジサンギョウ,0
695,3250001010235,登記記録の閉鎖等,0,2023-07-03,2023-06-21,株式会社昭和工事,,株式会社,山口県,光市,大字浅江８４番地,,35,210,7430021,,,2023-06-21,清算の結了等,,,2015-10-05,1,,,,,,0
699,3280005003579,登記記録の閉鎖等,0,2023-07-03,2023-06-23,医療法人真施会,,その他の設立登記法人,島根県,大田市,大田町大田ハ１００番地４,,32,205,6940064,,,2023-06-23,清算の結了等,,,2015-10-05,1,,,,,シンシカイ,0
701,3290001029726,登記記録の閉鎖等,0,2023-07-03,2023-06-27,株式会社パワー企画,,株式会社,福岡県,福岡市南区,清水３丁目２５番１３号,,40,134,8150031,,,2023-06-27,清算の結了等,,,2015-10-05,1,,,,,パワーキカク,0
711,3380002024386,登記記録の閉鎖等,0,2023-07-03,2023-06-27,有限会社ステップ,,有限会社,福島県,いわき市,錦町鈴鹿１２番地の４,,07,204,9748232,,,2023-06-27,清算の結了等,,,2015-10-05,1,,,,,ステップ,0
723,3500001012057,登記記録の閉鎖等,0,2023-07-03,2023-06-29,長野縫製株式会社,,株式会社,愛媛県,今治市,馬越町１丁目２番２６号,,38,202,7940062,,,2023-06-29,清算の結了等,,,2015-10-05,1,,,,,ナガノホウセイ,0
727,3500001022907,登記記録の閉鎖等,0,2023-07-03,2023-06-29,富士ホールディングス株式会社,,株式会社,愛媛県,松山市,三番町４丁目１２番地１,,38,201,7900003,,,2023-06-29,清算の結了等,,,2020-09-11,1,,,,,フジホールディングス,0
750,4010001006248,登記記録の閉鎖等,0,2023-07-03,2023-06-26,株式会社年金者サービス,,株式会社,東京都,文京区,湯島１丁目９番５号お茶の水小柳出ビル２階,,13,105,1130034,,,2023-06-26,清算の結了等,,,2015-10-05,1,,,,,ネンキンシャサービス,0
755,4010001078691,登記記録の閉鎖等,0,2023-07-03,2023-06-26,株式会社エム・フーズ,,株式会社,東京都,中央区,銀座７丁目２番先,,13,102,1040061,,,2023-06-26,清算の結了等,,,2015-10-05,1,,,,,エムフーズ,0
767,4010401139333,登記記録の閉鎖等,0,2023-07-03,2023-06-19,Ｊ　Ｂｌｏｃｋ株式会社,,株式会社,東京都,港区,新橋６丁目１６番８号,,13,103,1050004,,,2023-06-19,清算の結了等,,,2018-07-03,1,,,,,ジェブロック,0
772,4010501033262,登記記録の閉鎖等,0,2023-07-03,2023-06-27,株式会社越後屋,,株式会社,東京都,台東区,駒形１丁目７番６－１０２号柳恵キングハイツ,,13,106,1110043,,,2023-06-27,清算の結了等,,,2015-10-05,1,,,,,エチゴヤ,0
775,4010605000778,登記記録の閉鎖等,0,2023-07-03,2023-06-27,両国酒販協同組合,,その他の設立登記法人,東京都,墨田区,両国４丁目３２番１４号,,13,107,1300026,,,2023-06-27,清算の結了等,,,2015-10-05,1,,,,,リョウゴクシュハン,0
808,4011103008108,登記記録の閉鎖等,0,2023-07-03,2023-06-29,合同会社ジェイ・アイ・エム,,合同会社,東京都,新宿区,下宮比町１番４号,,13,104,1620822,,,2023-06-29,清算の結了等,,,2018-07-24,1,,,,,ジェイアイエム,0
815,4011305001249,登記記録の閉鎖等,0,2023-07-03,2023-06-28,特定非営利活動法人日本グリーンクロス協会,,その他の設立登記法人,東京都,杉並区,久我山４丁目５０番１４号久我山四丁目第２アパート１４－１０３,,13,115,1680082,,,2023-06-28,清算の結了等,,,2015-10-05,1,,,,,,0
817,4011402001804,登記記録の閉鎖等,0,2023-07-03,2023-06-29,有限会社オーティーシー,,有限会社,東京都,板橋区,若木１丁目２７番１－２１７号,,13,119,1740065,,,2023-06-29,清算の結了等,,,2015-10-05,1,,,,,オーティーシー,0
821,4011701001918,登記記録の閉鎖等,0,2023-07-03,2023-06-30,株式会社アイコスモ,,株式会社,東京都,江戸川区,北小岩６丁目３１番１４号,,13,123,1330051,,,2023-06-30,清算の結了等,,,2015-10-05,1,,,,,アイコスモ,0
832,4012805002918,登記記録の閉鎖等,0,2023-07-03,2023-06-26,一般社団法人プラスワン,,その他の設立登記法人,東京都,昭島市,郷地町３丁目１０番７－２０６号,,13,207,1960032,,,2023-06-26,清算の結了等,,,2020-03-17,1,,,,,プラスワン,0
838,4020001000514,登記記録の閉鎖等,0,2023-07-03,2023-06-21,株式会社イワサキハウス,,株式会社,神奈川県,横浜市泉区,中田東１丁目３７番３号,,14,116,2450013,,,2023-06-21,清算の結了等,,,2015-11-06,1,,,,,イワサキハウス,0
844,4030001012970,登記記録の閉鎖等,0,2023-07-03,2023-06-19,株式会社アイデック,,株式会社,埼玉県,さいたま市南区,文蔵２丁目１８番１８号,,11,108,3360025,,,2023-06-19,清算の結了等,,,2015-10-05,1,,,,,アイデック,0
846,4030001024198,登記記録の閉鎖等,0,2023-07-03,2023-06-16,株式会社サダムラ,,株式会社,埼玉県,所沢市,和ケ原１丁目１７６番地の８,,11,208,3591162,,,2023-06-16,清算の結了等,,,2021-11-16,1,,,,,サダムラ,0
855,4030002048601,登記記録の閉鎖等,0,2023-07-03,2023-06-16,有限会社上栄商事,,有限会社,埼玉県,三郷市,早稲田１丁目１８番地８,,11,237,3410018,,,2023-06-16,清算の結了等,,,2015-10-05,1,,,,,ジョウエイショウジ,0
860,4030003017885,登記記録の閉鎖等,0,2023-07-03,2023-06-15,エリス合同会社,,合同会社,埼玉県,白岡市,小久喜６７５番地１パークシティ白岡Ｂ棟７１３,,11,246,3490217,,,2023-06-15,清算の結了等,,,2021-09-06,1,,,,,エリス,0
863,4030005018320,登記記録の閉鎖等,0,2023-07-03,2023-06-14,一般社団法人山田企画,,その他の設立登記法人,埼玉県,さいたま市南区,沼影１丁目１１番２号Ｃ－２５０９,,11,108,3360027,,,2023-06-14,清算の結了等,,,2017-01-23,1,,,,,ヤマダキカク,0
883,4050002044912,登記記録の閉鎖等,0,2023-07-03,2023-06-26,有限会社秀工務店,,有限会社,茨城県,結城市,大字中６５５番地,,08,207,3070013,,,2023-06-26,清算の結了等,,,2015-10-05,1,,,,,ヒデコウムテン,0
901,4120001025542,登記記録の閉鎖等,0,2023-07-03,2023-06-30,メグミ株式会社,,株式会社,大阪府,大阪市天王寺区,清水谷町５番１６号,,27,109,5430011,,,2023-06-30,清算の結了等,,,2015-10-05,1,,,,,メグミ,0
914,4120101062221,登記記録の閉鎖等,0,2023-07-03,2023-06-29,泰豊商事株式会社,,株式会社,大阪府,堺市西区,浜寺諏訪森町中１丁３９番地３７,,27,144,5928348,,,2023-06-29,清算の結了等,,,2020-08-25,1,,,,,タイホウショウジ,0
944,4180002019389,登記記録の閉鎖等,0,2023-07-03,2023-06-28,有限会社丸一製作所,,有限会社,愛知県,名古屋市中川区,昭和橋通６丁目７番地の２,,23,110,4540852,,,2023-06-28,清算の結了等,,,2015-10-05,1,,,,,マルイチセイサクジョ,0
953,4210002007010,登記記録の閉鎖等,0,2023-07-03,2023-06-26,有限会社あめ伊商店,,有限会社,福井県,坂井市,三国町三国東６丁目６番２２号,,18,210,9130016,,,2023-06-26,清算の結了等,,,2015-10-05,1,,,,,アメイショウテン,0
987,4390002009336,登記記録の閉鎖等,0,2023-07-03,2023-06-27,有限会社サイトウ測量,,有限会社,山形県,鶴岡市,寺田字道田７１番地の２,,06,203,9970836,,,2023-06-27,清算の結了等,,,2015-10-05,1,,,,,サイトウソクリョウ,0
1000,4450002008505,登記記録の閉鎖等,0,2023-07-03,2023-06-26,有限会社トラスト設備,,有限会社,北海道,旭川市,秋月三条１丁目４番６号,,01,204,0798403,,,2023-06-26,清算の結了等,,,2015-10-05,1,,,,,トラストセツビ,0
1001,4460103000896,登記記録の閉鎖等,0,2023-07-03,2023-06-29,合同会社藤井記帳代行サービス,,合同会社,北海道,帯広市,西十七条南３６丁目３番地１０,,01,207,0800027,,,2023-06-29,清算の結了等,,,2015-10-05,1,,,,,,0
1003,4470001012357,登記記録の閉鎖等,0,2023-07-03,2023-06-27,株式会社吉太郎,,株式会社,香川県,小豆郡小豆島町,安田甲５１３番地の１,,37,324,7614411,,,2023-06-27,清算の結了等,,,2015-10-05,1,,,,,キチタロウ,0
1030,5010001046879,登記記録の閉鎖等,0,2023-07-03,2023-06-26,株式会社シムラリビング,,株式会社,東京都,中央区,日本橋人形町３丁目７番５号,,13,102,1030013,,,2023-06-26,清算の結了等,,,2015-10-05,1,,,,,シムラリビング,0
1051,5010003032497,登記記録の閉鎖等,0,2023-07-03,2023-06-27,ＷＯＲＬ－ＤＩ合同会社,,合同会社,東京都,千代田区,神田司町２丁目１０番４号Ｏｒｒｉｚｏｎｔｅ１００１,,13,101,1010048,,,2023-06-27,清算の結了等,,,2020-07-03,1,,,,,ウォールディ,0
1061,5010501033261,登記記録の閉鎖等,0,2023-07-03,2023-06-27,株式会社奥座敷,,株式会社,東京都,台東区,駒形１丁目７番６－１０２号柳恵キングハイツ,,13,106,1110043,,,2023-06-27,清算の結了等,,,2015-10-05,1,,,,,オクザシキ,0
1067,5010601035570,登記記録の閉鎖等,0,2023-07-03,2023-06-26,相模リサイクル株式会社,,株式会社,東京都,中央区,築地２丁目８番１号－７０３,,13,102,1040045,,,2023-06-26,清算の結了等,,,2015-10-05,1,,,,,サガミリサイクル,0
1071,5010905003455,登記記録の閉鎖等,0,2023-07-03,2023-06-19,一般社団法人オーナー経営総合支援機構,,その他の設立登記法人,東京都,港区,港南３丁目５番１５－１５０４号,,13,103,1080075,,,2023-06-19,清算の結了等,,,2017-09-05,1,,,,,オーナーケイエイソウゴウシエンキコウ,0
1096,5013101001547,登記記録の閉鎖等,0,2023-07-03,2023-06-22,瑞穂運輸株式会社,,株式会社,東京都,西多摩郡瑞穂町,大字富士山栗原新田１９７番地３,,13,303,1901204,,,2023-06-22,清算の結了等,,,2015-10-05,1,,,,,ミズホウンユ,0
1123,5030002094784,登記記録の閉鎖等,0,2023-07-03,2023-06-13,有限会社ナベ・コーポレーション,,有限会社,埼玉県,鶴ヶ島市,大字藤金７９９番地１２１,,11,241,3502206,,,2023-06-13,清算の結了等,,,2015-10-05,1,,,,,ナベコーポレーション,0
1141,5070002013963,登記記録の閉鎖等,0,2023-07-03,2023-06-29,有限会社ビレン,,有限会社,群馬県,高崎市,菅谷町２０番地１８,,10,202,3703522,,,2023-06-29,清算の結了等,,,2015-10-05,1,,,,,ビレン,0
1190,5140002040835,登記記録の閉鎖等,0,2023-07-03,2023-06-28,有限会社国陽工業,,有限会社,兵庫県,尼崎市,常光寺２丁目１番１号,,28,202,6600811,,,2023-06-28,清算の結了等,,,2015-10-05,1,,,,,,0
1191,5140002059578,登記記録の閉鎖等,0,2023-07-03,2023-06-26,有限会社ふじや,,有限会社,京都府,京都市中京区,柳馬場通御池下る柳八幡町７１番地５０３号,,26,104,6048101,,,2023-06-26,清算の結了等,,,2015-10-05,1,,,,,フジヤ,0
1199,5180001083781,登記記録の閉鎖等,0,2023-07-03,2023-06-29,株式会社マットコーポレーション,,株式会社,愛知県,一宮市,一色町２２番地,,23,203,4910902,,,2023-06-29,清算の結了等,,,2015-10-05,1,,,,,マットコーポレーション,0
1212,5180302011144,登記記録の閉鎖等,0,2023-07-03,2023-06-22,有限会社テクノ・コイデ,,有限会社,愛知県,豊橋市,下地町字城谷１９番地の３,,23,201,4400086,,,2023-06-22,清算の結了等,,,2015-10-05,1,,,,,テクノコイデ,0
1224,5250003000422,登記記録の閉鎖等,0,2023-07-03,2023-06-21,合資会社サポートメディカル,,合資会社,山口県,宇部市,大字東岐波５５８６番地１１,,35,202,7550241,,,2023-06-21,清算の結了等,,,2015-10-05,1,,,,,サポートメディカル,0
1230,5290005018863,登記記録の閉鎖等,0,2023-07-03,2023-06-09,ボーダレス・パートナーズ協同組合,,その他の設立登記法人,福岡県,福岡市東区,多の津４丁目１４番１号,,40,131,8130034,,,2023-06-09,清算の結了等,,,2022-11-29,1,,,,,ボーダレスパートナーズ,0
1292,6010003022638,登記記録の閉鎖等,0,2023-07-03,2023-06-27,合同会社ドリームズ・フォー・ユー,,合同会社,東京都,中央区,銀座６丁目１３番１６号銀座ＷａｌｌビルＵＣＦ５０１,,13,102,1040061,,,2023-06-27,清算の結了等,,,2015-11-10,1,,,,,ドリームズフォーユー,0
1298,6010005024780,登記記録の閉鎖等,0,2023-07-03,2023-06-28,一般社団法人ＸＲＢ１,,その他の設立登記法人,東京都,中央区,日本橋１丁目４番１号日本橋一丁目ビルディング,,13,102,1030027,,,2023-06-28,清算の結了等,,,2015-12-25,1,,,,,エックスアールビーワン,0
1306,6010403015695,登記記録の閉鎖等,0,2023-07-03,2023-06-26,合同会社アルック,,合同会社,東京都,千代田区,六番町１５番２号,,13,101,1020085,,,2023-06-26,清算の結了等,,,2016-12-02,1,,,,,アルック,0
1307,6010501033236,登記記録の閉鎖等,0,2023-07-03,2023-06-27,株式会社大富,,株式会社,東京都,台東区,駒形１丁目７番６－１０２号柳恵キングハイツ,,13,106,1110043,,,2023-06-27,清算の結了等,,,2015-10-05,1,,,,,オオトミ,0
1315,6010701014531,登記記録の閉鎖等,0,2023-07-03,2023-06-26,サン・テック株式会社,,株式会社,東京都,品川区,大井７丁目３番１２－１０２号,,13,109,1400014,,,2023-06-26,清算の結了等,,,2015-10-05,1,,,,,サンテック,0
1320,6010901015008,登記記録の閉鎖等,0,2023-07-03,2023-06-23,タックエアーサービス株式会社,,株式会社,東京都,世田谷区,羽根木１丁目１０番１７号,,13,112,1560042,,,2023-06-23,清算の結了等,,,2015-10-05,1,,,,,タックエアーサービス,0
1356,6021002011382,登記記録の閉鎖等,0,2023-07-03,2023-06-23,有限会社大洋クリーニング,,有限会社,神奈川県,茅ヶ崎市,円蔵１丁目１９番７号,,14,207,2530084,,,2023-06-23,清算の結了等,,,2015-10-05,1,,,,,タイヨウクリーニング,0
1357,6030001008315,登記記録の閉鎖等,0,2023-07-03,2023-06-13,株式会社メイコー,,株式会社,埼玉県,さいたま市浦和区,前地３丁目５番１８号,,11,107,3300053,,,2023-06-13,清算の結了等,,,2015-10-05,1,,,,,メイコー,0
1365,6030001143335,登記記録の閉鎖等,0,2023-07-03,2023-06-15,ＴＡＬＨＡ　ＴＲＡＤＩＮＧ株式会社,,株式会社,埼玉県,春日部市,牛島１３３０番地１,,11,214,3440004,,,2023-06-15,清算の結了等,,,2021-07-20,1,,,,,タルハトレーディング,0
1366,6030001153598,登記記録の閉鎖等,0,2023-07-03,2023-06-13,株式会社西川口,,株式会社,埼玉県,川口市,西川口１丁目６番２号,,11,203,3320021,,,2023-06-13,合併による解散等,1030001020175,令和５年６月１３日埼玉県戸田市新曽南二丁目１１番２５号共栄商事株式会社（1030001020175）に合併し解散,2023-04-28,1,,,,,ニシカワグチ,0
1372,6030002114871,登記記録の閉鎖等,0,2023-07-03,2023-06-14,有限会社安沢,,有限会社,埼玉県,熊谷市,江南中央１丁目１５番地１７,,11,202,3600114,,,2023-06-14,清算の結了等,,,2015-10-05,1,,,,,アンザワ,0
1373,6030002121496,登記記録の閉鎖等,0,2023-07-03,2023-06-12,有限会社太陽,,有限会社,埼玉県,秩父市,桜木町１８番３号,,11,207,3680025,,,2023-06-12,清算の結了等,,,2015-10-05,1,,,,,タイヨウ,0
1383,6040002042824,登記記録の閉鎖等,0,2023-07-03,2023-06-15,有限会社ＺＯＯＭ,,有限会社,千葉県,浦安市,東野１丁目２４番２５号,,12,227,2790042,,,2023-06-15,清算の結了等,,,2015-10-05,1,,,,,ズーム,0
1392,6050001008197,登記記録の閉鎖等,0,2023-07-03,2023-06-22,アクト保険設計株式会社,,株式会社,茨城県,笠間市,箱田５３２番地の１,,08,216,3091631,,,2023-06-22,清算の結了等,,,2015-10-05,1,,,,,アクトホケンセッケイ,0
1393,6050001025473,登記記録の閉鎖等,0,2023-07-03,2023-06-23,株式会社理研コムネット,,株式会社,茨城県,取手市,藤代南２丁目１３番地２,,08,217,3001516,,,2023-06-23,清算の結了等,,,2015-10-05,1,,,,,リケンコムネット,0
1398,6070002002387,登記記録の閉鎖等,0,2023-07-03,2023-06-30,有限会社サトウシート,,有限会社,群馬県,前橋市,田口町２５３番地８,,10,201,3710048,,,2023-06-30,清算の結了等,,,2015-10-05,1,,,,,サトウシート,0
1409,6090001016163,登記記録の閉鎖等,0,2023-07-03,2023-06-20,株式会社談,,株式会社,山梨県,上野原市,上野原８１５４番地３６,,19,212,4090112,,,2023-06-20,清算の結了等,,,2019-08-20,1,,,,,ダン,0
1411,6100002003258,登記記録の閉鎖等,0,2023-07-03,2023-06-26,有限会社テイルーム藤屋,,有限会社,長野県,長野市,大字長野大門町８０番地,,20,201,3800841,,,2023-06-26,清算の結了等,,,2015-10-05,1,,,,,テイルームフジヤ,0
1413,6110002005253,登記記録の閉鎖等,0,2023-07-03,2023-06-26,有限会社長谷川商店,,有限会社,新潟県,新潟市中央区,本町通６番町１１１６番地５,,15,103,9518067,,,2023-06-26,清算の結了等,,,2015-10-05,1,,,,,ハセガワショウテン,0
1421,6120001153837,登記記録の閉鎖等,0,2023-07-03,2023-06-26,株式会社ＺＥＳＴ,,株式会社,大阪府,寝屋川市,香里南之町５番１０号,,27,215,5720084,,,2023-06-26,清算の結了等,,,2015-10-05,1,,,,,ゼスト,0
1425,6120001252457,登記記録の閉鎖等,0,2023-07-03,2023-06-22,株式会社大野,,株式会社,大阪府,大阪市東住吉区,駒川１丁目１番１９号,,27,121,5460043,,,2023-06-22,清算の結了等,,,2023-02-14,1,,,,,オオノ,0
1441,6180002072931,登記記録の閉鎖等,0,2023-07-03,2023-06-29,有限会社中山重機,,有限会社,愛知県,尾張旭市,東名西町１丁目２番地の３,,23,226,4880844,,,2023-06-29,清算の結了等,,,2015-10-05,1,,,,,ナカヤマジュウキ,0
1443,6180302009583,登記記録の閉鎖等,0,2023-07-03,2023-06-21,有限会社プラーネッツ,,有限会社,愛知県,豊橋市,天伯町字豊１１３番地の３,,23,201,4418122,,,2023-06-21,清算の結了等,,,2015-10-05,1,,,,,プラーネッツ,0
1452,6230005005635,登記記録の閉鎖等,0,2023-07-03,2023-06-28,協同組合小矢部商工福祉センター,,その他の設立登記法人,富山県,小矢部市,蓮沼５３４番地２,,16,209,9320834,,,2023-06-28,清算の結了等,,,2015-10-05,1,,,,,オヤベショウコウフクシセンター,0
1473,6290801003415,登記記録の閉鎖等,0,2023-07-03,2023-06-28,株式会社北信化工,,株式会社,福岡県,北九州市小倉南区,大字新道寺７９１番地の２,,40,107,8030186,,,2023-06-28,清算の結了等,,,2015-10-05,1,,,,,ホクシンカコウ,0
1485,6380002009269,登記記録の閉鎖等,0,2023-07-03,2023-06-27,湖南産業開発有限会社,,有限会社,福島県,郡山市,湖南町福良字入宇田７６９３番地,,07,203,9631633,,,2023-06-27,清算の結了等,,,2015-10-05,1,,,,,コナンサンギョウカイハツ,0
1543,7010801010066,登記記録の閉鎖等,0,2023-07-03,2023-06-28,姫知建設株式会社,,株式会社,東京都,大田区,田園調布本町４５番１１号,,13,111,1450072,,,2023-06-28,清算の結了等,,,2015-10-05,1,,,,,,0
1558,7011102021117,登記記録の閉鎖等,0,2023-07-03,2023-06-29,有限会社ゴットストン,,有限会社,東京都,新宿区,四谷４丁目３番地エクシーナ四谷７０１,,13,104,1600004,,,2023-06-29,清算の結了等,,,2015-10-05,1,,,,,ゴットストン,0
1567,7011502001239,登記記録の閉鎖等,0,2023-07-03,2023-06-29,有限会社岡田テクノアイ,,有限会社,東京都,北区,上十条２丁目６番２０号,,13,117,1140034,,,2023-06-29,清算の結了等,,,2015-10-05,1,,,,,オカダテクノアイ,0
1585,7020003017066,登記記録の閉鎖等,0,2023-07-03,2023-06-26,合同会社サンキンジャパン,,合同会社,神奈川県,川崎市中原区,今井西町９－４－２,,14,133,2110066,,,2023-06-26,清算の結了等,,,2019-12-11,1,,,,,サンキンジャパン,0
1589,7030001056742,登記記録の閉鎖等,0,2023-07-03,2023-06-14,株式会社インターコム,,株式会社,埼玉県,ふじみ野市,北野１丁目８番８号,,11,245,3560007,,,2023-06-14,清算の結了等,,,2015-10-05,1,,,,,インターコム,0
1592,7030001152277,登記記録の閉鎖等,0,2023-07-03,2023-06-12,株式会社美華工業,,株式会社,埼玉県,和光市,白子３丁目１９番７－３０１０号,,11,229,3510101,,,2023-06-12,清算の結了等,,,2023-02-07,1,,,,,ミカコウギョウ,0
1594,7030002001359,登記記録の閉鎖等,0,2023-07-03,2023-06-15,有限会社池田屋酒店,,有限会社,埼玉県,さいたま市大宮区,堀の内町１丁目３０５番地,,11,103,3300804,,,2023-06-15,清算の結了等,,,2015-10-05,1,,,,,イケダヤサケテン,0
1598,7030005005514,登記記録の閉鎖等,0,2023-07-03,2023-06-15,特定非営利活動法人ライフサポートむさし,,その他の設立登記法人,埼玉県,所沢市,くすのき台３丁目１６番地の６ビジュー所沢くすのき台１０１,,11,208,3590037,,,2023-06-15,清算の結了等,,,2015-10-05,1,,,,,ライフサポートムサシ,0
1605,7040002046592,登記記録の閉鎖等,0,2023-07-03,2023-06-13,有限会社鈴木工業所,,有限会社,千葉県,松戸市,串崎新田１８８番地の４,,12,207,2702216,,,2023-06-13,清算の結了等,,,2015-10-05,1,,,,,スズキコウギョウショ,0
1615,7070001006454,登記記録の閉鎖等,0,2023-07-03,2023-06-29,関東人大株式会社,,株式会社,群馬県,高崎市,上大類町３２３番地３,,10,202,3700031,,,2023-06-29,清算の結了等,,,2015-10-05,1,,,,,カントウジンダイ,0
1632,7120001227499,登記記録の閉鎖等,0,2023-07-03,2023-06-27,株式会社上月,,株式会社,大阪府,寝屋川市,仁和寺本町６丁目１０番１０－５０８号,,27,215,5720076,,,2023-06-27,清算の結了等,,,2020-03-03,1,,,,,ジョウゲツ,0
1639,7120901025374,登記記録の閉鎖等,0,2023-07-03,2023-06-26,株式会社ヒロモリ,,株式会社,大阪府,豊中市,南桜塚１丁目１０番３号,,27,203,5610882,,,2023-06-26,清算の結了等,,,2015-10-05,1,,,,,ヒロモリ,0
1649,7180001026400,登記記録の閉鎖等,0,2023-07-03,2023-06-26,株式会社丸の内管財,,株式会社,愛知県,名古屋市中区,丸の内３丁目７番９号,,23,106,4600002,,,2023-06-26,清算の結了等,,,2015-10-05,1,,,,,マルノウチカンザイ,0
1664,7180301012942,登記記録の閉鎖等,0,2023-07-03,2023-06-21,株式会社城盛,,株式会社,愛知県,安城市,城ケ入町団戸１７３番地１８,,23,212,4441202,,,2023-06-21,清算の結了等,,,2015-10-05,1,,,,,シロモリ,0
1668,7200002021546,登記記録の閉鎖等,0,2023-07-03,2023-06-27,福美陶料有限会社,,有限会社,岐阜県,土岐市,土岐津町土岐口７７４番地の４,,21,212,5095122,,,2023-06-27,清算の結了等,,,2015-10-05,1,,,,,フクミトウリョウ,0
1674,7240001035287,登記記録の閉鎖等,0,2023-07-03,2023-06-28,株式会社近畿メディカル整体学院,,株式会社,広島県,福山市,春日町６丁目２０番１７号,,34,207,7210907,,,2023-06-28,清算の結了等,,,2015-10-05,1,,,,,キンキメディカルセイタイガクイン,0
1683,7300002011322,登記記録の閉鎖等,0,2023-07-03,2023-06-23,有限会社光洋海運,,有限会社,佐賀県,唐津市,山本１７３７番地９,,41,202,8470002,,,2023-06-23,清算の結了等,,,2015-10-05,1,,,,,コウヨウカイウン,0
1692,7380001030497,登記記録の閉鎖等,0,2023-07-03,2023-06-27,株式会社Ｆｒｅｅ・Ｓｔｙｌｅ・Ｌｉｎｏ,,株式会社,福島県,会津若松市,幕内南町５番１２号,,07,202,9650849,,,2023-06-27,清算の結了等,,,2019-12-03,1,,,,,フリースタイルリノ,0
1700,7430001046182,登記記録の閉鎖等,0,2023-07-03,2023-06-29,株式会社工芸社,,株式会社,北海道,札幌市南区,澄川六条１１丁目２２番８号,,01,106,0050006,,,2023-06-29,清算の結了等,,,2015-10-05,1,,,,,コウゲイシャ,0
1729,8010001060200,登記記録の閉鎖等,0,2023-07-03,2023-06-27,ライフ・ベンチャー株式会社,,株式会社,東京都,中央区,八重洲１丁目７番２０号,,13,102,1030028,,,2023-06-27,清算の結了等,,,2015-10-05,1,,,,,ライフベンチャー,0
1730,8010001112967,登記記録の閉鎖等,0,2023-07-03,2023-06-27,株式会社クロス,,株式会社,東京都,中央区,銀座１丁目２２番１１号銀座大竹ビジデンス２Ｆ,,13,102,1040061,,,2023-06-27,清算の結了等,,,2015-10-05,1,,,,,クロス,0
1745,8010002020260,登記記録の閉鎖等,0,2023-07-03,2023-06-26,有限会社ささや石橋,,有限会社,東京都,中央区,築地６丁目２６番３号,,13,102,1040045,,,2023-06-26,清算の結了等,,,2015-10-05,1,,,,,ササヤイシバシ,0
1759,8010802005782,登記記録の閉鎖等,0,2023-07-03,2023-06-28,有限会社斎藤架設工業,,有限会社,東京都,大田区,西蒲田２丁目１０番３号,,13,111,1440051,,,2023-06-28,清算の結了等,,,2015-10-05,1,,,,,,0
1769,8011001146641,登記記録の閉鎖等,0,2023-07-03,2023-06-29,株式会社ウィンセット,,株式会社,東京都,渋谷区,松濤１丁目１４番３号,,13,113,1500046,,,2023-06-29,清算の結了等,,,2022-04-06,1,,,,,ウィンセット,0
1772,8011002025539,登記記録の閉鎖等,0,2023-07-03,2023-06-29,有限会社ケイ・エヌ・ワイ,,有限会社,東京都,渋谷区,笹塚２丁目２２番１６号,00064964,13,113,1510073,,,2023-06-29,清算の結了等,,,2015-10-05,1,,,,,,0
1818,8021002046872,登記記録の閉鎖等,0,2023-07-03,2023-06-27,有限会社藤川成工,,有限会社,神奈川県,綾瀬市,早川２６０５番地２８,,14,218,2521123,,,2023-06-27,清算の結了等,,,2015-10-05,1,,,,,,0
1821,8021002066086,登記記録の閉鎖等,0,2023-07-03,2023-06-27,日昇工業有限会社,,有限会社,神奈川県,横須賀市,大矢部２丁目８番１号,,14,201,2380024,,,2023-06-27,清算の結了等,,,2015-10-05,1,,,,,,0
1856,8070002020486,登記記録の閉鎖等,0,2023-07-03,2023-06-29,有限会社東毛総合保険事務所,,有限会社,群馬県,伊勢崎市,境下武士２７０９番地の１,,10,204,3700126,,,2023-06-29,清算の結了等,,,2015-10-05,1,,,,,トウモウソウゴウホケンジムショ,0
1863,8080405000200,登記記録の閉鎖等,0,2023-07-03,2023-06-28,学校法人昭和学園,,その他の設立登記法人,静岡県,浜松市中区,向宿１丁目８番１５号,,22,131,4300851,,,2023-06-28,清算の結了等,,,2015-10-05,1,,,,,ショウワガクエン,0
1867,8090002014701,登記記録の閉鎖等,0,2023-07-03,2023-06-22,有限会社秋山鈑金自動車整備工場,,有限会社,山梨県,南巨摩郡富士川町,最勝寺１０７４番地,,19,368,4000502,,,2023-06-22,清算の結了等,,,2015-10-05,1,,,,,アキヤマバンキンジドウシャセイビコウジョウ,0
1877,8120001154180,登記記録の閉鎖等,0,2023-07-03,2023-06-26,株式会社アドベンチャー,,株式会社,大阪府,寝屋川市,香里南之町５番１０号,,27,215,5720084,,,2023-06-26,清算の結了等,,,2015-10-05,1,,,,,アドベンチャー,0
1879,8120001228835,登記記録の閉鎖等,0,2023-07-03,2023-06-19,株式会社サンズネオ,,株式会社,大阪府,大阪市中央区,南久宝寺町１丁目４番７号,,27,128,5410058,,,2023-06-19,清算の結了等,,,2020-04-24,1,,,,,サンズネオ,0
1882,8120101004789,登記記録の閉鎖等,0,2023-07-03,2023-06-30,株式会社谷田経営センター,,株式会社,大阪府,堺市堺区,新町４番７号,,27,141,5900079,,,2023-06-30,清算の結了等,,,2015-10-05,1,,,,,タニダケイエイセンター,0
1885,8122001029676,登記記録の閉鎖等,0,2023-07-03,2023-06-30,株式会社小川鉄工所,,株式会社,大阪府,東大阪市,布市町１丁目４番１５号,,27,227,5798004,,,2023-06-30,清算の結了等,,,2016-06-06,1,,,,,オガワテッコウショ,0
1918,8210002002676,登記記録の閉鎖等,0,2023-07-03,2023-06-26,有限会社西端ブロック,,有限会社,福井県,福井市,大願寺１丁目７番８号,,18,201,9100001,,,2023-06-26,清算の結了等,,,2015-10-05,1,,,,,ニシバタブロック,0
1931,8270001000122,登記記録の閉鎖等,0,2023-07-03,2023-05-31,大西タイヤ株式会社,,株式会社,鳥取県,鳥取市,岩吉２１１番地,,31,201,6800931,,,2023-05-31,合併による解散等,7270001002549,令和５年５月３１日鳥取市湖山町東五丁目３６８番地株式会社若狭屋（7270001002549）に合併し解散,2015-10-05,1,,,,,オオニシタイヤ,0
1932,8270001003067,登記記録の閉鎖等,0,2023-07-03,2023-05-31,株式会社きたむら自動車整備工場,,株式会社,鳥取県,鳥取市,湖山町東５丁目３６８番地,,31,201,6800942,,,2023-05-31,合併による解散等,7270001002549,令和５年５月３１日鳥取市湖山町東五丁目３６８番地株式会社若狭屋（7270001002549）に合併し解散,2015-10-05,1,,,,,キタムラジドウシャセイビコウジョウ,0
1962,8420001005171,登記記録の閉鎖等,0,2023-07-03,2023-06-23,株式会社ＥＭＺコンサルティング,,株式会社,青森県,青森市,中央４丁目１４番９号,,02,201,0300822,,,2023-06-23,清算の結了等,,,2015-10-05,1,,,,,エムズコンサルティング,0
2007,9010001058417,登記記録の閉鎖等,0,2023-07-03,2023-06-26,ミナト製薬株式会社,,株式会社,東京都,中央区,銀座１丁目１４番１１号,,13,102,1040061,,,2023-06-26,清算の結了等,,,2015-10-05,1,,,,,,0
2047,9011302002360,登記記録の閉鎖等,0,2023-07-03,2023-06-29,有限会社カーディナル,,有限会社,東京都,杉並区,浜田山４丁目２７番２５号,,13,115,1680065,,,2023-06-29,清算の結了等,,,2015-10-05,1,,,,,カーディナル,0
2071,9020005012666,登記記録の閉鎖等,0,2023-07-03,2023-06-26,一般社団法人日本トランスライフ協会,,その他の設立登記法人,神奈川県,横浜市磯子区,森２丁目１８番１７号,,14,107,2350023,,,2023-06-26,清算の結了等,,,2016-06-09,1,,,,,ニホントランスライフキョウカイ,0
2086,9030002065732,登記記録の閉鎖等,0,2023-07-03,2023-06-14,有限会社克之介事務所,,有限会社,埼玉県,新座市,片山２丁目８番１１号,,11,230,3520025,,,2023-06-14,清算の結了等,,,2015-10-05,1,,,,,カツノスケジムショ,0
2105,9110001008188,登記記録の閉鎖等,0,2023-07-03,2023-06-26,ニットーボー新潟株式会社,,株式会社,新潟県,新潟市東区,東新町６番５０号,,15,102,9500065,,,2023-06-26,清算の結了等,,,2015-10-05,1,,,,,ニットーボーニイガタ,0
2120,9120102027367,登記記録の閉鎖等,0,2023-07-03,2023-06-29,有限会社神保塗装,,有限会社,大阪府,阪南市,さつき台１丁目６番２号,,27,232,5990215,,,2023-06-29,清算の結了等,,,2015-10-05,1,,,,,,0
2143,9180001090923,登記記録の閉鎖等,0,2023-07-03,2023-06-27,電脳広告株式会社,,株式会社,愛知県,名古屋市中村区,豊国通４丁目１８番地サンクレーア岩塚５０３号,,23,105,4530834,,,2023-06-27,清算の結了等,,,2015-10-05,1,,,,,デンノウコウコク,0
2151,9180005017708,登記記録の閉鎖等,0,2023-07-03,2023-06-29,一般社団法人中日本ガラスびんリサイクル協会,,その他の設立登記法人,愛知県,北名古屋市,徳重小崎３９番地２,,23,234,4810038,,,2023-06-29,清算の結了等,,,2018-03-07,1,,,,,ナカニホンガラスビンリサイクルキョウカイ,0
2163,9240001031268,登記記録の閉鎖等,0,2023-07-03,2023-06-27,株式会社高橋ポンプ工業所,,株式会社,広島県,福山市,今津町６丁目１４番４５号,,34,207,7290111,,,2023-06-27,清算の結了等,,,2015-10-05,1,,,,,タカハシポンプコウギョウショ,0
2164,9240001036630,登記記録の閉鎖等,0,2023-07-03,2023-06-29,株式会社フロイデ,,株式会社,広島県,安芸郡海田町,南堀川町１番４４号,,34,304,7360044,,,2023-06-29,清算の結了等,,,2015-10-05,1,,,,,フロイデ,0
