sequenceNumber,corporateNumber,process,correct,updateDate,changeDate,name,nameImageId,kind,prefectureName,cityName,streetNumber,addressImageId,prefectureCode,cityCode,postCode,addressOutside,addressOutsideImageId,closeDate,closeCause,successorCorporateNumber,changeCause,assignmentDate,latest,enName,enPrefectureName,enCityName,enAddressOutside,furigana,hihyoji
7,1010001261390,新規,0,2025-12-25,2025-12-25,株式会社雅,,株式会社,東京都,中央区,銀座１丁目２２番１１号銀座大竹ビジデンス２Ｆ,,13,102,1040061,,,,,,,2025-12-25,1,,,,,ミヤビ,0
8,1010001261432,新規,0,2025-12-25,2025-12-25,スイスロック株式会社,,株式会社,東京都,中央区,日本橋室町１丁目１１番１２号日本橋水野ビル７階,,13,102,1030022,,,,,,,2025-12-25,1,,,,,スイスロック,0
9,1010001261498,新規,0,2025-12-25,2025-12-25,太和堂製薬工業株式会社,,株式会社,東京都,文京区,千石４丁目１４番９号,,13,105,1120011,,,,,,,2025-12-25,1,,,,,タイワドウセイヤクコウギョウ,0
10,1010003049834,新規,0,2025-12-25,2025-12-25,コスモス合同会社,,合同会社,東京都,千代田区,麹町５丁目１番地９階成倫税理士法人内,,13,101,1020083,,,,,,,2025-12-25,1,,,,,コスモス,0
11,1010003049842,新規,0,2025-12-25,2025-12-25,Ｒｉｖａｇｅ　Ａｌｐｉｎ合同会社,,合同会社,東京都,千代田区,霞が関３丁目２－５霞が関ビルディング３１階ＯｎｅＡｓｉａ法律事務所内,,13,101,1000013,,,,,,,2025-12-25,1,,,,,リヴァージュアルパイン,0
15,1010005041120,新規,0,2025-12-25,2025-12-25,一般社団法人ムーン,,その他の設立登記法人,東京都,千代田区,麹町５丁目１番地９階成倫税理士法人内,,13,101,1020083,,,,,,,2025-12-25,1,,,,,ムーン,0
21,1010401194950,新規,0,2025-12-25,2025-12-25,株式会社Ｅｑｕｉｔｙ　Ｐｒｉｍｅ　Ｏｆｆｉｃｅ,,株式会社,東京都,港区,南青山３丁目５番２号南青山第一韮澤ビル３階３１５号室,,13,103,1070062,,,,,,,2025-12-25,1,,,,,エクイティプライムオフィス,0
22,1010401195387,新規,0,2025-12-25,2025-12-25,株式会社寶船,,株式会社,東京都,港区,三田１丁目３番３５号三田ＳＵＮビル３階,,13,103,1080073,,,,,,,2025-12-25,1,,,,,タカラブネ,0
24,1010403036878,新規,0,2025-12-25,2025-12-25,ＨｕｍａＮｅｘ．ＡＩ合同会社,,合同会社,東京都,港区,北青山１丁目３番１号アールキューブ青山３階,,13,103,1070061,,,,,,,2025-12-25,1,,,,,ヒューマネックスエイアイ,0
25,1010503008125,新規,0,2025-12-25,2025-12-25,合同会社やなか事務所,,合同会社,東京都,台東区,谷中１丁目３番４号,,13,106,1100001,,,,,,,2025-12-25,1,,,,,ヤナカジムショ,0
32,1010703008040,新規,0,2025-12-25,2025-12-25,ポケッツ合同会社,,合同会社,東京都,品川区,東品川４丁目５番８－８３４号,,13,109,1400002,,,,,,,2025-12-25,1,,,,,ポケッツ,0
35,1010903010523,新規,0,2025-12-25,2025-12-25,合同会社ＦＵＬＬＨＡＵＳ,,合同会社,東京都,世田谷区,下馬１丁目１９番１４グリーンオアシス２０１号,,13,112,1540002,,,,,,,2025-12-25,1,,,,,フルハウス,0
40,1011001174574,新規,0,2025-12-25,2025-12-25,株式会社５００,,株式会社,東京都,目黒区,下目黒２丁目１６番２０号,,13,110,1530064,,,,,,,2025-12-25,1,,,,,ファイブハンドレッド,0
42,1011003023085,新規,0,2025-12-25,2025-12-25,合同会社シーベルウッド,,合同会社,東京都,渋谷区,恵比寿西２丁目８番４号ＥＸ恵比寿西ビル５階,,13,113,1500021,,,,,,,2025-12-25,1,,,,,シーベルウッド,0
49,1011101114125,新規,0,2025-12-25,2025-12-25,アイパートナー株式会社,,株式会社,東京都,新宿区,西早稲田２丁目２１番５ホームズ西早稲田１階,,13,104,1690051,,,,,,,2025-12-25,1,,,,,アイパートナー,0
50,1011103016880,新規,0,2025-12-25,2025-12-25,合同会社ワークデザイン東新宿,,合同会社,東京都,新宿区,富久町２４番５号,,13,104,1620067,,,,,,,2025-12-25,1,,,,,ワークデザインヒガシシンジュク,0
52,1011401027687,新規,0,2025-12-25,2025-12-25,フィーズ株式会社,,株式会社,東京都,板橋区,前野町３丁目４４番１２号グランシティ志村坂上４０１号室,,13,119,1740063,,,,,,,2025-12-25,1,,,,,フィーズ,0
57,1011703004491,新規,0,2025-12-25,2025-12-25,合同会社ＫＨ．Ｐｒｏｄｕｃｔ,,合同会社,東京都,江戸川区,江戸川２丁目３７番１１,,13,123,1320013,,,,,,,2025-12-25,1,,,,,ケーエイチプロダクツ,0
66,1020001166416,新規,0,2025-12-25,2025-12-25,ロイヤル株式会社,,株式会社,神奈川県,横浜市青葉区,奈良４丁目１番地１ルクサージュあおば山の手台Ｄ棟１３０３号室,,14,117,2270038,,,,,,,2025-12-25,1,,,,,ロイヤル,0
71,1021001087123,新規,0,2025-12-25,2025-12-25,麒麟産業株式会社,,株式会社,神奈川県,相模原市南区,麻溝台７０９番地１,,14,153,2520328,,,,,,,2025-12-25,1,,,,,キリンサンギョウ,0
78,1021003016947,新規,0,2025-12-25,2025-12-25,アーク総合設備合同会社,,合同会社,神奈川県,茅ヶ崎市,赤羽根２４６４番地９,,14,207,2530001,,,,,,,2025-12-25,1,,,,,アークソウゴウセツビ,0
79,1021005013505,新規,0,2025-12-25,2025-12-25,一般社団法人鎌倉市建設業協会,,その他の設立登記法人,神奈川県,鎌倉市,梶原１丁目１番１２号,,14,204,2470063,,,,,,,2025-12-25,1,,,,,カマクラシケンセツギョウキョウカイ,0
86,1030001170301,新規,0,2025-12-25,2025-12-25,株式会社Ｗａｒｍ　Ａｇｅ,,株式会社,埼玉県,本庄市,沼和田３０６番地３,,11,211,3670072,,,,,,,2025-12-25,1,,,,,ウォームエイジ,0
88,1030003028340,新規,0,2025-12-25,2025-12-25,セツ商事合同会社,,合同会社,埼玉県,川口市,西川口１丁目３０番２０－４０５号,,11,203,3320021,,,,,,,2025-12-25,1,,,,,セツショウジ,0
89,1030003028349,新規,0,2025-12-25,2025-12-25,合同会社開心社,,合同会社,埼玉県,さいたま市南区,南浦和３丁目１１－１６南浦和第３ローヤルコーポ４０７号室,,11,108,3360017,,,,,,,2025-12-25,1,,,,,カイシンシャ,0
90,1030005022374,新規,0,2025-12-25,2025-12-25,一般社団法人ＤＦＣＰ,,その他の設立登記法人,埼玉県,川越市,大字大袋７３２,,11,201,3501168,,,,,,,2025-12-25,1,,,,,ディーエフシーピー,0
97,1040001141854,新規,0,2025-12-25,2025-12-25,株式会社ｍｅ‐ｇｒｏｗホールディングス,,株式会社,千葉県,鎌ケ谷市,東初富３丁目２１番１３号,,12,224,2730122,,,,,,,2025-12-25,1,,,,,ミーグロウホールディングス,0
98,1040001141920,新規,0,2025-12-25,2025-12-25,株式会社インテリアコマバ,,株式会社,千葉県,富里市,七栄２６７番地１６,,12,233,2860221,,,,,,,2025-12-25,1,,,,,インテリアコマバ,0
99,1040003029214,新規,0,2025-12-25,2025-12-25,インポリ合同会社,,合同会社,千葉県,柏市,豊四季９７３番地２,,12,217,2770863,,,,,,,2025-12-25,1,,,,,インポリ,0
103,1050003009834,新規,0,2025-12-25,2025-12-25,合同会社紡不動産管理,,合同会社,茨城県,日立市,金沢町２丁目５番３２号,,08,202,3160015,,,,,,,2025-12-25,1,,,,,ツムギフドウサンカンリ,0
106,1070001043676,新規,0,2025-12-25,2025-12-25,株式会社ＳＨＩＶＡ　ＳＨＡＫＴＩ,,株式会社,群馬県,前橋市,上小出町２丁目１７番地３４,,10,201,3710037,,,,,,,2025-12-25,1,,,,,シバシャクティ,0
109,1080001027348,新規,0,2025-12-25,2025-12-25,株式会社ジャパンおみやげセンター,,株式会社,静岡県,静岡市葵区,栄町２番地５アークビルディング５０２,,22,101,4200859,,,,,,,2025-12-25,1,,,,,ジャパンオミヤゲセンター,0
121,1120003031541,新規,0,2025-12-25,2025-12-25,オーレリアブルーム合同会社,,合同会社,大阪府,大阪市中央区,糸屋町２丁目３番７号,,27,128,5400022,,,,,,,2025-12-25,1,,,,,オーレリアブルーム,0
122,1120003031566,新規,0,2025-12-25,2025-12-25,合同会社ｅａｇｌｅ,,合同会社,大阪府,大阪市西区,西本町２丁目１番２７号,,27,106,5500005,,,,,,,2025-12-25,1,,,,,イーグル,0
123,1120003031574,新規,0,2025-12-25,2025-12-25,合同会社Ｌｕｃｋｙ,,合同会社,大阪府,大阪市浪速区,恵美須西２丁目１４番２１－３０１号,,27,111,5560003,,,,,,,2025-12-25,1,,,,,ラッキー,0
127,1120101072990,新規,0,2025-12-25,2025-12-25,株式会社太空製作所,,株式会社,大阪府,泉南市,男里３丁目２番３６号,,27,228,5900526,,,,,,,2025-12-25,1,,,,,オオゾラセイサクショ,0
128,1120103006914,新規,0,2025-12-25,2025-12-25,ＲｏｍＣａ合同会社,,合同会社,大阪府,堺市堺区,四条通５番１０号,,27,141,5900045,,,,,,,2025-12-25,1,,,,,ロムカ,0
133,1120903006007,新規,0,2025-12-25,2025-12-25,合同会社セラヴィ,,合同会社,大阪府,吹田市,南吹田５丁目２番５号エムハウス２Ｆ,,27,205,5640043,,,,,,,2025-12-25,1,,,,,セラヴィ,0
135,1122001040029,新規,0,2025-12-25,2025-12-25,福祉学習センター株式会社,,株式会社,大阪府,東大阪市,鳥居町６－１２,,27,227,5798035,,,,,,,2025-12-25,1,,,,,フクシガクシュウセンター,0
138,1130001081265,新規,0,2025-12-25,2025-12-25,灯星コンサルティング株式会社,,株式会社,京都府,京都市上京区,烏丸通上御霊前下る相国寺門前町６７０番地８,,26,102,6020898,,,,,,,2025-12-25,1,,,,,トウセイコンサルティング,0
142,1130003011030,新規,0,2025-12-25,2025-12-25,ｊｎｎｅｌｋｕ合同会社,,合同会社,京都府,京都市下京区,七条通油小路東入大黒町２２７番地第２キョートビル４０２,,26,106,6008223,,,,,,,2025-12-25,1,,,,,ジェイエヌネルク,0
146,1140003023000,新規,0,2025-12-25,2025-12-25,合同会社Ｓｃｈａｔｚ　Ｗｏｒｔ,,合同会社,兵庫県,尼崎市,西難波町１丁目１１番９号,,28,202,6600893,,,,,,,2025-12-25,1,,,,,シャッツヴォルト,0
147,1140005027742,新規,0,2025-12-25,2025-12-25,税理士法人ＮＡＵＴ,,その他の設立登記法人,兵庫県,神戸市中央区,海岸通８番神港ビルヂング１階,,28,110,6500024,,,,,,,2025-12-25,1,,,,,ノート,0
150,1160003003693,新規,0,2025-12-25,2025-12-25,京電合同会社,,合同会社,滋賀県,草津市,東草津２丁目６番１－７号,,25,206,5250033,,,,,,,2025-12-25,1,,,,,キョウデン,0
165,1180003029547,新規,0,2025-12-25,2025-12-25,合同会社向陽,,合同会社,愛知県,名古屋市中村区,太閤１丁目１番８号,,23,105,4530801,,,,,,,2025-12-25,1,,,,,コウヨウ,0
168,1180005021353,新規,0,2025-12-25,2025-12-25,一般社団法人ＳｐａｒｋＬｉｎｋ　Ｊａｐａｎコンソーシアム,,その他の設立登記法人,愛知県,名古屋市中区,錦２丁目４番１５号ＯＲＥ錦二丁目ビル,,23,106,4600003,,,,,,,2025-12-25,1,,,,,スパークリンクジャパンコンソーシアム,0
172,1180303006840,新規,0,2025-12-25,2025-12-25,合同会社ＭＥＲＹＤＳ,,合同会社,愛知県,豊川市,金塚町２丁目６３番地,,23,207,4420872,,,,,,,2025-12-25,1,,,,,メリーズ,0
180,1230003002556,新規,0,2025-12-25,2025-12-25,ＧＳＴ　Ｍａｍｍｏｔｈ１‐１合同会社,,合同会社,富山県,南砺市,本町１丁目１６番地,,16,210,9320217,,,,,,,2025-12-25,1,,,,,ジーエスティーマンモスワンダッシュワン,0
192,1290005019931,新規,0,2025-12-25,2025-12-25,医療法人トレリア,,その他の設立登記法人,福岡県,福津市,福間南１丁目１１５０－３,,40,224,8113212,,,,,,,2025-12-25,1,,,,,トレリア,0
198,1330001033865,新規,0,2025-12-25,2025-12-25,株式会社將,,株式会社,熊本県,菊池市,大平６３０番地２,,43,210,8611683,,,,,,,2025-12-25,1,,,,,ショウ,0
205,1360003015504,新規,0,2025-12-25,2025-12-25,ＮＥＷ　Ｂｉｇｉｎｎｉｎｇ．合同会社,,合同会社,沖縄県,中頭郡北谷町,字吉原９４４番地,,47,326,9040105,,,,,,,2025-12-25,1,,,,,ニュービギニング,0
206,1360003015512,新規,0,2025-12-25,2025-12-25,合同会社Ｓｐｏｒｔｉｖａ,,合同会社,沖縄県,中頭郡北谷町,北谷２丁目６番地４ＫＡＺＵ・ＨＯＵＳＥ,,47,326,9040116,,,,,,,2025-12-25,1,,,,,スポルティーバ,0
207,1370001053348,新規,0,2025-12-25,2025-12-25,ジャンボ株式会社,,株式会社,宮城県,宮城郡七ヶ浜町,菖蒲田浜字長砂１９番地の６２,,04,404,9850811,,,,,,,2025-12-25,1,,,,,ジャンボ,0
211,1380001035766,新規,0,2025-12-25,2025-12-25,株式会社ＧＩＲＵ‐ＴＥＣ,,株式会社,福島県,いわき市,平豊間字柳町１４３番地１６,,07,204,9700224,,,,,,,2025-12-25,1,,,,,ギルテック,0
220,1430001095929,新規,0,2025-12-25,2025-12-25,株式会社Ｓｏｌｖｉｅ,,株式会社,北海道,札幌市豊平区,平岸二条１１丁目１番８号ＦｒｅｅＣｏｕｒｔＩ－Ａ号,00142013,01,105,0620932,,,,,,,2025-12-25,1,,,,,ソルヴィエ,0
228,1500005008838,新規,0,2025-12-25,2025-12-25,川之江機械製紙協同組合,,その他の設立登記法人,愛媛県,四国中央市,川之江町１９７５番地,,38,213,7990101,,,,,,,2025-12-25,1,,,,,カワノエキカイセイシ,0
231,1700150133619,新規,0,2025-12-25,2025-12-25,Ｓｈｅｎｚｈｅｎ　Ｊｉｎｇｚｅｊｉａ　Ｋｅｊｉ　Ｙｏｕｘｉａｎｇｏｎｇｓｉ,,外国会社等,,,,,,,,Ｒｏｏｍ　３０１，Ｂｌｏｃｋ　Ｂ，Ｔａｏｊｉｎｄｉ　Ｂｕｉｌｄｉｎｇ，Ｔｅｎｇｌｏｎｇ　Ｒｄ，Ｌｏｎｇｐｉｎｇ　Ｃｏｍｍｕｎｉｔｙ，Ｄａｌａｎｇ　Ｓｔｒｅｅｔ，Ｌｏｎｇｈｕａ　Ｄｉｓｔｒｉｃｔ，Ｓｈｅｎｚｈｅｎ,,,,,,2025-12-25,1,,,,,シェンジェンジンゾージャーコージーヨウシエンゴンスー,0
232,1700150133783,新規,0,2025-12-25,2025-12-25,杭州彩棠化粧品有限公司,,外国会社等,,,,,,,,Ｒｏｏｍ　６０２，Ｂｕｉｌｄｉｎｇ　１，Ｎｏ．５８８　Ｘｉｘｉ　Ｒｏａｄ，Ｘｉｈｕ　Ｄｉｓｔｒｉｃｔ　Ｈａｎｇｚｈｏｕ　Ｚｈｅｊｉａｎｇ,,,,,,2025-12-25,1,,,,,ハンジヨウツアイタンコスメテイツクスユウゲンカイシヤ,0
236,2010001261365,新規,0,2025-12-25,2025-12-25,株式会社ＰＯＮＴｉＳ,,株式会社,東京都,中央区,銀座１丁目１６－７銀座大栄ビル６Ｆ,,13,102,1040061,,,,,,,2025-12-25,1,,,,,ポンティス,0
237,2010001261472,新規,0,2025-12-25,2025-12-25,ＫＯＢテック株式会社,,株式会社,東京都,中央区,日本橋本町４丁目９番３号,,13,102,1030023,,,,,,,2025-12-25,1,,,,,ケーオービーテック,0
241,2010003049809,新規,0,2025-12-25,2025-12-25,ＢＯＡＳＴ　ＪＡＰＡＮ合同会社,,合同会社,東京都,中央区,新川１丁目２７番８号新川大原ビル８階,,13,102,1040033,,,,,,,2025-12-25,1,,,,,ブーストジャパン,0
242,2010003049833,新規,0,2025-12-25,2025-12-25,ムーン合同会社,,合同会社,東京都,千代田区,麹町５丁目１番地９階成倫税理士法人内,,13,101,1020083,,,,,,,2025-12-25,1,,,,,ムーン,0
243,2010003049841,新規,0,2025-12-25,2025-12-25,スマートワークスラボ合同会社,,合同会社,東京都,中央区,銀座１丁目１２番４号Ｎ＆ＥＢＬＤ．６Ｆ,,13,102,1040061,,,,,,,2025-12-25,1,,,,,スマートワークスラボ,0
251,2010405025102,新規,0,2025-12-25,2025-12-25,一般社団法人ＮＯＢＯＤＹ,,その他の設立登記法人,東京都,港区,六本木７丁目７番７号Ｔｒｉ－ＳｅｖｅｎＲｏｐｐｏｎｇｉ８階,,13,103,1060032,,,,,,,2025-12-25,1,,,,,ノーバディ,0
252,2010405025151,新規,0,2025-12-25,2025-12-25,一般社団法人女性活躍ＥＳＧ経営推進機構,,その他の設立登記法人,東京都,港区,虎ノ門１丁目１７－１虎ノ門ヒルズビジネスタワー１５階,,13,103,1050001,,,,,,,2025-12-25,1,,,,,ジョセイカツヤクイーエスジーケイエイスイシンキコウ,0
253,2010501055226,新規,0,2025-12-25,2025-12-25,Ｍｉｒａｓｏｎ株式会社,,株式会社,東京都,台東区,下谷２丁目２番１－７０５号ハイホーム入谷,,13,106,1100004,,,,,,,2025-12-25,1,,,,,ミラソン,0
254,2010503008124,新規,0,2025-12-25,2025-12-25,ＳＫＹ合同会社,,合同会社,東京都,台東区,台東１丁目２９－３－３１６,,13,106,1100016,,,,,,,2025-12-25,1,,,,,スカイ,0
265,2011101114454,新規,0,2025-12-25,2025-12-25,株式会社ライフノード,,株式会社,東京都,新宿区,大久保１丁目２－１,,13,104,1690072,,,,,,,2025-12-25,1,,,,,ライフノード,0
278,2011601029268,新規,0,2025-12-25,2025-12-25,株式会社クラリオ,,株式会社,東京都,練馬区,高野台３丁目２４－１,,13,120,1770033,,,,,,,2025-12-25,1,,,,,クラリオ,0
300,2020003030040,新規,0,2025-12-25,2025-12-25,合同会社ＣＲＥＳＣＥＮＤＯ　ＷＯＲＫＳ,,合同会社,神奈川県,川崎市高津区,新作６丁目１２－４－２,,14,134,2130014,,,,,,,2025-12-25,1,,,,,クレッシェンドワークス,0
310,2030001170300,新規,0,2025-12-25,2025-12-25,株式会社Ｗｅｌｉｎａ,,株式会社,埼玉県,川口市,弥平１丁目４番１号１０２,,11,203,3320002,,,,,,,2025-12-25,1,,,,,ウェリナ,0
311,2030001170309,新規,0,2025-12-25,2025-12-25,株式会社ストミル,,株式会社,埼玉県,草加市,松原２丁目３番５－４０２号,,11,221,3400041,,,,,,,2025-12-25,1,,,,,ストミル,0
312,2030003028348,新規,0,2025-12-25,2025-12-25,松文商貿合同会社,,合同会社,埼玉県,川口市,南町１丁目１３－３ワークタウンＡ室,,11,203,3320026,,,,,,,2025-12-25,1,,,,,ショウブンショウボウ,0
313,2030003028356,新規,0,2025-12-25,2025-12-25,ケーズオフィス合同会社,,合同会社,埼玉県,熊谷市,筑波２丁目５６－３渡辺総合ビル５Ｆ,,11,202,3600037,,,,,,,2025-12-25,1,,,,,ケーズオフィス,0
318,2040001141952,新規,0,2025-12-25,2025-12-25,株式会社日本第三者評価機関,,株式会社,千葉県,我孫子市,白山１丁目１５－１３,,12,222,2701154,,,,,,,2025-12-25,1,,,,,ニホンダイサンシャヒョウカキカン,0
320,2040003029130,新規,0,2025-12-25,2025-12-25,バーチャルアシスト合同会社,,合同会社,千葉県,船橋市,湊町３丁目１１番１１－１０１号,,12,204,2730011,,,,,,,2025-12-25,1,,,,,バーチャルアシスト,0
321,2040003029188,新規,0,2025-12-25,2025-12-25,合同会社ＳＥＩＣＲＥＳＴ,,合同会社,千葉県,船橋市,西習志野３丁目３番１１号,,12,204,2740815,,,,,,,2025-12-25,1,,,,,セイクレスト,0
326,2080101025977,新規,0,2025-12-25,2025-12-25,株式会社エースタイル,,株式会社,静岡県,三島市,徳倉３丁目１４番３１号,,22,206,4110044,,,,,,,2025-12-25,1,,,,,エースタイル,0
339,2120001282994,新規,0,2025-12-25,2025-12-25,株式会社Ａｃｒｅａ,,株式会社,大阪府,門真市,小路町２番１２号クリエ門真１０１号,,27,223,5710058,,,,,,,2025-12-25,1,,,,,アクレア,0
340,2120001283019,新規,0,2025-12-25,2025-12-25,炉冷庵株式会社,,株式会社,大阪府,大阪市浪速区,稲荷２丁目４－１８－２Ｆ,,27,111,5560023,,,,,,,2025-12-25,1,,,,,ロレイアン,0
341,2120001283027,新規,0,2025-12-25,2025-12-25,碧空株式会社,,株式会社,大阪府,大阪市中央区,島之内２丁目６－６－１０１ウーロ島之内,,27,128,5420082,,,,,,,2025-12-25,1,,,,,ヘキゾラ,0
344,2120003031573,新規,0,2025-12-25,2025-12-25,合同会社大宝,,合同会社,大阪府,大阪市淀川区,十三元今里１丁目１５－３,,27,123,5320028,,,,,,,2025-12-25,1,,,,,タイホウ,0
349,2122001040028,新規,0,2025-12-25,2025-12-25,株式会社ｅｇａｏｍａｋｅｒ,,株式会社,大阪府,柏原市,国分市場１丁目３１４２番地,,27,221,5820022,,,,,,,2025-12-25,1,,,,,エガオメーカー,0
354,2130001081289,新規,0,2025-12-25,2025-12-25,株式会社Ｒｅｚｏｒａ,,株式会社,京都府,京都市下京区,七条通油小路東入大黒町２２７－４０２,,26,106,6008223,,,,,,,2025-12-25,1,,,,,リゾラ,0
355,2130003011038,新規,0,2025-12-25,2025-12-25,Ｐｏｄｅｓｕ合同会社,,合同会社,京都府,京都市山科区,日ノ岡夷谷町１７番地１０９,,26,110,6078492,,,,,,,2025-12-25,1,,,,,ポデス,0
359,2140001141199,新規,0,2025-12-25,2025-12-25,紅忠物産株式会社,,株式会社,兵庫県,加古川市,西神吉町大国５９３－１,,28,210,6750044,,,,,,,2025-12-25,1,,,,,ベニチュウブッサン,0
360,2140003022950,新規,0,2025-12-25,2025-12-25,Ｔｅｒａｓ合同会社,,合同会社,兵庫県,西宮市,松ケ丘町１４－８,,28,204,6620061,,,,,,,2025-12-25,1,,,,,テラス,0
363,2140005027741,新規,0,2025-12-25,2025-12-25,一般社団法人翔徳会,,その他の設立登記法人,兵庫県,芦屋市,春日町７番３号サンクレール芦屋１０１,,28,206,6590021,,,,,,,2025-12-25,1,,,,,ショウトクカイ,0
372,2180001170062,新規,0,2025-12-25,2025-12-25,株式会社Ａｉｄ　ｉｎｃｌｕｄｅ,,株式会社,愛知県,名古屋市昭和区,鶴舞１丁目２番３２号,,23,107,4660064,,,,,,,2025-12-25,1,,,,,エイドインクルード,0
375,2180303006856,新規,0,2025-12-25,2025-12-25,エムエヌティ合同会社,,合同会社,愛知県,西尾市,楠村町北巴１７番地１,,23,213,4440325,,,,,,,2025-12-25,1,,,,,,0
377,2200001044552,新規,0,2025-12-25,2025-12-25,トトウ商事株式会社,,株式会社,岐阜県,大垣市,昼飯町６９番地１,,21,202,5032216,,,,,,,2025-12-25,1,,,,,トトウショウジ,0
382,2220001027043,新規,0,2025-12-25,2025-12-25,三愛建設株式会社,,株式会社,石川県,金沢市,押野２丁目３００番地,,17,201,9218056,,,,,,,2025-12-25,1,,,,,,0
383,2220003004197,新規,0,2025-12-25,2025-12-25,大賢総業合同会社,,合同会社,石川県,金沢市,粟崎町１丁目１－５６,,17,201,9200226,,,,,,,2025-12-25,1,,,,,,0
395,2240003007537,新規,0,2025-12-25,2025-12-25,合同会社ＮＩＵＮＩＵｐｒｏｄｕｃｔｓ,,合同会社,広島県,福山市,東深津町３丁目８番４３号,,34,207,7210974,,,,,,,2025-12-25,1,,,,,ニューニュープロダクツ,0
398,2260001040843,新規,0,2025-12-25,2025-12-25,株式会社莫尼山産業,,株式会社,岡山県,岡山市北区,津島京町１丁目６番３０号,,33,101,7000087,,,,,,,2025-12-25,1,,,,,モニサンサンギョウ,0
399,2270001009359,新規,0,2025-12-25,2025-12-25,株式会社とりぎん未来共創キャピタル,,株式会社,鳥取県,鳥取市,永楽温泉町１７１番地,,31,201,6800834,,,,,,,2025-12-25,1,,,,,トリギンミライキョウソウキャピタル,0
410,2310003005153,新規,0,2025-12-25,2025-12-25,大地総業合同会社,,合同会社,長崎県,長崎市,金堀町３９番１４号,,42,201,8528026,,,,,,,2025-12-25,1,,,,,ダイチソウギョウ,0
414,2330001033872,新規,0,2025-12-25,2025-12-25,株式会社あさがお,,株式会社,熊本県,熊本市中央区,渡鹿２丁目８番１１号,,43,101,8620970,,,,,,,2025-12-25,1,,,,,アサガオ,0
416,2350003005100,新規,0,2025-12-25,2025-12-25,加藤茶園合同会社,,合同会社,宮崎県,串間市,大字北方２６４３番地,,45,207,8880005,,,,,,,2025-12-25,1,,,,,カトウチャエン,0
423,2360003015511,新規,0,2025-12-25,2025-12-25,ＢＬＵＥ　ＨＡＢＵ合同会社,,合同会社,沖縄県,沖縄市,上地２丁目７－２６,,47,211,9040031,,,,,,,2025-12-25,1,,,,,ブルーハブ,0
430,2380001035765,新規,0,2025-12-25,2025-12-25,株式会社フロント・ドア,,株式会社,福島県,福島市,三河南町１番２０号コラッセふくしま６Ｆ,,07,201,9608053,,,,,,,2025-12-25,1,,,,,フロントドア,0
431,2380001035773,新規,0,2025-12-25,2025-12-25,株式会社金田設備工業,,株式会社,福島県,会津若松市,飯寺北１丁目６番１７号,,07,202,9650848,,,,,,,2025-12-25,1,,,,,カネダセツビコウギョウ,0
443,2430001095952,新規,0,2025-12-25,2025-12-25,セラーヴァ株式会社,,株式会社,北海道,札幌市豊平区,平岸三条５丁目５‐５‐４０１,,01,105,0620933,,,,,,,2025-12-25,1,,,,,セラーヴァ,0
447,2470003003026,新規,0,2025-12-25,2025-12-25,合同会社ＴＭＬＪＰ,,合同会社,香川県,三豊市,仁尾町仁尾辛４０番地３ビレッジハウス仁尾１号棟４０６,,37,208,7691406,,,,,,,2025-12-25,1,,,,,ティムルジェーピー,0
448,2470005006670,新規,0,2025-12-25,2025-12-25,一般社団法人ヤハウェアカデミー,,その他の設立登記法人,香川県,観音寺市,大野原町大野原２９２１番地,,37,205,7691611,,,,,,,2025-12-25,1,,,,,ヤハウェアカデミー,0
452,2500001026693,新規,0,2025-12-25,2025-12-25,見奈良交通株式会社,,株式会社,愛媛県,東温市,見奈良８６３番地の２,,38,215,7910211,,,,,,,2025-12-25,1,,,,,ミナラコウツウ,0
456,2700150133618,新規,0,2025-12-25,2025-12-25,Ｓｈｅｎｚｈｅｎ　ｓｈｉ　ｌｉｑｉ　Ｔｒａｄｉｎｇ　Ｃｏ．，Ｌｔｄ．,,外国会社等,,,,,,,,Ｌｏｎｇ　ｇａｎｇ　ｑｕ　ｂａｎ　ｔｉａｎ　ｊｉｅ　ｄａｏ　ｗｕ　ｈｅ　ｄａ　ｄａｏ　ｎａｎ　ｙａｎｇ　ｇｕａｎｇ　ｄｉ　ｗｕ　ｊｉ　ｈｕａ　ｙｕａｎ　ｙｏｎｇ　ｍｅｉ　ｇｅ　ｓａｎ　ｄａｎ　ｙｕａｎ　７Ｄ　Ｓｈｅｎｚｈｅｎ　Ｇｕａｎｇｄｏｎｇ　５１８１２９　ＣＮ,,,,,,2025-12-25,1,,,,,シェンジェンシーリーチーマオイーヨウシエンゴンスー,0
457,2700150133782,新規,0,2025-12-25,2025-12-25,ＣＯＬＡＭＹ　ＩＮＣ,,外国会社等,,,,,,,,１０９８５　ＯＬＥＡＮＤＥＲ　ＡＶＥＮＵＥＦＯＮＴＡＮＡ，ＣＡ　９２３３７,,,,,,2025-12-25,1,,,,,シーオーエルアーエムワイーアイエンシー,0
463,3010001261323,新規,0,2025-12-25,2025-12-25,株式会社４ｓｉ,,株式会社,東京都,中央区,日本橋浜町２丁目５８番４号パークヴィスタ日本橋浜町６０１号,,13,102,1030007,,,,,,,2025-12-25,1,,,,,フォーシー,0
464,3010001261389,新規,0,2025-12-25,2025-12-25,株式会社然,,株式会社,東京都,中央区,銀座１丁目２２番１１号銀座大竹ビジデンス２Ｆ,,13,102,1040061,,,,,,,2025-12-25,1,,,,,ゼン,0
465,3010001261455,新規,0,2025-12-25,2025-12-25,ＲＨ株式会社,,株式会社,東京都,千代田区,富士見２丁目２番１４号,,13,101,1020071,,,,,,,2025-12-25,1,,,,,アールエイチ,0
479,3010403036876,新規,0,2025-12-25,2025-12-25,Ｓｈａｒｋｓ　Ｍｏｔｉｏｎ　Ｐｉｃｔｕｒｅｓ合同会社,,合同会社,東京都,港区,南青山３丁目１番３６号青山丸竹ビル６Ｆ,,13,103,1070062,,,,,,,2025-12-25,1,,,,,シャークスモーションピクチャーズ,0
484,3010601068481,新規,0,2025-12-25,2025-12-25,オキュティ株式会社,,株式会社,東京都,江東区,亀戸６丁目１２番４号,,13,108,1360071,,,,,,,2025-12-25,1,,,,,オキュティ,0
486,3010603011984,新規,0,2025-12-25,2025-12-25,オーエン合同会社,,合同会社,東京都,江東区,豊洲４丁目１１番２０－７０７号,,13,108,1350061,,,,,,,2025-12-25,1,,,,,オーエン,0
489,3010701048821,新規,0,2025-12-25,2025-12-25,株式会社コダマアセットマネジメント,,株式会社,東京都,品川区,平塚１丁目１６番１号ＫＴＰビル４０１,,13,109,1420051,,,,,,,2025-12-25,1,,,,,コダマアセットマネジメント,0
494,3010903010521,新規,0,2025-12-25,2025-12-25,神門ラボラトリー合同会社,,合同会社,東京都,世田谷区,奥沢１丁目５５番２号,,13,112,1580083,,,,,,,2025-12-25,1,,,,,シンモンラボラトリー,0
501,3011001174556,新規,0,2025-12-25,2025-12-25,ミタス・パートナーズ株式会社,,株式会社,東京都,渋谷区,南平台町１６番２８号ＤＡＩＷＡ渋谷スクエア６２４,,13,113,1500036,,,,,,,2025-12-25,1,,,,,ミタスパートナーズ,0
502,3011001174572,新規,0,2025-12-25,2025-12-25,株式会社Ｒｉｃｏ　Ｇｒａｎｄｅ,,株式会社,東京都,渋谷区,恵比寿１丁目５番９号ＳＧ恵比寿ビル１１階,,13,113,1500013,,,,,,,2025-12-25,1,,,,,リコグランデ,0
503,3011001174580,新規,0,2025-12-25,2025-12-25,株式会社アルバリュー,,株式会社,東京都,渋谷区,道玄坂１丁目１０番８号渋谷道玄坂東急ビル２Ｆ,,13,113,1500043,,,,,,,2025-12-25,1,,,,,アルバリュー,0
507,3011103016879,新規,0,2025-12-25,2025-12-25,合同会社エビスカンパニー,,合同会社,東京都,新宿区,西新宿３丁目３番１３号西新宿水間ビル６階,,13,104,1600023,,,,,,,2025-12-25,1,,,,,エビスカンパニー,0
508,3011105011688,新規,0,2025-12-25,2025-12-25,一般社団法人アルテコード・ラボ,,その他の設立登記法人,東京都,新宿区,西新宿３丁目７番３３号ミツワバイナリー７０２,,13,104,1600023,,,,,,,2025-12-25,1,,,,,アルテコードラボ,0
522,3011603004953,新規,0,2025-12-25,2025-12-25,合同会社Ｐｏｗｄｅｒ　Ｃａｐｉｔａｌ,,合同会社,東京都,練馬区,練馬３丁目２３番１号ベルデ５０１,,13,120,1760001,,,,,,,2025-12-25,1,,,,,パウダーキャピタル,0
530,3011801047242,新規,0,2025-12-25,2025-12-25,株式会社Ｒｅｌｉａｂｌｅ＆Ｍｉｎｄｆｕｌ　Ｗｏｒｋｓ,,株式会社,東京都,足立区,西新井栄町２丁目１６番５号,,13,121,1230843,,,,,,,2025-12-25,1,,,,,リライアブルアンドマインドフルワークス,0
532,3012403007535,新規,0,2025-12-25,2025-12-25,バウムネスト合同会社,,合同会社,東京都,多摩市,落合１丁目４６－１ココリア多摩センター７階,,13,224,2060033,,,,,,,2025-12-25,1,,,,,バウムネスト,0
535,3013301055519,新規,0,2025-12-25,2025-12-25,株式会社ＥＳコンサル,,株式会社,東京都,豊島区,池袋３丁目５９番４－２０４号,,13,116,1710014,,,,,,,2025-12-25,1,,,,,イーエスコンサル,0
536,3013303008012,新規,0,2025-12-25,2025-12-25,合同会社ＮＣＭ,,合同会社,東京都,豊島区,目白３丁目４番１１号,,13,116,1710031,,,,,,,2025-12-25,1,,,,,エヌシーエム,0
537,3013303008020,新規,0,2025-12-25,2025-12-25,合同会社ＡＫＩ　ｘ　ＳＴＡＹ,,合同会社,東京都,豊島区,千早３丁目２７番６号,,13,116,1710044,,,,,,,2025-12-25,1,,,,,アキステイ,0
543,3020003030048,新規,0,2025-12-25,2025-12-25,合同会社八豊,,合同会社,神奈川県,横浜市港南区,港南中央通９番１４号ライオンズマンション５０１,,14,111,2330004,,,,,,,2025-12-25,1,,,,,,0
544,3020005017092,新規,0,2025-12-25,2025-12-25,一般社団法人コスギベース,,その他の設立登記法人,神奈川県,川崎市中原区,小杉町３丁目２４５番地中原区役所別棟２Ｆ,,14,133,2110063,,,,,,,2025-12-25,1,,,,,コスギベース,0
551,3021005013503,新規,0,2025-12-25,2025-12-25,一般社団法人日本あんしん共助組合,,その他の設立登記法人,神奈川県,厚木市,鳶尾２丁目２４番１－１０２号,,14,212,2430204,,,,,,,2025-12-25,1,,,,,ニホンアンシンキョウジョクミアイ,0
557,3040001141935,新規,0,2025-12-25,2025-12-25,株式会社松喜ＴＯＴＡＬ　ＷＯＲＫＳ,00142010,株式会社,千葉県,市川市,入船５番２－３０２号（ファサード行徳）,,12,203,2720134,,,,,,,2025-12-25,1,,,,,マツキトータルワークス,0
558,3040001141943,新規,0,2025-12-25,2025-12-25,株式会社ＳＫ企画,,株式会社,千葉県,流山市,西平井２丁目１３番地の１８,,12,220,2700156,,,,,,,2025-12-25,1,,,,,エスケーキカク,0
559,3040001141951,新規,0,2025-12-25,2025-12-25,株式会社ごりら,,株式会社,千葉県,旭市,三川４８７５番地３,,12,215,2892714,,,,,,,2025-12-25,1,,,,,ゴリラ,0
562,3040002090578,新規,0,2025-12-25,2025-12-25,有限会社タナカ建物管理,,有限会社,千葉県,柏市,南増尾２丁目７番１２号,,12,217,2770054,,,,,,,2025-12-25,1,,,,,タナカタテモノカンリ,0
563,3040003029212,新規,0,2025-12-25,2025-12-25,ＡＳＭ　Ｇｅｍｓ合同会社,,合同会社,千葉県,いすみ市,日在１９番地２,,12,238,2980002,,,,,,,2025-12-25,1,,,,,エーエスエムジェムズ,0
564,3050001057791,新規,0,2025-12-25,2025-12-25,四通商事株式会社,,株式会社,茨城県,笠間市,大渕８８番地１,,08,216,3091604,,,,,,,2025-12-25,1,,,,,ヨンツウショウジ,0
565,3050003009840,新規,0,2025-12-25,2025-12-25,合同会社トクスルファイナンス,,合同会社,茨城県,牛久市,奥原町５８８番地,,08,219,3001283,,,,,,,2025-12-25,1,,,,,トクスルファイナンス,0
567,3070003006233,新規,0,2025-12-25,2025-12-25,ジュピター国際センター合同会社,,合同会社,群馬県,北群馬郡榛東村,大字長岡２３８番地２,,10,344,3703501,,,,,,,2025-12-25,1,,,,,ジュピターコクサイセンター,0
569,3080101025976,新規,0,2025-12-25,2025-12-25,株式会社大城,,株式会社,静岡県,田方郡函南町,平井１７５３番地の４８６,,22,325,4190107,,,,,,,2025-12-25,1,,,,,オオシロ,0
571,3100001039215,新規,0,2025-12-25,2025-12-25,株式会社滝沢ファーム,,株式会社,長野県,南佐久郡南牧村,大字野辺山２３番地の１,,20,305,3841305,,,,,,,2025-12-25,1,,,,,タキザワファーム,0
572,3100003008531,新規,0,2025-12-25,2025-12-25,合同会社苔笑堂,,合同会社,長野県,上田市,上田原１２０８番地５,,20,203,3861102,,,,,,,2025-12-25,1,,,,,タイショウドウ,0
573,3100005013430,新規,0,2025-12-25,2025-12-25,一般社団法人長野県土地改良事業支援センター,,その他の設立登記法人,長野県,長野市,大字南長野字宮東４５２番地の１,,20,201,3810000,,,,,,,2025-12-25,1,,,,,ナガノケントチカイリョウジギョウシエンセンター,0
583,3120001282936,新規,0,2025-12-25,2025-12-25,星月の語株式会社,,株式会社,大阪府,大阪市中央区,島之内２丁目６－６－１０１ウーロ島之内,,27,128,5420082,,,,,,,2025-12-25,1,,,,,ホシゲツノカタリ,0
584,3120001283026,新規,0,2025-12-25,2025-12-25,優耐特株式会社,,株式会社,大阪府,大阪市中央区,島之内２丁目６－６－１０１ウーロ島之内,,27,128,5420082,,,,,,,2025-12-25,1,,,,,ユウタイトク,0
585,3120003031457,新規,0,2025-12-25,2025-12-25,合同会社ａｒｂｌｅｕ,,合同会社,大阪府,大阪市福島区,海老江１丁目５番３０－４２０号,,27,103,5530001,,,,,,,2025-12-25,1,,,,,アーブル,0
586,3120003031548,新規,0,2025-12-25,2025-12-25,合同会社帝塚山帽子本舗,00142007,合同会社,大阪府,大阪市住吉区,万代４丁目３番２３号帝塚山ガーデンヒルズ２０１号,00142008,27,120,5580055,,,,,,,2025-12-25,1,,,,,テヅカヤマボウシホンポ,0
587,3120003031564,新規,0,2025-12-25,2025-12-25,合同会社ＧｅｒｂｅｒａＬｉｎｋ,,合同会社,大阪府,大阪市淀川区,西三国３丁目１１番２３号,,27,123,5320006,,,,,,,2025-12-25,1,,,,,ガーベラリンク,0
588,3120003031572,新規,0,2025-12-25,2025-12-25,合同会社ＭＶＥＫＴＹ,,合同会社,大阪府,大阪市浪速区,湊町２丁目２－１０－２３０４,,27,111,5560017,,,,,,,2025-12-25,1,,,,,ムヴェクティ,0
594,3122001040027,新規,0,2025-12-25,2025-12-25,株式会社Ｓ．Ｙ．Ｓ,,株式会社,大阪府,大東市,太子田３丁目１番１７号８号室,,27,218,5740045,,,,,,,2025-12-25,1,,,,,エスワイエス,0
600,3130001081288,新規,0,2025-12-25,2025-12-25,株式会社みやこクリーンサービス,,株式会社,京都府,亀岡市,曽我部町寺蛇谷１７番地,,26,206,6210023,,,,,,,2025-12-25,1,,,,,ミヤコクリーンサービス,0
609,3140001141207,新規,0,2025-12-25,2025-12-25,インフォレスト株式会社,,株式会社,兵庫県,尼崎市,北竹谷町２丁目１０７番地,,28,202,6600878,,,,,,,2025-12-25,1,,,,,インフォレスト,0
611,3140003022999,新規,0,2025-12-25,2025-12-25,景福発電合同会社,,合同会社,兵庫県,明石市,天文町２丁目６番７号,,28,203,6730881,,,,,,,2025-12-25,1,,,,,ケイフクハツデン,0
612,3140003023007,新規,0,2025-12-25,2025-12-25,合同会社辰巳エステート,,合同会社,兵庫県,神戸市東灘区,向洋町中５丁目６番地の２－１５１２号,,28,101,6580032,,,,,,,2025-12-25,1,,,,,タツミエステート,0
615,3160001027313,新規,0,2025-12-25,2025-12-25,株式会社Ｇｌａｒｅ,,株式会社,滋賀県,野洲市,永原７１１番３号１－１号室,,25,210,5202304,,,,,,,2025-12-25,1,,,,,グレア,0
617,3180001170020,新規,0,2025-12-25,2025-12-25,株式会社レーヴ,,株式会社,愛知県,名古屋市名東区,社台３丁目２３９番地プラウド一社パークフロント７０５号,,23,115,4650092,,,,,,,2025-12-25,1,,,,,レーヴ,0
618,3180001170029,新規,0,2025-12-25,2025-12-25,株式会社ＡＴＯＺ,,株式会社,愛知県,名古屋市中区,錦２丁目７番地７号プラウドタワー名古屋錦６０５号,,23,106,4600003,,,,,,,2025-12-25,1,,,,,アットゼット,0
622,3180003029529,新規,0,2025-12-25,2025-12-25,合同会社制御設計,,合同会社,愛知県,名古屋市瑞穂区,岳見町５丁目２３番地の２ヴィーブル岳見２０３号,,23,108,4670043,,,,,,,2025-12-25,1,,,,,セイギョセッケイ,0
633,3250003003872,新規,0,2025-12-25,2025-12-25,合同会社スリーストライク,,合同会社,山口県,宇部市,大字上宇部２８４２－２６ドリームヒルズ３０４号,,35,202,7550091,,,,,,,2025-12-25,1,,,,,スリーストライク,0
636,3260003005463,新規,0,2025-12-25,2025-12-25,合同会社ＳｙｎＱ　Ｃｒｅａｔｉｖｅ,,合同会社,岡山県,玉野市,田井４丁目２５番１３号,,33,204,7060001,,,,,,,2025-12-25,1,,,,,シンククリエティブ,0
659,3310003005152,新規,0,2025-12-25,2025-12-25,合同会社Ａｒａｙｕｒｕ,,合同会社,長崎県,長崎市,戸町３丁目３番６号,,42,201,8500952,,,,,,,2025-12-25,1,,,,,アラユル,0
664,3330001033863,新規,0,2025-12-25,2025-12-25,株式会社ガレージＫＡＫＡ,,株式会社,熊本県,八代郡氷川町,高塚１５２９番地１,,43,468,8694802,,,,,,,2025-12-25,1,,,,,ガレージカカ,0
665,3330005011007,新規,0,2025-12-25,2025-12-25,一般社団法人相続不動産保全協会,,その他の設立登記法人,熊本県,熊本市東区,御領２丁目２８番１４号,,43,102,8618035,,,,,,,2025-12-25,1,,,,,ソウゾクフドウサンホゼンキョウカイ,0
673,3360001036186,新規,0,2025-12-25,2025-12-25,株式会社Ｋ　Ｃｒｅｗ,,株式会社,沖縄県,那覇市,真嘉比３丁目２０番２４号２階,,47,201,9020068,,,,,,,2025-12-25,1,,,,,ケークルー,0
679,3360003015502,新規,0,2025-12-25,2025-12-25,合同会社ＨＡＩＳＡＩ,,合同会社,沖縄県,宜野湾市,志真志２丁目５番１号,,47,205,9012213,,,,,,,2025-12-25,1,,,,,ハイサイ,0
681,3370001053338,新規,0,2025-12-25,2025-12-25,株式会社松石,,株式会社,宮城県,仙台市太白区,向山２丁目２番１号,,04,104,9820841,,,,,,,2025-12-25,1,,,,,マツイシ,0
682,3370003007408,新規,0,2025-12-25,2025-12-25,Ｄｉｅｕｖａｌ合同会社,,合同会社,宮城県,仙台市太白区,西中田５丁目１７－３０,,04,104,9811105,,,,,,,2025-12-25,1,,,,,デューヴァル,0
685,3380001035756,新規,0,2025-12-25,2025-12-25,株式会社Ｋ・ＴＥＣ,,株式会社,福島県,双葉郡大熊町,大字熊字新町５１５番地の７,,07,545,9791305,,,,,,,2025-12-25,1,,,,,ケーテック,0
686,3380001035764,新規,0,2025-12-25,2025-12-25,株式会社コスモスーツ,,株式会社,福島県,須賀川市,大字塩田字西ノ内１００番地,,07,207,9620000,,,,,,,2025-12-25,1,,,,,コスモスーツ,0
691,3430001095927,新規,0,2025-12-25,2025-12-25,株式会社ミロクデンタルラボ,,株式会社,北海道,札幌市中央区,宮の森二条１７丁目５番３号,,01,101,0640952,,,,,,,2025-12-25,1,,,,,ミロクデンタルラボ,0
692,3430001095935,新規,0,2025-12-25,2025-12-25,室蘭リンクス株式会社,,株式会社,北海道,室蘭市,大沢町１丁目２番８号,,01,205,0500086,,,,,,,2025-12-25,1,,,,,ムロランリンクス,0
695,3430005015377,新規,0,2025-12-25,2025-12-25,ＦＵＫＵＴＯＭＩ事業協同組合,,その他の設立登記法人,北海道,札幌市中央区,南五条西９丁目１０１６番地２３号ＳＡビル２Ｆ,,01,101,0640805,,,,,,,2025-12-25,1,,,,,フクトミ,0
697,3460101007795,新規,0,2025-12-25,2025-12-25,株式会社十勝ノ竈,,株式会社,北海道,中川郡池田町,字旭町１丁目９－１５,,01,644,0830001,,,,,,,2025-12-25,1,,,,,トカチノカマド,0
700,3700150133617,新規,0,2025-12-25,2025-12-25,Ｙｉｃｈａｎｇ　Ｔａｉｓｉｔｅ　Ｔｒａｄｉｎｇ　Ｃｏ．，Ｌｔｄ．,,外国会社等,,,,,,,,７－１－１５０１，Ｂｕｉｌｄｉｎｇ　７，Ｎｏ．１６　Ｘｉａｚｈｏｕ　Ａｖｅｎｕｅ，Ｘｉｌｉｎｇ　Ｄｉｓｔｒｉｃｔ，Ｙｉｃｈａｎｇ　Ｃｉｔｙ,,,,,,2025-12-25,1,,,,,イーチャンタイサイトトレーディングカンパニーリミテッド,0
701,3700150133781,新規,0,2025-12-25,2025-12-25,ｓｈｅｎｚｈｅｎｓｈｉｂａｉｋｅｚｈｉｎｅｎｇｊｉｃｈｅｎｇｙｏｕｘｉａｎｇｏｎｇｓｈｉ,,外国会社等,,,,,,,,Ｒｏｏｍ　６００８Ｗ－１，２７０－２７２　Ｂｏｔａｎｉｃａｌ　Ｇａｒｄｅｎ　Ｒｏａｄ，Ｐｉｎｇｎａｎ　Ｃｏｍｍｕｎｉｔｙ，Ｌｏｎｇｇａｎｇ　Ｓｕｂｄｉｓｔｒｉｃｔ，Ｌｏｎｇｇａｎｇ　Ｄｉｓｔｒｉｃｔ，Ｓｈｅｎｚｈｅｎ,,,,,,2025-12-25,1,,,,,シンセンシバイケチノウシュウセイユウゲンコウシ,0
709,4010001261198,新規,0,2025-12-25,2025-12-25,Ｓｈｉｆｔ　ＭＩＲＡＩ株式会社,,株式会社,東京都,中央区,銀座１丁目１２－４Ｎ＆ＥＢＬＤ．７階,,13,102,1040061,,,,,,,2025-12-25,1,,,,,シフトミライ,0
710,4010001261405,新規,0,2025-12-25,2025-12-25,株式会社ｇｉｆｔ,,株式会社,東京都,中央区,銀座１丁目１２番４号Ｎ＆ＥＢＬＤ．６階,,13,102,1040061,,,,,,,2025-12-25,1,,,,,ギフト,0
711,4010001261413,新規,0,2025-12-25,2025-12-25,株式会社ＳＨＩＮＢＡＳＨＩ,,株式会社,東京都,中央区,銀座１丁目２２番１１号銀座大竹ビジデンス２Ｆ,,13,102,1040061,,,,,,,2025-12-25,1,,,,,シンバシ,0
712,4010001261495,新規,0,2025-12-25,2025-12-25,宝悦株式会社,,株式会社,東京都,中央区,日本橋箱崎町６番９号ウィング箱崎ビル,,13,102,1030015,,,,,,,2025-12-25,1,,,,,ホウエツ,0
713,4010001261529,新規,0,2025-12-25,2025-12-25,株式会社日本橋ＴＡＫＵＭＩ,,株式会社,東京都,中央区,日本橋室町４丁目６番２号,,13,102,1030022,,,,,,,2025-12-25,1,,,,,ニホンバシタクミ,0
716,4010003049856,新規,0,2025-12-25,2025-12-25,市川塩浜ロジ合同会社,,合同会社,東京都,千代田区,丸の内１丁目４番１号東京共同会計事務所内,,13,101,1000005,,,,,,,2025-12-25,1,,,,,イチカワシオハマロジ,0
720,4010103002723,新規,0,2025-12-25,2025-12-25,Ｃｒｅａｔｉｖｅ合同会社,,合同会社,東京都,八王子市,追分町７番１４号シオン八王子４０５,,13,201,1920056,,,,,,,2025-12-25,1,,,,,クリエイティブ,0
739,4011001174646,新規,0,2025-12-25,2025-12-25,リウェリア株式会社,,株式会社,東京都,渋谷区,恵比寿西２丁目１１番４－５０２号,,13,113,1500021,,,,,,,2025-12-25,1,,,,,リウェリア,0
743,4011501032956,新規,0,2025-12-25,2025-12-25,株式会社雅裁,,株式会社,東京都,荒川区,南千住３丁目２７－２浅草ビル５０８,,13,118,1160003,,,,,,,2025-12-25,1,,,,,ガサイ,0
745,4011601029274,新規,0,2025-12-25,2025-12-25,宏駿株式会社,,株式会社,東京都,練馬区,石神井町３丁目３０－２０ＴＫビル３階７号室,,13,120,1770041,,,,,,,2025-12-25,1,,,,,コウシュン,0
753,4012801024437,新規,0,2025-12-25,2025-12-25,株式会社天使視覚リーりらっく,,株式会社,東京都,立川市,富士見町１丁目７番１７号新藤マンション１０５号室,,13,202,1900013,,,,,,,2025-12-25,1,,,,,テンシシカクリーリラック,0
761,4020001166371,新規,0,2025-12-25,2025-12-25,株式会社住まいクラウド,,株式会社,神奈川県,横浜市西区,平沼１丁目１３番１８－７０１号,,14,103,2200023,,,,,,,2025-12-25,1,,,,,スマイクラウド,0
766,4020003029923,新規,0,2025-12-25,2025-12-25,合同会社Ｌａｎｇｕａｇｅｃｏｒｅ,,合同会社,神奈川県,横浜市神奈川区,台町１－９－７０１,,14,102,2210834,,,,,,,2025-12-25,1,,,,,,0
767,4020003030039,新規,0,2025-12-25,2025-12-25,ハーツジェー合同会社,,合同会社,神奈川県,横浜市西区,浅間町１丁目４番３号ウィザードビル４０２,,14,103,2200072,,,,,,,2025-12-25,1,,,,,ハーツジェー,0
778,4030001170315,新規,0,2025-12-25,2025-12-25,株式会社ＦＬＡＴ,,株式会社,埼玉県,入間市,宮前町６番１０号５,,11,225,3580005,,,,,,,2025-12-25,1,,,,,フラット,0
787,4040001141926,新規,0,2025-12-25,2025-12-25,下総グッドハウス株式会社,,株式会社,千葉県,市川市,八幡２丁目９－１５,,12,203,2720021,,,,,,,2025-12-25,1,,,,,シモウサグッドハウス,0
788,4040001141934,新規,0,2025-12-25,2025-12-25,千尋エンジニアリング株式会社,,株式会社,千葉県,大網白里市,みどりが丘２丁目８番地７,,12,239,2993255,,,,,,,2025-12-25,1,,,,,チヒロエンジニアリング,0
790,4050001057782,新規,0,2025-12-25,2025-12-25,株式会社オーケン,,株式会社,茨城県,鹿嶋市,大字角折２９０５番地３,,08,222,3112212,,,,,,,2025-12-25,1,,,,,オーケン,0
793,4060001038880,新規,0,2025-12-25,2025-12-25,ナオイクリエイティブ株式会社,,株式会社,栃木県,那須塩原市,豊浦１２１―２３３,,09,213,3250023,,,,,,,2025-12-25,1,,,,,ナオイクリエイティブ,0
797,4070003006232,新規,0,2025-12-25,2025-12-25,Ｓ‐Ｎｅｘｔ合同会社,,合同会社,群馬県,桐生市,宮前町１丁目４番２５号エスコネクト宮前４号室,,10,203,3760046,,,,,,,2025-12-25,1,,,,,エスネクスト,0
799,4080401028348,新規,0,2025-12-25,2025-12-25,株式会社ＭＨＮ,,株式会社,静岡県,浜松市中央区,初生町５６３‐２６,,22,138,4338112,,,,,,,2025-12-25,1,,,,,エムエイチエヌ,0
816,4120001282935,新規,0,2025-12-25,2025-12-25,清澄静寂株式会社,00142006,株式会社,大阪府,大阪市中央区,島之内２丁目６－６－１０１ウーロ島之内,,27,128,5420082,,,,,,,2025-12-25,1,,,,,セイスミセイセキ,0
817,4120001283025,新規,0,2025-12-25,2025-12-25,永昌株式会社,,株式会社,大阪府,大阪市中央区,島之内２丁目６－６－１０１ウーロ島之内,,27,128,5420082,,,,,,,2025-12-25,1,,,,,エイマサ,0
821,4120003031555,新規,0,2025-12-25,2025-12-25,ｔｏＮＡ合同会社,,合同会社,大阪府,大阪市東淀川区,大道南１丁目３２－７,,27,114,5330012,,,,,,,2025-12-25,1,,,,,トーナ,0
822,4120003031563,新規,0,2025-12-25,2025-12-25,合同会社ネクストタイム,,合同会社,大阪府,大阪市淀川区,西三国４丁目６番２０－６０５号,,27,123,5320006,,,,,,,2025-12-25,1,,,,,ネクストタイム,0
823,4120003031571,新規,0,2025-12-25,2025-12-25,合同会社ＮＭＹ,,合同会社,大阪府,大阪市浪速区,稲荷１丁目１０－２８－５０１号,,27,111,5560023,,,,,,,2025-12-25,1,,,,,エヌエムワイ,0
828,4120101072996,新規,0,2025-12-25,2025-12-25,株式会社Ｋｕｐｕ,,株式会社,大阪府,阪南市,下出８８番地の２０,,27,232,5990202,,,,,,,2025-12-25,1,,,,,クプ,0
829,4120103006911,新規,0,2025-12-25,2025-12-25,合同会社ＡＰＫ蓄電,,合同会社,大阪府,南河内郡河南町,大字白木１０７８番地１,,27,382,5850014,,,,,,,2025-12-25,1,,,,,エーピーケーチクデン,0
832,4120901052025,新規,0,2025-12-25,2025-12-25,株式会社登工務店,,株式会社,大阪府,豊中市,二葉町２丁目５番９号,,27,203,5610825,,,,,,,2025-12-25,1,,,,,ノボルコウムテン,0
833,4120903006012,新規,0,2025-12-25,2025-12-25,ＹＡＭＡＩＣＨＩ合同会社,,合同会社,大阪府,豊中市,新千里東町２丁目７番１０６－７０９号,,27,203,5600082,,,,,,,2025-12-25,1,,,,,ヤマイチ,0
837,4122003003427,新規,0,2025-12-25,2025-12-25,合同会社Ｍａｋｅ　Ｕｐ　Ｍ’ｓ,,合同会社,大阪府,四條畷市,清滝新町２３番８号,,27,229,5750062,,,,,,,2025-12-25,1,,,,,メイクアップエムズ,0
840,4130001081304,新規,0,2025-12-25,2025-12-25,田中田本舗株式会社,,株式会社,京都府,京都市伏見区,西桝屋町１０６３番地,,26,109,6120083,,,,,,,2025-12-25,1,,,,,タナカタホンポ,0
845,4140001141164,新規,0,2025-12-25,2025-12-25,ＡＺプライベートエクイティ株式会社,,株式会社,兵庫県,尼崎市,南塚口町２丁目１番３－６０９号,,28,202,6610012,,,,,,,2025-12-25,1,,,,,アズプライベートエクイティ,0
850,4140003023006,新規,0,2025-12-25,2025-12-25,合同会社Ｂｕｉｌｄ　Ｄｏｌｌｓ　Ａｔｅｌｉｅｒ,,合同会社,兵庫県,芦屋市,平田町２－７－５１０,,28,206,6590074,,,,,,,2025-12-25,1,,,,,ビルドールズアトリエ,0
851,4140003023014,新規,0,2025-12-25,2025-12-25,合同会社ＡＩビルド,,合同会社,兵庫県,神戸市中央区,磯辺通１丁目１番１８号カサベラ国際プラザビル７０７号室,,28,110,6510084,,,,,,,2025-12-25,1,,,,,エーアイビルド,0
863,4180001170052,新規,0,2025-12-25,2025-12-25,株式会社Ｍトラスト,,株式会社,愛知県,名古屋市瑞穂区,彌富町字月見ケ岡１９番地の１,,23,108,4670035,,,,,,,2025-12-25,1,,,,,エムトラスト,0
868,4180301040541,新規,0,2025-12-25,2025-12-25,若下電気株式会社,,株式会社,愛知県,高浜市,論地町３丁目９番地６０,,23,227,4441314,,,,,,,2025-12-25,1,,,,,ワカシタデンキ,0
885,4260001040841,新規,0,2025-12-25,2025-12-25,株式会社ジーテックス,,株式会社,岡山県,岡山市南区,福田１７番地８,,33,104,7028021,,,,,,,2025-12-25,1,,,,,ジーテックス,0
886,4260003005462,新規,0,2025-12-25,2025-12-25,合同会社ＫＲ企画,,合同会社,岡山県,岡山市北区,宿５６５番地の１－１０２号室,,33,101,7000001,,,,,,,2025-12-25,1,,,,,ケイアールキカク,0
896,4300001014452,新規,0,2025-12-25,2025-12-25,松原地区開発株式会社,,株式会社,佐賀県,佐賀市,中央本町８番１０号,,41,201,8400825,,,,,,,2025-12-25,1,,,,,マツバラチクカイハツ,0
901,4310001019896,新規,0,2025-12-25,2025-12-25,株式会社ＳＮＳ　Ｓｔｒａｔｅｇｙ,,株式会社,長崎県,長崎市,風頭町１７番１３号,,42,201,8500803,,,,,,,2025-12-25,1,,,,,エスエヌエスストラテジー,0
902,4310003005151,新規,0,2025-12-25,2025-12-25,ホープシステム合同会社,,合同会社,長崎県,壱岐市,勝本町勝本浦３５２番地,,42,210,8115501,,,,,,,2025-12-25,1,,,,,ホープシステム,0
903,4320005010280,新規,0,2025-12-25,2025-12-25,一般社団法人大分ホルトの会,,その他の設立登記法人,大分県,大分市,大字木上５６０番地の１,,44,201,8701161,,,,,,,2025-12-25,1,,,,,オオイタホルトノカイ,0
906,4330001033862,新規,0,2025-12-25,2025-12-25,カァネーション株式会社,,株式会社,熊本県,菊池市,七城町菰入５１９番地４,,43,210,8611354,,,,,,,2025-12-25,1,,,,,カァネーション,0
907,4330001033870,新規,0,2025-12-25,2025-12-25,株式会社ＣＡＮＶＡＳ,,株式会社,熊本県,熊本市東区,画図東２丁目１番１８号,,43,102,8620961,,,,,,,2025-12-25,1,,,,,カンバス,0
910,4340001027855,新規,0,2025-12-25,2025-12-25,株式会社伊村ファーム,,株式会社,鹿児島県,大島郡和泊町,大字玉城１０９５番地,,46,533,8919122,,,,,,,2025-12-25,1,,,,,イムラファーム,0
921,4380001035763,新規,0,2025-12-25,2025-12-25,唐澤塗装株式会社,,株式会社,福島県,河沼郡柳津町,大字細八字大巻２８番地,,07,423,9697209,,,,,,,2025-12-25,1,,,,,カラサワトソウ,0
923,4380003006218,新規,0,2025-12-25,2025-12-25,合同会社スターと,,合同会社,福島県,石川郡石川町,大字双里字谷津前２８番地の２,,07,501,9637808,,,,,,,2025-12-25,1,,,,,スタート,0
925,4380005013047,新規,0,2025-12-25,2025-12-25,一般社団法人タテログ推進協議会,,その他の設立登記法人,福島県,郡山市,希望ヶ丘１番１号ナスカ棟,,07,203,9638035,,,,,,,2025-12-25,1,,,,,タテログスイシンキョウギカイ,0
933,4430001095926,新規,0,2025-12-25,2025-12-25,ＺＩ‐ＫＥ株式会社,,株式会社,北海道,札幌市西区,平和三条７丁目９番４３号,,01,107,0630023,,,,,,,2025-12-25,1,,,,,ジーケ,0
937,4700150133780,新規,0,2025-12-25,2025-12-25,ｇｕａｎｇｚｈｏｕｙｕａｎｙｉｎｇｓｈａｎｇｍａｏｙｏｕｘｉａｎｇｏｎｇｓｉ,,外国会社等,,,,,,,,Ｒｏｏｍ　３，Ｒｏｏｍ　６０５，Ｎｏ．３９３，Ｓｏｕｔｈ　Ｔｈｉｒｄ　Ｒｏａｄ，Ｙｕｎｃｈｅｎｇ，Ｂａｉｙｕｎ　Ｄｉｓｔｒｉｃｔ，Ｇｕａｎｇｚｈｏｕ,,,,,,2025-12-25,1,,,,,コウシュウユェンインシャンマオユウゲンコウシ,0
944,5010001261395,新規,0,2025-12-25,2025-12-25,株式会社カルテ庫,,株式会社,東京都,千代田区,神田美土代町７番地,,13,101,1010053,,,,,,,2025-12-25,1,,,,,カルテコ,0
945,5010003049707,新規,0,2025-12-25,2025-12-25,合同会社アトリエマンセル,,合同会社,東京都,中央区,日本橋堀留町２丁目８番４号,,13,102,1030012,,,,,,,2025-12-25,1,,,,,アトリエマンセル,0
946,5010003049830,新規,0,2025-12-25,2025-12-25,フロレックス合同会社,,合同会社,東京都,中央区,銀座１丁目１２番４号Ｎ＆Ｅ・ＢＬＤ６Ｆ,,13,102,1040061,,,,,,,2025-12-25,1,,,,,フロレックス,0
948,5010103002722,新規,0,2025-12-25,2025-12-25,合同会社ｌｅｎｅｗ,,合同会社,東京都,八王子市,東浅川町３３６番地７メゾンプレーヌ貸事務所１階中央,,13,201,1930834,,,,,,,2025-12-25,1,,,,,レニュー,0
954,5010401195409,新規,0,2025-12-25,2025-12-25,株式会社Ｔｅｘｔｒａｄｅ,,株式会社,東京都,港区,南青山２丁目２番１５号－５Ｆ,,13,103,1070062,,,,,,,2025-12-25,1,,,,,テキストレード,0
957,5010403036916,新規,0,2025-12-25,2025-12-25,ＮＳＳＫ‐ＧＡＭＭＡ２合同会社,,合同会社,東京都,港区,愛宕２丁目５番１号愛宕グリーンヒルズＭＯＲＩタワー,,13,103,1050002,,,,,,,2025-12-25,1,,,,,エヌエスエスケーガンマツー,0
977,5011001174570,新規,0,2025-12-25,2025-12-25,株式会社ビーフレーム,,株式会社,東京都,渋谷区,富ヶ谷１丁目３７番１６－２０１号,,13,113,1510063,,,,,,,2025-12-25,1,,,,,ビーフレーム,0
982,5011003023255,新規,0,2025-12-25,2025-12-25,ＯｎＧＧ合同会社,,合同会社,東京都,渋谷区,恵比寿西２丁目８番４号ＥＸ恵比寿西ビル５階,,13,113,1500021,,,,,,,2025-12-25,1,,,,,オンジージー,0
985,5011103016902,新規,0,2025-12-25,2025-12-25,合同会社ＴＥＲＲＡ　ＣＯＮＥＣＴＡ,,合同会社,東京都,新宿区,弁天町６２番地１菱和パレス早稲田壱番館２０１,,13,104,1620851,,,,,,,2025-12-25,1,,,,,テッラコネクタ,0
992,5011501032955,新規,0,2025-12-25,2025-12-25,楽奈福株式会社,,株式会社,東京都,荒川区,南千住３丁目２７－２浅草ビル５０８,,13,118,1160003,,,,,,,2025-12-25,1,,,,,ラクナイフク,0
994,5011601029249,新規,0,2025-12-25,2025-12-25,株式会社Ｃｏｎｔｅｇｒｉａ,,株式会社,東京都,練馬区,豊玉北４丁目１５番１５号レピュア練馬レジデンス１０２,,13,120,1760012,,,,,,,2025-12-25,1,,,,,コンテグリア,0
996,5012801024436,新規,0,2025-12-25,2025-12-25,さいとう企画株式会社,,株式会社,東京都,日野市,南平６丁目２７番地の１２,,13,212,1910041,,,,,,,2025-12-25,1,,,,,サイトウキカク,0
1005,5020003030038,新規,0,2025-12-25,2025-12-25,ハーツワイ合同会社,,合同会社,神奈川県,横浜市中区,本牧間門４９番１－２号,,14,104,2310825,,,,,,,2025-12-25,1,,,,,ハーツワイ,0
1019,5040001141867,新規,0,2025-12-25,2025-12-25,ＫＳＫ工業株式会社,,株式会社,千葉県,市川市,国分３丁目１４番３号,,12,203,2720834,,,,,,,2025-12-25,1,,,,,ケイエスケイコウギョウ,0
1020,5040001141909,新規,0,2025-12-25,2025-12-25,株式会社蓮花,,株式会社,千葉県,木更津市,桜井新町５丁目１０番地１５,,12,206,2920823,,,,,,,2025-12-25,1,,,,,レンガ,0
1021,5040001141917,新規,0,2025-12-25,2025-12-25,株式会社濱田防災,00142018,株式会社,千葉県,千葉市稲毛区,稲毛東４丁目１１番３号ＹＫハウス稲毛東３０６号,,12,103,2630031,,,,,,,2025-12-25,1,,,,,ハマダボウサイ,0
1022,5040001141941,新規,0,2025-12-25,2025-12-25,株式会社スカイ,,株式会社,千葉県,船橋市,駿河台１丁目２番１９－１０６号,,12,204,2730862,,,,,,,2025-12-25,1,,,,,スカイ,0
1024,5040003029219,新規,0,2025-12-25,2025-12-25,ごんべえ合同会社,,合同会社,千葉県,成田市,安西８３番地６,,12,211,2860803,,,,,,,2025-12-25,1,,,,,ゴンベエ,0
1032,5070003006231,新規,0,2025-12-25,2025-12-25,合同会社Ｒｏｏｔｂｅａｔ,,合同会社,群馬県,高崎市,緑町２丁目１７番地１ガーデンクレストＡ１０１号室,,10,202,3700073,,,,,,,2025-12-25,1,,,,,ルートビート,0
1035,5080101025982,新規,0,2025-12-25,2025-12-25,株式会社リトルヴェニス,,株式会社,静岡県,富士市,鈴川東町１９番２号,,22,210,4170012,,,,,,,2025-12-25,1,,,,,リトルヴェニス,0
1036,5080401028289,新規,0,2025-12-25,2025-12-25,ＮＥＯＮＳＴＥＰ株式会社,,株式会社,静岡県,浜松市中央区,和合町９３６番地の３３７,,22,138,4338125,,,,,,,2025-12-25,1,,,,,ネオンステップ,0
1038,5090001019670,新規,0,2025-12-25,2025-12-25,株式会社縁,,株式会社,山梨県,南都留郡富士河口湖町,長浜１３３８番地３,,19,430,4010331,,,,,,,2025-12-25,1,,,,,エン,0
1040,5100001039213,新規,0,2025-12-25,2025-12-25,株式会社伊藤興業,,株式会社,長野県,東御市,海善寺３９６番地２１,,20,219,3890504,,,,,,,2025-12-25,1,,,,,イトウコウギョウ,0
1041,5100005013429,新規,0,2025-12-25,2025-12-25,一般財団法人エクスベリ・アゼリア再生友好財団,,その他の設立登記法人,長野県,上田市,鹿教湯温泉１４２０番地,,20,203,3860323,,,,,,,2025-12-25,1,,,,,エクスベリアゼリアサイセイユウコウザイダン,0
1050,5120001283016,新規,0,2025-12-25,2025-12-25,株式会社ジェネシス,,株式会社,大阪府,大阪市淀川区,西中島３丁目８番１４号,,27,123,5320011,,,,,,,2025-12-25,1,,,,,ジェネシス,0
1051,5120001283024,新規,0,2025-12-25,2025-12-25,株式会社あとむ,,株式会社,大阪府,大阪市東住吉区,西今川２丁目９番１４号,,27,121,5460042,,,,,,,2025-12-25,1,,,,,アトム,0
1064,5130001081303,新規,0,2025-12-25,2025-12-25,株式会社堀賢太建築設計事務所,,株式会社,京都府,京都市中京区,西夷川町５６３夷川ビル３０２,,26,104,6040073,,,,,,,2025-12-25,1,,,,,ホリケンタケンチクセッケイジムショ,0
1069,5140001141213,新規,0,2025-12-25,2025-12-25,株式会社キクロス,,株式会社,兵庫県,神戸市須磨区,白川台４丁目２３番３１号,,28,107,6540103,,,,,,,2025-12-25,1,,,,,キクロス,0
1082,5180001170019,新規,0,2025-12-25,2025-12-25,株式会社カーマン,,株式会社,愛知県,名古屋市港区,大西１丁目５番地の２,,23,111,4550861,,,,,,,2025-12-25,1,,,,,カーマン,0
1092,5180301040540,新規,0,2025-12-25,2025-12-25,株式会社ＣＥＮＴＲＡＬ　ＳＴＡＲ,,株式会社,愛知県,岡崎市,鴨田町字山ノ圦５７番地１花笑ビルパリス２Ｆ,,23,202,4442121,,,,,,,2025-12-25,1,,,,,セントラルスター,0
1093,5180301040549,新規,0,2025-12-25,2025-12-25,株式会社ＮＫ　Ｓｏｌｕｔｉｏｎ,,株式会社,愛知県,豊田市,桝塚西町北小畔１番地,,23,211,4701213,,,,,,,2025-12-25,1,,,,,エヌケーソリューション,0
1099,5200001044558,新規,0,2025-12-25,2025-12-25,株式会社かなた,,株式会社,岐阜県,羽島郡岐南町,八剣北１丁目７番地の１,,21,302,5016011,,,,,,,2025-12-25,1,,,,,カナタ,0
1106,5250005009049,新規,0,2025-12-25,2025-12-25,特定非営利活動法人旧益田家物見矢倉を守る会,,その他の設立登記法人,山口県,萩市,大字堀内３９１番地１号,,35,204,7580057,,,,,,,2025-12-25,1,,,,,キュウマスダケモノミヤグラヲマモルカイ,0
1109,5260001040840,新規,0,2025-12-25,2025-12-25,株式会社Ｓ３２６,,株式会社,岡山県,岡山市北区,西辛川８４１番地２０,,33,101,7011213,,,,,,,2025-12-25,1,,,,,エスサンニロク,0
1110,5260003005461,新規,0,2025-12-25,2025-12-25,合同会社Ｔｓｕｍｕｇｉ,,合同会社,岡山県,岡山市中区,神下２６２番地１,,33,102,7038225,,,,,,,2025-12-25,1,,,,,ツムギ,0
1120,5290005019944,新規,0,2025-12-25,2025-12-25,一般社団法人岡城敬信会,,その他の設立登記法人,福岡県,福岡市博多区,大博町８番５号,,40,132,8120033,,,,,,,2025-12-25,1,,,,,オカシロケイシンカイ,0
1123,5300001014451,新規,0,2025-12-25,2025-12-25,ＬＵＮＡＳＯＬ株式会社,,株式会社,佐賀県,唐津市,鏡新開１７番地,,41,202,8470028,,,,,,,2025-12-25,1,,,,,ルナソル,0
1126,5320001021512,新規,0,2025-12-25,2025-12-25,株式会社サンホールディングス,,株式会社,大分県,大分市,金池南２丁目７番２５号Ａ１０２,,44,201,8700839,,,,,,,2025-12-25,1,,,,,サンホールディングス,0
1130,5340001027862,新規,0,2025-12-25,2025-12-25,株式会社ＧＡＦＧＡＦ,,株式会社,鹿児島県,出水市,高尾野町大久保１４２３番地２,,46,208,8990401,,,,,,,2025-12-25,1,,,,,ガフガフ,0
1132,5360001036184,新規,0,2025-12-25,2025-12-25,琉尚産業株式会社,,株式会社,沖縄県,糸満市,字阿波根５０番地の３,,47,210,9010301,,,,,,,2025-12-25,1,,,,,リュウショウサンギョウ,0
1134,5360003015509,新規,0,2025-12-25,2025-12-25,合同会社楓千夢,,合同会社,沖縄県,中頭郡読谷村,字座喜味２６７７番地３,,47,324,9040301,,,,,,,2025-12-25,1,,,,,フウセンム,0
1136,5360005007339,新規,0,2025-12-25,2025-12-25,一般社団法人水圏統合カーボン固定推進機構,,その他の設立登記法人,沖縄県,那覇市,久茂地２丁目２－２沖縄タイムスビル２Ｆ,,47,201,9000015,,,,,,,2025-12-25,1,,,,,スイケントウゴウカーボンコテイスイシンキコウ,0
1141,5430001095941,新規,0,2025-12-25,2025-12-25,株式会社タイガ,,株式会社,北海道,札幌市白石区,北郷一条９丁目６番７号スターヴィレッジ３０１号,,01,104,0030831,,,,,,,2025-12-25,1,,,,,タイガ,0
1143,5460101007793,新規,0,2025-12-25,2025-12-25,ふじのこおり株式会社,,株式会社,北海道,中川郡幕別町,札内みずほ町３２６番地５５,,01,643,0890554,,,,,,,2025-12-25,1,,,,,フジノコオリ,0
1144,6010001261386,新規,0,2025-12-25,2025-12-25,ソフト・シアター株式会社,,株式会社,東京都,中央区,日本橋箱崎町１番２号,,13,102,1030015,,,,,,,2025-12-25,1,,,,,ソフトシアター,0
1145,6010001261394,新規,0,2025-12-25,2025-12-25,株式会社Ｃｏｎｎｅｘａ,,株式会社,東京都,中央区,銀座１丁目２２番１１号銀座大竹ビジデンス２Ｆ,,13,102,1040061,,,,,,,2025-12-25,1,,,,,コネクサ,0
1146,6010001261477,新規,0,2025-12-25,2025-12-25,泉然株式会社,,株式会社,東京都,千代田区,三番町２番地１ザ・パークハウスグラン千鳥ヶ淵５０５号,,13,101,1020075,,,,,,,2025-12-25,1,,,,,センゼン,0
1152,6010003049771,新規,0,2025-12-25,2025-12-25,合同会社Ｅｎ円ｒｉｃｈ,,合同会社,東京都,中央区,銀座１丁目１２番４号Ｎ＆ＥＢＬＤ．７階,,13,102,1040061,,,,,,,2025-12-25,1,,,,,エンリッチ,0
1157,6010401195366,新規,0,2025-12-25,2025-12-25,株式会社洋海碧緑,,株式会社,東京都,港区,六本木７丁目１２番２号Ｒ７ビルディング,,13,103,1060032,,,,,,,2025-12-25,1,,,,,ヨウカイアオミドリ,0
1163,6010701048819,新規,0,2025-12-25,2025-12-25,株式会社ＧＬＡＺＥ,,株式会社,東京都,品川区,東品川３丁目８番８－３１０７号,,13,109,1400002,,,,,,,2025-12-25,1,,,,,グレーズ,0
1164,6010701048835,新規,0,2025-12-25,2025-12-25,株式会社ＹＡＯＫＩ,,株式会社,東京都,品川区,東品川２丁目２番４号,,13,109,1400002,,,,,,,2025-12-25,1,,,,,ヤオキ,0
1165,6010703008060,新規,0,2025-12-25,2025-12-25,ＢＲＡＶＯ合同会社,,合同会社,東京都,品川区,小山台１丁目１１番２号,,13,109,1420061,,,,,,,2025-12-25,1,,,,,ブラボー,0
1166,6010901058717,新規,0,2025-12-25,2025-12-25,株式会社ｉｃｃａ,,株式会社,東京都,世田谷区,玉川１丁目９－３Ｌｉｂｅｌｕｌａ二子玉川１Ｆ,,13,112,1580094,,,,,,,2025-12-25,1,,,,,イッカ,0
1172,6011005011307,新規,0,2025-12-25,2025-12-25,一般社団法人日本機能性美容協会,,その他の設立登記法人,東京都,渋谷区,恵比寿西１丁目１２－１１Ｂｉｏｓビル５階,,13,113,1500021,,,,,,,2025-12-25,1,,,,,ニホンキノウセイビヨウキョウカイ,0
1185,6011501032954,新規,0,2025-12-25,2025-12-25,釜技工業株式会社,,株式会社,東京都,荒川区,南千住３丁目２７－２浅草ビル５０８,,13,118,1160003,,,,,,,2025-12-25,1,,,,,カマギコウギョウ,0
1193,6012301014655,新規,0,2025-12-25,2025-12-25,株式会社Ｆｒｕｉ　Ｏｐｕｓ,,株式会社,東京都,町田市,中町４丁目１番１６号,,13,209,1940021,,,,,,,2025-12-25,1,,,,,フルイオーパス,0
1197,6012801024427,新規,0,2025-12-25,2025-12-25,順鴻株式会社,,株式会社,東京都,国分寺市,内藤１丁目１８番地２３,,13,214,1850033,,,,,,,2025-12-25,1,,,,,ジュンコウ,0
1208,6020001166469,新規,0,2025-12-25,2025-12-25,株式会社アランカール,,株式会社,神奈川県,横浜市西区,浅間町１丁目４番３号ウイザードビル４０２,,14,103,2200072,,,,,,,2025-12-25,1,,,,,アランカール,0
1214,6020003030037,新規,0,2025-12-25,2025-12-25,Ｕｎｉｔｅｄ　ｒａｉｎｂｏｗ合同会社,,合同会社,神奈川県,横浜市西区,北幸１丁目１１番１号水信ビル７階,,14,103,2200004,,,,,,,2025-12-25,1,,,,,ユナイテッドレインボー,0
1227,6030001170305,新規,0,2025-12-25,2025-12-25,富平内装株式会社,,株式会社,埼玉県,三郷市,戸ケ崎２１９３番地５,,11,237,3410044,,,,,,,2025-12-25,1,,,,,トミヒラナイソウ,0
1228,6030001170313,新規,0,2025-12-25,2025-12-25,スナッパーロックス株式会社,,株式会社,埼玉県,さいたま市緑区,大字三室７９番地１０,,11,109,3360911,,,,,,,2025-12-25,1,,,,,スナッパーロックス,0
1232,6030003028352,新規,0,2025-12-25,2025-12-25,Ｊリユース合同会社,,合同会社,埼玉県,上尾市,柏座１丁目１２－１０ライオンズＳＰ上尾１１０１,,11,219,3620075,,,,,,,2025-12-25,1,,,,,ジェイリユース,0
1238,6040001141949,新規,0,2025-12-25,2025-12-25,アンソレイユ株式会社,,株式会社,千葉県,柏市,高柳１丁目１５番地６,,12,217,2770941,,,,,,,2025-12-25,1,,,,,アンソレイユ,0
1240,6040003029192,新規,0,2025-12-25,2025-12-25,ＳｂＳ会計合同会社,,合同会社,千葉県,富里市,御料１４１番地,,12,233,2860211,,,,,,,2025-12-25,1,,,,,エスビーエスカイケイ,0
1242,6050001057780,新規,0,2025-12-25,2025-12-25,株式会社ＢＩＧ　ＪＡＰＡＮ,,株式会社,茨城県,古河市,尾崎２９番地１４,,08,204,3060101,,,,,,,2025-12-25,1,,,,,ビッグジャパン,0
1248,6080101025981,新規,0,2025-12-25,2025-12-25,株式会社マルニシ,,株式会社,静岡県,沼津市,井出１１９６番地,,22,203,4100319,,,,,,,2025-12-25,1,,,,,マルニシ,0
1251,6110003006011,新規,0,2025-12-25,2025-12-25,シェイクハンド合同会社,,合同会社,新潟県,新潟市秋葉区,舟戸２丁目３番４号,,15,105,9560116,,,,,,,2025-12-25,1,,,,,シェイクハンド,0
1252,6110005017304,新規,0,2025-12-25,2025-12-25,特定非営利活動法人ＮＯＴ　ＴＨＥ　ＲＥＣＲＵＩＴ　ＴＯＫＩＷＡＫ,,その他の設立登記法人,新潟県,新潟市東区,若葉町１丁目２０番２４号,,15,102,9500837,,,,,,,2025-12-25,1,,,,,ノットザリクルートトキワク,0
1265,6120001283015,新規,0,2025-12-25,2025-12-25,イリイ株式会社,,株式会社,大阪府,大阪市中央区,瓦屋町１丁目６－１０,,27,128,5420066,,,,,,,2025-12-25,1,,,,,イリイ,0
1266,6120001283056,新規,0,2025-12-25,2025-12-25,株式会社富士産業,,株式会社,大阪府,大阪市港区,築港１丁目５番地２９,,27,107,5520021,,,,,,,2025-12-25,1,,,,,フジサンギョウ,0
1267,6120003031578,新規,0,2025-12-25,2025-12-25,Ｖｉｓｔａ合同会社,,合同会社,大阪府,大阪市住之江区,平林南２丁目１番２０－１３０５号,,27,125,5590025,,,,,,,2025-12-25,1,,,,,ヴィスタ,0
1279,6130001081302,新規,0,2025-12-25,2025-12-25,株式会社ジュウランニショウ,,株式会社,京都府,京都市東山区,一橋野本町２９番地,,26,105,6050995,,,,,,,2025-12-25,1,,,,,ジュウランニショウ,0
1284,6140001141204,新規,0,2025-12-25,2025-12-25,株式会社トカナル,,株式会社,兵庫県,丹波篠山市,野中２５番地１,,28,221,6692452,,,,,,,2025-12-25,1,,,,,トカナル,0
1289,6160001027310,新規,0,2025-12-25,2025-12-25,株式会社スクエア,,株式会社,滋賀県,大津市,仰木の里３丁目１番１４号,,25,201,5200246,,,,,,,2025-12-25,1,,,,,スクエア,0
1297,6180001169968,新規,0,2025-12-25,2025-12-25,株式会社Ｗｅｌｌｅｓｔ,,株式会社,愛知県,名古屋市昭和区,山脇町４丁目１３番地,,23,107,4660063,,,,,,,2025-12-25,1,,,,,ウェレスト,0
1298,6180001170018,新規,0,2025-12-25,2025-12-25,株式会社スタッフマネジメント,,株式会社,愛知県,名古屋市中区,栄１丁目２番７号名古屋東宝ビル９階,,23,106,4600008,,,,,,,2025-12-25,1,,,,,スタッフマネジメント,0
1315,6240001065970,新規,0,2025-12-25,2025-12-25,株式会社ＭｏｎＧａｔｅ,,株式会社,広島県,広島市安佐南区,川内１丁目３－２０,,34,105,7310102,,,,,,,2025-12-25,1,,,,,モンゲート,0
1335,6340003005056,新規,0,2025-12-25,2025-12-25,大山左官合同会社,,合同会社,鹿児島県,鹿児島市,春山町１８８９番地１０,,46,201,8992704,,,,,,,2025-12-25,1,,,,,オオヤマサカン,0
1341,6360003015508,新規,0,2025-12-25,2025-12-25,合同会社ＡＲＫＡ　Ｍａｎａｇｅｍｅｎｔ,,合同会社,沖縄県,中頭郡中城村,字南上原１８７番地９街区３－２画地,,47,328,9012424,,,,,,,2025-12-25,1,,,,,アルカマネジメント,0
1343,6370001053343,新規,0,2025-12-25,2025-12-25,Ｍ‐ｗｏｒｋ株式会社,,株式会社,宮城県,仙台市太白区,西の平１丁目１６－２５,,04,104,9820825,,,,,,,2025-12-25,1,,,,,エムワーク,0
1346,6380001035761,新規,0,2025-12-25,2025-12-25,株式会社あさひ酒販,,株式会社,福島県,郡山市,富久山町福原字亀ノ子田１７番地,,07,203,9638061,,,,,,,2025-12-25,1,,,,,アサヒシュハン,0
1349,6410001014349,新規,0,2025-12-25,2025-12-25,株式会社ｍｏｒｎｉｎｇ　ｍｅ,,株式会社,秋田県,秋田市,山王６丁目１７番２３号,,05,201,0100951,,,,,,,2025-12-25,1,,,,,モーニングミー,0
1355,6430001095940,新規,0,2025-12-25,2025-12-25,株式会社アジア建築企画研究所,,株式会社,北海道,札幌市中央区,南一条西２５丁目２番２４号－５０１号,,01,101,0640801,,,,,,,2025-12-25,1,,,,,アジアケンチクキカクケンキュウジョ,0
1375,7010001261352,新規,0,2025-12-25,2025-12-25,アドリビ株式会社,,株式会社,東京都,中央区,東日本橋２丁目４番１１－１３０２号,,13,102,1030004,,,,,,,2025-12-25,1,,,,,アドリビ,0
1376,7010001261393,新規,0,2025-12-25,2025-12-25,株式会社咲,,株式会社,東京都,中央区,銀座１丁目２２番１１号銀座大竹ビジデンス２Ｆ,,13,102,1040061,,,,,,,2025-12-25,1,,,,,サキ,0
1377,7010001261419,新規,0,2025-12-25,2025-12-25,株式会社Ｐａｒａｌｌｅｖ,,株式会社,東京都,中央区,佃２丁目１３番１２号,,13,102,1040051,,,,,,,2025-12-25,1,,,,,パラレブ,0
1378,7010001261451,新規,0,2025-12-25,2025-12-25,除目株式会社,,株式会社,東京都,中央区,銀座６丁目４番７号,,13,102,1040061,,,,,,,2025-12-25,1,,,,,ジモク,0
1379,7010001261484,新規,0,2025-12-25,2025-12-25,株式会社アリストランプ,,株式会社,東京都,中央区,築地３丁目７－４トーソービル,,13,102,1040045,,,,,,,2025-12-25,1,,,,,アリストランプ,0
1381,7010003049804,新規,0,2025-12-25,2025-12-25,新日本電力合同会社,,合同会社,東京都,千代田区,麹町３丁目５番２号ＢＵＲＥＸ麹町７０９,,13,101,1020083,,,,,,,2025-12-25,1,,,,,シンニホンデンリョク,0
1386,7010005041131,新規,0,2025-12-25,2025-12-25,市川塩浜ロジ一般社団法人,,その他の設立登記法人,東京都,千代田区,丸の内１丁目４番１号東京共同会計事務所内,,13,101,1000005,,,,,,,2025-12-25,1,,,,,イチカワシオハマロジ,0
1387,7010101017027,新規,0,2025-12-25,2025-12-25,株式会社ゼロホールディングス,,株式会社,東京都,八王子市,大和田町５丁目１番２１号,,13,201,1920045,,,,,,,2025-12-25,1,,,,,ゼロホールディングス,0
1397,7010603011989,新規,0,2025-12-25,2025-12-25,合同会社宮崎,00142005,合同会社,東京都,江東区,門前仲町１丁目１２番７号佐野ビル,,13,108,1350048,,,,,,,2025-12-25,1,,,,,ミヤザキ,0
1398,7010901058708,新規,0,2025-12-25,2025-12-25,株式会社Ｎｉｄｏ,,株式会社,東京都,世田谷区,上馬１丁目１５番１８－８０６号,,13,112,1540011,,,,,,,2025-12-25,1,,,,,ニド,0
1399,7010903010526,新規,0,2025-12-25,2025-12-25,合同会社僕の船,,合同会社,東京都,世田谷区,桜２丁目１７番１７号,,13,112,1560053,,,,,,,2025-12-25,1,,,,,ボクノフネ,0
1410,7011001174536,新規,0,2025-12-25,2025-12-25,Ｅｖｏｌｖｉａ株式会社,,株式会社,東京都,渋谷区,道玄坂円山町５番３号ＭＩＥＵＸ８階,,13,113,1500000,,,,,,,2025-12-25,1,,,,,エヴォルヴィア,0
1418,7011005011306,新規,0,2025-12-25,2025-12-25,医療法人社団ＶＩＴＡ,,その他の設立登記法人,東京都,目黒区,大橋２丁目２２番４２号Ｎｏ．Ｒ池尻大橋４階,,13,110,1530044,,,,,,,2025-12-25,1,,,,,ヴィータ,0
1429,7011403004984,新規,0,2025-12-25,2025-12-25,ヒカリアセット合同会社,,合同会社,東京都,板橋区,加賀２丁目４番１１－２０７号,,13,119,1730003,,,,,,,2025-12-25,1,,,,,ヒカリアセット,0
1432,7011501032953,新規,0,2025-12-25,2025-12-25,株式会社ＨＡＬＵＭＯＡ,,株式会社,東京都,荒川区,東尾久８丁目３４番８号森田屋石亭楓１２,,13,118,1160012,,,,,,,2025-12-25,1,,,,,ハルモア,0
1437,7011801047230,新規,0,2025-12-25,2025-12-25,ＡＫＡＴＳＵＫＩ株式会社,,株式会社,東京都,足立区,栗原３丁目１番４号エスポワールＫＩＪＩＭＡ６０１号,,13,121,1230842,,,,,,,2025-12-25,1,,,,,アカツキ,0
1438,7011801047239,新規,0,2025-12-25,2025-12-25,ＡｐｅｘＭｅｄｉａ株式会社,,株式会社,東京都,葛飾区,新小岩４丁目２９番１０－５０２号,,13,122,1240024,,,,,,,2025-12-25,1,,,,,アペックスメディア,0
1442,7013101009893,新規,0,2025-12-25,2025-12-25,株式会社芯龍,,株式会社,東京都,西多摩郡日の出町,大字大久野８２０５番地,,13,305,1900181,,,,,,,2025-12-25,1,,,,,シンリュウ,0
1459,7020001166451,新規,0,2025-12-25,2025-12-25,株式会社リツ,,株式会社,神奈川県,横浜市泉区,下和泉３丁目１６番２２号,,14,116,2450021,,,,,,,2025-12-25,1,,,,,リツ,0
1460,7020001166468,新規,0,2025-12-25,2025-12-25,株式会社ブリスナル,,株式会社,神奈川県,横浜市緑区,十日市場町８５６‐４,,14,113,2260025,,,,,,,2025-12-25,1,,,,,ブリスナル,0
1461,7020001166476,新規,0,2025-12-25,2025-12-25,株式会社ＳＡＴ,,株式会社,神奈川県,横浜市港南区,芹が谷３丁目３番４５－１０３号,,14,111,2330006,,,,,,,2025-12-25,1,,,,,エスエイティ,0
1464,7020005017097,新規,0,2025-12-25,2025-12-25,一般社団法人いきいきライフ協会横浜あざみ野,,その他の設立登記法人,神奈川県,横浜市青葉区,あざみ野２丁目１３番地１１号フラットあざみ野２０３,,14,117,2250011,,,,,,,2025-12-25,1,,,,,イキイキライフキョウカイアザミノ,0
1467,7021005013499,新規,0,2025-12-25,2025-12-25,一般社団法人つながり未来機構,,その他の設立登記法人,神奈川県,藤沢市,下土棚２０７９番地１,,14,205,2520807,,,,,,,2025-12-25,1,,,,,ツナガリミライキコウ,0
1476,7040001141741,新規,0,2025-12-25,2025-12-25,ＫＡＸＩＮ株式会社,,株式会社,千葉県,流山市,大字東深井４５１－５４－１０７リヴィエールコート１０７号室,,12,220,2700101,,,,,,,2025-12-25,1,,,,,カクシン,0
1478,7050001057796,新規,0,2025-12-25,2025-12-25,ＵＴＮ株式会社,,株式会社,茨城県,小美玉市,大笹２４５番地２,,08,236,3190137,,,,,,,2025-12-25,1,,,,,ユーティーエヌ,0
1488,7070001043679,新規,0,2025-12-25,2025-12-25,株式会社朝日野測量登記事務所,,株式会社,群馬県,邑楽郡板倉町,朝日野１丁目４番地の５、１０１号,,10,521,3740112,,,,,,,2025-12-25,1,,,,,アサヒノソクリョウトウキジムショ,0
1491,7080401028345,新規,0,2025-12-25,2025-12-25,株式会社ＢＥ‐ＳＯＡ,,株式会社,静岡県,浜松市中央区,森田町２４８番地東海ビルＩＩ３０１号,00142019,22,138,4328048,,,,,,,2025-12-25,1,,,,,ビーソア,0
1492,7080403005417,新規,0,2025-12-25,2025-12-25,合同会社ステディアセット,,合同会社,静岡県,掛川市,葛ケ丘３丁目８番地の３,,22,213,4360088,,,,,,,2025-12-25,1,,,,,ステディアセット,0
1493,7090001019669,新規,0,2025-12-25,2025-12-25,株式会社Ａｓａｍａ,,株式会社,山梨県,富士吉田市,浅間２丁目５番６号,,19,202,4030031,,,,,,,2025-12-25,1,,,,,アサマ,0
1503,7120001283022,新規,0,2025-12-25,2025-12-25,完美世界株式会社,,株式会社,大阪府,大阪市浪速区,恵美須西１丁目２番５－４０５号,,27,111,5560003,,,,,,,2025-12-25,1,,,,,パーフェクトワールド,0
1504,7120001283063,新規,0,2025-12-25,2025-12-25,マキナ株式会社,,株式会社,大阪府,大阪市浪速区,敷津西１丁目１番１６号第二生駒ビル２階２０２号室,,27,111,5560015,,,,,,,2025-12-25,1,,,,,マキナ,0
1508,7120003031577,新規,0,2025-12-25,2025-12-25,合同会社クロスロード,,合同会社,大阪府,大阪市中央区,南船場３丁目２番２２号おおきに南船場ビル２０５,,27,128,5420081,,,,,,,2025-12-25,1,,,,,クロスロード,0
1510,7120005025321,新規,0,2025-12-25,2025-12-25,一般社団法人カンボジア文化財保存協会,,その他の設立登記法人,大阪府,大阪市中央区,難波３丁目２番２７号,,27,128,5420076,,,,,,,2025-12-25,1,,,,,カンボジアブンカザイホゾンキョウカイ,0
1517,7130001081301,新規,0,2025-12-25,2025-12-25,株式会社Ｖｉｖａ　Ｓｏｌｅｉｌ,,株式会社,京都府,京都市右京区,嵯峨野開町１６番地３７,,26,108,6168313,,,,,,,2025-12-25,1,,,,,ビバソレイユ,0
1521,7140001141186,新規,0,2025-12-25,2025-12-25,株式会社Ｈｏｍｉｅｓ,,株式会社,兵庫県,神戸市灘区,大石東町２丁目４番２７号,,28,102,6570043,,,,,,,2025-12-25,1,,,,,ホーミーズ,0
1522,7140001141203,新規,0,2025-12-25,2025-12-25,株式会社新井パーツ商会,,株式会社,兵庫県,姫路市,花田町小川５７２番地４,,28,201,6710255,,,,,,,2025-12-25,1,,,,,アライパーツショウカイ,0
1525,7140003022987,新規,0,2025-12-25,2025-12-25,合同会社Ｆａｍ　ｕｎｉｔｙ,,合同会社,兵庫県,神戸市兵庫区,荒田町１丁目２２－１－３１０,,28,105,6520032,,,,,,,2025-12-25,1,,,,,ファムユニティー,0
1526,7140003022995,新規,0,2025-12-25,2025-12-25,米田住宅リフォーム合同会社,,合同会社,兵庫県,川辺郡猪名川町,松尾台２丁目１番地１４,,28,301,6660261,,,,,,,2025-12-25,1,,,,,ヨネダジュウタクリフォーム,0
1527,7140003023003,新規,0,2025-12-25,2025-12-25,ＮＫＹ合同会社,,合同会社,兵庫県,川西市,美園町９番２号,,28,217,6660013,,,,,,,2025-12-25,1,,,,,エヌケイワイ,0
1528,7140003023011,新規,0,2025-12-25,2025-12-25,はなのなる合同会社,,合同会社,兵庫県,西宮市,甲子園口１丁目１番４号,,28,204,6638113,,,,,,,2025-12-25,1,,,,,ハナノナル,0
1546,7210001020432,新規,0,2025-12-25,2025-12-25,株式会社Ｎｅｔｕａｓ,,株式会社,福井県,福井市,手寄１丁目１１－２５コーポ山口Ｉ２Ａ,00142012,18,201,9100858,,,,,,,2025-12-25,1,,,,,ネチュアス,0
1557,7260005011563,新規,0,2025-12-25,2025-12-25,社会福祉法人こらーる福祉会,,その他の設立登記法人,岡山県,岡山市南区,新保１６０９－１３,,33,104,7000945,,,,,,,2025-12-25,1,,,,,コラールフクシカイ,0
1565,7290005019942,新規,0,2025-12-25,2025-12-25,医療法人まえだ脳神経外科,,その他の設立登記法人,福岡県,糟屋郡宇美町,明神坂２丁目１番２８号,,40,341,8112122,,,,,,,2025-12-25,1,,,,,マエダノウシンケイゲカ,0
1570,7310001019893,新規,0,2025-12-25,2025-12-25,バイオ・エコナス株式会社,,株式会社,長崎県,雲仙市,国見町神代戊２６７０番地１,,42,213,8591305,,,,,,,2025-12-25,1,,,,,バイオエコナス,0
1579,7330001033868,新規,0,2025-12-25,2025-12-25,株式会社天昇興業,,株式会社,熊本県,宇土市,住吉町２１３５番地２,,43,211,8690401,,,,,,,2025-12-25,1,,,,,テンショウコウギョウ,0
1584,7350001019865,新規,0,2025-12-25,2025-12-25,エフ・アール株式会社,,株式会社,宮崎県,日向市,上町１丁目３４番地１０街区文林堂ビル１Ｆ,,45,206,8830044,,,,,,,2025-12-25,1,,,,,エフアール,0
1587,7360003015507,新規,0,2025-12-25,2025-12-25,合同会社ｎｉｊｉｉｒｏ,,合同会社,沖縄県,中頭郡西原町,上原１丁目１３番地の６コーポラス大城１０２,,47,329,9030125,,,,,,,2025-12-25,1,,,,,ニジイロ,0
1596,7420005007990,新規,0,2025-12-25,2025-12-25,医療法人ＬＨＤ,,その他の設立登記法人,青森県,つがる市,木造増田２２番地１５,,02,209,0383155,,,,,,,2025-12-25,1,,,,,エルエイチディ,0
1598,7430003018452,新規,0,2025-12-25,2025-12-25,合同会社Ｆｉｒｓｔ　Ｌｉｎｅ,,合同会社,北海道,札幌市北区,篠路町上篠路１０９番地２１９,,01,102,0028052,,,,,,,2025-12-25,1,,,,,ファーストライン,0
1600,7450001014815,新規,0,2025-12-25,2025-12-25,株式会社北建工業,,株式会社,北海道,上川郡比布町,北町１丁目２番１０号,,01,455,0780348,,,,,,,2025-12-25,1,,,,,ホッケンコウギョウ,0
1603,7470003003038,新規,0,2025-12-25,2025-12-25,永尾ライフサポート合同会社,,合同会社,香川県,高松市,伏石町２０８０番地１,,37,201,7618071,,,,,,,2025-12-25,1,,,,,ナガオライフサポート,0
1612,7700150132870,新規,0,2025-12-25,2025-11-06,動物と人の予防医学研究会,,その他,千葉県,市原市,うるいど南４丁目１帝京平成大学　中江研究室　内,,12,219,2900170,,,,,,,2025-11-06,1,,,,,ドウブツトヒトノヨボウイガクケンキユウカイ,0
1615,8010001261392,新規,0,2025-12-25,2025-12-25,株式会社凛,,株式会社,東京都,中央区,銀座１丁目２２番１１号銀座大竹ビジデンス２Ｆ,,13,102,1040061,,,,,,,2025-12-25,1,,,,,リン,0
1616,8010001261459,新規,0,2025-12-25,2025-12-25,株式会社ＯＫＫホールディングス,,株式会社,東京都,千代田区,丸の内１丁目６番２号新丸の内センタービル２１階,,13,101,1000005,,,,,,,2025-12-25,1,,,,,オーケーケーホールディングス,0
1617,8010001261509,新規,0,2025-12-25,2025-12-25,株式会社Ｃｈａｒｍｅ,,株式会社,東京都,中央区,銀座１丁目２２番１１号銀座大竹ビジデンス２ＦレゾナンスＧＩＮＺＡ店,,13,102,1040061,,,,,,,2025-12-25,1,,,,,シャルム,0
1618,8010001261558,新規,0,2025-12-25,2025-12-25,株式会社ライムライト,,株式会社,東京都,千代田区,神田神保町２丁目１０－３１ＩＷビル１Ｆ,,13,101,1010051,,,,,,,2025-12-25,1,,,,,ライムライト,0
1622,8010003049407,新規,0,2025-12-25,2025-12-25,合同会社縁場,,合同会社,東京都,中央区,八丁堀３丁目１１番１２号,,13,102,1040032,,,,,,,2025-12-25,1,,,,,エンバ,0
1635,8010703008059,新規,0,2025-12-25,2025-12-25,合同会社名古屋プロジェクト,,合同会社,東京都,品川区,大崎４丁目３番１号,,13,109,1410032,,,,,,,2025-12-25,1,,,,,ナゴヤプロジェクト,0
1642,8011001174576,新規,0,2025-12-25,2025-12-25,ＧＡＴＥＶＡＬＬＥＹ株式会社,,株式会社,東京都,目黒区,柿の木坂３丁目３番８－９０３号,,13,110,1520022,,,,,,,2025-12-25,1,,,,,ゲイトヴァリー,0
1643,8011001174675,新規,0,2025-12-25,2025-12-25,株式会社Ｈｏｐｅｆｕｌ,,株式会社,東京都,渋谷区,恵比寿南３丁目１１番２５－２１２号プラウド恵比寿ヒルサイドガーデン,,13,113,1500022,,,,,,,2025-12-25,1,,,,,ホープフル,0
1645,8011003023054,新規,0,2025-12-25,2025-12-25,ヒカクワン合同会社,,合同会社,東京都,渋谷区,神泉町１０番１５号アネックス神泉３０１,,13,113,1500045,,,,,,,2025-12-25,1,,,,,ヒカクワン,0
1647,8011005011305,新規,0,2025-12-25,2025-12-25,一般社団法人ＭＯＲＥ　ＦＲＥＥ,,その他の設立登記法人,東京都,渋谷区,神泉町１０番１５号アネックス神泉３０１,,13,113,1500045,,,,,,,2025-12-25,1,,,,,モアフリー,0
1649,8011101114440,新規,0,2025-12-25,2025-12-25,株式会社ジェイ・シー・エー,,株式会社,東京都,新宿区,下宮比町１番４号,,13,104,1620822,,,,,,,2025-12-25,1,,,,,ジェイシーエー,0
1650,8011101114465,新規,0,2025-12-25,2025-12-25,株式会社ＺＡＳＨＩ,,株式会社,東京都,新宿区,西新宿６丁目５番１号新宿アイランドタワー２階,,13,104,1600023,,,,,,,2025-12-25,1,,,,,ザシ,0
1656,8011503006814,新規,0,2025-12-25,2025-12-25,ＱｕａｎＴＲＩＯＳ合同会社,,合同会社,東京都,荒川区,荒川５丁目４５－１,,13,118,1160002,,,,,,,2025-12-25,1,,,,,クアントリオス,0
1660,8011701029055,新規,0,2025-12-25,2025-12-25,株式会社靖哲,,株式会社,東京都,江戸川区,東小岩５丁目１９番６号,,13,123,1330052,,,,,,,2025-12-25,1,,,,,ヤステツ,0
1665,8012701019236,新規,0,2025-12-25,2025-12-25,小野グループホールディングス株式会社,,株式会社,東京都,小平市,学園西町２丁目２５番４－１号,,13,211,1870045,,,,,,,2025-12-25,1,,,,,オノグループホールディングス,0
1674,8013303008008,新規,0,2025-12-25,2025-12-25,シルバーホライズン合同会社,,合同会社,東京都,豊島区,池袋２丁目６９－５パンフィック池袋４０２号,,13,116,1710014,,,,,,,2025-12-25,1,,,,,シルバーホライズン,0
1686,8020003030002,新規,0,2025-12-25,2025-12-25,合同会社ＤＭＳ,,合同会社,神奈川県,横浜市戸塚区,下倉田町１８番地１ブロードスクエア戸塚２１６号,,14,110,2440815,,,,,,,2025-12-25,1,,,,,ディエムエス,0
1687,8020003030035,新規,0,2025-12-25,2025-12-25,合同会社ツーリズムマネジメントラボ,,合同会社,神奈川県,横浜市西区,北幸２丁目１０番４８号むつみビル３階,,14,103,2200004,,,,,,,2025-12-25,1,,,,,ツーリズムマネジメントラボ,0
1693,8021003016940,新規,0,2025-12-25,2025-12-25,ＳＯＬＡＧＥ合同会社,,合同会社,神奈川県,横須賀市,久里浜台１丁目１４番４号,,14,201,2390827,,,,,,,2025-12-25,1,,,,,ソラージュ,0
1695,8021005013481,新規,0,2025-12-25,2025-12-25,一般社団法人湘南・レゾナンス協会,,その他の設立登記法人,神奈川県,茅ヶ崎市,中海岸１丁目１番１２号岩橋ビル２０１,,14,207,2530055,,,,,,,2025-12-25,1,,,,,ショウナンレゾナンスキョウカイ,0
1702,8030001170237,新規,0,2025-12-25,2025-12-25,株式会社エル・ティー・シー,,株式会社,埼玉県,戸田市,下前１丁目８―１２グランシエロ戸田公園ルクシア７０４号室,,11,224,3350016,,,,,,,2025-12-25,1,,,,,エルティーシー,0
1705,8030003028350,新規,0,2025-12-25,2025-12-25,ＳＨＩＡＮ合同会社,,合同会社,埼玉県,川口市,川口１丁目１番３－９１２号,,11,203,3320015,,,,,,,2025-12-25,1,,,,,シアン,0
1716,8040001141930,新規,0,2025-12-25,2025-12-25,株式会社なごみ工務店,,株式会社,千葉県,松戸市,八ケ崎３丁目３４番地の５,,12,207,2700023,,,,,,,2025-12-25,1,,,,,ナゴミコウムテン,0
1717,8040001141939,新規,0,2025-12-25,2025-12-25,株式会社オラガマンマ,,株式会社,千葉県,館山市,船形２９７番地２９,,12,205,2940056,,,,,,,2025-12-25,1,,,,,オラガマンマ,0
1721,8050001057795,新規,0,2025-12-25,2025-12-25,株式会社山中プレス,,株式会社,茨城県,常総市,新石下１２９８番地,,08,211,3002706,,,,,,,2025-12-25,1,,,,,ヤマナカプレス,0
1728,8100001039219,新規,0,2025-12-25,2025-12-25,株式会社信濃ノ国地所,,株式会社,長野県,木曽郡木曽町,日義２２６番地１,,20,432,3996101,,,,,,,2025-12-25,1,,,,,シナノノクニジショ,0
1731,8110001039804,新規,0,2025-12-25,2025-12-25,株式会社インケース,,株式会社,新潟県,南魚沼市,塩沢１５９５番地２６,,15,226,9496408,,,,,,,2025-12-25,1,,,,,インケース,0
1740,8120001283005,新規,0,2025-12-25,2025-12-25,株式会社Ａｇｅｎｔ　Ｌａｂ,,株式会社,大阪府,大阪市東住吉区,北田辺４丁目１０番２７号ローレルコート北田辺１１０１,,27,121,5460044,,,,,,,2025-12-25,1,,,,,エージェントラボ,0
1741,8120001283021,新規,0,2025-12-25,2025-12-25,紫軒株式会社,,株式会社,大阪府,大阪市中央区,備後町１丁目４番１６－２０５号,,27,128,5410051,,,,,,,2025-12-25,1,,,,,シノキ,0
1744,8120101072992,新規,0,2025-12-25,2025-12-25,ＢＬＩＴＺＴＡＫＴ株式会社,,株式会社,大阪府,泉南市,信達大苗代７０１番地の７０,,27,228,5900505,,,,,,,2025-12-25,1,,,,,ブッリツタクト,0
1745,8120101073000,新規,0,2025-12-25,2025-12-25,株式会社ＡＲＥＬＩ　ＨＯＬＤＩＮＧ,,株式会社,大阪府,堺市西区,神野町２丁１８番１０号,,27,144,5938308,,,,,,,2025-12-25,1,,,,,アレリホールディング,0
1753,8122001040030,新規,0,2025-12-25,2025-12-25,株式会社ＬｉＢＡＳＥ,,株式会社,大阪府,四條畷市,南野４丁目５番５号,,27,229,5750021,,,,,,,2025-12-25,1,,,,,リベース,0
1760,8140001141152,新規,0,2025-12-25,2025-12-25,株式会社Ｓａｎｋｏ　Ｒｏｂｏｔｉｃｓ,,株式会社,兵庫県,加古川市,加古川町南備後１４９番地の３１,,28,210,6750033,,,,,,,2025-12-25,1,,,,,サンコーロボティクス,0
1761,8140001141202,新規,0,2025-12-25,2025-12-25,ＴＯＷＡ・ＹＯＵ株式会社,,株式会社,兵庫県,神戸市東灘区,御影中町３丁目２番４－４７０３号,,28,101,6580054,,,,,,,2025-12-25,1,,,,,トワユー,0
1766,8140003022994,新規,0,2025-12-25,2025-12-25,ＴＣＭ合同会社,,合同会社,兵庫県,加古郡稲美町,岡３２４番地の３,,28,381,6751113,,,,,,,2025-12-25,1,,,,,ティーシーエム,0
1767,8140003023010,新規,0,2025-12-25,2025-12-25,播州城北事務合同会社,,合同会社,兵庫県,姫路市,八代東光寺町１２番１０エリータス八代３０３,,28,201,6700873,,,,,,,2025-12-25,1,,,,,バンシュウジョウホクジム,0
1774,8170003002358,新規,0,2025-12-25,2025-12-25,山悠合同会社,,合同会社,和歌山県,和歌山市,雄松町６丁目２―１―１２１,,30,201,6408124,,,,,,,2025-12-25,1,,,,,ヤマユウ,0
1779,8180001170032,新規,0,2025-12-25,2025-12-25,ＮＪＢ　ＩＮＴＥＲＮＡＴＩＯＮＡＬ株式会社,,株式会社,愛知県,春日井市,桃山町１丁目１６８番地オフィス２－１－Ａ,,23,206,4860802,,,,,,,2025-12-25,1,,,,,エヌジェイビーインターナショナル,0
1782,8180003029508,新規,0,2025-12-25,2025-12-25,合同会社Ｋ‐ＢＡＳＥ,,合同会社,愛知県,名古屋市熱田区,伝馬２丁目１６‐１末広ビル３号室,,23,109,4560034,,,,,,,2025-12-25,1,,,,,ケーベース,0
1784,8180005021355,新規,0,2025-12-25,2025-12-25,特定非営利活動法人日本福祉厚生支援機構,,その他の設立登記法人,愛知県,名古屋市天白区,天白町大字八事字裏山７７番地の２,,23,116,4680071,,,,,,,2025-12-25,1,,,,,ニホンフクシコウセイシエンキコウ,0
1800,8240001065969,新規,0,2025-12-25,2025-12-25,Ｄａｎ　Ｈｏｕｓｅ　Ｃｒｅａｔｅ株式会社,,株式会社,広島県,広島市安佐南区,長束西１丁目２８番２－５号,,34,105,7310136,,,,,,,2025-12-25,1,,,,,ダンハウスクリエイト,0
1806,8260001040846,新規,0,2025-12-25,2025-12-25,株式会社ル・ノワール,,株式会社,岡山県,岡山市北区,富田４８番地第１,,33,101,7000936,,,,,,,2025-12-25,1,,,,,ルノワール,0
1807,8260005011562,新規,0,2025-12-25,2025-12-25,一般社団法人わけねこかい,,その他の設立登記法人,岡山県,和気郡和気町,和気２３０番地,,33,346,7090451,,,,,,,2025-12-25,1,,,,,ワケネコカイ,0
1816,8330001033859,新規,0,2025-12-25,2025-12-25,株式会社Ｎ．Ｊ,,株式会社,熊本県,熊本市中央区,下通２丁目１－２２号ＴＭ１２ビル２階ＡＢ号室,,43,101,8600807,,,,,,,2025-12-25,1,,,,,エヌジェイ,0
1832,8430003018451,新規,0,2025-12-25,2025-12-25,合同会社ＪＡＰＰＩＮＯ,,合同会社,北海道,札幌市中央区,宮の森三条５丁目１番１号ラスタ宮の森２０３,,01,101,0640953,,,,,,,2025-12-25,1,,,,,ジャピーノ,0
1833,8460301005330,新規,0,2025-12-25,2025-12-25,北開商事株式会社,,株式会社,北海道,北見市,美山町６８番地４１,,01,208,0900062,,,,,,,2025-12-25,1,,,,,,0
1841,9010001261391,新規,0,2025-12-25,2025-12-25,株式会社芽,,株式会社,東京都,中央区,銀座１丁目２２番１１号銀座大竹ビジデンス２Ｆ,,13,102,1040061,,,,,,,2025-12-25,1,,,,,メ,0
1842,9010001261441,新規,0,2025-12-25,2025-12-25,株式会社ロケットモバイル,,株式会社,東京都,千代田区,外神田５丁目１番２号末広ビル４階,,13,101,1010021,,,,,,,2025-12-25,1,,,,,,0
1846,9010005041121,新規,0,2025-12-25,2025-12-25,一般社団法人コスモス,,その他の設立登記法人,東京都,千代田区,麹町５丁目１番地９階成倫税理士法人内,,13,101,1020083,,,,,,,2025-12-25,1,,,,,コスモス,0
1857,9010403036870,新規,0,2025-12-25,2025-12-25,Ｙ２ＳＦｅｌｉｚ合同会社,,合同会社,東京都,港区,南青山１丁目１７番８号,,13,103,1070062,,,,,,,2025-12-25,1,,,,,ワイツーエスフェリス,0
1858,9010501055228,新規,0,2025-12-25,2025-12-25,株式会社ノア,,株式会社,東京都,台東区,上野６丁目１番６号御徒町グリーンハイツ１００５号,,13,106,1100005,,,,,,,2025-12-25,1,,,,,ノア,0
1860,9010703008041,新規,0,2025-12-25,2025-12-25,蒼いトマト合同会社,,合同会社,東京都,品川区,東品川４丁目５番８－８３４号,,13,109,1400002,,,,,,,2025-12-25,1,,,,,アオイトマト,0
1861,9010703008058,新規,0,2025-12-25,2025-12-25,合同会社Ｓｅａｌ,,合同会社,東京都,品川区,小山台１丁目２１１４．１号室,,13,109,1420061,,,,,,,2025-12-25,1,,,,,シール,0
1872,9011001174542,新規,0,2025-12-25,2025-12-25,株式会社ａｃｃａ,,株式会社,東京都,目黒区,碑文谷５丁目２５番１－３０６号,,13,110,1520003,,,,,,,2025-12-25,1,,,,,アッカ,0
1873,9011001174575,新規,0,2025-12-25,2025-12-25,株式会社新進気鋭ウエスト,,株式会社,東京都,目黒区,下目黒２丁目１６番２０号,,13,110,1530064,,,,,,,2025-12-25,1,,,,,シンシンキエイウエスト,0
1876,9011005011295,新規,0,2025-12-25,2025-12-25,一般社団法人動物再生医療協会,,その他の設立登記法人,東京都,渋谷区,代々木５丁目５７番８号パークサイド参宮橋１階,,13,113,1510053,,,,,,,2025-12-25,1,,,,,ドウブツサイセイイリョウキョウカイ,0
1880,9011101114456,新規,0,2025-12-25,2025-12-25,株式会社ジブラ,,株式会社,東京都,新宿区,西早稲田３丁目１７番４－２１６号,,13,104,1690051,,,,,,,2025-12-25,1,,,,,ジブラ,0
1884,9011401027696,新規,0,2025-12-25,2025-12-25,株式会社むぅ＆もも,,株式会社,東京都,板橋区,泉町４番５号,,13,119,1740055,,,,,,,2025-12-25,1,,,,,ムゥアンドモモ,0
1901,9020001166136,新規,0,2025-12-25,2025-12-25,株式会社ＥｌｅＴ‐Ｗｏｒｋｓ,,株式会社,神奈川県,横浜市瀬谷区,下瀬谷１丁目７番地２１,,14,114,2460035,,,,,,,2025-12-25,1,,,,,エレティーワークス,0
1902,9020001166466,新規,0,2025-12-25,2025-12-25,株式会社ＢＲＩＶＩＯ,,株式会社,神奈川県,横浜市中区,弁天通４丁目６７‐１馬車道スクエアビル３階‐Ｂ,,14,104,2310007,,,,,,,2025-12-25,1,,,,,ブリヴィオ,0
1904,9020005017087,新規,0,2025-12-25,2025-12-25,一般社団法人首都圏相続センター,,その他の設立登記法人,神奈川県,横浜市中区,本町４丁目４３番地Ａ－ＰＬＡＣＥ馬車道４階,,14,104,2310005,,,,,,,2025-12-25,1,,,,,シュトケンソウゾクセンター,0
1913,9021001087116,新規,0,2025-12-25,2025-12-25,プライベートプロパティ株式会社,,株式会社,神奈川県,相模原市中央区,相模原２丁目１番１２－１６０４号,,14,152,2520231,,,,,,,2025-12-25,1,,,,,プライベートプロパティ,0
1921,9030001170285,新規,0,2025-12-25,2025-12-25,株式会社つづみ,,株式会社,埼玉県,和光市,白子３丁目１３番７５号２０３,,11,229,3510101,,,,,,,2025-12-25,1,,,,,ツヅミ,0
1922,9030001170293,新規,0,2025-12-25,2025-12-25,株式会社Ｂｅ　ｃｕｏｒｅ,,株式会社,埼玉県,さいたま市大宮区,大門町２丁目２５番地１０野原ＢＬＤ２Ｆ,,11,103,3300846,,,,,,,2025-12-25,1,,,,,ビークオーレ,0
1923,9030001170310,新規,0,2025-12-25,2025-12-25,自然体株式会社,,株式会社,埼玉県,上尾市,大字上１５５３番地１０自然ビレッジ１０１,,11,219,3620001,,,,,,,2025-12-25,1,,,,,ジネンタイ,0
1927,9030003028291,新規,0,2025-12-25,2025-12-25,合同会社ここ訪問介護サービス,,合同会社,埼玉県,川口市,朝日４丁目４番９－７号,,11,203,3320001,,,,,,,2025-12-25,1,,,,,ココホウモンカイゴサービス,0
1928,9030003028333,新規,0,2025-12-25,2025-12-25,合同会社Ｌｉｎｋ　Ｔｒａｄｅ,,合同会社,埼玉県,さいたま市中央区,上落合２丁目９－２ベルカントビル３０１,,11,105,3380001,,,,,,,2025-12-25,1,,,,,リンクトレード,0
1929,9030005022375,新規,0,2025-12-25,2025-12-25,特定非営利活動法人リアン,,その他の設立登記法人,埼玉県,北葛飾郡松伏町,田中２丁目１４番地１５,,11,465,3430117,,,,,,,2025-12-25,1,,,,,リアン,0
1935,9040003029215,新規,0,2025-12-25,2025-12-25,合同会社壱会工業,,合同会社,千葉県,市原市,椎の木台１丁目２４番地２,,12,219,2990128,,,,,,,2025-12-25,1,,,,,イチエコウギョウ,0
1936,9050001057786,新規,0,2025-12-25,2025-12-25,株式会社Ｃｙｐｒｅｓｓ＆Ｃｏ．,,株式会社,茨城県,ひたちなか市,東石川１丁目７番７号,,08,221,3120052,,,,,,,2025-12-25,1,,,,,サイプレスアンドコー,0
1945,9090001019667,新規,0,2025-12-25,2025-12-25,株式会社イコールスマイル,,株式会社,山梨県,甲斐市,西八幡３７６６番地１５,,19,210,4000117,,,,,,,2025-12-25,1,,,,,イコールスマイル,0
1957,9120001282963,新規,0,2025-12-25,2025-12-25,株式会社天文座,,株式会社,大阪府,大阪市淀川区,木川東３丁目９－２４明和ビル２Ｄ,,27,123,5320012,,,,,,,2025-12-25,1,,,,,テンモンザ,0
1958,9120001283020,新規,0,2025-12-25,2025-12-25,日本富島株式会社,,株式会社,大阪府,大阪市東淀川区,下新庄２丁目８－１６セントラル淡路５０２室,,27,114,5330021,,,,,,,2025-12-25,1,,,,,ニホントミシマ,0
1959,9120001283053,新規,0,2025-12-25,2025-12-25,ＦＡＢＯ株式会社,,株式会社,大阪府,大阪市西成区,玉出中２丁目１１－３４－２０２室,,27,122,5570044,,,,,,,2025-12-25,1,,,,,ファボ,0
1962,9120003031550,新規,0,2025-12-25,2025-12-25,合同会社ＷＷＫ,,合同会社,大阪府,大阪市浪速区,恵美須西２丁目１４番２１－３０１号,,27,111,5560003,,,,,,,2025-12-25,1,,,,,ダブリューダブリューケー,0
1963,9120003031567,新規,0,2025-12-25,2025-12-25,天星合同会社,,合同会社,大阪府,大阪市淀川区,三津屋中３丁目１０番４号,,27,123,5320036,,,,,,,2025-12-25,1,,,,,テンセイ,0
1972,9120901052029,新規,0,2025-12-25,2025-12-25,株式会社Ｍｉｒａ　ｆｉｌｍ,,株式会社,大阪府,豊中市,蛍池西町二丁目５番２０号,,27,203,5600000,,,,,,,2025-12-25,1,,,,,ミラフィルム,0
1985,9130001081299,新規,0,2025-12-25,2025-12-25,株式会社アカリト,,株式会社,京都府,南丹市,園部町横田５－３２,,26,213,6220051,,,,,,,2025-12-25,1,,,,,アカリト,0
1991,9140001141201,新規,0,2025-12-25,2025-12-25,株式会社サプライプラスワン,,株式会社,兵庫県,神戸市灘区,六甲台町８番４７－６１０号,,28,102,6570013,,,,,,,2025-12-25,1,,,,,サプライプラスワン,0
1992,9140001141218,新規,0,2025-12-25,2025-12-25,株式会社にじまる,,株式会社,兵庫県,加古川市,平岡町高畑８０１番地の１０,,28,210,6750103,,,,,,,2025-12-25,1,,,,,ニジマル,0
2005,9180001169973,新規,0,2025-12-25,2025-12-25,株式会社ＤＳ　Ｊａｐａｎ,,株式会社,愛知県,名古屋市中村区,名駅１丁目１番１号ＪＰタワー名古屋２１階,,23,105,4500002,,,,,,,2025-12-25,1,,,,,ディーエスジャパン,0
2006,9180001170015,新規,0,2025-12-25,2025-12-25,江米株式会社,,株式会社,愛知県,名古屋市中村区,稲上町３丁目３７番地（内山ビル１０２号室）,,23,105,4530066,,,,,,,2025-12-25,1,,,,,エミ,0
2007,9180001170023,新規,0,2025-12-25,2025-12-25,株式会社ＭＥＲＣＩ,,株式会社,愛知県,名古屋市西区,上堀越町３丁目１９番地の１,,23,104,4510084,,,,,,,2025-12-25,1,,,,,メルシー,0
2011,9180003029523,新規,0,2025-12-25,2025-12-25,ＹＤＫ合同会社,,合同会社,愛知県,名古屋市昭和区,塩付通２丁目１―１,,23,107,4660022,,,,,,,2025-12-25,1,,,,,ワイディーケー,0
2012,9180003029556,新規,0,2025-12-25,2025-12-25,はばたき合同会社,,合同会社,愛知県,丹羽郡扶桑町,大字柏森字中切４２２番地３,,23,362,4800103,,,,,,,2025-12-25,1,,,,,ハバタキ,0
2021,9200001044562,新規,0,2025-12-25,2025-12-25,Ｎｅｘｕｓ　Ｊａｐａｎ株式会社,,株式会社,岐阜県,大垣市,横曽根５丁目１２２番地,,21,202,5030944,,,,,,,2025-12-25,1,,,,,ネクサスジャパン,0
2028,9250001021474,新規,0,2025-12-25,2025-12-25,株式会社ステーション,,株式会社,山口県,下関市,竹崎町３丁目５番２２号２階,,35,201,7500025,,,,,,,2025-12-25,1,,,,,ステーション,0
2033,9270001009360,新規,0,2025-12-25,2025-12-25,Ｇ‐ＩＳＬＡＮＤ株式会社,,株式会社,鳥取県,倉吉市,関金町大鳥居６３９番地,,31,203,6820402,,,,,,,2025-12-25,1,,,,,ジーアイランド,0
2037,9290001112633,新規,0,2025-12-25,2025-12-25,株式会社Ｒｅｂｅｒｏ,,株式会社,福岡県,大牟田市,大字倉永１０５８番地,,40,202,8370906,,,,,,,2025-12-25,1,,,,,リベロ,0
2041,9290005019940,新規,0,2025-12-25,2025-12-25,医療法人松医会,,その他の設立登記法人,福岡県,福岡市博多区,博多駅東１丁目１３－１７松岡ビル２Ｆ,,40,132,8120013,,,,,,,2025-12-25,1,,,,,マツイカイ,0
2047,9340003005045,新規,0,2025-12-25,2025-12-25,合同会社エックスプロテイン,,合同会社,鹿児島県,鹿児島市,西千石町１１－２１鹿児島ＭＳビル５階,,46,201,8920847,,,,,,,2025-12-25,1,,,,,エックスプロテイン,0
2048,9340005009928,新規,0,2025-12-25,2025-12-25,一般社団法人南九州市ＤＭＯ,,その他の設立登記法人,鹿児島県,南九州市,知覧町郡６２０４番地,,46,223,8970302,,,,,,,2025-12-25,1,,,,,ミナミキュウシュウシディーエムオー,0
2049,9350001019863,新規,0,2025-12-25,2025-12-25,ＣＴＫ株式会社,,株式会社,宮崎県,都城市,早水町３４６０番地８,,45,202,8850016,,,,,,,2025-12-25,1,,,,,シーティーケー,0
2054,9360003015505,新規,0,2025-12-25,2025-12-25,合同会社ＳＨＯＫＥＮ,,合同会社,沖縄県,浦添市,屋富祖２丁目１６－１２,,47,208,9012127,,,,,,,2025-12-25,1,,,,,ショウケン,0
2055,9370001053349,新規,0,2025-12-25,2025-12-25,株式会社Ｅｄｅｎｉａ,,株式会社,宮城県,仙台市青葉区,みやぎ台２丁目２８番１４号,,04,101,9893214,,,,,,,2025-12-25,1,,,,,エデニア,0
2064,9430001095946,新規,0,2025-12-25,2025-12-25,株式会社Ｍｉｒａｃｕｌ,,株式会社,北海道,小樽市,星野町１２－３７,,01,203,0470262,,,,,,,2025-12-25,1,,,,,ミラクル,0
2066,9470001021031,新規,0,2025-12-25,2025-12-25,株式会社クレドリーベ,,株式会社,香川県,高松市,太田上町１番地１,,37,201,7618074,,,,,,,2025-12-25,1,,,,,クレドリーベ,0
2070,9700150133784,新規,0,2025-12-25,2025-12-25,Ｎｅｗ　Ｈｉｍａｌａｙａ　Ｅｎｔｅｒｐｒｉｓｅ　Ｃｏｍｐａｎｙ,,外国会社等,茨城県,古河市,大和田２５０７－１,,08,204,3060111,台湾高雄市小港区孔宅街７２号１階,,,,,,2025-12-25,1,,,,,ニユーヒマラヤエンタープライスカンパニー,0
