sequenceNumber,corporateNumber,process,correct,updateDate,changeDate,name,nameImageId,kind,prefectureName,cityName,streetNumber,addressImageId,prefectureCode,cityCode,postCode,addressOutside,addressOutsideImageId,closeDate,closeCause,successorCorporateNumber,changeCause,assignmentDate,latest,enName,enPrefectureName,enCityName,enAddressOutside,furigana,hihyoji
8,1010001202254,登記記録の閉鎖等,0,2025-01-16,2024-12-25,株式会社マナビー,,株式会社,東京都,中央区,日本橋２丁目１番１７号丹生ビル２階,,13,102,1030027,,,2024-12-25,清算の結了等,,,2019-07-09,1,,,,,マナビー,0
16,1010005019934,登記記録の閉鎖等,0,2025-01-16,2025-01-16,特定非営利活動法人八萬會,,その他の設立登記法人,東京都,港区,芝大門２丁目４番８号メビウスビル８Ｆ,,13,103,1050012,,,2025-01-16,登記官による閉鎖,,,2015-10-05,1,,,,,,0
17,1010005031559,登記記録の閉鎖等,0,2025-01-16,2025-01-14,一般社団法人Ｉｌｅｘ２,,その他の設立登記法人,東京都,中央区,日本橋１丁目４番１号,,13,102,1030027,,,2025-01-14,清算の結了等,,,2020-03-10,1,,,,,アイレックスツー,0
19,1010401026229,登記記録の閉鎖等,0,2025-01-16,2025-01-16,株式会社ＳＢＣ,,株式会社,東京都,港区,南青山６丁目７番５－１１０１号,,13,103,1070062,,,2025-01-16,登記官による閉鎖,,,2015-10-05,1,,,,,,0
20,1010401067405,登記記録の閉鎖等,0,2025-01-16,2025-01-16,株式会社ユナイテッドコミュニケーション,,株式会社,東京都,港区,台場１丁目３番２－３３０３号,,13,103,1350091,,,2025-01-16,登記官による閉鎖,,,2015-10-05,1,,,,,,0
21,1010401085134,登記記録の閉鎖等,0,2025-01-16,2025-01-16,ソングオブロシア株式会社,,株式会社,東京都,港区,南青山２丁目２番１５号ウィン青山１３１７号,,13,103,1070062,,,2025-01-16,登記官による閉鎖,,,2015-10-05,1,,,,,,0
22,1010401094218,登記記録の閉鎖等,0,2025-01-16,2025-01-16,株式会社ｂ４ｓｔｒｅａｍ,,株式会社,東京都,港区,南青山２丁目１１番１３号,,13,103,1070062,,,2025-01-16,登記官による閉鎖,,,2015-10-05,1,,,,,,0
23,1010401102582,登記記録の閉鎖等,0,2025-01-16,2025-01-16,日商ビジネスサポート株式会社,,株式会社,東京都,港区,赤坂６丁目５番１０－１４０１号,,13,103,1070052,,,2025-01-16,登記官による閉鎖,,,2015-10-05,1,,,,,,0
24,1010401106237,登記記録の閉鎖等,0,2025-01-16,2025-01-16,アール・エス・ティー・エヌコンサルティング株式会社,,株式会社,東京都,港区,六本木６丁目１６番５０号,,13,103,1060032,,,2025-01-16,登記官による閉鎖,,,2015-10-05,1,,,,,,0
25,1010401106906,登記記録の閉鎖等,0,2025-01-16,2025-01-16,株式会社ワ・ソシエテ,,株式会社,東京都,港区,芝浦４丁目２２番１号,,13,103,1080023,,,2025-01-16,登記官による閉鎖,,,2015-10-05,1,,,,,,0
35,1010402010504,登記記録の閉鎖等,0,2025-01-16,2025-01-16,有限会社浜善,,有限会社,東京都,港区,芝５丁目２９番２号,,13,103,1080014,,,2025-01-16,登記官による閉鎖,,,2015-10-05,1,,,,,,0
36,1010403009660,登記記録の閉鎖等,0,2025-01-16,2025-01-16,合同会社ＭＯＲＮＩＮＧ　Ｒ,,合同会社,東京都,港区,六本木３丁目１０番９号,,13,103,1060032,,,2025-01-16,登記官による閉鎖,,,2015-10-05,1,,,,,,0
38,1010405002606,登記記録の閉鎖等,0,2025-01-16,2025-01-16,特定非営利活動法人医療介護技術教育支援センター,,その他の設立登記法人,東京都,港区,港南２丁目１６番１号品川イーストワンタワー３階,,13,103,1080075,,,2025-01-16,登記官による閉鎖,,,2015-10-05,1,,,,,,0
39,1010405005939,登記記録の閉鎖等,0,2025-01-16,2025-01-16,特定非営利活動法人Ｔｈｅ　Ｃｌｕｂ　Ｃｏｎｃｉｅｒｇｅ　Ｊａｐａｎ,,その他の設立登記法人,東京都,港区,芝公園２丁目９番１１－７０４号,,13,103,1050011,,,2025-01-16,登記官による閉鎖,,,2015-10-05,1,,,,,,0
44,1010601020213,登記記録の閉鎖等,0,2025-01-16,2025-01-06,エヌエスディバン株式会社,,株式会社,大阪府,大阪市淀川区,宮原４丁目５番３６号,,27,123,5320003,,,2025-01-06,合併による解散等,1120001059262,令和７年１月１日大阪市淀川区宮原四丁目５番３６号湧永製薬株式会社（1120001059262）に合併し解散,2015-10-05,1,,,,,エヌエスディバン,0
45,1010601033727,登記記録の閉鎖等,0,2025-01-16,2025-01-06,株式会社東京イースト動物医療センター,,株式会社,千葉県,市川市,南八幡４丁目１７番８号,,12,203,2720023,,,2025-01-06,合併による解散等,3040001006808,令和７年１月１日千葉県市川市南八幡四丁目１７番８号イオンペット株式会社（3040001006808）に合併し解散,2015-10-05,1,,,,,トウキョウイーストドウブツイリョウセンター,0
46,1010601035780,登記記録の閉鎖等,0,2025-01-16,2025-01-10,株式会社ガーベラジュエリー,,株式会社,東京都,江東区,東雲１丁目９番３２－３４１０号,,13,108,1350062,,,2025-01-10,清算の結了等,,,2015-10-05,1,,,,,ガーベラジュエリー,0
53,1010901023519,登記記録の閉鎖等,0,2025-01-16,2025-01-16,株式会社ｓｕｂｓｔａｎｃｅ,,株式会社,東京都,港区,六本木１丁目９－１８アークヒルズ仙石山レジデンス１８０６号,,13,103,1060032,,,2025-01-16,登記官による閉鎖,,,2015-10-05,1,,,,,,0
71,1011105010948,登記記録の閉鎖等,0,2025-01-16,2024-12-27,一般社団法人アジア・ダイアローグ・フォー・グローバル・リーダーシップ,,その他の設立登記法人,東京都,新宿区,市谷田町３丁目８番,,13,104,1620843,,,2024-12-27,清算の結了等,,,2024-02-21,1,,,,,アジアダイアローグフォーグローバルリーダーシップ,0
79,1011701024649,登記記録の閉鎖等,0,2025-01-16,2025-01-09,株式会社コンフォリアキャピタル,,株式会社,東京都,江戸川区,西葛西７丁目１番３号レクス８４－１０２,,13,123,1340088,,,2025-01-09,清算の結了等,,,2021-08-23,1,,,,,コンフォリアキャピタル,0
88,1013301002282,登記記録の閉鎖等,0,2025-01-16,2024-12-27,株式会社大滝製＿所,00059844,株式会社,東京都,豊島区,長崎３丁目５番１２号,,13,116,1710051,,,2024-12-27,清算の結了等,,,2015-10-05,1,,,,,オオタキセイアンジョ,0
91,1013301049844,登記記録の閉鎖等,0,2025-01-16,2024-12-27,株式会社パトリエ,,株式会社,東京都,豊島区,長崎１丁目３－１１並木園ビル２０２,,13,116,1710051,,,2024-12-27,清算の結了等,,,2022-10-26,1,,,,,パトリエ,0
93,1020001004575,登記記録の閉鎖等,0,2025-01-16,2024-12-25,株式会社村上義一商店,,株式会社,神奈川県,横浜市港南区,大久保１丁目１８番７号,,14,111,2330007,,,2024-12-25,清算の結了等,,,2015-10-05,1,,,,,ムラカミギイチショウテン,0
108,1021001009787,登記記録の閉鎖等,0,2025-01-16,2025-01-10,株式会社エネルギー技研,,株式会社,神奈川県,鎌倉市,扇ガ谷４丁目４番１４号,,14,204,2480011,,,2025-01-10,清算の結了等,,,2015-10-05,1,,,,,エネルギーギケン,0
138,1070001006633,登記記録の閉鎖等,0,2025-01-16,2025-01-14,共和物産株式会社,,株式会社,群馬県,藤岡市,中大塚６９２番地６,,10,209,3750053,,,2025-01-14,清算の結了等,,,2015-10-05,1,,,,,キョウワブッサン,0
144,1080001013934,登記記録の閉鎖等,0,2025-01-16,2025-01-07,硝子リビングサービス株式会社,,株式会社,静岡県,榛原郡吉田町,川尻３５８３番地の５,,22,424,4210302,,,2025-01-07,合併による解散等,9040001016603,令和７年１月１日静岡県榛原郡吉田町川尻３５８３番地の５ＡＧＣテクノグラス株式会社（9040001016603）に合併し解散,2015-10-05,1,,,,,ガラスリビングサービス,0
149,1080102007471,登記記録の閉鎖等,0,2025-01-16,2025-01-07,有限会社豊進,,有限会社,静岡県,駿東郡小山町,菅沼４８６番地の１,,22,344,4101312,,,2025-01-07,清算の結了等,,,2015-10-05,1,,,,,ホウシン,0
160,1120001214437,登記記録の閉鎖等,0,2025-01-16,2025-01-09,株式会社Ｍｙ　ｇｒｅｅｎ,,株式会社,京都府,宇治市,折居台１丁目４番地の１９７,,26,204,6110023,,,2025-01-09,清算の結了等,,,2018-07-10,1,,,,,マイグリーン,0
185,1140002000545,登記記録の閉鎖等,0,2025-01-16,2025-01-08,有限会社タツノモータープール事務所,,有限会社,兵庫県,芦屋市,六麓荘町４番１８号,,28,206,6590011,,,2025-01-08,清算の結了等,,,2015-10-05,1,,,,,タツノモータープールジムショ,0
188,1170001007118,登記記録の閉鎖等,0,2025-01-16,2025-01-10,株式会社サンライト,,株式会社,和歌山県,有田郡湯浅町,大字湯浅１４６１番地の３,,30,361,6430004,,,2025-01-10,清算の結了等,,,2015-10-05,1,,,,,サンライト,0
190,1180001019467,登記記録の閉鎖等,0,2025-01-16,2025-01-16,株式会社サンテック,,株式会社,愛知県,名古屋市中区,富士見町５番１９号,,23,106,4600014,,,2025-01-16,登記官による閉鎖,,,2015-10-05,1,,,,,,0
191,1180001045744,登記記録の閉鎖等,0,2025-01-16,2025-01-16,株式会社渡邊安二商店,00072135,株式会社,愛知県,清須市,西枇杷島町上新９４番地,,23,233,4520022,,,2025-01-16,登記官による閉鎖,,,2015-10-05,1,,,,,,0
192,1180001056857,登記記録の閉鎖等,0,2025-01-16,2025-01-16,株式会社Ｖｉｓｉｏｎ,,株式会社,愛知県,名古屋市千種区,今池１丁目６番３号,,23,101,4640850,,,2025-01-16,登記官による閉鎖,,,2015-10-05,1,,,,,,0
193,1180001057756,登記記録の閉鎖等,0,2025-01-16,2025-01-16,株式会社ヨシキ,,株式会社,愛知県,名古屋市西区,名西２丁目１番３号,,23,104,4510064,,,2025-01-16,登記官による閉鎖,,,2015-10-05,1,,,,,,0
194,1180001059001,登記記録の閉鎖等,0,2025-01-16,2025-01-16,一陽建設株式会社,,株式会社,愛知県,名古屋市天白区,野並３丁目１９９番地の１,,23,116,4680045,,,2025-01-16,登記官による閉鎖,,,2015-10-05,1,,,,,,0
195,1180001064661,登記記録の閉鎖等,0,2025-01-16,2025-01-16,株式会社中京運動研究所,,株式会社,愛知県,名古屋市緑区,鳴海町字砦１番地２,,23,114,4580801,,,2025-01-16,登記官による閉鎖,,,2015-10-05,1,,,,,,0
196,1180001071105,登記記録の閉鎖等,0,2025-01-16,2025-01-16,株式会社ｎａｎｏｄａ　ｌａｂｏ,,株式会社,愛知県,名古屋市昭和区,御器所町字木市２９番地,,23,107,4660061,,,2025-01-16,登記官による閉鎖,,,2015-10-05,1,,,,,,0
197,1180001073844,登記記録の閉鎖等,0,2025-01-16,2025-01-16,岡田精工株式会社,,株式会社,愛知県,春日井市,上条町１０丁目１５９番地,,23,206,4860833,,,2025-01-16,登記官による閉鎖,,,2015-10-05,1,,,,,,0
198,1180001081814,登記記録の閉鎖等,0,2025-01-16,2025-01-16,株式会社ジャポンサービス,,株式会社,愛知県,小牧市,小牧２丁目１１４番地,,23,219,4850041,,,2025-01-16,登記官による閉鎖,,,2015-10-05,1,,,,,,0
200,1180001091466,登記記録の閉鎖等,0,2025-01-16,2025-01-16,株式会社コージィ,,株式会社,愛知県,名古屋市西区,見寄町２２２番地１,,23,104,4520839,,,2025-01-16,登記官による閉鎖,,,2015-10-05,1,,,,,,0
201,1180001102140,登記記録の閉鎖等,0,2025-01-16,2025-01-16,Ｊ－スペック株式会社,,株式会社,愛知県,江南市,田代町南出７２番地,,23,217,4838132,,,2025-01-16,登記官による閉鎖,,,2015-10-05,1,,,,,,0
204,1180002006687,登記記録の閉鎖等,0,2025-01-16,2025-01-16,有限会社天時商店,,有限会社,愛知県,名古屋市港区,中川本町７丁目１番地の５６,,23,111,4550051,,,2025-01-16,登記官による閉鎖,,,2015-10-05,1,,,,,,0
205,1180002007248,登記記録の閉鎖等,0,2025-01-16,2025-01-16,有限会社メイコウ企画,,有限会社,愛知県,名古屋市港区,八百島２丁目１２０７番地,,23,111,4550885,,,2025-01-16,登記官による閉鎖,,,2015-10-05,1,,,,,,0
206,1180002021570,登記記録の閉鎖等,0,2025-01-16,2025-01-16,有限会社嶋観光サービス,,有限会社,愛知県,名古屋市天白区,原３丁目５０７番地,,23,116,4680015,,,2025-01-16,登記官による閉鎖,,,2015-10-05,1,,,,,,0
207,1180002029861,登記記録の閉鎖等,0,2025-01-16,2025-01-16,有限会社ケープランニング,,有限会社,愛知県,名古屋市名東区,扇町３丁目８番地の２,,23,115,4650076,,,2025-01-16,登記官による閉鎖,,,2015-10-05,1,,,,,,0
208,1180002038805,登記記録の閉鎖等,0,2025-01-16,2025-01-16,有限会社木村商会,,有限会社,愛知県,名古屋市守山区,守山２丁目１４番３０号,,23,113,4630067,,,2025-01-16,登記官による閉鎖,,,2015-10-05,1,,,,,,0
209,1180002039316,登記記録の閉鎖等,0,2025-01-16,2025-01-16,有限会社サターン,,有限会社,愛知県,名古屋市緑区,梅里２丁目１１１番地,,23,114,4580001,,,2025-01-16,登記官による閉鎖,,,2015-10-05,1,,,,,,0
210,1180002041718,登記記録の閉鎖等,0,2025-01-16,2025-01-16,有限会社タチバナ,,有限会社,愛知県,名古屋市中区,松原２丁目２番２９号,,23,106,4600017,,,2025-01-16,登記官による閉鎖,,,2015-10-05,1,,,,,,0
211,1180002063051,登記記録の閉鎖等,0,2025-01-16,2025-01-16,有限会社クリエイティブロマン,,有限会社,愛知県,日進市,赤池南２丁目１２０２番地カルティア赤池５０７,,23,230,4700127,,,2025-01-16,登記官による閉鎖,,,2015-10-05,1,,,,,,0
212,1180002074552,登記記録の閉鎖等,0,2025-01-16,2025-01-16,有限会社水谷鉄工所,,有限会社,愛知県,犬山市,字城山１１０番地の２,,23,215,4840858,,,2025-01-16,登記官による閉鎖,,,2015-10-05,1,,,,,,0
213,1180002083339,登記記録の閉鎖等,0,2025-01-16,2025-01-16,有限会社クロスオーバープロジェクト,,有限会社,愛知県,半田市,出口町１丁目１３９番地,,23,205,4750903,,,2025-01-16,登記官による閉鎖,,,2015-10-05,1,,,,,,0
214,1180002086440,登記記録の閉鎖等,0,2025-01-16,2025-01-16,有限会社ケイ・ポイント,,有限会社,愛知県,半田市,北二ツ坂町３丁目１１番地９,,23,205,4750927,,,2025-01-16,登記官による閉鎖,,,2015-10-05,1,,,,,,0
215,1180002088032,登記記録の閉鎖等,0,2025-01-16,2025-01-16,有限会社丸昌工業,,有限会社,愛知県,東海市,荒尾町後山２３番地,,23,222,4760003,,,2025-01-16,登記官による閉鎖,,,2015-10-05,1,,,,,,0
216,1180003010762,登記記録の閉鎖等,0,2025-01-16,2025-01-16,合資会社新美商店,,合資会社,愛知県,瀬戸市,東印所町１２番地,,23,204,4890072,,,2025-01-16,登記官による閉鎖,,,2015-10-05,1,,,,,,0
217,1180003012362,登記記録の閉鎖等,0,2025-01-16,2025-01-16,柴山プラスチック合資会社,,合資会社,愛知県,江南市,前飛保町西町２１３番地,,23,217,4838349,,,2025-01-16,登記官による閉鎖,,,2015-10-05,1,,,,,,0
220,1180005002411,登記記録の閉鎖等,0,2025-01-16,2025-01-16,医療法人健生会,,その他の設立登記法人,愛知県,名古屋市昭和区,桜山町５丁目１０１番地,,23,107,4660044,,,2025-01-16,登記官による閉鎖,,,2015-10-05,1,,,,,,0
221,1180005002659,登記記録の閉鎖等,0,2025-01-16,2025-01-16,医療法人朋友会,,その他の設立登記法人,愛知県,名古屋市中村区,名駅１丁目１番２号,,23,105,4500002,,,2025-01-16,登記官による閉鎖,,,2015-10-05,1,,,,,,0
222,1180005006486,登記記録の閉鎖等,0,2025-01-16,2025-01-16,特定非営利活動法人和と輪,,その他の設立登記法人,愛知県,名古屋市中村区,五反城町１丁目４７番地３Ｆ,,23,105,4530836,,,2025-01-16,登記官による閉鎖,,,2015-10-05,1,,,,,,0
223,1180005006734,登記記録の閉鎖等,0,2025-01-16,2025-01-16,特定非営利活動法人国際青少年育成協会,,その他の設立登記法人,愛知県,名古屋市北区,三軒町３１７番地,,23,103,4620004,,,2025-01-16,登記官による閉鎖,,,2015-10-05,1,,,,,,0
224,1180005006981,登記記録の閉鎖等,0,2025-01-16,2025-01-16,特定非営利活動法人日本医療機器技術支援協会,,その他の設立登記法人,愛知県,名古屋市中村区,名駅南２丁目７番２号,,23,105,4500003,,,2025-01-16,登記官による閉鎖,,,2015-10-05,1,,,,,,0
225,1180005007889,登記記録の閉鎖等,0,2025-01-16,2025-01-16,特定非営利活動法人ワークフェア,,その他の設立登記法人,愛知県,名古屋市守山区,森宮町１４６番地の１,,23,113,4630096,,,2025-01-16,登記官による閉鎖,,,2015-10-05,1,,,,,,0
226,1180005015082,登記記録の閉鎖等,0,2025-01-16,2025-01-16,農事組合法人犬山食育大ファーム,,その他の設立登記法人,愛知県,犬山市,大字五郎丸字稲葉組２９番地,,23,215,4840066,,,2025-01-16,登記官による閉鎖,,,2015-10-05,1,,,,,,0
230,1180302006420,登記記録の閉鎖等,0,2025-01-16,2025-01-16,有限会社伊藤業務店,,有限会社,愛知県,豊橋市,中橋良町４６番地３,,23,201,4418037,,,2025-01-16,登記官による閉鎖,,,2015-10-05,1,,,,,,0
232,1180302010042,登記記録の閉鎖等,0,2025-01-16,2025-01-16,有限会社ミツマル花田工業,,有限会社,愛知県,豊橋市,花中町１５８番地６,,23,201,4418032,,,2025-01-16,登記官による閉鎖,,,2015-10-05,1,,,,,,0
235,1180302024620,登記記録の閉鎖等,0,2025-01-16,2025-01-16,有限会社明治屋,,有限会社,愛知県,豊田市,小渡町寺下３番地,,23,211,4442846,,,2025-01-16,登記官による閉鎖,,,2015-10-05,1,,,,,,0
236,1190001005243,登記記録の閉鎖等,0,2025-01-16,2024-12-23,株式会社東海パトロール,,株式会社,三重県,鈴鹿市,稲生４丁目１６番３号,,24,207,5100205,,,2024-12-23,合併による解散等,1190001010499,令和６年１２月１９日三重県松阪市東町６２３番地１東海パトロール株式会社（1190001010499）に合併し解散,2015-10-05,1,,,,,トウカイパトロール,0
238,1200001001612,登記記録の閉鎖等,0,2025-01-16,2025-01-16,株式会社金太郎,,株式会社,岐阜県,岐阜市,鏡島精華３丁目１８番１号森島ビル２Ｆ,,21,201,5010112,,,2025-01-16,登記官による閉鎖,,,2015-10-05,1,,,,,,0
239,1200001012163,登記記録の閉鎖等,0,2025-01-16,2025-01-16,株式会社三田防災保守管理センター,,株式会社,岐阜県,羽島郡笠松町,門間９２８番地の２,,21,303,5016065,,,2025-01-16,登記官による閉鎖,,,2015-10-05,1,,,,,,0
240,1200001013070,登記記録の閉鎖等,0,2025-01-16,2025-01-16,株式会社いつきホーム,,株式会社,岐阜県,岐阜市,住ノ江町１丁目１７番地,,21,201,5008408,,,2025-01-16,登記官による閉鎖,,,2015-10-05,1,,,,,,0
241,1200001021866,登記記録の閉鎖等,0,2025-01-16,2025-01-16,株式会社成瀬鉄工,,株式会社,岐阜県,瑞浪市,小田町１１６９番地,,21,208,5096112,,,2025-01-16,登記官による閉鎖,,,2015-10-05,1,,,,,,0
243,1200003000190,登記記録の閉鎖等,0,2025-01-16,2025-01-16,足立酒造合資会社,,合資会社,岐阜県,岐阜市,琴塚３丁目２１番１０号,,21,201,5008222,,,2025-01-16,登記官による閉鎖,,,2015-10-05,1,,,,,,0
244,1200005003349,登記記録の閉鎖等,0,2025-01-16,2025-01-16,中央建設土木事業協同組合,,その他の設立登記法人,岐阜県,本巣郡北方町,高屋白木２丁目４３番地の４,,21,421,5010454,,,2025-01-16,登記官による閉鎖,,,2015-10-05,1,,,,,,0
245,1200005005428,登記記録の閉鎖等,0,2025-01-16,2025-01-16,特定非営利活動法人西濃れんげの会,,その他の設立登記法人,岐阜県,大垣市,久徳町５６０番地,,21,202,5030982,,,2025-01-16,登記官による閉鎖,,,2015-10-05,1,,,,,,0
247,1200005012507,登記記録の閉鎖等,0,2025-01-16,2025-01-16,相生村農業會,,その他の設立登記法人,岐阜県,郡上市,八幡町相生１３５２番地２,,21,219,5014236,,,2025-01-16,登記官による閉鎖,,,2016-07-20,1,,,,,,0
248,1210002004035,登記記録の閉鎖等,0,2025-01-16,2025-01-10,有限会社八十嶋工業,,有限会社,福井県,福井市,手寄２丁目４番６号,,18,201,9100858,,,2025-01-10,清算の結了等,,,2015-10-05,1,,,,,ヤソシマコウギョウ,0
259,1240002051033,登記記録の閉鎖等,0,2025-01-16,2025-01-10,有限会社テイケイシイ角田計算センター,,有限会社,広島県,尾道市,新浜２丁目２番２１号,,34,205,7220014,,,2025-01-10,清算の結了等,,,2015-10-05,1,,,,,テイケイシイスミダケイサンセンター,0
274,1290801006876,登記記録の閉鎖等,0,2025-01-16,2025-01-06,株式会社ボナー,,株式会社,福岡県,北九州市小倉北区,熊本２丁目１０番１０号,,40,106,8020044,,,2025-01-06,合併による解散等,1290801006728,令和７年１月１日北九州市小倉北区熊本二丁目１０番１０号株式会社さわやか倶楽部（1290801006728）に合併し解散,2015-10-05,1,,,,,ボナー,0
275,1290802007287,登記記録の閉鎖等,0,2025-01-16,2025-01-15,有限会社トードレクト,,有限会社,福岡県,北九州市小倉北区,大手町１６番３７－１１１０号,,40,106,8030814,,,2025-01-15,清算の結了等,,,2015-10-05,1,,,,,トードレクト,0
280,1310001006022,登記記録の閉鎖等,0,2025-01-16,2025-01-16,株式会社丸三商会,,株式会社,長崎県,佐世保市,松川町１１番２４－５０３号,,42,202,8570804,,,2025-01-16,登記官による閉鎖,,,2015-10-05,1,,,,,,0
281,1310001013051,登記記録の閉鎖等,0,2025-01-16,2025-01-16,株式会社ｉ　ｃｏｍｍｕｎｉｃａｔｉｏｎｓ,,株式会社,長崎県,長崎市,幸町６番３号,,42,201,8500046,,,2025-01-16,登記官による閉鎖,,,2015-10-05,1,,,,,,0
283,1310002000362,登記記録の閉鎖等,0,2025-01-16,2025-01-10,有限会社池本建具建装,,有限会社,長崎県,長崎市,新戸町１丁目３１番１７号エクセレント大山３０１号,,42,201,8500954,,,2025-01-10,清算の結了等,,,2015-10-05,1,,,,,イケモトタテグケンソウ,0
284,1310002001419,登記記録の閉鎖等,0,2025-01-16,2025-01-16,有限会社公商事,,有限会社,長崎県,長崎市,平間町１３２２番地２,,42,201,8510136,,,2025-01-16,登記官による閉鎖,,,2015-10-05,1,,,,,,0
285,1310002004017,登記記録の閉鎖等,0,2025-01-16,2025-01-16,有限会社中山,,有限会社,長崎県,西彼杵郡長与町,高田郷４番地７,,42,307,8512127,,,2025-01-16,登記官による閉鎖,,,2015-10-05,1,,,,,,0
286,1310002005717,登記記録の閉鎖等,0,2025-01-16,2025-01-16,有限会社森保産業,,有限会社,長崎県,長崎市,矢上町１９番１０号,,42,201,8510133,,,2025-01-16,登記官による閉鎖,,,2015-10-05,1,,,,,,0
287,1310002008686,登記記録の閉鎖等,0,2025-01-16,2025-01-16,有限会社ブルーメンウィンケル,,有限会社,長崎県,長崎市,田中町２７９番地４３号,,42,201,8510134,,,2025-01-16,登記官による閉鎖,,,2015-10-05,1,,,,,,0
288,1310002013199,登記記録の閉鎖等,0,2025-01-16,2025-01-16,有限会社ヤマサキ,,有限会社,長崎県,佐世保市,小佐々町矢岳４９番地,,42,202,8570414,,,2025-01-16,登記官による閉鎖,,,2015-10-05,1,,,,,,0
290,1310005001639,登記記録の閉鎖等,0,2025-01-16,2025-01-16,特定非営利活動法人ＮＰＯユナイテッドファミリー,,その他の設立登記法人,長崎県,長崎市,宝栄町８番１７号,,42,201,8528016,,,2025-01-16,登記官による閉鎖,,,2015-10-05,1,,,,,,0
291,1310005003858,登記記録の閉鎖等,0,2025-01-16,2025-01-16,特定非営利活動法人新上五島蒼潮会・五島ネットワーク,,その他の設立登記法人,長崎県,南松浦郡新上五島町,浦桑郷１３８２番地,,42,411,8574511,,,2025-01-16,登記官による閉鎖,,,2015-10-05,1,,,,,,0
301,1350002015506,登記記録の閉鎖等,0,2025-01-16,2025-01-08,有限会社和田設備工業,,有限会社,宮崎県,都城市,山田町中霧島３４９３番地９,,45,202,8894602,,,2025-01-08,清算の結了等,,,2015-10-05,1,,,,,ワダセツビコウギョウ,0
323,1460001004176,登記記録の閉鎖等,0,2025-01-16,2025-01-16,ジャパンエネルギーサービス株式会社,,株式会社,東京都,港区,虎ノ門５丁目１３番１号,,13,103,1050001,,,2025-01-16,登記官による閉鎖,,,2015-10-05,1,,,,,,0
334,2010001172117,登記記録の閉鎖等,0,2025-01-16,2024-12-25,株式会社アジアトラスト,,株式会社,東京都,千代田区,神田佐久間町２丁目１１,,13,101,1010025,,,2024-12-25,清算の結了等,,,2015-12-09,1,,,,,アジアトラスト,0
339,2010002052391,登記記録の閉鎖等,0,2025-01-16,2025-01-14,有限会社エヌ・ジー・エス,,有限会社,東京都,武蔵野市,境２丁目２５番１５号,,13,203,1800022,,,2025-01-14,清算の結了等,,,2015-10-05,1,,,,,エヌジーエス,0
343,2010401011956,登記記録の閉鎖等,0,2025-01-16,2025-01-16,三協ネジ株式会社,,株式会社,東京都,港区,芝４丁目５番９号,,13,103,1080014,,,2025-01-16,登記官による閉鎖,,,2015-10-05,1,,,,,,0
344,2010401026310,登記記録の閉鎖等,0,2025-01-16,2025-01-16,株式会社フローラ．インターナシヨナル,,株式会社,東京都,港区,六本木３丁目１３番１２号,,13,103,1060032,,,2025-01-16,登記官による閉鎖,,,2015-10-05,1,,,,,,0
345,2010401027003,登記記録の閉鎖等,0,2025-01-16,2025-01-16,平和恒産株式会社,,株式会社,東京都,港区,西麻布３丁目１番２３号,,13,103,1060031,,,2025-01-16,登記官による閉鎖,,,2015-10-05,1,,,,,,0
346,2010401075126,登記記録の閉鎖等,0,2025-01-16,2025-01-16,株式会社ジャパン・デジタルイメージ,,株式会社,東京都,港区,赤坂６丁目１０番４２号,,13,103,1070052,,,2025-01-16,登記官による閉鎖,,,2015-10-05,1,,,,,,0
347,2010401075621,登記記録の閉鎖等,0,2025-01-16,2025-01-16,株式会社三田プロセス製版所,,株式会社,東京都,港区,六本木４丁目１１番４号,,13,103,1060032,,,2025-01-16,登記官による閉鎖,,,2015-10-05,1,,,,,,0
348,2010401087204,登記記録の閉鎖等,0,2025-01-16,2025-01-16,株式会社イシンコンサルティング,,株式会社,東京都,港区,北青山２丁目１０番１７号,,13,103,1070061,,,2025-01-16,登記官による閉鎖,,,2015-10-05,1,,,,,,0
349,2010401087443,登記記録の閉鎖等,0,2025-01-16,2025-01-16,アイティーシー株式会社,,株式会社,東京都,港区,新橋５丁目６番４号,,13,103,1050004,,,2025-01-16,登記官による閉鎖,,,2015-10-05,1,,,,,,0
350,2010401089976,登記記録の閉鎖等,0,2025-01-16,2025-01-16,株式会社ＳＫＦ,,株式会社,東京都,港区,赤坂７丁目３番３７号プラースカナダ１階,,13,103,1070052,,,2025-01-16,登記官による閉鎖,,,2015-10-05,1,,,,,,0
351,2010401091651,登記記録の閉鎖等,0,2025-01-16,2025-01-16,ミスター・ビーコン株式会社,,株式会社,東京都,港区,六本木７丁目１５番１７号７－Ｆ,,13,103,1060032,,,2025-01-16,登記官による閉鎖,,,2015-10-05,1,,,,,,0
352,2010401094720,登記記録の閉鎖等,0,2025-01-16,2025-01-16,ペイメントソリューション株式会社,,株式会社,東京都,港区,港南２丁目１５番１号品川インターシティＡ棟２８階,,13,103,1080075,,,2025-01-16,登記官による閉鎖,,,2015-10-05,1,,,,,,0
353,2010401095082,登記記録の閉鎖等,0,2025-01-16,2025-01-16,株式会社アイラル,,株式会社,東京都,港区,虎ノ門５丁目３番２０号,,13,103,1050001,,,2025-01-16,登記官による閉鎖,,,2015-10-05,1,,,,,,0
354,2010401098399,登記記録の閉鎖等,0,2025-01-16,2025-01-16,株式会社ソレラシステムズ,,株式会社,東京都,港区,南麻布１丁目３番１７号,,13,103,1060047,,,2025-01-16,登記官による閉鎖,,,2015-10-05,1,,,,,,0
355,2010401099356,登記記録の閉鎖等,0,2025-01-16,2025-01-16,株式会社ＭＥＺＥＯ　ＳＯＦＴＷＡＲＥ　ＪＡＰＡＮ,,株式会社,東京都,港区,赤坂９丁目７番１号ミッドタウン・タワー４１階ハーバート・スミス外国法事務弁護士事務所内,,13,103,1070052,,,2025-01-16,登記官による閉鎖,,,2015-10-05,1,,,,,,0
356,2010401100486,登記記録の閉鎖等,0,2025-01-16,2025-01-16,株式会社潮商会,,株式会社,東京都,港区,赤坂３丁目６番１７号,,13,103,1070052,,,2025-01-16,登記官による閉鎖,,,2015-10-05,1,,,,,,0
361,2010402004513,登記記録の閉鎖等,0,2025-01-16,2025-01-16,有限会社ケイシートップ,,有限会社,東京都,港区,東麻布２丁目３５番１号ＫＣビル,,13,103,1060044,,,2025-01-16,登記官による閉鎖,,,2015-10-05,1,,,,,,0
362,2010402006848,登記記録の閉鎖等,0,2025-01-16,2024-12-17,有限会社白金コンド,,有限会社,東京都,港区,白金１丁目１５番２５号,,13,103,1080072,,,2024-12-17,清算の結了等,,,2015-10-05,1,,,,,,0
366,2010403008686,登記記録の閉鎖等,0,2025-01-16,2025-01-16,ＯＮＬＹ　ＯＮＥ　ＳＯＬＵＴＩＯＮ合同会社,,合同会社,東京都,港区,南青山２丁目２番１５号,,13,103,1070062,,,2025-01-16,登記官による閉鎖,,,2015-10-05,1,,,,,,0
370,2010405003099,登記記録の閉鎖等,0,2025-01-16,2025-01-16,特定非営利活動法人グランドエイジ,,その他の設立登記法人,東京都,港区,白金台２丁目１４番２号,,13,103,1080071,,,2025-01-16,登記官による閉鎖,,,2015-10-05,1,,,,,,0
371,2010405005839,登記記録の閉鎖等,0,2025-01-16,2025-01-16,リプラス・レジデンシャル・コンストラクション２号特定目的会社,,その他の設立登記法人,東京都,港区,虎ノ門４丁目１番２８号虎ノ門タワーズオフィス,,13,103,1050001,,,2025-01-16,登記官による閉鎖,,,2015-10-05,1,,,,,,0
372,2010405009591,登記記録の閉鎖等,0,2025-01-16,2025-01-16,特定非営利活動法人エムシーアイ,,その他の設立登記法人,東京都,港区,南青山５丁目１８－４ネーゾン南青山２０１,,13,103,1070062,,,2025-01-16,登記官による閉鎖,,,2015-10-05,1,,,,,,0
373,2010405012389,登記記録の閉鎖等,0,2025-01-16,2025-01-16,一般社団法人ＡＳＲＳ,,その他の設立登記法人,東京都,港区,赤坂４丁目２－３,,13,103,1070052,,,2025-01-16,登記官による閉鎖,,,2015-10-05,1,,,,,,0
374,2010501046241,登記記録の閉鎖等,0,2025-01-16,2025-01-06,株式会社Ｓｃｈｍｉｔｔ,,株式会社,東京都,台東区,池之端１丁目４番３３号ブリリアタワー上野池之端１２０６号,,13,106,1100008,,,2025-01-06,清算の結了等,,,2020-09-18,1,,,,,シュミット,0
383,2010602021969,登記記録の閉鎖等,0,2025-01-16,2025-01-10,有限会社東洋ベンド,,有限会社,東京都,江東区,東砂５丁目１０番１５号,,13,108,1360074,,,2025-01-10,清算の結了等,,,2015-10-05,1,,,,,トウヨウベンド,0
387,2010901009260,登記記録の閉鎖等,0,2025-01-16,2024-12-26,新栄物流株式会社,,株式会社,東京都,世田谷区,喜多見１丁目３２番６号,,13,112,1570067,,,2024-12-26,清算の結了等,,,2015-10-05,1,,,,,シンエイブツリュウ,0
422,2013301035694,登記記録の閉鎖等,0,2025-01-16,2025-01-06,株式会社都市創造オフィス,,株式会社,東京都,豊島区,南大塚１丁目５１番７号美咲大塚ビル２０３号,,13,116,1700005,,,2025-01-06,清算の結了等,,,2015-10-05,1,,,,,トシソウゾウオフィス,0
467,2060002030830,登記記録の閉鎖等,0,2025-01-16,2025-01-08,有限会社川中子販売,,有限会社,栃木県,下野市,川中子３１３５番地,,09,216,3290415,,,2025-01-08,清算の結了等,,,2015-10-05,1,,,,,カワナゴハンバイ,0
470,2080002000014,登記記録の閉鎖等,0,2025-01-16,2025-01-08,有限会社アイ・エヌ・アイ,,有限会社,静岡県,静岡市葵区,産女字中川原１０３１番地,,22,101,4211222,,,2025-01-08,清算の結了等,,,2015-10-05,1,,,,,アイエヌアイ,0
494,2120102001196,登記記録の閉鎖等,0,2025-01-16,2025-01-14,有限会社関西エンジニアリング,00032654,有限会社,大阪府,堺市北区,奥本町１丁３３０番地,,27,146,5918007,,,2025-01-14,清算の結了等,,,2015-10-05,1,,,,,カンサイエンジニアリング,0
496,2120103004454,登記記録の閉鎖等,0,2025-01-16,2024-12-25,合同会社アミティ,,合同会社,大阪府,岸和田市,別所町２丁目１９番１７号,,27,202,5960045,,,2024-12-25,清算の結了等,,,2021-11-26,1,,,,,アミティ,0
500,2130001017160,登記記録の閉鎖等,0,2025-01-16,2025-01-06,ケイ・エム興産株式会社,,株式会社,東京都,豊島区,東池袋１丁目２１番１号ラグーン池袋ビル８階,,13,116,1700013,,,2025-01-06,合併による解散等,8011003010143,令和７年１月１日東京都豊島区東池袋一丁目２１番１号ラグーン池袋ビル８階合同会社イリュウインベストメント（8011003010143）に合併し解散,2015-10-05,1,,,,,ケイエムコウサン,0
508,2140001032662,登記記録の閉鎖等,0,2025-01-16,2024-12-27,株式会社裕貴,,株式会社,兵庫県,神戸市中央区,中町通２丁目２番１７号武田ビル４階Ａ,,28,110,6500027,,,2024-12-27,清算の結了等,,,2015-10-05,1,,,,,ユタカ,0
511,2140001116878,登記記録の閉鎖等,0,2025-01-16,2025-01-09,ソーシャルキャピタル株式会社,,株式会社,兵庫県,神戸市中央区,雲井通４丁目２番２号,,28,110,6510096,,,2025-01-09,合併による解散等,4140001092928,令和７年１月１日神戸市中央区雲井通四丁目２番２号株式会社テレックスホールディングス（4140001092928）に合併し解散,2020-03-19,1,,,,,ソーシャルキャピタル,0
515,2150002000386,登記記録の閉鎖等,0,2025-01-16,2025-01-14,有限会社大杉,,有限会社,奈良県,奈良市,秋篠三和町２丁目２番３号,,29,201,6310814,,,2025-01-14,清算の結了等,,,2015-10-05,1,,,,,オオスギ,0
521,2180001003610,登記記録の閉鎖等,0,2025-01-16,2025-01-16,大阪屋クリーニング株式会社,,株式会社,愛知県,名古屋市千種区,大久手町５丁目７番地,,23,101,4640854,,,2025-01-16,登記官による閉鎖,,,2015-10-05,1,,,,,オオサカヤクリーニング,0
522,2180001011217,登記記録の閉鎖等,0,2025-01-16,2025-01-16,名南通商株式会社,,株式会社,愛知県,名古屋市瑞穂区,井戸田町２丁目４８番地の７,,23,108,4670835,,,2025-01-16,登記官による閉鎖,,,2015-10-05,1,,,,,,0
523,2180001015515,登記記録の閉鎖等,0,2025-01-16,2025-01-16,株式会社松本組,,株式会社,愛知県,名古屋市南区,中割町１丁目１４番地,,23,112,4570826,,,2025-01-16,登記官による閉鎖,,,2015-10-05,1,,,,,,0
524,2180001053234,登記記録の閉鎖等,0,2025-01-16,2025-01-16,寶無盡株式会社,,株式会社,愛知県,名古屋市中区,門前町三丁目２５番地,,23,106,4600018,,,2025-01-16,登記官による閉鎖,,,2018-07-31,1,,,,,タカラムジン,0
525,2180001059660,登記記録の閉鎖等,0,2025-01-16,2025-01-16,株式会社ＡＤＶＡＮＣＥ,,株式会社,愛知県,名古屋市中区,栄３丁目２番３号名古屋日興證券ビル４階,,23,106,4600008,,,2025-01-16,登記官による閉鎖,,,2015-10-05,1,,,,,,0
526,2180001059727,登記記録の閉鎖等,0,2025-01-16,2025-01-16,株式会社フュージョン,,株式会社,愛知県,名古屋市中区,栄３丁目２２番７号,,23,106,4600008,,,2025-01-16,登記官による閉鎖,,,2015-10-05,1,,,,,,0
527,2180001061724,登記記録の閉鎖等,0,2025-01-16,2025-01-16,株式会社明洞,,株式会社,愛知県,名古屋市中区,葵２丁目１３番２０号,,23,106,4600006,,,2025-01-16,登記官による閉鎖,,,2015-10-05,1,,,,,,0
528,2180001070097,登記記録の閉鎖等,0,2025-01-16,2025-01-16,株式会社ユッカ,,株式会社,愛知県,名古屋市瑞穂区,苗代町１８番１７号,,23,108,4670841,,,2025-01-16,登記官による閉鎖,,,2015-10-05,1,,,,,,0
529,2180001070551,登記記録の閉鎖等,0,2025-01-16,2025-01-16,株式会社マークウィンズ,,株式会社,愛知県,名古屋市東区,泉３丁目２４番１２号,,23,102,4610001,,,2025-01-16,登記官による閉鎖,,,2015-10-05,1,,,,,,0
530,2180001082753,登記記録の閉鎖等,0,2025-01-16,2025-01-16,株式会社シティホーム,,株式会社,愛知県,一宮市,浅野字外裏７番地１,,23,203,4910871,,,2025-01-16,登記官による閉鎖,,,2015-10-05,1,,,,,,0
531,2180001092942,登記記録の閉鎖等,0,2025-01-16,2025-01-16,株式会社サンライズ南知多,,株式会社,愛知県,知多郡南知多町,大字山海字高座５１番地,,23,445,4703322,,,2025-01-16,登記官による閉鎖,,,2015-10-05,1,,,,,,0
532,2180001111090,登記記録の閉鎖等,0,2025-01-16,2025-01-16,金澤貿易株式会社,,株式会社,愛知県,名古屋市中区,栄３丁目１１番５号,,23,106,4600008,,,2025-01-16,登記官による閉鎖,,,2015-10-05,1,,,,,,0
533,2180001111628,登記記録の閉鎖等,0,2025-01-16,2025-01-16,ハビバジャパン株式会社,,株式会社,愛知県,弥富市,平島中４丁目１０２番地レインボータウンＤ－２０１,,23,235,4980032,,,2025-01-16,登記官による閉鎖,,,2015-10-05,1,,,,,,0
538,2180002011604,登記記録の閉鎖等,0,2025-01-16,2025-01-16,有限会社篠崎紙工,,有限会社,愛知県,名古屋市北区,六が池町４８６番地,,23,103,4620002,,,2025-01-16,登記官による閉鎖,,,2015-10-05,1,,,,,,0
539,2180002032518,登記記録の閉鎖等,0,2025-01-16,2025-01-16,有限会社ビズ,,有限会社,愛知県,名古屋市緑区,若田２丁目８１１番地,,23,114,4580034,,,2025-01-16,登記官による閉鎖,,,2015-10-05,1,,,,,,0
540,2180002064668,登記記録の閉鎖等,0,2025-01-16,2025-01-16,有限会社豊明,,有限会社,愛知県,豊明市,間米町榎山９００の５６新日豊明マンション１０１号,,23,229,4701132,,,2025-01-16,登記官による閉鎖,,,2015-10-05,1,,,,,,0
541,2180002069023,登記記録の閉鎖等,0,2025-01-16,2025-01-16,コスモ建機工業有限会社,,有限会社,愛知県,小牧市,大字大草５６８９番地,,23,219,4850802,,,2025-01-16,登記官による閉鎖,,,2015-10-05,1,,,,,,0
542,2180002070212,登記記録の閉鎖等,0,2025-01-16,2025-01-16,有限会社リチャードカールインターナショナル,,有限会社,愛知県,小牧市,小牧２丁目１０番地,,23,219,4850041,,,2025-01-16,登記官による閉鎖,,,2015-10-05,1,,,,,,0
543,2180002073173,登記記録の閉鎖等,0,2025-01-16,2025-01-16,有限会社ケアーサポート,,有限会社,愛知県,尾張旭市,桜ケ丘町３丁目６０番地の１,,23,226,4880859,,,2025-01-16,登記官による閉鎖,,,2015-10-05,1,,,,,,0
544,2180002093147,登記記録の閉鎖等,0,2025-01-16,2025-01-16,有限会社Ａ・Ｅ・Ｃ,,有限会社,愛知県,津島市,神尾町字江西６７番地,,23,208,4960013,,,2025-01-16,登記官による閉鎖,,,2015-10-05,1,,,,,,0
546,2180005006031,登記記録の閉鎖等,0,2025-01-16,2025-01-16,特定非営利活動法人名古屋南部地域再生センター,,その他の設立登記法人,愛知県,名古屋市港区,港楽３丁目１番７号,,23,111,4550014,,,2025-01-16,登記官による閉鎖,,,2015-10-05,1,,,,,,0
547,2180005006238,登記記録の閉鎖等,0,2025-01-16,2025-01-16,特定非営利活動法人日中友好支援センター,,その他の設立登記法人,愛知県,名古屋市中区,新栄２丁目１３番３号,,23,106,4600007,,,2025-01-16,登記官による閉鎖,,,2015-10-05,1,,,,,,0
548,2180005010941,登記記録の閉鎖等,0,2025-01-16,2025-01-16,特定非営利活動法人Ｗｅｌｌ－Ｂｅｉｎｇ,,その他の設立登記法人,愛知県,一宮市,花池４丁目５番２０号藤和シティコープ花池３０６号,,23,203,4910914,,,2025-01-16,登記官による閉鎖,,,2015-10-05,1,,,,,,0
549,2180005011477,登記記録の閉鎖等,0,2025-01-16,2025-01-16,特定非営利活動法人賃貸借契約適正化推進協議会,,その他の設立登記法人,愛知県,一宮市,三条字郷南東４７番地８,,23,203,4940003,,,2025-01-16,登記官による閉鎖,,,2015-10-05,1,,,,,,0
551,2180301004449,登記記録の閉鎖等,0,2025-01-16,2025-01-16,株式会社Ａｓｈ　ｔ．ｏ．ｐ,,株式会社,愛知県,岡崎市,百々西町６番地６,,23,202,4442117,,,2025-01-16,登記官による閉鎖,,,2015-10-05,1,,,,,,0
552,2180301012220,登記記録の閉鎖等,0,2025-01-16,2025-01-16,株式会社ＧＣＰ,,株式会社,愛知県,豊川市,本野ケ原１丁目２番地,,23,207,4420005,,,2025-01-16,登記官による閉鎖,,,2015-10-05,1,,,,,,0
553,2180301012336,登記記録の閉鎖等,0,2025-01-16,2025-01-16,株式会社ＮＥＸＴ,,株式会社,愛知県,岡崎市,天白町字河原１２番地,,23,202,4440844,,,2025-01-16,登記官による閉鎖,,,2015-10-05,1,,,,,,0
554,2180301014241,登記記録の閉鎖等,0,2025-01-16,2025-01-16,株式会社柘植研磨工業所,,株式会社,愛知県,刈谷市,東新町４丁目１１５番地,,23,210,4480031,,,2025-01-16,登記官による閉鎖,,,2019-11-25,1,,,,,ツゲケンマコウギョウショ,0
555,2180301023671,登記記録の閉鎖等,0,2025-01-16,2025-01-16,碧岡運送株式会社,,株式会社,愛知県,西尾市,一色町藤江上元メ４９番地,,23,213,4440414,,,2025-01-16,登記官による閉鎖,,,2015-10-05,1,,,,,,0
556,2180301023928,登記記録の閉鎖等,0,2025-01-16,2025-01-16,株式会社ｉ　Ｆａｒｍコーポレーション,,株式会社,愛知県,西尾市,吉良町乙川源四５１番地,,23,213,4440512,,,2025-01-16,登記官による閉鎖,,,2015-10-05,1,,,,,,0
557,2180301024604,登記記録の閉鎖等,0,2025-01-16,2025-01-16,株式会社キャッチ,,株式会社,愛知県,豊橋市,花田町字小松８４番地の２,,23,201,4418019,,,2025-01-16,登記官による閉鎖,,,2015-10-05,1,,,,,,0
560,2180302015511,登記記録の閉鎖等,0,2025-01-16,2025-01-16,有限会社シャンデザインワークス,,有限会社,愛知県,蒲郡市,三谷町七舗１３４番地,,23,214,4430021,,,2025-01-16,登記官による閉鎖,,,2015-10-05,1,,,,,,0
561,2180302017722,登記記録の閉鎖等,0,2025-01-16,2025-01-16,有限会社三共資源工業,,有限会社,愛知県,安城市,東栄町１丁目１番地,,23,212,4460007,,,2025-01-16,登記官による閉鎖,,,2015-10-05,1,,,,,,0
562,2180302027671,登記記録の閉鎖等,0,2025-01-16,2025-01-16,有限会社寿弘建設,,有限会社,愛知県,新城市,字札木１２番地,,23,221,4411367,,,2025-01-16,登記官による閉鎖,,,2015-10-05,1,,,,,,0
566,2190002015620,登記記録の閉鎖等,0,2025-01-16,2025-01-09,有限会社ケーワイシステム,,有限会社,三重県,松阪市,久米町５６９番地１０,,24,204,5152122,,,2025-01-09,清算の結了等,,,2015-10-05,1,,,,,,0
571,2200001029462,登記記録の閉鎖等,0,2025-01-16,2025-01-16,株式会社ＦａｌＦｕｎ,,株式会社,岐阜県,養老郡養老町,押越１５２２番地１,,21,341,5031316,,,2025-01-16,登記官による閉鎖,,,2015-10-05,1,,,,,,0
572,2200002004092,登記記録の閉鎖等,0,2025-01-16,2025-01-16,有限会社ぶらっくぼっくす,,有限会社,岐阜県,岐阜市,野一色３丁目１１番１号,,21,201,5008226,,,2025-01-16,登記官による閉鎖,,,2015-10-05,1,,,,,,0
573,2200002006634,登記記録の閉鎖等,0,2025-01-16,2025-01-16,有限会社ヤマダ電子サービス,,有限会社,岐阜県,山県市,梅原３０１０番地の１,,21,215,5012115,,,2025-01-16,登記官による閉鎖,,,2015-10-05,1,,,,,,0
574,2200002010066,登記記録の閉鎖等,0,2025-01-16,2025-01-16,有限会社西濃電子工業,,有限会社,岐阜県,本巣市,金原８４１番地の１,,21,218,5011232,,,2025-01-16,登記官による閉鎖,,,2015-10-05,1,,,,,,0
575,2200002011980,登記記録の閉鎖等,0,2025-01-16,2025-01-16,有限会社フラット・インターナショナル,,有限会社,岐阜県,羽島郡岐南町,平島８丁目１３６番地,,21,302,5016003,,,2025-01-16,登記官による閉鎖,,,2015-10-05,1,,,,,,0
576,2200002018563,登記記録の閉鎖等,0,2025-01-16,2025-01-16,有限会社かしわの鳥力,,有限会社,岐阜県,美濃市,大字曽代字城下４番地,,21,207,5013701,,,2025-01-16,登記官による閉鎖,,,2015-10-05,1,,,,,,0
582,2230001020534,登記記録の閉鎖等,0,2025-01-16,2025-01-10,株式会社イロトリドリ,,株式会社,富山県,高岡市,戸出町４丁目４番１６号,,16,202,9391104,,,2025-01-10,清算の結了等,,,2024-09-19,1,,,,,イロトリドリ,0
587,2240002008379,登記記録の閉鎖等,0,2025-01-16,2025-01-14,有限会社すぎもと,,有限会社,広島県,広島市西区,井口台１丁目１７番１８号,,34,104,7330844,,,2025-01-14,清算の結了等,,,2015-10-05,1,,,,,,0
594,2260002013121,登記記録の閉鎖等,0,2025-01-16,2025-01-06,株式会社ももたろう薬局,,株式会社,岡山県,岡山市北区,大元１丁目１番２号,,33,101,7000924,,,2025-01-06,合併による解散等,3260002001538,令和７年１月１日岡山市北区大元一丁目１番２号株式会社エムエム薬局（3260002001538）に合併し解散,2015-10-05,1,,,,,モモタロウヤッキョク,0
618,2290003011212,登記記録の閉鎖等,0,2025-01-16,2024-12-24,ジョイティー合同会社,,合同会社,福岡県,福岡市中央区,天神２丁目３番１０号天神パインクレスト７１９号,,40,133,8100001,,,2024-12-24,清算の結了等,,,2021-05-18,1,,,,,ジョイティー,0
621,2290802013499,登記記録の閉鎖等,0,2025-01-16,2025-01-14,有限会社エッチワイシー,,有限会社,福岡県,北九州市八幡西区,南王子町１２番２１号,,40,109,8060038,,,2025-01-14,清算の結了等,,,2015-10-05,1,,,,,エッチワイシー,0
624,2310001004941,登記記録の閉鎖等,0,2025-01-16,2025-01-16,株式会社山崎,,株式会社,長崎県,長崎市,浜町１０番１５号,,42,201,8500853,,,2025-01-16,登記官による閉鎖,,,2015-10-05,1,,,,,,0
625,2310002000394,登記記録の閉鎖等,0,2025-01-16,2025-01-16,有限会社石橋キミエ商会,,有限会社,長崎県,長崎市,浜口町８番１３号,,42,201,8528107,,,2025-01-16,登記官による閉鎖,,,2015-10-05,1,,,,,,0
626,2310002009584,登記記録の閉鎖等,0,2025-01-16,2025-01-16,有限会社川口工業,,有限会社,長崎県,佐世保市,俵町２６番１２号,,42,202,8570016,,,2025-01-16,登記官による閉鎖,,,2015-10-05,1,,,,,,0
627,2310002010179,登記記録の閉鎖等,0,2025-01-16,2025-01-16,有限会社佐田工業,,有限会社,長崎県,佐世保市,新田町５０番地１,,42,202,8580913,,,2025-01-16,登記官による閉鎖,,,2015-10-05,1,,,,,,0
628,2310002012522,登記記録の閉鎖等,0,2025-01-16,2025-01-16,有限会社松下生地,,有限会社,長崎県,東彼杵郡波佐見町,小樽郷６８４番地,00096039,42,323,8593704,,,2025-01-16,登記官による閉鎖,,,2015-10-05,1,,,,,,0
629,2310002017513,登記記録の閉鎖等,0,2025-01-16,2025-01-16,有限会社野澤自動車,,有限会社,長崎県,大村市,協和町６９８番地１,,42,205,8560820,,,2025-01-16,登記官による閉鎖,,,2015-10-05,1,,,,,,0
631,2310005000689,登記記録の閉鎖等,0,2025-01-16,2025-01-16,社団法人長崎県ボウリング場協会,,その他の設立登記法人,長崎県,長崎市,万才町７番１号,,42,201,8500033,,,2025-01-16,登記官による閉鎖,,,2015-10-05,1,,,,,,0
632,2310005001002,登記記録の閉鎖等,0,2025-01-16,2025-01-16,長崎市茂木枇杷農業協同組合連合会,,その他の設立登記法人,長崎県,長崎市,茂木町１５９０番地,,42,201,8510241,,,2025-01-16,登記官による閉鎖,,,2015-10-05,1,,,,,,0
633,2310005001968,登記記録の閉鎖等,0,2025-01-16,2025-01-16,社団法人長与中央霊園,,その他の設立登記法人,長崎県,西彼杵郡長与町,嬉里郷４７２番地１,,42,307,8512128,,,2025-01-16,登記官による閉鎖,,,2015-10-05,1,,,,,,0
634,2310005005597,登記記録の閉鎖等,0,2025-01-16,2025-01-16,特定非営利活動法人グリーンスピリット,,その他の設立登記法人,長崎県,南島原市,深江町甲２９３７番地,,42,214,8591501,,,2025-01-16,登記官による閉鎖,,,2015-10-05,1,,,,,,0
635,2310005007544,登記記録の閉鎖等,0,2025-01-16,2025-01-16,特定非営利活動法人五島ユーアイ会,,その他の設立登記法人,長崎県,五島市,戸岐町１２２４番地,,42,211,8530054,,,2025-01-16,登記官による閉鎖,,,2015-10-05,1,,,,,,0
639,2330001020202,登記記録の閉鎖等,0,2025-01-16,2025-01-06,株式会社コクピットＦ－１,,株式会社,熊本県,熊本市東区,新南部４丁目７番３７号,,43,102,8618028,,,2025-01-06,合併による解散等,2330001007397,令和７年１月６日熊本市東区新南部四丁目７番３７号株式会社にしやま（2330001007397）に合併し解散,2015-10-05,1,,,,,コクピットエフワン,0
657,2440001005860,登記記録の閉鎖等,0,2025-01-16,2025-01-10,株式会社北食,,株式会社,北海道,函館市,北浜町７番５号,,01,202,0400078,,,2025-01-10,合併による解散等,4010001041880,令和７年１月１日東京都中央区銀座五丁目１５番１号株式会社紀文食品（4010001041880）に合併し解散,2015-10-05,1,,,,,ホクショク,0
668,3010001193459,登記記録の閉鎖等,0,2025-01-16,2024-12-25,Ｗｏｒｋｓｐｏｔ　Ｊａｐａｎ株式会社,,株式会社,東京都,千代田区,大手町１丁目９番２号,,13,101,1000004,,,2024-12-25,清算の結了等,,,2018-07-23,1,,,,,ワークスポットジャパン,0
682,3010401014108,登記記録の閉鎖等,0,2025-01-16,2025-01-16,株式会社俊道技建,,株式会社,東京都,港区,新橋５丁目１２番６号,,13,103,1050004,,,2025-01-16,登記官による閉鎖,,,2015-10-05,1,,,,,シュンドウギケン,0
683,3010401037876,登記記録の閉鎖等,0,2025-01-16,2025-01-16,株式会社エム・クリエイト,,株式会社,東京都,港区,新橋６丁目１７番１号,,13,103,1050004,,,2025-01-16,登記官による閉鎖,,,2015-10-05,1,,,,,,0
684,3010401052157,登記記録の閉鎖等,0,2025-01-16,2025-01-16,明星物産株式会社,,株式会社,東京都,港区,芝高輪西台町１番地,,13,103,1050000,,,2025-01-16,登記官による閉鎖,,,2019-05-08,1,,,,,ミョウジョウブッサン,0
685,3010401054509,登記記録の閉鎖等,0,2025-01-16,2024-12-27,株式会社ホロニック,,株式会社,東京都,新宿区,四谷４丁目２４－１６御苑ハイム４０６,,13,104,1600004,,,2024-12-27,清算の結了等,,,2015-10-05,1,,,,,ホロニック,0
686,3010401063749,登記記録の閉鎖等,0,2025-01-16,2025-01-16,株式会社オフィスパートナー,,株式会社,東京都,港区,新橋４丁目２４番３,,13,103,1050004,,,2025-01-16,登記官による閉鎖,,,2015-10-05,1,,,,,,0
687,3010401072089,登記記録の閉鎖等,0,2025-01-16,2025-01-16,株式会社オフィスＭＩＺＯ,,株式会社,東京都,港区,赤坂３丁目１１番１４－３１２号,,13,103,1070052,,,2025-01-16,登記官による閉鎖,,,2015-10-05,1,,,,,,0
688,3010401080380,登記記録の閉鎖等,0,2025-01-16,2025-01-16,株式会社ＣＲＵＮＫ　Ｅｎｔｅｒｔａｉｎｍｅｎｔ,,株式会社,東京都,港区,六本木５丁目１６番５２号インペリアル六本木２号館Ｓ－２０１号室,,13,103,1060032,,,2025-01-16,登記官による閉鎖,,,2015-10-05,1,,,,,,0
690,3010401082939,登記記録の閉鎖等,0,2025-01-16,2025-01-16,株式会社グラン・アンペリアル,,株式会社,東京都,港区,三田３丁目７番１８号ザ・イトヤマタワー,,13,103,1080073,,,2025-01-16,登記官による閉鎖,,,2015-10-05,1,,,,,,0
691,3010401088837,登記記録の閉鎖等,0,2025-01-16,2025-01-16,株式会社優企画,,株式会社,東京都,港区,新橋３丁目２１番７号松本ビル５Ｆ,,13,103,1050004,,,2025-01-16,登記官による閉鎖,,,2015-10-05,1,,,,,,0
692,3010401089892,登記記録の閉鎖等,0,2025-01-16,2025-01-16,株式会社ビルウェル証券,,株式会社,東京都,港区,芝公園１丁目６番８号,,13,103,1050011,,,2025-01-16,登記官による閉鎖,,,2015-10-05,1,,,,,,0
693,3010401093564,登記記録の閉鎖等,0,2025-01-16,2025-01-16,株式会社クリエイト,,株式会社,東京都,港区,南青山２丁目２番１５号ウィン青山１４０３,,13,103,1070062,,,2025-01-16,登記官による閉鎖,,,2015-10-05,1,,,,,,0
694,3010401096658,登記記録の閉鎖等,0,2025-01-16,2025-01-16,株式会社エージェント・ティーエー,,株式会社,東京都,港区,赤坂１丁目４番１４号ダイヤモンドビル赤坂５階,,13,103,1070052,,,2025-01-16,登記官による閉鎖,,,2015-10-05,1,,,,,,0
696,3010401098514,登記記録の閉鎖等,0,2025-01-16,2025-01-16,株式会社ワイエスプラン,,株式会社,東京都,港区,南青山２丁目２番１５号,,13,103,1070062,,,2025-01-16,登記官による閉鎖,,,2015-10-05,1,,,,,,0
697,3010401109023,登記記録の閉鎖等,0,2025-01-16,2025-01-16,株式会社ＳＵＮ,,株式会社,東京都,港区,芝５丁目１４番２号徐ビル５Ｆ,,13,103,1080014,,,2025-01-16,登記官による閉鎖,,,2015-10-05,1,,,,,,0
698,3010401129558,登記記録の閉鎖等,0,2025-01-16,2024-12-27,株式会社ＡＲＥＸＹ,,株式会社,東京都,新宿区,四谷３丁目５番地文化エステート四谷ビル７Ｆ,,13,104,1600004,,,2024-12-27,清算の結了等,,,2017-02-06,1,,,,,アレクシー,0
701,3010401145687,登記記録の閉鎖等,0,2025-01-16,2024-12-26,Ｏｒｓｔｅｄ　Ｊａｐａｎ株式会社,,株式会社,東京都,千代田区,有楽町１丁目１番２号日比谷三井タワー１２階,,13,101,1000006,,,2024-12-26,清算の結了等,,,2019-05-29,1,,,,,オーステッドジャパン,0
706,3010402006310,登記記録の閉鎖等,0,2025-01-16,2025-01-16,有限会社新東,,有限会社,東京都,港区,南麻布２丁目１３番１９号高野ビル内,,13,103,1060047,,,2025-01-16,登記官による閉鎖,,,2015-10-05,1,,,,,,0
707,3010403009659,登記記録の閉鎖等,0,2025-01-16,2025-01-16,合同会社Ｒｏｐｐｏｎｇｉ　Ｌ,,合同会社,東京都,港区,六本木３丁目１０番９号,,13,103,1060032,,,2025-01-16,登記官による閉鎖,,,2015-10-05,1,,,,,,0
709,3010403025152,登記記録の閉鎖等,0,2025-01-16,2024-12-19,合同会社ＳＡＰ　Ｓａｋｕｒａｇａｗａ,,合同会社,東京都,港区,虎ノ門５丁目１番４号,,13,103,1050001,,,2024-12-19,清算の結了等,,,2021-04-19,1,,,,,エスエーピーサクラガワ,0
711,3010405008840,登記記録の閉鎖等,0,2025-01-16,2025-01-16,特定非営利活動法人ケアー二十一,,その他の設立登記法人,東京都,港区,芝大門１丁目４番４号,,13,103,1050012,,,2025-01-16,登記官による閉鎖,,,2015-10-05,1,,,,,,0
714,3010601010798,登記記録の閉鎖等,0,2025-01-16,2025-01-10,サンワーク工業株式会社,,株式会社,東京都,墨田区,京島３丁目５１番９号,,13,107,1310046,,,2025-01-10,清算の結了等,,,2015-10-05,1,,,,,サンワークコウギョウ,0
719,3010703006430,登記記録の閉鎖等,0,2025-01-16,2024-12-26,合同会社ＡＢＣ,,合同会社,東京都,品川区,西五反田３丁目７－６レジディアタワー目黒不動前２８０１,,13,109,1410031,,,2024-12-26,清算の結了等,,,2022-10-24,1,,,,,エービーシー,0
757,3011802002551,登記記録の閉鎖等,0,2025-01-16,2025-01-06,有限会社ケイ・アイ・シィー,,有限会社,東京都,葛飾区,西新小岩３丁目３０番２１－５０１号,,13,122,1240025,,,2025-01-06,合併による解散等,3011801000886,令和６年１２月３１日東京都葛飾区西新小岩三丁目２０番８号株式会社カツシカ（3011801000886）に合併し解散,2015-10-05,1,,,,,ケイアイシィー,0
760,3012302007396,登記記録の閉鎖等,0,2025-01-16,2025-01-08,有限会社丸幸水産,,有限会社,東京都,町田市,小川２丁目４番地１,,13,209,1940003,,,2025-01-08,清算の結了等,,,2015-10-05,1,,,,,マルコウスイサン,0
761,3012402020266,登記記録の閉鎖等,0,2025-01-16,2025-01-09,イーミライ・プランナー株式会社,,株式会社,東京都,杉並区,善福寺４丁目１番７号,,13,115,1670041,,,2025-01-09,合併による解散等,9012401021862,令和７年１月１日東京都武蔵野市吉祥寺本町一丁目３４番１５号コーポ雄貴２０２号イーミライ・ホールディングス株式会社（9012401021862）に合併し解散,2015-10-05,1,,,,,イーミライプランナー,0
767,3013301016446,登記記録の閉鎖等,0,2025-01-16,2025-01-06,株式会社斉藤製作所,,株式会社,東京都,豊島区,巣鴨１丁目４０番４号,,13,116,1700002,,,2025-01-06,清算の結了等,,,2015-10-05,1,,,,,,0
803,3040001123941,登記記録の閉鎖等,0,2025-01-16,2025-01-06,株式会社ジュエリーハウス,,株式会社,千葉県,千葉市若葉区,大宮台１丁目１７番２号,,12,104,2640015,,,2025-01-06,清算の結了等,,,2022-06-23,1,,,,,ジュエリーハウス,0
805,3040001132942,登記記録の閉鎖等,0,2025-01-16,2025-01-06,成田国際教育株式会社,,株式会社,千葉県,成田市,東町６０７番地１,,12,211,2860025,,,2025-01-06,合併による解散等,8040001089377,令和７年１月１日千葉県佐倉市大崎台三丁目１番１５株式会社京櫻（8040001089377）に合併し解散,2024-04-08,1,,,,,ナリタコクサイキョウイク,0
829,3100001030025,登記記録の閉鎖等,0,2025-01-16,2025-01-07,株式会社Ｔ＆Ｙ,,株式会社,長野県,千曲市,大字新山７４８番地,,20,218,3890823,,,2025-01-07,清算の結了等,,,2017-02-20,1,,,,,ティーアンドワイ,0
831,3100002015685,登記記録の閉鎖等,0,2025-01-16,2025-01-08,有限会社ウチカワ,,有限会社,長野県,東御市,県１９８番地,,20,219,3890517,,,2025-01-08,清算の結了等,,,2015-10-05,1,,,,,ウチカワ,0
833,3100003007236,登記記録の閉鎖等,0,2025-01-16,2025-01-08,合同会社ＮＩＣＯＬＩ,,合同会社,長野県,須坂市,大字日滝２８３－３,,20,207,3820000,,,2025-01-08,清算の結了等,,,2023-10-25,1,,,,,ニコリ,0
838,3120001027242,登記記録の閉鎖等,0,2025-01-16,2025-01-10,大中工業株式会社,,株式会社,大阪府,大阪市大正区,三軒家東２丁目１１番２３号,,27,108,5510002,,,2025-01-10,合併による解散等,8010001131934,令和７年１月１日東京都港区東新橋二丁目１４番１号株式会社ワールドレジデンシャル（8010001131934）に合併し解散,2015-10-05,1,,,,,ダイチュウコウギョウ,0
839,3120001084267,登記記録の閉鎖等,0,2025-01-16,2025-01-10,株式会社近久,00028624,株式会社,大阪府,大阪市中央区,南本町４丁目１番１０号,,27,128,5410054,,,2025-01-10,合併による解散等,3290001048701,令和７年１月１日福岡県久留米市瀬下町９３番地田中藍株式会社（3290001048701）に合併し解散,2015-10-05,1,,,,,チカヒサ,0
854,3120102004454,登記記録の閉鎖等,0,2025-01-16,2025-01-10,有限会社マックス,,有限会社,大阪府,堺市西区,鳳北町５丁２８２番地,,27,144,5938328,,,2025-01-10,清算の結了等,,,2015-10-05,1,,,,,マックス,0
856,3120901013382,登記記録の閉鎖等,0,2025-01-16,2025-01-08,株式会社ふくろう,,株式会社,大阪府,茨木市,蔵垣内３丁目１４番２３号,,27,211,5670878,,,2025-01-08,清算の結了等,,,2015-10-05,1,,,,,フクロウ,0
859,3120903004421,登記記録の閉鎖等,0,2025-01-16,2025-01-08,ＳＥＮＲＩ　ＴＲＡＤＩＮＧ合同会社,,合同会社,大阪府,豊中市,東泉丘４丁目１番２－５０４号,,27,203,5610861,,,2025-01-08,清算の結了等,,,2022-12-14,1,,,,,センリトレーディング,0
867,3140001021706,登記記録の閉鎖等,0,2025-01-16,2025-01-10,株式会社住まいルボックス,,株式会社,兵庫県,神戸市須磨区,高倉台４丁目２－５,,28,107,6540081,,,2025-01-10,清算の結了等,,,2015-10-05,1,,,,,スマイルボックス,0
869,3140001075677,登記記録の閉鎖等,0,2025-01-16,2025-01-06,太平金属株式会社,,株式会社,兵庫県,多可郡多可町,中区牧野字新田４１９番地の１,,28,365,6791103,,,2025-01-06,合併による解散等,8140001059832,令和７年１月１日兵庫県姫路市飾磨区細江１２１０番地１太平工材株式会社（8140001059832）に合併し解散,2015-10-05,1,,,,,タイヘイキンゾク,0
870,3140001124814,登記記録の閉鎖等,0,2025-01-16,2025-01-09,アローホールディングス株式会社,,株式会社,兵庫県,神戸市中央区,雲井通４丁目２番２号,,28,110,6510096,,,2025-01-09,合併による解散等,4140001092928,令和７年１月１日神戸市中央区雲井通四丁目２番２号株式会社テレックスホールディングス（4140001092928）に合併し解散,2022-02-07,1,,,,,アローホールディングス,0
879,3180001002231,登記記録の閉鎖等,0,2025-01-16,2025-01-16,株式会社ハピネス,,株式会社,愛知県,名古屋市西区,花の木１丁目３番１８号,,23,104,4510062,,,2025-01-16,登記官による閉鎖,,,2015-10-05,1,,,,,,0
880,3180001003576,登記記録の閉鎖等,0,2025-01-16,2025-01-16,株式会社古川,,株式会社,愛知県,名古屋市千種区,今池５丁目１１番１８号,,23,101,4640850,,,2025-01-16,登記官による閉鎖,,,2015-10-05,1,,,,,,0
881,3180001014268,登記記録の閉鎖等,0,2025-01-16,2025-01-16,株式会社カネキ商会,,株式会社,愛知県,名古屋市南区,薬師通１丁目２６番地,,23,112,4570041,,,2025-01-16,登記官による閉鎖,,,2015-10-05,1,,,,,,0
882,3180001014672,登記記録の閉鎖等,0,2025-01-16,2025-01-16,ジャパンエレックス株式会社,,株式会社,愛知県,名古屋市南区,桜本町１４１番地の１,,23,112,4570038,,,2025-01-16,登記官による閉鎖,,,2015-10-05,1,,,,,,0
883,3180001021116,登記記録の閉鎖等,0,2025-01-16,2025-01-16,株式会社明和工業,,株式会社,愛知県,名古屋市中川区,細米町２丁目３２番地,,23,110,4540847,,,2025-01-16,登記官による閉鎖,,,2015-10-05,1,,,,,,0
884,3180001043985,登記記録の閉鎖等,0,2025-01-16,2025-01-16,株式会社サンクス,,株式会社,愛知県,名古屋市名東区,猪子石１丁目４０５番地,,23,115,4650021,,,2025-01-16,登記官による閉鎖,,,2015-10-05,1,,,,,,0
885,3180001061384,登記記録の閉鎖等,0,2025-01-16,2025-01-16,ファインスタイル株式会社,,株式会社,愛知県,名古屋市南区,南野２丁目２９７番１,,23,112,4570068,,,2025-01-16,登記官による閉鎖,,,2015-10-05,1,,,,,,0
886,3180001062572,登記記録の閉鎖等,0,2025-01-16,2025-01-16,東桜歯科技研株式会社,,株式会社,愛知県,名古屋市名東区,上社１丁目１４０１番地,,23,115,4650025,,,2025-01-16,登記官による閉鎖,,,2015-10-05,1,,,,,,0
887,3180001070617,登記記録の閉鎖等,0,2025-01-16,2025-01-16,株式会社ワイズクリェーション,,株式会社,愛知県,名古屋市中区,新栄１丁目１０番９号,,23,106,4600007,,,2025-01-16,登記官による閉鎖,,,2015-10-05,1,,,,,,0
888,3180001087132,登記記録の閉鎖等,0,2025-01-16,2025-01-16,株式会社フィオーレ,,株式会社,愛知県,一宮市,浅野字野口１０８番地５,,23,203,4910871,,,2025-01-16,登記官による閉鎖,,,2015-10-05,1,,,,,,0
889,3180001088254,登記記録の閉鎖等,0,2025-01-16,2025-01-16,アーキテクトプランニング株式会社,,株式会社,愛知県,江南市,田代町西ノ丸５３番地,,23,217,4838133,,,2025-01-16,登記官による閉鎖,,,2015-10-05,1,,,,,,0
890,3180001092941,登記記録の閉鎖等,0,2025-01-16,2025-01-16,サンホーム株式会社,,株式会社,愛知県,知多郡南知多町,大字片名字新師崎１９番地の６,,23,445,4703502,,,2025-01-16,登記官による閉鎖,,,2015-10-05,1,,,,,,0
891,3180001101784,登記記録の閉鎖等,0,2025-01-16,2025-01-16,株式会社八進,,株式会社,愛知県,東海市,富木島町東長口８７番地の１７,,23,222,4760011,,,2025-01-16,登記官による閉鎖,,,2015-10-05,1,,,,,,0
894,3180001113342,登記記録の閉鎖等,0,2025-01-16,2025-01-16,株式会社ジェーシー,,株式会社,愛知県,名古屋市緑区,鳴海町字三皿１７番地１,,23,114,4580801,,,2025-01-16,登記官による閉鎖,,,2015-10-05,1,,,,,,0
895,3180001113994,登記記録の閉鎖等,0,2025-01-16,2025-01-16,株式会社森岡総合研究所,,株式会社,愛知県,名古屋市中村区,畑江通３丁目８番２階Ｂ,,23,105,4530851,,,2025-01-16,登記官による閉鎖,,,2015-10-05,1,,,,,,0
896,3180001127383,登記記録の閉鎖等,0,2025-01-16,2024-12-27,株式会社サンテック,,株式会社,愛知県,名古屋市名東区,勢子坊３丁目１５１７番地,,23,115,4650055,,,2024-12-27,清算の結了等,,,2017-04-18,1,,,,,サンテック,0
901,3180002007634,登記記録の閉鎖等,0,2025-01-16,2025-01-16,有限会社泉美一級建築事務所,,有限会社,愛知県,名古屋市名東区,名東本町８４番地の１,,23,115,4650088,,,2025-01-16,登記官による閉鎖,,,2015-10-05,1,,,,,,0
902,3180002008780,登記記録の閉鎖等,0,2025-01-16,2025-01-16,松井織物有限会社,,有限会社,愛知県,名古屋市昭和区,川原通６丁目１番地,,23,107,4660853,,,2025-01-16,登記官による閉鎖,,,2015-10-05,1,,,,,,0
903,3180002025826,登記記録の閉鎖等,0,2025-01-16,2025-01-16,有限会社シンコー電気,,有限会社,愛知県,名古屋市緑区,桃山４丁目３３３番地の１,,23,114,4580002,,,2025-01-16,登記官による閉鎖,,,2015-10-05,1,,,,,,0
904,3180002031576,登記記録の閉鎖等,0,2025-01-16,2025-01-16,有限会社大東,,有限会社,愛知県,名古屋市昭和区,福江２丁目５番４－５０２号,,23,107,4660059,,,2025-01-16,登記官による閉鎖,,,2015-10-05,1,,,,,,0
905,3180002035065,登記記録の閉鎖等,0,2025-01-16,2025-01-16,日力貿易有限会社,,有限会社,愛知県,名古屋市北区,清水３丁目５番１８号,,23,103,4620844,,,2025-01-16,登記官による閉鎖,,,2015-10-05,1,,,,,,0
906,3180002048579,登記記録の閉鎖等,0,2025-01-16,2025-01-16,有限会社新日報,,有限会社,愛知県,名古屋市守山区,八剣２丁目１１５番地,,23,113,4630022,,,2025-01-16,登記官による閉鎖,,,2015-10-05,1,,,,,,0
907,3180002065780,登記記録の閉鎖等,0,2025-01-16,2025-01-16,有限会社紀和業務店,,有限会社,愛知県,春日井市,朝宮町３丁目５番地の１９,,23,206,4860846,,,2025-01-16,登記官による閉鎖,,,2015-10-05,1,,,,,,0
908,3180002080482,登記記録の閉鎖等,0,2025-01-16,2025-01-16,有限会社エオス,,有限会社,愛知県,稲沢市,稲沢町前田１８０番地１,,23,220,4928217,,,2025-01-16,登記官による閉鎖,,,2019-03-04,1,,,,,エオス,0
909,3180002088880,登記記録の閉鎖等,0,2025-01-16,2025-01-16,有限会社フェリシテ・パルマンティエ・インターナショナル,,有限会社,愛知県,知多市,新知東町２丁目２番地の２９,,23,224,4780065,,,2025-01-16,登記官による閉鎖,,,2015-10-05,1,,,,,,0
911,3180005002649,登記記録の閉鎖等,0,2025-01-16,2025-01-16,医療法人愛正会スマイル歯科,,その他の設立登記法人,愛知県,名古屋市北区,尾上町１番地の２,,23,103,4620863,,,2025-01-16,登記官による閉鎖,,,2015-10-05,1,,,,,,0
912,3180005002673,登記記録の閉鎖等,0,2025-01-16,2025-01-16,医療法人みどり会,,その他の設立登記法人,愛知県,名古屋市守山区,竜泉寺１丁目９１９番地,,23,113,4630801,,,2025-01-16,登記官による閉鎖,,,2015-10-05,1,,,,,,0
913,3180005004570,登記記録の閉鎖等,0,2025-01-16,2025-01-16,中京競馬場駅前事業協同組合,,その他の設立登記法人,愛知県,名古屋市緑区,大将ケ根２丁目１２５６番地,,23,114,4580822,,,2025-01-16,登記官による閉鎖,,,2015-10-05,1,,,,,,0
914,3180005006360,登記記録の閉鎖等,0,2025-01-16,2025-01-16,特定非営利活動法人愛知ＩＴ推進協議会,,その他の設立登記法人,愛知県,名古屋市中区,丸の内３丁目５番３３号,,23,106,4600002,,,2025-01-16,登記官による閉鎖,,,2015-10-05,1,,,,,,0
915,3180005006542,登記記録の閉鎖等,0,2025-01-16,2025-01-16,特定非営利活動法人日本ルーマニア友好協会,,その他の設立登記法人,愛知県,名古屋市中区,栄５丁目７番２９号,,23,106,4600008,,,2025-01-16,登記官による閉鎖,,,2015-10-05,1,,,,,,0
916,3180005007598,登記記録の閉鎖等,0,2025-01-16,2025-01-16,特定非営利活動法人人権フォーラム名古屋,,その他の設立登記法人,愛知県,名古屋市中区,新栄２丁目１番９号,,23,106,4600007,,,2025-01-16,登記官による閉鎖,,,2015-10-05,1,,,,,,0
917,3180005010395,登記記録の閉鎖等,0,2025-01-16,2025-01-16,特定非営利活動法人日本インターネット水泳協会,,その他の設立登記法人,愛知県,一宮市,柚木颪字東流４８番地の６,,23,203,4910011,,,2025-01-16,登記官による閉鎖,,,2015-10-05,1,,,,,,0
918,3180301005909,登記記録の閉鎖等,0,2025-01-16,2025-01-16,杉浦味噌醤油株式会社,00074461,株式会社,愛知県,豊橋市,牟呂市場町７番地の１２,,23,201,4418088,,,2025-01-16,登記官による閉鎖,,,2015-10-05,1,,,,,,0
921,3180301017169,登記記録の閉鎖等,0,2025-01-16,2025-01-16,株式会社サクラアビリティ,,株式会社,愛知県,名古屋市東区,泉２丁目１７番１０号,,23,102,4610001,,,2025-01-16,登記官による閉鎖,,,2015-10-05,1,,,,,,0
922,3180301026005,登記記録の閉鎖等,0,2025-01-16,2025-01-06,株式会社デイジー,,株式会社,愛知県,豊橋市,吉川町５７番地２,,23,201,4418002,,,2025-01-06,清算の結了等,,,2015-10-05,1,,,,,デイジー,0
926,3180302024965,登記記録の閉鎖等,0,2025-01-16,2025-01-08,有限会社イナシマ,,有限会社,愛知県,豊田市,近岡町馬場瀬１４番地,,23,211,4442355,,,2025-01-08,清算の結了等,,,2015-10-05,1,,,,,イナシマ,0
928,3180302026895,登記記録の閉鎖等,0,2025-01-16,2025-01-16,有限会社ハウクスケイアンドアイイマイ,,有限会社,愛知県,西尾市,吉良町富好新田青鳥３番地,,23,213,4440515,,,2025-01-16,登記官による閉鎖,,,2015-10-05,1,,,,,,0
929,3180303002945,登記記録の閉鎖等,0,2025-01-16,2025-01-16,合同会社クロスロードクリエーションズ,,合同会社,愛知県,岡崎市,鴨田南町４番地５,,23,202,4442123,,,2025-01-16,登記官による閉鎖,,,2015-10-05,1,,,,,,0
930,3180305007372,登記記録の閉鎖等,0,2025-01-16,2025-01-16,農事組合法人新生グリーン,,その他の設立登記法人,愛知県,西尾市,長縄町丸堀８番地,,23,213,4450887,,,2025-01-16,登記官による閉鎖,,,2015-10-05,1,,,,,,0
931,3180305007892,登記記録の閉鎖等,0,2025-01-16,2025-01-16,特定非営利活動法人新城ＤＯＳクライミングクラブ,,その他の設立登記法人,愛知県,新城市,字屋敷１７番地１,,23,221,4411368,,,2025-01-16,登記官による閉鎖,,,2015-10-05,1,,,,,,0
932,3200001000447,登記記録の閉鎖等,0,2025-01-16,2025-01-16,イワソー株式会社,,株式会社,岐阜県,岐阜市,昭和町３丁目１６番地,,21,201,5008865,,,2025-01-16,登記官による閉鎖,,,2018-05-07,1,,,,,イワソー,0
933,3200001011196,登記記録の閉鎖等,0,2025-01-16,2025-01-16,株式会社大和,,株式会社,岐阜県,加茂郡坂祝町,酒倉９０番地,,21,501,5050074,,,2025-01-16,登記官による閉鎖,,,2015-10-05,1,,,,,,0
934,3200001015478,登記記録の閉鎖等,0,2025-01-16,2025-01-16,株式会社スピリット,,株式会社,愛知県,名古屋市西区,大野木３丁目３４番地,,23,104,4520803,,,2025-01-16,登記官による閉鎖,,,2015-10-05,1,,,,,,0
935,3200001020750,登記記録の閉鎖等,0,2025-01-16,2025-01-16,株式会社ダイエー建設,,株式会社,岐阜県,羽島郡岐南町,上印食４丁目６３番地,,21,302,5016001,,,2025-01-16,登記官による閉鎖,,,2015-10-05,1,,,,,,0
936,3200001027861,登記記録の閉鎖等,0,2025-01-16,2025-01-16,株式会社幸せ結婚相談所,,株式会社,岐阜県,岐阜市,加納上本町４丁目２６番地大忠ビル２Ｃ号,,21,201,5008451,,,2025-01-16,登記官による閉鎖,,,2015-10-05,1,,,,,,0
938,3200002002723,登記記録の閉鎖等,0,2025-01-16,2025-01-16,有限会社太平観光,,有限会社,岐阜県,岐阜市,日ノ出町１丁目１番地,,21,201,5008876,,,2025-01-16,登記官による閉鎖,,,2015-10-05,1,,,,,,0
939,3200002004793,登記記録の閉鎖等,0,2025-01-16,2025-01-16,有限会社メンズシヨツプ大丸,,有限会社,岐阜県,岐阜市,折立４７番地１,,21,201,5011132,,,2025-01-16,登記官による閉鎖,,,2015-10-05,1,,,,,,0
942,3200002021293,登記記録の閉鎖等,0,2025-01-16,2025-01-16,有限会社須崎商事荷役,,有限会社,岐阜県,土岐市,泉が丘町４丁目１０７番地,,21,212,5095161,,,2025-01-16,登記官による閉鎖,,,2015-10-05,1,,,,,,0
943,3200002024296,登記記録の閉鎖等,0,2025-01-16,2025-01-16,有限会社田口電設,,有限会社,岐阜県,中津川市,蛭川４３１０番地,,21,206,5098301,,,2025-01-16,登記官による閉鎖,,,2015-10-05,1,,,,,,0
945,3200005001862,登記記録の閉鎖等,0,2025-01-16,2025-01-16,特定非営利活動法人平成カウンセリング協会,,その他の設立登記法人,岐阜県,岐阜市,長良東１丁目１２７番地,,21,201,5020082,,,2025-01-16,登記官による閉鎖,,,2015-10-05,1,,,,,,0
946,3200005004295,登記記録の閉鎖等,0,2025-01-16,2025-01-16,学校法人景陽寺学園,,その他の設立登記法人,岐阜県,養老郡養老町,高田２１５番地の２,,21,341,5031314,,,2025-01-16,登記官による閉鎖,,,2015-10-05,1,,,,,,0
950,3230002004543,登記記録の閉鎖等,0,2025-01-16,2025-01-10,有限会社ジィ・エフ企画,,有限会社,富山県,富山市,下新本町５番２６号,,16,201,9300803,,,2025-01-10,清算の結了等,,,2015-10-05,1,,,,,ジィエフキカク,0
956,3240002017263,登記記録の閉鎖等,0,2025-01-16,2025-01-14,有限会社山田神仏金具製作所,,有限会社,広島県,広島市南区,西蟹屋３丁目１３番１８号,,34,103,7320804,,,2025-01-14,清算の結了等,,,2015-10-05,1,,,,,ヤマダシンブツカナグセイサクショ,0
961,3260002001728,登記記録の閉鎖等,0,2025-01-16,2024-12-25,岡山測建有限会社,,有限会社,岡山県,岡山市中区,倉田２９６番地の１４,,33,102,7038265,,,2024-12-25,清算の結了等,,,2015-10-05,1,,,,,オカヤマソクケン,0
962,3270002002411,登記記録の閉鎖等,0,2025-01-16,2025-01-15,有限会社いわみ調剤薬局,,有限会社,鳥取県,岩美郡岩美町,大字大谷２３７３番地５,,31,302,6810073,,,2025-01-15,清算の結了等,,,2015-10-05,1,,,,,イワミチョウザイヤッキョク,0
972,3290802021419,登記記録の閉鎖等,0,2025-01-16,2025-01-14,シナグジャパン有限会社,,有限会社,福岡県,直方市,大字畑３２４番地１,,40,204,8220004,,,2025-01-14,清算の結了等,,,2015-10-05,1,,,,,シナグジャパン,0
974,3310002013569,登記記録の閉鎖等,0,2025-01-16,2025-01-16,有限会社福光産業,,有限会社,長崎県,佐世保市,母ケ浦町１７９０番地１,,42,202,8580912,,,2025-01-16,登記官による閉鎖,,,2015-10-05,1,,,,,,0
975,3310002015235,登記記録の閉鎖等,0,2025-01-16,2025-01-16,有限会社食楽亭,,有限会社,長崎県,諫早市,泉町２１番３７号,,42,204,8540003,,,2025-01-16,登記官による閉鎖,,,2015-10-05,1,,,,,,0
976,3310002015359,登記記録の閉鎖等,0,2025-01-16,2025-01-16,有限会社東洋カッターサービス,,有限会社,長崎県,諫早市,貝津町９６１番地１,,42,204,8540063,,,2025-01-16,登記官による閉鎖,,,2015-10-05,1,,,,,,0
977,3310002017784,登記記録の閉鎖等,0,2025-01-16,2025-01-16,有限会社まるいち,,有限会社,長崎県,大村市,溝陸町１０２９番地２９０,,42,205,8560844,,,2025-01-16,登記官による閉鎖,,,2015-10-05,1,,,,,,0
978,3310005005126,登記記録の閉鎖等,0,2025-01-16,2025-01-16,特定非営利活動法人康妙会,,その他の設立登記法人,長崎県,諫早市,森山町下井牟田２２５３番地,,42,204,8540201,,,2025-01-16,登記官による閉鎖,,,2015-10-05,1,,,,,,0
979,3310005005596,登記記録の閉鎖等,0,2025-01-16,2025-01-16,特定非営利活動法人日野江会,,その他の設立登記法人,長崎県,南島原市,有家町尾上３１９１番地６,,42,214,8592203,,,2025-01-16,登記官による閉鎖,,,2015-10-05,1,,,,,,0
985,3330003008772,登記記録の閉鎖等,0,2025-01-16,2025-01-07,合同会社Ｒｅｊｕ,,合同会社,熊本県,熊本市中央区,水前寺２丁目１６番２０号,,43,101,8620950,,,2025-01-07,清算の結了等,,,2021-02-18,1,,,,,リジュー,0
986,3330003009572,登記記録の閉鎖等,0,2025-01-16,2025-01-07,合同会社リエゾン嘉島,,合同会社,熊本県,熊本市中央区,水前寺２丁目１６番２０号,,43,101,8620950,,,2025-01-07,清算の結了等,,,2022-11-07,1,,,,,リエゾンカシマ,0
996,3390003001243,登記記録の閉鎖等,0,2025-01-16,2024-12-24,合同会社美風,,合同会社,福岡県,福岡市中央区,天神２丁目２番１２号Ｔ＆Ｊビルディング７Ｆ,,40,133,8100001,,,2024-12-24,清算の結了等,,,2015-10-05,1,,,,,ビフウ,0
997,3400002003998,登記記録の閉鎖等,0,2025-01-16,2024-12-27,有限会社リューズカンパニー,,有限会社,岩手県,盛岡市,中ノ橋通１丁目８番１７号,,03,201,0200871,,,2024-12-27,清算の結了等,,,2015-10-05,1,,,,,リューズカンパニー,0
999,3410001007990,登記記録の閉鎖等,0,2025-01-16,2025-01-06,株式会社西部工業,,株式会社,秋田県,大仙市,大曲西根字仁応寺８２番地,,05,212,0140072,,,2025-01-06,合併による解散等,7410001007987,令和７年１月１日秋田県大仙市大曲西根字本田８６２番地株式会社西部運輸（7410001007987）に合併し解散,2015-10-05,1,,,,,セイブコウギョウ,0
1000,3420001006620,登記記録の閉鎖等,0,2025-01-16,2025-01-09,マルヨ水産運輸株式会社,,株式会社,青森県,八戸市,築港街２丁目１８番地３,,02,203,0310831,,,2025-01-09,清算の結了等,,,2015-10-05,1,,,,,マルヨスイサンウンユ,0
1001,3420001018203,登記記録の閉鎖等,0,2025-01-16,2025-01-14,株式会社眞翔,,株式会社,青森県,上北郡六ヶ所村,大字倉内字笹崎５５０番地,,02,411,0393215,,,2025-01-14,清算の結了等,,,2023-03-29,1,,,,,シンショウ,0
1013,3500002021742,登記記録の閉鎖等,0,2025-01-16,2025-01-07,大一興産有限会社,,有限会社,愛媛県,四国中央市,川之江町１１０番地２,,38,213,7990101,,,2025-01-07,清算の結了等,,,2015-10-05,1,,,,,ダイイチコウサン,0
1017,4010001047523,登記記録の閉鎖等,0,2025-01-16,2024-12-26,株式会社壽し貞,,株式会社,東京都,中央区,日本橋室町１丁目８番４号,,13,102,1030022,,,2024-12-26,清算の結了等,,,2015-10-05,1,,,,,スシサダ,0
1018,4010001085176,登記記録の閉鎖等,0,2025-01-16,2024-12-26,株式会社オーヴ,,株式会社,東京都,文京区,後楽２丁目１番１１号,,13,105,1120004,,,2024-12-26,清算の結了等,,,2015-10-05,1,,,,,オーヴ,0
1019,4010001141945,登記記録の閉鎖等,0,2025-01-16,2025-01-16,マリブ株式会社,,株式会社,東京都,港区,六本木６丁目１２番２号レジデンスＢ３１０１,,13,103,1060032,,,2025-01-16,登記官による閉鎖,,,2015-10-05,1,,,,,,0
1030,4010003030221,登記記録の閉鎖等,0,2025-01-16,2024-12-26,Ａｍｂｉｅｎｃｅ　Ｋｙｏｔｏ　Ｗｅｓｔ合同会社,,合同会社,東京都,中央区,銀座１丁目６番１１号土志田ビルディング３Ｆ,,13,102,1040061,,,2024-12-26,清算の結了等,,,2019-07-18,1,,,,,アンビエンスキョウトウエスト,0
1031,4010401075108,登記記録の閉鎖等,0,2025-01-16,2025-01-16,株式会社プラチカ,,株式会社,東京都,港区,六本木７丁目１８番１１号,,13,103,1060032,,,2025-01-16,登記官による閉鎖,,,2015-10-05,1,,,,,,0
1032,4010401082764,登記記録の閉鎖等,0,2025-01-16,2025-01-16,株式会社Ｒ　ＨＯＭＥ,,株式会社,東京都,港区,南麻布１丁目１５番１１号,,13,103,1060047,,,2025-01-16,登記官による閉鎖,,,2015-10-05,1,,,,,,0
1033,4010401089025,登記記録の閉鎖等,0,2025-01-16,2025-01-16,株式会社カダディア,,株式会社,東京都,港区,南青山１丁目２番６号,,13,103,1070062,,,2025-01-16,登記官による閉鎖,,,2015-10-05,1,,,,,,0
1034,4010401098042,登記記録の閉鎖等,0,2025-01-16,2025-01-16,株式会社ヤエスコーポレーション,,株式会社,東京都,港区,南青山３丁目３番１８号,,13,103,1070062,,,2025-01-16,登記官による閉鎖,,,2015-10-05,1,,,,,,0
1035,4010401099577,登記記録の閉鎖等,0,2025-01-16,2025-01-16,株式会社エブリシング,,株式会社,東京都,港区,麻布十番１丁目７番９号酒井ビル５Ｆ,,13,103,1060045,,,2025-01-16,登記官による閉鎖,,,2015-10-05,1,,,,,,0
1036,4010401104626,登記記録の閉鎖等,0,2025-01-16,2025-01-16,エクストリーム・ジャパン株式会社,,株式会社,東京都,港区,南青山１丁目２番６号,,13,103,1070062,,,2025-01-16,登記官による閉鎖,,,2015-10-05,1,,,,,,0
1039,4010402000989,登記記録の閉鎖等,0,2025-01-16,2025-01-16,有限会社アランタカハシ,,有限会社,東京都,港区,麻布十番３丁目１０番８号,,13,103,1060045,,,2025-01-16,登記官による閉鎖,,,2015-10-05,1,,,,,,0
1040,4010402012365,登記記録の閉鎖等,0,2025-01-16,2025-01-16,丸山精螺有限会社,,有限会社,東京都,港区,白金６丁目８番６号,,13,103,1080072,,,2025-01-16,登記官による閉鎖,,,2015-10-05,1,,,,,,0
1041,4010402012381,登記記録の閉鎖等,0,2025-01-16,2025-01-16,有限会社御影企画,,有限会社,東京都,港区,麻布十番２丁目２０番１４号,,13,103,1060045,,,2025-01-16,登記官による閉鎖,,,2015-10-05,1,,,,,,0
1042,4010402025243,登記記録の閉鎖等,0,2025-01-16,2025-01-16,ニチビル大塚有限会社,,有限会社,東京都,港区,芝大門２丁目３番６号,,13,103,1050012,,,2025-01-16,登記官による閉鎖,,,2015-10-05,1,,,,,,0
1043,4010403008296,登記記録の閉鎖等,0,2025-01-16,2025-01-16,ＭＩＺＵＫＩ合同会社,,合同会社,東京都,港区,麻布十番２丁目１９番１１号パークサイド麻布３０２号室,,13,103,1060045,,,2025-01-16,登記官による閉鎖,,,2015-10-05,1,,,,,,0
1044,4010403009658,登記記録の閉鎖等,0,2025-01-16,2025-01-16,合同会社アルバトロス,,合同会社,東京都,港区,芝浦４丁目７番５号,,13,103,1080023,,,2025-01-16,登記官による閉鎖,,,2015-10-05,1,,,,,,0
1048,4010405003147,登記記録の閉鎖等,0,2025-01-16,2025-01-16,特定非営利活動法人心に花を,,その他の設立登記法人,東京都,港区,南青山６丁目８番１８号放映青山ビル,,13,103,1070062,,,2025-01-16,登記官による閉鎖,,,2015-10-05,1,,,,,,0
1049,4010405007809,登記記録の閉鎖等,0,2025-01-16,2025-01-16,特定非営利活動法人全国経営者団体連合会,,その他の設立登記法人,東京都,港区,虎ノ門３丁目１９番７号大手ビル７階,,13,103,1050001,,,2025-01-16,登記官による閉鎖,,,2015-10-05,1,,,,,,0
1050,4010405009094,登記記録の閉鎖等,0,2025-01-16,2025-01-16,特定非営利活動法人ＨＡＰＰＹ　ＧＡＩＮ,,その他の設立登記法人,東京都,港区,浜松町２丁目１３番１２号ＲｉｓｅＷｅｌｌビル２階,,13,103,1050013,,,2025-01-16,登記官による閉鎖,,,2015-10-05,1,,,,,,0
1052,4010405011868,登記記録の閉鎖等,0,2025-01-16,2025-01-16,一般社団法人クラウド・デザイン・コミュニティ,,その他の設立登記法人,東京都,港区,麻布台２丁目４番５号メソニック３９ＭＴビル４階,,13,103,1060041,,,2025-01-16,登記官による閉鎖,,,2015-10-05,1,,,,,,0
1053,4010501051082,登記記録の閉鎖等,0,2025-01-16,2025-01-09,株式会社ＩＮｅｘｕｓ,,株式会社,東京都,台東区,雷門２丁目１番３号,,13,106,1110034,,,2025-01-09,合併による解散等,6010601026577,令和７年１月１日東京都墨田区吾妻橋一丁目１３番５号株式会社伊賀屋（6010601026577）に合併し解散,2023-09-22,1,,,,,アイネクサス,0
1056,4010601042072,登記記録の閉鎖等,0,2025-01-16,2025-01-09,株式会社越前屋商事,,株式会社,東京都,墨田区,押上１丁目１８番７号サンリバービル４０２号,,13,107,1310045,,,2025-01-09,清算の結了等,,,2015-10-05,1,,,,,エチゼンヤショウジ,0
1068,4010701029234,登記記録の閉鎖等,0,2025-01-16,2024-12-26,プロモジャパン株式会社,,株式会社,東京都,品川区,南品川２丁目６番１３号,,13,109,1400004,,,2024-12-26,清算の結了等,,,2015-10-05,1,,,,,プロモジャパン,0
1071,4010705003185,登記記録の閉鎖等,0,2025-01-16,2024-12-19,一般社団法人ＡＪＰ　Ｇａｍｍａ３,,その他の設立登記法人,東京都,港区,虎ノ門３丁目２２番１０－２０１号,,13,103,1050001,,,2024-12-19,清算の結了等,,,2021-02-19,1,,,,,エイジェイピィガンマサン,0
1083,4011003014890,登記記録の閉鎖等,0,2025-01-16,2024-12-25,パーソルパートナーズ合同会社,,合同会社,神奈川県,川崎市川崎区,池上新町２丁目２２番１３号,,14,131,2100832,,,2024-12-25,清算の結了等,,,2022-06-23,1,,,,,パーソルパートナーズ,0
1091,4011702005967,登記記録の閉鎖等,0,2025-01-16,2025-01-09,有限会社信和管工,,有限会社,東京都,江戸川区,東葛西２丁目１番１３号,,13,123,1340084,,,2025-01-09,清算の結了等,,,2015-10-05,1,,,,,,0
1093,4012402021602,登記記録の閉鎖等,0,2025-01-16,2025-01-14,有限会社三強設備工業,,有限会社,東京都,武蔵野市,境南町２丁目１２番２３号,,13,203,1800023,,,2025-01-14,清算の結了等,,,2015-10-05,1,,,,,サンキョウセツビコウギョウ,0
1099,4020001076604,登記記録の閉鎖等,0,2025-01-16,2025-01-16,株式会社ＳＮＫエレクトロニクス,,株式会社,東京都,港区,芝浦２丁目１４番１７－１０２号,,13,103,1080023,,,2025-01-16,登記官による閉鎖,,,2015-10-05,1,,,,,,0
1126,4030001116227,登記記録の閉鎖等,0,2025-01-16,2025-01-08,戸建分譲研究所株式会社,,株式会社,埼玉県,川口市,芝４丁目２１番７号,,11,203,3330866,,,2025-01-08,清算の結了等,,,2016-09-07,1,,,,,コダテブンジョウケンキュウジョ,0
1131,4030002121985,登記記録の閉鎖等,0,2025-01-16,2025-01-08,有限会社トキワスーパー,,有限会社,埼玉県,秩父郡小鹿野町,小鹿野３３４番地,,11,365,3680105,,,2025-01-08,清算の結了等,,,2015-10-05,1,,,,,トキワスーパー,0
1156,4080402013274,登記記録の閉鎖等,0,2025-01-16,2025-01-15,有限会社開成建設,,有限会社,静岡県,浜松市中央区,西伊場町６番４８号,,22,138,4328038,,,2025-01-15,清算の結了等,,,2015-10-05,1,,,,,,0
1157,4100002005900,登記記録の閉鎖等,0,2025-01-16,2025-01-08,有限会社三日月庵,,有限会社,長野県,上水内郡飯綱町,大字牟礼５１１番地５,,20,590,3891211,,,2025-01-08,清算の結了等,,,2015-10-05,1,,,,,ミカヅキアン,0
1162,4120001078508,登記記録の閉鎖等,0,2025-01-16,2025-01-15,株式会社クリスタル・クロス,,株式会社,大阪府,大阪市西区,北堀江２丁目２番２７号,,27,106,5500014,,,2025-01-15,清算の結了等,,,2015-10-05,1,,,,,クリスタルクロス,0
1180,4120901025674,登記記録の閉鎖等,0,2025-01-16,2025-01-06,牧野興業株式会社,,株式会社,大阪府,豊中市,本町１丁目１１番１号本町ビル,,27,203,5600021,,,2025-01-06,清算の結了等,,,2024-10-30,1,,,,,マキノコウギョウ,0
1200,4180001017939,登記記録の閉鎖等,0,2025-01-16,2025-01-16,株式会社パイオニア・ジャパン・リミテツド,,株式会社,愛知県,名古屋市東区,相生町７８番地,,23,102,4610012,,,2025-01-16,登記官による閉鎖,,,2015-10-05,1,,,,,,0
1201,4180001045849,登記記録の閉鎖等,0,2025-01-16,2025-01-16,株式会社作文工業,,株式会社,愛知県,北名古屋市,宇福寺長田７９番地,,23,234,4810035,,,2025-01-16,登記官による閉鎖,,,2015-10-05,1,,,,,,0
1202,4180001047069,登記記録の閉鎖等,0,2025-01-16,2025-01-16,株式会社サンマテリアル,,株式会社,愛知県,名古屋市中区,平和１丁目３番２４号,,23,106,4600021,,,2025-01-16,登記官による閉鎖,,,2015-10-05,1,,,,,,0
1203,4180001095233,登記記録の閉鎖等,0,2025-01-16,2025-01-16,ＭＯＬＬＩＮＨＹＤＥ株式会社,,株式会社,愛知県,東海市,名和町東田２４番地の１,,23,222,4760002,,,2025-01-16,登記官による閉鎖,,,2015-10-05,1,,,,,,0
1204,4180001112789,登記記録の閉鎖等,0,2025-01-16,2025-01-16,株式会社山田商事,,株式会社,愛知県,名古屋市西区,花原町１４２番地,,23,104,4520809,,,2025-01-16,登記官による閉鎖,,,2015-10-05,1,,,,,,0
1209,4180002021642,登記記録の閉鎖等,0,2025-01-16,2025-01-16,有限会社鈴商事,,有限会社,愛知県,名古屋市天白区,中平５丁目６１４番地ハイム原南,,23,116,4680014,,,2025-01-16,登記官による閉鎖,,,2019-03-22,1,,,,,スズショウジ,0
1210,4180002027012,登記記録の閉鎖等,0,2025-01-16,2025-01-16,有限会社アド企画,,有限会社,愛知県,名古屋市緑区,鳴海町字有松裏１９番地の１５,,23,114,4580824,,,2025-01-16,登記官による閉鎖,,,2019-05-28,1,,,,,アドキカク,0
1211,4180002035171,登記記録の閉鎖等,0,2025-01-16,2025-01-16,有限会社タツコーポレーション,,有限会社,愛知県,名古屋市中区,錦３丁目１３番２４号,,23,106,4600003,,,2025-01-16,登記官による閉鎖,,,2015-10-05,1,,,,,,0
1212,4180002049551,登記記録の閉鎖等,0,2025-01-16,2025-01-16,有限会社大池サポートサービス,,有限会社,愛知県,名古屋市西区,上名古屋４丁目７番１２号,,23,104,4510025,,,2025-01-16,登記官による閉鎖,,,2015-10-05,1,,,,,,0
1213,4180002054717,登記記録の閉鎖等,0,2025-01-16,2025-01-16,有限会社中村商事,,有限会社,愛知県,北名古屋市,弥勒寺東４丁目２２番地,,23,234,4810031,,,2025-01-16,登記官による閉鎖,,,2015-10-05,1,,,,,,0
1214,4180002066167,登記記録の閉鎖等,0,2025-01-16,2025-01-16,有限会社新興自動車,,有限会社,愛知県,春日井市,六軒屋町西３丁目３番地の３０,,23,206,4860839,,,2025-01-16,登記官による閉鎖,,,2015-10-05,1,,,,,,0
1215,4180002071893,登記記録の閉鎖等,0,2025-01-16,2025-01-16,有限会社スポーツプラザ・アイ・エム・アイ,,有限会社,愛知県,瀬戸市,井戸金町４２１番地,,23,204,4890976,,,2025-01-16,登記官による閉鎖,,,2015-10-05,1,,,,,,0
1216,4180002076323,登記記録の閉鎖等,0,2025-01-16,2025-01-16,小謙撚糸有限会社,,有限会社,愛知県,名古屋市中村区,栄生町１６番２８号－４０１,,23,105,4530033,,,2025-01-16,登記官による閉鎖,,,2015-10-05,1,,,,,,0
1217,4180002076802,登記記録の閉鎖等,0,2025-01-16,2025-01-16,株式会社大志樹脂,,株式会社,愛知県,一宮市,三ツ井４丁目１３番８号,,23,203,4910827,,,2025-01-16,登記官による閉鎖,,,2015-10-05,1,,,,,,0
1218,4180002078063,登記記録の閉鎖等,0,2025-01-16,2025-01-16,有限会社あいしん保険事務所,,有限会社,愛知県,一宮市,三条字西蛭子３９番地の６,,23,203,4940003,,,2025-01-16,登記官による閉鎖,,,2015-10-05,1,,,,,,0
1219,4180002078559,登記記録の閉鎖等,0,2025-01-16,2025-01-16,有限会社安永化成,,有限会社,愛知県,一宮市,木曽川町玉ノ井字辻西１０番地の１,00073447,23,203,4930004,,,2025-01-16,登記官による閉鎖,,,2015-10-05,1,,,,,,0
1220,4180002085646,登記記録の閉鎖等,0,2025-01-16,2025-01-16,有限会社スーパーハロー,,有限会社,愛知県,知多郡南知多町,大字豊浜字上太田面３８番地,,23,445,4703412,,,2025-01-16,登記官による閉鎖,,,2015-10-05,1,,,,,,0
1221,4180002086322,登記記録の閉鎖等,0,2025-01-16,2025-01-16,有限会社皆川ファーム,,有限会社,愛知県,常滑市,矢田字高砂脇１６９番１,,23,216,4790001,,,2025-01-16,登記官による閉鎖,,,2015-10-05,1,,,,,,0
1222,4180002089515,登記記録の閉鎖等,0,2025-01-16,2025-01-16,有限会社矢橋製作所,,有限会社,愛知県,津島市,唐臼町柳原６５番地,,23,208,4960026,,,2025-01-16,登記官による閉鎖,,,2015-10-05,1,,,,,,0
1223,4180003014711,登記記録の閉鎖等,0,2025-01-16,2025-01-16,合同会社ＢＳプロモート,,合同会社,愛知県,春日井市,篠木町１丁目４６番地１,,23,206,4860851,,,2025-01-16,登記官による閉鎖,,,2015-10-05,1,,,,,,0
1226,4180005008570,登記記録の閉鎖等,0,2025-01-16,2025-01-16,小牧ケ丘開拓農業協同組合,,その他の設立登記法人,愛知県,小牧市,大字大草５８３０番地,,23,219,4850802,,,2025-01-16,登記官による閉鎖,,,2019-12-09,1,,,,,コマキガオカカイタク,0
1228,4180301004843,登記記録の閉鎖等,0,2025-01-16,2025-01-16,株式会社ホワイトエージェンシー,,株式会社,愛知県,岡崎市,葵町４番地１,,23,202,4440913,,,2025-01-16,登記官による閉鎖,,,2015-10-05,1,,,,,,0
1229,4180301009000,登記記録の閉鎖等,0,2025-01-16,2025-01-16,株式会社ラポールトラスト,,株式会社,愛知県,豊川市,駅前通３丁目１７番地１,,23,207,4420045,,,2025-01-16,登記官による閉鎖,,,2015-10-05,1,,,,,,0
1230,4180301009545,登記記録の閉鎖等,0,2025-01-16,2025-01-16,ＳＫＩ株式会社,,株式会社,愛知県,豊橋市,舟原町２４８番地,,23,201,4400813,,,2025-01-16,登記官による閉鎖,,,2015-10-05,1,,,,,,0
1231,4180301011047,登記記録の閉鎖等,0,2025-01-16,2025-01-16,シマダ株式会社,,株式会社,愛知県,蒲郡市,豊岡町国府地川１６番地,,23,214,4430011,,,2025-01-16,登記官による閉鎖,,,2015-10-05,1,,,,,,0
1232,4180301017309,登記記録の閉鎖等,0,2025-01-16,2025-01-16,株式会社ｅｉ　ｈａｉｒ,,株式会社,愛知県,安城市,三河安城本町１丁目３番地５,,23,212,4460059,,,2025-01-16,登記官による閉鎖,,,2015-10-05,1,,,,,,0
1235,4180302024139,登記記録の閉鎖等,0,2025-01-16,2025-01-16,有限会社城田工業所,,有限会社,愛知県,みよし市,三好丘緑４丁目６番地の１０,,23,236,4700205,,,2025-01-16,登記官による閉鎖,,,2015-10-05,1,,,,,,0
1236,4180303001302,登記記録の閉鎖等,0,2025-01-16,2025-01-16,合同会社萬栄社,,合同会社,愛知県,豊橋市,東田町字東前山８番地,,23,201,4400054,,,2025-01-16,登記官による閉鎖,,,2015-10-05,1,,,,,,0
1237,4180303002952,登記記録の閉鎖等,0,2025-01-16,2025-01-16,サカイ衛材合同会社,,合同会社,愛知県,岡崎市,福岡町字毘沙門７５番地の８,,23,202,4440825,,,2025-01-16,登記官による閉鎖,,,2015-10-05,1,,,,,,0
1238,4180303003042,登記記録の閉鎖等,0,2025-01-16,2025-01-16,合資会社オイルサービス,,合資会社,愛知県,刈谷市,東境町緑ケ丘６２番地１,,23,210,4480007,,,2025-01-16,登記官による閉鎖,,,2015-10-05,1,,,,,,0
1240,4180305004583,登記記録の閉鎖等,0,2025-01-16,2025-01-16,農事組合法人パイロットプラント・ローズ組合,,その他の設立登記法人,愛知県,安城市,安城町祥南４４,,23,212,4460026,,,2025-01-16,登記官による閉鎖,,,2015-10-05,1,,,,,,0
1244,4200001005453,登記記録の閉鎖等,0,2025-01-16,2025-01-16,株式会社モードサトウ,,株式会社,岐阜県,岐阜市,問屋町東三丁目２番地,,21,201,5000000,,,2025-01-16,登記官による閉鎖,,,2015-10-05,1,,,,,,0
1245,4200001008984,登記記録の閉鎖等,0,2025-01-16,2025-01-16,株式会社ソーシングサービス,,株式会社,岐阜県,各務原市,那加雲雀町２７番地,,21,213,5040836,,,2025-01-16,登記官による閉鎖,,,2015-10-05,1,,,,,,0
1246,4200001014140,登記記録の閉鎖等,0,2025-01-16,2025-01-16,株式会社バニーズ,,株式会社,岐阜県,大垣市,高屋町１丁目４６番地,,21,202,5030901,,,2025-01-16,登記官による閉鎖,,,2015-10-05,1,,,,,,0
1247,4200002017092,登記記録の閉鎖等,0,2025-01-16,2025-01-16,有限会社セイビ企画,,有限会社,岐阜県,可児市,桜ケ丘３丁目８７番地,,21,214,5090235,,,2025-01-16,登記官による閉鎖,,,2015-10-05,1,,,,,,0
1249,4200002026515,登記記録の閉鎖等,0,2025-01-16,2025-01-16,有限会社コウダイ電気,,有限会社,岐阜県,高山市,国府町山本字倉田１１８番地の２,,21,203,5094111,,,2025-01-16,登記官による閉鎖,,,2015-10-05,1,,,,,,0
1251,4200005001366,登記記録の閉鎖等,0,2025-01-16,2025-01-16,医療法人社団健歯会,,その他の設立登記法人,岐阜県,岐阜市,早田栄町４丁目２１番地,,21,201,5020847,,,2025-01-16,登記官による閉鎖,,,2015-10-05,1,,,,,,0
1252,4200005008972,登記記録の閉鎖等,0,2025-01-16,2025-01-08,一尊教中津川教会眞木庵,,その他の設立登記法人,岐阜県,中津川市,駒場１５４７番地,,21,206,5080011,,,2025-01-08,清算の結了等,,,2015-10-05,1,,,,,イッソンキョウナカツガワキョウカイマキアン,0
1253,4200005009087,登記記録の閉鎖等,0,2025-01-16,2025-01-16,蓮光寺,,その他の設立登記法人,岐阜県,中津川市,千旦林辻原１６７６番地の２０,00077515,21,206,5099131,,,2025-01-16,登記官による閉鎖,,,2015-10-05,1,,,,,,0
1263,4240003004796,登記記録の閉鎖等,0,2025-01-16,2025-01-10,もしものときの合同会社,,合同会社,広島県,廿日市市,峰高２丁目１２番１３号,,34,213,7380032,,,2025-01-10,清算の結了等,,,2020-09-04,1,,,,,モシモノトキノ,0
1264,4240005013317,登記記録の閉鎖等,0,2025-01-16,2025-01-15,特定非営利活動法人フリースクール木のねっこ,,その他の設立登記法人,広島県,廿日市市,上平良２３３番地２,,34,213,7380026,,,2025-01-15,清算の結了等,,,2015-10-05,1,,,,,フリースクールキノネッコ,0
1265,4250001007783,登記記録の閉鎖等,0,2025-01-16,2025-01-10,株式会社光進,,株式会社,山口県,下関市,彦島海士郷町７番１号,,35,201,7500071,,,2025-01-10,清算の結了等,,,2015-10-05,1,,,,,コウシン,0
1273,4280002001007,登記記録の閉鎖等,0,2025-01-16,2025-01-14,山洋印刷有限会社,,有限会社,島根県,松江市,学園南１丁目９番２号,,32,201,6900826,,,2025-01-14,清算の結了等,,,2015-10-05,1,,,,,サンヨウインサツ,0
1280,4290003001979,登記記録の閉鎖等,0,2025-01-16,2024-12-23,合同会社クリエイション,,合同会社,福岡県,福岡市南区,折立町１番１２－１号,,40,134,8111303,,,2024-12-23,清算の結了等,,,2015-10-05,1,,,,,クリエイション,0
1284,4300001010815,登記記録の閉鎖等,0,2025-01-16,2025-01-14,ｃｏｎｎｅｃｔｅｄ株式会社,,株式会社,佐賀県,伊万里市,大川内町丙２４８６番地,,41,205,8480026,,,2025-01-14,清算の結了等,,,2017-05-09,1,,,,,コネクテッド,0
1286,4310001012026,登記記録の閉鎖等,0,2025-01-16,2025-01-16,大門成株式会社,,株式会社,長崎県,佐世保市,八の久保町３０６番地９,,42,202,8580906,,,2025-01-16,登記官による閉鎖,,,2015-10-05,1,,,,,,0
1287,4310002002199,登記記録の閉鎖等,0,2025-01-16,2025-01-16,有限会社ジェイ・ケイ・アイ企画,,有限会社,長崎県,長崎市,立山５丁目７番７号,,42,201,8500007,,,2025-01-16,登記官による閉鎖,,,2015-10-05,1,,,,,,0
1290,4310002009079,登記記録の閉鎖等,0,2025-01-16,2025-01-16,有限会社アルタ企画,,有限会社,長崎県,佐世保市,京坪町８番１０号山田ビル２階,,42,202,8570874,,,2025-01-16,登記官による閉鎖,,,2015-10-05,1,,,,,,0
1291,4310002012347,登記記録の閉鎖等,0,2025-01-16,2025-01-16,有限会社江添製陶所,,有限会社,長崎県,東彼杵郡波佐見町,湯無田郷９５２番地,,42,323,8593702,,,2025-01-16,登記官による閉鎖,,,2015-10-05,1,,,,,,0
1292,4310002013790,登記記録の閉鎖等,0,2025-01-16,2025-01-16,有限会社大隈工業資源商会,,有限会社,長崎県,佐世保市,吉井町吉元３番地,,42,202,8596324,,,2025-01-16,登記官による閉鎖,,,2019-01-16,1,,,,,オオクマコウギョウシゲンショウカイ,0
1293,4310002013824,登記記録の閉鎖等,0,2025-01-16,2025-01-16,有限会社天翔,,有限会社,長崎県,佐世保市,江迎町猪調１０３９番地１０,,42,202,8596133,,,2025-01-16,登記官による閉鎖,,,2015-10-05,1,,,,,,0
1305,4340001025735,登記記録の閉鎖等,0,2025-01-16,2025-01-14,株式会社池田太一建築設計事務所,,株式会社,鹿児島県,姶良市,宮島町１９番地２６,,46,225,8995432,,,2025-01-14,清算の結了等,,,2023-07-20,1,,,,,イケダタイチケンチクセッケイジムショ,0
1328,4470001015707,登記記録の閉鎖等,0,2025-01-16,2025-01-10,フジタ物流株式会社,,株式会社,香川県,三豊市,豊中町笠田笠岡２５８７番地１,,37,208,7691502,,,2025-01-10,清算の結了等,,,2016-05-11,1,,,,,フジタブツリュウ,0
1329,4470002003487,登記記録の閉鎖等,0,2025-01-16,2025-01-10,有限会社新建築板金工業所,,有限会社,香川県,高松市,西植田町３２５３番地の２,,37,201,7610445,,,2025-01-10,清算の結了等,,,2015-10-05,1,,,,,シンケンチクバンキンコウギョウショ,0
1334,4500002015009,登記記録の閉鎖等,0,2025-01-16,2025-01-10,有限会社ステップオート,,有限会社,愛媛県,西条市,丹原町高松甲１３４６番地１,,38,206,7910524,,,2025-01-10,清算の結了等,,,2015-10-05,1,,,,,,0
1346,5010003042678,登記記録の閉鎖等,0,2025-01-16,2024-12-26,合同会社京都悠洛,,合同会社,東京都,千代田区,丸の内１丁目４番１号東京共同会計事務所内,,13,101,1000005,,,2024-12-26,清算の結了等,,,2024-01-18,1,,,,,キョウトユラ,0
1349,5010401006078,登記記録の閉鎖等,0,2025-01-16,2025-01-16,株式会社大和田運輸作業,,株式会社,東京都,港区,芝浦２丁目１４番１３号,,13,103,1080023,,,2025-01-16,登記官による閉鎖,,,2015-10-05,1,,,,,,0
1350,5010401030532,登記記録の閉鎖等,0,2025-01-16,2025-01-16,株式会社養栄堂,,株式会社,東京都,港区,東麻布２丁目５番１号,,13,103,1060044,,,2025-01-16,登記官による閉鎖,,,2015-10-05,1,,,,,,0
1351,5010401071097,登記記録の閉鎖等,0,2025-01-16,2025-01-16,株式会社ＲＫＩ,,株式会社,東京都,港区,白金台３丁目１２番４号,,13,103,1080071,,,2025-01-16,登記官による閉鎖,,,2015-10-05,1,,,,,,0
1352,5010401073151,登記記録の閉鎖等,0,2025-01-16,2025-01-16,株式会社Ｆｉｎａｌ　Ｈｅｒｏｅｓ,,株式会社,東京都,港区,西麻布３丁目２０番１６号,,13,103,1060031,,,2025-01-16,登記官による閉鎖,,,2015-10-05,1,,,,,,0
1353,5010401077326,登記記録の閉鎖等,0,2025-01-16,2025-01-16,株式会社ＬＤＫホーム,,株式会社,東京都,港区,北青山３丁目９番８号,,13,103,1070061,,,2025-01-16,登記官による閉鎖,,,2015-10-05,1,,,,,,0
1354,5010401083381,登記記録の閉鎖等,0,2025-01-16,2025-01-16,株式会社第一土木建設コンサルタント,,株式会社,東京都,港区,新橋４丁目２９番６号,,13,103,1050004,,,2025-01-16,登記官による閉鎖,,,2015-10-05,1,,,,,,0
1355,5010401093653,登記記録の閉鎖等,0,2025-01-16,2024-12-26,エバーノート株式会社,,株式会社,東京都,中央区,銀座１丁目１２番４号Ｎ＆ＥＢＬＤ．６Ｆ,,13,102,1040061,,,2024-12-26,清算の結了等,,,2015-10-05,1,,,,,エバーノート,0
1356,5010401099213,登記記録の閉鎖等,0,2025-01-16,2025-01-16,Ｚｉｍｃｒｉｓｅ株式会社,,株式会社,東京都,港区,西麻布１丁目１０番２号,,13,103,1060031,,,2025-01-16,登記官による閉鎖,,,2015-10-05,1,,,,,,0
1358,5010401106316,登記記録の閉鎖等,0,2025-01-16,2025-01-16,株式会社キットインターナショナル,,株式会社,東京都,港区,南青山６丁目９番２－１０１号,,13,103,1070062,,,2025-01-16,登記官による閉鎖,,,2015-10-05,1,,,,,,0
1360,5010401156105,登記記録の閉鎖等,0,2025-01-16,2024-12-19,Ｉ＆Ｍ株式会社,,株式会社,東京都,港区,海岸１丁目２番３号,,13,103,1050022,,,2024-12-19,清算の結了等,,,2020-10-27,1,,,,,アイアンドエム,0
1364,5010402012249,登記記録の閉鎖等,0,2025-01-16,2025-01-16,有限会社マネージメントプラス,,有限会社,東京都,港区,赤坂４丁目５番２１－４１２号,,13,103,1070052,,,2025-01-16,登記官による閉鎖,,,2015-10-05,1,,,,,,0
1365,5010403009624,登記記録の閉鎖等,0,2025-01-16,2025-01-16,合同会社邦元,,合同会社,東京都,港区,赤坂６丁目６番１７－４０３号,,13,103,1070052,,,2025-01-16,登記官による閉鎖,,,2015-10-05,1,,,,,クニモト,0
1368,5010405003146,登記記録の閉鎖等,0,2025-01-16,2025-01-16,特定非営利活動法人日本アートセラピー研究所,,その他の設立登記法人,東京都,港区,赤坂６丁目１番２０号,,13,103,1070052,,,2025-01-16,登記官による閉鎖,,,2015-10-05,1,,,,,,0
1369,5010405007485,登記記録の閉鎖等,0,2025-01-16,2025-01-16,特定非営利活動法人エコキーパー協会,,その他の設立登記法人,東京都,港区,西新橋１丁目４番９号,,13,103,1050003,,,2025-01-16,登記官による閉鎖,,,2015-10-05,1,,,,,,0
1371,5010601044266,登記記録の閉鎖等,0,2025-01-16,2025-01-10,株式会社池田地所,,株式会社,東京都,江東区,亀戸６丁目５９番１０号サンシャレード亀戸５０１,,13,108,1360071,,,2025-01-10,清算の結了等,,,2015-10-05,1,,,,,,0
1376,5010803001726,登記記録の閉鎖等,0,2025-01-16,2024-12-20,合同会社うむさん,,合同会社,東京都,中央区,銀座１丁目２７番８号セントラルビル７０３号,,13,102,1040061,,,2024-12-20,清算の結了等,,,2015-10-05,1,,,,,ウムサン,0
1405,5013301024595,登記記録の閉鎖等,0,2025-01-16,2024-12-27,株式会社ＬＩＦＥ　ＵＰ,,株式会社,東京都,豊島区,池袋４丁目３０番２１号,,13,116,1710014,,,2024-12-27,清算の結了等,,,2015-10-05,1,,,,,ライフアップ,0
1406,5013303003960,登記記録の閉鎖等,0,2025-01-16,2024-12-25,合同会社ベースノート,,合同会社,東京都,中央区,銀座１丁目２２番１１,,13,102,1040061,,,2024-12-25,清算の結了等,,,2017-12-11,1,,,,,ベースノート,0
1408,5020001042885,登記記録の閉鎖等,0,2025-01-16,2024-12-24,株式会社ノンワールド,,株式会社,神奈川県,横浜市保土ケ谷区,天王町２丁目５０番１号天王町団地５棟４０７号,,14,106,2400003,,,2024-12-24,清算の結了等,,,2015-10-05,1,,,,,ノンワールド,0
1426,5030001007565,登記記録の閉鎖等,0,2025-01-16,2025-01-10,株式会社ベルテック,,株式会社,埼玉県,さいたま市緑区,東浦和３丁目２９番地１,,11,109,3360926,,,2025-01-10,清算の結了等,,,2015-10-05,1,,,,,ベルテック,0
1434,5040001109600,登記記録の閉鎖等,0,2025-01-16,2025-01-06,株式会社東京総合企画,,株式会社,千葉県,船橋市,前貝塚町３０１番地２３,,12,204,2730042,,,2025-01-06,清算の結了等,,,2019-06-12,1,,,,,トウキョウソウゴウキカク,0
1446,5070001034630,登記記録の閉鎖等,0,2025-01-16,2024-12-25,株式会社ＬＲＦ,,株式会社,群馬県,利根郡みなかみ町,湯宿温泉２０８６番地の１,,10,449,3791409,,,2024-12-25,清算の結了等,,,2018-04-24,1,,,,,エルアールエフ,0
1449,5080401015378,登記記録の閉鎖等,0,2025-01-16,2024-12-26,菊川開発株式会社,,株式会社,静岡県,菊川市,加茂４６０番地の３,,22,224,4390031,,,2024-12-26,合併による解散等,3080401014885,令和６年１２月２６日静岡県菊川市加茂４６０番３落合開発株式会社（3080401014885）に合併し解散,2015-10-05,1,,,,,キクガワカイハツ,0
1454,5110001003969,登記記録の閉鎖等,0,2025-01-16,2025-01-09,株式会社新潟栃倉屋,,株式会社,新潟県,新潟市中央区,愛宕２丁目７番地１４,,15,103,9500944,,,2025-01-09,清算の結了等,,,2015-10-05,1,,,,,ニイガタトチクラヤ,0
1456,5110001008588,登記記録の閉鎖等,0,2025-01-16,2025-01-08,株式会社装和,,株式会社,新潟県,新潟市東区,中木戸２３７番地１,,15,102,9500886,,,2025-01-08,清算の結了等,,,2015-10-05,1,,,,,,0
1457,5110001020709,登記記録の閉鎖等,0,2025-01-16,2025-01-09,株式会社Ｊ－Ｐｌｕｓ,,株式会社,新潟県,上越市,五智３丁目９番２８号,,15,222,9420081,,,2025-01-09,清算の結了等,,,2015-10-05,1,,,,,ジェープラス,0
1481,5120101037874,登記記録の閉鎖等,0,2025-01-16,2025-01-08,米本会計株式会社,,株式会社,大阪府,岸和田市,別所町２丁目１７番１号,,27,202,5960045,,,2025-01-08,合併による解散等,9260001025029,令和７年１月１日大阪府堺市堺区戎島町四丁４５番地の１ポルタスセンタービル４Ｆ米本ＦＰ株式会社（9260001025029）に合併し解散,2015-10-05,1,,,,,ヨネモトカイケイ,0
1496,5140002004856,登記記録の閉鎖等,0,2025-01-16,2025-01-09,有限会社田中加工所,,有限会社,兵庫県,神戸市西区,伊川谷町前開４３３番地の１,,28,111,6512108,,,2025-01-09,清算の結了等,,,2015-10-05,1,,,,,タナカカコウショ,0
1499,5150001000772,登記記録の閉鎖等,0,2025-01-16,2025-01-15,株式会社麗,,株式会社,奈良県,奈良市,佐紀町２１３９番地の４,,29,201,6308003,,,2025-01-15,清算の結了等,,,2015-10-05,1,,,,,ウララ,0
1502,5160005006451,登記記録の閉鎖等,0,2025-01-16,2025-01-15,医療法人真成会,,その他の設立登記法人,滋賀県,東近江市,林田町大字南地１２９２番地,,25,213,5270051,,,2025-01-15,清算の結了等,,,2015-10-05,1,,,,,シンセイカイ,0
1504,5180001060698,登記記録の閉鎖等,0,2025-01-16,2025-01-16,ユーシーエイチ株式会社,,株式会社,愛知県,名古屋市西区,新道１丁目１１番２号,,23,104,4510043,,,2025-01-16,登記官による閉鎖,,,2015-10-05,1,,,,,,0
1505,5180001063511,登記記録の閉鎖等,0,2025-01-16,2025-01-16,日本カウンセラー株式会社,,株式会社,愛知県,名古屋市中村区,名駅２丁目４５番１９号桑山ビル４階,,23,105,4500002,,,2025-01-16,登記官による閉鎖,,,2015-10-05,1,,,,,,0
1506,5180001063965,登記記録の閉鎖等,0,2025-01-16,2025-01-16,株式会社ビブレキャスト,,株式会社,愛知県,名古屋市中川区,八田町４０４番地１,,23,110,4540877,,,2025-01-16,登記官による閉鎖,,,2015-10-05,1,,,,,,0
1507,5180001071712,登記記録の閉鎖等,0,2025-01-16,2025-01-16,株式会社ＫＵＢＩＣ,,株式会社,愛知県,名古屋市中村区,太閤３丁目２番１４号,,23,105,4530801,,,2025-01-16,登記官による閉鎖,,,2015-10-05,1,,,,,,0
1508,5180001072652,登記記録の閉鎖等,0,2025-01-16,2025-01-16,株式会社タクト,,株式会社,愛知県,名古屋市名東区,天神下１４７番地,,23,115,4650009,,,2025-01-16,登記官による閉鎖,,,2015-10-05,1,,,,,,0
1509,5180001077668,登記記録の閉鎖等,0,2025-01-16,2025-01-16,株式会社ジョイナス,,株式会社,愛知県,春日井市,高森台２丁目１７番地１２,,23,206,4870032,,,2025-01-16,登記官による閉鎖,,,2015-10-05,1,,,,,,0
1510,5180001081777,登記記録の閉鎖等,0,2025-01-16,2025-01-16,株式会社ブナ,,株式会社,愛知県,小牧市,小牧３丁目１４７番地パーソンビルＢ１下,,23,219,4850041,,,2025-01-16,登記官による閉鎖,,,2015-10-05,1,,,,,,0
1511,5180001095100,登記記録の閉鎖等,0,2025-01-16,2025-01-16,株式会社サンキュロット,,株式会社,愛知県,知多市,八幡新町１丁目１４番地の３,,23,224,4780052,,,2025-01-16,登記官による閉鎖,,,2015-10-05,1,,,,,,0
1512,5180001096544,登記記録の閉鎖等,0,2025-01-16,2025-01-16,東海毛織株式会社,,株式会社,愛知県,津島市,池須町１２２番地,,23,208,4960828,,,2025-01-16,登記官による閉鎖,,,2015-10-05,1,,,,,,0
1513,5180001101080,登記記録の閉鎖等,0,2025-01-16,2025-01-16,株式会社ワイズ・エージェンシー,,株式会社,愛知県,名古屋市北区,成願寺１丁目６ザ・シーン城北Ａ－１４０９,,23,103,4620021,,,2025-01-16,登記官による閉鎖,,,2015-10-05,1,,,,,,0
1514,5180001103928,登記記録の閉鎖等,0,2025-01-16,2025-01-16,株式会社ＫＡＴＯ,,株式会社,愛知県,北名古屋市,弥勒寺東２丁目１７４番地,,23,234,4810031,,,2025-01-16,登記官による閉鎖,,,2015-10-05,1,,,,,,0
1515,5180001106138,登記記録の閉鎖等,0,2025-01-16,2025-01-16,株式会社ドリームプロモーション,,株式会社,愛知県,名古屋市中村区,名駅２丁目３９番１６号ロイメント名駅７０１号室,,23,105,4500002,,,2025-01-16,登記官による閉鎖,,,2015-10-05,1,,,,,,0
1516,5180001112706,登記記録の閉鎖等,0,2025-01-16,2025-01-10,株式会社エイシン・ホールディングス,,株式会社,愛知県,名古屋市千種区,新池町１丁目２１番地の２,,23,101,4640027,,,2025-01-10,合併による解散等,7120001075337,令和７年１月１日大阪市中央区平野町一丁目６番９号株式会社エイシンインターナシヨナル（7120001075337）に合併し解散,2015-10-05,1,,,,,エイシンホールディングス,0
1518,5180001136572,登記記録の閉鎖等,0,2025-01-16,2025-01-16,株式会社新和産業,,株式会社,愛知県,北名古屋市,九之坪天神２７番、２８番,,23,234,4810041,,,2025-01-16,登記官による閉鎖,,,2019-05-20,1,,,,,,0
1522,5180002017986,登記記録の閉鎖等,0,2025-01-16,2025-01-16,有限会社後藤勝義建設,,有限会社,愛知県,名古屋市中川区,法華１丁目１２４番地の４,,23,110,4540933,,,2025-01-16,登記官による閉鎖,,,2015-10-05,1,,,,,,0
1523,5180002030691,登記記録の閉鎖等,0,2025-01-16,2025-01-16,有限会社弘益社,,有限会社,愛知県,名古屋市中区,金山１丁目２番１２号,,23,106,4600022,,,2025-01-16,登記官による閉鎖,,,2015-10-05,1,,,,,,0
1524,5180002057371,登記記録の閉鎖等,0,2025-01-16,2025-01-16,有限会社石弘,,有限会社,愛知県,名古屋市中村区,豊国通３丁目３番地,,23,105,4530834,,,2025-01-16,登記官による閉鎖,,,2015-10-05,1,,,,,,0
1525,5180002082238,登記記録の閉鎖等,0,2025-01-16,2025-01-16,有限会社メンズプレスイシイ,,有限会社,愛知県,江南市,飛高町本町８４番地,,23,217,4838068,,,2025-01-16,登記官による閉鎖,,,2015-10-05,1,,,,,,0
1526,5180002088607,登記記録の閉鎖等,0,2025-01-16,2025-01-16,有限会社セントリアニシカワ,,有限会社,愛知県,東海市,加木屋町泡池１１番地の５７０,,23,222,4770032,,,2025-01-16,登記官による閉鎖,,,2015-10-05,1,,,,,,0
1527,5180003013902,登記記録の閉鎖等,0,2025-01-16,2025-01-16,合同会社ホームペイント,,合同会社,愛知県,小牧市,下小針天神３丁目７７番地の２,,23,219,4850036,,,2025-01-16,登記官による閉鎖,,,2015-10-05,1,,,,,,0
1528,5180003014132,登記記録の閉鎖等,0,2025-01-16,2025-01-16,アークメディアジャパン合同会社,,合同会社,愛知県,津島市,神尾町字蓮池１６番地,,23,208,4960013,,,2025-01-16,登記官による閉鎖,,,2015-10-05,1,,,,,,0
1531,5180005002572,登記記録の閉鎖等,0,2025-01-16,2025-01-16,医療法人治康会,,その他の設立登記法人,愛知県,名古屋市中区,錦１丁目１０番９号,,23,106,4600003,,,2025-01-16,登記官による閉鎖,,,2015-10-05,1,,,,,,0
1532,5180005003067,登記記録の閉鎖等,0,2025-01-16,2025-01-16,日立製作所労働組合名古屋支部,,その他の設立登記法人,愛知県,名古屋市中区,栄３丁目１７番１２号株式会社日立製作所中部支社内,,23,106,4600008,,,2025-01-16,登記官による閉鎖,,,2015-10-05,1,,,,,,0
1533,5180005005625,登記記録の閉鎖等,0,2025-01-16,2025-01-16,特定非営利活動法人青少年活動ネットワーク,,その他の設立登記法人,愛知県,北名古屋市,鹿田坂巻１０６番地,,23,234,4810004,,,2025-01-16,登記官による閉鎖,,,2015-10-05,1,,,,,,0
1534,5180005009122,登記記録の閉鎖等,0,2025-01-16,2025-01-16,特定非営利活動法人まほろば,,その他の設立登記法人,愛知県,瀬戸市,中品野町５５４番地,,23,204,4801218,,,2025-01-16,登記官による閉鎖,,,2015-10-05,1,,,,,,0
1535,5180005009915,登記記録の閉鎖等,0,2025-01-16,2025-01-16,神道権伊教会,,その他の設立登記法人,愛知県,一宮市,今伊勢町馬寄字山之小路３３番地,,23,203,4910051,,,2025-01-16,登記官による閉鎖,,,2015-10-05,1,,,,,,0
1537,5180302011111,登記記録の閉鎖等,0,2025-01-16,2025-01-16,とよはし生活リハビリクラブ有限会社,,有限会社,愛知県,豊橋市,瓦町６４番地,,23,201,4400825,,,2025-01-16,登記官による閉鎖,,,2015-10-05,1,,,,,,0
1538,5180302012530,登記記録の閉鎖等,0,2025-01-16,2025-01-16,有限会社ガレージコロナー,,有限会社,愛知県,田原市,江比間町二字郷中１番地,,23,231,4413605,,,2025-01-16,登記官による閉鎖,,,2015-10-05,1,,,,,,0
1542,5180305004070,登記記録の閉鎖等,0,2025-01-16,2025-01-16,医療法人三谷診療所,,その他の設立登記法人,愛知県,蒲郡市,三谷町東前７７番地,,23,214,4430021,,,2025-01-16,登記官による閉鎖,,,2015-10-05,1,,,,,,0
1543,5200001012960,登記記録の閉鎖等,0,2025-01-16,2025-01-16,株式会社Ｆｉｎｄ　Ｏｕｔ,,株式会社,岐阜県,羽島市,竹鼻町狐穴１３０３番地１,,21,209,5016232,,,2025-01-16,登記官による閉鎖,,,2015-10-05,1,,,,,,0
1544,5200001021549,登記記録の閉鎖等,0,2025-01-16,2025-01-15,株式会社マルカ,,株式会社,岐阜県,土岐市,土岐津町土岐口３８０番地,,21,212,5095122,,,2025-01-15,清算の結了等,,,2015-10-05,1,,,,,マルカ,0
1548,5200002007761,登記記録の閉鎖等,0,2025-01-16,2025-01-16,有限会社大俊工業,,有限会社,岐阜県,各務原市,山脇町５丁目２２６番地,,21,213,5040928,,,2025-01-16,登記官による閉鎖,,,2015-10-05,1,,,,,,0
1549,5200002022109,登記記録の閉鎖等,0,2025-01-16,2025-01-16,有限会社ヒヨシ精機,,有限会社,岐阜県,瑞浪市,寺河戸町１０４０番地,,21,208,5096121,,,2025-01-16,登記官による閉鎖,,,2015-10-05,1,,,,,ヒヨシセイキ,0
1550,5200003004510,登記記録の閉鎖等,0,2025-01-16,2025-01-16,山明毛織合資会社,,合資会社,岐阜県,羽島市,足近町南之川１４６番地の１,,21,209,5016205,,,2025-01-16,登記官による閉鎖,,,2019-06-25,1,,,,,ヤマアキケオリ,0
1551,5200005009359,登記記録の閉鎖等,0,2025-01-16,2025-01-16,農事組合法人恵南食鳥ブロイラー,,その他の設立登記法人,岐阜県,恵那市,岩村町飯羽間３６２６番地の１,,21,210,5097401,,,2025-01-16,登記官による閉鎖,,,2015-10-05,1,,,,,,0
1554,5220002002067,登記記録の閉鎖等,0,2025-01-16,2025-01-08,有限会社金沢フエンダー,,有限会社,石川県,金沢市,小立野４丁目５番２５号,,17,201,9200942,,,2025-01-08,清算の結了等,,,2015-10-05,1,,,,,カナザワフエンダー,0
1576,5310001003932,登記記録の閉鎖等,0,2025-01-16,2025-01-16,株式会社大輝,,株式会社,長崎県,長崎市,出島町４番１６号,,42,201,8500862,,,2025-01-16,登記官による閉鎖,,,2015-10-05,1,,,,,,0
1577,5310001011472,登記記録の閉鎖等,0,2025-01-16,2025-01-16,株式会社ヤマグチ,,株式会社,長崎県,長崎市,西海町字後平２３７２番地３,,42,201,8513101,,,2025-01-16,登記官による閉鎖,,,2015-10-05,1,,,,,,0
1578,5310002002859,登記記録の閉鎖等,0,2025-01-16,2025-01-16,有限会社太閤,,有限会社,長崎県,長崎市,梅香崎町１番１２号,,42,201,8500909,,,2025-01-16,登記官による閉鎖,,,2015-10-05,1,,,,,,0
1579,5310002004418,登記記録の閉鎖等,0,2025-01-16,2025-01-16,有限会社浜清工業,,有限会社,長崎県,長崎市,ダイヤランド３丁目１番２４号,,42,201,8500963,,,2025-01-16,登記官による閉鎖,,,2015-10-05,1,,,,,,0
1580,5310002005028,登記記録の閉鎖等,0,2025-01-16,2025-01-16,有限会社本多総合保険事務所,,有限会社,長崎県,長崎市,玉園町２番１５号,,42,201,8500053,,,2025-01-16,登記官による閉鎖,,,2015-10-05,1,,,,,,0
1581,5310002013393,登記記録の閉鎖等,0,2025-01-16,2025-01-16,有限会社大島生コン,,有限会社,長崎県,西海市,大島町１８０１番地,,42,212,8572427,,,2025-01-16,登記官による閉鎖,,,2015-10-05,1,,,,,,0
1583,5310003002809,登記記録の閉鎖等,0,2025-01-16,2025-01-16,合同会社Ｋ．サポート,,合同会社,長崎県,島原市,新山３丁目８８７１番地６,,42,203,8550843,,,2025-01-16,登記官による閉鎖,,,2015-10-05,1,,,,,,0
1584,5310005000694,登記記録の閉鎖等,0,2025-01-16,2025-01-16,社団法人長崎県防疫薬品協会,,その他の設立登記法人,長崎県,長崎市,桜馬場町１６４番地,,42,201,8500000,,,2025-01-16,登記官による閉鎖,,,2015-10-05,1,,,,,,0
1585,5310005000703,登記記録の閉鎖等,0,2025-01-16,2025-01-16,社団法人長崎ヨットクラブ,,その他の設立登記法人,長崎県,長崎市,飽の浦町９番１０－５０３号,,42,201,8500063,,,2025-01-16,登記官による閉鎖,,,2015-10-05,1,,,,,,0
1586,5310005003318,登記記録の閉鎖等,0,2025-01-16,2025-01-16,社団法人佐世保地区中小企業団体協議会,,その他の設立登記法人,長崎県,佐世保市,松浦町２５番地,,42,202,8570052,,,2025-01-16,登記官による閉鎖,,,2015-10-05,1,,,,,,0
1587,5310005006436,登記記録の閉鎖等,0,2025-01-16,2025-01-16,特定非営利活動法人青葉会,,その他の設立登記法人,長崎県,平戸市,大久保町３２６番地１８２８,,42,207,8595102,,,2025-01-16,登記官による閉鎖,,,2015-10-05,1,,,,,,0
1644,6010001179199,登記記録の閉鎖等,0,2025-01-16,2024-12-19,株式会社アクセス,,株式会社,東京都,港区,浜松町２丁目２番１５号浜松町ダイヤビル２Ｆ,,13,103,1050013,,,2024-12-19,清算の結了等,,,2016-10-26,1,,,,,アクセス,0
1646,6010001239052,登記記録の閉鎖等,0,2025-01-16,2024-12-24,株式会社ｗｉｌｌ,,株式会社,東京都,中央区,日本橋人形町３丁目７番１３号,,13,102,1030013,,,2024-12-24,清算の結了等,,,2023-10-11,1,,,,,ウィル,0
1650,6010401007348,登記記録の閉鎖等,0,2025-01-16,2025-01-16,株式会社カワサキ・タカオ・オフィス,,株式会社,東京都,港区,赤坂８丁目６番３１号,,13,103,1070052,,,2025-01-16,登記官による閉鎖,,,2015-10-05,1,,,,,,0
1651,6010401011374,登記記録の閉鎖等,0,2025-01-16,2025-01-16,散所不動産株式会社,,株式会社,東京都,港区,赤坂２丁目１７番５５号,,13,103,1070052,,,2025-01-16,登記官による閉鎖,,,2015-10-05,1,,,,,,0
1652,6010401012406,登記記録の閉鎖等,0,2025-01-16,2025-01-16,信栄株式会社,,株式会社,東京都,港区,東麻布１丁目３番５号,,13,103,1060044,,,2025-01-16,登記官による閉鎖,,,2015-10-05,1,,,,,,0
1653,6010401042576,登記記録の閉鎖等,0,2025-01-16,2025-01-16,インターネットテレフォン株式会社,,株式会社,東京都,港区,南青山２丁目５番１７号,,13,103,1070062,,,2025-01-16,登記官による閉鎖,,,2015-10-05,1,,,,,,0
1654,6010401069561,登記記録の閉鎖等,0,2025-01-16,2024-12-20,株式会社ナノテクニカル,,株式会社,東京都,港区,芝１丁目５番１０号ＩＣビル,,13,103,1050014,,,2024-12-20,清算の結了等,,,2015-10-05,1,,,,,ナノテクニカル,0
1655,6010401073530,登記記録の閉鎖等,0,2025-01-16,2025-01-16,株式会社テクノスポーツ,,株式会社,東京都,港区,麻布台３丁目４番１２号,,13,103,1060041,,,2025-01-16,登記官による閉鎖,,,2015-10-05,1,,,,,,0
1656,6010401075584,登記記録の閉鎖等,0,2025-01-16,2025-01-16,株式会社ツートップエンタープライズ,,株式会社,東京都,港区,麻布十番２丁目２番４号,,13,103,1060045,,,2025-01-16,登記官による閉鎖,,,2015-10-05,1,,,,,,0
1657,6010401076962,登記記録の閉鎖等,0,2025-01-16,2025-01-16,株式会社グリップランド,,株式会社,東京都,港区,麻布十番１丁目１０番１０号,,13,103,1060045,,,2025-01-16,登記官による閉鎖,,,2015-10-05,1,,,,,,0
1658,6010401081946,登記記録の閉鎖等,0,2025-01-16,2025-01-16,株式会社ポラリス,,株式会社,東京都,港区,六本木５丁目１６－５０－３１０,,13,103,1060032,,,2025-01-16,登記官による閉鎖,,,2018-08-22,1,,,,,ポラリス,0
1659,6010401083372,登記記録の閉鎖等,0,2025-01-16,2025-01-16,Ｍａｉｎ　Ｕｎｉｔ株式会社,,株式会社,東京都,港区,麻布十番２丁目８番８号,,13,103,1060045,,,2025-01-16,登記官による閉鎖,,,2015-10-05,1,,,,,,0
1660,6010401089460,登記記録の閉鎖等,0,2025-01-16,2025-01-16,株式会社Ｋ＆Ｋ,,株式会社,東京都,港区,虎ノ門４丁目３番２０号神谷町ＭＴビル１４階,,13,103,1050001,,,2025-01-16,登記官による閉鎖,,,2015-10-05,1,,,,,,0
1661,6010401095302,登記記録の閉鎖等,0,2025-01-16,2025-01-16,株式会社エスビーシー,,株式会社,東京都,港区,南青山６丁目７番５－１１０１号,,13,103,1070062,,,2025-01-16,登記官による閉鎖,,,2015-10-05,1,,,,,,0
1662,6010401096069,登記記録の閉鎖等,0,2025-01-16,2025-01-16,株式会社アーサム,,株式会社,東京都,港区,東麻布１丁目７番７号,,13,103,1060044,,,2025-01-16,登記官による閉鎖,,,2015-10-05,1,,,,,,0
1663,6010401106496,登記記録の閉鎖等,0,2025-01-16,2025-01-16,ワインソサエティ株式会社,,株式会社,東京都,港区,麻布十番１丁目５番２号,,13,103,1060045,,,2025-01-16,登記官による閉鎖,,,2015-10-05,1,,,,,,0
1664,6010401107445,登記記録の閉鎖等,0,2025-01-16,2025-01-16,株式会社グロリアス,,株式会社,東京都,港区,芝大門２丁目１番１号第２境野ビル７階,,13,103,1050012,,,2025-01-16,登記官による閉鎖,,,2015-10-05,1,,,,,,0
1672,6010402003701,登記記録の閉鎖等,0,2025-01-16,2025-01-16,有限会社カラキヤ,,有限会社,東京都,港区,元麻布３丁目１０番４号,,13,103,1060046,,,2025-01-16,登記官による閉鎖,,,2015-10-05,1,,,,,,0
1673,6010402013205,登記記録の閉鎖等,0,2025-01-16,2025-01-16,有限会社山中塗装店,,有限会社,東京都,港区,浜松町１丁目３番１０号,,13,103,1050013,,,2025-01-16,登記官による閉鎖,,,2015-10-05,1,,,,,,0
1675,6010403009301,登記記録の閉鎖等,0,2025-01-16,2025-01-16,合同会社スリーコインズ,,合同会社,東京都,港区,南青山２丁目２番１５号,,13,103,1070062,,,2025-01-16,登記官による閉鎖,,,2015-10-05,1,,,,,,0
1677,6010405006750,登記記録の閉鎖等,0,2025-01-16,2025-01-16,特定非営利活動法人防災・危機管理教育協会,,その他の設立登記法人,東京都,港区,虎ノ門２丁目９番１６号日本消防会館近代消防社内,,13,103,1050001,,,2025-01-16,登記官による閉鎖,,,2015-10-05,1,,,,,,0
1678,6010405007063,登記記録の閉鎖等,0,2025-01-16,2025-01-16,特定非営利活動法人ＣＯＲＡＬＳＡＶＥＲＳ,,その他の設立登記法人,東京都,港区,西麻布１丁目４番３６－４０２号,,13,103,1060031,,,2025-01-16,登記官による閉鎖,,,2015-10-05,1,,,,,,0
1679,6010405007559,登記記録の閉鎖等,0,2025-01-16,2025-01-16,特定非営利活動法人竹の会,,その他の設立登記法人,東京都,港区,高輪４丁目８番６－７０１号,,13,103,1080074,,,2025-01-16,登記官による閉鎖,,,2015-10-05,1,,,,,,0
1683,6010601030587,登記記録の閉鎖等,0,2025-01-16,2025-01-09,株式会社日本インディコール,,株式会社,東京都,江東区,深川２丁目８番１９号サクライビル,,13,108,1350033,,,2025-01-09,清算の結了等,,,2015-10-05,1,,,,,ニッポンインディコール,0
1692,6010801000200,登記記録の閉鎖等,0,2025-01-16,2025-01-08,ダイシンモールド株式会社,,株式会社,茨城県,稲敷市,江戸崎甲４３４４番地３５３,,08,229,3000504,,,2025-01-08,合併による解散等,8021001021158,令和７年１月１日神奈川県伊勢原市鈴川５番地の６大新産業株式会社（8021001021158）に合併し解散,2015-10-05,1,,,,,ダイシンモールド,0
1694,6010901029016,登記記録の閉鎖等,0,2025-01-16,2025-01-16,株式会社不動産総研,,株式会社,東京都,港区,芝大門２丁目１０番２号,,13,103,1050012,,,2025-01-16,登記官による閉鎖,,,2015-10-05,1,,,,,,0
1706,6011101100582,登記記録の閉鎖等,0,2025-01-16,2024-12-27,株式会社ＡＭＵＳＥ,,株式会社,東京都,新宿区,四谷２丁目１３番地,,13,104,1600004,,,2024-12-27,清算の結了等,,,2022-10-21,1,,,,,アミューズ,0
1717,6012302003780,登記記録の閉鎖等,0,2025-01-16,2025-01-10,ハイディー国際有限会社,,有限会社,東京都,町田市,成瀬台１丁目１０番地８,,13,209,1940043,,,2025-01-10,清算の結了等,,,2015-10-05,1,,,,,ハイディーコクサイ,0
1744,6021003008080,登記記録の閉鎖等,0,2025-01-16,2025-01-14,ＷＭＫ合同会社,,合同会社,神奈川県,藤沢市,片瀬海岸２丁目１７番８～１０８号,,14,205,2510035,,,2025-01-14,清算の結了等,,,2019-01-17,1,,,,,ダブリュエムケー,0
1786,6100001010370,登記記録の閉鎖等,0,2025-01-16,2025-01-09,山辺興商株式会社,,株式会社,長野県,上田市,上田原９３番地２,,20,203,3861102,,,2025-01-09,清算の結了等,,,2015-10-05,1,,,,,ヤマベコウショウ,0
1787,6100002021813,登記記録の閉鎖等,0,2025-01-16,2025-01-08,有限会社無相建築工房,,有限会社,長野県,安曇野市,豊科田沢６８０２番地,,20,220,3998203,,,2025-01-08,清算の結了等,,,2015-10-05,1,,,,,ムソウケンチクコウボウ,0
1790,6120001095831,登記記録の閉鎖等,0,2025-01-16,2025-01-16,デアル株式会社,,株式会社,東京都,港区,六本木３丁目１３番１２号,,13,103,1060032,,,2025-01-16,登記官による閉鎖,,,2015-10-05,1,,,,,,0
1798,6120001231279,登記記録の閉鎖等,0,2025-01-16,2025-01-07,株式会社エーイーコネクト,,株式会社,大阪府,大阪市旭区,千林２丁目１２番３５号,,27,117,5350012,,,2025-01-07,清算の結了等,,,2020-08-26,1,,,,,エーイーコネクト,0
1829,6150001023640,登記記録の閉鎖等,0,2025-01-16,2025-01-15,株式会社ａｏ,,株式会社,奈良県,桜井市,大字浅古９５番地の４、Ａー１０１,,29,206,6330052,,,2025-01-15,清算の結了等,,,2020-04-06,1,,,,,アオ,0
1830,6150002004870,登記記録の閉鎖等,0,2025-01-16,2025-01-15,有限会社エムズ,,有限会社,奈良県,大和郡山市,大宮町１２番地の２,,29,203,6391138,,,2025-01-15,清算の結了等,,,2015-10-05,1,,,,,エムズ,0
1833,6180001001016,登記記録の閉鎖等,0,2025-01-16,2025-01-16,日進電気工業株式会社,,株式会社,愛知県,名古屋市守山区,川村町３２３番地,,23,113,4630097,,,2025-01-16,登記官による閉鎖,,,2015-10-05,1,,,,,,0
1834,6180001017144,登記記録の閉鎖等,0,2025-01-16,2025-01-16,株式会社園樹,,株式会社,愛知県,名古屋市東区,東片端町５４番地,,23,102,4610015,,,2025-01-16,登記官による閉鎖,,,2015-10-05,1,,,,,,0
1835,6180001024611,登記記録の閉鎖等,0,2025-01-16,2025-01-16,浅井綿業株式会社,,株式会社,愛知県,名古屋市西区,那古野２丁目７番１６号,00117949,23,104,4510042,,,2025-01-16,登記官による閉鎖,,,2019-10-18,1,,,,,アサイメンギョウ,0
1836,6180001035823,登記記録の閉鎖等,0,2025-01-16,2025-01-16,幸和木材株式会社,,株式会社,愛知県,名古屋市千種区,橋本町３丁目３２番地,,23,101,4640035,,,2025-01-16,登記官による閉鎖,,,2015-10-05,1,,,,,,0
1837,6180001051044,登記記録の閉鎖等,0,2025-01-16,2025-01-16,株式会社あんぜん工房,,株式会社,愛知県,名古屋市中区,千代田２丁目２５番１１号,,23,106,4600012,,,2025-01-16,登記官による閉鎖,,,2015-10-05,1,,,,,,0
1838,6180001059302,登記記録の閉鎖等,0,2025-01-16,2025-01-16,株式会社エスティエム,,株式会社,愛知県,名古屋市緑区,鶴が沢１丁目１５１２番地,,23,114,4580814,,,2025-01-16,登記官による閉鎖,,,2015-10-05,1,,,,,,0
1839,6180001064120,登記記録の閉鎖等,0,2025-01-16,2025-01-16,株式会社オールリーダー,,株式会社,愛知県,名古屋市昭和区,石仏町２丁目１番地の４０,,23,107,4660023,,,2025-01-16,登記官による閉鎖,,,2015-10-05,1,,,,,,0
1840,6180001078343,登記記録の閉鎖等,0,2025-01-16,2025-01-16,株式会社水野事務所,,株式会社,愛知県,春日井市,知多町３丁目１５５番地,,23,206,4860947,,,2025-01-16,登記官による閉鎖,,,2015-10-05,1,,,,,,0
1841,6180001090769,登記記録の閉鎖等,0,2025-01-16,2025-01-16,株式会社Ｍ・Ｋ・Ｊ,,株式会社,愛知県,名古屋市中区,栄５丁目２６番１３号エルグランデ栄８０１号,,23,106,4600008,,,2025-01-16,登記官による閉鎖,,,2015-10-05,1,,,,,,0
1843,6180001110246,登記記録の閉鎖等,0,2025-01-16,2025-01-16,株式会社ＭＩＫＫＡ,,株式会社,愛知県,稲沢市,奥田酒伊町４７番地,,23,220,4928232,,,2025-01-16,登記官による閉鎖,,,2015-10-05,1,,,,,,0
1848,6180002024313,登記記録の閉鎖等,0,2025-01-16,2025-01-16,有限会社服部国雄商店,,有限会社,愛知県,名古屋市西区,又穂町１丁目２７番地,,23,104,4510014,,,2025-01-16,登記官による閉鎖,,,2015-10-05,1,,,,,,0
1849,6180002029287,登記記録の閉鎖等,0,2025-01-16,2025-01-16,有限会社明成情報サービス,,有限会社,愛知県,名古屋市中区,栄１丁目１２番１７号,,23,106,4600008,,,2025-01-16,登記官による閉鎖,,,2015-10-05,1,,,,,,0
1850,6180002029543,登記記録の閉鎖等,0,2025-01-16,2025-01-16,有限会社アート,,有限会社,愛知県,名古屋市中区,栄１丁目１４番１１号,,23,106,4600008,,,2025-01-16,登記官による閉鎖,,,2015-10-05,1,,,,,,0
1851,6180002043916,登記記録の閉鎖等,0,2025-01-16,2025-01-16,有限会社ゆきちゃんラーメン,,有限会社,愛知県,名古屋市中区,千代田５丁目１２番２７号,,23,106,4600012,,,2025-01-16,登記官による閉鎖,,,2015-10-05,1,,,,,,0
1852,6180002047504,登記記録の閉鎖等,0,2025-01-16,2025-01-16,有限会社プレシード販売,,有限会社,愛知県,名古屋市緑区,鳴海町字宿地３８番地１,,23,114,4580801,,,2025-01-16,登記官による閉鎖,,,2015-10-05,1,,,,,,0
1853,6180002049871,登記記録の閉鎖等,0,2025-01-16,2025-01-16,有限会社輪コーポレーション,,有限会社,愛知県,名古屋市中区,新栄３丁目１４番６号,,23,106,4600007,,,2025-01-16,登記官による閉鎖,,,2015-10-05,1,,,,,,0
1854,6180002051282,登記記録の閉鎖等,0,2025-01-16,2025-01-16,エーアンドエフ有限会社,,有限会社,愛知県,名古屋市緑区,平手南２丁目４０３番地,,23,114,4580009,,,2025-01-16,登記官による閉鎖,,,2015-10-05,1,,,,,,0
1855,6180002057271,登記記録の閉鎖等,0,2025-01-16,2025-01-16,有限会社メイセイテック,,有限会社,愛知県,名古屋市中区,正木４丁目１１番１３号,,23,106,4600024,,,2025-01-16,登記官による閉鎖,,,2015-10-05,1,,,,,,0
1856,6180002063724,登記記録の閉鎖等,0,2025-01-16,2025-01-16,有限会社焼飯家,,有限会社,愛知県,長久手市,砂子１０６番地,,23,238,4801112,,,2025-01-16,登記官による閉鎖,,,2015-10-05,1,,,,,,0
1857,6180002068145,登記記録の閉鎖等,0,2025-01-16,2025-01-16,有限会社ＨＡＹＡＫＡＷＡ,,有限会社,愛知県,春日井市,割塚町２０７番地,,23,206,4860824,,,2025-01-16,登記官による閉鎖,,,2015-10-05,1,,,,,,0
1858,6180002075257,登記記録の閉鎖等,0,2025-01-16,2025-01-16,有限会社Ｖデンタル,,有限会社,愛知県,丹羽郡大口町,余野５丁目２９０番地,,23,361,4800146,,,2025-01-16,登記官による閉鎖,,,2015-10-05,1,,,,,,0
1859,6180002077575,登記記録の閉鎖等,0,2025-01-16,2025-01-16,有限会社福丸工業,,有限会社,愛知県,稲沢市,陸田高畑町７８番地,,23,220,4928031,,,2025-01-16,登記官による閉鎖,,,2015-10-05,1,,,,,,0
1860,6180002078441,登記記録の閉鎖等,0,2025-01-16,2025-01-16,モリ自動車有限会社,,有限会社,愛知県,一宮市,小信中島字御社来３番地の５,,23,203,4940007,,,2025-01-16,登記官による閉鎖,,,2015-10-05,1,,,,,,0
1861,6180002083879,登記記録の閉鎖等,0,2025-01-16,2025-01-16,有限会社フラワーショップ杉,,有限会社,愛知県,半田市,桐ケ丘５丁目７９番地の３,,23,205,4750928,,,2025-01-16,登記官による閉鎖,,,2015-10-05,1,,,,,,0
1862,6180002083986,登記記録の閉鎖等,0,2025-01-16,2025-01-16,有限会社マジカルカンパニー,,有限会社,愛知県,半田市,栄町２丁目１０６番地,,23,205,4750846,,,2025-01-16,登記官による閉鎖,,,2015-10-05,1,,,,,,0
1863,6180002085066,登記記録の閉鎖等,0,2025-01-16,2025-01-16,有限会社美容室ケンとジュン,,有限会社,愛知県,大府市,中央町４丁目２０８番地,,23,223,4740025,,,2025-01-16,登記官による閉鎖,,,2015-10-05,1,,,,,,0
1869,6180005003322,登記記録の閉鎖等,0,2025-01-16,2025-01-16,須賀商店街振興組合,,その他の設立登記法人,愛知県,名古屋市熱田区,須賀町７１０番地,,23,109,4560042,,,2025-01-16,登記官による閉鎖,,,2015-10-05,1,,,,,,0
1870,6180005007645,登記記録の閉鎖等,0,2025-01-16,2025-01-16,医療法人シンポ会,,その他の設立登記法人,愛知県,豊明市,三崎町中ノ坪２４番地の７,,23,229,4701125,,,2025-01-16,登記官による閉鎖,,,2015-10-05,1,,,,,,0
1874,6180301017612,登記記録の閉鎖等,0,2025-01-16,2025-01-16,株式会社元気屋,,株式会社,愛知県,刈谷市,板倉町２丁目１２番地１４,,23,210,4480801,,,2025-01-16,登記官による閉鎖,,,2015-10-05,1,,,,,,0
1875,6180301032867,登記記録の閉鎖等,0,2025-01-16,2025-01-07,株式会社コモ,,株式会社,愛知県,みよし市,三好丘３丁目９番地５,,23,236,4700202,,,2025-01-07,清算の結了等,,,2019-08-09,1,como Corporation,Aichi,"30-3  Mizuarai, Azabu, Miyoshi shi,",,コモ,0
1876,6180302008503,登記記録の閉鎖等,0,2025-01-16,2025-01-16,有限会社中部ボデー,,有限会社,愛知県,豊橋市,下五井町捨田３８番地,,23,201,4400091,,,2025-01-16,登記官による閉鎖,,,2015-10-05,1,,,,,,0
1877,6180302011820,登記記録の閉鎖等,0,2025-01-16,2025-01-16,有限会社チャイナサロンオアシス,,有限会社,愛知県,豊橋市,大橋通３丁目１１４番地ダイアパレス大橋通５０１号室,,23,201,4400076,,,2025-01-16,登記官による閉鎖,,,2015-10-05,1,,,,,,0
1878,6180302026109,登記記録の閉鎖等,0,2025-01-16,2025-01-16,有限会社キャロット,,有限会社,愛知県,西尾市,丁田町前通８６番地１,,23,213,4450062,,,2025-01-16,登記官による閉鎖,,,2015-10-05,1,,,,,,0
1881,6190002015699,登記記録の閉鎖等,0,2025-01-16,2025-01-09,奥伊勢高速有限会社,,有限会社,三重県,多気郡大台町,高奈８９８番地の５,,24,443,5192429,,,2025-01-09,清算の結了等,,,2015-10-05,1,,,,,,0
1882,6200001007191,登記記録の閉鎖等,0,2025-01-16,2025-01-16,株式会社シンコー家具,,株式会社,岐阜県,各務原市,大野町７丁目１２４番地,,21,213,5040934,,,2025-01-16,登記官による閉鎖,,,2015-10-05,1,,,,,,0
1883,6200001007547,登記記録の閉鎖等,0,2025-01-16,2025-01-15,丸啓建設株式会社,,株式会社,岐阜県,岐阜市,瑞雲町４丁目７番地,,21,201,5008143,,,2025-01-15,清算の結了等,,,2015-10-05,1,,,,,マルヒロケンセツ,0
1887,6200001031555,登記記録の閉鎖等,0,2025-01-16,2025-01-07,株式会社ＬＩＮＫ　ＴＲＡＤＩＮＧ,,株式会社,岐阜県,多治見市,笠原町２７０１番地,,21,204,5070901,,,2025-01-07,清算の結了等,,,2015-10-05,1,,,,,リンクトレーディング,0
1889,6200002006804,登記記録の閉鎖等,0,2025-01-16,2025-01-15,有限会社みどりの菜園,,有限会社,岐阜県,岐阜市,下鵜飼１８２６番１３号,,21,201,5011172,,,2025-01-15,清算の結了等,,,2015-10-05,1,,,,,ミドリノサイエン,0
1890,6200002010616,登記記録の閉鎖等,0,2025-01-16,2025-01-16,有限会社グレース,,有限会社,岐阜県,羽島市,正木町坂丸３丁目２６番地の２,,21,209,5016229,,,2025-01-16,登記官による閉鎖,,,2015-10-05,1,,,,,,0
1891,6200002020524,登記記録の閉鎖等,0,2025-01-16,2025-01-16,有限会社ノジマ,,有限会社,岐阜県,多治見市,大畑町２丁目８４番地,,21,204,5070818,,,2025-01-16,登記官による閉鎖,,,2015-10-05,1,,,,,,0
1892,6200002025325,登記記録の閉鎖等,0,2025-01-16,2025-01-16,有限会社島田工芸,,有限会社,岐阜県,高山市,一之宮町４３７２番地の１,,21,203,5093505,,,2025-01-16,登記官による閉鎖,,,2015-10-05,1,,,,,,0
1893,6200005002214,登記記録の閉鎖等,0,2025-01-16,2025-01-16,岐阜県自動車整備産業廃棄物処理協同組合,,その他の設立登記法人,岐阜県,各務原市,川島松倉町２１８８番地,,21,213,5016022,,,2025-01-16,登記官による閉鎖,,,2015-10-05,1,,,,,,0
1899,6240001006743,登記記録の閉鎖等,0,2025-01-16,2025-01-14,株式会社中国デンタルサービス,,株式会社,広島県,広島市安佐北区,可部南４丁目２０番６－４０１号,,34,106,7310223,,,2025-01-14,清算の結了等,,,2015-10-05,1,,,,,チュウゴクデンタルサービス,0
1909,6260001036838,登記記録の閉鎖等,0,2025-01-16,2024-12-27,株式会社Ｒｅｃｅｐｔｉｏｎ,,株式会社,岡山県,岡山市北区,中央町３－３０クリスタルビル４Ｆ４０１,,33,101,7000836,,,2024-12-27,清算の結了等,,,2022-05-10,1,,,,,レセプション,0
1911,6270001005172,登記記録の閉鎖等,0,2025-01-16,2025-01-10,株式会社バルコス旅館三朝荘,,株式会社,鳥取県,東伯郡三朝町,大字三朝８４７番地,,31,364,6820123,,,2025-01-10,合併による解散等,8270001005096,令和６年１２月３１日鳥取県倉吉市河北町１番地株式会社バルコス（8270001005096）に合併し解散,2015-10-05,1,,,,,バルコスリョカンミササソウ,0
1916,6300005003961,登記記録の閉鎖等,0,2025-01-16,2025-01-14,特定非営利活動法人ほのか,,その他の設立登記法人,佐賀県,嬉野市,嬉野町大字下宿甲５７０番地１,,41,209,8430301,,,2025-01-14,清算の結了等,,,2015-10-05,1,,,,,ホノカ,0
1918,6310001007742,登記記録の閉鎖等,0,2025-01-16,2025-01-16,菱空冷設株式会社,,株式会社,長崎県,佐世保市,相生町２番２８－４０２号ビバシティ相生,,42,202,8570044,,,2025-01-16,登記官による閉鎖,,,2015-10-05,1,,,,,,0
1919,6310002002874,登記記録の閉鎖等,0,2025-01-16,2025-01-10,有限会社大起開発,,有限会社,長崎県,長崎市,田中町２５２３番地,,42,201,8510134,,,2025-01-10,清算の結了等,,,2015-10-05,1,,,,,タイキカイハツ,0
1920,6310002005043,登記記録の閉鎖等,0,2025-01-16,2025-01-16,有限会社ホテルいけだ,,有限会社,長崎県,長崎市,五島町６番２３号,,42,201,8500036,,,2025-01-16,登記官による閉鎖,,,2015-10-05,1,,,,,,0
1921,6310002006909,登記記録の閉鎖等,0,2025-01-16,2025-01-16,長崎トラベルフォト有限会社,,有限会社,長崎県,長崎市,本尾町２６番２８号,,42,201,8528112,,,2025-01-16,登記官による閉鎖,,,2015-10-05,1,,,,,,0
1922,6310002016445,登記記録の閉鎖等,0,2025-01-16,2025-01-16,有限会社諫早ライフサービス,,有限会社,長崎県,諫早市,白岩町１３番地６,,42,204,8540077,,,2025-01-16,登記官による閉鎖,,,2015-10-05,1,,,,,,0
1923,6310005001758,登記記録の閉鎖等,0,2025-01-16,2025-01-16,特定非営利活動法人長崎市民参加オペラハウス振興会,,その他の設立登記法人,長崎県,長崎市,江里町９番２８号,,42,201,8528032,,,2025-01-16,登記官による閉鎖,,,2015-10-05,1,,,,,,0
1924,6310005002855,登記記録の閉鎖等,0,2025-01-16,2025-01-16,社団法人佐世保市教職員協議会,,その他の設立登記法人,長崎県,佐世保市,万徳町１番２５号,,42,202,8570034,,,2025-01-16,登記官による閉鎖,,,2015-10-05,1,,,,,,0
1925,6310005003325,登記記録の閉鎖等,0,2025-01-16,2025-01-16,財団法人聖徳太子会,,その他の設立登記法人,長崎県,佐世保市,若葉町５４番地,,42,202,8570833,,,2025-01-16,登記官による閉鎖,,,2015-10-05,1,,,,,,0
1930,6340002027183,登記記録の閉鎖等,0,2025-01-16,2025-01-10,有限会社ケイ・総合サービス,,有限会社,鹿児島県,鹿屋市,吾平町上名１２７９番地１,,46,203,8931101,,,2025-01-10,清算の結了等,,,2015-10-05,1,,,,,ケイソウゴウサービス,0
1933,6360001011483,登記記録の閉鎖等,0,2025-01-16,2025-01-10,株式会社プロタイムズリビング,,株式会社,沖縄県,宜野湾市,真志喜１丁目１番６号,,47,205,9012224,,,2025-01-10,合併による解散等,3290001038792,令和７年１月１日福岡市博多区博多駅東三丁目１４番１号株式会社アステックペイント（3290001038792）に合併し解散,2015-10-05,1,,,,,プロタイムズリビング,0
1934,6370001003488,登記記録の閉鎖等,0,2025-01-16,2025-01-07,大洋印刷株式会社,,株式会社,宮城県,仙台市若林区,新寺１丁目６番８－１１０４号,,04,103,9840051,,,2025-01-07,清算の結了等,,,2015-10-05,1,,,,,タイヨウインサツ,0
1945,6420001007946,登記記録の閉鎖等,0,2025-01-16,2025-01-07,イズミボウリングセンター株式会社,,株式会社,青森県,五所川原市,金木町嘉瀬端山崎１５２番地１,,02,205,0370204,,,2025-01-07,清算の結了等,,,2015-10-05,1,,,,,イズミボウリングセンター,0
1960,6500002017300,登記記録の閉鎖等,0,2025-01-16,2025-01-10,有限会社山本建設,,有限会社,愛媛県,新居浜市,神郷２丁目６番１２号,,38,205,7920884,,,2025-01-10,清算の結了等,,,2015-10-05,1,,,,,,0
1965,7010001142362,登記記録の閉鎖等,0,2025-01-16,2025-01-07,株式会社ケイエヌグローバルパートナーズ,,株式会社,東京都,世田谷区,瀬田４丁目３４番２１号,,13,112,1580095,,,2025-01-07,清算の結了等,,,2015-10-05,1,,,,,ケイエヌグローバルパートナーズ,0
1973,7010401013774,登記記録の閉鎖等,0,2025-01-16,2025-01-16,株式会社商業興信所,,株式会社,東京都,港区,芝３丁目１６番１５号,,13,103,1050014,,,2025-01-16,登記官による閉鎖,,,2015-10-05,1,,,,,,0
1974,7010401032254,登記記録の閉鎖等,0,2025-01-16,2025-01-16,株式会社エム・アール・エス,,株式会社,東京都,港区,六本木３丁目１８番１２号ゲッツビルディング,,13,103,1060032,,,2025-01-16,登記官による閉鎖,,,2015-10-05,1,,,,,,0
1975,7010401047343,登記記録の閉鎖等,0,2025-01-16,2025-01-16,株式会社幸伸,,株式会社,東京都,港区,西麻布３丁目２１番２４号,,13,103,1060031,,,2025-01-16,登記官による閉鎖,,,2015-10-05,1,,,,,,0
1976,7010401060156,登記記録の閉鎖等,0,2025-01-16,2025-01-16,株式会社サトシ・タナカデザインスタジオ,,株式会社,東京都,港区,南青山４丁目１番１１号,,13,103,1070062,,,2025-01-16,登記官による閉鎖,,,2015-10-05,1,,,,,,0
1977,7010401063010,登記記録の閉鎖等,0,2025-01-16,2025-01-16,株式会社エム・エム・シー,,株式会社,東京都,港区,虎ノ門５丁目１２番１３号白井ビル６階,,13,103,1050001,,,2025-01-16,登記官による閉鎖,,,2015-10-05,1,,,,,,0
1978,7010401077803,登記記録の閉鎖等,0,2025-01-16,2025-01-16,株式会社Ａｃｔｓｉｇｈｔ　Ｃｏｎｓｕｌｔｉｎｇ　Ｃｏｒｐｏｒａｔｉｏｎ,,株式会社,東京都,港区,赤坂７丁目６番６２号,,13,103,1070052,,,2025-01-16,登記官による閉鎖,,,2015-10-05,1,,,,,,0
1979,7010401106099,登記記録の閉鎖等,0,2025-01-16,2025-01-16,ＧＷ電力株式会社,,株式会社,東京都,港区,新橋４丁目３０番６号,,13,103,1050004,,,2025-01-16,登記官による閉鎖,,,2015-10-05,1,,,,,,0
1981,7010401149651,登記記録の閉鎖等,0,2025-01-16,2025-01-16,株式会社エースインフォメーションウェア,,株式会社,東京都,港区,新橋５丁目８番９号,,13,103,1050004,,,2025-01-16,登記官による閉鎖,,,2019-12-06,1,,,,,エースインフォメーションウェア,0
1986,7010402000747,登記記録の閉鎖等,0,2025-01-16,2025-01-16,有限会社アパッシュ,,有限会社,東京都,港区,西麻布３丁目１５番１９号,,13,103,1060031,,,2025-01-16,登記官による閉鎖,,,2015-10-05,1,,,,,,0
1987,7010402028185,登記記録の閉鎖等,0,2025-01-16,2025-01-16,有限会社プラヤコンサルティング,,有限会社,東京都,港区,南青山１丁目１５番８号,,13,103,1070062,,,2025-01-16,登記官による閉鎖,,,2015-10-05,1,,,,,,0
1988,7010402035280,登記記録の閉鎖等,0,2025-01-16,2025-01-16,有限会社プラグインターナショナル,,有限会社,東京都,港区,台場１丁目３番２号２２０７,,13,103,1350091,,,2025-01-16,登記官による閉鎖,,,2015-10-05,1,,,,,,0
1989,7010403008137,登記記録の閉鎖等,0,2025-01-16,2025-01-16,合同会社あおぞら法務会計事務所,,合同会社,東京都,港区,西新橋２丁目１８番１号弁護士ビル,,13,103,1050003,,,2025-01-16,登記官による閉鎖,,,2015-10-05,1,,,,,,0
1990,7010403008178,登記記録の閉鎖等,0,2025-01-16,2025-01-16,合同会社十度,,合同会社,東京都,港区,南青山３丁目８番１５号,,13,103,1070062,,,2025-01-16,登記官による閉鎖,,,2015-10-05,1,,,,,,0
1994,7010405003458,登記記録の閉鎖等,0,2025-01-16,2025-01-16,特定非営利活動法人国土空間データ基盤推進協議会,,その他の設立登記法人,東京都,港区,虎ノ門１丁目１５番１１号第二名和ビル１０階,,13,103,1050001,,,2025-01-16,登記官による閉鎖,,,2015-10-05,1,,,,,,0
1995,7010405005867,登記記録の閉鎖等,0,2025-01-16,2025-01-16,特定非営利活動法人東京国際人権協会,,その他の設立登記法人,東京都,港区,台場１丁目５番６－１００３号,,13,103,1350091,,,2025-01-16,登記官による閉鎖,,,2015-10-05,1,,,,,,0
1996,7010405008738,登記記録の閉鎖等,0,2025-01-16,2025-01-16,特定非営利活動法人シルバー健康増進会,,その他の設立登記法人,東京都,港区,南青山６丁目３番１４号サントロペ南青山４階,,13,103,1070062,,,2025-01-16,登記官による閉鎖,,,2015-10-05,1,,,,,,0
2000,7010601041427,登記記録の閉鎖等,0,2025-01-16,2025-01-06,株式会社ブーケジャパン,,株式会社,東京都,江東区,青海２丁目７番４号８０７号室,,13,108,1350064,,,2025-01-06,清算の結了等,,,2015-10-05,1,,,,,,0
2006,7010901026565,登記記録の閉鎖等,0,2025-01-16,2025-01-10,デューク株式会社,,株式会社,東京都,墨田区,墨田５丁目５番２号,,13,107,1310031,,,2025-01-10,清算の結了等,,,2015-10-05,1,,,,,デューク,0
2013,7011001124433,登記記録の閉鎖等,0,2025-01-16,2024-12-10,京資産管理株式会社,,株式会社,東京都,目黒区,自由が丘１丁目２番７－２０４号国際パレス自由が丘,,13,110,1520035,,,2024-12-10,清算の結了等,,,2018-10-02,1,,,,,キョウシサンカンリ,0
2019,7011003005177,登記記録の閉鎖等,0,2025-01-16,2025-01-16,合同会社ＸＰＥＲＩＡ,,合同会社,東京都,港区,東麻布２丁目３２番１０号,,13,103,1060044,,,2025-01-16,登記官による閉鎖,,,2015-10-05,1,,,,,,0
2026,7011202006926,登記記録の閉鎖等,0,2025-01-16,2025-01-15,有限会社とらいあーど,,有限会社,東京都,中野区,中野５丁目２４番１１号,,13,114,1640001,,,2025-01-15,清算の結了等,,,2015-10-05,1,,,,,,0
2056,7013301026367,登記記録の閉鎖等,0,2025-01-16,2025-01-06,僕俺株式会社,,株式会社,東京都,豊島区,東池袋５丁目２３－１０,,13,116,1700013,,,2025-01-06,清算の結了等,,,2015-10-05,1,,,,,ボクオレ,0
2070,7020002069579,登記記録の閉鎖等,0,2025-01-16,2024-12-25,有限会社タナベネットプランニング,,有限会社,神奈川県,横浜市都筑区,茅ケ崎南４丁目１５番１－３１２号,,14,118,2240037,,,2024-12-25,清算の結了等,,,2015-10-05,1,,,,,タナベネットプランニング,0
2071,7020003027180,登記記録の閉鎖等,0,2025-01-16,2024-12-27,ＴＧＬジャパン合同会社,,合同会社,東京都,新宿区,西新宿３丁目５番３号西新宿ダイヤモンドパレス９１２,,13,104,1600023,,,2024-12-27,清算の結了等,,,2024-11-19,1,,,,,ティージーエルジャパン,0
2074,7021001000501,登記記録の閉鎖等,0,2025-01-16,2025-01-15,兼義食品販売株式会社,,株式会社,神奈川県,藤沢市,藤沢５４５番地２６,,14,205,2510052,,,2025-01-15,清算の結了等,,,2015-10-05,1,,,,,カネヨシショクヒンハンバイ,0
2083,7030001012514,登記記録の閉鎖等,0,2025-01-16,2025-01-07,株式会社エイエスケー,,株式会社,埼玉県,さいたま市見沼区,大字片柳６２番地,,11,104,3370024,,,2025-01-07,清算の結了等,,,2015-10-05,1,,,,,エイエスケー,0
2117,7110002025622,登記記録の閉鎖等,0,2025-01-16,2025-01-09,有限会社タカヨシ工務店,,有限会社,新潟県,十日町市,仁田２２４９番地１,,15,210,9480302,,,2025-01-09,清算の結了等,,,2015-10-05,1,,,,,タカヨシコウムテン,0
2124,7120001200605,登記記録の閉鎖等,0,2025-01-16,2025-01-14,福博建設株式会社,,株式会社,大阪府,大阪市西成区,花園北１丁目３番５号,,27,122,5570016,,,2025-01-14,清算の結了等,,,2016-09-07,1,,,,,フクハクケンセツ,0
2129,7120001245996,登記記録の閉鎖等,0,2025-01-16,2025-01-14,小山株式会社,,株式会社,大阪府,大阪市平野区,平野上町１丁目６番５号,,27,126,5470045,,,2025-01-14,清算の結了等,,,2022-05-26,1,,,,,オヤマ,0
2141,7120003006471,登記記録の閉鎖等,0,2025-01-16,2025-01-10,合同会社アイケイ,,合同会社,大阪府,大阪市西成区,天下茶屋東１丁目９番１８号,,27,122,5570011,,,2025-01-10,清算の結了等,,,2015-10-05,1,,,,,アイケイ,0
2144,7120901006580,登記記録の閉鎖等,0,2025-01-16,2025-01-08,株式会社サンワールド,,株式会社,大阪府,吹田市,原町１丁目２５番３号,,27,205,5640004,,,2025-01-08,清算の結了等,,,2015-10-05,1,,,,,サンワールド,0
2146,7120901026216,登記記録の閉鎖等,0,2025-01-16,2025-01-07,株式会社若竹商事,,株式会社,大阪府,豊中市,東寺内町１３番２７号,,27,203,5610871,,,2025-01-07,清算の結了等,,,2015-10-05,1,,,,,ワカタケショウジ,0
2148,7120902018468,登記記録の閉鎖等,0,2025-01-16,2025-01-08,有限会社山喬スポーツ,,有限会社,大阪府,豊中市,本町３丁目７番５号,,27,203,5600021,,,2025-01-08,清算の結了等,,,2015-10-05,1,,,,,サンキョウスポーツ,0
2160,7140001112336,登記記録の閉鎖等,0,2025-01-16,2024-12-26,テトラコンサルティング株式会社,,株式会社,東京都,品川区,東五反田４丁目５番２号五反田ＮＴビル３階,,13,109,1410022,,,2024-12-26,清算の結了等,,,2019-01-09,1,,,,,テトラコンサルティング,0
2168,7170001012673,登記記録の閉鎖等,0,2025-01-16,2025-01-16,株式会社未来デザイン研究所,,株式会社,東京都,港区,南青山２丁目２番１５号ウィン青山１４０３号,,13,103,1070062,,,2025-01-16,登記官による閉鎖,,,2015-10-05,1,,,,,,0
2169,7180001026771,登記記録の閉鎖等,0,2025-01-16,2025-01-16,株式会社服部国雄商店,,株式会社,愛知県,名古屋市西区,又穂町１丁目２７番地,,23,104,4510014,,,2025-01-16,登記官による閉鎖,,,2015-10-05,1,,,,,,0
2170,7180001030897,登記記録の閉鎖等,0,2025-01-16,2025-01-16,ゼットワイ株式会社,,株式会社,愛知県,名古屋市中村区,鳥居西通１丁目２６番地の１,,23,105,4530054,,,2025-01-16,登記官による閉鎖,,,2015-10-05,1,,,,,,0
2171,7180001051811,登記記録の閉鎖等,0,2025-01-16,2025-01-16,株式会社エイエスティ,,株式会社,愛知県,名古屋市中区,錦１丁目１９番３２号広小路ビル,,23,106,4600003,,,2025-01-16,登記官による閉鎖,,,2019-02-06,1,,,,,エイエスティ,0
2172,7180001053320,登記記録の閉鎖等,0,2025-01-16,2025-01-16,名古屋土地株式会社,,株式会社,愛知県,名古屋市中村区,太閤通３丁目３１番地,,23,105,4530811,,,2025-01-16,登記官による閉鎖,,,2015-10-05,1,,,,,ナゴヤトチ,0
2173,7180001063105,登記記録の閉鎖等,0,2025-01-16,2025-01-16,株式会社マセテック,,株式会社,愛知県,清須市,阿原神門９１番,,23,233,4520901,,,2025-01-16,登記官による閉鎖,,,2015-10-05,1,,,,,,0
2174,7180001079555,登記記録の閉鎖等,0,2025-01-16,2025-01-16,株式会社新東海設計,,株式会社,愛知県,尾張旭市,旭台３丁目１６番地１８,,23,226,4880001,,,2025-01-16,登記官による閉鎖,,,2015-10-05,1,,,,,,0
2175,7180001087293,登記記録の閉鎖等,0,2025-01-16,2024-12-26,尾関装飾織物株式会社,,株式会社,愛知県,江南市,宮田町泉１３１番地,,23,217,4838375,,,2024-12-26,清算の結了等,,,2015-10-05,1,,,,,オゼキソウショクオリモノ,0
2176,7180001101392,登記記録の閉鎖等,0,2025-01-16,2025-01-16,株式会社キタムラケアサービス,,株式会社,愛知県,名古屋市北区,楠味鋺２丁目１００１番地の１,,23,103,4620014,,,2025-01-16,登記官による閉鎖,,,2015-10-05,1,,,,,,0
2177,7180001110360,登記記録の閉鎖等,0,2025-01-16,2025-01-16,株式会社ＮＫコーポレーション,,株式会社,愛知県,名古屋市中区,新栄１丁目１７番１５号,,23,106,4600007,,,2025-01-16,登記官による閉鎖,,,2015-10-05,1,,,,,,0
2179,7180002028040,登記記録の閉鎖等,0,2025-01-16,2025-01-16,有限会社スズヨ工務店,,有限会社,愛知県,名古屋市中村区,上石川町５丁目８番地,,23,105,4530835,,,2025-01-16,登記官による閉鎖,,,2015-10-05,1,,,,,,0
2180,7180002044145,登記記録の閉鎖等,0,2025-01-16,2025-01-06,有限会社ベスト・スリー,,有限会社,愛知県,あま市,森６丁目１５番地２５,,23,237,4901107,,,2025-01-06,清算の結了等,,,2015-10-05,1,,,,,ベストスリー,0
2181,7180002063995,登記記録の閉鎖等,0,2025-01-16,2025-01-16,有限会社サカイ電器豊明店,,有限会社,愛知県,豊明市,新田町吉池２６－３,,23,229,4701116,,,2025-01-16,登記官による閉鎖,,,2015-10-05,1,,,,,,0
2182,7180002074142,登記記録の閉鎖等,0,2025-01-16,2025-01-16,有限会社ワイズ,,有限会社,愛知県,瀬戸市,ききょう台１丁目３０番地,,23,204,4890908,,,2025-01-16,登記官による閉鎖,,,2015-10-05,1,,,,,,0
2183,7180002080719,登記記録の閉鎖等,0,2025-01-16,2025-01-16,有限会社セシル,,有限会社,愛知県,稲沢市,祖父江町森上本郷四、２１番地の１,,23,220,4950011,,,2025-01-16,登記官による閉鎖,,,2015-10-05,1,,,,,,0
2184,7180003001442,登記記録の閉鎖等,0,2025-01-16,2025-01-16,合資会社高野合板製作所,00106782,合資会社,愛知県,名古屋市瑞穂区,田辺通４丁目１６番地,,23,108,4670027,,,2025-01-16,登記官による閉鎖,,,2016-05-25,1,,,,,タカノゴウハンセイサクショ,0
2185,7180003014221,登記記録の閉鎖等,0,2025-01-16,2025-01-16,カービルダー合同会社,,合同会社,愛知県,名古屋市東区,砂田橋３丁目２番１０１－７０１号,,23,102,4610045,,,2025-01-16,登記官による閉鎖,,,2015-10-05,1,,,,,,0
2187,7180005002397,登記記録の閉鎖等,0,2025-01-16,2025-01-16,医療法人暁生会,,その他の設立登記法人,愛知県,名古屋市天白区,島田２丁目４０６番地,,23,116,4680056,,,2025-01-16,登記官による閉鎖,,,2015-10-05,1,,,,,,0
2188,7180005002637,登記記録の閉鎖等,0,2025-01-16,2025-01-16,医療法人八起会,,その他の設立登記法人,愛知県,名古屋市中区,錦３丁目５番６号日本橋ビルディング３Ｆ,,23,106,4600003,,,2025-01-16,登記官による閉鎖,,,2015-10-05,1,,,,,,0
2189,7180005003354,登記記録の閉鎖等,0,2025-01-16,2025-01-16,八田商店街振興組合,,その他の設立登記法人,愛知県,名古屋市中川区,花池町２丁目４４番地,,23,110,4540902,,,2025-01-16,登記官による閉鎖,,,2015-10-05,1,,,,,,0
2190,7180005006043,登記記録の閉鎖等,0,2025-01-16,2025-01-16,特定非営利活動法人野外体験活動推進連盟,,その他の設立登記法人,愛知県,名古屋市中村区,椿町１７番１６号,,23,105,4530015,,,2025-01-16,登記官による閉鎖,,,2015-10-05,1,,,,,,0
2191,7180005006646,登記記録の閉鎖等,0,2025-01-16,2025-01-16,特定非営利活動法人ＤＥＶＮＥＴ国際後援日本協会,,その他の設立登記法人,愛知県,名古屋市東区,代官町３５番１６号,,23,102,4610002,,,2025-01-16,登記官による閉鎖,,,2015-10-05,1,,,,,,0
2192,7180005007025,登記記録の閉鎖等,0,2025-01-16,2025-01-16,特定非営利活動法人日本セラピスト＆マイスター協会,,その他の設立登記法人,愛知県,名古屋市中村区,名駅４丁目８番１４号三井ビル北館４階,,23,105,4500002,,,2025-01-16,登記官による閉鎖,,,2015-10-05,1,,,,,,0
2193,7180005007611,登記記録の閉鎖等,0,2025-01-16,2025-01-16,弁護士法人椿法律事務所,,その他の設立登記法人,愛知県,名古屋市中区,丸の内２丁目２０番２号オアシス丸の内ＮＯＲＴＨ６階,,23,106,4600002,,,2025-01-16,登記官による閉鎖,,,2015-10-05,1,,,,,,0
2194,7180005007818,登記記録の閉鎖等,0,2025-01-16,2025-01-16,特定非営利活動法人愛育福祉会,,その他の設立登記法人,愛知県,名古屋市千種区,萱場２丁目４番１１号,,23,101,4640086,,,2025-01-16,登記官による閉鎖,,,2015-10-05,1,,,,,,0
2197,7180301009699,登記記録の閉鎖等,0,2025-01-16,2025-01-16,株式会社青山葬祭,,株式会社,愛知県,豊川市,下長山町北側２８番地,,23,207,4420824,,,2025-01-16,登記官による閉鎖,,,2015-10-05,1,,,,,,0
2198,7180302002868,登記記録の閉鎖等,0,2025-01-16,2025-01-16,有限会社マルヤマ管工,,有限会社,愛知県,岡崎市,戸崎町字牛転１０番地４,,23,202,4440840,,,2025-01-16,登記官による閉鎖,,,2015-10-05,1,,,,,,0
2200,7180302007140,登記記録の閉鎖等,0,2025-01-16,2025-01-08,有限会社北川自動車,,有限会社,愛知県,豊橋市,大村町字大ノ前２２番地の３,,23,201,4400081,,,2025-01-08,清算の結了等,,,2015-10-05,1,,,,,キタガワジドウシャ,0
2201,7180302008634,登記記録の閉鎖等,0,2025-01-16,2025-01-16,有限会社東部建設,,有限会社,愛知県,豊橋市,岩屋町字岩屋下４７番地の５７,,23,201,4400842,,,2025-01-16,登記官による閉鎖,,,2015-10-05,1,,,,,,0
2204,7180302015572,登記記録の閉鎖等,0,2025-01-16,2025-01-06,有限会社セントラルヒラノ,,有限会社,愛知県,蒲郡市,形原町南森１番地２,,23,214,4430104,,,2025-01-06,清算の結了等,,,2015-10-05,1,,,,,セントラルヒラノ,0
2205,7180302018468,登記記録の閉鎖等,0,2025-01-16,2025-01-16,有限会社スィンク・エンジニアリング,,有限会社,愛知県,安城市,小川町志茂１９番地１,,23,212,4441162,,,2025-01-16,登記官による閉鎖,,,2015-10-05,1,,,,,,0
2206,7180302027799,登記記録の閉鎖等,0,2025-01-16,2025-01-16,有限会社松田工務店,,有限会社,愛知県,新城市,平井字大小２番地の１,,23,221,4411361,,,2025-01-16,登記官による閉鎖,,,2015-10-05,1,,,,,,0
2207,7180303000061,登記記録の閉鎖等,0,2025-01-16,2025-01-16,合資会社足立鉄工所,,合資会社,愛知県,岡崎市,大平町字下り７番地,,23,202,4440007,,,2025-01-16,登記官による閉鎖,,,2015-10-05,1,,,,,,0
2211,7200001020045,登記記録の閉鎖等,0,2025-01-16,2025-01-16,株式会社中日金型,,株式会社,岐阜県,関市,東新町７丁目６番地,,21,205,5013824,,,2025-01-16,登記官による閉鎖,,,2015-10-05,1,,,,,,0
2212,7200001023031,登記記録の閉鎖等,0,2025-01-16,2025-01-16,株式会社セーフティー,,株式会社,岐阜県,土岐市,妻木平成町５丁目１３番地の２,,21,212,5095302,,,2025-01-16,登記官による閉鎖,,,2015-10-05,1,,,,,,0
2213,7200001024566,登記記録の閉鎖等,0,2025-01-16,2025-01-16,株式会社フルー,,株式会社,岐阜県,養老郡養老町,大巻字ワノ割１９８９番１号,,21,341,5031275,,,2025-01-16,登記官による閉鎖,,,2015-10-05,1,,,,,,0
2214,7200001029796,登記記録の閉鎖等,0,2025-01-16,2025-01-16,ＷＥＬＰＩＡ株式会社,,株式会社,岐阜県,岐阜市,蔵前４丁目７番３号,,21,201,5008233,,,2025-01-16,登記官による閉鎖,,,2015-10-05,1,,,,,,0
2217,7200002000888,登記記録の閉鎖等,0,2025-01-16,2025-01-16,有限会社オフィスイワタ,,有限会社,岐阜県,岐阜市,北島５丁目１２番８号,,21,201,5020911,,,2025-01-16,登記官による閉鎖,,,2015-10-05,1,,,,,,0
2218,7200002005012,登記記録の閉鎖等,0,2025-01-16,2025-01-16,有限会社山宏工業,,有限会社,岐阜県,岐阜市,西鶉３丁目１１０番地の７,,21,201,5008286,,,2025-01-16,登記官による閉鎖,,,2015-10-05,1,,,,,,0
2219,7200002010152,登記記録の閉鎖等,0,2025-01-16,2025-01-16,有限会社爪屋,,有限会社,岐阜県,本巣郡北方町,芝原東町１丁目１５番地,,21,421,5010423,,,2025-01-16,登記官による閉鎖,,,2015-10-05,1,,,,,,0
2220,7200002021141,登記記録の閉鎖等,0,2025-01-16,2025-01-16,有限会社カカムエンジニアリング,,有限会社,岐阜県,土岐市,駄知町１１３１番地の１,,21,212,5095401,,,2025-01-16,登記官による閉鎖,,,2015-10-05,1,,,,,,0
2221,7200005003954,登記記録の閉鎖等,0,2025-01-16,2025-01-16,特定非営利活動法人グリーンスター,,その他の設立登記法人,岐阜県,岐阜市,清住町１丁目４,,21,201,5008178,,,2025-01-16,登記官による閉鎖,,,2015-10-05,1,,,,,,0
2222,7200005009588,登記記録の閉鎖等,0,2025-01-16,2025-01-16,特定非営利活動法人子宮頸がん啓発協会,,その他の設立登記法人,岐阜県,中津川市,茄子川２０７７番地の３２３,,21,206,5099132,,,2025-01-16,登記官による閉鎖,,,2015-10-05,1,,,,,,0
2224,7210002003279,登記記録の閉鎖等,0,2025-01-16,2025-01-06,有限会社福井メガネ倉庫,,有限会社,福井県,福井市,栃泉町第２８号２番地６,,18,201,9102163,,,2025-01-06,合併による解散等,1210002007921,令和７年１月１日福井市栃泉町第２８号２番地６株式会社ひまわりめがね（1210002007921）に合併し解散,2015-10-05,1,,,,,フクイメガネソウコ,0
2226,7210003000952,登記記録の閉鎖等,0,2025-01-16,2025-01-10,マーレグランデ合同会社,,合同会社,大阪府,泉佐野市,りんくう往来北６－２６,,27,213,5980048,,,2025-01-10,清算の結了等,,,2016-10-25,1,,,,,マーレグランデ,0
2230,7240001043950,登記記録の閉鎖等,0,2025-01-16,2025-01-16,株式会社ＩＪＧ　ＥＸＴＥＮＤＥＤ,,株式会社,東京都,港区,南青山２丁目１１番１４号,,13,103,1070062,,,2025-01-16,登記官による閉鎖,,,2015-10-05,1,,,,,,0
2232,7250001010743,登記記録の閉鎖等,0,2025-01-16,2025-01-09,株式会社タニケン,,株式会社,山口県,光市,大字岩田１０９２７番地,,35,210,7430103,,,2025-01-09,清算の結了等,,,2015-10-05,1,,,,,タニケン,0
2248,7290002021678,登記記録の閉鎖等,0,2025-01-16,2024-12-23,有限会社ベジネットプロセスセンター,,有限会社,福岡県,糟屋郡宇美町,大字井野４３３番地１,,40,341,8112104,,,2024-12-23,清算の結了等,,,2015-10-05,1,,,,,,0
2251,7290005005942,登記記録の閉鎖等,0,2025-01-16,2024-12-26,津屋崎上下水道協同組合,,その他の設立登記法人,福岡県,福津市,津屋崎３丁目５番１７号,,40,224,8113304,,,2024-12-26,清算の結了等,,,2015-10-05,1,,,,,ツヤザキジョウゲスイドウ,0
2254,7310001012072,登記記録の閉鎖等,0,2025-01-16,2025-01-16,株式会社ＧＡＬＡエンジニアリング,,株式会社,長崎県,長崎市,大黒町８番６－３０１号,,42,201,8500057,,,2025-01-16,登記官による閉鎖,,,2015-10-05,1,,,,,,0
2257,7310002001289,登記記録の閉鎖等,0,2025-01-16,2025-01-16,有限会社川原建設,,有限会社,長崎県,長崎市,式見町３７４番地,,42,201,8511137,,,2025-01-16,登記官による閉鎖,,,2015-10-05,1,,,,,,0
2260,7310002003293,登記記録の閉鎖等,0,2025-01-16,2025-01-16,有限会社つくも工産,,有限会社,長崎県,長崎市,上小島４丁目２０番４２号,,42,201,8500834,,,2025-01-16,登記官による閉鎖,,,2015-10-05,1,,,,,,0
2261,7310002005752,登記記録の閉鎖等,0,2025-01-16,2025-01-16,有限会社矢野電気商会,,有限会社,長崎県,長崎市,緑町８番１１号,,42,201,8528103,,,2025-01-16,登記官による閉鎖,,,2015-10-05,1,,,,,,0
2262,7310005002004,登記記録の閉鎖等,0,2025-01-16,2025-01-16,特定非営利活動法人白寿会,,その他の設立登記法人,長崎県,長崎市,松山町３番６３号,,42,201,8528118,,,2025-01-16,登記官による閉鎖,,,2015-10-05,1,,,,,,0
2264,7330003006987,登記記録の閉鎖等,0,2025-01-16,2024-12-26,合同会社居宅介護支援事業所鏡,,合同会社,熊本県,八代市,鏡町貝洲１１５０番地１,,43,202,8694223,,,2024-12-26,清算の結了等,,,2017-02-07,1,,,,,キョタクカイゴシエンジギョウショカガミ,0
2267,7360001029525,登記記録の閉鎖等,0,2025-01-16,2025-01-08,株式会社琉球キャッシュレス,,株式会社,沖縄県,宜野湾市,大謝名１丁目７番１－１４０８号,,47,205,9012225,,,2025-01-08,清算の結了等,,,2021-10-19,1,,,,,リュウキュウキャッシュレス,0
2283,7480002004085,登記記録の閉鎖等,0,2025-01-16,2025-01-14,有限会社ビービープランニング,,有限会社,徳島県,徳島市,福島２丁目５番２２号,,36,201,7700868,,,2025-01-14,清算の結了等,,,2015-10-05,1,,,,,ビービープランニング,0
2286,7500002008273,登記記録の閉鎖等,0,2025-01-16,2025-01-14,有限会社フジショウ,,有限会社,愛媛県,伊予市,宮下９４２番地１,,38,210,7993102,,,2025-01-14,清算の結了等,,,2015-10-05,1,,,,,フジショウ,0
2293,8010001215613,登記記録の閉鎖等,0,2025-01-16,2024-12-19,株式会社ＬＩＮＫＶＡＬ,,株式会社,東京都,中央区,勝どき５丁目３－１勝どきザ・タワー３３１６,,13,102,1040054,,,2024-12-19,清算の結了等,,,2021-02-04,1,,,,,リンクバル,0
2295,8010001245247,登記記録の閉鎖等,0,2025-01-16,2025-01-06,Ｓｕｐｅｒ　ｉＰａａＳ　Ｉｎｔｅｇｒａｔｉｏｎ　Ｊａｐａｎ株式会社,,株式会社,東京都,港区,虎ノ門２丁目６番１号虎ノ門ヒルズステーションタワー,,13,103,1050001,,,2025-01-06,合併による解散等,1010001128061,令和７年１月１日東京都港区虎ノ門二丁目６番１号日本アイ・ビー・エム株式会社（1010001128061）に合併し解散,2024-05-30,1,,,,,スーパーアイパースインテグレーションジャパン,0
2297,8010002022513,登記記録の閉鎖等,0,2025-01-16,2025-01-09,辻クリス有限会社,00049813,有限会社,埼玉県,所沢市,東所沢２丁目６１－１，２－１,,11,208,3590021,,,2025-01-09,清算の結了等,,,2015-10-05,1,,,,,ツジクリス,0
2298,8010003029276,登記記録の閉鎖等,0,2025-01-16,2024-12-25,合同会社パイン・スプリング,,合同会社,東京都,千代田区,平河町１丁目６番１５号シルスフィア会計事務所内,,13,101,1020093,,,2024-12-25,清算の結了等,,,2019-02-13,1,,,,,パインスプリング,0
2300,8010003042329,登記記録の閉鎖等,0,2025-01-16,2024-12-26,エスティファンドテン合同会社,,合同会社,東京都,千代田区,丸の内１丁目４番１号東京共同会計事務所内,,13,101,1000005,,,2024-12-26,清算の結了等,,,2023-11-29,1,,,,,エスティファンドテン,0
2301,8010101003661,登記記録の閉鎖等,0,2025-01-16,2025-01-16,株式会社マウント・レイ,,株式会社,東京都,港区,芝浦１丁目４番１１－１４０３号,,13,103,1050023,,,2025-01-16,登記官による閉鎖,,,2015-10-05,1,,,,,,0
2302,8010401002066,登記記録の閉鎖等,0,2025-01-16,2025-01-16,株式会社アミューズスクエアー,,株式会社,東京都,港区,三田５丁目１６番１２号,,13,103,1080073,,,2025-01-16,登記官による閉鎖,,,2015-10-05,1,,,,,,0
2303,8010401027245,登記記録の閉鎖等,0,2025-01-16,2025-01-16,株式会社ベルメンテ,,株式会社,東京都,港区,三田２丁目９番７号,,13,103,1080073,,,2025-01-16,登記官による閉鎖,,,2015-10-05,1,,,,,,0
2304,8010401058538,登記記録の閉鎖等,0,2025-01-16,2025-01-16,株式会社ロイヤルインベスト,,株式会社,東京都,港区,六本木４丁目９番２号,,13,103,1060032,,,2025-01-16,登記官による閉鎖,,,2015-10-05,1,,,,,,0
2305,8010401071210,登記記録の閉鎖等,0,2025-01-16,2025-01-16,株式会社ＥＵＩ,,株式会社,東京都,港区,芝大門１丁目１番３２号ＴＮＪ東京ビル１階,,13,103,1050012,,,2025-01-16,登記官による閉鎖,,,2015-10-05,1,,,,,,0
2311,8010401096967,登記記録の閉鎖等,0,2025-01-16,2025-01-16,株式会社グレイスクルーズ,,株式会社,東京都,港区,浜松町１丁目２５番１１号,,13,103,1050013,,,2025-01-16,登記官による閉鎖,,,2015-10-05,1,,,,,,0
2316,8010402034934,登記記録の閉鎖等,0,2025-01-16,2025-01-16,有限会社ミリオンプロジェクト,,有限会社,東京都,港区,元赤坂１丁目７番１０号,,13,103,1070051,,,2025-01-16,登記官による閉鎖,,,2015-10-05,1,,,,,,0
2317,8010405003003,登記記録の閉鎖等,0,2025-01-16,2025-01-16,特定非営利活動法人日本パテントワーク協会,,その他の設立登記法人,東京都,港区,北青山１丁目４番１－５０６号,,13,103,1070061,,,2025-01-16,登記官による閉鎖,,,2015-10-05,1,,,,,,0
2318,8010405004372,登記記録の閉鎖等,0,2025-01-16,2025-01-16,特定非営利活動法人ジーフォース,,その他の設立登記法人,東京都,港区,港南２丁目１５番１号品川インターシティーＡ棟２８階,,13,103,1080075,,,2025-01-16,登記官による閉鎖,,,2015-10-05,1,,,,,,0
2319,8010405005123,登記記録の閉鎖等,0,2025-01-16,2025-01-16,特定非営利活動法人海外日本国籍青少年職能育成支援団体にっぽん村,,その他の設立登記法人,東京都,港区,芝浦３丁目１５番５－６１３号,,13,103,1080023,,,2025-01-16,登記官による閉鎖,,,2015-10-05,1,,,,,,0
2320,8010405007367,登記記録の閉鎖等,0,2025-01-16,2025-01-16,特定非営利活動法人海外ロケーションコーディネーターズ協会,,その他の設立登記法人,東京都,港区,赤坂７丁目８番１２号,,13,103,1070052,,,2025-01-16,登記官による閉鎖,,,2015-10-05,1,,,,,,0
2321,8010405008101,登記記録の閉鎖等,0,2025-01-16,2025-01-16,特定非営利活動法人世界核兵器解体基金,,その他の設立登記法人,東京都,港区,三田２丁目１４番５号フロイントウ三田ビル５Ｆ,,13,103,1080073,,,2025-01-16,登記官による閉鎖,,,2015-10-05,1,,,,,,0
2332,8010901029071,登記記録の閉鎖等,0,2025-01-16,2025-01-16,株式会社Ｇ－Ｕｎｉｏｎ,,株式会社,東京都,港区,六本木７丁目１８番１１号,,13,103,1060032,,,2025-01-16,登記官による閉鎖,,,2015-10-05,1,,,,,,0
2343,8011101068769,登記記録の閉鎖等,0,2025-01-16,2025-01-14,株式会社ロシュフォール,,株式会社,兵庫県,神戸市東灘区,本山北町５丁目２番１－１０号,,28,101,6580003,,,2025-01-14,清算の結了等,,,2015-10-05,1,,,,,ロシュフォール,0
2344,8011101078421,登記記録の閉鎖等,0,2025-01-16,2024-12-26,株式会社Ｄｅｓｉｇｎ　Ａｓｓｏｃｉａｔｅ,,株式会社,東京都,新宿区,新宿１丁目２番８号国久ビル５Ｆ－Ｂ,,13,104,1600022,,,2024-12-26,清算の結了等,,,2016-10-13,1,,,,,デザインアソシエイト,0
2348,8011102023921,登記記録の閉鎖等,0,2025-01-16,2024-12-20,有限会社インターヴェント,,有限会社,東京都,港区,芝２丁目５番８－１００６号,,13,103,1050014,,,2024-12-20,清算の結了等,,,2015-10-05,1,,,,,インターヴェント,0
2373,8021001043383,登記記録の閉鎖等,0,2025-01-16,2025-01-15,株式会社イソベ,,株式会社,神奈川県,三浦市,三崎２丁目３番２号,,14,210,2380243,,,2025-01-15,清算の結了等,,,2015-10-05,1,,,,,イソベ,0
2411,8080401004972,登記記録の閉鎖等,0,2025-01-16,2024-12-26,株式会社松尾建設,,株式会社,静岡県,浜松市中央区,西山町２１０１番地,,22,138,4328001,,,2024-12-26,清算の結了等,,,2015-10-05,1,,,,,マツオケンセツ,0
2415,8100002013718,登記記録の閉鎖等,0,2025-01-16,2025-01-09,有限会社エル・アンドウ,,有限会社,長野県,上田市,中央３丁目２番２０号,,20,203,3860012,,,2025-01-09,清算の結了等,,,2015-10-05,1,,,,,エルアンドウ,0
2416,8100002022925,登記記録の閉鎖等,0,2025-01-16,2025-01-08,シンクタンク２１有限会社エコタンク,,有限会社,長野県,松本市,波田６４７１番地,,20,202,3901401,,,2025-01-08,清算の結了等,,,2015-10-05,1,,,,,シンクタンクニジュウイチエコタンク,0
2418,8110002016307,登記記録の閉鎖等,0,2025-01-16,2025-01-09,有限会社メナード中条,,有限会社,新潟県,胎内市,水沢町３番２８号,,15,227,9592638,,,2025-01-09,清算の結了等,,,2015-10-05,1,,,,,メナードナカジョウ,0
2419,8110002029432,登記記録の閉鎖等,0,2025-01-16,2025-01-10,有限会社山善,,有限会社,新潟県,長岡市,関原町２丁目１６４番地,,15,202,9402035,,,2025-01-10,清算の結了等,,,2015-10-05,1,,,,,ヤマゼン,0
2420,8110005003079,登記記録の閉鎖等,0,2025-01-16,2025-01-10,一般社団法人新潟まちの駅,,その他の設立登記法人,新潟県,新潟市中央区,上近江１丁目５番１３号,,15,103,9500973,,,2025-01-10,清算の結了等,,,2015-10-05,1,,,,,ニイガタマチノエキ,0
2421,8120001024697,登記記録の閉鎖等,0,2025-01-16,2025-01-16,中井産業株式会社,,株式会社,大阪府,大阪市天王寺区,筆ケ崎町２番１４号,,27,109,5430027,,,2025-01-16,清算の結了等,,,2015-10-05,1,,,,,ナカイサンギョウ,0
2434,8120101060295,登記記録の閉鎖等,0,2025-01-16,2025-01-09,株式会社ばかまじめ,,株式会社,大阪府,大阪市浪速区,日本橋４丁目２番２０号コア日本橋２０２号室,,27,111,5560005,,,2025-01-09,清算の結了等,,,2019-08-02,1,,,,,バカマジメ,0
2441,8130001046419,登記記録の閉鎖等,0,2025-01-16,2025-01-09,株式会社京のちから,,株式会社,京都府,京都市中京区,大宮通三条下る三条大宮町２５５番地,,26,104,6048336,,,2025-01-09,清算の結了等,,,2015-10-05,1,,,,,キョウノチカラ,0
2442,8130001053547,登記記録の閉鎖等,0,2025-01-16,2025-01-09,株式会社ハゼヤマエンジニアリング,,株式会社,京都府,宇治市,宇治野神４２番地の３５,,26,204,6110021,,,2025-01-09,清算の結了等,,,2015-10-05,1,,,,,ハゼヤマエンジニアリング,0
2456,8140002020553,登記記録の閉鎖等,0,2025-01-16,2025-01-08,有限会社廣國建設,,有限会社,兵庫県,神戸市北区,藤原台南町４丁目２８番３の３０２,,28,109,6511303,,,2025-01-08,清算の結了等,,,2015-10-05,1,,,,,ヒロクニケンセツ,0
2465,8150001006172,登記記録の閉鎖等,0,2025-01-16,2025-01-15,ヨシオカ照明株式会社,,株式会社,奈良県,大和郡山市,矢田山町３１番地の４,,29,203,6391055,,,2025-01-15,清算の結了等,,,2015-10-05,1,,,,,ヨシオカショウメイ,0
2468,8180001006574,登記記録の閉鎖等,0,2025-01-16,2025-01-16,株式会社柴田工業,,株式会社,愛知県,名古屋市瑞穂区,妙音通４丁目４２番地,,23,108,4670842,,,2025-01-16,登記官による閉鎖,,,2015-10-05,1,,,,,,0
2469,8180001009148,登記記録の閉鎖等,0,2025-01-16,2025-01-16,株式会社大東セーフティー,,株式会社,愛知県,名古屋市名東区,引山１丁目６０２番地,,23,115,4650002,,,2025-01-16,登記官による閉鎖,,,2015-10-05,1,,,,,,0
2470,8180001020534,登記記録の閉鎖等,0,2025-01-16,2025-01-16,日東建工株式会社,,株式会社,愛知県,名古屋市中川区,小本２丁目１番４号,,23,110,4540828,,,2025-01-16,登記官による閉鎖,,,2015-10-05,1,,,,,,0
2471,8180001022670,登記記録の閉鎖等,0,2025-01-16,2025-01-16,株式会社平川工機製作所,,株式会社,愛知県,名古屋市熱田区,桜田町９番２３号,,23,109,4560004,,,2025-01-16,登記官による閉鎖,,,2015-10-05,1,,,,,,0
2472,8180001038304,登記記録の閉鎖等,0,2025-01-16,2025-01-16,津シティ株式会社,,株式会社,愛知県,名古屋市中区,栄４丁目１番１号中日ビル５階,,23,106,4600008,,,2025-01-16,登記官による閉鎖,,,2015-10-05,1,,,,,ツシティ,0
2473,8180001070273,登記記録の閉鎖等,0,2025-01-16,2025-01-16,児玉ホールディングス株式会社,,株式会社,愛知県,名古屋市中村区,竹橋町２０番１２号セザール名古屋５０３,,23,105,4530016,,,2025-01-16,登記官による閉鎖,,,2015-10-05,1,,,,,,0
2474,8180001080685,登記記録の閉鎖等,0,2025-01-16,2025-01-16,株式会社アルファ日産,,株式会社,愛知県,犬山市,大字犬山字薬師２８番地,,23,215,4840081,,,2025-01-16,登記官による閉鎖,,,2015-10-05,1,,,,,,0
2475,8180001099957,登記記録の閉鎖等,0,2025-01-16,2025-01-16,株式会社ＪＵＮ,,株式会社,愛知県,知多郡南知多町,大字内海字東浜田１３番地の３,,23,445,4703321,,,2025-01-16,登記官による閉鎖,,,2015-10-05,1,,,,,,0
2476,8180001102778,登記記録の閉鎖等,0,2025-01-16,2025-01-16,中日本コンサルタント株式会社,,株式会社,愛知県,一宮市,大和町於保字郷中２３３９番地３,,23,203,4910924,,,2025-01-16,登記官による閉鎖,,,2015-10-05,1,,,,,,0
2477,8180001104411,登記記録の閉鎖等,0,2025-01-16,2025-01-16,株式会社光テック,,株式会社,愛知県,名古屋市中川区,広住町７番９号,,23,110,4540007,,,2025-01-16,登記官による閉鎖,,,2015-10-05,1,,,,,,0
2478,8180001104642,登記記録の閉鎖等,0,2025-01-16,2025-01-16,株式会社名古屋藤川,,株式会社,愛知県,江南市,般若町南山３４８番地,,23,217,4838013,,,2025-01-16,登記官による閉鎖,,,2015-10-05,1,,,,,,0
2485,8180002010732,登記記録の閉鎖等,0,2025-01-16,2025-01-16,有限会社伊藤屋,,有限会社,愛知県,名古屋市北区,大曽根１丁目１３番８号,,23,103,4620825,,,2025-01-16,登記官による閉鎖,,,2015-10-05,1,,,,,,0
2486,8180002033782,登記記録の閉鎖等,0,2025-01-16,2025-01-16,有限会社アルファオート,,有限会社,愛知県,名古屋市中川区,北江町２丁目２０番地,,23,110,4540851,,,2025-01-16,登記官による閉鎖,,,2015-10-05,1,,,,,,0
2487,8180002038542,登記記録の閉鎖等,0,2025-01-16,2025-01-16,有限会社栄光金型,,有限会社,愛知県,名古屋市港区,当知町８丁目４９番地,,23,111,4550805,,,2025-01-16,登記官による閉鎖,,,2015-10-05,1,,,,,,0
2489,8180002083373,登記記録の閉鎖等,0,2025-01-16,2025-01-16,有限会社コスモハイツ,,有限会社,愛知県,半田市,岩滑中町４丁目１５番地,,23,205,4750961,,,2025-01-16,登記官による閉鎖,,,2019-10-23,1,,,,,コスモハイツ,0
2490,8180003015383,登記記録の閉鎖等,0,2025-01-16,2025-01-16,合同会社ほほえみ,,合同会社,愛知県,一宮市,春明字西柳原６４番地,,23,203,4910003,,,2025-01-16,登記官による閉鎖,,,2015-10-05,1,,,,,,0
2493,8180005005985,登記記録の閉鎖等,0,2025-01-16,2025-01-16,特定非営利活動法人なっとわあく師勝,,その他の設立登記法人,愛知県,北名古屋市,鹿田坂巻１０６番地,,23,234,4810004,,,2025-01-16,登記官による閉鎖,,,2015-10-05,1,,,,,,0
2494,8180005006356,登記記録の閉鎖等,0,2025-01-16,2025-01-16,特定非営利活動法人ＭＦＡ名古屋,,その他の設立登記法人,愛知県,名古屋市西区,浄心２丁目８番８号,,23,104,4510061,,,2025-01-16,登記官による閉鎖,,,2015-10-05,1,,,,,,0
2495,8180005013939,登記記録の閉鎖等,0,2025-01-16,2025-01-16,一般社団法人天国の郷,,その他の設立登記法人,愛知県,海部郡大治町,大字馬島字北割１１４番地,,23,424,4901141,,,2025-01-16,登記官による閉鎖,,,2015-10-05,1,,,,,,0
2496,8180005014417,登記記録の閉鎖等,0,2025-01-16,2025-01-16,特定非営利活動法人日本着物文化協会,,その他の設立登記法人,愛知県,春日井市,岩成台１丁目５番地４,,23,206,4870033,,,2025-01-16,登記官による閉鎖,,,2015-10-05,1,,,,,,0
2497,8180302013096,登記記録の閉鎖等,0,2025-01-16,2025-01-08,有限会社クラチ建材,,有限会社,愛知県,豊川市,美和通１丁目１６番地,,23,207,4420825,,,2025-01-08,清算の結了等,,,2015-10-05,1,,,,,クラチケンザイ,0
2498,8180302016677,登記記録の閉鎖等,0,2025-01-16,2025-01-16,有限会社サン百石,,有限会社,愛知県,安城市,百石町２丁目２３番地１,,23,212,4460044,,,2025-01-16,登記官による閉鎖,,,2015-10-05,1,,,,,,0
2499,8180302028433,登記記録の閉鎖等,0,2025-01-16,2025-01-16,有限会社誠和,,有限会社,愛知県,豊橋市,弥生町字中原５１番地の７,,23,201,4418106,,,2025-01-16,登記官による閉鎖,,,2019-06-19,1,,,,,セイワ,0
2500,8180305002039,登記記録の閉鎖等,0,2025-01-16,2025-01-16,ＪＣＰＩ協同組合,,その他の設立登記法人,愛知県,岡崎市,矢作町字金谷５番地,,23,202,4440943,,,2025-01-16,登記官による閉鎖,,,2015-10-05,1,,,,,,0
2501,8180305006782,登記記録の閉鎖等,0,2025-01-16,2025-01-16,農事組合法人小栗花卉温室組合,,その他の設立登記法人,愛知県,西尾市,小栗町上ノ切用水西１６１番地,,23,213,4440332,,,2025-01-16,登記官による閉鎖,,,2015-10-05,1,,,,,,0
2504,8200001009129,登記記録の閉鎖等,0,2025-01-16,2025-01-09,相続コンサルティング株式会社,,株式会社,岐阜県,岐阜市,坂井町１丁目２４番地,,21,201,5008857,,,2025-01-09,清算の結了等,,,2015-10-05,1,,,,,ソウゾクコンサルティング,0
2505,8200001013659,登記記録の閉鎖等,0,2025-01-16,2025-01-16,株式会社山陽,,株式会社,岐阜県,大垣市,築捨町４丁目７８番地,,21,202,5030854,,,2025-01-16,登記官による閉鎖,,,2015-10-05,1,,,,,,0
2506,8200001017288,登記記録の閉鎖等,0,2025-01-16,2025-01-16,株式会社シー・ワイ・シー,,株式会社,岐阜県,美濃加茂市,本郷町９丁目１８番３７号,,21,211,5050027,,,2025-01-16,登記官による閉鎖,,,2015-10-05,1,,,,,,0
2507,8200001022305,登記記録の閉鎖等,0,2025-01-16,2025-01-16,ヤマワ商事株式会社,,株式会社,岐阜県,多治見市,本町４丁目６０番地,,21,204,5070033,,,2025-01-16,登記官による閉鎖,,,2019-02-27,1,,,,,,0
2508,8200002002314,登記記録の閉鎖等,0,2025-01-16,2025-01-16,松栄商事有限会社,,有限会社,岐阜県,岐阜市,加納天神町３丁目１９番地,,21,201,5008473,,,2025-01-16,登記官による閉鎖,,,2015-10-05,1,,,,,,0
2509,8200002006364,登記記録の閉鎖等,0,2025-01-16,2025-01-16,有限会社梅田電気商会,,有限会社,岐阜県,山県市,平井７９番地の１,,21,215,5012131,,,2025-01-16,登記官による閉鎖,,,2015-10-05,1,,,,,,0
2510,8200002007230,登記記録の閉鎖等,0,2025-01-16,2025-01-16,有限会社共和工機,,有限会社,岐阜県,各務原市,須衛町４丁目２０９番地,,21,213,5090108,,,2025-01-16,登記官による閉鎖,,,2015-10-05,1,,,,,,0
2512,8200002012767,登記記録の閉鎖等,0,2025-01-16,2025-01-16,有限会社誠友興業,,有限会社,岐阜県,大垣市,内原１丁目６７番地の６,,21,202,5030936,,,2025-01-16,登記官による閉鎖,,,2015-10-05,1,,,,,,0
2513,8200002017320,登記記録の閉鎖等,0,2025-01-16,2025-01-16,有限会社丸徳建築,,有限会社,岐阜県,可児市,中恵土１９２３番地の５,,21,214,5090202,,,2025-01-16,登記官による閉鎖,,,2015-10-05,1,,,,,,0
2524,8240005002092,登記記録の閉鎖等,0,2025-01-16,2025-01-15,特定非営利活動法人西日本自警団,,その他の設立登記法人,広島県,広島市安佐南区,大町西１丁目３番１３号,,34,105,7310125,,,2025-01-15,清算の結了等,,,2015-10-05,1,,,,,ニシニホンジケイダン,0
2539,8290005018679,登記記録の閉鎖等,0,2025-01-16,2024-12-26,行政書士法人ファイブ・スター,,その他の設立登記法人,福岡県,福岡市博多区,博多駅東１丁目９番１１号,,40,132,8120013,,,2024-12-26,清算の結了等,,,2022-05-13,1,,,,,ファイブスター,0
2542,8310001009992,登記記録の閉鎖等,0,2025-01-16,2025-01-16,ライズ・イン株式会社,,株式会社,長崎県,島原市,有明町大三東甲１００６番地１,,42,203,8591411,,,2025-01-16,登記官による閉鎖,,,2015-10-05,1,,,,,,0
2543,8310001010769,登記記録の閉鎖等,0,2025-01-16,2025-01-16,株式会社美松,,株式会社,長崎県,対馬市,厳原町大手橋１２１４番地２,,42,209,8170024,,,2025-01-16,登記官による閉鎖,,,2015-10-05,1,,,,,,0
2544,8310002001858,登記記録の閉鎖等,0,2025-01-16,2025-01-16,有限会社古舘水産,,有限会社,長崎県,長崎市,赤迫１丁目５番１１号,,42,201,8528156,,,2025-01-16,登記官による閉鎖,,,2015-10-05,1,,,,,,0
2545,8310002001866,登記記録の閉鎖等,0,2025-01-16,2025-01-16,有限会社寿屋酒店,,有限会社,長崎県,長崎市,旭町２５番１５号,,42,201,8528003,,,2025-01-16,登記官による閉鎖,,,2015-10-05,1,,,,,,0
2546,8310002009406,登記記録の閉鎖等,0,2025-01-16,2025-01-16,有限会社オーティーオーユニット,,有限会社,長崎県,佐世保市,早苗町４６４番地１８,,42,202,8593211,,,2025-01-16,登記官による閉鎖,,,2015-10-05,1,,,,,,0
2548,8310002019909,登記記録の閉鎖等,0,2025-01-16,2025-01-16,有限会社青漁水産,,有限会社,長崎県,松浦市,鷹島町阿翁浦免７４１番地２５,,42,208,8594301,,,2025-01-16,登記官による閉鎖,,,2015-10-05,1,,,,,,0
2550,8310005002275,登記記録の閉鎖等,0,2025-01-16,2025-01-16,特定非営利活動法人自立生活センターよかよか長崎,,その他の設立登記法人,長崎県,長崎市,城山町１４番１９号,,42,201,8528021,,,2025-01-16,登記官による閉鎖,,,2015-10-05,1,,,,,,0
2551,8310005002853,登記記録の閉鎖等,0,2025-01-16,2025-01-16,社団法人国際交換留学推進協会,,その他の設立登記法人,長崎県,佐世保市,東浜町８５４番地５,,42,202,8571172,,,2025-01-16,登記官による閉鎖,,,2015-10-05,1,,,,,,0
2571,8370001039126,登記記録の閉鎖等,0,2025-01-16,2024-12-26,インテックス株式会社,,株式会社,宮城県,石巻市,門脇町１丁目８番９号,,04,202,9860834,,,2024-12-26,清算の結了等,,,2016-02-03,1,,,,,インテックス,0
2584,8390002000349,登記記録の閉鎖等,0,2025-01-16,2025-01-09,有限会社インテリア石井,,有限会社,山形県,山形市,大野目１丁目６番３９号,,06,201,9900073,,,2025-01-09,清算の結了等,,,2015-10-05,1,,,,,インテリアイシイ,0
2594,8430003011919,登記記録の閉鎖等,0,2025-01-16,2025-01-09,合同会社グローバルシンカ,,合同会社,北海道,恵庭市,柏陽町１丁目８番１,,01,231,0611434,,,2025-01-09,清算の結了等,,,2020-09-10,1,,,,,グローバルシンカ,0
2604,9010001137550,登記記録の閉鎖等,0,2025-01-16,2025-01-16,Ｋ２Ｉｎｖｅｓｔｍｅｎｔ株式会社,,株式会社,東京都,港区,南青山３丁目１番３号,,13,103,1070062,,,2025-01-16,登記官による閉鎖,,,2015-10-05,1,,,,,,0
2605,9010001155957,登記記録の閉鎖等,0,2025-01-16,2024-12-25,株式会社星野会計,,株式会社,神奈川県,横浜市中区,日本大通７番地日本大通７ビル４階ＹＢＰ,,14,104,2310021,,,2024-12-25,清算の結了等,,,2015-10-05,1,,,,,ホシノカイケイ,0
2606,9010001213938,登記記録の閉鎖等,0,2025-01-16,2024-12-26,株式会社フルフィル,,株式会社,東京都,千代田区,九段南１丁目５－６りそな九段ビル５階ＫＳフロア,,13,101,1020074,,,2024-12-26,清算の結了等,,,2020-11-24,1,,,,,フルフィル,0
2616,9010401051186,登記記録の閉鎖等,0,2025-01-16,2025-01-16,株式会社エイ・ビー・シーインターナショナル,,株式会社,東京都,港区,元麻布２丁目７番２５号カツコート１０１,,13,103,1060046,,,2025-01-16,登記官による閉鎖,,,2015-10-05,1,,,,,,0
2617,9010401057209,登記記録の閉鎖等,0,2025-01-16,2025-01-16,三田コミュニティ株式会社,,株式会社,東京都,港区,三田２丁目９番７号,,13,103,1080073,,,2025-01-16,登記官による閉鎖,,,2015-10-05,1,,,,,,0
2618,9010401069022,登記記録の閉鎖等,0,2025-01-16,2025-01-16,株式会社鮨さいとう,,株式会社,東京都,港区,新橋１丁目７番１０号,,13,103,1050004,,,2025-01-16,登記官による閉鎖,,,2015-10-05,1,,,,,,0
2619,9010401072554,登記記録の閉鎖等,0,2025-01-16,2025-01-16,株式会社サンクト,,株式会社,東京都,港区,新橋２丁目１番１０号,,13,103,1050004,,,2025-01-16,登記官による閉鎖,,,2015-10-05,1,,,,,,0
2620,9010401094136,登記記録の閉鎖等,0,2025-01-16,2025-01-16,株式会社Ｏｎｅｓｅｎｓｅ．Ｏｎｅｍｉｌｅ,,株式会社,東京都,港区,赤坂５丁目４番１７号,,13,103,1070052,,,2025-01-16,登記官による閉鎖,,,2015-10-05,1,,,,,,0
2621,9010401098442,登記記録の閉鎖等,0,2025-01-16,2025-01-16,サンコーポレーション株式会社,,株式会社,東京都,港区,赤坂９丁目２－１４赤坂桧町公園アーバンライフ２０７号,,13,103,1070052,,,2025-01-16,登記官による閉鎖,,,2015-10-05,1,,,,,,0
2622,9010401102402,登記記録の閉鎖等,0,2025-01-16,2025-01-16,株式会社コーネリアス,,株式会社,東京都,港区,北青山３丁目６番７号,,13,103,1070061,,,2025-01-16,登記官による閉鎖,,,2015-10-05,1,,,,,,0
2628,9010403009661,登記記録の閉鎖等,0,2025-01-16,2025-01-16,合同会社Ｇｒａｃｅｆｕｌ　Ｅｎｔｅｒｔａｉｎｍｅｎｔ,,合同会社,東京都,港区,六本木３丁目１０番９号,,13,103,1060032,,,2025-01-16,登記官による閉鎖,,,2015-10-05,1,,,,,,0
2629,9010405004859,登記記録の閉鎖等,0,2025-01-16,2025-01-16,特定非営利活動法人大地の子,,その他の設立登記法人,東京都,港区,西麻布３丁目２番７号,,13,103,1060031,,,2025-01-16,登記官による閉鎖,,,2015-10-05,1,,,,,,0
2666,9011101052656,登記記録の閉鎖等,0,2025-01-16,2025-01-16,株式会社イーアイメディカルシステムズ,,株式会社,東京都,港区,浜松町２丁目１番１６号ＳＶＡＸ浜松町ＩＩビル,00050830,13,103,1050013,,,2025-01-16,登記官による閉鎖,,,2015-10-05,1,,,,,,0
2671,9011401016807,登記記録の閉鎖等,0,2025-01-16,2025-01-16,株式会社日の出運輸倉庫,,株式会社,東京都,港区,六本木３丁目１６－１９キングダムビル４階,,13,103,1060032,,,2025-01-16,登記官による閉鎖,,,2015-10-05,1,,,,,,0
2682,9012701015424,登記記録の閉鎖等,0,2025-01-16,2024-12-26,ダブルロケット株式会社,,株式会社,東京都,東村山市,野口町３丁目４番地４,,13,213,1890022,,,2024-12-26,清算の結了等,,,2019-07-05,1,,,,,ダブルロケット,0
2690,9020001113988,登記記録の閉鎖等,0,2025-01-16,2024-12-25,株式会社ゴッチ,,株式会社,神奈川県,川崎市多摩区,菅２丁目８番１３－１号,,14,135,2140001,,,2024-12-25,清算の結了等,,,2015-12-15,1,,,,,ゴッチ,0
2723,9040003019389,登記記録の閉鎖等,0,2025-01-16,2025-01-07,合同会社いこま,,合同会社,千葉県,松戸市,小根本７６－４アネックス１０２,,12,207,2710073,,,2025-01-07,清算の結了等,,,2022-01-31,1,,,,,イコマ,0
2733,9080401018220,登記記録の閉鎖等,0,2025-01-16,2025-01-07,株式会社ＧＬＯＢＡＬ　ＵＰ,,株式会社,静岡県,浜松市中央区,増楽町４７番地の１,,22,138,4328062,,,2025-01-07,清算の結了等,,,2015-10-05,1,,,,,グローバルアップ,0
2735,9080403003385,登記記録の閉鎖等,0,2025-01-16,2025-01-15,合同会社ウィード,,合同会社,静岡県,浜松市中央区,高丘東４丁目９番２号,,22,138,4338117,,,2025-01-15,清算の結了等,,,2017-01-20,1,,,,,ウィード,0
2740,9120001115025,登記記録の閉鎖等,0,2025-01-16,2025-01-14,株式会社Ａｙｉｎ　ｓｏｆ,,株式会社,大阪府,大阪市浪速区,幸町１丁目２番５号２Ｆ,,27,111,5560021,,,2025-01-14,清算の結了等,,,2015-10-05,1,,,,,アインソフ,0
2755,9122001015320,登記記録の閉鎖等,0,2025-01-16,2025-01-06,小林紙業株式会社,,株式会社,大阪府,大東市,御領３丁目９番２号,,27,218,5740064,,,2025-01-06,清算の結了等,,,2015-10-05,1,,,,,コバヤシシギョウ,0
2756,9122001016533,登記記録の閉鎖等,0,2025-01-16,2025-01-10,株式会社ガーデニング朝日,,株式会社,京都府,八幡市,男山金振１４番地１０,,26,210,6148365,,,2025-01-10,清算の結了等,,,2015-10-05,1,,,,,ガーデニングアサヒ,0
2764,9130002003310,登記記録の閉鎖等,0,2025-01-16,2025-01-06,有限会社池口ピアノサービス,,有限会社,京都府,京都市北区,大宮一ノ井町２９番地の８,,26,101,6038477,,,2025-01-06,清算の結了等,,,2015-10-05,1,,,,,イケグチピアノサービス,0
2766,9140001001891,登記記録の閉鎖等,0,2025-01-16,2025-01-10,株式会社大刷,,株式会社,兵庫県,神戸市東灘区,御影塚町３丁目７番１２号,,28,101,6580044,,,2025-01-10,清算の結了等,,,2015-10-05,1,,,,,ダイサツ,0
2774,9140001087915,登記記録の閉鎖等,0,2025-01-16,2025-01-09,株式会社エナ５・３,,株式会社,兵庫県,神戸市須磨区,神の谷１丁目１番７９－５０４号,,28,107,6540162,,,2025-01-09,清算の結了等,,,2015-10-05,1,,,,,エナゴウサン,0
2776,9140001093459,登記記録の閉鎖等,0,2025-01-16,2025-01-09,ＫｏＣａ株式会社,,株式会社,兵庫県,川西市,東久代１丁目１番５号,,28,217,6660023,,,2025-01-09,清算の結了等,,,2015-10-05,1,,,,,コカ,0
2784,9140002004340,登記記録の閉鎖等,0,2025-01-16,2025-01-08,神出精工有限会社,,有限会社,兵庫県,神戸市西区,神出町田井３９６番地,,28,111,6512313,,,2025-01-08,清算の結了等,,,2015-10-05,1,,,,,カンデセイコウ,0
2787,9150001019917,登記記録の閉鎖等,0,2025-01-16,2025-01-15,株式会社太陽建装,,株式会社,奈良県,奈良市,大安寺７丁目１番４,,29,201,6308133,,,2025-01-15,清算の結了等,,,2015-10-05,1,,,,,タイヨウケンソウ,0
2791,9180001009551,登記記録の閉鎖等,0,2025-01-16,2025-01-16,モリタ商事株式会社,,株式会社,愛知県,名古屋市昭和区,川名本町２丁目４８番地,,23,107,4660855,,,2025-01-16,登記官による閉鎖,,,2015-10-05,1,,,,,,0
2792,9180001012737,登記記録の閉鎖等,0,2025-01-16,2025-01-16,中部住器株式会社,,株式会社,愛知県,名古屋市北区,西味鋺３丁目１０１番地,,23,103,4620016,,,2025-01-16,登記官による閉鎖,,,2015-10-05,1,,,,,,0
2793,9180001014543,登記記録の閉鎖等,0,2025-01-16,2025-01-16,株式会社佐藤商店,,株式会社,愛知県,名古屋市南区,上浜町２７番地,,23,112,4570067,,,2025-01-16,登記官による閉鎖,,,2015-10-05,1,,,,,,0
2794,9180001045992,登記記録の閉鎖等,0,2025-01-16,2025-01-16,枇杷島運輸株式会社,,株式会社,愛知県,北名古屋市,九之坪龍子田６２番地,,23,234,4810041,,,2025-01-16,登記官による閉鎖,,,2015-10-05,1,,,,,,0
2795,9180001050349,登記記録の閉鎖等,0,2025-01-16,2025-01-16,株式会社高尾販売,,株式会社,愛知県,名古屋市中区,錦３丁目１４番１０号,,23,106,4600003,,,2025-01-16,登記官による閉鎖,,,2015-10-05,1,,,,,,0
2796,9180001060463,登記記録の閉鎖等,0,2025-01-16,2025-01-16,株式会社コウエイ,,株式会社,愛知県,名古屋市東区,白壁５丁目１９番地,,23,102,4610011,,,2025-01-16,登記官による閉鎖,,,2015-10-05,1,,,,,,0
2797,9180001079495,登記記録の閉鎖等,0,2025-01-16,2025-01-16,株式会社カスパー,,株式会社,愛知県,瀬戸市,みずの坂４丁目１００番地,,23,204,4890909,,,2025-01-16,登記官による閉鎖,,,2015-10-05,1,,,,,,0
2798,9180001087168,登記記録の閉鎖等,0,2025-01-16,2025-01-16,株式会社すきっぷ,,株式会社,愛知県,一宮市,昭和１丁目１番１０号エクセル大宝３０１号,,23,203,4910917,,,2025-01-16,登記官による閉鎖,,,2015-10-05,1,,,,,,0
2799,9180001089940,登記記録の閉鎖等,0,2025-01-16,2025-01-16,株式会社リアン,,株式会社,岐阜県,岐阜市,長良３０３８番地サンハウス長良３０２,,21,201,5020071,,,2025-01-16,登記官による閉鎖,,,2015-10-05,1,,,,,,0
2800,9180001091236,登記記録の閉鎖等,0,2025-01-16,2025-01-16,株式会社中京ホーム,,株式会社,愛知県,名古屋市中区,千代田５丁目８番１２号,,23,106,4600012,,,2025-01-16,登記官による閉鎖,,,2015-10-05,1,,,,,,0
2801,9180001100962,登記記録の閉鎖等,0,2025-01-16,2025-01-16,Ｂ．ＢＬＯＯＭ株式会社,,株式会社,愛知県,小牧市,大字岩崎９００番地７,,23,219,4850011,,,2025-01-16,登記官による閉鎖,,,2015-10-05,1,,,,,,0
2802,9180001101317,登記記録の閉鎖等,0,2025-01-16,2025-01-16,株式会社リョウコウ,,株式会社,愛知県,稲沢市,祖父江町本甲神明前５７番地８,,23,220,4950012,,,2025-01-16,登記官による閉鎖,,,2015-10-05,1,,,,,,0
2803,9180001104162,登記記録の閉鎖等,0,2025-01-16,2025-01-16,株式会社松の木,,株式会社,愛知県,名古屋市千種区,今池５丁目１２番６号,,23,101,4640850,,,2025-01-16,登記官による閉鎖,,,2015-10-05,1,,,,,,0
2804,9180001141619,登記記録の閉鎖等,0,2025-01-16,2025-01-06,株式会社Ｒ＆Ｅソリューションズ,,株式会社,愛知県,名古屋市名東区,上社２丁目３５番地ザ・パークハウス上社３０２号,,23,115,4650025,,,2025-01-06,清算の結了等,,,2020-06-16,1,,,,,アールアンドイーソリューションズ,0
2806,9180002014757,登記記録の閉鎖等,0,2025-01-16,2025-01-16,有限会社マエヤマダンススクール,,有限会社,愛知県,名古屋市南区,菊住２丁目１８番７号,,23,112,4570012,,,2025-01-16,登記官による閉鎖,,,2015-10-05,1,,,,,,0
2807,9180002023840,登記記録の閉鎖等,0,2025-01-16,2025-01-16,竹中紙工有限会社,,有限会社,愛知県,名古屋市西区,児玉３丁目２５番２６号,,23,104,4510066,,,2025-01-16,登記官による閉鎖,,,2015-10-05,1,,,,,,0
2809,9180002037295,登記記録の閉鎖等,0,2025-01-16,2025-01-16,有限会社コーヒーハウス西部,,有限会社,愛知県,名古屋市瑞穂区,堀田通２丁目１０番地の１,,23,108,4670862,,,2025-01-16,登記官による閉鎖,,,2015-10-05,1,,,,,,0
2810,9180002044655,登記記録の閉鎖等,0,2025-01-16,2025-01-16,豊成保温総合設備有限会社,,有限会社,愛知県,名古屋市中川区,豊成町１番５－９０７号,,23,110,4540803,,,2025-01-16,登記官による閉鎖,,,2015-10-05,1,,,,,,0
2811,9180002061196,登記記録の閉鎖等,0,2025-01-16,2025-01-16,有限会社アートガレージ,,有限会社,愛知県,名古屋市千種区,田代本通５丁目１番地,,23,101,4640827,,,2025-01-16,登記官による閉鎖,,,2015-10-05,1,,,,,,0
2812,9180002084387,登記記録の閉鎖等,0,2025-01-16,2025-01-16,有限会社山成,,有限会社,愛知県,知多郡武豊町,字東長宗３３番地の３,,23,447,4702382,,,2025-01-16,登記官による閉鎖,,,2015-10-05,1,,,,,,0
2813,9180002084684,登記記録の閉鎖等,0,2025-01-16,2025-01-16,オフィス・イツオ有限会社,,有限会社,愛知県,大府市,北崎町井田１０９番地の１１,,23,223,4740001,,,2025-01-16,登記官による閉鎖,,,2015-10-05,1,,,,,,0
2814,9180002092860,登記記録の閉鎖等,0,2025-01-16,2025-01-16,有限会社ガイア・コーポレーション,,有限会社,愛知県,海部郡蟹江町,今東郊通４４番地,,23,425,4970000,,,2025-01-16,登記官による閉鎖,,,2015-10-05,1,,,,,,0
2815,9180002093256,登記記録の閉鎖等,0,2025-01-16,2025-01-16,有限会社アップセル,,有限会社,愛知県,豊明市,間米町鶴根１２１１番地２８,,23,229,4701133,,,2025-01-16,登記官による閉鎖,,,2015-10-05,1,,,,,,0
2816,9180003004682,登記記録の閉鎖等,0,2025-01-16,2025-01-16,合資会社横井電気商会,,合資会社,愛知県,名古屋市中村区,鳥居通５丁目１５番地,,23,105,4530044,,,2025-01-16,登記官による閉鎖,,,2015-10-05,1,,,,,,0
2817,9180003008510,登記記録の閉鎖等,0,2025-01-16,2025-01-16,合資会社ホウオン社,,合資会社,愛知県,名古屋市中村区,中村本町１丁目１９番地,,23,105,4530828,,,2025-01-16,登記官による閉鎖,,,2015-10-05,1,,,,,,0
2818,9180003013403,登記記録の閉鎖等,0,2025-01-16,2025-01-16,合同会社ベーネアセットマネジメント,,合同会社,愛知県,大府市,中央町１丁目２０４番地,,23,223,4740025,,,2025-01-16,登記官による閉鎖,,,2015-10-05,1,,,,,,0
2819,9180003015168,登記記録の閉鎖等,0,2025-01-16,2025-01-16,合同会社Ｌｏｖｅ＆Ｍｅｒｃｙ,,合同会社,愛知県,小牧市,光ケ丘２丁目６番地１１,,23,219,4850811,,,2025-01-16,登記官による閉鎖,,,2015-10-05,1,,,,,,0
2822,9180005007873,登記記録の閉鎖等,0,2025-01-16,2025-01-16,特定非営利活動法人和気愛愛,,その他の設立登記法人,愛知県,名古屋市北区,天道町５丁目１番地,,23,103,4620034,,,2025-01-16,登記官による閉鎖,,,2015-10-05,1,,,,,,0
2823,9180005014977,登記記録の閉鎖等,0,2025-01-16,2025-01-16,特定非営利活動法人白百合,,その他の設立登記法人,愛知県,春日井市,知多町３丁目１５５番地,,23,206,4860947,,,2025-01-16,登記官による閉鎖,,,2015-10-05,1,,,,,,0
2826,9180302000944,登記記録の閉鎖等,0,2025-01-16,2025-01-16,有限会社ウィズこまち,,有限会社,愛知県,岡崎市,日名南町８番地９,,23,202,4440915,,,2025-01-16,登記官による閉鎖,,,2015-10-05,1,,,,,,0
2827,9180302001744,登記記録の閉鎖等,0,2025-01-16,2025-01-16,有限会社総合食品ストアースギタ,,有限会社,愛知県,岡崎市,明大寺町字出口２４番地１,,23,202,4440869,,,2025-01-16,登記官による閉鎖,,,2015-10-05,1,,,,,,0
2828,9180302007667,登記記録の閉鎖等,0,2025-01-16,2025-01-16,有限会社三恵塗工社,,有限会社,愛知県,豊橋市,向山東町１１０番地,,23,201,4400863,,,2025-01-16,登記官による閉鎖,,,2015-10-05,1,,,,,,0
2830,9180302017039,登記記録の閉鎖等,0,2025-01-16,2025-01-16,日本エージーエイ産業有限会社,,有限会社,愛知県,安城市,和泉町庄司作１０番地３２,,23,212,4441221,,,2025-01-16,登記官による閉鎖,,,2015-10-05,1,,,,,,0
2833,9180305006419,登記記録の閉鎖等,0,2025-01-16,2025-01-16,飯野施業森林組合,,その他の設立登記法人,愛知県,豊田市,藤岡飯野町五釜７６８番地４,,23,211,4700451,,,2025-01-16,登記官による閉鎖,,,2015-10-05,1,,,,,イイノセギョウ,0
2836,9200001010449,登記記録の閉鎖等,0,2025-01-16,2025-01-16,株式会社フレンド倶楽部,,株式会社,岐阜県,本巣市,上高屋７２番地,,21,218,5010411,,,2025-01-16,登記官による閉鎖,,,2015-10-05,1,,,,,,0
2837,9200001011026,登記記録の閉鎖等,0,2025-01-16,2025-01-16,株式会社ゴトウ,,株式会社,岐阜県,羽島郡岐南町,平島７丁目５０番地,,21,302,5016003,,,2025-01-16,登記官による閉鎖,,,2015-10-05,1,,,,,,0
2838,9200001012387,登記記録の閉鎖等,0,2025-01-16,2025-01-16,株式会社バンキッシュ,,株式会社,岐阜県,各務原市,那加楽天地町２９番地楽天地マンション２０１,,21,213,5040967,,,2025-01-16,登記官による閉鎖,,,2015-10-05,1,,,,,,0
2839,9200001016578,登記記録の閉鎖等,0,2025-01-16,2025-01-16,株式会社ラフォンテ,,株式会社,岐阜県,大垣市,小泉町３９０番地,,21,202,5030816,,,2025-01-16,登記官による閉鎖,,,2015-10-05,1,,,,,,0
2841,9200001028136,登記記録の閉鎖等,0,2025-01-16,2025-01-16,アイリングネット株式会社,,株式会社,岐阜県,岐阜市,下川手４１番地１５,,21,201,5008246,,,2025-01-16,登記官による閉鎖,,,2015-10-05,1,,,,,,0
2843,9200002016206,登記記録の閉鎖等,0,2025-01-16,2025-01-16,有限会社深貝冷機サービス,,有限会社,岐阜県,美濃加茂市,加茂野町今泉５８９番地,,21,211,5050052,,,2025-01-16,登記官による閉鎖,,,2015-10-05,1,,,,,,0
2845,9200005007961,登記記録の閉鎖等,0,2025-01-16,2025-01-16,ファッションリンク岐阜協同組合,,その他の設立登記法人,岐阜県,美濃市,生櫛２７０２番地１,00077485,21,207,5013756,,,2025-01-16,登記官による閉鎖,,,2015-10-05,1,,,,,,0
2851,9240001037934,登記記録の閉鎖等,0,2025-01-16,2025-01-10,尾道貝印石油株式会社,,株式会社,広島県,尾道市,山波町１００番地の１,,34,205,7220052,,,2025-01-10,清算の結了等,,,2015-10-05,1,,,,,オノミチカイジルシセキユ,0
2856,9250001005312,登記記録の閉鎖等,0,2025-01-16,2025-01-14,株式会社北村クリーニング工業所,,株式会社,山口県,下関市,幡生本町１番２３号,,35,201,7510827,,,2025-01-14,清算の結了等,,,2015-10-05,1,,,,,キタムラクリーニングコウギョウショ,0
2862,9260002012653,登記記録の閉鎖等,0,2025-01-16,2025-01-06,株式会社エムアペックス,,株式会社,岡山県,岡山市北区,大元１丁目１番２号,,33,101,7000924,,,2025-01-06,合併による解散等,3260002001538,令和７年１月１日岡山市北区大元一丁目１番２号株式会社エムエム薬局（3260002001538）に合併し解散,2015-10-05,1,,,,,エムアペックス,0
2873,9290002006017,登記記録の閉鎖等,0,2025-01-16,2024-12-23,有限会社松崎調剤薬局,,有限会社,福岡県,福岡市東区,若宮５丁目１９番１７号,,40,131,8130036,,,2024-12-23,清算の結了等,,,2015-10-05,1,,,,,マツザキチョウザイヤッキョク,0
2875,9310001000950,登記記録の閉鎖等,0,2025-01-16,2025-01-16,株式会社創研,,株式会社,長崎県,長崎市,小江原５丁目７番１６号,,42,201,8511132,,,2025-01-16,登記官による閉鎖,,,2015-10-05,1,,,,,,0
2876,9310001009372,登記記録の閉鎖等,0,2025-01-16,2025-01-16,円陣株式会社,,株式会社,長崎県,諫早市,多良見町東園２９１番地１６,,42,204,8590411,,,2025-01-16,登記官による閉鎖,,,2015-10-05,1,,,,,,0
2878,9310002007986,登記記録の閉鎖等,0,2025-01-16,2025-01-16,有限会社エーエヌ水管理,,有限会社,長崎県,西彼杵郡長与町,吉無田郷２０２０番地１０－５０１号,,42,307,8512126,,,2025-01-16,登記官による閉鎖,,,2015-10-05,1,,,,,,0
2879,9310002020279,登記記録の閉鎖等,0,2025-01-16,2025-01-10,有限会社小宮土木,,有限会社,長崎県,対馬市,美津島町鷄知乙９２１番地６０,00123301,42,209,8170000,,,2025-01-10,清算の結了等,,,2015-10-05,1,,,,,コミヤドボク,0
2880,9310005006457,登記記録の閉鎖等,0,2025-01-16,2025-01-16,一般社団法人ＹＯＫＡＲＯ,,その他の設立登記法人,長崎県,平戸市,崎方町７７６番地６平戸ターミナル１Ｆ,,42,207,8595104,,,2025-01-16,登記官による閉鎖,,,2015-10-05,1,,,,,,0
2886,9350001012364,登記記録の閉鎖等,0,2025-01-16,2025-01-10,株式会社メイク,,株式会社,宮崎県,宮崎市,大塚台東１丁目４２番地５１ル・グラン大塚台９０１号,,45,201,8800952,,,2025-01-10,清算の結了等,,,2015-10-05,1,,,,,メイク,0
2894,9380001011850,登記記録の閉鎖等,0,2025-01-16,2025-01-06,株式会社三柏工業ハウス,,株式会社,福島県,須賀川市,大町１０４番地,,07,207,9620839,,,2025-01-06,合併による解散等,9380001011933,令和７年１月１日福島県須賀川市大町１０４番地三柏工業株式会社（9380001011933）に合併し解散,2015-10-05,1,,,,,サンパクコウギョウハウス,0
2903,9470001013292,登記記録の閉鎖等,0,2025-01-16,2025-01-14,近藤商事株式会社,,株式会社,香川県,高松市,伏石町９９６番地１１,,37,201,7618071,,,2025-01-14,清算の結了等,,,2015-10-05,1,,,,,コンドウショウジ,0
2904,9470002003978,登記記録の閉鎖等,0,2025-01-16,2025-01-14,有限会社瀬戸内商会,00005274,有限会社,香川県,高松市,神在川窪町６８０番地１,,37,201,7618003,,,2025-01-14,合併による解散等,7140001080104,令和７年１月１日兵庫県伊丹市森本八丁目７４番地２柳金属産業株式会社（7140001080104）に合併し解散,2015-10-05,1,,,,,セトウチショウカイ,0
2905,9500005007626,登記記録の閉鎖等,0,2025-01-16,2025-01-10,税理士法人木原事務所,,その他の設立登記法人,愛媛県,今治市,桜井５丁目１１番３９号,,38,202,7991522,,,2025-01-10,清算の結了等,,,2015-10-05,1,,,,,キハラジムショ,0
