sequenceNumber,corporateNumber,process,correct,updateDate,changeDate,name,nameImageId,kind,prefectureName,cityName,streetNumber,addressImageId,prefectureCode,cityCode,postCode,addressOutside,addressOutsideImageId,closeDate,closeCause,successorCorporateNumber,changeCause,assignmentDate,latest,enName,enPrefectureName,enCityName,enAddressOutside,furigana,hihyoji
1,1000020119091,新規,0,2025-06-30,2025-06-30,川島桶川資源循環組合,,地方公共団体,埼玉県,比企郡川島町,大字平沼１１７５,,11,346,3500131,,,,,,,2025-06-30,1,,,,,カワジマオケガワシゲンジュンカンクミアイ,0
12,1010001256259,新規,0,2025-06-30,2025-06-30,東三才株式会社,,株式会社,東京都,中央区,京橋２丁目６番１５号ＭＣＡ京橋ビル３Ｆ,,13,102,1040031,,,,,,,2025-06-30,1,,,,,トウサンザイ,0
13,1010001256309,新規,0,2025-06-30,2025-06-30,株式会社ＭＩＺＯＸ,,株式会社,東京都,千代田区,神田錦町３丁目２１,,13,101,1010054,,,,,,,2025-06-30,1,,,,,ミゾックス,0
14,1010001256341,新規,0,2025-06-30,2025-06-30,株式会社ひのと,,株式会社,東京都,中央区,日本橋人形町２丁目３４－１１,,13,102,1030013,,,,,,,2025-06-30,1,,,,,ヒノト,0
15,1010001256374,新規,0,2025-06-30,2025-06-30,株式会社ＳＥＩＲＹＯホールディングス,,株式会社,東京都,千代田区,岩本町３丁目１番９号ＮｏｖｅｌＷｏｒｋＩｗａｍｏｔｏｃｈｏ３階,,13,101,1010032,,,,,,,2025-06-30,1,,,,,セイリョウホールディングス,0
16,1010001256382,新規,0,2025-06-30,2025-06-30,青海精材株式会社,,株式会社,東京都,中央区,入船２丁目１０番７号,,13,102,1040042,,,,,,,2025-06-30,1,,,,,アオミセイザイ,0
20,1010003047805,新規,0,2025-06-30,2025-06-30,合同会社Ａｍｙ,,合同会社,東京都,中央区,銀座１丁目１２番４号Ｎ＆Ｅ・ＢＬＤ．６Ｆ,,13,102,1040061,,,,,,,2025-06-30,1,,,,,エミー,0
21,1010003047813,新規,0,2025-06-30,2025-06-30,ＤＨ町田プロジェクト合同会社,,合同会社,東京都,千代田区,内神田１丁目３番７号４０１あすな会計事務所内,,13,101,1010047,,,,,,,2025-06-30,1,,,,,ディーエイチマチダプロジェクト,0
22,1010003047846,新規,0,2025-06-30,2025-06-30,ＡＳＰＲテクノロジージャパン合同会社,,合同会社,東京都,千代田区,丸の内２丁目３番２号郵船ビルディング１階,,13,101,1000005,,,,,,,2025-06-30,1,,,,,エーエスピーアールテクノロジージャパン,0
23,1010005040270,新規,0,2025-06-30,2025-06-30,一般社団法人シルバー,,その他の設立登記法人,東京都,千代田区,二番町３番地麹町スクエア株式会社シリウス・アドバイザリー内,,13,101,1020084,,,,,,,2025-06-30,1,,,,,シルバー,0
27,1010401191320,新規,0,2025-06-30,2025-06-30,ＳＮＰ株式会社,,株式会社,東京都,港区,南青山３丁目８番４０号,,13,103,1070062,,,,,,,2025-06-30,1,,,,,エスエヌピー,0
28,1010401191329,新規,0,2025-06-30,2025-06-30,株式会社Ｔ‐Ｐｒｉｓｍ,,株式会社,東京都,港区,北青山１丁目３－３三橋ビル３階,,13,103,1070061,,,,,,,2025-06-30,1,,,,,ティープリズム,0
29,1010401191361,新規,0,2025-06-30,2025-06-30,株式会社ＬＴＧ　Ｌａｂ,,株式会社,東京都,港区,南青山３丁目１番３６号青山丸竹ビル６Ｆ,,13,103,1070062,,,,,,,2025-06-30,1,,,,,エルティージーラボ,0
32,1010403035459,新規,0,2025-06-30,2025-06-30,タイフーンヒル・ジャパン合同会社,,合同会社,東京都,港区,六本木６丁目１０番１号,,13,103,1060032,,,,,,,2025-06-30,1,,,,,タイフーンヒルジャパン,0
37,1010601067493,新規,0,2025-06-30,2025-06-30,株式会社ＯＤＳ　Ｊａｐａｎ,,株式会社,東京都,江東区,亀戸３丁目６２番１０号ＳＡＮビル５０５号室,,13,108,1360071,,,,,,,2025-06-30,1,,,,,オーディエスジャパン,0
39,1010703007785,新規,0,2025-06-30,2025-06-30,合同会社トレノバ,,合同会社,東京都,品川区,北品川３丁目５－２０－１０５,,13,109,1400001,,,,,,,2025-06-30,1,,,,,トレノバ,0
47,1010901057657,新規,0,2025-06-30,2025-06-30,株式会社雨音,,株式会社,東京都,世田谷区,若林４丁目２５－１４コーナー松陰２Ｆ,,13,112,1540023,,,,,,,2025-06-30,1,,,,,アマオト,0
49,1010903010036,新規,0,2025-06-30,2025-06-30,合同会社Ｓｅｖｅｎ　Ｓｅａｓ　Ｃｏｍｐａｎｙ,,合同会社,東京都,世田谷区,太子堂４丁目１８番１５号マガザン三軒茶屋２・３Ｆ－３,,13,112,1540004,,,,,,,2025-06-30,1,,,,,セブンシーズカンパニー,0
50,1010903010044,新規,0,2025-06-30,2025-06-30,ＨＹＰＥ　ＳＴＡＮＤＡＲＤ合同会社,,合同会社,東京都,世田谷区,代沢２丁目３―２０―Ａ,,13,112,1550032,,,,,,,2025-06-30,1,,,,,ハイプスタンダード,0
54,1011001170441,新規,0,2025-06-30,2025-06-30,株式会社ＢｉｊｉＢｏ,,株式会社,東京都,目黒区,中目黒２丁目８番５号フラワープレイス３０１,,13,110,1530061,,,,,,,2025-06-30,1,,,,,ビジボ,0
55,1011001170458,新規,0,2025-06-30,2025-06-30,ＰＩＣＯ　ＰＡＲＫ株式会社,,株式会社,東京都,渋谷区,神宮前５丁目２２番２号,,13,113,1500001,,,,,,,2025-06-30,1,,,,,ピコパーク,0
57,1011003021865,新規,0,2025-06-30,2025-06-30,合同会社黒松貴宝堂,,合同会社,東京都,目黒区,上目黒３丁目２７－１７サクラノキテラス中目黒０３,,13,110,1530051,,,,,,,2025-06-30,1,,,,,クロマツキホウドウ,0
58,1011003021873,新規,0,2025-06-30,2025-06-30,合同会社Ｒｏｏ＆Ｎｙａ,,合同会社,東京都,渋谷区,富ヶ谷２丁目１１番１２号クリケットヒル富ヶ谷１０６,,13,113,1510063,,,,,,,2025-06-30,1,,,,,ルーアンドニャー,0
62,1011101112277,新規,0,2025-06-30,2025-06-30,Ｗｈｉｓｔｅ株式会社,,株式会社,東京都,新宿区,西新宿３丁目３番１３号西新宿水間ビル２Ｆ,,13,104,1600023,,,,,,,2025-06-30,1,,,,,ウィステ,0
63,1011101112293,新規,0,2025-06-30,2025-06-30,株式会社ＴＯＫＹＯリカバリー,,株式会社,東京都,新宿区,西新宿７丁目１０番７号加賀谷ビル９階,,13,104,1600023,,,,,,,2025-06-30,1,,,,,トーキョーリカバリー,0
64,1011105011491,新規,0,2025-06-30,2025-06-30,一般社団法人ＦＲＧ,,その他の設立登記法人,東京都,新宿区,四谷２丁目９番地１５東京ユナイテッド綜合事務所内,,13,104,1600004,,,,,,,2025-06-30,1,,,,,エフアールジー,0
65,1011203004744,新規,0,2025-06-30,2025-06-30,合同会社Ｉｎｖｉｃｔｕｓ　ＰＩＣ,,合同会社,東京都,中野区,本町５丁目２９－５三田新中野コーポ２０３,,13,114,1640012,,,,,,,2025-06-30,1,,,,,インビクタスピック,0
69,1011601028758,新規,0,2025-06-30,2025-06-30,桃源株式会社,,株式会社,東京都,練馬区,春日町４丁目３６番３６号サンライズ春日１０２号室,,13,120,1790074,,,,,,,2025-06-30,1,,,,,トウゲン,0
80,1012403007198,新規,0,2025-06-30,2025-06-30,合同会社ＫｕＮｅｒＡｓｂ,,合同会社,東京都,武蔵野市,吉祥寺東町４丁目１７番１４号,,13,203,1800002,,,,,,,2025-06-30,1,,,,,クネラソ,0
81,1012403007207,新規,0,2025-06-30,2025-06-30,合同会社ＲＨＥＡ,,合同会社,東京都,武蔵野市,吉祥寺本町４丁目１―１５―２０５,,13,203,1800004,,,,,,,2025-06-30,1,,,,,レア,0
101,1030003026930,新規,0,2025-06-30,2025-06-30,合同会社アップ,,合同会社,埼玉県,富士見市,鶴瀬西２丁目９番地３号,,11,235,3540026,,,,,,,2025-06-30,1,,,,,アップ,0
108,1040001139394,新規,0,2025-06-30,2025-06-30,株式会社ＭＥＩＷＡＴＥＮ,,株式会社,千葉県,四街道市,めいわ３丁目１３番４号,,12,228,2840043,,,,,,,2025-06-30,1,,,,,メイワテン,0
109,1040001139436,新規,0,2025-06-30,2025-06-30,房総クラフトワークス株式会社,,株式会社,千葉県,南房総市,久枝７０２番地１,,12,234,2992216,,,,,,,2025-06-30,1,,,,,ボウソウクラフトワークス,0
110,1050001056861,新規,0,2025-06-30,2025-06-30,株式会社イニシャルオート,,株式会社,茨城県,水戸市,元石川町６５７番地の４,,08,201,3100843,,,,,,,2025-06-30,1,,,,,,0
120,1080103003362,新規,0,2025-06-30,2025-06-30,アラシ合同会社,,合同会社,静岡県,沼津市,岡一色５０９番地,,22,203,4100012,,,,,,,2025-06-30,1,,,,,アラシ,0
124,1090001019328,新規,0,2025-06-30,2025-06-30,株式会社フィールドバード,,株式会社,山梨県,甲府市,白井町１３９８番地,,19,201,4001502,,,,,,,2025-06-30,1,,,,,フィールドバード,0
126,1100003008252,新規,0,2025-06-30,2025-06-30,合同会社ｎｅｏ　ｔｏｐｉｏ,,合同会社,長野県,上田市,中央４丁目１７番１号,,20,203,3860012,,,,,,,2025-06-30,1,,,,,ネオトピオ,0
140,1120001277145,新規,0,2025-06-30,2025-06-30,株式会社教映社ホールディングス,,株式会社,大阪府,枚方市,山之上５丁目１７番８号,,27,210,5730047,,,,,,,2025-06-30,1,,,,,キョウエイシャホールディングス,0
141,1120001277211,新規,0,2025-06-30,2025-06-30,水滸商事株式会社,,株式会社,大阪府,大阪市港区,八幡屋３丁目５－１－３０４号室,,27,107,5520014,,,,,,,2025-06-30,1,,,,,スイコショウジ,0
142,1120001277293,新規,0,2025-06-30,2025-06-30,ＮｅｉＲｉｎ株式会社,,株式会社,大阪府,大阪市生野区,新今里６丁目３番１０－１０２号室,,27,116,5440001,,,,,,,2025-06-30,1,,,,,ネイリン,0
143,1120001277310,新規,0,2025-06-30,2025-06-30,株式会社金沢塗装,,株式会社,大阪府,大阪市生野区,鶴橋５丁目７番７号,,27,116,5440031,,,,,,,2025-06-30,1,,,,,カナザワトソウ,0
153,1120901051095,新規,0,2025-06-30,2025-06-30,株式会社ＴＡＫＥ,,株式会社,大阪府,摂津市,正雀本町２丁目２９番１８号１号室,,27,224,5660024,,,,,,,2025-06-30,1,,,,,テイク,0
154,1120901051112,新規,0,2025-06-30,2025-06-30,株式会社Ｔ＆Ｎ田中ビル,,株式会社,大阪府,豊中市,向丘１丁目７番１１号,,27,203,5600053,,,,,,,2025-06-30,1,,,,,ティーアンドエヌタナカビル,0
155,1120901051120,新規,0,2025-06-30,2025-06-30,株式会社Ｖａｃａｎｔ　Ｈｏｕｓｉｎｇ,,株式会社,大阪府,箕面市,小野原東１丁目１１－９シティハイムエクセレント１０２,,27,220,5620031,,,,,,,2025-06-30,1,,,,,ベイキャントハウジング,0
156,1120901051129,新規,0,2025-06-30,2025-06-30,株式会社ｄｏｔｓ　ｏｎｅ,,株式会社,大阪府,吹田市,豊津町３６番１５号ＴＯＹＯＴＳＵＢＡＳＥ１－Ｂ,,27,205,5640051,,,,,,,2025-06-30,1,,,,,ドッツワン,0
158,1120903005727,新規,0,2025-06-30,2025-06-30,合同会社トポロゲイズ,,合同会社,大阪府,豊中市,庄内西町３丁目１３番１０号１階,,27,203,5610832,,,,,,,2025-06-30,1,,,,,トポロゲイズ,0
162,1130001079937,新規,0,2025-06-30,2025-06-30,和美家株式会社,,株式会社,京都府,京都市左京区,上高野仲町１番地１,,26,103,6060044,,,,,,,2025-06-30,1,,,,,ワビヤ,0
168,1140001139046,新規,0,2025-06-30,2025-06-30,株式会社スペースレス,,株式会社,兵庫県,神戸市須磨区,神の谷５丁目１０番１２号,,28,107,6540162,,,,,,,2025-06-30,1,,,,,スペースレス,0
169,1140001139087,新規,0,2025-06-30,2025-06-30,盛合株式会社,,株式会社,兵庫県,揖保郡太子町,東出７９番１－２０５号,,28,464,6711521,,,,,,,2025-06-30,1,,,,,セイゴウ,0
170,1140001139112,新規,0,2025-06-30,2025-06-30,プロ・クリエイティブ株式会社,,株式会社,兵庫県,神戸市須磨区,天神町３丁目２番４０号,,28,107,6540053,,,,,,,2025-06-30,1,,,,,プロクリエイティブ,0
181,1180001167464,新規,0,2025-06-30,2025-06-30,ＨＴＵ株式会社,,株式会社,愛知県,津島市,唐臼町大門４９番地３,,23,208,4960026,,,,,,,2025-06-30,1,,,,,エイチチユ,0
184,1180003028689,新規,0,2025-06-30,2025-06-30,ナセラボ合同会社,,合同会社,愛知県,名古屋市緑区,乗鞍１丁目１８１１番地の１徳重団地２棟１０５号,,23,114,4580004,,,,,,,2025-06-30,1,,,,,ナセラボ,0
186,1190003005092,新規,0,2025-06-30,2025-06-30,合同会社暁農事,,合同会社,三重県,伊賀市,上友田４３３番地,,24,216,5181303,,,,,,,2025-06-30,1,,,,,アカツキノウジ,0
188,1200001043943,新規,0,2025-06-30,2025-06-30,株式会社Ｇ・Ｓ,,株式会社,岐阜県,岐阜市,茜部菱野２丁目６２番地１,,21,201,5008268,,,,,,,2025-06-30,1,,,,,ジーエス,0
191,1240001065117,新規,0,2025-06-30,2025-06-30,株式会社Ｅｔｅｒｎａｌ　Ｋｎｉｇｈｔ,,株式会社,広島県,広島市南区,元宇品町２５番１－６０７号ベイサイドパレス宇品,,34,103,7340012,,,,,,,2025-06-30,1,,,,,エターナルナイト,0
198,1260001040308,新規,0,2025-06-30,2025-06-30,株式会社ビッグウェーブ,,株式会社,岡山県,総社市,三須５０７番地３１,,33,208,7191124,,,,,,,2025-06-30,1,,,,,ビッグウェーブ,0
199,1270001009228,新規,0,2025-06-30,2025-06-30,ＳＦＳＴ００２株式会社,,株式会社,鳥取県,米子市,錦町３丁目１１番地,,31,202,6830811,,,,,,,2025-06-30,1,,,,,エスエフエスティゼロゼロニ,0
205,1290001110578,新規,0,2025-06-30,2025-06-30,Ｉｔｏｓｈｉｍａ　Ｃｒｏｓｓｉｎｇ株式会社,,株式会社,福岡県,糸島市,志摩井田原２５１－１,,40,230,8191301,,,,,,,2025-06-30,1,,,,,イトシマクロシング,0
206,1290003017045,新規,0,2025-06-30,2025-06-30,合同会社ＥＳＰ,,合同会社,福岡県,福岡市東区,馬出１丁目２０番３－１０２号,,40,131,8120054,,,,,,,2025-06-30,1,,,,,イーエスピー,0
208,1290803005091,新規,0,2025-06-30,2025-06-30,合同会社ｍａｔｓｕｍｏｔｏ,,合同会社,福岡県,北九州市八幡西区,光貞台１丁目３番１７号,,40,109,8070805,,,,,,,2025-06-30,1,,,,,マツモト,0
227,1370001052754,新規,0,2025-06-30,2025-06-30,街づくりサポート株式会社,,株式会社,宮城県,仙台市青葉区,一番町３丁目１番２４号,,04,101,9800811,,,,,,,2025-06-30,1,,,,,マチヅクリサポート,0
228,1370003007161,新規,0,2025-06-30,2025-06-30,合同会社ツナらいふ,,合同会社,宮城県,塩竈市,後楽町１３番６号,,04,203,9850067,,,,,,,2025-06-30,1,,,,,ツナライフ,0
232,1400001017084,新規,0,2025-06-30,2025-06-30,株式会社ＲｅＣＳ,,株式会社,岩手県,奥州市,水沢字内匠田８番地８,,03,215,0230891,,,,,,,2025-06-30,1,,,,,レックス,0
233,1420001019194,新規,0,2025-06-30,2025-06-30,株式会社ＱＱＱ,,株式会社,青森県,三戸郡三戸町,大字川守田字西松原３６番地１レッドルーフ松原２号,,02,441,0390141,,,,,,,2025-06-30,1,,,,,サンキュー,0
240,1430003017823,新規,0,2025-06-30,2025-06-30,合同会社ノースフレンズ,,合同会社,北海道,札幌市豊平区,美園一条２丁目２番２２号,,01,105,0620001,,,,,,,2025-06-30,1,,,,,ノースフレンズ,0
243,1460105002316,新規,0,2025-06-30,2025-06-30,一般社団法人Ｅｓｕｆｉ‐Ｐｒｏｍｏｔｅ,,その他の設立登記法人,北海道,河東郡音更町,雄飛が丘北区１番地２３８,,01,631,0800331,,,,,,,2025-06-30,1,,,,,エスフィープロモート,0
251,1500001026372,新規,0,2025-06-30,2025-06-30,株式会社よつば会計,,株式会社,愛媛県,松山市,余戸東１丁目１番１３号２Ｆ,,38,201,7900044,,,,,,,2025-06-30,1,,,,,ヨツバカイケイ,0
253,1700150131283,新規,0,2025-06-30,2025-06-30,植月東地区会,,その他,岡山県,勝田郡勝央町,植月東６８８番地１植月東コミュニティハウス内,,33,622,7094332,,,,,,,2025-06-30,1,,,,,ウエツキヒガシチクカイ,0
267,2010001255961,新規,0,2025-06-30,2025-06-30,株式会社Ｎｅｘａｌｉｓ,,株式会社,東京都,中央区,新富１丁目５番５号４Ｆ,,13,102,1040041,,,,,,,2025-06-30,1,,,,,ネクサリス,0
268,2010001256266,新規,0,2025-06-30,2025-06-30,Ｎｉｓｓｉｎ　Ｅｘｐｒｅｓｓ株式会社,,株式会社,東京都,中央区,日本橋馬喰町１丁目６番１７号,,13,102,1030002,,,,,,,2025-06-30,1,,,,,ニッシンエクスプレス,0
269,2010001256299,新規,0,2025-06-30,2025-06-30,株式会社ｎｕａ,,株式会社,東京都,中央区,銀座１丁目２２番１１号銀座大竹ビジデンス２Ｆ,,13,102,1040061,,,,,,,2025-06-30,1,,,,,ヌア,0
270,2010001256316,新規,0,2025-06-30,2025-06-30,株式会社ＤｉｏｒａＴｅｃｈ,,株式会社,東京都,千代田区,神田須田町１丁目７番８号ＶＯＲＴ秋葉原ＩＶ２Ｆ,00139741,13,101,1010041,,,,,,,2025-06-30,1,,,,,ディオーラテック,0
271,2010001256324,新規,0,2025-06-30,2025-06-30,株式会社ＮＧホールディングス,,株式会社,東京都,中央区,湊３丁目１１番６号,,13,102,1040043,,,,,,,2025-06-30,1,,,,,エヌジーホールディングス,0
286,2010401191294,新規,0,2025-06-30,2025-06-30,株式会社ファインダーズＡＩジャパン,,株式会社,東京都,港区,虎ノ門５丁目１３番１号,,13,103,1050001,,,,,,,2025-06-30,1,,,,,ファインダーズエーアイジャパン,0
287,2010401191344,新規,0,2025-06-30,2025-06-30,株式会社あすかキャピタル,,株式会社,東京都,港区,赤坂８丁目２－７－２０３,,13,103,1070052,,,,,,,2025-06-30,1,,,,,アスカキャピタル,0
290,2010403035391,新規,0,2025-06-30,2025-06-30,合同会社Ｔｅｎｄｅｒ,,合同会社,東京都,港区,六本木３丁目１０番１１号青木ビル２階,,13,103,1060032,,,,,,,2025-06-30,1,,,,,テンダー,0
291,2010403035466,新規,0,2025-06-30,2025-06-30,合同会社ジャパン・アイリス,,合同会社,東京都,港区,虎ノ門３丁目２２番１０－２０１号,,13,103,1050001,,,,,,,2025-06-30,1,,,,,ジャパンアイリス,0
297,2010405024491,新規,0,2025-06-30,2025-06-30,一般社団法人東京リビルド協会,,その他の設立登記法人,東京都,港区,六本木７丁目７番７号,,13,103,1060032,,,,,,,2025-06-30,1,,,,,トウキョウリビルドキョウカイ,0
298,2010601067492,新規,0,2025-06-30,2025-06-30,株式会社バランス,,株式会社,東京都,墨田区,立川１丁目１４番４号１階,,13,107,1300023,,,,,,,2025-06-30,1,,,,,バランス,0
299,2010603011639,新規,0,2025-06-30,2025-06-30,合同会社野口総合研究所,,合同会社,東京都,江東区,塩浜２丁目１８番７号７１２,,13,108,1350043,,,,,,,2025-06-30,1,,,,,ノグチソウゴウケンキュウジョ,0
300,2010603011647,新規,0,2025-06-30,2025-06-30,合同会社やしざる,,合同会社,東京都,江東区,常盤２丁目１２番６号名花堂ビル４０６,,13,108,1350006,,,,,,,2025-06-30,1,,,,,ヤシザル,0
308,2010801036289,新規,0,2025-06-30,2025-06-30,ａｉｄｅ株式会社,,株式会社,東京都,大田区,東雪谷３丁目１２番１９号,,13,111,1450065,,,,,,,2025-06-30,1,,,,,エーデ,0
310,2010901057598,新規,0,2025-06-30,2025-06-30,株式会社ＡＦＡＮＳ,,株式会社,東京都,世田谷区,上用賀１丁目２６番地４号グランストーリー用賀ＩＩ１０１号室,00139732,13,112,1580098,,,,,,,2025-06-30,1,,,,,アファンズ,0
311,2010901057656,新規,0,2025-06-30,2025-06-30,エイチ・オー・ワークス株式会社,,株式会社,東京都,世田谷区,深沢２丁目１番１３号Ｋ棟１１０３,,13,112,1580081,,,,,,,2025-06-30,1,,,,,エイチオーワークス,0
313,2010905004786,新規,0,2025-06-30,2025-06-30,一般社団法人越境イニシアチブ,,その他の設立登記法人,東京都,世田谷区,太子堂４丁目１８番１５号マガザン三軒茶屋２－３Ｆ－３,,13,112,1540004,,,,,,,2025-06-30,1,,,,,エッキョウイニシアチブ,0
318,2011001170837,新規,0,2025-06-30,2025-06-30,株式会社モモンガ,,株式会社,東京都,渋谷区,代々木１丁目２７番１４号,,13,113,1510053,,,,,,,2025-06-30,1,,,,,モモンガ,0
319,2011003021864,新規,0,2025-06-30,2025-06-30,合同会社Ｓｙｎｅｒｇｙ　Ａｌｉｖｅ,,合同会社,東京都,目黒区,下目黒４丁目１６番１号,,13,110,1530064,,,,,,,2025-06-30,1,,,,,シナジーアライブ,0
321,2011101112251,新規,0,2025-06-30,2025-06-30,株式会社ＰＩＡＦＩＴ,,株式会社,東京都,新宿区,西新宿３丁目３番１３号西新宿水間ビル２Ｆ,,13,104,1600023,,,,,,,2025-06-30,1,,,,,ピアフィット,0
322,2011201026475,新規,0,2025-06-30,2025-06-30,株式会社オクトパス＆リアル,,株式会社,東京都,中野区,中野１丁目３０番８号,,13,114,1640001,,,,,,,2025-06-30,1,,,,,オクトパスアンドリアル,0
326,2011501032264,新規,0,2025-06-30,2025-06-30,株式会社エムズ,,株式会社,東京都,北区,志茂３丁目３６番６号,,13,117,1150042,,,,,,,2025-06-30,1,,,,,エムズ,0
327,2011701028475,新規,0,2025-06-30,2025-06-30,碧莱薇株式会社,00139735,株式会社,東京都,江戸川区,平井５丁目４５番５号渡辺ハイツ１０１,,13,123,1320035,,,,,,,2025-06-30,1,,,,,ヘキライビ,0
341,2012801024067,新規,0,2025-06-30,2025-06-30,株式会社アソブナラ,,株式会社,東京都,国分寺市,戸倉３丁目７番２２号地,,13,214,1850003,,,,,,,2025-06-30,1,,,,,アソブナラ,0
344,2013301054538,新規,0,2025-06-30,2025-06-30,株式会社希匠,,株式会社,東京都,豊島区,東池袋２丁目６２－８ＢＩＧオフィスプラザ池袋１２０６,,13,116,1700013,,,,,,,2025-06-30,1,,,,,キショウ,0
348,2020001163569,新規,0,2025-06-30,2025-06-30,株式会社ＧＡＭＡＤＡＳ,,株式会社,神奈川県,横浜市中区,真砂町３丁目３１アクティオーレ関内７Ｆ,,14,104,2310016,,,,,,,2025-06-30,1,,,,,ガマダス,0
360,2040001139402,新規,0,2025-06-30,2025-06-30,株式会社岡田電気,,株式会社,千葉県,鴨川市,花房９９０番地２４,,12,223,2960032,,,,,,,2025-06-30,1,,,,,オカダデンキ,0
361,2040001139435,新規,0,2025-06-30,2025-06-30,株式会社Ｋ　ａｎｄ　Ｍｓ,,株式会社,千葉県,富津市,八幡１６２番地１,,12,226,2930056,,,,,,,2025-06-30,1,,,,,ケーアンドエムズ,0
375,2100005013365,新規,0,2025-06-30,2025-06-30,一般社団法人山と暮らそう,,その他の設立登記法人,長野県,木曽郡木曽町,開田高原末川２７６４番地５,,20,432,3970301,,,,,,,2025-06-30,1,,,,,ヤマトクラソウ,0
387,2120001277210,新規,0,2025-06-30,2025-06-30,ＤＯＭＯ株式会社,,株式会社,大阪府,大阪市中央区,南船場３丁目４番２１号１階１号,,27,128,5420081,,,,,,,2025-06-30,1,,,,,ドモ,0
388,2120001277326,新規,0,2025-06-30,2025-06-30,ゴエツ商事株式会社,,株式会社,大阪府,大阪市生野区,舎利寺３丁目３番２１号２階,,27,116,5440022,,,,,,,2025-06-30,1,,,,,ゴエツショウジ,0
389,2120001277342,新規,0,2025-06-30,2025-06-30,株式会社ちゃわん,,株式会社,大阪府,大阪市北区,中之島６丁目１番３８－５３１１号,,27,127,5300005,,,,,,,2025-06-30,1,,,,,チャワン,0
390,2120001277359,新規,0,2025-06-30,2025-06-30,株式会社ＫＹ,,株式会社,大阪府,大阪市北区,梅田１丁目１－３大阪駅前第３ビル２９階１－１－１号室,,27,127,5300001,,,,,,,2025-06-30,1,,,,,ケーワイ,0
392,2120003029808,新規,0,2025-06-30,2025-06-30,合同会社ヴェリンク,,合同会社,大阪府,大阪市北区,梅田１丁目２番２号大阪駅前第２ビル１２－１２,,27,127,5300001,,,,,,,2025-06-30,1,,,,,ヴェリンク,0
393,2120003029881,新規,0,2025-06-30,2025-06-30,博泉合同会社,,合同会社,大阪府,大阪市中央区,北久宝寺町４丁目３番８－１００５号,,27,128,5410057,,,,,,,2025-06-30,1,,,,,ハクセン,0
403,2120901051094,新規,0,2025-06-30,2025-06-30,株式会社トラフィール,,株式会社,大阪府,茨木市,総持寺駅前町８番２０号総持寺駅前グリーンハイツ１号室,,27,211,5670802,,,,,,,2025-06-30,1,,,,,トラフィール,0
404,2120901051103,新規,0,2025-06-30,2025-06-30,株式会社Ｃｒｅａｔｉｖｅ　Ｐｌａｎｎｉｎｇ,,株式会社,大阪府,豊中市,宝山町５番１０－３０３号,,27,203,5610893,,,,,,,2025-06-30,1,,,,,クリエイティブプランニング,0
405,2120901051111,新規,0,2025-06-30,2025-06-30,株式会社ＯＮＥ　ｐａｔｔｅｒｎｍａｋｅｒ,,株式会社,大阪府,豊中市,中桜塚５丁目１６番３号,,27,203,5610881,,,,,,,2025-06-30,1,,,,,ワンパターンメーカー,0
406,2120901051128,新規,0,2025-06-30,2025-06-30,株式会社ケイエス,,株式会社,大阪府,豊中市,春日町２丁目１７番１０号,,27,203,5600052,,,,,,,2025-06-30,1,,,,,ケイエス,0
407,2120903005726,新規,0,2025-06-30,2025-06-30,合同会社Ｔｏｗｂｏｌ,,合同会社,大阪府,吹田市,円山町５２番３１号,,27,205,5640061,,,,,,,2025-06-30,1,,,,,トゥーボル,0
413,2122001039375,新規,0,2025-06-30,2025-06-30,株式会社ＫＥＭＡ,,株式会社,大阪府,八尾市,久宝寺３丁目１５番５７号,,27,212,5810072,,,,,,,2025-06-30,1,,,,,ケマ,0
414,2122001039383,新規,0,2025-06-30,2025-06-30,ＴＲＡＳＳ株式会社,,株式会社,大阪府,東大阪市,小若江３丁目６番９号（ＫＩＮＣＵＢＡＢａｓｅｃａｍｐ内）,,27,227,5770818,,,,,,,2025-06-30,1,,,,,トラス,0
418,2130003010576,新規,0,2025-06-30,2025-06-30,合同会社ＭＯＲＩＹＡ,,合同会社,京都府,京都市山科区,西野山百々町５０番地１１,,26,110,6078301,,,,,,,2025-06-30,1,,,,,モリヤ,0
422,2140003022232,新規,0,2025-06-30,2025-06-30,合同会社ＳＡＮＫＩ,,合同会社,兵庫県,西宮市,若松町３－２デュオ・リビエール夙川２０２,,28,204,6620035,,,,,,,2025-06-30,1,,,,,サンキ,0
424,2150001028214,新規,0,2025-06-30,2025-06-30,ソレイユホールディングス株式会社,,株式会社,奈良県,生駒郡平群町,上庄１丁目５番８号,,29,342,6360905,,,,,,,2025-06-30,1,,,,,ソレイユホールディングス,0
425,2160001026860,新規,0,2025-06-30,2025-06-30,株式会社金子商会,,株式会社,滋賀県,高島市,マキノ町西浜２３５番地１,,25,212,5201812,,,,,,,2025-06-30,1,,,,,カネコショウカイ,0
426,2170001018683,新規,0,2025-06-30,2025-06-30,株式会社夢咲志,,株式会社,和歌山県,有田郡有田川町,大字丹生１２８番地１,,30,366,6430175,,,,,,,2025-06-30,1,,,,,ムサシ,0
433,2180001167389,新規,0,2025-06-30,2025-06-30,株式会社ＲＥＹＳ　ＪＡＰＡＮ,,株式会社,愛知県,名古屋市東区,葵１丁目２番２０号シティタワー葵４１７号,,23,102,4610004,,,,,,,2025-06-30,1,,,,,レイエスジャパン,0
434,2180001167455,新規,0,2025-06-30,2025-06-30,Ｗｏｎｄｅｒｆｕｌ　Ｌｉｆｅ　ＨＤ株式会社,,株式会社,愛知県,常滑市,字中椎田２４番地の１２,,23,216,4790033,,,,,,,2025-06-30,1,,,,,ワンダフルライフホールディングス,0
440,2200001043942,新規,0,2025-06-30,2025-06-30,株式会社いろどり,,株式会社,岐阜県,美濃市,広岡町２５６４番地１２,,21,207,5013732,,,,,,,2025-06-30,1,,,,,イロドリ,0
441,2200001043950,新規,0,2025-06-30,2025-06-30,株式会社上吉工業,00139750,株式会社,岐阜県,本巣郡北方町,高屋清流６丁目４７番地,,21,421,5010459,,,,,,,2025-06-30,1,,,,,ウエヨシコウギョウ,0
448,2240001065124,新規,0,2025-06-30,2025-06-30,株式会社膳坊,,株式会社,広島県,広島市中区,十日市町２丁目１番２５－３１２号,,34,101,7300805,,,,,,,2025-06-30,1,,,,,ゼンボウ,0
451,2260001040307,新規,0,2025-06-30,2025-06-30,Ｍｏｍｏｎｏ　Ｔｒａｄｉｎｇ株式会社,,株式会社,岡山県,岡山市北区,本町６－３６第一セントラルビル４Ｆ,,33,101,7000901,,,,,,,2025-06-30,1,,,,,モモノトレーディング,0
453,2270001009227,新規,0,2025-06-30,2025-06-30,ＫＩＳＩＮＤＡ　ＪＡＰＡＮ株式会社,,株式会社,鳥取県,鳥取市,吉成７１５－１－６０９,,31,201,6800864,,,,,,,2025-06-30,1,,,,,キシンダジャパン,0
461,2290001110503,新規,0,2025-06-30,2025-06-30,株式会社ＨＫＫＳ,,株式会社,福岡県,大野城市,大城１丁目３番７号,,40,219,8160911,,,,,,,2025-06-30,1,,,,,エイチケイケイエス,0
476,2360001035395,新規,0,2025-06-30,2025-06-30,株式会社ヤラブの木,,株式会社,沖縄県,宮古島市,平良字池間１１６－３,,47,214,9060421,,,,,,,2025-06-30,1,,,,,ヤラブノキ,0
480,2370001052761,新規,0,2025-06-30,2025-06-30,株式会社Ｓ．,,株式会社,宮城県,仙台市青葉区,立町１４番３号パリスビル,,04,101,9800822,,,,,,,2025-06-30,1,,,,,エスドット,0
491,2490001011086,新規,0,2025-06-30,2025-06-30,株式会社アドバンスファクトリー,,株式会社,高知県,高知市,一宮中町１丁目１番２０号,,39,201,7818134,,,,,,,2025-06-30,1,,,,,アドバンスファクトリー,0
492,2490001011094,新規,0,2025-06-30,2025-06-30,株式会社ｍｅｌｔａ,,株式会社,高知県,高知市,薊野西町３丁目２７番３号,,39,201,7810015,,,,,,,2025-06-30,1,,,,,メルタ,0
500,3010001256224,新規,0,2025-06-30,2025-06-30,株式会社福のめ,,株式会社,東京都,千代田区,神田須田町１丁目７番８号ＶＯＲＴ秋葉原４－２Ｆ,,13,101,1010041,,,,,,,2025-06-30,1,,,,,フクノメ,0
501,3010001256257,新規,0,2025-06-30,2025-06-30,株式会社ＴＩ,,株式会社,東京都,中央区,日本橋茅場町１丁目１３番１３号七宝ビル７階,,13,102,1030025,,,,,,,2025-06-30,1,,,,,ティーアイ,0
502,3010001256397,新規,0,2025-06-30,2025-06-30,エムキャップ十七号株式会社,,株式会社,東京都,千代田区,丸の内２丁目７番２号,,13,101,1000005,,,,,,,2025-06-30,1,,,,,エムキャップジュウナナゴウ,0
506,3010003047794,新規,0,2025-06-30,2025-06-30,合同会社ぱんだまるオフィス,,合同会社,東京都,中央区,勝どき４丁目８番５号,,13,102,1040054,,,,,,,2025-06-30,1,,,,,パンダマルオフィス,0
507,3010003047811,新規,0,2025-06-30,2025-06-30,Ｒスクエア合同会社,,合同会社,東京都,中央区,銀座１丁目１２番４号Ｎ＆ＥＢＬＤ６Ｆ,,13,102,1040061,,,,,,,2025-06-30,1,,,,,アールスクエア,0
508,3010003047844,新規,0,2025-06-30,2025-06-30,ＨＫＢ合同会社,,合同会社,東京都,千代田区,丸の内１丁目４番１号東京共同会計事務所内,,13,101,1000005,,,,,,,2025-06-30,1,,,,,エイチケービー,0
512,3010005040260,新規,0,2025-06-30,2025-06-30,一般社団法人都市土木総合研究所,,その他の設立登記法人,東京都,千代田区,富士見２丁目１０番３－６０９号,,13,101,1020071,,,,,,,2025-06-30,1,,,,,トシドボクソウゴウケンキュウジョ,0
529,3010401191335,新規,0,2025-06-30,2025-06-30,ＴＹＳ　ｃａｐｉｔａｌ株式会社,,株式会社,東京都,港区,赤坂９丁目７番２号ミッドタウン・イースト４階,,13,103,1070052,,,,,,,2025-06-30,1,,,,,ティーワイエスキャピタル,0
533,3010403035036,新規,0,2025-06-30,2025-06-30,コアリンク合同会社,,合同会社,東京都,港区,麻布十番２丁目１１番５号アクシアフォレスタ麻布３１２,,13,103,1060045,,,,,,,2025-06-30,1,,,,,コアリンク,0
537,3010405024524,新規,0,2025-06-30,2025-06-30,ＥＳＲ３７・２一般社団法人,,その他の設立登記法人,東京都,港区,浜松町１丁目２０番１０号ライオネス浜松町５０６号室,,13,103,1050013,,,,,,,2025-06-30,1,,,,,イーエスアールサンジュウナナニ,0
538,3010501054342,新規,0,2025-06-30,2025-06-30,株式会社徳,,株式会社,東京都,台東区,上野７丁目１３－１０クレストフォルム上野グランステージ１３０５,,13,106,1100005,,,,,,,2025-06-30,1,,,,,トク,0
544,3010601067509,新規,0,2025-06-30,2025-06-30,明達情報システム株式会社,,株式会社,東京都,墨田区,両国１丁目１２番１２号塚田ビル３階,,13,107,1300026,,,,,,,2025-06-30,1,,,,,メイタツジョウホウシステム,0
545,3010601067517,新規,0,2025-06-30,2025-06-30,株式会社ＬｏｏＰ　ＵＰ,,株式会社,東京都,墨田区,菊川２丁目２３番１－６０２号,,13,107,1300024,,,,,,,2025-06-30,1,,,,,ループアップ,0
546,3010601067525,新規,0,2025-06-30,2025-06-30,立億株式会社,,株式会社,東京都,江東区,木場５丁目１番５号メイプルハイム木場Ｂ１１１室,,13,108,1350042,,,,,,,2025-06-30,1,,,,,タチオク,0
547,3010603011646,新規,0,2025-06-30,2025-06-30,合同会社ＴＷ,,合同会社,東京都,江東区,東陽１丁目３６番４号,,13,108,1350016,,,,,,,2025-06-30,1,,,,,ティダブリュ,0
549,3010901057655,新規,0,2025-06-30,2025-06-30,株式会社レイ．工務店,,株式会社,東京都,世田谷区,玉川３丁目２０番２号マノア玉川第３ビル５０１号室,,13,112,1580094,,,,,,,2025-06-30,1,,,,,レイコウムテン,0
550,3010901057663,新規,0,2025-06-30,2025-06-30,株式会社よあけブックス,,株式会社,東京都,世田谷区,太子堂４丁目１８番１５号マガザン三軒茶屋２－３Ｆ－３,,13,112,1540004,,,,,,,2025-06-30,1,,,,,ヨアケブックス,0
558,3011001170464,新規,0,2025-06-30,2025-06-30,ルーツオン株式会社,,株式会社,東京都,渋谷区,道玄坂１丁目１６番６号二葉ビル８ｂ,,13,113,1500043,,,,,,,2025-06-30,1,,,,,ルーツオン,0
559,3011001170480,新規,0,2025-06-30,2025-06-30,株式会社ＷＥＮＩＸ　Ｈｏｌｄｉｎｇｓ,,株式会社,東京都,渋谷区,神南１丁目１１番４号ＦＰＧｌｉｎｋｓＪＩＮＮＡＮ５Ｆ,,13,113,1500041,,,,,,,2025-06-30,1,,,,,ウェニックスホールディングス,0
562,3011003021855,新規,0,2025-06-30,2025-06-30,合同会社ベイ,,合同会社,東京都,渋谷区,恵比寿１丁目２１番２－１２０６号,,13,113,1500013,,,,,,,2025-06-30,1,,,,,ベイ,0
577,3011501032255,新規,0,2025-06-30,2025-06-30,株式会社エボルブメディア,,株式会社,東京都,北区,上十条２丁目５番１３号旅ハウス十条２０３－Ａ,,13,117,1140034,,,,,,,2025-06-30,1,,,,,エボルブメディア,0
580,3011503006595,新規,0,2025-06-30,2025-06-30,合同会社Ｂｒｉｇｈｔｅｎ　Ｍｉｎｄｓ,,合同会社,東京都,北区,赤羽西４丁目４９番９号,,13,117,1150055,,,,,,,2025-06-30,1,,,,,ブライトンマインズ,0
585,3012401043284,新規,0,2025-06-30,2025-06-30,株式会社ＳＫＨＭ,,株式会社,東京都,調布市,布田５丁目５８番地２３レオネクストフエキＩＩ２０５,00139749,13,208,1820024,,,,,,,2025-06-30,1,,,,,エスケーエイチエム,0
587,3012803003778,新規,0,2025-06-30,2025-06-30,Ｊｕｎｏ合同会社,,合同会社,東京都,立川市,羽衣町２丁目６１番９号,,13,202,1900021,,,,,,,2025-06-30,1,,,,,ジュノ,0
588,3013103001464,新規,0,2025-06-30,2025-06-30,合同会社ＴＮ　ＧＲＯＵＰ,,合同会社,東京都,福生市,大字熊川５００番地５拝島ハイツ２０２号室,,13,218,1970003,,,,,,,2025-06-30,1,,,,,ティーエヌグループ,0
592,3013301054545,新規,0,2025-06-30,2025-06-30,Ｍｏｓａｈｉｌｌ　Ｐａｒｔｎｅｒｓ株式会社,,株式会社,東京都,豊島区,西巣鴨１丁目２番２２号ＷＡＮＤＡビル２階,,13,116,1700001,,,,,,,2025-06-30,1,,,,,モサヒルパートナーズ,0
608,3040001139401,新規,0,2025-06-30,2025-06-30,株式会社ＯＷＬ　ＥＩＧＨＴ,,株式会社,千葉県,浦安市,日の出６丁目２５番４号,,12,227,2790013,,,,,,,2025-06-30,1,,,,,アウルエイト,0
614,3050003009394,新規,0,2025-06-30,2025-06-30,ＮＹリサイクル合同会社,,合同会社,茨城県,那珂市,菅谷４５００番地,,08,226,3110105,,,,,,,2025-06-30,1,,,,,エヌワイリサイクル,0
628,3120001277291,新規,0,2025-06-30,2025-06-30,金聖濤株式会社,,株式会社,大阪府,大阪市旭区,千林２丁目１３番７号１Ｆ－Ａ,,27,117,5350012,,,,,,,2025-06-30,1,,,,,キンセイトウ,0
629,3120001277300,新規,0,2025-06-30,2025-06-30,Ｊプリント株式会社,,株式会社,大阪府,大阪市北区,梅田１丁目２番２号大阪駅前第２ビル１２－１２,,27,127,5300001,,,,,,,2025-06-30,1,,,,,ジェイプリント,0
630,3120001277358,新規,0,2025-06-30,2025-06-30,ＺＧＲ建設株式会社,,株式会社,大阪府,大阪市都島区,大東町２丁目１１番１１号八坂荘３０１号,,27,102,5340002,,,,,,,2025-06-30,1,,,,,ゼットジーアールケンセツ,0
633,3120003029872,新規,0,2025-06-30,2025-06-30,萬事達合同会社,,合同会社,大阪府,大阪市旭区,大宮４丁目４－７－２０１号室,,27,117,5350002,,,,,,,2025-06-30,1,,,,,マンジタツ,0
640,3120901051102,新規,0,2025-06-30,2025-06-30,株式会社３ＴＯ,,株式会社,大阪府,吹田市,古江台１丁目１０番１号,,27,205,5650874,,,,,,,2025-06-30,1,,,,,サント,0
641,3120903005725,新規,0,2025-06-30,2025-06-30,合同会社バンドワゴン,,合同会社,大阪府,箕面市,萱野１丁目６番２８号,,27,220,5620014,,,,,,,2025-06-30,1,,,,,バンドワゴン,0
642,3120903005733,新規,0,2025-06-30,2025-06-30,合同会社ＵＴＡＧＥ,,合同会社,大阪府,豊中市,服部西町２番４号１０,,27,203,5600000,,,,,,,2025-06-30,1,,,,,ウタゲ,0
644,3122003003246,新規,0,2025-06-30,2025-06-30,合同会社Ｙｅｌｌｏｗ　Ｂｒｉｃｋ　Ｐａｒｔｓ,,合同会社,大阪府,東大阪市,足代北１丁目１２番１２－１００５号,,27,227,5770058,,,,,,,2025-06-30,1,,,,,イエローブリックパーツ,0
647,3130001079992,新規,0,2025-06-30,2025-06-30,株式会社０‐ｃｏｎｃｅｐｔ,,株式会社,京都府,京都市北区,上賀茂北大路町１４番地の３,,26,101,6038071,,,,,,,2025-06-30,1,,,,,ゼロコンセプト,0
650,3130003010575,新規,0,2025-06-30,2025-06-30,Ｋｙｏｔａｂｉ　Ｊａｐａｎ合同会社,,合同会社,京都府,京都市山科区,北花山山田町８７番地１－１５０ＹＥＡＲＳＯＬＤＨＯＵＳＥ,,26,110,6078472,,,,,,,2025-06-30,1,,,,,キョウタビジャパン,0
655,3140001138946,新規,0,2025-06-30,2025-06-30,進貿通株式会社,,株式会社,兵庫県,西宮市,生瀬高台３番６号,,28,204,6691111,,,,,,,2025-06-30,1,,,,,シンボウツウ,0
656,3140001139052,新規,0,2025-06-30,2025-06-30,株式会社セトマキＥＣサポート,,株式会社,兵庫県,明石市,鳥羽１４５３番地の１６,,28,203,6730003,,,,,,,2025-06-30,1,,,,,セトマキイーシーサポート,0
657,3140001139069,新規,0,2025-06-30,2025-06-30,株式会社Ｄ．Ｈ．Ｐ,,株式会社,兵庫県,宝塚市,米谷２丁目２番１１－２０８号,,28,214,6650831,,,,,,,2025-06-30,1,,,,,ディーエイチピー,0
658,3140001139093,新規,0,2025-06-30,2025-06-30,株式会社８７１ＲＣ,,株式会社,兵庫県,西宮市,東町１丁目１３番１７－１０３号,,28,204,6620922,,,,,,,2025-06-30,1,,,,,ハチナナイチアールシー,0
662,3150001028221,新規,0,2025-06-30,2025-06-30,株式会社ＭＡＴＣＨ,,株式会社,奈良県,北葛城郡広陵町,大字平尾６６４番地６,,29,426,6350822,,,,,,,2025-06-30,1,,,,,マッチ,0
664,3160003003527,新規,0,2025-06-30,2025-06-30,合同会社Ｋ’ｓ　ｆｒｏｎｔｉｅｒ,,合同会社,滋賀県,東近江市,南菩提寺町６３６番地,,25,213,5270136,,,,,,,2025-06-30,1,,,,,ケーズフロンティア,0
670,3180001167421,新規,0,2025-06-30,2025-06-30,株式会社アップドラフト,,株式会社,愛知県,長久手市,西浦２０５サニーハイツＫ１Ｄ,,23,238,4801171,,,,,,,2025-06-30,1,,,,,アップドラフト,0
671,3180001167487,新規,0,2025-06-30,2025-06-30,株式会社Ｒｕｎ　ａｌｌ,,株式会社,愛知県,名古屋市中区,栄２丁目２－１広小路伏見中駒ビル５Ｆ,,23,106,4600008,,,,,,,2025-06-30,1,,,,,ランオール,0
672,3180003028670,新規,0,2025-06-30,2025-06-30,合同会社おめぐ,,合同会社,愛知県,稲沢市,駅前４丁目６番１９号,,23,220,4928143,,,,,,,2025-06-30,1,,,,,オメグ,0
682,3220001026762,新規,0,2025-06-30,2025-06-30,株式会社テラニシ,,株式会社,石川県,金沢市,緑が丘１９番３６号,,17,201,9218117,,,,,,,2025-06-30,1,,,,,テラニシ,0
696,3290001110519,新規,0,2025-06-30,2025-06-30,源智株式会社,,株式会社,福岡県,福岡市博多区,祇園町８－１３第一プリンスビル１Ｆ,,40,132,8120038,,,,,,,2025-06-30,1,,,,,ゲンチ,0
697,3290001110527,新規,0,2025-06-30,2025-06-30,株式会社ライトフィルド,,株式会社,福岡県,宗像市,自由ヶ丘２丁目１４番地４－２１１,,40,220,8114163,,,,,,,2025-06-30,1,,,,,ライトフィルド,0
698,3290003017051,新規,0,2025-06-30,2025-06-30,合同会社いろどり,,合同会社,福岡県,大野城市,下大利１丁目２１番２０号,,40,219,8160952,,,,,,,2025-06-30,1,,,,,イロドリ,0
704,3310005008863,新規,0,2025-06-30,2025-06-30,湯口司法書士法人,,その他の設立登記法人,長崎県,長崎市,大浜町３１７番地１　２０２,,42,201,8500066,,,,,,,2025-06-30,1,,,,,ユグチ,0
716,3360001035411,新規,0,2025-06-30,2025-06-30,株式会社平田本舗,,株式会社,沖縄県,那覇市,松尾２丁目１９番３９－２０３号グリーンハイツ那覇,,47,201,9000014,,,,,,,2025-06-30,1,,,,,ヒラタホンポ,0
718,3360003015056,新規,0,2025-06-30,2025-06-30,合同会社マリンステージ,,合同会社,沖縄県,那覇市,金城３丁目３番地１２,,47,201,9010155,,,,,,,2025-06-30,1,,,,,マリンステージ,0
719,3370003007168,新規,0,2025-06-30,2025-06-30,合同会社Ｉ＆Ａ,,合同会社,宮城県,仙台市青葉区,本町１丁目５番２８号カーニープレイス仙台駅前通６０３号室,,04,101,9800014,,,,,,,2025-06-30,1,,,,,アイアンドエー,0
727,3430001094730,新規,0,2025-06-30,2025-06-30,株式会社ネクサシア,,株式会社,北海道,石狩市,花川南四条２丁目５６番地,,01,235,0613204,,,,,,,2025-06-30,1,,,,,ネクサシア,0
729,3500001026370,新規,0,2025-06-30,2025-06-30,株式会社ここリンク,,株式会社,愛媛県,伊予郡松前町,大字北黒田４０９番地２,,38,401,7913102,,,,,,,2025-06-30,1,,,,,ココリンク,0
732,3500005008803,新規,0,2025-06-30,2025-06-30,一般社団法人ＨＭＯ,,その他の設立登記法人,愛媛県,大洲市,新谷甲２０１９番地２,,38,207,7950072,,,,,,,2025-06-30,1,,,,,エイチエムオー,0
745,4010001256132,新規,0,2025-06-30,2025-06-30,ＴｒｕｓｔＢｒｉｄｇｅ株式会社,,株式会社,東京都,中央区,銀座７丁目１７番１８号,,13,102,1040061,,,,,,,2025-06-30,1,,,,,トラストブリッジ,0
746,4010001256198,新規,0,2025-06-30,2025-06-30,ＡＨｅａｄ　Ｔｅｃｈｎｏｌｏｇｙ株式会社,,株式会社,東京都,千代田区,神田三崎町２丁目１０番１１号Ｐｅｇビル３Ａ－１号室,,13,101,1010061,,,,,,,2025-06-30,1,,,,,アヘッドテクノロジー,0
747,4010001256264,新規,0,2025-06-30,2025-06-30,株式会社大和,,株式会社,東京都,中央区,東日本橋２丁目１１－６－３Ｆ,,13,102,1030004,,,,,,,2025-06-30,1,,,,,ダイワ,0
748,4010001256272,新規,0,2025-06-30,2025-06-30,Ｑｕａｒｔｕｓ　Ｊａｐａｎ株式会社,,株式会社,東京都,千代田区,大手町１丁目９番２号大手町ファイナンシャルシティグランキューブ３Ｆ,,13,101,1000004,,,,,,,2025-06-30,1,,,,,カータスジャパン,0
749,4010001256306,新規,0,2025-06-30,2025-06-30,ユナイテッドバイオ株式会社,,株式会社,東京都,中央区,八丁堀２丁目１１番７号ＭＣ八丁堀ビル２階,,13,102,1040032,,,,,,,2025-06-30,1,,,,,ユナイテッドバイオ,0
750,4010001256355,新規,0,2025-06-30,2025-06-30,シグマエステート株式会社,,株式会社,東京都,千代田区,平河町２丁目５番５号全国旅館会館,,13,101,1020093,,,,,,,2025-06-30,1,,,,,シグマエステート,0
751,4010001256396,新規,0,2025-06-30,2025-06-30,エムキャップ十六号株式会社,,株式会社,東京都,千代田区,丸の内２丁目７番２号,,13,101,1000005,,,,,,,2025-06-30,1,,,,,エムキャップジュウロクゴウ,0
754,4010003047661,新規,0,2025-06-30,2025-06-30,ＨＭ江東住吉合同会社,,合同会社,東京都,中央区,銀座２丁目６－５アサコ銀座ビル５Ｆ,,13,102,1040061,,,,,,,2025-06-30,1,,,,,エイチエムコウトウスミヨシ,0
755,4010003047793,新規,0,2025-06-30,2025-06-30,Ｃａｒｔａ合同会社,,合同会社,東京都,中央区,月島１丁目１７番５号,,13,102,1040052,,,,,,,2025-06-30,1,,,,,カルタ,0
756,4010003047802,新規,0,2025-06-30,2025-06-30,合同会社ＡＲＵＫＵ,,合同会社,東京都,中央区,銀座１丁目２２番１１号銀座大竹ビジデンス２Ｆ,,13,102,1040061,,,,,,,2025-06-30,1,,,,,アルク,0
757,4010003047810,新規,0,2025-06-30,2025-06-30,Ｈｕｎｇｒｙ　Ｍｉｎｄｓ　Ｊａｐａｎ合同会社,,合同会社,東京都,千代田区,五番町１２番地７－２０４３,,13,101,1020076,,,,,,,2025-06-30,1,,,,,ハングリーマインドジャパン,0
759,4010005040268,新規,0,2025-06-30,2025-06-30,一般社団法人プラチナ,,その他の設立登記法人,東京都,千代田区,二番町３番地麹町スクエア株式会社シリウス・アドバイザリー内,,13,101,1020084,,,,,,,2025-06-30,1,,,,,プラチナ,0
760,4010005040276,新規,0,2025-06-30,2025-06-30,ＦＥソーラーＫ号ホールディングス一般社団法人,,その他の設立登記法人,東京都,千代田区,紀尾井町４番１号ニューオータニガーデンコート１９階フィンポート税理士法人内,,13,101,1020094,,,,,,,2025-06-30,1,,,,,エフイーソーラーケイゴウホールディングス,0
769,4010403035464,新規,0,2025-06-30,2025-06-30,ＥＳＲ３７合同会社,,合同会社,東京都,港区,浜松町１丁目２０番１０号ライオネス浜松町５０６号室,,13,103,1050013,,,,,,,2025-06-30,1,,,,,イーエスアールサンジュウナナ,0
772,4010405024523,新規,0,2025-06-30,2025-06-30,ＥＳＲ３７・１一般社団法人,,その他の設立登記法人,東京都,港区,浜松町１丁目２０番１０号ライオネス浜松町５０６号室,,13,103,1050013,,,,,,,2025-06-30,1,,,,,イーエスアールサンジュウナナイチ,0
776,4010703007790,新規,0,2025-06-30,2025-06-30,合同会社Ｒｅｐｐｙ,,合同会社,東京都,品川区,東品川４丁目１２番１１－９０２号,,13,109,1400002,,,,,,,2025-06-30,1,,,,,レピイ,0
779,4010903010017,新規,0,2025-06-30,2025-06-30,合同会社ライズマインド,,合同会社,東京都,世田谷区,奥沢２丁目１４－５自由が丘ハイツ１０６,,13,112,1580083,,,,,,,2025-06-30,1,,,,,ライズマインド,0
780,4010903010041,新規,0,2025-06-30,2025-06-30,合同会社Ｂｉｊｏｕｘｇｒａｎｃｅ,,合同会社,東京都,世田谷区,等々力２丁目３０番３－５０３号,,13,112,1580082,,,,,,,2025-06-30,1,,,,,ビジュグランス,0
788,4011001170439,新規,0,2025-06-30,2025-06-30,ＲＢＡ株式会社,,株式会社,東京都,渋谷区,幡ヶ谷３丁目６９番２号,,13,113,1510072,,,,,,,2025-06-30,1,,,,,アールビーエー,0
789,4011001170455,新規,0,2025-06-30,2025-06-30,株式会社タッチアップ,,株式会社,東京都,渋谷区,道玄坂１丁目１０番８号渋谷道玄坂東急ビル２階Ｃ,,13,113,1500043,,,,,,,2025-06-30,1,,,,,タッチアップ,0
790,4011001170471,新規,0,2025-06-30,2025-06-30,株式会社セカンドラボ,,株式会社,東京都,渋谷区,神南１丁目１１－４ＦＰＧリンクス神南５階,,13,113,1500041,,,,,,,2025-06-30,1,,,,,セカンドラボ,0
792,4011003021879,新規,0,2025-06-30,2025-06-30,ＬｉｎｋＶｅｒｓｅ合同会社,,合同会社,東京都,渋谷区,道玄坂１丁目１０番８号渋谷道玄坂東急ビル２Ｆ－Ｃ,,13,113,1500043,,,,,,,2025-06-30,1,,,,,リンクバース,0
793,4011003021895,新規,0,2025-06-30,2025-06-30,合同会社Ａｉ,,合同会社,東京都,目黒区,平町２丁目２０番２号ＭＤＭ都立大学１０１,,13,110,1520032,,,,,,,2025-06-30,1,,,,,アイ,0
796,4011101112274,新規,0,2025-06-30,2025-06-30,株式会社ＳＯＲＡ,,株式会社,東京都,新宿区,西新宿５丁目８－２惠徳ビル,,13,104,1600023,,,,,,,2025-06-30,1,,,,,ソラ,0
797,4011103016052,新規,0,2025-06-30,2025-06-30,合同会社東京エイラク,,合同会社,東京都,新宿区,山吹町３４８番地,,13,104,1620801,,,,,,,2025-06-30,1,,,,,トウキョウエイラク,0
798,4011103016060,新規,0,2025-06-30,2025-06-30,合同会社医科学栄養研究所,,合同会社,東京都,新宿区,西新宿３丁目３番１３号西新宿水間ビル２Ｆ,,13,104,1600023,,,,,,,2025-06-30,1,,,,,イカガクエイヨウケンキュウジョ,0
799,4011105011456,新規,0,2025-06-30,2025-06-30,一般社団法人日本美乳協会,,その他の設立登記法人,東京都,新宿区,新宿３丁目３２番２号ＭＯＴＯビル６Ｆ,,13,104,1600022,,,,,,,2025-06-30,1,,,,,ニホンビニュウキョウカイ,0
800,4011201026473,新規,0,2025-06-30,2025-06-30,株式会社ハピネスブーケ,,株式会社,東京都,中野区,中野４丁目１０番２号中野セントラルパークサウス２階,,13,114,1640001,,,,,,,2025-06-30,1,,,,,ハピネスブーケ,0
801,4011301030680,新規,0,2025-06-30,2025-06-30,株式会社ホースビーナス,,株式会社,東京都,杉並区,浜田山２丁目２４番３号,,13,115,1680065,,,,,,,2025-06-30,1,,,,,,0
803,4011401027214,新規,0,2025-06-30,2025-06-30,株式会社ＭＥＬＩＥＮＳ　ＪＡＰＡＮ,,株式会社,東京都,板橋区,赤塚２丁目１６番１号,,13,119,1750092,,,,,,,2025-06-30,1,,,,,メリオンズジャパン,0
804,4011501032246,新規,0,2025-06-30,2025-06-30,マッド・ザ・キー株式会社,,株式会社,東京都,北区,赤羽１丁目７番９号赤羽第一葉山ビル４Ｆ,,13,117,1150045,,,,,,,2025-06-30,1,,,,,マッドザキー,0
810,4011701028473,新規,0,2025-06-30,2025-06-30,チャットロックアジア株式会社,,株式会社,東京都,江戸川区,春江町５丁目５番１３号,,13,123,1340003,,,,,,,2025-06-30,1,,,,,チャットロックアジア,0
813,4012303002180,新規,0,2025-06-30,2025-06-30,ＳＡＭ’Ｓ　ＫＩＴＣＨＥＮ合同会社,,合同会社,東京都,町田市,金森３丁目１７‐７,,13,209,1940012,,,,,,,2025-06-30,1,,,,,サムズキッチン,0
822,4013301054544,新規,0,2025-06-30,2025-06-30,株式会社Ｔｅｃｈｔａｋａ,,株式会社,東京都,豊島区,東池袋５丁目７番３号アゼリア東池袋４０１,,13,116,1700013,,,,,,,2025-06-30,1,,,,,テックタカ,0
823,4013305003729,新規,0,2025-06-30,2025-06-30,一般社団法人ＲＨＹＴＨＭ　ＭＯＶＩＮＧ,,その他の設立登記法人,東京都,豊島区,南大塚２丁目２４番１２号,,13,116,1700005,,,,,,,2025-06-30,1,,,,,リズムムービング,0
833,4030001167170,新規,0,2025-06-30,2025-06-30,豊裕株式会社,,株式会社,埼玉県,川口市,西川口６丁目１４番４－５号,,11,203,3320021,,,,,,,2025-06-30,1,,,,,ホウユウ,0
834,4030001167344,新規,0,2025-06-30,2025-06-30,株式会社ベスト,,株式会社,埼玉県,川口市,本町２丁目１番１４号,,11,203,3320012,,,,,,,2025-06-30,1,,,,,ベスト,0
842,4030003026944,新規,0,2025-06-30,2025-06-30,合同会社ｉｎ　ｈａｎｄ,,合同会社,埼玉県,さいたま市北区,日進町２丁目４－１－４１０,,11,102,3310823,,,,,,,2025-06-30,1,,,,,インハンド,0
846,4040001139400,新規,0,2025-06-30,2025-06-30,株式会社ＳＫ電気工事,,株式会社,千葉県,富里市,七栄５７１番地７４,,12,233,2860221,,,,,,,2025-06-30,1,,,,,エスケーデンキコウジ,0
847,4040001139417,新規,0,2025-06-30,2025-06-30,ＯＭＧ株式会社,,株式会社,千葉県,松戸市,松戸９１３番地の１１,,12,207,2710092,,,,,,,2025-06-30,1,,,,,オーエムジー,0
851,4050001056867,新規,0,2025-06-30,2025-06-30,株式会社Ｈ＆Ｔ,,株式会社,茨城県,水戸市,吉沢町３３０番地９,,08,201,3100845,,,,,,,2025-06-30,1,,,,,エイチアンドティー,0
865,4120001276904,新規,0,2025-06-30,2025-06-30,株式会社ＩＫＩＧＡＩ,,株式会社,大阪府,大阪市西成区,潮路１丁目２－１３コーポ岸里１０３号,,27,122,5570052,,,,,,,2025-06-30,1,,,,,イキガイ,0
866,4120001277209,新規,0,2025-06-30,2025-06-30,青芽絆株式会社,,株式会社,大阪府,大阪市北区,天満橋１丁目４－１４天満橋ビル３０３,,27,127,5300042,,,,,,,2025-06-30,1,,,,,アオバキズナ,0
867,4120001277324,新規,0,2025-06-30,2025-06-30,Ｃｏｎｖｅｙ株式会社,,株式会社,大阪府,大阪市中央区,森ノ宮中央２丁目１１－６シュライン森之宮１０２号,,27,128,5400003,,,,,,,2025-06-30,1,,,,,コンヴェイ,0
868,4120001277332,新規,0,2025-06-30,2025-06-30,パナソニックＨＶＡＣ＆ＣＣ株式会社,,株式会社,大阪府,門真市,大字門真１００６番地,,27,223,5710050,,,,,,,2025-06-30,1,,,,,パナソニックエイチバックアンドシーシー,0
869,4120001277340,新規,0,2025-06-30,2025-06-30,ＴＹＴｉｎｄｕｓｔｒｙ株式会社,,株式会社,大阪府,門真市,新町６－１２エクセレント・キヨメ４階,,27,223,5710000,,,,,,,2025-06-30,1,,,,,ティワイティインダストリー,0
870,4120001277357,新規,0,2025-06-30,2025-06-30,株式会社朱鷺の福,,株式会社,大阪府,大阪市浪速区,桜川２丁目１４番９号２０１号室,,27,111,5560022,,,,,,,2025-06-30,1,,,,,トキノフク,0
873,4120003029599,新規,0,2025-06-30,2025-06-30,合同会社ソウルナイン,,合同会社,大阪府,大阪市中央区,南船場２丁目７－１３日宝船場中央ビル５０４,,27,128,5420081,,,,,,,2025-06-30,1,,,,,ソウルナイン,0
874,4120005025002,新規,0,2025-06-30,2025-06-30,行政書士法人ティームズ,,その他の設立登記法人,大阪府,大阪市北区,西天満５丁目１番１号ザ・セヤマビル８階,,27,127,5300047,,,,,,,2025-06-30,1,,,,,ティームズ,0
880,4120901051101,新規,0,2025-06-30,2025-06-30,株式会社ＫＢＫ,,株式会社,大阪府,箕面市,小野原東６丁目７番１８号,,27,220,5620031,,,,,,,2025-06-30,1,,,,,ケービーケー,0
881,4120901051150,新規,0,2025-06-30,2025-06-30,Ｓａｋｕｒａｋｕ株式会社,,株式会社,大阪府,茨木市,下穂積３丁目６－４,,27,211,5670041,,,,,,,2025-06-30,1,,,,,サクラク,0
887,4122001039373,新規,0,2025-06-30,2025-06-30,峰亦株式会社,,株式会社,大阪府,東大阪市,長堂１丁目２６番１４号,,27,227,5770056,,,,,,,2025-06-30,1,,,,,ホウエキ,0
888,4122001039381,新規,0,2025-06-30,2025-06-30,株式会社トーキーズ,,株式会社,大阪府,東大阪市,三ノ瀬１丁目１０番１９号ナオ三ノ瀬１Ｆ,,27,227,5770849,,,,,,,2025-06-30,1,,,,,トーキーズ,0
889,4130001079950,新規,0,2025-06-30,2025-06-30,株式会社はうす,,株式会社,京都府,京都市上京区,下長者町通六軒町西入利生町２８８番地１,,26,102,6028343,,,,,,,2025-06-30,1,,,,,ハウス,0
894,4150001028220,新規,0,2025-06-30,2025-06-30,マイクロエアロスペース株式会社,,株式会社,奈良県,桜井市,大字谷６３－１,,29,206,6330053,,,,,,,2025-06-30,1,,,,,マイクロエアロスペース,0
907,4200003006895,新規,0,2025-06-30,2025-06-30,合同会社ＥＣＯＬＩＳ　ＬＩＮＥ,,合同会社,岐阜県,飛騨市,古川町黒内１４３２番地,,21,217,5094275,,,,,,,2025-06-30,1,,,,,エコリスライン,0
916,4240001065122,新規,0,2025-06-30,2025-06-30,株式会社ケイ・サポート,,株式会社,広島県,広島市南区,元宇品町２５番１－９０２号,,34,103,7340012,,,,,,,2025-06-30,1,,,,,ケイサポート,0
917,4260001040305,新規,0,2025-06-30,2025-06-30,ｉｃｒｏｓｓ株式会社,,株式会社,岡山県,美作市,大町３５番地３,,33,215,7070124,,,,,,,2025-06-30,1,,,,,アイクロス,0
922,4290001110501,新規,0,2025-06-30,2025-06-30,株式会社Ｘｒｏｓｓ,,株式会社,福岡県,福岡市中央区,大名２丁目６番５０号福岡大名ガーデンシティ８階,,40,133,8100041,,,,,,,2025-06-30,1,,,,,クロス,0
923,4290001110526,新規,0,2025-06-30,2025-06-30,株式会社ガナモス,,株式会社,福岡県,筑紫野市,美しが丘南５丁目２０番地３,,40,217,8180034,,,,,,,2025-06-30,1,,,,,ガナモス,0
924,4290001110550,新規,0,2025-06-30,2025-06-30,株式会社サン空,,株式会社,福岡県,糟屋郡久山町,大字山田３９９番地４２６,,40,348,8112502,,,,,,,2025-06-30,1,,,,,サンクウ,0
927,4310001019665,新規,0,2025-06-30,2025-06-30,株式会社ロック,,株式会社,長崎県,西彼杵郡時津町,左底郷２９番地２－１５０３号,,42,308,8512106,,,,,,,2025-06-30,1,,,,,ロック,0
928,4310005008862,新規,0,2025-06-30,2025-06-30,一般社団法人ホンダフル,,その他の設立登記法人,長崎県,長崎市,かき道１丁目２３番１１号,,42,201,8510115,,,,,,,2025-06-30,1,,,,,ホンダフル,0
930,4320001021182,新規,0,2025-06-30,2025-06-30,株式会社穂‐ＭＩＮＯＲＩ,,株式会社,大分県,別府市,北浜２丁目１番２３号,,44,202,8740920,,,,,,,2025-06-30,1,,,,,ミノリ,0
945,4390001018032,新規,0,2025-06-30,2025-06-30,株式会社ＡＲＴ　ＬＩＦＥ,,株式会社,山形県,山形市,大字村木沢４０４０番地,,06,201,9902371,,,,,,,2025-06-30,1,,,,,アートライフ,0
975,5010001256305,新規,0,2025-06-30,2025-06-30,ＷＡＧＡＳＹＳＴＥＭＳ株式会社,,株式会社,東京都,中央区,銀座１丁目１２番４号Ｎ＆ＥＢＬＤ．６Ｆ,,13,102,1040061,,,,,,,2025-06-30,1,,,,,ワガシステムズ,0
978,5010003047693,新規,0,2025-06-30,2025-06-30,合同会社ＨＡＳ,,合同会社,東京都,中央区,日本橋兜町１７番２号兜町第６葉山ビル４階,,13,102,1030026,,,,,,,2025-06-30,1,,,,,ハズ,0
982,5010005040267,新規,0,2025-06-30,2025-06-30,一般社団法人パール,,その他の設立登記法人,東京都,千代田区,二番町３番地麹町スクエア株式会社シリウス・アドバイザリー内,,13,101,1020084,,,,,,,2025-06-30,1,,,,,パール,0
1003,5010601067507,新規,0,2025-06-30,2025-06-30,株式会社Ｓｔｉｌｌ　Ｄａｙ　Ｏｎｅ,,株式会社,東京都,江東区,東雲１丁目９番５０－３８０８号,,13,108,1350062,,,,,,,2025-06-30,1,,,,,スティルデイワン,0
1004,5010801036311,新規,0,2025-06-30,2025-06-30,株式会社エンツクル,,株式会社,東京都,大田区,池上２丁目５番１６－５０４号秀和池上レジデンス,,13,111,1460082,,,,,,,2025-06-30,1,,,,,エンツクル,0
1005,5010803005454,新規,0,2025-06-30,2025-06-30,Ａｖａｎｔ‐ｇａｒｄｅ合同会社,,合同会社,東京都,大田区,山王２丁目５番６号ＳＡＮＮＯＢＲＩＤＧＥ,,13,111,1430023,,,,,,,2025-06-30,1,,,,,アバンギャルド,0
1006,5010901057653,新規,0,2025-06-30,2025-06-30,ローズ株式会社,,株式会社,東京都,世田谷区,池尻４丁目１０番１－Ｗ６０１号,,13,112,1540001,,,,,,,2025-06-30,1,,,,,ローズ,0
1009,5010903010049,新規,0,2025-06-30,2025-06-30,合同会社ＴｒｏｐｉｃａｌＢｉｒｄｓ,,合同会社,東京都,世田谷区,砧６丁目２６番１０号,,13,112,1570073,,,,,,,2025-06-30,1,,,,,トロピカルバーズ,0
1022,5011001170297,新規,0,2025-06-30,2025-06-30,ＳＱＵＡＲＥ　ＷＥＬＬ株式会社,,株式会社,東京都,渋谷区,円山町５番３号ＭＩＥＵＸ渋谷ビル８,,13,113,1500044,,,,,,,2025-06-30,1,,,,,スクエアウエル,0
1023,5011001170470,新規,0,2025-06-30,2025-06-30,ＭａｔｅＯｎ株式会社,,株式会社,東京都,渋谷区,代々木２丁目２３－１－６７３,,13,113,1510053,,,,,,,2025-06-30,1,,,,,メイトオン,0
1024,5011001170479,新規,0,2025-06-30,2025-06-30,アドソリューションズ株式会社,,株式会社,東京都,渋谷区,渋谷３丁目２番３号帝都青山ビル１階,,13,113,1500002,,,,,,,2025-06-30,1,,,,,アドソリューションズ,0
1025,5011001170553,新規,0,2025-06-30,2025-06-30,株式会社ＦＩＥＬＤ,,株式会社,東京都,渋谷区,千駄ヶ谷３丁目３番１ＴＨ１ビル７０１,,13,113,1510051,,,,,,,2025-06-30,1,,,,,フィールド,0
1027,5011003021878,新規,0,2025-06-30,2025-06-30,合同会社ＦＲＥＥＤＯＭ,,合同会社,東京都,渋谷区,恵比寿西２丁目８番４号ＥＸ恵比寿西ビル５階,,13,113,1500021,,,,,,,2025-06-30,1,,,,,フリーダム,0
1033,5011101112331,新規,0,2025-06-30,2025-06-30,株式会社ＵＭＴ,,株式会社,東京都,新宿区,富久町１５番１号,,13,104,1620067,,,,,,,2025-06-30,1,,,,,ユーエムティー,0
1035,5011103016051,新規,0,2025-06-30,2025-06-30,アビライズ合同会社,,合同会社,東京都,新宿区,西新宿３丁目３－１３西新宿水間ビル２Ｆ,,13,104,1600023,,,,,,,2025-06-30,1,,,,,アビライズ,0
1039,5011501032245,新規,0,2025-06-30,2025-06-30,株式会社そらいぶ,,株式会社,東京都,北区,上十条１丁目１６－７,,13,117,1140034,,,,,,,2025-06-30,1,,,,,ソライブ,0
1044,5012701018942,新規,0,2025-06-30,2025-06-30,ＷｏｈｌｖｉａＧｒｏｕｐ株式会社,,株式会社,東京都,西東京市,東町２丁目１６番２５号,,13,229,2020012,,,,,,,2025-06-30,1,,,,,ウォールヴィアグループ,0
1046,5013301054535,新規,0,2025-06-30,2025-06-30,株式会社コーセラ,,株式会社,東京都,豊島区,上池袋１丁目２６－６上池袋タワーレジデンス１５０１,,13,116,1700012,,,,,,,2025-06-30,1,,,,,コーセラ,0
1047,5013303007747,新規,0,2025-06-30,2025-06-30,合同会社シーピーエー,,合同会社,東京都,豊島区,東池袋２丁目６２番８号ＢＩＧオフィスプラザ池袋１２０６,,13,116,1700013,,,,,,,2025-06-30,1,,,,,シーピーエー,0
1048,5013305003728,新規,0,2025-06-30,2025-06-30,一般社団法人濱田政治文化研究所,00139747,その他の設立登記法人,東京都,豊島区,南大塚３丁目３６番７号,,13,116,1700005,,,,,,,2025-06-30,1,,,,,ハマダセイジブンカケンキュウジョ,0
1053,5021001085627,新規,0,2025-06-30,2025-06-30,株式会社パンチデロー,,株式会社,神奈川県,三浦郡葉山町,長柄６０９－２,,14,301,2400113,,,,,,,2025-06-30,1,,,,,パンチデロー,0
1056,5030001167302,新規,0,2025-06-30,2025-06-30,ＫＫＳ　ＧＬＯＢＡＬ　ＳＵＰＰＯＲＴ株式会社,,株式会社,埼玉県,川口市,幸町２丁目６番１２－５０３号ナイスアーバン川口幸町,,11,203,3320016,,,,,,,2025-06-30,1,,,,,ケーケーエスグローバルサポート,0
1057,5030001167319,新規,0,2025-06-30,2025-06-30,恒栄株式会社,,株式会社,埼玉県,川口市,中青木２丁目８－２３中青木第２ローヤルコーポ３０５,,11,203,3320032,,,,,,,2025-06-30,1,,,,,コウエイ,0
1059,5030003027082,新規,0,2025-06-30,2025-06-30,合同会社トゥーナインワークス,,合同会社,埼玉県,三郷市,中央２丁目１６番地１,,11,237,3410038,,,,,,,2025-06-30,1,,,,,トゥーナインワークス,0
1066,5040001139424,新規,0,2025-06-30,2025-06-30,新程株式会社,,株式会社,千葉県,佐倉市,生谷９７３番地２,,12,212,2850836,,,,,,,2025-06-30,1,,,,,シンテイ,0
1067,5040001139432,新規,0,2025-06-30,2025-06-30,株式会社根岸商店,,株式会社,千葉県,千葉市若葉区,若松町５４３番１４７,,12,104,2640021,,,,,,,2025-06-30,1,,,,,ネギシショウテン,0
1068,5040003027940,新規,0,2025-06-30,2025-06-30,ＭＫＲ合同会社,,合同会社,千葉県,八街市,八街に２８５番地２４,,12,230,2891103,,,,,,,2025-06-30,1,,,,,エムケーアール,0
1076,5070005010405,新規,0,2025-06-30,2025-06-30,特定非営利活動法人紡ぐんま,,その他の設立登記法人,群馬県,渋川市,北橘町小室８７番地６,,10,208,3770065,,,,,,,2025-06-30,1,,,,,ツムグンマ,0
1077,5080103003359,新規,0,2025-06-30,2025-06-30,合同会社ＭＩＳ　ＣＲＥＡＴＩＯＮ,,合同会社,静岡県,富士市,厚原１１４１―１５,,22,210,4190201,,,,,,,2025-06-30,1,,,,,エムアイエスクリエイション,0
1079,5090001019357,新規,0,2025-06-30,2025-06-30,宅美屋株式会社,,株式会社,山梨県,西八代郡市川三郷町,市川大門２２０８番地１,,19,346,4093601,,,,,,,2025-06-30,1,,,,,,0
1086,5120001277323,新規,0,2025-06-30,2025-06-30,衆和株式会社,,株式会社,大阪府,大阪市港区,池島３丁目１０番６号,,27,107,5520015,,,,,,,2025-06-30,1,,,,,シュウワ,0
1087,5120001277331,新規,0,2025-06-30,2025-06-30,株式会社ｋａｌｅｉｄｏ　ｐｒｏｊｅｃｔ,,株式会社,大阪府,大阪市中央区,南船場１丁目１３番１５号長堀三栄プラザ３１３号室,,27,128,5420081,,,,,,,2025-06-30,1,,,,,カレイドプロジェクト,0
1091,5120003029879,新規,0,2025-06-30,2025-06-30,合同会社ＶｎＳｈａｒｐ,,合同会社,大阪府,大阪市淀川区,塚本２丁目２８番１４号,00139748,27,123,5320026,,,,,,,2025-06-30,1,,,,,ブイエヌシャープ,0
1098,5120901051109,新規,0,2025-06-30,2025-06-30,株式会社金海,,株式会社,大阪府,豊中市,豊南町南５丁目９番１３号,,27,203,5610815,,,,,,,2025-06-30,1,,,,,キンカイ,0
1099,5120901051117,新規,0,2025-06-30,2025-06-30,Ｒｅｇｅｎｅｒａｔｉｖｅ　Ｂｉｏ株式会社,,株式会社,大阪府,箕面市,小野原西２丁目１０番１２号,,27,220,5620032,,,,,,,2025-06-30,1,,,,,リジェネラティブバイオ,0
1103,5120903005731,新規,0,2025-06-30,2025-06-30,合同会社リコードラブズ,,合同会社,大阪府,三島郡島本町,若山台２丁目３番３２－３０４号,,27,301,6180024,,,,,,,2025-06-30,1,,,,,リコードラブズ,0
1104,5122001039372,新規,0,2025-06-30,2025-06-30,株式会社８１,,株式会社,大阪府,東大阪市,日下町４丁目２番１８号,,27,227,5798003,,,,,,,2025-06-30,1,,,,,エイティワン,0
1107,5122003003236,新規,0,2025-06-30,2025-06-30,合同会社ＢＯＴＡＮＩＫＵ　ＷＯＯＤ,,合同会社,大阪府,東大阪市,五条町５－２,,27,227,5798042,,,,,,,2025-06-30,1,,,,,ボタニークウッド,0
1109,5130001079999,新規,0,2025-06-30,2025-06-30,株式会社ネオキュア,,株式会社,京都府,京都市下京区,夷之町６８６番地３コタニビル３Ｆ,,26,106,6008183,,,,,,,2025-06-30,1,,,,,ネオキュア,0
1122,5180001167485,新規,0,2025-06-30,2025-06-30,株式会社アクタス,,株式会社,愛知県,名古屋市名東区,新宿２丁目１２１番地,,23,115,4650063,,,,,,,2025-06-30,1,,,,,アクタス,0
1125,5180003028669,新規,0,2025-06-30,2025-06-30,合同会社ひまわり,,合同会社,愛知県,名古屋市中川区,昭明町１丁目２５－３,,23,110,4540855,,,,,,,2025-06-30,1,,,,,ヒマワリ,0
1127,5200001043948,新規,0,2025-06-30,2025-06-30,ステラ警備株式会社,,株式会社,岐阜県,岐阜市,上土居３丁目３番２号,,21,201,5020803,,,,,,,2025-06-30,1,,,,,ステラケイビ,0
1139,5280001009446,新規,0,2025-06-30,2025-06-30,株式会社Ａ面Ｂ面,,株式会社,島根県,松江市,東津田町１０４１番地１ＷＵＳＱＵＡＲＥ２階,,32,201,6900011,,,,,,,2025-06-30,1,,,,,エーメンビーメン,0
1149,5290001110509,新規,0,2025-06-30,2025-06-30,株式会社宮崎電工,,株式会社,福岡県,福岡市城南区,堤１丁目９番１２号１Ｆ,,40,136,8140151,,,,,,,2025-06-30,1,,,,,ミヤザキデンコウ,0
1150,5290001110566,新規,0,2025-06-30,2025-06-30,株式会社アスモスマイル,,株式会社,福岡県,福岡市博多区,比恵町３番５号マルカビル５Ｆ,,40,132,8120014,,,,,,,2025-06-30,1,,,,,アスモスマイル,0
1152,5290801031656,新規,0,2025-06-30,2025-06-30,株式会社Ｏｎｅ　ｅａｒｔｈ,,株式会社,福岡県,北九州市小倉南区,吉田にれの木坂２丁目１０番１６号,,40,107,8000210,,,,,,,2025-06-30,1,,,,,ワンアース,0
1170,5430003017803,新規,0,2025-06-30,2025-06-30,合同会社Ｉｒｉｅ,,合同会社,北海道,札幌市中央区,北三条西２０丁目２－１６北３条ＭＭビル３０５,,01,101,0640823,,,,,,,2025-06-30,1,,,,,アイリー,0
1171,5430003017811,新規,0,2025-06-30,2025-06-30,合同会社余市技研,,合同会社,北海道,余市郡余市町,黒川町１１２２番地４,,01,408,0460003,,,,,,,2025-06-30,1,,,,,ヨイチギケン,0
1180,5700150131288,新規,0,2025-06-30,2025-06-30,ＫＡＲＭＡ　ＭＯＴＯＲＳ,,外国会社等,千葉県,東金市,二又３３６番地２オフィス５Ｂ,,12,213,2830004,スリランカ民主社会主義共和国、エンビリピティヤ、ニュータウン、シャクティロード、Ｎｏ．１０４／Ｃ,,,,,,2025-06-30,1,,,,,カルマモータース,0
1197,6010001256361,新規,0,2025-06-30,2025-06-30,株式会社ＩＲＯＯＲＩＪＡＰＡＮ,,株式会社,東京都,中央区,銀座７丁目１７番５号永谷タウンプラザ１００１,,13,102,1040061,,,,,,,2025-06-30,1,,,,,イロオリジャパン,0
1200,6010003047809,新規,0,2025-06-30,2025-06-30,ＡＳＭＥＤＩＣＡ合同会社,,合同会社,東京都,千代田区,丸の内１丁目１１番１号パシフィックセンチュリープレイス８・１３階,,13,101,1000005,,,,,,,2025-06-30,1,,,,,アスメディカ,0
1201,6010003047817,新規,0,2025-06-30,2025-06-30,合同会社ティースタイルトレーディング,,合同会社,東京都,中央区,東日本橋２丁目２８番４号日本橋ＣＥＴビル２階,,13,102,1030004,,,,,,,2025-06-30,1,,,,,ティースタイルトレーディング,0
1202,6010005040266,新規,0,2025-06-30,2025-06-30,一般社団法人ダイヤモンド,,その他の設立登記法人,東京都,千代田区,二番町３番地麹町スクエア株式会社シリウス・アドバイザリー内,,13,101,1020084,,,,,,,2025-06-30,1,,,,,ダイヤモンド,0
1215,6010401191332,新規,0,2025-06-30,2025-06-30,株式会社ＰＯＷＤＥＲＲＯＯＭ　ＪＡＰＡＮ,,株式会社,東京都,港区,南青山３丁目１番３号スプライン青山東急ビル６階Ｂ２５,,13,103,1070062,,,,,,,2025-06-30,1,,,,,パウダールームジャパン,0
1216,6010401191349,新規,0,2025-06-30,2025-06-30,株式会社Ｍａｇｎｏｌｉａ　Ｕｎｉｔａｓ,,株式会社,東京都,港区,赤坂１丁目１２番３２号アーク森ビルＳＣＳ国際税理士法人内,,13,103,1070052,,,,,,,2025-06-30,1,,,,,マグノリアユニタス,0
1220,6010403035470,新規,0,2025-06-30,2025-06-30,ＳＵＮＮＹ合同会社,,合同会社,東京都,港区,六本木５丁目１－１０カドガンビル２階,,13,103,1060032,,,,,,,2025-06-30,1,,,,,サニー,0
1223,6010601067522,新規,0,2025-06-30,2025-06-30,株式会社ＣＯＥＸ,,株式会社,東京都,江東区,豊洲１丁目２－８キャナルスクエア豊洲８１２,,13,108,1350061,,,,,,,2025-06-30,1,,,,,コークス,0
1227,6010901057644,新規,0,2025-06-30,2025-06-30,株式会社Ｌｉｆｅ　Ｌｕｘｅ,,株式会社,東京都,世田谷区,等々力６丁目１９番１２号オクタプル等々力１０２,,13,112,1580082,,,,,,,2025-06-30,1,,,,,ライフリュクス,0
1236,6011001170437,新規,0,2025-06-30,2025-06-30,フタトキ株式会社,,株式会社,東京都,渋谷区,神南１丁目１１番４号ＦＰＧリンクス神南５階,,13,113,1500041,,,,,,,2025-06-30,1,,,,,フタトキ,0
1237,6011001170445,新規,0,2025-06-30,2025-06-30,株式会社ＭＥアセットマネジメント,,株式会社,東京都,渋谷区,上原１丁目２２番１号４０２号室,,13,113,1510064,,,,,,,2025-06-30,1,,,,,エムイーアセットマネジメント,0
1238,6011001170453,新規,0,2025-06-30,2025-06-30,株式会社ビルドライン,,株式会社,東京都,渋谷区,恵比寿西２丁目１９－９フランセスビル１階,,13,113,1500021,,,,,,,2025-06-30,1,,,,,ビルドライン,0
1239,6011001170503,新規,0,2025-06-30,2025-06-30,株式会社Ｘ．Ｅ．Ｌ‐Ｖ,,株式会社,東京都,渋谷区,神南１丁目２０番９号パークウェイ渋谷ビル地下１階,,13,113,1500041,,,,,,,2025-06-30,1,,,,,ゼル,0
1244,6011201026471,新規,0,2025-06-30,2025-06-30,株式会社アズ・レジデンス,,株式会社,東京都,中野区,本町２丁目５４番１１号,,13,114,1640012,,,,,,,2025-06-30,1,,,,,アズレジデンス,0
1249,6011501032252,新規,0,2025-06-30,2025-06-30,株式会社Ｖｅｓｔｕｒｅ,,株式会社,東京都,荒川区,東尾久６丁目６番８号,,13,118,1160012,,,,,,,2025-06-30,1,,,,,ヴェスチャー,0
1250,6011501032269,新規,0,2025-06-30,2025-06-30,株式会社ＳＨＩＦＴＥＲＡ,,株式会社,東京都,荒川区,東日暮里６丁目６０番２号東日暮里駅前中央ビル別館６０１,,13,118,1160014,,,,,,,2025-06-30,1,,,,,シフテラ,0
1255,6012303002187,新規,0,2025-06-30,2025-06-30,福山合同会社,,合同会社,東京都,町田市,図師町６０２番地１４,,13,209,1940203,,,,,,,2025-06-30,1,,,,,フクヤマ,0
1257,6012401043281,新規,0,2025-06-30,2025-06-30,株式会社スタイルガレリア,,株式会社,東京都,武蔵野市,桜堤２丁目７番２５号２Ｆ,,13,203,1800021,,,,,,,2025-06-30,1,,,,,スタイルガレリア,0
1260,6012703003306,新規,0,2025-06-30,2025-06-30,合同会社チェルキオ,,合同会社,東京都,東久留米市,前沢５丁目７番２８号,,13,222,2030032,,,,,,,2025-06-30,1,,,,,チェルキオ,0
1268,6020003028799,新規,0,2025-06-30,2025-06-30,Ｇｒｙ＆Ｓｉｆ　Ｊａｐａｎ合同会社,,合同会社,神奈川県,横浜市中区,住吉町２丁目２２番地松栄関内ビル２階ＥＣＯＶＩＳＡＫＩＡＴａｘＣｏｎｓｕｌｔａｎｔｓ内,,14,104,2310013,,,,,,,2025-06-30,1,,,,,グライアンドシフジャパン,0
1270,6021001085618,新規,0,2025-06-30,2025-06-30,株式会社ＴＣＭ工業,,株式会社,神奈川県,相模原市緑区,大島３２６９番地１リバーテラス中の郷Ｂ－１０７,,14,151,2520135,,,,,,,2025-06-30,1,,,,,ティーシーエムコウギョウ,0
1271,6021001085626,新規,0,2025-06-30,2025-06-30,株式会社ＳＡＺＡＮＡＭＩ,,株式会社,神奈川県,茅ヶ崎市,中海岸４丁目６－２３－Ａ０３,,14,207,2530055,,,,,,,2025-06-30,1,,,,,サザナミ,0
1274,6021003016216,新規,0,2025-06-30,2025-06-30,都市・建築計画ラボ・真鶴合同会社,,合同会社,神奈川県,足柄下郡真鶴町,真鶴４５１番地１０,,14,383,2590201,,,,,,,2025-06-30,1,,,,,トシケンチクケイカクラボマナヅル,0
1285,6030001167334,新規,0,2025-06-30,2025-06-30,ＪＵＮＸ‐Ｙ株式会社,,株式会社,埼玉県,新座市,畑中１丁目１０番５７－８１５号,,11,230,3520012,,,,,,,2025-06-30,1,,,,,ジャンクシー,0
1286,6030003027098,新規,0,2025-06-30,2025-06-30,合同会社ＬＥＧＡＲＥＡ,,合同会社,埼玉県,さいたま市緑区,大字大門２７１７大門Ｎ３０２,,11,109,3360963,,,,,,,2025-06-30,1,,,,,レガリア,0
1288,6040001139398,新規,0,2025-06-30,2025-06-30,株式会社シャルウィ,,株式会社,千葉県,印西市,中央南２丁目１番地１８１５号,,12,231,2701340,,,,,,,2025-06-30,1,,,,,シャルウィ,0
1290,6040003027948,新規,0,2025-06-30,2025-06-30,ＧＩＡ　ＬＩＮＨ　ＪＰ合同会社,,合同会社,千葉県,船橋市,本町２丁目１１－１２三善ビル２０３,,12,204,2730005,,,,,,,2025-06-30,1,,,,,ジャリンジペ,0
1291,6050003009391,新規,0,2025-06-30,2025-06-30,ＴＨ合同会社,,合同会社,茨城県,古河市,下片田７０４－２,,08,204,3060127,,,,,,,2025-06-30,1,,,,,ティエイチ,0
1294,6060005010355,新規,0,2025-06-30,2025-06-30,一般社団法人いきいきライフ協会栃木小山,,その他の設立登記法人,栃木県,小山市,大字粟宮２３６６番地１,,09,208,3290201,,,,,,,2025-06-30,1,,,,,イキイキライフキョウカイトチギオヤマ,0
1296,6080403005293,新規,0,2025-06-30,2025-06-30,合同会社おむすび,,合同会社,静岡県,浜松市中央区,舞阪町弁天島３１９８番地の５,,22,138,4310214,,,,,,,2025-06-30,1,,,,,オムスビ,0
1298,6090001019356,新規,0,2025-06-30,2025-06-30,カザマ不動産株式会社,,株式会社,山梨県,甲斐市,万才１０６４番地１,,19,210,4000114,,,,,,,2025-06-30,1,,,,,,0
1311,6120001277280,新規,0,2025-06-30,2025-06-30,株式会社ａｓ　ｉｓ,,株式会社,大阪府,大阪市東成区,大今里１丁目３６番１１－８０５号,,27,115,5370012,,,,,,,2025-06-30,1,,,,,アズイズ,0
1312,6120001277306,新規,0,2025-06-30,2025-06-30,株式会社Ｏｎｅｔｒｕｅ,,株式会社,大阪府,大阪市北区,中崎西１丁目８番２４－３１２号,,27,127,5300015,,,,,,,2025-06-30,1,,,,,ワントゥルー,0
1313,6120001277322,新規,0,2025-06-30,2025-06-30,虹海株式会社,,株式会社,大阪府,大阪市平野区,瓜破２丁目１－５０アビタシオン２３－４０２,,27,126,5470024,,,,,,,2025-06-30,1,,,,,コウカイ,0
1314,6120001277330,新規,0,2025-06-30,2025-06-30,シオヒカリ株式会社,,株式会社,大阪府,大阪市福島区,海老江７丁目１４番１０号,,27,103,5530001,,,,,,,2025-06-30,1,,,,,シオヒカリ,0
1318,6120003029886,新規,0,2025-06-30,2025-06-30,合同会社Ｐａｌｅｔｔｅ　Ｂｅｌｌ,,合同会社,大阪府,大阪市北区,本庄西１丁目１‐７,,27,127,5310073,,,,,,,2025-06-30,1,,,,,パレットベル,0
1323,6120901051108,新規,0,2025-06-30,2025-06-30,株式会社高橋,00139744,株式会社,大阪府,茨木市,宮島３丁目３番２６号の１,,27,211,5670853,,,,,,,2025-06-30,1,,,,,タカハシ,0
1324,6120901051116,新規,0,2025-06-30,2025-06-30,株式会社ＡＵＢＥ　Ｊａｐａｎ,,株式会社,大阪府,吹田市,江坂町１丁目２３番３８号,,27,205,5640063,,,,,,,2025-06-30,1,,,,,オウブジャパン,0
1325,6120903005730,新規,0,2025-06-30,2025-06-30,ＫＯＴＥＬＯ合同会社,,合同会社,大阪府,箕面市,森町中３丁目１９番１９号,,27,220,5630257,,,,,,,2025-06-30,1,,,,,コテロ,0
1330,6122001039371,新規,0,2025-06-30,2025-06-30,大阪バスタクシー株式会社,,株式会社,大阪府,東大阪市,高井田中３丁目６番２１号,,27,227,5770065,,,,,,,2025-06-30,1,,,,,オオサカバスタクシー,0
1331,6122001039405,新規,0,2025-06-30,2025-06-30,株式会社るかちゃんヘルパーステーション,,株式会社,大阪府,東大阪市,森河内西２丁目３３番１３号,,27,227,5770061,,,,,,,2025-06-30,1,,,,,ルカチャンヘルパーステーション,0
1342,6140001139074,新規,0,2025-06-30,2025-06-30,実松株式会社,,株式会社,兵庫県,西宮市,甲子園口３丁目１０番１４号,,28,204,6638113,,,,,,,2025-06-30,1,,,,,サネマツ,0
1343,6140001139082,新規,0,2025-06-30,2025-06-30,株式会社リガーレウェルフェア,,株式会社,兵庫県,神戸市中央区,下山手通６丁目１番４号,,28,110,6500011,,,,,,,2025-06-30,1,,,,,リガーレウェルフェア,0
1346,6140003022245,新規,0,2025-06-30,2025-06-30,合同会社美装,,合同会社,兵庫県,神戸市西区,玉津町出合３２１番地リヴェール喜２０５号,,28,111,6512137,,,,,,,2025-06-30,1,,,,,ビソウ,0
1348,6140005027548,新規,0,2025-06-30,2025-06-30,エホバの証人の兵庫県神戸市神戸中央会衆,,その他の設立登記法人,兵庫県,神戸市兵庫区,御崎本町４丁目２番１号,,28,105,6520852,,,,,,,2025-06-30,1,,,,,エホバノショウニンノヒョウゴケンコウベシコウベチュウオウカイシュウ,0
1353,6180001167427,新規,0,2025-06-30,2025-06-30,株式会社エスライフホールディングス,,株式会社,愛知県,春日井市,如意申町８丁目８番地２,,23,206,4860918,,,,,,,2025-06-30,1,,,,,エスライフホールディングス,0
1354,6180001167468,新規,0,2025-06-30,2025-06-30,朝露商事株式会社,,株式会社,愛知県,名古屋市中川区,昭和橋通６丁目２２－２,,23,110,4540852,,,,,,,2025-06-30,1,,,,,アサツユショウジ,0
1355,6180001167484,新規,0,2025-06-30,2025-06-30,株式会社ＨＯＳＨＩＮＯグループ,,株式会社,愛知県,名古屋市名東区,牧の里１丁目１６０２番地メゾンマエダ２０２号,,23,115,4650068,,,,,,,2025-06-30,1,,,,,ホシノグループ,0
1360,6180305009696,新規,0,2025-06-30,2025-06-30,一般社団法人シーアイプラント,,その他の設立登記法人,愛知県,豊橋市,天伯町字梅田５８番地,,23,201,4418122,,,,,,,2025-06-30,1,,,,,シーアイプラント,0
1362,6200001043947,新規,0,2025-06-30,2025-06-30,ＷＡＶＥシステムソリューションズ株式会社,,株式会社,岐阜県,岐阜市,諏訪山２丁目７番７号,,21,201,5013142,,,,,,,2025-06-30,1,,,,,ウェーブシステムソリューションズ,0
1363,6210001020219,新規,0,2025-06-30,2025-06-30,Ｆｉｌｍ倶楽部株式会社,,株式会社,福井県,福井市,文京４丁目２番７号,,18,201,9100017,,,,,,,2025-06-30,1,,,,,フィルムクラブ,0
1372,6290001110508,新規,0,2025-06-30,2025-06-30,ゴールドクロス株式会社,,株式会社,福岡県,筑後市,大字山ノ井２０３番地２コスモ筑後１５０１号,,40,211,8330031,,,,,,,2025-06-30,1,,,,,ゴールドクロス,0
1373,6290001110524,新規,0,2025-06-30,2025-06-30,株式会社ＭＳＭ,,株式会社,福岡県,福岡市西区,室見が丘３丁目１０番１６号,,40,135,8190030,,,,,,,2025-06-30,1,,,,,エムエスエム,0
1374,6290001110565,新規,0,2025-06-30,2025-06-30,株式会社グランドデザイン,,株式会社,福岡県,福岡市東区,千早４丁目２１番５５－１１０４号,,40,131,8130044,,,,,,,2025-06-30,1,,,,,グランドデザイン,0
1376,6290003017040,新規,0,2025-06-30,2025-06-30,白雪公子合同会社,,合同会社,福岡県,福岡市早良区,飯倉３丁目４５－１７ファミールハピネス原１０７号室,,40,137,8140161,,,,,,,2025-06-30,1,,,,,ハクセツコウシ,0
1378,6290801031655,新規,0,2025-06-30,2025-06-30,株式会社ＮＥＥＤＳ,,株式会社,福岡県,北九州市小倉北区,上富野２丁目１番２－１０１号,,40,106,8020022,,,,,,,2025-06-30,1,,,,,ニーズ,0
1381,6340001027465,新規,0,2025-06-30,2025-06-30,株式会社フロントガーデン,,株式会社,鹿児島県,鹿児島市,伊敷台６丁目１２番３号サンリッチ玉里台２０１号,,46,201,8900007,,,,,,,2025-06-30,1,,,,,フロントガーデン,0
1384,6360001035409,新規,0,2025-06-30,2025-06-30,ＴＩＰＵＩ株式会社,,株式会社,沖縄県,那覇市,曙１丁目６番１号,,47,201,9000002,,,,,,,2025-06-30,1,,,,,チプイ,0
1387,6370003007165,新規,0,2025-06-30,2025-06-30,合同会社アウル仙台,,合同会社,宮城県,宮城郡松島町,手樽字左坂１番地,,04,401,9810211,,,,,,,2025-06-30,1,,,,,アウルセンダイ,0
1393,6410003004117,新規,0,2025-06-30,2025-06-30,合資会社小野商店,,合資会社,秋田県,横手市,大森町字大森１６８番地,,05,203,0130521,,,,,,,2025-06-30,1,,,,,オノショウテン,0
1401,6450003002686,新規,0,2025-06-30,2025-06-30,合同会社りしりくる,,合同会社,北海道,利尻郡利尻町,沓形字日出町１番５,,01,518,0970401,,,,,,,2025-06-30,1,,,,,リシリクル,0
1403,6470001020779,新規,0,2025-06-30,2025-06-30,株式会社ＴＥＡＭ　ＭＹ　Ｍｅｄｉａ,,株式会社,香川県,高松市,上林町５１０－３９エニシア高松１階ＯＦＦＩＣＥ－Ｉ,00139733,37,201,7610302,,,,,,,2025-06-30,1,,,,,,0
1404,6490003002030,新規,0,2025-06-30,2025-06-30,合同会社ＧＯＯＤ　ＬＯＯＰ,,合同会社,高知県,吾川郡いの町,天王南９丁目９－４,,39,386,7812123,,,,,,,2025-06-30,1,,,,,グッドループ,0
1407,6700150131287,新規,0,2025-06-30,2025-06-30,Ｘｉａｍｅｎ　Ｊｉｍｅｉ　Ｌｉｎｇｄｏｎｇｚｈｉｚａｏ　Ｗａｎｇｌｕｏｋｅｊｉ　Ｃｏ．，ＬＴＤ,,外国会社等,,,,,,,,Ｘｉａｍｅｎｓｈｉ　Ｊｉｍｅｉｑｕ　Ｘｉｎｇｌｉｎｗａｎｌｕ　５１６Ｈａｏ　５０６Ｓｈｉ　Ｃ３,,,,,,2025-06-30,1,,,,,シャメンジメイリンドンジザオワンロウカギカンパニーリミテッド,0
1419,7010001255957,新規,0,2025-06-30,2025-06-30,山形新庄不動産株式会社,,株式会社,東京都,中央区,日本橋３丁目２番１４号新槇町ビル別館第一１階,,13,102,1030027,,,,,,,2025-06-30,1,,,,,ヤマガタシンジョウフドウサン,0
1420,7010001256303,新規,0,2025-06-30,2025-06-30,株式会社ＴＩＧＹ,,株式会社,東京都,千代田区,神田須田町１丁目７番８号ＶＯＲＴ秋葉原ＩＶ２Ｆ,00139742,13,101,1010041,,,,,,,2025-06-30,1,,,,,ティジー,0
1424,7010003047774,新規,0,2025-06-30,2025-06-30,合同会社ＦＵＫＵＮＥＣＴ,,合同会社,東京都,中央区,銀座１丁目２２番１１号銀座大竹ビジデンス２階,,13,102,1040061,,,,,,,2025-06-30,1,,,,,フクネクト,0
1426,7010005040265,新規,0,2025-06-30,2025-06-30,一般財団法人三上財団,,その他の設立登記法人,東京都,中央区,銀座１丁目１６番７号銀座大栄ビル１２階,,13,102,1040061,,,,,,,2025-06-30,1,,,,,ミカミザイダン,0
1443,7010405024495,新規,0,2025-06-30,2025-06-30,一般社団法人全日本警心協会,,その他の設立登記法人,東京都,港区,虎ノ門３丁目８－２５近鉄虎ノ門ビル１１０３,,13,103,1050001,,,,,,,2025-06-30,1,,,,,ゼンニホンケイシンキョウカイ,0
1447,7010601067521,新規,0,2025-06-30,2025-06-30,株式会社ＩＭＣ,,株式会社,東京都,江東区,青海２丁目７番４号ｔｈｅＳＯＨＯ６１０,,13,108,1350064,,,,,,,2025-06-30,1,,,,,アイエムシー,0
1448,7010603011650,新規,0,2025-06-30,2025-06-30,ＷＳキャピタル合同会社,,合同会社,東京都,墨田区,千歳３丁目９番９－１０１号,,13,107,1300025,,,,,,,2025-06-30,1,,,,,ダブリューエスキャピタル,0
1452,7010803005452,新規,0,2025-06-30,2025-06-30,マリリン合同会社,,合同会社,東京都,大田区,矢口２丁目１７番２８号,,13,111,1460093,,,,,,,2025-06-30,1,,,,,マリリン,0
1461,7011001170469,新規,0,2025-06-30,2025-06-30,ＰＱＣシステム株式会社,,株式会社,東京都,渋谷区,神南１丁目１２－１４渋谷宮田ビルディング,,13,113,1500041,,,,,,,2025-06-30,1,,,,,ピーキューシーシステム,0
1462,7011003021868,新規,0,2025-06-30,2025-06-30,チャーリーブラザーズ合同会社,,合同会社,東京都,渋谷区,道玄坂１丁目１０番８号渋谷道玄坂東急ビル２Ｆ－Ｃ,,13,113,1500043,,,,,,,2025-06-30,1,,,,,チャーリーブラザーズ,0
1463,7011003021876,新規,0,2025-06-30,2025-06-30,合同会社オイト,,合同会社,東京都,目黒区,八雲２丁目１９番６号,,13,110,1520023,,,,,,,2025-06-30,1,,,,,オイト,0
1464,7011003021892,新規,0,2025-06-30,2025-06-30,合同会社ＬＩＦＥＩＳＬＩＶＥ　ＡＶＥＮＧＥＲＳ,,合同会社,東京都,渋谷区,恵比寿南１丁目７番８－７０１号,,13,113,1500022,,,,,,,2025-06-30,1,,,,,ライフイズライブアベンジャーズ,0
1465,7011003022008,新規,0,2025-06-30,2025-06-30,ｕｙｄａ合同会社,,合同会社,東京都,渋谷区,代々木１丁目１０番８号シャトレー代々木第二２０１,,13,113,1510053,,,,,,,2025-06-30,1,,,,,ウユダ,0
1470,7011101112263,新規,0,2025-06-30,2025-06-30,西湖株式会社,,株式会社,東京都,新宿区,西早稲田１丁目１３－１２－１０４,,13,104,1690051,,,,,,,2025-06-30,1,,,,,サイコ,0
1471,7011103016058,新規,0,2025-06-30,2025-06-30,合同会社Ｋ２Ｌ,,合同会社,東京都,新宿区,四谷２丁目９番地１５東京ユナイテッド綜合事務所内,,13,104,1600004,,,,,,,2025-06-30,1,,,,,ケーツーエル,0
1473,7011201026470,新規,0,2025-06-30,2025-06-30,株式会社Ｌａｎｄ．,,株式会社,東京都,中野区,大和町３丁目４４番１６号,,13,114,1650034,,,,,,,2025-06-30,1,,,,,ランド,0
1477,7011303005612,新規,0,2025-06-30,2025-06-30,合同会社Ｋｉｚａｓｈｉ　Ｐｒｏｄｕｃｔｉｏｎ,,合同会社,東京都,杉並区,高井戸東１丁目３１－６Ｅ２０４,,13,115,1680072,,,,,,,2025-06-30,1,,,,,キザシプロダクション,0
1480,7011401027211,新規,0,2025-06-30,2025-06-30,株式会社カープ,,株式会社,東京都,板橋区,小豆沢１丁目４－１パークハイツ小豆沢５０５,,13,119,1740051,,,,,,,2025-06-30,1,,,,,カープ,0
1482,7011503006591,新規,0,2025-06-30,2025-06-30,ＫＲ不動産合同会社,,合同会社,東京都,北区,西ケ原１丁目４０番６号,,13,117,1140024,,,,,,,2025-06-30,1,,,,,ケイアールフドウサン,0
1485,7011801046380,新規,0,2025-06-30,2025-06-30,株式会社スターアップル,,株式会社,東京都,足立区,東和３丁目１２番３４号キャッスルハイム２０２,,13,121,1200003,,,,,,,2025-06-30,1,,,,,スターアップル,0
1492,7013301054533,新規,0,2025-06-30,2025-06-30,株式会社栄光警備保障,,株式会社,東京都,豊島区,池袋本町３丁目２６番１０－２０７号,,13,116,1700011,,,,,,,2025-06-30,1,,,,,エイコウケイビホショウ,0
1505,7030003027089,新規,0,2025-06-30,2025-06-30,合同会社蘆湾,,合同会社,埼玉県,さいたま市南区,鹿手袋３丁目２０番６－３０１号,,11,108,3360031,,,,,,,2025-06-30,1,,,,,ロワン,0
1507,7040003027939,新規,0,2025-06-30,2025-06-30,合同会社ＰＩＮＯ　ＣＵＢＥ,,合同会社,千葉県,千葉市花見川区,幕張町５丁目１８７－２第一盛ビル２階Ｄ号,,12,102,2620032,,,,,,,2025-06-30,1,,,,,ピノキューブ,0
1508,7040003027947,新規,0,2025-06-30,2025-06-30,匯霖膳合同会社,,合同会社,千葉県,市川市,市川３丁目７－７ティエヌケハイツ市川１０２,,12,203,2720034,,,,,,,2025-06-30,1,,,,,エリンゼン,0
1517,7050003009382,新規,0,2025-06-30,2025-06-30,合同会社ルリエ,,合同会社,茨城県,笠間市,美原４丁目４番１７号,,08,216,3091704,,,,,,,2025-06-30,1,,,,,ルリエ,0
1519,7050005013655,新規,0,2025-06-30,2025-06-30,一般社団法人Ｂｅｓｈａ茨城新利根,,その他の設立登記法人,茨城県,稲敷市,中山９５７番地,,08,229,3001415,,,,,,,2025-06-30,1,,,,,ビーシャイバラキシントネ,0
1521,7080005007704,新規,0,2025-06-30,2025-06-30,企業組合静岡ＭＵＧＥＮ,,その他の設立登記法人,静岡県,島田市,船木３８９１番地の１,,22,209,4270107,,,,,,,2025-06-30,1,,,,,シズオカムゲン,0
1535,7120001277271,新規,0,2025-06-30,2025-06-30,星海投資株式会社,,株式会社,大阪府,大阪市都島区,大東町２丁目１１番１１号八坂荘２０１号,,27,102,5340002,,,,,,,2025-06-30,1,,,,,セイカイトウシ,0
1536,7120001277370,新規,0,2025-06-30,2025-06-30,インフォホルダー株式会社,,株式会社,大阪府,大阪市阿倍野区,丸山通１丁目５番２号,,27,119,5450042,,,,,,,2025-06-30,1,,,,,インフォホルダー,0
1543,7120003029836,新規,0,2025-06-30,2025-06-30,Ｌｅｇｅｎｄ合同会社,,合同会社,大阪府,大阪市港区,三先１丁目１２番９－２１７号,,27,107,5520016,,,,,,,2025-06-30,1,,,,,レジェンド,0
1551,7120901051098,新規,0,2025-06-30,2025-06-30,Ｇｏｏｄ　Ｌｉｎｋｓ株式会社,,株式会社,大阪府,吹田市,古江台３丁目７番２０号ジェイグラン北千里１０６号室,,27,205,5650874,,,,,,,2025-06-30,1,,,,,グッドリンクス,0
1552,7120901051107,新規,0,2025-06-30,2025-06-30,Ｒ＆Ｍ　Ｏｆｆｉｃｅ株式会社,,株式会社,大阪府,豊能郡能勢町,平通９番５１,,27,322,5630356,,,,,,,2025-06-30,1,,,,,アールアンドエムオフィス,0
1553,7120901051115,新規,0,2025-06-30,2025-06-30,株式会社オークス,,株式会社,大阪府,吹田市,千里山西２丁目１番４５号エンリイハウス４０２号,,27,205,5650851,,,,,,,2025-06-30,1,,,,,オークス,0
1554,7120901051123,新規,0,2025-06-30,2025-06-30,プリズマ・ワークス株式会社,,株式会社,大阪府,豊中市,柴原町３丁目４番１９号,,27,203,5600055,,,,,,,2025-06-30,1,,,,,プリズマワークス,0
1561,7130001080014,新規,0,2025-06-30,2025-06-30,千嶼株式会社,,株式会社,京都府,京都市北区,紫野東藤ノ森町５番地３２,,26,101,6038223,,,,,,,2025-06-30,1,,,,,センヨウ,0
1565,7140001139081,新規,0,2025-06-30,2025-06-30,池田企画株式会社,,株式会社,兵庫県,伊丹市,南野北１丁目８番１１－２０７号,,28,207,6640887,,,,,,,2025-06-30,1,,,,,イケダキカク,0
1572,7180001167483,新規,0,2025-06-30,2025-06-30,ＡＢＪホールディングス株式会社,,株式会社,愛知県,名古屋市中区,金山１丁目１４番１６号,,23,106,4600022,,,,,,,2025-06-30,1,,,,,エービージェイホールディングス,0
1597,7260001040302,新規,0,2025-06-30,2025-06-30,株式会社ＡＬＥＳＥＥＤ,,株式会社,岡山県,津山市,東一宮１２番地８,,33,203,7080814,,,,,,,2025-06-30,1,,,,,アレシード,0
1598,7260001040310,新規,0,2025-06-30,2025-06-30,ルーツ株式会社,,株式会社,岡山県,岡山市南区,箕島１６４０番地２１,,33,104,7010206,,,,,,,2025-06-30,1,,,,,ルーツ,0
1599,7260003005237,新規,0,2025-06-30,2025-06-30,ＨＵＯＮＧ　ＴＲＡ合同会社,,合同会社,岡山県,総社市,中央１丁目１６番８号デュエル総社パートＩＩ１０８,00139746,33,208,7191131,,,,,,,2025-06-30,1,,,,,フオンチャ,0
1605,7290001110523,新規,0,2025-06-30,2025-06-30,株式会社箱庭商店,,株式会社,福岡県,糟屋郡須惠町,大字須恵１００５番地ライフ須恵中央３０１号,,40,344,8112100,,,,,,,2025-06-30,1,,,,,ハコニワショウテン,0
1606,7290001110531,新規,0,2025-06-30,2025-06-30,ソムニウム・クラース株式会社,,株式会社,福岡県,糸島市,加布里３丁目３番１２号,,40,230,8191124,,,,,,,2025-06-30,1,,,,,ソムニウムクラース,0
1607,7290001110556,新規,0,2025-06-30,2025-06-30,フードテックラボ株式会社,,株式会社,福岡県,福岡市中央区,警固１丁目６番１１号リブ天神２０５号,,40,133,8100023,,,,,,,2025-06-30,1,,,,,フードテックラボ,0
1608,7290003017031,新規,0,2025-06-30,2025-06-30,未来共生合同会社,,合同会社,福岡県,福岡市東区,筥松３丁目２０番３１－２０９号,,40,131,8120061,,,,,,,2025-06-30,1,,,,,ミライキョウセイ,0
1609,7340001027464,新規,0,2025-06-30,2025-06-30,柳別府産業株式会社,,株式会社,鹿児島県,曽於郡大崎町,永吉９０２２番地,,46,468,8997306,,,,,,,2025-06-30,1,,,,,ヤナギベップサンギョウ,0
1623,7380005012987,新規,0,2025-06-30,2025-06-30,一般財団法人福島富岡文化財団,,その他の設立登記法人,福島県,双葉郡富岡町,大字小浜字中央２７２番地稲元テナント２号室,,07,543,9791111,,,,,,,2025-06-30,1,,,,,フクシマトミオカブンカザイダン,0
1635,7500003003546,新規,0,2025-06-30,2025-06-30,合同会社ＫＯＨＹＡ,,合同会社,愛媛県,松山市,石手３丁目６番５号,,38,201,7900852,,,,,,,2025-06-30,1,,,,,コーヤ,0
1636,7700150131286,新規,0,2025-06-30,2025-06-30,ｎｉｎｇｂｏｙｉｃｈｕａｎｇｓｈａｎｇｍａｏｙｏｕｘｉａｎｇｏｎｇｓｉ,,外国会社等,,,,,,,,ｚｈｅｊｉａｎｇｓｈｅｎｇｃｉｘｉｓｈｉｘｉｎｐｕｚｈｅｎｌｉｕｔａｎｇｎａｎｃｕｎｙｉｎｇｊｉａ９ｈａｏ,,,,,,2025-06-30,1,,,,,ニンボイツゥアンシャンマオユウゲンコウシ,0
1649,8010001256302,新規,0,2025-06-30,2025-06-30,ｏｎｉｓａｋｉ株式会社,,株式会社,東京都,中央区,銀座１丁目２２番１１号銀座大竹ビジデンス２Ｆ,,13,102,1040061,,,,,,,2025-06-30,1,,,,,オニサキ,0
1650,8010001256343,新規,0,2025-06-30,2025-06-30,株式会社ＳＯＡＲＩＳＥ,,株式会社,東京都,中央区,銀座１丁目１２番４号Ｎ＆Ｅ－ＢＬＤ．６Ｆ,,13,102,1040061,,,,,,,2025-06-30,1,,,,,ソアライズ,0
1651,8010001256351,新規,0,2025-06-30,2025-06-30,５２３株式会社,,株式会社,東京都,中央区,佃２丁目２番１１－１８０６号,,13,102,1040051,,,,,,,2025-06-30,1,,,,,ゴーニーサン,0
1653,8010003047815,新規,0,2025-06-30,2025-06-30,リフレシア合同会社,,合同会社,東京都,中央区,日本橋中洲４番１３－２０５号,,13,102,1030008,,,,,,,2025-06-30,1,,,,,,0
1654,8010003047823,新規,0,2025-06-30,2025-06-30,アゼーリア合同会社,,合同会社,東京都,中央区,日本橋１丁目４番１号日本橋一丁目ビルディング,,13,102,1030027,,,,,,,2025-06-30,1,,,,,アゼーリア,0
1655,8010003047856,新規,0,2025-06-30,2025-06-30,ＦＥソーラーＴ号合同会社,,合同会社,東京都,千代田区,紀尾井町４番１号ニューオータニガーデンコート１９階フィンポート税理士法人内,,13,101,1020094,,,,,,,2025-06-30,1,,,,,エフイーソーラーティーゴウ,0
1669,8010403035469,新規,0,2025-06-30,2025-06-30,Ｐｒａｙ合同会社,,合同会社,東京都,港区,白金台２丁目２６番９－８０３号,,13,103,1080071,,,,,,,2025-06-30,1,,,,,プレイ,0
1675,8010601067462,新規,0,2025-06-30,2025-06-30,株式会社Ｌｉｆｃｒｅ,,株式会社,東京都,江東区,佐賀２丁目８－６,,13,108,1350031,,,,,,,2025-06-30,1,,,,,リフクリ,0
1676,8010601067520,新規,0,2025-06-30,2025-06-30,Ｎｉｍｂｕｓ　Ｃｏｌｌｅｃｔｉｂｌｅｓ株式会社,,株式会社,東京都,墨田区,江東橋４丁目２４番９,,13,107,1300022,,,,,,,2025-06-30,1,,,,,ニンバスコレクティブル,0
1685,8010903010046,新規,0,2025-06-30,2025-06-30,ＴＳＵＫＵＹＯＭＩ合同会社,,合同会社,東京都,世田谷区,奥沢５丁目４１番１３号第２サンコーポラス３０１,,13,112,1580083,,,,,,,2025-06-30,1,,,,,ツクヨミ,0
1687,8011001170484,新規,0,2025-06-30,2025-06-30,株式会社ハコ,,株式会社,東京都,渋谷区,大山町２０番１１－２０１号室,,13,113,1510065,,,,,,,2025-06-30,1,,,,,ハコ,0
1688,8011001170492,新規,0,2025-06-30,2025-06-30,株式会社ライブフォース,,株式会社,東京都,渋谷区,神宮前１丁目１４番１３号,,13,113,1500001,,,,,,,2025-06-30,1,,,,,ライブフォース,0
1689,8011003021859,新規,0,2025-06-30,2025-06-30,合同会社奥村投資堂,,合同会社,東京都,目黒区,五本木２丁目４４番２号,,13,110,1530053,,,,,,,2025-06-30,1,,,,,オクムラトウシドウ,0
1690,8011003021909,新規,0,2025-06-30,2025-06-30,合同会社ｍｅｔｅｏｒ,,合同会社,東京都,渋谷区,道玄坂１丁目１０番８号渋谷道玄坂東急ビル２Ｆ－Ｃ,,13,113,1500043,,,,,,,2025-06-30,1,,,,,ミーティア,0
1691,8011003022007,新規,0,2025-06-30,2025-06-30,ＣＯＣＯＡ　ＰＲＯＤＵＣＴＩＯＮ合同会社,,合同会社,東京都,渋谷区,神南１丁目１１－４ＦＰＧリンクス神南５階,,13,113,1500041,,,,,,,2025-06-30,1,,,,,ココアプロダクション,0
1692,8011101111982,新規,0,2025-06-30,2025-06-30,株式会社フジマサ,,株式会社,東京都,新宿区,新宿５丁目１７－２ＹＭビル３０１,,13,104,1600022,,,,,,,2025-06-30,1,,,,,フジマサ,0
1693,8011101112270,新規,0,2025-06-30,2025-06-30,株式会社Ｓｏｒａ,,株式会社,東京都,新宿区,西新宿３丁目３番１３号西新宿水間ビル２階,,13,104,1600023,,,,,,,2025-06-30,1,,,,,ソラ,0
1695,8011103016057,新規,0,2025-06-30,2025-06-30,合同会社ＦＲＧ,,合同会社,東京都,新宿区,四谷２丁目９番地１５東京ユナイテッド綜合事務所内,,13,104,1600004,,,,,,,2025-06-30,1,,,,,エフアールジー,0
1699,8011301030677,新規,0,2025-06-30,2025-06-30,株式会社コロン,,株式会社,東京都,杉並区,浜田山３丁目３５番１２号,,13,115,1680065,,,,,,,2025-06-30,1,,,,,コロン,0
1700,8011301030685,新規,0,2025-06-30,2025-06-30,株式会社メックハイブ,,株式会社,東京都,杉並区,方南１丁目９番５号,,13,115,1680062,,,,,,,2025-06-30,1,,,,,メックハイブ,0
1714,8013301054490,新規,0,2025-06-30,2025-06-30,株式会社ファボナッチラボ,,株式会社,東京都,豊島区,東池袋１丁目３４番５号いちご東池袋ビル６階,,13,116,1700013,,,,,,,2025-06-30,1,,,,,ファボナッチラボ,0
1719,8020003028780,新規,0,2025-06-30,2025-06-30,アセンド・モメンタム合同会社,,合同会社,神奈川県,川崎市麻生区,栗平１丁目１０番１６号,,14,137,2150031,,,,,,,2025-06-30,1,,,,,アセンドモメンタム,0
1720,8020003028806,新規,0,2025-06-30,2025-06-30,合同会社オフィスＹＭＨ,,合同会社,神奈川県,横浜市西区,西平沼町１－２８ライオンズマンション平沼橋第２－４０１号,,14,103,2200024,,,,,,,2025-06-30,1,,,,,オフィスワイエムエイチ,0
1730,8030001167258,新規,0,2025-06-30,2025-06-30,ココスム株式会社,,株式会社,埼玉県,深谷市,田谷２８０番地５,,11,218,3660821,,,,,,,2025-06-30,1,,,,,ココスム,0
1731,8030001167324,新規,0,2025-06-30,2025-06-30,株式会社泰昇建機販売,,株式会社,埼玉県,所沢市,上新井２丁目１０番地の７リベラルオーシャン２－１０１,,11,208,3591142,,,,,,,2025-06-30,1,,,,,タイショウケンキハンバイ,0
1740,8040001139396,新規,0,2025-06-30,2025-06-30,株式会社海翔貿易,,株式会社,千葉県,富里市,七栄６５０番地８２８,,12,233,2860221,,,,,,,2025-06-30,1,,,,,カイショウボウエキ,0
1741,8040001139421,新規,0,2025-06-30,2025-06-30,株式会社米工房おおた,,株式会社,千葉県,船橋市,咲が丘１丁目２１番２７号,,12,204,2740807,,,,,,,2025-06-30,1,,,,,コメコウボウオオタ,0
1753,8070003005981,新規,0,2025-06-30,2025-06-30,合同会社ＤａＤａ,,合同会社,群馬県,吾妻郡長野原町,大字林９１７番地３,,10,424,3771309,,,,,,,2025-06-30,1,,,,,ダダ,0
1754,8080401027998,新規,0,2025-06-30,2025-06-30,株式会社ＪＥＮＴＡ,,株式会社,静岡県,磐田市,天龍１０６１番地３スマイルワンＡ２０１,,22,211,4380075,,,,,,,2025-06-30,1,,,,,ジェンタ,0
1757,8110005017244,新規,0,2025-06-30,2025-06-30,一般社団法人日本パーソナルバランス協会,,その他の設立登記法人,新潟県,新潟市中央区,有明大橋町３番２５号ＮＩＣ有明ビル２階,,15,103,9518146,,,,,,,2025-06-30,1,,,,,ニホンパーソナルバランスキョウカイ,0
1765,8120001277147,新規,0,2025-06-30,2025-06-30,株式会社日本消費者評価院,,株式会社,大阪府,大阪市中央区,備後町１丁目４番１６号備後町ＪＹビル７０２Ａ号室,,27,128,5410051,,,,,,,2025-06-30,1,,,,,ニホンショウヒシャヒョウカイン,0
1766,8120001277270,新規,0,2025-06-30,2025-06-30,昭原株式会社,,株式会社,大阪府,大阪市中央区,北浜３丁目１番１２号,,27,128,5410041,,,,,,,2025-06-30,1,,,,,ショウゲン,0
1767,8120001277295,新規,0,2025-06-30,2025-06-30,申基株式会社,,株式会社,大阪府,大阪市浪速区,戎本町１丁目９－２４－１０２,,27,111,5560013,,,,,,,2025-06-30,1,,,,,シンキ,0
1768,8120001277304,新規,0,2025-06-30,2025-06-30,宝之泉株式会社,,株式会社,大阪府,大阪市浪速区,戎本町１丁目９－２４－１０３,,27,111,5560013,,,,,,,2025-06-30,1,,,,,ホウノイズミ,0
1769,8120001277320,新規,0,2025-06-30,2025-06-30,株式会社レイ・ラ・スターアイ,,株式会社,大阪府,大阪市西区,阿波座２丁目３－２３有恒ビル２０５,,27,106,5500011,,,,,,,2025-06-30,1,,,,,レイラスターアイ,0
1770,8120001277329,新規,0,2025-06-30,2025-06-30,東閣投資株式会社,,株式会社,大阪府,大阪市中央区,島之内２丁目１０－１２－７Ｆ,,27,128,5420082,,,,,,,2025-06-30,1,,,,,トウカクトウシ,0
1771,8120001277337,新規,0,2025-06-30,2025-06-30,株式会社Ｇｏｏｄ　Ｌｏｓｅｒ,,株式会社,大阪府,大阪市北区,大深町６番３８号グラングリーン大阪北館ＪＡＭＢＡＳＥ６階ＪＡＭ－ＤＥＳＫ,,27,127,5300011,,,,,,,2025-06-30,1,,,,,グッドルーザー,0
1772,8120001277345,新規,0,2025-06-30,2025-06-30,Ｃｏｄｉａｌ株式会社,,株式会社,大阪府,大阪市中央区,安土町２丁目２番１５号,,27,128,5410052,,,,,,,2025-06-30,1,,,,,コーディアル,0
1774,8120003029851,新規,0,2025-06-30,2025-06-30,合同会社Ｎｏ．９,,合同会社,大阪府,大阪市阿倍野区,文の里４丁目３番１号,,27,119,5450004,,,,,,,2025-06-30,1,,,,,ナンバーナイン,0
1775,8120003029876,新規,0,2025-06-30,2025-06-30,合同会社Ｇｌｏｗ＆Ｇｒａｃｅ,,合同会社,大阪府,大阪市中央区,農人橋１丁目２番８－５０７号,,27,128,5400011,,,,,,,2025-06-30,1,,,,,グロウアンドグレイス,0
1789,8120901051097,新規,0,2025-06-30,2025-06-30,株式会社隼,,株式会社,大阪府,吹田市,岸部中１丁目１７番１９号,,27,205,5640002,,,,,,,2025-06-30,1,,,,,ハヤブサ,0
1790,8120901051106,新規,0,2025-06-30,2025-06-30,株式会社ＳＵＳＨＩ　ＳＰＡＲＫ,,株式会社,大阪府,吹田市,南吹田３丁目２２番２３号ラ・ルミエール３０３号,,27,205,5640043,,,,,,,2025-06-30,1,,,,,スシスパーク,0
1791,8120903005729,新規,0,2025-06-30,2025-06-30,合同会社豊中運送,,合同会社,大阪府,豊中市,中桜塚２丁目１１番２２の２号,,27,203,5610881,,,,,,,2025-06-30,1,,,,,トヨナカウンソウ,0
1793,8122001039378,新規,0,2025-06-30,2025-06-30,株式会社ＬＩＶＥＡＳ,,株式会社,大阪府,東大阪市,金岡４丁目１０番１６号,,27,227,5770823,,,,,,,2025-06-30,1,,,,,リブアス,0
1802,8140003022251,新規,0,2025-06-30,2025-06-30,ＫＲ合同会社,,合同会社,兵庫県,宝塚市,中山桜台５丁目２３番１－１１０４号,,28,214,6650877,,,,,,,2025-06-30,1,,,,,ケーアール,0
1809,8180001167474,新規,0,2025-06-30,2025-06-30,ユウシン技建株式会社,,株式会社,愛知県,名古屋市緑区,大高町字三番割６３番地,,23,114,4598001,,,,,,,2025-06-30,1,,,,,ユウシンギケン,0
1810,8180003028682,新規,0,2025-06-30,2025-06-30,合同会社ＤＯＷＵＯＮＡ,,合同会社,愛知県,名古屋市中村区,東宿町２丁目１２０番地第五豊栄マンション１Ｆ,,23,105,4530063,,,,,,,2025-06-30,1,,,,,ドウォーナ,0
1817,8220001026758,新規,0,2025-06-30,2025-06-30,株式会社ＣＯＣＯ,,株式会社,石川県,能美市,中町酉５番地１,,17,211,9290123,,,,,,,2025-06-30,1,,,,,ココ,0
1820,8230001020974,新規,0,2025-06-30,2025-06-30,株式会社ＡＴＨＥＮＡ,,株式会社,富山県,高岡市,御旅屋町６７‐３高岡駅前ライオンビル３０５,,16,202,9330029,,,,,,,2025-06-30,1,,,,,アテナ,0
1826,8260003005236,新規,0,2025-06-30,2025-06-30,合同会社モリデン,,合同会社,岡山県,岡山市南区,築港ひかり町１番８号,,33,104,7028054,,,,,,,2025-06-30,1,,,,,モリデン,0
1833,8290001110547,新規,0,2025-06-30,2025-06-30,ＴＷ株式会社,,株式会社,福岡県,福岡市西区,野方４丁目１３番３号,,40,135,8190043,,,,,,,2025-06-30,1,,,,,ティーダブリュー,0
1834,8290001110563,新規,0,2025-06-30,2025-06-30,株式会社Ｍｅｄｉｃａｌ海結,,株式会社,福岡県,久留米市,中央町３８番地の１４,,40,203,8300023,,,,,,,2025-06-30,1,,,,,メディカルカイユウ,0
1837,8290003017030,新規,0,2025-06-30,2025-06-30,合同会社気,,合同会社,福岡県,飯塚市,花瀬４６９番地２０,,40,205,8200045,,,,,,,2025-06-30,1,,,,,キ,0
1838,8290003017047,新規,0,2025-06-30,2025-06-30,合同会社Ｌｉｎｏ．Ｈｕｌｉ,,合同会社,福岡県,筑後市,大字野町７２６番地１,,40,211,8330032,,,,,,,2025-06-30,1,,,,,リノフリ,0
1840,8290801031653,新規,0,2025-06-30,2025-06-30,ＦＦＣ株式会社,,株式会社,福岡県,田川郡川崎町,大字池尻１３１３番地１０,,40,605,8270002,,,,,,,2025-06-30,1,,,,,エフエフシー,0
1842,8310001019661,新規,0,2025-06-30,2025-06-30,ＧＲｐｌｕｓ株式会社,,株式会社,長崎県,佐世保市,萩坂町１７４５番地８,,42,202,8593232,,,,,,,2025-06-30,1,,,,,ジーアールプラス,0
1858,8360003015051,新規,0,2025-06-30,2025-06-30,合同会社ＸＺＹＮ,,合同会社,沖縄県,那覇市,牧志２丁目１７－２７－４０１,,47,201,9000013,,,,,,,2025-06-30,1,,,,,エックスゼイン,0
1867,8400003003489,新規,0,2025-06-30,2025-06-30,ＳＨＡＦ合同会社,,合同会社,岩手県,九戸郡軽米町,大字晴山第２３地割６８番地,,03,501,0286221,,,,,,,2025-06-30,1,,,,,シャフ,0
1870,8430001094734,新規,0,2025-06-30,2025-06-30,株式会社アサヒ,,株式会社,北海道,札幌市北区,西茨戸２番地４５９,,01,102,0028038,,,,,,,2025-06-30,1,,,,,アサヒ,0
1874,8460101007725,新規,0,2025-06-30,2025-06-30,株式会社カリーノ,,株式会社,北海道,帯広市,西二十二条南３丁目２０－７,,01,207,0802472,,,,,,,2025-06-30,1,,,,,カリーノ,0
1887,8700150131285,新規,0,2025-06-30,2025-06-30,Ａｐｅｘ　Ｉｎｎｏｖａｔｉｏｎ　Ｌｉｍｉｔｅｄ,,外国会社等,,,,,,,,Ｕｎｉｔ　２０５，Ｕｎｉｔ　Ｃ，２／Ｆ，Ｋｗｏｎｇ　Ｏｎ　Ｂａｎｋ　Ｍｏｎｇｋｏｋ　Ｂｒａｎｃｈ　Ｂｕｉｌｄｉｎｇ　７２８－７３０　Ｎａｔｈａｎ　Ｒｏａｄ　Ｍｏｎｇ　Ｋｏｋ　Ｈｏｎｇ　Ｋｏｎｇ,,,,,,2025-06-30,1,,,,,エイペックスイノベーションリミテッド,0
1897,9010001256350,新規,0,2025-06-30,2025-06-30,株式会社Ａ＆Ｙ　Ｉｎｓｔｉｔｕｔｅ,,株式会社,東京都,中央区,勝どき４丁目６番１号,,13,102,1040054,,,,,,,2025-06-30,1,,,,,エーアンドワイインスティテュート,0
1898,9010001256359,新規,0,2025-06-30,2025-06-30,株式会社ＭＡＲＵＰＥＫＥ,,株式会社,東京都,千代田区,五番町１２番地６五番町マンション２０１号室,,13,101,1020076,,,,,,,2025-06-30,1,,,,,マルペケ,0
1900,9010003047806,新規,0,2025-06-30,2025-06-30,合同会社サンルナ,,合同会社,東京都,中央区,日本橋兜町１７番１号日本橋ロイヤルプラザ７０６,,13,102,1030026,,,,,,,2025-06-30,1,,,,,,0
1901,9010003047814,新規,0,2025-06-30,2025-06-30,Ｓｋｙｌｉｎｅ　Ｓｅｍｉｃｏｎｄｕｃｔｏｒ　Ｓｅｒｖｉｃｅｓ　Ｊａｐａｎ合同会社,,合同会社,東京都,中央区,八丁堀４丁目４番４号梅崎ビル３階,,13,102,1040032,,,,,,,2025-06-30,1,,,,,スカイラインセミコンダクターサービシズジャパン,0
1902,9010003047822,新規,0,2025-06-30,2025-06-30,合同会社トリニティハルティ,,合同会社,東京都,中央区,日本橋１丁目４番１号,,13,102,1030027,,,,,,,2025-06-30,1,,,,,トリニティハルティ,0
1903,9010003047855,新規,0,2025-06-30,2025-06-30,ＦＥソーラーＫ号合同会社,,合同会社,東京都,千代田区,紀尾井町４番１号ニューオータニガーデンコート１９階フィンポート税理士法人内,,13,101,1020094,,,,,,,2025-06-30,1,,,,,エフイーソーラーケイゴウ,0
1921,9010401191313,新規,0,2025-06-30,2025-06-30,ｈｏｆｅｒ　Ｊａｐａｎ株式会社,,株式会社,東京都,港区,西麻布２丁目２３番２０号,,13,103,1060031,,,,,,,2025-06-30,1,,,,,ホーファージャパン,0
1928,9010601067528,新規,0,2025-06-30,2025-06-30,未来バイオ株式会社,,株式会社,東京都,墨田区,両国１丁目３－１２９２５両国第二ビル,,13,107,1300026,,,,,,,2025-06-30,1,,,,,ミライバイオ,0
1933,9010801036299,新規,0,2025-06-30,2025-06-30,株式会社Ｒｅａｃｔ　Ｐｌｕｓ,,株式会社,東京都,大田区,西馬込２丁目３２番１６号,,13,111,1430026,,,,,,,2025-06-30,1,,,,,リアクトプラス,0
1934,9010903010045,新規,0,2025-06-30,2025-06-30,合同会社ＰｒｉｍｅＸ,,合同会社,東京都,世田谷区,上野毛１丁目９―２２,,13,112,1580093,,,,,,,2025-06-30,1,,,,,プライムエックス,0
1935,9010905004788,新規,0,2025-06-30,2025-06-30,一般社団法人まるから,,その他の設立登記法人,東京都,世田谷区,北烏山８丁目２２番１８号,,13,112,1570061,,,,,,,2025-06-30,1,,,,,マルカラ,0
1941,9011001170442,新規,0,2025-06-30,2025-06-30,株式会社Ｓａｎｐｏｇｏｏｄ,,株式会社,東京都,渋谷区,道玄坂１丁目１０番８号渋谷道玄坂東急ビル２Ｆ－Ｃ,,13,113,1500043,,,,,,,2025-06-30,1,,,,,サンポウグッド,0
1942,9011001170459,新規,0,2025-06-30,2025-06-30,株式会社ＳＩＺＥＮ,,株式会社,東京都,渋谷区,恵比寿西２丁目４番８号ウィンド恵比寿ビル８Ｆ,,13,113,1500021,,,,,,,2025-06-30,1,,,,,シゼン,0
1943,9011001170698,新規,0,2025-06-30,2025-06-30,株式会社ナインティエイト・アンド・コー,,株式会社,東京都,渋谷区,桜丘町２３番１７号シティコート桜丘４０４,,13,113,1500031,,,,,,,2025-06-30,1,,,,,ナインティエイトアンドコー,0
1944,9011001170855,新規,0,2025-06-30,2025-06-30,株式会社Ｗｈｉｃｈ　ｏｎｅ,,株式会社,東京都,渋谷区,円山町１２番２号,,13,113,1500044,,,,,,,2025-06-30,1,,,,,ウィッチワン,0
1945,9011001170871,新規,0,2025-06-30,2025-06-30,株式会社Ｂｌｕｅｃｈｉｐ　ＩｎｔｅＧｒｉｔ,,株式会社,東京都,目黒区,東山１丁目２６番９号,,13,110,1530043,,,,,,,2025-06-30,1,,,,,ブルーチップインテグリット,0
1947,9011003021874,新規,0,2025-06-30,2025-06-30,恵比寿ベース合同会社,,合同会社,東京都,渋谷区,広尾１丁目１番３５号マンション広尾台８０５,,13,113,1500012,,,,,,,2025-06-30,1,,,,,エビスベース,0
1948,9011003021882,新規,0,2025-06-30,2025-06-30,合同会社ｍｏｍｏｔｔｏ,,合同会社,東京都,渋谷区,神宮前６丁目２３番４号桑野ビル２階,,13,113,1500001,,,,,,,2025-06-30,1,,,,,モモット,0
1949,9011003021965,新規,0,2025-06-30,2025-06-30,合同会社ハピランス,,合同会社,東京都,渋谷区,恵比寿西２丁目８－４ＥＸ恵比寿西ビル５階,,13,113,1500021,,,,,,,2025-06-30,1,,,,,ハピランス,0
1957,9011105011492,新規,0,2025-06-30,2025-06-30,一般社団法人Ｋ２Ｌ,,その他の設立登記法人,東京都,新宿区,四谷２丁目９番地１５東京ユナイテッド綜合事務所内,,13,104,1600004,,,,,,,2025-06-30,1,,,,,ケーツーエル,0
1958,9011201026477,新規,0,2025-06-30,2025-06-30,株式会社Ｙｕｉｔ,,株式会社,東京都,中野区,本町２丁目６－８矢澤コーポ１０１,,13,114,1640012,,,,,,,2025-06-30,1,,,,,ユイット,0
1968,9013303007743,新規,0,2025-06-30,2025-06-30,かるら合同会社,,合同会社,東京都,豊島区,巣鴨３丁目５番１６－７０９号,,13,116,1700002,,,,,,,2025-06-30,1,,,,,カルラ,0
1972,9021001085623,新規,0,2025-06-30,2025-06-30,株式会社Ｕｒｕ,,株式会社,神奈川県,藤沢市,鵠沼東４番６号奥田ビル７階,00139734,14,205,2510026,,,,,,,2025-06-30,1,,,,,ウル,0
1983,9030003027095,新規,0,2025-06-30,2025-06-30,合同会社１ｓｔ　Ｌｉｎｋ,,合同会社,埼玉県,さいたま市大宮区,三橋１丁目４７８番地１,,11,103,3300856,,,,,,,2025-06-30,1,,,,,ファーストリンク,0
2002,9040001139395,新規,0,2025-06-30,2025-06-30,株式会社ＲＹＵＳＵＩ,,株式会社,千葉県,流山市,加６丁目１３７１番地の９,,12,220,2700176,,,,,,,2025-06-30,1,,,,,リュウスイ,0
2003,9040001139404,新規,0,2025-06-30,2025-06-30,おどり家株式会社,,株式会社,千葉県,野田市,中根１９３番地の２６,,12,208,2780031,,,,,,,2025-06-30,1,,,,,オドリヤ,0
2005,9040003027920,新規,0,2025-06-30,2025-06-30,合同会社アロウズ,,合同会社,千葉県,柏市,南逆井３丁目２３番２９号,,12,217,2770043,,,,,,,2025-06-30,1,,,,,アロウズ,0
2006,9040003027953,新規,0,2025-06-30,2025-06-30,合同会社Ｆｌｏｗ　Ｄｅｓｉｇｎ　ＡＳＢＬ,,合同会社,千葉県,市川市,曽谷５丁目３０番８号,,12,203,2720832,,,,,,,2025-06-30,1,,,,,フロウデザインエーエスビーエル,0
2014,9080101025590,新規,0,2025-06-30,2025-06-30,株式会社アセットシード８ｔｈ,,株式会社,静岡県,沼津市,西間門２８番地の３,,22,203,4100871,,,,,,,2025-06-30,1,,,,,アセットシードエイト,0
2017,9090001019353,新規,0,2025-06-30,2025-06-30,ハイラ株式会社,,株式会社,山梨県,笛吹市,春日居町熊野堂４３７,,19,211,4060012,,,,,,,2025-06-30,1,,,,,ハイラ,0
2034,9120001277113,新規,0,2025-06-30,2025-06-30,万象国際株式会社,,株式会社,大阪府,大阪市平野区,平野馬場１丁目５番２５号,,27,126,5470048,,,,,,,2025-06-30,1,,,,,バンショウコクサイ,0
2035,9120001277179,新規,0,2025-06-30,2025-06-30,トラスティアパートナーズ株式会社,,株式会社,大阪府,大阪市西区,靱本町１丁目１８番１０－９０６号,,27,106,5500004,,,,,,,2025-06-30,1,,,,,トラスティアパートナーズ,0
2036,9120001277212,新規,0,2025-06-30,2025-06-30,源銖株式会社,,株式会社,大阪府,大阪市住吉区,南住吉２丁目６－２１－２０５,,27,120,5580041,,,,,,,2025-06-30,1,,,,,ゲンシュ,0
2037,9120001277229,新規,0,2025-06-30,2025-06-30,株式会社Ｉｒｏｎ　Ｊｏｈｎ,,株式会社,大阪府,大阪市西区,新町１丁目３４番２－１８０６号,,27,106,5500013,,,,,,,2025-06-30,1,,,,,アイアンジョン,0
2038,9120001277303,新規,0,2025-06-30,2025-06-30,サンシャイン株式会社,,株式会社,大阪府,大阪市浪速区,戎本町１丁目９－２４－１０５,,27,111,5560013,,,,,,,2025-06-30,1,,,,,サンシャイン,0
2039,9120001277328,新規,0,2025-06-30,2025-06-30,株式会社東途社,,株式会社,大阪府,大阪市生野区,桃谷２丁目１２－２６,,27,116,5440034,,,,,,,2025-06-30,1,,,,,トウトシャ,0
2040,9120001277360,新規,0,2025-06-30,2025-06-30,株式会社Ｓｕｎｏａ,,株式会社,大阪府,大阪市中央区,平野町４丁目６－９レイビビル５０４,,27,128,5410046,,,,,,,2025-06-30,1,,,,,スノア,0
2043,9120003029875,新規,0,2025-06-30,2025-06-30,合同会社Ｗｏｒｋ　ｏｕｔ,,合同会社,大阪府,大阪市生野区,巽南１丁目４番１０号,00139736,27,116,5440015,,,,,,,2025-06-30,1,,,,,ワークアウト,0
2049,9120901051113,新規,0,2025-06-30,2025-06-30,株式会社ＣＲＥＷＥＡ,,株式会社,大阪府,吹田市,吹東町５７番７号,,27,205,5640014,,,,,,,2025-06-30,1,,,,,クレウィア,0
2062,9140001139030,新規,0,2025-06-30,2025-06-30,株式会社Ｐｒｉｍａｖｅｒａ,,株式会社,兵庫県,明石市,藤江１５１７番地の１フォンテーヌ１０１号,,28,203,6730044,,,,,,,2025-06-30,1,,,,,プリマヴェーラ,0
2063,9140001139071,新規,0,2025-06-30,2025-06-30,株式会社紬,,株式会社,兵庫県,相生市,若狭野町若狭野４２７－１番地,,28,208,6780081,,,,,,,2025-06-30,1,,,,,ツムギ,0
2064,9140003022250,新規,0,2025-06-30,2025-06-30,合同会社アウラ,,合同会社,兵庫県,神戸市北区,鈴蘭台東町１丁目７番１３－９０１号,,28,109,6511112,,,,,,,2025-06-30,1,,,,,アウラ,0
2070,9180001167465,新規,0,2025-06-30,2025-06-30,ＺＲ　ＴＲＡＤＩＮＧ株式会社,,株式会社,愛知県,愛西市,新右エ門新田町郷東４２番地２,,23,232,4960934,,,,,,,2025-06-30,1,,,,,ゼットアールトレーディング,0
2071,9180001167473,新規,0,2025-06-30,2025-06-30,株式会社ココリア,,株式会社,愛知県,日進市,香久山３丁目９１８番地１,,23,230,4700134,,,,,,,2025-06-30,1,,,,,ココリア,0
2074,9180003028681,新規,0,2025-06-30,2025-06-30,合同会社ＭＵＧＨＡＬ　ＴＲＡＤＥＲＳ,,合同会社,愛知県,名古屋市中区,大須２丁目１８番５５号ダイアパレス大須第二２０６号,,23,106,4600011,,,,,,,2025-06-30,1,,,,,ムガールトレーダーズ,0
2078,9200001043936,新規,0,2025-06-30,2025-06-30,株式会社グローバルライナー,,株式会社,岐阜県,美濃加茂市,古井町下古井６４番地,,21,211,5050034,,,,,,,2025-06-30,1,,,,,グローバルライナー,0
2081,9220001026765,新規,0,2025-06-30,2025-06-30,株式会社サンエステート,,株式会社,石川県,白山市,宮保町１５２０番地,,17,210,9240061,,,,,,,2025-06-30,1,,,,,サンエステート,0
2085,9240001065126,新規,0,2025-06-30,2025-06-30,株式会社ワンポ,,株式会社,広島県,広島市南区,大州２丁目１２－１５,,34,103,7320802,,,,,,,2025-06-30,1,,,,,ワンポ,0
2092,9260001040309,新規,0,2025-06-30,2025-06-30,株式会社ＲＣプロテクト,,株式会社,岡山県,瀬戸内市,長船町福岡４８０番地３,,33,212,7014265,,,,,,,2025-06-30,1,,,,,アールシープロテクト,0
2096,9290001110505,新規,0,2025-06-30,2025-06-30,ワックスＩＮＯＵＥ株式会社,,株式会社,福岡県,糟屋郡篠栗町,田中２丁目８番２４号,,40,342,8112416,,,,,,,2025-06-30,1,,,,,ワックスイノウエ,0
2097,9290001110521,新規,0,2025-06-30,2025-06-30,株式会社ほなみ不動産,,株式会社,福岡県,飯塚市,上三緒５７２番地７,,40,205,8200013,,,,,,,2025-06-30,1,,,,,ホナミフドウサン,0
2098,9290001110546,新規,0,2025-06-30,2025-06-30,ＵＸワールドデザイン株式会社,,株式会社,福岡県,糸島市,二丈深江７丁目１番３３号,,40,230,8191601,,,,,,,2025-06-30,1,,,,,ユーエックスワールドデザイン,0
2099,9290003017046,新規,0,2025-06-30,2025-06-30,Ｎｅｍｕ　Ｓｔｕｄｉｏ合同会社,,合同会社,福岡県,福岡市博多区,博多駅前１丁目２３－２ＰａｒｋＦｒｏｎｔ１－５Ｆ－Ｂ,,40,132,8120011,,,,,,,2025-06-30,1,,,,,ネムスタジオ,0
2104,9320003004701,新規,0,2025-06-30,2025-06-30,合同会社結．サポート,,合同会社,大分県,中津市,大字大新田７６２番地,,44,203,8710001,,,,,,,2025-06-30,1,,,,,ユイテンサポート,0
2116,9360003015042,新規,0,2025-06-30,2025-06-30,ＡＢＧ合同会社,,合同会社,沖縄県,那覇市,久米２丁目３番１５号,,47,201,9000033,,,,,,,2025-06-30,1,,,,,エービージー,0
2125,9430001094733,新規,0,2025-06-30,2025-06-30,株式会社ＣＡＲＡＴ,,株式会社,北海道,岩見沢市,岡山町１２９番地２６,,01,210,0790181,,,,,,,2025-06-30,1,,,,,カラット,0
2126,9430001094741,新規,0,2025-06-30,2025-06-30,札幌試薬株式会社,,株式会社,北海道,札幌市中央区,南二条西５丁目３１－１,,01,101,0600062,,,,,,,2025-06-30,1,,,,,サッポロシヤク,0
2131,9700150131284,新規,0,2025-06-30,2025-06-30,ａｎｊｉｏｕｇｅｊｉａｊｕｙｏｕｘｉａｎｇｏｎｇｓｉ,,外国会社等,,,,,,,,１５０　Ｔａｉｎｉｎｇ　Ｒｏａｄ，Ｔｉａｎｚｉｈｕ　Ｔｏｗｎ，Ａｎｊｉ　Ｃｏｕｎｔｙ，Ｈｕｚｈｏｕ，Ｚｈｅｊｉａｎｇ,,,,,,2025-06-30,1,,,,,アンジオウゲジャジュユウゲンコウシ,0
