sequenceNumber,corporateNumber,process,correct,updateDate,changeDate,name,nameImageId,kind,prefectureName,cityName,streetNumber,addressImageId,prefectureCode,cityCode,postCode,addressOutside,addressOutsideImageId,closeDate,closeCause,successorCorporateNumber,changeCause,assignmentDate,latest,enName,enPrefectureName,enCityName,enAddressOutside,furigana,hihyoji
8,1010001230916,新規,0,2022-11-18,2022-11-18,ＣＰＤ投資顧問株式会社,,株式会社,東京都,千代田区,紀尾井町３番１２号,,13,101,1020094,,,,,,,2022-11-18,1,,,,,シーピーディートウシコモン,0
9,1010001230924,新規,0,2022-11-18,2022-11-18,株式会社マイ・エース,,株式会社,東京都,中央区,日本橋堀留町２丁目３番１４号堀留ＴＨビル１０階,,13,102,1030012,,,,,,,2022-11-18,1,,,,,マイエース,0
15,1010003039125,新規,0,2022-11-18,2022-11-18,プラティーク合同会社,,合同会社,東京都,中央区,日本橋茅場町３丁目３番２号,,13,102,1030025,,,,,,,2022-11-18,1,,,,,プラティーク,0
21,1010401170943,新規,0,2022-11-18,2022-11-18,株式会社ｆｏｔｏｇｅｎｉｃａ,,株式会社,東京都,港区,浜松町１丁目１８番１３号高桑ビル３階,,13,103,1050013,,,,,,,2022-11-18,1,,,,,フォトジェニカ,0
23,1010405021572,新規,0,2022-11-18,2022-11-18,一般社団法人美白桃会,,その他の設立登記法人,東京都,港区,南青山５丁目６番２４号Ｂａｒｂｉｚｏｎ２３,,13,103,1070062,,,,,,,2022-11-18,1,,,,,ビハクトウカイ,0
39,1011103012401,新規,0,2022-11-18,2022-11-18,合同会社ＭＥＲＩＥ,,合同会社,東京都,新宿区,市谷長延寺町６,,13,104,1620847,,,,,,,2022-11-18,1,,,,,メリエ,0
43,1011501028676,新規,0,2022-11-18,2022-11-18,株式会社ＥＬＦ,,株式会社,東京都,北区,西が丘１丁目４５番１７号,,13,117,1150056,,,,,,,2022-11-18,1,,,,,エルフ,0
44,1011501028684,新規,0,2022-11-18,2022-11-18,株式会社ＭＹＴ商事,,株式会社,東京都,荒川区,荒川１丁目３２番４－１０１号,,13,118,1160002,,,,,,,2022-11-18,1,,,,,エムワイティーショウジ,0
46,1011701025804,新規,0,2022-11-18,2022-11-18,日辰国際株式会社,,株式会社,東京都,江戸川区,松島３丁目４３－１９,,13,123,1320031,,,,,,,2022-11-18,1,,,,,ヒタツコクサイ,0
53,1012401039879,新規,0,2022-11-18,2022-11-18,株式会社コノコノアーキテクツ,,株式会社,東京都,三鷹市,深大寺２丁目８番１５号,,13,204,1810016,,,,,,,2022-11-18,1,,,,,コノコノアーキテクツ,0
54,1012401039887,新規,0,2022-11-18,2022-11-18,株式会社ＨＩＳＴＯ,,株式会社,東京都,府中市,清水が丘３丁目２６番の１８,,13,206,1830015,,,,,,,2022-11-18,1,,,,,ヒスト,0
57,1012703002576,新規,0,2022-11-18,2022-11-18,合同会社加賀見,,合同会社,東京都,西東京市,住吉町３丁目１０番２５－２０１１号,,13,229,2020005,,,,,,,2022-11-18,1,,,,,カガミ,0
61,1013101009057,新規,0,2022-11-18,2022-11-18,株式会社Ｕ．Ｓ．Ｇｒｉｆｆｉｎ,,株式会社,東京都,福生市,武蔵野台２丁目１２番地６,,13,218,1970013,,,,,,,2022-11-18,1,,,,,ユーエスグリフィン,0
83,1021001077479,新規,0,2022-11-18,2022-11-18,株式会社シェイド,,株式会社,神奈川県,大和市,南林間１丁目４番９－３０４号,,14,213,2420006,,,,,,,2022-11-18,1,,,,,シェイド,0
97,1030001151128,新規,0,2022-11-18,2022-11-18,株式会社Ａライフサービス,,株式会社,埼玉県,越谷市,越ヶ谷３丁目４番４号,,11,222,3430813,,,,,,,2022-11-18,1,,,,,エーライフサービス,0
98,1030001151136,新規,0,2022-11-18,2022-11-18,株式会社昌和,,株式会社,埼玉県,入間市,大字下藤沢１３１２－６,,11,225,3580011,,,,,,,2022-11-18,1,,,,,ショウワ,0
114,1040001125923,新規,0,2022-11-18,2022-11-18,株式会社ＩＣＨＩＨＡＲＡ　ＣＯＮＮＥＣＴＩＯＮ,,株式会社,千葉県,市原市,五井中央西２丁目８番２６号,,12,219,2900081,,,,,,,2022-11-18,1,,,,,イチハラコネクション,0
115,1040001125931,新規,0,2022-11-18,2022-11-18,株式会社スマートバニー,,株式会社,千葉県,我孫子市,新木野３丁目３２番２３号,,12,222,2701114,,,,,,,2022-11-18,1,,,,,スマートバニー,0
125,1050001051986,新規,0,2022-11-18,2022-11-18,Ｆ＆Ｚ　ＥＮＴＥＲＰＲＩＳＥＳ株式会社,,株式会社,茨城県,坂東市,寺久字向地１０５４番３,,08,228,3060656,,,,,,,2022-11-18,1,,,,,エフアンドゼットエンタープライゼズ,0
133,1070001039823,新規,0,2022-11-18,2022-11-18,株式会社いやしハウス樹林,,株式会社,群馬県,安中市,松井田町松井田２番地５,,10,211,3790222,,,,,,,2022-11-18,1,,,,,イヤシハウスジュリン,0
134,1070001039848,新規,0,2022-11-18,2022-11-18,エステート研株式会社,,株式会社,群馬県,伊勢崎市,宮子町６４６番地,,10,204,3720801,,,,,,,2022-11-18,1,,,,,エステートケン,0
136,1070003004718,新規,0,2022-11-18,2022-11-18,協栄資産管理合同会社,,合同会社,群馬県,伊勢崎市,境伊与久１３９７番地１,,10,204,3700105,,,,,,,2022-11-18,1,,,,,キョウエイシサンカンリ,0
140,1080101023651,新規,0,2022-11-18,2022-11-18,リアン株式会社,,株式会社,静岡県,富士市,厚原２１６８番地の２,,22,210,4190201,,,,,,,2022-11-18,1,,,,,リアン,0
166,1120003022838,新規,0,2022-11-18,2022-11-18,合同会社ＳＴ漆,,合同会社,大阪府,大阪市中央区,瓦町４丁目３番７号ＶＯＲＴ御堂筋本町５０２号,,27,128,5410048,,,,,,,2022-11-18,1,,,,,エスティーシチ,0
168,1120105009642,新規,0,2022-11-18,2022-11-18,一般社団法人こぐま,,その他の設立登記法人,大阪府,堺市中区,福田７００番地３,,27,142,5998241,,,,,,,2022-11-18,1,,,,,コグマ,0
191,1150001025963,新規,0,2022-11-18,2022-11-18,株式会社レモネード,,株式会社,奈良県,大和郡山市,額田部北町１２２０番地２,,29,203,6391037,,,,,,,2022-11-18,1,,,,,レモネード,0
192,1150003002812,新規,0,2022-11-18,2022-11-18,中吉合同会社,,合同会社,奈良県,五條市,今井５丁目６－２９,,29,207,6370004,,,,,,,2022-11-18,1,,,,,ナカヨシ,0
206,1180001153860,新規,0,2022-11-18,2022-11-18,星崎工機株式会社,,株式会社,愛知県,名古屋市南区,南野３丁目１１６番地の１,,23,112,4570068,,,,,,,2022-11-18,1,,,,,ホシザキコウキ,0
207,1180001153869,新規,0,2022-11-18,2022-11-18,株式会社Ｂａｎｓｉｌ　Ｄｒｅａｍｓ,,株式会社,愛知県,名古屋市中区,大須４丁目２番２１号グリーンハイツ南久屋１１０１号室,,23,106,4600011,,,,,,,2022-11-18,1,,,,,バンシルドリームズ,0
211,1180003024507,新規,0,2022-11-18,2022-11-18,ＭＡＲＵ合同会社,,合同会社,愛知県,名古屋市中区,栄４丁目４番９号,,23,106,4600008,,,,,,,2022-11-18,1,,,,,マル,0
212,1180003024515,新規,0,2022-11-18,2022-11-18,合同会社ＫＥＩＤＡＳ,,合同会社,愛知県,名古屋市中川区,富川町１丁目１番地の６,,23,110,4540037,,,,,,,2022-11-18,1,,,,,ケイダス,0
216,1200001040684,新規,0,2022-11-18,2022-11-18,株式会社ふじかけ鍼灸院,,株式会社,岐阜県,可児市,二野２３８９番地４,,21,214,5090232,,,,,,,2022-11-18,1,,,,,フジカケシンキュウイン,0
224,1240001060679,新規,0,2022-11-18,2022-11-18,株式会社ニッカーズ,,株式会社,広島県,広島市西区,三滝町１２番３５－４１０号,,34,104,7330005,,,,,,,2022-11-18,1,,,,,ニッカーズ,0
242,1290001099630,新規,0,2022-11-18,2022-11-18,株式会社ＦＬＹ　ＨＩＧＨ　ＥＮＴＥＲＴＡＩＮＭＥＮＴ,,株式会社,福岡県,福岡市南区,筑紫丘１丁目１９番３号,,40,134,8150036,,,,,,,2022-11-18,1,,,,,フライハイエンターテイメント,0
257,1330003009590,新規,0,2022-11-18,2022-11-18,合同会社有機生活キッチン,,合同会社,熊本県,熊本市東区,佐土原２丁目４番２０号,,43,102,8620916,,,,,,,2022-11-18,1,,,,,ユウキセイカツキッチン,0
260,1340001025184,新規,0,2022-11-18,2022-11-18,株式会社ＦｏｏｔＷｏｒｋｓ,,株式会社,鹿児島県,鹿児島市,紫原３丁目４０番１０－Ｂ号,,46,201,8900082,,,,,,,2022-11-18,1,,,,,フットワークス,0
261,1340003003964,新規,0,2022-11-18,2022-11-18,合同会社ライフジャパン,,合同会社,鹿児島県,出水市,大野原町１０６５－１コーポ阿久根１０１号,,46,208,8990216,,,,,,,2022-11-18,1,,,,,ライフジャパン,0
273,1370003005900,新規,0,2022-11-18,2022-11-18,合同会社ＵＮＩＴＥ,,合同会社,宮城県,加美郡加美町,四日市場字元宿５４番地,,04,445,9814221,,,,,,,2022-11-18,1,,,,,ユナイト,0
283,1400001016061,新規,0,2022-11-18,2022-11-18,株式会社ＮＳＴ,,株式会社,岩手県,奥州市,水沢羽田町字沼尻１４１番地２１,,03,215,0230132,,,,,,,2022-11-18,1,,,,,エヌエスティ,0
289,1430001087876,新規,0,2022-11-18,2022-11-18,株式会社札幌カーゴ,,株式会社,北海道,札幌市手稲区,新発寒六条４丁目１番７号,,01,109,0060806,,,,,,,2022-11-18,1,,,,,サッポロカーゴ,0
290,1430001087884,新規,0,2022-11-18,2022-11-18,株式会社勇建工業,,株式会社,北海道,札幌市白石区,川下三条４丁目３番４号,,01,104,0030863,,,,,,,2022-11-18,1,,,,,ユウケンコウギョウ,0
291,1430001087892,新規,0,2022-11-18,2022-11-18,株式会社山光物流,,株式会社,北海道,札幌市白石区,東米里２１３４番地,,01,104,0030876,,,,,,,2022-11-18,1,,,,,サンコウブツリュウ,0
293,1430003014465,新規,0,2022-11-18,2022-11-18,京栄合同会社,,合同会社,北海道,札幌市白石区,東米里２１９７番地１４８,,01,104,0030876,,,,,,,2022-11-18,1,,,,,キョウエイ,0
307,2010001230915,新規,0,2022-11-18,2022-11-18,アソビビジョンシステム株式会社,,株式会社,東京都,千代田区,神田東松下町４８,,13,101,1010042,,,,,,,2022-11-18,1,,,,,アソビビジョンシステム,0
308,2010001230931,新規,0,2022-11-18,2022-11-18,株式会社ビルサーチ,,株式会社,東京都,千代田区,内神田１丁目１８番１１号東京ロイヤルプラザ３１２号室,,13,101,1010047,,,,,,,2022-11-18,1,,,,,ビルサーチ,0
309,2010001230948,新規,0,2022-11-18,2022-11-18,Ｂｉｇ　Ｐｌａｎｓ株式会社,,株式会社,東京都,中央区,銀座７丁目１３番２１号銀座ｓｉｎｒｏｋｕｓｙｕビル２階,,13,102,1040061,,,,,,,2022-11-18,1,,,,,ビッグプランズ,0
310,2010001230956,新規,0,2022-11-18,2022-11-18,株式会社Ａｃｃｏｕｎｔ,,株式会社,東京都,千代田区,神田須田町２丁目２５ＣＹＢ秋葉原４階,,13,101,1010041,,,,,,,2022-11-18,1,,,,,アカウント,0
311,2010001230972,新規,0,2022-11-18,2022-11-18,株式会社一歩,,株式会社,東京都,千代田区,二番町５－２,,13,101,1020084,,,,,,,2022-11-18,1,,,,,イッポ,0
313,2010003039090,新規,0,2022-11-18,2022-11-18,合同会社ｏｌｆａｔｔｏ,,合同会社,東京都,千代田区,九段南１丁目５番６号りそな九段ビル５Ｆ・ＫＳフロア,,13,101,1020074,,,,,,,2022-11-18,1,,,,,オルファット,0
314,2010003039124,新規,0,2022-11-18,2022-11-18,愛してるぜ合同会社,,合同会社,東京都,中央区,銀座１丁目２２番１１号銀座大竹ビジデンス２階,,13,102,1040061,,,,,,,2022-11-18,1,,,,,アイシテルゼ,0
315,2010101015423,新規,0,2022-11-18,2022-11-18,株式会社ＲＦＣ,,株式会社,東京都,八王子市,横川町７４０番地ファミールＳＡＮＡＯ１０２号,,13,201,1930823,,,,,,,2022-11-18,1,,,,,アールエフシー,0
325,2010405021605,新規,0,2022-11-18,2022-11-18,目黒インベストメント一般社団法人,,その他の設立登記法人,東京都,港区,六本木１丁目６番１号泉ガーデンタワー,,13,103,1060032,,,,,,,2022-11-18,1,,,,,メグロインベストメント,0
337,2011001151036,新規,0,2022-11-18,2022-11-18,株式会社冨田塾,,株式会社,東京都,目黒区,上目黒５丁目１４番９号,,13,110,1530051,,,,,,,2022-11-18,1,,,,,トミタジュク,0
338,2011001151060,新規,0,2022-11-18,2022-11-18,株式会社マティエール,,株式会社,東京都,渋谷区,神泉町１番１０号,,13,113,1500045,,,,,,,2022-11-18,1,,,,,マティエール,0
339,2011001151069,新規,0,2022-11-18,2022-11-18,株式会社ＩＨＡＳＡ,,株式会社,東京都,目黒区,平町２丁目１３番５号,,13,110,1520032,,,,,,,2022-11-18,1,,,,,イハサ,0
340,2011003015759,新規,0,2022-11-18,2022-11-18,合同会社エフ・ステップ,,合同会社,東京都,目黒区,鷹番２丁目１４番１４－２０３号ＰＲＩＭＥＵＲＢＡＮ学芸大学,,13,110,1520004,,,,,,,2022-11-18,1,,,,,エフステップ,0
342,2011101100875,新規,0,2022-11-18,2022-11-18,株式会社マーケマッチ,,株式会社,東京都,新宿区,西新宿１丁目２５番１号新宿センタービル４９階,,13,104,1600023,,,,,,,2022-11-18,1,,,,,マーケマッチ,0
344,2011103012400,新規,0,2022-11-18,2022-11-18,Ｒ３合同会社,,合同会社,東京都,新宿区,矢来町５３番地,,13,104,1620805,,,,,,,2022-11-18,1,,,,,アールスリー,0
349,2011501028675,新規,0,2022-11-18,2022-11-18,株式会社ニューパレード,,株式会社,東京都,北区,赤羽台３丁目２６番１１号,,13,117,1150053,,,,,,,2022-11-18,1,,,,,ニューパレード,0
350,2011501028683,新規,0,2022-11-18,2022-11-18,広源株式会社,,株式会社,東京都,荒川区,町屋３丁目２４番２号面川ビル二階２０３号室,,13,118,1160001,,,,,,,2022-11-18,1,,,,,コウゲン,0
370,2020001149031,新規,0,2022-11-18,2022-11-18,株式会社Ｆｉｅｌｄ,,株式会社,神奈川県,横浜市都筑区,見花山３０－１コート見花山４０１,,14,118,2240066,,,,,,,2022-11-18,1,,,,,,0
385,2021005012662,新規,0,2022-11-18,2022-11-18,ＴＮＧ労働者協同組合,,その他の設立登記法人,神奈川県,足柄下郡湯河原町,城堀４１４－１７１,,14,384,2590305,,,,,,,2022-11-18,1,,,,,,0
400,2040003021252,新規,0,2022-11-18,2022-11-18,Ｓｕｈａｎｉ合同会社,,合同会社,千葉県,千葉市中央区,登戸１丁目１７番１４号メゾン登戸４０２号,,12,101,2600032,,,,,,,2022-11-18,1,,,,,スハニ,0
401,2040003021269,新規,0,2022-11-18,2022-11-18,Ｌｉｎｋ　Ｃｏｒｐｏｒａｔｉｏｎ合同会社,,合同会社,千葉県,八街市,八街字嵯峨岡ろ２９番地８８,,12,230,2891100,,,,,,,2022-11-18,1,,,,,リンクコーポレーション,0
402,2040003021302,新規,0,2022-11-18,2022-11-18,合同会社ゆめでこ,,合同会社,千葉県,市原市,ちはら台西５丁目１７番地１パティスリーペルル,,12,219,2900143,,,,,,,2022-11-18,1,,,,,ユメデコ,0
403,2050001011436,新規,0,2022-11-18,2022-11-18,株式会社柿岡マイカーセンター,,株式会社,茨城県,石岡市,正上内３０番地の１０,,08,205,3150011,,,,,,,2022-11-18,1,,,,,カキオカマイカーセンター,0
407,2050001051993,新規,0,2022-11-18,2022-11-18,株式会社ユーサークル,,株式会社,茨城県,取手市,戸頭６丁目５番－２－２０１号,,08,217,3020034,,,,,,,2022-11-18,1,,,,,ユーサークル,0
413,2060003004305,新規,0,2022-11-18,2022-11-18,合同会社北関東環境,,合同会社,栃木県,那須塩原市,三島１丁目１８番地２７,,09,213,3292752,,,,,,,2022-11-18,1,,,,,キタカントウカンキョウ,0
414,2060003004313,新規,0,2022-11-18,2022-11-18,合同会社ｏｎｒ,,合同会社,栃木県,宇都宮市,鶴田町１４９２番地４５,,09,201,3200851,,,,,,,2022-11-18,1,,,,,オンアール,0
416,2070001039847,新規,0,2022-11-18,2022-11-18,麗娟商事株式会社,,株式会社,群馬県,前橋市,天川大島町２６７番地９,,10,201,3792154,,,,,,,2022-11-18,1,,,,,レイエンショウジ,0
418,2070003004717,新規,0,2022-11-18,2022-11-18,合同会社ＡＲＣＡＤＩＡ,,合同会社,群馬県,太田市,大原町５１１番地６,,10,205,3792304,,,,,,,2022-11-18,1,,,,,アルカディア,0
421,2080101023650,新規,0,2022-11-18,2022-11-18,株式会社シールズヘルスケア＆リゾーツ,,株式会社,静岡県,伊東市,瓶山１丁目８番８号,,22,208,4140034,,,,,,,2022-11-18,1,,,,,シールズヘルスケアアンドリゾーツ,0
439,2120001250398,新規,0,2022-11-18,2022-11-18,株式会社ＳＵＮＲＩＳＥ,,株式会社,大阪府,大阪市北区,堂山町１番５号三共梅田ビル６Ｆ,,27,127,5300027,,,,,,,2022-11-18,1,,,,,サンライズ,0
440,2120001250415,新規,0,2022-11-18,2022-11-18,株式会社協進工業,,株式会社,大阪府,大阪市住之江区,西住之江１丁目３番２－６０４号,,27,125,5590005,,,,,,,2022-11-18,1,,,,,キョウシンコウギョウ,0
444,2120003022829,新規,0,2022-11-18,2022-11-18,合同会社アイテム,,合同会社,大阪府,大阪市中央区,瓦町４丁目３番７号ＶＯＲＴ御堂筋本町５０２号,,27,128,5410048,,,,,,,2022-11-18,1,,,,,アイテム,0
445,2120003022837,新規,0,2022-11-18,2022-11-18,合同会社ＳＴ捌,,合同会社,大阪府,大阪市中央区,瓦町４丁目３番７号ＶＯＲＴ御堂筋本町５０２号,,27,128,5410048,,,,,,,2022-11-18,1,,,,,エスティーハチ,0
448,2120101066546,新規,0,2022-11-18,2022-11-18,株式会社大山商事,,株式会社,大阪府,岸和田市,土生町１２９４番地の４ハッピーハウス２１－１０８号,,27,202,5960825,,,,,,,2022-11-18,1,,,,,オオヤマショウジ,0
454,2122001036422,新規,0,2022-11-18,2022-11-18,株式会社辻西工業,00128526,株式会社,大阪府,東大阪市,長田西５丁目４番７号,,27,227,5770016,,,,,,,2022-11-18,1,,,,,ツジニシコウギョウ,0
456,2122003002455,新規,0,2022-11-18,2022-11-18,ＡｒｔＰａｒｋｓ合同会社,,合同会社,大阪府,東大阪市,岩田町３丁目１１番５号,,27,227,5780941,,,,,,,2022-11-18,1,,,,,アートパークス,0
464,2140003018379,新規,0,2022-11-18,2022-11-18,合同会社ＢＯＭＴＥＭＰＯ,,合同会社,兵庫県,三田市,上井沢４４－１ＷＥＬｎｅｔさんだビル２Ｆ,,28,219,6691316,,,,,,,2022-11-18,1,,,,,ボンテンポ,0
474,2160003002744,新規,0,2022-11-18,2022-11-18,合同会社心愛,,合同会社,滋賀県,大津市,田辺町２番６３号,,25,201,5200852,,,,,,,2022-11-18,1,,,,,ココア,0
479,2180001153876,新規,0,2022-11-18,2022-11-18,株式会社ＳＫワークス,,株式会社,愛知県,名古屋市港区,当知４丁目２３０８番地,,23,111,4550804,,,,,,,2022-11-18,1,,,,,エスケーワークス,0
483,2180003024506,新規,0,2022-11-18,2022-11-18,合同会社ジェイエスアセットプランニング,,合同会社,愛知県,名古屋市瑞穂区,丸根町２丁目６番地ブランルージュ１０２号,,23,108,4670054,,,,,,,2022-11-18,1,,,,,ジェイエスアセットプランニング,0
489,2180305009411,新規,0,2022-11-18,2022-11-18,一般社団法人ひらおスポーツクラブ,,その他の設立登記法人,愛知県,岡崎市,中之郷町字北浦５３番地２,,23,202,4440242,,,,,,,2022-11-18,1,,,,,ヒラオスポーツクラブ,0
502,2260001037419,新規,0,2022-11-18,2022-11-18,久易株式会社,,株式会社,岡山県,備前市,浦伊部１５９番地８,,33,211,7050002,,,,,,,2022-11-18,1,,,,,キュイ,0
511,2290003013209,新規,0,2022-11-18,2022-11-18,合同会社リラクマナ,,合同会社,福岡県,久留米市,中央町１９番地４クリオ久留米セントラルマークス１４０４号,,40,203,8300023,,,,,,,2022-11-18,1,,,,,リラクマナ,0
512,2290003013217,新規,0,2022-11-18,2022-11-18,合同会社血の繋がりのない家族,,合同会社,福岡県,福岡市東区,香椎照葉６丁目３番１２号１２０５号室,,40,131,8130017,,,,,,,2022-11-18,1,,,,,チノツナガリノナイカゾク,0
514,2290005018858,新規,0,2022-11-18,2022-11-18,一般社団法人鴨池,,その他の設立登記法人,福岡県,福岡市博多区,博多駅前４丁目３番１８号,,40,132,8120011,,,,,,,2022-11-18,1,,,,,カモイケ,0
515,2290803004258,新規,0,2022-11-18,2022-11-18,合同会社ひなた,,合同会社,福岡県,遠賀郡岡垣町,海老津駅前５番２号,,40,383,8114236,,,,,,,2022-11-18,1,,,,,ヒナタ,0
526,2370005010550,新規,0,2022-11-18,2022-11-18,一般社団法人ＩＴＣ‐ＥＸＰＥＲＴ東北,,その他の設立登記法人,宮城県,仙台市青葉区,本町２丁目１４番２６号保坂ビル３０５,,04,101,9800014,,,,,,,2022-11-18,1,,,,,アイティシーエキスパートトウホク,0
536,2420005007830,新規,0,2022-11-18,2022-11-18,特定非営利活動法人みらい希望アシスト,,その他の設立登記法人,青森県,八戸市,石堂４丁目７番４７号,,02,203,0391165,,,,,,,2022-11-18,1,,,,,ミライキボウアシスト,0
539,2430001087883,新規,0,2022-11-18,2022-11-18,株式会社ＭＲＧＡ,,株式会社,北海道,札幌市北区,北十条西３丁目２３番地１－１階ＴＨＥＰＥＡＫＳＡＰＰＯＲＯ,,01,102,0010010,,,,,,,2022-11-18,1,,,,,エムアールジーエー,0
540,2430001087891,新規,0,2022-11-18,2022-11-18,株式会社宙,,株式会社,北海道,札幌市中央区,北十二条西２０丁目２番１号,,01,101,0600012,,,,,,,2022-11-18,1,,,,,ソラ,0
541,2430001087900,新規,0,2022-11-18,2022-11-18,株式会社マジカルケア,,株式会社,北海道,札幌市中央区,南五条西８丁目６番地２ウィンダムヒル南５条,,01,101,0640805,,,,,,,2022-11-18,1,,,,,マジカルケア,0
544,2430003014472,新規,0,2022-11-18,2022-11-18,おはよう合同会社,,合同会社,北海道,札幌市中央区,南一条西２３丁目１－８チサンマンション札幌第８　３１２号,,01,101,0640801,,,,,,,2022-11-18,1,,,,,オハヨウ,0
545,2470001019346,新規,0,2022-11-18,2022-11-18,株式会社ＭＰカンパニー,,株式会社,香川県,高松市,上天神町４８０番地３Ｃｒｏｓｓ　Ｒｏａｄ　２０３,,37,201,7618056,,,,,,,2022-11-18,1,,,,,エムピーカンパニー,0
547,2480003001895,新規,0,2022-11-18,2022-11-18,合同会社ＴＡＴＳＵＭＩ,,合同会社,徳島県,徳島市,仲之町３丁目２７番地４,,36,201,7700932,,,,,,,2022-11-18,1,,,,,タツミ,0
556,3010001230617,新規,0,2022-11-18,2022-11-18,株式会社アール＆キャリア,,株式会社,東京都,千代田区,麹町２丁目１４番地,,13,101,1020083,,,,,,,2022-11-18,1,,,,,アールアンドキャリア,0
557,3010001230906,新規,0,2022-11-18,2022-11-18,ソーラーフロンティアエンジニアリング株式会社,,株式会社,東京都,千代田区,丸の内３丁目１番１号,,13,101,1000005,,,,,,,2022-11-18,1,,,,,ソーラーフロンティアエンジニアリング,0
560,3010005035806,新規,0,2022-11-18,2022-11-18,一般社団法人ＩｇＡ抗体医療学会,,その他の設立登記法人,東京都,文京区,西片２丁目１６番３３号,,13,105,1130024,,,,,,,2022-11-18,1,,,,,アイジイエイコウタイイリョウガッカイ,0
561,3010101015422,新規,0,2022-11-18,2022-11-18,株式会社Ｈｕｇ‐Ｋｕｍｉ,,株式会社,東京都,八王子市,中町７番１０号,,13,201,1920085,,,,,,,2022-11-18,1,,,,,ハグクミ,0
569,3010403028931,新規,0,2022-11-18,2022-11-18,合同会社ＭＪ,,合同会社,東京都,港区,南青山３丁目１番３６号青山丸竹ビル６Ｆ,,13,103,1070062,,,,,,,2022-11-18,1,,,,,エムジェー,0
571,3010405021595,新規,0,2022-11-18,2022-11-18,カメリア特定目的会社,,その他の設立登記法人,東京都,港区,虎ノ門５丁目１番４号,,13,103,1050001,,,,,,,2022-11-18,1,,,,,カメリア,0
572,3010501049615,新規,0,2022-11-18,2022-11-18,華洋株式会社,,株式会社,東京都,台東区,台東３丁目２１－５ＶＥＮＴＩ－１０３Ｂ号室,,13,106,1100016,,,,,,,2022-11-18,1,,,,,カヨウ,0
577,3010703006471,新規,0,2022-11-18,2022-11-18,Ｄｉｅ　Ｆｉｎａｎｚｄｏｋｔｏｒｅｎ合同会社,,合同会社,東京都,品川区,大井７丁目１１番１０号,,13,109,1400014,,,,,,,2022-11-18,1,,,,,ディーフィナンツドクトレン,0
579,3010801033442,新規,0,2022-11-18,2022-11-18,株式会社平山空調,,株式会社,東京都,大田区,南六郷１丁目１５番１９号Ｂ．Ｄ、ＴＯＹＯ３０２,,13,111,1440045,,,,,,,2022-11-18,1,,,,,ヒラヤマクウチョウ,0
580,3010805002988,新規,0,2022-11-18,2022-11-18,一般社団法人取引支援保証機構,,その他の設立登記法人,東京都,大田区,山王２丁目４０番３号,,13,111,1430023,,,,,,,2022-11-18,1,,,,,トリヒキシエンホショウキコウ,0
581,3010901051996,新規,0,2022-11-18,2022-11-18,株式会社幸,,株式会社,東京都,世田谷区,下馬５丁目３９番１７号,,13,112,1540002,,,,,,,2022-11-18,1,,,,,,0
582,3010905004397,新規,0,2022-11-18,2022-11-18,一般社団法人Ｃａｒｅｅｒ＆Ｃａｒｅ,,その他の設立登記法人,東京都,世田谷区,上馬５丁目１５番地１５号ＴＨＥＦＯＲＵＭ世田谷,,13,112,1540011,,,,,,,2022-11-18,1,,,,,,0
589,3011101100874,新規,0,2022-11-18,2022-11-18,株式会社朝日エンジニアリングスタッフ,,株式会社,東京都,新宿区,下宮比町２番１号,,13,104,1620822,,,,,,,2022-11-18,1,,,,,アサヒエンジニアリングスタッフ,0
590,3011101100899,新規,0,2022-11-18,2022-11-18,ｃｏｃｏｏｎ株式会社,,株式会社,東京都,新宿区,西新宿３丁目５番１２－９０３号,,13,104,1600023,,,,,,,2022-11-18,1,,,,,ココン,0
591,3011103012399,新規,0,2022-11-18,2022-11-18,合同会社Ｓｕｔｅｒａ　Ｇｒｏｕｐ,,合同会社,東京都,新宿区,西新宿３丁目３番－１３号西新宿水間ビル６階,,13,104,1600023,,,,,,,2022-11-18,1,,,,,ステラグループ,0
592,3011105010475,新規,0,2022-11-18,2022-11-18,医療法人社団ＭＡＲＩＡ会,,その他の設立登記法人,東京都,新宿区,下落合３丁目１６番１３号グランドール目白１階,,13,104,1610033,,,,,,,2022-11-18,1,,,,,マリアカイ,0
597,3011501028682,新規,0,2022-11-18,2022-11-18,新禾株式会社,,株式会社,東京都,荒川区,町屋３丁目２４番２号面川ビル二階２０４号室,,13,118,1160001,,,,,,,2022-11-18,1,,,,,シンカ,0
598,3011503005366,新規,0,2022-11-18,2022-11-18,合同会社ＳＡＹ,,合同会社,東京都,北区,昭和町２丁目１３番１４－２０５号ライオンズマンション尾久第１,,13,117,1140011,,,,,,,2022-11-18,1,,,,,セイ,0
607,3011801041575,新規,0,2022-11-18,2022-11-18,株式会社リアン,,株式会社,東京都,葛飾区,四つ木４丁目１３番１３号ＡｒｋａｄｉａＭ２０１,,13,122,1240011,,,,,,,2022-11-18,1,,,,,リアン,0
624,3020005015724,新規,0,2022-11-18,2022-11-18,ＮＰＯ法人ＷＩＴＨＹＯＵ,,その他の設立登記法人,神奈川県,横浜市戸塚区,前田町５２０番地２ソーシャルレジデンス東戸塚３１０号,,14,110,2440804,,,,,,,2022-11-18,1,,,,,ウィスユー,0
629,3021001077477,新規,0,2022-11-18,2022-11-18,ＳＤ株式会社,,株式会社,神奈川県,愛甲郡愛川町,三増２６９７番地,,14,401,2430308,,,,,,,2022-11-18,1,,,,,エスディー,0
633,3021003012399,新規,0,2022-11-18,2022-11-18,一粋ＩＴソリューションズ合同会社,,合同会社,神奈川県,横須賀市,根岸町５丁目９番１７号,,14,201,2390807,,,,,,,2022-11-18,1,,,,,イッキアイティーソリューションズ,0
637,3030001151126,新規,0,2022-11-18,2022-11-18,株式会社リアライズ,,株式会社,埼玉県,三郷市,新和５丁目７３番地２,,11,237,3410034,,,,,,,2022-11-18,1,,,,,リアライズ,0
641,3030003020592,新規,0,2022-11-18,2022-11-18,合同会社ＷＩＬＬ,,合同会社,埼玉県,川口市,坂下町１丁目２番１４号ウィズハリアサ３０２号,,11,203,3340003,,,,,,,2022-11-18,1,,,,,ウイル,0
642,3030003020601,新規,0,2022-11-18,2022-11-18,明徳合同会社,,合同会社,埼玉県,川口市,元郷６丁目４番１号ヒマワリハイツ１－２０３号,,11,203,3320011,,,,,,,2022-11-18,1,,,,,ミントク,0
651,3040001125905,新規,0,2022-11-18,2022-11-18,株式会社クロヨゼ,,株式会社,千葉県,千葉市美浜区,高洲３丁目１５番６棟２５０７号,,12,106,2610004,,,,,,,2022-11-18,1,,,,,クロヨゼ,0
656,3040003021284,新規,0,2022-11-18,2022-11-18,ＭＡＬＩＴＨ　ＩＮＴＥＲＮＡＴＩＯＮＡＬ合同会社,,合同会社,千葉県,富里市,中沢３２０－２４,,12,233,2860222,,,,,,,2022-11-18,1,,,,,マリスインターナショナル,0
671,3080403004661,新規,0,2022-11-18,2022-11-18,合同会社永羽,,合同会社,静岡県,御前崎市,池新田４８１１番地の２,,22,223,4371612,,,,,,,2022-11-18,1,,,,,トワ,0
687,3120001250455,新規,0,2022-11-18,2022-11-18,株式会社佳和,,株式会社,大阪府,大阪市浪速区,戎本町１丁目９番２１号,,27,111,5560013,,,,,,,2022-11-18,1,,,,,ケイワ,0
693,3120003022836,新規,0,2022-11-18,2022-11-18,合同会社ＳＴ玖,,合同会社,大阪府,大阪市中央区,瓦町４丁目３番７号ＶＯＲＴ御堂筋本町５０２号,,27,128,5410048,,,,,,,2022-11-18,1,,,,,エスティーキュウ,0
694,3120003022885,新規,0,2022-11-18,2022-11-18,合同会社令和建設,,合同会社,大阪府,寝屋川市,萱島東２丁目６番１４号,,27,215,5720824,,,,,,,2022-11-18,1,,,,,レイワケンセツ,0
695,3120005023304,新規,0,2022-11-18,2022-11-18,税理士法人ＭＡＴＴ,,その他の設立登記法人,大阪府,大阪市中央区,東心斎橋１丁目８番１１号アルグラッドザ・タワ－心斎橋１２０５号室,,27,128,5420083,,,,,,,2022-11-18,1,,,,,マット,0
707,3122001036396,新規,0,2022-11-18,2022-11-18,株式会社ＤＲ　ｗｏｒｋｓ,,株式会社,大阪府,東大阪市,新庄東二丁目１８番６号,,27,227,5780951,,,,,,,2022-11-18,1,,,,,ディアールワークス,0
708,3122001036421,新規,0,2022-11-18,2022-11-18,株式会社Ａｉｒ　Ｂｒｉｄｇｅ,,株式会社,大阪府,大東市,北条２丁目１８番１３号エスポワール仙寿４０２号,,27,218,5740011,,,,,,,2022-11-18,1,,,,,エアブリッジ,0
713,3130003008330,新規,0,2022-11-18,2022-11-18,ＴａｐｉｓＶｏｌａｎｔ合同会社,,合同会社,京都府,京都市右京区,西院春栄町３７番地４,,26,108,6150005,,,,,,,2022-11-18,1,,,,,タピィヴォロン,0
722,3160001024657,新規,0,2022-11-18,2022-11-18,アドバンスＦテクノロジー株式会社,,株式会社,滋賀県,草津市,笠山６丁目１１番８号,,25,206,5250072,,,,,,,2022-11-18,1,,,,,アドバンスエフテクノロジー,0
725,3160003002743,新規,0,2022-11-18,2022-11-18,ｐｌｕｓＹ合同会社,,合同会社,滋賀県,大津市,三井寺町６番１３号シャーメゾンヴェロ３０１,,25,201,5200034,,,,,,,2022-11-18,1,,,,,プラスワイ,0
726,3170003001793,新規,0,2022-11-18,2022-11-18,合同会社ＦＤカンパニー,,合同会社,和歌山県,和歌山市,園部６５０－２－３階,,30,201,6408483,,,,,,,2022-11-18,1,,,,,エフディーカンパニー,0
735,3180001153792,新規,0,2022-11-18,2022-11-18,株式会社ほそえホールディングス,,株式会社,愛知県,弥富市,東末広９丁目５１番地,,23,235,4980063,,,,,,,2022-11-18,1,,,,,ホソエホールディングス,0
736,3180001153875,新規,0,2022-11-18,2022-11-18,あとりえ株式会社,,株式会社,愛知県,尾張旭市,庄中町３丁目１番地３０,,23,226,4880838,,,,,,,2022-11-18,1,,,,,アトリエ,0
737,3180001153917,新規,0,2022-11-18,2022-11-18,株式会社吉販商事,,株式会社,愛知県,名古屋市港区,新茶屋４丁目２５０３番地,,23,111,4550863,,,,,,,2022-11-18,1,,,,,ヨシハンショウジ,0
741,3180301036838,新規,0,2022-11-18,2022-11-18,ビューティージャパン株式会社,,株式会社,愛知県,西尾市,上町泡原４１番地７,,23,213,4450894,,,,,,,2022-11-18,1,,,,,ビューティージャパン,0
746,3190001029942,新規,0,2022-11-18,2022-11-18,株式会社泰成ＴＥＣ,,株式会社,三重県,四日市市,東坂部町１３３６番地１６,,24,202,5120904,,,,,,,2022-11-18,1,,,,,タイセイテック,0
752,3230005009267,新規,0,2022-11-18,2022-11-18,農事組合法人イノベーション小坂,,その他の設立登記法人,富山県,南砺市,小坂２１４番地４,,16,210,9391671,,,,,,,2022-11-18,1,,,,,イノベーションコサカ,0
754,3240001060677,新規,0,2022-11-18,2022-11-18,株式会社福松,,株式会社,広島県,福山市,新涯町５丁目７番２９－１号,,34,207,7210955,,,,,,,2022-11-18,1,,,,,フクマツ,0
755,3250001019854,新規,0,2022-11-18,2022-11-18,アイテム株式会社,,株式会社,山口県,岩国市,玖珂町１０１７番地５,,35,208,7420344,,,,,,,2022-11-18,1,,,,,アイテム,0
762,3290001099612,新規,0,2022-11-18,2022-11-18,株式会社堂上,,株式会社,福岡県,福岡市中央区,大名１丁目５番３号,,40,133,8100041,,,,,,,2022-11-18,1,,,,,ドウガミ,0
763,3290001099629,新規,0,2022-11-18,2022-11-18,株式会社ＳＴＡＲＴ,,株式会社,福岡県,筑紫野市,紫５丁目２０番３号,,40,217,8180061,,,,,,,2022-11-18,1,,,,,スタート,0
764,3290001099637,新規,0,2022-11-18,2022-11-18,株式会社ＢＵＫＹＵ,,株式会社,福岡県,大野城市,大城３丁目３４番１号,,40,219,8160911,,,,,,,2022-11-18,1,,,,,ブキュウ,0
765,3290003013208,新規,0,2022-11-18,2022-11-18,合同会社Ｍ’ｓベーカリー,,合同会社,福岡県,久留米市,御井町６８７番地１８,,40,203,8390851,,,,,,,2022-11-18,1,,,,,エムズベーカリー,0
766,3290003013216,新規,0,2022-11-18,2022-11-18,合同会社大和,,合同会社,福岡県,大牟田市,大字歴木１７０５,,40,202,8370924,,,,,,,2022-11-18,1,,,,,ヤマト,0
767,3290005018857,新規,0,2022-11-18,2022-11-18,一般財団法人九州全域地域振興協会,,その他の設立登記法人,福岡県,糸島市,南風台６丁目２番２０号,,40,230,8191137,,,,,,,2022-11-18,1,,,,,キュウシュウゼンイキシンコウキョウカイ,0
771,3310001018131,新規,0,2022-11-18,2022-11-18,株式会社夜のジェラート,,株式会社,長崎県,長崎市,西山４丁目４８８番地松尾ビル１０２号室,,42,201,8500001,,,,,,,2022-11-18,1,,,,,ヨルノジェラート,0
779,3340001025182,新規,0,2022-11-18,2022-11-18,株式会社ブローカーズインダストリーズ,,株式会社,鹿児島県,鹿児島市,中央町３９番地７シティコア西鹿児島１１０３号,,46,201,8900053,,,,,,,2022-11-18,1,,,,,ブローカーズインダストリーズ,0
780,3350001018045,新規,0,2022-11-18,2022-11-18,ＫＯＫＯＰＬＵＳ株式会社,,株式会社,宮崎県,宮崎市,大工３丁目４８番地１リバーサイドマンション１０２号,,45,201,8800015,,,,,,,2022-11-18,1,,,,,ココプラス,0
782,3360003012482,新規,0,2022-11-18,2022-11-18,ＫＮＪ合同会社,,合同会社,沖縄県,那覇市,高良２丁目６番１９号ＤＩＹＡＰ００１、４０３号室,,47,201,9010145,,,,,,,2022-11-18,1,,,,,ケイエヌジェイ,0
791,3420001018079,新規,0,2022-11-18,2022-11-18,株式会社ぐっち企画,,株式会社,青森県,八戸市,売市２丁目６番２０号,,02,203,0310073,,,,,,,2022-11-18,1,,,,,グッチキカク,0
796,3430001087882,新規,0,2022-11-18,2022-11-18,株式会社ＮＭＯホールディングス,,株式会社,北海道,札幌市中央区,宮の森四条６丁目２番１５号,,01,101,0640954,,,,,,,2022-11-18,1,,,,,エヌエムオーホールディングス,0
797,3430001087890,新規,0,2022-11-18,2022-11-18,株式会社ｇｒｏｗ,,株式会社,北海道,札幌市白石区,北郷三条４丁目６番２７号,,01,104,0030833,,,,,,,2022-11-18,1,,,,,グロウ,0
798,3430001087899,新規,0,2022-11-18,2022-11-18,株式会社ＯＮＥ,,株式会社,北海道,岩見沢市,南町二条１丁目１－４,,01,210,0680802,,,,,,,2022-11-18,1,,,,,ワン,0
801,3430003014463,新規,0,2022-11-18,2022-11-18,合同会社Ｌｉｌｙ,,合同会社,北海道,札幌市東区,東苗穂五条３丁目１番５３号,,01,103,0070805,,,,,,,2022-11-18,1,,,,,リリー,0
802,3430003014471,新規,0,2022-11-18,2022-11-18,エンタークロス合同会社,,合同会社,北海道,札幌市豊平区,福住一条３丁目９番１３－２０１号,,01,105,0620041,,,,,,,2022-11-18,1,,,,,エンタークロス,0
808,3480001011929,新規,0,2022-11-18,2022-11-18,株式会社ＴＹＳＫ,,株式会社,徳島県,徳島市,山城町東浜傍示２８番地の１１２,,36,201,7708055,,,,,,,2022-11-18,1,,,,,ティーワイエスケイ,0
809,3480002016258,新規,0,2022-11-18,2022-11-18,寿食品有限会社,,有限会社,徳島県,徳島市,中央通２丁目３０番地の４,,36,201,7700936,,,,,,,2022-11-18,1,,,,,コトブキショクヒン,0
827,4010401170882,新規,0,2022-11-18,2022-11-18,株式会社Ｘ　Ｐｅｔ,,株式会社,東京都,港区,南麻布２丁目７番３０号,,13,103,1060047,,,,,,,2022-11-18,1,,,,,テンペット,0
828,4010401170899,新規,0,2022-11-18,2022-11-18,株式会社Ｃ　ｃｒｅａｔｉｖｅ,,株式会社,東京都,港区,赤坂２丁目１６番２１号,,13,103,1070052,,,,,,,2022-11-18,1,,,,,シークリエイティブ,0
841,4010701043490,新規,0,2022-11-18,2022-11-18,ＩＮＮＯＶＡＴＩＯＮ成田株式会社,,株式会社,東京都,品川区,大井５丁目１９番４号,,13,109,1400014,,,,,,,2022-11-18,1,,,,,イノベーションナリタ,0
842,4010701043499,新規,0,2022-11-18,2022-11-18,エムエックス商事株式会社,,株式会社,東京都,品川区,東品川４丁目５番８－７３８号,,13,109,1400002,,,,,,,2022-11-18,1,,,,,エムエックスショウジ,0
843,4010703006470,新規,0,2022-11-18,2022-11-18,合同会社Ｏｈａｎａ,,合同会社,東京都,品川区,東五反田２丁目８番３号五反田ＡＳビル４階,,13,109,1410022,,,,,,,2022-11-18,1,,,,,オハナ,0
845,4010803004358,新規,0,2022-11-18,2022-11-18,ＳｍａｒｔＣｕｂｅ合同会社,,合同会社,東京都,大田区,田園調布２丁目３４－６山見マンション１０２,,13,111,1450071,,,,,,,2022-11-18,1,,,,,スマートキューブ,0
846,4010901051995,新規,0,2022-11-18,2022-11-18,株式会社エムエスワイ,,株式会社,東京都,世田谷区,駒沢５丁目１４番１２号２１号室,,13,112,1540012,,,,,,,2022-11-18,1,,,,,エムエスワイ,0
855,4011001151059,新規,0,2022-11-18,2022-11-18,株式会社スイング,,株式会社,東京都,目黒区,下目黒３丁目１６番２号,,13,110,1530064,,,,,,,2022-11-18,1,,,,,スイング,0
858,4011003015757,新規,0,2022-11-18,2022-11-18,日麗合同会社,,合同会社,東京都,目黒区,鷹番３丁目１８番２号,,13,110,1520004,,,,,,,2022-11-18,1,,,,,ヒヨリ,0
862,4011101100881,新規,0,2022-11-18,2022-11-18,株式会社天辰商事,,株式会社,東京都,新宿区,新宿５丁目１４－１２天翔オフィス新宿三丁目４階４０８号室,,13,104,1600022,,,,,,,2022-11-18,1,,,,,テンシンショウジ,0
863,4011103012398,新規,0,2022-11-18,2022-11-18,Ｆ　Ａｕｇｍｅｎｔ合同会社,,合同会社,東京都,新宿区,歌舞伎町２丁目４２番１３号アゼリア東広ビル８１５,,13,104,1600021,,,,,,,2022-11-18,1,,,,,エフオーギュメント,0
865,4011401024707,新規,0,2022-11-18,2022-11-18,株式会社Ｔｈｉｃｋ　Ｔｒｕｎｋ,,株式会社,東京都,板橋区,坂下３丁目６－１－１２１,,13,119,1740043,,,,,,,2022-11-18,1,,,,,シックトランク,0
866,4011501028681,新規,0,2022-11-18,2022-11-18,仙宮澄株式会社,,株式会社,東京都,荒川区,町屋３丁目２４番２号面川ビル二階２０５号室,,13,118,1160001,,,,,,,2022-11-18,1,,,,,センキュウチョウ,0
869,4011801041582,新規,0,2022-11-18,2022-11-18,株式会社Ｒｉｎｇｓ,,株式会社,東京都,足立区,西新井３丁目４番１７号,,13,121,1230841,,,,,,,2022-11-18,1,,,,,リングス,0
873,4012403005694,新規,0,2022-11-18,2022-11-18,合同会社アドバンス,,合同会社,東京都,武蔵野市,境３丁目１２番８号,,13,203,1800022,,,,,,,2022-11-18,1,,,,,アドバンス,0
875,4012703002581,新規,0,2022-11-18,2022-11-18,合同会社フジ,,合同会社,東京都,東村山市,萩山町１丁目３４番地７９,,13,213,1890012,,,,,,,2022-11-18,1,,,,,フジ,0
882,4013301049899,新規,0,2022-11-18,2022-11-18,Ｕｌｉｋｅ株式会社,,株式会社,東京都,豊島区,南大塚２丁目３８番１号,,13,116,1700005,,,,,,,2022-11-18,1,,,,,ユーライク,0
891,4020001148989,新規,0,2022-11-18,2022-11-18,株式会社経理サポーターズ,,株式会社,神奈川県,横浜市西区,浅間町１丁目１０番地１６－４０２,,14,103,2200072,,,,,,,2022-11-18,1,,,,,ケイリサポーターズ,0
892,4020001149038,新規,0,2022-11-18,2022-11-18,グッドワン株式会社,,株式会社,神奈川県,横浜市港北区,新横浜３丁目１９番地１１,,14,109,2220033,,,,,,,2022-11-18,1,,,,,グッドワン,0
893,4020003022762,新規,0,2022-11-18,2022-11-18,ライズマン合同会社,,合同会社,神奈川県,横浜市中区,桜木町１丁目１０１番地１クロスゲート７階,,14,104,2310062,,,,,,,2022-11-18,1,,,,,ライズマン,0
895,4021001077492,新規,0,2022-11-18,2022-11-18,株式会社エタニティホーム,,株式会社,神奈川県,平塚市,見附町３３番２－３０１号,,14,203,2540045,,,,,,,2022-11-18,1,,,,,エタニティホーム,0
919,4040001125887,新規,0,2022-11-18,2022-11-18,Ｔｅａｍ　Ｄｈａｒｍａ株式会社,,株式会社,千葉県,千葉市緑区,あすみが丘９丁目６番地１６,,12,105,2670066,,,,,,,2022-11-18,1,,,,,チームダルマ,0
920,4040001125904,新規,0,2022-11-18,2022-11-18,エイチ株式会社,,株式会社,千葉県,我孫子市,新木野１丁目２番１１号,,12,222,2701114,,,,,,,2022-11-18,1,,,,,エイチ,0
928,4050001051991,新規,0,2022-11-18,2022-11-18,ＭｄＮ株式会社,,株式会社,茨城県,水戸市,開江町１１４３番地の８,,08,201,3114144,,,,,,,2022-11-18,1,,,,,エムディーエヌ,0
931,4050003007026,新規,0,2022-11-18,2022-11-18,合同会社いちご健美,,合同会社,茨城県,取手市,新町２丁目２番１６－１０１号,,08,217,3020024,,,,,,,2022-11-18,1,,,,,イチゴケンビ,0
934,4060001035465,新規,0,2022-11-18,2022-11-18,株式会社八太,,株式会社,栃木県,宇都宮市,桜２丁目５－３４桜ビル３階,,09,201,3200043,,,,,,,2022-11-18,1,,,,,ハタ,0
938,4070001039845,新規,0,2022-11-18,2022-11-18,株式会社Ｉｗｏｒｋ,,株式会社,群馬県,前橋市,城東町２丁目１１番５和泉ビル２０１号,,10,201,3710016,,,,,,,2022-11-18,1,,,,,アイワーク,0
939,4070001039853,新規,0,2022-11-18,2022-11-18,株式会社Ｌ．Ａ．ぐんま,,株式会社,群馬県,前橋市,鼻毛石町６４３番地２,,10,201,3710244,,,,,,,2022-11-18,1,,,,,エルエーグンマ,0
942,4080101023649,新規,0,2022-11-18,2022-11-18,ＧＩＦＴＯＮＷＯＲＫＳ　ＡＮＩＭＡＴＩＯＮ株式会社,,株式会社,静岡県,熱海市,福道町３－１５ウェルネスビル２０２,,22,205,4130017,,,,,,,2022-11-18,1,,,,,ギフトンワークスアニメーション,0
947,4080401026161,新規,0,2022-11-18,2022-11-18,株式会社トータルファシリティ,,株式会社,静岡県,御前崎市,池新田５１０２番地の３５ミクハウスＢ－２０１号,,22,223,4371612,,,,,,,2022-11-18,1,,,,,トータルファシリティ,0
949,4090001017857,新規,0,2022-11-18,2022-11-18,株式会社中央メンテナンス,,株式会社,山梨県,中央市,一町畑１０３番地,,19,214,4093813,,,,,,,2022-11-18,1,,,,,チュウオウメンテナンス,0
961,4120001250355,新規,0,2022-11-18,2022-11-18,株式会社イルフトゥーロ,,株式会社,大阪府,大阪市中央区,安土町２丁目４番１１－４６０６号,,27,128,5410052,,,,,,,2022-11-18,1,,,,,イルフトゥーロ,0
962,4120001250388,新規,0,2022-11-18,2022-11-18,華光日本株式会社,,株式会社,大阪府,大阪市生野区,巽北１丁目１番１号２Ｆ－Ｊ,,27,116,5440004,,,,,,,2022-11-18,1,,,,,カコウニホン,0
963,4120001250421,新規,0,2022-11-18,2022-11-18,ＦａｎｃｙＷｅｂｍａｔｅ株式会社,,株式会社,大阪府,大阪市北区,梅田１丁目２番２号大阪駅前第２ビル１２－１２,,27,127,5300001,,,,,,,2022-11-18,1,,,,,ファンシーウェブメイト,0
965,4120003022835,新規,0,2022-11-18,2022-11-18,合同会社ＳＴ壱,,合同会社,大阪府,大阪市中央区,瓦町４丁目３番７号ＶＯＲＴ御堂筋本町５０２号,,27,128,5410048,,,,,,,2022-11-18,1,,,,,エスティーイチ,0
967,4120005023303,新規,0,2022-11-18,2022-11-18,一般社団法人日本キッチンカー組合,,その他の設立登記法人,大阪府,大阪市住之江区,南港北２丁目１番１０号ＡＴＣビルＩＴＭ棟,,27,125,5590034,,,,,,,2022-11-18,1,,,,,ニホンキッチンカークミアイ,0
983,4130001073111,新規,0,2022-11-18,2022-11-18,埃堤特株式会社,,株式会社,京都府,京都市右京区,山ノ内北ノ口町１９－１－２Ｆ,,26,108,6150094,,,,,,,2022-11-18,1,,,,,アイテイトク,0
992,4140001128129,新規,0,2022-11-18,2022-11-18,株式会社Ｙ’ｓ　ＩＢ　Ｋｏｂｅ,,株式会社,兵庫県,西宮市,高木西町１番７号,,28,204,6638032,,,,,,,2022-11-18,1,,,,,ワイズアイビーコウベ,0
993,4140001128137,新規,0,2022-11-18,2022-11-18,株式会社ナガイカンパニー,,株式会社,兵庫県,宝塚市,川面２丁目４番１０４号,,28,214,6650842,,,,,,,2022-11-18,1,,,,,ナガイカンパニー,0
995,4140005026378,新規,0,2022-11-18,2022-11-18,Ｙｏｕｒｓ　Ｕｎｉｏｎ協同組合,,その他の設立登記法人,兵庫県,姫路市,的形町的形１４５７番地１,,28,201,6710111,,,,,,,2022-11-18,1,,,,,ユアーズユニオン,0
996,4150001025960,新規,0,2022-11-18,2022-11-18,Ｔｏｐ　Ｐｒｏｊｅｃｔ株式会社,,株式会社,奈良県,宇陀市,榛原福西２２９番地,,29,212,6330233,,,,,,,2022-11-18,1,,,,,トッププロジェクト,0
1003,4160001024656,新規,0,2022-11-18,2022-11-18,株式会社祐智組,,株式会社,滋賀県,大津市,月輪３丁目２５－１５－３０１,,25,201,5202152,,,,,,,2022-11-18,1,,,,,ユサトグミ,0
1011,4180001153858,新規,0,2022-11-18,2022-11-18,株式会社システムイノベーション,,株式会社,愛知県,名古屋市中区,栄４丁目１５番１５号,,23,106,4600008,,,,,,,2022-11-18,1,,,,,システムイノベーション,0
1012,4180001153866,新規,0,2022-11-18,2022-11-18,株式会社エルサーガ,,株式会社,愛知県,名古屋市千種区,四谷通１丁目２３番地アルファーランドビルＢ１Ａ－１,,23,101,4640819,,,,,,,2022-11-18,1,,,,,エルサーガ,0
1013,4180001153874,新規,0,2022-11-18,2022-11-18,ＨＥＵＲＥＵＸ株式会社,,株式会社,愛知県,名古屋市西区,則武新町１丁目３番１７号,,23,104,4510051,,,,,,,2022-11-18,1,,,,,ウールー,0
1014,4180001153882,新規,0,2022-11-18,2022-11-18,株式会社明晴商会,,株式会社,愛知県,名古屋市西区,栄生３丁目１９番２１号,,23,104,4510052,,,,,,,2022-11-18,1,,,,,メイセイショウカイ,0
1015,4180001153908,新規,0,2022-11-18,2022-11-18,株式会社ファザルインターナショナル,,株式会社,愛知県,名古屋市港区,西福田１丁目１５０６番地,,23,111,4550874,,,,,,,2022-11-18,1,,,,,ファザルインターナショナル,0
1018,4180003024495,新規,0,2022-11-18,2022-11-18,合同会社ＤＩＧ,,合同会社,愛知県,名古屋市西区,押切１丁目１番４号（藤和シティホームズ浅間町６０１号）,,23,104,4510063,,,,,,,2022-11-18,1,,,,,ディグ,0
1019,4180003024504,新規,0,2022-11-18,2022-11-18,合同会社ケア・ビレッジ,,合同会社,愛知県,瀬戸市,水南町１２５－１パレスピボット１０３号,,23,204,4890913,,,,,,,2022-11-18,1,,,,,ケアビレッジ,0
1020,4180003024512,新規,0,2022-11-18,2022-11-18,ＤＯＨ合同会社,,合同会社,愛知県,名古屋市緑区,鳴海町字尾崎山４３番地の７７８,,23,114,4580821,,,,,,,2022-11-18,1,,,,,ディーオーエイチ,0
1038,4250001019853,新規,0,2022-11-18,2022-11-18,井上興業株式会社,,株式会社,山口県,山陽小野田市,大字小野田７４５番地１,,35,216,7560817,,,,,,,2022-11-18,1,,,,,イノウエコウギョウ,0
1048,4290003013215,新規,0,2022-11-18,2022-11-18,合同会社ＳＲＥ,,合同会社,福岡県,福岡市中央区,港２丁目１２番４号１Ｆ,,40,133,8100075,,,,,,,2022-11-18,1,,,,,エスアールイー,0
1054,4300001013140,新規,0,2022-11-18,2022-11-18,株式会社アグリ・グラシアス,,株式会社,佐賀県,武雄市,北方町大字志久２１６１番地５,,41,206,8492201,,,,,,,2022-11-18,1,,,,,アグリグラシアス,0
1064,4330003009596,新規,0,2022-11-18,2022-11-18,合同会社イピアレス,,合同会社,熊本県,上益城郡御船町,大字辺田見４９７番地２,,43,441,8613206,,,,,,,2022-11-18,1,,,,,イピアレス,0
1065,4340001025181,新規,0,2022-11-18,2022-11-18,ＡＢＣ電気株式会社,,株式会社,鹿児島県,薩摩川内市,平佐町４７９１番地１３,,46,215,8950012,,,,,,,2022-11-18,1,,,,,エービーシーデンキ,0
1076,4420001018078,新規,0,2022-11-18,2022-11-18,株式会社つがるワイナリー,,株式会社,青森県,北津軽郡鶴田町,大字鶴田字小泉３３５番地１,,02,384,0383503,,,,,,,2022-11-18,1,,,,,ツガルワイナリー,0
1083,4430001087873,新規,0,2022-11-18,2022-11-18,株式会社ＫＩＮＳＵＩ,,株式会社,北海道,小樽市,住吉町５番１７号,,01,203,0470015,,,,,,,2022-11-18,1,,,,,キンスイ,0
1084,4430001087881,新規,0,2022-11-18,2022-11-18,株式会社ブルーバード,,株式会社,北海道,札幌市手稲区,前田八条１２丁目４番１号,,01,109,0060818,,,,,,,2022-11-18,1,,,,,ブルーバード,0
1092,4462503000204,新規,0,2022-11-18,2022-11-18,北海道フィッシャーマンズプロダクション合同会社,,合同会社,北海道,野付郡別海町,本別海１番地の１７９,,01,691,0860522,,,,,,,2022-11-18,1,,,,,,0
1108,5010005035746,新規,0,2022-11-18,2022-11-18,弁護士法人ブルーベル法律事務所,,その他の設立登記法人,東京都,中央区,銀座１丁目１６番７号銀座大栄ビル５Ｆ,,13,102,1040061,,,,,,,2022-11-18,1,,,,,ブルーベルホウリツジムショ,0
1112,5010401170915,新規,0,2022-11-18,2022-11-18,株式会社Ｋプラン,,株式会社,東京都,港区,赤坂４丁目３番１２号,,13,103,1070052,,,,,,,2022-11-18,1,,,,,ケープラン,0
1113,5010405021602,新規,0,2022-11-18,2022-11-18,ジー・エイ・ワン・ホールディング一般社団法人,,その他の設立登記法人,東京都,港区,六本木１丁目９番１０号アークヒルズ仙石山森タワー４０階,,13,103,1060032,,,,,,,2022-11-18,1,,,,,ジーエイワンホールディング,0
1135,5010901051994,新規,0,2022-11-18,2022-11-18,株式会社Ｓｉｇｎ,,株式会社,東京都,世田谷区,世田谷２丁目１０番３号,,13,112,1540017,,,,,,,2022-11-18,1,,,,,サイン,0
1136,5010901052002,新規,0,2022-11-18,2022-11-18,株式会社ネイチャーホリデー,,株式会社,東京都,世田谷区,池尻２丁目９－８エンドウビル２０１,,13,112,1540001,,,,,,,2022-11-18,1,,,,,,0
1138,5010903007796,新規,0,2022-11-18,2022-11-18,合同会社ぼの,,合同会社,東京都,世田谷区,駒沢３丁目１４番６号ポルトボヌールコトホギ１０１,,13,112,1540012,,,,,,,2022-11-18,1,,,,,,0
1147,5011001150976,新規,0,2022-11-18,2022-11-18,株式会社ＫＯＪＵ,,株式会社,東京都,渋谷区,神泉町９番１,,13,113,1500045,,,,,,,2022-11-18,1,,,,,コウジュ,0
1148,5011001151058,新規,0,2022-11-18,2022-11-18,ＴＨＲＥＡＤ株式会社,,株式会社,東京都,渋谷区,代々木５丁目５７番２号,,13,113,1510053,,,,,,,2022-11-18,1,,,,,スレッド,0
1150,5011003015756,新規,0,2022-11-18,2022-11-18,合同会社ＪｏｙＪｏｂ,,合同会社,東京都,渋谷区,渋谷２丁目１９―１５宮益坂ビルディング６０９,,13,113,1500002,,,,,,,2022-11-18,1,,,,,ジョイジョブ,0
1151,5011005009830,新規,0,2022-11-18,2022-11-18,一般社団法人Ｂｅ‐Ｔｅａｍ,,その他の設立登記法人,東京都,渋谷区,神宮前６丁目２３番４号桑野ビル２階,,13,113,1500001,,,,,,,2022-11-18,1,,,,,ビーチーム,0
1153,5011101100880,新規,0,2022-11-18,2022-11-18,株式会社リロパートナーズアクイジション,,株式会社,東京都,新宿区,新宿４丁目３番２３号,,13,104,1600022,,,,,,,2022-11-18,1,,,,,リロパートナーズアクイジション,0
1154,5011101100889,新規,0,2022-11-18,2022-11-18,アフラックペット少額短期準備株式会社,,株式会社,東京都,新宿区,西新宿２丁目１番１号新宿三井ビル,,13,104,1600023,,,,,,,2022-11-18,1,,,,,アフラックペットショウガクタンキジュンビ,0
1160,5011603003755,新規,0,2022-11-18,2022-11-18,ＳＡＴＹＡＷＡＴＩ合同会社,,合同会社,東京都,練馬区,旭町３丁目１番４－２０５号,,13,120,1790071,,,,,,,2022-11-18,1,,,,,サッテワテイ,0
1162,5011801041581,新規,0,2022-11-18,2022-11-18,株式会社ＬＩＸ,,株式会社,東京都,足立区,扇３丁目５－１０,,13,121,1230873,,,,,,,2022-11-18,1,,,,,リックス,0
1168,5013301049931,新規,0,2022-11-18,2022-11-18,超軒霓株式会社,,株式会社,東京都,豊島区,池袋４丁目２９番１１号トウセン池袋６０７号,,13,116,1710014,,,,,,,2022-11-18,1,,,,,チョウケンニジ,0
1173,5020001149037,新規,0,2022-11-18,2022-11-18,株式会社姫ティアラ,,株式会社,神奈川県,川崎市川崎区,駅前本町１８番１号メルスサイトー７０２,,14,131,2100007,,,,,,,2022-11-18,1,,,,,ヒメティアラ,0
1178,5020003022720,新規,0,2022-11-18,2022-11-18,Ｓｐｏｒｔｓ　Ｔｅａｍ合同会社,,合同会社,神奈川県,横浜市神奈川区,神大寺１丁目１９番２号,,14,102,2210801,,,,,,,2022-11-18,1,,,,,スポーツチーム,0
1179,5020003022745,新規,0,2022-11-18,2022-11-18,３Ｗプロパティマネジメント合同会社,,合同会社,神奈川県,川崎市麻生区,上麻生４丁目４２番７号,,14,137,2150021,,,,,,,2022-11-18,1,,,,,スリーダブリュープロパティマネジメント,0
1180,5020003022753,新規,0,2022-11-18,2022-11-18,合同会社ＫＭＴＲ,,合同会社,神奈川県,横浜市都筑区,茅ケ崎中央４３番５－７０１号,,14,118,2240032,,,,,,,2022-11-18,1,,,,,ケイエムティーアール,0
1185,5021001077491,新規,0,2022-11-18,2022-11-18,Ｊ‐ＨＡＮ株式会社,,株式会社,神奈川県,相模原市中央区,上溝４丁目７番１号,,14,152,2520243,,,,,,,2022-11-18,1,,,,,ジェイハン,0
1186,5021001077500,新規,0,2022-11-18,2022-11-18,ＴＡＧ株式会社,,株式会社,神奈川県,平塚市,田村１丁目１番７号上原ビル２Ｆ,,14,203,2540013,,,,,,,2022-11-18,1,,,,,タッグ,0
1189,5021003012364,新規,0,2022-11-18,2022-11-18,合同会社Ｎｂｎｌ,,合同会社,神奈川県,藤沢市,辻堂元町５丁目２番１７号,,14,205,2510043,,,,,,,2022-11-18,1,,,,,エヌビーエヌエル,0
1190,5021003012406,新規,0,2022-11-18,2022-11-18,ＧＬＡＳＳＹ合同会社,,合同会社,神奈川県,藤沢市,鵠沼海岸２丁目１０番２５号,,14,205,2510037,,,,,,,2022-11-18,1,,,,,グラッシー,0
1191,5021005012668,新規,0,2022-11-18,2022-11-18,一般社団法人藤沢あゆみと藤沢市の暮らしについて考える会,,その他の設立登記法人,神奈川県,藤沢市,片瀬２丁目１７番２号有限会社和宏印刷内,,14,205,2510032,,,,,,,2022-11-18,1,,,,,フジサワアユミトフジサワシノクラシニツイテカンガエルカイ,0
1202,5030001151108,新規,0,2022-11-18,2022-11-18,株式会社リンク,,株式会社,埼玉県,八潮市,大字鶴ケ曽根８５２番地１３,,11,234,3400802,,,,,,,2022-11-18,1,,,,,リンク,0
1203,5030001151116,新規,0,2022-11-18,2022-11-18,株式会社ＴＨＩＮＫ　ＲＩＣＨ,,株式会社,埼玉県,川越市,東田町１２－２７キャッスルマンション川越Ｂ号館２０３号,,11,201,3501114,,,,,,,2022-11-18,1,,,,,シンクリッチ,0
1206,5030003020599,新規,0,2022-11-18,2022-11-18,合同会社鶴建,,合同会社,埼玉県,八潮市,大字大瀬１６５５番地１－１０２,,11,234,3400822,,,,,,,2022-11-18,1,,,,,ツルケン,0
1213,5040001125903,新規,0,2022-11-18,2022-11-18,宏基金属株式会社,,株式会社,千葉県,富里市,十倉３１０番地３７９,,12,233,2860212,,,,,,,2022-11-18,1,,,,,コウキキンゾク,0
1217,5040003021299,新規,0,2022-11-18,2022-11-18,合同会社無双力,,合同会社,千葉県,松戸市,大金平２丁目１１３番地,,12,207,2700006,,,,,,,2022-11-18,1,,,,,ムソウリキ,0
1228,5070001039844,新規,0,2022-11-18,2022-11-18,株式会社Ｒｏｕｔｅ　Ｆｉｎｄｉｎｇ,,株式会社,群馬県,安中市,安中３丁目１６番２号,,10,211,3790116,,,,,,,2022-11-18,1,,,,,ルートファインディング,0
1236,5100003006780,新規,0,2022-11-18,2022-11-18,合同会社警備愛誠絆,,合同会社,長野県,東御市,和１６５９番地３,,20,219,3890505,,,,,,,2022-11-18,1,,,,,ケイビアイセキ,0
1237,5110001037125,新規,0,2022-11-18,2022-11-18,賢栄産業株式会社,,株式会社,新潟県,新潟市北区,島見町１５６１番地１,,15,101,9503102,,,,,,,2022-11-18,1,,,,,ケンエイサンギョウ,0
1245,5120001250370,新規,0,2022-11-18,2022-11-18,株式会社ＰＵＲＩＮ,,株式会社,大阪府,大阪市北区,曾根崎２丁目１０番２０号河合ビル２Ｂ１Ｆ,,27,127,5300057,,,,,,,2022-11-18,1,,,,,プリン,0
1246,5120001250395,新規,0,2022-11-18,2022-11-18,日本緑夢商事株式会社,,株式会社,大阪府,大阪市阿倍野区,長池町５番１１号ジョイフル南田辺３０４号,,27,119,5450013,,,,,,,2022-11-18,1,,,,,ニホンミドリユメショウジ,0
1247,5120001250420,新規,0,2022-11-18,2022-11-18,株式会社Ｄｉｘ,,株式会社,大阪府,大阪市北区,梅田１丁目１番３号大阪駅前第３ビル３０階,,27,127,5300001,,,,,,,2022-11-18,1,,,,,ディックス,0
1251,5120003022834,新規,0,2022-11-18,2022-11-18,合同会社ＳＴ肆,,合同会社,大阪府,大阪市中央区,瓦町４丁目３番７号ＶＯＲＴ御堂筋本町５０２号,,27,128,5410048,,,,,,,2022-11-18,1,,,,,エスティーヨン,0
1252,5120003022891,新規,0,2022-11-18,2022-11-18,合同会社ＮＵＥＶＯ,,合同会社,大阪府,大阪市此花区,四貫島２丁目８－５７０１,,27,104,5540014,,,,,,,2022-11-18,1,,,,,ヌエボ,0
1264,5130001073110,新規,0,2022-11-18,2022-11-18,株式会社エコルーフ,,株式会社,京都府,八幡市,内里蜻蛉尻５番地８,,26,210,6148221,,,,,,,2022-11-18,1,,,,,エコルーフ,0
1272,5140001128136,新規,0,2022-11-18,2022-11-18,株式会社Ｕｌｌｏｗ,,株式会社,兵庫県,姫路市,小利木町４７番地,,28,201,6700022,,,,,,,2022-11-18,1,,,,,ウロウ,0
1277,5160003002741,新規,0,2022-11-18,2022-11-18,ＴｏｏＮ合同会社,,合同会社,滋賀県,大津市,京町４丁目４番８－５０１号,,25,201,5200044,,,,,,,2022-11-18,1,,,,,トゥーン,0
1287,5180001153865,新規,0,2022-11-18,2022-11-18,株式会社ＳＴ　ＷＯＲＫＳ,,株式会社,愛知県,名古屋市西区,上堀越町１丁目２２番地の８,,23,104,4510084,,,,,,,2022-11-18,1,,,,,エスティーワークス,0
1288,5180001153873,新規,0,2022-11-18,2022-11-18,株式会社ＮＣ　ＴＲＵＳＴ,,株式会社,愛知県,常滑市,矢田字上之山１４９番地,,23,216,4790001,,,,,,,2022-11-18,1,,,,,エヌシートラスト,0
1289,5180001153881,新規,0,2022-11-18,2022-11-18,株式会社Ｕｐ　Ｓｔａｒｔ,,株式会社,愛知県,名古屋市中区,千代田３丁目３３番１９号（Ｓ－ＦＯＲＴ鶴舞ｃｕｂｅ４０２号）,,23,106,4600012,,,,,,,2022-11-18,1,,,,,アップスタート,0
1296,5180301036836,新規,0,2022-11-18,2022-11-18,株式会社Ｈ・Ｓ・Ｉ,,株式会社,愛知県,刈谷市,大手町５丁目２５番地,,23,210,4480857,,,,,,,2022-11-18,1,,,,,エイチエスアイ,0
1301,5190001029940,新規,0,2022-11-18,2022-11-18,株式会社Ｈｉｇｈ‐Ｕｐ,,株式会社,三重県,桑名市,多度町香取４２９－１,,24,205,5110102,,,,,,,2022-11-18,1,,,,,ハイアップ,0
1302,5190003004149,新規,0,2022-11-18,2022-11-18,合同会社ｅｌ‐ｏｎｅ,,合同会社,三重県,津市,稲葉町１２７－１,,24,201,5141252,,,,,,,2022-11-18,1,,,,,エルワン,0
1309,5240001060675,新規,0,2022-11-18,2022-11-18,株式会社Ａｃｅ,,株式会社,広島県,広島市南区,霞２丁目７番１９号松岡ビル１Ｆ,,34,103,7340037,,,,,,,2022-11-18,1,,,,,エース,0
1320,5290001099593,新規,0,2022-11-18,2022-11-18,ＳＳＫ株式会社,,株式会社,福岡県,福岡市南区,曰佐４丁目２３番１－２０２号,,40,134,8111313,,,,,,,2022-11-18,1,,,,,エスエスケー,0
1321,5290001099619,新規,0,2022-11-18,2022-11-18,株式会社アスシード,,株式会社,福岡県,糟屋郡新宮町,緑ケ浜４丁目９番８,,40,345,8110119,,,,,,,2022-11-18,1,,,,,アスシード,0
1328,5290003013156,新規,0,2022-11-18,2022-11-18,ＫＯＤＯＮＡ合同会社,,合同会社,福岡県,福岡市博多区,博多駅前１丁目２３番１号ＰａｒｋＦｒｏｎｔ博多駅前一丁目５Ｆ－Ｂ,,40,132,8120011,,,,,,,2022-11-18,1,,,,,コドナ,0
1329,5290003013214,新規,0,2022-11-18,2022-11-18,合同会社ＬＭＣ,,合同会社,福岡県,福岡市城南区,友泉亭３番３号,,40,136,8140122,,,,,,,2022-11-18,1,,,,,エルエムシー,0
1332,5290803004263,新規,0,2022-11-18,2022-11-18,合同会社風樹建設,,合同会社,福岡県,北九州市小倉北区,真鶴２丁目９番２０－１０１号,,40,106,8030844,,,,,,,2022-11-18,1,,,,,フウジュケンセツ,0
1333,5300005007113,新規,0,2022-11-18,2022-11-18,医療法人メディンフラ,,その他の設立登記法人,佐賀県,佐賀市,神野東１丁目５番１号,,41,201,8400804,,,,,,,2022-11-18,1,,,,,メディンフラ,0
1334,5310003004482,新規,0,2022-11-18,2022-11-18,合同会社逢．ｃａｎ,,合同会社,長崎県,長崎市,天神町５番１３号,,42,201,8500044,,,,,,,2022-11-18,1,,,,,アイキャン,0
1337,5330001030256,新規,0,2022-11-18,2022-11-18,株式会社８８０,,株式会社,熊本県,熊本市東区,戸島１丁目１７番６９号,,43,102,8618041,,,,,,,2022-11-18,1,,,,,ハチハチマル,0
1342,5360001031210,新規,0,2022-11-18,2022-11-18,株式会社川神総合土木,,株式会社,沖縄県,豊見城市,字与根４７番地１７,,47,212,9010224,,,,,,,2022-11-18,1,,,,,カワカミソウゴウドボク,0
1343,5360001031219,新規,0,2022-11-18,2022-11-18,株式会社さきえだ工業,,株式会社,沖縄県,南城市,大里字稲嶺２７９３番地８,,47,215,9011204,,,,,,,2022-11-18,1,,,,,サキエダコウギョウ,0
1349,5370001049276,新規,0,2022-11-18,2022-11-18,株式会社アクティベン,,株式会社,宮城県,大崎市,古川北町１丁目９番２２号,,04,215,9896171,,,,,,,2022-11-18,1,,,,,アクティベン,0
1359,5400005008282,新規,0,2022-11-18,2022-11-18,特定非営利活動法人星華学園,,その他の設立登記法人,岩手県,北上市,大堤南１丁目１番８号,,03,206,0240055,,,,,,,2022-11-18,1,,,,,セイカガクエン,0
1365,5430001087880,新規,0,2022-11-18,2022-11-18,格序商事株式会社,,株式会社,北海道,札幌市豊平区,福住二条１０丁目１－１５,,01,105,0620042,,,,,,,2022-11-18,1,,,,,カクジョショウジ,0
1366,5430001087889,新規,0,2022-11-18,2022-11-18,株式会社北琉,,株式会社,北海道,札幌市東区,本町二条３丁目５番３９号,,01,103,0650042,,,,,,,2022-11-18,1,,,,,ホクリュウ,0
1367,5430001087897,新規,0,2022-11-18,2022-11-18,株式会社ＮｏｒｔｈＣｏｎｓｕｌｔｉｎｇ,,株式会社,北海道,札幌市北区,北七条西６丁目２番地８札幌中央パークマンション１００１号,,01,102,0600807,,,,,,,2022-11-18,1,,,,,ノースコンサルティング,0
1371,5430003014478,新規,0,2022-11-18,2022-11-18,合同会社北海道土地,,合同会社,北海道,札幌市手稲区,手稲本町二条４丁目４番３５号,,01,109,0060022,,,,,,,2022-11-18,1,,,,,ホッカイドウトチ,0
1376,5470001019343,新規,0,2022-11-18,2022-11-18,株式会社ヤタベ,,株式会社,香川県,高松市,紫雲町７番７号,,37,201,7600015,,,,,,,2022-11-18,1,,,,,ヤタベ,0
1391,6010005035811,新規,0,2022-11-18,2022-11-18,一般社団法人ヘレナ,,その他の設立登記法人,東京都,中央区,日本橋１丁目４番１号,,13,102,1030027,,,,,,,2022-11-18,1,,,,,ヘレナ,0
1409,6010405021601,新規,0,2022-11-18,2022-11-18,ジー・エイ・ワン・レジデンス・ワン一般社団法人,,その他の設立登記法人,東京都,港区,六本木１丁目９番１０号アークヒルズ仙石山森タワー４０階,,13,103,1060032,,,,,,,2022-11-18,1,,,,,ジーエイワンレジデンスワン,0
1421,6010901052001,新規,0,2022-11-18,2022-11-18,株式会社ＳＰＲＦ,,株式会社,東京都,世田谷区,下馬１丁目６－１２－７０３,,13,112,1540002,,,,,,,2022-11-18,1,,,,,,0
1424,6011001151032,新規,0,2022-11-18,2022-11-18,ＮＳカンパニー株式会社,,株式会社,東京都,渋谷区,南平台町１番１０号いちご南平台ビル６Ｆ,,13,113,1500036,,,,,,,2022-11-18,1,,,,,エヌエスカンパニー,0
1425,6011003015739,新規,0,2022-11-18,2022-11-18,合同会社ｈｕｕｌ,,合同会社,東京都,渋谷区,広尾５丁目８―１２広尾飯田ビル７階,,13,113,1500012,,,,,,,2022-11-18,1,,,,,ヒュール,0
1426,6011003015747,新規,0,2022-11-18,2022-11-18,Ｆｒｅｅ　Ａｇｅｎｔ合同会社,,合同会社,東京都,渋谷区,神宮前６丁目２３番４号桑野ビル２階,,13,113,1500001,,,,,,,2022-11-18,1,,,,,フリーエージェント,0
1436,6011603003754,新規,0,2022-11-18,2022-11-18,合同会社理想,,合同会社,東京都,練馬区,北町８丁目１２－２,,13,120,1790081,,,,,,,2022-11-18,1,,,,,リソウ,0
1437,6011701025782,新規,0,2022-11-18,2022-11-18,ＭＯＮＩＫＡ株式会社,,株式会社,東京都,江戸川区,西小岩１丁目２７－２９東京グランファースト１６０１,,13,123,1330057,,,,,,,2022-11-18,1,,,,,モニカ,0
1440,6011801041580,新規,0,2022-11-18,2022-11-18,株式会社インバース,,株式会社,東京都,足立区,梅島３丁目３３－６エンブレム西新井２Ｆ・３Ｆ,,13,121,1210816,,,,,,,2022-11-18,1,,,,,インバース,0
1443,6012805003162,新規,0,2022-11-18,2022-11-18,一般社団法人眞山舎,,その他の設立登記法人,東京都,国立市,谷保７２１０番地の７,,13,215,1860011,,,,,,,2022-11-18,1,,,,,サナヤマヤ,0
1451,6020001148995,新規,0,2022-11-18,2022-11-18,株式会社Ｔ‐ＤＡＴ,,株式会社,神奈川県,川崎市幸区,鹿島田１丁目１番５－１００４号,,14,132,2120058,,,,,,,2022-11-18,1,,,,,,0
1463,6021003012405,新規,0,2022-11-18,2022-11-18,合同会社イロトリドリ,,合同会社,神奈川県,平塚市,豊田平等寺１１２番地の２５,,14,203,2540086,,,,,,,2022-11-18,1,,,,,イロトリドリ,0
1468,6030001151115,新規,0,2022-11-18,2022-11-18,株式会社イーライズ,,株式会社,埼玉県,川越市,大字古谷上５７３０番地１,,11,201,3500001,,,,,,,2022-11-18,1,,,,,イーライズ,0
1477,6040001125877,新規,0,2022-11-18,2022-11-18,株式会社カンタス,,株式会社,千葉県,習志野市,本大久保４丁目４番４４号,,12,216,2750012,,,,,,,2022-11-18,1,,,,,カンタス,0
1478,6040001125927,新規,0,2022-11-18,2022-11-18,ＮＥＪ株式会社,,株式会社,千葉県,成田市,花崎町８３９－２８－２Ｆ２０１,,12,211,2860033,,,,,,,2022-11-18,1,,,,,エヌイージェー,0
1483,6040003021307,新規,0,2022-11-18,2022-11-18,合同会社スイッチ,,合同会社,千葉県,佐倉市,ユーカリが丘４丁目１番１号スカイプラザモール３Ｆ佐倉市スマートオフィスプレイス,,12,212,2850858,,,,,,,2022-11-18,1,,,,,スイッチ,0
1497,6070003004721,新規,0,2022-11-18,2022-11-18,ワークワンクリエイティブジャパン合同会社,,合同会社,群馬県,邑楽郡邑楽町,大字中野５１２１－１フォンテーヌブローＭＡＥＹＡ２０２,,10,525,3700603,,,,,,,2022-11-18,1,,,,,ワークワンクリエイティブジャパン,0
1503,6090005007530,新規,0,2022-11-18,2022-11-18,特定非営利活動法人イエカラ,,その他の設立登記法人,山梨県,甲府市,青葉町２番１４号,,19,201,4000828,,,,,,,2022-11-18,1,,,,,イエカラ,0
1512,6120001250361,新規,0,2022-11-18,2022-11-18,株式会社Ｈ．Ｃ．Ｃ,,株式会社,大阪府,枚方市,磯島元町１６番９号,,27,210,5731187,,,,,,,2022-11-18,1,,,,,エイチシーシー,0
1513,6120001250378,新規,0,2022-11-18,2022-11-18,フォワードカンパニー株式会社,,株式会社,大阪府,大阪市西区,江之子島１丁目６番２号,,27,106,5500006,,,,,,,2022-11-18,1,,,,,フォワードカンパニー,0
1514,6120001250436,新規,0,2022-11-18,2022-11-18,株式会社クレッツ,,株式会社,大阪府,大阪市西区,靱本町１丁目７番３号Ｐａｘ本町ビル８０１,,27,106,5500004,,,,,,,2022-11-18,1,,,,,クレッツ,0
1515,6120003022734,新規,0,2022-11-18,2022-11-18,合同会社ＩＭＡＧＥ　ＳＣＡＮＥＲ,,合同会社,大阪府,大阪市北区,浪花町１２－７アージュベール６０２,,27,127,5300022,,,,,,,2022-11-18,1,,,,,イメージスキャナー,0
1516,6120003022833,新規,0,2022-11-18,2022-11-18,合同会社ＳＴ伍,,合同会社,大阪府,大阪市中央区,瓦町４丁目３番７号ＶＯＲＴ御堂筋本町５０２号,,27,128,5410048,,,,,,,2022-11-18,1,,,,,エスティーゴ,0
1528,6130001073118,新規,0,2022-11-18,2022-11-18,Ｎメディカルコスメティクス株式会社,,株式会社,京都府,京都市中京区,壬生花井町３番地,,26,104,6048873,,,,,,,2022-11-18,1,,,,,エヌメディカルコスメティクス,0
1529,6130001073126,新規,0,2022-11-18,2022-11-18,ＷＳ　ＫＹＯＴＯ株式会社,,株式会社,京都府,京都市中京区,麩屋町通夷川上る笹屋町４９５ＹＯビルヂング２階,,26,104,6040983,,,,,,,2022-11-18,1,,,,,ダブリュスキョウト,0
1536,6140001128135,新規,0,2022-11-18,2022-11-18,株式会社松本不動産管理,,株式会社,兵庫県,神戸市垂水区,名谷町字社谷１２２９番地,,28,108,6550852,,,,,,,2022-11-18,1,,,,,マツモトフドウサンカンリ,0
1537,6140003018383,新規,0,2022-11-18,2022-11-18,合同会社香麓楽,,合同会社,兵庫県,西宮市,苦楽園三番町１５番３０号,,28,204,6620081,,,,,,,2022-11-18,1,,,,,コーロクラック,0
1540,6160003002740,新規,0,2022-11-18,2022-11-18,合同会社ウエストフロンティア,,合同会社,滋賀県,甲賀市,甲南町希望ケ丘本町５丁目８５７番地３６４,,25,209,5203332,,,,,,,2022-11-18,1,,,,,ウエストフロンティア,0
1542,6170001017384,新規,0,2022-11-18,2022-11-18,株式会社ジェイコネクト,,株式会社,和歌山県,和歌山市,吉原２５３番地１,,30,201,6400331,,,,,,,2022-11-18,1,,,,,ジェイコネクト,0
1551,6180001153864,新規,0,2022-11-18,2022-11-18,インディゴオウル株式会社,,株式会社,愛知県,名古屋市天白区,島田５丁目７０９番地,,23,116,4680056,,,,,,,2022-11-18,1,,,,,インディゴオウル,0
1552,6180001153906,新規,0,2022-11-18,2022-11-18,株式会社新東不動産販売,,株式会社,愛知県,名古屋市中区,丸の内３丁目１６番２９号,,23,106,4600002,,,,,,,2022-11-18,1,,,,,シントウフドウサンハンバイ,0
1556,6180003024502,新規,0,2022-11-18,2022-11-18,合同会社ＤＣ池田屋,,合同会社,愛知県,名古屋市東区,泉１丁目１－３０ＢＰＲレジデンス９０６,,23,102,4610001,,,,,,,2022-11-18,1,,,,,ディーシーイケダヤ,0
1557,6180301036835,新規,0,2022-11-18,2022-11-18,株式会社カワカミ,,株式会社,愛知県,豊田市,常盤町２丁目５５番地,,23,211,4710867,,,,,,,2022-11-18,1,,,,,カワカミ,0
1558,6190003004148,新規,0,2022-11-18,2022-11-18,合同会社らしく,,合同会社,三重県,伊勢市,岡本１丁目１９番３８号岡本テナント２Ｆ,,24,203,5160036,,,,,,,2022-11-18,1,,,,,ラシク,0
1570,6260001037423,新規,0,2022-11-18,2022-11-18,株式会社Ａ‐ＰＮＦメディカル,,株式会社,岡山県,岡山市北区,磨屋町１０番５号－５,,33,101,7000826,,,,,,,2022-11-18,1,,,,,エーピーエヌエフメディカル,0
1582,6290003013213,新規,0,2022-11-18,2022-11-18,合同会社ｉｎｔｅｇｒｉｔｙ,,合同会社,福岡県,糸島市,前原東２丁目５番５－９０９号,,40,230,8191119,,,,,,,2022-11-18,1,,,,,インテグリティ,0
1584,6290801029063,新規,0,2022-11-18,2022-11-18,株式会社Ｌ’ａｒｃｏｂａｌｅｎｏ,,株式会社,福岡県,北九州市小倉北区,馬借２丁目６番１１－１６０１号,,40,106,8020077,,,,,,,2022-11-18,1,,,,,アルコバレーノ,0
1586,6300001013139,新規,0,2022-11-18,2022-11-18,ＺＥＮ設備工業株式会社,,株式会社,佐賀県,佐賀市,諸富町大字寺井津３番地,,41,201,8402103,,,,,,,2022-11-18,1,,,,,ゼンセツビコウギョウ,0
1588,6300005007112,新規,0,2022-11-18,2022-11-18,一般社団法人地域デザイン総合研究所,,その他の設立登記法人,佐賀県,佐賀市,栄町６－２５ＦＬＥＸ佐賀駅前２階,,41,201,8400803,,,,,,,2022-11-18,1,,,,,チイキデザインソウゴウケンキュウショ,0
1589,6310001018129,新規,0,2022-11-18,2022-11-18,Ｎｃｒｅａｔｅ株式会社,,株式会社,長崎県,雲仙市,愛野町乙１７３５番地１０,,42,213,8540302,,,,,,,2022-11-18,1,,,,,エヌクリエイト,0
1591,6310003004481,新規,0,2022-11-18,2022-11-18,ＨＡＲＵＫＡ合同会社,,合同会社,長崎県,対馬市,厳原町久田４３７－１,,42,209,8170032,,,,,,,2022-11-18,1,,,,,ハルカ,0
1598,6350003004222,新規,0,2022-11-18,2022-11-18,はちぞファクトリー合同会社,,合同会社,宮崎県,宮崎市,大字本郷北方４１３５番地１６,,45,201,8800925,,,,,,,2022-11-18,1,,,,,ハチゾファクトリー,0
1600,6370005010555,新規,0,2022-11-18,2022-11-18,一般社団法人ＶＥＮＴＵＲＥ　ＦＯＲ　ＪＡＰＡＮ,,その他の設立登記法人,宮城県,仙台市青葉区,春日町９番１５－４０４号,,04,101,9800821,,,,,,,2022-11-18,1,,,,,ベンチャーフォージャパン,0
1605,6400005008281,新規,0,2022-11-18,2022-11-18,一般社団法人岩泉町スポーツ協会,,その他の設立登記法人,岩手県,下閉伊郡岩泉町,岩泉字中家５５番地１,,03,483,0270501,,,,,,,2022-11-18,1,,,,,イワイズミチョウスポーツキョウカイ,0
1606,6410001013326,新規,0,2022-11-18,2022-11-18,株式会社テルネット,,株式会社,秋田県,横手市,安田字八王寺２１番地７５,,05,203,0130043,,,,,,,2022-11-18,1,,,,,テルネット,0
1616,6430001087888,新規,0,2022-11-18,2022-11-18,町田通商株式会社,,株式会社,北海道,勇払郡むかわ町,穂別和泉１０８番地１０,,01,586,0540143,,,,,,,2022-11-18,1,,,,,マチダツウショウ,0
1617,6430005014599,新規,0,2022-11-18,2022-11-18,一般社団法人ＭＩマネジメント,,その他の設立登記法人,北海道,札幌市中央区,南二条西９丁目１番地２,,01,101,0600062,,,,,,,2022-11-18,1,,,,,エムアイマネジメント,0
1621,6450001013842,新規,0,2022-11-18,2022-11-18,アズフル株式会社,,株式会社,北海道,旭川市,北門町２１丁目２１６８番地の１０２セブンハイツ１０１,,01,204,0700825,,,,,,,2022-11-18,1,,,,,アズフル,0
1626,6500005007075,新規,0,2022-11-18,2022-11-18,眞穴村農業會,,その他の設立登記法人,愛媛県,八幡浜市,真網代丙２４８番地の１,,38,204,7968053,,,,,,,2022-11-18,1,,,,,,0
1631,7010001230919,新規,0,2022-11-18,2022-11-18,株式会社Ｊａｐａｎ　Ａｒｔ　Ｃｏｍｐａｎｙ,,株式会社,東京都,中央区,京橋１丁目６番７号,,13,102,1040031,,,,,,,2022-11-18,1,,,,,ジャパンアートカンパニー,0
1632,7010001230943,新規,0,2022-11-18,2022-11-18,株式会社ＯｕｔｅｒＡｒｔｓ,,株式会社,東京都,千代田区,内神田１丁目１５－１６ザ・パークハビオＳＯＨＯ大手町１Ｆ,,13,101,1010047,,,,,,,2022-11-18,1,,,,,アウターアーツ,0
1634,7010005035810,新規,0,2022-11-18,2022-11-18,一般社団法人フロンティア２,,その他の設立登記法人,東京都,中央区,日本橋１丁目４番１号日本橋一丁目ビルディング,,13,102,1030027,,,,,,,2022-11-18,1,,,,,フロンティアツー,0
1645,7010501049652,新規,0,2022-11-18,2022-11-18,株式会社シャイニー,,株式会社,東京都,台東区,雷門１丁目１４番６号黒沢ビル４階,,13,106,1110034,,,,,,,2022-11-18,1,,,,,シャイニー,0
1650,7010603009835,新規,0,2022-11-18,2022-11-18,合同会社ＴＯＲＬＬＹ,,合同会社,東京都,江東区,豊洲３丁目６番５－４００８号,,13,108,1350061,,,,,,,2022-11-18,1,,,,,トリー,0
1651,7010701043397,新規,0,2022-11-18,2022-11-18,株式会社渋神,,株式会社,東京都,品川区,東五反田２丁目２番２号松楽ビル８Ｆ,,13,109,1410022,,,,,,,2022-11-18,1,,,,,シブガミ,0
1654,7010801033447,新規,0,2022-11-18,2022-11-18,株式会社ＦＵＴＵＲＥ,,株式会社,東京都,大田区,西蒲田２丁目１１－９シティパレス４０１,,13,111,1440051,,,,,,,2022-11-18,1,,,,,フューチャー,0
1656,7010901051992,新規,0,2022-11-18,2022-11-18,株式会社ショウミー,,株式会社,東京都,世田谷区,玉川４丁目１２番１６号,,13,112,1580094,,,,,,,2022-11-18,1,,,,,ショウミー,0
1667,7011003015746,新規,0,2022-11-18,2022-11-18,合同会社Ｒａｋｋｏ,,合同会社,東京都,渋谷区,代々木５丁目５７番２－６０２号ザ・パークハビオＳＯＨＯ代々木公園,,13,113,1510053,,,,,,,2022-11-18,1,,,,,ラッコ,0
1668,7011101100879,新規,0,2022-11-18,2022-11-18,エヌブイワイ株式会社,,株式会社,東京都,新宿区,西新宿１丁目２６番２号,,13,104,1600023,,,,,,,2022-11-18,1,,,,,エヌブイワイ,0
1671,7011401024704,新規,0,2022-11-18,2022-11-18,アトミック株式会社,,株式会社,東京都,板橋区,板橋１丁目４２番１３号大佳板橋ビル３階Ａ号室,,13,119,1730004,,,,,,,2022-11-18,1,,,,,アトミック,0
1681,7012701017364,新規,0,2022-11-18,2022-11-18,株式会社ＮＯＷＭＯＲＥ,,株式会社,東京都,清瀬市,下宿１丁目１６７番地１２,,13,221,2040001,,,,,,,2022-11-18,1,,,,,ナウモア,0
1683,7013301049938,新規,0,2022-11-18,2022-11-18,株式会社サウス企画,,株式会社,東京都,豊島区,西池袋５丁目５番２１－９０２号,,13,116,1710021,,,,,,,2022-11-18,1,,,,,サウスキカク,0
1689,7020001149027,新規,0,2022-11-18,2022-11-18,株式会社Ｒ＆Ｒ,,株式会社,神奈川県,横浜市磯子区,洋光台３丁目３０番１９号,,14,107,2350045,,,,,,,2022-11-18,1,,,,,アールアンドアール,0
1694,7020003022751,新規,0,2022-11-18,2022-11-18,ＳＨＩＭＡ　Ｃｒｅａｔｅ合同会社,,合同会社,神奈川県,横浜市青葉区,荏田町３２３番地１グランシティユーロコートあざみ野４０３号室,,14,117,2250013,,,,,,,2022-11-18,1,,,,,シマクリエイト,0
1698,7021001077440,新規,0,2022-11-18,2022-11-18,株式会社湘南インパクトホールディングス,,株式会社,神奈川県,茅ヶ崎市,みずき２丁目２１番９号,,14,207,2530088,,,,,,,2022-11-18,1,,,,,ショウナンインパクトホールディングス,0
1703,7021003012404,新規,0,2022-11-18,2022-11-18,はるごのまゆ合同会社,,合同会社,神奈川県,小田原市,板橋８１４番地４号,,14,206,2500034,,,,,,,2022-11-18,1,,,,,ハルゴノマユ,0
1709,7030001151130,新規,0,2022-11-18,2022-11-18,株式会社ＦＲＯＭ　ＣＥＮＴＥＲ,,株式会社,埼玉県,ふじみ野市,大井１０７３－１,,11,245,3560053,,,,,,,2022-11-18,1,,,,,フロムセンター,0
1717,7030005021073,新規,0,2022-11-18,2022-11-18,一般社団法人Ｓｅｅｄｓ,,その他の設立登記法人,埼玉県,さいたま市浦和区,本太５丁目１０番１号エミネンス本太１０１号室,,11,107,3300052,,,,,,,2022-11-18,1,,,,,シーズ,0
1721,7040001125926,新規,0,2022-11-18,2022-11-18,ＩＤＭ株式会社,,株式会社,千葉県,千葉市中央区,千葉寺町４８－１ロイヤルパーク二番館３１２号,,12,101,2600844,,,,,,,2022-11-18,1,,,,,アイディーエム,0
1725,7040003021306,新規,0,2022-11-18,2022-11-18,合同会社並木企画,,合同会社,千葉県,千葉市花見川区,大日町１３４１,,12,102,2620004,,,,,,,2022-11-18,1,,,,,ナミキキカク,0
1739,7060001035462,新規,0,2022-11-18,2022-11-18,株式会社Ｍ‐Ｃｒｅｗ,,株式会社,栃木県,宇都宮市,一ノ沢町２８５番地２２８,,09,201,3200049,,,,,,,2022-11-18,1,,,,,エムクルー,0
1752,7110005016874,新規,0,2022-11-18,2022-11-18,巻キリスト教会,,その他の設立登記法人,新潟県,新潟市西蒲区,巻甲１５８４番地,,15,108,9530041,,,,,,,2022-11-18,1,,,,,マキキリストキョウカイ,0
1761,7120001250402,新規,0,2022-11-18,2022-11-18,Ｒ＆ＢＵ株式会社,,株式会社,大阪府,大阪市城東区,関目２丁目６番２６－７１１号,,27,118,5360008,,,,,,,2022-11-18,1,,,,,アールアンドビーユー,0
1762,7120001250451,新規,0,2022-11-18,2022-11-18,株式会社ＬＭＳ,,株式会社,大阪府,大阪市中央区,西心斎橋１丁目１２番１１－６０３号,,27,128,5420086,,,,,,,2022-11-18,1,,,,,エルエムエス,0
1766,7120003022832,新規,0,2022-11-18,2022-11-18,合同会社ＳＴ陸,,合同会社,大阪府,大阪市中央区,瓦町４丁目３番７号ＶＯＲＴ御堂筋本町５０２号,,27,128,5410048,,,,,,,2022-11-18,1,,,,,エスティーロク,0
1767,7120005023291,新規,0,2022-11-18,2022-11-18,ＮＰＯ法人三春,,その他の設立登記法人,大阪府,大阪市中央区,日本橋１丁目４－１２クリスタル日本橋１１０８,,27,128,5420073,,,,,,,2022-11-18,1,,,,,ミハル,0
1769,7120101066558,新規,0,2022-11-18,2022-11-18,誠商事株式会社,,株式会社,大阪府,堺市堺区,香ヶ丘町２丁８番２３号,,27,141,5900011,,,,,,,2022-11-18,1,,,,,マコトショウジ,0
1778,7122001036426,新規,0,2022-11-18,2022-11-18,株式会社ドリーム,,株式会社,大阪府,東大阪市,東鴻池町４丁目４番４号,,27,227,5780973,,,,,,,2022-11-18,1,,,,,ドリーム,0
1784,7130001072969,新規,0,2022-11-18,2022-11-18,株式会社リ・ボンシステムズ,,株式会社,京都府,久世郡久御山町,佐古外屋敷６４番地１,,26,322,6130031,,,,,,,2022-11-18,1,,,,,リボンシステムズ,0
1790,7140001128118,新規,0,2022-11-18,2022-11-18,株式会社あきら住設,,株式会社,兵庫県,明石市,藤江９５２番地アルファステイツ西明石２０２号,,28,203,6730044,,,,,,,2022-11-18,1,,,,,アキラジュウセツ,0
1791,7140005026375,新規,0,2022-11-18,2022-11-18,一般財団法人水平線,,その他の設立登記法人,兵庫県,尼崎市,塚口本町３丁目１３番３８号,,28,202,6610001,,,,,,,2022-11-18,1,,,,,スイヘイセン,0
1799,7170001017383,新規,0,2022-11-18,2022-11-18,株式会社ＥＧＨ,,株式会社,和歌山県,有田郡湯浅町,大字湯浅１５９０番地,,30,361,6430004,,,,,,,2022-11-18,1,,,,,イージーエイチ,0
1805,7180001153789,新規,0,2022-11-18,2022-11-18,ＭＹ　ＰＲＩＯＲＩＴＹ株式会社,,株式会社,愛知県,名古屋市中村区,千代田二丁目４番２８－６０５号,,23,105,4530000,,,,,,,2022-11-18,1,,,,,マイプライオリティ,0
1806,7180001153863,新規,0,2022-11-18,2022-11-18,株式会社ＢＦＡＩセミコンダクタソリューションズ,,株式会社,愛知県,名古屋市中村区,名駅１丁目１番１号ＪＰタワー名古屋２１階,,23,105,4500002,,,,,,,2022-11-18,1,,,,,ビーエフエーアイセミコンダクタソリューションズ,0
1807,7180001153896,新規,0,2022-11-18,2022-11-18,株式会社イレーネ,,株式会社,愛知県,名古屋市名東区,社台１丁目２２４番地の１,,23,115,4650092,,,,,,,2022-11-18,1,,,,,イレーネ,0
1815,7180003024518,新規,0,2022-11-18,2022-11-18,合同会社Ｐｅｇａｓｕｓ,,合同会社,愛知県,名古屋市中区,栄２丁目８番５号・８０５号,,23,106,4600008,,,,,,,2022-11-18,1,,,,,ペガサス,0
1818,7180301036842,新規,0,2022-11-18,2022-11-18,アドバンスＰｒｏ．株式会社,,株式会社,愛知県,岡崎市,梅園町字寺裏３番地１,,23,202,4440031,,,,,,,2022-11-18,1,,,,,アドバンスプロ,0
1823,7190003004147,新規,0,2022-11-18,2022-11-18,合同会社グローイングアップ,,合同会社,三重県,三重郡菰野町,大字菰野２０６５番地８,,24,341,5101233,,,,,,,2022-11-18,1,,,,,グローイングアップ,0
1850,7260001037422,新規,0,2022-11-18,2022-11-18,株式会社櫻堂,,株式会社,岡山県,岡山市中区,神下４２１番地１１,,33,102,7038225,,,,,,,2022-11-18,1,,,,,サクラドウ,0
1861,7290003013195,新規,0,2022-11-18,2022-11-18,Ｈｅａｒｔｓ合同会社,,合同会社,福岡県,糟屋郡粕屋町,大字仲原１５９８番地１,,40,349,8112304,,,,,,,2022-11-18,1,,,,,ハーツ,0
1867,7300001013138,新規,0,2022-11-18,2022-11-18,株式会社学び舎こころ,,株式会社,佐賀県,佐賀市,神野東２丁目２番１号,,41,201,8400804,,,,,,,2022-11-18,1,,,,,マナビヤココロ,0
1868,7320005010030,新規,0,2022-11-18,2022-11-18,九州キヤノン労働組合,,その他の設立登記法人,大分県,国東市,安岐町下原７１０番地,,44,214,8730231,,,,,,,2022-11-18,1,,,,,,0
1870,7330003009593,新規,0,2022-11-18,2022-11-18,合同会社ＫＨＡＮＨ　ＨＯＡ,,合同会社,熊本県,熊本市東区,東町４丁目３番１－３０６号,,43,102,8620901,,,,,,,2022-11-18,1,,,,,カインホア,0
1877,7360001031225,新規,0,2022-11-18,2022-11-18,株式会社Ｄｏ２,,株式会社,沖縄県,那覇市,楚辺２丁目２６番２２－５０４号プレミアムアクシスエンズ那覇楚辺,,47,201,9000023,,,,,,,2022-11-18,1,,,,,ディーオーツー,0
1878,7360003012470,新規,0,2022-11-18,2022-11-18,合同会社創和メガネ,,合同会社,沖縄県,名護市,大中１丁目３番５号,,47,209,9050017,,,,,,,2022-11-18,1,,,,,ソウワメガネ,0
1889,7380005012649,新規,0,2022-11-18,2022-11-18,特定非営利活動法人ｋｕｌｔｕｒ＆ｓｐｏｒｔ棚倉,,その他の設立登記法人,福島県,東白川郡棚倉町,大字塚原字強清水４２番地３,,07,481,9635664,,,,,,,2022-11-18,1,,,,,カルチャーアンドスポーツタナグラ,0
1900,7430001087879,新規,0,2022-11-18,2022-11-18,株式会社明孝,,株式会社,北海道,札幌市豊平区,平岸三条７丁目１番２７号,,01,105,0620933,,,,,,,2022-11-18,1,,,,,メイコウ,0
1901,7430001087895,新規,0,2022-11-18,2022-11-18,株式会社タイヨウ塗装,,株式会社,北海道,札幌市西区,西野六条１丁目４番６号,,01,107,0630036,,,,,,,2022-11-18,1,,,,,タイヨウトソウ,0
1905,7430003014476,新規,0,2022-11-18,2022-11-18,合同会社Ｎ‐ＧＲＡＣＥ,,合同会社,北海道,札幌市手稲区,前田八条９丁目６番１４号,,01,109,0060818,,,,,,,2022-11-18,1,,,,,エヌグレース,0
1908,7460301005109,新規,0,2022-11-18,2022-11-18,株式会社ＳＯＵ,,株式会社,北海道,北見市,美山町南１丁目４番地２１９,,01,208,0900068,,,,,,,2022-11-18,1,,,,,ソウ,0
1918,8010001230901,新規,0,2022-11-18,2022-11-18,株式会社Ｏｍｏｉ,,株式会社,東京都,中央区,東日本橋２丁目１番６号岩田屋ビル７階,,13,102,1030004,,,,,,,2022-11-18,1,,,,,オモイ,0
1919,8010001230942,新規,0,2022-11-18,2022-11-18,株式会社うな重,,株式会社,東京都,千代田区,外神田５丁目６番１４号秋葉原ＫＤビル５階,,13,101,1010021,,,,,,,2022-11-18,1,,,,,ウナシゲ,0
1921,8010101015418,新規,0,2022-11-18,2022-11-18,株式会社Ｒｅａｌ　Ｅｓｔａｔｅかどや,,株式会社,東京都,八王子市,叶谷町８７５番地１,,13,201,1930815,,,,,,,2022-11-18,1,,,,,リアルエステートカドヤ,0
1927,8010403028935,新規,0,2022-11-18,2022-11-18,Ｐｕｅｎｔｅ　Ｆｅｌｉｚ合同会社,,合同会社,東京都,港区,南麻布１丁目６－３ＹＲＥビル２Ｆ,,13,103,1060047,,,,,,,2022-11-18,1,,,,,プエンテフェリス,0
1939,8010803004354,新規,0,2022-11-18,2022-11-18,合同会社ファーゲート,,合同会社,東京都,大田区,大森東２丁目１８番１０号ＯＭイースト３０１,,13,111,1430012,,,,,,,2022-11-18,1,,,,,ファーゲート,0
1940,8010903007793,新規,0,2022-11-18,2022-11-18,合同会社イザベラ,,合同会社,東京都,世田谷区,赤堤４丁目１２番１７号ハイツたから２０２,,13,112,1560044,,,,,,,2022-11-18,1,,,,,,0
1947,8011001150998,新規,0,2022-11-18,2022-11-18,株式会社リアラベル,,株式会社,東京都,渋谷区,道玄坂１丁目１０番８号渋谷道玄坂東急ビル２Ｆ－Ｃ,,13,113,1500043,,,,,,,2022-11-18,1,,,,,リアラベル,0
1948,8011001151039,新規,0,2022-11-18,2022-11-18,株式会社Ｐ‐Ｉ‐Ｅ‐Ｃ‐Ｅ‐Ｓ,,株式会社,東京都,渋谷区,神宮前６丁目２３番４号桑野ビル２階,,13,113,1500001,,,,,,,2022-11-18,1,,,,,ピーシーズ,0
1949,8011001151071,新規,0,2022-11-18,2022-11-18,株式会社Ｇ４Ｌ,,株式会社,東京都,渋谷区,本町１丁目５２番１号サウンドプルーフ初台２０１,,13,113,1510071,,,,,,,2022-11-18,1,,,,,ジーフォーエル,0
1953,8011101100878,新規,0,2022-11-18,2022-11-18,株式会社為華,,株式会社,東京都,新宿区,百人町２丁目２０－１２,,13,104,1690073,,,,,,,2022-11-18,1,,,,,タメハナ,0
1955,8011103012394,新規,0,2022-11-18,2022-11-18,Ｅｔｅｒｎａｌ　Ｂｕｓｉｎｅｓｓ　Ｎａｍｃｏ合同会社,,合同会社,東京都,新宿区,若葉１丁目１１番地１３四谷ホームズ１０２,,13,104,1600011,,,,,,,2022-11-18,1,,,,,エターナルビジネスナムコ,0
1958,8011503005361,新規,0,2022-11-18,2022-11-18,合同会社あおいかぶとむし,,合同会社,東京都,荒川区,南千住８丁目６番３－２１５号,,13,118,1160003,,,,,,,2022-11-18,1,,,,,アオイカブトムシ,0
1959,8011601026383,新規,0,2022-11-18,2022-11-18,向陽精密機械株式会社,,株式会社,東京都,練馬区,豊玉北３丁目２２－９第二コーポ４０６室,,13,120,1760012,,,,,,,2022-11-18,1,,,,,コウヨウセイミツキカイ,0
1963,8011703003306,新規,0,2022-11-18,2022-11-18,合同会社浩成,,合同会社,東京都,江戸川区,松江６丁目６番２－２０１号,,13,123,1320025,,,,,,,2022-11-18,1,,,,,コウセイ,0
1966,8011801041579,新規,0,2022-11-18,2022-11-18,株式会社ヒマラヤスギ,,株式会社,東京都,足立区,栗原３丁目２６番１号２Ｆ,,13,121,1230842,,,,,,,2022-11-18,1,,,,,ヒマラヤスギ,0
1967,8011803005391,新規,0,2022-11-18,2022-11-18,合同会社Ｎｅｐｏ,,合同会社,東京都,足立区,舎人４丁目１―２０―８０３号,,13,121,1210831,,,,,,,2022-11-18,1,,,,,ネポ,0
1974,8012703002578,新規,0,2022-11-18,2022-11-18,ＣＯＥアドバイザリー合同会社,,合同会社,東京都,小平市,小川町１丁目４０４－１１４,,13,211,1870032,,,,,,,2022-11-18,1,,,,,シーオーイーアドバイザリー,0
1980,8020001149026,新規,0,2022-11-18,2022-11-18,株式会社ベルビュー,,株式会社,神奈川県,川崎市川崎区,大師駅前２丁目１番１－１０２０号,,14,131,2100802,,,,,,,2022-11-18,1,,,,,ベルビュー,0
1990,8021003012320,新規,0,2022-11-18,2022-11-18,ザゼエンタープライズ合同会社,,合同会社,神奈川県,綾瀬市,寺尾台２丁目３１番１１号,,14,218,2521137,,,,,,,2022-11-18,1,,,,,ザゼエンタープライス,0
2003,8040001125818,新規,0,2022-11-18,2022-11-18,株式会社福山住宅設備,,株式会社,千葉県,習志野市,大久保２丁目１４番５－３０８号,,12,216,2750011,,,,,,,2022-11-18,1,,,,,フクヤマジュウタクセツビ,0
2004,8040001125925,新規,0,2022-11-18,2022-11-18,ＩＳコンサルタント株式会社,,株式会社,千葉県,富津市,大堀１丁目１番地６・２号室,,12,226,2930001,,,,,,,2022-11-18,1,,,,,アイエスコンサルタント,0
2006,8040003021296,新規,0,2022-11-18,2022-11-18,合同会社ＨＩＴＯＴＳＵＫＩ,,合同会社,千葉県,千葉市緑区,おゆみ野南４丁目１３－１５,,12,105,2660033,,,,,,,2022-11-18,1,,,,,ヒトツキ,0
2007,8040003021305,新規,0,2022-11-18,2022-11-18,セグンデラ合同会社,,合同会社,千葉県,大網白里市,南横川３１６７番地１１,,12,239,2993223,,,,,,,2022-11-18,1,,,,,セグンデラ,0
2009,8050003007030,新規,0,2022-11-18,2022-11-18,合同会社ハピネスチャージ,,合同会社,茨城県,取手市,稲４８５番地８,,08,217,3020026,,,,,,,2022-11-18,1,,,,,ハピネスチャージ,0
2018,8080005007496,新規,0,2022-11-18,2022-11-18,一般社団法人静岡希少疾患ネットワーク,,その他の設立登記法人,静岡県,静岡市葵区,漆山８６０,,22,101,4200953,,,,,,,2022-11-18,1,,,,,シズオカキショウシッカンネットワーク,0
2042,8120001250392,新規,0,2022-11-18,2022-11-18,株式会社ＬＣ２,,株式会社,大阪府,大阪市阿倍野区,阪南町３丁目２９－１,,27,119,5450021,,,,,,,2022-11-18,1,,,,,エルシーツー,0
2043,8120001250426,新規,0,2022-11-18,2022-11-18,ＣＨＷ株式会社,,株式会社,大阪府,大阪市天王寺区,悲田院町４番３９号朝日プラザ天王寺パサージュ８０７号室,,27,109,5430055,,,,,,,2022-11-18,1,,,,,シーエイチダブリュー,0
2049,8120003022831,新規,0,2022-11-18,2022-11-18,合同会社ＳＴ参,,合同会社,大阪府,大阪市中央区,瓦町４丁目３番７号ＶＯＲＴ御堂筋本町５０２号,,27,128,5410048,,,,,,,2022-11-18,1,,,,,エスティーサン,0
2050,8120003022897,新規,0,2022-11-18,2022-11-18,琴緒合同会社,,合同会社,大阪府,大阪市天王寺区,玉造本町１番２９－７０３号,,27,109,5430013,,,,,,,2022-11-18,1,,,,,コトオ,0
2057,8120901046766,新規,0,2022-11-18,2022-11-18,株式会社あいふりー,,株式会社,大阪府,吹田市,五月が丘北２３番２０号,,27,205,5650834,,,,,,,2022-11-18,1,,,,,アイフリー,0
2058,8120903004375,新規,0,2022-11-18,2022-11-18,豊島基礎合同会社,,合同会社,大阪府,摂津市,別府２丁目２９番１８－３０４号,,27,224,5660046,,,,,,,2022-11-18,1,,,,,トヨシマキソ,0
2065,8130001073099,新規,0,2022-11-18,2022-11-18,株式会社ＲＵＳＥＡ,,株式会社,京都府,京都市南区,東九条西岩本町１０－２イリアスオフィス２Ｆ,,26,107,6018005,,,,,,,2022-11-18,1,,,,,ルシア,0
2073,8140001128133,新規,0,2022-11-18,2022-11-18,株式会社時代,,株式会社,兵庫県,神戸市中央区,生田町１丁目２番４号サンシャトー三宮１０５号,,28,110,6510092,,,,,,,2022-11-18,1,,,,,ジダイ,0
2074,8140003018381,新規,0,2022-11-18,2022-11-18,合同会社フラニー,,合同会社,兵庫県,宝塚市,仁川高丸３丁目１３番１８号,,28,214,6650063,,,,,,,2022-11-18,1,,,,,フラニー,0
2077,8170001017382,新規,0,2022-11-18,2022-11-18,株式会社ＤＲＭ,,株式会社,和歌山県,岩出市,西野１番地６,,30,209,6496235,,,,,,,2022-11-18,1,,,,,ディーアールエム,0
2091,8180001153854,新規,0,2022-11-18,2022-11-18,株式会社フロンティア,,株式会社,愛知県,名古屋市南区,東又兵ヱ町３丁目３４番地の１０、３Ｆ,,23,112,4570833,,,,,,,2022-11-18,1,,,,,フロンティア,0
2092,8180001153870,新規,0,2022-11-18,2022-11-18,株式会社ＳＩＯ,,株式会社,愛知県,犬山市,大字犬山字西古券２８１番地,,23,215,4840085,,,,,,,2022-11-18,1,,,,,シオ,0
2093,8180001153887,新規,0,2022-11-18,2022-11-18,株式会社Ｃｒｙｐｔｏ,,株式会社,愛知県,名古屋市中区,錦３丁目４番２５号,,23,106,4600003,,,,,,,2022-11-18,1,,,,,クリプト,0
2104,8190003004146,新規,0,2022-11-18,2022-11-18,合同会社木村,,合同会社,三重県,津市,久居新町１０７３番地５,,24,201,5141118,,,,,,,2022-11-18,1,,,,,キムラ,0
2106,8200001040686,新規,0,2022-11-18,2022-11-18,株式会社大自然,,株式会社,岐阜県,美濃加茂市,三和町廿屋４９８番地,,21,211,5050001,,,,,,,2022-11-18,1,,,,,ダイシゼン,0
2116,8250003003182,新規,0,2022-11-18,2022-11-18,不動産ライズ合同会社,,合同会社,山口県,山口市,吉敷下東２丁目６－５リアライズＶ１０５,,35,203,7530814,,,,,,,2022-11-18,1,,,,,フドウサンライズ,0
2138,8300001013137,新規,0,2022-11-18,2022-11-18,株式会社海華商事,,株式会社,佐賀県,佐賀市,東与賀町大字下古賀２４９０番地１０３,,41,201,8402221,,,,,,,2022-11-18,1,,,,,カイカショウジ,0
2146,8360001031216,新規,0,2022-11-18,2022-11-18,株式会社伊差川開発,,株式会社,沖縄県,南城市,玉城字船越１１０番地,,47,215,9010618,,,,,,,2022-11-18,1,,,,,イサガワカイハツ,0
2147,8360001031224,新規,0,2022-11-18,2022-11-18,株式会社Ｏｋｉｎａｗａ　Ｆｉｎｔｅｃｈ　Ｇｒａｃｅ,,株式会社,沖縄県,名護市,字世冨慶６４９６番地３,,47,209,9050022,,,,,,,2022-11-18,1,,,,,オキナワフィンテックグレイス,0
2149,8370001049265,新規,0,2022-11-18,2022-11-18,株式会社ＰｌｕｓＲｅｓｅａｒｃｈ,,株式会社,宮城県,仙台市青葉区,木町通２丁目１番７－１８０２号,,04,101,9800801,,,,,,,2022-11-18,1,,,,,プラスリサーチ,0
2159,8400001016063,新規,0,2022-11-18,2022-11-18,株式会社べこサポ,,株式会社,岩手県,岩手郡岩手町,大字沼宮内第２地割６番地７,,03,303,0284301,,,,,,,2022-11-18,1,,,,,ベコサポ,0
2160,8400003002994,新規,0,2022-11-18,2022-11-18,合同会社ＶａｌｅｎＳ,,合同会社,岩手県,北上市,大通り２丁目１１番２５－１０５号ハイム大通り,,03,206,0240061,,,,,,,2022-11-18,1,,,,,,0
2163,8430001087878,新規,0,2022-11-18,2022-11-18,株式会社まっすぐ,,株式会社,北海道,札幌市東区,丘珠町５２４番４２,,01,103,0070880,,,,,,,2022-11-18,1,,,,,マッスグ,0
2164,8430001087886,新規,0,2022-11-18,2022-11-18,株式会社ＨＡＮＡＳＡＫＵ,,株式会社,北海道,札幌市厚別区,厚別中央二条５丁目６番１号新さっぽろ名店街１Ｆ,,01,108,0040052,,,,,,,2022-11-18,1,,,,,ハナサク,0
2165,8430001087894,新規,0,2022-11-18,2022-11-18,株式会社Ｔｒｕｔｈ,,株式会社,北海道,札幌市北区,新川二条１丁目２番４７号８０１,,01,102,0010922,,,,,,,2022-11-18,1,,,,,トゥルース,0
2166,8430001087903,新規,0,2022-11-18,2022-11-18,株式会社ＲＥＸ,,株式会社,北海道,札幌市北区,北七条西４丁目１番１号トーカン札幌第一キャステール６０７,,01,102,0600807,,,,,,,2022-11-18,1,,,,,レクス,0
2169,8430003014467,新規,0,2022-11-18,2022-11-18,合同会社トムトム企画,,合同会社,北海道,札幌市中央区,南三条西１２丁目３２５番地９ＳＡＫＵＲＡ－Ｗ１２,,01,101,0600063,,,,,,,2022-11-18,1,,,,,トムトムキカク,0
2172,8460101007279,新規,0,2022-11-18,2022-11-18,株式会社ＡＳＧＡＲＤ,,株式会社,北海道,中川郡幕別町,字南勢４３９番地,,01,643,0890623,,,,,,,2022-11-18,1,,,,,,0
2196,9010001230900,新規,0,2022-11-18,2022-11-18,中鷹物流株式会社,,株式会社,東京都,千代田区,紀尾井町４番１号ニューオータニガーデンコート２８階,,13,101,1020094,,,,,,,2022-11-18,1,,,,,ナカタカブツリュウ,0
2198,9010005035809,新規,0,2022-11-18,2022-11-18,弁理士法人ＭＴＩ特許事務所,,その他の設立登記法人,東京都,中央区,日本橋２丁目１番３号アーバンネット日本橋二丁目ビル１０階,,13,102,1030027,,,,,,,2022-11-18,1,,,,,エムティアイトッキョジムショ,0
2207,9010403028892,新規,0,2022-11-18,2022-11-18,合同会社ウェルネスリサーチアンドディベロプメントセンター,,合同会社,東京都,港区,六本木７丁目７番７号Ｔｒｉ－ＳｅｖｅｎＲｏｐｐｏｎｇｉ（トライセブンロッポンギ）８階,,13,103,1060032,,,,,,,2022-11-18,1,,,,,ウェルネスリサーチアンドディベロプメントセンター,0
2208,9010403028934,新規,0,2022-11-18,2022-11-18,ブリッジウォーターキャピタル合同会社,,合同会社,東京都,港区,赤坂２丁目１２番２０－４０７号,,13,103,1070052,,,,,,,2022-11-18,1,,,,,ブリッジウォーターキャピタル,0
2212,9010501049626,新規,0,2022-11-18,2022-11-18,ＳＣＨＯＬＡＲ株式会社,,株式会社,東京都,台東区,三ノ輪２丁目３番８－４０３号,,13,106,1100011,,,,,,,2022-11-18,1,,,,,スコラ,0
2234,9010903007792,新規,0,2022-11-18,2022-11-18,ｌｕｕｃａ合同会社,,合同会社,東京都,世田谷区,北沢２丁目１９番１３号周和ビル２Ｆ,,13,112,1550031,,,,,,,2022-11-18,1,,,,,ルーカ,0
2239,9011001151054,新規,0,2022-11-18,2022-11-18,株式会社ＡＴパートナーズ,,株式会社,東京都,渋谷区,恵比寿西２丁目２番８号えびす第２ビル３階,,13,113,1500021,,,,,,,2022-11-18,1,,,,,エーティーパートナーズ,0
2242,9011101100885,新規,0,2022-11-18,2022-11-18,株式会社エムズコーポレーション,,株式会社,東京都,新宿区,百人町３丁目１番４－１００５号,,13,104,1690073,,,,,,,2022-11-18,1,,,,,エムズコーポレーション,0
2246,9011103012402,新規,0,2022-11-18,2022-11-18,合同会社ＡＲＴ　ＯＦ　ＬＩＦＥ,,合同会社,東京都,新宿区,若葉１丁目２１番地ベルビー四谷Ａ,,13,104,1600011,,,,,,,2022-11-18,1,,,,,アートオブライフ,0
2250,9011401024660,新規,0,2022-11-18,2022-11-18,株式会社Ｊ‐Ｃｅｎｔｅｒ　Ｐｏｉｎｔ,,株式会社,東京都,板橋区,中台２丁目１９－２,,13,119,1740064,,,,,,,2022-11-18,1,,,,,ジェイセンターポイント,0
2252,9011501028677,新規,0,2022-11-18,2022-11-18,歯福得株式会社,,株式会社,東京都,北区,西ケ原３丁目１５番３号,,13,117,1140024,,,,,,,2022-11-18,1,,,,,シフクエ,0
2255,9011601026382,新規,0,2022-11-18,2022-11-18,株式会社Ｃａｍｅｌｌｉｅ,,株式会社,東京都,練馬区,土支田４丁目１３番５号,,13,120,1790076,,,,,,,2022-11-18,1,,,,,カメリエ,0
2257,9011801041578,新規,0,2022-11-18,2022-11-18,株式会社閃華工業,,株式会社,東京都,足立区,綾瀬１丁目１３番８号,,13,121,1200005,,,,,,,2022-11-18,1,,,,,センカコウギョウ,0
2258,9011803005390,新規,0,2022-11-18,2022-11-18,合同会社技研,,合同会社,東京都,足立区,東綾瀬１丁目２８番６号,,13,121,1200004,,,,,,,2022-11-18,1,,,,,ギケン,0
2264,9012703002577,新規,0,2022-11-18,2022-11-18,合同会社ＹＮＲコンサル,,合同会社,東京都,西東京市,向台町１丁目７番２１号,,13,229,1880013,,,,,,,2022-11-18,1,,,,,ワイエヌアールコンサル,0
2285,9021003012402,新規,0,2022-11-18,2022-11-18,合同会社古澤,,合同会社,神奈川県,小田原市,板橋８１２番地の２６,,14,206,2500034,,,,,,,2022-11-18,1,,,,,フルサワ,0
2293,9030001151137,新規,0,2022-11-18,2022-11-18,株式会社Ｓｕｍ‐Ｓｅｔｓ,,株式会社,埼玉県,三郷市,泉１丁目２４番地１０,,11,237,3410054,,,,,,,2022-11-18,1,,,,,サムセッツ,0
2294,9030001151153,新規,0,2022-11-18,2022-11-18,株式会社ビブリア,,株式会社,埼玉県,さいたま市見沼区,大字片柳２６８番地１７,,11,104,3370024,,,,,,,2022-11-18,1,,,,,ビブリア,0
2316,9040001125908,新規,0,2022-11-18,2022-11-18,株式会社和建築,,株式会社,千葉県,習志野市,実籾５丁目４３番１２号,,12,216,2750002,,,,,,,2022-11-18,1,,,,,ナゴミケンチク,0
2317,9040001125916,新規,0,2022-11-18,2022-11-18,株式会社ディー・アイ・ジーコンサルティング,,株式会社,千葉県,我孫子市,我孫子２丁目５番１２２６号シティアＢ棟,,12,222,2701166,,,,,,,2022-11-18,1,,,,,ディーアイジーコンサルティング,0
2318,9040001125932,新規,0,2022-11-18,2022-11-18,株式会社ぱる,,株式会社,千葉県,山武郡横芝光町,屋形５３１４－３６,,12,410,2891735,,,,,,,2022-11-18,1,,,,,パル,0
2323,9050001051979,新規,0,2022-11-18,2022-11-18,株式会社ＮＲ,,株式会社,茨城県,日立市,十王町友部東４丁目５番３号,,08,202,3191303,,,,,,,2022-11-18,1,,,,,エヌアール,0
2324,9050001051987,新規,0,2022-11-18,2022-11-18,株式会社田辺建築,,株式会社,茨城県,潮来市,上戸２９６番地,,08,223,3112435,,,,,,,2022-11-18,1,,,,,タナベケンチク,0
2338,9070001039849,新規,0,2022-11-18,2022-11-18,株式会社Ｎｏｗ　Ｒｅｓｏｒｔ,,株式会社,群馬県,太田市,飯田町１２６７,,10,205,3730851,,,,,,,2022-11-18,1,,,,,ナウリゾート,0
2341,9080401026165,新規,0,2022-11-18,2022-11-18,ＡＶＡＮＺＡＲＥ株式会社,,株式会社,静岡県,浜松市南区,飯田町１４２９番地の２,,22,134,4350028,,,,,,,2022-11-18,1,,,,,アヴァンザーレ,0
2361,9120001250342,新規,0,2022-11-18,2022-11-18,ＡＰＵ不動産株式会社,,株式会社,大阪府,大阪市北区,豊崎５丁目７番１５号（多田ビル２１２号室）,,27,127,5310072,,,,,,,2022-11-18,1,,,,,エーピーユーフドウサン,0
2367,9120003022830,新規,0,2022-11-18,2022-11-18,合同会社ＳＴ弐,,合同会社,大阪府,大阪市中央区,瓦町４丁目３番７号ＶＯＲＴ御堂筋本町５０２号,,27,128,5410048,,,,,,,2022-11-18,1,,,,,エスティーニ,0
2368,9120003022888,新規,0,2022-11-18,2022-11-18,京和テック合同会社,,合同会社,大阪府,大阪市城東区,野江１丁目１１番１－４１０号,,27,118,5360006,,,,,,,2022-11-18,1,,,,,キョウワテック,0
2369,9120003022896,新規,0,2022-11-18,2022-11-18,Ｆｉｎｇｅｒｓ　Ｆａｍｉｌｙ合同会社,,合同会社,大阪府,寝屋川市,三井南町４番１３号,,27,215,5720019,,,,,,,2022-11-18,1,,,,,フィンガーズファミリー,0
2370,9120003022905,新規,0,2022-11-18,2022-11-18,ＶＡＰ合同会社,,合同会社,大阪府,大阪市生野区,桃谷４丁目４番１６号,,27,116,5440034,,,,,,,2022-11-18,1,,,,,ブイエーピー,0
2379,9130001073065,新規,0,2022-11-18,2022-11-18,株式会社レッドパンダ,,株式会社,京都府,京都市下京区,七条通東堀川西入八百屋町５番地,,26,106,6008262,,,,,,,2022-11-18,1,,,,,レッドパンダ,0
2380,9130001073131,新規,0,2022-11-18,2022-11-18,株式会社ＫＧＯ鴨川オフィス,,株式会社,京都府,京都市左京区,北白川別当町４番地の１,,26,103,6068276,,,,,,,2022-11-18,1,,,,,ケージーオーカモガワオフィス,0
2381,9130003008325,新規,0,2022-11-18,2022-11-18,合同会社みなも,,合同会社,京都府,京都市左京区,下鴨東半木町７０番地１,,26,103,6060824,,,,,,,2022-11-18,1,,,,,ミナモ,0
2392,9140001128140,新規,0,2022-11-18,2022-11-18,株式会社ＣＬＥＡＲ,,株式会社,兵庫県,神戸市西区,南別府２丁目１２番地の６,,28,111,6512116,,,,,,,2022-11-18,1,,,,,クリア,0
2393,9140003018364,新規,0,2022-11-18,2022-11-18,合同会社ハナミズキ,,合同会社,兵庫県,神戸市垂水区,清水が丘３丁目１４番７号,,28,108,6550031,,,,,,,2022-11-18,1,,,,,ハナミズキ,0
2394,9140003018380,新規,0,2022-11-18,2022-11-18,合同会社ＦＴＳ,,合同会社,兵庫県,神戸市中央区,中山手通４丁目１８番３－２０３号,,28,110,6500004,,,,,,,2022-11-18,1,,,,,エフティーエス,0
2397,9150003002813,新規,0,2022-11-18,2022-11-18,合同会社ＵＥＤＡ,,合同会社,奈良県,橿原市,新賀町４２５番地,,29,205,6340006,,,,,,,2022-11-18,1,,,,,ウエダ,0
2412,9180301036832,新規,0,2022-11-18,2022-11-18,株式会社整建,,株式会社,愛知県,新城市,八束穂５６番地１,,23,221,4411318,,,,,,,2022-11-18,1,,,,,セイケン,0
2413,9180301036840,新規,0,2022-11-18,2022-11-18,山内建材興業株式会社,,株式会社,愛知県,新城市,字橋向７４番地２１,,23,221,4411388,,,,,,,2022-11-18,1,,,,,ヤマウチケンザイコウギョウ,0
2415,9200001040685,新規,0,2022-11-18,2022-11-18,株式会社ヌールインターナショナル,,株式会社,岐阜県,安八郡神戸町,大字神戸字大円坊１１５９番１,,21,381,5032305,,,,,,,2022-11-18,1,,,,,ヌールインターナショナル,0
2416,9230001019603,新規,0,2022-11-18,2022-11-18,丸本配管株式会社,,株式会社,富山県,魚津市,仏田２６１９番地１７,,16,204,9370061,,,,,,,2022-11-18,1,,,,,マルモトハイカン,0
2418,9270001008668,新規,0,2022-11-18,2022-11-18,株式会社ＡＳＴＡＲ,,株式会社,鳥取県,東伯郡湯梨浜町,大字田後３６８番地,,31,370,6820721,,,,,,,2022-11-18,1,,,,,アスター,0
2422,9290001099615,新規,0,2022-11-18,2022-11-18,吉原商店株式会社,,株式会社,福岡県,福岡市中央区,地行１丁目１４番４号,,40,133,8100064,,,,,,,2022-11-18,1,,,,,ヨシハラショウテン,0
2423,9290001099623,新規,0,2022-11-18,2022-11-18,リンクアンドデザイン株式会社,,株式会社,福岡県,福岡市西区,福重４丁目２３番１７号,,40,135,8190022,,,,,,,2022-11-18,1,,,,,リンクアンドデザイン,0
2424,9290001099631,新規,0,2022-11-18,2022-11-18,株式会社フレデリック,,株式会社,福岡県,福岡市中央区,天神４丁目６番２８号天神ファーストビル７階,,40,133,8100001,,,,,,,2022-11-18,1,,,,,フレデリック,0
2428,9290003013169,新規,0,2022-11-18,2022-11-18,承輝合同会社,,合同会社,福岡県,福岡市東区,名島４丁目３－２リバーサイド名島２０３号室,,40,131,8130043,,,,,,,2022-11-18,1,,,,,ショウキ,0
2434,9320001019429,新規,0,2022-11-18,2022-11-18,株式会社アシスタ,,株式会社,大分県,大分市,上野丘２丁目５番１０号,,44,201,8700835,,,,,,,2022-11-18,1,,,,,アシスタ,0
2436,9330003009591,新規,0,2022-11-18,2022-11-18,合同会社ボア,,合同会社,熊本県,熊本市中央区,妙体寺町２－３ＢｒａｖｅＭａｎｓｉｏｎ藤崎宮北１００１,,43,101,8600856,,,,,,,2022-11-18,1,,,,,ボア,0
2444,9360001031215,新規,0,2022-11-18,2022-11-18,株式会社ＢｉＧＭＡＭＡ　ＥＮＴ．,,株式会社,沖縄県,那覇市,曙３丁目１６番１６－４０７号ブランシエラ那覇曙プレミスト,,47,201,9000002,,,,,,,2022-11-18,1,,,,,ビッグママエンターテイメント,0
2445,9360001031223,新規,0,2022-11-18,2022-11-18,株式会社ＳＴＡＲ　ＲＥＳＯＲＴ,,株式会社,沖縄県,沖縄市,宮里４丁目２番１号アレアル宮里５０３号室,,47,211,9042165,,,,,,,2022-11-18,1,,,,,スターリゾート,0
2447,9360003012469,新規,0,2022-11-18,2022-11-18,Ｌｉｂｒａ合同会社,,合同会社,沖縄県,浦添市,大平３丁目１４番８－２０３号,,47,208,9012113,,,,,,,2022-11-18,1,,,,,リブラ,0
2448,9370001049272,新規,0,2022-11-18,2022-11-18,株式会社宮城ロジスティクス,,株式会社,宮城県,岩沼市,下野郷字新拓１１７番地２階,,04,211,9892421,,,,,,,2022-11-18,1,,,,,ミヤギロジスティクス,0
2461,9430001087877,新規,0,2022-11-18,2022-11-18,ウィズサーブ株式会社,,株式会社,北海道,札幌市東区,北二十八条東１９丁目２番１９号,,01,103,0650028,,,,,,,2022-11-18,1,,,,,ウィズサーブ,0
2462,9430001087885,新規,0,2022-11-18,2022-11-18,株式会社ＦＤホールディングス,,株式会社,北海道,札幌市白石区,平和通１０丁目北７番３５号,,01,104,0030029,,,,,,,2022-11-18,1,,,,,エフディーホールディングス,0
2463,9430001087893,新規,0,2022-11-18,2022-11-18,ＯＴＯＭＩＮＫ株式会社,,株式会社,北海道,札幌市中央区,伏見４丁目５番７－３０４号,,01,101,0640942,,,,,,,2022-11-18,1,,,,,オトミンク,0
2464,9430001087902,新規,0,2022-11-18,2022-11-18,株式会社献,,株式会社,北海道,札幌市中央区,南二条西２６丁目３番３号,,01,101,0640802,,,,,,,2022-11-18,1,,,,,ササグ,0
2469,9430003014466,新規,0,2022-11-18,2022-11-18,マリモデザインファクトリー合同会社,,合同会社,北海道,石狩市,花川南十条３丁目１番地６,,01,235,0613210,,,,,,,2022-11-18,1,,,,,マリモデザインファクトリー,0
2470,9430003014474,新規,0,2022-11-18,2022-11-18,ＳｎｏｗＬａｎｄ合同会社,,合同会社,北海道,札幌市中央区,北二条西２丁目３２第３７桂和ビル５階,,01,101,0600002,,,,,,,2022-11-18,1,,,,,スノーランド,0
