sequenceNumber,corporateNumber,process,correct,updateDate,changeDate,name,nameImageId,kind,prefectureName,cityName,streetNumber,addressImageId,prefectureCode,cityCode,postCode,addressOutside,addressOutsideImageId,closeDate,closeCause,successorCorporateNumber,changeCause,assignmentDate,latest,enName,enPrefectureName,enCityName,enAddressOutside,furigana,hihyoji
4,1010001097752,登記記録の閉鎖等,0,2024-06-12,2024-06-07,株式会社テクモ,,株式会社,東京都,中央区,銀座２丁目１４番９号ＧＦビル,,13,102,1040061,,,2024-06-07,合併による解散等,6011802013298,令和６年６月１日東京都足立区竹の塚二丁目８番３０号株式会社三庄（6011802013298）に合併し解散,2015-10-05,1,,,,,テクモ,0
6,1010001218325,登記記録の閉鎖等,0,2024-06-12,2024-05-30,株式会社Ｍ＆Ａソーシング,,株式会社,東京都,港区,虎ノ門４丁目３－１城山トラストタワー２７階,,13,103,1050001,,,2024-05-30,清算の結了等,,,2021-05-25,1,,,,,エムアンドエーソーシング,0
18,1010401147917,登記記録の閉鎖等,0,2024-06-12,2024-05-30,株式会社エスエージェントエスト,,株式会社,東京都,港区,南麻布２丁目７番３０号,,13,103,1060047,,,2024-05-30,清算の結了等,,,2019-09-09,1,,,,,エスエージェントエスト,0
20,1010401154302,登記記録の閉鎖等,0,2024-06-12,2024-05-30,株式会社Ｓｈｕｃｕｒｕ,,株式会社,東京都,港区,南青山４丁目２６－２２ベルビラ南青山２０２,,13,103,1070062,,,2024-05-30,清算の結了等,,,2020-08-04,1,,,,,シュクル,0
33,1010501001841,登記記録の閉鎖等,0,2024-06-12,2024-06-07,株式会社エムエフエンタープライズ,,株式会社,東京都,台東区,台東３丁目１１番６号,,13,106,1100016,,,2024-06-07,清算の結了等,,,2015-10-05,1,,,,,エムエフエンタープライズ,0
44,1010902001242,登記記録の閉鎖等,0,2024-06-12,2024-06-07,有限会社インアンドアウト,,有限会社,東京都,世田谷区,経堂１丁目２１番２０号,,13,112,1560052,,,2024-06-07,清算の結了等,,,2015-10-05,1,,,,,インアンドアウト,0
106,1021001007972,登記記録の閉鎖等,0,2024-06-12,2024-06-10,株式会社久弥電機,,株式会社,神奈川県,高座郡寒川町,一之宮５丁目１４番１０号,,14,321,2530111,,,2024-06-10,清算の結了等,,,2015-10-05,1,,,,,,0
113,1021005010114,登記記録の閉鎖等,0,2024-06-12,2024-06-10,ＮＰＯ法人日本造形教育振興協会,,その他の設立登記法人,神奈川県,厚木市,森の里２丁目２３番１０号,,14,212,2430122,,,2024-06-10,清算の結了等,,,2015-10-05,1,,,,,ニッポンゾウケイキョウイクシンコウキョウカイ,0
116,1030001033210,登記記録の閉鎖等,0,2024-06-12,2024-06-07,松屋ものつくり組株式会社,,株式会社,埼玉県,加須市,弥兵衛３６９番地２,,11,210,3491152,,,2024-06-07,清算の結了等,,,2015-10-05,1,,,,,マツヤモノツクリグミ,0
134,1030002042078,登記記録の閉鎖等,0,2024-06-12,2024-06-06,有限会社内田農機具店,,有限会社,埼玉県,加須市,騎西５番地１,,11,210,3470105,,,2024-06-06,清算の結了等,,,2015-10-05,1,,,,,ウチダノウキグテン,0
143,1040001095712,登記記録の閉鎖等,0,2024-06-12,2024-06-03,株式会社倉岡商会,,株式会社,千葉県,市川市,塩焼２丁目７番３－１０１号（ラ・フルール）,,12,203,2720114,,,2024-06-03,清算の結了等,,,2016-06-09,1,,,,,クラオカショウカイ,0
165,1070002027637,登記記録の閉鎖等,0,2024-06-12,2024-06-04,有限会社森田屋,,有限会社,群馬県,渋川市,北橘町真壁１３８９番地の２,,10,208,3770062,,,2024-06-04,清算の結了等,,,2015-10-05,1,,,,,モリタヤ,0
168,1080401025034,登記記録の閉鎖等,0,2024-06-12,2024-06-07,株式会社宮澤興業,,株式会社,静岡県,磐田市,宮之一色３７８番地２,,22,211,4380816,,,2024-06-07,清算の結了等,,,2021-05-13,1,,,,,ミヤザワコウギョウ,0
171,1090001008223,登記記録の閉鎖等,0,2024-06-12,2024-06-05,株式会社リコライ,,株式会社,山梨県,上野原市,上野原８１５４番地１１２,,19,212,4090112,,,2024-06-05,清算の結了等,,,2015-10-05,1,,,,,,0
178,1110002031411,登記記録の閉鎖等,0,2024-06-12,2024-06-06,有限会社かねさだ,,有限会社,新潟県,長岡市,陽光台４丁目１０番地１０,,15,202,9402148,,,2024-06-06,清算の結了等,,,2015-10-05,1,,,,,カネサダ,0
196,1122001004314,登記記録の閉鎖等,0,2024-06-12,2024-06-05,大進貿易株式会社,,株式会社,大阪府,東大阪市,岸田堂南町５番１２号日新ビル,,27,227,5770847,,,2024-06-05,清算の結了等,,,2015-10-05,1,,,,,ダイシンボウエキ,0
206,1140001060722,登記記録の閉鎖等,0,2024-06-12,2024-06-06,株式会社ハクロ工務店,,株式会社,兵庫県,姫路市,兼田９２８番地の４,,28,201,6728001,,,2024-06-06,清算の結了等,,,2015-10-05,1,,,,,ハクロコウムテン,0
223,1180001009336,登記記録の閉鎖等,0,2024-06-12,2024-05-30,宝愛建設工業株式会社,,株式会社,愛知県,名古屋市昭和区,広路本町５丁目４４番地の１,,23,107,4660841,,,2024-05-30,清算の結了等,,,2015-10-05,1,,,,,ホウアイケンセツコウギョウ,0
231,1180302017095,登記記録の閉鎖等,0,2024-06-12,2024-06-03,有限会社林設備,,有限会社,愛知県,安城市,藤井町西山９３番地,,23,212,4441164,,,2024-06-03,清算の結了等,,,2015-10-05,1,,,,,ハヤシセツビ,0
233,1190001016141,登記記録の閉鎖等,0,2024-06-12,2024-06-07,平和コンクリート工業株式会社,,株式会社,三重県,四日市市,楠町吉崎１番地,,24,202,5100102,,,2024-06-07,清算の結了等,,,2015-10-05,1,,,,,ヘイワコンクリートコウギョウ,0
239,1200001039363,登記記録の閉鎖等,0,2024-06-12,2024-06-06,株式会社ＷＭＴ,,株式会社,岐阜県,羽島市,福寿町浅平３丁目１２番地,,21,209,5016255,,,2024-06-06,合併による解散等,8200001038821,令和６年５月３１日岐阜県羽島市竹鼻町４６３番地株式会社ＨＫ　ＨＯＬＤＩＮＧＳ（8200001038821）に合併し解散,2021-11-04,1,,,,,ダブルエムティ,0
247,1240001030855,登記記録の閉鎖等,0,2024-06-12,2024-06-10,株式会社ＢＲＡＶＥ,,株式会社,広島県,広島市安佐南区,山本５丁目４７番１４号,,34,105,7310137,,,2024-06-10,清算の結了等,,,2015-10-05,1,,,,,ブレイブ,0
255,1270002007833,登記記録の閉鎖等,0,2024-06-12,2024-06-05,有限会社田中洋品店,,有限会社,鳥取県,境港市,本町２０番地,,31,204,6840025,,,2024-06-05,清算の結了等,,,2015-10-05,1,,,,,,0
275,1340002019482,登記記録の閉鎖等,0,2024-06-12,2024-06-04,有限会社寺田工務店,,有限会社,鹿児島県,熊毛郡南種子町,中之上２５４８番地,,46,502,8913701,,,2024-06-04,清算の結了等,,,2015-10-05,1,,,,,テラダコウムテン,0
278,1350005002385,登記記録の閉鎖等,0,2024-06-12,2024-06-04,医療法人社団鮫島整形外科医院,,その他の設立登記法人,宮崎県,日向市,原町４丁目５番１２号,,45,206,8830014,,,2024-06-04,清算の結了等,,,2015-10-05,1,,,,,サメシマセイケイゲカイイン,0
287,1370602000888,登記記録の閉鎖等,0,2024-06-12,2024-05-31,有限会社甚宝水産,,有限会社,宮城県,塩竈市,新浜町２丁目５番７号,,04,203,9850001,,,2024-05-31,清算の結了等,,,2015-10-05,1,,,,,ジンポウスイサン,0
303,1430002065773,登記記録の閉鎖等,0,2024-06-12,2024-06-05,有限会社たつえ商事,,有限会社,北海道,室蘭市,柏木町１１番２号,,01,205,0500064,,,2024-06-05,清算の結了等,,,2015-10-05,1,,,,,タツエショウジ,0
304,1430003013129,登記記録の閉鎖等,0,2024-06-12,2024-06-06,合同会社牧田会計,,合同会社,北海道,苫小牧市,音羽町１丁目８番６号,,01,213,0530044,,,2024-06-06,清算の結了等,,,2021-09-09,1,,,,,マキタカイケイ,0
305,1430005002749,登記記録の閉鎖等,0,2024-06-12,2024-06-10,ロジェ新さっぽろ管理組合法人,,その他の設立登記法人,北海道,札幌市厚別区,厚別中央二条５丁目３番２７号ロジェ新さっぽろ管理事務所内,,01,108,0040052,,,2024-06-10,清算の結了等,,,2015-10-05,1,,,,,ロジェシンサッポロ,0
329,2010005022714,登記記録の閉鎖等,0,2024-06-12,2024-06-06,一般社団法人吉川慎之介記念基金,,その他の設立登記法人,東京都,中央区,銀座６丁目１３番１６号,,13,102,1040061,,,2024-06-06,清算の結了等,,,2015-10-05,1,,,,,ヨシカワシンノスケキネンキキン,0
331,2010101007585,登記記録の閉鎖等,0,2024-06-12,2024-06-07,株式会社アークス,,株式会社,東京都,八王子市,明神町４丁目３番８号,,13,201,1920046,,,2024-06-07,清算の結了等,,,2015-10-05,1,,,,,,0
334,2010101009730,登記記録の閉鎖等,0,2024-06-12,2024-06-05,株式会社ＫＡＲＡＳＡＷＡ,,株式会社,東京都,八王子市,中町９番１号,,13,201,1920085,,,2024-06-05,清算の結了等,,,2015-10-05,1,,,,,カラサワ,0
376,2011801012627,登記記録の閉鎖等,0,2024-06-12,2024-06-06,モラル萬年筆株式会社,,株式会社,東京都,足立区,千住緑町２丁目２４番１２号,,13,121,1200044,,,2024-06-06,清算の結了等,,,2015-10-05,1,,,,,モラルマンネンヒツ,0
391,2020001078197,登記記録の閉鎖等,0,2024-06-12,2024-06-03,株式会社青空,,株式会社,神奈川県,川崎市中原区,市ノ坪３１０番地,,14,133,2110016,,,2024-06-03,清算の結了等,,,2015-10-05,1,,,,,アオゾラ,0
404,2021001025684,登記記録の閉鎖等,0,2024-06-12,2024-06-10,七原建設株式会社,,株式会社,神奈川県,大和市,上草柳８丁目２９番１５号,,14,213,2420029,,,2024-06-10,清算の結了等,,,2015-10-05,1,,,,,ナナハラケンセツ,0
409,2021002067841,登記記録の閉鎖等,0,2024-06-12,2024-06-06,有限会社リカーショップやまだ,,有限会社,神奈川県,横須賀市,粟田１丁目３９番９号,,14,201,2390845,,,2024-06-06,清算の結了等,,,2015-10-05,1,,,,,リカーショップヤマダ,0
410,2021002068154,登記記録の閉鎖等,0,2024-06-12,2024-06-07,有限会社ケンジ,,有限会社,神奈川県,横須賀市,森崎１丁目４番２０号,,14,201,2380023,,,2024-06-07,清算の結了等,,,2015-10-05,1,,,,,ケンジ,0
419,2030002108506,登記記録の閉鎖等,0,2024-06-12,2024-06-06,有限会社良備,,有限会社,埼玉県,川口市,本蓮３丁目４番３１号,00017847,11,203,3340076,,,2024-06-06,清算の結了等,,,2015-10-05,1,,,,,リョウビ,0
434,2040003022234,登記記録の閉鎖等,0,2024-06-12,2024-05-31,合同会社ＨＫ企画,,合同会社,千葉県,千葉市中央区,港町２４番９号アイリー千葉１０１号,,12,101,2600831,,,2024-05-31,清算の結了等,,,2023-03-24,1,,,,,エイチケーキカク,0
451,2060001027605,登記記録の閉鎖等,0,2024-06-12,2024-06-05,株式会社ＴＲＥＩＺＥ,,株式会社,栃木県,栃木市,大平町伯仲２６５６番１－１,,09,203,3294424,,,2024-06-05,清算の結了等,,,2015-10-22,1,,,,,トライズ,0
458,2070001032496,登記記録の閉鎖等,0,2024-06-12,2024-06-06,株式会社かみつけ交通,,株式会社,群馬県,北群馬郡榛東村,大字広馬場２０５３番地２,,10,344,3703504,,,2024-06-06,清算の結了等,,,2016-08-01,1,,,,,カミツケコウツウ,0
476,2110005011186,登記記録の閉鎖等,0,2024-06-12,2024-06-05,医療法人社団金沢医院,,その他の設立登記法人,新潟県,長岡市,曲新町５９３番地,,15,202,9401103,,,2024-06-05,清算の結了等,,,2015-10-05,1,,,,,カナザワイイン,0
480,2120001160119,登記記録の閉鎖等,0,2024-06-12,2024-06-10,株式会社フレックス,,株式会社,島根県,出雲市,小山町３８５番地の５,,32,203,6930051,,,2024-06-10,清算の結了等,,,2015-10-05,1,,,,,フレックス,0
481,2120001164631,登記記録の閉鎖等,0,2024-06-12,2024-06-10,日本ノルヴィ株式会社,,株式会社,大阪府,大阪市中央区,瓦町４丁目６番１５号,,27,128,5410048,,,2024-06-10,清算の結了等,,,2015-10-05,1,,,,,ニホンノルビィ,0
492,2120102002888,登記記録の閉鎖等,0,2024-06-12,2024-06-06,有限会社治平,,有限会社,大阪府,堺市南区,泉田中１０６番地の３,,27,145,5900126,,,2024-06-06,清算の結了等,,,2015-10-05,1,,,,,ジヘイ,0
500,2122005002858,登記記録の閉鎖等,0,2024-06-12,2024-06-06,一般社団法人日本ハラル食肉流通機構,,その他の設立登記法人,大阪府,東大阪市,本庄西３丁目９番８号,,27,227,5780965,,,2024-06-06,清算の結了等,,,2015-10-05,1,,,,,ニホンハラルショクニクリュウツウキコウ,0
501,2130003006302,登記記録の閉鎖等,0,2024-06-12,2024-06-10,グリーアイ合同会社,,合同会社,京都府,木津川市,加茂町岡崎三光寺１０番地６,,26,214,6191103,,,2024-06-10,清算の結了等,,,2019-12-04,1,,,,,,0
504,2140002055860,登記記録の閉鎖等,0,2024-06-12,2024-06-07,エビス警備有限会社,,有限会社,兵庫県,西宮市,馬場町１番８号－３０５,,28,204,6620915,,,2024-06-07,清算の結了等,,,2015-10-05,1,,,,,エビスケイビ,0
511,2170003001159,登記記録の閉鎖等,0,2024-06-12,2024-06-07,Ｕ－ｎｉｆｙ合同会社,,合同会社,和歌山県,和歌山市,福島４３５－６,,30,201,6408401,,,2024-06-07,清算の結了等,,,2017-07-27,1,,,,,,0
512,2180001093239,登記記録の閉鎖等,0,2024-06-12,2024-06-05,株式会社トーカイ,,株式会社,愛知県,常滑市,明和町２丁目６番地,,23,216,4790841,,,2024-06-05,清算の結了等,,,2015-10-05,1,,,,,トーカイ,0
520,2180002088072,登記記録の閉鎖等,0,2024-06-12,2024-05-31,森高サービス有限会社,,有限会社,愛知県,東海市,富木島町前田面１０５番地の１,,23,222,4760011,,,2024-05-31,清算の結了等,,,2015-10-05,1,,,,,モリタカサービス,0
523,2190001022015,登記記録の閉鎖等,0,2024-06-12,2024-06-10,株式会社ＡＬＰＨＡ,,株式会社,三重県,四日市市,中川原１丁目６番地３３,,24,202,5100833,,,2024-06-10,清算の結了等,,,2015-10-05,1,,,,,,0
561,2300001013638,登記記録の閉鎖等,0,2024-06-12,2024-06-07,株式会社福岡ソノリク１,,株式会社,佐賀県,鳥栖市,姫方町１６６０番地,,41,203,8410023,,,2024-06-07,合併による解散等,7140001109068,令和６年５月３１日兵庫県淡路市久留麻７８４番地２株式会社今井ファーム（7140001109068）に合併し解散,2024-03-04,1,,,,,フクオカソノリクワン,0
576,2360001013665,登記記録の閉鎖等,0,2024-06-12,2024-06-10,株式会社宮,,株式会社,沖縄県,那覇市,与儀２丁目８番９号,,47,201,9020076,,,2024-06-10,清算の結了等,,,2015-10-05,1,,,,,ミヤ,0
585,2420001012561,登記記録の閉鎖等,0,2024-06-12,2024-06-06,北州産業株式会社,,株式会社,青森県,むつ市,川内町中畑４番地,,02,208,0395201,,,2024-06-06,清算の結了等,,,2015-10-05,1,,,,,ホクシュウサンギョウ,0
592,2430002037334,登記記録の閉鎖等,0,2024-06-12,2024-06-07,株式会社ホームシステム北栄,,株式会社,北海道,札幌市白石区,平和通１６丁目北２番８号,,01,104,0030029,,,2024-06-07,清算の結了等,,,2015-10-05,1,,,,,,0
602,2470002005262,登記記録の閉鎖等,0,2024-06-12,2024-06-06,有限会社西村寢装店,,有限会社,香川県,高松市,松縄町４１番地１１,,37,201,7600079,,,2024-06-06,清算の結了等,,,2015-10-05,1,,,,,ニシムラシンソウテン,0
603,2470002010576,登記記録の閉鎖等,0,2024-06-12,2024-06-06,有限会社オサカスポーツ,,有限会社,香川県,木田郡三木町,大字鹿伏４５０番地１,,37,341,7610703,,,2024-06-06,清算の結了等,,,2015-10-05,1,,,,,オサカスポーツ,0
637,3010005035236,登記記録の閉鎖等,0,2024-06-12,2024-06-06,一般社団法人銀座リアルティ・ワン,,その他の設立登記法人,東京都,千代田区,丸の内２丁目１番１号,,13,101,1000005,,,2024-06-06,清算の結了等,,,2022-07-08,1,,,,,ギンザリアルティワン,0
666,3010901032022,登記記録の閉鎖等,0,2024-06-12,2024-06-10,株式会社チームメディカル,,株式会社,神奈川県,藤沢市,石川６５０番地の１８,,14,205,2520815,,,2024-06-10,清算の結了等,,,2015-10-05,1,,,,,チームメディカル,0
699,3012802004141,登記記録の閉鎖等,0,2024-06-12,2024-06-04,有限会社今井工業,,有限会社,東京都,武蔵村山市,残堀１丁目１０６番地２,,13,223,2080034,,,2024-06-04,清算の結了等,,,2015-10-05,1,,,,,イマイコウギョウ,0
704,3013301018987,登記記録の閉鎖等,0,2024-06-12,2024-06-06,環境ビジョン株式会社,,株式会社,東京都,新宿区,新宿１丁目１２番１２－７０２号,,13,104,1600022,,,2024-06-06,清算の結了等,,,2015-10-05,1,,,,,カンキョウビジョン,0
716,3030001028431,登記記録の閉鎖等,0,2024-06-12,2024-06-03,株式会社ミヒロ,,株式会社,埼玉県,所沢市,三ケ島２丁目９２５番地の９,,11,208,3591164,,,2024-06-03,清算の結了等,,,2015-10-05,1,,,,,ミヒロ,0
722,3030001142372,登記記録の閉鎖等,0,2024-06-12,2024-06-10,株式会社ＳＥＶＥＮ,,株式会社,埼玉県,川越市,大字的場１１８５番地１１,,11,201,3501101,,,2024-06-10,清算の結了等,,,2021-05-25,1,,,,,セブン,0
732,3030003011006,登記記録の閉鎖等,0,2024-06-12,2024-06-07,ＦＫ合同会社,,合同会社,埼玉県,久喜市,東大輪２１０４番地１５,,11,232,3400202,,,2024-06-07,清算の結了等,,,2017-11-09,1,,,,,,0
734,3030003016995,登記記録の閉鎖等,0,2024-06-12,2024-06-07,合同会社ａｔｅｌｉｅｒ　ＭＩ－ＫＥ,,合同会社,埼玉県,越谷市,千間台西３丁目３番地パークタウン１１－２０１,,11,222,3430041,,,2024-06-07,清算の結了等,,,2021-04-05,1,,,,,アトリエミケ,0
754,3060001008835,登記記録の閉鎖等,0,2024-06-12,2024-06-04,株式会社福田製材所,,株式会社,栃木県,塩谷郡塩谷町,大字船生５８７４番地,,09,384,3292441,,,2024-06-04,清算の結了等,,,2015-10-05,1,,,,,フクダセイザイショ,0
760,3070001025581,登記記録の閉鎖等,0,2024-06-12,2024-06-05,株式会社石野農園,,株式会社,群馬県,安中市,松井田町小日向７１１番地１,,10,211,3790213,,,2024-06-05,清算の結了等,,,2015-10-05,1,,,,,イシノノウエン,0
763,3070002016497,登記記録の閉鎖等,0,2024-06-12,2024-06-06,有限会社中島技研,,有限会社,群馬県,甘楽郡甘楽町,大字福島１２９番地の１,,10,384,3702212,,,2024-06-06,清算の結了等,,,2015-10-05,1,,,,,ナカジマギケン,0
774,3120001128370,登記記録の閉鎖等,0,2024-06-12,2024-06-10,アップハート株式会社,,株式会社,大阪府,大阪市北区,梅田２丁目４番７号,,27,127,5300001,,,2024-06-10,清算の結了等,,,2015-10-05,1,,,,,アップハート,0
829,3190001000523,登記記録の閉鎖等,0,2024-06-12,2024-06-10,株式会社天然樹ホーム,,株式会社,三重県,津市,栄町４丁目２４７番地,,24,201,5140004,,,2024-06-10,清算の結了等,,,2015-10-05,1,,,,,テンネンジュホーム,0
830,3190001026114,登記記録の閉鎖等,0,2024-06-12,2024-06-10,株式会社おかげさま,,株式会社,三重県,鈴鹿市,郡山町２０１０番地の１１,,24,207,5100263,,,2024-06-10,清算の結了等,,,2019-01-08,1,,,,,オカゲサマ,0
844,3230001008537,登記記録の閉鎖等,0,2024-06-12,2024-06-10,丸東食品株式会社,,株式会社,富山県,南砺市,上野１５２番地,,16,210,9391512,,,2024-06-10,清算の結了等,,,2015-10-05,1,,,,,マルトウショクヒン,0
852,3240003001101,登記記録の閉鎖等,0,2024-06-12,2024-06-10,合同会社アールエステート,,合同会社,広島県,山県郡安芸太田町,大字穴５７６番地１,,34,368,7313411,,,2024-06-10,清算の結了等,,,2015-10-05,1,,,,,アールエステート,0
855,3250001014731,登記記録の閉鎖等,0,2024-06-12,2024-06-10,株式会社ながと船舶工業,,株式会社,山口県,下関市,大字勝谷１３９番地２,,35,201,7510801,,,2024-06-10,清算の結了等,,,2015-10-05,1,,,,,ナガトセンパクコウギョウ,0
871,3290002011889,登記記録の閉鎖等,0,2024-06-12,2024-06-04,有限会社デザインバス,,有限会社,福岡県,福岡市中央区,高砂２丁目１７番１－３０３号,,40,133,8100011,,,2024-06-04,清算の結了等,,,2015-10-05,1,,,,,デザインバス,0
876,3300001008174,登記記録の閉鎖等,0,2024-06-12,2024-06-03,株式会社ミツイ,,株式会社,長崎県,松浦市,志佐町庄野免１８４番地,,42,208,8594507,,,2024-06-03,合併による解散等,9310002019783,令和６年５月３１日長崎県松浦市志佐町庄野免１８４番地株式会社西九州メンテナンス（9310002019783）に合併し解散,2015-10-05,1,,,,,ミツイ,0
877,3300002001335,登記記録の閉鎖等,0,2024-06-12,2024-06-07,有限会社フレッシュ青果やまだ,,有限会社,佐賀県,唐津市,厳木町中島１３９９番地２,,41,202,8493112,,,2024-06-07,清算の結了等,,,2015-10-05,1,,,,,フレッシュセイカヤマダ,0
894,3340003001710,登記記録の閉鎖等,0,2024-06-12,2024-06-10,合同会社アリビオファム,,合同会社,鹿児島県,姶良市,鍋倉６１１－１,,46,225,8995411,,,2024-06-10,清算の結了等,,,2015-10-05,1,,,,,アリビオファム,0
898,3360001031377,登記記録の閉鎖等,0,2024-06-12,2024-06-07,株式会社伊島マリンサービス,,株式会社,沖縄県,宮古島市,伊良部字伊良部１３９１－１,,47,214,9060503,,,2024-06-07,清算の結了等,,,2023-01-13,1,,,,,イシママリンサービス,0
914,3430001057720,登記記録の閉鎖等,0,2024-06-12,2024-06-05,株式会社トップジャパン,,株式会社,北海道,室蘭市,港北町２丁目１６番２５号,,01,205,0500063,,,2024-06-05,清算の結了等,,,2015-10-05,1,,,,,トップジャパン,0
920,3430005005080,登記記録の閉鎖等,0,2024-06-12,2024-06-05,一般社団法人北海道臨床精神薬理研究会,,その他の設立登記法人,北海道,札幌市中央区,南二条西６丁目１４－５大友ビル５階,,01,101,0600062,,,2024-06-05,清算の結了等,,,2015-10-05,1,,,,,ホッカイドウリンショウセイシンヤクリケンキュウカイ,0
922,3450003001542,登記記録の閉鎖等,0,2024-06-12,2024-06-04,合同会社カネヒロ商事,,合同会社,北海道,旭川市,永山一条１丁目１番３７号,,01,204,0798411,,,2024-06-04,清算の結了等,,,2016-05-24,1,,,,,カネヒロショウジ,0
924,3460005000310,登記記録の閉鎖等,0,2024-06-12,2024-06-06,協同組合鉄北銀座,,その他の設立登記法人,北海道,釧路市,若松町３番４号,,01,206,0850033,,,2024-06-06,清算の結了等,,,2015-10-05,1,,,,,テツホクギンザ,0
930,3480002011820,登記記録の閉鎖等,0,2024-06-12,2024-06-10,有限会社徳光,,有限会社,徳島県,板野郡板野町,黒谷字東原２４番地の１,,36,404,7790113,,,2024-06-10,清算の結了等,,,2015-10-05,1,,,,,トッコウ,0
937,3500002009845,登記記録の閉鎖等,0,2024-06-12,2024-06-05,有限会社オフィス２１,,有限会社,愛媛県,松山市,高浜町１丁目１４１６番地３４,,38,201,7918081,,,2024-06-05,清算の結了等,,,2015-10-05,1,,,,,オフィスニジュウイチ,0
947,4010001232315,登記記録の閉鎖等,0,2024-06-12,2024-06-03,ＳＲＫ株式会社,,株式会社,東京都,千代田区,有楽町１丁目１３番２号第一生命日比谷ファースト,,13,101,1000006,,,2024-06-03,清算の結了等,,,2023-01-17,1,,,,,エスアールケイ,0
951,4010005008793,登記記録の閉鎖等,0,2024-06-12,2024-06-06,特定非営利活動法人関東安全施設業協会,,その他の設立登記法人,東京都,文京区,本郷５丁目２５番１４号本郷ＴＨビル,,13,105,1130033,,,2024-06-06,清算の結了等,,,2015-10-05,1,,,,,カントウアンゼンシセツギョウキョウカイ,0
971,4011001108331,登記記録の閉鎖等,0,2024-06-12,2024-06-03,ユニコーンプロパティーズ株式会社,,株式会社,東京都,渋谷区,東３丁目２４番１１号,,13,113,1500011,,,2024-06-03,合併による解散等,1011001013856,令和６年６月１日東京都渋谷区東三丁目２４番１１号田邊工業株式会社（1011001013856）に合併し解散,2015-11-26,1,,,,,ユニコーンプロパティーズ,0
984,4011101016707,登記記録の閉鎖等,0,2024-06-12,2024-06-05,日本ポスタリア・フランコチップ株式会社,,株式会社,東京都,新宿区,四谷４丁目３４番２号ＹＳビル７階,,13,104,1600004,,,2024-06-05,合併による解散等,7122001008664,令和６年６月１日奈良県生駒市谷田町１６１５番地ポスタリア株式会社（7122001008664）に合併し解散,2015-10-05,1,,,,,ニホンポスタリアフランコチップ,0
994,4011503002016,登記記録の閉鎖等,0,2024-06-12,2024-06-04,株式会社西友ホールディングス,,株式会社,東京都,武蔵野市,吉祥寺本町１丁目１２番１０号,,13,203,1800004,,,2024-06-04,合併による解散等,8011503002037,令和６年６月１日東京都武蔵野市吉祥寺本町一丁目１２番１０号株式会社西友（8011503002037）に合併し解散,2015-10-05,1,,,,,セイユウホールディングス,0
1006,4012802005650,登記記録の閉鎖等,0,2024-06-12,2024-06-06,有限会社三考商事,,有限会社,東京都,東大和市,清水６丁目１１４４番３６号,,13,220,2070004,,,2024-06-06,清算の結了等,,,2015-10-05,1,,,,,サンコウショウジ,0
1035,4030002074218,登記記録の閉鎖等,0,2024-06-12,2024-06-07,辻本防水有限会社,,有限会社,埼玉県,川越市,大字小ケ谷１３４番地１８,,11,201,3501104,,,2024-06-07,清算の結了等,,,2015-10-05,1,,,,,ツジモトボウスイ,0
1037,4030002118726,登記記録の閉鎖等,0,2024-06-12,2024-06-06,有限会社柿澤印刷,,有限会社,埼玉県,深谷市,普済寺１２８３番地１,,11,218,3690203,,,2024-06-06,清算の結了等,,,2015-10-05,1,,,,,カキザワインサツ,0
1071,4050003004469,登記記録の閉鎖等,0,2024-06-12,2024-06-07,合同会社ファイブ,,合同会社,茨城県,稲敷郡美浦村,大字信太１１４４番地７３,,08,442,3000414,,,2024-06-07,清算の結了等,,,2018-12-25,1,,,,,ファイブ,0
1083,4080001020507,登記記録の閉鎖等,0,2024-06-12,2024-06-04,株式会社田丸屋フードサービス,,株式会社,静岡県,静岡市駿河区,下川原５丁目３４番１８号,,22,102,4210113,,,2024-06-04,合併による解散等,4080001002166,令和６年６月１日静岡市葵区紺屋町６番地の７株式会社主婦の店（4080001002166）に合併し解散,2015-10-05,1,,,,,タマルヤフードサービス,0
1089,4120001111771,登記記録の閉鎖等,0,2024-06-12,2024-06-10,株式会社シー・エム・オー,,株式会社,大阪府,大阪市東住吉区,西今川１丁目１４番２３号,,27,121,5460042,,,2024-06-10,清算の結了等,,,2015-10-05,1,,,,,シーエムオー,0
1105,4120002004925,登記記録の閉鎖等,0,2024-06-12,2024-06-10,有限会社ミナミハイツ,,有限会社,大阪府,大阪市都島区,高倉町３丁目１５番１６号,,27,102,5340011,,,2024-06-10,清算の結了等,,,2015-10-05,1,,,,,ミナミハイツ,0
1107,4120002031861,登記記録の閉鎖等,0,2024-06-12,2024-06-03,有限会社遠山,,有限会社,大阪府,大阪市北区,堂島２丁目２番２２号,,27,127,5300003,,,2024-06-03,合併による解散等,8120001063340,令和６年６月１日大阪市北区堂島二丁目２番２２号株式会社グリーン（8120001063340）に合併し解散,2015-10-05,1,,,,,トオヤマ,0
1151,4180002004201,登記記録の閉鎖等,0,2024-06-12,2024-06-03,有限会社サン・アイダック,,有限会社,愛知県,名古屋市千種区,猫洞通５丁目３０番地,,23,101,4640032,,,2024-06-03,合併による解散等,1180002005532,令和６年６月１日名古屋市千種区猫ヶ洞通五丁目３０番地株式会社ゆう（1180002005532）に合併し解散,2015-10-05,1,,,,,サンアイダック,0
1152,4180002062075,登記記録の閉鎖等,0,2024-06-12,2024-06-03,有限会社フォーミラー,,有限会社,愛知県,愛知郡東郷町,白鳥１丁目５番地の２,,23,302,4700155,,,2024-06-03,清算の結了等,,,2015-10-05,1,,,,,フォーミラー,0
1184,4240002042244,登記記録の閉鎖等,0,2024-06-12,2024-06-07,有限会社ネコデザイン,,有限会社,広島県,福山市,沼隈町大字常石甲２７３９番地,,34,207,7200313,,,2024-06-07,清算の結了等,,,2015-10-05,1,,,,,ネコデザイン,0
1191,4290001066636,登記記録の閉鎖等,0,2024-06-12,2024-06-03,グロリアロジ株式会社,,株式会社,福岡県,福岡市東区,多の津２丁目８番１号,,40,131,8130034,,,2024-06-03,合併による解散等,2290001077726,令和６年６月１日福岡市東区多の津二丁目８番１号グロリア株式会社（2290001077726）に合併し解散,2015-10-05,1,,,,,グロリアロジ,0
1200,4290002029856,登記記録の閉鎖等,0,2024-06-12,2024-05-21,有限会社ディライト,,有限会社,福岡県,福岡市早良区,飯倉７丁目２番１８号,,40,137,8140161,,,2024-05-21,清算の結了等,,,2015-10-05,1,,,,,ディライト,0
1210,4330002025479,登記記録の閉鎖等,0,2024-06-12,2024-06-04,有限会社あさひ,,有限会社,熊本県,八代市,本町２丁目３番１２号,,43,202,8660861,,,2024-06-04,清算の結了等,,,2015-10-05,1,,,,,アサヒ,0
1218,4370001040649,登記記録の閉鎖等,0,2024-06-12,2024-06-03,株式会社ＴＡＭＡＹＡ,,株式会社,宮城県,仙台市青葉区,鷺ケ森２丁目１０番１６号,,04,101,9810922,,,2024-06-03,清算の結了等,,,2016-12-14,1,,,,,タマヤ,0
1243,4450002008083,登記記録の閉鎖等,0,2024-06-12,2024-06-04,有限会社ラーバン,,有限会社,北海道,雨竜郡幌加内町,字幌加内４８８３番地,,01,472,0740411,,,2024-06-04,清算の結了等,,,2015-10-05,1,,,,,,0
1248,4500003001214,登記記録の閉鎖等,0,2024-06-12,2024-06-05,合同会社オフィスｍａｙｕｋａ,,合同会社,愛媛県,松山市,北井門２丁目１０番５号,,38,201,7911105,,,2024-06-05,清算の結了等,,,2015-10-05,1,,,,,オフィスマユカ,0
1255,5010001047753,登記記録の閉鎖等,0,2024-06-12,2024-06-03,株式会社スプライン,,株式会社,東京都,千代田区,神田須田町１丁目２４番,,13,101,1010041,,,2024-06-03,清算の結了等,,,2015-10-05,1,,,,,スプライン,0
1259,5010001139501,登記記録の閉鎖等,0,2024-06-12,2024-06-05,株式会社ユニオン・パートナーズ,,株式会社,東京都,千代田区,神田三崎町２丁目２０番７号,,13,101,1010061,,,2024-06-05,合併による解散等,1011401018686,令和６年６月１日東京都板橋区板橋二丁目６３番１号株式会社ユニオン・パートナーズ（1011401018686）に合併し解散,2015-10-05,1,,,,,ユニオンパートナーズ,0
1289,5011001148269,登記記録の閉鎖等,0,2024-06-12,2024-05-31,株式会社もしもファクトリー,,株式会社,東京都,渋谷区,恵比寿４丁目２０番４号,,13,113,1500013,,,2024-05-31,合併による解散等,5010401098363,令和６年５月３１日東京都渋谷区恵比寿四丁目２０番４号株式会社トランジットジェネラルオフィス（5010401098363）に合併し解散,2022-06-21,1,,,,,モシモファクトリー,0
1299,5011103012661,登記記録の閉鎖等,0,2024-06-12,2024-06-04,合同会社ｖｉｒｔｕａｌ,,合同会社,東京都,新宿区,西新宿３丁目３番１３号西新宿水間ビル６階,,13,104,1600023,,,2024-06-04,清算の結了等,,,2023-02-14,1,,,,,ヴァーチャル,0
1334,5021001049474,登記記録の閉鎖等,0,2024-06-12,2024-06-10,株式会社ノリコーポレーション,,株式会社,神奈川県,大和市,下鶴間１７７７番地３ラ・テルメデルレオーネ中央林間,,14,213,2420001,,,2024-06-10,清算の結了等,,,2015-10-05,1,,,,,,0
1335,5021001058467,登記記録の閉鎖等,0,2024-06-12,2024-06-10,株式会社グラムハウス,,株式会社,神奈川県,大和市,大和東２丁目８番１６号,,14,213,2420017,,,2024-06-10,清算の結了等,,,2016-02-04,1,,,,,,0
1354,5030002079637,登記記録の閉鎖等,0,2024-06-12,2024-06-10,有限会社風間防災設備,,有限会社,埼玉県,川越市,大字久下戸３０５５番地１,,11,201,3500011,,,2024-06-10,清算の結了等,,,2015-10-05,1,,,,,カザマボウサイセツビ,0
1355,5030002117355,登記記録の閉鎖等,0,2024-06-12,2024-06-06,有限会社山鉄産業,,有限会社,埼玉県,深谷市,櫛引５０番地３０,00018019,11,218,3660815,,,2024-06-06,清算の結了等,,,2015-10-05,1,,,,,ヤマテツサンギョウ,0
1356,5030003018718,登記記録の閉鎖等,0,2024-06-12,2024-06-06,リデュライフ合同会社,,合同会社,群馬県,桐生市,新里町新川７１５‐１１ファミリアイマイＡ号室,,10,203,3760121,,,2024-06-06,清算の結了等,,,2022-02-15,1,,,,,リデュライフ,0
1373,5050001038229,登記記録の閉鎖等,0,2024-06-12,2024-06-03,株式会社悠樹プラント工業,,株式会社,千葉県,袖ケ浦市,長浦駅前８丁目３番地５,,12,229,2990246,,,2024-06-03,清算の結了等,,,2015-10-05,1,,,,,ユウキプラントコウギョウ,0
1391,5070002023228,登記記録の閉鎖等,0,2024-06-12,2024-06-05,有限会社杏美,,有限会社,群馬県,桐生市,境野町７丁目１７８４番地９,,10,203,3760002,,,2024-06-05,清算の結了等,,,2015-10-05,1,,,,,キョウミ,0
1396,5080402016499,登記記録の閉鎖等,0,2024-06-12,2024-06-10,有限会社山下呉服店,,有限会社,静岡県,浜松市天竜区,二俣町二俣１５３５番地の８,,22,140,4313314,,,2024-06-10,清算の結了等,,,2015-10-05,1,,,,,ヤマシタゴフクテン,0
1397,5080402019675,登記記録の閉鎖等,0,2024-06-12,2024-06-10,有限会社すずきでんき,,有限会社,静岡県,磐田市,大原２７６１番地,,22,211,4371211,,,2024-06-10,清算の結了等,,,2015-10-05,1,,,,,スズキデンキ,0
1404,5100002026796,登記記録の閉鎖等,0,2024-06-12,2024-05-31,有限会社ベルグランド田中屋,,有限会社,長野県,北安曇郡白馬村,大字北城５７３６番地,,20,485,3999301,,,2024-05-31,清算の結了等,,,2015-10-05,1,,,,,ベルグランドタナカヤ,0
1405,5100002034460,登記記録の閉鎖等,0,2024-06-12,2024-06-03,有限会社松下建設,,有限会社,長野県,上伊那郡飯島町,本郷１７９１番地,,20,384,3993704,,,2024-06-03,清算の結了等,,,2015-10-05,1,,,,,マツシタケンセツ,0
1409,5120001203048,登記記録の閉鎖等,0,2024-06-12,2024-06-07,株式会社Ｍａｔｅｒｉａｌ　ＬＩＮＫ,,株式会社,大阪府,大阪市北区,西天満２丁目８番１号大江ビルヂング地下１階Ｂ１１,,27,127,5300047,,,2024-06-07,清算の結了等,,,2017-01-17,1,,,,,マテリアルリンク,0
1435,5130001053707,登記記録の閉鎖等,0,2024-06-12,2024-06-10,株式会社ＳＰＥＣ,,株式会社,京都府,京都市中京区,西ノ京左馬寮町１０番地２,,26,104,6048491,,,2024-06-10,清算の結了等,,,2015-10-05,1,,,,,スペック,0
1450,5170001010209,登記記録の閉鎖等,0,2024-06-12,2024-06-10,切目崎觀光開発株式会社,00045350,株式会社,和歌山県,日高郡印南町,大字島田２２３８番地の１,,30,390,6491527,,,2024-06-10,清算の結了等,,,2015-10-05,1,,,,,キリメザキカンコウカイハツ,0
1464,5180005011375,登記記録の閉鎖等,0,2024-06-12,2024-06-04,特定非営利活動法人愛知家族会,,その他の設立登記法人,愛知県,瀬戸市,城ケ根町４７番地の６３,,23,204,4890924,,,2024-06-04,清算の結了等,,,2015-10-05,1,,,,,アイチカゾクカイ,0
1485,5240002053249,登記記録の閉鎖等,0,2024-06-12,2024-06-07,有限会社信富商会,,有限会社,広島県,三原市,皆実３丁目１番４０号,,34,204,7230052,,,2024-06-07,清算の結了等,,,2015-10-05,1,,,,,シントミショウカイ,0
1506,5310001016835,登記記録の閉鎖等,0,2024-06-12,2024-06-06,株式会社ベジファーム長崎,,株式会社,長崎県,長崎市,田中町５８４番地１,,42,201,8510134,,,2024-06-06,清算の結了等,,,2020-08-17,1,,,,,ベジファームナガサキ,0
1523,5380002010211,登記記録の閉鎖等,0,2024-06-12,2024-06-06,鈴丸工業有限会社,,有限会社,福島県,郡山市,開成２丁目３０番７号,,07,203,9638851,,,2024-06-06,清算の結了等,,,2015-10-05,1,,,,,スズマルコウギョウ,0
1533,5420002018951,登記記録の閉鎖等,0,2024-06-12,2024-06-06,有限会社向商事,,有限会社,青森県,上北郡東北町,字外蛯沢西平４２番地３,,02,408,0392646,,,2024-06-06,清算の結了等,,,2015-10-05,1,,,,,ムカイショウジ,0
1545,5430003008942,登記記録の閉鎖等,0,2024-06-12,2024-06-05,えぬたぷる合同会社,,合同会社,北海道,札幌市中央区,南一条西１６丁目１番地３２３春野ビル３Ｆ,,01,101,0600061,,,2024-06-05,清算の結了等,,,2017-12-11,1,nTuple LLC,Hokkaido,"Haruno Bld. 3F, 1-323, Minami 1 Nishi 16, Chuo ku, Sapporo shi",,エヌタプル,0
1549,5450002007431,登記記録の閉鎖等,0,2024-06-12,2024-06-03,有限会社岡部商店,,有限会社,北海道,深川市,音江町字広里７６０番地５,,01,228,0741271,,,2024-06-03,清算の結了等,,,2015-10-05,1,,,,,オカベショウテン,0
1552,5490002001216,登記記録の閉鎖等,0,2024-06-12,2024-06-06,有限会社キャム,,有限会社,高知県,高知市,旭駅前町４５番地７,,39,201,7800938,,,2024-06-06,清算の結了等,,,2015-10-05,1,,,,,,0
1554,5490002004169,登記記録の閉鎖等,0,2024-06-12,2024-06-07,有限会社ＯＲＡＮＧＥＢＬＵＥ,,有限会社,高知県,高知市,与力町２番７号,,39,201,7800863,,,2024-06-07,清算の結了等,,,2015-10-05,1,,,,,オレンジブルー,0
1564,6010001185412,登記記録の閉鎖等,0,2024-06-12,2024-06-03,株式会社ユーエックス,,株式会社,東京都,中央区,八重洲１丁目５番１１号－４Ｆ,,13,102,1030028,,,2024-06-03,清算の結了等,,,2017-08-04,1,,,,,ユーエックス,0
1613,6011001038329,登記記録の閉鎖等,0,2024-06-12,2024-06-07,株式会社アルゴテクノ,,株式会社,東京都,品川区,大崎５丁目６番２号,,13,109,1410032,,,2024-06-07,清算の結了等,,,2015-10-05,1,,,,,,0
1634,6012301006776,登記記録の閉鎖等,0,2024-06-12,2024-06-07,アクセスジャパン株式会社,,株式会社,東京都,町田市,中町３丁目４番２号高峰ビル３０２,,13,209,1940021,,,2024-06-07,清算の結了等,,,2015-10-05,1,,,,,アクセスジャパン,0
1658,6021001046223,登記記録の閉鎖等,0,2024-06-12,2024-06-10,珠屋株式会社,,株式会社,神奈川県,逗子市,逗子１丁目５番８号,,14,208,2490006,,,2024-06-10,清算の結了等,,,2015-10-05,1,,,,,タマヤ,0
1667,6021003007371,登記記録の閉鎖等,0,2024-06-12,2024-06-10,ワークアップ合同会社,,合同会社,神奈川県,小田原市,新屋２４０番地の１３,,14,206,2500856,,,2024-06-10,清算の結了等,,,2018-03-28,1,,,,,ワークアップ,0
1672,6030001105665,登記記録の閉鎖等,0,2024-06-12,2024-06-07,株式会社清水金物工業,,株式会社,埼玉県,秩父市,上野町３番５号,,11,207,3680031,,,2024-06-07,清算の結了等,,,2015-10-05,1,,,,,シミズカナモノコウギョウ,0
1691,6040001025103,登記記録の閉鎖等,0,2024-06-12,2024-06-03,株式会社Ｍｉｌｌｅ　Ｆｅｕｉｌｌｅ,,株式会社,千葉県,船橋市,夏見２丁目２３番１２号,,12,204,2730865,,,2024-06-03,清算の結了等,,,2015-10-05,1,,,,,ミルフィーユ,0
1692,6040001080189,登記記録の閉鎖等,0,2024-06-12,2024-06-03,株式会社ＴＨＰ,,株式会社,千葉県,成田市,花崎町８３９番地４０芙蓉ビル１階,,12,211,2860033,,,2024-06-03,清算の結了等,,,2015-10-05,1,,,,,ティーエイチピー,0
1697,6040002060594,登記記録の閉鎖等,0,2024-06-12,2024-06-03,有限会社クリーニングフローラ,,有限会社,千葉県,佐倉市,城１８８番地２６９,,12,212,2850815,,,2024-06-03,清算の結了等,,,2015-10-05,1,,,,,クリーニングフローラ,0
1706,6050002003404,登記記録の閉鎖等,0,2024-06-12,2024-06-07,有限会社ユーティスチール,,有限会社,茨城県,水戸市,袴塚２丁目３番１３号,,08,201,3100055,,,2024-06-07,清算の結了等,,,2015-10-05,1,,,,,ユーティスチール,0
1710,6050003005291,登記記録の閉鎖等,0,2024-06-12,2024-05-10,エサムトレーディング合同会社,,合同会社,茨城県,坂東市,岩井４９８９－４,,08,228,3060631,,,2024-05-10,清算の結了等,,,2020-07-22,1,,,,,エサムトレーディング,0
1720,6070001026305,登記記録の閉鎖等,0,2024-06-12,2024-06-03,株式会社ハンプティーダンプティーティーパーティー,,株式会社,群馬県,高崎市,足門町１７２１番地４,,10,202,3703531,,,2024-06-03,合併による解散等,3070001041463,令和６年６月１日群馬県前橋市青柳町１９８番地株式会社ハンプティーダンプティー（3070001041463）に合併し解散,2015-10-05,1,,,,,ハンプティーダンプティーティーパーティー,0
1727,6100005010706,登記記録の閉鎖等,0,2024-06-12,2024-05-31,農事組合法人みぶ,,その他の設立登記法人,長野県,伊那市,東春近５５６番地,,20,209,3994432,,,2024-05-31,清算の結了等,,,2015-10-05,1,,,,,ミブ,0
1731,6120001187034,登記記録の閉鎖等,0,2024-06-12,2024-06-10,株式会社ヤマナカ,,株式会社,大阪府,大阪市城東区,今福西４丁目４番６－７０４号,,27,118,5360004,,,2024-06-10,清算の結了等,,,2015-10-05,1,,,,,ヤマナカ,0
1762,6130001008783,登記記録の閉鎖等,0,2024-06-12,2024-06-11,森田染繍工芸株式会社,00035289,株式会社,京都府,京都市西京区,川島権田町３５番地１６,,26,111,6158195,,,2024-06-11,清算の結了等,,,2015-10-05,1,,,,,モリタセンシュウコウゲイ,0
1817,6260001024891,登記記録の閉鎖等,0,2024-06-12,2024-06-07,株式会社能島製作所,,株式会社,広島県,福山市,大門町８丁目１０番２５号,,34,207,7210926,,,2024-06-07,清算の結了等,,,2015-10-05,1,,,,,ノジマセイサクショ,0
1829,6290003006613,登記記録の閉鎖等,0,2024-06-12,2024-05-21,合同会社栄明,,合同会社,福岡県,太宰府市,国分１丁目１３番３５号,,40,221,8180132,,,2024-05-21,清算の結了等,,,2016-08-08,1,,,,,エイメイ,0
1842,6340001017350,登記記録の閉鎖等,0,2024-06-12,2024-06-10,いい着物株式会社,,株式会社,鹿児島県,鹿児島市,東開町１３番１２号,,46,201,8910115,,,2024-06-10,清算の結了等,,,2015-10-05,1,,,,,イイキモノ,0
1844,6340002017655,登記記録の閉鎖等,0,2024-06-12,2024-06-10,有限会社こしき郷土舎,,有限会社,鹿児島県,薩摩川内市,下甑町手打１２７０番地,00099612,46,215,8961601,,,2024-06-10,清算の結了等,,,2015-10-05,1,,,,,コシキキョウドシャ,0
1861,6430001039526,登記記録の閉鎖等,0,2024-06-12,2024-06-05,株式会社小樽ダイニング,00088503,株式会社,北海道,小樽市,銭函５丁目５０番地８,,01,203,0613271,,,2024-06-05,合併による解散等,1010601027679,令和６年６月１日東京都江東区亀戸一丁目４番２号株式会社ガルフネット（1010601027679）に合併し解散,2015-10-05,1,,,,,オタルダイニング,0
1876,7010001079563,登記記録の閉鎖等,0,2024-06-12,2024-06-03,株式会社政よし,,株式会社,東京都,千代田区,丸の内２丁目４番１号丸の内ビルディング３５階,,13,101,1000005,,,2024-06-03,清算の結了等,,,2015-10-05,1,,,,,マサヨシ,0
1881,7010001226066,登記記録の閉鎖等,0,2024-06-12,2024-06-03,株式会社明成テクノサービス,,株式会社,東京都,中央区,日本橋本町４丁目８番１４号,,13,102,1030023,,,2024-06-03,合併による解散等,6010001124279,令和６年６月１日東京都中央区日本橋本町四丁目８番１４号株式会社明成商会（6010001124279）に合併し解散,2022-04-25,1,,,,,メイセイテクノサービス,0
1882,7010001229548,登記記録の閉鎖等,0,2024-06-12,2024-06-06,株式会社ＹＳＫ１０,,株式会社,東京都,千代田区,麹町２丁目６番地５,,13,101,1020083,,,2024-06-06,合併による解散等,4160001013089,令和６年６月１日滋賀県草津市橋岡町２０３番地３９株式会社ピーダブルビー（4160001013089）に合併し解散,2022-09-16,1,,,,,ワイエスケイジュウ,0
1890,7010005032691,登記記録の閉鎖等,0,2024-06-12,2024-06-06,ＡＩＨＡＭＡ１ソーラー一般社団法人,,その他の設立登記法人,東京都,中央区,八丁堀４丁目２番１０号ＡＯＪ税理士法人内,,13,102,1040032,,,2024-06-06,清算の結了等,,,2020-12-14,1,,,,,アイハマワンソーラー,0
1917,7010701034116,登記記録の閉鎖等,0,2024-06-12,2024-05-27,株式会社ｅＤＤｙ,,株式会社,東京都,港区,芝大門１丁目３番６号喜多ビル３０１,,13,103,1050012,,,2024-05-27,合併による解散等,8010801026391,令和６年５月８日東京都港区芝大門一丁目３番６号喜多ビル３０１株式会社Ｓｏｌｆｅｒｉｏｎａ（8010801026391）に合併し解散,2017-05-10,1,,,,,エディ,0
1931,7011003007421,登記記録の閉鎖等,0,2024-06-12,2024-05-31,合同会社西新宿六丁目開発,,合同会社,東京都,渋谷区,千駄ヶ谷４丁目２５番２号修養団ＳＹＤビル株式会社フジタ内,,13,113,1510051,,,2024-05-31,清算の結了等,,,2017-02-03,1,,,,,ニシシンジュクロクチョウメカイハツ,0
1962,7021001050018,登記記録の閉鎖等,0,2024-06-12,2024-06-10,株式会社ヌーベル．,,株式会社,神奈川県,鎌倉市,由比ガ浜２丁目５番１８号,,14,204,2480014,,,2024-06-10,清算の結了等,,,2015-10-05,1,,,,,ヌーベル,0
1969,7030001078340,登記記録の閉鎖等,0,2024-06-12,2024-06-10,東邦マシナリー株式会社,,株式会社,埼玉県,川口市,中青木２丁目１２番１３号,,11,203,3320032,,,2024-06-10,清算の結了等,,,2015-10-05,1,,,,,トウホウマシナリー,0
1973,7030002070940,登記記録の閉鎖等,0,2024-06-12,2024-06-10,有限会社晃健,,有限会社,埼玉県,春日部市,大場６５８番地,,11,214,3440021,,,2024-06-10,清算の結了等,,,2015-10-05,1,,,,,コウケン,0
1975,7030003003643,登記記録の閉鎖等,0,2024-06-12,2024-06-10,合同会社エイチワイプランニング,,合同会社,埼玉県,比企郡小川町,東小川６丁目１７番地１,,11,343,3550322,,,2024-06-10,清算の結了等,,,2015-10-05,1,,,,,エイチワイプランニング,0
1983,7040001025102,登記記録の閉鎖等,0,2024-06-12,2024-06-03,株式会社Ｗｉｎｇ　Ｇｒｏｕｐ,,株式会社,千葉県,船橋市,夏見２丁目２３番１２号,,12,204,2730865,,,2024-06-03,清算の結了等,,,2015-10-05,1,,,,,ウインググループ,0
1984,7040001043723,登記記録の閉鎖等,0,2024-06-12,2024-06-03,株式会社藤巻商店,,株式会社,千葉県,印西市,平岡１０８８番地,,12,231,2701324,,,2024-06-03,清算の結了等,,,2015-10-05,1,,,,,フジマキショウテン,0
1985,7040001061130,登記記録の閉鎖等,0,2024-06-12,2024-06-03,多田屋株式会社,,株式会社,千葉県,匝瑳市,八日市場イ２４６０番地,,12,235,2892144,,,2024-06-03,清算の結了等,,,2015-10-05,1,,,,,タダヤ,0
2007,7050003002635,登記記録の閉鎖等,0,2024-06-12,2024-06-07,合同会社ゼロサム,,合同会社,茨城県,日立市,水木町２丁目１５番１６号,,08,202,3160024,,,2024-06-07,清算の結了等,,,2015-10-05,1,,,,,ゼロサム,0
2010,7060001024911,登記記録の閉鎖等,0,2024-06-12,2024-06-05,株式会社マトマエレクトロニクス,,株式会社,栃木県,小山市,西城南３丁目１４番地７ウイングタウンＥ棟,,09,208,3230820,,,2024-06-05,清算の結了等,,,2015-10-05,1,,,,,マトマエレクトロニクス,0
2021,7100002014758,登記記録の閉鎖等,0,2024-06-12,2024-06-10,有限会社ボディープロ柳沢,,有限会社,長野県,上田市,芳田１５９５番地６,,20,203,3860151,,,2024-06-10,清算の結了等,,,2015-10-05,1,,,,,ボディープロヤナギサワ,0
2040,7120005007542,登記記録の閉鎖等,0,2024-06-12,2024-06-07,新大阪タクシー事業協同組合,,その他の設立登記法人,大阪府,大阪市西成区,南津守５丁目３番６１号,,27,122,5570063,,,2024-06-07,清算の結了等,,,2015-10-05,1,,,,,シンオオサカタクシー,0
2051,7120901019599,登記記録の閉鎖等,0,2024-06-12,2024-06-07,株式会社ササキ,,株式会社,大阪府,池田市,栄本町１１番１２号,,27,204,5630058,,,2024-06-07,清算の結了等,,,2015-10-05,1,,,,,ササキ,0
2063,7130005005124,登記記録の閉鎖等,0,2024-06-12,2024-06-03,特定非営利活動法人ソフトパワーネット,,その他の設立登記法人,京都府,京都市下京区,中堂寺南町１３４番地,,26,106,6008813,,,2024-06-03,清算の結了等,,,2015-10-05,1,,,,,ソフトパワーネット,0
2086,7180001078508,登記記録の閉鎖等,0,2024-06-12,2024-06-05,株式会社三富工業,,株式会社,愛知県,犬山市,大字前原字向屋敷９５番地１９９,,23,215,4840061,,,2024-06-05,清算の結了等,,,2015-10-05,1,,,,,ミトミコウギョウ,0
2110,7230002004250,登記記録の閉鎖等,0,2024-06-12,2024-06-10,有限会社ティ・オー・エム企画,,有限会社,富山県,富山市,天正寺４７３番地５,,16,201,9300955,,,2024-06-10,清算の結了等,,,2015-10-05,1,,,,,ティオーエムキカク,0
2152,7370005010166,登記記録の閉鎖等,0,2024-06-12,2024-06-04,一般社団法人ＷＡＳＯＮ社中,,その他の設立登記法人,宮城県,仙台市泉区,高森４丁目２番地の１３,,04,105,9813203,,,2024-06-04,清算の結了等,,,2020-09-25,1,,,,,ワソンシャチュウ,0
2153,7370301003039,登記記録の閉鎖等,0,2024-06-12,2024-05-31,千花株式会社,,株式会社,宮城県,東松島市,赤井字新川前２３番地８,,04,214,9810501,,,2024-05-31,清算の結了等,,,2015-10-05,1,,,,,センカ,0
2156,7380002017361,登記記録の閉鎖等,0,2024-06-12,2024-06-05,有限会社東和火曜会,,有限会社,福島県,二本松市,木幡字坂之下１４２番地,,07,210,9640203,,,2024-06-05,清算の結了等,,,2015-10-05,1,,,,,トウワカヨウカイ,0
2177,7480002011593,登記記録の閉鎖等,0,2024-06-12,2024-06-10,有限会社大亜測量設計事務所,,有限会社,徳島県,板野郡藍住町,勝瑞字幸島１３３番地の６１,,36,403,7711271,,,2024-06-10,清算の結了等,,,2015-10-05,1,,,,,ダイアソクリョウセッケイジムショ,0
2178,7500001025138,登記記録の閉鎖等,0,2024-06-12,2024-06-06,株式会社新興ホールディングス,,株式会社,神奈川県,横浜市瀬谷区,阿久和西３丁目３０番地２,,14,114,2460025,,,2024-06-06,合併による解散等,8250001010008,令和６年６月１日山口県周南市古泉二丁目１１番４３号株式会社東陽エンジニアリング（8250001010008）に合併し解散,2023-08-15,1,,,,,シンコウホールディングス,0
2186,8010001188677,登記記録の閉鎖等,0,2024-06-12,2024-06-03,株式会社ティーカンパニー,,株式会社,東京都,中央区,八丁堀４丁目３番５号,,13,102,1040032,,,2024-06-03,清算の結了等,,,2017-12-28,1,,,,,ティーカンパニー,0
2196,8010003020978,登記記録の閉鎖等,0,2024-06-12,2024-06-03,日光２７ウインベル蒲田合同会社,,合同会社,東京都,千代田区,丸の内３丁目１番１号東京共同会計事務所内,,13,101,1000005,,,2024-06-03,清算の結了等,,,2015-10-05,1,,,,,ニッコウトゥエンティーセブンウインベルカマタ,0
2197,8010003027370,登記記録の閉鎖等,0,2024-06-12,2024-06-03,ＺＡＰ　Ｃｏｒｐｏｒａｔｉｏｎ合同会社,,合同会社,東京都,千代田区,丸の内２丁目５番２号,,13,101,1000005,,,2024-06-03,清算の結了等,,,2018-04-19,1,,,,,ザップコーポレーション,0
2209,8010601046045,登記記録の閉鎖等,0,2024-06-12,2024-06-06,株式会社アイテック,,株式会社,東京都,足立区,谷中１丁目２９番１０号,,13,121,1200006,,,2024-06-06,合併による解散等,3040001024009,令和６年６月１日東京都墨田区緑四丁目３９番７号ルミリオ錦糸町２階株式会社オーエイ技建（3040001024009）に合併し解散,2015-10-05,1,,,,,アイテック,0
2221,8010803000469,登記記録の閉鎖等,0,2024-06-12,2024-06-04,合資会社松尾商店,,合資会社,東京都,大田区,大森東１丁目６番３号,,13,111,1430012,,,2024-06-04,合併による解散等,6010801011107,令和６年６月１日東京都大田区大森東一丁目６番３号株式会社松尾（6010801011107）に合併し解散,2015-10-05,1,,,,,マツオショウテン,0
2222,8010901021508,登記記録の閉鎖等,0,2024-06-12,2024-06-03,株式会社ハーニーアンドサンズジャパン,,株式会社,東京都,文京区,湯島１丁目６番３号,,13,105,1130034,,,2024-06-03,合併による解散等,2010001143308,令和６年６月１日東京都文京区湯島一丁目６番３号株式会社メディカ・ライン（2010001143308）に合併し解散,2015-10-05,1,,,,,ハーニーアンドサンズジャパン,0
2224,8011001056122,登記記録の閉鎖等,0,2024-06-12,2024-06-03,株式会社ｎｅｘｔ　ｉｎｎｏｖａｔｉｏｎ,,株式会社,東京都,豊島区,駒込４丁目８番１５号,,13,116,1700003,,,2024-06-03,清算の結了等,,,2015-10-05,1,,,,,ネクストイノベーション,0
2225,8011001139959,登記記録の閉鎖等,0,2024-06-12,2024-05-31,株式会社トランジットコーポレートアドバイザリー,,株式会社,東京都,渋谷区,恵比寿４丁目２０番４号,,13,113,1500013,,,2024-05-31,合併による解散等,5010401098363,令和６年５月３１日東京都渋谷区恵比寿四丁目２０番４号株式会社トランジットジェネラルオフィス（5010401098363）に合併し解散,2021-04-22,1,,,,,トランジットコーポレートアドバイザリー,0
2249,8011405001252,登記記録の閉鎖等,0,2024-06-12,2024-06-04,医療法人社団喜桜会,,その他の設立登記法人,東京都,板橋区,桜川３丁目２３番２号コモディイイダ桜川店２階,,13,119,1740075,,,2024-06-04,清算の結了等,,,2015-10-05,1,,,,,キオウカイ,0
2263,8012301001239,登記記録の閉鎖等,0,2024-06-12,2024-06-06,株式会社篠原綜合建築計画事務所,,株式会社,東京都,町田市,西成瀬１丁目５番１号,,13,209,1940046,,,2024-06-06,清算の結了等,,,2015-10-05,1,,,,,シノハラソウゴウケンチクケイカクジムショ,0
2303,8030002084551,登記記録の閉鎖等,0,2024-06-12,2024-06-06,有限会社サンビート,,有限会社,埼玉県,鴻巣市,屈巣１９７０番地６,,11,217,3650014,,,2024-06-06,清算の結了等,,,2015-10-05,1,,,,,サンビート,0
2307,8040001029515,登記記録の閉鎖等,0,2024-06-12,2024-06-03,小徳管理株式会社,,株式会社,千葉県,浦安市,猫実４丁目６番３６－６０２号クレアガーデン,,12,227,2790004,,,2024-06-03,清算の結了等,,,2015-10-05,1,,,,,コトクカンリ,0
2338,8100002010062,登記記録の閉鎖等,0,2024-06-12,2024-06-03,金井興業有限会社,,有限会社,長野県,千曲市,大字八幡６０１１番地１,,20,218,3870023,,,2024-06-03,清算の結了等,,,2015-10-05,1,,,,,カナイコウギョウ,0
2344,8110002026586,登記記録の閉鎖等,0,2024-06-12,2024-06-03,有限会社アイケイ中割,,有限会社,新潟県,長岡市,古正寺２丁目２８８番地,,15,202,9402106,,,2024-06-03,清算の結了等,,,2015-10-05,1,,,,,アイケイナカワリ,0
2363,8120003009903,登記記録の閉鎖等,0,2024-06-12,2024-06-07,合同会社リンク,,合同会社,大阪府,大阪市中央区,内平野町１丁目２番９号グランドビル大手前３階３０４号,,27,128,5400037,,,2024-06-07,清算の結了等,,,2015-10-05,1,,,,,リンク,0
2382,8130002028861,登記記録の閉鎖等,0,2024-06-12,2024-06-05,有限会社京都アルギン化学研究所,,有限会社,京都府,亀岡市,余部町中条３０番地,,26,206,6210806,,,2024-06-05,清算の結了等,,,2015-10-05,1,,,,,キョウトアルギンカガクケンキュウショ,0
2390,8160001003986,登記記録の閉鎖等,0,2024-06-12,2024-06-10,株式会社ハートフルギフト,,株式会社,滋賀県,大津市,衣川１丁目３０番２４号,,25,201,5200244,,,2024-06-10,清算の結了等,,,2015-10-05,1,,,,,ハートフルギフト,0
2395,8170002008323,登記記録の閉鎖等,0,2024-06-12,2024-06-07,有限会社鳥羽住器,,有限会社,和歌山県,紀の川市,荒見６６６番地の１,,30,208,6496561,,,2024-06-07,清算の結了等,,,2015-10-05,1,,,,,,0
2397,8170005005870,登記記録の閉鎖等,0,2024-06-12,2024-06-05,特定非営利活動法人和歌山総合福祉支援センター,,その他の設立登記法人,和歌山県,岩出市,中迫４９１番地の３ニューシティーＭＯＲＩＩＩＩ－２０２,00045926,30,209,6496215,,,2024-06-05,清算の結了等,,,2015-10-05,1,,,,,ワカヤマソウゴウフクシシエンセンター,0
2408,8180002058532,登記記録の閉鎖等,0,2024-06-12,2024-06-05,有限会社さくらプランニング,,有限会社,愛知県,名古屋市千種区,徳川山町６丁目２番２６号,,23,101,4640031,,,2024-06-05,清算の結了等,,,2015-10-05,1,,,,,サクラプランニング,0
2409,8180002079941,登記記録の閉鎖等,0,2024-06-12,2024-06-03,ヤックメンテナンス有限会社,,有限会社,愛知県,一宮市,大和町妙興寺字坊ケ池１９番地１,,23,203,4910922,,,2024-06-03,清算の結了等,,,2015-10-05,1,,,,,ヤックメンテナンス,0
2414,8180302016297,登記記録の閉鎖等,0,2024-06-12,2024-06-03,有限会社愛電機,,有限会社,愛知県,安城市,篠目町井山２１５番地２,,23,212,4460073,,,2024-06-03,清算の結了等,,,2015-10-05,1,,,,,アイデンキ,0
2514,8440002009120,登記記録の閉鎖等,0,2024-06-12,2024-06-06,有限会社能登谷商店,,有限会社,北海道,二海郡八雲町,熊石雲石町１３３番地の２,,01,346,0430416,,,2024-06-06,清算の結了等,,,2015-10-05,1,,,,,ノトヤショウテン,0
2515,8450002009846,登記記録の閉鎖等,0,2024-06-12,2024-06-03,有限会社精華堂看板店,,有限会社,北海道,名寄市,西二条南６丁目,,01,221,0960012,,,2024-06-03,清算の結了等,,,2015-10-05,1,,,,,セイカドウカンバンテン,0
2517,8460102002097,登記記録の閉鎖等,0,2024-06-12,2024-06-06,有限会社中央薬局,,有限会社,北海道,帯広市,西二十四条南２丁目２１番地６,,01,207,0802474,,,2024-06-06,清算の結了等,,,2015-10-05,1,,,,,チュウオウヤッキョク,0
2527,8490002003275,登記記録の閉鎖等,0,2024-06-12,2024-06-07,有限会社田中電工,,有限会社,高知県,高知市,高須３丁目３６番３号,,39,201,7818104,,,2024-06-07,清算の結了等,,,2015-10-05,1,,,,,タナカデンコウ,0
2531,9010001008883,登記記録の閉鎖等,0,2024-06-12,2024-06-03,株式会社サン・トップ,,株式会社,東京都,千代田区,岩本町１丁目９番５号,,13,101,1010032,,,2024-06-03,清算の結了等,,,2015-10-05,1,,,,,サントップ,0
2533,9010001010550,登記記録の閉鎖等,0,2024-06-12,2024-06-03,株式会社壹会,,株式会社,東京都,中央区,築地３丁目９番９号,,13,102,1040045,,,2024-06-03,合併による解散等,4010001175489,令和６年６月１日東京都中央区築地三丁目９番９号日創エンジニアリング株式会社（4010001175489）に合併し解散,2015-10-05,1,,,,,イチエ,0
2536,9010001054325,登記記録の閉鎖等,0,2024-06-12,2024-06-03,株式会社ハギワラ,,株式会社,東京都,中央区,日本橋馬喰町２丁目５番１８号,,13,102,1030002,,,2024-06-03,清算の結了等,,,2015-10-05,1,,,,,,0
2551,9010102002760,登記記録の閉鎖等,0,2024-06-12,2024-06-10,有限会社御陵増田屋,,有限会社,東京都,八王子市,東浅川町３１番地の１９,,13,201,1930834,,,2024-06-10,清算の結了等,,,2015-10-05,1,,,,,ゴリョウマスダヤ,0
2557,9010401143297,登記記録の閉鎖等,0,2024-06-12,2024-06-07,ＮＥＯＲＴ株式会社,,株式会社,東京都,港区,南青山２丁目２番１５号ＷｉｎＡｏｙａｍａビルＵＣＦ６階,,13,103,1070062,,,2024-06-07,合併による解散等,1010701036968,令和６年６月１日東京都品川区西五反田二丁目２４番４号ＮＥＯＲＴ株式会社（1010701036968）に合併し解散,2019-01-23,1,,,,,ネオルト,0
2608,9011801004428,登記記録の閉鎖等,0,2024-06-12,2024-05-31,本多不動産株式会社,,株式会社,東京都,葛飾区,東立石２丁目１９番６号,,13,122,1240013,,,2024-05-31,清算の結了等,,,2015-10-05,1,,,,,ホンダフドウサン,0
2616,9012803003087,登記記録の閉鎖等,0,2024-06-12,2024-06-06,合同会社ｎｏｎ’ｓ,,合同会社,東京都,立川市,砂川町８丁目３６－３ル・モンヴェール１０６,,13,202,1900031,,,2024-06-06,清算の結了等,,,2023-05-26,1,,,,,ノンス,0
2650,9040002043613,登記記録の閉鎖等,0,2024-06-12,2024-06-03,有限会社ＰＯＬＰＯ,,有限会社,千葉県,市川市,堀之内３丁目１７番２４号アークタウン,,12,203,2720837,,,2024-06-03,清算の結了等,,,2015-10-05,1,,,,,,0
2661,9050002045055,登記記録の閉鎖等,0,2024-06-12,2024-06-06,有限会社柳田履物工場,,有限会社,茨城県,結城市,大字結城１７４０番地,,08,207,3070001,,,2024-06-06,清算の結了等,,,2015-10-05,1,,,,,ヤナギダハキモノコウジョウ,0
2664,9060005007514,登記記録の閉鎖等,0,2024-06-12,2024-06-04,特定非営利活動法人三区町地域資源・環境保全会,,その他の設立登記法人,栃木県,那須塩原市,三区町５３３番地１３５,,09,213,3292745,,,2024-06-04,清算の結了等,,,2015-10-05,1,,,,,サンクチョウチイキシゲンカンキョウホゼンカイ,0
2667,9070002032324,登記記録の閉鎖等,0,2024-06-12,2024-06-10,有限会社一休,,有限会社,群馬県,太田市,小舞木町２３６番地,,10,205,3730818,,,2024-06-10,清算の結了等,,,2015-10-05,1,,,,,,0
2679,9120001185662,登記記録の閉鎖等,0,2024-06-12,2024-06-10,株式会社リビング・インター,,株式会社,大阪府,大阪市東淀川区,瑞光４丁目１０番２６号,,27,114,5330005,,,2024-06-10,清算の結了等,,,2015-10-05,1,,,,,リビングインター,0
2680,9120001245243,登記記録の閉鎖等,0,2024-06-12,2024-06-05,株式会社みず希,,株式会社,大阪府,寝屋川市,美井元町１０番２５号（４０５号）,,27,215,5720006,,,2024-06-05,清算の結了等,,,2022-04-15,1,,,,,ミズキ,0
2689,9122001019817,登記記録の閉鎖等,0,2024-06-12,2024-06-05,東野商事株式会社,,株式会社,大阪府,八尾市,上之島町南１丁目４４番地,,27,212,5810846,,,2024-06-05,清算の結了等,,,2015-10-05,1,,,,,,0
2700,9130005008661,登記記録の閉鎖等,0,2024-06-12,2024-06-10,特定非営利活動法人南山城村むらおこし事業組合,,その他の設立登記法人,京都府,相楽郡南山城村,大字田山小字ツルギ１０６番地１,,26,367,6191421,,,2024-06-10,清算の結了等,,,2015-10-05,1,,,,,ミナミヤマシロムラムラオコシジギョウクミアイ,0
2704,9140001048438,登記記録の閉鎖等,0,2024-06-12,2024-06-07,株式会社北川工務店,,株式会社,兵庫県,尼崎市,南塚口町５丁目５番２１号,,28,202,6610012,,,2024-06-07,清算の結了等,,,2015-10-05,1,,,,,キタガワコウムテン,0
2705,9140001116822,登記記録の閉鎖等,0,2024-06-12,2024-06-07,株式会社松本工務店,,株式会社,兵庫県,神戸市兵庫区,駅前通４丁目３－１－１１９,,28,105,6520898,,,2024-06-07,清算の結了等,,,2020-03-17,1,,,,,マツモトコウムテン,0
2712,9170001009271,登記記録の閉鎖等,0,2024-06-12,2024-06-10,株式会社龍神組,,株式会社,和歌山県,日高郡みなべ町,清川１７９番地,,30,391,6450201,,,2024-06-10,清算の結了等,,,2015-10-05,1,,,,,リュウジングミ,0
2715,9170002003744,登記記録の閉鎖等,0,2024-06-12,2024-06-11,有限会社夢現進学スクール,,有限会社,和歌山県,和歌山市,和歌川町７番４１号,,30,201,6410055,,,2024-06-11,清算の結了等,,,2015-10-05,1,,,,,ムゲンシンガクスクール,0
2718,9180001128368,登記記録の閉鎖等,0,2024-06-12,2024-06-06,凌雲工業日本株式会社,,株式会社,愛知県,名古屋市中区,錦１丁目１８番２４号いちご伏見ビル８Ｆ,,23,106,4600003,,,2024-06-06,清算の結了等,,,2017-06-23,1,,,,,リョウウンコウギョウニホン,0
2726,9180003023781,登記記録の閉鎖等,0,2024-06-12,2024-06-05,ＭＮＴ合同会社,,合同会社,愛知県,名古屋市中川区,高畑２丁目２０２番地武藤ビル１Ｆ,,23,110,4540911,,,2024-06-05,清算の結了等,,,2022-05-02,1,,,,,エムエヌティー,0
2743,9230001015370,登記記録の閉鎖等,0,2024-06-12,2024-06-10,株式会社富山管機,,株式会社,富山県,富山市,二口町２丁目１１番２,,16,201,9398211,,,2024-06-10,清算の結了等,,,2015-10-05,1,,,,,トヤマカンキ,0
2744,9230002012111,登記記録の閉鎖等,0,2024-06-12,2024-06-10,有限会社丸吉工業,,有限会社,富山県,高岡市,姫野９３８番地,,16,202,9340093,,,2024-06-10,清算の結了等,,,2015-10-05,1,,,,,マルヨシコウギョウ,0
2767,9330001020880,登記記録の閉鎖等,0,2024-06-12,2024-06-07,株式会社シンセイビルド,,株式会社,鹿児島県,鹿児島市,城山町３番１号,,46,201,8920853,,,2024-06-07,清算の結了等,,,2015-10-05,1,,,,,シンセイビルド,0
2768,9330003006259,登記記録の閉鎖等,0,2024-06-12,2024-06-06,合同会社ラムールセブン,,合同会社,熊本県,熊本市中央区,渡鹿２丁目１番５号,,43,101,8620970,,,2024-06-06,清算の結了等,,,2015-10-05,1,,,,,ラムールセブン,0
2787,9380003001718,登記記録の閉鎖等,0,2024-06-12,2024-06-06,合名会社畔越商店,,合名会社,福島県,会津若松市,上町８番７号,,07,202,9650034,,,2024-06-06,清算の結了等,,,2015-10-05,1,,,,,アゼコシショウテン,0
2802,9440001005697,登記記録の閉鎖等,0,2024-06-12,2024-06-06,株式会社伝福保険事務所,,株式会社,北海道,函館市,本通１丁目１４番３号,,01,202,0410851,,,2024-06-06,清算の結了等,,,2015-10-05,1,,,,,デンプクホケンジムショ,0
