sequenceNumber,corporateNumber,process,correct,updateDate,changeDate,name,nameImageId,kind,prefectureName,cityName,streetNumber,addressImageId,prefectureCode,cityCode,postCode,addressOutside,addressOutsideImageId,closeDate,closeCause,successorCorporateNumber,changeCause,assignmentDate,latest,enName,enPrefectureName,enCityName,enAddressOutside,furigana,hihyoji
18,1010003048497,新規,0,2025-08-26,2025-08-26,ビジョナリーワン合同会社,,合同会社,東京都,中央区,銀座１丁目１２番４号Ｎ＆ＥＢＬＤ．６Ｆ,,13,102,1040061,,,,,,,2025-08-26,1,,,,,ビジョナリーワン,0
19,1010003048514,新規,0,2025-08-26,2025-08-26,合同会社トワイライト・ワン,,合同会社,東京都,千代田区,内幸町２丁目１番６号,,13,101,1000011,,,,,,,2025-08-26,1,,,,,トワイライトワン,0
20,1010003048530,新規,0,2025-08-26,2025-08-26,ケンタウルス合同会社,,合同会社,東京都,中央区,銀座２丁目１０番８号マニエラ銀座ビル４階,,13,102,1040061,,,,,,,2025-08-26,1,,,,,ケンタウルス,0
23,1010103002635,新規,0,2025-08-26,2025-08-26,合同会社ＷＡＲＭＴＯＯＬ,,合同会社,東京都,八王子市,楢原町１４４９番地１１,,13,201,1930803,,,,,,,2025-08-26,1,,,,,ウォームツール,0
28,1010401192632,新規,0,2025-08-26,2025-08-26,株式会社Ｇｒｏｗ　Ｕｐ　Ｇｌｏｂａｌ,,株式会社,東京都,港区,南青山３丁目１番３６号青山丸竹ビル６Ｆ,,13,103,1070062,,,,,,,2025-08-26,1,,,,,グローアップグローバル,0
29,1010401192649,新規,0,2025-08-26,2025-08-26,アロイエックスジャパン株式会社,,株式会社,東京都,港区,三田２丁目７－２５,,13,103,1080073,,,,,,,2025-08-26,1,,,,,アロイエックスジャパン,0
33,1010403035896,新規,0,2025-08-26,2025-08-26,ＯｒｉｏｎｓＷａｖｅ合同会社,,合同会社,東京都,港区,虎ノ門１丁目１７番１号虎ノ門ヒルズビジネスタワー１５階,,13,103,1050001,,,,,,,2025-08-26,1,,,,,オリオンズウェーブ,0
41,1010603011739,新規,0,2025-08-26,2025-08-26,ｈ　ｐｌｕｓ　ｈｏｌｄｉｎｇｓ合同会社,,合同会社,東京都,江東区,青海２丁目７番４号ｔｈｅＳＯＨＯ４１８号,,13,108,1350064,,,,,,,2025-08-26,1,,,,,エイチプラスホールディングス,0
42,1010701048154,新規,0,2025-08-26,2025-08-26,株式会社コネクト管理,,株式会社,東京都,品川区,上大崎２丁目１３番２８号,,13,109,1410021,,,,,,,2025-08-26,1,,,,,コネクトカンリ,0
57,1011101112748,新規,0,2025-08-26,2025-08-26,株式会社Ｇｌａｓｓ,,株式会社,東京都,新宿区,高田馬場１丁目２８番１０号バンフォーレ三慶ビル４階,,13,104,1690075,,,,,,,2025-08-26,1,,,,,グラス,0
60,1011103016245,新規,0,2025-08-26,2025-08-26,合同会社Ａｃｈａｈａｎｉ,,合同会社,東京都,新宿区,下落合３丁目２２番３号目白ホームズＢ棟,,13,104,1610033,,,,,,,2025-08-26,1,,,,,アチャハニ,0
61,1011105011541,新規,0,2025-08-26,2025-08-26,一般社団法人日本経営者ポーカー協会,,その他の設立登記法人,東京都,新宿区,大京町２６番地１マジェスティハウス新宿御苑パークナード９０９,,13,104,1600015,,,,,,,2025-08-26,1,,,,,ニホンケイエイシャポーカーキョウカイ,0
64,1011401027349,新規,0,2025-08-26,2025-08-26,株式会社アークライズ,,株式会社,東京都,板橋区,氷川町３０番１６－３０１号,,13,119,1730013,,,,,,,2025-08-26,1,,,,,アークライズ,0
65,1011403004817,新規,0,2025-08-26,2025-08-26,合同会社ほほえみ塾,,合同会社,東京都,板橋区,板橋１丁目２８番１１号エスタート板橋５０２,,13,119,1730004,,,,,,,2025-08-26,1,,,,,ホホエミジュク,0
67,1011703004335,新規,0,2025-08-26,2025-08-26,ＢＥＤＲＯＸ合同会社,,合同会社,東京都,江戸川区,松島３丁目２１－６,,13,123,1320031,,,,,,,2025-08-26,1,,,,,ベッドロックス,0
73,1012403007306,新規,0,2025-08-26,2025-08-26,Ｒｏｆｆｅｙ　Ｃａｒｔｅｒ　Ｃｏｎｓｕｌｔｉｎｇ合同会社,,合同会社,東京都,府中市,晴見町２丁目３番地の２サンクタスミュゼ府中１０５,,13,206,1830057,,,,,,,2025-08-26,1,,,,,ロフィーカターコンサルティング,0
78,1012803003838,新規,0,2025-08-26,2025-08-26,ＴＭＣ合同会社,,合同会社,東京都,国分寺市,日吉町２丁目１２番地２モア・アペックス国立１０２,,13,214,1850032,,,,,,,2025-08-26,1,,,,,ティーエムシー,0
81,1013301054753,新規,0,2025-08-26,2025-08-26,アウルエステート株式会社,,株式会社,東京都,豊島区,南池袋１丁目１６番１５号,,13,116,1710022,,,,,,,2025-08-26,1,,,,,アウルエステート,0
91,1020001164312,新規,0,2025-08-26,2025-08-26,株式会社ＣｒｅｏＤｅｓｔ,,株式会社,神奈川県,横浜市西区,北幸１丁目１１番１号水信ビル７階,,14,103,2200004,,,,,,,2025-08-26,1,,,,,クレオデスト,0
92,1020001164502,新規,0,2025-08-26,2025-08-26,株式会社フローウェルネス,,株式会社,神奈川県,横浜市泉区,和泉中央北６丁目３３－４３,,14,116,2450024,,,,,,,2025-08-26,1,,,,,フローウェルネス,0
93,1020001164543,新規,0,2025-08-26,2025-08-26,ＥｄｕＮｏｖａ株式会社,,株式会社,神奈川県,川崎市多摩区,宿河原３丁目２番２８号,,14,135,2140021,,,,,,,2025-08-26,1,,,,,エデュノヴァ,0
94,1020001164551,新規,0,2025-08-26,2025-08-26,株式会社エーアイコンビ,,株式会社,神奈川県,横浜市中区,長者町９丁目１４７番地２,,14,104,2310033,,,,,,,2025-08-26,1,,,,,エーアイコンビ,0
97,1020003029224,新規,0,2025-08-26,2025-08-26,合同会社たまカン,,合同会社,神奈川県,横浜市青葉区,美しが丘１丁目１３―１０吉村ビル１０７,,14,117,2250002,,,,,,,2025-08-26,1,,,,,タマカン,0
114,1030001168320,新規,0,2025-08-26,2025-08-26,ＦｉｒｅＦｌｙ株式会社,,株式会社,埼玉県,川口市,幸町２丁目７番２６号,,11,203,3320016,,,,,,,2025-08-26,1,,,,,ファイヤーフライ,0
121,1040001140229,新規,0,2025-08-26,2025-08-26,株式会社Ｓｔｅｐ　Ｌｉｎｋ,,株式会社,千葉県,船橋市,三咲６丁目３４番１２号,,12,204,2740812,,,,,,,2025-08-26,1,,,,,ステップリンク,0
123,1040003028356,新規,0,2025-08-26,2025-08-26,合同会社白田商店,,合同会社,千葉県,富里市,久能２８４番地８３,,12,233,2860203,,,,,,,2025-08-26,1,,,,,シラタショウテン,0
133,1070005010417,新規,0,2025-08-26,2025-08-26,労働者協同組合赤鬼社,,その他の設立登記法人,群馬県,藤岡市,鬼石１１９６番地１２０,,10,209,3701401,,,,,,,2025-08-26,1,,,,,,0
135,1080003003537,新規,0,2025-08-26,2025-08-26,合同会社和美彩,,合同会社,静岡県,静岡市葵区,新伝馬２丁目１８番１５号メイウールメゾンＣ棟２号,,22,101,4200944,,,,,,,2025-08-26,1,,,,,ワビサイ,0
138,1080103003404,新規,0,2025-08-26,2025-08-26,ＭＡＳＡＲＩＡ合同会社,,合同会社,静岡県,御殿場市,永塚１９１,,22,215,4120007,,,,,,,2025-08-26,1,,,,,マサリア,0
156,1120001278770,新規,0,2025-08-26,2025-08-26,月山株式会社,,株式会社,大阪府,大阪市淀川区,三津屋北２丁目１１番８号リバーサイド三津屋１０５号室,,27,123,5320032,,,,,,,2025-08-26,1,,,,,ガッサン,0
157,1120001278960,新規,0,2025-08-26,2025-08-26,株式会社Ｔ‐ｓｐａｒｋ,,株式会社,大阪府,寝屋川市,桜木町４番２５号,,27,215,5720041,,,,,,,2025-08-26,1,,,,,ティースパーク,0
158,1120001279001,新規,0,2025-08-26,2025-08-26,株式会社シーズンズ・レンタル,,株式会社,大阪府,大阪市都島区,都島北通１丁目１－４－４階４０４号室,,27,102,5340014,,,,,,,2025-08-26,1,,,,,シーズンズレンタル,0
159,1120001279050,新規,0,2025-08-26,2025-08-26,孟子株式会社,,株式会社,大阪府,大阪市中央区,松屋町９番２０号ローレルステート松屋町３０４Ｂ,,27,128,5420067,,,,,,,2025-08-26,1,,,,,モウシ,0
160,1120001279059,新規,0,2025-08-26,2025-08-26,株式会社環＿,00140415,株式会社,大阪府,大阪市港区,南市岡３丁目１－１３－１Ｆ,,27,107,5520011,,,,,,,2025-08-26,1,,,,,カンシン,0
161,1120001279083,新規,0,2025-08-26,2025-08-26,東秀株式会社,,株式会社,大阪府,大阪市中央区,島之内１丁目１５－１８森久第２ビル２０２号室,,27,128,5420082,,,,,,,2025-08-26,1,,,,,トウシュウ,0
164,1120003030254,新規,0,2025-08-26,2025-08-26,合同会社ＷＩＮ,,合同会社,大阪府,大阪市中央区,東心斎橋２丁目４－７－１Ｆ,,27,128,5420083,,,,,,,2025-08-26,1,,,,,ウイン,0
165,1120003030378,新規,0,2025-08-26,2025-08-26,合同会社ＤｅａｌＰｏｐ,,合同会社,大阪府,大阪市淀川区,東三国６丁目２３番１６－１５０３号,,27,123,5320002,,,,,,,2025-08-26,1,,,,,ディールポップ,0
169,1122001039590,新規,0,2025-08-26,2025-08-26,株式会社Ａｓｔｅｒｓ　Ｓｅｅｄ　ｅｎｔｅｒｔａｉｎｍｅｎｔ,,株式会社,大阪府,八尾市,跡部北の町２丁目４番３８－４０２号,,27,212,5810068,,,,,,,2025-08-26,1,,,,,アスターズシードエンターテイメント,0
174,1130003010742,新規,0,2025-08-26,2025-08-26,合同会社ＴｒａｖｅｌｉｎＧｏｏｄ,,合同会社,京都府,京都市中京区,壬生相合町８番地８ラ・グレース３０２,,26,104,6048812,,,,,,,2025-08-26,1,,,,,トラベリングッド,0
186,1170001018767,新規,0,2025-08-26,2025-08-26,日勝株式会社,,株式会社,和歌山県,海南市,日方１２４２番地１５－１Ｆ－Ａ,,30,202,6420002,,,,,,,2025-08-26,1,,,,,ニッショウ,0
199,1180003028937,新規,0,2025-08-26,2025-08-26,合同会社カレーチリー,,合同会社,愛知県,名古屋市西区,名西１丁目２４番２号,,23,104,4510064,,,,,,,2025-08-26,1,,,,,カレーチリー,0
208,1200005013793,新規,0,2025-08-26,2025-08-26,行政書士法人リスペクト,,その他の設立登記法人,岐阜県,岐阜市,福光東１丁目２４番８号エクセル長良１－Ｂ,,21,201,5020813,,,,,,,2025-08-26,1,,,,,リスペクト,0
213,1240001065414,新規,0,2025-08-26,2025-08-26,株式会社きわみ,,株式会社,広島県,広島市安佐南区,東原３丁目１１番２－２０１号,,34,105,7310112,,,,,,,2025-08-26,1,,,,,キワミ,0
224,1290003017292,新規,0,2025-08-26,2025-08-26,合同会社優閣,,合同会社,福岡県,福岡市中央区,輝国２丁目１７番１７－２０５号,,40,133,8100032,,,,,,,2025-08-26,1,,,,,ユウカク,0
233,1360005007276,新規,0,2025-08-26,2025-08-26,一般社団法人やよい塾アソシエーション,,その他の設立登記法人,沖縄県,那覇市,銘苅３丁目２３番１０号ステューディオエム２－Ｂ,,47,201,9000004,,,,,,,2025-08-26,1,,,,,ヤヨイジュクアソシエーション,0
273,2010001257999,新規,0,2025-08-26,2025-08-26,ティシュセラ株式会社,,株式会社,東京都,千代田区,麹町２丁目１４番地６,,13,101,1020083,,,,,,,2025-08-26,1,,,,,ティシュセラ,0
277,2010005040583,新規,0,2025-08-26,2025-08-26,一般社団法人トワイライト・ファイブ,,その他の設立登記法人,東京都,千代田区,内幸町２丁目１番６号,,13,101,1000011,,,,,,,2025-08-26,1,,,,,トワイライトファイブ,0
285,2010401192648,新規,0,2025-08-26,2025-08-26,Ｅｎｔｅｎｔｅ　Ｃａｐｉｔａｌ株式会社,,株式会社,東京都,港区,赤坂９丁目７番２号ミッドタウン・イースト４階,,13,103,1070052,,,,,,,2025-08-26,1,,,,,アンタンテキャピタル,0
286,2010401192714,新規,0,2025-08-26,2025-08-26,翰笙株式会社,,株式会社,東京都,港区,北青山１丁目３―３三橋ビル３階,,13,103,1070061,,,,,,,2025-08-26,1,,,,,カンショウ,0
290,2010601067848,新規,0,2025-08-26,2025-08-26,株式会社インフィニティ,,株式会社,東京都,江東区,木場６丁目５番２０－２０１号,,13,108,1350042,,,,,,,2025-08-26,1,,,,,インフィニティ,0
291,2010603011746,新規,0,2025-08-26,2025-08-26,合同会社ライラックベル・コンサルティング,,合同会社,東京都,江東区,大島２丁目３７番９－８０２号,,13,108,1360072,,,,,,,2025-08-26,1,,,,,ライラックベルコンサルティング,0
292,2010801036495,新規,0,2025-08-26,2025-08-26,株式会社松幸,,株式会社,東京都,大田区,西糀谷２丁目３１番１５号,,13,111,1440034,,,,,,,2025-08-26,1,,,,,マツコウ,0
310,2011001171199,新規,0,2025-08-26,2025-08-26,株式会社ビズスコープ,,株式会社,東京都,渋谷区,神南１丁目１１－４ＦＰＧリンクス神南５階,,13,113,1500041,,,,,,,2025-08-26,1,,,,,ビズスコープ,0
311,2011001171562,新規,0,2025-08-26,2025-08-26,株式会社ｍｉｙｕｎ．,,株式会社,東京都,渋谷区,恵比寿１丁目１５番９号日宝恵比寿ビル４０３,,13,113,1500013,,,,,,,2025-08-26,1,,,,,ミユン,0
312,2011001171570,新規,0,2025-08-26,2025-08-26,株式会社うち田,,株式会社,東京都,渋谷区,広尾５丁目８番１１号,,13,113,1500012,,,,,,,2025-08-26,1,,,,,ウチダ,0
313,2011001171604,新規,0,2025-08-26,2025-08-26,Ｔｏｋｉｎ株式会社,,株式会社,東京都,渋谷区,本町４丁目２１番２号３０２号室,,13,113,1510071,,,,,,,2025-08-26,1,,,,,トキン,0
314,2011001171694,新規,0,2025-08-26,2025-08-26,株式会社ｃａｌｍ,,株式会社,東京都,渋谷区,千駄ヶ谷１丁目９番１１号,,13,113,1510051,,,,,,,2025-08-26,1,,,,,カーム,0
315,2011001171728,新規,0,2025-08-26,2025-08-26,株式会社Ｓｐｏｔｌｉｇｈｔ,,株式会社,東京都,渋谷区,恵比寿１丁目２２－１０メイツ恵比寿２０４,,13,113,1500013,,,,,,,2025-08-26,1,,,,,スポットライト,0
321,2011101112689,新規,0,2025-08-26,2025-08-26,株式会社ｓａｎｐｏ,,株式会社,東京都,新宿区,住吉町８番８アーバンハイツ１０２,,13,104,1620065,,,,,,,2025-08-26,1,,,,,サンポ,0
325,2011103016244,新規,0,2025-08-26,2025-08-26,合同会社ニハチ東京,,合同会社,東京都,新宿区,下落合３丁目２２番３号目白ホームズＢ棟,,13,104,1610033,,,,,,,2025-08-26,1,,,,,ニハチトウキョウ,0
326,2011103016319,新規,0,2025-08-26,2025-08-26,合同会社ブリッジウェル,,合同会社,東京都,新宿区,西新宿３丁目３番１３号,,13,104,1600023,,,,,,,2025-08-26,1,,,,,ブリッジウェル,0
336,2011503006654,新規,0,2025-08-26,2025-08-26,合同会社Ｂ＆Ｂ,,合同会社,東京都,北区,赤羽南１丁目６番１０号ソシアル明晃ビル４階,,13,117,1150044,,,,,,,2025-08-26,1,,,,,ビーアンドビー,0
341,2012701019035,新規,0,2025-08-26,2025-08-26,株式会社カトテツ,,株式会社,東京都,西東京市,中町１丁目１１番３１号,,13,229,2020013,,,,,,,2025-08-26,1,,,,,カトテツ,0
346,2020001164550,新規,0,2025-08-26,2025-08-26,株式会社八重,,株式会社,神奈川県,横浜市泉区,和泉町５７３３番地の１グリーンハイムいずみ野４０棟７０３号,,14,116,2450016,,,,,,,2025-08-26,1,,,,,ハチシゲ,0
348,2020003029231,新規,0,2025-08-26,2025-08-26,合同会社ＳＡＮＴＩ,,合同会社,神奈川県,横浜市戸塚区,上矢部町１８８５番地２、２０１号,,14,110,2450053,,,,,,,2025-08-26,1,,,,,サンティ,0
349,2020005016970,新規,0,2025-08-26,2025-08-26,一般社団法人スギモトＢｅｎｅｆｉｔｓ　Ｐｌｕｓ‐Ｏｎｅ,,その他の設立登記法人,神奈川県,川崎市川崎区,渡田向町６番５号,,14,131,2100841,,,,,,,2025-08-26,1,,,,,スギモトベネフィッツプラスワン,0
396,2080001027108,新規,0,2025-08-26,2025-08-26,海拓フーズ株式会社,,株式会社,静岡県,榛原郡吉田町,住吉５４３１番地の１１１,,22,424,4210301,,,,,,,2025-08-26,1,,,,,カイタクフーズ,0
398,2080103003403,新規,0,2025-08-26,2025-08-26,合同会社伊豆興業,,合同会社,静岡県,沼津市,岡宮７９９番地加藤ハイツＡ－１０５号,,22,203,4100011,,,,,,,2025-08-26,1,,,,,イズコウギョウ,0
415,2120001278927,新規,0,2025-08-26,2025-08-26,Ｎｅｘｔ　Ｓｙｎｅｒｇｙ株式会社,,株式会社,大阪府,大阪市北区,本庄東１丁目１８番１９号ＡＳＳＩＳＴ－９０、９０２号室,,27,127,5310074,,,,,,,2025-08-26,1,,,,,ネクストシナジー,0
416,2120001279041,新規,0,2025-08-26,2025-08-26,旭陽株式会社,,株式会社,大阪府,大阪市淀川区,三津屋中３丁目８番２０号－２０２号,,27,123,5320036,,,,,,,2025-08-26,1,,,,,キョクヨウ,0
417,2120001279099,新規,0,2025-08-26,2025-08-26,株式会社Ｎｅｘｔ　Ｉｎｎｏｖａｔｉｏｎ,,株式会社,大阪府,大阪市中央区,南船場３丁目１－７日宝東心斎橋ビル４０７号,,27,128,5420081,,,,,,,2025-08-26,1,,,,,ネクストイノベーション,0
420,2120003030385,新規,0,2025-08-26,2025-08-26,合同会社スタンフォードコンサルティング,,合同会社,大阪府,大阪市中央区,淡路町３丁目５番１３号創建御堂筋ビル２Ｆ２０９,,27,128,5410047,,,,,,,2025-08-26,1,,,,,スタンフォードコンサルティング,0
421,2120903005817,新規,0,2025-08-26,2025-08-26,合同会社彩,,合同会社,大阪府,豊中市,上野坂２丁目２１－１ソシアＤ２－１Ｃ号室,,27,203,5600012,,,,,,,2025-08-26,1,,,,,イロドリ,0
422,2122001039565,新規,0,2025-08-26,2025-08-26,株式会社Ｒ２,,株式会社,大阪府,八尾市,福万寺町３丁目１４番３号,,27,212,5810842,,,,,,,2025-08-26,1,,,,,アールツー,0
425,2130003010691,新規,0,2025-08-26,2025-08-26,合同会社ｆｉｓｈｅｙｅｓ,,合同会社,京都府,綴喜郡宇治田原町,銘城台１１番地の１１,,26,344,6100254,,,,,,,2025-08-26,1,,,,,フィッシュアイズ,0
427,2140001139739,新規,0,2025-08-26,2025-08-26,株式会社Ｄａｉｊｏｂ,,株式会社,兵庫県,神戸市垂水区,塩屋町字大谷６６６番地の１日宝アドニス塩屋２０３号,,28,108,6550872,,,,,,,2025-08-26,1,,,,,ダイジョブ,0
428,2140001139788,新規,0,2025-08-26,2025-08-26,株式会社慈粋,,株式会社,兵庫県,神戸市西区,玉津町高津橋１３４番地の１－Ｆ－２号,,28,111,6512122,,,,,,,2025-08-26,1,,,,,シスイ,0
440,2180001168321,新規,0,2025-08-26,2025-08-26,株式会社のうえんぽっけ,,株式会社,愛知県,一宮市,北今字再鳥三１８番地１,,23,203,4940004,,,,,,,2025-08-26,1,,,,,ノウエンポッケ,0
445,2180301040130,新規,0,2025-08-26,2025-08-26,佐々木商事株式会社,,株式会社,愛知県,西尾市,寄住町灯籠下４３番地１,,23,213,4450073,,,,,,,2025-08-26,1,,,,,ササキショウジ,0
448,2200001044164,新規,0,2025-08-26,2025-08-26,一恵商事株式会社,,株式会社,岐阜県,土岐市,駄知町４０６－３,,21,212,5095401,,,,,,,2025-08-26,1,,,,,イチエショウジ,0
450,2220001026887,新規,0,2025-08-26,2025-08-26,株式会社Ｕｎｗａｖ,,株式会社,石川県,金沢市,此花町５番６号ライフ金沢第１ビル６０１Ａ,,17,201,9200852,,,,,,,2025-08-26,1,,,,,アンウェイブ,0
457,2250003003774,新規,0,2025-08-26,2025-08-26,すぎとらむらせい合同会社,,合同会社,山口県,長門市,仙崎１４２０－１,,35,211,7594106,,,,,,,2025-08-26,1,,,,,スギトラムラセイ,0
462,2290001111195,新規,0,2025-08-26,2025-08-26,株式会社ＡＭＯＨＡ,,株式会社,福岡県,福岡市南区,野多目６丁目１２番４２号,,40,134,8111347,,,,,,,2025-08-26,1,,,,,アモハ,0
466,2290003017093,新規,0,2025-08-26,2025-08-26,彩晴メディアスタジオ合同会社,,合同会社,福岡県,福岡市博多区,博多駅前２丁目１７番１号博多プレステージ本館,,40,132,8120011,,,,,,,2025-08-26,1,,,,,アヤハルメディアスタジオ,0
467,2290003017275,新規,0,2025-08-26,2025-08-26,合同会社Ｈ＆Ｂ．ＣＯ,,合同会社,福岡県,福岡市博多区,博多駅前１丁目２３番２号ＰａｒｋＦｒｏｎｔ博多駅前１丁目５Ｆ－Ｂ,,40,132,8120011,,,,,,,2025-08-26,1,,,,,エイチアンドビーカンパニー,0
482,2360001035676,新規,0,2025-08-26,2025-08-26,Ｘ　Ｒｅｓｏｒｔ開発株式会社,,株式会社,沖縄県,那覇市,仲井眞３９８－４７－２階,,47,201,9000000,,,,,,,2025-08-26,1,,,,,エックスリゾートカイハツ,0
497,2430001095102,新規,0,2025-08-26,2025-08-26,株式会社ｙｏｒｉ,,株式会社,北海道,札幌市中央区,南五条西１５丁目２－３－５０３,,01,101,0640805,,,,,,,2025-08-26,1,,,,,ヨリ,0
513,3010003048264,新規,0,2025-08-26,2025-08-26,ｍａｍｏｔｔｏ合同会社,,合同会社,東京都,中央区,日本橋２丁目１６－４ｒｅｍｉｘ日本橋６階,,13,102,1030027,,,,,,,2025-08-26,1,,,,,マモット,0
514,3010005040566,新規,0,2025-08-26,2025-08-26,一般社団法人Ｍｙ　Ｍｅｄｉｃｉｎｅ　Ｉｎｓｔｉｔｕｔｅ,,その他の設立登記法人,東京都,文京区,本郷６丁目２５番１４号宗文館ビル３階,,13,105,1130033,,,,,,,2025-08-26,1,,,,,マイメディスンインスティチュート,0
515,3010005040582,新規,0,2025-08-26,2025-08-26,一般社団法人トワイライト・フォー,,その他の設立登記法人,東京都,千代田区,内幸町２丁目１番６号,,13,101,1000011,,,,,,,2025-08-26,1,,,,,トワイライトフォー,0
538,3011001171636,新規,0,2025-08-26,2025-08-26,ＯＲＥ株式会社,,株式会社,東京都,渋谷区,円山町５番１４号,,13,113,1500044,,,,,,,2025-08-26,1,,,,,オーア,0
543,3011003021913,新規,0,2025-08-26,2025-08-26,ＡＬＶＡ　ＩＮＴＥＲＮＡＴＩＯＮＡＬ合同会社,,合同会社,東京都,渋谷区,富ヶ谷１丁目１４－１４スタンフォードアネックスビル３階・４階,,13,113,1510063,,,,,,,2025-08-26,1,,,,,アルファインターナショナル,0
558,3011601028913,新規,0,2025-08-26,2025-08-26,Ａｒｋａｌｏｍ株式会社,,株式会社,東京都,練馬区,関町南４丁目２番１１号,,13,120,1770053,,,,,,,2025-08-26,1,,,,,アーカロム,0
560,3011703004358,新規,0,2025-08-26,2025-08-26,優和合同会社,,合同会社,東京都,江戸川区,興宮町９－９,,13,123,1330042,,,,,,,2025-08-26,1,,,,,ユウワ,0
563,3012401043532,新規,0,2025-08-26,2025-08-26,株式会社ブースト,,株式会社,東京都,小金井市,貫井北町３丁目３０－１８,,13,210,1840015,,,,,,,2025-08-26,1,,,,,ブースト,0
564,3012705002473,新規,0,2025-08-26,2025-08-26,一般社団法人ウィルラボ,,その他の設立登記法人,東京都,西東京市,泉町３丁目１０番２４号,,13,229,2020011,,,,,,,2025-08-26,1,,,,,ウィルラボ,0
572,3013301054792,新規,0,2025-08-26,2025-08-26,株式会社ＮＯＡＨ,,株式会社,東京都,豊島区,池袋２丁目５９番１号サンエリア里見２０３号室,,13,116,1710014,,,,,,,2025-08-26,1,,,,,ノア,0
583,3020001164459,新規,0,2025-08-26,2025-08-26,株式会社ＨＡＣ,,株式会社,神奈川県,横浜市西区,浅間町１丁目４番３号,,14,103,2200072,,,,,,,2025-08-26,1,,,,,ハック,0
584,3020001164483,新規,0,2025-08-26,2025-08-26,株式会社直江商工,,株式会社,神奈川県,横浜市都筑区,早渕１丁目３番２３号ブリューテ仲町台１０２,,14,118,2240025,,,,,,,2025-08-26,1,,,,,ナオエショウコウ,0
585,3020001164509,新規,0,2025-08-26,2025-08-26,株式会社プロネクト,,株式会社,神奈川県,横浜市神奈川区,金港町５番地１４,,14,102,2210056,,,,,,,2025-08-26,1,,,,,プロネクト,0
586,3020001164541,新規,0,2025-08-26,2025-08-26,共生株式会社,,株式会社,神奈川県,横浜市西区,浅間町１丁目４番３号ウィザードビル４０２,,14,103,2200072,,,,,,,2025-08-26,1,,,,,トモイキ,0
590,3020003029230,新規,0,2025-08-26,2025-08-26,Ｇａｊｉｍａｒｕ合同会社,,合同会社,神奈川県,川崎市中原区,小杉陣屋町１丁目１０―８オーキッドパレス吉房３０３,,14,133,2110062,,,,,,,2025-08-26,1,,,,,ガジマル,0
595,3021001086164,新規,0,2025-08-26,2025-08-26,Ｒｏｓｅｗｏｏｄ株式会社,,株式会社,神奈川県,鎌倉市,鎌倉山１丁目１１－２５,,14,204,2480031,,,,,,,2025-08-26,1,,,,,ローズウッド,0
598,3021005013420,新規,0,2025-08-26,2025-08-26,特定非営利活動法人Ｒｅｄ　Ｌｏｏｋ,,その他の設立登記法人,神奈川県,相模原市南区,下溝９８５番地２,,14,153,2520335,,,,,,,2025-08-26,1,,,,,レッドルック,0
603,3030003027423,新規,0,2025-08-26,2025-08-26,合同会社Ｇｒｏｗｌｅａｆ,,合同会社,埼玉県,越谷市,大字大竹４９８番地３,,11,222,3430034,,,,,,,2025-08-26,1,,,,,,0
604,3030005022249,新規,0,2025-08-26,2025-08-26,一般社団法人あそびの森,,その他の設立登記法人,埼玉県,さいたま市西区,大字中野林７９９番地４,,11,101,3310057,,,,,,,2025-08-26,1,,,,,アソビノモリ,0
607,3040001140219,新規,0,2025-08-26,2025-08-26,株式会社ＨＦｕｌＬ,,株式会社,千葉県,柏市,豊四季２５５番地５４,,12,217,2770863,,,,,,,2025-08-26,1,,,,,エイチフル,0
608,3040001140227,新規,0,2025-08-26,2025-08-26,株式会社宮本金型工業,,株式会社,千葉県,千葉市稲毛区,長沼原町６７９番２,,12,103,2630001,,,,,,,2025-08-26,1,,,,,ミヤモトカナガタコウギョウ,0
609,3040001140251,新規,0,2025-08-26,2025-08-26,株式会社コンサルティングフォレスト,,株式会社,千葉県,松戸市,二ツ木１７９５番地の１,,12,207,2700027,,,,,,,2025-08-26,1,,,,,コンサルティングフォレスト,0
612,3040003028370,新規,0,2025-08-26,2025-08-26,峰建築合同会社,,合同会社,千葉県,千葉市花見川区,三角町６５７－１７大東ビル２０４号室,,12,102,2620011,,,,,,,2025-08-26,1,,,,,ミネケンチク,0
618,3050003009519,新規,0,2025-08-26,2025-08-26,ＹＭＴコンサルタンツ合同会社,,合同会社,茨城県,猿島郡境町,大字長井戸１２８０番地１,,08,546,3060404,,,,,,,2025-08-26,1,,,,,ワイエムティーコンサルタンツ,0
623,3060003005698,新規,0,2025-08-26,2025-08-26,ＣＲＥＶＥＲ合同会社,,合同会社,栃木県,足利市,常見町１丁目２５番地３,,09,202,3260022,,,,,,,2025-08-26,1,,,,,クレイバー,0
624,3080003003535,新規,0,2025-08-26,2025-08-26,合同会社宝玉,,合同会社,静岡県,焼津市,下小田上町２１番地の１,,22,212,4250059,,,,,,,2025-08-26,1,,,,,ホウギョク,0
629,3090003002882,新規,0,2025-08-26,2025-08-26,合同会社ＦＡＲ　ＥＡＳＴ　ＣＬＩＭＢＩＮＧ,,合同会社,山梨県,甲府市,下今井町７０３番地,,19,201,4000842,,,,,,,2025-08-26,1,,,,,ファーイーストクライミング,0
638,3120001278926,新規,0,2025-08-26,2025-08-26,Ｂｒｅｋｋｉｅ株式会社,,株式会社,大阪府,大阪市中央区,平野町４丁目６番５号ＮＰビル４Ｆ,,27,128,5410046,,,,,,,2025-08-26,1,,,,,ブレッキー,0
639,3120001278934,新規,0,2025-08-26,2025-08-26,三井本松株式会社,,株式会社,大阪府,大阪市生野区,新今里１丁目１５－９新今里グランドビル２０１,,27,116,5440001,,,,,,,2025-08-26,1,,,,,ミツイホンマツ,0
640,3120001279049,新規,0,2025-08-26,2025-08-26,株式会社Ｂｉｇ　Ａｐｐｌｅ　Ｆａｃｔｏｒｙ,,株式会社,大阪府,大阪市都島区,東野田町２丁目３番２８号,,27,102,5340024,,,,,,,2025-08-26,1,,,,,ビッグアップルファクトリー,0
643,3120003030384,新規,0,2025-08-26,2025-08-26,ＣＨＩＥＮ　ＪＰ合同会社,,合同会社,大阪府,大阪市平野区,長吉六反４丁目９－５８号,,27,126,5470012,,,,,,,2025-08-26,1,,,,,チェンジェイピー,0
650,3130003010690,新規,0,2025-08-26,2025-08-26,合同会社ＯＮＥ　ＷＩＳＨ,,合同会社,京都府,京都市上京区,宮垣町９１番地１０２,,26,102,6020853,,,,,,,2025-08-26,1,,,,,ワンウィッシュ,0
651,3130005017437,新規,0,2025-08-26,2025-08-26,一般財団法人矢野一郎記念財団脳・心血管疾患治療研究センター,,その他の設立登記法人,京都府,京都市山科区,音羽珍事町２番地,,26,110,6078062,,,,,,,2025-08-26,1,,,,,ヤノイチロウキネンザイダンノウシンケッカンシッカンチリョウケンキュウセンター,0
655,3140003022454,新規,0,2025-08-26,2025-08-26,合同会社ＶＡＮＶＡＮ,,合同会社,兵庫県,神戸市中央区,北長狭通１丁目５番６号,,28,110,6500012,,,,,,,2025-08-26,1,,,,,バンバン,0
659,3140005027609,新規,0,2025-08-26,2025-08-26,特定非営利活動法人つなげる里山ネットワーク,,その他の設立登記法人,兵庫県,神戸市北区,大沢町市原１２８１番地,,28,109,6511521,,,,,,,2025-08-26,1,,,,,ツナゲルサトヤマネットワーク,0
661,3150001028353,新規,0,2025-08-26,2025-08-26,株式会社Ｓｍｉｌｅ　Ｌｉｎｋ,,株式会社,奈良県,北葛城郡王寺町,葛下１丁目８番４号ＲＥＩＷＡ協立ビル２Ｃ号室,,29,425,6360011,,,,,,,2025-08-26,1,,,,,スマイルリンク,0
673,3180001168196,新規,0,2025-08-26,2025-08-26,ＣＲ株式会社,,株式会社,愛知県,名古屋市北区,中味鋺３丁目８０６番地メゾンドルミエールＮ棟２０２号,,23,103,4620015,,,,,,,2025-08-26,1,,,,,シーアール,0
674,3180001168320,新規,0,2025-08-26,2025-08-26,株式会社ＮＡ３,,株式会社,愛知県,稲沢市,西町１丁目１６番３３号,,23,220,4928218,,,,,,,2025-08-26,1,,,,,エヌエースリー,0
684,3260001040462,新規,0,2025-08-26,2025-08-26,株式会社トポ・ソリューションズ,,株式会社,岡山県,瀬戸内市,邑久町福中６１３番地,,33,212,7014244,,,,,,,2025-08-26,1,,,,,トポソリューションズ,0
687,3290003017282,新規,0,2025-08-26,2025-08-26,合同会社ＬｕＬｕＬｕ　ｄｅｓｉｇｎ　ｗｏｒｋｓ．,,合同会社,福岡県,福岡市中央区,大手門３丁目１２－５,,40,133,8100074,,,,,,,2025-08-26,1,,,,,ルルルデザインワークス,0
688,3290003017290,新規,0,2025-08-26,2025-08-26,合同会社ＮＡＭＩ　ＡＵＴＯ,,合同会社,福岡県,福岡市南区,高木３丁目１６番５号サカエアパート１０２号室,,40,134,8150004,,,,,,,2025-08-26,1,,,,,ナミオート,0
689,3290801031798,新規,0,2025-08-26,2025-08-26,株式会社ＣＰライフメンテナンス,,株式会社,福岡県,北九州市小倉北区,片野１丁目１番５８号,,40,106,8020064,,,,,,,2025-08-26,1,,,,,シーピーライフメンテナンス,0
708,3370001052975,新規,0,2025-08-26,2025-08-26,株式会社デンシボタル,,株式会社,宮城県,仙台市太白区,郡山８丁目３－５６,,04,104,9820003,,,,,,,2025-08-26,1,,,,,デンシボタル,0
732,3430001095027,新規,0,2025-08-26,2025-08-26,株式会社プライムホールディングス,,株式会社,北海道,札幌市東区,中沼町６６番２４９,,01,103,0070890,,,,,,,2025-08-26,1,,,,,プライムホールディングス,0
742,4010001062308,新規,0,2025-08-26,2025-08-26,日本電建株式会社,,株式会社,東京都,中央区,八重洲２丁目１０番１２号,,13,102,1040028,,,,,,,2025-08-26,1,,,,,,0
751,4010005040565,新規,0,2025-08-26,2025-08-26,一般社団法人ペット製品安全認証機関,,その他の設立登記法人,東京都,中央区,銀座１丁目１２番４号Ｎ＆ＥＢＬＤ．６Ｆ,,13,102,1040061,,,,,,,2025-08-26,1,,,,,ペットセイヒンアンゼンニンショウキカン,0
752,4010005040581,新規,0,2025-08-26,2025-08-26,一般社団法人トワイライト・スリー,,その他の設立登記法人,東京都,千代田区,内幸町２丁目１番６号,,13,101,1000011,,,,,,,2025-08-26,1,,,,,トワイライトスリー,0
759,4010401192638,新規,0,2025-08-26,2025-08-26,株式会社三婚,,株式会社,東京都,港区,南青山７丁目１１番４号Ｈ・Ｔ南青山ビルディング２階,,13,103,1070062,,,,,,,2025-08-26,1,,,,,サンコン,0
760,4010401192670,新規,0,2025-08-26,2025-08-26,株式会社ヴィアックスＲホールディングス,,株式会社,東京都,港区,西新橋１丁目１番１号,,13,103,1050003,,,,,,,2025-08-26,1,,,,,ヴィアックスアールホールディングス,0
762,4010403035860,新規,0,2025-08-26,2025-08-26,合同会社ＬＡ　ＧＲＯＵＰ,,合同会社,東京都,港区,北青山１丁目３番１号アールキューブ青山３階,,13,103,1070061,,,,,,,2025-08-26,1,,,,,エルエーグループ,0
780,4011001171503,新規,0,2025-08-26,2025-08-26,株式会社エー・リアン,,株式会社,東京都,渋谷区,神宮前５丁目１６番３号神宮前アパート２０３,,13,113,1500001,,,,,,,2025-08-26,1,,,,,エーリアン,0
781,4011001171577,新規,0,2025-08-26,2025-08-26,株式会社インフィニティ,,株式会社,東京都,渋谷区,千駄ヶ谷４丁目６番８号,,13,113,1510051,,,,,,,2025-08-26,1,,,,,インフィニティ,0
782,4011001171602,新規,0,2025-08-26,2025-08-26,バトンコネクト株式会社,,株式会社,東京都,渋谷区,道玄坂２丁目２５番１２号道玄坂通５階,,13,113,1500043,,,,,,,2025-08-26,1,,,,,バトンコネクト,0
790,4011101112753,新規,0,2025-08-26,2025-08-26,株式会社ＤＵＢＥＬ,,株式会社,東京都,新宿区,水道町４番２４号礒崎ビル４Ｆ,00140410,13,104,1620811,,,,,,,2025-08-26,1,,,,,デューベル,0
791,4011101112786,新規,0,2025-08-26,2025-08-26,株式会社ミラリノ,,株式会社,東京都,新宿区,西新宿７丁目１０番１７号新宿ダイカンプラザＢ館８０２,,13,104,1600023,,,,,,,2025-08-26,1,,,,,ミラリノ,0
792,4011101112803,新規,0,2025-08-26,2025-08-26,株式会社ＮＩＮＥ,,株式会社,東京都,新宿区,西新宿８丁目１７番１号,,13,104,1600023,,,,,,,2025-08-26,1,,,,,ナイン,0
794,4011403004814,新規,0,2025-08-26,2025-08-26,共栄合同会社,,合同会社,東京都,板橋区,大谷口上町１３番８－３０７号,,13,119,1730032,,,,,,,2025-08-26,1,,,,,キョウエイ,0
795,4011501032485,新規,0,2025-08-26,2025-08-26,ＮＥＢＵＬＡＧＡＴＥ株式会社,,株式会社,東京都,北区,王子１丁目２３番１－３０４号,,13,117,1140002,,,,,,,2025-08-26,1,,,,,ネビュラゲート,0
796,4011503006644,新規,0,2025-08-26,2025-08-26,山紫水明合同会社,,合同会社,東京都,北区,赤羽西６丁目３０番３号,,13,117,1150055,,,,,,,2025-08-26,1,,,,,サンシスイメイ,0
798,4011601028912,新規,0,2025-08-26,2025-08-26,ＹｕｋｉＡＩ株式会社,,株式会社,東京都,練馬区,春日町６丁目１６番１１号２８８号室,,13,120,1790074,,,,,,,2025-08-26,1,,,,,ユキエイアイ,0
813,4013301054791,新規,0,2025-08-26,2025-08-26,英嘉グローバル株式会社,,株式会社,東京都,豊島区,東池袋４丁目２７番５号ライオンズプラザ池袋３１５,,13,116,1700013,,,,,,,2025-08-26,1,,,,,エイガグローバル,0
814,4013301054809,新規,0,2025-08-26,2025-08-26,株式会社リブルク,,株式会社,東京都,豊島区,池袋２丁目４２番６号,,13,116,1710014,,,,,,,2025-08-26,1,,,,,リブルク,0
818,4020001164375,新規,0,2025-08-26,2025-08-26,株式会社つなぐフード,,株式会社,神奈川県,横浜市青葉区,あかね台２丁目３０－６－２階,,14,117,2270066,,,,,,,2025-08-26,1,,,,,ツナグフード,0
819,4020001164532,新規,0,2025-08-26,2025-08-26,株式会社フューチャーテクノ,,株式会社,神奈川県,川崎市川崎区,大師町１３番３号,,14,131,2100816,,,,,,,2025-08-26,1,,,,,フューチャーテクノ,0
823,4020003029238,新規,0,2025-08-26,2025-08-26,合同会社奥の細道企画,,合同会社,神奈川県,横浜市神奈川区,台町７番１４号横浜テラス２１３,,14,102,2210834,,,,,,,2025-08-26,1,,,,,オクノホソミチキカク,0
824,4020003029246,新規,0,2025-08-26,2025-08-26,合同会社ＨＲＴ,,合同会社,神奈川県,横浜市西区,北幸２丁目１０番４８号むつみビル３階,,14,103,2200004,,,,,,,2025-08-26,1,,,,,エッチアールティー,0
850,4040001140218,新規,0,2025-08-26,2025-08-26,株式会社だがしや計画,,株式会社,千葉県,柏市,若柴１７８番地４柏の葉キャンパス１４８街区２ショップ＆オフィス棟６Ｆ,,12,217,2770871,,,,,,,2025-08-26,1,,,,,ダガシヤケイカク,0
851,4040001140267,新規,0,2025-08-26,2025-08-26,株式会社縁,,株式会社,千葉県,印西市,高花２丁目３番地２－１０２号,,12,231,2701342,,,,,,,2025-08-26,1,,,,,ユカリ,0
856,4040003028345,新規,0,2025-08-26,2025-08-26,合同会社クリア,,合同会社,千葉県,船橋市,本町４丁目５番１８号小泉ビル１Ｆ,,12,204,2730005,,,,,,,2025-08-26,1,,,,,クリア,0
859,4050003009518,新規,0,2025-08-26,2025-08-26,合同会社イッセコ,,合同会社,茨城県,水戸市,泉町３丁目４番３号,,08,201,3100026,,,,,,,2025-08-26,1,,,,,イッセコ,0
863,4070001043285,新規,0,2025-08-26,2025-08-26,ＮｏｃｋＡｃａｄｅｍｙ　Ｊａｐａｎ株式会社,,株式会社,群馬県,安中市,安中２３２７番地４,,10,211,3790116,,,,,,,2025-08-26,1,,,,,ノックアカデミージャパン,0
864,4070005010422,新規,0,2025-08-26,2025-08-26,五常行政書士法人,,その他の設立登記法人,群馬県,佐波郡玉村町,大字樋越１２４－３,,10,464,3701103,,,,,,,2025-08-26,1,,,,,,0
865,4080401028133,新規,0,2025-08-26,2025-08-26,株式会社ＹＲＫ．Ｋ,,株式会社,静岡県,浜松市中央区,和田町５９１番地の１,,22,138,4350016,,,,,,,2025-08-26,1,,,,,ワイアールケイドットケイ,0
887,4120001279015,新規,0,2025-08-26,2025-08-26,株式会社Ｓｔｒａｘｉｓ,,株式会社,大阪府,大阪市北区,堂山町１４番２４－６０２号,,27,127,5300027,,,,,,,2025-08-26,1,,,,,ストラクシス,0
888,4120001279072,新規,0,2025-08-26,2025-08-26,株式会社ＲＯＫＵ,,株式会社,大阪府,大阪市平野区,平野東３丁目１番４号,,27,126,5470043,,,,,,,2025-08-26,1,,,,,ロク,0
889,4120001279097,新規,0,2025-08-26,2025-08-26,株式会社Ｔｒｅｎｄｙ　Ｊａｐａｎ,,株式会社,大阪府,大阪市浪速区,日本橋３丁目４－９エグゼレジデンスタワー２０５,,27,111,5560005,,,,,,,2025-08-26,1,,,,,トレンディジャパン,0
892,4120003030318,新規,0,2025-08-26,2025-08-26,エン合同会社,,合同会社,大阪府,大阪市北区,中津５丁目８番３－６０３号,,27,127,5310071,,,,,,,2025-08-26,1,,,,,エン,0
893,4120003030375,新規,0,2025-08-26,2025-08-26,ＮＡＫＡＴＯ合同会社,,合同会社,大阪府,大阪市西淀川区,出来島２丁目７番２７号,,27,113,5550031,,,,,,,2025-08-26,1,,,,,ナカト,0
894,4120003030383,新規,0,2025-08-26,2025-08-26,ＳＵＭＩ　ＨＩＥＮ合同会社,,合同会社,大阪府,大阪市西成区,玉出西１丁目４番２９－１０１号,,27,122,5570045,,,,,,,2025-08-26,1,,,,,スミヒェン,0
895,4120005025126,新規,0,2025-08-26,2025-08-26,一般社団法人日本医師コーチング協会,,その他の設立登記法人,大阪府,大阪市天王寺区,上汐５丁目４番１３－４０２号,,27,109,5430002,,,,,,,2025-08-26,1,,,,,ニホンイシコーチングキョウカイ,0
896,4120101072303,新規,0,2025-08-26,2025-08-26,Ｓｕｎｖｅｒｇｅ株式会社,,株式会社,大阪府,藤井寺市,さくら町２番５－６０１号,,27,226,5830023,,,,,,,2025-08-26,1,,,,,サンヴァージ,0
910,4130001080339,新規,0,2025-08-26,2025-08-26,清嵐株式会社,,株式会社,京都府,京都市左京区,八瀬近衛町２９７番地,,26,103,6011253,,,,,,,2025-08-26,1,,,,,セイラン,0
912,4130003010698,新規,0,2025-08-26,2025-08-26,合同会社ｈ＆Ｈ,,合同会社,京都府,長岡京市,今里川原１０番地６,,26,209,6170814,,,,,,,2025-08-26,1,,,,,エイチツー,0
913,4130003010707,新規,0,2025-08-26,2025-08-26,合同会社獲喰屋,,合同会社,京都府,京都市左京区,久多下の町３０８番地１,,26,103,5200462,,,,,,,2025-08-26,1,,,,,トリクイヤ,0
930,4180003028851,新規,0,2025-08-26,2025-08-26,合同会社ＲＯＺＺＥ＆Ｃｏ．,,合同会社,愛知県,名古屋市中村区,名駅３丁目４－１０アルティメイト名駅１ｓｔ２階,,23,105,4500002,,,,,,,2025-08-26,1,,,,,ロゼアンドカンパニー,0
931,4180003028876,新規,0,2025-08-26,2025-08-26,合同会社ＴＡＳＴＥ　ＵＰ,,合同会社,愛知県,名古屋市中区,丸の内３丁目１３－１１プレサンスロジェ丸の内１３０３,,23,106,4600002,,,,,,,2025-08-26,1,,,,,テイストアップ,0
932,4180003028926,新規,0,2025-08-26,2025-08-26,合同会社フォンブラウン,,合同会社,愛知県,名古屋市中区,正木３丁目１３－１０－４０２,,23,106,4600024,,,,,,,2025-08-26,1,,,,,フォンブラウン,0
958,4290003017298,新規,0,2025-08-26,2025-08-26,ＨＡＬＥＥＭＡ　ＴＲＡＤＩＮＧ合同会社,,合同会社,福岡県,飯塚市,伊岐須６６－１２、２０８号,,40,205,8200053,,,,,,,2025-08-26,1,,,,,ハリーマトレーディング,0
960,4310001019764,新規,0,2025-08-26,2025-08-26,誠和鑑定株式会社,,株式会社,長崎県,長崎市,大手３丁目４番１０－３０６号,,42,201,8528127,,,,,,,2025-08-26,1,,,,,セイワカンテイ,0
965,4350001019703,新規,0,2025-08-26,2025-08-26,株式会社和巳農業,,株式会社,宮崎県,えびの市,大字末永３３２９番地１,,45,209,8894302,,,,,,,2025-08-26,1,,,,,カズミノウギョウ,0
981,4420001019233,新規,0,2025-08-26,2025-08-26,株式会社ＳＡＫＵＲＡＳＯＬＵＴＩＯＮ,,株式会社,青森県,弘前市,大字土手町１８１番地８,,02,202,0368182,,,,,,,2025-08-26,1,,,,,サクラソリューション,0
995,4700150131974,新規,0,2025-08-26,2025-08-26,ｘｕｚｈｏｕｚｈｉｘｉｎｇｚｈｉｑｉａｏｓｈａｎｇｍａｏｙｏｕｘｉａｎｇｏｎｇｓｉ,,外国会社等,,,,,,,,Ｒｏｏｍ　１０１，Ｎｏ．１１，Ｚｈｏｎｇｑｉａｏ　Ｉｎｄｕｓｔｒｉａｌ　Ｐａｒｋ（Ｆｏｒｍｅｒ　Ｓｉｌｋ　Ｆａｃｔｏｒｙ），Ｆａｎｇｃｕｎ　Ｔｏｗｎ，Ｔｏｎｇｓｈａｎ　Ｄｉｓｔｒｉｃｔ，Ｘｕｚｈｏｕ　Ｃｉｔｙ，Ｊｉａｎｇｓｕ，２２１０００　ＣＮ,,,,,,2025-08-26,1,,,,,シージョウジーシンジーチャオシャンマオヨウシエンゴンスー,0
1004,5010001257947,新規,0,2025-08-26,2025-08-26,ディープネクサス株式会社,,株式会社,東京都,文京区,本郷４丁目１６番６－１００５号,,13,105,1130033,,,,,,,2025-08-26,1,,,,,ディープネクサス,0
1005,5010001257996,新規,0,2025-08-26,2025-08-26,株式会社Ｃａｓ　Ｌｉｖｅ,,株式会社,東京都,千代田区,丸の内１丁目９番２号,,13,101,1000005,,,,,,,2025-08-26,1,,,,,キャスライブ,0
1013,5010003048353,新規,0,2025-08-26,2025-08-26,Ａｕｄｉｖｉａ合同会社,,合同会社,東京都,千代田区,神田和泉町１番地６－１６ヤマトビル４０５,,13,101,1010024,,,,,,,2025-08-26,1,,,,,オーディビア,0
1014,5010003048469,新規,0,2025-08-26,2025-08-26,合同会社トリニティマナスル,,合同会社,東京都,中央区,日本橋１丁目４番１号,,13,102,1030027,,,,,,,2025-08-26,1,,,,,トリニティマナスル,0
1015,5010005040580,新規,0,2025-08-26,2025-08-26,一般社団法人トワイライト・ツー,,その他の設立登記法人,東京都,千代田区,内幸町２丁目１番６号,,13,101,1000011,,,,,,,2025-08-26,1,,,,,トワイライトツー,0
1020,5010401192645,新規,0,2025-08-26,2025-08-26,ファイサーブ・ジャパン株式会社,,株式会社,東京都,港区,元麻布３丁目１番６号,,13,103,1060046,,,,,,,2025-08-26,1,,,,,ファイサーブジャパン,0
1024,5010403035884,新規,0,2025-08-26,2025-08-26,合同会社ＹｏＲｕＮ,,合同会社,東京都,港区,北青山１丁目３番１号アールキューブ青山３階,,13,103,1070061,,,,,,,2025-08-26,1,,,,,ヨルン,0
1038,5010901057967,新規,0,2025-08-26,2025-08-26,株式会社なれルン,,株式会社,東京都,世田谷区,北沢１丁目３８－１４しょうわ下北ビル２階,,13,112,1550031,,,,,,,2025-08-26,1,,,,,ナレルン,0
1039,5010901057975,新規,0,2025-08-26,2025-08-26,株式会社ＴＯＭＯプロジェクト,,株式会社,東京都,世田谷区,代田１丁目１６番６号,,13,112,1550033,,,,,,,2025-08-26,1,,,,,トモプロジェクト,0
1045,5011001171568,新規,0,2025-08-26,2025-08-26,ＴＯＰＰＵＮＫ株式会社,,株式会社,東京都,渋谷区,神宮前６丁目２３番４号桑野ビル２階,,13,113,1500001,,,,,,,2025-08-26,1,,,,,,0
1046,5011001171576,新規,0,2025-08-26,2025-08-26,株式会社チーカ,,株式会社,東京都,渋谷区,富ヶ谷２丁目２０番１－４０１号,,13,113,1510063,,,,,,,2025-08-26,1,,,,,チーカ,0
1047,5011001171601,新規,0,2025-08-26,2025-08-26,株式会社アカシ,,株式会社,東京都,目黒区,自由が丘２丁目１６番１２号ＲＪ３,,13,110,1520035,,,,,,,2025-08-26,1,,,,,アカシ,0
1064,5011103016200,新規,0,2025-08-26,2025-08-26,合同会社ぴーちゃん,,合同会社,東京都,新宿区,西新宿３丁目３番１３号西新宿水間ビル６階,,13,104,1600023,,,,,,,2025-08-26,1,,,,,ピーチャン,0
1065,5011105011505,新規,0,2025-08-26,2025-08-26,一般社団法人国スポサポートセンター,,その他の設立登記法人,東京都,新宿区,霞ヶ丘町４番２号,,13,104,1600013,,,,,,,2025-08-26,1,,,,,コクスポサポートセンター,0
1070,5011401027353,新規,0,2025-08-26,2025-08-26,株式会社エムズワークス,,株式会社,東京都,板橋区,舟渡１丁目１３番１０号アイ・タワー２階,,13,119,1740041,,,,,,,2025-08-26,1,,,,,エムズワークス,0
1071,5011403004813,新規,0,2025-08-26,2025-08-26,合同会社仲町,,合同会社,東京都,板橋区,仲町３番８号コアトレジャリィ１０２,,13,119,1730022,,,,,,,2025-08-26,1,,,,,ナカマチ,0
1072,5011601028903,新規,0,2025-08-26,2025-08-26,株式会社ＩＮＦＩＮＩＴＹ,,株式会社,東京都,練馬区,平和台１丁目１４番１４号,,13,120,1790083,,,,,,,2025-08-26,1,,,,,インフィニティ,0
1073,5011701028638,新規,0,2025-08-26,2025-08-26,ダブルバンク株式会社,,株式会社,東京都,江戸川区,平井５丁目１７番１号,,13,123,1320035,,,,,,,2025-08-26,1,,,,,ダブルバンク,0
1074,5011705001905,新規,0,2025-08-26,2025-08-26,一般社団法人日本餃子の道協会,,その他の設立登記法人,東京都,江戸川区,上篠崎２丁目２番１６号１階,,13,123,1330054,,,,,,,2025-08-26,1,,,,,ニホンギョウザノミチキョウカイ,0
1075,5011801046614,新規,0,2025-08-26,2025-08-26,株式会社Ｔｗｏ　Ｔｒｉｌｌｉｏｎ,,株式会社,東京都,葛飾区,白鳥２丁目４番４－３２１号セザールお花茶屋,,13,122,1250063,,,,,,,2025-08-26,1,,,,,ツートリリオン,0
1076,5011801046639,新規,0,2025-08-26,2025-08-26,株式会社ＴＡＹＯ,,株式会社,東京都,葛飾区,東新小岩１丁目１３番１１号,,13,122,1240023,,,,,,,2025-08-26,1,,,,,タヨ,0
1077,5011801046647,新規,0,2025-08-26,2025-08-26,株式会社ＳＮＳ　Ｍａｎａｇｅｍｅｎｔ,,株式会社,東京都,足立区,南花畑３丁目８番１号,,13,121,1210062,,,,,,,2025-08-26,1,,,,,エスエヌエスマネジメント,0
1088,5013301054790,新規,0,2025-08-26,2025-08-26,株式会社ＰＲＩＮＴ,,株式会社,東京都,豊島区,巣鴨３丁目１番１号桜並木通りビル５０３,,13,116,1700002,,,,,,,2025-08-26,1,,,,,プリント,0
1094,5020001164416,新規,0,2025-08-26,2025-08-26,株式会社Ｈ,,株式会社,神奈川県,川崎市麻生区,王禅寺東２丁目１３番５号,,14,137,2150018,,,,,,,2025-08-26,1,,,,,エイチ,0
1098,5020003029212,新規,0,2025-08-26,2025-08-26,ＮＴＭ合同会社,,合同会社,神奈川県,横浜市旭区,さちが丘７７番地９メゾン木下２０１,,14,112,2410822,,,,,,,2025-08-26,1,,,,,エヌティーエム,0
1103,5021001086154,新規,0,2025-08-26,2025-08-26,株式会社２ＰＧａｍｅｓ,,株式会社,神奈川県,座間市,緑ケ丘３丁目４０番１６号ルミネール第６－３０３号室,,14,216,2520021,,,,,,,2025-08-26,1,,,,,ツーピーゲームス,0
1111,5030001168259,新規,0,2025-08-26,2025-08-26,株式会社サマーワイズ,,株式会社,埼玉県,越谷市,相模町５丁目３２７－１,,11,222,3430823,,,,,,,2025-08-26,1,,,,,サマーワイズ,0
1112,5030001168283,新規,0,2025-08-26,2025-08-26,株式会社ＤＣ,,株式会社,埼玉県,戸田市,上戸田２丁目４０―１３エステートピア戸田２０３,,11,224,3350022,,,,,,,2025-08-26,1,,,,,ディーシー,0
1113,5030001168291,新規,0,2025-08-26,2025-08-26,ＥＬＥＶＩＡ株式会社,,株式会社,埼玉県,戸田市,喜沢南２丁目９番２４号ＣＳ戸田ビル１階,,11,224,3350014,,,,,,,2025-08-26,1,,,,,エレヴィア,0
1114,5030001168325,新規,0,2025-08-26,2025-08-26,株式会社ＡＫＣＩＳ,,株式会社,埼玉県,さいたま市大宮区,大門町２丁目２０番地２ＴＭＯ北棟３０３,,11,103,3300846,,,,,,,2025-08-26,1,,,,,アクシズ,0
1126,5030003027462,新規,0,2025-08-26,2025-08-26,舒和総合貿易合同会社,,合同会社,埼玉県,鶴ヶ島市,脚折町５丁目２６番１０号リエス若葉２０７号室,,11,241,3502211,,,,,,,2025-08-26,1,,,,,ジョワソウゴウボウエキ,0
1131,5040001140225,新規,0,2025-08-26,2025-08-26,株式会社ラプス,,株式会社,千葉県,千葉市緑区,誉田町１丁目７９０番地４４,,12,105,2660005,,,,,,,2025-08-26,1,,,,,ラプス,0
1134,5040005022857,新規,0,2025-08-26,2025-08-26,税理士法人ＤｒｅａｍＡｓｓｉｓｔ,,その他の設立登記法人,千葉県,船橋市,大穴南２丁目２番２３号,,12,204,2740067,,,,,,,2025-08-26,1,,,,,ドリームアシスト,0
1137,5050001057154,新規,0,2025-08-26,2025-08-26,日昇株式会社,,株式会社,茨城県,つくば市,前野５９０－１,,08,220,3003267,,,,,,,2025-08-26,1,,,,,ニッショウ,0
1150,5090001019480,新規,0,2025-08-26,2025-08-26,株式会社ＵＮＩＯＮ,,株式会社,山梨県,甲斐市,竜王新町２０５７番地１２,,19,210,4000111,,,,,,,2025-08-26,1,,,,,ユニオン,0
1178,5120003030382,新規,0,2025-08-26,2025-08-26,合同会社エヌリンクス,,合同会社,大阪府,大阪市西区,南堀江１丁目１８番１４号シティコーポ道頓堀１００３号,,27,106,5500015,,,,,,,2025-08-26,1,,,,,エヌリンクス,0
1179,5120003030390,新規,0,2025-08-26,2025-08-26,合同会社ＡＩＭ,,合同会社,大阪府,大阪市北区,西天満５丁目１１番９－２０１号,,27,127,5300047,,,,,,,2025-08-26,1,,,,,アイム,0
1182,5120005025125,新規,0,2025-08-26,2025-08-26,一般社団法人シンセル会,,その他の設立登記法人,大阪府,大阪市中央区,西心斎橋１丁目９番１５号大京心斎橋ビル３階,,27,128,5420086,,,,,,,2025-08-26,1,,,,,シンセルカイ,0
1192,5130001080338,新規,0,2025-08-26,2025-08-26,大成フィナンシャルグループ株式会社,,株式会社,京都府,京都市下京区,小稲荷町８５番地２Ｇｒａｎｄ－Ｋ京都駅前ビル２０１,,26,106,6008208,,,,,,,2025-08-26,1,,,,,タイセイフィナンシャルグループ,0
1193,5130001080362,新規,0,2025-08-26,2025-08-26,染一平株式会社,,株式会社,京都府,京都市上京区,六軒町通一条上る若松町３５１番地,,26,102,6028331,,,,,,,2025-08-26,1,,,,,ソメイッペイ,0
1198,5140001139793,新規,0,2025-08-26,2025-08-26,ＡＫ　ＴＲＡＤＩＮＧ株式会社,,株式会社,兵庫県,三木市,別所町下石野１１４４番地の５２,,28,215,6730453,,,,,,,2025-08-26,1,,,,,エーケートレーディング,0
1201,5140003022477,新規,0,2025-08-26,2025-08-26,Ｓｏｕｌ　Ｌｏｏｐ合同会社,,合同会社,兵庫県,神戸市北区,山田町小部字南山２番地の５４５,,28,109,6511101,,,,,,,2025-08-26,1,,,,,ソウルループ,0
1202,5140003022493,新規,0,2025-08-26,2025-08-26,合同会社ＧＬＯＢＡＬ　ＴＲＡＶＥＬ　ＪＡＰＡＮ,,合同会社,兵庫県,尼崎市,神田南通６丁目１６５－３,,28,202,6600885,,,,,,,2025-08-26,1,,,,,,0
1208,5160001027006,新規,0,2025-08-26,2025-08-26,ＷＡＴＡＲＵ株式会社,,株式会社,滋賀県,彦根市,中藪町６２１番地８,,25,202,5220051,,,,,,,2025-08-26,1,,,,,ワタル,0
1218,5180001168285,新規,0,2025-08-26,2025-08-26,株式会社シニアリリーブ,,株式会社,愛知県,一宮市,浅野字大西東７３番地５,,23,203,4910871,,,,,,,2025-08-26,1,,,,,シニアリリーブ,0
1219,5180001168319,新規,0,2025-08-26,2025-08-26,株式会社ＰＥＡＣＥ　ＮＩＧＨＴ,,株式会社,愛知県,名古屋市中区,錦３丁目１５番４号ライオンビル錦館５０５,,23,106,4600003,,,,,,,2025-08-26,1,,,,,ピースナイト,0
1220,5180001168335,新規,0,2025-08-26,2025-08-26,株式会社ＴＡＮＤＥＭ,,株式会社,愛知県,名古屋市緑区,神沢１丁目２４３２番地の２,,23,114,4580014,,,,,,,2025-08-26,1,,,,,タンデム,0
1224,5180003028834,新規,0,2025-08-26,2025-08-26,合同会社オフィススタイル,,合同会社,愛知県,瀬戸市,汗干町４４番地パレス瀬戸６０４,,23,204,4890801,,,,,,,2025-08-26,1,,,,,オフィススタイル,0
1225,5180003028925,新規,0,2025-08-26,2025-08-26,合同会社万事屋,,合同会社,愛知県,常滑市,樽水字三反田７１番地の１,,23,216,4790801,,,,,,,2025-08-26,1,,,,,ヨロズヤ,0
1228,5180301040128,新規,0,2025-08-26,2025-08-26,株式会社ＧＯ,,株式会社,愛知県,安城市,西別所町中新田５０番地１,,23,212,4460012,,,,,,,2025-08-26,1,,,,,ゴー,0
1232,5220005008994,新規,0,2025-08-26,2025-08-26,一般社団法人ｔｏ‐ａｒｔ,,その他の設立登記法人,石川県,河北郡津幡町,字庄ロ２番地３０,,17,361,9290327,,,,,,,2025-08-26,1,,,,,トゥーアート,0
1233,5240001065402,新規,0,2025-08-26,2025-08-26,株式会社大黒建設,,株式会社,広島県,福山市,山手町５丁目１番２３号２Ｆ,,34,207,7200092,,,,,,,2025-08-26,1,,,,,ダイコクケンセツ,0
1234,5240001065410,新規,0,2025-08-26,2025-08-26,株式会社三本の矢,,株式会社,広島県,広島市南区,東本浦町１１番４－３０２号,,34,103,7340025,,,,,,,2025-08-26,1,,,,,サンボンノヤ,0
1242,5260001040485,新規,0,2025-08-26,2025-08-26,株式会社Ｖｉｓｔａ　Ｌｉｎｋ,,株式会社,岡山県,津山市,田町９１番地,,33,203,7080052,,,,,,,2025-08-26,1,,,,,ヴィスタリンク,0
1258,5290003017289,新規,0,2025-08-26,2025-08-26,合同会社サンダース,,合同会社,福岡県,福岡市中央区,今泉２丁目４番５３－５０５号Ｊ・Ｆｌａｔ,,40,133,8100021,,,,,,,2025-08-26,1,,,,,サンダース,0
1259,5290801031796,新規,0,2025-08-26,2025-08-26,株式会社Ａ．Ｎコーポレーション,,株式会社,福岡県,行橋市,大字稲童８５２番地６,,40,213,8240022,,,,,,,2025-08-26,1,,,,,エーエヌコーポレーション,0
1261,5320003004696,新規,0,2025-08-26,2025-08-26,合同会社マルス,,合同会社,大分県,大分市,ふじが丘南２丁目７番８号,,44,201,8701183,,,,,,,2025-08-26,1,,,,,マルス,0
1267,5350005006325,新規,0,2025-08-26,2025-08-26,一般社団法人最南端,,その他の設立登記法人,宮崎県,串間市,大字西方５５０７番地３,,45,207,8880001,,,,,,,2025-08-26,1,,,,,サイナンタン,0
1269,5360001035582,新規,0,2025-08-26,2025-08-26,株式会社石垣陽和,,株式会社,沖縄県,石垣市,字白保６４番地,,47,207,9070242,,,,,,,2025-08-26,1,,,,,イシガキビヨリ,0
1288,5700150131973,新規,0,2025-08-26,2025-08-26,Ｘｉａｍｅｎ　Ｚｅｗｏ　Ｔｒａｄｉｎｇ　Ｃｏ．，Ｌｔｄ,,外国会社等,,,,,,,,Ｒｏｏｍ　２６０１，Ｎｏ．８　Ｄｏｎｇｚｈａｉｌｉ，Ｈｕｌｉ　Ｄｉｓｔｒｉｃｔ，Ｘｉａｍｅｎ,,,,,,2025-08-26,1,,,,,シャーメンゾーウオマオイーヨウシエンゴンスー,0
1297,6010001257756,新規,0,2025-08-26,2025-08-26,株式会社ＶＩＳＩＯＮＡＲＩＥＳ７７７,,株式会社,東京都,千代田区,丸の内１丁目１１番１号パシフィックセンチュリープレイス８階１７６号室,,13,101,1000005,,,,,,,2025-08-26,1,,,,,ヴィジョナリーズトリプルセブン,0
1298,6010001257772,新規,0,2025-08-26,2025-08-26,株式会社Ｄｉｇｉｔａｌ　Ｇｉｆｔ,,株式会社,東京都,中央区,中央区銀座一丁目１２番４号,,13,102,1030000,,,,,,,2025-08-26,1,,,,,デジタルギフト,0
1299,6010001257979,新規,0,2025-08-26,2025-08-26,株式会社Ｌｕｄｕｓ,,株式会社,東京都,千代田区,三番町１２番地３－２０６号,,13,101,1020075,,,,,,,2025-08-26,1,,,,,ルダス,0
1300,6010001258011,新規,0,2025-08-26,2025-08-26,株式会社クリーンパートナーズ,,株式会社,東京都,中央区,銀座１丁目２２番１１号銀座大竹ビジデンス２Ｆ,,13,102,1040061,,,,,,,2025-08-26,1,,,,,クリーンパートナーズ,0
1308,6010005040588,新規,0,2025-08-26,2025-08-26,Ｈｉｍａｗａｒｉ　Ｂａｔｔｅｒｙ一般社団法人,,その他の設立登記法人,東京都,千代田区,霞が関３丁目２番５号,,13,101,1000013,,,,,,,2025-08-26,1,,,,,ヒマワリバッテリー,0
1311,6010401192677,新規,0,2025-08-26,2025-08-26,リブワークコンサルティング株式会社,,株式会社,東京都,港区,港南２丁目１６番４号品川グランドセントラルタワー８階,,13,103,1080075,,,,,,,2025-08-26,1,,,,,リブワークコンサルティング,0
1315,6010603011742,新規,0,2025-08-26,2025-08-26,ＷＩＮ　Ｐｒｏｊｅｃｔ合同会社,,合同会社,東京都,江東区,東雲１丁目１０番１４－１２２０号,,13,108,1350062,,,,,,,2025-08-26,1,,,,,ウィンプロジェクト,0
1316,6010701048158,新規,0,2025-08-26,2025-08-26,ＴＯＭＩＤＯＫＯＲＯ　ｌｅ　ＰＡＳＳＩＯＮ’ｓ株式会社,,株式会社,東京都,品川区,西五反田８丁目５番１－３０３号,,13,109,1410031,,,,,,,2025-08-26,1,,,,,トミドコロルパッションズ,0
1317,6010701048166,新規,0,2025-08-26,2025-08-26,ｓｔ府川株式会社,,株式会社,東京都,品川区,北品川５丁目５－２７－１３０９,,13,109,1410001,,,,,,,2025-08-26,1,,,,,エスティフカワ,0
1323,6010901057966,新規,0,2025-08-26,2025-08-26,株式会社Ｏｐｅｒａ,,株式会社,東京都,世田谷区,松原６丁目９－１７ジュノ羽根木公園２０１,,13,112,1560043,,,,,,,2025-08-26,1,,,,,オペラ,0
1324,6010901057974,新規,0,2025-08-26,2025-08-26,株式会社ＨＬＬＳＰＤ,,株式会社,東京都,世田谷区,太子堂５丁目２１番４号,,13,112,1540004,,,,,,,2025-08-26,1,,,,,エイチエルエルエスピーディー,0
1330,6011001171600,新規,0,2025-08-26,2025-08-26,株式会社あすなろ,,株式会社,東京都,渋谷区,恵比寿西２丁目４番８号ウィンド恵比寿ビル８階,,13,113,1500021,,,,,,,2025-08-26,1,,,,,アスナロ,0
1331,6011001172086,新規,0,2025-08-26,2025-08-26,株式会社ＭＯＭＥＮＴＳ,,株式会社,東京都,渋谷区,恵比寿西２丁目４番８号ウィンド恵比寿ビル８Ｆ,,13,113,1500021,,,,,,,2025-08-26,1,,,,,モメンツ,0
1332,6011001172094,新規,0,2025-08-26,2025-08-26,Ａｂｕｍｍライフ株式会社,,株式会社,東京都,渋谷区,神宮前６丁目３４番１－５０９号,,13,113,1500001,,,,,,,2025-08-26,1,,,,,アブムライフ,0
1334,6011005011100,新規,0,2025-08-26,2025-08-26,一般社団法人アジア中東政治経済研究所,,その他の設立登記法人,東京都,渋谷区,上原３丁目４３番１号東高代々木上原ペアシティアネックス００３,,13,113,1510064,,,,,,,2025-08-26,1,,,,,アジアチュウトウセイジケイザイケンキュウショ,0
1339,6011103016249,新規,0,2025-08-26,2025-08-26,合同会社Ｕｌｔｏ,,合同会社,東京都,新宿区,高田馬場３丁目２３番１号,,13,104,1690075,,,,,,,2025-08-26,1,,,,,ウルト,0
1342,6011403004812,新規,0,2025-08-26,2025-08-26,コンカーボ合同会社,,合同会社,東京都,板橋区,蓮根２丁目２７番１２号２Ｆ－２９,,13,119,1740046,,,,,,,2025-08-26,1,,,,,コンカーボ,0
1344,6011701028653,新規,0,2025-08-26,2025-08-26,株式会社スターライン,,株式会社,東京都,江戸川区,中葛西７丁目１６番１６号プルミエ・ド・クレール１号室,,13,123,1340083,,,,,,,2025-08-26,1,,,,,スターライン,0
1347,6011801046638,新規,0,2025-08-26,2025-08-26,ＧＢＤ株式会社,,株式会社,東京都,足立区,東伊興３丁目５番３４号,,13,121,1210801,,,,,,,2025-08-26,1,,,,,ジービーディー,0
1354,6013301054831,新規,0,2025-08-26,2025-08-26,明夷紅心東京株式会社,,株式会社,東京都,豊島区,池袋２丁目５２番３号,,13,116,1710014,,,,,,,2025-08-26,1,,,,,ミンイホンシントウキョウ,0
1364,6020001164209,新規,0,2025-08-26,2025-08-26,東京リノベオフィス株式会社,,株式会社,神奈川県,横浜市神奈川区,上反町２丁目２３番地１４,,14,102,2210831,,,,,,,2025-08-26,1,,,,,トウキョウリノベオフィス,0
1387,6030001168332,新規,0,2025-08-26,2025-08-26,株式会社そば処紡ｔｓｕｍｕｇｉ,,株式会社,埼玉県,秩父郡横瀬町,大字横瀬４２４８番地１,,11,361,3680072,,,,,,,2025-08-26,1,,,,,ソバドコロツムギ,0
1393,6030003027461,新規,0,2025-08-26,2025-08-26,合同会社ｉｂｉｓ,,合同会社,埼玉県,川口市,緑町３番２号堀内コーポ１０１,,11,203,3320027,,,,,,,2025-08-26,1,,,,,アイビス,0
1398,6040001140216,新規,0,2025-08-26,2025-08-26,株式会社ＴＯＭＯＣＬＯＵＤ,,株式会社,千葉県,千葉市中央区,富士見２丁目７番９号富士見ビル６０９号,,12,101,2600015,,,,,,,2025-08-26,1,,,,,トモクラウド,0
1402,6040003028335,新規,0,2025-08-26,2025-08-26,合同会社Ｋｕｇｕｒｉ,,合同会社,千葉県,千葉市美浜区,若葉３丁目１番地１１,,12,106,2610014,,,,,,,2025-08-26,1,,,,,クグリ,0
1403,6040003028351,新規,0,2025-08-26,2025-08-26,ＣＡＮ　ＴＲＡＤＩＮＧ合同会社,,合同会社,千葉県,木更津市,東太田４丁目１番２１号ハイツアカネ１０１号室,,12,206,2920043,,,,,,,2025-08-26,1,,,,,キャントレーディング,0
1414,6060001038524,新規,0,2025-08-26,2025-08-26,株式会社ｍｉｃｏ,,株式会社,栃木県,宇都宮市,戸祭１丁目２番１３号サーパス戸祭一丁目１００２,,09,201,3200056,,,,,,,2025-08-26,1,,,,,ミコ,0
1436,6120001278997,新規,0,2025-08-26,2025-08-26,多来米株式会社,,株式会社,大阪府,大阪市大正区,千島１丁目１０－１０エスポワール４３,,27,108,5510003,,,,,,,2025-08-26,1,,,,,タライマイ,0
1437,6120001279104,新規,0,2025-08-26,2025-08-26,株式会社ｏｎｅ,,株式会社,大阪府,大阪市生野区,田島６丁目８番１号２Ｆ,,27,116,5440011,,,,,,,2025-08-26,1,,,,,ワン,0
1438,6120001279129,新規,0,2025-08-26,2025-08-26,宇煌国際株式会社,,株式会社,大阪府,大阪市住吉区,長居東４丁目１５－２１－５０２号,,27,120,5580004,,,,,,,2025-08-26,1,,,,,ウキョウコクサイ,0
1441,6120003030373,新規,0,2025-08-26,2025-08-26,桜嵐商事合同会社,,合同会社,大阪府,大阪市中央区,谷町６丁目４番３４号－１０１号室,,27,128,5420012,,,,,,,2025-08-26,1,,,,,オウランショウジ,0
1442,6120003030381,新規,0,2025-08-26,2025-08-26,合同会社オフィスズーム,,合同会社,大阪府,大阪市北区,梅田１丁目２番２号大阪駅前第２ビル１２－１２,,27,127,5300001,,,,,,,2025-08-26,1,,,,,オフィスズーム,0
1444,6120005025124,新規,0,2025-08-26,2025-08-26,一般社団法人Ｒ・ＡＳＫ１４,,その他の設立登記法人,大阪府,大阪市北区,梅田３丁目２番２号,,27,127,5300001,,,,,,,2025-08-26,1,,,,,アールエーエスケーフォーティーン,0
1458,6130003010696,新規,0,2025-08-26,2025-08-26,ＲＩＮＤＯ合同会社,,合同会社,京都府,京都市下京区,水銀屋町６２０番地,,26,106,6008411,,,,,,,2025-08-26,1,,,,,リンドウ,0
1459,6130003010705,新規,0,2025-08-26,2025-08-26,Ｌｅ　Ｔｅｍｐｓ　Ｋｙｏｔｏ合同会社,,合同会社,京都府,京都市下京区,烏丸通松原上る因幡堂町７１３井筒因幡堂町ビル,,26,106,6008415,,,,,,,2025-08-26,1,,,,,ルタンキョウト,0
1472,6140003022476,新規,0,2025-08-26,2025-08-26,中坪川小水力発電合同会社,,合同会社,兵庫県,宍粟市,一宮町東河内１６５８,,28,227,6714141,,,,,,,2025-08-26,1,,,,,ナカツボガワショウスイリョクハツデン,0
1482,6180001168268,新規,0,2025-08-26,2025-08-26,興和貿易株式会社,,株式会社,愛知県,春日井市,大和通１丁目４０番１１,,23,206,4860944,,,,,,,2025-08-26,1,,,,,コウワボウエキ,0
1483,6180001168326,新規,0,2025-08-26,2025-08-26,Ｓｕｎｎｙ　ｓｏｕｔｈ　ｆａｃｉｎｇ株式会社,,株式会社,愛知県,名古屋市瑞穂区,宝田町４丁目２番地グランクレアいいねタウン瑞穂４０６号,,23,108,4670866,,,,,,,2025-08-26,1,,,,,サニーサウスフェイシング,0
1486,6180303006704,新規,0,2025-08-26,2025-08-26,合同会社ＣａｒｅＸ,,合同会社,愛知県,蒲郡市,鹿島町浜田２番地７,,23,214,4430037,,,,,,,2025-08-26,1,,,,,ケアエックス,0
1488,6200001044160,新規,0,2025-08-26,2025-08-26,スターズアライン株式会社,,株式会社,岐阜県,多治見市,虎渓山町６丁目２７番地,,21,204,5070014,,,,,,,2025-08-26,1,,,,,スターズアライン,0
1501,6260001040476,新規,0,2025-08-26,2025-08-26,ＥＶＯ株式会社,,株式会社,岡山県,笠岡市,神島２６７３番地,,33,205,7140044,,,,,,,2025-08-26,1,,,,,エボ,0
1508,6290001111167,新規,0,2025-08-26,2025-08-26,ＥＹＬ株式会社,,株式会社,福岡県,福岡市博多区,博多駅前１丁目２３番２号ＰａｒｋＦｒｏｎｔ博多駅前一丁目５Ｆ－Ｂ,,40,132,8120011,,,,,,,2025-08-26,1,,,,,イーワイエル,0
1509,6290001111183,新規,0,2025-08-26,2025-08-26,株式会社煙グループ,,株式会社,福岡県,福岡市中央区,黒門２－２４－３０１,,40,133,8100055,,,,,,,2025-08-26,1,,,,,ケムリグループ,0
1510,6290001111209,新規,0,2025-08-26,2025-08-26,株式会社ふーどメイク,,株式会社,福岡県,福岡市博多区,博多駅前１丁目２３番２号ＰａｒｋＦｒｏｎｔ博多駅前１丁目５Ｆ－Ｂ,,40,132,8120011,,,,,,,2025-08-26,1,,,,,フードメイク,0
1519,6330001033489,新規,0,2025-08-26,2025-08-26,Ｓｍｉｌｅ　Ｂｒｉｄｇｅ株式会社,,株式会社,熊本県,熊本市中央区,黒髪７丁目５６６－２０３室,,43,101,8600862,,,,,,,2025-08-26,1,,,,,スマイルブリッジ,0
1530,6360001035689,新規,0,2025-08-26,2025-08-26,株式会社Ｒｉｄｅｂａｓｅ,,株式会社,沖縄県,那覇市,久茂地１丁目１番１号９階,,47,201,9000015,,,,,,,2025-08-26,1,,,,,ライドベース,0
1556,6700150131972,新規,0,2025-08-26,2025-08-26,Ｓｈｅｎｚｈｅｎ　Ｈｕｉｋｕ　Ｔｅｃｈｎｏｌｏｇｙ　Ｃｏ．，Ｌｔｄ,,外国会社等,,,,,,,,１０１，Ｂｕｉｌｄｉｎｇ　Ｃ，Ｎｏ．１７　Ｙｏｎｇｘｉａｎｇ　Ｅａｓｔ　Ｒｏａｄ，Ｍａａｎｔａｎｇ　Ｃｏｍｍｕｎｉｔｙ，Ｂａｎｔｉａｎ　Ｓｔｒｅｅｔ，Ｌｏｎｇｇａｎｇ　Ｄｉｓｔｒｉｃｔ，Ｓｈｅｎｚｈｅｎ,,,,,,2025-08-26,1,,,,,シェンジェンシーフイクーコージーヨウシエンゴンスー,0
1565,7010001257623,新規,0,2025-08-26,2025-08-26,株式会社神田片口組,,株式会社,東京都,千代田区,九段北１丁目５－５東建ニューハイツ九段４１１,,13,101,1020073,,,,,,,2025-08-26,1,,,,,カンダカタグチグミ,0
1566,7010001257722,新規,0,2025-08-26,2025-08-26,ＴＯＰＯＳ　ＪＡＰＡＮ株式会社,,株式会社,東京都,中央区,日本橋兜町５－１兜町第一平和ビル３階,,13,102,1030026,,,,,,,2025-08-26,1,,,,,トポスジャパン,0
1567,7010001258002,新規,0,2025-08-26,2025-08-26,Ｐｉｘｅｌｓｉｇｈｔ株式会社,,株式会社,東京都,中央区,築地３丁目１７番１０号,,13,102,1040045,,,,,,,2025-08-26,1,,,,,ピクセルサイト,0
1575,7010003048525,新規,0,2025-08-26,2025-08-26,合同会社Ｒｏｕｔｅ４,,合同会社,東京都,千代田区,平河町１丁目６番１５号シルスフィア会計事務所内,,13,101,1020093,,,,,,,2025-08-26,1,,,,,ルートフォー,0
1576,7010003048533,新規,0,2025-08-26,2025-08-26,Ｈｉｍａｗａｒｉ　Ｂａｔｔｅｒｙ合同会社,,合同会社,東京都,千代田区,霞が関３丁目２番５号,,13,101,1000013,,,,,,,2025-08-26,1,,,,,ヒマワリバッテリー,0
1577,7010005040579,新規,0,2025-08-26,2025-08-26,一般社団法人トワイライト・ワン,,その他の設立登記法人,東京都,千代田区,内幸町２丁目１番６号,,13,101,1000011,,,,,,,2025-08-26,1,,,,,トワイライトワン,0
1578,7010005040587,新規,0,2025-08-26,2025-08-26,一般社団法人ＩＰＯイニシアティブ,,その他の設立登記法人,東京都,千代田区,有楽町１丁目７番１号,,13,101,1000006,,,,,,,2025-08-26,1,,,,,アイピーオーイニシアティブ,0
1582,7010101016838,新規,0,2025-08-26,2025-08-26,株式会社スノーホールディングス,,株式会社,東京都,八王子市,高尾町１５９５番地３共立リライアンス高尾駅前３０８号,,13,201,1930844,,,,,,,2025-08-26,1,,,,,スノーホールディングス,0
1591,7010401192643,新規,0,2025-08-26,2025-08-26,ＧＣＪＧ５５株式会社,,株式会社,東京都,港区,元赤坂１丁目１番７－１２０９号株式会社赤坂国際会計内,,13,103,1070051,,,,,,,2025-08-26,1,,,,,ジーシージェイジーフィフティーファイブ,0
1593,7010403035908,新規,0,2025-08-26,2025-08-26,竹芝準備６号合同会社,,合同会社,東京都,港区,海岸１丁目７番１号,,13,103,1050022,,,,,,,2025-08-26,1,,,,,タケシバジュンビロクゴウ,0
1595,7010405024611,新規,0,2025-08-26,2025-08-26,一般社団法人ＫＹトラスト,,その他の設立登記法人,東京都,港区,赤坂８丁目１１番１１号,,13,103,1070052,,,,,,,2025-08-26,1,,,,,ケイワイトラスト,0
1597,7010701048116,新規,0,2025-08-26,2025-08-26,株式会社営業代表エージェント,,株式会社,東京都,品川区,東五反田２丁目９番５号サウスウィング東五反田,,13,109,1410022,,,,,,,2025-08-26,1,,,,,エイギョウダイヒョウエージェント,0
1599,7010801036516,新規,0,2025-08-26,2025-08-26,Ｋ２コーポレーション株式会社,,株式会社,東京都,大田区,田園調布５丁目２０番１３号,,13,111,1450071,,,,,,,2025-08-26,1,,,,,ケイツーコーポレーション,0
1600,7010901057981,新規,0,2025-08-26,2025-08-26,株式会社Ｐｅａｋ　Ｏｗｌ,,株式会社,東京都,世田谷区,深沢２丁目３－１１ディアナコート駒沢公園３０７号,,13,112,1580081,,,,,,,2025-08-26,1,,,,,ピークアウル,0
1611,7011001171566,新規,0,2025-08-26,2025-08-26,Ｔホールディングス株式会社,,株式会社,東京都,渋谷区,代々木２丁目２３番１号ニューステートメナービル４１８,,13,113,1510053,,,,,,,2025-08-26,1,,,,,ティーホールディングス,0
1612,7011001171599,新規,0,2025-08-26,2025-08-26,株式会社ＣＯＦ,,株式会社,東京都,渋谷区,代々木４丁目３３番１０号トーシンビル,,13,113,1510053,,,,,,,2025-08-26,1,,,,,シーオーエフ,0
1613,7011001171698,新規,0,2025-08-26,2025-08-26,株式会社ＣｒｏｓｓＯｖｅｒ　Ｂ,,株式会社,東京都,渋谷区,道玄坂２丁目１９番１１号ファブリック渋谷３階,,13,113,1500043,,,,,,,2025-08-26,1,,,,,クロスオーバービー,0
1614,7011001172052,新規,0,2025-08-26,2025-08-26,株式会社ＧＡＭ０１３,,株式会社,東京都,渋谷区,千駄ヶ谷２丁目３０番１号,,13,113,1510051,,,,,,,2025-08-26,1,,,,,ジーエーエムゼロイチサン,0
1620,7011005011149,新規,0,2025-08-26,2025-08-26,一般社団法人ＫＩＸ,,その他の設立登記法人,東京都,渋谷区,神宮前１丁目５番８号,,13,113,1500001,,,,,,,2025-08-26,1,,,,,キックス,0
1624,7011101112651,新規,0,2025-08-26,2025-08-26,株式会社アルト,,株式会社,東京都,新宿区,西新宿６丁目１５番１号セントラルパークタワーラトゥール新宿５１１,,13,104,1600023,,,,,,,2025-08-26,1,,,,,アルト,0
1625,7011101112750,新規,0,2025-08-26,2025-08-26,株式会社ＯＰＥＮ　ＶＩＳＩＯＮ,,株式会社,東京都,新宿区,百人町１丁目１５番４－２０２号,,13,104,1690073,,,,,,,2025-08-26,1,,,,,オープンビジョン,0
1626,7011103016256,新規,0,2025-08-26,2025-08-26,合同会社ＭＡＩＴＯ,,合同会社,東京都,新宿区,西新宿３丁目３番１３号西新宿水間ビル２Ｆ,,13,104,1600023,,,,,,,2025-08-26,1,,,,,マイト,0
1629,7011105011544,新規,0,2025-08-26,2025-08-26,一般社団法人匠和会,,その他の設立登記法人,東京都,新宿区,下落合３丁目２０番３号,,13,104,1610033,,,,,,,2025-08-26,1,,,,,ショウワカイ,0
1638,7011703004354,新規,0,2025-08-26,2025-08-26,合同会社Ｋ．Ｓ．Ｌｉｎｅ,,合同会社,東京都,江戸川区,東小岩３丁目５番４号,,13,123,1330052,,,,,,,2025-08-26,1,,,,,ケーエスライン,0
1640,7011803007034,新規,0,2025-08-26,2025-08-26,合同会社Ｂｅｌｌｅ　ｆｅｍｍｅ,,合同会社,東京都,足立区,中央本町４丁目２１－１８センチュリー五反野３０４,,13,121,1210011,,,,,,,2025-08-26,1,,,,,ベルファム,0
1643,7012701019039,新規,0,2025-08-26,2025-08-26,エースファクトリー株式会社,,株式会社,東京都,清瀬市,野塩１丁目４３０,,13,221,2040004,,,,,,,2025-08-26,1,,,,,エースファクトリー,0
1645,7013305003742,新規,0,2025-08-26,2025-08-26,一般社団法人ＣＡＭＥＬＳ　Ｕｎｉｔｅ,,その他の設立登記法人,東京都,豊島区,巣鴨１丁目９－１グランド東邦ビル１Ｆ,,13,116,1700002,,,,,,,2025-08-26,1,,,,,キャメルズユナイト,0
1653,7020001164414,新規,0,2025-08-26,2025-08-26,Ｌａｂｏ株式会社,,株式会社,神奈川県,川崎市多摩区,登戸２５４０番地１フランディール大泉３０１,,14,135,2140014,,,,,,,2025-08-26,1,,,,,ラボ,0
1663,7021001086169,新規,0,2025-08-26,2025-08-26,株式会社ホープシステムズ,,株式会社,神奈川県,横須賀市,田浦町２丁目７２番地,,14,201,2370075,,,,,,,2025-08-26,1,,,,,ホープシステムズ,0
1683,7040001140149,新規,0,2025-08-26,2025-08-26,株式会社翔,,株式会社,千葉県,千葉市花見川区,三角町６２７,,12,102,2620011,,,,,,,2025-08-26,1,,,,,ショウ,0
1688,7040003028375,新規,0,2025-08-26,2025-08-26,０７６スタジオ合同会社,,合同会社,千葉県,千葉市美浜区,中瀬１丁目６ｍＢＡＹＰＯＩＮＴ幕張低層棟２Ｆ,,12,106,2610023,,,,,,,2025-08-26,1,,,,,ゼロセブンシックススタジオ,0
1693,7060001038523,新規,0,2025-08-26,2025-08-26,一番ダクト工業株式会社,,株式会社,栃木県,日光市,板橋１８７８番地５１,,09,206,3211102,,,,,,,2025-08-26,1,,,,,イチバンダクトコウギヨウ,0
1698,7080103003407,新規,0,2025-08-26,2025-08-26,合同会社スカイ,,合同会社,静岡県,富士市,十兵衛２４６番地の２プラザ・ドゥ・スプライト２０１号,,22,210,4160941,,,,,,,2025-08-26,1,,,,,スカイ,0
1715,7120001278963,新規,0,2025-08-26,2025-08-26,株式会社燈匠,,株式会社,大阪府,大阪市東住吉区,住道矢田９丁目９番３２号,,27,121,5460022,,,,,,,2025-08-26,1,,,,,トウショウ,0
1716,7120001279053,新規,0,2025-08-26,2025-08-26,ＭＯＲＩ株式会社,,株式会社,大阪府,大阪市生野区,田島６丁目１番７号２Ｆ,,27,116,5440011,,,,,,,2025-08-26,1,,,,,モリ,0
1717,7120001279086,新規,0,2025-08-26,2025-08-26,株式会社トリハウス,,株式会社,大阪府,大阪市住吉区,長居１丁目３番３８号パレスハイツ４０３号室,,27,120,5580003,,,,,,,2025-08-26,1,,,,,トリハウス,0
1718,7120001279094,新規,0,2025-08-26,2025-08-26,株式会社Ｚｈｅ‐ｄｅｓｉｇｎ　Ｓｔｕｄｉｏ,,株式会社,大阪府,大阪市生野区,新今里２丁目１１番５号１階,,27,116,5440001,,,,,,,2025-08-26,1,,,,,ザデザインスタジオ,0
1721,7120003030406,新規,0,2025-08-26,2025-08-26,Ｌｉｇｈｔ　Ｒｏｏｔｓ合同会社,,合同会社,大阪府,大阪市北区,梅田１丁目１‐３大阪駅前第３ビル２９階１‐１‐１号室,,27,127,5300001,,,,,,,2025-08-26,1,,,,,ライトルーツ,0
1722,7120901051420,新規,0,2025-08-26,2025-08-26,株式会社リアンクル,,株式会社,大阪府,豊中市,本町１丁目３番１９号長尾第一ビル３Ｆ－Ｂ号室,,27,203,5600021,,,,,,,2025-08-26,1,,,,,リアンクル,0
1726,7122001039585,新規,0,2025-08-26,2025-08-26,虹機株式会社,,株式会社,大阪府,東大阪市,稲葉２丁目１－３６,,27,227,5780925,,,,,,,2025-08-26,1,,,,,コウキ,0
1730,7130001080352,新規,0,2025-08-26,2025-08-26,騰達株式会社,,株式会社,京都府,京都市伏見区,小栗栖小阪町６８インリバーレジデンス,,26,109,6011455,,,,,,,2025-08-26,1,,,,,トウタツ,0
1731,7130001080360,新規,0,2025-08-26,2025-08-26,株式会社ジャスト食品,,株式会社,京都府,京都市下京区,京極町５１５番地６,,26,106,6008035,,,,,,,2025-08-26,1,,,,,ジャストショクヒン,0
1733,7130003010695,新規,0,2025-08-26,2025-08-26,合同会社エスアールアイ,,合同会社,京都府,京都市下京区,七条通油小路東入大黒町２２７番地第２キョートビル４０２号室,,26,106,6008223,,,,,,,2025-08-26,1,,,,,エスアールアイ,0
1737,7140001139701,新規,0,2025-08-26,2025-08-26,株式会社結彩プランニング,,株式会社,兵庫県,伊丹市,桜ケ丘４丁目４－５,,28,207,6640897,,,,,,,2025-08-26,1,,,,,ユアプランニング,0
1738,7140001139791,新規,0,2025-08-26,2025-08-26,萬晟株式会社,,株式会社,兵庫県,神戸市兵庫区,芦原通６丁目３－６－２０１号室,,28,105,6520882,,,,,,,2025-08-26,1,,,,,マンセイ,0
1741,7140003022459,新規,0,2025-08-26,2025-08-26,Ｆｕｇａ合同会社,,合同会社,兵庫県,豊岡市,日高町日置３１３,,28,209,6695311,,,,,,,2025-08-26,1,,,,,フウガ,0
1750,7180001168333,新規,0,2025-08-26,2025-08-26,株式会社Ｍ’ｓ,,株式会社,愛知県,丹羽郡扶桑町,大字高尾字下山１３９番地,,23,362,4800100,,,,,,,2025-08-26,1,,,,,エムズ,0
1755,7180003028915,新規,0,2025-08-26,2025-08-26,和灯合同会社,,合同会社,愛知県,清須市,清洲田中町６１番地２,,23,233,4520942,,,,,,,2025-08-26,1,,,,,ワトウ,0
1756,7180003028923,新規,0,2025-08-26,2025-08-26,合同会社アンドアセット,,合同会社,愛知県,名古屋市港区,港明２丁目４番１号（パークホームズＬａＬａ名古屋みなとアクルス８１４号）,,23,111,4550018,,,,,,,2025-08-26,1,,,,,アンドアセット,0
1774,7260005011514,新規,0,2025-08-26,2025-08-26,医療法人社団イマグランツ,,その他の設立登記法人,岡山県,倉敷市,福田町古新田８２１番地４９,,33,202,7128046,,,,,,,2025-08-26,1,,,,,イマグランツ,0
1783,7340001027613,新規,0,2025-08-26,2025-08-26,株式会社ゆめ不動産,,株式会社,鹿児島県,鹿児島市,石谷町５０２５番地３,,46,201,8992701,,,,,,,2025-08-26,1,,,,,ユメフドウサン,0
1786,7340003004932,新規,0,2025-08-26,2025-08-26,合同会社丸八建設,,合同会社,鹿児島県,大島郡伊仙町,大字伊仙２７８４番地１,,46,532,8918201,,,,,,,2025-08-26,1,,,,,マルハチケンセツ,0
1788,7360001035688,新規,0,2025-08-26,2025-08-26,さくら運送株式会社,,株式会社,沖縄県,石垣市,字新川２２９６－５－２Ｆ,,47,207,9070024,,,,,,,2025-08-26,1,,,,,サクラウンソウ,0
1790,7360003015192,新規,0,2025-08-26,2025-08-26,合同会社Ｓ＆Ｈパートナーズ,,合同会社,沖縄県,島尻郡南風原町,字新川４９８番地１,,47,350,9011105,,,,,,,2025-08-26,1,,,,,エスアンドエイチパートナーズ,0
1794,7370001052971,新規,0,2025-08-26,2025-08-26,株式会社パシャエンターテイメント,,株式会社,宮城県,仙台市青葉区,木町通１丁目４番３５号リビングステージ木町通９０２号室,,04,101,9800801,,,,,,,2025-08-26,1,,,,,パシャエンターテイメント,0
1820,7430001095080,新規,0,2025-08-26,2025-08-26,株式会社アヤナイ,,株式会社,北海道,札幌市豊平区,中の島一条１１丁目３番１３号,,01,105,0620921,,,,,,,2025-08-26,1,,,,,アヤナイ,0
1823,7430003018015,新規,0,2025-08-26,2025-08-26,Ｏｔａｒｕ　Ｏｕｔｄｏｏｒ　Ｓｐｏｒｔｓ合同会社,,合同会社,北海道,小樽市,色内２丁目８番４号,,01,203,0470031,,,,,,,2025-08-26,1,,,,,オタルアウトドアスポーツ,0
1836,7500005008816,新規,0,2025-08-26,2025-08-26,一般社団法人いまばり船みらい振興会,,その他の設立登記法人,愛媛県,今治市,旭町２丁目３番地４,,38,202,7940042,,,,,,,2025-08-26,1,,,,,イマバリフネミライシンコウカイ,0
1837,7700150131971,新規,0,2025-08-26,2025-08-26,ｓｈａｎｇｈａｉ　ｓｈｕａｉｊｉｎｇ　ｍｅｎ　ｃｈｕａｎｇ　ｙｏｕ　ｘｉａｎ　ｇｏｎｇ　ｓｉ,,外国会社等,,,,,,,,ｗｅｉｑｉｎｇｘｉｌｕ４２１ｈａｏｓａｎｌｏｕＡ－２２８８　ｓｈａｎｇｈａｉ　ｊｉｎｓｈａｎｑｕ　ｓｈａｎｇｈａｉ　２００５４０　ＣＮ,,,,,,2025-08-26,1,,,,,シャンハイシュワイジンメンチュワンヨウシエンゴンスー,0
1862,8010403035865,新規,0,2025-08-26,2025-08-26,合同会社フレミール,,合同会社,東京都,港区,南青山２丁目２－１５ウィン青山９４２,,13,103,1070062,,,,,,,2025-08-26,1,,,,,フレミール,0
1863,8010403035898,新規,0,2025-08-26,2025-08-26,合同会社ＹＯＡＭ０１,,合同会社,東京都,港区,赤坂１丁目１４番５号,,13,103,1070052,,,,,,,2025-08-26,1,,,,,ワイオーエーエムゼロワン,0
1873,8010901057972,新規,0,2025-08-26,2025-08-26,株式会社ノアロン,,株式会社,東京都,世田谷区,中町２丁目３番６号,,13,112,1580091,,,,,,,2025-08-26,1,,,,,ノアロン,0
1881,8011001171532,新規,0,2025-08-26,2025-08-26,株式会社Ａｕｒｏｒａ　Ｃｌｉｎｉｃａｌ,,株式会社,東京都,渋谷区,恵比寿南１丁目１－１ヒューマックス恵比寿ビル８階,,13,113,1500022,,,,,,,2025-08-26,1,,,,,オーロラクリニカル,0
1882,8011001171978,新規,0,2025-08-26,2025-08-26,株式会社万券ラッシュ,,株式会社,東京都,渋谷区,元代々木町２４番４号,,13,113,1510062,,,,,,,2025-08-26,1,,,,,マンケンラッシュ,0
1884,8011003022213,新規,0,2025-08-26,2025-08-26,合同会社ｓｔｋＳ,,合同会社,東京都,目黒区,大橋２丁目２３－２１樹琳館２０２,,13,110,1530044,,,,,,,2025-08-26,1,,,,,エスティーケーエス,0
1889,8011101112774,新規,0,2025-08-26,2025-08-26,株式会社ＳＡＭ,,株式会社,東京都,新宿区,西新宿６丁目５番１号新宿アイランドタワー２階,,13,104,1600023,,,,,,,2025-08-26,1,,,,,サム,0
1890,8011101112808,新規,0,2025-08-26,2025-08-26,壱質株式会社,,株式会社,東京都,新宿区,新宿２丁目１２番１３号新宿アントレサロンビル２階,,13,104,1600022,,,,,,,2025-08-26,1,,,,,イチシツ,0
1892,8011105011535,新規,0,2025-08-26,2025-08-26,一般社団法人日本湛江総商会,,その他の設立登記法人,東京都,新宿区,高田馬場４丁目１８－９ハイシティ高田馬場２０１号,,13,104,1690075,,,,,,,2025-08-26,1,,,,,ニホンタンコウソウショウカイ,0
1893,8011105011543,新規,0,2025-08-26,2025-08-26,一般社団法人竹菁,,その他の設立登記法人,東京都,新宿区,北新宿２丁目４－３４、４０１,,13,104,1690074,,,,,,,2025-08-26,1,,,,,チクセイ,0
1895,8011401027350,新規,0,2025-08-26,2025-08-26,Ｋ＆Ｒ株式会社,,株式会社,東京都,板橋区,赤塚７丁目１３番１８号,,13,119,1750092,,,,,,,2025-08-26,1,,,,,ケーアンドアール,0
1910,8012401043528,新規,0,2025-08-26,2025-08-26,ＦｉｎｄＭｅ株式会社,,株式会社,東京都,府中市,四谷４丁目５６－４８,,13,206,1830035,,,,,,,2025-08-26,1,,,,,ファインドミー,0
1911,8012703003353,新規,0,2025-08-26,2025-08-26,ハチマン産業合同会社,,合同会社,東京都,東久留米市,八幡町３丁目１６番４号,,13,222,2030042,,,,,,,2025-08-26,1,,,,,ハチマンサンギョウ,0
1913,8012805003359,新規,0,2025-08-26,2025-08-26,特定非営利活動法人日本学習支援協会,,その他の設立登記法人,東京都,国立市,東４丁目２７番地の１１ゆたか荘２０１号室,,13,215,1860002,,,,,,,2025-08-26,1,,,,,ニホンガクシュウシエンキョウカイ,0
1921,8013301054796,新規,0,2025-08-26,2025-08-26,株式会社Ｒａｙパートナーズ,,株式会社,東京都,豊島区,東池袋２丁目６２番８号ＢＩＧオフィスプラザ池袋１２０６,,13,116,1700013,,,,,,,2025-08-26,1,,,,,レイパートナーズ,0
1933,8021001086143,新規,0,2025-08-26,2025-08-26,株式会社ベースリフォーム,,株式会社,神奈川県,横須賀市,池田町５丁目３番Ｂ－６０１号,,14,201,2390806,,,,,,,2025-08-26,1,,,,,ベースリフォーム,0
1934,8021001086168,新規,0,2025-08-26,2025-08-26,株式会社ｅｖｅ,,株式会社,神奈川県,藤沢市,辻堂新町２丁目１０番１９号,,14,205,2510042,,,,,,,2025-08-26,1,,,,,イヴ,0
1937,8021003016453,新規,0,2025-08-26,2025-08-26,合同会社ＫＤＯ,,合同会社,神奈川県,相模原市南区,松が枝町１９番３－３０２号,,14,153,2520313,,,,,,,2025-08-26,1,,,,,ケーディーオー,0
1938,8021003016486,新規,0,2025-08-26,2025-08-26,ＯｎｅＳｙｎｃ合同会社,,合同会社,神奈川県,相模原市緑区,橋本３丁目１１－７－５０１,,14,151,2520143,,,,,,,2025-08-26,1,,,,,ワンシンク,0
1942,8030001168264,新規,0,2025-08-26,2025-08-26,ライツ・ホールディングス株式会社,,株式会社,埼玉県,さいたま市北区,櫛引町２丁目２３０番地２ウィズ大宮１０５,,11,102,3310825,,,,,,,2025-08-26,1,,,,,ライツホールディングス,0
1946,8030003027468,新規,0,2025-08-26,2025-08-26,ビジネス法務アシスト合同会社,,合同会社,埼玉県,川口市,川口１丁目１－３－６１２,,11,203,3320015,,,,,,,2025-08-26,1,,,,,,0
1949,8040001140222,新規,0,2025-08-26,2025-08-26,株式会社サンライズ,,株式会社,千葉県,千葉市中央区,富士見２丁目７番９号富士見ビル６０９号,,12,101,2600015,,,,,,,2025-08-26,1,,,,,サンライズ,0
1957,8060001038522,新規,0,2025-08-26,2025-08-26,ＺＥＮＴＯＲＡ株式会社,,株式会社,栃木県,那須塩原市,本郷町３－１４パラダイスビル３Ｆ,,09,213,3250053,,,,,,,2025-08-26,1,,,,,ゼントラ,0
1967,8080101025740,新規,0,2025-08-26,2025-08-26,株式会社Ｔ２ＷＯＲＬＤ　ＥＸＰＲＥＳＳ,,株式会社,静岡県,三島市,平成台３１番地,,22,206,4110042,,,,,,,2025-08-26,1,,,,,ティーツーワールドエクスプレス,0
1974,8120001279011,新規,0,2025-08-26,2025-08-26,株式会社ＮＥＸＴ,,株式会社,大阪府,守口市,大久保町３丁目１６番１９号,,27,209,5700012,,,,,,,2025-08-26,1,,,,,ネクスト,0
1975,8120001279085,新規,0,2025-08-26,2025-08-26,株式会社良友,,株式会社,大阪府,大阪市福島区,野田２丁目１６番１７号,,27,103,5530005,,,,,,,2025-08-26,1,,,,,リョウユウ,0
1976,8120001279143,新規,0,2025-08-26,2025-08-26,大通商事株式会社,,株式会社,大阪府,大阪市浪速区,日本橋５丁目４番２３号３階,,27,111,5560005,,,,,,,2025-08-26,1,,,,,ダイツウショウジ,0
1977,8120001279151,新規,0,2025-08-26,2025-08-26,日本希原株式会社,,株式会社,大阪府,大阪市城東区,蒲生２丁目７番２６号,,27,118,5360016,,,,,,,2025-08-26,1,,,,,ニホンキハラ,0
1982,8120003030347,新規,0,2025-08-26,2025-08-26,Ｔｈｅ　ｈｅｙｄａｙ合同会社,,合同会社,大阪府,大阪市港区,市岡元町１丁目６－１１－５０１号,,27,107,5520002,,,,,,,2025-08-26,1,,,,,ザヘイデイ,0
1983,8120005025122,新規,0,2025-08-26,2025-08-26,一般社団法人コトモノラボ,,その他の設立登記法人,大阪府,大阪市天王寺区,上本町６丁目８番１７号,,27,109,5430001,,,,,,,2025-08-26,1,,,,,コトモノラボ,0
2005,8180001168316,新規,0,2025-08-26,2025-08-26,株式会社グリーン・エール,,株式会社,愛知県,名古屋市緑区,姥子山４丁目７０３番地,,23,114,4580830,,,,,,,2025-08-26,1,,,,,グリーンエール,0
2006,8180001168332,新規,0,2025-08-26,2025-08-26,鵬程株式会社,,株式会社,愛知県,名古屋市東区,黒門町１２０番地１黒門町ハイツ２０２号,,23,102,4610035,,,,,,,2025-08-26,1,,,,,ホウテイ,0
2008,8180003028848,新規,0,2025-08-26,2025-08-26,合同会社Ｒｉａｎ,,合同会社,愛知県,名古屋市中村区,中島町１丁目１９番地,,23,105,4530022,,,,,,,2025-08-26,1,,,,,リアン,0
2018,8240001065408,新規,0,2025-08-26,2025-08-26,株式会社ＬｏｏｋａＨｅａｄ,,株式会社,広島県,広島市佐伯区,石内北３丁目４番１０号,,34,108,7315109,,,,,,,2025-08-26,1,,,,,ルカヘッド,0
2019,8260001040466,新規,0,2025-08-26,2025-08-26,株式会社アリエス,,株式会社,岡山県,倉敷市,玉島八島２２９番地２,,33,202,7138113,,,,,,,2025-08-26,1,,,,,アリエス,0
2020,8260001040474,新規,0,2025-08-26,2025-08-26,株式会社Ｃａｒｓ,,株式会社,岡山県,倉敷市,日ノ出町１丁目９－５グランデ倉敷駅前１０１,,33,202,7100063,,,,,,,2025-08-26,1,,,,,カーズ,0
2021,8260003005319,新規,0,2025-08-26,2025-08-26,合同会社槇商店,,合同会社,岡山県,岡山市北区,津島東１丁目４番１号,,33,101,7000081,,,,,,,2025-08-26,1,,,,,マキショウテン,0
2025,8290001111198,新規,0,2025-08-26,2025-08-26,ＪＰ　ＬｉｖｅＳｍａｒｔ株式会社,,株式会社,福岡県,福岡市中央区,舞鶴３丁目２番３２－３０１号舞鶴ロイヤービル,,40,133,8100073,,,,,,,2025-08-26,1,,,,,ジェーピーリブスマート,0
2029,8300001014333,新規,0,2025-08-26,2025-08-26,株式会社アグリタス,,株式会社,佐賀県,杵島郡白石町,大字築切３３７４番地,,41,425,8491103,,,,,,,2025-08-26,1,,,,,アグリタス,0
2034,8320003004751,新規,0,2025-08-26,2025-08-26,合同会社ｎａｂｉ,,合同会社,大分県,由布市,挾間町下市３３０番地４,,44,213,8795504,,,,,,,2025-08-26,1,,,,,ナビ,0
2067,8450001014715,新規,0,2025-08-26,2025-08-26,株式会社タニワキ商事,,株式会社,北海道,旭川市,永山九条１丁目１番２１号,,01,204,0798419,,,,,,,2025-08-26,1,,,,,タニワキショウジ,0
2072,8500001026481,新規,0,2025-08-26,2025-08-26,株式会社サンフォワード,,株式会社,愛媛県,伊予市,灘町２０４番地,,38,210,7993114,,,,,,,2025-08-26,1,,,,,サンフォワード,0
2098,9010003048531,新規,0,2025-08-26,2025-08-26,こぼくシステムズ合同会社,,合同会社,東京都,中央区,日本橋浜町３丁目３０－４ワコー人形町マンション１０１,,13,102,1030007,,,,,,,2025-08-26,1,,,,,コボクシステムズ,0
2105,9010401192690,新規,0,2025-08-26,2025-08-26,株式会社ＥｅｅＶｅｅ,,株式会社,東京都,港区,浜松町２丁目２番１５号浜松町ダイヤビル２Ｆ,,13,103,1050013,,,,,,,2025-08-26,1,,,,,イーヴィー,0
2106,9010403035897,新規,0,2025-08-26,2025-08-26,汐留アセットマネジメント合同会社,,合同会社,東京都,港区,新橋１丁目９番５号,,13,103,1050004,,,,,,,2025-08-26,1,,,,,シオドメアセットマネジメント,0
2113,9010701048221,新規,0,2025-08-26,2025-08-26,株式会社ジョブソフト,,株式会社,東京都,品川区,上大崎３丁目５番３号万代目黒ビル８Ｆ,,13,109,1410021,,,,,,,2025-08-26,1,,,,,ジョブソフト,0
2130,9011001171580,新規,0,2025-08-26,2025-08-26,株式会社ＯＭＵＳＵＢＩ　ＪＡＰＡＮ,,株式会社,東京都,渋谷区,東２丁目１２番５号ＡｔｅｌｉｅｒＥｓｔ７,,13,113,1500011,,,,,,,2025-08-26,1,,,,,オムスビジャパン,0
2131,9011001171688,新規,0,2025-08-26,2025-08-26,株式会社Ｓｐｉｎｅｌ,,株式会社,東京都,目黒区,碑文谷２丁目１１番６号,,13,110,1520003,,,,,,,2025-08-26,1,,,,,スピネル,0
2133,9011003022212,新規,0,2025-08-26,2025-08-26,合同会社山葵,,合同会社,東京都,渋谷区,広尾１丁目２番地１号ヒカリビル４階,,13,113,1500012,,,,,,,2025-08-26,1,,,,,ワサビ,0
2136,9011101112807,新規,0,2025-08-26,2025-08-26,ＳＴＡ株式会社,,株式会社,東京都,新宿区,高田馬場３丁目１８番２２号第３康洋ビル２０３,,13,104,1690075,,,,,,,2025-08-26,1,,,,,エスティーエー,0
2137,9011101112864,新規,0,2025-08-26,2025-08-26,株式会社エターナルモーメント,,株式会社,東京都,新宿区,西新宿３丁目３番１３号西新宿水間ビル２Ｆ,,13,104,1600023,,,,,,,2025-08-26,1,,,,,エターナルモーメント,0
2140,9011103016320,新規,0,2025-08-26,2025-08-26,合同会社優望堂,,合同会社,東京都,新宿区,南町１４番地５０２号室,,13,104,1620836,,,,,,,2025-08-26,1,,,,,ユウボウドウ,0
2144,9011403004818,新規,0,2025-08-26,2025-08-26,合同会社ｅｍｕｇ,,合同会社,東京都,板橋区,坂下３丁目１７番１－１１１６号,,13,119,1740043,,,,,,,2025-08-26,1,,,,,エミュウジ,0
2145,9011501032489,新規,0,2025-08-26,2025-08-26,株式会社ＬＥＯ会計コンサルティング,,株式会社,東京都,荒川区,西日暮里３丁目６番７号,,13,118,1160013,,,,,,,2025-08-26,1,,,,,レオカイケイコンサルティング,0
2147,9011701028659,新規,0,2025-08-26,2025-08-26,株式会社ＡＤ‐ａｓｔｒａ,,株式会社,東京都,江戸川区,東小岩６丁目８―１,,13,123,1330052,,,,,,,2025-08-26,1,,,,,アドアストラ,0
2152,9012401043519,新規,0,2025-08-26,2025-08-26,株式会社ＳａｔｏＬｉｎｋ,,株式会社,東京都,小金井市,梶野町１丁目２番３６号,,13,210,1840002,,,,,,,2025-08-26,1,,,,,サトリンク,0
2155,9012701019012,新規,0,2025-08-26,2025-08-26,株式会社Ｃｏｃｏｔａｓ,,株式会社,東京都,東村山市,美住町１丁目１０－３５、１０１,,13,213,1890023,,,,,,,2025-08-26,1,,,,,ココタス,0
2167,9020001164503,新規,0,2025-08-26,2025-08-26,株式会社令和新エネルギーテクノ,,株式会社,神奈川県,横浜市西区,浜松町１２番地２７ＹＴビル４階,,14,103,2200055,,,,,,,2025-08-26,1,,,,,,0
2170,9020003029200,新規,0,2025-08-26,2025-08-26,風順合同会社,00140414,合同会社,神奈川県,川崎市川崎区,渡田１丁目１６番２－２０８号コアメゾン川崎,,14,131,2100837,,,,,,,2025-08-26,1,,,,,フウジュン,0
2171,9020003029233,新規,0,2025-08-26,2025-08-26,合同会社ＯＢＴ,,合同会社,神奈川県,横浜市港南区,日野８丁目２６番６号,,14,111,2340051,,,,,,,2025-08-26,1,,,,,オービーティー,0
2175,9021001086126,新規,0,2025-08-26,2025-08-26,株式会社Ｓｅｃｒｅｔ　Ｂａｓｅ１９,,株式会社,神奈川県,大和市,草柳八丁目１番１３号,,14,213,2420000,,,,,,,2025-08-26,1,,,,,シークレットベースナインティーン,0
2190,9030001168288,新規,0,2025-08-26,2025-08-26,株式会社大信,,株式会社,埼玉県,朝霞市,宮戸２丁目１６番１６号,,11,227,3510031,,,,,,,2025-08-26,1,,,,,ダイシン,0
2202,9040003028349,新規,0,2025-08-26,2025-08-26,コトココＬＩＮＫ合同会社,,合同会社,千葉県,八千代市,萱田町７０７番地６,,12,221,2760044,,,,,,,2025-08-26,1,,,,,コトココリンク,0
2208,9060003005701,新規,0,2025-08-26,2025-08-26,Ｃｅｙｌｏｎ　Ｇｒｅｅｎ　Ｗｏｒｌｄ合同会社,,合同会社,栃木県,佐野市,吉水町６９９番地６,,09,204,3270313,,,,,,,2025-08-26,1,,,,,セイロングリーンワールド,0
2210,9080003003521,新規,0,2025-08-26,2025-08-26,合同会社アイトモ,,合同会社,静岡県,藤枝市,小石川町４丁目１６番１６号,,22,214,4260033,,,,,,,2025-08-26,1,,,,,アイトモ,0
2213,9080103003405,新規,0,2025-08-26,2025-08-26,合同会社にじいローカル,,合同会社,静岡県,沼津市,原１５４７番地の３ニュー若葉荘３０１,,22,203,4100312,,,,,,,2025-08-26,1,,,,,,0
2217,9100001038896,新規,0,2025-08-26,2025-08-26,株式会社ＲＥＶＥＬ,,株式会社,長野県,長野市,大字稲葉６２９番地１アップルヒルズＩＩ１０１号室,00140420,20,201,3800911,,,,,,,2025-08-26,1,,,,,レヴェル,0
2234,9120001278937,新規,0,2025-08-26,2025-08-26,大阪鶴天株式会社,,株式会社,大阪府,大阪市此花区,春日出北３丁目１３番３７号天津ビル４０１号室,,27,104,5540021,,,,,,,2025-08-26,1,,,,,オオサカツルテン,0
2235,9120001279002,新規,0,2025-08-26,2025-08-26,博興国際株式会社,,株式会社,大阪府,大阪市西区,南堀江４丁目２８番４１号リバーサイド道頓堀西９０１,,27,106,5500015,,,,,,,2025-08-26,1,,,,,ハッコウコクサイ,0
2236,9120001279010,新規,0,2025-08-26,2025-08-26,株式会社Ｈ＆Ｂ,,株式会社,大阪府,大阪市北区,西天満５丁目５－１６,,27,127,5300047,,,,,,,2025-08-26,1,,,,,エイチアンドビー,0
2237,9120001279019,新規,0,2025-08-26,2025-08-26,株式会社Ｓｔａｒ　Ｌｏｖｅ　Ｌｉｇｈｔ,,株式会社,大阪府,大阪市旭区,生江２丁目８番１７号,,27,117,5350004,,,,,,,2025-08-26,1,,,,,スターラブライト,0
2238,9120001279035,新規,0,2025-08-26,2025-08-26,株式会社ＳＴＤ,,株式会社,大阪府,大阪市福島区,福島８丁目１９番１９号,,27,103,5530003,,,,,,,2025-08-26,1,,,,,エスティーディー,0
2239,9120001279051,新規,0,2025-08-26,2025-08-26,天世株式会社,,株式会社,大阪府,大阪市東成区,深江北３丁目４番２１号エクラ深江橋５１１Ｂ,,27,115,5370001,,,,,,,2025-08-26,1,,,,,テンセ,0
2240,9120001279076,新規,0,2025-08-26,2025-08-26,株式会社Ｓｏｓａｉ,,株式会社,大阪府,大阪市北区,梅田２丁目２番２号ヒルトンプラザウエストオフィスタワー１９階,,27,127,5300001,,,,,,,2025-08-26,1,,,,,ソウサイ,0
2241,9120001279084,新規,0,2025-08-26,2025-08-26,株式会社ＲＹ,,株式会社,大阪府,大阪市浪速区,敷津西２丁目６番８号マンション松原１１０９号,,27,111,5560015,,,,,,,2025-08-26,1,,,,,アールワイ,0
2242,9120001279134,新規,0,2025-08-26,2025-08-26,ＡＭＥＧＡ　ＴＲＡＤＩＮＧ株式会社,,株式会社,大阪府,大阪市中央区,本町３丁目３－９－９Ｆ,,27,128,5410053,,,,,,,2025-08-26,1,,,,,アメガトレーディング,0
2259,9130003010693,新規,0,2025-08-26,2025-08-26,田中屋敷合同会社,,合同会社,京都府,京都市中京区,三条通堺町東入桝屋町６８番地メロディーハイム三条堺町３０４号室,,26,104,6048111,,,,,,,2025-08-26,1,,,,,タナカヤシキ,0
2261,9130005017448,新規,0,2025-08-26,2025-08-26,特定非営利活動法人全国高等学校対抗自転車競技選手権大会実行委員会,,その他の設立登記法人,京都府,向日市,寺戸町小佃１０－２－２０７,,26,208,6170002,,,,,,,2025-08-26,1,,,,,ゼンコクコウトウガッコウタイコウジテンシャキョウギセンシュケンタイカイジッコウイインカイ,0
2263,9140001139781,新規,0,2025-08-26,2025-08-26,Ｒ＆Ｒ　ＪＡＰＡＮ株式会社,,株式会社,兵庫県,神戸市中央区,京町７８三宮京町ビル３Ｂ－２号室,,28,110,6500034,,,,,,,2025-08-26,1,,,,,アールアンドアールジャパン,0
2264,9140001139798,新規,0,2025-08-26,2025-08-26,虹海国際貿易株式会社,,株式会社,兵庫県,芦屋市,陽光町８番２０－９０５号,,28,206,6590034,,,,,,,2025-08-26,1,,,,,ホンハイコクサイボウエキ,0
2271,9160001027010,新規,0,2025-08-26,2025-08-26,株式会社Ｅｇｇ‐Ｒ,,株式会社,滋賀県,大津市,中央４丁目６番５５－９１３号,,25,201,5200043,,,,,,,2025-08-26,1,,,,,エッグアール,0
2277,9180001167952,新規,0,2025-08-26,2025-08-26,株式会社ＴＲＨ,,株式会社,愛知県,名古屋市北区,天道町３丁目２４番地－１０３号,,23,103,4620034,,,,,,,2025-08-26,1,,,,,ティーアールエイチ,0
2278,9180001168315,新規,0,2025-08-26,2025-08-26,ＶＡＬＳ株式会社,,株式会社,愛知県,名古屋市中区,丸の内３丁目１０番１２号,,23,106,4600002,,,,,,,2025-08-26,1,,,,,バルス,0
2279,9180001168331,新規,0,2025-08-26,2025-08-26,株式会社ＳＡＨＡＲＡ,,株式会社,愛知県,名古屋市中区,丸の内３丁目１５番１５号ダイアパレス丸の内３０３,,23,106,4600002,,,,,,,2025-08-26,1,,,,,サハラ,0
2298,9260001040481,新規,0,2025-08-26,2025-08-26,株式会社美和,,株式会社,岡山県,岡山市北区,吉備津１１５２－１,,33,101,7011341,,,,,,,2025-08-26,1,,,,,ミワ,0
2302,9280003001983,新規,0,2025-08-26,2025-08-26,みんなのｉｉｎａ十合同会社,,合同会社,島根県,飯石郡飯南町,上赤名３７８１‐３,,32,386,6903512,,,,,,,2025-08-26,1,,,,,ミンナノイイジュウ,0
2305,9290001111197,新規,0,2025-08-26,2025-08-26,株式会社ＢＥＡＵＴＥ‐ＩＮＴＩＭＥ,,株式会社,福岡県,福岡市中央区,長浜２丁目１番３０－１７０１号,,40,133,8100072,,,,,,,2025-08-26,1,,,,,ビューティーインタイム,0
2306,9290003017285,新規,0,2025-08-26,2025-08-26,写時合同会社,,合同会社,福岡県,福岡市西区,姪の浜６丁目１４－２７ウェストウッド姪浜３０２号室,,40,135,8190002,,,,,,,2025-08-26,1,,,,,ウツシトキ,0
2307,9300001014332,新規,0,2025-08-26,2025-08-26,Ｋｎｏｔ　Ｏｎｌｙ株式会社,,株式会社,佐賀県,鹿島市,大字高津原４２７５番地２,,41,207,8491311,,,,,,,2025-08-26,1,,,,,ノットオンリー,0
2312,9320003004750,新規,0,2025-08-26,2025-08-26,合同会社ＺＵＮＯ,,合同会社,大分県,大分市,大字宮崎１１７１－３,,44,201,8701133,,,,,,,2025-08-26,1,,,,,ズーノ,0
2318,9360005007277,新規,0,2025-08-26,2025-08-26,一般社団法人島の子未来応援基金,,その他の設立登記法人,沖縄県,宮古島市,平良字西里７番地ホテルアートアベニュー７階,,47,214,9060012,,,,,,,2025-08-26,1,,,,,シマノコミライオウエンキキン,0
2329,9430001095095,新規,0,2025-08-26,2025-08-26,株式会社ａｋｉｎＡＩ,,株式会社,北海道,札幌市中央区,南十七条西１３丁目２－２０－１０５,,01,101,0640917,,,,,,,2025-08-26,1,,,,,アキナイ,0
2330,9430001095112,新規,0,2025-08-26,2025-08-26,田崎株式会社,,株式会社,北海道,札幌市豊平区,中の島一条９丁目４番１４－１０２号,,01,105,0620921,,,,,,,2025-08-26,1,,,,,タサキ,0
2334,9450001014714,新規,0,2025-08-26,2025-08-26,株式会社右武経済センター,,株式会社,北海道,留萌市,本町３丁目６番地,,01,212,0770045,,,,,,,2025-08-26,1,,,,,ユウブケイザイセンター,0
2336,9700150131961,新規,0,2025-08-26,2025-08-26,ＨＯＭＥＰＬＵＳ　ＣＯ．，ＬＴＤ．,,外国会社等,,,,,,,,Ｒｍ３－３４３，ＴｏｗｅｒＢ，Ｎｏ．１８　ＬｏｎｇＱｉｎｇ　Ｓｔｒｅｅｔ，ＢＤＡ　Ｂｅｉｊｉｎｇ，１００１７６　Ｃｈｉｎａ,,,,,,2025-08-26,1,,,,,ベイジンディンシーションウェイディータンヨウシエンゴンスー,0
