sequenceNumber,corporateNumber,process,correct,updateDate,changeDate,name,nameImageId,kind,prefectureName,cityName,streetNumber,addressImageId,prefectureCode,cityCode,postCode,addressOutside,addressOutsideImageId,closeDate,closeCause,successorCorporateNumber,changeCause,assignmentDate,latest,enName,enPrefectureName,enCityName,enAddressOutside,furigana,hihyoji
4,1010001044341,登記記録の閉鎖等,0,2025-04-16,2025-04-01,三共帆布株式会社,,株式会社,東京都,中央区,日本橋蛎殻町１丁目２２番１－８０６号,,13,102,1030014,,,2025-04-01,清算の結了等,,,2015-10-05,1,,,,,サンキョウハンプ,0
18,1010401078831,登記記録の閉鎖等,0,2025-04-16,2025-03-26,株式会社Ｐｌｕｓ－ｏｎｅ,,株式会社,東京都,港区,南青山４丁目１６－１１,,13,103,1070062,,,2025-03-26,清算の結了等,,,2015-10-05,1,,,,,,0
29,1010501007979,登記記録の閉鎖等,0,2025-04-16,2025-04-01,タクトシステムズ株式会社,,株式会社,東京都,品川区,東五反田２丁目１０番２号,,13,109,1410022,,,2025-04-01,合併による解散等,3010701015193,令和７年４月１日東京都品川区大崎一丁目１１番２号コムチュア株式会社（3010701015193）に合併し解散,2015-10-05,1,,,,,タクトシステムズ,0
32,1010601043552,登記記録の閉鎖等,0,2025-04-16,2025-04-14,株式会社オフィスアルファ,,株式会社,東京都,江戸川区,南篠崎町１丁目７番地１４号,,13,123,1330065,,,2025-04-14,合併による解散等,8010001136248,令和７年３月１日東京都千代田区内幸町一丁目５番２号株式会社Ｎｏ．１（8010001136248）に合併し解散,2015-10-05,1,,,,,オフィスアルファ,0
35,1010602015955,登記記録の閉鎖等,0,2025-04-16,2025-04-04,有限会社林築炉工業所,,有限会社,東京都,墨田区,東向島３丁目２５番２号,,13,107,1310032,,,2025-04-04,清算の結了等,,,2015-10-05,1,,,,,,0
44,1011001006637,登記記録の閉鎖等,0,2025-04-16,2025-04-11,株式会社クガヤ・トータルサービス,,株式会社,東京都,世田谷区,深沢２丁目１番３－１９０１号,,13,112,1580081,,,2025-04-11,清算の結了等,,,2015-10-05,1,,,,,クガヤトータルサービス,0
50,1011003004671,登記記録の閉鎖等,0,2025-04-16,2025-04-09,エムワイコンサルティング合同会社,,合同会社,兵庫県,姫路市,上手野２４２番地１,,28,201,6700065,,,2025-04-09,清算の結了等,,,2015-10-05,1,,,,,エムワイコンサルティング,0
62,1011101087255,登記記録の閉鎖等,0,2025-04-16,2025-04-01,株式会社ＣＡＮＶＡＳ,,株式会社,東京都,新宿区,新宿５丁目１８番２１号,,13,104,1600022,,,2025-04-01,清算の結了等,,,2019-03-28,1,,,,,キャンバス,0
89,1013202005368,登記記録の閉鎖等,0,2025-04-16,2025-03-18,有限会社廣田工務店,,有限会社,東京都,目黒区,上目黒２丁目３２番６号,,13,110,1530051,,,2025-03-18,清算の結了等,,,2015-10-05,1,,,,,ヒロタコウムテン,0
96,1020001142210,登記記録の閉鎖等,0,2025-04-16,2025-04-01,Ｎｏｖｅｌｄａ　Ｊａｐａｎ株式会社,,株式会社,東京都,港区,虎ノ門４丁目３番１号城山トラストタワー２２階,,13,103,1050001,,,2025-04-01,清算の結了等,,,2021-07-15,1,,,,,ノヴェルダジャパン,0
121,1030002079962,登記記録の閉鎖等,0,2025-04-16,2025-04-11,有限会社柴田内装,,有限会社,埼玉県,川越市,大字古谷上１２番地５,,11,201,3500001,,,2025-04-11,清算の結了等,,,2015-10-05,1,,,,,シバタナイソウ,0
125,1040001022996,登記記録の閉鎖等,0,2025-04-16,2025-04-01,株式会社オアシスエクスプレス,,株式会社,千葉県,鎌ケ谷市,新鎌ケ谷３丁目４番６号,,12,224,2730107,,,2025-04-01,合併による解散等,4040001021599,令和７年４月１日千葉県鎌ケ谷市新鎌ケ谷三丁目４番６号株式会社オアシス（4040001021599）に合併し解散,2015-10-05,1,,,,,オアシスエクスプレス,0
138,1060002030393,登記記録の閉鎖等,0,2025-04-16,2025-04-07,有限会社エビハラ工業,,有限会社,栃木県,下野市,薬師寺７０５番地,,09,216,3290431,,,2025-04-07,清算の結了等,,,2015-10-05,1,,,,,エビハラコウギョウ,0
144,1080102021860,登記記録の閉鎖等,0,2025-04-16,2025-04-03,有限会社清野木工所,,有限会社,静岡県,賀茂郡西伊豆町,宇久須１３５６番地,,22,306,4103501,,,2025-04-03,清算の結了等,,,2015-10-05,1,,,,,キヨノモッコウショ,0
145,1080103002967,登記記録の閉鎖等,0,2025-04-16,2025-04-03,秋合同会社,,合同会社,静岡県,下田市,五丁目１１番２号,,22,219,4150025,,,2025-04-03,清算の結了等,,,2024-01-22,1,,,,,アキ,0
153,1110002002610,登記記録の閉鎖等,0,2025-04-16,2025-04-04,有限会社サンアクト,,有限会社,新潟県,新潟市西区,青山新町１７番地１１,,15,107,9502006,,,2025-04-04,清算の結了等,,,2015-10-05,1,,,,,サンアクト,0
162,1120001146093,登記記録の閉鎖等,0,2025-04-16,2025-04-01,シューギャラリーオオタ株式会社,,株式会社,大阪府,大阪市西成区,岸里１丁目３番３８号,,27,122,5570041,,,2025-04-01,清算の結了等,,,2015-10-05,1,,,,,シューギャラリーオオタ,0
195,1140002033842,登記記録の閉鎖等,0,2025-04-16,2025-04-11,有限会社長治建築設計事務所,,有限会社,兵庫県,相生市,陸本町１５番２２号,,28,208,6780007,,,2025-04-11,清算の結了等,,,2015-10-05,1,,,,,チョウジケンチクセッケイジムショ,0
200,1160002010303,登記記録の閉鎖等,0,2025-04-16,2025-04-09,有限会社メティス,,有限会社,滋賀県,東近江市,杠葉尾町８０８番地,,25,213,5270206,,,2025-04-09,清算の結了等,,,2015-10-05,1,,,,,メティス,0
228,1230001009710,登記記録の閉鎖等,0,2025-04-16,2025-04-09,株式会社今川雑穀店,,株式会社,富山県,高岡市,下黒田８４５番地,,16,202,9330852,,,2025-04-09,清算の結了等,,,2015-10-05,1,,,,,イマカワザッコクテン,0
250,1290001022212,登記記録の閉鎖等,0,2025-04-16,2025-04-01,千邦株式会社,,株式会社,福岡県,福岡市博多区,博多駅前１丁目４番４号東京建物博多ビル１１階,,40,132,8120011,,,2025-04-01,合併による解散等,1290001003047,令和７年４月１日福岡市博多区博多駅前１－４－４東京建物ビル１１Ｆ株式会社ケーメディヤ販売（1290001003047）に合併し解散,2015-10-05,1,,,,,センポウ,0
264,1330002002043,登記記録の閉鎖等,0,2025-04-16,2025-04-07,有限会社カイ企画,,有限会社,熊本県,菊池郡菊陽町,大字原水１１７９番地１４,,43,404,8691102,,,2025-04-07,清算の結了等,,,2015-10-05,1,,,,,カイキカク,0
277,1380001032838,登記記録の閉鎖等,0,2025-04-16,2025-04-01,株式会社ＡＣＴ,,株式会社,福島県,相馬郡飯舘村,関沢字中里１０,,07,564,9601804,,,2025-04-01,清算の結了等,,,2022-05-24,1,,,,,,0
280,1380002017771,登記記録の閉鎖等,0,2025-04-16,2025-03-31,有限会社小針電機工業,,有限会社,福島県,西白河郡西郷村,大字熊倉字五反歩５０番地,,07,461,9618091,,,2025-03-31,清算の結了等,,,2015-10-05,1,,,,,コバリデンキコウギョウ,0
282,1390001010090,登記記録の閉鎖等,0,2025-04-16,2025-04-14,株式会社フーディー,,株式会社,山形県,米沢市,中田町１２０９番地の９,,06,202,9920011,,,2025-04-14,合併による解散等,2110001013962,令和７年４月１日新潟県三条市西本成寺二丁目２６番５７号株式会社オーシャンシステム（2110001013962）に合併し解散,2015-10-05,1,,,,,フーディー,0
289,1420001006176,登記記録の閉鎖等,0,2025-04-16,2025-04-11,東北飼料株式会社,,株式会社,青森県,八戸市,大字河原木字海岸２４番地８,,02,203,0391161,,,2025-04-11,合併による解散等,7020001107810,令和７年４月１日横浜市西区みなとみらい五丁目１番２号フィード・ワン株式会社（7020001107810）に合併し解散,2015-10-05,1,,,,,トウホクシリョウ,0
294,1430002015720,登記記録の閉鎖等,0,2025-04-16,2025-04-04,有限会社畑田設備工業,,有限会社,北海道,札幌市手稲区,前田八条１０丁目４番１５号,,01,109,0060818,,,2025-04-04,清算の結了等,,,2015-10-05,1,,,,,ハタダセツビコウギョウ,0
311,2010001022718,登記記録の閉鎖等,0,2025-04-16,2025-04-01,株式会社中央公論事業出版,,株式会社,東京都,千代田区,神田神保町１丁目１０番１号,,13,101,1010051,,,2025-04-01,合併による解散等,2010001050215,令和７年４月１日東京都千代田区神田神保町一丁目１０番１号株式会社中央公論美術出版（2010001050215）に合併し解散,2015-10-05,1,,,,,チュウオウコウロンジギョウシュッパン,0
315,2010001050818,登記記録の閉鎖等,0,2025-04-16,2025-04-09,ＢＸ鐵矢株式会社,,株式会社,千葉県,柏市,十余二３８０番地,,12,217,2770872,,,2025-04-09,合併による解散等,3030001042606,令和７年４月１日埼玉県上尾市大字平塚字西原７５３番地ＢＸティアール株式会社（3030001042606）に合併し解散,2015-10-05,1,,,,,ビーエックステツヤ,0
316,2010001083231,登記記録の閉鎖等,0,2025-04-16,2025-04-01,キングラン・メディケア株式会社,,株式会社,東京都,千代田区,神田須田町１丁目１０番地,,13,101,1010041,,,2025-04-01,合併による解散等,3010001014945,令和７年４月１日東京都千代田区神田須田町一丁目１０番地キングラン株式会社（3010001014945）に合併し解散,2015-10-05,1,,,,,キングランメディケア,0
341,2010403006764,登記記録の閉鎖等,0,2025-04-16,2025-03-25,ＯＰリスクマネジメント合同会社,,合同会社,東京都,港区,芝浦４丁目１０番１－２９０７号,,13,103,1080023,,,2025-03-25,清算の結了等,,,2015-10-05,1,,,,,オーピーリスクマネジメント,0
383,2011801006042,登記記録の閉鎖等,0,2025-04-16,2025-04-09,株式会社市村工業所,,株式会社,東京都,足立区,関原２丁目８番２４号,,13,121,1230852,,,2025-04-09,清算の結了等,,,2015-10-05,1,,,,,イチムラコウギョウショ,0
398,2020001110430,登記記録の閉鎖等,0,2025-04-16,2025-04-03,株式会社新生商事,,株式会社,山梨県,南都留郡富士河口湖町,船津３２２５－２,,19,430,4010301,,,2025-04-03,清算の結了等,,,2015-10-05,1,,,,,シンセイショウジ,0
404,2030001011859,登記記録の閉鎖等,0,2025-04-16,2025-04-09,ランスタッフ株式会社,,株式会社,埼玉県,さいたま市北区,東大成町１丁目４６０番地,,11,102,3310814,,,2025-04-09,合併による解散等,9030001010516,令和７年４月１日埼玉県さいたま市北区東大成町一丁目４６０番地株式会社ティーエス・プロ（9030001010516）に合併し解散,2015-10-05,1,,,,,ランスタッフ,0
409,2030001072686,登記記録の閉鎖等,0,2025-04-16,2025-04-11,株式会社いずみガード・サービス,,株式会社,埼玉県,草加市,瀬崎３丁目３２番１２号,,11,221,3400022,,,2025-04-11,清算の結了等,,,2015-10-05,1,,,,,イズミガードサービス,0
427,2050001044898,登記記録の閉鎖等,0,2025-04-16,2025-04-03,株式会社永和,,株式会社,茨城県,常陸太田市,大森町１４２７番地の５６,,08,212,3130021,,,2025-04-03,清算の結了等,,,2018-09-07,1,,,,,エイワ,0
428,2050001054906,登記記録の閉鎖等,0,2025-04-16,2025-04-03,株式会社ＮＣＡ,,株式会社,茨城県,つくば市,吾妻１丁目５番地７ダイワロイネットホテルつくばビル１階,,08,220,3050031,,,2025-04-03,清算の結了等,,,2024-06-12,1,,,,,エヌシーエー,0
429,2050002031838,登記記録の閉鎖等,0,2025-04-16,2025-04-07,有限会社ＡＲＣアーク,,有限会社,茨城県,那珂郡東海村,大字白方１６４７－１百塚マンション３０３号,,08,341,3191106,,,2025-04-07,清算の結了等,,,2015-10-05,1,,,,,エーアールシーアーク,0
430,2050002031978,登記記録の閉鎖等,0,2025-04-16,2025-04-07,有限会社多賀モデル,,有限会社,茨城県,日立市,十王町伊師本郷１１９６番地４,,08,202,3191302,,,2025-04-07,清算の結了等,,,2015-10-05,1,,,,,タガモデル,0
431,2050005012827,登記記録の閉鎖等,0,2025-04-16,2025-04-04,協同組合リンクウィズ,,その他の設立登記法人,茨城県,ひたちなか市,大字枝川２４５７番地,,08,221,3120035,,,2025-04-04,清算の結了等,,,2021-02-18,1,,,,,リンクウィズ,0
432,2060003005303,登記記録の閉鎖等,0,2025-04-16,2025-04-01,真美合同会社,,合同会社,栃木県,河内郡上三川町,大字大山６７３番地１０,,09,301,3290525,,,2025-04-01,清算の結了等,,,2024-10-25,1,,,,,マミ,0
484,2140001031103,登記記録の閉鎖等,0,2025-04-16,2025-04-08,株式会社エスライズ,,株式会社,兵庫県,神戸市東灘区,北青木４丁目１５番８号,,28,101,6580014,,,2025-04-08,合併による解散等,4140001030706,令和７年４月８日神戸市中央区琴ノ緒町二丁目２番１号株式会社エスグロー（4140001030706）に合併し解散,2015-10-05,1,,,,,エスライズ,0
485,2140001055845,登記記録の閉鎖等,0,2025-04-16,2025-04-01,岡本自動車販売株式会社,,株式会社,兵庫県,豊岡市,昭和町６番１号,,28,209,6680055,,,2025-04-01,合併による解散等,3140001039401,令和７年４月１日兵庫県宍粟市山崎町庄能３８４番地５株式会社ホンダカーズ播但中央（3140001039401）に合併し解散,2015-10-05,1,,,,,オカモトジドウシャハンバイ,0
513,2180005004613,登記記録の閉鎖等,0,2025-04-16,2025-04-09,協同組合名古屋綜合医療センター,,その他の設立登記法人,愛知県,名古屋市守山区,西新１４番２号,,23,113,4630055,,,2025-04-09,清算の結了等,,,2015-10-05,1,,,,,ナゴヤソウゴウイリョウセンター,0
521,2220001015452,登記記録の閉鎖等,0,2025-04-16,2025-04-01,北鉄能登バス株式会社,,株式会社,石川県,七尾市,津向町ト１０７番地２,,17,202,9260853,,,2025-04-01,合併による解散等,8220001016718,令和７年４月１日七尾市津向町ト１０７番地２北鉄能登バス株式会社（8220001016718）に合併し解散,2015-10-05,1,,,,,ホクテツノトバス,0
522,2230001014387,登記記録の閉鎖等,0,2025-04-16,2025-04-14,株式会社センダイ技術士事務所,,株式会社,富山県,黒部市,岡２１２番地,,16,207,9380054,,,2025-04-14,清算の結了等,,,2015-10-05,1,,,,,センダイギジュツシジムショ,0
531,2240001034995,登記記録の閉鎖等,0,2025-04-16,2025-04-01,ウエスト商事株式会社,,株式会社,広島県,福山市,曙町４丁目１９番１１号,,34,207,7210952,,,2025-04-01,合併による解散等,7240001030115,令和７年４月１日広島県福山市曙町四丁目１９番１１号ウエスト砿産株式会社（7240001030115）に合併し解散,2015-10-05,1,,,,,ウエストショウジ,0
545,2290001025395,登記記録の閉鎖等,0,2025-04-16,2025-04-01,ＪＲ九州リネン株式会社,,株式会社,福岡県,糟屋郡須惠町,大字旅石８６番地３５７,,40,344,8112221,,,2025-04-01,合併による解散等,1290801005366,令和７年４月１日福岡市博多区博多駅中央街７番２１号ＪＲ九州サービスサポート株式会社（1290801005366）に合併し解散,2015-10-05,1,,,,,ジェイアールキュウシュウリネン,0
589,2480005001381,登記記録の閉鎖等,0,2025-04-16,2025-03-28,天理教北佐古分教会,,その他の設立登記法人,徳島県,徳島市,中前川町２丁目４番地の２,,36,201,7700807,,,2025-03-28,合併による解散等,1480005001424,令和７年３月２８日徳島市出来島本町二丁目３１番地天理教眉山分教会（1480005001424）に合併し解散,2015-10-05,1,,,,,テンリキョウキタサコブンキョウカイ,0
592,2490002012975,登記記録の閉鎖等,0,2025-04-16,2025-04-11,有限会社南石油店,,有限会社,高知県,安芸郡安田町,大字安田１７９０番地,,39,304,7816421,,,2025-04-11,清算の結了等,,,2015-10-05,1,,,,,ミナミセキユテン,0
593,2490005003105,登記記録の閉鎖等,0,2025-04-16,2025-04-04,七所神社,,その他の設立登記法人,高知県,吾川郡仁淀川町,橘２４番地,,39,387,7811758,,,2025-04-04,合併による解散等,3490005003104,令和４年８月４日高知県吾川郡仁淀川町峠ノ越１０１番地菜野川神社（3490005003104）に合併し解散,2015-10-05,1,,,,,,0
598,3010001029472,登記記録の閉鎖等,0,2025-04-16,2025-04-01,丸紅エッグ株式会社,,株式会社,東京都,中央区,日本橋室町４丁目５番１号,,13,102,1030022,,,2025-04-01,合併による解散等,2010001029465,令和７年４月１日東京都中央区日本橋室町四丁目５番１号日清丸紅飼料株式会社（2010001029465）に合併し解散,2015-10-05,1,,,,,マルベニエッグ,0
615,3010401108470,登記記録の閉鎖等,0,2025-04-16,2025-04-10,株式会社ＦＬトクヤマ,,株式会社,東京都,千代田区,外神田１丁目７番５号フロントプレイス秋葉原,,13,101,1010021,,,2025-04-10,合併による解散等,1250001009080,令和７年４月１日山口県周南市御影町１番１号株式会社トクヤマ（1250001009080）に合併し解散,2015-10-05,1,,,,,エフエルトクヤマ,0
625,3010403027322,登記記録の閉鎖等,0,2025-04-16,2025-03-25,合同会社ＡＧＡＩＮ　ＴＯＫＹＯ,,合同会社,東京都,港区,芝４丁目７番１号西山ビル４階,,13,103,1080014,,,2025-03-25,清算の結了等,,,2022-03-31,1,,,,,アゲイントウキョウ,0
628,3010501028916,登記記録の閉鎖等,0,2025-04-16,2025-04-03,株式会社エフシー保険センター,,株式会社,東京都,台東区,谷中７丁目１８番１７号,,13,106,1100001,,,2025-04-03,清算の結了等,,,2015-10-05,1,,,,,エフシーホケンセンター,0
629,3010501033651,登記記録の閉鎖等,0,2025-04-16,2025-04-10,株式会社ＧＲＩＭＭ,,株式会社,東京都,台東区,寿１丁目１番５号,,13,106,1110042,,,2025-04-10,合併による解散等,1290001015967,令和７年４月１日福岡市東区多の津一丁目１１番１１号株式会社ヒデトレーディング（1290001015967）に合併し解散,2015-10-05,1,,,,,グリム,0
685,3020002061886,登記記録の閉鎖等,0,2025-04-16,2025-04-07,有限会社さくら電子,,有限会社,神奈川県,横浜市都筑区,折本町１３３６番地,,14,118,2240043,,,2025-04-07,清算の結了等,,,2015-10-05,1,,,,,サクラデンシ,0
687,3020003018745,登記記録の閉鎖等,0,2025-04-16,2025-04-03,合同会社Ｇｒａｃｅ　Ｇａｒｄｅｎ,,合同会社,山梨県,山梨市,七日市場６３０－３,,19,205,4050007,,,2025-04-03,清算の結了等,,,2020-11-06,1,,,,,,0
697,3030001069500,登記記録の閉鎖等,0,2025-04-16,2025-04-10,アフテック株式会社,,株式会社,埼玉県,坂戸市,芦山町１番地（１－５１０）北坂戸駅前第二ハイツ,,11,239,3500273,,,2025-04-10,清算の結了等,,,2015-10-05,1,,,,,アフテック,0
707,3030002038388,登記記録の閉鎖等,0,2025-04-16,2025-04-11,有限会社シティホール豊田,,有限会社,静岡県,磐田市,上万能２８６番地,,22,211,4380817,,,2025-04-11,合併による解散等,6120901021465,令和７年４月１日東京都杉並区今川三丁目１４番３号ハラダ協同サービス株式会社（6120901021465）に合併し解散,2015-10-05,1,,,,,シティホールトヨタ,0
718,3030005008537,登記記録の閉鎖等,0,2025-04-16,2025-04-10,医療法人萩原オプティカル,,その他の設立登記法人,埼玉県,川越市,大字砂新田５７番地４,,11,201,3501137,,,2025-04-10,清算の結了等,,,2015-10-05,1,,,,,ハギワラオプティカル,0
720,3040001012070,登記記録の閉鎖等,0,2025-04-16,2025-04-02,株式会社中代装飾,,株式会社,千葉県,千葉市花見川区,幕張本郷５丁目２５番５号,,12,102,2620033,,,2025-04-02,清算の結了等,,,2015-10-05,1,,,,,ナカダイソウショク,0
724,3040001124147,登記記録の閉鎖等,0,2025-04-16,2025-04-01,株式会社朝日森成田,,株式会社,千葉県,山武郡芝山町,香山新田３３番地１,,12,409,2891601,,,2025-04-01,清算の結了等,,,2022-07-08,1,,,,,アサヒモリナリタ,0
730,3040002089471,登記記録の閉鎖等,0,2025-04-16,2025-04-02,有限会社柏銘木建材,,有限会社,千葉県,柏市,新富町２丁目１６番３１号,,12,217,2770856,,,2025-04-02,清算の結了等,,,2015-10-05,1,,,,,カシワメイボクケンザイ,0
735,3070001013009,登記記録の閉鎖等,0,2025-04-16,2025-04-09,株式会社金富士ホールディングス,,株式会社,群馬県,前橋市,力丸町１１３番地,,10,201,3792134,,,2025-04-09,清算の結了等,,,2015-10-05,1,,,,,キンフジホールディングス,0
737,3070001025391,登記記録の閉鎖等,0,2025-04-16,2025-04-08,株式会社たつみ,,株式会社,群馬県,北群馬郡榛東村,大字新井１４９１番地,,10,344,3703503,,,2025-04-08,清算の結了等,,,2015-10-05,1,,,,,タツミ,0
744,3110001001330,登記記録の閉鎖等,0,2025-04-16,2025-04-04,インフォメーションネットワークサービス株式会社,,株式会社,新潟県,新潟市東区,中野山１丁目４番地５,,15,102,9500841,,,2025-04-04,清算の結了等,,,2015-10-05,1,,,,,インフォメーションネットワークサービス,0
745,3110001007138,登記記録の閉鎖等,0,2025-04-16,2025-04-04,第２新興タクシー株式会社,,株式会社,新潟県,新潟市秋葉区,小須戸２０番地１,,15,105,9560101,,,2025-04-04,清算の結了等,,,2015-10-05,1,,,,,ダイニシンコウタクシー,0
771,3120901027762,登記記録の閉鎖等,0,2025-04-16,2025-04-02,テグテックジャパン株式会社,,株式会社,大阪府,豊中市,新千里東町１丁目５番３号,,27,203,5600082,,,2025-04-02,合併による解散等,2120901022789,令和７年４月１日大阪府豊中市新千里東町一丁目５番３号イスカルジャパン株式会社（2120901022789）に合併し解散,2015-10-05,1,,,,,テグテックジャパン,0
790,3160002010466,登記記録の閉鎖等,0,2025-04-16,2025-04-03,有限会社オンデマンド,,有限会社,滋賀県,近江八幡市,中小森町７２２－５,,25,204,5230041,,,2025-04-03,清算の結了等,,,2015-10-05,1,,,,,オンデマンド,0
791,3170002011769,登記記録の閉鎖等,0,2025-04-16,2025-04-14,有限会社読売ＹＣ串本,,有限会社,和歌山県,東牟婁郡串本町,串本１８６５番地,,30,428,6493503,,,2025-04-14,清算の結了等,,,2015-10-05,1,,,,,ヨミウリワイシークシモト,0
808,3190001010646,登記記録の閉鎖等,0,2025-04-16,2025-04-10,三重リース株式会社,,株式会社,三重県,松阪市,宮町１７２番地の８,,24,204,5150015,,,2025-04-10,合併による解散等,8190001016366,令和７年４月１日三重県四日市市幸町２番４号三十三リース株式会社（8190001016366）に合併し解散,2015-10-05,1,,,,,ミエリース,0
815,3220003003181,登記記録の閉鎖等,0,2025-04-16,2025-04-11,合同会社ＹＵＩＫＯ　ＪＡＰＡＮ　ＢＤ　ＬＴＤ,,合同会社,石川県,金沢市,西念２丁目１４番１号（１３０１）,,17,201,9200024,,,2025-04-11,清算の結了等,,,2022-01-14,1,,,,,ユイコージャパンバングラデシュエルティーディー,0
818,3230001016762,登記記録の閉鎖等,0,2025-04-16,2025-04-10,ロルドコミュニケーションズ株式会社,,株式会社,富山県,富山市,古沢４１０番地２,,16,201,9300151,,,2025-04-10,清算の結了等,,,2017-01-11,1,,,,,ロルドコミュニケーションズ,0
837,3290002020758,登記記録の閉鎖等,0,2025-04-16,2025-04-01,有限会社ランドスケープ,,有限会社,福岡県,福岡市東区,多の津１丁目１１番１１号,,40,131,8130034,,,2025-04-01,合併による解散等,2290001065813,令和７年４月１日福岡市東区多の津一丁目１１番１１号株式会社ＳＨＡＥＬＥ（2290001065813）に合併し解散,2015-10-05,1,,,,,ランドスケープ,0
839,3290801010199,登記記録の閉鎖等,0,2025-04-16,2025-04-14,株式会社太陽サービス,,株式会社,福岡県,北九州市戸畑区,初音町６番４号,,40,105,8040066,,,2025-04-14,清算の結了等,,,2015-10-05,1,,,,,タイヨウサービス,0
840,3290801024769,登記記録の閉鎖等,0,2025-04-16,2025-04-01,株式会社ＵＰ　ＦＩＥＬＤ,,株式会社,福岡県,福岡市博多区,博多駅東１丁目１６番６号,,40,132,8120013,,,2025-04-01,合併による解散等,1290001018276,令和７年４月１日福岡市博多区博多駅東一丁目１６番６号株式会社富世（1290001018276）に合併し解散,2018-07-05,1,,,,,アップフィールド,0
841,3290802020445,登記記録の閉鎖等,0,2025-04-16,2025-04-14,有限会社月成鉄工所,,有限会社,福岡県,直方市,大字直方３８２番地の１,,40,204,8220016,,,2025-04-14,清算の結了等,,,2015-10-05,1,,,,,ツキナリテッコウショ,0
853,3340001006612,登記記録の閉鎖等,0,2025-04-16,2025-04-09,株式会社パレス鹿児島,,株式会社,鹿児島県,鹿児島市,平川町６１１番地６,,46,201,8910133,,,2025-04-09,清算の結了等,,,2015-10-05,1,,,,,パレスカゴシマ,0
856,3350001000770,登記記録の閉鎖等,0,2025-04-16,2025-04-07,ジス・ホーム株式会社,,株式会社,宮崎県,宮崎市,清武町加納甲１７３３番地の１,,45,201,8891605,,,2025-04-07,清算の結了等,,,2015-10-05,1,,,,,ジスホーム,0
870,3380002027645,登記記録の閉鎖等,0,2025-04-16,2025-04-01,有限会社アイＦＰ保険,,有限会社,福島県,いわき市,平下平窪字大念仏４番地の８,,07,204,9708003,,,2025-04-01,清算の結了等,,,2015-10-05,1,,,,,アイエフピーホケン,0
871,3400001001994,登記記録の閉鎖等,0,2025-04-16,2025-04-01,創成商事株式会社,,株式会社,岩手県,盛岡市,羽場１３地割３０番地１１,,03,201,0200841,,,2025-04-01,合併による解散等,3400002003882,令和７年４月１日岩手県盛岡市羽場１３地割３０番地１１株式会社北日本総合設備サービス（3400002003882）に合併し解散,2015-10-05,1,,,,,ソウセイショウジ,0
888,3450001009190,登記記録の閉鎖等,0,2025-04-16,2025-04-08,株式会社タムラ建設工業,,株式会社,北海道,留萌市,五十嵐町１丁目９番１号,,01,212,0770023,,,2025-04-08,清算の結了等,,,2015-10-05,1,,,,,タムラケンセツ,0
895,3700150128063,登記記録の閉鎖等,0,2025-04-16,2025-04-02,群青財団設立準備会,,その他,大阪府,高槻市,北大樋町１３番４号,,27,207,5690041,,,2025-04-02,その他の清算の結了等,,,2024-12-05,1,,,,,グンジョウザイダンセツリツジュンビカイ,0
919,4010401078341,登記記録の閉鎖等,0,2025-04-16,2025-04-14,三共生興アパレルファッション株式会社,,株式会社,東京都,中央区,日本橋富沢町１１番１２号,,13,102,1030006,,,2025-04-14,合併による解散等,6140001007875,令和７年４月１日大阪市中央区安土町二丁目５番６号三共生興株式会社（6140001007875）に合併し解散,2015-10-05,1,"SANKYO SEIKO APPAREL FASHION CO.,LTD",Tokyo,"11-12,Tomizawa-Cho,Nihonbashi, Chuo ku",,サンキョウセイコウアパレルファッション,0
934,4010701029721,登記記録の閉鎖等,0,2025-04-16,2025-04-03,株式会社オークランド,,株式会社,東京都,江東区,有明３丁目５番７号,,13,108,1350063,,,2025-04-03,清算の結了等,,,2015-10-05,1,,,,,オークランド,0
951,4011101071264,登記記録の閉鎖等,0,2025-04-16,2025-04-01,株式会社ＫＡＴＳＵ－ｄｏ,,株式会社,東京都,新宿区,新宿５丁目１８番２１号,,13,104,1600022,,,2025-04-01,清算の結了等,,,2015-10-05,1,,,,,カツドウ,0
963,4011501016208,登記記録の閉鎖等,0,2025-04-16,2025-04-09,株式会社コミュニケーションサーカス,,株式会社,東京都,足立区,入谷７丁目１１番１８号,,13,121,1210836,,,2025-04-09,合併による解散等,9010401116328,令和７年４月１日東京都港区虎ノ門三丁目２５番３号株式会社フィリア（9010401116328）に合併し解散,2015-10-05,1,,,,,コミュニケーションサーカス,0
979,4020001076389,登記記録の閉鎖等,0,2025-04-16,2025-04-14,株式会社トータルプランニング,,株式会社,東京都,渋谷区,恵比寿４丁目２０番３号恵比寿ガーデンプレイスタワー１８階,,13,113,1500013,,,2025-04-14,合併による解散等,7012401009240,令和７年４月１日東京都狛江市東和泉二丁目４番８号株式会社東都（7012401009240）に合併し解散,2015-10-05,1,,,,,トータルプランニング,0
981,4020003020493,登記記録の閉鎖等,0,2025-04-16,2025-04-07,キャットラスト合同会社,,合同会社,神奈川県,川崎市宮前区,宮崎２丁目１２番地１４オーベル宮崎台４０４,,14,136,2160033,,,2025-04-07,清算の結了等,,,2021-09-21,1,,,,,キャットラスト,0
991,4030001137883,登記記録の閉鎖等,0,2025-04-16,2025-04-09,株式会社ライフパスポート,,株式会社,埼玉県,さいたま市見沼区,大字南中野１１９６番地１１,,11,104,3370042,,,2025-04-09,清算の結了等,,,2020-08-24,1,,,,,ライフパスポート,0
1003,4030003006054,登記記録の閉鎖等,0,2025-04-16,2025-04-10,エフアンドエフインターナショナル合同会社,,合同会社,埼玉県,三郷市,早稲田６丁目２２番地４,,11,237,3410018,,,2025-04-10,清算の結了等,,,2015-10-05,1,,,,,エフアンドエフインターナショナル,0
1014,4040001105088,登記記録の閉鎖等,0,2025-04-16,2025-04-02,ＡＳＡデザイン株式会社,,株式会社,千葉県,千葉市若葉区,みつわ台４丁目２番１４号,,12,104,2640032,,,2025-04-02,清算の結了等,,,2018-06-19,1,,,,,エーエスエーデザイン,0
1016,4040002067393,登記記録の閉鎖等,0,2025-04-16,2025-04-02,有限会社南装,,有限会社,千葉県,木更津市,請西６９８番地,,12,206,2920801,,,2025-04-02,清算の結了等,,,2015-10-05,1,,,,,ナンソウ,0
1021,4050001028453,登記記録の閉鎖等,0,2025-04-16,2025-04-07,株式会社茨城総合環境,00022334,株式会社,茨城県,取手市,稲１４３２番地,,08,217,3020026,,,2025-04-07,清算の結了等,,,2015-10-05,1,,,,,イバラキソウゴウカンキョウ,0
1031,4080002003048,登記記録の閉鎖等,0,2025-04-16,2025-04-10,有限会社駿河建設機械,,有限会社,静岡県,静岡市駿河区,西脇１２８１番地の６,,22,102,4228044,,,2025-04-10,清算の結了等,,,2015-10-05,1,,,,,スルガケンセツキカイ,0
1037,4090001017502,登記記録の閉鎖等,0,2025-04-16,2025-04-02,株式会社ＪＣＰＹ,,株式会社,山梨県,山梨市,小原東６７６番地４,,19,205,4050005,,,2025-04-02,清算の結了等,,,2022-04-05,1,,,,,ジェイシーピーワイ,0
1049,4120001027423,登記記録の閉鎖等,0,2025-04-16,2025-04-01,宏栄産業株式会社,,株式会社,大阪府,大阪市大正区,北村２丁目２番２２号,,27,108,5510032,,,2025-04-01,清算の結了等,,,2015-10-05,1,,,,,コウエイサンギョウ,0
1082,4122001008675,登記記録の閉鎖等,0,2025-04-16,2025-04-11,株式会社関西オカムラ,,株式会社,大阪府,東大阪市,稲田上町２丁目８番６３号,,27,227,5770002,,,2025-04-11,合併による解散等,3020001030157,令和７年４月１日横浜市西区北幸二丁目７番１８号株式会社オカムラ（3020001030157）に合併し解散,2015-10-05,1,,,,,,0
1105,4180001082248,登記記録の閉鎖等,0,2025-04-16,2025-04-07,株式会社エッセンサンラク,,株式会社,愛知県,一宮市,栄３丁目８番１４号,,23,203,4910858,,,2025-04-07,清算の結了等,,,2015-10-05,1,,,,,エッセンサンラク,0
1109,4180002087568,登記記録の閉鎖等,0,2025-04-16,2025-04-07,有限会社小浜産業,,有限会社,愛知県,東海市,富木島町伏見４丁目４番地の１３,,23,222,4760012,,,2025-04-07,清算の結了等,,,2015-10-05,1,,,,,,0
1111,4180301007763,登記記録の閉鎖等,0,2025-04-16,2025-04-01,株式会社久田運輸,,株式会社,愛知県,田原市,加治町諸田５８番地１,,23,231,4413427,,,2025-04-01,合併による解散等,3180301007764,令和７年４月１日愛知県田原市加治町諸田５８番地１株式会社久田組（3180301007764）に合併し解散,2015-10-05,1,,,,,ヒサダウンユ,0
1120,4230001013206,登記記録の閉鎖等,0,2025-04-16,2025-04-11,株式会社タカナミ,,株式会社,富山県,射水市,広上２０００番地３９,,16,211,9390256,,,2025-04-11,清算の結了等,,,2015-10-05,1,,,,,タカナミ,0
1132,4290001093606,登記記録の閉鎖等,0,2025-04-16,2025-04-01,株式会社ヤンチャフーズ,,株式会社,福岡県,福岡市博多区,博多駅東２丁目４番３０号いわきビル１０１,,40,132,8120013,,,2025-04-01,合併による解散等,8290001092570,令和７年４月１日福岡市博多区博多駅東二丁目４番３０号いわきビル１０１株式会社エイチアイスタイル（8290001092570）に合併し解散,2021-06-17,1,,,,,ヤンチャフーズ,0
1136,4290002031556,登記記録の閉鎖等,0,2025-04-16,2025-04-14,株式会社健幸堂,,株式会社,東京都,新宿区,築地町４番地,,13,104,1620818,,,2025-04-14,合併による解散等,7030001072566,令和７年４月１日東京都練馬区北町三丁目２０番１３号ミュージックサイエンスラボ株式会社（7030001072566）に合併し解散,2015-10-05,1,,,,,ケンコウドウ,0
1145,4300001000238,登記記録の閉鎖等,0,2025-04-16,2025-04-10,株式会社九州計測機,,株式会社,佐賀県,佐賀市,木原２丁目２２番２３号,,41,201,8400015,,,2025-04-10,清算の結了等,,,2015-10-05,1,,,,,キュウシュウケイソクキ,0
1152,4310005000159,登記記録の閉鎖等,0,2025-04-16,2025-04-10,大長崎旅館協同組合,,その他の設立登記法人,長崎県,長崎市,元船町５番９号,,42,201,8500035,,,2025-04-10,清算の結了等,,,2015-10-05,1,,,,,ダイナガサキリョカン,0
1165,4360001020016,登記記録の閉鎖等,0,2025-04-16,2025-04-07,南城防災技研株式会社,,株式会社,沖縄県,南城市,玉城字船越７６６番地３,,47,215,9010618,,,2025-04-07,清算の結了等,,,2015-10-19,1,,,,,ナンジョウボウサイギケン,0
1168,4370005010318,登記記録の閉鎖等,0,2025-04-16,2025-04-01,司法書士法人わたりやまもと,,その他の設立登記法人,宮城県,亘理郡山元町,山寺字山下８９番地,,04,362,9892201,,,2025-04-01,合併による解散等,3010005039526,令和７年４月１日東京都千代田区飯田橋二丁目１４番５号ＰｕｒｅＷｏｏｄガーデン３階司法書士法人ベル総合事務所（3010005039526）に合併し解散,2021-07-21,1,,,,,ワタリヤマモト,0
1193,5010001200601,登記記録の閉鎖等,0,2025-04-16,2025-04-04,アポプラスヘルスケア株式会社,,株式会社,東京都,中央区,日本橋２丁目１４番１号,,13,102,1030027,,,2025-04-04,合併による解散等,7010001134013,令和７年４月１日東京都中央区日本橋二丁目１４番１号アポプラスステーション株式会社（7010001134013）に合併し解散,2019-05-09,1,,,,,アポプラスヘルスケア,0
1215,5010401139200,登記記録の閉鎖等,0,2025-04-16,2025-03-27,株式会社ＨＰＣ,,株式会社,東京都,港区,新橋５丁目８番１３号,,13,103,1050004,,,2025-03-27,清算の結了等,,,2018-06-27,1,,,,,エイチピーシー,0
1221,5010501027734,登記記録の閉鎖等,0,2025-04-16,2025-04-01,エスケイジャパンＲ＆Ｄ株式会社,,株式会社,福岡県,筑紫野市,桜台２丁目２３番２号,,40,217,8180063,,,2025-04-01,合併による解散等,8290001041800,令和７年４月１日福岡県筑紫野市桜台二丁目２３番２号エスケイジャパン株式会社（8290001041800）に合併し解散,2015-10-05,1,,,,,エスケイジャパンアールアンドディー,0
1225,5010601003494,登記記録の閉鎖等,0,2025-04-16,2025-04-03,株式会社篠崎商店,,株式会社,東京都,江東区,亀戸４丁目２８番１５号,,13,108,1360071,,,2025-04-03,清算の結了等,,,2015-10-05,1,,,,,シノザキショウテン,0
1242,5011003019666,登記記録の閉鎖等,0,2025-04-16,2025-04-01,合同会社サンドラッグ酒店,,合同会社,東京都,府中市,若松町１丁目３８番地の１,,13,206,1830005,,,2025-04-01,合併による解散等,1012401000634,令和７年３月３１日東京都府中市若松町一丁目３８番地の１株式会社サンドラッグ（1012401000634）に合併し解散,2024-07-30,1,,,,,サンドラッグサケテン,0
1260,5012703001987,登記記録の閉鎖等,0,2025-04-16,2025-03-27,合同会社ファスタ,,合同会社,東京都,港区,南青山２丁目２番１５号,,13,103,1070062,,,2025-03-27,清算の結了等,,,2020-06-22,1,,,,,ファスタ,0
1261,5013201001595,登記記録の閉鎖等,0,2025-04-16,2025-04-14,東急技術センター株式会社,,株式会社,東京都,目黒区,青葉台３丁目１７番１３号,,13,110,1530042,,,2025-04-14,合併による解散等,1013201004024,令和７年４月１日東京都世田谷区用賀四丁目１０番２号東急プロパティマネジメント株式会社（1013201004024）に合併し解散,2015-10-05,1,,,,,トウキュウギジュツセンター,0
1274,5020001113521,登記記録の閉鎖等,0,2025-04-16,2025-04-08,堀田建設株式会社,,株式会社,神奈川県,横浜市瀬谷区,瀬谷１丁目５番地１３,,14,114,2460031,,,2025-04-08,清算の結了等,,,2015-11-11,1,,,,,ホリタケンセツ,0
1277,5020002069507,登記記録の閉鎖等,0,2025-04-16,2025-04-07,有限会社アオイサインリミテッド,,有限会社,神奈川県,横浜市神奈川区,沢渡５０番地の１,,14,102,2210844,,,2025-04-07,清算の結了等,,,2015-10-05,1,,,,,アオイサインリミテッド,0
1278,5020002074969,登記記録の閉鎖等,0,2025-04-16,2025-04-08,有限会社アイエムティ,,有限会社,神奈川県,横浜市中区,本町１丁目７番地,,14,104,2310005,,,2025-04-08,清算の結了等,,,2015-10-05,1,,,,,アイエムティ,0
1290,5030001111433,登記記録の閉鎖等,0,2025-04-16,2025-04-11,株式会社トリアード,,株式会社,埼玉県,上尾市,仲町１丁目４番１６号,,11,219,3620035,,,2025-04-11,清算の結了等,,,2015-11-17,1,,,,,トリアード,0
1300,5030005010697,登記記録の閉鎖等,0,2025-04-16,2025-04-10,一般社団法人日本けいらくビクス協会,,その他の設立登記法人,埼玉県,越谷市,千間台西１丁目１９番地６サンライトパストラル１－５０３,,11,222,3430041,,,2025-04-10,清算の結了等,,,2015-10-05,1,,,,,ニホンケイラクビクスキョウカイ,0
1304,5040001058095,登記記録の閉鎖等,0,2025-04-16,2025-04-01,株式会社エスエムエス,,株式会社,千葉県,印旛郡栄町,安食２４２１番地８５,,12,329,2701516,,,2025-04-01,清算の結了等,,,2015-10-05,1,,,,,エスエムエス,0
1312,5040002012844,登記記録の閉鎖等,0,2025-04-16,2025-04-01,有限会社和美自動車整備工場,,有限会社,千葉県,千葉市中央区,浜野町４４０番地８,,12,101,2600824,,,2025-04-01,清算の結了等,,,2015-10-05,1,,,,,カズミジドウシャセイビコウジョウ,0
1314,5040005006281,登記記録の閉鎖等,0,2025-04-16,2025-04-01,天理教久住分教会,,その他の設立登記法人,千葉県,成田市,幡谷１０１１番地の１,,12,211,2860814,,,2025-04-01,合併による解散等,7200005007575,令和７年３月２８日岐阜県関市小瀬１７２９番地天理教濃武分教会（7200005007575）に合併し解散,2015-10-05,1,,,,,,0
1320,5070002008518,登記記録の閉鎖等,0,2025-04-16,2025-04-08,有限会社安藤鉄工所,,有限会社,群馬県,高崎市,綿貫町１９７３番地１,,10,202,3701207,,,2025-04-08,清算の結了等,,,2015-10-05,1,,,,,アンドウテッコウショ,0
1326,5100001012120,登記記録の閉鎖等,0,2025-04-16,2025-04-02,中野スタンピング株式会社,,株式会社,長野県,中野市,大字草間１２４８番地の５,,20,211,3830053,,,2025-04-02,合併による解散等,8100001002424,令和７年４月１日長野市大字穂保字中之配２９１番地１長野鍛工株式会社（8100001002424）に合併し解散,2015-10-05,1,,,,,ナカノスタンピング,0
1332,5120001168555,登記記録の閉鎖等,0,2025-04-16,2025-04-01,株式会社Ｇ－ｃｕｂｅ,,株式会社,大阪府,大阪市中央区,伏見町４丁目４番９号オーエックス淀屋橋ビル３階,,27,128,5410044,,,2025-04-01,清算の結了等,,,2015-10-05,1,,,,,ジーキューブ,0
1361,5140005013144,登記記録の閉鎖等,0,2025-04-16,2025-04-10,公益財団法人姫路・西はりま地場産業センター,,その他の設立登記法人,兵庫県,姫路市,南駅前町１２３番,,28,201,6700962,,,2025-04-10,清算の結了等,,,2015-10-05,1,,,,,ヒメジニシハリマジバサンギョウセンター,0
1368,5180001059889,登記記録の閉鎖等,0,2025-04-16,2025-04-07,株式会社トークン,,株式会社,愛知県,名古屋市千種区,揚羽町２丁目２３番地,,23,101,4640019,,,2025-04-07,清算の結了等,,,2015-10-05,1,,,,,トークン,0
1385,5240001043804,登記記録の閉鎖等,0,2025-04-16,2025-04-11,ＫＤＤＩまとめてオフィス西日本株式会社,,株式会社,広島県,広島市中区,八丁堀１６番１１号,,34,101,7300013,,,2025-04-11,合併による解散等,3011101059021,令和７年４月１日東京都渋谷区代々木三丁目２２番７号ＫＤＤＩまとめてオフィス株式会社（3011101059021）に合併し解散,2015-10-05,1,,,,,ケイディーディーアイマトメテオフィスニシニホン,0
1400,5300002001630,登記記録の閉鎖等,0,2025-04-16,2025-04-11,有限会社横尾鉄工所,,有限会社,佐賀県,佐賀市,南佐賀１丁目１１番１７号,,41,201,8400016,,,2025-04-11,清算の結了等,,,2015-10-05,1,,,,,ヨコオテッコウショ,0
1410,5360002002598,登記記録の閉鎖等,0,2025-04-16,2025-04-07,有限会社大永電設,,有限会社,沖縄県,那覇市,字小禄１６４４番地３,,47,201,9010152,,,2025-04-07,清算の結了等,,,2015-10-05,1,,,,,,0
1411,5360002009809,登記記録の閉鎖等,0,2025-04-16,2025-03-21,有限会社ＬＬＡ,,有限会社,福岡県,福岡市東区,雁の巣１丁目５番８号,,40,131,8110206,,,2025-03-21,清算の結了等,,,2015-10-05,1,,,,,エルエルエー,0
1417,5380001024468,登記記録の閉鎖等,0,2025-04-16,2025-04-14,株式会社５６７,,株式会社,福島県,会津若松市,町北町大字始字宮前１２５番地,,07,202,9650052,,,2025-04-14,清算の結了等,,,2015-10-05,1,,,,,ミロク,0
1421,5390001001929,登記記録の閉鎖等,0,2025-04-16,2025-04-10,株式会社山形トヨタ商事,,株式会社,山形県,山形市,小白川町１丁目１７番１０号,,06,201,9900021,,,2025-04-10,合併による解散等,7390001002074,令和７年４月１日山形市南一番町１１番１６号山形トヨタ自動車株式会社（7390001002074）に合併し解散,2015-10-05,1,,,,,ヤマガタトヨタショウジ,0
1423,5390001012942,登記記録の閉鎖等,0,2025-04-16,2025-04-04,株式会社アベカツシゲ,,株式会社,山形県,山形市,西田２丁目１番１７号,,06,201,9900831,,,2025-04-04,清算の結了等,,,2015-10-05,1,,,,,アベカツシゲ,0
1427,5410001006850,登記記録の閉鎖等,0,2025-04-16,2025-04-07,株式会社三陽保険,,株式会社,秋田県,大館市,比内町扇田字白砂２番地５,,05,204,0185701,,,2025-04-07,清算の結了等,,,2015-10-05,1,,,,,サンヨウホケン,0
1429,5420002014991,登記記録の閉鎖等,0,2025-04-16,2025-04-14,有限会社田園企画,,有限会社,青森県,弘前市,大字田園１丁目３番地１,,02,202,0368086,,,2025-04-14,清算の結了等,,,2015-10-05,1,,,,,デンエンキカク,0
1448,5470001016811,登記記録の閉鎖等,0,2025-04-16,2025-04-07,株式会社よんでんライフサポート,,株式会社,香川県,高松市,昭和町１丁目７番２３号,,37,201,7600014,,,2025-04-07,合併による解散等,8500001005147,令和７年４月１日愛媛県松山市紅葉町２番２７号株式会社よんでんライフケア（8500001005147）に合併し解散,2018-04-05,1,,,,,ヨンデンライフサポート,0
1452,5490005003143,登記記録の閉鎖等,0,2025-04-16,2025-04-04,青瀧神社,,その他の設立登記法人,高知県,吾川郡仁淀川町,橘５１１番地,,39,387,7811758,,,2025-04-04,合併による解散等,3490005003104,令和４年８月４日高知県吾川郡仁淀川町峠ノ越１０１番地菜野川神社（3490005003104）に合併し解散,2015-10-05,1,,,,,アオダキジンジャ,0
1460,6010001045723,登記記録の閉鎖等,0,2025-04-16,2025-04-01,新和電材株式会社,,株式会社,東京都,千代田区,麹町２丁目４番地１,,13,101,1020083,,,2025-04-01,合併による解散等,3010001021116,令和７年４月１日東京都千代田区麹町二丁目４番地１株式会社双洋（3010001021116）に合併し解散,2015-10-05,1,,,,,シンワデンザイ,0
1461,6010001076826,登記記録の閉鎖等,0,2025-04-16,2025-04-01,株式会社オールクリエーション,,株式会社,東京都,中央区,日本橋３丁目３番９号,,13,102,1030027,,,2025-04-01,合併による解散等,2010001189838,令和７年４月１日東京都千代田区外神田六丁目１６番９号株式会社開拓地所（2010001189838）に合併し解散,2015-10-05,1,,,,,オールクリエーション,0
1464,6010001228476,登記記録の閉鎖等,0,2025-04-16,2025-04-07,株式会社エムズフォレスト,,株式会社,東京都,荒川区,南千住３丁目２番１４号ジュリアス南千住３０２号室,,13,118,1160003,,,2025-04-07,清算の結了等,,,2022-08-03,1,,,,,エムズフォレスト,0
1477,6010101012771,登記記録の閉鎖等,0,2025-04-16,2025-04-11,株式会社ＡＢＲＩ,,株式会社,東京都,八王子市,南大沢１丁目１番地,,13,201,1920364,,,2025-04-11,合併による解散等,7020001010527,令和７年４月１日横浜市保土ケ谷区星川二丁目４番１号古河電池株式会社（7020001010527）に合併し解散,2017-04-07,1,,,,,エイブリ,0
1479,6010401058960,登記記録の閉鎖等,0,2025-04-16,2025-04-01,日本住環境評価センター株式会社,,株式会社,東京都,中央区,東日本橋１丁目６番５号東日本橋佐藤ビル６階,,13,102,1030004,,,2025-04-01,合併による解散等,2010401053172,令和７年４月１日東京都中央区東日本橋一丁目６番５号東日本橋佐藤ビル６階アドパーク住環境コミュニケーションズ株式会社（2010401053172）に合併し解散,2015-10-05,1,,,,,ニホンジュウカンキョウヒョウカセンター,0
1481,6010401167902,登記記録の閉鎖等,0,2025-04-16,2025-03-26,株式会社ＷＢＩ,,株式会社,東京都,港区,六本木４丁目３番１１－３１９号,,13,103,1060032,,,2025-03-26,清算の結了等,,,2022-06-14,1,,,,,ダブリュービーアイ,0
1490,6010405016601,登記記録の閉鎖等,0,2025-04-16,2025-03-27,一般財団法人あすえ,,その他の設立登記法人,東京都,港区,南青山２丁目２番１５号ＵＣＦ６階,,13,103,1070062,,,2025-03-27,清算の結了等,,,2018-04-09,1,,,,,アスエ,0
1495,6010801028373,登記記録の閉鎖等,0,2025-04-16,2025-04-14,株式会社スリーエー,,株式会社,東京都,豊島区,池袋２丁目５２－８大河内ビル６０１,,13,116,1710014,,,2025-04-14,合併による解散等,3010001003551,令和７年４月１日東京都港区浜松町二丁目４番１号株式会社ＳＩ＆Ｃ（3010001003551）に合併し解散,2017-12-14,1,,,,,スリーエー,0
1496,6010901012574,登記記録の閉鎖等,0,2025-04-16,2025-04-09,吉田水産株式会社,00052686,株式会社,東京都,世田谷区,大蔵６丁目８番１７号１０５号室,,13,112,1570074,,,2025-04-09,清算の結了等,,,2015-10-05,1,,,,,ヨシダスイサン,0
1497,6011001051802,登記記録の閉鎖等,0,2025-04-16,2025-03-18,株式会社フェインセリティ,,株式会社,東京都,渋谷区,宇田川町３４番５号斎藤第３ビル５Ｆ,,13,113,1500042,,,2025-03-18,清算の結了等,,,2015-10-05,1,,,,,フェインセリティ,0
1511,6011002004585,登記記録の閉鎖等,0,2025-04-16,2025-04-07,有限会社コーユー・プラニング,,有限会社,神奈川県,川崎市川崎区,小田１丁目１５番５－２０４号,,14,131,2100846,,,2025-04-07,清算の結了等,,,2015-10-05,1,,,,,コーユープラニング,0
1518,6011101096193,登記記録の閉鎖等,0,2025-04-16,2025-04-11,株式会社アップセール,,株式会社,東京都,新宿区,西新宿２丁目６番１号,,13,104,1600023,,,2025-04-11,合併による解散等,8290001019029,令和７年４月１日福岡市博多区冷泉町２番１号株式会社ＪＩＭＯＳ（8290001019029）に合併し解散,2021-09-10,1,,,,,アップセール,0
1529,6011305001338,登記記録の閉鎖等,0,2025-04-16,2025-04-02,特定非営利活動法人シニア総合研究協会,,その他の設立登記法人,東京都,杉並区,荻窪３丁目２２番１３号,,13,115,1670051,,,2025-04-02,清算の結了等,,,2015-10-05,1,,,,,シニアソウゴウケンキュウキョウカイ,0
1530,6011402001091,登記記録の閉鎖等,0,2025-04-16,2025-04-10,有限会社今井ダイカスト工業所,,有限会社,東京都,板橋区,徳丸１丁目２４番３号,,13,119,1750083,,,2025-04-10,清算の結了等,,,2015-10-05,1,,,,,イマイダイカストコウギョウショ,0
1562,6030001019659,登記記録の閉鎖等,0,2025-04-16,2025-04-11,新関東建設工業株式会社,,株式会社,埼玉県,さいたま市岩槻区,大字末田２２５番地１,,11,110,3390021,,,2025-04-11,清算の結了等,,,2015-10-05,1,,,,,シンカントウケンセツコウギョウ,0
1568,6030001140704,登記記録の閉鎖等,0,2025-04-16,2025-04-11,株式会社Ｓｔａｄｄ,,株式会社,東京都,千代田区,霞が関１丁目４番１号,,13,101,1000013,,,2025-04-11,合併による解散等,1430001032130,令和７年４月１日札幌市中央区南二条西七丁目５－６株式会社ログオンシステム（1430001032130）に合併し解散,2021-02-15,1,,,,,スタッド,0
1584,6040001124144,登記記録の閉鎖等,0,2025-04-16,2025-04-01,株式会社朝日森エアカーゴ,,株式会社,千葉県,成田市,多良貝２４５番地１１３,,12,211,2870242,,,2025-04-01,清算の結了等,,,2022-07-08,1,,,,,アサヒモリエアカーゴ,0
1599,6050001023386,登記記録の閉鎖等,0,2025-04-16,2025-04-07,帝図測量設計株式会社,,株式会社,茨城県,日立市,弁天町２丁目１２番１号,,08,202,3170072,,,2025-04-07,清算の結了等,,,2015-10-05,1,,,,,テイトソクリョウセッケイ,0
1600,6050001045703,登記記録の閉鎖等,0,2025-04-16,2025-04-07,株式会社Ｎ・Ｙ・Ｍ,,株式会社,茨城県,土浦市,桜町２丁目５番９号,,08,203,3000037,,,2025-04-07,清算の結了等,,,2019-03-14,1,,,,,,0
1602,6060001029060,登記記録の閉鎖等,0,2025-04-16,2025-04-07,株式会社スープレ,,株式会社,栃木県,栃木市,薗部町２丁目６番７号,,09,203,3280074,,,2025-04-07,清算の結了等,,,2017-02-03,1,,,,,スープレ,0
1610,6080101020801,登記記録の閉鎖等,0,2025-04-16,2025-04-04,ヘルバンウェルス株式会社,,株式会社,静岡県,沼津市,大岡１７８７番地の１,,22,203,4100022,,,2025-04-04,清算の結了等,,,2018-11-20,1,,,,,ヘルバンウェルス,0
1615,6100001011212,登記記録の閉鎖等,0,2025-04-16,2025-04-11,ヴィッテンシュタイン・ターナリー株式会社,,株式会社,長野県,上田市,古里９９－５,,20,203,3860005,,,2025-04-11,合併による解散等,8010001099874,令和７年４月１日東京都港区芝大門二丁目６番６号ヴィッテンシュタイン株式会社（8010001099874）に合併し解散,2015-10-05,1,,,,,ヴィッテンシュタインターナリー,0
1651,6120005015380,登記記録の閉鎖等,0,2025-04-16,2025-04-07,特定非営利活動法人スマート観光推進機構,,その他の設立登記法人,大阪府,堺市南区,若松台１丁３番３－２０７号,,27,145,5900116,,,2025-04-07,清算の結了等,,,2015-10-05,1,,,,,スマートカンコウスイシンキコウ,0
1663,6130001004717,登記記録の閉鎖等,0,2025-04-16,2025-04-09,幸輝住販株式会社,,株式会社,京都府,京都市北区,紫野西御所田町５８番地１,,26,101,6038165,,,2025-04-09,清算の結了等,,,2015-10-05,1,,,,,コウキジュウハン,0
1664,6130001008536,登記記録の閉鎖等,0,2025-04-16,2025-04-11,株式会社ニシムラ,,株式会社,京都府,京都市西京区,御陵溝浦町３４番地の１８,,26,111,6158231,,,2025-04-11,清算の結了等,,,2015-10-05,1,,,,,ニシムラ,0
1666,6130003005721,登記記録の閉鎖等,0,2025-04-16,2025-04-09,ｇｏｍｍｅ合同会社,,合同会社,京都府,城陽市,寺田市ノ久保３３－３１,,26,207,6100121,,,2025-04-09,清算の結了等,,,2018-10-31,1,,,,,ゴム,0
1674,6160003002195,登記記録の閉鎖等,0,2025-04-16,2025-04-09,合同会社Ｆ美Ｃ,,合同会社,滋賀県,栗東市,苅原２８５番地,,25,208,5203032,,,2025-04-09,清算の結了等,,,2021-01-08,1,,,,,エフビシ,0
1687,6220001023204,登記記録の閉鎖等,0,2025-04-16,2025-04-11,セイダイハウジングミライロ株式会社,,株式会社,石川県,金沢市,大友１丁目１００番地,,17,201,9208205,,,2025-04-11,合併による解散等,9220001003632,令和７年４月１１日石川県金沢市大友一丁目１００番地株式会社セイダイ（9220001003632）に合併し解散,2019-11-12,1,,,,,セイダイハウジングミライロ,0
1718,6310002000903,登記記録の閉鎖等,0,2025-04-16,2025-04-08,有限会社大川龍商店,,有限会社,長崎県,長崎市,松山町３番９３号,,42,201,8528118,,,2025-04-08,清算の結了等,,,2015-10-05,1,,,,,オオカワリュウショウテン,0
1720,6320001001166,登記記録の閉鎖等,0,2025-04-16,2025-04-09,株式会社サンアイ無線,,株式会社,大分県,大分市,東浜１丁目１３番９号,,44,201,8700932,,,2025-04-09,清算の結了等,,,2025-02-18,1,,,,,,0
1729,6340002025625,登記記録の閉鎖等,0,2025-04-16,2025-04-09,有限会社辛卯,,有限会社,鹿児島県,鹿屋市,西大手町８１９０番地１,,46,203,8930008,,,2025-04-09,清算の結了等,,,2015-10-05,1,,,,,ジンボウ,0
1745,6450001014114,登記記録の閉鎖等,0,2025-04-16,2025-04-08,株式会社ＭＡＫＯＴＯ建設,,株式会社,北海道,旭川市,忠和五条４丁目９番６号,,01,204,0708045,,,2025-04-08,清算の結了等,,,2023-10-10,1,,,,,マコトケンセツ,0
1764,7010001228847,登記記録の閉鎖等,0,2025-04-16,2025-04-01,日鉄鋼管株式会社,,株式会社,東京都,千代田区,有楽町１丁目１番３号,,13,101,1000006,,,2025-04-01,合併による解散等,3010001008848,令和７年４月１日東京都千代田区丸の内二丁目６番１号日本製鉄株式会社（3010001008848）に合併し解散,2022-08-16,1,,,,,ニッテツコウカン,0
1779,7010401029663,登記記録の閉鎖等,0,2025-04-16,2025-03-27,株式会社森永ファイナンス,,株式会社,東京都,港区,芝浦１丁目１３番１６号,,13,103,1050023,,,2025-03-27,清算の結了等,,,2015-10-05,1,,,,,モリナガファイナンス,0
1780,7010401135957,登記記録の閉鎖等,0,2025-04-16,2025-04-02,ＲＳリニューアブルズ株式会社,,株式会社,東京都,千代田区,大手町１丁目２番１号,,13,101,1000004,,,2025-04-02,合併による解散等,9010001011318,令和７年４月１日東京都千代田区大手町一丁目２番１号出光興産株式会社（9010001011318）に合併し解散,2018-01-15,1,,,,,アールエスリニューアブルズ,0
1806,7010903006441,登記記録の閉鎖等,0,2025-04-16,2025-04-11,合同会社ＤＰ＆ＴＥＣＨ,,合同会社,東京都,世田谷区,下馬６丁目２２－１,,13,112,1540002,,,2025-04-11,清算の結了等,,,2021-04-07,1,,,,,ディーピーアンドテック,0
1825,7011501020751,登記記録の閉鎖等,0,2025-04-16,2025-04-11,株式会社サン勇エステート,,株式会社,埼玉県,草加市,神明２丁目４番１９号,,11,221,3400012,,,2025-04-11,清算の結了等,,,2015-10-05,1,,,,,サンユウエステート,0
1833,7012402017473,登記記録の閉鎖等,0,2025-04-16,2025-03-28,有限会社ネット・ブレーン,,有限会社,東京都,武蔵野市,吉祥寺北町１丁目２５番６号,,13,203,1800001,,,2025-03-28,清算の結了等,,,2015-10-05,1,,,,,ネットブレーン,0
1846,7013302004925,登記記録の閉鎖等,0,2025-04-16,2025-04-01,有限会社シヤーム商事,,有限会社,東京都,豊島区,東池袋１丁目２４番１号,,13,116,1700013,,,2025-04-01,合併による解散等,7013301040228,令和７年４月１日東京都豊島区東池袋一丁目２４番１号マサルホールディングス株式会社（7013301040228）に合併し解散,2015-10-05,1,,,,,シヤーム,0
1854,7021001011044,登記記録の閉鎖等,0,2025-04-16,2025-04-14,株式会社アウト・ドア・ライフ,,株式会社,神奈川県,相模原市中央区,鹿沼台２丁目８番２号,,14,152,2520233,,,2025-04-14,清算の結了等,,,2015-10-05,1,,,,,アウトドアライフ,0
1855,7021001035340,登記記録の閉鎖等,0,2025-04-16,2025-04-09,株式会社ビッグトラベル,,株式会社,神奈川県,足柄上郡大井町,金手１１１９番地１３,,14,362,2580018,,,2025-04-09,清算の結了等,,,2015-10-05,1,,,,,ビッグドラベル,0
1869,7030002079957,登記記録の閉鎖等,0,2025-04-16,2025-03-31,有限会社早稲田予備校,,有限会社,東京都,新宿区,高田馬場４丁目９番９号,,13,104,1690075,,,2025-03-31,清算の結了等,,,2015-10-05,1,,,,,ワセダヨビコウ,0
1900,7080402004717,登記記録の閉鎖等,0,2025-04-16,2025-04-04,有限会社タカクラ,,有限会社,静岡県,浜松市中央区,西丘町２６２番地,,22,138,4338116,,,2025-04-04,清算の結了等,,,2015-10-05,1,,,,,タカクラ,0
1910,7120001210315,登記記録の閉鎖等,0,2025-04-16,2025-04-11,株式会社エージェントスタッフ,,株式会社,神奈川県,横浜市西区,みなとみらい２丁目２番１号,,14,103,2200012,,,2025-04-11,合併による解散等,8120001104466,令和７年４月１日大阪市北区天満橋一丁目８番３０号Ａ２Ｘ株式会社（8120001104466）に合併し解散,2017-12-22,1,,,,,エージェントスタッフ,0
1924,7120005008367,登記記録の閉鎖等,0,2025-04-16,2025-04-14,医療法人キム診療所,,その他の設立登記法人,大阪府,大阪市東成区,大今里南３丁目１３番１３号,,27,115,5370013,,,2025-04-14,清算の結了等,,,2015-10-05,1,,,,,キムシンリョウジョ,0
1959,7180002030211,登記記録の閉鎖等,0,2025-04-16,2025-04-07,有限会社オービー商会,,有限会社,愛知県,名古屋市中区,大須４丁目１０番４０号,,23,106,4600011,,,2025-04-07,清算の結了等,,,2015-10-05,1,,,,,オービーショウカイ,0
1964,7180302012487,登記記録の閉鎖等,0,2025-04-16,2025-04-01,有限会社元気村,,有限会社,愛知県,田原市,赤石１丁目１９番地,,23,231,4413422,,,2025-04-01,合併による解散等,7180301007686,令和７年４月１日愛知県田原市赤石一丁目１９番地株式会社衣笠興業（7180301007686）に合併し解散,2015-10-05,1,,,,,ゲンキムラ,0
1968,7200001020846,登記記録の閉鎖等,0,2025-04-16,2025-04-01,東鉄タクシー株式会社,,株式会社,岐阜県,多治見市,田代町１丁目６５番地,,21,204,5070036,,,2025-04-01,合併による解散等,8200001020845,令和７年４月１日岐阜県多治見市平和町一丁目１６３番地東鉄商事株式会社（8200001020845）に合併し解散,2015-10-05,1,,,,,トウテツタクシー,0
1972,7220001021883,登記記録の閉鎖等,0,2025-04-16,2025-04-10,株式会社エフディー・ラボ,,株式会社,石川県,加賀市,中代町３８８番地１,,17,206,9220014,,,2025-04-10,清算の結了等,,,2017-10-10,1,,,,,エフディーラボ,0
1981,7240001063239,登記記録の閉鎖等,0,2025-04-16,2025-04-08,入江工業株式会社,,株式会社,広島県,安芸高田市,吉田町上入江１１２３番地の１,,34,214,7310532,,,2025-04-08,清算の結了等,,,2024-05-22,1,,,,,イリエコウギョウ,0
2000,7290003009846,登記記録の閉鎖等,0,2025-04-16,2025-04-15,ＺＡ　ＢＵＳＴＥＲ合同会社,,合同会社,福岡県,福岡市南区,横手４丁目１９－１８,,40,134,8111311,,,2025-04-15,清算の結了等,,,2020-03-13,1,,,,,ジアバスタ,0
2003,7300001004005,登記記録の閉鎖等,0,2025-04-16,2025-04-11,株式会社タケトミ商事,,株式会社,佐賀県,佐賀市,久保田町大字久富３００３番地１,,41,201,8490202,,,2025-04-11,清算の結了等,,,2015-10-05,1,,,,,タケトミショウジ,0
2004,7300001013451,登記記録の閉鎖等,0,2025-04-16,2025-04-11,株式会社サンエツ空調,,株式会社,佐賀県,小城市,牛津町上砥川１５８１番地１７,,41,208,8490305,,,2025-04-11,清算の結了等,,,2023-09-06,1,,,,,サンエツクウチョウ,0
2006,7300002006751,登記記録の閉鎖等,0,2025-04-16,2025-04-11,有限会社草設計事務所,,有限会社,佐賀県,鹿島市,大字山浦甲２３５８番地１,,41,207,8491314,,,2025-04-11,清算の結了等,,,2015-10-05,1,,,,,,0
2031,7390001006653,登記記録の閉鎖等,0,2025-04-16,2025-04-04,株式会社吉野商店,,株式会社,山形県,酒田市,卸町１番地の９,,06,204,9980823,,,2025-04-04,清算の結了等,,,2015-10-05,1,,,,,ヨシノショウテン,0
2045,7470001005044,登記記録の閉鎖等,0,2025-04-16,2025-04-08,朝日新聞高松販売株式会社,,株式会社,香川県,高松市,郷東町３４３番地１,,37,201,7618031,,,2025-04-08,合併による解散等,8140001067810,令和７年４月１日神戸市中央区中山手通四丁目１８番２７号朝日新聞兵庫販売株式会社（8140001067810）に合併し解散,2015-10-05,1,,,,,アサヒシンブンタカマツハンバイ,0
2046,7470001014838,登記記録の閉鎖等,0,2025-04-16,2025-04-08,株式会社Ｄｉｃａｓａ,,株式会社,香川県,丸亀市,飯山町西坂元１３番地９,,37,202,7620087,,,2025-04-08,清算の結了等,,,2015-10-05,1,,,,,ディカーサ,0
2060,8010001083432,登記記録の閉鎖等,0,2025-04-16,2025-03-27,ディージェイロジスティクス株式会社,,株式会社,東京都,港区,芝大門１丁目３番４号,,13,103,1050012,,,2025-03-27,清算の結了等,,,2015-10-05,1,,,,,ディージェイロジスティクス,0
2063,8010001134318,登記記録の閉鎖等,0,2025-04-16,2025-04-03,ニッポー株式会社,,株式会社,東京都,世田谷区,池尻３丁目１１番６号,,13,112,1540001,,,2025-04-03,合併による解散等,4010901029620,令和７年４月１日東京都世田谷区池尻三丁目１番３号武藤工業株式会社（4010901029620）に合併し解散,2015-10-05,1,,,,,ニッポー,0
2072,8010003033699,登記記録の閉鎖等,0,2025-04-16,2025-04-02,０１合同会社,,合同会社,東京都,千代田区,平河町１丁目６－１３パークハウス平河町１００１,,13,101,1020093,,,2025-04-02,清算の結了等,,,2020-12-10,1,,,,,ゼロイチ,0
2074,8010005035099,登記記録の閉鎖等,0,2025-04-16,2025-04-04,小郡ロジ特定目的会社,,その他の設立登記法人,東京都,千代田区,霞が関３丁目２番５号,,13,101,1000013,,,2025-04-04,清算の結了等,,,2022-06-07,1,,,,,オゴオリロジ,0
2078,8010101014452,登記記録の閉鎖等,0,2025-04-16,2025-04-01,西東京モビリティサービス株式会社,,株式会社,東京都,八王子市,明神町３丁目１番７号,,13,201,1920046,,,2025-04-01,合併による解散等,1010101003032,令和７年４月１日東京都八王子市明神町三丁目１番７号西東京バス株式会社（1010101003032）に合併し解散,2020-12-15,1,,,,,,0
2080,8010401140023,登記記録の閉鎖等,0,2025-04-16,2025-04-14,ＳＣＣ　Ｓｃｉｅｎｔｉｆｉｃ　Ｃｏｎｓｕｌｔｉｎｇ　Ｃｏｍｐａｎｙ　Ｊａｐａｎ株式会社,,株式会社,東京都,港区,西新橋１丁目２番９号日比谷セントラルビル１４階,,13,103,1050003,,,2025-04-14,合併による解散等,4010401159538,令和７年３月３１日東京都千代田区丸の内一丁目６番２号新丸の内センタービル２０階（エグゼクティブセンター内）Ｒａｍｂｏｌｌ　Ｊａｐａｎ株式会社（4010401159538）に合併し解散,2018-08-08,1,,,,,エスシーシーサイエンティフィックコンサルティングカンパニージャパン,0
2101,8010601019389,登記記録の閉鎖等,0,2025-04-16,2025-04-11,株式会社伏見屋高介,,株式会社,東京都,江東区,木場５丁目８番１号,,13,108,1350042,,,2025-04-11,合併による解散等,4010001056499,令和７年４月１日東京都中央区築地六丁目２７番２号株式会社伏高（4010001056499）に合併し解散,2015-10-05,1,,,,,フシミヤタカスケ,0
2107,8010701038280,登記記録の閉鎖等,0,2025-04-16,2025-03-31,Ａｂｉｔ株式会社,,株式会社,東京都,品川区,東品川２丁目２番４号,,13,109,1400002,,,2025-03-31,合併による解散等,9010501023597,令和７年３月３１日東京都品川区東品川二丁目２番４号Ａｂａｌａｎｃｅ株式会社（9010501023597）に合併し解散,2019-10-16,1,,,,,エービット,0
2136,8011801002226,登記記録の閉鎖等,0,2025-04-16,2025-04-10,昇美工業株式会社,,株式会社,東京都,葛飾区,東新小岩６丁目２９番１２号,,13,122,1240023,,,2025-04-10,清算の結了等,,,2015-10-05,1,,,,,ショウビコウギョウ,0
2138,8011802019459,登記記録の閉鎖等,0,2025-04-16,2025-04-11,有限会社明治屋質店,,有限会社,東京都,足立区,千住柳町３２番８号,,13,121,1200032,,,2025-04-11,清算の結了等,,,2015-10-05,1,,,,,メイジヤシチテン,0
2148,8013305002636,登記記録の閉鎖等,0,2025-04-16,2025-02-17,特定非営利活動法人日本国際教育協会,,その他の設立登記法人,東京都,豊島区,池袋２丁目２２番３号池袋サンハイツ１００２号,,13,116,1710014,,,2025-02-17,清算の結了等,,,2017-05-10,1,,,,,ニホンコクサイキョウイクキョウカイ,0
2149,8020001157854,登記記録の閉鎖等,0,2025-04-16,2025-04-07,株式会社ごらくば,,株式会社,神奈川県,横浜市西区,北幸２丁目１０番４８号むつみビル３階,,14,103,2200004,,,2025-04-07,清算の結了等,,,2024-06-20,1,,,,,ゴラクバ,0
2154,8020003020267,登記記録の閉鎖等,0,2025-04-16,2025-04-07,Ｄｒｅａｍ　Ｐａｎｄａ　Ｗｏｒｋｓ合同会社,,合同会社,神奈川県,川崎市多摩区,登戸２４３２－１,,14,135,2140014,,,2025-04-07,清算の結了等,,,2021-08-04,1,,,,,ドリームパンダワークス,0
2158,8020005005398,登記記録の閉鎖等,0,2025-04-16,2025-04-10,医療法人社団山手正恵会,,その他の設立登記法人,神奈川県,横浜市中区,山手町１６９番地,,14,104,2310862,,,2025-04-10,合併による解散等,4021005001572,令和７年４月１日神奈川県高座郡寒川町宮山３５０５番地医療法人社団朋友会（4021005001572）に合併し解散,2015-10-05,1,,,,,ヤマテセイケイカイ,0
2178,8030001147870,登記記録の閉鎖等,0,2025-04-16,2025-04-11,株式会社ディープインパクト,,株式会社,埼玉県,草加市,北谷３丁目２７番７号,,11,221,3400046,,,2025-04-11,清算の結了等,,,2022-04-22,1,,,,,ディープインパクト,0
2182,8030002043929,登記記録の閉鎖等,0,2025-04-16,2025-04-11,有限会社工藤塗装所,,有限会社,埼玉県,草加市,手代３丁目２６番２号,,11,221,3400021,,,2025-04-11,清算の結了等,,,2015-10-05,1,,,,,クドウトソウジョ,0
2189,8030002099327,登記記録の閉鎖等,0,2025-04-16,2025-04-10,有限会社ピジョン,,有限会社,埼玉県,川口市,坂下町３丁目２番１号,,11,203,3340003,,,2025-04-10,清算の結了等,,,2015-10-05,1,,,,,ピジョン,0
2195,8040001070130,登記記録の閉鎖等,0,2025-04-16,2025-04-01,株式会社フェイス,,株式会社,千葉県,柏市,酒井根５丁目２３番１４号,,12,217,2770053,,,2025-04-01,合併による解散等,2040002091123,令和７年４月１日千葉県柏市酒井根五丁目２３番１４号株式会社柏南商事（2040002091123）に合併し解散,2015-10-05,1,,,,,フェイス,0
2198,8040002001927,登記記録の閉鎖等,0,2025-04-16,2025-04-10,株式会社エヌエスディーゼル機工,,株式会社,千葉県,千葉市稲毛区,長沼町３０２番地,,12,103,2630005,,,2025-04-10,合併による解散等,8021001013543,令和７年４月１日神奈川県相模原市中央区宮下三丁目１２番１４号日酸運輸株式会社（8021001013543）に合併し解散,2015-10-05,1,,,,,エヌエスディーゼルキコウ,0
2204,8050001013170,登記記録の閉鎖等,0,2025-04-16,2025-04-04,株式会社平成,,株式会社,茨城県,小美玉市,上合字大砂１４５７－１３,,08,236,3113405,,,2025-04-04,清算の結了等,,,2015-10-05,1,,,,,ヘイセイ,0
2206,8050001024837,登記記録の閉鎖等,0,2025-04-16,2025-04-07,株式会社日立常陽タクシー,,株式会社,茨城県,日立市,水木町１丁目３２番８号,,08,202,3160024,,,2025-04-07,清算の結了等,,,2015-10-05,1,,,,,ヒタチジョウヨウタクシー,0
2210,8070002009042,登記記録の閉鎖等,0,2025-04-16,2025-04-08,有限会社エムシーエス,,有限会社,群馬県,高崎市,下豊岡町１３９６番地の４,,10,202,3700873,,,2025-04-08,清算の結了等,,,2015-10-05,1,,,,,エムシーエス,0
2217,8080103002936,登記記録の閉鎖等,0,2025-04-16,2025-04-03,Ｗｅｌｌ　ｂｅ合同会社,,合同会社,静岡県,富士宮市,宮原９９－５,,22,207,4180005,,,2025-04-03,清算の結了等,,,2023-12-04,1,,,,,ウェルビー,0
2243,8120005019990,登記記録の閉鎖等,0,2025-04-16,2025-04-04,一般社団法人仮想通貨税務協会,,その他の設立登記法人,大阪府,大阪市中央区,久太郎町２丁目５番３１号,,27,128,5410056,,,2025-04-04,清算の結了等,,,2018-02-01,1,,,,,カソウツウカゼイムキョウカイ,0
2248,8120102028440,登記記録の閉鎖等,0,2025-04-16,2025-03-31,有限会社藤木設計,,有限会社,福岡県,福岡市西区,今宿西１丁目３０－１９レオパレスクレイノリラシア１０３,,40,135,8190169,,,2025-03-31,清算の結了等,,,2015-10-05,1,,,,,フジキセッケイ,0
2251,8120902000796,登記記録の閉鎖等,0,2025-04-16,2025-04-08,有限会社三和企画,,有限会社,大阪府,高槻市,大畑町１２番１６－７０２号,,27,207,5691144,,,2025-04-08,清算の結了等,,,2015-10-05,1,,,,,サンワキカク,0
2265,8140005005031,登記記録の閉鎖等,0,2025-04-16,2025-04-08,特定非営利活動法人えにし,,その他の設立登記法人,兵庫県,神戸市西区,岩岡町岩岡９１０－２,,28,111,6512401,,,2025-04-08,清算の結了等,,,2015-10-05,1,,,,,エニシ,0
2274,8170005005697,登記記録の閉鎖等,0,2025-04-16,2025-03-27,東光寺,,その他の設立登記法人,和歌山県,東牟婁郡古座川町,西赤木２１３番地,,30,424,6494213,,,2025-03-27,合併による解散等,6170005005699,令和７年３月２７日和歌山県東牟婁郡古座川町小川５５４番地寳音寺（6170005005699）に合併し解散,2015-10-05,1,,,,,トウコウジ,0
2276,8180001106135,登記記録の閉鎖等,0,2025-04-16,2025-04-04,株式会社きたむら,,株式会社,愛知県,日進市,岩崎町芦廻間１１２番地８８２,00072594,23,230,4700131,,,2025-04-04,清算の結了等,,,2015-10-05,1,,,,,キタムラ,0
2277,8180002011235,登記記録の閉鎖等,0,2025-04-16,2025-04-03,有限会社くさなぎ工芸,,有限会社,愛知県,名古屋市北区,楠味鋺１丁目１０２番地,,23,103,4620014,,,2025-04-03,清算の結了等,,,2015-10-05,1,,,,,クサナギコウゲイ,0
2286,8180305007434,登記記録の閉鎖等,0,2025-04-16,2025-04-02,農事組合法人大平肥育組合,,その他の設立登記法人,愛知県,新城市,乗本字南２７番地,,23,221,4411633,,,2025-04-02,清算の結了等,,,2015-10-05,1,,,,,オオビラヒイククミアイ,0
2300,8220001023796,登記記録の閉鎖等,0,2025-04-16,2025-04-09,株式会社北陸ライフサービス,,株式会社,石川県,金沢市,寺地２丁目２１番５号,,17,201,9218178,,,2025-04-09,清算の結了等,,,2020-10-20,1,,,,,ホクリクライフサービス,0
2309,8240005006201,登記記録の閉鎖等,0,2025-04-16,2025-04-01,社会福祉法人城友福祉会,,その他の設立登記法人,広島県,呉市,警固屋４丁目１番１１号,,34,202,7370012,,,2025-04-01,合併による解散等,1240005006190,令和７年４月１日広島県呉市吉浦中町一丁目９番１８号社会福祉法人大心会（1240005006190）に合併し解散,2015-10-05,1,,,,,ジョウユウフクシカイ,0
2314,8260001029113,登記記録の閉鎖等,0,2025-04-16,2025-04-03,株式会社ｆｏｒ　ｙｏｕ,,株式会社,岡山県,岡山市北区,磨屋町９番３０号ＳＤビル,,33,101,7000826,,,2025-04-03,清算の結了等,,,2016-01-08,1,,,,,フォーユー,0
2329,8290002052185,登記記録の閉鎖等,0,2025-04-16,2025-04-11,有限会社トゥルーライズ,,有限会社,福岡県,久留米市,野中町１３９８番地１－１２０１,,40,203,8390862,,,2025-04-11,清算の結了等,,,2015-10-05,1,,,,,トゥルーライズ,0
2330,8290802023427,登記記録の閉鎖等,0,2025-04-16,2025-04-15,有限会社恒成酒店,,有限会社,福岡県,豊前市,大字恒富８５番地の１,,40,214,8280025,,,2025-04-15,合併による解散等,4320001011002,令和７年４月１日大分県中津市大字万田５７２番地の１株式会社横山酒販（4320001011002）に合併し解散,2015-10-05,1,,,,,ツネナリサケテン,0
2337,8340002007299,登記記録の閉鎖等,0,2025-04-16,2025-04-08,有限会社西田温泉,,有限会社,鹿児島県,鹿児島市,鷹師１丁目２番地１７,,46,201,8900043,,,2025-04-08,清算の結了等,,,2015-10-05,1,,,,,ニシダオンセン,0
2343,8370001011332,登記記録の閉鎖等,0,2025-04-16,2025-04-04,東北自動車販売株式会社,,株式会社,宮城県,仙台市泉区,山の寺２丁目１番８号,,04,105,9813103,,,2025-04-04,清算の結了等,,,2015-10-05,1,,,,,,0
2348,8390001010596,登記記録の閉鎖等,0,2025-04-16,2025-04-01,県南中央青果株式会社,,株式会社,福島県,福島市,北矢野目字坂東１７番地の１,,07,201,9600113,,,2025-04-01,合併による解散等,7380001001449,令和７年４月１日福島県福島市北矢野目字坂東１７番地の１株式会社福島システム二十一（7380001001449）に合併し解散,2015-10-05,1,,,,,ケンナンチュウオウセイカ,0
2371,8490005003099,登記記録の閉鎖等,0,2025-04-16,2025-04-04,錦木神社,,その他の設立登記法人,高知県,吾川郡仁淀川町,本村自２７３４番地至２７３６番地,,39,387,7811521,,,2025-04-04,合併による解散等,6490005003126,令和４年８月４日高知県吾川郡仁淀川町久喜３３９３番地１玖岐神社（6490005003126）に合併し解散,2015-10-05,1,,,,,ニシキギジンジャ,0
2385,9010001084826,登記記録の閉鎖等,0,2025-04-16,2025-04-01,日鉄ステンレス株式会社,,株式会社,東京都,千代田区,丸の内１丁目８番２号,,13,101,1000005,,,2025-04-01,合併による解散等,3010001008848,令和７年４月１日東京都千代田区丸の内二丁目６番１号日本製鉄株式会社（3010001008848）に合併し解散,2015-10-05,1,,,,,ニッテツステンレス,0
2386,9010001104666,登記記録の閉鎖等,0,2025-04-16,2025-04-03,岡三ビジネスサービス株式会社,,株式会社,東京都,中央区,日本橋本町４丁目１１番５号,,13,102,1030023,,,2025-04-03,合併による解散等,4010001039330,令和７年４月１日東京都中央区日本橋室町二丁目２番１号岡三ビジネス＆テクノロジー株式会社（4010001039330）に合併し解散,2015-10-05,1,,,,,オカサンビジネスサービス,0
2394,9010401063165,登記記録の閉鎖等,0,2025-04-16,2025-03-27,株式会社エスジーイー,,株式会社,東京都,港区,南青山６丁目１２番１２－３０２号,,13,103,1070062,,,2025-03-27,清算の結了等,,,2015-10-05,1,,,,,エスジーイー,0
2399,9010401149443,登記記録の閉鎖等,0,2025-04-16,2025-03-28,ＫＫホールディングス株式会社,,株式会社,東京都,港区,浜松町２丁目４番１号,,13,103,1050013,,,2025-03-28,清算の結了等,,,2019-11-28,1,,,,,ケイケーホールディングス,0
2436,9011401023489,登記記録の閉鎖等,0,2025-04-16,2025-04-11,株式会社スモールスタート,,株式会社,東京都,板橋区,成増３丁目３６番２２－２０４号,,13,119,1750094,,,2025-04-11,清算の結了等,,,2021-06-28,1,,,,,スモールスタート,0
2454,9013301021416,登記記録の閉鎖等,0,2025-04-16,2025-04-01,株式会社マルベリイ,,株式会社,東京都,日野市,大坂上１丁目３０番地の２０,,13,212,1910061,,,2025-04-01,合併による解散等,8011001073836,令和７年４月１日東京都日野市大坂上一丁目３０番地の２０株式会社アージュレス（8011001073836）に合併し解散,2015-10-05,1,,,,,マルベリイ,0
2460,9013401005211,登記記録の閉鎖等,0,2025-04-16,2025-04-01,株式会社ＫＦライズ,,株式会社,東京都,多摩市,永山６丁目２２番地８,,13,224,2060025,,,2025-04-01,合併による解散等,6013401004744,令和７年４月１日東京都多摩市永山六丁目２２番地８株式会社京映アーツ（6013401004744）に合併し解散,2015-10-05,1,,,,,ケーエフライズ,0
2466,9020002082852,登記記録の閉鎖等,0,2025-04-16,2025-04-08,有限会社イムズ,,有限会社,神奈川県,川崎市中原区,木月１丁目３２番２４号,,14,133,2110025,,,2025-04-08,清算の結了等,,,2015-10-05,1,,,,,イムズ,0
2476,9021002004680,登記記録の閉鎖等,0,2025-04-16,2025-04-11,有限会社丸榮企画,,有限会社,神奈川県,藤沢市,遠藤６９０番地の３羽根沢２－４０３,,14,205,2520816,,,2025-04-11,清算の結了等,,,2015-10-05,1,,,,,マルエイキカク,0
2477,9021002026188,登記記録の閉鎖等,0,2025-04-16,2025-04-07,有限会社エージージャム,,有限会社,神奈川県,相模原市南区,上鶴間１丁目７番２０号ホワイトハイム２（２０２）,,14,153,2520302,,,2025-04-07,清算の結了等,,,2015-10-05,1,,,,,エージージャム,0
2512,9040001003717,登記記録の閉鎖等,0,2025-04-16,2025-04-02,千石電設株式会社,,株式会社,千葉県,千葉市稲毛区,園生町１２２３番地の１１,,12,103,2630051,,,2025-04-02,清算の結了等,,,2015-10-05,1,,,,,センゴクデンセツ,0
2521,9040002036922,登記記録の閉鎖等,0,2025-04-16,2025-03-31,有限会社武蔵屋,,有限会社,千葉県,市川市,南八幡４丁目３番３号,,12,203,2720023,,,2025-03-31,清算の結了等,,,2015-10-05,1,,,,,ムサシヤ,0
2524,9050001021627,登記記録の閉鎖等,0,2025-04-16,2025-04-03,株式会社柳町商店,,株式会社,茨城県,潮来市,永山２０８４番地,,08,223,3112437,,,2025-04-03,清算の結了等,,,2015-10-05,1,,,,,ヤナギマチショウテン,0
2529,9050002035304,登記記録の閉鎖等,0,2025-04-16,2025-04-04,有限会社石井石油,,有限会社,茨城県,常陸太田市,徳田町３２７番地,,08,212,3110502,,,2025-04-04,清算の結了等,,,2015-10-05,1,,,,,イシイセキユ,0
2532,9070002004414,登記記録の閉鎖等,0,2025-04-16,2025-04-08,有限会社ビセン,,有限会社,群馬県,前橋市,大利根町２丁目７番地の１２,,10,201,3710825,,,2025-04-08,清算の結了等,,,2015-10-05,1,,,,,ビセン,0
2540,9080105000202,登記記録の閉鎖等,0,2025-04-16,2025-04-04,学校法人エヌ・アイ・エス学園,,その他の設立登記法人,静岡県,沼津市,高島本町１２番２２号,,22,203,4100055,,,2025-04-04,清算の結了等,,,2015-10-05,1,,,,,エヌアイエスガクエン,0
2554,9120001127953,登記記録の閉鎖等,0,2025-04-16,2025-04-14,株式会社建築設計ヒルマ,,株式会社,大阪府,大阪市西区,西本町３丁目１番７号日宝アワザ駅前ビル５０５号,,27,106,5500005,,,2025-04-14,清算の結了等,,,2015-10-05,1,,,,,ケンチクセッケイヒルマ,0
2583,9130001069575,登記記録の閉鎖等,0,2025-04-16,2025-04-14,株式会社リライフ,,株式会社,京都府,京都市伏見区,深草西浦町６丁目７４番地,,26,109,6120029,,,2025-04-14,合併による解散等,3120901030097,令和７年４月１日大阪府吹田市豊津町１番１８号株式会社アイリス（3120901030097）に合併し解散,2021-06-18,1,,,,,リライフ,0
2613,9180001134829,登記記録の閉鎖等,0,2025-04-16,2025-04-08,株式会社ｓｏｒａｍｏ,,株式会社,愛知県,名古屋市中区,栄５丁目２６番３９号ＧＳ栄ビル３階,,23,106,4600008,,,2025-04-08,清算の結了等,,,2018-12-14,1,,,,,ソラモ,0
2614,9180001153845,登記記録の閉鎖等,0,2025-04-16,2025-04-01,株式会社ＡＴＨ,,株式会社,愛知県,清須市,西枇杷島町南松原２４番地,,23,233,4520053,,,2025-04-01,合併による解散等,9180001154315,令和７年４月１日愛知県清須市西枇杷島町南松原２４番地ダブルオーホールディングス株式会社（9180001154315）に合併し解散,2022-11-15,1,,,,,エーティーエイチ,0
2630,9220001023201,登記記録の閉鎖等,0,2025-04-16,2025-04-11,グリスマデザイン株式会社,,株式会社,石川県,金沢市,大友１丁目１００番地,,17,201,9208205,,,2025-04-11,合併による解散等,9220001003632,令和７年４月１１日石川県金沢市大友一丁目１００番地株式会社セイダイ（9220001003632）に合併し解散,2019-11-12,1,,,,,グリスマデザイン,0
2636,9230002012664,登記記録の閉鎖等,0,2025-04-16,2025-04-09,有限会社潮の美,,有限会社,富山県,氷見市,脇方３８３番地３,,16,205,9350421,,,2025-04-09,清算の結了等,,,2015-10-05,1,,,,,シオノミ,0
2639,9240001006410,登記記録の閉鎖等,0,2025-04-16,2025-04-09,辰美産業株式会社,,株式会社,広島県,広島市佐伯区,五日市町大字石内３６６５番地,,34,108,7315102,,,2025-04-09,清算の結了等,,,2015-10-05,1,,,,,,0
2643,9250001009800,登記記録の閉鎖等,0,2025-04-16,2025-04-01,西京インテリジェンスパートナーズ株式会社,,株式会社,山口県,周南市,銀南街４番地,,35,215,7450031,,,2025-04-01,合併による解散等,2250001010921,令和７年４月１日山口県周南市銀南街４番地株式会社エスファイナンス（2250001010921）に合併し解散,2015-10-05,1,,,,,サイキョウインテリジェンスパートナーズ,0
2650,9290001049842,登記記録の閉鎖等,0,2025-04-16,2025-04-01,共友株式会社,,株式会社,福岡県,久留米市,城島町楢津１４０７番地の６,,40,203,8300211,,,2025-04-01,合併による解散等,2290001054221,令和７年４月１日福岡県久留米市城島町楢津１４０７番地６株式会社隆成堂（2290001054221）に合併し解散,2015-10-05,1,,,,,キョウユウ,0
2663,9290005016392,登記記録の閉鎖等,0,2025-04-16,2025-04-07,一般社団法人ＪＡＰＡＮＥＳＥ　ＣＨＲＩＳＴＩＡＮ　ＣＨＵＲＣＨＥＳ,,その他の設立登記法人,福岡県,福岡市博多区,奈良屋町５番１８－２０１号,,40,132,8120023,,,2025-04-07,清算の結了等,,,2017-05-09,1,,,,,,0
2665,9310005005418,登記記録の閉鎖等,0,2025-04-16,2025-04-10,医療法人前川歯科医院,,その他の設立登記法人,長崎県,南島原市,深江町丙８００番地７,,42,214,8591503,,,2025-04-10,清算の結了等,,,2015-10-05,1,,,,,マエカワシカイイン,0
2674,9340005009168,登記記録の閉鎖等,0,2025-04-16,2025-04-08,スリーウィン協同組合,,その他の設立登記法人,鹿児島県,鹿児島市,西田２丁目２７番３２号,,46,201,8900046,,,2025-04-08,清算の結了等,,,2020-06-08,1,,,,,スリーウィン,0
2679,9360001026891,登記記録の閉鎖等,0,2025-04-16,2025-04-03,Ｉｎｈｅｒｉｔａｎｃｅ株式会社,,株式会社,沖縄県,南城市,大里字仲間１１６１番地１ミヤカツハイム１０１号室,,47,215,9011206,,,2025-04-03,清算の結了等,,,2020-03-04,1,,,,,インヘリタンス,0
2686,9370501000115,登記記録の閉鎖等,0,2025-04-16,2025-04-01,株式会社片浜屋,,株式会社,岩手県,大船渡市,盛町字木町１４番地５,,03,203,0220003,,,2025-04-01,合併による解散等,2402701000203,令和７年４月１日岩手県大船渡市盛町字木町１４番地５株式会社マイヤ（2402701000203）に合併し解散,2015-10-05,1,,,,,カタハマヤ,0
2688,9390001000002,登記記録の閉鎖等,0,2025-04-16,2025-04-10,株式会社ティーワイ開発,,株式会社,山形県,山形市,南一番町１１番１６号,,06,201,9902441,,,2025-04-10,合併による解散等,3390001001468,令和７年４月１日山形市大字青柳字一本木８５日米商事株式会社（3390001001468）に合併し解散,2015-10-05,1,,,,,ティーワイカイハツ,0
2704,9470002007905,登記記録の閉鎖等,0,2025-04-16,2025-04-07,有限会社富士ベル,,有限会社,香川県,高松市,室町１９２９番地,,37,201,7618061,,,2025-04-07,清算の結了等,,,2015-10-05,1,,,,,フジベル,0
2705,9470002012731,登記記録の閉鎖等,0,2025-04-16,2025-04-09,有限会社宮武組,,有限会社,香川県,仲多度郡多度津町,大字道福寺６２４番地,,37,404,7640027,,,2025-04-09,清算の結了等,,,2015-10-05,1,,,,,ミヤタケグミ,0
2706,9470002019074,登記記録の閉鎖等,0,2025-04-16,2025-04-08,有限会社淵崎製パン所,,有限会社,香川県,小豆郡土庄町,淵崎甲８３９番地,,37,322,7614121,,,2025-04-08,清算の結了等,,,2015-10-05,1,,,,,フチザキセイパンショ,0
