sequenceNumber,corporateNumber,process,correct,updateDate,changeDate,name,nameImageId,kind,prefectureName,cityName,streetNumber,addressImageId,prefectureCode,cityCode,postCode,addressOutside,addressOutsideImageId,closeDate,closeCause,successorCorporateNumber,changeCause,assignmentDate,latest,enName,enPrefectureName,enCityName,enAddressOutside,furigana,hihyoji
28,1010601043024,登記記録の閉鎖等,0,2022-06-02,2022-05-30,株式会社ｉ．ｈ．ｃ,,株式会社,東京都,江東区,東砂５丁目２番１３－５０３号,,13,108,1360074,,,2022-05-30,清算の結了等,,,2015-10-05,1,,,,,アイエイチシー,0
34,1010602011582,登記記録の閉鎖等,0,2022-06-02,2022-05-27,有限会社清水地銅店,,有限会社,東京都,墨田区,石原１丁目２９番１０号,,13,107,1300011,,,2022-05-27,清算の結了等,,,2015-10-05,1,,,,,,0
89,1020002024300,登記記録の閉鎖等,0,2022-06-02,2022-05-30,有限会社天龍堂ベーカリー,,有限会社,神奈川県,横浜市保土ケ谷区,桜ケ丘１丁目３９番１３号,,14,106,2400011,,,2022-05-30,清算の結了等,,,2015-10-05,1,,,,,テンリュウドウベーカリー,0
91,1020002033879,登記記録の閉鎖等,0,2022-06-02,2022-05-27,有限会社沢田工務店,,有限会社,神奈川県,横浜市都筑区,池辺町４７２９番地４,,14,118,2240053,,,2022-05-27,清算の結了等,,,2015-10-05,1,,,,,サワダコウムテン,0
96,1021001068817,登記記録の閉鎖等,0,2022-06-02,2022-05-26,株式会社アールティ・コラボ,,株式会社,神奈川県,大和市,桜森２丁目３番８－２０１号,,14,213,2420028,,,2022-05-26,合併による解散等,6021001057609,令和４年５月２６日神奈川県大和市下鶴間二丁目１２番３３－７０７号株式会社ケイ・システム（6021001057609）に合併し解散,2019-12-09,1,,,,,アールティコラボ,0
110,1040002073865,登記記録の閉鎖等,0,2022-06-02,2022-05-30,株式会社生友建設,,株式会社,千葉県,市原市,門前２丁目２８５番地２,,12,219,2900016,,,2022-05-30,清算の結了等,,,2015-10-05,1,,,,,,0
120,1060001026277,登記記録の閉鎖等,0,2022-06-02,2022-05-27,関東江隆通商株式会社,,株式会社,栃木県,さくら市,上阿久津５２８番地１,,09,214,3291316,,,2022-05-27,清算の結了等,,,2015-10-05,1,,,,,,0
129,1080102020656,登記記録の閉鎖等,0,2022-06-02,2022-05-31,有限会社山本綿業,,有限会社,静岡県,伊東市,宇佐美２８０４番地の１,,22,208,4140001,,,2022-05-31,清算の結了等,,,2015-10-05,1,,,,,ヤマモトメンギョウ,0
135,1100001016125,登記記録の閉鎖等,0,2022-06-02,2022-05-25,株式会社ミナミ企画,,株式会社,長野県,塩尻市,大門並木町７番９号,,20,215,3990746,,,2022-05-25,清算の結了等,,,2015-10-05,1,,,,,ミナミキカク,0
139,1110001007420,登記記録の閉鎖等,0,2022-06-02,2022-05-24,株式会社石黒農園,,株式会社,新潟県,新潟市南区,下塩俵１９２７番地,,15,106,9501241,,,2022-05-24,清算の結了等,,,2022-03-03,1,,,,,,0
141,1120001024951,登記記録の閉鎖等,0,2022-06-02,2022-06-01,エムティークリエイツ株式会社,,株式会社,大阪府,大阪市中央区,南久宝寺町３丁目１番３号,,27,128,5410058,,,2022-06-01,合併による解散等,3120001129088,令和４年６月１日大阪市中央区南久宝寺町三丁目１番３号株式会社ペリカン（3120001129088）に合併し解散,2015-10-05,1,,,,,エムティークリエイツ,0
188,1140001110626,登記記録の閉鎖等,0,2022-06-02,2022-05-30,株式会社ビッグディッパー,,株式会社,兵庫県,神戸市中央区,御幸通８丁目１番６号神戸国際会館２２Ｆ－Ｓ１５,,28,110,6510087,,,2022-05-30,清算の結了等,,,2018-07-09,1,,,,,ビッグディッパー,0
211,1180002018815,登記記録の閉鎖等,0,2022-06-02,2022-05-31,有限会社ドレミ楽器,,有限会社,愛知県,名古屋市中川区,松年町３丁目６番地の２,,23,110,4540854,,,2022-05-31,清算の結了等,,,2015-10-05,1,,,,,ドレミガッキ,0
212,1180003000342,登記記録の閉鎖等,0,2022-06-02,2022-05-31,合資会社瀬尾商店,00073682,合資会社,愛知県,名古屋市千種区,千種３丁目３４番１９号,,23,101,4640858,,,2022-05-31,清算の結了等,,,2015-10-05,1,,,,,セオショウテン,0
216,1200001014044,登記記録の閉鎖等,0,2022-06-02,2022-05-31,富田木材工業株式会社,,株式会社,岐阜県,大垣市,神田町１丁目７６番地,,21,202,5030917,,,2022-05-31,清算の結了等,,,2015-10-05,1,,,,,トミダモクザイコウギョウ,0
218,1200002022863,登記記録の閉鎖等,0,2022-06-02,2022-05-31,有限会社グローバ・ジャパン,,有限会社,岐阜県,多治見市,小名田町西ケ洞１番地の１４５,,21,204,5070007,,,2022-05-31,清算の結了等,,,2015-10-05,1,,,,,グローバジャパン,0
230,1290001012601,登記記録の閉鎖等,0,2022-06-02,2022-05-30,九州友好貿易株式会社,,株式会社,福岡県,福岡市博多区,博多駅東３丁目１１番１４号アバンダント９０　３０５号,,40,132,8120013,,,2022-05-30,清算の結了等,,,2015-10-05,1,,,,,キュウシュウユウコウボウエキ,0
234,1290001077702,登記記録の閉鎖等,0,2022-06-02,2022-05-26,株式会社オカフミ,,株式会社,福岡県,福岡市南区,寺塚２丁目１８番１３号,,40,134,8150074,,,2022-05-26,清算の結了等,,,2017-05-10,1,,,,,オカフミ,0
243,1310002001311,登記記録の閉鎖等,0,2022-06-02,2022-06-01,有限会社九州ゴム工業所,,有限会社,長崎県,長崎市,小江町１９２３番地１,,42,201,8511133,,,2022-06-01,清算の結了等,,,2015-10-05,1,,,,,キュウシュウゴムコウギョウショ,0
259,1370802001901,登記記録の閉鎖等,0,2022-06-02,2022-05-30,有限会社タカヒラ,,有限会社,宮城県,名取市,大手町４丁目１８番地の１エミール２０１号,,04,207,9811232,,,2022-05-30,清算の結了等,,,2015-10-05,1,,,,,タカヒラ,0
292,2010401018720,登記記録の閉鎖等,0,2022-06-02,2022-05-16,株式会社電算システム,,株式会社,東京都,港区,浜松町１丁目２０番８号,,13,103,1050013,,,2022-05-16,清算の結了等,,,2015-10-05,1,,,,,,0
294,2010401133206,登記記録の閉鎖等,0,2022-06-02,2022-05-17,Ｍａｎｉｔｏｂａ　Ｈａｒｖｅｓｔ　Ｊａｐａｎ株式会社,,株式会社,東京都,港区,西新橋３丁目２４番８号山内ビル３Ｆ,,13,103,1050003,,,2022-05-17,清算の結了等,,,2017-08-16,1,,,,,マニトバハーベストジャパン,0
311,2010801003677,登記記録の閉鎖等,0,2022-06-02,2022-05-27,株式会社興栄製作所,,株式会社,東京都,大田区,本羽田３丁目１番１４号,,13,111,1440044,,,2022-05-27,清算の結了等,,,2015-10-05,1,,,,,,0
322,2011001118167,登記記録の閉鎖等,0,2022-06-02,2022-05-16,株式会社ＳＮＯＷ　ＤＲＯＰ,,株式会社,東京都,渋谷区,恵比寿２丁目５番８号,,13,113,1500013,,,2022-05-16,清算の結了等,,,2017-09-07,1,,,,,スノードロップ,0
369,2020001032625,登記記録の閉鎖等,0,2022-06-02,2022-05-30,株式会社守正,,株式会社,神奈川県,横浜市金沢区,洲崎町２１番１号東ハイツ１０２,,14,108,2360028,,,2022-05-30,清算の結了等,,,2015-10-05,1,,,,,モリショウ,0
379,2020002002610,登記記録の閉鎖等,0,2022-06-02,2022-05-30,神田工業有限会社,,有限会社,神奈川県,横浜市泉区,中田北３丁目３３番４８号,,14,116,2450012,,,2022-05-30,清算の結了等,,,2015-10-05,1,,,,,カンダコウギョウ,0
384,2021002045599,登記記録の閉鎖等,0,2022-06-02,2022-05-30,有限会社平和産業,,有限会社,神奈川県,海老名市,東柏ケ谷１丁目１４番１２号,,14,215,2430401,,,2022-05-30,清算の結了等,,,2015-10-05,1,,,,,ヘイワサンギョウ,0
402,2050001045905,登記記録の閉鎖等,0,2022-06-02,2022-05-26,株式会社趙家キムチ白飯家,,株式会社,茨城県,つくば市,西平塚２６５番地１,,08,220,3050814,,,2022-05-26,清算の結了等,,,2019-05-08,1,,,,,チョウケキムチハクハンヤ,0
404,2060001029766,登記記録の閉鎖等,0,2022-06-02,2022-05-30,株式会社書店と本の文化を拡める会,,株式会社,栃木県,那須郡那須町,大字高久丙２番地３９,,09,407,3250302,,,2022-05-30,清算の結了等,,,2017-09-11,1,,,,,ショテントホンノブンカヲヒロメルカイ,0
411,2080001008248,登記記録の閉鎖等,0,2022-06-02,2022-05-31,株式会社エイワ設備,,株式会社,静岡県,静岡市清水区,永楽町４番３５号,,22,103,4240043,,,2022-05-31,清算の結了等,,,2015-10-05,1,,,,,エイワセツビ,0
415,2080402021824,登記記録の閉鎖等,0,2022-06-02,2022-05-30,有限会社村岡自動車部品販売商会,,有限会社,静岡県,袋井市,睦町６番地の６,,22,216,4370041,,,2022-05-30,清算の結了等,,,2015-10-05,1,,,,,ムラオカジドウシャブヒンハンバイショウカイ,0
418,2110002020834,登記記録の閉鎖等,0,2022-06-02,2022-05-30,有限会社蔵良,,有限会社,新潟県,柏崎市,松波１丁目２０番３８号,,15,205,9450011,,,2022-05-30,清算の結了等,,,2015-10-05,1,,,,,,0
441,2130001033208,登記記録の閉鎖等,0,2022-06-02,2022-05-31,株式会社山政小山政次郎商店,,株式会社,京都府,宇治市,小倉町久保９９番地の２,,26,204,6110042,,,2022-05-31,清算の結了等,,,2015-10-05,1,,,,,ヤママサコヤマセイジロウショウテン,0
448,2140001104619,登記記録の閉鎖等,0,2022-06-02,2022-05-31,株式会社ジージー・シーシー,,株式会社,兵庫県,加古川市,別府町新野辺北町３丁目６３番２号,,28,210,6750121,,,2022-05-31,清算の結了等,,,2017-01-11,1,,,,,ジージーシーシー,0
460,2180003018680,登記記録の閉鎖等,0,2022-06-02,2022-05-27,ライフサービス合同会社,,合同会社,愛知県,半田市,板山町８丁目１５５番地の５,,23,205,4750936,,,2022-05-27,清算の結了等,,,2018-02-08,1,,,,,ライフサービス,0
475,2220005006860,登記記録の閉鎖等,0,2022-06-02,2022-05-31,特定非営利活動法人加賀市観光ボランティア大学,,その他の設立登記法人,石川県,加賀市,三木町ヲ７番地１,,17,206,9220854,,,2022-05-31,清算の結了等,,,2015-10-05,1,,,,,カガシカンコウボランティアダイガク,0
482,2240002016101,登記記録の閉鎖等,0,2022-06-02,2022-05-25,有限会社水原鉄工所,,有限会社,広島県,広島市西区,中広町２丁目２２番７号,,34,104,7330012,,,2022-05-25,清算の結了等,,,2015-10-05,1,,,,,ミズハラテッコウショ,0
484,2240005014498,登記記録の閉鎖等,0,2022-06-02,2022-05-26,一般社団法人中国建設請負業協会,,その他の設立登記法人,広島県,広島市中区,大手町１丁目１番２６号大手町一番ビル３０５,,34,101,7300051,,,2022-05-26,合併による解散等,7010005021182,令和４年５月２３日東京都千代田区二番町３番地５一般社団法人全国建設請負業協会（7010005021182）に合併し解散,2017-11-10,1,,,,,チュウゴクケンセツウケオイギョウキョウカイ,0
504,2310001013513,登記記録の閉鎖等,0,2022-06-02,2022-05-30,Ｋ’ｓ株式会社,,株式会社,長崎県,平戸市,田平町下寺免６２５番地７,,42,207,8594815,,,2022-05-30,清算の結了等,,,2015-10-05,1,,,,,ケイズ,0
517,2380002018364,登記記録の閉鎖等,0,2022-06-02,2022-05-27,有限会社藤田燃料店,,有限会社,福島県,白河市,栄町１４番地の２,,07,205,9610803,,,2022-05-27,清算の結了等,,,2015-10-05,1,,,,,フジタネンリョウテン,0
518,2380002030518,登記記録の閉鎖等,0,2022-06-02,2022-05-27,有限会社山三ハウス,,有限会社,福島県,双葉郡浪江町,大字津島字町前３番地２,,07,547,9791757,,,2022-05-27,清算の結了等,,,2015-10-05,1,,,,,ヤマサンハウス,0
521,2390001012879,登記記録の閉鎖等,0,2022-06-02,2022-05-30,株式会社白壁接骨院,,株式会社,山形県,山形市,飯塚町１３５３番地１７,,06,201,9900845,,,2022-05-30,清算の結了等,,,2015-10-05,1,,,,,,0
526,2420001013428,登記記録の閉鎖等,0,2022-06-02,2022-05-31,株式会社ファースト,,株式会社,青森県,八戸市,大字六日町８番１号やま正ビル１階,,02,203,0310033,,,2022-05-31,清算の結了等,,,2015-10-05,1,,,,,,0
563,3010402006574,登記記録の閉鎖等,0,2022-06-02,2022-05-16,有限会社Ｄｅｂｕｔ,,有限会社,東京都,港区,三田２丁目７番２０号,,13,103,1080073,,,2022-05-16,清算の結了等,,,2015-10-05,1,,,,,デビュー,0
572,3010601010872,登記記録の閉鎖等,0,2022-06-02,2022-05-27,株式会社塩月,,株式会社,東京都,墨田区,石原２丁目１６番２号,,13,107,1300011,,,2022-05-27,清算の結了等,,,2015-10-05,1,,,,,,0
574,3010701036330,登記記録の閉鎖等,0,2022-06-02,2022-05-31,株式会社Ｉｎ　ｃｉｂｏ　ｖｅｒｉｔａｓ,,株式会社,東京都,品川区,二葉２丁目１２番６号,,13,109,1420043,,,2022-05-31,合併による解散等,2011001103607,令和４年５月１１日東京都目黒区上目黒一丁目１９番４－２０１号株式会社ピアネタ（2011001103607）に合併し解散,2018-08-28,1,,,,,インチーボヴェリタス,0
579,3010901002818,登記記録の閉鎖等,0,2022-06-02,2022-05-30,株式会社桂屋,,株式会社,東京都,世田谷区,成城６丁目１０番５号,,13,112,1570066,,,2022-05-30,清算の結了等,,,2015-10-05,1,,,,,カツラヤ,0
597,3011005004973,登記記録の閉鎖等,0,2022-06-02,2022-05-16,サービスオフィス協同組合,,その他の設立登記法人,東京都,渋谷区,渋谷３丁目５番１６号,,13,113,1500002,,,2022-05-16,清算の結了等,,,2015-10-05,1,,,,,,0
604,3011301025871,登記記録の閉鎖等,0,2022-06-02,2022-05-31,株式会社ＩＧＵ,,株式会社,東京都,杉並区,下井草３丁目４０番１３号ビーハイム栗山２０２,,13,115,1670022,,,2022-05-31,清算の結了等,,,2020-04-20,1,,,,,アイジーユー,0
616,3012301007257,登記記録の閉鎖等,0,2022-06-02,2022-05-26,株式会社アルティメイト,,株式会社,東京都,町田市,小川１５３１番地３,,13,209,1940003,,,2022-05-26,清算の結了等,,,2015-10-05,1,,,,,,0
618,3012401013436,登記記録の閉鎖等,0,2022-06-02,2022-05-30,株式会社イー・アール・エス,,株式会社,東京都,武蔵野市,境４丁目１１番６号,,13,203,1800022,,,2022-05-30,清算の結了等,,,2015-10-05,1,,,,,イーアールエス,0
626,3020001027987,登記記録の閉鎖等,0,2022-06-02,2022-05-30,株式会社ドルジバ,,株式会社,神奈川県,横浜市中区,不老町３丁目１２番地,,14,104,2310032,,,2022-05-30,清算の結了等,,,2015-10-05,1,,,,,ドルジバ,0
659,3040002034774,登記記録の閉鎖等,0,2022-06-02,2022-05-30,有限会社スリーテック,,有限会社,千葉県,市川市,行徳駅前４丁目６番１６号,,12,203,2720133,,,2022-05-30,清算の結了等,,,2015-10-05,1,,,,,スリーテック,0
660,3040002074317,登記記録の閉鎖等,0,2022-06-02,2022-05-31,有限会社テクノナイン,,有限会社,千葉県,市原市,五所１４１番地３,,12,219,2900066,,,2022-05-31,清算の結了等,,,2015-10-05,1,,,,,テクノナイン,0
668,3060001010493,登記記録の閉鎖等,0,2022-06-02,2022-05-27,大興ハウジング株式会社,,株式会社,栃木県,鹿沼市,東町３丁目３番３１号,,09,205,3220022,,,2022-05-27,清算の結了等,,,2015-10-05,1,,,,,タイコウハウジング,0
676,3070001009782,登記記録の閉鎖等,0,2022-06-02,2022-05-23,森澤機械産業株式会社,,株式会社,群馬県,安中市,簗瀬６０８番地,,10,211,3790134,,,2022-05-23,清算の結了等,,,2021-12-22,1,,,,,モリサワキカイサンギョウ,0
685,3080002000459,登記記録の閉鎖等,0,2022-06-02,2022-06-01,株式会社トゥーハート,,株式会社,静岡県,静岡市駿河区,西脇２５５番地の２,,22,102,4228044,,,2022-06-01,清算の結了等,,,2015-10-05,1,,,,,トゥーハート,0
687,3080101017800,登記記録の閉鎖等,0,2022-06-02,2022-05-30,リザウンド株式会社,,株式会社,静岡県,三島市,御園７０番地の２,,22,206,4110823,,,2022-05-30,清算の結了等,,,2015-10-05,1,,,,,リザウンド,0
688,3080102011067,登記記録の閉鎖等,0,2022-06-02,2022-05-30,有限会社東洋ビルエンタープライズ,,有限会社,静岡県,藤枝市,田沼３丁目１６番２３号,,22,214,4260061,,,2022-05-30,清算の結了等,,,2015-10-05,1,,,,,トウヨウビルエンタープライズ,0
725,3140001017943,登記記録の閉鎖等,0,2022-06-02,2022-05-31,株式会社丸恵フルーツ．チエーン,,株式会社,兵庫県,神戸市須磨区,飛松町２丁目１番５号,,28,107,6540012,,,2022-05-31,清算の結了等,,,2015-10-05,1,,,,,マルケイフルーツチエーン,0
742,3140002051727,登記記録の閉鎖等,0,2022-06-02,2022-05-24,有限会社中野産業,,有限会社,兵庫県,姫路市,夢前町山之内甲１１６番地１０,,28,201,6712101,,,2022-05-24,清算の結了等,,,2015-10-05,1,,,,,ナカノサンギョウ,0
758,3180001035611,登記記録の閉鎖等,0,2022-06-02,2022-05-30,株式会社グレース工芸,,株式会社,愛知県,春日井市,高山町４丁目９番地７,,23,206,4860912,,,2022-05-30,清算の結了等,,,2015-10-05,1,,,,,グレースコウゲイ,0
797,3250002011686,登記記録の閉鎖等,0,2022-06-02,2022-05-31,豊浦商会有限会社,,有限会社,山口県,下関市,豊浦町大字川棚６３８４番地の２,,35,201,7596301,,,2022-05-31,清算の結了等,,,2015-10-05,1,,,,,トヨウラショウカイ,0
802,3260005008720,登記記録の閉鎖等,0,2022-06-02,2022-06-01,特定非営利活動法人地域文化研究所,,その他の設立登記法人,岡山県,岡山市北区,表町１丁目４番６４号,,33,101,7000822,,,2022-06-01,清算の結了等,,,2015-10-05,1,,,,,チイキブンカケンキュウショ,0
818,3300002001153,登記記録の閉鎖等,0,2022-06-02,2022-05-31,有限会社野田竹次商店,,有限会社,佐賀県,佐賀市,西与賀町大字高太郎１８５番地,,41,201,8400036,,,2022-05-31,清算の結了等,,,2015-10-05,1,,,,,ノダタケジショウテン,0
844,3380002018438,登記記録の閉鎖等,0,2022-06-02,2022-05-27,有限会社ホンダ設備工業,,有限会社,福島県,白河市,関辺川前７番地の３０９,,07,205,9610021,,,2022-05-27,清算の結了等,,,2015-10-05,1,,,,,ホンダセツビコウギョウ,0
926,4011101080793,登記記録の閉鎖等,0,2022-06-02,2022-05-31,株式会社ＭＩＥＬ　Ｇｒｏｕｐ,,株式会社,東京都,新宿区,西新宿１丁目１５番１０号西新宿ビル２Ｆ,,13,104,1600023,,,2022-05-31,清算の結了等,,,2017-06-15,1,,,,,ミエルグループ,0
954,4013202013723,登記記録の閉鎖等,0,2022-06-02,2022-05-31,有限会社ティーアイズ,,有限会社,東京都,目黒区,目黒１丁目１番３２号,,13,110,1530063,,,2022-05-31,清算の結了等,,,2015-10-05,1,,,,,ティーアイズ,0
956,4020001000514,登記記録の閉鎖等,0,2022-06-02,2022-05-26,株式会社イワサキハウス,,株式会社,神奈川県,横浜市泉区,中田東１丁目３７番３号,,14,116,2450013,,,2022-05-26,清算の結了等,,,2015-11-06,1,,,,,イワサキハウス,0
970,4020002086445,登記記録の閉鎖等,0,2022-06-02,2022-05-25,有限会社河合工務店,,有限会社,神奈川県,川崎市宮前区,南野川３丁目１７番２６号,,14,136,2160042,,,2022-05-25,清算の結了等,,,2015-10-05,1,,,,,カワイコウムテン,0
989,4040001010206,登記記録の閉鎖等,0,2022-06-02,2022-05-30,松済興業株式会社,,株式会社,千葉県,千葉市中央区,新町２２番１号,,12,101,2600028,,,2022-05-30,清算の結了等,,,2015-10-05,1,,,,,,0
998,4050001023859,登記記録の閉鎖等,0,2022-06-02,2022-05-23,株式会社ＯＤＳ,,株式会社,東京都,千代田区,飯田橋４丁目７番１１号カクタス飯田橋ビル８０４,,13,101,1020072,,,2022-05-23,清算の結了等,,,2015-10-05,1,,,,,オーディーエス,0
1007,4070001000823,登記記録の閉鎖等,0,2022-06-02,2022-05-23,株式会社きようしん,,株式会社,群馬県,前橋市,千代田町５丁目１０番６号,,10,201,3710022,,,2022-05-23,清算の結了等,,,2015-10-05,1,,,,,キョウシン,0
1012,4080101008294,登記記録の閉鎖等,0,2022-06-02,2022-05-31,株式会社荻原組,,株式会社,静岡県,富士市,大渕２０７番地,,22,210,4170000,,,2022-05-31,清算の結了等,,,2015-10-05,1,,,,,オギワラグミ,0
1016,4080102003559,登記記録の閉鎖等,0,2022-06-02,2022-05-31,有限会社メンテイク,,有限会社,静岡県,沼津市,岡宮７８７番地の８,,22,203,4100011,,,2022-05-31,清算の結了等,,,2015-10-05,1,,,,,メンテイク,0
1026,4120001029931,登記記録の閉鎖等,0,2022-06-02,2022-06-01,港産業株式会社,,株式会社,大阪府,大阪市港区,福崎３丁目１番１６号,,27,107,5520013,,,2022-06-01,合併による解散等,7120001031249,令和４年６月１日大阪市住之江区南港東七丁目１番１０６号株式会社トーシン（7120001031249）に合併し解散,2015-10-05,1,,,,,ミナトサンギョウ,0
1057,4140002039408,登記記録の閉鎖等,0,2022-06-02,2022-05-30,有限会社金順商店,,有限会社,兵庫県,朝来市,和田山町林垣１１４５番地の２,,28,225,6695231,,,2022-05-30,清算の結了等,,,2015-10-05,1,,,,,カナジュンショウテン,0
1069,4180001114224,登記記録の閉鎖等,0,2022-06-02,2022-05-25,株式会社どうのメディカル,,株式会社,愛知県,東海市,大田町前田３３番地１,,23,222,4770031,,,2022-05-25,清算の結了等,,,2015-10-05,1,,,,,ドウノメディカル,0
1070,4180001122697,登記記録の閉鎖等,0,2022-06-02,2022-05-27,株式会社ＡＩＲＩＳ,,株式会社,愛知県,名古屋市千種区,向陽町１丁目２６番地の３,,23,101,4640062,,,2022-05-27,清算の結了等,,,2016-04-01,1,,,,,アイリス,0
1087,4200001006955,登記記録の閉鎖等,0,2022-06-02,2022-05-31,株式会社各務原ホーエー家電,,株式会社,岐阜県,各務原市,鵜沼各務原町１丁目２２０番地,,21,213,5090141,,,2022-05-31,清算の結了等,,,2015-10-05,1,,,,,カガミガハラホーエーカデン,0
1088,4200001032092,登記記録の閉鎖等,0,2022-06-02,2022-06-01,株式会社ＶＩＳＩＯＮ,,株式会社,岐阜県,岐阜市,日置江１丁目１４番地,,21,201,5016133,,,2022-06-01,清算の結了等,,,2015-10-05,1,,,,,ヴィジョン,0
1096,4240001050487,登記記録の閉鎖等,0,2022-06-02,2022-05-30,ＧＥ株式会社,,株式会社,広島県,福山市,三之丸町７番１３号,,34,207,7200066,,,2022-05-30,合併による解散等,9260001030375,令和４年５月２６日岡山県倉敷市日ノ出町二丁目１番６３号一嶺株式会社（9260001030375）に合併し解散,2017-01-16,1,,,,,ジーイー,0
1098,4240005013416,登記記録の閉鎖等,0,2022-06-02,2022-05-30,一般社団法人凍結含浸やわらか食を普及する会,,その他の設立登記法人,広島県,福山市,本庄町中１丁目３３番２３号,,34,207,7200076,,,2022-05-30,清算の結了等,,,2015-10-05,1,,,,,トウケツガンシンヤワラカショクヲフキュウスルカイ,0
1102,4260001030074,登記記録の閉鎖等,0,2022-06-02,2022-05-31,石井不動産株式会社,,株式会社,岡山県,総社市,上林３１０番地２,,33,208,7191123,,,2022-05-31,清算の結了等,,,2016-10-19,1,,,,,イシイフドウサン,0
1108,4290001040905,登記記録の閉鎖等,0,2022-06-02,2022-05-30,筑紫食糧販売設備株式会社,,株式会社,福岡県,太宰府市,水城１丁目３番８号,,40,221,8180131,,,2022-05-30,清算の結了等,,,2015-10-05,1,,,,,チクシショクリョウハンバイセツビ,0
1182,5010502017065,登記記録の閉鎖等,0,2022-06-02,2022-06-01,有限会社小池,,有限会社,東京都,台東区,千束２丁目３４番４号,,13,106,1110031,,,2022-06-01,清算の結了等,,,2015-10-05,1,,,,,コイケ,0
1189,5010901031600,登記記録の閉鎖等,0,2022-06-02,2022-05-30,株式会社ＳＫＪ,,株式会社,東京都,世田谷区,赤堤１丁目８番１５号,,13,112,1560044,,,2022-05-30,清算の結了等,,,2015-10-05,1,,,,,,0
1207,5011101014998,登記記録の閉鎖等,0,2022-06-02,2022-05-31,東京測量株式会社,,株式会社,東京都,杉並区,井草１丁目８番１２号,,13,115,1670021,,,2022-05-31,清算の結了等,,,2015-10-05,1,,,,,トウキョウソクリョウ,0
1212,5011102020673,登記記録の閉鎖等,0,2022-06-02,2022-05-23,有限会社アイランド建企画コンサルタント,,有限会社,東京都,中央区,東日本橋３丁目１２番７号,,13,102,1030004,,,2022-05-23,清算の結了等,,,2015-10-05,1,,,,,アイランドケンキカクコンサルタント,0
1247,5020003015113,登記記録の閉鎖等,0,2022-06-02,2022-05-30,輝煌合同会社,,合同会社,東京都,板橋区,板橋１丁目４８－１０－４０５,,13,119,1730004,,,2022-05-30,清算の結了等,,,2018-10-24,1,,,,,キオウ,0
1264,5030002075009,登記記録の閉鎖等,0,2022-06-02,2022-05-27,有限会社ポップラン,,有限会社,埼玉県,川越市,大字池辺３８２番地２,,11,201,3501171,,,2022-05-27,清算の結了等,,,2015-10-05,1,,,,,ポップラン,0
1269,5030005017676,登記記録の閉鎖等,0,2022-06-02,2022-05-20,特定非営利活動法人中国帰国者総合互助ネットワーク,,その他の設立登記法人,埼玉県,所沢市,大字下安松１４８２番地２１,,11,208,3590024,,,2022-05-20,清算の結了等,,,2015-12-02,1,,,,,チュウゴクキコクシャソウゴウゴジョネットワーク,0
1272,5040001066453,登記記録の閉鎖等,0,2022-06-02,2022-05-30,増澤ケミカル販売株式会社,,株式会社,千葉県,柏市,柏３丁目５番７号,,12,217,2770005,,,2022-05-30,清算の結了等,,,2015-10-05,1,,,,,マスザワケミカルハンバイ,0
1276,5040002036983,登記記録の閉鎖等,0,2022-06-02,2022-05-30,株式会社モーニングハウス中山,,株式会社,千葉県,市川市,若宮３丁目１番７号,,12,203,2720812,,,2022-05-30,清算の結了等,,,2015-10-05,1,,,,,モーニングハウスナカヤマ,0
1279,5040002082474,登記記録の閉鎖等,0,2022-06-02,2022-05-30,有限会社芝田漬物店,,有限会社,千葉県,長生郡一宮町,一宮２２３７番地,,12,421,2994301,,,2022-05-30,清算の結了等,,,2015-10-05,1,,,,,,0
1285,5050002029490,登記記録の閉鎖等,0,2022-06-02,2022-05-26,有限会社柴田商事,,有限会社,茨城県,鉾田市,徳宿３１０５番地の２,,08,234,3111503,,,2022-05-26,清算の結了等,,,2015-10-05,1,,,,,シバタショウジ,0
1300,5100001020726,登記記録の閉鎖等,0,2022-06-02,2022-05-30,株式会社島田屋,,株式会社,長野県,伊那市,荒井２１番地,,20,209,3960025,,,2022-05-30,清算の結了等,,,2015-10-05,1,,,,,,0
1335,5140002017536,登記記録の閉鎖等,0,2022-06-02,2022-05-30,有限会社ジョリーマダム,,有限会社,兵庫県,芦屋市,海洋町１２番１－１８１５号,,28,206,6590035,,,2022-05-30,清算の結了等,,,2015-10-05,1,,,,,ジョリーマダム,0
1419,5500001002213,登記記録の閉鎖等,0,2022-06-02,2022-05-31,株式会社ジャパンクリエイティブセンター,,株式会社,愛媛県,松山市,一番町４丁目１番１１,,38,201,7900001,,,2022-05-31,清算の結了等,,,2015-10-05,1,,,,,,0
1432,6010002010528,登記記録の閉鎖等,0,2022-06-02,2022-05-23,有限会社松律社,,有限会社,東京都,千代田区,西神田１丁目３番１号,,13,101,1010065,,,2022-05-23,清算の結了等,,,2015-10-05,1,,,,,ショウリツシャ,0
1433,6010002026210,登記記録の閉鎖等,0,2022-06-02,2022-05-24,有限会社横井商店,,有限会社,東京都,中央区,佃２丁目１３番１０号,,13,102,1040051,,,2022-05-24,清算の結了等,,,2015-10-05,1,,,,,ヨコイショウテン,0
1448,6010501046592,登記記録の閉鎖等,0,2022-06-02,2022-06-01,株式会社ＳＩエコテック,,株式会社,東京都,台東区,千束３丁目２０番１８号,,13,106,1110031,,,2022-06-01,合併による解散等,7010501014235,令和４年６月１日東京都台東区上野一丁目１９番１０号株式会社ヤザワコーポレーション（7010501014235）に合併し解散,2020-12-03,1,,,,,エスアイエコテック,0
1467,6011001072815,登記記録の閉鎖等,0,2022-06-02,2022-06-01,エムアイシーブラザーズ株式会社,,株式会社,大阪府,大阪市中央区,南久宝寺町３丁目１番３号,,27,128,5410058,,,2022-06-01,合併による解散等,3120001129088,令和４年６月１日大阪市中央区南久宝寺町三丁目１番３号株式会社ペリカン（3120001129088）に合併し解散,2015-10-05,1,,,,,エムアイシーブラザーズ,0
1496,6011502007716,登記記録の閉鎖等,0,2022-06-02,2022-05-31,有限会社笠原畳店,,有限会社,東京都,荒川区,東尾久１丁目２８番１０号,,13,118,1160012,,,2022-05-31,清算の結了等,,,2015-10-05,1,,,,,カサハラタタミテン,0
1500,6011801006897,登記記録の閉鎖等,0,2022-06-02,2022-05-27,株式会社加豆屋,,株式会社,東京都,足立区,青井１丁目１８番１２号,,13,121,1200012,,,2022-05-27,清算の結了等,,,2015-10-05,1,,,,,カズヤ,0
1515,6020001092954,登記記録の閉鎖等,0,2022-06-02,2022-05-27,株式会社土田商店,,株式会社,神奈川県,横浜市都筑区,東方町１３８番地,,14,118,2240045,,,2022-05-27,清算の結了等,,,2015-10-05,1,,,,,ツチダショウテン,0
1531,6021001060216,登記記録の閉鎖等,0,2022-06-02,2022-05-25,株式会社Ｒａｉ’ｓ,,株式会社,神奈川県,横須賀市,上町２丁目４番地,,14,201,2380017,,,2022-05-25,合併による解散等,5021001044228,令和４年５月１日神奈川県横須賀市上町二丁目４番地株式会社頼Ｃｏｒｐｏｒａｔｉｏｎ（5021001044228）に合併し解散,2016-09-09,1,,,,,ライズ,0
1536,6030001020575,登記記録の閉鎖等,0,2022-06-02,2022-05-26,株式会社ニッセイ・バインダリー,,株式会社,埼玉県,戸田市,喜沢南１丁目５番４３号,,11,224,3350014,,,2022-05-26,清算の結了等,,,2015-10-05,1,,,,,ニッセイバインダリー,0
1545,6040001016374,登記記録の閉鎖等,0,2022-06-02,2022-05-30,株式会社ブエナビスタジャパン,,株式会社,千葉県,松戸市,新松戸４丁目２７０番地サンライトパストラル六番街Ｂ－１００３,,12,207,2700034,,,2022-05-30,清算の結了等,,,2015-10-05,1,,,,,ブエナビスタジャパン,0
1550,6050001009369,登記記録の閉鎖等,0,2022-06-02,2022-05-25,株式会社久保田土木,,株式会社,茨城県,土浦市,大岩田１２７０番地の４,,08,203,3000835,,,2022-05-25,清算の結了等,,,2015-10-05,1,,,,,クボタドボク,0
1553,6050002011514,登記記録の閉鎖等,0,2022-06-02,2022-05-25,有限会社坂内商事,,有限会社,茨城県,土浦市,天川１丁目１２番２号,,08,203,3000818,,,2022-05-25,清算の結了等,,,2015-10-05,1,,,,,サカウチショウジ,0
1562,6080001022716,登記記録の閉鎖等,0,2022-06-02,2022-06-01,株式会社大井川茶園流通経済研究所,,株式会社,静岡県,焼津市,上新田６８５番地の１,,22,212,4210206,,,2022-06-01,合併による解散等,6080001016098,令和４年６月１日静岡県焼津市上新田６８５番地の１株式会社大井川茶園（6080001016098）に合併し解散,2019-03-05,1,,,,,オオイガワチェンエンリュウツウケイザイケンキュウジョ,0
1585,6120001231469,登記記録の閉鎖等,0,2022-06-02,2022-06-01,株式会社ＥＳマシナリー,,株式会社,大阪府,大阪市北区,天満１丁目１９番４号,,27,127,5300043,,,2022-06-01,清算の結了等,,,2020-09-04,1,,,,,イーエスマシナリー,0
1593,6120002049043,登記記録の閉鎖等,0,2022-06-02,2022-05-31,有限会社タイムリー,,有限会社,大阪府,大阪市中央区,心斎橋筋１丁目５番２４号,,27,128,5420085,,,2022-05-31,清算の結了等,,,2015-10-05,1,,,,,タイムリー,0
1616,6160002005926,登記記録の閉鎖等,0,2022-06-02,2022-05-30,有限会社イーテックズ,,有限会社,滋賀県,甲賀市,甲南町耕心３丁目１１０９番地２９,,25,209,5203326,,,2022-05-30,清算の結了等,,,2015-10-05,1,,,,,イーテックズ,0
1675,6340002008274,登記記録の閉鎖等,0,2022-06-02,2022-06-01,有限会社福山建設,,有限会社,鹿児島県,鹿児島市,西陵６丁目２５番５号,,46,201,8900032,,,2022-06-01,清算の結了等,,,2015-10-05,1,,,,,フクヤマケンセツ,0
1679,6360001015121,登記記録の閉鎖等,0,2022-06-02,2022-05-25,株式会社リビング・アース,,株式会社,沖縄県,石垣市,字真栄里２８７番地２,,47,207,9070002,,,2022-05-25,清算の結了等,,,2015-10-05,1,,,,,,0
1711,7010001125251,登記記録の閉鎖等,0,2022-06-02,2022-05-24,株式会社ビルサポートサービス,,株式会社,東京都,中央区,新川１丁目１０番１４号ＦＯＲＥＣＡＳＴ茅場町ＡＮＮＥＸ４０２,,13,102,1040033,,,2022-05-24,清算の結了等,,,2015-10-05,1,,,,,ビルサポートサービス,0
1712,7010001131002,登記記録の閉鎖等,0,2022-06-02,2022-05-24,リアルコミュニケーション株式会社,,株式会社,東京都,千代田区,内幸町１丁目１番７号,,13,101,1000011,,,2022-05-24,清算の結了等,,,2015-10-05,1,,,,,リアルコミュニケーション,0
1725,7010005031438,登記記録の閉鎖等,0,2022-06-02,2022-06-01,一般社団法人アイランドシップ３号,,その他の設立登記法人,東京都,中央区,日本橋２丁目７番１号,,13,102,1030027,,,2022-06-01,清算の結了等,,,2020-02-13,1,,,,,アイランドシップサンゴウ,0
1745,7010602014761,登記記録の閉鎖等,0,2022-06-02,2022-05-30,有限会社高島工務店,,有限会社,東京都,墨田区,京島３丁目４５番２号,,13,107,1310046,,,2022-05-30,清算の結了等,,,2015-10-05,1,,,,,,0
1778,7020001024881,登記記録の閉鎖等,0,2022-06-02,2022-05-30,横浜リフオーム株式会社,,株式会社,神奈川県,横浜市神奈川区,白楽１００番地,,14,102,2210065,,,2022-05-30,清算の結了等,,,2015-10-05,1,,,,,ヨコハマリフォーム,0
1781,7020001090098,登記記録の閉鎖等,0,2022-06-02,2022-05-30,スクラムソリューション株式会社,,株式会社,神奈川県,横浜市中区,住吉町６丁目７４ピージェイ馬車道ビル２階,,14,104,2310013,,,2022-05-30,清算の結了等,,,2015-10-05,1,,,,,スクラムソリューション,0
1822,7040002008361,登記記録の閉鎖等,0,2022-06-02,2022-05-30,有限会社ともえ煎餅千葉店,00019759,有限会社,千葉県,千葉市稲毛区,小仲台３丁目９番６号,,12,103,2630043,,,2022-05-30,清算の結了等,,,2015-10-05,1,,,,,トモエセンベイチバテン,0
1833,7060002010118,登記記録の閉鎖等,0,2022-06-02,2022-05-30,有限会社ティ・エム・コーポレーション,,有限会社,栃木県,宇都宮市,下岡本町４５５８番地８,,09,201,3291104,,,2022-05-30,清算の結了等,,,2015-10-05,1,,,,,ティエムコーポレーション,0
1837,7070002030387,登記記録の閉鎖等,0,2022-06-02,2022-05-23,有限会社日広アド・クリエイティブ,,有限会社,群馬県,太田市,龍舞町５１０１番地,,10,205,3730806,,,2022-05-23,清算の結了等,,,2015-10-05,1,,,,,ニッコウアドクリエイティブ,0
1844,7080401024591,登記記録の閉鎖等,0,2022-06-02,2022-05-27,株式会社イケヤミュージック,,株式会社,静岡県,浜松市中区,高林４丁目８番３２号,,22,131,4300907,,,2022-05-27,合併による解散等,5010401076220,令和４年５月１日東京都墨田区石原三丁目２番３号株式会社玉光堂（5010401076220）に合併し解散,2020-10-06,1,,,,,イケヤミュージック,0
1849,7100002032066,登記記録の閉鎖等,0,2022-06-02,2022-05-30,有限会社ルヴィヴル,,有限会社,長野県,岡谷市,湖畔２丁目１４番７号,,20,204,3940034,,,2022-05-30,清算の結了等,,,2015-10-05,1,,,,,,0
1876,7120901042469,登記記録の閉鎖等,0,2022-06-02,2022-05-31,株式会社ケイトー不動産,,株式会社,大阪府,高槻市,城北町２丁目１１番１１号,,27,207,5690071,,,2022-05-31,合併による解散等,5120901013777,令和４年５月３１日大阪府高槻市城北町一丁目２番６号ＮＫ城北ビル株式会社ケイトー（5120901013777）に合併し解散,2020-03-03,1,,,,,ケイトーフドウサン,0
1890,7170001014637,登記記録の閉鎖等,0,2022-06-02,2022-05-13,株式会社テイクオフ,,株式会社,大阪府,大阪市福島区,吉野１丁目３－２８,,27,103,5530006,,,2022-05-13,清算の結了等,,,2017-03-06,1,,,,,テイクオフ,0
1899,7180002059795,登記記録の閉鎖等,0,2022-06-02,2022-05-30,有限会社コンビックス,,有限会社,愛知県,名古屋市中川区,戸田５丁目２０２番地,,23,110,4540962,,,2022-05-30,清算の結了等,,,2015-10-05,1,,,,,コンビックス,0
1900,7180002084868,登記記録の閉鎖等,0,2022-06-02,2022-05-31,有限会社スペースイズミ,,有限会社,愛知県,大府市,桃山町２丁目７番１,,23,223,4740026,,,2022-05-31,清算の結了等,,,2015-10-05,1,,,,,スペースイズミ,0
1901,7180003001087,登記記録の閉鎖等,0,2022-06-02,2022-05-31,合資会社岡本プレス工業所,,合資会社,愛知県,名古屋市瑞穂区,荒崎町２番９号,,23,108,4670846,,,2022-05-31,清算の結了等,,,2015-10-05,1,,,,,オカモトプレスコウギョウショ,0
1905,7180302003073,登記記録の閉鎖等,0,2022-06-02,2022-05-25,有限会社もも太郎,,有限会社,愛知県,岡崎市,欠町字薮下９番地,,23,202,4440011,,,2022-05-25,清算の結了等,,,2015-10-05,1,,,,,モモタロウ,0
1914,7220002010803,登記記録の閉鎖等,0,2022-06-02,2022-05-31,大榮建設有限会社,,有限会社,石川県,小松市,額見町エ１番地２７,,17,203,9230977,,,2022-05-31,清算の結了等,,,2015-10-05,1,,,,,ダイエイケンセツ,0
1935,7260005008329,登記記録の閉鎖等,0,2022-06-02,2022-05-31,特定非営利活動法人いざよい,,その他の設立登記法人,岡山県,玉野市,八浜町八浜１４６２番地２１,,33,204,7060221,,,2022-05-31,清算の結了等,,,2015-10-05,1,,,,,イザヨイ,0
1948,7310002005967,登記記録の閉鎖等,0,2022-06-02,2022-06-01,横木土木工業有限会社,,有限会社,長崎県,長崎市,田上１丁目２１番１７号,,42,201,8510251,,,2022-06-01,清算の結了等,,,2015-10-05,1,,,,,ヨコギドボクコウギョウ,0
1958,7360001027306,登記記録の閉鎖等,0,2022-06-02,2022-05-25,Ｊｏｙｓｏｍｅ株式会社,,株式会社,沖縄県,那覇市,前島３丁目２５番地２号泊ポートビル５Ｆ,,47,201,9000016,,,2022-05-25,清算の結了等,,,2020-06-09,1,,,,,ジョイソム,0
1978,7410001009950,登記記録の閉鎖等,0,2022-06-02,2022-05-25,株式会社イシヤマ,,株式会社,東京都,江東区,豊洲６丁目２番３１－７０３号,,13,108,1350061,,,2022-05-25,清算の結了等,,,2015-10-05,1,,,,,イシヤマ,0
2029,8010901023941,登記記録の閉鎖等,0,2022-06-02,2022-05-16,株式会社ＩＵＧＯ,,株式会社,東京都,港区,南青山６丁目１番３２号南青ハイツ６０４,,13,103,1070062,,,2022-05-16,清算の結了等,,,2015-10-05,1,,,,,ユーゴ,0
2091,8030001072722,登記記録の閉鎖等,0,2022-06-02,2022-05-27,株式会社あさひ,,株式会社,埼玉県,さいたま市岩槻区,大字岩槻５０８５番地１,,11,110,3390061,,,2022-05-27,清算の結了等,,,2015-10-05,1,,,,,アサヒ,0
2099,8040001038516,登記記録の閉鎖等,0,2022-06-02,2022-05-27,株式会社ワールドワイド,,株式会社,千葉県,流山市,大字東深井４６２番地,,12,220,2700101,,,2022-05-27,清算の結了等,,,2015-10-05,1,,,,,ワールドワイド,0
2116,8100001003083,登記記録の閉鎖等,0,2022-06-02,2022-05-30,平成興商株式会社,,株式会社,長野県,長野市,川中島町御厨６１１番地１,,20,201,3812221,,,2022-05-30,清算の結了等,,,2015-10-05,1,,,,,ヘイセイコウショウ,0
2120,8100002025399,登記記録の閉鎖等,0,2022-06-02,2022-05-30,有限会社やまだい,,有限会社,長野県,塩尻市,大門一番町６番８号,,20,215,3990736,,,2022-05-30,清算の結了等,,,2015-10-05,1,,,,,ヤマダイ,0
2159,8130005011492,登記記録の閉鎖等,0,2022-06-02,2022-05-30,一般社団法人志高管理組合,,その他の設立登記法人,京都府,舞鶴市,字志高７４４番地１,,26,202,6240102,,,2022-05-30,清算の結了等,,,2015-10-05,1,,,,,シダカカンリクミアイ,0
2160,8140001037053,登記記録の閉鎖等,0,2022-06-02,2022-05-25,株式会社ビックフォレスト,,株式会社,兵庫県,明石市,東仲ノ町１１－２６,,28,203,6730886,,,2022-05-25,清算の結了等,,,2015-10-05,1,,,,,ビックフォレスト,0
2204,8290003003311,登記記録の閉鎖等,0,2022-06-02,2022-05-20,合資会社丸井海運商会,,合資会社,福岡県,大牟田市,不知火町３丁目２番地４,,40,202,8360843,,,2022-05-20,合併による解散等,7290002055180,令和４年４月３０日福岡県大牟田市不知火町三丁目２番地の４株式会社ライジングネクスト（7290002055180）に合併し解散,2015-10-05,1,,,,,マルイカイウンショウカイ,0
2215,8310001005554,登記記録の閉鎖等,0,2022-06-02,2022-06-01,株式会社新良商店,,株式会社,長崎県,佐世保市,卸本町３４９番地,,42,202,8571162,,,2022-06-01,清算の結了等,,,2015-10-05,1,,,,,ニイラショウテン,0
2231,8340002017083,登記記録の閉鎖等,0,2022-06-02,2022-05-31,有限会社松永建装,,有限会社,鹿児島県,薩摩川内市,田海町１１番地５２,,46,215,8950071,,,2022-05-31,清算の結了等,,,2015-10-05,1,,,,,マツナガケンソウ,0
2240,8390002012996,登記記録の閉鎖等,0,2022-06-02,2022-05-27,鈴忠織物有限会社,,有限会社,山形県,米沢市,松が岬２丁目５番１５号,,06,202,9920053,,,2022-05-27,清算の結了等,,,2015-10-05,1,,,,,,0
2253,8430003009649,登記記録の閉鎖等,0,2022-06-02,2022-05-26,合同会社Ｉ＆Ｅ,,合同会社,北海道,札幌市清田区,平岡公園東８丁目１０番１３号,,01,110,0040882,,,2022-05-26,清算の結了等,,,2018-08-15,1,,,,,アイアンドイー,0
2270,9010001109351,登記記録の閉鎖等,0,2022-06-02,2022-05-23,株式会社Ｔｒｉｇｅｎｃｅ　Ｓｅｍｉｃｏｎｄｕｃｔｏｒ,,株式会社,東京都,千代田区,外神田２丁目５番１５号,,13,101,1010021,,,2022-05-23,清算の結了等,,,2015-10-05,1,,,,,トライジェンスセミコンダクター,0
2276,9010001208194,登記記録の閉鎖等,0,2022-06-02,2022-05-17,異日利株式会社,,株式会社,東京都,中央区,新川２丁目２１番１５ニューハイツ八丁堀２０４,,13,102,1040033,,,2022-05-17,清算の結了等,,,2020-03-16,1,,,,,イヒリ,0
2282,9010003028475,登記記録の閉鎖等,0,2022-06-02,2022-05-24,合同会社ＫＲＦ７４,,合同会社,東京都,千代田区,内幸町２丁目１番６号,,13,101,1000011,,,2022-05-24,清算の結了等,,,2018-10-18,1,,,,,ケイアールエフセブンティフォー,0
2284,9010401013632,登記記録の閉鎖等,0,2022-06-02,2022-05-31,株式会社シマダ事務用品商事,,株式会社,東京都,杉並区,高井戸東３丁目１８番１４号,,13,115,1680072,,,2022-05-31,清算の結了等,,,2015-10-05,1,,,,,シマダジムヨウヒンショウジ,0
2321,9011101062011,登記記録の閉鎖等,0,2022-06-02,2022-05-16,ＣＳ総研株式会社,,株式会社,東京都,渋谷区,千駄ヶ谷４丁目８番７号,,13,113,1510051,,,2022-05-16,清算の結了等,,,2015-10-05,1,,,,,シーエスソウケン,0
2342,9012301008605,登記記録の閉鎖等,0,2022-06-02,2022-05-30,株式会社ゴトー制御システム,,株式会社,東京都,町田市,高ヶ坂３丁目２４番３１号相原コーポ１０１,,13,209,1940014,,,2022-05-30,清算の結了等,,,2015-10-05,1,,,,,ゴトーセイギョシステム,0
2360,9020002051171,登記記録の閉鎖等,0,2022-06-02,2022-05-30,有限会社シンクパワー,,有限会社,神奈川県,横浜市中区,宮川町３丁目６３番地１フレックスタワー横浜野毛３０１,,14,104,2310065,,,2022-05-30,清算の結了等,,,2015-10-05,1,,,,,シンクパワー,0
2374,9030002102601,登記記録の閉鎖等,0,2022-06-02,2022-05-30,有限会社小坂技研,,有限会社,埼玉県,川口市,大字木曽呂６４８番地の３,,11,203,3330831,,,2022-05-30,清算の結了等,,,2015-10-05,1,,,,,コサカギケン,0
2392,9080001020171,登記記録の閉鎖等,0,2022-06-02,2022-06-01,つばめ農産株式会社,,株式会社,静岡県,静岡市駿河区,西脇７７５番１,,22,102,4228044,,,2022-06-01,合併による解散等,2080001000493,令和４年６月１日静岡市駿河区西脇７７５番１株式会社岩倉種苗店（2080001000493）に合併し解散,2015-10-05,1,,,,,ツバメノウサン,0
2400,9090001005997,登記記録の閉鎖等,0,2022-06-02,2022-05-20,興土開発株式会社,,株式会社,山梨県,笛吹市,石和町上平井４２８番地１,,19,211,4060025,,,2022-05-20,清算の結了等,,,2015-10-05,1,,,,,,0
2431,9120901007684,登記記録の閉鎖等,0,2022-06-02,2022-05-26,ナショップ株式会社,,株式会社,大阪府,吹田市,垂水町３丁目３３番３６号,,27,205,5640062,,,2022-05-26,清算の結了等,,,2015-10-05,1,,,,,,0
2469,9180002004221,登記記録の閉鎖等,0,2022-06-02,2022-05-27,有限会社酒井ビル,,有限会社,愛知県,名古屋市千種区,古出来３丁目４番３号,,23,101,4640085,,,2022-05-27,清算の結了等,,,2015-10-05,1,,,,,サカイビル,0
2487,9230001005891,登記記録の閉鎖等,0,2022-06-02,2022-05-30,株式会社相続手続支援センター富山,,株式会社,富山県,富山市,小西１１６番地１,,16,201,9318435,,,2022-05-30,清算の結了等,,,2015-10-05,1,,,,,ソウゾクテツヅキシエンセンタートヤマ,0
2498,9260001030912,登記記録の閉鎖等,0,2022-06-02,2022-06-01,株式会社想家,,株式会社,岡山県,岡山市北区,今７丁目２２番２２号,,33,101,7000975,,,2022-06-01,合併による解散等,6260002012945,令和４年６月１日岡山市北区今七丁目２２番２２号株式会社ミナン（6260002012945）に合併し解散,2017-06-06,1,,,,,ソウカ,0
2503,9270001007959,登記記録の閉鎖等,0,2022-06-02,2022-05-26,株式会社すもか,,株式会社,鳥取県,鳥取市,上町１３４番地,,31,201,6800015,,,2022-05-26,清算の結了等,,,2020-03-09,1,,,,,スモカ,0
2515,9290002000275,登記記録の閉鎖等,0,2022-06-02,2022-05-30,有限会社尾崎工務店,,有限会社,福岡県,福岡市西区,大字吉武３９１番地の２,,40,135,8190036,,,2022-05-30,清算の結了等,,,2015-10-05,1,,,,,オザキコウムテン,0
2541,9360003007254,登記記録の閉鎖等,0,2022-06-02,2022-05-24,合同会社ＯＢｅテック,,合同会社,沖縄県,豊見城市,字与根２１１番８,,47,212,9010224,,,2022-05-24,清算の結了等,,,2015-10-05,1,,,,,オービーテック,0
2545,9380001018755,登記記録の閉鎖等,0,2022-06-02,2022-05-30,株式会社茶木エンジニアリング,,株式会社,福島県,喜多方市,豊川町高堂太字堂畑１３１９番地,,07,208,9660911,,,2022-05-30,清算の結了等,,,2015-10-05,1,,,,,チャキエンジニアリング,0
2564,9430002003940,登記記録の閉鎖等,0,2022-06-02,2022-05-24,有限会社大波工務店,,有限会社,北海道,札幌市白石区,北郷四条３丁目５番８号,,01,104,0030834,,,2022-05-24,清算の結了等,,,2015-10-05,1,,,,,オオナミコウムテン,0
