sequenceNumber,corporateNumber,process,correct,updateDate,changeDate,name,nameImageId,kind,prefectureName,cityName,streetNumber,addressImageId,prefectureCode,cityCode,postCode,addressOutside,addressOutsideImageId,closeDate,closeCause,successorCorporateNumber,changeCause,assignmentDate,latest,enName,enPrefectureName,enCityName,enAddressOutside,furigana,hihyoji
8,1010001233365,新規,0,2023-03-06,2023-03-06,石越株式会社,,株式会社,東京都,文京区,大塚５丁目８番１２－３０２号,,13,105,1120012,,,,,,,2023-03-06,1,,,,,イシコシ,0
9,1010001233398,新規,0,2023-03-06,2023-03-06,株式会社シェリングフォード,,株式会社,東京都,中央区,銀座１丁目１２番４号Ｎ＆ＥＢＬＤ．６Ｆ,,13,102,1040061,,,,,,,2023-03-06,1,,,,,シェリングフォード,0
10,1010001233415,新規,0,2023-03-06,2023-03-06,株式会社ＡＩＲＡＧＥ,,株式会社,東京都,中央区,日本橋２丁目１６番３号,,13,102,1030027,,,,,,,2023-03-06,1,,,,,エアエイジ,0
11,1010001233423,新規,0,2023-03-06,2023-03-06,まりもの株式会社,,株式会社,東京都,中央区,築地７丁目１５番１１号レジーナ銀座東８０１号,,13,102,1040045,,,,,,,2023-03-06,1,,,,,マリモノ,0
12,1010001233448,新規,0,2023-03-06,2023-03-06,株式会社ＡＲＣＨＩ,,株式会社,東京都,中央区,湊２丁目１１番１号シティタワー銀座東,,13,102,1040043,,,,,,,2023-03-06,1,,,,,アーキ,0
13,1010001233472,新規,0,2023-03-06,2023-03-06,株式会社翔慎建設,,株式会社,東京都,中央区,日本橋人形町１丁目４番６号クレストコート日本橋人形町１１０３,,13,102,1030013,,,,,,,2023-03-06,1,,,,,ショウシンケンセツ,0
14,1010001233489,新規,0,2023-03-06,2023-03-06,レディス不動産チョコレート株式会社,,株式会社,東京都,中央区,日本橋兜町５－１兜町第１平和ビル３階,,13,102,1030026,,,,,,,2023-03-06,1,,,,,レディスフドウサンチョコレート,0
15,1010003039942,新規,0,2023-03-06,2023-03-06,ＲＢソーラーマリブ合同会社,,合同会社,東京都,中央区,八丁堀４丁目２番１０号ＡＯＪ税理士法人内,,13,102,1040032,,,,,,,2023-03-06,1,,,,,アールビーソーラーマリブ,0
24,1010401172948,新規,0,2023-03-06,2023-03-06,ＬＳ‐Ｃｏｎｔａｉｎｅｒ第３号株式会社,,株式会社,東京都,港区,六本木１丁目６番１号,,13,103,1060032,,,,,,,2023-03-06,1,,,,,エルエスコンテナダイサンゴウ,0
28,1010603010039,新規,0,2023-03-06,2023-03-06,合同会社Ｎクリア,,合同会社,東京都,墨田区,東墨田２丁目２５－１７,,13,107,1310042,,,,,,,2023-03-06,1,,,,,エヌクリア,0
32,1010801033741,新規,0,2023-03-06,2023-03-06,株式会社Ｔｕｇ　Ｃｒａｆｔ,,株式会社,東京都,大田区,矢口３丁目２８番８号アルス多摩川１１５号室,,13,111,1460093,,,,,,,2023-03-06,1,,,,,タグクラフト,0
38,1010903008006,新規,0,2023-03-06,2023-03-06,合同会社とおまわり,,合同会社,東京都,世田谷区,代田２丁目３６番１５号ＬＯＵＮＧＥ,,13,112,1550033,,,,,,,2023-03-06,1,,,,,トオマワリ,0
47,1011001152919,新規,0,2023-03-06,2023-03-06,株式会社ＭＳＡ,,株式会社,東京都,目黒区,自由が丘１丁目２８番８号,,13,110,1520035,,,,,,,2023-03-06,1,,,,,エムエスエー,0
48,1011001152935,新規,0,2023-03-06,2023-03-06,株式会社ｃｏｔａｅｔ,,株式会社,東京都,渋谷区,神宮前６丁目２３番４号桑野ビル２階,,13,113,1500001,,,,,,,2023-03-06,1,,,,,コタエット,0
51,1011003016378,新規,0,2023-03-06,2023-03-06,カナレギ合同会社,,合同会社,東京都,渋谷区,千駄ヶ谷３丁目５１番１０号,,13,113,1510051,,,,,,,2023-03-06,1,,,,,カナレギ,0
55,1011101102022,新規,0,2023-03-06,2023-03-06,株式会社ＲｅＦＵＮＡ,,株式会社,東京都,新宿区,下宮比町２番１６号ブランシエスタ飯田橋３０３,,13,104,1620822,,,,,,,2023-03-06,1,,,,,リフナ,0
56,1011201024439,新規,0,2023-03-06,2023-03-06,株式会社グローバル・タワー,,株式会社,東京都,中野区,弥生町４丁目２５－４－５０２,,13,114,1640013,,,,,,,2023-03-06,1,,,,,グローバルタワー,0
57,1011203004018,新規,0,2023-03-06,2023-03-06,ＪＳｍｉｌｅ合同会社,,合同会社,東京都,中野区,鷺宮５丁目２４番１９号,,13,114,1650032,,,,,,,2023-03-06,1,,,,,ジェイスマイル,0
59,1011401024940,新規,0,2023-03-06,2023-03-06,Ｒ．ｏ．Ｄ株式会社,,株式会社,東京都,板橋区,南町３番１号クレイスプリンシア池袋５０２,,13,119,1730027,,,,,,,2023-03-06,1,,,,,アールオーディー,0
62,1011601026638,新規,0,2023-03-06,2023-03-06,株式会社すりむに,,株式会社,東京都,練馬区,豊玉南３丁目１１－９,,13,120,1760014,,,,,,,2023-03-06,1,,,,,スリムニ,0
64,1011605002494,新規,0,2023-03-06,2023-03-06,医療法人社団建眞会,,その他の設立登記法人,東京都,練馬区,東大泉４丁目３１番１号北園メディカルモール１階Ａ,,13,120,1780063,,,,,,,2023-03-06,1,,,,,ケンシンカイ,0
66,1011701026059,新規,0,2023-03-06,2023-03-06,株式会社Ａｃｃｏｒｄ　Ｃｏｒｐｏｒａｔｉｏｎ,,株式会社,東京都,江戸川区,平井１丁目１番２１－３０２ＣＩＴＹＳＰＩＲＥ平井,,13,123,1320035,,,,,,,2023-03-06,1,,,,,アコードコーポレーション,0
69,1011801042022,新規,0,2023-03-06,2023-03-06,株式会社悠,,株式会社,東京都,葛飾区,南水元１丁目１０番４号－４０３,,13,122,1250035,,,,,,,2023-03-06,1,,,,,ユウ,0
70,1011801042030,新規,0,2023-03-06,2023-03-06,株式会社ロンド,,株式会社,東京都,足立区,中央本町５丁目１４番１２号,,13,121,1210011,,,,,,,2023-03-06,1,,,,,ロンド,0
71,1011803005547,新規,0,2023-03-06,2023-03-06,ＡＹＡＮＡ合同会社,,合同会社,東京都,葛飾区,西水元６丁目３番８号,,13,122,1250031,,,,,,,2023-03-06,1,,,,,アヤナ,0
75,1012405004838,新規,0,2023-03-06,2023-03-06,医療法人社団おはなの会,,その他の設立登記法人,東京都,三鷹市,上連雀２丁目１番１０号ＫＢビル３０１号,,13,204,1810012,,,,,,,2023-03-06,1,,,,,オハナノカイ,0
76,1012701017510,新規,0,2023-03-06,2023-03-06,株式会社ＰＳＵＧ　Ａｓｉａ　Ｊａｐａｎ,,株式会社,東京都,清瀬市,元町１丁目１３番２１号エメラルドハイツ１０１－１０１号室－Ｂ,,13,221,2040021,,,,,,,2023-03-06,1,,,,,ピーエスユージーアジアジャパン,0
77,1012703002650,新規,0,2023-03-06,2023-03-06,合同会社ＲＯＮＧ,,合同会社,東京都,小平市,上水本町５丁目１０番４０９号,,13,211,1870022,,,,,,,2023-03-06,1,,,,,ロング,0
78,1012801022170,新規,0,2023-03-06,2023-03-06,株式会社ＡＬＬ　ＯＮＥ,,株式会社,東京都,立川市,一番町１丁目４５番地の１７,,13,202,1900033,,,,,,,2023-03-06,1,,,,,オールワン,0
80,1013301050397,新規,0,2023-03-06,2023-03-06,株式会社ＫｅｙＢｏｏｋ,,株式会社,東京都,豊島区,西巣鴨１丁目１２番１号Ｔｏｋｙｏシティトリエ１７０６,,13,116,1700001,,,,,,,2023-03-06,1,,,,,キーブック,0
89,1020001150485,新規,0,2023-03-06,2023-03-06,株式会社ヤマダコーポレーション,,株式会社,神奈川県,横浜市西区,高島２丁目１１番２号スカイメナー横浜５１９,,14,103,2200011,,,,,,,2023-03-06,1,,,,,ヤマダコーポレーション,0
90,1020001150493,新規,0,2023-03-06,2023-03-06,株式会社ＣＩＲＣＵＬＯ,,株式会社,神奈川県,横浜市青葉区,市ケ尾町１０６５番地２２,,14,117,2250024,,,,,,,2023-03-06,1,,,,,シルクロ,0
91,1020001150502,新規,0,2023-03-06,2023-03-06,株式会社Ａｓｉａ,,株式会社,神奈川県,横浜市旭区,中希望が丘１０７番地３２,,14,112,2410825,,,,,,,2023-03-06,1,,,,,エイジア,0
92,1020001150510,新規,0,2023-03-06,2023-03-06,株式会社ＯＴＯＮＯ,,株式会社,神奈川県,川崎市宮前区,菅生１丁目１７番１９号,,14,136,2160015,,,,,,,2023-03-06,1,,,,,オトノ,0
93,1020001150535,新規,0,2023-03-06,2023-03-06,株式会社Ｃａｒｅ　Ｒｉｓｅ,,株式会社,神奈川県,横浜市神奈川区,子安通２丁目２８３番地１クリオ新子安参番館２０１,,14,102,2210021,,,,,,,2023-03-06,1,,,,,ケアライズ,0
94,1020001150543,新規,0,2023-03-06,2023-03-06,貴翔ホーム株式会社,,株式会社,神奈川県,川崎市多摩区,南生田７丁目２６番５号,,14,135,2140036,,,,,,,2023-03-06,1,,,,,キショウホーム,0
99,1020003023425,新規,0,2023-03-06,2023-03-06,合同会社アイティコンサルティング,,合同会社,神奈川県,横浜市港北区,新羽町１２９３番地１,,14,109,2230057,,,,,,,2023-03-06,1,,,,,アイティコンサルティング,0
103,1021001078345,新規,0,2023-03-06,2023-03-06,株式会社Ｇｅｏｌａｂ　Ｈｏｌｄｉｎｇｓ,,株式会社,神奈川県,大和市,大和東３丁目１番６号,,14,213,2420017,,,,,,,2023-03-06,1,,,,,ジオラボホールディングス,0
104,1021001078361,新規,0,2023-03-06,2023-03-06,株式会社Ｔｉｇｅｒ　Ｅｙｅ　Ｇｒｏｕｐ,,株式会社,神奈川県,平塚市,中原２丁目１番６３－５０４号,,14,203,2540075,,,,,,,2023-03-06,1,,,,,タイガーアイグループ,0
111,1030001152662,新規,0,2023-03-06,2023-03-06,株式会社ＳＴＥ,,株式会社,埼玉県,川口市,大字道合６１番地１,,11,203,3330835,,,,,,,2023-03-06,1,,,,,エスティーイー,0
112,1030001152704,新規,0,2023-03-06,2023-03-06,株式会社大谷興業,,株式会社,埼玉県,さいたま市西区,大字指扇領辻２０６番地１,,11,101,3310076,,,,,,,2023-03-06,1,,,,,オオタニコウギョウ,0
117,1040001127291,新規,0,2023-03-06,2023-03-06,株式会社畦風,,株式会社,千葉県,船橋市,西船７丁目７番２８号,,12,204,2730031,,,,,,,2023-03-06,1,,,,,アゼカゼ,0
118,1040001127309,新規,0,2023-03-06,2023-03-06,株式会社ＭＡＭＡ,,株式会社,千葉県,柏市,手賀新田１７０番地１,,12,217,2701466,,,,,,,2023-03-06,1,,,,,エムエーエムエー,0
119,1040001127333,新規,0,2023-03-06,2023-03-06,株式会社暉,,株式会社,千葉県,柏市,大青田１１５９番地４,,12,217,2770805,,,,,,,2023-03-06,1,,,,,ヒカル,0
120,1040001127341,新規,0,2023-03-06,2023-03-06,株式会社Ｍ‐ＬＩＦＥ,,株式会社,千葉県,市川市,新田２丁目２０番２号（サン・ポワール１０２号）,,12,203,2720035,,,,,,,2023-03-06,1,,,,,エムライフ,0
121,1040001127366,新規,0,2023-03-06,2023-03-06,株式会社ＫＡＮＯＲＡ,,株式会社,千葉県,市原市,姉崎１７３９番地２,,12,219,2990111,,,,,,,2023-03-06,1,,,,,カノラ,0
125,1040003022086,新規,0,2023-03-06,2023-03-06,合同会社さくら商店,,合同会社,千葉県,匝瑳市,吉崎２９８１番地,,12,235,2892122,,,,,,,2023-03-06,1,,,,,サクラショウテン,0
127,1050003007284,新規,0,2023-03-06,2023-03-06,アウルガイド合同会社,,合同会社,茨城県,土浦市,荒川沖１９３番地１１,,08,203,3000873,,,,,,,2023-03-06,1,,,,,アウルガイド,0
128,1060001035740,新規,0,2023-03-06,2023-03-06,株式会社黒尾鉄工,,株式会社,栃木県,那須烏山市,上川井１２２１番地１,,09,215,3210505,,,,,,,2023-03-06,1,,,,,クロオテッコウ,0
129,1060001035749,新規,0,2023-03-06,2023-03-06,株式会社Ｄ＆Ｓ,,株式会社,栃木県,佐野市,戸室町９１１番地２,,09,204,3270306,,,,,,,2023-03-06,1,,,,,ディーアンドエス,0
131,1070001040194,新規,0,2023-03-06,2023-03-06,株式会社浅見電装,,株式会社,群馬県,佐波郡玉村町,大字角渕５１０７番地３小屋原Ｄ,,10,464,3701124,,,,,,,2023-03-06,1,,,,,アサミデンソウ,0
134,1080401026354,新規,0,2023-03-06,2023-03-06,株式会社ＷＩＮＤ　ＧＵＩＤＥ,,株式会社,静岡県,浜松市西区,入野町１６４１１番地の３,,22,133,4328061,,,,,,,2023-03-06,1,,,,,ウィンドガイド,0
137,1110001037335,新規,0,2023-03-06,2023-03-06,株式会社プラス,,株式会社,新潟県,上越市,田園６番地,,15,222,9420046,,,,,,,2023-03-06,1,,,,,プラス,0
153,1120001252791,新規,0,2023-03-06,2023-03-06,株式会社クレセル,,株式会社,大阪府,大阪市西区,北堀江１丁目５番２号四ツ橋新興産ビル,,27,106,5500014,,,,,,,2023-03-06,1,,,,,クレセル,0
154,1120001252874,新規,0,2023-03-06,2023-03-06,上六ワイン株式会社,,株式会社,大阪府,大阪市天王寺区,東高津町４番１５号,,27,109,5430021,,,,,,,2023-03-06,1,,,,,ウエロクワイン,0
155,1120001252890,新規,0,2023-03-06,2023-03-06,株式会社ＨＩＢＩＫＩ　Ｅｎｔｅｒｐｒｉｓｅ,,株式会社,大阪府,大阪市中央区,南久宝寺町１丁目７番１０号,,27,128,5410058,,,,,,,2023-03-06,1,,,,,ヒビキエンタープライズ,0
162,1120101067058,新規,0,2023-03-06,2023-03-06,株式会社有田アセットマネジメント,,株式会社,大阪府,堺市西区,上野芝町１丁１２番２４号,,27,144,5938301,,,,,,,2023-03-06,1,,,,,アリタアセットマネジメント,0
163,1120101067066,新規,0,2023-03-06,2023-03-06,ガーデン・メイク株式会社,,株式会社,大阪府,河内長野市,喜多町６９番地の２,,27,216,5860033,,,,,,,2023-03-06,1,,,,,ガーデンメイク,0
164,1120101067082,新規,0,2023-03-06,2023-03-06,株式会社坂元化学,,株式会社,大阪府,富田林市,若松町１丁目２１番２号,,27,214,5840024,,,,,,,2023-03-06,1,,,,,サカモトカガク,0
167,1120103005098,新規,0,2023-03-06,2023-03-06,合同会社一護,,合同会社,大阪府,泉大津市,東助松町３丁目２番４８号,,27,206,5950006,,,,,,,2023-03-06,1,,,,,イチゴ,0
170,1120901047192,新規,0,2023-03-06,2023-03-06,ＲＥＥＩＮＧ株式会社,,株式会社,大阪府,豊中市,豊南町南２丁目６番４の４号,,27,203,5610815,,,,,,,2023-03-06,1,,,,,リーイング,0
171,1120901047226,新規,0,2023-03-06,2023-03-06,株式会社Ｓａｋｉ　Ｖｏｉｃｅ　Ｊａｐａｎ,,株式会社,大阪府,箕面市,西小路３丁目３番１１号の１,,27,220,5620003,,,,,,,2023-03-06,1,,,,,サキボイスジャパン,0
173,1122001036753,新規,0,2023-03-06,2023-03-06,コーサンネット株式会社,,株式会社,大阪府,東大阪市,長田東３丁目３番４５号,,27,227,5770012,,,,,,,2023-03-06,1,,,,,コーサンネット,0
176,1130001073758,新規,0,2023-03-06,2023-03-06,株式会社楓設備,,株式会社,京都府,京都市伏見区,桃山町丹後２０番地の４,,26,109,6128018,,,,,,,2023-03-06,1,,,,,カエデセツビ,0
177,1130001073774,新規,0,2023-03-06,2023-03-06,株式会社ＨＩＢＩＮＯＩ,,株式会社,京都府,京都市上京区,六軒町通一条上る若松町３４９番地いろは荘,,26,102,6028331,,,,,,,2023-03-06,1,,,,,ヒビノイ,0
178,1130001073790,新規,0,2023-03-06,2023-03-06,株式会社ＫＥＳ,,株式会社,京都府,亀岡市,古世町１丁目７番８号フライシーＩＩ１０１号,00129630,26,206,6210815,,,,,,,2023-03-06,1,,,,,ケーイーエス,0
181,1130003008555,新規,0,2023-03-06,2023-03-06,合同会社南ヶ丘動物病院,,合同会社,京都府,綾部市,井倉新町石風呂４６番地の１,,26,203,6230051,,,,,,,2023-03-06,1,,,,,ミナミガオカドウブツビョウイン,0
182,1130003008563,新規,0,2023-03-06,2023-03-06,ドモトワークス合同会社,,合同会社,京都府,舞鶴市,字倉谷１５０４番地,,26,202,6240906,,,,,,,2023-03-06,1,,,,,ドモトワークス,0
187,1140001129286,新規,0,2023-03-06,2023-03-06,株式会社大和興業,,株式会社,兵庫県,姫路市,延末３８７番地１フレグランス延末１０１,,28,201,6700966,,,,,,,2023-03-06,1,,,,,ヤマトコウギョウ,0
188,1140001129352,新規,0,2023-03-06,2023-03-06,株式会社ＭＲＥ,,株式会社,兵庫県,神戸市西区,学園西町２丁目３番地の６９,,28,111,6512103,,,,,,,2023-03-06,1,,,,,エムアールイー,0
189,1140001129369,新規,0,2023-03-06,2023-03-06,藤本建設株式会社,,株式会社,兵庫県,神戸市東灘区,渦森台４丁目９番３号,,28,101,6580066,,,,,,,2023-03-06,1,,,,,フジモトケンセツ,0
193,1140003018784,新規,0,2023-03-06,2023-03-06,アトリア合同会社,,合同会社,兵庫県,尼崎市,杭瀬本町１丁目１７番１２号ＭＶ杭瀬２０１号,,28,202,6600814,,,,,,,2023-03-06,1,,,,,アトリア,0
194,1140003018801,新規,0,2023-03-06,2023-03-06,合同会社ファミーユ苦楽園,,合同会社,兵庫県,西宮市,南越木岩町６番２０－３０２号,,28,204,6620075,,,,,,,2023-03-06,1,,,,,,0
197,1150001026210,新規,0,2023-03-06,2023-03-06,ＯＫＡ株式会社,,株式会社,奈良県,磯城郡田原本町,大字宮古６９５－１,,29,363,6360302,,,,,,,2023-03-06,1,,,,,オカ,0
199,1160001024857,新規,0,2023-03-06,2023-03-06,株式会社ＹＳＩ,,株式会社,滋賀県,愛知郡愛荘町,中宿１３８番地１６,,25,425,5291314,,,,,,,2023-03-06,1,,,,,ワイエスアイ,0
200,1160001024865,新規,0,2023-03-06,2023-03-06,株式会社ＣＦＣ,,株式会社,滋賀県,守山市,岡町４０番地２,,25,207,5240032,,,,,,,2023-03-06,1,,,,,シーエフシー,0
201,1160001024873,新規,0,2023-03-06,2023-03-06,株式会社ネクストプランニング,,株式会社,滋賀県,大津市,本堅田５丁目１３番２０号,,25,201,5200242,,,,,,,2023-03-06,1,,,,,ネクストプランニング,0
205,1160005011166,新規,0,2023-03-06,2023-03-06,医療法人和生会,,その他の設立登記法人,滋賀県,大津市,大江２丁目３４番１６号大江メディカルビル２Ｆ,,25,201,5202141,,,,,,,2023-03-06,1,,,,,ワセイカイ,0
207,1170005006999,新規,0,2023-03-06,2023-03-06,窪田社会保険労務士法人,,その他の設立登記法人,和歌山県,伊都郡かつらぎ町,大字三谷１３８１番地,,30,341,6497133,,,,,,,2023-03-06,1,,,,,クボタ,0
215,1180001155188,新規,0,2023-03-06,2023-03-06,株式会社ＤＧ　ＨＯＭＥ,,株式会社,愛知県,名古屋市港区,春田野１丁目１３０９番地の１,,23,111,4550873,,,,,,,2023-03-06,1,,,,,ディージーホーム,0
216,1180001155205,新規,0,2023-03-06,2023-03-06,株式会社プロスパート,,株式会社,愛知県,名古屋市中川区,吉津２丁目９０５番地,,23,110,4540981,,,,,,,2023-03-06,1,,,,,プロスパート,0
217,1180001155213,新規,0,2023-03-06,2023-03-06,株式会社ＹＣＦマテリアルズ,,株式会社,愛知県,名古屋市港区,名港２丁目５番６号,,23,111,4550037,,,,,,,2023-03-06,1,,,,,ワイシーエフマテリアルズ,0
218,1180001155262,新規,0,2023-03-06,2023-03-06,株式会社ＭＯＮＥＹ　ＦＡＣＴＯＲＹ,,株式会社,愛知県,名古屋市中区,栄３丁目１１番５号,,23,106,4600008,,,,,,,2023-03-06,1,,,,,マネーファクトリー,0
220,1180301037152,新規,0,2023-03-06,2023-03-06,株式会社Ｊ‐ＯＮＥ,,株式会社,愛知県,豊橋市,飯村北２丁目４番地５,,23,201,4400834,,,,,,,2023-03-06,1,,,,,ジェイワン,0
221,1180303005636,新規,0,2023-03-06,2023-03-06,合同会社セカンドヴィレッジ,,合同会社,愛知県,豊橋市,向山町字七面８０番地６,,23,201,4400864,,,,,,,2023-03-06,1,,,,,セカンドヴィレッジ,0
223,1190001030200,新規,0,2023-03-06,2023-03-06,株式会社ＡＳＴＥＲ＆ＸＯ,,株式会社,三重県,四日市市,朝明町２５３１番地１４７,,24,202,5128054,,,,,,,2023-03-06,1,,,,,アスターエグゾ,0
224,1190001030209,新規,0,2023-03-06,2023-03-06,株式会社竹内組,,株式会社,三重県,四日市市,西町８番１２号,,24,202,5100089,,,,,,,2023-03-06,1,,,,,タケウチグミ,0
234,1240001061140,新規,0,2023-03-06,2023-03-06,株式会社ＲＩＺＩＮＧ,,株式会社,広島県,福山市,神辺町大字下竹田９７３番地７,,34,207,7202115,,,,,,,2023-03-06,1,,,,,ライジング,0
235,1240001061165,新規,0,2023-03-06,2023-03-06,ＩＤＯＭ株式会社,,株式会社,広島県,広島市中区,羽衣町８番１９号,,34,101,7300814,,,,,,,2023-03-06,1,,,,,イドム,0
236,1240001061173,新規,0,2023-03-06,2023-03-06,株式会社ＬｉｎｏＰａｓｓ,,株式会社,広島県,広島市西区,楠木町３丁目１３番１２－４０２号,,34,104,7330002,,,,,,,2023-03-06,1,,,,,リノパス,0
239,1240005015530,新規,0,2023-03-06,2023-03-06,医療法人むろの木,,その他の設立登記法人,広島県,福山市,鞆町鞆９０８番地３,,34,207,7200201,,,,,,,2023-03-06,1,,,,,ムロノキ,0
246,1280001008889,新規,0,2023-03-06,2023-03-06,株式会社ＨＩＴＯＭＡＲＯ,,株式会社,島根県,益田市,遠田町３８１５番地１,,32,204,6993676,,,,,,,2023-03-06,1,,,,,ヒトマロ,0
249,1290001100703,新規,0,2023-03-06,2023-03-06,株式会社ＡＧＧＲＯ　ＨＥＡＲＴＳ,,株式会社,福岡県,福岡市博多区,博多駅前２丁目１９番１７号トーカン博多第５ビル３１２号室,,40,132,8120011,,,,,,,2023-03-06,1,,,,,アグロハーツ,0
250,1290001100744,新規,0,2023-03-06,2023-03-06,株式会社エス・エム・シー,,株式会社,福岡県,福岡市博多区,金の隈２丁目３番５０号ＡＲＫ　ＢＡＳＥ　ＨＡＫＡＴＡ　Ａ０１号室,,40,132,8120863,,,,,,,2023-03-06,1,,,,,エスエムシー,0
251,1290001100777,新規,0,2023-03-06,2023-03-06,株式会社ＮＡ,,株式会社,福岡県,福岡市中央区,天神２丁目２番１２号Ｔ＆Ｊビルディング７Ｆ,,40,133,8100001,,,,,,,2023-03-06,1,,,,,エヌエー,0
252,1290003013572,新規,0,2023-03-06,2023-03-06,Ｔｅｃ　Ｒａｆｔ合同会社,,合同会社,福岡県,太宰府市,宰都１丁目２－１ヴィルクレール４０３,,40,221,8180139,,,,,,,2023-03-06,1,,,,,テックラフト,0
253,1290003013597,新規,0,2023-03-06,2023-03-06,合同会社輝望,,合同会社,福岡県,久留米市,国分町１０７５番地１８,,40,203,8390863,,,,,,,2023-03-06,1,,,,,キボウ,0
257,1310001018298,新規,0,2023-03-06,2023-03-06,株式会社ＨＯＧＵＳＵ,,株式会社,長崎県,長崎市,目覚町５番２３号,,42,201,8528105,,,,,,,2023-03-06,1,,,,,ホグス,0
259,1310005008667,新規,0,2023-03-06,2023-03-06,医療法人渓風会,,その他の設立登記法人,長崎県,大村市,木場１丁目１０７３番１,,42,205,8560046,,,,,,,2023-03-06,1,,,,,ケイフウカイ,0
260,1320001019618,新規,0,2023-03-06,2023-03-06,株式会社ＳＨＩＮＳＡＷ,,株式会社,大分県,大分市,明野南１丁目２３番１－７０６号,,44,201,8700163,,,,,,,2023-03-06,1,,,,,シンソウ,0
268,1350001018220,新規,0,2023-03-06,2023-03-06,株式会社Ｔ,,株式会社,宮崎県,宮崎市,上野町１１ニューサンシャインビル４０１号室,,45,201,8800011,,,,,,,2023-03-06,1,,,,,ティー,0
271,1360001031635,新規,0,2023-03-06,2023-03-06,ユニオンホールディングス株式会社,,株式会社,沖縄県,糸満市,西崎６丁目１６番１２号,,47,210,9010305,,,,,,,2023-03-06,1,,,,,ユニオンホールディングス,0
272,1360001031643,新規,0,2023-03-06,2023-03-06,株式会社ネクストクリエーション,,株式会社,沖縄県,宜野湾市,大山１丁目１０番１８号,,47,205,9012223,,,,,,,2023-03-06,1,,,,,ネクストクリエーション,0
273,1360001031651,新規,0,2023-03-06,2023-03-06,株式会社ブルズ,,株式会社,沖縄県,島尻郡南風原町,字宮城３４０番地５,,47,350,9011102,,,,,,,2023-03-06,1,,,,,ブルズ,0
276,1370001049676,新規,0,2023-03-06,2023-03-06,株式会社ＳＮＤＩ,,株式会社,宮城県,仙台市青葉区,本町１丁目５番２８号カーニープレイス仙台駅前通６０３号室,,04,101,9800014,,,,,,,2023-03-06,1,,,,,エスエヌディーアイ,0
280,1380001033530,新規,0,2023-03-06,2023-03-06,株式会社丸重,,株式会社,福島県,郡山市,桜木２丁目１９－９－８号,,07,203,9638021,,,,,,,2023-03-06,1,,,,,マルシゲ,0
283,1390001017177,新規,0,2023-03-06,2023-03-06,株式会社Ｕ‐ＣＬＵＢ,,株式会社,山形県,山形市,嶋北３丁目３番１０号,,06,201,9900885,,,,,,,2023-03-06,1,,,,,ユークラブ,0
285,1420001018171,新規,0,2023-03-06,2023-03-06,田中産業株式会社,,株式会社,青森県,十和田市,大字相坂字小林１８番地１０,,02,206,0340041,,,,,,,2023-03-06,1,,,,,タナカサンギョウ,0
290,1430001088528,新規,0,2023-03-06,2023-03-06,株式会社ヴェイス,,株式会社,北海道,札幌市南区,川沿十一条１丁目２番１号,,01,106,0050811,,,,,,,2023-03-06,1,,,,,ヴェイス,0
291,1430001088536,新規,0,2023-03-06,2023-03-06,株式会社佐々木農場,,株式会社,北海道,夕張郡長沼町,東４線南６番地,,01,428,0691454,,,,,,,2023-03-06,1,,,,,ササキノウジョウ,0
292,1430001088544,新規,0,2023-03-06,2023-03-06,株式会社ＲＡＩＳＡＮ,,株式会社,北海道,恵庭市,北柏木町２丁目２４番１８号,,01,231,0611433,,,,,,,2023-03-06,1,,,,,ライサン,0
293,1430001088552,新規,0,2023-03-06,2023-03-06,株式会社リンク札幌,,株式会社,北海道,札幌市白石区,北郷六条８丁目４番４号,,01,104,0030836,,,,,,,2023-03-06,1,,,,,リンクサッポロ,0
294,1430001088569,新規,0,2023-03-06,2023-03-06,株式会社北葉ホールディングス,,株式会社,北海道,札幌市北区,北七条西５丁目６番地１,,01,102,0600807,,,,,,,2023-03-06,1,,,,,ホクヨウホールディングス,0
295,1430001088577,新規,0,2023-03-06,2023-03-06,株式会社光彩電装,,株式会社,北海道,札幌市東区,東苗穂九条２丁目５番６号,,01,103,0070809,,,,,,,2023-03-06,1,,,,,コウサイデンソウ,0
296,1430005014645,新規,0,2023-03-06,2023-03-06,一般社団法人ＷＨＯ　ＣＡＲＥＳ,,その他の設立登記法人,北海道,札幌市北区,北十八条西４丁目１番７号,,01,102,0010018,,,,,,,2023-03-06,1,,,,,フーケアーズ,0
298,1460101007343,新規,0,2023-03-06,2023-03-06,株式会社岡崎ファーム,00129651,株式会社,北海道,帯広市,以平町西７線１９番地,,01,207,0891244,,,,,,,2023-03-06,1,,,,,オカザキファーム,0
304,1500001024797,新規,0,2023-03-06,2023-03-06,ＮＴＵ不動産鑑定株式会社,,株式会社,愛媛県,松山市,三番町５丁目７番地１３ｏｒｉｇｉｎａｌｂｏｘ１１－３Ａ,,38,201,7900003,,,,,,,2023-03-06,1,,,,,エヌティユーフドウサンカンテイ,0
308,1500003002990,新規,0,2023-03-06,2023-03-06,エフ・コンサルティング合同会社,,合同会社,愛媛県,松山市,吉藤４丁目５番１２号,,38,201,7918011,,,,,,,2023-03-06,1,,,,,エフコンサルティング,0
319,2010001233414,新規,0,2023-03-06,2023-03-06,株式会社アシタネ,,株式会社,東京都,千代田区,神田岩本町１番地１４ＫＤＸ秋葉原ビル９階,,13,101,1010033,,,,,,,2023-03-06,1,,,,,アシタネ,0
320,2010001233430,新規,0,2023-03-06,2023-03-06,株式会社ＦＡＶＥＳ,,株式会社,東京都,千代田区,九段北１丁目１０番３－２０２号,,13,101,1020073,,,,,,,2023-03-06,1,,,,,フェイブス,0
321,2010001233488,新規,0,2023-03-06,2023-03-06,株式会社Ｔｅｌｌ　Ｔｏｏｌ,,株式会社,東京都,千代田区,神田和泉町１番地６－１６ヤマトビル４０５,,13,101,1010024,,,,,,,2023-03-06,1,,,,,テルツール,0
322,2010003039941,新規,0,2023-03-06,2023-03-06,ＲＢソーラーディタ合同会社,,合同会社,東京都,中央区,八丁堀４丁目２番１０号ＡＯＪ税理士法人内,,13,102,1040032,,,,,,,2023-03-06,1,,,,,アールビーソーラーディタ,0
323,2010003039982,新規,0,2023-03-06,2023-03-06,Ｔｏｋｕ　Ｓｙｓｔｅｍ合同会社,,合同会社,東京都,中央区,日本橋小伝馬町６番１２号脇田ビル１階,,13,102,1030001,,,,,,,2023-03-06,1,,,,,トクシステム,0
324,2010005036326,新規,0,2023-03-06,2023-03-06,医療法人社団Ｂｅａｕｔｉｆｕｌ　Ｌｉｆｅ,,その他の設立登記法人,東京都,千代田区,平河町１丁目１番１号平河町コート１０１,,13,101,1020093,,,,,,,2023-03-06,1,,,,,ビューティフルライフ,0
330,2010401172848,新規,0,2023-03-06,2023-03-06,株式会社Ｄ２Ａ,,株式会社,東京都,港区,港南１丁目９番３６号ＮＴＴＤＡＴＡ品川ビル（アレア品川）１３階,,13,103,1080075,,,,,,,2023-03-06,1,,,,,ディーツーエー,0
331,2010401172864,新規,0,2023-03-06,2023-03-06,株式会社シードアドバイザリー,,株式会社,東京都,港区,西新橋１丁目１８番６号クロスオフィス内幸町,,13,103,1050003,,,,,,,2023-03-06,1,,,,,シードアドバイザリー,0
332,2010401172880,新規,0,2023-03-06,2023-03-06,株式会社Ｍａｇｉｃ　Ｈｏｕｒ,,株式会社,東京都,港区,六本木５丁目２番４号朝日生命六本木ビル５Ｆ,,13,103,1060032,,,,,,,2023-03-06,1,,,,,マジックアワー,0
333,2010401172889,新規,0,2023-03-06,2023-03-06,東京制作株式会社,,株式会社,東京都,港区,南青山３丁目１番３６号青山丸竹ビル６Ｆ,,13,103,1070062,,,,,,,2023-03-06,1,,,,,トウキョウセイサク,0
343,2010801033732,新規,0,2023-03-06,2023-03-06,株式会社ＭＡＲＩ＆ＫＥＮ,,株式会社,東京都,大田区,蒲田１丁目１０－３－１０１,,13,111,1440052,,,,,,,2023-03-06,1,,,,,マリアンドケン,0
344,2010801033740,新規,0,2023-03-06,2023-03-06,株式会社ＡｔＷＩＬＬ,,株式会社,東京都,大田区,山王２丁目５番１３号,,13,111,1430023,,,,,,,2023-03-06,1,,,,,アットウィル,0
346,2010901052649,新規,0,2023-03-06,2023-03-06,株式会社ＣＯＣＯＲＯ,,株式会社,東京都,世田谷区,岡本３丁目１３番９号,,13,112,1570076,,,,,,,2023-03-06,1,,,,,ココロ,0
347,2010901052657,新規,0,2023-03-06,2023-03-06,株式会社ＢＲＡＩＮ,,株式会社,東京都,世田谷区,砧３丁目２番７号カーサピエトラ不二１０１,,13,112,1570073,,,,,,,2023-03-06,1,,,,,ブレイン,0
350,2010903008013,新規,0,2023-03-06,2023-03-06,９９９９９９合同会社,,合同会社,東京都,世田谷区,世田谷２丁目２０－１２,,13,112,1540017,,,,,,,2023-03-06,1,,,,,シックスナイン,0
363,2011001152918,新規,0,2023-03-06,2023-03-06,モビリティサイネージ株式会社,,株式会社,東京都,渋谷区,恵比寿１丁目１５番９号,,13,113,1500013,,,,,,,2023-03-06,1,,,,,モビリティサイネージ,0
364,2011001152934,新規,0,2023-03-06,2023-03-06,株式会社スマイルシーリング,,株式会社,東京都,渋谷区,道玄坂１丁目１０番８号渋谷道玄坂東急ビル２Ｆ－Ｃ,,13,113,1500043,,,,,,,2023-03-06,1,,,,,スマイルシーリング,0
367,2011101102005,新規,0,2023-03-06,2023-03-06,ＢＤＰ株式会社,,株式会社,東京都,新宿区,西新宿１丁目２５番１号新宿センタービル３８階,,13,104,1600023,,,,,,,2023-03-06,1,,,,,ビーディーピー,0
368,2011101102021,新規,0,2023-03-06,2023-03-06,Ｒ‐ｄｅｓｉｇｎ株式会社,,株式会社,東京都,新宿区,西新宿１丁目３番１３号,,13,104,1600023,,,,,,,2023-03-06,1,,,,,アールデザイン,0
369,2011103012771,新規,0,2023-03-06,2023-03-06,合同会社Ｄａｒｃｒａｆｔ,,合同会社,東京都,新宿区,西新宿３丁目３番１３号西新宿水間ビル６階,,13,104,1600023,,,,,,,2023-03-06,1,,,,,ダークラフト,0
374,2011401024948,新規,0,2023-03-06,2023-03-06,国本商事株式会社,,株式会社,東京都,板橋区,徳丸５丁目１１番１１－２０５号,,13,119,1750083,,,,,,,2023-03-06,1,,,,,クニモトショウジ,0
379,2011801042021,新規,0,2023-03-06,2023-03-06,株式会社Ｍコーポレーション,,株式会社,東京都,葛飾区,南水元１丁目１０番４号－４０３,,13,122,1250035,,,,,,,2023-03-06,1,,,,,エムコーポレーション,0
380,2011803005546,新規,0,2023-03-06,2023-03-06,合同会社ｍｉｋｕｊｉ,,合同会社,東京都,足立区,綾瀬４丁目３１番１２号,,13,121,1200005,,,,,,,2023-03-06,1,,,,,ミクジ,0
382,2012301013330,新規,0,2023-03-06,2023-03-06,株式会社ＭＫＧ,,株式会社,東京都,町田市,原町田６丁目１９番１０号立木ビル２Ｆ,,13,209,1940013,,,,,,,2023-03-06,1,,,,,エムケージー,0
390,2020001150476,新規,0,2023-03-06,2023-03-06,株式会社食品さんぷる畑,,株式会社,神奈川県,横浜市神奈川区,台町７番地２ハイツ横浜３０２,,14,102,2210834,,,,,,,2023-03-06,1,,,,,ショクヒンサンプルバタケ,0
391,2020001150526,新規,0,2023-03-06,2023-03-06,株式会社アイランド・コーポレーション,,株式会社,神奈川県,横浜市緑区,いぶき野８番地９グローリオ長津田５０６号,,14,113,2260028,,,,,,,2023-03-06,1,,,,,アイランドコーポレーション,0
392,2020001150559,新規,0,2023-03-06,2023-03-06,ＳＴＡＮＤ８Ｊａｐａｎ株式会社,,株式会社,神奈川県,横浜市西区,みなとみらい３丁目６－１，みなとみらいセンタービル１９階,,14,103,2200012,,,,,,,2023-03-06,1,,,,,スタンドエイトジャパン,0
393,2020001150575,新規,0,2023-03-06,2023-03-06,株式会社あまつ,,株式会社,神奈川県,横浜市西区,高島２丁目１１番２号スカイメナー横浜５１９,,14,103,2200011,,,,,,,2023-03-06,1,,,,,アマツ,0
397,2020003023432,新規,0,2023-03-06,2023-03-06,合同会社ａｌｐｉｎ,,合同会社,神奈川県,川崎市宮前区,南平台２１番１－７０４号,,14,136,2160024,,,,,,,2023-03-06,1,,,,,アルピン,0
399,2021003012838,新規,0,2023-03-06,2023-03-06,合同会社オール貿易,,合同会社,神奈川県,海老名市,本郷４６１５,,14,215,2430417,,,,,,,2023-03-06,1,,,,,オールボウエキ,0
400,2021003012846,新規,0,2023-03-06,2023-03-06,合同会社アーテディット,,合同会社,神奈川県,中郡二宮町,百合が丘１丁目１－５,,14,342,2590133,,,,,,,2023-03-06,1,,,,,アーテディット,0
403,2030001152629,新規,0,2023-03-06,2023-03-06,株式会社ＫＯＨＩＲＯ,,株式会社,埼玉県,新座市,中野２丁目６番１４号,,11,230,3520005,,,,,,,2023-03-06,1,,,,,コヒロ,0
404,2030001152653,新規,0,2023-03-06,2023-03-06,株式会社Ａｒｃａｎａ　Ｅｄｅｎ,,株式会社,埼玉県,戸田市,本町１丁目１０番１号スエタケビル４０１号室,,11,224,3350023,,,,,,,2023-03-06,1,,,,,アルカナエデン,0
405,2030001152711,新規,0,2023-03-06,2023-03-06,株式会社ａｔＬａｓｔ,,株式会社,埼玉県,蓮田市,西新宿５丁目１１２番地,,11,238,3490141,,,,,,,2023-03-06,1,,,,,アットラスト,0
411,2030003021286,新規,0,2023-03-06,2023-03-06,合同会社グロース,,合同会社,埼玉県,蓮田市,椿山４丁目１３番１３号,,11,238,3490144,,,,,,,2023-03-06,1,,,,,グロース,0
412,2030003021303,新規,0,2023-03-06,2023-03-06,合同会社鹿尾,,合同会社,埼玉県,上尾市,柏座１丁目１０番３－８６号２号室,,11,219,3620075,,,,,,,2023-03-06,1,,,,,カノオ,0
413,2030003021311,新規,0,2023-03-06,2023-03-06,合同会社ＳＴＪ,,合同会社,埼玉県,北本市,本町６丁目２６２番地,,11,233,3640033,,,,,,,2023-03-06,1,,,,,エスティージェイ,0
420,2040001127332,新規,0,2023-03-06,2023-03-06,株式会社あひる,,株式会社,千葉県,白井市,富塚１１２７,,12,232,2701405,,,,,,,2023-03-06,1,,,,,アヒル,0
421,2040001127340,新規,0,2023-03-06,2023-03-06,株式会社サガアセットマネジメント,,株式会社,千葉県,柏市,篠籠田１３２６番地,,12,217,2770862,,,,,,,2023-03-06,1,,,,,サガアセットマネジメント,0
422,2040001127349,新規,0,2023-03-06,2023-03-06,株式会社ＦＬＯＷ,,株式会社,千葉県,松戸市,樋野口８２８番地の１ファミール松戸リバーステージ２０４号,,12,207,2710067,,,,,,,2023-03-06,1,,,,,フロー,0
424,2040003022085,新規,0,2023-03-06,2023-03-06,合同会社Ｓｋｙ　Ｐｌｕｓ　Ｍｉｌｌｉｏｎ,,合同会社,千葉県,松戸市,中金杉４丁目２５番地２,,12,207,2700007,,,,,,,2023-03-06,1,,,,,スカイプラスミリオン,0
429,2060001035756,新規,0,2023-03-06,2023-03-06,関東防災株式会社,,株式会社,栃木県,佐野市,堀米町３９４２番地１,,09,204,3270843,,,,,,,2023-03-06,1,,,,,カントウボウサイ,0
430,2060003004453,新規,0,2023-03-06,2023-03-06,合同会社栃木共和,,合同会社,栃木県,栃木市,大平町富田１３４９番地１,,09,203,3294404,,,,,,,2023-03-06,1,,,,,トチギキョウワ,0
440,2080403004745,新規,0,2023-03-06,2023-03-06,ＡＫＥＥ．合同会社,,合同会社,静岡県,浜松市東区,笠井新田町６３５番地,,22,132,4313105,,,,,,,2023-03-06,1,,,,,アキー,0
442,2090003002264,新規,0,2023-03-06,2023-03-06,合同会社サンフィールド,,合同会社,山梨県,甲府市,上阿原町１１３２－１０,,19,201,4000814,,,,,,,2023-03-06,1,,,,,サンフィールド,0
463,2120001252865,新規,0,2023-03-06,2023-03-06,株式会社クロスカンパニー,,株式会社,大阪府,大阪市北区,梅田１丁目１番３号大阪駅前第３ビル２９階１－１－１号室,,27,127,5300001,,,,,,,2023-03-06,1,,,,,クロスカンパニー,0
464,2120001252881,新規,0,2023-03-06,2023-03-06,株式会社ＲＥＰＬＡＣＥ,,株式会社,大阪府,大阪市平野区,長吉川辺３丁目２０番５号,,27,126,5470014,,,,,,,2023-03-06,1,,,,,リプレイス,0
465,2120001252907,新規,0,2023-03-06,2023-03-06,株式会社モビリティ,,株式会社,大阪府,大阪市東成区,中本３丁目４番６号,,27,115,5370022,,,,,,,2023-03-06,1,,,,,モビリティ,0
466,2120001252923,新規,0,2023-03-06,2023-03-06,株式会社ＶＩＧＯＲ,,株式会社,大阪府,大阪市中央区,南船場３丁目７番２８号第２ローズビル２階,,27,128,5420081,,,,,,,2023-03-06,1,,,,,ヴィガー,0
467,2120001252989,新規,0,2023-03-06,2023-03-06,株式会社児波工業,,株式会社,大阪府,大阪市北区,豊崎３丁目１６番１６－３００３号,,27,127,5310072,,,,,,,2023-03-06,1,,,,,コナミコウギョウ,0
469,2120005023494,新規,0,2023-03-06,2023-03-06,ＮＰＯ法人日越支援会,,その他の設立登記法人,大阪府,大阪市西成区,太子１丁目４番２号太子中央ビル２０１号,,27,122,5570002,,,,,,,2023-03-06,1,,,,,ニチエツシエンカイ,0
471,2120101067057,新規,0,2023-03-06,2023-03-06,株式会社竹田造園,,株式会社,大阪府,貝塚市,三ケ山５５３番地,,27,208,5970101,,,,,,,2023-03-06,1,,,,,タケダゾウエン,0
472,2120103005106,新規,0,2023-03-06,2023-03-06,キンキ合同会社,,合同会社,大阪府,泉佐野市,湊４丁目４－２２,,27,213,5980063,,,,,,,2023-03-06,1,,,,,キンキ,0
476,2120901047209,新規,0,2023-03-06,2023-03-06,株式会社平,,株式会社,大阪府,吹田市,青山台３丁目２１番５号,,27,205,5650875,,,,,,,2023-03-06,1,,,,,ヘイ,0
477,2120901047225,新規,0,2023-03-06,2023-03-06,ＭＡＡ株式会社,,株式会社,大阪府,吹田市,千里丘北１－２０ミリカヒルズ１３１４号,,27,205,5650815,,,,,,,2023-03-06,1,,,,,エムエーエー,0
479,2120903004521,新規,0,2023-03-06,2023-03-06,合同会社Ｂａｒｔ．ｌａｂ,,合同会社,大阪府,豊中市,稲津町３丁目６番３号,,27,203,5610854,,,,,,,2023-03-06,1,,,,,バートラボ,0
481,2122001036736,新規,0,2023-03-06,2023-03-06,株式会社ＴＭＫプランニング,,株式会社,大阪府,東大阪市,稲田本町３丁目４番１９号,,27,227,5770007,,,,,,,2023-03-06,1,,,,,ティーエムケープランニング,0
484,2130001073773,新規,0,2023-03-06,2023-03-06,株式会社塚貴商店,00129634,株式会社,京都府,京都市北区,大宮中林町５番地１,,26,101,6038404,,,,,,,2023-03-06,1,,,,,ツカキショウテン,0
487,2130003008554,新規,0,2023-03-06,2023-03-06,合同会社Ｎｕｍｅｒｕｓ　Ｐｒｉｍｕｓ　Ｔｒｉｂｕｓ,,合同会社,京都府,京都市伏見区,深草西伊達町８７－９２,,26,109,6120876,,,,,,,2023-03-06,1,,,,,ヌメロォスプリモストリブス,0
488,2130003008570,新規,0,2023-03-06,2023-03-06,マゼラニッククラウド合同会社,,合同会社,京都府,京都市下京区,朱雀宝蔵町４４番地協栄ビル２階京都朱雀スタジオ,,26,106,6008846,,,,,,,2023-03-06,1,,,,,マゼラニッククラウド,0
490,2130005016712,新規,0,2023-03-06,2023-03-06,一般社団法人和束ひと・まちコンソーシアム,,その他の設立登記法人,京都府,相楽郡和束町,大字別所小字北村２番地,,26,365,6191211,,,,,,,2023-03-06,1,,,,,ワヅカヒトマチコンソーシアム,0
494,2140001129269,新規,0,2023-03-06,2023-03-06,株式会社ブラッシュアップ,,株式会社,兵庫県,神戸市東灘区,本庄町１丁目７番１０－１号,,28,101,6580012,,,,,,,2023-03-06,1,,,,,ブラッシュアップ,0
495,2140001129293,新規,0,2023-03-06,2023-03-06,株式会社グリーンアンドホーム,,株式会社,兵庫県,神戸市東灘区,本山南町６丁目１番２１号,,28,101,6580015,,,,,,,2023-03-06,1,,,,,グリーンアンドホーム,0
496,2140001129343,新規,0,2023-03-06,2023-03-06,株式会社ＭＡＲＵＳＨＩＭＡ,,株式会社,兵庫県,神戸市中央区,栄町通２丁目２番３号,,28,110,6500023,,,,,,,2023-03-06,1,,,,,マルシマ,0
500,2140003018767,新規,0,2023-03-06,2023-03-06,合同会社プラスカ,,合同会社,兵庫県,西宮市,甲子園町２８番８－２０１号,,28,204,6638152,,,,,,,2023-03-06,1,,,,,プラスカ,0
501,2140003018791,新規,0,2023-03-06,2023-03-06,合同会社ダイコネ,,合同会社,兵庫県,西宮市,湯元町４番５号２階３号室,,28,204,6620005,,,,,,,2023-03-06,1,,,,,ダイコネ,0
503,2150001026218,新規,0,2023-03-06,2023-03-06,株式会社ジュールフェリエ,,株式会社,奈良県,橿原市,八木町１丁目２－１３,,29,205,6340078,,,,,,,2023-03-06,1,,,,,ジュールフェリエ,0
504,2160001024864,新規,0,2023-03-06,2023-03-06,三和物産株式会社,,株式会社,滋賀県,湖南市,大池町１番地３,,25,211,5203213,,,,,,,2023-03-06,1,,,,,サンワブッサン,0
512,2180001155154,新規,0,2023-03-06,2023-03-06,株式会社ＣＪＭファクトリー,,株式会社,愛知県,名古屋市中区,新栄３丁目１番１号,,23,106,4600007,,,,,,,2023-03-06,1,,,,,シージェーエムファクトリー,0
513,2180001155162,新規,0,2023-03-06,2023-03-06,株式会社アーキエポック,,株式会社,愛知県,名古屋市西区,浄心１丁目１番６－８０５号,,23,104,4510061,,,,,,,2023-03-06,1,,,,,アーキエポック,0
514,2180001155179,新規,0,2023-03-06,2023-03-06,株式会社ＡＹＭＫ,,株式会社,愛知県,名古屋市東区,葵２丁目１４番５号（９０１号）,,23,102,4610004,,,,,,,2023-03-06,1,,,,,エーエワイエムケー,0
515,2180001155204,新規,0,2023-03-06,2023-03-06,株式会社ＡＤＡ　ＪＡＰＡＮ,,株式会社,愛知県,名古屋市天白区,鴻の巣１丁目１６０８番地の６,,23,116,4680003,,,,,,,2023-03-06,1,,,,,エイディエイジャパン,0
516,2180001155261,新規,0,2023-03-06,2023-03-06,株式会社盛美,,株式会社,愛知県,名古屋市中村区,名駅５丁目４番１４号,,23,105,4500002,,,,,,,2023-03-06,1,,,,,セイビ,0
517,2180301037143,新規,0,2023-03-06,2023-03-06,株式会社ＴＨ半田,,株式会社,愛知県,安城市,朝日町１３番１４号ＢＥＬＩＳＴＡ安城９０４,,23,212,4460031,,,,,,,2023-03-06,1,,,,,ティーエイチハンダ,0
519,2180303005635,新規,0,2023-03-06,2023-03-06,Ｔ．Ｕ合同会社,,合同会社,愛知県,岡崎市,井田新町１番地２,,23,202,4440069,,,,,,,2023-03-06,1,,,,,ティーユー,0
522,2200001041046,新規,0,2023-03-06,2023-03-06,株式会社グランツ,,株式会社,岐阜県,岐阜市,北一色９丁目１３番２６号,,21,201,5008227,,,,,,,2023-03-06,1,,,,,グランツ,0
525,2210001019248,新規,0,2023-03-06,2023-03-06,ナンバーフォーホールディングス株式会社,,株式会社,福井県,福井市,志津が丘４丁目１１４番地,,18,201,9103635,,,,,,,2023-03-06,1,,,,,ナンバーフォーホールディングス,0
530,2230003001978,新規,0,2023-03-06,2023-03-06,合同会社刺繍技法,,合同会社,富山県,小矢部市,蓮沼７０９番地２,,16,209,9320834,,,,,,,2023-03-06,1,,,,,シシュウギホウ,0
531,2240001061164,新規,0,2023-03-06,2023-03-06,ＲｙｏＭａ株式会社,,株式会社,広島県,尾道市,美ノ郷町三成２１５番地２,,34,205,7220215,,,,,,,2023-03-06,1,,,,,リョウマ,0
532,2240001061180,新規,0,2023-03-06,2023-03-06,株式会社カノープス・ベスト,,株式会社,広島県,広島市南区,宇品神田１丁目１番８号,,34,103,7340004,,,,,,,2023-03-06,1,,,,,カノープスベスト,0
535,2250001019987,新規,0,2023-03-06,2023-03-06,ＳＧＹ工業株式会社,,株式会社,山口県,光市,中央３丁目２番５号,,35,210,7430013,,,,,,,2023-03-06,1,,,,,エスジーワイコウギョウ,0
545,2290001100495,新規,0,2023-03-06,2023-03-06,株式会社ＬＡＦＡＳ,,株式会社,福岡県,福岡市中央区,赤坂３丁目１１番１２－３０２号グランドヴィラス赤坂,,40,133,8100042,,,,,,,2023-03-06,1,,,,,レイファス,0
546,2290001100693,新規,0,2023-03-06,2023-03-06,株式会社ＺＫ,,株式会社,福岡県,朝倉市,堤１０８１番地５,,40,228,8380062,,,,,,,2023-03-06,1,,,,,ゼットケイ,0
547,2290001100751,新規,0,2023-03-06,2023-03-06,ＳＫＢ株式会社,,株式会社,福岡県,福岡市中央区,赤坂２丁目１番５１－４０６号,,40,133,8100042,,,,,,,2023-03-06,1,,,,,エスケービー,0
557,2290801029348,新規,0,2023-03-06,2023-03-06,株式会社九和,,株式会社,福岡県,北九州市小倉北区,清水５丁目１０番２号,,40,106,8030841,,,,,,,2023-03-06,1,,,,,キュウワ,0
558,2290803004357,新規,0,2023-03-06,2023-03-06,合同会社ＫＴ,,合同会社,福岡県,北九州市八幡西区,北筑１丁目７番２２号,,40,109,8070857,,,,,,,2023-03-06,1,,,,,ケイティ,0
565,2320001019609,新規,0,2023-03-06,2023-03-06,ＭａｘＷｅｌｌ株式会社,,株式会社,大分県,大分市,新貝１１番２７号ＷＩＮＤＯＭ高山３０２,,44,201,8700911,,,,,,,2023-03-06,1,,,,,マックスウェル,0
568,2330001030663,新規,0,2023-03-06,2023-03-06,株式会社昭和物流,,株式会社,熊本県,八代市,昭和日進町２６２番地２,,43,202,8694721,,,,,,,2023-03-06,1,,,,,ショウワブツリュウ,0
579,2360001031650,新規,0,2023-03-06,2023-03-06,Ｆａｎスタッフ株式会社,,株式会社,沖縄県,浦添市,伊祖１丁目１５番１２号２Ｆ,,47,208,9012132,,,,,,,2023-03-06,1,,,,,ファンスタッフ,0
580,2360001031667,新規,0,2023-03-06,2023-03-06,ＮＴＬ株式会社,,株式会社,沖縄県,宜野湾市,大山２丁目９番１２号,,47,205,9012223,,,,,,,2023-03-06,1,,,,,エヌティーエル,0
581,2360003012772,新規,0,2023-03-06,2023-03-06,合同会社おもろ,,合同会社,沖縄県,那覇市,壺屋１丁目６番２３号知念ビル,,47,201,9020065,,,,,,,2023-03-06,1,,,,,オモロ,0
589,2370001049650,新規,0,2023-03-06,2023-03-06,株式会社リセンダー,,株式会社,宮城県,仙台市太白区,金剛沢１丁目４番８号アイリスヒルズ１０１,,04,104,9820803,,,,,,,2023-03-06,1,,,,,リセンダー,0
590,2370001049659,新規,0,2023-03-06,2023-03-06,株式会社Ａｃｅ,,株式会社,宮城県,仙台市若林区,伊在３丁目６番地の１ホワイトアーバンシティ１０８,,04,103,9840038,,,,,,,2023-03-06,1,,,,,エース,0
591,2370001049675,新規,0,2023-03-06,2023-03-06,ＹＡＮＡＧＩ株式会社,,株式会社,宮城県,東松島市,赤井字鷲塚５９番地１,,04,214,9810501,,,,,,,2023-03-06,1,,,,,ヤナギ,0
593,2370005010600,新規,0,2023-03-06,2023-03-06,行政書士法人ｔｏｍｏｎｉ,,その他の設立登記法人,宮城県,仙台市青葉区,立町２３番１９－２０１号,,04,101,9800822,,,,,,,2023-03-06,1,,,,,トモニ,0
595,2380001033521,新規,0,2023-03-06,2023-03-06,株式会社ミツハシ,,株式会社,福島県,喜多方市,塩川町天沼字貝沼１４８８番地の１,,07,208,9693538,,,,,,,2023-03-06,1,,,,,ミツハシ,0
596,2380003005403,新規,0,2023-03-06,2023-03-06,合同会社Ｍ．ｅ．ｓ,,合同会社,福島県,いわき市,勿来町窪田外城１５番地,,07,204,9790141,,,,,,,2023-03-06,1,,,,,エムイーエス,0
599,2390001017176,新規,0,2023-03-06,2023-03-06,株式会社チャレンジ,,株式会社,山形県,酒田市,新橋２丁目２６番地の２０,,06,204,9980864,,,,,,,2023-03-06,1,,,,,チャレンジ,0
601,2390003002060,新規,0,2023-03-06,2023-03-06,ソーラーさかた合同会社,,合同会社,山形県,酒田市,こあら１丁目３番地の１８,,06,204,9980878,,,,,,,2023-03-06,1,,,,,ソーラーサカタ,0
605,2430001029803,新規,0,2023-03-06,2023-03-06,株式会社モトエサービスブローカーズ,,株式会社,北海道,札幌市中央区,南十条西１０丁目１番２０号,,01,101,0640810,,,,,,,2023-03-06,1,,,,,モトエサービスブローカーズ,0
609,2430001088535,新規,0,2023-03-06,2023-03-06,株式会社小野寺塗装,,株式会社,北海道,夕張郡栗山町,字湯地５９番地２９５,,01,429,0691508,,,,,,,2023-03-06,1,,,,,オノデラトソウ,0
610,2430001088543,新規,0,2023-03-06,2023-03-06,株式会社クレアーレ,,株式会社,北海道,札幌市中央区,南十七条西１８丁目１番３２－５０３号,,01,101,0640917,,,,,,,2023-03-06,1,,,,,クレアーレ,0
611,2430001088568,新規,0,2023-03-06,2023-03-06,株式会社ＴＭ　ｆｏｏｄｓ,,株式会社,北海道,札幌市北区,北三十七条西４丁目３－１２藤井ビルＮ３７－５１６号,,01,102,0010037,,,,,,,2023-03-06,1,,,,,ティーエムフーズ,0
614,2430003014794,新規,0,2023-03-06,2023-03-06,合同会社黒井商事,,合同会社,北海道,札幌市南区,藤野二条６丁目３番１８号シャロングレイス藤野１０１号,,01,106,0612282,,,,,,,2023-03-06,1,,,,,クロイショウジ,0
619,2470003002358,新規,0,2023-03-06,2023-03-06,西野合同会社,,合同会社,香川県,三豊市,詫間町詫間２０７３番地,,37,208,7691101,,,,,,,2023-03-06,1,,,,,ニシノ,0
621,2490001010419,新規,0,2023-03-06,2023-03-06,株式会社クラウド４４０,,株式会社,高知県,高岡郡檮原町,神在居４１４１番地,,39,405,7850622,,,,,,,2023-03-06,1,,,,,クラウドフォーティーフォーゼロ,0
626,3010001233388,新規,0,2023-03-06,2023-03-06,株式会社ホウショウ,,株式会社,東京都,千代田区,四番町４番地６－１３０４号,,13,101,1020081,,,,,,,2023-03-06,1,,,,,ホウショウ,0
627,3010001233396,新規,0,2023-03-06,2023-03-06,株式会社Ｅｍｍａ＆Ｃｏ．Ｊａｐａｎ,,株式会社,東京都,中央区,銀座１丁目４番４号銀座１０４ビル４Ｆ,,13,102,1040061,,,,,,,2023-03-06,1,,,,,エマアンドカンパニージャパン,0
628,3010001233405,新規,0,2023-03-06,2023-03-06,株式会社エスエスシー,,株式会社,東京都,文京区,小石川５丁目５番５号,,13,105,1120002,,,,,,,2023-03-06,1,,,,,エスエスシー,0
629,3010001233413,新規,0,2023-03-06,2023-03-06,グリーン・サービス管理株式会社,,株式会社,東京都,文京区,関口２丁目１０番８号,,13,105,1120014,,,,,,,2023-03-06,1,,,,,グリーンサービスカンリ,0
630,3010001233438,新規,0,2023-03-06,2023-03-06,ＡＶＩＯＮ　Ｃｏｍｐａｎｙ　Ｊａｐａｎ株式会社,,株式会社,東京都,千代田区,飯田橋３丁目１１番２５号ＳＰＲＯＵＴ・ＩＩＤＡＢＡＳＨＩ・３Ｆ,,13,101,1020072,,,,,,,2023-03-06,1,,,,,アビオンカンパニージャパン,0
631,3010001233462,新規,0,2023-03-06,2023-03-06,株式会社世界文化ワンダーグループ,,株式会社,東京都,千代田区,九段北４丁目２番２９号,,13,101,1020073,,,,,,,2023-03-06,1,,,,,セカイブンカワンダーグループ,0
632,3010001233487,新規,0,2023-03-06,2023-03-06,ＯＡＫ株式会社,,株式会社,東京都,中央区,銀座１丁目１２番４号Ｎ＆Ｅ．ＢＬＤ．６Ｆ,,13,102,1040061,,,,,,,2023-03-06,1,,,,,オーク,0
635,3010003039940,新規,0,2023-03-06,2023-03-06,ＲＢソーラージェット合同会社,,合同会社,東京都,中央区,八丁堀４丁目２番１０号ＡＯＪ税理士法人内,,13,102,1040032,,,,,,,2023-03-06,1,,,,,アールビーソーラージェット,0
636,3010003039965,新規,0,2023-03-06,2023-03-06,合同会社スキャナンド,,合同会社,東京都,文京区,湯島２丁目１７番１１－６０３号,,13,105,1130034,,,,,,,2023-03-06,1,,,,,スキャナンド,0
637,3010003039973,新規,0,2023-03-06,2023-03-06,チェンジャーアンドカンパニー合同会社,,合同会社,東京都,中央区,銀座１丁目２２番１１号銀座大竹ビジデンス２階,,13,102,1040061,,,,,,,2023-03-06,1,,,,,チェンジャーアンドカンパニー,0
638,3010003039981,新規,0,2023-03-06,2023-03-06,トンパイルーイビジョン合同会社,,合同会社,東京都,中央区,銀座１丁目２２番１１号銀座大竹ビジデンス２Ｆ,,13,102,1040061,,,,,,,2023-03-06,1,,,,,トンパイルーイビジョン,0
650,3010401172723,新規,0,2023-03-06,2023-03-06,株式会社１９,,株式会社,東京都,港区,六本木６丁目１５番１号,,13,103,1060032,,,,,,,2023-03-06,1,,,,,ジュウキュウ,0
651,3010401172847,新規,0,2023-03-06,2023-03-06,株式会社ホーラ,,株式会社,東京都,港区,新橋６丁目５番３号,,13,103,1050004,,,,,,,2023-03-06,1,,,,,ホーラ,0
652,3010401172871,新規,0,2023-03-06,2023-03-06,株式会社Ｕｍａｍｉ　Ａｒｔ,,株式会社,東京都,港区,西新橋２丁目２０番１号,,13,103,1050003,,,,,,,2023-03-06,1,,,,,ウマミアート,0
653,3010401172905,新規,0,2023-03-06,2023-03-06,株式会社Ｔｅｃｒｈｙｍｅ,,株式会社,東京都,港区,港南２丁目１６－１品川イーストタワー７階,,13,103,1080075,,,,,,,2023-03-06,1,,,,,テクライム,0
656,3010403029640,新規,0,2023-03-06,2023-03-06,クリエイトネクスト合同会社,,合同会社,東京都,港区,芝５丁目５番６－９０１号,,13,103,1080014,,,,,,,2023-03-06,1,,,,,クリエイトネクスト,0
659,3010501050085,新規,0,2023-03-06,2023-03-06,株式会社ＩＮＯＵＥホールディングス,,株式会社,東京都,台東区,雷門２丁目３番１２号,,13,106,1110034,,,,,,,2023-03-06,1,,,,,イノウエホールディングス,0
660,3010501050093,新規,0,2023-03-06,2023-03-06,株式会社アイ・イー・シーホールディングス,,株式会社,東京都,台東区,柳橋１丁目３番１１号ＴＯＷＡビル４Ｆ,,13,106,1110052,,,,,,,2023-03-06,1,,,,,アイイーシーホールディングス,0
663,3010601062699,新規,0,2023-03-06,2023-03-06,株式会社Ｕｎｄｅｒ‐Ｒｏｃｋ　ｒｅｎｏｖａｔｉｏｎ,,株式会社,東京都,墨田区,京島３丁目１０番３－１００１号,,13,107,1310046,,,,,,,2023-03-06,1,,,,,アンダーロックリノベーション,0
664,3010605004169,新規,0,2023-03-06,2023-03-06,一般財団法人八島花文化財団,,その他の設立登記法人,東京都,墨田区,京島３丁目５０番１２号,,13,107,1310046,,,,,,,2023-03-06,1,,,,,ヤツシマハナブンカザイダン,0
669,3010801033731,新規,0,2023-03-06,2023-03-06,Ａｒｔｉｃｉｏｕｓ株式会社,,株式会社,東京都,大田区,池上６丁目３９番１５‐２０４号,,13,111,1460082,,,,,,,2023-03-06,1,,,,,アーティシャス,0
671,3010901052656,新規,0,2023-03-06,2023-03-06,株式会社ＹＫ,,株式会社,東京都,世田谷区,北烏山３丁目１８番１７号エスペラント烏山ＩＩＩ２０２,00129639,13,112,1570061,,,,,,,2023-03-06,1,,,,,ワイケイ,0
672,3010903008012,新規,0,2023-03-06,2023-03-06,合同会社Ｇｒｅｅｎ　Ｒｏｏｍ,,合同会社,東京都,世田谷区,等々力８丁目３番２３－２０４号,,13,112,1580082,,,,,,,2023-03-06,1,,,,,グリーンルーム,0
677,3011001152925,新規,0,2023-03-06,2023-03-06,ＬＵＮＡ株式会社,,株式会社,東京都,渋谷区,恵比寿西１丁目３３番３－３０４号,,13,113,1500021,,,,,,,2023-03-06,1,,,,,ルナ,0
678,3011001152933,新規,0,2023-03-06,2023-03-06,株式会社Ｅｔｅｒｎｉｔｙ　Ｌｏｇｉｓｔｉｃｓ　ＪＡＰＡＮ,,株式会社,東京都,渋谷区,道玄坂１丁目１５番３号プリメーラ道玄坂８１７号室,,13,113,1500043,,,,,,,2023-03-06,1,,,,,エタニティロジスティックスジャパン,0
679,3011003016384,新規,0,2023-03-06,2023-03-06,ｔｒ合同会社,,合同会社,東京都,渋谷区,神泉町１０番１５号,,13,113,1500045,,,,,,,2023-03-06,1,,,,,テラ,0
681,3011101102037,新規,0,2023-03-06,2023-03-06,福祉教育マネジメント和福株式会社,,株式会社,東京都,新宿区,市谷田町３丁目８市ヶ谷科学技術イノベーションセンタービル２階,,13,104,1620843,,,,,,,2023-03-06,1,,,,,フクシキョウイクマネジメントワフク,0
682,3011103012754,新規,0,2023-03-06,2023-03-06,合同会社ＩＮ．Ｕ,,合同会社,東京都,新宿区,西新宿３丁目９－１２西新宿ダイヤモンドビル１１０１,,13,104,1600023,,,,,,,2023-03-06,1,,,,,インユー,0
688,3011401024947,新規,0,2023-03-06,2023-03-06,株式会社ＴＩプランニング,,株式会社,東京都,板橋区,徳丸６丁目１１番１０号,,13,119,1750083,,,,,,,2023-03-06,1,,,,,ティーアイプランニング,0
690,3011501029012,新規,0,2023-03-06,2023-03-06,シチロウ商事株式会社,,株式会社,東京都,荒川区,町屋５丁目１９番３号富島ビル４Ｆ－４０４Ｂ,,13,118,1160001,,,,,,,2023-03-06,1,,,,,シチロウショウジ,0
694,3011801042004,新規,0,2023-03-06,2023-03-06,株式会社エヌ防,,株式会社,東京都,葛飾区,新宿５丁目１４番２号,,13,122,1250051,,,,,,,2023-03-06,1,,,,,エヌボウ,0
695,3011801042029,新規,0,2023-03-06,2023-03-06,株式会社ＮＧＣ,,株式会社,東京都,足立区,梅田８丁目８番９号,,13,121,1230851,,,,,,,2023-03-06,1,,,,,エヌジーシー,0
696,3011803005545,新規,0,2023-03-06,2023-03-06,合同会社ＨＵＮＩ,,合同会社,東京都,葛飾区,東新小岩５丁目７番１号みのりマンション１０１,,13,122,1240023,,,,,,,2023-03-06,1,,,,,フニ,0
697,3012405004836,新規,0,2023-03-06,2023-03-06,一般社団法人よろず中道,,その他の設立登記法人,東京都,武蔵野市,吉祥寺本町３丁目３番２号メヌマビル２Ｆ,,13,203,1800004,,,,,,,2023-03-06,1,,,,,ヨロズナカミチ,0
700,3012801022177,新規,0,2023-03-06,2023-03-06,株式会社Ｒｏｍａｎ,,株式会社,東京都,国分寺市,本町４丁目１番１０号シティハイツＢ１,,13,214,1850012,,,,,,,2023-03-06,1,,,,,ロマン,0
706,3013301050404,新規,0,2023-03-06,2023-03-06,アステリンク株式会社,,株式会社,東京都,豊島区,南長崎４丁目２９番１３号,,13,116,1710052,,,,,,,2023-03-06,1,,,,,アステリンク,0
707,3013301050412,新規,0,2023-03-06,2023-03-06,株式会社モノリス,,株式会社,東京都,豊島区,東池袋１丁目３９番１１号,,13,116,1700013,,,,,,,2023-03-06,1,,,,,モノリス,0
714,3020001150533,新規,0,2023-03-06,2023-03-06,株式会社エーエヌディーエー,,株式会社,神奈川県,横浜市旭区,善部町８２番地９,,14,112,2410823,,,,,,,2023-03-06,1,,,,,エーエヌディーエー,0
720,3021001078343,新規,0,2023-03-06,2023-03-06,株式会社ＹＨＳ,,株式会社,神奈川県,相模原市中央区,相模原１丁目１番２４－１１０６号,,14,152,2520231,,,,,,,2023-03-06,1,,,,,ワイエイチエス,0
721,3021001078368,新規,0,2023-03-06,2023-03-06,株式会社鳶司,,株式会社,神奈川県,藤沢市,高倉１５０１番地の２,,14,205,2520802,,,,,,,2023-03-06,1,,,,,トビツカサ,0
722,3021001078376,新規,0,2023-03-06,2023-03-06,緑生ペットグラス株式会社,,株式会社,神奈川県,平塚市,平塚４丁目１６番地の１１カスガノースワン３０１,,14,203,2540052,,,,,,,2023-03-06,1,,,,,リョクセイペットグラス,0
728,3030001152636,新規,0,2023-03-06,2023-03-06,株式会社新井設備,,株式会社,埼玉県,所沢市,大字城６４９番地の２,,11,208,3590013,,,,,,,2023-03-06,1,,,,,アライセツビ,0
729,3030001152644,新規,0,2023-03-06,2023-03-06,株式会社Ｈ‐ｒｏｕｎｄ,,株式会社,埼玉県,さいたま市西区,三橋６丁目１６８５－３,,11,101,3310052,,,,,,,2023-03-06,1,,,,,エイチラウンド,0
730,3030001152685,新規,0,2023-03-06,2023-03-06,株式会社Ｔ‐スライヴ,,株式会社,埼玉県,戸田市,美女木１丁目１６番地の６（第三戸田ハイツ３０１号室）,,11,224,3350031,,,,,,,2023-03-06,1,,,,,ティースライヴ,0
731,3030001152719,新規,0,2023-03-06,2023-03-06,株式会社セイリョウ,,株式会社,埼玉県,川口市,榛松２丁目８番１９号,,11,203,3340062,,,,,,,2023-03-06,1,,,,,セイリョウ,0
732,3030001152751,新規,0,2023-03-06,2023-03-06,株式会社ＷＥＹＬＡＮＤ,,株式会社,埼玉県,さいたま市北区,宮原町２丁目１１７番地３,,11,102,3310812,,,,,,,2023-03-06,1,,,,,ウェイランド,0
735,3030003021285,新規,0,2023-03-06,2023-03-06,合同会社グレース,,合同会社,埼玉県,蓮田市,椿山４丁目１３番１３号,,11,238,3490144,,,,,,,2023-03-06,1,,,,,グレース,0
736,3030003021310,新規,0,2023-03-06,2023-03-06,ＧＥＩＮＥ合同会社,,合同会社,埼玉県,越谷市,赤山町１丁目１番１号,,11,222,3430807,,,,,,,2023-03-06,1,,,,,ジーニー,0
737,3030003021319,新規,0,2023-03-06,2023-03-06,合同会社明日香,,合同会社,埼玉県,熊谷市,河原町１丁目１６２第２サンハイツ金井１０５,,11,202,3600035,,,,,,,2023-03-06,1,,,,,アスカ,0
738,3030003021327,新規,0,2023-03-06,2023-03-06,ディーアンドポーラー合同会社,,合同会社,埼玉県,越谷市,南越谷３丁目２番９号,,11,222,3430845,,,,,,,2023-03-06,1,,,,,ディーアンドポーラー,0
743,3040001127348,新規,0,2023-03-06,2023-03-06,株式会社ＦＡＭＩＬＩＡＲ,,株式会社,千葉県,千葉市花見川区,武石町１丁目８６番地２,,12,102,2620031,,,,,,,2023-03-06,1,,,,,ファミリア,0
744,3040001127380,新規,0,2023-03-06,2023-03-06,億徳商貿株式会社,,株式会社,千葉県,富里市,七栄５２３番地（富里ハイツＣ－５）,,12,233,2860221,,,,,,,2023-03-06,1,,,,,オクトクショウボウ,0
748,3040005021919,新規,0,2023-03-06,2023-03-06,一般社団法人ひとらぼ,,その他の設立登記法人,千葉県,船橋市,三咲４丁目１４番４３号,,12,204,2740812,,,,,,,2023-03-06,1,,,,,ヒトラボ,0
750,3050001052495,新規,0,2023-03-06,2023-03-06,株式会社ＯＴＡＳ,,株式会社,茨城県,水戸市,千波町２９９番地の５０,,08,201,3100851,,,,,,,2023-03-06,1,,,,,オータス,0
753,3060001035739,新規,0,2023-03-06,2023-03-06,株式会社入江工業,,株式会社,栃木県,栃木市,大平町西野田２０１５番地１,,09,203,3294421,,,,,,,2023-03-06,1,,,,,イリエコウギョウ,0
757,3070001040184,新規,0,2023-03-06,2023-03-06,株式会社ＣＬＡＳＳ１,,株式会社,群馬県,前橋市,富士見町赤城山１０７３番地２３,,10,201,3710101,,,,,,,2023-03-06,1,,,,,クラスワン,0
766,3080101023823,新規,0,2023-03-06,2023-03-06,株式会社スピラルミゼン,,株式会社,静岡県,熱海市,熱海１８３０番地２０,,22,205,4130033,,,,,,,2023-03-06,1,,,,,スピラルミゼン,0
767,3080101023831,新規,0,2023-03-06,2023-03-06,株式会社ｈｉｙｏｋｅｙａ,,株式会社,静岡県,賀茂郡東伊豆町,奈良本１４０８番地の１７,,22,301,4130302,,,,,,,2023-03-06,1,,,,,ヒヨケヤ,0
772,3110001037325,新規,0,2023-03-06,2023-03-06,フチオカエンタープライズホールディングス株式会社,,株式会社,新潟県,見附市,今町８丁目９番１号,,15,211,9540111,,,,,,,2023-03-06,1,,,,,フチオカエンタープライズホールディングス,0
775,3110005016903,新規,0,2023-03-06,2023-03-06,企業組合ものずき村,,その他の設立登記法人,新潟県,魚沼市,三渕沢４０番地１,,15,225,9460225,,,,,,,2023-03-06,1,,,,,モノズキムラ,0
790,3120001252831,新規,0,2023-03-06,2023-03-06,株式会社ｆｕｅｌａ,,株式会社,大阪府,大阪市北区,梅田１丁目２－２大阪駅前第２ビル１２－１２,,27,127,5300001,,,,,,,2023-03-06,1,,,,,フエラ,0
791,3120001252864,新規,0,2023-03-06,2023-03-06,大洋技研株式会社,,株式会社,大阪府,大阪市淀川区,木川東３丁目５番２１号第三丸善ビル,,27,123,5320012,,,,,,,2023-03-06,1,,,,,タイヨウギケン,0
792,3120001252872,新規,0,2023-03-06,2023-03-06,ポセイドン株式会社,,株式会社,大阪府,大阪市生野区,巽北３丁目１２番７号,00129631,27,116,5440004,,,,,,,2023-03-06,1,,,,,ポセイドン,0
793,3120001252880,新規,0,2023-03-06,2023-03-06,株式会社ＣＬＯＶＥＲ,,株式会社,大阪府,大阪市浪速区,日本橋４丁目７番１０号－３Ｆ,,27,111,5560005,,,,,,,2023-03-06,1,,,,,クローバー,0
794,3120001252897,新規,0,2023-03-06,2023-03-06,株式会社あけび,,株式会社,大阪府,枚方市,長尾元町２丁目１３番３１号,,27,210,5730163,,,,,,,2023-03-06,1,,,,,アケビ,0
795,3120001252947,新規,0,2023-03-06,2023-03-06,ＳＨＩＮＫＩ工業株式会社,,株式会社,大阪府,大阪市城東区,今福東３丁目６番２１号,,27,118,5360002,,,,,,,2023-03-06,1,,,,,シンキコウギョウ,0
796,3120001252996,新規,0,2023-03-06,2023-03-06,株式会社ビューティーゲートジャパン,,株式会社,大阪府,大阪市淀川区,西中島３丁目１８番９号新大阪日大ビル３０２,,27,123,5320011,,,,,,,2023-03-06,1,,,,,ビューティーゲートジャパン,0
799,3120003023537,新規,0,2023-03-06,2023-03-06,合同会社とらす,,合同会社,大阪府,大阪市阿倍野区,松崎町２丁目１番２８号,,27,119,5450053,,,,,,,2023-03-06,1,,,,,トラス,0
800,3120003023545,新規,0,2023-03-06,2023-03-06,合同会社Ｒａｃｅ,,合同会社,大阪府,大阪市西成区,旭１丁目４－２６、５０７号室,,27,122,5570032,,,,,,,2023-03-06,1,,,,,レース,0
801,3120003023553,新規,0,2023-03-06,2023-03-06,合同会社オフィスハヤカワ,,合同会社,大阪府,大阪市中央区,内平野町１丁目２番９号,,27,128,5400037,,,,,,,2023-03-06,1,,,,,オフィスハヤカワ,0
804,3120101067064,新規,0,2023-03-06,2023-03-06,株式会社アールワン,,株式会社,大阪府,河内長野市,桐ケ丘１２番１号,,27,216,5860097,,,,,,,2023-03-06,1,,,,,アールワン,0
805,3120101067089,新規,0,2023-03-06,2023-03-06,さの不動産販売株式会社,,株式会社,大阪府,泉佐野市,若宮町１０番２５号,,27,213,5980055,,,,,,,2023-03-06,1,,,,,サノフドウサンハンバイ,0
807,3120901047208,新規,0,2023-03-06,2023-03-06,株式会社周,,株式会社,大阪府,吹田市,青山台３丁目２１番５号,,27,205,5650875,,,,,,,2023-03-06,1,,,,,シュウ,0
809,3120905006440,新規,0,2023-03-06,2023-03-06,一般社団法人Ｃｒｏｓｓ　Ｃｕｌｔｕｒｅ　Ｓａｌｏｎ,,その他の設立登記法人,大阪府,池田市,天神２丁目３番１０－２０６号,,27,204,5630031,,,,,,,2023-03-06,1,,,,,クロスカルチャーサロン,0
814,3122003002529,新規,0,2023-03-06,2023-03-06,Ｖ．ｅｒｔｅｘ合同会社,,合同会社,大阪府,東大阪市,小阪１丁目１３－３２ローレルコート小阪一丁目８０１,,27,227,5770801,,,,,,,2023-03-06,1,,,,,ブイテックス,0
822,3140001129292,新規,0,2023-03-06,2023-03-06,アスライトサービス株式会社,,株式会社,兵庫県,神戸市中央区,浜辺通６丁目１番１－１９１３号,,28,110,6510083,,,,,,,2023-03-06,1,,,,,アスライトサービス,0
823,3140003018799,新規,0,2023-03-06,2023-03-06,合同会社タイタ・ファーム,,合同会社,兵庫県,美方郡新温泉町,対田９６０番の１番地,,28,586,6696728,,,,,,,2023-03-06,1,,,,,タイタファーム,0
825,3150001026209,新規,0,2023-03-06,2023-03-06,株式会社イケガミ,,株式会社,奈良県,五條市,今井３丁目５番１０号,,29,207,6370004,,,,,,,2023-03-06,1,,,,,イケガミ,0
826,3150001026217,新規,0,2023-03-06,2023-03-06,株式会社ＴＴＫプロモーション,,株式会社,奈良県,奈良市,下三条町３４番地,,29,201,6308236,,,,,,,2023-03-06,1,,,,,ティーティーケープロモーション,0
827,3160001024863,新規,0,2023-03-06,2023-03-06,株式会社ＭｏｔｏｒＡＩ,,株式会社,滋賀県,草津市,野路東１丁目１－１立命館大学ＢＫＣインキュベータ,,25,206,5250058,,,,,,,2023-03-06,1,,,,,モーターエーアイ,0
834,3180001155145,新規,0,2023-03-06,2023-03-06,株式会社ＴＨ國光,,株式会社,愛知県,名古屋市中区,平和１丁目１５番２５号今井ダイアパレス東別院４０１号,,23,106,4600021,,,,,,,2023-03-06,1,,,,,ティーエイチクニミツ,0
835,3180001155194,新規,0,2023-03-06,2023-03-06,株式会社ＮＡＲＩＣＯ,,株式会社,愛知県,名古屋市北区,六が池町５１４番地の３,,23,103,4620002,,,,,,,2023-03-06,1,,,,,ナリコー,0
836,3180001155211,新規,0,2023-03-06,2023-03-06,株式会社太陽Ｓｕｎ,,株式会社,愛知県,長久手市,岩作三ケ峯４２番地２,,23,238,4801103,,,,,,,2023-03-06,1,,,,,タイヨウサン,0
837,3180001155260,新規,0,2023-03-06,2023-03-06,株式会社ラウンダップ,,株式会社,愛知県,名古屋市天白区,保呂町１４１０番地２,,23,116,4680041,,,,,,,2023-03-06,1,,,,,ラウンダップ,0
842,3180301037150,新規,0,2023-03-06,2023-03-06,Ｍウッド株式会社,,株式会社,愛知県,安城市,南町１番１２号,,23,212,4460034,,,,,,,2023-03-06,1,,,,,エムウッド,0
849,3240001061147,新規,0,2023-03-06,2023-03-06,株式会社ＡＩＲＬＩＳＴ,,株式会社,広島県,福山市,千田町３丁目５５番３－４号,,34,207,7200017,,,,,,,2023-03-06,1,,,,,エアーリスト,0
850,3240001061155,新規,0,2023-03-06,2023-03-06,株式会社イケヨシ,,株式会社,広島県,広島市中区,舟入中町３番６－７０１号パートナー広島,,34,101,7300842,,,,,,,2023-03-06,1,,,,,イケヨシ,0
851,3250001019994,新規,0,2023-03-06,2023-03-06,株式会社倉永工務店,,株式会社,山口県,熊毛郡田布施町,大字波野１７３４番地２,,35,343,7421502,,,,,,,2023-03-06,1,,,,,クラナガコウムテン,0
854,3260001037698,新規,0,2023-03-06,2023-03-06,株式会社山勝,,株式会社,岡山県,岡山市南区,万倍１７６番地１６,,33,104,7000955,,,,,,,2023-03-06,1,,,,,ヤマショウ,0
862,3290001100701,新規,0,2023-03-06,2023-03-06,株式会社ジャパネットツーリズム,,株式会社,福岡県,福岡市中央区,天神１丁目１０番２０号,,40,133,8100001,,,,,,,2023-03-06,1,,,,,ジャパネットツーリズム,0
863,3290001100734,新規,0,2023-03-06,2023-03-06,株式会社トックテックス,,株式会社,福岡県,福岡市西区,泉３丁目１８番２１号,,40,135,8190381,,,,,,,2023-03-06,1,,,,,トックテックス,0
872,3320001019599,新規,0,2023-03-06,2023-03-06,株式会社ユライズ,,株式会社,大分県,佐伯市,城下西町４番５号,,44,205,8760847,,,,,,,2023-03-06,1,,,,,ユライズ,0
873,3320001019616,新規,0,2023-03-06,2023-03-06,株式会社Ｏｆｆｉｃｅコネクト,,株式会社,大分県,大分市,敷戸東町１７番５号,,44,201,8701104,,,,,,,2023-03-06,1,,,,,オフィスコネクト,0
876,3330001030662,新規,0,2023-03-06,2023-03-06,株式会社トラックセッション,,株式会社,熊本県,球磨郡球磨村,大字一勝地乙３９－２,,43,513,8696403,,,,,,,2023-03-06,1,,,,,トラックセッション,0
878,3330005010628,新規,0,2023-03-06,2023-03-06,一般財団法人ナベちゃん,,その他の設立登記法人,熊本県,熊本市中央区,新大江２丁目８番２８号,,43,101,8620972,,,,,,,2023-03-06,1,,,,,ナベチャン,0
886,3360001031633,新規,0,2023-03-06,2023-03-06,株式会社６９,,株式会社,沖縄県,宮古島市,平良字下里５番地Ｎ．ＴＫ２Ｆ－Ｂ,,47,214,9060013,,,,,,,2023-03-06,1,,,,,ロック,0
887,3360001031666,新規,0,2023-03-06,2023-03-06,株式会社インテリアＴＡＫＡ,,株式会社,沖縄県,糸満市,字座波６２３番地の６,,47,210,9010314,,,,,,,2023-03-06,1,,,,,インテリアタカ,0
890,3370001049658,新規,0,2023-03-06,2023-03-06,株式会社ＧＲＡＣＥ,,株式会社,宮城県,仙台市青葉区,本町１丁目１３番１９号クリスタルパレス第二本町ビル３Ｆ,,04,101,9800014,,,,,,,2023-03-06,1,,,,,グレース,0
891,3380001033520,新規,0,2023-03-06,2023-03-06,株式会社ＥＫテック,,株式会社,福島県,郡山市,富田町字豊年田１番地の３１,,07,203,9638041,,,,,,,2023-03-06,1,,,,,イーケーテック,0
892,3380003005402,新規,0,2023-03-06,2023-03-06,合同会社三石産業,,合同会社,福島県,いわき市,平下平窪字笹ノ田９０番地の２,,07,204,9708003,,,,,,,2023-03-06,1,,,,,ミツイシサンギョウ,0
895,3390001017175,新規,0,2023-03-06,2023-03-06,株式会社田園サービスいいで,,株式会社,山形県,西置賜郡飯豊町,大字萩生１９６２番地,,06,403,9990602,,,,,,,2023-03-06,1,,,,,デンエンサービスイイデ,0
896,3400001016167,新規,0,2023-03-06,2023-03-06,株式会社暁,,株式会社,岩手県,盛岡市,紺屋町２番２２－５１２号,,03,201,0200885,,,,,,,2023-03-06,1,,,,,アカツキ,0
899,3430001088526,新規,0,2023-03-06,2023-03-06,株式会社草嶋工業,,株式会社,北海道,札幌市東区,中沼一条２丁目７番１号,,01,103,0070001,,,,,,,2023-03-06,1,,,,,クサジマコウギョウ,0
905,3430003014769,新規,0,2023-03-06,2023-03-06,合同会社ホクセキ,,合同会社,北海道,石狩市,樽川五条２丁目２５番地,,01,235,0613255,,,,,,,2023-03-06,1,,,,,ホクセキ,0
906,3430003014793,新規,0,2023-03-06,2023-03-06,合同会社ＬＯＣＯ,,合同会社,北海道,札幌市白石区,菊水元町四条２丁目１－１７マンション今井１Ｆ,,01,104,0030824,,,,,,,2023-03-06,1,,,,,ロコ,0
907,3460101007341,新規,0,2023-03-06,2023-03-06,株式会社ＡｌｌｙＷｏｒｋｅｒｓ,,株式会社,北海道,帯広市,西一条南１０丁目８番地１メイプルこみち２Ｆ東１号室,,01,207,0800011,,,,,,,2023-03-06,1,,,,,アリーワーカーズ,0
915,4010001233412,新規,0,2023-03-06,2023-03-06,株式会社ＦＥＣソリューションズ,,株式会社,東京都,中央区,日本橋蛎殻町１丁目１１番３号中銀日本橋マンシオン２０１室,,13,102,1030014,,,,,,,2023-03-06,1,,,,,エフイーシーソリューションズ,0
916,4010001233420,新規,0,2023-03-06,2023-03-06,株式会社レゾナンス,,株式会社,東京都,中央区,日本橋２丁目１番３号,,13,102,1030027,,,,,,,2023-03-06,1,,,,,レゾナンス,0
917,4010001233429,新規,0,2023-03-06,2023-03-06,コミッショニング・エージェント・インターナショナル・ジャパン株式会社,,株式会社,東京都,千代田区,霞が関３丁目２番６号東京倶楽部ビルディング１１階,,13,101,1000013,,,,,,,2023-03-06,1,,,,,コミッショニングエージェントインターナショナルジャパン,0
918,4010001233453,新規,0,2023-03-06,2023-03-06,ＬＩＶＥ　ＢＯＲＮ株式会社,,株式会社,東京都,中央区,日本橋茅場町１丁目７番５号,,13,102,1030025,,,,,,,2023-03-06,1,,,,,ライブボーン,0
919,4010001233461,新規,0,2023-03-06,2023-03-06,株式会社エスワイエンタープライズ,,株式会社,東京都,千代田区,岩本町３丁目１番９号,,13,101,1010032,,,,,,,2023-03-06,1,,,,,エスワイエンタープライズ,0
923,4010005036340,新規,0,2023-03-06,2023-03-06,オーク・ロジ東松山特定目的会社,,その他の設立登記法人,東京都,千代田区,内神田２丁目２番６号５階あすな会計事務所内,,13,101,1010047,,,,,,,2023-03-06,1,,,,,オークロジヒガシマツヤマ,0
936,4010401172879,新規,0,2023-03-06,2023-03-06,株式会社ＡＬＩＫＳＩＲ,,株式会社,東京都,港区,白金１丁目２６番１０－５０２号,,13,103,1080072,,,,,,,2023-03-06,1,,,,,エリクシール,0
937,4010401172912,新規,0,2023-03-06,2023-03-06,株式会社マシュマロエンタメ,,株式会社,東京都,港区,虎ノ門１丁目１７－１虎ノ門ヒルズビジネスタワー１５階,,13,103,1050001,,,,,,,2023-03-06,1,,,,,マシュマロエンタメ,0
941,4010405021900,新規,0,2023-03-06,2023-03-06,クイーンズウェイ特定目的会社,,その他の設立登記法人,東京都,港区,六本木１丁目６番１号泉ガーデンタワー,,13,103,1060032,,,,,,,2023-03-06,1,,,,,クイーンズウェイ,0
943,4010601062715,新規,0,2023-03-06,2023-03-06,Ｓ＆ＶＬ株式会社,,株式会社,東京都,江東区,青海１丁目１番２０号ダイバーシティ東京オフィスタワー１５階,,13,108,1350064,,,,,,,2023-03-06,1,,,,,エスアンドヴイエル,0
944,4010603010044,新規,0,2023-03-06,2023-03-06,旅住空間合同会社,,合同会社,東京都,江東区,北砂３丁目３０番９号２Ｆ,,13,108,1360073,,,,,,,2023-03-06,1,,,,,リョジュウクウカン,0
945,4010701043920,新規,0,2023-03-06,2023-03-06,株式会社ザックス,,株式会社,東京都,品川区,旗の台６丁目１４番８号,,13,109,1420064,,,,,,,2023-03-06,1,,,,,ザックス,0
946,4010701043929,新規,0,2023-03-06,2023-03-06,株式会社ＰＭＯｎｅ,,株式会社,東京都,品川区,南大井６丁目２４番１０号カドヤ第１０ビル５Ｆ,,13,109,1400013,,,,,,,2023-03-06,1,,,,,ピーエムワン,0
947,4010701043937,新規,0,2023-03-06,2023-03-06,株式会社Ｕｍｉｌ,,株式会社,東京都,品川区,西大井１丁目１－２Ｊタワー西大井イーストタワー２階,,13,109,1400015,,,,,,,2023-03-06,1,,,,,ユーミル,0
949,4010901052639,新規,0,2023-03-06,2023-03-06,株式会社やさい大好き,,株式会社,東京都,世田谷区,玉川３丁目３１番１３－１０７号,,13,112,1580094,,,,,,,2023-03-06,1,,,,,ヤサイダイスキ,0
950,4010901052647,新規,0,2023-03-06,2023-03-06,株式会社今井工務店,,株式会社,東京都,世田谷区,下馬２丁目１５番１０号ＴＵハイム１０１,,13,112,1540002,,,,,,,2023-03-06,1,,,,,イマイコウムテン,0
951,4010901052655,新規,0,2023-03-06,2023-03-06,株式会社ＴＨＲＥＥ　ｐｌｕｓ,,株式会社,東京都,世田谷区,宇奈根２丁目１０番１６号,,13,112,1570068,,,,,,,2023-03-06,1,,,,,スリープラス,0
952,4010903008011,新規,0,2023-03-06,2023-03-06,惠鋒グローバル合同会社,,合同会社,東京都,世田谷区,赤堤１丁目３６番１５号,,13,112,1560044,,,,,,,2023-03-06,1,,,,,ケイホウグローバル,0
963,4011001152916,新規,0,2023-03-06,2023-03-06,株式会社ディープ,,株式会社,東京都,目黒区,中目黒４丁目６番１－７０３号,,13,110,1530061,,,,,,,2023-03-06,1,,,,,ディープ,0
964,4011001152924,新規,0,2023-03-06,2023-03-06,株式会社アクリファ,,株式会社,東京都,渋谷区,恵比寿４丁目２０番３号恵比寿ガーデンプレイスタワー１８階,,13,113,1500013,,,,,,,2023-03-06,1,,,,,アクリファ,0
965,4011001152932,新規,0,2023-03-06,2023-03-06,株式会社キネティックアーツＧＡ,,株式会社,東京都,目黒区,青葉台２丁目１６－８－１０１,,13,110,1530042,,,,,,,2023-03-06,1,,,,,キネティックアーツジーエー,0
968,4011101102028,新規,0,2023-03-06,2023-03-06,株式会社ａｕｒａｎｔｉａ,,株式会社,東京都,新宿区,新宿１丁目９番１号第２タケビル３階,,13,104,1600022,,,,,,,2023-03-06,1,,,,,オランチア,0
969,4011105010565,新規,0,2023-03-06,2023-03-06,一般社団法人楽楽終活,,その他の設立登記法人,東京都,新宿区,箪笥町３７番地,,13,104,1620833,,,,,,,2023-03-06,1,,,,,ラクラクシュウカツ,0
971,4011201024469,新規,0,2023-03-06,2023-03-06,株式会社アイソトープ,,株式会社,東京都,中野区,本町４丁目４７番１０－１００３号,,13,114,1640012,,,,,,,2023-03-06,1,,,,,アイソトープ,0
975,4011501028987,新規,0,2023-03-06,2023-03-06,株式会社ぬまじグループ,,株式会社,東京都,北区,赤羽１丁目７－９赤羽第一葉山ビル４Ｆ,,13,117,1150045,,,,,,,2023-03-06,1,,,,,ヌマジグループ,0
976,4011501029011,新規,0,2023-03-06,2023-03-06,Ｅ．Ｓ．Ｈ．Ｄ株式会社,,株式会社,東京都,荒川区,西尾久７丁目１１番１２号２Ｆ－Ｅ室,,13,118,1160011,,,,,,,2023-03-06,1,,,,,イーエスエイチディ,0
979,4011703003391,新規,0,2023-03-06,2023-03-06,合同会社ニホント,,合同会社,東京都,江戸川区,西瑞江３丁目２１番地３３,,13,123,1320015,,,,,,,2023-03-06,1,,,,,ニホント,0
980,4011801042028,新規,0,2023-03-06,2023-03-06,株式会社ＪＰ,,株式会社,東京都,足立区,梅島１丁目１５番６号,,13,121,1210816,,,,,,,2023-03-06,1,,,,,ジェイピー,0
986,4012401040248,新規,0,2023-03-06,2023-03-06,株式会社リグラン,,株式会社,東京都,三鷹市,上連雀６丁目１９番１８号,,13,204,1810012,,,,,,,2023-03-06,1,,,,,リグラン,0
987,4012403005851,新規,0,2023-03-06,2023-03-06,合同会社Ｓ・Ｙ,,合同会社,東京都,武蔵野市,吉祥寺本町１丁目３２番３号ロイヤルプラザ３０２号室,,13,203,1800004,,,,,,,2023-03-06,1,,,,,エスワイ,0
988,4012405004835,新規,0,2023-03-06,2023-03-06,医療法人社団ひかり会,,その他の設立登記法人,東京都,三鷹市,下連雀４丁目２番８号,,13,204,1810013,,,,,,,2023-03-06,1,,,,,ヒカリカイ,0
989,4012701017516,新規,0,2023-03-06,2023-03-06,株式会社ＳＯＲＲＡ,,株式会社,東京都,東村山市,廻田町３丁目２６番地２９,,13,213,1890025,,,,,,,2023-03-06,1,,,,,ソラ,0
1004,4020001150490,新規,0,2023-03-06,2023-03-06,株式会社エヌジーエンジニアリング,,株式会社,神奈川県,川崎市幸区,中幸町１丁目５５番地１１,,14,132,2120012,,,,,,,2023-03-06,1,,,,,エヌジーエンジニアリング,0
1005,4020001150499,新規,0,2023-03-06,2023-03-06,双星エンタープライズ株式会社,,株式会社,神奈川県,横浜市港南区,港南台６丁目３７番１２号,,14,111,2340054,,,,,,,2023-03-06,1,,,,,ソウセイエンタープライズ,0
1006,4020001150532,新規,0,2023-03-06,2023-03-06,株式会社６０３,,株式会社,神奈川県,川崎市中原区,上丸子八幡町６０３番地,,14,133,2110001,,,,,,,2023-03-06,1,,,,,ロクマルサン,0
1007,4020001150540,新規,0,2023-03-06,2023-03-06,株式会社ＪＳＫ　Ｌａｂ,,株式会社,神奈川県,横浜市中区,山下町１０８番地小黒ビル２０５号,,14,104,2310023,,,,,,,2023-03-06,1,,,,,ジェイエスケーラボ,0
1009,4020003023439,新規,0,2023-03-06,2023-03-06,３Ｄキッチン合同会社,,合同会社,神奈川県,横浜市南区,中里１丁目１５番２３－２０２号,,14,105,2320063,,,,,,,2023-03-06,1,,,,,,0
1010,4021001078326,新規,0,2023-03-06,2023-03-06,湘南冷凍株式会社,,株式会社,神奈川県,秦野市,平沢１１０５番地の１ボヌール秦野Ｉ３０１号,00129646,14,211,2570015,,,,,,,2023-03-06,1,,,,,ショウナンレイトウ,0
1011,4021001078342,新規,0,2023-03-06,2023-03-06,平石興業株式会社,,株式会社,神奈川県,平塚市,公所２９２番地の５,,14,203,2540906,,,,,,,2023-03-06,1,,,,,ヒライシコウギョウ,0
1012,4021001078350,新規,0,2023-03-06,2023-03-06,清川ファーム株式会社,,株式会社,神奈川県,愛甲郡清川村,煤ヶ谷１６５９番地の１清川村サテライトオフィス「むらてらす」,,14,402,2430112,,,,,,,2023-03-06,1,,,,,キヨカワファーム,0
1017,4030001152635,新規,0,2023-03-06,2023-03-06,８９ｓｔｙｌｅ株式会社,,株式会社,埼玉県,富士見市,大字上南畑７９番地１,,11,235,3540002,,,,,,,2023-03-06,1,,,,,ハチキュースタイル,0
1018,4030001152684,新規,0,2023-03-06,2023-03-06,Ｙｍａｔｉｃ株式会社,,株式会社,埼玉県,さいたま市桜区,大字神田６２０番地４,,11,106,3380812,,,,,,,2023-03-06,1,,,,,ワイマチック,0
1019,4030001152734,新規,0,2023-03-06,2023-03-06,株式会社ユーモア,,株式会社,埼玉県,さいたま市北区,日進町２丁目４番地１ベリーナフォート大宮８０５,,11,102,3310823,,,,,,,2023-03-06,1,,,,,ユーモア,0
1028,4040001127306,新規,0,2023-03-06,2023-03-06,株式会社長谷川産業,,株式会社,千葉県,八千代市,大和田新田６７－１－２０７,,12,221,2760046,,,,,,,2023-03-06,1,,,,,ハセガワサンギョウ,0
1029,4040001127330,新規,0,2023-03-06,2023-03-06,廣木電気株式会社,,株式会社,千葉県,松戸市,六実４丁目１４番地の１カルム六実２０２号,,12,207,2702204,,,,,,,2023-03-06,1,,,,,ヒロキデンキ,0
1035,4040003022091,新規,0,2023-03-06,2023-03-06,合同会社Ｆａｒｅ,,合同会社,千葉県,野田市,木間ケ瀬２３８１番地の１,,12,208,2700222,,,,,,,2023-03-06,1,,,,,ファーレ,0
1039,4050003007281,新規,0,2023-03-06,2023-03-06,合同会社はたごやテイク,,合同会社,茨城県,土浦市,虫掛３６７０番地,,08,203,3000066,,,,,,,2023-03-06,1,,,,,ハタゴヤテイク,0
1045,4080101023830,新規,0,2023-03-06,2023-03-06,Ｒｉｃｏｂｌｏｏｍ株式会社,,株式会社,静岡県,賀茂郡東伊豆町,稲取４５０番地の５,,22,301,4130411,,,,,,,2023-03-06,1,,,,,リコブルーム,0
1048,4090005007549,新規,0,2023-03-06,2023-03-06,空家労働者協同組合,,その他の設立登記法人,山梨県,南アルプス市,飯野２８２４－４,,19,208,4000222,,,,,,,2023-03-06,1,,,,,ソラヤロウドウシャ,0
1050,4100001036194,新規,0,2023-03-06,2023-03-06,株式会社Ｓｐｉｃｅ　Ｐｏｔ,,株式会社,長野県,長野市,大字鶴賀緑町２２１２－３１日之出権堂ビル１階,,20,201,3800813,,,,,,,2023-03-06,1,,,,,スパイスポット,0
1061,4120001252566,新規,0,2023-03-06,2023-03-06,秋日源株式会社,,株式会社,大阪府,大阪市生野区,巽中１丁目２１番３号博文ビル４０１Ｄ,00129648,27,116,5440013,,,,,,,2023-03-06,1,,,,,シュウビゲン,0
1062,4120001252839,新規,0,2023-03-06,2023-03-06,株式会社一岡,,株式会社,大阪府,大阪市淀川区,十三東１丁目１０番２２号ＣＩＴＹＳＰＩＲＥ十三東５０２,,27,123,5320023,,,,,,,2023-03-06,1,,,,,イチオカ,0
1063,4120001252871,新規,0,2023-03-06,2023-03-06,株式会社シェルクレール,,株式会社,大阪府,大阪市中央区,北久宝寺町３丁目６番１号本町南ガーデンシティ７階,,27,128,5410057,,,,,,,2023-03-06,1,,,,,シェルクレール,0
1064,4120001252905,新規,0,2023-03-06,2023-03-06,株式会社クロワール,,株式会社,大阪府,大阪市中央区,南本町２丁目４番１０号,,27,128,5410054,,,,,,,2023-03-06,1,,,,,クロワール,0
1065,4120001252987,新規,0,2023-03-06,2023-03-06,圓森株式会社,,株式会社,大阪府,大阪市中央区,安堂寺町２丁目７－２－５０２号室,,27,128,5420061,,,,,,,2023-03-06,1,,,,,エンシン,0
1071,4120003023544,新規,0,2023-03-06,2023-03-06,Ｔｈａｉ　Ｈｕｎｇ　Ｃｏｓｍｅｔｉｃｓ合同会社,,合同会社,大阪府,大阪市生野区,新今里６丁目５番７号,,27,116,5440001,,,,,,,2023-03-06,1,,,,,タイフンコスメティックス,0
1072,4120005023501,新規,0,2023-03-06,2023-03-06,特定非営利活動法人サンライズ,,その他の設立登記法人,大阪府,大阪市浪速区,湊町２丁目２番５－５１６号,,27,111,5560017,,,,,,,2023-03-06,1,,,,,サンライズ,0
1074,4120101067055,新規,0,2023-03-06,2023-03-06,株式会社オートディスカバリー,,株式会社,大阪府,堺市美原区,南余部６２番地１,,27,147,5870052,,,,,,,2023-03-06,1,,,,,オートディスカバリー,0
1076,4120105009697,新規,0,2023-03-06,2023-03-06,一般社団法人トゥルースポーク,,その他の設立登記法人,大阪府,堺市美原区,木材通１丁目５番１７号,,27,147,5870042,,,,,,,2023-03-06,1,,,,,トゥルースポーク,0
1080,4120901047198,新規,0,2023-03-06,2023-03-06,Ｉｎｔｅｒｍｉｎｄ　ＡＩ株式会社,,株式会社,大阪府,豊中市,新千里東町１丁目４番１号阪急千里中央ビル８Ｆ,,27,203,5600082,,,,,,,2023-03-06,1,,,,,インターマインドエーアイ,0
1083,4122003002528,新規,0,2023-03-06,2023-03-06,合同会社フジヤ,,合同会社,大阪府,東大阪市,新喜多２丁目６番２７－２０２８号,,27,227,5770052,,,,,,,2023-03-06,1,,,,,フジヤ,0
1087,4130001073813,新規,0,2023-03-06,2023-03-06,上京文教株式会社,,株式会社,京都府,京都市中京区,釜座町２２番地ストークビル三条烏丸３０５,,26,104,6040000,,,,,,,2023-03-06,1,,,,,カミギョウブンキョウ,0
1089,4130005016710,新規,0,2023-03-06,2023-03-06,協同組合ＳＵＮ　ＵＮＯ,,その他の設立登記法人,京都府,京都市南区,上鳥羽石橋町２３８,,26,107,6018135,,,,,,,2023-03-06,1,,,,,サンウノ,0
1099,4140001129275,新規,0,2023-03-06,2023-03-06,株式会社Ｋ’ｓ　ＬＡＢ,,株式会社,兵庫県,神戸市長田区,長田町９丁目３－７,,28,106,6530812,,,,,,,2023-03-06,1,,,,,ケーズラボ,0
1100,4140001129291,新規,0,2023-03-06,2023-03-06,株式会社ゼンシン,,株式会社,兵庫県,芦屋市,船戸町５番２６号,,28,206,6590093,,,,,,,2023-03-06,1,,,,,ゼンシン,0
1101,4140001129358,新規,0,2023-03-06,2023-03-06,Ｅ‐Ｇｌａｎｚ株式会社,,株式会社,兵庫県,尼崎市,久々知３丁目５番１１号,,28,202,6610977,,,,,,,2023-03-06,1,,,,,イーグランツ,0
1104,4140003018749,新規,0,2023-03-06,2023-03-06,みずくろマネージ合同会社,,合同会社,兵庫県,尼崎市,武庫之荘２丁目２５番１９号,,28,202,6610035,,,,,,,2023-03-06,1,,,,,ミズクロマネージ,0
1105,4140003018781,新規,0,2023-03-06,2023-03-06,ＭＫ合同会社,,合同会社,兵庫県,尼崎市,宮内町２丁目４０番２号１Ｆ,,28,202,6600877,,,,,,,2023-03-06,1,,,,,エムケイ,0
1106,4140003018798,新規,0,2023-03-06,2023-03-06,ＷｅＣａｐｉｔａｌ　ｋｏｂｅ合同会社,,合同会社,兵庫県,神戸市中央区,八幡通４丁目２番２４号,,28,110,6510085,,,,,,,2023-03-06,1,,,,,ウィーキャピタルコウベ,0
1108,4160001024870,新規,0,2023-03-06,2023-03-06,義本醸造株式会社,,株式会社,滋賀県,蒲生郡竜王町,大字山面３５番地４２２,,25,384,5202564,,,,,,,2023-03-06,1,,,,,ヨシモトジョウゾウ,0
1109,4160005011171,新規,0,2023-03-06,2023-03-06,医療法人緑青会,,その他の設立登記法人,滋賀県,栗東市,苅原２３３,,25,208,5203032,,,,,,,2023-03-06,1,,,,,ロクショウカイ,0
1112,4170001017493,新規,0,2023-03-06,2023-03-06,株式会社ＭＩＬクリーン,,株式会社,和歌山県,和歌山市,梶取３１６番地８ＣＯＵＣＯＵ梶取Ａ,,30,201,6408411,,,,,,,2023-03-06,1,,,,,ミルクリーン,0
1113,4170003001842,新規,0,2023-03-06,2023-03-06,合同会社ファンセ,,合同会社,和歌山県,和歌山市,中之島９８３番地１６,,30,201,6408392,,,,,,,2023-03-06,1,,,,,ファンセ,0
1119,4180001155144,新規,0,2023-03-06,2023-03-06,株式会社ＴＨ常滑,,株式会社,愛知県,常滑市,多屋町１丁目３２ラフィネ多屋１２０,,23,216,4790839,,,,,,,2023-03-06,1,,,,,ティーエイチトコナメ,0
1120,4180001155169,新規,0,2023-03-06,2023-03-06,株式会社アットドリーム,,株式会社,愛知県,名古屋市北区,敷島町４１番地３,,23,103,4620045,,,,,,,2023-03-06,1,,,,,アットドリーム,0
1121,4180001155193,新規,0,2023-03-06,2023-03-06,株式会社Ｃ‐ＥＭＩ,,株式会社,愛知県,清須市,清洲４丁目５番地７,,23,233,4520942,,,,,,,2023-03-06,1,,,,,シーイーエムアイ,0
1122,4180001155227,新規,0,2023-03-06,2023-03-06,Ｂｒｉｄｇｅ　ｏｖｅｒ　ｔｈｅ　Ｂｏｒｄｅｒ株式会社,,株式会社,愛知県,名古屋市昭和区,福原町１丁目３１番地の１,,23,107,4660803,,,,,,,2023-03-06,1,,,,,ブリッジオーバーザボーダー,0
1124,4180003024909,新規,0,2023-03-06,2023-03-06,合同会社サム,,合同会社,愛知県,名古屋市東区,矢田１丁目１９番２４号グレイス大曽根９０１号,,23,102,4610040,,,,,,,2023-03-06,1,,,,,サム,0
1125,4180303005633,新規,0,2023-03-06,2023-03-06,合同会社大弘,,合同会社,愛知県,刈谷市,小垣江町若宮２９番地１,,23,210,4480813,,,,,,,2023-03-06,1,,,,,タイコウ,0
1128,4190001030206,新規,0,2023-03-06,2023-03-06,株式会社建築工房ハヤミ,,株式会社,三重県,亀山市,みずきが丘２９番地５,,24,210,5190181,,,,,,,2023-03-06,1,,,,,ケンチクコウボウハヤミ,0
1129,4190001030214,新規,0,2023-03-06,2023-03-06,株式会社市野淡水,,株式会社,三重県,津市,雲出本郷町８５０番地２,,24,201,5140304,,,,,,,2023-03-06,1,,,,,イチノタンスイ,0
1133,4200003005872,新規,0,2023-03-06,2023-03-06,合同会社エクスプレッド,,合同会社,岐阜県,多治見市,虎渓山町５丁目６２番地の２,,21,204,5070014,,,,,,,2023-03-06,1,,,,,エクスプレッド,0
1134,4200003005889,新規,0,2023-03-06,2023-03-06,合同会社フェルモ,,合同会社,岐阜県,不破郡垂井町,宮代２３３番地,,21,361,5032124,,,,,,,2023-03-06,1,,,,,フェルモ,0
1137,4230003001976,新規,0,2023-03-06,2023-03-06,チーズ合同会社,,合同会社,富山県,高岡市,清水町３丁目５番５８号,,16,202,9330866,,,,,,,2023-03-06,1,,,,,チーズ,0
1138,4240001061138,新規,0,2023-03-06,2023-03-06,株式会社はらだまん,,株式会社,広島県,広島市中区,流川町８－１１中川ビル２階２０４号,,34,101,7300028,,,,,,,2023-03-06,1,,,,,ハラダマン,0
1139,4240001061154,新規,0,2023-03-06,2023-03-06,ＦＩマネジメントオフィス株式会社,,株式会社,広島県,大竹市,本町２丁目１２番１６号,,34,211,7390613,,,,,,,2023-03-06,1,,,,,エフアイマネジメントオフィス,0
1140,4240001061162,新規,0,2023-03-06,2023-03-06,株式会社ハナモト,,株式会社,広島県,広島市南区,皆実町５丁目１番３９号,,34,103,7340007,,,,,,,2023-03-06,1,,,,,ハナモト,0
1141,4240001061170,新規,0,2023-03-06,2023-03-06,株式会社ｎｏｒｉｊｉ,,株式会社,広島県,広島市中区,上幟町１番１４号,,34,101,7300014,,,,,,,2023-03-06,1,,,,,ノリジ,0
1145,4250001019993,新規,0,2023-03-06,2023-03-06,株式会社ＳＡＫＩＧＡＫＥ,,株式会社,山口県,山口市,宮野下２９２７番地２－１階,,35,203,7530011,,,,,,,2023-03-06,1,,,,,サキガケ,0
1149,4260003004217,新規,0,2023-03-06,2023-03-06,ＢｏｒｄｅｒＳｅｌｌ合同会社,,合同会社,岡山県,倉敷市,真備町箭田９１番地,,33,202,7101301,,,,,,,2023-03-06,1,,,,,ボーダーセル,0
1150,4260005011194,新規,0,2023-03-06,2023-03-06,一般社団法人きりん,,その他の設立登記法人,岡山県,岡山市南区,浦安本町１８５番地７,,33,104,7028026,,,,,,,2023-03-06,1,,,,,キリン,0
1157,4290001100683,新規,0,2023-03-06,2023-03-06,株式会社筑紫住設センター,,株式会社,福岡県,筑紫野市,大字筑紫５０８番地８,,40,217,8180025,,,,,,,2023-03-06,1,,,,,チクシジュウセツセンター,0
1158,4290001100700,新規,0,2023-03-06,2023-03-06,株式会社若竹屋酒造場,,株式会社,福岡県,久留米市,田主丸町田主丸７０６番地,,40,203,8391233,,,,,,,2023-03-06,1,,,,,ワカタケヤシュゾウジョウ,0
1159,4290001100733,新規,0,2023-03-06,2023-03-06,株式会社松村工業,,株式会社,福岡県,那珂川市,今光８丁目２番６－３号（グランメゾン今光参号館１０１号）,,40,231,8111211,,,,,,,2023-03-06,1,,,,,マツムラコウギョウ,0
1160,4290001100741,新規,0,2023-03-06,2023-03-06,株式会社ｈｕｔｔｅ,,株式会社,福岡県,福岡市南区,鶴田３丁目１３番３号,,40,134,8111352,,,,,,,2023-03-06,1,,,,,ヒュッテ,0
1161,4290001100766,新規,0,2023-03-06,2023-03-06,株式会社Ｃｒｅａ　ｌａ　Ｌｕｃｅ九州,,株式会社,福岡県,福岡市東区,香椎駅前２丁目４番２３号香椎ビル２Ｆ,,40,131,8130013,,,,,,,2023-03-06,1,,,,,クレアラルーチェキュウシュウ,0
1162,4290001100808,新規,0,2023-03-06,2023-03-06,株式会社カノン,,株式会社,福岡県,福岡市博多区,竹丘町２丁目５－１１－２０１号,,40,132,8120878,,,,,,,2023-03-06,1,,,,,カノン,0
1165,4290003013603,新規,0,2023-03-06,2023-03-06,合同会社すぺしゃるすまいる,,合同会社,福岡県,大牟田市,諏訪町２丁目９番地１,,40,202,8360051,,,,,,,2023-03-06,1,,,,,スペシャルスマイル,0
1170,4290801029338,新規,0,2023-03-06,2023-03-06,株式会社Ｙ’ｓＲＭ企画,,株式会社,福岡県,直方市,大字山部８８７番地７７,,40,204,8220034,,,,,,,2023-03-06,1,,,,,ワイズアールエムキカク,0
1172,4290803004355,新規,0,2023-03-06,2023-03-06,アイ・リンクス合同会社,,合同会社,福岡県,築上郡吉富町,大字幸子４３７‐２,,40,642,8710821,,,,,,,2023-03-06,1,,,,,アイリンクス,0
1173,4310001018295,新規,0,2023-03-06,2023-03-06,株式会社８１５ＪＡＰＡＮ,,株式会社,長崎県,佐世保市,島瀬町４番５号レジデンシャル島瀬ハーバービュー８０１号,,42,202,8570806,,,,,,,2023-03-06,1,,,,,ハチイチゴジャパン,0
1175,4330001030637,新規,0,2023-03-06,2023-03-06,株式会社Ｙ‐ｃｏｎｎｅｃｔ,,株式会社,熊本県,熊本市東区,御領５丁目１２番３２号,,43,102,8618035,,,,,,,2023-03-06,1,,,,,ワイコネクト,0
1177,4330003009737,新規,0,2023-03-06,2023-03-06,Ｊａｐａｎ　Ｑｕｉｃｋｅｎ　Ｓｙｓｔｅｍ　Ｉｎｔｅｇｒａｔｉｏｎ合同会社,,合同会社,熊本県,熊本市中央区,花畑町１番１４号Ａ＆Ｍ　ＨＡＮＡＢＡＴＡ３０１号,,43,101,8600806,,,,,,,2023-03-06,1,,,,,ジャパンクィッケンシステムインテグレーション,0
1185,4350003004307,新規,0,2023-03-06,2023-03-06,合同会社河野農林業,,合同会社,宮崎県,児湯郡都農町,大字川北５７９９番地６,,45,406,8891201,,,,,,,2023-03-06,1,,,,,カワノノウリンギョウ,0
1188,4360003012779,新規,0,2023-03-06,2023-03-06,合同会社ちゅらエコクリーン,,合同会社,沖縄県,南城市,大里字高平７２２番地５,,47,215,9011205,,,,,,,2023-03-06,1,,,,,チュラエコクリーン,0
1200,4390001017182,新規,0,2023-03-06,2023-03-06,株式会社シーズン,,株式会社,山形県,山形市,穂積３４－２,,06,201,9900001,,,,,,,2023-03-06,1,,,,,シーズン,0
1201,4390003002059,新規,0,2023-03-06,2023-03-06,合同会社高橋ファーム,00129649,合同会社,山形県,西置賜郡飯豊町,大字小白川３７５６番地,,06,403,9991113,,,,,,,2023-03-06,1,,,,,タカハシファーム,0
1206,4420003002674,新規,0,2023-03-06,2023-03-06,合同会社Ｗｉｓｔｅｒｉａｇｅｎ,,合同会社,青森県,弘前市,大字早稲田３丁目７番地１４,,02,202,0368087,,,,,,,2023-03-06,1,,,,,ウィステリアジェン,0
1208,4430001088509,新規,0,2023-03-06,2023-03-06,株式会社スクルド,,株式会社,北海道,札幌市東区,北二十三条東１３丁目４番３号,,01,103,0650023,,,,,,,2023-03-06,1,,,,,スクルド,0
1209,4430001088525,新規,0,2023-03-06,2023-03-06,株式会社柊興業,,株式会社,北海道,札幌市西区,山の手二条４丁目６－３４,,01,107,0630002,,,,,,,2023-03-06,1,,,,,シュウコウギョウ,0
1216,4460001005774,新規,0,2023-03-06,2023-03-06,株式会社ノーストレーディング,,株式会社,北海道,釧路市,住之江町４番２０号タカオビル３階,,01,206,0850045,,,,,,,2023-03-06,1,,,,,ノーストレーディング,0
1219,4500001024794,新規,0,2023-03-06,2023-03-06,株式会社進和電気,,株式会社,愛媛県,松山市,勝岡町２４７番地１,,38,201,7992661,,,,,,,2023-03-06,1,,,,,シンワデンキ,0
1228,5010001233452,新規,0,2023-03-06,2023-03-06,ＥＵＲＥＫＡ株式会社,,株式会社,東京都,中央区,京橋２丁目２番１号京橋エドグラン２６階,,13,102,1040031,,,,,,,2023-03-06,1,,,,,エウレカ,0
1229,5010001233460,新規,0,2023-03-06,2023-03-06,株式会社ＢＥＹＯＵＲＬＯＶＥＲ,,株式会社,東京都,中央区,日本橋浜町２丁目２２番５号ヴェラハイツ浜町１０３,,13,102,1030007,,,,,,,2023-03-06,1,,,,,ビーユアラバー,0
1230,5010001233485,新規,0,2023-03-06,2023-03-06,株式会社Ｓｏｎｇ,,株式会社,東京都,千代田区,岩本町２丁目１８番１５号６Ｆ,,13,101,1010032,,,,,,,2023-03-06,1,,,,,ソング,0
1231,5010001233535,新規,0,2023-03-06,2023-03-06,株式会社ＡＺ　ＶＩＬＬＡＧＥ,,株式会社,東京都,文京区,音羽１丁目１７番１１号,,13,105,1120013,,,,,,,2023-03-06,1,,,,,エーゼットヴィレッジ,0
1235,5010003039922,新規,0,2023-03-06,2023-03-06,Ｓｉｌｉｃｏｎ　Ｃｌｏｕｄ東京合同会社,,合同会社,東京都,千代田区,神田佐久間町３丁目２８号星野ビル５Ｆ５０６室,,13,101,1010025,,,,,,,2023-03-06,1,,,,,シリコンクラウドトウキョウ,0
1236,5010003039963,新規,0,2023-03-06,2023-03-06,合同会社総合事務所ブレイン,,合同会社,東京都,千代田区,神田淡路町２丁目２３番地１お茶の水センタービル八階,,13,101,1010063,,,,,,,2023-03-06,1,,,,,ソウゴウジムショブレイン,0
1246,5010401172845,新規,0,2023-03-06,2023-03-06,株式会社Ｒｕｔｈ’ｓ　ｍａｇｉｃ,,株式会社,東京都,港区,浜松町２丁目２番１５号浜松町ダイヤビル２Ｆ,,13,103,1050013,,,,,,,2023-03-06,1,,,,,ルースマジック,0
1247,5010401172878,新規,0,2023-03-06,2023-03-06,株式会社ストレートスター,,株式会社,東京都,港区,麻布十番１丁目２番７号ラフィネ麻布十番７０１号室,,13,103,1060045,,,,,,,2023-03-06,1,,,,,ストレートスター,0
1248,5010401172886,新規,0,2023-03-06,2023-03-06,Ｎ＆Ｒ株式会社,,株式会社,東京都,港区,西新橋１丁目６番１２号アイオス虎ノ門９０２,,13,103,1050003,,,,,,,2023-03-06,1,,,,,エヌアンドアール,0
1249,5010401172936,新規,0,2023-03-06,2023-03-06,株式会社ジェイスリー,,株式会社,東京都,港区,赤坂７丁目５－３４－４２７,,13,103,1070052,,,,,,,2023-03-06,1,,,,,ジェイスリー,0
1253,5010403029655,新規,0,2023-03-06,2023-03-06,名古屋マネジメント合同会社,,合同会社,東京都,港区,六本木１丁目６番１号泉ガーデンタワー,,13,103,1060032,,,,,,,2023-03-06,1,,,,,ナゴヤマネジメント,0
1258,5010701043903,新規,0,2023-03-06,2023-03-06,株式会社アールケー仲宗根,,株式会社,東京都,品川区,東大井６丁目１１番２号,,13,109,1400011,,,,,,,2023-03-06,1,,,,,アールケーナカソネ,0
1260,5010705003481,新規,0,2023-03-06,2023-03-06,医療法人社団みやび形成外科,,その他の設立登記法人,東京都,品川区,東五反田２丁目３番２号タイセイビル４階,,13,109,1410022,,,,,,,2023-03-06,1,,,,,ミヤビケイセイゲカ,0
1262,5010801033738,新規,0,2023-03-06,2023-03-06,株式会社ＫｙｏｕＭｉ,,株式会社,東京都,大田区,山王２丁目５－６ＳＡＮＮＯＢＲＩＤＧＥ,,13,111,1430023,,,,,,,2023-03-06,1,,,,,キョウミ,0
1264,5010901052638,新規,0,2023-03-06,2023-03-06,Ａｎｙｔｈｉｎｇ株式会社,,株式会社,東京都,世田谷区,宇奈根２丁目２０番２３号クレスト宇奈根１０７,,13,112,1570068,,,,,,,2023-03-06,1,,,,,エニシング,0
1275,5011001152915,新規,0,2023-03-06,2023-03-06,株式会社ＢＡＵＥＮＺ,,株式会社,東京都,渋谷区,西原３丁目２５番４号,,13,113,1510066,,,,,,,2023-03-06,1,,,,,バウエンズ,0
1276,5011001152923,新規,0,2023-03-06,2023-03-06,株式会社ＴＡＯＳ,,株式会社,東京都,渋谷区,代官山町９番１２号Ｂ－１号室,,13,113,1500034,,,,,,,2023-03-06,1,,,,,タオス,0
1277,5011001152948,新規,0,2023-03-06,2023-03-06,カイブ株式会社,,株式会社,東京都,渋谷区,東１丁目１１番３号ウッドハウス２０１,,13,113,1500011,,,,,,,2023-03-06,1,,,,,カイブ,0
1278,5011003016366,新規,0,2023-03-06,2023-03-06,合同会社ヘルス＆ウェルス,,合同会社,東京都,渋谷区,道玄坂１丁目１０番８号渋谷道玄坂東急ビル２Ｆ－Ｃ,,13,113,1500043,,,,,,,2023-03-06,1,,,,,ヘルスアンドウェルス,0
1279,5011003016382,新規,0,2023-03-06,2023-03-06,合同会社ジンバルロック,,合同会社,東京都,目黒区,中目黒５丁目２７番１３号中五スカイハイツ２０２,,13,110,1530061,,,,,,,2023-03-06,1,,,,,ジンバルロック,0
1280,5011003016408,新規,0,2023-03-06,2023-03-06,合同会社ＴＳＫ,,合同会社,東京都,渋谷区,道玄坂１丁目１０番８号渋谷道玄坂東急ビル２Ｆ－Ｃ,,13,113,1500043,,,,,,,2023-03-06,1,,,,,ティーエスケー,0
1282,5011101102035,新規,0,2023-03-06,2023-03-06,株式会社ＭＥＣＡＲＡ,,株式会社,東京都,新宿区,西新宿８丁目１２番１号サンパレス新宿４１２号室,,13,104,1600023,,,,,,,2023-03-06,1,,,,,メカラ,0
1285,5011201024468,新規,0,2023-03-06,2023-03-06,株式会社Ｂｒｅａｔｈ,,株式会社,東京都,中野区,弥生町１丁目３４番１８号長谷川コーポ２０１,,13,114,1640013,,,,,,,2023-03-06,1,,,,,ブレス,0
1287,5011401024953,新規,0,2023-03-06,2023-03-06,株式会社彩ＨＯＵＳＥ,,株式会社,東京都,板橋区,蓮根２丁目２７－１２ＢＩＺｃｉｒｃｌｅ板橋西台,,13,119,1740046,,,,,,,2023-03-06,1,,,,,イロドリハウス,0
1293,5011601026626,新規,0,2023-03-06,2023-03-06,株式会社ＲｅｅｆＤｅｃｏ,,株式会社,東京都,練馬区,大泉学園町４丁目３番３２号,,13,120,1780061,,,,,,,2023-03-06,1,,,,,リーフデコ,0
1296,5011603003846,新規,0,2023-03-06,2023-03-06,合同会社Ｓａｉｈｏ,,合同会社,東京都,練馬区,豊玉北３丁目１５番１７号Ｘ－ｇａｒｄｅｎ桜台１０４,,13,120,1760012,,,,,,,2023-03-06,1,,,,,サイホ,0
1297,5011703003390,新規,0,2023-03-06,2023-03-06,合同会社ＹＷＳ,,合同会社,東京都,江戸川区,小松川３丁目７－１－１０６,,13,123,1320034,,,,,,,2023-03-06,1,,,,,ワイダブリューエス,0
1298,5011801042010,新規,0,2023-03-06,2023-03-06,株式会社ＳＵＮ‐ＫＡＫＵ,,株式会社,東京都,足立区,千住旭町１１番７号あかつき４０１,,13,121,1200026,,,,,,,2023-03-06,1,,,,,サンカク,0
1299,5011801042019,新規,0,2023-03-06,2023-03-06,株式会社ＥＩＤＡＩ,,株式会社,東京都,足立区,鹿浜４丁目２７番１５号,,13,121,1230864,,,,,,,2023-03-06,1,,,,,エイダイ,0
1300,5012401040239,新規,0,2023-03-06,2023-03-06,株式会社Ａｉｊｉｍａ,,株式会社,東京都,府中市,住吉町３丁目７０番地の１,,13,206,1830034,,,,,,,2023-03-06,1,,,,,アイジマ,0
1301,5012401040247,新規,0,2023-03-06,2023-03-06,株式会社あざっス,,株式会社,東京都,武蔵野市,境南町２丁目３番６号,,13,203,1800023,,,,,,,2023-03-06,1,,,,,アザッス,0
1316,5020001150457,新規,0,2023-03-06,2023-03-06,株式会社三好,,株式会社,神奈川県,横浜市南区,真金町２丁目１９番地１９和洋ビル,,14,105,2320021,,,,,,,2023-03-06,1,,,,,ミヨシ,0
1317,5020001150473,新規,0,2023-03-06,2023-03-06,株式会社ｅａｔｏｐｉａホールディングス,,株式会社,神奈川県,川崎市幸区,南幸町２丁目９番地１,,14,132,2120016,,,,,,,2023-03-06,1,,,,,イートピアホールディングス,0
1318,5020001150548,新規,0,2023-03-06,2023-03-06,株式会社川村工業,,株式会社,神奈川県,川崎市川崎区,渡田新町３丁目１０番１２－１０３号,,14,131,2100844,,,,,,,2023-03-06,1,,,,,カワムラコウギョウ,0
1319,5020001150556,新規,0,2023-03-06,2023-03-06,株式会社ビットランス,,株式会社,神奈川県,横浜市港北区,箕輪町１丁目３０番１－２２６号,,14,109,2230051,,,,,,,2023-03-06,1,,,,,ビットランス,0
1321,5020003023446,新規,0,2023-03-06,2023-03-06,ＴＡＫＵＭＩルームズ合同会社,,合同会社,神奈川県,横浜市青葉区,藤が丘２丁目４４－５２,,14,117,2270043,,,,,,,2023-03-06,1,,,,,タクミルームズ,0
1322,5020003023454,新規,0,2023-03-06,2023-03-06,合同会社Ｒｅｌａｔｉｏｎ,,合同会社,神奈川県,横浜市南区,六ツ川２丁目１４７番地６,,14,105,2320066,,,,,,,2023-03-06,1,,,,,リレイション,0
1323,5020005015846,新規,0,2023-03-06,2023-03-06,一般社団法人Ｓｉｇｍｏｉｄ,,その他の設立登記法人,神奈川県,横浜市中区,柏葉１１－１４,,14,104,2310866,,,,,,,2023-03-06,1,,,,,シグモイド,0
1324,5021001078325,新規,0,2023-03-06,2023-03-06,日本リゾートバンク株式会社,,株式会社,神奈川県,藤沢市,南藤沢１５番１６号ブライトンビル藤沢３Ｆ,,14,205,2510055,,,,,,,2023-03-06,1,,,,,ニホンリゾートバンク,0
1327,5021003012843,新規,0,2023-03-06,2023-03-06,合同会社こすもす,,合同会社,神奈川県,厚木市,鳶尾２丁目１３番１０号,,14,212,2430204,,,,,,,2023-03-06,1,,,,,コスモス,0
1338,5030001152626,新規,0,2023-03-06,2023-03-06,株式会社Ｎｏｗ　Ｆｉｅｌｄ,,株式会社,埼玉県,熊谷市,石原１２５２番地１６,,11,202,3600816,,,,,,,2023-03-06,1,,,,,ナウフィールド,0
1339,5030001152683,新規,0,2023-03-06,2023-03-06,新栄ホールディングス株式会社,,株式会社,埼玉県,吉川市,大字三輪野江２４０５番地,,11,243,3420027,,,,,,,2023-03-06,1,,,,,シンエイホールディングス,0
1340,5030001152700,新規,0,2023-03-06,2023-03-06,誠興物流株式会社,,株式会社,埼玉県,川口市,大字安行吉岡１６６１番地の１,,11,203,3340072,,,,,,,2023-03-06,1,,,,,セイコウブツリュウ,0
1341,5030001152709,新規,0,2023-03-06,2023-03-06,株式会社八木平建設,,株式会社,埼玉県,日高市,大字高麗本郷１９９番地１,,11,242,3501251,,,,,,,2023-03-06,1,,,,,ヤギヒラケンセツ,0
1342,5030001152741,新規,0,2023-03-06,2023-03-06,株式会社成秀商事,,株式会社,埼玉県,さいたま市浦和区,常盤２丁目７番１４号３０３,,11,107,3300061,,,,,,,2023-03-06,1,,,,,ナリヒデショウジ,0
1346,5030003021300,新規,0,2023-03-06,2023-03-06,合同会社ミナミ,,合同会社,埼玉県,川越市,神明町４９番地１・２－２０６号,,11,201,3500823,,,,,,,2023-03-06,1,,,,,ミナミ,0
1352,5040001127288,新規,0,2023-03-06,2023-03-06,株式会社関東ロード,,株式会社,千葉県,四街道市,大日５０番地２０,,12,228,2840001,,,,,,,2023-03-06,1,,,,,カントウロード,0
1353,5040001127296,新規,0,2023-03-06,2023-03-06,株式会社Ｇｒａｎｄ　Ｔｅｃｈ　Ｃｒｅａｔｏｒｓ,,株式会社,千葉県,船橋市,本町３丁目６番２－５０３号,,12,204,2730005,,,,,,,2023-03-06,1,,,,,グランドテッククリエイターズ,0
1354,5040001127305,新規,0,2023-03-06,2023-03-06,株式会社ビリオンレイク,,株式会社,千葉県,香取郡多古町,多古２７４６番地１（タイム１０２）,,12,347,2892241,,,,,,,2023-03-06,1,,,,,ビリオンレイク,0
1355,5040001127321,新規,0,2023-03-06,2023-03-06,株式会社大正板金,,株式会社,千葉県,白井市,根１９６５番地の１,,12,232,2701431,,,,,,,2023-03-06,1,,,,,ヒロマサバンキン,0
1356,5040001127362,新規,0,2023-03-06,2023-03-06,株式会社ＹＳＹ,,株式会社,千葉県,松戸市,稔台１丁目３３番地の１,,12,207,2702231,,,,,,,2023-03-06,1,,,,,ワイシー,0
1359,5040003022090,新規,0,2023-03-06,2023-03-06,合同会社ダイカンサポート,,合同会社,千葉県,鎌ケ谷市,くぬぎ山４丁目２番３５号,,12,224,2730128,,,,,,,2023-03-06,1,,,,,ダイカンサポート,0
1360,5040005021917,新規,0,2023-03-06,2023-03-06,一般社団法人日本漢方教育研究推進会,,その他の設立登記法人,千葉県,千葉市中央区,弁天１丁目３３番９号,,12,101,2600045,,,,,,,2023-03-06,1,,,,,ニホンカンポウキョウイクケンキュウスイシンカイ,0
1364,5050001052485,新規,0,2023-03-06,2023-03-06,株式会社レイシン,,株式会社,茨城県,取手市,桜が丘３丁目２１番１４号,,08,217,3001525,,,,,,,2023-03-06,1,,,,,レイシン,0
1368,5060001035737,新規,0,2023-03-06,2023-03-06,株式会社錦源産業,,株式会社,栃木県,真岡市,長田１３１６番地８,,09,209,3214364,,,,,,,2023-03-06,1,,,,,キンゲンサンギョウ,0
1369,5060001035761,新規,0,2023-03-06,2023-03-06,株式会社ドンキー足場,,株式会社,栃木県,小山市,駅東通り１丁目２２番１１号ＳＳＫグリーンパーク１４０１,,09,208,3230022,,,,,,,2023-03-06,1,,,,,ドンキーアシバ,0
1376,5080101023821,新規,0,2023-03-06,2023-03-06,株式会社メダカロック,,株式会社,静岡県,富士宮市,山宮７３６番地の３,,22,207,4180111,,,,,,,2023-03-06,1,,,,,メダカロック,0
1380,5080405007529,新規,0,2023-03-06,2023-03-06,一般社団法人御前崎ローカルサーフコミュニティ,,その他の設立登記法人,静岡県,御前崎市,御前崎６７番地の９,,22,223,4371621,,,,,,,2023-03-06,1,,,,,オマエザキローカルサーフコミュニティ,0
1386,5110001037323,新規,0,2023-03-06,2023-03-06,株式会社岳風舎,,株式会社,新潟県,新潟市東区,江南６丁目１０番地２０ハイツ大石１０２号,,15,102,9500855,,,,,,,2023-03-06,1,,,,,ガクフウシャ,0
1400,5120001252870,新規,0,2023-03-06,2023-03-06,株式会社ＲＩＴＡＢｉｒｔｈ,,株式会社,大阪府,大阪市中央区,南本町１丁目６番７－１６０１号,,27,128,5410054,,,,,,,2023-03-06,1,,,,,リタバース,0
1401,5120001252887,新規,0,2023-03-06,2023-03-06,株式会社Ｒｕｂｙ,,株式会社,大阪府,大阪市西区,靱本町１丁目１０番７－３３１１号,,27,106,5500004,,,,,,,2023-03-06,1,,,,,ルビー,0
1402,5120001253002,新規,0,2023-03-06,2023-03-06,株式会社ＢＥＳＣＨＯ,,株式会社,大阪府,大阪市中央区,南船場１丁目３番５号９０１号室,,27,128,5420081,,,,,,,2023-03-06,1,,,,,ベスチョ,0
1406,5120003023535,新規,0,2023-03-06,2023-03-06,合同会社ＲＫ,,合同会社,大阪府,大阪市中央区,南船場１丁目１７番２６－９０６号,,27,128,5420081,,,,,,,2023-03-06,1,,,,,アールケー,0
1407,5120003023543,新規,0,2023-03-06,2023-03-06,合同会社ｐｅｒｉ　ｃｏｍｐａｎｙ,,合同会社,大阪府,大阪市淀川区,野中南１丁目７番１４号,,27,123,5320022,,,,,,,2023-03-06,1,,,,,ペリカンパニー,0
1408,5120005023500,新規,0,2023-03-06,2023-03-06,フラッグシップ税理士法人,,その他の設立登記法人,大阪府,大阪市淀川区,西中島５丁目２番５号中島第２ビル２０１号,,27,123,5320011,,,,,,,2023-03-06,1,,,,,フラッグシップ,0
1412,5120101067062,新規,0,2023-03-06,2023-03-06,株式会社ケイテックス,,株式会社,大阪府,堺市西区,宮下町１４番１３号,,27,144,5938321,,,,,,,2023-03-06,1,,,,,ケイテックス,0
1413,5120101067070,新規,0,2023-03-06,2023-03-06,株式会社ＳＥＶＥＮ　ＴＥＣＨ,,株式会社,大阪府,泉大津市,清水町７－２０－２,,27,206,5950043,,,,,,,2023-03-06,1,,,,,セブンテック,0
1414,5120101067079,新規,0,2023-03-06,2023-03-06,ＹＳＳホテルズ＆リゾーツ株式会社,,株式会社,大阪府,堺市中区,深井沢町３３０９番地１－３０３号,,27,142,5998236,,,,,,,2023-03-06,1,,,,,ワイエスエスホテルズアンドリゾーツ,0
1415,5120101067095,新規,0,2023-03-06,2023-03-06,株式会社Ｔ＆Ａ企画,,株式会社,大阪府,岸和田市,天神山町２丁目６番１号,,27,202,5960834,,,,,,,2023-03-06,1,,,,,ティアンドエーキカク,0
1416,5120101067104,新規,0,2023-03-06,2023-03-06,株式会社オートサービスタナカ,,株式会社,大阪府,堺市美原区,黒山４１３番地４,,27,147,5870002,,,,,,,2023-03-06,1,,,,,オートサービスタナカ,0
1422,5120901047206,新規,0,2023-03-06,2023-03-06,株式会社ＩＳＡＭＵ,,株式会社,大阪府,豊中市,赤阪１丁目７番１０号,,27,203,5600015,,,,,,,2023-03-06,1,,,,,イサム,0
1427,5130001073787,新規,0,2023-03-06,2023-03-06,株式会社グランツ,,株式会社,京都府,京都市下京区,烏丸通仏光寺下る大政所町６８０番地１,,26,106,6008413,,,,,,,2023-03-06,1,,,,,グランツ,0
1441,5140001129266,新規,0,2023-03-06,2023-03-06,株式会社ベイレジデンス,,株式会社,兵庫県,芦屋市,大原町９番１－４０７号,,28,206,6590092,,,,,,,2023-03-06,1,,,,,ベイレジデンス,0
1442,5140001129274,新規,0,2023-03-06,2023-03-06,株式会社ＧＩＡＮＴ,,株式会社,兵庫県,神戸市垂水区,舞多聞西３丁目１番５号,,28,108,6550051,,,,,,,2023-03-06,1,,,,,ジャイアント,0
1443,5140001129282,新規,0,2023-03-06,2023-03-06,株式会社ＵＮＺＥＬＯ,,株式会社,兵庫県,たつの市,龍野町富永３８０番地６,,28,229,6794167,,,,,,,2023-03-06,1,,,,,アンゼロ,0
1444,5140001129340,新規,0,2023-03-06,2023-03-06,Ｎｕｒｔｕｒｅ　Ｌｉｆｅ　Ｓｃｈｏｏｌ株式会社,,株式会社,兵庫県,神崎郡市川町,奥１０９４番地の２８,,28,442,6792325,,,,,,,2023-03-06,1,,,,,ナーチャーライフスクール,0
1445,5140001129349,新規,0,2023-03-06,2023-03-06,株式会社ｓｔｕｄｉｏ　ｐｉｘｅｌ,,株式会社,兵庫県,尼崎市,武庫之荘４丁目２５番１２－１号,,28,202,6610035,,,,,,,2023-03-06,1,,,,,スタジオピクセル,0
1446,5140001129357,新規,0,2023-03-06,2023-03-06,株式会社サンライズ,,株式会社,兵庫県,尼崎市,立花町４丁目２番１４号Ｓｕｐｅｒｂｅ立花Ｂ,,28,202,6610025,,,,,,,2023-03-06,1,,,,,サンライズ,0
1451,5150003002890,新規,0,2023-03-06,2023-03-06,平群ファーム合同会社,,合同会社,奈良県,生駒郡平群町,大字椿井１１９８番地,,29,342,6360911,,,,,,,2023-03-06,1,,,,,ヘグリファーム,0
1458,5180001155184,新規,0,2023-03-06,2023-03-06,イーエーリンク株式会社,,株式会社,愛知県,稲沢市,矢合町３５７７番地,,23,220,4928342,,,,,,,2023-03-06,1,,,,,イーエーリンク,0
1459,5180001155218,新規,0,2023-03-06,2023-03-06,株式会社グリンフィールド・ジャパン,,株式会社,愛知県,一宮市,南小渕字屋敷２５０２番地,,23,203,4910014,,,,,,,2023-03-06,1,,,,,グリンフィールドジャパン,0
1460,5180001155226,新規,0,2023-03-06,2023-03-06,株式会社ＧＲＡＺＫｅ,,株式会社,愛知県,小牧市,高根２丁目４３７番地６,,23,219,4850803,,,,,,,2023-03-06,1,,,,,グラック,0
1461,5180001155234,新規,0,2023-03-06,2023-03-06,株式会社アズエアー,,株式会社,愛知県,瀬戸市,中品野町２８０番地,,23,204,4801218,,,,,,,2023-03-06,1,,,,,アズエアー,0
1462,5180001155250,新規,0,2023-03-06,2023-03-06,株式会社エンデバー,,株式会社,愛知県,名古屋市港区,当知２丁目４０３－１０２,,23,111,4550804,,,,,,,2023-03-06,1,,,,,エンデバー,0
1466,5180301037149,新規,0,2023-03-06,2023-03-06,株式会社プリト,,株式会社,愛知県,岡崎市,真伝吉祥１丁目１１番地１,,23,202,4443176,,,,,,,2023-03-06,1,,,,,プリト,0
1469,5190001030196,新規,0,2023-03-06,2023-03-06,株式会社富屋物流サービス,,株式会社,三重県,鈴鹿市,三日市町１５５８番地,,24,207,5130803,,,,,,,2023-03-06,1,,,,,トミヤブツリュウサービス,0
1470,5190001030213,新規,0,2023-03-06,2023-03-06,株式会社大知,,株式会社,三重県,伊勢市,黒瀬町２１８番地２,,24,203,5160018,,,,,,,2023-03-06,1,,,,,ダイチ,0
1472,5200001041043,新規,0,2023-03-06,2023-03-06,ビーハイライト株式会社,,株式会社,岐阜県,岐阜市,山吹町５丁目５１番地（リ・ヴァーチュ１０２号室）,,21,201,5020905,,,,,,,2023-03-06,1,,,,,ビーハイライト,0
1476,5220003003460,新規,0,2023-03-06,2023-03-06,ＡＲＴ合同会社,,合同会社,石川県,金沢市,三池栄町９８番地,,17,201,9200809,,,,,,,2023-03-06,1,,,,,アート,0
1478,5240001061178,新規,0,2023-03-06,2023-03-06,株式会社エアーテック,,株式会社,広島県,広島市西区,井口台１丁目８番２９号,,34,104,7330844,,,,,,,2023-03-06,1,,,,,エアーテック,0
1480,5250001019984,新規,0,2023-03-06,2023-03-06,株式会社ボウケン,,株式会社,山口県,周南市,坂根町９番２５号,,35,215,7460031,,,,,,,2023-03-06,1,,,,,ボウケン,0
1481,5260001037705,新規,0,2023-03-06,2023-03-06,株式会社赤松薬館,,株式会社,岡山県,岡山市中区,中井１丁目１３番１７号,,33,102,7038205,,,,,,,2023-03-06,1,,,,,アカマツヤッカン,0
1487,5290001100699,新規,0,2023-03-06,2023-03-06,株式会社ＴＡコーポレーション,,株式会社,福岡県,宗像市,青葉台１丁目２７番地２,,40,220,8114162,,,,,,,2023-03-06,1,,,,,ティーエーコーポレーション,0
1488,5290001100724,新規,0,2023-03-06,2023-03-06,株式会社ＳＵＰＥＲ　ＭＯＴＯ,,株式会社,福岡県,糸島市,二丈松国１１７－３,,40,230,8191627,,,,,,,2023-03-06,1,,,,,スーパーモト,0
1489,5290001100757,新規,0,2023-03-06,2023-03-06,株式会社ＵＦホールディングス,,株式会社,福岡県,福岡市東区,塩浜１丁目１０番５０号,,40,131,8110203,,,,,,,2023-03-06,1,,,,,ユーエフホールディングス,0
1491,5290003013577,新規,0,2023-03-06,2023-03-06,福岡エアコンサービス合同会社,,合同会社,福岡県,糟屋郡須惠町,大字植木５８５番地１－１０２,,40,344,8112112,,,,,,,2023-03-06,1,,,,,フクオカエアコンサービス,0
1492,5290003013602,新規,0,2023-03-06,2023-03-06,合同会社ツリーライト,,合同会社,福岡県,宗像市,自由ヶ丘南１丁目１９－１８,,40,220,8114156,,,,,,,2023-03-06,1,,,,,ツリーライト,0
1493,5290005018970,新規,0,2023-03-06,2023-03-06,一般社団法人ＩＳＤ,,その他の設立登記法人,福岡県,福岡市中央区,地行浜１丁目５番１３号,,40,133,8100065,,,,,,,2023-03-06,1,,,,,アイエスディ,0
1494,5290803004354,新規,0,2023-03-06,2023-03-06,合同会社Ｂｅａｕｔｉｆｕｌ,,合同会社,福岡県,北九州市八幡西区,市瀬１丁目１３番３号,,40,109,8060063,,,,,,,2023-03-06,1,,,,,ビューティフル,0
1496,5320001019614,新規,0,2023-03-06,2023-03-06,樹輝工業株式会社,,株式会社,大分県,大分市,西新地１丁目１番３８－６０５,,44,201,8700901,,,,,,,2023-03-06,1,,,,,イツキコウギョウ,0
1502,5330001030652,新規,0,2023-03-06,2023-03-06,合志ビルサービス株式会社,,株式会社,熊本県,合志市,御代志１４６０番地８,,43,216,8611104,,,,,,,2023-03-06,1,,,,,コウシビルサービス,0
1504,5330005010626,新規,0,2023-03-06,2023-03-06,ＮＰＯ法人日本ゆたかなまちづくり研究会,,その他の設立登記法人,熊本県,熊本市中央区,国府２丁目３番１０号エクセルハイツ国府１０４号,,43,101,8620949,,,,,,,2023-03-06,1,,,,,ニホンユタカナマチヅクリケンキュウカイ,0
1505,5340001025412,新規,0,2023-03-06,2023-03-06,株式会社富士松,,株式会社,鹿児島県,枕崎市,千代田町９２番地,,46,204,8980012,,,,,,,2023-03-06,1,,,,,フジマツ,0
1509,5360001031656,新規,0,2023-03-06,2023-03-06,株式会社ＬｅａＢｏｙ,,株式会社,沖縄県,豊見城市,字瀬長１７４番地６ウミカジテラス３０,,47,212,9010233,,,,,,,2023-03-06,1,,,,,レアボーイ,0
1515,5380001033519,新規,0,2023-03-06,2023-03-06,東北物産株式会社,,株式会社,福島県,本宮市,本宮字柳ノ内６４番地,,07,214,9691119,,,,,,,2023-03-06,1,,,,,トウホクブッサン,0
1516,5380001033527,新規,0,2023-03-06,2023-03-06,株式会社ＩＮＦＩＮＩＴＹ,,株式会社,福島県,会津若松市,一箕町大字八幡字滝沢１４９番地,,07,202,9650003,,,,,,,2023-03-06,1,,,,,インフィニティ,0
1519,5390001017173,新規,0,2023-03-06,2023-03-06,株式会社ユウワット,,株式会社,山形県,酒田市,ゆたか２丁目２番地の６藤ハイツ２０３号,,06,204,9980006,,,,,,,2023-03-06,1,,,,,ユウワット,0
1520,5400001016165,新規,0,2023-03-06,2023-03-06,株式会社金野工業,,株式会社,岩手県,奥州市,水沢佐倉河字瀬ノ上９６番地５,,03,215,0230003,,,,,,,2023-03-06,1,,,,,キンノコウギョウ,0
1526,5430001088532,新規,0,2023-03-06,2023-03-06,株式会社Ｋａ　Ｐｉｌｉｎａ,,株式会社,北海道,札幌市白石区,本郷通５丁目北４番１号,,01,104,0030025,,,,,,,2023-03-06,1,,,,,カピリナ,0
1527,5430001088557,新規,0,2023-03-06,2023-03-06,株式会社Ｕ．Ｐ,,株式会社,北海道,札幌市清田区,真栄五条４丁目１１番１５号,,01,110,0040835,,,,,,,2023-03-06,1,,,,,ユーピー,0
1528,5430001088565,新規,0,2023-03-06,2023-03-06,株式会社ｍｏａｎｉ,,株式会社,北海道,札幌市西区,宮の沢一条５丁目２２番３４－４０１,,01,107,0630051,,,,,,,2023-03-06,1,,,,,モアニ,0
1529,5430003014783,新規,0,2023-03-06,2023-03-06,合同会社ＲＡＶＥ,,合同会社,北海道,札幌市中央区,南五条西５丁目５番地１,,01,101,0640805,,,,,,,2023-03-06,1,,,,,レイヴ,0
1530,5430003014791,新規,0,2023-03-06,2023-03-06,ホリタ設備合同会社,,合同会社,北海道,札幌市中央区,南五条西２４丁目２番８号,,01,101,0640805,,,,,,,2023-03-06,1,,,,,ホリタセツビ,0
1535,5500001024777,新規,0,2023-03-06,2023-03-06,薦田紙工業株式会社,,株式会社,愛媛県,四国中央市,妻鳥町花田４７１－１,,38,213,7990113,,,,,,,2023-03-06,1,,,,,コモダカミコウギョウ,0
1536,5500001024793,新規,0,2023-03-06,2023-03-06,株式会社和氣板金工業,,株式会社,愛媛県,松山市,北土居１丁目１２番２９号,,38,201,7911104,,,,,,,2023-03-06,1,,,,,ワケバンキンコウギョウ,0
1537,5500005008586,新規,0,2023-03-06,2023-03-06,一般社団法人愛友会,,その他の設立登記法人,愛媛県,松山市,勝山町１丁目７番地２０,,38,201,7900878,,,,,,,2023-03-06,1,,,,,アイユウカイ,0
1540,5700150072648,新規,0,2023-03-06,2016-04-13,横浜中華學院校友會,,その他,神奈川県,横浜市中区,山下町１４２,,14,104,2310023,,,,,,,2016-04-13,1,,,,,ヨコハマチユウカガクインコウユウカイ,0
1544,6010001233360,新規,0,2023-03-06,2023-03-06,株式会社アシスタ,,株式会社,東京都,中央区,銀座１丁目２２番１１号銀座大竹ビジデンス２階,,13,102,1040061,,,,,,,2023-03-06,1,,,,,アシスタ,0
1545,6010001233369,新規,0,2023-03-06,2023-03-06,日本天準株式会社,,株式会社,東京都,中央区,入船１丁目９番８号ピエノアーク入船,,13,102,1040042,,,,,,,2023-03-06,1,,,,,ニホンテンジュン,0
1546,6010001233393,新規,0,2023-03-06,2023-03-06,株式会社美利善,,株式会社,東京都,千代田区,一番町１３番地５－７０１号,,13,101,1020082,,,,,,,2023-03-06,1,,,,,ビリゼン,0
1547,6010001233410,新規,0,2023-03-06,2023-03-06,株式会社イノベイティブ・パートナーズ,,株式会社,東京都,中央区,銀座５丁目１３番１６号,,13,102,1040061,,,,,,,2023-03-06,1,,,,,イノベイティブパートナーズ,0
1548,6010001233419,新規,0,2023-03-06,2023-03-06,次世代海洋調査株式会社,,株式会社,東京都,文京区,大塚１丁目５番１８号大伴ビル,,13,105,1120012,,,,,,,2023-03-06,1,,,,,ジセダイカイヨウチョウサ,0
1549,6010001233443,新規,0,2023-03-06,2023-03-06,株式会社Ｆａｎ　Ｍａｋｅ,,株式会社,東京都,中央区,銀座１丁目２２番１１号銀座大竹ビジデンス２Ｆ,,13,102,1040061,,,,,,,2023-03-06,1,,,,,ファンメイク,0
1550,6010001233468,新規,0,2023-03-06,2023-03-06,株式会社ＡＰＬ,,株式会社,東京都,文京区,根津１丁目２７番６－３０３号,,13,105,1130031,,,,,,,2023-03-06,1,,,,,エーピーエル,0
1551,6010001233484,新規,0,2023-03-06,2023-03-06,ニューウェルテクノロジー株式会社,,株式会社,東京都,千代田区,神田鍛冶町３丁目７番２１号天翔神田駅前ビル９階９０６号室,,13,101,1010045,,,,,,,2023-03-06,1,,,,,ニューウェルテクノロジー,0
1552,6010001233501,新規,0,2023-03-06,2023-03-06,株式会社ＭＴアセット,,株式会社,東京都,千代田区,有楽町１丁目７－１有楽町電気ビル南館５５２,,13,101,1000006,,,,,,,2023-03-06,1,,,,,エムティーアセット,0
1553,6010003039979,新規,0,2023-03-06,2023-03-06,合同会社ＵｎｄｅｒＣｕｔ,,合同会社,東京都,中央区,銀座１丁目１２番４号Ｎ＆ＥＢＬＤ．６Ｆ,,13,102,1040061,,,,,,,2023-03-06,1,,,,,アンダーカット,0
1554,6010005036330,新規,0,2023-03-06,2023-03-06,一般社団法人Ｐｒｅｍｉｓｉａ　Ａｒｍ,,その他の設立登記法人,東京都,千代田区,霞が関３丁目２番５号,,13,101,1000013,,,,,,,2023-03-06,1,,,,,プレミシアアーム,0
1559,6010401172786,新規,0,2023-03-06,2023-03-06,株式会社博報堂ＤＹコーポレートイニシアティブ,,株式会社,東京都,港区,赤坂５丁目３番１号,,13,103,1070052,,,,,,,2023-03-06,1,,,,,ハクホウドウディーワイコーポレートイニシアティブ,0
1560,6010401172836,新規,0,2023-03-06,2023-03-06,株式会社ＹＲＰ,,株式会社,東京都,港区,海岸１丁目１番１号,,13,103,1050022,,,,,,,2023-03-06,1,,,,,ワイアールピー,0
1561,6010401172852,新規,0,2023-03-06,2023-03-06,株式会社ｍａｒｅ,,株式会社,東京都,港区,三田４丁目１９番２５－１０６号,,13,103,1080073,,,,,,,2023-03-06,1,,,,,マーレ,0
1562,6010401172902,新規,0,2023-03-06,2023-03-06,株式会社ＵＮＩＢＥＹＯＮＤ,,株式会社,東京都,港区,西新橋１丁目１番１号,,13,103,1050003,,,,,,,2023-03-06,1,,,,,ユニビヨンド,0
1563,6010405021907,新規,0,2023-03-06,2023-03-06,胡桃一般社団法人,,その他の設立登記法人,東京都,港区,西新橋１丁目１番１号ＥＰコンサルティングサービス内,,13,103,1050003,,,,,,,2023-03-06,1,,,,,クルミ,0
1569,6010601062696,新規,0,2023-03-06,2023-03-06,株式会社ｅｋｕｂｏ,,株式会社,東京都,墨田区,両国３丁目１７番１号,,13,107,1300026,,,,,,,2023-03-06,1,,,,,エクボ,0
1571,6010701043919,新規,0,2023-03-06,2023-03-06,株式会社Ａｎｄｗｅｌｌ,,株式会社,東京都,品川区,北品川５丁目５－１５大崎ブライトコア４階,,13,109,1410001,,,,,,,2023-03-06,1,,,,,アンドウェル,0
1573,6010801033737,新規,0,2023-03-06,2023-03-06,株式会社ＧＩＧＡＮＯＳ,,株式会社,東京都,大田区,西嶺町１２番１２号,,13,111,1450075,,,,,,,2023-03-06,1,,,,,ギガノス,0
1574,6010801033745,新規,0,2023-03-06,2023-03-06,ペガサス株式会社,,株式会社,東京都,大田区,久が原６丁目２３番２１－３号,,13,111,1460085,,,,,,,2023-03-06,1,,,,,ペガサス,0
1577,6010901052653,新規,0,2023-03-06,2023-03-06,株式会社Ｆｕｎｗｏｗ,,株式会社,東京都,世田谷区,船橋７丁目１５番２－３０８号,,13,112,1560055,,,,,,,2023-03-06,1,,,,,ファンワウ,0
1589,6011001152914,新規,0,2023-03-06,2023-03-06,株式会社Ｏｋｕｍｏ,,株式会社,東京都,渋谷区,元代々木町２７番１２号,,13,113,1510062,,,,,,,2023-03-06,1,,,,,オクモ,0
1590,6011001152922,新規,0,2023-03-06,2023-03-06,株式会社ほとり,,株式会社,東京都,目黒区,五本木２丁目５４番１４号,,13,110,1530053,,,,,,,2023-03-06,1,,,,,ホトリ,0
1593,6011003016381,新規,0,2023-03-06,2023-03-06,ファーストアドバイザリー合同会社,,合同会社,東京都,渋谷区,神宮前１丁目１番１号,,13,113,1500001,,,,,,,2023-03-06,1,,,,,ファーストアドバイザリー,0
1595,6011101102050,新規,0,2023-03-06,2023-03-06,株式会社エストロード,,株式会社,東京都,新宿区,西新宿３丁目３番１３号西新宿水間ビル６階,,13,104,1600023,,,,,,,2023-03-06,1,,,,,エストロード,0
1601,6011401024952,新規,0,2023-03-06,2023-03-06,株式会社ショア,,株式会社,東京都,板橋区,高島平５丁目２８番５号,,13,119,1750082,,,,,,,2023-03-06,1,,,,,ショア,0
1602,6011601026641,新規,0,2023-03-06,2023-03-06,ＴＳＵＢＡＳＡ国際株式会社,,株式会社,東京都,練馬区,上石神井１丁目７番１６号２０１号,,13,120,1770044,,,,,,,2023-03-06,1,,,,,ツバサコクサイ,0
1603,6011605002498,新規,0,2023-03-06,2023-03-06,ＮＰＯ法人チェコ倶楽部,,その他の設立登記法人,東京都,練馬区,高野台２丁目１０番９号クレアホームズ練馬高野台１０５,,13,120,1770033,,,,,,,2023-03-06,1,,,,,チェコクラブ,0
1606,6011801042018,新規,0,2023-03-06,2023-03-06,華亭商事株式会社,,株式会社,東京都,足立区,栗原３丁目２６番１号２Ｆ,,13,121,1230842,,,,,,,2023-03-06,1,,,,,カテイショウジ,0
1609,6012401040238,新規,0,2023-03-06,2023-03-06,株式会社ＩＩＭＩＲＡＩ,,株式会社,東京都,調布市,布田３丁目１２番地３,,13,208,1820024,,,,,,,2023-03-06,1,,,,,イイミライ,0
1610,6012401040246,新規,0,2023-03-06,2023-03-06,株式会社Ｌｉｌｙ,,株式会社,東京都,武蔵野市,吉祥寺南町２丁目４番３号劇団前進座ビル５０３,,13,203,1800003,,,,,,,2023-03-06,1,,,,,リリー,0
1612,6012701017522,新規,0,2023-03-06,2023-03-06,株式会社ジオニックソフトウェア,,株式会社,東京都,小平市,学園東町１丁目２３番１４号,,13,211,1870043,,,,,,,2023-03-06,1,,,,,ジオニックソフトウェア,0
1616,6013301050401,新規,0,2023-03-06,2023-03-06,株式会社ＭＯＮ,,株式会社,東京都,豊島区,目白２丁目１６番１７号オープンレジデンシア池袋４０４号,,13,116,1710031,,,,,,,2023-03-06,1,,,,,モン,0
1626,6020001150480,新規,0,2023-03-06,2023-03-06,アーキモア株式会社,,株式会社,神奈川県,横浜市金沢区,釜利谷西１丁目４１番２３号,,14,108,2360046,,,,,,,2023-03-06,1,,,,,アーキモア,0
1627,6020001150489,新規,0,2023-03-06,2023-03-06,株式会社ＳＥＣＯＮＤｒｏｗ,,株式会社,神奈川県,川崎市中原区,小杉町２丁目２２８番地１Ｗ５３０６,,14,133,2110063,,,,,,,2023-03-06,1,,,,,セカンドロウ,0
1628,6020001150539,新規,0,2023-03-06,2023-03-06,株式会社ＢＳＰ,,株式会社,神奈川県,横浜市港北区,師岡町４６８番地１２コンドミニアムヴェル大倉山６０１号,,14,109,2220002,,,,,,,2023-03-06,1,,,,,ビーエスピー,0
1632,6020003023453,新規,0,2023-03-06,2023-03-06,合同会社エイト,,合同会社,神奈川県,横浜市緑区,長津田町２６４０,,14,113,2260026,,,,,,,2023-03-06,1,,,,,エイト,0
1634,6021001078365,新規,0,2023-03-06,2023-03-06,ハンズオンアソシエイツ株式会社,,株式会社,神奈川県,藤沢市,辻堂西海岸１丁目６番２－５０４号,,14,205,2510046,,,,,,,2023-03-06,1,,,,,ハンズオンアソシエイツ,0
1641,6030001152609,新規,0,2023-03-06,2023-03-06,高優国際貿易株式会社,,株式会社,埼玉県,川口市,芝４丁目８番７号,,11,203,3330866,,,,,,,2023-03-06,1,,,,,コウユウコクサイボウエキ,0
1642,6030001152699,新規,0,2023-03-06,2023-03-06,広和物産株式会社,,株式会社,埼玉県,戸田市,喜沢南２丁目９番２４号２１５,,11,224,3350014,,,,,,,2023-03-06,1,,,,,コウワブッサン,0
1643,6030001152749,新規,0,2023-03-06,2023-03-06,株式会社ＴＭオート,,株式会社,埼玉県,さいたま市見沼区,大字南中丸７８３番地１０,,11,104,3370041,,,,,,,2023-03-06,1,,,,,ティーエムオート,0
1645,6030003021274,新規,0,2023-03-06,2023-03-06,合同会社ＴＣ,,合同会社,埼玉県,さいたま市南区,四谷３丁目８番１９－１号,,11,108,3360032,,,,,,,2023-03-06,1,,,,,ティーシー,0
1646,6030003021324,新規,0,2023-03-06,2023-03-06,合同会社ＤＡＳＨ,,合同会社,埼玉県,川口市,芝中田２丁目３４番２４号ＧＬハイツ３０３号,,11,203,3330847,,,,,,,2023-03-06,1,,,,,ダッシュ,0
1647,6030005021157,新規,0,2023-03-06,2023-03-06,特定非営利活動法人糸,,その他の設立登記法人,埼玉県,春日部市,永沼２７２番地２,,11,214,3440123,,,,,,,2023-03-06,1,,,,,イト,0
1650,6040001127295,新規,0,2023-03-06,2023-03-06,Ｒｙｏｋａ株式会社,,株式会社,千葉県,千葉市若葉区,千城台東３丁目３１番７－１号,,12,104,2640002,,,,,,,2023-03-06,1,,,,,リョカ,0
1651,6040001127312,新規,0,2023-03-06,2023-03-06,株式会社ＶＩＳＩＯＮ,,株式会社,千葉県,流山市,おおたかの森北１丁目１１番地の３ソライエ流山おおたかの森６２７,,12,220,2700119,,,,,,,2023-03-06,1,,,,,ビジョン,0
1652,6040001127329,新規,0,2023-03-06,2023-03-06,株式会社ＳＯＬ,,株式会社,千葉県,山武市,横田１０７５番地１２,,12,237,2891226,,,,,,,2023-03-06,1,,,,,ソル,0
1653,6040001127337,新規,0,2023-03-06,2023-03-06,株式会社ビーアイテックホールディングス,,株式会社,千葉県,千葉市若葉区,貝塚町４０３番地５,,12,104,2640023,,,,,,,2023-03-06,1,,,,,ビーアイテックホールディングス,0
1654,6040001127345,新規,0,2023-03-06,2023-03-06,株式会社Ｇｅｎｅｒａｌ　Ｐｌａｎｔ　Ｍａｉｎｔｅｎａｎｃｅ,,株式会社,千葉県,市原市,姉崎３０８０番地,,12,219,2990111,,,,,,,2023-03-06,1,,,,,ジェネラルプラントメンテナンス,0
1655,6040001127353,新規,0,2023-03-06,2023-03-06,株式会社ＴＲＵＮＫ　ｉｎｔｅｒｉｏｒｓ,,株式会社,千葉県,柏市,南逆井１丁目２０番２３－２号,,12,217,2770043,,,,,,,2023-03-06,1,,,,,トランクインテリアズ,0
1656,6040001127361,新規,0,2023-03-06,2023-03-06,株式会社ＣＨＴｏＥＪ,,株式会社,千葉県,千葉市中央区,富士見２丁目２１番１号第二東和商事ビル６階,,12,101,2600015,,,,,,,2023-03-06,1,,,,,シーエイチトゥイージェイ,0
1660,6050005013219,新規,0,2023-03-06,2023-03-06,一般社団法人和・幸,,その他の設立登記法人,茨城県,古河市,静町２８番１２号グランハイツストウ１０２号,,08,204,3060001,,,,,,,2023-03-06,1,,,,,ワコウ,0
1664,6060001035736,新規,0,2023-03-06,2023-03-06,株式会社Ｔｅｃｈ‐ｋ,,株式会社,栃木県,栃木市,岩舟町曲ケ島１１２３番地１,,09,203,3294306,,,,,,,2023-03-06,1,,,,,テックケー,0
1665,6060003004458,新規,0,2023-03-06,2023-03-06,合同会社ワークス・ワン,,合同会社,栃木県,小山市,大字迫間田５７４番地,,09,208,3290225,,,,,,,2023-03-06,1,,,,,ワークスワン,0
1671,6080105006318,新規,0,2023-03-06,2023-03-06,一般社団法人日本パキスタンイノベーション推進機構,,その他の設立登記法人,静岡県,富士宮市,宮町９番１９号,,22,207,4180067,,,,,,,2023-03-06,1,,,,,ニホンパキスタンイノベーションスイシンキコウ,0
1674,6090001018003,新規,0,2023-03-06,2023-03-06,株式会社ビット,,株式会社,山梨県,中央市,西花輪２３２１番地９,,19,214,4093843,,,,,,,2023-03-06,1,,,,,ビット,0
1676,6110001037322,新規,0,2023-03-06,2023-03-06,株式会社ＤＳ,,株式会社,新潟県,新潟市中央区,鳥屋野３丁目５番１３号リバーサイド２５・６０６号室,,15,103,9500951,,,,,,,2023-03-06,1,,,,,ディエス,0
1677,6110001037339,新規,0,2023-03-06,2023-03-06,株式会社ＣＮＦ,,株式会社,新潟県,燕市,熊森１５１８番地,,15,213,9590112,,,,,,,2023-03-06,1,,,,,シーエヌエフ,0
1691,6120001252861,新規,0,2023-03-06,2023-03-06,株式会社ＫＩＭＡＭＡ,,株式会社,大阪府,大阪市城東区,今福東３丁目１番３４－９０１号,,27,118,5360002,,,,,,,2023-03-06,1,,,,,キママ,0
1692,6120001252878,新規,0,2023-03-06,2023-03-06,株式会社ＦＲＯＮＴＩＥＲ,,株式会社,大阪府,大阪市中央区,徳井町１丁目３番８号１２０２号室,,27,128,5400025,,,,,,,2023-03-06,1,,,,,フロンティア,0
1693,6120001252952,新規,0,2023-03-06,2023-03-06,株式会社レッツスマイル,,株式会社,大阪府,大阪市浪速区,敷津西２丁目１－１２,,27,111,5560015,,,,,,,2023-03-06,1,,,,,レッツスマイル,0
1696,6120003023550,新規,0,2023-03-06,2023-03-06,合同会社ＫＩＮＯＲＩ,,合同会社,大阪府,大阪市北区,梅田１丁目２番２号大阪駅前第２ビル１２－１２,,27,127,5300001,,,,,,,2023-03-06,1,,,,,キノリ,0
1700,6120101067061,新規,0,2023-03-06,2023-03-06,夢織株式会社,,株式会社,大阪府,泉佐野市,栄町８番１号メゾンドフルール（３－Ｂ）,,27,213,5980054,,,,,,,2023-03-06,1,,,,,ユメオリ,0
1701,6120101067103,新規,0,2023-03-06,2023-03-06,株式会社ＭＹＵＦＡＲＭ,,株式会社,大阪府,堺市中区,堀上町４７１番地,,27,142,5998261,,,,,,,2023-03-06,1,,,,,ミュウファーム,0
1705,6120103005093,新規,0,2023-03-06,2023-03-06,合同会社ＷＨＩＴＥ　ＨＩＧＨ,,合同会社,大阪府,堺市北区,金岡町２０１６番１号モアクレスト白鷺ＩＩ－２０２,00129637,27,146,5918022,,,,,,,2023-03-06,1,,,,,ホワイトハイ,0
1706,6122001036757,新規,0,2023-03-06,2023-03-06,新製電機株式会社,,株式会社,大阪府,東大阪市,水走３丁目１２番７号,,27,227,5780921,,,,,,,2023-03-06,1,,,,,シンセイデンキ,0
1707,6130001073753,新規,0,2023-03-06,2023-03-06,株式会社Ｂｒｉｇｈｔ　ＯＮＥ,,株式会社,京都府,京都市北区,上賀茂岩ケ垣内町１０３番地スパイラルスペース１０３（３０８号）,,26,101,6038053,,,,,,,2023-03-06,1,,,,,ブライトワン,0
1708,6130001073761,新規,0,2023-03-06,2023-03-06,株式会社ＭＯＮＤＯ　ＰＩＥＣＥ,,株式会社,京都府,京都市伏見区,久我石原町７－６エスポワールＩＶ３０８,00129652,26,109,6128491,,,,,,,2023-03-06,1,,,,,モンドピース,0
1709,6130001073778,新規,0,2023-03-06,2023-03-06,株式会社ホーム,,株式会社,京都府,木津川市,相楽台６丁目１番地１,,26,214,6190223,,,,,,,2023-03-06,1,,,,,ホーム,0
1710,6130001073794,新規,0,2023-03-06,2023-03-06,株式会社未完,,株式会社,京都府,京都市下京区,西七条南中野町４５番地,,26,106,6008876,,,,,,,2023-03-06,1,,,,,ミカン,0
1711,6130003008559,新規,0,2023-03-06,2023-03-06,永青園京都合同会社,,合同会社,京都府,京都市左京区,岩倉忠在地町２７８,,26,103,6060021,,,,,,,2023-03-06,1,,,,,エイセイエンキョウト,0
1717,6140001129273,新規,0,2023-03-06,2023-03-06,株式会社みなと,,株式会社,兵庫県,宝塚市,長寿ガ丘１８番２１号,,28,214,6650001,,,,,,,2023-03-06,1,,,,,ミナト,0
1718,6140001129323,新規,0,2023-03-06,2023-03-06,リタ総合不動産株式会社,,株式会社,兵庫県,神戸市中央区,三宮町１丁目１番１号５階,,28,110,6500021,,,,,,,2023-03-06,1,,,,,リタソウゴウフドウサン,0
1719,6140001129372,新規,0,2023-03-06,2023-03-06,株式会社Ｅｘｔａｓｙ,,株式会社,兵庫県,神戸市垂水区,学が丘１丁目１７－３３,,28,108,6550004,,,,,,,2023-03-06,1,,,,,エクスタジー,0
1721,6140003018796,新規,0,2023-03-06,2023-03-06,合同会社フラックスメート,,合同会社,兵庫県,西宮市,上ケ原一番町１番１４号,,28,204,6620891,,,,,,,2023-03-06,1,,,,,フラックスメート,0
1725,6150001026214,新規,0,2023-03-06,2023-03-06,株式会社ＭＩＲＩＳＥ,,株式会社,奈良県,橿原市,新賀町２２９－２－２０３,,29,205,6340006,,,,,,,2023-03-06,1,,,,,ミライズ,0
1726,6150005009462,新規,0,2023-03-06,2023-03-06,行政書士法人市川事務所,,その他の設立登記法人,奈良県,大和郡山市,小林町西３丁目１番１３号平田ビル２階,,29,203,6391045,,,,,,,2023-03-06,1,,,,,イチカワジムショ,0
1728,6160001024869,新規,0,2023-03-06,2023-03-06,株式会社銀雅,,株式会社,滋賀県,湖南市,岩根中央３丁目１０４番地（２０３号）,,25,211,5203254,,,,,,,2023-03-06,1,,,,,ギンガ,0
1732,6180001155175,新規,0,2023-03-06,2023-03-06,株式会社コンドルネクストホールディングス,,株式会社,愛知県,名古屋市港区,正保町８丁目４３番地１,,23,111,4550074,,,,,,,2023-03-06,1,,,,,コンドルネクストホールディングス,0
1733,6180001155183,新規,0,2023-03-06,2023-03-06,株式会社ワンオーワン,,株式会社,愛知県,愛西市,柚木町東田面１１５０番地７０,,23,232,4960904,,,,,,,2023-03-06,1,,,,,ワンオーワン,0
1734,6180001155191,新規,0,2023-03-06,2023-03-06,株式会社ＨＵＢＳ,,株式会社,愛知県,豊明市,三崎町高鴨６番地１８,,23,229,4701126,,,,,,,2023-03-06,1,,,,,ハブス,0
1735,6180001155225,新規,0,2023-03-06,2023-03-06,株式会社プラスエム,,株式会社,愛知県,名古屋市中区,錦１丁目５番１１号,,23,106,4600003,,,,,,,2023-03-06,1,,,,,プラスエム,0
1736,6180001155241,新規,0,2023-03-06,2023-03-06,ヘルスクリエーション株式会社,,株式会社,愛知県,名古屋市東区,泉１丁目２２番２６号成田久屋ビル３階,,23,102,4610001,,,,,,,2023-03-06,1,,,,,ヘルスクリエーション,0
1737,6180001155258,新規,0,2023-03-06,2023-03-06,岩屋組株式会社,,株式会社,愛知県,名古屋市千種区,自由ケ丘２丁目１０番５０号サーパス自由ケ丘５０３,,23,101,4640044,,,,,,,2023-03-06,1,,,,,イワヤグミ,0
1740,6180003024923,新規,0,2023-03-06,2023-03-06,合同会社優輝,,合同会社,愛知県,一宮市,小信中島字萱場７０番地５,,23,203,4940007,,,,,,,2023-03-06,1,,,,,ユウキ,0
1742,6180301037148,新規,0,2023-03-06,2023-03-06,株式会社Ａｒｒａｎ　Ｓｔｙｌｅ,,株式会社,愛知県,豊橋市,前田中町１２番地４（１０３）,,23,201,4400872,,,,,,,2023-03-06,1,,,,,アランスタイル,0
1743,6180301037156,新規,0,2023-03-06,2023-03-06,株式会社ＮＥＸＵＳ４,,株式会社,愛知県,豊田市,広久手町１丁目３１番地,,23,211,4710036,,,,,,,2023-03-06,1,,,,,ネクサスフォー,0
1744,6190001030212,新規,0,2023-03-06,2023-03-06,株式会社ＴＫ,,株式会社,三重県,伊勢市,小俣町明野１４９３番地３,,24,203,5190501,,,,,,,2023-03-06,1,,,,,ティーケー,0
1755,6240001061144,新規,0,2023-03-06,2023-03-06,株式会社ＣＯＣＯ,,株式会社,広島県,東広島市,西条町西条東１３００番地３Ａ．Ｉ．Ｔ９０３号,,34,212,7390042,,,,,,,2023-03-06,1,,,,,ココ,0
1756,6240001061169,新規,0,2023-03-06,2023-03-06,株式会社ソウビテック,,株式会社,広島県,広島市安佐南区,祇園２丁目１７番４１号,,34,105,7310138,,,,,,,2023-03-06,1,,,,,ソウビテック,0
1760,6250001019983,新規,0,2023-03-06,2023-03-06,平井機工株式会社,,株式会社,山口県,柳井市,余田１２７０番地８,,35,212,7420034,,,,,,,2023-03-06,1,,,,,ヒライキコウ,0
1761,6250001020000,新規,0,2023-03-06,2023-03-06,株式会社ＭｙＰＲｏ,,株式会社,山口県,岩国市,川西１丁目１３番２号,,35,208,7410082,,,,,,,2023-03-06,1,,,,,マイプロ,0
1762,6260001037712,新規,0,2023-03-06,2023-03-06,株式会社ＢｌｕｅＣｏｖｅｒ,,株式会社,岡山県,赤磐市,桜が丘西７丁目３６番３号,,33,213,7090802,,,,,,,2023-03-06,1,,,,,ブルーカバー,0
1765,6260003004223,新規,0,2023-03-06,2023-03-06,合同会社ＮＥＸＴＢＡＳＥ,,合同会社,岡山県,岡山市北区,中撫川６７９番地２,,33,101,7010163,,,,,,,2023-03-06,1,,,,,ネクストベース,0
1767,6270003001500,新規,0,2023-03-06,2023-03-06,合同会社諸行無常,,合同会社,鳥取県,鳥取市,吉成７７９番地４７,,31,201,6800864,,,,,,,2023-03-06,1,,,,,ショギョウムジョウ,0
1768,6280001008892,新規,0,2023-03-06,2023-03-06,土江建設株式会社,,株式会社,島根県,出雲市,大津町１９１８番地３,,32,203,6930011,,,,,,,2023-03-06,1,,,,,ツチエケンセツ,0
1771,6290001100731,新規,0,2023-03-06,2023-03-06,株式会社ＭＫＲ,,株式会社,福岡県,久留米市,諏訪野町１６３２番地３,,40,203,8300037,,,,,,,2023-03-06,1,,,,,エムケイアール,0
1772,6290001100764,新規,0,2023-03-06,2023-03-06,スクエアワンカーゴ株式会社,,株式会社,福岡県,久留米市,大善寺大橋１丁目８番５－１０４号,,40,203,8300079,,,,,,,2023-03-06,1,,,,,スクエアワンカーゴ,0
1773,6290001100772,新規,0,2023-03-06,2023-03-06,株式会社ＴＡＯ,,株式会社,福岡県,福岡市西区,今宿西１丁目１－２ステラルーチェ今宿５０２,,40,135,8190169,,,,,,,2023-03-06,1,,,,,タオ,0
1774,6290001100780,新規,0,2023-03-06,2023-03-06,５６１１株式会社,,株式会社,福岡県,福岡市早良区,百道浜４丁目１９番６号,,40,137,8140001,,,,,,,2023-03-06,1,,,,,ゴーロクイチイチ,0
1775,6290001100789,新規,0,2023-03-06,2023-03-06,株式会社ＮＧＧ,,株式会社,福岡県,うきは市,吉井町富永４０４番地４,,40,225,8391333,,,,,,,2023-03-06,1,,,,,エヌジージー,0
1776,6290003013601,新規,0,2023-03-06,2023-03-06,吉祥実業合同会社,,合同会社,福岡県,福岡市中央区,六本松３丁目１６番１６－５０８号,,40,133,8100044,,,,,,,2023-03-06,1,,,,,キッショウジツギョウ,0
1777,6290003013618,新規,0,2023-03-06,2023-03-06,コーケン合同会社,,合同会社,福岡県,筑後市,大字山ノ井７０４‐１６,,40,211,8330031,,,,,,,2023-03-06,1,,,,,コーケン,0
1780,6330001030643,新規,0,2023-03-06,2023-03-06,三和トラスト不動産株式会社,,株式会社,熊本県,菊池郡菊陽町,大字久保田２８０７番地３,,43,404,8691103,,,,,,,2023-03-06,1,,,,,サンワトラストフドウサン,0
1784,6330005010625,新規,0,2023-03-06,2023-03-06,一般社団法人一期一会,,その他の設立登記法人,熊本県,天草市,東浜町７番１５号,,43,215,8630014,,,,,,,2023-03-06,1,,,,,イチゴイチエ,0
1786,6340001025411,新規,0,2023-03-06,2023-03-06,株式会社イロドリ,,株式会社,鹿児島県,鹿児島市,南新町２８番１６号,,46,201,8900085,,,,,,,2023-03-06,1,,,,,イロドリ,0
1788,6350001018208,新規,0,2023-03-06,2023-03-06,株式会社若松保温,,株式会社,宮崎県,延岡市,土々呂町５丁目２８８７－５,,45,203,8890513,,,,,,,2023-03-06,1,,,,,ワカマツホオン,0
1794,6360001031630,新規,0,2023-03-06,2023-03-06,株式会社砦コーポレーション,,株式会社,沖縄県,うるま市,みどり町４丁目１９番１４号,,47,213,9042215,,,,,,,2023-03-06,1,,,,,トリデコーポレーション,0
1795,6360001031655,新規,0,2023-03-06,2023-03-06,株式会社ＯＫＩＮＡＷＡヴァケーション,,株式会社,沖縄県,那覇市,おもろまち３丁目５番１－５０４号ソレイユ・ルヴァン公園前,,47,201,9000006,,,,,,,2023-03-06,1,,,,,オキナワヴァケーション,0
1796,6360001031663,新規,0,2023-03-06,2023-03-06,株式会社琉球アセット,,株式会社,沖縄県,糸満市,潮崎町３丁目２８番地３,,47,210,9010364,,,,,,,2023-03-06,1,,,,,リュウキュウアセット,0
1797,6360003012777,新規,0,2023-03-06,2023-03-06,合同会社ＹＵＫＵＲＵ,,合同会社,沖縄県,那覇市,前島３丁目２５番２号泊ポートビル１階,,47,201,9000016,,,,,,,2023-03-06,1,,,,,ユクル,0
1806,6380001033518,新規,0,2023-03-06,2023-03-06,株式会社無垢人,,株式会社,福島県,喜多方市,熱塩加納町加納字根岸山５０６１番地１,,07,208,9660103,,,,,,,2023-03-06,1,,,,,ムクト,0
1807,6380001033526,新規,0,2023-03-06,2023-03-06,株式会社ＳＫタイヤ,,株式会社,福島県,いわき市,内郷小島町新町３４番地,,07,204,9738401,,,,,,,2023-03-06,1,,,,,エスケータイヤ,0
1811,6390001017172,新規,0,2023-03-06,2023-03-06,株式会社北村果樹園,,株式会社,山形県,東根市,神町営団南通り３８号,,06,211,9993736,,,,,,,2023-03-06,1,,,,,キタムラカジュエン,0
1812,6390001017180,新規,0,2023-03-06,2023-03-06,株式会社大川建築,,株式会社,山形県,鶴岡市,藤島字村前７４番地１３,,06,203,9997601,,,,,,,2023-03-06,1,,,,,オオカワケンチク,0
1816,6400001016164,新規,0,2023-03-06,2023-03-06,株式会社ユイファーム,,株式会社,岩手県,花巻市,糠塚第５地割２３番地２,,03,205,0250302,,,,,,,2023-03-06,1,,,,,ユイファーム,0
1817,6400003003037,新規,0,2023-03-06,2023-03-06,合同会社エヌワークス,,合同会社,岩手県,滝沢市,巣子９９２番地１３メゾン柴田Ｂ２０２号,,03,216,0200611,,,,,,,2023-03-06,1,,,,,エヌワークス,0
1823,6410001013417,新規,0,2023-03-06,2023-03-06,株式会社ビーンズコーポレーション,,株式会社,秋田県,秋田市,外旭川字大谷地１００番地９,,05,201,0100802,,,,,,,2023-03-06,1,,,,,ビーンズコーポレーション,0
1825,6410003003762,新規,0,2023-03-06,2023-03-06,合同会社ＣＡＲ　ＯＦＦＩＣＥ　ＦＩＲＳＴ,,合同会社,秋田県,湯沢市,深堀字鎌切８８番地１,,05,207,0120051,,,,,,,2023-03-06,1,,,,,カーオフィスファースト,0
1830,6430001088523,新規,0,2023-03-06,2023-03-06,株式会社来夢電工,,株式会社,北海道,札幌市豊平区,平岸二条７丁目４番１７－２１１号,,01,105,0620932,,,,,,,2023-03-06,1,,,,,ライムデンコウ,0
1831,6430003014790,新規,0,2023-03-06,2023-03-06,合同会社スチャンダール光空,,合同会社,北海道,札幌市北区,北二十二条西４丁目１番３３号コスモ２２一階,,01,102,0010022,,,,,,,2023-03-06,1,,,,,スチャンダールコウクウ,0
1837,6470001019499,新規,0,2023-03-06,2023-03-06,株式会社巧建設工業,,株式会社,香川県,観音寺市,柞田町丙５９０番地２,,37,205,7680040,,,,,,,2023-03-06,1,,,,,タクミケンセツコウギョウ,0
1838,6470003002362,新規,0,2023-03-06,2023-03-06,合同会社三好,,合同会社,香川県,観音寺市,大野原町大野原３８６４番地１,,37,205,7691611,,,,,,,2023-03-06,1,,,,,ミヨシ,0
1842,6500001024792,新規,0,2023-03-06,2023-03-06,株式会社ライブ,,株式会社,愛媛県,松山市,南持田町５３番地１ウェリス南持田風香館１１０８号,,38,201,7900874,,,,,,,2023-03-06,1,,,,,,0
1844,6700150108368,新規,0,2023-03-06,2022-04-27,楊雪音楽事務所,,その他,東京都,豊島区,南大塚２丁目４６－１南大塚ＫＭビル３Ｆ,,13,116,1700005,,,,,,,2022-04-27,1,,,,,ヤンユキオンガクジムシヨ,0
1848,7010001233426,新規,0,2023-03-06,2023-03-06,株式会社ＨＲｘＩ,,株式会社,東京都,千代田区,神田神保町３丁目２番地５,,13,101,1010051,,,,,,,2023-03-06,1,,,,,エイチアールクロスアイ,0
1849,7010001233434,新規,0,2023-03-06,2023-03-06,株式会社ステラコラボレーション,,株式会社,東京都,中央区,銀座７丁目１７番１８号ジュエル銀座４０５号室,,13,102,1040061,,,,,,,2023-03-06,1,,,,,ステラコラボレーション,0
1851,7010003039953,新規,0,2023-03-06,2023-03-06,合同会社七宝袋,,合同会社,東京都,千代田区,岩本町３丁目７番１０号,,13,101,1010032,,,,,,,2023-03-06,1,,,,,シッポウブクロ,0
1852,7010003039961,新規,0,2023-03-06,2023-03-06,合同会社ベスト薬品,,合同会社,東京都,千代田区,鍛冶町２丁目７番６号リッツビル４階,,13,101,1010044,,,,,,,2023-03-06,1,,,,,ベストヤクヒン,0
1853,7010003039978,新規,0,2023-03-06,2023-03-06,合同会社１３０８,,合同会社,東京都,中央区,銀座１丁目２２番１１号銀座大竹ビジデンス２Ｆ,,13,102,1040061,,,,,,,2023-03-06,1,,,,,イチサンゼロハチ,0
1856,7010005036346,新規,0,2023-03-06,2023-03-06,エスティスイテン一般社団法人,,その他の設立登記法人,東京都,千代田区,丸の内３丁目１番１号東京共同会計事務所内,,13,101,1000005,,,,,,,2023-03-06,1,,,,,エスティスイテン,0
1863,7010401172851,新規,0,2023-03-06,2023-03-06,Ａｖａｔａｒ　Ｊａｐａｎ株式会社,,株式会社,東京都,港区,浜松町２丁目２番１５号浜松町ダイヤビル２Ｆ,,13,103,1050013,,,,,,,2023-03-06,1,,,,,アバタージャパン,0
1864,7010401172901,新規,0,2023-03-06,2023-03-06,株式会社ｐｉｎｔａｄｅ,,株式会社,東京都,港区,麻布十番３丁目５番４号２階Ｂ,,13,103,1060045,,,,,,,2023-03-06,1,,,,,パンタード,0
1868,7010405021906,新規,0,2023-03-06,2023-03-06,綾一般社団法人,,その他の設立登記法人,東京都,港区,西新橋１丁目１番１号ＥＰコンサルティングサービス内,,13,103,1050003,,,,,,,2023-03-06,1,,,,,アヤ,0
1872,7010601062662,新規,0,2023-03-06,2023-03-06,株式会社Ｒ２,,株式会社,東京都,江東区,有明１丁目１番１７－２６０１号,,13,108,1350063,,,,,,,2023-03-06,1,,,,,アールツー,0
1873,7010601062687,新規,0,2023-03-06,2023-03-06,セカンドパレスファイナンス株式会社,,株式会社,東京都,墨田区,江東橋３丁目５番１９－８１４号,,13,107,1300022,,,,,,,2023-03-06,1,,,,,セカンドパレスファイナンス,0
1874,7010601062695,新規,0,2023-03-06,2023-03-06,株式会社ＯＫ,,株式会社,東京都,墨田区,横川３丁目３番７号,,13,107,1300003,,,,,,,2023-03-06,1,,,,,オーケー,0
1875,7010601062704,新規,0,2023-03-06,2023-03-06,株式会社ビーセブンス,,株式会社,東京都,江東区,東雲１丁目１０番１４－８３４号,,13,108,1350062,,,,,,,2023-03-06,1,,,,,ビーセブンス,0
1878,7010701043934,新規,0,2023-03-06,2023-03-06,株式会社ＮＯＮＥ,,株式会社,東京都,品川区,戸越６丁目２３番２４－５０４号,,13,109,1420041,,,,,,,2023-03-06,1,,,,,ナン,0
1880,7010703006609,新規,0,2023-03-06,2023-03-06,合同会社Ｄ＆Ｃクチーナカンパニー,,合同会社,東京都,品川区,東大井１丁目１１番２５－５１１号,,13,109,1400011,,,,,,,2023-03-06,1,,,,,ディーアンドシークチーナカンパニー,0
1881,7010801033744,新規,0,2023-03-06,2023-03-06,大吉商事株式会社,,株式会社,東京都,大田区,大森南２丁目６番１４－９０１号,,13,111,1430013,,,,,,,2023-03-06,1,,,,,ダイキチショウジ,0
1890,7010901052636,新規,0,2023-03-06,2023-03-06,株式会社ＳＥＱＵＥＬ　ＥＮＴＥＲＰＲＩＳＥ,,株式会社,東京都,世田谷区,若林４丁目２９番２５号,,13,112,1540023,,,,,,,2023-03-06,1,,,,,シークエルエンタープライズ,0
1891,7010901052644,新規,0,2023-03-06,2023-03-06,株式会社Ｌｉｌ,,株式会社,東京都,世田谷区,太子堂４丁目２０番５号,,13,112,1540004,,,,,,,2023-03-06,1,,,,,リル,0
1900,7011001152913,新規,0,2023-03-06,2023-03-06,株式会社ｃｌｏｔｈ　ｗｏｒｄｓ,,株式会社,東京都,渋谷区,元代々木町１７番９号,,13,113,1510062,,,,,,,2023-03-06,1,,,,,クロスワード,0
1901,7011001152921,新規,0,2023-03-06,2023-03-06,株式会社月曜日のトラ,,株式会社,東京都,目黒区,平町２丁目１３番５号,,13,110,1520032,,,,,,,2023-03-06,1,,,,,ゲツヨウビノトラ,0
1902,7011001152946,新規,0,2023-03-06,2023-03-06,株式会社アシストコード,,株式会社,東京都,渋谷区,道玄坂１丁目１０番８号渋谷道玄坂東急ビル２Ｆ－Ｃ,,13,113,1500043,,,,,,,2023-03-06,1,,,,,アシストコード,0
1903,7011001152970,新規,0,2023-03-06,2023-03-06,株式会社タンバム,,株式会社,東京都,渋谷区,宇田川町３番１４－１１０７号,,13,113,1500042,,,,,,,2023-03-06,1,,,,,タンバム,0
1904,7011003016380,新規,0,2023-03-06,2023-03-06,イノヴェーティブ・フード・イデア合同会社,,合同会社,東京都,渋谷区,道玄坂１丁目１０番８号渋谷道玄坂東急ビル２Ｆ－Ｃ,,13,113,1500043,,,,,,,2023-03-06,1,,,,,イノヴェーティブフードイデア,0
1907,7011101102017,新規,0,2023-03-06,2023-03-06,株式会社リスタート,,株式会社,東京都,新宿区,西新宿３丁目３番１３号西新宿水間ビル２Ｆ,,13,104,1600023,,,,,,,2023-03-06,1,,,,,リスタート,0
1908,7011101102033,新規,0,2023-03-06,2023-03-06,株式会社ｋｏｍｅｙ,,株式会社,東京都,新宿区,歌舞伎町ニ丁目２５番８号エコプレイス新宿３１６,,13,104,1600000,,,,,,,2023-03-06,1,,,,,コーメー,0
1915,7011401024951,新規,0,2023-03-06,2023-03-06,金涛商事株式会社,,株式会社,東京都,板橋区,徳丸３丁目８番５号,,13,119,1750083,,,,,,,2023-03-06,1,,,,,キントウショウジ,0
1917,7011403003929,新規,0,2023-03-06,2023-03-06,合同会社半田,,合同会社,東京都,板橋区,志村３丁目２４番２号昭ビル２Ｆ,,13,119,1740056,,,,,,,2023-03-06,1,,,,,ハンダ,0
1918,7011501029009,新規,0,2023-03-06,2023-03-06,株式会社ライフエージェント,,株式会社,東京都,荒川区,西尾久７丁目４５番６－５０７号,,13,118,1160011,,,,,,,2023-03-06,1,,,,,ライフエージェント,0
1919,7011601026632,新規,0,2023-03-06,2023-03-06,少数株ドットコム株式会社,,株式会社,東京都,練馬区,東大泉６丁目５４番２０号,,13,120,1780063,,,,,,,2023-03-06,1,,,,,ショウスウカブドッドコム,0
1920,7011603003844,新規,0,2023-03-06,2023-03-06,合同会社マルタス,,合同会社,東京都,練馬区,西大泉６丁目１９番３号,,13,120,1780065,,,,,,,2023-03-06,1,,,,,マルタス,0
1921,7011703003397,新規,0,2023-03-06,2023-03-06,バンディエラ合同会社,,合同会社,東京都,江戸川区,松島３丁目４８番７号若松レジデンス八〇一,,13,123,1320031,,,,,,,2023-03-06,1,,,,,バンディエラ,0
1927,7011805003246,新規,0,2023-03-06,2023-03-06,医療法人社団成駿会,,その他の設立登記法人,東京都,足立区,栗原１丁目７番２０号小倉第二ビル１階,,13,121,1230842,,,,,,,2023-03-06,1,,,,,セイシュンカイ,0
1931,7012401040237,新規,0,2023-03-06,2023-03-06,株式会社ＨＩＭＵ,,株式会社,東京都,小金井市,本町６丁目２番２０－１７１１号,,13,210,1840004,,,,,,,2023-03-06,1,,,,,ヒム,0
1932,7012401040245,新規,0,2023-03-06,2023-03-06,株式会社ＲＡＤＩＯＨＯＯＤ,,株式会社,東京都,武蔵野市,関前５丁目１３番１２号,,13,203,1800014,,,,,,,2023-03-06,1,,,,,レイディオフッド,0
1934,7012403005865,新規,0,2023-03-06,2023-03-06,合同会社ＹＯＳＨＩＮ　ｇｒｏｕｐ,,合同会社,東京都,多摩市,百草１１４４番地７,,13,224,2060004,,,,,,,2023-03-06,1,,,,,ヨシングループ,0
1935,7012801022173,新規,0,2023-03-06,2023-03-06,株式会社ＩＳＢ,,株式会社,東京都,立川市,上砂町５丁目６６番地の１４－２０１号,,13,202,1900032,,,,,,,2023-03-06,1,,,,,アイエスビー,0
1939,7013301050400,新規,0,2023-03-06,2023-03-06,株式会社７８アソシエイツ,,株式会社,東京都,豊島区,駒込３丁目１６番１７号,,13,116,1700003,,,,,,,2023-03-06,1,,,,,ナナハチアソシエイツ,0
1940,7013303006524,新規,0,2023-03-06,2023-03-06,ＧＡＭＢＩＴ合同会社,,合同会社,東京都,豊島区,池袋２丁目６９－１２キャピタルライフ２０３号,,13,116,1710014,,,,,,,2023-03-06,1,,,,,ギャンビット,0
1941,7020001150471,新規,0,2023-03-06,2023-03-06,株式会社ＲｅａｄＢｅｌｌ,,株式会社,神奈川県,川崎市川崎区,渡田１丁目１７番１－１１０３号,,14,131,2100837,,,,,,,2023-03-06,1,,,,,リドベル,0
1942,7020001150488,新規,0,2023-03-06,2023-03-06,株式会社ｋｉｎｔｓｕｔａ,,株式会社,神奈川県,川崎市宮前区,有馬３丁目２５番７－２号,,14,136,2160003,,,,,,,2023-03-06,1,,,,,キンツタ,0
1943,7020001150538,新規,0,2023-03-06,2023-03-06,アルモニカ株式会社,,株式会社,神奈川県,川崎市川崎区,京町１丁目１番２０号,,14,131,2100848,,,,,,,2023-03-06,1,,,,,アルモニカ,0
1944,7020001150579,新規,0,2023-03-06,2023-03-06,トリングネットワーク株式会社,,株式会社,神奈川県,川崎市幸区,古川町７番地１１ハイネス鹿島田１０１号室,,14,132,2120025,,,,,,,2023-03-06,1,,,,,トリングネットワーク,0
1946,7021001078323,新規,0,2023-03-06,2023-03-06,株式会社アラレル,,株式会社,神奈川県,藤沢市,円行８２７番地の３８,,14,205,2520805,,,,,,,2023-03-06,1,,,,,アラレル,0
1947,7021003012833,新規,0,2023-03-06,2023-03-06,スノーボールグループ合同会社,,合同会社,神奈川県,相模原市南区,相模大野７丁目１８番３－２１０号,,14,153,2520303,,,,,,,2023-03-06,1,,,,,スノーボールグループ,0
1948,7021003012841,新規,0,2023-03-06,2023-03-06,合同会社ＡｄａｍａＳ,,合同会社,神奈川県,相模原市中央区,上溝７丁目７番３号２０１,,14,152,2520243,,,,,,,2023-03-06,1,,,,,アダマス,0
1949,7021005012749,新規,0,2023-03-06,2023-03-06,Ｐａｌｍ行政書士法人,,その他の設立登記法人,神奈川県,藤沢市,辻堂神台１丁目３番３９号オザワビル６０１,,14,205,2510041,,,,,,,2023-03-06,1,,,,,,0
1955,7030001152632,新規,0,2023-03-06,2023-03-06,日本リペア株式会社,,株式会社,埼玉県,さいたま市大宮区,天沼町２丁目１１０番地２,,11,103,3300834,,,,,,,2023-03-06,1,,,,,ニホンリペア,0
1956,7030001152657,新規,0,2023-03-06,2023-03-06,株式会社ムーンショット,,株式会社,埼玉県,所沢市,和ケ原２丁目１９５番地,,11,208,3591162,,,,,,,2023-03-06,1,,,,,ムーンショット,0
1957,7030001152673,新規,0,2023-03-06,2023-03-06,株式会社ダイコウソーラージャパン,,株式会社,埼玉県,越谷市,大字船渡１２４－１,,11,222,3430003,,,,,,,2023-03-06,1,,,,,ダイコウソーラージャパン,0
1958,7030001152698,新規,0,2023-03-06,2023-03-06,株式会社ＯＳＡＫＡ　ＴＲＡＤＩＮＧ,,株式会社,埼玉県,春日部市,大沼６丁目１１２番１３号グリーンメイト香山１０１,,11,214,3440038,,,,,,,2023-03-06,1,,,,,オオサカトレーディング,0
1959,7030001152715,新規,0,2023-03-06,2023-03-06,株式会社Ｔ‐ＬＡ企画,,株式会社,埼玉県,さいたま市北区,大成町４丁目２９２番地,,11,102,3310815,,,,,,,2023-03-06,1,,,,,ティーエルエーキカク,0
1961,7030003021281,新規,0,2023-03-06,2023-03-06,合同会社リコレクション,,合同会社,埼玉県,八潮市,大瀬４丁目３５番地２０,,11,234,3400822,,,,,,,2023-03-06,1,,,,,リコレクション,0
1962,7030003021298,新規,0,2023-03-06,2023-03-06,合同会社ｇｏ　ｈａｐｐｙ　ｄａｙｓ,,合同会社,埼玉県,北足立郡伊奈町,大字小室５４１１番地３,,11,301,3620806,,,,,,,2023-03-06,1,,,,,ゴーハッピーデイズ,0
1965,7030005021156,新規,0,2023-03-06,2023-03-06,一般社団法人日本フードリーダーズ協会,,その他の設立登記法人,埼玉県,さいたま市大宮区,吉敷町１丁目１３３番地１ワンライトビル４階,,11,103,3300843,,,,,,,2023-03-06,1,,,,,ニホンフードリーダーズキョウカイ,0
1970,7040001127294,新規,0,2023-03-06,2023-03-06,株式会社Ｃａｒ　Ｓｔｙｌｅ　Ｉｄｅａｌ,,株式会社,千葉県,千葉市緑区,誉田町１丁目７７３番地２４,,12,105,2660005,,,,,,,2023-03-06,1,,,,,カースタイルイデアル,0
1971,7040001127336,新規,0,2023-03-06,2023-03-06,株式会社Ｆ＆Ｌ,,株式会社,千葉県,柏市,小青田５丁目７番地デュオヒルズ・ザ・グラン５１１号,,12,217,2770803,,,,,,,2023-03-06,1,,,,,エフアンドエル,0
1972,7040001127369,新規,0,2023-03-06,2023-03-06,バトルアーチ株式会社,,株式会社,千葉県,松戸市,古ケ崎３丁目３４４１番地の５,,12,207,2710068,,,,,,,2023-03-06,1,,,,,バトルアーチ,0
1975,7040003022106,新規,0,2023-03-06,2023-03-06,ｎｏｌａｎ合同会社,,合同会社,千葉県,柏市,船戸３丁目６番地５７,,12,217,2770802,,,,,,,2023-03-06,1,,,,,ノーラン,0
1979,7050001052475,新規,0,2023-03-06,2023-03-06,ｍｏｒｏｗ株式会社,,株式会社,茨城県,土浦市,桜ケ丘町１９番３４号,,08,203,3000832,,,,,,,2023-03-06,1,,,,,モロウ,0
1980,7050001052483,新規,0,2023-03-06,2023-03-06,株式会社ｂｌｏｏｍ,,株式会社,茨城県,古河市,緑町５番１２号,,08,204,3060003,,,,,,,2023-03-06,1,,,,,ブルーム,0
1981,7050003007287,新規,0,2023-03-06,2023-03-06,合同会社ＭＩＮＯＳＨＡ　ＡＵＴＯ,,合同会社,茨城県,猿島郡五霞町,大字川妻２１７０番地３２,,08,542,3060314,,,,,,,2023-03-06,1,,,,,ミノシャオート,0
1984,7060001035743,新規,0,2023-03-06,2023-03-06,株式会社トチギ・リノベイト,,株式会社,栃木県,大田原市,美原２丁目２８３１番地１０６,,09,210,3240047,,,,,,,2023-03-06,1,,,,,トチギリノベイト,0
1985,7060001035751,新規,0,2023-03-06,2023-03-06,株式会社エヌオービジネスサービス,,株式会社,栃木県,宇都宮市,下岡本町９２１番地１ラ・バスティード１０１号,,09,201,3291104,,,,,,,2023-03-06,1,,,,,エヌオービジネスサービス,0
1987,7060003004457,新規,0,2023-03-06,2023-03-06,合同会社Ｖａｓｃｏ,,合同会社,栃木県,小山市,美しが丘２丁目１０番地７,,09,208,3290207,,,,,,,2023-03-06,1,,,,,バスコ,0
1990,7080101023828,新規,0,2023-03-06,2023-03-06,ＲｏｃｋＰｉｎｅ株式会社,,株式会社,静岡県,富士市,岩本２２７１番地,,22,210,4160901,,,,,,,2023-03-06,1,,,,,ロックパイン,0
1991,7080101023836,新規,0,2023-03-06,2023-03-06,株式会社ＲＥＳＩＮ　ＳＰＡＣＥ,,株式会社,静岡県,沼津市,大岡３１６６番地の９,,22,203,4100022,,,,,,,2023-03-06,1,,,,,レジンスペース,0
1992,7080103002755,新規,0,2023-03-06,2023-03-06,合同会社ＭＧＰ,,合同会社,静岡県,裾野市,佐野１１０７番地の２,,22,220,4101118,,,,,,,2023-03-06,1,,,,,エムジーピー,0
1993,7090003002268,新規,0,2023-03-06,2023-03-06,光コネクト合同会社,,合同会社,山梨県,甲府市,国母８丁目２番３号,,19,201,4000043,,,,,,,2023-03-06,1,,,,,ヒカリコネクト,0
2011,7120001252877,新規,0,2023-03-06,2023-03-06,株式会社清風,,株式会社,大阪府,大阪市住之江区,御崎６丁目２番８号ニスム御崎４０２,,27,125,5590013,,,,,,,2023-03-06,1,,,,,セイフウ,0
2012,7120001252885,新規,0,2023-03-06,2023-03-06,株式会社パイロ,,株式会社,大阪府,大阪市東住吉区,住道矢田８丁目１４番８号,,27,121,5460022,,,,,,,2023-03-06,1,,,,,パイロ,0
2013,7120001252902,新規,0,2023-03-06,2023-03-06,ＵＹＥＳＴ　ＭＡＲＩＮＥ株式会社,,株式会社,大阪府,大阪市中央区,北浜１丁目１番１４号,,27,128,5410041,,,,,,,2023-03-06,1,,,,,ウエストマリン,0
2014,7120001252919,新規,0,2023-03-06,2023-03-06,株式会社桐麺ＪＡＰＡＮ,,株式会社,大阪府,大阪市中央区,南船場２丁目７番３１号１Ｆ,,27,128,5420081,,,,,,,2023-03-06,1,,,,,キリメンジャパン,0
2015,7120001252951,新規,0,2023-03-06,2023-03-06,株式会社ＡＫ,,株式会社,大阪府,大阪市浪速区,敷津東２丁目１番２４－１９０３号,,27,111,5560012,,,,,,,2023-03-06,1,,,,,エイケイ,0
2016,7120001252968,新規,0,2023-03-06,2023-03-06,株式会社石州鳶,,株式会社,大阪府,大阪市住之江区,粉浜西２丁目１番１９号,,27,125,5590007,,,,,,,2023-03-06,1,,,,,セキシュウトビ,0
2017,7120001252984,新規,0,2023-03-06,2023-03-06,株式会社ＯＺＵ,,株式会社,大阪府,大阪市城東区,野江３丁目２０番２３号,,27,118,5360006,,,,,,,2023-03-06,1,,,,,オズ,0
2019,7120003023533,新規,0,2023-03-06,2023-03-06,合同会社サンワ,,合同会社,大阪府,大阪市平野区,瓜破東３丁目４番１０号,,27,126,5470022,,,,,,,2023-03-06,1,,,,,サンワ,0
2022,7120101067069,新規,0,2023-03-06,2023-03-06,株式会社フォレスト,,株式会社,大阪府,堺市北区,百舌鳥梅町３丁５７番地２,,27,146,5918032,,,,,,,2023-03-06,1,,,,,フォレスト,0
2024,7120901047220,新規,0,2023-03-06,2023-03-06,株式会社ｖｉｅ　ｒｉｃｈｅ,,株式会社,大阪府,茨木市,庄２丁目１４番４号,,27,211,5670806,,,,,,,2023-03-06,1,,,,,ヴィリッシュ,0
2031,7130001073819,新規,0,2023-03-06,2023-03-06,株式会社Ｐｉｓｃｅｓ,,株式会社,京都府,京都市北区,紫野東御所田町４０番地の８,,26,101,6038164,,,,,,,2023-03-06,1,,,,,ピスケス,0
2042,7140001129280,新規,0,2023-03-06,2023-03-06,株式会社ＰＦ,,株式会社,兵庫県,尼崎市,七松町１丁目１３番１２号３０５,,28,202,6600052,,,,,,,2023-03-06,1,,,,,ピーエフ,0
2043,7140001129322,新規,0,2023-03-06,2023-03-06,ＯＳＳ株式会社,,株式会社,兵庫県,姫路市,岡町５番地,,28,201,6700026,,,,,,,2023-03-06,1,,,,,オーエスエス,0
2044,7140001129363,新規,0,2023-03-06,2023-03-06,株式会社ミノタス,,株式会社,兵庫県,尼崎市,立花町４丁目３番２２号,,28,202,6610025,,,,,,,2023-03-06,1,,,,,ミノタス,0
2048,7140003018795,新規,0,2023-03-06,2023-03-06,合同会社ドラコアソシエイツ,,合同会社,兵庫県,伊丹市,西台２丁目４－８星和ビル３０２号,,28,207,6640858,,,,,,,2023-03-06,1,,,,,ドラコアソシエイツ,0
2054,7150001026213,新規,0,2023-03-06,2023-03-06,株式会社イワイ興産,,株式会社,奈良県,橿原市,葛本町５３４番地３,,29,205,6340007,,,,,,,2023-03-06,1,,,,,イワイコウサン,0
2055,7160003002814,新規,0,2023-03-06,2023-03-06,合同会社フォルテ,,合同会社,滋賀県,大津市,馬場２丁目１０番２２号,,25,201,5200802,,,,,,,2023-03-06,1,,,,,フォルテ,0
2056,7170001017499,新規,0,2023-03-06,2023-03-06,株式会社ＡＤＡ,,株式会社,和歌山県,岩出市,相谷９－１アペックスビル３Ａ,,30,209,6496257,,,,,,,2023-03-06,1,,,,,エーディーエー,0
2067,7180001155158,新規,0,2023-03-06,2023-03-06,株式会社愛起ホールディングス,,株式会社,愛知県,名古屋市天白区,中平３丁目８０８番地の１,,23,116,4680014,,,,,,,2023-03-06,1,,,,,アイキホールディングス,0
2068,7180001155174,新規,0,2023-03-06,2023-03-06,株式会社Ｅｎｃａｎｔｏ,,株式会社,愛知県,名古屋市中村区,椿町１９番７号チサンマンション椿町１００２号室,,23,105,4530015,,,,,,,2023-03-06,1,,,,,エンカント,0
2069,7180001155182,新規,0,2023-03-06,2023-03-06,株式会社Ｂｏｏｍ,,株式会社,愛知県,名古屋市中村区,名駅５丁目３１番１０号リンクス名駅ビル６１１号室,,23,105,4500002,,,,,,,2023-03-06,1,,,,,ブーム,0
2070,7180001155257,新規,0,2023-03-06,2023-03-06,ジェイ・シー・アクティブ株式会社,,株式会社,愛知県,名古屋市中区,栄３丁目２５－３ジャルダン栄１１Ｂ号,,23,106,4600008,,,,,,,2023-03-06,1,,,,,ジェイシーアクティブ,0
2073,7180003024880,新規,0,2023-03-06,2023-03-06,合同会社堀田建材,,合同会社,愛知県,愛西市,北一色町北田面５番地,,23,232,4960905,,,,,,,2023-03-06,1,,,,,ホッタケンザイ,0
2074,7180003024914,新規,0,2023-03-06,2023-03-06,荒木企画合同会社,,合同会社,愛知県,名古屋市緑区,元徳重１丁目１０７番地,,23,114,4580852,,,,,,,2023-03-06,1,,,,,アラキキカク,0
2075,7180005020119,新規,0,2023-03-06,2023-03-06,弁護士法人甲村・熊谷法律事務所,,その他の設立登記法人,愛知県,名古屋市中区,栄２丁目９番３０号,,23,106,4600008,,,,,,,2023-03-06,1,,,,,コウムラクマガイホウリツジムショ,0
2076,7180301037147,新規,0,2023-03-06,2023-03-06,株式会社ＦＩＮＥＳＹＳＴＥＭ,,株式会社,愛知県,豊田市,駒場町西１２番地２,,23,211,4730925,,,,,,,2023-03-06,1,,,,,ファインシステム,0
2077,7180301037155,新規,0,2023-03-06,2023-03-06,株式会社ソースコード,,株式会社,愛知県,豊橋市,春日町２丁目３番地１（２０５）,,23,201,4400821,,,,,,,2023-03-06,1,,,,,ソースコード,0
2079,7190003004254,新規,0,2023-03-06,2023-03-06,合同会社ＴＫＰ,,合同会社,三重県,四日市市,諏訪栄町７番２９号,,24,202,5100086,,,,,,,2023-03-06,1,,,,,ティーケーピー,0
2083,7210001019251,新規,0,2023-03-06,2023-03-06,株式会社リベック福井,,株式会社,福井県,福井市,渕３丁目１１８番地,,18,201,9188026,,,,,,,2023-03-06,1,,,,,リベックフクイ,0
2087,7230001019737,新規,0,2023-03-06,2023-03-06,Ｗｈａｔ’ｓＬｉｎｋ株式会社,,株式会社,富山県,高岡市,内免３丁目２番１０号２階,,16,202,9330941,,,,,,,2023-03-06,1,,,,,ワッツリンク,0
2090,7240001061151,新規,0,2023-03-06,2023-03-06,拓海工業株式会社,,株式会社,広島県,広島市安佐北区,可部南３丁目１５番１０号,,34,106,7310223,,,,,,,2023-03-06,1,,,,,タクミコウギョウ,0
2091,7240001061176,新規,0,2023-03-06,2023-03-06,株式会社オイスターシーズ,,株式会社,広島県,広島市西区,三滝町２０番１５号,,34,104,7330005,,,,,,,2023-03-06,1,,,,,オイスターシーズ,0
2094,7250001019982,新規,0,2023-03-06,2023-03-06,株式会社ＡＲ,,株式会社,山口県,岩国市,通津１９５２番地１,,35,208,7400044,,,,,,,2023-03-06,1,,,,,エーアール,0
2095,7250001019999,新規,0,2023-03-06,2023-03-06,茉原工業株式会社,,株式会社,山口県,下関市,綾羅木本町１丁目１３番５号,,35,201,7510849,,,,,,,2023-03-06,1,,,,,マツバラコウギョウ,0
2096,7260001037711,新規,0,2023-03-06,2023-03-06,株式会社ＫＡＷ,,株式会社,岡山県,岡山市北区,弓之町５番８号,,33,101,7000817,,,,,,,2023-03-06,1,,,,,ケイエイダブリュー,0
2102,7290001100680,新規,0,2023-03-06,2023-03-06,株式会社エニーキャピタル,,株式会社,福岡県,福岡市博多区,中洲５丁目４番６－３０２号リバーフェイス博多,,40,132,8100801,,,,,,,2023-03-06,1,,,,,エニーキャピタル,0
2103,7290001100730,新規,0,2023-03-06,2023-03-06,Ｓｍａｒｔ‐Ｈｏｕｓｅ株式会社,,株式会社,福岡県,筑紫野市,二日市中央６丁目３番１号,,40,217,8180072,,,,,,,2023-03-06,1,,,,,スマートハウス,0
2104,7290001100788,新規,0,2023-03-06,2023-03-06,株式会社福岡ＳＵＮＳ,,株式会社,福岡県,福岡市早良区,室見４丁目１０番１２号,,40,137,8140015,,,,,,,2023-03-06,1,,,,,フクオカサンズ,0
2108,7290003013600,新規,0,2023-03-06,2023-03-06,合同会社事業リフォーム,,合同会社,福岡県,久留米市,田主丸町森部６５９番地,,40,203,8391211,,,,,,,2023-03-06,1,,,,,ジギョウリフォーム,0
2110,7290803004360,新規,0,2023-03-06,2023-03-06,ＤＥＤＥＸ合同会社,,合同会社,福岡県,行橋市,大字下津熊８６４番地１１,,40,213,8240062,,,,,,,2023-03-06,1,,,,,デデックス,0
2111,7300001013229,新規,0,2023-03-06,2023-03-06,株式会社みやぐち薬局,,株式会社,佐賀県,鳥栖市,蔵上３丁目１７１番地,,41,203,8410056,,,,,,,2023-03-06,1,,,,,ミヤグチヤッキョク,0
2113,7320001019612,新規,0,2023-03-06,2023-03-06,株式会社エースリー,,株式会社,大分県,大分市,東春日町１７番２０号大分第２ソフィアプラザビル５階,,44,201,8700037,,,,,,,2023-03-06,1,,,,,エースリー,0
2116,7330001030659,新規,0,2023-03-06,2023-03-06,ソフィールジャパン株式会社,,株式会社,熊本県,熊本市中央区,水前寺６丁目１番３８号,,43,101,8620950,,,,,,,2023-03-06,1,,,,,ソフィールジャパン,0
2121,7340001025410,新規,0,2023-03-06,2023-03-06,株式会社ＤＳＳ,,株式会社,鹿児島県,鹿児島市,田上７丁目３５番７号,,46,201,8900034,,,,,,,2023-03-06,1,,,,,ディエスエス,0
2127,7370003006018,新規,0,2023-03-06,2023-03-06,合同会社ＡＮＤ‐ＴＲＵＳＴ,,合同会社,宮城県,登米市,中田町石森字室木３２３番地,,04,212,9870601,,,,,,,2023-03-06,1,,,,,アンドトラスト,0
2132,7380001033525,新規,0,2023-03-06,2023-03-06,サカイ精密株式会社,,株式会社,福島県,会津若松市,門田町大字一ノ堰字土手外１９２４番地２０,,07,202,9650844,,,,,,,2023-03-06,1,,,,,サカイセイミツ,0
2139,7390003002056,新規,0,2023-03-06,2023-03-06,合同会社つぶらｍａｎａｇｅｍｅｎｔ,,合同会社,山形県,山形市,あさひ町１５－２１,,06,201,9900024,,,,,,,2023-03-06,1,,,,,ツブラマネジメント,0
2140,7400001016163,新規,0,2023-03-06,2023-03-06,株式会社ワンテンファーム,,株式会社,岩手県,紫波郡紫波町,片寄字堀米１０５番地１,,03,321,0283452,,,,,,,2023-03-06,1,,,,,ワンテンファーム,0
2143,7420001018174,新規,0,2023-03-06,2023-03-06,株式会社ＣＯＮＮＥＸＩＯＮ,,株式会社,青森県,弘前市,大字小沢字前沢４７番地１,,02,202,0368243,,,,,,,2023-03-06,1,,,,,コネクション,0
2155,7490001010414,新規,0,2023-03-06,2023-03-06,株式会社いしはらキッチン,,株式会社,高知県,土佐郡土佐町,西石原１７２番地,,39,363,7813334,,,,,,,2023-03-06,1,,,,,イシハラキッチン,0
2162,7700150110067,新規,0,2023-03-06,2022-06-20,コンセール・ヴィヴァン,,その他,東京都,港区,南青山２丁目２－１５ウィン青山１２１４,,13,103,1070062,,,,,,,2022-06-20,1,,,,,コンセールヴイヴアン,0
2163,7700150114266,新規,0,2023-03-06,2023-02-09,妙蓮寺ニコニコ会,,その他,神奈川県,横浜市港北区,菊名１丁目４－２第１橘ビル３０６号室,,14,109,2220011,,,,,,,2023-02-09,1,,,,,ミヨウレンジニコニコカイ,0
2172,8010001233342,新規,0,2023-03-06,2023-03-06,Ｃｉｅｌｕｍｉｅｒｅ株式会社,,株式会社,東京都,千代田区,一番町１３番５号,,13,101,1020082,,,,,,,2023-03-06,1,,,,,シェルミエール,0
2173,8010001233367,新規,0,2023-03-06,2023-03-06,株式会社利休開発,,株式会社,東京都,千代田区,神田神保町３丁目６番２－９０１,,13,101,1010051,,,,,,,2023-03-06,1,,,,,リキュウカイハツ,0
2174,8010001233375,新規,0,2023-03-06,2023-03-06,株式会社Ｂ,,株式会社,東京都,千代田区,丸の内１丁目１番１号,,13,101,1000005,,,,,,,2023-03-06,1,,,,,ビー,0
2175,8010001233383,新規,0,2023-03-06,2023-03-06,Ｋｅｎｊｉ　Ｗｉｌｌ　Ｇｒｏｕｐ株式会社,,株式会社,東京都,千代田区,四番町４番地９新東京国際リーガル内,,13,101,1020081,,,,,,,2023-03-06,1,,,,,ケンジウィルグループ,0
2176,8010001233391,新規,0,2023-03-06,2023-03-06,株式会社ＳｏｗＺｏｗ,,株式会社,東京都,中央区,銀座１丁目１２番４号Ｎ＆ＥＢＬＤ．７階,,13,102,1040061,,,,,,,2023-03-06,1,,,,,ソウゾウ,0
2177,8010001233417,新規,0,2023-03-06,2023-03-06,株式会社ルシアスガーデン,,株式会社,東京都,中央区,日本橋室町１丁目８番２号,,13,102,1030022,,,,,,,2023-03-06,1,,,,,ルシアスガーデン,0
2178,8010001233433,新規,0,2023-03-06,2023-03-06,株式会社ＲＯＭＥＯ,,株式会社,東京都,中央区,銀座１丁目１２番４号Ｎ＆ＥＢＬＤ．７階,,13,102,1040061,,,,,,,2023-03-06,1,,,,,ロメオ,0
2179,8010001233441,新規,0,2023-03-06,2023-03-06,株式会社ラパン・マーケティング,,株式会社,東京都,千代田区,東神田３丁目４番１２号５Ｆ,,13,101,1010031,,,,,,,2023-03-06,1,,,,,ラパンマーケティング,0
2180,8010001233458,新規,0,2023-03-06,2023-03-06,株式会社ＯＢ’ｓ,,株式会社,東京都,文京区,大塚１丁目４番１５－２１０８号,00129636,13,105,1120012,,,,,,,2023-03-06,1,,,,,オービーズ,0
2181,8010001233499,新規,0,2023-03-06,2023-03-06,榮昇株式会社,,株式会社,東京都,文京区,本駒込６丁目１３－１０六義園杉ハイム１０４,,13,105,1130021,,,,,,,2023-03-06,1,,,,,エイショウ,0
2183,8010003039960,新規,0,2023-03-06,2023-03-06,合同会社くじらカンパニー,,合同会社,東京都,中央区,築地４丁目１０番１７号,,13,102,1040045,,,,,,,2023-03-06,1,,,,,クジラカンパニー,0
2184,8010005036337,新規,0,2023-03-06,2023-03-06,一般社団法人最新医療研究会,,その他の設立登記法人,東京都,中央区,日本橋本町３丁目８番５号,,13,102,1030023,,,,,,,2023-03-06,1,,,,,サイシンイリョウケンキュウカイ,0
2191,8010401172891,新規,0,2023-03-06,2023-03-06,株式会社サン・ルーカス,,株式会社,東京都,港区,東麻布１丁目２５番５号ＶＯＲＴ麻布イースト３階,,13,103,1060044,,,,,,,2023-03-06,1,,,,,サンルーカス,0
2193,8010403029652,新規,0,2023-03-06,2023-03-06,ＡｗａｋＡｐｐ　Ｊａｐａｎ合同会社,,合同会社,東京都,港区,新橋１丁目１２番９号新橋プレイス６階スペシャリスト・ドクターズ株式会社内,,13,103,1050004,,,,,,,2023-03-06,1,,,,,アウェイクアップジャパン,0
2194,8010403029669,新規,0,2023-03-06,2023-03-06,合同会社クロカワ,,合同会社,東京都,港区,南青山５丁目１７番２―４０２号,,13,103,1070062,,,,,,,2023-03-06,1,,,,,クロカワ,0
2196,8010405021863,新規,0,2023-03-06,2023-03-06,一般社団法人日本湖南商会,,その他の設立登記法人,東京都,港区,新橋６丁目５番４号２階,,13,103,1050004,,,,,,,2023-03-06,1,,,,,ニホンコナンショウカイ,0
2198,8010501050106,新規,0,2023-03-06,2023-03-06,Ｌｉｇｈｔ　Ｓｔｕｄｉｏ株式会社,,株式会社,東京都,台東区,竜泉２丁目９－５－１４０１,,13,106,1100012,,,,,,,2023-03-06,1,,,,,ライトスタジオ,0
2200,8010601062694,新規,0,2023-03-06,2023-03-06,Ｃａｌｌｉｎｇ株式会社,,株式会社,東京都,江東区,白河４丁目９－２５パークハウス清澄白河タワー１００５,,13,108,1350021,,,,,,,2023-03-06,1,,,,,コーリング,0
2201,8010601062703,新規,0,2023-03-06,2023-03-06,山口不動産商事株式会社,,株式会社,東京都,江東区,新木場４丁目２番１号,,13,108,1360082,,,,,,,2023-03-06,1,,,,,ヤマグチフドウサンショウジ,0
2205,8010801033743,新規,0,2023-03-06,2023-03-06,株式会社れい,,株式会社,東京都,大田区,中央２丁目１２番１３－６０１号,,13,111,1430024,,,,,,,2023-03-06,1,,,,,レイ,0
2207,8010803004461,新規,0,2023-03-06,2023-03-06,合同会社ｎａｍｏｊｉ,,合同会社,東京都,大田区,東雪谷２丁目１８番２号,,13,111,1450065,,,,,,,2023-03-06,1,,,,,ナモジ,0
2208,8010805003008,新規,0,2023-03-06,2023-03-06,特定非営利活動法人アートで社会問題を解決する会キミト,,その他の設立登記法人,東京都,大田区,大森北２丁目３番１５号第１５下川ビル４階,,13,111,1430016,,,,,,,2023-03-06,1,,,,,アートデシャカイモンダイヲカイケツスルカイキミト,0
2209,8010901052643,新規,0,2023-03-06,2023-03-06,ａｍｕｎｅｄａｔ株式会社,,株式会社,東京都,世田谷区,松原２丁目２０番２－１０３号,,13,112,1560043,,,,,,,2023-03-06,1,,,,,アムネダット,0
2215,8011001152912,新規,0,2023-03-06,2023-03-06,株式会社ｉｒｏ,,株式会社,東京都,渋谷区,神泉町２０－２１クロスシー渋谷神泉ビルＭＩＤＰＯＩＮＴ渋谷神泉４－１６,,13,113,1500045,,,,,,,2023-03-06,1,,,,,イロ,0
2216,8011001152937,新規,0,2023-03-06,2023-03-06,株式会社ハート・レイ,,株式会社,東京都,渋谷区,渋谷１丁目１９番１８号,,13,113,1500002,,,,,,,2023-03-06,1,,,,,ハートレイ,0
2217,8011001152953,新規,0,2023-03-06,2023-03-06,株式会社ＢＡＰ,,株式会社,東京都,目黒区,自由が丘２丁目１２番１８－５０３号,,13,110,1520035,,,,,,,2023-03-06,1,,,,,バップ,0
2221,8011101102016,新規,0,2023-03-06,2023-03-06,株式会社Ｊ．Ａ．Ｃケピット,,株式会社,東京都,新宿区,新宿２丁目９番１号,,13,104,1600022,,,,,,,2023-03-06,1,,,,,ジェイエイシーケピット,0
2222,8011101102049,新規,0,2023-03-06,2023-03-06,株式会社Ｍａｒｋｅｔｉｎｇ　Ｓｔｕｄｉｏ,,株式会社,東京都,新宿区,西新宿１丁目２１番１号,,13,104,1600023,,,,,,,2023-03-06,1,,,,,マーケティングスタジオ,0
2224,8011201024449,新規,0,2023-03-06,2023-03-06,株式会社ヒーロー,,株式会社,東京都,中野区,弥生町３丁目１－９－２０１号室,,13,114,1640013,,,,,,,2023-03-06,1,,,,,ヒーロー,0
2225,8011201024465,新規,0,2023-03-06,2023-03-06,ＭＭＳ株式会社,,株式会社,東京都,中野区,江古田４丁目２８番２０号,,13,114,1650022,,,,,,,2023-03-06,1,,,,,エムエムエス,0
2228,8011401024942,新規,0,2023-03-06,2023-03-06,ひともと株式会社,,株式会社,東京都,板橋区,上板橋２丁目８番１７号ソレイユ春原３０２号室,,13,119,1740076,,,,,,,2023-03-06,1,,,,,ヒトモト,0
2229,8011403003928,新規,0,2023-03-06,2023-03-06,ＧＲＡＹＳＴＯＮＥ合同会社,,合同会社,東京都,板橋区,大山西町４９番８号,,13,119,1730033,,,,,,,2023-03-06,1,,,,,グレイストーン,0
2239,8011601026631,新規,0,2023-03-06,2023-03-06,株式会社縁,,株式会社,東京都,練馬区,土支田４丁目３番１０号,,13,120,1790076,,,,,,,2023-03-06,1,,,,,エニシ,0
2246,8011801042016,新規,0,2023-03-06,2023-03-06,株式会社Ｂｒｉｇｈｔ,,株式会社,東京都,足立区,六木２丁目４－３,,13,121,1210052,,,,,,,2023-03-06,1,,,,,ブライト,0
2249,8012401040252,新規,0,2023-03-06,2023-03-06,ＬＬＣ株式会社,,株式会社,東京都,府中市,本町１丁目９－４１,,13,206,1830027,,,,,,,2023-03-06,1,,,,,エルエルシー,0
2250,8012801022172,新規,0,2023-03-06,2023-03-06,ＣＡＰＳ株式会社,,株式会社,東京都,国立市,富士見台１丁目１７番２４号アップスタイルビルＩＩ２階,00129632,13,215,1860003,,,,,,,2023-03-06,1,,,,,キャップス,0
2255,8013301050399,新規,0,2023-03-06,2023-03-06,株式会社オリイチ,,株式会社,東京都,豊島区,南大塚１丁目１０番１７号,,13,116,1700005,,,,,,,2023-03-06,1,,,,,オリイチ,0
2256,8013301050416,新規,0,2023-03-06,2023-03-06,株式会社Ｎｅｗ　Ｊｏｕｒｎｅｙ,,株式会社,東京都,豊島区,西池袋３丁目３０－１０ライオンビル７０１,,13,116,1710021,,,,,,,2023-03-06,1,,,,,ニュージャーニー,0
2263,8020001150487,新規,0,2023-03-06,2023-03-06,うるたま株式会社,,株式会社,神奈川県,川崎市川崎区,駅前本町１１番地２川崎フロンティアビル４階,,14,131,2100007,,,,,,,2023-03-06,1,,,,,ウルタマ,0
2268,8021003012832,新規,0,2023-03-06,2023-03-06,ＫＪ　ＪＡＰＡＮ合同会社,,合同会社,神奈川県,厚木市,温水西２丁目３２番１４号,,14,212,2430039,,,,,,,2023-03-06,1,,,,,ケイジェイジャパン,0
2275,8030001152656,新規,0,2023-03-06,2023-03-06,株式会社ＡＳＯＵＬ　ＰＬＵＳ,,株式会社,埼玉県,朝霞市,本町２丁目８番４１号渋谷ビル２階,,11,227,3510011,,,,,,,2023-03-06,1,,,,,アソウルプラス,0
2276,8030001152664,新規,0,2023-03-06,2023-03-06,株式会社ＲＯＯＭＳ,,株式会社,埼玉県,さいたま市大宮区,浅間町２丁目４６番地浅間町ハウス２０１号室,,11,103,3300842,,,,,,,2023-03-06,1,,,,,ルームス,0
2277,8030001152672,新規,0,2023-03-06,2023-03-06,株式会社戸澤興業,,株式会社,埼玉県,大里郡寄居町,大字鉢形２７４番地１,,11,408,3691224,,,,,,,2023-03-06,1,,,,,トザワコウギョウ,0
2278,8030001152755,新規,0,2023-03-06,2023-03-06,株式会社アウンズ,,株式会社,埼玉県,さいたま市桜区,大字在家１３６番地７,,11,106,3380813,,,,,,,2023-03-06,1,,,,,アウンズ,0
2280,8030003021322,新規,0,2023-03-06,2023-03-06,合同会社ウラビティ,,合同会社,埼玉県,春日部市,栄町３丁目２７８番地コーポ栄Ａ－１０１,,11,214,3440058,,,,,,,2023-03-06,1,,,,,ウラビティ,0
2283,8040001127293,新規,0,2023-03-06,2023-03-06,カルペディエム株式会社,,株式会社,千葉県,松戸市,岩瀬２５７番地の３３,,12,207,2710076,,,,,,,2023-03-06,1,,,,,カルペディエム,0
2284,8040001127302,新規,0,2023-03-06,2023-03-06,株式会社蒼左官,,株式会社,千葉県,千葉市稲毛区,天台５丁目２番８号,,12,103,2630016,,,,,,,2023-03-06,1,,,,,アオイサカン,0
2285,8040001127327,新規,0,2023-03-06,2023-03-06,株式会社アートスタイル,,株式会社,千葉県,四街道市,大日９９６番地６,,12,228,2840001,,,,,,,2023-03-06,1,,,,,アートスタイル,0
2286,8040001127335,新規,0,2023-03-06,2023-03-06,株式会社ＢＧＯ,,株式会社,千葉県,市川市,市川１丁目３番３－５０１号,,12,203,2720034,,,,,,,2023-03-06,1,,,,,ビージーオー,0
2287,8040001127343,新規,0,2023-03-06,2023-03-06,株式会社ＴＣＫ,,株式会社,千葉県,市原市,姉崎３０８０番地,,12,219,2990111,,,,,,,2023-03-06,1,,,,,ティーシーケイ,0
2290,8040003022113,新規,0,2023-03-06,2023-03-06,合同会社ＬＥＬＩＥＬ,,合同会社,千葉県,船橋市,西船５丁目２４番３号石井ハイツ１０６,,12,204,2730031,,,,,,,2023-03-06,1,,,,,レリエル,0
2293,8050001052474,新規,0,2023-03-06,2023-03-06,株式会社黒子塗装,,株式会社,茨城県,古河市,女沼１６３６番地４,,08,204,3060226,,,,,,,2023-03-06,1,,,,,クロストソウ,0
2296,8060001035742,新規,0,2023-03-06,2023-03-06,株式会社永田測量設計事務所,,株式会社,栃木県,栃木市,皆川城内町５１７番地８,,09,203,3280067,,,,,,,2023-03-06,1,,,,,ナガタソクリョウセッケイジムショ,0
2297,8060001035759,新規,0,2023-03-06,2023-03-06,株式会社Ｉ　Ｇａｒｄｅｎ,,株式会社,栃木県,足利市,葉鹿町１丁目１０番地１６,,09,202,3260143,,,,,,,2023-03-06,1,,,,,アイガーデン,0
2299,8070005010088,新規,0,2023-03-06,2023-03-06,一般社団法人一助会あにま,,その他の設立登記法人,群馬県,桐生市,川内町５丁目２２番地の１,,10,203,3760041,,,,,,,2023-03-06,1,,,,,イチジョカイアニマ,0
2300,8080101023827,新規,0,2023-03-06,2023-03-06,ヴィセイヌヘルスケアオフィス株式会社,,株式会社,静岡県,富士市,今泉３７７４番地の１４,,22,210,4170001,,,,,,,2023-03-06,1,,,,,ヴィセイヌヘルスケアオフィス,0
2302,8080401026348,新規,0,2023-03-06,2023-03-06,株式会社ｔｏｐｈｏｔｏ,,株式会社,静岡県,湖西市,ときわ３丁目６番６５号,,22,221,4310428,,,,,,,2023-03-06,1,,,,,トフォト,0
2307,8090003002267,新規,0,2023-03-06,2023-03-06,合同会社鳳凰小屋,,合同会社,山梨県,韮崎市,円野町上円井１８１７,,19,207,4070051,,,,,,,2023-03-06,1,,,,,ホウオウゴヤ,0
2320,8120001252802,新規,0,2023-03-06,2023-03-06,ブリューホリック株式会社,,株式会社,大阪府,大阪市西区,新町１丁目５番７号２階,,27,106,5500013,,,,,,,2023-03-06,1,,,,,ブリューホリック,0
2321,8120001252851,新規,0,2023-03-06,2023-03-06,株式会社ＮＡＭＩＫＵＲＵ,,株式会社,大阪府,大阪市北区,梅田１丁目２番２号大阪駅前第２ビル１２－１２,,27,127,5300001,,,,,,,2023-03-06,1,,,,,ナミクル,0
2322,8120001252868,新規,0,2023-03-06,2023-03-06,株式会社ＳＩＸ　ＨＡＮＤＳ,,株式会社,大阪府,大阪市城東区,今福西１丁目３番７号,,27,118,5360004,,,,,,,2023-03-06,1,,,,,シックスハンズ,0
2323,8120001252884,新規,0,2023-03-06,2023-03-06,ＮＥＸＴ　ＴＥＡＣＨ株式会社,,株式会社,大阪府,大阪市西区,北堀江１丁目２３番２５－２６０１号,,27,106,5500014,,,,,,,2023-03-06,1,,,,,ネクストティーチ,0
2324,8120001252901,新規,0,2023-03-06,2023-03-06,安田産業本店株式会社,,株式会社,大阪府,大阪市中央区,博労町１丁目６番２号,,27,128,5410059,,,,,,,2023-03-06,1,,,,,ヤスダサンギョウホンテン,0
2325,8120001252918,新規,0,2023-03-06,2023-03-06,ぬま田株式会社,,株式会社,大阪府,大阪市北区,曾根崎新地１丁目１０番２号北新地プレイス７Ｆ,,27,127,5300002,,,,,,,2023-03-06,1,,,,,ヌマタ,0
2326,8120001252942,新規,0,2023-03-06,2023-03-06,株式会社ＨＣＩＣ,,株式会社,大阪府,大阪市浪速区,元町１丁目２番２号８Ｆ,,27,111,5560016,,,,,,,2023-03-06,1,,,,,エイチシーアイシー,0
2327,8120001252950,新規,0,2023-03-06,2023-03-06,株式会社Ｙセレクト,,株式会社,大阪府,守口市,佐太東町１丁目４３番１９号,,27,209,5700017,,,,,,,2023-03-06,1,,,,,ワイセレクト,0
2328,8120001252983,新規,0,2023-03-06,2023-03-06,株式会社ＨＡＭＯＮ,,株式会社,大阪府,大阪市北区,本庄東１丁目１８番１４号アシスト９０（７０４号室）,,27,127,5310074,,,,,,,2023-03-06,1,,,,,ハモン,0
2333,8120003023524,新規,0,2023-03-06,2023-03-06,Ｂｅｔａ合同会社,,合同会社,大阪府,大阪市中央区,本町橋６番２１号,,27,128,5400029,,,,,,,2023-03-06,1,,,,,ベータ,0
2334,8120003023540,新規,0,2023-03-06,2023-03-06,合同会社Ｃｒｅａｔｅ‐Ｆｏｘ,,合同会社,大阪府,大阪市浪速区,難波中３丁目１７番２２号,,27,111,5560011,,,,,,,2023-03-06,1,,,,,クリエイトフォックス,0
2335,8120005023506,新規,0,2023-03-06,2023-03-06,社会福祉法人えがおネット,,その他の設立登記法人,大阪府,交野市,星田４丁目２２番３号,,27,230,5760016,,,,,,,2023-03-06,1,,,,,エガオネット,0
2338,8120101067076,新規,0,2023-03-06,2023-03-06,株式会社Ｔｏｊｏ,,株式会社,大阪府,岸和田市,下松町９１１番７－２０３号,,27,202,5960823,,,,,,,2023-03-06,1,,,,,トウジョウ,0
2341,8120901047211,新規,0,2023-03-06,2023-03-06,株式会社ホクセツテックコーポレーション,,株式会社,大阪府,摂津市,正雀２丁目１２番６号カメリアンハイムＥ号,,27,224,5660023,,,,,,,2023-03-06,1,,,,,ホクセツテックコーポレーション,0
2342,8120901047228,新規,0,2023-03-06,2023-03-06,株式会社Ｍ５Ｗ,,株式会社,大阪府,吹田市,原町３丁目２７番２１－１号,,27,205,5640004,,,,,,,2023-03-06,1,,,,,エムファイブダブリュー,0
2345,8122001036739,新規,0,2023-03-06,2023-03-06,株式会社友星,,株式会社,大阪府,八尾市,西木の本４丁目１番地の２３,,27,212,5810045,,,,,,,2023-03-06,1,,,,,ユウセイ,0
2351,8130001073768,新規,0,2023-03-06,2023-03-06,株式会社洛彩トラベル,,株式会社,京都府,京都市中京区,御幸町丸太町下ル毘沙門町５５３番地,,26,104,6040000,,,,,,,2023-03-06,1,,,,,ラクサイトラベル,0
2352,8130001073776,新規,0,2023-03-06,2023-03-06,株式会社貴掃,,株式会社,京都府,京都市伏見区,醍醐京道町２番地２６,,26,109,6011317,,,,,,,2023-03-06,1,,,,,キソウ,0
2361,8140001129271,新規,0,2023-03-06,2023-03-06,株式会社オカサキ建装,,株式会社,兵庫県,加東市,上鴨川９０１－１,,28,228,6731401,,,,,,,2023-03-06,1,,,,,オカサキケンソウ,0
2362,8140001129370,新規,0,2023-03-06,2023-03-06,Ｐｅａｋ株式会社,,株式会社,兵庫県,尼崎市,東大物町２丁目２番１１号,,28,202,6600828,,,,,,,2023-03-06,1,,,,,ピーク,0
2363,8140001129379,新規,0,2023-03-06,2023-03-06,株式会社Ｔｈｉｒｄ　Ｐｌａｃｅ,,株式会社,兵庫県,神戸市北区,山田町小部字南山２番地４７６,,28,109,6511101,,,,,,,2023-03-06,1,,,,,サードプレイス,0
2364,8140003018786,新規,0,2023-03-06,2023-03-06,合同会社ＭＡコンサルティング,,合同会社,兵庫県,西宮市,上甲子園１丁目１番１０－３０２号,,28,204,6638114,,,,,,,2023-03-06,1,,,,,エムエーコンサルティング,0
2365,8140003018794,新規,0,2023-03-06,2023-03-06,合同会社ＢＲＡＶＯＳ,,合同会社,兵庫県,加古川市,平岡町八反田１１７番地の４プレステージ加古川Ｖ－５０２号,00129650,28,210,6750114,,,,,,,2023-03-06,1,,,,,ブラボス,0
2366,8150003002896,新規,0,2023-03-06,2023-03-06,合同会社ウエストスクエアホールディングス,,合同会社,奈良県,奈良市,東九条町１２６番地の１,,29,201,6308144,,,,,,,2023-03-06,1,,,,,ウエストスクエアホールディングス,0
2367,8160001024859,新規,0,2023-03-06,2023-03-06,株式会社Ｆ・メディカル,,株式会社,滋賀県,草津市,大路１丁目１１－３０,,25,206,5250032,,,,,,,2023-03-06,1,,,,,エフメディカル,0
2368,8160001024867,新規,0,2023-03-06,2023-03-06,株式会社Ｆ・Ｅ・Ｒホールディングス,,株式会社,滋賀県,草津市,笠山５丁目１番５９号,,25,206,5250072,,,,,,,2023-03-06,1,,,,,エフイーアールホールディングス,0
2369,8160003002813,新規,0,2023-03-06,2023-03-06,合同会社Ｔｒｉ‐ＤＥＥＲ,,合同会社,滋賀県,草津市,矢橋町１０５番１号カーサソラッツォ５２１号室,,25,206,5250066,,,,,,,2023-03-06,1,,,,,トライディア,0
2372,8170001017498,新規,0,2023-03-06,2023-03-06,株式会社エムアール,,株式会社,和歌山県,紀の川市,古和田６３６－８,,30,208,6496432,,,,,,,2023-03-06,1,,,,,エムアール,0
2379,8180001155198,新規,0,2023-03-06,2023-03-06,ミヤワキ株式会社,,株式会社,愛知県,名古屋市緑区,桶狭間上の山３３１３番地,,23,114,4580926,,,,,,,2023-03-06,1,,,,,ミヤワキ,0
2382,8180003024905,新規,0,2023-03-06,2023-03-06,合同会社伊藤商事,,合同会社,愛知県,名古屋市北区,大曽根３丁目１７番５号,,23,103,4620825,,,,,,,2023-03-06,1,,,,,イトウショウジ,0
2383,8180003024913,新規,0,2023-03-06,2023-03-06,合同会社ａｐｅｒｔｏ‐ｐｌｕｓ，ＬＬＣ,,合同会社,愛知県,長久手市,蟹原２３０２番地サンハウス長久手７Ｃ,,23,238,4801142,,,,,,,2023-03-06,1,,,,,アペルトプラスエルエルシー,0
2385,8180301037146,新規,0,2023-03-06,2023-03-06,ＡＺＴＥＲＩＯＲ株式会社,,株式会社,愛知県,刈谷市,泉田町城前６３番地１,,23,210,4480004,,,,,,,2023-03-06,1,,,,,アズテリア,0
2386,8190001030202,新規,0,2023-03-06,2023-03-06,高雄株式会社,00129638,株式会社,三重県,四日市市,諏訪栄町２１番６号,,24,202,5100086,,,,,,,2023-03-06,1,,,,,タカオ,0
2390,8210001019250,新規,0,2023-03-06,2023-03-06,株式会社ロイヤルエンターテイメント,,株式会社,福井県,福井市,順化１丁目１５番９号,,18,201,9100023,,,,,,,2023-03-06,1,,,,,ロイヤルエンターテイメント,0
2397,8240001061142,新規,0,2023-03-06,2023-03-06,日山塗装株式会社,,株式会社,広島県,府中市,栗柄町２５４４番地１,,34,208,7260023,,,,,,,2023-03-06,1,,,,,ヒヤマトソウ,0
2398,8240001061150,新規,0,2023-03-06,2023-03-06,株式会社マナビアイ,,株式会社,広島県,福山市,昭和町６番１号福山電業ビル３階,,34,207,7200808,,,,,,,2023-03-06,1,,,,,マナビアイ,0
2399,8240001061167,新規,0,2023-03-06,2023-03-06,株式会社ケイシン,,株式会社,広島県,広島市南区,旭２丁目１４番２７号,,34,103,7340036,,,,,,,2023-03-06,1,,,,,ケイシン,0
2400,8240001061175,新規,0,2023-03-06,2023-03-06,トライ・Ｆシステム株式会社,,株式会社,広島県,広島市安佐南区,東野２丁目２８番５―９０１号,,34,105,7310111,,,,,,,2023-03-06,1,,,,,トライエフシステム,0
2401,8240001061183,新規,0,2023-03-06,2023-03-06,株式会社創妍,,株式会社,広島県,広島市安佐北区,白木町大字井原３５３５番地１,,34,106,7391301,,,,,,,2023-03-06,1,,,,,ソウケン,0
2418,8290001100705,新規,0,2023-03-06,2023-03-06,教育センター株式会社,,株式会社,福岡県,福岡市博多区,博多駅東１丁目１２番５号大島ビル６Ｆ,,40,132,8120013,,,,,,,2023-03-06,1,,,,,キョウイクセンター,0
2419,8290001100738,新規,0,2023-03-06,2023-03-06,株式会社Ｌｏｇｉ　ｍａｔｅ,,株式会社,福岡県,糟屋郡須惠町,大字植木１４２１番地４,,40,344,8112112,,,,,,,2023-03-06,1,,,,,ロジメイト,0
2420,8290003013599,新規,0,2023-03-06,2023-03-06,ＴＹＣ合同会社,,合同会社,福岡県,福岡市博多区,博多駅前１丁目８番７－６１３号室,,40,132,8120011,,,,,,,2023-03-06,1,,,,,ティーワイシー,0
2425,8310001018291,新規,0,2023-03-06,2023-03-06,株式会社クリクラ長崎,,株式会社,長崎県,佐世保市,卸本町２０番１７号,,42,202,8571162,,,,,,,2023-03-06,1,,,,,クリクラナガサキ,0
2426,8320001019594,新規,0,2023-03-06,2023-03-06,株式会社ＴＥＮＴＨ．２ｎｄ,,株式会社,大分県,豊後大野市,千歳町下山８７８番地１,,44,212,8797413,,,,,,,2023-03-06,1,,,,,テンスセカンド,0
2428,8320003004041,新規,0,2023-03-06,2023-03-06,合同会社ヒヤカワ,,合同会社,大分県,日田市,大字日高１５２３番地,,44,204,8770000,,,,,,,2023-03-06,1,,,,,ヒヤカワ,0
2435,8350001018214,新規,0,2023-03-06,2023-03-06,株式会社ジキヤ,,株式会社,宮崎県,都城市,東町９街区７号,,45,202,8850052,,,,,,,2023-03-06,1,,,,,ジキヤ,0
2436,8350001018222,新規,0,2023-03-06,2023-03-06,ＳＴＡＲ　ＴＥＥＴＨ　Ｄｅｎｔａｌ　Ｌａｂ株式会社,,株式会社,宮崎県,宮崎市,神宮２丁目２番８７－２号,,45,201,8800053,,,,,,,2023-03-06,1,,,,,スターティースデンタルラボ,0
2439,8360001031661,新規,0,2023-03-06,2023-03-06,株式会社リリーズホーム,,株式会社,沖縄県,那覇市,真嘉比３丁目７番１５号,,47,201,9020068,,,,,,,2023-03-06,1,,,,,リリーズホーム,0
2441,8360003012775,新規,0,2023-03-06,2023-03-06,合同会社Ｈｏｌｏｍｕａ,,合同会社,沖縄県,沖縄市,大里３丁目１０番２９号－３０１,,47,211,9042163,,,,,,,2023-03-06,1,,,,,ホロムア,0
2444,8380001033524,新規,0,2023-03-06,2023-03-06,株式会社添田農機店,,株式会社,福島県,西白河郡西郷村,大字鶴生字段ノ原１８０番地,,07,461,9618081,,,,,,,2023-03-06,1,,,,,ソエタノウキテン,0
2445,8380001033532,新規,0,2023-03-06,2023-03-06,株式会社笑心,,株式会社,福島県,福島市,森合字清水２番地の７,,07,201,9608003,,,,,,,2023-03-06,1,,,,,エゴコロ,0
2449,8390001017170,新規,0,2023-03-06,2023-03-06,株式会社さのや’ｓ不動産,,株式会社,山形県,天童市,北久野本２丁目７番４６号－２Ｆ,,06,210,9940011,,,,,,,2023-03-06,1,,,,,サノヤズフドウサン,0
2450,8390001017179,新規,0,2023-03-06,2023-03-06,株式会社みらいカンパニー,,株式会社,山形県,最上郡戸沢村,大字蔵岡１３１番地,,06,367,9996402,,,,,,,2023-03-06,1,,,,,ミライカンパニー,0
2458,8430001088521,新規,0,2023-03-06,2023-03-06,株式会社リジエール,,株式会社,北海道,札幌市西区,平和２６８番７７号,,01,107,0630029,,,,,,,2023-03-06,1,,,,,リジエール,0
2459,8430001088546,新規,0,2023-03-06,2023-03-06,株式会社北海道再生医療研究所,,株式会社,北海道,札幌市中央区,南一条西５丁目８番地愛生舘ビル,,01,101,0600061,,,,,,,2023-03-06,1,,,,,ホッカイドウサイセイイリョウケンキュウジョ,0
2460,8430001088554,新規,0,2023-03-06,2023-03-06,株式会社月と太陽,,株式会社,北海道,札幌市中央区,南三条東１丁目３番地アルファ創成川公園ビル１階,,01,101,0600053,,,,,,,2023-03-06,1,,,,,ツキトタイヨウ,0
2461,8430001088562,新規,0,2023-03-06,2023-03-06,株式会社ジオサーベイ,,株式会社,北海道,札幌市東区,北三十四条東８丁目１番１号,,01,103,0070834,,,,,,,2023-03-06,1,,,,,ジオサーベイ,0
2466,8430003014789,新規,0,2023-03-06,2023-03-06,合同会社札幌股関節インプラント研究会,,合同会社,北海道,札幌市中央区,南七条西２４丁目３番１５－８０１号,,01,101,0640807,,,,,,,2023-03-06,1,,,,,サッポロコカンセツインプラントケンキュウカイ,0
2469,8490003001749,新規,0,2023-03-06,2023-03-06,合同会社９０１ｆａｃｔｏｒｙ,,合同会社,高知県,高知市,横浜新町４丁目１９０３番地,,39,201,7810241,,,,,,,2023-03-06,1,,,,,キューマルイチファクトリー,0
2478,9010001233390,新規,0,2023-03-06,2023-03-06,エンタープライズオペレーションシステム株式会社,,株式会社,東京都,千代田区,神田須田町２丁目２３－１天翔秋葉原万世橋ビル６階６０８号室,,13,101,1010041,,,,,,,2023-03-06,1,,,,,エンタープライズオペレーションシステム,0
2479,9010001233416,新規,0,2023-03-06,2023-03-06,日本企業投資基盤株式会社,,株式会社,東京都,千代田区,大手町１丁目２番１号,,13,101,1000004,,,,,,,2023-03-06,1,,,,,ニホンキギョウトウシキバン,0
2480,9010001233440,新規,0,2023-03-06,2023-03-06,ＣａｎｄＹ　ｌｏｇｉｓｔｉｃｓ株式会社,,株式会社,東京都,千代田区,飯田橋４丁目４番９号ダイアパレス飯田橋４１０号室,,13,101,1020072,,,,,,,2023-03-06,1,,,,,キャンディーロジスティクス,0
2481,9010001233457,新規,0,2023-03-06,2023-03-06,株式会社ＳＪＣ,,株式会社,東京都,中央区,銀座１丁目２２番１１号銀座大竹ビジデンス２Ｆ,,13,102,1040061,,,,,,,2023-03-06,1,,,,,エスジェーシー,0
2482,9010003039943,新規,0,2023-03-06,2023-03-06,ＲＢソーラースーズ合同会社,,合同会社,東京都,中央区,八丁堀４丁目２番１０号ＡＯＪ税理士法人内,,13,102,1040032,,,,,,,2023-03-06,1,,,,,アールビーソーラースーズ,0
2483,9010003039951,新規,0,2023-03-06,2023-03-06,合同会社Ｌｉｃｏ,,合同会社,東京都,文京区,本郷１丁目２１番７号,,13,105,1130033,,,,,,,2023-03-06,1,,,,,リコ,0
2484,9010005036328,新規,0,2023-03-06,2023-03-06,一般社団法人西池袋ホールディングス,,その他の設立登記法人,東京都,千代田区,丸の内１丁目６番５号,,13,101,1000005,,,,,,,2023-03-06,1,,,,,ニシイケブクロホールディングス,0
2485,9010005036336,新規,0,2023-03-06,2023-03-06,医療法人社団リエゾン,,その他の設立登記法人,東京都,文京区,本郷１丁目３３番８号ハウス本郷ビル４階,,13,105,1130033,,,,,,,2023-03-06,1,,,,,リエゾン,0
2497,9010401172890,新規,0,2023-03-06,2023-03-06,ＷＡＳＨＩ　ＨＯＵＳＥ株式会社,,株式会社,東京都,港区,六本木３丁目１５－１１－４１０,,13,103,1060032,,,,,,,2023-03-06,1,,,,,ワシハウス,0
2499,9010403029651,新規,0,2023-03-06,2023-03-06,合同会社烏丸松原マネジメント,,合同会社,東京都,港区,虎ノ門１丁目１７番１号,,13,103,1050001,,,,,,,2023-03-06,1,,,,,カラスママツバラマネジメント,0
2502,9010501050105,新規,0,2023-03-06,2023-03-06,株式会社Ｎａｙｕｔａ,,株式会社,東京都,台東区,浅草１丁目３４番４号,,13,106,1110032,,,,,,,2023-03-06,1,,,,,ナユタ,0
2508,9010701043916,新規,0,2023-03-06,2023-03-06,Ｎｏｂｌｅ　Ｓｔａｎｄａｒｄ株式会社,,株式会社,東京都,品川区,上大崎２丁目６番３１号,,13,109,1410021,,,,,,,2023-03-06,1,,,,,ノーブルスタンダード,0
2512,9010805003007,新規,0,2023-03-06,2023-03-06,一般社団法人全国鳥獣害対策協会,,その他の設立登記法人,東京都,大田区,上池台４丁目１番８－２０４号,,13,111,1450064,,,,,,,2023-03-06,1,,,,,ゼンコクチョウジュウガイタイサクキョウカイ,0
2513,9010901052650,新規,0,2023-03-06,2023-03-06,株式会社Ｆｉｎｇｅｒｅ,,株式会社,東京都,世田谷区,代田６丁目２０番２号代田切通し♯３,,13,112,1550033,,,,,,,2023-03-06,1,,,,,フィンジャレ,0
2514,9010901052659,新規,0,2023-03-06,2023-03-06,株式会社カブライブ,,株式会社,東京都,世田谷区,野沢４丁目８番２４号,,13,112,1540003,,,,,,,2023-03-06,1,,,,,カブライブ,0
2517,9010903008015,新規,0,2023-03-06,2023-03-06,ＡＲＫｄｅｓｉｇｎ合同会社,,合同会社,東京都,世田谷区,船橋６丁目２４番８号,,13,112,1560055,,,,,,,2023-03-06,1,,,,,アークデザイン,0
2520,9011001152911,新規,0,2023-03-06,2023-03-06,株式会社Ｃ．０５,,株式会社,東京都,渋谷区,元代々木町４５番１－２２６号,,13,113,1510062,,,,,,,2023-03-06,1,,,,,シーマルゴ,0
2521,9011001152936,新規,0,2023-03-06,2023-03-06,株式会社ＵｎｉＦｅｌｌｏｗ,,株式会社,東京都,渋谷区,千駄ヶ谷２丁目３９番３－３２０号千駄ヶ谷ホリタン,,13,113,1510051,,,,,,,2023-03-06,1,,,,,ユニフェロー,0
2522,9011003016379,新規,0,2023-03-06,2023-03-06,ティータッグプランニング合同会社,,合同会社,東京都,渋谷区,道玄坂１丁目１０番８号渋谷道玄坂東急ビル２Ｆ－Ｃ,,13,113,1500043,,,,,,,2023-03-06,1,,,,,ティータッグプランニング,0
2523,9011005009959,新規,0,2023-03-06,2023-03-06,一般社団法人日本更生保護女性連盟,,その他の設立登記法人,東京都,渋谷区,千駄ヶ谷５丁目１０番９号,,13,113,1510051,,,,,,,2023-03-06,1,,,,,ニホンコウセイホゴジョセイレンメイ,0
2525,9011101102023,新規,0,2023-03-06,2023-03-06,株式会社ＡＱファイナンス,,株式会社,東京都,新宿区,新宿５丁目９番２３号,,13,104,1600022,,,,,,,2023-03-06,1,,,,,エーキューファイナンス,0
2526,9011103012749,新規,0,2023-03-06,2023-03-06,合同会社つくもあ,,合同会社,東京都,新宿区,西新宿３丁目３番１３号西新宿水間ビル２Ｆ,,13,104,1600023,,,,,,,2023-03-06,1,,,,,ツクモア,0
2527,9011105010577,新規,0,2023-03-06,2023-03-06,医療法人社団西新宿サテライトクリニック,,その他の設立登記法人,東京都,新宿区,西新宿６丁目６番２号新宿国際ビルディング地下１階,,13,104,1600023,,,,,,,2023-03-06,1,,,,,ニシシンジュクサテライクリニック,0
2531,9011401024941,新規,0,2023-03-06,2023-03-06,株式会社北原硝子,,株式会社,東京都,板橋区,三園１丁目２番１１号,,13,119,1750091,,,,,,,2023-03-06,1,,,,,キタハラガラス,0
2534,9011503005501,新規,0,2023-03-06,2023-03-06,合同会社Ａｌｔｒｕｎｉｓｔ,,合同会社,東京都,北区,赤羽北２丁目７番１－３０４号,,13,117,1150052,,,,,,,2023-03-06,1,,,,,アルトルニスト,0
2537,9011605002495,新規,0,2023-03-06,2023-03-06,医療法人社団歯貴会,,その他の設立登記法人,東京都,練馬区,土支田２丁目１８番１２号ラ・ソワミヤマ１階,,13,120,1790076,,,,,,,2023-03-06,1,,,,,シキカイ,0
2541,9011803005548,新規,0,2023-03-06,2023-03-06,合同会社ツーストック,,合同会社,東京都,葛飾区,立石２丁目２３番５号ロザール立石４０９,,13,122,1240012,,,,,,,2023-03-06,1,,,,,ツーストック,0
2542,9012401040243,新規,0,2023-03-06,2023-03-06,殖産グループホールディングス株式会社,,株式会社,東京都,武蔵野市,吉祥寺東町１丁目１１番２２号,,13,203,1800002,,,,,,,2023-03-06,1,,,,,ショクサングループホールディングス,0
2546,9012803003021,新規,0,2023-03-06,2023-03-06,合同会社ＹＴＲ,,合同会社,東京都,昭島市,昭和町３丁目１０番２１号,,13,207,1960015,,,,,,,2023-03-06,1,,,,,ワイティーアール,0
2549,9013301050398,新規,0,2023-03-06,2023-03-06,株式会社サムライブロックチェーンゲームズ,,株式会社,東京都,豊島区,池袋２丁目４７番６号第２オンダビル９階,,13,116,1710014,,,,,,,2023-03-06,1,,,,,サムライブロックチェーンゲームズ,0
2550,9013301050407,新規,0,2023-03-06,2023-03-06,株式会社Ｅｕｒｅｋａ,,株式会社,東京都,豊島区,西池袋４丁目１５番１号－１０１,,13,116,1710021,,,,,,,2023-03-06,1,,,,,エウレカ,0
2555,9020001150494,新規,0,2023-03-06,2023-03-06,株式会社Ｇｌｏｂａｌ　Ｋｉｔｃｈｅｎ,,株式会社,神奈川県,横浜市保土ケ谷区,権太坂１丁目１６番２１号,,14,106,2400026,,,,,,,2023-03-06,1,,,,,グローバルキッチン,0
2556,9020001150503,新規,0,2023-03-06,2023-03-06,株式会社フール,,株式会社,神奈川県,横浜市青葉区,さつきが丘２３番地１ＫＭＹビル１０２,,14,117,2270053,,,,,,,2023-03-06,1,,,,,フール,0
2557,9020001150528,新規,0,2023-03-06,2023-03-06,Ｈａｒｍｏｎｙ株式会社,,株式会社,神奈川県,横浜市港北区,綱島東６丁目１１番３０号,,14,109,2230052,,,,,,,2023-03-06,1,,,,,ハーモニー,0
2558,9020001150536,新規,0,2023-03-06,2023-03-06,株式会社ＢＬＥＳＳ,,株式会社,神奈川県,横浜市港南区,大久保２丁目２１番２２－３０４号,,14,111,2330007,,,,,,,2023-03-06,1,,,,,ブレス,0
2559,9020001150544,新規,0,2023-03-06,2023-03-06,エスキャピタル株式会社,,株式会社,神奈川県,川崎市麻生区,万福寺５丁目１５番１６号,,14,137,2150004,,,,,,,2023-03-06,1,,,,,エスキャピタル,0
2560,9020001150552,新規,0,2023-03-06,2023-03-06,株式会社メイク・ケア,,株式会社,神奈川県,川崎市中原区,下新城１丁目９番１３号１０１号室,,14,133,2110042,,,,,,,2023-03-06,1,,,,,メイクケア,0
2565,9020003023426,新規,0,2023-03-06,2023-03-06,合同会社ｅｍｐａｌｅｔｔｅ,,合同会社,神奈川県,横浜市西区,浅間町１丁目４番地３,,14,103,2200072,,,,,,,2023-03-06,1,,,,,エンパレット,0
2566,9020003023442,新規,0,2023-03-06,2023-03-06,ミアータ倶楽部合同会社,,合同会社,神奈川県,横浜市港南区,港南台６丁目３７－８－３,,14,111,2340054,,,,,,,2023-03-06,1,,,,,ミアータクラブ,0
2567,9020003023450,新規,0,2023-03-06,2023-03-06,合同会社Ａカンパニー,,合同会社,神奈川県,横浜市都筑区,牛久保西３丁目２番７号,,14,118,2240015,,,,,,,2023-03-06,1,,,,,エイカンパニー,0
2568,9021001078346,新規,0,2023-03-06,2023-03-06,株式会社アクエス,,株式会社,神奈川県,茅ヶ崎市,中島１２７番地１,,14,207,2530073,,,,,,,2023-03-06,1,,,,,アクエス,0
2571,9021003012831,新規,0,2023-03-06,2023-03-06,合同会社ＴＯＹ　ＦＯＯＴ,,合同会社,神奈川県,厚木市,猿ケ島１７４番地５号,,14,212,2430802,,,,,,,2023-03-06,1,,,,,トイフット,0
2574,9030001152655,新規,0,2023-03-06,2023-03-06,森田設備工業株式会社,,株式会社,埼玉県,所沢市,大字中富１２２１番地,,11,208,3590002,,,,,,,2023-03-06,1,,,,,モリタセツビコウギョウ,0
2575,9030001152688,新規,0,2023-03-06,2023-03-06,株式会社Ｅ‐ｓｔ,,株式会社,埼玉県,さいたま市中央区,桜丘２丁目２番３号,,11,105,3380005,,,,,,,2023-03-06,1,,,,,イースト,0
2576,9030001152705,新規,0,2023-03-06,2023-03-06,株式会社セゴテック,,株式会社,埼玉県,春日部市,南１丁目１－７ふれあいキューブ５Ｆ創業支援ルームＣ－２,,11,214,3440064,,,,,,,2023-03-06,1,,,,,セゴテック,0
2580,9030003021321,新規,0,2023-03-06,2023-03-06,合同会社仁,,合同会社,埼玉県,鶴ヶ島市,大字脚折１４７８番地１５－１０６号,,11,241,3502213,,,,,,,2023-03-06,1,,,,,ニン,0
2584,9040001127292,新規,0,2023-03-06,2023-03-06,秋桜電気株式会社,,株式会社,千葉県,木更津市,請西１丁目２０番６号,,12,206,2920801,,,,,,,2023-03-06,1,,,,,コスモスデンキ,0
2585,9040001127301,新規,0,2023-03-06,2023-03-06,ＥＳＴＥＬＬＡ株式会社,,株式会社,千葉県,松戸市,小金原５丁目２０番地の９,,12,207,2700021,,,,,,,2023-03-06,1,,,,,ステラ,0
2586,9040001127326,新規,0,2023-03-06,2023-03-06,株式会社とは,,株式会社,千葉県,千葉市稲毛区,萩台町３８３番地１グランコートＩＩ番館３０２号,00129633,12,103,2630012,,,,,,,2023-03-06,1,,,,,トハ,0
2587,9040001127334,新規,0,2023-03-06,2023-03-06,株式会社ＡＳＯＢＩ,,株式会社,千葉県,千葉市花見川区,幕張町５丁目４６５番地１,,12,102,2620032,,,,,,,2023-03-06,1,,,,,アソビ,0
2588,9040001127350,新規,0,2023-03-06,2023-03-06,飛燕物流株式会社,,株式会社,千葉県,千葉市緑区,越智町１７０１番地３８３,,12,105,2670055,,,,,,,2023-03-06,1,,,,,ヒエンブツリュウ,0
2589,9040001127367,新規,0,2023-03-06,2023-03-06,株式会社Ｒｅｏ,,株式会社,千葉県,流山市,おおたかの森南３丁目２番地の４サンセゾンＴ棟１０２,,12,220,2700139,,,,,,,2023-03-06,1,,,,,レオ,0
2593,9050005013216,新規,0,2023-03-06,2023-03-06,一般社団法人茨城県央腎臓病地域連携協議会,,その他の設立登記法人,茨城県,水戸市,酒門町２７５番３,,08,201,3100841,,,,,,,2023-03-06,1,,,,,イバラキケンオウジンゾウビョウチイキレンケイキョウギカイ,0
2596,9060001035758,新規,0,2023-03-06,2023-03-06,株式会社山本設備,,株式会社,栃木県,宇都宮市,下栗町６９４番地３９,,09,201,3210923,,,,,,,2023-03-06,1,,,,,ヤマモトセツビ,0
2599,9060005010055,新規,0,2023-03-06,2023-03-06,一般社団法人おらが村とちぎ,,その他の設立登記法人,栃木県,宇都宮市,岩曽町９２６番地３,,09,201,3210973,,,,,,,2023-03-06,1,,,,,オラガムラトチギ,0
2601,9080101023834,新規,0,2023-03-06,2023-03-06,ＳｈｉｚｕｏｋａＡｌｌｉａｎｃｅ株式会社,,株式会社,静岡県,富士宮市,宮原３７７番地の１,,22,207,4180005,,,,,,,2023-03-06,1,,,,,シズオカアライアンス,0
2613,9080403004739,新規,0,2023-03-06,2023-03-06,合同会社ハッピーヘルス・ラボ,,合同会社,静岡県,掛川市,南２丁目１２番５号サンメモリーＩＩー１０１,00129645,22,213,4360029,,,,,,,2023-03-06,1,,,,,ハッピーヘルスラボ,0
2614,9090003002266,新規,0,2023-03-06,2023-03-06,合同会社センヨフーズ,,合同会社,山梨県,甲府市,下石田２丁目１４番８号,,19,201,4000046,,,,,,,2023-03-06,1,,,,,センヨフーズ,0
2616,9110001037344,新規,0,2023-03-06,2023-03-06,株式会社トレビアン,,株式会社,新潟県,新潟市北区,葛塚３０５５番地３０,,15,101,9503321,,,,,,,2023-03-06,1,,,,,トレビアン,0
2626,9120001252859,新規,0,2023-03-06,2023-03-06,株式会社アドイディアル,,株式会社,大阪府,大阪市西区,西本町１丁目１３番３８号西本町新興産ビル７０６,,27,106,5500005,,,,,,,2023-03-06,1,,,,,アドイディアル,0
2627,9120001252867,新規,0,2023-03-06,2023-03-06,株式会社グリームワークス,,株式会社,大阪府,大阪市東淀川区,西淡路２丁目１６番４号,,27,114,5330031,,,,,,,2023-03-06,1,,,,,グリームワークス,0
2628,9120001252891,新規,0,2023-03-06,2023-03-06,株式会社セピアジャパン,,株式会社,大阪府,大阪市中央区,久太郎町１丁目５番３１号リアライズ堺筋本町ビル３０４号,,27,128,5410056,,,,,,,2023-03-06,1,,,,,セピアジャパン,0
2629,9120001252909,新規,0,2023-03-06,2023-03-06,株式会社ドコデモどあ,,株式会社,大阪府,大阪市中央区,伏見町２丁目２番１０号谷ビル５階,,27,128,5410044,,,,,,,2023-03-06,1,,,,,ドコデモドア,0
2630,9120001252917,新規,0,2023-03-06,2023-03-06,ベジパーク株式会社,,株式会社,大阪府,大阪市阿倍野区,松崎町４丁目２番４号（１Ｆ）,,27,119,5450053,,,,,,,2023-03-06,1,,,,,ベジパーク,0
2631,9120001252958,新規,0,2023-03-06,2023-03-06,株式会社栄宝エステート,,株式会社,大阪府,大阪市中央区,島之内１丁目２１番２３－４０４号室,,27,128,5420082,,,,,,,2023-03-06,1,,,,,ホウエイエステート,0
2632,9120001252982,新規,0,2023-03-06,2023-03-06,株式会社ＦＯＲ．,,株式会社,大阪府,守口市,佐太東町１丁目４３番１７号,,27,209,5700017,,,,,,,2023-03-06,1,,,,,エフオーアール,0
2637,9120003023523,新規,0,2023-03-06,2023-03-06,合同会社ＤＡＩＬＹＣＯＰ,,合同会社,大阪府,大阪市西成区,花園南１丁目７番２１号ＪＰＭＥＴＲＯ花園町１階４０２Ｂ号,,27,122,5570015,,,,,,,2023-03-06,1,,,,,ダイリコップ,0
2638,9120003023531,新規,0,2023-03-06,2023-03-06,合同会社草の縁,,合同会社,大阪府,大阪市中央区,安堂寺町２丁目１番１０号,,27,128,5420061,,,,,,,2023-03-06,1,,,,,クサノユカリ,0
2639,9120005023505,新規,0,2023-03-06,2023-03-06,一般社団法人ｍｉｎｉ　ｌｉｇｈｔ　Ｍｏｌｋｋｙ協会,,その他の設立登記法人,大阪府,大阪市天王寺区,東高津町５番１７号新聞印刷本社ビル４階,,27,109,5430021,,,,,,,2023-03-06,1,,,,,ミニライトモルックキョウカイ,0
2640,9120101067067,新規,0,2023-03-06,2023-03-06,株式会社ニッショウテック,,株式会社,大阪府,堺市北区,野遠町６１５番地７,,27,146,5918013,,,,,,,2023-03-06,1,,,,,ニッショウテック,0
2641,9120101067075,新規,0,2023-03-06,2023-03-06,株式会社ＨＯＮＥＳＴ,,株式会社,大阪府,泉南郡熊取町,朝代西３丁目１１４６－１０９,,27,361,5900458,,,,,,,2023-03-06,1,,,,,アーネスト,0
2642,9120101067091,新規,0,2023-03-06,2023-03-06,株式会社ＯＦＦＥＲ,,株式会社,大阪府,松原市,天美西５丁目１３９－１,,27,217,5800034,,,,,,,2023-03-06,1,,,,,オファー,0
2643,9120101067100,新規,0,2023-03-06,2023-03-06,株式会社Ａ‐ＬＩＦＥ,,株式会社,大阪府,堺市美原区,黒山７１３番地１,,27,147,5870002,,,,,,,2023-03-06,1,,,,,アライフ,0
2644,9120103005099,新規,0,2023-03-06,2023-03-06,癒健心合同会社,,合同会社,大阪府,河内長野市,南花台３丁目３番２７－１０１号,,27,216,5860077,,,,,,,2023-03-06,1,,,,,ユケンシン,0
2648,9130001073759,新規,0,2023-03-06,2023-03-06,東山株式会社,,株式会社,京都府,京都市中京区,御倉町７５三条両替町ビル４Ｆ,,26,104,6048166,,,,,,,2023-03-06,1,,,,,トウザン,0
2649,9130003008564,新規,0,2023-03-06,2023-03-06,合同会社ＷｉＺ,,合同会社,京都府,宇治市,広野町宮谷７５番地の１ガーデンハイツ広野１０５,,26,204,6110031,,,,,,,2023-03-06,1,,,,,ウィズ,0
2656,9140001129287,新規,0,2023-03-06,2023-03-06,株式会社コダマロ,,株式会社,兵庫県,姫路市,広畑区大町１丁目４３番地１,,28,201,6711155,,,,,,,2023-03-06,1,,,,,コダマロ,0
2657,9140001129353,新規,0,2023-03-06,2023-03-06,株式会社神戸新聞和田新聞舗,,株式会社,兵庫県,姫路市,広畑区小松町１丁目５１番地,,28,201,6711152,,,,,,,2023-03-06,1,,,,,コウベシンブンワダシンブンホ,0
2660,9160001024858,新規,0,2023-03-06,2023-03-06,優芽の土株式会社,,株式会社,滋賀県,野洲市,永原６５１番地,,25,210,5202304,,,,,,,2023-03-06,1,,,,,ユメノト,0
2661,9160001024866,新規,0,2023-03-06,2023-03-06,ＳＱ．Ｒｏｏｔ株式会社,,株式会社,滋賀県,彦根市,野田山町１０６４番地６,,25,202,5220025,,,,,,,2023-03-06,1,,,,,エスキュールート,0
2666,9180001155222,新規,0,2023-03-06,2023-03-06,株式会社ｔａｋｅ,,株式会社,愛知県,一宮市,萩原町戸苅字南河原６１０番地１,,23,203,4910375,,,,,,,2023-03-06,1,,,,,テイク,0
2667,9180001155239,新規,0,2023-03-06,2023-03-06,株式会社Ｃ＆Ｃカンパニー,,株式会社,愛知県,一宮市,神山１丁目６番１６－４０３藤和シティコープ神山,,23,203,4910904,,,,,,,2023-03-06,1,,,,,シーアンドシーカンパニー,0
2673,9180301037153,新規,0,2023-03-06,2023-03-06,株式会社ｏｆｆｉｃｅ　ＴＡＴＡ,,株式会社,愛知県,岡崎市,美合町字本郷２９０番地,,23,202,4440802,,,,,,,2023-03-06,1,,,,,オフィスタタ,0
2679,9200003005884,新規,0,2023-03-06,2023-03-06,ＭＹＳ　Ｐａｒｔｎｅｒｓ合同会社,,合同会社,岐阜県,大垣市,上面２丁目５４番地１,,21,202,5030817,,,,,,,2023-03-06,1,,,,,エムワイエスパートナーズ,0
2680,9210005010080,新規,0,2023-03-06,2023-03-06,一般社団法人福井市造園業会,,その他の設立登記法人,福井県,福井市,和田東１丁目１６０４番地,,18,201,9188237,,,,,,,2023-03-06,1,,,,,フクイシゾウエンギョウカイ,0
2686,9240001061158,新規,0,2023-03-06,2023-03-06,株式会社かみたや,,株式会社,広島県,広島市東区,中山新町１丁目５番７号,,34,102,7320021,,,,,,,2023-03-06,1,,,,,カミタヤ,0
2687,9240001061174,新規,0,2023-03-06,2023-03-06,株式会社Ｔ’ｓ　ＣＲＥＡＴＥ,,株式会社,広島県,広島市安佐北区,大林１丁目５番７号,,34,106,7310201,,,,,,,2023-03-06,1,,,,,,0
2688,9240001061182,新規,0,2023-03-06,2023-03-06,株式会社本田企画,,株式会社,広島県,広島市東区,若草町３番２１‐２０４号,,34,102,7320053,,,,,,,2023-03-06,1,,,,,ホンダキカク,0
2692,9250001019989,新規,0,2023-03-06,2023-03-06,株式会社ビージーリース,,株式会社,山口県,宇部市,明治町２丁目３番２０号,,35,202,7550013,,,,,,,2023-03-06,1,,,,,ビージーリース,0
2694,9260001037676,新規,0,2023-03-06,2023-03-06,株式会社ＣＯＮＮＥＸＩＯ,,株式会社,岡山県,岡山市北区,撫川１０３２,,33,101,7010164,,,,,,,2023-03-06,1,,,,,コネクシオ,0
2695,9260003004220,新規,0,2023-03-06,2023-03-06,ＬＩＢＥＲＴＹ　ＢＬＡＳＴ合同会社,,合同会社,岡山県,岡山市北区,問屋町９番地１０１タイルビル３Ｆ,,33,101,7000977,,,,,,,2023-03-06,1,,,,,リバティブラスト,0
2697,9270001004931,新規,0,2023-03-06,2023-03-06,株式会社創建,,株式会社,鳥取県,東伯郡北栄町,西園４９３番地１,,31,372,6892201,,,,,,,2023-03-06,1,,,,,ソウケン,0
2698,9270001008734,新規,0,2023-03-06,2023-03-06,ａｋ株式会社,,株式会社,鳥取県,岩美郡岩美町,大字岩本４１９番地１,,31,302,6810072,,,,,,,2023-03-06,1,,,,,エーケー,0
2705,9290001100687,新規,0,2023-03-06,2023-03-06,株式会社ＭＰＣ,,株式会社,福岡県,久留米市,山川野口町１２番地４１,,40,203,8390816,,,,,,,2023-03-06,1,,,,,エムピーシー,0
2706,9290001100695,新規,0,2023-03-06,2023-03-06,タケソウ株式会社,,株式会社,福岡県,宗像市,青葉台２丁目２５番地５号,,40,220,8114162,,,,,,,2023-03-06,1,,,,,タケソウ,0
2708,9290803004359,新規,0,2023-03-06,2023-03-06,デザインエンジニアリングシステム合同会社,,合同会社,福岡県,田川郡福智町,赤池１０１７番地１５９,,40,610,8221101,,,,,,,2023-03-06,1,,,,,デザインエンジニアリングシステム,0
2709,9310001018299,新規,0,2023-03-06,2023-03-06,株式会社デジタル＆エンターテイメントワークス,,株式会社,長崎県,西海市,大瀬戸町瀬戸樫浦郷２２６０番地,,42,212,8572302,,,,,,,2023-03-06,1,,,,,デジタルアンドエンターテイメントワークス,0
2710,9320003004040,新規,0,2023-03-06,2023-03-06,合同会社Ｓｏｌｖｅ．ＬＬＣ,,合同会社,大分県,中津市,大字東浜６９７番地１　１Ｆ,,44,203,8710006,,,,,,,2023-03-06,1,,,,,ソルヴエルエルシー,0
2711,9330001030657,新規,0,2023-03-06,2023-03-06,株式会社かとう塗装,,株式会社,熊本県,熊本市北区,武蔵ケ丘１丁目２番３０号１Ｆ,,43,105,8618001,,,,,,,2023-03-06,1,,,,,カトウトソウ,0
2715,9340005009564,新規,0,2023-03-06,2023-03-06,医療法人新牧医院,,その他の設立登記法人,鹿児島県,鹿児島市,吉野町３０７３番地１４７,,46,201,8920871,,,,,,,2023-03-06,1,,,,,シンマキイイン,0
2717,9360001031644,新規,0,2023-03-06,2023-03-06,株式会社ＰＩＣＣＡＬＩＮＡ,,株式会社,沖縄県,那覇市,金城２丁目１８番７号,,47,201,9010155,,,,,,,2023-03-06,1,,,,,ピッカリーナ,0
2718,9360003012774,新規,0,2023-03-06,2023-03-06,合同会社ＯＮＥ　ＯＦ　ＯＮＥ,,合同会社,沖縄県,糸満市,字与座１６１番地の４,,47,210,9010322,,,,,,,2023-03-06,1,,,,,ワンオブワン,0
2719,9360005006790,新規,0,2023-03-06,2023-03-06,みやこ地域づくり協同組合,,その他の設立登記法人,沖縄県,宮古島市,下地字上地４７２番地３９、２階,,47,214,9060304,,,,,,,2023-03-06,1,,,,,ミヤコチイキヅクリ,0
2720,9370001049652,新規,0,2023-03-06,2023-03-06,株式会社Ｗｏｒｌｄ　ｒｅｌａｔｉｏｎ,,株式会社,宮城県,登米市,迫町佐沼字西舘下１４２番地,,04,212,9870511,,,,,,,2023-03-06,1,,,,,ワールドリレーション,0
2721,9370001049677,新規,0,2023-03-06,2023-03-06,ライトハーツ株式会社,,株式会社,宮城県,仙台市青葉区,国見ケ丘５丁目３７番１６号,,04,101,9893201,,,,,,,2023-03-06,1,,,,,ライトハーツ,0
2731,9420001018172,新規,0,2023-03-06,2023-03-06,株式会社ＭＫビルドプロダクツ,,株式会社,青森県,八戸市,柏崎６丁目１７番１５号,,02,203,0310081,,,,,,,2023-03-06,1,,,,,エムケービルドプロダクツ,0
2734,9430001088553,新規,0,2023-03-06,2023-03-06,株式会社ＦＡＲＭＩＸ,,株式会社,北海道,美唄市,字光珠内５３３番地（光珠内町南）,,01,215,0720000,,,,,,,2023-03-06,1,,,,,ファミックス,0
2736,9460101007344,新規,0,2023-03-06,2023-03-06,株式会社まぁんま,,株式会社,北海道,帯広市,新町東１２丁目１７番地,,01,207,0800052,,,,,,,2023-03-06,1,,,,,マァンマ,0
2737,9470001019496,新規,0,2023-03-06,2023-03-06,株式会社ＨＯＲＩＺＯＮ,,株式会社,香川県,観音寺市,粟井町１７６３番地,,37,205,7680052,,,,,,,2023-03-06,1,,,,,ホライズン,0
2738,9470001019505,新規,0,2023-03-06,2023-03-06,株式会社Ａｌｉｖｅ　Ａｓｓｅｔｓ　Ｍａｎａｇｅｍｅｎｔ,,株式会社,香川県,高松市,元山町６１９番地１０,,37,201,7610311,,,,,,,2023-03-06,1,,,,,アライブアセットマネジメント,0
2746,9700150113051,新規,0,2023-03-06,2022-11-29,Ｋａｋｕｒｉｙｏ男子企画,,その他,東京都,練馬区,小竹町１丁目５３－１ビビエル江古田３０１,,13,120,1760004,,,,,,,2022-11-29,1,,,,,カクリヨダンシキカク,0
2747,9700150114082,新規,0,2023-03-06,2023-02-01,サイバー犯罪に関する白浜シンポジウム実行委員会,,その他,和歌山県,田辺市,新庄町３３５３－９（Ｂｉｇ－Ｕ内）,,30,206,6460011,,,,,,,2023-02-01,1,,,,,サイバーハンザイニカンスルシラハマシンポジウムジツコウイインカイ,0
