sequenceNumber,corporateNumber,process,correct,updateDate,changeDate,name,nameImageId,kind,prefectureName,cityName,streetNumber,addressImageId,prefectureCode,cityCode,postCode,addressOutside,addressOutsideImageId,closeDate,closeCause,successorCorporateNumber,changeCause,assignmentDate,latest,enName,enPrefectureName,enCityName,enAddressOutside,furigana,hihyoji
9,1010401007030,登記記録の閉鎖等,0,2024-06-24,2024-06-11,海外通商株式会社,,株式会社,東京都,港区,新橋２丁目１９番２号,,13,103,1050004,,,2024-06-11,清算の結了等,,,2015-10-05,1,,,,,カイガイツウショウ,0
12,1010401159755,登記記録の閉鎖等,0,2024-06-24,2024-06-10,Ｌｏｖｅｂｏｎｉｔｏ　Ｊａｐａｎ株式会社,,株式会社,東京都,渋谷区,渋谷３丁目１２番１８号渋谷南東急ビル５階,,13,113,1500002,,,2024-06-10,清算の結了等,,,2021-04-22,1,,,,,ラブボニートジャパン,0
27,1010901051164,登記記録の閉鎖等,0,2024-06-24,2024-06-18,Ｖｏｙａｇｅｒ　Ｊａｐａｎ株式会社,,株式会社,東京都,世田谷区,若林３丁目１番１８号,,13,112,1540023,,,2024-06-18,清算の結了等,,,2022-07-06,1,,,,,ボイジャージャパン,0
31,1011001099929,登記記録の閉鎖等,0,2024-06-24,2024-06-18,嘉隆株式会社,,株式会社,埼玉県,川口市,西川口３丁目２番１４－９０３号スタジオデン西川口,,11,203,3320021,,,2024-06-18,清算の結了等,,,2015-10-05,1,,,,,カリュウ,0
66,1011801025134,登記記録の閉鎖等,0,2024-06-24,2024-06-19,株式会社中原トラスト,,株式会社,東京都,葛飾区,立石８丁目１８番２号,,13,122,1240012,,,2024-06-19,清算の結了等,,,2015-10-05,1,,,,,ナカハラトラスト,0
77,1021001024258,登記記録の閉鎖等,0,2024-06-24,2024-06-20,みどり流通株式会社,,株式会社,神奈川県,相模原市緑区,大島１００２番地,,14,151,2520135,,,2024-06-20,清算の結了等,,,2015-10-05,1,,,,,ミドリリュウツウ,0
82,1021002008920,登記記録の閉鎖等,0,2024-06-24,2024-06-19,株式会社虹エンタープライズ,,株式会社,神奈川県,藤沢市,鵠沼１５８９番地の１４鵠沼ローゼンハイム１０２,00129247,14,205,2510022,,,2024-06-19,清算の結了等,,,2015-10-05,1,,,,,ニジエンタープライズ,0
83,1021003004885,登記記録の閉鎖等,0,2024-06-24,2024-06-20,合同会社佐々木デンタルシステム,,合同会社,神奈川県,鎌倉市,七里ガ浜東２丁目１２番６号,,14,204,2480025,,,2024-06-20,清算の結了等,,,2015-10-05,1,,,,,ササキデンタルシステム,0
87,1030002085507,登記記録の閉鎖等,0,2024-06-24,2024-06-18,有限会社柏崎工業,00017245,有限会社,埼玉県,越谷市,大字大里５４番地９,,11,222,3430031,,,2024-06-18,清算の結了等,,,2015-10-05,1,,,,,,0
100,1050001007971,登記記録の閉鎖等,0,2024-06-24,2024-06-19,古賀建設株式会社,,株式会社,茨城県,笠間市,旭町２２７番地の１０,,08,216,3091717,,,2024-06-19,清算の結了等,,,2015-10-05,1,,,,,コガケンセツ,0
105,1050002029486,登記記録の閉鎖等,0,2024-06-24,2024-06-18,有限会社秀栄ハウジング,,有限会社,茨城県,鉾田市,下冨田９３２番地２５,,08,234,3111533,,,2024-06-18,清算の結了等,,,2015-10-05,1,,,,,シュウエイハウジング,0
115,1090001000700,登記記録の閉鎖等,0,2024-06-24,2024-06-18,光栄ホームシステム株式会社,,株式会社,山梨県,甲府市,善光寺１丁目２８番２５号,,19,201,4000806,,,2024-06-18,清算の結了等,,,2015-10-05,1,,,,,コーエイホームシステム,0
119,1110001002256,登記記録の閉鎖等,0,2024-06-24,2024-06-17,佐野繊維商事株式会社,,株式会社,新潟県,新潟市東区,海老ケ瀬９９６番地,,15,102,9500806,,,2024-06-17,清算の結了等,,,2015-10-05,1,,,,,サノセンイショウジ,0
148,1140001022672,登記記録の閉鎖等,0,2024-06-24,2024-06-17,株式会社北斗Ｔｅｃｈｎｏｓ,,株式会社,兵庫県,宝塚市,湯本町１０番４５－４０２号,,28,214,6650003,,,2024-06-17,清算の結了等,,,2015-10-05,1,,,,,ホクトテクノス,0
172,1220002015238,登記記録の閉鎖等,0,2024-06-24,2024-06-19,有限会社平野洋装店,,有限会社,石川県,羽咋市,旭町ア２１２番地１,,17,207,9250034,,,2024-06-19,清算の結了等,,,2015-10-05,1,,,,,ヒラノヨウソウテン,0
181,1250005002321,登記記録の閉鎖等,0,2024-06-24,2024-06-20,医療法人社団光栄会,,その他の設立登記法人,山口県,山陽小野田市,高栄１丁目２番１０号,,35,216,7560815,,,2024-06-20,清算の結了等,,,2015-10-05,1,,,,,コウエイカイ,0
194,1290801023038,登記記録の閉鎖等,0,2024-06-24,2024-06-19,株式会社七色農業,,株式会社,福岡県,遠賀郡岡垣町,大字波津４４５番地,,40,383,8114201,,,2024-06-19,清算の結了等,,,2016-11-15,1,,,,,ナナイロノウギョウ,0
198,1330002008998,登記記録の閉鎖等,0,2024-06-24,2024-06-17,福島運送有限会社,,有限会社,熊本県,熊本市東区,錦ケ丘１１番２３号,,43,102,8620912,,,2024-06-17,清算の結了等,,,2015-10-05,1,,,,,フクシマウンソウ,0
214,1370002016700,登記記録の閉鎖等,0,2024-06-24,2024-06-13,有限会社イーシップ,,有限会社,宮城県,仙台市泉区,寺岡１丁目２５番地の１エバーグリーンシティ寺岡１１１８,,04,105,9813204,,,2024-06-13,清算の結了等,,,2015-10-05,1,,,,,イーシップ,0
220,1380001033489,登記記録の閉鎖等,0,2024-06-24,2024-06-14,株式会社フレッシュファームＯＫ,,株式会社,福島県,相馬市,塚ノ町１丁目１番地の７Ｃ－１０４,,07,209,9760015,,,2024-06-14,清算の結了等,,,2023-02-20,1,,,,,フレッシュファームオーケー,0
232,1420005004300,登記記録の閉鎖等,0,2024-06-24,2024-06-14,医療法人浩和会,,その他の設立登記法人,青森県,弘前市,大字一町田字早稲田７７１番地１,,02,202,0361325,,,2024-06-14,清算の結了等,,,2015-10-05,1,,,,,コウワカイ,0
236,1430001064355,登記記録の閉鎖等,0,2024-06-24,2024-06-19,株式会社セクトコーポレーション,,株式会社,北海道,札幌市中央区,北三条東５丁目５番地岩佐ビル３階３２２号,,01,101,0600033,,,2024-06-19,清算の結了等,,,2015-10-05,1,,,,,セクトコーポレーション,0
244,1470001015057,登記記録の閉鎖等,0,2024-06-24,2024-06-18,株式会社ＤＮＡ,,株式会社,香川県,高松市,中野町２４番地１５,,37,201,7600008,,,2024-06-18,清算の結了等,,,2015-10-05,1,,,,,ディーエヌエー,0
267,2010401122398,登記記録の閉鎖等,0,2024-06-24,2024-06-10,株式会社アクアリベルタ,,株式会社,東京都,港区,西麻布１丁目１４番５号永都ビル西麻布３０３号,,13,103,1060031,,,2024-06-10,清算の結了等,,,2016-01-08,1,,,,,アクアリベルタ,0
268,2010401151629,登記記録の閉鎖等,0,2024-06-24,2024-06-11,ディーマンプラス株式会社,,株式会社,東京都,目黒区,目黒３丁目５番１２号ザ・レジデンス目黒３０２,,13,110,1530063,,,2024-06-11,清算の結了等,,,2020-03-12,1,,,,,ディーマンプラス,0
272,2010403009404,登記記録の閉鎖等,0,2024-06-24,2024-06-11,シタディーン京都五条合同会社,,合同会社,東京都,千代田区,丸の内２丁目２番３号丸の内仲通りビル６階,,13,101,1000005,,,2024-06-11,清算の結了等,,,2015-10-05,1,,,,,シタディーンキョウトゴジョウ,0
276,2010601049326,登記記録の閉鎖等,0,2024-06-24,2024-06-06,株式会社Ｋ・Ｎエージェント,,株式会社,東京都,江東区,東陽１丁目９番２号,,13,108,1350016,,,2024-06-06,清算の結了等,,,2016-03-04,1,,,,,ケイエヌエージェント,0
281,2010903006207,登記記録の閉鎖等,0,2024-06-24,2024-06-21,アポテカ合同会社,,合同会社,神奈川県,茅ヶ崎市,東海岸北３丁目２番２４－６号,,14,207,2530053,,,2024-06-21,清算の結了等,,,2021-01-13,1,,,,,アポテカ,0
292,2011001123885,登記記録の閉鎖等,0,2024-06-24,2024-06-07,株式会社サニタイズ,,株式会社,東京都,渋谷区,渋谷１丁目１７番２号,,13,113,1500002,,,2024-06-07,清算の結了等,,,2018-08-27,1,,,,,サニタイズ,0
297,2011002023977,登記記録の閉鎖等,0,2024-06-24,2024-06-11,有限会社ベルナー,,有限会社,東京都,渋谷区,鉢山町６－４,,13,113,1500035,,,2024-06-11,清算の結了等,,,2015-10-05,1,,,,,ベルナー,0
312,2012302003611,登記記録の閉鎖等,0,2024-06-24,2024-06-19,ニッシン和田有限会社,,有限会社,東京都,町田市,金森１丁目５番８号,,13,209,1940012,,,2024-06-19,清算の結了等,,,2015-10-05,1,,,,,ニッシンワダ,0
317,2013302002454,登記記録の閉鎖等,0,2024-06-24,2024-06-17,有限会社オダ商店,,有限会社,東京都,豊島区,要町１丁目１７番８号,,13,116,1710043,,,2024-06-17,清算の結了等,,,2015-10-05,1,,,,,,0
326,2021001063916,登記記録の閉鎖等,0,2024-06-24,2024-06-10,株式会社マイフェイバリットパート,,株式会社,東京都,港区,南青山２丁目１１番１４号,,13,103,1070062,,,2024-06-10,清算の結了等,,,2018-01-12,1,,,,,マイフェイバリットパート,0
338,2030002001256,登記記録の閉鎖等,0,2024-06-24,2024-06-19,有限会社入江企画,,有限会社,埼玉県,さいたま市浦和区,上木崎１丁目１０番１５号,,11,107,3300071,,,2024-06-19,清算の結了等,,,2015-10-05,1,,,,,イリエキカク,0
342,2030003011709,登記記録の閉鎖等,0,2024-06-24,2024-06-17,フラン合同会社,,合同会社,埼玉県,志木市,柏町５丁目８番４８号,,11,228,3530007,,,2024-06-17,清算の結了等,,,2018-04-06,1,,,,,フラン,0
360,2050001020429,登記記録の閉鎖等,0,2024-06-24,2024-06-18,株式会社伊藤金物店,,株式会社,茨城県,神栖市,大野原２丁目３０番３２号,,08,232,3140144,,,2024-06-18,清算の結了等,,,2015-10-05,1,,,,,イトウカナモノテン,0
363,2050003002417,登記記録の閉鎖等,0,2024-06-24,2024-06-19,合同会社ジルコテクノロジー,,合同会社,茨城県,水戸市,元吉田町１３６０番地の３,,08,201,3100836,,,2024-06-19,清算の結了等,,,2015-10-05,1,,,,,ジルコテクノロジー,0
373,2070003001227,登記記録の閉鎖等,0,2024-06-24,2024-06-20,合資会社坂口,,合資会社,群馬県,太田市,台之郷町１４５６番地,,10,205,3730801,,,2024-06-20,清算の結了等,,,2015-10-05,1,,,,,サカグチ,0
377,2080002017256,登記記録の閉鎖等,0,2024-06-24,2024-06-13,有限会社アルミ東海,,有限会社,静岡県,藤枝市,高柳１５３０番地の１１,,22,214,4260041,,,2024-06-13,清算の結了等,,,2015-10-05,1,,,,,アルミトウカイ,0
380,2080102016579,登記記録の閉鎖等,0,2024-06-24,2024-06-20,有限会社学術セミナー教育企画,,有限会社,静岡県,富士宮市,宮原３８５番地１３,,22,207,4180005,,,2024-06-20,清算の結了等,,,2015-10-05,1,,,,,ガクジュツセミナーキョウイクキカク,0
409,2130003006954,登記記録の閉鎖等,0,2024-06-24,2024-06-20,合同会社月華,,合同会社,京都府,与謝郡与謝野町,字石川５７６４番地１,,26,465,6292303,,,2024-06-20,清算の結了等,,,2021-01-04,1,,,,,ゲッカ,0
423,2150002002473,登記記録の閉鎖等,0,2024-06-24,2024-06-14,元樹村有限会社,,有限会社,奈良県,奈良市,中ノ川町６３８番地,,29,201,6308201,,,2024-06-14,清算の結了等,,,2015-10-05,1,,,,,ゲンキムラ,0
426,2180001025712,登記記録の閉鎖等,0,2024-06-24,2024-06-12,株式会社柴田営業所,,株式会社,愛知県,名古屋市西区,菊井２丁目１５番２８号,,23,104,4510044,,,2024-06-12,清算の結了等,,,2015-10-05,1,,,,,シバタエイギョウショ,0
428,2180001072218,登記記録の閉鎖等,0,2024-06-24,2024-06-12,株式会社ワールドサイン,,株式会社,愛知県,名古屋市南区,明治１丁目１３番１６号,,23,112,4570861,,,2024-06-12,清算の結了等,,,2015-10-05,1,,,,,ワールドサイン,0
438,2180302001445,登記記録の閉鎖等,0,2024-06-24,2024-06-21,有限会社塩谷塗装工業,,有限会社,愛知県,岡崎市,森越町字山伏１５番地の１,,23,202,4440901,,,2024-06-21,清算の結了等,,,2015-10-05,1,,,,,,0
445,2220003003595,登記記録の閉鎖等,0,2024-06-24,2024-06-18,合同会社ＹＯＮＥＺＡＷＡ　ｓｅｒｖｉｃｅ,,合同会社,石川県,白山市,河内町きりの里４５番地,,17,210,9202304,,,2024-06-18,清算の結了等,,,2023-10-02,1,,,,,ヨネザワサービス,0
457,2260002019580,登記記録の閉鎖等,0,2024-06-24,2024-06-07,玉海自動車整備有限会社,,有限会社,岡山県,倉敷市,玉島乙島８２３４番地の１３,,33,202,7138103,,,2024-06-07,清算の結了等,,,2015-10-05,1,,,,,タマカイジドウシャセイビ,0
474,2330002018617,登記記録の閉鎖等,0,2024-06-24,2024-06-05,有限会社ディア・カンパニー,,有限会社,熊本県,山鹿市,鹿校通３丁目２番６３号,,43,208,8610532,,,2024-06-05,清算の結了等,,,2015-10-05,1,,,,,ディアカンパニー,0
484,2370402001920,登記記録の閉鎖等,0,2024-06-24,2024-06-14,有限会社高山板金工業,00082798,有限会社,宮城県,登米市,迫町新田字下蒲５１番地の２,,04,212,9894601,,,2024-06-14,清算の結了等,,,2015-10-05,1,,,,,タカヤマバンキンコウギョウ,0
489,2390003001954,登記記録の閉鎖等,0,2024-06-24,2024-06-10,合同会社チェリー,,合同会社,山形県,山形市,本町１丁目２番４号,,06,201,9900043,,,2024-06-10,清算の結了等,,,2022-04-27,1,,,,,チェリー,0
510,2470002010436,登記記録の閉鎖等,0,2024-06-24,2024-06-19,有限会社ＮＣコーポレーション,,有限会社,香川県,高松市,太田上町９９４番地１アルファスマート太田駅西６０１号,,37,201,7618074,,,2024-06-19,清算の結了等,,,2015-10-05,1,,,,,エヌシーコーポレーション,0
516,3010001233652,登記記録の閉鎖等,0,2024-06-24,2024-06-12,日鉄産業株式会社,,株式会社,東京都,千代田区,神田平河町１番地第３東ビル５Ｆ,,13,101,1010027,,,2024-06-12,清算の結了等,,,2023-03-10,1,,,,,ニッテツサンギョウ,0
533,3010602023155,登記記録の閉鎖等,0,2024-06-24,2024-06-19,有限会社柏木,,有限会社,東京都,墨田区,向島３丁目２１番９号,,13,107,1310033,,,2024-06-19,清算の結了等,,,2015-10-05,1,,,,,カシワギ,0
544,3011001125030,登記記録の閉鎖等,0,2024-06-24,2024-06-10,株式会社ＧＡＭ００３,,株式会社,東京都,渋谷区,千駄ヶ谷４丁目９番７号,,13,113,1510051,,,2024-06-10,清算の結了等,,,2018-11-06,1,,,,,ジーエーエムゼロゼロサン,0
564,3011401018676,登記記録の閉鎖等,0,2024-06-24,2024-06-17,ＴＡＫＥＵＣＨＩ不動産株式会社,,株式会社,東京都,板橋区,常盤台４丁目３３番１４号,,13,119,1740071,,,2024-06-17,清算の結了等,,,2015-10-05,1,,,,,タケウチフドウサン,0
566,3011501002126,登記記録の閉鎖等,0,2024-06-24,2024-06-20,株式会社神保電機,,株式会社,東京都,北区,西ケ原３丁目８番１２号,,13,117,1140024,,,2024-06-20,清算の結了等,,,2015-10-05,1,,,,,ジンボデンキ,0
571,3011802013887,登記記録の閉鎖等,0,2024-06-24,2024-06-19,有限会社新八,,有限会社,東京都,足立区,西新井５丁目１６番５号,,13,121,1230841,,,2024-06-19,清算の結了等,,,2015-10-05,1,,,,,シンパチ,0
575,3012702010487,登記記録の閉鎖等,0,2024-06-24,2024-06-19,有限会社新居技建,,有限会社,東京都,清瀬市,竹丘１丁目１２番８－１１２号,,13,221,2040023,,,2024-06-19,清算の結了等,,,2015-10-05,1,,,,,アライギケン,0
592,3021001052868,登記記録の閉鎖等,0,2024-06-24,2024-06-20,株式会社豊栄,,株式会社,神奈川県,平塚市,南原２丁目１４番５号,,14,203,2540065,,,2024-06-20,清算の結了等,,,2015-10-05,1,,,,,ホウエイ,0
615,3040003016680,登記記録の閉鎖等,0,2024-06-24,2024-06-11,合同会社伸眞,,合同会社,千葉県,市川市,八幡２丁目１６番７号三愛ビル地下,,12,203,2720021,,,2024-06-11,清算の結了等,,,2020-12-17,1,,,,,シンマ,0
668,3140001113536,登記記録の閉鎖等,0,2024-06-24,2024-06-19,株式会社カテトス,,株式会社,兵庫県,加古川市,別府町新野辺北町３丁目８１番地の１６,,28,210,6750121,,,2024-06-19,清算の結了等,,,2019-05-10,1,,,,,カテトス,0
691,3220003002547,登記記録の閉鎖等,0,2024-06-24,2024-06-20,合同会社Ａｓｔａｌｉｇｈｔ,,合同会社,石川県,金沢市,八田町東２８１番地,,17,201,9203104,,,2024-06-20,清算の結了等,,,2019-02-05,1,,,,,アスタライト,0
748,3470002001467,登記記録の閉鎖等,0,2024-06-24,2024-06-19,有限会社エム・ワイ・ハウス,,有限会社,香川県,高松市,屋島西町８０３番地１,,37,201,7610113,,,2024-06-19,清算の結了等,,,2015-10-05,1,,,,,エムワイハウス,0
750,3470003002150,登記記録の閉鎖等,0,2024-06-24,2024-06-19,Ｐｕｚｚｌｅ合同会社,,合同会社,香川県,坂出市,江尻町１６６９番地２,,37,203,7620011,,,2024-06-19,清算の結了等,,,2022-03-18,1,,,,,パズル,0
751,3470005002867,登記記録の閉鎖等,0,2024-06-24,2024-06-18,医療法人社団愛慈胃腸科内科医院,,その他の設立登記法人,香川県,善通寺市,上吉田町７丁目８番９号,,37,204,7650011,,,2024-06-18,清算の結了等,,,2015-10-05,1,,,,,アイジイチョウカナイカイイン,0
759,4010003017524,登記記録の閉鎖等,0,2024-06-24,2024-06-12,Ｔｏｋｙｏ　Ｊ４　Ｊａｐａｎ合同会社,,合同会社,東京都,千代田区,霞が関３丁目２番５号霞が関ビル,,13,101,1000013,,,2024-06-12,清算の結了等,,,2015-10-05,1,,,,,トウキョウジェイフォージャパン,0
760,4010003027325,登記記録の閉鎖等,0,2024-06-24,2024-06-12,Ｐｒｉｍｅ　Ｔｏｗｅｒ　Ｊａｐａｎ合同会社,,合同会社,東京都,千代田区,霞が関３丁目２番５号霞が関ビル,,13,101,1000013,,,2024-06-12,清算の結了等,,,2018-04-11,1,,,,,プライムタワージャパン,0
771,4010401105913,登記記録の閉鎖等,0,2024-06-24,2024-06-18,株式会社シュシュポッポ,,株式会社,茨城県,水戸市,河和田町１１１０番地３,,08,201,3114153,,,2024-06-18,清算の結了等,,,2015-10-05,1,,,,,シュシュポッポ,0
797,4011102028164,登記記録の閉鎖等,0,2024-06-24,2024-06-14,有限会社ケイ・ツー・プランニング,,有限会社,東京都,新宿区,新宿４丁目４番８号,,13,104,1600022,,,2024-06-14,清算の結了等,,,2015-10-05,1,,,,,ケイツープランニング,0
798,4011102029468,登記記録の閉鎖等,0,2024-06-24,2024-06-14,有限会社オフィスキー・パートナーズ,,有限会社,東京都,新宿区,箪笥町１３番地グローバル新神楽坂,00065180,13,104,1620833,,,2024-06-14,清算の結了等,,,2015-10-05,1,,,,,オフィスキーパートナーズ,0
810,4012401012932,登記記録の閉鎖等,0,2024-06-24,2024-06-20,株式会社ビッグモア,,株式会社,東京都,三鷹市,上連雀７丁目３３番２号,,13,204,1810012,,,2024-06-20,清算の結了等,,,2015-10-05,1,,,,,ビッグモア,0
812,4012702006567,登記記録の閉鎖等,0,2024-06-24,2024-06-19,有限会社五光商店,,有限会社,東京都,東久留米市,浅間町３丁目１１番１号,,13,222,2030012,,,2024-06-19,清算の結了等,,,2015-10-05,1,,,,,,0
817,4020001012971,登記記録の閉鎖等,0,2024-06-24,2024-06-11,三光商事株式会社,,株式会社,神奈川県,横浜市南区,永田北２丁目１０番３号,,14,105,2320071,,,2024-06-11,清算の結了等,,,2024-03-11,1,,,,,サンコウショウジ,0
823,4020002067899,登記記録の閉鎖等,0,2024-06-24,2024-06-11,有限会社秋葉自動車,,有限会社,神奈川県,横浜市戸塚区,秋葉町４７０番地,,14,110,2450052,,,2024-06-11,清算の結了等,,,2015-10-05,1,,,,,アキバジドウシャ,0
824,4020002069235,登記記録の閉鎖等,0,2024-06-24,2024-06-11,有限会社ケーワ,,有限会社,神奈川県,横浜市戸塚区,吉田町９７８番地１０,,14,110,2440817,,,2024-06-11,清算の結了等,,,2015-10-05,1,,,,,ケーワ,0
836,4030001087872,登記記録の閉鎖等,0,2024-06-24,2024-06-18,クローバーフィックスシステム株式会社,,株式会社,埼玉県,熊谷市,小江川２１０５番地３,,11,202,3600103,,,2024-06-18,清算の結了等,,,2015-10-05,1,,,,,クローバーフィックスシステム,0
846,4030005014352,登記記録の閉鎖等,0,2024-06-24,2024-06-19,特定非営利活動法人行田結婚支援センター,,その他の設立登記法人,埼玉県,行田市,大字長野５８１４番地８,,11,206,3610023,,,2024-06-19,清算の結了等,,,2015-10-05,1,,,,,ギョウダケッコンシエンセンター,0
848,4040001028339,登記記録の閉鎖等,0,2024-06-24,2024-06-10,株式会社マルヘイ,,株式会社,千葉県,鎌ケ谷市,西佐津間１丁目１９番３５号,,12,224,2730134,,,2024-06-10,清算の結了等,,,2015-10-05,1,,,,,マルヘイ,0
857,4040002025938,登記記録の閉鎖等,0,2024-06-24,2024-06-12,有限会社八広測量設計事務所,,有限会社,千葉県,船橋市,松が丘４丁目３０番９号,,12,204,2740064,,,2024-06-12,清算の結了等,,,2015-10-05,1,,,,,ヤヒロソクリョウセッケイジムショ,0
858,4040002067518,登記記録の閉鎖等,0,2024-06-24,2024-06-11,有限会社林商店,,有限会社,千葉県,木更津市,貝渕２丁目１０番１号,,12,206,2920833,,,2024-06-11,清算の結了等,,,2015-10-05,1,,,,,,0
863,4060001023973,登記記録の閉鎖等,0,2024-06-24,2024-06-14,Ｅ－貿易株式会社,,株式会社,栃木県,小山市,大字向野９４４番地２,,09,208,3230805,,,2024-06-14,清算の結了等,,,2015-10-05,1,,,,,イーボウエキ,0
871,4080102007064,登記記録の閉鎖等,0,2024-06-24,2024-06-20,有限会社砂山精密工業,,有限会社,静岡県,御殿場市,御殿場１１４番地,,22,215,4120028,,,2024-06-20,清算の結了等,,,2015-10-05,1,,,,,スナヤマセイミツコウギョウ,0
873,4090001008294,登記記録の閉鎖等,0,2024-06-24,2024-06-18,株式会社アルパイン,,株式会社,山梨県,都留市,上谷６丁目２番２０号,,19,204,4020053,,,2024-06-18,清算の結了等,,,2015-10-05,1,,,,,アルパイン,0
898,4120902000131,登記記録の閉鎖等,0,2024-06-24,2024-06-18,有限会社主原商店,,有限会社,大阪府,茨木市,駅前１丁目８番２０号,,27,211,5670888,,,2024-06-18,清算の結了等,,,2015-10-05,1,,,,,ヌシハラショウテン,0
902,4140001065644,登記記録の閉鎖等,0,2024-06-24,2024-06-18,株式会社神戸新聞飾磨,,株式会社,兵庫県,姫路市,余部区上余部１０９３番地,,28,201,6711262,,,2024-06-18,清算の結了等,,,2015-10-05,1,,,,,コウベシンブンシカマ,0
908,4140002053615,登記記録の閉鎖等,0,2024-06-24,2024-06-18,有限会社エフ情報ネットワーク,,有限会社,兵庫県,姫路市,広畑区蒲田６６３番地の１０,,28,201,6711102,,,2024-06-18,清算の結了等,,,2015-10-05,1,,,,,エフジョウホウネットワーク,0
909,4140005021511,登記記録の閉鎖等,0,2024-06-24,2024-06-19,特定非営利活動法人ひまわり会,,その他の設立登記法人,兵庫県,小野市,片山町１０３３番地の５,,28,218,6751335,,,2024-06-19,清算の結了等,,,2015-10-05,1,,,,,ヒマワリカイ,0
931,4190005007662,登記記録の閉鎖等,0,2024-06-24,2024-06-19,城南漁業協同組合,,その他の設立登記法人,三重県,桑名市,大字大貝須３４番地,,24,205,5110848,,,2024-06-19,清算の結了等,,,2015-10-05,1,,,,,ジョウナン,0
942,4290801009570,登記記録の閉鎖等,0,2024-06-24,2024-06-13,青山興産株式会社,,株式会社,福岡県,北九州市八幡西区,青山３丁目８番１０号,,40,109,8060043,,,2024-06-13,清算の結了等,,,2015-10-05,1,,,,,アオヤマコウサン,0
949,4320005009513,登記記録の閉鎖等,0,2024-06-24,2024-06-04,特定非営利活動法人志塾フリースクール大分,,その他の設立登記法人,大分県,大分市,公園通り２丁目１５番地の４,,44,201,8700173,,,2024-06-04,清算の結了等,,,2017-07-10,1,,,,,,0
957,4370201003810,登記記録の閉鎖等,0,2024-06-24,2024-06-13,株式会社アクセル,,株式会社,宮城県,遠田郡涌谷町,吉住字梅田１８番地,,04,501,9870283,,,2024-06-13,清算の結了等,,,2015-10-05,1,,,,,アクセル,0
959,4380001021846,登記記録の閉鎖等,0,2024-06-24,2024-06-13,悠和株式会社,,株式会社,宮城県,宮城郡利府町,神谷沢字南沢１番地２９,,04,406,9810121,,,2024-06-13,清算の結了等,,,2015-10-05,1,,,,,ユウワ,0
968,4410001010556,登記記録の閉鎖等,0,2024-06-24,2024-06-12,株式会社ひがし,,株式会社,秋田県,秋田市,広面字高田３２８番地,,05,201,0100041,,,2024-06-12,清算の結了等,,,2015-10-05,1,,,,,ヒガシ,0
995,5010401076708,登記記録の閉鎖等,0,2024-06-24,2024-06-07,株式会社コンシェルジュサービスジャパン,,株式会社,東京都,港区,南青山２丁目２番１５号,,13,103,1070062,,,2024-06-07,清算の結了等,,,2015-10-05,1,,,,,,0
1002,5010405017567,登記記録の閉鎖等,0,2024-06-24,2024-06-11,Ｃｏｓｍｏｓ　Ｅｑｕｉｔｙ　Ｈｏｌｄｉｎｇｓ一般社団法人,,その他の設立登記法人,東京都,港区,虎ノ門５丁目１番５号,,13,103,1050001,,,2024-06-11,清算の結了等,,,2019-03-20,1,,,,,コスモスエクイティホールディングス,0
1014,5011001017606,登記記録の閉鎖等,0,2024-06-24,2024-06-10,株式会社トップキャット,,株式会社,東京都,渋谷区,恵比寿西２丁目２番８号第２ミトモビル８階,,13,113,1500021,,,2024-06-10,清算の結了等,,,2015-10-05,1,,,,,,0
1024,5011003014691,登記記録の閉鎖等,0,2024-06-24,2024-06-11,合同会社５点ラジオ,,合同会社,東京都,渋谷区,道玄坂１丁目１０番８号渋谷道玄坂東急ビル２Ｆ－Ｃ,,13,113,1500043,,,2024-06-11,清算の結了等,,,2022-06-02,1,,,,,ゴテンラジオ,0
1056,5020002042521,登記記録の閉鎖等,0,2024-06-24,2024-06-11,有限会社近藤楽器店,,有限会社,神奈川県,横浜市中区,伊勢佐木町４丁目１１７番地,,14,104,2310045,,,2024-06-11,清算の結了等,,,2015-10-05,1,,,,,コンドウガッキテン,0
1070,5030001105617,登記記録の閉鎖等,0,2024-06-24,2024-06-19,株式会社ＨＭ工事,,株式会社,埼玉県,本庄市,早稲田の杜４丁目１７番８号,,11,211,3670030,,,2024-06-19,清算の結了等,,,2015-10-05,1,,,,,エイチエムコウジ,0
1081,5030003013058,登記記録の閉鎖等,0,2024-06-24,2024-06-20,合同会社カチダス,,合同会社,埼玉県,草加市,瀬崎７丁目１０番３－１０８号,,11,221,3400022,,,2024-06-20,清算の結了等,,,2019-02-08,1,,,,,カチダス,0
1087,5040001038485,登記記録の閉鎖等,0,2024-06-24,2024-06-10,アドバンストマテリアルテクノロジーズ株式会社,,株式会社,東京都,中央区,築地１丁目１２番２２号,,13,102,1040045,,,2024-06-10,清算の結了等,,,2015-10-05,1,,,,,アドバンストマテリアルテクノロジーズ,0
1089,5040001124673,登記記録の閉鎖等,0,2024-06-24,2024-06-11,株式会社カワウチ,,株式会社,千葉県,松戸市,本町１７－１１芹澤ビル６Ｆ,,12,207,2710091,,,2024-06-11,清算の結了等,,,2022-08-10,1,,,,,カワウチ,0
1098,5060002007231,登記記録の閉鎖等,0,2024-06-24,2024-06-12,有限会社箱田商店,,有限会社,栃木県,宇都宮市,大谷町１０４５番地６,,09,201,3210345,,,2024-06-12,清算の結了等,,,2015-10-05,1,,,,,ハコダショウテン,0
1110,5090003001577,登記記録の閉鎖等,0,2024-06-24,2024-06-14,Ｆ．Ｒ．Ｓ合同会社,,合同会社,山梨県,甲府市,高畑２丁目１８－１１ポレスターブロードシティ高畑７０７,,19,201,4000042,,,2024-06-14,清算の結了等,,,2019-10-03,1,,,,,エフアールエス,0
1121,5120001183298,登記記録の閉鎖等,0,2024-06-24,2024-06-20,株式会社尾川建築事務所,,株式会社,大阪府,大阪市中央区,農人橋１丁目４番３１号,,27,128,5400011,,,2024-06-20,清算の結了等,,,2015-10-05,1,,,,,オガワケンチクジムショ,0
1124,5120001210201,登記記録の閉鎖等,0,2024-06-24,2024-06-20,株式会社Ｔ－ＣＯＫＥＮ,,株式会社,大阪府,大阪市北区,天神橋４丁目２番１２号司光ハイツ５０１,,27,127,5300041,,,2024-06-20,清算の結了等,,,2017-12-19,1,,,,,ティコーケン,0
1133,5120101058689,登記記録の閉鎖等,0,2024-06-24,2024-06-20,株式会社おろしどころ,,株式会社,大阪府,岸和田市,土生町３３２番地の１３,,27,202,5960825,,,2024-06-20,清算の結了等,,,2018-08-31,1,,,,,オロシドコロ,0
1137,5120102016588,登記記録の閉鎖等,0,2024-06-24,2024-06-19,有限会社アールティーエム,,有限会社,大阪府,富田林市,常盤町５－１２,,27,214,5840032,,,2024-06-19,清算の結了等,,,2015-10-05,1,,,,,,0
1162,5180005005377,登記記録の閉鎖等,0,2024-06-24,2024-06-13,職業訓練法人愛知県電気技術センター,,その他の設立登記法人,愛知県,名古屋市東区,東桜１丁目２番１４号,,23,102,4610005,,,2024-06-13,清算の結了等,,,2015-10-05,1,,,,,アイチケンデンキギジュツセンター,0
1170,5210002013957,登記記録の閉鎖等,0,2024-06-24,2024-06-17,有限会社もりしまビル,,有限会社,福井県,小浜市,大手町９番８号,,18,204,9170078,,,2024-06-17,清算の結了等,,,2015-10-05,1,,,,,モリシマビル,0
1174,5220001008602,登記記録の閉鎖等,0,2024-06-24,2024-06-19,株式会社ノリオターブル,,株式会社,石川県,金沢市,北安江４丁目８番３１号,,17,201,9200022,,,2024-06-19,清算の結了等,,,2015-10-05,1,,,,,,0
1178,5240001043003,登記記録の閉鎖等,0,2024-06-24,2024-06-20,金海産業株式会社,,株式会社,広島県,東広島市,八本松西５丁目１４番地５,,34,212,7390147,,,2024-06-20,清算の結了等,,,2015-10-05,1,,,,,キンカイサンギョウ,0
1179,5240002034901,登記記録の閉鎖等,0,2024-06-24,2024-06-19,大栄汽船有限会社,,有限会社,広島県,呉市,倉橋町３３０６番地の１,,34,202,7371377,,,2024-06-19,清算の結了等,,,2015-10-05,1,,,,,ダイエイキセン,0
1196,5340001018077,登記記録の閉鎖等,0,2024-06-24,2024-06-14,株式会社和田保険企画,,株式会社,鹿児島県,鹿屋市,串良町上小原２７０８番地１,,46,203,8931605,,,2024-06-14,清算の結了等,,,2015-10-05,1,,,,,ワダホケンキカク,0
1217,5380002022157,登記記録の閉鎖等,0,2024-06-24,2024-06-14,有限会社いわきシンクウ,,有限会社,福島県,いわき市,好間町榊小屋字生木葉４番４,00083841,07,204,9701146,,,2024-06-14,清算の結了等,,,2015-10-05,1,,,,,イワキシンクウ,0
1228,5400605000465,登記記録の閉鎖等,0,2024-06-24,2024-06-10,八幡神社,,その他の設立登記法人,岩手県,奥州市,水沢字新小路２６番地,,03,215,0230807,,,2024-06-10,合併による解散等,3400605000021,令和６年６月４日岩手県奥州市水沢字日高小路１３番地日高神社（3400605000021）に合併し解散,2015-10-05,1,,,,,ハチマンジンジャ,0
1250,6010001128197,登記記録の閉鎖等,0,2024-06-24,2024-06-11,株式会社食医食,,株式会社,神奈川県,横浜市青葉区,田奈町３１番地４０,,14,117,2270064,,,2024-06-11,清算の結了等,,,2015-10-05,1,,,,,ショクイショク,0
1264,6010001225531,登記記録の閉鎖等,0,2024-06-24,2024-06-11,株式会社共育住居,,株式会社,東京都,千代田区,富士見２丁目６‐９雄山閣ビル４Ｆガイアモーレプラザ,,13,101,1020071,,,2024-06-11,清算の結了等,,,2022-04-06,1,,,,,トモイクジュウキョ,0
1281,6010602024968,登記記録の閉鎖等,0,2024-06-24,2024-06-06,有限会社下村建工,,有限会社,東京都,江東区,東陽１丁目９番２号,,13,108,1350016,,,2024-06-06,清算の結了等,,,2015-10-05,1,,,,,,0
1291,6011001124186,登記記録の閉鎖等,0,2024-06-24,2024-06-10,株式会社Ｌａｓｃａ,,株式会社,東京都,渋谷区,渋谷３丁目２６番１６号第五叶ビル５Ｆ,,13,113,1500002,,,2024-06-10,清算の結了等,,,2018-09-12,1,,,,,ラスカ,0
1316,6021001043807,登記記録の閉鎖等,0,2024-06-24,2024-06-20,株式会社リヒロ,,株式会社,神奈川県,横須賀市,根岸町４丁目８番１号,,14,201,2390807,,,2024-06-20,清算の結了等,,,2015-10-05,1,,,,,リヒロ,0
1350,6070003004614,登記記録の閉鎖等,0,2024-06-24,2024-06-18,ＤＩＬＩＰ　ＭＯＴＯＲＳ合同会社,,合同会社,群馬県,太田市,新田木崎町１４４４番地２３丸山荘２号棟,,10,205,3700321,,,2024-06-18,清算の結了等,,,2022-09-12,1,,,,,ディリップモータース,0
1354,6080002005430,登記記録の閉鎖等,0,2024-06-24,2024-06-17,有限会社マツナガ建築工業,,有限会社,静岡県,静岡市葵区,北番町４０番地の６７,,22,101,4200005,,,2024-06-17,清算の結了等,,,2015-10-05,1,,,,,マツナガケンチクコウギョウ,0
1355,6080102016996,登記記録の閉鎖等,0,2024-06-24,2024-06-20,有限会社デュウ,,有限会社,静岡県,富士宮市,矢立町７４７番地の７,,22,207,4180072,,,2024-06-20,清算の結了等,,,2015-10-05,1,,,,,デュウ,0
1358,6080401015278,登記記録の閉鎖等,0,2024-06-24,2024-06-21,株式会社エム・エー,,株式会社,静岡県,菊川市,西方１０５５番地の１,,22,224,4390037,,,2024-06-21,清算の結了等,,,2015-10-05,1,,,,,エムエー,0
1361,6090005003521,登記記録の閉鎖等,0,2024-06-24,2024-06-14,特定非営利活動法人ハートオブ地域塾,,その他の設立登記法人,山梨県,都留市,与縄１００番地,,19,204,4020012,,,2024-06-14,清算の結了等,,,2015-10-05,1,,,,,ハートオブチイキジュク,0
1364,6100002021904,登記記録の閉鎖等,0,2024-06-24,2024-06-12,有限会社百瀬ビル管財,,有限会社,長野県,松本市,中条２番２０号,,20,202,3900816,,,2024-06-12,清算の結了等,,,2015-10-05,1,,,,,モモセビルカンザイ,0
1365,6110001003142,登記記録の閉鎖等,0,2024-06-24,2024-06-12,高徳工業株式会社,,株式会社,新潟県,新潟市西区,新通３１１９番地,,15,107,9502035,,,2024-06-12,清算の結了等,,,2015-10-05,1,,,,,タカトクコウギョウ,0
1372,6120001073969,登記記録の閉鎖等,0,2024-06-24,2024-06-21,株式会社ユーズクリエイション,,株式会社,大阪府,大阪市中央区,久太郎町４丁目２番１２号本町ＴＤビル７階,,27,128,5410056,,,2024-06-21,清算の結了等,,,2015-10-05,1,,,,,ユーズクリエイション,0
1381,6120005011891,登記記録の閉鎖等,0,2024-06-24,2024-06-20,特定非営利活動法人交通被害者支援機構,,その他の設立登記法人,大阪府,大阪市北区,西天満２丁目２番３－Ａ０９号（ユニシオ西天満２丁目）岸田・松本法律事務所内,,27,127,5300047,,,2024-06-20,清算の結了等,,,2015-10-05,1,,,,,,0
1384,6120102022841,登記記録の閉鎖等,0,2024-06-24,2024-06-20,有限会社濱商,,有限会社,大阪府,岸和田市,中之浜町１０番１８号,,27,202,5960065,,,2024-06-20,清算の結了等,,,2015-10-05,1,,,,,,0
1391,6130001054605,登記記録の閉鎖等,0,2024-06-24,2024-06-14,株式会社全速，０３,,株式会社,大阪府,八尾市,東本町２丁目６番１７号,,27,212,5810004,,,2024-06-14,清算の結了等,,,2015-10-05,1,,,,,ゼンソクコンマゼロサン,0
1393,6130002003668,登記記録の閉鎖等,0,2024-06-24,2024-06-20,有限会社啓道,,有限会社,京都府,京都市中京区,堺町通竹屋町上る橘町９２番地シンフォニー御所堺町御門前１０４号,,26,104,6040802,,,2024-06-20,清算の結了等,,,2015-10-05,1,,,,,ヨシミチ,0
1395,6140001002810,登記記録の閉鎖等,0,2024-06-24,2024-06-19,株式会社六甲アイランド運輸倉庫,,株式会社,兵庫県,神戸市東灘区,向洋町東３丁目９番地,,28,101,6580031,,,2024-06-19,清算の結了等,,,2015-10-05,1,,,,,ロッコウアイランドウンユソウコ,0
1404,6140001106553,登記記録の閉鎖等,0,2024-06-24,2024-06-19,上甲子園ファクトリー株式会社,,株式会社,兵庫県,西宮市,上甲子園５丁目８番７号１０３号,,28,204,6638114,,,2024-06-19,清算の結了等,,,2017-06-14,1,,,,,,0
1412,6180001022400,登記記録の閉鎖等,0,2024-06-24,2024-06-12,東洋商事株式会社,,株式会社,愛知県,名古屋市天白区,表台９９番地の１,,23,116,4680068,,,2024-06-12,清算の結了等,,,2015-10-05,1,,,,,トウヨウショウジ,0
1415,6180001091370,登記記録の閉鎖等,0,2024-06-24,2024-06-18,トライアングル少額短期保険株式会社,,株式会社,東京都,文京区,小石川２丁目１番２号,,13,105,1120002,,,2024-06-18,合併による解散等,7010001115649,令和６年６月１日埼玉県さいたま市大宮区桜木町四丁目２６１番地あんしん少額短期保険株式会社（7010001115649）に合併し解散,2015-10-05,1,,,,,トライアングルショウガクタンキホケン,0
1426,6200001030103,登記記録の閉鎖等,0,2024-06-24,2024-06-18,株式会社ルクスコーポレーション,,株式会社,岐阜県,多治見市,西坂町２丁目１０２番地,,21,204,5070051,,,2024-06-18,清算の結了等,,,2015-10-05,1,,,,,ルクスコーポレーション,0
1427,6200002027916,登記記録の閉鎖等,0,2024-06-24,2024-06-20,有限会社野村石油店,,有限会社,岐阜県,郡上市,八幡町城南町２０５番地１,,21,219,5014224,,,2024-06-20,清算の結了等,,,2015-10-05,1,,,,,ノムラセキユテン,0
1429,6220002007230,登記記録の閉鎖等,0,2024-06-24,2024-06-19,有限会社ライフステージ,,有限会社,石川県,野々市市,扇が丘２０番５－２号,,17,212,9218812,,,2024-06-19,清算の結了等,,,2015-10-05,1,,,,,ライフステージ,0
1463,6370001024113,登記記録の閉鎖等,0,2024-06-24,2024-06-18,株式会社ノースラボ,,株式会社,北海道,岩見沢市,幌向南一条２丁目１３３番地３,,01,210,0690371,,,2024-06-18,清算の結了等,,,2015-10-05,1,,,,,ノースラボ,0
1475,6390001013015,登記記録の閉鎖等,0,2024-06-24,2024-06-10,株式会社雲雀野,,株式会社,山形県,山形市,緑町３丁目８番４３－４号,,06,201,9900041,,,2024-06-10,清算の結了等,,,2015-10-05,1,,,,,ヒバリノ,0
1479,6430001066479,登記記録の閉鎖等,0,2024-06-24,2024-06-17,株式会社Ｈｅａｒｔ,,株式会社,北海道,札幌市南区,藤野一条５丁目１２番２号,,01,106,0612281,,,2024-06-17,清算の結了等,,,2015-10-05,1,,,,,ハート,0
1504,7010401098147,登記記録の閉鎖等,0,2024-06-24,2024-06-10,株式会社アンブレンド,,株式会社,東京都,港区,北青山２丁目７番２６号,,13,103,1070061,,,2024-06-10,清算の結了等,,,2015-10-05,1,,,,,アンブレンド,0
1542,7011401016321,登記記録の閉鎖等,0,2024-06-24,2024-06-18,マカオ・プロパティ・マネジメント株式会社,,株式会社,埼玉県,さいたま市見沼区,大字中川２６９番地１,,11,104,3370043,,,2024-06-18,清算の結了等,,,2015-10-05,1,,,,,マカオプロパティマネジメント,0
1555,7012701015574,登記記録の閉鎖等,0,2024-06-24,2024-06-19,株式会社武蔵野不動産,,株式会社,東京都,小平市,花小金井南町１丁目２２番２号,,13,211,1870003,,,2024-06-19,清算の結了等,,,2019-10-15,1,,,,,ムサシノフドウサン,0
1563,7020001032686,登記記録の閉鎖等,0,2024-06-24,2024-06-11,大日ホーム株式会社,,株式会社,神奈川県,横浜市金沢区,町屋町１３番１８号,,14,108,2360022,,,2024-06-11,清算の結了等,,,2015-10-05,1,,,,,ダイニチホーム,0
1579,7030001122222,登記記録の閉鎖等,0,2024-06-24,2024-06-20,株式会社クッキー＆モー,,株式会社,埼玉県,春日部市,大場９２８番地,,11,214,3440021,,,2024-06-20,清算の結了等,,,2017-09-12,1,,,,,クッキーアンドモー,0
1587,7030002005153,登記記録の閉鎖等,0,2024-06-24,2024-06-20,有限会社国際商事,,有限会社,埼玉県,上尾市,大字領家字荒沢１３７２番地１,,11,219,3620066,,,2024-06-20,清算の結了等,,,2015-10-05,1,,,,,コクサイショウジ,0
1614,7060002029488,登記記録の閉鎖等,0,2024-06-24,2024-06-13,有限会社山一デンキ,,有限会社,栃木県,小山市,天神町１丁目７番９号,,09,208,3230032,,,2024-06-13,清算の結了等,,,2015-10-05,1,,,,,ヤマイチデンキ,0
1619,7080402021844,登記記録の閉鎖等,0,2024-06-24,2024-06-20,有限会社山内自動車,,有限会社,静岡県,袋井市,山科３２２９番地の５,,22,216,4370066,,,2024-06-20,清算の結了等,,,2015-10-05,1,,,,,ヤマウチジドウシャ,0
1627,7110001007423,登記記録の閉鎖等,0,2024-06-24,2024-06-17,臼井建設株式会社,,株式会社,新潟県,新潟市南区,上八枚１４４番地,,15,106,9501431,,,2024-06-17,清算の結了等,,,2015-10-05,1,,,,,ウスイケンセツ,0
1632,7120001194582,登記記録の閉鎖等,0,2024-06-24,2024-06-17,株式会社キュアプロジェクト,,株式会社,大阪府,大阪市淀川区,宮原４丁目１番４５号新大阪八千代ビル８階Ｂ・Ｃ号室,,27,123,5320003,,,2024-06-17,清算の結了等,,,2015-11-26,1,,,,,キュアプロジェクト,0
1640,7120003018789,登記記録の閉鎖等,0,2024-06-24,2024-05-17,セカイウェブ合同会社,,合同会社,大阪府,大阪市北区,梅田１丁目２番２号大阪駅前第２ビル２階５－６号室,,27,127,5300001,,,2024-05-17,清算の結了等,,,2021-01-25,1,,,,,セカイウェブ,0
1650,7130001071582,登記記録の閉鎖等,0,2024-06-24,2024-06-14,株式会社ＩｎｎｏＩＴ,,株式会社,京都府,京都市左京区,山端川岸町２－７,,26,103,6068005,,,2024-06-14,清算の結了等,,,2022-04-20,1,,,,,イノアイティー,0
1653,7140001127227,登記記録の閉鎖等,0,2024-06-24,2024-06-19,君洋株式会社,,株式会社,兵庫県,尼崎市,西難波町４丁目６番２６号ＺＥＲＯビル４Ａ号室,,28,202,6600893,,,2024-06-19,清算の結了等,,,2022-08-30,1,,,,,クンヨウ,0
1656,7140002023061,登記記録の閉鎖等,0,2024-06-24,2024-06-19,有限会社アールワンツー,,有限会社,兵庫県,神戸市中央区,元町通２丁目４番１３号,,28,110,6500022,,,2024-06-19,清算の結了等,,,2015-10-05,1,,,,,,0
1691,7240005015211,登記記録の閉鎖等,0,2024-06-24,2024-06-19,特定非営利活動法人吉和げんき村,,その他の設立登記法人,広島県,廿日市市,吉和７３７番地２,,34,213,7380301,,,2024-06-19,清算の結了等,,,2021-05-10,1,,,,,ヨシワゲンキムラ,0
1696,7250002014017,登記記録の閉鎖等,0,2024-06-24,2024-06-20,有限会社ハートアンドオアシス,,有限会社,山口県,長門市,三隅下１０６３８番地１,,35,211,7593803,,,2024-06-20,清算の結了等,,,2015-10-05,1,,,,,ハートアンドオアシス,0
1702,7300002010357,登記記録の閉鎖等,0,2024-06-24,2024-06-20,有限会社さかい薬局,,有限会社,佐賀県,唐津市,鎮西町名護屋３８９０番地２,,41,202,8470401,,,2024-06-20,清算の結了等,,,2015-10-05,1,,,,,サカイヤッキョク,0
1720,7430001013769,登記記録の閉鎖等,0,2024-06-24,2024-06-18,株式会社ピーシークラブ,,株式会社,北海道,札幌市中央区,南一条西２５丁目２番２５号,,01,101,0640801,,,2024-06-18,清算の結了等,,,2015-10-05,1,,,,,ピーシークラブ,0
1727,7440002003124,登記記録の閉鎖等,0,2024-06-24,2024-06-19,有限会社長岡屋,,有限会社,北海道,松前郡松前町,字唐津１０１番地,,01,331,0491506,,,2024-06-19,清算の結了等,,,2015-10-05,1,,,,,ナガオカヤ,0
1747,8010003034086,登記記録の閉鎖等,0,2024-06-24,2024-06-20,ＤＩＲＥＣＴＯＲ　ＪＡＰＡＮ合同会社,,合同会社,埼玉県,越谷市,越ヶ谷１丁目４番６号２階,,11,222,3430813,,,2024-06-20,清算の結了等,,,2021-02-02,1,,,,,ディレクタージャパン,0
1765,8010701032069,登記記録の閉鎖等,0,2024-06-24,2024-06-20,Ｄ１Ｍジャパン株式会社,,株式会社,東京都,品川区,南品川４丁目４番１７号品川サウスタワー,,13,109,1400004,,,2024-06-20,清算の結了等,,,2016-02-24,1,,,,,ディーワンエムジャパン,0
1781,8011003010721,登記記録の閉鎖等,0,2024-06-24,2024-06-10,合同会社ベターポーヅ,,合同会社,東京都,目黒区,鷹番１丁目１０－１,,13,110,1520004,,,2024-06-10,清算の結了等,,,2020-01-17,1,,,,,ベターポーヅ,0
1843,8070001033217,登記記録の閉鎖等,0,2024-06-24,2024-06-20,ケアデザイン株式会社,,株式会社,群馬県,太田市,大原町５５３番地１２,,10,205,3792304,,,2024-06-20,清算の結了等,,,2017-03-07,1,,,,,ケアデザイン,0
1847,8080001021047,登記記録の閉鎖等,0,2024-06-24,2024-06-20,株式会社Ｔｉ　Ａｄｏｒｏ,,株式会社,静岡県,沼津市,西椎路５１８番地の６,,22,203,4100303,,,2024-06-20,清算の結了等,,,2016-07-14,1,,,,,ティアドロ,0
1848,8080401018056,登記記録の閉鎖等,0,2024-06-24,2024-06-21,株式会社ファーム・キクガワ,,株式会社,静岡県,菊川市,西方１０５５番地の１,,22,224,4390037,,,2024-06-21,清算の結了等,,,2015-10-05,1,,,,,,0
1854,8110005006552,登記記録の閉鎖等,0,2024-06-24,2024-06-07,特定非営利活動法人ネットワークみどり緑,,その他の設立登記法人,新潟県,燕市,秋葉町４丁目１番３４号,,15,213,9591261,,,2024-06-07,清算の結了等,,,2015-10-05,1,,,,,ネットワークミドリミドリ,0
1862,8120001209521,登記記録の閉鎖等,0,2024-06-24,2024-06-21,株式会社高木商店,,株式会社,大阪府,大阪市淀川区,田川３丁目４番１５－４０７号,,27,123,5320027,,,2024-06-21,清算の結了等,,,2017-11-16,1,,,,,タカギショウテン,0
1874,8120901024466,登記記録の閉鎖等,0,2024-06-24,2024-06-18,ダイシュン冷工設備株式会社,,株式会社,大阪府,豊中市,曽根南町３丁目１番６号,,27,203,5610804,,,2024-06-18,清算の結了等,,,2015-10-05,1,,,,,ダイシュンレイコウセツビ,0
1880,8140002063395,登記記録の閉鎖等,0,2024-06-24,2024-06-18,有限会社関西フラワー,,有限会社,兵庫県,伊丹市,伊丹６丁目４番２６号,,28,207,6640846,,,2024-06-18,清算の結了等,,,2015-10-05,1,,,,,カンサイフラワー,0
1893,8200001028855,登記記録の閉鎖等,0,2024-06-24,2024-06-20,株式会社ベルカーサ,,株式会社,岐阜県,大垣市,昼飯町１１１１番地１,,21,202,5032216,,,2024-06-20,清算の結了等,,,2015-10-05,1,,,,,ベルカーサ,0
1895,8200003002189,登記記録の閉鎖等,0,2024-06-24,2024-06-20,合資会社土屋製材所,,合資会社,岐阜県,関市,富之保４２４５番地,,21,205,5013501,,,2024-06-20,清算の結了等,,,2015-10-05,1,,,,,ツチヤセイザイショ,0
1897,8220002008714,登記記録の閉鎖等,0,2024-06-24,2024-06-20,有限会社キタダ,,有限会社,石川県,白山市,手取町カ２４番地６,,17,210,9290212,,,2024-06-20,清算の結了等,,,2015-10-05,1,,,,,キタダ,0
1899,8230001016527,登記記録の閉鎖等,0,2024-06-24,2024-06-20,株式会社フジオカ,,株式会社,富山県,富山市,針原中町３９６番地６,,16,201,9318431,,,2024-06-20,清算の結了等,,,2016-07-04,1,,,,,フジオカ,0
1907,8250002020526,登記記録の閉鎖等,0,2024-06-24,2024-06-17,有限会社たんぽぽ,,有限会社,山口県,柳井市,南町３丁目６番１９号,,35,212,7420031,,,2024-06-17,清算の結了等,,,2015-10-05,1,,,,,タンポポ,0
1908,8260002030912,登記記録の閉鎖等,0,2024-06-24,2024-06-07,有限会社中林商店,,有限会社,岡山県,美作市,岩見田３０６番地１,,33,215,7070054,,,2024-06-07,清算の結了等,,,2015-10-05,1,,,,,ナカバヤシショウテン,0
1920,8330001024833,登記記録の閉鎖等,0,2024-06-24,2024-06-17,株式会社ＭＩＬＫ,,株式会社,熊本県,合志市,豊岡２４０２－５２,,43,216,8611115,,,2024-06-17,清算の結了等,,,2017-12-22,1,,,,,ミルク,0
1939,8430002056080,登記記録の閉鎖等,0,2024-06-24,2024-06-19,有限会社オフィスかわせ,,有限会社,北海道,小樽市,新富町３番１号,,01,203,0470004,,,2024-06-19,清算の結了等,,,2015-10-05,1,,,,,オフィスカワセ,0
1954,9010001225719,登記記録の閉鎖等,0,2024-06-24,2024-06-12,株式会社ＡＬＬＩＡＮＣＥ,,株式会社,東京都,千代田区,二番町５番地２麹町駅プラザ９０１,,13,101,1020084,,,2024-06-12,清算の結了等,,,2022-04-14,1,,,,,アライアンス,0
1956,9010003036370,登記記録の閉鎖等,0,2024-06-24,2024-06-11,合同会社ＮＴＳ労務マネジメント,,合同会社,東京都,中央区,日本橋３丁目２番１４号新槙町ビル別館第一２階,,13,102,1030027,,,2024-06-11,清算の結了等,,,2021-11-22,1,,,,,エヌティーエスロウムマネジメント,0
1968,9010401167255,登記記録の閉鎖等,0,2024-06-24,2024-06-11,株式会社エシカリ,,株式会社,東京都,港区,芝公園１丁目８番１３号源流院ビル５Ｆ,,13,103,1050011,,,2024-06-11,清算の結了等,,,2022-05-11,1,,,,,エシカリ,0
1978,9010902018072,登記記録の閉鎖等,0,2024-06-24,2024-06-19,有限会社中町整骨院居宅介護支援事業所,,有限会社,東京都,世田谷区,中町５丁目３２番地７号,,13,112,1580091,,,2024-06-19,清算の結了等,,,2015-10-05,1,,,,,ナカマチセイコツインキョタクカイゴシエンジギョウショ,0
1982,9011001134587,登記記録の閉鎖等,0,2024-06-24,2024-06-12,株式会社ウィズカンパニー,,株式会社,東京都,渋谷区,円山町２８番１号渋谷道玄坂スカイビル１１Ｆ,,13,113,1500044,,,2024-06-12,清算の結了等,,,2020-07-07,1,,,,,ウィズカンパニー,0
2002,9011301000092,登記記録の閉鎖等,0,2024-06-24,2024-06-14,愛知商事株式会社,,株式会社,東京都,杉並区,阿佐谷北５丁目１０番２号,,13,115,1660001,,,2024-06-14,清算の結了等,,,2015-10-05,1,,,,,アイチショウジ,0
2008,9012401019287,登記記録の閉鎖等,0,2024-06-24,2024-06-20,村崎商亊株式会社,00057977,株式会社,東京都,府中市,幸町２丁目４３番地の９,,13,206,1830054,,,2024-06-20,清算の結了等,,,2015-10-05,1,,,,,ムラサキショウジ,0
2031,9030001131345,登記記録の閉鎖等,0,2024-06-24,2024-06-20,株式会社小高石油,00116874,株式会社,埼玉県,狭山市,大字堀兼２７３番地の５,,11,215,3501312,,,2024-06-20,合併による解散等,3010801006984,令和６年６月１日東京都大田区羽田旭町１２番５号株式会社高橋商店（3010801006984）に合併し解散,2019-06-13,1,,,,,オダカセキユ,0
2038,9030002100852,登記記録の閉鎖等,0,2024-06-24,2024-06-20,有限会社エーワイ,,有限会社,埼玉県,川口市,大字藤兵衛新田１４８番地の２,,11,203,3330803,,,2024-06-20,清算の結了等,,,2015-10-05,1,,,,,エーワイ,0
2041,9030003013780,登記記録の閉鎖等,0,2024-06-24,2024-06-19,合同会社成桜,,合同会社,埼玉県,川口市,榛松３丁目２７－３－２０３,,11,203,3340062,,,2024-06-19,清算の結了等,,,2019-07-08,1,,,,,セイオウ,0
2043,9040001016198,登記記録の閉鎖等,0,2024-06-24,2024-06-12,株式会社Ｎ．Ｃ．クリエイション,,株式会社,千葉県,千葉市美浜区,真砂２丁目２０番４号,,12,106,2610011,,,2024-06-12,清算の結了等,,,2015-10-05,1,,,,,エヌシークリエイション,0
2044,9040001072514,登記記録の閉鎖等,0,2024-06-24,2024-06-11,株式会社ＦＧパートナーズ,,株式会社,千葉県,野田市,蕃昌２５７番地,,12,208,2780041,,,2024-06-11,合併による解散等,4030001044238,令和６年６月１日千葉県野田市蕃昌２５７番地株式会社ＦＧ（4030001044238）に合併し解散,2015-10-05,1,,,,,エフジーパートナーズ,0
2064,9060003001064,登記記録の閉鎖等,0,2024-06-24,2024-06-13,小泉ゴム合資会社,,合資会社,栃木県,足利市,猿田町１番地４号,,09,202,3260023,,,2024-06-13,清算の結了等,,,2015-10-05,1,,,,,コイズミゴム,0
2067,9070001024512,登記記録の閉鎖等,0,2024-06-24,2024-06-20,株式会社関学会,,株式会社,群馬県,太田市,下浜田町３５９番地８,,10,205,3730821,,,2024-06-20,清算の結了等,,,2015-10-05,1,,,,,カンガクカイ,0
2076,9100001021200,登記記録の閉鎖等,0,2024-06-24,2024-06-11,株式会社クラタ開発,,株式会社,長野県,駒ヶ根市,赤穂６０７３番地,,20,210,3994117,,,2024-06-11,清算の結了等,,,2015-10-05,1,,,,,クラタカイハツ,0
2080,9110001010251,登記記録の閉鎖等,0,2024-06-24,2024-06-12,株式会社メディアトラバース,,株式会社,新潟県,新潟市中央区,関屋松波町３丁目２番地９２,,15,103,9518161,,,2024-06-12,清算の結了等,,,2015-10-05,1,,,,,メディアトラバース,0
2081,9110001033599,登記記録の閉鎖等,0,2024-06-24,2024-06-17,株式会社みらいナビゲーション,,株式会社,新潟県,新潟市西区,西有明町２番３号,,15,107,9502071,,,2024-06-17,清算の結了等,,,2018-10-19,1,,,,,ミライナビゲーション,0
2085,9120001016124,登記記録の閉鎖等,0,2024-06-24,2024-06-20,株式会社冨士土木建設,,株式会社,大阪府,大阪市都島区,善源寺町１丁目１番２号,,27,102,5340015,,,2024-06-20,清算の結了等,,,2015-10-05,1,,,,,フジドボクケンセツ,0
2088,9120001193062,登記記録の閉鎖等,0,2024-06-24,2024-06-19,Ａｒｔ　ｗｏｒｄ株式会社,,株式会社,大阪府,大阪市浪速区,日本橋５丁目８番２１号,,27,111,5560005,,,2024-06-19,合併による解散等,8010401001027,令和６年６月１日東京都港区赤坂六丁目１５番１１号株式会社ＴＮＮホールディングス（8010401001027）に合併し解散,2015-10-05,1,,,,,アートワード,0
2096,9120003008350,登記記録の閉鎖等,0,2024-06-24,2024-06-20,合同会社アーバン・ライフ高商,,合同会社,大阪府,和泉市,内田町２丁目６－２６コート・パル１０２号,,27,219,5941156,,,2024-06-20,清算の結了等,,,2015-10-05,1,,,,,アーバンライフタカショウ,0
2130,9140005026927,登記記録の閉鎖等,0,2024-06-24,2024-06-19,一般社団法人Ｂ‐ＫＯＢＥ,,その他の設立登記法人,兵庫県,神戸市垂水区,陸ノ町１番１２号,,28,108,6550026,,,2024-06-19,清算の結了等,,,2024-01-30,1,,,,,ビーコウベ,0
2146,9180003024870,登記記録の閉鎖等,0,2024-06-24,2024-06-07,合同会社ＦＡＮＴＨＥＭ,,合同会社,愛知県,名古屋市中村区,名駅４丁目２４番５号第２森ビル４０１,,23,105,4500002,,,2024-06-07,清算の結了等,,,2023-02-22,1,,,,,ファンセム,0
2149,9180301009805,登記記録の閉鎖等,0,2024-06-24,2024-06-12,協栄株式会社,,株式会社,愛知県,豊川市,牛久保町城下１９番地１１,,23,207,4420826,,,2024-06-12,清算の結了等,,,2015-10-05,1,,,,,キョウエイ,0
2153,9210001007394,登記記録の閉鎖等,0,2024-06-24,2024-06-18,橋本設備工業株式会社,,株式会社,福井県,坂井市,三国町宿３丁目２番１号,,18,210,9130056,,,2024-06-18,清算の結了等,,,2015-10-05,1,,,,,ハシモトセツビコウギョウ,0
2156,9220002011584,登記記録の閉鎖等,0,2024-06-24,2024-06-20,有限会社石川工作所,,有限会社,石川県,能美市,道林町丑１８番地１,,17,211,9290125,,,2024-06-20,清算の結了等,,,2015-10-05,1,,,,,イシカワコウサクショ,0
2165,9270005002799,登記記録の閉鎖等,0,2024-06-24,2024-06-20,特定非営利活動法人ＥＣＯフューチャーとっとり,,その他の設立登記法人,鳥取県,鳥取市,今町２丁目２１８番地,,31,201,6800822,,,2024-06-20,清算の結了等,,,2015-10-05,1,,,,,エコフューチャートットリ,0
2166,9280002006513,登記記録の閉鎖等,0,2024-06-24,2024-06-20,有限会社岩永邦商店,,有限会社,島根県,出雲市,大社町杵築南１３８２番地１３,,32,203,6990711,,,2024-06-20,清算の結了等,,,2015-10-05,1,,,,,イワナガクニショウテン,0
2171,9290005016566,登記記録の閉鎖等,0,2024-06-24,2024-05-31,一般社団法人機能性天然物研究機構,,その他の設立登記法人,福岡県,飯塚市,仁保３７２番地３,,40,205,8200115,,,2024-05-31,清算の結了等,,,2017-09-11,1,,,,,キノウセイテンネンブツケンキュウキコウ,0
2173,9300001010711,登記記録の閉鎖等,0,2024-06-24,2024-06-20,株式会社ＨＩＺＥＮ,,株式会社,佐賀県,嬉野市,嬉野町大字下宿乙２８５番地４,,41,209,8430301,,,2024-06-20,清算の結了等,,,2017-03-08,1,,,,,ヒゼン,0
2182,9340002018262,登記記録の閉鎖等,0,2024-06-24,2024-06-17,有限会社サカモト精機,,有限会社,鹿児島県,薩摩郡さつま町,紫尾１２６６番地,,46,392,8952103,,,2024-06-17,清算の結了等,,,2015-10-05,1,,,,,サカモトセイキ,0
2196,9390003001824,登記記録の閉鎖等,0,2024-06-24,2024-06-10,合同会社エミールユアーズ,,合同会社,山形県,東根市,本丸北１丁目１番１２号,,06,211,9993781,,,2024-06-10,清算の結了等,,,2021-04-14,1,,,,,エミールユアーズ,0
2198,9400002003051,登記記録の閉鎖等,0,2024-06-24,2024-06-12,有限会社毎日夫人,,有限会社,岩手県,盛岡市,みたけ３丁目２３番４０号,,03,201,0200122,,,2024-06-12,清算の結了等,,,2015-10-05,1,,,,,マイニチフジン,0
2208,9440002000706,登記記録の閉鎖等,0,2024-06-24,2024-06-18,有限会社大野商事,,有限会社,北海道,函館市,船見町３番２４号,,01,202,0400055,,,2024-06-18,清算の結了等,,,2015-10-05,1,,,,,オオノショウジ,0
