sequenceNumber,corporateNumber,process,correct,updateDate,changeDate,name,nameImageId,kind,prefectureName,cityName,streetNumber,addressImageId,prefectureCode,cityCode,postCode,addressOutside,addressOutsideImageId,closeDate,closeCause,successorCorporateNumber,changeCause,assignmentDate,latest,enName,enPrefectureName,enCityName,enAddressOutside,furigana,hihyoji
4,1010001236500,新規,0,2023-06-28,2023-06-28,株式会社アセットエフ,,株式会社,東京都,千代田区,神田神保町３丁目１１番１号安田神保町マンション７０６号,,13,101,1010051,,,,,,,2023-06-28,1,,,,,アセットエフ,0
15,1010401175125,新規,0,2023-06-28,2023-06-28,株式会社３１５,,株式会社,東京都,港区,六本木１丁目９番１号,,13,103,1060032,,,,,,,2023-06-28,1,,,,,サンイチゴ,0
16,1010401175307,新規,0,2023-06-28,2023-06-28,Ｌｅｇｎａ　Ｔｅｃｈ株式会社,,株式会社,東京都,港区,虎ノ門１丁目１７番１号,,13,103,1050001,,,,,,,2023-06-28,1,,,,,レグナテック,0
21,1010705003519,新規,0,2023-06-28,2023-06-28,一般社団法人ディグニティ,,その他の設立登記法人,東京都,品川区,上大崎２丁目１８番２５号目黒三田フラワーマンション６０１,,13,109,1410021,,,,,,,2023-06-28,1,,,,,ディグニティ,0
23,1010801034095,新規,0,2023-06-28,2023-06-28,株式会社シャマル,,株式会社,東京都,大田区,大森東２丁目５番１８号インベスト大森２７－１０１,,13,111,1430012,,,,,,,2023-06-28,1,,,,,シャマル,0
28,1010905004498,新規,0,2023-06-28,2023-06-28,一般社団法人サー・ドクター・中松フォーエバー,,その他の設立登記法人,東京都,世田谷区,下馬６丁目３１番１０号,,13,112,1540002,,,,,,,2023-06-28,1,,,,,サードクターナカマツフォーエバー,0
40,1011001155285,新規,0,2023-06-28,2023-06-28,株式会社ＥＺＭ,,株式会社,東京都,渋谷区,神宮前４丁目１番１７号ヴィラ千草３０２,,13,113,1500001,,,,,,,2023-06-28,1,,,,,イズム,0
41,1011001155293,新規,0,2023-06-28,2023-06-28,株式会社イージス,,株式会社,東京都,渋谷区,神宮前６丁目２３番４号桑野ビル２階,,13,113,1500001,,,,,,,2023-06-28,1,,,,,イージス,0
42,1011001155335,新規,0,2023-06-28,2023-06-28,株式会社Ｇ＆Ｌ　Ｌｉｖｅ,,株式会社,東京都,渋谷区,渋谷２丁目９番８号日総第２５ビル６階,,13,113,1500002,,,,,,,2023-06-28,1,,,,,ジーアンドエルライブ,0
43,1011003017046,新規,0,2023-06-28,2023-06-28,ＫｏＫｏＣｈｉ合同会社,,合同会社,東京都,渋谷区,東１丁目２番５号三海苑マンション４Ａ,,13,113,1500011,,,,,,,2023-06-28,1,,,,,ココチ,0
44,1011003017062,新規,0,2023-06-28,2023-06-28,合同会社ｎｃｆ,,合同会社,東京都,目黒区,下目黒４丁目８番１０－２０３号,,13,110,1530064,,,,,,,2023-06-28,1,,,,,エヌシーエフ,0
45,1011003017070,新規,0,2023-06-28,2023-06-28,合同会社河野渡邉管理,,合同会社,東京都,渋谷区,東２丁目１０番１７号,,13,113,1500011,,,,,,,2023-06-28,1,,,,,コウノワタナベカンリ,0
46,1011005010123,新規,0,2023-06-28,2023-06-28,一般社団法人デジタル創続推進機構,,その他の設立登記法人,東京都,渋谷区,富ヶ谷１丁目３番８号,,13,113,1510063,,,,,,,2023-06-28,1,,,,,デジタルソウゾクスイシンキコウ,0
47,1011101103409,新規,0,2023-06-28,2023-06-28,株式会社アポロ,,株式会社,東京都,新宿区,荒木町１１－６７－４０２,,13,104,1600007,,,,,,,2023-06-28,1,,,,,アポロ,0
53,1011501029451,新規,0,2023-06-28,2023-06-28,株式会社Ｒｅｂｏｗｌ,,株式会社,東京都,北区,赤羽西１丁目３７－１ホワイトシェル４Ｆ,,13,117,1150055,,,,,,,2023-06-28,1,,,,,リボウル,0
60,1011701026372,新規,0,2023-06-28,2023-06-28,株式会社デイフィール,,株式会社,東京都,江戸川区,船堀３丁目１０番８号船堀パールガーデン６０６,,13,123,1340091,,,,,,,2023-06-28,1,,,,,デイフィール,0
65,1012805003209,新規,0,2023-06-28,2023-06-28,特定非営利活動法人Ｒａｉｌｗａｙ　Ｆａｎ　Ｃｌｕｂ,,その他の設立登記法人,東京都,日野市,日野本町２丁目１７番地の２２メゾンＳＥＩＷＡ１０１,,13,212,1910011,,,,,,,2023-06-28,1,,,,,レールウェイファンクラブ,0
67,1013301050975,新規,0,2023-06-28,2023-06-28,株式会社ＬｉｂｅｒｔｙＣｏｎｎｅｃｔｉｏｎ,,株式会社,東京都,豊島区,南池袋３丁目１３番９－３０７号,,13,116,1710022,,,,,,,2023-06-28,1,,,,,リバティーコネクション,0
74,1020001152242,新規,0,2023-06-28,2023-06-28,株式会社いつみお,,株式会社,神奈川県,川崎市麻生区,上麻生２丁目３５番２８号,,14,137,2150021,,,,,,,2023-06-28,1,,,,,イツミオ,0
84,1030001154642,新規,0,2023-06-28,2023-06-28,ＣＨＯ株式会社,,株式会社,埼玉県,川口市,西川口４丁目５－１８,,11,203,3320021,,,,,,,2023-06-28,1,,,,,シーエイチオー,0
89,1030003022038,新規,0,2023-06-28,2023-06-28,合同会社多来福,,合同会社,埼玉県,川口市,幸町３丁目９番１６号ライオンズマンション幸町９０８,,11,203,3320016,,,,,,,2023-06-28,1,,,,,タライフク,0
93,1040001128983,新規,0,2023-06-28,2023-06-28,株式会社大幸工務店,,株式会社,千葉県,千葉市中央区,新宿１丁目５番１６号１０１号室,,12,101,2600021,,,,,,,2023-06-28,1,,,,,ダイコウコウムテン,0
99,1060003004628,新規,0,2023-06-28,2023-06-28,ＡＬＩ　ＮＡＺ　ＣＯＲＰＯＲＡＴＩＯＮ合同会社,,合同会社,栃木県,那須塩原市,井口１１５６番地４６ラピタハイツ２０１,,09,213,3292763,,,,,,,2023-06-28,1,,,,,アリナズコーポレーション,0
104,1070001040566,新規,0,2023-06-28,2023-06-28,株式会社シンエイ,,株式会社,群馬県,高崎市,白銀町９番地白銀ビル３階,,10,202,3700825,,,,,,,2023-06-28,1,,,,,,0
112,1080103002835,新規,0,2023-06-28,2023-06-28,合同会社Ｋ６,,合同会社,静岡県,三島市,文教町１丁目５番１５号,,22,206,4110033,,,,,,,2023-06-28,1,,,,,ケーシックス,0
114,1100003007072,新規,0,2023-06-28,2023-06-28,合同会社麗華,,合同会社,長野県,東御市,滋野乙４７５０番地１,,20,219,3890512,,,,,,,2023-06-28,1,,,,,レイカ,0
131,1120003024388,新規,0,2023-06-28,2023-06-28,クレアコンサルティング合同会社,,合同会社,大阪府,大阪市北区,芝田２丁目８－１１共栄ビル３Ｆ,,27,127,5300012,,,,,,,2023-06-28,1,,,,,クレアコンサルティング,0
141,1130003008811,新規,0,2023-06-28,2023-06-28,合同会社ミュージックスクエア京都,,合同会社,京都府,京都市中京区,上大阪町５２１エンパイヤビルＢ１,,26,104,6048001,,,,,,,2023-06-28,1,,,,,ミュージックスクエアキョウト,0
148,1140001130632,新規,0,2023-06-28,2023-06-28,Ｓｈａｋｅｅｌ　Ｔｒａｄｉｎｇ株式会社,,株式会社,兵庫県,三木市,自由が丘本町３丁目３４４番地,,28,215,6730424,,,,,,,2023-06-28,1,,,,,シャキールトレーディング,0
149,1140001130665,新規,0,2023-06-28,2023-06-28,株式会社ＲｅＡｃｔｉｖａｔｉｏｎ,,株式会社,兵庫県,神戸市西区,井吹台北町１丁目１７－１－１２１０,,28,111,6512244,,,,,,,2023-06-28,1,,,,,リアクティベーション,0
150,1140001130673,新規,0,2023-06-28,2023-06-28,株式会社中西不動産,,株式会社,兵庫県,神戸市兵庫区,熊野町４丁目７番１７号,,28,105,6520064,,,,,,,2023-06-28,1,,,,,ナカニシフドウサン,0
154,1160001025129,新規,0,2023-06-28,2023-06-28,株式会社ＨＩＲＡＫＵ,,株式会社,滋賀県,近江八幡市,安土町下豊浦３０６７,,25,204,5211311,,,,,,,2023-06-28,1,,,,,ヒラク,0
160,1180001156871,新規,0,2023-06-28,2023-06-28,株式会社ぶるまる,,株式会社,愛知県,名古屋市中村区,名駅南１丁目１６番２５号,,23,105,4500003,,,,,,,2023-06-28,1,,,,,ブルマル,0
161,1180001156888,新規,0,2023-06-28,2023-06-28,株式会社はじめよう,,株式会社,愛知県,一宮市,大和町毛受字一本松６０番地シャトー一本松２０５号,,23,203,4910932,,,,,,,2023-06-28,1,,,,,ハジメヨウ,0
162,1180001156905,新規,0,2023-06-28,2023-06-28,株式会社Ｇｒａｎｄ　Ｃｏｎｓｕｌｔｉｎｇ,,株式会社,愛知県,名古屋市千種区,今池１丁目１５番３号エスポワールＫ４０３号室,,23,101,4640850,,,,,,,2023-06-28,1,,,,,グランドコンサルティング,0
166,1180005020264,新規,0,2023-06-28,2023-06-28,医療法人ＭＳＫ,,その他の設立登記法人,愛知県,長久手市,戸田谷９０１番地１アピタ長久手店Ｂ１Ｆ,,23,238,4801124,,,,,,,2023-06-28,1,,,,,エムエスケー,0
168,1190001030522,新規,0,2023-06-28,2023-06-28,株式会社宇野貿易,,株式会社,三重県,桑名市,大字桑部１０５６番地１,,24,205,5110923,,,,,,,2023-06-28,1,,,,,ウノボウエキ,0
181,1240001061727,新規,0,2023-06-28,2023-06-28,株式会社禮成工業,,株式会社,広島県,尾道市,因島土生町１７４７番地１,,34,205,7222323,,,,,,,2023-06-28,1,,,,,ライセイコウギョウ,0
192,1290001102071,新規,0,2023-06-28,2023-06-28,株式会社ＭＧＣ,,株式会社,福岡県,福岡市博多区,半道橋１丁目１７番２６号,,40,132,8120897,,,,,,,2023-06-28,1,,,,,エムジーシー,0
195,1290801029638,新規,0,2023-06-28,2023-06-28,Ｍｏｒｉｔａ株式会社,,株式会社,福岡県,京都郡みやこ町,犀川横瀬１７０番地,,40,625,8240244,,,,,,,2023-06-28,1,,,,,モリタ,0
197,1320005010085,新規,0,2023-06-28,2023-06-28,一般社団法人国東教育共同体・モルゲンシュテルン,,その他の設立登記法人,大分県,国東市,国東町岩屋２０８３番地１,,44,214,8730522,,,,,,,2023-06-28,1,,,,,,0
203,1350003004391,新規,0,2023-06-28,2023-06-28,ニッポンパートナーシップ合同会社,,合同会社,宮崎県,東諸県郡国富町,大字竹田１５３６番地４,,45,382,8801107,,,,,,,2023-06-28,1,,,,,ニッポンパートナーシップ,0
218,1420003002751,新規,0,2023-06-28,2023-06-28,合同会社青眼商社,,合同会社,青森県,弘前市,大字境関字豊川２８番地１,,02,202,0368076,,,,,,,2023-06-28,1,,,,,セイガンショウシャ,0
220,1430001089402,新規,0,2023-06-28,2023-06-28,ＭＥ＆ＦＵＴＵＲＥ株式会社,,株式会社,北海道,札幌市白石区,東札幌五条１丁目１－１,,01,104,0030005,,,,,,,2023-06-28,1,,,,,ミーアンドフューチャー,0
221,1430001089410,新規,0,2023-06-28,2023-06-28,株式会社禅芯工業,,株式会社,北海道,江別市,萌えぎ野西６番地の３,,01,217,0670059,,,,,,,2023-06-28,1,,,,,ゼンシンコウギョウ,0
229,1700150117803,新規,0,2023-06-28,2023-06-28,ｙｉｃｈａｎｇ　ｄｉｎｇｓｈｏｕｄｉａｎｚｉｓｈａｎｇｗｕ　ｙｏｕｘｉａｎｇｏｎｇｓｉ,,外国会社等,,,,,,,,ｄｏｎｇｃｈｅｎｇｓｈｉｙａｎｑｕ　ｄｏｎｇｈｕｄａｄａｏｚｈｉｓｈａｎｇｗｅｉｌａｉｃｈｅｎｇ１８ｈａｏ５０３ｓｈｉ　ｙｉｌｉｎｇｑｕ　ｙｉｃｈａｎｇｓｈｉ，Ｃｈｉｎａ,,,,,,2023-06-28,1,,,,,イチャンディンソォウデンシシャンウユウゲンコウシ,0
230,1700150117811,新規,0,2023-06-28,2023-06-28,ＬＡＶＥＮＤＡ　ＲＩＶＥＲ　ＣＯＭＰＡＮＹ　ＬＩＭＩＴＥＤ,,外国会社等,北海道,虻田郡倶知安町,字旭３４９番地３９,,01,400,0440083,Ｐａｌｍ　Ｇｒｏｖｅ　Ｈｏｕｓｅ，Ｐ．Ｏ．Ｂｏｘ　４３８，Ｒｏａｄ　Ｔｏｗｎ，Ｔｏｒｔｏｌａ，Ｂ．Ｖ．Ｉ,,,,,,2023-06-28,1,,,,,ラベンダリバーカンパニーリミテツド,0
240,2010001236441,新規,0,2023-06-28,2023-06-28,エンモカ株式会社,,株式会社,東京都,文京区,本駒込４丁目３７番７号,,13,105,1130021,,,,,,,2023-06-28,1,,,,,エンモカ,0
243,2010003040957,新規,0,2023-06-28,2023-06-28,合同会社ｃｈｏｋｉ,,合同会社,東京都,千代田区,神田三崎町２丁目１０番１１号ＰＥＧビル４Ｂ－３,,13,101,1010061,,,,,,,2023-06-28,1,,,,,チョウキ,0
245,2010401175272,新規,0,2023-06-28,2023-06-28,株式会社Ａｔｈｄｅｍｙ,,株式会社,東京都,港区,白金３丁目１番１３号日恵ビル２階,,13,103,1080072,,,,,,,2023-06-28,1,,,,,アスデミー,0
246,2010401175306,新規,0,2023-06-28,2023-06-28,ＵＳＡＲＥＴＡＭＡ株式会社,,株式会社,東京都,港区,芝５丁目１９－７－３０８,,13,103,1080014,,,,,,,2023-06-28,1,,,,,ウサレタマ,0
252,2010602008917,新規,0,2023-06-28,2023-06-28,有限会社小川商店,,有限会社,東京都,墨田区,京島１丁目９番１号,,13,107,1310046,,,,,,,2023-06-28,1,,,,,,0
253,2010603010228,新規,0,2023-06-28,2023-06-28,合同会社月見,,合同会社,東京都,江東区,牡丹１丁目５番４号やぎさんビル２Ｆ,,13,108,1350046,,,,,,,2023-06-28,1,,,,,ツキミ,0
262,2010903008269,新規,0,2023-06-28,2023-06-28,リックジャパン合同会社,,合同会社,東京都,世田谷区,桜新町１丁目３９－１７,,13,112,1540015,,,,,,,2023-06-28,1,,,,,リックジャパン,0
265,2011001154996,新規,0,2023-06-28,2023-06-28,株式会社バーガーポリス,,株式会社,東京都,目黒区,碑文谷４丁目２４番１６号,,13,110,1520003,,,,,,,2023-06-28,1,,,,,バーガーポリス,0
266,2011001155292,新規,0,2023-06-28,2023-06-28,株式会社Ｓｎｕｇ,,株式会社,東京都,渋谷区,道玄坂１丁目１０番８号渋谷道玄坂東急ビル２Ｆ－Ｃ,,13,113,1500043,,,,,,,2023-06-28,1,,,,,スナッグ,0
267,2011003017053,新規,0,2023-06-28,2023-06-28,合同会社ＣｉＸＸ,,合同会社,東京都,渋谷区,道玄坂１丁目１０番８号渋谷道玄坂東急ビル２Ｆ－Ｃ,,13,113,1500043,,,,,,,2023-06-28,1,,,,,シーアイエックス,0
269,2011101103300,新規,0,2023-06-28,2023-06-28,株式会社アクシージアバリュークリエイター,,株式会社,東京都,新宿区,西新宿２丁目６番１号新宿住友ビル３５階,,13,104,1600023,,,,,,,2023-06-28,1,,,,,アクシージアバリュークリエイター,0
270,2011101103382,新規,0,2023-06-28,2023-06-28,ＫＣ　ＪＡＰＡＮ株式会社,,株式会社,東京都,新宿区,新宿６丁目４番８号１Ｆ,,13,104,1600022,,,,,,,2023-06-28,1,,,,,ケーシージャパン,0
271,2011203004116,新規,0,2023-06-28,2023-06-28,ＦＩＮＥＹＡＲＤ合同会社,,合同会社,東京都,中野区,中野２丁目４番２１号,,13,114,1640001,,,,,,,2023-06-28,1,,,,,ファインヤード,0
279,2011701026371,新規,0,2023-06-28,2023-06-28,株式会社詩季彩,,株式会社,東京都,江戸川区,船堀５丁目９番２１－１０５号,,13,123,1340091,,,,,,,2023-06-28,1,,,,,シキサイ,0
288,2020001152241,新規,0,2023-06-28,2023-06-28,株式会社Ｓｐｏｖｉｓｏｒ,,株式会社,神奈川県,横浜市西区,浅間町１丁目４番３号ウィザードビル４０２,,14,103,2200072,,,,,,,2023-06-28,1,,,,,スポバイザー,0
289,2020001152258,新規,0,2023-06-28,2023-06-28,株式会社Ｑｒｉｘｔａ,,株式会社,神奈川県,横浜市神奈川区,東神奈川２丁目４７－１０－２０４,,14,102,2210044,,,,,,,2023-06-28,1,,,,,クリスタ,0
297,2021001079433,新規,0,2023-06-28,2023-06-28,株式会社ＡＭＧ・ｓｕｐｐｏｒｔ,,株式会社,神奈川県,横須賀市,船越町７丁目３４番５フォーアール２０２,,14,201,2370076,,,,,,,2023-06-28,1,,,,,エイエムジーサポート,0
298,2021003013241,新規,0,2023-06-28,2023-06-28,合同会社Ｇｒｅｇｅ,,合同会社,神奈川県,厚木市,飯山南３丁目３－６,,14,212,2430218,,,,,,,2023-06-28,1,,,,,グレージュ,0
304,2030001154427,新規,0,2023-06-28,2023-06-28,トップフーズインターナショナル株式会社,,株式会社,埼玉県,さいたま市岩槻区,大字大口４６８番地２,,11,110,3390013,,,,,,,2023-06-28,1,,,,,トップフーズインターナショナル,0
305,2030001154526,新規,0,2023-06-28,2023-06-28,株式会社シーズ,,株式会社,埼玉県,さいたま市南区,南浦和１丁目２６番地３号コーポヒルトップ１０１,,11,108,3360017,,,,,,,2023-06-28,1,,,,,シーズ,0
306,2030001154550,新規,0,2023-06-28,2023-06-28,株式会社谷口ハウス,,株式会社,埼玉県,三郷市,谷口５３５番地,,11,237,3410042,,,,,,,2023-06-28,1,,,,,ヤグチハウス,0
307,2030001154625,新規,0,2023-06-28,2023-06-28,株式会社ＧＡＹＥ＆ＧＡＭＺＥ,,株式会社,埼玉県,川口市,戸塚３丁目３３番２－２０４号ファミールメゾン,,11,203,3330811,,,,,,,2023-06-28,1,,,,,ガイエアンドガムゼ,0
308,2030001154633,新規,0,2023-06-28,2023-06-28,株式会社ＭＴホールディングス,,株式会社,埼玉県,朝霞市,三原２丁目１９番２０号,,11,227,3510025,,,,,,,2023-06-28,1,,,,,エムティーホールディングス,0
309,2030001154641,新規,0,2023-06-28,2023-06-28,中野興業株式会社,,株式会社,埼玉県,狭山市,大字北入曽９２８番地の１１,,11,215,3501315,,,,,,,2023-06-28,1,,,,,ナカノコウギョウ,0
315,2030003022037,新規,0,2023-06-28,2023-06-28,合同会社あうる,,合同会社,埼玉県,八潮市,大字浮塚９１３番地１,,11,234,3400835,,,,,,,2023-06-28,1,,,,,アウル,0
322,2040001128982,新規,0,2023-06-28,2023-06-28,株式会社長竹建設,,株式会社,千葉県,佐倉市,井野１４４９番地５,,12,212,2850855,,,,,,,2023-06-28,1,,,,,ナガタケケンセツ,0
329,2060003004627,新規,0,2023-06-28,2023-06-28,ＭＯＯＳＡ＆ＥＳＳＡ　ＩＮＴＥＲＮＡＴＩＯＮＡＬ合同会社,,合同会社,栃木県,下都賀郡壬生町,大字藤井６１２番地７,,09,361,3210221,,,,,,,2023-06-28,1,,,,,ムサアンドイサインターナショナル,0
334,2070001040565,新規,0,2023-06-28,2023-06-28,レリスメディカル＆ファイナンス株式会社,,株式会社,群馬県,前橋市,川原町２丁目２５番地２,,10,201,3710046,,,,,,,2023-06-28,1,,,,,,0
350,2100001036535,新規,0,2023-06-28,2023-06-28,株式会社Ｇｒａｃｅ　Ｔｈｅ　Ｗｏｒｌｄ,,株式会社,長野県,上伊那郡辰野町,大字辰野１１１６番地４,,20,382,3990421,,,,,,,2023-06-28,1,,,,,グレイスザワールド,0
363,2120001254878,新規,0,2023-06-28,2023-06-28,株式会社おおきに,,株式会社,大阪府,大阪市北区,曾根崎新地１丁目２－６新松リンデンビルＢ１,,27,127,5300002,,,,,,,2023-06-28,1,,,,,オオキニ,0
364,2120001256049,新規,0,2023-06-28,2023-06-28,睿誠徳康株式会社,,株式会社,大阪府,大阪市中央区,島之内１丁目１１－２９,,27,128,5420082,,,,,,,2023-06-28,1,,,,,エイセイトクコウ,0
365,2120001256057,新規,0,2023-06-28,2023-06-28,株式会社イコー・プロテック,,株式会社,大阪府,大阪市北区,曾根崎２丁目１５番１６－３２１５号,,27,127,5300057,,,,,,,2023-06-28,1,,,,,イコープロテック,0
367,2120003024313,新規,0,2023-06-28,2023-06-28,Ｂｏｂａ＆Ｃｈｉａ合同会社,,合同会社,大阪府,大阪市天王寺区,小橋町１４－６３－１３０３,,27,109,5430028,,,,,,,2023-06-28,1,,,,,ボバアンドチア,0
376,2122001037115,新規,0,2023-06-28,2023-06-28,株式会社ＰＡＬ,,株式会社,大阪府,東大阪市,下小阪１丁目６番４号,,27,227,5770803,,,,,,,2023-06-28,1,,,,,パル,0
377,2130001074598,新規,0,2023-06-28,2023-06-28,＿＿株式会社,00130999,株式会社,京都府,京都市南区,西九条南小路町４番地１,,26,107,6018425,,,,,,,2023-06-28,1,,,,,キンキ,0
378,2130001074607,新規,0,2023-06-28,2023-06-28,株式会社ＭＢＬ,,株式会社,京都府,綾部市,広小路３丁目５１,,26,203,6230063,,,,,,,2023-06-28,1,,,,,エムビーエル,0
384,2140003019245,新規,0,2023-06-28,2023-06-28,ＴＧＲ合同会社,,合同会社,兵庫県,宝塚市,山本中１丁目４番７号,,28,214,6650883,,,,,,,2023-06-28,1,,,,,ティージーアール,0
386,2160001025128,新規,0,2023-06-28,2023-06-28,株式会社サンリード,,株式会社,滋賀県,大津市,見世１丁目２１番１１号,,25,201,5200004,,,,,,,2023-06-28,1,,,,,サンリード,0
389,2170001017660,新規,0,2023-06-28,2023-06-28,株式会社ネクストイノベーション,,株式会社,和歌山県,和歌山市,松原２１９番地１,,30,201,6400342,,,,,,,2023-06-28,1,,,,,ネクストイノベーション,0
397,2180001156879,新規,0,2023-06-28,2023-06-28,株式会社アドバンテージシステム,,株式会社,愛知県,一宮市,泉１丁目２番３号,,23,203,4910861,,,,,,,2023-06-28,1,,,,,アドバンテージシステム,0
398,2180001156887,新規,0,2023-06-28,2023-06-28,ハートフォード・グローバル株式会社,,株式会社,愛知県,長久手市,市が洞２丁目９０５番地７,,23,238,4801147,,,,,,,2023-06-28,1,,,,,ハートフォードグローバル,0
399,2180001156895,新規,0,2023-06-28,2023-06-28,株式会社Ｂｉｓｈｏｋｕ,,株式会社,愛知県,名古屋市東区,東大曽根町２１４番地の１,,23,102,4610022,,,,,,,2023-06-28,1,,,,,ビショク,0
413,2250005008838,新規,0,2023-06-28,2023-06-28,一般社団法人カルディアイルマーレ,,その他の設立登記法人,山口県,宇部市,大字中野開作３１４番地６,,35,202,7590203,,,,,,,2023-06-28,1,,,,,カルディアイルマーレ,0
414,2260001038061,新規,0,2023-06-28,2023-06-28,株式会社巫,,株式会社,岡山県,備前市,日生町日生２９９６番地１,,33,211,7013204,,,,,,,2023-06-28,1,,,,,カンナギ,0
434,2350003004390,新規,0,2023-06-28,2023-06-28,合同会社ＴＡＯ,,合同会社,宮崎県,宮崎市,月見ケ丘２丁目１１番４号プチメゾン月見ヶ丘２０３,,45,201,8800926,,,,,,,2023-06-28,1,,,,,タオ,0
441,2360005006871,新規,0,2023-06-28,2023-06-28,一般社団法人ＮＥＲＥＩＳ,,その他の設立登記法人,沖縄県,宮古島市,平良字西里６２３番地２,,47,214,9060012,,,,,,,2023-06-28,1,,,,,ネレイス,0
458,2500005008622,新規,0,2023-06-28,2023-06-28,特定非営利活動法人朴庵詩碑の会,,その他の設立登記法人,愛媛県,上浮穴郡久万高原町,東明神甲５９６番地１,,38,386,7911204,,,,,,,2023-06-28,1,,,,,ホオアンシヒノカイ,0
459,2700150112191,新規,0,2023-06-28,2023-06-28,Ｓｐｒｕｃｅ　Ｃｏｎｅ　Ａｖｉａｔｉｏｎ　Ｌｉｍｉｔｅｄ,,外国会社等,,,,,,,,５ｔｈ　Ｆｌｏｏｒ，Ｔｈｅ　Ｅｘｃｈａｎｇｅ，Ｇｅｏｒｇｅ’ｓ　Ｄｏｃｋ，ＩＦＳＣ，Ｄｕｂｌｉｎ　１，Ｄｕｂｌｉｎ，Ｉｒｅｌａｎｄ,,,,,,2023-06-28,1,,,,,スプルースコーンアビエイシヨンリミテツド,0
460,2700150113371,新規,0,2023-06-28,2023-06-28,ＳＯＲＡＣＯＭ　ＣＯＲＰＯＲＡＴＩＯＮ，ＬＴＤ．,,外国会社等,,,,,,,,１６　Ｇｒｅａｔ　Ｑｕｅｅｎ　Ｓｔｒｅｅｔ，Ｃｏｖｅｎｔ　Ｇａｒｄｅｎ，Ｌｏｎｄｏｎ，Ｕｎｉｔｅｄ　Ｋｉｎｇｄｏｍ，ＷＣ２Ｂ５ＡＨ,,,,,,2023-06-28,1,,,,,ソラコムコーポレーシヨンエルテイーデイー,0
461,2700150117802,新規,0,2023-06-28,2023-06-28,Ｄｏｎｇｇｕａｎ　Ｒｕｉｚｈｉｄａ　Ｔｅｃｈｎｏｌｏｇｙ　Ｃｏ．，ＬＴＤ,,外国会社等,,,,,,,,Ｒｏｏｍ９１３，Ｎｏ．１７，ｓｈａｔｏｕｄａｊｉｎｇ　Ｓｔｒｅｅｔ，ＣｈａｎｇＡｎ　Ｚｈｅｎ，Ｄｏｎｇｇｕａｎ　Ｃｉｔｙ，Ｇｕａｎｇｄｏｎｇ，Ｃｈｉｎａ,,,,,,2023-06-28,1,,,,,トンコワンエイシタクテクユウゲンコウシ,0
462,2700150117810,新規,0,2023-06-28,2023-06-28,ＳＴＡＲ　ＳＴＲＡＴＥＧＩＣ　ＧＲＯＵＰ　ＬＩＭＩＴＥＤ,,外国会社等,北海道,虻田郡倶知安町,ニセコひらふ一条２丁目６番９号雪ニセコ３１７　３１８　７５８　７５９号室,,01,400,0440080,Ｒｏｏｍ　１３０１，１３ｔｈ　Ｆｌｏｏｒ，Ｗａｎｃｈａｉ　Ｃｅｎｔｅｒ　Ｂｕｉｌｄｉｎｇ　８９　Ｌｏｃｋｈａｒｔ　Ｒｏｄａ，Ｗａｎｃｈａｉ　Ｈｏｎｇ　Ｋｏｎｇ,,,,,,2023-06-28,1,,,,,スターストラテジツクグループリミテツド,0
463,2700150117819,新規,0,2023-06-28,2023-06-28,ｓｈｅｎｚｈｅｎｓｈｉ　ｊｉｎｇｘｉｎｓｈｉｙｅ　ｙｏｕｘｉａｎｇｏｎｇｓｉ,,外国会社等,,,,,,,,Ｌｏｎｇｈｕａｑｕ　ｌｏｎｇｈｕａｊｉｅｄａｏ　ｑｉｎｇｈｕａｓｈｅｑｕ　ｌｏｎｇｈｕａｎｓａｎｌｕ　ｘｉｎｇｆｕｃｈｅｎｇ　ｒｕｎｙｕａｎｓａｎｑｉ　１４ｄｏｎｇ２０４ｃ　Ｓｈｅｎｚｈｅｎｓｈｉ　Ｇｕａｎｇｄｏｎｇｓｈｅｎｇ　ＣＮ,,,,,,2023-06-28,1,,,,,シェンゼェンシジンシンシイェユウゲンコウシ,0
477,3010001236449,新規,0,2023-06-28,2023-06-28,株式会社ＺＯＳＳ,,株式会社,東京都,中央区,新富２丁目５番２号増田ビル２階,,13,102,1040041,,,,,,,2023-06-28,1,,,,,ゾス,0
478,3010001236498,新規,0,2023-06-28,2023-06-28,株式会社ＣＸＣクロスカルチャー,,株式会社,東京都,中央区,築地７丁目１４番１４－４０３号,,13,102,1040045,,,,,,,2023-06-28,1,,,,,シーエックスシークロスカルチャー,0
490,3010401175288,新規,0,2023-06-28,2023-06-28,株式会社ライトニング,,株式会社,東京都,港区,白金３丁目９番１１号－２Ｆ,,13,103,1080072,,,,,,,2023-06-28,1,,,,,ライトニング,0
491,3010401175296,新規,0,2023-06-28,2023-06-28,ニヒンメディア株式会社,,株式会社,東京都,港区,赤坂１丁目３－５赤坂アビタシオンビル８０６,,13,103,1070052,,,,,,,2023-06-28,1,,,,,ニヒンメディア,0
493,3010403030400,新規,0,2023-06-28,2023-06-28,参道園合同会社,,合同会社,東京都,港区,南青山５丁目１２番２４－４０９号,,13,103,1070062,,,,,,,2023-06-28,1,,,,,サンドウエン,0
494,3010405022239,新規,0,2023-06-28,2023-06-28,一般社団法人全日本健康産業海外推進連合会,,その他の設立登記法人,東京都,港区,新橋４丁目２２－４ＶＯＲＴ新橋ＩＩＩ３階,00131008,13,103,1050004,,,,,,,2023-06-28,1,,,,,ゼンニホンケンコウサンギョウカイガイスイシンレンゴウカイ,0
497,3010601063318,新規,0,2023-06-28,2023-06-28,株式会社ＯＫＡＤＡ　ＣＯ．，ＬＴＤ．,,株式会社,東京都,江東区,東陽２丁目３番６－５１９号,,13,108,1350016,,,,,,,2023-06-28,1,,,,,オカダカンパニーリミテッド,0
504,3010701044481,新規,0,2023-06-28,2023-06-28,株式会社川島,,株式会社,東京都,品川区,大崎４丁目２番１３－８０８号,,13,109,1410032,,,,,,,2023-06-28,1,,,,,カワシマ,0
511,3010901053299,新規,0,2023-06-28,2023-06-28,株式会社ＬＰＧ,,株式会社,東京都,世田谷区,代田５丁目１番地１８号,,13,112,1550033,,,,,,,2023-06-28,1,,,,,エルピージー,0
517,3011001155317,新規,0,2023-06-28,2023-06-28,株式会社Ｓｙｓｔｅｍ　Ｗｉｔｃｈ,,株式会社,東京都,目黒区,自由が丘２丁目１６番１２号ＲＪ３,,13,110,1520035,,,,,,,2023-06-28,1,,,,,システムウィッチ,0
524,3011003017052,新規,0,2023-06-28,2023-06-28,合同会社ＥＣテクノロジーズ,,合同会社,東京都,渋谷区,渋谷２丁目１９－１５宮益坂ビルディング６０９,,13,113,1500002,,,,,,,2023-06-28,1,,,,,イーシーテクノロジーズ,0
529,3011101103407,新規,0,2023-06-28,2023-06-28,辻・本郷シェアードサービス株式会社,00131009,株式会社,東京都,新宿区,西新宿１丁目２５番１号新宿センタービル３１Ｆ,,13,104,1600023,,,,,,,2023-06-28,1,,,,,,0
535,3011701026370,新規,0,2023-06-28,2023-06-28,株式会社ＳＳトラスト,,株式会社,東京都,江戸川区,西葛西７丁目１０番１６号,,13,123,1340088,,,,,,,2023-06-28,1,,,,,エスエストラスト,0
538,3011801042631,新規,0,2023-06-28,2023-06-28,Ｓ＆Ｌ株式会社,,株式会社,東京都,葛飾区,西新小岩４丁目２１番２１－２０４号,,13,122,1240025,,,,,,,2023-06-28,1,,,,,エスアンドエル,0
542,3012801022466,新規,0,2023-06-28,2023-06-28,株式会社ウォルカム,,株式会社,東京都,国立市,西２丁目２３番地の６２,,13,215,1860005,,,,,,,2023-06-28,1,,,,,ウォルカム,0
544,3013301050981,新規,0,2023-06-28,2023-06-28,株式会社Ｔ‐ＯＮＥ,,株式会社,東京都,豊島区,池袋１丁目１２番２号,,13,116,1700014,,,,,,,2023-06-28,1,,,,,ティーワン,0
557,3021001079432,新規,0,2023-06-28,2023-06-28,株式会社みどり総研,,株式会社,神奈川県,大和市,中央林間３丁目６番１－４０５号,,14,213,2420007,,,,,,,2023-06-28,1,,,,,ミドリソウケン,0
560,3021003013265,新規,0,2023-06-28,2023-06-28,シンライモーターズ合同会社,,合同会社,神奈川県,厚木市,上依知１３９４番地４大森ハイツ１０３号,,14,212,2430801,,,,,,,2023-06-28,1,,,,,シンライモーターズ,0
567,3030001154590,新規,0,2023-06-28,2023-06-28,防爆テクノロジー株式会社,,株式会社,埼玉県,入間市,豊岡５丁目１－９,,11,225,3580003,,,,,,,2023-06-28,1,,,,,ボウバクテクノロジー,0
568,3030001154608,新規,0,2023-06-28,2023-06-28,株式会社ＲＩＳＥ　ＴＥＣＨ,,株式会社,埼玉県,さいたま市南区,大字広ヶ谷戸３１４番地４,,11,108,3360041,,,,,,,2023-06-28,1,,,,,ライズテック,0
569,3030003022036,新規,0,2023-06-28,2023-06-28,Ｖｉｅｔサービス合同会社,,合同会社,埼玉県,児玉郡上里町,大字三町１８５番地４ワンルームのぞみ２０２号,,11,385,3690314,,,,,,,2023-06-28,1,,,,,ヴィエトサービス,0
575,3040001128981,新規,0,2023-06-28,2023-06-28,株式会社インフィニティ創研,,株式会社,千葉県,木更津市,吾妻２丁目９番７号サンライズタチバナ５号室,,12,206,2920065,,,,,,,2023-06-28,1,,,,,インフィニティソウケン,0
583,3050003007605,新規,0,2023-06-28,2023-06-28,ヤマザキファクトリー合同会社,,合同会社,茨城県,龍ケ崎市,馴馬町３９１６番地,,08,208,3010004,,,,,,,2023-06-28,1,,,,,ヤマザキファクトリー,0
586,3060003004626,新規,0,2023-06-28,2023-06-28,合同会社蒼天,,合同会社,栃木県,栃木市,平柳町１丁目１１番５号Ｄ－Ｒｏｏｍ・Ｂ２０２,,09,203,3280012,,,,,,,2023-06-28,1,,,,,ソウテン,0
593,3070003004996,新規,0,2023-06-28,2023-06-28,合同会社天竺,,合同会社,群馬県,藤岡市,保美濃山字前野４０１－１１,,10,209,3701403,,,,,,,2023-06-28,1,,,,,,0
594,3070003005004,新規,0,2023-06-28,2023-06-28,Ｊｏｂ　Ｃｏａｃｈ合同会社,,合同会社,群馬県,利根郡みなかみ町,湯原４５８番地４１ＵＮＥＸＢＵＩＬＤＩＮＧ１０２,,10,449,3791617,,,,,,,2023-06-28,1,,,,,,0
599,3080405007555,新規,0,2023-06-28,2023-06-28,一般社団法人ソーラ・ヒーリング協会,,その他の設立登記法人,静岡県,浜松市西区,大人見町１７５０番地の９５,,22,133,4311112,,,,,,,2023-06-28,1,,,,,ソーラヒーリングキョウカイ,0
610,3120001256007,新規,0,2023-06-28,2023-06-28,行奕株式会社,,株式会社,大阪府,大阪市東淀川区,相川２丁目２４－３３ルームリバーサイドＡ２０８号室,,27,114,5330007,,,,,,,2023-06-28,1,,,,,ギョウエキ,0
611,3120001256048,新規,0,2023-06-28,2023-06-28,東杉源株式会社,,株式会社,大阪府,大阪市中央区,島之内１丁目１１－２９,,27,128,5420082,,,,,,,2023-06-28,1,,,,,トウサンゲン,0
612,3120001256056,新規,0,2023-06-28,2023-06-28,株式会社麺らぼ,,株式会社,大阪府,大阪市中央区,高麗橋１丁目３－２メゾン高麗橋１０２,,27,128,5410043,,,,,,,2023-06-28,1,,,,,メンラボ,0
619,3120105009731,新規,0,2023-06-28,2023-06-28,特定非営利活動法人南河内観光まちづくり研究所,,その他の設立登記法人,大阪府,富田林市,常盤町３番１７号（４０２）,,27,214,5840032,,,,,,,2023-06-28,1,,,,,ミナミカワチカンコウマチヅクリケンキュウジョ,0
632,3140003019244,新規,0,2023-06-28,2023-06-28,合同会社ディーアール,,合同会社,兵庫県,神戸市東灘区,西岡本３丁目１番９－２０１号,,28,101,6580073,,,,,,,2023-06-28,1,,,,,ディーアール,0
636,3160005011206,新規,0,2023-06-28,2023-06-28,一般社団法人大津同胞生活相談綜合センター,,その他の設立登記法人,滋賀県,大津市,木下町２番地３４,,25,201,5200812,,,,,,,2023-06-28,1,,,,,オオツドウホウセイカツソウダンソウゴウセンター,0
641,3180001156886,新規,0,2023-06-28,2023-06-28,株式会社ＳＷＡＣＫ,,株式会社,愛知県,名古屋市中区,錦３丁目６番１５号先名古屋テレビ塔３階,,23,106,4600003,,,,,,,2023-06-28,1,,,,,スワック,0
644,3180003025404,新規,0,2023-06-28,2023-06-28,合同会社東勝,,合同会社,愛知県,名古屋市天白区,八事石坂１２９番地,,23,116,4680076,,,,,,,2023-06-28,1,,,,,トウショウ,0
646,3180301037506,新規,0,2023-06-28,2023-06-28,株式会社あみる不動産,,株式会社,愛知県,豊田市,梅坪町２丁目６番地１,,23,211,4710064,,,,,,,2023-06-28,1,,,,,アミルフドウサン,0
648,3180305009484,新規,0,2023-06-28,2023-06-28,医療法人みなみまち矯正歯科,,その他の設立登記法人,愛知県,豊橋市,草間町字平南１３番地,,23,201,4418141,,,,,,,2023-06-28,1,,,,,ミナミマチキョウセイシカ,0
649,3190001030512,新規,0,2023-06-28,2023-06-28,フォルテ住建株式会社,,株式会社,三重県,鈴鹿市,算所１丁目１２番３号,,24,207,5130806,,,,,,,2023-06-28,1,,,,,フォルテジュウケン,0
650,3190003004365,新規,0,2023-06-28,2023-06-28,３９サポート合同会社,,合同会社,三重県,鈴鹿市,白子１丁目２８番２１号,,24,207,5100243,,,,,,,2023-06-28,1,,,,,サンキューサポート,0
651,3200001041417,新規,0,2023-06-28,2023-06-28,株式会社佐藤工業,,株式会社,岐阜県,各務原市,鵜沼南町１丁目５５番地,,21,213,5090125,,,,,,,2023-06-28,1,,,,,サトウコウギョウ,0
658,3240003006199,新規,0,2023-06-28,2023-06-28,合同会社柚,,合同会社,広島県,呉市,焼山泉ヶ丘２丁目１４番９号,,34,202,7370913,,,,,,,2023-06-28,1,,,,,ユズ,0
665,3260001038060,新規,0,2023-06-28,2023-06-28,ロジ株式会社,,株式会社,岡山県,笠岡市,神島４８６０番地１,,33,205,7140044,,,,,,,2023-06-28,1,,,,,ロジ,0
670,3290001102078,新規,0,2023-06-28,2023-06-28,株式会社東,,株式会社,福岡県,大川市,大字幡保５６番地１,,40,212,8310033,,,,,,,2023-06-28,1,,,,,ヒガシ,0
675,3290003014073,新規,0,2023-06-28,2023-06-28,ラテヴィヤンコ合同会社,,合同会社,福岡県,福岡市中央区,警固２丁目１５番３号ＣＡＮＮＥＲＹ警固本通り３０２号,,40,133,8100023,,,,,,,2023-06-28,1,,,,,ラテヴィヤンコ,0
681,3330001031000,新規,0,2023-06-28,2023-06-28,株式会社Ｆ．Ｐ．Ｓ,,株式会社,熊本県,水俣市,白浜町１６番５号,,43,205,8670006,,,,,,,2023-06-28,1,,,,,エフピーエス,0
686,3360003013092,新規,0,2023-06-28,2023-06-28,イナバ合同会社,,合同会社,沖縄県,那覇市,辻２丁目６番１２号辻２４ビル３０３,00130996,47,201,9000037,,,,,,,2023-06-28,1,,,,,イナバ,0
704,3430001089383,新規,0,2023-06-28,2023-06-28,株式会社あびらプランニング,,株式会社,北海道,勇払郡安平町,早来大町１１３番地２,,01,585,0591501,,,,,,,2023-06-28,1,,,,,アビラプランニング,0
706,3430005014734,新規,0,2023-06-28,2023-06-28,一般社団法人ＤＯＦＯＲＦＩＳＨ,,その他の設立登記法人,北海道,札幌市中央区,北八条西２０丁目１番２０号,,01,101,0600008,,,,,,,2023-06-28,1,,,,,ドゥーフォーフィッシュ,0
708,3460101007399,新規,0,2023-06-28,2023-06-28,株式会社ユアメモリーパートナーズ,,株式会社,北海道,帯広市,西二十三条南３丁目２１番地７,,01,207,0802473,,,,,,,2023-06-28,1,,,,,ユアメモリーパートナーズ,0
712,3500003003054,新規,0,2023-06-28,2023-06-28,宮本建材合同会社,,合同会社,愛媛県,今治市,常盤町３丁目２番地１アルファライフ今治銀座７０１号,,38,202,7940015,,,,,,,2023-06-28,1,,,,,,0
714,3700150112190,新規,0,2023-06-28,2023-06-28,Ａｐｕｓ　Ｌｉｇｈｔｓ　Ａｖｉａｔｉｏｎ　Ｌｉｍｉｔｅｄ,,外国会社等,,,,,,,,５ｔｈ　Ｆｌｏｏｒ，Ｔｈｅ　Ｅｘｃｈａｎｇｅ，Ｇｅｏｒｇｅ’ｓ　Ｄｏｃｋ，ＩＦＳＣ，Ｄｕｂｌｉｎ　１，Ｄｕｂｌｉｎ，Ｉｒｅｌａｎｄ,,,,,,2023-06-28,1,,,,,エイパスライツアビエイシヨンリミテツド,0
715,3700150116365,新規,0,2023-06-28,2023-06-28,Ｗａｓａｂｉ　Ｔｅｃｈｎｏｌｏｇｉｅｓ　ＬＬＣ,,外国会社等,,,,,,,,２５１　Ｌｉｔｔｌｅ　Ｆａｌｌｓ　Ｄｒｉｖｅ，Ｃｉｔｙ　ｏｆ　Ｗｉｌｍｉｎｇｔｏｎ，Ｃｏｕｎｔｙ　ｏｆ　Ｎｅｗ　Ｃａｓｔｌｅ，Ｄｅｌａｗａｒｅ　１９８０８，Ｕ．Ｓ．Ａ,,,,,,2023-06-28,1,,,,,ワサビテクノロジーズエルエルシー,0
716,3700150117801,新規,0,2023-06-28,2023-06-28,Ｈｕｂｅｉ　Ｑｉｃｈｅｎｇ　Ｅｄｕｃａｔｉｏｎ　Ｃｏｎｓｕｌｔｉｎｇ　Ｃｏ．，ＬＴＤ,,外国会社等,,,,,,,,１４－５，Ｓａｎｙｉ　Ｓｔｒｅｅｔ，Ｊｉｎｇｚｈｏｕ　Ｄｉｓｔｒｉｃｔ，Ｊｉｎｇｚｈｏｕ　Ｃｉｔｙ，Ｈｕｂｅｉ，Ｃｈｉｎａ,,,,,,2023-06-28,1,,,,,コホクケイテイキョウイクシジュンユウゲンコウシ,0
717,3700150117818,新規,0,2023-06-28,2023-06-28,Ｓｈｅｎｚｈｅｎ　ｂｏｒｕｉｙｕａｎｐｉｊｕ　ｙｏｕｘｉａｎｇｏｎｇｓｉ,,外国会社等,,,,,,,,Ｌｏｎｇｈｕａ　Ｄｉｓｔｒｉｃｔ　Ｍｉｎｚｈｉ　Ｓｔｒｅｅｔ　Ｓｈａｎｇｆｅｎ　Ｃｏｍｍｕｎｉｔｙ　３０１，Ｎｏ．８９，Ｚｏｎｅ　１，Ｉｎｄｕｓｔｒｉａｌ　Ａｒｅａ　Ｎｏ．５　ＳＨＥＮＺＨＥＮＳＨＩ　ＧＵＡＮＧＤＯＮＧ　ＣＮ,,,,,,2023-06-28,1,,,,,シンセンボルイユェンピジュユウゲンコウシ,0
721,4010001236308,新規,0,2023-06-28,2023-06-28,藤原商事株式会社,,株式会社,東京都,千代田区,神田和泉町１番地６の１インターナショナルビル８０２号室,,13,101,1010024,,,,,,,2023-06-28,1,,,,,フジワラショウジ,0
722,4010001236489,新規,0,2023-06-28,2023-06-28,株式会社ＡＲＩＡ　ＡＳＳＥＴ,,株式会社,東京都,文京区,本郷１丁目３５番２７－６０２号,,13,105,1130033,,,,,,,2023-06-28,1,,,,,アリアアセット,0
729,4010401175287,新規,0,2023-06-28,2023-06-28,株式会社ドム,,株式会社,東京都,港区,虎ノ門４丁目１番１号,,13,103,1050001,,,,,,,2023-06-28,1,,,,,ドム,0
730,4010403030366,新規,0,2023-06-28,2023-06-28,合同会社リトラエル,,合同会社,東京都,港区,南青山２丁目２番１５号,,13,103,1070062,,,,,,,2023-06-28,1,,,,,リトラエル,0
731,4010403030399,新規,0,2023-06-28,2023-06-28,合同会社ＮＲＥ‐４９インベストメント,,合同会社,東京都,港区,虎ノ門２丁目１０番４号オークラプレステージタワー,,13,103,1050001,,,,,,,2023-06-28,1,,,,,エヌアールイーヨンジュウキュウインベストメント,0
735,4010603010218,新規,0,2023-06-28,2023-06-28,合同会社サクラオート,,合同会社,東京都,江東区,木場１丁目４番６号カナルグランデ７０１,,13,108,1350042,,,,,,,2023-06-28,1,,,,,サクラオート,0
737,4010701044415,新規,0,2023-06-28,2023-06-28,株式会社ぽくてぃ,,株式会社,東京都,品川区,南大井１丁目１番１８号１Ｆ,,13,109,1400013,,,,,,,2023-06-28,1,,,,,ポクティ,0
741,4010901053307,新規,0,2023-06-28,2023-06-28,株式会社Ｉｍｐａｃｔ　Ｐｏｉｎｔ,,株式会社,東京都,世田谷区,成城９丁目１番５号フォレスト成城２０２,,13,112,1570066,,,,,,,2023-06-28,1,,,,,インパクトポイント,0
742,4010901053315,新規,0,2023-06-28,2023-06-28,株式会社アプレミディ,,株式会社,東京都,世田谷区,野毛３丁目１８－１－３０７,,13,112,1580092,,,,,,,2023-06-28,1,,,,,アプレミディ,0
743,4010905004495,新規,0,2023-06-28,2023-06-28,一般社団法人ことおと企画,,その他の設立登記法人,東京都,世田谷区,玉川３丁目２７－１－玉川３丁目住宅５０７,,13,112,1580094,,,,,,,2023-06-28,1,,,,,コトオトキカク,0
762,4011203004114,新規,0,2023-06-28,2023-06-28,合同会社講演・研修．ｃｏｍ,,合同会社,東京都,中野区,若宮１丁目５６番９号エルマーノ若宮２０３,,13,114,1650033,,,,,,,2023-06-28,1,,,,,コウエンケンシュウドットコム,0
774,4012403006040,新規,0,2023-06-28,2023-06-28,デジタルソフトクリーム合同会社,,合同会社,東京都,多摩市,落合１丁目１０番１号京王多摩センターｓｃ２階ＫＥＩＯＢＩＺＰＬＡＺＡ多摩センター内１３番,,13,224,2060033,,,,,,,2023-06-28,1,,,,,デジタルソフトクリーム,0
775,4012801022473,新規,0,2023-06-28,2023-06-28,株式会社ＳＲ商事,,株式会社,東京都,日野市,平山３丁目４０番地の３,,13,212,1910043,,,,,,,2023-06-28,1,,,,,エスアールショウジ,0
781,4013301050964,新規,0,2023-06-28,2023-06-28,日本芸拓株式会社,,株式会社,東京都,豊島区,池袋４丁目３番２－３Ｆ号,,13,116,1710014,,,,,,,2023-06-28,1,,,,,ニホンゲイタク,0
802,4020003024115,新規,0,2023-06-28,2023-06-28,合同会社中村,,合同会社,神奈川県,横浜市旭区,今宿東町８９１番地３,,14,112,2410032,,,,,,,2023-06-28,1,,,,,ナカムラ,0
803,4020003024123,新規,0,2023-06-28,2023-06-28,合同会社ＴＡＭＩ　ＣＯＲＰＯＲＡＴＩＯＮ,,合同会社,神奈川県,川崎市中原区,上丸子山王町１丁目１３９９番地８,,14,133,2110002,,,,,,,2023-06-28,1,,,,,タミコーポレーション,0
810,4021003013248,新規,0,2023-06-28,2023-06-28,ＲＴＳ合同会社,,合同会社,神奈川県,逗子市,小坪４丁目１８―１,,14,208,2490008,,,,,,,2023-06-28,1,,,,,アールティーエス,0
811,4030001154499,新規,0,2023-06-28,2023-06-28,株式会社ワイズファクトリー,,株式会社,埼玉県,川口市,大字赤芝新田３４５番地の４,,11,203,3330824,,,,,,,2023-06-28,1,,,,,ワイズファクトリー,0
812,4030001154581,新規,0,2023-06-28,2023-06-28,株式会社アクセスリスト,,株式会社,埼玉県,新座市,東北２丁目３６番１１号ＥＨ第４ビル４階,,11,230,3520001,,,,,,,2023-06-28,1,,,,,アクセスリスト,0
813,4030001154598,新規,0,2023-06-28,2023-06-28,情報化サポート株式会社,,株式会社,埼玉県,さいたま市大宮区,桜木町２丁目３番地大宮マルイ７階,,11,103,3300854,,,,,,,2023-06-28,1,,,,,ジョウホウカサポート,0
814,4030001154648,新規,0,2023-06-28,2023-06-28,上里種苗株式会社,,株式会社,埼玉県,児玉郡上里町,大字七本木３６０６番地５,,11,385,3690306,,,,,,,2023-06-28,1,,,,,カミサトシュビョウ,0
824,4050001053022,新規,0,2023-06-28,2023-06-28,株式会社Ｔｈｒｕｓｈ,,株式会社,茨城県,稲敷郡阿見町,本郷１丁目１７番地６,,08,443,3001159,,,,,,,2023-06-28,1,,,,,スラッシュ,0
827,4060003004617,新規,0,2023-06-28,2023-06-28,Ｓ．Ａ．ＪＰ＆ＢＤ合同会社,,合同会社,栃木県,佐野市,万町２７６９番地１３,,09,204,3270028,,,,,,,2023-06-28,1,,,,,エスエージェイピーアンドビーディー,0
828,4060003004625,新規,0,2023-06-28,2023-06-28,ＡＳＩＦ　ＴＲＡＤＩＮＧ合同会社,,合同会社,栃木県,栃木市,岩舟町新里１３０３番地２（２６号室）,,09,203,3294316,,,,,,,2023-06-28,1,,,,,アシフトレーディング,0
838,4080001025687,新規,0,2023-06-28,2023-06-28,株式会社ＭＡＬＣＡ,,株式会社,静岡県,藤枝市,下之郷１３６３番地の１８,,22,214,4260203,,,,,,,2023-06-28,1,,,,,マルカ,0
842,4080401026558,新規,0,2023-06-28,2023-06-28,株式会社うなぎテック,,株式会社,静岡県,湖西市,大知波３３８番地の１０５,,22,221,4310403,,,,,,,2023-06-28,1,,,,,ウナギテック,0
861,4120001256006,新規,0,2023-06-28,2023-06-28,基石株式会社,,株式会社,大阪府,大阪市中央区,南新町２丁目２－９プレサンス大手前パークサイドＩＩ８０７号室,00131000,27,128,5400024,,,,,,,2023-06-28,1,,,,,キセキ,0
862,4120001256030,新規,0,2023-06-28,2023-06-28,株式会社ヒガドー,,株式会社,大阪府,大阪市城東区,今福東１丁目１３番８号１Ｆ,,27,118,5360002,,,,,,,2023-06-28,1,,,,,ヒガドー,0
863,4120001256055,新規,0,2023-06-28,2023-06-28,株式会社ＢＡＳＥＭＥＮＴ,,株式会社,大阪府,大阪市西区,本田３丁目１番６号,,27,106,5500022,,,,,,,2023-06-28,1,,,,,ベースメント,0
868,4120005023699,新規,0,2023-06-28,2023-06-28,一般社団法人アトリア,,その他の設立登記法人,大阪府,門真市,末広町４３番１号,,27,223,5710030,,,,,,,2023-06-28,1,,,,,アトリア,0
886,4140001130571,新規,0,2023-06-28,2023-06-28,株式会社特電ホールディングス,,株式会社,兵庫県,姫路市,中地字早瀬６９４番地,,28,201,6700976,,,,,,,2023-06-28,1,,,,,トクデンホールディングス,0
887,4140001130621,新規,0,2023-06-28,2023-06-28,株式会社Ｓｅｌｅｎｅ,,株式会社,兵庫県,神戸市中央区,栄町通３丁目４番６－８０８号,,28,110,6500023,,,,,,,2023-06-28,1,,,,,セレーネ,0
891,4140003019243,新規,0,2023-06-28,2023-06-28,合同会社Ｃ＆Ｔ,,合同会社,兵庫県,神戸市兵庫区,福原町１５－４福原町草壁店舗,,28,105,6520036,,,,,,,2023-06-28,1,,,,,シーアンドティー,0
902,4180001156902,新規,0,2023-06-28,2023-06-28,中部仮設ホールディングス株式会社,,株式会社,愛知県,名古屋市北区,浪打町１丁目１０番地の１,,23,103,4620041,,,,,,,2023-06-28,1,,,,,チュウブカセツホールディングス,0
907,4180003025403,新規,0,2023-06-28,2023-06-28,合同会社アイリス,,合同会社,愛知県,名古屋市中区,新栄１丁目６－２４ＪＯＹ新栄１Ｆ,,23,106,4600007,,,,,,,2023-06-28,1,,,,,アイリス,0
910,4190001030511,新規,0,2023-06-28,2023-06-28,株式会社ＲＥＣＯＵＰＥＲ,,株式会社,三重県,志摩市,志摩町片田４２８７番地１,,24,215,5170701,,,,,,,2023-06-28,1,,,,,リクーパー,0
911,4190001030528,新規,0,2023-06-28,2023-06-28,株式会社一ゑ水産,,株式会社,三重県,尾鷲市,中村町９番１０号,,24,209,5193616,,,,,,,2023-06-28,1,,,,,イチエスイサン,0
912,4190003004364,新規,0,2023-06-28,2023-06-28,合同会社ｗａｉｗａｉ企画,,合同会社,三重県,松阪市,中町１８２６番地１,,24,204,5150083,,,,,,,2023-06-28,1,,,,,ワイワイキカク,0
919,4240001061732,新規,0,2023-06-28,2023-06-28,株式会社Ｓｉｉ,,株式会社,広島県,安芸郡府中町,大須３丁目８番２１－２号,,34,302,7350021,,,,,,,2023-06-28,1,,,,,エスツー,0
935,4290001102044,新規,0,2023-06-28,2023-06-28,株式会社孫の手,,株式会社,福岡県,大牟田市,新栄町１６番地４,,40,202,8360041,,,,,,,2023-06-28,1,,,,,マゴノテ,0
936,4290001102077,新規,0,2023-06-28,2023-06-28,株式会社ウィルＡＣＴ,,株式会社,福岡県,福岡市城南区,友丘３丁目１２番１４－１号,,40,136,8140112,,,,,,,2023-06-28,1,,,,,ウィルアクト,0
938,4300001013355,新規,0,2023-06-28,2023-06-28,株式会社巖野,,株式会社,佐賀県,武雄市,武雄町大字富岡９２９１番地６,,41,206,8430024,,,,,,,2023-06-28,1,,,,,ゲンノ,0
939,4300005007147,新規,0,2023-06-28,2023-06-28,特定非営利活動法人本通キャットライフ,,その他の設立登記法人,佐賀県,鳥栖市,本通町１丁目８５５番地１４九州メディカル・サービス２階,,41,203,8410033,,,,,,,2023-06-28,1,,,,,ホンドオリキャットライフ,0
942,4320001019854,新規,0,2023-06-28,2023-06-28,株式会社ＹＡＫＵ　ＹＡＫＵ,,株式会社,大分県,大分市,弁天２丁目６－２９,,44,201,8700017,,,,,,,2023-06-28,1,,,,,ヤクヤク,0
947,4350003004389,新規,0,2023-06-28,2023-06-28,合同会社Ｔｗｉｎ　Ｓｔａｒ,,合同会社,宮崎県,都城市,山田町中霧島３１５７番地１７,,45,202,8894602,,,,,,,2023-06-28,1,,,,,ツインスター,0
961,4420001018318,新規,0,2023-06-28,2023-06-28,株式会社アンドケイ,,株式会社,青森県,五所川原市,字元町９８番地,,02,205,0370044,,,,,,,2023-06-28,1,,,,,アンドケイ,0
972,4700150115960,新規,0,2023-06-28,2023-05-09,ほりい敬太連合後援会,,その他,北海道,伊達市,弄月町２４５番地１５,,01,233,0520013,,,,,,,2023-05-09,1,,,,,ホリイケイタレンゴウコウエンカイ,0
973,4700150117800,新規,0,2023-06-28,2023-06-28,ＧｕａｎｇｚｈｏｕＣｉｔｙ　Ｘｉｎｇｗａｎｇｒｕｉｊｉｅ　Ｅｌｅｃｔｒｉｃ　Ｔｅｃｈｎｏｌｏｇｙ　Ｃｏ．，ＬＴＤ,,外国会社等,,,,,,,,Ｘ１３０１－Ｇ０２１５６４，Ｎｏ．１０６，Ｆｅｎｇｚｅｄｏｎｇ　Ｒｏａｄ，Ｎａｎｓｈａ　Ｄｉｓｔｒｉｃｔ，Ｇｕａｎｇｚｈｏｕ　Ｃｉｔｙ，Ｃｈｉｎａ,,,,,,2023-06-28,1,,,,,コウシュウシセイモウズイショウデンシテクユウゲンコウシ,0
974,4700150117817,新規,0,2023-06-28,2023-06-28,Ｓｈｅｎｚｈｅｎ　Ｌａｉｐｅｎｇ　Ｘｉｎｘｉ　Ｋｅｊｉ　Ｙｏｕｘｉａｎｇｏｎｇｓｉ,,外国会社等,,,,,,,,Ｒ３０７　Ｘｉｎｇｙａｇｅ　Ｃ　Ｄｏｎｇ　Ａ－Ｃ　Ｄｏｎｇ　Ｂａｉｈｅｘｉｎｇｃｈｅｎｇ　Ｂｕｊｉｅｊｉｅｄａｏ　Ｌｏｎｇｇａｎｇｑｕ　Ｓｈｅｎｚｈｅｎ　Ｇｕａｎｇｄｏｎｇ　Ｃｈｉｎａ,,,,,,2023-06-28,1,,,,,シンセンライペンシンシケジユウゲンコウシ,0
980,5010001236414,新規,0,2023-06-28,2023-06-28,株式会社ジェイキャスエアウェイズ,,株式会社,東京都,千代田区,富士見１丁目３番１１号富士見デュープレックスＢ’ｓ４Ｆ,,13,101,1020071,,,,,,,2023-06-28,1,,,,,ジェイキャスエアウェイズ,0
985,5010003040987,新規,0,2023-06-28,2023-06-28,泰和貿易合同会社,,合同会社,東京都,中央区,日本橋室町１丁目１１番１２号日本橋水野ビル７階,,13,102,1030022,,,,,,,2023-06-28,1,,,,,タイワボウエキ,0
992,5010401175328,新規,0,2023-06-28,2023-06-28,株式会社Ｆｅｎｉｃｅ,,株式会社,東京都,港区,南麻布１丁目９－４,,13,103,1060047,,,,,,,2023-06-28,1,,,,,フェニーチェ,0
1002,5011001155307,新規,0,2023-06-28,2023-06-28,株式会社ｆｕｇａｔｏ,,株式会社,東京都,目黒区,東が丘１丁目１７番１５号,,13,110,1520021,,,,,,,2023-06-28,1,,,,,フガト,0
1003,5011001155323,新規,0,2023-06-28,2023-06-28,株式会社蓮見優,,株式会社,東京都,目黒区,柿の木坂２丁目１９番８号,,13,110,1520022,,,,,,,2023-06-28,1,,,,,ハスミユウ,0
1004,5011003017067,新規,0,2023-06-28,2023-06-28,合同会社ＳＭＡＲＴ　Ｔｒｏｉｓ,,合同会社,東京都,渋谷区,円山町５番５号Ｎａｖｉ渋谷Ｖ３階,,13,113,1500044,,,,,,,2023-06-28,1,,,,,スマートトロワ,0
1008,5011101103413,新規,0,2023-06-28,2023-06-28,株式会社Ｖａｘｉｌａ　Ｌａｂｓ,,株式会社,東京都,新宿区,西新宿３丁目３番１３号西新宿水間ビル２Ｆ,,13,104,1600023,,,,,,,2023-06-28,1,,,,,ヴァキシララボ,0
1017,5011501029464,新規,0,2023-06-28,2023-06-28,株式会社Ｍｓ　Ｃｏｍｐａｎｙ　Ｊａｐａｎ,,株式会社,東京都,荒川区,西日暮里１丁目３７番１４－９０２号,,13,118,1160013,,,,,,,2023-06-28,1,,,,,エムエスカンパニージャパン,0
1018,5011503005629,新規,0,2023-06-28,2023-06-28,ＰａｙＩｎＯｎｅ　ＪＰ合同会社,,合同会社,東京都,北区,浮間１丁目７－２３兆豊浮間ビル５０２号室,,13,117,1150051,,,,,,,2023-06-28,1,,,,,ペイインワンジェーピー,0
1028,5012403006048,新規,0,2023-06-28,2023-06-28,合同会社むすび,,合同会社,東京都,調布市,国領町４丁目６１番地６,,13,208,1820022,,,,,,,2023-06-28,1,,,,,ムスビ,0
1032,5013301050971,新規,0,2023-06-28,2023-06-28,新陽株式会社,,株式会社,東京都,豊島区,北大塚３丁目３２番６号第５不二ハイツ５３Ａ号,,13,116,1700004,,,,,,,2023-06-28,1,,,,,シンヨウ,0
1034,5013303006682,新規,0,2023-06-28,2023-06-28,合同会社ふぉるて,,合同会社,東京都,豊島区,東池袋１丁目１７番１１号パークハイツ池袋１１０５号,,13,116,1700013,,,,,,,2023-06-28,1,,,,,フォルテ,0
1041,5020003024122,新規,0,2023-06-28,2023-06-28,合同会社井上道場,,合同会社,神奈川県,横浜市港南区,港南台９丁目２３番１１号港南台ビル３Ｆ,,14,111,2340054,,,,,,,2023-06-28,1,,,,,イノウエドウジョウ,0
1054,5030001154614,新規,0,2023-06-28,2023-06-28,株式会社ＪＲＰ,,株式会社,埼玉県,本庄市,東台２丁目３番１号ＫＲＳ本庄ビル１Ｆ,,11,211,3670021,,,,,,,2023-06-28,1,,,,,ジェイアールピー,0
1060,5030003022026,新規,0,2023-06-28,2023-06-28,合同会社エストデザインオフィス,,合同会社,埼玉県,久喜市,桜田２丁目６番２－１０５,,11,232,3400203,,,,,,,2023-06-28,1,,,,,エストデザインオフィス,0
1063,5040001128971,新規,0,2023-06-28,2023-06-28,株式会社藤田興産,,株式会社,千葉県,船橋市,飯山満町２丁目５１７番地２ソレアード飯山満５０１号,,12,204,2740822,,,,,,,2023-06-28,1,,,,,フジタコウサン,0
1065,5040005022048,新規,0,2023-06-28,2023-06-28,ときわ平キリスト教会,,その他の設立登記法人,千葉県,松戸市,常盤平６丁目４番地の９,,12,207,2702261,,,,,,,2023-06-28,1,,,,,トキワダイラキリストキョウカイ,0
1067,5060001036116,新規,0,2023-06-28,2023-06-28,株式会社中川設備,,株式会社,栃木県,下都賀郡壬生町,大字国谷３２２番地２８７,,09,361,3210211,,,,,,,2023-06-28,1,,,,,ナカガワセツビ,0
1071,5060003004616,新規,0,2023-06-28,2023-06-28,ＡＫ　ＴＲＡＤＩＮＧ合同会社,,合同会社,栃木県,栃木市,岩舟町新里１３０４番地５５号室,,09,203,3294316,,,,,,,2023-06-28,1,,,,,エケトレーディング,0
1072,5070001040570,新規,0,2023-06-28,2023-06-28,株式会社ハリモト,,株式会社,群馬県,安中市,安中５丁目２番４１号,,10,211,3790116,,,,,,,2023-06-28,1,,,,,ハリモト,0
1076,5070002029076,新規,0,2023-06-28,2023-06-28,有限会社源後製作所,,有限会社,群馬県,邑楽郡大泉町,北小泉１丁目３３番８号,,10,524,3700511,,,,,,,2023-06-28,1,,,,,ゲンゴセイサクジョ,0
1085,5110003005096,新規,0,2023-06-28,2023-06-28,合同会社ＥＵＲＯ,,合同会社,新潟県,糸魚川市,蓮台寺２丁目５－１７,,15,216,9410055,,,,,,,2023-06-28,1,,,,,ユーロ,0
1097,5120001255931,新規,0,2023-06-28,2023-06-28,サンライ株式会社,,株式会社,大阪府,大阪市北区,菅栄町１１番４号,,27,127,5300031,,,,,,,2023-06-28,1,,,,,サンライ,0
1098,5120001256005,新規,0,2023-06-28,2023-06-28,双林株式会社,,株式会社,大阪府,大阪市北区,天満２丁目１－１２天満橋ＳＥビル４１２号室,,27,127,5300043,,,,,,,2023-06-28,1,,,,,ソウリン,0
1109,5120901047718,新規,0,2023-06-28,2023-06-28,株式会社スガイベイシス,,株式会社,大阪府,吹田市,垂水町１丁目３２番３２号,,27,205,5640062,,,,,,,2023-06-28,1,,,,,スガイベイシス,0
1115,5130001074595,新規,0,2023-06-28,2023-06-28,清水五条経営コンサルタント株式会社,,株式会社,京都府,京都市東山区,本町２丁目７８番地,,26,105,6050981,,,,,,,2023-06-28,1,,,,,キヨミズゴジョウケイエイコンサルタント,0
1116,5130001074604,新規,0,2023-06-28,2023-06-28,株式会社ＮＥＸＴ　ＨＥＬＰ,,株式会社,京都府,京都市北区,鷹峯千束町７番地,,26,101,6038469,,,,,,,2023-06-28,1,,,,,ネクストヘルプ,0
1118,5140001130661,新規,0,2023-06-28,2023-06-28,株式会社ＷＳＧ,,株式会社,兵庫県,神戸市中央区,中山手通１丁目１番８号,,28,110,6500004,,,,,,,2023-06-28,1,,,,,ダブリューエスジー,0
1129,5180001156884,新規,0,2023-06-28,2023-06-28,トレジャー・オブ・ジャパン株式会社,,株式会社,愛知県,名古屋市名東区,一社２丁目６番地サニーヴェイル一社２Ｆ,,23,115,4650093,,,,,,,2023-06-28,1,,,,,トレジャーオブジャパン,0
1130,5180001156892,新規,0,2023-06-28,2023-06-28,喜惣治屋株式会社,,株式会社,愛知県,春日井市,大和通１丁目７番地１３,,23,206,4860944,,,,,,,2023-06-28,1,,,,,キソウジヤ,0
1148,5240001061731,新規,0,2023-06-28,2023-06-28,株式会社田中コンサル,,株式会社,広島県,広島市中区,東千田町１丁目１番５５－３００１号,,34,101,7300053,,,,,,,2023-06-28,1,,,,,タナカコンサル,0
1149,5240003006197,新規,0,2023-06-28,2023-06-28,合同会社タローズ,,合同会社,広島県,広島市中区,本川町２丁目４番１７号ＯＴＡビル１階,,34,101,7300802,,,,,,,2023-06-28,1,,,,,タローズ,0
1155,5260003004348,新規,0,2023-06-28,2023-06-28,合同会社ＳＡＧＵＮ,,合同会社,岡山県,岡山市中区,東川原２６７番地２,,33,102,7038255,,,,,,,2023-06-28,1,,,,,サグン,0
1162,5290001102068,新規,0,2023-06-28,2023-06-28,吉藤建設株式会社,,株式会社,福岡県,福岡市中央区,渡辺通１丁目９番２号－６０４,,40,133,8100004,,,,,,,2023-06-28,1,,,,,ヨシフジケンセツ,0
1163,5290001102076,新規,0,2023-06-28,2023-06-28,株式会社ライフベース,,株式会社,福岡県,那珂川市,今光２丁目９１番地,,40,231,8111211,,,,,,,2023-06-28,1,,,,,ライフベース,0
1171,5300003001984,新規,0,2023-06-28,2023-06-28,合同会社佐賀新聞販売センター諸富,,合同会社,佐賀県,佐賀市,兵庫南４丁目２１番１３号,,41,201,8490918,,,,,,,2023-06-28,1,,,,,サガシンブンハンバイセンターモロドミ,0
1174,5320001019853,新規,0,2023-06-28,2023-06-28,ＫＡＴＴＩ株式会社,,株式会社,大分県,杵築市,大字南杵築９７２,,44,210,8730002,,,,,,,2023-06-28,1,,,,,カッチ,0
1178,5350003004388,新規,0,2023-06-28,2023-06-28,合同会社新旧工業,,合同会社,宮崎県,都城市,立野町９号６番地３西村コーポレーションＩＩ３０５号,00130997,45,202,8850035,,,,,,,2023-06-28,1,,,,,シンキュウコウギョウ,0
1197,5430001089398,新規,0,2023-06-28,2023-06-28,株式会社Ｗｅ　ａｒｅ　ｔｈｅ　Ｎｏｒｔｈ,,株式会社,北海道,苫小牧市,見山町４丁目１３番１１号,,01,213,0530855,,,,,,,2023-06-28,1,,,,,ウィーアーザノース,0
1198,5430001089415,新規,0,2023-06-28,2023-06-28,株式会社リアリ,,株式会社,北海道,苫小牧市,三光町３丁目５番１０号,,01,213,0530042,,,,,,,2023-06-28,1,,,,,リアリ,0
1200,5460305001997,新規,0,2023-06-28,2023-06-28,一般社団法人丸瀬布みっけの森,,その他の設立登記法人,北海道,紋別郡遠軽町,丸瀬布上武利１１８番１,,01,555,0990213,,,,,,,2023-06-28,1,,,,,マルセップミッケノモリ,0
1202,5490003001792,新規,0,2023-06-28,2023-06-28,合同会社ｉ・シナジー,,合同会社,高知県,高知市,潮見台１丁目３２０７番地,,39,201,7815108,,,,,,,2023-06-28,1,,,,,アイシナジー,0
1204,5500001025024,新規,0,2023-06-28,2023-06-28,株式会社瀬戸内調剤薬局,,株式会社,愛媛県,松山市,土橋町８６番地１,,38,201,7900032,,,,,,,2023-06-28,1,,,,,セトウチチョウザイヤッキョク,0
1206,5700150117799,新規,0,2023-06-28,2023-06-28,Ｓｈｅｎｚｈｅｎ　Ｔｉａｎｃｈｉ　Ｅｌｅｃｔｒｏｎｉｃ　Ｔｒａｄｅ　Ｃｏ．，ＬＴＤ,,外国会社等,,,,,,,,Ｒｍ．３１２　Ｂｌｋ．１８７，ＪｉａｎｈｕｉＬｕ　ｇａｏａｏｘｉｎｃｕｎ，Ｌｏｎｇｈｕａ　Ｓｔ．，Ｌｏｎｇｈｕａ　Ｘｉｎ　Ｄｉｓｔ．，Ｓｈｅｎｚｈｅｎ　Ｇｕａｎｇｄｏｎｇ,,,,,,2023-06-28,1,,,,,シンセンテンチデンシボウエキユウゲンコウシ,0
1207,5700150117816,新規,0,2023-06-28,2023-06-28,ＨＯＮＧＫＯＮＧ　ＹＥＥＺＥＮ　ＬＩＧＨＴＩＮＧ　ＣＯ．，ＬＩＭＩＴＥＤ,,外国会社等,,,,,,,,ＲＭ１８　２７／Ｆ　ＨＯ　ＫＩＮＧ　ＣＯＭＭ　ＣＴＲ　２－１６　ＦＡＹＵＥＮ　ＳＴ　ＭＯＮＧＫＯＫ　ＫＬＮ　ＨＯＮＧＫＯＮＧ,,,,,,2023-06-28,1,,,,,ホンコンイーゼンライティングカンパニーリミテッド,0
1212,6010001236479,新規,0,2023-06-28,2023-06-28,株式会社Ｋａｚａｌｉ,,株式会社,東京都,千代田区,神田美土代町１１番地９－４０４号,,13,101,1010053,,,,,,,2023-06-28,1,,,,,カザリ,0
1216,6010401175277,新規,0,2023-06-28,2023-06-28,ダイナマックス株式会社,,株式会社,東京都,港区,海岸１丁目２－３汐留芝離宮ビル２１階,,13,103,1050022,,,,,,,2023-06-28,1,,,,,ダイナマックス,0
1217,6010401175285,新規,0,2023-06-28,2023-06-28,Ｐａｗｄｅａ株式会社,,株式会社,東京都,港区,麻布十番１－８－１１ＴＡＫＡＤＥＮ十番３Ｆ,,13,103,1050000,,,,,,,2023-06-28,1,,,,,ポーディー,0
1218,6010401175310,新規,0,2023-06-28,2023-06-28,Ｄｅｅｒｆｉｅｌｄ　Ｇｒｅｅｎ　Ｎｉｈｏｎ株式会社,,株式会社,東京都,港区,虎ノ門１丁目１０番５号ＫＤＸ虎ノ門一丁目ビル１１Ｆ,,13,103,1050001,,,,,,,2023-06-28,1,,,,,ディアフィールドグリーンニホン,0
1219,6010401175319,新規,0,2023-06-28,2023-06-28,株式会社ＪＳスタイルワークス,,株式会社,東京都,港区,南青山７丁目１番５号＆ＣＡＬＭｍｉｎａｍｉａｏｙａｍａ４０１,,13,103,1070062,,,,,,,2023-06-28,1,,,,,ジェイエススタイルワークス,0
1220,6010401175327,新規,0,2023-06-28,2023-06-28,ＳＭＡＲＴ　ＷＯＯＤ　ＪＡＰＡＮ株式会社,,株式会社,東京都,港区,赤坂１丁目１１番４４号赤坂インターシティ５階ＭａｚａｒｓＪａｐａｎ株式会社内,,13,103,1070052,,,,,,,2023-06-28,1,,,,,スマートウッドジャパン,0
1223,6010403030397,新規,0,2023-06-28,2023-06-28,Ｄｕｂａｉ　Ｇｌｏｂａｌ　Ｊａｐａｎ　Ｏｆｆｉｃｅ合同会社,,合同会社,東京都,港区,六本木６丁目１番２０号六本木電気ビル７階,,13,103,1060032,,,,,,,2023-06-28,1,,,,,ドバイグローバルジャパンオフィス,0
1230,6010603010216,新規,0,2023-06-28,2023-06-28,合同会社アンテシー,,合同会社,東京都,江東区,亀戸９丁目２番１７号,,13,108,1360071,,,,,,,2023-06-28,1,,,,,アンテシー,0
1231,6010603010224,新規,0,2023-06-28,2023-06-28,合同会社オケヤラボラトリー,,合同会社,東京都,江東区,亀戸５丁目３８番３０号,,13,108,1360071,,,,,,,2023-06-28,1,,,,,オケヤラボラトリー,0
1237,6010801034099,新規,0,2023-06-28,2023-06-28,ネクスト株式会社,,株式会社,東京都,大田区,東矢口３丁目２３番３号,,13,111,1460094,,,,,,,2023-06-28,1,,,,,ネクスト,0
1238,6010803004587,新規,0,2023-06-28,2023-06-28,合同会社リージャリー,,合同会社,東京都,大田区,田園調布５丁目５５番１０号,,13,111,1450071,,,,,,,2023-06-28,1,,,,,リージャリー,0
1243,6010905004493,新規,0,2023-06-28,2023-06-28,一般社団法人Ｅｎｇｔｏｒ協会,,その他の設立登記法人,東京都,世田谷区,駒沢５丁目２６番７号駒沢パークサイドテラスノース３Ｆ,,13,112,1540012,,,,,,,2023-06-28,1,,,,,エンターキョウカイ,0
1251,6011001155280,新規,0,2023-06-28,2023-06-28,株式会社ヴェルヴェットフィルムズ,,株式会社,東京都,渋谷区,道玄坂１丁目１０番８号渋谷道玄坂東急ビル２Ｆ－Ｃ,,13,113,1500043,,,,,,,2023-06-28,1,,,,,ヴェルヴェットフィルムズ,0
1253,6011003017066,新規,0,2023-06-28,2023-06-28,合同会社ＳＭＡＲＴ　Ｄｅｕｘ,,合同会社,東京都,渋谷区,円山町５番５号Ｎａｖｉ渋谷Ｖ３階,,13,113,1500044,,,,,,,2023-06-28,1,,,,,スマートドゥ,0
1255,6011101103404,新規,0,2023-06-28,2023-06-28,株式会社Ｃｕｐｉｄ　Ｓｔａｒ,,株式会社,東京都,新宿区,百人町１丁目１８番９－５０３号,,13,104,1690073,,,,,,,2023-06-28,1,,,,,キューピッドスター,0
1258,6011601026922,新規,0,2023-06-28,2023-06-28,株式会社きいちのメモ,,株式会社,東京都,練馬区,向山４丁目２０番３０号,,13,120,1760022,,,,,,,2023-06-28,1,,,,,キイチノメモ,0
1274,6030001154092,新規,0,2023-06-28,2023-06-28,株式会社栞システム,,株式会社,埼玉県,草加市,中央１丁目４番２－１号,,11,221,3400016,,,,,,,2023-06-28,1,,,,,シオリシステム,0
1275,6030001154522,新規,0,2023-06-28,2023-06-28,株式会社ＢＥＳＴ,,株式会社,埼玉県,川口市,大字新堀３２２番地６－２Ｆ,,11,203,3340061,,,,,,,2023-06-28,1,,,,,ベスト,0
1276,6030003021992,新規,0,2023-06-28,2023-06-28,天昊貿易合同会社,,合同会社,埼玉県,幸手市,西１丁目６番２号,,11,240,3400116,,,,,,,2023-06-28,1,,,,,,0
1277,6030003022017,新規,0,2023-06-28,2023-06-28,井上合同会社,,合同会社,埼玉県,草加市,清門１丁目２８０番地４,,11,221,3400055,,,,,,,2023-06-28,1,,,,,イノウエ,0
1278,6030003022025,新規,0,2023-06-28,2023-06-28,合同会社ＡＨＭＥＴ,,合同会社,埼玉県,川口市,北原台１丁目１２－２１エマーユ東川口３０７号室,,11,203,3330815,,,,,,,2023-06-28,1,,,,,アメット,0
1283,6040001128962,新規,0,2023-06-28,2023-06-28,株式会社Ｋｉｒａｒｉ,,株式会社,千葉県,我孫子市,本町３丁目５番２７－２０２号エスポワール,,12,222,2701151,,,,,,,2023-06-28,1,,,,,キラリ,0
1290,6050001053045,新規,0,2023-06-28,2023-06-28,株式会社Ｒｉｍｕｌ,,株式会社,茨城県,水戸市,南町２丁目３－５永瀬ビル１階,,08,201,3100021,,,,,,,2023-06-28,1,,,,,リムル,0
1294,6070003005001,新規,0,2023-06-28,2023-06-28,合同会社王司馬,,合同会社,群馬県,利根郡みなかみ町,西峰須川４１８－１,,10,449,3791415,,,,,,,2023-06-28,1,,,,,,0
1307,6110001037644,新規,0,2023-06-28,2023-06-28,株式会社ワンライフ,,株式会社,新潟県,南魚沼市,麓１５０番地１,,15,226,9497111,,,,,,,2023-06-28,1,,,,,ワンライフ,0
1320,6120001255971,新規,0,2023-06-28,2023-06-28,日本青山株式会社,,株式会社,大阪府,大阪市東住吉区,鷹合４丁目２１番１６号１Ｆ－Ｈ,,27,121,5460014,,,,,,,2023-06-28,1,,,,,ニホンアオヤマ,0
1321,6120001256004,新規,0,2023-06-28,2023-06-28,株式会社Ｔプランズ,,株式会社,大阪府,大阪市中央区,北浜３丁目５番１９号御堂筋ホワイトビル８１４,,27,128,5410041,,,,,,,2023-06-28,1,,,,,ティープランズ,0
1322,6120001256045,新規,0,2023-06-28,2023-06-28,株式会社リヴクライム・リアルエステート,,株式会社,大阪府,大阪市中央区,西心斎橋１丁目１０番４０号１８階,,27,128,5420086,,,,,,,2023-06-28,1,,,,,リヴクライムリアルエステート,0
1328,6120903004708,新規,0,2023-06-28,2023-06-28,合同会社Ｎｅｉｇｈｂｏｒｓ,,合同会社,大阪府,高槻市,津之江町１丁目１０番５号,,27,207,5690822,,,,,,,2023-06-28,1,,,,,ネイバーズ,0
1332,6130003008798,新規,0,2023-06-28,2023-06-28,合同会社Ｆｒｏｎｔ＆Ｆｒｏｎｔ,,合同会社,京都府,京都市中京区,西ノ京御輿岡町１５番２３号杉本アパート３０１号室,,26,104,6048451,,,,,,,2023-06-28,1,,,,,フロントフロント,0
1340,6140001130669,新規,0,2023-06-28,2023-06-28,株式会社松商店,,株式会社,兵庫県,加古郡稲美町,印南６４６番地の５３,,28,381,6751111,,,,,,,2023-06-28,1,,,,,マツショウテン,0
1341,6140003019241,新規,0,2023-06-28,2023-06-28,合同会社グリーン,,合同会社,兵庫県,神戸市西区,春日台６丁目１７番１３号,,28,111,6512276,,,,,,,2023-06-28,1,,,,,グリーン,0
1343,6160003002906,新規,0,2023-06-28,2023-06-28,Ｙ‐ｄｅｓｉｇｎ合同会社,,合同会社,滋賀県,甲賀市,水口町高塚９－１１,,25,209,5280011,,,,,,,2023-06-28,1,,,,,ワイデザイン,0
1354,6180001156842,新規,0,2023-06-28,2023-06-28,株式会社ＲＵＩ,,株式会社,愛知県,日進市,竹の山４丁目８２３番地アミティエＩＩ３０１,00130995,23,230,4700136,,,,,,,2023-06-28,1,,,,,ルイ,0
1355,6180001156883,新規,0,2023-06-28,2023-06-28,株式会社イノチュウ,,株式会社,愛知県,長久手市,根の神１１０５－４０２,,23,238,4801141,,,,,,,2023-06-28,1,,,,,イノチュウ,0
1356,6180001156891,新規,0,2023-06-28,2023-06-28,Ａ．Ｍ．Ｒ．株式会社,,株式会社,愛知県,名古屋市名東区,牧の原３丁目８０２番地,,23,115,4650072,,,,,,,2023-06-28,1,,,,,エーエムアール,0
1357,6180001156900,新規,0,2023-06-28,2023-06-28,株式会社日本活力研究所,,株式会社,愛知県,名古屋市名東区,牧の原３丁目１０６番地,,23,115,4650072,,,,,,,2023-06-28,1,,,,,ニッポンカツリョクケンキュウジョ,0
1366,6240001061730,新規,0,2023-06-28,2023-06-28,株式会社光成ホールディングス,,株式会社,広島県,福山市,箕沖町４５番２,,34,207,7210956,,,,,,,2023-06-28,1,,,,,ミツナリホールディングス,0
1376,6290001102075,新規,0,2023-06-28,2023-06-28,株式会社ＴＳＯ,,株式会社,福岡県,那珂川市,松木３丁目３２番地２０２号室,,40,231,8111251,,,,,,,2023-06-28,1,,,,,ティーエスオー,0
1379,6290801029641,新規,0,2023-06-28,2023-06-28,株式会社北九州不動産,,株式会社,福岡県,北九州市小倉北区,上到津４丁目４番１－２０２号,,40,106,8030845,,,,,,,2023-06-28,1,,,,,キタキュウシュウフドウサン,0
1383,6360003013081,新規,0,2023-06-28,2023-06-28,合同会社ルベン,,合同会社,沖縄県,浦添市,安波茶１丁目７番１８号,,47,208,9012114,,,,,,,2023-06-28,1,,,,,ルベン,0
1394,6430001089439,新規,0,2023-06-28,2023-06-28,株式会社プライムガーデン,,株式会社,北海道,札幌市白石区,本郷通６丁目北５番１－４０１号,,01,104,0030025,,,,,,,2023-06-28,1,,,,,プライムガーデン,0
1408,6700150117798,新規,0,2023-06-28,2023-06-28,Ｙｏｕｓｈｅｎｇ　Ｐｉｎｊｉａｎ（Ｓｈａｎｇｈａｉ）Ｔｒａｄｉｎｇ　Ｃｏ．，ＬＴＤ,,外国会社等,,,,,,,,ＪｉｕｔｉｎｇＺｈｅｎ，ＪｉｕｔｉｎｇＣｅｎｔｅｒ　Ｒｏａｄ，Ｎｏ．１１５８，２１Ｚｈｕａｎｇ，Ｒｏｏｍ　１６０１，Ｓｏｎｇｊｉａｎｇ　Ｄｉｓｒｔｉｃ，Ｓｈａｎｇｈａｉ　Ｃｉｔｙ，Ｃｈｉｎａ,,,,,,2023-06-28,1,,,,,ユウセイヒンケンシャンハイボウエキユウゲンコウシ,0
1409,6700150117815,新規,0,2023-06-28,2023-06-28,Ｓｈｅｎｚｈｅｎ　Ｄａｎｋｅｓｈｕ　Ｔｒａｄｉｎｇ　Ｃｏ．，Ｌｔｄ,,外国会社等,,,,,,,,Ｌｏｎｇｇａｎｇ　Ｄｉｓｔｒｉｃｔ　Ｙａｎｇｍｅｉ　Ｗａｎｇｔａｎｇ　０９０７　Ｒｏｏｍ　５０３　Ｓｈｅｎｚｈｅｎ　Ｇｕａｎｇｄｏｎｇ　ＣＮ,,,,,,2023-06-28,1,,,,,シンセンダンケストゥレイディングカンパニーリミテッド,0
1414,7010001236461,新規,0,2023-06-28,2023-06-28,株式会社ロングラン,,株式会社,東京都,千代田区,外神田５丁目１番７号秋葉原五番館４階,,13,101,1010021,,,,,,,2023-06-28,1,,,,,ロングラン,0
1420,7010401175276,新規,0,2023-06-28,2023-06-28,株式会社ＭＺＫ,,株式会社,東京都,港区,南青山３丁目１番３６号,,13,103,1070062,,,,,,,2023-06-28,1,,,,,エムゼットケー,0
1421,7010401175284,新規,0,2023-06-28,2023-06-28,株式会社Ｏｐｐｌｕｃｋ,,株式会社,東京都,港区,南青山３丁目１番３６号青山丸竹ビル６Ｆ,,13,103,1070062,,,,,,,2023-06-28,1,,,,,オップラック,0
1422,7010401175292,新規,0,2023-06-28,2023-06-28,株式会社アンジークスプロパティ,,株式会社,東京都,港区,南麻布４丁目１０番１０－４０３号,,13,103,1060047,,,,,,,2023-06-28,1,,,,,アンジークスプロパティ,0
1423,7010405022284,新規,0,2023-06-28,2023-06-28,一般社団法人ＭＭカーボンオフセット研究会,,その他の設立登記法人,東京都,港区,西新橋１丁目２番９号メンターキャピタル税理士法人内,,13,103,1050003,,,,,,,2023-06-28,1,,,,,エムエムカーボンオフセットケンキュウカイ,0
1430,7010901053270,新規,0,2023-06-28,2023-06-28,株式会社安心,,株式会社,東京都,世田谷区,経堂２丁目１７番１６号メゾン・ド・シルフ３０１,,13,112,1560052,,,,,,,2023-06-28,1,,,,,アンシン,0
1434,7011001155288,新規,0,2023-06-28,2023-06-28,株式会社Ｍａｃｂｅｅ　Ｐｌａｎｅｔ準備会社,,株式会社,東京都,渋谷区,渋谷３丁目１１番１１号,,13,113,1500002,,,,,,,2023-06-28,1,,,,,マクビープラネットジュンビガイシャ,0
1435,7011001155321,新規,0,2023-06-28,2023-06-28,株式会社Ｍ‐ＲＯＳＡ,,株式会社,東京都,渋谷区,千駄ヶ谷３丁目１７番５号,,13,113,1510051,,,,,,,2023-06-28,1,,,,,エムローザ,0
1437,7011003017065,新規,0,2023-06-28,2023-06-28,合同会社ＳＭＡＲＴ　Ｕｎ,,合同会社,東京都,渋谷区,円山町５番５号Ｎａｖｉ渋谷Ｖ３階,,13,113,1500044,,,,,,,2023-06-28,1,,,,,スマートアン,0
1443,7011403004035,新規,0,2023-06-28,2023-06-28,合同会社ＬＵＸ,,合同会社,東京都,板橋区,本町１６－１－２０５,,13,119,1730001,,,,,,,2023-06-28,1,,,,,ラックス,0
1446,7011603003968,新規,0,2023-06-28,2023-06-28,合同会社エース,,合同会社,東京都,練馬区,豊玉北２丁目２５番７号レジデンス豊玉イースト１０２,,13,120,1760012,,,,,,,2023-06-28,1,,,,,エース,0
1449,7012303001840,新規,0,2023-06-28,2023-06-28,合同会社リオタール,,合同会社,東京都,町田市,小川７丁目７番１２号,,13,209,1940003,,,,,,,2023-06-28,1,,,,,リオタール,0
1461,7020001152229,新規,0,2023-06-28,2023-06-28,株式会社吉津商店,,株式会社,神奈川県,横浜市南区,真金町２丁目１８－２,,14,105,2320021,,,,,,,2023-06-28,1,,,,,ヨシツショウテン,0
1471,7030001154513,新規,0,2023-06-28,2023-06-28,株式会社ファイブリング,,株式会社,埼玉県,さいたま市見沼区,東大宮５丁目６番３号４Ｆ,,11,104,3370051,,,,,,,2023-06-28,1,,,,,ファイブリング,0
1472,7030001154629,新規,0,2023-06-28,2023-06-28,株式会社福新工業,,株式会社,埼玉県,三郷市,茂田井３８８番地３,,11,237,3410025,,,,,,,2023-06-28,1,,,,,フクシンコウギョウ,0
1473,7030001154637,新規,0,2023-06-28,2023-06-28,株式会社吉田木工所,,株式会社,埼玉県,さいたま市岩槻区,大字釣上３１－３,,11,110,3390024,,,,,,,2023-06-28,1,,,,,ヨシダモッコウジョ,0
1474,7030001154661,新規,0,2023-06-28,2023-06-28,フォレストアセットマネジメント株式会社,,株式会社,埼玉県,久喜市,西大輪３５１番地１,,11,232,3400206,,,,,,,2023-06-28,1,,,,,フォレストアセットマネジメント,0
1478,7030003022008,新規,0,2023-06-28,2023-06-28,合同会社ｌｕｚ,,合同会社,埼玉県,さいたま市北区,大成町４丁目６２９番地１プラザ・ドゥ・カルモ１０３,,11,102,3310815,,,,,,,2023-06-28,1,,,,,ラズ,0
1479,7030003022016,新規,0,2023-06-28,2023-06-28,合同会社ウェルサポカスミ,,合同会社,埼玉県,富士見市,大字鶴馬３２４５,,11,235,3540021,,,,,,,2023-06-28,1,,,,,ウェルサポカスミ,0
1480,7030003022040,新規,0,2023-06-28,2023-06-28,合同会社鳳翔,,合同会社,埼玉県,川口市,西川口４丁目１６番１８号,,11,203,3320021,,,,,,,2023-06-28,1,,,,,,0
1487,7040003022824,新規,0,2023-06-28,2023-06-28,ＢＮＳＤ合同会社,,合同会社,千葉県,白井市,富塚１０４９番地の４ニューサンフラワーマンション４０５,,12,232,2701405,,,,,,,2023-06-28,1,,,,,ビーエヌエスディー,0
1498,7060001036114,新規,0,2023-06-28,2023-06-28,株式会社トーイチ,,株式会社,栃木県,小山市,大字犬塚８３４番地１,,09,208,3230811,,,,,,,2023-06-28,1,,,,,トーイチ,0
1509,7090005007579,新規,0,2023-06-28,2023-06-28,一般社団法人ユアー在宅クリニック,,その他の設立登記法人,山梨県,南アルプス市,吉田１１３３番地１ＫＭ１１３３Ｚ号室,,19,208,4000304,,,,,,,2023-06-28,1,,,,,ユアーザイタククリニック,0
1510,7100001036539,新規,0,2023-06-28,2023-06-28,株式会社エヴデ,,株式会社,長野県,北佐久郡軽井沢町,大字長倉１４６３－１,,20,321,3890111,,,,,,,2023-06-28,1,,,,,エヴデ,0
1512,7110001037643,新規,0,2023-06-28,2023-06-28,株式会社えのきや,,株式会社,新潟県,糸魚川市,大字木浦１９８６６番地,,15,216,9491342,,,,,,,2023-06-28,1,,,,,エノキヤ,0
1524,7120001255970,新規,0,2023-06-28,2023-06-28,天興株式会社,,株式会社,大阪府,寝屋川市,高宮２丁目８番２０号,,27,215,5720806,,,,,,,2023-06-28,1,,,,,テンコウ,0
1525,7120001255995,新規,0,2023-06-28,2023-06-28,株式会社レコグラム,,株式会社,大阪府,大阪市北区,梅田１丁目２番２号大阪駅前第２ビル１２－１２,,27,127,5300001,,,,,,,2023-06-28,1,,,,,レコグラム,0
1526,7120001256028,新規,0,2023-06-28,2023-06-28,株式会社いろどり関西,,株式会社,大阪府,大阪市北区,堂島浜２丁目２番２８号堂島アクシスビル４Ｆ,,27,127,5300004,,,,,,,2023-06-28,1,,,,,イロドリカンサイ,0
1528,7120003024390,新規,0,2023-06-28,2023-06-28,合同会社Ｅｎｊｉｎ,,合同会社,大阪府,大阪市北区,梅田１丁目１‐３大阪駅前第３ビル２９階１‐１‐１号室,,27,127,5300001,,,,,,,2023-06-28,1,,,,,エンジン,0
1564,7260003004346,新規,0,2023-06-28,2023-06-28,ネイチャーライフ合同会社,,合同会社,岡山県,岡山市北区,西古松２丁目２２番１１号,,33,101,7000927,,,,,,,2023-06-28,1,,,,,ネイチャーライフ,0
1571,7290001102082,新規,0,2023-06-28,2023-06-28,Ｐｒｉｍｅ　Ｐｒｉｏｒｉｔｙ　Ｔｅｃｈｎｏｌｏｇｙ　Ｊａｐａｎ株式会社,,株式会社,福岡県,福岡市博多区,中洲５丁目３番８号アクア博多５階,,40,132,8100801,,,,,,,2023-06-28,1,,,,,プライムプライオリティテクノロジージャパン,0
1573,7290003014078,新規,0,2023-06-28,2023-06-28,合同会社土師,,合同会社,福岡県,福岡市東区,香椎駅前２丁目１番３,,40,131,8130013,,,,,,,2023-06-28,1,,,,,ハジ,0
1577,7300003001982,新規,0,2023-06-28,2023-06-28,合同会社ＤＥＡＩＩ,,合同会社,佐賀県,佐賀市,駅前中央２丁目２－１０アビタシオン神野７０１,,41,201,8400801,,,,,,,2023-06-28,1,,,,,ディイーエーアイアイ,0
1579,7320003004117,新規,0,2023-06-28,2023-06-28,合同会社ＫＴ,,合同会社,大分県,別府市,大字鶴見２９３７番地の１,,44,202,8740840,,,,,,,2023-06-28,1,,,,,ケーティ,0
1583,7360001032207,新規,0,2023-06-28,2023-06-28,株式会社ペイントマン,,株式会社,沖縄県,浦添市,伊祖２丁目２４番３、１０１号,,47,208,9012132,,,,,,,2023-06-28,1,,,,,ペイントマン,0
1599,7420003002746,新規,0,2023-06-28,2023-06-28,エリドリ合同会社,,合同会社,青森県,八戸市,大字田面木字沼ノ平７番地６,,02,203,0391104,,,,,,,2023-06-28,1,,,,,エリドリ,0
1603,7450001014030,新規,0,2023-06-28,2023-06-28,株式会社Ｒｅ　Ｌｉｆｅ　ＺＥＲＯ,,株式会社,北海道,名寄市,西二条南５丁目１３番地,,01,221,0960012,,,,,,,2023-06-28,1,,,,,,0
1609,7700150117814,新規,0,2023-06-28,2023-06-28,Ｓｈｅｎｚｈｅｎ　Ｔａｎｇｃｈｅｎ　Ｊｉｕｚｈｏｕ　Ｔｅｃｈｎｏｌｏｇｙ　Ｃｏ．，Ｌｔｄ．,,外国会社等,,,,,,,,Ｓｈｅｎｚｈｅｎ　Ｇｕａｎｇｍｉｎｇ　Ｄｉｓｔｒｉｃｔ　Ｙｕｔａｎｇ　ｓｔｒｅｅｔ　Ｔｉａｎｌｉａｏ　ｃｏｍｍｕｎｉｔｙ　ｇｅｍ　ｔｗｏ　ｓｔｒｅｅｔ　ｆａｃｔｏｒｙ　ｂｕｉｌｄｉｎｇ　２　ｗａｒｅｈｏｕｓｅ　ａ　ｂｕｉｌｄｉｎｇ　２０１,,,,,,2023-06-28,1,,,,,シェンジェンシータンチェンジュージョウコージーヨウシエンゴンスー,0
1614,8010001236246,新規,0,2023-06-28,2023-06-28,株式会社Ａｄｏｎｅｓｓ,,株式会社,東京都,千代田区,富士見１丁目３番１１号富士見デュープレックスＢ’ｓ４Ｆ,,13,101,1020071,,,,,,,2023-06-28,1,,,,,アドネス,0
1615,8010001236477,新規,0,2023-06-28,2023-06-28,ライラックインベストメント株式会社,,株式会社,東京都,千代田区,大手町１丁目４番２号,,13,101,1000004,,,,,,,2023-06-28,1,,,,,ライラックインベストメント,0
1619,8010101015698,新規,0,2023-06-28,2023-06-28,株式会社Ｂｕｉｌｄｅｒ,,株式会社,東京都,八王子市,中野山王３丁目２４番５号リバーサイド五十嵐１０２号,,13,201,1920042,,,,,,,2023-06-28,1,,,,,ビルダー,0
1623,8010401175283,新規,0,2023-06-28,2023-06-28,海誠国際株式会社,,株式会社,東京都,港区,芝５丁目１２－１０芝五丁目４０２,,13,103,1080014,,,,,,,2023-06-28,1,,,,,カイセイコクサイ,0
1624,8010401175291,新規,0,2023-06-28,2023-06-28,株式会社リンゴホールディングス,,株式会社,東京都,港区,赤坂２丁目８番１４－５０４号,,13,103,1070052,,,,,,,2023-06-28,1,,,,,リンゴホールディングス,0
1625,8010401175309,新規,0,2023-06-28,2023-06-28,ＳＵＮＳＰＲＩＮＧ　ＲＥＡＬＴＹ株式会社,,株式会社,東京都,港区,麻布十番３丁目３－３,,13,103,1060045,,,,,,,2023-06-28,1,,,,,サンスプリングリアリティ,0
1626,8010401175333,新規,0,2023-06-28,2023-06-28,ＩＢＥＣ株式会社,,株式会社,東京都,港区,芝１丁目２番１－３４０４号,,13,103,1050014,,,,,,,2023-06-28,1,,,,,アイビーイーシー,0
1627,8010403030387,新規,0,2023-06-28,2023-06-28,合同会社Ｓｕｐｅｒｉｏｒ　Ｒｅｓｏｌｕｔｉｏｎ,,合同会社,東京都,港区,港南４丁目６－８－３１０１,,13,103,1080075,,,,,,,2023-06-28,1,,,,,スペリオルレゾリューション,0
1629,8010405022250,新規,0,2023-06-28,2023-06-28,一般社団法人児対協,,その他の設立登記法人,東京都,港区,南青山２丁目２番１５号,,13,103,1070062,,,,,,,2023-06-28,1,,,,,ジタイキョウ,0
1634,8010601063313,新規,0,2023-06-28,2023-06-28,株式会社デジソル,,株式会社,東京都,墨田区,立川１丁目５－１０アイリス森下３０１,,13,107,1300023,,,,,,,2023-06-28,1,,,,,デジソル,0
1636,8010701044469,新規,0,2023-06-28,2023-06-28,株式会社フォーマンセル,,株式会社,東京都,品川区,大井１丁目３１－１－２８０１,,13,109,1400014,,,,,,,2023-06-28,1,,,,,フォーマンセル,0
1638,8010801034097,新規,0,2023-06-28,2023-06-28,ＧＯＯＤＹ株式会社,,株式会社,東京都,大田区,池上５丁目７番５号ベルサイユ池上４０７,,13,111,1460082,,,,,,,2023-06-28,1,,,,,グッディ,0
1640,8010901053286,新規,0,2023-06-28,2023-06-28,株式会社Ｅｌｅｍｅｎｔｓ,,株式会社,東京都,世田谷区,野沢４丁目５番１５号,,13,112,1540003,,,,,,,2023-06-28,1,,,,,エレメンツ,0
1641,8010901053303,新規,0,2023-06-28,2023-06-28,株式会社かぼっちゃ,,株式会社,東京都,世田谷区,瀬田５丁目１番１６－７０３号,,13,112,1580095,,,,,,,2023-06-28,1,,,,,カボッチャ,0
1650,8011001155337,新規,0,2023-06-28,2023-06-28,株式会社Ｙａｃｏ,,株式会社,東京都,目黒区,上目黒１丁目２６番１,,13,110,1530051,,,,,,,2023-06-28,1,,,,,ヤコ,0
1651,8011001155345,新規,0,2023-06-28,2023-06-28,セルリアメディカルサポート株式会社,,株式会社,東京都,渋谷区,神宮前３丁目３８番７号小林ビル２０１,,13,113,1500001,,,,,,,2023-06-28,1,,,,,セルリアメディカルサポート,0
1660,8011101103410,新規,0,2023-06-28,2023-06-28,千億投資株式会社,,株式会社,東京都,新宿区,中井１丁目９番９号,,13,104,1610035,,,,,,,2023-06-28,1,,,,,センオクトウシ,0
1662,8011103013203,新規,0,2023-06-28,2023-06-28,ひびきフローティングウィンド合同会社,,合同会社,東京都,新宿区,新宿１丁目８番１号大橋御苑駅ビル２階,,13,104,1600022,,,,,,,2023-06-28,1,,,,,ヒビキフローティングウィンド,0
1675,8011501029461,新規,0,2023-06-28,2023-06-28,株式会社Ｎａｐｏｌｉ,,株式会社,東京都,荒川区,町屋７丁目２０番８－１０２号,,13,118,1160001,,,,,,,2023-06-28,1,,,,,ナポリ,0
1679,8011603003967,新規,0,2023-06-28,2023-06-28,合同会社ハンク,,合同会社,東京都,練馬区,豊玉北２丁目２５番７号レジデンス豊玉イースト１０２,,13,120,1760012,,,,,,,2023-06-28,1,,,,,ハンク,0
1680,8011701026341,新規,0,2023-06-28,2023-06-28,株式会社ＬＡＵＧＨＷＩＴＨＤＯＧ,,株式会社,東京都,江戸川区,東小岩１丁目１７番２０号,,13,123,1330052,,,,,,,2023-06-28,1,,,,,ラフウィズドッグ,0
1681,8011701026374,新規,0,2023-06-28,2023-06-28,成美商会株式会社,,株式会社,東京都,江戸川区,南篠崎町５丁目１２番２－３３０号,,13,123,1330065,,,,,,,2023-06-28,1,,,,,ナルミショウカイ,0
1685,8011703003504,新規,0,2023-06-28,2023-06-28,元亀合同会社,,合同会社,東京都,江戸川区,平井１丁目５番７号,,13,123,1320035,,,,,,,2023-06-28,1,,,,,ゲンキ,0
1686,8011703003512,新規,0,2023-06-28,2023-06-28,合同会社カルシン,,合同会社,東京都,江戸川区,中葛西３丁目２６番６号２０５,,13,123,1340083,,,,,,,2023-06-28,1,,,,,カルシン,0
1689,8011801042619,新規,0,2023-06-28,2023-06-28,三仔フードサービス株式会社,,株式会社,東京都,葛飾区,金町５丁目２３番８号５０１号室,,13,122,1250042,,,,,,,2023-06-28,1,,,,,サンシフードサービス,0
1692,8012401040640,新規,0,2023-06-28,2023-06-28,株式会社イタニ工業,,株式会社,東京都,調布市,国領町７丁目１番地１－２０５,,13,208,1820022,,,,,,,2023-06-28,1,,,,,イタニコウギョウ,0
1700,8020001152244,新規,0,2023-06-28,2023-06-28,株式会社アルファプロ,,株式会社,神奈川県,川崎市多摩区,枡形２丁目２１番９号キャッスルスクエア１０２号室,,14,135,2140032,,,,,,,2023-06-28,1,,,,,アルファプロ,0
1714,8030001154537,新規,0,2023-06-28,2023-06-28,株式会社メディコープ,,株式会社,埼玉県,さいたま市南区,大字太田窪３２０５－４,,11,108,3360015,,,,,,,2023-06-28,1,,,,,メディコープ,0
1715,8030001154628,新規,0,2023-06-28,2023-06-28,株式会社大嶋電気管理事務所,,株式会社,埼玉県,上尾市,小泉１丁目４０－２０－１０３,,11,219,3620063,,,,,,,2023-06-28,1,,,,,オオシマデンキカンリジムショ,0
1717,8030003022023,新規,0,2023-06-28,2023-06-28,ソレイユアセット合同会社,,合同会社,埼玉県,さいたま市浦和区,常盤９丁目１６番５号２０３,,11,107,3300061,,,,,,,2023-06-28,1,,,,,ソレイユアセット,0
1718,8030003022031,新規,0,2023-06-28,2023-06-28,合同会社福染工務店,,合同会社,埼玉県,越谷市,赤山本町３－２４ライオンズグローベル越谷ステーションプラザ１２０１号,,11,222,3430808,,,,,,,2023-06-28,1,,,,,フクゾメコウムテン,0
1723,8040001128977,新規,0,2023-06-28,2023-06-28,ジーエフシー株式会社,,株式会社,千葉県,船橋市,習志野台４丁目８番６号１０５,,12,204,2740063,,,,,,,2023-06-28,1,,,,,ジーエフシー,0
1729,8040003022848,新規,0,2023-06-28,2023-06-28,合同会社Ｇａｙａｎｔｈｉ　Ａｕｔｏ　Ｐａｒｔｓ,,合同会社,千葉県,柏市,高柳４７１番地６－Ａ,,12,217,2770941,,,,,,,2023-06-28,1,,,,,ガヤンティオートパーツ,0
1733,8050001053035,新規,0,2023-06-28,2023-06-28,晋成株式会社,,株式会社,茨城県,つくば市,みどりの中央７５番地１１,,08,220,3050882,,,,,,,2023-06-28,1,,,,,シンセイ,0
1734,8050001053043,新規,0,2023-06-28,2023-06-28,株式会社ＭＵＬＴＩ　ＩＮＴＥＣ,,株式会社,茨城県,つくば市,梅園２丁目２５番地２９,,08,220,3050045,,,,,,,2023-06-28,1,,,,,マルチインテック,0
1738,8060001036113,新規,0,2023-06-28,2023-06-28,株式会社イロハ技建,,株式会社,栃木県,さくら市,下河戸９６番地,,09,214,3291402,,,,,,,2023-06-28,1,,,,,イロハギケン,0
1745,8080001025683,新規,0,2023-06-28,2023-06-28,株式会社向日葵リフォーム,,株式会社,静岡県,焼津市,小土８２６番地の１ファミーユＷ・Ａ２０１,,22,212,4250086,,,,,,,2023-06-28,1,,,,,ヒマワリリフォーム,0
1748,8080103002837,新規,0,2023-06-28,2023-06-28,合同会社Ｄの意思,,合同会社,静岡県,富士市,中里１０３番地の３３,,22,210,4170826,,,,,,,2023-06-28,1,,,,,ディーノイシ,0
1755,8110001037642,新規,0,2023-06-28,2023-06-28,ＴＧＭ株式会社,,株式会社,新潟県,新潟市東区,松崎２丁目１８番５号,,15,102,9500014,,,,,,,2023-06-28,1,,,,,ティージーエム,0
1771,8120001256002,新規,0,2023-06-28,2023-06-28,株式会社ケーズマネジメント,,株式会社,大阪府,大阪市中央区,上汐２丁目２番１２号,,27,128,5420064,,,,,,,2023-06-28,1,,,,,ケーズマネジメント,0
1772,8120001256084,新規,0,2023-06-28,2023-06-28,株式会社レヴカンパニー,,株式会社,大阪府,大阪市阿倍野区,北畠３丁目１４番３６号,,27,119,5450035,,,,,,,2023-06-28,1,,,,,レヴカンパニー,0
1775,8120003024381,新規,0,2023-06-28,2023-06-28,ホワイトワークス合同会社,,合同会社,大阪府,大阪市浪速区,難波中２丁目１０－５２－１７０３,,27,111,5560011,,,,,,,2023-06-28,1,,,,,ホワイトワークス,0
1793,8140001130626,新規,0,2023-06-28,2023-06-28,Ｕｎｉｔｅｄ　Ｇｏｌｄｅｎ　Ｌｉｇｈｔ株式会社,,株式会社,兵庫県,神戸市長田区,久保町３丁目８番２号木田ハイツ２階,,28,106,6530041,,,,,,,2023-06-28,1,,,,,ユナイテッドゴールデンライト,0
1794,8140001130675,新規,0,2023-06-28,2023-06-28,株式会社ｂｅ　ｍｅ．ｌａｂ,,株式会社,兵庫県,神戸市中央区,明石町４８番地,,28,110,6500037,,,,,,,2023-06-28,1,,,,,,0
1808,8180003025408,新規,0,2023-06-28,2023-06-28,合同会社さぁ,,合同会社,愛知県,名古屋市中区,大井町４番１０号１０３,,23,106,4600015,,,,,,,2023-06-28,1,,,,,サァ,0
1824,8240001061729,新規,0,2023-06-28,2023-06-28,ＳＡＧＯエステート株式会社,,株式会社,広島県,安芸郡府中町,茂陰１丁目２番２９号,,34,302,7350029,,,,,,,2023-06-28,1,,,,,サゴエステート,0
1833,8290001102081,新規,0,2023-06-28,2023-06-28,株式会社青柳,00130998,株式会社,福岡県,宗像市,朝野１８０番地１,,40,220,8113415,,,,,,,2023-06-28,1,,,,,アオヤギ,0
1835,8290003014077,新規,0,2023-06-28,2023-06-28,合同会社ナカシマ,,合同会社,福岡県,福岡市南区,柳河内２丁目１０番１５－１号,,40,134,8150063,,,,,,,2023-06-28,1,,,,,ナカシマ,0
1840,8330005010672,新規,0,2023-06-28,2023-06-28,一般社団法人熊本県ＭＴＢリーグ,,その他の設立登記法人,熊本県,上益城郡御船町,大字上野５１１２番地,,43,441,8613322,,,,,,,2023-06-28,1,,,,,クマモトケンマウンテンバイクリーグ,0
1851,8380003005496,新規,0,2023-06-28,2023-06-28,ＡＡＡサンエイテック合同会社,,合同会社,福島県,東白川郡塙町,大字植田字坂ノ下１００番地２,,07,483,9635343,,,,,,,2023-06-28,1,,,,,エーエーエーサンエイテック,0
1859,8430001089412,新規,0,2023-06-28,2023-06-28,株式会社ノートン,,株式会社,北海道,札幌市東区,北三十五条東１丁目３番３号パークサイドＮ３５－４階,,01,103,0070835,,,,,,,2023-06-28,1,,,,,ノートン,0
1860,8430001089429,新規,0,2023-06-28,2023-06-28,亀吉電設株式会社,,株式会社,北海道,札幌市西区,福井８丁目６番１５号ＣＡＬＭ　ＨＯＵＳＥ　ＩＩ－Ａ号,00131001,01,107,0630012,,,,,,,2023-06-28,1,,,,,カメキチデンセツ,0
1870,8700150117805,新規,0,2023-06-28,2023-06-28,Ｓｈｅｎｚｈｅｎｓｈｉ　Ｃｈｅｎｃｈｅｎｇｋｅｊｉ　ｙｏｕｘｉａｎｇｏｎｇｓｉ,,外国会社等,,,,,,,,Ｆｕｔｉａｎｑｕ　Ｙｕａｎｌｉｎｇｊｉｅｄａｏ　Ｈｕａｆａｂｅｉｌｕ　Ｈｏｎｇｌｉｃｕｎ　８　Ｄｏｎｇ　３　Ｄａｎｙｕａｎ　５０６　Ｓｈｅｎｚｈｅｎ　Ｇｕａｎｇｄｏｎｇ，Ｃｈｉｎａ,,,,,,2023-06-28,1,,,,,シンセンシチェンチェンケジユウゲンコウシ,0
1871,8700150117813,新規,0,2023-06-28,2023-06-28,Ｇｌｏｂａｌ　Ｔｅｃｈ　Ｐａｒｔｎｅｒｓ　ＬＬＣ,,外国会社等,,,,,,,,７８０　Ｍｏｒｎｉｎｇｓｉｄｅ　Ｍｉｌｌｂｒａｅ，Ｃａｌｉｆｏｒｎｉａ　９４０３０　Ｕ．Ｓ，Ａ,,,,,,2023-06-28,1,,,,,グローバルテツクパートナーズエルエルシー,0
1872,8700150117821,新規,0,2023-06-28,2023-06-28,ミャンマーザーベストワーンマンパワーグループ株式会社,,外国会社等,愛知県,名古屋市中区,栄１丁目１６番１６号チサンマンション栄６０１号室,,23,106,4600008,ミャンマー国ヤンゴン・チョッタダー群区９小区・ボアウンチョーストリート・オリンピックアワー５０１号室５階,,,,,,2023-06-28,1,,,,,ミャンマーザーベストワーンマンパワーグループカブシキカイシャ,0
1887,9010001236468,新規,0,2023-06-28,2023-06-28,株式会社ＲＩＥＬＬＥ,,株式会社,東京都,中央区,銀座１丁目１６－７,,13,102,1040061,,,,,,,2023-06-28,1,,,,,リエル,0
1888,9010001236501,新規,0,2023-06-28,2023-06-28,株式会社ＨＴＭ　ＨＯＬＤＩＮＧＳ　ＪＡＰＡＮ,,株式会社,東京都,千代田区,麹町１丁目６番１６号半蔵門海和ビル９階（Ｃ／ＯＪｏｏ‐ｒｅａｌｅｓｔａｔｅ‐ｏｆｆｉｃｅ）,,13,101,1020083,,,,,,,2023-06-28,1,,,,,エイチティーエムホールディングスジャパン,0
1893,9010401175290,新規,0,2023-06-28,2023-06-28,株式会社ＭＫ　Ｃｏｒｐｏｒａｔｉｏｎ,,株式会社,東京都,港区,港南４丁目６番１－２６０２号,,13,103,1080075,,,,,,,2023-06-28,1,,,,,エムケイコーポレーション,0
1894,9010401175349,新規,0,2023-06-28,2023-06-28,株式会社ＥＭＰＥＲＯＲ,,株式会社,東京都,港区,南青山３丁目１番３６号青山丸竹ビル６Ｆ,,13,103,1070062,,,,,,,2023-06-28,1,,,,,エンペラー,0
1895,9010403030386,新規,0,2023-06-28,2023-06-28,合同会社ライチアセットアドバイザーズ,,合同会社,東京都,港区,六本木６丁目３－１六本木ヒルズクロスポイント,,13,103,1060032,,,,,,,2023-06-28,1,,,,,ライチアセットアドバイザーズ,0
1897,9010603010221,新規,0,2023-06-28,2023-06-28,合同会社ＴＤフード,,合同会社,東京都,江東区,南砂７丁目１番１８－４１３号,,13,108,1360076,,,,,,,2023-06-28,1,,,,,ティディフード,0
1898,9010701044476,新規,0,2023-06-28,2023-06-28,ｅ‐ＫＵＲＡＳＨＩ株式会社,,株式会社,東京都,品川区,東大井４丁目１３番１１－３０７号,,13,109,1400011,,,,,,,2023-06-28,1,,,,,イークラシ,0
1899,9010803004584,新規,0,2023-06-28,2023-06-28,合同会社Ｄｒｉｖｅｏｐｔ,,合同会社,東京都,大田区,山王３丁目３８－１本テイタリー山王２０１,,13,111,1430023,,,,,,,2023-06-28,1,,,,,ドライブオプト,0
1902,9011001155286,新規,0,2023-06-28,2023-06-28,Ｒａｉｈ株式会社,,株式会社,東京都,渋谷区,渋谷２丁目１９－１５宮益坂ビルディング６０９,,13,113,1500002,,,,,,,2023-06-28,1,,,,,ライ,0
1909,9011103013193,新規,0,2023-06-28,2023-06-28,合同会社トップインベストメント,,合同会社,東京都,新宿区,西新宿７丁目２１番９号天翔西新宿ビル,,13,104,1600023,,,,,,,2023-06-28,1,,,,,トップインベストメント,0
1914,9011301028811,新規,0,2023-06-28,2023-06-28,株式会社ＥＡＳＴ　ＲＩＶＥＲ,,株式会社,東京都,杉並区,高円寺北３丁目２１番８－２０４号,,13,115,1660002,,,,,,,2023-06-28,1,,,,,イーストリバー,0
1921,9013101009198,新規,0,2023-06-28,2023-06-28,株式会社小山内装,,株式会社,東京都,羽村市,緑ヶ丘１丁目７番地２２,,13,227,2050003,,,,,,,2023-06-28,1,,,,,コヤマナイソウ,0
1923,9013301050968,新規,0,2023-06-28,2023-06-28,ＳＨＵＫＥ株式会社,,株式会社,東京都,豊島区,南長崎１丁目１７番１７号,,13,116,1710052,,,,,,,2023-06-28,1,,,,,シュケ,0
1931,9020005016048,新規,0,2023-06-28,2023-06-28,一般財団法人Ｐａｌｅ　Ｂｌｅｕ　Ｄｏｔ,,その他の設立登記法人,神奈川県,川崎市中原区,新城２丁目１３番８号,,14,133,2110044,,,,,,,2023-06-28,1,,,,,ペイルブルードット,0
1938,9030001154635,新規,0,2023-06-28,2023-06-28,株式会社ＨＴ,,株式会社,埼玉県,さいたま市中央区,円阿弥４丁目８番２号,,11,105,3380007,,,,,,,2023-06-28,1,,,,,エイチティー,0
1941,9030003022030,新規,0,2023-06-28,2023-06-28,ＡＫ　Ｃｏｒｐｏｒａｔｉｏｎ合同会社,,合同会社,埼玉県,草加市,稲荷２丁目２５番５号,,11,221,3400003,,,,,,,2023-06-28,1,,,,,エーケーコーポレーション,0
1946,9040001128968,新規,0,2023-06-28,2023-06-28,株式会社ミーズカンパニー,,株式会社,千葉県,松戸市,古ケ崎４丁目３５６４番地の８,,12,207,2710068,,,,,,,2023-06-28,1,,,,,ミーズカンパニー,0
1955,9050003007608,新規,0,2023-06-28,2023-06-28,合同会社大一,,合同会社,茨城県,つくば市,大角豆５９５番地,,08,220,3050043,,,,,,,2023-06-28,1,,,,,ダイイチ,0
1959,9060001036112,新規,0,2023-06-28,2023-06-28,株式会社竹内架設,,株式会社,栃木県,宇都宮市,宝木町２丁目１１１１番地１２４,,09,201,3200061,,,,,,,2023-06-28,1,,,,,タケウチカセツ,0
1967,9080103002836,新規,0,2023-06-28,2023-06-28,合同会社ａｓｉａｎ‐ｓａｎｐｏ,,合同会社,静岡県,伊豆市,八木沢１３６５番地の１シーサイドスパ西伊豆土肥６１１号室,,22,222,4103303,,,,,,,2023-06-28,1,,,,,アジアンサンポ,0
1988,9120001255886,新規,0,2023-06-28,2023-06-28,阪和商事株式会社,,株式会社,大阪府,大阪市西区,靱本町１丁目１５番１０－５０８号,,27,106,5500004,,,,,,,2023-06-28,1,,,,,ハンワショウジ,0
1989,9120001256034,新規,0,2023-06-28,2023-06-28,株式会社Ｎｉｄｏｍｉグループ,,株式会社,大阪府,大阪市中央区,南久宝寺町１丁目６－６－３０２号,,27,128,5410058,,,,,,,2023-06-28,1,,,,,ニドミグループ,0
1992,9120103005297,新規,0,2023-06-28,2023-06-28,合同会社Ｂ＆Ｍ,,合同会社,大阪府,泉大津市,東豊中町１丁目６－２２,,27,206,5950021,,,,,,,2023-06-28,1,,,,,ビーアンドエム,0
1998,9120903004713,新規,0,2023-06-28,2023-06-28,プリマーズＳｔｙｌｅ合同会社,,合同会社,大阪府,池田市,栄町８番１０－４０１号,,27,204,5630056,,,,,,,2023-06-28,1,,,,,プリマーズスタイル,0
2007,9140001130625,新規,0,2023-06-28,2023-06-28,サンインターナショナル株式会社,,株式会社,兵庫県,神戸市中央区,北長狭通１丁目１０番２号蓬莱亭ビル３Ｆ,,28,110,6500012,,,,,,,2023-06-28,1,,,,,サンインターナショナル,0
2008,9140001130666,新規,0,2023-06-28,2023-06-28,ＲｉｓＥ株式会社,,株式会社,兵庫県,芦屋市,平田町１番１０号,,28,206,6590074,,,,,,,2023-06-28,1,,,,,ライズ,0
2026,9180001156889,新規,0,2023-06-28,2023-06-28,株式会社Ａｉｍ,,株式会社,愛知県,名古屋市西区,中小田井５丁目４５９コーポ大木曽４０３,,23,104,4520822,,,,,,,2023-06-28,1,,,,,エイム,0
2031,9180003025407,新規,0,2023-06-28,2023-06-28,合同会社エムエス１,,合同会社,愛知県,名古屋市港区,春田野２丁目９０１番地ファミリアーレ戸田川緑地４０３号,,23,111,4550873,,,,,,,2023-06-28,1,,,,,エムエスワン,0
2035,9180303005752,新規,0,2023-06-28,2023-06-28,ガンバル工業合同会社,,合同会社,愛知県,岡崎市,明大寺町字大圦３４番地１２エミナンス竜美丘１０２,,23,202,4440865,,,,,,,2023-06-28,1,,,,,ガンバルコウギョウ,0
2037,9190001030523,新規,0,2023-06-28,2023-06-28,株式会社エンジョイ,,株式会社,三重県,松阪市,船江町３３番地１２,,24,204,5150812,,,,,,,2023-06-28,1,,,,,エンジョイ,0
2041,9190005011833,新規,0,2023-06-28,2023-06-28,一般社団法人ウネシャル,,その他の設立登記法人,三重県,四日市市,午起２丁目４番１号,,24,202,5100023,,,,,,,2023-06-28,1,,,,,ウネシャル,0
2047,9240001061728,新規,0,2023-06-28,2023-06-28,株式会社ＨＯＵＥＩ,,株式会社,広島県,広島市中区,大手町１丁目３番２６号大手町一番ビル３０５,,34,101,7300051,,,,,,,2023-06-28,1,,,,,ホウエイ,0
2056,9290001102072,新規,0,2023-06-28,2023-06-28,株式会社Ｉ・Ｃユニバース,,株式会社,福岡県,太宰府市,青山２丁目１４番２号,,40,221,8180121,,,,,,,2023-06-28,1,,,,,アイシーユニバース,0
2057,9290001102080,新規,0,2023-06-28,2023-06-28,株式会社ブロスブロス,,株式会社,福岡県,福岡市博多区,中呉服町３番２５号,,40,132,8120035,,,,,,,2023-06-28,1,,,,,ブロスブロス,0
2058,9290001102089,新規,0,2023-06-28,2023-06-28,株式会社のんのこフーズ,,株式会社,福岡県,福岡市博多区,博多駅東２丁目１番２３号,,40,132,8120013,,,,,,,2023-06-28,1,,,,,ノンノコフーズ,0
2080,9390003002112,新規,0,2023-06-28,2023-06-28,テックアイランド合同会社,,合同会社,山形県,酒田市,飛島字勝浦甲７３番地,,06,204,9980281,,,,,,,2023-06-28,1,,,,,テックアイランド,0
2089,9430001089394,新規,0,2023-06-28,2023-06-28,株式会社パリバティ,,株式会社,北海道,札幌市中央区,南一条西１６丁目１番地３２３春野ビル３Ｆ,,01,101,0600061,,,,,,,2023-06-28,1,,,,,パリバティ,0
2095,9500001025020,新規,0,2023-06-28,2023-06-28,株式会社ＢＯＸ‐１,,株式会社,愛媛県,四国中央市,川之江町２２７９番地１,,38,213,7990101,,,,,,,2023-06-28,1,,,,,ボックスワン,0
2096,9700150117804,新規,0,2023-06-28,2023-06-28,Ｓｈｅｎｚｈｅｎｓｈｉ　ＫａｍｕＫｅｊｉ　Ｙｏｕｘｉａｎｇｏｎｇｓｉ,,外国会社等,,,,,,,,Ｃｈｅｎｇｓｈｉｓｈａｎｈａｉｚｈｏｎｇｘｉｎ　Ｂｄｏｎｇ７０８ｓｈｉ　Ｌｏｎｇｇａｎｇｑｕ　Ｂａｎｔｉａｎｊｉｅｄａｏ　ｚｈｏｎｇｘｉｎｇｌｕ　１１ｈａｏ　Ｇｕａｎｇｄｏｎｇｓｈｅｎｇ　Ｓｈｅｎｚｈｅｎｓｈｉ，Ｃｈｉｎａ,,,,,,2023-06-28,1,,,,,シンセンシカムケジユウゲンコウシ,0
2097,9700150117812,新規,0,2023-06-28,2023-06-28,ＵＮＫＵ　ＬＩＭＩＴＥＤ,,外国会社等,北海道,虻田郡倶知安町,字樺山４８－８８,,01,400,0440078,ＯＭＣ　Ｃｈａｍｂｅｒｓ，Ｗｉｃｋｈａｍｓ　Ｃａｙ　１，Ｒｏａｄ　Ｔｏｗｎ，Ｔｏｒｔｏｌａ，ＢＶＩ,,,,,,2023-06-28,1,,,,,アンクリミテツド,0
2098,9700150117820,新規,0,2023-06-28,2023-06-28,Ｚｈｏｎｇｓｈａｎｓｈｉ　ｘｉｎｇｙｕｅ　ｄｉａｎｚｉｋｅｊｉ　ｙｏｕｘｉａｎｇｏｎｇｓｉ,,外国会社等,,,,,,,,Ｘｉａｏｌａｎｚｈｅｎ　Ｔｈｅ　ｆｉｒｓｔ　ｃａｒｄ　１／Ｆ　Ｎｏ．５２　Ｙｏｎｇｎｉｎｇ　Ｈｏｎｇｌｉａｎ　Ｅｒｍａ　Ｒｏａｄ　Ｚｈｏｎｇｓｈａｎ　Ｇｕａｎｇｄｏｎｇ　ＣＮ,,,,,,2023-06-28,1,,,,,ヂョンシャンシシンユエデンジケジユウゲンコウシ,0
