sequenceNumber,corporateNumber,process,correct,updateDate,changeDate,name,nameImageId,kind,prefectureName,cityName,streetNumber,addressImageId,prefectureCode,cityCode,postCode,addressOutside,addressOutsideImageId,closeDate,closeCause,successorCorporateNumber,changeCause,assignmentDate,latest,enName,enPrefectureName,enCityName,enAddressOutside,furigana,hihyoji
10,1010401094358,登記記録の閉鎖等,0,2024-06-18,2024-06-05,賢者のビジネス研究所株式会社,,株式会社,東京都,港区,白金台４丁目３番４号,,13,103,1080071,,,2024-06-05,清算の結了等,,,2015-10-05,1,,,,,ケンジャノビジネス,0
17,1010403025930,登記記録の閉鎖等,0,2024-06-18,2024-06-04,株式会社ＬＧＡｐａｒｔｎｅｒｓ,,株式会社,東京都,港区,港南２丁目１６－１品川イーストワンタワー４Ｆ,,13,103,1080075,,,2024-06-04,清算の結了等,,,2021-08-19,1,,,,,エルジーエーパートナーズ,0
21,1010502022374,登記記録の閉鎖等,0,2024-06-18,2024-06-13,有限会社オフィス・ユー,,有限会社,東京都,台東区,池之端１丁目４番３３－１１０９号,,13,106,1100008,,,2024-06-13,清算の結了等,,,2015-10-05,1,,,,,オフィスユー,0
29,1010801029657,登記記録の閉鎖等,0,2024-06-18,2024-06-11,ファイブスター株式会社,,株式会社,東京都,大田区,池上７丁目３１番１９号,,13,111,1460082,,,2024-06-11,清算の結了等,,,2019-03-06,1,,,,,ファイブスター,0
50,1011501015699,登記記録の閉鎖等,0,2024-06-18,2024-06-11,株式会社シマムラ,,株式会社,東京都,北区,昭和町１丁目１番８号,,13,117,1140011,,,2024-06-11,清算の結了等,,,2015-10-05,1,,,,,シマムラ,0
51,1011501020154,登記記録の閉鎖等,0,2024-06-18,2024-06-12,株式会社タクミ,,株式会社,東京都,北区,上中里１丁目５番１１号,,13,117,1140016,,,2024-06-12,清算の結了等,,,2015-10-05,1,,,,,,0
52,1011601012274,登記記録の閉鎖等,0,2024-06-18,2024-06-10,日本ＥＰＥＣ株式会社,,株式会社,東京都,練馬区,光が丘３丁目８番４－５０４号,,13,120,1790072,,,2024-06-10,清算の結了等,,,2015-10-05,1,,,,,ニホンエーペック,0
57,1011803003476,登記記録の閉鎖等,0,2024-06-18,2024-06-07,合同会社ＥＸｐｌａｎｎｉｎｇ＆ｃｏｍｐａｎｙ,,合同会社,東京都,中央区,晴海３丁目１０番１号Ｄａｉｗａ晴海ビル２階,,13,102,1040053,,,2024-06-07,清算の結了等,,,2018-10-18,1,,,,,,0
65,1013302005648,登記記録の閉鎖等,0,2024-06-18,2024-06-07,有限会社大黒質店,,有限会社,東京都,豊島区,池袋３丁目５８番１１号,,13,116,1710014,,,2024-06-07,清算の結了等,,,2015-10-05,1,,,,,ダイコクシチテン,0
77,1020003011669,登記記録の閉鎖等,0,2024-06-18,2024-06-06,真康エンジニアリング合同会社,,合同会社,神奈川県,横浜市戸塚区,下倉田町４２５番地４,,14,110,2440815,,,2024-06-06,清算の結了等,,,2016-08-09,1,,,,,シンコウエンジニアリング,0
106,1060002009108,登記記録の閉鎖等,0,2024-06-18,2024-06-10,有限会社やたべ,,有限会社,栃木県,宇都宮市,西川田本町４丁目１番１３号,,09,201,3210158,,,2024-06-10,清算の結了等,,,2015-10-05,1,,,,,ヤタベ,0
138,1130001068535,登記記録の閉鎖等,0,2024-06-18,2024-06-05,株式会社ＫＯＨＩＩ,,株式会社,京都府,京都市中京区,山中町５５１,,26,104,6040815,,,2024-06-05,清算の結了等,,,2021-01-29,1,,,,,コーヒー,0
154,1160001024254,登記記録の閉鎖等,0,2024-06-18,2024-06-13,株式会社ゆうメディカル,,株式会社,滋賀県,守山市,播磨田町１１０番地１,,25,207,5240012,,,2024-06-13,清算の結了等,,,2022-06-06,1,,,,,ユウメディカル,0
158,1180001092943,登記記録の閉鎖等,0,2024-06-18,2024-06-07,株式会社サウスチタ,,株式会社,愛知県,知多郡南知多町,大字大井字西園１４２番地,,23,445,4703501,,,2024-06-07,清算の結了等,,,2015-10-05,1,,,,,サウスチタ,0
168,1190002016025,登記記録の閉鎖等,0,2024-06-18,2024-06-14,有限会社豊岡精工,,有限会社,三重県,松阪市,和屋町２４０番地１,,24,204,5150025,,,2024-06-14,清算の結了等,,,2015-10-05,1,,,,,トヨオカセイコウ,0
173,1200002001702,登記記録の閉鎖等,0,2024-06-18,2024-06-17,有限会社小枝石材店,,有限会社,岐阜県,岐阜市,粟野東４丁目２４８番地,,21,201,5020002,,,2024-06-17,清算の結了等,,,2015-10-05,1,,,,,サエダセキザイテン,0
180,1240003003248,登記記録の閉鎖等,0,2024-06-18,2024-06-11,合同会社レイド,,合同会社,広島県,福山市,旭町２－３－３０１,,34,207,7200033,,,2024-06-11,清算の結了等,,,2016-04-07,1,,,,,レイド,0
183,1260002010020,登記記録の閉鎖等,0,2024-06-18,2024-06-03,有限会社メンテナンス・サービス,,有限会社,岡山県,岡山市南区,泉田５丁目３番８号,,33,104,7000944,,,2024-06-03,合併による解散等,6260002014768,令和６年６月１日岡山市南区泉田五丁目３番８号株式会社アミパラホールディングス（6260002014768）に合併し解散,2015-10-05,1,,,,,メンテナンスサービス,0
191,1290802021973,登記記録の閉鎖等,0,2024-06-18,2024-06-05,有限会社恒広設備,,有限会社,福岡県,築上郡吉富町,大字小犬丸３６０番地の８,,40,642,8710802,,,2024-06-05,清算の結了等,,,2015-10-05,1,,,,,ツネヒロセツビ,0
193,1300005003512,登記記録の閉鎖等,0,2024-06-18,2024-06-14,医療法人田代医院,,その他の設立登記法人,佐賀県,藤津郡太良町,大字多良１３２９番地１,,41,441,8491602,,,2024-06-14,清算の結了等,,,2015-10-05,1,,,,,タシロイイン,0
195,1320001008265,登記記録の閉鎖等,0,2024-06-18,2024-06-10,株式会社ジャド九州,,株式会社,大分県,国東市,国東町北江３３４４－１－１０３,,44,214,8730501,,,2024-06-10,清算の結了等,,,2015-10-05,1,,,,,ジャドキュウシュウ,0
196,1330003009277,登記記録の閉鎖等,0,2024-06-18,2024-06-12,Ｗｅｌｌ－ＰＦサービス合同会社,,合同会社,熊本県,熊本市中央区,九品寺４丁目３番２－１０３,,43,101,8620976,,,2024-06-12,清算の結了等,,,2022-03-03,1,,,,,ウェルピーエフサービス,0
216,1470003000346,登記記録の閉鎖等,0,2024-06-18,2024-06-10,合資会社タカハシ,,合資会社,香川県,丸亀市,飯山町東坂元３５７３番地１２,,37,202,7620081,,,2024-06-10,清算の結了等,,,2015-10-05,1,,,,,タカハシ,0
219,1490001007837,登記記録の閉鎖等,0,2024-06-18,2024-06-12,さかわソーラー株式会社,,株式会社,高知県,高岡郡佐川町,中組７７番地,,39,402,7891233,,,2024-06-12,合併による解散等,3490001007331,令和６年６月１２日高知県高岡郡佐川町中組７７番地株式会社田村モータース（3490001007331）に合併し解散,2015-10-05,1,,,,,サカワソーラー,0
222,1500002018666,登記記録の閉鎖等,0,2024-06-18,2024-06-10,有限会社玉川液化ガス,,有限会社,愛媛県,今治市,大新田町３丁目４番１２号,,38,202,7940005,,,2024-06-10,清算の結了等,,,2015-10-05,1,,,,,タマガワエキカガス,0
225,2010001209208,登記記録の閉鎖等,0,2024-06-18,2024-06-11,株式会社ＲＡＷＲ,,株式会社,東京都,新宿区,若葉１丁目９番地１わかばミドリ２０１,,13,104,1600011,,,2024-06-11,清算の結了等,,,2020-04-24,1,,,,,ロアー,0
237,2010402036481,登記記録の閉鎖等,0,2024-06-18,2024-06-14,アールイーオー株式会社,,株式会社,東京都,港区,北青山３丁目６番７号,,13,103,1070061,,,2024-06-14,合併による解散等,6011001044335,令和６年６月１日東京都渋谷区神南一丁目２０番１５号株式会社アロー（6011001044335）に合併し解散,2015-10-05,1,,,,,アールイーオー,0
240,2010403010345,登記記録の閉鎖等,0,2024-06-18,2024-06-04,ノブ合同会社,,合同会社,東京都,港区,南麻布３丁目２０番１号５階,,13,103,1060047,,,2024-06-04,清算の結了等,,,2015-10-05,1,,,,,ノブ,0
242,2010403022266,登記記録の閉鎖等,0,2024-06-18,2024-06-06,合同会社Ｔｏｐａｚ,,合同会社,東京都,港区,虎ノ門５丁目１番４号,,13,103,1050001,,,2024-06-06,清算の結了等,,,2020-01-31,1,,,,,トパーズ,0
264,2011301013381,登記記録の閉鎖等,0,2024-06-18,2024-06-11,株式会社ビジネスパラダイム,,株式会社,東京都,杉並区,下高井戸４丁目３４番１０号,,13,115,1680073,,,2024-06-11,清算の結了等,,,2015-10-05,1,,,,,ビジネスパラダイム,0
270,2011502008759,登記記録の閉鎖等,0,2024-06-18,2024-06-12,有限会社サンビーヌ,,有限会社,東京都,荒川区,西日暮里１丁目６１番２３－９０１号,,13,118,1160013,,,2024-06-12,清算の結了等,,,2015-10-05,1,,,,,,0
275,2011602007058,登記記録の閉鎖等,0,2024-06-18,2024-06-12,有限会社輝工務店,,有限会社,東京都,練馬区,石神井町２丁目３３番１８号,,13,120,1770041,,,2024-06-12,清算の結了等,,,2015-10-05,1,,,,,テカリコウムテン,0
346,2120002039147,登記記録の閉鎖等,0,2024-06-18,2024-06-10,有限会社ゆのくにチェーン,,有限会社,大阪府,大阪市中央区,東心斎橋２丁目１番３号,,27,128,5420083,,,2024-06-10,清算の結了等,,,2015-10-05,1,,,,,ユノクニチェーン,0
351,2120101027424,登記記録の閉鎖等,0,2024-06-18,2024-06-13,株式会社ぐりーんぽっと,,株式会社,大阪府,松原市,松ケ丘４丁目３番１号,,27,217,5800042,,,2024-06-13,清算の結了等,,,2015-10-05,1,,,,,グリーンポット,0
354,2120901017806,登記記録の閉鎖等,0,2024-06-18,2024-06-13,株式会社ＯＪジャパン,,株式会社,大阪府,茨木市,白川３丁目２番４－２０１号,,27,211,5670832,,,2024-06-13,清算の結了等,,,2015-10-05,1,,,,,オージェイジャパン,0
359,2122002013684,登記記録の閉鎖等,0,2024-06-18,2024-06-04,有限会社コーエイ産業,,有限会社,大阪府,八尾市,上尾町５丁目１番地の１２,,27,212,5810851,,,2024-06-04,合併による解散等,6122001004061,令和６年６月１日大阪府八尾市上尾町五丁目１番地の１２株式会社ソリッドツール（6122001004061）に合併し解散,2015-10-05,1,,,,,コーエイサンギョウ,0
366,2130002003457,登記記録の閉鎖等,0,2024-06-18,2024-06-14,有限会社オーアールエス,,有限会社,京都府,京都市北区,小山下初音町６５番地,,26,101,6038173,,,2024-06-14,清算の結了等,,,2015-10-05,1,,,,,オーアールエス,0
369,2140002038080,登記記録の閉鎖等,0,2024-06-18,2024-06-12,有限会社紅屋,,有限会社,兵庫県,加古川市,加古川町粟津２９６番地の９,,28,210,6750039,,,2024-06-12,清算の結了等,,,2015-10-05,1,,,,,ベニヤ,0
414,2320002009583,登記記録の閉鎖等,0,2024-06-18,2024-06-10,有限会社ＳＳＥシステム,,有限会社,大分県,大分市,南津留４番１７号,,44,201,8700937,,,2024-06-10,清算の結了等,,,2015-10-05,1,,,,,,0
415,2320002010632,登記記録の閉鎖等,0,2024-06-18,2024-06-17,有限会社デンタル・クリエイト・センター,,有限会社,大分県,由布市,湯布院町塚原４０－１２,,44,213,8795101,,,2024-06-17,清算の結了等,,,2015-10-05,1,,,,,,0
416,2320002020466,登記記録の閉鎖等,0,2024-06-18,2024-06-13,有限会社大江清風堂,,有限会社,大分県,中津市,１８１２番地,,44,203,8710099,,,2024-06-13,清算の結了等,,,2015-10-05,1,,,,,,0
419,2330002008460,登記記録の閉鎖等,0,2024-06-18,2024-06-11,有限会社原コンタクトレンズ,,有限会社,熊本県,阿蘇郡南阿蘇村,大字河陰３９８９番地１,,43,433,8691411,,,2024-06-11,清算の結了等,,,2015-10-05,1,,,,,ハラコンタクトレンズ,0
428,2380001025056,登記記録の閉鎖等,0,2024-06-18,2024-06-12,株式会社Ｐｅｒｓｏｎａｌｉｔｙ　Ｓｔｙｌｅ,,株式会社,福島県,いわき市,内郷御台境町新町前１７番地の１グリーンマンション２０２,,07,204,9738409,,,2024-06-12,清算の結了等,,,2015-10-05,1,,,,,パーソナリティスタイル,0
433,2430001085391,登記記録の閉鎖等,0,2024-06-18,2024-06-17,株式会社ＳＭＴ,,株式会社,東京都,中野区,東中野５丁目１１番８号Ｂ１,,13,114,1640003,,,2024-06-17,清算の結了等,,,2021-11-16,1,,,,,エスエムティ,0
439,2460001001701,登記記録の閉鎖等,0,2024-06-18,2024-06-17,株式会社丸越岩田商事,,株式会社,北海道,釧路市,北大通８丁目１番地１０,,01,206,0850015,,,2024-06-17,清算の結了等,,,2015-10-05,1,,,,,マルコシイワタショウジ,0
462,3010401131191,登記記録の閉鎖等,0,2024-06-18,2024-06-04,イーストブリッジアソシエイツ・リミテッド株式会社,,株式会社,東京都,港区,南麻布４丁目１番１４－１１０３号,,13,103,1060047,,,2024-06-04,清算の結了等,,,2017-05-08,1,,,,,イーストブリッジアソシエイツリミテッド,0
463,3010401145670,登記記録の閉鎖等,0,2024-06-18,2024-06-07,株式会社キネイド・アイズ,,株式会社,東京都,豊島区,南池袋１丁目１６番１５号ダイヤゲート池袋５階,,13,116,1710022,,,2024-06-07,清算の結了等,,,2019-05-20,1,,,,,キネイドアイズ,0
464,3010401150514,登記記録の閉鎖等,0,2024-06-18,2024-06-06,Ｇｏｒｉｌｌａ　Ｔｅｃｈｎｏｌｏｇｙ　Ｊａｐａｎ株式会社,,株式会社,東京都,中央区,日本橋兜町１７－２兜町第６葉山ビル４Ｆ,,13,102,1030026,,,2024-06-06,清算の結了等,,,2020-01-23,1,,,,,ゴリラテクノロジージャパン,0
476,3010803003253,登記記録の閉鎖等,0,2024-06-18,2024-06-11,合同会社アイエヌエー,,合同会社,東京都,大田区,久が原４丁目４２番１号,,13,111,1460085,,,2024-06-11,清算の結了等,,,2020-01-28,1,,,,,アイエヌエー,0
480,3011001015776,登記記録の閉鎖等,0,2024-06-18,2024-06-07,株式会社徳栄,00053085,株式会社,東京都,渋谷区,道玄坂１丁目１５番３号,,13,113,1500043,,,2024-06-07,清算の結了等,,,2015-10-05,1,,,,,トクエイ,0
497,3011401012860,登記記録の閉鎖等,0,2024-06-18,2024-06-11,株式会社ゴールデンホープ,,株式会社,東京都,板橋区,仲宿１７番２号,,13,119,1730005,,,2024-06-11,清算の結了等,,,2015-10-05,1,,,,,ゴールデンホープ,0
501,3011402004345,登記記録の閉鎖等,0,2024-06-18,2024-06-17,有限会社新水工業所,,有限会社,東京都,中野区,弥生町３丁目１５番８号,,13,114,1640013,,,2024-06-17,清算の結了等,,,2015-10-05,1,,,,,シンスイコウギョウショ,0
512,3011802004201,登記記録の閉鎖等,0,2024-06-18,2024-06-13,有限会社スドウ,,有限会社,東京都,葛飾区,奥戸２丁目９番１０号,,13,122,1240022,,,2024-06-13,清算の結了等,,,2015-10-05,1,,,,,スドウ,0
519,3012705001236,登記記録の閉鎖等,0,2024-06-18,2024-06-14,特定非営利活動法人生活企画ジェフリー,,その他の設立登記法人,東京都,西東京市,南町４丁目１３番２６号,,13,229,1880012,,,2024-06-14,清算の結了等,,,2015-10-05,1,,,,,セイカツキカクジェフリー,0
521,3020001057472,登記記録の閉鎖等,0,2024-06-18,2024-06-06,騰隆株式会社,,株式会社,神奈川県,横浜市鶴見区,寺谷２丁目１３番１７－８号,,14,101,2300015,,,2024-06-06,清算の結了等,,,2015-10-05,1,,,,,トウリュウ,0
530,3021002049921,登記記録の閉鎖等,0,2024-06-18,2024-06-14,有限会社ウェーブ,,有限会社,神奈川県,足柄下郡湯河原町,土肥４丁目１５番地の７,,14,384,2590303,,,2024-06-14,清算の結了等,,,2015-10-05,1,,,,,ウェーブ,0
540,3040001125442,登記記録の閉鎖等,0,2024-06-18,2024-05-17,株式会社有言舎,,株式会社,千葉県,市川市,大和田３丁目１番１３号,,12,203,2720025,,,2024-05-17,清算の結了等,,,2022-10-28,1,,,,,ユウゲンシャ,0
542,3040001126770,登記記録の閉鎖等,0,2024-06-18,2024-06-04,株式会社ＳＶ　Ｌｅｉｓｕｒｅ,,株式会社,千葉県,夷隅郡大多喜町,板谷５８８番地,,12,441,2980261,,,2024-06-04,清算の結了等,,,2023-01-31,1,,,,,エスブイレジャー,0
561,3080002015333,登記記録の閉鎖等,0,2024-06-18,2024-06-07,有限会社髪空間,,有限会社,静岡県,榛原郡吉田町,住吉３２７５番地の１,,22,424,4210301,,,2024-06-07,清算の結了等,,,2015-10-05,1,,,,,カミクウカン,0
563,3080101003908,登記記録の閉鎖等,0,2024-06-18,2024-06-11,デジタルネットワーク株式会社,,株式会社,静岡県,沼津市,宮前町９番地の１,,22,203,4100062,,,2024-06-11,合併による解散等,7080101006147,令和６年６月１日静岡県三島市幸原町二丁目２１番地の４０株式会社シーオーエー静岡（7080101006147）に合併し解散,2015-10-05,1,,,,,デジタルネットワーク,0
570,3080401015470,登記記録の閉鎖等,0,2024-06-18,2024-06-14,株式会社ブルーベリー,,株式会社,静岡県,菊川市,半済１８９番地の３,,22,224,4390019,,,2024-06-14,清算の結了等,,,2015-10-05,1,,,,,ブルーベリー,0
574,3080402007640,登記記録の閉鎖等,0,2024-06-18,2024-06-13,有限会社マルイチ不動産,,有限会社,静岡県,浜松市中央区,大瀬町４５９番地の２,,22,138,4313113,,,2024-06-13,清算の結了等,,,2015-10-05,1,,,,,マルイチフドウサン,0
575,3090001014062,登記記録の閉鎖等,0,2024-06-18,2024-06-13,ケア・キューブ株式会社,,株式会社,山梨県,甲府市,湯村１丁目５番１７号,,19,201,4000073,,,2024-06-13,清算の結了等,,,2015-10-05,1,,,,,,0
576,3090002004368,登記記録の閉鎖等,0,2024-06-18,2024-06-12,有限会社神津エンジニアリング,,有限会社,山梨県,中巨摩郡昭和町,築地新居６５４番地７,,19,384,4093853,,,2024-06-12,清算の結了等,,,2015-10-05,1,,,,,,0
606,3140002030549,登記記録の閉鎖等,0,2024-06-18,2024-06-13,有限会社藤川新聞舗,,有限会社,兵庫県,明石市,東野町１１番地の９,,28,203,6730844,,,2024-06-13,清算の結了等,,,2015-10-05,1,,,,,フジカワシンブンポ,0
608,3140002062682,登記記録の閉鎖等,0,2024-06-18,2024-06-13,有限会社稲商,,有限会社,兵庫県,小野市,久保木町６４９番地,,28,218,6751362,,,2024-06-13,清算の結了等,,,2015-10-05,1,,,,,,0
635,3220001015146,登記記録の閉鎖等,0,2024-06-18,2024-06-11,株式会社マネジメント福井,,株式会社,石川県,加賀市,伊切町い１２１番地２,,17,206,9220406,,,2024-06-11,清算の結了等,,,2015-10-05,1,,,,,マネジメントフクイ,0
642,3240005013846,登記記録の閉鎖等,0,2024-06-18,2024-06-14,一般社団法人福の山城下町プロジェクト,,その他の設立登記法人,広島県,福山市,霞町１丁目４番２３号,,34,207,7200812,,,2024-06-14,清算の結了等,,,2015-10-05,1,,,,,フクノヤマジョウカマチプロジェクト,0
644,3280002003020,登記記録の閉鎖等,0,2024-06-18,2024-06-17,株式会社清風荘,,株式会社,島根県,松江市,玉湯町玉造１１８３番地１,,32,201,6990201,,,2024-06-17,清算の結了等,,,2015-10-05,1,,,,,セイフウソウ,0
655,3290802006106,登記記録の閉鎖等,0,2024-06-18,2024-06-07,有限会社丸本石油,,有限会社,福岡県,北九州市小倉南区,志井１丁目１番７号,,40,107,8020985,,,2024-06-07,清算の結了等,,,2015-10-05,1,,,,,マルモトセキユ,0
681,3440001004952,登記記録の閉鎖等,0,2024-06-18,2024-06-12,株式会社中伸広業,,株式会社,北海道,函館市,東山町１２１番１０１号,,01,202,0410834,,,2024-06-12,清算の結了等,,,2015-10-05,1,,,,,,0
690,3480002005203,登記記録の閉鎖等,0,2024-06-18,2024-06-14,森田漁業資材有限会社,,有限会社,徳島県,徳島市,南昭和町７丁目１５番地６,,36,201,7700944,,,2024-06-14,清算の結了等,,,2015-10-05,1,,,,,モリタギョギョウシザイ,0
691,3480002014682,登記記録の閉鎖等,0,2024-06-18,2024-06-10,有限会社木下木材商店,,有限会社,徳島県,美馬市,脇町別所３５１３番地の４,,36,207,7793620,,,2024-06-10,清算の結了等,,,2015-10-05,1,,,,,キノシタモクザイショウテン,0
703,4010003031814,登記記録の閉鎖等,0,2024-06-18,2024-06-13,ユナイティア合同会社,,合同会社,東京都,中央区,銀座７丁目１５番８号タウンハイツ銀座４０６,,13,102,1040061,,,2024-06-13,清算の結了等,,,2020-03-06,1,,,,,ユナイティア,0
720,4011001027143,登記記録の閉鎖等,0,2024-06-18,2024-06-05,株式会社ブルーゴート,,株式会社,東京都,渋谷区,神宮前２丁目３０番５－１０３号,,13,113,1500001,,,2024-06-05,清算の結了等,,,2015-10-05,1,,,,,ブルーゴート,0
734,4011601002834,登記記録の閉鎖等,0,2024-06-18,2024-06-17,新高通信産業株式会社,,株式会社,東京都,中野区,江原町３丁目１２番１号富士ビル３０２,,13,114,1650023,,,2024-06-17,清算の結了等,,,2015-10-05,1,,,,,ニイタカツウシンサンギョウ,0
735,4011601005762,登記記録の閉鎖等,0,2024-06-18,2024-06-10,光ビルメン株式会社,,株式会社,東京都,練馬区,貫井３丁目３３番１９号,,13,120,1760021,,,2024-06-10,清算の結了等,,,2015-10-05,1,,,,,ヒカリビルメン,0
738,4011602009283,登記記録の閉鎖等,0,2024-06-18,2024-05-30,有限会社松野茂工務店,,有限会社,東京都,練馬区,大泉学園町８丁目１２番１１号,,13,120,1780061,,,2024-05-30,清算の結了等,,,2015-10-05,1,,,,,マツノシゲルコウムテン,0
740,4011802026137,登記記録の閉鎖等,0,2024-06-18,2024-06-13,有限会社村上技建,,有限会社,東京都,葛飾区,東水元５丁目３７番８号,,13,122,1250033,,,2024-06-13,清算の結了等,,,2015-10-05,1,,,,,ムラカミギケン,0
750,4020001145111,登記記録の閉鎖等,0,2024-06-18,2024-06-06,株式会社ヤガサービス,,株式会社,神奈川県,川崎市川崎区,砂子２丁目５－２１第３９東京ビル４Ｆ,,14,131,2100006,,,2024-06-06,清算の結了等,,,2022-02-04,1,,,,,ヤガサービス,0
754,4021002048939,登記記録の閉鎖等,0,2024-06-18,2024-06-14,有限会社リサイクルガーデン,,有限会社,神奈川県,大和市,上草柳６丁目１８番１５号,,14,213,2420029,,,2024-06-14,清算の結了等,,,2015-10-05,1,,,,,リサイクルガーデン,0
771,4040001108818,登記記録の閉鎖等,0,2024-06-18,2024-06-04,株式会社ハピネスワーク,,株式会社,東京都,港区,元麻布３丁目１番６号,,13,103,1060046,,,2024-06-04,清算の結了等,,,2019-04-16,1,,,,,ハピネスワーク,0
783,4050002032751,登記記録の閉鎖等,0,2024-06-18,2024-06-14,有限会社ラーニングアイ,,有限会社,茨城県,日立市,中成沢町４丁目１６番２５－３０２号,,08,202,3160033,,,2024-06-14,清算の結了等,,,2015-10-05,1,,,,,ラーニングアイ,0
784,4050002041364,登記記録の閉鎖等,0,2024-06-18,2024-06-13,有限会社長塚運送,,有限会社,茨城県,常総市,国生１１９１番地１,,08,211,3002741,,,2024-06-13,清算の結了等,,,2015-10-05,1,,,,,ナガツカウンソウ,0
817,4120001230167,登記記録の閉鎖等,0,2024-06-18,2024-06-14,ＹＳＴ株式会社,,株式会社,大阪府,大阪市西淀川区,中島２丁目１０番１５４号,,27,113,5550041,,,2024-06-14,清算の結了等,,,2020-07-06,1,,,,,ワイエスティー,0
825,4120101032166,登記記録の閉鎖等,0,2024-06-18,2024-06-13,株式会社シンコー,,株式会社,大阪府,羽曳野市,桃山台１丁目６番１５号,,27,222,5830873,,,2024-06-13,清算の結了等,,,2015-10-05,1,,,,,,0
828,4120103002472,登記記録の閉鎖等,0,2024-06-18,2024-06-17,合同会社ＨＴＫ,,合同会社,三重県,松阪市,飯高町宮本５９９番地,,24,204,5151614,,,2024-06-17,清算の結了等,,,2016-05-20,1,,,,,エイチティーケー,0
835,4122001005672,登記記録の閉鎖等,0,2024-06-18,2024-06-13,南條精機株式会社,,株式会社,大阪府,東大阪市,衣摺６丁目２番７号,00034288,27,227,5770827,,,2024-06-13,清算の結了等,,,2015-10-05,1,,,,,ナンジョウセイキ,0
846,4140001098099,登記記録の閉鎖等,0,2024-06-18,2024-06-12,株式会社明光創建,,株式会社,兵庫県,姫路市,神子岡前１丁目２番１号神子岡エイト８Ｆ,,28,201,6700055,,,2024-06-12,清算の結了等,,,2015-10-05,1,,,,,メイコウソウケン,0
858,4180002052084,登記記録の閉鎖等,0,2024-06-18,2024-06-10,有限会社松葉,,有限会社,愛知県,北名古屋市,六ツ師５４９番地,,23,234,4810001,,,2024-06-10,清算の結了等,,,2015-10-05,1,,,,,マツバ,0
859,4180002074616,登記記録の閉鎖等,0,2024-06-18,2024-06-07,有限会社アンカメストアー,,有限会社,愛知県,丹羽郡大口町,下小口７丁目２４番地の１,,23,361,4800144,,,2024-06-07,清算の結了等,,,2015-10-05,1,,,,,アンカメストアー,0
865,4190001019298,登記記録の閉鎖等,0,2024-06-18,2024-06-12,株式会社プラスペリテ,,株式会社,三重県,四日市市,下海老町４８８８番地,,24,202,5121203,,,2024-06-12,清算の結了等,,,2015-10-05,1,,,,,プラスペリテ,0
870,4200001019164,登記記録の閉鎖等,0,2024-06-18,2024-06-14,佐藤商店株式会社,,株式会社,岐阜県,関市,志津野２６５１番地の１,,21,205,5013205,,,2024-06-14,清算の結了等,,,2015-10-05,1,,,,,サトウショウテン,0
874,4210002004206,登記記録の閉鎖等,0,2024-06-18,2024-06-12,有限会社リトルハチ,,有限会社,福井県,福井市,照手１丁目１１番２号,,18,201,9100024,,,2024-06-12,清算の結了等,,,2015-10-05,1,,,,,リトルハチ,0
906,4320002013286,登記記録の閉鎖等,0,2024-06-18,2024-06-14,有限会社大分県旅館ホテルサービス,,有限会社,大分県,別府市,北浜２丁目１０番１９号グランメールビル４階,,44,202,8740920,,,2024-06-14,清算の結了等,,,2015-10-05,1,,,,,,0
907,4320002017997,登記記録の閉鎖等,0,2024-06-18,2024-06-10,有限会社ハヤシスポーツ,,有限会社,大分県,竹田市,大字竹田町３６８番地,,44,208,8780012,,,2024-06-10,清算の結了等,,,2015-10-05,1,,,,,ハヤシスポーツ,0
935,4420001000614,登記記録の閉鎖等,0,2024-06-18,2024-06-03,株式会社金竹成家,,株式会社,青森県,青森市,問屋町１丁目７番２８号,,02,201,0300131,,,2024-06-03,合併による解散等,5420001010991,令和６年６月１日青森県十和田市西十一番町２２番２０号株式会社金竹成家（5420001010991）に合併し解散,2015-10-05,1,,,,,カネタケナリケ,0
937,4420002013739,登記記録の閉鎖等,0,2024-06-18,2024-06-12,有限会社テーエス加工,,有限会社,青森県,弘前市,大字松原西２丁目３番地１６,,02,202,0368142,,,2024-06-12,清算の結了等,,,2015-10-05,1,,,,,テーエスカコウ,0
948,4480002002785,登記記録の閉鎖等,0,2024-06-18,2024-06-13,有限会社竹内建築構造事務所,,有限会社,徳島県,徳島市,福島１丁目７番４号,,36,201,7700868,,,2024-06-13,清算の結了等,,,2015-10-05,1,,,,,,0
966,5010001026071,登記記録の閉鎖等,0,2024-06-18,2024-06-04,株式会社錦町商会,,株式会社,東京都,千代田区,麹町６丁目２番６号,,13,101,1020083,,,2024-06-04,清算の結了等,,,2015-10-05,1,,,,,ニシキチョウショウカイ,0
977,5010401133640,登記記録の閉鎖等,0,2024-06-18,2024-06-04,株式会社イオトイジャパン,,株式会社,東京都,港区,元赤坂１丁目３番１３号,,13,103,1070051,,,2024-06-04,合併による解散等,8011101053812,令和６年６月１日東京都港区元赤坂一丁目３番１３号株式会社エル・ティー・エス（8011101053812）に合併し解散,2017-09-05,1,,,,,イオトイジャパン,0
988,5010601049166,登記記録の閉鎖等,0,2024-06-18,2024-06-11,株式会社ＹＥＡＨ　ｅｄｕｃａｔｉｏｎ,,株式会社,東京都,新宿区,西早稲田３丁目４番５号スクエアコート早稲田００８,,13,104,1690051,,,2024-06-11,清算の結了等,,,2016-02-08,1,,,,,ヤーエデュケーション,0
990,5010701015778,登記記録の閉鎖等,0,2024-06-18,2024-06-10,株式会社トラストネットワーク,,株式会社,東京都,大田区,仲六郷１丁目１４番５号,,13,111,1440055,,,2024-06-10,清算の結了等,,,2015-10-05,1,,,,,トラストネットワーク,0
1006,5011003000568,登記記録の閉鎖等,0,2024-06-18,2024-06-05,合資会社広尾キネマ,,合資会社,東京都,渋谷区,広尾５丁目１９番５号,,13,113,1500012,,,2024-06-05,清算の結了等,,,2015-10-05,1,,,,,ヒロオキネマ,0
1018,5011501019366,登記記録の閉鎖等,0,2024-06-18,2024-06-12,ＫＥＩコンサルティング株式会社,,株式会社,東京都,荒川区,荒川７丁目４６番１－２１０４号,,13,118,1160002,,,2024-06-12,清算の結了等,,,2015-10-05,1,,,,,,0
1033,5013301025949,登記記録の閉鎖等,0,2024-06-18,2024-06-14,株式会社遊具診断,,株式会社,神奈川県,横浜市戸塚区,小雀町１９２０番地４,,14,110,2440004,,,2024-06-14,合併による解散等,7011501014241,令和６年６月１０日東京都豊島区南大塚二丁目２６番７号ＭＥ新大塚ビル２階株式会社シンテン（7011501014241）に合併し解散,2015-10-05,1,,,,,ユウグシンダン,0
1042,5021002027784,登記記録の閉鎖等,0,2024-06-18,2024-06-14,有限会社エコテクノ・プラントサービス,,有限会社,神奈川県,相模原市中央区,田名４５８８番地,,14,152,2520244,,,2024-06-14,清算の結了等,,,2015-10-05,1,,,,,エコテクノプラントサービス,0
1045,5030001102440,登記記録の閉鎖等,0,2024-06-18,2024-06-06,栄光産業株式会社,,株式会社,千葉県,千葉市緑区,誉田町１丁目３２６番地１,,12,105,2660005,,,2024-06-06,清算の結了等,,,2015-10-05,1,,,,,エイコウサンギョウ,0
1049,5030003007299,登記記録の閉鎖等,0,2024-06-18,2024-06-13,ＴＫＮ合同会社,,合同会社,埼玉県,川口市,大字小谷場２５番地の９プリムヴェールＶ２０３号,,11,203,3330857,,,2024-06-13,清算の結了等,,,2015-10-05,1,,,,,ティーケーエヌ,0
1058,5040002051074,登記記録の閉鎖等,0,2024-06-18,2024-06-06,有限会社今井工務店,,有限会社,千葉県,流山市,おおたかの森西３丁目２番地の６,,12,220,2700128,,,2024-06-06,清算の結了等,,,2015-10-05,1,,,,,イマイコウムテン,0
1074,5080101017550,登記記録の閉鎖等,0,2024-06-18,2024-06-11,株式会社ＴＵＪ,,株式会社,静岡県,伊豆市,上白岩４９６番地,,22,222,4102502,,,2024-06-11,清算の結了等,,,2015-10-05,1,,,,,,0
1075,5080102001181,登記記録の閉鎖等,0,2024-06-18,2024-06-14,有限会社ケーチエーン,,有限会社,静岡県,沼津市,我入道林町４６２番地,,22,203,4100823,,,2024-06-14,清算の結了等,,,2015-10-05,1,,,,,ケーチエーン,0
1104,5120901025418,登記記録の閉鎖等,0,2024-06-18,2024-06-12,株式会社文錦堂,,株式会社,大阪府,豊中市,千里園３丁目８番６号,,27,203,5600046,,,2024-06-12,清算の結了等,,,2015-10-05,1,,,,,ブンキンドウ,0
1105,5120901026218,登記記録の閉鎖等,0,2024-06-18,2024-06-12,和建ハウジング株式会社,,株式会社,大阪府,豊中市,待兼山町３６番３号,,27,203,5600043,,,2024-06-12,清算の結了等,,,2015-10-05,1,,,,,ワケンハウジング,0
1140,5180001032821,登記記録の閉鎖等,0,2024-06-18,2024-06-07,株式会社萬友,,株式会社,岐阜県,各務原市,那加西那加町１２番地１,,21,213,5040952,,,2024-06-07,清算の結了等,,,2015-10-05,1,,,,,マンユウ,0
1149,5180002070861,登記記録の閉鎖等,0,2024-06-18,2024-06-07,有限会社ピースワールド,,有限会社,愛知県,春日井市,西本町３丁目２０４番地,,23,206,4860958,,,2024-06-07,清算の結了等,,,2015-10-05,1,,,,,ピースワールド,0
1151,5180002082205,登記記録の閉鎖等,0,2024-06-18,2024-06-07,丸貴建築工業有限会社,,有限会社,愛知県,江南市,東野町西出４７番地,,23,217,4838424,,,2024-06-07,清算の結了等,,,2015-10-05,1,,,,,マルタカケンチクコウギョウ,0
1160,5230001008361,登記記録の閉鎖等,0,2024-06-18,2024-06-13,株式会社砺波地所,,株式会社,富山県,砺波市,高道１４４番地２,,16,208,9391383,,,2024-06-13,清算の結了等,,,2015-10-05,1,,,,,トナミジショ,0
1164,5240002036047,登記記録の閉鎖等,0,2024-06-18,2024-06-17,有限会社３６・ＩＴＯ,,有限会社,広島県,呉市,警固屋６丁目１１番３０号,,34,202,7370012,,,2024-06-17,清算の結了等,,,2015-10-05,1,,,,,,0
1280,6011002015806,登記記録の閉鎖等,0,2024-06-18,2024-06-07,有限会社ライフビジョン,,有限会社,東京都,渋谷区,富ヶ谷１丁目５３番４号,,13,113,1510063,,,2024-06-07,清算の結了等,,,2015-10-05,1,,,,,ライフビジョン,0
1292,6011301022016,登記記録の閉鎖等,0,2024-06-18,2024-06-13,株式会社ドリームブリッジ,,株式会社,東京都,台東区,台東４丁目２９番１０号さたけ第二ビル６０１,,13,106,1100016,,,2024-06-13,清算の結了等,,,2016-02-03,1,,,,,ドリームブリッジ,0
1359,6080002009852,登記記録の閉鎖等,0,2024-06-18,2024-06-10,有限会社興隆,,有限会社,静岡県,静岡市清水区,興津東町１２３４番地,,22,103,4240203,,,2024-06-10,清算の結了等,,,2015-10-05,1,,,,,,0
1362,6080401010031,登記記録の閉鎖等,0,2024-06-18,2024-06-13,株式会社アヅマ白蟻,,株式会社,静岡県,浜松市浜名区,高薗１７５番地の２,,22,139,4340023,,,2024-06-13,清算の結了等,,,2015-10-05,1,,,,,アヅマシロアリ,0
1368,6080403003165,登記記録の閉鎖等,0,2024-06-18,2024-06-13,グーグリーン合同会社,,合同会社,埼玉県,熊谷市,押切２５３７－１,,11,202,3600111,,,2024-06-13,清算の結了等,,,2015-10-05,1,,,,,グーグリーン,0
1385,6120002043161,登記記録の閉鎖等,0,2024-06-18,2024-06-13,有限会社三和クリエイト,,有限会社,大阪府,大阪市淀川区,西宮原１丁目８番１４号,,27,123,5320004,,,2024-06-13,清算の結了等,,,2015-10-05,1,,,,,,0
1386,6120002060396,登記記録の閉鎖等,0,2024-06-18,2024-05-31,株式会社エムケーフーズ,,株式会社,大阪府,大阪市城東区,成育４丁目１１番１２号,,27,118,5360007,,,2024-05-31,合併による解散等,2010401171949,令和６年５月３１日大阪市城東区成育四丁目１１番１２号株式会社エムケーフーズ（2010401171949）に合併し解散,2015-10-05,1,,,,,エムケーフーズ,0
1405,6130001062558,登記記録の閉鎖等,0,2024-06-18,2024-06-14,株式会社工房春日,,株式会社,京都府,京都市北区,大将軍一条町１３１番地,,26,101,6038336,,,2024-06-14,清算の結了等,,,2018-07-20,1,,,,,コウボウカスガ,0
1426,6180005017776,登記記録の閉鎖等,0,2024-06-18,2024-06-11,特定非営利活動法人温故知新クラブ,,その他の設立登記法人,愛知県,北名古屋市,鹿田合田４７番地２,,23,234,4810004,,,2024-06-11,清算の結了等,,,2018-04-12,1,,,,,オンコチシンクラブ,0
1433,6190002011335,登記記録の閉鎖等,0,2024-06-18,2024-06-14,有限会社協成不動産,,有限会社,三重県,志摩市,阿児町鵜方字金谷３００９番地４０,,24,215,5170501,,,2024-06-14,清算の結了等,,,2015-10-05,1,,,,,キョウセイフドウサン,0
1438,6200005003303,登記記録の閉鎖等,0,2024-06-18,2024-06-13,農事組合法人ハイタックス,,その他の設立登記法人,岐阜県,瑞穂市,田之上３４５番地,,21,216,5010304,,,2024-06-13,清算の結了等,,,2015-10-05,1,,,,,ハイタックス,0
1447,6240005006260,登記記録の閉鎖等,0,2024-06-18,2024-06-17,呉市個人タクシー協同組合,,その他の設立登記法人,広島県,呉市,三条１丁目２－１０－１０３,,34,202,7370821,,,2024-06-17,清算の結了等,,,2015-10-05,1,,,,,クレシコジンタクシー,0
1467,6320002009175,登記記録の閉鎖等,0,2024-06-18,2024-06-10,庄内林産有限会社,,有限会社,大分県,由布市,庄内町庄内原１７９番地３,,44,213,8795434,,,2024-06-10,清算の結了等,,,2015-10-05,1,,,,,ショウナイリンサン,0
1481,6380002032758,登記記録の閉鎖等,0,2024-06-18,2024-06-11,ハウディー有限会社,,有限会社,福島県,耶麻郡磐梯町,大字磐梯字七ツ森７４２３番地４０,,07,407,9693301,,,2024-06-11,清算の結了等,,,2015-10-05,1,,,,,ハウディー,0
1499,6480003001702,登記記録の閉鎖等,0,2024-06-18,2024-06-14,合同会社田園,,合同会社,徳島県,阿南市,原ケ崎町堀川床１７－１０カントリーハイツ１０１号室,,36,204,7740008,,,2024-06-14,清算の結了等,,,2021-08-05,1,,,,,デンエン,0
1503,6490001008500,登記記録の閉鎖等,0,2024-06-18,2024-06-03,株式会社ヴェルデ,,株式会社,高知県,吾川郡仁淀川町,土居甲７６７番地１,,39,387,7811606,,,2024-06-03,合併による解散等,7490001000869,令和６年６月１日高知市重倉２６６番２号株式会社相愛（7490001000869）に合併し解散,2016-11-09,1,,,,,ヴェルデ,0
1512,7010001182920,登記記録の閉鎖等,0,2024-06-18,2024-06-07,Ｃｈａｌｌｅｎｇｅｒ　Ｊａｐａｎ株式会社,,株式会社,東京都,千代田区,大手町１丁目１番１号大手町パークビルディング８階,,13,101,1000004,,,2024-06-07,清算の結了等,,,2017-04-20,1,,,,,チャレンジャージャパン,0
1513,7010001183373,登記記録の閉鎖等,0,2024-06-18,2024-06-11,株式会社東大寺子屋,,株式会社,千葉県,我孫子市,我孫子２丁目３番４１７号アクア・レジデンス,,12,222,2701166,,,2024-06-11,合併による解散等,4030001152924,令和６年５月３１日埼玉県白岡市新白岡八丁目７番地３ＭＹＫ　Ｃｏｎｓｕｌｔｉｎｇ株式会社（4030001152924）に合併し解散,2017-05-12,1,,,,,トウダイテラコヤ,0
1514,7010001212751,登記記録の閉鎖等,0,2024-06-18,2024-06-07,株式会社ＨＤＡＳ,,株式会社,東京都,文京区,関口１丁目２０番１０号,,13,105,1120014,,,2024-06-07,清算の結了等,,,2020-10-23,1,,,,,エイチディーエーエス,0
1515,7010003040952,登記記録の閉鎖等,0,2024-06-18,2024-06-07,ＮＩＨＯＮ　ＨＯＢＢＹ　ＳＵＰＰＬＹ合同会社,,合同会社,東京都,千代田区,神田和泉町１番地６－１６ヤマトビル４０５,,13,101,1010024,,,2024-06-07,清算の結了等,,,2023-06-22,1,,,,,ニホンホビーサプライ,0
1535,7010703006162,登記記録の閉鎖等,0,2024-06-18,2024-06-14,美作グリーンパワー合同会社,,合同会社,東京都,品川区,東五反田２丁目１７番１号,,13,109,1410022,,,2024-06-14,清算の結了等,,,2022-03-18,1,,,,,ミマサカグリーンパワー,0
1578,7021001063779,登記記録の閉鎖等,0,2024-06-18,2024-06-12,石田重機株式会社,,株式会社,神奈川県,海老名市,本郷２７９７番地の４,,14,215,2430417,,,2024-06-12,清算の結了等,,,2017-12-20,1,,,,,,0
1585,7030001150454,登記記録の閉鎖等,0,2024-06-18,2024-06-14,川口油圧工業株式会社,,株式会社,埼玉県,川口市,東領家５丁目１８番５号,,11,203,3320003,,,2024-06-14,清算の結了等,,,2022-10-11,1,,,,,カワグチユアツコウギョウ,0
1595,7040002083256,登記記録の閉鎖等,0,2024-06-18,2024-06-06,有限会社山下商店,,有限会社,千葉県,匝瑳市,八日市場イ２９０５番地,,12,235,2892144,,,2024-06-06,清算の結了等,,,2015-10-05,1,,,,,ヤマシタショウテン,0
1616,7080002002889,登記記録の閉鎖等,0,2024-06-18,2024-06-10,有限会社杉山商事,,有限会社,静岡県,静岡市駿河区,小黒３丁目１１番２６号,,22,102,4228072,,,2024-06-10,清算の結了等,,,2015-10-05,1,,,,,スギヤマショウジ,0
1625,7090003000635,登記記録の閉鎖等,0,2024-06-18,2024-06-04,合同会社ぱーとなー,,合同会社,山梨県,韮崎市,大草町若尾７２番１号,,19,207,4070037,,,2024-06-04,合併による解散等,4090001005804,令和６年６月１日山梨県甲府市住吉二丁目４番８号セントケア山梨株式会社（4090001005804）に合併し解散,2015-10-05,1,,,,,パートナー,0
1641,7120901018923,登記記録の閉鎖等,0,2024-06-18,2024-06-12,株式会社エスディ・ラボ,,株式会社,大阪府,吹田市,垂水町３丁目２５番１１号,,27,205,5640062,,,2024-06-12,清算の結了等,,,2015-10-05,1,,,,,エスディラボ,0
1642,7120901043599,登記記録の閉鎖等,0,2024-06-18,2024-06-14,株式会社カンパニオ,,株式会社,東京都,港区,赤坂５丁目２番４６号,,13,103,1070052,,,2024-06-14,合併による解散等,4120901034535,令和６年６月１日大阪府吹田市竹見台二丁目６番２号株式会社カンパニオエステート（4120901034535）に合併し解散,2020-12-10,1,,,,,カンパニオ,0
1650,7130002016891,登記記録の閉鎖等,0,2024-06-18,2024-06-12,有限会社デザインファームイフ,,有限会社,京都府,京都市中京区,新町通錦小路下る小結棚町４３６番地フィエルテ四条烏丸シュッド５０１号,,26,104,6048223,,,2024-06-12,清算の結了等,,,2015-10-05,1,,,,,デザインファームイフ,0
1664,7180001016830,登記記録の閉鎖等,0,2024-06-18,2024-06-07,株式会社ザクサスアソシエイツ,,株式会社,愛知県,名古屋市中区,平和１丁目２２番１０号,,23,106,4600021,,,2024-06-07,清算の結了等,,,2015-10-05,1,,,,,ザクサスアソシエイツ,0
1665,7180001074531,登記記録の閉鎖等,0,2024-06-18,2024-06-07,株式会社トーコー,,株式会社,愛知県,春日井市,朝宮町２丁目２番地の７,,23,206,4860846,,,2024-06-07,清算の結了等,,,2015-10-05,1,,,,,トーコー,0
1676,7190001009841,登記記録の閉鎖等,0,2024-06-18,2024-06-14,株式会社トータル,,株式会社,三重県,伊賀市,予野９９１１番地の１,,24,216,5181152,,,2024-06-14,清算の結了等,,,2015-10-05,1,,,,,トータル,0
1680,7200001011119,登記記録の閉鎖等,0,2024-06-18,2024-06-14,株式会社ジル,,株式会社,岐阜県,羽島郡岐南町,下印食１丁目１３４番地,,21,302,5016018,,,2024-06-14,清算の結了等,,,2015-10-05,1,,,,,ジル,0
1700,7280002008552,登記記録の閉鎖等,0,2024-06-18,2024-06-17,有限会社浜田ハイヤー,,有限会社,島根県,浜田市,河内町１５９４番地５,,32,202,6970012,,,2024-06-17,清算の結了等,,,2015-10-05,1,,,,,ハマダハイヤー,0
1707,7330002023133,登記記録の閉鎖等,0,2024-06-18,2024-06-13,有限会社キッチンハウス,,有限会社,熊本県,阿蘇郡小国町,大字宮原２６５７番地,,43,424,8692501,,,2024-06-13,清算の結了等,,,2015-10-05,1,,,,,キッチンハウス,0
1735,7390001012800,登記記録の閉鎖等,0,2024-06-18,2024-06-05,株式会社ＳＲさくら商事,,株式会社,山形県,米沢市,花沢町２６４３番地の７,,06,202,9920022,,,2024-06-05,清算の結了等,,,2015-10-05,1,,,,,エスアールサクラショウジ,0
1754,7500003000931,登記記録の閉鎖等,0,2024-06-18,2024-06-10,合名会社岩崎靴店,,合名会社,愛媛県,宇和島市,新町２丁目８番１号,,38,203,7980035,,,2024-06-10,清算の結了等,,,2015-10-05,1,,,,,イワサキクツテン,0
1767,8010003037519,登記記録の閉鎖等,0,2024-06-18,2024-06-04,デロイトトーマツリップルマーク合同会社,,合同会社,東京都,千代田区,丸の内３丁目２番３号丸の内二重橋ビルディング,,13,101,1000005,,,2024-06-04,合併による解散等,2010001072184,令和６年６月１日東京都千代田区一番町１３番地１メトロシティ半蔵門デロイトトーマツアクト株式会社（2010001072184）に合併し解散,2022-04-20,1,,,,,デロイトトーマツリップルマーク,0
1775,8010401141855,登記記録の閉鎖等,0,2024-06-18,2024-06-17,株式会社ａｓｓｉｓｔ　ｏｎｅ,,株式会社,東京都,八王子市,片倉町４４６番地１４,,13,201,1920914,,,2024-06-17,清算の結了等,,,2018-11-09,1,,,,,アシストワン,0
1780,8010402005373,登記記録の閉鎖等,0,2024-06-18,2024-06-06,株式会社ＳＮＷ,,株式会社,東京都,渋谷区,円山町５番４号道玄坂ビル９階,,13,113,1500044,,,2024-06-06,清算の結了等,,,2015-10-05,1,,,,,エスエヌダブリュー,0
1787,8010601046722,登記記録の閉鎖等,0,2024-06-18,2024-06-10,株式会社ＮＹ企画,,株式会社,東京都,新宿区,新宿１丁目３６番２号,,13,104,1600022,,,2024-06-10,清算の結了等,,,2015-10-05,1,,,,,エヌワイキカク,0
1792,8010802007705,登記記録の閉鎖等,0,2024-06-18,2024-06-10,有限会社鈴長,,有限会社,東京都,大田区,東糀谷４丁目１１番２１号,,13,111,1440033,,,2024-06-10,清算の結了等,,,2015-10-05,1,,,,,スズチョウ,0
1804,8011001148794,登記記録の閉鎖等,0,2024-06-18,2024-06-14,ニューシナジー・キャピタル・マネジメント株式会社,,株式会社,東京都,渋谷区,恵比寿４丁目２０－３恵比寿ガーデンプレイスタワー,,13,113,1500013,,,2024-06-14,合併による解散等,2010403012465,令和６年６月１日東京都港区南青山六丁目１３番２４号合同会社ＡＹＫ２６（2010403012465）に合併し解散,2022-07-27,1,,,,,ニューシナジーキャピタルマネジメント,0
1829,8011801033980,登記記録の閉鎖等,0,2024-06-18,2024-06-14,株式会社ジェイズコーポレーション,,株式会社,東京都,足立区,六月１丁目１６番９号上岡ビル２階,,13,121,1210814,,,2024-06-14,清算の結了等,,,2017-10-16,1,,,,,ジェイズコーポレーション,0
1848,8020003009780,登記記録の閉鎖等,0,2024-06-18,2024-06-14,アース・ランド合同会社,,合同会社,神奈川県,横浜市戸塚区,戸塚町３７５５番地１ベルシャトウ戸塚壱番館４１０号,,14,110,2440003,,,2024-06-14,合併による解散等,8011003007420,令和６年６月１日東京都渋谷区笹塚二丁目１６番２号ＡＳＰ笹塚ビル５Ｆベイトックス合同会社（8011003007420）に合併し解散,2015-10-05,1,,,,,アースランド,0
1851,8021001066979,登記記録の閉鎖等,0,2024-06-18,2024-06-13,株式会社カモミロ社,,株式会社,神奈川県,鎌倉市,長谷５丁目８番１６号,,14,204,2480016,,,2024-06-13,清算の結了等,,,2019-04-08,1,,,,,カモミロ,0
1859,8030003011661,登記記録の閉鎖等,0,2024-06-18,2024-06-13,ワイズスタイル合同会社,,合同会社,埼玉県,川越市,大字藤間９７０番地１,,11,201,3501142,,,2024-06-13,清算の結了等,,,2018-03-29,1,,,,,ワイズスタイル,0
1864,8040001061427,登記記録の閉鎖等,0,2024-06-18,2024-06-06,株式会社丸三洋品店,,株式会社,千葉県,香取郡多古町,多古２６０６番地,,12,347,2892241,,,2024-06-06,清算の結了等,,,2015-10-05,1,,,,,マルサンヨウヒンテン,0
1865,8040001105035,登記記録の閉鎖等,0,2024-06-18,2024-06-06,株式会社幸和,,株式会社,千葉県,柏市,藤ケ谷新田１０６番７,,12,217,2770932,,,2024-06-06,清算の結了等,,,2018-06-14,1,,,,,コウワ,0
1887,8120001206980,登記記録の閉鎖等,0,2024-06-18,2024-06-14,ビリーブイン株式会社,,株式会社,大阪府,大阪市福島区,野田２丁目１８番４号,,27,103,5530005,,,2024-06-14,清算の結了等,,,2017-07-26,1,,,,,,0
1895,8120101063216,登記記録の閉鎖等,0,2024-06-18,2024-05-08,株式会社ファースト,,株式会社,大阪府,松原市,高見の里６丁目７番７号,,27,217,5800021,,,2024-05-08,清算の結了等,,,2021-03-09,1,,,,,ファースト,0
1899,8122001009273,登記記録の閉鎖等,0,2024-06-18,2024-06-17,株式会社プロスパーク,,株式会社,大阪府,東大阪市,森河内東１丁目１５番２０号,,27,227,5770062,,,2024-06-17,清算の結了等,,,2015-10-05,1,,,,,プロスパーク,0
1900,8122001032201,登記記録の閉鎖等,0,2024-06-18,2024-06-17,株式会社ＭＩＣ,,株式会社,大阪府,東大阪市,稲田新町１丁目１４番１２号,,27,227,5770004,,,2024-06-17,清算の結了等,,,2018-12-17,1,,,,,エムアイシー,0
1932,8190001028898,登記記録の閉鎖等,0,2024-06-18,2024-06-14,株式会社ＪＳＬ　ＪＡＰＡＮ,,株式会社,三重県,四日市市,新正４丁目７番８号,,24,202,5100064,,,2024-06-14,清算の結了等,,,2021-12-03,1,,,,,ジェイエスエルジャパン,0
1933,8190002000955,登記記録の閉鎖等,0,2024-06-18,2024-06-14,有限会社中京ファクト,,有限会社,三重県,津市,押加部町１２番２０号,,24,201,5140039,,,2024-06-14,清算の結了等,,,2015-10-05,1,,,,,チュウキョウファクト,0
1940,8230002000372,登記記録の閉鎖等,0,2024-06-18,2024-06-14,有限会社井上鉄工所,,有限会社,富山県,富山市,堀川町１７６番地,,16,201,9398072,,,2024-06-14,清算の結了等,,,2015-10-05,1,,,,,イノウエテッコウショ,0
1942,8240001045384,登記記録の閉鎖等,0,2024-06-18,2024-06-17,センコー安全用品株式会社,,株式会社,広島県,広島市安佐南区,西原４丁目３８番３７号,,34,105,7310113,,,2024-06-17,清算の結了等,,,2015-10-05,1,,,,,センコーアンゼンヨウヒン,0
1948,8240002034493,登記記録の閉鎖等,0,2024-06-18,2024-06-17,有限会社リビングひやま,,有限会社,広島県,呉市,本通７丁目７番２１号,,34,202,7370045,,,2024-06-17,清算の結了等,,,2015-10-05,1,,,,,リビングヒヤマ,0
1949,8240003004388,登記記録の閉鎖等,0,2024-06-18,2024-06-14,合同会社一凡,,合同会社,広島県,福山市,東手城町１丁目３６番８号緑ビル４０１,,34,207,7210962,,,2024-06-14,清算の結了等,,,2019-09-18,1,,,,,カズチカ,0
1951,8250002010691,登記記録の閉鎖等,0,2024-06-18,2024-06-14,福徳ボデー工業有限会社,,有限会社,山口県,下関市,東観音町７番７号,,35,201,7520906,,,2024-06-14,清算の結了等,,,2015-10-05,1,,,,,フクトクボデーコウギョウ,0
1971,8340001013769,登記記録の閉鎖等,0,2024-06-18,2024-06-10,株式会社アロー企画,,株式会社,鹿児島県,鹿屋市,笠之原町７４４６番地２,,46,203,8930023,,,2024-06-10,清算の結了等,,,2015-10-05,1,,,,,アローキカク,0
1986,8380001024052,登記記録の閉鎖等,0,2024-06-18,2024-06-12,株式会社千翔,,株式会社,福島県,いわき市,平字旧城跡１２番地６８,,07,204,9708026,,,2024-06-12,清算の結了等,,,2015-10-05,1,,,,,セント,0
1991,8400003002185,登記記録の閉鎖等,0,2024-06-18,2024-06-11,彩合同会社,,合同会社,東京都,練馬区,石神井台２丁目３５番３４号,,13,120,1770045,,,2024-06-11,清算の結了等,,,2017-04-14,1,,,,,サヤ,0
1992,8410001012177,登記記録の閉鎖等,0,2024-06-18,2024-06-12,東北ＩＴｂｏｏｋ株式会社,,株式会社,秋田県,秋田市,中通１丁目２番３号,,05,201,0100001,,,2024-06-12,合併による解散等,8110001010525,令和６年３月１８日新潟市中央区万代３－１－１新潟日報メディアシップ１１階東京アプリケーションシステム株式会社（8110001010525）に合併し解散,2019-05-15,1,,,,,トウホクアイティブック,0
1994,8430001018668,登記記録の閉鎖等,0,2024-06-18,2024-06-03,ロイズコーヒーユニオン株式会社,,株式会社,北海道,札幌市中央区,北六条西１５丁目３番地９,,01,101,0600006,,,2024-06-03,合併による解散等,2430001020266,令和６年６月１日札幌市中央区北六条西十五丁目３番地９株式会社札幌フードシステムズ（2430001020266）に合併し解散,2015-10-05,1,,,,,ロイズコーヒーユニオン,0
1999,8430002044151,登記記録の閉鎖等,0,2024-06-18,2024-06-17,有限会社札幌ルートサービス,,有限会社,北海道,石狩市,新港東２丁目２番地５,,01,235,0613243,,,2024-06-17,清算の結了等,,,2015-10-05,1,,,,,サッポロルートサービス,0
2000,8430002060272,登記記録の閉鎖等,0,2024-06-18,2024-06-13,有限会社山形水産,,有限会社,北海道,白老郡白老町,字萩野６５番地,,01,578,0590922,,,2024-06-13,清算の結了等,,,2015-10-05,1,,,,,ヤマガタスイサン,0
2002,8430005014184,登記記録の閉鎖等,0,2024-06-18,2024-06-13,特定非営利活動法人エージェイ,,その他の設立登記法人,北海道,江別市,大麻高町１３番地の５,,01,217,0690853,,,2024-06-13,清算の結了等,,,2021-05-21,1,,,,,エージェイ,0
2034,9010501045625,登記記録の閉鎖等,0,2024-06-18,2024-06-13,シ・シ・ジー株式会社,,株式会社,東京都,台東区,上野６丁目１－６御徒町グリーンハイツ内,,13,106,1100005,,,2024-06-13,清算の結了等,,,2020-04-28,1,,,,,シシジー,0
2035,9010601027795,登記記録の閉鎖等,0,2024-06-18,2024-06-17,株式会社池商,,株式会社,東京都,江東区,亀戸４丁目１５番５号,,13,108,1360071,,,2024-06-17,清算の結了等,,,2015-10-05,1,,,,,イケショウ,0
2044,9010801029526,登記記録の閉鎖等,0,2024-06-18,2024-06-11,株式会社大森インダストリー,,株式会社,東京都,大田区,矢口３丁目２６番１３号,,13,111,1460093,,,2024-06-11,清算の結了等,,,2019-01-28,1,,,,,オオモリインダストリー,0
2052,9011001145725,登記記録の閉鎖等,0,2024-06-18,2024-06-05,株式会社ｐａｉｎｔｉｎｇ,,株式会社,東京都,目黒区,大橋１丁目５番１号,,13,110,1530044,,,2024-06-05,清算の結了等,,,2022-02-16,1,,,,,ペインティング,0
2082,9020001114978,登記記録の閉鎖等,0,2024-06-18,2024-06-06,株式会社アクセスドリーム,,株式会社,神奈川県,横浜市鶴見区,鶴見中央２丁目３番地３,,14,101,2300051,,,2024-06-06,清算の結了等,,,2016-02-25,1,,,,,アクセスドリーム,0
2091,9021001025439,登記記録の閉鎖等,0,2024-06-18,2024-06-13,株式会社セフテック,,株式会社,神奈川県,大和市,中央林間４丁目１１番２３号,,14,213,2420007,,,2024-06-13,清算の結了等,,,2015-10-05,1,,,,,セフテック,0
2093,9021002037227,登記記録の閉鎖等,0,2024-06-18,2024-06-13,有限会社大山モータース,,有限会社,神奈川県,厚木市,飯山３６０６番地,,14,212,2430213,,,2024-06-13,清算の結了等,,,2015-10-05,1,,,,,オオヤマモータース,0
2104,9040001000508,登記記録の閉鎖等,0,2024-06-18,2024-06-05,株式会社イ・クリエイト・ワールド,,株式会社,千葉県,千葉市中央区,千葉港７番２号,,12,101,2600026,,,2024-06-05,清算の結了等,,,2015-10-05,1,,,,,イクリエイトワールド,0
2125,9090001017241,登記記録の閉鎖等,0,2024-06-18,2024-06-12,株式会社Ｔｒｅｃｃｅ,,株式会社,山梨県,韮崎市,藤井町北下條２９５番地２,,19,207,4070003,,,2024-06-12,清算の結了等,,,2021-10-13,1,,,,,トリーチェ,0
2134,9120001006389,登記記録の閉鎖等,0,2024-06-18,2024-06-14,株式会社ホテルキヨタキ,,株式会社,大阪府,大阪市阿倍野区,松崎町２丁目３番３７－６０９号,,27,119,5450053,,,2024-06-14,清算の結了等,,,2015-10-05,1,,,,,ホテルキヨタキ,0
2147,9120101006355,登記記録の閉鎖等,0,2024-06-18,2024-06-13,株式会社ペンコーポレーション,,株式会社,大阪府,堺市西区,浜寺昭和町３丁４２２番地の４,,27,144,5928345,,,2024-06-13,清算の結了等,,,2015-10-05,1,,,,,ペンコーポレーション,0
2175,9150001021492,登記記録の閉鎖等,0,2024-06-18,2024-06-13,株式会社カインドスマイル,,株式会社,奈良県,大和郡山市,小泉町３１１２番地１０,,29,203,6391042,,,2024-06-13,清算の結了等,,,2017-05-11,1,,,,,カインドスマイル,0
2184,9180002090914,登記記録の閉鎖等,0,2024-06-18,2024-06-07,第一金属有限会社,,有限会社,愛知県,弥富市,東末広６丁目３７番地,,23,235,4980063,,,2024-06-07,清算の結了等,,,2015-10-05,1,,,,,ダイイチキンゾク,0
2191,9200002009812,登記記録の閉鎖等,0,2024-06-18,2024-06-13,有限会社みやび,,有限会社,岐阜県,瑞穂市,穂積２２２番地の１,,21,216,5010223,,,2024-06-13,清算の結了等,,,2015-10-05,1,,,,,ミヤビ,0
2197,9220003002269,登記記録の閉鎖等,0,2024-06-18,2024-06-13,合同会社ＮＫ,,合同会社,石川県,金沢市,片町２丁目２１番２７号,,17,201,9200981,,,2024-06-13,清算の結了等,,,2017-04-26,1,,,,,エヌケー,0
2198,9230001004811,登記記録の閉鎖等,0,2024-06-18,2024-06-14,株式会社六清堂,,株式会社,富山県,中新川郡上市町,西中町８番地,,16,322,9300334,,,2024-06-14,清算の結了等,,,2015-10-05,1,,,,,ロクセイドウ,0
2207,9240002050647,登記記録の閉鎖等,0,2024-06-18,2024-06-14,有限会社佐原鉄筋工業,,有限会社,広島県,尾道市,美ノ郷町三成１００６番地１,,34,205,7220215,,,2024-06-14,清算の結了等,,,2015-10-05,1,,,,,サハラテッキンコウギョウ,0
2226,9290802003139,登記記録の閉鎖等,0,2024-06-18,2024-06-10,福岡アーキテック有限会社,,有限会社,福岡県,北九州市小倉南区,長野２丁目１５１１－１９,,40,107,8000228,,,2024-06-10,清算の結了等,,,2015-10-05,1,,,,,フクオカアーキテック,0
2232,9320002004735,登記記録の閉鎖等,0,2024-06-18,2024-06-10,有限会社シノダ電設工業,,有限会社,大分県,大分市,南津留４番１７号,,44,201,8700937,,,2024-06-10,清算の結了等,,,2015-10-05,1,,,,,,0
2243,9380002031534,登記記録の閉鎖等,0,2024-06-18,2024-06-10,有限会社加藤工業,,有限会社,福島県,大沼郡会津美里町,字思堀１５番地,,07,447,9696051,,,2024-06-10,清算の結了等,,,2015-10-05,1,,,,,カトウコウギョウ,0
2258,9430003011983,登記記録の閉鎖等,0,2024-06-18,2024-06-12,Ｇ９Ａｕｔｏｍｏｔｉｖｅ合同会社,,合同会社,北海道,北広島市,山手町８丁目５番地９,,01,234,0611148,,,2024-06-12,清算の結了等,,,2020-09-30,1,G9Automotive LLC,Hokkaido,"8-5-9, Kitahiroshima shi Yamatecho",,ジーナインオートモーティブ,0
2270,9500002021365,登記記録の閉鎖等,0,2024-06-18,2024-06-10,有限会社むらかみ,,有限会社,愛媛県,四国中央市,上柏町乙９５番地２,,38,213,7990412,,,2024-06-10,清算の結了等,,,2015-10-05,1,,,,,ムラカミ,0
2272,9500005008302,登記記録の閉鎖等,0,2024-06-18,2024-06-06,一般社団法人やまもと学習サポート教室,,その他の設立登記法人,愛媛県,大洲市,市木９０２番地１,,38,207,7950062,,,2024-06-06,清算の結了等,,,2021-01-07,1,,,,,ヤマモトガクシュウサポートキョウシツ,0
