sequenceNumber,corporateNumber,process,correct,updateDate,changeDate,name,nameImageId,kind,prefectureName,cityName,streetNumber,addressImageId,prefectureCode,cityCode,postCode,addressOutside,addressOutsideImageId,closeDate,closeCause,successorCorporateNumber,changeCause,assignmentDate,latest,enName,enPrefectureName,enCityName,enAddressOutside,furigana,hihyoji
25,1010001237878,新規,0,2023-08-24,2023-08-24,ＧｅｔＣＶ株式会社,,株式会社,東京都,千代田区,神田和泉町１番地６‐１６ヤマトビル４０５,,13,101,1010024,,,,,,,2023-08-24,1,,,,,ゲットシーブイ,0
26,1010001237894,新規,0,2023-08-24,2023-08-24,株式会社Ｗｅｌｌｍｅｉ,,株式会社,東京都,千代田区,霞が関３丁目２番５号,,13,101,1000013,,,,,,,2023-08-24,1,,,,,ウェルメイ,0
27,1010001237960,新規,0,2023-08-24,2023-08-24,株式会社モモカン,,株式会社,東京都,中央区,日本橋室町１丁目１１番１２号日本橋水野ビル７階,,13,102,1030022,,,,,,,2023-08-24,1,,,,,モモカン,0
28,1010001237977,新規,0,2023-08-24,2023-08-24,株式会社Ｒｅｖｏｌｕｔｉｏｎ　ｏｆ　Ｋｉｔｔｅｎ,,株式会社,東京都,中央区,新川２丁目１７－１５－９０３,,13,102,1040033,,,,,,,2023-08-24,1,,,,,ロック,0
29,1010005037168,新規,0,2023-08-24,2023-08-24,特定目的会社Ｐａｖｉｌｉｏｎ　Ｋｙｏｔｏ　Ｈｏｔｅｌ,,その他の設立登記法人,東京都,千代田区,霞が関３丁目２番５号,,13,101,1000013,,,,,,,2023-08-24,1,,,,,パビリオンキョウトホテル,0
34,1010401176528,新規,0,2023-08-24,2023-08-24,ＭＥＤＩＡ‐ＰＡＲＴＩＣＩＰＡＴＩＯＮＳ　ＪＡＰＡＮ株式会社,,株式会社,東京都,港区,東麻布１丁目２３番５号ＰＭＣビル,,13,103,1060044,,,,,,,2023-08-24,1,,,,,メディアパティシパションジャパン,0
35,1010401176585,新規,0,2023-08-24,2023-08-24,チバ・ミナミボウソウ２株式会社,,株式会社,東京都,港区,西新橋１丁目２番９号メンターキャピタル税理士法人内,,13,103,1050003,,,,,,,2023-08-24,1,,,,,チバミナミボウソウトゥー,0
36,1010401176593,新規,0,2023-08-24,2023-08-24,トチギ・ナス２株式会社,,株式会社,東京都,港区,西新橋１丁目２番９号メンターキャピタル税理士法人内,,13,103,1050003,,,,,,,2023-08-24,1,,,,,トチギナストゥー,0
37,1010401176701,新規,0,2023-08-24,2023-08-24,グローム・インターナショナル株式会社,,株式会社,東京都,港区,赤坂１丁目１２番３２号,,13,103,1070052,,,,,,,2023-08-24,1,,,,,グロームインターナショナル,0
38,1010401176726,新規,0,2023-08-24,2023-08-24,株式会社Ｋ　Ｓｑｕａｒｅｄ,,株式会社,東京都,港区,南青山３丁目１番３６号青山丸竹ビル６Ｆ,,13,103,1070062,,,,,,,2023-08-24,1,,,,,ケースクエアード,0
39,1010401176734,新規,0,2023-08-24,2023-08-24,株式会社レックエーシー,,株式会社,東京都,港区,新橋２丁目２０番１５号新橋駅前ビル１号館７０６,,13,103,1050004,,,,,,,2023-08-24,1,,,,,レックエーシー,0
52,1010901053680,新規,0,2023-08-24,2023-08-24,株式会社Ｇｌｏｒｙ,,株式会社,東京都,世田谷区,三軒茶屋２丁目５１番８号ヴィラ・ヴァン・ベール２０３,,13,112,1540024,,,,,,,2023-08-24,1,,,,,グローリー,0
60,1011001156531,新規,0,2023-08-24,2023-08-24,株式会社ＹＳＳ,,株式会社,東京都,渋谷区,道玄坂２丁目１９番１１号ＪＰ道玄坂ビル２階,,13,113,1500043,,,,,,,2023-08-24,1,,,,,ワイエスエス,0
61,1011001156572,新規,0,2023-08-24,2023-08-24,西武塗装工業株式会社,,株式会社,東京都,渋谷区,本町２丁目８番２号,,13,113,1510071,,,,,,,2023-08-24,1,,,,,セイブトソウコウギョウ,0
64,1011003017418,新規,0,2023-08-24,2023-08-24,ＩＣＥ‐ＮＲＢ合同会社,,合同会社,東京都,目黒区,下目黒３丁目１９番５号金子アパート６号室,,13,110,1530064,,,,,,,2023-08-24,1,,,,,アイスエヌアールビー,0
72,1011103013408,新規,0,2023-08-24,2023-08-24,Ｆｒａｃｔａｌ合同会社,,合同会社,東京都,新宿区,西新宿３丁目３番１３号西新宿水間ビル２Ｆ,,13,104,1600023,,,,,,,2023-08-24,1,,,,,フラクタル,0
78,1011503005731,新規,0,2023-08-24,2023-08-24,藤川ハーヴェスト合同会社,,合同会社,東京都,北区,浮間１丁目１番１４号リムジンビル１２５,,13,117,1150051,,,,,,,2023-08-24,1,,,,,フジカワハーヴェスト,0
80,1013101009230,新規,0,2023-08-24,2023-08-24,株式会社ろくいち,,株式会社,東京都,福生市,大字福生２１７２番９,,13,218,1970011,,,,,,,2023-08-24,1,,,,,,0
86,1030001155450,新規,0,2023-08-24,2023-08-24,アイカメ株式会社,,株式会社,埼玉県,熊谷市,本町１丁目１１５番地１,,11,202,3600042,,,,,,,2023-08-24,1,,,,,アイカメ,0
87,1030001155491,新規,0,2023-08-24,2023-08-24,株式会社Ｈｉｎｎａ　Ｈｉｎｎａ,,株式会社,埼玉県,朝霞市,東弁財２丁目１５番４号,,11,227,3510022,,,,,,,2023-08-24,1,,,,,ヒンナヒンナ,0
93,1030003022319,新規,0,2023-08-24,2023-08-24,中泰合同会社,,合同会社,埼玉県,川口市,飯塚３丁目１－２４－３０４,,11,203,3320023,,,,,,,2023-08-24,1,,,,,チュウタイ,0
94,1030003022335,新規,0,2023-08-24,2023-08-24,合同会社ｒｅｐｏｓ,,合同会社,埼玉県,狭山市,富士見１丁目２４番２号,,11,215,3501306,,,,,,,2023-08-24,1,,,,,ルポ,0
102,1040003023150,新規,0,2023-08-24,2023-08-24,合同会社Ｐａｒｋ　Ｒｅｓｉｄｅｎｃｅ　ｉｎｃ．,,合同会社,千葉県,千葉市美浜区,打瀬２丁目２１番地幕張サウスコートＢ棟１３０４号,,12,106,2610013,,,,,,,2023-08-24,1,,,,,パークレジデンスインク,0
103,1040003023167,新規,0,2023-08-24,2023-08-24,合同会社Ｓｔａｒ‐Ｋ,,合同会社,千葉県,千葉市中央区,星久喜町１０７５番地７,,12,101,2600808,,,,,,,2023-08-24,1,,,,,スターケイ,0
104,1040003023183,新規,0,2023-08-24,2023-08-24,ルート合同会社,,合同会社,千葉県,市川市,原木１丁目５番２号２号棟,,12,203,2720004,,,,,,,2023-08-24,1,,,,,ルート,0
107,1050001053339,新規,0,2023-08-24,2023-08-24,株式会社ＳＡＪＩＴＨ　ＥＮＴＥＲＰＲＩＳＥ,,株式会社,茨城県,石岡市,大砂１０２０９番地７,,08,205,3150009,,,,,,,2023-08-24,1,,,,,サジットエンタープライズ,0
116,1070003005071,新規,0,2023-08-24,2023-08-24,末広産業合同会社,,合同会社,群馬県,館林市,苗木町１７６１番地の２７,,10,207,3740043,,,,,,,2023-08-24,1,,,,,スエヒロサンギョウ,0
118,1080003003041,新規,0,2023-08-24,2023-08-24,合同会社ラポール,,合同会社,静岡県,静岡市葵区,常磐町３丁目３番４号,,22,101,4200034,,,,,,,2023-08-24,1,,,,,ラポール,0
120,1080401026676,新規,0,2023-08-24,2023-08-24,日本製ＡＵＴＯ株式会社,,株式会社,静岡県,掛川市,千浜５１７１番地の１Ａ棟２階２０３号室,,22,213,4371412,,,,,,,2023-08-24,1,,,,,ニホンセイオート,0
124,1110001037797,新規,0,2023-08-24,2023-08-24,株式会社ｃｏｄｏ,,株式会社,新潟県,新潟市中央区,万代１丁目１番４号万代ファーストハイツ１Ｆ,,15,103,9500088,,,,,,,2023-08-24,1,,,,,コド,0
128,1110005016987,新規,0,2023-08-24,2023-08-24,一般社団法人あにまるシェルターひだまり,,その他の設立登記法人,新潟県,上越市,板倉区中之宮５７０番地８,,15,222,9440122,,,,,,,2023-08-24,1,,,,,アニマルシェルターヒダマリ,0
139,1120001257485,新規,0,2023-08-24,2023-08-24,ＦＯＵＲ　ＥＳＴ株式会社,,株式会社,大阪府,大阪市中央区,伏見町４丁目３番４－６０４号,,27,128,5410044,,,,,,,2023-08-24,1,,,,,フォーエスト,0
140,1120001257592,新規,0,2023-08-24,2023-08-24,株式会社ドゲナコネクト,,株式会社,大阪府,大阪市北区,西天満１丁目１１番２０－３０１号,,27,127,5300047,,,,,,,2023-08-24,1,,,,,ドゲナコネクト,0
143,1120003024768,新規,0,2023-08-24,2023-08-24,合同会社Ｄａ　Ｃａｐｏ,,合同会社,大阪府,大阪市東淀川区,豊里７丁目３１番１６号－５０３,,27,114,5330013,,,,,,,2023-08-24,1,,,,,ダカーポ,0
144,1120101068097,新規,0,2023-08-24,2023-08-24,株式会社ＫＲ,,株式会社,大阪府,和泉市,室堂町８２４番地の５５（ウエリス光明池６０１号）,,27,219,5941101,,,,,,,2023-08-24,1,,,,,ケーアール,0
147,1120901047977,新規,0,2023-08-24,2023-08-24,株式会社だい富,,株式会社,大阪府,吹田市,千里山月が丘５０番１６号,,27,205,5650847,,,,,,,2023-08-24,1,,,,,ダイトミ,0
150,1130001075028,新規,0,2023-08-24,2023-08-24,株式会社中嶋ワークス,,株式会社,京都府,宇治市,菟道荒槇３３番地の２,00131648,26,204,6110000,,,,,,,2023-08-24,1,,,,,ナカジマワークス,0
161,1140001131325,新規,0,2023-08-24,2023-08-24,株式会社ホリスティックケア,,株式会社,兵庫県,丹波市,氷上町成松４６０番地１,,28,223,6693601,,,,,,,2023-08-24,1,,,,,ホリスティックケア,0
162,1140001131358,新規,0,2023-08-24,2023-08-24,川人光洋商店株式会社,,株式会社,兵庫県,神戸市長田区,川西通３丁目６８番地の４,,28,106,6530834,,,,,,,2023-08-24,1,,,,,カワヒトミツヒロショウテン,0
167,1140003019469,新規,0,2023-08-24,2023-08-24,合同会社リーズン,,合同会社,兵庫県,宝塚市,仁川高丸２丁目１９－１,,28,214,6650063,,,,,,,2023-08-24,1,,,,,リーズン,0
172,1170001017744,新規,0,2023-08-24,2023-08-24,株式会社Ｅｍｉ‐Ｒｏｔ,,株式会社,和歌山県,橋本市,柿の木坂７番地の１０,,30,203,6480097,,,,,,,2023-08-24,1,,,,,エミロット,0
177,1180003025661,新規,0,2023-08-24,2023-08-24,合同会社価作,,合同会社,愛知県,名古屋市中村区,名駅３丁目４－１０アルティメイト名駅１ｓｔ　２階,,23,105,4500002,,,,,,,2023-08-24,1,,,,,カサク,0
184,1200003006056,新規,0,2023-08-24,2023-08-24,合同会社ＯＫＥＲ,,合同会社,岐阜県,各務原市,鵜沼三ツ池町５丁目１０番地（グラースカーサＡ１０１）,,21,213,5090146,,,,,,,2023-08-24,1,,,,,オーカー,0
211,1290001102757,新規,0,2023-08-24,2023-08-24,ｙｓｅ株式会社,,株式会社,福岡県,糟屋郡粕屋町,長者原西１丁目１８番２７号,,40,349,8112316,,,,,,,2023-08-24,1,,,,,ワイエスイー,0
212,1290001102765,新規,0,2023-08-24,2023-08-24,株式会社Ｃ‐ＴＡＦ,,株式会社,福岡県,久留米市,山川安居野３丁目９番１号,,40,203,8390812,,,,,,,2023-08-24,1,,,,,シーティーエーエフ,0
219,1320001019964,新規,0,2023-08-24,2023-08-24,株式会社ゆうこうタイル,,株式会社,大分県,大分市,大字光吉１５４２番地の２０,,44,201,8701132,,,,,,,2023-08-24,1,,,,,ユウコウタイル,0
221,1320003004155,新規,0,2023-08-24,2023-08-24,合同会社Ｌａｕｇｈ,,合同会社,大分県,大分市,大字羽田１７組,,44,201,8700942,,,,,,,2023-08-24,1,,,,,ラフ,0
222,1330001031191,新規,0,2023-08-24,2023-08-24,露天湯もみじ株式会社,,株式会社,熊本県,熊本市中央区,神水本町１２番６７号,,43,101,8620955,,,,,,,2023-08-24,1,,,,,ロテンユモミジ,0
223,1350001018526,新規,0,2023-08-24,2023-08-24,いちごポタジェ株式会社,,株式会社,宮崎県,宮崎市,大淀４丁目６番２８号,,45,201,8800902,,,,,,,2023-08-24,1,,,,,イチゴポタジェ,0
235,1370001050329,新規,0,2023-08-24,2023-08-24,３ＲＥＶ株式会社,,株式会社,宮城県,仙台市青葉区,米ケ袋３丁目４番２８－２号,,04,101,9800813,,,,,,,2023-08-24,1,,,,,サンレブ,0
252,1430001089823,新規,0,2023-08-24,2023-08-24,株式会社スガワラハウジング,,株式会社,北海道,江別市,上江別西町４３番地の７,,01,217,0670063,,,,,,,2023-08-24,1,,,,,スガワラハウジング,0
253,1430001089831,新規,0,2023-08-24,2023-08-24,株式会社リッチモンド商会,,株式会社,北海道,札幌市北区,麻生町９丁目２番１－１０８号,,01,102,0010045,,,,,,,2023-08-24,1,,,,,リッチモンドショウカイ,0
254,1460001005819,新規,0,2023-08-24,2023-08-24,株式会社グリーンフィールド,,株式会社,北海道,釧路市,阿寒町中徹別３７線３５番地７,,01,206,0850236,,,,,,,2023-08-24,1,,,,,グリーンフィールド,0
255,1460103001550,新規,0,2023-08-24,2023-08-24,合同会社Ｒｉｐｐｌｅ　Ｅｆｆｅｃｔ,,合同会社,北海道,帯広市,西八条南４０丁目１番１号,,01,207,0800018,,,,,,,2023-08-24,1,,,,,リプルエフェクト,0
258,1480001012193,新規,0,2023-08-24,2023-08-24,株式会社橋本眼鏡,,株式会社,徳島県,板野郡北島町,江尻字妙蛇池６７番地１,,36,402,7710205,,,,,,,2023-08-24,1,,,,,ハシモトメガネ,0
262,1700150119238,新規,0,2023-08-24,2023-08-24,ｎａｎｃｈａｎｇｓｈｉ　ｓｈａｎｇｂｉａｏ　ｄｉａｎｚｉｓｈａｎｇｗｕ　ｙｏｕｘｉａｎｇｏｎｇｓｉ,,外国会社等,,,,,,,,Ｒｏｏｍ　２３０３，Ｕｎｉｔ　１，Ｂｕｉｌｄｉｎｇ　２７，Ｈｅｎｇｄａ　Ｃｉｔｙ　Ｎａｎｃｈａｎｇ　Ｃｉｔｙ　Ｎａｎｃｈａｎｇ　ｃｏｕｎｔｙ　Ｊｉａｎｇｘｉ　Ｐｒｏｖｉｎｃｅ　Ｃｈｉｎａ,,,,,,2023-08-24,1,,,,,ナンショウシャンビアオデンシショウムユウゲンコウシ,0
263,1700150119246,新規,0,2023-08-24,2023-08-24,Ｇｕａｎｇｚｈｏｕｓｈｉ　Ｌａｎｊｉａｎｇｓｈａｎｇｍａｏ　ｙｏｕｘｉａｎｇｏｎｇｓｉ,,外国会社等,,,,,,,,Ｒｏｏｍ　３０３，Ｎｏ．１８３　Ｔｉｎｇ　Ｙｕａｎ　Ｒｏａｄ，Ｈａｉｚｈｕ　Ｄｉｓｔｒｉｃｔ，Ｇｕａｎｇｚｈｏｕ　５１００００　ＣＮ,,,,,,2023-08-24,1,,,,,コウシュウシランジャンショウマオヨウシェンゴンスー,0
267,2010001237935,新規,0,2023-08-24,2023-08-24,株式会社ｈｉｔ＆ｒｅｓｏｎａｔｅ,,株式会社,東京都,千代田区,二番町９番３号,,13,101,1020084,,,,,,,2023-08-24,1,,,,,ヒットアンドリゾネイト,0
268,2010001237943,新規,0,2023-08-24,2023-08-24,Ｒｅｎｚｏｋｕ　Ｂｉｏｌｏｇｉｃｓ株式会社,,株式会社,東京都,千代田区,丸の内１丁目８番３号丸の内トラストタワー本館２０階,,13,101,1000005,,,,,,,2023-08-24,1,,,,,レンゾクバイオロジクス,0
269,2010001237951,新規,0,2023-08-24,2023-08-24,仲達株式会社,,株式会社,東京都,千代田区,神田三崎町２丁目１０番１１号（Ｐｅｇビル）６Ｂ－４部屋,,13,101,1010061,,,,,,,2023-08-24,1,,,,,ナカタツ,0
270,2010001237968,新規,0,2023-08-24,2023-08-24,株式会社Ｓｏｆｔ　Ｒｏｃｋｅｔ　Ｕｎｉｔｅｄ,,株式会社,東京都,中央区,築地４丁目２番７－６０１号,,13,102,1040045,,,,,,,2023-08-24,1,,,,,ソフトロケットユナイテッド,0
272,2010005037167,新規,0,2023-08-24,2023-08-24,一般社団法人Ｐａｖｉｌｉｏｎ　Ｋｙｏｔｏ　Ｈｏｔｅｌ,,その他の設立登記法人,東京都,千代田区,霞が関３丁目２番５号,,13,101,1000013,,,,,,,2023-08-24,1,,,,,パビリオンキョウトホテル,0
278,2010401176584,新規,0,2023-08-24,2023-08-24,シズオカ・ハマナコ２株式会社,,株式会社,東京都,港区,西新橋１丁目２番９号メンターキャピタル税理士法人内,,13,103,1050003,,,,,,,2023-08-24,1,,,,,シズオカハマナコトゥー,0
279,2010401176592,新規,0,2023-08-24,2023-08-24,オオイタ・ベップワン２株式会社,,株式会社,東京都,港区,西新橋１丁目２番９号メンターキャピタル税理士法人内,,13,103,1050003,,,,,,,2023-08-24,1,,,,,オオイタベップワントゥー,0
280,2010401176601,新規,0,2023-08-24,2023-08-24,カゴシマ・キリシマ２株式会社,,株式会社,東京都,港区,西新橋１丁目２番９号メンターキャピタル税理士法人内,,13,103,1050003,,,,,,,2023-08-24,1,,,,,カゴシマキリシマトゥー,0
281,2010401176733,新規,0,2023-08-24,2023-08-24,株式会社ＨＡＲＶＩＡ　ＪＡＰＡＮ,,株式会社,東京都,港区,三田１丁目４番２８号三田国際ビル１３階,,13,103,1080073,,,,,,,2023-08-24,1,,,,,ハルビアジャパン,0
283,2010501050937,新規,0,2023-08-24,2023-08-24,東京才源株式会社,,株式会社,東京都,台東区,三ノ輪１丁目２８番１６号,,13,106,1100011,,,,,,,2023-08-24,1,,,,,トウキョウサイゲン,0
291,2010903008401,新規,0,2023-08-24,2023-08-24,Ｋｏｍａｔｓｕｎａｇｉ合同会社,,合同会社,東京都,世田谷区,下馬６丁目５番２号スマイル学大１０１号室,,13,112,1540002,,,,,,,2023-08-24,1,,,,,コマツナギ,0
297,2011001156324,新規,0,2023-08-24,2023-08-24,ＮＦＴメタバース株式会社,,株式会社,東京都,渋谷区,渋谷１丁目８番５号,,13,113,1500002,,,,,,,2023-08-24,1,,,,,エヌエフティーメタバース,0
298,2011001156489,新規,0,2023-08-24,2023-08-24,株式会社Ｄｅｓｉｇｎｅｒｆｏｒｃｅ,,株式会社,東京都,渋谷区,桜丘町２３番１７号シティコート桜丘４０８,,13,113,1500031,,,,,,,2023-08-24,1,,,,,デザイナーフォース,0
300,2011003017425,新規,0,2023-08-24,2023-08-24,マイメモリーズ合同会社,,合同会社,東京都,渋谷区,恵比寿３丁目１９番７号,,13,113,1500013,,,,,,,2023-08-24,1,,,,,マイメモリーズ,0
303,2011101104125,新規,0,2023-08-24,2023-08-24,株式会社ＳＤＦ,,株式会社,東京都,新宿区,西新宿３丁目３番１３号西新宿水間ビル６階,,13,104,1600023,,,,,,,2023-08-24,1,,,,,エスディエフ,0
304,2011103013407,新規,0,2023-08-24,2023-08-24,萩合同会社,,合同会社,東京都,新宿区,北新宿２丁目４番３４号北新宿コーポ２０１,,13,104,1690074,,,,,,,2023-08-24,1,,,,,ハギ,0
305,2011503005739,新規,0,2023-08-24,2023-08-24,合同会社Ｔ＆Ｌ,,合同会社,東京都,荒川区,西日暮里５丁目６番５－４０１号,,13,118,1160013,,,,,,,2023-08-24,1,,,,,ティーアンドエル,0
308,2011801042938,新規,0,2023-08-24,2023-08-24,株式会社ｗｏｎｄｅｒｆｕｌ　ｆｕｔｕｒｅ,,株式会社,東京都,足立区,弘道１丁目４番１－３０５号,,13,121,1200013,,,,,,,2023-08-24,1,,,,,ワンダフルフューチャー,0
318,2012803003168,新規,0,2023-08-24,2023-08-24,合同会社Ｆａｌｃｏｎ６６,,合同会社,東京都,東大和市,桜が丘１丁目１４２９番地の３東京ユニオンガーデンＢ－１３０７,,13,220,2070022,,,,,,,2023-08-24,1,,,,,ファルコンシックスティシックス,0
328,2020001153041,新規,0,2023-08-24,2023-08-24,艾＿思株式会社,00131646,株式会社,神奈川県,横浜市中区,長者町５丁目５１－１－１００７,,14,104,2310033,,,,,,,2023-08-24,1,,,,,アイイシ,0
334,2021003013506,新規,0,2023-08-24,2023-08-24,合同会社シエリーニ,,合同会社,神奈川県,相模原市中央区,淵野辺２丁目１番３０－５１４号,,14,152,2520206,,,,,,,2023-08-24,1,,,,,シエリーニ,0
339,2030001155334,新規,0,2023-08-24,2023-08-24,株式会社ＲＳＩ,,株式会社,埼玉県,草加市,花栗４丁目１９番１２号,,11,221,3400044,,,,,,,2023-08-24,1,,,,,アールエスアイ,0
340,2030001155383,新規,0,2023-08-24,2023-08-24,ＣＨＡｉＮＯＮ株式会社,,株式会社,埼玉県,深谷市,人見４０７番地３,,11,218,3660811,,,,,,,2023-08-24,1,,,,,シェノン,0
341,2030001155433,新規,0,2023-08-24,2023-08-24,株式会社ＩＲＩＳ,,株式会社,埼玉県,川口市,西川口３丁目１６番１３号カーサローザ１０１号,,11,203,3320021,,,,,,,2023-08-24,1,,,,,イリス,0
342,2030001155466,新規,0,2023-08-24,2023-08-24,株式会社Ｓ・Ｊ．ｓｃｈｅｍｅ,,株式会社,埼玉県,富士見市,諏訪２丁目９番５号,,11,235,3540023,,,,,,,2023-08-24,1,,,,,エスジェイスキーム,0
343,2030001155598,新規,0,2023-08-24,2023-08-24,株式会社ＬＩＦＥ　ＷＯＲＫＳ,,株式会社,埼玉県,入間市,豊岡１丁目８番２６号サニーガーデン１０３,,11,225,3580003,,,,,,,2023-08-24,1,,,,,ライフワークス,0
344,2030001155722,新規,0,2023-08-24,2023-08-24,株式会社モアザンチョコレート,,株式会社,埼玉県,鴻巣市,上谷１８１４番地１,,11,217,3650027,,,,,,,2023-08-24,1,,,,,モアザンチョコレート,0
349,2030003022318,新規,0,2023-08-24,2023-08-24,ＨＹ合同会社,,合同会社,埼玉県,川口市,飯塚３丁目１－２４－３０１,,11,203,3320023,,,,,,,2023-08-24,1,,,,,エチワイ,0
350,2030003022334,新規,0,2023-08-24,2023-08-24,ノイ合同会社,,合同会社,埼玉県,桶川市,若宮２丁目１１番１１号ラフィネ栄２０１号,,11,231,3630022,,,,,,,2023-08-24,1,,,,,ノイ,0
351,2030003022417,新規,0,2023-08-24,2023-08-24,合同会社ＬｕｃｋｙＣａｔｃｈ,,合同会社,埼玉県,新座市,栗原４丁目３―５,,11,230,3520035,,,,,,,2023-08-24,1,,,,,ラッキーキャッチ,0
352,2030003022433,新規,0,2023-08-24,2023-08-24,合同会社ＢＯＬＴＺ,,合同会社,埼玉県,所沢市,弥生町２９０１番地の１２,,11,208,3590043,,,,,,,2023-08-24,1,,,,,ボルツ,0
356,2030005021359,新規,0,2023-08-24,2023-08-24,社会福祉法人えんむすび,,その他の設立登記法人,埼玉県,さいたま市緑区,内谷・会ノ谷特定土地区画整理組合保留地１５街区９画地,,11,109,3360900,,,,,,,2023-08-24,1,,,,,エンムスビ,0
363,2040001129782,新規,0,2023-08-24,2023-08-24,株式会社ＩＰ　Ｅｓｔａｔｅ,,株式会社,千葉県,千葉市中央区,星久喜町９６０番地１５,,12,101,2600808,,,,,,,2023-08-24,1,,,,,アイピーエステート,0
370,2050001053346,新規,0,2023-08-24,2023-08-24,株式会社スマイルハウジング,,株式会社,茨城県,つくば市,宝陽台４８番地１,,08,220,3001254,,,,,,,2023-08-24,1,,,,,スマイルハウジング,0
375,2070003005070,新規,0,2023-08-24,2023-08-24,ＧＩＡ　ＢＡＯ合同会社,,合同会社,群馬県,邑楽郡大泉町,大字寄木戸２３８番地の３,,10,524,3700535,,,,,,,2023-08-24,1,,,,,ジャーバオ,0
379,2080101024178,新規,0,2023-08-24,2023-08-24,株式会社Ｃ．ＲＯＳＥ,,株式会社,静岡県,御殿場市,東田中５５３番地の１いけやビル１階,,22,215,4120026,,,,,,,2023-08-24,1,,,,,シーローズ,0
380,2090001018287,新規,0,2023-08-24,2023-08-24,株式会社伊東建築舎,,株式会社,山梨県,北杜市,明野町上手７６６６番地３,,19,209,4080204,,,,,,,2023-08-24,1,,,,,イトウケンチクシャ,0
383,2110001037796,新規,0,2023-08-24,2023-08-24,株式会社ｆｌｅｕｒ　ｄｅ　ｌｉｓ,,株式会社,新潟県,新潟市中央区,万代１丁目１番４号万代ファーストハイツ１Ｆ,,15,103,9500088,,,,,,,2023-08-24,1,,,,,フルールデリズ,0
393,2120001257055,新規,0,2023-08-24,2023-08-24,大幸商事株式会社,,株式会社,大阪府,大阪市平野区,加美東１丁目６番４０号シュベスター美紀４０５号,,27,126,5470002,,,,,,,2023-08-24,1,,,,,ダイコウショウジ,0
394,2120001257575,新規,0,2023-08-24,2023-08-24,株式会社ＳＯＲＩＳＰＥＣ,,株式会社,大阪府,大阪市北区,梅田１丁目１１－４大阪駅前第４ビル２４階ＣＢＴ大阪駅前第４ビルテストセンター内,,27,127,5300001,,,,,,,2023-08-24,1,,,,,ソリスペック,0
395,2120001257600,新規,0,2023-08-24,2023-08-24,謙羽株式会社,,株式会社,大阪府,大阪市都島区,大東町２丁目２２－２８,,27,102,5340002,,,,,,,2023-08-24,1,,,,,ケンウ,0
397,2120003024750,新規,0,2023-08-24,2023-08-24,合同会社ＴＨＥ　ＲＥＭＯＲＤ　ＯＲＧＡＮＩＺＡＴＩＯＮ,,合同会社,大阪府,大阪市北区,梅田１丁目２番２号大阪駅前第２ビル１２－１２,,27,127,5300001,,,,,,,2023-08-24,1,,,,,ザレモードオーガニゼーション,0
398,2120005023841,新規,0,2023-08-24,2023-08-24,特定非営利活動法人ここのば,,その他の設立登記法人,大阪府,大阪市淀川区,西宮原２丁目５番４６－３２３号,,27,123,5320004,,,,,,,2023-08-24,1,,,,,ココノバ,0
399,2120101068105,新規,0,2023-08-24,2023-08-24,株式会社南製作所,,株式会社,大阪府,岸和田市,新港町１０番地１８,,27,202,5960012,,,,,,,2023-08-24,1,,,,,ミナミセイサクショ,0
402,2122001037305,新規,0,2023-08-24,2023-08-24,株式会社翔ハウジング,,株式会社,大阪府,八尾市,西山本町６丁目１番２０号,,27,212,5810868,,,,,,,2023-08-24,1,,,,,ショウハウジング,0
404,2130003008918,新規,0,2023-08-24,2023-08-24,合同会社シーシーワークス,,合同会社,京都府,京都市下京区,朱雀宝蔵町４４番地協栄ビル２階京都朱雀スタジオ,,26,106,6008846,,,,,,,2023-08-24,1,,,,,シーシーワークス,0
408,2140001131349,新規,0,2023-08-24,2023-08-24,株式会社セルプイーグレ,,株式会社,兵庫県,姫路市,夢前町寺１００８番地,,28,201,6712116,,,,,,,2023-08-24,1,,,,,セルプイーグレ,0
412,2140003019468,新規,0,2023-08-24,2023-08-24,ＶＩＮＦＯ合同会社,,合同会社,兵庫県,姫路市,綿町１２２,,28,201,6700921,,,,,,,2023-08-24,1,,,,,ビンフォ,0
421,2180001157729,新規,0,2023-08-24,2023-08-24,株式会社Ｅｖｅｒｙｏｎｅ’ｓ　Ｈａｐｐｉｎｅｓｓ,,株式会社,愛知県,名古屋市中区,大須１丁目１５番３０号,,23,106,4600011,,,,,,,2023-08-24,1,,,,,エブリワンズハピネス,0
422,2180001157753,新規,0,2023-08-24,2023-08-24,株式会社リッチランド,,株式会社,愛知県,名古屋市中川区,長良町３丁目１１９番地,,23,110,4540815,,,,,,,2023-08-24,1,,,,,リッチランド,0
429,2180303005800,新規,0,2023-08-24,2023-08-24,合同会社ｆｏｒｅｓｔ,,合同会社,愛知県,安城市,桜井町貝戸尻３７番地１,,23,212,4441154,,,,,,,2023-08-24,1,,,,,,0
430,2180303005809,新規,0,2023-08-24,2023-08-24,ティーワイワーク合同会社,,合同会社,愛知県,蒲郡市,形原町北浜１４番地６,,23,214,4430103,,,,,,,2023-08-24,1,,,,,ティーワイワーク,0
439,2240001062030,新規,0,2023-08-24,2023-08-24,翔日株式会社,,株式会社,広島県,福山市,千田町３丁目１５番２５－５号,,34,207,7200017,,,,,,,2023-08-24,1,,,,,ショウビ,0
445,2290001102772,新規,0,2023-08-24,2023-08-24,株式会社ＴＥＳ,,株式会社,福岡県,福岡市中央区,草香江１丁目８番３２号,,40,133,8100045,,,,,,,2023-08-24,1,,,,,ティーイーエス,0
447,2290005019121,新規,0,2023-08-24,2023-08-24,一般社団法人ＲＯＳＥ　ＬＩＦＥ,,その他の設立登記法人,福岡県,福岡市博多区,吉塚２丁目２０番４８－１４０６号,,40,132,8120041,,,,,,,2023-08-24,1,,,,,ローズライフ,0
450,2320003004154,新規,0,2023-08-24,2023-08-24,合同会社ＡＤＵＳＡ,,合同会社,大分県,佐伯市,東町１８番１９号,,44,205,8760814,,,,,,,2023-08-24,1,,,,,アヅサ,0
455,2350001018509,新規,0,2023-08-24,2023-08-24,株式会社七万石,,株式会社,宮崎県,延岡市,中央通２丁目３番地５,,45,203,8820824,,,,,,,2023-08-24,1,,,,,ナナマンゴク,0
456,2350001018525,新規,0,2023-08-24,2023-08-24,株式会社安藤産業,,株式会社,宮崎県,日向市,美々津町２２６５番地１,,45,206,8891111,,,,,,,2023-08-24,1,,,,,アンドウサンギョウ,0
462,2370001050328,新規,0,2023-08-24,2023-08-24,株式会社山口機械工業,,株式会社,宮城県,仙台市宮城野区,福室２丁目８番１７－３１４号福室マンション,,04,102,9830005,,,,,,,2023-08-24,1,,,,,ヤマグチキカイコウギョウ,0
477,2430001089814,新規,0,2023-08-24,2023-08-24,株式会社リンテイク,,株式会社,北海道,札幌市白石区,菊水元町六条２丁目６番２４号,,01,104,0030826,,,,,,,2023-08-24,1,,,,,リンテイク,0
478,2430001089830,新規,0,2023-08-24,2023-08-24,亜州産業共創事務所株式会社,,株式会社,北海道,札幌市中央区,南十一条西１丁目１番地４９Ａ４１５室,,01,101,0640811,,,,,,,2023-08-24,1,,,,,アシュウサンギョウキョウソウジムショ,0
481,2430003015272,新規,0,2023-08-24,2023-08-24,合同会社Ｐａｓｓｉｎｇ　Ｐｏｉｎｔ,,合同会社,北海道,札幌市北区,北七条西４丁目１番１号トーカン札幌第一キャステール６０７,,01,102,0600807,,,,,,,2023-08-24,1,,,,,パッシングポイント,0
484,2470001019775,新規,0,2023-08-24,2023-08-24,ＳＫ‐ＴＥＣ株式会社,,株式会社,香川県,丸亀市,今津町７２３番地２５,,37,202,7630051,,,,,,,2023-08-24,1,,,,,エスケイテック,0
485,2490001010567,新規,0,2023-08-24,2023-08-24,株式会社Ｂｌａｉｒ,,株式会社,高知県,高知市,鷹匠町２丁目２番２７号,,39,201,7800862,,,,,,,2023-08-24,1,,,,,ブレア,0
487,2700150119237,新規,0,2023-08-24,2023-08-24,Ｇｕａｎｇｚｈｏｕ　Ｆａｎｙｕ　Ｅｌｅｃｔｒｏｎｉｃ　Ｃｏｍｍｅｒｃｅ　Ｃｏ．，Ｌｔｄ．,,外国会社等,,,,,,,,Ｔｉａｎｈｅ　Ｄｉｓｔｒｉｃｔ，Ｇｕａｎｇｚｈｏｕ，Ｇｕａｎｇｄｏｎｇ　Ａｌｌ　ｏｆ　Ｎｏ．２　Ｃｈｅｂｅｉ　Ａｎｃｅｓｔｒａｌ　Ｈａｌｌ　Ｓｔｒｅｅｔ（Ｒｏｏｍ　４１９）Ｃｈｉｎａ,,,,,,2023-08-24,1,,,,,グゥアンゾォウファンユエレクトロニックコマースカンパニーリミテッド,0
488,2700150119245,新規,0,2023-08-24,2023-08-24,Ｓｈｅｎｚｈｅｎ　ｌｅｉｒｕｎｗｅｉｅｒ　Ｅｌｅｃｔｒｏｎｉｃ　Ｃｏ．，Ｌｔｄ,,外国会社等,,,,,,,,ＢＡＯＡＮＱＵ　ＳＨＩＹＡＮＪＩＥＤＡＯ　ＳＨＵＩＴＩＡＮＳＨＥＱＵ　４ＱＵ　１５ＤＯＮＧ　６０２　ＳＨＥＮＺＨＥＮ　ＧＵＡＮＧＤＯＮＧ　５１８１０８　ＣＮ,,,,,,2023-08-24,1,,,,,シンセンレイルンウェイエルイレクトゥロニックカンパニーリミテッド,0
494,3010001237926,新規,0,2023-08-24,2023-08-24,アオラナウ株式会社,,株式会社,東京都,中央区,京橋１丁目１１番１号関電不動産八重洲ビル４階,,13,102,1040031,,,,,,,2023-08-24,1,,,,,アオラナウ,0
495,3010001237967,新規,0,2023-08-24,2023-08-24,Ｊａｐａｎ　Ａｎｇｅｌ　Ｆｕｎｄ株式会社,,株式会社,東京都,中央区,銀座１丁目２２番１１号銀座大竹ビジデンス２階,,13,102,1040061,,,,,,,2023-08-24,1,,,,,ジャパンエンジェルファンド,0
501,3010003041434,新規,0,2023-08-24,2023-08-24,ＣｙｂｅｒＭａｔｅ合同会社,,合同会社,東京都,文京区,本郷７丁目２―２本郷ＭＴビル４階,,13,105,1130033,,,,,,,2023-08-24,1,,,,,サイバーメイト,0
507,3010005037166,新規,0,2023-08-24,2023-08-24,一般社団法人相続終活サポートＴＥＡＭ転生,,その他の設立登記法人,東京都,中央区,京橋１丁目３番２号,,13,102,1040031,,,,,,,2023-08-24,1,,,,,ソウゾクシュウカツサポートチームテンセイ,0
515,3010401176583,新規,0,2023-08-24,2023-08-24,ナラ・カシハラ２株式会社,,株式会社,東京都,港区,西新橋１丁目２番９号メンターキャピタル税理士法人内,,13,103,1050003,,,,,,,2023-08-24,1,,,,,ナラカシハラトゥー,0
516,3010401176591,新規,0,2023-08-24,2023-08-24,サガ・カラツ２株式会社,,株式会社,東京都,港区,西新橋１丁目２番９号メンターキャピタル税理士法人内,,13,103,1050003,,,,,,,2023-08-24,1,,,,,サガカラツトゥー,0
517,3010401176600,新規,0,2023-08-24,2023-08-24,ホッカイドウ・サッポロ２株式会社,,株式会社,東京都,港区,西新橋１丁目２番９号メンターキャピタル税理士法人内,,13,103,1050003,,,,,,,2023-08-24,1,,,,,ホッカイドウサッポロトゥー,0
518,3010401176716,新規,0,2023-08-24,2023-08-24,株式会社ＭＩＤＷＡＹ,,株式会社,東京都,港区,北青山１丁目３番１号アールキューブ青山３階,,13,103,1070061,,,,,,,2023-08-24,1,,,,,ミッドウェー,0
519,3010401176732,新規,0,2023-08-24,2023-08-24,株式会社エムラボビルマネージメント,,株式会社,東京都,港区,麻布十番１丁目１０番３号モンテプラザ麻布８０５号室,,13,103,1060045,,,,,,,2023-08-24,1,,,,,エムラボビルマネージメント,0
520,3010401176773,新規,0,2023-08-24,2023-08-24,株式会社Ｌｏｎｇ　Ｂｅａｃｈ　ＡＭ,,株式会社,東京都,港区,南麻布１丁目２５番３号２０１,,13,103,1060047,,,,,,,2023-08-24,1,,,,,ロングビーチエーエム,0
524,3010405022453,新規,0,2023-08-24,2023-08-24,特定目的会社コリビングワン,,その他の設立登記法人,東京都,港区,元赤坂１丁目１番７－８０７号,,13,103,1070051,,,,,,,2023-08-24,1,,,,,コリビングワン,0
541,3011001156570,新規,0,2023-08-24,2023-08-24,株式会社メリウスクラス,,株式会社,東京都,渋谷区,道玄坂１丁目１０番８号渋谷道玄坂東急ビル２Ｆ－Ｃ,,13,113,1500043,,,,,,,2023-08-24,1,,,,,メリウスクラス,0
543,3011005010187,新規,0,2023-08-24,2023-08-24,一般社団法人予防医療会,,その他の設立登記法人,東京都,渋谷区,道玄坂２丁目１６番８号ビジネスヴィップ渋谷１１階,,13,113,1500043,,,,,,,2023-08-24,1,,,,,ヨボウイリョウカイ,0
559,3011503005738,新規,0,2023-08-24,2023-08-24,合同会社ＳＴＥＭ　Ｃｏｎｓｕｌｔａｎｔｓ,,合同会社,東京都,荒川区,南千住６丁目３７－１１－８０５,,13,118,1160003,,,,,,,2023-08-24,1,,,,,ステムコンサルタンツ,0
561,3011703003574,新規,0,2023-08-24,2023-08-24,ＲｉｓｉｎｇＯｎｅ合同会社,,合同会社,東京都,江戸川区,東葛西６丁目４９番９号,,13,123,1340084,,,,,,,2023-08-24,1,,,,,ライジングワン,0
574,3020001153115,新規,0,2023-08-24,2023-08-24,みなとロケット株式会社,,株式会社,神奈川県,横浜市港北区,富士塚２丁目２８番３９号,00131645,14,109,2220012,,,,,,,2023-08-24,1,,,,,ミナトロケット,0
577,3020005016094,新規,0,2023-08-24,2023-08-24,アーケム労働組合,,その他の設立登記法人,神奈川県,横浜市戸塚区,柏尾町１,,14,110,2440812,,,,,,,2023-08-24,1,,,,,アーケム,0
579,3021001079977,新規,0,2023-08-24,2023-08-24,株式会社Ｍａｇｎｉｆｉｃｅｎｔ,,株式会社,神奈川県,大和市,福田４５－２７,,14,213,2420024,,,,,,,2023-08-24,1,,,,,マグニフィセント,0
580,3021001080010,新規,0,2023-08-24,2023-08-24,株式会社中村工務店,,株式会社,神奈川県,横須賀市,森崎４丁目２６番４号,,14,201,2380023,,,,,,,2023-08-24,1,,,,,ナカムラコウムテン,0
591,3030001155597,新規,0,2023-08-24,2023-08-24,株式会社ＢＥＬＬＳ,,株式会社,埼玉県,入間市,豊岡１丁目８番２６号サニーガーデン１０３,,11,225,3580003,,,,,,,2023-08-24,1,,,,,ベルズ,0
596,3030003022275,新規,0,2023-08-24,2023-08-24,楽陽商事合同会社,,合同会社,埼玉県,川口市,上青木西２丁目１１番８－２０２号,,11,203,3330845,,,,,,,2023-08-24,1,,,,,ラクヨウショウジ,0
597,3030003022317,新規,0,2023-08-24,2023-08-24,合同会社ＢＭＣ,,合同会社,埼玉県,さいたま市南区,大谷場１丁目１５－１２,,11,108,3360016,,,,,,,2023-08-24,1,,,,,ビーエムシー,0
604,3040001129781,新規,0,2023-08-24,2023-08-24,株式会社ココの木,,株式会社,千葉県,船橋市,藤原７丁目４０番６４号,,12,204,2730047,,,,,,,2023-08-24,1,,,,,ココノキ,0
605,3040001129807,新規,0,2023-08-24,2023-08-24,株式会社建青社,,株式会社,千葉県,船橋市,夏見台３丁目１１番１－４０２号,,12,204,2730866,,,,,,,2023-08-24,1,,,,,ケンセイシャ,0
608,3040003023181,新規,0,2023-08-24,2023-08-24,合同会社ＴＸＦ,,合同会社,千葉県,船橋市,高根台７丁目９－１５－１Ｆ,,12,204,2740065,,,,,,,2023-08-24,1,,,,,ティーエックスエフ,0
610,3040005022099,新規,0,2023-08-24,2023-08-24,一般社団法人東邦大学理学部鶴風会,,その他の設立登記法人,千葉県,船橋市,三山２丁目２番１号,,12,204,2740072,,,,,,,2023-08-24,1,,,,,トウホウダイガクリガクブカクフウカイ,0
617,3050001053337,新規,0,2023-08-24,2023-08-24,株式会社ステイケーションカシマ,,株式会社,茨城県,鹿嶋市,大字須賀１４１６番地８,,08,222,3140047,,,,,,,2023-08-24,1,,,,,ステイケーションカシマ,0
624,3060001036282,新規,0,2023-08-24,2023-08-24,株式会社ＯＫビジネスパートナーズ,,株式会社,栃木県,宇都宮市,中今泉３丁目２０番１１号,,09,201,3210968,,,,,,,2023-08-24,1,,,,,オーケービジネスパートナーズ,0
630,3080405007563,新規,0,2023-08-24,2023-08-24,ＮＰＯ法人希宝,,その他の設立登記法人,静岡県,浜松市浜北区,新原５７７０番地,,22,136,4340003,,,,,,,2023-08-24,1,,,,,キホウ,0
633,3110001037795,新規,0,2023-08-24,2023-08-24,株式会社ｅｎｓ,,株式会社,新潟県,新潟市中央区,万代２丁目４番１６号カーサ万代１Ｆ,,15,103,9500088,,,,,,,2023-08-24,1,,,,,エンス,0
642,3120001257566,新規,0,2023-08-24,2023-08-24,強盛株式会社,,株式会社,大阪府,大阪市西成区,山王３丁目２１－２,,27,122,5570001,,,,,,,2023-08-24,1,,,,,キョウセイ,0
643,3120001257574,新規,0,2023-08-24,2023-08-24,株式会社Ｋｅｙｗｉｓｈ,,株式会社,大阪府,大阪市北区,梅田１丁目１１－４大阪駅前第４ビル２４階ＣＢＴ大阪駅前第４ビルテストセンター内,,27,127,5300001,,,,,,,2023-08-24,1,,,,,ケイウィッシュ,0
644,3120001257599,新規,0,2023-08-24,2023-08-24,湊叶建設株式会社,,株式会社,大阪府,門真市,下馬伏町６番１－３Ａ号,,27,223,5710009,,,,,,,2023-08-24,1,,,,,ミナトケンセツ,0
652,3130001075075,新規,0,2023-08-24,2023-08-24,秦倉株式会社,,株式会社,京都府,京都市下京区,西木屋町通上ノ口下る梅湊町９５番地朝日プラザ高瀬川４０８,,26,106,6008127,,,,,,,2023-08-24,1,,,,,ハタクラ,0
656,3140001131356,新規,0,2023-08-24,2023-08-24,株式会社Ｚｅｒｏ　Ｏｎｅ　Ｓｔｅｐ,,株式会社,兵庫県,揖保郡太子町,太田１６８８番地１,,28,464,6711511,,,,,,,2023-08-24,1,,,,,ゼロワンステップ,0
657,3140003019442,新規,0,2023-08-24,2023-08-24,合同会社ＨＫＮ　ＢＥＹＯＮＤ,,合同会社,兵庫県,川西市,清和台東３丁目１番４５号,,28,217,6660142,,,,,,,2023-08-24,1,,,,,エイチケーエヌビヨンド,0
660,3160001025283,新規,0,2023-08-24,2023-08-24,株式会社ＭＩＹＡＨＡＳＨＩ,,株式会社,滋賀県,蒲生郡日野町,松尾５丁目１７番地１,,25,383,5291601,,,,,,,2023-08-24,1,,,,,ミヤハシ,0
666,3180001157752,新規,0,2023-08-24,2023-08-24,株式会社アイランドワークス,,株式会社,愛知県,名古屋市天白区,原２丁目４０４番地ドミール小出４０５号,,23,116,4680015,,,,,,,2023-08-24,1,,,,,アイランドワークス,0
670,3180301037737,新規,0,2023-08-24,2023-08-24,株式会社ＡＲＣＲＩＳＥ,,株式会社,愛知県,西尾市,戸ケ崎３丁目２１番地２７,,23,213,4450075,,,,,,,2023-08-24,1,,,,,アークライズ,0
672,3190003004423,新規,0,2023-08-24,2023-08-24,合同会社ＴＫＭ,,合同会社,三重県,松阪市,垣鼻町４５８番地４,,24,204,5150033,,,,,,,2023-08-24,1,,,,,テイケイエム,0
674,3220001025574,新規,0,2023-08-24,2023-08-24,株式会社クロダホールディングス,,株式会社,石川県,金沢市,若宮１丁目１６８番地２,,17,201,9200054,,,,,,,2023-08-24,1,,,,,クロダホールディングス,0
680,3240001062038,新規,0,2023-08-24,2023-08-24,株式会社ＷｅｌｌＢ,,株式会社,広島県,廿日市市,宮島口１丁目３番３９号,,34,213,7390411,,,,,,,2023-08-24,1,,,,,ウェルブ,0
681,3250003003336,新規,0,2023-08-24,2023-08-24,合同会社Ｃｓ　ｉｍｐｒｏｖｉｎｇ　Ｌａｂ,,合同会社,山口県,防府市,大字真尾３１４番地の３,,35,206,7470104,,,,,,,2023-08-24,1,,,,,シーズインプルーヴィングラボ,0
691,3290001102771,新規,0,2023-08-24,2023-08-24,ありがとう株式会社,,株式会社,福岡県,柳川市,大和町中島１０３０番地,,40,207,8390254,,,,,,,2023-08-24,1,,,,,アリガトウ,0
693,3290003014271,新規,0,2023-08-24,2023-08-24,合同会社ＹＯＫＡ,,合同会社,福岡県,福岡市中央区,天神２丁目２番１２号Ｔ＆Ｊビルディング７Ｆ,,40,133,8100001,,,,,,,2023-08-24,1,,,,,ヨカ,0
694,3290005019120,新規,0,2023-08-24,2023-08-24,一般社団法人Ｏｎｅｎｅｓｓ,,その他の設立登記法人,福岡県,久留米市,上津町１９１１－２－１０３,,40,203,8300052,,,,,,,2023-08-24,1,,,,,ワンネス,0
702,3340001025843,新規,0,2023-08-24,2023-08-24,株式会社ＡＶＥＮＳＩＳ,,株式会社,鹿児島県,鹿児島市,明和３丁目１８番１０－１号,,46,201,8900024,,,,,,,2023-08-24,1,,,,,アベンシス,0
709,3370003006260,新規,0,2023-08-24,2023-08-24,合同会社なかはんだ,,合同会社,宮城県,仙台市泉区,住吉台東２丁目１５番地の２２,,04,105,9813222,,,,,,,2023-08-24,1,,,,,ナカハンダ,0
728,3440003001535,新規,0,2023-08-24,2023-08-24,合同会社コンピテンス,,合同会社,北海道,北斗市,中野通２丁目１６番６号,,01,236,0490156,,,,,,,2023-08-24,1,,,,,,0
733,3700150119236,新規,0,2023-08-24,2023-08-24,Ｙｉｗｕ　Ｃｉｔｙ　Ｈｕａｚｈａｏ　Ｇｏｎｇｙｉｎｇｌｉａｎ　Ｍａｎａｇｅｍｅｎｔ　Ｃｏ．，Ｌｔｄ,,外国会社等,,,,,,,,Ｒｏｏｍ　３０２，ｕｎｉｔ　３，ｂｕｉｌｄｉｎｇ　１６　Ｗｅｓｔ　ｄｉｓｔｒｉｃｔ，Ｑｉｎｇｋｏｕ　ｘｉｎｃｕｎ，Ｊｉａｎｇｄｏｎｇ　Ｓｔｒｅｅｔ　Ｙｉｗｕ　Ｚｈｅｊｉａｎｇ　Ｃｈｉｎａ,,,,,,2023-08-24,1,,,,,ギウシーティーフアザオゴンインリャンマネージメントカンパニーリミテッド,0
734,3700150119244,新規,0,2023-08-24,2023-08-24,Ｓｈｅｎｚｈｅｎｓｈｉ　Ｍｅｎｇｙｕａｎ　Ｅ－ｃｏｍｍｅｒｃｅ　Ｃｏ．，Ｌｔｄ,,外国会社等,,,,,,,,Ｌｏｎｇｈｕａ　Ｑｕ，Ｌｏｎｇｈｕａ　Ｓｔｒｅｅｔ　Ｌｏｎｇｙｕａｎ　Ｓｈｅｑｕ　Ｈｕａｙｕａｎｘｉｎｃｕｎ　１４Ｄｏｎｇ４０３　Ｓｈｅｎｚｈｅｎ　Ｃｉｔｙ　Ｇｕａｎｄｏｎｇ　Ｐｒｏｖｉｎｃｅ　５１８０００　ＣＮ,,,,,,2023-08-24,1,,,,,シンセンシメンユアンイーコマースカンパニーリミテッド,0
735,3700150119252,新規,0,2023-08-24,2023-08-24,Ｓｈｅｎｚｈｅｎ　Ｗｅｐｒｏｔｅｘ　Ｔｅｃｈｎｏｌｏｇｙ　Ｐｒｏｄｕｃｔ　Ｃｏ．，Ｌｔｄ,,外国会社等,,,,,,,,１７１０，Ｂｕｉｌｄｉｎｇ　１１　Ｐｈａｓｅ　ＩＩ（Ｌｏｔ　０２－０８）Ｔｉａｎ’ａｎ　Ｃｌｏｕｄ　Ｐａｒｋ，Ｇａｎｇｔｏｕ　Ｃｏｍｍｕｎｉｔｙ，Ｂａｎｔｉａｎ　Ｓｔ．Ｌｏｎｇｇａｎｇ　Ｓｈｅｎｚｈｅｎ　Ｇｕａｎｇｄｏｎｇ　５１８１００　ＣＮ,,,,,,2023-08-24,1,,,,,シンセンウェプロテックステクノロジープロダクトカンパニーリミテッド,0
746,4010001237768,新規,0,2023-08-24,2023-08-24,株式会社ＫｉｔｏＫｉｔｏ,,株式会社,東京都,文京区,白山５丁目１－３東京富山会館５階,,13,105,1120001,,,,,,,2023-08-24,1,,,,,キトキト,0
747,4010001237917,新規,0,2023-08-24,2023-08-24,株式会社Ｓｔａｒｈａｒｂｏｒ．ｊｐ,,株式会社,東京都,千代田区,神田神保町３丁目２－１４ＹＮビル７階,,13,101,1010051,,,,,,,2023-08-24,1,,,,,スターハーバードットジェイピー,0
748,4010001237966,新規,0,2023-08-24,2023-08-24,株式会社ＴＥＳＭＯホールディングス,,株式会社,東京都,千代田区,大手町１丁目７番２号,,13,101,1000004,,,,,,,2023-08-24,1,,,,,テスモホールディングス,0
749,4010001237990,新規,0,2023-08-24,2023-08-24,ＦＡＮＭ株式会社,,株式会社,東京都,千代田区,丸の内１丁目６番５号丸の内北口ビルディング９Ｆ,,13,101,1000005,,,,,,,2023-08-24,1,,,,,ファンム,0
758,4010401176582,新規,0,2023-08-24,2023-08-24,フクシマ・ウラバンダイ２株式会社,,株式会社,東京都,港区,西新橋１丁目２番９号メンターキャピタル税理士法人内,,13,103,1050003,,,,,,,2023-08-24,1,,,,,フクシマウラバンダイトゥー,0
759,4010401176590,新規,0,2023-08-24,2023-08-24,ヒョウゴ・ミナミアワジ２株式会社,,株式会社,東京都,港区,西新橋１丁目２番９号メンターキャピタル税理士法人内,,13,103,1050003,,,,,,,2023-08-24,1,,,,,ヒョウゴミナミアワジトゥー,0
760,4010401176599,新規,0,2023-08-24,2023-08-24,沖縄・残波岬リゾート株式会社,,株式会社,東京都,港区,西新橋１丁目２番９号メンターキャピタル税理士法人内,,13,103,1050003,,,,,,,2023-08-24,1,,,,,オキナワザンパミサキリゾート,0
761,4010401176698,新規,0,2023-08-24,2023-08-24,ＧＣＪＧ３０Ａ株式会社,,株式会社,東京都,港区,元赤坂１丁目１番８号株式会社赤坂国際会計内,,13,103,1070051,,,,,,,2023-08-24,1,,,,,ジーシージェイジーサーティエー,0
762,4010401176715,新規,0,2023-08-24,2023-08-24,ワイエフキャピタルジャパン株式会社,,株式会社,東京都,港区,赤坂２丁目１２番８号,,13,103,1070052,,,,,,,2023-08-24,1,,,,,ワイエフキャピタルジャパン,0
763,4010401176723,新規,0,2023-08-24,2023-08-24,愛ＯＮ　ＬＩＮＥ株式会社,,株式会社,東京都,港区,北青山１丁目３番１号アールキューブ青山３階,,13,103,1070061,,,,,,,2023-08-24,1,,,,,アイオンライン,0
764,4010401176772,新規,0,2023-08-24,2023-08-24,株式会社ＭＹ　ＡＳＫ,,株式会社,東京都,港区,南麻布１丁目２５番３号２０１,,13,103,1060047,,,,,,,2023-08-24,1,,,,,マイアスク,0
767,4010403030696,新規,0,2023-08-24,2023-08-24,ナインプライム合同会社,,合同会社,東京都,港区,港南２丁目１７番１号ＢＩＺｃｏｍｆｏｒｔ品川ｓｋｙｗａｙ１９号室,,13,103,1080075,,,,,,,2023-08-24,1,,,,,ナインプライム,0
768,4010405022436,新規,0,2023-08-24,2023-08-24,ソーラーファラデーホールディングス一般社団法人,,その他の設立登記法人,東京都,港区,西新橋１丁目２番９号メンターキャピタル税理士法人内,,13,103,1050003,,,,,,,2023-08-24,1,,,,,ソーラーファラデーホールディングス,0
774,4010601063663,新規,0,2023-08-24,2023-08-24,ＣＣＫホールディングス株式会社,,株式会社,東京都,江東区,新砂１丁目６番３５号,,13,108,1360075,,,,,,,2023-08-24,1,,,,,シーシーケーホールディングス,0
777,4010801034274,新規,0,2023-08-24,2023-08-24,株式会社Ｍ　ＭＵＳＩＣ,,株式会社,東京都,大田区,山王２丁目１番５号大森ララビル３階,,13,111,1430023,,,,,,,2023-08-24,1,,,,,エムミュージック,0
788,4011001156520,新規,0,2023-08-24,2023-08-24,株式会社ＳＳ　Ｃｏｍｐａｎｙ．,,株式会社,東京都,渋谷区,道玄坂２丁目１８番１１－５２５号サンモール道玄坂,,13,113,1500043,,,,,,,2023-08-24,1,,,,,エスエスカンパニー,0
793,4011003017299,新規,0,2023-08-24,2023-08-24,ｊｅｔｓｋｉ合同会社,,合同会社,東京都,渋谷区,千駄ヶ谷５丁目１６－２エルスタンザ４１２,,13,113,1510051,,,,,,,2023-08-24,1,,,,,ジェットスキー,0
797,4011101104107,新規,0,2023-08-24,2023-08-24,株式会社ＡＭＡ,,株式会社,東京都,新宿区,四谷１丁目１３番地マンション四谷６１３,,13,104,1600004,,,,,,,2023-08-24,1,,,,,エイエムエイ,0
802,4011503005737,新規,0,2023-08-24,2023-08-24,合同会社ＢＳＡ,,合同会社,東京都,北区,東十条４丁目１１番１１－４０２号,,13,117,1140001,,,,,,,2023-08-24,1,,,,,ビーエスエー,0
809,4011801042928,新規,0,2023-08-24,2023-08-24,百飾隆株式会社,,株式会社,東京都,足立区,本木南町２－４、１階,,13,121,1230855,,,,,,,2023-08-24,1,,,,,ヒャクセイリュウ,0
810,4011801042944,新規,0,2023-08-24,2023-08-24,株式会社グローバル・チャレンジ,,株式会社,東京都,葛飾区,柴又６丁目２－３,,13,122,1250052,,,,,,,2023-08-24,1,,,,,,0
813,4012403006131,新規,0,2023-08-24,2023-08-24,合同会社ＰｉｅｃｅＣａｓｅ,,合同会社,東京都,小金井市,梶野町１丁目２‐３６,,13,210,1840002,,,,,,,2023-08-24,1,,,,,ピースケース,0
823,4013301051236,新規,0,2023-08-24,2023-08-24,順宝国際株式会社,,株式会社,東京都,豊島区,池袋１丁目１３番１２号,,13,116,1700014,,,,,,,2023-08-24,1,,,,,ジュンポウコクサイ,0
824,4013301051244,新規,0,2023-08-24,2023-08-24,株式会社ｓｍａｒｔ　ＡＩ,,株式会社,東京都,豊島区,東池袋１丁目３４番５号いちご東池袋ビル６階,,13,116,1700013,,,,,,,2023-08-24,1,,,,,スマートエーアイ,0
844,4030003022299,新規,0,2023-08-24,2023-08-24,合同会社リトラ,,合同会社,埼玉県,越谷市,伊原１丁目４番４７号,,11,222,3430831,,,,,,,2023-08-24,1,,,,,リトラ,0
845,4030003022448,新規,0,2023-08-24,2023-08-24,合同会社エーエムハウジング,,合同会社,埼玉県,和光市,下新倉３丁目１９番２４号,,11,229,3510111,,,,,,,2023-08-24,1,,,,,エーエムハウジング,0
854,4040001129780,新規,0,2023-08-24,2023-08-24,株式会社Ｆ’ｓ企画,,株式会社,千葉県,佐倉市,染井野３丁目８番地１７,,12,212,2850831,,,,,,,2023-08-24,1,,,,,エフズキカク,0
855,4040001129806,新規,0,2023-08-24,2023-08-24,株式会社ＭＡＳＴＥＲＹ,,株式会社,千葉県,松戸市,栗山３６グレイシャス矢切ＩＩ２０１,00131644,12,207,2710097,,,,,,,2023-08-24,1,,,,,マスタリー,0
858,4040003023172,新規,0,2023-08-24,2023-08-24,合同会社キャリアエクステント,,合同会社,千葉県,山武市,埴谷１８２６番地５,,12,237,2891223,,,,,,,2023-08-24,1,,,,,キャリアエクステント,0
859,4040003023180,新規,0,2023-08-24,2023-08-24,ＯＣＥＡＮ　ＭＩＮＴ合同会社,,合同会社,千葉県,南房総市,白子字中原１９２８番,,12,234,2992521,,,,,,,2023-08-24,1,,,,,オーシャンミント,0
861,4050001053336,新規,0,2023-08-24,2023-08-24,志遠商事株式会社,,株式会社,茨城県,笠間市,泉２２７０－１,,08,216,3190209,,,,,,,2023-08-24,1,,,,,シオンショウジ,0
868,4100001036715,新規,0,2023-08-24,2023-08-24,株式会社ｕｔａｕ,,株式会社,長野県,茅野市,宮川１１２９９－１０,,20,214,3910013,,,,,,,2023-08-24,1,,,,,ウタウ,0
870,4110001037794,新規,0,2023-08-24,2023-08-24,株式会社ｄｏｕｂｏｗｌｓ,,株式会社,新潟県,新潟市中央区,本町通５番町２７１番地１,,15,103,9518067,,,,,,,2023-08-24,1,,,,,ダボウズ,0
880,4120001257573,新規,0,2023-08-24,2023-08-24,ｘｉｎ株式会社,,株式会社,大阪府,大阪市北区,堂山町１番５号三共梅田ビル７Ｆ,,27,127,5300027,,,,,,,2023-08-24,1,,,,,シン,0
881,4120001257581,新規,0,2023-08-24,2023-08-24,株式会社ビッグヒューマン,,株式会社,大阪府,大阪市浪速区,大国２丁目１番６号,,27,111,5560014,,,,,,,2023-08-24,1,,,,,ビッグヒューマン,0
888,4120003024757,新規,0,2023-08-24,2023-08-24,リテラ合同会社,,合同会社,大阪府,大阪市北区,梅田１丁目２番２号大阪駅前第２ビル１２－１２,,27,127,5300001,,,,,,,2023-08-24,1,,,,,リテラ,0
892,4120901047974,新規,0,2023-08-24,2023-08-24,ＤＯＬＡ株式会社,,株式会社,大阪府,吹田市,江坂町３丁目６７番１号,,27,205,5640063,,,,,,,2023-08-24,1,,,,,ドラ,0
900,4130001075017,新規,0,2023-08-24,2023-08-24,日川工業株式会社,,株式会社,京都府,福知山市,字天田１９０番地の２,,26,201,6200000,,,,,,,2023-08-24,1,,,,,ヒカワコウギョウ,0
909,4140001131306,新規,0,2023-08-24,2023-08-24,株式会社ＡＳ設備,,株式会社,兵庫県,姫路市,城北新町１丁目１番２２号,,28,201,6700883,,,,,,,2023-08-24,1,,,,,エーエスセツビ,0
910,4140001131347,新規,0,2023-08-24,2023-08-24,株式会社ＤＲＥＡＭ,,株式会社,兵庫県,神戸市長田区,浪松町５丁目１番１グレイスハイツ西神戸６０３号,,28,106,6530055,,,,,,,2023-08-24,1,,,,,ドリーム,0
911,4140001131355,新規,0,2023-08-24,2023-08-24,株式会社テバククリエイト,,株式会社,兵庫県,神戸市中央区,海岸通４丁目３－２０甲南ビル２０４号室,,28,110,6500024,,,,,,,2023-08-24,1,,,,,テバククリエイト,0
924,4190003004414,新規,0,2023-08-24,2023-08-24,合同会社美瑛,,合同会社,三重県,四日市市,生桑町１６４２番地１２７,,24,202,5120911,,,,,,,2023-08-24,1,,,,,ビエイ,0
925,4190003004422,新規,0,2023-08-24,2023-08-24,縁ＬＩＦＥ合同会社,,合同会社,三重県,多気郡明和町,大字佐田２４２１番地１０,,24,442,5150331,,,,,,,2023-08-24,1,,,,,エンライフ,0
931,4210003001689,新規,0,2023-08-24,2023-08-24,合同会社ｏｄｅｎ．,,合同会社,福井県,敦賀市,相生町７－１３－２港都ビルＢ棟２Ｆ,,18,202,9140062,,,,,,,2023-08-24,1,,,,,オデン,0
933,4230001019979,新規,0,2023-08-24,2023-08-24,株式会社ユニティ,,株式会社,富山県,高岡市,野村１５２９番地３ＲＥＧＡＬＩＡＩＩ３－Ｆ号,00131642,16,202,9330014,,,,,,,2023-08-24,1,,,,,ユニティ,0
935,4240001062029,新規,0,2023-08-24,2023-08-24,株式会社暮らしＰＬＵＳ,,株式会社,広島県,東広島市,西条西本町１４番８号,,34,212,7390043,,,,,,,2023-08-24,1,,,,,クラシプラス,0
942,4290001102770,新規,0,2023-08-24,2023-08-24,株式会社Ｌ．Ｄ．Ｓ,,株式会社,福岡県,福岡市中央区,今泉２丁目１－４０－７０３,,40,133,8100021,,,,,,,2023-08-24,1,,,,,エルディエス,0
943,4290001102779,新規,0,2023-08-24,2023-08-24,株式会社デジパン,,株式会社,福岡県,福岡市南区,若久６丁目８番２３号,,40,134,8150042,,,,,,,2023-08-24,1,,,,,デジパン,0
944,4290003014279,新規,0,2023-08-24,2023-08-24,奄美大島バイオマス発電所合同会社,,合同会社,福岡県,福岡市早良区,百道浜２丁目４番２７号ＡＩビル６Ｆ,,40,137,8140001,,,,,,,2023-08-24,1,,,,,アマミオオシマバイオマスハツデンショ,0
950,4330003009943,新規,0,2023-08-24,2023-08-24,ヤマガテクニクス合同会社,,合同会社,熊本県,山鹿市,中７４６番地９４,,43,208,8610531,,,,,,,2023-08-24,1,,,,,ヤマガテクニクス,0
951,4350001018523,新規,0,2023-08-24,2023-08-24,株式会社一徹みなみ,,株式会社,宮崎県,児湯郡新富町,大字新田１５２５番地１３,,45,402,8891406,,,,,,,2023-08-24,1,,,,,イッテツミナミ,0
962,4400001016348,新規,0,2023-08-24,2023-08-24,株式会社ＶＩＳＩＯＮ　ＦＡＣＴＯＲＹ,,株式会社,岩手県,奥州市,水沢佐倉河字後樋１５番地１,00131643,03,215,0230003,,,,,,,2023-08-24,1,,,,,ビジョンファクトリー,0
964,4420001018375,新規,0,2023-08-24,2023-08-24,株式会社リフィート,,株式会社,青森県,青森市,幸畑５丁目２４番１６号,,02,201,0300943,,,,,,,2023-08-24,1,,,,,リフィート,0
965,4430001089812,新規,0,2023-08-24,2023-08-24,株式会社スマイルハーベスト,,株式会社,北海道,札幌市東区,伏古八条２丁目５番２７号,,01,103,0070868,,,,,,,2023-08-24,1,,,,,スマイルハーベスト,0
966,4430001089845,新規,0,2023-08-24,2023-08-24,株式会社ＯＲＩＧＩＮ,,株式会社,北海道,札幌市手稲区,新発寒六条７丁目１０番４３号,,01,109,0060806,,,,,,,2023-08-24,1,,,,,オリジン,0
976,4500001025140,新規,0,2023-08-24,2023-08-24,株式会社愛心運愉,,株式会社,愛媛県,西予市,宇和町下松葉１４０番地７６,,38,214,7970018,,,,,,,2023-08-24,1,,,,,アイシンウンユ,0
978,4700150119235,新規,0,2023-08-24,2023-08-24,ｓｈｅｎｚｈｅｎ　ｙｕａｎｙｉｃｈａｎｇ　ｋｅｊｉｙｏｕｘｉａｎｇｏｎｇｓｉ,,外国会社等,,,,,,,,６Ａ－５１６，Ｋｅｊｉｄａｓｈａ，Ｈａｉｊｉｎｇ　ｅｒ　Ｒｏａｄ，Ｐｅｎｇｗａｎ　Ｓｈｅｑｕ，Ｈａｉｓｈａｎ　Ｓｔｒｅｅｔ，Ｙａｎｔｉａｎ　Ｄｉｓｔｒｉｃｔ，Ｓｈｅｎｚｈｅｎ　Ｇｕａｎｇｄｏｎｇ　Ｃｈｉｎａ,,,,,,2023-08-24,1,,,,,シンセンユェンイチャンケジユウゲンコウシ,0
979,4700150119243,新規,0,2023-08-24,2023-08-24,武漢亦合瀚同電子商務有限公司,00131617,外国会社等,,,,,,,,中国武漢市洪山区珞喩路７１６号華楽商務中心１７層Ｄ号－０６,00131618,,,,,2023-08-24,1,,,,,ブカンエキゴウカンドウデンシショウムユウゲンコウシ,0
980,4700150119251,新規,0,2023-08-24,2023-08-24,ｐｕｔｉａｎｓｈｉ　ｈａｎｊｉａｎｇｑｕｇｏｎｇｃｈｕａｎｇｄｉａｎｚｉｓｈａｎｇｗｕ　Ｃｏ．，Ｌｔｄ,,外国会社等,,,,,,,,ｈａｎｊｉａｎｇｑｕ　ｇｕｏｈｕａｎｚｈｅｎ　ｌｉｕｙｉｘｉｌｕ　２３９９　ｈａｏ　ｈｕａｙｏｎｇｔｉａｎｌａｎｃｈｅｎｇ　ｅｒｑｉ　６　ｈａｏｌｏｕ　２　ｔｉ　５０５　ｓｈｉ　ｐｕｔｉａｎｓｈｉ　ｆｕｊｉａｎｓｈｅｎｇ　３５１１１１　ＣＮ,,,,,,2023-08-24,1,,,,,プテンシハンジャンクゴンツゥアンデンシシャンウカンパニーリミテッド,0
994,5010001237800,新規,0,2023-08-24,2023-08-24,ＰＲＯＦＯＵＮＤ株式会社,,株式会社,東京都,千代田区,六番町１５番地２,,13,101,1020085,,,,,,,2023-08-24,1,,,,,プロファウンド,0
995,5010001237940,新規,0,2023-08-24,2023-08-24,株式会社楽志,,株式会社,東京都,中央区,銀座１丁目１２番４号Ｎ＆Ｅ・ＢＬＤ６階,,13,102,1040061,,,,,,,2023-08-24,1,,,,,ラクシ,0
996,5010001237949,新規,0,2023-08-24,2023-08-24,株式会社みかた出版,,株式会社,東京都,中央区,日本橋２丁目１番１７号,,13,102,1030027,,,,,,,2023-08-24,1,,,,,ミカタシュッパン,0
999,5010003041457,新規,0,2023-08-24,2023-08-24,合同会社さがみはら投資事業,,合同会社,東京都,千代田区,丸の内３丁目１番１号東京共同会計事務所内,,13,101,1000005,,,,,,,2023-08-24,1,,,,,サガミハラトウシジギョウ,0
1000,5010003041465,新規,0,2023-08-24,2023-08-24,ＮＲコンサル合同会社,,合同会社,東京都,千代田区,三番町３０番地２ジオイド三番町１００２室,,13,101,1020075,,,,,,,2023-08-24,1,,,,,エヌアルコンサル,0
1015,5010401176581,新規,0,2023-08-24,2023-08-24,ミヤギ・ミヤギザオウ２株式会社,,株式会社,東京都,港区,西新橋１丁目２番９号メンターキャピタル税理士法人内,,13,103,1050003,,,,,,,2023-08-24,1,,,,,ミヤギミヤギザオウトゥー,0
1016,5010401176598,新規,0,2023-08-24,2023-08-24,フクオカ・ムナカタ２株式会社,,株式会社,東京都,港区,西新橋１丁目２番９号メンターキャピタル税理士法人内,,13,103,1050003,,,,,,,2023-08-24,1,,,,,フクオカムナカタトゥー,0
1017,5010401176714,新規,0,2023-08-24,2023-08-24,株式会社ＴＬＤ　ＨＲ,,株式会社,東京都,港区,芝３丁目３４番１号芝パークタワー１８０１号室,,13,103,1050014,,,,,,,2023-08-24,1,,,,,ティエルディエイチアール,0
1018,5010401176771,新規,0,2023-08-24,2023-08-24,株式会社Ｐｉｇｅｏｎ　Ｖｉｓｉｏｎｓ,,株式会社,東京都,港区,南麻布１丁目２５番３号２０１,,13,103,1060047,,,,,,,2023-08-24,1,,,,,ピジョンビジョン,0
1020,5010403030786,新規,0,2023-08-24,2023-08-24,ぷちゃいる合同会社,,合同会社,東京都,港区,北青山１丁目６番４－５０８号,,13,103,1070061,,,,,,,2023-08-24,1,,,,,プチャイル,0
1021,5010501050934,新規,0,2023-08-24,2023-08-24,Ｇａｌｌｏｐ株式会社,,株式会社,東京都,台東区,浅草３丁目３３番７号,,13,106,1110032,,,,,,,2023-08-24,1,,,,,ギャロップ,0
1028,5010701044752,新規,0,2023-08-24,2023-08-24,株式会社ＴＯＲＩＮＯＭＥ,,株式会社,東京都,品川区,上大崎２丁目１５－１９,,13,109,1410021,,,,,,,2023-08-24,1,,,,,トリノメ,0
1031,5010901053669,新規,0,2023-08-24,2023-08-24,遠超株式会社,,株式会社,東京都,世田谷区,桜新町１丁目３１番３号,,13,112,1540015,,,,,,,2023-08-24,1,,,,,エンチョウ,0
1032,5010901053685,新規,0,2023-08-24,2023-08-24,株式会社レン,,株式会社,東京都,世田谷区,玉川４丁目１０番２０号玉川グリーンハイツ３０３号室,,13,112,1580094,,,,,,,2023-08-24,1,,,,,レン,0
1034,5011001156503,新規,0,2023-08-24,2023-08-24,株式会社ＰＲＥＳＳＳ　Ｂ,,株式会社,東京都,渋谷区,円山町２２－１２ライオンズマンション渋谷道玄坂４０３,,13,113,1500044,,,,,,,2023-08-24,1,,,,,プレスビー,0
1035,5011001156544,新規,0,2023-08-24,2023-08-24,株式会社ｍｔｃ．ｓｔｕｄｉｏ,,株式会社,東京都,目黒区,三田２丁目１６－１０,,13,110,1530062,,,,,,,2023-08-24,1,,,,,エムティーシースタジオ,0
1036,5011001156560,新規,0,2023-08-24,2023-08-24,株式会社ＴＡＫＡＫＵ,,株式会社,東京都,渋谷区,桜丘町１０－６ピアース渋谷８０５,,13,113,1500031,,,,,,,2023-08-24,1,,,,,タカク,0
1037,5011001156569,新規,0,2023-08-24,2023-08-24,株式会社ＶｏｉｃｅＣａｓｔ,,株式会社,東京都,渋谷区,道玄坂１丁目１０番８号渋谷道玄坂東急ビル２Ｆ－Ｃ,,13,113,1500043,,,,,,,2023-08-24,1,,,,,ボイスキャスト,0
1039,5011003017422,新規,0,2023-08-24,2023-08-24,Ｃｏｎｔｅｎｔｓ　Ｍａｋｅｒ合同会社,,合同会社,東京都,渋谷区,神宮前６丁目２３番４号桑野ビル２階,,13,113,1500001,,,,,,,2023-08-24,1,,,,,コンテンツメーカー,0
1040,5011101104122,新規,0,2023-08-24,2023-08-24,ＭＪＳ＆Ｃｏｍｐａｎｙ株式会社,,株式会社,東京都,新宿区,内藤町１番地５０朝日新宿御苑マンション５０３,,13,104,1600014,,,,,,,2023-08-24,1,,,,,エムジェイエスアンドカンパニー,0
1043,5011301028955,新規,0,2023-08-24,2023-08-24,株式会社ＮＥＳＴ．,,株式会社,東京都,杉並区,松庵３丁目２０番１８号,,13,115,1670054,,,,,,,2023-08-24,1,,,,,ネスト,0
1049,5011501029687,新規,0,2023-08-24,2023-08-24,ＢＬＯＲＹ株式会社,,株式会社,東京都,荒川区,南千住１丁目４５番８－４０３号Ｄ,,13,118,1160003,,,,,,,2023-08-24,1,,,,,ブロリー,0
1050,5011503005736,新規,0,2023-08-24,2023-08-24,ＭＥＷ　ＭＥＯＷ　ＰＲＯＤＵＣＴＩＯＮ合同会社,,合同会社,東京都,北区,王子５丁目１番１－９２５号,,13,117,1140002,,,,,,,2023-08-24,1,,,,,ミョウミョウプロダクション,0
1052,5011701026542,新規,0,2023-08-24,2023-08-24,南青山開発株式会社,,株式会社,東京都,江戸川区,中葛西５丁目２０番２１号,,13,123,1340083,,,,,,,2023-08-24,1,,,,,ミナミアオヤマカイハツ,0
1066,5020001153113,新規,0,2023-08-24,2023-08-24,株式会社Ｃｉｉ,,株式会社,神奈川県,横浜市泉区,和泉中央南４丁目４－１いずみ中央Ｉ’Ｓビル１０１,,14,116,2450023,,,,,,,2023-08-24,1,,,,,シー,0
1072,5021003013486,新規,0,2023-08-24,2023-08-24,合同会社Ｕｚｕｒｉ,,合同会社,神奈川県,藤沢市,遠藤４４８９－１０５ＳＦＣ－ＩＶ２０６,,14,205,2520816,,,,,,,2023-08-24,1,,,,,ウズリ,0
1077,5030001155471,新規,0,2023-08-24,2023-08-24,伊藤商事株式会社,,株式会社,埼玉県,川越市,今成３丁目９－２,,11,201,3501105,,,,,,,2023-08-24,1,,,,,イトウショウジ,0
1078,5030001155604,新規,0,2023-08-24,2023-08-24,株式会社藤商事,,株式会社,埼玉県,さいたま市浦和区,領家２丁目１３番１３号,,11,107,3300072,,,,,,,2023-08-24,1,,,,,フジショウジ,0
1081,5030003022331,新規,0,2023-08-24,2023-08-24,ゆうき終活支援合同会社,,合同会社,埼玉県,三郷市,早稲田４丁目２６番地６,,11,237,3410018,,,,,,,2023-08-24,1,,,,,ユウキシュウカツシエン,0
1082,5030003022348,新規,0,2023-08-24,2023-08-24,合同会社リベラキャリア,,合同会社,埼玉県,所沢市,大字北秋津４１０番地の２,,11,208,3590038,,,,,,,2023-08-24,1,,,,,リベラキャリア,0
1083,5030003022455,新規,0,2023-08-24,2023-08-24,合同会社トラストサイクル,,合同会社,埼玉県,さいたま市浦和区,本太１丁目１１－１３,,11,107,3300052,,,,,,,2023-08-24,1,,,,,トラストサイクル,0
1086,5030005021364,新規,0,2023-08-24,2023-08-24,一般社団法人癸卯会,,その他の設立登記法人,埼玉県,加須市,馬内９７９番地１０１号室,,11,210,3470043,,,,,,,2023-08-24,1,,,,,キボウカイ,0
1087,5040001129763,新規,0,2023-08-24,2023-08-24,株式会社イマイ内装,,株式会社,千葉県,野田市,中根１３９番地の３１,,12,208,2780031,,,,,,,2023-08-24,1,,,,,イマイナイソウ,0
1088,5040001129805,新規,0,2023-08-24,2023-08-24,株式会社ＳＰＩＮ,,株式会社,千葉県,八千代市,ゆりのき台８丁目１８番地６ウィンディヒルズ３０２号,,12,221,2760042,,,,,,,2023-08-24,1,,,,,スピン,0
1102,5070005010165,新規,0,2023-08-24,2023-08-24,一般社団法人群馬県人権・部落解放センター,,その他の設立登記法人,群馬県,前橋市,石倉町１丁目４番地１１,,10,201,3710841,,,,,,,2023-08-24,1,,,,,グンマケンジンケンブラクカイホウセンター,0
1108,5100001036714,新規,0,2023-08-24,2023-08-24,株式会社ＯＷＬ,,株式会社,長野県,長野市,大字長野東町１４６番地３号東町ベース１階,,20,201,3800831,,,,,,,2023-08-24,1,,,,,アウル,0
1120,5120001257564,新規,0,2023-08-24,2023-08-24,利興達株式会社,,株式会社,大阪府,大阪市住吉区,長居２丁目３番１８号,,27,120,5580003,,,,,,,2023-08-24,1,,,,,リコウタツ,0
1121,5120001257572,新規,0,2023-08-24,2023-08-24,株式会社互光,,株式会社,大阪府,寝屋川市,高柳２丁目５１番１３号,,27,215,5720051,,,,,,,2023-08-24,1,,,,,ゴコウ,0
1122,5120001257606,新規,0,2023-08-24,2023-08-24,山＿株式会社,00131652,株式会社,大阪府,大阪市住吉区,遠里小野６丁目１７番１８－３０２号,,27,120,5580032,,,,,,,2023-08-24,1,,,,,ヤマサ,0
1129,5120003024772,新規,0,2023-08-24,2023-08-24,合同会社Ｓｅｃｕｒｅ　Ｄｒａｆｔ,,合同会社,大阪府,大阪市北区,梅田１丁目２番２号大阪駅前第２ビル１２‐１２,,27,127,5300001,,,,,,,2023-08-24,1,,,,,セキュアドラフト,0
1130,5120003024780,新規,0,2023-08-24,2023-08-24,合同会社未来華,,合同会社,大阪府,大阪市城東区,蒲生４丁目１８番１０号ロイヤルハイツ蒲生２０３,,27,118,5360016,,,,,,,2023-08-24,1,,,,,ミライカ,0
1135,5120101068093,新規,0,2023-08-24,2023-08-24,株式会社海猿,,株式会社,大阪府,貝塚市,澤１５６－５,,27,208,5970062,,,,,,,2023-08-24,1,,,,,ウミザル,0
1139,5130001075016,新規,0,2023-08-24,2023-08-24,ＤＥＭＥＴＥＲ’ｓ　Ｃｏｍｐａｎｙ株式会社,,株式会社,京都府,京田辺市,田辺久戸３５番,,26,211,6100331,,,,,,,2023-08-24,1,,,,,デミターズカンパニー,0
1151,5180301037743,新規,0,2023-08-24,2023-08-24,株式会社ＤーＳｍｉｌｅ,,株式会社,愛知県,刈谷市,半城土町西裏２２番地２,,23,210,4480804,,,,,,,2023-08-24,1,,,,,ディースマイル,0
1153,5190003004421,新規,0,2023-08-24,2023-08-24,合同会社祐晃工業,,合同会社,三重県,鈴鹿市,池田町１４６７番地の２,,24,207,5130032,,,,,,,2023-08-24,1,,,,,ユウコウコウギョウ,0
1161,5230003002073,新規,0,2023-08-24,2023-08-24,合同会社ＳＯＢＡ,,合同会社,富山県,富山市,桜橋通り３番１号富山電気ビルデイング本館２Ｆ,,16,201,9300004,,,,,,,2023-08-24,1,,,,,ソバ,0
1162,5240001062036,新規,0,2023-08-24,2023-08-24,株式会社ｒｉｒｅｔｔｏ,,株式会社,広島県,広島市安佐北区,可部４丁目４－３－１Ｆ,,34,106,7310221,,,,,,,2023-08-24,1,,,,,リレット,0
1166,5280001009025,新規,0,2023-08-24,2023-08-24,株式会社ハッピーレシピ,,株式会社,島根県,松江市,奥谷町３２５番地ＭＡビル,,32,201,6900872,,,,,,,2023-08-24,1,,,,,ハッピーレシピ,0
1168,5290001102745,新規,0,2023-08-24,2023-08-24,株式会社ウェルリンク,,株式会社,福岡県,久留米市,東和町３番地３クィーンズプラザ久留米中央１３０２号,,40,203,8300035,,,,,,,2023-08-24,1,,,,,ウェルリンク,0
1173,5290003014278,新規,0,2023-08-24,2023-08-24,ＡＭＭ合同会社,,合同会社,福岡県,福岡市南区,野間１丁目１２番１１－２０３号ヴィラージュ高宮,,40,134,8150041,,,,,,,2023-08-24,1,,,,,エーエムエム,0
1189,5370003006259,新規,0,2023-08-24,2023-08-24,合同会社Ｇｒａｙｓｏｎ,,合同会社,宮城県,仙台市若林区,中倉３丁目９－１５－４１１,,04,103,9840821,,,,,,,2023-08-24,1,,,,,グレイソン,0
1203,5430001089836,新規,0,2023-08-24,2023-08-24,ｅｎｃｏｕｎｔ株式会社,,株式会社,北海道,札幌市西区,琴似四条６丁目２番８－２０２号,,01,107,0630814,,,,,,,2023-08-24,1,,,,,エンカウント,0
1211,5700150119234,新規,0,2023-08-24,2023-08-24,ＳｈｅｎＺｈｅｎＳｈｉ　ＦｅｎｇＴｉｎｇ　Ｅ－Ｂｕｓｉｎｅｓｓ　Ｃｏ．，Ｌｔｄ,,外国会社等,,,,,,,,ＢＡＯＡＮＱＵ　ＸＩＮＡＮＪＩＥＤＡＯ　ＨＯＮＧＬＡＮＧＳＨＥＱＵ　ＨＯＮＧＬＡＮＧＮＡＮＬＵ６８ＨＡＯＹＩＨＡＯＬＯＵ６３２　ＳＨＥＮ　ＺＨＥＮ　ＧＵＡＮＧ　ＤＯＮＧ　Ｃｈｉｎａ,,,,,,2023-08-24,1,,,,,シンセンシフェンティンイービジネスカンパニーリミテッド,0
1212,5700150119242,新規,0,2023-08-24,2023-08-24,Ｔａｉｋａｎｇｘｉａｎ　Ｍｉｎｇｃｈｅｎｋｅｊｉ　Ｙｏｕｘｉａｎｇｏｎｇｓｉ,,外国会社等,,,,,,,,ｈｅｎａｎｓｈｅｎｇ　ｚｈｏｕｋｏｕｓｈｉ　ｔａｉｋａｎｇｘｉａｎ　ｘｕｎｍｕｋｏｕｚｈｅｎｗｕｓｕｏｌｏｕｘｉｎｇｚｈｅｎｇｃｕｎ　５９ｈａｏ　Ｃｈｉｎａ,,,,,,2023-08-24,1,,,,,タイカンシャンミンチェンカギユウゲンコウシ,0
1213,5700150119250,新規,0,2023-08-24,2023-08-24,ＳｈｅｎＺｈｅｎＹｉｎｇＬｉａｎＣｈｕａｎｇ　Ｏｐｔｉｃａｌ　Ｅｑｕｉｐｍｅｎｔ　Ｃｏ．，Ｌｔｄ,,外国会社等,,,,,,,,９０１，Ｎｏ．５，Ｒｉｖｅｒｓｉｄｅ　Ｇａｒｄｅｎ，Ｓｈｉｙａｎ　Ｓｔｒｅｅｔ，Ｂａｏａｎ　Ｄｉｓｔｒｉｃｔ，Ｓｈｅｎｚｈｅｎ　５１８０００　ＣＮ,,,,,,2023-08-24,1,,,,,シンセンインレンツゥアンオプティカルイクイップメントカンパニーリミテッド,0
1221,6010001237948,新規,0,2023-08-24,2023-08-24,ＥＶリサーチ＆コンサルティング株式会社,,株式会社,東京都,中央区,日本橋人形町３丁目３番５号,,13,102,1030013,,,,,,,2023-08-24,1,,,,,イーブイリサーチアンドコンサルティング,0
1223,6010003041489,新規,0,2023-08-24,2023-08-24,合同会社サンクス,,合同会社,東京都,中央区,勝どき３丁目１３－２グリーンホームズ２－８０３,,13,102,1040054,,,,,,,2023-08-24,1,,,,,サンクス,0
1226,6010005037163,新規,0,2023-08-24,2023-08-24,一般社団法人日本性科学会,,その他の設立登記法人,東京都,文京区,本郷３丁目２番３号,,13,105,1130033,,,,,,,2023-08-24,1,,,,,ニホンセイカガクカイ,0
1232,6010401176580,新規,0,2023-08-24,2023-08-24,トヤマ・トナミ２株式会社,,株式会社,東京都,港区,西新橋１丁目２番９号メンターキャピタル税理士法人内,,13,103,1050003,,,,,,,2023-08-24,1,,,,,トヤマトナミトゥー,0
1233,6010401176589,新規,0,2023-08-24,2023-08-24,ワカヤマ・クシモト２株式会社,,株式会社,東京都,港区,西新橋１丁目２番９号メンターキャピタル税理士法人内,,13,103,1050003,,,,,,,2023-08-24,1,,,,,ワカヤマクシモトトゥー,0
1234,6010401176597,新規,0,2023-08-24,2023-08-24,コウチ・トサ２株式会社,,株式会社,東京都,港区,西新橋１丁目２番９号メンターキャピタル税理士法人内,,13,103,1050003,,,,,,,2023-08-24,1,,,,,コウチトサトゥー,0
1235,6010401176696,新規,0,2023-08-24,2023-08-24,紗規キャピタル株式会社,,株式会社,東京都,港区,浜松町２丁目２番１５号浜松町ダイヤビル２Ｆ,,13,103,1050013,,,,,,,2023-08-24,1,,,,,サキキャピタル,0
1236,6010401176721,新規,0,2023-08-24,2023-08-24,株式会社Ｒａｙｍｅ,,株式会社,東京都,港区,南麻布１丁目２０－２啓有ビル２０１号,,13,103,1060047,,,,,,,2023-08-24,1,,,,,レイミー,0
1237,6010401176762,新規,0,2023-08-24,2023-08-24,グローバルハウス・インターナショナル株式会社,,株式会社,東京都,港区,高輪４丁目２０番６号ライトウェル高輪２０２,,13,103,1080074,,,,,,,2023-08-24,1,,,,,グローバルハウスインターナショナル,0
1253,6010703006832,新規,0,2023-08-24,2023-08-24,合同会社ライスバレー,,合同会社,東京都,品川区,小山３丁目１５番２－５０１号,,13,109,1420062,,,,,,,2023-08-24,1,,,,,ライスバレー,0
1254,6010705003530,新規,0,2023-08-24,2023-08-24,一般社団法人グローバルウェルネスビューティー協会,,その他の設立登記法人,東京都,品川区,西品川３丁目２１番８号インザガーデン２０１,,13,109,1410033,,,,,,,2023-08-24,1,,,,,グローバルウェルネスビューティーキョウカイ,0
1255,6010801034272,新規,0,2023-08-24,2023-08-24,株式会社ジーエスピー,,株式会社,東京都,大田区,東矢口１丁目１８番１２号ＢｅｌＣｕｏｒｅ３０１,,13,111,1460094,,,,,,,2023-08-24,1,,,,,ジーエスピー,0
1256,6010903008414,新規,0,2023-08-24,2023-08-24,ベインズプロパティマネジメント合同会社,,合同会社,東京都,世田谷区,中町２丁目６―１８―３０７,,13,112,1580091,,,,,,,2023-08-24,1,,,,,ベインズプロパティマネジメント,0
1262,6011001156345,新規,0,2023-08-24,2023-08-24,株式会社ｉｎｆｉｎｉｔ８,,株式会社,東京都,目黒区,五本木３丁目３２番２号,,13,110,1530053,,,,,,,2023-08-24,1,,,,,インフィニテート,0
1263,6011001156510,新規,0,2023-08-24,2023-08-24,株式会社Ｃｏｎｆｉｄｏ,,株式会社,東京都,渋谷区,神宮前６丁目２３番４号桑野ビル２階,,13,113,1500001,,,,,,,2023-08-24,1,,,,,コンフィード,0
1264,6011001156543,新規,0,2023-08-24,2023-08-24,株式会社ｕｎｉ,,株式会社,東京都,渋谷区,渋谷１丁目１番３号アミーホール３Ｆ,,13,113,1500002,,,,,,,2023-08-24,1,,,,,ウニ,0
1275,6011703003571,新規,0,2023-08-24,2023-08-24,合同会社ＭｏＮｏ語り,,合同会社,東京都,江戸川区,本一色３丁目２１－１２,,13,123,1330044,,,,,,,2023-08-24,1,,,,,モノガタリ,0
1277,6012401040915,新規,0,2023-08-24,2023-08-24,Ｂａｒｃｏ株式会社,,株式会社,東京都,調布市,入間町１丁目２７－１１７,,13,208,1820004,,,,,,,2023-08-24,1,,,,,バルコ,0
1290,6020003024435,新規,0,2023-08-24,2023-08-24,合同会社ｃｅｒｉｓｅ,,合同会社,神奈川県,横浜市西区,浅間町１丁目４－３ウィザードビル４０２,,14,103,2200072,,,,,,,2023-08-24,1,,,,,スリーズ,0
1291,6020003024443,新規,0,2023-08-24,2023-08-24,合同会社Ｈｏｍｅｐｏｒｔ,,合同会社,神奈川県,横浜市中区,太田町１丁目１０番地,,14,104,2310011,,,,,,,2023-08-24,1,,,,,ホームポート,0
1299,6021003013477,新規,0,2023-08-24,2023-08-24,合同会社アンク,,合同会社,神奈川県,逗子市,逗子６丁目７番１号,,14,208,2490006,,,,,,,2023-08-24,1,,,,,アンク,0
1300,6021003013493,新規,0,2023-08-24,2023-08-24,合同会社４Ｄ　Ｐｏｃｋｅｔ．,,合同会社,神奈川県,茅ヶ崎市,室田１丁目１０番２９号ＤＯＬＣＥ湘南２０１,,14,207,2530018,,,,,,,2023-08-24,1,,,,,フォーディーポケット,0
1306,6030001155339,新規,0,2023-08-24,2023-08-24,ＭＫＡ株式会社,,株式会社,埼玉県,蕨市,南町１丁目２４番２号,,11,223,3350003,,,,,,,2023-08-24,1,,,,,エムケーエー,0
1307,6030001155470,新規,0,2023-08-24,2023-08-24,ＭＯＮＪＹＵ株式会社,,株式会社,埼玉県,比企郡川島町,大字上伊草７２１番地,,11,346,3500152,,,,,,,2023-08-24,1,,,,,モンジュ,0
1316,6040001129787,新規,0,2023-08-24,2023-08-24,株式会社ｃｏｚｙ,,株式会社,千葉県,松戸市,稔台１丁目１番地の８,,12,207,2702231,,,,,,,2023-08-24,1,,,,,コージー,0
1317,6040001129804,新規,0,2023-08-24,2023-08-24,株式会社ＢａｓｅＣａｆｅ,,株式会社,千葉県,松戸市,小根本１５９－３アムール豊友１０４,,12,207,2710073,,,,,,,2023-08-24,1,,,,,ベースカフェ,0
1326,6040003023179,新規,0,2023-08-24,2023-08-24,合同会社ＳＴＤＣ,,合同会社,千葉県,松戸市,西馬橋相川町五丁目６番,,12,207,2710045,,,,,,,2023-08-24,1,,,,,エスティディシー,0
1330,6050003007742,新規,0,2023-08-24,2023-08-24,合同会社ヒメユリ,,合同会社,茨城県,つくば市,筑穂１丁目１－１３,,08,220,3003257,,,,,,,2023-08-24,1,,,,,ヒメユリ,0
1349,6120001257514,新規,0,2023-08-24,2023-08-24,株式会社エイト,,株式会社,大阪府,大阪市北区,本庄東２丁目１０番１２号３階,,27,127,5310074,,,,,,,2023-08-24,1,,,,,エイト,0
1350,6120001257571,新規,0,2023-08-24,2023-08-24,ＮＩＮＥ　Ｏ　ＮＩＮＥ株式会社,,株式会社,大阪府,大阪市港区,南市岡３丁目１０－２グリシーヌ弁天町６０３号室,,27,107,5520011,,,,,,,2023-08-24,1,,,,,ナインオーナイン,0
1351,6120001257605,新規,0,2023-08-24,2023-08-24,ＪＳＯ株式会社,,株式会社,大阪府,大阪市城東区,今福南４丁目６番５８号２Ｆ－Ｂ,,27,118,5360003,,,,,,,2023-08-24,1,,,,,ジェイエスオー,0
1352,6120001257621,新規,0,2023-08-24,2023-08-24,株式会社ＴＯＭプランニング,,株式会社,大阪府,大阪市中央区,難波千日前６番５号音楽ビル６０３号室,,27,128,5420075,,,,,,,2023-08-24,1,,,,,トムプランニング,0
1354,6120003024771,新規,0,2023-08-24,2023-08-24,合同会社ファイブ,,合同会社,大阪府,大阪市中央区,心斎橋筋２丁目３番２号クインズコートビル本館５０３,,27,128,5420085,,,,,,,2023-08-24,1,,,,,ファイブ,0
1357,6120101068101,新規,0,2023-08-24,2023-08-24,株式会社ｆａｒｅｆｌｙ,,株式会社,大阪府,堺市南区,檜尾１４１４番地,,27,145,5900142,,,,,,,2023-08-24,1,,,,,フェアフライ,0
1359,6120901047980,新規,0,2023-08-24,2023-08-24,株式会社Ｋｉｎｆｉｎｉｔｅ,,株式会社,大阪府,吹田市,新芦屋上１番８号,00131653,27,205,5650804,,,,,,,2023-08-24,1,,,,,キンフィニット,0
1361,6120903004798,新規,0,2023-08-24,2023-08-24,合同会社どんぐり訪問看護ステーション,,合同会社,大阪府,吹田市,千里丘中４０番１２号,,27,205,5650812,,,,,,,2023-08-24,1,,,,,ドングリホウモンカンゴステーション,0
1364,6130001074982,新規,0,2023-08-24,2023-08-24,Ｃｙｃｌｅ　Ｋｙｏｔｏ株式会社,,株式会社,京都府,舞鶴市,字堂奥３５２－１,,26,202,6250044,,,,,,,2023-08-24,1,,,,,サイクルキョウト,0
1374,6140001131361,新規,0,2023-08-24,2023-08-24,株式会社ライノ,,株式会社,兵庫県,神戸市中央区,北長狭通６丁目４番１９号フルール北長狭５階,,28,110,6500012,,,,,,,2023-08-24,1,,,,,ライノ,0
1378,6140005026715,新規,0,2023-08-24,2023-08-24,一般社団法人健康スポーツ総合ラボ,,その他の設立登記法人,兵庫県,神戸市東灘区,向洋町中６丁目９番地,,28,101,6580032,,,,,,,2023-08-24,1,,,,,ケンコウスポーツソウゴウラボ,0
1380,6170005007035,新規,0,2023-08-24,2023-08-24,特定非営利活動法人子育て支援パレット・ココ,,その他の設立登記法人,和歌山県,海南市,下津町塩津３８９番地,,30,202,6490131,,,,,,,2023-08-24,1,,,,,コソダテシエンパレットココ,0
1401,6230003002072,新規,0,2023-08-24,2023-08-24,合同会社出町譲,,合同会社,富山県,高岡市,大手町１１番３７号,,16,202,9330039,,,,,,,2023-08-24,1,,,,,デマチユズル,0
1403,6240001062035,新規,0,2023-08-24,2023-08-24,マーテックスホールディングス株式会社,,株式会社,広島県,広島市中区,吉島町１２番１８号,,34,101,7300821,,,,,,,2023-08-24,1,,,,,マーテックスホールディングス,0
1405,6240005015633,新規,0,2023-08-24,2023-08-24,特定非営利活動法人Ｃｏｎｅｘｉｏｎ,,その他の設立登記法人,広島県,広島市西区,楠木町１丁目９番１５号,,34,104,7330002,,,,,,,2023-08-24,1,,,,,コネクション,0
1407,6250001020256,新規,0,2023-08-24,2023-08-24,株式会社Ｒｅｐｌａｃｅ,,株式会社,山口県,山口市,桜畠４丁目２番３３号,,35,203,7530021,,,,,,,2023-08-24,1,,,,,リプレイス,0
1421,6290001102769,新規,0,2023-08-24,2023-08-24,ＮＣワークス株式会社,,株式会社,福岡県,福岡市博多区,千代４丁目２９番３０号,,40,132,8120044,,,,,,,2023-08-24,1,,,,,エヌシーワークス,0
1429,6310001018574,新規,0,2023-08-24,2023-08-24,株式会社ニーナマリアージュ,,株式会社,長崎県,長崎市,坂本１丁目６番５号,,42,201,8528102,,,,,,,2023-08-24,1,,,,,ニーナマリアージュ,0
1433,6330001031179,新規,0,2023-08-24,2023-08-24,株式会社まるゆう工務店,,株式会社,熊本県,熊本市東区,石原３丁目１番１２号,,43,102,8618046,,,,,,,2023-08-24,1,,,,,マルユウコウムテン,0
1438,6340001025840,新規,0,2023-08-24,2023-08-24,株式会社くれよんライフ,,株式会社,鹿児島県,霧島市,国分府中６２番地１,,46,218,8994345,,,,,,,2023-08-24,1,,,,,クレヨンライフ,0
1441,6340005009641,新規,0,2023-08-24,2023-08-24,一般社団法人ｅｎｓｏｋｕ,,その他の設立登記法人,鹿児島県,出水市,高尾野町江内７５８５番地１,,46,208,8990407,,,,,,,2023-08-24,1,,,,,エンソク,0
1447,6370001050332,新規,0,2023-08-24,2023-08-24,株式会社Ａ．Ｆ．Ｙ,,株式会社,宮城県,仙台市青葉区,国分町２丁目９番６号１階４号室,,04,101,9800803,,,,,,,2023-08-24,1,,,,,エーエフワイ,0
1455,6410001013581,新規,0,2023-08-24,2023-08-24,秋田ビル管理株式会社,,株式会社,秋田県,秋田市,大町５丁目２番３２号,,05,201,0100921,,,,,,,2023-08-24,1,,,,,アキタビルカンリ,0
1458,6430001089835,新規,0,2023-08-24,2023-08-24,株式会社ＴＯＰＳ,,株式会社,北海道,札幌市白石区,本通１８丁目北１番１号第五栄輪ビル,,01,104,0030027,,,,,,,2023-08-24,1,,,,,トップス,0
1459,6430001089843,新規,0,2023-08-24,2023-08-24,粉雪科技株式会社,,株式会社,北海道,札幌市中央区,南二十一条西６丁目１番１１号,,01,101,0640921,,,,,,,2023-08-24,1,,,,,コナユキカギ,0
1460,6430003015376,新規,0,2023-08-24,2023-08-24,合同会社Ｄ‐ＣＯＮＮＥＣＴ,,合同会社,北海道,札幌市中央区,南三条西１２丁目３２５－９ＳＡＫＵＲＡ－Ｗ１２　１Ｆ,,01,101,0600063,,,,,,,2023-08-24,1,,,,,ディーコネクト,0
1470,6700150119241,新規,0,2023-08-24,2023-08-24,Ｙｉｗｕ　Ｘｉｎｙａｏ　ｔｒａｄｅ　ｃｏ．，ＬＴＤ,,外国会社等,,,,,,,,Ｃｈｏｕｊｉａｎｇ　Ｓｔｒｅｅｔ　Ｙａｎｇｙｉ　Ｃｕｎ　Ｂｕｉｌｄｉｎｇ　１６　Ｕｎｉｔ　１　Ｙｉ　ｗｕ　ｃｉｔｙ　Ｚｈｅ　ｊａｉｎｇ　ｐｒｏｖｉｎｃｅ　Ｃｈｉｎａ,,,,,,2023-08-24,1,,,,,イウシンヤオトレードカンパニーリミテッド,0
1479,7010001237939,新規,0,2023-08-24,2023-08-24,Ｅｌｅｖａｎｄｉ　Ｊａｐａｎ株式会社,,株式会社,東京都,中央区,八重洲１丁目４番１６号東京建物八重洲ビル３階,,13,102,1030028,,,,,,,2023-08-24,1,,,,,エレバンディジャパン,0
1480,7010001237955,新規,0,2023-08-24,2023-08-24,Ｎｏｖａ　Ｓｈｉｅｌｄ株式会社,,株式会社,東京都,中央区,八重洲２丁目１番１号,,13,102,1040028,,,,,,,2023-08-24,1,,,,,ノバシールド,0
1484,7010003041455,新規,0,2023-08-24,2023-08-24,エスティファンドシックス合同会社,,合同会社,東京都,千代田区,丸の内３丁目１番１号東京共同会計事務所内,,13,101,1000005,,,,,,,2023-08-24,1,,,,,エスティファンドシックス,0
1485,7010003041496,新規,0,2023-08-24,2023-08-24,合同会社ＹＭ４,,合同会社,東京都,中央区,銀座１丁目２２番１１号銀座大竹ビジデンス２Ｆ,,13,102,1040061,,,,,,,2023-08-24,1,,,,,ワイエムフォー,0
1492,7010401176588,新規,0,2023-08-24,2023-08-24,キョウト・ミヤヅ２株式会社,,株式会社,東京都,港区,西新橋１丁目２番９号メンターキャピタル税理士法人内,,13,103,1050003,,,,,,,2023-08-24,1,,,,,キョウトミヤヅトゥー,0
1493,7010401176596,新規,0,2023-08-24,2023-08-24,トットリ・ダイセン２株式会社,,株式会社,東京都,港区,西新橋１丁目２番９号メンターキャピタル税理士法人内,,13,103,1050003,,,,,,,2023-08-24,1,,,,,トットリダイセントゥー,0
1494,7010403030776,新規,0,2023-08-24,2023-08-24,合同会社ＳＡＭＵＲＡＩ１９,,合同会社,東京都,港区,赤坂２丁目１０番５号税理士法人赤坂国際会計事務所内,,13,103,1070052,,,,,,,2023-08-24,1,,,,,サムライナインティーン,0
1495,7010403030792,新規,0,2023-08-24,2023-08-24,合同会社Ａ,,合同会社,東京都,港区,高輪４丁目２４－２７,,13,103,1080074,,,,,,,2023-08-24,1,,,,,エー,0
1496,7010405022441,新規,0,2023-08-24,2023-08-24,ジー・エイ・ワン・レジデンス・フォー特定目的会社,,その他の設立登記法人,東京都,港区,六本木１丁目９番１０号アークヒルズ仙石山森タワー４０階,,13,103,1060032,,,,,,,2023-08-24,1,,,,,ジーエイワンレジデンスフォー,0
1500,7010501050940,新規,0,2023-08-24,2023-08-24,株式会社ＨＣ,,株式会社,東京都,台東区,東浅草１丁目８番１０号１５０２号室,,13,106,1110025,,,,,,,2023-08-24,1,,,,,エイチシー,0
1501,7010601063669,新規,0,2023-08-24,2023-08-24,豊盛株式会社,,株式会社,東京都,墨田区,向島２丁目１４番９－２０２号,,13,107,1310033,,,,,,,2023-08-24,1,,,,,トヨモリ,0
1503,7010603010314,新規,0,2023-08-24,2023-08-24,おおとも企画合同会社,,合同会社,東京都,墨田区,江東橋５丁目５番１３号,,13,107,1300022,,,,,,,2023-08-24,1,,,,,オオトモキカク,0
1505,7010801034239,新規,0,2023-08-24,2023-08-24,未来星株式会社,,株式会社,東京都,大田区,東海３丁目７番３号,,13,111,1430001,,,,,,,2023-08-24,1,,,,,ミライセイ,0
1507,7010901053683,新規,0,2023-08-24,2023-08-24,株式会社Ｐｉｎｅ　Ｖｉｌｌａｇｅ,,株式会社,東京都,世田谷区,太子堂４丁目３２番１０号,,13,112,1540004,,,,,,,2023-08-24,1,,,,,パインヴィレッジ,0
1508,7010901053691,新規,0,2023-08-24,2023-08-24,大学発スタートアップサポート株式会社,,株式会社,東京都,世田谷区,奥沢７丁目２４番１５号,,13,112,1580083,,,,,,,2023-08-24,1,,,,,ダイガクハツスタートアップサポート,0
1512,7011001156492,新規,0,2023-08-24,2023-08-24,ＰｅｔｓＣａｒｅ株式会社,,株式会社,東京都,渋谷区,神宮前６丁目２３番４号桑野ビル２階,,13,113,1500001,,,,,,,2023-08-24,1,,,,,ペッツケア,0
1513,7011001156501,新規,0,2023-08-24,2023-08-24,株式会社Ｎｏｎｍａ,,株式会社,東京都,渋谷区,渋谷１丁目２０－１１,,13,113,1500002,,,,,,,2023-08-24,1,,,,,ノンマ,0
1514,7011001156559,新規,0,2023-08-24,2023-08-24,富石株式会社,,株式会社,東京都,渋谷区,代々木２丁目２３番１号ニューステイトメナー６４６号,,13,113,1510053,,,,,,,2023-08-24,1,,,,,トミセキ,0
1515,7011001156567,新規,0,2023-08-24,2023-08-24,株式会社エバーグリーンアセットマネジメント,,株式会社,東京都,渋谷区,宇田川町２８番３号,,13,113,1500042,,,,,,,2023-08-24,1,,,,,エバーグリーンアセットマネジメント,0
1521,7011203004152,新規,0,2023-08-24,2023-08-24,合同会社ＵＮＩＯＮ,,合同会社,東京都,中野区,本町１丁目５番５号本町マンション１１１号室,,13,114,1640012,,,,,,,2023-08-24,1,,,,,ユニオン,0
1523,7011401025388,新規,0,2023-08-24,2023-08-24,ヴォルテクス株式会社,,株式会社,東京都,板橋区,南常盤台１丁目５番１２号４０２,,13,119,1740072,,,,,,,2023-08-24,1,,,,,ヴォルテクス,0
1526,7011403004092,新規,0,2023-08-24,2023-08-24,合同会社Ｄｏｋａｍ,,合同会社,東京都,板橋区,板橋２丁目４９番５号ラシクラス板橋３０１,,13,119,1730004,,,,,,,2023-08-24,1,,,,,ドゥーカム,0
1537,7012403006137,新規,0,2023-08-24,2023-08-24,Ｉｓｌｅ合同会社,,合同会社,東京都,調布市,飛田給２丁目１４－６－１０４号,,13,208,1820036,,,,,,,2023-08-24,1,,,,,アイル,0
1538,7012701017810,新規,0,2023-08-24,2023-08-24,ＴＲＹ株式会社,,株式会社,東京都,西東京市,ひばりが丘北３丁目３番２２号エトワールビル４階,,13,229,2020002,,,,,,,2023-08-24,1,,,,,トライ,0
1548,7020001153128,新規,0,2023-08-24,2023-08-24,ｄａｗｎ１６１株式会社,,株式会社,神奈川県,横浜市西区,浅間町１丁目４番地３ウィザードビル４０２,,14,103,2200072,,,,,,,2023-08-24,1,,,,,ドーンイチロクイチ,0
1549,7020001153144,新規,0,2023-08-24,2023-08-24,株式会社みやま,,株式会社,神奈川県,川崎市川崎区,小田３丁目９番１２号,,14,131,2100846,,,,,,,2023-08-24,1,,,,,ミヤマ,0
1552,7020003024418,新規,0,2023-08-24,2023-08-24,ルーツ合同会社,,合同会社,神奈川県,川崎市川崎区,東田町８パレール川崎レッド館３Ｆ・Ｃ－２３,,14,131,2100005,,,,,,,2023-08-24,1,,,,,ルーツ,0
1554,7021003013501,新規,0,2023-08-24,2023-08-24,合同会社ニコハート,,合同会社,神奈川県,藤沢市,鵠沼石上２丁目５番１号,,14,205,2510025,,,,,,,2023-08-24,1,,,,,ニコハート,0
1558,7030001155354,新規,0,2023-08-24,2023-08-24,サイブロステック株式会社,,株式会社,埼玉県,川口市,幸町２丁目８番３３－８０３号川口パークホームズプライムコート,,11,203,3320016,,,,,,,2023-08-24,1,,,,,サイブロステック,0
1559,7030001155552,新規,0,2023-08-24,2023-08-24,株式会社３ＤＨＥＸＡ,,株式会社,埼玉県,川越市,大字南田島８０１番地２,,11,201,3500027,,,,,,,2023-08-24,1,,,,,スリーディーヘキサ,0
1560,7030001155560,新規,0,2023-08-24,2023-08-24,株式会社シンライ,,株式会社,埼玉県,春日部市,大沼４丁目６５－３１０,,11,214,3440038,,,,,,,2023-08-24,1,,,,,シンライ,0
1561,7030001155585,新規,0,2023-08-24,2023-08-24,協縁株式会社,,株式会社,埼玉県,所沢市,西新井町８番１２号モンシャトー小畑２０６,,11,208,3590035,,,,,,,2023-08-24,1,,,,,キョウエン,0
1574,7040001129803,新規,0,2023-08-24,2023-08-24,株式会社ＨＡＮｉＹ,,株式会社,千葉県,山武郡芝山町,新井田４４５番地２９７,,12,409,2891625,,,,,,,2023-08-24,1,,,,,ハニィ,0
1577,7040003023153,新規,0,2023-08-24,2023-08-24,ＮＩＨＯＮ　ＨＡＲＲＹ　ＩＮＴＥＲＮＡＴＩＯＮＡＬ合同会社,,合同会社,千葉県,柏市,手賀１３４４番地４,,12,217,2701465,,,,,,,2023-08-24,1,,,,,ニホンハリーインターナショナル,0
1584,7080001025817,新規,0,2023-08-24,2023-08-24,株式会社矢口,,株式会社,静岡県,静岡市葵区,西瀬名町１３番２０号,,22,101,4200914,,,,,,,2023-08-24,1,,,,,ヤグチ,0
1587,7080401026679,新規,0,2023-08-24,2023-08-24,ＰＲＩＦＥ　ＪＡＰＡＮ株式会社,,株式会社,静岡県,浜松市西区,馬郡町２２２０番地２号,,22,133,4310203,,,,,,,2023-08-24,1,,,,,プライフジャパン,0
1594,7110005016981,新規,0,2023-08-24,2023-08-24,一般社団法人あさひ,,その他の設立登記法人,新潟県,新潟市中央区,大島１１５番地１ディアコートステラ２１２号,,15,103,9500953,,,,,,,2023-08-24,1,,,,,アサヒ,0
1604,7120001257430,新規,0,2023-08-24,2023-08-24,株式会社ＮＥＸＵＳ　ＯＮＥ,,株式会社,大阪府,大阪市西区,新町１丁目１４番４３号日宝ニュー立売堀ビル３階,,27,106,5500013,,,,,,,2023-08-24,1,,,,,ネクサスワン,0
1605,7120001257554,新規,0,2023-08-24,2023-08-24,株式会社ＢＩＮ,,株式会社,大阪府,大阪市北区,梅田１丁目２番２号大阪駅前第２ビル１２－１２,,27,127,5300001,,,,,,,2023-08-24,1,,,,,ビーアイエヌ,0
1606,7120001257570,新規,0,2023-08-24,2023-08-24,株式会社ウィルスケッチ,,株式会社,大阪府,大阪市大正区,泉尾２丁目２１番８号,,27,108,5510031,,,,,,,2023-08-24,1,,,,,ウィルスケッチ,0
1607,7120001257579,新規,0,2023-08-24,2023-08-24,株式会社オールヒューマン,,株式会社,大阪府,大阪市福島区,福島７丁目１４番１８号,,27,103,5530003,,,,,,,2023-08-24,1,,,,,オールヒューマン,0
1608,7120001257595,新規,0,2023-08-24,2023-08-24,ＣＨＯＴＯＹＯ株式会社,,株式会社,大阪府,大阪市中央区,高津３丁目８－１９スターレジデンス黒門５０１号室,,27,128,5420072,,,,,,,2023-08-24,1,,,,,チョウトヨ,0
1609,7120001257604,新規,0,2023-08-24,2023-08-24,永成自動化設備株式会社,,株式会社,大阪府,大阪市阿倍野区,阪南町５丁目５番１６－４０３号,,27,119,5450021,,,,,,,2023-08-24,1,,,,,エイセイジドウカセツビ,0
1610,7120001257620,新規,0,2023-08-24,2023-08-24,株式会社トラストメイン,,株式会社,大阪府,大阪市東淀川区,東中島１丁目１７番５号２１７号室,,27,114,5330033,,,,,,,2023-08-24,1,,,,,トラストメイン,0
1612,7120003024762,新規,0,2023-08-24,2023-08-24,合同会社ＰＪ,,合同会社,大阪府,大阪市中央区,玉造１丁目２４番１８－６０１号,,27,128,5400004,,,,,,,2023-08-24,1,,,,,ピージェイ,0
1617,7122001037291,新規,0,2023-08-24,2023-08-24,株式会社Ｘａｎｔｈｅ,,株式会社,大阪府,東大阪市,高井田本通３丁目３番２４号,,27,227,5770066,,,,,,,2023-08-24,1,,,,,サンシー,0
1618,7122001037309,新規,0,2023-08-24,2023-08-24,株式会社クリエイト,,株式会社,大阪府,八尾市,亀井町１丁目２番５号,,27,212,5810065,,,,,,,2023-08-24,1,,,,,クリエイト,0
1621,7130001075014,新規,0,2023-08-24,2023-08-24,株式会社ＰＬＡＴＩＣＡ,,株式会社,京都府,京都市北区,西賀茂井ノ口町１１０番地２,,26,101,6038804,,,,,,,2023-08-24,1,,,,,プラティカ,0
1627,7140001131336,新規,0,2023-08-24,2023-08-24,株式会社ＬａＬａ,,株式会社,兵庫県,神戸市東灘区,御影中町６丁目２－１１,,28,101,6580054,,,,,,,2023-08-24,1,,,,,ララ,0
1628,7140001131352,新規,0,2023-08-24,2023-08-24,株式会社ＫＳＨプラスファーマ,,株式会社,兵庫県,川西市,東畦野２丁目２番７－２０３号,,28,217,6660117,,,,,,,2023-08-24,1,,,,,ケーエスエイチプラスファーマ,0
1633,7170001017747,新規,0,2023-08-24,2023-08-24,株式会社石垣,,株式会社,和歌山県,和歌山市,塩屋３丁目４番５号,,30,201,6410054,,,,,,,2023-08-24,1,,,,,イシガキ,0
1645,7180301037741,新規,0,2023-08-24,2023-08-24,株式会社ＩＮＦＩＮＩＴＹＳＹＳＴＥＭ,,株式会社,愛知県,豊橋市,南栄町字空池６４番地,,23,201,4418107,,,,,,,2023-08-24,1,,,,,インフィニティシステム,0
1650,7200001041628,新規,0,2023-08-24,2023-08-24,セキュリティワークス株式会社,,株式会社,岐阜県,各務原市,三井町４丁目２６２番地,,21,213,5040941,,,,,,,2023-08-24,1,,,,,セキュリティワークス,0
1654,7240003006261,新規,0,2023-08-24,2023-08-24,ＴＥＴＴＯＲＹ合同会社,,合同会社,広島県,広島市安佐南区,高取北１丁目１７－３３,,34,105,7310144,,,,,,,2023-08-24,1,,,,,テットリー,0
1660,7290003014268,新規,0,2023-08-24,2023-08-24,合同会社サンライズ,,合同会社,福岡県,福岡市東区,香椎浜３丁目３番５－１２１９号モントーレ香椎浜サーフタワーセンターコート,,40,131,8130016,,,,,,,2023-08-24,1,,,,,サンライズ,0
1661,7290003014276,新規,0,2023-08-24,2023-08-24,合同会社マリナパーキング,,合同会社,福岡県,福岡市西区,姪の浜１丁目１７番２５号,,40,135,8190002,,,,,,,2023-08-24,1,,,,,マリナパーキング,0
1662,7290005019117,新規,0,2023-08-24,2023-08-24,一般財団法人八咫烏財団,,その他の設立登記法人,福岡県,福岡市博多区,山王１丁目１２－２４－１０２,,40,132,8120015,,,,,,,2023-08-24,1,,,,,ヤタガラスザイダン,0
1668,7350001018529,新規,0,2023-08-24,2023-08-24,エコホームリメイク株式会社,,株式会社,宮崎県,日向市,大字幸脇１１４２番地,,45,206,8891112,,,,,,,2023-08-24,1,,,,,エコホームリメイク,0
1674,7380001033938,新規,0,2023-08-24,2023-08-24,株式会社ＡＸＩＳ,,株式会社,福島県,福島市,渡利字舟場５６番地の１－３Ｆ,,07,201,9608141,,,,,,,2023-08-24,1,,,,,アクシス,0
1682,7400003003135,新規,0,2023-08-24,2023-08-24,合同会社ＢＲＩＧＨＴＥＮ　ＵＰ　ＬＩＦＥ,,合同会社,岩手県,盛岡市,上田２丁目２１番５号藤田貸店舗２号,,03,201,0200066,,,,,,,2023-08-24,1,,,,,ブライトンアップライフ,0
1685,7430001089834,新規,0,2023-08-24,2023-08-24,株式会社未来建窓,,株式会社,北海道,札幌市中央区,南一条西１６丁目１番地３２３春野ビル３Ｆ,,01,101,0600061,,,,,,,2023-08-24,1,,,,,ミライケンソウ,0
1686,7430001089842,新規,0,2023-08-24,2023-08-24,株式会社晋洋,,株式会社,北海道,札幌市中央区,北十一条西２１丁目１番１号マルワビル２Ｆ,,01,101,0600011,,,,,,,2023-08-24,1,,,,,シンヨウ,0
1689,7430003015359,新規,0,2023-08-24,2023-08-24,合同会社大登,,合同会社,北海道,余市郡余市町,黒川町１１１４番地２３,,01,408,0460003,,,,,,,2023-08-24,1,,,,,,0
1690,7430003015375,新規,0,2023-08-24,2023-08-24,ＦＲＫＴ合同会社,,合同会社,北海道,札幌市豊平区,旭町１丁目１－２４九条橋ハイホーム２０５号室,,01,105,0620911,,,,,,,2023-08-24,1,,,,,フラクト,0
1693,7500003003075,新規,0,2023-08-24,2023-08-24,合同会社Ｒｅｄｅｆｙ,,合同会社,愛媛県,松山市,土居田町１９０,,38,201,7900056,,,,,,,2023-08-24,1,,,,,,0
1694,7700150119240,新規,0,2023-08-24,2023-08-24,Ｓｈｅｎｚｈｅｎ　ＥＩＲＣ　Ｅｌｅｃｔｒｏｎｉｃ　Ｔｅｃｈｎｏｌｏｇｙ　Ｃｏ．，Ｌｔｄ,,外国会社等,,,,,,,,ＲＭ１９１７　ＳｈｉＪｉＨｕｉ　Ｓｑｕａｒｅ　Ｂｕｓｉｎｅｓｓ　Ａｐａｒｔｍｅｎｔ　Ｓｈｅｎｎａｎ　Ｒｏａｄ　３０１８，ＦｕＴｉａｎ　Ｄｉｓｔｒｉｃｔ　ｓｈｅｎｚｈｅｎ　Ｇｕａｎｇｄｏｎｇ　Ｃｈｉｎａ,,,,,,2023-08-24,1,,,,,シンセンエルイカエレクトロニックテクノロジーカンパニーリミテッド,0
1695,7700150119249,新規,0,2023-08-24,2023-08-24,Ｔａｉｚｈｏｕ　Ｙｉ　Ｌｅ　Ｐｅｔ　Ｐｒｏｄｕｃｔｓ　ＣＯ．，ＬＴＤ,,外国会社等,,,,,,,,ｚｈｅｊｉａｎｇ　ｓｈｅｎｇ　ｔａｉｚｈｏｕｓｈｉ　ｈｕａｎｇｙａｎｑｕ　ｂｅｉｃｈｅｎｇ　ｊｉｅｄａｏ　ｚｈａｎｄｉａｎｃｕｎ（ｙｕａｎ　ｚｈｕｌｉｎｇ　ｃｕｎ　２８ｈａｏ）３１８０２０　ＣＮ,,,,,,2023-08-24,1,,,,,タイゾォウイレペットプロダクツカンパニーリミテッド,0
1699,8010001237938,新規,0,2023-08-24,2023-08-24,トランス・ワゴン・ジャパン株式会社,,株式会社,東京都,千代田区,麹町１丁目３番地７,,13,101,1020083,,,,,,,2023-08-24,1,,,,,トランスワゴンジャパン,0
1700,8010001237962,新規,0,2023-08-24,2023-08-24,株式会社ｕｎｂｏｕｎｄ,,株式会社,東京都,中央区,日本橋室町１丁目１１番１２号日本橋水野ビル７階,,13,102,1030022,,,,,,,2023-08-24,1,,,,,アンバウンド,0
1708,8010005037129,新規,0,2023-08-24,2023-08-24,一般社団法人つくるとつなぐのまなび,,その他の設立登記法人,東京都,千代田区,平河町１丁目７番１９号,,13,101,1020093,,,,,,,2023-08-24,1,,,,,ツクルトツナグノマナビ,0
1715,8010401176579,新規,0,2023-08-24,2023-08-24,ナガノ・ナガノ２株式会社,,株式会社,東京都,港区,西新橋１丁目２番９号メンターキャピタル税理士法人内,,13,103,1050003,,,,,,,2023-08-24,1,,,,,ナガノナガノトゥー,0
1716,8010401176587,新規,0,2023-08-24,2023-08-24,シガ・ナガハマ２株式会社,,株式会社,東京都,港区,西新橋１丁目２番９号メンターキャピタル税理士法人内,,13,103,1050003,,,,,,,2023-08-24,1,,,,,シガナガハマトゥー,0
1717,8010401176595,新規,0,2023-08-24,2023-08-24,イシカワ・ノト２株式会社,,株式会社,東京都,港区,西新橋１丁目２番９号メンターキャピタル税理士法人内,,13,103,1050003,,,,,,,2023-08-24,1,,,,,イシカワノトトゥー,0
1718,8010401176711,新規,0,2023-08-24,2023-08-24,モース株式会社,,株式会社,東京都,港区,白金台２丁目２６番９号,,13,103,1080071,,,,,,,2023-08-24,1,,,,,モース,0
1719,8010401176728,新規,0,2023-08-24,2023-08-24,株式会社サイバースリー,,株式会社,東京都,港区,芝浦３丁目１７－１１天翔田町ビル４階４１０号室,,13,103,1080023,,,,,,,2023-08-24,1,,,,,サイバースリー,0
1720,8010401176760,新規,0,2023-08-24,2023-08-24,株式会社ＲＥＬＩＧＨＴ,,株式会社,東京都,港区,北青山１丁目３番１号アールキューブ青山３階,,13,103,1070061,,,,,,,2023-08-24,1,,,,,リライト,0
1724,8010403030767,新規,0,2023-08-24,2023-08-24,合同会社ＯＭＧ,,合同会社,東京都,港区,三田４丁目１２番１２号,,13,103,1080073,,,,,,,2023-08-24,1,,,,,オーエムジー,0
1725,8010403030783,新規,0,2023-08-24,2023-08-24,Ｂｒｒｒ　Ｃａｐｉｔａｌ合同会社,,合同会社,東京都,港区,虎ノ門４丁目１－４０江戸見坂森ビル３階,,13,103,1050001,,,,,,,2023-08-24,1,,,,,ブルルルキャピタル,0
1726,8010405022440,新規,0,2023-08-24,2023-08-24,ジー・エイ・ワン・レジデンス・スリー特定目的会社,,その他の設立登記法人,東京都,港区,六本木１丁目９番１０号アークヒルズ仙石山森タワー４０階,,13,103,1060032,,,,,,,2023-08-24,1,,,,,ジーエイワンレジデンススリー,0
1731,8010901053682,新規,0,2023-08-24,2023-08-24,株式会社キクマル,,株式会社,東京都,世田谷区,北沢２丁目４０番１６号ラ・プリエール５０２号室,,13,112,1550031,,,,,,,2023-08-24,1,,,,,キクマル,0
1737,8011001156500,新規,0,2023-08-24,2023-08-24,株式会社タナベ経営研究所,,株式会社,東京都,渋谷区,道玄坂１丁目１０番８号渋谷道玄坂東急ビル２Ｆ－Ｃ,,13,113,1500043,,,,,,,2023-08-24,1,,,,,タナベケイエイケンキュウジョ,0
1738,8011001156541,新規,0,2023-08-24,2023-08-24,株式会社ＵＬＴＩＭＡＴＥ９,,株式会社,東京都,渋谷区,神宮前６丁目２８番９号東武ビル３０６,,13,113,1500001,,,,,,,2023-08-24,1,,,,,アルティメットナイン,0
1739,8011001156558,新規,0,2023-08-24,2023-08-24,ＵＰ　ＴＥＭＰＯ株式会社,,株式会社,東京都,渋谷区,円山町５番５号Ｎａｖｉ渋谷Ｖ３階,,13,113,1500044,,,,,,,2023-08-24,1,,,,,アップテンポ,0
1740,8011003017394,新規,0,2023-08-24,2023-08-24,合同会社シャイニーサンクス,,合同会社,東京都,渋谷区,本町１丁目１４番２号ＬＥＧＡＬＡＮＤ初台３０３,,13,113,1510071,,,,,,,2023-08-24,1,,,,,シャイニーサンクス,0
1741,8011003017428,新規,0,2023-08-24,2023-08-24,合同会社ものさしＬａｂ,,合同会社,東京都,目黒区,中央町２丁目２８番１３号ＭＫビル２０９,,13,110,1520001,,,,,,,2023-08-24,1,,,,,モノサシラボ,0
1745,8011101104111,新規,0,2023-08-24,2023-08-24,株式会社ダックングループ,,株式会社,東京都,新宿区,百人町１丁目１２番２０号,,13,104,1690073,,,,,,,2023-08-24,1,,,,,ダックングループ,0
1750,8011501029692,新規,0,2023-08-24,2023-08-24,Ａｋａｒｉ　Ｎｅｔｗｏｒｋｓ株式会社,,株式会社,東京都,北区,浮間１丁目７－２３兆豊浮間ビル５０２号室,,13,117,1150051,,,,,,,2023-08-24,1,,,,,アカリネットワークス,0
1751,8011801042940,新規,0,2023-08-24,2023-08-24,株式会社ムクノイエ建築工房,,株式会社,東京都,足立区,南花畑５丁目２３－１,,13,121,1210062,,,,,,,2023-08-24,1,,,,,ムクノイエケンチクコウボウ,0
1757,8012403006136,新規,0,2023-08-24,2023-08-24,合同会社紫音,,合同会社,東京都,多摩市,関戸２丁目４０－２２一宮ビル２階,,13,224,2060011,,,,,,,2023-08-24,1,,,,,シオン,0
1762,8013301051249,新規,0,2023-08-24,2023-08-24,株式会社Ｔ．Ｅ,,株式会社,東京都,豊島区,巣鴨５丁目３４番９号,,13,116,1700002,,,,,,,2023-08-24,1,,,,,ティードットイー,0
1769,8020001153127,新規,0,2023-08-24,2023-08-24,株式会社Ｄｅｅｐ　Ａｕｔｏｍａｔｅ,,株式会社,神奈川県,横浜市西区,北幸１丁目１１番１号水信ビル７階,,14,103,2200004,,,,,,,2023-08-24,1,,,,,ディープオートメイト,0
1770,8020001153151,新規,0,2023-08-24,2023-08-24,株式会社アシスト,,株式会社,神奈川県,横浜市戸塚区,平戸２丁目３６番２２号,,14,110,2440802,,,,,,,2023-08-24,1,,,,,アシスト,0
1781,8030001155378,新規,0,2023-08-24,2023-08-24,ＭＵＲＡＴＥＣ株式会社,,株式会社,埼玉県,さいたま市大宮区,櫛引町１丁目５４３番地２,,11,103,3300851,,,,,,,2023-08-24,1,,,,,ムラテック,0
1792,8040001129777,新規,0,2023-08-24,2023-08-24,株式会社Ｉｎｔｅｇｒｉｔｙ,,株式会社,千葉県,山武郡横芝光町,宮川１１９１６番地７フェリオラヴィータ１０４,,12,410,2891727,,,,,,,2023-08-24,1,,,,,インテグリティ,0
1800,8040003023160,新規,0,2023-08-24,2023-08-24,ＶＩＥＮ　ＤＯＮＧ　ＧＲＯＵＰ合同会社,,合同会社,千葉県,成田市,土屋４１１番地１渡辺ビル,,12,211,2860021,,,,,,,2023-08-24,1,,,,,ヴィエンドングループ,0
1801,8040003023169,新規,0,2023-08-24,2023-08-24,合同会社ＳＷＡＧ　ＧＯＬＦ,,合同会社,千葉県,四街道市,吉岡４０８－４クレセントムーンＡ１０１,,12,228,2840032,,,,,,,2023-08-24,1,,,,,スワッグゴルフ,0
1816,8100001036711,新規,0,2023-08-24,2023-08-24,株式会社２０１,,株式会社,長野県,長野市,若穂綿内８９４０－５,,20,201,3810101,,,,,,,2023-08-24,1,,,,,ニマルイチ,0
1831,8120001257537,新規,0,2023-08-24,2023-08-24,山上之城株式会社,,株式会社,大阪府,大阪市大正区,三軒家西３丁目４番１６号中山ビル１０２１,,27,108,5510001,,,,,,,2023-08-24,1,,,,,ヤマウエノジョウ,0
1832,8120001257561,新規,0,2023-08-24,2023-08-24,大阪文化会館株式会社,,株式会社,大阪府,大阪市港区,海岸通１丁目５番１０号,,27,107,5520022,,,,,,,2023-08-24,1,,,,,オオサカブンカカイカン,0
1833,8120001257578,新規,0,2023-08-24,2023-08-24,ＮＯＡＨ株式会社,,株式会社,大阪府,大阪市中央区,日本橋２丁目２１番１０号,,27,128,5420073,,,,,,,2023-08-24,1,,,,,ノア,0
1834,8120001257586,新規,0,2023-08-24,2023-08-24,ＷＩＴＨ株式会社,,株式会社,大阪府,大阪市中央区,上本町西５丁目２番７号Ｍｉｄｏ上本町ビル５０２,,27,128,5420062,,,,,,,2023-08-24,1,,,,,ウイズ,0
1835,8120001257594,新規,0,2023-08-24,2023-08-24,株式会社Ｈｙｓｔｅｒｉｃ　Ｍｏｏｎ,,株式会社,大阪府,大阪市住吉区,帝塚山中４丁目８番１２号,,27,120,5580053,,,,,,,2023-08-24,1,,,,,ヒステリックムーン,0
1836,8120001257611,新規,0,2023-08-24,2023-08-24,京阪神輸送株式会社,,株式会社,大阪府,大阪市北区,大淀南１丁目１番１８－３１１号,,27,127,5310075,,,,,,,2023-08-24,1,,,,,ケイハンシンユソウ,0
1843,8120901047979,新規,0,2023-08-24,2023-08-24,ＩＵライフワークス株式会社,,株式会社,大阪府,茨木市,小川町１番３号,,27,211,5670873,,,,,,,2023-08-24,1,,,,,アイユーライフワークス,0
1845,8120903004796,新規,0,2023-08-24,2023-08-24,合同会社ｇｅｎｔｌｅ　ｔａｓｔｅ,,合同会社,大阪府,吹田市,昭和町３５番６－１号,,27,205,5640028,,,,,,,2023-08-24,1,,,,,ジェントルテイスト,0
1860,8180001157681,新規,0,2023-08-24,2023-08-24,株式会社和ロボ,,株式会社,愛知県,名古屋市東区,芳野１丁目１８番１３号モデッサ芳野Ｓ２０１号室,,23,102,4610027,,,,,,,2023-08-24,1,,,,,ワロボ,0
1870,8180301037740,新規,0,2023-08-24,2023-08-24,株式会社王子実業,,株式会社,愛知県,豊田市,河合町５丁目５番地７,,23,211,4710824,,,,,,,2023-08-24,1,,,,,オウジジツギョウ,0
1875,8190005011859,新規,0,2023-08-24,2023-08-24,一般社団法人日本コミュニティスクールバス協会,,その他の設立登記法人,三重県,津市,雲出本郷町２０８６番地２,,24,201,5140304,,,,,,,2023-08-24,1,,,,,ニホンコミュニティスクールバスキョウカイ,0
1882,8230001019983,新規,0,2023-08-24,2023-08-24,株式会社イン・ケアメント,,株式会社,富山県,富山市,西荒屋５４６番地スカイビル１０２号,,16,201,9398251,,,,,,,2023-08-24,1,,,,,インケアメント,0
1888,8240001062033,新規,0,2023-08-24,2023-08-24,ワエル株式会社,,株式会社,広島県,広島市中区,幟町１３－１５,,34,101,7300016,,,,,,,2023-08-24,1,,,,,ワエル,0
1891,8260001038254,新規,0,2023-08-24,2023-08-24,株式会社ＴＥＮＴＨ,,株式会社,岡山県,倉敷市,西中新田３２０番地６Ｋ’ｓハウスＢ－１０２,,33,202,7100833,,,,,,,2023-08-24,1,,,,,テンス,0
1900,8290005019132,新規,0,2023-08-24,2023-08-24,一般社団法人ボディパーカッション教育振興会,,その他の設立登記法人,福岡県,久留米市,江戸屋敷２丁目４番３３－１号,,40,203,8300059,,,,,,,2023-08-24,1,,,,,ボディパーカッションキョウイクシンコウカイ,0
1902,8290801029805,新規,0,2023-08-24,2023-08-24,株式会社ＳＥＡ,,株式会社,福岡県,北九州市小倉南区,徳吉東５丁目１４番８－１０１号,,40,107,8030277,,,,,,,2023-08-24,1,,,,,エスイーエー,0
1927,8430003015374,新規,0,2023-08-24,2023-08-24,合同会社一０八抹茶茶廊,,合同会社,北海道,札幌市中央区,南七条西１２丁目３番１１号,,01,101,0640807,,,,,,,2023-08-24,1,,,,,イチマルハチマッチャサロウ,0
1929,8450003002379,新規,0,2023-08-24,2023-08-24,合同会社東海林親子会社,,合同会社,北海道,旭川市,東鷹栖三条３丁目６３６番地の２１９,,01,204,0718103,,,,,,,2023-08-24,1,,,,,ショウジオヤコカイシャ,0
1931,8500001025153,新規,0,2023-08-24,2023-08-24,株式会社ほんだ動物病院,,株式会社,愛媛県,松山市,余戸西６丁目８番３１号,,38,201,7900046,,,,,,,2023-08-24,1,,,,,ホンダドウブツビョウイン,0
1932,8700150119025,新規,0,2023-08-24,2023-08-16,三水りんご生産組合,,その他,長野県,上水内郡飯綱町,大字倉井７５１番地,,20,590,3891204,,,,,,,2023-08-16,1,,,,,サミズリンゴセイサンクミアイ,0
1933,8700150119248,新規,0,2023-08-24,2023-08-24,Ｓｈｅｎｚｈｅｎ　Ｈｏｎｇｓｕｎ　Ｕｎｉｏｎ　Ｔｅｃｈｎｏｌｏｇｙ　Ｃｏ．，Ｌｔｄ,,外国会社等,,,,,,,,Ｒｏｏｍ　５０１，Ｂｕｉｌｄｉｎｇ　３４，Ｓｈｉｙａｎ　Ｎｅｗ　Ｖｉｌｌａｇｅ，Ｌａｎｇｘｉｎ　Ｃｏｍｍｕｎｉｔｙ，Ｓｈｉｙａｎ　Ｓｔｒｅｅｔ，Ｂａｏａｎ　Ｄｉｓｔｒｉｃｔ，Ｓｈｅｎｚｈｅｎ，Ｇｕａｎｇｄｏｎｇ，５１８０００　ＣＮ,,,,,,2023-08-24,1,,,,,シンセンホンサンユニオンテクノロジーカンパニーリミテッド,0
1946,9010001237961,新規,0,2023-08-24,2023-08-24,ＩＴＯＷＡＲＥ株式会社,,株式会社,東京都,千代田区,神田三崎町３丁目５－９,,13,101,1010061,,,,,,,2023-08-24,1,,,,,イトウェア,0
1948,9010003041494,新規,0,2023-08-24,2023-08-24,合同会社ＢＲｉＤＧＥ,,合同会社,東京都,文京区,千駄木２丁目４８番１２号,,13,105,1130022,,,,,,,2023-08-24,1,,,,,ブリッジ,0
1955,9010401176578,新規,0,2023-08-24,2023-08-24,ワカヤマ・ミナベ２株式会社,,株式会社,東京都,港区,西新橋１丁目２番９号メンターキャピタル税理士法人内,,13,103,1050003,,,,,,,2023-08-24,1,,,,,ワカヤマミナベトゥー,0
1956,9010401176586,新規,0,2023-08-24,2023-08-24,ミエ・イセ２株式会社,,株式会社,東京都,港区,西新橋１丁目２番９号メンターキャピタル税理士法人内,,13,103,1050003,,,,,,,2023-08-24,1,,,,,ミエイセトゥー,0
1957,9010401176594,新規,0,2023-08-24,2023-08-24,ヤマナシ・ヤツガタケ２株式会社,,株式会社,東京都,港区,西新橋１丁目２番９号メンターキャピタル税理士法人内,,13,103,1050003,,,,,,,2023-08-24,1,,,,,ヤマナシヤツガタケトゥー,0
1958,9010401176727,新規,0,2023-08-24,2023-08-24,犬猫総合製薬株式会社,,株式会社,東京都,港区,南青山３丁目１番３６号青山丸竹ビル６Ｆ,,13,103,1070062,,,,,,,2023-08-24,1,,,,,イヌネコソウゴウセイヤク,0
1969,9010701044749,新規,0,2023-08-24,2023-08-24,株式会社ＴＣＳ,,株式会社,東京都,品川区,荏原４丁目１３番７号,,13,109,1420063,,,,,,,2023-08-24,1,,,,,ティシーエス,0
1974,9011001156482,新規,0,2023-08-24,2023-08-24,株式会社代官山天風,,株式会社,東京都,渋谷区,代官山町１番４号,,13,113,1500034,,,,,,,2023-08-24,1,,,,,ダイカンヤマテンプウ,0
1975,9011001156490,新規,0,2023-08-24,2023-08-24,株式会社カラヤブリ,,株式会社,東京都,渋谷区,渋谷２丁目１９番１５号宮益坂ビルディング６０９,,13,113,1500002,,,,,,,2023-08-24,1,,,,,,0
1976,9011001156499,新規,0,2023-08-24,2023-08-24,門株式会社,,株式会社,東京都,渋谷区,千駄ヶ谷２丁目３２－３外苑キリンビル１階,,13,113,1510051,,,,,,,2023-08-24,1,,,,,モン,0
1978,9011101103590,新規,0,2023-08-24,2023-08-24,株式会社Ａ‐ＮＹＡ,,株式会社,東京都,新宿区,新宿７丁目２０番６号１階,,13,104,1600022,,,,,,,2023-08-24,1,,,,,アーニャ,0
1984,9011401025378,新規,0,2023-08-24,2023-08-24,千禾株式会社,,株式会社,東京都,板橋区,成増３丁目４７－７グランデーム成増１０１号室,,13,119,1750094,,,,,,,2023-08-24,1,,,,,センカ,0
1985,9011401025386,新規,0,2023-08-24,2023-08-24,龍泰企業株式会社,,株式会社,東京都,板橋区,大谷口２丁目１７番７号－２０１号,,13,119,1730035,,,,,,,2023-08-24,1,,,,,リュウタイキギョウ,0
1988,9011505002570,新規,0,2023-08-24,2023-08-24,一般社団法人全日本プレイマット協会,,その他の設立登記法人,東京都,北区,赤羽２丁目５３番６号エトワール３０１号,,13,117,1150045,,,,,,,2023-08-24,1,,,,,ゼンニホンプレイマットキョウカイ,0
1990,9012301013571,新規,0,2023-08-24,2023-08-24,株式会社ＫＡＭＯＡ,,株式会社,東京都,町田市,小山ヶ丘４丁目７番地２マイキャッスル多摩境フィール４２６,,13,209,1940215,,,,,,,2023-08-24,1,,,,,カモア,0
1995,9012801022576,新規,0,2023-08-24,2023-08-24,株式会社宏国,,株式会社,東京都,立川市,錦町２丁目２番１９号,,13,202,1900022,,,,,,,2023-08-24,1,,,,,ヒロクニ,0
2005,9020001153142,新規,0,2023-08-24,2023-08-24,株式会社ミカサメンテナンス,,株式会社,神奈川県,川崎市川崎区,駅前本町１１番地２川崎フロンティアビル４階,,14,131,2100007,,,,,,,2023-08-24,1,,,,,ミカサメンテナンス,0
2008,9020003024424,新規,0,2023-08-24,2023-08-24,合同会社Ａ．Ｉ．Ｗ,,合同会社,神奈川県,横浜市青葉区,あざみ野２丁目１－１，Ｂ１,,14,117,2250011,,,,,,,2023-08-24,1,,,,,エーアイダブル,0
2009,9020003024449,新規,0,2023-08-24,2023-08-24,ＷＨＴ合同会社,,合同会社,神奈川県,横浜市西区,北幸１丁目１１番１号水信ビル７階,,14,103,2200004,,,,,,,2023-08-24,1,,,,,ダブリューエイチティー,0
2012,9021001080013,新規,0,2023-08-24,2023-08-24,株式会社ファーストゴー,,株式会社,神奈川県,足柄下郡箱根町,底倉５５８番地,,14,382,2500403,,,,,,,2023-08-24,1,,,,,ファーストゴー,0
2015,9021003013466,新規,0,2023-08-24,2023-08-24,合同会社星舟庵,,合同会社,神奈川県,足柄下郡湯河原町,吉浜１９１１－７,,14,384,2590312,,,,,,,2023-08-24,1,,,,,セイシュウアン,0
2016,9021003013490,新規,0,2023-08-24,2023-08-24,日高合同会社,00131650,合同会社,神奈川県,鎌倉市,台５丁目８番７０号,,14,204,2470061,,,,,,,2023-08-24,1,,,,,ヒダカ,0
2025,9030001155419,新規,0,2023-08-24,2023-08-24,エスケイエンジニアリング株式会社,,株式会社,埼玉県,さいたま市大宮区,上小町１４５番地２,,11,103,3300855,,,,,,,2023-08-24,1,,,,,エスケイエンジニアリング,0
2026,9030001155559,新規,0,2023-08-24,2023-08-24,株式会社ＭＫ３,,株式会社,埼玉県,三郷市,半田９７３番地１エムズサニーガーデン１０５,,11,237,3410012,,,,,,,2023-08-24,1,,,,,エムケイスリー,0
2027,9030001155666,新規,0,2023-08-24,2023-08-24,株式会社ｇｒｅｅｎ,,株式会社,埼玉県,入間市,大字上藤沢４０７番地２－４０２,,11,225,3580013,,,,,,,2023-08-24,1,,,,,グリーン,0
2037,9040003023168,新規,0,2023-08-24,2023-08-24,ＴＭ　Ａｃｃｏｕｎｔｉｎｇ合同会社,,合同会社,千葉県,松戸市,松戸新田３番地の９,,12,207,2702241,,,,,,,2023-08-24,1,,,,,ティエムアカウンティング,0
2044,9080401026677,新規,0,2023-08-24,2023-08-24,株式会社ＯＪホールディングス,,株式会社,静岡県,磐田市,東名１１０番地,,22,211,4380806,,,,,,,2023-08-24,1,,,,,オージェイホールディングス,0
2055,9120001257379,新規,0,2023-08-24,2023-08-24,一チ一チ株式会社,,株式会社,大阪府,大阪市浪速区,大国２丁目１０－８Ｙ・ＢＬＤ６０２号室,,27,111,5560014,,,,,,,2023-08-24,1,,,,,イチチイチチ,0
2056,9120001257560,新規,0,2023-08-24,2023-08-24,かんさい桜不動産株式会社,,株式会社,大阪府,大阪市中央区,谷町１丁目７番３号４階,,27,128,5400012,,,,,,,2023-08-24,1,,,,,カンサイサクラフドウサン,0
2057,9120003024769,新規,0,2023-08-24,2023-08-24,択宏商事合同会社,,合同会社,大阪府,大阪市港区,市岡元町１丁目６－１１フレンドリー一番館３０１号室,,27,107,5520002,,,,,,,2023-08-24,1,,,,,タクコウショウジ,0
2058,9120101068098,新規,0,2023-08-24,2023-08-24,株式会社Ｌｉｎｋｉｎｇ,,株式会社,大阪府,藤井寺市,恵美坂２丁目３番１号,,27,226,5830036,,,,,,,2023-08-24,1,,,,,リンキング,0
2074,9140001131375,新規,0,2023-08-24,2023-08-24,ＨＩＫＯＨＡＮ株式会社,,株式会社,兵庫県,西宮市,下大市東町１９番２４号,,28,204,6638004,,,,,,,2023-08-24,1,,,,,ヒコハン,0
2082,9160003002969,新規,0,2023-08-24,2023-08-24,合同会社和,,合同会社,滋賀県,彦根市,薩摩町１２０番地１,00131651,25,202,5211147,,,,,,,2023-08-24,1,,,,,ナゴミ,0
2089,9180301037731,新規,0,2023-08-24,2023-08-24,株式会社彩田,,株式会社,愛知県,北設楽郡設楽町,津具字行人原８番地５,,23,561,4412601,,,,,,,2023-08-24,1,,,,,サイタ,0
2090,9190001030688,新規,0,2023-08-24,2023-08-24,株式会社ｐｒｉｖａｔｅ　ｓｅｃｕｒｅ　ｂａｓｅ,,株式会社,三重県,津市,藤方９１６番地２,,24,201,5140815,,,,,,,2023-08-24,1,,,,,プライベートセキュアベース,0
2091,9190003004418,新規,0,2023-08-24,2023-08-24,合同会社Ｒｔｈｒｅｅ,,合同会社,三重県,松阪市,殿町１４６７番地３３,,24,204,5150073,,,,,,,2023-08-24,1,,,,,アールスリー,0
2092,9210001019431,新規,0,2023-08-24,2023-08-24,株式会社ＰＣＳ,,株式会社,福井県,小浜市,水取２丁目１番２６号,,18,204,9170093,,,,,,,2023-08-24,1,,,,,ピーシーエス,0
2101,9230001019982,新規,0,2023-08-24,2023-08-24,株式会社ＡＰＥＸ　ＬＡＢＯ,,株式会社,富山県,富山市,上飯野５番地８,,16,201,9300827,,,,,,,2023-08-24,1,,,,,アペックスラボ,0
2106,9240001062024,新規,0,2023-08-24,2023-08-24,グロリア株式会社,,株式会社,広島県,広島市中区,八丁堀４番４号エイトバレー八丁堀５階,,34,101,7300013,,,,,,,2023-08-24,1,,,,,グロリア,0
2110,9260001038253,新規,0,2023-08-24,2023-08-24,株式会社Ｃｈｅｅｒｆｕｌ　ｓｍｉｌｅ,,株式会社,岡山県,倉敷市,阿知２丁目４番３－２０２号アルファステイツ倉敷駅前ＩＩ,00131647,33,202,7100055,,,,,,,2023-08-24,1,,,,,チアフルスマイル,0
2114,9290001102758,新規,0,2023-08-24,2023-08-24,Ｐａｐｙｒｕｓ　Ｉｎｔｅｌｌｉｇｅｎｃｅ株式会社,,株式会社,福岡県,福岡市中央区,天神２丁目３番１０号天神パインクレスト７１９号,,40,133,8100001,,,,,,,2023-08-24,1,,,,,パピルスインテリジェンス,0
2115,9290003014274,新規,0,2023-08-24,2023-08-24,合同会社ＳＫＹ,,合同会社,福岡県,糟屋郡宇美町,ゆりが丘５丁目１番３３号,,40,341,8112108,,,,,,,2023-08-24,1,,,,,スカイ,0
2126,9360001032460,新規,0,2023-08-24,2023-08-24,株式会社イーグルアイ・ジャパン,,株式会社,沖縄県,那覇市,銘苅３丁目１番３１号カーサ・ユーブリオ１－Ｂ号,,47,201,9000004,,,,,,,2023-08-24,1,,,,,イーグルアイジャパン,0
2146,9500001025152,新規,0,2023-08-24,2023-08-24,株式会社呼吸空間,,株式会社,愛媛県,松山市,此花町１番１６‐１号,,38,201,7900863,,,,,,,2023-08-24,1,,,,,コキュウクウカン,0
2147,9700150119239,新規,0,2023-08-24,2023-08-24,ｔａｉｙｕａｎ　ｌｉａｏｌｉｕｓｈａｎｇｍａｏ　ｙｏｕｘｉａｎｇｏｎｇｓｉ,,外国会社等,,,,,,,,Ｕｎｉｔ　６０４，Ｂｕｉｌｄｉｎｇ　２１，Ｂｌｏｃｋ　２，Ｙｏｎｇｋａｎｇ　Ｓｕｂ－ｄｉｓｔｒｉｃｔ，Ｐｒｏｘｉｍａｌ　Ｎｏｒｔｈ　Ｓｔｒｅｅｔ　Ｘｉａｏｄｉａｎ　Ｄｉｓｔｒｉｃｔ　Ｔａｉｙｕａｎ　Ｓｈａｎｘｉ　Ｐｒｏｖｉｎｃｅ　Ｃｈｉｎａ,,,,,,2023-08-24,1,,,,,タイゲンリャオリュシャンマオユウゲンコウシ,0
2148,9700150119247,新規,0,2023-08-24,2023-08-24,Ｓｈｅｎｚｈｅｎ　ＧｕａｎｇｔｏｎｇＹｉｄｏｎｇ　ＺｈａｏｍｉｎｇＫｅｊｉ　ｙｏｕｘｉａｎｇｏｎｇｓｉ,,外国会社等,,,,,,,,Ｒｏｏｍ　２１３，２１３　ＺｈｉｃｈｕａｎｇＬｖｇｕ　Ｂｕｉｌｄｉｎｇ　Ａ，６２　Ｐｕｘｉａ　Ｒｏａｄ，Ｌｉｕｙｕｅ　ｃｏｍｍｕｎｉｔｙ，Ｈｅｎｇｇａｎｇ　ｓｔｒｅｅｔ，Ｌｏｎｇｇａｎｇ　Ｄｉｓｔｒｉｃｔ，Ｓｈｅｎｚｈｅｎ，Ｇｕａｎｇｄｏｎｇ，５１８１７３　Ｃｈｉｎａ,,,,,,2023-08-24,1,,,,,シンセンカイトンイドンザオミンカギヨウシェンゴンスー,0
