sequenceNumber,corporateNumber,process,correct,updateDate,changeDate,name,nameImageId,kind,prefectureName,cityName,streetNumber,addressImageId,prefectureCode,cityCode,postCode,addressOutside,addressOutsideImageId,closeDate,closeCause,successorCorporateNumber,changeCause,assignmentDate,latest,enName,enPrefectureName,enCityName,enAddressOutside,furigana,hihyoji
6,1010001220826,新規,0,2021-09-03,2021-09-03,株式会社ｅｓｐｅｃｅ,,株式会社,東京都,千代田区,岩本町１丁目５番１０－８０２号,,13,101,1010032,,,,,,,2021-09-03,1,,,,,エスペス,0
11,1010005033902,新規,0,2021-09-03,2021-09-03,一般社団法人日本ライフパワー協会,,その他の設立登記法人,東京都,中央区,銀座１丁目２２番１１号銀座大竹ビジデンス２階,,13,102,1040061,,,,,,,2021-09-03,1,,,,,ニホンライフパワーキョウカイ,0
12,1010101014839,新規,0,2021-09-03,2021-09-03,ワイズセレクション株式会社,,株式会社,東京都,八王子市,鑓水２丁目８５番地４８,,13,201,1920375,,,,,,,2021-09-03,1,,,,,ワイズセレクション,0
15,1010401162478,新規,0,2021-09-03,2021-09-03,Ｌａｍｉｏｄｉｎｅ株式会社,,株式会社,東京都,港区,南青山２丁目２番８号ＤＦビル５階,,13,103,1070062,,,,,,,2021-09-03,1,,,,,ラミオダイン,0
16,1010401162528,新規,0,2021-09-03,2021-09-03,株式会社ＪＳ　Ｂｒｉｄｇｅ,,株式会社,東京都,港区,浜松町１丁目２０－１０,,13,103,1050013,,,,,,,2021-09-03,1,,,,,ジェイエスブリッジ,0
17,1010403026053,新規,0,2021-09-03,2021-09-03,合同会社キンパツヒゲメガネ,,合同会社,東京都,港区,南青山２丁目２番１５号,,13,103,1070062,,,,,,,2021-09-03,1,,,,,キンパツヒゲメガネ,0
19,1010505003264,新規,0,2021-09-03,2021-09-03,特定非営利活動法人ＩｏＴメディアラボラトリー,,その他の設立登記法人,東京都,台東区,上野７丁目１１番６号上野中央ビル２階,,13,106,1100005,,,,,,,2021-09-03,1,,,,,アイオーティーメディアラボラトリー,0
22,1010701041448,新規,0,2021-09-03,2021-09-03,ＨＡＦグループ株式会社,,株式会社,東京都,品川区,大井４丁目７番１号フレール’９５－１階,,13,109,1400014,,,,,,,2021-09-03,1,,,,,ハフグループ,0
23,1010701041464,新規,0,2021-09-03,2021-09-03,株式会社クロロラボ,,株式会社,東京都,品川区,西五反田２丁目１０－８ドルミ五反田ドゥメゾン３０７,,13,109,1410031,,,,,,,2021-09-03,1,,,,,クロロラボ,0
28,1010901049373,新規,0,2021-09-03,2021-09-03,達美株式会社,,株式会社,東京都,世田谷区,成城７丁目２０番２号,,13,112,1570066,,,,,,,2021-09-03,1,,,,,タツミ,0
29,1010901049381,新規,0,2021-09-03,2021-09-03,株式会社おさむ工房,,株式会社,東京都,世田谷区,代田２丁目１番６号,,13,112,1550033,,,,,,,2021-09-03,1,,,,,オサムコウボウ,0
34,1011001142523,新規,0,2021-09-03,2021-09-03,株式会社ＭＯＰＨＥＡＤ,,株式会社,東京都,渋谷区,広尾５丁目１４番２号,,13,113,1500012,,,,,,,2021-09-03,1,,,,,モップヘッド,0
35,1011003013276,新規,0,2021-09-03,2021-09-03,合同会社最終回,,合同会社,東京都,渋谷区,神宮前６丁目２３番４号桑野ビル２階,,13,113,1500001,,,,,,,2021-09-03,1,,,,,サイシュウカイ,0
36,1011003013284,新規,0,2021-09-03,2021-09-03,ＮＡＳＨ合同会社,,合同会社,東京都,渋谷区,神宮前６丁目２３番４号桑野ビル２階,,13,113,1500001,,,,,,,2021-09-03,1,,,,,ナッシュ,0
43,1011101096181,新規,0,2021-09-03,2021-09-03,株式会社すぐる不動産,,株式会社,東京都,新宿区,南元町２０番地３,,13,104,1600012,,,,,,,2021-09-03,1,,,,,スグルフドウサン,0
46,1011201023226,新規,0,2021-09-03,2021-09-03,株式会社ＥＸＣＥＥＤ　ＡＣＥ　ＨＯＬＤＩＮＧＳ,,株式会社,東京都,中野区,中野３丁目３３番１８号Ｆｉｅｒｔｅ中野１００５,,13,114,1640001,,,,,,,2021-09-03,1,,,,,エクシードエースホールディングス,0
50,1011601025367,新規,0,2021-09-03,2021-09-03,株式会社下島設計一級建築士事務所,,株式会社,東京都,練馬区,春日町２丁目２７番６号,,13,120,1790074,,,,,,,2021-09-03,1,,,,,シモジマセッケイイッキュウケンチクシジムショ,0
51,1011601025375,新規,0,2021-09-03,2021-09-03,株式会社Ｎｕｍｂｅｒ　ｎｉｎｅ,,株式会社,東京都,練馬区,大泉学園町７丁目７番２０号,,13,120,1780061,,,,,,,2021-09-03,1,,,,,ナンバーナイン,0
54,1011701024681,新規,0,2021-09-03,2021-09-03,ＰＭＲ株式会社,,株式会社,東京都,江戸川区,西小岩１丁目２０番７号フジビレッジ４０１,,13,123,1330057,,,,,,,2021-09-03,1,,,,,ピーエムアール,0
58,1011801039654,新規,0,2021-09-03,2021-09-03,株式会社天享,,株式会社,東京都,葛飾区,東金町５丁目２９番１－１０１号,,13,122,1250041,,,,,,,2021-09-03,1,,,,,テンキョウ,0
59,1011801039662,新規,0,2021-09-03,2021-09-03,Ｃｈｉｇｙｏ株式会社,,株式会社,東京都,足立区,梅田２丁目４番１７－２０２号,,13,121,1230851,,,,,,,2021-09-03,1,,,,,チギョウ,0
60,1011801039670,新規,0,2021-09-03,2021-09-03,株式会社インショルティング,,株式会社,東京都,足立区,千住５丁目１６番７号－１０３,,13,121,1200034,,,,,,,2021-09-03,1,,,,,インショルティング,0
61,1011805003103,新規,0,2021-09-03,2021-09-03,医療法人社団春晴会,,その他の設立登記法人,東京都,葛飾区,高砂２丁目４０番５号高砂駅前クリニックモール３０１号室,,13,122,1250054,,,,,,,2021-09-03,1,,,,,シュンセイカイ,0
62,1012301012688,新規,0,2021-09-03,2021-09-03,株式会社まめぞん,,株式会社,東京都,町田市,広袴４丁目２－１０,,13,209,1950056,,,,,,,2021-09-03,1,,,,,マメゾン,0
63,1012701016652,新規,0,2021-09-03,2021-09-03,株式会社ＫＯＲＵ,,株式会社,東京都,東村山市,本町２丁目２１番地３ファーストステージ東村山３０３,,13,213,1890014,,,,,,,2021-09-03,1,,,,,コル,0
64,1012703002304,新規,0,2021-09-03,2021-09-03,合同会社Ｈ．Ｐ．Ｒ,,合同会社,東京都,東久留米市,上の原１丁目３番６～９０９,,13,222,2030001,,,,,,,2021-09-03,1,,,,,エイチピーアール,0
67,1013101008711,新規,0,2021-09-03,2021-09-03,ＴＫＫロジスティクス株式会社,,株式会社,東京都,西多摩郡瑞穂町,大字箱根ケ崎９０８番地１,,13,303,1901221,,,,,,,2021-09-03,1,,,,,ティーケーケーロジスティクス,0
69,1013301047947,新規,0,2021-09-03,2021-09-03,ＳＨＡＫＩ株式会社,,株式会社,東京都,豊島区,池袋４丁目２９番１１－６０２号,,13,116,1710014,,,,,,,2021-09-03,1,,,,,シャキ,0
78,1020001142846,新規,0,2021-09-03,2021-09-03,株式会社ＭＡＧＩＳ,,株式会社,神奈川県,横浜市青葉区,美しが丘４丁目３２番２４号,,14,117,2250002,,,,,,,2021-09-03,1,,,,,マジス,0
79,1020001142854,新規,0,2021-09-03,2021-09-03,株式会社井山建総,,株式会社,神奈川県,横浜市神奈川区,菅田町７５８番地２,,14,102,2210864,,,,,,,2021-09-03,1,,,,,イヤマケンソウ,0
82,1020003020430,新規,0,2021-09-03,2021-09-03,合同会社コンサルティングタンク,,合同会社,神奈川県,横浜市鶴見区,佃野町１７番１７号,,14,101,2300061,,,,,,,2021-09-03,1,,,,,コンサルティングタンク,0
83,1020003020447,新規,0,2021-09-03,2021-09-03,モナクス合同会社,,合同会社,神奈川県,横浜市青葉区,市ケ尾町１０５６－６,,14,117,2250024,,,,,,,2021-09-03,1,,,,,モナクス,0
86,1021001073817,新規,0,2021-09-03,2021-09-03,株式会社スポーツジャンクション,,株式会社,神奈川県,座間市,東原１丁目１０番６３－４号,,14,216,2520004,,,,,,,2021-09-03,1,,,,,スポーツジャンクション,0
87,1021001073833,新規,0,2021-09-03,2021-09-03,株式会社園田電機,,株式会社,神奈川県,相模原市南区,相武台団地２丁目７番５－３６号,,14,153,2520323,,,,,,,2021-09-03,1,,,,,ソノダデンキ,0
101,1030001144156,新規,0,2021-09-03,2021-09-03,株式会社ＰＬＡＣＥ,,株式会社,埼玉県,富士見市,鶴馬２丁目１６番２０号,,11,235,3540021,,,,,,,2021-09-03,1,,,,,プレイス,0
102,1030001144172,新規,0,2021-09-03,2021-09-03,株式会社Ｍｙホームナビ,,株式会社,埼玉県,ふじみ野市,長宮１丁目４番地２２,,11,245,3560022,,,,,,,2021-09-03,1,,,,,マイホームナビ,0
114,1040001119999,新規,0,2021-09-03,2021-09-03,株式会社ＳＴＵＤＩＯ　ＮＥＭＯＴＯ一級建築士事務所,,株式会社,千葉県,香取市,佐原イ２２７番地２２グランパＡ,,12,236,2870003,,,,,,,2021-09-03,1,,,,,スタジオネモトイッキュウケンチクシジムショ,0
118,1050001049782,新規,0,2021-09-03,2021-09-03,株式会社ミューシグ,,株式会社,茨城県,水戸市,本町２丁目７番８号,,08,201,3100815,,,,,,,2021-09-03,1,,,,,ミューシグ,0
127,1070005009896,新規,0,2021-09-03,2021-09-03,特定非営利活動法人Ｍ・Ｔ・Ｒ　ＪＡＰＡＮいずみの会,,その他の設立登記法人,群馬県,邑楽郡大泉町,北小泉４丁目１１番１９号,,10,524,3700511,,,,,,,2021-09-03,1,,,,,エムティーアールジャパンイズミノカイ,0
130,1080001024411,新規,0,2021-09-03,2021-09-03,ＦＳアグリ株式会社,,株式会社,静岡県,牧之原市,坂部１６７３番地４,,22,226,4210412,,,,,,,2021-09-03,1,,,,,エフエスアグリ,0
131,1080001024428,新規,0,2021-09-03,2021-09-03,株式会社勇星商事,,株式会社,静岡県,静岡市駿河区,新川２丁目９番５－１号,,22,102,4228064,,,,,,,2021-09-03,1,,,,,ユウセイショウジ,0
133,1080403004358,新規,0,2021-09-03,2021-09-03,合同会社新コーポレーション,,合同会社,静岡県,掛川市,富部２６０番地の３,,22,213,4360224,,,,,,,2021-09-03,1,,,,,シンコーポレーション,0
135,1090005007428,新規,0,2021-09-03,2021-09-03,医療法人三井,,その他の設立登記法人,山梨県,北杜市,須玉町若神子３０９４番地,,19,209,4080112,,,,,,,2021-09-03,1,,,,,,0
137,1100001034572,新規,0,2021-09-03,2021-09-03,株式会社敬陽設備,,株式会社,長野県,安曇野市,穂高有明２７１番地１,,20,220,3998301,,,,,,,2021-09-03,1,,,,,ケイヨウセツビ,0
138,1100001034580,新規,0,2021-09-03,2021-09-03,株式会社ＮＫ　ＳＰＯＲＴＳ,,株式会社,長野県,上伊那郡宮田村,５２２０番地３,,20,388,3994301,,,,,,,2021-09-03,1,,,,,エヌケースポーツ,0
141,1100005012764,新規,0,2021-09-03,2021-09-03,一般社団法人ｌｉｎｋ,,その他の設立登記法人,長野県,諏訪郡下諏訪町,４８６２番地９ヴィクトリーハイツ一ツ浜１０１,,20,361,3930000,,,,,,,2021-09-03,1,,,,,リンク,0
143,1110001036015,新規,0,2021-09-03,2021-09-03,都市環境鑑定株式会社,,株式会社,新潟県,新潟市西区,小針３丁目３７番２５号こばりロード２０２,,15,107,9502022,,,,,,,2021-09-03,1,,,,,トシカンキョウカンテイ,0
161,1120001240111,新規,0,2021-09-03,2021-09-03,株式会社みらい共創パートナーズ,,株式会社,大阪府,枚方市,朝日丘町１１番５号,,27,210,5730026,,,,,,,2021-09-03,1,,,,,ミライキョウソウパートナーズ,0
162,1120001240136,新規,0,2021-09-03,2021-09-03,エスユー株式会社,,株式会社,大阪府,大阪市生野区,新今里４丁目６番２０号,,27,116,5440001,,,,,,,2021-09-03,1,,,,,エスユー,0
163,1120001240169,新規,0,2021-09-03,2021-09-03,株式会社ＢＩＯＲＬＤ,,株式会社,大阪府,大阪市中央区,東心斎橋１丁目１７番２７－３１０号,,27,128,5420083,,,,,,,2021-09-03,1,,,,,ビオールド,0
164,1120001240177,新規,0,2021-09-03,2021-09-03,株式会社秀吉工業,,株式会社,大阪府,大阪市平野区,長吉六反２丁目３番２号Ｂ－３,,27,126,5470012,,,,,,,2021-09-03,1,,,,,ヒデヨシコウギョウ,0
176,1120101064220,新規,0,2021-09-03,2021-09-03,株式会社ＥＣＯ－ＦＩＶＥ－ＪＡＰＡＮ,,株式会社,大阪府,堺市中区,土師町４丁１４番１号,,27,142,5998238,,,,,,,2021-09-03,1,,,,,エコファイブジャパン,0
177,1120101064261,新規,0,2021-09-03,2021-09-03,株式会社ＴＡＫＩＪＵＮ,,株式会社,大阪府,藤井寺市,藤井寺２丁目６番１２号,,27,226,5830024,,,,,,,2021-09-03,1,,,,,タキジュン,0
179,1120901044859,新規,0,2021-09-03,2021-09-03,株式会社ハタナカ,,株式会社,大阪府,高槻市,唐崎北１丁目２７番６号,,27,207,5690831,,,,,,,2021-09-03,1,,,,,ハタナカ,0
183,1122001035144,新規,0,2021-09-03,2021-09-03,株式会社セラフィー,,株式会社,大阪府,四條畷市,雁屋北町２１番１６号,,27,229,5750035,,,,,,,2021-09-03,1,,,,,セラフィー,0
187,1130001070037,新規,0,2021-09-03,2021-09-03,株式会社ＫＵＡ設計,,株式会社,京都府,京都市左京区,下鴨芝本町５７番地１０,,26,103,6060814,,,,,,,2021-09-03,1,,,,,ケーユーエーセッケイ,0
188,1130001070045,新規,0,2021-09-03,2021-09-03,Ｋ’ｓＮＥＸＴ株式会社,,株式会社,京都府,京都市山科区,上花山講田町４２番地２５,,26,110,6078463,,,,,,,2021-09-03,1,,,,,ケーズネクスト,0
189,1130001070053,新規,0,2021-09-03,2021-09-03,株式会社プラントシーズ,,株式会社,京都府,京都市上京区,河原町通丸太町下る伊勢屋町３９３番地,,26,102,6020873,,,,,,,2021-09-03,1,,,,,プラントシーズ,0
198,1140001122893,新規,0,2021-09-03,2021-09-03,株式会社カイト,,株式会社,兵庫県,尼崎市,栗山町２丁目１５番３２号,,28,202,6610013,,,,,,,2021-09-03,1,,,,,カイト,0
199,1140001122951,新規,0,2021-09-03,2021-09-03,株式会社ラージクマール,,株式会社,兵庫県,神戸市中央区,北長狭通３丁目２番１６号,,28,110,6500012,,,,,,,2021-09-03,1,,,,,ラージクマール,0
201,1140003016689,新規,0,2021-09-03,2021-09-03,合同会社新エネルギー開発Ｃ,,合同会社,兵庫県,丹波市,春日町野村２３５９番地４,,28,223,6694132,,,,,,,2021-09-03,1,,,,,シンエネルギーカイハツシー,0
207,1160001023594,新規,0,2021-09-03,2021-09-03,丸三建築工房株式会社,,株式会社,滋賀県,彦根市,京町１丁目３番１８号,,25,202,5220081,,,,,,,2021-09-03,1,,,,,マルサンケンチクコウボウ,0
208,1160001023611,新規,0,2021-09-03,2021-09-03,株式会社設計工房ＤＡＩ,,株式会社,滋賀県,近江八幡市,出町４２３番地１５,,25,204,5230892,,,,,,,2021-09-03,1,,,,,セッケイコウボウダイ,0
212,1170003001622,新規,0,2021-09-03,2021-09-03,合同会社きらきら,,合同会社,和歌山県,新宮市,新宮３６５１－１,,30,207,6470081,,,,,,,2021-09-03,1,,,,,キラキラ,0
218,1180001147656,新規,0,2021-09-03,2021-09-03,あいエンタープライズ株式会社,,株式会社,愛知県,名古屋市西区,牛島町６番１号名古屋ルーセントタワー４０階,,23,104,4510046,,,,,,,2021-09-03,1,,,,,アイエンタープライズ,0
219,1180001147664,新規,0,2021-09-03,2021-09-03,株式会社ワイズテール,,株式会社,愛知県,名古屋市緑区,乗鞍２丁目２３３番地の１,,23,114,4580004,,,,,,,2021-09-03,1,,,,,ワイズテール,0
220,1180001147722,新規,0,2021-09-03,2021-09-03,株式会社Ｓ．Ｉ．Ｅ,,株式会社,愛知県,名古屋市名東区,極楽３丁目５１番地,,23,115,4650053,,,,,,,2021-09-03,1,,,,,エスアイイー,0
225,1190001028649,新規,0,2021-09-03,2021-09-03,株式会社ヨシデン,,株式会社,三重県,員弁郡東員町,笹尾西３丁目１１番９,,24,324,5110231,,,,,,,2021-09-03,1,,,,,ヨシデン,0
226,1190001028657,新規,0,2021-09-03,2021-09-03,株式会社岡部電気工事,,株式会社,三重県,三重郡朝日町,大字小向７５９番地１,,24,343,5108102,,,,,,,2021-09-03,1,,,,,オカベデンキコウジ,0
229,1200001039074,新規,0,2021-09-03,2021-09-03,宮本建材株式会社,,株式会社,岐阜県,高山市,漆垣内町２４１番地２,,21,203,5060812,,,,,,,2021-09-03,1,,,,,ミヤモトケンザイ,0
230,1200001039090,新規,0,2021-09-03,2021-09-03,株式会社オートガレージフクタ,,株式会社,岐阜県,本巣市,宗慶３４４番地１,,21,218,5010462,,,,,,,2021-09-03,1,,,,,オートガレージフクタ,0
231,1200001039099,新規,0,2021-09-03,2021-09-03,株式会社水野自動車,,株式会社,岐阜県,可児市,久々利１１４９番地１,,21,214,5090224,,,,,,,2021-09-03,1,,,,,ミズノジドウシャ,0
232,1200003005297,新規,0,2021-09-03,2021-09-03,ヤマダ建装合同会社,,合同会社,岐阜県,関市,池尻９１３番地４４,,21,205,5013264,,,,,,,2021-09-03,1,,,,,ヤマダケンソウ,0
237,1220005008593,新規,0,2021-09-03,2021-09-03,税理士法人さいき会計,,その他の設立登記法人,石川県,金沢市,横川７丁目８４番地,,17,201,9218163,,,,,,,2021-09-03,1,,,,,サイキカイケイ,0
246,1240001058533,新規,0,2021-09-03,2021-09-03,株式会社情熱電商,,株式会社,広島県,福山市,神辺町字十三軒屋９８番地６,,34,207,7202105,,,,,,,2021-09-03,1,,,,,ジョウネツデンショウ,0
247,1240001058558,新規,0,2021-09-03,2021-09-03,株式会社Ｌａｙｏｕｔ,,株式会社,広島県,広島市西区,庚午北３丁目１番３号,,34,104,7330821,,,,,,,2021-09-03,1,,,,,レイアウト,0
251,1250001019096,新規,0,2021-09-03,2021-09-03,株式会社ユーテック,,株式会社,山口県,防府市,大字植松４３８番地１,,35,206,7470836,,,,,,,2021-09-03,1,,,,,ユーテック,0
252,1260001035927,新規,0,2021-09-03,2021-09-03,株式会社リヴィエール,,株式会社,岡山県,倉敷市,鶴形１丁目５番２２‐６０２号,,33,202,7100056,,,,,,,2021-09-03,1,,,,,リヴィエール,0
253,1260001035935,新規,0,2021-09-03,2021-09-03,十色工業株式会社,,株式会社,岡山県,倉敷市,笹沖１０２番地,,33,202,7100834,,,,,,,2021-09-03,1,,,,,トイロコウギョウ,0
254,1260001035943,新規,0,2021-09-03,2021-09-03,株式会社ｍｏｎｏｇ,,株式会社,岡山県,倉敷市,新田２３８５番地,,33,202,7100038,,,,,,,2021-09-03,1,,,,,モノグ,0
261,1270001008345,新規,0,2021-09-03,2021-09-03,株式会社清水商会,,株式会社,鳥取県,米子市,奈喜良２３７番地１,,31,202,6830022,,,,,,,2021-09-03,1,,,,,シミズショウカイ,0
266,1290001094433,新規,0,2021-09-03,2021-09-03,株式会社エストレージャスワークス,,株式会社,福岡県,福岡市中央区,輝国２丁目１３番６－２０３号ルシエール六本松,,40,133,8100032,,,,,,,2021-09-03,1,,,,,エストレージャスワークス,0
270,1290803003913,新規,0,2021-09-03,2021-09-03,合同会社Ｒａｉｎｂｏｗ,,合同会社,福岡県,築上郡築上町,大字越路１２０５番地１,,40,647,8290332,,,,,,,2021-09-03,1,,,,,レインボー,0
273,1310001017449,新規,0,2021-09-03,2021-09-03,株式会社カジワラ自動車,,株式会社,長崎県,南島原市,西有家町里坊３２６番地２,,42,214,8592211,,,,,,,2021-09-03,1,,,,,カジワラジドウシャ,0
277,1310003004156,新規,0,2021-09-03,2021-09-03,合同会社富士商事,,合同会社,長崎県,諫早市,飯盛町古場１４０７番地１,,42,204,8541121,,,,,,,2021-09-03,1,,,,,フジショウジ,0
286,1330001028964,新規,0,2021-09-03,2021-09-03,株式会社ｔｅａｍ　ＳＡＫＡＩ,,株式会社,熊本県,玉名市,横島町共栄９２番地,,43,206,8650073,,,,,,,2021-09-03,1,,,,,チームサカイ,0
287,1330001028972,新規,0,2021-09-03,2021-09-03,ＫアンドＳ株式会社,,株式会社,熊本県,阿蘇郡西原村,大字河原１９２４番地,,43,432,8612404,,,,,,,2021-09-03,1,,,,,ケイアンドエス,0
291,1360001029316,新規,0,2021-09-03,2021-09-03,株式会社チブルテックプロ,,株式会社,沖縄県,那覇市,真嘉比２丁目２９番１６号,,47,201,9020068,,,,,,,2021-09-03,1,,,,,チブルテックプロ,0
292,1360001029324,新規,0,2021-09-03,2021-09-03,崎山工務店株式会社,,株式会社,沖縄県,名護市,宮里７丁目９番３１号,,47,209,9050011,,,,,,,2021-09-03,1,,,,,サキヤマコウムテン,0
293,1360003011387,新規,0,2021-09-03,2021-09-03,合同会社ナカフク,,合同会社,沖縄県,那覇市,牧志３丁目５番９号,,47,201,9000013,,,,,,,2021-09-03,1,,,,,ナカフク,0
294,1360003011412,新規,0,2021-09-03,2021-09-03,合同会社Ｇ　Ｗａｔｅｒ　Ｔ,,合同会社,沖縄県,中頭郡西原町,字翁長５３９番地の１（アーバンパッレト翁長てだこ浦西駅５０２号）,,47,329,9030117,,,,,,,2021-09-03,1,,,,,ジーウォーターティー,0
297,1370001047556,新規,0,2021-09-03,2021-09-03,株式会社Ｊ－ＰＲＯ,,株式会社,宮城県,仙台市青葉区,中山４丁目２４番１０号,,04,101,9810952,,,,,,,2021-09-03,1,,,,,ジェイプロ,0
298,1370001047572,新規,0,2021-09-03,2021-09-03,株式会社ルーラルファーム,,株式会社,宮城県,石巻市,桃生町新田字東町１１番地,,04,202,9860321,,,,,,,2021-09-03,1,,,,,ルーラルファーム,0
302,1380001032160,新規,0,2021-09-03,2021-09-03,株式会社Ｌｅａｐ　Ｃｏｍｐａｎｙ,,株式会社,福島県,いわき市,中央台高久３丁目２３番地の９,,07,204,9708047,,,,,,,2021-09-03,1,,,,,リープカンパニー,0
315,1400001015591,新規,0,2021-09-03,2021-09-03,株式会社まいしん,,株式会社,岩手県,盛岡市,西見前１５地割１１３番地,,03,201,0200833,,,,,,,2021-09-03,1,,,,,マイシン,0
319,1410001012951,新規,0,2021-09-03,2021-09-03,Ｔｒｕｓｔ株式会社,,株式会社,秋田県,秋田市,仁井田字新中島１０７８番地２６,,05,201,0101423,,,,,,,2021-09-03,1,,,,,トラスト,0
320,1420001017578,新規,0,2021-09-03,2021-09-03,株式会社明青社,,株式会社,青森県,青森市,勝田１丁目１２番５号,,02,201,0300821,,,,,,,2021-09-03,1,,,,,メイセイシャ,0
333,1460003000859,新規,0,2021-09-03,2021-09-03,合同会社岡﨑電気,00124114,合同会社,北海道,釧路市,星が浦北２丁目１番３０号,,01,206,0840911,,,,,,,2021-09-03,1,,,,,オカザキデンキ,0
335,1470001018687,新規,0,2021-09-03,2021-09-03,Ｓ　ｊａｐａｎ株式会社,,株式会社,香川県,高松市,上天神町１５５番地１,,37,201,7618056,,,,,,,2021-09-03,1,,,,,エスジャパン,0
338,1470003002029,新規,0,2021-09-03,2021-09-03,合同会社ロサレス,,合同会社,香川県,高松市,三名町１５８番地１シャーメゾン空港通りＡ棟１０２,,37,201,7618083,,,,,,,2021-09-03,1,,,,,ロサレス,0
340,1490001009981,新規,0,2021-09-03,2021-09-03,株式会社Ｎａｇａｒｕｎａ,,株式会社,高知県,高知市,吉田町１番８号,,39,201,7800048,,,,,,,2021-09-03,1,,,,,ナーガルーナ,0
342,1500001023659,新規,0,2021-09-03,2021-09-03,株式会社ＡＲＩＭＯ,,株式会社,愛媛県,四国中央市,川之江町８８２番地２９,,38,213,7990101,,,,,,,2021-09-03,1,,,,,アリモ,0
353,2010001220800,新規,0,2021-09-03,2021-09-03,Ｙｕａｆａ株式会社,,株式会社,東京都,中央区,東日本橋２丁目２８－５－５０７,,13,102,1030004,,,,,,,2021-09-03,1,,,,,ユアファ,0
354,2010001220825,新規,0,2021-09-03,2021-09-03,株式会社千里工業,,株式会社,東京都,千代田区,飯田橋１丁目３番８号ＫＤビル２階,,13,101,1020072,,,,,,,2021-09-03,1,,,,,チサトコウギョウ,0
355,2010001220874,新規,0,2021-09-03,2021-09-03,株式会社永田町産業,,株式会社,東京都,千代田区,永田町２丁目７番９号,,13,101,1000014,,,,,,,2021-09-03,1,,,,,ナガタチョウサンギョウ,0
356,2010003035726,新規,0,2021-09-03,2021-09-03,楽住丸合同会社,,合同会社,東京都,千代田区,神田佐久間町４丁目１１番地４グレーシア千代田秋葉原７０３号,,13,101,1010025,,,,,,,2021-09-03,1,,,,,ガジュマル,0
357,2010005033901,新規,0,2021-09-03,2021-09-03,医療法人社団誠,,その他の設立登記法人,東京都,千代田区,大手町１丁目２番１号ＯｔｅｍａｃｈｉＯｎｅ地下１階,,13,101,1000004,,,,,,,2021-09-03,1,,,,,セイ,0
358,2010101014838,新規,0,2021-09-03,2021-09-03,株式会社ＴＪ加工サービス,,株式会社,東京都,八王子市,川口町１５４１番地３,,13,201,1930801,,,,,,,2021-09-03,1,,,,,ティージェイカコウサービス,0
360,2010401162460,新規,0,2021-09-03,2021-09-03,ピルボックス・アドテック株式会社,,株式会社,東京都,港区,北青山３丁目１１番７号ＡＯビル１３Ｆ,,13,103,1070061,,,,,,,2021-09-03,1,,,,,ピルボックスアドテック,0
361,2010401162469,新規,0,2021-09-03,2021-09-03,株式会社ドルフィン・バリュー・アップ４号,,株式会社,東京都,港区,芝公園１丁目１番１号住友不動産御成門タワー７階,,13,103,1050011,,,,,,,2021-09-03,1,,,,,ドルフィンバリューアップヨンゴウ,0
362,2010401162519,新規,0,2021-09-03,2021-09-03,ＰＲＤ　Ｔｈｅｒａｐｅｕｔｉｃｓ株式会社,,株式会社,東京都,港区,白金５丁目９番１号,,13,103,1080072,,,,,,,2021-09-03,1,,,,,ピーアールディーセラピューティクス,0
364,2010405020152,新規,0,2021-09-03,2021-09-03,税理士法人ダブルウッドパートナーズ,,その他の設立登記法人,東京都,港区,三田１丁目３番４０号,,13,103,1080073,,,,,,,2021-09-03,1,,,,,ダブルウッドパートナーズ,0
365,2010405020193,新規,0,2021-09-03,2021-09-03,ＭホールディングスＮ一般社団法人,,その他の設立登記法人,東京都,港区,元赤坂１丁目１番７号,,13,103,1070051,,,,,,,2021-09-03,1,,,,,エムホールディングスエヌ,0
371,2010701041463,新規,0,2021-09-03,2021-09-03,東京幹細胞培養センター株式会社,,株式会社,東京都,品川区,東五反田５丁目１２番１号,,13,109,1410022,,,,,,,2021-09-03,1,,,,,トウキョウカンサイボウバイヨウセンター,0
373,2010703005929,新規,0,2021-09-03,2021-09-03,エバーグリーン合同会社,,合同会社,東京都,品川区,南大井１丁目１１番１１号,,13,109,1400013,,,,,,,2021-09-03,1,,,,,エバーグリーン,0
379,2010901049380,新規,0,2021-09-03,2021-09-03,株式会社シンスパイア,,株式会社,東京都,世田谷区,上用賀３丁目１５番４号,,13,112,1580098,,,,,,,2021-09-03,1,,,,,シンスパイア,0
380,2010901049397,新規,0,2021-09-03,2021-09-03,株式会社ＷＴ,,株式会社,東京都,世田谷区,深沢４丁目２３－２３,,13,112,1580081,,,,,,,2021-09-03,1,,,,,ダブルティー,0
383,2010903006776,新規,0,2021-09-03,2021-09-03,アクティブエイジング合同会社,,合同会社,東京都,世田谷区,玉川２丁目７番３号コニファー二子玉川２Ｆ,,13,112,1580094,,,,,,,2021-09-03,1,,,,,アクティブエイジング,0
391,2011001142522,新規,0,2021-09-03,2021-09-03,株式会社ａｕｇ,,株式会社,東京都,渋谷区,神宮前６丁目２３－４桑野ビル２Ｆ,,13,113,1500001,,,,,,,2021-09-03,1,,,,,オーグ,0
392,2011001142555,新規,0,2021-09-03,2021-09-03,ＢＯＯＫ株式会社,,株式会社,東京都,渋谷区,恵比寿４丁目４－１５Ｂａｒｂｉｚｏｎ１０５－５Ｆ,,13,113,1500013,,,,,,,2021-09-03,1,,,,,ブック,0
395,2011003013283,新規,0,2021-09-03,2021-09-03,オフィスＳＨＩＭＩＺＵ合同会社,,合同会社,東京都,渋谷区,道玄坂２丁目３番１号,,13,113,1500043,,,,,,,2021-09-03,1,,,,,オフィスシミズ,0
405,2011601025374,新規,0,2021-09-03,2021-09-03,株式会社Ｌ＆Ｐ,,株式会社,東京都,練馬区,桜台５丁目４３番１４号,,13,120,1760002,,,,,,,2021-09-03,1,,,,,エルアンドピー,0
407,2011605002394,新規,0,2021-09-03,2021-09-03,医療法人社団伸桜会,,その他の設立登記法人,東京都,練馬区,氷川台４丁目３８番９号,,13,120,1790084,,,,,,,2021-09-03,1,,,,,シンオウカイ,0
411,2011801039653,新規,0,2021-09-03,2021-09-03,株式会社フジマネジメント,,株式会社,東京都,葛飾区,小菅２丁目１５番１４号,,13,122,1240001,,,,,,,2021-09-03,1,,,,,フジマネジメント,0
412,2011803004762,新規,0,2021-09-03,2021-09-03,合同会社ワンピース企画,,合同会社,東京都,葛飾区,堀切４丁目８番４号アイリスガーデン３０４,,13,122,1240006,,,,,,,2021-09-03,1,,,,,ワンピースキカク,0
415,2012401038269,新規,0,2021-09-03,2021-09-03,株式会社ｋｎｏｃｋ,,株式会社,東京都,小金井市,貫井北町１丁目２２番１９－１０１号,,13,210,1840015,,,,,,,2021-09-03,1,,,,,ノック,0
416,2012401038277,新規,0,2021-09-03,2021-09-03,俊成木工玩具店株式会社,,株式会社,東京都,多摩市,桜ヶ丘１丁目５３番地の２６,,13,224,2060013,,,,,,,2021-09-03,1,,,,,トシナリモッコウガングテン,0
417,2012403005011,新規,0,2021-09-03,2021-09-03,ｌｕｘｅ　ｍａｎａｇｅ合同会社,,合同会社,東京都,狛江市,和泉本町２丁目９番１３号,,13,219,2010003,,,,,,,2021-09-03,1,,,,,リュクスマネージ,0
418,2012701016651,新規,0,2021-09-03,2021-09-03,株式会社Ｉ－ｂｅ,,株式会社,東京都,東村山市,久米川町１丁目４０番地８２,,13,213,1890003,,,,,,,2021-09-03,1,,,,,アイビー,0
419,2013101008710,新規,0,2021-09-03,2021-09-03,株式会社将輔屋,,株式会社,東京都,福生市,南田園２丁目４番地９,,13,218,1970004,,,,,,,2021-09-03,1,,,,,ショウスケヤ,0
437,2020001142812,新規,0,2021-09-03,2021-09-03,インターナショナルサポート株式会社,,株式会社,神奈川県,横浜市中区,桜木町１丁目１０１番地１,,14,104,2310062,,,,,,,2021-09-03,1,,,,,インターナショナルサポート,0
438,2020001142820,新規,0,2021-09-03,2021-09-03,株式会社Ｗｉｚ　Ｆｉｅｌｄ,,株式会社,神奈川県,横浜市栄区,上之町９番３－３号,,14,115,2470025,,,,,,,2021-09-03,1,,,,,ウィズフィールド,0
439,2020001142853,新規,0,2021-09-03,2021-09-03,ユーロフィン・フード・テスティング株式会社,,株式会社,神奈川県,横浜市金沢区,幸浦２丁目１番１３号,,14,108,2360003,,,,,,,2021-09-03,1,,,,,ユーロフィンフードテスティング,0
440,2020001142861,新規,0,2021-09-03,2021-09-03,株式会社ＫＡＹＡ,,株式会社,神奈川県,横浜市磯子区,西町１３番２１号,,14,107,2350007,,,,,,,2021-09-03,1,,,,,カヤ,0
446,2020003020421,新規,0,2021-09-03,2021-09-03,合同会社ＣＲＥＳＴＯＲＩＡ,,合同会社,神奈川県,川崎市川崎区,日進町３番地１メインステージ川崎Ⅵエグザ３０２,00124111,14,131,2100024,,,,,,,2021-09-03,1,,,,,クレストリア,0
447,2020003020438,新規,0,2021-09-03,2021-09-03,合同会社ワタベ印刷工房,,合同会社,神奈川県,横浜市都筑区,池辺町３４２３番地２,,14,118,2240053,,,,,,,2021-09-03,1,,,,,ワタベインサツコウボウ,0
448,2020005015196,新規,0,2021-09-03,2021-09-03,社会保険労務士法人あすなろ,,その他の設立登記法人,神奈川県,横浜市中区,太田町２丁目２３番地横浜メディア・ビジネスセンター５階,,14,104,2310011,,,,,,,2021-09-03,1,,,,,アスナロ,0
451,2021001073808,新規,0,2021-09-03,2021-09-03,株式会社床太郎,,株式会社,神奈川県,相模原市南区,相模台３丁目１８番１５号ライオンズマンション相模台４０１,,14,153,2520321,,,,,,,2021-09-03,1,,,,,ユカタロウ,0
461,2030001144171,新規,0,2021-09-03,2021-09-03,株式会社ＹＴＳＵＮ,,株式会社,埼玉県,草加市,神明２丁目３番５－１０３号,,11,221,3400012,,,,,,,2021-09-03,1,,,,,ワイティーサン,0
463,2030003017870,新規,0,2021-09-03,2021-09-03,Ｔｅａｌ合同会社,,合同会社,埼玉県,さいたま市大宮区,櫛引町１丁目４４２番地２,,11,103,3300851,,,,,,,2021-09-03,1,,,,,ティール,0
464,2030003017887,新規,0,2021-09-03,2021-09-03,合同会社おいかわ商店,,合同会社,埼玉県,桶川市,大字下日出谷６８５番地の１,,11,231,3630025,,,,,,,2021-09-03,1,,,,,オイカワショウテン,0
471,2040001120056,新規,0,2021-09-03,2021-09-03,株式会社京葉建築,,株式会社,千葉県,千葉市中央区,中央３丁目１３－７コスモ千葉中央ビル４１１号室,,12,101,2600013,,,,,,,2021-09-03,1,,,,,ケイヨウケンチク,0
475,2040005021341,新規,0,2021-09-03,2021-09-03,一般社団法人ごちゃまぜ,,その他の設立登記法人,千葉県,八街市,八街に１９番地,,12,230,2891103,,,,,,,2021-09-03,1,,,,,ゴチャマゼ,0
480,2080001024419,新規,0,2021-09-03,2021-09-03,熊澤建材興業株式会社,,株式会社,静岡県,榛原郡吉田町,川尻３０５５番地の２７,,22,424,4210302,,,,,,,2021-09-03,1,,,,,クマザワケンザイコウギョウ,0
481,2080103002413,新規,0,2021-09-03,2021-09-03,合同会社サンダンゴ,,合同会社,静岡県,駿東郡清水町,新宿２１５‐２４,,22,341,4110901,,,,,,,2021-09-03,1,,,,,サンダンゴ,0
482,2080401025314,新規,0,2021-09-03,2021-09-03,株式会社平松総合企画ききょう,,株式会社,静岡県,掛川市,中央１丁目１４番地の５,,22,213,4360056,,,,,,,2021-09-03,1,,,,,ヒラマツソウゴウキカクキキョウ,0
483,2080401025322,新規,0,2021-09-03,2021-09-03,株式会社ｈａｒｅｚｏｒａ,,株式会社,静岡県,浜松市中区,田町２２３番地の２１ビオラ田町３Ｆ、ＢＩＺｃｏｍｆｏｒｔ浜松,,22,131,4300944,,,,,,,2021-09-03,1,,,,,ハレゾラ,0
488,2100001034563,新規,0,2021-09-03,2021-09-03,株式会社ＭＤＳシステム,,株式会社,長野県,松本市,大字笹賀７２１２番地２,,20,202,3990033,,,,,,,2021-09-03,1,,,,,エムディーエスシステム,0
489,2100003006222,新規,0,2021-09-03,2021-09-03,合同会社ＣＨＩＹＯＤＡ,,合同会社,長野県,諏訪郡下諏訪町,６１１８番地,,20,361,3930000,,,,,,,2021-09-03,1,,,,,チヨダ,0
498,2120001240110,新規,0,2021-09-03,2021-09-03,株式会社Ｃｈｉｋｉｂａｎ,,株式会社,大阪府,大阪市阿倍野区,松崎町４丁目５番３号ユニハイム阿倍野松崎町レジデンス１２０２号,,27,119,5450053,,,,,,,2021-09-03,1,,,,,チキバン,0
499,2120001240119,新規,0,2021-09-03,2021-09-03,サイカ・コレクティブ株式会社,,株式会社,大阪府,大阪市北区,芝田１丁目１番４号阪急ターミナルビル１６Ｆ,,27,127,5300012,,,,,,,2021-09-03,1,,,,,サイカコレクティブ,0
500,2120001240226,新規,0,2021-09-03,2021-09-03,徳川株式会社,,株式会社,大阪府,大阪市浪速区,敷津西２丁目１３－１４メゾンヘルム,,27,111,5560015,,,,,,,2021-09-03,1,,,,,トクガワ,0
505,2120003020139,新規,0,2021-09-03,2021-09-03,Ｗａｎ　Ｔｒａｄｅ　Ｌｉｍｉｔｅｄ合同会社,,合同会社,大阪府,大阪市中央区,谷町２丁目５番４号,,27,128,5400012,,,,,,,2021-09-03,1,,,,,ワントレードリミテッド,0
509,2120101064252,新規,0,2021-09-03,2021-09-03,株式会社ココロツナグ,,株式会社,大阪府,堺市北区,金岡町１８２０番地１２９,,27,146,5918022,,,,,,,2021-09-03,1,,,,,ココロツナグ,0
510,2120101064260,新規,0,2021-09-03,2021-09-03,株式会社ＲＰＧ,,株式会社,大阪府,南河内郡河南町,大字一須賀１８６番地,,27,382,5850002,,,,,,,2021-09-03,1,,,,,アールピージー,0
512,2120903003804,新規,0,2021-09-03,2021-09-03,合同会社Ｏｎｅ　ＤＩＶＥ,,合同会社,大阪府,吹田市,春日１丁目１６番１号,,27,205,5650853,,,,,,,2021-09-03,1,,,,,ワンダイブ,0
515,2130001070036,新規,0,2021-09-03,2021-09-03,株式会社Ｒ．Ｓ．Ｂ,,株式会社,京都府,京都市下京区,高辻通新町西入ル堀之内町２８６番地,,26,106,6000000,,,,,,,2021-09-03,1,,,,,アールエスビー,0
516,2130001070060,新規,0,2021-09-03,2021-09-03,株式会社ｆｒｅｔａ,,株式会社,京都府,京都市下京区,東中筋通高辻下る舟屋町６６１番地,,26,106,6008466,,,,,,,2021-09-03,1,,,,,フレタ,0
520,2140001122876,新規,0,2021-09-03,2021-09-03,株式会社アニミズムリゾート,,株式会社,兵庫県,西宮市,西田町１番２号Ｎ’ｓ夙川ビル３Ｆ,,28,204,6620034,,,,,,,2021-09-03,1,,,,,アニミズムリゾート,0
521,2140001122884,新規,0,2021-09-03,2021-09-03,株式会社アプト,,株式会社,兵庫県,神戸市東灘区,魚崎南町３丁目３番３－３０５号,,28,101,6580025,,,,,,,2021-09-03,1,,,,,アプト,0
522,2140001122934,新規,0,2021-09-03,2021-09-03,株式会社ｅｎｃｈａｎｔｅ,,株式会社,兵庫県,神戸市中央区,栄町通１丁目１番２４号アクサス神戸ライフパートナーズ栄町ビル３０３Ｂ,,28,110,6500023,,,,,,,2021-09-03,1,,,,,エンシャント,0
523,2140003016688,新規,0,2021-09-03,2021-09-03,合同会社新エネルギー開発Ｂ,,合同会社,兵庫県,丹波市,春日町野村２３５９番地４,,28,223,6694132,,,,,,,2021-09-03,1,,,,,シンエネルギーカイハツビー,0
524,2140003016705,新規,0,2021-09-03,2021-09-03,合同会社セカイハツクレル,,合同会社,兵庫県,姫路市,町田２１４－２２,,28,201,6712217,,,,,,,2021-09-03,1,,,,,セカイハツクレル,0
530,2160003002364,新規,0,2021-09-03,2021-09-03,合同会社マーレブル,,合同会社,滋賀県,東近江市,市子殿町１３４４番地３,,25,213,5291537,,,,,,,2021-09-03,1,,,,,マーレブル,0
532,2170001016745,新規,0,2021-09-03,2021-09-03,株式会社洸水ホールディングス,,株式会社,和歌山県,西牟婁郡すさみ町,周参見３７１９番地の５,,30,406,6492621,,,,,,,2021-09-03,1,,,,,コウスイホールディングス,0
533,2170001016761,新規,0,2021-09-03,2021-09-03,株式会社喜千,,株式会社,和歌山県,和歌山市,新通２丁目５４番地,,30,201,6408111,,,,,,,2021-09-03,1,,,,,キセン,0
543,2180001147614,新規,0,2021-09-03,2021-09-03,カブーン株式会社,,株式会社,愛知県,愛西市,森川町大森１６４８番地２,,23,232,4960943,,,,,,,2021-09-03,1,,,,,カブーン,0
544,2180001147630,新規,0,2021-09-03,2021-09-03,株式会社ＮＫＥトレーディング,,株式会社,愛知県,大府市,一屋町３丁目６番地,,23,223,4740055,,,,,,,2021-09-03,1,,,,,エヌケーイートレーディング,0
545,2180001147671,新規,0,2021-09-03,2021-09-03,株式会社ＳＷＩＴＣＨ,,株式会社,愛知県,名古屋市西区,中小田井５丁目２２７番地の５,,23,104,4520822,,,,,,,2021-09-03,1,,,,,スイッチ,0
546,2180001147688,新規,0,2021-09-03,2021-09-03,ＩＨＰ株式会社,,株式会社,愛知県,名古屋市瑞穂区,妙音通３丁目２９番地,,23,108,4670842,,,,,,,2021-09-03,1,,,,,インターヘルスケアプロジェクションズ,0
547,2180001147738,新規,0,2021-09-03,2021-09-03,株式会社雅防水,,株式会社,愛知県,名古屋市中川区,富田町大字千音寺字東福正４７９９番地の１,,23,110,4540971,,,,,,,2021-09-03,1,,,,,ミヤビボウスイ,0
549,2180003022922,新規,0,2021-09-03,2021-09-03,合同会社マウント,,合同会社,愛知県,名古屋市緑区,梅里１丁目２９番地の１,,23,114,4580001,,,,,,,2021-09-03,1,,,,,マウント,0
550,2180005019421,新規,0,2021-09-03,2021-09-03,一般社団法人コムパス・スポルト,,その他の設立登記法人,愛知県,名古屋市昭和区,鶴舞３丁目１６番２８号朝香ツルマイビル２Ａ,,23,107,4660064,,,,,,,2021-09-03,1,,,,,コムパススポルト,0
551,2180301035312,新規,0,2021-09-03,2021-09-03,株式会社ＡＲＩＡ,,株式会社,愛知県,刈谷市,半城土中町３丁目１４番地１０,,23,210,4480805,,,,,,,2021-09-03,1,,,,,アリア,0
553,2190001028648,新規,0,2021-09-03,2021-09-03,株式会社エフプラス,,株式会社,三重県,四日市市,楠町本郷１６１１番地３,,24,202,5100106,,,,,,,2021-09-03,1,,,,,エフプラス,0
559,2210001018596,新規,0,2021-09-03,2021-09-03,株式会社ユウケン,,株式会社,福井県,福井市,豊岡１丁目２番１６号,,18,201,9100027,,,,,,,2021-09-03,1,,,,,ユウケン,0
564,2230001018966,新規,0,2021-09-03,2021-09-03,株式会社ルミナス電創社,,株式会社,富山県,富山市,金山新中２９９番地３,,16,201,9302206,,,,,,,2021-09-03,1,,,,,ルミナスデンソウシャ,0
576,2240001058516,新規,0,2021-09-03,2021-09-03,株式会社くろき,,株式会社,広島県,広島市西区,三篠北町１８番２号,,34,104,7330006,,,,,,,2021-09-03,1,,,,,クロキ,0
577,2240001058524,新規,0,2021-09-03,2021-09-03,小笠原総建株式会社,,株式会社,広島県,三原市,宮浦５丁目１１番１５号１階,,34,204,7230051,,,,,,,2021-09-03,1,,,,,オガサワラソウケン,0
578,2240001058532,新規,0,2021-09-03,2021-09-03,株式会社Ｗａｒｐｓ,,株式会社,広島県,東広島市,西条町下三永５８番地６,,34,212,7390023,,,,,,,2021-09-03,1,,,,,ワープス,0
579,2240001058565,新規,0,2021-09-03,2021-09-03,株式会社ＡＰアセットマネジメント,,株式会社,広島県,広島市中区,吉島西２丁目１５番５－２－２０５号,,34,101,7300823,,,,,,,2021-09-03,1,,,,,エーピーアセットマネジメント,0
584,2240003005268,新規,0,2021-09-03,2021-09-03,Ｂｅｓｔ　Ｃａｔ’ｓ合同会社,,合同会社,広島県,広島市中区,弥生町３番９号,,34,101,7300023,,,,,,,2021-09-03,1,,,,,ベストキャッツ,0
586,2250001019095,新規,0,2021-09-03,2021-09-03,株式会社Ａｒｋ,,株式会社,山口県,山口市,中央５丁目１５番１１号西京ビル２階Ａ号室,,35,203,7530074,,,,,,,2021-09-03,1,,,,,アーク,0
587,2250001019104,新規,0,2021-09-03,2021-09-03,株式会社ダイテック,,株式会社,山口県,光市,虹ケ丘５丁目３番２０号,,35,210,7430031,,,,,,,2021-09-03,1,,,,,ダイテック,0
593,2260001035934,新規,0,2021-09-03,2021-09-03,株式会社水野,,株式会社,岡山県,玉野市,北方２４７番地７,,33,204,7060301,,,,,,,2021-09-03,1,,,,,ミズノ,0
598,2270003001347,新規,0,2021-09-03,2021-09-03,Ｃａｍｅｌプランテージ合同会社,,合同会社,鳥取県,鳥取市,賀露町南５丁目２３６９番地３,,31,201,6800909,,,,,,,2021-09-03,1,,,,,キャメルプランテージ,0
610,2310001017448,新規,0,2021-09-03,2021-09-03,株式会社星取デザインルーム,,株式会社,長崎県,長崎市,星取１丁目６番６号,,42,201,8500945,,,,,,,2021-09-03,1,,,,,ホシトリデザインルーム,0
619,2330001028963,新規,0,2021-09-03,2021-09-03,中川果樹園株式会社,,株式会社,熊本県,熊本市西区,河内町河内２４２０番地,,43,103,8615346,,,,,,,2021-09-03,1,,,,,ナカガワカジュエン,0
620,2330001028971,新規,0,2021-09-03,2021-09-03,株式会社クレシア,,株式会社,熊本県,熊本市中央区,新市街１番２８号,,43,101,8600803,,,,,,,2021-09-03,1,,,,,クレシア,0
623,2340001024078,新規,0,2021-09-03,2021-09-03,株式会社鳳梨,,株式会社,鹿児島県,大島郡天城町,大字瀬滝１００６番地１,,46,531,8917623,,,,,,,2021-09-03,1,,,,,ホウリ,0
624,2340003003542,新規,0,2021-09-03,2021-09-03,合同会社ｕｍｅｍｏｒｉ,,合同会社,鹿児島県,鹿児島市,鴨池２丁目２１番１１号ラフォレ２０１号,,46,201,8900063,,,,,,,2021-09-03,1,,,,,ウメモリ,0
629,2360001029323,新規,0,2021-09-03,2021-09-03,株式会社鳥拓,,株式会社,沖縄県,那覇市,久茂地２丁目１２番６号ライフワークス久茂地ビル６０１,,47,201,9000015,,,,,,,2021-09-03,1,,,,,トリタク,0
632,2370001047547,新規,0,2021-09-03,2021-09-03,株式会社エルコシステムサービス,,株式会社,宮城県,仙台市青葉区,二日町１１番５号第二梅原ビル,,04,101,9800802,,,,,,,2021-09-03,1,,,,,エルコシステムサービス,0
633,2370003005379,新規,0,2021-09-03,2021-09-03,合同会社Ｅｍｏｔｉｏｎ,,合同会社,宮城県,仙台市若林区,土樋２８７番地の５－２階,,04,103,9840065,,,,,,,2021-09-03,1,,,,,エモーション,0
645,2390001016574,新規,0,2021-09-03,2021-09-03,株式会社ベジフルＡ,,株式会社,山形県,東根市,大字泉郷７４３番地,,06,211,9993722,,,,,,,2021-09-03,1,,,,,ベジフルエー,0
651,2400003002827,新規,0,2021-09-03,2021-09-03,合同会社カミトカシ,,合同会社,岩手県,北上市,黒沢尻２丁目４番７号,,03,206,0240022,,,,,,,2021-09-03,1,,,,,カミトカシ,0
653,2420003002379,新規,0,2021-09-03,2021-09-03,合同会社ＡＭＥＬＯＮ,,合同会社,青森県,青森市,安方１丁目４番１２号,,02,201,0300803,,,,,,,2021-09-03,1,,,,,アメロン,0
658,2430001084872,新規,0,2021-09-03,2021-09-03,株式会社クロスティホールディングス,,株式会社,北海道,札幌市東区,北三十七条東１５丁目１番１号,,01,103,0070837,,,,,,,2021-09-03,1,,,,,クロスティホールディングス,0
659,2430001084880,新規,0,2021-09-03,2021-09-03,株式会社ｅｌ　Ｃｏ　Ｌｏｒ,,株式会社,北海道,札幌市中央区,南三条東１丁目１番３号,,01,101,0600053,,,,,,,2021-09-03,1,,,,,エルコロール,0
662,2430003013111,新規,0,2021-09-03,2021-09-03,合同会社ほっとねっと,,合同会社,北海道,札幌市手稲区,曙三条３丁目１４番３７号,00124112,01,109,0060833,,,,,,,2021-09-03,1,,,,,ホットネット,0
667,2470005006381,新規,0,2021-09-03,2021-09-03,一般社団法人コンテンツツーリズム広域連絡協議会,,その他の設立登記法人,香川県,高松市,牟礼町大町１０７６番地１７リヴェールハイツ１０２,,37,201,7610122,,,,,,,2021-09-03,1,,,,,コンテンツツーリズムコウイキレンラクキョウギカイ,0
672,2500001023658,新規,0,2021-09-03,2021-09-03,正建株式会社,,株式会社,愛媛県,四国中央市,土居町天満２７５０番地２,,38,213,7990723,,,,,,,2021-09-03,1,,,,,セイケン,0
684,3010101014837,新規,0,2021-09-03,2021-09-03,株式会社ＴＪカンパニー,,株式会社,東京都,八王子市,中町９番１３号Ｇ’ｓＧＲＡＮＤ八王子,,13,201,1920085,,,,,,,2021-09-03,1,,,,,ティージェイカンパニー,0
687,3010401162492,新規,0,2021-09-03,2021-09-03,株式会社ゼンショーファストホールディングス,,株式会社,東京都,港区,港南２丁目１８番１号,,13,103,1080075,,,,,,,2021-09-03,1,,,,,ゼンショーファストホールディングス,0
688,3010401162501,新規,0,2021-09-03,2021-09-03,株式会社しゅうごう,,株式会社,東京都,港区,三田２丁目１２－５,,13,103,1080073,,,,,,,2021-09-03,1,,,,,シュウゴウ,0
689,3010401162518,新規,0,2021-09-03,2021-09-03,プエオ株式会社,,株式会社,東京都,港区,南麻布４丁目１２番６号－２Ｆ,,13,103,1060047,,,,,,,2021-09-03,1,,,,,プエオ,0
690,3010401162534,新規,0,2021-09-03,2021-09-03,エンアジア株式会社,,株式会社,東京都,港区,南青山３丁目８－４０青山センタービル２Ｆ,,13,103,1070062,,,,,,,2021-09-03,1,,,,,エンアジア,0
692,3010403026019,新規,0,2021-09-03,2021-09-03,Ｓｔａｃｋ　Ｉｎｆｒａｓｔｒｕｃｔｕｒｅ　Ｊａｐａｎ合同会社,,合同会社,東京都,港区,浜松町２丁目４番１号世界貿易センタービルディング南館１７階,,13,103,1050013,,,,,,,2021-09-03,1,,,,,スタックインフラストラクチャージャパン,0
694,3010405020192,新規,0,2021-09-03,2021-09-03,ＭホールディングスＲ一般社団法人,,その他の設立登記法人,東京都,港区,元赤坂１丁目１番７号,,13,103,1070051,,,,,,,2021-09-03,1,,,,,エムホールディングスアール,0
699,3010601059893,新規,0,2021-09-03,2021-09-03,株式会社チュクラットジャパン,,株式会社,東京都,江東区,三好３丁目７－２,,13,108,1350022,,,,,,,2021-09-03,1,,,,,チュクラットジャパン,0
701,3010701041470,新規,0,2021-09-03,2021-09-03,株式会社ｘｉｎｋ,,株式会社,東京都,品川区,西五反田５丁目２５番２号ジェイパーク不動前参番館２０３,,13,109,1410031,,,,,,,2021-09-03,1,,,,,シンク,0
720,3011001142562,新規,0,2021-09-03,2021-09-03,株式会社Ｌｉｋｅｔ,,株式会社,東京都,渋谷区,神宮前６丁目２３番４号桑野ビル２階,,13,113,1500001,,,,,,,2021-09-03,1,,,,,ライケット,0
721,3011001142686,新規,0,2021-09-03,2021-09-03,日本高速鉄道電気エンジニアリング株式会社,,株式会社,東京都,渋谷区,代々木２丁目７番７号,,13,113,1510053,,,,,,,2021-09-03,1,,,,,ニッポンコウソクテツドウデンキエンジニアリング,0
724,3011105009955,新規,0,2021-09-03,2021-09-03,一般社団法人ＯＧＲ,,その他の設立登記法人,東京都,新宿区,住吉町８番２８号,,13,104,1620065,,,,,,,2021-09-03,1,,,,,オージーアール,0
734,3011605002393,新規,0,2021-09-03,2021-09-03,医療法人社団紗光会,,その他の設立登記法人,東京都,練馬区,練馬１丁目６番８号メディカＮｅｒｉｍａ３階,,13,120,1760001,,,,,,,2021-09-03,1,,,,,サコウカイ,0
738,3011801039652,新規,0,2021-09-03,2021-09-03,株式会社ａｒｚｙｓ,,株式会社,東京都,葛飾区,金町６丁目２番１号,,13,122,1250042,,,,,,,2021-09-03,1,,,,,アルジス,0
739,3011801039660,新規,0,2021-09-03,2021-09-03,株式会社ＤＥＰＩＣ,,株式会社,東京都,足立区,足立３丁目７番１２号ｍａｎｏＢ,,13,121,1200015,,,,,,,2021-09-03,1,,,,,デピック,0
740,3011801039677,新規,0,2021-09-03,2021-09-03,株式会社カイマン,,株式会社,東京都,足立区,島根４丁目６番８－４１１号,,13,121,1210815,,,,,,,2021-09-03,1,,,,,カイマン,0
742,3011805003101,新規,0,2021-09-03,2021-09-03,土地家屋調査士法人サトウ設計,,その他の設立登記法人,東京都,足立区,西新井２丁目１５番１４号－１０７,,13,121,1230841,,,,,,,2021-09-03,1,,,,,サトウセッケイ,0
745,3012403005010,新規,0,2021-09-03,2021-09-03,ゼログラビティスターエス合同会社,,合同会社,東京都,小金井市,貫井北町３丁目６番４号,,13,210,1840015,,,,,,,2021-09-03,1,,,,,ゼログラビティスターエス,0
767,3020001142828,新規,0,2021-09-03,2021-09-03,株式会社誠石材,,株式会社,神奈川県,川崎市多摩区,南生田２丁目２４番８号,,14,135,2140036,,,,,,,2021-09-03,1,,,,,マコトセキザイ,0
768,3020001142844,新規,0,2021-09-03,2021-09-03,株式会社ムーブメントアイ,,株式会社,神奈川県,川崎市川崎区,渡田東町１８番１５号ダイカビル３０１,,14,131,2100842,,,,,,,2021-09-03,1,,,,,ムーブメントアイ,0
769,3020001142852,新規,0,2021-09-03,2021-09-03,株式会社ＳＹＳ,,株式会社,神奈川県,横浜市都筑区,中川７丁目７番１４号Ａ－２,,14,118,2240001,,,,,,,2021-09-03,1,,,,,エスワイエス,0
770,3020001142860,新規,0,2021-09-03,2021-09-03,株式会社門脇建設,,株式会社,神奈川県,横浜市金沢区,釜利谷南２丁目４４番２号,,14,108,2360045,,,,,,,2021-09-03,1,,,,,カドワキケンセツ,0
771,3020003020429,新規,0,2021-09-03,2021-09-03,コア陣屋合同会社,,合同会社,神奈川県,川崎市中原区,小杉陣屋町１丁目１９番２６号,,14,133,2110062,,,,,,,2021-09-03,1,,,,,コアジンヤ,0
772,3020005015195,新規,0,2021-09-03,2021-09-03,一般社団法人日本寺院機能評価機構,,その他の設立登記法人,神奈川県,横浜市都筑区,茅ケ崎中央４１番８－１１０３号,,14,118,2240032,,,,,,,2021-09-03,1,,,,,ニホンジインキノウヒョウカキコウ,0
776,3021001073823,新規,0,2021-09-03,2021-09-03,ＤＢＪ　Ｉｎｔｅｒｎａｔｉｏｎａｌ　Ｅｘｐｏｒｔ株式会社,,株式会社,神奈川県,平塚市,岡崎３６４７番地の２０,,14,203,2591212,,,,,,,2021-09-03,1,,,,,ディービージェイインターナショナルエクスポート,0
784,3030001144146,新規,0,2021-09-03,2021-09-03,株式会社ＳＫＮ,,株式会社,埼玉県,加須市,日出安３８５番地９,,11,210,3470102,,,,,,,2021-09-03,1,,,,,エスケイエヌ,0
786,3030003017886,新規,0,2021-09-03,2021-09-03,ＳＴＡＲ　ＬＩＮＥ合同会社,,合同会社,埼玉県,越谷市,千間台東１丁目９番地４インペリアビル３Ｆ,,11,222,3430042,,,,,,,2021-09-03,1,,,,,スターライン,0
791,3040001120030,新規,0,2021-09-03,2021-09-03,山武興業株式会社,,株式会社,千葉県,山武市,中津田５８４－１３,,12,237,2891202,,,,,,,2021-09-03,1,,,,,サンブコウギョウ,0
792,3040001120047,新規,0,2021-09-03,2021-09-03,チェスナッツ株式会社,,株式会社,千葉県,船橋市,南本町４２番１０号,,12,204,2730004,,,,,,,2021-09-03,1,,,,,チェスナッツ,0
807,3080001024418,新規,0,2021-09-03,2021-09-03,総合建築平成株式会社,,株式会社,静岡県,榛原郡吉田町,神戸７８３番地の６,,22,424,4210304,,,,,,,2021-09-03,1,,,,,ソウゴウケンチクヘイセイ,0
808,3080001024426,新規,0,2021-09-03,2021-09-03,株式会社そよかぜ,,株式会社,静岡県,静岡市駿河区,中島１５４０番地,,22,102,4228046,,,,,,,2021-09-03,1,,,,,ソヨカゼ,0
811,3080003002636,新規,0,2021-09-03,2021-09-03,合同会社Ｏｄｅｔｅ,,合同会社,静岡県,焼津市,高新田２０７０番地の８,,22,212,4210204,,,,,,,2021-09-03,1,,,,,オデッチ,0
812,3080101022759,新規,0,2021-09-03,2021-09-03,株式会社ゴールデンアイ,,株式会社,静岡県,熱海市,渚町１５‐３‐２０１,,22,205,4130014,,,,,,,2021-09-03,1,,,,,ゴールデンアイ,0
814,3080401025313,新規,0,2021-09-03,2021-09-03,株式会社キリンコーポレーション,,株式会社,静岡県,浜松市南区,新橋町１０８８番地の２,,22,134,4328058,,,,,,,2021-09-03,1,,,,,キリンコーポレーション,0
816,3090003001934,新規,0,2021-09-03,2021-09-03,合同会社ＯＭＡＴＡ,,合同会社,山梨県,甲府市,国母３丁目８－２１,,19,201,4000043,,,,,,,2021-09-03,1,,,,,,0
817,3100003006221,新規,0,2021-09-03,2021-09-03,合同会社虎道ＢＡＳＥ,,合同会社,長野県,埴科郡坂城町,大字南条２６５番地,,20,521,3890603,,,,,,,2021-09-03,1,,,,,コドウベース,0
819,3110001036005,新規,0,2021-09-03,2021-09-03,株式会社正松,,株式会社,新潟県,新潟市江南区,早苗１丁目２番３９号,,15,104,9500156,,,,,,,2021-09-03,1,,,,,ショウマツ,0
820,3110001036013,新規,0,2021-09-03,2021-09-03,株式会社新栄ルーフ,,株式会社,新潟県,長岡市,寺泊野積２７２５番地１,,15,202,9402501,,,,,,,2021-09-03,1,,,,,シンエイルーフ,0
835,3120001240068,新規,0,2021-09-03,2021-09-03,Ｓ＆Ａシステム株式会社,,株式会社,大阪府,大阪市城東区,東中浜６丁目１番６号,,27,118,5360023,,,,,,,2021-09-03,1,,,,,エスアンドエーシステム,0
836,3120001240118,新規,0,2021-09-03,2021-09-03,株式会社広瀬建創,,株式会社,大阪府,枚方市,長尾元町５丁目１７番３－１０１号,,27,210,5730163,,,,,,,2021-09-03,1,,,,,ヒロセケンソウ,0
837,3120001240142,新規,0,2021-09-03,2021-09-03,株式会社堀江リフォーム,,株式会社,大阪府,大阪市西区,南堀江１丁目２６番２７－４０１号,,27,106,5500015,,,,,,,2021-09-03,1,,,,,ホリエリフォーム,0
838,3120001240167,新規,0,2021-09-03,2021-09-03,株式会社オブレロ,,株式会社,大阪府,大阪市城東区,鴫野東３丁目１１番１０号,,27,118,5360013,,,,,,,2021-09-03,1,,,,,オブレロ,0
839,3120001240191,新規,0,2021-09-03,2021-09-03,株式会社ガトアート,,株式会社,大阪府,大阪市西区,千代崎２丁目２２番１７号,,27,106,5500023,,,,,,,2021-09-03,1,,,,,ガトアート,0
840,3120001240209,新規,0,2021-09-03,2021-09-03,株式会社睦月,,株式会社,大阪府,寝屋川市,中神田町５番３号,,27,215,5720053,,,,,,,2021-09-03,1,,,,,ムツキ,0
844,3120003020138,新規,0,2021-09-03,2021-09-03,合同会社すたんどＵＰ,,合同会社,大阪府,門真市,元町４番８号,,27,223,5710057,,,,,,,2021-09-03,1,,,,,スタンドアップ,0
849,3120101064243,新規,0,2021-09-03,2021-09-03,万和国際ビジネス株式会社,,株式会社,大阪府,堺市東区,高松４２番地１４,,27,143,5998121,,,,,,,2021-09-03,1,,,,,マンワコクサイビジネス,0
850,3120101064251,新規,0,2021-09-03,2021-09-03,ＳＫグループ株式会社,,株式会社,大阪府,堺市北区,南花田町７８番地１,,27,146,5918011,,,,,,,2021-09-03,1,,,,,エスケーグループ,0
862,3130001070043,新規,0,2021-09-03,2021-09-03,株式会社京都イースト,,株式会社,京都府,京都市南区,久世高田町３７０－２－１２０８,,26,107,6018211,,,,,,,2021-09-03,1,,,,,キョウトイースト,0
865,3130003007456,新規,0,2021-09-03,2021-09-03,合同会社大文字屋,,合同会社,京都府,京都市下京区,東洞院通七条下る塩小路町５２３番地,,26,106,6008212,,,,,,,2021-09-03,1,,,,,ダイモンジヤ,0
870,3140001122941,新規,0,2021-09-03,2021-09-03,Ｃｏｎｅｃｔｉｎｇ　ｄｏｔｓ株式会社,,株式会社,兵庫県,明石市,大久保町谷八木５０番地の７,,28,203,6740062,,,,,,,2021-09-03,1,,,,,コネクティングドッツ,0
871,3140003016687,新規,0,2021-09-03,2021-09-03,合同会社新エネルギー開発Ａ,,合同会社,兵庫県,丹波市,春日町野村２３５９番地４,,28,223,6694132,,,,,,,2021-09-03,1,,,,,シンエネルギーカイハツエー,0
872,3140003016695,新規,0,2021-09-03,2021-09-03,合同会社ジェミナイ,,合同会社,兵庫県,尼崎市,東七松町２丁目２－１０,,28,202,6600051,,,,,,,2021-09-03,1,,,,,ジェミナイ,0
875,3150005009325,新規,0,2021-09-03,2021-09-03,農事組合法人安倍土地利用組合,,その他の設立登記法人,奈良県,桜井市,大字高家１３８８番地,,29,206,6330044,,,,,,,2021-09-03,1,,,,,アベトチリヨウクミアイ,0
876,3160001023592,新規,0,2021-09-03,2021-09-03,株式会社プロスパー,,株式会社,滋賀県,犬上郡多賀町,大字久徳５４３番地１,,25,443,5220352,,,,,,,2021-09-03,1,,,,,プロスパー,0
877,3160003002363,新規,0,2021-09-03,2021-09-03,ボンボンショコラ合同会社,,合同会社,滋賀県,長浜市,元浜町１８番２２号,,25,203,5260059,,,,,,,2021-09-03,1,,,,,ボンボンショコラ,0
880,3170001016760,新規,0,2021-09-03,2021-09-03,株式会社熊野海産,,株式会社,和歌山県,東牟婁郡那智勝浦町,大字天満８３３番地１,,30,421,6495331,,,,,,,2021-09-03,1,,,,,クマノカイサン,0
890,3180001147662,新規,0,2021-09-03,2021-09-03,株式会社ＫＡＮＪＯパートナー,,株式会社,愛知県,名古屋市西区,牛島町６番１号ルーセントタワー４０階,,23,104,4510046,,,,,,,2021-09-03,1,,,,,カンジョウパートナー,0
891,3180001147670,新規,0,2021-09-03,2021-09-03,株式会社ＳＳＥコーポレーション,,株式会社,愛知県,北名古屋市,西之保三町地２番地,,23,234,4810033,,,,,,,2021-09-03,1,,,,,エスエスイーコーポレーション,0
892,3180001147704,新規,0,2021-09-03,2021-09-03,株式会社プライズコーポレーション,,株式会社,愛知県,一宮市,両郷町１丁目１２番地,,23,203,4910022,,,,,,,2021-09-03,1,,,,,プライズコーポレーション,0
895,3180003022921,新規,0,2021-09-03,2021-09-03,コモリコンサルティング合同会社,,合同会社,愛知県,名古屋市港区,寛政町４丁目２１番地,,23,111,4550066,,,,,,,2021-09-03,1,,,,,コモリコンサルティング,0
897,3180005019420,新規,0,2021-09-03,2021-09-03,一般社団法人ＯＳＧｅｏ日本支部,,その他の設立登記法人,愛知県,名古屋市中区,大須４丁目１３番４６号,,23,106,4600011,,,,,,,2021-09-03,1,,,,,オーエスジオニホンシブ,0
900,3180301035311,新規,0,2021-09-03,2021-09-03,中根タイル株式会社,,株式会社,愛知県,岡崎市,欠町字清水田３番地６,,23,202,4440011,,,,,,,2021-09-03,1,,,,,ナカネタイル,0
901,3180301035336,新規,0,2021-09-03,2021-09-03,株式会社ＫＫＣ,,株式会社,愛知県,みよし市,黒笹町桐山３番地,,23,236,4700201,,,,,,,2021-09-03,1,,,,,ケーケーシー,0
903,3190001028655,新規,0,2021-09-03,2021-09-03,株式会社Ｏｖｅｒｔａｋｅ,,株式会社,三重県,伊賀市,問屋町６０番地,,24,216,5180822,,,,,,,2021-09-03,1,,,,,オーバーテイク,0
904,3190001028663,新規,0,2021-09-03,2021-09-03,株式会社Ｌｕｚ,,株式会社,三重県,四日市市,高角町１０４５－４,,24,202,5120923,,,,,,,2021-09-03,1,,,,,ルース,0
906,3200001039064,新規,0,2021-09-03,2021-09-03,岐阜労法務支援サービス株式会社,,株式会社,岐阜県,岐阜市,芋島３丁目６番２０号,,21,201,5008234,,,,,,,2021-09-03,1,,,,,ギフロウホウムシエンサービス,0
907,3200001039097,新規,0,2021-09-03,2021-09-03,株式会社アジア開発,,株式会社,岐阜県,各務原市,鵜沼各務原町３丁目５１３番地２,,21,213,5090141,,,,,,,2021-09-03,1,,,,,アジアカイハツ,0
911,3210001018587,新規,0,2021-09-03,2021-09-03,株式会社宅建サービス,,株式会社,福井県,福井市,若杉２丁目２０８番地,,18,201,9188055,,,,,,,2021-09-03,1,,,,,タッケンサービス,0
917,3220003003108,新規,0,2021-09-03,2021-09-03,ぐらんりーふ合同会社,,合同会社,石川県,能美市,高坂町ニ９０番地３,,17,211,9290116,,,,,,,2021-09-03,1,,,,,グランリーフ,0
923,3240001058523,新規,0,2021-09-03,2021-09-03,株式会社Ｓｏｕｒｉｒｅ,,株式会社,広島県,尾道市,高須町５２６４番地３,,34,205,7290141,,,,,,,2021-09-03,1,,,,,スリール,0
924,3240001058531,新規,0,2021-09-03,2021-09-03,株式会社モグベリー,,株式会社,広島県,広島市安佐北区,白木町三田２２８５番地,,34,106,7391700,,,,,,,2021-09-03,1,,,,,モグベリー,0
930,3240003005267,新規,0,2021-09-03,2021-09-03,合同会社ＦＡＲＭ　ＨＩＲＯＳＨＩＭＡ,,合同会社,広島県,竹原市,吉名町４５０２番地１８,,34,203,7250013,,,,,,,2021-09-03,1,,,,,ファームヒロシマ,0
932,3250001019094,新規,0,2021-09-03,2021-09-03,株式会社ＹＡＨＡＺＵ,,株式会社,山口県,防府市,大字真尾４８７番地,,35,206,7470104,,,,,,,2021-09-03,1,,,,,ヤハズ,0
934,3250003002890,新規,0,2021-09-03,2021-09-03,合同会社山田鉄工所,,合同会社,山口県,萩市,大井１７５０番地５,,35,204,7593611,,,,,,,2021-09-03,1,,,,,ヤマダテッコウショ,0
936,3260001035917,新規,0,2021-09-03,2021-09-03,株式会社佐藤断熱,,株式会社,岡山県,岡山市東区,南古都５７０番地３,,33,103,7090632,,,,,,,2021-09-03,1,,,,,サトウダンネツ,0
937,3260001035925,新規,0,2021-09-03,2021-09-03,三宅企画株式会社,,株式会社,岡山県,岡山市北区,京山１丁目４番５‐２号,,33,101,7000015,,,,,,,2021-09-03,1,,,,,ミヤケキカク,0
938,3260001035933,新規,0,2021-09-03,2021-09-03,株式会社アム,,株式会社,岡山県,倉敷市,帯高５０７番地３,,33,202,7100023,,,,,,,2021-09-03,1,,,,,アム,0
940,3270001008343,新規,0,2021-09-03,2021-09-03,株式会社クラミカ,,株式会社,鳥取県,米子市,上福原２丁目３番３６号,,31,202,6830004,,,,,,,2021-09-03,1,,,,,クラミカ,0
958,3310003004154,新規,0,2021-09-03,2021-09-03,合同会社リュミエール,,合同会社,長崎県,長崎市,東町２４９１番地７１,,42,201,8510116,,,,,,,2021-09-03,1,,,,,リュミエール,0
959,3320005009919,新規,0,2021-09-03,2021-09-03,一般社団法人大分県終活推進協議会,,その他の設立登記法人,大分県,大分市,住吉町１丁目１０４６番地の１０,,44,201,8700032,,,,,,,2021-09-03,1,,,,,オオイタケンシュウカツスイシンキョウギカイ,0
961,3330001028962,新規,0,2021-09-03,2021-09-03,グルービズ株式会社,,株式会社,熊本県,熊本市中央区,新屋敷１丁目１４番３５号,,43,101,8620975,,,,,,,2021-09-03,1,,,,,グルービズ,0
963,3330003009028,新規,0,2021-09-03,2021-09-03,Ｌｅａｐ合同会社,,合同会社,熊本県,熊本市東区,長嶺南６丁目３番２０号,,43,102,8618039,,,,,,,2021-09-03,1,,,,,リープ,0
964,3340001024085,新規,0,2021-09-03,2021-09-03,株式会社ＧｏｏｄＷｅａｔｈｅｒ,,株式会社,鹿児島県,鹿児島市,紫原５丁目２０番１号どりーむ綾３０３号,,46,201,8900082,,,,,,,2021-09-03,1,,,,,グッドウェザー,0
966,3340005009330,新規,0,2021-09-03,2021-09-03,一般社団法人しまやどり,,その他の設立登記法人,鹿児島県,大島郡知名町,大字知名６８２番地,,46,534,8919214,,,,,,,2021-09-03,1,,,,,シマヤドリ,0
970,3360001029322,新規,0,2021-09-03,2021-09-03,１ピースケース株式会社,,株式会社,沖縄県,うるま市,字豊原５７８番地１,,47,213,9042233,,,,,,,2021-09-03,1,,,,,ワンピースケース,0
973,3360003011410,新規,0,2021-09-03,2021-09-03,合同会社大成パートナーズ,,合同会社,沖縄県,中頭郡西原町,字兼久１００番地,,47,329,9030104,,,,,,,2021-09-03,1,,,,,タイセイパートナーズ,0
978,3370001047570,新規,0,2021-09-03,2021-09-03,株式会社エムエス,,株式会社,宮城県,仙台市宮城野区,扇町４丁目７番３２号,,04,102,9830034,,,,,,,2021-09-03,1,,,,,エムエス,0
980,3370003005378,新規,0,2021-09-03,2021-09-03,合同会社たかゆ,,合同会社,宮城県,多賀城市,中央２丁目５－３－１１０１,,04,209,9850873,,,,,,,2021-09-03,1,,,,,タカユ,0
993,3430001084888,新規,0,2021-09-03,2021-09-03,株式会社亞珈里,,株式会社,北海道,札幌市豊平区,平岸三条１丁目２番３号,,01,105,0620933,,,,,,,2021-09-03,1,,,,,アカリ,0
994,3430001084896,新規,0,2021-09-03,2021-09-03,株式会社ＬＩＬＣＯＬＬＥＣＴＩＯＮ．ＪＰ,,株式会社,北海道,札幌市中央区,北四条東２丁目８番地６－３０５,,01,101,0600034,,,,,,,2021-09-03,1,,,,,リルコレクションジャパン,0
995,3430003013110,新規,0,2021-09-03,2021-09-03,合同会社ＦｒｅｅｌａｎｃｅＢａｎｋ,,合同会社,北海道,札幌市東区,北二十二条東１８丁目４番３０号,,01,103,0650022,,,,,,,2021-09-03,1,,,,,フリーランスバンク,0
999,3460101007052,新規,0,2021-09-03,2021-09-03,株式会社穀内牧場,,株式会社,北海道,広尾郡大樹町,字日方１６３番地,,01,641,0892124,,,,,,,2021-09-03,1,,,,,コクナイボクジョウ,0
1010,3700150104394,新規,0,2021-09-03,2021-08-16,中津川市薬剤師会,,その他,岐阜県,中津川市,駒場１６６６－３４１４,,21,206,5080011,,,,,,,2021-08-16,1,,,,,ナカツガワシヤクザイシカイ,0
1018,4010001220815,新規,0,2021-09-03,2021-09-03,株式会社アリア,,株式会社,東京都,中央区,銀座１丁目２２番１１号銀座大竹ビジデンス２階,,13,102,1040061,,,,,,,2021-09-03,1,,,,,アリア,0
1019,4010001220856,新規,0,2021-09-03,2021-09-03,株式会社７＆Ｍ,,株式会社,東京都,中央区,勝どき１丁目３番１－１９０４号,,13,102,1040054,,,,,,,2021-09-03,1,,,,,ナナアンドエム,0
1024,4010003035732,新規,0,2021-09-03,2021-09-03,ラゴクロ合同会社,,合同会社,東京都,千代田区,三番町７番地９ＣＯＮＯＥ三番町１１０２号,,13,101,1020075,,,,,,,2021-09-03,1,,,,,ラゴクロ,0
1032,4010401162517,新規,0,2021-09-03,2021-09-03,株式会社タスクチーム東京,,株式会社,東京都,港区,南青山２丁目２番１５号,,13,103,1070062,,,,,,,2021-09-03,1,,,,,タスクチームトウキョウ,0
1033,4010403026042,新規,0,2021-09-03,2021-09-03,合同会社ＪＲＥ肥薩風力,,合同会社,東京都,港区,六本木６丁目２番３１号六本木ヒルズノースタワー１５階,,13,103,1060032,,,,,,,2021-09-03,1,,,,,ジェーアールイーヒサツフウリョク,0
1034,4010403026059,新規,0,2021-09-03,2021-09-03,ＭホスピタリティＲ合同会社,,合同会社,東京都,港区,元赤坂１丁目１番７号,,13,103,1070051,,,,,,,2021-09-03,1,,,,,エムホスピタリティアール,0
1035,4010405020191,新規,0,2021-09-03,2021-09-03,司法書士法人芝・森川合同事務所,,その他の設立登記法人,東京都,港区,虎ノ門１丁目４番４号第二誠ビル４階,,13,103,1050001,,,,,,,2021-09-03,1,,,,,シバモリカワゴウドウジムショ,0
1043,4010701041461,新規,0,2021-09-03,2021-09-03,１０９株式会社,,株式会社,東京都,品川区,西五反田３丁目７番６号レジディアタワー目黒不動前２２０４,,13,109,1410031,,,,,,,2021-09-03,1,,,,,イチマルキュー,0
1045,4010703005927,新規,0,2021-09-03,2021-09-03,合同会社Ｊｕｉｃｙ,,合同会社,東京都,品川区,東五反田１丁目１５番２号,,13,109,1410022,,,,,,,2021-09-03,1,,,,,ジューシー,0
1047,4010801032286,新規,0,2021-09-03,2021-09-03,株式会社Ａｎｔｈｅｍホールディングス,,株式会社,東京都,大田区,西蒲田７丁目９番２－１２０３号,,13,111,1440051,,,,,,,2021-09-03,1,,,,,アンセムホールディングス,0
1052,4010901049379,新規,0,2021-09-03,2021-09-03,株式会社ＥＳＴＤ,,株式会社,東京都,世田谷区,奥沢５丁目１番１１号メゾンドジョワ２０２,,13,112,1580083,,,,,,,2021-09-03,1,,,,,イーエスティーディー,0
1061,4011001142520,新規,0,2021-09-03,2021-09-03,株式会社ＣＡＭＡＲＡＤＥ,,株式会社,東京都,渋谷区,神宮前６丁目２３番４号桑野ビル２階,,13,113,1500001,,,,,,,2021-09-03,1,,,,,カマラード,0
1062,4011001142578,新規,0,2021-09-03,2021-09-03,株式会社イースタートハウス,,株式会社,東京都,渋谷区,東２丁目１２番１５号,,13,113,1500011,,,,,,,2021-09-03,1,,,,,イースタートハウス,0
1065,4011101096170,新規,0,2021-09-03,2021-09-03,株式会社エコーリア,,株式会社,東京都,新宿区,西新宿６丁目１５番１－３２１７号セントラルパークタワーラ・トゥール新宿,,13,104,1600023,,,,,,,2021-09-03,1,,,,,エコーリア,0
1066,4011103010988,新規,0,2021-09-03,2021-09-03,Ｙ２合同会社,,合同会社,東京都,新宿区,大久保１丁目１２番３－５０４号,,13,104,1690072,,,,,,,2021-09-03,1,,,,,ワイツー,0
1070,4011701024679,新規,0,2021-09-03,2021-09-03,虹の夢株式会社,,株式会社,東京都,江戸川区,瑞江２丁目２６番１０号,,13,123,1320011,,,,,,,2021-09-03,1,,,,,ニジノユメ,0
1071,4011801039668,新規,0,2021-09-03,2021-09-03,株式会社リンクアドバンス,,株式会社,東京都,足立区,千住５丁目１６番７号－１０３,,13,121,1200034,,,,,,,2021-09-03,1,,,,,リンクアドバンス,0
1072,4011801039676,新規,0,2021-09-03,2021-09-03,株式会社華輝,,株式会社,東京都,足立区,梅島１丁目２８番６号,,13,121,1210816,,,,,,,2021-09-03,1,,,,,ハルキ,0
1073,4011803004760,新規,0,2021-09-03,2021-09-03,合同会社ワタベ,,合同会社,東京都,足立区,保木間３丁目１７番１３号,,13,121,1210064,,,,,,,2021-09-03,1,,,,,ワタベ,0
1084,4020001142876,新規,0,2021-09-03,2021-09-03,株式会社グローバルフライ,,株式会社,神奈川県,横浜市金沢区,富岡東３丁目９番１２号,,14,108,2360051,,,,,,,2021-09-03,1,,,,,グローバルフライ,0
1086,4020003020428,新規,0,2021-09-03,2021-09-03,合同会社マスタカ,,合同会社,神奈川県,横浜市旭区,さちが丘１８５番地１５Ｂ１０３,,14,112,2410822,,,,,,,2021-09-03,1,,,,,マスタカ,0
1087,4020003020436,新規,0,2021-09-03,2021-09-03,アキ合同会社,,合同会社,神奈川県,横浜市中区,相生町４丁目６５ポラリスビル５０１,,14,104,2310012,,,,,,,2021-09-03,1,,,,,アキ,0
1091,4021001073814,新規,0,2021-09-03,2021-09-03,株式会社新菱エレクトロニクス,,株式会社,神奈川県,海老名市,望地２丁目１５番１７号,,14,215,2430403,,,,,,,2021-09-03,1,,,,,シンリョウエレクトロニクス,0
1092,4021001073822,新規,0,2021-09-03,2021-09-03,オカダホールディングス株式会社,,株式会社,神奈川県,愛甲郡愛川町,中津４０４８番地,,14,401,2430303,,,,,,,2021-09-03,1,,,,,オカダホールディングス,0
1111,4030005020508,新規,0,2021-09-03,2021-09-03,一般社団法人日本マジックファンデーション,,その他の設立登記法人,埼玉県,鴻巣市,人形４丁目６番地２５号,,11,217,3650037,,,,,,,2021-09-03,1,,,,,ニッポンマジックファンデーション,0
1117,4040001120046,新規,0,2021-09-03,2021-09-03,株式会社及川商事,,株式会社,千葉県,山武郡横芝光町,横芝１６７９番地,,12,410,2891732,,,,,,,2021-09-03,1,,,,,オヨカワショウジ,0
1118,4040001120062,新規,0,2021-09-03,2021-09-03,株式会社ＨＭＦ,,株式会社,千葉県,市川市,奉免町３２番地１,,12,203,2720803,,,,,,,2021-09-03,1,,,,,エイチエムエフ,0
1121,4040003018420,新規,0,2021-09-03,2021-09-03,アロハスピリットＰａｕｌｅｌｅ合同会社,,合同会社,千葉県,千葉市稲毛区,長沼原町１０７番地,,12,103,2630001,,,,,,,2021-09-03,1,,,,,アロハスピリットパウレレ,0
1132,4080001024417,新規,0,2021-09-03,2021-09-03,株式会社竹内組,,株式会社,静岡県,藤枝市,高柳２４４０番地の６,,22,214,4260041,,,,,,,2021-09-03,1,,,,,タケウチグミ,0
1137,4110001036012,新規,0,2021-09-03,2021-09-03,株式会社ＭＭスチール,,株式会社,新潟県,燕市,白山町３丁目２番６号,,15,213,9591251,,,,,,,2021-09-03,1,,,,,エムエムスチール,0
1157,4120001240117,新規,0,2021-09-03,2021-09-03,株式会社アルファーテック,,株式会社,大阪府,寝屋川市,石津南町１３番５５－２０５号,,27,215,5720024,,,,,,,2021-09-03,1,,,,,アルファーテック,0
1158,4120001240158,新規,0,2021-09-03,2021-09-03,プロムリンク株式会社,,株式会社,大阪府,大阪市北区,同心１丁目１１番５号５階,,27,127,5300035,,,,,,,2021-09-03,1,,,,,プロムリンク,0
1159,4120001240174,新規,0,2021-09-03,2021-09-03,株式会社アンブラーレ,,株式会社,大阪府,大阪市都島区,東野田町１丁目１０番３号ルアーブル東野田７０２号室,,27,102,5340024,,,,,,,2021-09-03,1,,,,,アンブラーレ,0
1160,4120001240182,新規,0,2021-09-03,2021-09-03,株式会社プラススターＨＲ,,株式会社,大阪府,大阪市城東区,中浜１丁目１６－２０,,27,118,5360024,,,,,,,2021-09-03,1,,,,,プラススターエイチアール,0
1161,4120001240208,新規,0,2021-09-03,2021-09-03,株式会社レコマ,,株式会社,大阪府,大阪市東淀川区,東中島５丁目１８番２０号,,27,114,5330033,,,,,,,2021-09-03,1,,,,,レコマ,0
1166,4120003020104,新規,0,2021-09-03,2021-09-03,合同会社ミントシード,,合同会社,大阪府,大阪市住之江区,南港北２丁目１番１０号ＡＴＣビルＯ’ｓ５２０－１１１号室,,27,125,5590034,,,,,,,2021-09-03,1,,,,,ミントシード,0
1172,4120101064259,新規,0,2021-09-03,2021-09-03,草津工業株式会社,,株式会社,大阪府,泉南市,信達大苗代７０１番地の１３,,27,228,5900505,,,,,,,2021-09-03,1,,,,,クサツコウギョウ,0
1174,4122001035133,新規,0,2021-09-03,2021-09-03,株式会社スルール・オーイ,,株式会社,大阪府,大東市,野崎１丁目１７番４５号,,27,218,5740015,,,,,,,2021-09-03,1,,,,,スルールオーイ,0
1181,4130001070034,新規,0,2021-09-03,2021-09-03,スカイセッター株式会社,,株式会社,京都府,長岡京市,城の里２８番地１,,26,209,6170835,,,,,,,2021-09-03,1,,,,,スカイセッター,0
1188,4140001122890,新規,0,2021-09-03,2021-09-03,株式会社ＮＥＸＴＷＯＲＫＳ,,株式会社,兵庫県,加古郡稲美町,草谷相野１－６４１,,28,381,6751102,,,,,,,2021-09-03,1,,,,,ネクストワークス,0
1189,4140001122957,新規,0,2021-09-03,2021-09-03,株式会社Ｐ＆Ｓデザインラボ,,株式会社,兵庫県,神戸市灘区,城内通５丁目５番２３－１３０２号,,28,102,6570836,,,,,,,2021-09-03,1,,,,,ピーアンドエスデザインラボ,0
1200,4180001147629,新規,0,2021-09-03,2021-09-03,株式会社ｒｉｔｕ,,株式会社,愛知県,名古屋市千種区,観月町１丁目２５番地（グレイス覚王山３０５号）,,23,101,4640831,,,,,,,2021-09-03,1,,,,,リツ,0
1201,4180001147661,新規,0,2021-09-03,2021-09-03,株式会社ＴＯＳ,,株式会社,愛知県,名古屋市南区,弥生町１００番地１,,23,112,4570027,,,,,,,2021-09-03,1,,,,,ティーオーエス,0
1202,4180001147736,新規,0,2021-09-03,2021-09-03,株式会社ニッチプラス,,株式会社,愛知県,名古屋市西区,笠取町１丁目１２番地（フェリカメゾン笠取２０１号）,,23,104,4510072,,,,,,,2021-09-03,1,,,,,ニッチプラス,0
1206,4180301035310,新規,0,2021-09-03,2021-09-03,株式会社Ｈｅａｖｅｎｌｙ,,株式会社,愛知県,豊橋市,二川町字四畝町１６６番地１,,23,201,4413155,,,,,,,2021-09-03,1,,,,,ヘブンリー,0
1207,4180301035319,新規,0,2021-09-03,2021-09-03,株式会社實吉コンサルタント,00124115,株式会社,愛知県,岡崎市,伊賀町字２丁目６番地,,23,202,4440075,,,,,,,2021-09-03,1,,,,,ミノキチコンサルタント,0
1208,4180301035335,新規,0,2021-09-03,2021-09-03,ｓｔｖｉｎｏ株式会社,,株式会社,愛知県,知立市,新地町西新地３１番地１,,23,225,4720041,,,,,,,2021-09-03,1,,,,,サンビーノ,0
1209,4180301035343,新規,0,2021-09-03,2021-09-03,株式会社ＮＣｏｍｐａｎｙ,,株式会社,愛知県,岡崎市,橋目町字竹之内５９番地１,,23,202,4440908,,,,,,,2021-09-03,1,,,,,エヌカンパニー,0
1212,4190001028654,新規,0,2021-09-03,2021-09-03,株式会社岡本工業,,株式会社,三重県,いなべ市,藤原町市場５７７番地１,,24,214,5110511,,,,,,,2021-09-03,1,,,,,オカモトコウギョウ,0
1215,4190003003754,新規,0,2021-09-03,2021-09-03,合同会社ＦＬＯＷＥＲ,,合同会社,三重県,名張市,鴻之台２番町５５番地１,,24,208,5180702,,,,,,,2021-09-03,1,,,,,フラワー,0
1217,4200001039113,新規,0,2021-09-03,2021-09-03,株式会社Ｓｔｅｒｅｏｔｙｐｅｓ,,株式会社,岐阜県,岐阜市,領下１丁目１１番地１（シャトレ愛松岐阜Ⅲ９０２号室）,00124120,21,201,5008241,,,,,,,2021-09-03,1,,,,,ステレオタイプス,0
1219,4200003005294,新規,0,2021-09-03,2021-09-03,合同会社ペリドット,,合同会社,岐阜県,大垣市,西之川町１丁目２１５０番地２,,21,202,5030018,,,,,,,2021-09-03,1,,,,,ペリドット,0
1220,4210001018594,新規,0,2021-09-03,2021-09-03,株式会社ＴＡＫＡ建築板金,,株式会社,福井県,坂井市,春江町江留上新町５０番地,,18,210,9190465,,,,,,,2021-09-03,1,,,,,タカケンチクバンキン,0
1224,4230001018964,新規,0,2021-09-03,2021-09-03,湯島電気株式会社,,株式会社,富山県,中新川郡立山町,竹林６番地１８,,16,323,9303206,,,,,,,2021-09-03,1,,,,,ユジマデンキ,0
1229,4240001058522,新規,0,2021-09-03,2021-09-03,ＲＳＴ株式会社,,株式会社,広島県,広島市南区,仁保２丁目２３番６号,,34,103,7340026,,,,,,,2021-09-03,1,,,,,アールエスティー,0
1230,4240001058530,新規,0,2021-09-03,2021-09-03,株式会社マリモライフ,,株式会社,広島県,広島市西区,庚午北１丁目１７番２３号,,34,104,7330821,,,,,,,2021-09-03,1,,,,,マリモライフ,0
1231,4240001058539,新規,0,2021-09-03,2021-09-03,株式会社Ｃａｒｏ,,株式会社,広島県,東広島市,八本松東６丁目２番１１号,,34,212,7390142,,,,,,,2021-09-03,1,,,,,カーロ,0
1232,4240001058547,新規,0,2021-09-03,2021-09-03,株式会社Ｍｅｒｉｓｅ,,株式会社,広島県,安芸郡府中町,柳ケ丘８２番２８号２０５号,,34,302,7350014,,,,,,,2021-09-03,1,,,,,ミーライズ,0
1234,4240003005266,新規,0,2021-09-03,2021-09-03,Ｉｎｓｐｉｒｅ合同会社,,合同会社,広島県,三次市,十日市東１丁目３番１号,,34,209,7280013,,,,,,,2021-09-03,1,,,,,インスパイア,0
1238,4250001019102,新規,0,2021-09-03,2021-09-03,ノゾミトランスポート株式会社,,株式会社,山口県,山口市,富田原町４番４９号,,35,203,7530054,,,,,,,2021-09-03,1,,,,,ノゾミトランスポート,0
1242,4260001035932,新規,0,2021-09-03,2021-09-03,ＫＩＮＧＳＧＵＡＲＤ株式会社,,株式会社,岡山県,岡山市中区,原尾島２丁目９番５－３号,,33,102,7038235,,,,,,,2021-09-03,1,,,,,キングスガード,0
1243,4260001035940,新規,0,2021-09-03,2021-09-03,株式会社勝栄,,株式会社,岡山県,岡山市北区,吉備津１３２６番地３１,,33,101,7011341,,,,,,,2021-09-03,1,,,,,ショウエイ,0
1246,4270003001345,新規,0,2021-09-03,2021-09-03,Ｌｉｖｅ　Ｄｅｓｉｇｎ合同会社,,合同会社,鳥取県,米子市,旗ヶ崎９丁目２１番８号,,31,202,6830845,,,,,,,2021-09-03,1,,,,,ライブデザイン,0
1257,4290001094380,新規,0,2021-09-03,2021-09-03,株式会社Ｍｙ　Ｃｏｌｏｒ,,株式会社,福岡県,福岡市中央区,大名２丁目９番３５号トウセン天神ビル９Ｆ,,40,133,8100041,,,,,,,2021-09-03,1,,,,,マイカラー,0
1258,4290001094430,新規,0,2021-09-03,2021-09-03,株式会社Ｔ・Ｋ・Ｇ,,株式会社,福岡県,福岡市博多区,上川端町５番１０７号シャトー川端４０３号室,,40,132,8120026,,,,,,,2021-09-03,1,,,,,ティーケージー,0
1261,4290003011565,新規,0,2021-09-03,2021-09-03,アクティブサポート合同会社,,合同会社,福岡県,福岡市東区,香椎浜３丁目３番６号,,40,131,8130016,,,,,,,2021-09-03,1,,,,,アクティブサポート,0
1269,4320005009918,新規,0,2021-09-03,2021-09-03,一般社団法人うつりくらす,,その他の設立登記法人,大分県,杵築市,大字南杵築３１番地,,44,210,8730002,,,,,,,2021-09-03,1,,,,,ウツリクラス,0
1270,4330001028961,新規,0,2021-09-03,2021-09-03,株式会社熊本装建,,株式会社,熊本県,熊本市東区,渡鹿８丁目１２番３４号,,43,102,8620970,,,,,,,2021-09-03,1,,,,,クマモトソウケン,0
1272,4330003009027,新規,0,2021-09-03,2021-09-03,合同会社Ｄｏｔ,,合同会社,熊本県,上益城郡御船町,大字辺田見１３６４番地３,,43,441,8613206,,,,,,,2021-09-03,1,,,,,ドット,0
1276,4340003003540,新規,0,2021-09-03,2021-09-03,合同会社Ａｃｅ,,合同会社,鹿児島県,鹿児島市,西千石町１１－２１鹿児島ＭＳビル５Ｆ,,46,201,8920847,,,,,,,2021-09-03,1,,,,,エース,0
1280,4360001029321,新規,0,2021-09-03,2021-09-03,株式会社古酒屋,,株式会社,沖縄県,那覇市,久米１丁目１番２０号,,47,201,9000033,,,,,,,2021-09-03,1,,,,,クースヤ,0
1281,4360003011418,新規,0,2021-09-03,2021-09-03,ＧＯＬＥＩＲＯ合同会社,,合同会社,沖縄県,島尻郡与那原町,字与那原２９９８番地の４７,,47,348,9011303,,,,,,,2021-09-03,1,,,,,ゴレイロ,0
1284,4370001047545,新規,0,2021-09-03,2021-09-03,株式会社ＨＪＦアソシエート,,株式会社,宮城県,多賀城市,八幡４丁目５番８５号ラヴィベールメゾン３０５号,,04,209,9850874,,,,,,,2021-09-03,1,,,,,エイチジェイエフアソシエート,0
1285,4370001047553,新規,0,2021-09-03,2021-09-03,長田空調設備株式会社,,株式会社,宮城県,宮城郡七ヶ浜町,東宮浜字御林３番地の１３２,,04,404,9850804,,,,,,,2021-09-03,1,,,,,オサダクウチョウセツビ,0
1289,4370005010342,新規,0,2021-09-03,2021-09-03,社会福祉法人仙台ぱれっと福祉会,,その他の設立登記法人,宮城県,仙台市宮城野区,扇町５丁目３番３８号,,04,102,9830034,,,,,,,2021-09-03,1,,,,,センダイパレットフクシカイ,0
1290,4380001032158,新規,0,2021-09-03,2021-09-03,株式会社イナトウ,,株式会社,福島県,南相馬市,原町区仲町１丁目６１番地,,07,212,9750016,,,,,,,2021-09-03,1,,,,,イナトウ,0
1302,4410001012949,新規,0,2021-09-03,2021-09-03,ウッド・ワークス株式会社,,株式会社,秋田県,秋田市,外旭川字三千刈１０番地２,,05,201,0100802,,,,,,,2021-09-03,1,,,,,ウッドワークス,0
1303,4420001017575,新規,0,2021-09-03,2021-09-03,株式会社Ｌｉｋｅ　ｉＴ,,株式会社,青森県,三沢市,中央町２丁目７番２２号,,02,207,0330001,,,,,,,2021-09-03,1,,,,,ライクイット,0
1313,4430001084879,新規,0,2021-09-03,2021-09-03,株式会社木工房,,株式会社,北海道,札幌市豊平区,福住二条１０丁目４番６号,,01,105,0620042,,,,,,,2021-09-03,1,,,,,モクコウボウ,0
1314,4430001084887,新規,0,2021-09-03,2021-09-03,株式会社映画の空気,,株式会社,北海道,札幌市中央区,宮の森三条６丁目６番１－３０１号,,01,101,0640953,,,,,,,2021-09-03,1,,,,,エイガノクウキ,0
1315,4430001084904,新規,0,2021-09-03,2021-09-03,株式会社ｉｒｉｓ,,株式会社,北海道,札幌市西区,山の手一条６丁目３番１３号,,01,107,0630001,,,,,,,2021-09-03,1,,,,,イリス,0
1322,4460101007051,新規,0,2021-09-03,2021-09-03,岡本牧場株式会社,,株式会社,北海道,中川郡本別町,押帯２０７番地３,,01,646,0893283,,,,,,,2021-09-03,1,,,,,オカモトボクジョウ,0
1323,4470003002026,新規,0,2021-09-03,2021-09-03,合同会社ＡＮＥＷプランニング,,合同会社,香川県,高松市,太田下町１９２６番地１,,37,201,7618073,,,,,,,2021-09-03,1,,,,,アニュープランニング,0
1326,4500001023656,新規,0,2021-09-03,2021-09-03,株式会社新創電工,,株式会社,愛媛県,新居浜市,船木甲２９１２番地の１３,,38,205,7920856,,,,,,,2021-09-03,1,,,,,シンソウデンコウ,0
1330,4700150104625,新規,0,2021-09-03,2021-09-03,株式会社　ビステリジェンス,,外国会社等,三重県,四日市市,安島１丁目５番１０号,,24,202,5100075,大韓民国ソウル特別市瑞草区バウメ路１２８（良才洞、ビステルタワー）,,,,,,2021-09-03,1,,,,,カブシキガイシヤビステリジエンス,0
1336,5010001220830,新規,0,2021-09-03,2021-09-03,ＳＲＫ　Ｈｏｌｄｉｎｇｓ株式会社,,株式会社,東京都,中央区,日本橋本町４丁目５番１３号日本橋本町ＴＨビル４階,,13,102,1030023,,,,,,,2021-09-03,1,,,,,エスアールケイホールディングス,0
1349,5010401162433,新規,0,2021-09-03,2021-09-03,株式会社イートワークス,,株式会社,東京都,港区,六本木７丁目７番７号トライセブン六本木８Ｆ,,13,103,1060032,,,,,,,2021-09-03,1,,,,,イートワークス,0
1350,5010401162490,新規,0,2021-09-03,2021-09-03,シグナルベース株式会社,,株式会社,東京都,港区,芝浦１丁目２番３号シーバンスＳ館１３階,,13,103,1050023,,,,,,,2021-09-03,1,,,,,シグナルベース,0
1351,5010401162524,新規,0,2021-09-03,2021-09-03,株式会社ケイコーポレーション,,株式会社,東京都,港区,高輪３丁目１９番２２－１２０３号,,13,103,1080074,,,,,,,2021-09-03,1,,,,,ケイコーポレーション,0
1353,5010403026058,新規,0,2021-09-03,2021-09-03,ＭホスピタリティＮ合同会社,,合同会社,東京都,港区,元赤坂１丁目１番７号,,13,103,1070051,,,,,,,2021-09-03,1,,,,,エムホスピタリティエヌ,0
1361,5010701041460,新規,0,2021-09-03,2021-09-03,株式会社ＢＲＥＭＥＮ,,株式会社,東京都,品川区,中延５丁目１３番１８号むさしやビル１階,,13,109,1420053,,,,,,,2021-09-03,1,,,,,ブレーメン,0
1367,5010901049386,新規,0,2021-09-03,2021-09-03,株式会社自由が丘レジデンス,,株式会社,東京都,世田谷区,等々力１丁目２２番４４号,,13,112,1580082,,,,,,,2021-09-03,1,,,,,ジユウガオカレジデンス,0
1372,5011001142528,新規,0,2021-09-03,2021-09-03,株式会社ＳｉｘＯｎｅ’６１,,株式会社,東京都,目黒区,大橋１丁目７－１６,,13,110,1530044,,,,,,,2021-09-03,1,,,,,シックスワン,0
1373,5011003013280,新規,0,2021-09-03,2021-09-03,合同会社アルパカボイス,,合同会社,東京都,渋谷区,南平台町１５番１号ライオンズマンション南平台１１０４号室,,13,113,1500036,,,,,,,2021-09-03,1,,,,,アルパカボイス,0
1375,5011101096153,新規,0,2021-09-03,2021-09-03,株式会社ベルメール,,株式会社,東京都,新宿区,戸塚町１丁目１０４番地,00124122,13,104,1690071,,,,,,,2021-09-03,1,,,,,ベルメール,0
1377,5011103010987,新規,0,2021-09-03,2021-09-03,Ｋｏｍａｃｈｉ　Ｔｏｋｙｏ合同会社,,合同会社,東京都,新宿区,神楽坂３丁目６番地和田ビル１０１,,13,104,1620825,,,,,,,2021-09-03,1,,,,,コマチトウキョウ,0
1387,5011801039659,新規,0,2021-09-03,2021-09-03,株式会社ＴＢＥＣ－ＳＳ,,株式会社,東京都,足立区,千住東２丁目１０番１号,,13,121,1200025,,,,,,,2021-09-03,1,,,,,ティーベックス,0
1390,5012705002273,新規,0,2021-09-03,2021-09-03,医療法人社団ひかり,,その他の設立登記法人,東京都,小平市,花小金井２丁目９番６号,,13,211,1870002,,,,,,,2021-09-03,1,,,,,ヒカリ,0
1394,5013301047951,新規,0,2021-09-03,2021-09-03,株式会社ＳＯＴ,,株式会社,東京都,豊島区,南池袋３丁目１８番３０号,,13,116,1710022,,,,,,,2021-09-03,1,,,,,エスオーティー,0
1406,5020001142850,新規,0,2021-09-03,2021-09-03,株式会社ＴＯＰ　ＧＵＮ,,株式会社,神奈川県,横浜市中区,元町４丁目１６８,,14,104,2310861,,,,,,,2021-09-03,1,,,,,トップガン,0
1407,5020001142859,新規,0,2021-09-03,2021-09-03,アーク株式会社,,株式会社,神奈川県,横浜市中区,末吉町３丁目４７－１トーカン伊勢佐木町キャステール２０７,,14,104,2310055,,,,,,,2021-09-03,1,,,,,アーク,0
1408,5020001142883,新規,0,2021-09-03,2021-09-03,株式会社ＡＰＭ,,株式会社,神奈川県,横浜市中区,打越５７番地９打越ハイツＣ棟１０１号室,,14,104,2310867,,,,,,,2021-09-03,1,,,,,エーピーエム,0
1409,5020001142900,新規,0,2021-09-03,2021-09-03,株式会社Ａｈｍｙ,,株式会社,神奈川県,横浜市西区,高島２丁目１番２号スカイメナー横浜５１９,,14,103,2200011,,,,,,,2021-09-03,1,,,,,アミー,0
1413,5020005015177,新規,0,2021-09-03,2021-09-03,特定非営利活動法人ＮｕＲｓｉｎＧａｔｅ,,その他の設立登記法人,神奈川県,横浜市青葉区,美しが丘１丁目１３番地１０吉村ビル１０７号,,14,117,2250002,,,,,,,2021-09-03,1,,,,,ナーシンゲート,0
1420,5030001144103,新規,0,2021-09-03,2021-09-03,株式会社ユニコム,,株式会社,埼玉県,飯能市,大字双柳７７７番地６,,11,209,3570021,,,,,,,2021-09-03,1,,,,,ユニコム,0
1421,5030001144152,新規,0,2021-09-03,2021-09-03,株式会社創英グループ,,株式会社,埼玉県,さいたま市緑区,原山１丁目２５番１２号,,11,109,3360931,,,,,,,2021-09-03,1,,,,,ソウエイグループ,0
1422,5030001144177,新規,0,2021-09-03,2021-09-03,株式会社ＭＣＳ,,株式会社,埼玉県,飯能市,大字双柳４６１番地１,,11,209,3570021,,,,,,,2021-09-03,1,,,,,エムシーエス,0
1427,5040001119946,新規,0,2021-09-03,2021-09-03,Ａｎｄ　Ｕｎｉｖｅｒｓｅ株式会社,,株式会社,千葉県,木更津市,中央１丁目５番２３号,,12,206,2920067,,,,,,,2021-09-03,1,,,,,アンドユニバース,0
1428,5040001120053,新規,0,2021-09-03,2021-09-03,株式会社Ｏｆｆｉｃｅ３６,,株式会社,千葉県,大網白里市,駒込１６１２番地１,,12,239,2993235,,,,,,,2021-09-03,1,,,,,オフィスサブロク,0
1431,5040003018452,新規,0,2021-09-03,2021-09-03,Ｒ＆Ｒ合同会社,,合同会社,千葉県,鎌ケ谷市,丸山１丁目２番８号,,12,224,2730103,,,,,,,2021-09-03,1,,,,,アルアンドアル,0
1433,5050005012923,新規,0,2021-09-03,2021-09-03,特定非営利活動法人八郷・かや屋根みんなの広場,,その他の設立登記法人,茨城県,石岡市,小見９７２番地,,08,205,3150104,,,,,,,2021-09-03,1,,,,,ヤサトカヤヤネミンナノヒロバ,0
1439,5080001024416,新規,0,2021-09-03,2021-09-03,株式会社杉本,,株式会社,静岡県,藤枝市,高柳１９６８番地の１,,22,214,4260041,,,,,,,2021-09-03,1,,,,,スギモト,0
1447,5080403004354,新規,0,2021-09-03,2021-09-03,ふかや工房合同会社,,合同会社,静岡県,掛川市,原川２１番地の２,,22,213,4360036,,,,,,,2021-09-03,1,,,,,フカヤコウボウ,0
1449,5100001034569,新規,0,2021-09-03,2021-09-03,株式会社アグリライズ佐藤,,株式会社,長野県,東御市,滋野甲４１８６番地１,,20,219,3890511,,,,,,,2021-09-03,1,,,,,アグリライズサトウ,0
1450,5100001034577,新規,0,2021-09-03,2021-09-03,株式会社ディーズワン,,株式会社,長野県,長野市,大字高田２３２番地３北条ライブタウンＦ１０３,,20,201,3810034,,,,,,,2021-09-03,1,,,,,ディーズワン,0
1461,5120001240124,新規,0,2021-09-03,2021-09-03,株式会社ＩＫＥＴＥＬ,,株式会社,大阪府,大阪市北区,梅田１丁目３－１大阪駅前第１ビル８Ｆ５号,,27,127,5300001,,,,,,,2021-09-03,1,,,,,イケテル,0
1462,5120001240140,新規,0,2021-09-03,2021-09-03,株式会社Ｕ,,株式会社,大阪府,大阪市淀川区,西中島４丁目５番２７号雲龍ビル４０１,,27,123,5320011,,,,,,,2021-09-03,1,,,,,ユー,0
1463,5120001240165,新規,0,2021-09-03,2021-09-03,株式会社ＳＯＡＲ,,株式会社,大阪府,大阪市城東区,諏訪３丁目１番８号,,27,118,5360021,,,,,,,2021-09-03,1,,,,,ソアー,0
1465,5120003020144,新規,0,2021-09-03,2021-09-03,スマイルファーム合同会社,,合同会社,大阪府,大阪市中央区,谷町２丁目５番４号エフベースラドルフビル８１１号,,27,128,5400012,,,,,,,2021-09-03,1,,,,,スマイルファーム,0
1480,5122001035140,新規,0,2021-09-03,2021-09-03,ローマン株式会社,,株式会社,大阪府,東大阪市,上六万寺町１３番１８号,,27,227,5798062,,,,,,,2021-09-03,1,,,,,ローマン,0
1485,5130001070017,新規,0,2021-09-03,2021-09-03,株式会社Ａｃｋｐｌｕｓ,,株式会社,京都府,京都市中京区,下大阪町３５０番地１ｗａｌｋＢＬＤ－Ｂ１Ｆ・Ｗ号,,26,104,6048025,,,,,,,2021-09-03,1,,,,,アックプラス,0
1486,5130001070025,新規,0,2021-09-03,2021-09-03,株式会社ＲＵＢＩＡ,,株式会社,京都府,京都市東山区,新橋通大和大路東入二丁目清本町３７５番地１０,,26,105,6050000,,,,,,,2021-09-03,1,,,,,ルビア,0
1491,5140003016693,新規,0,2021-09-03,2021-09-03,合同会社新エネルギー開発Ｇ,,合同会社,兵庫県,丹波市,春日町野村２３５９番地４,,28,223,6694132,,,,,,,2021-09-03,1,,,,,シンエネルギーカイハツジー,0
1492,5140003016710,新規,0,2021-09-03,2021-09-03,Ｒ‐ｒｏｏｍ合同会社,,合同会社,兵庫県,西宮市,西宮浜４丁目１１－５－７０１,,28,204,6620934,,,,,,,2021-09-03,1,,,,,アールルーム,0
1496,5150001024895,新規,0,2021-09-03,2021-09-03,株式会社御所まちづくり,,株式会社,奈良県,奈良市,西城戸町４番地,,29,201,6308345,,,,,,,2021-09-03,1,,,,,ゴセマチヅクリ,0
1499,5160001023599,新規,0,2021-09-03,2021-09-03,株式会社ＣＹＣＬＥ　Ｈｕｂ＆Ｐｏｒｔ,,株式会社,滋賀県,守山市,梅田町８５番７号,,25,207,5240037,,,,,,,2021-09-03,1,,,,,サイクルハブアンドポート,0
1500,5160001023616,新規,0,2021-09-03,2021-09-03,株式会社寛,,株式会社,滋賀県,東近江市,大森町２１１２－３エスポワール１０５,,25,213,5270063,,,,,,,2021-09-03,1,,,,,ヒロ,0
1501,5160003002361,新規,0,2021-09-03,2021-09-03,合同会社Ａｓｐｉｒａｔｉｏｎ,,合同会社,滋賀県,草津市,青地町１５６８番地３３,,25,206,5250041,,,,,,,2021-09-03,1,,,,,アスピレーション,0
1504,5170001016750,新規,0,2021-09-03,2021-09-03,笹井農園株式会社,,株式会社,和歌山県,紀の川市,尾崎４０番地１,,30,208,6496423,,,,,,,2021-09-03,1,,,,,ササイノウエン,0
1508,5180001147652,新規,0,2021-09-03,2021-09-03,株式会社アンプレガント,,株式会社,愛知県,名古屋市西区,花の木３丁目１７－２－１,,23,104,4510062,,,,,,,2021-09-03,1,,,,,アンプレガント,0
1509,5180001147677,新規,0,2021-09-03,2021-09-03,株式会社ＭＵＲＡＴＡ,,株式会社,愛知県,大府市,一屋町１丁目９９番地,,23,223,4740055,,,,,,,2021-09-03,1,,,,,ムラタ,0
1515,5180003022911,新規,0,2021-09-03,2021-09-03,ぷぐみｅＤＳ合同会社,,合同会社,愛知県,清須市,春日川中８１番地３,,23,233,4520962,,,,,,,2021-09-03,1,,,,,プグミイーディーエス,0
1518,5180301035318,新規,0,2021-09-03,2021-09-03,豊川愛犬美容株式会社,,株式会社,愛知県,豊川市,一宮町社７６番地２,,23,207,4411231,,,,,,,2021-09-03,1,,,,,トヨカワアイケンビヨウ,0
1519,5180303005087,新規,0,2021-09-03,2021-09-03,合同会社マルスギ,,合同会社,愛知県,豊橋市,鴨田町４５番地,,23,201,4418047,,,,,,,2021-09-03,1,,,,,マルスギ,0
1520,5190001028645,新規,0,2021-09-03,2021-09-03,株式会社巨豊,,株式会社,三重県,四日市市,まきの木台２丁目６７番地,,24,202,5121306,,,,,,,2021-09-03,1,,,,,キョホウ,0
1521,5190001028653,新規,0,2021-09-03,2021-09-03,株式会社森下設備,,株式会社,三重県,名張市,百合が丘東４番町８６番地,,24,208,5180474,,,,,,,2021-09-03,1,,,,,モリシタセツビ,0
1522,5190001028661,新規,0,2021-09-03,2021-09-03,株式会社ブッキーサポート,,株式会社,三重県,伊賀市,阿保１２９番地の７,,24,216,5180226,,,,,,,2021-09-03,1,,,,,ブッキーサポート,0
1524,5200001039095,新規,0,2021-09-03,2021-09-03,株式会社藤井バレル,,株式会社,岐阜県,関市,小瀬５０２番地２,,21,205,5013265,,,,,,,2021-09-03,1,,,,,フジイバレル,0
1525,5200001039112,新規,0,2021-09-03,2021-09-03,株式会社エスコート,,株式会社,岐阜県,岐阜市,旦島５丁目３番地１９,,21,201,5020926,,,,,,,2021-09-03,1,,,,,エスコート,0
1531,5220003003106,新規,0,2021-09-03,2021-09-03,合同会社ブッシュ,,合同会社,石川県,白山市,森島町う５５番地８,,17,210,9202131,,,,,,,2021-09-03,1,,,,,ブッシュ,0
1533,5230005009166,新規,0,2021-09-03,2021-09-03,藤岡行政書士法人,,その他の設立登記法人,富山県,富山市,星井町２丁目３番１号,,16,201,9300065,,,,,,,2021-09-03,1,,,,,フジオカ,0
1538,5240001058546,新規,0,2021-09-03,2021-09-03,ＡＳ株式会社,,株式会社,広島県,福山市,南蔵王町２丁目１番１２号,,34,207,7210973,,,,,,,2021-09-03,1,,,,,エーエス,0
1539,5240001058554,新規,0,2021-09-03,2021-09-03,株式会社ＷＯＯＤＰＬＵＳ,,株式会社,広島県,広島市安佐南区,川内６丁目１２番２２号,,34,105,7310102,,,,,,,2021-09-03,1,,,,,ウッドプラス,0
1540,5240001058562,新規,0,2021-09-03,2021-09-03,株式会社ＳＵＧＧＯＩ,,株式会社,広島県,広島市南区,段原南１丁目９番６号,,34,103,7320814,,,,,,,2021-09-03,1,,,,,スッゴイ,0
1542,5240005015262,新規,0,2021-09-03,2021-09-03,福山市下水道管路管理業協同組合,,その他の設立登記法人,広島県,福山市,沼隈町大字草深２７８５番地１３２,,34,207,7200311,,,,,,,2021-09-03,1,,,,,フクヤマシゲスイドウカンロカンリギョウ,0
1545,5250001019092,新規,0,2021-09-03,2021-09-03,株式会社ＬＩＴＯＦＵ,,株式会社,山口県,山口市,中央３丁目２番３２号,,35,203,7530074,,,,,,,2021-09-03,1,,,,,リトフ,0
1546,5250001019101,新規,0,2021-09-03,2021-09-03,株式会社８ＬＡＢＯ,,株式会社,山口県,山口市,黒川１０７５番地４,,35,203,7530851,,,,,,,2021-09-03,1,,,,,エイトラボ,0
1547,5260001035915,新規,0,2021-09-03,2021-09-03,ラ・プラス株式会社,,株式会社,岡山県,岡山市北区,大安寺南町２丁目１１番４６号,,33,101,7000064,,,,,,,2021-09-03,1,,,,,ラプラス,0
1548,5260001035923,新規,0,2021-09-03,2021-09-03,株式会社社長の右腕,,株式会社,岡山県,岡山市北区,辰巳４６‐１０４,,33,101,7000976,,,,,,,2021-09-03,1,,,,,シャチョウノミギウデ,0
1549,5260001035931,新規,0,2021-09-03,2021-09-03,株式会社ＹａｒｕＫＩ,,株式会社,岡山県,岡山市南区,新保６６８番地１‐５０４,,33,104,7000945,,,,,,,2021-09-03,1,,,,,ヤルキ,0
1553,5270003001344,新規,0,2021-09-03,2021-09-03,合同会社４１８,,合同会社,鳥取県,米子市,車尾６丁目８番２５号,,31,202,6830006,,,,,,,2021-09-03,1,,,,,フォーワンエイト,0
1568,5290001094405,新規,0,2021-09-03,2021-09-03,株式会社ｕｔ　ｄｒｅａｍ,,株式会社,福岡県,筑紫野市,美しが丘南３丁目１１番地２１,,40,217,8180034,,,,,,,2021-09-03,1,,,,,ユーティードリーム,0
1569,5290001094470,新規,0,2021-09-03,2021-09-03,グリット株式会社,,株式会社,福岡県,福岡市早良区,祖原６－１２－１０１,,40,137,8140005,,,,,,,2021-09-03,1,,,,,グリット,0
1582,5330001028960,新規,0,2021-09-03,2021-09-03,株式会社松下ホーム,,株式会社,熊本県,宇城市,三角町中村４５１４番地,,43,213,8693204,,,,,,,2021-09-03,1,,,,,マツシタホーム,0
1584,5330003009026,新規,0,2021-09-03,2021-09-03,合同会社Ｇｒａｔｉａ,,合同会社,熊本県,菊池市,隈府４８番地,,43,210,8611331,,,,,,,2021-09-03,1,,,,,グラーティア,0
1585,5340001024067,新規,0,2021-09-03,2021-09-03,徳之島ガイド＆コピーサービス株式会社,,株式会社,鹿児島県,大島郡徳之島町,亀津７４５３番地,,46,530,8917101,,,,,,,2021-09-03,1,,,,,トクノシマガイドアンドコピーサービス,0
1590,5350001017292,新規,0,2021-09-03,2021-09-03,株式会社宮原総林,,株式会社,宮崎県,都城市,都原町３３８６番地３,,45,202,8850094,,,,,,,2021-09-03,1,,,,,ミヤハラソウリン,0
1593,5360001029304,新規,0,2021-09-03,2021-09-03,アスティーダマーケティング株式会社,,株式会社,沖縄県,中頭郡中城村,字南上原１１１２番地１,,47,328,9012424,,,,,,,2021-09-03,1,,,,,アスティーダマーケティング,0
1594,5360001029312,新規,0,2021-09-03,2021-09-03,株式会社オキフラ,,株式会社,沖縄県,糸満市,西崎町３丁目３９８番地,,47,210,9010306,,,,,,,2021-09-03,1,,,,,オキフラ,0
1601,5370001047536,新規,0,2021-09-03,2021-09-03,株式会社光城,,株式会社,宮城県,仙台市太白区,ひより台２４番２４号,,04,104,9820811,,,,,,,2021-09-03,1,,,,,コウキ,0
1602,5370001047544,新規,0,2021-09-03,2021-09-03,株式会社みつづか総合保険企画,,株式会社,宮城県,仙台市泉区,桂２丁目６番地の４,,04,105,9813134,,,,,,,2021-09-03,1,,,,,ミツヅカソウゴウホケンキカク,0
1603,5370001047552,新規,0,2021-09-03,2021-09-03,株式会社エドワードアンドカンパ二―,,株式会社,宮城県,仙台市青葉区,本町１丁目１１番２号,,04,101,9800014,,,,,,,2021-09-03,1,,,,,エドワードアンドカンパニー,0
1604,5370001047560,新規,0,2021-09-03,2021-09-03,株式会社歩夢,,株式会社,宮城県,仙台市泉区,泉中央２丁目１７番地の３フリード１０４号,,04,105,9813133,,,,,,,2021-09-03,1,,,,,アユム,0
1605,5370003005376,新規,0,2021-09-03,2021-09-03,松島農販合同会社,,合同会社,宮城県,東松島市,上下堤字上南谷地４６番地,,04,214,9810305,,,,,,,2021-09-03,1,,,,,マツシマノウハン,0
1606,5380001032157,新規,0,2021-09-03,2021-09-03,株式会社ケア凪咲,,株式会社,福島県,いわき市,内郷高坂町立野２６番地の６,,07,204,9738408,,,,,,,2021-09-03,1,,,,,ケアナギサ,0
1619,5400001015588,新規,0,2021-09-03,2021-09-03,株式会社ＧＯＴＯ,,株式会社,岩手県,奥州市,胆沢小山字前道場３４番地６,,03,215,0230402,,,,,,,2021-09-03,1,,,,,ゴトー,0
1622,5410001012948,新規,0,2021-09-03,2021-09-03,株式会社トシマ,,株式会社,秋田県,男鹿市,脇本脇本字前野１３０番地２１,,05,206,0100342,,,,,,,2021-09-03,1,,,,,トシマ,0
1626,5430001084878,新規,0,2021-09-03,2021-09-03,株式会社ピリカ,,株式会社,北海道,札幌市白石区,北郷二条４丁目６番７号,,01,104,0030832,,,,,,,2021-09-03,1,,,,,ピリカ,0
1627,5430001084903,新規,0,2021-09-03,2021-09-03,株式会社トーエイ,,株式会社,北海道,札幌市東区,伏古十一条２丁目３番１１号,,01,103,0070871,,,,,,,2021-09-03,1,,,,,トーエイ,0
1628,5430003013109,新規,0,2021-09-03,2021-09-03,合同会社Ｓｔｉｒ,,合同会社,北海道,札幌市中央区,南十八条西１３丁目２番４５号トリニティゲート伏見Ｂ－２号,,01,101,0640918,,,,,,,2021-09-03,1,,,,,ステア,0
1634,5460101007050,新規,0,2021-09-03,2021-09-03,株式会社Ｋ－ＧＲＡＮＴ,,株式会社,北海道,中川郡幕別町,字千住４７１番地１,,01,643,0890563,,,,,,,2021-09-03,1,,,,,ケーグラント,0
1639,5470001018691,新規,0,2021-09-03,2021-09-03,株式会社ＤＡＷＮ,,株式会社,香川県,高松市,十川東町９５０番地８,,37,201,7610434,,,,,,,2021-09-03,1,,,,,ドーン,0
1643,5490001009978,新規,0,2021-09-03,2021-09-03,株式会社建築家歩,,株式会社,高知県,南国市,十市３６２９番地５７,,39,204,7830085,,,,,,,2021-09-03,1,,,,,ケンチクヤアユミ,0
1646,5490005006798,新規,0,2021-09-03,2021-09-03,特定非営利活動法人すてきなまち・赤岡プロジェクト,,その他の設立登記法人,高知県,香南市,赤岡町７７２番１,,39,211,7815310,,,,,,,2021-09-03,1,,,,,ステキナマチアカオカプロジェクト,0
1649,5500001023663,新規,0,2021-09-03,2021-09-03,株式会社ＨＩＬＯ　Ｈｏｕｓｅ,,株式会社,愛媛県,宇和島市,祝森甲１６５７番地,,38,203,7980078,,,,,,,2021-09-03,1,,,,,ヒロハウス,0
1650,5700150104186,新規,0,2021-09-03,2021-07-28,庄内文化センター,,その他,山形県,鶴岡市,本町１丁目６－７,,06,203,9970034,,,,,,,2021-07-28,1,,,,,シヨウナイブンカセンター,0
1658,6010001220755,新規,0,2021-09-03,2021-09-03,ｔｈｅＡｓｔａｔｅ株式会社,,株式会社,東京都,千代田区,岩本町３丁目５－２合人社東京秋葉原ビル５０１,,13,101,1010032,,,,,,,2021-09-03,1,,,,,ジエステート,0
1659,6010001220895,新規,0,2021-09-03,2021-09-03,ＡＵＳＰＩＣＩＯＵＳ株式会社,,株式会社,東京都,千代田区,神田三崎町２丁目９番６号,,13,101,1010061,,,,,,,2021-09-03,1,,,,,アスピシャス,0
1672,6010401162399,新規,0,2021-09-03,2021-09-03,ＭＡＫＥＴＨ株式会社,,株式会社,東京都,港区,西麻布１丁目４番３６－５１３号,,13,103,1060031,,,,,,,2021-09-03,1,,,,,メイクス,0
1673,6010401162449,新規,0,2021-09-03,2021-09-03,株式会社Ｍｉｒａｉ　Ａｒｃ,,株式会社,東京都,港区,海岸３丁目２４番地１７号ＳＵＺＵＳＡＷＡビル３階,,13,103,1080022,,,,,,,2021-09-03,1,,,,,ミライアーク,0
1674,6010401162507,新規,0,2021-09-03,2021-09-03,株式会社ＭＡＮＯＡＬＩＮＯ,,株式会社,東京都,港区,南青山２丁目２番１５号,,13,103,1070062,,,,,,,2021-09-03,1,,,,,マノアリノ,0
1677,6010403026057,新規,0,2021-09-03,2021-09-03,合同会社ルナリュクス,,合同会社,東京都,港区,三田２丁目１０－５エル・アルカサル三田５０１,,13,103,1080073,,,,,,,2021-09-03,1,,,,,ルナリュクス,0
1678,6010405020173,新規,0,2021-09-03,2021-09-03,一般社団法人ラテールネクスト,,その他の設立登記法人,東京都,港区,虎ノ門４丁目３番１号,,13,103,1050001,,,,,,,2021-09-03,1,,,,,ラテールネクスト,0
1685,6010701041468,新規,0,2021-09-03,2021-09-03,株式会社Ｔ＆Ｙ,,株式会社,東京都,品川区,東品川１丁目３２番８号,,13,109,1400002,,,,,,,2021-09-03,1,,,,,ティーアンドワイ,0
1686,6010801032284,新規,0,2021-09-03,2021-09-03,株式会社Ｌｏｖｅｙ,,株式会社,東京都,大田区,西糀谷４丁目２９番１６－４２２号,,13,111,1440034,,,,,,,2021-09-03,1,,,,,ラヴィー,0
1689,6010901049369,新規,0,2021-09-03,2021-09-03,株式会社８８組,,株式会社,東京都,世田谷区,経堂４丁目６番１５号,,13,112,1560052,,,,,,,2021-09-03,1,,,,,ハチハチグミ,0
1690,6010901049377,新規,0,2021-09-03,2021-09-03,株式会社ふぐアトリエ,,株式会社,東京都,世田谷区,成城６丁目６番１２号三枝ビル１階,,13,112,1570066,,,,,,,2021-09-03,1,,,,,フグアトリエ,0
1691,6010901049385,新規,0,2021-09-03,2021-09-03,株式会社等々力田園マンション,,株式会社,東京都,世田谷区,等々力１丁目２２番４４号,,13,112,1580082,,,,,,,2021-09-03,1,,,,,トドロキデンエンマンション,0
1693,6010903006772,新規,0,2021-09-03,2021-09-03,合同会社ＪＪ,,合同会社,東京都,世田谷区,三宿２丁目１１番１７－１０６号,,13,112,1540005,,,,,,,2021-09-03,1,,,,,ジェイジェイ,0
1698,6011001142519,新規,0,2021-09-03,2021-09-03,株式会社ＣＳ　ＨＡＣＫ,,株式会社,東京都,渋谷区,渋谷２丁目１９－１５宮益坂ビルディング６０９,,13,113,1500002,,,,,,,2021-09-03,1,,,,,シーエスハック,0
1699,6011001142527,新規,0,2021-09-03,2021-09-03,株式会社ｗａｋｗａｋ,,株式会社,東京都,渋谷区,渋谷２丁目１９－１５宮益坂ビルディング６０９,,13,113,1500002,,,,,,,2021-09-03,1,,,,,ワクワク,0
1700,6011001142618,新規,0,2021-09-03,2021-09-03,株式会社ハニカム,,株式会社,東京都,渋谷区,神宮前６丁目２３番４号,,13,113,1500001,,,,,,,2021-09-03,1,,,,,ハニカム,0
1703,6011103010986,新規,0,2021-09-03,2021-09-03,合同会社ｆｌｏｗｅｒ,,合同会社,東京都,新宿区,西新宿５丁目５番１－３５１５号,,13,104,1600023,,,,,,,2021-09-03,1,,,,,フラワー,0
1706,6011205002452,新規,0,2021-09-03,2021-09-03,医療法人社団朋侑会,,その他の設立登記法人,東京都,中野区,若宮１丁目２５番１２号１階,,13,114,1650033,,,,,,,2021-09-03,1,,,,,ホウユウカイ,0
1708,6011303004160,新規,0,2021-09-03,2021-09-03,合同会社アトリエＫＲ,,合同会社,東京都,杉並区,堀ノ内２丁目６番１５号武蔵野ヌベール方南町３０１,,13,115,1660013,,,,,,,2021-09-03,1,,,,,アトリエケイアール,0
1721,6011801039666,新規,0,2021-09-03,2021-09-03,アットホームいわき株式会社,,株式会社,東京都,葛飾区,新小岩２丁目２４番１０号,,13,122,1240024,,,,,,,2021-09-03,1,,,,,アットホームイワキ,0
1722,6011801039674,新規,0,2021-09-03,2021-09-03,株式会社ｇｒａｓｓｌａｎｄ,,株式会社,東京都,葛飾区,亀有３丁目２５番１号,,13,122,1250061,,,,,,,2021-09-03,1,,,,,グラスランド,0
1727,6011803004750,新規,0,2021-09-03,2021-09-03,竜世合同会社,,合同会社,東京都,葛飾区,亀有３丁目３１－８武田ビル２階,,13,122,1250061,,,,,,,2021-09-03,1,,,,,リュウセイ,0
1728,6011803004759,新規,0,2021-09-03,2021-09-03,マークスインターナショナル合同会社,,合同会社,東京都,足立区,西新井本町４丁目４番３２号,,13,121,1230845,,,,,,,2021-09-03,1,,,,,マークスインターナショナル,0
1736,6012701016648,新規,0,2021-09-03,2021-09-03,株式会社ａｓｔｅｒｉａ,,株式会社,東京都,東村山市,本町１丁目２１番地２３アーバンハイツ２０３号室,,13,213,1890014,,,,,,,2021-09-03,1,,,,,アステリア,0
1737,6012703002299,新規,0,2021-09-03,2021-09-03,堀川総業合同会社,,合同会社,東京都,東村山市,恩多町１丁目５２番地１２,,13,213,1890011,,,,,,,2021-09-03,1,,,,,ホリカワソウギョウ,0
1740,6012803002587,新規,0,2021-09-03,2021-09-03,Ａ＆Ｃ合同会社,,合同会社,東京都,国分寺市,本町２丁目２５番８号,,13,214,1850012,,,,,,,2021-09-03,1,,,,,,0
1751,6020001142833,新規,0,2021-09-03,2021-09-03,株式会社セラビ川崎,,株式会社,神奈川県,川崎市川崎区,駅前本町１１番地２,,14,131,2100007,,,,,,,2021-09-03,1,,,,,セラビカワサキ,0
1756,6021001073829,新規,0,2021-09-03,2021-09-03,さがみはらバイオガスパワー株式会社,,株式会社,神奈川県,相模原市中央区,田名塩田１丁目１６番１４号,,14,152,2520245,,,,,,,2021-09-03,1,,,,,サガミハラバイオガスパワー,0
1762,6030001144110,新規,0,2021-09-03,2021-09-03,株式会社Ｒｅｇｅｎｅ,,株式会社,埼玉県,さいたま市岩槻区,仲町２丁目４番３１号リベルデ岩槻２０３,,11,110,3390054,,,,,,,2021-09-03,1,,,,,リジェネ,0
1763,6030001144168,新規,0,2021-09-03,2021-09-03,株式会社クレアエスト,,株式会社,埼玉県,さいたま市見沼区,東大宮６丁目１５８番地１,,11,104,3370051,,,,,,,2021-09-03,1,,,,,クレアエスト,0
1771,6040001120028,新規,0,2021-09-03,2021-09-03,株式会社ｇａｉｎ,,株式会社,千葉県,千葉市美浜区,真砂２丁目９番１１号,,12,106,2610011,,,,,,,2021-09-03,1,,,,,ゲイン,0
1776,6050001049786,新規,0,2021-09-03,2021-09-03,株式会社エムズサーベイ,,株式会社,茨城県,古河市,中田新田６番地７,,08,204,3060054,,,,,,,2021-09-03,1,,,,,エムズサーベイ,0
1777,6050005012922,新規,0,2021-09-03,2021-09-03,一般社団法人住宅損害調査協会,,その他の設立登記法人,茨城県,つくば市,二の宮１丁目１０番地１ヴェルドミール２０１,,08,220,3050051,,,,,,,2021-09-03,1,,,,,ジュウタクソンガイチョウサキョウカイ,0
1779,6080001024407,新規,0,2021-09-03,2021-09-03,Ｃｙｐｈｅｒ．Ｒｅｙ株式会社,,株式会社,静岡県,静岡市清水区,殿沢１丁目１０番１７号,,22,103,4240912,,,,,,,2021-09-03,1,,,,,サイファーレイ,0
1780,6080001024423,新規,0,2021-09-03,2021-09-03,株式会社ｏｎｅ,,株式会社,静岡県,静岡市葵区,横内町４３番地の１,,22,101,4200832,,,,,,,2021-09-03,1,,,,,ワン,0
1793,6110001036027,新規,0,2021-09-03,2021-09-03,きゃらこむ株式会社,,株式会社,新潟県,見附市,新町１丁目２－５,,15,211,9540057,,,,,,,2021-09-03,1,,,,,キャラコム,0
1803,6120001240065,新規,0,2021-09-03,2021-09-03,Ｆｌｏｕ株式会社,,株式会社,大阪府,大阪市中央区,久太郎町４丁目２番１０号,,27,128,5410056,,,,,,,2021-09-03,1,,,,,フロウ,0
1804,6120001240123,新規,0,2021-09-03,2021-09-03,株式会社ＫＯＨ,,株式会社,大阪府,寝屋川市,石津南町８番８号,,27,215,5720024,,,,,,,2021-09-03,1,,,,,コー,0
1805,6120001240131,新規,0,2021-09-03,2021-09-03,ＩＤＥＣ　ＡＬＰＳ　Ｔｅｃｈｎｏｌｏｇｉｅｓ株式会社,,株式会社,大阪府,大阪市淀川区,西宮原２丁目６番６４号,,27,123,5320004,,,,,,,2021-09-03,1,,,,,アイデックアルプステクノロジー,0
1806,6120001240172,新規,0,2021-09-03,2021-09-03,株式会社ＳＴＯＲＹ,,株式会社,大阪府,大阪市中央区,南船場４丁目１０番５号,,27,128,5420081,,,,,,,2021-09-03,1,,,,,ストーリー,0
1807,6120001240180,新規,0,2021-09-03,2021-09-03,株式会社Ｃｒｅｓｔ,,株式会社,大阪府,大阪市港区,夕凪２丁目１７番１５－２０１号,,27,107,5520004,,,,,,,2021-09-03,1,,,,,クレスト,0
1808,6120001240189,新規,0,2021-09-03,2021-09-03,ハッピースマイル株式会社,,株式会社,大阪府,大阪市住吉区,我孫子３丁目２番１１号,,27,120,5580014,,,,,,,2021-09-03,1,,,,,ハッピースマイル,0
1810,6120003020127,新規,0,2021-09-03,2021-09-03,合同会社ＭＢＩ,,合同会社,大阪府,大阪市淀川区,三津屋中１丁目４番７号グランメールマツダ２０２号,,27,123,5320036,,,,,,,2021-09-03,1,,,,,エムビーアイ,0
1811,6120005022484,新規,0,2021-09-03,2021-09-03,社会保険労務士法人上村事務所,,その他の設立登記法人,大阪府,大阪市中央区,内本町１丁目２番５号ＹＳＫビル５０１号,,27,128,5400026,,,,,,,2021-09-03,1,,,,,ウエムラジムショ,0
1816,6120101064232,新規,0,2021-09-03,2021-09-03,株式会社香川工業,,株式会社,大阪府,和泉市,池上町４丁目３番４７号,,27,219,5940083,,,,,,,2021-09-03,1,,,,,カガワコウギョウ,0
1831,6130003007453,新規,0,2021-09-03,2021-09-03,Ｆｕｌｌｍｏｏｎ　Ｐａｒｔｙ合同会社,,合同会社,京都府,京都市南区,久世高田町３７３番地１,,26,107,6018211,,,,,,,2021-09-03,1,,,,,フルムーンパーティー,0
1835,6140003016692,新規,0,2021-09-03,2021-09-03,合同会社新エネルギー開発Ｆ,,合同会社,兵庫県,丹波市,春日町野村２３５９番地４,,28,223,6694132,,,,,,,2021-09-03,1,,,,,シンエネルギーカイハツエフ,0
1837,6160001023598,新規,0,2021-09-03,2021-09-03,株式会社真和自動車工業所,,株式会社,滋賀県,長浜市,今川町２６０番地４,,25,203,5260816,,,,,,,2021-09-03,1,,,,,シンワジドウシャコウギョウショ,0
1840,6170003001626,新規,0,2021-09-03,2021-09-03,合同会社ｍソリューション,,合同会社,和歌山県,西牟婁郡白浜町,１４９７番地の３,,30,401,6492211,,,,,,,2021-09-03,1,,,,,エムソリューション,0
1846,6180001147635,新規,0,2021-09-03,2021-09-03,丸菱ホールディングス株式会社,,株式会社,愛知県,小牧市,大字本庄１２５１番地３,,23,219,4850821,,,,,,,2021-09-03,1,,,,,マルビシホールディングス,0
1847,6180001147676,新規,0,2021-09-03,2021-09-03,株式会社蒼,,株式会社,愛知県,名古屋市守山区,小幡宮ノ腰１番２１号－２,,23,113,4630052,,,,,,,2021-09-03,1,,,,,アオイ,0
1848,6180001147718,新規,0,2021-09-03,2021-09-03,株式会社松田電気設備,,株式会社,愛知県,一宮市,春明字中本郷２５番地６,,23,203,4910003,,,,,,,2021-09-03,1,,,,,マツダデンキセツビ,0
1856,6180301035309,新規,0,2021-09-03,2021-09-03,株式会社八紘,,株式会社,愛知県,岡崎市,大平町字奥田潰１番地１,,23,202,4440007,,,,,,,2021-09-03,1,,,,,ハッコウ,0
1858,6180303005094,新規,0,2021-09-03,2021-09-03,電気工事リスペクト合同会社,,合同会社,愛知県,豊田市,越戸町安貝戸２０８番地１３,,23,211,4700332,,,,,,,2021-09-03,1,,,,,デンキコウジリスペクト,0
1863,6190001028652,新規,0,2021-09-03,2021-09-03,エヌイー株式会社,,株式会社,三重県,亀山市,能褒野町１８８４番地１,,24,210,5190212,,,,,,,2021-09-03,1,,,,,エヌイー,0
1867,6200001039094,新規,0,2021-09-03,2021-09-03,株式会社Ｄｃｔ,,株式会社,岐阜県,岐阜市,旦島３丁目９番２３号,,21,201,5020926,,,,,,,2021-09-03,1,,,,,ディクト,0
1868,6200001039111,新規,0,2021-09-03,2021-09-03,株式会社リザコート,,株式会社,岐阜県,大垣市,荒尾町１２２９番地,,21,202,5030034,,,,,,,2021-09-03,1,,,,,リザコート,0
1874,6210001018584,新規,0,2021-09-03,2021-09-03,株式会社えいちゃん,,株式会社,福井県,福井市,高木中央２丁目１６０１,,18,201,9100804,,,,,,,2021-09-03,1,,,,,エイチャン,0
1875,6210001018592,新規,0,2021-09-03,2021-09-03,敦賀ワークス株式会社,,株式会社,福井県,敦賀市,五幡３１－５－１,,18,202,9140267,,,,,,,2021-09-03,1,,,,,ツルガワークス,0
1878,6230001018962,新規,0,2021-09-03,2021-09-03,株式会社三橋建築,,株式会社,富山県,富山市,上冨居２丁目１５番３０号,,16,201,9300835,,,,,,,2021-09-03,1,,,,,ミツハシケンチク,0
1883,6240001058512,新規,0,2021-09-03,2021-09-03,株式会社タイヨーアグリ,,株式会社,広島県,福山市,坪生町５丁目１０番１３号,,34,207,7210903,,,,,,,2021-09-03,1,,,,,タイヨーアグリ,0
1884,6240001058529,新規,0,2021-09-03,2021-09-03,株式会社Ｄｅｆ,,株式会社,広島県,廿日市市,宮島口西２丁目８番２３号,,34,213,7390412,,,,,,,2021-09-03,1,,,,,デフ,0
1885,6240001058545,新規,0,2021-09-03,2021-09-03,山下建設株式会社,,株式会社,広島県,東広島市,八本松東３丁目３０番８号,,34,212,7390142,,,,,,,2021-09-03,1,,,,,ヤマシタケンセツ,0
1886,6240001058561,新規,0,2021-09-03,2021-09-03,株式会社ＳＳＫサポート,,株式会社,広島県,広島市佐伯区,藤垂園１番８－３０５号,,34,108,7315131,,,,,,,2021-09-03,1,,,,,エスエスケイサポート,0
1897,6270003001343,新規,0,2021-09-03,2021-09-03,合同会社Ａｒｃｈ,,合同会社,鳥取県,米子市,車尾６丁目８番２５号,,31,202,6830006,,,,,,,2021-09-03,1,,,,,アーチ,0
1899,6280003001524,新規,0,2021-09-03,2021-09-03,ラルゴイズモ合同会社,,合同会社,島根県,出雲市,斐川町上直江１５２４番地,,32,203,6990624,,,,,,,2021-09-03,1,,,,,ラルゴイズモ,0
1903,6290001094429,新規,0,2021-09-03,2021-09-03,株式会社はのがっこう,,株式会社,福岡県,小郡市,二森字辻前１８２８,,40,216,8380126,,,,,,,2021-09-03,1,,,,,ハノガッコウ,0
1904,6290001094445,新規,0,2021-09-03,2021-09-03,株式会社ＳＡＩＫＩＳＳ,,株式会社,福岡県,福岡市中央区,大濠公園２－３５　９階,,40,133,8100051,,,,,,,2021-09-03,1,,,,,サイキス,0
1916,6330001028968,新規,0,2021-09-03,2021-09-03,株式会社ＴｏｒｉＮａｓｕ,,株式会社,熊本県,上益城郡益城町,大字田原２０８１番地１０,,43,443,8612202,,,,,,,2021-09-03,1,,,,,トリナス,0
1918,6330003009025,新規,0,2021-09-03,2021-09-03,合同会社ＯＫＵＭＵＲＡ,,合同会社,熊本県,上益城郡御船町,大字七滝１８５６番地,,43,441,8613321,,,,,,,2021-09-03,1,,,,,オクムラ,0
1921,6350001017275,新規,0,2021-09-03,2021-09-03,株式会社トーラス,,株式会社,宮崎県,北諸県郡三股町,五本松２０番地１２,,45,341,8891902,,,,,,,2021-09-03,1,,,,,トーラス,0
1924,6360001029311,新規,0,2021-09-03,2021-09-03,株式会社ｋｏｍａｃｈｉ　ｊａｐａｎ,,株式会社,沖縄県,うるま市,字前原３８０番地マンションＹ５０２号室,,47,213,9042235,,,,,,,2021-09-03,1,,,,,コマチジャパン,0
1930,6370001047535,新規,0,2021-09-03,2021-09-03,株式会社ライフフォワード,,株式会社,宮城県,登米市,南方町風張１４番地,,04,212,9870424,,,,,,,2021-09-03,1,,,,,ライフフォワード,0
1931,6370001047543,新規,0,2021-09-03,2021-09-03,株式会社ｔｏ－ｕｐ,,株式会社,宮城県,仙台市青葉区,本町１丁目９番２号,,04,101,9800014,,,,,,,2021-09-03,1,,,,,トゥアップ,0
1932,6370001047551,新規,0,2021-09-03,2021-09-03,株式会社ＴＧ,,株式会社,宮城県,仙台市青葉区,立町４番１８－６０１号,,04,101,9800822,,,,,,,2021-09-03,1,,,,,ティージー,0
1936,6380001032164,新規,0,2021-09-03,2021-09-03,株式会社Ｋ．ｒｉｓｅ,,株式会社,福島県,福島市,飯坂町平野字殿田１４４番地の４,,07,201,9600231,,,,,,,2021-09-03,1,,,,,ケイライズ,0
1937,6380001032172,新規,0,2021-09-03,2021-09-03,株式会社センド,,株式会社,福島県,郡山市,西ノ内１丁目１８番１８号,,07,203,9638022,,,,,,,2021-09-03,1,,,,,,0
1946,6410003003564,新規,0,2021-09-03,2021-09-03,合同会社ルーファー,,合同会社,秋田県,山本郡三種町,大口字地蔵脇１９９番地２,,05,348,0182406,,,,,,,2021-09-03,1,,,,,ルーファー,0
1953,6430001084885,新規,0,2021-09-03,2021-09-03,株式会社Ｒｅｎ,,株式会社,北海道,札幌市中央区,南一条西５丁目７番地１豊川南一条ビル５階,,01,101,0600061,,,,,,,2021-09-03,1,,,,,レン,0
1954,6430001084902,新規,0,2021-09-03,2021-09-03,株式会社ＳＯＬＡ,,株式会社,北海道,札幌市西区,平和二条２丁目４番３号,,01,107,0630022,,,,,,,2021-09-03,1,,,,,ソラ,0
1957,6430003013108,新規,0,2021-09-03,2021-09-03,合同会社いなんくる,,合同会社,北海道,札幌市中央区,北一条西３丁目３番地ばらと北一条ビル９Ｆ－２,,01,101,0600001,,,,,,,2021-09-03,1,,,,,イナンクル,0
1966,6470001018690,新規,0,2021-09-03,2021-09-03,株式会社ＡＳＡ屋島,,株式会社,香川県,高松市,春日町１６３９番地１,,37,201,7610101,,,,,,,2021-09-03,1,,,,,エイエスエイヤシマ,0
1967,6470001018699,新規,0,2021-09-03,2021-09-03,株式会社Ｊａｐａｎ　Ｆｒｕｉｔｓ,,株式会社,香川県,坂出市,久米町２丁目８２４番地１,,37,203,7620003,,,,,,,2021-09-03,1,,,,,ジャパンフルーツ,0
1971,6490001009977,新規,0,2021-09-03,2021-09-03,土佐総合サービス株式会社,,株式会社,高知県,高知市,大谷公園町１１番３２号,,39,201,7808085,,,,,,,2021-09-03,1,,,,,トサソウゴウサービス,0
1972,6500001023654,新規,0,2021-09-03,2021-09-03,株式会社Ｃｈａｉｎｏｎ,,株式会社,愛媛県,宇和島市,伊吹町甲１２６番地グリーンベル１０３号,,38,203,7980022,,,,,,,2021-09-03,1,,,,,シェノン,0
1973,6500001023670,新規,0,2021-09-03,2021-09-03,宮﨑工業株式会社,00124113,株式会社,愛媛県,新居浜市,船木甲３８７６番地３,,38,205,7920856,,,,,,,2021-09-03,1,,,,,ミヤザキコウギョウ,0
1974,6500003002689,新規,0,2021-09-03,2021-09-03,合同会社Ｍ＆Ｍ,,合同会社,愛媛県,松山市,吉藤２丁目１１番２２号,,38,201,7918011,,,,,,,2021-09-03,1,,,,,エムアンドエム,0
1982,7010001220829,新規,0,2021-09-03,2021-09-03,株式会社グラール,,株式会社,東京都,中央区,東日本橋１丁目１番２０号三幸日本橋プラザビル,,13,102,1030004,,,,,,,2021-09-03,1,,,,,グラール,0
1983,7010001220861,新規,0,2021-09-03,2021-09-03,キッズウィークエンド株式会社,,株式会社,東京都,中央区,新富２丁目５番１０号新富ビル,,13,102,1040041,,,,,,,2021-09-03,1,,,,,キッズウィークエンド,0
1984,7010003035721,新規,0,2021-09-03,2021-09-03,東京ワン運営合同会社,,合同会社,東京都,千代田区,神田神保町１丁目１１番地さくら綜合事務所内,,13,101,1010051,,,,,,,2021-09-03,1,,,,,トウキョウワンウンエイ,0
1985,7010003035738,新規,0,2021-09-03,2021-09-03,Ａｕｓｐｉｃｉｏｕｓ　ＣｏｍＶｉｓｉｏｎ合同会社,,合同会社,東京都,文京区,本郷１丁目５番１７号,,13,105,1130033,,,,,,,2021-09-03,1,,,,,アスピシャスカンビジョン,0
1987,7010101014841,新規,0,2021-09-03,2021-09-03,株式会社ＡＲＥＸ,,株式会社,東京都,八王子市,別所１丁目２３番地５,,13,201,1920363,,,,,,,2021-09-03,1,,,,,アレックス,0
1991,7010401162489,新規,0,2021-09-03,2021-09-03,株式会社広済堂不動産,,株式会社,東京都,港区,芝浦１丁目２番３号シーバンスＳ館１３階,,13,103,1050023,,,,,,,2021-09-03,1,,,,,コウサイドウフドウサン,0
1992,7010401162530,新規,0,2021-09-03,2021-09-03,株式会社ＨａｐｐｙＨａｐｐｙＨａｐｐｙ,,株式会社,東京都,港区,南麻布２丁目９－１５－６０９,,13,103,1060047,,,,,,,2021-09-03,1,,,,,ハッピィハッピィハッピィ,0
1996,7010403026048,新規,0,2021-09-03,2021-09-03,Ｎｅｓｍｙ合同会社,,合同会社,東京都,港区,白金３丁目１７－１９－６０１,,13,103,1080072,,,,,,,2021-09-03,1,,,,,ネスミィ,0
1998,7010501047796,新規,0,2021-09-03,2021-09-03,株式会社クラウド塾,,株式会社,東京都,台東区,台東２丁目２７番３号,,13,106,1100016,,,,,,,2021-09-03,1,,,,,クラウドジュク,0
2001,7010701041467,新規,0,2021-09-03,2021-09-03,マリネス株式会社,,株式会社,東京都,品川区,西五反田１丁目１３番７号マルキビル３階,,13,109,1410031,,,,,,,2021-09-03,1,,,,,マリネス,0
2002,7010801032283,新規,0,2021-09-03,2021-09-03,株式会社グレアリング,,株式会社,東京都,大田区,下丸子１丁目１５番２２－１０８号,,13,111,1460092,,,,,,,2021-09-03,1,,,,,グレアリング,0
2008,7010901049384,新規,0,2021-09-03,2021-09-03,株式会社サクモフ,,株式会社,東京都,世田谷区,太子堂５丁目６－８－２０３,,13,112,1540004,,,,,,,2021-09-03,1,,,,,サクモフ,0
2018,7011003013295,新規,0,2021-09-03,2021-09-03,合同会社わらう,,合同会社,東京都,渋谷区,神宮前６丁目２３番４号桑野ビル２階,,13,113,1500001,,,,,,,2021-09-03,1,,,,,ワラウ,0
2019,7011003013304,新規,0,2021-09-03,2021-09-03,ムーブアヘッド合同会社,,合同会社,東京都,渋谷区,円山町５番５号Ｎａｖｉ渋谷Ｖ３階,,13,113,1500044,,,,,,,2021-09-03,1,,,,,ムーブアヘッド,0
2024,7011101096135,新規,0,2021-09-03,2021-09-03,株式会社Ｗｉｎｅ　Ｓｅｌｅｃｔ,,株式会社,東京都,新宿区,神楽坂６丁目３６－１神楽坂ビル３０１号室,,13,104,1620825,,,,,,,2021-09-03,1,,,,,ワインセレクト,0
2025,7011101096184,新規,0,2021-09-03,2021-09-03,Ｋ　ＳＨＩＮＯ株式会社,,株式会社,東京都,新宿区,百人町２丁目１３番１７号フラットアイ２０３,,13,104,1690073,,,,,,,2021-09-03,1,,,,,ケイシノ,0
2027,7011103010977,新規,0,2021-09-03,2021-09-03,サスコンサルティング合同会社,,合同会社,東京都,新宿区,新宿２丁目１２番１３号新宿アントレサロンビル２階,,13,104,1600022,,,,,,,2021-09-03,1,,,,,サスコンサルティング,0
2029,7011205002451,新規,0,2021-09-03,2021-09-03,医療法人社団アダット,,その他の設立登記法人,東京都,中野区,本町１丁目３１番６号マンション中野坂上２０３号,,13,114,1640012,,,,,,,2021-09-03,1,,,,,アダット,0
2040,7012401038264,新規,0,2021-09-03,2021-09-03,株式会社ＭＨワークス,,株式会社,東京都,武蔵野市,境南町３丁目１９番４号山忠ビル２階,,13,203,1800023,,,,,,,2021-09-03,1,,,,,エムエイチワークス,0
2041,7012401038280,新規,0,2021-09-03,2021-09-03,株式会社すまいとおかね,,株式会社,東京都,武蔵野市,中町１丁目２２番４－８０３号ベルジュール武蔵野中町,,13,203,1800006,,,,,,,2021-09-03,1,,,,,スマイトオカネ,0
2057,7020001142774,新規,0,2021-09-03,2021-09-03,株式会社サイセイゲン,,株式会社,神奈川県,横浜市青葉区,たちばな台１丁目９番５号,,14,117,2270046,,,,,,,2021-09-03,1,,,,,サイセイゲン,0
2058,7020001142873,新規,0,2021-09-03,2021-09-03,株式会社インテグリティ,,株式会社,神奈川県,横浜市青葉区,あざみ野３丁目１１番地４０,,14,117,2250011,,,,,,,2021-09-03,1,,,,,インテグリティ,0
2061,7020003020425,新規,0,2021-09-03,2021-09-03,Ｂｏｈｅｍｉａｎ　Ｊｏｕｒｎｅｙ合同会社,,合同会社,神奈川県,横浜市鶴見区,生麦１丁目５番２８－２０７号,,14,101,2300052,,,,,,,2021-09-03,1,,,,,ボヘミアンジャーニー,0
2062,7020005015191,新規,0,2021-09-03,2021-09-03,特定非営利活動法人横浜脳神経外科研究会,,その他の設立登記法人,神奈川県,横浜市金沢区,能見台通１１番１６号,,14,108,2360053,,,,,,,2021-09-03,1,,,,,ヨコハマノウシンケイゲカケンキュウカイ,0
2074,7030001144126,新規,0,2021-09-03,2021-09-03,株式会社ＤＩＲＮＳ,,株式会社,埼玉県,川越市,元町１丁目８番地２５,,11,201,3500062,,,,,,,2021-09-03,1,,,,,ダーンズ,0
2075,7030001144142,新規,0,2021-09-03,2021-09-03,株式会社ＭＡＣクロス,,株式会社,埼玉県,所沢市,東住吉１５番３８号,,11,208,3591124,,,,,,,2021-09-03,1,,,,,マッククロス,0
2076,7030003017890,新規,0,2021-09-03,2021-09-03,サスティナブルー合同会社,,合同会社,埼玉県,さいたま市大宮区,大成町３丁目２１３番地カンフリエ３０３,,11,103,3300852,,,,,,,2021-09-03,1,,,,,サスティナブルー,0
2081,7040001119985,新規,0,2021-09-03,2021-09-03,Ｍ＆Ｈ株式会社,,株式会社,千葉県,八街市,八街い２１３番地７０,,12,230,2891143,,,,,,,2021-09-03,1,,,,,エムアンドエイチ,0
2082,7040001119993,新規,0,2021-09-03,2021-09-03,株式会社ハヨラ,,株式会社,千葉県,山武郡横芝光町,栗山４６６７番地３,,12,410,2891733,,,,,,,2021-09-03,1,,,,,ハヨラ,0
2083,7040001120035,新規,0,2021-09-03,2021-09-03,株式会社カーペンタージャパン,,株式会社,千葉県,松戸市,常盤平１丁目１８番地の１３,,12,207,2702261,,,,,,,2021-09-03,1,,,,,カーペンタージャパン,0
2086,7040003018434,新規,0,2021-09-03,2021-09-03,合同会社ＹＳＫ,,合同会社,千葉県,船橋市,咲が丘４丁目３５－６２,,12,204,2740807,,,,,,,2021-09-03,1,,,,,ワイエスケイ,0
2087,7050001049769,新規,0,2021-09-03,2021-09-03,株式会社ＲＮＮ,,株式会社,茨城県,土浦市,桜町２丁目５番５号,,08,203,3000037,,,,,,,2021-09-03,1,,,,,アールエヌエヌ,0
2096,7080001024422,新規,0,2021-09-03,2021-09-03,株式会社カネイチコーポレーション,,株式会社,静岡県,静岡市駿河区,用宗１丁目１１番８号,,22,102,4210122,,,,,,,2021-09-03,1,,,,,カネイチコーポレーション,0
2098,7080003002632,新規,0,2021-09-03,2021-09-03,合同会社マイローズ島田,,合同会社,静岡県,島田市,中溝町１４２３番地の２,,22,209,4270047,,,,,,,2021-09-03,1,,,,,マイローズシマダ,0
2106,7100001034583,新規,0,2021-09-03,2021-09-03,下條創生株式会社,,株式会社,長野県,下伊那郡下條村,睦沢２０７１番地,,20,411,3992101,,,,,,,2021-09-03,1,,,,,シモジョウソウセイ,0
2107,7100003006218,新規,0,2021-09-03,2021-09-03,Ｓｏｆｍｉｄソリューションズ合同会社,,合同会社,長野県,諏訪市,渋崎１７９２－４１３－６０４,,20,206,3920010,,,,,,,2021-09-03,1,,,,,ソフミッドソリューションズ,0
2110,7110003004567,新規,0,2021-09-03,2021-09-03,合同会社風間工業,,合同会社,新潟県,新潟市秋葉区,新金沢町７番６号,,15,105,9560815,,,,,,,2021-09-03,1,,,,,カザマコウギョウ,0
2126,7120001240130,新規,0,2021-09-03,2021-09-03,株式会社ウラケン,,株式会社,大阪府,大阪市住之江区,住之江３丁目７番１４号,,27,125,5590004,,,,,,,2021-09-03,1,,,,,ウラケン,0
2127,7120001240147,新規,0,2021-09-03,2021-09-03,株式会社ＦＩＬＬ　ｄｒｏｐ,,株式会社,大阪府,大阪市生野区,鶴橋５丁目１０番８号,,27,116,5440031,,,,,,,2021-09-03,1,,,,,フィルドロップ,0
2131,7120003020084,新規,0,2021-09-03,2021-09-03,合同会社Ｂａｓｅ　Ｌｉｆｅ　Ｃｏｒｐ,,合同会社,大阪府,大阪市淀川区,新北野１丁目１２番３－７０６号,,27,123,5320025,,,,,,,2021-09-03,1,,,,,ベースライフコーポ,0
2132,7120003020134,新規,0,2021-09-03,2021-09-03,合同会社大阪商事,,合同会社,大阪府,大阪市生野区,田島１丁目７番３号,,27,116,5440011,,,,,,,2021-09-03,1,,,,,オオサカショウジ,0
2133,7120003020142,新規,0,2021-09-03,2021-09-03,合同会社Ａｌｔ　Ｗｏｒｋｓ,,合同会社,大阪府,大阪市阿倍野区,阿倍野筋１丁目１－４３あべのハルカス３１階,,27,119,5450052,,,,,,,2021-09-03,1,,,,,オルトワークス,0
2138,7120101064248,新規,0,2021-09-03,2021-09-03,和島畜産株式会社,,株式会社,大阪府,羽曳野市,野々上５丁目１０番１１号,,27,222,5830871,,,,,,,2021-09-03,1,,,,,ワジマチクサン,0
2141,7120901044820,新規,0,2021-09-03,2021-09-03,りそうグループ株式会社,,株式会社,大阪府,箕面市,桜井３丁目２番２４号,,27,220,5620043,,,,,,,2021-09-03,1,,,,,リソウグループ,0
2142,7120901044837,新規,0,2021-09-03,2021-09-03,株式会社笹義,,株式会社,大阪府,豊中市,上野東３丁目９番２３号,,27,203,5600013,,,,,,,2021-09-03,1,,,,,ササヨシ,0
2143,7120903003799,新規,0,2021-09-03,2021-09-03,合同会社Ｌｉｂｅｒｔｅ,,合同会社,大阪府,茨木市,西駅前町８－１５吉田マンション４０６,,27,211,5670032,,,,,,,2021-09-03,1,,,,,リベルテ,0
2144,7120903003808,新規,0,2021-09-03,2021-09-03,合同会社光孝庵,,合同会社,大阪府,箕面市,如意谷４丁目６番１２号,,27,220,5620011,,,,,,,2021-09-03,1,,,,,コウコウアン,0
2148,7122001035139,新規,0,2021-09-03,2021-09-03,株式会社山下工芸,,株式会社,大阪府,東大阪市,寺前町２丁目４番５号,,27,227,5770845,,,,,,,2021-09-03,1,,,,,ヤマシタコウゲイ,0
2159,7130001070031,新規,0,2021-09-03,2021-09-03,株式会社セカンドライフ・ラボ,,株式会社,京都府,京都市下京区,猪熊通綾小路下る瀬戸屋町３０３番地,,26,106,6008398,,,,,,,2021-09-03,1,,,,,セカンドライフラボ,0
2160,7130001070056,新規,0,2021-09-03,2021-09-03,株式会社アップスター,,株式会社,京都府,京都市南区,吉祥院井ノ口町３８番地５,,26,107,6018314,,,,,,,2021-09-03,1,,,,,アップスター,0
2167,7140001122847,新規,0,2021-09-03,2021-09-03,株式会社和進,,株式会社,兵庫県,神戸市北区,藤原台中町６丁目２０番１３号,,28,109,6511302,,,,,,,2021-09-03,1,,,,,ワシン,0
2168,7140001122871,新規,0,2021-09-03,2021-09-03,株式会社たなか科学,,株式会社,兵庫県,神戸市灘区,篠原中町３丁目４番４号,,28,102,6570066,,,,,,,2021-09-03,1,,,,,タナカカガク,0
2169,7140001122888,新規,0,2021-09-03,2021-09-03,常勝機設株式会社,,株式会社,兵庫県,たつの市,龍野町富永４０３番地２１,,28,229,6794167,,,,,,,2021-09-03,1,,,,,ジョウショウキセツ,0
2170,7140003016691,新規,0,2021-09-03,2021-09-03,合同会社新エネルギー開発Ｅ,,合同会社,兵庫県,丹波市,春日町野村２３５９番地４,,28,223,6694132,,,,,,,2021-09-03,1,,,,,シンエネルギーカイハツイー,0
2171,7140003016709,新規,0,2021-09-03,2021-09-03,合同会社アクール神戸,,合同会社,兵庫県,西脇市,野村町８２１,,28,213,6770054,,,,,,,2021-09-03,1,,,,,アクールコウベ,0
2173,7160001023597,新規,0,2021-09-03,2021-09-03,株式会社ｕｎｌｉｍｉｔｅｄ,,株式会社,滋賀県,彦根市,本町２丁目２番４５号,,25,202,5220064,,,,,,,2021-09-03,1,,,,,アンリミテッド,0
2174,7160001023606,新規,0,2021-09-03,2021-09-03,株式会社ユメミライ,,株式会社,滋賀県,高島市,今津町上弘部４５２,,25,212,5201613,,,,,,,2021-09-03,1,,,,,ユメミライ,0
2177,7170001016749,新規,0,2021-09-03,2021-09-03,株式会社山本石油,,株式会社,和歌山県,田辺市,芳養町４３番地,,30,206,6460056,,,,,,,2021-09-03,1,,,,,ヤマモトセキユ,0
2178,7170003001625,新規,0,2021-09-03,2021-09-03,ＡＳＣＥＮＴ合同会社,,合同会社,和歌山県,和歌山市,紀三井寺１１３４番地２,,30,201,6410012,,,,,,,2021-09-03,1,,,,,アセント,0
2184,7180001147634,新規,0,2021-09-03,2021-09-03,株式会社グニ,,株式会社,愛知県,名古屋市中区,大須１丁目７番１４号パークＩＭビル２Ｆ,,23,106,4600011,,,,,,,2021-09-03,1,,,,,グニ,0
2185,7180001147667,新規,0,2021-09-03,2021-09-03,株式会社ＮＡＮＡ,,株式会社,愛知県,一宮市,萩原町富田方字西出１４番地,,23,203,4910352,,,,,,,2021-09-03,1,,,,,ナナ,0
2186,7180001147733,新規,0,2021-09-03,2021-09-03,株式会社Ｐａｒａｓｏｌ,,株式会社,愛知県,名古屋市千種区,今池南８番１５号,,23,101,4640851,,,,,,,2021-09-03,1,,,,,パラソル,0
2189,7180003022918,新規,0,2021-09-03,2021-09-03,合同会社ミライズ経営コンサルティング,,合同会社,愛知県,名古屋市港区,正徳町３丁目３６番地の１,,23,111,4550075,,,,,,,2021-09-03,1,,,,,ミライズケイエイコンサルティング,0
2191,7180005019425,新規,0,2021-09-03,2021-09-03,令和社会保険労務士法人,,その他の設立登記法人,愛知県,一宮市,観音寺１丁目７番２０号,,23,203,4910916,,,,,,,2021-09-03,1,,,,,レイワ,0
2193,7180303005093,新規,0,2021-09-03,2021-09-03,とよたアート＆エンターテイメント合同会社,,合同会社,愛知県,豊田市,梅坪町８丁目３‐２第二杉山ビル３０２号,,23,211,4710064,,,,,,,2021-09-03,1,,,,,トヨタアートアンドエンターテイメント,0
2199,7200001039093,新規,0,2021-09-03,2021-09-03,株式会社ＮＳＰ　ＭＫ,,株式会社,岐阜県,美濃加茂市,下米田町信友６４１番地１,,21,211,5050013,,,,,,,2021-09-03,1,,,,,エヌエスピーエムケイ,0
2200,7200001039102,新規,0,2021-09-03,2021-09-03,株式会社ウインドカトウ,,株式会社,岐阜県,岐阜市,大黒町２丁目１番地３,,21,201,5008151,,,,,,,2021-09-03,1,,,,,ウインドカトウ,0
2201,7200001039110,新規,0,2021-09-03,2021-09-03,株式会社ｈａｒａｓｅｎ,,株式会社,岐阜県,多治見市,大針町６２４番地１１,,21,204,5070062,,,,,,,2021-09-03,1,,,,,ハラセン,0
2202,7200003005300,新規,0,2021-09-03,2021-09-03,Ｌｉｔｔｌｅ　Ｓｕｎ合同会社,,合同会社,岐阜県,岐阜市,本荘西１丁目１２５番地,,21,201,5008361,,,,,,,2021-09-03,1,,,,,リトルサン,0
2206,7220001024374,新規,0,2021-09-03,2021-09-03,株式会社アラネア,,株式会社,石川県,金沢市,昭和町７番５号２Ｆ,,17,201,9200856,,,,,,,2021-09-03,1,,,,,アラネア,0
2207,7220001024408,新規,0,2021-09-03,2021-09-03,株式会社ＮＡＫＡＩ,,株式会社,石川県,金沢市,問屋町１丁目３７番地,,17,201,9200061,,,,,,,2021-09-03,1,,,,,ナカイ,0
2209,7230001018961,新規,0,2021-09-03,2021-09-03,メイト株式会社,,株式会社,富山県,射水市,加茂中部１２２７番地,,16,211,9330204,,,,,,,2021-09-03,1,,,,,メイト,0
2210,7230003001718,新規,0,2021-09-03,2021-09-03,合同会社ＨＡＹＡＺＯ,,合同会社,富山県,高岡市,野村４７０野村ビル２Ｆ,,16,202,9330014,,,,,,,2021-09-03,1,,,,,,0
2216,7240001058544,新規,0,2021-09-03,2021-09-03,株式会社東洋アセット,,株式会社,広島県,広島市西区,楠木町２丁目１番２２号,,34,104,7330002,,,,,,,2021-09-03,1,,,,,トウヨウアセット,0
2217,7240001058552,新規,0,2021-09-03,2021-09-03,株式会社ＯＫＤＫ,,株式会社,広島県,広島市西区,南観音２丁目１番３２号,,34,104,7330035,,,,,,,2021-09-03,1,,,,,オーケーディーケー,0
2218,7240001058560,新規,0,2021-09-03,2021-09-03,株式会社ＥＦＦＩＣＡＣＹ　ＵＰ,,株式会社,広島県,広島市中区,本川町３丁目１番５号,,34,101,7300802,,,,,,,2021-09-03,1,,,,,エフィカシーアップ,0
2220,7240003005263,新規,0,2021-09-03,2021-09-03,合同会社Ｌｏｏｋ　ａｔ　Ｔａｉｌｏｒ,,合同会社,広島県,広島市西区,己斐大迫３丁目４５番２２号,,34,104,7330816,,,,,,,2021-09-03,1,,,,,ルックアットテイラー,0
2224,7260001035921,新規,0,2021-09-03,2021-09-03,ルート株式会社,,株式会社,岡山県,倉敷市,田ノ上８０５‐６,,33,202,7100831,,,,,,,2021-09-03,1,,,,,ルート,0
2225,7260001035938,新規,0,2021-09-03,2021-09-03,ＲＥコンサルティング株式会社,,株式会社,岡山県,倉敷市,大畠１丁目１２番１２号,,33,202,7110924,,,,,,,2021-09-03,1,,,,,アールイーコンサルティング,0
2229,7280005007436,新規,0,2021-09-03,2021-09-03,一般社団法人Ｒｏｂｏ　Ｃｏ‐ｏｐ,,その他の設立登記法人,島根県,浜田市,熱田町１６６７番地,,32,202,6970062,,,,,,,2021-09-03,1,,,,,,0
2234,7290001094452,新規,0,2021-09-03,2021-09-03,福越商事株式会社,,株式会社,福岡県,福岡市東区,香椎照葉１丁目３番３－１００６号ヴェルデコートⅠ区３番館,00124119,40,131,8130017,,,,,,,2021-09-03,1,,,,,フクコシショウジ,0
2238,7290005018333,新規,0,2021-09-03,2021-09-03,社会保険労務士法人ツルタローム,,その他の設立登記法人,福岡県,春日市,白水ヶ丘６丁目６番地,,40,218,8160845,,,,,,,2021-09-03,1,,,,,ツルタローム,0
2240,7310001017451,新規,0,2021-09-03,2021-09-03,株式会社Ｓｍａｒｔ,,株式会社,長崎県,長崎市,目覚町９－２原田ビル１階,,42,201,8528105,,,,,,,2021-09-03,1,,,,,スマート,0
2250,7330001028959,新規,0,2021-09-03,2021-09-03,株式会社左馬電,,株式会社,熊本県,荒尾市,下井手５８７番地１,,43,204,8640011,,,,,,,2021-09-03,1,,,,,サマデン,0
2251,7330003009024,新規,0,2021-09-03,2021-09-03,合同会社Ａ・Ｇ・Ｏ,,合同会社,熊本県,玉名市,山田１５６１番地１,,43,206,8650066,,,,,,,2021-09-03,1,,,,,アゴ,0
2252,7350001017290,新規,0,2021-09-03,2021-09-03,株式会社Ｈ＆Ｋグループ,,株式会社,宮崎県,都城市,宮丸町２８６２番地２,,45,202,8850078,,,,,,,2021-09-03,1,,,,,エイチアンドケイグループ,0
2254,7360001029327,新規,0,2021-09-03,2021-09-03,株式会社ピーごろー,,株式会社,沖縄県,宜野湾市,大山１丁目１４番２３ー４０４号,,47,205,9012223,,,,,,,2021-09-03,1,,,,,ピーゴロー,0
2258,7370001047542,新規,0,2021-09-03,2021-09-03,株式会社ＬｕＣＡ,,株式会社,宮城県,仙台市青葉区,本町１丁目９番２号,,04,101,9800014,,,,,,,2021-09-03,1,,,,,ルカ,0
2259,7370001047559,新規,0,2021-09-03,2021-09-03,株式会社フィールドデザイン,,株式会社,宮城県,仙台市青葉区,本町１丁目１１番２号,,04,101,9800014,,,,,,,2021-09-03,1,,,,,フィールドデザイン,0
2260,7370001047567,新規,0,2021-09-03,2021-09-03,株式会社ＨＶヴォワチュール,,株式会社,宮城県,多賀城市,中央２丁目６番２６－１１０３号,,04,209,9850873,,,,,,,2021-09-03,1,,,,,エッチブイヴォワチュール,0
2261,7370003005374,新規,0,2021-09-03,2021-09-03,合同会社Ｌ－ＴＥＣ,,合同会社,宮城県,仙台市青葉区,落合４丁目１番２７号,,04,101,9893126,,,,,,,2021-09-03,1,,,,,エルテック,0
2262,7380001032171,新規,0,2021-09-03,2021-09-03,株式会社プラスタークリエイト,,株式会社,福島県,福島市,笹谷字三本松２３番地の７,,07,201,9600241,,,,,,,2021-09-03,1,,,,,プラスタークリエイト,0
2263,7380003005010,新規,0,2021-09-03,2021-09-03,シーソー合同会社,,合同会社,福島県,郡山市,久留米４丁目９６番地の６,,07,203,9638846,,,,,,,2021-09-03,1,,,,,,0
2267,7410001012946,新規,0,2021-09-03,2021-09-03,ＺＥＲＯ　ＦＡＣＴＯＲＹ株式会社,,株式会社,秋田県,秋田市,中通３丁目４番６号ＯＭＣビル３０２,,05,201,0100001,,,,,,,2021-09-03,1,,,,,ゼロファクトリー,0
2273,7430001084876,新規,0,2021-09-03,2021-09-03,株式会社さいとう建設,,株式会社,北海道,札幌市白石区,北郷八条８丁目７番１３号,,01,104,0030838,,,,,,,2021-09-03,1,,,,,サイトウケンセツ,0
2278,7430003013115,新規,0,2021-09-03,2021-09-03,合同会社ＨＴプロパティーズ,,合同会社,北海道,札幌市豊平区,月寒西一条５丁目３番１２号ラフォーレ月寒中央１０１号,,01,105,0620021,,,,,,,2021-09-03,1,,,,,エイチティプロパティーズ,0
2279,7440003001408,新規,0,2021-09-03,2021-09-03,ストラド合同会社,,合同会社,北海道,函館市,弥生町１８番１０号,,01,202,0400056,,,,,,,2021-09-03,1,,,,,ストラド,0
2282,7460003000861,新規,0,2021-09-03,2021-09-03,合同会社山藤,,合同会社,北海道,釧路市,新橋大通２丁目３番６号,,01,206,0850046,,,,,,,2021-09-03,1,,,,,ヤマフジ,0
2292,7490001009976,新規,0,2021-09-03,2021-09-03,株式会社ワークマンＪＥＴ高知,,株式会社,高知県,高知市,竹島町１８番地８,,39,201,7808018,,,,,,,2021-09-03,1,,,,,ワークマンジェットコウチ,0
2300,8010001220753,新規,0,2021-09-03,2021-09-03,東京内装リフォーム株式会社,,株式会社,東京都,中央区,日本橋浜町１丁目２番８号ＢＮＫビル８階,,13,102,1030007,,,,,,,2021-09-03,1,,,,,トウキョウナイソウリフォーム,0
2301,8010001220935,新規,0,2021-09-03,2021-09-03,株式会社ＬＮＯＢコンサルティング,,株式会社,東京都,千代田区,大手町１丁目９番５号大手町フィナンシャルシティノースタワー２４Ｆ,,13,101,1000004,,,,,,,2021-09-03,1,,,,,エルエヌオービーコンサルティング,0
2302,8010003035712,新規,0,2021-09-03,2021-09-03,合同会社ユフロン,,合同会社,東京都,中央区,銀座１丁目２２番１１号,,13,102,1040061,,,,,,,2021-09-03,1,,,,,ユフロン,0
2303,8010101014840,新規,0,2021-09-03,2021-09-03,株式会社ＦＥＣ,,株式会社,東京都,八王子市,横山町１８番１９号芙蓉ギャラリービル２Ｆ,,13,201,1920081,,,,,,,2021-09-03,1,,,,,エフイーシー,0
2309,8010401162447,新規,0,2021-09-03,2021-09-03,エイディー株式会社,,株式会社,東京都,港区,南青山２丁目２－１５,,13,103,1070062,,,,,,,2021-09-03,1,,,,,エイディー,0
2310,8010401162488,新規,0,2021-09-03,2021-09-03,株式会社広済堂プロパティマネジメント,,株式会社,東京都,港区,芝浦１丁目２番３号シーバンスＳ館１３階,,13,103,1050023,,,,,,,2021-09-03,1,,,,,コウサイドウプロパティマネジメント,0
2315,8010403026047,新規,0,2021-09-03,2021-09-03,合同会社Ｌｏｖｅ＆Ｎａｔｕｒａｌ　Ｓｔｙｌｅ,,合同会社,東京都,港区,南青山２丁目２番１５号ウィン青山９４２,,13,103,1070062,,,,,,,2021-09-03,1,,,,,ラブアンドナチュラルスタイル,0
2316,8010501047738,新規,0,2021-09-03,2021-09-03,株式会社ＩＤＥＡ　ＦＯＯＤ　ＳＵＰＰＯＲＴ,,株式会社,東京都,台東区,松が谷４丁目１－２第二高総コーポ１階,,13,106,1110036,,,,,,,2021-09-03,1,,,,,アイデアフードサポート,0
2317,8010501047779,新規,0,2021-09-03,2021-09-03,株式会社シップ,,株式会社,東京都,台東区,千束１丁目１０番５－８０１号,,13,106,1110031,,,,,,,2021-09-03,1,,,,,シップ,0
2323,8010701041466,新規,0,2021-09-03,2021-09-03,株式会社ホンダ・エージェンシー,,株式会社,東京都,品川区,南品川６丁目１９番２号,,13,109,1400004,,,,,,,2021-09-03,1,,,,,ホンダエージェンシー,0
2331,8010901049359,新規,0,2021-09-03,2021-09-03,リタクラウド株式会社,,株式会社,東京都,世田谷区,野沢１丁目３５番１５号,,13,112,1540003,,,,,,,2021-09-03,1,,,,,リタクラウド,0
2332,8010901049375,新規,0,2021-09-03,2021-09-03,株式会社ＳＯＬ．ｂｒｉｌｌｅｒ,,株式会社,東京都,世田谷区,野毛１丁目５番１４号,,13,112,1580092,,,,,,,2021-09-03,1,,,,,ソルヴィエ,0
2334,8010903006770,新規,0,2021-09-03,2021-09-03,合同会社Ｇｉｏ,,合同会社,東京都,世田谷区,上野毛１丁目１番６号アクサス等々力１０２号,,13,112,1580093,,,,,,,2021-09-03,1,,,,,ジオ,0
2344,8011101096167,新規,0,2021-09-03,2021-09-03,株式会社ＫＨＴＩ,,株式会社,東京都,新宿区,北新宿１丁目１９番４号,,13,104,1690074,,,,,,,2021-09-03,1,,,,,ケイエイチティーアイ,0
2345,8011101096175,新規,0,2021-09-03,2021-09-03,株式会社トラスト,,株式会社,東京都,新宿区,歌舞伎町２丁目９番１８号,,13,104,1600021,,,,,,,2021-09-03,1,,,,,トラスト,0
2348,8011601025377,新規,0,2021-09-03,2021-09-03,株式会社ＡＭＢＥＲ,,株式会社,東京都,練馬区,大泉学園町３丁目９番３３号,,13,120,1780061,,,,,,,2021-09-03,1,,,,,アンバー,0
2354,8011801039656,新規,0,2021-09-03,2021-09-03,ＭＥＤＩＵＭＲＡＲＥＰＲＯＤＵＣＴ株式会社,,株式会社,東京都,葛飾区,堀切２丁目１３番７－２０２号,,13,122,1240006,,,,,,,2021-09-03,1,,,,,ミディアムレアプロダクト,0
2356,8012803002585,新規,0,2021-09-03,2021-09-03,合同会社和,,合同会社,東京都,立川市,錦町１丁目４－４サニービル２Ｆｃｓ－１１９,,13,202,1900022,,,,,,,2021-09-03,1,,,,,ナゴミ,0
2357,8013103001071,新規,0,2021-09-03,2021-09-03,合同会社エスエスワークス,,合同会社,東京都,青梅市,根ヶ布１丁目６８３番地の１,,13,205,1980004,,,,,,,2021-09-03,1,,,,,エスエスワークス,0
2366,8020001142864,新規,0,2021-09-03,2021-09-03,株式会社ＡＱＲＥＳ,,株式会社,神奈川県,横浜市南区,浦舟町３丁目３４番地１９,,14,105,2320024,,,,,,,2021-09-03,1,,,,,アクレス,0
2367,8020001142872,新規,0,2021-09-03,2021-09-03,株式会社ＹＢＹ,,株式会社,神奈川県,川崎市宮前区,馬絹４丁目３６番２号,,14,136,2160035,,,,,,,2021-09-03,1,,,,,ワイビーワイ,0
2368,8020001142889,新規,0,2021-09-03,2021-09-03,時間りのべ株式会社,,株式会社,神奈川県,横浜市神奈川区,六角橋２丁目５番１３－４０３号,,14,102,2210802,,,,,,,2021-09-03,1,,,,,ジカンリノベ,0
2372,8020003020424,新規,0,2021-09-03,2021-09-03,合同会社Ｓｈｏｗｒｉ,,合同会社,神奈川県,横浜市旭区,今宿東町８４３番地６５,,14,112,2410032,,,,,,,2021-09-03,1,,,,,ショウリ,0
2374,8020005015190,新規,0,2021-09-03,2021-09-03,一般社団法人ＯＮＥ　ＬＯＶＥ　ＦＯＵＮＤＡＴＩＯＮ,,その他の設立登記法人,神奈川県,横浜市港南区,大久保２丁目３０番４２号,,14,111,2330007,,,,,,,2021-09-03,1,,,,,ワンラブファンデーション,0
2391,8030001144091,新規,0,2021-09-03,2021-09-03,株式会社ブルーワークス,,株式会社,埼玉県,幸手市,北３丁目７番２５号,,11,240,3400111,,,,,,,2021-09-03,1,,,,,ブルーワークス,0
2392,8030001144141,新規,0,2021-09-03,2021-09-03,株式会社コネクテ・ル・ボヌール,,株式会社,埼玉県,北本市,東間６丁目８番地２,,11,233,3640007,,,,,,,2021-09-03,1,,,,,コネクテルボヌール,0
2393,8030001144174,新規,0,2021-09-03,2021-09-03,アイエル株式会社,,株式会社,埼玉県,さいたま市見沼区,大和田町２丁目５９８番地２,,11,104,3370053,,,,,,,2021-09-03,1,,,,,アイエル,0
2394,8030001144199,新規,0,2021-09-03,2021-09-03,株式会社ＴＡＫＥ,,株式会社,埼玉県,朝霞市,栄町５丁目５番２５－１号,,11,227,3510012,,,,,,,2021-09-03,1,,,,,テイク,0
2397,8030003017881,新規,0,2021-09-03,2021-09-03,スウィートエール合同会社,,合同会社,埼玉県,川越市,新富町１丁目８番地１１,,11,201,3500043,,,,,,,2021-09-03,1,,,,,スウィートエール,0
2407,8040001120034,新規,0,2021-09-03,2021-09-03,株式会社ヒロジェット,,株式会社,千葉県,千葉市稲毛区,山王町８番地２０コーポエクセル２０５,,12,103,2630002,,,,,,,2021-09-03,1,,,,,ヒロジェット,0
2408,8040001120050,新規,0,2021-09-03,2021-09-03,株式会社ノゾミエ,,株式会社,千葉県,長生郡長南町,米満６４番地４,,12,427,2970112,,,,,,,2021-09-03,1,,,,,ノゾミエ,0
2409,8040001120059,新規,0,2021-09-03,2021-09-03,株式会社伍虹電設,,株式会社,千葉県,千葉市稲毛区,山王町６番地７３ベアーハイツ３－２０号,,12,103,2630002,,,,,,,2021-09-03,1,,,,,ゴコウデンセツ,0
2410,8040001120083,新規,0,2021-09-03,2021-09-03,株式会社シンクモンスター,,株式会社,千葉県,千葉市美浜区,幸町１丁目８番１棟１３１０号,,12,106,2610001,,,,,,,2021-09-03,1,,,,,シンクモンスター,0
2414,8040003018433,新規,0,2021-09-03,2021-09-03,合同会社ゼロイチスタート,,合同会社,千葉県,船橋市,葛飾町２丁目３６４－３０２,,12,204,2730032,,,,,,,2021-09-03,1,,,,,ゼロイチスタート,0
2416,8050001049801,新規,0,2021-09-03,2021-09-03,株式会社カークリニック杉山,,株式会社,茨城県,筑西市,下野殿７５３番地４,,08,227,3080844,,,,,,,2021-09-03,1,,,,,カークリニックスギヤマ,0
2419,8060003003796,新規,0,2021-09-03,2021-09-03,ＧＫ合同会社,,合同会社,栃木県,那須塩原市,上厚崎５０番地７シティハイムＫＯＹＯ２０２号,,09,213,3250026,,,,,,,2021-09-03,1,,,,,ジーケー,0
2424,8080401025300,新規,0,2021-09-03,2021-09-03,株式会社ＮＪエクステリア,,株式会社,静岡県,浜松市西区,古人見町１４３２番地の６７,,22,133,4311113,,,,,,,2021-09-03,1,,,,,エヌジェイエクステリア,0
2425,8080401025309,新規,0,2021-09-03,2021-09-03,株式会社齋藤産業,,株式会社,静岡県,浜松市東区,下石田町２５１番地の１,,22,132,4350006,,,,,,,2021-09-03,1,,,,,サイトウサンギョウ,0
2428,8100001034566,新規,0,2021-09-03,2021-09-03,株式会社翔和,,株式会社,長野県,北佐久郡軽井沢町,大字追分９８４番地４８,,20,321,3890115,,,,,,,2021-09-03,1,,,,,ショウワ,0
2434,8110001036009,新規,0,2021-09-03,2021-09-03,ＲｅｅＬ株式会社,,株式会社,新潟県,新潟市中央区,米山６丁目１１番１５号グリーンハイツ米山１Ｆ,,15,103,9500916,,,,,,,2021-09-03,1,,,,,リール,0
2435,8110003004566,新規,0,2021-09-03,2021-09-03,合同会社ＣＲＥＡＴＥ,,合同会社,新潟県,新潟市中央区,長潟１２０１番地２４メアリーローズ１０１,,15,103,9500932,,,,,,,2021-09-03,1,,,,,クリエイト,0
2448,8120001240088,新規,0,2021-09-03,2021-09-03,株式会社アリビオン,,株式会社,大阪府,大阪市北区,大深町３番１号グランフロント大阪タワーＢ３５Ｆ,,27,127,5300011,,,,,,,2021-09-03,1,,,,,アリビオン,0
2449,8120001240113,新規,0,2021-09-03,2021-09-03,株式会社Ｆ．Ｄ．Ｉ．,,株式会社,大阪府,大阪市中央区,谷町３丁目１番１２号,,27,128,5400012,,,,,,,2021-09-03,1,,,,,エフディアイ,0
2450,8120001240121,新規,0,2021-09-03,2021-09-03,ネットワーク株式会社,,株式会社,大阪府,大阪市東住吉区,住道矢田９丁目１６番７号,,27,121,5460022,,,,,,,2021-09-03,1,,,,,ネットワーク,0
2451,8120001240179,新規,0,2021-09-03,2021-09-03,株式会社ｅセレクト,,株式会社,大阪府,大阪市中央区,常盤町２丁目１番７号,,27,128,5400028,,,,,,,2021-09-03,1,,,,,イーセレクト,0
2459,8120101064222,新規,0,2021-09-03,2021-09-03,株式会社ビューティヘルスラボＭａｒｉａ,,株式会社,大阪府,和泉市,府中町２丁目１番１５号,,27,219,5940071,,,,,,,2021-09-03,1,,,,,ビューティヘルスラボマリア,0
2460,8120101064230,新規,0,2021-09-03,2021-09-03,さかい不動産パートナーズ株式会社,,株式会社,大阪府,堺市堺区,向陵東町３丁３番１０号,,27,141,5900025,,,,,,,2021-09-03,1,,,,,サカイフドウサンパートナーズ,0
2461,8120101064247,新規,0,2021-09-03,2021-09-03,Ｉ・Ｓ・Ｇａｒａｇｅ株式会社,,株式会社,大阪府,羽曳野市,西浦１４２９,,27,222,5830861,,,,,,,2021-09-03,1,,,,,アイエスガレージ,0
2470,8130003007451,新規,0,2021-09-03,2021-09-03,合同会社Ｏｌｔｒｅ　Ｍａｒｅ,,合同会社,京都府,京都市右京区,太秦中筋町６番地５０,,26,108,6168184,,,,,,,2021-09-03,1,,,,,オルトレマーレ,0
2476,8140001122862,新規,0,2021-09-03,2021-09-03,マネレボ株式会社,,株式会社,兵庫県,芦屋市,伊勢町１１－２５－５１４号,,28,206,6590052,,,,,,,2021-09-03,1,,,,,マネレボ,0
2477,8140001122895,新規,0,2021-09-03,2021-09-03,株式会社クインクエ,,株式会社,兵庫県,神戸市中央区,八幡通４丁目１番１４号,,28,110,6510085,,,,,,,2021-09-03,1,,,,,クインクエ,0
2478,8140001122937,新規,0,2021-09-03,2021-09-03,株式会社ＭＡＳ研究所,,株式会社,兵庫県,芦屋市,東山町２４番５号,,28,206,6590091,,,,,,,2021-09-03,1,,,,,マスケンキュウショ,0
2479,8140001122953,新規,0,2021-09-03,2021-09-03,株式会社パルプンテ,,株式会社,兵庫県,加古川市,野口町北野１２１０番地の２３,,28,210,6750011,,,,,,,2021-09-03,1,,,,,パルプンテ,0
2486,8140003016690,新規,0,2021-09-03,2021-09-03,合同会社新エネルギー開発Ｄ,,合同会社,兵庫県,丹波市,春日町野村２３５９番地４,,28,223,6694132,,,,,,,2021-09-03,1,,,,,シンエネルギーカイハツディー,0
2487,8140003016699,新規,0,2021-09-03,2021-09-03,プロプル合同会社,,合同会社,兵庫県,西宮市,六軒町４番７－４０１号,,28,204,6620874,,,,,,,2021-09-03,1,,,,,プロプル,0
2488,8140003016708,新規,0,2021-09-03,2021-09-03,ＦＫ管理合同会社,,合同会社,兵庫県,三木市,加佐７４番地の１２,,28,215,6730402,,,,,,,2021-09-03,1,,,,,エフケーカンリ,0
2489,8140005025797,新規,0,2021-09-03,2021-09-03,一般社団法人ＡＭＥＮＩＴＹ　ＣＲＥＡＴＩＶＥ　ＳＵＰＰＯＲＴ　ＣＥＮＴＥＲ,,その他の設立登記法人,兵庫県,西宮市,北昭和町３番２０号,,28,204,6620833,,,,,,,2021-09-03,1,,,,,アメニティクリエイティブサポートセンター,0
2494,8160001023605,新規,0,2021-09-03,2021-09-03,株式会社ＡＣＥ,,株式会社,滋賀県,守山市,金森町１４０番地の４３,,25,207,5240045,,,,,,,2021-09-03,1,,,,,エース,0
2495,8160001023613,新規,0,2021-09-03,2021-09-03,ダブルエスサポート株式会社,,株式会社,滋賀県,大津市,大江５丁目１４番５２号スイートハウス藤Ⅰ－２０２,00124123,25,201,5202141,,,,,,,2021-09-03,1,,,,,ダブルエスサポート,0
2508,8180001147641,新規,0,2021-09-03,2021-09-03,株式会社ＩＭＰＲＯＶＥ,,株式会社,愛知県,名古屋市千種区,今池２丁目２１番１０号アートハウス千種３０１号,,23,101,4640850,,,,,,,2021-09-03,1,,,,,インプルーヴ,0
2509,8180001147658,新規,0,2021-09-03,2021-09-03,株式会社煌防水,,株式会社,愛知県,名古屋市守山区,瀬古東１丁目９０９番地,,23,113,4630090,,,,,,,2021-09-03,1,,,,,キラボウスイ,0
2510,8180001147666,新規,0,2021-09-03,2021-09-03,株式会社裕進工業,,株式会社,愛知県,一宮市,今伊勢町宮後字西松山１３番地３,,23,203,4910057,,,,,,,2021-09-03,1,,,,,ユウシンコウギョウ,0
2511,8180001147682,新規,0,2021-09-03,2021-09-03,横澤設備株式会社,,株式会社,愛知県,名古屋市北区,如来町１４１番地,,23,103,4620008,,,,,,,2021-09-03,1,,,,,ヨコザワセツビ,0
2512,8180001147690,新規,0,2021-09-03,2021-09-03,鹿嶌エステート株式会社,,株式会社,愛知県,名古屋市西区,稲生町６丁目２４番地,,23,104,4510012,,,,,,,2021-09-03,1,,,,,カシマエステート,0
2513,8180001147740,新規,0,2021-09-03,2021-09-03,株式会社ＭＫファクトリー,,株式会社,愛知県,名古屋市港区,当知２丁目８０３番地,,23,111,4550804,,,,,,,2021-09-03,1,,,,,エムケイファクトリー,0
2516,8180003022917,新規,0,2021-09-03,2021-09-03,合同会社朝善,,合同会社,愛知県,清須市,朝日天王１１２番地,,23,233,4520932,,,,,,,2021-09-03,1,,,,,アサゼン,0
2517,8180003022925,新規,0,2021-09-03,2021-09-03,合同会社コトナス,,合同会社,愛知県,名古屋市名東区,藤見が丘５９番地政美マンション３０６号室,,23,115,4650048,,,,,,,2021-09-03,1,,,,,コトナス,0
2521,8180005019416,新規,0,2021-09-03,2021-09-03,一般社団法人こどもパートナーズ,,その他の設立登記法人,愛知県,名古屋市天白区,原２丁目４０１番地メゾン原１０４号,,23,116,4680015,,,,,,,2021-09-03,1,,,,,コドモパートナーズ,0
2524,8180303005092,新規,0,2021-09-03,2021-09-03,ＦｉｎｅＰｌａｙ合同会社,,合同会社,愛知県,豊橋市,嵩山町字岩本６０番地,,23,201,4411111,,,,,,,2021-09-03,1,,,,,ファインプレー,0
2527,8190001028650,新規,0,2021-09-03,2021-09-03,株式会社宮本建築,,株式会社,三重県,四日市市,楠町本郷１６３６番地１,,24,202,5100106,,,,,,,2021-09-03,1,,,,,ミヤモトケンチク,0
2531,8200001039101,新規,0,2021-09-03,2021-09-03,株式会社バイタリスト,,株式会社,岐阜県,土岐市,肥田町肥田２８３４番地の２,,21,212,5095115,,,,,,,2021-09-03,1,,,,,バイタリスト,0
2535,8200003005299,新規,0,2021-09-03,2021-09-03,合同会社アスガルド,,合同会社,岐阜県,土岐市,泉岩畑町２丁目１３番地の２,,21,212,5095141,,,,,,,2021-09-03,1,,,,,アスガルド,0
2536,8220001024407,新規,0,2021-09-03,2021-09-03,株式会社ＰＲＯＪＥＣＴ　ＴＯＭＢＯＹ,,株式会社,石川県,金沢市,旭町１丁目１８番２２号,,17,201,9200941,,,,,,,2021-09-03,1,,,,,プロジェクトトンボイ,0
2537,8220001024415,新規,0,2021-09-03,2021-09-03,株式会社ＳＭＧ,,株式会社,石川県,能美市,寺井町ハ７８番地,,17,211,9231121,,,,,,,2021-09-03,1,,,,,エスエムジー,0
2539,8230005009163,新規,0,2021-09-03,2021-09-03,農事組合法人たぞえ,,その他の設立登記法人,富山県,中新川郡立山町,田添中屋敷田７０番地１,,16,323,9300219,,,,,,,2021-09-03,1,,,,,タゾエ,0
2544,8240001058543,新規,0,2021-09-03,2021-09-03,株式会社かちかち,,株式会社,広島県,東広島市,黒瀬楢原西１丁目９番３号,00124116,34,212,7392629,,,,,,,2021-09-03,1,,,,,カチカチ,0
2555,8260001035920,新規,0,2021-09-03,2021-09-03,株式会社エスパス,,株式会社,岡山県,岡山市北区,辰巳１１番地１１２－１Ｆ,,33,101,7000976,,,,,,,2021-09-03,1,,,,,エスパス,0
2556,8260001035929,新規,0,2021-09-03,2021-09-03,株式会社リコ,,株式会社,岡山県,岡山市中区,山崎１４０番地２３パトリア山崎１０１号室,,33,102,7038267,,,,,,,2021-09-03,1,,,,,リコ,0
2560,8270001008347,新規,0,2021-09-03,2021-09-03,ピーオービー株式会社,,株式会社,鳥取県,倉吉市,山根５３９番地１４,,31,203,6820023,,,,,,,2021-09-03,1,,,,,ピーオービー,0
2561,8280003001530,新規,0,2021-09-03,2021-09-03,合同会社タイヤコミット,,合同会社,島根県,江津市,和木町６９３－５,,32,207,6950017,,,,,,,2021-09-03,1,,,,,,0
2573,8290803003915,新規,0,2021-09-03,2021-09-03,合同会社わくわくカオス,,合同会社,福岡県,北九州市小倉北区,昭和町１４番５号,,40,106,8020075,,,,,,,2021-09-03,1,,,,,ワクワクカオス,0
2576,8310001017442,新規,0,2021-09-03,2021-09-03,株式会社ＴＨＥ　ＨＩＬＬ′ｓ,,株式会社,長崎県,佐世保市,ハウステンボス町４番地６５ハウステンボスヒルズ４－１００１,,42,202,8593243,,,,,,,2021-09-03,1,,,,,ザヒルズ,0
2577,8310001017450,新規,0,2021-09-03,2021-09-03,株式会社中央自動車整備,,株式会社,長崎県,長崎市,多以良町４０６番地１,,42,201,8512213,,,,,,,2021-09-03,1,,,,,チュウオウジドウシャセイビ,0
2590,8330001028966,新規,0,2021-09-03,2021-09-03,株式会社キリンジ,,株式会社,熊本県,熊本市西区,中原町１１５７番地１,,43,103,8615271,,,,,,,2021-09-03,1,,,,,キリンジ,0
2591,8330001028974,新規,0,2021-09-03,2021-09-03,ふちた板金工業株式会社,,株式会社,熊本県,球磨郡湯前町,１８７８番地,,43,506,8680600,,,,,,,2021-09-03,1,,,,,フチタバンキンコウギョウ,0
2599,8330003009031,新規,0,2021-09-03,2021-09-03,合同会社新栄,,合同会社,熊本県,熊本市東区,保田窪本町７番６号,,43,102,8620925,,,,,,,2021-09-03,1,,,,,シンエイ,0
2602,8340001024072,新規,0,2021-09-03,2021-09-03,株式会社ＳＨＡＲＫ,,株式会社,鹿児島県,鹿児島市,宇宿９丁目７番２号,,46,201,8900073,,,,,,,2021-09-03,1,,,,,シャーク,0
2603,8340001024080,新規,0,2021-09-03,2021-09-03,株式会社ＳＥＥＤ,,株式会社,鹿児島県,鹿児島市,山之口町１１番７号,,46,201,8920844,,,,,,,2021-09-03,1,,,,,シード,0
2609,8360001029318,新規,0,2021-09-03,2021-09-03,株式会社Ｍａｒｚ,,株式会社,沖縄県,島尻郡与那原町,字与那原２９０番地の５,,47,348,9011303,,,,,,,2021-09-03,1,,,,,マーズ,0
2610,8360001029326,新規,0,2021-09-03,2021-09-03,株式会社ダイナミックプランニング,,株式会社,沖縄県,那覇市,首里金城町３丁目３４番地５,,47,201,9030815,,,,,,,2021-09-03,1,,,,,ダイナミックプランニング,0
2611,8360003011406,新規,0,2021-09-03,2021-09-03,ＫＡＮＡＳＡＮ－ＷＯＲＫ合同会社,,合同会社,沖縄県,那覇市,久茂地３丁目１３番１号６３ビル７０３,,47,201,9000015,,,,,,,2021-09-03,1,,,,,カナサンワーク,0
2613,8370001047533,新規,0,2021-09-03,2021-09-03,株式会社ＨＡＲＥＲＵＹＡ,,株式会社,宮城県,仙台市太白区,長町３丁目９番２－１０３号,,04,104,9820011,,,,,,,2021-09-03,1,,,,,ハレルヤ,0
2614,8370001047558,新規,0,2021-09-03,2021-09-03,株式会社ブルーランド,,株式会社,宮城県,仙台市青葉区,一番町１丁目１１番１号,,04,101,9800811,,,,,,,2021-09-03,1,,,,,ブルーランド,0
2615,8370003005373,新規,0,2021-09-03,2021-09-03,合同会社ＣＯＮＥＴＯＲＯ,,合同会社,宮城県,仙台市青葉区,錦ケ丘６丁目１４番地の４,,04,101,9893123,,,,,,,2021-09-03,1,,,,,コネトロ,0
2629,8410001012945,新規,0,2021-09-03,2021-09-03,株式会社稲庭宝泉堂,,株式会社,秋田県,湯沢市,稲庭町字大森沢５１番地１,,05,207,0120107,,,,,,,2021-09-03,1,,,,,イナニワホウセンドウ,0
2630,8410001012953,新規,0,2021-09-03,2021-09-03,株式会社ベストケミカル,,株式会社,秋田県,秋田市,寺内高野１３番４８号,,05,201,0110937,,,,,,,2021-09-03,1,,,,,ベストケミカル,0
2635,8430001084867,新規,0,2021-09-03,2021-09-03,株式会社Ｄ．Ａｍｕｌｅｔ,,株式会社,北海道,札幌市中央区,南二条西３丁目１２番２号トミイビルＮｏ．３７（３階）,,01,101,0600062,,,,,,,2021-09-03,1,,,,,ディアミュレット,0
2645,8430003013097,新規,0,2021-09-03,2021-09-03,合同会社ケンズマネージメント,,合同会社,北海道,札幌市豊平区,美園七条８丁目６番１０号,,01,105,0620007,,,,,,,2021-09-03,1,,,,,ケンズマネージメント,0
2649,8460001005589,新規,0,2021-09-03,2021-09-03,株式会社ＮＥＸＴ　ＳＴＡＧＥ,,株式会社,北海道,釧路市,末広町１１丁目１番地１０クローバービル３階,,01,206,0850014,,,,,,,2021-09-03,1,,,,,ネクストステージ,0
2650,8460103001395,新規,0,2021-09-03,2021-09-03,合同会社マサキ,,合同会社,北海道,上川郡清水町,御影東一条２丁目１番地,,01,636,0890371,,,,,,,2021-09-03,1,,,,,マサキ,0
2652,8460301005009,新規,0,2021-09-03,2021-09-03,株式会社エス・エス・ケー,,株式会社,北海道,北見市,美山町東２丁目７３番地１５１,,01,208,0900069,,,,,,,2021-09-03,1,,,,,,0
2654,8470001018689,新規,0,2021-09-03,2021-09-03,株式会社ＰＶプラントＯ＆Ｍ,,株式会社,香川県,高松市,塩上町１丁目４番２０号,,37,201,7600062,,,,,,,2021-09-03,1,,,,,ピーブイプラントオーアンドエム,0
2655,8470001018697,新規,0,2021-09-03,2021-09-03,株式会社グリーンピース,,株式会社,香川県,高松市,中山町５８３番地２,,37,201,7618004,,,,,,,2021-09-03,1,,,,,グリーンピース,0
2660,8500001023660,新規,0,2021-09-03,2021-09-03,株式会社ミライノ薬局,,株式会社,愛媛県,四国中央市,下柏町７５６番地１,,38,213,7990411,,,,,,,2021-09-03,1,,,,,ミライノヤッキョク,0
2661,8500001023669,新規,0,2021-09-03,2021-09-03,株式会社濱家建装,,株式会社,愛媛県,松山市,保免上２丁目２番２３号,,38,201,7900041,,,,,,,2021-09-03,1,,,,,ハマイエケンソウ,0
2674,9010001220884,新規,0,2021-09-03,2021-09-03,フェローテック・パワーセミコンダクター株式会社,,株式会社,東京都,中央区,日本橋２丁目３番４号,,13,102,1030027,,,,,,,2021-09-03,1,,,,,フェローテックパワーセミコンダクター,0
2677,9010005033903,新規,0,2021-09-03,2021-09-03,医療法人社団桜令会,,その他の設立登記法人,東京都,中央区,日本橋３丁目２番１５号ザ・レジデンス東京駅前１階,,13,102,1030027,,,,,,,2021-09-03,1,,,,,オウレイカイ,0
2682,9010401162438,新規,0,2021-09-03,2021-09-03,株式会社ＵＰＲＯＡＧ,,株式会社,東京都,港区,六本木４丁目８－７,,13,103,1060032,,,,,,,2021-09-03,1,,,,,アップローグ,0
2685,9010403026021,新規,0,2021-09-03,2021-09-03,フィデスロジスティックス合同会社,,合同会社,東京都,港区,白金４丁目９番１号ヒルズ白金２０３,,13,103,1080072,,,,,,,2021-09-03,1,,,,,フィデスロジスティックス,0
2686,9010403026054,新規,0,2021-09-03,2021-09-03,合同会社ｅｌｍ,,合同会社,東京都,港区,芝公園３丁目５番１５号ヴェーゼント芝の杜４０５号,,13,103,1050011,,,,,,,2021-09-03,1,,,,,エルモ,0
2687,9010405020154,新規,0,2021-09-03,2021-09-03,行政書士法人ｏｎｅ,,その他の設立登記法人,東京都,港区,元赤坂１丁目４番２１号赤坂パレスビル３階,,13,103,1070051,,,,,,,2021-09-03,1,,,,,ワン,0
2690,9010603009123,新規,0,2021-09-03,2021-09-03,合同会社ＮＯＡ,,合同会社,東京都,墨田区,太平４丁目１５－１３－３０１,,13,107,1300012,,,,,,,2021-09-03,1,,,,,ノア,0
2694,9010701041440,新規,0,2021-09-03,2021-09-03,ＪＥ　Ｂｒｉｄｇｅ株式会社,,株式会社,東京都,品川区,東五反田４丁目５番１－８０３号,,13,109,1410022,,,,,,,2021-09-03,1,,,,,ジェイイーブリッジ,0
2699,9010901049399,新規,0,2021-09-03,2021-09-03,株式会社ＢｅＤＡＹＳ,,株式会社,東京都,世田谷区,大蔵５丁目２０－１コモレビ大蔵Ｅ１０２,,13,112,1570074,,,,,,,2021-09-03,1,,,,,ビーデイズ,0
2704,9011001142607,新規,0,2021-09-03,2021-09-03,株式会社ＣＵＲＡＣＡＯ,,株式会社,東京都,渋谷区,神宮前１丁目７番５号百七十五番館ビル４０３号室,,13,113,1500001,,,,,,,2021-09-03,1,,,,,キュラソー,0
2705,9011001142623,新規,0,2021-09-03,2021-09-03,株式会社Ｍｉｎｔｉｏ,,株式会社,東京都,渋谷区,神宮前６丁目２３番４号桑野ビル２階,,13,113,1500001,,,,,,,2021-09-03,1,,,,,ミンティオ,0
2707,9011003013302,新規,0,2021-09-03,2021-09-03,ＹＵＭＥ１合同会社,,合同会社,東京都,渋谷区,神宮前６丁目２８番９号東武ビル６階,,13,113,1500001,,,,,,,2021-09-03,1,,,,,ユーミーワン,0
2718,9011601025368,新規,0,2021-09-03,2021-09-03,株式会社バグレス,,株式会社,東京都,練馬区,北町５丁目４番６号,,13,120,1790081,,,,,,,2021-09-03,1,,,,,バグレス,0
2719,9011601025376,新規,0,2021-09-03,2021-09-03,株式会社鈴本,,株式会社,東京都,練馬区,高松４丁目２７番３－４０１号,,13,120,1790075,,,,,,,2021-09-03,1,,,,,スズモト,0
2723,9011801039663,新規,0,2021-09-03,2021-09-03,オーセンティック株式会社,,株式会社,東京都,葛飾区,東金町１丁目３９番１号,,13,122,1250041,,,,,,,2021-09-03,1,,,,,オーセンティック,0
2732,9013301047964,新規,0,2021-09-03,2021-09-03,株式会社春夏秋冬,,株式会社,東京都,豊島区,南池袋２丁目２３－３南池袋ＯＣビル４Ｆ,,13,116,1710022,,,,,,,2021-09-03,1,,,,,シュンカシュウトウ,0
2744,9020003020423,新規,0,2021-09-03,2021-09-03,ＳＯ合同会社,,合同会社,神奈川県,横浜市南区,六ツ川２丁目６－４４,,14,105,2320066,,,,,,,2021-09-03,1,,,,,ソウ,0
2746,9020005015198,新規,0,2021-09-03,2021-09-03,一般社団法人いきいきライフ協会川崎中央,,その他の設立登記法人,神奈川県,川崎市川崎区,旭町２丁目９番４号,,14,131,2100808,,,,,,,2021-09-03,1,,,,,イキイキライフキョウカイカワサキチュウオウ,0
2761,9030001144198,新規,0,2021-09-03,2021-09-03,株式会社エクレシア,,株式会社,埼玉県,草加市,長栄１丁目８１８－２,,11,221,3400051,,,,,,,2021-09-03,1,,,,,エクレシア,0
2766,9030003017880,新規,0,2021-09-03,2021-09-03,ＥＭＳ商事合同会社,,合同会社,埼玉県,朝霞市,朝志ケ丘２丁目６番４１号,,11,227,3510035,,,,,,,2021-09-03,1,,,,,イーエムエスショウジ,0
2781,9050001049783,新規,0,2021-09-03,2021-09-03,株式会社みねしまふぁーむ,,株式会社,茨城県,那珂市,後台２２０７番地,,08,226,3110111,,,,,,,2021-09-03,1,,,,,ミネシマファーム,0
2782,9050003006048,新規,0,2021-09-03,2021-09-03,合同会社ときわ水電,,合同会社,茨城県,北茨城市,磯原町大塚１４９１－２,,08,215,3191546,,,,,,,2021-09-03,1,,,,,トキワスイデン,0
2788,9070003004223,新規,0,2021-09-03,2021-09-03,合同会社岡村屋本舗,,合同会社,群馬県,北群馬郡榛東村,大字山子田２０８９番地１,,10,344,3703502,,,,,,,2021-09-03,1,,,,,オカムラヤホンポ,0
2793,9080101022745,新規,0,2021-09-03,2021-09-03,静通株式会社,,株式会社,静岡県,富士宮市,外神１８２６,,22,207,4180006,,,,,,,2021-09-03,1,,,,,シズツウ,0
2795,9080401025299,新規,0,2021-09-03,2021-09-03,株式会社戸塚電工,,株式会社,静岡県,掛川市,北門１７４番地,,22,213,4360064,,,,,,,2021-09-03,1,,,,,トヅカデンコウ,0
2796,9080401025308,新規,0,2021-09-03,2021-09-03,株式会社おおいしハム,,株式会社,静岡県,掛川市,沖之須４５１番地の３,,22,213,4371303,,,,,,,2021-09-03,1,,,,,オオイシハム,0
2797,9090005007429,新規,0,2021-09-03,2021-09-03,特定非営利活動法人さくら国際環境保護協会,,その他の設立登記法人,山梨県,甲斐市,亀沢６９４９番地９６,,19,210,4001113,,,,,,,2021-09-03,1,,,,,サクラコクサイカンキョウホゴキョウカイ,0
2800,9100001034557,新規,0,2021-09-03,2021-09-03,株式会社ルーズリーフ,,株式会社,長野県,茅野市,宮川１２９４番地,,20,214,3910013,,,,,,,2021-09-03,1,,,,,ルーズリーフ,0
2801,9100001034565,新規,0,2021-09-03,2021-09-03,株式会社ニューモラス,,株式会社,長野県,松本市,小屋南１丁目１２番１号,,20,202,3990038,,,,,,,2021-09-03,1,,,,,ニューモラス,0
2802,9100001034581,新規,0,2021-09-03,2021-09-03,やざわ興業株式会社,,株式会社,長野県,飯田市,上殿岡４４７番地,,20,205,3950153,,,,,,,2021-09-03,1,,,,,ヤザワコウギョウ,0
2804,9100005012765,新規,0,2021-09-03,2021-09-03,一般社団法人日本体温協会,,その他の設立登記法人,長野県,茅野市,ちの２７６１番地４,,20,214,3910001,,,,,,,2021-09-03,1,,,,,ニホンタイオンキョウカイ,0
2805,9110001036008,新規,0,2021-09-03,2021-09-03,ムラタ不動産株式会社,,株式会社,新潟県,新潟市中央区,寄居町３４３番地４０,,15,103,9518113,,,,,,,2021-09-03,1,,,,,ムラタフドウサン,0
2812,9120001240120,新規,0,2021-09-03,2021-09-03,株式会社コモテック,,株式会社,大阪府,大阪市住之江区,新北島４丁目４番６３号,,27,125,5590024,,,,,,,2021-09-03,1,,,,,コモテック,0
2813,9120001240129,新規,0,2021-09-03,2021-09-03,株式会社ＫＡＲＩＮ,,株式会社,大阪府,寝屋川市,池田本町３０番２号,,27,215,5720030,,,,,,,2021-09-03,1,,,,,カリン,0
2814,9120001240145,新規,0,2021-09-03,2021-09-03,株式会社リブレ,,株式会社,大阪府,大阪市中央区,西心斎橋２丁目１２番２２号,,27,128,5420086,,,,,,,2021-09-03,1,,,,,リブレ,0
2815,9120001240153,新規,0,2021-09-03,2021-09-03,木子山株式会社,,株式会社,大阪府,大阪市平野区,加美北１丁目２３番２７号３０２号室,,27,126,5470001,,,,,,,2021-09-03,1,,,,,キコヤマ,0
2816,9120001240186,新規,0,2021-09-03,2021-09-03,株式会社アメリスト,,株式会社,大阪府,大阪市西区,南堀江１丁目１６番１８号,,27,106,5500015,,,,,,,2021-09-03,1,,,,,アメリスト,0
2822,9120101064254,新規,0,2021-09-03,2021-09-03,株式会社ｍｕｇ＆ｂｕｎ,,株式会社,大阪府,堺市北区,長曽根町１３０番地４２,,27,146,5918025,,,,,,,2021-09-03,1,,,,,マグアンドバン,0
2829,9122001035129,新規,0,2021-09-03,2021-09-03,株式会社武川電工,,株式会社,大阪府,東大阪市,近江堂３丁目７番１７号,,27,227,5770817,,,,,,,2021-09-03,1,,,,,タケガワデンコウ,0
2830,9122001035137,新規,0,2021-09-03,2021-09-03,株式会社Ｒ‐Ｓｔｙｌｅ,,株式会社,大阪府,八尾市,本町５丁目１番１３号,,27,212,5810003,,,,,,,2021-09-03,1,,,,,アールスタイル,0
2831,9122001035145,新規,0,2021-09-03,2021-09-03,マエダオートモービル株式会社,,株式会社,大阪府,大東市,氷野３丁目１４番６号,,27,218,5740062,,,,,,,2021-09-03,1,,,,,マエダオートモービル,0
2835,9130001070054,新規,0,2021-09-03,2021-09-03,株式会社ｊｏｌｉ,,株式会社,京都府,京都市下京区,東洞院通七条下る東塩小路町５５３番地２京都駅前第３ビル３Ｆ,,26,106,6008216,,,,,,,2021-09-03,1,,,,,ジョリー,0
2842,9140001122911,新規,0,2021-09-03,2021-09-03,株式会社フィールド,,株式会社,兵庫県,神戸市須磨区,高倉台７丁目１０番１１号,,28,107,6540081,,,,,,,2021-09-03,1,,,,,フィールド,0
2849,9140005025796,新規,0,2021-09-03,2021-09-03,一般社団法人むすびめ,,その他の設立登記法人,兵庫県,神戸市垂水区,本多聞２丁目２９番６号,,28,108,6550006,,,,,,,2021-09-03,1,,,,,ムスビメ,0
2851,9150001024891,新規,0,2021-09-03,2021-09-03,株式会社葛城警備,,株式会社,奈良県,北葛城郡広陵町,大字三吉６４番地２,,29,426,6350823,,,,,,,2021-09-03,1,,,,,カツラギケイビ,0
2857,9170001016755,新規,0,2021-09-03,2021-09-03,丸広商事株式会社,,株式会社,和歌山県,和歌山市,西浜３丁目９番５７号,,30,201,6410036,,,,,,,2021-09-03,1,,,,,マルヒロショウジ,0
2858,9170001016763,新規,0,2021-09-03,2021-09-03,株式会社原実業,,株式会社,和歌山県,和歌山市,加納３４１番地３,,30,201,6408391,,,,,,,2021-09-03,1,,,,,ハラジツギョウ,0
2860,9170003001623,新規,0,2021-09-03,2021-09-03,合同会社あかり運総,,合同会社,和歌山県,和歌山市,和歌浦東４丁目３－９,,30,201,6410021,,,,,,,2021-09-03,1,,,,,,0
2866,9180001147665,新規,0,2021-09-03,2021-09-03,株式会社エンチェリッシュ,,株式会社,愛知県,名古屋市北区,城見通２丁目１３番地,,23,103,4620046,,,,,,,2021-09-03,1,,,,,エンチェリッシュ,0
2870,9180003022916,新規,0,2021-09-03,2021-09-03,合同会社ＣＫＢ工業,,合同会社,愛知県,名古屋市南区,道徳新町１丁目６番地７,,23,112,4570847,,,,,,,2021-09-03,1,,,,,シーケービーコウギョウ,0
2873,9180301035306,新規,0,2021-09-03,2021-09-03,株式会社マンタロー,,株式会社,愛知県,豊橋市,東高田町１９６番地２,,23,201,4418115,,,,,,,2021-09-03,1,,,,,マンタロー,0
2874,9180301035314,新規,0,2021-09-03,2021-09-03,株式会社ＡＸＩＳ,,株式会社,愛知県,安城市,北山崎町北浦２番地安城オートギャラリー２Ｆ,,23,212,4460011,,,,,,,2021-09-03,1,,,,,アクシス,0
2875,9180301035322,新規,0,2021-09-03,2021-09-03,株式会社谷田中,,株式会社,愛知県,知立市,谷田町西長根２５番地,,23,225,4720013,,,,,,,2021-09-03,1,,,,,ヤタナカ,0
2876,9180301035339,新規,0,2021-09-03,2021-09-03,株式会社ＩＴＯ,,株式会社,愛知県,豊田市,越戸町松葉９７番地４,,23,211,4700332,,,,,,,2021-09-03,1,,,,,アイティーオー,0
2881,9200001039075,新規,0,2021-09-03,2021-09-03,株式会社未来陶磁,,株式会社,岐阜県,土岐市,駄知町９７７番地７（２Ｆ）,,21,212,5095401,,,,,,,2021-09-03,1,,,,,ミライトウジ,0
2882,9200001039109,新規,0,2021-09-03,2021-09-03,株式会社杉山建設,,株式会社,岐阜県,山県市,高富９８５番地３,,21,215,5012105,,,,,,,2021-09-03,1,,,,,スギヤマケンセツ,0
2885,9220001024406,新規,0,2021-09-03,2021-09-03,株式会社Ｒｅｖｅ,,株式会社,石川県,金沢市,北町乙５７番地,,17,201,9200055,,,,,,,2021-09-03,1,,,,,レーヴ,0
2886,9220001024414,新規,0,2021-09-03,2021-09-03,株式会社サンカミル,,株式会社,石川県,金沢市,本町２丁目１８番２８号（プレミア金沢駅前・１００５号）,,17,201,9200853,,,,,,,2021-09-03,1,,,,,サンカミル,0
2890,9240001058526,新規,0,2021-09-03,2021-09-03,株式会社リンテック,,株式会社,広島県,福山市,神辺町字湯野１４６番地３,,34,207,7202121,,,,,,,2021-09-03,1,,,,,リンテック,0
2891,9240001058542,新規,0,2021-09-03,2021-09-03,株式会社池田工業,,株式会社,広島県,尾道市,高須町５０１４番地３,,34,205,7290141,,,,,,,2021-09-03,1,,,,,イケダコウギョウ,0
2895,9240003005261,新規,0,2021-09-03,2021-09-03,くらしマーケット合同会社,,合同会社,広島県,広島市安佐北区,白木町大字秋山５７４番地１,,34,106,7391414,,,,,,,2021-09-03,1,,,,,クラシマーケット,0
2897,9250001019106,新規,0,2021-09-03,2021-09-03,株式会社ふく田,,株式会社,山口県,下関市,彦島福浦町３丁目３番１号,,35,201,7500087,,,,,,,2021-09-03,1,,,,,フクダ,0
2907,9260001035928,新規,0,2021-09-03,2021-09-03,Ｔ‐ｐｌａｎ株式会社,,株式会社,岡山県,倉敷市,新田２４１３番地９,,33,202,7100038,,,,,,,2021-09-03,1,,,,,ティープラン,0
2910,9260003003668,新規,0,2021-09-03,2021-09-03,合同会社スタジオトノライオン,,合同会社,岡山県,岡山市北区,京山１丁目１３番７号,,33,101,7000015,,,,,,,2021-09-03,1,,,,,スタジオトノライオン,0
2911,9270001008346,新規,0,2021-09-03,2021-09-03,株式会社ＬＥＯＮ,,株式会社,鳥取県,米子市,西福原６丁目３番５０号２階,,31,202,6830805,,,,,,,2021-09-03,1,,,,,レオン,0
2912,9280001008502,新規,0,2021-09-03,2021-09-03,株式会社ナカザワ,,株式会社,島根県,益田市,横田町１５４番地１,,32,204,6995132,,,,,,,2021-09-03,1,,,,,ナカザワ,0
2929,9290803003914,新規,0,2021-09-03,2021-09-03,合同会社Ｋクリエイト,,合同会社,福岡県,遠賀郡岡垣町,大字高倉１１８０番地３,,40,383,8114234,,,,,,,2021-09-03,1,,,,,ケイクリエイト,0
2938,9330001028957,新規,0,2021-09-03,2021-09-03,株式会社扇設備工業,,株式会社,熊本県,菊池郡菊陽町,光の森２丁目２７番地１,,43,404,8691108,,,,,,,2021-09-03,1,,,,,オウギセツビコウギョウ,0
2939,9330001028965,新規,0,2021-09-03,2021-09-03,株式会社ｂｒｉｌｌｅｒ,,株式会社,熊本県,玉名市,築地４２８番地,,43,206,8650065,,,,,,,2021-09-03,1,,,,,ブリエ,0
2940,9330001028973,新規,0,2021-09-03,2021-09-03,株式会社Ｐａｒｋ,,株式会社,熊本県,熊本市北区,龍田８丁目１８番２号,,43,105,8618006,,,,,,,2021-09-03,1,,,,,パーク,0
2942,9330003009022,新規,0,2021-09-03,2021-09-03,合同会社イワサキ工業,,合同会社,熊本県,八代市,平山新町２６６５番地３（１０１）,,43,202,8660074,,,,,,,2021-09-03,1,,,,,イワサキコウギョウ,0
2943,9330003009030,新規,0,2021-09-03,2021-09-03,ウィスタリア合同会社,,合同会社,熊本県,宇城市,小川町南新田３７５－１,,43,213,8690632,,,,,,,2021-09-03,1,,,,,ウィスタリア,0
2946,9340001024071,新規,0,2021-09-03,2021-09-03,株式会社ＹＭＣサービス,,株式会社,鹿児島県,鹿児島市,吉野町２９２８番地１８　１０５号,,46,201,8920871,,,,,,,2021-09-03,1,,,,,ワイエムシーサービス,0
2950,9340003003536,新規,0,2021-09-03,2021-09-03,合同会社湊電設,,合同会社,鹿児島県,いちき串木野市,湊町２６１９番地９,,46,219,8992101,,,,,,,2021-09-03,1,,,,,ミナトデンセツ,0
2954,9360001029317,新規,0,2021-09-03,2021-09-03,株式会社ＧＡＮＪＹＯ興業,,株式会社,沖縄県,沖縄市,山内２丁目２６番９号ミルコマンション沖縄市山内ビュー１００１,,47,211,9040034,,,,,,,2021-09-03,1,,,,,ガンジョウコウギョウ,0
2955,9360003011413,新規,0,2021-09-03,2021-09-03,合同会社ＱＵＧＡ,,合同会社,沖縄県,那覇市,字具志８９０－１クーガーフットボールパーク沖縄,,47,201,9010146,,,,,,,2021-09-03,1,,,,,クーガー,0
2958,9370001047557,新規,0,2021-09-03,2021-09-03,株式会社ピーコック,,株式会社,宮城県,仙台市青葉区,国分町３丁目８番３－４０３号,,04,101,9800803,,,,,,,2021-09-03,1,,,,,ピーコック,0
2959,9370001047573,新規,0,2021-09-03,2021-09-03,株式会社ルーフテック東北,,株式会社,宮城県,仙台市宮城野区,福室２丁目８番１７－７１０号,,04,102,9830005,,,,,,,2021-09-03,1,,,,,ルーフテックトウホク,0
2963,9380003005009,新規,0,2021-09-03,2021-09-03,合同会社ぱそなび,,合同会社,福島県,いわき市,平下平窪字曲田４２,,07,204,9708003,,,,,,,2021-09-03,1,,,,,,0
2973,9420001017579,新規,0,2021-09-03,2021-09-03,株式会社ミミずく,,株式会社,青森県,弘前市,大字城南１丁目１６番地１７,,02,202,0368232,,,,,,,2021-09-03,1,,,,,ミミズク,0
2980,9430001084866,新規,0,2021-09-03,2021-09-03,株式会社枝折‐ｓｉｏｒｉ,,株式会社,北海道,札幌市中央区,北二条西２丁目１番地１,,01,101,0600002,,,,,,,2021-09-03,1,,,,,シオリ,0
2984,9460001005588,新規,0,2021-09-03,2021-09-03,友成株式会社,,株式会社,北海道,釧路市,昭和中央３丁目６番３号,,01,206,0840910,,,,,,,2021-09-03,1,,,,,ユウセイ,0
2986,9490001009982,新規,0,2021-09-03,2021-09-03,ｆａｒｇｌｉｎｋ株式会社,,株式会社,高知県,高知市,本町４丁目１－４８,,39,201,7800870,,,,,,,2021-09-03,1,,,,,ファーグリンク,0
