sequenceNumber,corporateNumber,process,correct,updateDate,changeDate,name,nameImageId,kind,prefectureName,cityName,streetNumber,addressImageId,prefectureCode,cityCode,postCode,addressOutside,addressOutsideImageId,closeDate,closeCause,successorCorporateNumber,changeCause,assignmentDate,latest,enName,enPrefectureName,enCityName,enAddressOutside,furigana,hihyoji
11,1010001218936,新規,0,2021-07-27,2021-07-27,株式会社ＶＡＳＤＡ　Ｐａｙ,,株式会社,東京都,中央区,銀座８丁目１４番９号,,13,102,1040061,,,,,,,2021-07-27,1,,,,,ヴァスダペイ,0
12,1010001219835,新規,0,2021-07-27,2021-07-27,株式会社ｅｐｉｃｋ　ｓｔｏｒｙ,,株式会社,東京都,千代田区,神田鍛冶町３丁目７番２１号,,13,101,1010045,,,,,,,2021-07-27,1,,,,,エピックストーリー,0
13,1010001219942,新規,0,2021-07-27,2021-07-27,プロメテウスメディカルビューティー株式会社,,株式会社,東京都,中央区,日本橋小舟町１２番９号,,13,102,1030024,,,,,,,2021-07-27,1,,,,,プロメテウスメディカルビューティー,0
23,1010501047595,新規,0,2021-07-27,2021-07-27,株式会社タカ,,株式会社,東京都,台東区,千束４丁目３９番１号,,13,106,1110031,,,,,,,2021-07-27,1,,,,,タカ,0
25,1010601059664,新規,0,2021-07-27,2021-07-27,ＥＣＦ株式会社,,株式会社,東京都,江東区,亀戸３丁目２４番７号忠ビル２Ｆ,,13,108,1360071,,,,,,,2021-07-27,1,,,,,イーシーエフ,0
26,1010601059697,新規,0,2021-07-27,2021-07-27,株式会社ＲＯＶＥＲ　ＣＲＥＷ,,株式会社,東京都,江東区,清澄３丁目３番２５号,,13,108,1350024,,,,,,,2021-07-27,1,,,,,ローバークルー,0
29,1010705003246,新規,0,2021-07-27,2021-07-27,一般社団法人サイクル・モビリティ活用推進協会,,その他の設立登記法人,東京都,品川区,北品川５丁目５番１５号大崎ブライトコア４階ＳＨＩＰ,,13,109,1410001,,,,,,,2021-07-27,1,,,,,サイクルモビリティカツヨウスイシンキョウカイ,0
33,1011001141797,新規,0,2021-07-27,2021-07-27,ＹＯＩＮ株式会社,,株式会社,東京都,渋谷区,恵比寿南２丁目９番８号オチアイソウエンビル２０１号室,,13,113,1500022,,,,,,,2021-07-27,1,,,,,ヨイン,0
34,1011001141896,新規,0,2021-07-27,2021-07-27,株式会社ｍｏｍｏ,,株式会社,東京都,渋谷区,道玄坂１丁目１５番３号,,13,113,1500043,,,,,,,2021-07-27,1,,,,,モモ,0
35,1011001141921,新規,0,2021-07-27,2021-07-27,ＰＲＩＳＭ株式会社,,株式会社,東京都,目黒区,五本木１丁目２９番１－３０６号ＰＩＡＺＺＡ－Ｕ,,13,110,1530053,,,,,,,2021-07-27,1,,,,,プリズム,0
37,1011003013111,新規,0,2021-07-27,2021-07-27,合同会社ルウのキッチン,,合同会社,東京都,目黒区,五本木２丁目１１番２４番,,13,110,1530053,,,,,,,2021-07-27,1,,,,,ルウノキッチン,0
53,1011505002413,新規,0,2021-07-27,2021-07-27,一般社団法人オフィスアドルフ,,その他の設立登記法人,東京都,荒川区,東尾久４丁目１番１３号オルテハウス２０３,,13,118,1160012,,,,,,,2021-07-27,1,,,,,オフィスアドルフ,0
54,1011601025284,新規,0,2021-07-27,2021-07-27,ＹＰＰ株式会社,,株式会社,東京都,練馬区,関町東１丁目４番９－１０１号,,13,120,1770052,,,,,,,2021-07-27,1,,,,,ワイピーピー,0
55,1011701024566,新規,0,2021-07-27,2021-07-27,磯街商事株式会社,,株式会社,東京都,江戸川区,二之江町１３６７－４５,,13,123,1340093,,,,,,,2021-07-27,1,,,,,イソマチショウジ,0
59,1011805003078,新規,0,2021-07-27,2021-07-27,一般社団法人Ｍｕｄｉｔａ,,その他の設立登記法人,東京都,足立区,綾瀬１丁目１９－１４,,13,121,1200005,,,,,,,2021-07-27,1,,,,,ムディタ,0
62,1013301047773,新規,0,2021-07-27,2021-07-27,株式会社ｎｏｏｔ,,株式会社,東京都,豊島区,高松１丁目５番２号ハイム白澤１０１号,,13,116,1710042,,,,,,,2021-07-27,1,,,,,ノート,0
70,1020001142350,新規,0,2021-07-27,2021-07-27,株式会社梅本ムーヴ,,株式会社,神奈川県,横浜市中区,山下町２０１－９ラトス・ビュー２０１,,14,104,2310023,,,,,,,2021-07-27,1,,,,,ウメモトムーヴ,0
85,1030001143496,新規,0,2021-07-27,2021-07-27,株式会社ＬＣＣ,,株式会社,埼玉県,戸田市,下前２丁目７番１０号,,11,224,3350016,,,,,,,2021-07-27,1,,,,,エルシーシー,0
86,1030001143513,新規,0,2021-07-27,2021-07-27,株式会社ＮＥＸＴ４,,株式会社,埼玉県,川口市,江戸袋１丁目１２番１０号,,11,203,3340075,,,,,,,2021-07-27,1,,,,,ネクストフォー,0
87,1030001143521,新規,0,2021-07-27,2021-07-27,株式会社リープコネクト,,株式会社,埼玉県,北葛飾郡杉戸町,清地１丁目８２番,,11,464,3450025,,,,,,,2021-07-27,1,,,,,リープコネクト,0
91,1030003017681,新規,0,2021-07-27,2021-07-27,合同会社ＰＯＬＡＲＩＳ,,合同会社,埼玉県,さいたま市西区,三橋５丁目２２３４－２,,11,101,3310052,,,,,,,2021-07-27,1,,,,,ポラリス,0
92,1030005020452,新規,0,2021-07-27,2021-07-27,特定非営利活動法人中丸沼愛好会,,その他の設立登記法人,埼玉県,東松山市,大字西本宿１９９７番地２階,,11,212,3550062,,,,,,,2021-07-27,1,,,,,ナカマルヌマアイコウカイ,0
98,1040001119504,新規,0,2021-07-27,2021-07-27,株式会社ＤｅｅｐＣｏｄｅ,,株式会社,千葉県,柏市,柏６丁目４－２４,,12,217,2770005,,,,,,,2021-07-27,1,,,,,ディープコード,0
99,1040001119512,新規,0,2021-07-27,2021-07-27,株式会社カーウイングスジャパン,,株式会社,千葉県,千葉市若葉区,中田町１０３２－１１,,12,104,2650043,,,,,,,2021-07-27,1,,,,,カーウイングスジャパン,0
101,1040003018209,新規,0,2021-07-27,2021-07-27,合同会社ＣＭＭ２号,,合同会社,千葉県,柏市,柏４丁目５番１０号,,12,217,2770005,,,,,,,2021-07-27,1,,,,,シーエムエムニゴウ,0
114,1080403004333,新規,0,2021-07-27,2021-07-27,合同会社ＫＯＫＯＭＯ,,合同会社,静岡県,磐田市,上岡田７２０番地１ココモ岡田１－Ａ,,22,211,4380045,,,,,,,2021-07-27,1,,,,,ココモ,0
118,1100001034465,新規,0,2021-07-27,2021-07-27,Ｒｕｓｈｆｉｌｅｓ　Ｊａｐａｎ株式会社,,株式会社,長野県,長野市,南県町１０８２番地,,20,201,3810000,,,,,,,2021-07-27,1,,,,,ラッシュファイルズジャパン,0
119,1100001034473,新規,0,2021-07-27,2021-07-27,株式会社世輪,,株式会社,長野県,松本市,大字島内３９１４番地２クレルデリュヌⅡ１０２,00123743,20,202,3900851,,,,,,,2021-07-27,1,,,,,ヨリン,0
135,1120001239236,新規,0,2021-07-27,2021-07-27,一心国際株式会社,,株式会社,大阪府,大阪市浪速区,恵美須西２丁目６－１１－４０３号室,,27,111,5560003,,,,,,,2021-07-27,1,,,,,イッシンコクサイ,0
136,1120001239277,新規,0,2021-07-27,2021-07-27,株式会社ＳｍｉｌｅＡｌｗａｙｓ,,株式会社,大阪府,大阪市北区,梅田２丁目５番１３号桜橋第一ビル３０４号,,27,127,5300001,,,,,,,2021-07-27,1,,,,,スマイルオールウェイズ,0
139,1120003019891,新規,0,2021-07-27,2021-07-27,合同会社ＴＲＡＩＮ,,合同会社,大阪府,大阪市港区,夕凪１丁目１３番２号,,27,107,5520004,,,,,,,2021-07-27,1,,,,,トレイン,0
140,1120003019900,新規,0,2021-07-27,2021-07-27,合同会社ルーデレ,,合同会社,大阪府,大阪市淀川区,西中島６丁目３－２４－Ｔ４０９,,27,123,5320011,,,,,,,2021-07-27,1,,,,,ルーデレ,0
142,1120101064030,新規,0,2021-07-27,2021-07-27,株式会社横井工務店,,株式会社,大阪府,貝塚市,森８４４番地,,27,208,5970044,,,,,,,2021-07-27,1,,,,,ヨコイコウムテン,0
143,1120103004273,新規,0,2021-07-27,2021-07-27,合同会社えちおぴあ,,合同会社,大阪府,和泉市,上町６６９－３,,27,219,5940002,,,,,,,2021-07-27,1,,,,,エチオピア,0
148,1120901044685,新規,0,2021-07-27,2021-07-27,株式会社からと,,株式会社,大阪府,茨木市,大池２丁目１１番１５号,,27,211,5670826,,,,,,,2021-07-27,1,,,,,カラト,0
149,1122001035029,新規,0,2021-07-27,2021-07-27,ハーベスト株式会社,,株式会社,大阪府,八尾市,山城町２丁目１番７－１３０４号,,27,212,5810801,,,,,,,2021-07-27,1,,,,,ハーベスト,0
151,1122003002134,新規,0,2021-07-27,2021-07-27,合同会社うさぎ,,合同会社,大阪府,八尾市,安中町５丁目５－３６,,27,212,5810085,,,,,,,2021-07-27,1,,,,,ウサギ,0
152,1122003002142,新規,0,2021-07-27,2021-07-27,合同会社ＮＡＳＵＫＯＴ,,合同会社,大阪府,東大阪市,山手町７番１０号,,27,227,5798022,,,,,,,2021-07-27,1,,,,,ナスコット,0
161,1130001069772,新規,0,2021-07-27,2021-07-27,株式会社ＯＸＦＯＲＤ　ａｇｉｌｉｔｙ,,株式会社,京都府,京都市南区,唐橋赤金町５２番地２,,26,107,6018463,,,,,,,2021-07-27,1,,,,,オックスフォードアジリティー,0
162,1130001069780,新規,0,2021-07-27,2021-07-27,株式会社さかのうえ不動産,,株式会社,京都府,京都市北区,上賀茂西上之段町１８番地１０,,26,101,6038028,,,,,,,2021-07-27,1,,,,,サカノウエフドウサン,0
164,1130003007350,新規,0,2021-07-27,2021-07-27,合同会社加藤電工,,合同会社,京都府,京都市中京区,姉小路通高倉東入木之下町２９６番地,,26,104,6048104,,,,,,,2021-07-27,1,,,,,カトウデンコウ,0
165,1130005016234,新規,0,2021-07-27,2021-07-27,一般社団法人ドーピング０会,,その他の設立登記法人,京都府,京都市左京区,下鴨高木町４６番地１じょい下鴨５０１号,,26,103,6060864,,,,,,,2021-07-27,1,,,,,ドーピングゼロカイ,0
167,1140001122398,新規,0,2021-07-27,2021-07-27,株式会社Ｆ．Ｊ．ＭＡＤＥ．,,株式会社,兵庫県,西宮市,若松町３番１号１０２,,28,204,6620035,,,,,,,2021-07-27,1,,,,,エフジェイメイド,0
170,1160001023495,新規,0,2021-07-27,2021-07-27,ＢＲＥＡＤＥＲ株式会社,,株式会社,滋賀県,大津市,衣川１丁目４０－４０,,25,201,5200244,,,,,,,2021-07-27,1,,,,,ブレッダー,0
172,1160005010960,新規,0,2021-07-27,2021-07-27,農事組合法人今町営農組合,,その他の設立登記法人,滋賀県,長浜市,今町６３７番地,,25,203,5260806,,,,,,,2021-07-27,1,,,,,イマチョウエイノウクミアイ,0
176,1180001147086,新規,0,2021-07-27,2021-07-27,株式会社ＹＭ　ＫＯＧＡホールディングス,,株式会社,愛知県,春日井市,松河戸町３丁目１１番地１０,,23,206,4860932,,,,,,,2021-07-27,1,,,,,ワイエムコガホールディングス,0
177,1180001147094,新規,0,2021-07-27,2021-07-27,株式会社パルミラ,,株式会社,愛知県,東海市,高横須賀町４丁目４８番地,,23,222,4770037,,,,,,,2021-07-27,1,,,,,パルミラ,0
182,1180005019380,新規,0,2021-07-27,2021-07-27,社会福祉法人あおば福祉会,,その他の設立登記法人,愛知県,名古屋市西区,幅下１丁目１０番２７号,,23,104,4510041,,,,,,,2021-07-27,1,,,,,アオバフクシカイ,0
187,1190001028533,新規,0,2021-07-27,2021-07-27,株式会社浦牡蠣,,株式会社,三重県,度会郡南伊勢町,宿浦１１１４番地１,,24,472,5160221,,,,,,,2021-07-27,1,,,,,ウラカキ,0
188,1190003003732,新規,0,2021-07-27,2021-07-27,パワーエイド三重合同会社,,合同会社,三重県,松阪市,小片野町１７５１番地１,,24,204,5151204,,,,,,,2021-07-27,1,,,,,パワーエイド,0
199,1240001058319,新規,0,2021-07-27,2021-07-27,株式会社トリプルライン,,株式会社,広島県,呉市,広大広２丁目１１－５５,,34,202,7370111,,,,,,,2021-07-27,1,,,,,トリプルライン,0
203,1250001019022,新規,0,2021-07-27,2021-07-27,株式会社マツウラ設計事務所,,株式会社,山口県,光市,室積２丁目６番３２号,,35,210,7430007,,,,,,,2021-07-27,1,,,,,マツウラセッケイジムショ,0
211,1290001094020,新規,0,2021-07-27,2021-07-27,株式会社ＨＩＮＡ＆Ｃｏ．,,株式会社,福岡県,福岡市博多区,比恵町１番８号サンいずみビル２０１号,,40,132,8120014,,,,,,,2021-07-27,1,,,,,ヒナアンドコドット,0
220,1320003003578,新規,0,2021-07-27,2021-07-27,合同会社ティアレ,,合同会社,大分県,杵築市,大字相原４０６番地,,44,210,8730011,,,,,,,2021-07-27,1,,,,,ティアレ,0
224,1340001023931,新規,0,2021-07-27,2021-07-27,ＢｌａｃｋＴｅｃｈ株式会社,,株式会社,鹿児島県,出水市,野田町上名６５０４,,46,208,8990501,,,,,,,2021-07-27,1,,,,,ブラックテック,0
227,1350001017214,新規,0,2021-07-27,2021-07-27,株式会社Ｃａｒｅｅｒ　Ｐｅｋｏ,,株式会社,宮崎県,宮崎市,月見ケ丘２丁目２８番７号,,45,201,8800926,,,,,,,2021-07-27,1,,,,,キャリアペコ,0
230,1370001047366,新規,0,2021-07-27,2021-07-27,リバーランズホールディングス株式会社,,株式会社,宮城県,仙台市太白区,茂庭字人来田西４８番地の２,,04,104,9820251,,,,,,,2021-07-27,1,,,,,リバーランズホールディングス,0
247,1410005006413,新規,0,2021-07-27,2021-07-27,農事組合法人上南農園,,その他の設立登記法人,秋田県,大仙市,太田町国見字仲村８６番地３,,05,212,0191605,,,,,,,2021-07-27,1,,,,,ウエミナミノウエン,0
251,1420003002355,新規,0,2021-07-27,2021-07-27,合同会社ほし,,合同会社,青森県,八戸市,大字新井田字水溜６－１６,,02,203,0310813,,,,,,,2021-07-27,1,,,,,ホシ,0
254,1430001084601,新規,0,2021-07-27,2021-07-27,ＧＡＹＥ３１３株式会社,,株式会社,北海道,千歳市,根志越１３９９番地５,,01,224,0660008,,,,,,,2021-07-27,1,,,,,ガイサンイチサン,0
260,1430005014232,新規,0,2021-07-27,2021-07-27,狩太村宮田農事實行組合,,その他の設立登記法人,北海道,虻田郡ニセコ町,（虻田郡狩太村字宮田）,,01,395,0481500,,,,,,,2021-07-27,1,,,,,,0
268,1450005004306,新規,0,2021-07-27,2021-07-27,一般社団法人ふたばライフサポート,,その他の設立登記法人,北海道,旭川市,二条通８丁目１４４番地２旭川二条通ビル,,01,204,0700032,,,,,,,2021-07-27,1,,,,,フタバライフサポート,0
270,1460301004999,新規,0,2021-07-27,2021-07-27,株式会社知床水産,,株式会社,北海道,斜里郡斜里町,ウトロ西９９番地,,01,545,0994354,,,,,,,2021-07-27,1,,,,,シレトコスイサン,0
274,1500001023584,新規,0,2021-07-27,2021-07-27,株式会社シェリーベリーコーポレーション,,株式会社,愛媛県,松山市,天山３丁目１４番２５号,,38,201,7900951,,,,,,,2021-07-27,1,,,,,シェリーベリーコーポレーション,0
275,1700150104033,新規,0,2021-07-27,2021-07-08,コスモ横浜鶴見管理組合,,その他,神奈川県,横浜市鶴見区,生麦４丁目９－１３,,14,101,2300052,,,,,,,2021-07-08,1,,,,,コスモヨコハマツルミカンリクミアイ,0
276,1700150104058,新規,0,2021-07-27,2021-07-09,苫小牧アイスホッケー連盟,,その他,北海道,苫小牧市,表町３丁目２－１３王子不動産第２ビル　４階,,01,213,0530022,,,,,,,2021-07-09,1,,,,,トマコマイアイスホツケーレンメイ,0
277,1700150104173,新規,0,2021-07-27,2021-07-27,ＳＴＥＥＬ　ＣＵＴ　ＰＩＥＣＥ　ＣＥＮＴＲＥ,,外国会社等,千葉県,茂原市,中の島町６８３番地オフィス１号,,12,210,2970034,スリランカ民主社会主義共和国、ポロンナルワ、カドゥルウェラ、ムスリムコロニー、２７－８,,,,,,2021-07-27,1,,,,,ステイールカツトピースセンター,0
294,2010101014788,新規,0,2021-07-27,2021-07-27,株式会社みしゅまる,,株式会社,東京都,八王子市,館町２３００番地１８,,13,201,1930944,,,,,,,2021-07-27,1,,,,,ミシュマル,0
304,2010601059696,新規,0,2021-07-27,2021-07-27,山大株式会社,,株式会社,東京都,墨田区,押上１丁目１５番２－３０３号,,13,107,1310045,,,,,,,2021-07-27,1,,,,,ヤマダイ,0
305,2010603009055,新規,0,2021-07-27,2021-07-27,トモグローバル経営コンサルティング合同会社,,合同会社,東京都,江東区,東陽７丁目２－３６－５０７号室,,13,108,1350016,,,,,,,2021-07-27,1,,,,,トモグローバルケイエイコンサルティング,0
316,2010803003832,新規,0,2021-07-27,2021-07-27,合同会社スローリー,,合同会社,東京都,大田区,大森北１丁目３４番２１号,,13,111,1430016,,,,,,,2021-07-27,1,,,,,スローリー,0
327,2010901049158,新規,0,2021-07-27,2021-07-27,株式会社ソリット,,株式会社,東京都,世田谷区,玉川台２丁目１１番１３－２０９号,,13,112,1580096,,,,,,,2021-07-27,1,,,,,ソリット,0
333,2011001141904,新規,0,2021-07-27,2021-07-27,株式会社ＦＬＡＦＦＹ,,株式会社,東京都,渋谷区,恵比寿西１丁目３３番６号１Ｆ,,13,113,1500021,,,,,,,2021-07-27,1,,,,,フラッフィー,0
334,2011001141912,新規,0,2021-07-27,2021-07-27,フィーク株式会社,,株式会社,東京都,渋谷区,西原２丁目２０番８号,,13,113,1510066,,,,,,,2021-07-27,1,,,,,フィーク,0
339,2011103010890,新規,0,2021-07-27,2021-07-27,モスガーデン合同会社,,合同会社,東京都,新宿区,赤城元町４番１１号赤城ハイツ３０２,,13,104,1620817,,,,,,,2021-07-27,1,,,,,モスガーデン,0
347,2011601025283,新規,0,2021-07-27,2021-07-27,株式会社エレファント,,株式会社,東京都,練馬区,豊玉北３丁目１７番１５号ＣＲＥＶＩＳＴＡ練馬桜台Ⅱ６０５,00123741,13,120,1760012,,,,,,,2021-07-27,1,,,,,エレファント,0
351,2011701024581,新規,0,2021-07-27,2021-07-27,株式会社アルファーオート,,株式会社,東京都,江戸川区,東葛西２丁目２６番１８号,,13,123,1340084,,,,,,,2021-07-27,1,,,,,アルファーオート,0
353,2011703002899,新規,0,2021-07-27,2021-07-27,合同会社大工屋,,合同会社,東京都,江戸川区,大杉４丁目２２番７号,,13,123,1320022,,,,,,,2021-07-27,1,,,,,ダイクヤ,0
354,2011801039496,新規,0,2021-07-27,2021-07-27,株式会社ＫＥＫＳ,,株式会社,東京都,葛飾区,新宿６丁目２番１－１０２５号,,13,122,1250051,,,,,,,2021-07-27,1,,,,,ケイイーケイエス,0
356,2012701016593,新規,0,2021-07-27,2021-07-27,株式会社ＤＳＯ,,株式会社,東京都,小平市,小川西町３丁目８番２７号２階,,13,211,1870035,,,,,,,2021-07-27,1,,,,,ディーエスオー,0
361,2013305003243,新規,0,2021-07-27,2021-07-27,一般社団法人ＥＩＤＡ協会,,その他の設立登記法人,東京都,豊島区,目白３丁目１７番２４号目白Ｉ－Ｎビル３Ｆ,,13,116,1710031,,,,,,,2021-07-27,1,,,,,イーアイディーエーキョウカイ,0
370,2020003020223,新規,0,2021-07-27,2021-07-27,メゾンときわ市川合同会社,,合同会社,神奈川県,横浜市金沢区,東朝比奈１丁目５０番４１号,,14,108,2360033,,,,,,,2021-07-27,1,,,,,メゾントキワイチカワ,0
384,2030001143512,新規,0,2021-07-27,2021-07-27,株式会社ＬＩＢＥＲＡＮＯＶＡ,,株式会社,埼玉県,熊谷市,筑波２丁目５６－３渡辺総合ビル５階,,11,202,3600037,,,,,,,2021-07-27,1,,,,,リベラノヴァ,0
397,2040001119404,新規,0,2021-07-27,2021-07-27,環球通商株式会社,,株式会社,千葉県,千葉市緑区,平山町１０４１－４４,,12,105,2660002,,,,,,,2021-07-27,1,,,,,カンキュウツウショウ,0
398,2040001119511,新規,0,2021-07-27,2021-07-27,株式会社ＦＩＱスタイル,,株式会社,千葉県,浦安市,高洲８丁目１番Ｄ－６３５号プラウド新浦安パームコート,,12,227,2790023,,,,,,,2021-07-27,1,,,,,エフアイキュースタイル,0
402,2040003018199,新規,0,2021-07-27,2021-07-27,合同会社月香,,合同会社,千葉県,八千代市,村上南１丁目１番地１６モンテ村上５０２号,,12,221,2760029,,,,,,,2021-07-27,1,,,,,ゲッカ,0
403,2040003018208,新規,0,2021-07-27,2021-07-27,合同会社ＣＭＭ１号,,合同会社,千葉県,柏市,柏４丁目５番１０号,,12,217,2770005,,,,,,,2021-07-27,1,,,,,シーエムエムイチゴウ,0
407,2050001049583,新規,0,2021-07-27,2021-07-27,株式会社高秀,,株式会社,茨城県,古河市,本町４丁目１５番１６号ポレスター古河リーモ２０１号,,08,204,3060023,,,,,,,2021-07-27,1,,,,,タカヒデ,0
410,2060003003760,新規,0,2021-07-27,2021-07-27,合同会社ラープ,,合同会社,栃木県,宇都宮市,末広２丁目２番１号関原市営住宅１－１１１,,09,201,3210144,,,,,,,2021-07-27,1,,,,,ラープ,0
415,2080003002612,新規,0,2021-07-27,2021-07-27,アイエスエヌ合同会社,,合同会社,静岡県,藤枝市,清里１丁目８－６,,22,214,4260223,,,,,,,2021-07-27,1,,,,,アイエスエヌ,0
418,2080401025215,新規,0,2021-07-27,2021-07-27,株式会社未来,,株式会社,静岡県,浜松市西区,大平台３丁目２番５号ウエストヒル１０１,,22,133,4328068,,,,,,,2021-07-27,1,,,,,ミライ,0
421,2100001034472,新規,0,2021-07-27,2021-07-27,株式会社未来工房,,株式会社,長野県,松本市,大字島内４８９７番地６６,,20,202,3900851,,,,,,,2021-07-27,1,,,,,ミライコウボウ,0
423,2100003006180,新規,0,2021-07-27,2021-07-27,合同会社トゥエルヴ,,合同会社,長野県,諏訪市,大字中洲５６７２番地２,,20,206,3920015,,,,,,,2021-07-27,1,,,,,トゥエルヴ,0
427,2110001035932,新規,0,2021-07-27,2021-07-27,株式会社華越実業,,株式会社,新潟県,燕市,新興野１番３号,,15,213,9590116,,,,,,,2021-07-27,1,,,,,カエツジツギョウ,0
442,2120001239210,新規,0,2021-07-27,2021-07-27,株式会社Ｎｅｅｄ　ｆｏｒ　Ｓｐｅｅｄ,,株式会社,大阪府,大阪市浪速区,敷津東２丁目１番２４－２３０９号,,27,111,5560012,,,,,,,2021-07-27,1,,,,,ニードフォースピード,0
443,2120001239268,新規,0,2021-07-27,2021-07-27,株式会社サクラブルーミング,,株式会社,大阪府,大阪市中央区,難波２丁目３番１１号,,27,128,5420076,,,,,,,2021-07-27,1,,,,,サクラブルーミング,0
444,2120001239359,新規,0,2021-07-27,2021-07-27,株式会社大陽電通,,株式会社,大阪府,大阪市大正区,平尾４丁目２０番２号,,27,108,5510012,,,,,,,2021-07-27,1,,,,,ダイヨウデンツウ,0
447,2120003019899,新規,0,2021-07-27,2021-07-27,ＴＨ　ｔｒａｄｉｎｇ合同会社,,合同会社,大阪府,大阪市生野区,生野東４丁目１－４６,,27,116,5440025,,,,,,,2021-07-27,1,,,,,ティーエイチトレーディング,0
451,2120101064046,新規,0,2021-07-27,2021-07-27,株式会社クローバーアメニティ,,株式会社,大阪府,堺市中区,深井水池町３０８１番地パレス深井１０２号,,27,142,5998237,,,,,,,2021-07-27,1,,,,,クローバーアメニティ,0
452,2120103004272,新規,0,2021-07-27,2021-07-27,合同会社ＧＲＡＮＸ,,合同会社,大阪府,岸和田市,土生町９８８番地の１３,,27,202,5960825,,,,,,,2021-07-27,1,,,,,グランクス,0
455,2120903003754,新規,0,2021-07-27,2021-07-27,高見不動産合同会社,00123750,合同会社,大阪府,豊中市,新千里東町１丁目１番２号シエリアタワー千里中央３７１２号室,,27,203,5600082,,,,,,,2021-07-27,1,,,,,タカミフドウサン,0
469,2130001069755,新規,0,2021-07-27,2021-07-27,株式会社ミライクリエート,,株式会社,京都府,京都市右京区,太秦青木元町２３番地の３,,26,108,6168172,,,,,,,2021-07-27,1,,,,,ミライクリエート,0
470,2130001069771,新規,0,2021-07-27,2021-07-27,株式会社ａｎｅｌａ,,株式会社,京都府,京都市北区,紫竹上芝本町８５番地,,26,101,6038423,,,,,,,2021-07-27,1,,,,,アネラ,0
471,2130001069788,新規,0,2021-07-27,2021-07-27,株式会社ｅｘｉｔｏ,,株式会社,京都府,京都市南区,唐橋羅城門町４１－４ロイヤルビル九条１階,,26,107,6018453,,,,,,,2021-07-27,1,,,,,エクスイト,0
474,2130003007382,新規,0,2021-07-27,2021-07-27,合同会社Ａｌｃｈｅｍｉｓｔ,,合同会社,京都府,京都市南区,西九条菅田町２４番地パデシオン京都洛南５０５号,,26,107,6018445,,,,,,,2021-07-27,1,,,,,アルケミスト,0
477,2140001122397,新規,0,2021-07-27,2021-07-27,Ｔ－ｍａｎ株式会社,,株式会社,兵庫県,川西市,南花屋敷３丁目１番３－５０３号,,28,217,6660026,,,,,,,2021-07-27,1,,,,,ティーマン,0
478,2140001122430,新規,0,2021-07-27,2021-07-27,株式会社ＵＫＯＤＯ,,株式会社,兵庫県,西宮市,甲子園一番町１５番５号,,28,204,6638171,,,,,,,2021-07-27,1,,,,,ウコド,0
485,2150001024816,新規,0,2021-07-27,2021-07-27,株式会社山口木材,,株式会社,奈良県,五條市,住川町８８８番２８号,,29,207,6370014,,,,,,,2021-07-27,1,,,,,ヤマグチモクザイ,0
488,2170001016695,新規,0,2021-07-27,2021-07-27,株式会社エムケイコンストラクション,,株式会社,和歌山県,日高郡日高川町,大字早藤４２４番地５,,30,392,6491314,,,,,,,2021-07-27,1,,,,,エムケイコンストラクション,0
499,2180001147069,新規,0,2021-07-27,2021-07-27,株式会社ナカソウ,,株式会社,愛知県,名古屋市北区,楠味鋺１丁目９０６番地,,23,103,4620014,,,,,,,2021-07-27,1,,,,,ナカソウ,0
500,2180001147077,新規,0,2021-07-27,2021-07-27,株式会社ＳＯＭＡ,,株式会社,愛知県,小牧市,大字大草字五反田２１８４番地１１１,,23,219,4850802,,,,,,,2021-07-27,1,,,,,ソウマ,0
501,2180001147102,新規,0,2021-07-27,2021-07-27,アンドリゾートソリューションズ株式会社,,株式会社,愛知県,名古屋市西区,浄心１丁目１番４１号浄心ステーションビル北館１階,,23,104,4510061,,,,,,,2021-07-27,1,,,,,アンドリゾートソリューションズ,0
507,2180301035196,新規,0,2021-07-27,2021-07-27,ＩＧＥホールディングス株式会社,,株式会社,愛知県,刈谷市,小垣江町本郷下５５番地１,,23,210,4480813,,,,,,,2021-07-27,1,,,,,アイジーイーホールディングス,0
513,2190001028532,新規,0,2021-07-27,2021-07-27,株式会社ももふく貿易,,株式会社,三重県,三重郡菰野町,大字千草７０４５番地２０３,,24,341,5101251,,,,,,,2021-07-27,1,,,,,モモフクボウエキ,0
514,2190003003731,新規,0,2021-07-27,2021-07-27,熊野わいわいプロジェクト合同会社,,合同会社,三重県,南牟婁郡御浜町,大字柿原７４６番地,,24,561,5195206,,,,,,,2021-07-27,1,,,,,クマノワイワイプロジェクト,0
522,2210001018547,新規,0,2021-07-27,2021-07-27,株式会社Ｒｅｂｏｏｔ,,株式会社,福井県,越前市,千原町８－７－１,,18,209,9150243,,,,,,,2021-07-27,1,,,,,リブート,0
541,2320001018503,新規,0,2021-07-27,2021-07-27,株式会社十時電工,,株式会社,大分県,大分市,弁天３丁目４番１７号,,44,201,8700017,,,,,,,2021-07-27,1,,,,,トトキデンコウ,0
546,2330001028831,新規,0,2021-07-27,2021-07-27,株式会社キカクニカ,,株式会社,熊本県,熊本市北区,飛田３丁目５－８ｓｏｃｋｅｔ２Ｆ,,43,105,8615514,,,,,,,2021-07-27,1,,,,,キカクニカ,0
550,2330005010372,新規,0,2021-07-27,2021-07-27,一般社団法人色とりどり,,その他の設立登記法人,熊本県,菊池郡大津町,大字大津７９２番地キャッスルウィング大津２０１号,,43,403,8691233,,,,,,,2021-07-27,1,,,,,イロトリドリ,0
551,2360001029125,新規,0,2021-07-27,2021-07-27,株式会社クリーンファーム,,株式会社,沖縄県,国頭郡金武町,字金武２０６４番地２,,47,314,9041201,,,,,,,2021-07-27,1,,,,,クリーンファーム,0
552,2360001029133,新規,0,2021-07-27,2021-07-27,株式会社泉川農園,,株式会社,沖縄県,島尻郡八重瀬町,字小城６０１番地１,,47,362,9010415,,,,,,,2021-07-27,1,,,,,イズミカワノウエン,0
553,2360001029141,新規,0,2021-07-27,2021-07-27,ＹＡＹＯＩ株式会社,,株式会社,沖縄県,南城市,佐敷字新里５１８番地,,47,215,9011412,,,,,,,2021-07-27,1,,,,,ヤヨイ,0
555,2370001047365,新規,0,2021-07-27,2021-07-27,株式会社ユリ青果,,株式会社,宮城県,仙台市宮城野区,蒲生字南城道田５番地の６７,,04,102,9830002,,,,,,,2021-07-27,1,,,,,ユリセイカ,0
565,2420003002354,新規,0,2021-07-27,2021-07-27,合同会社ＳＣＨＥＭＥ　ＭＡＫＥＲ,,合同会社,青森県,八戸市,大字糠塚字前谷地１０番地１２グランコートＤ１０１号室,,02,203,0310022,,,,,,,2021-07-27,1,,,,,スキームメーカー,0
571,2430001084559,新規,0,2021-07-27,2021-07-27,後藤木材株式会社,,株式会社,北海道,室蘭市,中島本町１丁目１番地１２,,01,205,0500075,,,,,,,2021-07-27,1,,,,,ゴトウモクザイ,0
572,2430001084609,新規,0,2021-07-27,2021-07-27,株式会社ワンエムホーム,,株式会社,北海道,札幌市東区,北七条東８丁目２番１２－１０６号,,01,103,0650007,,,,,,,2021-07-27,1,,,,,ワンエムホーム,0
580,2470001018629,新規,0,2021-07-27,2021-07-27,株式会社インテリアマーケット,,株式会社,香川県,高松市,扇町１丁目２８番２９号,,37,201,7600013,,,,,,,2021-07-27,1,,,,,インテリアマーケット,0
599,3010001219866,新規,0,2021-07-27,2021-07-27,ライト株式会社,,株式会社,東京都,千代田区,神田佐久間町１丁目８番４号,,13,101,1010025,,,,,,,2021-07-27,1,,,,,ライト,0
600,3010001219908,新規,0,2021-07-27,2021-07-27,岡南積算株式会社,,株式会社,東京都,中央区,銀座１丁目２２番１１号銀座大竹ビジデンス２階,,13,102,1040061,,,,,,,2021-07-27,1,,,,,,0
601,3010001219916,新規,0,2021-07-27,2021-07-27,ＰＮＤ株式会社,,株式会社,東京都,中央区,日本橋人形町１丁目５－８地下２階,,13,102,1030013,,,,,,,2021-07-27,1,,,,,ピーエヌディー,0
603,3010005033669,新規,0,2021-07-27,2021-07-27,一般財団法人パスウェイズ・ジャパン,,その他の設立登記法人,東京都,千代田区,西神田２丁目５番２号ＴＡＳビル４階,,13,101,1010065,,,,,,,2021-07-27,1,,,,,パスウェイズジャパン,0
614,3010501047593,新規,0,2021-07-27,2021-07-27,株式会社エイトック,,株式会社,東京都,台東区,上野６丁目１番６号御徒町グリーンハイツ１００５号,,13,106,1100005,,,,,,,2021-07-27,1,,,,,エイトック,0
615,3010503006325,新規,0,2021-07-27,2021-07-27,合同会社Ｙｏｕｒ　Ｓｐａｃｅ,,合同会社,東京都,台東区,浅草３丁目２１－３シャンポール花岡４０１,,13,106,1110032,,,,,,,2021-07-27,1,,,,,ユアスペース,0
616,3010503006333,新規,0,2021-07-27,2021-07-27,合同会社トライアース,,合同会社,東京都,台東区,千束４丁目２１番１号,,13,106,1110031,,,,,,,2021-07-27,1,,,,,トライアース,0
628,3010903006668,新規,0,2021-07-27,2021-07-27,合同会社ブエナスメルカンシアス,,合同会社,東京都,世田谷区,三軒茶屋２丁目５番２号エスカイア三軒茶屋３０３,,13,112,1540024,,,,,,,2021-07-27,1,,,,,ブエナスメルカンシアス,0
636,3011001141721,新規,0,2021-07-27,2021-07-27,株式会社ＤＸ,,株式会社,東京都,渋谷区,松濤１丁目２８番２号,,13,113,1500046,,,,,,,2021-07-27,1,,,,,ディーエックス,0
637,3011001141861,新規,0,2021-07-27,2021-07-27,株式会社３Ｃ,,株式会社,東京都,渋谷区,広尾５丁目２３番５号長谷部第１ビル１階,,13,113,1500012,,,,,,,2021-07-27,1,,,,,スリーシー,0
643,3011101095826,新規,0,2021-07-27,2021-07-27,ＥＰＤ株式会社,,株式会社,東京都,新宿区,津久戸町１番８号,,13,104,1620821,,,,,,,2021-07-27,1,,,,,イーピーディー,0
648,3011605002385,新規,0,2021-07-27,2021-07-27,一般社団法人レベシェア１号,,その他の設立登記法人,東京都,練馬区,桜台４丁目１９番１７,,13,120,1760002,,,,,,,2021-07-27,1,,,,,レベシェアイチゴウ,0
651,3011801039495,新規,0,2021-07-27,2021-07-27,株式会社チャーム,,株式会社,東京都,葛飾区,東新小岩８丁目７番１８－２０２号グランド．オーク,,13,122,1240023,,,,,,,2021-07-27,1,,,,,チャーム,0
655,3012401038136,新規,0,2021-07-27,2021-07-27,株式会社ｃｏｍｅｂａｃｋ,,株式会社,東京都,武蔵野市,吉祥寺南町１丁目１番１８号けやきビルＢ１,,13,203,1800003,,,,,,,2021-07-27,1,,,,,カムバック,0
659,3013301047771,新規,0,2021-07-27,2021-07-27,株式会社ＰＯＴ,,株式会社,東京都,豊島区,東池袋１丁目３４番５号いちご東池袋ビル６階,,13,116,1700013,,,,,,,2021-07-27,1,,,,,ポット,0
661,3013303005760,新規,0,2021-07-27,2021-07-27,ＡＣトレード合同会社,,合同会社,東京都,豊島区,西池袋５丁目２６番１０号カスタリア要町５０１,,13,116,1710021,,,,,,,2021-07-27,1,,,,,エーシートレード,0
692,3030001143528,新規,0,2021-07-27,2021-07-27,株式会社信和,,株式会社,埼玉県,川越市,大字大仙波５４３番地２,,11,201,3500032,,,,,,,2021-07-27,1,,,,,シンワ,0
698,3040001119510,新規,0,2021-07-27,2021-07-27,株式会社ＳＵＮＲＩＳＥ,,株式会社,千葉県,松戸市,古ケ崎３丁目３３７７番地の３,,12,207,2710068,,,,,,,2021-07-27,1,,,,,サンライズ,0
700,3040003018207,新規,0,2021-07-27,2021-07-27,ＥＣＬＡＢＯ合同会社,,合同会社,千葉県,千葉市稲毛区,小仲台２丁目６－１京成稲毛ビル２Ｆ,,12,103,2630043,,,,,,,2021-07-27,1,,,,,イーシーラボ,0
703,3050001049590,新規,0,2021-07-27,2021-07-27,株式会社ＳＫ　ｆａｒｍ,,株式会社,茨城県,東茨城郡大洗町,神山町１２５１番地,,08,309,3111312,,,,,,,2021-07-27,1,,,,,エスケーファーム,0
705,3060001033932,新規,0,2021-07-27,2021-07-27,まなと建設株式会社,,株式会社,栃木県,足利市,福居町３５２番地２,,09,202,3260338,,,,,,,2021-07-27,1,,,,,マナトケンセツ,0
712,3080403004331,新規,0,2021-07-27,2021-07-27,Ｔａｋｅ　ｏｆｆ合同会社,,合同会社,静岡県,浜松市南区,楊子町２７番地の３,,22,134,4300855,,,,,,,2021-07-27,1,,,,,テイクオフ,0
722,3110001035931,新規,0,2021-07-27,2021-07-27,株式会社ＳＣＳ,,株式会社,新潟県,新潟市中央区,米山５丁目１０番１０号,,15,103,9500916,,,,,,,2021-07-27,1,,,,,エスシーエス,0
730,3120001239250,新規,0,2021-07-27,2021-07-27,ｉｍｐａｒｔ株式会社,,株式会社,大阪府,大阪市平野区,瓜破２丁目１－５０アビタシオン２３,,27,126,5470024,,,,,,,2021-07-27,1,,,,,インパート,0
731,3120001239267,新規,0,2021-07-27,2021-07-27,株式会社時空間・行動連鎖研究所,,株式会社,大阪府,大阪市中央区,大手通３丁目２番３－１１０２号,,27,128,5400021,,,,,,,2021-07-27,1,,,,,ジクウカンコウドウレンサケンキュウジョ,0
732,3120001239275,新規,0,2021-07-27,2021-07-27,淑美株式会社,,株式会社,大阪府,大阪市北区,堂山町１番５号三共梅田ビル６Ｆ,,27,127,5300027,,,,,,,2021-07-27,1,,,,,シュクビ,0
733,3120001239283,新規,0,2021-07-27,2021-07-27,株式会社Ｒｏｕ,,株式会社,大阪府,大阪市淀川区,西宮原２丁目６－１６新大阪コーポビアネーズ９１４号室,,27,123,5320004,,,,,,,2021-07-27,1,,,,,ロウ,0
734,3120001239341,新規,0,2021-07-27,2021-07-27,株式会社ＲＥＩ,,株式会社,大阪府,大阪市西区,九条２丁目５番１０号,,27,106,5500027,,,,,,,2021-07-27,1,,,,,レイ,0
736,3120003019898,新規,0,2021-07-27,2021-07-27,Ｂボタン合同会社,,合同会社,大阪府,大阪市生野区,巽東２丁目１８番９－４０２号,,27,116,5440014,,,,,,,2021-07-27,1,,,,,ビーボタン,0
737,3120101064020,新規,0,2021-07-27,2021-07-27,株式会社ＦＡＬ,,株式会社,大阪府,堺市堺区,七道西町１２番地１１,,27,141,5900911,,,,,,,2021-07-27,1,,,,,ファル,0
738,3120101064037,新規,0,2021-07-27,2021-07-27,株式会社Ａｕｒｏｒａ　Ｃｒｅａｔｅ,,株式会社,大阪府,松原市,丹南２丁目２４９番地の１８,,27,217,5800013,,,,,,,2021-07-27,1,,,,,オーロラクリエイト,0
741,3120901044667,新規,0,2021-07-27,2021-07-27,株式会社旬コーポレーション,,株式会社,大阪府,茨木市,上穂積４丁目４番３２号,,27,211,5670036,,,,,,,2021-07-27,1,,,,,シュンコーポレーション,0
742,3120903003753,新規,0,2021-07-27,2021-07-27,傘木合同会社,,合同会社,大阪府,箕面市,西小路１丁目２番３－１０２号,,27,220,5620003,,,,,,,2021-07-27,1,,,,,カサギ,0
743,3120903003761,新規,0,2021-07-27,2021-07-27,合同会社Ｉマザリー,,合同会社,大阪府,茨木市,庄２丁目１６－２５,,27,211,5670806,,,,,,,2021-07-27,1,,,,,アイマザリー,0
744,3122001035019,新規,0,2021-07-27,2021-07-27,株式会社２Ｎｉｃｅ,,株式会社,大阪府,八尾市,植松町４丁目４番１６号,,27,212,5810084,,,,,,,2021-07-27,1,,,,,トゥーナイス,0
749,3130001069762,新規,0,2021-07-27,2021-07-27,株式会社兒島プランニング,,株式会社,京都府,京都市中京区,室町通三条下る烏帽子屋町４９０番地４０３号,,26,104,6048165,,,,,,,2021-07-27,1,,,,,コジマプランニング,0
750,3130001069770,新規,0,2021-07-27,2021-07-27,株式会社舞妓の茶本舗,,株式会社,京都府,京田辺市,普賢寺上大門２番地１,,26,211,6100322,,,,,,,2021-07-27,1,,,,,マイコノチャホンポ,0
751,3130001069795,新規,0,2021-07-27,2021-07-27,株式会社副田デザイン事務所,,株式会社,京都府,京都市下京区,善長寺町１５０－３０１,,26,106,6008431,,,,,,,2021-07-27,1,,,,,ソエダデザインジムショ,0
752,3130001069804,新規,0,2021-07-27,2021-07-27,株式会社リノライフ,,株式会社,京都府,京都市中京区,西ノ京池ノ内町１６番地９,,26,104,6048375,,,,,,,2021-07-27,1,,,,,リノライフ,0
755,3140001122413,新規,0,2021-07-27,2021-07-27,アストラ損害鑑定株式会社,,株式会社,兵庫県,神戸市須磨区,高倉台２丁目１８番７号,,28,107,6540081,,,,,,,2021-07-27,1,,,,,アストラソンガイカンテイ,0
758,3150001024807,新規,0,2021-07-27,2021-07-27,華楠株式会社,,株式会社,奈良県,奈良市,川上町８７３番地の２０４,,29,201,6308202,,,,,,,2021-07-27,1,,,,,ファナン,0
759,3150001024815,新規,0,2021-07-27,2021-07-27,株式会社パステル,,株式会社,奈良県,大和高田市,南今里町６番３２号,,29,202,6350033,,,,,,,2021-07-27,1,,,,,パステル,0
765,3170001016686,新規,0,2021-07-27,2021-07-27,栗山林業株式会社,,株式会社,和歌山県,田辺市,本宮町本宮６９１番地の１,,30,206,6471731,,,,,,,2021-07-27,1,,,,,クリヤマリンギョウ,0
775,3180001147068,新規,0,2021-07-27,2021-07-27,Ｐ　ＢＲＩＤＧＥ　ＷＯＲＫＳ株式会社,,株式会社,愛知県,名古屋市中区,千代田３丁目２２番１７号（一光ハイツ記念橋３０１号）,,23,106,4600012,,,,,,,2021-07-27,1,,,,,ピーブリッジワークス,0
776,3180001147076,新規,0,2021-07-27,2021-07-27,株式会社はしづめ財務コンサルタンツ,,株式会社,愛知県,名古屋市中村区,大日町１４番７号,,23,105,4530034,,,,,,,2021-07-27,1,,,,,ハシヅメザイムコンサルタンツ,0
777,3180001147101,新規,0,2021-07-27,2021-07-27,株式会社イーライフクリエイト,,株式会社,愛知県,名古屋市昭和区,鶴羽町３丁目２１番地の１０,,23,107,4660011,,,,,,,2021-07-27,1,,,,,イーライフクリエイト,0
785,3190001028531,新規,0,2021-07-27,2021-07-27,ＭＡＮＡＸ株式会社,,株式会社,三重県,多気郡多気町,ヴィソン６７２番１,,24,441,5192170,,,,,,,2021-07-27,1,,,,,マネクス,0
788,3190003003730,新規,0,2021-07-27,2021-07-27,合同会社福龍,,合同会社,三重県,員弁郡東員町,大字穴太２２８５番地１,,24,324,5110243,,,,,,,2021-07-27,1,,,,,フクリュウ,0
790,3200001038925,新規,0,2021-07-27,2021-07-27,株式会社塗装の日成,,株式会社,岐阜県,可児市,土田２５１６番地１グリーンキャッスル１－１,,21,214,5090206,,,,,,,2021-07-27,1,,,,,トソウノニッセイ,0
791,3200001038933,新規,0,2021-07-27,2021-07-27,株式会社ＥＣＯ商事,,株式会社,岐阜県,本巣市,軽海字五反田９７２番地１,,21,218,5010465,,,,,,,2021-07-27,1,,,,,エコショウジ,0
801,3250001019020,新規,0,2021-07-27,2021-07-27,Ｂｏｙｓ，ｂｅ　ａｍｂｉｔｉｏｕｓ株式会社,,株式会社,山口県,周南市,青山町５番１９号,,35,215,7450842,,,,,,,2021-07-27,1,,,,,ボーイズビーアンビシャス,0
805,3260005010940,新規,0,2021-07-27,2021-07-27,ＪｏｂＭａｔｃｈｉｎｇＳｕｐｐｏｒｔ協同組合,,その他の設立登記法人,岡山県,岡山市北区,今２丁目２番地１７号,,33,101,7000975,,,,,,,2021-07-27,1,,,,,ジョブマッチングサポート,0
806,3280001008482,新規,0,2021-07-27,2021-07-27,いずも縁結び電力株式会社,,株式会社,島根県,出雲市,塩冶神前２丁目８番地１６号,,32,203,6930024,,,,,,,2021-07-27,1,,,,,イズモエンムスビデンリョク,0
812,3290001093994,新規,0,2021-07-27,2021-07-27,株式会社三井菓子研究所,,株式会社,福岡県,三井郡大刀洗町,大字菅野６３３番地１,,40,503,8301202,,,,,,,2021-07-27,1,,,,,ミイカシケンキュウショ,0
813,3290001094002,新規,0,2021-07-27,2021-07-27,Ｈｏｏｐ株式会社,,株式会社,福岡県,福岡市早良区,飯倉２丁目１８番２１号,,40,137,8140161,,,,,,,2021-07-27,1,,,,,フープ,0
817,3290801027656,新規,0,2021-07-27,2021-07-27,スピード株式会社,,株式会社,福岡県,北九州市小倉南区,田原新町１丁目１３番２号,,40,107,8000226,,,,,,,2021-07-27,1,,,,,スピード,0
825,3320001018502,新規,0,2021-07-27,2021-07-27,株式会社萬吉,,株式会社,大分県,別府市,浜脇２丁目２番３号,,44,202,8740947,,,,,,,2021-07-27,1,,,,,マンキチ,0
831,3330003008987,新規,0,2021-07-27,2021-07-27,ＩＤＸ合同会社,,合同会社,熊本県,熊本市南区,城南町千町１６２８－２３Ｆ,,43,104,8614235,,,,,,,2021-07-27,1,,,,,イズミデジタルトランスフォーメーション,0
832,3330005010371,新規,0,2021-07-27,2021-07-27,一般社団法人Ｖｉｓｉｏｎ　Ｓｕｐｐｏｒｔ　Ｌａｂ．,,その他の設立登記法人,熊本県,熊本市中央区,国府１丁目１８番３９－１号,,43,101,8620949,,,,,,,2021-07-27,1,,,,,ビジョンサポートラボ,0
834,3340001023962,新規,0,2021-07-27,2021-07-27,株式会社ＭＡＲＵＴＡ,,株式会社,鹿児島県,姶良市,池島町２７－３８,,46,225,8995653,,,,,,,2021-07-27,1,,,,,マルタ,0
835,3350001017212,新規,0,2021-07-27,2021-07-27,株式会社大久保ファーム,,株式会社,宮崎県,宮崎市,清武町今泉甲２６４９番地１,,45,201,8891602,,,,,,,2021-07-27,1,,,,,オオクボファーム,0
836,3350001017220,新規,0,2021-07-27,2021-07-27,株式会社ＫＡＯＲＵ　ＢＩＲＤ,,株式会社,宮崎県,西都市,大字上三財２９０２番,,45,208,8810115,,,,,,,2021-07-27,1,,,,,カオルバード,0
838,3360001029140,新規,0,2021-07-27,2021-07-27,宇那志看板店株式会社,,株式会社,沖縄県,糸満市,字糸満１５２番地,,47,210,9010361,,,,,,,2021-07-27,1,,,,,ウナシカンバンテン,0
839,3360005006474,新規,0,2021-07-27,2021-07-27,観音寺,,その他の設立登記法人,沖縄県,沖縄市,上地４丁目１０２４番２,,47,211,9040031,,,,,,,2021-07-27,1,,,,,カンノンジ,0
842,3370003005320,新規,0,2021-07-27,2021-07-27,合同会社ニシムラ,,合同会社,宮城県,石巻市,中里５丁目２－６－３０１,,04,202,9860815,,,,,,,2021-07-27,1,,,,,ニシムラ,0
854,3400001015532,新規,0,2021-07-27,2021-07-27,盛源中古農機株式会社,,株式会社,岩手県,八幡平市,大更第３５地割６３番地２４,,03,214,0287111,,,,,,,2021-07-27,1,,,,,モリゲンチュウコノウキ,0
859,3430001084665,新規,0,2021-07-27,2021-07-27,株式会社にこＲＩＳＥ,,株式会社,北海道,札幌市白石区,東札幌二条５丁目２番２２号,,01,104,0030002,,,,,,,2021-07-27,1,,,,,ニコライズ,0
871,3470001018628,新規,0,2021-07-27,2021-07-27,株式会社Ｈ＆Ｓ,,株式会社,香川県,高松市,多賀町２丁目１７番１３号,,37,201,7600063,,,,,,,2021-07-27,1,,,,,エイチアンドエス,0
893,4010001219907,新規,0,2021-07-27,2021-07-27,山ノ手テクニック株式会社,,株式会社,東京都,中央区,銀座１丁目２２番１１号銀座大竹ビジデンス２階,,13,102,1040061,,,,,,,2021-07-27,1,,,,,ヤマノテテクニック,0
894,4010001219948,新規,0,2021-07-27,2021-07-27,Ｆｏｏｄ　Ｃｏｒｅ株式会社,,株式会社,東京都,中央区,銀座１丁目２２番１１号銀座大竹ビジデンス２階,,13,102,1040061,,,,,,,2021-07-27,1,,,,,フードコア,0
895,4010001219989,新規,0,2021-07-27,2021-07-27,株式会社ＹＡＭＡＮ,,株式会社,東京都,千代田区,五番町１２番地ドミール五番町２－５５号,,13,101,1020076,,,,,,,2021-07-27,1,,,,,ヤマン,0
899,4010003035360,新規,0,2021-07-27,2021-07-27,合同会社世界の架け橋,,合同会社,東京都,中央区,銀座６丁目１３番１６号銀座ＷａｌｌビルＵＣＦ５０１,,13,102,1040061,,,,,,,2021-07-27,1,,,,,セカイノカケハシ,0
900,4010003035369,新規,0,2021-07-27,2021-07-27,ＡＮＳＣＨＵＴＺ　ＥＮＴＥＲＴＡＩＮＭＥＮＴ　ＡＥＧ　ＪＡＰＡＮ合同会社,,合同会社,東京都,千代田区,永田町２丁目１１番１号山王パークタワー３階,,13,101,1000014,,,,,,,2021-07-27,1,,,,,アンシュッツエンターテイメントエーイージージャパン,0
901,4010003035402,新規,0,2021-07-27,2021-07-27,合同会社スミテラス,,合同会社,東京都,文京区,湯島２丁目１５－１ライオンズシティ御茶ノ水１３０１号,,13,105,1130034,,,,,,,2021-07-27,1,,,,,スミテラス,0
902,4010003035410,新規,0,2021-07-27,2021-07-27,鯉沼コンサルタンツ合同会社,,合同会社,東京都,千代田区,平河町１丁目３番６号,,13,101,1020093,,,,,,,2021-07-27,1,,,,,コイヌマコンサルタンツ,0
904,4010105002119,新規,0,2021-07-27,2021-07-27,一般財団法人ノルディック・ウォーク連絡協議会,,その他の設立登記法人,東京都,八王子市,元八王子町３丁目２７５０－７６２,,13,201,1930826,,,,,,,2021-07-27,1,,,,,ノルディックウォークレンラクキョウギカイ,0
917,4010601059703,新規,0,2021-07-27,2021-07-27,株式会社シャイニングイノベーション,,株式会社,東京都,江東区,清澄２丁目１２番１８号,,13,108,1350024,,,,,,,2021-07-27,1,,,,,シャイニングイノベーション,0
922,4010803003830,新規,0,2021-07-27,2021-07-27,スタイルフリー合同会社,,合同会社,東京都,大田区,蒲田３丁目１８番５ザ・レジデンス蒲田アイリスコート２０６号,,13,111,1440052,,,,,,,2021-07-27,1,,,,,スタイルフリー,0
930,4011001141902,新規,0,2021-07-27,2021-07-27,ＡＧＥ　ＨＤ．株式会社,,株式会社,東京都,渋谷区,宇田川町１番１２－３２１０号,,13,113,1500042,,,,,,,2021-07-27,1,,,,,エイジホールディングス,0
931,4011001141919,新規,0,2021-07-27,2021-07-27,ＹＫ　ＰＲＯＤＵＣＥ株式会社,,株式会社,東京都,渋谷区,恵比寿西１丁目２０番６号９０２,,13,113,1500021,,,,,,,2021-07-27,1,,,,,ワイケープロデュース,0
932,4011003013100,新規,0,2021-07-27,2021-07-27,モノアトーキョー合同会社,,合同会社,東京都,渋谷区,神宮前６丁目２３番４号桑野ビル２階,,13,113,1500001,,,,,,,2021-07-27,1,,,,,モノアトーキョー,0
935,4011101095809,新規,0,2021-07-27,2021-07-27,盈宇株式会社,,株式会社,東京都,新宿区,西落合２丁目２２番１５号,,13,104,1610031,,,,,,,2021-07-27,1,,,,,ミタスウ,0
942,4011801039494,新規,0,2021-07-27,2021-07-27,株式会社ナイスガイ,,株式会社,東京都,足立区,西新井本町１丁目２２番３号,,13,121,1230845,,,,,,,2021-07-27,1,,,,,ナイスガイ,0
948,4012401038135,新規,0,2021-07-27,2021-07-27,株式会社Ｃｏｕｃｈ　Ｐｏｔａｔｏ,,株式会社,東京都,府中市,本町２丁目３１－１３東急府中ビレジⅡ１０５,00123738,13,206,1830027,,,,,,,2021-07-27,1,,,,,カウチポテト,0
950,4012701016591,新規,0,2021-07-27,2021-07-27,遠洋株式会社,,株式会社,東京都,西東京市,向台町５丁目４番１－５１１号,,13,229,1880013,,,,,,,2021-07-27,1,,,,,エンヨウ,0
961,4020003020221,新規,0,2021-07-27,2021-07-27,合同会社ＭＭニュースセンター,,合同会社,神奈川県,横浜市南区,日枝町２丁目４６番地,,14,105,2320011,,,,,,,2021-07-27,1,,,,,エムエムニュースセンター,0
973,4040001119476,新規,0,2021-07-27,2021-07-27,株式会社萬海商事,,株式会社,千葉県,茂原市,御蔵芝１６１５番地１７,,12,210,2994102,,,,,,,2021-07-27,1,,,,,マンカイショウジ,0
974,4040001119492,新規,0,2021-07-27,2021-07-27,株式会社マティス,,株式会社,千葉県,成田市,中台４丁目１番地７２,,12,211,2860015,,,,,,,2021-07-27,1,,,,,マティス,0
975,4040001119501,新規,0,2021-07-27,2021-07-27,Ｎｅｗ　Ｈｏｒｓｅ株式会社,,株式会社,千葉県,船橋市,小室町３４７０番地６,,12,204,2701471,,,,,,,2021-07-27,1,,,,,ニューホース,0
980,4060001033931,新規,0,2021-07-27,2021-07-27,Ａｃｒｏｓｓｔｕｄｉｏ株式会社,,株式会社,栃木県,宇都宮市,下栗町２２７８番地７,,09,201,3210923,,,,,,,2021-07-27,1,,,,,,0
982,4070003004186,新規,0,2021-07-27,2021-07-27,合同会社山口事務所,,合同会社,群馬県,沼田市,上原町１８０１番地１９,,10,206,3780051,,,,,,,2021-07-27,1,,,,,ヤマグチジムショ,0
986,4080401025213,新規,0,2021-07-27,2021-07-27,ＳＴプロモーション株式会社,,株式会社,静岡県,浜松市中区,鍛冶町３２１番地の１６ミゾグチビル３階,,22,131,4300933,,,,,,,2021-07-27,1,,,,,エステイプロモーション,0
989,4100003006179,新規,0,2021-07-27,2021-07-27,合同会社ユウビイ長野製作所,,合同会社,長野県,佐久市,協和５２９３番地１,,20,217,3842204,,,,,,,2021-07-27,1,,,,,ユウビイナガノセイサクジョ,0
991,4110001035930,新規,0,2021-07-27,2021-07-27,ＵＬＴＳ　Ｇｌｏｂａｌ株式会社,,株式会社,新潟県,南魚沼市,浦佐１１８８番地２グローバルＩＴパーク,,15,226,9497302,,,,,,,2021-07-27,1,,,,,ユーエルティエスグローバル,0
999,4120001239209,新規,0,2021-07-27,2021-07-27,ブルーポプラ株式会社,,株式会社,大阪府,大阪市浪速区,敷津東２丁目１番２４－２３０９号,,27,111,5560012,,,,,,,2021-07-27,1,,,,,ブルーポプラ,0
1000,4120001239282,新規,0,2021-07-27,2021-07-27,ＳｙｎＣＨＲＯ株式会社,,株式会社,大阪府,大阪市北区,神山町６番４号ＡｘｉｓＵｍｅｄａＢｌｄ．８階,,27,127,5300026,,,,,,,2021-07-27,1,,,,,シンクロ,0
1001,4120001239316,新規,0,2021-07-27,2021-07-27,株式会社ＰＲＯＳＰＥＲ,,株式会社,大阪府,大阪市中央区,難波１丁目４番６号ミフネ難波ビル８０１号,,27,128,5420076,,,,,,,2021-07-27,1,,,,,プロスパー,0
1003,4120003019897,新規,0,2021-07-27,2021-07-27,合同会社ｍｅｄｅｔ,,合同会社,大阪府,大阪市住之江区,御崎７丁目１５－３,,27,125,5590013,,,,,,,2021-07-27,1,,,,,メデット,0
1008,4120103004270,新規,0,2021-07-27,2021-07-27,合同会社Ｃｏｍｐａｓｓ　Ｒｏｓｅ,,合同会社,大阪府,河内長野市,喜多町４９番地の１３,,27,216,5860033,,,,,,,2021-07-27,1,,,,,コンパスローズ,0
1009,4120903003760,新規,0,2021-07-27,2021-07-27,合同会社１４コンサルティングＬＬＣ,,合同会社,大阪府,豊中市,東寺内町１－１０－２２７クレヴィア緑地ザ・レジデンス,,27,203,5610871,,,,,,,2021-07-27,1,,,,,フォーティーンコンサルティングエルエルシー,0
1011,4122001035018,新規,0,2021-07-27,2021-07-27,株式会社ＬＧＳｆａｃｔｏｒｙ,,株式会社,大阪府,八尾市,萱振町４丁目２３番地の５,,27,212,5810834,,,,,,,2021-07-27,1,,,,,エルジーエスファクトリー,0
1023,4130003007372,新規,0,2021-07-27,2021-07-27,ＯｐｅｎＦｉｅｌｄ合同会社,,合同会社,京都府,京都市伏見区,横大路天王前５２番地１,,26,109,6128294,,,,,,,2021-07-27,1,,,,,オープンフィールド,0
1024,4130003007380,新規,0,2021-07-27,2021-07-27,合同会社Ｇｏ－Ｒａｎｇｅｒ,,合同会社,京都府,京都市西京区,御陵大枝山町５丁目２７－２４,,26,111,6101102,,,,,,,2021-07-27,1,,,,,ゴーレンジャー,0
1030,4140001122395,新規,0,2021-07-27,2021-07-27,日東インベストメント株式会社,,株式会社,兵庫県,姫路市,東山５２４番地,,28,201,6728014,,,,,,,2021-07-27,1,,,,,ニットウインベストメント,0
1031,4140001122412,新規,0,2021-07-27,2021-07-27,株式会社エムリンク,,株式会社,兵庫県,たつの市,龍野町北龍野２６１番地６,,28,229,6794171,,,,,,,2021-07-27,1,,,,,エムリンク,0
1032,4140001122420,新規,0,2021-07-27,2021-07-27,株式会社サンゴジェ,,株式会社,兵庫県,神戸市須磨区,戎町１丁目１番３号,,28,107,6540023,,,,,,,2021-07-27,1,,,,,サンゴジェ,0
1040,4160001023501,新規,0,2021-07-27,2021-07-27,ライパーセル株式会社,,株式会社,滋賀県,彦根市,後三条町２８８番地,,25,202,5220086,,,,,,,2021-07-27,1,,,,,ライパーセル,0
1043,4170001016693,新規,0,2021-07-27,2021-07-27,株式会社五秒後,,株式会社,和歌山県,海南市,冷水３５４,,30,202,6420035,,,,,,,2021-07-27,1,,,,,ゴビョウゴ,0
1061,4180001147067,新規,0,2021-07-27,2021-07-27,株式会社ｏｂｌｉｇｅ,,株式会社,愛知県,名古屋市中区,栄２丁目８番５号,,23,106,4600008,,,,,,,2021-07-27,1,,,,,オブリージュ,0
1062,4180001147100,新規,0,2021-07-27,2021-07-27,鳳強株式会社,,株式会社,愛知県,名古屋市中村区,松原町５丁目６６番４号,,23,105,4530021,,,,,,,2021-07-27,1,,,,,ホウキョウ,0
1070,4200001038924,新規,0,2021-07-27,2021-07-27,株式会社Ｋ＆Ｋ,,株式会社,岐阜県,瑞穂市,稲里８０７番地４,,21,216,5010224,,,,,,,2021-07-27,1,,,,,ケーアンドケー,0
1078,4240001058308,新規,0,2021-07-27,2021-07-27,クリーンエネルギー株式会社,,株式会社,広島県,広島市中区,八丁堀１５－１０セントラルビル９階,,34,101,7300013,,,,,,,2021-07-27,1,,,,,クリーンエネルギー,0
1088,4250003002873,新規,0,2021-07-27,2021-07-27,合同会社サブプランニング,,合同会社,山口県,岩国市,通津３８８２番地４,,35,208,7400044,,,,,,,2021-07-27,1,,,,,サブプランニング,0
1104,4290001093886,新規,0,2021-07-27,2021-07-27,株式会社ＫＦＧＳ,,株式会社,福岡県,福津市,勝浦３８１番地の１,,40,224,8113521,,,,,,,2021-07-27,1,,,,,ケーエフジーエス,0
1106,4290003011441,新規,0,2021-07-27,2021-07-27,竹村企画合同会社,,合同会社,福岡県,春日市,春日原北町２丁目２０番地１７サンリヤン春日原北町２０２号,,40,218,8160802,,,,,,,2021-07-27,1,,,,,タケムラキカク,0
1113,4320001018501,新規,0,2021-07-27,2021-07-27,愛運株式会社,,株式会社,大分県,佐伯市,大字青山１６７９番地２,,44,205,8761513,,,,,,,2021-07-27,1,,,,,アウン,0
1120,4330003008986,新規,0,2021-07-27,2021-07-27,合同会社はね田,,合同会社,熊本県,熊本市東区,東本町１番地１０５,,43,102,8620902,,,,,,,2021-07-27,1,,,,,ハネダ,0
1124,4360001029148,新規,0,2021-07-27,2021-07-27,Ｇｌｏｂａｌ　Ｂｒｅｅｚｅ株式会社,,株式会社,沖縄県,うるま市,石川曙３丁目１２番１８号,,47,213,9041107,,,,,,,2021-07-27,1,,,,,グローバルブリーズ,0
1125,4360003011310,新規,0,2021-07-27,2021-07-27,合同会社秀,,合同会社,沖縄県,沖縄市,美原２丁目２４番２５号ラフィーネ美里１０１号室,,47,211,9042155,,,,,,,2021-07-27,1,,,,,ヒデ,0
1142,4430001084598,新規,0,2021-07-27,2021-07-27,株式会社ＭＯＲＥ,,株式会社,北海道,札幌市中央区,南一条西２３丁目１番８－１００１号,,01,101,0640801,,,,,,,2021-07-27,1,,,,,モア,0
1151,4470001018627,新規,0,2021-07-27,2021-07-27,株式会社ＡＳＡＩＴＯ,,株式会社,香川県,高松市,東ハゼ町９１７番地３－５０６,,37,201,7618054,,,,,,,2021-07-27,1,,,,,アサイト,0
1159,4500001023581,新規,0,2021-07-27,2021-07-27,株式会社クラシングＲ,,株式会社,愛媛県,新居浜市,庄内町１丁目２番１３号,,38,205,7920811,,,,,,,2021-07-27,1,,,,,クラシングアール,0
1160,4700150064836,新規,0,2021-07-27,2015-10-09,志布志市農業再生協議会,,その他,鹿児島県,志布志市,有明町野井倉１７５６,,46,221,8997402,,,,,,,2015-10-09,1,,,,,シブシシノウギヨウサイセイキヨウギカイ,0
1161,4700150104170,新規,0,2021-07-27,2021-07-27,末広町一丁目地区市街地再開発組合,,その他,大分県,大分市,府内町１丁目１番１５号府内センタービル４０１,,44,201,8700021,,,,,,,2021-07-27,1,,,,,スエヒロマチイツチヨウメチクシガイチサイカイハツクミアイ,0
1183,5010001219930,新規,0,2021-07-27,2021-07-27,株式会社Ｈ６Ａ,,株式会社,東京都,中央区,銀座８丁目５番１号プラザＧ８,,13,102,1040061,,,,,,,2021-07-27,1,,,,,エイチシックスエー,0
1184,5010001219947,新規,0,2021-07-27,2021-07-27,ＴＲエナジ－株式会社,,株式会社,東京都,千代田区,大手町２丁目２番１号,,13,101,1000004,,,,,,,2021-07-27,1,,,,,ティーアールエナジー,0
1188,5010005033683,新規,0,2021-07-27,2021-07-27,シーエムデベロップメント特定目的会社,,その他の設立登記法人,東京都,千代田区,神田神保町１丁目１１番地さくら綜合事務所内,,13,101,1010051,,,,,,,2021-07-27,1,,,,,シーエムデベロップメント,0
1189,5010101014785,新規,0,2021-07-27,2021-07-27,株式会社Ｆｏｒ　Ｌｉｇｈｔ,,株式会社,東京都,八王子市,椚田町５５７－１９－１０７,,13,201,1930942,,,,,,,2021-07-27,1,,,,,,0
1193,5010401161699,新規,0,2021-07-27,2021-07-27,ＮＥＲＡ株式会社,,株式会社,東京都,港区,南青山２丁目１５番６号ループ青山ビル２階,,13,103,1070062,,,,,,,2021-07-27,1,,,,,ネラ,0
1194,5010501047600,新規,0,2021-07-27,2021-07-27,株式会社アイビーコーポレーション,,株式会社,東京都,台東区,柳橋１丁目２９番７号,,13,106,1110052,,,,,,,2021-07-27,1,,,,,アイビーコーポレーション,0
1196,5010601059677,新規,0,2021-07-27,2021-07-27,株式会社小柳資材,,株式会社,東京都,江東区,枝川１丁目１番４－８０７号,,13,108,1350051,,,,,,,2021-07-27,1,,,,,コヤナギシザイ,0
1205,5011001141579,新規,0,2021-07-27,2021-07-27,株式会社ロックトゥーン,,株式会社,東京都,目黒区,青葉台１丁目３０番６号,,13,110,1530042,,,,,,,2021-07-27,1,,,,,ロックトゥーン,0
1206,5011001141901,新規,0,2021-07-27,2021-07-27,ＭＯＡＮＡ株式会社,,株式会社,東京都,渋谷区,千駄ヶ谷３丁目１５番１２号,,13,113,1510051,,,,,,,2021-07-27,1,,,,,モアナ,0
1207,5011003013124,新規,0,2021-07-27,2021-07-27,合同会社フォークラウド,,合同会社,東京都,渋谷区,桜丘町２３番１７号,,13,113,1500031,,,,,,,2021-07-27,1,,,,,フォークラウド,0
1208,5011101095816,新規,0,2021-07-27,2021-07-27,株式会社ポンヌ,,株式会社,東京都,新宿区,高田馬場１丁目２１番２１号フォレストメゾン諏訪１０３,,13,104,1690075,,,,,,,2021-07-27,1,,,,,ポンヌ,0
1227,5011701024579,新規,0,2021-07-27,2021-07-27,株式会社ライフプランマネージメント,,株式会社,東京都,江戸川区,篠崎町４丁目１１番５号,,13,123,1330061,,,,,,,2021-07-27,1,,,,,ライフプランマネージメント,0
1232,5013101008682,新規,0,2021-07-27,2021-07-27,ｒｈｃｐ株式会社,,株式会社,東京都,青梅市,住江町５１－１,,13,205,1980084,,,,,,,2021-07-27,1,,,,,アールエッチシーピー,0
1233,5013103001066,新規,0,2021-07-27,2021-07-27,友廷合同会社,,合同会社,東京都,福生市,大字福生字奈賀８８０番地２３,,13,218,1970011,,,,,,,2021-07-27,1,,,,,ユウテイ,0
1237,5013303005759,新規,0,2021-07-27,2021-07-27,ＬＯＴＵＳ合同会社,,合同会社,東京都,豊島区,長崎６丁目２８番１６号,,13,116,1710051,,,,,,,2021-07-27,1,,,,,ロータス,0
1239,5020001142330,新規,0,2021-07-27,2021-07-27,株式会社発電所,,株式会社,神奈川県,横浜市西区,宮ケ谷５７番地１,,14,103,2200006,,,,,,,2021-07-27,1,,,,,ハツデンショ,0
1252,5021001073490,新規,0,2021-07-27,2021-07-27,ｉ－Ｄｅｓｉｇｎ株式会社,,株式会社,神奈川県,秦野市,並木町５番６号,,14,211,2591317,,,,,,,2021-07-27,1,,,,,アイデザイン,0
1257,5030001143492,新規,0,2021-07-27,2021-07-27,株式会社佳成,,株式会社,埼玉県,川口市,大字芝５３４７番地の４３,,11,203,3330866,,,,,,,2021-07-27,1,,,,,ヨシナリ,0
1258,5030001143542,新規,0,2021-07-27,2021-07-27,パテント・オールライト株式会社,,株式会社,埼玉県,川口市,本町２丁目５番１５－８１３号,,11,203,3320012,,,,,,,2021-07-27,1,,,,,パテントオールライト,0
1268,5030003017678,新規,0,2021-07-27,2021-07-27,合同会社いなほ,,合同会社,埼玉県,熊谷市,肥塚４８１番地１,,11,202,3600015,,,,,,,2021-07-27,1,,,,,イナホ,0
1277,5040001119491,新規,0,2021-07-27,2021-07-27,株式会社若博コーポレーション,,株式会社,千葉県,長生郡長生村,一松丙１６４６－２,,12,423,2994325,,,,,,,2021-07-27,1,,,,,ワカヒロコーポレーション,0
1278,5040001119500,新規,0,2021-07-27,2021-07-27,奇跡の森Ｇｒｅｅｎ　ＰＬＡＮＥＴ株式会社,,株式会社,千葉県,八千代市,勝田台１丁目６－３０,,12,221,2760023,,,,,,,2021-07-27,1,,,,,キセキノモリグリーンプラネット,0
1279,5040001119509,新規,0,2021-07-27,2021-07-27,株式会社清水土木,,株式会社,千葉県,長生郡白子町,中里４４１２番地,,12,424,2994215,,,,,,,2021-07-27,1,,,,,シミズドボク,0
1288,5050003006002,新規,0,2021-07-27,2021-07-27,合同会社とみのはた,,合同会社,茨城県,鹿嶋市,大字宮中２３８２番１６,,08,222,3140031,,,,,,,2021-07-27,1,,,,,トミノハタ,0
1292,5060001033930,新規,0,2021-07-27,2021-07-27,株式会社とち姫,,株式会社,栃木県,矢板市,安沢１８０４,,09,211,3291572,,,,,,,2021-07-27,1,,,,,トチヒメ,0
1296,5080001024333,新規,0,2021-07-27,2021-07-27,株式会社芹澤電気工事,,株式会社,静岡県,静岡市葵区,瀬名３丁目４５番３５号,,22,101,4200911,,,,,,,2021-07-27,1,,,,,セリザワデンキコウジ,0
1297,5080001024341,新規,0,2021-07-27,2021-07-27,株式会社太平丸,,株式会社,静岡県,牧之原市,細江５７５８番地５,,22,226,4210421,,,,,,,2021-07-27,1,,,,,タイヘイマル,0
1302,5080401025212,新規,0,2021-07-27,2021-07-27,ワイコムワークス株式会社,,株式会社,静岡県,浜松市浜北区,豊保４４０番地の１,,22,136,4340017,,,,,,,2021-07-27,1,,,,,ワイコムワークス,0
1303,5090001017113,新規,0,2021-07-27,2021-07-27,シャインチェリー企画株式会社,,株式会社,山梨県,甲州市,塩山上塩後１２１１番地,,19,213,4040045,,,,,,,2021-07-27,1,,,,,シャインチェリー,0
1308,5090005007424,新規,0,2021-07-27,2021-07-27,一般社団法人山梨オーガニッククラブ,,その他の設立登記法人,山梨県,山梨市,正徳寺４９０番地,,19,205,4050032,,,,,,,2021-07-27,1,,,,,ヤマナシオーガニッククラブ,0
1325,5120001239190,新規,0,2021-07-27,2021-07-27,株式会社ノースフィールド,,株式会社,大阪府,大阪市東成区,深江北１丁目３番１号ＴＡＴロイヤルビル１階,,27,115,5370001,,,,,,,2021-07-27,1,,,,,ノースフィールド,0
1326,5120001239249,新規,0,2021-07-27,2021-07-27,株式会社ＯＣＳ,,株式会社,大阪府,大阪市西成区,千本中１丁目１５番２５号,,27,122,5570054,,,,,,,2021-07-27,1,,,,,オーシーエス,0
1327,5120001239281,新規,0,2021-07-27,2021-07-27,株式会社ホライゾンズ,,株式会社,大阪府,大阪市浪速区,難波中３丁目１４番１６号ＳＥＩＡＮビル２０２号室,,27,111,5560011,,,,,,,2021-07-27,1,,,,,ホライゾンズ,0
1328,5120001239372,新規,0,2021-07-27,2021-07-27,株式会社Ｅｘｃｅｌｌａｇｅ,,株式会社,大阪府,大阪市東淀川区,西淡路１丁目１番３５号,,27,114,5330031,,,,,,,2021-07-27,1,,,,,エクセレージ,0
1338,5120105009432,新規,0,2021-07-27,2021-07-27,特定非営利活動法人くじらのペンギンハウス,,その他の設立登記法人,大阪府,岸和田市,土生滝町２１８８番地神於山土地改良区内,,27,202,5960844,,,,,,,2021-07-27,1,,,,,クジラノペンギンハウス,0
1347,5120903003751,新規,0,2021-07-27,2021-07-27,合同会社Ｋ＆Ｔ　ＰＲＯＪＥＣＴ,,合同会社,大阪府,高槻市,富田町６丁目３０番１０号の２,,27,207,5690814,,,,,,,2021-07-27,1,,,,,ケーアンドティープロジェクト,0
1362,5130001069752,新規,0,2021-07-27,2021-07-27,株式会社ミュートス,,株式会社,京都府,京都市南区,久世上久世町５４２－３０７,,26,107,6018212,,,,,,,2021-07-27,1,,,,,ミュートス,0
1363,5130001069760,新規,0,2021-07-27,2021-07-27,株式会社Ｊ．М．Ｙライフコンサルタントコーポレーション,,株式会社,京都府,亀岡市,三宅町２丁目１３番１０号,,26,206,6210814,,,,,,,2021-07-27,1,,,,,ジェイエムワイライフコンサルタントコーポレーション,0
1364,5130001069769,新規,0,2021-07-27,2021-07-27,Ｙ・Ｓ株式会社,,株式会社,京都府,八幡市,八幡盛戸８１番地９,,26,210,6148042,,,,,,,2021-07-27,1,,,,,ワイエス,0
1365,5130001069785,新規,0,2021-07-27,2021-07-27,株式会社クリエイト,,株式会社,京都府,京都市北区,紫竹西高縄町７８番地２,,26,101,6038205,,,,,,,2021-07-27,1,,,,,クリエイト,0
1371,5150003002437,新規,0,2021-07-27,2021-07-27,合同会社易選流協会,,合同会社,奈良県,奈良市,学園大和町３丁目５番地,,29,201,6310041,,,,,,,2021-07-27,1,,,,,エキセンリュウキョウカイ,0
1378,5180001147074,新規,0,2021-07-27,2021-07-27,株式会社晃照,,株式会社,愛知県,名古屋市守山区,鳥羽見２丁目１８番１５号,,23,113,4630076,,,,,,,2021-07-27,1,,,,,コウショウ,0
1382,5180003022779,新規,0,2021-07-27,2021-07-27,合同会社ｂｅｌｌｓ,,合同会社,愛知県,海部郡大治町,大字西條字石間畑３８番地の１,,23,424,4901144,,,,,,,2021-07-27,1,,,,,ベルズ,0
1387,5190001028538,新規,0,2021-07-27,2021-07-27,株式会社Ｌ　ｃｈａｉｒｓ,,株式会社,三重県,松阪市,伊勢寺町３１２０番地１,,24,204,5150845,,,,,,,2021-07-27,1,,,,,エルチェア,0
1391,5200001038915,新規,0,2021-07-27,2021-07-27,ＭＯＯＮ　ＴＲＡＤＩＮＧ株式会社,,株式会社,岐阜県,安八郡輪之内町,福束新田１６６番地の１の３,,21,382,5030211,,,,,,,2021-07-27,1,,,,,ムーントレーディング,0
1392,5200001038923,新規,0,2021-07-27,2021-07-27,株式会社プラウドワン,,株式会社,岐阜県,瑞浪市,釜戸町１８５８番地の５４７,,21,208,5096472,,,,,,,2021-07-27,1,,,,,プラウドワン,0
1405,5250001019019,新規,0,2021-07-27,2021-07-27,株式会社ＳＧＹ,,株式会社,山口県,下関市,彦島西山町４丁目１２番３０号,,35,201,7500093,,,,,,,2021-07-27,1,,,,,エスジーワイ,0
1418,5290001093951,新規,0,2021-07-27,2021-07-27,Ｒａｉｎｂｏｗ　Ｍｅｔａｌ株式会社,,株式会社,福岡県,大野城市,中１丁目２１番１９号,,40,219,8160906,,,,,,,2021-07-27,1,,,,,レインボーメタル,0
1419,5290001093992,新規,0,2021-07-27,2021-07-27,株式会社光栄,,株式会社,福岡県,大野城市,月の浦１丁目３番１７号,,40,219,8160983,,,,,,,2021-07-27,1,,,,,コウエイ,0
1420,5290001094017,新規,0,2021-07-27,2021-07-27,株式会社エフ・フロンティア,,株式会社,福岡県,福岡市早良区,昭代３丁目１０番１－１０８号,,40,137,8140012,,,,,,,2021-07-27,1,,,,,エフフロンティア,0
1421,5290003011449,新規,0,2021-07-27,2021-07-27,合同会社ＧＯＬＦ　ＭＯＮＫＥＹ,,合同会社,福岡県,福岡市南区,井尻３丁目２０番２号－１００５,,40,134,8111302,,,,,,,2021-07-27,1,,,,,ゴルフモンキー,0
1436,5340001023960,新規,0,2021-07-27,2021-07-27,株式会社ＦＯＲＵＭ,,株式会社,鹿児島県,鹿児島市,東佐多町２６０２番地４,,46,201,8911302,,,,,,,2021-07-27,1,,,,,フォルム,0
1438,5340005009320,新規,0,2021-07-27,2021-07-27,一般社団法人はやお,,その他の設立登記法人,鹿児島県,鹿児島市,鴨池１丁目３０番１７号,,46,201,8900063,,,,,,,2021-07-27,1,,,,,ハヤオ,0
1439,5350001017219,新規,0,2021-07-27,2021-07-27,ガーデンズ４株式会社,,株式会社,宮崎県,宮崎市,清武町木原５３４５番地１,,45,201,8891601,,,,,,,2021-07-27,1,,,,,ガーデンズフォー,0
1440,5360003011326,新規,0,2021-07-27,2021-07-27,合同会社ことほぎ,,合同会社,沖縄県,那覇市,若狭１丁目９番２号,,47,201,9000031,,,,,,,2021-07-27,1,,,,,コトホギ,0
1467,5430001084614,新規,0,2021-07-27,2021-07-27,株式会社北奏,,株式会社,北海道,札幌市北区,西茨戸二条１丁目８番２号,,01,102,0028032,,,,,,,2021-07-27,1,,,,,ホクソウ,0
1476,5460305001964,新規,0,2021-07-27,2021-07-27,一般社団法人ラブアバ,,その他の設立登記法人,北海道,網走市,南八条西３丁目１番地の１２,,01,211,0930018,,,,,,,2021-07-27,1,,,,,ラブアバ,0
1477,5470001018626,新規,0,2021-07-27,2021-07-27,株式会社つばめ屋,,株式会社,香川県,小豆郡小豆島町,西村乙１６９４番地７３,,37,324,7614434,,,,,,,2021-07-27,1,,,,,ツバメヤ,0
1481,5500001023580,新規,0,2021-07-27,2021-07-27,株式会社さかいし,,株式会社,愛媛県,新居浜市,中須賀町２丁目３番７号,,38,205,7920012,,,,,,,2021-07-27,1,,,,,サカイシ,0
1482,5700150104062,新規,0,2021-07-27,2021-07-09,新潟市青果商業小売組合,,その他,新潟県,新潟市江南区,茗荷谷７１１,,15,104,9500114,,,,,,,2021-07-09,1,,,,,ニイガタシセイカシヨウギヨウコウリクミアイ,0
1493,6010001219847,新規,0,2021-07-27,2021-07-27,プロレクト株式会社,,株式会社,東京都,千代田区,九段南１丁目５番６号りそな九段ビル５階ＫＳフロア,,13,101,1020074,,,,,,,2021-07-27,1,,,,,プロレクト,0
1494,6010001219913,新規,0,2021-07-27,2021-07-27,株式会社ドリームホースクラブ,,株式会社,東京都,千代田区,平河町１丁目６番１５号ＵＳビル８Ｆ,,13,101,1020093,,,,,,,2021-07-27,1,,,,,ドリームホースクラブ,0
1495,6010001219946,新規,0,2021-07-27,2021-07-27,株式会社コンパスラボ,,株式会社,東京都,千代田区,九段南１丁目５番６号りそな九段ビル５Ｆ,,13,101,1020074,,,,,,,2021-07-27,1,,,,,コンパスラボ,0
1496,6010001220004,新規,0,2021-07-27,2021-07-27,株式会社マレセット,,株式会社,東京都,中央区,日本橋小伝馬町１番１号,,13,102,1030001,,,,,,,2021-07-27,1,,,,,マレセット,0
1498,6010003035391,新規,0,2021-07-27,2021-07-27,エンライト合同会社,,合同会社,東京都,千代田区,九段南１丁目５番６号りそな九段ビル５階ＫＳフロア,,13,101,1020074,,,,,,,2021-07-27,1,,,,,エンライト,0
1499,6010003035400,新規,0,2021-07-27,2021-07-27,ムーン・エム・エル合同会社,,合同会社,東京都,千代田区,丸の内３丁目１番１号東京共同会計事務所内,,13,101,1000005,,,,,,,2021-07-27,1,,,,,ムーンエムエル,0
1500,6010003035409,新規,0,2021-07-27,2021-07-27,ＷＩＮＥＸ合同会社,,合同会社,東京都,中央区,勝どき５丁目３番１―４０７号,,13,102,1040054,,,,,,,2021-07-27,1,,,,,ウィネックス,0
1501,6010005033542,新規,0,2021-07-27,2021-07-27,一般社団法人国際セルフウェイトボディメイク協会,,その他の設立登記法人,東京都,中央区,銀座１丁目２２番１１号銀座大竹ビジデンス２階,,13,102,1040061,,,,,,,2021-07-27,1,,,,,コクサイセルフウェイトボディメイクキョウカイ,0
1502,6010005033682,新規,0,2021-07-27,2021-07-27,サンライズ京阪奈特定目的会社,,その他の設立登記法人,東京都,千代田区,神田神保町１丁目１１番地さくら綜合事務所内,,13,101,1010051,,,,,,,2021-07-27,1,,,,,サンライズケイハンナ,0
1513,6010405020041,新規,0,2021-07-27,2021-07-27,麻布台プロパティ特定目的会社,,その他の設立登記法人,東京都,港区,西新橋１丁目２２番５号６階,,13,103,1050003,,,,,,,2021-07-27,1,,,,,アザブダイプロパティ,0
1514,6010501047599,新規,0,2021-07-27,2021-07-27,株式会社ＳＡＮＵ　Ｏｕｒｙｏ－ｃｈｉ,,株式会社,東京都,台東区,蔵前２丁目１４番１３号,,13,106,1110051,,,,,,,2021-07-27,1,,,,,サヌオウリョウチ,0
1517,6010503006322,新規,0,2021-07-27,2021-07-27,合同会社ＥＣＬＡＴ,,合同会社,東京都,台東区,台東３丁目１３－４ササモトビル１Ｆ,,13,106,1100016,,,,,,,2021-07-27,1,,,,,エクラ,0
1522,6010701041278,新規,0,2021-07-27,2021-07-27,城南フーズ株式会社,,株式会社,東京都,品川区,西五反田１丁目３０番７号,,13,109,1410031,,,,,,,2021-07-27,1,,,,,ジョウナンフーズ,0
1537,6011001141909,新規,0,2021-07-27,2021-07-27,株式会社シエナ,,株式会社,東京都,渋谷区,渋谷３丁目６番２号エクラート渋谷８Ｆ,,13,113,1500002,,,,,,,2021-07-27,1,,,,,シエナ,0
1538,6011001141933,新規,0,2021-07-27,2021-07-27,株式会社ＣＨＯＴＯＴＵ,,株式会社,東京都,渋谷区,幡ヶ谷３丁目３９番１２号渋谷ウェストビル１階,,13,113,1510072,,,,,,,2021-07-27,1,,,,,チョトツ,0
1552,6011403003392,新規,0,2021-07-27,2021-07-27,フューチャーメディケーション合同会社,,合同会社,東京都,板橋区,東新町１丁目２０番２,,13,119,1740074,,,,,,,2021-07-27,1,,,,,フューチャーメディケーション,0
1555,6011603003358,新規,0,2021-07-27,2021-07-27,合同会社ＳＴＬ,,合同会社,東京都,練馬区,中村北４丁目８番３０号,,13,120,1760023,,,,,,,2021-07-27,1,,,,,エスティーエル,0
1556,6011701024578,新規,0,2021-07-27,2021-07-27,株式会社Ｉｎｆｉｎｉｔｅ　Ｗｉｓｄｏｍ,,株式会社,東京都,江戸川区,江戸川１丁目１７番１号,,13,123,1320013,,,,,,,2021-07-27,1,,,,,インフィニットウィズダム,0
1558,6011801039492,新規,0,2021-07-27,2021-07-27,株式会社クリエイティブ・ホーム,,株式会社,東京都,足立区,千住河原町９番１０号,,13,121,1200037,,,,,,,2021-07-27,1,,,,,クリエイティブホーム,0
1559,6011803004718,新規,0,2021-07-27,2021-07-27,合同会社Ｂｅｃｋｙ,,合同会社,東京都,足立区,舎人５丁目１１番１７号中村マンション１Ａ号室,,13,121,1210831,,,,,,,2021-07-27,1,,,,,ベッキー,0
1560,6012303001569,新規,0,2021-07-27,2021-07-27,合同会社市野測建,,合同会社,東京都,町田市,本町田２９４６番地１０,,13,209,1940032,,,,,,,2021-07-27,1,,,,,イチノソッケン,0
1562,6012403004959,新規,0,2021-07-27,2021-07-27,合同会社中之中,,合同会社,東京都,府中市,本町２丁目３１番地１３東急府中ビレジⅡ１０５,00123742,13,206,1830027,,,,,,,2021-07-27,1,,,,,ナカノナカ,0
1573,6020005015143,新規,0,2021-07-27,2021-07-27,一般社団法人新日本調理師会,,その他の設立登記法人,神奈川県,横浜市神奈川区,栄町８８番地１,,14,102,2210052,,,,,,,2021-07-27,1,,,,,シンニホンチョウリシカイ,0
1586,6030001143269,新規,0,2021-07-27,2021-07-27,光輝株式会社,,株式会社,埼玉県,さいたま市南区,大字太田窪２３４８－２３,,11,108,3360015,,,,,,,2021-07-27,1,,,,,,0
1587,6030001143491,新規,0,2021-07-27,2021-07-27,Ｂｒｉｇｈｔｎｅｓｓ株式会社,,株式会社,埼玉県,上尾市,大字大谷本郷６２番地１,,11,219,3620044,,,,,,,2021-07-27,1,,,,,ブライトネス,0
1593,6040001119458,新規,0,2021-07-27,2021-07-27,株式会社ＹＤＫリノベーション,,株式会社,千葉県,野田市,木間ケ瀬２４５７番地６７,,12,208,2700222,,,,,,,2021-07-27,1,,,,,ワイディケイリノベーション,0
1598,6040003018204,新規,0,2021-07-27,2021-07-27,合同会社Ｔ５,,合同会社,千葉県,市川市,南行徳３丁目１番６号,,12,203,2720138,,,,,,,2021-07-27,1,,,,,ティーファイブ,0
1599,6040003018212,新規,0,2021-07-27,2021-07-27,Ｄ＆Ｅ合同会社,,合同会社,千葉県,浦安市,富士見４丁目５番２５号,,12,227,2790043,,,,,,,2021-07-27,1,,,,,ディーアンドイー,0
1612,6070001038300,新規,0,2021-07-27,2021-07-27,株式会社ＫＵＫＵＮＡ　ＤＯＧ,,株式会社,群馬県,伊勢崎市,田中島町１４６０番地１７,,10,204,3720802,,,,,,,2021-07-27,1,,,,,ククナドッグ,0
1616,6070003004184,新規,0,2021-07-27,2021-07-27,小島電子デザイン合同会社,,合同会社,群馬県,伊勢崎市,安堀町１２４９番地１,,10,204,3720007,,,,,,,2021-07-27,1,,,,,コジマデンシデザイン,0
1619,6080001024324,新規,0,2021-07-27,2021-07-27,株式会社Ｋｏｋａｒａｓｕ,,株式会社,静岡県,静岡市葵区,吉野町４－７,,22,101,4200046,,,,,,,2021-07-27,1,,,,,コカラス,0
1621,6080105006160,新規,0,2021-07-27,2021-07-27,一般社団法人Ｏｔｏｎｏｈａ,,その他の設立登記法人,静岡県,富士宮市,中央町１２番９号,,22,207,4180065,,,,,,,2021-07-27,1,,,,,オトノハ,0
1623,6080401025211,新規,0,2021-07-27,2021-07-27,ｒ．ｅ．ｂｌｕｅ株式会社,,株式会社,静岡県,浜松市中区,佐鳴台５丁目２３番１５号,,22,131,4328021,,,,,,,2021-07-27,1,,,,,アールイーブルー,0
1624,6090005007423,新規,0,2021-07-27,2021-07-27,特定非営利活動法人ＰＯＮＴＥ,,その他の設立登記法人,山梨県,甲府市,古府中町１０９３‐１,,19,201,4000014,,,,,,,2021-07-27,1,,,,,ポンテ,0
1626,6100001034469,新規,0,2021-07-27,2021-07-27,株式会社青木塗装サービス,,株式会社,長野県,長野市,川中島町今井５番地３,,20,201,3812226,,,,,,,2021-07-27,1,,,,,アオキトソウサービス,0
1632,6110001035937,新規,0,2021-07-27,2021-07-27,株式会社ティ・ケイ・サポート,,株式会社,新潟県,新潟市中央区,西堀通６番町８８４番地,,15,103,9518061,,,,,,,2021-07-27,1,,,,,ティケイサポート,0
1641,6120001239256,新規,0,2021-07-27,2021-07-27,株式会社セントラルブルー,,株式会社,大阪府,大阪市北区,天神橋３丁目１－２８第３グランドビル３０１,,27,127,5300041,,,,,,,2021-07-27,1,,,,,セントラルブルー,0
1642,6120001239272,新規,0,2021-07-27,2021-07-27,株式会社ｉｗａｍｉｙａ,,株式会社,大阪府,大阪市中央区,谷町５丁目６－３ニュー谷町ビル３階,,27,128,5400012,,,,,,,2021-07-27,1,,,,,イワミヤ,0
1643,6120001239314,新規,0,2021-07-27,2021-07-27,株式会社クオリアフィールド,,株式会社,大阪府,守口市,大日町４丁目４８－７－１１０号,,27,209,5700003,,,,,,,2021-07-27,1,,,,,クオリアフィールド,0
1649,6120003019895,新規,0,2021-07-27,2021-07-27,合同会社ライト,,合同会社,大阪府,大阪市住之江区,安立２丁目３番地１５号,,27,125,5590003,,,,,,,2021-07-27,1,,,,,ライト,0
1652,6120101064042,新規,0,2021-07-27,2021-07-27,株式会社フラワー,,株式会社,大阪府,堺市堺区,向陵西町４丁１０番８－２０２号,,27,141,5900026,,,,,,,2021-07-27,1,,,,,フラワー,0
1655,6120103004269,新規,0,2021-07-27,2021-07-27,合同会社スミレオート,,合同会社,大阪府,堺市南区,小代１８６,,27,145,5900151,,,,,,,2021-07-27,1,,,,,スミレオート,0
1656,6120105009431,新規,0,2021-07-27,2021-07-27,特定非営利活動法人ユグドラシル,,その他の設立登記法人,大阪府,和泉市,上町６７４番地の１,,27,219,5940002,,,,,,,2021-07-27,1,,,,,ユグドラシル,0
1660,6120901044672,新規,0,2021-07-27,2021-07-27,株式会社総防,,株式会社,大阪府,茨木市,新郡山２丁目８番３０８号,,27,211,5670074,,,,,,,2021-07-27,1,,,,,ソウボウ,0
1668,6130001069768,新規,0,2021-07-27,2021-07-27,株式会社エス．シード,,株式会社,京都府,京都市左京区,田中大堰町１８９番地,,26,103,6068202,,,,,,,2021-07-27,1,,,,,エスシード,0
1669,6130001069792,新規,0,2021-07-27,2021-07-27,株式会社ＹＡＳＵＤＡ,,株式会社,京都府,京都市伏見区,向島庚申町７７番地１,,26,109,6128122,,,,,,,2021-07-27,1,,,,,ヤスダ,0
1671,6130003007379,新規,0,2021-07-27,2021-07-27,ＴＨカンパニー合同会社,,合同会社,京都府,京都市右京区,西院南寿町１９番地プラネスーペリア京都西院６０５,,26,108,6150048,,,,,,,2021-07-27,1,,,,,ティエイチカンパニー,0
1682,6150003002436,新規,0,2021-07-27,2021-07-27,合同会社ＮＡＢＹ　ＯＲＧＡＮ,,合同会社,奈良県,天理市,柳本町１１４７番地６,,29,204,6320052,,,,,,,2021-07-27,1,,,,,ネイビーオルガン,0
1684,6160001023508,新規,0,2021-07-27,2021-07-27,株式会社ＫＣ管理,,株式会社,滋賀県,大津市,唐崎２丁目１４番１８号,,25,201,5200106,,,,,,,2021-07-27,1,,,,,ケーシーカンリ,0
1685,6160001023516,新規,0,2021-07-27,2021-07-27,株式会社ｃｈｏｃｏｌａ,,株式会社,滋賀県,大津市,茶戸町１４番２０号,,25,201,5200066,,,,,,,2021-07-27,1,,,,,ショコラ,0
1697,6180001147065,新規,0,2021-07-27,2021-07-27,銘昇貿易株式会社,,株式会社,愛知県,名古屋市北区,平安１丁目９－１８第２アイオーキャッスル１Ｆ,,23,103,4620819,,,,,,,2021-07-27,1,,,,,メイショウボウエキ,0
1698,6180001147073,新規,0,2021-07-27,2021-07-27,株式会社オピックスホールディングス,,株式会社,愛知県,名古屋市東区,葵１丁目２６番１２号,,23,102,4610004,,,,,,,2021-07-27,1,,,,,オピックスホールディングス,0
1702,6180003022778,新規,0,2021-07-27,2021-07-27,ＨＡ　ＱＵＡＮ合同会社,,合同会社,愛知県,大府市,大東一丁目７２４番地大東ビル２階西号,,23,223,4740000,,,,,,,2021-07-27,1,,,,,ハクアン,0
1706,6200001038930,新規,0,2021-07-27,2021-07-27,和輝工業株式会社,,株式会社,岐阜県,可児市,中恵土２１０８番地２,,21,214,5090202,,,,,,,2021-07-27,1,,,,,カズキコウギョウ,0
1716,6240001011322,新規,0,2021-07-27,2021-07-27,三川運輸株式会社,,株式会社,広島県,広島市安佐北区,安佐町大字久地字名原２６８３番地１５１,,34,106,7313362,,,,,,,2021-07-27,1,,,,,ミカワウンユ,0
1723,6240003005207,新規,0,2021-07-27,2021-07-27,ＴＯＭＡＲＩＧＩ合同会社,,合同会社,広島県,広島市安佐南区,祇園３丁目７番２１号,,34,105,7310138,,,,,,,2021-07-27,1,,,,,トマリギ,0
1732,6250005008677,新規,0,2021-07-27,2021-07-27,無限責任下八道負債整理組合,,その他の設立登記法人,山口県,下関市,豊田町大字八道１０６０番地,,35,201,7500414,,,,,,,2021-07-27,1,,,,,,0
1734,6260003003638,新規,0,2021-07-27,2021-07-27,苺不動産合同会社,,合同会社,岡山県,岡山市北区,中井町１丁目５番地１９ＴＥＲＲＡＨＯＭＥ中井町１Ｆ,,33,101,7000804,,,,,,,2021-07-27,1,,,,,イチゴフドウサン,0
1738,6290001094008,新規,0,2021-07-27,2021-07-27,株式会社ＣｒｙｓｔａｌＳｋｙ,,株式会社,福岡県,福岡市西区,横浜３丁目１２番４号,,40,135,8190366,,,,,,,2021-07-27,1,,,,,クリスタルスカイ,0
1739,6290001094016,新規,0,2021-07-27,2021-07-27,株式会社Ｃｏｒｓｅ,,株式会社,福岡県,福岡市中央区,今泉１丁目９－２７エステートモア天神１３０１,,40,133,8100021,,,,,,,2021-07-27,1,,,,,コルス,0
1742,6300005007021,新規,0,2021-07-27,2021-07-27,一般社団法人ふるさと相続さが,,その他の設立登記法人,佐賀県,唐津市,栄町２５６９番地１６あおば司法書士事務所内,,41,202,8470011,,,,,,,2021-07-27,1,,,,,フルサトソウゾクサガ,0
1748,6320001018508,新規,0,2021-07-27,2021-07-27,株式会社ゴシテック,,株式会社,大分県,大分市,大字葛木４１４番地の１シバタハイム１０３,,44,201,8700133,,,,,,,2021-07-27,1,,,,,ゴシテック,0
1757,6360003011325,新規,0,2021-07-27,2021-07-27,ＣＥＳ関西１太陽光発電所合同会社,,合同会社,沖縄県,那覇市,松尾１丁目１０番２４号ホークシティ那覇ビル１階,,47,201,9000014,,,,,,,2021-07-27,1,,,,,シーイーエスカンサイワンタイヨウコウハツデンショ,0
1763,6370001047386,新規,0,2021-07-27,2021-07-27,株式会社ライフワークス,,株式会社,宮城県,仙台市青葉区,下愛子字観音４０番地の８エスポワールコマツ弐番館１０２,,04,101,9893125,,,,,,,2021-07-27,1,,,,,ライフワークス,0
1764,6370003005318,新規,0,2021-07-27,2021-07-27,ＥＭＭＡ合同会社,,合同会社,宮城県,仙台市青葉区,落合３丁目１５番２５号ノワ・ルーナ１０２,,04,101,9893126,,,,,,,2021-07-27,1,,,,,イーエムエムエー,0
1785,6410003003556,新規,0,2021-07-27,2021-07-27,合同会社アトリア,,合同会社,秋田県,由利本荘市,石脇字中浜２３－３６,,05,210,0150011,,,,,,,2021-07-27,1,,,,,アトリア,0
1796,6430001084613,新規,0,2021-07-27,2021-07-27,株式会社ビルドワン,,株式会社,北海道,札幌市豊平区,水車町６丁目１番２５号,,01,105,0620912,,,,,,,2021-07-27,1,,,,,ビルドワン,0
1797,6430002050077,新規,0,2021-07-27,2021-07-27,有限会社空知エステート,,有限会社,北海道,美唄市,西三条北６丁目６番１号,,01,215,0720032,,,,,,,2021-07-27,1,,,,,ソラチエステート,0
1802,6430003012984,新規,0,2021-07-27,2021-07-27,合同会社ケンテックス,,合同会社,北海道,札幌市西区,発寒六条９丁目１３番１１号,,01,107,0630826,,,,,,,2021-07-27,1,,,,,ケンテックス,0
1807,6460001005574,新規,0,2021-07-27,2021-07-27,双葉建設株式会社,,株式会社,北海道,釧路市,春採４丁目１１番４号,,01,206,0850813,,,,,,,2021-07-27,1,,,,,フタバケンセツ,0
1808,6460005001545,新規,0,2021-07-27,2021-07-27,一般社団法人太陽とひまわり,,その他の設立登記法人,北海道,釧路市,芦野２丁目１８番８号,00123740,01,206,0850061,,,,,,,2021-07-27,1,,,,,タイヨウトヒマワリ,0
1809,6460101007033,新規,0,2021-07-27,2021-07-27,株式会社ＳＨ,,株式会社,北海道,河東郡音更町,十勝川温泉北１５丁目１番地,,01,631,0800262,,,,,,,2021-07-27,1,,,,,エスエイチ,0
1816,6700150104053,新規,0,2021-07-27,2021-07-09,三重県超音波研究会,,その他,三重県,津市,江戸橋２丁目１７４,,24,201,5140001,,,,,,,2021-07-09,1,,,,,ミエケンチヨウオンパケンキユウカイ,0
1817,6700150104169,新規,0,2021-07-27,2021-07-27,Ｄｒｏｐｂｏｘ　Ｉｎｔｅｒｎａｔｉｏｎａｌ　Ｕｎｌｔｄ　Ｃｏ,,外国会社等,,,,,,,,Ｏｎｅ　Ｐａｒｋ　Ｐｌａｃｅ　Ｈａｔｃｈ　Ｓｔｒｅｅｔ　Ｕｐｐｅｒ　Ｄｕｂｌｉｎ　２，Ｉｒｅｌａｎｄ,,,,,,2021-07-27,1,,,,,ドロツプボツクスインターナシヨナルアンリミテツド,0
1825,7010001219895,新規,0,2021-07-27,2021-07-27,株式会社よりそいファースト,,株式会社,東京都,千代田区,大手町１丁目９番５号大手町フィナンシャルシティノースタワー,,13,101,1000004,,,,,,,2021-07-27,1,,,,,ヨリソイファースト,0
1826,7010001219912,新規,0,2021-07-27,2021-07-27,株式会社タウラス,,株式会社,東京都,千代田区,平河町１丁目６番１５号ＵＳビル８Ｆ,,13,101,1020093,,,,,,,2021-07-27,1,,,,,タウラス,0
1827,7010003035366,新規,0,2021-07-27,2021-07-27,須玉バイオマス合同会社,,合同会社,東京都,千代田区,神田小川町３丁目７番５号,,13,101,1010052,,,,,,,2021-07-27,1,,,,,スダマバイオマス,0
1828,7010003035390,新規,0,2021-07-27,2021-07-27,合同会社ＥＧソーラーパーク,,合同会社,東京都,千代田区,一ツ橋２丁目６番３号アクシスインベストメントアドバイザーズ株式会社内,,13,101,1010003,,,,,,,2021-07-27,1,,,,,イージーソーラーパーク,0
1829,7010003035399,新規,0,2021-07-27,2021-07-27,ムーン・ホールディング合同会社,,合同会社,東京都,千代田区,丸の内３丁目１番１号東京共同会計事務所内,,13,101,1000005,,,,,,,2021-07-27,1,,,,,ムーンホールディング,0
1830,7010003035408,新規,0,2021-07-27,2021-07-27,日光Ｐｌｕｓ１９ホールディング合同会社,,合同会社,東京都,千代田区,丸の内３丁目１番１号東京共同会計事務所内,,13,101,1000005,,,,,,,2021-07-27,1,,,,,ニッコウプラスナインティーンホールディング,0
1831,7010005033665,新規,0,2021-07-27,2021-07-27,弁護士法人レックス法律事務所,,その他の設立登記法人,東京都,千代田区,麹町４丁目３番２９号ＶＯＲＴ紀尾井坂６階,,13,101,1020083,,,,,,,2021-07-27,1,,,,,レックスホウリツジムショ,0
1832,7010005033681,新規,0,2021-07-27,2021-07-27,サンライズ印西フォー特定目的会社,,その他の設立登記法人,東京都,千代田区,神田神保町１丁目１１番地さくら綜合事務所内,,13,101,1010051,,,,,,,2021-07-27,1,,,,,サンライズインザイフォー,0
1842,7010701041293,新規,0,2021-07-27,2021-07-27,株式会社サケストーリー,,株式会社,東京都,品川区,西五反田２丁目１７－８浅見ビル２階,,13,109,1410031,,,,,,,2021-07-27,1,,,,,サケストーリー,0
1865,7011101095814,新規,0,2021-07-27,2021-07-27,株式会社ダイレクト,,株式会社,東京都,新宿区,新宿７丁目２７番４－６０５号,,13,104,1600022,,,,,,,2021-07-27,1,,,,,ダイレクト,0
1874,7011601025279,新規,0,2021-07-27,2021-07-27,株式会社ＦＵＭＴＯＳ,,株式会社,東京都,練馬区,関町北２丁目３２番３号パティーナ武蔵関４０３,,13,120,1770051,,,,,,,2021-07-27,1,,,,,フントス,0
1876,7011701024569,新規,0,2021-07-27,2021-07-27,株式会社アクシス,,株式会社,東京都,江戸川区,北葛西５丁目１２番１８－２０２号,,13,123,1340081,,,,,,,2021-07-27,1,,,,,アクシス,0
1882,7011803004717,新規,0,2021-07-27,2021-07-27,合同会社ユニクリ,,合同会社,東京都,葛飾区,奥戸６丁目１７－６コンフォート２０１,,13,122,1240022,,,,,,,2021-07-27,1,,,,,ユニクリ,0
1883,7012301012641,新規,0,2021-07-27,2021-07-27,株式会社長谷部,,株式会社,東京都,町田市,森野１丁目１番２１号レーベン町田ＦＲＯＮＴＴＥＲＲＡＣＥ４０４,,13,209,1940022,,,,,,,2021-07-27,1,,,,,ハセベ,0
1885,7012403004958,新規,0,2021-07-27,2021-07-27,ＳＴ　ＦＵＮＤ合同会社,,合同会社,東京都,三鷹市,中原４丁目２２番９号２Ｆ,,13,204,1810005,,,,,,,2021-07-27,1,,,,,エスティーファンド,0
1903,7020001142345,新規,0,2021-07-27,2021-07-27,株式会社トライズム,,株式会社,神奈川県,横浜市中区,かもめ町３１番地,,14,104,2310813,,,,,,,2021-07-27,1,,,,,トライズム,0
1908,7020003020235,新規,0,2021-07-27,2021-07-27,合同会社ＲＡＴＣＨＥＴ,,合同会社,神奈川県,横浜市神奈川区,栄町５－１横浜クリエーションスクエア１４Ｆ,,14,102,2210052,,,,,,,2021-07-27,1,,,,,ラチェット,0
1923,7040001119481,新規,0,2021-07-27,2021-07-27,グランシャリオ株式会社,,株式会社,千葉県,船橋市,馬込町１０２１番地１パールメゾン馬込２０３号,,12,204,2730851,,,,,,,2021-07-27,1,,,,,グランシャリオ,0
1924,7040001119498,新規,0,2021-07-27,2021-07-27,株式会社エムアンドケイ,,株式会社,千葉県,千葉市花見川区,朝日ケ丘３丁目１５番２９号,,12,102,2620019,,,,,,,2021-07-27,1,,,,,エムアンドケイ,0
1925,7040001119507,新規,0,2021-07-27,2021-07-27,株式会社ベースオン,,株式会社,千葉県,八千代市,島田台１２５０番地４,,12,221,2760004,,,,,,,2021-07-27,1,,,,,ベースオン,0
1926,7040001119515,新規,0,2021-07-27,2021-07-27,株式会社Ｓｅｅｄ,,株式会社,千葉県,千葉市美浜区,高洲２丁目１番３棟５１０号,,12,106,2610004,,,,,,,2021-07-27,1,,,,,シード,0
1929,7040003018211,新規,0,2021-07-27,2021-07-27,合同会社ＣＭＭ４号,,合同会社,千葉県,柏市,柏４丁目５番１０号,,12,217,2770005,,,,,,,2021-07-27,1,,,,,シーエムエムヨンゴウ,0
1930,7040003018228,新規,0,2021-07-27,2021-07-27,合同会社ＬＵＪＩＭＡ,,合同会社,千葉県,船橋市,本郷町５９３番地５Ｔガーデン本郷Ⅰ－３０１号,00123744,12,204,2730033,,,,,,,2021-07-27,1,,,,,ルジマ,0
1935,7050001049595,新規,0,2021-07-27,2021-07-27,株式会社トライブ,,株式会社,茨城県,那珂市,津田２６５８番地５,,08,226,3110112,,,,,,,2021-07-27,1,,,,,トライブ,0
1943,7070001038299,新規,0,2021-07-27,2021-07-27,株式会社ＲＥ．ＣＩＰＥ　ｄｅ　ＨＯＭＥ,,株式会社,群馬県,太田市,飯田町５３８番地岡部ビル２階西,,10,205,3730851,,,,,,,2021-07-27,1,,,,,レシピデホーム,0
1944,7070003004183,新規,0,2021-07-27,2021-07-27,Ｓｅｖｅｎ　Ｃｏｌｏｒｓ合同会社,,合同会社,群馬県,前橋市,堀越町８０４番地９,,10,201,3710231,,,,,,,2021-07-27,1,,,,,セブンカラーズ,0
1945,7070005009882,新規,0,2021-07-27,2021-07-27,一般社団法人あったらいいなをカタチに,,その他の設立登記法人,群馬県,前橋市,鼻毛石町１９９６番地１２,,10,201,3710244,,,,,,,2021-07-27,1,,,,,アッタライイナヲカタチニ,0
1950,7090003001914,新規,0,2021-07-27,2021-07-27,合同会社チューヤン,,合同会社,山梨県,甲府市,古関町２２１７番地,,19,201,4093712,,,,,,,2021-07-27,1,,,,,チューヤン,0
1951,7090005007422,新規,0,2021-07-27,2021-07-27,特定非営利活動法人医師につながる救急医療相談,,その他の設立登記法人,山梨県,甲府市,屋形３丁目９番１２号,,19,201,4000017,,,,,,,2021-07-27,1,,,,,イシニツナガルキュウキュウイリョウダン,0
1954,7110001035936,新規,0,2021-07-27,2021-07-27,株式会社ミナタカ,,株式会社,新潟県,新潟市西区,五十嵐２の町７５８８番地２５,,15,107,9502102,,,,,,,2021-07-27,1,,,,,ミナタカ,0
1971,7120001239214,新規,0,2021-07-27,2021-07-27,株式会社ＲＹＯＷＳ,,株式会社,大阪府,大阪市北区,梅田１丁目１１番４号大阪駅前第４ビル９階９２３－１５８８号,,27,127,5300001,,,,,,,2021-07-27,1,,,,,リョウズ,0
1972,7120001239263,新規,0,2021-07-27,2021-07-27,株式会社エステートネクスト,,株式会社,大阪府,大阪市西区,立売堀１丁目６－１３南本町天祥ビル２号館５０６,,27,106,5500012,,,,,,,2021-07-27,1,,,,,エステートネクスト,0
1973,7120001239288,新規,0,2021-07-27,2021-07-27,株式会社カキモト,,株式会社,大阪府,寝屋川市,出雲町１８番１号,,27,215,5720821,,,,,,,2021-07-27,1,,,,,カキモト,0
1974,7120001239296,新規,0,2021-07-27,2021-07-27,株式会社Ｂｅｅｓ,,株式会社,大阪府,大阪市北区,西天満５丁目１６番１５号エフワンビル,,27,127,5300047,,,,,,,2021-07-27,1,,,,,ビーズ,0
1975,7120001239321,新規,0,2021-07-27,2021-07-27,株式会社グレイス,,株式会社,大阪府,枚方市,楠葉花園町５番,,27,210,5731121,,,,,,,2021-07-27,1,,,,,グレイス,0
1988,7120003019878,新規,0,2021-07-27,2021-07-27,寄心合同会社,,合同会社,大阪府,大阪市阿倍野区,昭和町２丁目２番２号昭和町コージービル２Ｆ,,27,119,5450011,,,,,,,2021-07-27,1,,,,,キシン,0
1997,7120101064033,新規,0,2021-07-27,2021-07-27,株式会社黒木建設,,株式会社,大阪府,高石市,千代田５丁目３番２５号,,27,225,5920005,,,,,,,2021-07-27,1,,,,,クロキケンセツ,0
1999,7120103004268,新規,0,2021-07-27,2021-07-27,合同会社スリーエイチクリエイト,,合同会社,大阪府,和泉市,はつが野５丁目２２－９,,27,219,5941106,,,,,,,2021-07-27,1,,,,,スリーエイチクリエイト,0
2001,7120901044655,新規,0,2021-07-27,2021-07-27,株式会社シンアイテック,,株式会社,大阪府,豊中市,北条町４丁目５番２０号,,27,203,5610812,,,,,,,2021-07-27,1,,,,,シンアイテック,0
2002,7120903003758,新規,0,2021-07-27,2021-07-27,未来アクト合同会社,,合同会社,大阪府,茨木市,桑田町１９番７号,,27,211,5670841,,,,,,,2021-07-27,1,,,,,ミライアクト,0
2007,7122001035023,新規,0,2021-07-27,2021-07-27,株式会社ＳＡＮＳＡＩ,,株式会社,大阪府,東大阪市,柏田東町３番３１号,,27,227,5770833,,,,,,,2021-07-27,1,,,,,サンサイ,0
2014,7130001069759,新規,0,2021-07-27,2021-07-27,株式会社山田畳店,,株式会社,京都府,京都市上京区,御前通下立売上る天満屋町３１６,,26,102,6028355,,,,,,,2021-07-27,1,,,,,ヤマダタタミテン,0
2015,7130001069767,新規,0,2021-07-27,2021-07-27,株式会社侍遊,,株式会社,京都府,京都市山科区,御陵安祥寺町３－１０,,26,110,6078407,,,,,,,2021-07-27,1,,,,,ジユウ,0
2017,7130003007361,新規,0,2021-07-27,2021-07-27,合同会社ＳｔｅｐＯｕｔ,,合同会社,京都府,綾部市,神宮寺町重代３,,26,203,6230026,,,,,,,2021-07-27,1,,,,,ステップアウト,0
2018,7130003007378,新規,0,2021-07-27,2021-07-27,合同会社あかちゃんと一緒にせかいをつくる,,合同会社,京都府,京都市山科区,西野山階町４３番地４,,26,110,6078346,,,,,,,2021-07-27,1,,,,,アカチャントイッショニセカイヲツクル,0
2019,7130003007386,新規,0,2021-07-27,2021-07-27,合同会社ＵＭＡアカデミア,,合同会社,京都府,京都市山科区,音羽千本町７番地３６,,26,110,6078071,,,,,,,2021-07-27,1,,,,,ユーエムエーアカデミア,0
2021,7140001122368,新規,0,2021-07-27,2021-07-27,ワンダブルオー株式会社,,株式会社,兵庫県,神戸市中央区,海岸通３丁目１番５号,,28,110,6500024,,,,,,,2021-07-27,1,,,,,ワンダブルオー,0
2022,7140001122418,新規,0,2021-07-27,2021-07-27,株式会社ｔｔｐカンパニー,,株式会社,兵庫県,川西市,加茂２丁目１３番４号,,28,217,6660025,,,,,,,2021-07-27,1,,,,,ティーティーピーカンパニー,0
2024,7150003002435,新規,0,2021-07-27,2021-07-27,合同会社２１０クラフト,,合同会社,奈良県,生駒市,小明町１０６０番地１４,,29,209,6300201,,,,,,,2021-07-27,1,,,,,ツーテンクラフト,0
2028,7160001023507,新規,0,2021-07-27,2021-07-27,株式会社アールズ,,株式会社,滋賀県,長浜市,内保町１３８番地２,,25,203,5260244,,,,,,,2021-07-27,1,,,,,アールズ,0
2030,7170001016690,新規,0,2021-07-27,2021-07-27,株式会社Ｎ企画,,株式会社,和歌山県,和歌山市,内原１００８番地１９,,30,201,6410013,,,,,,,2021-07-27,1,,,,,エヌキカク,0
2039,7180001147064,新規,0,2021-07-27,2021-07-27,株式会社Ｍ＆Ｙ,,株式会社,愛知県,名古屋市昭和区,南山町２番地の５,,23,107,4660835,,,,,,,2021-07-27,1,,,,,エムアンドワイ,0
2045,7180301035191,新規,0,2021-07-27,2021-07-27,株式会社たかし組,,株式会社,愛知県,豊川市,金塚町２丁目５０番地２,,23,207,4420872,,,,,,,2021-07-27,1,,,,,タカシグミ,0
2050,7190003003727,新規,0,2021-07-27,2021-07-27,合同会社幸組,,合同会社,三重県,三重郡菰野町,大字小島４１７番地１６７,,24,341,5101323,,,,,,,2021-07-27,1,,,,,ユキグミ,0
2058,7240001058338,新規,0,2021-07-27,2021-07-27,株式会社ＢＲＥＤ,,株式会社,広島県,広島市安佐北区,口田４丁目２１番３号寺西第一ビル,,34,106,7391734,,,,,,,2021-07-27,1,,,,,ブレッド,0
2061,7250001019017,新規,0,2021-07-27,2021-07-27,株式会社ｓｅｖｅｎ,,株式会社,山口県,下関市,阿弥陀寺町７番２５－１３０２号,,35,201,7500003,,,,,,,2021-07-27,1,,,,,セブン,0
2064,7260001035789,新規,0,2021-07-27,2021-07-27,株式会社華コーポレーション,,株式会社,岡山県,倉敷市,吉岡２７９番地２,,33,202,7100842,,,,,,,2021-07-27,1,,,,,ハナコーポレーション,0
2069,7290001093982,新規,0,2021-07-27,2021-07-27,株式会社みゆきストロベリーファーム,,株式会社,福岡県,飯塚市,安恒４８６番地,,40,205,8200085,,,,,,,2021-07-27,1,,,,,ミユキストロベリーファーム,0
2070,7290001094007,新規,0,2021-07-27,2021-07-27,株式会社宇田川工業,,株式会社,福岡県,飯塚市,菰田西１丁目４－３２,,40,205,8200017,,,,,,,2021-07-27,1,,,,,ウタガワコウギョウ,0
2071,7290001094023,新規,0,2021-07-27,2021-07-27,株式会社松尾不動産,,株式会社,福岡県,福岡市南区,曰佐４丁目１２番８号,,40,134,8111313,,,,,,,2021-07-27,1,,,,,マツオフドウサン,0
2072,7290003011430,新規,0,2021-07-27,2021-07-27,合同会社Ｊ．ｃｒｏｓｍｙ,,合同会社,福岡県,福岡市早良区,東入部２丁目１９－６,,40,137,8111102,,,,,,,2021-07-27,1,,,,,ジェークロスミー,0
2073,7290003011455,新規,0,2021-07-27,2021-07-27,ＡｑｕａＮｅｘｕｓ合同会社,,合同会社,福岡県,筑紫野市,針摺東３丁目８－１－１５０８,,40,217,8180081,,,,,,,2021-07-27,1,,,,,アクアネクサス,0
2074,7290803003890,新規,0,2021-07-27,2021-07-27,福隆合同会社,,合同会社,福岡県,北九州市小倉北区,馬借２丁目１番２２－８０１号,,40,106,8020077,,,,,,,2021-07-27,1,,,,,フクリュウ,0
2086,7330001028827,新規,0,2021-07-27,2021-07-27,ＴＣＫホールディングス株式会社,,株式会社,熊本県,熊本市北区,武蔵ケ丘１丁目５番３５号,,43,105,8618001,,,,,,,2021-07-27,1,,,,,ティシーケイホールディングス,0
2087,7350001017217,新規,0,2021-07-27,2021-07-27,鶏串屋高砂株式会社,,株式会社,宮崎県,宮崎市,阿波岐原町火切塚１５６２番地,00123749,45,201,8800835,,,,,,,2021-07-27,1,,,,,トリクシヤタカサゴ,0
2088,7360001029137,新規,0,2021-07-27,2021-07-27,株式会社ＭＪカンパニー,,株式会社,沖縄県,宮古島市,平良字下里１２９番地,,47,214,9060013,,,,,,,2021-07-27,1,,,,,エムジェーカンパニー,0
2089,7360003011324,新規,0,2021-07-27,2021-07-27,ＣＥＳ中部太陽光発電所合同会社,,合同会社,沖縄県,那覇市,松尾１丁目１０番２４号ホークシティ那覇ビル１階,,47,201,9000014,,,,,,,2021-07-27,1,,,,,シーイーエスチュウブタイヨウコウハツデンショ,0
2112,7430001084612,新規,0,2021-07-27,2021-07-27,セントラルシステム株式会社,,株式会社,北海道,札幌市白石区,米里三条２丁目６番２５号,,01,104,0030873,,,,,,,2021-07-27,1,,,,,セントラルシステム,0
2121,7460103001388,新規,0,2021-07-27,2021-07-27,合同会社ＥＳＳＥＡＲＡ,,合同会社,北海道,帯広市,西四条南９丁目７番地ＴｈｅＴＯＷＥＲＯＢＩＨＩＲＯ３０９,,01,207,0800014,,,,,,,2021-07-27,1,,,,,エスシアラ,0
2127,7700150087999,新規,0,2021-07-27,2018-03-12,ＳＰＳＤ　Ｐｒｅｓｓ,,その他,石川県,金沢市,角間町金沢大学自然科学研究棟２Ｃ７１８,,17,201,9201164,,,,,,,2018-03-12,1,,,,,エスピーエスデイープレス,0
2128,7700150104011,新規,0,2021-07-27,2021-07-07,添田町活性化推進協議会,,その他,福岡県,田川郡添田町,大字庄１１９５－２,,40,602,8240601,,,,,,,2021-07-07,1,,,,,ソエダマチカツセイカスイシンキヨウギカイ,0
2134,8010001219845,新規,0,2021-07-27,2021-07-27,株式会社グーニーズ,,株式会社,東京都,中央区,晴海３丁目１３番２－２１０６号,,13,102,1040053,,,,,,,2021-07-27,1,,,,,グーニーズ,0
2135,8010001219853,新規,0,2021-07-27,2021-07-27,サビテックジャパン株式会社,,株式会社,東京都,千代田区,九段南１丁目５番６号りそな九段ビル５Ｆ、ＫＳフロア,,13,101,1020074,,,,,,,2021-07-27,1,,,,,サビテックジャパン,0
2136,8010001219903,新規,0,2021-07-27,2021-07-27,株式会社ミセル,,株式会社,東京都,千代田区,外神田１丁目３－１２－５０１,,13,101,1010021,,,,,,,2021-07-27,1,,,,,ミセル,0
2137,8010001219911,新規,0,2021-07-27,2021-07-27,名古屋ロイヤル株式会社,,株式会社,東京都,中央区,東日本橋２丁目２８番５号５０８,,13,102,1030004,,,,,,,2021-07-27,1,,,,,ナゴヤロイヤル,0
2138,8010001219944,新規,0,2021-07-27,2021-07-27,全共連第１回劣後ローン流動化株式会社,,株式会社,東京都,千代田区,丸の内３丁目１番１号東京共同会計事務所内,,13,101,1000005,,,,,,,2021-07-27,1,,,,,ゼンキョウレンダイイッカイレツゴローンリュウドウカ,0
2142,8010003035398,新規,0,2021-07-27,2021-07-27,合同会社ハウントワークス,,合同会社,東京都,中央区,銀座１丁目２２番１１号銀座大竹ビジデンス２階,,13,102,1040061,,,,,,,2021-07-27,1,,,,,ハウントワークス,0
2143,8010003035407,新規,0,2021-07-27,2021-07-27,シカゴプロパティー合同会社,,合同会社,東京都,千代田区,丸の内１丁目１１番１号,,13,101,1000005,,,,,,,2021-07-27,1,,,,,シカゴプロパティー,0
2150,8010401161746,新規,0,2021-07-27,2021-07-27,株式会社ＦＲＥＡｉｒ,,株式会社,東京都,港区,北青山２丁目７番１３号プラセオ青山ビル３階,,13,103,1070061,,,,,,,2021-07-27,1,,,,,フレエアー,0
2153,8010403025800,新規,0,2021-07-27,2021-07-27,南青山キャピタル１２号合同会社,,合同会社,東京都,港区,六本木４丁目１２番８号,,13,103,1060032,,,,,,,2021-07-27,1,,,,,ミナミアオヤマキャピタルジュウニゴウ,0
2164,8010601059699,新規,0,2021-07-27,2021-07-27,株式会社ＣＯＮＮＥＣＴ,,株式会社,東京都,江東区,東陽５丁目３番１号エスペランサ東陽５０２,,13,108,1350016,,,,,,,2021-07-27,1,,,,,コネクト,0
2165,8010601059708,新規,0,2021-07-27,2021-07-27,Ｐａｓｉｔｏ株式会社,,株式会社,東京都,江東区,枝川３丁目９番１０－１４１５号,,13,108,1350051,,,,,,,2021-07-27,1,,,,,パシト,0
2167,8010603009058,新規,0,2021-07-27,2021-07-27,合同会社ウェルネスハウス,,合同会社,東京都,江東区,冬木６番１５号プロスペア門前仲町第６－３０３,,13,108,1350041,,,,,,,2021-07-27,1,,,,,ウェルネスハウス,0
2170,8010801032175,新規,0,2021-07-27,2021-07-27,ソルテクニカ株式会社,,株式会社,東京都,大田区,田園調布１丁目３０番７－３０２号,,13,111,1450071,,,,,,,2021-07-27,1,,,,,ソルテクニカ,0
2178,8011001141931,新規,0,2021-07-27,2021-07-27,株式会社ＬＩＮＫ,,株式会社,東京都,渋谷区,千駄ヶ谷５丁目３３番１６号シャトレー新宿御苑７０１号室,,13,113,1510051,,,,,,,2021-07-27,1,,,,,リンク,0
2180,8011003013105,新規,0,2021-07-27,2021-07-27,合同会社Ｍｅｔｅｏｒｅ,,合同会社,東京都,渋谷区,恵比寿１丁目３０番１号,,13,113,1500013,,,,,,,2021-07-27,1,,,,,メテオール,0
2183,8011101095805,新規,0,2021-07-27,2021-07-27,株式会社Ｇ－ｇｅｎ,,株式会社,東京都,新宿区,揚場町１番２１号,,13,104,1620824,,,,,,,2021-07-27,1,,,,,ジージェン,0
2189,8011401023548,新規,0,2021-07-27,2021-07-27,株式会社ＡＴＯＺ,,株式会社,東京都,板橋区,双葉町２１番１５号,,13,119,1730011,,,,,,,2021-07-27,1,,,,,アットオズ,0
2191,8011501027168,新規,0,2021-07-27,2021-07-27,株式会社Ｎ．Ｄ．Ｐ,,株式会社,東京都,北区,赤羽２丁目２５番１号,,13,117,1150045,,,,,,,2021-07-27,1,,,,,エヌディーピー,0
2203,8011801039490,新規,0,2021-07-27,2021-07-27,株式会社あわや,,株式会社,東京都,足立区,六月２丁目５番１７号,,13,121,1210814,,,,,,,2021-07-27,1,,,,,アワヤ,0
2208,8012401038131,新規,0,2021-07-27,2021-07-27,株式会社晶瑩,,株式会社,東京都,武蔵野市,吉祥寺南町３丁目５番２０号ユニオンハウス１０１,,13,203,1800003,,,,,,,2021-07-27,1,,,,,ショウエイ,0
2209,8012403004957,新規,0,2021-07-27,2021-07-27,ＪＯＯＬ合同会社,,合同会社,東京都,調布市,上石原２丁目１８番地２１,,13,208,1820035,,,,,,,2021-07-27,1,,,,,ジュール,0
2212,8012801020969,新規,0,2021-07-27,2021-07-27,グリームビジネスコンサルティング株式会社,,株式会社,東京都,立川市,幸町２丁目２９番地の１１ＴＷＩＮＴＡＭＡＭ１０３号,,13,202,1900002,,,,,,,2021-07-27,1,,,,,グリームビジネスコンサルティング,0
2228,8020001142294,新規,0,2021-07-27,2021-07-27,株式会社Ｓｏｌａｒ　Ｃｒｅｗ,,株式会社,神奈川県,横浜市磯子区,中原４丁目１－３０,,14,107,2350036,,,,,,,2021-07-27,1,,,,,ソーラークルー,0
2233,8020003020234,新規,0,2021-07-27,2021-07-27,合同会社共華,,合同会社,神奈川県,川崎市中原区,小杉町３丁目１５０１番地６ケイジェイレジデンス武蔵小杉１１０２,,14,133,2110063,,,,,,,2021-07-27,1,,,,,トモハナ,0
2253,8030001143523,新規,0,2021-07-27,2021-07-27,株式会社エウリンク,,株式会社,埼玉県,さいたま市南区,辻７丁目７－２４－５,00123739,11,108,3360026,,,,,,,2021-07-27,1,,,,,,0
2259,8040001119489,新規,0,2021-07-27,2021-07-27,ＷＩＴＥＮ株式会社,,株式会社,千葉県,市川市,塩焼４丁目６番３０号（テラスエミネンス３号）,,12,203,2720114,,,,,,,2021-07-27,1,,,,,ウィテン,0
2260,8040001119514,新規,0,2021-07-27,2021-07-27,株式会社サロン,,株式会社,千葉県,鎌ケ谷市,新鎌ケ谷１丁目１８番１０ー２０１号,,12,224,2730107,,,,,,,2021-07-27,1,,,,,サロン,0
2263,8040003018210,新規,0,2021-07-27,2021-07-27,合同会社ＣＭＭ３号,,合同会社,千葉県,柏市,柏４丁目５番１０号,,12,217,2770005,,,,,,,2021-07-27,1,,,,,シーエムエムサンゴウ,0
2267,8040005021294,新規,0,2021-07-27,2021-07-27,一般社団法人房総里山伝統文化保存活用推進協会,,その他の設立登記法人,千葉県,夷隅郡大多喜町,泉水１３５番地,,12,441,2980207,,,,,,,2021-07-27,1,,,,,ボウソウサトヤマデントウブンカホゾンカツヨウスイシンキョウカイ,0
2271,8060001033928,新規,0,2021-07-27,2021-07-27,株式会社鍛冶忠勝,,株式会社,栃木県,佐野市,大橋町１６６８番地,,09,204,3270003,,,,,,,2021-07-27,1,,,,,カジタダカツ,0
2281,8090003001913,新規,0,2021-07-27,2021-07-27,Ａｍａｒｙｌｌｉｓ合同会社,,合同会社,山梨県,南アルプス市,加賀美１８３０,,19,208,4000335,,,,,,,2021-07-27,1,,,,,アマリリス,0
2285,8100001034467,新規,0,2021-07-27,2021-07-27,株式会社宝穂,,株式会社,長野県,中野市,大字田上１００番地,,20,211,3830002,,,,,,,2021-07-27,1,,,,,ホノホ,0
2291,8110001035935,新規,0,2021-07-27,2021-07-27,株式会社Ｏｆｆｉｃｅ　Ｂｏｋｕ,,株式会社,新潟県,新潟市東区,北葉町１１番７号,,15,102,9500055,,,,,,,2021-07-27,1,,,,,オフィスボク,0
2297,8120001239188,新規,0,2021-07-27,2021-07-27,株式会社井上電装,,株式会社,大阪府,大阪市大正区,泉尾３丁目７番８－１５０５号,,27,108,5510031,,,,,,,2021-07-27,1,,,,,イノウエデンソウ,0
2298,8120001239262,新規,0,2021-07-27,2021-07-27,微木旅投株式会社,,株式会社,大阪府,大阪市西成区,鶴見橋２丁目３番２２号,,27,122,5570031,,,,,,,2021-07-27,1,,,,,ビキリョトウ,0
2299,8120001239353,新規,0,2021-07-27,2021-07-27,錦上珠株式会社,,株式会社,大阪府,大阪市旭区,生江１丁目９番１３号,,27,117,5350004,,,,,,,2021-07-27,1,,,,,キンジョウシュ,0
2302,8120003019902,新規,0,2021-07-27,2021-07-27,ＪＹ合同会社,,合同会社,大阪府,大阪市中央区,高津１丁目９番１０,,27,128,5420072,,,,,,,2021-07-27,1,,,,,ジェイワイ,0
2311,8120101064032,新規,0,2021-07-27,2021-07-27,株式会社ＳＵＰＰＬＹＳ,,株式会社,大阪府,和泉市,箕形町５丁目２番２１号,,27,219,5940042,,,,,,,2021-07-27,1,,,,,サプリス,0
2312,8120901044679,新規,0,2021-07-27,2021-07-27,株式会社ＣＯＮＮＹ　ＨＡＬＦ,,株式会社,大阪府,摂津市,鶴野２丁目９－１９－４０２,,27,224,5660035,,,,,,,2021-07-27,1,,,,,コニーハーフ,0
2313,8120901044687,新規,0,2021-07-27,2021-07-27,株式会社ケイコーポレーション,,株式会社,大阪府,豊中市,緑丘１丁目１０番５号,,27,203,5600002,,,,,,,2021-07-27,1,,,,,ケイコーポレーション,0
2315,8120903003757,新規,0,2021-07-27,2021-07-27,Ｓｈａｒｅｄ　Ｃｈｉｌｄｒｅｎ合同会社,,合同会社,大阪府,豊中市,新千里西町２丁目７番５－４０３号,,27,203,5600083,,,,,,,2021-07-27,1,,,,,シェアドチルドレン,0
2317,8122003002144,新規,0,2021-07-27,2021-07-27,合同会社大野,,合同会社,大阪府,東大阪市,吉田２丁目７番１号,,27,227,5780924,,,,,,,2021-07-27,1,,,,,オオノ,0
2322,8130001069758,新規,0,2021-07-27,2021-07-27,ＮＫＫサービス株式会社,,株式会社,京都府,久世郡久御山町,林中垣内４－５,,26,322,6130033,,,,,,,2021-07-27,1,,,,,エヌケーケーサービス,0
2323,8130001069766,新規,0,2021-07-27,2021-07-27,株式会社ＫＥＮＳＨＩＲＯ,,株式会社,京都府,城陽市,久世下大谷２１番地の４１,,26,207,6100102,,,,,,,2021-07-27,1,,,,,ケンシロウ,0
2324,8130001069774,新規,0,2021-07-27,2021-07-27,株式会社ＢｏＣＳ,,株式会社,京都府,京都市上京区,宮垣町９１－１０２,,26,102,6020853,,,,,,,2021-07-27,1,,,,,ボックス,0
2325,8130001069782,新規,0,2021-07-27,2021-07-27,株式会社ＳＴＡＲＴＹ,,株式会社,京都府,京都市伏見区,桃山紅雪町５５番地,,26,109,6120835,,,,,,,2021-07-27,1,,,,,スターティー,0
2326,8130003007377,新規,0,2021-07-27,2021-07-27,合同会社ソーラーシステム,,合同会社,京都府,京都市伏見区,深草大亀谷安信町８１番地６,,26,109,6120836,,,,,,,2021-07-27,1,,,,,ソーラーシステム,0
2332,8140001122391,新規,0,2021-07-27,2021-07-27,株式会社ブルーストリングス,,株式会社,兵庫県,芦屋市,公光町４番２８号Ｂ－２,,28,206,6590065,,,,,,,2021-07-27,1,,,,,ブルーストリングス,0
2333,8140001122425,新規,0,2021-07-27,2021-07-27,株式会社ＡＡＡ,,株式会社,兵庫県,尼崎市,塚口本町３丁目１３番３８号,,28,202,6610001,,,,,,,2021-07-27,1,,,,,トリプルエー,0
2334,8140003016542,新規,0,2021-07-27,2021-07-27,合同会社ＯＨＡＮＡ,,合同会社,兵庫県,神戸市中央区,山本通４丁目２２番６－５０４号,,28,110,6500003,,,,,,,2021-07-27,1,,,,,オハナ,0
2340,8150003002442,新規,0,2021-07-27,2021-07-27,合同会社奈盧窯,,合同会社,奈良県,奈良市,南紀寺町３丁目３０４番地の２,,29,201,6308303,,,,,,,2021-07-27,1,,,,,ナルガマ,0
2341,8160001023489,新規,0,2021-07-27,2021-07-27,Ｆｉｎｅ　Ｓｅｌｌｅｒ’ｓ　Ｂｏｏｔｈ株式会社,,株式会社,滋賀県,長浜市,高月町保延寺６２２番地,,25,203,5290211,,,,,,,2021-07-27,1,,,,,ファインセラーズブース,0
2352,8180001147071,新規,0,2021-07-27,2021-07-27,株式会社Ｒ＆Ｋ,,株式会社,愛知県,名古屋市千種区,内山１丁目１番８号内山ビル５０２号,,23,101,4640075,,,,,,,2021-07-27,1,,,,,アールアンドケイ,0
2387,8290001093998,新規,0,2021-07-27,2021-07-27,ＬＩＧＨＴＵＰ株式会社,,株式会社,福岡県,福岡市中央区,大名２丁目６－１１ＦｕｋｕｏｋａＧｒｏｗｔｈＮｅｘｔ２Ｆ,,40,133,8100041,,,,,,,2021-07-27,1,,,,,ライトアップ,0
2393,8320001018506,新規,0,2021-07-27,2021-07-27,株式会社ＫＤ・サービス,,株式会社,大分県,大分市,上田町１丁目６番１号,,44,201,8700886,,,,,,,2021-07-27,1,,,,,ケーディーサービス,0
2401,8340001023958,新規,0,2021-07-27,2021-07-27,株式会社へ,,株式会社,鹿児島県,鹿児島市,船津町１番１１号３階,,46,201,8920831,,,,,,,2021-07-27,1,,,,,エ,0
2404,8360001029103,新規,0,2021-07-27,2021-07-27,株式会社明誠建設,,株式会社,沖縄県,うるま市,字田場１１０９番地９,,47,213,9042213,,,,,,,2021-07-27,1,,,,,メイセイケンセツ,0
2405,8360001029144,新規,0,2021-07-27,2021-07-27,株式会社ＣＭＢ,,株式会社,沖縄県,宮古島市,平良字西里３１１番地,,47,214,9060012,,,,,,,2021-07-27,1,,,,,シーエムビー,0
2429,8410005006415,新規,0,2021-07-27,2021-07-27,農事組合法人下藤根,,その他の設立登記法人,秋田県,横手市,平鹿町中吉田字下藤根西１６１番地,,05,203,0130106,,,,,,,2021-07-27,1,,,,,,0
2434,8420003002357,新規,0,2021-07-27,2021-07-27,ＨＫコンサルティング合同会社,,合同会社,青森県,青森市,緑２丁目７番地３,,02,201,0300845,,,,,,,2021-07-27,1,,,,,エイチケイコンサルティング,0
2435,8430001006747,新規,0,2021-07-27,2021-07-27,札銀ファイナンス株式会社,,株式会社,北海道,札幌市中央区,南四条西３丁目９番地,,01,101,0640804,,,,,,,2021-07-27,1,,,,,,0
2442,8470001018631,新規,0,2021-07-27,2021-07-27,株式会社日詰,,株式会社,香川県,高松市,番町５丁目６番３８－９０２号,,37,201,7600017,,,,,,,2021-07-27,1,,,,,ヒヅメ,0
2443,8470003001998,新規,0,2021-07-27,2021-07-27,合同会社東神エネルギー,,合同会社,香川県,さぬき市,鴨庄８８８番地６,,37,206,7692102,,,,,,,2021-07-27,1,,,,,トウシンエネルギー,0
2446,8500001023578,新規,0,2021-07-27,2021-07-27,株式会社Ｋ＆Ｒ,,株式会社,愛媛県,松山市,平井町３６６８番地の１,,38,201,7910243,,,,,,,2021-07-27,1,,,,,ケイアンドアール,0
2447,8500001023586,新規,0,2021-07-27,2021-07-27,黎明傳動機械株式会社,,株式会社,愛媛県,西条市,丹原町池田１２６１番地,,38,206,7910508,,,,,,,2021-07-27,1,,,,,レイメイデンドウキカイ,0
2450,8500003002670,新規,0,2021-07-27,2021-07-27,なかむら工業合同会社,,合同会社,愛媛県,喜多郡内子町,内子４２１９番地,,38,422,7913301,,,,,,,2021-07-27,1,,,,,ナカムラコウギョウ,0
2460,9010001219712,新規,0,2021-07-27,2021-07-27,株式会社ｓｐｅｒａｎｚａ,,株式会社,東京都,千代田区,外神田５丁目５番１５号横山ビル３Ｆ,,13,101,1010021,,,,,,,2021-07-27,1,,,,,スペランツァ,0
2461,9010001219778,新規,0,2021-07-27,2021-07-27,株式会社ＭＩＲＡＩ,,株式会社,東京都,千代田区,内神田１丁目１１番１０号,,13,101,1010047,,,,,,,2021-07-27,1,,,,,ミライ,0
2462,9010001219877,新規,0,2021-07-27,2021-07-27,株式会社Ｚ,,株式会社,東京都,中央区,銀座１丁目２２番１１号銀座大竹ビジデンス２階,,13,102,1040061,,,,,,,2021-07-27,1,,,,,ゼット,0
2463,9010001219935,新規,0,2021-07-27,2021-07-27,株式会社ドットミー,,株式会社,東京都,千代田区,大手町１丁目２番１号,,13,101,1000004,,,,,,,2021-07-27,1,,,,,ドットミー,0
2483,9010601059681,新規,0,2021-07-27,2021-07-27,株式会社Ｄペイメントソリューション,,株式会社,東京都,江東区,大島３丁目４番７号山口ビル３階,,13,108,1360072,,,,,,,2021-07-27,1,,,,,ディーペイメントソリューション,0
2484,9010601059698,新規,0,2021-07-27,2021-07-27,株式会社晴満,,株式会社,東京都,江東区,大島７丁目４１番８－３０３号,,13,108,1360072,,,,,,,2021-07-27,1,,,,,ハルマ,0
2487,9010603009057,新規,0,2021-07-27,2021-07-27,アーク合同会社,,合同会社,東京都,江東区,南砂１丁目５番３０－３０３,,13,108,1360076,,,,,,,2021-07-27,1,,,,,アーク,0
2488,9010603009065,新規,0,2021-07-27,2021-07-27,合同会社ドゥドゥ・オランジェ,,合同会社,東京都,江東区,豊洲２丁目５番１－１３１８号,,13,108,1350061,,,,,,,2021-07-27,1,,,,,ドゥドゥオランジェ,0
2489,9010705003239,新規,0,2021-07-27,2021-07-27,一般社団法人コロワくんサポーターズ,,その他の設立登記法人,東京都,品川区,東五反田２丁目１６番２－１００３号,,13,109,1410022,,,,,,,2021-07-27,1,,,,,コロワクンサポーターズ,0
2496,9010903006687,新規,0,2021-07-27,2021-07-27,Ｓｔｕｄｙｎｅｔ　Ｊａｐａｎ合同会社,,合同会社,東京都,世田谷区,北烏山６丁目１１番３－１００３号,,13,112,1570061,,,,,,,2021-07-27,1,,,,,スタディネットジャパン,0
2497,9011001141914,新規,0,2021-07-27,2021-07-27,株式会社あつまろ屋,,株式会社,東京都,目黒区,上目黒２丁目１６番１４号,,13,110,1530051,,,,,,,2021-07-27,1,,,,,アツマロヤ,0
2500,9011003013104,新規,0,2021-07-27,2021-07-27,合同会社シンケル,,合同会社,東京都,渋谷区,恵比寿２丁目２４－６－２０５,,13,113,1500013,,,,,,,2021-07-27,1,,,,,シンケル,0
2503,9011103010892,新規,0,2021-07-27,2021-07-27,合同会社ジーエス,,合同会社,東京都,新宿区,歌舞伎町２丁目３１番７号東京慶北ビル４Ｆ,,13,104,1600021,,,,,,,2021-07-27,1,,,,,ジーエス,0
2506,9011201023128,新規,0,2021-07-27,2021-07-27,株式会社Ａｑｕａ　Ｆｕｔｕｒｅ,,株式会社,東京都,中野区,中央２丁目３０－９,,13,114,1640011,,,,,,,2021-07-27,1,,,,,アクアフューチャー,0
2509,9011501027159,新規,0,2021-07-27,2021-07-27,株式会社Ｒｅ　ＣｈａＩｎｏｎ,,株式会社,東京都,北区,赤羽北１丁目１３番２１号,,13,117,1150052,,,,,,,2021-07-27,1,,,,,リシェノン,0
2519,9011701024575,新規,0,2021-07-27,2021-07-27,株式会社ＴＯＭＡＲＩＧＩ,,株式会社,東京都,江戸川区,上篠崎２丁目３－３,,13,123,1330054,,,,,,,2021-07-27,1,,,,,トマリギ,0
2521,9011801039498,新規,0,2021-07-27,2021-07-27,株式会社アオハル,,株式会社,東京都,足立区,江北７丁目７－２４,,13,121,1230872,,,,,,,2021-07-27,1,,,,,アオハル,0
2526,9012401038130,新規,0,2021-07-27,2021-07-27,株式会社ＲＡＩＬ,,株式会社,東京都,武蔵野市,吉祥寺本町２丁目８番４号ｉ－ｏｆｆｉｃｅ吉祥寺,,13,203,1800004,,,,,,,2021-07-27,1,,,,,レイル,0
2529,9012405004624,新規,0,2021-07-27,2021-07-27,特定非営利活動法人Ｆａｍｉｌｙ　Ｆｉｒｓｔ　Ｊａｐａｎ,,その他の設立登記法人,東京都,小金井市,本町５丁目８番７号,,13,210,1840004,,,,,,,2021-07-27,1,,,,,ファミリーファーストジャパン,0
2530,9012801020968,新規,0,2021-07-27,2021-07-27,ＮＩＡアニメーション株式会社,,株式会社,東京都,国分寺市,東元町３丁目４番１１号,,13,214,1850022,,,,,,,2021-07-27,1,,,,,ニアアニメーション,0
2545,9020003020209,新規,0,2021-07-27,2021-07-27,合同会社アルタンガール,,合同会社,神奈川県,川崎市麻生区,栗平１丁目５－３１ワタナベフラッツ１０２,,14,137,2150031,,,,,,,2021-07-27,1,,,,,アルタンガール,0
2553,9021001073495,新規,0,2021-07-27,2021-07-27,株式会社川崎モデル製作所,,株式会社,神奈川県,座間市,小松原２丁目５２９３番地３,,14,216,2520002,,,,,,,2021-07-27,1,,,,,,0
2566,9030001143522,新規,0,2021-07-27,2021-07-27,株式会社Ｒａｙｚｙ,,株式会社,埼玉県,八潮市,大字大曽根２３４番地,,11,234,3400834,,,,,,,2021-07-27,1,,,,,レイジー,0
2568,9030003017674,新規,0,2021-07-27,2021-07-27,山内コアバリューデザイン合同会社,,合同会社,埼玉県,さいたま市岩槻区,西原４番６３－５号,,11,110,3390081,,,,,,,2021-07-27,1,,,,,ヤマウチコアバリューデザイン,0
2569,9040001119505,新規,0,2021-07-27,2021-07-27,ＨＯＵＳＥ＆ｔｈｅＴＡＢＬＥ株式会社,,株式会社,千葉県,浦安市,富士見１丁目７番３３号,,12,227,2790043,,,,,,,2021-07-27,1,,,,,ハウスアンドザテーブル,0
2573,9050001049569,新規,0,2021-07-27,2021-07-27,株式会社Ｍ　ｖｉｌｌａｇｅ,,株式会社,茨城県,結城市,大字結城１３９４番地,,08,207,3070001,,,,,,,2021-07-27,1,,,,,エムビレッジ,0
2574,9050003005999,新規,0,2021-07-27,2021-07-27,ｏｆｆｉｃｅ２３４合同会社,,合同会社,茨城県,水戸市,大工町２丁目３番４号,,08,201,3100031,,,,,,,2021-07-27,1,,,,,オフィスニサンシ,0
2584,9070001038297,新規,0,2021-07-27,2021-07-27,株式会社ＣＵＯＲＥ,,株式会社,群馬県,太田市,高林北町９６１番地７,,10,205,3730829,,,,,,,2021-07-27,1,,,,,クオーレ,0
2595,9080401025217,新規,0,2021-07-27,2021-07-27,株式会社ＨＡＰＰＹ　ＰＥＲＳＯＮＳ,,株式会社,静岡県,浜松市南区,東若林町１６３６番地の１,,22,134,4328052,,,,,,,2021-07-27,1,,,,,ハッピーパーソンズ,0
2599,9090003001912,新規,0,2021-07-27,2021-07-27,宙コーポレーション合同会社,,合同会社,山梨県,北杜市,高根町清里３５４５番地１,,19,209,4070301,,,,,,,2021-07-27,1,,,,,ソラコーポレーション,0
2605,9110001035934,新規,0,2021-07-27,2021-07-27,株式会社ねんりん,,株式会社,新潟県,新潟市秋葉区,松ヶ丘１丁目６番１７号,,15,105,9560117,,,,,,,2021-07-27,1,,,,,ネンリン,0
2607,9110005016682,新規,0,2021-07-27,2021-07-27,司法書士法人いちえ,,その他の設立登記法人,新潟県,長岡市,来迎寺甲２６０２番地２,,15,202,9495411,,,,,,,2021-07-27,1,,,,,イチエ,0
2618,9120001239006,新規,0,2021-07-27,2021-07-27,株式会社プラストセキュリティ,,株式会社,大阪府,大阪市城東区,野江２丁目１６－２５,,27,118,5360006,,,,,,,2021-07-27,1,,,,,プラストセキュリティ,0
2619,9120001239154,新規,0,2021-07-27,2021-07-27,株式会社ＨＩＲＯリアルエステート,,株式会社,大阪府,大阪市天王寺区,勝山４丁目２番９号天王寺勝山グランドヒルズ６０１号,,27,109,5430043,,,,,,,2021-07-27,1,,,,,ヒロリアルエステート,0
2620,9120001239187,新規,0,2021-07-27,2021-07-27,株式会社ＳＴＡＮＤ,,株式会社,大阪府,大阪市住吉区,長居西１丁目１１番１１号,,27,120,5580002,,,,,,,2021-07-27,1,,,,,スタンド,0
2621,9120001239212,新規,0,2021-07-27,2021-07-27,株式会社生産者応援グループ,,株式会社,大阪府,守口市,藤田町３丁目２２番１号,,27,209,5700014,,,,,,,2021-07-27,1,,,,,セイサンシャオウエングループ,0
2622,9120001239245,新規,0,2021-07-27,2021-07-27,株式会社Ｚｏｏｍ　Ｉｎ,,株式会社,大阪府,大阪市中央区,久太郎町１丁目６番２７－４０２号,,27,128,5410056,,,,,,,2021-07-27,1,,,,,ズームイン,0
2623,9120001239253,新規,0,2021-07-27,2021-07-27,株式会社ユーエムイーサポート,,株式会社,大阪府,大阪市中央区,平野町１丁目８番１３号平野町八千代ビル５階,,27,128,5410046,,,,,,,2021-07-27,1,,,,,ユーエムイーサポート,0
2624,9120001239278,新規,0,2021-07-27,2021-07-27,株式会社ハマショウエクスプレス,,株式会社,大阪府,大阪市港区,八幡屋３丁目２番２号,,27,107,5520014,,,,,,,2021-07-27,1,,,,,ハマショウエクスプレス,0
2625,9120001239311,新規,0,2021-07-27,2021-07-27,株式会社ファサードパターン,,株式会社,大阪府,大阪市北区,堂島浜１丁目４番４号アクア堂島フォンターナ３階,,27,127,5300004,,,,,,,2021-07-27,1,,,,,ファサードパターン,0
2626,9120001239328,新規,0,2021-07-27,2021-07-27,株式会社エムアイ,,株式会社,大阪府,大阪市中央区,南本町２丁目１番１１号ライラック南本町ビル,,27,128,5410054,,,,,,,2021-07-27,1,,,,,エムアイ,0
2627,9120001239360,新規,0,2021-07-27,2021-07-27,株式会社ＫＵＭＡ　ＰＡＲＴＮＥＲＳ,,株式会社,大阪府,大阪市住吉区,苅田５丁目１５番１７号,,27,120,5580011,,,,,,,2021-07-27,1,,,,,クマパートナーズ,0
2630,9120003019901,新規,0,2021-07-27,2021-07-27,ＵＮ合同会社,,合同会社,大阪府,大阪市西成区,松３丁目１１番２１号,,27,122,5570034,,,,,,,2021-07-27,1,,,,,ユーエヌ,0
2633,9120901044661,新規,0,2021-07-27,2021-07-27,イーゾラボーナ株式会社,,株式会社,大阪府,豊中市,緑丘５丁目３番９号,,27,203,5600002,,,,,,,2021-07-27,1,,,,,イーゾラボーナ,0
2634,9122001035021,新規,0,2021-07-27,2021-07-27,株式会社ｏａｓｉｓ管理,,株式会社,大阪府,東大阪市,長田東２丁目３番５号日秀ビル１階,,27,227,5770012,,,,,,,2021-07-27,1,,,,,オアシスカンリ,0
2646,9130001069765,新規,0,2021-07-27,2021-07-27,ＢＯＯＴＯＮ株式会社,,株式会社,京都府,京都市山科区,四ノ宮小金塚８番地５２４ＣＯＣＯＨＯＵＳＥ２０３,,26,110,6078022,,,,,,,2021-07-27,1,,,,,ブートン,0
2647,9130001069773,新規,0,2021-07-27,2021-07-27,株式会社青島坊,,株式会社,京都府,京都市左京区,下鴨北園町２４番地,,26,103,6060831,,,,,,,2021-07-27,1,,,,,チンタオファン,0
2648,9130001069798,新規,0,2021-07-27,2021-07-27,株式会社ＴＩＬＥ　ＣＲＡＦＴＳＭＡＮ,,株式会社,京都府,京都市左京区,一乗寺宮ノ東町７番地８,,26,103,6068116,,,,,,,2021-07-27,1,,,,,タイルクラフトマン,0
2650,9130003007376,新規,0,2021-07-27,2021-07-27,新合同会社,,合同会社,京都府,京都市中京区,町頭町１０８,,26,104,6048206,,,,,,,2021-07-27,1,,,,,シン,0
2651,9130003007384,新規,0,2021-07-27,2021-07-27,合同会社土歩,,合同会社,京都府,京都市左京区,一乗寺宮ノ東町３８－５,,26,103,6068116,,,,,,,2021-07-27,1,,,,,トポ,0
2659,9140001122382,新規,0,2021-07-27,2021-07-27,株式会社ＥＥＥｚ　Ｗｏｒｋｓ,,株式会社,兵庫県,姫路市,南町６３番地ミツワビル３階,,28,201,6700912,,,,,,,2021-07-27,1,,,,,イーズワークス,0
2664,9150001024818,新規,0,2021-07-27,2021-07-27,株式会社大夢,,株式会社,奈良県,奈良市,佐保台３丁目９０２番地の２１７,,29,201,6308105,,,,,,,2021-07-27,1,,,,,タイム,0
2665,9160001023488,新規,0,2021-07-27,2021-07-27,株式会社Ｒ－ｒｉｃｈｅ,,株式会社,滋賀県,長浜市,高月町高月６００番地１,,25,203,5290241,,,,,,,2021-07-27,1,,,,,アールリッチェ,0
2666,9160001023496,新規,0,2021-07-27,2021-07-27,株式会社くるみ,,株式会社,滋賀県,彦根市,西今町１２７０番地１３,,25,202,5220054,,,,,,,2021-07-27,1,,,,,クルミ,0
2669,9170001016689,新規,0,2021-07-27,2021-07-27,株式会社田辺土地開発,,株式会社,和歌山県,田辺市,新万１７番１号,,30,206,6460014,,,,,,,2021-07-27,1,,,,,タナベトチカイハツ,0
2682,9180301035198,新規,0,2021-07-27,2021-07-27,株式会社アールアイン,,株式会社,愛知県,豊田市,畝部東町上中島９３番地,,23,211,4701211,,,,,,,2021-07-27,1,,,,,,0
2686,9190001028534,新規,0,2021-07-27,2021-07-27,やまもと建設株式会社,,株式会社,三重県,四日市市,河原田町２３５０番地２,,24,202,5100874,,,,,,,2021-07-27,1,,,,,ヤマモトケンセツ,0
2687,9190001028542,新規,0,2021-07-27,2021-07-27,株式会社新テック,,株式会社,三重県,いなべ市,大安町梅戸１９９２番地１０,,24,214,5110284,,,,,,,2021-07-27,1,,,,,シンテック,0
2689,9200001038928,新規,0,2021-07-27,2021-07-27,株式会社ＩＤＥＡＬ,,株式会社,岐阜県,岐阜市,折立１６７番地４,,21,201,5011132,,,,,,,2021-07-27,1,,,,,アイデアル,0
2698,9260001035787,新規,0,2021-07-27,2021-07-27,株式会社ＣＪＳ,,株式会社,岡山県,岡山市北区,横井上５０７番地２３８,,33,101,7011145,,,,,,,2021-07-27,1,,,,,シージェイエス,0
2699,9260001035795,新規,0,2021-07-27,2021-07-27,株式会社ケンコー,,株式会社,岡山県,岡山市中区,海吉２３３９番地６,,33,102,7038261,,,,,,,2021-07-27,1,,,,,ケンコー,0
2702,9290001093923,新規,0,2021-07-27,2021-07-27,株式会社ＭＩパートナーズ,,株式会社,福岡県,福岡市東区,香椎照葉３丁目２番７－１００１号アイタワー,,40,131,8130017,,,,,,,2021-07-27,1,,,,,エムアイパートナーズ,0
2707,9320003003579,新規,0,2021-07-27,2021-07-27,合同会社Ｍ・ＣＲＥＡＴＩＯＮＳ,,合同会社,大分県,大分市,原新町１番２７号リバティーマキ１０５号,,44,201,8700912,,,,,,,2021-07-27,1,,,,,エムクリエイションズ,0
2717,9360003011314,新規,0,2021-07-27,2021-07-27,合同会社リボン,,合同会社,沖縄県,那覇市,松川２丁目１６番１５号・１Ｆ,,47,201,9020062,,,,,,,2021-07-27,1,,,,,リボン,0
2719,9370001047350,新規,0,2021-07-27,2021-07-27,株式会社オーディーエー,,株式会社,宮城県,仙台市青葉区,上杉３丁目４番５号オーレ８０８上杉２０１号,,04,101,9800011,,,,,,,2021-07-27,1,,,,,オーディーエー,0
2731,9390001016543,新規,0,2021-07-27,2021-07-27,株式会社ｍｉｚｕｍｉ,,株式会社,山形県,米沢市,中田町１８７８番地の８,,06,202,9920011,,,,,,,2021-07-27,1,,,,,ミズミ,0
2732,9390005008909,新規,0,2021-07-27,2021-07-27,ＮＰＯ法人ポピー,,その他の設立登記法人,山形県,南陽市,椚塚１８３７番地の１,,06,213,9992221,,,,,,,2021-07-27,1,,,,,ポピー,0
2736,9410005006414,新規,0,2021-07-27,2021-07-27,農事組合法人深間内,,その他の設立登記法人,秋田県,横手市,平鹿町上吉田字深間内５２番地,,05,203,0130101,,,,,,,2021-07-27,1,,,,,,0
2738,9420003002356,新規,0,2021-07-27,2021-07-27,合同会社Ｎプラン,,合同会社,青森県,青森市,幸畑５丁目８番９号,,02,201,0300943,,,,,,,2021-07-27,1,,,,,エヌプラン,0
2741,9430001084585,新規,0,2021-07-27,2021-07-27,エデュオ株式会社,,株式会社,北海道,札幌市中央区,南三条西８丁目２番地１,,01,101,0600063,,,,,,,2021-07-27,1,,,,,エデュオ,0
2742,9430001084610,新規,0,2021-07-27,2021-07-27,株式会社ユニエイド,,株式会社,北海道,札幌市中央区,北一条西２１丁目１番３号,,01,101,0640821,,,,,,,2021-07-27,1,,,,,ユニエイド,0
2743,9430001084651,新規,0,2021-07-27,2021-07-27,株式会社吉田商会,,株式会社,北海道,札幌市白石区,中央二条４丁目１番２４号,,01,104,0030012,,,,,,,2021-07-27,1,,,,,ヨシダショウカイ,0
2746,9430003012965,新規,0,2021-07-27,2021-07-27,合同会社エンフェルレント,,合同会社,北海道,札幌市中央区,南六条東２丁目１１－１エッジウォーターテラス１０１１,,01,101,0600056,,,,,,,2021-07-27,1,,,,,エンフェルエント,0
2751,9490001009941,新規,0,2021-07-27,2021-07-27,澤田測量設計株式会社,,株式会社,高知県,高知市,東久万１５９番地１７,,39,201,7800982,,,,,,,2021-07-27,1,,,,,サワダソクリョウセッケイ,0
2752,9500001023585,新規,0,2021-07-27,2021-07-27,株式会社Ｉｒｏｎ２３,,株式会社,愛媛県,松山市,大手町１丁目１１番地７,,38,201,7900067,,,,,,,2021-07-27,1,,,,,アイアントゥエンティスリー,0
2757,9700150104075,新規,0,2021-07-27,2021-07-12,高知県データ駆動型農業推進協議会,,その他,高知県,高知市,丸ノ内１丁目７番５２号農業イノベーション推進課,,39,201,7800850,,,,,,,2021-07-12,1,,,,,コウチケンデータクドウガタノウギヨウスイシンキヨウギカイ,0
