sequenceNumber,corporateNumber,process,correct,updateDate,changeDate,name,nameImageId,kind,prefectureName,cityName,streetNumber,addressImageId,prefectureCode,cityCode,postCode,addressOutside,addressOutsideImageId,closeDate,closeCause,successorCorporateNumber,changeCause,assignmentDate,latest,enName,enPrefectureName,enCityName,enAddressOutside,furigana,hihyoji
10,1010401183813,新規,0,2024-07-18,2024-07-18,株式会社共同メディカル,,株式会社,東京都,港区,南麻布１丁目６番８号,,13,103,1060047,,,,,,,2024-07-18,1,,,,,キョウドウメディカル,0
11,1010401183862,新規,0,2024-07-18,2024-07-18,リジェネソーム株式会社,,株式会社,東京都,港区,浜松町２丁目２番１５号浜松町ダイヤビル２Ｆ,,13,103,1050013,,,,,,,2024-07-18,1,,,,,リジェネソーム,0
13,1010403033041,新規,0,2024-07-18,2024-07-18,合同会社Ｂｒｉｇｈｔ　Ｈｏｕｓｅ,,合同会社,東京都,港区,三田１丁目４－２８三田国際ビル１３Ｆ,,13,103,1080073,,,,,,,2024-07-18,1,,,,,ブライトハウス,0
14,1010403033074,新規,0,2024-07-18,2024-07-18,築地インベストメント合同会社,,合同会社,東京都,港区,元赤坂１丁目１番８号赤坂コミュニティビル４階,,13,103,1070051,,,,,,,2024-07-18,1,,,,,ツキジインベストメント,0
16,1010501052612,新規,0,2024-07-18,2024-07-18,株式会社Ｍｅｄｉｃａｌ　Ｆａｃｔｏｒｓ　Ｇｒｏｕｐ,,株式会社,東京都,台東区,三筋１丁目７－３ＭＤＸ浅草橋７Ｆ,,13,106,1110055,,,,,,,2024-07-18,1,,,,,メディカルファクターズグループ,0
17,1010501052620,新規,0,2024-07-18,2024-07-18,ＮＩＮＡ　ＲＹＣＨ株式会社,,株式会社,東京都,台東区,雷門２丁目６番２号マーナマリー浅草雷門ビル５階,,13,106,1110034,,,,,,,2024-07-18,1,,,,,ニナリッチ,0
19,1010601065563,新規,0,2024-07-18,2024-07-18,株式会社ＨａｒｅＢａｅ,,株式会社,東京都,江東区,有明３丁目７番１１号有明パークビル２０階,,13,108,1350063,,,,,,,2024-07-18,1,,,,,ハレバエ,0
22,1010803005020,新規,0,2024-07-18,2024-07-18,オデンクス合同会社,,合同会社,東京都,大田区,南雪谷４丁目２３番８号,,13,111,1450066,,,,,,,2024-07-18,1,,,,,オデンクス,0
25,1010901055644,新規,0,2024-07-18,2024-07-18,株式会社ＯＰＴＩＭＩＳＴ,,株式会社,東京都,世田谷区,深沢１丁目２８番１７号,,13,112,1580081,,,,,,,2024-07-18,1,,,,,オプティミスト,0
28,1011001163321,新規,0,2024-07-18,2024-07-18,株式会社Ｓｍｉｌｅ　Ｃｈａｌｌｅｎｇｅ,,株式会社,東京都,目黒区,下目黒１丁目１番１４号コノトラビル７Ｆ,,13,110,1530064,,,,,,,2024-07-18,1,,,,,スマイルチャレンジ,0
31,1011005010585,新規,0,2024-07-18,2024-07-18,弁護士法人渕上陽子,,その他の設立登記法人,東京都,渋谷区,渋谷１丁目２０番１号井門美竹ビル４階,,13,113,1500002,,,,,,,2024-07-18,1,,,,,フチガミヨウコ,0
33,1011201025643,新規,0,2024-07-18,2024-07-18,株式会社ニューライフ,,株式会社,東京都,中野区,鷺宮３丁目１１番５号,,13,114,1650032,,,,,,,2024-07-18,1,,,,,ニューライフ,0
36,1011401026268,新規,0,2024-07-18,2024-07-18,株式会社ＳＣ,,株式会社,東京都,板橋区,大山金井町３２－８Ｐｒｉｍｕｓ１０３号室,,13,119,1730024,,,,,,,2024-07-18,1,,,,,エスシー,0
38,1011801044539,新規,0,2024-07-18,2024-07-18,株式会社ＮＹ商事,,株式会社,東京都,葛飾区,西新小岩４丁目３番３号,,13,122,1240025,,,,,,,2024-07-18,1,,,,,エヌワイショウジ,0
39,1011801044547,新規,0,2024-07-18,2024-07-18,株式会社ＢＹスチール,,株式会社,東京都,足立区,谷在家３丁目１－３－１０１号,,13,121,1230863,,,,,,,2024-07-18,1,,,,,ビーワイスチール,0
48,1012401042107,新規,0,2024-07-18,2024-07-18,ＳＩＸエステート株式会社,,株式会社,東京都,三鷹市,野崎３丁目１８－２メゾン・トレゾア１０１号室,,13,204,1810014,,,,,,,2024-07-18,1,,,,,シックスエステート,0
49,1013301052823,新規,0,2024-07-18,2024-07-18,株式会社ＷＯＲＬＤＥＡＲ,,株式会社,東京都,豊島区,池袋２丁目６０番６号グランドメゾン池袋壱番館３０２,,13,116,1710014,,,,,,,2024-07-18,1,,,,,ワールディア,0
53,1020001158108,新規,0,2024-07-18,2024-07-18,アスロードクリエート株式会社,,株式会社,神奈川県,横浜市鶴見区,潮田町１丁目２３番６,,14,101,2300041,,,,,,,2024-07-18,1,,,,,アスロードクリエート,0
54,1020001158116,新規,0,2024-07-18,2024-07-18,リノ・ソリューション株式会社,,株式会社,神奈川県,横浜市西区,高島２丁目１１番２号,,14,103,2200011,,,,,,,2024-07-18,1,,,,,リノソリューション,0
55,1020003026485,新規,0,2024-07-18,2024-07-18,Ｒｅｃｅｉｖｅ合同会社,,合同会社,神奈川県,川崎市高津区,北見方２丁目２番５－６号,,14,134,2130005,,,,,,,2024-07-18,1,,,,,リシーブ,0
63,1030001161457,新規,0,2024-07-18,2024-07-18,株式会社ＲＡＹＥＬ,,株式会社,埼玉県,さいたま市西区,西大宮４丁目１９番地１８,,11,101,3310078,,,,,,,2024-07-18,1,,,,,レイエル,0
70,1030005021764,新規,0,2024-07-18,2024-07-18,一般社団法人ＷＡＭＳ，Ｊａｐａｎ,,その他の設立登記法人,埼玉県,羽生市,大字上川俣４６３番地２,,11,216,3480056,,,,,,,2024-07-18,1,,,,,ワムズジャパン,0
75,1040001134528,新規,0,2024-07-18,2024-07-18,株式会社ＭＡＥＤＡ　ＫＯＨＯ,,株式会社,千葉県,君津市,郡４７８番地１,,12,225,2991127,,,,,,,2024-07-18,1,,,,,マエダコウホ,0
76,1040001134544,新規,0,2024-07-18,2024-07-18,株式会社リイム,,株式会社,千葉県,船橋市,飯山満町１丁目６７６番地,,12,204,2740822,,,,,,,2024-07-18,1,,,,,リイム,0
77,1040001134552,新規,0,2024-07-18,2024-07-18,オハナ株式会社,,株式会社,千葉県,佐倉市,表町３丁目１４番地２６,,12,212,2850811,,,,,,,2024-07-18,1,,,,,オハナ,0
78,1040001134560,新規,0,2024-07-18,2024-07-18,株式会社風間技研,,株式会社,千葉県,山武市,成東１８００番地３,,12,237,2891326,,,,,,,2024-07-18,1,,,,,カザマギケン,0
79,1040001134569,新規,0,2024-07-18,2024-07-18,株式会社ＴＹＰＥ,,株式会社,千葉県,習志野市,実籾１丁目１０番４号,,12,216,2750002,,,,,,,2024-07-18,1,,,,,タイプ,0
80,1040001134651,新規,0,2024-07-18,2024-07-18,裕龍株式会社,,株式会社,千葉県,柏市,豊四季７０９番地３０２,,12,217,2770863,,,,,,,2024-07-18,1,,,,,ユウロン,0
81,1040003025403,新規,0,2024-07-18,2024-07-18,合同会社秀,,合同会社,千葉県,八千代市,大和田５８２番地２,,12,221,2760045,,,,,,,2024-07-18,1,,,,,シュウ,0
82,1040003025411,新規,0,2024-07-18,2024-07-18,合同会社ティ・エム・コーポレーション,,合同会社,千葉県,松戸市,本町１２番地１２中山ビル４０３号,,12,207,2710091,,,,,,,2024-07-18,1,,,,,ティエムコーポレーション,0
84,1050003008563,新規,0,2024-07-18,2024-07-18,合同会社ＳＥＮＴＩＡ　ＰＡＲＴＮＥＲＳ,,合同会社,茨城県,取手市,新取手３丁目３６番１３号,,08,217,3020031,,,,,,,2024-07-18,1,,,,,センティアパートナーズ,0
88,1070005010301,新規,0,2024-07-18,2024-07-18,一般社団法人あかるいみらい,,その他の設立登記法人,群馬県,利根郡みなかみ町,月夜野３２７３番地２,,10,449,3791313,,,,,,,2024-07-18,1,,,,,アカルイミライ,0
92,1080103003098,新規,0,2024-07-18,2024-07-18,合同会社ＭＥＴＡＰ,,合同会社,静岡県,沼津市,大岡３５０５－１４輝明館３０１,,22,203,4100022,,,,,,,2024-07-18,1,,,,,メタップ,0
93,1080401027311,新規,0,2024-07-18,2024-07-18,株式会社Ｒｏｕｎｄｓ,,株式会社,静岡県,浜松市中央区,都盛町１２３番地の９グランデールＩＩ１０１,00135610,22,138,4300815,,,,,,,2024-07-18,1,,,,,ラウンズ,0
105,1120001102641,新規,0,2024-07-18,2024-07-18,日本メック株式会社,,株式会社,大阪府,大阪市北区,梅田１丁目１番３－２００号大阪駅前第３ビル２階,,27,127,5300001,,,,,,,2024-07-18,1,,,,,ニホンメック,0
108,1120001266916,新規,0,2024-07-18,2024-07-18,Ｚｅｎｏｖａ株式会社,,株式会社,大阪府,大阪市城東区,関目５丁目１９番９号関目花博公館４１０Ａ,,27,118,5360008,,,,,,,2024-07-18,1,,,,,ゼノヴァ,0
111,1120003027052,新規,0,2024-07-18,2024-07-18,合同会社激うまバインミー,,合同会社,大阪府,大阪市平野区,加美北３丁目１７－３４,,27,126,5470001,,,,,,,2024-07-18,1,,,,,ゲキウマバインミー,0
112,1120005024428,新規,0,2024-07-18,2024-07-18,医療法人蒼星会,,その他の設立登記法人,大阪府,大阪市淀川区,新高３丁目６番１７号三国駅前クリニックモール２Ｆ,,27,123,5320033,,,,,,,2024-07-18,1,,,,,ソウセイカイ,0
113,1120005024436,新規,0,2024-07-18,2024-07-18,医療法人ＨＴ,,その他の設立登記法人,大阪府,大阪市東淀川区,瑞光１丁目１６番１０号ベル・コート１階,,27,114,5330005,,,,,,,2024-07-18,1,,,,,エイチティ,0
115,1120101069995,新規,0,2024-07-18,2024-07-18,小愛株式会社,,株式会社,大阪府,堺市堺区,柏木町２丁４番１９号,,27,141,5900837,,,,,,,2024-07-18,1,,,,,ショウアイ,0
116,1120901049429,新規,0,2024-07-18,2024-07-18,株式会社親子の時間研究所,,株式会社,大阪府,豊中市,上野坂２丁目３番３号エルベラーノ上野坂４０２号室,,27,203,5600012,,,,,,,2024-07-18,1,,,,,オヤコノジカンケンキュウジョ,0
117,1120903005264,新規,0,2024-07-18,2024-07-18,合同会社ニヒルワークス,,合同会社,大阪府,摂津市,鳥飼本町５丁目１５番１６号,,27,224,5660052,,,,,,,2024-07-18,1,,,,,ニヒルワークス,0
124,1130001077453,新規,0,2024-07-18,2024-07-18,株式会社クレセント,,株式会社,京都府,福知山市,字篠尾９９５番地の２３,,26,201,6200000,,,,,,,2024-07-18,1,,,,,クレセント,0
125,1130003009693,新規,0,2024-07-18,2024-07-18,合同会社ＫＯＨＡＲＵＲＩ,,合同会社,京都府,宇治市,宇治矢落２９番地の９,,26,204,6110021,,,,,,,2024-07-18,1,,,,,コハルリ,0
126,1130003009702,新規,0,2024-07-18,2024-07-18,合同会社目貫家,,合同会社,京都府,長岡京市,梅が丘１丁目５１番地,,26,209,6170841,,,,,,,2024-07-18,1,,,,,メヌキヤ,0
137,1140003020831,新規,0,2024-07-18,2024-07-18,合同会社ｅ‐ｂｉｋｅＢＵＳＨＩＤＯ,,合同会社,兵庫県,たつの市,揖西町南山５３８－１,,28,229,6794016,,,,,,,2024-07-18,1,,,,,イーバイクブシドー,0
138,1150001027423,新規,0,2024-07-18,2024-07-18,龍電工株式会社,,株式会社,奈良県,北葛城郡広陵町,大字三吉２６０番地１５,,29,426,6350823,,,,,,,2024-07-18,1,,,,,リュウデンコウ,0
144,1180001162358,新規,0,2024-07-18,2024-07-18,株式会社Ｍｙ・Ｂｌｏｏｍ,,株式会社,愛知県,知多市,にしの台４丁目７番地の２４,,23,224,4780055,,,,,,,2024-07-18,1,,,,,マイブルーム,0
145,1180001162366,新規,0,2024-07-18,2024-07-18,株式会社ベスティ,,株式会社,愛知県,東海市,名和町欠下５番地,,23,222,4760002,,,,,,,2024-07-18,1,,,,,ベスティ,0
151,1180003027088,新規,0,2024-07-18,2024-07-18,合同会社Ｗｈｉｔｅ,,合同会社,愛知県,清須市,花水木１丁目１４番地１９,,23,233,4520947,,,,,,,2024-07-18,1,,,,,ホワイト,0
154,1180301038844,新規,0,2024-07-18,2024-07-18,株式会社イワデン,,株式会社,愛知県,高浜市,芳川町２丁目９番地１２,,23,227,4441335,,,,,,,2024-07-18,1,,,,,イワデン,0
155,1180301038852,新規,0,2024-07-18,2024-07-18,株式会社中部技建,,株式会社,愛知県,豊田市,生駒町立入９３番地,,23,211,4730928,,,,,,,2024-07-18,1,,,,,チュウブギケン,0
156,1180303006188,新規,0,2024-07-18,2024-07-18,合同会社ｋｅｎｔｏｋａｉ,,合同会社,愛知県,みよし市,ひばりヶ丘２丁目２２－１１,,23,236,4700208,,,,,,,2024-07-18,1,,,,,ケントカイ,0
157,1190001031495,新規,0,2024-07-18,2024-07-18,株式会社Ａｃｔ　Ｈｕｂｂｌｙ,,株式会社,三重県,津市,大谷町２５５番地オフィス金子２Ｆ,,24,201,5140007,,,,,,,2024-07-18,1,,,,,アクトハブリー,0
172,1270001009013,新規,0,2024-07-18,2024-07-18,Ｌｏｇｉｃ株式会社,,株式会社,鳥取県,米子市,陽田町６０－１０,,31,202,6830032,,,,,,,2024-07-18,1,,,,,ロジック,0
175,1290001106436,新規,0,2024-07-18,2024-07-18,株式会社ＳｈｉＮ,,株式会社,福岡県,福岡市城南区,田島４丁目１０番１８－１号,,40,136,8140113,,,,,,,2024-07-18,1,,,,,シン,0
176,1290001106444,新規,0,2024-07-18,2024-07-18,株式会社ＯＲ建装,,株式会社,福岡県,福岡市南区,三宅３丁目２９番１３号,,40,134,8111344,,,,,,,2024-07-18,1,,,,,オーアールケンソウ,0
180,1290801030711,新規,0,2024-07-18,2024-07-18,株式会社ライトピラー,,株式会社,福岡県,北九州市小倉南区,葛原東３丁目９番１０号,,40,107,8000206,,,,,,,2024-07-18,1,,,,,ライトピラー,0
181,1290803004779,新規,0,2024-07-18,2024-07-18,合同会社ＳＳＫ,,合同会社,福岡県,田川市,大字位登８７６番地,,40,206,8260044,,,,,,,2024-07-18,1,,,,,エスエスケー,0
191,1340001026645,新規,0,2024-07-18,2024-07-18,南央不動産株式会社,,株式会社,鹿児島県,鹿児島市,宇宿１丁目１９番８号,,46,201,8900073,,,,,,,2024-07-18,1,,,,,ナンオウフドウサン,0
196,1360001033953,新規,0,2024-07-18,2024-07-18,株式会社ホウオン,,株式会社,沖縄県,那覇市,首里鳥堀町４丁目１２９番地１７,,47,201,9030805,,,,,,,2024-07-18,1,,,,,ホウオン,0
233,2010501052611,新規,0,2024-07-18,2024-07-18,ｚｅｒｏ２ｏｎｅ株式会社,,株式会社,東京都,台東区,花川戸１丁目１３－１５ＳＣＲビル６０１,,13,106,1110033,,,,,,,2024-07-18,1,,,,,ゼロツーワン,0
237,2010701046280,新規,0,2024-07-18,2024-07-18,株式会社ＢＬＵＥ　ＰＯＲＴＡＬ,,株式会社,東京都,品川区,大井１丁目３１番１－２００６号,,13,109,1400014,,,,,,,2024-07-18,1,,,,,ブルーポータル,0
240,2010801035241,新規,0,2024-07-18,2024-07-18,株式会社ＢＬＩＩＳＳ,,株式会社,東京都,大田区,大森中２丁目２番１８－３０３号室,,13,111,1430014,,,,,,,2024-07-18,1,,,,,ブリス,0
246,2011003019578,新規,0,2024-07-18,2024-07-18,ドライワークス合同会社,,合同会社,東京都,渋谷区,恵比寿西２丁目８番４号ＥＸ恵比寿西ビル５階,,13,113,1500021,,,,,,,2024-07-18,1,,,,,ドライワークス,0
248,2011005010584,新規,0,2024-07-18,2024-07-18,税理士法人岡田経営会計,,その他の設立登記法人,東京都,渋谷区,渋谷２丁目８番７号,,13,113,1500002,,,,,,,2024-07-18,1,,,,,オカダケイエイカイケイ,0
256,2011101108084,新規,0,2024-07-18,2024-07-18,株式会社ＲＴ,,株式会社,東京都,新宿区,百人町１丁目１番２４－３０４号,,13,104,1690073,,,,,,,2024-07-18,1,,,,,アールティー,0
262,2011401026234,新規,0,2024-07-18,2024-07-18,三友株式会社,,株式会社,東京都,板橋区,舟渡１丁目１７－９ＩＤＥマンションサンフラワー２０２号室,,13,119,1740041,,,,,,,2024-07-18,1,,,,,ミツトモ,0
263,2011503006150,新規,0,2024-07-18,2024-07-18,プレミアムステージ合同会社,,合同会社,東京都,北区,上中里３丁目２番８号Ｓ８ａｐ２０１号,,13,117,1140016,,,,,,,2024-07-18,1,,,,,,0
266,2011801044546,新規,0,2024-07-18,2024-07-18,生活堂株式会社,,株式会社,東京都,葛飾区,立石１丁目１－２Ｎフラット１０３号室,,13,122,1240012,,,,,,,2024-07-18,1,,,,,セイカツドウ,0
268,2012701018359,新規,0,2024-07-18,2024-07-18,株式会社Ｎｏｂｂｙ企画,,株式会社,東京都,西東京市,北町３丁目８番１１号,,13,229,2020003,,,,,,,2024-07-18,1,,,,,ノビィキカク,0
269,2012801023333,新規,0,2024-07-18,2024-07-18,株式会社フロム・イースト,,株式会社,東京都,国分寺市,西恋ヶ窪１丁目１６－１１イースト・エス３０５号,,13,214,1850013,,,,,,,2024-07-18,1,,,,,フロムイースト,0
270,2012803003457,新規,0,2024-07-18,2024-07-18,合同会社かまたコーポレーション,,合同会社,東京都,昭島市,松原町２丁目９番１号,,13,207,1960003,,,,,,,2024-07-18,1,,,,,カマタコーポレーション,0
281,2020001158081,新規,0,2024-07-18,2024-07-18,株式会社ＨＡＬＩＣＡ,,株式会社,神奈川県,横浜市青葉区,新石川２丁目１４番地３,,14,117,2250003,,,,,,,2024-07-18,1,,,,,ハリカ,0
302,2030001161464,新規,0,2024-07-18,2024-07-18,株式会社くらす不動産,,株式会社,埼玉県,越谷市,南越谷１丁目６番４６号２０１号室,,11,222,3430845,,,,,,,2024-07-18,1,,,,,クラスフドウサン,0
303,2030001161472,新規,0,2024-07-18,2024-07-18,株式会社向陽産業,,株式会社,埼玉県,飯能市,大字岩沢１１４５番地１０,,11,209,3570023,,,,,,,2024-07-18,1,,,,,コウヨウサンギョウ,0
304,2030001161480,新規,0,2024-07-18,2024-07-18,株式会社アイセブン,,株式会社,埼玉県,北足立郡伊奈町,内宿台１丁目３３番地２,,11,301,3620812,,,,,,,2024-07-18,1,,,,,アイセブン,0
305,2030001161489,新規,0,2024-07-18,2024-07-18,株式会社友,,株式会社,埼玉県,北葛飾郡杉戸町,内田２丁目１３番２－４０２号,,11,464,3450035,,,,,,,2024-07-18,1,,,,,トモ,0
308,2030003024735,新規,0,2024-07-18,2024-07-18,合同会社フレッシュパートナーズ,,合同会社,埼玉県,川口市,栄町３丁目２番２３－６０５号アーネスト川口,,11,203,3320017,,,,,,,2024-07-18,1,,,,,フレッシュパートナーズ,0
310,2040001134543,新規,0,2024-07-18,2024-07-18,栄光株式会社,,株式会社,千葉県,成田市,駒井野４６９－１,,12,211,2860121,,,,,,,2024-07-18,1,,,,,エイコウ,0
311,2040001134576,新規,0,2024-07-18,2024-07-18,ＲＩＴＡＢＯ株式会社,,株式会社,千葉県,市川市,市川４丁目５番１０－１０１号国府台ステイツ,,12,203,2720034,,,,,,,2024-07-18,1,,,,,リタボ,0
312,2040003025419,新規,0,2024-07-18,2024-07-18,合同会社あゆむ,,合同会社,千葉県,四街道市,大日３２９番地１４－２０１号,,12,228,2840001,,,,,,,2024-07-18,1,,,,,アユム,0
314,2040005022447,新規,0,2024-07-18,2024-07-18,一般社団法人ＩＮＭＴ,,その他の設立登記法人,千葉県,市川市,富浜１丁目７番１７号２階,,12,203,2720115,,,,,,,2024-07-18,1,,,,,インメット,0
319,2060005010227,新規,0,2024-07-18,2024-07-18,社会保険労務士法人中根労務経営事務所,,その他の設立登記法人,栃木県,小山市,暁２丁目２番２８号,,09,208,3290211,,,,,,,2024-07-18,1,,,,,ナカネロウムケイエイジムショ,0
338,2120001266873,新規,0,2024-07-18,2024-07-18,川康株式会社,,株式会社,大阪府,寝屋川市,上神田２丁目１６番３号,,27,215,5720052,,,,,,,2024-07-18,1,,,,,カワヤス,0
339,2120001266956,新規,0,2024-07-18,2024-07-18,株式会社ルクラージュ,,株式会社,大阪府,大阪市北区,大淀中１丁目１３番１９号,,27,127,5310076,,,,,,,2024-07-18,1,,,,,ルクラージュ,0
344,2120101069994,新規,0,2024-07-18,2024-07-18,東嵐株式会社,,株式会社,大阪府,堺市堺区,甲斐町西３丁２番３４号,,27,141,5900950,,,,,,,2024-07-18,1,,,,,トウラン,0
350,2120903005263,新規,0,2024-07-18,2024-07-18,合同会社ＭＡＯ　ＦＡＲＭ,,合同会社,大阪府,摂津市,昭和園８番１１－５０１号,,27,224,5660031,,,,,,,2024-07-18,1,,,,,マオファーム,0
354,2130001077477,新規,0,2024-07-18,2024-07-18,株式会社Ｋ．Ｉ．Ｔｅｃ,,株式会社,京都府,長岡京市,城の里５－２０,,26,209,6170835,,,,,,,2024-07-18,1,,,,,ケイアイテック,0
355,2130003009668,新規,0,2024-07-18,2024-07-18,合同会社ヤマコー,,合同会社,京都府,京都市伏見区,納所下野１番地１号棟２０３号,,26,109,6128267,,,,,,,2024-07-18,1,,,,,ヤマコー,0
362,2140003020797,新規,0,2024-07-18,2024-07-18,合同会社フリークリエイト,,合同会社,兵庫県,神戸市西区,学園西町５丁目８番地の３、５３２－１０２号,,28,111,6512103,,,,,,,2024-07-18,1,,,,,フリークリエイト,0
363,2140003020830,新規,0,2024-07-18,2024-07-18,合同会社絆ＫＩＺＮＡ,,合同会社,兵庫県,神戸市北区,西大池２丁目８番８２号,,28,109,6511201,,,,,,,2024-07-18,1,,,,,キズナキズナ,0
364,2140005027155,新規,0,2024-07-18,2024-07-18,特定非営利活動法人ふくわうちＫＯＢＥ　ＪＡＰＡＮ,,その他の設立登記法人,兵庫県,神戸市垂水区,名谷町字大谷１８７９番地の１１,,28,108,6550852,,,,,,,2024-07-18,1,,,,,フクワウチコウベジャパン,0
365,2160001026068,新規,0,2024-07-18,2024-07-18,ｓｔｕｎｎｉｎｇ　ｇｒｏｗ　ｍｅｄｉｃａｌ株式会社,,株式会社,滋賀県,大津市,北比良８２９番地の１－３号,,25,201,5200503,,,,,,,2024-07-18,1,,,,,スタニンググローメディカル,0
373,2180001162340,新規,0,2024-07-18,2024-07-18,株式会社芝田工業,,株式会社,愛知県,春日井市,細木町２丁目９９番地,,23,206,4860937,,,,,,,2024-07-18,1,,,,,シバタコウギョウ,0
374,2180001162357,新規,0,2024-07-18,2024-07-18,株式会社Ｏｎｅ　ｄａｙ,,株式会社,愛知県,知多郡武豊町,字梨子ノ木３丁目３８番地１,,23,447,4702309,,,,,,,2024-07-18,1,,,,,ワンデイ,0
375,2180001162373,新規,0,2024-07-18,2024-07-18,株式会社ＴＳカンパニー,,株式会社,愛知県,小牧市,大字間々原新田６９９番地２,,23,219,4850016,,,,,,,2024-07-18,1,,,,,ティーエスカンパニー,0
382,2180003027054,新規,0,2024-07-18,2024-07-18,エムワイ合同会社,,合同会社,愛知県,知多郡阿久比町,大字矢高字五反田２１番地１ｐｈｌｏｘ五反田３０６,,23,441,4702215,,,,,,,2024-07-18,1,,,,,エムワイ,0
383,2180003027062,新規,0,2024-07-18,2024-07-18,合同会社アスリーフ,,合同会社,愛知県,名古屋市港区,八百島１丁目１３０８番地,,23,111,4550885,,,,,,,2024-07-18,1,,,,,アスリーフ,0
384,2180003027070,新規,0,2024-07-18,2024-07-18,合同会社アンサンブル,,合同会社,愛知県,小牧市,小牧原３丁目１５３－２,,23,219,4850829,,,,,,,2024-07-18,1,,,,,アンサンブル,0
385,2180003027095,新規,0,2024-07-18,2024-07-18,合同会社オピックスホールディングス,,合同会社,愛知県,名古屋市東区,葵１丁目２６番１２号,,23,102,4610004,,,,,,,2024-07-18,1,,,,,オピックスホールディングス,0
389,2180305009592,新規,0,2024-07-18,2024-07-18,一般社団法人パス,,その他の設立登記法人,愛知県,西尾市,上町林２０－１第５ランドプラザビル１０２号室,,23,213,4450894,,,,,,,2024-07-18,1,,,,,パス,0
395,2200001042721,新規,0,2024-07-18,2024-07-18,久世硝子株式会社,,株式会社,岐阜県,岐阜市,下鵜飼１８４３番地１,,21,201,5011172,,,,,,,2024-07-18,1,,,,,クゼガラス,0
401,2230001020443,新規,0,2024-07-18,2024-07-18,日東商事株式会社,,株式会社,富山県,高岡市,西藤平蔵１０７番地４,,16,202,9330824,,,,,,,2024-07-18,1,,,,,ニットウショウジ,0
408,2260001039266,新規,0,2024-07-18,2024-07-18,株式会社幸輝,,株式会社,岡山県,岡山市東区,神崎町４２９番地,,33,103,7048138,,,,,,,2024-07-18,1,,,,,コウキ,0
409,2270003001644,新規,0,2024-07-18,2024-07-18,合同会社エス・ワイ・エム,,合同会社,鳥取県,鳥取市,扇町１２８番地２階,,31,201,6800846,,,,,,,2024-07-18,1,,,,,エスワイエム,0
417,2290001106443,新規,0,2024-07-18,2024-07-18,株式会社アーチ,,株式会社,福岡県,福岡市南区,市崎１丁目２番８号,,40,134,8150084,,,,,,,2024-07-18,1,,,,,アーチ,0
418,2290001106451,新規,0,2024-07-18,2024-07-18,ＡＮＤ　ｃｒｅａｔｅ株式会社,,株式会社,福岡県,福岡市城南区,梅林１丁目１４番７号,,40,136,8140144,,,,,,,2024-07-18,1,,,,,アンドクリエイト,0
424,2290003015527,新規,0,2024-07-18,2024-07-18,合同会社大和,,合同会社,福岡県,宗像市,ひかりヶ丘５丁目２番地２９,,40,220,8113403,,,,,,,2024-07-18,1,,,,,ヤマト,0
428,2300003002151,新規,0,2024-07-18,2024-07-18,フルラ合同会社,,合同会社,佐賀県,唐津市,浜玉町大江２０番地１,,41,202,8495103,,,,,,,2024-07-18,1,,,,,,0
430,2320001020590,新規,0,2024-07-18,2024-07-18,龍商事株式会社,,株式会社,大分県,日田市,大字日高２５９３番地１,,44,204,8770000,,,,,,,2024-07-18,1,,,,,リュウショウジ,0
431,2320001020599,新規,0,2024-07-18,2024-07-18,株式会社西日本解体工業,,株式会社,大分県,大分市,賀来南１丁目１番７９号第２由布コーポ１Ｆ,,44,201,8700849,,,,,,,2024-07-18,1,,,,,ニシニホンカイタイコウギョウ,0
432,2320003004427,新規,0,2024-07-18,2024-07-18,北中組合同会社,,合同会社,大分県,別府市,大字鶴見２１３番地,,44,202,8740840,,,,,,,2024-07-18,1,,,,,キタジュウグミ,0
467,2430005015023,新規,0,2024-07-18,2024-07-18,ＮＰＯ法人Ｃｒｅａｔｅ　ｂｌｉｓｓ,,その他の設立登記法人,北海道,札幌市東区,北七条東７丁目２１番地３サンコート北７条壱番館５０１号,,01,103,0600907,,,,,,,2024-07-18,1,,,,,クリエイトブリス,0
482,3010003044255,新規,0,2024-07-18,2024-07-18,合同会社ＬＵ,,合同会社,東京都,中央区,日本橋室町１丁目１１番１２号,,13,102,1030022,,,,,,,2024-07-18,1,,,,,エルユー,0
483,3010003044288,新規,0,2024-07-18,2024-07-18,合同会社インターマックス,,合同会社,東京都,千代田区,神田駿河台２番９－１号,,13,101,1000000,,,,,,,2024-07-18,1,,,,,インターマックス,0
489,3010401183803,新規,0,2024-07-18,2024-07-18,ＭＸＮ株式会社,,株式会社,東京都,港区,麻布永坂町１番５３号ＴＨＥＰＥＡＫ麻布永坂５０１号室,,13,103,1060043,,,,,,,2024-07-18,1,,,,,エムエクスエヌ,0
490,3010401183869,新規,0,2024-07-18,2024-07-18,株式会社ＮＴＬ３８,,株式会社,東京都,港区,港南１丁目２番７０号,,13,103,1080075,,,,,,,2024-07-18,1,,,,,エヌティエルサンジュウハチ,0
494,3010403033056,新規,0,2024-07-18,2024-07-18,カイトゴルフ合同会社,,合同会社,東京都,港区,六本木１丁目９番１０号アークヒルズ仙石山森タワー４０階,,13,103,1060032,,,,,,,2024-07-18,1,,,,,カイトゴルフ,0
504,3010603010961,新規,0,2024-07-18,2024-07-18,合同会社ＣＯＬＴ,,合同会社,東京都,墨田区,東向島２丁目３４－１０－２階,,13,107,1310032,,,,,,,2024-07-18,1,,,,,コルト,0
509,3010703007255,新規,0,2024-07-18,2024-07-18,合同会社ｓｔｕｄｉｏ４２,,合同会社,東京都,品川区,上大崎３丁目１０番１－４０２号,,13,109,1410021,,,,,,,2024-07-18,1,,,,,スタジオヨンニ,0
514,3010803005019,新規,0,2024-07-18,2024-07-18,合同会社フォンフォン,,合同会社,東京都,大田区,田園調布１丁目１番１１号アールブラン田園調布３０１,,13,111,1450071,,,,,,,2024-07-18,1,,,,,フォンフォン,0
515,3010901055642,新規,0,2024-07-18,2024-07-18,ＯＺホールディングス株式会社,,株式会社,東京都,世田谷区,北沢２丁目９番２１号,,13,112,1550031,,,,,,,2024-07-18,1,,,,,オーゼットホールディングス,0
524,3011001163328,新規,0,2024-07-18,2024-07-18,株式会社ハリサモ,,株式会社,東京都,渋谷区,代々木４丁目２２－１１－１Ｆ号,,13,113,1510053,,,,,,,2024-07-18,1,,,,,ハリサモ,0
525,3011001163336,新規,0,2024-07-18,2024-07-18,株式会社お助け飲食サービス,,株式会社,東京都,渋谷区,南平台町１９番１７号南平台スクエアＣ,,13,113,1500036,,,,,,,2024-07-18,1,,,,,オタスケインショクサービス,0
526,3011003019619,新規,0,2024-07-18,2024-07-18,合同会社ＡＫ　Ｅｓｔａｔｅ,,合同会社,東京都,渋谷区,渋谷２丁目１９‐１５宮益坂ビルディング６０９,,13,113,1500002,,,,,,,2024-07-18,1,,,,,エーケーエステート,0
543,3012401042105,新規,0,2024-07-18,2024-07-18,株式会社Ｆａｃｅ‐Ｆｏｗａｒｄ,,株式会社,東京都,府中市,西原町４丁目４１番地の２６,,13,206,1830046,,,,,,,2024-07-18,1,,,,,フェイスフォワード,0
545,3012403006669,新規,0,2024-07-18,2024-07-18,合同会社セブンスカラー,,合同会社,東京都,狛江市,元和泉２丁目２９番１２号,,13,219,2010013,,,,,,,2024-07-18,1,,,,,セブンスカラー,0
546,3012801023340,新規,0,2024-07-18,2024-07-18,株式会社プラチナムピュアウォーター,,株式会社,東京都,国立市,谷保６０３７－１,,13,215,1860011,,,,,,,2024-07-18,1,,,,,プラチナムピュアウォーター,0
547,3013103001357,新規,0,2024-07-18,2024-07-18,合同会社ＤＲＩＢＡＲ,,合同会社,東京都,青梅市,新町３丁目１８番地１ローズガーデンビル３Ｆ,,13,205,1980024,,,,,,,2024-07-18,1,,,,,ドライバー,0
549,3013301052838,新規,0,2024-07-18,2024-07-18,ユニバーサルグッズ株式会社,,株式会社,東京都,豊島区,南大塚２丁目１１番１０号ミモザビル３階,,13,116,1700005,,,,,,,2024-07-18,1,,,,,ユニバーサルグッズ,0
550,3013301052846,新規,0,2024-07-18,2024-07-18,株式会社ＢＥＳＴ　ＯＮＥ,,株式会社,東京都,豊島区,池袋４丁目２番１２号第三末好ビル５０１号,,13,116,1710014,,,,,,,2024-07-18,1,,,,,ベストワン,0
551,3013301052854,新規,0,2024-07-18,2024-07-18,江和緑嘉株式会社,,株式会社,東京都,豊島区,東池袋２丁目６番６号ストーク東池袋４０９号室,,13,116,1700013,,,,,,,2024-07-18,1,,,,,エワミドリカ,0
552,3013303007229,新規,0,2024-07-18,2024-07-18,オーライジャパン東京運転代行合同会社,,合同会社,東京都,豊島区,巣鴨１丁目１７番８号Ｂ１階,,13,116,1700002,,,,,,,2024-07-18,1,,,,,オーライジャパントウキョウウンテンダイコウ,0
561,3021003014783,新規,0,2024-07-18,2024-07-18,合同会社山岸商事,,合同会社,神奈川県,横須賀市,野比１丁目１７番１２号,,14,201,2390841,,,,,,,2024-07-18,1,,,,,ヤマギシショウジ,0
577,3040003025434,新規,0,2024-07-18,2024-07-18,合同会社ザアイブロウ千葉,,合同会社,千葉県,船橋市,本町６丁目３番２３号パルテール船橋３０４,,12,204,2730005,,,,,,,2024-07-18,1,,,,,ザアイブロウチバ,0
583,3060001037306,新規,0,2024-07-18,2024-07-18,エコアールトレーディング株式会社,,株式会社,栃木県,足利市,久保田町８３８番地１,,09,202,3260324,,,,,,,2024-07-18,1,,,,,エコアールトレーディング,0
607,3120001266278,新規,0,2024-07-18,2024-07-18,株式会社Ｒ．Ｄ．Ｃ,,株式会社,大阪府,大阪市西区,新町２丁目５番１－１８０７号,,27,106,5500013,,,,,,,2024-07-18,1,,,,,アールディーシー,0
608,3120001266690,新規,0,2024-07-18,2024-07-18,篠山株式会社,,株式会社,大阪府,大阪市北区,本庄西２丁目９番３号,,27,127,5310073,,,,,,,2024-07-18,1,,,,,ササヤマ,0
609,3120001266699,新規,0,2024-07-18,2024-07-18,Ａｋａｔｓｕｋｉ　Ｃａｐｉｔａｌ　Ｗｏｒｋｓ株式会社,,株式会社,大阪府,大阪市北区,梅田１丁目１番３号大阪駅前第３ビル２９階１－１－１号室,,27,127,5300001,,,,,,,2024-07-18,1,,,,,アカツキキャピタルワークス,0
610,3120003027059,新規,0,2024-07-18,2024-07-18,合同会社はなぶさ,,合同会社,大阪府,大阪市天王寺区,上汐４丁目４－２３サンプラザ上汐ビル２０１号,,27,109,5430002,,,,,,,2024-07-18,1,,,,,ハナブサ,0
617,3122001038277,新規,0,2024-07-18,2024-07-18,株式会社ＲＥＳＯＲＴ　Ｘ,,株式会社,大阪府,東大阪市,東石切町４丁目１３番５８号,,27,227,5798011,,,,,,,2024-07-18,1,,,,,リゾートエックス,0
621,3130001077518,新規,0,2024-07-18,2024-07-18,ミナミ技研株式会社,,株式会社,京都府,木津川市,山城町上狛西明官７－２,,26,214,6190204,,,,,,,2024-07-18,1,,,,,ミナミギケン,0
623,3130003009700,新規,0,2024-07-18,2024-07-18,合同会社Ｈａｐｐｙ　Ｇｒｅｅｎ,,合同会社,京都府,綴喜郡井手町,大字多賀小字宮ノ後６番地,,26,343,6100301,,,,,,,2024-07-18,1,,,,,ハッピーグリーン,0
626,3140001135076,新規,0,2024-07-18,2024-07-18,株式会社ライズ,,株式会社,兵庫県,神戸市中央区,磯辺通１丁目１番１８号カサベラ国際プラザビル７０７号室,,28,110,6510084,,,,,,,2024-07-18,1,,,,,ライズ,0
627,3140001135134,新規,0,2024-07-18,2024-07-18,株式会社大協設備,,株式会社,兵庫県,西宮市,津門飯田町３番２２号,,28,204,6638242,,,,,,,2024-07-18,1,,,,,ダイキョウセツビ,0
628,3140001135159,新規,0,2024-07-18,2024-07-18,株式会社ＳＨＩＢＡＬＡＢＯ,,株式会社,兵庫県,芦屋市,三条町２０－５,,28,206,6590087,,,,,,,2024-07-18,1,,,,,シバラボ,0
645,3180001162447,新規,0,2024-07-18,2024-07-18,株式会社優しい風,,株式会社,愛知県,名古屋市西区,浮野町１０６番地の１,,23,104,4520846,,,,,,,2024-07-18,1,,,,,ヤサシイカゼ,0
648,3180003027078,新規,0,2024-07-18,2024-07-18,ＪＩ自動車合同会社,,合同会社,愛知県,名古屋市港区,惟信町１丁目２番地ドエルウエスト７０１号,,23,111,4550823,,,,,,,2024-07-18,1,,,,,ジェーアイジドウシャ,0
649,3180301038842,新規,0,2024-07-18,2024-07-18,株式会社令明,,株式会社,愛知県,碧南市,西浜町６丁目１番地３,,23,209,4470843,,,,,,,2024-07-18,1,,,,,レイメイ,0
650,3180301038850,新規,0,2024-07-18,2024-07-18,株式会社ＭＯ‐ＬＩＢ,,株式会社,愛知県,岡崎市,能見通１丁目６１番地ウメムラビル１Ｆ,,23,202,4440073,,,,,,,2024-07-18,1,,,,,モーリブ,0
653,3180305009591,新規,0,2024-07-18,2024-07-18,一般社団法人桜梅桃李,,その他の設立登記法人,愛知県,岡崎市,鉢地町字下中野２３番地１４,,23,202,4443512,,,,,,,2024-07-18,1,,,,,オウバイトウリ,0
659,3190003004745,新規,0,2024-07-18,2024-07-18,ＢＩＧＢＯＭＭＡＲＫＥＴ合同会社,,合同会社,三重県,伊賀市,印代３３３番地,,24,216,5180008,,,,,,,2024-07-18,1,,,,,ビッグボンマーケット,0
660,3190005011970,新規,0,2024-07-18,2024-07-18,医療法人桜森会,,その他の設立登記法人,三重県,鈴鹿市,岸岡町３３９０番地,,24,207,5100226,,,,,,,2024-07-18,1,,,,,オウシンカイ,0
665,3220001026093,新規,0,2024-07-18,2024-07-18,株式会社ＴＯＰ‐ＮＯＴＣＨ,,株式会社,石川県,金沢市,矢木２丁目１３９番地１０１,,17,201,9218066,,,,,,,2024-07-18,1,,,,,トップノッチ,0
670,3240001063531,新規,0,2024-07-18,2024-07-18,Ｂｕｉｌｄｉｎｇ　Ｉｎｆｏｒｍａｔｉｏｎ　Ｍｏｄｅｌｉｎｇ株式会社,,株式会社,広島県,福山市,明王台３丁目２番３３号,,34,207,7200834,,,,,,,2024-07-18,1,,,,,ビルディングインフォメーションモデリング,0
671,3240001063548,新規,0,2024-07-18,2024-07-18,株式会社ｉｔｏｒｏｋｕ,,株式会社,広島県,山県郡北広島町,有田３３５３番地１４,,34,369,7311533,,,,,,,2024-07-18,1,,,,,イトロク,0
678,3260005011377,新規,0,2024-07-18,2024-07-18,一般社団法人Ｃ‐ＰＬＡＣＥ,,その他の設立登記法人,岡山県,倉敷市,玉島上成３７１番地１７,,33,202,7138101,,,,,,,2024-07-18,1,,,,,シープレイス,0
680,3290001106434,新規,0,2024-07-18,2024-07-18,ｓｐｏｏｎ株式会社,,株式会社,福岡県,福岡市中央区,警固２丁目２番２３号,,40,133,8100023,,,,,,,2024-07-18,1,,,,,スプーン,0
681,3290001106450,新規,0,2024-07-18,2024-07-18,ＡＮＤ　ＰＲＯＰＥＲＴＹ株式会社,,株式会社,福岡県,糟屋郡須惠町,大字須惠３４６番地２１,,40,344,8112113,,,,,,,2024-07-18,1,,,,,アンドプロパティ,0
682,3290003015534,新規,0,2024-07-18,2024-07-18,合同会社Ｋｕｒａｍｏｃｈｉ　Ｃｏ．,,合同会社,福岡県,糸島市,蔵持８４１－１,,40,230,8191141,,,,,,,2024-07-18,1,,,,,クラモチカンパニー,0
683,3290003015550,新規,0,2024-07-18,2024-07-18,合同会社Ｎｏｎ　ＣＯＬＯＲ,,合同会社,福岡県,久留米市,三潴町生岩１２７８番地１,,40,203,8300113,,,,,,,2024-07-18,1,,,,,ノンカラー,0
691,3320003004426,新規,0,2024-07-18,2024-07-18,合同会社大吉,,合同会社,大分県,別府市,田の湯町３番７号,,44,202,8740909,,,,,,,2024-07-18,1,,,,,ダイキチ,0
699,3360001033951,新規,0,2024-07-18,2024-07-18,株式会社琉球食品館,,株式会社,沖縄県,沖縄市,越来３丁目１２番４０号,,47,211,9040001,,,,,,,2024-07-18,1,,,,,リュウキュウショクヒンカン,0
702,3360003014157,新規,0,2024-07-18,2024-07-18,合同会社ＭＩＣＨＩ　ＰＬＵＳ,,合同会社,沖縄県,那覇市,識名３丁目１３番１０号仲宗根アパート２０５,,47,201,9020078,,,,,,,2024-07-18,1,,,,,ミチプラス,0
705,3370001051523,新規,0,2024-07-18,2024-07-18,株式会社Ｕ‐ＭＡカンパニー,,株式会社,宮城県,仙台市若林区,河原町１丁目１番２号,,04,103,9840816,,,,,,,2024-07-18,1,,,,,ウーマカンパニー,0
728,3470003002679,新規,0,2024-07-18,2024-07-18,合同会社クローネ学園,,合同会社,香川県,高松市,塩上町３丁目８－１１クリエイトビル４０１号,,37,201,7600062,,,,,,,2024-07-18,1,,,,,クローネガクエン,0
748,4010401183785,新規,0,2024-07-18,2024-07-18,ＣｈｏｐＶａｌｕｅ　Ｍａｎｕｆａｃｔｕｒｉｎｇ　Ｊａｐａｎ株式会社,,株式会社,東京都,港区,元麻布３丁目１番６号,,13,103,1060046,,,,,,,2024-07-18,1,,,,,チョップバリューマニュファクチャリングジャパン,0
749,4010401183810,新規,0,2024-07-18,2024-07-18,株式会社Ｉｎｆｉｎｉｔｙ＆Ｃｏ,,株式会社,東京都,港区,赤坂９丁目２番１３号ｎｉｎｅｔｙｔｗｏ１３－４０６,,13,103,1070052,,,,,,,2024-07-18,1,,,,,インフィニティアンドコー,0
750,4010401183868,新規,0,2024-07-18,2024-07-18,株式会社Ｈｉｙａｍｉｚｕ　Ｓａｋｅ　Ｌａｂ,,株式会社,東京都,港区,芝５丁目１６番１４号三田ノックスビル,,13,103,1080014,,,,,,,2024-07-18,1,,,,,ヒヤミズサケラボ,0
755,4010501052618,新規,0,2024-07-18,2024-07-18,株式会社オーエホールディングス,,株式会社,東京都,台東区,蔵前２丁目６番３号ＪＭビル６Ｆ,,13,106,1110051,,,,,,,2024-07-18,1,,,,,オーエホールディングス,0
756,4010501052626,新規,0,2024-07-18,2024-07-18,株式会社ＯＮＥ　ＪＡＰＡＮ,,株式会社,東京都,台東区,台東１丁目２４番９号ブライト秋葉原Ｂ１Ｆ,,13,106,1100016,,,,,,,2024-07-18,1,,,,,ワンジャパン,0
757,4010503007520,新規,0,2024-07-18,2024-07-18,Ｆａｉｔｈ７２ＴＯＫＹＯ合同会社,,合同会社,東京都,台東区,柳橋２丁目１４－２アリス・マナーガーデン浅草橋７０２号室,,13,106,1110052,,,,,,,2024-07-18,1,,,,,,0
758,4010505003542,新規,0,2024-07-18,2024-07-18,一般社団法人コミュニティアート研究所,,その他の設立登記法人,東京都,台東区,東上野２丁目２番７号渡邉ビル２階,,13,106,1100015,,,,,,,2024-07-18,1,,,,,コミュニティアートケンキュウショ,0
761,4010601065569,新規,0,2024-07-18,2024-07-18,株式会社ダイレン,,株式会社,東京都,墨田区,本所２丁目１０番５号稲葉ビル４０１,,13,107,1300004,,,,,,,2024-07-18,1,,,,,ダイレン,0
762,4010603010960,新規,0,2024-07-18,2024-07-18,日本グリーンエネルギー合同会社,,合同会社,東京都,江東区,佐賀２丁目８‐６ウエリスアーバン水天宮前７０５号室,,13,108,1350031,,,,,,,2024-07-18,1,,,,,ニホングリーンエネルギー,0
768,4010803005026,新規,0,2024-07-18,2024-07-18,ＭＤＸ　Ａｄｖｉｓｏｒｙ合同会社,,合同会社,東京都,大田区,田園調布１丁目５０番３号,,13,111,1450071,,,,,,,2024-07-18,1,,,,,エムディーエックスアドバイゾリー,0
770,4010903009224,新規,0,2024-07-18,2024-07-18,Ｒｅｔｒｏｎｙｍ　Ｌｉｖｅｈｏｕｓｅ　ａｎｄ　Ａｒｔ　Ｓｔｕｄｉｏ合同会社,,合同会社,東京都,世田谷区,北沢３丁目２０番１１－３０２号,,13,112,1550031,,,,,,,2024-07-18,1,,,,,レトロニムライブハウスアンドアートスタジオ,0
773,4011001163327,新規,0,2024-07-18,2024-07-18,ＥｉｇｈｔＢｅｔ株式会社,,株式会社,東京都,渋谷区,渋谷２丁目１９－１５宮益坂ビルディング６０９,,13,113,1500002,,,,,,,2024-07-18,1,,,,,エイトベット,0
779,4011201025640,新規,0,2024-07-18,2024-07-18,株式会社Ｓｍｉｌｅ　Ｌａｂｏ,,株式会社,東京都,中野区,中野３丁目４４番８号,,13,114,1640001,,,,,,,2024-07-18,1,,,,,スマイルラボ,0
781,4011401026265,新規,0,2024-07-18,2024-07-18,立明電業株式会社,,株式会社,東京都,板橋区,宮本町２７番６号,,13,119,1740054,,,,,,,2024-07-18,1,,,,,リツメイデンギョウ,0
782,4011403004450,新規,0,2024-07-18,2024-07-18,仁義合同会社,,合同会社,東京都,板橋区,蓮根２丁目３１番２３号４Ｆ,,13,119,1740046,,,,,,,2024-07-18,1,,,,,ジンギ,0
784,4011503006149,新規,0,2024-07-18,2024-07-18,合同会社拓匠塗装,,合同会社,東京都,荒川区,町屋５丁目９番２－２１０４号,,13,118,1160001,,,,,,,2024-07-18,1,,,,,タクミトソウ,0
788,4011801044536,新規,0,2024-07-18,2024-07-18,ズズ貿易商事株式会社,,株式会社,東京都,足立区,東伊興３丁目１７番９号バンウッド２１１,,13,121,1210801,,,,,,,2024-07-18,1,,,,,ズズボウエキショウジ,0
789,4011803006336,新規,0,2024-07-18,2024-07-18,菊地コンサルティングオフィス合同会社,,合同会社,東京都,足立区,西新井栄町１丁目１８番１１－１２０５号,,13,121,1230843,,,,,,,2024-07-18,1,,,,,キクチコンサルティングオフィス,0
795,4012701018357,新規,0,2024-07-18,2024-07-18,株式会社鯱,00135617,株式会社,東京都,東久留米市,浅間町３丁目５番１２号,,13,222,2030012,,,,,,,2024-07-18,1,,,,,シャチ,0
800,4013301052837,新規,0,2024-07-18,2024-07-18,株式会社ＴＥＲＡＳ,,株式会社,東京都,豊島区,南池袋２丁目８番５号ＭＩビル７階,,13,116,1710022,,,,,,,2024-07-18,1,,,,,テラス,0
801,4013301052845,新規,0,2024-07-18,2024-07-18,Ｊ’ｓコンサルティング株式会社,,株式会社,東京都,豊島区,南大塚３丁目１番１２－１２０２号,,13,116,1700005,,,,,,,2024-07-18,1,,,,,ジェイズコンサルティング,0
806,4020001158039,新規,0,2024-07-18,2024-07-18,株式会社コウリントラスト,,株式会社,神奈川県,横浜市青葉区,美しが丘３丁目５５番地８,,14,117,2250002,,,,,,,2024-07-18,1,,,,,コウリントラスト,0
807,4020001158055,新規,0,2024-07-18,2024-07-18,Ｎｅｘｔ　Ｗａｙ株式会社,,株式会社,神奈川県,横浜市南区,中島町１丁目１３番地ライオンズマンション横浜蒔田３０４,,14,105,2320055,,,,,,,2024-07-18,1,,,,,ネクストウェイ,0
828,4030001161462,新規,0,2024-07-18,2024-07-18,株式会社ＨＩＧＨ　ＨＯＰＥ,,株式会社,埼玉県,川口市,大字峯１２３７番地３,,11,203,3340056,,,,,,,2024-07-18,1,,,,,ハイホープ,0
829,4030001161479,新規,0,2024-07-18,2024-07-18,株式会社飯島総業,,株式会社,埼玉県,川越市,南大塚６丁目１番地２７,,11,201,3501162,,,,,,,2024-07-18,1,,,,,イイジマソウギョウ,0
830,4030001161504,新規,0,2024-07-18,2024-07-18,エム・オーエステート株式会社,,株式会社,埼玉県,さいたま市見沼区,大字中川９９７番地２プリントス２０６号室,,11,104,3370043,,,,,,,2024-07-18,1,,,,,エムオーエステート,0
834,4030005021761,新規,0,2024-07-18,2024-07-18,ＮＰＯ法人エンジョイネイチャー,,その他の設立登記法人,埼玉県,坂戸市,大字多和目３９８番地,,11,239,3500246,,,,,,,2024-07-18,1,,,,,エンジョイネイチャー,0
838,4040001134491,新規,0,2024-07-18,2024-07-18,株式会社ＯＮＥ‐４‐ＯＮＥ,,株式会社,千葉県,柏市,正連寺２３８－３,,12,217,2770814,,,,,,,2024-07-18,1,,,,,ワンフォーワン,0
839,4040001134558,新規,0,2024-07-18,2024-07-18,株式会社ＤＭシェアード,,株式会社,千葉県,流山市,流山８丁目１０３９番地の１ＴＳＧ流山ビル１階,,12,220,2700164,,,,,,,2024-07-18,1,,,,,ディーエムシェアード,0
840,4040001134566,新規,0,2024-07-18,2024-07-18,ステラプロパティー株式会社,,株式会社,千葉県,千葉市稲毛区,小中台町１５１３番地３アインズコートプライム棟１１２号,,12,103,2630044,,,,,,,2024-07-18,1,,,,,ステラプロパティー,0
841,4040001134582,新規,0,2024-07-18,2024-07-18,株式会社三矢コーポレーション,,株式会社,千葉県,千葉市緑区,古市場町３９２番地７サニーリヴＦ３０１号,,12,105,2660026,,,,,,,2024-07-18,1,,,,,ミツヤコーポレーション,0
842,4040003025391,新規,0,2024-07-18,2024-07-18,合同会社ａｔｏｍｓ,,合同会社,千葉県,大網白里市,細草９２０－７,,12,239,2993211,,,,,,,2024-07-18,1,,,,,アトムス,0
843,4040003025425,新規,0,2024-07-18,2024-07-18,Ｋ　Ｐｌａｎｎｉｎｇ合同会社,,合同会社,千葉県,八千代市,緑が丘１丁目１１０６番地５,,12,221,2760049,,,,,,,2024-07-18,1,,,,,ケイプランニング,0
852,4060001037271,新規,0,2024-07-18,2024-07-18,株式会社Ｌａ　ｃｈｉｃ　ｍｉｂｕ,,株式会社,栃木県,下都賀郡壬生町,大字国谷１５３２番地１,,09,361,3210211,,,,,,,2024-07-18,1,,,,,ラシックミブ,0
855,4060005010225,新規,0,2024-07-18,2024-07-18,特定非営利活動法人Ｌａｋｅｓｉｄｅ　Ｓｔｏｒｉｅｓ,,その他の設立登記法人,栃木県,さくら市,上阿久津１７４５番地,,09,214,3291316,,,,,,,2024-07-18,1,,,,,レイクサイドストーリーズ,0
858,4080003003253,新規,0,2024-07-18,2024-07-18,ハート合同会社,,合同会社,静岡県,静岡市駿河区,馬渕２丁目１５番２３号,,22,102,4228063,,,,,,,2024-07-18,1,,,,,ハート,0
869,4120001266640,新規,0,2024-07-18,2024-07-18,ＨＥＳ株式会社,,株式会社,大阪府,大阪市中央区,宗右衛門町７番１６号１階,,27,128,5420084,,,,,,,2024-07-18,1,,,,,エイチイーエス,0
870,4120001266855,新規,0,2024-07-18,2024-07-18,株式会社ひまわり,,株式会社,大阪府,大阪市中央区,高麗橋１丁目３番１７号,,27,128,5410043,,,,,,,2024-07-18,1,,,,,ヒマワリ,0
871,4120001266913,新規,0,2024-07-18,2024-07-18,風信株式会社,,株式会社,大阪府,大阪市城東区,関目５丁目１９番９号関目花博公館１０７Ａ,,27,118,5360008,,,,,,,2024-07-18,1,,,,,フウシン,0
874,4120003027058,新規,0,2024-07-18,2024-07-18,合同会社くるむ,,合同会社,大阪府,大阪市中央区,日本橋１丁目１１番２号Ｈ２Ｈ国立文楽劇場高級マンション５０Ａ,,27,128,5420073,,,,,,,2024-07-18,1,,,,,クルム,0
875,4120003027066,新規,0,2024-07-18,2024-07-18,岡村健康増進会合同会社,,合同会社,大阪府,大阪市北区,梅田１丁目２番２号大阪駅前第２ビル１２－１２,,27,127,5300001,,,,,,,2024-07-18,1,,,,,オカムラケンコウゾウシンカイ,0
878,4120101069951,新規,0,2024-07-18,2024-07-18,株式会社アナザーエイト,,株式会社,大阪府,堺市南区,竹城台３丁９番２１号,,27,145,5900105,,,,,,,2024-07-18,1,,,,,アナザーエイト,0
884,4120903005261,新規,0,2024-07-18,2024-07-18,合同会社Ｋ２,,合同会社,大阪府,豊中市,緑丘３丁目２９番１５－８２１号,,27,203,5600002,,,,,,,2024-07-18,1,,,,,ケイツー,0
887,4122001038276,新規,0,2024-07-18,2024-07-18,Ｅ　ＨＯＭＥ株式会社,,株式会社,大阪府,東大阪市,吉田６丁目２番５５号サンハイツユカミ７０１,,27,227,5780924,,,,,,,2024-07-18,1,,,,,イーホーム,0
888,4130003009699,新規,0,2024-07-18,2024-07-18,合同会社ＥＳＰ,,合同会社,京都府,京都市中京区,錦小路通東洞院東入西魚屋町６０４番地５,,26,104,6048142,,,,,,,2024-07-18,1,,,,,イーエスピー,0
892,4140001135141,新規,0,2024-07-18,2024-07-18,ポップコーンパーティー株式会社,,株式会社,兵庫県,神戸市垂水区,塩屋町６丁目２５番４５号,,28,108,6550872,,,,,,,2024-07-18,1,,,,,ポップコーンパーティー,0
897,4160001026074,新規,0,2024-07-18,2024-07-18,株式会社みやびホールディングス,,株式会社,滋賀県,大津市,桜野町２丁目１０番２１号,,25,201,5200026,,,,,,,2024-07-18,1,,,,,,0
905,4180001162355,新規,0,2024-07-18,2024-07-18,株式会社ＫＡＴＡＺＵＫＥ,,株式会社,愛知県,名古屋市熱田区,旗屋２丁目２８番１３号,,23,109,4560027,,,,,,,2024-07-18,1,,,,,カタズケ,0
906,4180001162363,新規,0,2024-07-18,2024-07-18,株式会社おだでん,,株式会社,愛知県,名古屋市中川区,万場１丁目７０１番地の３,,23,110,4540997,,,,,,,2024-07-18,1,,,,,オダデン,0
907,4180001162438,新規,0,2024-07-18,2024-07-18,ｃｕｌｔｕｒｅ　ｂｏｘ株式会社,,株式会社,愛知県,瀬戸市,西原町２丁目１番地１せと丸ビル２階２Ａ号室,,23,204,4890972,,,,,,,2024-07-18,1,,,,,カルチャーボックス,0
912,4180301038841,新規,0,2024-07-18,2024-07-18,ｋｍｅｔａｌ株式会社,,株式会社,愛知県,豊川市,牛久保町八幡口９８番地８,,23,207,4420826,,,,,,,2024-07-18,1,,,,,ケイメタル,0
913,4180303006193,新規,0,2024-07-18,2024-07-18,合同会社ＭＡＤ　ＪＡＭ,,合同会社,愛知県,岡崎市,西蔵前町字磯部前８番地４ＮｕｍｅｎｉａＡｏＢ,,23,202,4442147,,,,,,,2024-07-18,1,,,,,マッドジャム,0
914,4190001031492,新規,0,2024-07-18,2024-07-18,株式会社森人,,株式会社,三重県,津市,河芸町中別保２２０７番地,,24,201,5100305,,,,,,,2024-07-18,1,,,,,モリト,0
915,4190003004744,新規,0,2024-07-18,2024-07-18,合同会社Ｌｕｎａ,,合同会社,三重県,鈴鹿市,桜島町１丁目９番地の１,,24,207,5130817,,,,,,,2024-07-18,1,,,,,ルーナ,0
921,4200003006433,新規,0,2024-07-18,2024-07-18,合同会社ｍｔフラッペ,,合同会社,岐阜県,加茂郡川辺町,西栃井１５３８番地１,,21,503,5090305,,,,,,,2024-07-18,1,,,,,エムティーフラッペ,0
924,4240001063547,新規,0,2024-07-18,2024-07-18,ｅｎｔｉｒｅ　ｗｏｒｋｅｒ　Ｏｉ株式会社,,株式会社,広島県,尾道市,栗原町３５９４番地１,,34,205,7220022,,,,,,,2024-07-18,1,,,,,エンタイアーワーカーオイ,0
925,4240001063555,新規,0,2024-07-18,2024-07-18,株式会社ステノワールド,,株式会社,広島県,広島市佐伯区,五日市中央２丁目１１番２号,,34,108,7315128,,,,,,,2024-07-18,1,,,,,ステノワールド,0
927,4250001020737,新規,0,2024-07-18,2024-07-18,株式会社ライトカントリー,,株式会社,山口県,防府市,迫戸町６―９,,35,206,7470031,,,,,,,2024-07-18,1,,,,,ライトカントリー,0
934,4280003001864,新規,0,2024-07-18,2024-07-18,合同会社卓球スタジオゼッコウチョー,,合同会社,島根県,松江市,玉湯町湯町１４８番地２,,32,201,6990202,,,,,,,2024-07-18,1,,,,,タッキュウスタジオゼッコウチョー,0
936,4280005007620,新規,0,2024-07-18,2024-07-18,一般社団法人ＫＳＳスポーツクラブ,,その他の設立登記法人,島根県,松江市,西川津町６９０番地２４,,32,201,6900823,,,,,,,2024-07-18,1,,,,,ケイエスエススポーツクラブ,0
940,4290001106425,新規,0,2024-07-18,2024-07-18,サインリテールサポート株式会社,,株式会社,福岡県,福岡市博多区,新和町２丁目５番５号,,40,132,8120875,,,,,,,2024-07-18,1,,,,,サインリテールサポート,0
941,4290001106458,新規,0,2024-07-18,2024-07-18,株式会社脱炭素マーケティング２号,,株式会社,福岡県,福岡市中央区,舞鶴２丁目２－７第２赤坂門ビル２階,,40,133,8100073,,,,,,,2024-07-18,1,,,,,ダツタンソマーケティングニゴウ,0
942,4290001106532,新規,0,2024-07-18,2024-07-18,令和冷機空調株式会社,,株式会社,福岡県,久留米市,藤山町１６００番地６９,,40,203,8300053,,,,,,,2024-07-18,1,,,,,レイワレイキクウチョウ,0
944,4290003015533,新規,0,2024-07-18,2024-07-18,ダイワ合同会社,,合同会社,福岡県,春日市,下白水北７丁目７３番地,,40,218,8160854,,,,,,,2024-07-18,1,,,,,ダイワ,0
945,4290003015541,新規,0,2024-07-18,2024-07-18,合同会社優芯,,合同会社,福岡県,福岡市博多区,西月隈３丁目８番１１－６０１号,,40,132,8120857,,,,,,,2024-07-18,1,,,,,ユウシン,0
947,4290801030709,新規,0,2024-07-18,2024-07-18,株式会社着物レンタルおとは,,株式会社,福岡県,北九州市小倉北区,京町３丁目１５番１５－５０１号,,40,106,8020002,,,,,,,2024-07-18,1,,,,,キモノレンタルオトハ,0
948,4310001019112,新規,0,2024-07-18,2024-07-18,株式会社東工業,,株式会社,長崎県,佐世保市,松川町３番２－１２０４号,,42,202,8570804,,,,,,,2024-07-18,1,,,,,ヒガシコウギョウ,0
949,4320001020589,新規,0,2024-07-18,2024-07-18,株式会社Ｌａ　Ｖｉｅ　Ｐｌｕｓ,,株式会社,大分県,中津市,大字上宮永１１番地３,,44,203,8710027,,,,,,,2024-07-18,1,,,,,ラヴィエプラス,0
950,4320003004425,新規,0,2024-07-18,2024-07-18,合同会社ｏｔｔｏ,,合同会社,大分県,大分市,大字下郡３０５５番地の７サーパス下郡９０２,,44,201,8700951,,,,,,,2024-07-18,1,,,,,オット,0
953,4340001026650,新規,0,2024-07-18,2024-07-18,株式会社根から,,株式会社,鹿児島県,熊毛郡屋久島町,平内２６５番地,,46,505,8914406,,,,,,,2024-07-18,1,,,,,ネカラ,0
957,4340003004547,新規,0,2024-07-18,2024-07-18,合同会社ＧＯＬＤ　ＷＡＶＥ,,合同会社,鹿児島県,薩摩川内市,天辰町３０６番地３,,46,215,8950011,,,,,,,2024-07-18,1,,,,,ゴールドウェーブ,0
968,4370001051522,新規,0,2024-07-18,2024-07-18,なないろＡＨ株式会社,,株式会社,宮城県,仙台市若林区,なないろの里１丁目１９番地の３,,04,103,9840017,,,,,,,2024-07-18,1,,,,,ナナイロエーエイチ,0
969,4370003006680,新規,0,2024-07-18,2024-07-18,合同会社マインドマークス,,合同会社,宮城県,仙台市青葉区,二日町１７番２０‐１１０４号,,04,101,9800802,,,,,,,2024-07-18,1,,,,,マインドマークス,0
977,4410001013880,新規,0,2024-07-18,2024-07-18,あきたＮＥＯふぁーむ株式会社,,株式会社,秋田県,潟上市,天王字大長根７１番地７,,05,211,0100201,,,,,,,2024-07-18,1,,,,,アキタネオファーム,0
980,4430001092262,新規,0,2024-07-18,2024-07-18,株式会社ＦＵＪＩＴＡ,,株式会社,北海道,滝川市,緑町７丁目８番３７－７０１号第二日新マンション,,01,225,0730023,,,,,,,2024-07-18,1,,,,,フジタ,0
982,4470001020293,新規,0,2024-07-18,2024-07-18,株式会社ＳＩＧＮ　ＰＯＳＴ,,株式会社,香川県,高松市,伏石町１０７７番地１９,,37,201,7618071,,,,,,,2024-07-18,1,,,,,,0
998,5010001246272,新規,0,2024-07-18,2024-07-18,株式会社Ｓｔａｒｔ　Ｆｒｏｍ,,株式会社,東京都,中央区,銀座１丁目１２－４Ｎ＆ＥＢＬＤ．７階,,13,102,1040061,,,,,,,2024-07-18,1,,,,,スタートフロム,0
999,5010001246702,新規,0,2024-07-18,2024-07-18,株式会社サンドアート工房,,株式会社,東京都,千代田区,岩本町１丁目１２－１１トーア岩本町マンション５０３,,13,101,1010032,,,,,,,2024-07-18,1,,,,,サンドアートコウボウ,0
1001,5010103002391,新規,0,2024-07-18,2024-07-18,合同会社Ｎカンパニー,,合同会社,東京都,八王子市,中町２番１４号笹野ビル２階,,13,201,1920085,,,,,,,2024-07-18,1,,,,,エヌカンパニー,0
1009,5010401183801,新規,0,2024-07-18,2024-07-18,株式会社葉隠精神,,株式会社,東京都,港区,北青山１丁目３番１号アールキューブ青山３階,,13,103,1070061,,,,,,,2024-07-18,1,,,,,ハガクレセイシン,0
1010,5010401183842,新規,0,2024-07-18,2024-07-18,ＣＯＺＵＣＨＩ　ＢＡＮＫ株式会社,,株式会社,東京都,港区,北青山２丁目５番８号,,13,103,1070061,,,,,,,2024-07-18,1,,,,,コヅチバンク,0
1014,5010403033062,新規,0,2024-07-18,2024-07-18,ＴＸ８号合同会社,,合同会社,東京都,港区,浜松町２丁目２番１５号浜松町ダイヤビル２Ｆ,,13,103,1050013,,,,,,,2024-07-18,1,,,,,ティーエックスハチゴウ,0
1015,5010403033070,新規,0,2024-07-18,2024-07-18,合同会社Ｆｌａｔｉｃａｌ,,合同会社,東京都,港区,南青山２丁目２番１５号ウィン青山１２１４号,,13,103,1070062,,,,,,,2024-07-18,1,,,,,フラティカル,0
1016,5010405023383,新規,0,2024-07-18,2024-07-18,一般社団法人倉元きつけ学院,,その他の設立登記法人,東京都,港区,南青山５丁目５番１０号,,13,103,1070062,,,,,,,2024-07-18,1,,,,,クラモトキツケガクイン,0
1017,5010501052583,新規,0,2024-07-18,2024-07-18,株式会社塔木徳,00135607,株式会社,東京都,台東区,花川戸１丁目１３－１５ＳＣＲビル６０１号,,13,106,1110033,,,,,,,2024-07-18,1,,,,,タルムード,0
1018,5010501052617,新規,0,2024-07-18,2024-07-18,株式会社ＪＩＢＵＮ‐ＧＯＴＯ．,,株式会社,東京都,台東区,蔵前４丁目２１番１０号シャルム蔵前９０１号室,,13,106,1110051,,,,,,,2024-07-18,1,,,,,ジブンゴト,0
1019,5010505003541,新規,0,2024-07-18,2024-07-18,上野総合税理士法人,,その他の設立登記法人,東京都,台東区,東上野１丁目１３番７号,,13,106,1100015,,,,,,,2024-07-18,1,,,,,ウエノソウゴウ,0
1024,5010901055657,新規,0,2024-07-18,2024-07-18,株式会社Ｎｅｃｌｅ,,株式会社,東京都,世田谷区,瀬田５丁目３９番２０号２０４,,13,112,1580095,,,,,,,2024-07-18,1,,,,,ネクル,0
1029,5011003019583,新規,0,2024-07-18,2024-07-18,ロイヤーダイレクト合同会社,,合同会社,東京都,渋谷区,渋谷２丁目１９－１５宮益坂ビルディング,,13,113,1500002,,,,,,,2024-07-18,1,,,,,ロイヤーダイレクト,0
1032,5011101108081,新規,0,2024-07-18,2024-07-18,喜田株式会社,,株式会社,東京都,新宿区,上落合３丁目２６番２号,,13,104,1610034,,,,,,,2024-07-18,1,,,,,キダ,0
1035,5011401026272,新規,0,2024-07-18,2024-07-18,株式会社エレガントコンサルティング,,株式会社,東京都,板橋区,前野町６丁目１２－１０,,13,119,1740063,,,,,,,2024-07-18,1,,,,,エレガントコンサルティング,0
1052,5012701018356,新規,0,2024-07-18,2024-07-18,株式会社エスケープ,,株式会社,東京都,小平市,学園東町１丁目７番３９号,,13,211,1870043,,,,,,,2024-07-18,1,,,,,エスケープ,0
1060,5020001158095,新規,0,2024-07-18,2024-07-18,ＴｏＢｙ総研株式会社,,株式会社,神奈川県,横浜市西区,北幸２丁目１０－４８むつみビル３階,,14,103,2200004,,,,,,,2024-07-18,1,,,,,トビーソウケン,0
1068,5021001082748,新規,0,2024-07-18,2024-07-18,株式会社カーズ・コネクト,,株式会社,神奈川県,大和市,下鶴間２２８６番地１６,,14,213,2420001,,,,,,,2024-07-18,1,,,,,カーズコネクト,0
1075,5030001161461,新規,0,2024-07-18,2024-07-18,ＹｕＲｕＲｉ株式会社,,株式会社,埼玉県,戸田市,大字新曽１２３１番地の１４,,11,224,3350021,,,,,,,2024-07-18,1,,,,,ユルリ,0
1076,5030001161486,新規,0,2024-07-18,2024-07-18,株式会社Ａ　ＨＡＵＳ　Ｆ,,株式会社,埼玉県,越谷市,宮本町３丁目２１番地１－２０５,,11,222,3430806,,,,,,,2024-07-18,1,,,,,エーハウスエフ,0
1080,5030003024724,新規,0,2024-07-18,2024-07-18,合同会社コミュニティキッチン河越,,合同会社,埼玉県,川越市,霞ケ関北４丁目２２番地２２,,11,201,3501109,,,,,,,2024-07-18,1,,,,,コミュニティキッチンカワゴエ,0
1084,5040001134425,新規,0,2024-07-18,2024-07-18,株式会社メディフィールドＭＭＨＴ,,株式会社,千葉県,松戸市,牧の原２番地の９２,,12,207,2702267,,,,,,,2024-07-18,1,,,,,メディフィールドエムエムエイチティー,0
1085,5040001134549,新規,0,2024-07-18,2024-07-18,株式会社ＶＩＪＩ,,株式会社,千葉県,野田市,宮崎８１番地の４,,12,208,2780005,,,,,,,2024-07-18,1,,,,,ビジ,0
1086,5040001134557,新規,0,2024-07-18,2024-07-18,株式会社太陽,,株式会社,千葉県,千葉市中央区,村田町７９８番地１,,12,101,2600825,,,,,,,2024-07-18,1,,,,,タイヨウ,0
1087,5040001134581,新規,0,2024-07-18,2024-07-18,株式会社ＥＲＴ,,株式会社,千葉県,八千代市,高津１１９６番地７グリーンハイツ石井Ｂ－３０２,,12,221,2760036,,,,,,,2024-07-18,1,,,,,イーアールティー,0
1092,5040003025432,新規,0,2024-07-18,2024-07-18,ＣＣ　ＮＩＨＯＮ　ＣＯＲＰＯＲＡＴＩＯＮ合同会社,,合同会社,千葉県,山武郡芝山町,大里２８３３番地３大里クロスＣ１０１,,12,409,2891603,,,,,,,2024-07-18,1,,,,,シーシーニホンコーポレーション,0
1093,5040005022444,新規,0,2024-07-18,2024-07-18,医療法人社団知成会,,その他の設立登記法人,千葉県,千葉市中央区,弁天１丁目１５番３号リードシー千葉駅前ビル８階,,12,101,2600045,,,,,,,2024-07-18,1,,,,,チセイカイ,0
1104,5080105006442,新規,0,2024-07-18,2024-07-18,一般社団法人けやき美容クリニック,,その他の設立登記法人,静岡県,沼津市,大手町３丁目３番１５－５０３号,,22,203,4100801,,,,,,,2024-07-18,1,,,,,ケヤキビヨウクリニック,0
1109,5100003007655,新規,0,2024-07-18,2024-07-18,合同会社Ｃｈａｎｃｅ　Ｍｅｅｔｉｎｇｓ,,合同会社,長野県,長野市,稲里町田牧１８８番地４,,20,201,3812214,,,,,,,2024-07-18,1,,,,,チャンスミーティングス,0
1111,5110001038569,新規,0,2024-07-18,2024-07-18,株式会社ＤＯＳＴ　ＴＲＡＤＩＮＧ,,株式会社,新潟県,新潟市北区,松栄町２２４８番地１５,,15,101,9503113,,,,,,,2024-07-18,1,,,,,ドストトレーディング,0
1122,5120001266409,新規,0,2024-07-18,2024-07-18,盛豐株式会社,,株式会社,大阪府,大阪市中央区,高麗橋２丁目３番１５号上喜ビル６１２号室,,27,128,5410043,,,,,,,2024-07-18,1,,,,,モリトヨ,0
1123,5120001266870,新規,0,2024-07-18,2024-07-18,株式会社ＦＲＡＮ,,株式会社,大阪府,大阪市中央区,南船場２丁目７番１３号,,27,128,5420081,,,,,,,2024-07-18,1,,,,,フラン,0
1124,5120001266887,新規,0,2024-07-18,2024-07-18,青欣株式会社,,株式会社,大阪府,大阪市城東区,関目５丁目１９番９号関目花博公館１１３Ａ,,27,118,5360008,,,,,,,2024-07-18,1,,,,,セイキン,0
1125,5120001266895,新規,0,2024-07-18,2024-07-18,＿澄株式会社,00135608,株式会社,大阪府,大阪市生野区,巽中３丁目４番１９号,00135609,27,116,5440013,,,,,,,2024-07-18,1,,,,,イクトウ,0
1128,5120005024432,新規,0,2024-07-18,2024-07-18,医療法人朋明会,,その他の設立登記法人,大阪府,大阪市西区,阿波座１丁目１２番１５号,,27,106,5500011,,,,,,,2024-07-18,1,,,,,ホウメイカイ,0
1129,5120103005953,新規,0,2024-07-18,2024-07-18,一縷合同会社,,合同会社,大阪府,泉大津市,千原町２丁目２５－１５,,27,206,5950004,,,,,,,2024-07-18,1,,,,,イチル,0
1132,5120903005260,新規,0,2024-07-18,2024-07-18,合同会社Ｓｕｎｎｙ　Ｆｉｅｌｄ,,合同会社,大阪府,摂津市,別府２丁目２３－１３,,27,224,5660046,,,,,,,2024-07-18,1,,,,,サニーフィールド,0
1139,5130001077458,新規,0,2024-07-18,2024-07-18,ｏｆｔ株式会社,,株式会社,京都府,京都市中京区,烏丸通六角下る七観音町６２６,,26,104,6048162,,,,,,,2024-07-18,1,,,,,オフト,0
1140,5130001077466,新規,0,2024-07-18,2024-07-18,株式会社ピリカ,,株式会社,京都府,京都市西京区,上桂東ノ口町１２３－４０１,,26,111,6158221,,,,,,,2024-07-18,1,,,,,ピリカ,0
1141,5130001077474,新規,0,2024-07-18,2024-07-18,株式会社Ｂｒａｖｅ,,株式会社,京都府,京都市伏見区,深草車阪町２０番地５５,,26,109,6120803,,,,,,,2024-07-18,1,,,,,ブレイブ,0
1147,5140001135157,新規,0,2024-07-18,2024-07-18,株式会社オールウィン,,株式会社,兵庫県,神戸市東灘区,岡本９丁目６番１５－１号,,28,101,6580072,,,,,,,2024-07-18,1,,,,,オールウィン,0
1148,5140003020828,新規,0,2024-07-18,2024-07-18,ストーンホーム合同会社,,合同会社,兵庫県,神戸市中央区,磯辺通１丁目１番１８号カサベラ国際プラザビル７０７号,,28,110,6510084,,,,,,,2024-07-18,1,,,,,ストーンホーム,0
1151,5150003003311,新規,0,2024-07-18,2024-07-18,Ｍ．Ｒ．Ｔ．Ｈ合同会社,,合同会社,奈良県,天理市,長柄町２０９２番地２２,,29,204,6320062,,,,,,,2024-07-18,1,,,,,マース,0
1152,5160003003236,新規,0,2024-07-18,2024-07-18,合同会社ＢＲＯＴＨＥＲ’Ｓ,,合同会社,滋賀県,犬上郡豊郷町,大字高野瀬２６９番地３,,25,441,5291173,,,,,,,2024-07-18,1,,,,,ブラザーズ,0
1154,5170001018219,新規,0,2024-07-18,2024-07-18,株式会社ＭＡＳＴ,,株式会社,和歌山県,田辺市,芳養松原２丁目３０番１７号,,30,206,6460063,,,,,,,2024-07-18,1,,,,,マスト,0
1160,5180001162379,新規,0,2024-07-18,2024-07-18,株式会社サンミライズ,,株式会社,愛知県,名古屋市中区,大須４丁目１１番１７号日比野ユーハウスビル３階Ａ号室,,23,106,4600011,,,,,,,2024-07-18,1,,,,,サンミライズ,0
1161,5180001162429,新規,0,2024-07-18,2024-07-18,株式会社プラスエア,,株式会社,愛知県,名古屋市守山区,廿軒家１５番２２号エレストビル３Ｆ,,23,113,4630065,,,,,,,2024-07-18,1,,,,,プラスエア,0
1167,5180003027092,新規,0,2024-07-18,2024-07-18,合同会社ＯＣＤ,,合同会社,愛知県,名古屋市中村区,名駅４丁目２４番５号第二森ビル４０１,,23,105,4500002,,,,,,,2024-07-18,1,,,,,オーシーディー,0
1169,5180301038840,新規,0,2024-07-18,2024-07-18,株式会社シーセンテンス,,株式会社,愛知県,安城市,今池町２丁目１番１号コープ野村Ｃ－１０１０,,23,212,4460071,,,,,,,2024-07-18,1,,,,,シーセンテンス,0
1175,5200003006408,新規,0,2024-07-18,2024-07-18,合同会社ＡＫＡＭＩＣＨＩ,,合同会社,岐阜県,関市,西田原６３３番地３,,21,205,5013928,,,,,,,2024-07-18,1,,,,,アカミチ,0
1184,5240001063538,新規,0,2024-07-18,2024-07-18,株式会社ＴＤＴ,,株式会社,広島県,広島市西区,草津新町１丁目１２番１１号２Ｆ,,34,104,7330834,,,,,,,2024-07-18,1,,,,,ティディティ,0
1185,5240001063546,新規,0,2024-07-18,2024-07-18,株式会社ＡＮ,,株式会社,広島県,広島市西区,己斐中３丁目１１番２７号,,34,104,7330813,,,,,,,2024-07-18,1,,,,,アン,0
1192,5260001039271,新規,0,2024-07-18,2024-07-18,奨瑛株式会社,,株式会社,岡山県,岡山市南区,泉田４丁目１６番１７号ラフィネ芳泉１０１号室,,33,104,7000944,,,,,,,2024-07-18,1,,,,,ショウエイ,0
1193,5280001009215,新規,0,2024-07-18,2024-07-18,株式会社原田建築,,株式会社,島根県,松江市,西忌部町２１３８番地３１,,32,201,6900037,,,,,,,2024-07-18,1,,,,,ハラダケンチク,0
1197,5290001106432,新規,0,2024-07-18,2024-07-18,株式会社エイチフォープラス,,株式会社,福岡県,福岡市中央区,天神２丁目７番６号ＤＡＤＡビル５階,,40,133,8100001,,,,,,,2024-07-18,1,,,,,エイチフォープラス,0
1198,5290001106440,新規,0,2024-07-18,2024-07-18,株式会社ＣＯＡＳＴＬＩＮＥ,,株式会社,福岡県,飯塚市,八木山８５６－１,,40,205,8200047,,,,,,,2024-07-18,1,,,,,,0
1200,5290003015540,新規,0,2024-07-18,2024-07-18,合同会社センス,,合同会社,福岡県,福岡市早良区,内野１丁目１１番２３号,,40,137,8111123,,,,,,,2024-07-18,1,,,,,センス,0
1205,5310001019111,新規,0,2024-07-18,2024-07-18,株式会社ネクストステップ,,株式会社,長崎県,五島市,岐宿町岐宿１００１番地,,42,211,8530701,,,,,,,2024-07-18,1,,,,,ネクストステップ,0
1206,5320001020588,新規,0,2024-07-18,2024-07-18,株式会社Ｂｕｍｐ,,株式会社,大分県,由布市,挾間町鬼瀬４２３番地１,,44,213,8795521,,,,,,,2024-07-18,1,,,,,バンプ,0
1207,5320001020596,新規,0,2024-07-18,2024-07-18,株式会社ｎａｎａｉｒｏ,,株式会社,大分県,大分市,大字三芳１７７８番地の６,,44,201,8700030,,,,,,,2024-07-18,1,,,,,ナナイロ,0
1212,5370001051521,新規,0,2024-07-18,2024-07-18,株式会社ＴＫＳシステム,,株式会社,宮城県,仙台市宮城野区,出花１丁目９番３号ヴューポートオバタ２Ａ,,04,102,9830012,,,,,,,2024-07-18,1,,,,,ティーケーエスシステム,0
1234,5430003016557,新規,0,2024-07-18,2024-07-18,合同会社ＰＯＷＷＯＷ,,合同会社,北海道,江別市,西野幌１２７番地の２,,01,217,0690832,,,,,,,2024-07-18,1,,,,,パウワウ,0
1236,5440001009470,新規,0,2024-07-18,2024-07-18,Ｓｔｕｄｉｏ　Ｐｒｏｕｄ株式会社,,株式会社,北海道,函館市,亀田本町５６番１４号,,01,202,0410813,,,,,,,2024-07-18,1,,,,,スタジオプラウド,0
1246,5470001020284,新規,0,2024-07-18,2024-07-18,株式会社ライフＪ,,株式会社,香川県,高松市,西春日町１０９７番地４,,37,201,7618051,,,,,,,2024-07-18,1,,,,,ライフジェイ,0
1251,5500001025750,新規,0,2024-07-18,2024-07-18,株式会社アクア工業所,,株式会社,愛媛県,西予市,宇和町東多田１８２番地１,,38,214,7970041,,,,,,,2024-07-18,1,,,,,アクアコウギョウショ,0
1269,6010401183759,新規,0,2024-07-18,2024-07-18,株式会社イエルド,,株式会社,東京都,港区,新橋２丁目１６番１号ニュー新橋ビル９０３,,13,103,1050004,,,,,,,2024-07-18,1,,,,,イエルド,0
1270,6010401183841,新規,0,2024-07-18,2024-07-18,ＭＧ　Ｐｒｏｊｅｃｔ株式会社,,株式会社,東京都,港区,南青山３丁目１番３６号青山丸竹ビル６Ｆ,,13,103,1070062,,,,,,,2024-07-18,1,,,,,エムジープロジェクト,0
1271,6010401183882,新規,0,2024-07-18,2024-07-18,ＦＬＹ　Ｘ株式会社,,株式会社,東京都,港区,三田５丁目４－４リッツビル１階,,13,103,1080073,,,,,,,2024-07-18,1,,,,,フライエックス,0
1273,6010403033061,新規,0,2024-07-18,2024-07-18,ＴＸ７号合同会社,,合同会社,東京都,港区,浜松町２丁目２番１５号浜松町ダイヤビル２Ｆ,,13,103,1050013,,,,,,,2024-07-18,1,,,,,ティーエックスナナゴウ,0
1274,6010501052574,新規,0,2024-07-18,2024-07-18,株式会社ＮＡＳＨＩ,,株式会社,東京都,台東区,根岸２丁目１８番２２－５０２号ウィルレーナ東京根岸,,13,106,1100003,,,,,,,2024-07-18,1,,,,,ナシ,0
1275,6010501052590,新規,0,2024-07-18,2024-07-18,株式会社Ｔｒｕｓｔ,,株式会社,東京都,台東区,東上野１丁目２０番８号,,13,106,1100015,,,,,,,2024-07-18,1,,,,,トラスト,0
1276,6010501052616,新規,0,2024-07-18,2024-07-18,ＮＡＤＩ株式会社,,株式会社,東京都,台東区,東上野５丁目２１－５,,13,106,1100015,,,,,,,2024-07-18,1,,,,,ナディ,0
1277,6010503007519,新規,0,2024-07-18,2024-07-18,合同会社メイクアファン,,合同会社,東京都,台東区,下谷３丁目１番２４号,,13,106,1100004,,,,,,,2024-07-18,1,,,,,メイクアファン,0
1278,6010505003540,新規,0,2024-07-18,2024-07-18,一般社団法人笑友会,,その他の設立登記法人,東京都,台東区,松が谷２丁目２１番５号,,13,106,1110036,,,,,,,2024-07-18,1,,,,,ショウユウカイ,0
1280,6010601065518,新規,0,2024-07-18,2024-07-18,株式会社３Ｂｓ,,株式会社,東京都,江東区,越中島１丁目３－１２門前仲町スカイハイツ５１２,,13,108,1350044,,,,,,,2024-07-18,1,,,,,スリービーズ,0
1288,6010905004634,新規,0,2024-07-18,2024-07-18,一般社団法人栄養心理ウェルネスＡｃａｄｅｍｙ,,その他の設立登記法人,東京都,世田谷区,用賀１丁目１－７,,13,112,1580097,,,,,,,2024-07-18,1,,,,,エイヨウシンリウェルネスアカデミー,0
1298,6011101107999,新規,0,2024-07-18,2024-07-18,無存楽株式会社,,株式会社,東京都,新宿区,四谷２丁目８番地、藤井ビル５Ｆ、Ｔ．Ｒ＆Ｄ,,13,104,1600004,,,,,,,2024-07-18,1,,,,,ムソンラク,0
1300,6011201025639,新規,0,2024-07-18,2024-07-18,株式会社ＡＳＣ,,株式会社,東京都,中野区,中野４丁目１０番２号中野セントラルパークサウス２階,,13,114,1640001,,,,,,,2024-07-18,1,,,,,エーエスシー,0
1301,6011403004449,新規,0,2024-07-18,2024-07-18,合同会社矢尾興業,,合同会社,東京都,板橋区,若木２丁目７番１１号ビュードエル１０１,,13,119,1740065,,,,,,,2024-07-18,1,,,,,ヤオコウギョウ,0
1313,6013301052835,新規,0,2024-07-18,2024-07-18,サンワードロジスティックスジャパン株式会社,,株式会社,東京都,豊島区,池袋２丁目６７番６号エリゼー池袋７０１号,,13,116,1710014,,,,,,,2024-07-18,1,,,,,サンワードロジスティックスジャパン,0
1314,6013301052843,新規,0,2024-07-18,2024-07-18,中田健身管理株式会社,,株式会社,東京都,豊島区,目白５丁目２番１４号クアルト目白９０２号,,13,116,1710031,,,,,,,2024-07-18,1,,,,,ナカタケンシンカンリ,0
1319,6020001158103,新規,0,2024-07-18,2024-07-18,株式会社ＴＴＭ,,株式会社,神奈川県,横浜市西区,高島町二丁目１９－１２横浜スカイビル２０階,,14,103,2200000,,,,,,,2024-07-18,1,,,,,ティーティーエム,0
1329,6021001082747,新規,0,2024-07-18,2024-07-18,株式会社ベイヒルズさわの,,株式会社,神奈川県,相模原市緑区,長竹９１１番地４,,14,151,2520154,,,,,,,2024-07-18,1,,,,,ベイヒルズサワノ,0
1334,6030001161469,新規,0,2024-07-18,2024-07-18,株式会社三和建設,,株式会社,埼玉県,日高市,大字高萩１９６０番地１,,11,242,3501213,,,,,,,2024-07-18,1,,,,,サンワケンセツ,0
1335,6030001161493,新規,0,2024-07-18,2024-07-18,プロスト株式会社,,株式会社,埼玉県,さいたま市浦和区,本太２丁目１１番１１号,,11,107,3300052,,,,,,,2024-07-18,1,,,,,プロスト,0
1338,6030003024723,新規,0,2024-07-18,2024-07-18,合同会社椎名花園,,合同会社,埼玉県,東松山市,大字下青鳥１４８番地,,11,212,3550075,,,,,,,2024-07-18,1,,,,,シイナカエン,0
1340,6040001134548,新規,0,2024-07-18,2024-07-18,Ｌａ　Ｂｒｉｌｌｅｒ株式会社,,株式会社,千葉県,木更津市,清見台南３丁目１１番６号,,12,206,2920042,,,,,,,2024-07-18,1,,,,,ラブリエ,0
1341,6040001134564,新規,0,2024-07-18,2024-07-18,株式会社ユラク,,株式会社,千葉県,南房総市,千倉町北朝夷２９６７番地３０,,12,234,2950011,,,,,,,2024-07-18,1,,,,,ユラク,0
1344,6040003025415,新規,0,2024-07-18,2024-07-18,合同会社芝コーポレーション,,合同会社,千葉県,印旛郡栄町,南ケ丘２丁目６番１５号,,12,329,2701533,,,,,,,2024-07-18,1,,,,,シバコーポレーション,0
1351,6080101024892,新規,0,2024-07-18,2024-07-18,株式会社侑昇工業,,株式会社,静岡県,富士宮市,万野原新田３３０６番地の２５,,22,207,4180001,,,,,,,2024-07-18,1,,,,,ユウショウコウギョウ,0
1353,6080402015814,新規,0,2024-07-18,2024-07-18,有限会社うなぎ白焼山口,,有限会社,静岡県,浜松市浜名区,細江町気賀１４９番地,,22,139,4311305,,,,,,,2024-07-18,1,,,,,ウナギシラヤキヤマグチ,0
1355,6100003007646,新規,0,2024-07-18,2024-07-18,昇楽合同会社,,合同会社,長野県,上田市,浦野２１番地４５の２,,20,203,3861546,,,,,,,2024-07-18,1,,,,,ショウラク,0
1369,6120001266804,新規,0,2024-07-18,2024-07-18,北斗星貿易株式会社,,株式会社,大阪府,大阪市西区,京町堀２丁目１４番２２号,,27,106,5500003,,,,,,,2024-07-18,1,,,,,ホクトセイボウエキ,0
1370,6120001266837,新規,0,2024-07-18,2024-07-18,株式会社永田ホールディングス,,株式会社,大阪府,大阪市淀川区,三津屋南３丁目８番３５号,,27,123,5320035,,,,,,,2024-07-18,1,,,,,ナガタホールディングス,0
1371,6120001266853,新規,0,2024-07-18,2024-07-18,株式会社ＫＥＩＭＡ,,株式会社,大阪府,大阪市北区,中崎西１丁目９番８号アドバンス梅田東５０２号,,27,127,5300015,,,,,,,2024-07-18,1,,,,,ケイマ,0
1372,6120001266886,新規,0,2024-07-18,2024-07-18,新＿株式会社,00135615,株式会社,大阪府,大阪市東成区,深江北３丁目４番２１号エクラ深江橋３０２Ａ,,27,115,5370001,,,,,,,2024-07-18,1,,,,,シンキン,0
1374,6120005024431,新規,0,2024-07-18,2024-07-18,医療法人芳優会,,その他の設立登記法人,大阪府,大阪市天王寺区,六万体町５番１９号メイプル夕陽丘２階,,27,109,5430074,,,,,,,2024-07-18,1,,,,,ヨシユウカイ,0
1376,6120101069982,新規,0,2024-07-18,2024-07-18,株式会社三宝自動車,,株式会社,大阪府,泉南市,岡田７丁目１６６４番地の１７４,,27,228,5900531,,,,,,,2024-07-18,1,,,,,サンポウジドウシャ,0
1378,6120901049473,新規,0,2024-07-18,2024-07-18,株式会社グルータル,,株式会社,大阪府,豊中市,利倉西２丁目３番３２－１０３号,,27,203,5610844,,,,,,,2024-07-18,1,,,,,グルータル,0
1379,6130001077449,新規,0,2024-07-18,2024-07-18,万賀株式会社,,株式会社,京都府,京都市中京区,三条通烏丸東入梅忠町２０番地１烏丸アネックスＩＩ９１８号室,00135616,26,104,6048136,,,,,,,2024-07-18,1,,,,,マンガ,0
1380,6130001077465,新規,0,2024-07-18,2024-07-18,株式会社ＨＩＭ,,株式会社,京都府,京都市東山区,今熊野泉山町１番地１０,,26,105,6050957,,,,,,,2024-07-18,1,,,,,エイチアイエム,0
1383,6140001135156,新規,0,2024-07-18,2024-07-18,株式会社ＡＩＲＴＥＣＨ,,株式会社,兵庫県,神戸市西区,王塚台４丁目８番地,,28,111,6512135,,,,,,,2024-07-18,1,,,,,エアーテック,0
1384,6140001135164,新規,0,2024-07-18,2024-07-18,株式会社カリーマ商会,,株式会社,兵庫県,神戸市中央区,旗塚通５丁目１番３号,,28,110,6510068,,,,,,,2024-07-18,1,,,,,カリーマショウカイ,0
1386,6150003003319,新規,0,2024-07-18,2024-07-18,合同会社彩りの森,,合同会社,奈良県,大和高田市,西三倉堂１丁目９番１１号,,29,202,6350046,,,,,,,2024-07-18,1,,,,,イロドリノモリ,0
1387,6160003003235,新規,0,2024-07-18,2024-07-18,合同会社ｓｍｉｌｅ,,合同会社,滋賀県,犬上郡豊郷町,大字高野瀬２６９番地３,,25,441,5291173,,,,,,,2024-07-18,1,,,,,スマイル,0
1394,6180001162386,新規,0,2024-07-18,2024-07-18,Ｄｒ．ＨＯＭＥ株式会社,,株式会社,愛知県,一宮市,本町４丁目７番１号ＢＥＬＩＳＴＡタワー一宮１８０３号,,23,203,4910859,,,,,,,2024-07-18,1,,,,,ドクターホーム,0
1401,6180003027059,新規,0,2024-07-18,2024-07-18,合同会社ＴＡＲＯＵ,,合同会社,愛知県,名古屋市緑区,小坂２丁目１０１４番地の９,,23,114,4580022,,,,,,,2024-07-18,1,,,,,タロウ,0
1403,6180303006191,新規,0,2024-07-18,2024-07-18,合同会社幻火庵,,合同会社,愛知県,豊田市,曙町５丁目７４番地サンハイツＡＫＥＢＯＮＯ１０９号,,23,211,4710835,,,,,,,2024-07-18,1,,,,,マボロシヒアン,0
1416,6260003004818,新規,0,2024-07-18,2024-07-18,合同会社ことみら,,合同会社,岡山県,岡山市北区,駅元町８－１６－１００１,,33,101,7000024,,,,,,,2024-07-18,1,,,,,コトミラ,0
1424,6290001106423,新規,0,2024-07-18,2024-07-18,アットソウル株式会社,,株式会社,福岡県,福岡市中央区,大名２丁目６番１１号ＦｕｋｕｏｋａＧｒｏｗｔｈＮｅｘｔ,,40,133,8100041,,,,,,,2024-07-18,1,,,,,アットソウル,0
1425,6290001106448,新規,0,2024-07-18,2024-07-18,株式会社ＬＬ,,株式会社,福岡県,福岡市城南区,片江５丁目１１－６－１０８,,40,136,8140142,,,,,,,2024-07-18,1,,,,,エルエル,0
1426,6290001106613,新規,0,2024-07-18,2024-07-18,株式会社Ｇｌｏｃａｌｉｚｅ　Ｐａｒｔｎｅｒ,,株式会社,福岡県,福岡市中央区,天神４丁目６―２８天神ファーストビル７階,,40,133,8100001,,,,,,,2024-07-18,1,,,,,グローカライズパートナー,0
1428,6290003015531,新規,0,2024-07-18,2024-07-18,グッドブランチ合同会社,,合同会社,福岡県,福岡市中央区,大名１丁目８－２５杉の宮マンション５０３号室,,40,133,8100041,,,,,,,2024-07-18,1,,,,,グッドブランチ,0
1429,6290003015548,新規,0,2024-07-18,2024-07-18,合同会社ミカハウス,,合同会社,福岡県,久留米市,荒木町白口１７７１番地１,,40,203,8300062,,,,,,,2024-07-18,1,,,,,ミカハウス,0
1440,6340001026657,新規,0,2024-07-18,2024-07-18,株式会社ししどう,,株式会社,鹿児島県,奄美市,名瀬佐大熊町１３番５号,,46,222,8940005,,,,,,,2024-07-18,1,,,,,シシドウ,0
1443,6340003004545,新規,0,2024-07-18,2024-07-18,合同会社姶良コンサル,,合同会社,鹿児島県,姶良市,東餅田７８６番地１０,,46,225,8995421,,,,,,,2024-07-18,1,,,,,アイラコンサル,0
1448,6360003014162,新規,0,2024-07-18,2024-07-18,合同会社ＳＴＲ,,合同会社,沖縄県,宮古島市,平良字下里１５４９番地６アヴァンティＳ５０１,,47,214,9060013,,,,,,,2024-07-18,1,,,,,エスティーアール,0
1449,6370001051529,新規,0,2024-07-18,2024-07-18,株式会社ウジエ薬局,,株式会社,宮城県,登米市,迫町佐沼字江合１丁目８番地５,,04,212,9870511,,,,,,,2024-07-18,1,,,,,ウジエヤッキョク,0
1457,6430001092269,新規,0,2024-07-18,2024-07-18,株式会社ＫＥＮコーポレーション,,株式会社,北海道,札幌市西区,八軒一条西１丁目１－２６アルファ琴似駅前ビル７０２,,01,107,0630841,,,,,,,2024-07-18,1,,,,,ケンコーポレーション,0
1461,6430003016556,新規,0,2024-07-18,2024-07-18,ＮＵＭＡグローバルエクスプレス合同会社,,合同会社,北海道,札幌市北区,北三十七条西２丁目２番５－６０２号,,01,102,0010037,,,,,,,2024-07-18,1,,,,,ヌマグローバルエクスプレスゴウドウガイシャ,0
1462,6460101007578,新規,0,2024-07-18,2024-07-18,株式会社芽多宿鱈,,株式会社,北海道,河西郡芽室町,西一条２丁目１３－１,,01,637,0820031,,,,,,,2024-07-18,1,,,,,メッタヤタラ,0
1463,6460103001637,新規,0,2024-07-18,2024-07-18,合同会社フルーツ総合技術研究所,,合同会社,北海道,中川郡池田町,字利別本町２０番地の８,,01,644,0830034,,,,,,,2024-07-18,1,,,,,フルーツソウゴウギジュツケンキュウショ,0
1500,7010401183808,新規,0,2024-07-18,2024-07-18,株式会社Ｆａｂｕｌｏｕｓ,,株式会社,東京都,港区,南青山２丁目２番１５号,,13,103,1070062,,,,,,,2024-07-18,1,,,,,ファビュラス,0
1503,7010501052615,新規,0,2024-07-18,2024-07-18,株式会社Ｔ．Ｒ．Ｃ．,,株式会社,東京都,台東区,浅草５丁目２５番３号,,13,106,1110032,,,,,,,2024-07-18,1,,,,,ティーアールシー,0
1509,7010801035245,新規,0,2024-07-18,2024-07-18,株式会社Ｓｉａ,,株式会社,東京都,大田区,上池台１丁目７番１６号,,13,111,1450064,,,,,,,2024-07-18,1,,,,,シア,0
1512,7011001163357,新規,0,2024-07-18,2024-07-18,株式会社ＲＲ,,株式会社,東京都,渋谷区,渋谷２丁目３番１９号メインステージ青山１０６,,13,113,1500002,,,,,,,2024-07-18,1,,,,,アールアール,0
1513,7011001163448,新規,0,2024-07-18,2024-07-18,株式会社エパナ,,株式会社,東京都,渋谷区,渋谷２丁目１９－１５宮益坂ビルディング６０９,,13,113,1500002,,,,,,,2024-07-18,1,,,,,エパナ,0
1519,7011401026270,新規,0,2024-07-18,2024-07-18,アベニール・トレンド株式会社,,株式会社,東京都,板橋区,前野町３丁目７－６ホワイト前野町Ｂ１,,13,119,1740063,,,,,,,2024-07-18,1,,,,,アベニールトレンド,0
1520,7011403004448,新規,0,2024-07-18,2024-07-18,合同会社上垣音楽事務所,,合同会社,東京都,板橋区,若木１丁目６番１８号,,13,119,1740065,,,,,,,2024-07-18,1,,,,,ウエガキオンガクジムショ,0
1522,7012401042101,新規,0,2024-07-18,2024-07-18,株式会社クリク,,株式会社,東京都,多摩市,連光寺２丁目４番５号,,13,224,2060021,,,,,,,2024-07-18,1,,,,,クリク,0
1523,7012701018362,新規,0,2024-07-18,2024-07-18,株式会社Ｈｏｗｄｙ,,株式会社,東京都,東村山市,栄町２丁目１番地７,,13,213,1890013,,,,,,,2024-07-18,1,,,,,ハウディ,0
1527,7013301052842,新規,0,2024-07-18,2024-07-18,株式会社ＦＥＬＩＣＥ,,株式会社,東京都,豊島区,西池袋４丁目３８番７号フェニックス椎名町駅前８０１号,,13,116,1710021,,,,,,,2024-07-18,1,,,,,フェリス,0
1531,7020001158110,新規,0,2024-07-18,2024-07-18,株式会社ＰＬＵＳ１,,株式会社,神奈川県,横浜市栄区,小菅ケ谷１丁目２５番１号モスイハイツ１０１,,14,115,2470007,,,,,,,2024-07-18,1,,,,,プラスワン,0
1542,7030001161484,新規,0,2024-07-18,2024-07-18,株式会社ハッピー物語,,株式会社,埼玉県,入間市,大字上藤沢２０番地１,,11,225,3580013,,,,,,,2024-07-18,1,,,,,ハッピーモノガタリ,0
1543,7030001161492,新規,0,2024-07-18,2024-07-18,株式会社ＦＡｉｋｏｔａ,,株式会社,埼玉県,川口市,上青木西５丁目２４番２号アバンサールプリモＢ－１０３号,,11,203,3330845,,,,,,,2024-07-18,1,,,,,エフエーイコタ,0
1547,7030003024722,新規,0,2024-07-18,2024-07-18,合同会社ＫＹＳ,,合同会社,埼玉県,入間郡三芳町,大字上富４０２番地５,,11,324,3540045,,,,,,,2024-07-18,1,,,,,ケイワイエス,0
1553,7040001134547,新規,0,2024-07-18,2024-07-18,株式会社Ｋ‐Ｌｉｎｋ,,株式会社,千葉県,千葉市若葉区,東寺山町４４０番地１‐６０３号,,12,104,2640035,,,,,,,2024-07-18,1,,,,,ケイリンク,0
1554,7040001134555,新規,0,2024-07-18,2024-07-18,株式会社ＲＥＡＬ不動産,,株式会社,千葉県,柏市,豊上町１０番地２５,,12,217,2770858,,,,,,,2024-07-18,1,,,,,リアルフドウサン,0
1555,7040001134596,新規,0,2024-07-18,2024-07-18,勇悠株式会社,,株式会社,千葉県,市川市,国府台４丁目１１番１号,,12,203,2720827,,,,,,,2024-07-18,1,,,,,ユウユウ,0
1557,7040003025406,新規,0,2024-07-18,2024-07-18,合同会社Ｙｏｓｈｉエステート,,合同会社,千葉県,習志野市,東習志野８丁目１６番１８号,,12,216,2750001,,,,,,,2024-07-18,1,,,,,ヨシエステート,0
1560,7050001055107,新規,0,2024-07-18,2024-07-18,シーライズホールディングス株式会社,,株式会社,茨城県,ひたちなか市,田中後７４６３,,08,221,3111235,,,,,,,2024-07-18,1,,,,,シーライズホールディングス,0
1562,7050003008541,新規,0,2024-07-18,2024-07-18,ＨＵＳＮＡＩＮ　ＭＵＳＡＦ　ＴＲＡＤＩＮＧ合同会社,,合同会社,茨城県,古河市,東山田１８１５番地１９８Ｄ棟,,08,204,3060112,,,,,,,2024-07-18,1,,,,,ハスネンムサフトレイディング,0
1567,7080101024891,新規,0,2024-07-18,2024-07-18,ｍｉｎａｔｏ株式会社,,株式会社,静岡県,伊東市,宇佐美１９７１番地の２３,,22,208,4140001,,,,,,,2024-07-18,1,,,,,ミナト,0
1568,7080401027314,新規,0,2024-07-18,2024-07-18,株式会社ｉｃｃｈｉ,,株式会社,静岡県,浜松市中央区,有玉南町２２５４番地の３,,22,138,4313122,,,,,,,2024-07-18,1,,,,,イッチ,0
1575,7110001038567,新規,0,2024-07-18,2024-07-18,株式会社ＧＩＲＬ,,株式会社,新潟県,新潟市中央区,古町通７番町９４３番地レジデンスプレミオ２０１号,,15,103,9518063,,,,,,,2024-07-18,1,,,,,ガール,0
1580,7120001266885,新規,0,2024-07-18,2024-07-18,集瑞株式会社,,株式会社,大阪府,大阪市城東区,関目５丁目１９番９号関目花博公館４１０Ｂ,,27,118,5360008,,,,,,,2024-07-18,1,,,,,シュウスイ,0
1581,7120001266919,新規,0,2024-07-18,2024-07-18,株式会社ライラック,,株式会社,大阪府,大阪市中央区,西心斎橋１丁目９－２８リーストラクチャー西心斎橋４１４号室,,27,128,5420086,,,,,,,2024-07-18,1,,,,,ライラック,0
1585,7120005024430,新規,0,2024-07-18,2024-07-18,医療法人麗らか会,,その他の設立登記法人,大阪府,大阪市中央区,大手前１丁目６番８号光養ビル３階,,27,128,5400008,,,,,,,2024-07-18,1,,,,,ウララカカイ,0
1589,7120101070007,新規,0,2024-07-18,2024-07-18,株式会社デントリペアＬａｂｏ,,株式会社,大阪府,泉大津市,田中町４番１９－５０８号,,27,206,5950062,,,,,,,2024-07-18,1,,,,,デントリペアラボ,0
1592,7120901049472,新規,0,2024-07-18,2024-07-18,株式会社スプラウト,,株式会社,大阪府,茨木市,畑田町９番３５－８０２号,,27,211,5670028,,,,,,,2024-07-18,1,,,,,スプラウト,0
1600,7140001135097,新規,0,2024-07-18,2024-07-18,アイ・エス・ネクスト株式会社,,株式会社,兵庫県,神戸市中央区,御幸通８丁目１番６号神戸国際会館２２階,,28,110,6510087,,,,,,,2024-07-18,1,,,,,アイエスネクスト,0
1601,7140001135139,新規,0,2024-07-18,2024-07-18,株式会社風丹,,株式会社,兵庫県,伊丹市,西台４丁目１番１号,,28,207,6640858,,,,,,,2024-07-18,1,,,,,フウタン,0
1602,7140001135155,新規,0,2024-07-18,2024-07-18,株式会社スマイルサポート住宅,,株式会社,兵庫県,明石市,魚住町住吉４丁目５番１２号,,28,203,6740083,,,,,,,2024-07-18,1,,,,,スマイルサポートジュウタク,0
1605,7140005027159,新規,0,2024-07-18,2024-07-18,一般社団法人子どもの未来を考える会,,その他の設立登記法人,兵庫県,赤穂市,坂越２８５１－１６－１００４,,28,212,6780172,,,,,,,2024-07-18,1,,,,,コドモノミライヲカンガエルカイ,0
1610,7180001162336,新規,0,2024-07-18,2024-07-18,株式会社Ｎｉｔｅｒｒａ　ＡＱＵＡ,,株式会社,愛知県,小牧市,大字岩崎２８０８番地,,23,219,4850011,,,,,,,2024-07-18,1,,,,,ニテラアクア,0
1611,7180001162360,新規,0,2024-07-18,2024-07-18,マークス電気株式会社,,株式会社,愛知県,稲沢市,下屋３丁目６番地,,23,220,4928310,,,,,,,2024-07-18,1,,,,,マークスデンキ,0
1615,7180003027074,新規,0,2024-07-18,2024-07-18,合同会社Ｍ．Ｉ．Ｋ,,合同会社,愛知県,一宮市,本町３丁目９番２号,,23,203,4910859,,,,,,,2024-07-18,1,,,,,エムアイケイ,0
1618,7180301038847,新規,0,2024-07-18,2024-07-18,株式会社ウェルネスマネジメント,,株式会社,愛知県,岡崎市,欠町字金谷１０番地１Ｓ＆Ｓビル４Ｆ,,23,202,4440011,,,,,,,2024-07-18,1,,,,,ウェルネスマネジメント,0
1621,7180303006190,新規,0,2024-07-18,2024-07-18,合同会社楽笑留,,合同会社,愛知県,岡崎市,仁木町字八反田５１番地１６５,,23,202,4442148,,,,,,,2024-07-18,1,,,,,ラクエル,0
1627,7210001019821,新規,0,2024-07-18,2024-07-18,株式会社クラッチ,,株式会社,福井県,越前市,瓜生町第５３号１５番地の２,,18,209,9150096,,,,,,,2024-07-18,1,,,,,クラッチ,0
1629,7220003003789,新規,0,2024-07-18,2024-07-18,合同会社わじまＭＩＲＡＩ,,合同会社,石川県,輪島市,マリンタウン４番地２,,17,204,9280008,,,,,,,2024-07-18,1,,,,,,0
1630,7220005008869,新規,0,2024-07-18,2024-07-18,行政書士法人レジリエンス,,その他の設立登記法人,石川県,白山市,中成２丁目３２５番地,,17,210,9240029,,,,,,,2024-07-18,1,,,,,レジリエンス,0
1637,7240003006765,新規,0,2024-07-18,2024-07-18,合同会社クロスステージ,,合同会社,広島県,東広島市,西条町御薗宇６２５２番地２,,34,212,7390024,,,,,,,2024-07-18,1,,,,,クロスステージ,0
1641,7290001106372,新規,0,2024-07-18,2024-07-18,株式会社オンザロード,,株式会社,福岡県,八女市,豊福２８７番地１,,40,210,8340016,,,,,,,2024-07-18,1,,,,,オンザロード,0
1642,7290001106422,新規,0,2024-07-18,2024-07-18,株式会社ＩＮＯＶＥＸ,,株式会社,福岡県,糸島市,二丈吉井４０７０番地１６,,40,230,8191641,,,,,,,2024-07-18,1,,,,,イノベックス,0
1643,7290001106430,新規,0,2024-07-18,2024-07-18,株式会社ＯｖｅｒＤｒｉｖｅ,,株式会社,福岡県,福岡市中央区,荒戸３丁目１番２０－３０３,,40,133,8100062,,,,,,,2024-07-18,1,,,,,オーバードライブ,0
1644,7290001106488,新規,0,2024-07-18,2024-07-18,株式会社富士オーラルケアリテイリング,,株式会社,福岡県,福岡市中央区,天神４丁目６番２８号天神ファーストビル７階,,40,133,8100001,,,,,,,2024-07-18,1,,,,,フジオーラルケアリテイリング,0
1649,7290803004781,新規,0,2024-07-18,2024-07-18,浅尾総業合同会社,,合同会社,福岡県,北九州市八幡西区,千代ケ崎２丁目２番１４号,,40,109,8070803,,,,,,,2024-07-18,1,,,,,アサオソウギョウ,0
1653,7320001020594,新規,0,2024-07-18,2024-07-18,株式会社６４,,株式会社,大分県,大分市,中央町２丁目６番４号おくの細道ビル２階,,44,201,8700035,,,,,,,2024-07-18,1,,,,,ロクヨン,0
1655,7330001032242,新規,0,2024-07-18,2024-07-18,株式会社ベルフォレスト,,株式会社,熊本県,合志市,栄３７９１番地９９,,43,216,8611113,,,,,,,2024-07-18,1,,,,,ベルフォレスト,0
1657,7340001026656,新規,0,2024-07-18,2024-07-18,株式会社丸慶産業,,株式会社,鹿児島県,鹿児島市,西田１丁目３番地２－９０５号,,46,201,8900046,,,,,,,2024-07-18,1,,,,,マルケイサンギョウ,0
1662,7350003004700,新規,0,2024-07-18,2024-07-18,ＮＥＸＳＩＡ合同会社,,合同会社,宮崎県,宮崎市,月見ケ丘５丁目１２－１５,,45,201,8800926,,,,,,,2024-07-18,1,,,,,ネクシア,0
1676,7380003005811,新規,0,2024-07-18,2024-07-18,富津総合開発合同会社,,合同会社,福島県,南相馬市,原町区上渋佐字原田１０２－１,,07,212,9750034,,,,,,,2024-07-18,1,,,,,フッツソウゴウカイハツ,0
1689,7430001092268,新規,0,2024-07-18,2024-07-18,株式会社一結,,株式会社,北海道,札幌市北区,新琴似五条１４丁目１０番１０号,,01,102,0010905,,,,,,,2024-07-18,1,,,,,イチユウ,0
1691,7470001020290,新規,0,2024-07-18,2024-07-18,株式会社アローフィールド,,株式会社,香川県,高松市,屋島西町２４８４番地１８,,37,201,7610113,,,,,,,2024-07-18,1,,,,,アローフィールド,0
1707,8010001246492,新規,0,2024-07-18,2024-07-18,日本華商会館株式会社,,株式会社,東京都,文京区,大塚６丁目１７番２号１０４号室,00135611,13,105,1120012,,,,,,,2024-07-18,1,,,,,ニホンカショウカイカン,0
1708,8010001246724,新規,0,2024-07-18,2024-07-18,ＷＡＫＵ　ｐｌａｎｎｉｎｇ株式会社,,株式会社,東京都,千代田区,神田小川町３丁目９番ＡＳＯＮＥビル,,13,101,1010052,,,,,,,2024-07-18,1,,,,,ワクプランニング,0
1713,8010005038507,新規,0,2024-07-18,2024-07-18,一般社団法人技術立国会議,,その他の設立登記法人,東京都,中央区,日本橋３丁目２番１４号,,13,102,1030027,,,,,,,2024-07-18,1,,,,,ギジュツリッコクカイギ,0
1726,8010401183600,新規,0,2024-07-18,2024-07-18,日本寿司リーディングアカデミー株式会社,,株式会社,東京都,港区,西麻布１丁目２番３号アクティブ六本木５０５,,13,103,1060031,,,,,,,2024-07-18,1,,,,,ニホンスシリーディングアカデミー,0
1727,8010401183757,新規,0,2024-07-18,2024-07-18,株式会社釜トラスト,,株式会社,東京都,港区,元麻布３丁目１番６号,,13,103,1060046,,,,,,,2024-07-18,1,,,,,カマトラスト,0
1728,8010401183815,新規,0,2024-07-18,2024-07-18,ＡＩＭ株式会社,,株式会社,東京都,港区,南青山６丁目５番３６号,,13,103,1070062,,,,,,,2024-07-18,1,,,,,エイム,0
1729,8010401183872,新規,0,2024-07-18,2024-07-18,株式会社まめ,,株式会社,東京都,港区,港南４丁目２番７－３７２０号,,13,103,1080075,,,,,,,2024-07-18,1,,,,,マメ,0
1731,8010405023389,新規,0,2024-07-18,2024-07-18,一般社団法人サンテエボーテ,,その他の設立登記法人,東京都,港区,赤坂８丁目３番１２号ＡＭＳビル１Ｆ・２Ｆ,,13,103,1070052,,,,,,,2024-07-18,1,,,,,サンテエボーテ,0
1732,8010501052589,新規,0,2024-07-18,2024-07-18,株式会社と,,株式会社,東京都,台東区,西浅草２丁目２１番５号,,13,106,1110035,,,,,,,2024-07-18,1,,,,,ト,0
1733,8010501052606,新規,0,2024-07-18,2024-07-18,Ｐｅａｒｌ　Ｊａｐａｎ　Ｔｒａｖｅｌ株式会社,,株式会社,東京都,台東区,台東４丁目３１番１号,,13,106,1100016,,,,,,,2024-07-18,1,,,,,パールジャパントラベル,0
1734,8010501052614,新規,0,2024-07-18,2024-07-18,株式会社片山園,,株式会社,東京都,台東区,浅草４丁目２番１号,,13,106,1110032,,,,,,,2024-07-18,1,,,,,カタヤマエン,0
1738,8010601065565,新規,0,2024-07-18,2024-07-18,ＹＡＳＵＤＡ　ＤＲＡＦＴ株式会社,,株式会社,東京都,墨田区,東向島６丁目４６番５号,,13,107,1310032,,,,,,,2024-07-18,1,,,,,ヤスダドラフト,0
1750,8011001163323,新規,0,2024-07-18,2024-07-18,株式会社アセントパス,,株式会社,東京都,渋谷区,本町４丁目１０番２号,,13,113,1510071,,,,,,,2024-07-18,1,,,,,アセントパス,0
1751,8011001163471,新規,0,2024-07-18,2024-07-18,株式会社センレコーズ,,株式会社,東京都,渋谷区,道玄坂１丁目１０番８号渋谷道玄坂東急ビル２Ｆ‐Ｃ,,13,113,1500043,,,,,,,2024-07-18,1,,,,,センレコーズ,0
1753,8011003019580,新規,0,2024-07-18,2024-07-18,合同会社ｃａｓａ,,合同会社,東京都,渋谷区,恵比寿１丁目１５番９号日宝恵比寿ビル４０３,,13,113,1500013,,,,,,,2024-07-18,1,,,,,カーサ,0
1754,8011005010587,新規,0,2024-07-18,2024-07-18,ＳＢＩ一般社団法人,,その他の設立登記法人,東京都,渋谷区,神宮前４丁目７番１号,,13,113,1500001,,,,,,,2024-07-18,1,,,,,エスビーアイ,0
1758,8011105011097,新規,0,2024-07-18,2024-07-18,一般社団法人多文化教育サポート,,その他の設立登記法人,東京都,新宿区,下落合３丁目２１番２２号,,13,104,1610033,,,,,,,2024-07-18,1,,,,,タブンカキョウイクサポート,0
1769,8011803006340,新規,0,2024-07-18,2024-07-18,合同会社シャークスター,,合同会社,東京都,葛飾区,四つ木３丁目５番１１号,,13,122,1240011,,,,,,,2024-07-18,1,,,,,シャークスター,0
1776,8012403006672,新規,0,2024-07-18,2024-07-18,合同会社Ｓｕｅ,,合同会社,東京都,府中市,寿町３丁目６－１４－１０６,,13,206,1830056,,,,,,,2024-07-18,1,,,,,スー,0
1780,8013301052841,新規,0,2024-07-18,2024-07-18,株式会社ＶＥＲＳＥ,,株式会社,東京都,豊島区,東池袋１丁目３３番３号３０２,,13,116,1700013,,,,,,,2024-07-18,1,,,,,ヴァース,0
1783,8013303007232,新規,0,2024-07-18,2024-07-18,合同会社ＢＯＣ,,合同会社,東京都,豊島区,南大塚１丁目４６番２４号,,13,116,1700005,,,,,,,2024-07-18,1,,,,,ビーオーシー,0
1788,8020003026512,新規,0,2024-07-18,2024-07-18,天友合同会社,,合同会社,神奈川県,横浜市磯子区,森３丁目１番１９－２２１号,,14,107,2350023,,,,,,,2024-07-18,1,,,,,ソラトモ,0
1801,8030001161475,新規,0,2024-07-18,2024-07-18,株式会社弥栄建設,,株式会社,埼玉県,草加市,金明町１８８番地１ライフピア金明２０３,,11,221,3400052,,,,,,,2024-07-18,1,,,,,ヤエイケンセツ,0
1802,8030001161491,新規,0,2024-07-18,2024-07-18,株式会社ＩＤＥＡＬ,,株式会社,埼玉県,新座市,東北１丁目８番１７号,,11,230,3520001,,,,,,,2024-07-18,1,,,,,,0
1803,8030001161509,新規,0,2024-07-18,2024-07-18,株式会社ＲＩＮＱＸ,,株式会社,埼玉県,戸田市,美女木７丁目１３－３,,11,224,3350031,,,,,,,2024-07-18,1,,,,,リンクス,0
1808,8040001134546,新規,0,2024-07-18,2024-07-18,在る美株式会社,,株式会社,千葉県,八千代市,八千代台北１１丁目２４番２１号,,12,221,2760031,,,,,,,2024-07-18,1,,,,,アルビ,0
1809,8040001134579,新規,0,2024-07-18,2024-07-18,株式会社轍,,株式会社,千葉県,習志野市,谷津４丁目５番１９号,,12,216,2750026,,,,,,,2024-07-18,1,,,,,ワダチ,0
1816,8040003025413,新規,0,2024-07-18,2024-07-18,合同会社ライフアセット・エム,,合同会社,千葉県,松戸市,古ケ崎７４０番地の２,,12,207,2710068,,,,,,,2024-07-18,1,,,,,ライフアセットエム,0
1817,8040003025438,新規,0,2024-07-18,2024-07-18,合同会社コードクレスト,,合同会社,千葉県,浦安市,東野１丁目２６番１－３０４号レクセルガーデン新浦安,,12,227,2790042,,,,,,,2024-07-18,1,,,,,コードクレスト,0
1826,8080103003100,新規,0,2024-07-18,2024-07-18,合同会社はひれ,,合同会社,静岡県,三島市,芝本町５番２７号杉山ビル２階,,22,206,4110857,,,,,,,2024-07-18,1,,,,,ハヒレ,0
1828,8080401027313,新規,0,2024-07-18,2024-07-18,株式会社イルプロム,,株式会社,静岡県,浜松市中央区,山手町３０番４号,,22,138,4328022,,,,,,,2024-07-18,1,,,,,イルプロム,0
1833,8100001037651,新規,0,2024-07-18,2024-07-18,株式会社エコ倶楽部信州,,株式会社,長野県,松本市,鎌田１丁目２番２４号,,20,202,3900837,,,,,,,2024-07-18,1,,,,,エコクラブシンシュウ,0
1847,8120001266884,新規,0,2024-07-18,2024-07-18,精致株式会社,,株式会社,大阪府,大阪市城東区,関目５丁目１９番９号関目花博公館４０１Ｂ,,27,118,5360008,,,,,,,2024-07-18,1,,,,,セイチ,0
1848,8120001266975,新規,0,2024-07-18,2024-07-18,株式会社Ｔｅｍｍａ　Ｔｅｃｈ,,株式会社,大阪府,大阪市北区,紅梅町３－１４,,27,127,5300038,,,,,,,2024-07-18,1,,,,,テンマテック,0
1851,8120003027062,新規,0,2024-07-18,2024-07-18,合同会社ｓａｎｔｅｉ,,合同会社,大阪府,大阪市阿倍野区,旭町３丁目２番３６－３０４号,,27,119,5450051,,,,,,,2024-07-18,1,,,,,サンテイ,0
1857,8130001077463,新規,0,2024-07-18,2024-07-18,株式会社Ｋ,,株式会社,京都府,京都市右京区,梅津東構口町１３番地,,26,108,6150914,,,,,,,2024-07-18,1,,,,,ケイ,0
1858,8130001077471,新規,0,2024-07-18,2024-07-18,株式会社まどか,,株式会社,京都府,京都市左京区,下鴨本町１２番地３洛北ビル２階,,26,103,6060862,,,,,,,2024-07-18,1,,,,,マドカ,0
1863,8150003003317,新規,0,2024-07-18,2024-07-18,合同会社ＫＡＴＳＵＨＩＫＯｓ,,合同会社,奈良県,橿原市,新賀町２１４番地の１ヘリオス大和八木２０１号,,29,205,6340006,,,,,,,2024-07-18,1,,,,,カツヒコズ,0
1869,8180001162319,新規,0,2024-07-18,2024-07-18,おおのぎ株式会社,,株式会社,愛知県,名古屋市西区,大野木３丁目２２１番地,,23,104,4520803,,,,,,,2024-07-18,1,,,,,オオノギ,0
1870,8180001162376,新規,0,2024-07-18,2024-07-18,株式会社メイクラクト,,株式会社,愛知県,名古屋市守山区,鳥神町１０９番地,,23,113,4630088,,,,,,,2024-07-18,1,,,,,メイクラクト,0
1871,8180001162401,新規,0,2024-07-18,2024-07-18,ｅトリガー株式会社,,株式会社,愛知県,名古屋市中川区,供米田１丁目１４０５番地の１,,23,110,4540984,,,,,,,2024-07-18,1,,,,,イートリガー,0
1876,8180003027057,新規,0,2024-07-18,2024-07-18,合同会社プライムアーク,,合同会社,愛知県,名古屋市天白区,中平５丁目８０５番地,,23,116,4680014,,,,,,,2024-07-18,1,,,,,プライムアーク,0
1878,8180301038846,新規,0,2024-07-18,2024-07-18,株式会社シラトミ,,株式会社,愛知県,豊橋市,佐藤１丁目１３番地６,,23,201,4400853,,,,,,,2024-07-18,1,,,,,シラトミ,0
1884,8200001042708,新規,0,2024-07-18,2024-07-18,株式会社ＴＲコーポレーション,,株式会社,岐阜県,大垣市,三本木４丁目３４番地２,,21,202,5030813,,,,,,,2024-07-18,1,,,,,ティーアールコーポレーション,0
1895,8260005011372,新規,0,2024-07-18,2024-07-18,一般社団法人もりとき,,その他の設立登記法人,岡山県,久米郡久米南町,下籾１８１９,,33,663,7093624,,,,,,,2024-07-18,1,,,,,,0
1896,8290001106413,新規,0,2024-07-18,2024-07-18,株式会社メールコーポレーション,,株式会社,福岡県,筑紫野市,二日市西３丁目５番２９号,,40,217,8180071,,,,,,,2024-07-18,1,,,,,メールコーポレーション,0
1897,8290001106438,新規,0,2024-07-18,2024-07-18,ぽっかり株式会社,,株式会社,福岡県,福岡市中央区,大名１丁目４番３５号９０２,,40,133,8100041,,,,,,,2024-07-18,1,,,,,ポッカリ,0
1899,8290003015521,新規,0,2024-07-18,2024-07-18,合同会社キャリアカレッジ,,合同会社,福岡県,福岡市東区,香椎浜３丁目３番５号,,40,131,8130016,,,,,,,2024-07-18,1,,,,,キャリアカレッジ,0
1900,8290003015538,新規,0,2024-07-18,2024-07-18,合同会社ｓｅｖｅｎ　ｐｅｃｏｒａ,,合同会社,福岡県,糟屋郡宇美町,大字井野２６１番地４０,,40,341,8112104,,,,,,,2024-07-18,1,,,,,セブンペコラ,0
1901,8290805009761,新規,0,2024-07-18,2024-07-18,一般社団法人ソーシャルメイト,,その他の設立登記法人,福岡県,北九州市小倉北区,船場町２番６号Ｎｏ．６３オリエントキャピタルタワー５０５号室,,40,106,8020007,,,,,,,2024-07-18,1,,,,,ソーシャルメイト,0
1902,8300001013839,新規,0,2024-07-18,2024-07-18,株式会社天球測量,,株式会社,佐賀県,神埼市,神埼町城原２１９０番地１,,41,210,8420122,,,,,,,2024-07-18,1,,,,,,0
1912,8330003010476,新規,0,2024-07-18,2024-07-18,合同会社ワース,,合同会社,熊本県,八代市,永碇町１０２３番地５,,43,202,8660885,,,,,,,2024-07-18,1,,,,,ワース,0
1918,8360003014160,新規,0,2024-07-18,2024-07-18,合同会社サイファン,,合同会社,沖縄県,那覇市,首里汀良町３丁目１０１番地１,,47,201,9030806,,,,,,,2024-07-18,1,,,,,サイファン,0
1935,8500001025748,新規,0,2024-07-18,2024-07-18,株式会社ＫＧ　Ｏｒｇａｎｉｚａｔｉｏｎ,,株式会社,愛媛県,松山市,千舟町２丁目８番地１１ロイヤルガーデン千舟町１２０１号,,38,201,7900011,,,,,,,2024-07-18,1,,,,,ケージーオーガニゼーション,0
1949,9010003044357,新規,0,2024-07-18,2024-07-18,Ｓｏｌｉｄ　Ｐａｔｈ合同会社,,合同会社,東京都,中央区,日本橋兜町１７－２兜町第６葉山ビル４Ｆ,,13,102,1030026,,,,,,,2024-07-18,1,,,,,ソリッドパス,0
1951,9010005038522,新規,0,2024-07-18,2024-07-18,一般社団法人銀座再生可能エネルギーホールディングス,,その他の設立登記法人,東京都,中央区,銀座３丁目１０番９号ＫＥＣ銀座ビル８階マクシブ総合会計事務所内,,13,102,1040061,,,,,,,2024-07-18,1,,,,,ギンザサイセイカノウエネルギーホールディングス,0
1965,9010401183814,新規,0,2024-07-18,2024-07-18,株式会社Ｌｅｇａｌ　Ｐａｒｔｎｅｒｓ,,株式会社,東京都,港区,赤坂５丁目３番３－１３０８号,,13,103,1070052,,,,,,,2024-07-18,1,,,,,リーガルパートナーズ,0
1966,9010401183863,新規,0,2024-07-18,2024-07-18,株式会社アルトフォース,,株式会社,東京都,港区,六本木４丁目８－７嶋田ビル５Ｆ,,13,103,1060032,,,,,,,2024-07-18,1,,,,,アルトフォース,0
1967,9010401183896,新規,0,2024-07-18,2024-07-18,ＴＮＫ株式会社,,株式会社,東京都,港区,三田３丁目２番２０号Ｏｒｉｏｎ４０１,,13,103,1080073,,,,,,,2024-07-18,1,,,,,ティーエヌケイ,0
1969,9010403033067,新規,0,2024-07-18,2024-07-18,合同会社木木開発,,合同会社,東京都,港区,赤坂７丁目５番４８－３０６号,,13,103,1070052,,,,,,,2024-07-18,1,,,,,モクモクカイハツ,0
1971,9010501052605,新規,0,2024-07-18,2024-07-18,ＡＮＮＡＸＭ株式会社,,株式会社,東京都,台東区,台東２丁目６－６,,13,106,1100016,,,,,,,2024-07-18,1,,,,,アンナクスエム,0
1980,9010901055645,新規,0,2024-07-18,2024-07-18,株式会社ＬＵＮＡＴＥＣＨ,,株式会社,東京都,世田谷区,三宿１丁目４番２３号,,13,112,1540005,,,,,,,2024-07-18,1,,,,,ルナテック,0
1983,9011005010586,新規,0,2024-07-18,2024-07-18,一般社団法人輝和会,,その他の設立登記法人,東京都,渋谷区,渋谷１丁目２４番６号マトリクス・ツービル２階,,13,113,1500002,,,,,,,2024-07-18,1,,,,,キョウワカイ,0
1988,9011501030939,新規,0,2024-07-18,2024-07-18,株式会社ディアン・ケト,,株式会社,東京都,北区,昭和町１丁目２番７－３０３号ルピナス昭和町,,13,117,1140011,,,,,,,2024-07-18,1,,,,,ディアンケト,0
1996,9012703003047,新規,0,2024-07-18,2024-07-18,ＰＲＯＵＤ合同会社,,合同会社,東京都,東久留米市,滝山７丁目２番３号,,13,222,2030033,,,,,,,2024-07-18,1,,,,,プラウド,0
1998,9012801023335,新規,0,2024-07-18,2024-07-18,丸本株式会社,,株式会社,東京都,立川市,柏町４丁目５１番地の１柏町団地１０棟４０７号,,13,202,1900004,,,,,,,2024-07-18,1,,,,,マルホン,0
1999,9013101009454,新規,0,2024-07-18,2024-07-18,中村酒店株式会社,,株式会社,東京都,西多摩郡瑞穂町,大字二本木８３９番地１,,13,303,1901201,,,,,,,2024-07-18,1,,,,,,0
2004,9013301052849,新規,0,2024-07-18,2024-07-18,株式会社スペースワールド,,株式会社,東京都,豊島区,高松３丁目９番１４号滝口ハイツ１０１号,,13,116,1710042,,,,,,,2024-07-18,1,,,,,スペースワールド,0
2007,9020001158109,新規,0,2024-07-18,2024-07-18,株式会社ｋｉｍｉＮｏｔｅ,,株式会社,神奈川県,横浜市金沢区,東朝比奈１丁目１８番４号,,14,108,2360033,,,,,,,2024-07-18,1,,,,,キミノテ,0
2015,9021001082744,新規,0,2024-07-18,2024-07-18,Ｆ．Ｒ．Ｙ株式会社,,株式会社,神奈川県,足柄上郡開成町,延沢２５１１番地３,,14,366,2580026,,,,,,,2024-07-18,1,,,,,エフアールワイ,0
2021,9030001161458,新規,0,2024-07-18,2024-07-18,株式会社小澤建工,,株式会社,埼玉県,久喜市,菖蒲町新堀２５３９番地１７,,11,232,3460105,,,,,,,2024-07-18,1,,,,,オザワケンコウ,0
2022,9030001161508,新規,0,2024-07-18,2024-07-18,株式会社イモテック,,株式会社,埼玉県,川越市,大字中福１５３－２,,11,201,3501156,,,,,,,2024-07-18,1,,,,,イモテック,0
2024,9030003024720,新規,0,2024-07-18,2024-07-18,ＦＫ合同会社,,合同会社,埼玉県,川口市,仲町１５番２８号,,11,203,3320022,,,,,,,2024-07-18,1,,,,,エフケー,0
2028,9040001134553,新規,0,2024-07-18,2024-07-18,株式会社Ｒｏｇｕｅ　Ｏｎｅ,,株式会社,千葉県,市川市,市川南３丁目１４番１６号Ｂ棟１Ｆ,,12,203,2720033,,,,,,,2024-07-18,1,,,,,ローグワン,0
2029,9040001134594,新規,0,2024-07-18,2024-07-18,株式会社ヒカリネクサス,,株式会社,千葉県,佐倉市,染井野５丁目２０番地１１,,12,212,2850831,,,,,,,2024-07-18,1,,,,,ヒカリネクサス,0
2030,9040003025420,新規,0,2024-07-18,2024-07-18,合同会社Ｂｕｄｇｅｔ　Ｓｉｔｅｓ,,合同会社,千葉県,流山市,三輪野山４丁目６番地の６,,12,220,2700175,,,,,,,2024-07-18,1,,,,,バジェットサイト,0
2031,9040003025437,新規,0,2024-07-18,2024-07-18,合同会社たけ映像企画室,,合同会社,千葉県,千葉市稲毛区,長沼町２５２―９,,12,103,2630005,,,,,,,2024-07-18,1,,,,,タケエイゾウキカクシツ,0
2036,9060005010229,新規,0,2024-07-18,2024-07-18,特定非営利活動法人必有隣雅楽会,,その他の設立登記法人,栃木県,宇都宮市,さつき３丁目５番８号,,09,201,3210141,,,,,,,2024-07-18,1,,,,,ヒツユウリンガガクカイ,0
2042,9080401027312,新規,0,2024-07-18,2024-07-18,株式会社ＭＵＲＡ,,株式会社,静岡県,磐田市,福田１６４番地,,22,211,4371203,,,,,,,2024-07-18,1,,,,,ムラ,0
2059,9120001266826,新規,0,2024-07-18,2024-07-18,愛工業株式会社,,株式会社,大阪府,大阪市旭区,新森７丁目４番２２号,,27,117,5350022,,,,,,,2024-07-18,1,,,,,アイコウギョウ,0
2060,9120001266891,新規,0,2024-07-18,2024-07-18,株式会社ソーカルトイズ,,株式会社,大阪府,大阪市西区,千代崎２丁目１－４９－２階,,27,106,5500023,,,,,,,2024-07-18,1,,,,,ソーカルトイズ,0
2061,9120001266900,新規,0,2024-07-18,2024-07-18,弘祖株式会社,,株式会社,大阪府,大阪市浪速区,桜川２丁目１４番２４号４０２,,27,111,5560022,,,,,,,2024-07-18,1,,,,,コウソ,0
2064,9120003027037,新規,0,2024-07-18,2024-07-18,ＷＶＡ合同会社,,合同会社,大阪府,大阪市北区,神山町８番１号梅田辰巳ビル６階,,27,127,5300026,,,,,,,2024-07-18,1,,,,,ダブリューブイエー,0
2065,9120003027061,新規,0,2024-07-18,2024-07-18,合同会社ＫＡＴＡＹＵＫＩ,,合同会社,大阪府,大阪市中央区,谷町６丁目４番３８号大宝谷六ロイヤルハイツ２０５,,27,128,5420012,,,,,,,2024-07-18,1,,,,,カタユキ,0
2067,9120005024429,新規,0,2024-07-18,2024-07-18,医療法人藍泉会,,その他の設立登記法人,大阪府,大阪市城東区,古市３丁目２４番１号１階３階,,27,118,5360001,,,,,,,2024-07-18,1,,,,,アイセンカイ,0
2075,9130001077454,新規,0,2024-07-18,2024-07-18,株式会社実宝,,株式会社,京都府,木津川市,木津川台６丁目２番地１ローレルスクエア木津川台６－２０２,,26,214,6190225,,,,,,,2024-07-18,1,,,,,ミホウ,0
2076,9130001077462,新規,0,2024-07-18,2024-07-18,株式会社ＹＵＺＵＲＩＨＡ,,株式会社,京都府,京都市中京区,西ノ京馬代町１２番地３４,,26,104,6048457,,,,,,,2024-07-18,1,,,,,ユズリハ,0
2081,9140001135153,新規,0,2024-07-18,2024-07-18,株式会社Ｔａｓｋ　Ｌｉｆｅ　Ｐａｒｔｎｅｒ,,株式会社,兵庫県,姫路市,米屋町１３番地,,28,201,6700003,,,,,,,2024-07-18,1,,,,,タスクライフパートナー,0
2082,9140001135161,新規,0,2024-07-18,2024-07-18,株式会社Ｓｅａ,,株式会社,兵庫県,赤穂市,坂越２８５１－１６－１００４,,28,212,6780172,,,,,,,2024-07-18,1,,,,,シー,0
2083,9140001135194,新規,0,2024-07-18,2024-07-18,ロシュ株式会社,,株式会社,兵庫県,芦屋市,岩園町４番５号,,28,206,6590013,,,,,,,2024-07-18,1,,,,,ロシュ,0
2086,9140003020832,新規,0,2024-07-18,2024-07-18,合同会社Ｒ．Ｉ．Ｔ,,合同会社,兵庫県,神戸市中央区,熊内橋通１丁目７番３－２号,,28,110,6510055,,,,,,,2024-07-18,1,,,,,リット,0
2099,9180001162400,新規,0,2024-07-18,2024-07-18,ヤマト創建株式会社,,株式会社,愛知県,愛知郡東郷町,大字春木字南岡ノ上１５４７番地１,,23,302,4700162,,,,,,,2024-07-18,1,,,,,ヤマトソウケン,0
2105,9180301038845,新規,0,2024-07-18,2024-07-18,株式会社ＧＯＫ,,株式会社,愛知県,田原市,谷熊町栗生５８番地１,,23,231,4413412,,,,,,,2024-07-18,1,,,,,ジーオーケー,0
2107,9180303006180,新規,0,2024-07-18,2024-07-18,Ａｍｉｎｏ　Ｐｒｏ合同会社,,合同会社,愛知県,豊田市,河合町５丁目３２番地２,,23,211,4710824,,,,,,,2024-07-18,1,,,,,アミノプロ,0
2108,9180303006189,新規,0,2024-07-18,2024-07-18,Ｒ＆Ａ合同会社,,合同会社,愛知県,安城市,東明町３番地９アルフェやまぐち１Ｆ,,23,212,4460027,,,,,,,2024-07-18,1,,,,,アールアンドエイ,0
2109,9190001031496,新規,0,2024-07-18,2024-07-18,いいばらんす株式会社,,株式会社,三重県,志摩市,阿児町国府３５１８番地１８,,24,215,5170506,,,,,,,2024-07-18,1,,,,,イイバランス,0
2112,9210003001817,新規,0,2024-07-18,2024-07-18,合同会社ちょうごろう,,合同会社,福井県,福井市,経田２丁目８－３５,,18,201,9100011,,,,,,,2024-07-18,1,,,,,チョウゴロウ,0
2117,9240001063550,新規,0,2024-07-18,2024-07-18,株式会社アプローチ,,株式会社,広島県,福山市,昭和町４番２０号２Ｆ,,34,207,7200808,,,,,,,2024-07-18,1,,,,,アプローチ,0
2120,9240003006771,新規,0,2024-07-18,2024-07-18,合同会社Ｓｎｏｗ　Ｌｉｆｅ,,合同会社,広島県,広島市安佐北区,口田南３丁目４１番７－３号,,34,106,7391733,,,,,,,2024-07-18,1,,,,,スノーライフ,0
2132,9290001106429,新規,0,2024-07-18,2024-07-18,株式会社ケイ・アールズ,,株式会社,福岡県,糟屋郡志免町,別府東２丁目１１番１０号,,40,343,8112231,,,,,,,2024-07-18,1,,,,,ケイアールズ,0
2133,9290001106437,新規,0,2024-07-18,2024-07-18,株式会社ＳＫＹ’Ｒ,,株式会社,福岡県,福岡市城南区,七隈６丁目８番１号,,40,136,8140133,,,,,,,2024-07-18,1,,,,,スカイアール,0
2138,9290801030712,新規,0,2024-07-18,2024-07-18,株式会社桜＆すみれ,,株式会社,福岡県,北九州市小倉北区,白銀１丁目４番１４号,,40,106,8020074,,,,,,,2024-07-18,1,,,,,サクラアンドスミレ,0
2139,9290805009760,新規,0,2024-07-18,2024-07-18,一般社団法人ＴＥＡＭみやわかじまん,,その他の設立登記法人,福岡県,宮若市,宮田２９番地１,,40,226,8230011,,,,,,,2024-07-18,1,,,,,チームミヤワカジマン,0
2143,9310001019116,新規,0,2024-07-18,2024-07-18,ＦＯＲＴＵＮＡ株式会社,,株式会社,長崎県,長崎市,本尾町７番１５号,,42,201,8528112,,,,,,,2024-07-18,1,,,,,,0
2145,9310003004818,新規,0,2024-07-18,2024-07-18,アソビバ合同会社,,合同会社,長崎県,五島市,吉久木町７番地１,,42,211,8530031,,,,,,,2024-07-18,1,,,,,アソビバ,0
2147,9320001020601,新規,0,2024-07-18,2024-07-18,株式会社ＨＯＴ‐ＲＥＰＡＩＲ,,株式会社,大分県,大分市,高松１丁目７番８号サンメゾン高城１０２号室,,44,201,8700917,,,,,,,2024-07-18,1,,,,,ホットリペア,0
2150,9330003010467,新規,0,2024-07-18,2024-07-18,合同会社大真,,合同会社,熊本県,菊池郡菊陽町,大字原水２８４０番地５,,43,404,8691102,,,,,,,2024-07-18,1,,,,,ダイシン,0
2158,9360005007070,新規,0,2024-07-18,2024-07-18,無限責任山城負債整理組合,,その他の設立登記法人,沖縄県,島尻郡久米島町,字山城,,47,361,9013111,,,,,,,2024-07-18,1,,,,,ムゲンセキニンヤマシロフサイセイリクミアイ,0
2159,9370001051526,新規,0,2024-07-18,2024-07-18,ヤマト株式会社,,株式会社,宮城県,仙台市青葉区,折立３丁目３番１６号,,04,101,9820261,,,,,,,2024-07-18,1,,,,,ヤマト,0
2168,9400001016723,新規,0,2024-07-18,2024-07-18,株式会社ｓｅｉｓ,,株式会社,岩手県,盛岡市,天神町１３番２０号ラ・メゾンノア１０１号,,03,201,0200881,,,,,,,2024-07-18,1,,,,,セイス,0
2169,9410003003958,新規,0,2024-07-18,2024-07-18,合同会社ＴＡＫＡＨＡＳＨＩ,,合同会社,秋田県,横手市,十文字町梨木字羽場下１０番地９５,,05,203,0190509,,,,,,,2024-07-18,1,,,,,タカハシ,0
2174,9460001005927,新規,0,2024-07-18,2024-07-18,株式会社丸進工業,,株式会社,北海道,釧路市,愛国東１丁目９番７号,,01,206,0850058,,,,,,,2024-07-18,1,,,,,マルシンコウギョウ,0
2179,9470003002681,新規,0,2024-07-18,2024-07-18,合同会社ＳＥＴ　ＵＰ,,合同会社,香川県,高松市,牟礼町牟礼３番地１,,37,201,7610121,,,,,,,2024-07-18,1,,,,,セットアップ,0
2183,9500001025755,新規,0,2024-07-18,2024-07-18,株式会社ＦＡＩＲＥ,,株式会社,愛媛県,宇和島市,伊吹町甲１１１５番地１サントノーレ伊吹弐番館６０４,,38,203,7980022,,,,,,,2024-07-18,1,,,,,フェール,0
