sequenceNumber,corporateNumber,process,correct,updateDate,changeDate,name,nameImageId,kind,prefectureName,cityName,streetNumber,addressImageId,prefectureCode,cityCode,postCode,addressOutside,addressOutsideImageId,closeDate,closeCause,successorCorporateNumber,changeCause,assignmentDate,latest,enName,enPrefectureName,enCityName,enAddressOutside,furigana,hihyoji
5,1010001128400,登記記録の閉鎖等,0,2021-09-27,2021-09-21,株式会社アルファ,,株式会社,東京都,千代田区,岩本町１丁目９番５号ＦＫビル３階,,13,101,1010032,,,2021-09-21,清算の結了等,,,2015-10-05,1,,,,,アルファ,0
31,1011001041048,登記記録の閉鎖等,0,2021-09-27,2021-09-02,株式会社ジョイントワークス,,株式会社,東京都,渋谷区,渋谷１丁目２３番２１号,,13,113,1500002,,,2021-09-02,合併による解散等,8011001020730,令和３年９月１日東京都渋谷区渋谷一丁目２３番２１号株式会社ベイクルーズ（8011001020730）に合併し解散,2015-10-05,1,,,,,ジョイントワークス,0
32,1011001049009,登記記録の閉鎖等,0,2021-09-27,2021-09-02,株式会社フレームワークス,,株式会社,東京都,渋谷区,渋谷１丁目２３番２１号,,13,113,1500002,,,2021-09-02,合併による解散等,8011001020730,令和３年９月１日東京都渋谷区渋谷一丁目２３番２１号株式会社ベイクルーズ（8011001020730）に合併し解散,2015-10-05,1,,,,,フレームワークス,0
33,1011001066474,登記記録の閉鎖等,0,2021-09-27,2021-09-02,株式会社ラクラス,,株式会社,東京都,渋谷区,渋谷１丁目２３番２１号,,13,113,1500002,,,2021-09-02,合併による解散等,8011001057806,令和３年９月１日東京都渋谷区渋谷一丁目２３番２１号株式会社ルドーム（8011001057806）に合併し解散,2015-10-05,1,,,,,ラクラス,0
62,1013301044829,登記記録の閉鎖等,0,2021-09-27,2021-09-17,セルハンドレッド株式会社,,株式会社,東京都,豊島区,東池袋１丁目４７番２－６０５号,,13,116,1700013,,,2021-09-17,清算の結了等,,,2019-11-27,1,,,,,セルハンドレッド,0
66,1020001001977,登記記録の閉鎖等,0,2021-09-27,2021-09-21,クローバー産業株式会社,,株式会社,神奈川県,横浜市緑区,十日市場町８７４番地２５,,14,113,2260025,,,2021-09-21,清算の結了等,,,2015-10-05,1,,,,,クローバーサンギョウ,0
113,1100001024813,登記記録の閉鎖等,0,2021-09-27,2021-09-22,近藤材料株式会社,,株式会社,長野県,飯田市,伝馬町１丁目２９番地,,20,205,3950016,,,2021-09-22,清算の結了等,,,2015-10-05,1,,,,,コンドウザイリョウ,0
127,1120002062455,登記記録の閉鎖等,0,2021-09-27,2021-09-13,有限会社Ｗ・Ｈａｒｍｏｎｙ,,有限会社,大阪府,大阪市北区,長柄西１丁目３－５４－８２４,,27,127,5310061,,,2021-09-13,清算の結了等,,,2015-10-05,1,,,,,ダブルハーモニー,0
137,1120102001924,登記記録の閉鎖等,0,2021-09-27,2021-09-22,有限会社国松伸線所,,有限会社,大阪府,堺市堺区,高砂町３丁９１番地,,27,141,5900820,,,2021-09-22,合併による解散等,5120101002201,令和３年９月２２日大阪府堺市西区築港浜寺西町７番地光陽電線株式会社（5120101002201）に合併し解散,2015-10-05,1,,,,,クニマツシンセンショ,0
168,1180003019283,登記記録の閉鎖等,0,2021-09-27,2021-09-22,合同会社ｉｔａ－ｎｏ－ｍａ,,合同会社,愛知県,江南市,高屋町遠場５８番地１,,23,217,4838045,,,2021-09-22,清算の結了等,,,2018-10-02,1,,,,,イタノマ,0
177,1200001008789,登記記録の閉鎖等,0,2021-09-27,2021-09-24,株式会社日中東海サポート連合会,,株式会社,岐阜県,岐阜市,小西郷２８４番地４,,21,201,5011176,,,2021-09-24,清算の結了等,,,2015-10-05,1,,,,,ニッチュウトウカイサポートレンゴウカイ,0
185,1200005002747,登記記録の閉鎖等,0,2021-09-27,2021-09-22,東海友和ファッション協同組合,,その他の設立登記法人,岐阜県,岐阜市,秋沢１丁目５５番地１,,21,201,5011182,,,2021-09-22,清算の結了等,,,2015-10-05,1,,,,,トウカイユウワファッション,0
190,1210002001882,登記記録の閉鎖等,0,2021-09-27,2021-09-22,有限会社オフィス藤,,有限会社,福井県,福井市,大手１丁目２番２８号,,18,201,9100005,,,2021-09-22,清算の結了等,,,2015-10-05,1,,,,,オフィスフジ,0
195,1230001010742,登記記録の閉鎖等,0,2021-09-27,2021-09-21,株式会社広岡商店,,株式会社,富山県,高岡市,北島１００４番地の１,,16,202,9330838,,,2021-09-21,清算の結了等,,,2015-10-05,1,,,,,,0
214,1290002017392,登記記録の閉鎖等,0,2021-09-27,2021-09-07,有限会社藤野硝子店,,有限会社,福岡県,福岡市博多区,春町３丁目２番２２－１０１号,,40,132,8120872,,,2021-09-07,清算の結了等,,,2015-10-05,1,,,,,フジノガラステン,0
241,1350002000920,登記記録の閉鎖等,0,2021-09-27,2021-09-22,有限会社小倉養鶏場,,有限会社,宮崎県,宮崎市,大字本郷北方字池田４４２３番地６,,45,201,8800925,,,2021-09-22,清算の結了等,,,2015-10-05,1,,,,,オグラヨウケイジョウ,0
258,1430002010960,登記記録の閉鎖等,0,2021-09-27,2021-09-13,有限会社成和建設,,有限会社,北海道,札幌市中央区,南十条西１８丁目１番３－３０９号,,01,101,0640810,,,2021-09-13,清算の結了等,,,2015-10-05,1,,,,,セイワケンセツ,0
263,1450002011230,登記記録の閉鎖等,0,2021-09-27,2021-09-22,有限会社吉田商店,,有限会社,北海道,稚内市,恵比須４丁目４番２４号,,01,214,0970025,,,2021-09-22,清算の結了等,,,2015-10-05,1,,,,,ヨシダショウテン,0
264,1460302003991,登記記録の閉鎖等,0,2021-09-27,2021-09-21,有限会社ユニット,,有限会社,北海道,北見市,美芳町７丁目２番２０号,,01,208,0900064,,,2021-09-21,清算の結了等,,,2015-10-05,1,,,,,ユニット,0
267,1470002003985,登記記録の閉鎖等,0,2021-09-27,2021-09-21,有限会社瀬戸内ビジネス,,有限会社,香川県,高松市,鬼無町佐料１３３番地,,37,201,7618022,,,2021-09-21,清算の結了等,,,2015-10-05,1,,,,,セトウチビジネス,0
282,2010002015282,登記記録の閉鎖等,0,2021-09-27,2021-09-17,有限会社山和,,有限会社,東京都,千代田区,神田須田町２丁目２３番９,,13,101,1010041,,,2021-09-17,清算の結了等,,,2015-10-05,1,,,,,ヤマワ,0
336,2011802003484,登記記録の閉鎖等,0,2021-09-27,2021-09-24,有限会社サン・ワーク,,有限会社,東京都,葛飾区,青戸８丁目１１番８－２０８号,,13,122,1250062,,,2021-09-24,清算の結了等,,,2015-10-05,1,,,,,,0
337,2011802015785,登記記録の閉鎖等,0,2021-09-27,2021-09-22,有限会社司精機工業,,有限会社,東京都,足立区,島根４丁目２２番１５号,,13,121,1210815,,,2021-09-22,清算の結了等,,,2015-10-05,1,,,,,ツカサセイキコウギョウ,0
351,2020001004293,登記記録の閉鎖等,0,2021-09-27,2021-09-21,株式会社二宮板金,,株式会社,神奈川県,横浜市磯子区,田中１丁目２４番３号,,14,107,2350035,,,2021-09-21,清算の結了等,,,2015-10-05,1,,,,,ニノミヤバンキン,0
352,2020001019341,登記記録の閉鎖等,0,2021-09-27,2021-09-17,株式会社アクセスネットワーク,,株式会社,神奈川県,横浜市港北区,篠原東１丁目７番２２号,,14,109,2220022,,,2021-09-17,清算の結了等,,,2015-10-05,1,,,,,アクセスネットワーク,0
368,2030001019654,登記記録の閉鎖等,0,2021-09-27,2021-09-13,株式会社裕翔,,株式会社,埼玉県,さいたま市岩槻区,大字岩槻６９１２番地１,,11,110,3390061,,,2021-09-13,清算の結了等,,,2015-10-05,1,,,,,,0
377,2040001079193,登記記録の閉鎖等,0,2021-09-27,2021-09-15,株式会社アネット,,株式会社,千葉県,大網白里市,四天木６１６番地１,,12,239,2993203,,,2021-09-15,清算の結了等,,,2015-10-05,1,,,,,アネット,0
381,2050002035599,登記記録の閉鎖等,0,2021-09-27,2021-09-21,有限会社木村タイヤ商会,,有限会社,茨城県,常陸大宮市,姥賀町５６１番地の２,,08,225,3192251,,,2021-09-21,清算の結了等,,,2015-10-05,1,,,,,キムラタイヤショウカイ,0
387,2080001011391,登記記録の閉鎖等,0,2021-09-27,2021-09-22,株式会社協和エンジニアリング,,株式会社,静岡県,榛原郡吉田町,片岡１１５８番地の３,,22,424,4210303,,,2021-09-22,清算の結了等,,,2015-10-05,1,,,,,キョウワエンジニアリング,0
392,2080402014753,登記記録の閉鎖等,0,2021-09-27,2021-09-21,有限会社大石材木店,,有限会社,静岡県,浜松市浜北区,根堅１９９３番地の２,,22,136,4340016,,,2021-09-21,清算の結了等,,,2015-10-05,1,,,,,オオイシザイモクテン,0
397,2110001001018,登記記録の閉鎖等,0,2021-09-27,2021-09-21,株式会社外装リフオーム,,株式会社,新潟県,新潟市東区,紫竹６丁目２５番３号,,15,102,9500864,,,2021-09-21,清算の結了等,,,2015-10-05,1,,,,,ガイソウリフオーム,0
427,2130001002617,登記記録の閉鎖等,0,2021-09-27,2021-09-21,株式会社えのき,,株式会社,京都府,京都市上京区,大宮通上立売上る西入伊佐町２４１番地,,26,102,6028407,,,2021-09-21,清算の結了等,,,2015-10-05,1,,,,,エノキ,0
429,2130001046688,登記記録の閉鎖等,0,2021-09-27,2021-09-22,株式会社アダプトコーポレーション,,株式会社,京都府,京都市伏見区,向島中島町２１番地２,,26,109,6128113,,,2021-09-22,清算の結了等,,,2015-10-05,1,,,,,アダプトコーポレーション,0
437,2140001045722,登記記録の閉鎖等,0,2021-09-27,2021-09-21,株式会社アキ設備設計,,株式会社,兵庫県,加古郡稲美町,野寺１０５０番地の３３１,,28,381,6751104,,,2021-09-21,清算の結了等,,,2015-10-05,1,,,,,アキセツビセッケイ,0
444,2140005024318,登記記録の閉鎖等,0,2021-09-27,2021-09-24,ＮＰＯ法人高齢者いきいきサポート楽苑神戸,,その他の設立登記法人,兵庫県,神戸市中央区,雲井通２丁目１－９,,28,110,6510096,,,2021-09-24,清算の結了等,,,2018-10-25,1,,,,,コウレイシャイキイキサポートラクエンコウベ,0
446,2150001010080,登記記録の閉鎖等,0,2021-09-27,2021-09-14,株式会社城島技建サービス,,株式会社,大阪府,大阪市東住吉区,針中野４丁目４番６号,,27,121,5460011,,,2021-09-14,清算の結了等,,,2015-10-05,1,,,,,シキシマギケンサービス,0
453,2180002028425,登記記録の閉鎖等,0,2021-09-27,2021-09-17,有限会社東海特許サービス,,有限会社,愛知県,名古屋市中村区,椿町２１番２号,,23,105,4530015,,,2021-09-17,清算の結了等,,,2015-10-05,1,,,,,トウカイトッキョサービス,0
455,2180002052540,登記記録の閉鎖等,0,2021-09-27,2021-09-21,南山興産有限会社,,有限会社,愛知県,名古屋市北区,柳原１丁目１０番１６号,,23,103,4620845,,,2021-09-21,清算の結了等,,,2015-10-05,1,,,,,ナンザンコウサン,0
469,2210002013811,登記記録の閉鎖等,0,2021-09-27,2021-09-16,有限会社タカトリ,,有限会社,福井県,小浜市,羽賀第８号６番地の１２,,18,204,9170017,,,2021-09-16,清算の結了等,,,2015-10-05,1,,,,,タカトリ,0
472,2220002000148,登記記録の閉鎖等,0,2021-09-27,2021-09-21,有限会社三登,,有限会社,石川県,金沢市,窪１丁目８２番地３,,17,201,9218151,,,2021-09-21,清算の結了等,,,2015-10-05,1,,,,,サント,0
478,2260001024697,登記記録の閉鎖等,0,2021-09-27,2021-09-22,株式会社はしもと,,株式会社,岡山県,津山市,南町１丁目２１番地,,33,203,7080881,,,2021-09-22,清算の結了等,,,2015-10-05,1,,,,,ハシモト,0
489,2290002040476,登記記録の閉鎖等,0,2021-09-27,2021-09-07,有限会社ワールドモータース,,有限会社,福岡県,大野城市,御笠川１丁目１０番４号,,40,219,8160912,,,2021-09-07,清算の結了等,,,2015-10-05,1,,,,,ワールドモータース,0
524,2370601002918,登記記録の閉鎖等,0,2021-09-27,2021-09-15,株式会社リリーフ,,株式会社,宮城県,多賀城市,高橋３丁目１３番７号,,04,209,9850853,,,2021-09-15,清算の結了等,,,2015-10-05,1,,,,,リリーフ,0
526,2390001015931,登記記録の閉鎖等,0,2021-09-27,2021-09-16,株式会社方隆,,株式会社,山形県,鶴岡市,美原町１７番地１０,,06,203,9970826,,,2021-09-16,清算の結了等,,,2020-01-06,1,,,,,ホウリュウ,0
548,3010003018572,登記記録の閉鎖等,0,2021-09-27,2021-09-17,ツバキ・シップ・ホールディング合同会社,,合同会社,東京都,中央区,京橋２丁目２番１号,,13,102,1040031,,,2021-09-17,清算の結了等,,,2015-10-05,1,,,,,ツバキシップホールディング,0
563,3010701006300,登記記録の閉鎖等,0,2021-09-27,2021-09-17,テクノリサーチ株式会社,,株式会社,東京都,品川区,東五反田１丁目１０番９号,,13,109,1410022,,,2021-09-17,清算の結了等,,,2015-10-05,1,,,,,テクノリサーチ,0
566,3010803002957,登記記録の閉鎖等,0,2021-09-27,2021-09-02,あやのアンダンテ合同会社,,合同会社,東京都,中央区,東日本橋２丁目２８番４号日本橋ＣＥＴビル２階,,13,102,1030004,,,2021-09-02,清算の結了等,,,2019-03-18,1,,,,,アヤノアンダンテ,0
571,3011001119874,登記記録の閉鎖等,0,2021-09-27,2021-09-06,ニワトリスター株式会社,,株式会社,東京都,渋谷区,千駄ヶ谷５丁目１６番１６号千駄ヶ谷フラワーマンション３０１号室,,13,113,1510051,,,2021-09-06,清算の結了等,,,2017-12-26,1,,,,,ニワトリスター,0
582,3011101076041,登記記録の閉鎖等,0,2021-09-27,2021-09-14,株式会社ボッチャー,,株式会社,東京都,新宿区,歌舞伎町２丁目２５番８－２３７号,,13,104,1600021,,,2021-09-14,清算の結了等,,,2016-02-17,1,,,,,ボッチャー,0
584,3011101083351,登記記録の閉鎖等,0,2021-09-27,2021-09-15,株式会社ＭＨアセットマネジメント,,株式会社,東京都,新宿区,富久町１５番１－５５０２号,,13,104,1620067,,,2021-09-15,清算の結了等,,,2018-02-28,1,,,,,エムエイチアセットマネジメント,0
622,3020001052639,登記記録の閉鎖等,0,2021-09-27,2021-09-21,株式会社クレスト８１,,株式会社,神奈川県,横浜市都筑区,茅ケ崎南４丁目１５番１－８０４号,,14,118,2240037,,,2021-09-21,清算の結了等,,,2015-10-05,1,,,,,クレストハチジュウイチ,0
629,3020001106808,登記記録の閉鎖等,0,2021-09-27,2021-09-21,株式会社Ｐｏｕｌａｉｎ,,株式会社,神奈川県,川崎市高津区,下作延２丁目１４番１５－４１０号,,14,134,2130033,,,2021-09-21,清算の結了等,,,2015-10-05,1,,,,,ポラン,0
655,3030002108587,登記記録の閉鎖等,0,2021-09-27,2021-09-13,有限会社ブイツー,,有限会社,埼玉県,川口市,幸町３丁目５番１４号,,11,203,3320016,,,2021-09-13,清算の結了等,,,2015-10-05,1,,,,,ブイツー,0
663,3050002027694,登記記録の閉鎖等,0,2021-09-27,2021-09-16,有限会社クラヨシ,,有限会社,茨城県,神栖市,砂山２８３１番地の２０,,08,232,3140255,,,2021-09-16,合併による解散等,2050001020916,令和３年９月１日茨城県神栖市砂山２８３１番地の２０鹿島旭自動車ボデー株式会社（2050001020916）に合併し解散,2015-10-05,1,,,,,,0
668,3070002035150,登記記録の閉鎖等,0,2021-09-27,2021-09-21,マルマン商事有限会社,,有限会社,群馬県,沼田市,清水町４３１０番地,,10,206,3780016,,,2021-09-21,清算の結了等,,,2015-10-05,1,,,,,,0
671,3080002000062,登記記録の閉鎖等,0,2021-09-27,2021-09-22,有限会社青島自動車工場,,有限会社,静岡県,静岡市葵区,瀬名川１丁目２６番６号,,22,101,4200913,,,2021-09-22,清算の結了等,,,2015-10-05,1,,,,,アオシマジドウシャコウジョウ,0
695,3120005002175,登記記録の閉鎖等,0,2021-09-27,2021-09-22,褒徳会本部,,その他の設立登記法人,大阪府,大阪市東成区,大成通り三丁目９番地,,27,115,5370000,,,2021-09-22,清算の結了等,,,2015-10-05,1,,,,,ホウトクカイホンブ,1
709,3140002040184,登記記録の閉鎖等,0,2021-09-27,2021-09-21,有限会社エムアール,,有限会社,兵庫県,尼崎市,立花町４丁目１４番４号,,28,202,6610025,,,2021-09-21,合併による解散等,8140001085374,令和３年９月２１日兵庫県淡路市岩屋１３２０番地の４山川産業株式会社（8140001085374）に合併し解散,2015-10-05,1,,,,,エムアール,0
735,3200005001961,登記記録の閉鎖等,0,2021-09-27,2021-09-22,掛生産森林組合,,その他の設立登記法人,岐阜県,山県市,掛２１０番地の１,,21,215,5012132,,,2021-09-22,清算の結了等,,,2015-10-05,1,,,,,カケ,0
736,3200005011812,登記記録の閉鎖等,0,2021-09-27,2021-09-22,特定非営利活動法人恵那野生植物の会,,その他の設立登記法人,岐阜県,恵那市,飯地町１２２０番地,,21,210,5098232,,,2021-09-22,清算の結了等,,,2015-10-05,1,,,,,エナヤセイショクブツノカイ,0
747,3270001003591,登記記録の閉鎖等,0,2021-09-27,2021-09-21,株式会社みどり商事,,株式会社,鳥取県,境港市,上道町４３３番地１,,31,204,6840033,,,2021-09-21,清算の結了等,,,2015-10-05,1,,,,,ミドリショウジ,0
749,3290001026178,登記記録の閉鎖等,0,2021-09-27,2021-09-07,株式会社トーヨー物流サービス,,株式会社,福岡県,福岡市博多区,金の隈１丁目３３番２７号,,40,132,8120863,,,2021-09-07,清算の結了等,,,2015-10-05,1,,,,,トーヨーブツリュウサービス,0
772,3330005009075,登記記録の閉鎖等,0,2021-09-27,2021-09-22,税理士法人あおば,,その他の設立登記法人,熊本県,熊本市西区,京町本丁３番５０号,,43,103,8600081,,,2021-09-22,清算の結了等,,,2015-10-05,1,,,,,アオバ,0
773,3340002005200,登記記録の閉鎖等,0,2021-09-27,2021-09-17,有限会社鈴木表建装,,有限会社,鹿児島県,鹿児島市,小松原１丁目２１番７号,,46,201,8910114,,,2021-09-17,清算の結了等,,,2015-10-05,1,,,,,スズキヒョウケンソウ,0
776,3360001009992,登記記録の閉鎖等,0,2021-09-27,2021-09-16,株式会社サンシティーリゾート,,株式会社,沖縄県,国頭郡恩納村,字名嘉真２０８３番地１,,47,311,9040401,,,2021-09-16,合併による解散等,7010401068100,令和３年９月１日東京都渋谷区恵比寿一丁目２３番１３号アルカイビル５Ｆ株式会社ＵＮＯ－ＨＯＬＤＩＮＧＳ（7010401068100）に合併し解散,2015-10-05,1,,,,,,0
788,3390005008393,登記記録の閉鎖等,0,2021-09-27,2021-09-17,特定非営利活動法人地域密着ケアセンターみなも,,その他の設立登記法人,山形県,新庄市,大町１番１５号,,06,205,9960026,,,2021-09-17,清算の結了等,,,2015-10-05,1,,,,,チイキミッチャクケアセンターミナモ,0
793,3430001014135,登記記録の閉鎖等,0,2021-09-27,2021-09-21,株式会社ビルド・サッシ総業,,株式会社,北海道,札幌市南区,澄川三条１丁目６番１５号,,01,106,0050003,,,2021-09-21,清算の結了等,,,2015-10-05,1,,,,,ビルドサッシソウギョウ,0
800,4010001084194,登記記録の閉鎖等,0,2021-09-27,2021-09-15,理研科学株式会社,,株式会社,東京都,文京区,本郷３丁目２２番１１号,,13,105,1130033,,,2021-09-15,清算の結了等,,,2015-10-05,1,,,,,リケンカガク,0
808,4010001179250,登記記録の閉鎖等,0,2021-09-27,2021-09-13,株式会社ティーライズプロモーション,,株式会社,北海道,札幌市白石区,菊水元町八条１丁目６番３１号,,01,104,0030828,,,2021-09-13,清算の結了等,,,2016-10-27,1,,,,,ティーライズプロモーション,0
816,4010005026028,登記記録の閉鎖等,0,2021-09-27,2021-09-21,日光Ｐｌｕｓホールディング特定目的会社,,その他の設立登記法人,東京都,千代田区,丸の内３丁目１番１号東京共同会計事務所内,,13,101,1000005,,,2021-09-21,清算の結了等,,,2016-11-21,1,,,,,ニッコウプラスホールディング,0
830,4010902018779,登記記録の閉鎖等,0,2021-09-27,2021-09-16,有限会社ミュージアム図書,,有限会社,東京都,中央区,月島３丁目２７番１５号－６０６号室,,13,102,1040052,,,2021-09-16,清算の結了等,,,2015-10-05,1,,,,,ミュージアムトショ,0
835,4011001107580,登記記録の閉鎖等,0,2021-09-27,2021-09-07,ハラルフードサービス株式会社,,株式会社,東京都,目黒区,碑文谷６丁目７番２２号,,13,110,1520003,,,2021-09-07,清算の結了等,,,2015-10-05,1,,,,,ハラルフードサービス,0
892,4030002019651,登記記録の閉鎖等,0,2021-09-27,2021-09-13,有限会社明成,,有限会社,埼玉県,さいたま市緑区,大字上野田５１３番地,,11,109,3360977,,,2021-09-13,清算の結了等,,,2015-10-05,1,,,,,,0
912,4050002042651,登記記録の閉鎖等,0,2021-09-27,2021-09-16,有限会社大木商会,,有限会社,茨城県,桜川市,真壁町真壁３３１番地,,08,231,3004408,,,2021-09-16,清算の結了等,,,2015-10-05,1,,,,,オオキショウカイ,0
919,4080001000995,登記記録の閉鎖等,0,2021-09-27,2021-09-21,開明印刷株式会社,,株式会社,静岡県,静岡市葵区,片羽町７０番地の３,,22,101,4200003,,,2021-09-21,清算の結了等,,,2015-10-05,1,,,,,カイメイインサツ,0
967,4140002049869,登記記録の閉鎖等,0,2021-09-27,2021-09-17,中川被服有限会社,,有限会社,兵庫県,姫路市,亀井町１１４番地,,28,201,6700925,,,2021-09-17,清算の結了等,,,2015-10-05,1,,,,,ナカガワヒフク,0
971,4160001011398,登記記録の閉鎖等,0,2021-09-27,2021-09-22,株式会社コスギ工業,,株式会社,滋賀県,東近江市,瓜生津町９番地,,25,213,5270055,,,2021-09-22,清算の結了等,,,2015-10-05,1,,,,,コスギコウギョウ,0
973,4160005006733,登記記録の閉鎖等,0,2021-09-27,2021-09-22,特定非営利活動法人夢塾おうみ,,その他の設立登記法人,滋賀県,近江八幡市,土田町７８０番地,,25,204,5230082,,,2021-09-22,清算の結了等,,,2015-10-05,1,,,,,ユメジュクオウミ,0
984,4180003012186,登記記録の閉鎖等,0,2021-09-27,2021-09-15,阿部桂毛織合資会社,,合資会社,愛知県,稲沢市,平和町下起東６１番地の２,,23,220,4901323,,,2021-09-15,清算の結了等,,,2015-10-05,1,,,,,アベケイケオリ,0
1000,4200002015690,登記記録の閉鎖等,0,2021-09-27,2021-09-24,有限会社フクジュキャリー,,有限会社,岐阜県,揖斐郡池田町,八幡３０４３番地の３,,21,404,5032426,,,2021-09-24,清算の結了等,,,2015-10-05,1,,,,,フクジュキャリー,0
1020,4290002013744,登記記録の閉鎖等,0,2021-09-27,2021-09-07,有限会社リセエンヌ,,有限会社,福岡県,福岡市中央区,渡辺通１丁目１番１号,,40,133,8100004,,,2021-09-07,清算の結了等,,,2015-10-05,1,,,,,リセエンヌ,0
1052,4390002015895,登記記録の閉鎖等,0,2021-09-27,2021-09-17,河北道路有限会社,,有限会社,山形県,西村山郡河北町,大字岩木９８８番地,,06,321,9993503,,,2021-09-17,清算の結了等,,,2015-10-05,1,,,,,カホクドウロ,0
1059,4420002018267,登記記録の閉鎖等,0,2021-09-27,2021-09-21,有限会社住工房,,有限会社,青森県,上北郡七戸町,字野崎狐久保１０６番地２２６,,02,402,0392804,,,2021-09-21,清算の結了等,,,2015-10-05,1,,,,,スマイコウボウ,0
1078,5010001123744,登記記録の閉鎖等,0,2021-09-27,2021-09-17,株式会社クオリティー,,株式会社,東京都,千代田区,神田佐久間河岸７０号地,,13,101,1010026,,,2021-09-17,清算の結了等,,,2015-10-05,1,,,,,クオリティー,0
1118,5011001117942,登記記録の閉鎖等,0,2021-09-27,2021-09-02,株式会社ＦＬＡＶＯＲＷＯＲＫＳ,,株式会社,東京都,渋谷区,渋谷１丁目２３番２１号,,13,113,1500002,,,2021-09-02,合併による解散等,8011001020730,令和３年９月１日東京都渋谷区渋谷一丁目２３番２１号株式会社ベイクルーズ（8011001020730）に合併し解散,2017-08-21,1,,,,,フレーバーワークス,0
1128,5011101087020,登記記録の閉鎖等,0,2021-09-27,2021-09-09,株式会社ワセダ,,株式会社,東京都,新宿区,四谷本塩町１４番１２号,,13,104,1600003,,,2021-09-09,清算の結了等,,,2019-03-05,1,,,,,ワセダ,0
1139,5011801028802,登記記録の閉鎖等,0,2021-09-27,2021-09-21,日本プリントサービス株式会社,,株式会社,東京都,世田谷区,松原１丁目２３番２号セルリジェール３０１,,13,112,1560043,,,2021-09-21,清算の結了等,,,2015-10-05,1,,,,,ニホンプリントサービス,0
1147,5013201012717,登記記録の閉鎖等,0,2021-09-27,2021-09-02,株式会社ＡＣＭＥ,,株式会社,東京都,渋谷区,渋谷１丁目２３番２１号,,13,113,1500002,,,2021-09-02,合併による解散等,8011001020730,令和３年９月１日東京都渋谷区渋谷一丁目２３番２１号株式会社ベイクルーズ（8011001020730）に合併し解散,2015-10-05,1,,,,,アクメ,0
1173,5030001119501,登記記録の閉鎖等,0,2021-09-27,2021-09-14,株式会社ＬＥＯ,,株式会社,埼玉県,さいたま市緑区,東浦和２丁目８番地１（４１１）,,11,109,3360926,,,2021-09-14,清算の結了等,,,2017-04-04,1,,,,,レオ,0
1185,5060002000450,登記記録の閉鎖等,0,2021-09-27,2021-09-17,有限会社ミタカ,,有限会社,栃木県,宇都宮市,立伏町４７１番地１２７,,09,201,3291116,,,2021-09-17,清算の結了等,,,2015-10-05,1,,,,,,0
1186,5060002003858,登記記録の閉鎖等,0,2021-09-27,2021-09-17,有限会社五代店フタバ,,有限会社,栃木県,宇都宮市,五代１丁目３番１号,,09,201,3210135,,,2021-09-17,清算の結了等,,,2015-10-05,1,,,,,ゴダイテンフタバ,0
1189,5080101008665,登記記録の閉鎖等,0,2021-09-27,2021-09-17,株式会社シンコー,,株式会社,静岡県,富士市,東柏原新田５番地の７,,22,210,4170831,,,2021-09-17,清算の結了等,,,2015-10-05,1,,,,,シンコー,0
1204,5120001021771,登記記録の閉鎖等,0,2021-09-27,2021-09-15,株式会社ミサワ,,株式会社,大阪府,大阪市平野区,加美北８丁目８番４号,,27,126,5470001,,,2021-09-15,清算の結了等,,,2015-10-05,1,,,,,ミサワ,0
1226,5130001012646,登記記録の閉鎖等,0,2021-09-27,2021-09-22,株式会社ケー・ユー・エー・エス,,株式会社,京都府,京都市山科区,音羽乙出町１番地７,,26,110,6078074,,,2021-09-22,清算の結了等,,,2015-10-05,1,,,,,ケーユーエーエス,0
1236,5140005022319,登記記録の閉鎖等,0,2021-09-27,2021-09-21,特定非営利活動法人土地家屋再生情報センター,,その他の設立登記法人,兵庫県,姫路市,田寺東２丁目２８番３号,,28,201,6700081,,,2021-09-21,清算の結了等,,,2015-10-05,1,,,,,トチカオクサイセイジョウホウセンター,0
1258,5200002000155,登記記録の閉鎖等,0,2021-09-27,2021-09-24,有限会社アカマツ,,有限会社,岐阜県,岐阜市,北一色１０丁目２５番１１号,,21,201,5008227,,,2021-09-24,清算の結了等,,,2015-10-05,1,,,,,アカマツ,0
1263,5230001012025,登記記録の閉鎖等,0,2021-09-27,2021-09-16,株式会社ウィズ企画,,株式会社,富山県,高岡市,荻布四つ葉町８番地２,,16,202,9330078,,,2021-09-16,清算の結了等,,,2015-10-05,1,,,,,ウィズキカク,0
1264,5230005006543,登記記録の閉鎖等,0,2021-09-27,2021-09-21,一般財団法人とやま・ふくおか家族旅行村公社,,その他の設立登記法人,富山県,高岡市,福岡町五位５７番地の２,,16,202,9390152,,,2021-09-21,清算の結了等,,,2015-10-05,1,,,,,トヤマフクオカカゾクリョコウムラコウシャ,0
1268,5240002000416,登記記録の閉鎖等,0,2021-09-27,2021-09-22,アキ建設有限会社,,有限会社,広島県,広島市西区,観音町８番８－４０１号,,34,104,7330031,,,2021-09-22,清算の結了等,,,2015-10-05,1,,,,,アキケンセツ,0
1270,5240002016998,登記記録の閉鎖等,0,2021-09-27,2021-09-24,有限会社ヤスナガ内装,,有限会社,広島県,広島市西区,庚午北２丁目４番１２－１０１号,,34,104,7330821,,,2021-09-24,清算の結了等,,,2015-10-05,1,,,,,ヤスナガナイソウ,0
1272,5240003001149,登記記録の閉鎖等,0,2021-09-27,2021-09-24,合同会社オハナ,,合同会社,広島県,広島市南区,皆実町４丁目１５番９号,,34,103,7340007,,,2021-09-24,清算の結了等,,,2015-10-05,1,,,,,オハナ,0
1275,5260001012682,登記記録の閉鎖等,0,2021-09-27,2021-09-24,株式会社エスクリーン,,株式会社,岡山県,倉敷市,児島元浜町１４１番地,,33,202,7110922,,,2021-09-24,清算の結了等,,,2015-10-05,1,,,,,エスクリーン,0
1278,5280001004661,登記記録の閉鎖等,0,2021-09-27,2021-09-21,ビックグレープ株式会社,,株式会社,島根県,浜田市,竹迫町２３７４番地２６,,32,202,6970015,,,2021-09-21,清算の結了等,,,2015-10-05,1,,,,,ビックグレープ,0
1314,5430002048238,登記記録の閉鎖等,0,2021-09-27,2021-09-24,株式会社エンタープライズ,,株式会社,北海道,北広島市,新富町西２丁目１番地１４,,01,234,0611127,,,2021-09-24,清算の結了等,,,2015-10-05,1,,,,,エンタープライズ,0
1315,5450001003209,登記記録の閉鎖等,0,2021-09-27,2021-09-24,株式会社ミュージックショップ国原,,株式会社,北海道,旭川市,二条通８丁目右１号,,01,204,0700032,,,2021-09-24,清算の結了等,,,2015-10-05,1,,,,,ミュージックショップクニハラ,0
1327,6010001102326,登記記録の閉鎖等,0,2021-09-27,2021-09-17,株式会社ＮＳＢＣ,,株式会社,東京都,千代田区,丸の内２丁目６番１号,,13,101,1000005,,,2021-09-17,清算の結了等,,,2015-10-05,1,,,,,エヌエスビーシー,0
1339,6010002021764,登記記録の閉鎖等,0,2021-09-27,2021-09-17,有限会社太平商事,,有限会社,東京都,中央区,銀座８丁目７番７号,,13,102,1040061,,,2021-09-17,清算の結了等,,,2015-10-05,1,,,,,タイヘイショウジ,0
1384,6013201004168,登記記録の閉鎖等,0,2021-09-27,2021-09-07,東和電子株式会社,,株式会社,東京都,目黒区,中央町１丁目４番１号,,13,110,1520001,,,2021-09-07,清算の結了等,,,2015-10-05,1,,,,,トウワデンシ,0
1394,6020002058351,登記記録の閉鎖等,0,2021-09-27,2021-09-21,有限会社アクア設備,,有限会社,神奈川県,横浜市南区,大岡３丁目１９番２号,,14,105,2320061,,,2021-09-21,清算の結了等,,,2015-10-05,1,,,,,アクアセツビ,0
1395,6020002064564,登記記録の閉鎖等,0,2021-09-27,2021-09-21,有限会社ウエッジ,,有限会社,神奈川県,横浜市港北区,新吉田東７丁目１６番３３号,,14,109,2230058,,,2021-09-21,清算の結了等,,,2015-10-05,1,,,,,ウエッジ,0
1404,6030001089108,登記記録の閉鎖等,0,2021-09-27,2021-09-08,株式会社出牛保険事務所,,株式会社,埼玉県,熊谷市,拾六間２５４番地５,,11,202,3600846,,,2021-09-08,清算の結了等,,,2015-10-05,1,,,,,ジュウシホケンジムショ,0
1414,6030002092036,登記記録の閉鎖等,0,2021-09-27,2021-09-13,有限会社ウラヤマ化研,,有限会社,埼玉県,北葛飾郡松伏町,大字大川戸２１９３番地,,11,465,3430106,,,2021-09-13,清算の結了等,,,2015-10-05,1,,,,,ウラヤマカケン,0
1421,6040005006958,登記記録の閉鎖等,0,2021-09-27,2021-09-13,特定非営利活動法人莫,,その他の設立登記法人,千葉県,成田市,はなのき台３丁目３番地２,,12,211,2860007,,,2021-09-13,清算の結了等,,,2015-10-05,1,,,,,バク,0
1426,6060002034415,登記記録の閉鎖等,0,2021-09-27,2021-09-17,有限会社田中養豚場,,有限会社,栃木県,下都賀郡壬生町,大字国谷８２６番地,,09,361,3210211,,,2021-09-17,清算の結了等,,,2015-10-05,1,,,,,タナカヨウトンジョウ,0
1444,6120001052064,登記記録の閉鎖等,0,2021-09-27,2021-09-14,株式会社新榮興産,,株式会社,大阪府,大阪市東淀川区,井高野４丁目８番１３号,,27,114,5330001,,,2021-09-14,清算の結了等,,,2015-10-05,1,,,,,シンエイコウサン,0
1473,6140001077431,登記記録の閉鎖等,0,2021-09-27,2021-09-17,株式会社ウエストリビング,,株式会社,兵庫県,加東市,南山６丁目８番１０,,28,228,6731341,,,2021-09-17,清算の結了等,,,2015-10-05,1,,,,,ウエストリビング,0
1480,6160001020777,登記記録の閉鎖等,0,2021-09-27,2021-09-22,エル・エー・ジー株式会社,,株式会社,滋賀県,守山市,勝部５丁目５番２７－１０号,,25,207,5240041,,,2021-09-22,合併による解散等,9120001062333,令和３年８月３１日大阪市北区中津七丁目１０番１号神崎株式会社（9120001062333）に合併し解散,2018-03-06,1,,,,,,0
1481,6170001004267,登記記録の閉鎖等,0,2021-09-27,2021-09-24,アライ空調機株式会社,,株式会社,和歌山県,和歌山市,塩ノ谷１５６番地,,30,201,6400306,,,2021-09-24,清算の結了等,,,2015-10-05,1,,,,,アライクウチョウキ,0
1484,6180001028265,登記記録の閉鎖等,0,2021-09-27,2021-09-16,株式会社親和工業,,株式会社,愛知県,名古屋市緑区,鳴海町字杜若１０２番地,,23,114,4580801,,,2021-09-16,合併による解散等,4180001048620,令和３年９月１６日名古屋市緑区鳴海町杜若１０２番地株式会社親和（4180001048620）に合併し解散,2015-10-05,1,,,,,シンワコウギョウ,0
1493,6180002021319,登記記録の閉鎖等,0,2021-09-27,2021-09-21,有限会社近代貿易,,有限会社,愛知県,名古屋市天白区,原２丁目３５０１番地,,23,116,4680015,,,2021-09-21,清算の結了等,,,2015-10-05,1,,,,,キンダイボウエキ,0
1522,6290801024642,登記記録の閉鎖等,0,2021-09-27,2021-09-13,株式会社ＭＯＲＩＭＯＴＯ,,株式会社,福岡県,北九州市小倉北区,大畠２丁目３番２０号,,40,106,8020026,,,2021-09-13,清算の結了等,,,2018-05-24,1,,,,,モリモト,0
1523,6290802010609,登記記録の閉鎖等,0,2021-09-27,2021-09-14,有限会社城内薬品,,有限会社,福岡県,北九州市小倉北区,城内１番１号,,40,106,8030813,,,2021-09-14,清算の結了等,,,2015-10-05,1,,,,,ジョウナイヤクヒン,0
1558,6420002006286,登記記録の閉鎖等,0,2021-09-27,2021-09-17,有限会社えび屋酒店,,有限会社,青森県,八戸市,城下３丁目１番１５号,,02,203,0310072,,,2021-09-17,清算の結了等,,,2015-10-05,1,,,,,エビヤサケテン,0
1569,7010001058716,登記記録の閉鎖等,0,2021-09-27,2021-09-21,株式会社明信社,,株式会社,東京都,中央区,銀座４丁目１４番３号,,13,102,1040061,,,2021-09-21,清算の結了等,,,2015-10-05,1,,,,,メイシンシャ,0
1572,7010001190733,登記記録の閉鎖等,0,2021-09-27,2021-09-15,株式会社ファーストキャビン柏の葉,,株式会社,東京都,千代田区,紀尾井町３番６号,,13,101,1020094,,,2021-09-15,清算の結了等,,,2018-04-05,1,,,,,ファーストキャビンカシワノハ,0
1577,7010003031489,登記記録の閉鎖等,0,2021-09-27,2021-09-17,龍湖不動産合同会社,,合同会社,東京都,千代田区,霞が関３丁目２番５号,,13,101,1000013,,,2021-09-17,清算の結了等,,,2020-01-23,1,,,,,リュウコフドウサン,0
1583,7010005026520,登記記録の閉鎖等,0,2021-09-27,2021-09-21,日光ゼニスホールディング特定目的会社,,その他の設立登記法人,東京都,千代田区,丸の内３丁目１番１号東京共同会計事務所内,,13,101,1000005,,,2021-09-21,清算の結了等,,,2017-03-07,1,,,,,ニッコウゼニスホールディング,0
1618,7011001057807,登記記録の閉鎖等,0,2021-09-27,2021-09-02,株式会社ＪＳ．ＷＯＲＫＳ,,株式会社,東京都,渋谷区,渋谷１丁目２３番２１号,,13,113,1500002,,,2021-09-02,合併による解散等,8011001020730,令和３年９月１日東京都渋谷区渋谷一丁目２３番２１号株式会社ベイクルーズ（8011001020730）に合併し解散,2015-10-05,1,,,,,ジェイエスワークス,0
1624,7011001129481,登記記録の閉鎖等,0,2021-09-27,2021-09-06,株式会社ハッシュカンパニー,,株式会社,東京都,渋谷区,恵比寿１丁目１５番９号シルク恵比寿４０３,,13,113,1500013,,,2021-09-06,清算の結了等,,,2019-08-15,1,,,,,ハッシュカンパニー,0
1647,7020001020658,登記記録の閉鎖等,0,2021-09-27,2021-09-17,株式会社スタジオ・アルテツク,,株式会社,神奈川県,横浜市神奈川区,三ツ沢下町２１番地１０号棟３０５号室,,14,102,2210852,,,2021-09-17,清算の結了等,,,2015-10-05,1,,,,,スタジオアルテック,0
1650,7020001050333,登記記録の閉鎖等,0,2021-09-27,2021-09-15,富士精機株式会社,,株式会社,千葉県,富里市,七栄６４２番地１,,12,233,2860221,,,2021-09-15,清算の結了等,,,2015-10-05,1,,,,,フジセイキ,0
1661,7020005010300,登記記録の閉鎖等,0,2021-09-27,2021-09-17,公益財団法人川崎市看護師養成確保事業団,,その他の設立登記法人,神奈川県,川崎市高津区,久本１丁目４番１号,,14,134,2130011,,,2021-09-17,清算の結了等,,,2015-10-05,1,,,,,カワサキシカンゴシヨウセイカクホジギョウダン,0
1666,7021003007593,登記記録の閉鎖等,0,2021-09-27,2021-09-21,ＳＳＳＳ株式会社,,株式会社,神奈川県,平塚市,代官町８－５ＡＲＥＩＺＡ５０１,,14,203,2540807,,,2021-09-21,清算の結了等,,,2018-06-20,1,,,,,フォーエス,0
1667,7021005007261,登記記録の閉鎖等,0,2021-09-27,2021-09-21,神奈川積みブロック協同組合,,その他の設立登記法人,神奈川県,平塚市,錦町７番１６号サンヒルズ湘南２０１号室,,14,203,2540044,,,2021-09-21,清算の結了等,,,2015-10-05,1,,,,,カナガワツミブロック,0
1670,7030001016845,登記記録の閉鎖等,0,2021-09-27,2021-09-13,株式会社ケーズプランニング,,株式会社,埼玉県,さいたま市緑区,大字中尾１５８３番地２フォレストコート中尾台Ａ２０１,,11,109,3360932,,,2021-09-13,清算の結了等,,,2015-10-05,1,,,,,ケーズプランニング,0
1686,7030002101002,登記記録の閉鎖等,0,2021-09-27,2021-09-10,有限会社海老原モータース,,有限会社,埼玉県,川口市,西青木１丁目９番１４号,,11,203,3320035,,,2021-09-10,清算の結了等,,,2015-10-05,1,,,,,エビハラモータース,0
1698,7060002017971,登記記録の閉鎖等,0,2021-09-27,2021-09-17,有限会社松本電工,,有限会社,栃木県,真岡市,久下田西４丁目８０番地,,09,209,3214522,,,2021-09-17,清算の結了等,,,2015-10-05,1,,,,,マツモトデンコウ,0
1707,7090002013175,登記記録の閉鎖等,0,2021-09-27,2021-09-21,有限会社国明創研,,有限会社,東京都,千代田区,神田駿河台３丁目１番地８,,13,101,1010062,,,2021-09-21,合併による解散等,2090001010475,令和３年７月１日山梨県南都留郡富士河口湖町小立５６０６番地株式会社ワークショップリゾート（2090001010475）に合併し解散,2015-10-05,1,,,,,クニアキソウケン,0
1717,7120001119597,登記記録の閉鎖等,0,2021-09-27,2021-09-14,株式会社ユーイング,,株式会社,大阪府,大阪市中央区,本町４丁目５番１６号,,27,128,5410053,,,2021-09-14,清算の結了等,,,2015-10-05,1,,,,,ユーイング,0
1718,7120001119878,登記記録の閉鎖等,0,2021-09-27,2021-09-15,株式会社花喜久,,株式会社,大阪府,大阪市生野区,田島６丁目１３番１３号,,27,116,5440011,,,2021-09-15,清算の結了等,,,2015-10-05,1,,,,,ハナギク,0
1740,7130001027675,登記記録の閉鎖等,0,2021-09-27,2021-09-22,株式会社丸正,,株式会社,京都府,京都市伏見区,深草綿森町１８番地,,26,109,6120022,,,2021-09-22,清算の結了等,,,2015-10-05,1,,,,,マルショウ,0
1742,7130001059090,登記記録の閉鎖等,0,2021-09-27,2021-09-22,宝成株式会社,,株式会社,京都府,京都市山科区,四ノ宮新開畑２２番地４６,,26,110,6078023,,,2021-09-22,清算の結了等,,,2017-01-25,1,,,,,ホウセイ,0
1745,7140001068958,登記記録の閉鎖等,0,2021-09-27,2021-09-15,株式会社ジーエッチ貿易,,株式会社,兵庫県,西宮市,樋ノ口町１丁目１２番１２号,,28,204,6638011,,,2021-09-15,清算の結了等,,,2021-08-17,1,,,,,ジーエッチボウエキ,0
1761,7180001045202,登記記録の閉鎖等,0,2021-09-27,2021-09-21,株式会社コザキ,,株式会社,愛知県,清須市,春日須ケ田８５番地,,23,233,4520961,,,2021-09-21,清算の結了等,,,2015-10-05,1,,,,,コザキ,0
1787,7230001016817,登記記録の閉鎖等,0,2021-09-27,2021-09-21,株式会社いろり商店,,株式会社,富山県,富山市,新富町２丁目４番２３号,,16,201,9300002,,,2021-09-21,清算の結了等,,,2017-02-07,1,,,,,イロリショウテン,0
1801,7280002007835,登記記録の閉鎖等,0,2021-09-27,2021-09-21,有限会社山本塗装,,有限会社,島根県,大田市,川合町川合４６０番地２,,32,205,6940011,,,2021-09-21,清算の結了等,,,2015-10-05,1,,,,,ヤマモトトソウ,0
1802,7290001013899,登記記録の閉鎖等,0,2021-09-27,2021-09-07,ＩＴパートナーズ株式会社,,株式会社,福岡県,福岡市博多区,博多駅南１丁目６番９号,,40,132,8120016,,,2021-09-07,清算の結了等,,,2015-10-05,1,,,,,アイティパートナーズ,0
1806,7290001067334,登記記録の閉鎖等,0,2021-09-27,2021-09-16,トレーディングミート株式会社,,株式会社,宮崎県,都城市,御池町５３７５番地９６,,45,202,8850224,,,2021-09-16,合併による解散等,7290002017346,令和３年９月１日福岡市東区松田三丁目１４番１号株式会社ふくおか畜販（7290002017346）に合併し解散,2015-10-05,1,,,,,トレーディングミート,0
1814,7290005015306,登記記録の閉鎖等,0,2021-09-27,2021-09-21,西日本ビジネスサポート協同組合,,その他の設立登記法人,福岡県,福岡市東区,多々良１丁目２５番２３号,,40,131,8130033,,,2021-09-21,清算の結了等,,,2015-10-05,1,,,,,ニシニホンビジネスサポート,0
1837,7370001042568,登記記録の閉鎖等,0,2021-09-27,2021-09-15,株式会社昆野電設,,株式会社,宮城県,富谷市,あけの平２丁目２４番地８,,04,216,9813361,,,2021-09-15,清算の結了等,,,2018-01-18,1,,,,,コンノデンセツ,0
1849,7480002011437,登記記録の閉鎖等,0,2021-09-27,2021-09-16,有限会社いろは食品味芝居,,有限会社,徳島県,板野郡藍住町,東中富字龍池傍示１３番地３,,36,403,7711220,,,2021-09-16,清算の結了等,,,2015-10-05,1,,,,,イロハショクヒンアジシバイ,0
1856,8010001086179,登記記録の閉鎖等,0,2021-09-27,2021-09-15,株式会社ハイドアウト,,株式会社,東京都,中央区,日本橋浜町２丁目５６番２号,,13,102,1030007,,,2021-09-15,清算の結了等,,,2015-10-05,1,,,,,,0
1931,8020003005219,登記記録の閉鎖等,0,2021-09-27,2021-09-21,ポノ・コンプライアンス合同会社,,合同会社,神奈川県,横浜市旭区,川井本町２１番地の４,,14,112,2410803,,,2021-09-21,清算の結了等,,,2015-10-05,1,,,,,ポノコンプライアンス,0
1943,8030003005572,登記記録の閉鎖等,0,2021-09-27,2021-09-13,合同会社ＰＨＯＴＯＮＩＣＳ,,合同会社,埼玉県,さいたま市岩槻区,大字慈恩寺７４１番地１,,11,110,3390009,,,2021-09-13,清算の結了等,,,2015-10-05,1,,,,,フォトニクス,0
1967,8090001015114,登記記録の閉鎖等,0,2021-09-27,2021-09-16,五ヶ堰電力株式会社,,株式会社,山梨県,大月市,御太刀１丁目１３番２１号,,19,206,4010012,,,2021-09-16,清算の結了等,,,2017-05-22,1,,,,,ゴカセギデンリョク,0
1970,8100001016374,登記記録の閉鎖等,0,2021-09-27,2021-09-22,株式会社ファインティ,,株式会社,長野県,松本市,大字岡田下岡田４６５番地,,20,202,3900313,,,2021-09-22,清算の結了等,,,2015-10-05,1,,,,,ファインティ,0
2008,8130002005299,登記記録の閉鎖等,0,2021-09-27,2021-09-21,有限会社ザ・ハート,,有限会社,京都府,京都市左京区,高野東開町１番地の７東大路高野第２住宅２棟５０１号,,26,103,6068107,,,2021-09-21,清算の結了等,,,2015-10-05,1,,,,,ザハート,0
2009,8130002008806,登記記録の閉鎖等,0,2021-09-27,2021-09-22,有限会社サンニコラス,,有限会社,京都府,京都市西京区,大枝北沓掛町２丁目７番地の２,,26,111,6101101,,,2021-09-22,清算の結了等,,,2015-10-05,1,,,,,サンニコラス,0
2022,8160001016955,登記記録の閉鎖等,0,2021-09-27,2021-09-21,株式会社ブレス,,株式会社,滋賀県,米原市,一色６８０番地,,25,214,5210031,,,2021-09-21,清算の結了等,,,2015-10-05,1,,,,,ブレス,0
2025,8180001093209,登記記録の閉鎖等,0,2021-09-27,2021-09-17,株式会社たや陶業,,株式会社,愛知県,常滑市,森西町２丁目４６番地,,23,216,4790845,,,2021-09-17,清算の結了等,,,2015-10-05,1,,,,,タヤトウギョウ,0
2031,8180001127742,登記記録の閉鎖等,0,2021-09-27,2021-09-22,株式会社アシスト,,株式会社,愛知県,名古屋市港区,宝神５丁目３４０４番地１,,23,111,4550832,,,2021-09-22,清算の結了等,,,2017-05-10,1,,,,,アシスト,0
2047,8200002023995,登記記録の閉鎖等,0,2021-09-27,2021-09-22,有限会社ミツバ技術,,有限会社,岐阜県,恵那市,中野方町３５５４番地の１,,21,210,5098231,,,2021-09-22,清算の結了等,,,2015-10-05,1,,,,,ミツバギジュツ,0
2049,8210002010159,登記記録の閉鎖等,0,2021-09-27,2021-09-17,有限会社大和田瓦商店,,有限会社,福井県,敦賀市,長沢４２号１４番地の５,,18,202,9140046,,,2021-09-17,清算の結了等,,,2015-10-05,1,,,,,オオワダカワラショウテン,0
2059,8250002018611,登記記録の閉鎖等,0,2021-09-27,2021-09-22,有限会社松岡保険事務所,,有限会社,山口県,岩国市,室の木町４丁目４５番２３号,,35,208,7400021,,,2021-09-22,清算の結了等,,,2015-10-05,1,,,,,マツオカホケンジムショ,0
2064,8280002001795,登記記録の閉鎖等,0,2021-09-27,2021-09-21,有限会社原田三光社,00004659,有限会社,島根県,松江市,末次本町４７番地,,32,201,6900843,,,2021-09-21,清算の結了等,,,2015-10-05,1,,,,,ハラダサンコウシャ,0
2065,8280005006610,登記記録の閉鎖等,0,2021-09-27,2021-09-21,特定非営利活動法人松江シティスポーツクラブ,,その他の設立登記法人,島根県,松江市,古志原７丁目２０番１５号,,32,201,6900012,,,2021-09-21,清算の結了等,,,2015-10-05,1,,,,,マツエシティスポーツクラブ,0
2083,8290802013551,登記記録の閉鎖等,0,2021-09-27,2021-09-10,有限会社枝光自動車,,有限会社,福岡県,北九州市八幡西区,則松３丁目１番１３号,,40,109,8070831,,,2021-09-10,清算の結了等,,,2015-10-05,1,,,,,エダミツジドウシャ,0
2105,8370502000404,登記記録の閉鎖等,0,2021-09-27,2021-09-15,有限会社信光,,有限会社,宮城県,気仙沼市,南郷１２番地の１４,,04,205,9880043,,,2021-09-15,清算の結了等,,,2015-10-05,1,,,,,シンコウ,0
2151,9010001188123,登記記録の閉鎖等,0,2021-09-27,2021-09-15,株式会社デザインｉ,,株式会社,東京都,千代田区,神田和泉町１番地１３の１１,,13,101,1010024,,,2021-09-15,清算の結了等,,,2017-12-06,1,,,,,デザインアイ,0
2155,9010002032718,登記記録の閉鎖等,0,2021-09-27,2021-09-15,東京ネットライン有限会社,,有限会社,東京都,中央区,築地６丁目４番５号,,13,102,1040045,,,2021-09-15,清算の結了等,,,2015-10-05,1,,,,,トウキョウネットライン,0
2162,9010005031873,登記記録の閉鎖等,0,2021-09-27,2021-09-17,ＤＡＩＬＰ一般社団法人,,その他の設立登記法人,東京都,千代田区,丸の内３丁目１番１号東京共同会計事務所内,,13,101,1000005,,,2021-09-17,清算の結了等,,,2020-06-01,1,,,,,ディーエーアイエルピー,0
2168,9010401125782,登記記録の閉鎖等,0,2021-09-27,2021-09-21,ファシリティリスクコンサルティング株式会社,,株式会社,東京都,千代田区,平河町１丁目７番７号,,13,101,1020093,,,2021-09-21,清算の結了等,,,2016-07-15,1,,,,,ファシリティリスクコンサルティング,0
2187,9011001020399,登記記録の閉鎖等,0,2021-09-27,2021-09-06,株式会社ぷちなる,,株式会社,東京都,渋谷区,本町６丁目３３番１２号,,13,113,1510071,,,2021-09-06,清算の結了等,,,2015-10-05,1,,,,,プチナル,0
2189,9011001071260,登記記録の閉鎖等,0,2021-09-27,2021-09-16,株式会社エッチジェー,,株式会社,東京都,新宿区,西新宿１丁目８番５号,,13,104,1600023,,,2021-09-16,清算の結了等,,,2015-10-05,1,,,,,エッチジェー,0
2215,9011802028566,登記記録の閉鎖等,0,2021-09-27,2021-09-22,有限会社アドマイヤー,,有限会社,東京都,足立区,小台１丁目２２番２－３０３号,,13,121,1200046,,,2021-09-22,清算の結了等,,,2015-10-05,1,,,,,アドマイヤー,0
2218,9012401021094,登記記録の閉鎖等,0,2021-09-27,2021-09-14,株式会社サンガ,,株式会社,東京都,国分寺市,西町３丁目１６番１号,,13,214,1850035,,,2021-09-14,清算の結了等,,,2015-10-05,1,,,,,サンガ,0
2231,9020002091119,登記記録の閉鎖等,0,2021-09-27,2021-09-17,有限会社木村塗装,,有限会社,神奈川県,川崎市宮前区,初山２丁目２５番４５－１号,,14,136,2160026,,,2021-09-17,清算の結了等,,,2015-10-05,1,,,,,キムラトソウ,0
2242,9021002064964,登記記録の閉鎖等,0,2021-09-27,2021-09-21,有限会社白井鈑金工業,,有限会社,神奈川県,横須賀市,佐原２丁目１番１０号,,14,201,2390835,,,2021-09-21,清算の結了等,,,2015-10-05,1,,,,,シライバンキンコウギョウ,0
2252,9030002027690,登記記録の閉鎖等,0,2021-09-27,2021-09-13,有限会社佐藤商店,,有限会社,埼玉県,戸田市,南町２番２１号,,11,224,3350025,,,2021-09-13,清算の結了等,,,2015-10-05,1,,,,,サトウショウテン,0
2258,9040001022320,登記記録の閉鎖等,0,2021-09-27,2021-09-15,株式会社芳裕建設,,株式会社,千葉県,市川市,南大野２丁目１３番４号,,12,203,2720804,,,2021-09-15,清算の結了等,,,2015-10-05,1,,,,,ホウユウケンセツ,0
2269,9050002014456,登記記録の閉鎖等,0,2021-09-27,2021-09-17,有限会社ケア志戸崎,,有限会社,茨城県,かすみがうら市,坂７８１番地１,,08,230,3000214,,,2021-09-17,清算の結了等,,,2015-10-05,1,,,,,ケアシトザキ,0
2334,9140001082718,登記記録の閉鎖等,0,2021-09-27,2021-09-16,株式会社エカイユプリュス,,株式会社,兵庫県,神戸市中央区,北野町３丁目４番１８－３０７号,,28,110,6500002,,,2021-09-16,清算の結了等,,,2015-10-05,1,,,,,エカイユプリュス,0
2353,9180002017223,登記記録の閉鎖等,0,2021-09-27,2021-09-17,有限会社愛光電機商会,,有限会社,愛知県,名古屋市中川区,尾頭橋２丁目１５番１１号,,23,110,4540012,,,2021-09-17,清算の結了等,,,2015-10-05,1,,,,,アイコウデンキショウカイ,0
2354,9180003011588,登記記録の閉鎖等,0,2021-09-27,2021-09-22,合名会社大竹,,合名会社,愛知県,一宮市,奥町字下口西３１番地,,23,203,4910201,,,2021-09-22,清算の結了等,,,2015-10-05,1,,,,,オオタケ,0
2355,9180003020218,登記記録の閉鎖等,0,2021-09-27,2021-09-16,合同会社一宮家族信託相談所,,合同会社,愛知県,一宮市,新生４丁目４番７号,,23,203,4910912,,,2021-09-16,清算の結了等,,,2019-07-31,1,,,,,イチノミヤカゾクシンタクソウダンジョ,0
2357,9180005017443,登記記録の閉鎖等,0,2021-09-27,2021-09-22,特定非営利活動法人マンナＭＡＮＮＡ子ども食堂,,その他の設立登記法人,愛知県,名古屋市西区,八筋町２９１番地,,23,104,4520815,,,2021-09-22,清算の結了等,,,2017-08-16,1,,,,,マンナマンナコドモショクドウ,0
2369,9240002043130,登記記録の閉鎖等,0,2021-09-27,2021-09-21,有限会社マルヰストアー,,有限会社,広島県,福山市,沖野上町６丁目８番１２号,,34,207,7200825,,,2021-09-21,清算の結了等,,,2015-10-05,1,,,,,マルイストアー,0
2370,9240005009228,登記記録の閉鎖等,0,2021-09-27,2021-09-21,医療法人社団吉岡歯科医院,,その他の設立登記法人,広島県,福山市,多治米町２丁目１２番５号,,34,207,7200824,,,2021-09-21,清算の結了等,,,2015-10-05,1,,,,,ヨシオカシカイイン,0
2374,9290001020480,登記記録の閉鎖等,0,2021-09-27,2021-09-07,株式会社ミックスネットワーク,,株式会社,福岡県,福岡市博多区,博多駅東２丁目６番２６号,,40,132,8120013,,,2021-09-07,清算の結了等,,,2015-10-05,1,,,,,ミックスネットワーク,0
2398,9360001007594,登記記録の閉鎖等,0,2021-09-27,2021-09-16,株式会社アライアンス,,株式会社,沖縄県,うるま市,字州崎５番地１トロピカルテクノセンター内,,47,213,9042234,,,2021-09-16,清算の結了等,,,2015-10-05,1,,,,,,0
2430,9450003001470,登記記録の閉鎖等,0,2021-09-27,2021-09-22,合同会社住吉飼料,,合同会社,北海道,紋別郡興部町,字住吉３１９番地３,,01,561,0981943,,,2021-09-22,清算の結了等,,,2015-10-05,1,,,,,スミヨシシリョウ,0
2432,9480001007616,登記記録の閉鎖等,0,2021-09-27,2021-09-17,ミハル食品株式会社,,株式会社,徳島県,三好市,三野町清水９５４番地,,36,208,7712301,,,2021-09-17,清算の結了等,,,2015-10-05,1,,,,,,0
