sequenceNumber,corporateNumber,process,correct,updateDate,changeDate,name,nameImageId,kind,prefectureName,cityName,streetNumber,addressImageId,prefectureCode,cityCode,postCode,addressOutside,addressOutsideImageId,closeDate,closeCause,successorCorporateNumber,changeCause,assignmentDate,latest,enName,enPrefectureName,enCityName,enAddressOutside,furigana,hihyoji
5,1010001236590,新規,0,2023-07-05,2023-07-05,株式会社Ｂｉｇ‐８,,株式会社,東京都,文京区,本駒込２丁目９番１８号,,13,105,1130021,,,,,,,2023-07-05,1,,,,,ビッグエイト,0
6,1010001236599,新規,0,2023-07-05,2023-07-05,株式会社橙,,株式会社,東京都,中央区,銀座５丁目１０番５号,,13,102,1040061,,,,,,,2023-07-05,1,,,,,ダイダイ,0
22,1010401175496,新規,0,2023-07-05,2023-07-05,株式会社ＰＲＣ,,株式会社,東京都,港区,東新橋２丁目１２番１号,,13,103,1050021,,,,,,,2023-07-05,1,,,,,ピーアールシー,0
27,1010405022265,新規,0,2023-07-05,2023-07-05,一般社団法人不動産Ｍ＆Ａ会,,その他の設立登記法人,東京都,港区,南青山２丁目１３番１６号ニュー鈴木２階,,13,103,1070062,,,,,,,2023-07-05,1,,,,,フドウサンエムアンドエーカイ,0
28,1010405022273,新規,0,2023-07-05,2023-07-05,一般社団法人アスリートＭｏｎｅｙジメント協会,,その他の設立登記法人,東京都,港区,北青山１丁目３番１号アールキューブ青山３階,,13,103,1070061,,,,,,,2023-07-05,1,,,,,アスリートマネージメントキョウカイ,0
38,1010701044509,新規,0,2023-07-05,2023-07-05,株式会社慶喜,,株式会社,東京都,品川区,小山２丁目１１番１９－３０２号,,13,109,1420062,,,,,,,2023-07-05,1,,,,,ケイキ,0
39,1010703006762,新規,0,2023-07-05,2023-07-05,ＳＢＫＣＲＥＡＴＥ合同会社,,合同会社,東京都,品川区,東大井５丁目２６番１０－４０５号,,13,109,1400011,,,,,,,2023-07-05,1,,,,,エスビーケークリエイト,0
44,1010901053342,新規,0,2023-07-05,2023-07-05,株式会社Ｔｉｌｙ,,株式会社,東京都,世田谷区,宇奈根２丁目３番１９－３０１号,,13,112,1570068,,,,,,,2023-07-05,1,,,,,ティリー,0
51,1011001155418,新規,0,2023-07-05,2023-07-05,ＰＪアセットマネジメント株式会社,,株式会社,東京都,渋谷区,渋谷２丁目１５番１号渋谷クロスタワー１３階,,13,113,1500002,,,,,,,2023-07-05,1,,,,,ピージェイアセットマネジメント,0
52,1011001155442,新規,0,2023-07-05,2023-07-05,株式会社ｍｉｎａｐｌｅｘ,,株式会社,東京都,渋谷区,神宮前６丁目２３番４号桑野ビル２階,,13,113,1500001,,,,,,,2023-07-05,1,,,,,ミナプレックス,0
53,1011001155467,新規,0,2023-07-05,2023-07-05,株式会社Ｄ思考蔵,,株式会社,東京都,渋谷区,神南１丁目１２－１４渋谷宮田ビル６Ｆ,,13,113,1500041,,,,,,,2023-07-05,1,,,,,ディシコウクラ,0
54,1011001155483,新規,0,2023-07-05,2023-07-05,株式会社アフィネ,,株式会社,東京都,渋谷区,神宮前６丁目２３番４号桑野ビル２階,,13,113,1500001,,,,,,,2023-07-05,1,,,,,アフィネ,0
55,1011003017087,新規,0,2023-07-05,2023-07-05,合同会社ゆうはり,,合同会社,東京都,渋谷区,恵比寿西１丁目１番３号第一ビル５階,,13,113,1500021,,,,,,,2023-07-05,1,,,,,ユウハリ,0
56,1011003017095,新規,0,2023-07-05,2023-07-05,ＢｏＦｉｌｏコンサルティング合同会社,,合同会社,東京都,渋谷区,宇田川町１番１２－７０４号パークコート渋谷ザタワー,,13,113,1500042,,,,,,,2023-07-05,1,,,,,ボフィーロコンサルティング,0
57,1011003017104,新規,0,2023-07-05,2023-07-05,合同会社Ｒｅｆｈ,,合同会社,東京都,渋谷区,神宮前６丁目２３－４桑野ビル２Ｆ,,13,113,1500001,,,,,,,2023-07-05,1,,,,,,0
61,1011101103417,新規,0,2023-07-05,2023-07-05,山川株式会社,,株式会社,東京都,新宿区,西早稲田１丁目１１番８号ヴィラ早稲田２０２ｂ,,13,104,1690051,,,,,,,2023-07-05,1,,,,,ヤマガワ,0
62,1011101103458,新規,0,2023-07-05,2023-07-05,株式会社Ｆｕｓｉｏｎ,,株式会社,東京都,新宿区,西新宿３丁目３番１３号西新宿水間ビル６Ｆ,,13,104,1600023,,,,,,,2023-07-05,1,,,,,フュージョン,0
67,1011201024744,新規,0,2023-07-05,2023-07-05,株式会社Ｆ‐Ｃｏｎｎｅｃｔ,,株式会社,東京都,中野区,弥生町３丁目３５番１５－４０８号,,13,114,1640013,,,,,,,2023-07-05,1,,,,,エフコネクト,0
70,1011801042658,新規,0,2023-07-05,2023-07-05,株式会社竹内総業,,株式会社,東京都,足立区,大谷田２丁目５番８号,,13,121,1200001,,,,,,,2023-07-05,1,,,,,タケウチソウギョウ,0
72,1012401040696,新規,0,2023-07-05,2023-07-05,株式会社ＯＨＡＮＡ　ＯＫＵＢＯ,,株式会社,東京都,府中市,矢崎町４丁目１２番地の５,,13,206,1830025,,,,,,,2023-07-05,1,,,,,オハナオオクボ,0
73,1012403006051,新規,0,2023-07-05,2023-07-05,ＡｃｅＨｅａｌ合同会社,,合同会社,東京都,武蔵野市,境南町２丁目７番１０号,,13,203,1800023,,,,,,,2023-07-05,1,,,,,エースヒール,0
76,1012801022492,新規,0,2023-07-05,2023-07-05,株式会社デバイスコア,,株式会社,東京都,武蔵村山市,伊奈平２丁目５７－２,,13,223,2080023,,,,,,,2023-07-05,1,,,,,デバイスコア,0
84,1020001152300,新規,0,2023-07-05,2023-07-05,株式会社住援,,株式会社,神奈川県,横浜市鶴見区,駒岡３丁目２０番Ｂ－４０８号,,14,101,2300071,,,,,,,2023-07-05,1,,,,,ジュウエン,0
85,1020001152317,新規,0,2023-07-05,2023-07-05,株式会社新和ホールディングス,,株式会社,神奈川県,横浜市保土ケ谷区,今井町５８７番１,,14,106,2400035,,,,,,,2023-07-05,1,,,,,,0
86,1020001152325,新規,0,2023-07-05,2023-07-05,株式会社Ｍｅｔａｗａｒｅ,,株式会社,神奈川県,横浜市南区,日枝町２丁目４７番地１０,,14,105,2320011,,,,,,,2023-07-05,1,,,,,メタウェア,0
91,1020003024118,新規,0,2023-07-05,2023-07-05,合同会社アンドフィフティ,,合同会社,神奈川県,川崎市宮前区,宮前平３丁目６番地１ヴィークコート宮前平３０９,,14,136,2160006,,,,,,,2023-07-05,1,,,,,アンドフィフティ,0
92,1020003024134,新規,0,2023-07-05,2023-07-05,合同会社ハミングバード,,合同会社,神奈川県,横浜市南区,別所中里台２１－１３,,14,105,2320065,,,,,,,2023-07-05,1,,,,,ハミングバード,0
116,1070001040574,新規,0,2023-07-05,2023-07-05,株式会社垣＿商事,00131064,株式会社,群馬県,前橋市,小相木町２４４番地１０４号室,,10,201,3710831,,,,,,,2023-07-05,1,,,,,エンシンショウジ,0
120,1070003005014,新規,0,2023-07-05,2023-07-05,ＰＲＩＹＡＮＫＡ合同会社,,合同会社,群馬県,高崎市,新町１４２１番３ガーデンクレストＢ棟２０２,,10,202,3701301,,,,,,,2023-07-05,1,,,,,プリヤンカ,0
122,1080001025698,新規,0,2023-07-05,2023-07-05,ＹＯＲＩＣＯ技研株式会社,,株式会社,静岡県,静岡市葵区,田町５丁目５２番地,,22,101,4200068,,,,,,,2023-07-05,1,,,,,ヨリコギケン,0
123,1080001025715,新規,0,2023-07-05,2023-07-05,ＳＦＧマーケティング株式会社,,株式会社,静岡県,静岡市清水区,草薙北２番１号,,22,103,4240883,,,,,,,2023-07-05,1,,,,,エスエフジーマーケティング,0
125,1080401026569,新規,0,2023-07-05,2023-07-05,株式会社杉浦鉄工所,,株式会社,静岡県,浜松市南区,金折町５７５番地の１,,22,134,4350026,,,,,,,2023-07-05,1,,,,,スギウラテッコウジョ,0
126,1080401026577,新規,0,2023-07-05,2023-07-05,株式会社ＷＰＨ,,株式会社,静岡県,浜松市浜北区,八幡４９３番地の４０,,22,136,4340021,,,,,,,2023-07-05,1,,,,,ダブルピーエイチ,0
128,1100001036544,新規,0,2023-07-05,2023-07-05,株式会社ちゃ・茶,,株式会社,長野県,安曇野市,三郷明盛２３５２番地５,,20,220,3998101,,,,,,,2023-07-05,1,,,,,チャチャ,0
135,1110001037665,新規,0,2023-07-05,2023-07-05,Ｔｅｎ　Ｐａｒｔｎｅｒｓ株式会社,,株式会社,新潟県,新潟市中央区,日の出１丁目１１番９号,,15,103,9500073,,,,,,,2023-07-05,1,,,,,テンパートナーズ,0
147,1120001256149,新規,0,2023-07-05,2023-07-05,楊木恵株式会社,,株式会社,大阪府,大阪市東成区,深江北３丁目４番２１号エクラ深江橋２１２Ｂ,,27,115,5370001,,,,,,,2023-07-05,1,,,,,ヨウキエ,0
148,1120001256181,新規,0,2023-07-05,2023-07-05,株式会社キマツクリーン,,株式会社,大阪府,大阪市東住吉区,中野３丁目１１番１５号シャルム湯里５０７,,27,121,5460012,,,,,,,2023-07-05,1,,,,,キマツクリーン,0
149,1120001256198,新規,0,2023-07-05,2023-07-05,ＷＯＯＤＳＴＯＣＫ株式会社,,株式会社,大阪府,大阪市福島区,福島７丁目１７番１５号,,27,103,5530003,,,,,,,2023-07-05,1,,,,,ウッドストック,0
150,1120001256223,新規,0,2023-07-05,2023-07-05,株式会社ＭＴサービス,,株式会社,大阪府,大阪市中央区,東心斎橋２丁目２－２６眉山ビル１Ｆ,,27,128,5420083,,,,,,,2023-07-05,1,,,,,エムティーサービス,0
153,1120003024405,新規,0,2023-07-05,2023-07-05,Ｋ＆Ｎ合同会社,,合同会社,大阪府,大阪市東住吉区,湯里２丁目１３－２－３０１,,27,121,5460013,,,,,,,2023-07-05,1,,,,,ケーアンドエヌ,0
156,1120101067818,新規,0,2023-07-05,2023-07-05,株式会社ＲＩＮ,,株式会社,大阪府,堺市南区,三原台１丁２番３号ルルポ泉ヶ丘,,27,145,5900111,,,,,,,2023-07-05,1,,,,,リン,0
158,1120903004720,新規,0,2023-07-05,2023-07-05,ＪＴＡ合同会社,,合同会社,大阪府,吹田市,山手町４丁目２５番５号,,27,205,5640073,,,,,,,2023-07-05,1,,,,,ジェイティーエー,0
162,1122001037132,新規,0,2023-07-05,2023-07-05,株式会社カゴキンホールディングス,,株式会社,大阪府,東大阪市,西石切町３丁目２番１０号,,27,227,5798013,,,,,,,2023-07-05,1,,,,,カゴキンホールディングス,0
167,1130003008836,新規,0,2023-07-05,2023-07-05,合同会社悠名舎,,合同会社,京都府,福知山市,字菱屋４７番地,,26,201,6200023,,,,,,,2023-07-05,1,,,,,ユウメイシャ,0
168,1130005016812,新規,0,2023-07-05,2023-07-05,医療法人やえクリニック,,その他の設立登記法人,京都府,宇治市,神明宮東１４番地１,,26,204,6110025,,,,,,,2023-07-05,1,,,,,ヤエクリニック,0
174,1150001026499,新規,0,2023-07-05,2023-07-05,株式会社フローリストふなお,,株式会社,奈良県,桜井市,大字桜井１２３番地の２２,,29,206,6330091,,,,,,,2023-07-05,1,,,,,フローリストフナオ,0
175,1150001026516,新規,0,2023-07-05,2023-07-05,株式会社粋,,株式会社,奈良県,奈良市,東向南町１３－２,,29,201,6308216,,,,,,,2023-07-05,1,,,,,イキ,0
182,1170003001894,新規,0,2023-07-05,2023-07-05,キット合同会社,,合同会社,和歌山県,和歌山市,宇須４丁目１番２１号,,30,201,6410043,,,,,,,2023-07-05,1,,,,,キット,0
192,1180301037524,新規,0,2023-07-05,2023-07-05,傑菱株式会社,,株式会社,愛知県,岡崎市,真伝吉祥２丁目３７番地２,,23,202,4443176,,,,,,,2023-07-05,1,,,,,ジェリン,0
193,1190001030555,新規,0,2023-07-05,2023-07-05,株式会社ｒｅｖｅ,,株式会社,三重県,伊賀市,平野六反田２３５番地の２,,24,216,5180804,,,,,,,2023-07-05,1,,,,,,0
194,1190001030563,新規,0,2023-07-05,2023-07-05,株式会社ＨＡＭＡＤＡ＆Ｉ　ＨＯＬＤＩＮＧＳ,,株式会社,三重県,四日市市,栄町５番１１－１４０２号プレサンスロジェ四日市ザ・レジデンス,,24,202,5100084,,,,,,,2023-07-05,1,,,,,ハマダアンドアイホールディングス,0
196,1210001019364,新規,0,2023-07-05,2023-07-05,株式会社小澤眼鏡,,株式会社,福井県,鯖江市,神明町３丁目９番６号,,18,207,9160017,,,,,,,2023-07-05,1,,,,,オザワガンキョウ,0
207,1230001019899,新規,0,2023-07-05,2023-07-05,ｋｋ．ｌａｂ株式会社,,株式会社,富山県,高岡市,上関町３番１９号,,16,202,9330851,,,,,,,2023-07-05,1,,,,,ケーケードットラボ,0
212,1240001061743,新規,0,2023-07-05,2023-07-05,株式会社せとうちジャーニー,,株式会社,広島県,広島市中区,基町１０番３号,,34,101,7300011,,,,,,,2023-07-05,1,,,,,セトウチジャーニー,0
216,1260001038087,新規,0,2023-07-05,2023-07-05,株式会社ハルナ設備,,株式会社,岡山県,津山市,国分寺１１５５番地１０,,33,203,7080843,,,,,,,2023-07-05,1,,,,,ハルナセツビ,0
220,1260005011247,新規,0,2023-07-05,2023-07-05,ＮＰＯ法人フードバンクわけらびっと,,その他の設立登記法人,岡山県,和気郡和気町,尺所３６９番地,,33,346,7090422,,,,,,,2023-07-05,1,,,,,フードバンクワケラビット,0
225,1290001102146,新規,0,2023-07-05,2023-07-05,株式会社ステップ,,株式会社,福岡県,飯塚市,綱分２５１番地２,,40,205,8200101,,,,,,,2023-07-05,1,,,,,ステップ,0
226,1290001102154,新規,0,2023-07-05,2023-07-05,株式会社ウェルクオ,,株式会社,福岡県,糟屋郡久山町,大字猪野８７８番地５３,,40,348,8112503,,,,,,,2023-07-05,1,,,,,ウェルクオ,0
229,1290003014109,新規,0,2023-07-05,2023-07-05,合同会社ＳＩＥ　Ｈｏｌｄｉｎｇｓ,,合同会社,福岡県,福岡市城南区,鳥飼６丁目１１－４－２０１,,40,136,8140103,,,,,,,2023-07-05,1,,,,,エスアイイーホールディングス,0
230,1290005019080,新規,0,2023-07-05,2023-07-05,一般社団法人福岡水中スポーツ連盟,,その他の設立登記法人,福岡県,福岡市博多区,博多駅前１丁目２３番２号ＰａｒｋＦｒｏｎｔ博多駅前１丁目５Ｆ－Ｂ,,40,132,8120011,,,,,,,2023-07-05,1,,,,,フクオカスイチュウスポーツレンメイ,0
231,1310001018488,新規,0,2023-07-05,2023-07-05,住吉サポート株式会社,,株式会社,長崎県,長崎市,住吉町１番９号,,42,201,8528154,,,,,,,2023-07-05,1,,,,,スミヨシサポート,0
243,1370003006188,新規,0,2023-07-05,2023-07-05,合同会社オオミヤＪＡＰＡＮ,,合同会社,宮城県,牡鹿郡女川町,浦宿浜字原４９,,04,581,9862231,,,,,,,2023-07-05,1,,,,,オオミヤジャパン,0
245,1380001033828,新規,0,2023-07-05,2023-07-05,株式会社ＣＡＬＤＯ,,株式会社,福島県,郡山市,桜木１丁目１２番７号遠藤工匠ビル１０１号室,,07,203,9638021,,,,,,,2023-07-05,1,,,,,カルド,0
246,1380003005503,新規,0,2023-07-05,2023-07-05,合同会社ウェブライト,,合同会社,福島県,福島市,三河南町１番２０号コラッセ福島,,07,201,9608053,,,,,,,2023-07-05,1,,,,,ウェブライト,0
248,1390001017301,新規,0,2023-07-05,2023-07-05,柏ホーム株式会社,,株式会社,山形県,天童市,大字荒谷字荒谷原１９４１番地１２２,,06,210,9940054,,,,,,,2023-07-05,1,,,,,カシワホーム,0
249,1400001016301,新規,0,2023-07-05,2023-07-05,株式会社玉山工業,,株式会社,岩手県,花巻市,石鳥谷町小森林第５地割１４４番地１,,03,205,0283153,,,,,,,2023-07-05,1,,,,,タマヤマコウギョウ,0
252,1400005008344,新規,0,2023-07-05,2023-07-05,一般社団法人デジタルラボ一関,,その他の設立登記法人,岩手県,一関市,大町４番１１号１階,,03,209,0210881,,,,,,,2023-07-05,1,,,,,デジタルラボイチノセキ,0
268,1470001019685,新規,0,2023-07-05,2023-07-05,株式会社万事屋優ちゃん,,株式会社,香川県,高松市,一宮町１４８３番地８,,37,201,7618084,,,,,,,2023-07-05,1,,,,,ヨロズヤユウチャン,0
273,1500001025036,新規,0,2023-07-05,2023-07-05,株式会社ラーメン屋さん,,株式会社,愛媛県,西条市,大町３２１番地１５,,38,206,7930030,,,,,,,2023-07-05,1,,,,,ラーメンヤサン,0
278,2010001236607,新規,0,2023-07-05,2023-07-05,月夢株式会社,,株式会社,東京都,中央区,銀座７丁目１８番１３号クオリア銀座２０８,,13,102,1040061,,,,,,,2023-07-05,1,,,,,ツキユメ,0
279,2010001236680,新規,0,2023-07-05,2023-07-05,エル資産管理株式会社,,株式会社,東京都,千代田区,三番町２番地２,,13,101,1020075,,,,,,,2023-07-05,1,,,,,エルシサンカンリ,0
288,2010405022264,新規,0,2023-07-05,2023-07-05,一般社団法人ＳｉｄｅＦＩＲＥ会,,その他の設立登記法人,東京都,港区,南青山２丁目１３番１６号ニュー鈴木２階,,13,103,1070062,,,,,,,2023-07-05,1,,,,,サイドファイアーカイ,0
289,2010405022272,新規,0,2023-07-05,2023-07-05,強羅運用一般社団法人,,その他の設立登記法人,東京都,港区,虎ノ門５丁目１番４号,,13,103,1050001,,,,,,,2023-07-05,1,,,,,ゴウラウンヨウ,0
290,2010501050697,新規,0,2023-07-05,2023-07-05,ＧＹＣ株式会社,,株式会社,東京都,台東区,松が谷４丁目１５－３－２０６号,,13,106,1110036,,,,,,,2023-07-05,1,,,,,ジーワイシー,0
291,2010501050706,新規,0,2023-07-05,2023-07-05,株式会社ディーアイジー,,株式会社,東京都,台東区,駒形２丁目２番１０号ファインライフ駒形２０１,,13,106,1110043,,,,,,,2023-07-05,1,,,,,ディーアイジー,0
293,2010701044516,新規,0,2023-07-05,2023-07-05,株式会社ジェイピーテックインターナショナル,,株式会社,東京都,品川区,西五反田２丁目１９番１２号,,13,109,1410031,,,,,,,2023-07-05,1,,,,,ジェイピーテックインターナショナル,0
294,2010701044524,新規,0,2023-07-05,2023-07-05,ＮＣ・ＧＤホールディングス株式会社,,株式会社,東京都,品川区,東五反田２丁目２０番４号,,13,109,1410022,,,,,,,2023-07-05,1,,,,,エヌシージーディーホールディングス,0
295,2010701044532,新規,0,2023-07-05,2023-07-05,株式会社ヨシムラ,,株式会社,東京都,品川区,西品川１丁目５番２号,,13,109,1410033,,,,,,,2023-07-05,1,,,,,ヨシムラ,0
297,2010703006761,新規,0,2023-07-05,2023-07-05,ブッシュクローバー合同会社,,合同会社,東京都,品川区,東五反田２丁目１０番１ー２９１３号,,13,109,1410022,,,,,,,2023-07-05,1,,,,,ブッシュクローバー,0
303,2010801034111,新規,0,2023-07-05,2023-07-05,Ｓｐｒｉｎｇ　Ｕｐ株式会社,,株式会社,東京都,大田区,鵜の木１丁目５番２－１０２号,,13,111,1460091,,,,,,,2023-07-05,1,,,,,スプリングアップ,0
308,2011001155417,新規,0,2023-07-05,2023-07-05,株式会社コスメジタンバンク,,株式会社,東京都,目黒区,上目黒３丁目１番１２号,,13,110,1530051,,,,,,,2023-07-05,1,,,,,コスメジタンバンク,0
309,2011001155466,新規,0,2023-07-05,2023-07-05,株式会社ピクセルリンク,,株式会社,東京都,渋谷区,恵比寿３丁目３－３ザ・パークハビオ恵比寿プレイス５０４号室,,13,113,1500013,,,,,,,2023-07-05,1,,,,,ピクセルリンク,0
310,2011003017111,新規,0,2023-07-05,2023-07-05,仁アセットマネジメント合同会社,,合同会社,東京都,渋谷区,神泉町１０番１５号,,13,113,1500045,,,,,,,2023-07-05,1,,,,,ジンアセットマネジメント,0
314,2011101103440,新規,0,2023-07-05,2023-07-05,株式会社ＰＯＴ,,株式会社,東京都,新宿区,新宿１丁目３６番２号新宿第七葉山ビル３Ｆ,,13,104,1600022,,,,,,,2023-07-05,1,,,,,ポット,0
315,2011101103498,新規,0,2023-07-05,2023-07-05,株式会社ｓｈｉｒｏ,,株式会社,東京都,新宿区,西新宿３丁目３番１３号西新宿水間ビル２Ｆ,,13,104,1600023,,,,,,,2023-07-05,1,,,,,シロ,0
323,2011601026950,新規,0,2023-07-05,2023-07-05,株式会社致藤,,株式会社,東京都,練馬区,関町東２丁目１２番３号総建武蔵関ハイム１０２号室,,13,120,1770052,,,,,,,2023-07-05,1,,,,,チトウ,0
329,2011701026388,新規,0,2023-07-05,2023-07-05,南平台町Ｆ株式会社,,株式会社,東京都,江戸川区,中葛西５丁目２０番９号,,13,123,1340083,,,,,,,2023-07-05,1,,,,,ナンペイダイチョウエフ,0
331,2011801042649,新規,0,2023-07-05,2023-07-05,株式会社あおぞら学習塾,,株式会社,東京都,足立区,竹の塚５丁目１番１－２０２号,,13,121,1210813,,,,,,,2023-07-05,1,,,,,アオゾラガクシュウジュク,0
333,2012701017724,新規,0,2023-07-05,2023-07-05,株式会社カラスヤマフードサービス,,株式会社,東京都,西東京市,北原町１丁目３４番１２号,,13,229,1880003,,,,,,,2023-07-05,1,,,,,カラスヤマフードサービス,0
334,2012701017732,新規,0,2023-07-05,2023-07-05,株式会社エスワイ・カーゴ,,株式会社,東京都,東村山市,久米川町２丁目３４番地７２,,13,213,1890003,,,,,,,2023-07-05,1,,,,,エスワイカーゴ,0
348,2020001152357,新規,0,2023-07-05,2023-07-05,株式会社ユナイテッドパートナーズ,,株式会社,神奈川県,川崎市多摩区,堰１丁目２９番２２号,,14,135,2140022,,,,,,,2023-07-05,1,,,,,ユナイテッドパートナーズ,0
356,2030001154740,新規,0,2023-07-05,2023-07-05,株式会社高砂商店,,株式会社,埼玉県,さいたま市大宮区,大門町２丁目２０番地２ＴＭＯ北棟ＴＭｏｆｆｃｅ大宮１０１,,11,103,3300846,,,,,,,2023-07-05,1,,,,,タカサゴショウテン,0
357,2030001154749,新規,0,2023-07-05,2023-07-05,株式会社松本商事,,株式会社,埼玉県,さいたま市大宮区,櫛引町１丁目３２４番地２－３４０号,,11,103,3300851,,,,,,,2023-07-05,1,,,,,マツモトショウジ,0
361,2030003022020,新規,0,2023-07-05,2023-07-05,ＨＣＱ　ＧＲＯＵＰ合同会社,,合同会社,埼玉県,坂戸市,伊豆の山町２１番地３９ＫＩＶオフィス伊豆の山２号棟Ｃ号室,,11,239,3500275,,,,,,,2023-07-05,1,,,,,エイチシーキューグループ,0
362,2030003022086,新規,0,2023-07-05,2023-07-05,合同会社アニバーサリー,,合同会社,埼玉県,飯能市,仲町２番６号,,11,209,3570038,,,,,,,2023-07-05,1,,,,,アニバーサリー,0
363,2030005021326,新規,0,2023-07-05,2023-07-05,一般社団法人無人航空機安心安全協会,,その他の設立登記法人,埼玉県,ふじみ野市,福岡中央１丁目１番１５号キャッスルマンション２０１号,,11,245,3560031,,,,,,,2023-07-05,1,,,,,ムジンコウクウキアンシンアンゼンキョウカイ,0
371,2040001129089,新規,0,2023-07-05,2023-07-05,株式会社ＡＪＫコーポレーション,,株式会社,千葉県,市川市,八幡１丁目２３番１９－７０３号（クレストコート本八幡）,,12,203,2720021,,,,,,,2023-07-05,1,,,,,エイジェイケイコーポレーション,0
372,2040003022878,新規,0,2023-07-05,2023-07-05,コッターノン合同会社,,合同会社,千葉県,千葉市美浜区,高洲２丁目２番７棟３０１号,,12,106,2610004,,,,,,,2023-07-05,1,,,,,コッターノン,0
373,2040003022894,新規,0,2023-07-05,2023-07-05,ケレス合同会社,,合同会社,千葉県,船橋市,古作３丁目１３番５－４０６号,,12,204,2730037,,,,,,,2023-07-05,1,,,,,ケレス,0
379,2080101024104,新規,0,2023-07-05,2023-07-05,株式会社芹沢電気,,株式会社,静岡県,沼津市,今沢６８７番地の２４,,22,203,4100875,,,,,,,2023-07-05,1,,,,,セリザワデンキ,0
383,2110001037672,新規,0,2023-07-05,2023-07-05,株式会社ＰＨＮ,,株式会社,新潟県,三条市,月岡３丁目７番２９号,,15,204,9550803,,,,,,,2023-07-05,1,,,,,ピーエイチエヌ,0
391,2120001256148,新規,0,2023-07-05,2023-07-05,通揚株式会社,,株式会社,大阪府,大阪市東成区,深江北３丁目４番２１号エクラ深江橋５１１Ｂ,,27,115,5370001,,,,,,,2023-07-05,1,,,,,ツウヨウ,0
392,2120001256180,新規,0,2023-07-05,2023-07-05,株式会社ＬＡＮＤＬＡＢ,,株式会社,大阪府,大阪市中央区,本町２丁目３－４アソルティ本町４Ｆ,,27,128,5410053,,,,,,,2023-07-05,1,,,,,ランドラボ,0
393,2120001256189,新規,0,2023-07-05,2023-07-05,ドギーマンアセットマネジメント株式会社,,株式会社,大阪府,大阪市東成区,深江南１丁目１６番１４号,,27,115,5370002,,,,,,,2023-07-05,1,,,,,ドギーマンアセットマネジメント,0
394,2120001256197,新規,0,2023-07-05,2023-07-05,ベネフィットサポーター株式会社,,株式会社,大阪府,枚方市,村野東町５２番３０号,,27,210,5730015,,,,,,,2023-07-05,1,,,,,ベネフィットサポーター,0
395,2120001256206,新規,0,2023-07-05,2023-07-05,株式会社豪傑,,株式会社,大阪府,大阪市中央区,南船場４丁目１０番５号南船場ＳＯＨＯビル７０２,,27,128,5420081,,,,,,,2023-07-05,1,,,,,ゴウケツ,0
402,2120103005312,新規,0,2023-07-05,2023-07-05,合同会社米田サービス,,合同会社,大阪府,藤井寺市,青山１丁目５番４２－２０６号,,27,226,5830015,,,,,,,2023-07-05,1,,,,,ヨネダサービス,0
403,2120901047745,新規,0,2023-07-05,2023-07-05,株式会社日進商事,,株式会社,大阪府,吹田市,古江台１丁目２番９号,,27,205,5650874,,,,,,,2023-07-05,1,,,,,ニッシンショウジ,0
405,2122001037131,新規,0,2023-07-05,2023-07-05,フジレックス株式会社,,株式会社,大阪府,四條畷市,岡山東２丁目７番１１号,,27,229,5750003,,,,,,,2023-07-05,1,,,,,フジレックス,0
407,2122003002620,新規,0,2023-07-05,2023-07-05,レディオクス合同会社,,合同会社,大阪府,東大阪市,鴻池徳庵町１－６,,27,227,5780977,,,,,,,2023-07-05,1,,,,,レディオクス,0
414,2130003008827,新規,0,2023-07-05,2023-07-05,稲荷アセットマネジメント合同会社,,合同会社,京都府,京都市伏見区,深草稲荷御前町８１番地４,,26,109,6120881,,,,,,,2023-07-05,1,,,,,イナリアセットマネジメント,0
419,2140001130788,新規,0,2023-07-05,2023-07-05,株式会社アカギ,,株式会社,兵庫県,尼崎市,御園町２４番地尼崎第一ビル４０２号,,28,202,6600861,,,,,,,2023-07-05,1,,,,,アカギ,0
424,2160001025144,新規,0,2023-07-05,2023-07-05,株式会社蒼生,,株式会社,滋賀県,栗東市,上鈎１７３番地３（２０２号）シャーメゾンルイ,,25,208,5203022,,,,,,,2023-07-05,1,,,,,アオイ,0
427,2170001017669,新規,0,2023-07-05,2023-07-05,田中建設株式会社,,株式会社,和歌山県,紀の川市,桃山町調月１９５１番地５,,30,208,6496112,,,,,,,2023-07-05,1,,,,,タナカケンセツ,0
429,2170003001893,新規,0,2023-07-05,2023-07-05,合同会社Ａｌｓａ,,合同会社,和歌山県,伊都郡かつらぎ町,大字丁ノ町８１７番地妙寺団地２号館１０６号,,30,341,6497121,,,,,,,2023-07-05,1,,,,,アルサ,0
433,2180301037531,新規,0,2023-07-05,2023-07-05,中島防水工業株式会社,,株式会社,愛知県,岡崎市,西大友町字寺山３５番地３,,23,202,4440904,,,,,,,2023-07-05,1,,,,,ナカシマボウスイコウギョウ,0
436,2190001030546,新規,0,2023-07-05,2023-07-05,株式会社ＲＳＭ　ＧＡＲＡＧＥ,,株式会社,三重県,鈴鹿市,稲生西１丁目１２番２６号,,24,207,5100204,,,,,,,2023-07-05,1,,,,,アールエスエムガレージ,0
443,2240001061750,新規,0,2023-07-05,2023-07-05,株式会社グロー,,株式会社,広島県,広島市西区,高須台６丁目１１番１７号,,34,104,7330876,,,,,,,2023-07-05,1,,,,,グロー,0
445,2250003003304,新規,0,2023-07-05,2023-07-05,合同会社ほいっぽ,,合同会社,山口県,山口市,宮野上６１２番地１７,,35,203,7530001,,,,,,,2023-07-05,1,,,,,ホイッポ,0
447,2260001038086,新規,0,2023-07-05,2023-07-05,株式会社ハルヒナ,,株式会社,岡山県,赤磐市,東軽部１８３３番地,,33,213,7012214,,,,,,,2023-07-05,1,,,,,ハルヒナ,0
448,2260001038094,新規,0,2023-07-05,2023-07-05,Ｅａｒｔｈｗｏｒｋ株式会社,,株式会社,岡山県,倉敷市,羽島７３３番地９,,33,202,7100043,,,,,,,2023-07-05,1,,,,,アースワーク,0
456,2290001102137,新規,0,2023-07-05,2023-07-05,株式会社福岡建装,,株式会社,福岡県,福岡市中央区,天神５丁目８番１７号,,40,133,8100001,,,,,,,2023-07-05,1,,,,,フクオカケンソウ,0
457,2290001102145,新規,0,2023-07-05,2023-07-05,株式会社タテトチ,,株式会社,福岡県,久留米市,東櫛原町２３０３番地１２,,40,203,8300003,,,,,,,2023-07-05,1,,,,,タテトチ,0
467,2340001025679,新規,0,2023-07-05,2023-07-05,株式会社永井自動車整備工場,,株式会社,鹿児島県,鹿屋市,串良町下小原３３８２－１,,46,203,8931604,,,,,,,2023-07-05,1,,,,,ナガイジドウシャセイビコウジョウ,0
468,2340001025695,新規,0,2023-07-05,2023-07-05,株式会社Ｌｉｂｒｅ,,株式会社,鹿児島県,鹿屋市,本町４番１３号２０５号室,,46,203,8930002,,,,,,,2023-07-05,1,,,,,リブレ,0
469,2360003013093,新規,0,2023-07-05,2023-07-05,合同会社Ｔ’ｓｂｙＣＯＮＮＥＣＴ,,合同会社,沖縄県,那覇市,字小禄６３８番地シェーネ千原ＩＩ３０１,00131063,47,201,9010152,,,,,,,2023-07-05,1,,,,,ティーズバイコネクト,0
478,2400001016300,新規,0,2023-07-05,2023-07-05,ＪＦＣ．ＰＡＲＴＮＥＲＳ株式会社,,株式会社,岩手県,盛岡市,向中野字幅５２番地９,,03,201,0200851,,,,,,,2023-07-05,1,,,,,ジェーエフシーパートナーズ,0
484,2430001089401,新規,0,2023-07-05,2023-07-05,株式会社松崎総合陸運,,株式会社,北海道,滝川市,東町３５５番地５,,01,225,0730024,,,,,,,2023-07-05,1,,,,,マツザキソウゴウリクウン,0
486,2450001014035,新規,0,2023-07-05,2023-07-05,ＨＯＫＫＡＩＤＯ農業テラス株式会社,,株式会社,北海道,旭川市,工業団地三条３丁目１番１４号株式会社ＫＰ産業内,,01,204,0788273,,,,,,,2023-07-05,1,,,,,ホッカイドウノウギョウテラス,0
487,2470001019684,新規,0,2023-07-05,2023-07-05,株式会社エンター,,株式会社,香川県,坂出市,西庄町１０２６番地４,,37,203,7620021,,,,,,,2023-07-05,1,,,,,エンター,0
491,3010001236382,新規,0,2023-07-05,2023-07-05,株式会社Ｓｗｉｔｃｈｉｎｇ,,株式会社,東京都,中央区,銀座１丁目２２番１１号銀座大竹ビジデンス２Ｆ,,13,102,1040061,,,,,,,2023-07-05,1,,,,,スイッチング,0
492,3010001236440,新規,0,2023-07-05,2023-07-05,株式会社ＴＯＫＹＯ　ＶＩＤＥＯ　ＧＡＭＥＲＳ,,株式会社,東京都,千代田区,神田練塀町１３－１,,13,101,1010022,,,,,,,2023-07-05,1,,,,,トーキョービデオゲーマーズ,0
493,3010001236548,新規,0,2023-07-05,2023-07-05,株式会社ＫＡＲＥＮ,,株式会社,東京都,文京区,本駒込２丁目１３－８,,13,105,1130021,,,,,,,2023-07-05,1,,,,,カレン,0
494,3010001236606,新規,0,2023-07-05,2023-07-05,Ｄａｉｓｙ　Ｓｏｌｕｔｉｏｎｓ株式会社,,株式会社,東京都,中央区,日本橋兜町７番１号ＫＡＢＵＴＯＯＮＥ９階,,13,102,1030026,,,,,,,2023-07-05,1,,,,,デイジーソリューションズ,0
496,3010003040964,新規,0,2023-07-05,2023-07-05,ダック・ベア合同会社,,合同会社,東京都,中央区,銀座１丁目１２番４号Ｎ＆Ｅ・ＢＬＤ．７階,,13,102,1040061,,,,,,,2023-07-05,1,,,,,ダックベア,0
497,3010003041021,新規,0,2023-07-05,2023-07-05,合同会社テラ,,合同会社,東京都,中央区,日本橋１丁目４番１号日本橋一丁目ビルディング,,13,102,1030027,,,,,,,2023-07-05,1,,,,,テラ,0
498,3010003041038,新規,0,2023-07-05,2023-07-05,合同会社ＡＳＡＨＩ商店．ＣＯＭ,,合同会社,東京都,中央区,東日本橋２丁目２８番４号日本橋ＣＥＴビル２階,,13,102,1030004,,,,,,,2023-07-05,1,,,,,アサヒショウテンドットコム,0
508,3010401175478,新規,0,2023-07-05,2023-07-05,株式会社シュパーブホールディングス,,株式会社,東京都,港区,港南２丁目１２番３３号品川キャナルビル８階,,13,103,1080075,,,,,,,2023-07-05,1,,,,,シュパーブホールディングス,0
510,3010405022263,新規,0,2023-07-05,2023-07-05,一般財団法人日本カイロプラクティック登録機構,,その他の設立登記法人,東京都,港区,西新橋３丁目２４番５号レック御成門川名ビル５０３,,13,103,1050003,,,,,,,2023-07-05,1,,,,,ニホンカイロプラクティックトウロクキコウ,0
511,3010501050688,新規,0,2023-07-05,2023-07-05,株式会社ＰＥＡＣＥ,,株式会社,東京都,台東区,雷門２丁目３番７号,,13,106,1110034,,,,,,,2023-07-05,1,,,,,ピース,0
512,3010501050705,新規,0,2023-07-05,2023-07-05,株式会社ＬＯＯＰ,,株式会社,東京都,台東区,浅草２丁目１９番７,,13,106,1110032,,,,,,,2023-07-05,1,,,,,ループ,0
517,3010701044515,新規,0,2023-07-05,2023-07-05,株式会社総和,,株式会社,東京都,品川区,東五反田５丁目２５番１９号,,13,109,1410022,,,,,,,2023-07-05,1,,,,,ソウワ,0
518,3010701044523,新規,0,2023-07-05,2023-07-05,株式会社ＢＲＡＶＥＳＴ,,株式会社,東京都,品川区,小山６丁目１９番２号,,13,109,1420062,,,,,,,2023-07-05,1,,,,,ブレイベスト,0
519,3010703006760,新規,0,2023-07-05,2023-07-05,ＳＵＳＨＩＬ　ＣＯＲＰＯＲＡＴＩＯＮ合同会社,,合同会社,東京都,品川区,上大崎２丁目１７番４号,,13,109,1410021,,,,,,,2023-07-05,1,,,,,,0
520,3010901053349,新規,0,2023-07-05,2023-07-05,株式会社起動舎,,株式会社,東京都,世田谷区,世田谷２丁目１２番１８号,,13,112,1540017,,,,,,,2023-07-05,1,,,,,キドウシャ,0
525,3011001155416,新規,0,2023-07-05,2023-07-05,株式会社コスメジタンラボ,,株式会社,東京都,目黒区,上目黒３丁目１番１２号,,13,110,1530051,,,,,,,2023-07-05,1,,,,,コスメジタンラボ,0
526,3011003017102,新規,0,2023-07-05,2023-07-05,合同会社チャレンジ,,合同会社,東京都,渋谷区,東３丁目２５番３号,,13,113,1500011,,,,,,,2023-07-05,1,,,,,チャレンジ,0
529,3011101103464,新規,0,2023-07-05,2023-07-05,株式会社ＲＥＭＩＮＳＵＮＧ２,,株式会社,東京都,新宿区,大久保１丁目１６番１３号新大久保ＳＨＫビル３０２,,13,104,1690072,,,,,,,2023-07-05,1,,,,,レミンソンツー,0
530,3011101103480,新規,0,2023-07-05,2023-07-05,株式会社ＦＡＮ,,株式会社,東京都,新宿区,百人町２丁目１番４２－３０３号,,13,104,1690073,,,,,,,2023-07-05,1,,,,,ファン,0
531,3011101103497,新規,0,2023-07-05,2023-07-05,株式会社Ｅｓｐｅｌｈａ,,株式会社,東京都,新宿区,四谷４丁目１３番地２１レジデンス四谷３０１,,13,104,1600004,,,,,,,2023-07-05,1,,,,,シュピラ,0
533,3011503005671,新規,0,2023-07-05,2023-07-05,合同会社Ｍ３８,,合同会社,東京都,荒川区,東尾久３丁目９番１５号,,13,118,1160012,,,,,,,2023-07-05,1,,,,,エムサンパチ,0
537,3011605002534,新規,0,2023-07-05,2023-07-05,税理士法人安井税理士事務所,,その他の設立登記法人,東京都,練馬区,豊玉上１丁目８番１４－６０２号,,13,120,1760011,,,,,,,2023-07-05,1,,,,,ヤスイゼイリシジムショ,0
539,3011701026395,新規,0,2023-07-05,2023-07-05,株式会社アイエス建装,,株式会社,東京都,江戸川区,南小岩８丁目４番１２号グランドール南小岩１０２,,13,123,1330056,,,,,,,2023-07-05,1,,,,,アイエスケンソウ,0
541,3012405004877,新規,0,2023-07-05,2023-07-05,アポロ税理士法人,,その他の設立登記法人,東京都,多摩市,関戸５丁目１７番地の１６けえどの長屋１０２,,13,224,2060011,,,,,,,2023-07-05,1,,,,,アポロ,0
543,3012803003118,新規,0,2023-07-05,2023-07-05,東風商事合同会社,,合同会社,東京都,国分寺市,東元町３丁目１２番２７号,,13,214,1850022,,,,,,,2023-07-05,1,,,,,ハルカゼショウジ,0
550,3020001152323,新規,0,2023-07-05,2023-07-05,株式会社てんぷらぁと,,株式会社,神奈川県,川崎市多摩区,布田３２番３０－２号,,14,135,2140011,,,,,,,2023-07-05,1,,,,,テンプラァト,0
551,3020001152356,新規,0,2023-07-05,2023-07-05,株式会社ココカラ,,株式会社,神奈川県,横浜市磯子区,洋光台１丁目１０番３９号,,14,107,2350045,,,,,,,2023-07-05,1,,,,,ココカラ,0
554,3020003024173,新規,0,2023-07-05,2023-07-05,合同会社パティスリーカナメヤナギ,,合同会社,神奈川県,川崎市幸区,古市場２丁目６５番地２サニーフラットＫ１Ｆ,,14,132,2120052,,,,,,,2023-07-05,1,,,,,パティスリーカナメヤナギ,0
563,3030001154698,新規,0,2023-07-05,2023-07-05,株式会社福田繊維企画,,株式会社,埼玉県,さいたま市大宮区,桜木町１丁目２１３番地１プラウド大宮８０２,,11,103,3300854,,,,,,,2023-07-05,1,,,,,フクダセンイキカク,0
569,3040001129113,新規,0,2023-07-05,2023-07-05,株式会社ＣＯＢＹ,,株式会社,千葉県,我孫子市,青山台２丁目９番２号,,12,222,2701175,,,,,,,2023-07-05,1,,,,,コビー,0
572,3040003022893,新規,0,2023-07-05,2023-07-05,合同会社三山五丁目計画,,合同会社,千葉県,船橋市,三山５丁目５２番２２号,,12,204,2740072,,,,,,,2023-07-05,1,,,,,ミヤマゴチョウメケイカク,0
577,3070001040580,新規,0,2023-07-05,2023-07-05,株式会社四季彩,,株式会社,群馬県,高崎市,浜尻町６６７番地１,,10,202,3700005,,,,,,,2023-07-05,1,,,,,,0
578,3070001040597,新規,0,2023-07-05,2023-07-05,株式会社ＩＳ工業,,株式会社,群馬県,前橋市,樋越町３５７番地１０,00131065,10,201,3710221,,,,,,,2023-07-05,1,,,,,アイエスコウギョウ,0
580,3080003003007,新規,0,2023-07-05,2023-07-05,合同会社ケアプランねすれ,,合同会社,静岡県,静岡市葵区,有永町２２番１４号,,22,101,4200969,,,,,,,2023-07-05,1,,,,,ケアプランネスレ,0
581,3080401026567,新規,0,2023-07-05,2023-07-05,パスコンホールディングス株式会社,,株式会社,静岡県,浜松市東区,豊町３１８３番地,,22,132,4313101,,,,,,,2023-07-05,1,,,,,パスコンホールディングス,0
582,3080403004819,新規,0,2023-07-05,2023-07-05,合同会社Ｋ１,,合同会社,静岡県,磐田市,森下１０１３番地１４,,22,211,4380834,,,,,,,2023-07-05,1,,,,,ケイワン,0
583,3090001018187,新規,0,2023-07-05,2023-07-05,株式会社坐忘庵,,株式会社,山梨県,甲府市,上積翠寺町１６１４番地,,19,201,4000011,,,,,,,2023-07-05,1,,,,,ザボウアン,0
584,3090001018195,新規,0,2023-07-05,2023-07-05,株式会社ＳＲＴ,,株式会社,山梨県,甲府市,下石田２丁目２１番１７号コーポ笹本１０２,,19,201,4000046,,,,,,,2023-07-05,1,,,,,エスアールティ,0
585,3100001036542,新規,0,2023-07-05,2023-07-05,株式会社ＭＩＹＡＭＯＴＯ,,株式会社,長野県,南佐久郡小海町,大字豊里４７７９番地,,20,303,3841103,,,,,,,2023-07-05,1,,,,,ミヤモト,0
588,3110001037671,新規,0,2023-07-05,2023-07-05,ＨＡＰＰＹ　ＣＵＢＥ株式会社,,株式会社,新潟県,新潟市北区,新崎１丁目１３番３４号,,15,101,9503134,,,,,,,2023-07-05,1,,,,,ハッピーキューブ,0
601,3120001256147,新規,0,2023-07-05,2023-07-05,漁＿株式会社,00131062,株式会社,大阪府,大阪市大正区,三軒家西３丁目４番１６号中山ビル４０９Ｄ,,27,108,5510001,,,,,,,2023-07-05,1,,,,,ギョリン,0
602,3120001256213,新規,0,2023-07-05,2023-07-05,潤日科技株式会社,,株式会社,大阪府,大阪市西成区,玉出中１丁目１１番５号アクティ玉出４０１号,,27,122,5570044,,,,,,,2023-07-05,1,,,,,ジュンニチカギ,0
605,3120003024403,新規,0,2023-07-05,2023-07-05,櫻井屋合同会社,,合同会社,大阪府,大阪市北区,天神橋２丁目１番２２号,,27,127,5300041,,,,,,,2023-07-05,1,,,,,サクライヤ,0
606,3120003024411,新規,0,2023-07-05,2023-07-05,合同会社さんご,,合同会社,大阪府,大阪市東住吉区,桑津１丁目３１番３３号グリーントピア天王寺イースト１０２号,,27,121,5460041,,,,,,,2023-07-05,1,,,,,サンゴ,0
608,3120101067808,新規,0,2023-07-05,2023-07-05,株式会社ｒｅｌａｔｉｏｎ,,株式会社,大阪府,岸和田市,松風町１０番３９号,,27,202,5960021,,,,,,,2023-07-05,1,,,,,リレーション,0
609,3120101067816,新規,0,2023-07-05,2023-07-05,株式会社プレイハウス,,株式会社,大阪府,岸和田市,上野町東１番２６号ハイネスベルシモンエルポート１１０２号,,27,202,5960047,,,,,,,2023-07-05,1,,,,,プレイハウス,0
610,3120103005303,新規,0,2023-07-05,2023-07-05,合同会社クリエイト,,合同会社,大阪府,泉佐野市,市場東２丁目１３番１８号３Ｆ,,27,213,5980005,,,,,,,2023-07-05,1,,,,,クリエイト,0
614,3130003008826,新規,0,2023-07-05,2023-07-05,合同会社Ｋｅｎｚ　Ｃｒｅａｔｉｏｎ,,合同会社,京都府,京都市下京区,朱雀宝蔵町４４番地協栄ビル２階京都朱雀スタジオ,,26,106,6008846,,,,,,,2023-07-05,1,,,,,ケンズクリエイション,0
615,3130005016819,新規,0,2023-07-05,2023-07-05,医療法人翔医会,,その他の設立登記法人,京都府,京都市伏見区,深草直違橋北１丁目４６０番１,,26,109,6120869,,,,,,,2023-07-05,1,,,,,ショウイカイ,0
618,3140003019252,新規,0,2023-07-05,2023-07-05,丼屋ＧＡＪＵ合同会社,,合同会社,兵庫県,芦屋市,南宮町７番３号,,28,206,6590024,,,,,,,2023-07-05,1,,,,,ドンヤガージュー,0
619,3140003019260,新規,0,2023-07-05,2023-07-05,合同会社ＡＫＡＲＩサポート,,合同会社,兵庫県,豊岡市,弥栄町４番２９号,,28,209,6680057,,,,,,,2023-07-05,1,,,,,,0
620,3150001026514,新規,0,2023-07-05,2023-07-05,株式会社ザダン,,株式会社,奈良県,生駒郡斑鳩町,法隆寺２丁目３番１６号,,29,344,6360116,,,,,,,2023-07-05,1,,,,,ザダン,0
624,3170001017668,新規,0,2023-07-05,2023-07-05,株式会社峯本電機,,株式会社,和歌山県,東牟婁郡那智勝浦町,大字天満４５５番地３０,,30,421,6495331,,,,,,,2023-07-05,1,,,,,ミネモトデンキ,0
629,3180001156911,新規,0,2023-07-05,2023-07-05,株式会社ＳＵＭＭＩＴ,,株式会社,愛知県,長久手市,山野田１２３０,,23,238,4801113,,,,,,,2023-07-05,1,,,,,サミット,0
630,3180001156952,新規,0,2023-07-05,2023-07-05,株式会社不動産のいっせいどう,,株式会社,愛知県,半田市,北二ツ坂町１丁目１０番１０号,,23,205,4750927,,,,,,,2023-07-05,1,,,,,フドウサンノイッセイドウ,0
631,3180001156977,新規,0,2023-07-05,2023-07-05,株式会社ミズホ美装,,株式会社,愛知県,日進市,折戸町定納９０番地２,,23,230,4700115,,,,,,,2023-07-05,1,,,,,ミズホミソウ,0
635,3180301037522,新規,0,2023-07-05,2023-07-05,丸真株式会社,,株式会社,愛知県,知立市,新林町小深田７番地,,23,225,4720017,,,,,,,2023-07-05,1,,,,,マルシン,0
638,3190001030537,新規,0,2023-07-05,2023-07-05,株式会社渋谷電気,,株式会社,三重県,四日市市,東坂部町５６２番地５,,24,202,5120904,,,,,,,2023-07-05,1,,,,,シブタニデンキ,0
639,3190001030545,新規,0,2023-07-05,2023-07-05,株式会社ＢＡＣＫ‐ＦＬＯＷ,,株式会社,三重県,桑名市,有楽町６３番地鵜飼ビル１０１,,24,205,5110079,,,,,,,2023-07-05,1,,,,,バックフロー,0
641,3190005011839,新規,0,2023-07-05,2023-07-05,税理士法人田畑会計社,,その他の設立登記法人,三重県,名張市,東町１７１８番地１１,,24,208,5180711,,,,,,,2023-07-05,1,,,,,タバタカイケイシャ,0
642,3200001041458,新規,0,2023-07-05,2023-07-05,ＮＯＢＵＮＡＧＡサクセション株式会社,,株式会社,岐阜県,岐阜市,神田町７丁目１２番地,,21,201,5008833,,,,,,,2023-07-05,1,,,,,ノブナガサクセション,0
649,3240001061741,新規,0,2023-07-05,2023-07-05,株式会社ＮＩＰＰＯＮ　ＭＯＴＯＲ　ＢＯＯＧＩＥ,,株式会社,広島県,広島市南区,大州２丁目１１番５号,,34,103,7320802,,,,,,,2023-07-05,1,,,,,ニッポンモーターブギ,0
665,3290001102169,新規,0,2023-07-05,2023-07-05,株式会社多稲,,株式会社,福岡県,福岡市博多区,博多駅前４丁目１１番１３号,,40,132,8120011,,,,,,,2023-07-05,1,,,,,タイナ,0
671,3320001019855,新規,0,2023-07-05,2023-07-05,株式会社大明,,株式会社,大分県,宇佐市,大字北宇佐２５１番地の３,,44,211,8720103,,,,,,,2023-07-05,1,,,,,ダイメイ,0
672,3320003004120,新規,0,2023-07-05,2023-07-05,合同会社サービスエース,,合同会社,大分県,大分市,大字光吉９２３番地の５,,44,201,8701132,,,,,,,2023-07-05,1,,,,,サービスエース,0
674,3340001025678,新規,0,2023-07-05,2023-07-05,株式会社ＩＢコーポレーション,,株式会社,鹿児島県,鹿児島市,宇宿８丁目１２番１７号,,46,201,8900073,,,,,,,2023-07-05,1,,,,,アイビーコーポレーション,0
675,3340001025686,新規,0,2023-07-05,2023-07-05,株式会社ゼンコー,,株式会社,鹿児島県,垂水市,田神１７１４番地１,,46,214,8912104,,,,,,,2023-07-05,1,,,,,ゼンコー,0
676,3340001025694,新規,0,2023-07-05,2023-07-05,株式会社オリジンズ電工,,株式会社,鹿児島県,鹿児島市,皇徳寺台４丁目２９番３号,,46,201,8910103,,,,,,,2023-07-05,1,,,,,オリジンズデンコウ,0
681,3380001033826,新規,0,2023-07-05,2023-07-05,フクシマ電設株式会社,,株式会社,福島県,福島市,黒岩字素利町６番地の２４,,07,201,9608153,,,,,,,2023-07-05,1,,,,,フクシマデンセツ,0
685,3380003005501,新規,0,2023-07-05,2023-07-05,合同会社Ｍイメージング,,合同会社,福島県,郡山市,御前南５丁目１８０番地,,07,203,9630209,,,,,,,2023-07-05,1,,,,,エムイメージング,0
687,3390003002118,新規,0,2023-07-05,2023-07-05,合同会社Ｌ＆Ｄ　ＲｅｎｅｗａｂｌｅＳ,,合同会社,山形県,東置賜郡高畠町,大字山崎２３番地の１０,,06,381,9992173,,,,,,,2023-07-05,1,,,,,エルアンドディーリニューエボーズ,0
690,3420001018327,新規,0,2023-07-05,2023-07-05,原田青果株式会社,,株式会社,青森県,平川市,南田中北原８８番地１３,,02,210,0360203,,,,,,,2023-07-05,1,,,,,ハラタセイカ,0
693,3430001089433,新規,0,2023-07-05,2023-07-05,株式会社Ｈｕｍａｎ　Ｃｏｍｐａｎｙ,,株式会社,北海道,札幌市中央区,南四条西５丁目８番地Ｆ４５ビルＢ１階,,01,101,0640804,,,,,,,2023-07-05,1,,,,,ヒューマンカンパニー,0
697,3450001014034,新規,0,2023-07-05,2023-07-05,北海道ＡＧＲＩ　ＦＲＯＺＥＮ株式会社,,株式会社,北海道,旭川市,工業団地三条３丁目１番１４号株式会社ＫＰ産業内,,01,204,0788273,,,,,,,2023-07-05,1,,,,,ホッカイドウアグリフローズン,0
700,3480001012134,新規,0,2023-07-05,2023-07-05,新居組株式会社,,株式会社,徳島県,阿南市,那賀川町赤池１２０番地８,,36,204,7791242,,,,,,,2023-07-05,1,,,,,ニイグミ,0
713,4010001236670,新規,0,2023-07-05,2023-07-05,みらい八丈株式会社,,株式会社,東京都,八丈島八丈町,三根４９２８番地２,,13,401,1001511,,,,,,,2023-07-05,1,,,,,ミライハチジョウ,0
716,4010003041037,新規,0,2023-07-05,2023-07-05,グリーンジャパン合同会社,,合同会社,東京都,中央区,日本橋室町１丁目１１番１２号日本橋水野ビル７階,,13,102,1030022,,,,,,,2023-07-05,1,,,,,グリーンジャパン,0
725,4010401175510,新規,0,2023-07-05,2023-07-05,ＣＩＭＣ　Ｌｉｑｕｉｄ　Ｐｒｏｃｅｓｓ　Ｔｅｃｈｎｏｌｏｇｙ　Ｊａｐａｎ株式会社,,株式会社,東京都,港区,六本木６丁目１０番１号六本木ヒルズ森タワー２３階,,13,103,1060032,,,,,,,2023-07-05,1,,,,,シーアイエムシーリキッドプロセステクノロジージャパン,0
726,4010501050695,新規,0,2023-07-05,2023-07-05,株式会社ＷＡＲＤ,,株式会社,東京都,台東区,清川２丁目１４番３号,,13,106,1110022,,,,,,,2023-07-05,1,,,,,ウォード,0
727,4010501050704,新規,0,2023-07-05,2023-07-05,株式会社ＭＡＺＵＹＡＲＵ,,株式会社,東京都,台東区,根岸３丁目１４－８・１階,,13,106,1100003,,,,,,,2023-07-05,1,,,,,マズヤル,0
728,4010501050712,新規,0,2023-07-05,2023-07-05,株式会社Ｎｉｃｏ,,株式会社,東京都,台東区,柳橋２丁目６番５－３０１号フレンシア浅草橋,,13,106,1110052,,,,,,,2023-07-05,1,,,,,ニコ,0
729,4010503007074,新規,0,2023-07-05,2023-07-05,合同会社あさあさ,,合同会社,東京都,台東区,下谷２丁目３―１渡辺ビル１階,,13,106,1100004,,,,,,,2023-07-05,1,,,,,アサアサ,0
732,4010701044506,新規,0,2023-07-05,2023-07-05,株式会社Ｍｏｋｋｉ,,株式会社,東京都,品川区,大井７丁目２８番４号,,13,109,1400014,,,,,,,2023-07-05,1,,,,,モッキ,0
733,4010701044522,新規,0,2023-07-05,2023-07-05,株式会社クリエイト,,株式会社,東京都,品川区,西五反田４丁目３１番１６号アコーハイツ２０３号,,13,109,1410031,,,,,,,2023-07-05,1,,,,,クリエイト,0
740,4010901053348,新規,0,2023-07-05,2023-07-05,株式会社ＭＹ,,株式会社,東京都,世田谷区,上北沢５丁目６番１４号グリュック上北沢１０５,,13,112,1560057,,,,,,,2023-07-05,1,,,,,エムワイ,0
741,4010903008283,新規,0,2023-07-05,2023-07-05,Ｔｉｅｒｃｅ合同会社,,合同会社,東京都,世田谷区,経堂５丁目３番２９号,,13,112,1560052,,,,,,,2023-07-05,1,,,,,ティエルセ,0
750,4011001155415,新規,0,2023-07-05,2023-07-05,株式会社コスメジタンアルファ,,株式会社,東京都,目黒区,上目黒３丁目１番１２号,,13,110,1530051,,,,,,,2023-07-05,1,,,,,コスメジタンアルファ,0
751,4011001155448,新規,0,2023-07-05,2023-07-05,株式会社ＬＰＪ,,株式会社,東京都,渋谷区,恵比寿１丁目１５番９号日宝恵比寿ビル４０３,,13,113,1500013,,,,,,,2023-07-05,1,,,,,エルピイジェイ,0
752,4011001155456,新規,0,2023-07-05,2023-07-05,株式会社劇団テアトル・エコー,,株式会社,東京都,渋谷区,東３丁目１８番３号,,13,113,1500011,,,,,,,2023-07-05,1,,,,,ゲキダンテアトルエコー,0
755,4011101103406,新規,0,2023-07-05,2023-07-05,ＸＺ　Ｕｋｉｙｏｅ株式会社,,株式会社,東京都,新宿区,中落合１丁目４－５富士ニューハイツ１階,,13,104,1610032,,,,,,,2023-07-05,1,,,,,エックスゼットウキヨエ,0
756,4011101103455,新規,0,2023-07-05,2023-07-05,株式会社ホームコンサルティング,,株式会社,東京都,新宿区,西新宿１丁目２０番３号西新宿高木ビル７階ＣＭ７２３号室,,13,104,1600023,,,,,,,2023-07-05,1,,,,,ホームコンサルティング,0
757,4011101103463,新規,0,2023-07-05,2023-07-05,ｐｒｉｍｅエンターテイメント株式会社,,株式会社,東京都,新宿区,愛住町１９番地１３泰美ビル６階,,13,104,1600005,,,,,,,2023-07-05,1,,,,,プライムエンターテイメント,0
758,4011101103488,新規,0,2023-07-05,2023-07-05,株式会社ＦＲＥＥ　ＣＲＥＡＴＥ,,株式会社,東京都,新宿区,西新宿３丁目３番１３号西新宿水間ビル６階,,13,104,1600023,,,,,,,2023-07-05,1,,,,,フリークリエイト,0
765,4011501029481,新規,0,2023-07-05,2023-07-05,ＣＥＬＴＹ株式会社,,株式会社,東京都,北区,浮間３丁目６番１３号,,13,117,1150051,,,,,,,2023-07-05,1,,,,,セルティ,0
766,4011501029498,新規,0,2023-07-05,2023-07-05,株式会社ＭＺ,,株式会社,東京都,北区,豊島８丁目３３番５号,,13,117,1140003,,,,,,,2023-07-05,1,,,,,エムゼット,0
767,4011601026949,新規,0,2023-07-05,2023-07-05,株式会社ＦＩＲＳＴ,,株式会社,東京都,練馬区,北町３丁目１番４－３０１号,,13,120,1790081,,,,,,,2023-07-05,1,,,,,ファースト,0
771,4012701017730,新規,0,2023-07-05,2023-07-05,株式会社トリオ,,株式会社,東京都,東久留米市,神宝町２丁目４番１６号,,13,222,2030002,,,,,,,2023-07-05,1,,,,,トリオ,0
779,4020001152256,新規,0,2023-07-05,2023-07-05,株式会社Ｏｎｅａｂｌｅ,,株式会社,神奈川県,横浜市港北区,綱島西２丁目２番２２－６０６号,,14,109,2230053,,,,,,,2023-07-05,1,,,,,ワンエイブル,0
780,4020001152280,新規,0,2023-07-05,2023-07-05,株式会社タイガージム,,株式会社,神奈川県,横浜市西区,南幸２丁目１２番１０号ＩＴＯビル７Ｆ,,14,103,2200005,,,,,,,2023-07-05,1,,,,,タイガージム,0
781,4020001152306,新規,0,2023-07-05,2023-07-05,株式会社ＤＤＮ,,株式会社,神奈川県,川崎市多摩区,宿河原６丁目３８番６号コンフォールコート１０２,,14,135,2140021,,,,,,,2023-07-05,1,,,,,ディーディーエヌ,0
782,4020002002393,新規,0,2023-07-05,2023-07-05,有限会社井上製作所,,有限会社,神奈川県,横浜市泉区,和泉町４７５０番地,,14,116,2450016,,,,,,,2023-07-05,1,,,,,イノウエセイサクジョ,0
785,4020003024131,新規,0,2023-07-05,2023-07-05,ＳＯＶＥ　ＭＵＳＩＣ合同会社,,合同会社,神奈川県,横浜市泉区,和泉が丘１丁目３番２７号１０１号,,14,116,2450022,,,,,,,2023-07-05,1,,,,,ソヴミュージック,0
788,4021001079497,新規,0,2023-07-05,2023-07-05,株式会社マギアハック,,株式会社,神奈川県,藤沢市,宮原３６３９番地の５,,14,205,2520826,,,,,,,2023-07-05,1,,,,,マギアハック,0
799,4030005021324,新規,0,2023-07-05,2023-07-05,一般社団法人ＮＥＯＲｅＳＴＡ,,その他の設立登記法人,埼玉県,上尾市,井戸木４丁目６番地３,,11,219,3620071,,,,,,,2023-07-05,1,,,,,ネオリスタ,0
804,4050001053071,新規,0,2023-07-05,2023-07-05,株式会社ＫＡＩ　Ｐｌａｎｎｉｎｇ,,株式会社,茨城県,水戸市,桜川１丁目５番１０号石川ビル１Ｆ,,08,201,3100801,,,,,,,2023-07-05,1,,,,,カイプランニング,0
813,4070001040588,新規,0,2023-07-05,2023-07-05,株式会社手振ファーム,,株式会社,群馬県,みどり市,大間々町桐原１５７０番地１９２,,10,212,3760102,,,,,,,2023-07-05,1,,,,,テブリファーム,0
824,4080101024102,新規,0,2023-07-05,2023-07-05,株式会社海産本舗ワタナベ,,株式会社,静岡県,沼津市,西椎路６６４番地の１０,,22,203,4100303,,,,,,,2023-07-05,1,,,,,カイサンホンポワタナベ,0
826,4080403004818,新規,0,2023-07-05,2023-07-05,合同会社スズケン,,合同会社,静岡県,湖西市,神座９６番地の１,,22,221,4310405,,,,,,,2023-07-05,1,,,,,スズケン,0
829,4110001037662,新規,0,2023-07-05,2023-07-05,株式会社川瀬建築,,株式会社,新潟県,上越市,大字北田屋新田２０５番地７,,15,222,9430161,,,,,,,2023-07-05,1,,,,,カワセケンチク,0
845,4120001256138,新規,0,2023-07-05,2023-07-05,株式会社ハートスホールディングス,,株式会社,大阪府,大阪市中央区,久太郎町１丁目６番２９号,,27,128,5410056,,,,,,,2023-07-05,1,,,,,ハートスホールディングス,0
846,4120001256229,新規,0,2023-07-05,2023-07-05,株式会社リュウゴリース,,株式会社,大阪府,大阪市西区,阿波座２丁目２番１８号いちご西本町ビル９Ｆ,,27,106,5500011,,,,,,,2023-07-05,1,,,,,リュウゴリース,0
856,4120101067823,新規,0,2023-07-05,2023-07-05,株式会社ＴＥＮＺＥＮ,,株式会社,大阪府,河内長野市,木戸西町３丁目１２－８ミヤビビル２Ｆ,,27,216,5860009,,,,,,,2023-07-05,1,,,,,テンゼン,0
857,4120101067831,新規,0,2023-07-05,2023-07-05,株式会社和泉機工,,株式会社,大阪府,泉大津市,二田町２丁目３番１８号,,27,206,5950015,,,,,,,2023-07-05,1,,,,,イズミキコウ,0
858,4120103005302,新規,0,2023-07-05,2023-07-05,Ｒｇｌａｄ合同会社,,合同会社,大阪府,大阪狭山市,茱萸木５丁目１９３４番地の８,,27,231,5890013,,,,,,,2023-07-05,1,,,,,アールグラッド,0
861,4120901047743,新規,0,2023-07-05,2023-07-05,Ｋｉコーポレーション株式会社,,株式会社,大阪府,高槻市,上本町１番４号,,27,207,5690073,,,,,,,2023-07-05,1,,,,,キコーポレーション,0
866,4130003008833,新規,0,2023-07-05,2023-07-05,高橋電機合同会社,,合同会社,京都府,京都市右京区,太秦森ケ西町２０番地２５,,26,108,6168106,,,,,,,2023-07-05,1,,,,,タカハシデンキ,0
874,4140001130695,新規,0,2023-07-05,2023-07-05,株式会社Ｂｅｌｆｉｎｅ,,株式会社,兵庫県,姫路市,大塩町７７９番地１コーポラスイヅツ２０２,,28,201,6710101,,,,,,,2023-07-05,1,,,,,ベルファイン,0
875,4140001130704,新規,0,2023-07-05,2023-07-05,株式会社Ｋ’ｚ　Ｔｒｉｇｇｅｒ,,株式会社,兵庫県,明石市,大久保町西島６７３番地アルファステイツ明石大久保４０１号,,28,203,6740065,,,,,,,2023-07-05,1,,,,,ケーズトリガー,0
876,4140001130712,新規,0,2023-07-05,2023-07-05,株式会社ＨＥＲＭＥＳ,,株式会社,兵庫県,芦屋市,船戸町５番２６号,,28,206,6590093,,,,,,,2023-07-05,1,,,,,ヘルメス,0
880,4160001025142,新規,0,2023-07-05,2023-07-05,株式会社市木商会,,株式会社,滋賀県,大津市,神宮町２番１０号,,25,201,5200015,,,,,,,2023-07-05,1,,,,,イチキショウカイ,0
883,4170001017667,新規,0,2023-07-05,2023-07-05,株式会社エムズアート,,株式会社,和歌山県,橋本市,隅田町河瀬２９６番地の２,,30,203,6480015,,,,,,,2023-07-05,1,,,,,エムズアート,0
893,4180001156935,新規,0,2023-07-05,2023-07-05,株式会社魔環,,株式会社,愛知県,名古屋市名東区,文教台２丁目２０３－２,,23,115,4650012,,,,,,,2023-07-05,1,,,,,マカン,0
894,4180001156943,新規,0,2023-07-05,2023-07-05,株式会社レイニーブルー,,株式会社,愛知県,小牧市,大字岩崎郷戸西１８８６,,23,219,4850011,,,,,,,2023-07-05,1,,,,,レイニーブルー,0
896,4180301037521,新規,0,2023-07-05,2023-07-05,株式会社ＩＳＫ,,株式会社,愛知県,蒲郡市,三谷北通２丁目８２番地,,23,214,4430022,,,,,,,2023-07-05,1,,,,,アイエスケイ,0
898,4200001041457,新規,0,2023-07-05,2023-07-05,国内縫製工場株式会社,,株式会社,岐阜県,岐阜市,如月町３丁目１０番地３,,21,201,5008327,,,,,,,2023-07-05,1,,,,,コクナイホウセイコウジョウ,0
899,4200001041465,新規,0,2023-07-05,2023-07-05,株式会社マンインザシー,,株式会社,岐阜県,岐阜市,福住町２丁目７番地２ライオンズマンション岐阜シティー８０１,,21,201,5008858,,,,,,,2023-07-05,1,,,,,マンインザシー,0
900,4200003006004,新規,0,2023-07-05,2023-07-05,杢工舎合同会社,,合同会社,岐阜県,下呂市,萩原町羽根１３０２番地１,,21,220,5092506,,,,,,,2023-07-05,1,,,,,モクコウシャ,0
905,4220003003544,新規,0,2023-07-05,2023-07-05,合同会社ランフォレスト,,合同会社,石川県,小松市,吉竹町４丁目２２０,,17,203,9230835,,,,,,,2023-07-05,1,,,,,ランフォレスト,0
911,4240001061740,新規,0,2023-07-05,2023-07-05,ひろや株式会社,,株式会社,広島県,広島市西区,三滝本町１丁目６番７号,,34,104,7330802,,,,,,,2023-07-05,1,,,,,ヒロヤ,0
912,4240001061749,新規,0,2023-07-05,2023-07-05,株式会社三登,,株式会社,広島県,広島市南区,宇品御幸３丁目１７番９－１１０２号,,34,103,7340015,,,,,,,2023-07-05,1,,,,,ミト,0
915,4240003006207,新規,0,2023-07-05,2023-07-05,フロントリンク合同会社,,合同会社,広島県,広島市西区,楠木町１丁目４番１３－９０１号,,34,104,7330002,,,,,,,2023-07-05,1,,,,,フロントリンク,0
925,4290001102127,新規,0,2023-07-05,2023-07-05,エコライフジャパン株式会社,,株式会社,福岡県,福岡市中央区,天神２丁目２番１２号Ｔ＆Ｊビルディング７Ｆ,,40,133,8100001,,,,,,,2023-07-05,1,,,,,エコライフジャパン,0
926,4290001102143,新規,0,2023-07-05,2023-07-05,株式会社トトア,,株式会社,福岡県,那珂川市,大字西畑５６５番地１,,40,231,8111246,,,,,,,2023-07-05,1,,,,,トトア,0
927,4290001102151,新規,0,2023-07-05,2023-07-05,東恒商事株式会社,,株式会社,福岡県,福岡市中央区,今川１丁目２番１２－１０１号,,40,133,8100054,,,,,,,2023-07-05,1,,,,,トウコウショウジ,0
928,4290001102168,新規,0,2023-07-05,2023-07-05,株式会社Ｂａｒｕ　Ｐｒｏｄｕｃｔｉｏｎ,,株式会社,福岡県,福岡市中央区,清川２丁目４－２９清川ロータリープレイス１０４号,,40,133,8100005,,,,,,,2023-07-05,1,,,,,バルプロダクション,0
929,4290003014106,新規,0,2023-07-05,2023-07-05,合同会社Ｏｎｅｓ,,合同会社,福岡県,福岡市博多区,堅粕５丁目１番８号２Ｆ,,40,132,8120043,,,,,,,2023-07-05,1,,,,,ワンズ,0
932,4310001018493,新規,0,2023-07-05,2023-07-05,株式会社柴田電設,,株式会社,長崎県,長崎市,女の都３丁目１０番２号,,42,201,8528144,,,,,,,2023-07-05,1,,,,,シバタデンセツ,0
933,4310003004599,新規,0,2023-07-05,2023-07-05,合同会社一波,,合同会社,長崎県,五島市,三尾野２丁目５－２０,,42,211,8530064,,,,,,,2023-07-05,1,,,,,イッパ,0
944,4340001025685,新規,0,2023-07-05,2023-07-05,株式会社さちゆ,,株式会社,鹿児島県,姶良市,宮島町２７番地８,,46,225,8995432,,,,,,,2023-07-05,1,,,,,サチユ,0
945,4340001025693,新規,0,2023-07-05,2023-07-05,株式会社上村自動車工業,,株式会社,鹿児島県,南さつま市,加世田益山２２７６番地２,,46,220,8971125,,,,,,,2023-07-05,1,,,,,カミムラジドウシャコウギョウ,0
951,4380001033825,新規,0,2023-07-05,2023-07-05,株式会社ＷＥ,,株式会社,福島県,会津若松市,大戸町大字芦ノ牧字下平９８４番地,,07,202,9650000,,,,,,,2023-07-05,1,,,,,ダブルイー,0
952,4380001033833,新規,0,2023-07-05,2023-07-05,千代田・ネモトホールディングス株式会社,,株式会社,福島県,須賀川市,越久字発米１１番地１６,,07,207,9620051,,,,,,,2023-07-05,1,,,,,チヨダネモトホールディングス,0
960,4400001016298,新規,0,2023-07-05,2023-07-05,いわぎん未来投資株式会社,,株式会社,岩手県,盛岡市,中央通１丁目２番３号,,03,201,0200021,,,,,,,2023-07-05,1,,,,,イワギンミライトウシ,0
961,4400003003105,新規,0,2023-07-05,2023-07-05,合同会社日影建匠,,合同会社,岩手県,久慈市,夏井町閉伊口第５地割７８番地８,,03,207,0280001,,,,,,,2023-07-05,1,,,,,ヒカゲケンショウ,0
974,4460001005808,新規,0,2023-07-05,2023-07-05,マサキ電工株式会社,,株式会社,北海道,釧路市,鳥取北３丁目９番９号,,01,206,0840907,,,,,,,2023-07-05,1,,,,,マサキデンコウ,0
977,4470001019682,新規,0,2023-07-05,2023-07-05,アームリーチ株式会社,,株式会社,香川県,高松市,花園町１丁目３番２５号,,37,201,7600072,,,,,,,2023-07-05,1,,,,,アームリーチ,0
982,4500001025041,新規,0,2023-07-05,2023-07-05,株式会社Ｃｌｅａｎ　Ｓｈｉｐ,,株式会社,愛媛県,伊予郡砥部町,高尾田８２番地,,38,402,7912101,,,,,,,2023-07-05,1,,,,,クリーンシップ,0
985,5010001236463,新規,0,2023-07-05,2023-07-05,Ｓｕｉｃｈｏｋｕ　Ｓｏｌａｒ株式会社,,株式会社,東京都,中央区,日本橋箱崎町２０番１号,,13,102,1030015,,,,,,,2023-07-05,1,,,,,スイチョクソーラー,0
986,5010001236587,新規,0,2023-07-05,2023-07-05,株式会社ＩＳＯＫＯＮ　ｄ．ｏ．ｏ．,,株式会社,東京都,中央区,日本橋兜町１番１０号,,13,102,1030026,,,,,,,2023-07-05,1,,,,,イソコンディオーオー,0
987,5010003041044,新規,0,2023-07-05,2023-07-05,ｅｍｏｐｅ合同会社,,合同会社,東京都,中央区,銀座７丁目１３番２０号銀座ＴＨビル９階,,13,102,1040061,,,,,,,2023-07-05,1,,,,,エモープ,0
990,5010103002169,新規,0,2023-07-05,2023-07-05,エアウェル合同会社,,合同会社,東京都,八王子市,楢原町４２６番地１３,,13,201,1930803,,,,,,,2023-07-05,1,,,,,エアウェル,0
996,5010501050694,新規,0,2023-07-05,2023-07-05,株式会社ＡＥＧＩＳ,,株式会社,東京都,台東区,寿４丁目７番７号グリーンキャピタル浅草２０３号,,13,106,1110042,,,,,,,2023-07-05,1,,,,,イージス,0
997,5010501050703,新規,0,2023-07-05,2023-07-05,株式会社Ｆｅｌｉｚ　Ｆａｃｔｏｒｙ,,株式会社,東京都,台東区,浅草橋１丁目６番９－コンテント浅草橋３０３号,,13,106,1110053,,,,,,,2023-07-05,1,,,,,フェリスファクトリー,0
998,5010501050711,新規,0,2023-07-05,2023-07-05,スマート快眠研究所株式会社,,株式会社,東京都,台東区,東上野４丁目４番９－７０２号,,13,106,1100015,,,,,,,2023-07-05,1,,,,,スマートカイミンケンキュウショ,0
999,5010503007073,新規,0,2023-07-05,2023-07-05,合同会社ＡＫＲ,,合同会社,東京都,台東区,台東１丁目１５番６－１２０２号アトラス秋葉原アロマコート,,13,106,1100016,,,,,,,2023-07-05,1,,,,,エーケーアール,0
1000,5010601063373,新規,0,2023-07-05,2023-07-05,株式会社ＡＳＩＡＮ　ＥＳＴＡＴＥＳ,,株式会社,東京都,江東区,平野３丁目２－６木場パークビル２Ｆ,,13,108,1350023,,,,,,,2023-07-05,1,,,,,アジアンエステート,0
1014,5011001155389,新規,0,2023-07-05,2023-07-05,鳥居製薬株式会社,,株式会社,東京都,渋谷区,代々木２丁目２３－１,,13,113,1510053,,,,,,,2023-07-05,1,,,,,トリイセイヤク,0
1015,5011001155414,新規,0,2023-07-05,2023-07-05,株式会社シーヴァレボ,,株式会社,東京都,目黒区,上目黒３丁目１番１２号,,13,110,1530051,,,,,,,2023-07-05,1,,,,,シーヴァレボ,0
1016,5011001155439,新規,0,2023-07-05,2023-07-05,株式会社ＢＡＫＵＲＹＯ,,株式会社,東京都,渋谷区,神泉町１０番１５号アネックス神泉３０１,,13,113,1500045,,,,,,,2023-07-05,1,,,,,バクリョウ,0
1020,5011101103462,新規,0,2023-07-05,2023-07-05,株式会社知流カンファレンス,,株式会社,東京都,新宿区,西新宿３丁目３番１３号西新宿水間ビル６階,,13,104,1600023,,,,,,,2023-07-05,1,,,,,チルカンファレンス,0
1023,5011201024749,新規,0,2023-07-05,2023-07-05,株式会社南澤コンサルティング,,株式会社,東京都,中野区,丸山２丁目１９番１３号,,13,114,1650021,,,,,,,2023-07-05,1,,,,,ミナミサワコンサルティング,0
1033,5011601026948,新規,0,2023-07-05,2023-07-05,サニーサイド株式会社,,株式会社,東京都,練馬区,関町北３丁目４４番２１号,,13,120,1770051,,,,,,,2023-07-05,1,,,,,サニーサイド,0
1034,5011603003978,新規,0,2023-07-05,2023-07-05,ＳＦＩＤＡ合同会社,,合同会社,東京都,練馬区,練馬４丁目２２番１２－２０２号,,13,120,1760001,,,,,,,2023-07-05,1,,,,,スフィーダ,0
1037,5011703003523,新規,0,2023-07-05,2023-07-05,アソシエイトキャピタル合同会社,,合同会社,東京都,江戸川区,東小岩４丁目１７番３号,,13,123,1330052,,,,,,,2023-07-05,1,,,,,アソシエイトキャピタル,0
1039,5011801042646,新規,0,2023-07-05,2023-07-05,株式会社シャインズ,,株式会社,東京都,葛飾区,柴又３丁目３番８号,,13,122,1250052,,,,,,,2023-07-05,1,,,,,,0
1041,5012403006056,新規,0,2023-07-05,2023-07-05,小金井キャピタル合同会社,,合同会社,東京都,小金井市,東町４丁目３３番１１号,,13,210,1840011,,,,,,,2023-07-05,1,,,,,コガネイキャピタル,0
1046,5012801022489,新規,0,2023-07-05,2023-07-05,株式会社シャロウワイドプロ,,株式会社,東京都,立川市,柴崎町３丁目１番７号南口第二ビル地下１階,,13,202,1900023,,,,,,,2023-07-05,1,,,,,シャロウワイドプロ,0
1048,5020001152313,新規,0,2023-07-05,2023-07-05,順興株式会社,,株式会社,神奈川県,横浜市鶴見区,岸谷３丁目１８番８号,,14,101,2300078,,,,,,,2023-07-05,1,,,,,ジュンコウ,0
1049,5020001152354,新規,0,2023-07-05,2023-07-05,株式会社ＯＵＲ　ＨＯＵＳＥ,,株式会社,神奈川県,横浜市南区,永田北１丁目２８番３号,,14,105,2320071,,,,,,,2023-07-05,1,,,,,アワハウス,0
1052,5020003024147,新規,0,2023-07-05,2023-07-05,合同会社グリーンチップス,,合同会社,神奈川県,横浜市戸塚区,戸塚町４６６８番地１６ミニビル２階,,14,110,2440003,,,,,,,2023-07-05,1,,,,,グリーンチップス,0
1068,5040001129045,新規,0,2023-07-05,2023-07-05,株式会社Ｐｉｎｅ　Ｒｏｃｋｓ,,株式会社,千葉県,印西市,戸神台２丁目１番地１棟３０１号,,12,231,2701349,,,,,,,2023-07-05,1,,,,,パインロックス,0
1070,5040003022818,新規,0,2023-07-05,2023-07-05,合同会社ＡｓｏｂｉＬｉｖｅ,,合同会社,千葉県,八千代市,萱田町６４番地３,,12,221,2760044,,,,,,,2023-07-05,1,,,,,アソビライブ,0
1071,5040003022859,新規,0,2023-07-05,2023-07-05,ＵＰＣＹＣＬＥ　ＴＯＫＹＯ合同会社,,合同会社,千葉県,市川市,大洲３丁目１０－１２,,12,203,2720032,,,,,,,2023-07-05,1,,,,,アップサイクルトウキョウ,0
1072,5040003022875,新規,0,2023-07-05,2023-07-05,合同会社アオ・アクア,,合同会社,千葉県,千葉市中央区,長洲２丁目１９番２号,,12,101,2600854,,,,,,,2023-07-05,1,,,,,アオアクア,0
1079,5070001040587,新規,0,2023-07-05,2023-07-05,株式会社むらおもひ,,株式会社,群馬県,吾妻郡嬬恋村,大字田代４１番地,,10,425,3771614,,,,,,,2023-07-05,1,,,,,ムラオモイ,0
1086,5080401026581,新規,0,2023-07-05,2023-07-05,株式会社荒牧,,株式会社,静岡県,浜松市東区,半田山１丁目２０－１浜松医科大学医工連携拠点棟４１４号室,,22,132,4313125,,,,,,,2023-07-05,1,,,,,アラマキ,0
1091,5100001036549,新規,0,2023-07-05,2023-07-05,ＦｏｒｅｓｔｒｙＫ株式会社,,株式会社,長野県,小諸市,丙８３５番地１市営住宅８１３号,,20,208,3840803,,,,,,,2023-07-05,1,,,,,,0
1092,5100001036557,新規,0,2023-07-05,2023-07-05,えむやんイベントプロモーション株式会社,,株式会社,長野県,松本市,大手４丁目１－１３ＳＷＥＥＴＷＯＲＫ,,20,202,3900874,,,,,,,2023-07-05,1,,,,,エムヤンイベントプロモーション,0
1108,5120001256120,新規,0,2023-07-05,2023-07-05,株式会社Ｗａｒｍｔｈ,,株式会社,大阪府,大阪市北区,豊崎３丁目１５－５ＴＫビル２Ｆ,,27,127,5310072,,,,,,,2023-07-05,1,,,,,ウォームス,0
1109,5120001256194,新規,0,2023-07-05,2023-07-05,株式会社ＴＳＵＫＫＩＩ不動産,,株式会社,大阪府,大阪市中央区,瓦町４丁目４番１４号日宝ニュ－本町ビル３０６,,27,128,5410048,,,,,,,2023-07-05,1,,,,,ツッキーフドウサン,0
1110,5120001256228,新規,0,2023-07-05,2023-07-05,株式会社ＦｌｏｗＥＮ,,株式会社,大阪府,大阪市浪速区,日本橋５丁目１０番３－４０１号,,27,111,5560005,,,,,,,2023-07-05,1,,,,,フローエン,0
1111,5120001256236,新規,0,2023-07-05,2023-07-05,株式会社オプティリンク,,株式会社,大阪府,大阪市住吉区,遠里小野１丁目７番１９号ソフィアビル４Ｆ,,27,120,5580032,,,,,,,2023-07-05,1,,,,,オプティリンク,0
1116,5120003024335,新規,0,2023-07-05,2023-07-05,愛けあ合同会社,,合同会社,大阪府,大阪市生野区,勝山南３丁目７番３５号,,27,116,5440021,,,,,,,2023-07-05,1,,,,,アイケア,0
1118,5120101067830,新規,0,2023-07-05,2023-07-05,株式会社吉田土建,00131061,株式会社,大阪府,藤井寺市,小山３丁目１６８番地の１４,,27,226,5830033,,,,,,,2023-07-05,1,,,,,ヨシダドケン,0
1121,5120901047734,新規,0,2023-07-05,2023-07-05,株式会社アイ,,株式会社,大阪府,吹田市,高城町１番５号,,27,205,5640024,,,,,,,2023-07-05,1,,,,,アイ,0
1122,5120901047742,新規,0,2023-07-05,2023-07-05,株式会社ネクスト,,株式会社,大阪府,吹田市,千里丘上１７番７号,,27,205,5650811,,,,,,,2023-07-05,1,,,,,ネクスト,0
1126,5122003002618,新規,0,2023-07-05,2023-07-05,合同会社ミラン,,合同会社,大阪府,八尾市,南木の本５丁目３２－３,,27,212,5810042,,,,,,,2023-07-05,1,,,,,ミラン,0
1132,5140001130694,新規,0,2023-07-05,2023-07-05,株式会社ラポールエステート,,株式会社,兵庫県,神戸市須磨区,大池町５丁目８番１３号,,28,107,6540026,,,,,,,2023-07-05,1,,,,,ラポールエステート,0
1134,5140003019259,新規,0,2023-07-05,2023-07-05,合同会社Ｙコン,,合同会社,兵庫県,赤穂郡上郡町,大枝新３９０番地,,28,481,6781276,,,,,,,2023-07-05,1,,,,,ワイコン,0
1135,5160001025141,新規,0,2023-07-05,2023-07-05,株式会社ヨコヤマコーポレーション,,株式会社,滋賀県,草津市,笠山２丁目１番２号,,25,206,5250072,,,,,,,2023-07-05,1,,,,,ヨコヤマコーポレーション,0
1136,5160001025158,新規,0,2023-07-05,2023-07-05,らんまん株式会社,,株式会社,滋賀県,草津市,野路町２４３１番地１５,,25,206,5250055,,,,,,,2023-07-05,1,,,,,ランマン,0
1139,5170003001890,新規,0,2023-07-05,2023-07-05,ＢＪＰ合同会社,,合同会社,和歌山県,和歌山市,太田２丁目８番５号イースト・アベニュー和歌山６０５号,,30,201,6408323,,,,,,,2023-07-05,1,,,,,ビージェイピー,0
1145,5180003025435,新規,0,2023-07-05,2023-07-05,ＪＲ合同会社,,合同会社,愛知県,一宮市,丹陽町重吉字城戸１５１番地１,,23,203,4910821,,,,,,,2023-07-05,1,,,,,ジェーアール,0
1158,5240001061748,新規,0,2023-07-05,2023-07-05,ＡＩＲＩＳＥ株式会社,,株式会社,広島県,広島市南区,東雲２丁目２番３８－４０１号,,34,103,7340022,,,,,,,2023-07-05,1,,,,,エアライズ,0
1166,5260001038075,新規,0,2023-07-05,2023-07-05,株式会社Ｄ　ｐｌｕｓ,,株式会社,岡山県,津山市,林田１９０２番地２シャーメゾン林田１０２,,33,203,7080822,,,,,,,2023-07-05,1,,,,,ディープラス,0
1167,5260001038083,新規,0,2023-07-05,2023-07-05,株式会社ポラリス,,株式会社,岡山県,備前市,日生町日生２４１番地９５（８０１）,,33,211,7013204,,,,,,,2023-07-05,1,,,,,ポラリス,0
1169,5290001102126,新規,0,2023-07-05,2023-07-05,株式会社ＫＴコーポレーション,,株式会社,福岡県,福岡市南区,井尻５丁目８番５号,,40,134,8111302,,,,,,,2023-07-05,1,,,,,ケイティコーポレーション,0
1170,5290001102150,新規,0,2023-07-05,2023-07-05,株式会社ジャパン・ウェルネス,,株式会社,福岡県,古賀市,千鳥１丁目６－１７,,40,223,8113113,,,,,,,2023-07-05,1,,,,,ジャパンウェルネス,0
1171,5290003014088,新規,0,2023-07-05,2023-07-05,Ｃａｓｔｌｅ　ｏｆ　Ｃｒｙｓｔａｌ合同会社,,合同会社,福岡県,福岡市東区,箱崎３丁目１１番１８－２００号,,40,131,8120053,,,,,,,2023-07-05,1,,,,,キャッスルオブクリスタル,0
1172,5290003014096,新規,0,2023-07-05,2023-07-05,合同会社山本工業ホールディングス,,合同会社,福岡県,福岡市中央区,大名２丁目４番２２号,,40,133,8100041,,,,,,,2023-07-05,1,,,,,ヤマモトコウギョウホールディングス,0
1173,5290003014105,新規,0,2023-07-05,2023-07-05,Ｃｒｅｓｃｅｎｔ合同会社,,合同会社,福岡県,福岡市博多区,堅粕５丁目１番８号２Ｆ,,40,132,8120043,,,,,,,2023-07-05,1,,,,,クレッセント,0
1174,5310001018484,新規,0,2023-07-05,2023-07-05,株式会社大光ホールディングス,,株式会社,長崎県,島原市,本町甲１８３番地１,,42,203,8550062,,,,,,,2023-07-05,1,,,,,ダイコウホールディングス,0
1175,5310003004598,新規,0,2023-07-05,2023-07-05,合同会社Ｌａ　ｖｅｔ,,合同会社,長崎県,南島原市,深江町甲４５７３番地,,42,214,8591501,,,,,,,2023-07-05,1,,,,,ラベット,0
1177,5320001019861,新規,0,2023-07-05,2023-07-05,株式会社藤建,,株式会社,大分県,大分市,青崎２丁目４番８号,,44,201,8700278,,,,,,,2023-07-05,1,,,,,トウケン,0
1179,5340005009626,新規,0,2023-07-05,2023-07-05,一般社団法人横川物産館よいやんせ,,その他の設立登記法人,鹿児島県,霧島市,横川町上ノ３４１１番地２,,46,218,8996301,,,,,,,2023-07-05,1,,,,,ヨコガワブッサンカンヨイヤンセ,0
1181,5370001050135,新規,0,2023-07-05,2023-07-05,Ｉ＆Ｃ不動産鑑定株式会社,,株式会社,宮城県,仙台市青葉区,一番町１丁目１７番２０号,,04,101,9800811,,,,,,,2023-07-05,1,,,,,アイアンドシーフドウサンカンテイ,0
1183,5370005010655,新規,0,2023-07-05,2023-07-05,一般社団法人教育資源創造機構,,その他の設立登記法人,宮城県,仙台市太白区,長町南４丁目１７番７号,,04,104,9820012,,,,,,,2023-07-05,1,,,,,キョウイクシゲンソウゾウキコウ,0
1185,5380003005499,新規,0,2023-07-05,2023-07-05,合同会社稲野組,,合同会社,福島県,郡山市,富久山町福原字町田７８―１５,,07,203,9638061,,,,,,,2023-07-05,1,,,,,イナノグミ,0
1189,5400001016306,新規,0,2023-07-05,2023-07-05,株式会社東松,,株式会社,岩手県,釜石市,大町１丁目９番５号,,03,211,0260024,,,,,,,2023-07-05,1,,,,,トウマツ,0
1190,5400003003104,新規,0,2023-07-05,2023-07-05,合同会社井上,,合同会社,岩手県,盛岡市,肴町４番１２－６０３号,,03,201,0200878,,,,,,,2023-07-05,1,,,,,イノウエ,0
1191,5410001013533,新規,0,2023-07-05,2023-07-05,でんきの電章株式会社,,株式会社,秋田県,秋田市,外旭川字梶ノ目２９３番地３,,05,201,0100802,,,,,,,2023-07-05,1,,,,,デンキノデンショウ,0
1192,5420001018325,新規,0,2023-07-05,2023-07-05,株式会社恵晃,,株式会社,青森県,上北郡六ヶ所村,大字泊字村ノ内１０番地,,02,411,0394301,,,,,,,2023-07-05,1,,,,,エーコウ,0
1198,5450001014040,新規,0,2023-07-05,2023-07-05,株式会社笑柄場,,株式会社,北海道,旭川市,四条通６丁目４０３番地１ライオンビル河内館５階,,01,204,0700034,,,,,,,2023-07-05,1,,,,,ワラエバ,0
1200,5460103001539,新規,0,2023-07-05,2023-07-05,合同会社アキミツ,,合同会社,北海道,帯広市,白樺十六条西５丁目１－８メゾン白樺Ａ号室,,01,207,0800051,,,,,,,2023-07-05,1,,,,,アキミツ,0
1204,5500001025032,新規,0,2023-07-05,2023-07-05,株式会社バイユー,,株式会社,愛媛県,松山市,中村５丁目５番１５号,,38,201,7900964,,,,,,,2023-07-05,1,,,,,バイユー,0
1211,6010001236561,新規,0,2023-07-05,2023-07-05,日本名屋本店株式会社,,株式会社,東京都,中央区,日本橋蛎殻町１丁目３番５号共同ビル２階２３号,,13,102,1030014,,,,,,,2023-07-05,1,,,,,ニホンメイヤホンテン,0
1212,6010001236586,新規,0,2023-07-05,2023-07-05,番町コンサルティング株式会社,,株式会社,東京都,千代田区,四番町４番地６,,13,101,1020081,,,,,,,2023-07-05,1,,,,,バンチョウコンサルティング,0
1213,6010001236594,新規,0,2023-07-05,2023-07-05,ＡＸＩＯＭテクノロジー株式会社,,株式会社,東京都,中央区,晴海３丁目１３番１号５０Ｆ,,13,102,1040053,,,,,,,2023-07-05,1,,,,,アクシオムテクノロジー,0
1214,6010001236652,新規,0,2023-07-05,2023-07-05,株式会社アーバンＫ,,株式会社,東京都,中央区,新川２丁目９番３号,,13,102,1040033,,,,,,,2023-07-05,1,,,,,アーバンケイ,0
1215,6010001236677,新規,0,2023-07-05,2023-07-05,ケイ資産管理株式会社,,株式会社,東京都,千代田区,三番町２番地２,,13,101,1020075,,,,,,,2023-07-05,1,,,,,ケイシサンカンリ,0
1217,6010003041027,新規,0,2023-07-05,2023-07-05,合同会社ＢＯＣ,,合同会社,東京都,文京区,本郷４丁目１７－６,,13,105,1130033,,,,,,,2023-07-05,1,,,,,ビーフオアチキン,0
1219,6010103002168,新規,0,2023-07-05,2023-07-05,ＲＡＡＫ合同会社,,合同会社,東京都,八王子市,下柚木３丁目３番地４－６０１,,13,201,1920372,,,,,,,2023-07-05,1,,,,,ラーク,0
1225,6010401175376,新規,0,2023-07-05,2023-07-05,株式会社ＥＭＺＥＱ,,株式会社,東京都,港区,南青山１丁目３番１－２５０１号,,13,103,1070062,,,,,,,2023-07-05,1,,,,,エムゼック,0
1226,6010401175467,新規,0,2023-07-05,2023-07-05,株式会社ｅ．ｍｏｎｄｅ,,株式会社,東京都,港区,北青山１丁目３番１号アールキューブ青山３階,,13,103,1070061,,,,,,,2023-07-05,1,,,,,イモンド,0
1228,6010405022302,新規,0,2023-07-05,2023-07-05,アーキス外国法事務弁護士法人,,その他の設立登記法人,東京都,港区,六本木６丁目１０番１号六本木ヒルズ森タワー２３階（Ｗ１１７－Ｗ１２４）,,13,103,1060032,,,,,,,2023-07-05,1,,,,,アーキス,0
1230,6010501050702,新規,0,2023-07-05,2023-07-05,株式会社東京国際,,株式会社,東京都,台東区,浅草２丁目１１番１３号,,13,106,1110032,,,,,,,2023-07-05,1,,,,,トウキョウコクサイ,0
1231,6010503007072,新規,0,2023-07-05,2023-07-05,合同会社ストラテジーズ,,合同会社,東京都,台東区,東上野２丁目１１番１号東上野ＭＪビル２Ｆ,,13,106,1100015,,,,,,,2023-07-05,1,,,,,ストラテジーズ,0
1232,6010505003417,新規,0,2023-07-05,2023-07-05,一般社団法人留学生協会,,その他の設立登記法人,東京都,台東区,上野７丁目４番７号ＶＯＲＴ上野ビル７階,,13,106,1100005,,,,,,,2023-07-05,1,,,,,リュウガクセイキョウカイ,0
1237,6010701044504,新規,0,2023-07-05,2023-07-05,株式会社Ａ,,株式会社,東京都,品川区,東品川３丁目８番８－２９０２号,,13,109,1400002,,,,,,,2023-07-05,1,,,,,エー,0
1240,6010703006758,新規,0,2023-07-05,2023-07-05,合同会社ブリッジ,,合同会社,東京都,品川区,上大崎１丁目３番１１号,,13,109,1410021,,,,,,,2023-07-05,1,,,,,ブリッジ,0
1243,6010901053321,新規,0,2023-07-05,2023-07-05,株式会社ＦｌｏｗＰｌｕｓ,,株式会社,東京都,世田谷区,下馬６丁目５１番３号フォレスト学芸大学１０２,,13,112,1540002,,,,,,,2023-07-05,1,,,,,フロープラス,0
1244,6010901053354,新規,0,2023-07-05,2023-07-05,株式会社さんかく,,株式会社,東京都,世田谷区,代田２丁目１４番１３号,,13,112,1550033,,,,,,,2023-07-05,1,,,,,サンカク,0
1245,6010903008281,新規,0,2023-07-05,2023-07-05,Ｋ．Ｄ．ＧＬＯＢＡＬ合同会社,,合同会社,東京都,世田谷区,新町２丁目１５番１０号,,13,112,1540014,,,,,,,2023-07-05,1,,,,,ケーディーグローバル,0
1253,6011001155413,新規,0,2023-07-05,2023-07-05,株式会社Ｔ＆Ｓｉｍｏｎｚ,,株式会社,東京都,目黒区,自由が丘２丁目２番１９号,,13,110,1520035,,,,,,,2023-07-05,1,,,,,ティアンシモンズ,0
1254,6011001155438,新規,0,2023-07-05,2023-07-05,株式会社キュアセル,,株式会社,東京都,渋谷区,恵比寿３丁目３６－２２,,13,113,1500013,,,,,,,2023-07-05,1,,,,,キュアセル,0
1255,6011101103478,新規,0,2023-07-05,2023-07-05,株式会社Ｃｌａｒｉｓｓｅ,,株式会社,東京都,新宿区,百人町１丁目２２番１７号,,13,104,1690073,,,,,,,2023-07-05,1,,,,,クラリス,0
1256,6011101103494,新規,0,2023-07-05,2023-07-05,株式会社Ｙｕｎｉｔｅ,,株式会社,東京都,新宿区,袋町５番地１,,13,104,1620828,,,,,,,2023-07-05,1,,,,,ユナイト,0
1266,6011601026939,新規,0,2023-07-05,2023-07-05,株式会社４５８,,株式会社,東京都,練馬区,田柄１丁目２１番１３－２１１号,,13,120,1790073,,,,,,,2023-07-05,1,,,,,ヨンゴーハチ,0
1267,6011603003977,新規,0,2023-07-05,2023-07-05,合同会社５１０,,合同会社,東京都,練馬区,中村北４丁目８番３０号,,13,120,1760023,,,,,,,2023-07-05,1,,,,,ゴウイチマル,0
1270,6012403006055,新規,0,2023-07-05,2023-07-05,合同会社ＭＩＲＴＨ,,合同会社,東京都,調布市,調布ケ丘１丁目２番地１ベルエア調布６０３,,13,208,1820021,,,,,,,2023-07-05,1,,,,,マース,0
1277,6020001013836,新規,0,2023-07-05,2023-07-05,南横浜開発株式会社,,株式会社,神奈川県,横浜市南区,六ツ川１丁目２８７番地３９,,14,105,2320066,,,,,,,2023-07-05,1,,,,,ミナミヨコハマカイハツ,0
1284,6020001152295,新規,0,2023-07-05,2023-07-05,株式会社島田工業,,株式会社,神奈川県,川崎市中原区,木月祗園町１３番１４号,,14,133,2110033,,,,,,,2023-07-05,1,,,,,,0
1285,6020001152329,新規,0,2023-07-05,2023-07-05,株式会社たかはしや,,株式会社,神奈川県,横浜市神奈川区,三ツ沢下町９番２７号,,14,102,2210852,,,,,,,2023-07-05,1,,,,,タカハシヤ,0
1286,6020001152386,新規,0,2023-07-05,2023-07-05,株式会社礼武,,株式会社,神奈川県,横浜市保土ケ谷区,釜台町５番４－３０５号,,14,106,2400066,,,,,,,2023-07-05,1,,,,,レム,0
1293,6030001154695,新規,0,2023-07-05,2023-07-05,ＡＬ　ＲＡＨＭＡＮ　ＩＮＴＥＲＮＡＴＩＯＮＡＬ株式会社,,株式会社,埼玉県,羽生市,大字藤井上組６９４番地１リトルアニマルＢ－４,,11,216,3480064,,,,,,,2023-07-05,1,,,,,アルラフマンインターナショナル,0
1296,6030003022009,新規,0,2023-07-05,2023-07-05,フェイセルパートナーズ合同会社,,合同会社,埼玉県,さいたま市南区,別所５丁目１５－２,,11,108,3360021,,,,,,,2023-07-05,1,,,,,フェイセルパートナーズ,0
1297,6030003022082,新規,0,2023-07-05,2023-07-05,早野ＧＣ合同会社,,合同会社,埼玉県,本庄市,寿２丁目７番１０号,,11,211,3670023,,,,,,,2023-07-05,1,,,,,ハヤノジーシー,0
1299,6030005021322,新規,0,2023-07-05,2023-07-05,特定非営利活動法人キッズオールライト,,その他の設立登記法人,埼玉県,川口市,並木２丁目３６番地１９号キャトルセゾン２０１,,11,203,3320034,,,,,,,2023-07-05,1,,,,,キッズオールライト,0
1304,6060001036123,新規,0,2023-07-05,2023-07-05,株式会社丸智商事,,株式会社,栃木県,栃木市,惣社町１１７８番地１１,,09,203,3280002,,,,,,,2023-07-05,1,,,,,マルトモショウジ,0
1310,6080001025702,新規,0,2023-07-05,2023-07-05,株式会社シズネコ,,株式会社,静岡県,静岡市駿河区,谷田３７番２０号,,22,102,4228002,,,,,,,2023-07-05,1,,,,,シズネコ,0
1313,6100003007092,新規,0,2023-07-05,2023-07-05,合同会社ＮＯＲＴＨ,,合同会社,長野県,須坂市,馬場町１６７９－１３,,20,207,3820000,,,,,,,2023-07-05,1,,,,,ノース,0
1315,6110001037660,新規,0,2023-07-05,2023-07-05,株式会社蒼天,,株式会社,新潟県,新潟市秋葉区,北上新田１８８３番地４,,15,105,9560021,,,,,,,2023-07-05,1,,,,,ソウテン,0
1332,6120001256185,新規,0,2023-07-05,2023-07-05,ＡｎｉＧｏｏｄｓＡＣＥ株式会社,,株式会社,大阪府,大阪市中央区,船場中央２丁目１番４号船場センタービル４号館地下一階Ｂ１０８ＲＯＹＡＬＯＦＦＩＣＥ内,,27,128,5410055,,,,,,,2023-07-05,1,,,,,アニーグッズエース,0
1333,6120001256243,新規,0,2023-07-05,2023-07-05,株式会社エバーグリーン,,株式会社,大阪府,門真市,岸和田３丁目６番８号,,27,223,5710002,,,,,,,2023-07-05,1,,,,,エバーグリーン,0
1339,6120101067813,新規,0,2023-07-05,2023-07-05,株式会社アルテノバ,,株式会社,大阪府,大阪狭山市,東池尻５丁目１４１９番地の６,,27,231,5890004,,,,,,,2023-07-05,1,,,,,アルテノバ,0
1340,6120101067838,新規,0,2023-07-05,2023-07-05,株式会社ｊｏｌｉｅ　ｐｌａｃｅ,,株式会社,大阪府,堺市堺区,竜神橋町１丁６番９－２０２号,,27,141,5900972,,,,,,,2023-07-05,1,,,,,ジョリープレース,0
1342,6120103005300,新規,0,2023-07-05,2023-07-05,合同会社ユーカススクエア,,合同会社,大阪府,泉南郡熊取町,大宮３丁目１５２５番地の１,,27,361,5900450,,,,,,,2023-07-05,1,,,,,ユーカススクエア,0
1343,6120103005309,新規,0,2023-07-05,2023-07-05,合同会社ｂｏｃｃｉ,,合同会社,大阪府,和泉市,万町２７５番地の３,,27,219,5941104,,,,,,,2023-07-05,1,,,,,ボッチ,0
1349,6130005016808,新規,0,2023-07-05,2023-07-05,医療法人はまなかクリニック,,その他の設立登記法人,京都府,京都市右京区,嵯峨天龍寺中島町４,,26,108,6168356,,,,,,,2023-07-05,1,,,,,ハマナカクリニック,0
1352,6140001130702,新規,0,2023-07-05,2023-07-05,株式会社ＮＩＮＥ,,株式会社,兵庫県,宝塚市,中山五月台７丁目２－６０７,,28,214,6650871,,,,,,,2023-07-05,1,,,,,ナイン,0
1354,6140003019258,新規,0,2023-07-05,2023-07-05,合同会社スカイブルー,,合同会社,兵庫県,西宮市,上ケ原二番町１番１３号ハイツ大塚２０３号,,28,204,6620892,,,,,,,2023-07-05,1,,,,,スカイブルー,0
1355,6150003002997,新規,0,2023-07-05,2023-07-05,合同会社ｉｔ,,合同会社,奈良県,奈良市,小西町２５番地の１ファインフラッツ奈良ザ・レジデンス２０７号,,29,201,6308226,,,,,,,2023-07-05,1,,,,,イット,0
1358,6160001025140,新規,0,2023-07-05,2023-07-05,株式会社Ｐｌｏｖｅｒ,,株式会社,滋賀県,守山市,小島町８４３－２１,,25,207,5240002,,,,,,,2023-07-05,1,,,,,プロバー,0
1371,6180005020276,新規,0,2023-07-05,2023-07-05,一般社団法人空明会,,その他の設立登記法人,愛知県,名古屋市守山区,大字上志段味字東谷２０８６番地の７１,,23,113,4630001,,,,,,,2023-07-05,1,,,,,クウメイカイ,0
1372,6190001030559,新規,0,2023-07-05,2023-07-05,株式会社サンライズ,,株式会社,三重県,鈴鹿市,下大久保町１８２０番地,,24,207,5131123,,,,,,,2023-07-05,1,,,,,サンライズ,0
1376,6200001041455,新規,0,2023-07-05,2023-07-05,株式会社しろとり,,株式会社,岐阜県,岐阜市,岩田坂１丁目８番２５号,,21,201,5013155,,,,,,,2023-07-05,1,,,,,シロトリ,0
1377,6200001041463,新規,0,2023-07-05,2023-07-05,株式会社トマトの丘,,株式会社,岐阜県,下呂市,萩原町宮田４４４番地,,21,220,5092511,,,,,,,2023-07-05,1,,,,,トマトノオカ,0
1392,6290001102133,新規,0,2023-07-05,2023-07-05,株式会社ダイナスティ,,株式会社,福岡県,福岡市城南区,別府２丁目２１番１１号,,40,136,8140104,,,,,,,2023-07-05,1,,,,,ダイナスティ,0
1393,6290001102141,新規,0,2023-07-05,2023-07-05,株式会社荒牧,,株式会社,福岡県,久留米市,藤光１丁目１８番１５号,,40,203,8300057,,,,,,,2023-07-05,1,,,,,アラマキ,0
1394,6290001102166,新規,0,2023-07-05,2023-07-05,ｇｒｉｖｅ　ｉｎｄｕｓｔｒｙ株式会社,,株式会社,福岡県,うきは市,吉井町富永１５９９番地１,,40,225,8391333,,,,,,,2023-07-05,1,,,,,グライブインダストリー,0
1395,6290003014095,新規,0,2023-07-05,2023-07-05,合同会社タク設備,,合同会社,福岡県,筑紫野市,大字原７５０番地２１,,40,217,8180005,,,,,,,2023-07-05,1,,,,,タクセツビ,0
1396,6290003014104,新規,0,2023-07-05,2023-07-05,Ｇｒａｚｉｅ合同会社,,合同会社,福岡県,福岡市博多区,堅粕５丁目１番８号２Ｆ,,40,132,8120043,,,,,,,2023-07-05,1,,,,,グラッツェ,0
1397,6290003014112,新規,0,2023-07-05,2023-07-05,合同会社クレイン,,合同会社,福岡県,久留米市,津福今町３８９番地６,,40,203,8300061,,,,,,,2023-07-05,1,,,,,クレイン,0
1398,6290803004452,新規,0,2023-07-05,2023-07-05,ＵＰＲＯＣＸＳ合同会社,,合同会社,福岡県,北九州市小倉南区,横代北町１丁目１３番２５号,,40,107,8020821,,,,,,,2023-07-05,1,,,,,アップロックス,0
1399,6290805009664,新規,0,2023-07-05,2023-07-05,一般財団法人九州・山口地域共生財団,,その他の設立登記法人,福岡県,北九州市小倉北区,浅野２丁目１７番３８号,,40,106,8020001,,,,,,,2023-07-05,1,,,,,キュウシュウヤマグチチイキキョウセイザイダン,0
1403,6340003004173,新規,0,2023-07-05,2023-07-05,合同会社ｂａｒｕ,,合同会社,鹿児島県,鹿児島市,東谷山２丁目５１番８号,,46,201,8910113,,,,,,,2023-07-05,1,,,,,バル,0
1405,6370001050150,新規,0,2023-07-05,2023-07-05,株式会社Ｂｌｕｅ　Ｋｅｙ,,株式会社,宮城県,仙台市青葉区,本町１丁目５番２８号,,04,101,9800014,,,,,,,2023-07-05,1,,,,,ブルーキー,0
1407,6380001033823,新規,0,2023-07-05,2023-07-05,株式会社太陽,,株式会社,福島県,郡山市,方八町１丁目６番３号バースランド郡山９０４号,,07,203,9638811,,,,,,,2023-07-05,1,,,,,タイヨウ,0
1408,6380001033831,新規,0,2023-07-05,2023-07-05,株式会社ジェーイーエム,,株式会社,福島県,福島市,荒町３番８号,,07,201,9608042,,,,,,,2023-07-05,1,,,,,ジェーイーエム,0
1414,6380005012724,新規,0,2023-07-05,2023-07-05,一般社団法人ＣＪ国際原子力被害総合対策機構,,その他の設立登記法人,福島県,いわき市,好間町下好間字一町坪６８番地の１,,07,204,9701151,,,,,,,2023-07-05,1,,,,,シージェイコクサイゲンシリョクヒガイソウゴウタイサクキコウ,0
1416,6400001016296,新規,0,2023-07-05,2023-07-05,株式会社びわ電機商会,,株式会社,岩手県,久慈市,長内町第９地割１６番地１３,,03,207,0280041,,,,,,,2023-07-05,1,,,,,ビワデンキショウカイ,0
1417,6400001016305,新規,0,2023-07-05,2023-07-05,株式会社ＯｓｈｉｋｉｒｉＨｏｍｅ,,株式会社,岩手県,花巻市,東十二丁目第５地割１２７番地２２,,03,205,0250015,,,,,,,2023-07-05,1,,,,,オシキリホーム,0
1422,6420001018324,新規,0,2023-07-05,2023-07-05,株式会社ＹＡＭＡＳＡＣ,,株式会社,青森県,東津軽郡平内町,大字小湊字前萢３６番地８,,02,301,0393321,,,,,,,2023-07-05,1,,,,,ヤマサック,0
1431,6460103001538,新規,0,2023-07-05,2023-07-05,合同会社ＯＳウィング,,合同会社,北海道,帯広市,西十六条南３７丁目７番１３号,,01,207,0800026,,,,,,,2023-07-05,1,,,,,オーエスウィング,0
1433,6470001019697,新規,0,2023-07-05,2023-07-05,株式会社ｈａｐｐｉｐｏｎ,,株式会社,香川県,高松市,中央町１１番６－１７０２号,,37,201,7600007,,,,,,,2023-07-05,1,,,,,ハピポン,0
1443,7010001236585,新規,0,2023-07-05,2023-07-05,株式会社シェルパインターナショナル,,株式会社,東京都,中央区,日本橋小網町３番１４号茅場町Ｋ－１ビル７階,,13,102,1030016,,,,,,,2023-07-05,1,,,,,シェルパインターナショナル,0
1444,7010001236610,新規,0,2023-07-05,2023-07-05,株式会社ＯＮＥ　ＣＯＮＮＥＣＴ,,株式会社,東京都,中央区,日本橋小舟町８番１３号天翔日本橋ビル４０８－Ｔ,,13,102,1030024,,,,,,,2023-07-05,1,,,,,ワンコネクト,0
1446,7010003041018,新規,0,2023-07-05,2023-07-05,合同会社ＰＡＮＪＡ,,合同会社,東京都,千代田区,神田和泉町１番地６番１６号ヤマトビル４０５,,13,101,1010024,,,,,,,2023-07-05,1,,,,,パンジャ,0
1447,7010005036899,新規,0,2023-07-05,2023-07-05,一般社団法人テラ,,その他の設立登記法人,東京都,中央区,日本橋１丁目４番１号日本橋一丁目ビルディング,,13,102,1030027,,,,,,,2023-07-05,1,,,,,テラ,0
1459,7010501050701,新規,0,2023-07-05,2023-07-05,株式会社琴音アシスト,,株式会社,東京都,台東区,上野６丁目１番６号御徒町グリーンハイツ１００５号,,13,106,1100005,,,,,,,2023-07-05,1,,,,,コトネアシスト,0
1460,7010503007071,新規,0,2023-07-05,2023-07-05,合同会社ユニバース,,合同会社,東京都,台東区,千束４丁目２１番１号,,13,106,1110031,,,,,,,2023-07-05,1,,,,,ユニバース,0
1466,7010601063363,新規,0,2023-07-05,2023-07-05,株式会社アイフォーケイズ,,株式会社,東京都,江東区,東陽３丁目５番１３号,,13,108,1350016,,,,,,,2023-07-05,1,,,,,アイフォーケイズ,0
1467,7010601063371,新規,0,2023-07-05,2023-07-05,株式会社ＭＴＣ,,株式会社,東京都,江東区,富岡１丁目８番１３号深川不動前かね松ビル６階,,13,108,1350047,,,,,,,2023-07-05,1,,,,,エムティーシー,0
1475,7010701044494,新規,0,2023-07-05,2023-07-05,株式会社クジラ,,株式会社,東京都,品川区,西五反田２丁目２４番４号ＷＥＳＴＨＩＬＬ２Ｆ,,13,109,1410031,,,,,,,2023-07-05,1,,,,,クジラ,0
1476,7010701044503,新規,0,2023-07-05,2023-07-05,株式会社レアヒ,,株式会社,東京都,品川区,西五反田７丁目１６番１号,,13,109,1410031,,,,,,,2023-07-05,1,,,,,レアヒ,0
1477,7010703006757,新規,0,2023-07-05,2023-07-05,合同会社ウェルス,,合同会社,東京都,品川区,上大崎１丁目３番１１号,,13,109,1410021,,,,,,,2023-07-05,1,,,,,ウェルス,0
1479,7010801034115,新規,0,2023-07-05,2023-07-05,株式会社ＭＫ,,株式会社,東京都,大田区,蒲田５丁目１６番８号,,13,111,1440052,,,,,,,2023-07-05,1,,,,,エムケイ,0
1480,7010803004594,新規,0,2023-07-05,2023-07-05,合同会社ＤＯＥＬ,,合同会社,東京都,大田区,西六郷３丁目１７番５号,,13,111,1440056,,,,,,,2023-07-05,1,,,,,ドエル,0
1483,7010901053345,新規,0,2023-07-05,2023-07-05,株式会社オフィスヒガシ,,株式会社,東京都,世田谷区,瀬田１丁目１番１－４０２号,,13,112,1580095,,,,,,,2023-07-05,1,,,,,オフィスヒガシ,0
1486,7011001155395,新規,0,2023-07-05,2023-07-05,株式会社Ｅｌｂｅｓｏ,,株式会社,東京都,渋谷区,代々木２丁目２３番１号ニューステイトメナー７０４,,13,113,1510053,,,,,,,2023-07-05,1,,,,,エルベソ,0
1487,7011001155445,新規,0,2023-07-05,2023-07-05,株式会社次元空間社,,株式会社,東京都,渋谷区,宇田川町２－１渋谷ホームズ７１４号室,,13,113,1500042,,,,,,,2023-07-05,1,,,,,ジゲンクウカンシャ,0
1488,7011003017115,新規,0,2023-07-05,2023-07-05,Ｈｉ‐Ｓｔｏｃｋ合同会社,,合同会社,東京都,渋谷区,恵比寿１丁目３４番１１－６０４号,,13,113,1500013,,,,,,,2023-07-05,1,,,,,ハイストック,0
1489,7011003017123,新規,0,2023-07-05,2023-07-05,ｉＢＵＫｉｓｈ合同会社,,合同会社,東京都,渋谷区,道玄坂１丁目１０番８号渋谷道玄坂東急ビル２Ｆ－Ｃ,,13,113,1500043,,,,,,,2023-07-05,1,,,,,イブキッシュ,0
1496,7011101103460,新規,0,2023-07-05,2023-07-05,株式会社Ｐａｒｋｏｕｒ　Ｊａｐａｎ,,株式会社,東京都,新宿区,西新宿３丁目３番１３号西新宿水間ビル２Ｆ,,13,104,1600023,,,,,,,2023-07-05,1,,,,,パルクールジャパン,0
1497,7011103013179,新規,0,2023-07-05,2023-07-05,シロクマ合同会社,,合同会社,東京都,新宿区,歌舞伎町２丁目１８－５－１６０９号,,13,104,1600021,,,,,,,2023-07-05,1,,,,,シロクマ,0
1498,7011105010711,新規,0,2023-07-05,2023-07-05,一般社団法人在日本韓国人総連合会,,その他の設立登記法人,東京都,新宿区,大久保１丁目２番１８号,,13,104,1690072,,,,,,,2023-07-05,1,,,,,ザイニホンカンコクジンソウレンゴウカイ,0
1500,7011201024755,新規,0,2023-07-05,2023-07-05,株式会社住ＳＴＹＬＥ,,株式会社,東京都,中野区,本町４丁目３８番３号,,13,114,1640012,,,,,,,2023-07-05,1,,,,,ジュウスタイル,0
1506,7011601026946,新規,0,2023-07-05,2023-07-05,株式会社ヒバリテック,,株式会社,東京都,練馬区,東大泉２丁目１番５－５０７号,,13,120,1780063,,,,,,,2023-07-05,1,,,,,ヒバリテック,0
1508,7011801042644,新規,0,2023-07-05,2023-07-05,ニッポン商事株式会社,,株式会社,東京都,葛飾区,西新小岩４丁目３７－７,,13,122,1240025,,,,,,,2023-07-05,1,,,,,ニッポンショウジ,0
1509,7012801022487,新規,0,2023-07-05,2023-07-05,ＭＡＴＣＨＩ株式会社,,株式会社,東京都,国分寺市,南町３丁目７－１５,,13,214,1850021,,,,,,,2023-07-05,1,,,,,マッチ,0
1516,7020001152294,新規,0,2023-07-05,2023-07-05,株式会社アドミリア,,株式会社,神奈川県,横浜市金沢区,大川７番４－７０６号,,14,108,2360043,,,,,,,2023-07-05,1,,,,,アドミリア,0
1522,7021001079437,新規,0,2023-07-05,2023-07-05,株式会社マッターホルンＧＡＦＡ,,株式会社,神奈川県,伊勢原市,高森１２６８番地の６,,14,214,2591114,,,,,,,2023-07-05,1,,,,,マッターホルンギャーファ,0
1533,7030003022081,新規,0,2023-07-05,2023-07-05,合同会社Ｌｅｅ,,合同会社,埼玉県,桶川市,大字下日出谷６７９番地の７,,11,231,3630025,,,,,,,2023-07-05,1,,,,,リー,0
1536,7030005021321,新規,0,2023-07-05,2023-07-05,一般社団法人清水達也後援会,,その他の設立登記法人,埼玉県,深谷市,西島町１丁目３番６号,,11,218,3660824,,,,,,,2023-07-05,1,,,,,シミズタツヤコウエンカイ,0
1542,7040001129092,新規,0,2023-07-05,2023-07-05,南房企画株式会社,,株式会社,千葉県,南房総市,久枝７８４,,12,234,2992216,,,,,,,2023-07-05,1,,,,,ナンボウキカク,0
1550,7060001036122,新規,0,2023-07-05,2023-07-05,株式会社ＭＳＫプランニング,,株式会社,栃木県,宇都宮市,上桑島町４３９番地２０,,09,201,3210913,,,,,,,2023-07-05,1,,,,,エムエスケイプランニング,0
1551,7060003004622,新規,0,2023-07-05,2023-07-05,合同会社ワームス,,合同会社,栃木県,宇都宮市,元今泉４丁目２－１０元今泉ハイタウン７０５,,09,201,3210954,,,,,,,2023-07-05,1,,,,,ワームス,0
1555,7070001040544,新規,0,2023-07-05,2023-07-05,株式会社ＭＥＤＵＥＬＬ,,株式会社,群馬県,伊勢崎市,堤下町７４番地５,,10,204,3720004,,,,,,,2023-07-05,1,,,,,メヂュール,0
1557,7070003005009,新規,0,2023-07-05,2023-07-05,ＴＡＳＭＩＡ　ＴＲＡＤＩＮＧ合同会社,,合同会社,群馬県,館林市,北成島町１８１３－２セキネハイツＢ棟１０２,,10,207,3740057,,,,,,,2023-07-05,1,,,,,,0
1563,7080401026571,新規,0,2023-07-05,2023-07-05,マルテイホールディングス株式会社,,株式会社,静岡県,袋井市,諸井１３００番地,,22,216,4371121,,,,,,,2023-07-05,1,,,,,マルテイホールディングス,0
1568,7110003005103,新規,0,2023-07-05,2023-07-05,合同会社創信電気,,合同会社,新潟県,新潟市東区,有楽２丁目２番地３,,15,102,9500012,,,,,,,2023-07-05,1,,,,,ソウシンデンキ,0
1577,7120001256052,新規,0,2023-07-05,2023-07-05,株式会社変わり紋,,株式会社,大阪府,大阪市北区,梅田１丁目１－３大阪駅前第３ビル２９階１－１－１号室,,27,127,5300001,,,,,,,2023-07-05,1,,,,,カワリモン,0
1578,7120001256176,新規,0,2023-07-05,2023-07-05,なんば不動産株式会社,,株式会社,大阪府,大阪市浪速区,難波中２丁目１０－７０,,27,111,5560011,,,,,,,2023-07-05,1,,,,,ナンバフドウサン,0
1579,7120001256201,新規,0,2023-07-05,2023-07-05,株式会社エム企画,,株式会社,大阪府,寝屋川市,清水町１９番１７号,,27,215,5720044,,,,,,,2023-07-05,1,,,,,エムキカク,0
1585,7120101067837,新規,0,2023-07-05,2023-07-05,株式会社Ｒ・Ｍ,,株式会社,大阪府,堺市中区,深井沢町３２８２番地－２０４号,,27,142,5998236,,,,,,,2023-07-05,1,,,,,アールエム,0
1587,7120901047732,新規,0,2023-07-05,2023-07-05,株式会社Ｃｒｕｓｔ,,株式会社,大阪府,吹田市,南吹田５丁目１番２５号,,27,205,5640043,,,,,,,2023-07-05,1,,,,,クラスト,0
1591,7130001074643,新規,0,2023-07-05,2023-07-05,株式会社京都かねます,,株式会社,京都府,京都市伏見区,向島二ノ丸町６８番地２１１,,26,109,6128141,,,,,,,2023-07-05,1,,,,,キョウトカネマス,0
1592,7130001074651,新規,0,2023-07-05,2023-07-05,株式会社ドットナッツ,,株式会社,京都府,京都市左京区,下鴨東塚本町７番地３,00131069,26,103,6060000,,,,,,,2023-07-05,1,,,,,ドットナッツ,0
1594,7130005016815,新規,0,2023-07-05,2023-07-05,一般社団法人Ｔｅｓｋａ　Ｔｅｒｒａｃｅ,,その他の設立登記法人,京都府,京都市中京区,六角油小路町３４５番地２,,26,104,6040000,,,,,,,2023-07-05,1,,,,,テスカテラス,0
1596,7140001130734,新規,0,2023-07-05,2023-07-05,ＧＲ‐ＦＲＯＮＴＩＥＲ株式会社,,株式会社,兵庫県,尼崎市,昭和通５丁目１６４番３号,,28,202,6600881,,,,,,,2023-07-05,1,,,,,ジーアールフロンティア,0
1602,7150003002996,新規,0,2023-07-05,2023-07-05,合同会社Ｈｅａｒｔ　Ｃｏｒｅ,,合同会社,奈良県,橿原市,久米町６２０－５コスモハイツ１０５,,29,205,6340063,,,,,,,2023-07-05,1,,,,,ハートコア,0
1603,7160003002921,新規,0,2023-07-05,2023-07-05,合同会社ロゼッタ,,合同会社,滋賀県,大津市,萱野浦２２番２８－１０１号,,25,201,5202143,,,,,,,2023-07-05,1,,,,,ロゼッタ,0
1604,7170001017664,新規,0,2023-07-05,2023-07-05,株式会社紀北緑地建設,,株式会社,和歌山県,橋本市,高野口町名倉２０６番地の２,,30,203,6497205,,,,,,,2023-07-05,1,,,,,キホクリョクチケンセツ,0
1606,7170003001897,新規,0,2023-07-05,2023-07-05,合同会社ＳＴＭ,,合同会社,和歌山県,和歌山市,加納２４５番地ファミリーメイト矢田Ｂ１０２,,30,201,6408391,,,,,,,2023-07-05,1,,,,,エスティーエム,0
1612,7180001156940,新規,0,2023-07-05,2023-07-05,株式会社ＡｉＮ,,株式会社,愛知県,名古屋市北区,平安２丁目１３番１６号,,23,103,4620819,,,,,,,2023-07-05,1,,,,,エイン,0
1613,7180001156973,新規,0,2023-07-05,2023-07-05,株式会社ボッポ,,株式会社,愛知県,瀬戸市,陶原町２丁目１番地の１,,23,204,4890805,,,,,,,2023-07-05,1,,,,,ボッポ,0
1631,7240003006204,新規,0,2023-07-05,2023-07-05,合同会社アンドサニー,,合同会社,広島県,広島市中区,舟入町５番２３号７階,,34,101,7300841,,,,,,,2023-07-05,1,,,,,アンドサニー,0
1632,7240003006212,新規,0,2023-07-05,2023-07-05,合同会社フロース,,合同会社,広島県,広島市佐伯区,皆賀４丁目５番１０号,,34,108,7315124,,,,,,,2023-07-05,1,,,,,フロース,0
1636,7290001102124,新規,0,2023-07-05,2023-07-05,株式会社ＫＩＢＩＬ,,株式会社,福岡県,福岡市西区,大字宮浦２１２９番地２６,,40,135,8190201,,,,,,,2023-07-05,1,,,,,キビル,0
1637,7290001102149,新規,0,2023-07-05,2023-07-05,株式会社建護興業,,株式会社,福岡県,糸島市,前原北３丁目１番７号（２０２）,,40,230,8191118,,,,,,,2023-07-05,1,,,,,ケンゴコウギョウ,0
1638,7290001102157,新規,0,2023-07-05,2023-07-05,株式会社ＢＹＲＤ,,株式会社,福岡県,福岡市中央区,小笹１丁目１５番３３－３０１号,,40,133,8100033,,,,,,,2023-07-05,1,,,,,バード,0
1640,7290803004451,新規,0,2023-07-05,2023-07-05,合同会社遊舎,,合同会社,福岡県,鞍手郡小竹町,大字勝野４００２番地５４,,40,401,8201103,,,,,,,2023-07-05,1,,,,,ユウシャ,0
1643,7320005010088,新規,0,2023-07-05,2023-07-05,一般社団法人日本理美容整体発毛協会,,その他の設立登記法人,大分県,中津市,大字中殿５３８番地５,,44,203,8710031,,,,,,,2023-07-05,1,,,,,ニホンリビヨウセイタイハツモウキョウカイ,0
1644,7340003004172,新規,0,2023-07-05,2023-07-05,ＣｒｏｓｓＯｖｅｒ合同会社,,合同会社,鹿児島県,鹿児島市,清和３丁目８番６７号,,46,201,8910109,,,,,,,2023-07-05,1,,,,,クロスオーバー,0
1647,7350005006166,新規,0,2023-07-05,2023-07-05,司法書士法人吉岡事務所,,その他の設立登記法人,宮崎県,串間市,大字西方５５７７番地１,,45,207,8880001,,,,,,,2023-07-05,1,,,,,ヨシオカジムショ,0
1655,7380001033822,新規,0,2023-07-05,2023-07-05,恒基金属株式会社,,株式会社,福島県,郡山市,富久山町久保田字中台４番地の９,,07,203,9638071,,,,,,,2023-07-05,1,,,,,コウキキンゾク,0
1657,7390001017304,新規,0,2023-07-05,2023-07-05,株式会社ヒロタケ,,株式会社,山形県,山形市,上町３丁目１１番７号,,06,201,9902483,,,,,,,2023-07-05,1,,,,,ヒロタケ,0
1660,7410001013531,新規,0,2023-07-05,2023-07-05,株式会社あきぎんキャピタルパートナーズ,,株式会社,秋田県,秋田市,山王３丁目２番１号,,05,201,0100951,,,,,,,2023-07-05,1,,,,,アキギンキャピタルパートナーズ,0
1661,7410002011344,新規,0,2023-07-05,2023-07-05,有限会社角間川ショッピング,,有限会社,秋田県,大仙市,角間川町字中町頭１１８番地１,,05,212,0141413,,,,,,,2023-07-05,1,,,,,,0
1669,7450001014039,新規,0,2023-07-05,2023-07-05,株式会社ＥＮＧＹ,,株式会社,北海道,旭川市,東旭川北三条５丁目６番２号,,01,204,0788253,,,,,,,2023-07-05,1,,,,,エンジー,0
1670,7450003002355,新規,0,2023-07-05,2023-07-05,合同会社スマートフィール,,合同会社,北海道,苫前郡羽幌町,北大通２丁目９番地,,01,484,0784110,,,,,,,2023-07-05,1,,,,,スマートフィール,0
1677,7700150117517,新規,0,2023-07-05,2023-06-16,なぐりっ子クラブ,,その他,埼玉県,飯能市,大字上名栗３０８６,,11,209,3570111,,,,,,,2023-06-16,1,,,,,ナグリツコクラブ,0
1681,8010001236618,新規,0,2023-07-05,2023-07-05,ジャパンウインド株式会社,,株式会社,東京都,千代田区,丸の内１丁目８番２号鉄鋼ビルディング４Ｆ,,13,101,1000005,,,,,,,2023-07-05,1,,,,,ジャパンウインド,0
1682,8010003041025,新規,0,2023-07-05,2023-07-05,合同会社ＨＦＮコンサルティング,,合同会社,東京都,中央区,日本橋浜町３丁目２９番７号,,13,102,1030007,,,,,,,2023-07-05,1,,,,,エイチエフエヌコンサルティング,0
1683,8010003041033,新規,0,2023-07-05,2023-07-05,千石アドバイザリー合同会社,,合同会社,東京都,文京区,千石１丁目６番１８－２０２号,,13,105,1120011,,,,,,,2023-07-05,1,,,,,センゴクアドバイザリー,0
1691,8010405022267,新規,0,2023-07-05,2023-07-05,一般社団法人生前整理支援協会,,その他の設立登記法人,東京都,港区,南青山３丁目１番３６号青山丸竹ビル６Ｆ,,13,103,1070062,,,,,,,2023-07-05,1,,,,,セイゼンセイリシエンキョウカイ,0
1693,8010501050691,新規,0,2023-07-05,2023-07-05,ＣＯＴＴＩ　ＣＯＦＦＥＥ　ＪＡＰＡＮ株式会社,,株式会社,東京都,台東区,上野６丁目７－１６川久保ビル８１５号,,13,106,1100005,,,,,,,2023-07-05,1,,,,,コティコーヒージャパン,0
1694,8010503007070,新規,0,2023-07-05,2023-07-05,ビューティフルデイツアーズ合同会社,,合同会社,東京都,台東区,小島２丁目２０－１１ＬＩＧビル,,13,106,1110056,,,,,,,2023-07-05,1,,,,,ビューティフルデイツアーズ,0
1698,8010701044502,新規,0,2023-07-05,2023-07-05,株式会社ＫＩＲＩＩ　Ｈｏｌｄｉｎｇｓ,,株式会社,東京都,品川区,西五反田７丁目１６番１号,,13,109,1410031,,,,,,,2023-07-05,1,,,,,キリイホールディングス,0
1700,8010703006756,新規,0,2023-07-05,2023-07-05,合同会社ＯＮＭ,,合同会社,東京都,品川区,西五反田３丁目７番６号レジディアタワー目黒不動前２０１２,,13,109,1410031,,,,,,,2023-07-05,1,,,,,オーエヌエム,0
1702,8010801034122,新規,0,2023-07-05,2023-07-05,リアシスグループ株式会社,,株式会社,東京都,大田区,田園調布２丁目２２番２号田園プラネット１０１,,13,111,1450071,,,,,,,2023-07-05,1,,,,,,0
1704,8010901053352,新規,0,2023-07-05,2023-07-05,ＯｎｅＬｉｎｅｓ株式会社,,株式会社,東京都,世田谷区,池尻４丁目２９番２４号ヴィラ駒場１０２,,13,112,1540001,,,,,,,2023-07-05,1,,,,,ワンラインズ,0
1705,8010903008288,新規,0,2023-07-05,2023-07-05,合同会社ＡＮＤＡＣＴＩＯＮ,,合同会社,東京都,世田谷区,瀬田２丁目１番２０－７０３号,,13,112,1580095,,,,,,,2023-07-05,1,,,,,アンダクション,0
1706,8010903008296,新規,0,2023-07-05,2023-07-05,ｉＭｏｏｎ合同会社,,合同会社,東京都,世田谷区,赤堤３丁目２６－７－１０２,,13,112,1560044,,,,,,,2023-07-05,1,,,,,アイムーン,0
1708,8011001155262,新規,0,2023-07-05,2023-07-05,株式会社ウナギカブキ,,株式会社,東京都,渋谷区,神南１丁目５番１４号三船ビル５０５号,,13,113,1500041,,,,,,,2023-07-05,1,,,,,ウナギカブキ,0
1709,8011001155428,新規,0,2023-07-05,2023-07-05,株式会社Ｏｒｃｈｉｄ,,株式会社,東京都,目黒区,緑が丘２丁目８－１２,,13,110,1520034,,,,,,,2023-07-05,1,,,,,オーキッド,0
1715,8011101103476,新規,0,2023-07-05,2023-07-05,株式会社ＨＩＯ,,株式会社,東京都,新宿区,高田馬場４丁目２６番１０号,,13,104,1690075,,,,,,,2023-07-05,1,,,,,エイチアイオー,0
1728,8011501029453,新規,0,2023-07-05,2023-07-05,株式会社ＥＥＩＶＯＬ,,株式会社,東京都,荒川区,東尾久１丁目５番２３号,,13,118,1160012,,,,,,,2023-07-05,1,,,,,エイヴォル,0
1731,8011701026390,新規,0,2023-07-05,2023-07-05,株式会社ワイズ房,,株式会社,東京都,江戸川区,鹿骨５丁目１番１７号,,13,123,1330073,,,,,,,2023-07-05,1,,,,,ワイズバン,0
1732,8011701026399,新規,0,2023-07-05,2023-07-05,株式会社飛行艇,,株式会社,東京都,江戸川区,南葛西６丁目２４番２号,,13,123,1340085,,,,,,,2023-07-05,1,,,,,ヒコウテイ,0
1734,8012401040707,新規,0,2023-07-05,2023-07-05,株式会社Ｂｅａｎｓ　Ｐｌａｎｎｉｎｇ,,株式会社,東京都,武蔵野市,吉祥寺南町１丁目１９－１６,,13,203,1800003,,,,,,,2023-07-05,1,,,,,ビーンズプランニング,0
1735,8012801022486,新規,0,2023-07-05,2023-07-05,株式会社バンブルビー,,株式会社,東京都,立川市,錦町１丁目４番２０号ＴＳＣビル６階,,13,202,1900022,,,,,,,2023-07-05,1,,,,,バンブルビー,0
1736,8012803003121,新規,0,2023-07-05,2023-07-05,合同会社鳳,,合同会社,東京都,東大和市,蔵敷３丁目６８６番地,,13,220,2070032,,,,,,,2023-07-05,1,,,,,オオトリ,0
1746,8020001152302,新規,0,2023-07-05,2023-07-05,赤木株式会社,,株式会社,神奈川県,横浜市保土ケ谷区,瀬戸ケ谷町５３番地１９スカイコート保土ヶ谷Ｂ２０１号,,14,106,2400024,,,,,,,2023-07-05,1,,,,,,0
1747,8020001152327,新規,0,2023-07-05,2023-07-05,株式会社Ｒｅａｃｈ２,,株式会社,神奈川県,横浜市中区,竹之丸１１７番地１４,,14,104,2310847,,,,,,,2023-07-05,1,,,,,リーチトゥー,0
1748,8020001152335,新規,0,2023-07-05,2023-07-05,株式会社ＯＲＩＯＮ,,株式会社,神奈川県,横浜市南区,吉野町５丁目２２番地３３Ｙ・Ｓ・Ｎビル２Ｆ,,14,105,2320014,,,,,,,2023-07-05,1,,,,,オリオン,0
1749,8020003024144,新規,0,2023-07-05,2023-07-05,合同会社ＬＹＳ,,合同会社,神奈川県,横浜市青葉区,美しが丘２丁目２０番地１美しが丘アレービル３０８,,14,117,2250002,,,,,,,2023-07-05,1,,,,,リス,0
1752,8021001079493,新規,0,2023-07-05,2023-07-05,Ｓｗｉｔｃｈ　Ｓｔａｎｃｅ株式会社,,株式会社,神奈川県,鎌倉市,七里ガ浜東３丁目２５番４号,,14,204,2480025,,,,,,,2023-07-05,1,,,,,スイッチスタンス,0
1771,8040001128928,新規,0,2023-07-05,2023-07-05,株式会社１’ｓ　Ｒｅｐａｉｒ,,株式会社,千葉県,市川市,相之川４丁目１２－１０,,12,203,2720143,,,,,,,2023-07-05,1,,,,,ワンズリペア,0
1772,8040001129034,新規,0,2023-07-05,2023-07-05,株式会社アップライズ,,株式会社,千葉県,船橋市,芝山２丁目２番１号,,12,204,2740816,,,,,,,2023-07-05,1,,,,,アップライズ,0
1773,8040001129083,新規,0,2023-07-05,2023-07-05,株式会社鈴興,,株式会社,千葉県,八街市,八街ほ９６９番地１３７,,12,230,2891115,,,,,,,2023-07-05,1,,,,,スズコウ,0
1775,8040005022061,新規,0,2023-07-05,2023-07-05,一般社団法人千葉県ライフセービング協会,,その他の設立登記法人,千葉県,夷隅郡御宿町,須賀４８８番地１ビューパレー御宿１１０５,,12,443,2995106,,,,,,,2023-07-05,1,,,,,チバケンライフセービングキョウカイ,0
1783,8070001040576,新規,0,2023-07-05,2023-07-05,株式会社れむりあケア,,株式会社,群馬県,伊勢崎市,宮前町１５４３－１,,10,204,3720026,,,,,,,2023-07-05,1,,,,,,0
1784,8070001040584,新規,0,2023-07-05,2023-07-05,ＯＮＥ　ＨＥＡＲＴ株式会社,,株式会社,群馬県,前橋市,大胡町５２３番地６,,10,201,3710223,,,,,,,2023-07-05,1,,,,,ワンハート,0
1795,8080401026579,新規,0,2023-07-05,2023-07-05,ＩＳＫ株式会社,,株式会社,静岡県,浜松市北区,初生町４９３番地の１,,22,135,4338112,,,,,,,2023-07-05,1,,,,,アイエスケー,0
1800,8110001037659,新規,0,2023-07-05,2023-07-05,株式会社建設マネジメント北陸東,,株式会社,新潟県,新潟市江南区,亀田工業団地２丁目３番４号,,15,104,9500141,,,,,,,2023-07-05,1,,,,,ケンセツマネジメントホクリクヒガシ,0
1801,8110001037667,新規,0,2023-07-05,2023-07-05,株式会社蓑輪工業,,株式会社,新潟県,上越市,佐内町１０番１号,,15,222,9420031,,,,,,,2023-07-05,1,,,,,ミノワコウギョウ,0
1804,8110003005102,新規,0,2023-07-05,2023-07-05,合同会社ＨＷＳ,,合同会社,新潟県,新潟市中央区,東万代町６番１０号,,15,103,9500082,,,,,,,2023-07-05,1,,,,,エイチダブリュエス,0
1821,8120001256191,新規,0,2023-07-05,2023-07-05,株式会社シースリー,,株式会社,大阪府,守口市,八雲東町２丁目８２番２２号大日駅前ビル４０３号室,,27,209,5700021,,,,,,,2023-07-05,1,,,,,シースリー,0
1827,8120003024423,新規,0,2023-07-05,2023-07-05,合同会社キヅキ,,合同会社,大阪府,交野市,星田９丁目１９番７号,,27,230,5760016,,,,,,,2023-07-05,1,,,,,キヅキ,0
1828,8120003024448,新規,0,2023-07-05,2023-07-05,合同会社ＮａｖｉＳｅｃｕｒＩＴＣｏｎｓｕｌｔａｎｔ,,合同会社,大阪府,大阪市港区,市岡元町３丁目１３‐５ウエストエリアビル４０５号,,27,107,5520002,,,,,,,2023-07-05,1,,,,,ナビセキュリティコンサルタント,0
1829,8120101067828,新規,0,2023-07-05,2023-07-05,株式会社ｊｃ,,株式会社,大阪府,富田林市,西板持町８丁目１５番５号,,27,214,5840048,,,,,,,2023-07-05,1,,,,,,0
1830,8120901047731,新規,0,2023-07-05,2023-07-05,株式会社トラストホーム,,株式会社,大阪府,豊中市,少路２丁目３－２４グランロジュマンＣ棟４０７,,27,203,5600004,,,,,,,2023-07-05,1,,,,,トラストホーム,0
1832,8130001074618,新規,0,2023-07-05,2023-07-05,株式会社いこい美容器具,,株式会社,京都府,京都市山科区,大塚丹田町１１番地の１８,00131014,26,110,6078136,,,,,,,2023-07-05,1,,,,,イコイビヨウキグ,0
1836,8140001130691,新規,0,2023-07-05,2023-07-05,株式会社Ｎａｔｕｒａｌ　ｃａｒｅ,,株式会社,兵庫県,尼崎市,武庫元町１丁目１３番１２号２０３,,28,202,6610043,,,,,,,2023-07-05,1,,,,,ナチュラルケア,0
1837,8140001130700,新規,0,2023-07-05,2023-07-05,株式会社小鈴,,株式会社,兵庫県,西宮市,甲陽園山王町５番３５号,,28,204,6620018,,,,,,,2023-07-05,1,,,,,コスズ,0
1838,8140001130709,新規,0,2023-07-05,2023-07-05,株式会社フーディアジャパン,,株式会社,兵庫県,加東市,上滝野３０５番地１,,28,228,6790211,,,,,,,2023-07-05,1,,,,,フーディアジャパン,0
1840,8150003002995,新規,0,2023-07-05,2023-07-05,合同会社千羽鶴,,合同会社,奈良県,奈良市,西大寺新町１丁目７番１０号,,29,201,6310815,,,,,,,2023-07-05,1,,,,,センバヅル,0
1843,8170001017663,新規,0,2023-07-05,2023-07-05,株式会社Ｍｕｓｔ,,株式会社,和歌山県,橋本市,みゆき台３番地の６,,30,203,6480088,,,,,,,2023-07-05,1,,,,,マスト,0
1844,8170003001896,新規,0,2023-07-05,2023-07-05,合同会社サムベット,,合同会社,和歌山県,和歌山市,広瀬通丁２丁目６番地,,30,201,6408113,,,,,,,2023-07-05,1,,,,,サムベット,0
1853,8180001156956,新規,0,2023-07-05,2023-07-05,ウッズホーム株式会社,,株式会社,愛知県,一宮市,浅野字野口５９番地,,23,203,4910871,,,,,,,2023-07-05,1,,,,,ウッズホーム,0
1854,8180001156964,新規,0,2023-07-05,2023-07-05,株式会社フロンタル,,株式会社,愛知県,名古屋市緑区,ほら貝１丁目７８－４,,23,114,4580013,,,,,,,2023-07-05,1,,,,,フロンタル,0
1855,8180001156972,新規,0,2023-07-05,2023-07-05,Ｃｏｔａ　Ｈｏｍｅｓ株式会社,,株式会社,愛知県,江南市,村久野町南大門１３５番地,,23,217,4838324,,,,,,,2023-07-05,1,,,,,コタホームズ,0
1857,8180003025432,新規,0,2023-07-05,2023-07-05,合同会社Ｓｐｒｅａｄ　Ｉｎｋ,,合同会社,愛知県,名古屋市中区,丸の内３丁目１８番１６号（早川ビル５階）,,23,106,4600002,,,,,,,2023-07-05,1,,,,,スプレッドインク,0
1858,8180005020266,新規,0,2023-07-05,2023-07-05,ＮＰＯ法人まちのテラス,,その他の設立登記法人,愛知県,長久手市,岩作色金２６番地２,,23,238,4801103,,,,,,,2023-07-05,1,,,,,マチノテラス,0
1859,8180005020274,新規,0,2023-07-05,2023-07-05,ＮＰＯ法人ＫＡＷＡＲＵ,,その他の設立登記法人,愛知県,春日井市,松河戸町６丁目７番地３,,23,206,4860932,,,,,,,2023-07-05,1,,,,,カワル,0
1860,8180303005753,新規,0,2023-07-05,2023-07-05,合同会社ＳＣＥＮＥＳ,,合同会社,愛知県,岡崎市,稲熊町字６丁目７６番地５３,,23,202,4440071,,,,,,,2023-07-05,1,,,,,シーンズ,0
1862,8190001030540,新規,0,2023-07-05,2023-07-05,株式会社エムケーホールディングス,,株式会社,三重県,四日市市,楠町小倉１７０１番地,,24,202,5100101,,,,,,,2023-07-05,1,,,,,エムケーホールディングス,0
1863,8190001030549,新規,0,2023-07-05,2023-07-05,株式会社マックス,,株式会社,三重県,伊賀市,平野東町１０７,,24,216,5180810,,,,,,,2023-07-05,1,,,,,マックス,0
1865,8200001041445,新規,0,2023-07-05,2023-07-05,さくらツーリスト株式会社,,株式会社,岐阜県,多治見市,光ケ丘４丁目２５－１ライフニュー光ケ丘２０１号室,,21,204,5070052,,,,,,,2023-07-05,1,,,,,サクラツーリスト,0
1866,8200001041461,新規,0,2023-07-05,2023-07-05,ナカイアポストリー株式会社,,株式会社,岐阜県,高山市,一之宮町３２３２番地３,,21,203,5093505,,,,,,,2023-07-05,1,,,,,ナカイアポストリー,0
1872,8230003002046,新規,0,2023-07-05,2023-07-05,合同会社ＴＯＹＡＭＡ　ＭＯＴＯＲＳ,,合同会社,富山県,射水市,海老江３３４番地,,16,211,9330233,,,,,,,2023-07-05,1,,,,,トヤマモーターズ,0
1874,8240001061745,新規,0,2023-07-05,2023-07-05,株式会社坂田建設,,株式会社,広島県,三次市,三和町羽出庭１０２３０番地５,,34,209,7296614,,,,,,,2023-07-05,1,,,,,サカタケンセツ,0
1875,8240001061753,新規,0,2023-07-05,2023-07-05,株式会社ニシモト,,株式会社,広島県,広島市安芸区,船越２丁目３４番１６号,,34,107,7360081,,,,,,,2023-07-05,1,,,,,ニシモト,0
1879,8260001038089,新規,0,2023-07-05,2023-07-05,ヴェルグリーン株式会社,,株式会社,岡山県,岡山市東区,金岡東町２丁目４番１３号,,33,103,7048194,,,,,,,2023-07-05,1,,,,,ヴェルグリーン,0
1883,8290001102107,新規,0,2023-07-05,2023-07-05,株式会社兆,,株式会社,福岡県,福岡市東区,唐原７丁目１２番４８号,,40,131,8130001,,,,,,,2023-07-05,1,,,,,キザシ,0
1884,8290001102123,新規,0,2023-07-05,2023-07-05,株式会社ＹＭコンサルティング,,株式会社,福岡県,福岡市中央区,天神２丁目２番１２号Ｔ＆Ｊビルディング７Ｆ,,40,133,8100001,,,,,,,2023-07-05,1,,,,,ワイエムコンサルティング,0
1885,8290001102148,新規,0,2023-07-05,2023-07-05,株式会社善寿丸,,株式会社,福岡県,福岡市早良区,野芥６丁目６０番４１号,,40,137,8140171,,,,,,,2023-07-05,1,,,,,ゼンジュマル,0
1886,8290001102156,新規,0,2023-07-05,2023-07-05,株式会社Ｓ．Ｔ．Ａ,,株式会社,福岡県,福岡市博多区,金の隈１丁目９番９号,,40,132,8120863,,,,,,,2023-07-05,1,,,,,エスティエー,0
1889,8290003014085,新規,0,2023-07-05,2023-07-05,合同会社６４３Ｅｎｔｅｒｔａｉｎｍｅｎｔ,,合同会社,福岡県,福岡市博多区,博多駅前２丁目１９番１７号トーカン博多第５ビル３１２号室,,40,132,8120011,,,,,,,2023-07-05,1,,,,,ロクヨンサンエンターテイメント,0
1890,8290003014093,新規,0,2023-07-05,2023-07-05,合同会社心芽,,合同会社,福岡県,春日市,岡本３丁目１６,,40,218,8160861,,,,,,,2023-07-05,1,,,,,シンカ,0
1891,8290003014110,新規,0,2023-07-05,2023-07-05,ホルツデザイン合同会社,,合同会社,福岡県,福岡市博多区,大博町９番５号,,40,132,8120033,,,,,,,2023-07-05,1,,,,,ホルツデザイン,0
1893,8310001018498,新規,0,2023-07-05,2023-07-05,株式会社萬平ベルドゥーラ,,株式会社,長崎県,長崎市,花丘町１７番１０号,,42,201,8528153,,,,,,,2023-07-05,1,,,,,マンペイベルドゥーラ,0
1895,8320001019867,新規,0,2023-07-05,2023-07-05,ＮＩＳＨＩＨＩＲＯ株式会社,,株式会社,大分県,大分市,大字鴛野１０５８番地の１,,44,201,8701121,,,,,,,2023-07-05,1,,,,,,0
1899,8340001025681,新規,0,2023-07-05,2023-07-05,株式会社ヨシヤ,,株式会社,鹿児島県,熊毛郡中種子町,野間３９１８番地３,,46,501,8913604,,,,,,,2023-07-05,1,,,,,ヨシヤ,0
1903,8380001033821,新規,0,2023-07-05,2023-07-05,株式会社一建創,,株式会社,福島県,会津若松市,城西町５番４６号,,07,202,9650864,,,,,,,2023-07-05,1,,,,,ハジメケンソウ,0
1906,8420001018322,新規,0,2023-07-05,2023-07-05,株式会社エステック,,株式会社,青森県,むつ市,大字田名部字土手内７４番地１,,02,208,0350021,,,,,,,2023-07-05,1,,,,,エステック,0
1908,8420003002753,新規,0,2023-07-05,2023-07-05,ワクワク青森合同会社,,合同会社,青森県,黒石市,浦町２丁目９２番地,,02,204,0360366,,,,,,,2023-07-05,1,,,,,ワクワクアオモリ,0
1913,8430001089486,新規,0,2023-07-05,2023-07-05,株式会社田原電気工事,,株式会社,北海道,札幌市南区,真駒内３３２番地１９９,,01,106,0050861,,,,,,,2023-07-05,1,,,,,タハラデンキコウジ,0
1926,9010001236360,新規,0,2023-07-05,2023-07-05,株式会社一個億,,株式会社,東京都,千代田区,神田三崎町２丁目１０番１１号Ｐｅｇビル３Ｂ－２,,13,101,1010061,,,,,,,2023-07-05,1,,,,,イッコオク,0
1930,9010003041016,新規,0,2023-07-05,2023-07-05,リード・ザ・ジブン合同会社,,合同会社,東京都,千代田区,六番町６番地６プレミスト六番町９０１号,,13,101,1020085,,,,,,,2023-07-05,1,,,,,リードザジブン,0
1931,9010003041024,新規,0,2023-07-05,2023-07-05,Ｄａｉｓｙ合同会社,,合同会社,東京都,中央区,銀座１丁目１２－４Ｎ＆ＥＢＬＤ．７階,,13,102,1040061,,,,,,,2023-07-05,1,,,,,デイジー,0
1940,9010005036906,新規,0,2023-07-05,2023-07-05,一般社団法人Ａｃａｃｉａ,,その他の設立登記法人,東京都,中央区,日本橋１丁目４番１号,,13,102,1030027,,,,,,,2023-07-05,1,,,,,アカシア,0
1950,9010401175209,新規,0,2023-07-05,2023-07-05,ＹＡＴ株式会社,,株式会社,東京都,港区,南青山３丁目１番３６号青山丸竹ビル６Ｆ,,13,103,1070062,,,,,,,2023-07-05,1,,,,,ヤット,0
1955,9010501050690,新規,0,2023-07-05,2023-07-05,株式会社ドットスラッシュ,,株式会社,東京都,台東区,上野２丁目１番３号８８ビル５階Ｆ棟,,13,106,1100005,,,,,,,2023-07-05,1,,,,,ドットスラッシュ,0
1956,9010501050708,新規,0,2023-07-05,2023-07-05,株式会社ＬＦＣＲＤ,,株式会社,東京都,台東区,東上野３丁目２４番９号ＭＩＴＡビル５階,,13,106,1100015,,,,,,,2023-07-05,1,,,,,レフカード,0
1958,9010703006755,新規,0,2023-07-05,2023-07-05,合同会社Ｒｉｖｅｒ　Ｉｓｌａｎｄ,,合同会社,東京都,品川区,西五反田３丁目４番１０号目黒ＭＡＲＣレジデンスタワー１５０５,,13,109,1410031,,,,,,,2023-07-05,1,,,,,リバーアイランド,0
1960,9010801034113,新規,0,2023-07-05,2023-07-05,株式会社東京丸喜,,株式会社,東京都,大田区,南雪谷１丁目１番１－６０２号,,13,111,1450066,,,,,,,2023-07-05,1,,,,,トウキョウマルキ,0
1961,9010803004592,新規,0,2023-07-05,2023-07-05,合同会社天太子,,合同会社,東京都,大田区,北千束１丁目２番５号,,13,111,1450062,,,,,,,2023-07-05,1,,,,,アマノタイシ,0
1962,9010901053351,新規,0,2023-07-05,2023-07-05,千代田羽部株式会社,,株式会社,東京都,世田谷区,世田谷１丁目４１番２号,,13,112,1540017,,,,,,,2023-07-05,1,,,,,チヨダハベ,0
1963,9010901053376,新規,0,2023-07-05,2023-07-05,株式会社ＳＫＹ,,株式会社,東京都,世田谷区,砧２丁目１５番６号,,13,112,1570073,,,,,,,2023-07-05,1,,,,,スカイ,0
1964,9010903008287,新規,0,2023-07-05,2023-07-05,合同会社コナビ,,合同会社,東京都,世田谷区,奥沢３丁目３６番９号,,13,112,1580083,,,,,,,2023-07-05,1,,,,,コナビ,0
1966,9011001155328,新規,0,2023-07-05,2023-07-05,株式会社Ｆｏｒｅｓｔ　Ｄａｌｉ,,株式会社,東京都,渋谷区,代官山町１３－８キャッスルマンション代官山５１３号,,13,113,1500034,,,,,,,2023-07-05,1,,,,,フォレストダリ,0
1967,9011001155427,新規,0,2023-07-05,2023-07-05,株式会社シャンマーテック,,株式会社,東京都,渋谷区,道玄坂１丁目１０番８号渋谷道玄坂東急ビル２Ｆ－Ｃ,,13,113,1500043,,,,,,,2023-07-05,1,,,,,シャンマーテック,0
1968,9011001155451,新規,0,2023-07-05,2023-07-05,Ｂｒｅｗ　Ｐｒｉｎｔ株式会社,,株式会社,東京都,渋谷区,道玄坂１丁目１０番８号渋谷道玄坂東急ビル２Ｆ－Ｃ,,13,113,1500043,,,,,,,2023-07-05,1,,,,,ブリュープリント,0
1969,9011003017096,新規,0,2023-07-05,2023-07-05,ヒストリア合同会社,,合同会社,東京都,渋谷区,恵比寿３丁目２９番９号,,13,113,1500013,,,,,,,2023-07-05,1,,,,,ヒストリア,0
1970,9011003017105,新規,0,2023-07-05,2023-07-05,合同会社フォローウィンド,,合同会社,東京都,渋谷区,神宮前１丁目４番２０号パークコート神宮前３１７,,13,113,1500001,,,,,,,2023-07-05,1,,,,,フォローウィンド,0
1973,9011101103459,新規,0,2023-07-05,2023-07-05,ＩＫＤ株式会社,,株式会社,東京都,新宿区,新宿２丁目６番１１号カスタリア新宿,,13,104,1600022,,,,,,,2023-07-05,1,,,,,アイケーディー,0
1974,9011101103483,新規,0,2023-07-05,2023-07-05,株式会社鳳スタジオ,,株式会社,東京都,新宿区,西新宿３丁目３番１３号西新宿水間ビル６階,,13,104,1600023,,,,,,,2023-07-05,1,,,,,オオトリスタジオ,0
1978,9011201024753,新規,0,2023-07-05,2023-07-05,株式会社キャリアマネジメント,,株式会社,東京都,中野区,大和町４丁目６番６号,,13,114,1650034,,,,,,,2023-07-05,1,,,,,キャリアマネジメント,0
1984,9011403004041,新規,0,2023-07-05,2023-07-05,合同会社高雄,,合同会社,東京都,板橋区,高島平３丁目１１－１－８２５,,13,119,1750082,,,,,,,2023-07-05,1,,,,,タカオ,0
1991,9012703002742,新規,0,2023-07-05,2023-07-05,ＧＥＮＢＡ　ＧＲＯＵＰ合同会社,,合同会社,東京都,東久留米市,下里５丁目９番８号,,13,222,2030043,,,,,,,2023-07-05,1,,,,,ゲンバグループ,0
1993,9012801022485,新規,0,2023-07-05,2023-07-05,相生工業株式会社,,株式会社,東京都,昭島市,拝島町４丁目２０番１４号,,13,207,1960002,,,,,,,2023-07-05,1,,,,,アイオイコウギョウ,0
1994,9012803003120,新規,0,2023-07-05,2023-07-05,合同会社多摩不動産管理,,合同会社,東京都,国立市,西２丁目１９番地の２５,,13,215,1860005,,,,,,,2023-07-05,1,,,,,タマフドウサンカンリ,0
2000,9020001152318,新規,0,2023-07-05,2023-07-05,株式会社リースハウスライト,,株式会社,神奈川県,川崎市幸区,幸町３丁目５５５番地４イトーピア多摩川グランビュー１３０９,,14,132,2120011,,,,,,,2023-07-05,1,,,,,リースハウスライト,0
2001,9020001152367,新規,0,2023-07-05,2023-07-05,株式会社富士川板金,,株式会社,神奈川県,横浜市瀬谷区,北新３８番地１０市川ビル３０２,,14,114,2460036,,,,,,,2023-07-05,1,,,,,フジカワバンキン,0
2004,9020003024135,新規,0,2023-07-05,2023-07-05,合同会社ＳＡＲＡ,,合同会社,神奈川県,横浜市南区,堀ノ内町１丁目１－１中村橋壱番館１Ｆ,,14,105,2320042,,,,,,,2023-07-05,1,,,,,サラ,0
2013,9030001154759,新規,0,2023-07-05,2023-07-05,株式会社ヒロセヤ,,株式会社,埼玉県,深谷市,西島町２丁目１２番１号,,11,218,3660824,,,,,,,2023-07-05,1,,,,,ヒロセヤ,0
2025,9040001129058,新規,0,2023-07-05,2023-07-05,株式会社ＣＯＮＳＡＦＯＳ,,株式会社,千葉県,柏市,旭町１丁目１１番８号マルコビル１Ｆ,,12,217,2770852,,,,,,,2023-07-05,1,,,,,コンサフォス,0
2026,9040001129090,新規,0,2023-07-05,2023-07-05,株式会社べるうっと,,株式会社,千葉県,松戸市,二十世紀が丘戸山町５２－２エスタ２０・Ｂ１０１,,12,207,2710082,,,,,,,2023-07-05,1,,,,,ベルウット,0
2029,9040003022896,新規,0,2023-07-05,2023-07-05,合同会社エフエムシー,,合同会社,千葉県,千葉市稲毛区,穴川１丁目８番３６－４号,,12,103,2630024,,,,,,,2023-07-05,1,,,,,エフエムシー,0
2041,9070001040600,新規,0,2023-07-05,2023-07-05,アドリゾート株式会社,,株式会社,群馬県,藤岡市,中栗須４４７番地１,,10,209,3750015,,,,,,,2023-07-05,1,,,,,アドリゾート,0
2042,9070003005015,新規,0,2023-07-05,2023-07-05,ＫＯＭＯ合同会社,,合同会社,群馬県,藤岡市,藤岡８４９番地１４,,10,209,3750024,,,,,,,2023-07-05,1,,,,,コモ,0
2044,9080001025699,新規,0,2023-07-05,2023-07-05,株式会社ＴＯＲＡホールディングス,,株式会社,静岡県,静岡市駿河区,有明町８番１１号,,22,102,4228031,,,,,,,2023-07-05,1,,,,,トラホールディングス,0
2045,9080001025708,新規,0,2023-07-05,2023-07-05,株式会社秋山工業,,株式会社,静岡県,静岡市清水区,北脇３８６番地の６,,22,103,4240052,,,,,,,2023-07-05,1,,,,,アキヤマコウギョウ,0
2046,9080103002844,新規,0,2023-07-05,2023-07-05,警備屋ケンちゃん合同会社,,合同会社,静岡県,沼津市,下香貫３１３４－１－Ａ－３０２,,22,203,4100822,,,,,,,2023-07-05,1,,,,,ケイビヤケンチャン,0
2048,9080401026578,新規,0,2023-07-05,2023-07-05,株式会社ＭＵＧＵＥＴ,,株式会社,静岡県,袋井市,掛之上１９－１０,,22,216,4370029,,,,,,,2023-07-05,1,,,,,ミュゲ,0
2053,9110001037666,新規,0,2023-07-05,2023-07-05,株式会社ナレッジリンクス,,株式会社,新潟県,新潟市西区,内野西が丘１丁目２番６号,,15,107,9502157,,,,,,,2023-07-05,1,,,,,ナレッジリンクス,0
2054,9110001037674,新規,0,2023-07-05,2023-07-05,株式会社エスワーク,,株式会社,新潟県,新潟市中央区,女池南１丁目５番１６号,,15,103,9500948,,,,,,,2023-07-05,1,,,,,エスワーク,0
2061,9120001256026,新規,0,2023-07-05,2023-07-05,株式会社オータムリーヴス,,株式会社,大阪府,枚方市,杉山手１丁目２９－２１,,27,210,5730118,,,,,,,2023-07-05,1,,,,,オータムリーヴス,0
2062,9120001256117,新規,0,2023-07-05,2023-07-05,株式会社Ｍａｒｓ　Ｔｒａｄｉｎｇ,,株式会社,大阪府,枚方市,高野道２丁目４４番１２号,,27,210,5731131,,,,,,,2023-07-05,1,,,,,マーズトレーディングショウジ,0
2063,9120001256174,新規,0,2023-07-05,2023-07-05,ｍｏｖｉｅ　ｐｌｕｓ株式会社,,株式会社,大阪府,大阪市北区,万歳町１番１１号４Ｆ,,27,127,5300028,,,,,,,2023-07-05,1,,,,,ムービープラス,0
2064,9120001256182,新規,0,2023-07-05,2023-07-05,辻商事株式会社,00131067,株式会社,大阪府,大阪市西淀川区,姫島３丁目１番４７号,,27,113,5550033,,,,,,,2023-07-05,1,,,,,ツジショウジ,0
2065,9120001256190,新規,0,2023-07-05,2023-07-05,株式会社ベルハウス,,株式会社,大阪府,大阪市住吉区,杉本２丁目３１番１４号,,27,120,5580022,,,,,,,2023-07-05,1,,,,,ベルハウス,0
2066,9120001256240,新規,0,2023-07-05,2023-07-05,株式会社ＢＣホールディングス,,株式会社,大阪府,大阪市淀川区,西宮原２丁目７番４５－１１０２号,,27,123,5320004,,,,,,,2023-07-05,1,,,,,ビーシーホールディングス,0
2068,9120003024414,新規,0,2023-07-05,2023-07-05,合同会社藤和エステート,,合同会社,大阪府,大阪市福島区,玉川２丁目８番４号福島サウスビル４０１号室,,27,103,5530004,,,,,,,2023-07-05,1,,,,,トウワエステート,0
2072,9120101067819,新規,0,2023-07-05,2023-07-05,吉誠商会株式会社,,株式会社,大阪府,岸和田市,上野町東１－２６－１００６号室,,27,202,5960047,,,,,,,2023-07-05,1,,,,,キッセイショウカイ,0
2074,9120903004721,新規,0,2023-07-05,2023-07-05,稲実ホーム合同会社,,合同会社,大阪府,豊中市,中桜塚２丁目３１番１号,,27,203,5610881,,,,,,,2023-07-05,1,,,,,イナミホーム,0
2076,9122001037133,新規,0,2023-07-05,2023-07-05,株式会社ＳＴ,,株式会社,大阪府,東大阪市,中石切町３丁目１０番２２号１０１,,27,227,5798014,,,,,,,2023-07-05,1,,,,,エスティー,0
2080,9130003008837,新規,0,2023-07-05,2023-07-05,合同会社岡本未来共創室,,合同会社,京都府,八幡市,男山指月２２番地７,,26,210,6148361,,,,,,,2023-07-05,1,,,,,オカモトミライキョウソウシツ,0
2084,9140001130716,新規,0,2023-07-05,2023-07-05,株式会社Ｌｉｚ,,株式会社,兵庫県,神戸市西区,岩岡町岩岡２２２９－１２７,,28,111,6512401,,,,,,,2023-07-05,1,,,,,,0
2094,9170001017670,新規,0,2023-07-05,2023-07-05,Ｙｓ技巧株式会社,,株式会社,和歌山県,岩出市,野上野１６番地の３４,,30,209,6496216,,,,,,,2023-07-05,1,,,,,ワイズギコウ,0
2097,9170003001895,新規,0,2023-07-05,2023-07-05,合同会社エムティーエヌ,,合同会社,和歌山県,和歌山市,川辺３３－８,,30,201,6496312,,,,,,,2023-07-05,1,,,,,エムティーエヌ,0
2105,9180001156955,新規,0,2023-07-05,2023-07-05,株式会社ＥｌｉＡｌｅ,,株式会社,愛知県,名古屋市熱田区,四番２丁目１番１２号ＧＯＴＯビルディング南３Ｆ,,23,109,4560051,,,,,,,2023-07-05,1,,,,,エリアル,0
2106,9180001156963,新規,0,2023-07-05,2023-07-05,株式会社削蹄舎,,株式会社,愛知県,常滑市,かじま台１丁目２０３番地,,23,216,4790873,,,,,,,2023-07-05,1,,,,,サクテイシャ,0
2110,9180003025431,新規,0,2023-07-05,2023-07-05,ｔｈｒｅｅＭＩＬＥ合同会社,,合同会社,愛知県,一宮市,今伊勢町馬寄字郷前４７－９,,23,203,4910051,,,,,,,2023-07-05,1,,,,,スリーマイル,0
2111,9180301037525,新規,0,2023-07-05,2023-07-05,株式会社アイビーム,,株式会社,愛知県,豊田市,喜多町１丁目１４０番地　２階２１３区画,,23,211,4710027,,,,,,,2023-07-05,1,,,,,アイビーム,0
2112,9190001030515,新規,0,2023-07-05,2023-07-05,株式会社ＫＡＲＩＮ,,株式会社,三重県,桑名市,多度町古野４５２番地,,24,205,5110122,,,,,,,2023-07-05,1,,,,,カリン,0
2113,9200001041452,新規,0,2023-07-05,2023-07-05,株式会社マジカルデザイン,,株式会社,岐阜県,岐阜市,宇佐東町１番１号,,21,201,5008366,,,,,,,2023-07-05,1,,,,,マジカルデザイン,0
2114,9200001041460,新規,0,2023-07-05,2023-07-05,株式会社ＪＹＰ,,株式会社,岐阜県,高山市,国府町広瀬町１２８０番地１３,,21,203,5094119,,,,,,,2023-07-05,1,,,,,ジェイワイピー,0
2127,9240001061744,新規,0,2023-07-05,2023-07-05,株式会社ワタナベ工房,,株式会社,広島県,福山市,南本庄４丁目３番２６号,,34,207,7200077,,,,,,,2023-07-05,1,,,,,ワタナベコウボウ,0
2128,9240001061760,新規,0,2023-07-05,2023-07-05,株式会社トレジャーフェイス,,株式会社,広島県,広島市中区,銀山町１２番１８号,,34,101,7300022,,,,,,,2023-07-05,1,,,,,トレジャーフェイス,0
2133,9290001102147,新規,0,2023-07-05,2023-07-05,ＵｎｉｔｙＣｒａｆｔｓｍａｎ　Ｐｒｏｄｕｃｔｉｏｎｓ株式会社,,株式会社,福岡県,福岡市南区,塩原４丁目１９番３９－４０２号,,40,134,8150032,,,,,,,2023-07-05,1,,,,,ユニティクラフトマンプロダクションズ,0
2134,9290001102155,新規,0,2023-07-05,2023-07-05,株式会社大輝,,株式会社,福岡県,福岡市南区,和田２丁目１９番１号,,40,134,8111343,,,,,,,2023-07-05,1,,,,,ダイキ,0
2135,9290003014101,新規,0,2023-07-05,2023-07-05,合同会社ＳＯＤＭ,,合同会社,福岡県,春日市,下白水北７丁目４５番地１,,40,218,8160854,,,,,,,2023-07-05,1,,,,,エスオーディーエム,0
2150,9400001016293,新規,0,2023-07-05,2023-07-05,株式会社ＣＯＵＲＡＧＥ,,株式会社,岩手県,花巻市,東宮野目第１２地割６番地７,,03,205,0250003,,,,,,,2023-07-05,1,,,,,カレッジ,0
2152,9420003002752,新規,0,2023-07-05,2023-07-05,番町ＭＰ合同会社,,合同会社,青森県,八戸市,大字三日町１３番地,,02,203,0310032,,,,,,,2023-07-05,1,,,,,バンチョウエムピー,0
2154,9430003015191,新規,0,2023-07-05,2023-07-05,合同会社ＭＩＳ工業,,合同会社,北海道,札幌市中央区,南二条西１０丁目１０００－２４,,01,101,0600062,,,,,,,2023-07-05,1,,,,,エムアイエスコウギョウ,0
2155,9470001019694,新規,0,2023-07-05,2023-07-05,株式会社米津工業,,株式会社,香川県,坂出市,川津町２４５６番地１０,,37,203,7620025,,,,,,,2023-07-05,1,,,,,ヨネヅコウギョウ,0
2157,9470003002450,新規,0,2023-07-05,2023-07-05,合同会社武内建築,,合同会社,香川県,丸亀市,三条町１２３９番地１,,37,202,7630094,,,,,,,2023-07-05,1,,,,,タケウチケンチク,0
