sequenceNumber,corporateNumber,process,correct,updateDate,changeDate,name,nameImageId,kind,prefectureName,cityName,streetNumber,addressImageId,prefectureCode,cityCode,postCode,addressOutside,addressOutsideImageId,closeDate,closeCause,successorCorporateNumber,changeCause,assignmentDate,latest,enName,enPrefectureName,enCityName,enAddressOutside,furigana,hihyoji
14,1010003025331,登記記録の閉鎖等,0,2022-07-22,2022-07-05,合同会社ベラファイブ,,合同会社,東京都,千代田区,丸の内３丁目１番１号東京共同会計事務所内,,13,101,1000005,,,2022-07-05,清算の結了等,,,2017-05-15,1,,,,,ベラファイブ,0
18,1010102004450,登記記録の閉鎖等,0,2022-07-22,2022-07-07,有限会社長生会長生治療院,,有限会社,東京都,八王子市,元本郷町２丁目９番１６号,,13,201,1920051,,,2022-07-07,清算の結了等,,,2015-10-05,1,,,,,チョウセイカイチョウセイチリョウイン,0
19,1010401015784,登記記録の閉鎖等,0,2022-07-22,2022-07-01,株式会社テレビ東京ヒューマン,,株式会社,東京都,港区,六本木３丁目２番１号,,13,103,1060032,,,2022-07-01,合併による解散等,9010401018937,令和４年７月１日東京都港区虎ノ門四丁目３番９号株式会社テレビ東京メディアワークス（9010401018937）に合併し解散,2015-10-05,1,,,,,テレビトウキョウヒューマン,0
20,1010401038307,登記記録の閉鎖等,0,2022-07-22,2022-07-01,株式会社トランサーチインターナショナル,,株式会社,東京都,港区,西新橋２丁目３４番７号,,13,103,1050003,,,2022-07-01,合併による解散等,6010401108419,令和４年７月１日東京都港区西新橋二丁目３４番７号株式会社トランサーチ・ジャパンアソシエイツ（6010401108419）に合併し解散,2015-10-05,1,,,,,トランサーチインターナショナル,0
23,1010401078501,登記記録の閉鎖等,0,2022-07-22,2022-07-01,サントリーワインインターナショナル株式会社,,株式会社,東京都,港区,台場２丁目３番３号,,13,103,1350091,,,2022-07-01,合併による解散等,4010401081444,令和４年７月１日東京都港区台場二丁目３番３号サントリー株式会社（4010401081444）に合併し解散,2015-10-05,1,,,,,サントリーワインインターナショナル,0
95,1020005012087,登記記録の閉鎖等,0,2022-07-22,2022-07-04,ＮＰＯ法人こどものみかた,,その他の設立登記法人,神奈川県,川崎市高津区,下作延４丁目２４番５９号ウスタリアＩ２０５,00012160,14,134,2130033,,,2022-07-04,清算の結了等,,,2015-10-05,1,,,,,コドモノミカタ,0
98,1021001052597,登記記録の閉鎖等,0,2022-07-22,2022-07-15,株式会社サット総合建設,,株式会社,神奈川県,横須賀市,子安１１番５号,,14,201,2400106,,,2022-07-15,清算の結了等,,,2015-10-05,1,,,,,サットソウゴウケンセツ,0
102,1030001032022,登記記録の閉鎖等,0,2022-07-22,2022-07-08,株式会社オフィス・ユーロード,,株式会社,埼玉県,白岡市,寺塚１６番地,,11,246,3490214,,,2022-07-08,清算の結了等,,,2015-10-05,1,,,,,オフィスユーロード,0
120,1040001100686,登記記録の閉鎖等,0,2022-07-22,2022-07-12,株式会社丸太,,株式会社,千葉県,大網白里市,南飯塚４０７－３４,,12,239,2993219,,,2022-07-12,清算の結了等,,,2017-06-16,1,,,,,マルタ,0
126,1040002032409,登記記録の閉鎖等,0,2022-07-22,2022-07-11,株式会社飯沢タイヤ商会,,株式会社,千葉県,市川市,大和田２丁目１０番２０号,,12,203,2720025,,,2022-07-11,清算の結了等,,,2015-10-05,1,,,,,イイザワタイヤショウカイ,0
129,1040002055839,登記記録の閉鎖等,0,2022-07-22,2022-07-12,有限会社山仁青果,,有限会社,千葉県,成田市,飯仲４２番地の２,,12,211,2860046,,,2022-07-12,清算の結了等,,,2015-10-05,1,,,,,ヤマジンセイカ,0
153,1070002009817,登記記録の閉鎖等,0,2022-07-22,2022-07-07,有限会社光文社印刷所,,有限会社,群馬県,高崎市,新紺屋町乙６番地,,10,202,3700821,,,2022-07-07,清算の結了等,,,2015-10-05,1,,,,,コウブンシャインサツジョ,0
163,1100002020159,登記記録の閉鎖等,0,2022-07-22,2022-07-12,有限会社信濃ビューテーサービス,,有限会社,長野県,松本市,大字笹賀５７８７番地３,,20,202,3990033,,,2022-07-12,清算の結了等,,,2015-10-05,1,,,,,シナノビューテーサービス,0
198,1160001001385,登記記録の閉鎖等,0,2022-07-22,2022-07-14,株式会社当麻,,株式会社,滋賀県,大津市,唐橋町１０番２３号,,25,201,5200851,,,2022-07-14,清算の結了等,,,2015-10-05,1,,,,,トウマ,0
214,1180002053597,登記記録の閉鎖等,0,2022-07-22,2022-07-15,有限会社あすか,,有限会社,愛知県,清須市,土器野１４番地,,23,233,4520914,,,2022-07-15,清算の結了等,,,2015-10-05,1,,,,,アスカ,0
224,1220001004308,登記記録の閉鎖等,0,2022-07-22,2022-07-14,株式会社つくし洋装店,,株式会社,石川県,金沢市,野町１丁目１番３４号,,17,201,9218031,,,2022-07-14,清算の結了等,,,2015-10-05,1,,,,,ツクシヨウソウテン,0
228,1230002014230,登記記録の閉鎖等,0,2022-07-22,2022-07-15,有限会社レスピラール,,有限会社,富山県,射水市,三ケ４０２２番地,,16,211,9390341,,,2022-07-15,清算の結了等,,,2015-10-05,1,,,,,レスピラール,0
234,1250002001821,登記記録の閉鎖等,0,2022-07-22,2022-07-13,若松建設有限会社,,有限会社,山口県,山口市,黒川６８８番地の５,,35,203,7530851,,,2022-07-13,清算の結了等,,,2015-10-05,1,,,,,ワカマツケンセツ,0
242,1280002004499,登記記録の閉鎖等,0,2022-07-22,2022-07-19,有限会社ＪＦＫ,,有限会社,島根県,松江市,学園２丁目２７番１３号,,32,201,6900825,,,2022-07-19,清算の結了等,,,2015-10-05,1,,,,,ジェイエフケイ,0
268,1380001004440,登記記録の閉鎖等,0,2022-07-22,2022-07-12,株式会社アスパイヤー,,株式会社,福島県,須賀川市,あおば町５１８番地,,07,207,9620811,,,2022-07-12,清算の結了等,,,2015-10-05,1,,,,,アスパイヤー,0
275,1420001015846,登記記録の閉鎖等,0,2022-07-22,2022-07-15,株式会社五所川原工販,,株式会社,青森県,つがる市,柏鷺坂清見２４３番地５,,02,209,0383101,,,2022-07-15,清算の結了等,,,2017-08-09,1,,,,,ゴショガワラコウハン,0
318,2010403007515,登記記録の閉鎖等,0,2022-07-22,2022-07-01,合同会社ＩＶＰ,,合同会社,東京都,港区,六本木１丁目６番１号泉ガーデンタワー,,13,103,1060032,,,2022-07-01,清算の結了等,,,2015-10-05,1,,,,,,0
326,2010901045553,登記記録の閉鎖等,0,2022-07-22,2022-07-08,株式会社メイク,,株式会社,東京都,世田谷区,世田谷４丁目７番３２－１０４号,,13,112,1540017,,,2022-07-08,清算の結了等,,,2020-01-17,1,,,,,メイク,0
339,2011301012482,登記記録の閉鎖等,0,2022-07-22,2022-07-15,株式会社ＪＡＣ日本設計センター,,株式会社,東京都,杉並区,高円寺南４丁目７番３号サンシャイン高円寺３階,,13,115,1660003,,,2022-07-15,清算の結了等,,,2015-10-05,1,,,,,ジェイエイシーニホンセッケイセンター,0
341,2011302014494,登記記録の閉鎖等,0,2022-07-22,2022-07-19,有限会社ティータックスアンドアカウンティングファーム,,有限会社,東京都,杉並区,南荻窪３丁目１８番７号,,13,115,1670052,,,2022-07-19,清算の結了等,,,2015-10-05,1,,,,,ティータックスアンドアカウンティングファーム,0
381,2040002070325,登記記録の閉鎖等,0,2022-07-22,2022-07-11,有限会社君津オーデオセンター,,有限会社,千葉県,君津市,大和田５丁目１番地４,,12,225,2991146,,,2022-07-11,清算の結了等,,,2015-10-05,1,,,,,キミツオーデオセンター,0
382,2040003006047,登記記録の閉鎖等,0,2022-07-22,2022-07-11,ドッグファイトインターナショナル合同会社,,合同会社,千葉県,松戸市,栄町西４丁目１１９５番４号,,12,207,2710061,,,2022-07-11,清算の結了等,,,2015-10-05,1,,,,,ドッグファイトインターナショナル,0
408,2070002007638,登記記録の閉鎖等,0,2022-07-22,2022-07-06,有限会社ギガオプト,,有限会社,群馬県,前橋市,力丸町４７０番地１,,10,201,3792134,,,2022-07-06,清算の結了等,,,2015-10-05,1,,,,,ギガオプト,0
413,2080102017668,登記記録の閉鎖等,0,2022-07-22,2022-07-20,富士ウッドランズ有限会社,,有限会社,静岡県,富士宮市,人穴１３９番地,,22,207,4180102,,,2022-07-20,清算の結了等,,,2015-10-05,1,,,,,フジウッドランズ,0
429,2110005003002,登記記録の閉鎖等,0,2022-07-22,2022-07-13,特定非営利活動法人わあなる,,その他の設立登記法人,新潟県,新潟市東区,牡丹山４丁目１０番３２号コーポラス木戸１０１号,,15,102,9500872,,,2022-07-13,清算の結了等,,,2015-10-05,1,,,,,ワアナル,0
430,2120001027243,登記記録の閉鎖等,0,2022-07-22,2022-07-11,大井不動産株式会社,,株式会社,大阪府,大阪市大正区,北村１丁目１５番２号,,27,108,5510032,,,2022-07-11,清算の結了等,,,2015-10-05,1,,,,,オオイフドウサン,0
456,2130001068245,登記記録の閉鎖等,0,2022-07-22,2022-07-08,株式会社コミュテクス,,株式会社,京都府,京都市下京区,中堂寺南町１３４番地ＡＳＴＥＭビル８階,,26,106,6008813,,,2022-07-08,清算の結了等,,,2020-12-16,1,,,,,コミュテクス,0
473,2140005021372,登記記録の閉鎖等,0,2022-07-22,2022-07-19,一般財団法人兵庫県進路選択支援機構,,その他の設立登記法人,兵庫県,神戸市中央区,下山手通４丁目２番７号,,28,110,6500011,,,2022-07-19,清算の結了等,,,2015-10-05,1,,,,,ヒョウゴケンシンロセンタクシエンキコウ,0
489,2180005016864,登記記録の閉鎖等,0,2022-07-22,2022-07-20,特定非営利活動法人みんなの高齢者介護支援の会,,その他の設立登記法人,愛知県,一宮市,木曽川町黒田字北野黒１３番地７７マンション・ニュー木曽川Ａ棟１０３号,,23,203,4930001,,,2022-07-20,清算の結了等,,,2016-07-20,1,,,,,ミンナノコウレイシャカイゴシエンノカイ,0
492,2180301007237,登記記録の閉鎖等,0,2022-07-22,2022-07-12,株式会社マルトミ近藤商店,,株式会社,愛知県,豊橋市,大井町４９番地２,,23,201,4400826,,,2022-07-12,清算の結了等,,,2015-10-05,1,,,,,,0
494,2180302019355,登記記録の閉鎖等,0,2022-07-22,2022-07-11,有限会社コウワ技研,,有限会社,愛知県,知立市,南陽１丁目２１７番地,,23,225,4720004,,,2022-07-11,清算の結了等,,,2015-10-05,1,,,,,コウワギケン,0
513,2250002016397,登記記録の閉鎖等,0,2022-07-22,2022-07-14,有限会社春花,,有限会社,山口県,下松市,大字末武上１０２番地２０,,35,207,7440024,,,2022-07-14,清算の結了等,,,2015-10-05,1,,,,,ハルカ,0
517,2280002003203,登記記録の閉鎖等,0,2022-07-22,2022-07-21,有限会社石倉企画,,有限会社,島根県,松江市,東奥谷町３８９番地３,,32,201,6900871,,,2022-07-21,清算の結了等,,,2015-10-05,1,,,,,イシクラキカク,0
521,2290001084202,登記記録の閉鎖等,0,2022-07-22,2022-07-20,地域商社ながさき株式会社,,株式会社,長崎県,南島原市,北有馬町戊２４６５番地１,,42,214,8592305,,,2022-07-20,清算の結了等,,,2019-02-08,1,,,,,チイキショウシャナガサキ,0
527,2290801023615,登記記録の閉鎖等,0,2022-07-22,2022-07-19,元和貿易株式会社,,株式会社,福岡県,北九州市小倉北区,竪町１丁目６番３０号,,40,106,8030818,,,2022-07-19,清算の結了等,,,2017-05-11,1,,,,,ゲンナボウエキ,0
530,2310002015401,登記記録の閉鎖等,0,2022-07-22,2022-07-21,有限会社長崎新聞本諫早販売センター,,有限会社,長崎県,諫早市,幸町２番１９号,,42,204,8540022,,,2022-07-21,清算の結了等,,,2015-10-05,1,,,,,ナガサキシンブンホンイサハヤハンバイセンター,0
532,2320001016928,登記記録の閉鎖等,0,2022-07-22,2022-07-15,別府温泉フルーツファーム株式会社,,株式会社,大分県,別府市,大字野田字フイガ城９００番１,,44,202,8740016,,,2022-07-15,合併による解散等,4320001008683,令和４年７月１５日大分市大字久土字芦原２１１９番地蒼生産業株式会社（4320001008683）に合併し解散,2019-03-04,1,,,,,ベップオンセンフルーツファーム,0
570,2430003007344,登記記録の閉鎖等,0,2022-07-22,2022-06-28,無料体外受精．ｃｏｍ合同会社,,合同会社,北海道,札幌市手稲区,稲穂一条２丁目６番２号,,01,109,0060031,,,2022-06-28,合併による解散等,6430003011912,令和４年６月２８日札幌市北区北三十四条西三丁目３番１３号ケンビ札幌合同会社（6430003011912）に合併し解散,2016-02-10,1,,,,,ムリョウタイガイジュセイドットコム,0
571,2430003007402,登記記録の閉鎖等,0,2022-07-22,2022-06-28,ＩＶＦ札幌合同会社,,合同会社,北海道,札幌市手稲区,稲穂一条２丁目６番２号,,01,109,0060031,,,2022-06-28,合併による解散等,6430003011912,令和４年６月２８日札幌市北区北三十四条西三丁目３番１３号ケンビ札幌合同会社（6430003011912）に合併し解散,2016-03-01,1,,,,,アイブイエフサッポロ,0
572,2440001001579,登記記録の閉鎖等,0,2022-07-22,2022-07-15,中川商事株式会社,,株式会社,北海道,函館市,西桔梗町５８９番地の５１,,01,202,0410824,,,2022-07-15,清算の結了等,,,2015-10-05,1,,,,,ナカガワショウジ,0
575,2450002009926,登記記録の閉鎖等,0,2022-07-22,2022-07-20,有限会社北海道新聞橘販売所,,有限会社,北海道,名寄市,大通南９丁目５番地１,,01,221,0960010,,,2022-07-20,清算の結了等,,,2015-10-05,1,,,,,ホッカイドウシンブンタチバナハンバイショ,0
578,3010001010390,登記記録の閉鎖等,0,2022-07-22,2022-07-05,アルテミスインターナショナル株式会社,,株式会社,東京都,千代田区,霞が関３丁目２番５号霞が関ビル４階隼あすか法律事務所,,13,101,1000013,,,2022-07-05,清算の結了等,,,2015-10-05,1,,,,,アルテミスインターナショナル,0
583,3010001113929,登記記録の閉鎖等,0,2022-07-22,2022-07-01,第一中央ロジスティクス株式会社,,株式会社,東京都,港区,三田１丁目４番２８号,,13,103,1080073,,,2022-07-01,合併による解散等,2010001113921,令和４年７月１日東京都港区三田一丁目４番２８号第一中央汽船株式会社（2010001113921）に合併し解散,2015-10-05,1,,,,,ダイイチチュウオウロジスティクス,0
591,3010002015884,登記記録の閉鎖等,0,2022-07-22,2022-07-05,有限会社連合出版,,有限会社,東京都,千代田区,神田神保町１丁目８番,,13,101,1010051,,,2022-07-05,清算の結了等,,,2015-10-05,1,,,,,レンゴウシュッパン,0
602,3010401081172,登記記録の閉鎖等,0,2022-07-22,2022-07-01,サントリー酒類株式会社,,株式会社,東京都,港区,台場２丁目３番３号,,13,103,1350091,,,2022-07-01,合併による解散等,4010401081444,令和４年７月１日東京都港区台場二丁目３番３号サントリー株式会社（4010401081444）に合併し解散,2015-10-05,1,,,,,サントリーシュルイ,0
605,3010401148987,登記記録の閉鎖等,0,2022-07-22,2022-07-08,株式会社フィールドマネージメント,,株式会社,東京都,渋谷区,神宮前５丁目７番２０号神宮前太田ビル５階,,13,113,1500001,,,2022-07-08,合併による解散等,2011001146663,令和４年６月３０日東京都渋谷区神宮前五丁目７番２０号株式会社フィールドマネージメント（2011001146663）に合併し解散,2019-11-05,1,,,,,フィールドマネージメント,0
607,3010401157600,登記記録の閉鎖等,0,2022-07-22,2022-07-12,株式会社トランスクリエイターズ,,株式会社,東京都,港区,三田２丁目２０番１７号ジェノヴィア麻布十番グリーンヴェール９０３,,13,103,1080073,,,2022-07-12,清算の結了等,,,2021-01-13,1,,,,,トランスクリエイターズ,0
623,3011001055640,登記記録の閉鎖等,0,2022-07-22,2022-07-19,株式会社日本スイス・パーフェクション,,株式会社,東京都,渋谷区,代々木４丁目３６番１９号,,13,113,1510053,,,2022-07-19,合併による解散等,8010401094418,令和４年７月１日東京都港区赤坂九丁目７番１号ミッドタウン・タワー６階株式会社アドバンスト・メディカル・ケア（8010401094418）に合併し解散,2015-10-05,1,,,,,ニホンスイスパーフェクション,0
632,3011102005453,登記記録の閉鎖等,0,2022-07-22,2022-07-15,有限会社佐藤幸男デザイン事務所,,有限会社,東京都,新宿区,下宮比町２番２８号,,13,104,1620822,,,2022-07-15,清算の結了等,,,2015-10-05,1,,,,,サトウユキオデザインジムショ,0
637,3011801025041,登記記録の閉鎖等,0,2022-07-22,2022-07-19,株式会社丸正ホールディングス,,株式会社,東京都,足立区,千住仲町２３番１号,,13,121,1200036,,,2022-07-19,清算の結了等,,,2015-10-05,1,,,,,マルショウホールディングス,0
640,3011802006164,登記記録の閉鎖等,0,2022-07-22,2022-07-15,有限会社長谷川精工,,有限会社,東京都,葛飾区,東四つ木４丁目３９番１７号,,13,122,1240014,,,2022-07-15,清算の結了等,,,2015-10-05,1,,,,,ハセガワセイコウ,0
649,3020001086372,登記記録の閉鎖等,0,2022-07-22,2022-07-11,株式会社故紙センター協和,,株式会社,神奈川県,横浜市金沢区,富岡西１丁目８番８号,,14,108,2360052,,,2022-07-11,清算の結了等,,,2015-10-05,1,,,,,,0
660,3020002090373,登記記録の閉鎖等,0,2022-07-22,2022-07-11,有限会社蔵王食品,,有限会社,神奈川県,川崎市宮前区,菅生３丁目４１番２２号,,14,136,2160015,,,2022-07-11,清算の結了等,,,2015-10-05,1,,,,,ザオウショクヒン,0
662,3020003017656,登記記録の閉鎖等,0,2022-07-22,2022-07-08,合同会社ジョイス,,合同会社,埼玉県,狭山市,大字水野３５７番地の３９,,11,215,3501317,,,2022-07-08,清算の結了等,,,2020-04-03,1,,,,,ジョイス,0
695,3050002042941,登記記録の閉鎖等,0,2022-07-22,2022-07-12,有限会社下館燃料商会,,有限会社,茨城県,筑西市,向川澄５８番地,,08,227,3091117,,,2022-07-12,清算の結了等,,,2015-10-05,1,,,,,シモダテネンリョウショウテン,0
706,3070002000526,登記記録の閉鎖等,0,2022-07-22,2022-07-06,有限会社石田サッシ販売,,有限会社,群馬県,前橋市,駒形町１１６３番地１,,10,201,3792122,,,2022-07-06,清算の結了等,,,2015-10-05,1,,,,,,0
708,3070003004088,登記記録の閉鎖等,0,2022-07-22,2022-07-05,ＢＡＯ　ＡＮ合同会社,,合同会社,群馬県,伊勢崎市,平和町３番６号,,10,204,3720041,,,2022-07-05,清算の結了等,,,2021-04-28,1,,,,,バオアン,0
775,3180002067315,登記記録の閉鎖等,0,2022-07-22,2022-07-12,有限会社松源,,有限会社,愛知県,春日井市,大泉寺町２９２番地の５８,,23,206,4860812,,,2022-07-12,清算の結了等,,,2015-10-05,1,,,,,マツゲン,0
797,3250005006725,登記記録の閉鎖等,0,2022-07-22,2022-07-15,医療法人博正会,,その他の設立登記法人,山口県,柳井市,中央１丁目１０番１７号,,35,212,7420035,,,2022-07-15,清算の結了等,,,2015-10-05,1,,,,,ハクセイカイ,0
799,3260001014458,登記記録の閉鎖等,0,2022-07-22,2022-07-20,株式会社畠山産業,,株式会社,岡山県,倉敷市,西坂１３４２番地２８６,,33,202,7100004,,,2022-07-20,清算の結了等,,,2015-10-05,1,,,,,ハタケヤマサンギョウ,0
810,3290802024990,登記記録の閉鎖等,0,2022-07-22,2022-07-20,有限会社文研,,有限会社,福岡県,田川郡福智町,赤池１４８番地の２,,40,610,8221101,,,2022-07-20,清算の結了等,,,2015-10-05,1,,,,,ブンケン,0
823,3360001007690,登記記録の閉鎖等,0,2022-07-22,2022-07-01,大和商事株式会社,,株式会社,沖縄県,うるま市,字昆布１８３９番地,,47,213,9042201,,,2022-07-01,合併による解散等,5360001007689,令和４年７月１日沖縄県うるま市字昆布１８３９番地１大和コンクリート工業株式会社（5360001007689）に合併し解散,2015-10-05,1,,,,,ヤマトショウジ,0
824,3370001003169,登記記録の閉鎖等,0,2022-07-22,2022-07-07,シグマ工業株式会社,,株式会社,宮城県,仙台市若林区,六丁の目元町６番７号,,04,103,9840014,,,2022-07-07,清算の結了等,,,2015-10-05,1,,,,,シグマコウギョウ,0
832,3390001007820,登記記録の閉鎖等,0,2022-07-22,2022-07-08,株式会社松本新聞舗,,株式会社,山形県,鶴岡市,山王町１６番１０号,,06,203,9970028,,,2022-07-08,清算の結了等,,,2015-10-05,1,,,,,マツモトシンブンホ,0
836,3420005007656,登記記録の閉鎖等,0,2022-07-22,2022-07-12,特定非営利活動法人スマイルキャリアあおもり,,その他の設立登記法人,青森県,青森市,里見２丁目３番１０号,,02,201,0380032,,,2022-07-12,清算の結了等,,,2019-12-23,1,,,,,スマイルキャリアアオモリ,0
840,3430003009182,登記記録の閉鎖等,0,2022-07-22,2022-06-28,イクシー北海道合同会社,,合同会社,北海道,札幌市手稲区,稲穂一条２丁目６番２号,,01,109,0060031,,,2022-06-28,合併による解散等,6430003011912,令和４年６月２８日札幌市北区北三十四条西三丁目３番１３号ケンビ札幌合同会社（6430003011912）に合併し解散,2018-03-14,1,,,,,イクシーホッカイドウ,0
849,3470005001704,登記記録の閉鎖等,0,2022-07-22,2022-07-20,税理士法人あしたば会計,,その他の設立登記法人,香川県,高松市,今里町７番１６号,,37,201,7600078,,,2022-07-20,清算の結了等,,,2015-10-05,1,,,,,アシタバカイケイ,0
862,4010001174895,登記記録の閉鎖等,0,2022-07-22,2022-07-01,４Ｕ　Ｌｉｆｅｃａｒｅ株式会社,,株式会社,東京都,港区,新橋５丁目１－９銀泉新橋第２ビル８階,,13,103,1050004,,,2022-07-01,合併による解散等,9010001131693,令和４年７月１日東京都港区新橋五丁目１番９号銀泉新橋第２ビル８階ユニファイド・サービス株式会社（9010001131693）に合併し解散,2016-04-12,1,,,,,フォーユーライフケア,0
873,4010005013785,登記記録の閉鎖等,0,2022-07-22,2022-07-12,特定非営利活動法人日中草の根卓球交流促進会,,その他の設立登記法人,東京都,千代田区,神田神保町１丁目１０３東京パークタワー１８０６,,13,101,1010051,,,2022-07-12,清算の結了等,,,2015-10-05,1,,,,,ニッチュウクサノネタッキュウコウリュウソクシンカイ,0
878,4010401111738,登記記録の閉鎖等,0,2022-07-22,2022-07-01,サントリービール株式会社,,株式会社,東京都,港区,台場２丁目３番３号,,13,103,1350091,,,2022-07-01,合併による解散等,4010401081444,令和４年７月１日東京都港区台場二丁目３番３号サントリー株式会社（4010401081444）に合併し解散,2015-10-05,1,,,,,サントリービール,0
895,4010901045007,登記記録の閉鎖等,0,2022-07-22,2022-07-01,株式会社ＳＥＶＥＮＴＡＧＥ,,株式会社,東京都,港区,南青山６丁目７番２号,,13,103,1070062,,,2022-07-01,合併による解散等,7010001201606,令和４年７月１日東京都港区南青山六丁目７番２号チューリンガム株式会社（7010001201606）に合併し解散,2019-10-08,1,,,,,セブンテージ,0
937,4030002029403,登記記録の閉鎖等,0,2022-07-22,2022-07-07,有限会社サン・ゴット,,有限会社,埼玉県,所沢市,大字南永井１１００番地,,11,208,3590011,,,2022-07-07,合併による解散等,1030001024234,令和４年６月３０日埼玉県所沢市南永井１１００番地株式会社ジン（1030001024234）に合併し解散,2015-10-05,1,,,,,サンゴット,0
940,4030005002976,登記記録の閉鎖等,0,2022-07-22,2022-07-05,特定非営利活動法人地域文化Ｒ＆Ｄプロジェクト,,その他の設立登記法人,埼玉県,さいたま市岩槻区,大字小溝６９１番地２,,11,110,3390003,,,2022-07-05,清算の結了等,,,2015-10-05,1,,,,,チイキブンカアールアンドディプロジェクト,0
944,4040003010146,登記記録の閉鎖等,0,2022-07-22,2022-07-11,合同会社ファーム,,合同会社,千葉県,野田市,木間ケ瀬２３０３,,12,208,2700222,,,2022-07-11,清算の結了等,,,2017-06-02,1,,,,,ファーム,0
964,4070001024509,登記記録の閉鎖等,0,2022-07-22,2022-07-05,株式会社創勝,,株式会社,群馬県,伊勢崎市,柴町３３６番地２グリーングラス２０８,,10,204,3720824,,,2022-07-05,清算の結了等,,,2015-10-05,1,,,,,ソウカツ,0
970,4100002023563,登記記録の閉鎖等,0,2022-07-22,2022-07-12,有限会社サンエイ工機,,有限会社,長野県,安曇野市,穂高８４７４番地４,,20,220,3998303,,,2022-07-12,清算の結了等,,,2015-10-05,1,,,,,サンエイコウキ,0
971,4120001085108,登記記録の閉鎖等,0,2022-07-22,2022-07-19,株式会社てんぐ,,株式会社,大阪府,大阪市中央区,心斎橋筋２丁目７番７号,,27,128,5420085,,,2022-07-19,清算の結了等,,,2015-10-05,1,,,,,テング,0
984,4120005012347,登記記録の閉鎖等,0,2022-07-22,2022-07-20,一般社団法人ソフィア・イノベーション,,その他の設立登記法人,長崎県,長崎市,恵美須町２番５号サンロイヤルＩＩＩ７０２,00105105,42,201,8500056,,,2022-07-20,清算の結了等,,,2015-10-05,1,,,,,ソフィアイノベーション,0
1039,4180301035392,登記記録の閉鎖等,0,2022-07-22,2022-07-06,Ｙ３エステート株式会社,,株式会社,愛知県,豊田市,栄町２丁目２０番地２,,23,211,4710066,,,2022-07-06,清算の結了等,,,2021-09-22,1,,,,,ワイスリーエステート,0
1041,4180302013587,登記記録の閉鎖等,0,2022-07-22,2022-07-11,有限会社燈コーポレーション,,有限会社,愛知県,豊川市,蔵子６丁目１７番地１８,,23,207,4420842,,,2022-07-11,清算の結了等,,,2015-10-05,1,,,,,トウコーポレーション,0
1042,4180305007322,登記記録の閉鎖等,0,2022-07-22,2022-07-12,医療法人畠山醫院,,その他の設立登記法人,愛知県,西尾市,寺津２丁目９番２１,,23,213,4440327,,,2022-07-12,清算の結了等,,,2015-10-05,1,,,,,ハタケヤマイイン,0
1046,4240001032106,登記記録の閉鎖等,0,2022-07-22,2022-07-15,補償測量株式会社,,株式会社,広島県,福山市,桜馬場町１番２７号,,34,207,7200051,,,2022-07-15,清算の結了等,,,2015-10-05,1,,,,,ホショウソクリョウ,0
1049,4240002044356,登記記録の閉鎖等,0,2022-07-22,2022-07-14,有限会社福山技術センター,,有限会社,広島県,福山市,新涯町６丁目１０番３７号,,34,207,7210955,,,2022-07-14,清算の結了等,,,2015-10-05,1,,,,,フクヤマギジュツセンター,0
1053,4250005007243,登記記録の閉鎖等,0,2022-07-22,2022-07-19,特定非営利活動法人ココロとカラダ健究会,,その他の設立登記法人,山口県,大島郡周防大島町,大字西屋代１４７番地,,35,305,7422103,,,2022-07-19,清算の結了等,,,2015-10-05,1,,,,,ココロトカラダケンキュウカイ,0
1062,4290001086849,登記記録の閉鎖等,0,2022-07-22,2022-07-08,ＦＣＦ株式会社,,株式会社,福岡県,柳川市,三橋町枝光２４７番地２,,40,207,8320807,,,2022-07-08,清算の結了等,,,2019-10-11,1,,,,,エフシーエフ,0
1066,4290803003910,登記記録の閉鎖等,0,2022-07-22,2022-07-21,合同会社ＵＬＵ,,合同会社,福岡県,北九州市八幡西区,陣原１丁目１６番１８号,,40,109,8070821,,,2022-07-21,清算の結了等,,,2021-08-23,1,,,,,ウル,0
1070,4310002019425,登記記録の閉鎖等,0,2022-07-22,2022-07-21,有限会社西田商店,,有限会社,長崎県,平戸市,生月町舘浦２８４番地の７,,42,207,8595705,,,2022-07-21,清算の結了等,,,2015-10-05,1,,,,,ニシダショウテン,0
1111,4430003009181,登記記録の閉鎖等,0,2022-07-22,2022-06-28,イクシー札幌合同会社,,合同会社,北海道,札幌市手稲区,稲穂一条２丁目６番２号,,01,109,0060031,,,2022-06-28,合併による解散等,6430003011912,令和４年６月２８日札幌市北区北三十四条西三丁目３番１３号ケンビ札幌合同会社（6430003011912）に合併し解散,2018-03-14,1,,,,,イクシーサッポロ,0
1115,4470002015978,登記記録の閉鎖等,0,2022-07-22,2022-07-14,有限会社白梅旅館,,有限会社,香川県,観音寺市,栄町３丁目４番６号,,37,205,7680072,,,2022-07-14,清算の結了等,,,2015-10-05,1,,,,,シラウメリョカン,0
1123,5010001083278,登記記録の閉鎖等,0,2022-07-22,2022-07-08,株式会社エヌ・ティ・ティ・ロジスコインフォメーションサービス,,株式会社,東京都,大田区,平和島１丁目１番２号,,13,111,1430006,,,2022-07-08,合併による解散等,2010001012396,令和４年７月１日東京都大田区平和島一丁目１番２号株式会社エヌ・ティ・ティ・ロジスコ（2010001012396）に合併し解散,2015-10-05,1,,,,,,0
1138,5010401096359,登記記録の閉鎖等,0,2022-07-22,2022-07-04,株式会社ボビーヌ,,株式会社,東京都,港区,赤坂９丁目６番３９号レジディアタワー乃木坂１００１号室,,13,103,1070052,,,2022-07-04,清算の結了等,,,2015-10-05,1,,,,,ボビーヌ,0
1176,5011702017078,登記記録の閉鎖等,0,2022-07-22,2022-07-06,有限会社コンフィアンス,,有限会社,東京都,中央区,八丁堀３丁目１７番１６号セントラル京橋三立ビル別館９０３,,13,102,1040032,,,2022-07-06,清算の結了等,,,2015-10-05,1,,,,,コンフィアンス,0
1190,5012702005246,登記記録の閉鎖等,0,2022-07-22,2022-07-20,有限会社植正,,有限会社,東京都,西東京市,西原町５丁目１番３号,,13,229,1880004,,,2022-07-20,清算の結了等,,,2015-10-05,1,,,,,ウエショウ,0
1199,5020001096766,登記記録の閉鎖等,0,2022-07-22,2022-07-15,Ｂｏｎｄ　Ｂｕｓｉｎｅｓｓ　Ｄｅｖｅｌｏｐｍｅｎｔ株式会社,,株式会社,静岡県,浜松市中区,蜆塚３丁目７番２２号,00079766,22,131,4328018,,,2022-07-15,清算の結了等,,,2015-10-05,1,,,,,ボンドビジネスディベロップメント,0
1224,5040002090213,登記記録の閉鎖等,0,2022-07-22,2022-07-11,有限会社菅谷健デザインルーム,,有限会社,千葉県,柏市,南逆井４丁目２７番３８号,,12,217,2770043,,,2022-07-11,清算の結了等,,,2015-10-05,1,,,,,スガヤケンデザインルーム,0
1230,5050001016804,登記記録の閉鎖等,0,2022-07-22,2022-07-11,株式会社藤條会計事務所,,株式会社,茨城県,つくば市,城山３０番地の１７,,08,220,3001251,,,2022-07-11,清算の結了等,,,2015-10-05,1,,,,,トウジョウカイケイジムショ,0
1248,5060002033509,登記記録の閉鎖等,0,2022-07-22,2022-07-11,有限会社海老沼製作所,,有限会社,栃木県,栃木市,藤岡町部屋２２０番地,,09,203,3290315,,,2022-07-11,清算の結了等,,,2015-10-05,1,,,,,エビヌマセイサクショ,0
1251,5070001012768,登記記録の閉鎖等,0,2022-07-22,2022-07-19,ＴＴＲ株式会社,,株式会社,群馬県,高崎市,岩押町２０番１号,,10,202,3700044,,,2022-07-19,合併による解散等,8010001220860,令和４年７月１日東京都千代田区丸の内三丁目４番１号新国際ビル６階トクミエレクトロニクス株式会社（8010001220860）に合併し解散,2015-10-05,1,,,,,ティーティーアール,0
1264,5120001046521,登記記録の閉鎖等,0,2022-07-22,2022-07-11,株式会社波佐出無,,株式会社,大阪府,大阪市西区,南堀江４丁目１８番４号,,27,106,5500015,,,2022-07-11,清算の結了等,,,2022-05-24,1,,,,,パサデイナ,0
1270,5120001204748,登記記録の閉鎖等,0,2022-07-22,2022-07-14,シオノギマーケティングソリューションズ株式会社,,株式会社,大阪府,大阪市中央区,今橋３丁目３番１３号,,27,128,5410042,,,2022-07-14,合併による解散等,8120001204745,令和４年７月１日大阪市中央区道修町四丁目７番６号シオノギビジネスパートナー株式会社（8120001204745）に合併し解散,2017-04-12,1,,,,,シオノギマーケティングソリューションズ,0
1311,5150005008985,登記記録の閉鎖等,0,2022-07-22,2022-07-14,一般社団法人大和郡山ささえあい広場’こころ’,,その他の設立登記法人,奈良県,大和郡山市,額田部北町１２２５番地１０,,29,203,6391037,,,2022-07-14,清算の結了等,,,2018-05-09,1,,,,,ヤマトコオリヤマササエアイヒロバココロ,0
1318,5180001109033,登記記録の閉鎖等,0,2022-07-22,2022-07-15,株式会社ジェイ,,株式会社,愛知県,名古屋市緑区,武路町２６１３番地,,23,114,4580917,,,2022-07-15,清算の結了等,,,2015-10-05,1,,,,,ジェイ,0
1337,5240001003205,登記記録の閉鎖等,0,2022-07-22,2022-07-14,株式会社工建,,株式会社,広島県,広島市西区,庚午中２丁目１９番２８号,,34,104,7330822,,,2022-07-14,清算の結了等,,,2015-10-05,1,,,,,コウケン,0
1340,5260001033290,登記記録の閉鎖等,0,2022-07-22,2022-07-20,株式会社ＴＹ．ｆａｃｔ,,株式会社,岡山県,倉敷市,川西町１１‐９‐４０２,,33,202,7100821,,,2022-07-20,清算の結了等,,,2019-07-02,1,,,,,ティーワイファクト,0
1341,5290001082228,登記記録の閉鎖等,0,2022-07-22,2022-07-11,株式会社Ｖｏｘ　Ｄｉｇｉｔａｌ,,株式会社,福岡県,福岡市中央区,天神２丁目３－１０,,40,133,8100001,,,2022-07-11,清算の結了等,,,2018-08-03,1,,,,,ボックスデジタル,0
1347,5310002004137,登記記録の閉鎖等,0,2022-07-22,2022-07-20,有限会社西坂産業,,有限会社,長崎県,長崎市,八千代町１番１４号,,42,201,8500043,,,2022-07-20,清算の結了等,,,2015-10-05,1,,,,,ニシザカサンギョウ,0
1351,5330002026245,登記記録の閉鎖等,0,2022-07-22,2022-07-07,有限会社久武電設,,有限会社,熊本県,八代市,大福寺町６９３番地の３,,43,202,8660082,,,2022-07-07,清算の結了等,,,2015-10-05,1,,,,,,0
1353,5350005001607,登記記録の閉鎖等,0,2022-07-22,2022-07-19,みやざき福祉生活協同組合,,その他の設立登記法人,宮崎県,宮崎市,村角町中尊１８１８番,,45,201,8800837,,,2022-07-19,清算の結了等,,,2015-10-05,1,,,,,ミヤザキフクシ,0
1367,5410003003524,登記記録の閉鎖等,0,2022-07-22,2022-07-12,合同会社あきた風の商社,,合同会社,秋田県,由利本荘市,岩渕下７１－１,,05,210,0150834,,,2022-07-12,清算の結了等,,,2021-04-14,1,,,,,アキタカゼノショウシャ,0
1373,5430003011839,登記記録の閉鎖等,0,2022-07-22,2022-06-28,コンパクション札幌合同会社,,合同会社,北海道,札幌市北区,北三十四条西３丁目３番１３号,,01,102,0010034,,,2022-06-28,合併による解散等,6430003011912,令和４年６月２８日札幌市北区北三十四条西三丁目３番１３号ケンビ札幌合同会社（6430003011912）に合併し解散,2020-09-04,1,,,,,コンパクションサッポロ,0
1429,6011001097671,登記記録の閉鎖等,0,2022-07-22,2022-07-06,株式会社エミークス,,株式会社,東京都,新宿区,西新宿３丁目２番１１号,,13,104,1600023,,,2022-07-06,合併による解散等,6011001062238,令和４年７月１日東京都新宿区西新宿三丁目２番１１号株式会社アペックス・インターナショナル（6011001062238）に合併し解散,2015-10-05,1,,,,,エミークス,0
1441,6011502015272,登記記録の閉鎖等,0,2022-07-22,2022-07-20,有限会社オフィス・徳永,,有限会社,東京都,北区,滝野川７丁目９番１１－２０９号,,13,117,1140023,,,2022-07-20,清算の結了等,,,2015-10-05,1,,,,,オフィストクナガ,0
1457,6020002087581,登記記録の閉鎖等,0,2022-07-22,2022-07-08,有限会社耶麻製作所,,有限会社,神奈川県,川崎市宮前区,菅生３丁目２７番１４号,,14,136,2160015,,,2022-07-08,清算の結了等,,,2015-10-05,1,,,,,ヤマセイサクショ,0
1460,6021001051149,登記記録の閉鎖等,0,2022-07-22,2022-07-15,株式会社フィフティ・クラフト,,株式会社,神奈川県,相模原市中央区,富士見３丁目３－２１,,14,152,2520236,,,2022-07-15,清算の結了等,,,2015-10-05,1,,,,,フィフティクラフト,0
1528,6120001067748,登記記録の閉鎖等,0,2022-07-22,2022-07-14,東洋エフピー株式会社,,株式会社,大阪府,大阪市北区,天神橋３丁目２番５号,,27,127,5300041,,,2022-07-14,清算の結了等,,,2015-10-05,1,,,,,トウヨウエフピー,0
1529,6120001080767,登記記録の閉鎖等,0,2022-07-22,2022-07-14,シオノギ総合サービス株式会社,,株式会社,大阪府,大阪市中央区,道修町４丁目７番６号,,27,128,5410045,,,2022-07-14,合併による解散等,8120001204745,令和４年７月１日大阪市中央区道修町四丁目７番６号シオノギビジネスパートナー株式会社（8120001204745）に合併し解散,2015-10-05,1,,,,,シオノギソウゴウサービス,0
1541,6120005014531,登記記録の閉鎖等,0,2022-07-22,2022-07-19,公益財団法人アーツフランダース・ジャパン,,その他の設立登記法人,東京都,武蔵野市,吉祥寺東町４丁目２番２号,,13,203,1800002,,,2022-07-19,清算の結了等,,,2015-10-05,1,,,,,アーツフランダースジャパン,0
1547,6120903002158,登記記録の閉鎖等,0,2022-07-22,2022-07-20,大阪生物教育合同会社,,合同会社,大阪府,高槻市,道鵜町４丁目１４番４号,,27,207,5690011,,,2022-07-20,清算の結了等,,,2017-03-14,1,,,,,オオサカセイブツキョウイク,0
1571,6150001006587,登記記録の閉鎖等,0,2022-07-22,2022-07-21,辻本プラスチック工業株式会社,00042771,株式会社,奈良県,天理市,別所町２８５番地,,29,204,6320018,,,2022-07-21,清算の結了等,,,2015-10-05,1,,,,,,0
1580,6170005006755,登記記録の閉鎖等,0,2022-07-22,2022-07-21,みなべ町漁業生産組合,,その他の設立登記法人,和歌山県,日高郡みなべ町,堺５７４番地,,30,391,6450003,,,2022-07-21,清算の結了等,,,2019-06-06,1,,,,,ミナベチョウ,0
1583,6180002000181,登記記録の閉鎖等,0,2022-07-22,2022-07-19,有限会社今井建具製作所,,有限会社,愛知県,名古屋市守山区,川西２丁目１２１６番地,,23,113,4630080,,,2022-07-19,清算の結了等,,,2015-10-05,1,,,,,イマイタテグセイサクショ,0
1584,6180002029857,登記記録の閉鎖等,0,2022-07-22,2022-07-08,有限会社イノバ,,有限会社,三重県,四日市市,川原町７番２０号,,24,202,5100033,,,2022-07-08,清算の結了等,,,2015-10-05,1,,,,,イノバ,0
1590,6190002010700,登記記録の閉鎖等,0,2022-07-22,2022-07-11,有限会社丸清物産,,有限会社,三重県,鳥羽市,安楽島町１２６４番地９,,24,211,5170021,,,2022-07-11,清算の結了等,,,2015-10-05,1,,,,,マルセイブッサン,0
1607,6270001004744,登記記録の閉鎖等,0,2022-07-22,2022-07-15,株式会社ゼンシン工業,,株式会社,鳥取県,米子市,彦名町５３４４番地１,,31,202,6830854,,,2022-07-15,清算の結了等,,,2015-10-05,1,,,,,ゼンシンコウギョウ,0
1608,6270001007359,登記記録の閉鎖等,0,2022-07-22,2022-07-13,宝翔運送株式会社,,株式会社,鳥取県,鳥取市,河原町鮎ヶ丘１１３６番地,,31,201,6801208,,,2022-07-13,清算の結了等,,,2017-09-14,1,,,,,ホウショウウンソウ,0
1616,6290801019790,登記記録の閉鎖等,0,2022-07-22,2022-07-19,福島リフトサービス株式会社,,株式会社,福岡県,北九州市八幡西区,則松６丁目９番４２号,,40,109,8070831,,,2022-07-19,清算の結了等,,,2015-10-05,1,,,,,フクシマリフトサービス,0
1620,6330001000910,登記記録の閉鎖等,0,2022-07-22,2022-07-04,株式会社近代地所,,株式会社,熊本県,熊本市東区,東野３丁目６番１号,,43,102,8612106,,,2022-07-04,清算の結了等,,,2015-10-05,1,,,,,キンダイチショ,0
1641,6370402002304,登記記録の閉鎖等,0,2022-07-22,2022-07-01,有限会社くりこまバス,,有限会社,宮城県,登米市,中田町石森字室木１３３番地１,,04,212,9870601,,,2022-07-01,合併による解散等,1370402001450,令和４年７月１日宮城県登米市中田町石森字牡丹埣３２７番地２石ノ森観光株式会社（1370402001450）に合併し解散,2015-10-05,1,,,,,クリコマバス,0
1644,6390001008741,登記記録の閉鎖等,0,2022-07-22,2022-07-11,最上工業株式会社,,株式会社,山形県,最上郡戸沢村,大字津谷２１００番地,,06,367,9996311,,,2022-07-11,清算の結了等,,,2015-10-05,1,,,,,モガミコウギョウ,0
1646,6390002015407,登記記録の閉鎖等,0,2022-07-22,2022-07-11,有限会社アグリサービス勧進代,,有限会社,山形県,長井市,川原沢２２８番地,,06,209,9930062,,,2022-07-11,清算の結了等,,,2015-10-05,1,,,,,アグリサービスカンジンダイ,0
1656,6430003011838,登記記録の閉鎖等,0,2022-07-22,2022-06-28,コンパクション東京合同会社,,合同会社,北海道,札幌市北区,北三十四条西３丁目３番１３号,,01,102,0010034,,,2022-06-28,合併による解散等,6430003011912,令和４年６月２８日札幌市北区北三十四条西三丁目３番１３号ケンビ札幌合同会社（6430003011912）に合併し解散,2020-09-04,1,,,,,コンパクショントウキョウ,0
1666,7010001011971,登記記録の閉鎖等,0,2022-07-22,2022-07-19,株式会社エス・アイ・エス,,株式会社,東京都,江戸川区,東瑞江２丁目１０番２１号,,13,123,1320014,,,2022-07-19,清算の結了等,,,2015-10-05,1,,,,,エスアイエス,0
1678,7010005028772,登記記録の閉鎖等,0,2022-07-22,2022-07-12,ＥＣＢ特定目的会社,,その他の設立登記法人,東京都,千代田区,丸の内３丁目１番１号東京共同会計事務所内,,13,101,1000005,,,2022-07-12,清算の結了等,,,2018-07-06,1,,,,,イーシービー,0
1705,7010903003513,登記記録の閉鎖等,0,2022-07-22,2022-07-15,レイボンドアセットマネジメント合同会社,,合同会社,東京都,世田谷区,等々力７丁目２３番４号,,13,112,1580082,,,2022-07-15,清算の結了等,,,2017-02-23,1,,,,,レイボンドアセットマネジメント,0
1707,7011001048624,登記記録の閉鎖等,0,2022-07-22,2022-07-07,株式会社ロアライブ,,株式会社,東京都,渋谷区,神宮前６丁目２３番４号,,13,113,1500001,,,2022-07-07,清算の結了等,,,2015-10-05,1,,,,,ロアライブ,0
1717,7011105008284,登記記録の閉鎖等,0,2022-07-22,2022-07-15,一般社団法人東京起業推進センター,,その他の設立登記法人,東京都,新宿区,神楽坂１丁目３番地,,13,104,1620825,,,2022-07-15,清算の結了等,,,2018-04-05,1,,,,,トウキョウキギョウスイシンセンター,0
1736,7012702002464,登記記録の閉鎖等,0,2022-07-22,2022-07-20,有限会社加賀電気工事,,有限会社,東京都,東村山市,恩多町３丁目２６番地３,,13,213,1890011,,,2022-07-20,清算の結了等,,,2015-10-05,1,,,,,カガデンキコウジ,0
1777,7040003009986,登記記録の閉鎖等,0,2022-07-22,2022-07-11,株式会社エーワ,,株式会社,千葉県,野田市,木間ケ瀬２３０３,,12,208,2700222,,,2022-07-11,清算の結了等,,,2017-04-28,1,,,,,エーワ,0
1778,7040003010589,登記記録の閉鎖等,0,2022-07-22,2022-07-11,合同会社Ｋｅｅｐ　Ｓｍｉｌｉｎｇ,,合同会社,千葉県,山武市,矢部３７１番地,,12,237,2891215,,,2022-07-11,清算の結了等,,,2017-09-15,1,,,,,キープスマイリング,0
1795,7080002006295,登記記録の閉鎖等,0,2022-07-22,2022-07-22,有限会社ワークウェル,,有限会社,静岡県,静岡市駿河区,西島２０３番地の２,,22,102,4228045,,,2022-07-22,清算の結了等,,,2015-10-05,1,,,,,ワークウェル,0
1802,7080105000666,登記記録の閉鎖等,0,2022-07-22,2022-07-20,特定非営利活動法人沼津文化協会,,その他の設立登記法人,静岡県,沼津市,本字下一丁田９００番地の１,,22,203,4100863,,,2022-07-20,清算の結了等,,,2015-10-05,1,,,,,ヌマヅブンカキョウカイ,0
1804,7100002018164,登記記録の閉鎖等,0,2022-07-22,2022-07-12,有限会社西山建具店,,有限会社,長野県,中野市,大字三ツ和１５５１番ロ号地,,20,211,3830043,,,2022-07-12,清算の結了等,,,2015-10-05,1,,,,,ニシヤマタテグテン,0
1810,7120001165906,登記記録の閉鎖等,0,2022-07-22,2022-07-11,エスチュリー環境技術株式会社,,株式会社,大阪府,大阪市住之江区,北島１丁目２番１－７０５号,,27,125,5590014,,,2022-07-11,清算の結了等,,,2015-10-05,1,,,,,エスチュリーカンキョウギジュツ,0
1825,7120102001480,登記記録の閉鎖等,0,2022-07-22,2022-07-19,有限会社ケーアド,,有限会社,大阪府,堺市北区,南花田町１０７番地の１０,,27,146,5918011,,,2022-07-19,清算の結了等,,,2015-10-05,1,,,,,ケーアド,0
1837,7130003004433,登記記録の閉鎖等,0,2022-07-22,2022-07-08,合同会社パインズエステイト,,合同会社,京都府,福知山市,字川北２５３番地,,26,201,6200004,,,2022-07-08,清算の結了等,,,2015-11-12,1,,,,,パインズエステイト,0
1860,7180001016005,登記記録の閉鎖等,0,2022-07-22,2022-07-19,株式会社アド・プロ,,株式会社,愛知県,名古屋市東区,泉１丁目７番３４号,,23,102,4610001,,,2022-07-19,清算の結了等,,,2015-10-05,1,,,,,アドプロ,0
1887,7250001004927,登記記録の閉鎖等,0,2022-07-22,2022-07-15,株式会社川口築炉,,株式会社,山口県,宇部市,大字西岐波１５３９番地８,,35,202,7550151,,,2022-07-15,清算の結了等,,,2015-10-05,1,,,,,,0
1893,7280002010203,登記記録の閉鎖等,0,2022-07-22,2022-07-21,有限会社林電機工業所,,有限会社,島根県,益田市,あけぼの西町１２番地３,,32,204,6980025,,,2022-07-21,清算の結了等,,,2015-10-05,1,,,,,ハヤシデンキコウギョウショ,0
1911,7330002028215,登記記録の閉鎖等,0,2022-07-22,2022-07-07,有限会社五和中央薬局,,有限会社,熊本県,天草市,五和町御領６４４２番地,,43,215,8632201,,,2022-07-07,清算の結了等,,,2015-10-05,1,,,,,イツワチュウオウヤッキョク,0
1937,7430001076007,登記記録の閉鎖等,0,2022-07-22,2022-07-06,ＢＪＫジャパン株式会社,,株式会社,北海道,札幌市中央区,南七条西６丁目２８９番地６,,01,101,0640807,,,2022-07-06,清算の結了等,,,2018-03-02,1,,,,,ビージェーケージャパン,0
1941,7430003010236,登記記録の閉鎖等,0,2022-07-22,2022-06-28,ブラスト札幌合同会社,,合同会社,北海道,札幌市手稲区,稲穂一条２丁目６番２号,,01,109,0060031,,,2022-06-28,合併による解散等,6430003011912,令和４年６月２８日札幌市北区北三十四条西三丁目３番１３号ケンビ札幌合同会社（6430003011912）に合併し解散,2019-03-18,1,,,,,ブラストサッポロ,0
1942,7430003010558,登記記録の閉鎖等,0,2022-07-22,2022-06-28,ブラスト北海道合同会社,,合同会社,北海道,札幌市手稲区,稲穂一条２丁目６番２号,,01,109,0060031,,,2022-06-28,合併による解散等,6430003011912,令和４年６月２８日札幌市北区北三十四条西三丁目３番１３号ケンビ札幌合同会社（6430003011912）に合併し解散,2019-06-21,1,,,,,ブラストホッカイドウ,0
1947,7450002009913,登記記録の閉鎖等,0,2022-07-22,2022-07-20,有限会社ファイブクリーン,,有限会社,北海道,名寄市,西十三条南１１丁目,,01,221,0960023,,,2022-07-20,清算の結了等,,,2015-10-05,1,,,,,ファイブクリーン,0
1948,7450005000002,登記記録の閉鎖等,0,2022-07-22,2022-07-21,医療法人社団淳彩会永山循環器科クリニック,,その他の設立登記法人,北海道,旭川市,永山七条４丁目２番１号,,01,204,0798417,,,2022-07-21,清算の結了等,,,2015-10-05,1,,,,,ジュンサイカイナガヤマジュンカンキカクリニック,0
1981,8010502009472,登記記録の閉鎖等,0,2022-07-22,2022-07-11,有限会社ヒューテック,,有限会社,千葉県,市川市,南八幡４丁目６番１４号,,12,203,2720023,,,2022-07-11,清算の結了等,,,2015-10-05,1,,,,,ヒューテック,0
2000,8011101079329,登記記録の閉鎖等,0,2022-07-22,2022-07-19,株式会社Ｋ－Ｆｏｒｅｓｔ,,株式会社,東京都,練馬区,上石神井１丁目５番１３号,,13,120,1770044,,,2022-07-19,清算の結了等,,,2017-01-24,1,,,,,ケーフォレスト,0
2014,8011701023644,登記記録の閉鎖等,0,2022-07-22,2022-07-08,株式会社ｍｏｇｅｔｔｏ,,株式会社,東京都,江戸川区,中葛西８丁目１番８号アソシアード１０１,,13,123,1340083,,,2022-07-08,清算の結了等,,,2020-07-28,1,,,,,モゼ,0
2049,8030002050009,登記記録の閉鎖等,0,2022-07-22,2022-07-08,有限会社武藤眼光学研究所,,有限会社,埼玉県,三郷市,早稲田８丁目１６番地８,,11,237,3410018,,,2022-07-08,清算の結了等,,,2015-10-05,1,,,,,ムトウガンコウガクケンキュウジョ,0
2063,8040003007221,登記記録の閉鎖等,0,2022-07-22,2022-07-11,合同会社リレコム,,合同会社,千葉県,松戸市,二十世紀が丘萩町１７６番地,,12,207,2710086,,,2022-07-11,清算の結了等,,,2015-10-05,1,,,,,リレコム,0
2081,8070001025908,登記記録の閉鎖等,0,2022-07-22,2022-07-06,株式会社ユナイシステム,,株式会社,群馬県,邑楽郡邑楽町,大字中野２１５０番地,,10,525,3700603,,,2022-07-06,清算の結了等,,,2015-10-05,1,,,,,ユナイシステム,0
2083,8080002003639,登記記録の閉鎖等,0,2022-07-22,2022-07-22,有限会社竹下金属製作所,,有限会社,静岡県,静岡市駿河区,登呂２丁目７番３２号,,22,102,4228033,,,2022-07-22,清算の結了等,,,2015-10-05,1,,,,,タケシタキンゾクセイサクショ,0
2084,8080102008199,登記記録の閉鎖等,0,2022-07-22,2022-07-15,有限会社久保田工業,,有限会社,静岡県,伊豆の国市,北江間１１６４番地の２０,,22,225,4102223,,,2022-07-15,清算の結了等,,,2015-10-05,1,,,,,クボタコウギョウ,0
2087,8100002012331,登記記録の閉鎖等,0,2022-07-22,2022-07-12,有限会社大高設計事務所,,有限会社,長野県,小諸市,大字和田６２７番地４６,,20,208,3840093,,,2022-07-12,清算の結了等,,,2015-10-05,1,,,,,オオタカセッケイジムショ,0
2092,8110005001784,登記記録の閉鎖等,0,2022-07-22,2022-07-15,特定非営利活動法人新潟ユニバーサルデザインハウジング,,その他の設立登記法人,新潟県,新潟市北区,木崎８０２番地１８,,15,101,9503304,,,2022-07-15,清算の結了等,,,2015-10-05,1,,,,,ニイガタユニバーサルデザインハウジング,0
2110,8120101042888,登記記録の閉鎖等,0,2022-07-22,2022-07-19,株式会社ユニックス,,株式会社,大阪府,泉大津市,東助松町２丁目３番４－４０９号,,27,206,5950006,,,2022-07-19,清算の結了等,,,2015-10-05,1,,,,,ユニックス,0
2147,8180001057972,登記記録の閉鎖等,0,2022-07-22,2022-07-15,株式会社後藤事務所,,株式会社,愛知県,名古屋市千種区,松軒２丁目１１番１０号,,23,101,4640084,,,2022-07-15,清算の結了等,,,2015-10-05,1,,,,,ゴトウジムショ,0
2149,8180001091427,登記記録の閉鎖等,0,2022-07-22,2022-07-14,株式会社ＢＥＳＴ　ＰＲＩＣＥ,,株式会社,愛知県,豊明市,沓掛町十王堂４７番地１０,,23,229,4701101,,,2022-07-14,清算の結了等,,,2015-10-05,1,,,,,ベストプライス,0
2162,8200003003286,登記記録の閉鎖等,0,2022-07-22,2022-07-19,合同会社えいわ,,合同会社,岐阜県,岐阜市,今町４丁目２２番地,,21,201,5008023,,,2022-07-19,清算の結了等,,,2015-10-05,1,,,,,エイワ,0
2168,8240001016261,登記記録の閉鎖等,0,2022-07-22,2022-07-19,株式会社ライズプロジェクト,,株式会社,広島県,広島市中区,八丁堀１番８号エイトビル７０２号,,34,101,7300013,,,2022-07-19,清算の結了等,,,2015-10-05,1,,,,,ライズプロジェクト,0
2177,8250002016177,登記記録の閉鎖等,0,2022-07-22,2022-07-14,有限会社ワイシー・メディア,,有限会社,山口県,周南市,新宿通６丁目２番７号,,35,215,7450056,,,2022-07-14,清算の結了等,,,2015-10-05,1,,,,,ワイシーメディア,0
2211,8400002012425,登記記録の閉鎖等,0,2022-07-22,2022-07-20,有限会社西野工業,,有限会社,岩手県,二戸郡一戸町,一戸字樋ノ口４番地１１,00085685,03,524,0285312,,,2022-07-20,清算の結了等,,,2015-10-05,1,,,,,ニシノコウギョウ,0
2213,8410005006308,登記記録の閉鎖等,0,2022-07-22,2022-07-13,特定非営利活動法人子ども＆シニアカフェ楽＆モモ,,その他の設立登記法人,秋田県,能代市,南元町５８番地１,,05,202,0160832,,,2022-07-13,清算の結了等,,,2020-05-13,1,,,,,コドモアンドシニアカフェラクアンドモモ,0
2225,8460102006123,登記記録の閉鎖等,0,2022-07-22,2022-07-15,武内石材有限会社,,有限会社,北海道,足寄郡足寄町,栄町２丁目９８番地,,01,647,0893718,,,2022-07-15,清算の結了等,,,2015-10-05,1,,,,,タケウチセキザイ,0
2227,8500001015294,登記記録の閉鎖等,0,2022-07-22,2022-07-15,株式会社宇和島運輸観光社,,株式会社,愛媛県,宇和島市,住吉町３丁目２番１８号,,38,203,7980003,,,2022-07-15,清算の結了等,,,2015-10-05,1,,,,,ウワジマウンユカンコウシャ,0
2239,9010001114665,登記記録の閉鎖等,0,2022-07-22,2022-06-30,アジェナ・バイオサイエンス株式会社,,株式会社,東京都,渋谷区,渋谷２丁目１０番１４号青山アルファビル５階,,13,113,1500002,,,2022-06-30,清算の結了等,,,2015-10-05,1,,,,,アジェナバイオサイエンス,0
2254,9010003020936,登記記録の閉鎖等,0,2022-07-22,2022-07-05,第二十六発電合同会社,,合同会社,東京都,文京区,本郷４丁目９番２２号,,13,105,1130033,,,2022-07-05,清算の結了等,,,2015-10-05,1,,,,,ダイニジュウロクハツデン,0
2260,9010101012546,登記記録の閉鎖等,0,2022-07-22,2022-07-19,株式会社ｏｌｉｖａ,,株式会社,東京都,八王子市,大船町２３１番地１６,,13,201,1930935,,,2022-07-19,合併による解散等,9010001137914,令和４年７月１日東京都千代田区四番町６番株式会社デジタルシフト（9010001137914）に合併し解散,2016-10-31,1,,,,,,0
2265,9010401130056,登記記録の閉鎖等,0,2022-07-22,2022-07-01,サントリーＢＷＳ株式会社,,株式会社,東京都,港区,台場２丁目３番３号,,13,103,1350091,,,2022-07-01,合併による解散等,4010401081444,令和４年７月１日東京都港区台場二丁目３番３号サントリー株式会社（4010401081444）に合併し解散,2017-03-09,1,,,,,サントリービーダブリュエス,0
2300,9011601016805,登記記録の閉鎖等,0,2022-07-22,2022-07-19,ＦＡＭ株式会社,,株式会社,東京都,練馬区,早宮２丁目４番１８号,,13,120,1790085,,,2022-07-19,清算の結了等,,,2015-10-05,1,,,,,エフエーエム,0
2319,9020001079998,登記記録の閉鎖等,0,2022-07-22,2022-07-08,株式会社エスピーホーム,,株式会社,神奈川県,川崎市中原区,新城５丁目８番２３号,,14,133,2110044,,,2022-07-08,清算の結了等,,,2015-10-05,1,,,,,エスピーホーム,0
2334,9030001093701,登記記録の閉鎖等,0,2022-07-22,2022-07-07,株式会社ＳＡＩマネージメントカンパニー,,株式会社,埼玉県,新座市,東北１丁目５番１１号,,11,230,3520001,,,2022-07-07,清算の結了等,,,2015-10-05,1,,,,,エスエイアイマネージメントカンパニー,0
2339,9030003001810,登記記録の閉鎖等,0,2022-07-22,2022-07-08,合資会社浅井商店,,合資会社,埼玉県,草加市,手代１丁目３４番２０号,,11,221,3400021,,,2022-07-08,清算の結了等,,,2015-10-05,1,,,,,アサイショウテン,0
2364,9080001008687,登記記録の閉鎖等,0,2022-07-22,2022-07-20,株式会社テレトピア,,株式会社,静岡県,静岡市清水区,西久保４７２番地の４,,22,103,4240038,,,2022-07-20,清算の結了等,,,2015-10-05,1,,,,,テレトピア,0
2365,9080001012846,登記記録の閉鎖等,0,2022-07-22,2022-07-21,株式会社共立管財,,株式会社,静岡県,静岡市清水区,入江南町１１番３号,,22,103,4240832,,,2022-07-21,清算の結了等,,,2015-10-05,1,,,,,キョウリツカンザイ,0
2380,9120001132326,登記記録の閉鎖等,0,2022-07-22,2022-07-11,株式会社ライフＢＯＸ,,株式会社,大阪府,大阪市北区,長柄中１丁目２番１－４０３号,,27,127,5310062,,,2022-07-11,清算の結了等,,,2015-10-05,1,,,,,,0
2399,9140001105511,登記記録の閉鎖等,0,2022-07-22,2022-07-19,株式会社中島土木,,株式会社,兵庫県,伊丹市,口酒井１丁目４番４１号,,28,207,6640844,,,2022-07-19,清算の結了等,,,2017-03-23,1,,,,,ナカジマドボク,0
2409,9170002009460,登記記録の閉鎖等,0,2022-07-22,2022-07-21,有限会社セレモニーセンター杉本,,有限会社,和歌山県,日高郡みなべ町,芝５７４番地の４,,30,391,6450002,,,2022-07-21,清算の結了等,,,2015-10-05,1,,,,,セレモニーセンタースギモト,0
2411,9180001038039,登記記録の閉鎖等,0,2022-07-22,2022-07-06,株式会社中京テレビ事業,,株式会社,愛知県,名古屋市中村区,平池町４丁目６０番地１１,,23,105,4530872,,,2022-07-06,合併による解散等,4180001009688,令和４年７月１日名古屋市中村区平池町四丁目６０番地１１株式会社中京テレビクリエイション（4180001009688）に合併し解散,2015-10-05,1,,,,,チュウキョウテレビジギョウ,0
2415,9180001097968,登記記録の閉鎖等,0,2022-07-22,2022-07-19,服部水道工業株式会社,,株式会社,愛知県,あま市,甚目寺須原７６番地,,23,237,4901111,,,2022-07-19,清算の結了等,,,2015-10-05,1,,,,,ハットリスイドウコウギョウ,0
2422,9180002056007,登記記録の閉鎖等,0,2022-07-22,2022-07-15,有限会社かね朋水産,,有限会社,愛知県,名古屋市瑞穂区,田辺通６丁目３４番地,,23,108,4670027,,,2022-07-15,清算の結了等,,,2015-10-05,1,,,,,カネトモスイサン,0
2423,9180002081285,登記記録の閉鎖等,0,2022-07-22,2022-07-19,有限会社朋楽,,有限会社,愛知県,稲沢市,稲沢町下田７０番地,,23,220,4928217,,,2022-07-19,清算の結了等,,,2015-10-05,1,,,,,ホウラク,0
2425,9180005003385,登記記録の閉鎖等,0,2022-07-22,2022-07-20,矢田本通商店街振興組合,,その他の設立登記法人,愛知県,名古屋市東区,矢田１丁目５番３３号,,23,102,4610040,,,2022-07-20,清算の結了等,,,2015-10-05,1,,,,,ヤダホンドオリ,0
2432,9200002010316,登記記録の閉鎖等,0,2022-07-22,2022-07-21,有限会社安藤シシュウ,,有限会社,岐阜県,羽島市,福寿町本郷５０７番地の５,,21,209,5016254,,,2022-07-21,清算の結了等,,,2015-10-05,1,,,,,アンドウシシュウ,0
2433,9200002012907,登記記録の閉鎖等,0,2022-07-22,2022-07-20,有限会社ティービー,,有限会社,岐阜県,大垣市,赤坂町３２６０番地の２,,21,202,5032213,,,2022-07-20,清算の結了等,,,2015-10-05,1,,,,,ティービー,0
2437,9220001021089,登記記録の閉鎖等,0,2022-07-22,2022-07-14,株式会社ＨＩＴ,,株式会社,石川県,金沢市,八日市１丁目６６７番地,,17,201,9218064,,,2022-07-14,清算の結了等,,,2016-07-08,1,,,,,ヒット,0
2449,9260002028658,登記記録の閉鎖等,0,2022-07-22,2022-07-19,有限会社宗本工業,,有限会社,岡山県,苫田郡鏡野町,沖２２２番地,,33,606,7080322,,,2022-07-19,清算の結了等,,,2015-10-05,1,,,,,ムネモトコウギョウ,0
2478,9340005008079,登記記録の閉鎖等,0,2022-07-22,2022-07-22,特定非営利活動法人Ｒｉｎかごしま,,その他の設立登記法人,鹿児島県,鹿児島市,郡元２丁目２番５号ＦＵＲＡＴ・ＣＵＢＥ２０２号,,46,201,8900065,,,2022-07-22,清算の結了等,,,2015-10-05,1,,,,,リンカゴシマ,0
2491,9380002016304,登記記録の閉鎖等,0,2022-07-22,2022-07-12,有限会社佐藤会計事務所,,有限会社,福島県,二本松市,大壇１５７番地の１,,07,210,9640891,,,2022-07-12,清算の結了等,,,2015-10-05,1,,,,,サトウカイケイジムショ,0
2504,9480003001559,登記記録の閉鎖等,0,2022-07-22,2022-07-21,マティニョン合同会社,,合同会社,徳島県,徳島市,中吉野町１丁目７５番地,,36,201,7700804,,,2022-07-21,清算の結了等,,,2020-10-06,1,,,,,マティニョン,0
