sequenceNumber,corporateNumber,process,correct,updateDate,changeDate,name,nameImageId,kind,prefectureName,cityName,streetNumber,addressImageId,prefectureCode,cityCode,postCode,addressOutside,addressOutsideImageId,closeDate,closeCause,successorCorporateNumber,changeCause,assignmentDate,latest,enName,enPrefectureName,enCityName,enAddressOutside,furigana,hihyoji
31,1010601051010,登記記録の閉鎖等,0,2024-06-26,2024-06-24,株式会社ルート,,株式会社,東京都,江東区,大島６丁目２４番７号,,13,108,1360072,,,2024-06-24,清算の結了等,,,2017-01-24,1,,,,,ルート,0
37,1010705002207,登記記録の閉鎖等,0,2024-06-26,2024-06-21,ＮＰＯ法人Ｇｏｏｄ－Ｊｏｂ　Ｎｏｗ,,その他の設立登記法人,東京都,品川区,北品川３丁目６番６号品川御殿山ビル,,13,109,1400001,,,2024-06-21,清算の結了等,,,2015-10-05,1,,,,,グッドジョブナウ,0
44,1011001092834,登記記録の閉鎖等,0,2024-06-26,2024-06-18,株式会社モバイルスポット,,株式会社,東京都,新宿区,新宿４丁目３番２５号ＴＯＫＹＵＲＥＩＴ新宿ビル９階,,13,104,1600022,,,2024-06-18,清算の結了等,,,2015-10-05,1,,,,,モバイルスポット,0
51,1011201011206,登記記録の閉鎖等,0,2024-06-26,2024-06-12,株式会社イーグルメンテナンス,,株式会社,東京都,中野区,沼袋１丁目１９番９号,,13,114,1650025,,,2024-06-12,合併による解散等,2010801016051,令和６年６月１日東京都大田区西蒲田７－４８－３大越ビル３階株式会社プロスペース（2010801016051）に合併し解散,2015-10-05,1,,,,,イーグルメンテナンス,0
66,1011801029894,登記記録の閉鎖等,0,2024-06-26,2024-06-24,日本プレミアムスキル株式会社,,株式会社,東京都,葛飾区,金町１丁目１４番２号,,13,122,1250042,,,2024-06-24,清算の結了等,,,2015-10-05,1,,,,,ニッポンプレミアムスキル,0
83,1020001131023,登記記録の閉鎖等,0,2024-06-26,2024-06-12,株式会社ＤＭＣ　Ｇｒｅａｔｅｒ　Ｙｏｋｏｈａｍａ,,株式会社,神奈川県,横浜市中区,山下町１番地,,14,104,2310023,,,2024-06-12,清算の結了等,,,2019-05-13,1,,,,,ディーエムシーグレイターヨコハマ,0
99,1030002064758,登記記録の閉鎖等,0,2024-06-26,2024-06-21,有限会社ノエビア西東京,,有限会社,埼玉県,新座市,新堀２丁目９番３１号,,11,230,3520032,,,2024-06-21,清算の結了等,,,2015-10-05,1,,,,,ノエビアニシトウキョウ,0
101,1030002089375,登記記録の閉鎖等,0,2024-06-26,2024-06-24,有限会社イージーピー,,有限会社,埼玉県,北葛飾郡松伏町,大字大川戸８番地,,11,465,3430106,,,2024-06-24,清算の結了等,,,2015-10-05,1,,,,,イージーピー,0
129,1080003003099,登記記録の閉鎖等,0,2024-06-26,2024-06-17,合同会社ＱＢＫ,,合同会社,静岡県,静岡市葵区,竜南１丁目１４番２０号,,22,101,4200804,,,2024-06-17,清算の結了等,,,2023-11-28,1,,,,,キュービーケー,0
140,1120001031881,登記記録の閉鎖等,0,2024-06-26,2024-06-24,読売新聞住吉販売株式会社,,株式会社,大阪府,大阪市住吉区,墨江１丁目７番３－５０３号,,27,120,5580043,,,2024-06-24,清算の結了等,,,2015-10-05,1,,,,,ヨミウリシンブンスミヨシハンバイ,0
144,1120001219361,登記記録の閉鎖等,0,2024-06-26,2024-06-21,株式会社Ａｍｐｌｅ,,株式会社,大阪府,池田市,石橋１丁目７番６号ファミール石橋１０２号,,27,204,5630032,,,2024-06-21,清算の結了等,,,2019-03-11,1,,,,,アンプル,0
170,1180001077993,登記記録の閉鎖等,0,2024-06-26,2024-06-14,ＭＩＴ株式会社,,株式会社,愛知県,瀬戸市,南東町３番地,,23,204,4890834,,,2024-06-14,清算の結了等,,,2015-10-05,1,,,,,エムアイティ,0
188,1180305003299,登記記録の閉鎖等,0,2024-06-26,2024-06-17,特定非営利活動法人ケアーサポート楡の木,,その他の設立登記法人,愛知県,豊橋市,牛川通２丁目９番地２,,23,201,4400011,,,2024-06-17,清算の結了等,,,2015-10-05,1,,,,,ケアーサポートニレノキ,0
190,1200001025958,登記記録の閉鎖等,0,2024-06-26,2024-06-24,株式会社トマト保険,,株式会社,岐阜県,下呂市,宮地１５３５番地,,21,220,5092314,,,2024-06-24,清算の結了等,,,2015-10-05,1,,,,,トマトホケン,0
199,1240001042363,登記記録の閉鎖等,0,2024-06-26,2024-06-24,株式会社アンツモーター,,株式会社,広島県,広島市南区,西霞町１９番２１号,,34,103,7340044,,,2024-06-24,清算の結了等,,,2015-10-05,1,,,,,アンツモーター,0
202,1240003004741,登記記録の閉鎖等,0,2024-06-26,2024-06-11,合同会社ルディア,,合同会社,広島県,福山市,旭町２番３号ソニア藤３０１,,34,207,7200033,,,2024-06-11,清算の結了等,,,2020-07-28,1,,,,,ルディア,0
203,1240005012619,登記記録の閉鎖等,0,2024-06-26,2024-06-25,一般社団法人ジン・アルコ,,その他の設立登記法人,広島県,広島市西区,己斐東２丁目３０番１４号,,34,104,7330811,,,2024-06-25,清算の結了等,,,2015-10-05,1,,,,,ジンアルコ,0
209,1270001007438,登記記録の閉鎖等,0,2024-06-26,2024-05-28,株式会社ガラブレッドジャパン,,株式会社,鳥取県,境港市,蓮池町８９番１号,,31,204,6840062,,,2024-05-28,合併による解散等,8270001007761,令和６年５月１日鳥取県境港市蓮池町８９番１号株式会社Ｏｎｅ’ｓ（8270001007761）に合併し解散,2018-01-15,1,,,,,ガラブレッドジャパン,0
212,1290001068478,登記記録の閉鎖等,0,2024-06-26,2024-06-03,アポプラス株式会社,,株式会社,福岡県,福岡市博多区,博多駅東２丁目５－１９サンライフ第３ビル６階,,40,132,8120013,,,2024-06-03,清算の結了等,,,2015-10-05,1,,,,,アポプラス,0
213,1290001071548,登記記録の閉鎖等,0,2024-06-26,2024-06-03,株式会社ティ・ワイ,,株式会社,福岡県,福岡市南区,平和４丁目１番２－１０５号,,40,134,8150071,,,2024-06-03,清算の結了等,,,2015-10-05,1,,,,,ティワイ,0
218,1290002001768,登記記録の閉鎖等,0,2024-06-26,2024-05-31,有限会社和永水産,,有限会社,福岡県,糟屋郡志免町,桜丘２丁目１８番６号,,40,343,8112201,,,2024-05-31,清算の結了等,,,2015-10-05,1,,,,,カズナガスイサン,0
221,1290002050716,登記記録の閉鎖等,0,2024-06-26,2024-06-20,有限会社かもめ薬局,,有限会社,福岡県,久留米市,本町１５－３３,,40,203,8300044,,,2024-06-20,清算の結了等,,,2015-10-05,1,,,,,カモメヤッキョク,0
248,1450001013079,登記記録の閉鎖等,0,2024-06-26,2024-06-17,Ｆｕｊｉホールディングス株式会社,,株式会社,北海道,旭川市,二条通１９丁目３６７番地２,,01,204,0788212,,,2024-06-17,合併による解散等,7450001002596,令和６年５月１日北海道旭川市二条通十九丁目３６７番地２株式会社富士管財（7450001002596）に合併し解散,2020-08-13,1,,,,,フジホールディングス,0
250,1480001009198,登記記録の閉鎖等,0,2024-06-26,2024-06-21,株式会社ＤＡＩＳＹＵ,,株式会社,徳島県,阿南市,向原町下ノ浜４番地５,,36,204,7740005,,,2024-06-21,清算の結了等,,,2015-10-05,1,,,,,,0
281,2010003032863,登記記録の閉鎖等,0,2024-06-26,2024-06-14,ＲｅｎｏＤａパートナーズ合同会社,,合同会社,東京都,千代田区,丸の内３丁目１番１号東京共同会計事務所内,,13,101,1000005,,,2024-06-14,清算の結了等,,,2020-08-20,1,,,,,リノダーパートナーズ,0
320,2011105001995,登記記録の閉鎖等,0,2024-06-26,2024-06-18,特定非営利活動法人のぞみ会,,その他の設立登記法人,東京都,新宿区,高田馬場１丁目３３番１３号千年ビル６０７号,,13,104,1690075,,,2024-06-18,清算の結了等,,,2015-10-05,1,,,,,ノゾミカイ,0
330,2012301011219,登記記録の閉鎖等,0,2024-06-26,2024-06-24,株式会社ＶｉｅｗＷｉｎｇｓ,,株式会社,東京都,町田市,森野１丁目３１番１２号ＡＩＲ・ＡＬＬＥＹ４０２号室,,13,209,1940022,,,2024-06-24,清算の結了等,,,2017-12-18,1,,,,,,0
331,2013301015580,登記記録の閉鎖等,0,2024-06-26,2024-06-24,株式会社エスアイコミュニケーション,,株式会社,埼玉県,北足立郡伊奈町,大字小室３１９８番地３,,11,301,3620806,,,2024-06-24,清算の結了等,,,2015-10-05,1,,,,,エスアイコミュニケーション,0
338,2021001027664,登記記録の閉鎖等,0,2024-06-26,2024-06-24,株式会社ユーケーテクニカ,,株式会社,神奈川県,綾瀬市,吉岡東３丁目２番７号,,14,218,2521125,,,2024-06-24,清算の結了等,,,2015-10-05,1,,,,,ユーケーテクニカ,0
340,2021001030453,登記記録の閉鎖等,0,2024-06-26,2024-06-25,石田プランニング株式会社,,株式会社,神奈川県,海老名市,国分寺台４丁目１２番１４号,,14,215,2430413,,,2024-06-25,清算の結了等,,,2015-10-05,1,,,,,イシダプランニング,0
341,2021001074384,登記記録の閉鎖等,0,2024-06-26,2024-06-24,Ｓｍｉｌ株式会社,,株式会社,神奈川県,鎌倉市,岩瀬１０４８－１,,14,204,2470051,,,2024-06-24,清算の結了等,,,2021-11-08,1,,,,,スミール,0
369,2040002080043,登記記録の閉鎖等,0,2024-06-26,2024-06-20,ＥＮＴ　ＩＮＴＥＲＮＡＴＩＯＮＡＬ株式会社,,株式会社,東京都,江戸川区,南葛西６丁目１３番１２号第３パークメゾン００１Ｂ号室,,13,123,1340085,,,2024-06-20,清算の結了等,,,2015-10-05,1,,,,,イーエヌティーインターナショナル,0
371,2040003011286,登記記録の閉鎖等,0,2024-06-26,2024-06-12,合同会社ＲＴインベストメント,,合同会社,千葉県,船橋市,湊町２丁目８番４０－２７０５号,,12,204,2730011,,,2024-06-12,清算の結了等,,,2018-02-26,1,,,,,アールティーインベストメント,0
380,2050002025947,登記記録の閉鎖等,0,2024-06-26,2024-06-20,有限会社諸川家具センター,,有限会社,茨城県,古河市,諸川４６８番地の１,,08,204,3060126,,,2024-06-20,清算の結了等,,,2015-10-05,1,,,,,モロカワカグセンター,0
384,2070001005493,登記記録の閉鎖等,0,2024-06-26,2024-06-24,株式会社みやざきケアサービス,,株式会社,群馬県,前橋市,西片貝町１丁目３１４番地１,,10,201,3710013,,,2024-06-24,清算の結了等,,,2015-10-05,1,,,,,ミヤザキケアサービス,0
385,2070001012226,登記記録の閉鎖等,0,2024-06-26,2024-06-24,株式会社フュークリエイト,,株式会社,群馬県,富岡市,一ノ宮１５３０番地,,10,210,3702452,,,2024-06-24,清算の結了等,,,2015-10-05,1,,,,,フュークリエイト,0
407,2120001262311,登記記録の閉鎖等,0,2024-06-26,2024-06-24,ＵＲＡ株式会社,,株式会社,大阪府,大阪市中央区,日本橋２丁目２０番３－１１０４号,,27,128,5420073,,,2024-06-24,清算の結了等,,,2024-02-20,1,,,,,ウラ,0
420,2120105008321,登記記録の閉鎖等,0,2024-06-26,2024-06-07,医療法人医敬会,,その他の設立登記法人,大阪府,泉北郡忠岡町,忠岡東１丁目３９番２９号,,27,341,5950805,,,2024-06-07,合併による解散等,8140005025896,令和６年６月３日兵庫県西宮市神楽町１１番２５号ステーションビルディング３階医療法人社団ＥＭＩＦＵＬＬ（8140005025896）に合併し解散,2015-10-05,1,,,,,イケイカイ,0
430,2140001108339,登記記録の閉鎖等,0,2024-06-26,2024-06-21,株式会社住吉川自然エネルギー発電,,株式会社,兵庫県,西宮市,山口町上山口字上芦原７８番地２,00111896,28,204,6511421,,,2024-06-21,清算の結了等,,,2017-11-30,1,,,,,スミヨシガワシゼンエネルギーハツデン,0
452,2180002088898,登記記録の閉鎖等,0,2024-06-26,2024-06-12,有限会社オートサービスカキタ,,有限会社,愛知県,知多市,朝倉町２６２番地,,23,224,4780051,,,2024-06-12,清算の結了等,,,2015-10-05,1,,,,,オートサービスカキタ,0
463,2240002051560,登記記録の閉鎖等,0,2024-06-26,2024-06-21,有限会社ミハルスポーツ,,有限会社,広島県,尾道市,土堂１丁目６番６号,,34,205,7220035,,,2024-06-21,清算の結了等,,,2015-10-05,1,,,,,ミハルスポーツ,0
468,2260002018847,登記記録の閉鎖等,0,2024-06-26,2024-06-11,塾有限会社,,有限会社,岡山県,倉敷市,連島町連島１９７０番地の２,,33,202,7128011,,,2024-06-11,清算の結了等,,,2015-10-05,1,,,,,ジュク,0
474,2290001086842,登記記録の閉鎖等,0,2024-06-26,2024-05-31,株式会社総州,,株式会社,福岡県,久留米市,大石町２６５番地８,,40,203,8300049,,,2024-05-31,清算の結了等,,,2019-10-11,1,,,,,ソウシュウ,0
481,2290002035344,登記記録の閉鎖等,0,2024-06-26,2024-05-31,有限会社パルコ美容院,,有限会社,福岡県,宗像市,自由ヶ丘３丁目１６番地１４,,40,220,8114163,,,2024-05-31,清算の結了等,,,2015-10-05,1,,,,,パルコビヨウイン,0
494,2300003000816,登記記録の閉鎖等,0,2024-06-26,2024-06-21,合同会社オチアイ,,合同会社,佐賀県,唐津市,浜玉町浜崎１２６７番地,,41,202,8495131,,,2024-06-21,清算の結了等,,,2015-10-05,1,,,,,オチアイ,0
515,2380001016113,登記記録の閉鎖等,0,2024-06-26,2024-06-19,日通相馬港運輸株式会社,,株式会社,福島県,相馬郡新地町,駒ケ嶺字今神１２９番地,,07,561,9792611,,,2024-06-19,清算の結了等,,,2015-10-05,1,,,,,ニッツウソウマコウウンユ,0
521,2400002011688,登記記録の閉鎖等,0,2024-06-26,2024-06-14,有限会社高橋工業,,有限会社,岩手県,上閉伊郡大槌町,大槌第１２地割２１番地２,,03,461,0281131,,,2024-06-14,清算の結了等,,,2015-10-05,1,,,,,タカハシコウギョウ,0
531,2460001004745,登記記録の閉鎖等,0,2024-06-26,2024-06-18,株式会社パートナーリンクス,,株式会社,北海道,釧路市,新富町４番３号,,01,206,0850004,,,2024-06-18,合併による解散等,4460001003605,令和６年６月１日北海道釧路市新富町４番３号株式会社未来製作所（4460001003605）に合併し解散,2015-10-05,1,,,,,,0
532,2460302005211,登記記録の閉鎖等,0,2024-06-26,2024-06-25,谷村産業有限会社,,有限会社,北海道,網走市,字潮見２６３番地の７０,,01,211,0930042,,,2024-06-25,清算の結了等,,,2015-10-05,1,,,,,タニムラサンギョウ,0
533,2460305001620,登記記録の閉鎖等,0,2024-06-26,2024-06-06,医療法人社団朗愛会,,その他の設立登記法人,北海道,網走市,字潮見１５３番地１,,01,211,0930042,,,2024-06-06,合併による解散等,7430005001497,令和６年６月３日札幌市中央区宮の森三条七丁目５番２５号医療法人讃生会（7430005001497）に合併し解散,2015-10-05,1,,,,,,0
563,3010002052944,登記記録の閉鎖等,0,2024-06-26,2024-06-14,有限会社銀座四季,,有限会社,東京都,中央区,銀座５丁目９番１８号,,13,102,1040061,,,2024-06-14,清算の結了等,,,2015-10-05,1,,,,,ギンザシキ,0
591,3010601039128,登記記録の閉鎖等,0,2024-06-26,2024-06-24,株式会社ワリコー,,株式会社,東京都,墨田区,向島３丁目５番１４号,,13,107,1310033,,,2024-06-24,清算の結了等,,,2015-10-05,1,,,,,ワリコー,0
595,3010801002174,登記記録の閉鎖等,0,2024-06-26,2024-06-17,大原工業株式会社,,株式会社,東京都,大田区,大森西２丁目２８番６号,,13,111,1430015,,,2024-06-17,清算の結了等,,,2015-10-05,1,,,,,オオハラコウギョウ,0
602,3010903007170,登記記録の閉鎖等,0,2024-06-26,2024-06-11,Ｔｏｋｙｏ　Ｃｈａｉ　Ｐａｒｔｙ合同会社,,合同会社,東京都,世田谷区,下馬２丁目４４－１６・７０４,,13,112,1540002,,,2024-06-11,清算の結了等,,,2022-02-21,1,,,,,トーキョーチャイパーティー,0
605,3011001108150,登記記録の閉鎖等,0,2024-06-26,2024-06-10,株式会社Ｂｌａｎｃｈｅｌ,,株式会社,東京都,渋谷区,渋谷３丁目２７番１１号祐真ビル新館５Ｆ,,13,113,1500002,,,2024-06-10,合併による解散等,8010001207420,令和６年６月１日東京都渋谷区渋谷三丁目２７番１１号祐真ビル新館５Ｆ株式会社Ｔ－Ｇａｒｄｅｎ（8010001207420）に合併し解散,2015-11-12,1,,,,,ブランチェル,0
635,3020001123332,登記記録の閉鎖等,0,2024-06-26,2024-06-13,伸栄精機株式会社,,株式会社,神奈川県,川崎市中原区,宮内１丁目２２番１０号,,14,133,2110051,,,2024-06-13,清算の結了等,,,2017-10-11,1,,,,,シンエイセイキ,0
664,3030003005346,登記記録の閉鎖等,0,2024-06-26,2024-06-25,ＩＮＵＫＳＨＵＫＳ合同会社,,合同会社,埼玉県,新座市,栄３丁目６番３７号Ａ＆Ｔガーデンハウス１０５号室,,11,230,3520014,,,2024-06-25,清算の結了等,,,2015-10-05,1,,,,,イヌキシャックス,0
670,3030005001888,登記記録の閉鎖等,0,2024-06-26,2024-06-17,特定非営利活動法人さいたまシュタイナー幼児教育の会,,その他の設立登記法人,埼玉県,さいたま市見沼区,宮ヶ谷塔１丁目１８１番地の８,,11,104,3370011,,,2024-06-17,清算の結了等,,,2015-10-05,1,,,,,サイタマシュタイナーヨウジキョウイクノカイ,0
679,3040005014880,登記記録の閉鎖等,0,2024-06-26,2024-06-12,大栄建設協同組合,,その他の設立登記法人,千葉県,成田市,所１２４５番地３,,12,211,2870211,,,2024-06-12,清算の結了等,,,2015-10-05,1,,,,,ダイエイケンセツ,0
686,3050002034105,登記記録の閉鎖等,0,2024-06-26,2024-06-18,有限会社満足工業,,有限会社,茨城県,稲敷市,犬塚１１２０番地１２,,08,229,3000507,,,2024-06-18,清算の結了等,,,2015-10-05,1,,,,,ミタスコウギョウ,0
693,3070002011325,登記記録の閉鎖等,0,2024-06-26,2024-06-21,有限会社南雲会計事務所,,有限会社,群馬県,高崎市,高関町４３８番地の６,,10,202,3700043,,,2024-06-21,清算の結了等,,,2015-10-05,1,,,,,ナグモカイケイ,0
705,3110001002452,登記記録の閉鎖等,0,2024-06-26,2024-06-12,株式会社シグマ設計,,株式会社,新潟県,新潟市中央区,姥ケ山３丁目７番９号,,15,103,9500923,,,2024-06-12,清算の結了等,,,2015-10-05,1,,,,,シグマセッケイ,0
733,3130001014454,登記記録の閉鎖等,0,2024-06-26,2024-06-24,株式会社後藤＿工所,00035507,株式会社,大阪府,枚方市,東香里１丁目２４番７２号,,27,210,5730075,,,2024-06-24,清算の結了等,,,2015-10-05,1,,,,,ゴトウテッコウショ,0
734,3130001060044,登記記録の閉鎖等,0,2024-06-26,2024-06-24,株式会社Ｓ－Ｂｒｏｓ．,,株式会社,京都府,京都市左京区,田中下柳町２０番地,,26,103,6068204,,,2024-06-24,清算の結了等,,,2017-06-21,1,,,,,エスブロス,0
736,3140001002466,登記記録の閉鎖等,0,2024-06-26,2024-06-20,株式会社ポートダイビング,,株式会社,兵庫県,神戸市東灘区,住吉宮町４丁目４番１－２６０１号,,28,101,6580053,,,2024-06-20,清算の結了等,,,2015-10-05,1,,,,,ポートダイビング,0
738,3140001075446,登記記録の閉鎖等,0,2024-06-26,2024-06-20,来住紙器工業株式会社,,株式会社,兵庫県,西脇市,西脇９７５番地の５１,,28,213,6770015,,,2024-06-20,清算の結了等,,,2015-10-05,1,,,,,,0
752,3180001058315,登記記録の閉鎖等,0,2024-06-26,2024-06-10,株式会社プラス・ブレイン,,株式会社,愛知県,名古屋市中区,三の丸１丁目７番２号,,23,106,4600001,,,2024-06-10,清算の結了等,,,2015-10-05,1,,,,,プラスブレイン,0
757,3180001159419,登記記録の閉鎖等,0,2024-06-26,2024-06-12,株式会社ＪＯＡＨ,,株式会社,愛知県,名古屋市中区,大須１丁目２３－５３大須アパートメント１００１号室,,23,106,4600011,,,2024-06-12,清算の結了等,,,2023-12-18,1,,,,,ジョア,0
759,3180002018714,登記記録の閉鎖等,0,2024-06-26,2024-06-17,有限会社東永,,有限会社,愛知県,名古屋市中川区,打出２丁目１１２番地,,23,110,4540926,,,2024-06-17,清算の結了等,,,2015-10-05,1,,,,,トウエイ,0
760,3180002025396,登記記録の閉鎖等,0,2024-06-26,2024-06-14,有限会社エリカ,,有限会社,愛知県,名古屋市緑区,大将ケ根２丁目８３２番地,,23,114,4580822,,,2024-06-14,清算の結了等,,,2015-10-05,1,,,,,エリカ,0
774,3210002007911,登記記録の閉鎖等,0,2024-06-26,2024-06-20,有限会社東鉄筋,,有限会社,福井県,坂井市,丸岡町下安田９字１４番地の２,,18,210,9100363,,,2024-06-20,清算の結了等,,,2015-10-05,1,,,,,ヒガシテッキン,0
778,3240001055561,登記記録の閉鎖等,0,2024-06-26,2024-06-06,株式会社ＢＡＰ‐ｅａｓｔ,,株式会社,東京都,新宿区,新宿３丁目３６番１５号,,13,104,1600022,,,2024-06-06,合併による解散等,1360001018161,令和６年６月１日広島市中区立町４番１５号株式会社ＢＡＰ‐ｗｅｓｔ（1360001018161）に合併し解散,2020-01-21,1,,,,,ビーエーピーイースト,0
781,3240002003346,登記記録の閉鎖等,0,2024-06-26,2024-06-25,有限会社小川プランニング,,有限会社,広島県,広島市東区,牛田東２丁目１６番２０－５０１号,,34,102,7320063,,,2024-06-25,清算の結了等,,,2015-10-05,1,,,,,オガワプランニング,0
782,3240002031974,登記記録の閉鎖等,0,2024-06-26,2024-06-21,有限会社アラハナ電機,,有限会社,広島県,呉市,郷原町６６１４番地,,34,202,7370161,,,2024-06-21,清算の結了等,,,2015-10-05,1,,,,,アラハナデンキ,0
783,3240005001264,登記記録の閉鎖等,0,2024-06-26,2024-06-10,医療法人社団仁鷹会,,その他の設立登記法人,広島県,広島市中区,国泰寺町２丁目４番１６号,,34,101,7300042,,,2024-06-10,合併による解散等,5250005005163,令和６年６月３日山口県周南市大字湯野４２７８番地１医療法人社団生和会（5250005005163）に合併し解散,2015-10-05,1,,,,,ジンヨウカイ,0
785,3250001011191,登記記録の閉鎖等,0,2024-06-26,2024-06-24,岩国日通運輸株式会社,,株式会社,山口県,岩国市,通津３９１５番地,,35,208,7400044,,,2024-06-24,清算の結了等,,,2015-10-05,1,,,,,イワクニニッツウウンユ,0
791,3280005002168,登記記録の閉鎖等,0,2024-06-26,2024-06-25,ＮＰＯしまね介護ネット,,その他の設立登記法人,島根県,松江市,白潟本町４３番地,,32,201,6900000,,,2024-06-25,清算の結了等,,,2015-10-05,1,,,,,シマネカイゴネット,0
798,3290002042307,登記記録の閉鎖等,0,2024-06-26,2024-06-03,アールイーシー有限会社,,有限会社,福岡県,福岡市早良区,室見３丁目１２番１９－１０８号,,40,137,8140015,,,2024-06-03,清算の結了等,,,2015-10-05,1,,,,,アールイーシー,0
807,3330001007388,登記記録の閉鎖等,0,2024-06-26,2024-06-18,株式会社新陽建設,,株式会社,熊本県,熊本市東区,湖東２丁目７番１０号,,43,102,8620909,,,2024-06-18,清算の結了等,,,2015-10-05,1,,,,,シンヨウケンセツ,0
826,3400001001474,登記記録の閉鎖等,0,2024-06-26,2024-06-14,株式会社丸佐,,株式会社,岩手県,盛岡市,盛岡駅前北通５番１８号,,03,201,0200033,,,2024-06-14,清算の結了等,,,2015-10-05,1,,,,,,0
836,3480005003550,登記記録の閉鎖等,0,2024-06-26,2024-06-21,社会福祉法人希望福祉会,,その他の設立登記法人,徳島県,板野郡北島町,新喜来字南ハリ２７番地１,,36,402,7710207,,,2024-06-21,清算の結了等,,,2015-10-05,1,,,,,ノゾミフクシカイ,0
873,4010601009162,登記記録の閉鎖等,0,2024-06-26,2024-06-24,在原商事株式会社,,株式会社,東京都,墨田区,東駒形１丁目１７番８号,,13,107,1300005,,,2024-06-24,清算の結了等,,,2015-10-05,1,,,,,アリハラショウジ,0
885,4010902009183,登記記録の閉鎖等,0,2024-06-26,2024-06-24,有限会社タイヨー住機,,有限会社,東京都,世田谷区,玉堤２丁目８番３号,,13,112,1580087,,,2024-06-24,清算の結了等,,,2015-10-05,1,,,,,タイヨージュウキ,0
886,4010903001783,登記記録の閉鎖等,0,2024-06-26,2024-06-24,合同会社ｓｉｎｇｌｅ,,合同会社,東京都,世田谷区,池尻１丁目７番３,,13,112,1540001,,,2024-06-24,清算の結了等,,,2015-10-05,1,,,,,,0
908,4011303003965,登記記録の閉鎖等,0,2024-06-26,2024-06-17,Ｇａｒａ合同会社,,合同会社,東京都,杉並区,荻窪３丁目７－５２シティテラス荻窪ブリーズコート１２１,,13,115,1670051,,,2024-06-17,清算の結了等,,,2021-03-25,1,,,,,ガラ,0
924,4012405001452,登記記録の閉鎖等,0,2024-06-26,2024-06-06,医療法人社団碧水会,,その他の設立登記法人,東京都,三鷹市,大沢２丁目２０番３６号,,13,204,1810015,,,2024-06-06,合併による解散等,8430005009861,令和６年５月３１日札幌市白石区中央三条五丁目４番３０号医療法人社団積信会（8430005009861）に合併し解散,2015-10-05,1,,,,,ヘキスイカイ,0
929,4012802001237,登記記録の閉鎖等,0,2024-06-26,2024-06-21,有限会社澄川電設,,有限会社,東京都,立川市,一番町６丁目２２番地の４０,,13,202,1900033,,,2024-06-21,清算の結了等,,,2015-10-05,1,,,,,スミカワデンセツ,0
933,4013102003790,登記記録の閉鎖等,0,2024-06-26,2024-06-21,有限会社クリーンサービス・クロゴメ,,有限会社,東京都,あきる野市,野辺１０３４番地２,,13,228,1970823,,,2024-06-21,清算の結了等,,,2015-10-05,1,,,,,,0
947,4020005010138,登記記録の閉鎖等,0,2024-06-26,2024-06-13,特定非営利活動法人配りの会,,その他の設立登記法人,神奈川県,横浜市鶴見区,江ケ崎町２０番地４プランドール江ケ崎１０２号,,14,101,2300002,,,2024-06-13,清算の結了等,,,2015-10-05,1,,,,,クバリノカイ,0
949,4030001021427,登記記録の閉鎖等,0,2024-06-26,2024-06-18,株式会社丸善建物,,株式会社,埼玉県,戸田市,美女木北１丁目９番地の１,,11,224,3350038,,,2024-06-18,合併による解散等,7030001021449,令和６年６月１８日埼玉県戸田市美女木北一丁目９番地の１株式会社善新堂（7030001021449）に合併し解散,2015-10-05,1,,,,,マルゼンタテモノ,0
960,4030002061851,登記記録の閉鎖等,0,2024-06-26,2024-06-21,有限会社竹生製作所,,有限会社,埼玉県,新座市,畑中３丁目３番５号,,11,230,3520012,,,2024-06-21,清算の結了等,,,2015-10-05,1,,,,,,0
967,4040001030170,登記記録の閉鎖等,0,2024-06-26,2024-06-13,株式会社富山合同,,株式会社,千葉県,浦安市,千鳥１３,,12,227,2790032,,,2024-06-13,清算の結了等,,,2015-10-05,1,,,,,トヤマゴウドウ,0
977,4050001001138,登記記録の閉鎖等,0,2024-06-26,2024-06-21,三和企画株式会社,,株式会社,茨城県,水戸市,河和田町３８９１番地の１０５,,08,201,3114153,,,2024-06-21,清算の結了等,,,2015-10-05,1,,,,,サンワキカク,0
983,4050005007387,登記記録の閉鎖等,0,2024-06-26,2024-06-05,天理教松岡城分教会,,その他の設立登記法人,茨城県,高萩市,大字上手綱４６１番地,,08,214,3180004,,,2024-06-05,合併による解散等,5050005007386,令和６年６月５日茨城県高萩市大字安良川５８番地天理教高萩分教会（5050005007386）に合併し解散,2015-10-05,1,,,,,テンリキョウマツオカジョウブンキョウカイ,0
984,4060002036586,登記記録の閉鎖等,0,2024-06-26,2024-06-18,有限会社大栄プラスチック塗装工業,,有限会社,栃木県,足利市,寺岡町１０４４番地５,,09,202,3294213,,,2024-06-18,清算の結了等,,,2015-10-05,1,,,,,ダイエイプラスチックトソウコウギョウ,0
990,4080001014211,登記記録の閉鎖等,0,2024-06-26,2024-06-10,株式会社ホンダエフワン,,株式会社,静岡県,島田市,金谷東１丁目１３００番地の１,,22,209,4280013,,,2024-06-10,合併による解散等,5080401014859,令和６年６月１日静岡県菊川市加茂５４４番地の１株式会社ホンダカーズ駿河（5080401014859）に合併し解散,2015-10-05,1,,,,,ホンダエフワン,0
998,4110001016864,登記記録の閉鎖等,0,2024-06-26,2024-06-14,株式会社Ｎｅｏ・サテライトコスモ,,株式会社,新潟県,加茂市,大字後須田２２５４番地１,,15,209,9591303,,,2024-06-14,清算の結了等,,,2015-10-05,1,,,,,ネオサテライトコスモ,0
1001,4120001049228,登記記録の閉鎖等,0,2024-06-26,2024-06-24,株式会社ウイン,,株式会社,大阪府,大阪市西淀川区,姫里２丁目５番１５号,,27,113,5550025,,,2024-06-24,清算の結了等,,,2015-10-05,1,,,,,ウイン,0
1030,4130001005023,登記記録の閉鎖等,0,2024-06-26,2024-06-21,大成住宅株式会社,,株式会社,京都府,京都市北区,紫野下御輿町１３番地の１,,26,101,6038235,,,2024-06-21,清算の結了等,,,2015-10-05,1,,,,,タイセイジュウタク,0
1031,4130002030458,登記記録の閉鎖等,0,2024-06-26,2024-06-24,有限会社フジプリンテイング,,有限会社,京都府,八幡市,八幡吉原２９番地,,26,210,6148041,,,2024-06-24,清算の結了等,,,2015-10-05,1,,,,,,0
1043,4160005002303,登記記録の閉鎖等,0,2024-06-26,2024-06-03,滋賀南部森林組合,,その他の設立登記法人,滋賀県,大津市,瀬田神領町番戸谷４０－１,,25,201,5202124,,,2024-06-03,合併による解散等,3160005011313,令和６年６月３日滋賀県甲賀市水口町鹿深３番３９号滋賀中央森林組合（9160005009855）と滋賀県東近江市山上町３５４４番地東近江市永源寺森林組合（9160005006480）と滋賀県犬上郡多賀町大字多賀２４６番地びわこ東部森林組合（5160005004991）と滋賀県米原市市場４３８番地滋賀北部森林組合（8160005004709）と滋賀県長浜市木之本町黒田１０１５番地長浜市伊香森林組合（8160005003454）と合併して滋賀県大津市大萱四丁目１７番３０号滋賀県森林組合（3160005011313）を設立し解散,2015-10-05,1,,,,,シガナンブ,0
1051,4180002020438,登記記録の閉鎖等,0,2024-06-26,2024-06-14,有限会社大伸建設,,有限会社,愛知県,名古屋市熱田区,千年１丁目１９番６号コーポ千年Ｂ棟２０２,,23,109,4560054,,,2024-06-14,清算の結了等,,,2015-10-05,1,,,,,ダイシンケンセツ,0
1052,4180002083435,登記記録の閉鎖等,0,2024-06-26,2024-06-17,有限会社サンエイ工業,,有限会社,愛知県,半田市,大松町２丁目２７番地の２,,23,205,4750083,,,2024-06-17,清算の結了等,,,2015-10-05,1,,,,,サンエイコウギョウ,0
1058,4180301002541,登記記録の閉鎖等,0,2024-06-26,2024-06-18,株式会社鳥居材木店,,株式会社,愛知県,額田郡幸田町,大字芦谷字要善１２番地,00074421,23,501,4440116,,,2024-06-18,清算の結了等,,,2015-10-05,1,,,,,トリイザイモクテン,0
1061,4200002014635,登記記録の閉鎖等,0,2024-06-26,2024-06-21,有限会社東海,,有限会社,岐阜県,海津市,海津町草場９０番地,,21,221,5030618,,,2024-06-21,清算の結了等,,,2015-10-05,1,,,,,トウカイ,0
1062,4200002018082,登記記録の閉鎖等,0,2024-06-26,2024-06-24,有限会社人財サポート未来,,有限会社,岐阜県,可児郡御嵩町,伏見７７３番地,,21,521,5050125,,,2024-06-24,清算の結了等,,,2015-10-05,1,,,,,ジンザイサポートミライ,0
1069,4220002015680,登記記録の閉鎖等,0,2024-06-26,2024-06-24,有限会社山王食品,,有限会社,石川県,輪島市,河井町６部２１番地の８,,17,204,9280001,,,2024-06-24,清算の結了等,,,2015-10-05,1,,,,,ヤマオウショクヒン,0
1076,4260001033597,登記記録の閉鎖等,0,2024-06-26,2024-05-31,中国恒信株式会社,,株式会社,岡山県,岡山市中区,新京橋１丁目５番４号,,33,102,7038294,,,2024-05-31,清算の結了等,,,2019-10-11,1,,,,,チュウゴクコウシン,0
1077,4260002018085,登記記録の閉鎖等,0,2024-06-26,2024-06-12,興和電業有限会社,,有限会社,岡山県,倉敷市,羽島２０７番地の７,,33,202,7100043,,,2024-06-12,清算の結了等,,,2015-10-05,1,,,,,コウワデンギョウ,0
1078,4260005009701,登記記録の閉鎖等,0,2024-06-26,2024-06-13,岡山伝統産業振興協同組合,,その他の設立登記法人,岡山県,真庭市,勝山１１６番地,,33,214,7170013,,,2024-06-13,清算の結了等,,,2015-10-05,1,,,,,オカヤマデントウサンギョウシンコウ,0
1091,4290002044228,登記記録の閉鎖等,0,2024-06-26,2024-05-31,有限会社Ａプランネット,,有限会社,福岡県,朝倉市,一木１１４９番地１,,40,228,8380065,,,2024-05-31,清算の結了等,,,2015-10-05,1,,,,,エイプランネット,0
1120,4420002015586,登記記録の閉鎖等,0,2024-06-26,2024-06-21,有限会社三福商事,,有限会社,青森県,黒石市,大字浜町１番地,,02,204,0360378,,,2024-06-21,清算の結了等,,,2015-10-05,1,,,,,サンプクショウジ,0
1122,4430001016956,登記記録の閉鎖等,0,2024-06-26,2024-06-13,株式会社ラポール,,株式会社,千葉県,四街道市,四街道１５１８番１５号,,12,228,2840005,,,2024-06-13,清算の結了等,,,2015-10-05,1,,,,,ラポール,0
1138,4490001003247,登記記録の閉鎖等,0,2024-06-26,2024-06-21,株式会社日本理工医研,,株式会社,高知県,高知市,塚ノ原４番地１,,39,201,7800952,,,2024-06-21,清算の結了等,,,2015-10-05,1,,,,,ニホンリコウイケン,0
1139,4490002008146,登記記録の閉鎖等,0,2024-06-26,2024-06-20,有限会社エコ・クリエーション,,有限会社,高知県,高知市,福井東町２０番２１号,,39,201,7800967,,,2024-06-20,清算の結了等,,,2015-10-05,1,,,,,エコクリエーション,0
1140,4500002012518,登記記録の閉鎖等,0,2024-06-26,2024-06-18,有限会社西岡建材店,,有限会社,愛媛県,西予市,野村町野村１２号４３１番地,,38,214,7971212,,,2024-06-18,清算の結了等,,,2015-10-05,1,,,,,ニシオカケンザイテン,0
1161,5010102010882,登記記録の閉鎖等,0,2024-06-26,2024-06-24,有限会社オカクワ,,有限会社,東京都,八王子市,犬目町５０８番地１４,,13,201,1930802,,,2024-06-24,清算の結了等,,,2015-10-05,1,,,,,オカクワ,0
1166,5010401144621,登記記録の閉鎖等,0,2024-06-26,2024-06-04,アルヒＲＰＡソリューションズ株式会社,,株式会社,東京都,港区,六本木１丁目６番１号,,13,103,1060032,,,2024-06-04,合併による解散等,1010001160717,令和６年６月１日東京都港区六本木一丁目６番１号ＳＢＩアルヒ株式会社（1010001160717）に合併し解散,2019-03-28,1,,,,,アルヒアールピーエーソリューションズ,0
1174,5010601005532,登記記録の閉鎖等,0,2024-06-26,2024-06-24,深川株式会社,,株式会社,東京都,江東区,東陽３丁目２３番２６号,,13,108,1350016,,,2024-06-24,清算の結了等,,,2015-10-05,1,,,,,フカガワ,0
1175,5010601046213,登記記録の閉鎖等,0,2024-06-26,2024-06-24,株式会社ジョインスマート,,株式会社,東京都,江東区,東雲１丁目７番８－２０３号,,13,108,1350062,,,2024-06-24,清算の結了等,,,2015-10-05,1,,,,,ジョインスマート,0
1192,5011602022970,登記記録の閉鎖等,0,2024-06-26,2024-06-19,有限会社デザイン計画,,有限会社,東京都,稲城市,長峰３丁目２－３－６０７,,13,225,2060821,,,2024-06-19,清算の結了等,,,2015-10-05,1,,,,,デザインケイカク,0
1210,5012802001327,登記記録の閉鎖等,0,2024-06-26,2024-06-06,立川電通工業有限会社,,有限会社,東京都,立川市,栄町４丁目９番地の８,,13,202,1900003,,,2024-06-06,清算の結了等,,,2015-10-05,1,,,,,,0
1220,5020002072270,登記記録の閉鎖等,0,2024-06-26,2024-06-13,有限会社ＴＣＴ,,有限会社,神奈川県,横浜市青葉区,市ケ尾町５１５番地８,,14,117,2250024,,,2024-06-13,清算の結了等,,,2015-10-05,1,,,,,テイシイテイ,0
1227,5021001024956,登記記録の閉鎖等,0,2024-06-26,2024-06-24,エース工業株式会社,,株式会社,神奈川県,大和市,深見西６丁目４番３６号,,14,213,2420018,,,2024-06-24,清算の結了等,,,2015-10-05,1,,,,,エースコウギョウ,0
1232,5030001062305,登記記録の閉鎖等,0,2024-06-26,2024-06-20,株式会社ＴＡＳ,,株式会社,埼玉県,北本市,本宿５丁目８２番地１,,11,233,3640005,,,2024-06-20,清算の結了等,,,2015-10-05,1,,,,,タス,0
1270,5060002029705,登記記録の閉鎖等,0,2024-06-26,2024-06-18,有限会社エコーフアミリー,,有限会社,栃木県,下都賀郡野木町,大字丸林３０１番地６,,09,364,3290111,,,2024-06-18,清算の結了等,,,2015-10-05,1,,,,,エコーファミリー,0
1271,5070002002545,登記記録の閉鎖等,0,2024-06-26,2024-06-24,有限会社シヅカ漬物,,有限会社,群馬県,前橋市,関根町１９番地４,,10,201,3710047,,,2024-06-24,清算の結了等,,,2015-10-05,1,,,,,シヅカツケモノ,0
1280,5080005007581,登記記録の閉鎖等,0,2024-06-26,2024-06-17,ＮＰＯ法人安全点検と防災,,その他の設立登記法人,静岡県,藤枝市,堀之内１丁目１４番地の３,,22,214,4260088,,,2024-06-17,清算の結了等,,,2023-11-06,1,,,,,アンゼンテンケントボウサイ,0
1298,5120001100022,登記記録の閉鎖等,0,2024-06-26,2024-06-24,ネットサーチ株式会社,,株式会社,大阪府,大阪市天王寺区,清水谷町７番１２号,,27,109,5430011,,,2024-06-24,清算の結了等,,,2015-10-05,1,,,,,ネットサーチ,0
1320,5130001034319,登記記録の閉鎖等,0,2024-06-26,2024-06-24,株式会社あい,,株式会社,京都府,宇治市,槇島町三十五２８番地、２９番地の２,,26,204,6110041,,,2024-06-24,清算の結了等,,,2015-10-05,1,,,,,アイ,0
1329,5140002028384,登記記録の閉鎖等,0,2024-06-26,2024-06-24,株式会社イユー,,株式会社,兵庫県,明石市,小久保１丁目５番地の４ペルル西明石１１０２号,,28,203,6730005,,,2024-06-24,清算の結了等,,,2015-10-05,1,,,,,イユー,0
1330,5140002060932,登記記録の閉鎖等,0,2024-06-26,2024-06-24,有限会社三谷産業,,有限会社,兵庫県,西宮市,高座町８番３１号,,28,204,6620872,,,2024-06-24,清算の結了等,,,2015-10-05,1,,,,,ミタニサンギョウ,0
1338,5160005004991,登記記録の閉鎖等,0,2024-06-26,2024-06-03,びわこ東部森林組合,,その他の設立登記法人,滋賀県,犬上郡多賀町,大字多賀２４６番地,,25,443,5220341,,,2024-06-03,合併による解散等,3160005011313,令和６年６月３日滋賀県大津市瀬田神領町番戸谷４０－１滋賀南部森林組合（4160005002303）と滋賀県甲賀市水口町鹿深３番３９号滋賀中央森林組合（9160005009855）と滋賀県東近江市山上町３５４４番地東近江市永源寺森林組合（9160005006480）と滋賀県米原市市場４３８番地滋賀北部森林組合（8160005004709）と滋賀県長浜市木之本町黒田１０１５番地長浜市伊香森林組合（8160005003454）と合併して滋賀県大津市大萱四丁目１７番３０号滋賀県森林組合（3160005011313）を設立し解散,2015-10-05,1,,,,,ビワコトウブ,0
1340,5170005003547,登記記録の閉鎖等,0,2024-06-26,2024-06-24,田辺市浄化槽協同組合,,その他の設立登記法人,和歌山県,田辺市,稲成町７２６番地の１,,30,206,6460051,,,2024-06-24,清算の結了等,,,2015-10-05,1,,,,,タナベシジョウカソウ,0
1341,5180001001545,登記記録の閉鎖等,0,2024-06-26,2024-06-12,株式会社アタカエンジニアリング,,株式会社,愛知県,名古屋市名東区,社が丘１丁目３０７番地,,23,115,4650051,,,2024-06-12,清算の結了等,,,2015-10-05,1,,,,,アタカエンジニアリング,0
1343,5180001135129,登記記録の閉鎖等,0,2024-06-26,2024-06-12,大紀エステート株式会社,,株式会社,愛知県,名古屋市東区,泉１丁目２１番２１号,,23,102,4610001,,,2024-06-12,清算の結了等,,,2019-01-11,1,,,,,ダイキエステート,0
1356,5200002001467,登記記録の閉鎖等,0,2024-06-26,2024-06-20,有限会社ＫＲＩ,,有限会社,岐阜県,岐阜市,岩崎６４６番地の１,,21,201,5020005,,,2024-06-20,清算の結了等,,,2015-10-05,1,,,,,ケイアールアイ,0
1362,5240005003036,登記記録の閉鎖等,0,2024-06-26,2024-06-25,特定非営利活動法人ジン・アルコ,,その他の設立登記法人,広島県,広島市西区,己斐東２丁目３０番１４号,,34,104,7330811,,,2024-06-25,清算の結了等,,,2015-10-05,1,,,,,ジンアルコ,0
1368,5290001051546,登記記録の閉鎖等,0,2024-06-26,2024-05-31,株式会社六宝,,株式会社,福岡県,久留米市,花畑３丁目７番地２,,40,203,8300039,,,2024-05-31,清算の結了等,,,2015-10-05,1,,,,,ロッポウ,0
1374,5290005009037,登記記録の閉鎖等,0,2024-06-26,2024-05-23,天理教八女分教会,,その他の設立登記法人,福岡県,八女郡広川町,大字六田２５４番地,,40,544,8340103,,,2024-05-23,合併による解散等,3290005009039,令和６年５月２３日福岡県八女市新庄１２７６番地の１天理教南筑分教會（3290005009039）に合併し解散,2015-10-05,1,,,,,テンリキョウヤメブンキョウカイ,0
1377,5320001002041,登記記録の閉鎖等,0,2024-06-26,2024-06-12,株式会社ニキコ,,株式会社,大分県,大分市,今津留１丁目２番２号,,44,201,8700938,,,2024-06-12,合併による解散等,4320001002042,令和６年６月１日大分市今津留一丁目２番２号株式会社ニキ（4320001002042）に合併し解散,2015-10-05,1,,,,,,0
1379,5320005002302,登記記録の閉鎖等,0,2024-06-26,2024-06-24,特定非営利活動法人ファミリーハウス由布　ＢＡＢＹ　ＭＩＮＥ,,その他の設立登記法人,大分県,由布市,挾間町医大ヶ丘１丁目１番地大分大学医学部小児科学講座７０１号室,,44,213,8795503,,,2024-06-24,清算の結了等,,,2015-10-05,1,,,,,ファミリーハウスユフベイビーマイン,0
1380,5330001021024,登記記録の閉鎖等,0,2024-06-26,2024-06-19,ペンタ・クリエイト株式会社,,株式会社,熊本県,熊本市南区,南高江１丁目１３番１号,,43,104,8614106,,,2024-06-19,清算の結了等,,,2015-10-05,1,,,,,ペンタクリエイト,0
1382,5340001021130,登記記録の閉鎖等,0,2024-06-26,2024-06-21,サン・スター株式会社,,株式会社,鹿児島県,姶良市,西宮島町６番地１２,,46,225,8995433,,,2024-06-21,清算の結了等,,,2018-04-23,1,,,,,サンスター,0
1455,6010101002905,登記記録の閉鎖等,0,2024-06-26,2024-06-24,日本ソルダック株式会社,,株式会社,東京都,八王子市,片倉町１３７９番地の３０,,13,201,1920914,,,2024-06-24,清算の結了等,,,2015-10-05,1,,,,,ニホンソルダック,0
1461,6010403009136,登記記録の閉鎖等,0,2024-06-26,2024-06-11,日阿貿易合同会社,,合同会社,東京都,港区,南青山２丁目２番１５号ウィン青山１４０３,,13,103,1070062,,,2024-06-11,清算の結了等,,,2015-10-05,1,,,,,ニチアボウエキ,0
1468,6010601009185,登記記録の閉鎖等,0,2024-06-26,2024-06-24,株式会社ダズンフォー,,株式会社,東京都,墨田区,吾妻橋３丁目７番４号,,13,107,1300001,,,2024-06-24,清算の結了等,,,2023-04-13,1,,,,,ダズンフォー,0
1501,6012701008785,登記記録の閉鎖等,0,2024-06-26,2024-06-18,ワイズラボ株式会社,,株式会社,東京都,新宿区,新宿６丁目２７番２９号,,13,104,1600022,,,2024-06-18,清算の結了等,,,2015-10-05,1,,,,,ワイズラボ,0
1507,6020001082245,登記記録の閉鎖等,0,2024-06-26,2024-06-13,ワールド・セブン・トラベル株式会社,,株式会社,神奈川県,川崎市中原区,木月４丁目１６番１８号,,14,133,2110025,,,2024-06-13,清算の結了等,,,2015-10-05,1,,,,,ワールドセブントラベル,0
1510,6020003010757,登記記録の閉鎖等,0,2024-06-26,2024-06-13,合同会社ＷＢＨ　ＮａｉｌＳ,,合同会社,神奈川県,川崎市中原区,新城５丁目１０番２－１階,,14,133,2110044,,,2024-06-13,清算の結了等,,,2015-12-18,1,,,,,,0
1523,6021005002981,登記記録の閉鎖等,0,2024-06-26,2024-06-20,特定非営利活動法人元気の出る歌の集い,,その他の設立登記法人,神奈川県,相模原市南区,相模台団地１番４－２０３号,,14,153,2520322,,,2024-06-20,清算の結了等,,,2015-10-05,1,,,,,ゲンキノデルウタノツドイ,0
1540,6040001089701,登記記録の閉鎖等,0,2024-06-26,2024-06-12,株式会社ｐｒｅｇｉｏｎ,,株式会社,千葉県,松戸市,小金きよしケ丘１丁目１番地の２大島レジデンス北小金６０３号,,12,207,2700013,,,2024-06-12,清算の結了等,,,2015-10-05,1,,,,,プレジオン,0
1562,6080005004685,登記記録の閉鎖等,0,2024-06-26,2024-05-28,安養寺,,その他の設立登記法人,静岡県,島田市,大代２３０４番地の１,,22,209,4280009,,,2024-05-28,合併による解散等,1080005004731,令和６年５月２８日静岡県島田市大代１２８５番地の１法昌院（1080005004731）に合併し解散,2015-10-05,1,,,,,,0
1565,6080101007732,登記記録の閉鎖等,0,2024-06-26,2024-06-20,株式会社エコライフＴＣ,,株式会社,静岡県,沼津市,大平１５１７番地の６,,22,203,4100821,,,2024-06-20,清算の結了等,,,2015-10-05,1,,,,,エコライフティシー,0
1572,6100001035319,登記記録の閉鎖等,0,2024-06-26,2024-06-11,株式会社ＹＡＭＡＵＲＡ,,株式会社,長野県,上水内郡飯綱町,大字倉井４５５８番地１,,20,590,3891204,,,2024-06-11,清算の結了等,,,2022-05-10,1,,,,,ヤマウラ,0
1592,6120002068092,登記記録の閉鎖等,0,2024-06-26,2024-06-12,有限会社グッドライフ,,有限会社,大阪府,大阪市西区,九条南４丁目１番２号,,27,106,5500025,,,2024-06-12,清算の結了等,,,2015-10-05,1,,,,,グッドライフ,0
1593,6120003011225,登記記録の閉鎖等,0,2024-06-26,2024-06-21,合同会社ふくる,,合同会社,大阪府,堺市堺区,向陵西町１丁３番５－１０５,,27,141,5900026,,,2024-06-21,清算の結了等,,,2015-12-15,1,,,,,フクル,0
1596,6120101038657,登記記録の閉鎖等,0,2024-06-26,2024-06-11,株式会社ＣＲＹＳＴＡＬ　ＭＩＹＡＫＯ,,株式会社,大阪府,岸和田市,宮本町１７番２０号,,27,202,5960054,,,2024-06-11,合併による解散等,4120001141109,令和６年６月１日大阪市浪速区湊町一丁目２番１７号ローレルタワー難波３００３号株式会社ミヤコプロスパー（4120001141109）に合併し解散,2015-10-05,1,,,,,クリスタルミヤコ,0
1628,6180003004537,登記記録の閉鎖等,0,2024-06-26,2024-06-13,合資会社名古屋ボールト製作所,,合資会社,愛知県,名古屋市中村区,井深町１１番８号,,23,105,4530012,,,2024-06-13,清算の結了等,,,2015-10-05,1,,,,,ナゴヤボールトセイサクショ,0
1629,6180003011632,登記記録の閉鎖等,0,2024-06-26,2024-06-13,丸重合資会社,,合資会社,愛知県,一宮市,萩原町萩原２１番地の２,,23,203,4910353,,,2024-06-13,清算の結了等,,,2015-10-05,1,,,,,マルシゲ,0
1634,6200005004697,登記記録の閉鎖等,0,2024-06-26,2024-06-11,大乘教大垣教会,,その他の設立登記法人,岐阜県,大垣市,藤江町３丁目１０３番地の１,,21,202,5030893,,,2024-06-11,合併による解散等,7180005000442,令和６年６月３日名古屋市熱田区外土居町４番７号大乗教会（7180005000442）に合併し解散,2015-10-05,1,,,,,ダイジョウキョウオオガキキョウカイ,0
1637,6210002007693,登記記録の閉鎖等,0,2024-06-26,2024-06-21,有限会社イトークレーン重機,,有限会社,福井県,坂井市,丸岡町一本田福所第１１号１番地,,18,210,9100251,,,2024-06-21,清算の結了等,,,2015-10-05,1,,,,,イトークレーンジュウキ,0
1641,6240002020801,登記記録の閉鎖等,0,2024-06-26,2024-06-25,有限会社ティ・エス・イー,,有限会社,広島県,広島市安芸区,上瀬野南１丁目３００番地の１８,,34,107,7390303,,,2024-06-25,清算の結了等,,,2015-10-05,1,,,,,ティーエスイー,0
1642,6250002008713,登記記録の閉鎖等,0,2024-06-26,2024-06-24,有限会社コネット,,有限会社,山口県,下関市,一の宮学園町９番１２号,,35,201,7510807,,,2024-06-24,清算の結了等,,,2015-10-05,1,,,,,コネット,0
1655,6290002039878,登記記録の閉鎖等,0,2024-06-26,2024-06-03,花牟禮工業有限会社,00093375,有限会社,福岡県,大野城市,山田３丁目１番５号,,40,219,8160922,,,2024-06-03,清算の結了等,,,2015-10-05,1,,,,,ハナムレコウギョウ,0
1666,6350002011211,登記記録の閉鎖等,0,2024-06-26,2024-06-19,日向無線有限会社,,有限会社,宮崎県,東臼杵郡門川町,須賀崎５丁目３２番地,,45,421,8890601,,,2024-06-19,清算の結了等,,,2015-10-05,1,,,,,ヒュウガムセン,0
1668,6380001011655,登記記録の閉鎖等,0,2024-06-26,2024-06-18,株式会社小浜組,,株式会社,福島県,石川郡古殿町,大字松川字古内４３番地,,07,505,9638304,,,2024-06-18,清算の結了等,,,2015-10-05,1,,,,,オバマグミ,0
1670,6380001027404,登記記録の閉鎖等,0,2024-06-26,2024-06-19,株式会社ムサシ,,株式会社,福島県,田村郡三春町,大字下舞木字岩本３５番地の３,,07,521,9637731,,,2024-06-19,清算の結了等,,,2016-10-14,1,,,,,,0
1674,6420002018686,登記記録の閉鎖等,0,2024-06-26,2024-06-21,有限会社古林工務店,,有限会社,青森県,上北郡野辺地町,字石神裏２０番地２２,,02,401,0393111,,,2024-06-21,清算の結了等,,,2015-10-05,1,,,,,フルバヤシコウムテン,0
1683,6470002001480,登記記録の閉鎖等,0,2024-06-26,2024-06-20,有限会社エルデサトウ,,有限会社,香川県,高松市,松縄町２７番地９,,37,201,7600079,,,2024-06-20,清算の結了等,,,2015-10-05,1,,,,,エルデサトウ,0
1691,6500002013464,登記記録の閉鎖等,0,2024-06-26,2024-06-17,有限会社橋本呉服店,,有限会社,愛媛県,八幡浜市,３６番地第３,,38,204,7960088,,,2024-06-17,清算の結了等,,,2015-10-05,1,,,,,,0
1692,6500002021104,登記記録の閉鎖等,0,2024-06-26,2024-06-19,有限会社サンリバー,,有限会社,香川県,高松市,丸亀町７番地１６,,37,201,7600029,,,2024-06-19,清算の結了等,,,2015-10-05,1,,,,,サンリバー,0
1697,7010001001626,登記記録の閉鎖等,0,2024-06-26,2024-06-14,株式会社オフィス・マインド,,株式会社,東京都,千代田区,九段南１丁目５番６号りそな九段ビル５階,,13,101,1020074,,,2024-06-14,清算の結了等,,,2015-10-05,1,,,,,オフィスマインド,0
1727,7010403020488,登記記録の閉鎖等,0,2024-06-26,2024-06-14,ＡＪＰ　Ｓａｐｐｏｒｏ合同会社,,合同会社,東京都,港区,虎ノ門３丁目２２番１０－２０１号,,13,103,1050001,,,2024-06-14,清算の結了等,,,2019-04-05,1,,,,,エージェーピーサッポロ,0
1738,7010703004678,登記記録の閉鎖等,0,2024-06-26,2024-06-24,ＫＦＫ合同会社,,合同会社,東京都,品川区,西五反田２丁目１３番５号,,13,109,1410031,,,2024-06-24,清算の結了等,,,2019-02-20,1,,,,,ケーエフケー,0
1761,7011701023158,登記記録の閉鎖等,0,2024-06-26,2024-06-24,株式会社岡田工務店,,株式会社,東京都,江戸川区,鹿骨１丁目１１番６号,,13,123,1330073,,,2024-06-24,清算の結了等,,,2019-12-10,1,,,,,オカダコウムテン,0
1779,7021001067739,登記記録の閉鎖等,0,2024-06-26,2024-06-24,東建商事株式会社,,株式会社,神奈川県,海老名市,上今泉６丁目３８番１２号,,14,215,2430431,,,2024-06-24,清算の結了等,,,2019-07-10,1,,,,,トウケンショウジ,0
1814,7080002017251,登記記録の閉鎖等,0,2024-06-26,2024-06-17,有限会社アールテック,,有限会社,静岡県,藤枝市,築地３２９番地の３,,22,214,4260031,,,2024-06-17,清算の結了等,,,2015-10-05,1,,,,,アールテック,0
1832,7120001108971,登記記録の閉鎖等,0,2024-06-26,2024-06-06,株式会社ピュアネス,,株式会社,大阪府,大阪市北区,兎我野町１１番２０号,00028823,27,127,5300056,,,2024-06-06,合併による解散等,6120001036942,令和６年５月３１日大阪市福島区吉野二丁目２番１２号日本クリンテック株式会社（6120001036942）に合併し解散,2015-10-05,1,,,,,ピュアネス,0
1860,7130001023443,登記記録の閉鎖等,0,2024-06-26,2024-06-24,日本ジユラツクス株式会社,,株式会社,京都府,乙訓郡大山崎町,字下植野小字宮本６番地１,,26,303,6180081,,,2024-06-24,清算の結了等,,,2015-10-05,1,,,,,ニホンジユラツクス,0
1880,7170002011344,登記記録の閉鎖等,0,2024-06-26,2024-06-24,有限会社美濃屋食器店,,有限会社,和歌山県,新宮市,仲之町２丁目２番地の１,,30,207,6470018,,,2024-06-24,清算の結了等,,,2015-10-05,1,,,,,ミノヤショッキテン,0
1882,7180001012169,登記記録の閉鎖等,0,2024-06-26,2024-06-14,三起印刷株式会社,,株式会社,愛知県,春日井市,長塚町１丁目１１１番地４,,23,206,4860934,,,2024-06-14,清算の結了等,,,2015-10-05,1,,,,,サンキインサツ,0
1883,7180001032803,登記記録の閉鎖等,0,2024-06-26,2024-06-14,株式会社松原湯,,株式会社,愛知県,名古屋市中村区,松原町３丁目９番地,,23,105,4530021,,,2024-06-14,清算の結了等,,,2015-10-05,1,,,,,マツバラユ,0
1893,7200001036999,登記記録の閉鎖等,0,2024-06-26,2024-06-21,アメノメソッド株式会社,,株式会社,岐阜県,可児市,中恵土１６７１番地１,,21,214,5090202,,,2024-06-21,清算の結了等,,,2019-12-27,1,,,,,アメノメソッド,0
1896,7210001002711,登記記録の閉鎖等,0,2024-06-26,2024-06-21,畑仲経編株式会社,,株式会社,福井県,福井市,徳光町第３５号２３の１番地,,18,201,9190305,,,2024-06-21,清算の結了等,,,2015-10-05,1,,,,,ハタナカタテアミ,0
1897,7210001008898,登記記録の閉鎖等,0,2024-06-26,2024-06-21,ナカジマＦＴ株式会社,,株式会社,福井県,吉田郡永平寺町,野中１０字３１番地,,18,322,9101324,,,2024-06-21,清算の結了等,,,2015-10-05,1,,,,,ナカジマエフティ,0
1899,7250001010462,登記記録の閉鎖等,0,2024-06-26,2024-06-25,アルテック株式会社,,株式会社,山口県,周南市,月丘町１丁目４番地,,35,215,7450062,,,2024-06-25,清算の結了等,,,2015-10-05,1,,,,,アルテック,0
1900,7250001018274,登記記録の閉鎖等,0,2024-06-26,2024-06-03,エシックス株式会社,,株式会社,福岡県,福岡市中央区,舞鶴２丁目２番３号サンライフ赤坂ビル３階,,40,133,8100073,,,2024-06-03,清算の結了等,,,2020-05-11,1,,,,,エシックス,0
1957,7490005006441,登記記録の閉鎖等,0,2024-06-26,2024-06-21,サポートスタッフ協同組合,,その他の設立登記法人,高知県,高知市,高須２丁目１７番３４号,,39,201,7818104,,,2024-06-21,清算の結了等,,,2015-10-05,1,,,,,サポートスタッフ,0
1972,8010002001021,登記記録の閉鎖等,0,2024-06-26,2024-06-14,有限会社エヌ・イー・ティー,,有限会社,東京都,文京区,本駒込１丁目１番２２号,,13,105,1130021,,,2024-06-14,清算の結了等,,,2015-10-05,1,,,,,,0
2001,8011001137632,登記記録の閉鎖等,0,2024-06-26,2024-06-12,Ｉｎｖｉｔａｅ　Ｊａｐａｎ株式会社,,株式会社,東京都,渋谷区,神宮前１丁目５番８号,,13,113,1500001,,,2024-06-12,清算の結了等,,,2020-12-22,1,,,,,インヴィテジャパン,0
2002,8011001138498,登記記録の閉鎖等,0,2024-06-26,2024-06-10,べリアスグループ株式会社,,株式会社,東京都,渋谷区,渋谷２丁目１９番１９号宮益坂伊藤ビル５Ｆ,,13,113,1500002,,,2024-06-10,合併による解散等,4013201010762,令和６年６月１日東京都品川区上大崎三丁目５番３号万代目黒ビル６Ｆ株式会社プロダクションノータイトル（4013201010762）に合併し解散,2021-02-17,1,,,,,ベリアスグループ,0
2005,8011101061195,登記記録の閉鎖等,0,2024-06-26,2024-06-18,株式会社スリーエス,,株式会社,東京都,新宿区,新宿４丁目３番２５号ＴＯＫＹＵＲＥＩＴ新宿ビル９階,,13,104,1600022,,,2024-06-18,清算の結了等,,,2015-10-05,1,,,,,スリーエス,0
2006,8011101093049,登記記録の閉鎖等,0,2024-06-26,2024-06-19,株式会社ガンシス,,株式会社,東京都,新宿区,西新宿５丁目２５－１４ラ・ヴィスタ西新宿６０３号室,,13,104,1600023,,,2024-06-19,清算の結了等,,,2020-11-09,1,,,,,ガンシス,0
2030,8020001132485,登記記録の閉鎖等,0,2024-06-26,2024-06-03,株式会社ハンズアウトドアリゾート,,株式会社,神奈川県,横浜市港北区,新横浜２丁目２番８号,,14,109,2220033,,,2024-06-03,合併による解散等,7020001025351,令和６年６月１日横浜市保土ケ谷区仏向町１５５８番地株式会社ハンズゴルフ＆リゾート（7020001025351）に合併し解散,2019-08-22,1,,,,,ハンズアウトドアリゾート,0
2035,8021001008642,登記記録の閉鎖等,0,2024-06-26,2024-06-24,株式会社湘南ビルメンテナンス,,株式会社,神奈川県,茅ヶ崎市,矢畑３８８番地５,,14,207,2530085,,,2024-06-24,清算の結了等,,,2015-10-05,1,,,,,ショウナンビルメンテナンス,0
2040,8021002027773,登記記録の閉鎖等,0,2024-06-26,2024-06-24,アールエイチ企画有限会社,,有限会社,神奈川県,相模原市緑区,橋本６丁目４番１５号,,14,151,2520143,,,2024-06-24,清算の結了等,,,2015-10-05,1,,,,,,0
2048,8030002060602,登記記録の閉鎖等,0,2024-06-26,2024-06-17,有限会社石岡建業,,有限会社,埼玉県,新座市,石神３丁目１４番３１号,,11,230,3520033,,,2024-06-17,清算の結了等,,,2015-10-05,1,,,,,イシオカケンギョウ,0
2058,8040001065592,登記記録の閉鎖等,0,2024-06-26,2024-06-24,ライズ株式会社,,株式会社,東京都,品川区,西五反田３丁目２番１３号ヴァン・デスポワール目黒７０５,,13,109,1410031,,,2024-06-24,清算の結了等,,,2015-10-05,1,,,,,ライズ,0
2077,8080002017911,登記記録の閉鎖等,0,2024-06-26,2024-06-10,有限会社ホンダファミリー,,有限会社,静岡県,藤枝市,築地１丁目１７番２２号,,22,214,4260031,,,2024-06-10,合併による解散等,5080401014859,令和６年６月１日静岡県菊川市加茂５４４番地の１株式会社ホンダカーズ駿河（5080401014859）に合併し解散,2015-10-05,1,,,,,ホンダファミリー,0
2092,8100001001814,登記記録の閉鎖等,0,2024-06-26,2024-06-11,株式会社太陽電気工事,,株式会社,長野県,長野市,大橋南２丁目９番地１,,20,201,3812207,,,2024-06-11,清算の結了等,,,2015-10-05,1,,,,,タイヨウデンキコウジ,0
2120,8122001032390,登記記録の閉鎖等,0,2024-06-26,2024-06-25,株式会社ＨＡＫＵＤＡ．,,株式会社,大阪府,八尾市,上尾町２丁目２６番地の１,,27,212,5810851,,,2024-06-25,清算の結了等,,,2019-03-05,1,,,,,ハクダ,0
2125,8130001061021,登記記録の閉鎖等,0,2024-06-26,2024-06-24,株式会社シード・リーフ,,株式会社,京都府,京都市北区,紫竹大門町４６番地マンションやまもと１階,,26,101,6038414,,,2024-06-24,清算の結了等,,,2017-12-01,1,,,,,シードリーフ,0
2128,8140001009804,登記記録の閉鎖等,0,2024-06-26,2024-06-24,株式会社中美商行,,株式会社,兵庫県,神戸市中央区,中山手通７丁目１１番１３号,,28,110,6500004,,,2024-06-24,清算の結了等,,,2015-10-05,1,,,,,チュウビショウコウ,0
2129,8140001026857,登記記録の閉鎖等,0,2024-06-26,2024-06-24,株式会社ミリオネア,,株式会社,兵庫県,神戸市中央区,南本町通３丁目１－２１不二ビル,,28,110,6510074,,,2024-06-24,清算の結了等,,,2015-10-05,1,,,,,ミリオネア,0
2132,8140001118233,登記記録の閉鎖等,0,2024-06-26,2024-06-21,株式会社たじまじ,,株式会社,兵庫県,加古川市,平岡町高畑４９０－１,,28,210,6750103,,,2024-06-21,合併による解散等,7140001121188,令和６年６月２１日兵庫県加古川市平岡町高畑４９０番地１ナガサワ食品株式会社（7140001121188）に合併し解散,2020-07-30,1,,,,,タジマジ,0
2140,8160005003454,登記記録の閉鎖等,0,2024-06-26,2024-06-03,長浜市伊香森林組合,,その他の設立登記法人,滋賀県,長浜市,木之本町黒田１０１５番地,,25,203,5290426,,,2024-06-03,合併による解散等,3160005011313,令和６年６月３日滋賀県大津市瀬田神領町番戸谷４０－１滋賀南部森林組合（4160005002303）と滋賀県甲賀市水口町鹿深３番３９号滋賀中央森林組合（9160005009855）と滋賀県東近江市山上町３５４４番地東近江市永源寺森林組合（9160005006480）と滋賀県犬上郡多賀町大字多賀２４６番地びわこ東部森林組合（5160005004991）と滋賀県米原市市場４３８番地滋賀北部森林組合（8160005004709）と合併して滋賀県大津市大萱四丁目１７番３０号滋賀県森林組合（3160005011313）を設立し解散,2015-10-05,1,,,,,ナガハマシイカ,0
2141,8160005004709,登記記録の閉鎖等,0,2024-06-26,2024-06-03,滋賀北部森林組合,,その他の設立登記法人,滋賀県,米原市,市場４３８番地,,25,214,5210225,,,2024-06-03,合併による解散等,3160005011313,令和６年６月３日滋賀県大津市瀬田神領町番戸谷４０－１滋賀南部森林組合（4160005002303）と滋賀県甲賀市水口町鹿深３番３９号滋賀中央森林組合（9160005009855）と滋賀県東近江市山上町３５４４番地東近江市永源寺森林組合（9160005006480）と滋賀県犬上郡多賀町大字多賀２４６番地びわこ東部森林組合（5160005004991）と滋賀県長浜市木之本町黒田１０１５番地長浜市伊香森林組合（8160005003454）と合併して滋賀県大津市大萱四丁目１７番３０号滋賀県森林組合（3160005011313）を設立し解散,2015-10-05,1,,,,,シガホクブ,0
2143,8180001024056,登記記録の閉鎖等,0,2024-06-26,2024-06-17,クロード株式会社,,株式会社,愛知県,名古屋市天白区,井口１丁目６０４番地,,23,116,4680052,,,2024-06-17,清算の結了等,,,2015-10-05,1,,,,,クロード,0
2153,8180002070149,登記記録の閉鎖等,0,2024-06-26,2024-06-12,有限会社山崎建築,00134603,有限会社,愛知県,小牧市,大字下末１４９６番地の２,,23,219,4850825,,,2024-06-12,清算の結了等,,,2024-05-08,1,,,,,ヤマザキケンチク,0
2171,8260001002879,登記記録の閉鎖等,0,2024-06-26,2024-06-12,坂本シヤーリング株式会社,,株式会社,岡山県,岡山市南区,泉田３６２番地の２,,33,104,7000944,,,2024-06-12,清算の結了等,,,2015-10-05,1,,,,,サカモトシヤーリング,0
2192,8290802020969,登記記録の閉鎖等,0,2024-06-26,2024-06-24,有限会社アラキ興産,,有限会社,東京都,八王子市,めじろ台４丁目１８番地６号,,13,201,1930833,,,2024-06-24,清算の結了等,,,2015-10-05,1,,,,,アラキコウサン,0
2202,8340002000840,登記記録の閉鎖等,0,2024-06-26,2024-06-21,有限会社アイランドフーズ,,有限会社,鹿児島県,鹿児島市,小川町１９番１－４０６号,,46,201,8920817,,,2024-06-21,清算の結了等,,,2015-10-05,1,,,,,アイランドフーズ,0
2205,8350001004817,登記記録の閉鎖等,0,2024-06-26,2024-06-19,株式会社サンハウス,,株式会社,宮崎県,宮崎市,太田１丁目３番３１号コーポ大淀３０３号,,45,201,8800903,,,2024-06-19,清算の結了等,,,2015-10-05,1,,,,,サンハウス,0
2206,8350001012720,登記記録の閉鎖等,0,2024-06-26,2024-06-11,上田総合株式会社,,株式会社,宮崎県,小林市,北西方２１１４番地１,,45,205,8860006,,,2024-06-11,清算の結了等,,,2015-10-05,1,,,,,ウエダソウゴウ,0
2207,8350001016894,登記記録の閉鎖等,0,2024-06-26,2024-06-19,株式会社パルムドール,,株式会社,宮崎県,都城市,下長飯町１０３３－９,,45,202,8850061,,,2024-06-19,清算の結了等,,,2021-02-08,1,,,,,パルムドール,0
2208,8350005002800,登記記録の閉鎖等,0,2024-06-26,2024-06-14,延岡地区鮮魚事業協同組合,,その他の設立登記法人,宮崎県,延岡市,昭和町２丁目５６番地,,45,203,8820034,,,2024-06-14,清算の結了等,,,2015-10-05,1,,,,,ノベオカチクセンギョ,0
2212,8370201003492,登記記録の閉鎖等,0,2024-06-26,2024-06-12,株式会社柏屋,,株式会社,宮城県,栗原市,高清水中町２番地,,04,213,9872186,,,2024-06-12,清算の結了等,,,2015-10-05,1,,,,,カシワヤ,0
2213,8370802001531,登記記録の閉鎖等,0,2024-06-26,2024-06-13,有限会社東和精密,,有限会社,宮城県,亘理郡山元町,浅生原字内手６８番地,,04,362,9892203,,,2024-06-13,清算の結了等,,,2015-10-05,1,,,,,,0
2222,8400002003713,登記記録の閉鎖等,0,2024-06-26,2024-06-14,利府商事有限会社,,有限会社,岩手県,盛岡市,名須川町１８番５号,,03,201,0200016,,,2024-06-14,清算の結了等,,,2015-10-05,1,,,,,リフショウジ,0
2237,8440005002642,登記記録の閉鎖等,0,2024-06-26,2024-06-21,一般社団法人函館市民サポート協議会,,その他の設立登記法人,北海道,函館市,中道１丁目１５番１０号,,01,202,0410853,,,2024-06-21,清算の結了等,,,2018-11-16,1,,,,,ハコダテシミンサポートキョウギカイ,0
2252,9010001205051,登記記録の閉鎖等,0,2024-06-26,2024-06-14,ジューシーアート株式会社,,株式会社,東京都,中央区,銀座１丁目２２番１１号銀座大竹ビジデンス２階,,13,102,1040061,,,2024-06-14,清算の結了等,,,2019-11-05,1,,,,,ジューシーアート,0
2270,9010401163782,登記記録の閉鎖等,0,2024-06-26,2024-06-13,株式会社ＶＩＶＡ　ＰＡＮＤＡ,,株式会社,東京都,港区,三田３丁目１番１９号第１２シグマビル,,13,103,1080073,,,2024-06-13,清算の結了等,,,2021-11-12,1,,,,,ビバパンダ,0
2279,9010601050343,登記記録の閉鎖等,0,2024-06-26,2024-06-24,株式会社スコーピオダイナー,,株式会社,東京都,江東区,牡丹２丁目１０番１－４０２号,,13,108,1350046,,,2024-06-24,清算の結了等,,,2016-09-08,1,,,,,スコーピオダイナー,0
2281,9010605001937,登記記録の閉鎖等,0,2024-06-26,2024-06-13,ＪＣビジネスサポート協同組合,,その他の設立登記法人,千葉県,船橋市,本町６丁目３番２１－６０２号,,12,204,2730005,,,2024-06-13,清算の結了等,,,2015-10-05,1,,,,,ジェイシービジネスサポート,0
2284,9010801030814,登記記録の閉鎖等,0,2024-06-26,2024-06-17,株式会社ドライコーポレーション,,株式会社,東京都,大田区,大森西４丁目１７番８号アンビションＶ,00119608,13,111,1430015,,,2024-06-17,清算の結了等,,,2020-04-30,1,,,,,ドライコーポレーション,0
2286,9010901025177,登記記録の閉鎖等,0,2024-06-26,2024-06-24,株式会社バウム,,株式会社,東京都,世田谷区,宮坂２丁目２６番２６号,,13,112,1560051,,,2024-06-24,清算の結了等,,,2015-10-05,1,,,,,バウム,0
2301,9011302003078,登記記録の閉鎖等,0,2024-06-26,2024-06-17,有限会社クリーニングちあき,,有限会社,東京都,杉並区,下井草５丁目１９番１１号,,13,115,1670022,,,2024-06-17,清算の結了等,,,2015-10-05,1,,,,,クリーニングチアキ,0
2324,9013205001324,登記記録の閉鎖等,0,2024-06-26,2024-06-03,特定非営利活動法人アビィフィールド目黒協会,,その他の設立登記法人,東京都,目黒区,大岡山２丁目７番１８号木村方,,13,110,1520033,,,2024-06-03,清算の結了等,,,2015-10-05,1,,,,,アビィフィールドメグロキョウカイ,0
2337,9030001002785,登記記録の閉鎖等,0,2024-06-26,2024-06-21,株式会社小島地銅店,,株式会社,埼玉県,さいたま市中央区,下落合３丁目１４番３号,,11,105,3380002,,,2024-06-21,清算の結了等,,,2015-10-05,1,,,,,コジマジドウテン,0
2338,9030001044019,登記記録の閉鎖等,0,2024-06-26,2024-06-21,株式会社なごみケア,,株式会社,埼玉県,上尾市,小泉４丁目７番地１４,,11,219,3620063,,,2024-06-21,清算の結了等,,,2015-10-05,1,,,,,ナゴミケア,0
2376,9080002018248,登記記録の閉鎖等,0,2024-06-26,2024-06-18,有限会社静岡インターナショナルサービス,,有限会社,静岡県,藤枝市,高岡３丁目２番１０号,,22,214,4260062,,,2024-06-18,清算の結了等,,,2015-10-05,1,,,,,シズオカインターナショナルサービス,0
2377,9080005000517,登記記録の閉鎖等,0,2024-06-26,2024-06-05,天理教龍駿分教会,,その他の設立登記法人,静岡県,静岡市葵区,上足洗２丁目３番２１号,,22,101,4200841,,,2024-06-05,合併による解散等,1080005000516,令和６年６月５日静岡市葵区瀬名一丁目１１番７５号天理教龍南分教会（1080005000516）に合併し解散,2015-10-05,1,,,,,テンリキョウリュウスンブンキョウカイ,0
2378,9080101017381,登記記録の閉鎖等,0,2024-06-26,2024-06-24,レッド・アイ株式会社,,株式会社,静岡県,三島市,青木２２２番地,,22,206,4110811,,,2024-06-24,清算の結了等,,,2015-10-05,1,,,,,レッドアイ,0
2404,9120903003252,登記記録の閉鎖等,0,2024-06-26,2024-06-20,Ｃｏｚｙ　Ｓｐａｃｅ合同会社,,合同会社,大阪府,豊中市,新千里西町２丁目３番４－５０８号,,27,203,5600083,,,2024-06-20,清算の結了等,,,2020-06-15,1,,,,,コージースペース,0
2406,9122003001392,登記記録の閉鎖等,0,2024-06-26,2024-06-25,合同会社ｍｏｔｏｋｉ,,合同会社,大阪府,東大阪市,友井１丁目９番１号,,27,227,5770816,,,2024-06-25,清算の結了等,,,2017-09-08,1,,,,,,0
2414,9140002019314,登記記録の閉鎖等,0,2024-06-26,2024-06-24,しらさぎ配送サービス有限会社,,有限会社,兵庫県,神戸市垂水区,下畑町字鷲ケ尾３０３番地の２２,,28,108,6550861,,,2024-06-24,清算の結了等,,,2015-10-05,1,,,,,シラサギハイソウサービス,0
2416,9160005006480,登記記録の閉鎖等,0,2024-06-26,2024-06-03,東近江市永源寺森林組合,,その他の設立登記法人,滋賀県,東近江市,山上町３５４４番地,,25,213,5270231,,,2024-06-03,合併による解散等,3160005011313,令和６年６月３日滋賀県大津市瀬田神領町番戸谷４０－１滋賀南部森林組合（4160005002303）と滋賀県甲賀市水口町鹿深３番３９号滋賀中央森林組合（9160005009855）と滋賀県犬上郡多賀町大字多賀２４６番地びわこ東部森林組合（5160005004991）と滋賀県米原市市場４３８番地滋賀北部森林組合（8160005004709）と滋賀県長浜市木之本町黒田１０１５番地長浜市伊香森林組合（8160005003454）と合併して滋賀県大津市大萱四丁目１７番３０号滋賀県森林組合（3160005011313）を設立し解散,2015-10-05,1,,,,,ヒガシオウミシエイゲンジ,0
2417,9160005009855,登記記録の閉鎖等,0,2024-06-26,2024-06-03,滋賀中央森林組合,,その他の設立登記法人,滋賀県,甲賀市,水口町鹿深３番３９号,,25,209,5280014,,,2024-06-03,合併による解散等,3160005011313,令和６年６月３日滋賀県大津市瀬田神領町番戸谷４０－１滋賀南部森林組合（4160005002303）と滋賀県東近江市山上町３５４４番地東近江市永源寺森林組合（9160005006480）と滋賀県犬上郡多賀町大字多賀２４６番地びわこ東部森林組合（5160005004991）と滋賀県米原市市場４３８番地滋賀北部森林組合（8160005004709）と滋賀県長浜市木之本町黒田１０１５番地長浜市伊香森林組合（8160005003454）と合併して滋賀県大津市大萱四丁目１７番３０号滋賀県森林組合（3160005011313）を設立し解散,2015-10-05,1,,,,,シガチュウオウ,0
2420,9180001060819,登記記録の閉鎖等,0,2024-06-26,2024-06-14,株式会社プロセスデザイン,,株式会社,愛知県,名古屋市千種区,青柳町６丁目１番地の２,,23,101,4640852,,,2024-06-14,清算の結了等,,,2015-10-05,1,,,,,プロセスデザイン,0
2428,9180002047154,登記記録の閉鎖等,0,2024-06-26,2024-06-13,有限会社エイトップ,,有限会社,愛知県,名古屋市中川区,愛知町１０番８号,,23,110,4540807,,,2024-06-13,清算の結了等,,,2015-10-05,1,,,,,エイトップ,0
2436,9200001032724,登記記録の閉鎖等,0,2024-06-26,2024-06-21,株式会社からっぽ,,株式会社,岐阜県,本巣郡北方町,高屋太子１丁目１番地の２,,21,421,5010457,,,2024-06-21,清算の結了等,,,2016-04-11,1,,,,,カラッポ,0
2443,9220002001453,登記記録の閉鎖等,0,2024-06-26,2024-06-21,有限会社エッチアンドエム,,有限会社,石川県,金沢市,額乙丸町ロ１９３番地３,,17,201,9218146,,,2024-06-21,清算の結了等,,,2015-10-05,1,,,,,エッチアンドエム,0
2445,9220005001310,登記記録の閉鎖等,0,2024-06-26,2024-06-19,一尊教団,00078616,その他の設立登記法人,石川県,金沢市,弥生２丁目１３番２６号,,17,201,9218036,,,2024-06-19,清算の結了等,,,2015-10-05,1,,,,,イッソンキョウダン,0
2460,9290003010892,登記記録の閉鎖等,0,2024-06-26,2024-06-03,合同会社サッカー療育研究所,,合同会社,福岡県,久留米市,上津町１８３２番地,,40,203,8300052,,,2024-06-03,合併による解散等,9290001069089,令和６年６月１日福岡県久留米市上津町１８３２番地株式会社ハートアップ（9290001069089）に合併し解散,2021-02-12,1,,,,,サッカーリョウイクケンキュウジョ,0
2475,9320001002871,登記記録の閉鎖等,0,2024-06-26,2024-06-12,株式会社ルノン,,株式会社,大分県,大分市,今津留１丁目２番２号,,44,201,8700938,,,2024-06-12,合併による解散等,4320001002042,令和６年６月１日大分市今津留一丁目２番２号株式会社ニキ（4320001002042）に合併し解散,2015-10-05,1,,,,,,0
2476,9320002019188,登記記録の閉鎖等,0,2024-06-26,2024-06-17,有限会社谷石油,,有限会社,大分県,日田市,大字日高３０１９番地の１,,44,204,8770000,,,2024-06-17,清算の結了等,,,2015-10-05,1,,,,,,0
2479,9330005006975,登記記録の閉鎖等,0,2024-06-26,2024-06-06,大山祗神社,,その他の設立登記法人,熊本県,天草市,志柿町字沖田２８５７番地,,43,215,8630041,,,2024-06-06,合併による解散等,9330005007024,令和６年６月６日熊本県天草市志柿町字柳の迫３５７６番地志柿八幡宮（9330005007024）に合併し解散,2015-10-05,1,,,,,オオヤマヅミジンジャ,0
2493,9400002011104,登記記録の閉鎖等,0,2024-06-26,2024-06-13,小本砂利販売有限会社,,有限会社,岩手県,下閉伊郡岩泉町,小本字本茂師９３番地,,03,483,0270421,,,2024-06-13,清算の結了等,,,2015-10-05,1,,,,,オモトジャリハンバイ,0
