sequenceNumber,corporateNumber,process,correct,updateDate,changeDate,name,nameImageId,kind,prefectureName,cityName,streetNumber,addressImageId,prefectureCode,cityCode,postCode,addressOutside,addressOutsideImageId,closeDate,closeCause,successorCorporateNumber,changeCause,assignmentDate,latest,enName,enPrefectureName,enCityName,enAddressOutside,furigana,hihyoji
7,1010001099352,登記記録の閉鎖等,0,2021-08-05,2021-08-02,株式会社カタッチ,,株式会社,静岡県,浜松市北区,細江町中川７０００番地の６５,,22,135,4311304,,,2021-08-02,合併による解散等,3080401000365,令和３年８月１日静岡県浜松市中区板屋町１１１番地の２株式会社アルモニコス（3080401000365）に合併し解散,2015-10-05,1,,,,,カタッチ,0
20,1010401072842,登記記録の閉鎖等,0,2021-08-05,2021-07-28,株式会社イノベーション研究所,,株式会社,東京都,世田谷区,羽根木２丁目２５番１９号,,13,112,1560042,,,2021-07-28,清算の結了等,,,2015-10-05,1,,,,,イノベーションケンキュウジョ,0
32,1010501045582,登記記録の閉鎖等,0,2021-08-05,2021-07-28,ｉＲｅｐｅａｔ株式会社,,株式会社,東京都,台東区,小島２丁目１０番１号Ｍ・Ｓ・ＢＬＤＧ２０１,,13,106,1110056,,,2021-07-28,清算の結了等,,,2020-04-10,1,,,,,アイリピート,0
75,1011703002322,登記記録の閉鎖等,0,2021-08-05,2021-08-02,ミライトイ合同会社,,合同会社,東京都,江戸川区,船堀３丁目１０番２２号,,13,123,1340091,,,2021-08-02,清算の結了等,,,2019-08-05,1,,,,,ミライトイ,0
80,1012701014152,登記記録の閉鎖等,0,2021-08-05,2021-08-02,株式会社五十鈴トレーディング,,株式会社,東京都,西東京市,向台町３丁目１番１５号,,13,229,1880013,,,2021-08-02,清算の結了等,,,2017-02-22,1,,,,,イスズトレーディング,0
89,1020001006951,登記記録の閉鎖等,0,2021-08-05,2021-07-28,能見台ホーム株式会社,,株式会社,神奈川県,横浜市金沢区,富岡西２丁目１番１０号,,14,108,2360052,,,2021-07-28,清算の結了等,,,2015-10-05,1,,,,,ノウケンダイホーム,0
99,1020002050321,登記記録の閉鎖等,0,2021-08-05,2021-07-27,有限会社サンパックテクノ,,有限会社,神奈川県,横浜市瀬谷区,瀬谷６丁目１６番地の３,,14,114,2460031,,,2021-07-27,清算の結了等,,,2015-10-05,1,,,,,サンパックテクノ,0
109,1021005006087,登記記録の閉鎖等,0,2021-08-05,2021-07-28,医療法人理趣会,,その他の設立登記法人,神奈川県,小田原市,堀之内１６番地,,14,206,2500853,,,2021-07-28,清算の結了等,,,2015-10-05,1,,,,,リシュカイ,0
111,1030001048076,登記記録の閉鎖等,0,2021-08-05,2021-07-20,電機通信株式会社,,株式会社,埼玉県,富士見市,大字下南畑１１３０番地３,,11,235,3540004,,,2021-07-20,清算の結了等,,,2015-10-05,1,,,,,デンキツウシン,0
119,1030005009900,登記記録の閉鎖等,0,2021-08-05,2021-07-21,特定非営利活動法人燈台,,その他の設立登記法人,埼玉県,北本市,緑４丁目１４８番地南福音診療所内,,11,233,3640032,,,2021-07-21,清算の結了等,,,2015-10-05,1,,,,,トウダイ,0
157,1090002008783,登記記録の閉鎖等,0,2021-08-05,2021-08-02,有限会社渡辺製作所,,有限会社,山梨県,笛吹市,芦川町鶯宿３４７番地,00068884,19,211,4093704,,,2021-08-02,清算の結了等,,,2015-10-05,1,,,,,ワタナベセイサクショ,0
161,1110001016322,登記記録の閉鎖等,0,2021-08-05,2021-07-29,株式会社亀井組,,株式会社,新潟県,燕市,中島１１１０番地,,15,213,9590105,,,2021-07-29,清算の結了等,,,2015-10-05,1,,,,,カメイグミ,0
168,1120001130782,登記記録の閉鎖等,0,2021-08-05,2021-07-26,株式会社デイズプラン,,株式会社,大阪府,大阪市中央区,南久宝寺町２丁目３番６号ＹＫビル３０１号,,27,128,5410058,,,2021-07-26,清算の結了等,,,2015-10-05,1,,,,,,0
195,1130001064526,登記記録の閉鎖等,0,2021-08-05,2021-08-02,株式会社Ｆｉｖｅ　Ｓｅｎｓｅ,,株式会社,京都府,京都市左京区,北白川西町８２番地３光楽堂ビル地下１階,,26,103,6068267,,,2021-08-02,清算の結了等,,,2019-05-23,1,,,,,ファイブセンス,0
207,1140002028207,登記記録の閉鎖等,0,2021-08-05,2021-08-02,有限会社明石ランチ,,有限会社,兵庫県,明石市,本町１丁目７番１９号,,28,203,6730892,,,2021-08-02,清算の結了等,,,2015-10-05,1,,,,,,0
254,1220001010090,登記記録の閉鎖等,0,2021-08-05,2021-07-27,株式会社ナカノ商事,,株式会社,石川県,金沢市,八田町東３７番地２,,17,201,9203104,,,2021-07-27,清算の結了等,,,2015-10-05,1,,,,,ナカノショウジ,0
293,1290802010217,登記記録の閉鎖等,0,2021-08-05,2021-07-21,有限会社横浜エスユウ,,有限会社,福岡県,北九州市門司区,黒川西２丁目１番１４号,,40,101,8010825,,,2021-07-21,清算の結了等,,,2015-10-05,1,,,,,ヨコハマエスユウ,0
300,1330002028625,登記記録の閉鎖等,0,2021-08-05,2021-07-30,有限会社松寿汽船,,有限会社,熊本県,上天草市,松島町阿村５０５３番地,,43,212,8616101,,,2021-07-30,清算の結了等,,,2015-10-05,1,,,,,ショウジュキセン,0
301,1340001015986,登記記録の閉鎖等,0,2021-08-05,2021-07-20,株式会社太陽,,株式会社,東京都,中央区,銀座３丁目９番１号,,13,102,1040061,,,2021-07-20,合併による解散等,3010001124587,令和３年６月３０日東京都中央区銀座三丁目９番１号株式会社ロマンシルク（3010001124587）に合併し解散,2015-10-05,1,,,,,タイヨウ,0
302,1340001021472,登記記録の閉鎖等,0,2021-08-05,2021-07-21,株式会社ダビンチソフトウェア,,株式会社,鹿児島県,鹿屋市,川西町３９４９番地４,,46,203,8930032,,,2021-07-21,清算の結了等,,,2018-09-19,1,,,,,ダビンチソフトウェア,0
307,1350001004666,登記記録の閉鎖等,0,2021-08-05,2021-08-03,株式会社オリエント,,株式会社,宮崎県,宮崎市,橘通東１丁目４番１１号,,45,201,8800805,,,2021-08-03,清算の結了等,,,2015-10-05,1,,,,,オリエント,0
325,1390002010131,登記記録の閉鎖等,0,2021-08-05,2021-07-28,有限会社高橋工業所,00084949,有限会社,山形県,鶴岡市,羽黒町町屋字村中３８番地,,06,203,9970101,,,2021-07-28,清算の結了等,,,2015-10-05,1,,,,,タカハシコウギョウショ,0
330,1430003000564,登記記録の閉鎖等,0,2021-08-05,2021-08-02,合名会社大川マンション,,合名会社,北海道,札幌市豊平区,美園二条２丁目３番８号,,01,105,0620002,,,2021-08-02,清算の結了等,,,2015-10-05,1,,,,,オオカワマンション,0
349,2010001033343,登記記録の閉鎖等,0,2021-08-05,2021-07-21,株式会社日本センサー,,株式会社,東京都,千代田区,麹町２丁目１４番地麴町パレス４０３号,00060558,13,101,1020083,,,2021-07-21,清算の結了等,,,2015-10-05,1,,,,,ニホンセンサー,0
362,2010003031139,登記記録の閉鎖等,0,2021-08-05,2021-07-29,南港マネージメント合同会社,,合同会社,東京都,千代田区,丸の内１丁目１１番１号,,13,101,1000005,,,2021-07-29,清算の結了等,,,2019-11-26,1,,,,,ナンコウマネージメント,0
398,2011002010570,登記記録の閉鎖等,0,2021-08-05,2021-07-12,有限会社フォーチュンノックス,,有限会社,東京都,渋谷区,恵比寿１丁目８－１４大黒ビル,,13,113,1500013,,,2021-07-12,清算の結了等,,,2015-10-05,1,,,,,フォーチュンノックス,0
400,2011101000605,登記記録の閉鎖等,0,2021-08-05,2021-07-29,株式会社アクティブ・ブレインズ,,株式会社,東京都,新宿区,新宿５丁目９番１２号,,13,104,1600022,,,2021-07-29,清算の結了等,,,2015-10-05,1,,,,,アクティブブレインズ,0
418,2011801017709,登記記録の閉鎖等,0,2021-08-05,2021-08-03,株式会社Ｋｅｎｄｉｄ,,株式会社,東京都,足立区,保木間４丁目１番９号,,13,121,1210064,,,2021-08-03,清算の結了等,,,2015-10-05,1,,,,,ケンディッド,0
433,2013301041767,登記記録の閉鎖等,0,2021-08-05,2021-07-26,株式会社ＨＲマネジメント,,株式会社,東京都,豊島区,南池袋２丁目４９番７号,,13,116,1710022,,,2021-07-26,合併による解散等,4013301042821,令和３年７月１日東京都豊島区南池袋二丁目４９番７号株式会社ＢＯＤ・Ａｌｐｈａ（4013301042821）に合併し解散,2018-02-08,1,,,,,エイチアールマネジメント,0
435,2020001011950,登記記録の閉鎖等,0,2021-08-05,2021-07-27,常陸包装株式会社,,株式会社,神奈川県,横浜市都筑区,池辺町２６６６番地,,14,118,2240053,,,2021-07-27,清算の結了等,,,2015-10-05,1,,,,,,0
448,2021002043108,登記記録の閉鎖等,0,2021-08-05,2021-07-27,有限会社アバン,,有限会社,神奈川県,座間市,四ツ谷９０６番地,,14,216,2520025,,,2021-07-27,清算の結了等,,,2015-10-05,1,,,,,アバン,0
453,2030001020868,登記記録の閉鎖等,0,2021-08-05,2021-07-14,赤尾金属工業株式会社,,株式会社,埼玉県,蕨市,塚越７丁目２１番８号,,11,223,3350002,,,2021-07-14,清算の結了等,,,2021-04-21,1,,,,,アカオキンゾクコウギョウ,0
460,2030002028761,登記記録の閉鎖等,0,2021-08-05,2021-07-21,有限会社加藤幸工務店,,有限会社,埼玉県,所沢市,所沢新町２５５１番地の６,,11,208,3590006,,,2021-07-21,清算の結了等,,,2015-10-05,1,,,,,カトウコウコウムテン,0
462,2030002065648,登記記録の閉鎖等,0,2021-08-05,2021-07-21,有限会社吉原,,有限会社,埼玉県,新座市,野火止８丁目１０番１０号,,11,230,3520011,,,2021-07-21,清算の結了等,,,2015-10-05,1,,,,,ヨシワラ,0
474,2050001007979,登記記録の閉鎖等,0,2021-08-05,2021-07-26,株式会社崎山,,株式会社,茨城県,笠間市,南小泉字赤岡５１９番地６,,08,216,3091725,,,2021-07-26,清算の結了等,,,2015-10-05,1,,,,,サキヤマ,0
475,2050001028406,登記記録の閉鎖等,0,2021-08-05,2021-07-30,株式会社タカザワ,,株式会社,茨城県,取手市,井野台３丁目２９番３号,,08,217,3020015,,,2021-07-30,清算の結了等,,,2015-10-05,1,,,,,タカザワ,0
484,2070001017539,登記記録の閉鎖等,0,2021-08-05,2021-08-03,株式会社大井組,,株式会社,群馬県,北群馬郡吉岡町,大字北下乙１１７５番地,,10,345,3703605,,,2021-08-03,清算の結了等,,,2015-10-05,1,,,,,,0
490,2070002028502,登記記録の閉鎖等,0,2021-08-05,2021-08-02,有限会社奥野鉄工,,有限会社,群馬県,太田市,由良町８０番地の１,,10,205,3730036,,,2021-08-02,清算の結了等,,,2015-10-05,1,,,,,オクノテッコウ,0
546,2140002032851,登記記録の閉鎖等,0,2021-08-05,2021-07-30,有限会社丸林自動車,,有限会社,兵庫県,宍粟市,山崎町高所１７番地の２,,28,227,6712532,,,2021-07-30,清算の結了等,,,2015-10-05,1,,,,,マルバヤシジドウシャ,0
554,2180001081004,登記記録の閉鎖等,0,2021-08-05,2021-08-02,近藤自動車株式会社,,株式会社,愛知県,犬山市,上坂町４丁目２１１番地,,23,215,4840059,,,2021-08-02,清算の結了等,,,2015-10-05,1,,,,,コンドウジドウシャ,0
583,2240001052634,登記記録の閉鎖等,0,2021-08-05,2021-07-20,株式会社大前車輌,,株式会社,広島県,広島市佐伯区,五日市７丁目６番１５号,,34,108,7315127,,,2021-07-20,清算の結了等,,,2018-04-06,1,,,,,,0
591,2250002002587,登記記録の閉鎖等,0,2021-08-05,2021-07-30,秋山産業有限会社,,有限会社,山口県,山口市,徳地島地４６２番地の１,,35,203,7470522,,,2021-07-30,清算の結了等,,,2015-10-05,1,,,,,アキヤマサンギョウ,0
592,2250002013469,登記記録の閉鎖等,0,2021-08-05,2021-07-19,有限会社正宗板金工業,,有限会社,山口県,萩市,大字椿東４１６０番地の５７,,35,204,7580011,,,2021-07-19,清算の結了等,,,2015-10-05,1,,,,,マサムネバンキンコウギョウ,0
594,2260001031363,登記記録の閉鎖等,0,2021-08-05,2021-08-02,株式会社Ｍカンパニー,,株式会社,岡山県,岡山市北区,中仙道５７番地１０３,,33,101,7000964,,,2021-08-02,清算の結了等,,,2017-10-17,1,,,,,エムカンパニー,0
606,2310001016870,登記記録の閉鎖等,0,2021-08-05,2021-07-30,株式会社農関流通,,株式会社,長崎県,大村市,皆同町６３５番地１,,42,205,8560802,,,2021-07-30,清算の結了等,,,2020-09-09,1,,,,,ノウカンリュウツウ,0
613,2320002017842,登記記録の閉鎖等,0,2021-08-05,2021-08-03,有限会社共和電機工業,,有限会社,大分県,竹田市,久住町大字久住６２１０番地１,,44,208,8780201,,,2021-08-03,清算の結了等,,,2015-10-05,1,,,,,キョウワデンキコウギョウ,0
617,2340002022279,登記記録の閉鎖等,0,2021-08-05,2021-07-26,有限会社小原水産,,有限会社,鹿児島県,阿久根市,高松町５６番地,,46,206,8991622,,,2021-07-26,清算の結了等,,,2015-10-05,1,,,,,オバラスイサン,0
641,2430001025595,登記記録の閉鎖等,0,2021-08-05,2021-07-21,株式会社八大土建,,株式会社,北海道,札幌市清田区,清田一条１丁目８番１５号,,01,110,0040841,,,2021-07-21,清算の結了等,,,2015-10-05,1,,,,,ハチダイドケン,0
644,2460002000264,登記記録の閉鎖等,0,2021-08-05,2021-07-30,有限会社今井組,,有限会社,北海道,釧路市,武佐５丁目７番４号,,01,206,0850806,,,2021-07-30,清算の結了等,,,2015-10-05,1,,,,,イマイグミ,0
645,2460101006625,登記記録の閉鎖等,0,2021-08-05,2021-08-02,ＴＯＭＯＳＴＥＬＡＳ株式会社,,株式会社,北海道,帯広市,西十六条南４丁目３９番１０号,,01,207,0800026,,,2021-08-02,合併による解散等,1460101006626,令和３年７月３１日北海道帯広市西十六条南四丁目３４番１０号株式会社ソレアード北海道（1460101006626）に合併し解散,2019-08-30,1,,,,,トモステラス,0
656,2500001015449,登記記録の閉鎖等,0,2021-08-05,2021-08-02,株式会社蔦屋旅館,,株式会社,愛媛県,宇和島市,丸之内１丁目３番２９号,,38,203,7980060,,,2021-08-02,合併による解散等,7500001015312,令和３年８月１日愛媛県宇和島市錦町３番２２号宇和島自動車株式会社（7500001015312）に合併し解散,2015-10-05,1,,,,,ツタヤリョカン,0
658,2500001017016,登記記録の閉鎖等,0,2021-08-05,2021-08-03,株式会社シリウスエステート,,株式会社,愛媛県,松山市,鴨川２丁目１０番１号,,38,201,7918004,,,2021-08-03,清算の結了等,,,2015-10-05,1,,,,,シリウスエステート,0
681,3010103000604,登記記録の閉鎖等,0,2021-08-05,2021-08-02,合同会社ＭＩ,,合同会社,東京都,八王子市,打越町１３４４番地２６,,13,201,1920911,,,2021-08-02,清算の結了等,,,2015-10-05,1,,,,,エムアイ,0
713,3011002002559,登記記録の閉鎖等,0,2021-08-05,2021-07-21,有限会社オフィス四十一分,,有限会社,東京都,渋谷区,千駄ヶ谷４丁目１９番７号,,13,113,1510051,,,2021-07-21,清算の結了等,,,2015-10-05,1,,,,,オフィスヨンジュウイップン,0
714,3011002004547,登記記録の閉鎖等,0,2021-08-05,2021-07-26,有限会社ゴールドコンパス,,有限会社,東京都,渋谷区,神宮前２丁目３０番５号,,13,113,1500001,,,2021-07-26,清算の結了等,,,2015-10-05,1,,,,,ゴールドコンパス,0
745,3020002004960,登記記録の閉鎖等,0,2021-08-05,2021-07-27,有限会社緑加工所,00010175,有限会社,神奈川県,横浜市緑区,北八朔町９６５番地８,,14,113,2260021,,,2021-07-27,清算の結了等,,,2015-10-05,1,,,,,ミドリカコウショ,0
763,3030002007797,登記記録の閉鎖等,0,2021-08-05,2021-07-20,有限会社精和工業,,有限会社,埼玉県,さいたま市西区,大字島根８３０番地,,11,101,3310054,,,2021-07-20,清算の結了等,,,2015-10-05,1,,,,,,0
764,3030002041549,登記記録の閉鎖等,0,2021-08-05,2021-07-21,有限会社アポロ造型,,有限会社,埼玉県,羽生市,東８丁目１９番２０,,11,216,3480052,,,2021-07-21,清算の結了等,,,2015-10-05,1,,,,,,0
765,3030002100973,登記記録の閉鎖等,0,2021-08-05,2021-07-27,有限会社榎原軽合金鋳造所,,有限会社,埼玉県,川口市,大字神戸１２３番地,,11,203,3330832,,,2021-07-27,清算の結了等,,,2015-10-05,1,,,,,エノハラケイゴウキンチュウゾウショ,0
767,3030003009066,登記記録の閉鎖等,0,2021-08-05,2021-07-21,七十七多合同会社,,合同会社,埼玉県,朝霞市,泉水３丁目３番５５号,,11,227,3510024,,,2021-07-21,清算の結了等,,,2016-07-11,1,,,,,,0
782,3050002018099,登記記録の閉鎖等,0,2021-08-05,2021-07-26,有限会社タクショウ,,有限会社,茨城県,結城郡八千代町,大字東大山４１０番地の１,,08,521,3003538,,,2021-07-26,清算の結了等,,,2015-10-05,1,,,,,タクショウ,0
785,3060002001228,登記記録の閉鎖等,0,2021-08-05,2021-07-19,有限会社犾守鉄筋,00024217,有限会社,栃木県,宇都宮市,宮の内３丁目１６０番地６５,,09,201,3210131,,,2021-07-19,清算の結了等,,,2015-10-05,1,,,,,イズモリテッキン,0
787,3070002009856,登記記録の閉鎖等,0,2021-08-05,2021-08-03,有限会社木暮会計センター,,有限会社,群馬県,高崎市,貝沢町４７１番地１サンハイツ高崎８０８号,,10,202,3700042,,,2021-08-03,清算の結了等,,,2015-10-05,1,,,,,コグレカイケイセンター,0
794,3080405004965,登記記録の閉鎖等,0,2021-08-05,2021-08-02,富士三製茶農業協同組合,,その他の設立登記法人,静岡県,御前崎市,門屋１３７８番地,,22,223,4371615,,,2021-08-02,清算の結了等,,,2015-10-05,1,,,,,フジサンセイチャ,0
804,3110002000587,登記記録の閉鎖等,0,2021-08-05,2021-07-30,有限会社あべさかや,,有限会社,新潟県,新潟市東区,大形本町４丁目３番１１号,,15,102,9500813,,,2021-07-30,清算の結了等,,,2015-10-05,1,,,,,アベサカヤ,0
805,3110002025576,登記記録の閉鎖等,0,2021-08-05,2021-07-30,有限会社白雪,,有限会社,新潟県,十日町市,南新田町１丁目１番地４,,15,210,9480005,,,2021-07-30,清算の結了等,,,2015-10-05,1,,,,,シラユキ,0
807,3120001056480,登記記録の閉鎖等,0,2021-08-05,2021-07-28,ダイワ医科器械株式会社,,株式会社,大阪府,大阪市淀川区,十三東５丁目１番５８号,,27,123,5320023,,,2021-07-28,清算の結了等,,,2015-10-05,1,,,,,ダイワイカキカイ,0
840,3140001102869,登記記録の閉鎖等,0,2021-08-05,2021-07-26,株式会社ヴェランド,,株式会社,兵庫県,芦屋市,松ノ内町２番７－４０２号,,28,206,6590094,,,2021-07-26,清算の結了等,,,2016-07-28,1,,,,,ヴェランド,0
846,3160002007198,登記記録の閉鎖等,0,2021-08-05,2021-08-02,有限会社イシダ,,有限会社,滋賀県,長浜市,木之本町黒田１０９０番地の５,,25,203,5290426,,,2021-08-02,清算の結了等,,,2015-10-05,1,,,,,イシダ,0
847,3170001007636,登記記録の閉鎖等,0,2021-08-05,2021-07-26,株式会社アイケー・ワークス,,株式会社,大阪府,守口市,佐太中町２丁目１３番１１号,,27,209,5700002,,,2021-07-26,清算の結了等,,,2015-10-05,1,,,,,,0
848,3180001001951,登記記録の閉鎖等,0,2021-08-05,2021-08-02,株式会社スタッフ小木曽,,株式会社,愛知県,名古屋市名東区,猪子石２丁目１０９番地,,23,115,4650021,,,2021-08-02,合併による解散等,5180001051144,令和３年７月３１日名古屋市名東区猪子石二丁目１０９番地株式会社小木曽（5180001051144）に合併し解散,2015-10-05,1,,,,,スタッフオギソ,0
863,3180301006279,登記記録の閉鎖等,0,2021-08-05,2021-08-02,中部農産株式会社,,株式会社,愛知県,田原市,谷熊町江縄２７番地１,,23,231,4413412,,,2021-08-02,合併による解散等,7180301006498,令和３年８月１日愛知県豊橋市駅前大通二丁目２８番地東海漬物株式会社（7180301006498）に合併し解散,2015-10-05,1,,,,,チュウブノウサン,0
877,3220001007234,登記記録の閉鎖等,0,2021-08-05,2021-07-27,株式会社山証,,株式会社,石川県,金沢市,片町２丁目１３番３１号,,17,201,9200981,,,2021-07-27,清算の結了等,,,2015-10-05,1,,,,,ヤマショウ,0
883,3230002012257,登記記録の閉鎖等,0,2021-08-05,2021-07-21,有限会社ユアーズトラベル,,有限会社,富山県,高岡市,角７４３番地３,,16,202,9330007,,,2021-07-21,清算の結了等,,,2015-10-05,1,,,,,ユアーズトラベル,0
890,3240005012682,登記記録の閉鎖等,0,2021-08-05,2021-07-16,特定非営利活動法人中国四国成年後見センター,,その他の設立登記法人,広島県,尾道市,高須町４７８８番地１１,,34,205,7290141,,,2021-07-16,清算の結了等,,,2015-10-05,1,,,,,チュウゴクシコクセイネンコウケンセンター,0
909,3290001066199,登記記録の閉鎖等,0,2021-08-05,2021-07-06,株式会社うらら宗像自然農園,,株式会社,福岡県,宗像市,河東９２９番地９,,40,220,8113402,,,2021-07-06,清算の結了等,,,2015-10-05,1,,,,,ウララムナカタシゼンノウエン,0
919,3300001005403,登記記録の閉鎖等,0,2021-08-05,2021-07-27,株式会社ホテル神埼温泉,,株式会社,佐賀県,神埼市,神埼町城原３７０２番地１４,,41,210,8420122,,,2021-07-27,清算の結了等,,,2015-10-05,1,,,,,ホテルカンザキオンセン,0
922,3310005004499,登記記録の閉鎖等,0,2021-08-05,2021-08-03,医療法人社団川ばた内科医院,,その他の設立登記法人,長崎県,諫早市,上野町５番地１０,,42,204,8540042,,,2021-08-03,清算の結了等,,,2015-10-05,1,,,,,カワバタナイカイイン,0
943,3370001042167,登記記録の閉鎖等,0,2021-08-05,2021-07-15,株式会社三和まちづくり研究所,,株式会社,宮城県,栗原市,志波姫新熊谷２５５番地１,,04,213,9895612,,,2021-07-15,合併による解散等,2370201003093,令和３年７月１５日宮城県栗原市志波姫新熊谷２５５番地１三和電設株式会社（2370201003093）に合併し解散,2017-10-13,1,,,,,サンワマチヅクリケンキュウショ,0
963,3400005003913,登記記録の閉鎖等,0,2021-08-05,2021-08-02,湯屋牧野農業協同組合,,その他の設立登記法人,岩手県,遠野市,宮守町達曽部１０地割２番地,,03,208,0280305,,,2021-08-02,清算の結了等,,,2015-10-05,1,,,,,ユヤボクヤノウギョウキョウドウクミアイ,0
971,3430002026352,登記記録の閉鎖等,0,2021-08-05,2021-07-21,有限会社丸和佐々木建設,,有限会社,北海道,札幌市西区,発寒六条９丁目７番２１号,,01,107,0630826,,,2021-07-21,清算の結了等,,,2015-10-05,1,,,,,マルワササキケンセツ,0
985,4010401042818,登記記録の閉鎖等,0,2021-08-05,2021-07-26,エイエスマガジン株式会社,,株式会社,東京都,港区,六本木３丁目４番３号,,13,103,1060032,,,2021-07-26,清算の結了等,,,2015-10-05,1,,,,,エイエスマガジン,0
1004,4010705002749,登記記録の閉鎖等,0,2021-08-05,2021-07-27,一般社団法人フリーユニティー,,その他の設立登記法人,東京都,品川区,南品川５丁目１０番４３号楓ハイツ３Ｆ,,13,109,1400004,,,2021-07-27,清算の結了等,,,2018-04-05,1,,,,,フリーユニティー,0
1032,4011102018900,登記記録の閉鎖等,0,2021-08-05,2021-07-29,有限会社バンボー,,有限会社,東京都,新宿区,高田馬場４丁目４０番１７号,,13,104,1690075,,,2021-07-29,清算の結了等,,,2015-10-05,1,,,,,バンボー,0
1045,4012305000439,登記記録の閉鎖等,0,2021-08-05,2021-07-20,特定非営利活動法人こことステップ,,その他の設立登記法人,東京都,町田市,木曽東４丁目１９番２７号アメニティーハイツ９３－１０５,,13,209,1940036,,,2021-07-20,清算の結了等,,,2015-10-05,1,,,,,ココトステップ,0
1051,4012803001252,登記記録の閉鎖等,0,2021-08-05,2021-08-03,ＴＫＧ合同会社,,合同会社,東京都,品川区,北品川１丁目９番７号,,13,109,1400001,,,2021-08-03,清算の結了等,,,2015-10-05,1,,,,,ティーケージー,0
1054,4013301041377,登記記録の閉鎖等,0,2021-08-05,2021-07-30,株式会社オフィスＢＥＮＴＥＮ,,株式会社,東京都,豊島区,千早２丁目４０番１６号,,13,116,1710044,,,2021-07-30,清算の結了等,,,2017-11-15,1,,,,,オフィスベンテン,0
1063,4020001028828,登記記録の閉鎖等,0,2021-08-05,2021-07-27,株式会社保高コンサル,,株式会社,神奈川県,横浜市中区,花咲町１丁目４番地,,14,104,2310063,,,2021-07-27,清算の結了等,,,2015-10-05,1,,,,,,0
1070,4020002068939,登記記録の閉鎖等,0,2021-08-05,2021-07-28,有限会社アイジェイ,,有限会社,神奈川県,横浜市鶴見区,東寺尾３丁目８番９号,,14,101,2300077,,,2021-07-28,清算の結了等,,,2015-10-05,1,,,,,アイジェイ,0
1075,4021002051802,登記記録の閉鎖等,0,2021-08-05,2021-07-28,有限会社サイエンス・アシスト,,有限会社,神奈川県,小田原市,堀之内１６番地,,14,206,2500853,,,2021-07-28,清算の結了等,,,2015-10-05,1,,,,,サイエンスアシスト,0
1079,4030001118677,登記記録の閉鎖等,0,2021-08-05,2021-07-21,株式会社Ｈ．Ｈ．Ｓ,,株式会社,埼玉県,さいたま市浦和区,針ヶ谷４丁目４番３号,,11,107,3300075,,,2021-07-21,清算の結了等,,,2017-02-13,1,,,,,エイチエイチエス,0
1096,4040002078754,登記記録の閉鎖等,0,2021-08-05,2021-07-21,有限会社ほっとケア九十九里,,有限会社,千葉県,山武郡九十九里町,田中荒生１５１番地１,,12,403,2830103,,,2021-07-21,合併による解散等,4040001053915,令和３年７月２１日千葉県市原市能満２１４３番地７５株式会社佼和テクノス（4040001053915）に合併し解散,2015-10-05,1,,,,,ホットケアクジュウクリ,0
1101,4050005000425,登記記録の閉鎖等,0,2021-08-05,2021-07-29,一般社団法人茨城県植物防疫協会,00023914,その他の設立登記法人,茨城県,水戸市,小吹町９４０番地,,08,201,3100914,,,2021-07-29,清算の結了等,,,2015-10-05,1,,,,,イバラキケンショクブツボウエキキョウカイ,0
1107,4080001018402,登記記録の閉鎖等,0,2021-08-05,2021-08-04,株式会社日夜,,株式会社,静岡県,御前崎市,白羽５９１１番地の１,,22,223,4371622,,,2021-08-04,清算の結了等,,,2015-10-05,1,,,,,,0
1124,4110005010748,登記記録の閉鎖等,0,2021-08-05,2021-07-29,能生建設工業協同組合,,その他の設立登記法人,新潟県,糸魚川市,大字能生１９４１番地７,,15,216,9491352,,,2021-07-29,清算の結了等,,,2015-10-05,1,,,,,ノウケンセツコウギョウ,0
1125,4120001118230,登記記録の閉鎖等,0,2021-08-05,2021-07-26,株式会社ダイヨシ,,株式会社,大阪府,大阪市西区,九条１丁目２８番１－１０５号,,27,106,5500027,,,2021-07-26,清算の結了等,,,2015-10-05,1,,,,,,0
1161,4130005012478,登記記録の閉鎖等,0,2021-08-05,2021-07-27,特定非営利活動法人保育・子育てアドバイザー協会関西,,その他の設立登記法人,京都府,京都市左京区,吉田中大路町１６番地の４,,26,103,6068313,,,2021-07-27,清算の結了等,,,2015-10-05,1,,,,,ホイクコソダテアドバイザーキョウカイカンサイ,0
1174,4160001011737,登記記録の閉鎖等,0,2021-08-05,2021-08-02,株式会社万葉,,株式会社,滋賀県,東近江市,平田町１３２番地,,25,213,5270087,,,2021-08-02,合併による解散等,6160001011438,令和３年８月１日滋賀県近江八幡市武佐町２７番地１株式会社びわこフード（6160001011438）に合併し解散,2015-10-05,1,,,,,マンヨウ,0
1179,4180001060708,登記記録の閉鎖等,0,2021-08-05,2021-08-02,株式会社ＫＰＣ,,株式会社,愛知県,名古屋市中村区,名駅５丁目２２番２３号第３上善ビル,,23,105,4500002,,,2021-08-02,合併による解散等,6180301005419,令和３年７月２６日愛知県豊橋市飯村町字浜道上４番地５兼八産業株式会社（6180301005419）に合併し解散,2015-10-05,1,,,,,ケーピーシー,0
1180,4180001101833,登記記録の閉鎖等,0,2021-08-05,2021-07-30,株式会社賃貸経営コンサルティング,,株式会社,愛知県,東海市,大田町蟹田３番地８,,23,222,4770031,,,2021-07-30,清算の結了等,,,2015-10-05,1,,,,,チンタイケイエイコンサルティング,0
1219,4250002014143,登記記録の閉鎖等,0,2021-08-05,2021-07-19,山陰産業有限会社,,有限会社,山口県,長門市,西深川７３３番地の１,,35,211,7594102,,,2021-07-19,清算の結了等,,,2021-01-18,1,,,,,サンインサンギョウ,0
1235,4290001016780,登記記録の閉鎖等,0,2021-08-05,2021-07-13,株式会社イー・テック,,株式会社,福岡県,福岡市東区,多の津４丁目３番１７号,,40,131,8130034,,,2021-07-13,清算の結了等,,,2015-10-05,1,,,,,イーテック,0
1242,4310001005632,登記記録の閉鎖等,0,2021-08-05,2021-07-29,株式会社第一ヨットハーバー,,株式会社,長崎県,佐世保市,東浜町１０２０番地,,42,202,8571172,,,2021-07-29,清算の結了等,,,2015-10-05,1,,,,,ダイイチヨットハーバー,0
1243,4310002019887,登記記録の閉鎖等,0,2021-08-05,2021-07-28,有限会社前田建設工業,,有限会社,長崎県,松浦市,福島町里免９２０番地３,,42,208,8480408,,,2021-07-28,清算の結了等,,,2015-10-05,1,,,,,マエダケンセツコウギョウ,0
1271,4460101003455,登記記録の閉鎖等,0,2021-08-05,2021-08-03,株式会社平沼重機,,株式会社,北海道,広尾郡広尾町,並木通東３丁目３４番地,,01,642,0892624,,,2021-08-03,清算の結了等,,,2015-10-05,1,,,,,ヒラヌマジュウキ,0
1278,4480002003379,登記記録の閉鎖等,0,2021-08-05,2021-07-30,有限会社徳島新聞名東町専売所,,有限会社,徳島県,徳島市,名東町２丁目５８６番地の５,,36,201,7700047,,,2021-07-30,清算の結了等,,,2015-10-05,1,,,,,トクシマシンブンミョウドウチョウセンバイショ,0
1281,4490001009426,登記記録の閉鎖等,0,2021-08-05,2021-08-03,株式会社繁,,株式会社,高知県,長岡郡本山町,上関甲２２９番地,,39,341,7813611,,,2021-08-03,清算の結了等,,,2019-11-22,1,,,,,カブシキカイシャシゲル,0
1299,5010403014054,登記記録の閉鎖等,0,2021-08-05,2021-07-21,ＣＯＡＣＨＭＥ株式会社,,株式会社,東京都,港区,浜松町２丁目２番１５号,,13,103,1050013,,,2021-07-21,清算の結了等,,,2015-11-09,1,,,,,コーチミー,0
1309,5010701018822,登記記録の閉鎖等,0,2021-08-05,2021-07-16,株式会社アスティ,,株式会社,東京都,世田谷区,等々力８丁目１９－１８,,13,112,1580082,,,2021-07-16,清算の結了等,,,2015-10-05,1,,,,,アスティ,0
1322,5010802009729,登記記録の閉鎖等,0,2021-08-05,2021-07-21,有限会社てくぼホーム,,有限会社,東京都,大田区,南久が原２丁目６番３号,,13,111,1460084,,,2021-07-21,清算の結了等,,,2015-10-05,1,,,,,,0
1340,5011802004604,登記記録の閉鎖等,0,2021-08-05,2021-08-02,有限会社大明,,有限会社,東京都,葛飾区,東堀切１丁目１６番１７号,,13,122,1240004,,,2021-08-02,清算の結了等,,,2015-10-05,1,,,,,タイメイ,0
1356,5013303005313,登記記録の閉鎖等,0,2021-08-05,2021-07-30,東洋コーポレーション合同会社,,合同会社,東京都,豊島区,南長崎５丁目１０番７号,,13,116,1710052,,,2021-07-30,清算の結了等,,,2020-09-18,1,,,,,トウヨウコーポレーション,0
1358,5020001043297,登記記録の閉鎖等,0,2021-08-05,2021-07-27,株式会社動幸堂,,株式会社,神奈川県,横浜市瀬谷区,瀬谷６丁目２０番地７,,14,114,2460031,,,2021-07-27,清算の結了等,,,2015-10-05,1,,,,,,0
1361,5021001033866,登記記録の閉鎖等,0,2021-08-05,2021-08-02,湘南商事株式会社,,株式会社,神奈川県,南足柄市,内山２５０５番地,,14,217,2500131,,,2021-08-02,合併による解散等,1080101004395,令和３年８月１日静岡県御殿場市保土沢２３１番地の１株式会社駿河サービス工業（1080101004395）に合併し解散,2015-10-05,1,,,,,ショウナンショウジ,0
1375,5030002093687,登記記録の閉鎖等,0,2021-08-05,2021-07-21,有限会社ライフ,,有限会社,埼玉県,鶴ヶ島市,富士見１丁目１番８－４０３号アーバンヒルズ,,11,241,3502201,,,2021-07-21,清算の結了等,,,2015-10-05,1,,,,,ライフ,0
1402,5060005005182,登記記録の閉鎖等,0,2021-08-05,2021-07-13,特定非営利活動法人おやま医療介護研究会,,その他の設立登記法人,栃木県,小山市,西城南６丁目８番地１９,,09,208,3230820,,,2021-07-13,清算の結了等,,,2015-10-05,1,,,,,オヤマイリョウカイゴケンキュウカイ,0
1439,5120002079000,登記記録の閉鎖等,0,2021-08-05,2021-07-28,有限会社真鍋自動車鈑金工作所,,有限会社,大阪府,守口市,本町２丁目１番２３－６０５号,,27,209,5700028,,,2021-07-28,清算の結了等,,,2015-10-05,1,,,,,マナベジドウシャバンキンコウサクショ,0
1504,5180301028726,登記記録の閉鎖等,0,2021-08-05,2021-08-02,名邦ホールディングス株式会社,,株式会社,愛知県,岡崎市,康生通東２丁目６３番地,,23,202,4440045,,,2021-08-02,合併による解散等,5180301002144,令和３年８月１日愛知県岡崎市康生通東二丁目６３番地名邦塗料商事株式会社（5180301002144）に合併し解散,2015-12-24,1,,,,,メイホウホールディングス,0
1515,5230001016091,登記記録の閉鎖等,0,2021-08-05,2021-07-26,株式会社イノマタ,,株式会社,富山県,富山市,新庄町１３９番地２８,,16,201,9300992,,,2021-07-26,清算の結了等,,,2015-10-05,1,,,,,イノマタ,0
1516,5240001015002,登記記録の閉鎖等,0,2021-08-05,2021-08-02,株式会社カルペディエム,,株式会社,広島県,広島市安佐南区,八木１丁目１５番５号,,34,105,7310101,,,2021-08-02,合併による解散等,3240001017454,令和３年８月２日広島市安佐南区大町西一丁目３２番７号株式会社エムワイ（3240001017454）に合併し解散,2015-10-05,1,,,,,カルペディエム,0
1527,5260002020049,登記記録の閉鎖等,0,2021-08-05,2021-08-02,有限会社中塚縫製,,有限会社,岡山県,倉敷市,児島小川６丁目６番６７号,,33,202,7110911,,,2021-08-02,清算の結了等,,,2015-10-05,1,,,,,ナカツカホウセイ,0
1541,5290003007505,登記記録の閉鎖等,0,2021-08-05,2021-07-13,合同会社ルミナプランニング,,合同会社,福岡県,福岡市城南区,七隈７丁目２７番２号,,40,136,8140133,,,2021-07-13,清算の結了等,,,2017-09-25,1,,,,,ルミナプランニング,0
1542,5290003009154,登記記録の閉鎖等,0,2021-08-05,2021-07-13,合同会社Ｃｏｏ,,合同会社,福岡県,糸島市,波多江２２４番地６,,40,230,8191104,,,2021-07-13,清算の結了等,,,2019-07-01,1,,,,,クー,0
1549,5310003003146,登記記録の閉鎖等,0,2021-08-05,2021-07-29,ＨＲＳ合同会社,,合同会社,長崎県,長崎市,浜町２番６－１３０３号,,42,201,8500853,,,2021-07-29,清算の結了等,,,2016-06-10,1,,,,,エイチアールエス,0
1589,5430002066058,登記記録の閉鎖等,0,2021-08-05,2021-07-21,有限会社ピーターパン,,有限会社,北海道,室蘭市,清水町２丁目３番１１号,,01,205,0510026,,,2021-07-21,清算の結了等,,,2015-10-05,1,,,,,ピーターパン,0
1617,6010102005766,登記記録の閉鎖等,0,2021-08-05,2021-08-02,有限会社菱山土木,,有限会社,東京都,八王子市,下柚木３６３番地,,13,201,1920372,,,2021-08-02,清算の結了等,,,2015-10-05,1,,,,,ヒシヤマドボク,0
1620,6010401064604,登記記録の閉鎖等,0,2021-08-05,2021-07-21,株式会社ミームデザイン,,株式会社,東京都,港区,六本木７丁目１５番１７号７－Ｆ,,13,103,1060032,,,2021-07-21,清算の結了等,,,2015-10-05,1,,,,,,0
1624,6010401149066,登記記録の閉鎖等,0,2021-08-05,2021-07-21,株式会社アルテミス・ジャパン,,株式会社,東京都,港区,港南２丁目１６番１号,,13,103,1080075,,,2021-07-21,清算の結了等,,,2019-11-19,1,,,,,アルテミスジャパン,0
1640,6010705001039,登記記録の閉鎖等,0,2021-08-05,2021-08-02,特定非営利活動法人暮らしのＩＴ普及会,,その他の設立登記法人,東京都,品川区,八潮５丁目６番２７－７０２号,,13,109,1400003,,,2021-08-02,清算の結了等,,,2015-10-05,1,,,,,クラシノアイティーフキュウカイ,0
1691,6013102003574,登記記録の閉鎖等,0,2021-08-05,2021-08-02,有限会社ティ・エル・シー,,有限会社,東京都,羽村市,小作台５丁目３５番地８,,13,227,2050001,,,2021-08-02,清算の結了等,,,2015-10-05,1,,,,,ティエルシー,0
1692,6013102006965,登記記録の閉鎖等,0,2021-08-05,2021-08-02,有限会社吉岡電気,,有限会社,東京都,青梅市,新町１丁目９番地の２６,,13,205,1980024,,,2021-08-02,清算の結了等,,,2015-10-05,1,,,,,ヨシオカデンキ,0
1716,6040001021201,登記記録の閉鎖等,0,2021-08-05,2021-07-27,株式会社溝上,,株式会社,千葉県,八千代市,萱田１６０２番地１,,12,221,2760043,,,2021-07-27,清算の結了等,,,2015-10-05,1,,,,,ミゾカミ,0
1726,6050002004121,登記記録の閉鎖等,0,2021-08-05,2021-08-02,有限会社加藤木塗装,,有限会社,茨城県,東茨城郡城里町,大字高久３４８番地の１,,08,310,3114324,,,2021-08-02,清算の結了等,,,2015-10-05,1,,,,,カトウギトソウ,0
1727,6050002020102,登記記録の閉鎖等,0,2021-08-05,2021-07-30,有限会社八甲設備工業,,有限会社,茨城県,坂東市,大崎１３１２番地５２,,08,228,3060622,,,2021-07-30,清算の結了等,,,2015-10-05,1,,,,,ハッコウセツビコウギョウ,0
1740,6080402001401,登記記録の閉鎖等,0,2021-08-05,2021-08-03,有限会社ゑびすや,,有限会社,静岡県,浜松市北区,初生町７２１番地の２,,22,135,4338112,,,2021-08-03,清算の結了等,,,2015-10-05,1,,,,,エビスヤ,0
1746,6110001017365,登記記録の閉鎖等,0,2021-08-05,2021-07-30,株式会社シャデックスジャパン,,株式会社,新潟県,柏崎市,幸町３番２０号,,15,205,9450821,,,2021-07-30,清算の結了等,,,2015-10-05,1,,,,,シャデックスジャパン,0
1752,6120001015145,登記記録の閉鎖等,0,2021-08-05,2021-07-28,松陰電気工業株式会社,,株式会社,大阪府,大阪市城東区,鴫野西１丁目３番７号,,27,118,5360014,,,2021-07-28,清算の結了等,,,2015-10-05,1,,,,,マツカゲデンキコウギョウ,0
1792,6150001010531,登記記録の閉鎖等,0,2021-08-05,2021-07-30,株式会社サンヨー,,株式会社,奈良県,橿原市,四条町８２３番地の２,,29,205,6340813,,,2021-07-30,清算の結了等,,,2015-10-05,1,,,,,サンヨー,0
1820,6190001006971,登記記録の閉鎖等,0,2021-08-05,2021-08-02,富士観光株式会社,,株式会社,三重県,伊勢市,小俣町湯田８６６番地３,,24,203,5190506,,,2021-08-02,清算の結了等,,,2015-10-05,1,,,,,フジカンコウ,0
1836,6280001000825,登記記録の閉鎖等,0,2021-08-05,2021-07-19,株式会社紅花組,,株式会社,島根県,松江市,島根町野波３９５番地,,32,201,6901212,,,2021-07-19,清算の結了等,,,2015-10-05,1,,,,,コウカクミ,0
1839,6290002029945,登記記録の閉鎖等,0,2021-08-05,2021-07-13,有限会社縁舞,,有限会社,福岡県,福岡市早良区,南庄６丁目１３番２７－３０３号,,40,137,8140031,,,2021-07-13,清算の結了等,,,2015-10-05,1,,,,,エンブ,0
1853,6350002011970,登記記録の閉鎖等,0,2021-08-05,2021-07-26,有限会社倉本重機,,有限会社,宮崎県,延岡市,緑ケ丘５丁目１８番１１号,,45,203,8820863,,,2021-07-26,清算の結了等,,,2021-04-15,1,,,,,クラモトジュウキ,0
1872,6400002001735,登記記録の閉鎖等,0,2021-08-05,2021-08-02,有限会社スペースサービス,,有限会社,岩手県,滝沢市,柳沢１４５３番地２,,03,216,0200612,,,2021-08-02,清算の結了等,,,2015-10-05,1,,,,,スペースサービス,0
1881,6430001040839,登記記録の閉鎖等,0,2021-08-05,2021-08-03,株式会社カルラ,,株式会社,北海道,札幌市白石区,南郷通２１丁目南５番５１号,,01,104,0030022,,,2021-08-03,清算の結了等,,,2015-10-05,1,,,,,カルラ,0
1918,7010402003650,登記記録の閉鎖等,0,2021-08-05,2021-07-21,有限会社川口商店,,有限会社,東京都,港区,麻布十番２丁目４番２号,,13,103,1060045,,,2021-07-21,清算の結了等,,,2015-10-05,1,,,,,,0
1933,7010601018870,登記記録の閉鎖等,0,2021-08-05,2021-07-16,株式会社キムラ,,株式会社,東京都,江東区,大島８丁目３９番２２－１０１３号,,13,108,1360072,,,2021-07-16,清算の結了等,,,2015-10-05,1,,,,,キムラ,0
1952,7011202006760,登記記録の閉鎖等,0,2021-08-05,2021-07-27,有限会社読売新聞サギノミヤ,,有限会社,東京都,中野区,白鷺２丁目３５番８号,,13,114,1650035,,,2021-07-27,清算の結了等,,,2015-10-05,1,,,,,ヨミウリシンブンサギノミヤ,0
1959,7011602007474,登記記録の閉鎖等,0,2021-08-05,2021-08-02,有限会社中川龍吾建築設計事務所,,有限会社,東京都,練馬区,関町南４丁目８番１３号,,13,120,1770053,,,2021-08-02,清算の結了等,,,2015-10-05,1,,,,,ナカガワリュウゴケンチクセッケイジムショ,0
1967,7011802018965,登記記録の閉鎖等,0,2021-08-05,2021-08-03,有限会社丸福運送,,有限会社,東京都,足立区,千住桜木１丁目２番２号,,13,121,1200045,,,2021-08-03,清算の結了等,,,2015-10-05,1,,,,,マルフクウンソウ,0
1974,7012802003932,登記記録の閉鎖等,0,2021-08-05,2021-07-20,有限会社ユウ,,有限会社,東京都,昭島市,中神町１１７１番地９,,13,207,1960022,,,2021-07-20,清算の結了等,,,2015-10-05,1,,,,,ユウ,0
2027,7050001000112,登記記録の閉鎖等,0,2021-08-05,2021-08-02,株式会社アクト企画,,株式会社,茨城県,水戸市,千波町２５０９番地の１３,,08,201,3100851,,,2021-08-02,清算の結了等,,,2015-10-05,1,,,,,アクトキカク,0
2051,7110002019905,登記記録の閉鎖等,0,2021-08-05,2021-07-28,有限会社藤田合金製作所,,有限会社,新潟県,燕市,杣木３２８６番地１,,15,213,9591284,,,2021-07-28,清算の結了等,,,2015-10-05,1,,,,,フジタゴウキンセイサクショ,0
2054,7120001113377,登記記録の閉鎖等,0,2021-08-05,2021-08-02,株式会社エフ・イー・エルホールディングス,,株式会社,東京都,品川区,東五反田２丁目７番１８号,,13,109,1410022,,,2021-08-02,合併による解散等,2120001060806,令和３年８月１日東京都品川区東五反田二丁目７番１８号株式会社ＦＥＬ（2120001060806）に合併し解散,2015-10-05,1,,,,,エフイーエルホールディングス,0
2101,7140005002459,登記記録の閉鎖等,0,2021-08-05,2021-08-03,被災地労働者企業組合,,その他の設立登記法人,兵庫県,神戸市長田区,若松町８丁目１－３０,,28,106,6530038,,,2021-08-03,清算の結了等,,,2015-10-05,1,,,,,ヒサイチロウドウシャ,0
2128,7180002051711,登記記録の閉鎖等,0,2021-08-05,2021-07-26,有限会社オリカワ工業,,有限会社,愛知県,北名古屋市,六ツ師町田５４番地,,23,234,4810001,,,2021-07-26,清算の結了等,,,2015-10-05,1,,,,,オリカワコウギョウ,0
2137,7180301021290,登記記録の閉鎖等,0,2021-08-05,2021-08-03,株式会社日本美術企画,,株式会社,愛知県,豊田市,平芝町２丁目１番地７,,23,211,4710065,,,2021-08-03,清算の結了等,,,2015-10-05,1,,,,,ニホンビジュツキカク,0
2151,7200002012660,登記記録の閉鎖等,0,2021-08-05,2021-08-03,有限会社澤藤組,,有限会社,岐阜県,大垣市,横曽根３丁目９５番地,,21,202,5030944,,,2021-08-03,清算の結了等,,,2015-10-05,1,,,,,サワフジグミ,0
2153,7200005008920,登記記録の閉鎖等,0,2021-08-05,2021-08-02,中津川産業協同組合,,その他の設立登記法人,岐阜県,中津川市,桃山町３番２０号,,21,206,5080024,,,2021-08-02,清算の結了等,,,2015-10-05,1,,,,,ナカツガワサンギョウ,0
2179,7260002009486,登記記録の閉鎖等,0,2021-08-05,2021-08-02,有限会社マリンコンタクト,,有限会社,岡山県,岡山市北区,奥田南町８番４７－１号,,33,101,7000934,,,2021-08-02,清算の結了等,,,2015-10-05,1,,,,,マリンコンタクト,0
2185,7290001050959,登記記録の閉鎖等,0,2021-08-05,2021-07-12,株式会社ティキム,,株式会社,福岡県,久留米市,野中町８－２,,40,203,8390862,,,2021-07-12,清算の結了等,,,2015-10-05,1,,,,,ティキム,0
2211,7350003003090,登記記録の閉鎖等,0,2021-08-05,2021-08-02,ＩＷシミズ合同会社,,合同会社,宮崎県,都城市,都北町３６０３番地２,,45,202,8850004,,,2021-08-02,清算の結了等,,,2018-04-17,1,,,,,アイダブリューシミズ,0
2339,8011802013965,登記記録の閉鎖等,0,2021-08-05,2021-08-02,有限会社嶋田インテリアサービス,,有限会社,東京都,足立区,西綾瀬２丁目１８番１６号,,13,121,1200014,,,2021-08-02,清算の結了等,,,2015-10-05,1,,,,,シマダインテリアサービス,0
2341,8012301009001,登記記録の閉鎖等,0,2021-08-05,2021-07-26,株式会社ニットーランド,,株式会社,東京都,町田市,南大谷７０５番地６ユニヴェルシオール学園の丘１０６号,,13,209,1940031,,,2021-07-26,合併による解散等,6011301005276,令和３年７月１日東京都杉並区高井戸東四丁目１１番１号株式会社ニットーランド（6011301005276）に合併し解散,2015-10-05,1,,,,,,0
2344,8012402020583,登記記録の閉鎖等,0,2021-08-05,2021-07-30,有限会社廣井運送,,有限会社,東京都,三鷹市,新川２丁目１４番３３号,,13,204,1810004,,,2021-07-30,清算の結了等,,,2015-10-05,1,,,,,ヒロイウンソウ,0
2362,8021001015746,登記記録の閉鎖等,0,2021-08-05,2021-07-28,株式会社ディー・エム・シーインターナショナル,,株式会社,神奈川県,相模原市中央区,千代田２丁目２番１５号メイプルビル１９９０,,14,152,2520237,,,2021-07-28,清算の結了等,,,2015-10-05,1,,,,,ディーエムシーインターナショナル,0
2377,8030002087521,登記記録の閉鎖等,0,2021-08-05,2021-07-27,有限会社橋本左官工業,,有限会社,埼玉県,越谷市,登戸町１１番４３号,,11,222,3430846,,,2021-07-27,清算の結了等,,,2015-10-05,1,,,,,ハシモトサカンコウギョウ,0
2387,8050001044612,登記記録の閉鎖等,0,2021-08-05,2021-08-02,株式会社ヘオルン,,株式会社,茨城県,土浦市,天川２丁目２３番地１２号,,08,203,3000818,,,2021-08-02,清算の結了等,,,2018-06-27,1,,,,,ヘオルン,0
2393,8050002019828,登記記録の閉鎖等,0,2021-08-05,2021-07-30,有限会社倉持工務店,,有限会社,茨城県,坂東市,みむら１２７８番地１,,08,228,3060655,,,2021-07-30,清算の結了等,,,2015-10-05,1,,,,,クラモチコウムテン,0
2416,8110001028930,登記記録の閉鎖等,0,2021-08-05,2021-07-15,株式会社光機材,,株式会社,新潟県,新潟市中央区,南万代町２－１マーブル万代２Ｆ,,15,103,9500902,,,2021-07-15,清算の結了等,,,2015-10-05,1,,,,,ヒカリキザイ,0
2419,8110005016329,登記記録の閉鎖等,0,2021-08-05,2021-07-30,一般社団法人新潟県食品事業振興会,,その他の設立登記法人,新潟県,新潟市西区,山田２３１０番地１,,15,107,9501101,,,2021-07-30,清算の結了等,,,2018-11-21,1,,,,,ニイガタケンショクヒンジギョウシンコウカイ,0
2449,8120903003146,登記記録の閉鎖等,0,2021-08-05,2021-07-29,合同会社炉,,合同会社,大阪府,豊中市,東豊中町２丁目７番２３－４１０号,,27,203,5600003,,,2021-07-29,清算の結了等,,,2020-03-09,1,,,,,イロリ,0
2453,8130001061987,登記記録の閉鎖等,0,2021-08-05,2021-08-02,株式会社関西建装,,株式会社,京都府,京都市右京区,太秦安井馬塚町１８番地２３ビガーやすい３階,00113217,26,108,6168077,,,2021-08-02,清算の結了等,,,2018-04-23,1,,,,,カンサイケンソウ,0
2460,8140001084046,登記記録の閉鎖等,0,2021-08-05,2021-07-30,株式会社フォルスアンフィニ,,株式会社,大阪府,東大阪市,南上小阪６番２６号第二塚本コーポラス１階１７号室,,27,227,5770814,,,2021-07-30,清算の結了等,,,2015-10-05,1,,,,,フォルスアンフィニ,0
2478,8180001078952,登記記録の閉鎖等,0,2021-08-05,2021-07-29,瀬戸交通株式会社,,株式会社,愛知県,瀬戸市,栄町２６番地,,23,204,4890044,,,2021-07-29,清算の結了等,,,2015-10-05,1,,,,,セトコウツウ,0
2498,8190001003744,登記記録の閉鎖等,0,2021-08-05,2021-08-02,サンケイ運輸株式会社,,株式会社,三重県,亀山市,川崎町４９０７番地,,24,210,5190211,,,2021-08-02,清算の結了等,,,2015-10-05,1,,,,,サンケイウンユ,0
2506,8210001000474,登記記録の閉鎖等,0,2021-08-05,2021-08-03,越前陶板株式会社,,株式会社,福井県,福井市,光陽１丁目１７番１１号,,18,201,9100026,,,2021-08-03,清算の結了等,,,2015-10-05,1,,,,,エチゼントウバン,0
2515,8230001017327,登記記録の閉鎖等,0,2021-08-05,2021-07-26,東陽産業株式会社,,株式会社,富山県,富山市,新庄銀座１丁目７番１２号,,16,201,9300991,,,2021-07-26,清算の結了等,,,2018-02-27,1,,,,,トウヨウサンギョウ,0
2523,8240001042662,登記記録の閉鎖等,0,2021-08-05,2021-07-15,株式会社Ｗｏｒｌｄ　Ｏｎｅ,,株式会社,広島県,広島市安佐南区,上安４丁目６番９号,,34,105,7310154,,,2021-07-15,清算の結了等,,,2015-10-05,1,,,,,,0
2549,8290002019119,登記記録の閉鎖等,0,2021-08-05,2021-07-12,有限会社レディス・ファッション・サワダ,,有限会社,福岡県,那珂川市,今光３丁目２０３番地,,40,231,8111211,,,2021-07-12,清算の結了等,,,2015-10-05,1,,,,,レディスファッションサワダ,0
2556,8320005009261,登記記録の閉鎖等,0,2021-08-05,2021-08-04,特定非営利活動法人在宅医療・多職種連携ＩＣＴ化ネット,,その他の設立登記法人,大分県,別府市,大字鶴見４２４５番地の１１３,,44,202,8740840,,,2021-08-04,清算の結了等,,,2015-10-05,1,,,,,ザイタクイリョウタショクシュレンケイアイシーティカネット,0
2564,8350005001018,登記記録の閉鎖等,0,2021-08-05,2021-08-03,特定非営利活動法人いつか会,,その他の設立登記法人,宮崎県,宮崎市,橘通東２丁目４番１６号,,45,201,8800805,,,2021-08-03,清算の結了等,,,2015-10-05,1,,,,,イツカカイ,0
2583,8400005002365,登記記録の閉鎖等,0,2021-08-05,2021-08-02,特定非営利活動法人えき・いきいき,,その他の設立登記法人,岩手県,盛岡市,盛岡駅前通１３番２３号阿部ビル内,,03,201,0200034,,,2021-08-02,清算の結了等,,,2015-10-05,1,,,,,エキイキイキ,0
2616,9010001102612,登記記録の閉鎖等,0,2021-08-05,2021-07-30,株式会社アルファ・プロパティマネージメント,,株式会社,東京都,中央区,日本橋富沢町１１番１号,,13,102,1030006,,,2021-07-30,清算の結了等,,,2015-10-05,1,,,,,アルファプロパティマネージメント,0
2631,9010401140195,登記記録の閉鎖等,0,2021-08-05,2021-07-21,レップス株式会社,,株式会社,東京都,港区,北青山３丁目６番７号青山パラシオタワー１１階,,13,103,1070061,,,2021-07-21,清算の結了等,,,2018-08-10,1,,,,,レップス,0
2641,9010705002835,登記記録の閉鎖等,0,2021-08-05,2021-08-04,医療法人社団アトラス,,その他の設立登記法人,東京都,品川区,南品川３丁目６番３６号南品川フラッツ１０１号室,,13,109,1400004,,,2021-08-04,清算の結了等,,,2018-09-14,1,,,,,アトラス,0
2647,9010902000600,登記記録の閉鎖等,0,2021-08-05,2021-07-30,有限会社浅田商店,,有限会社,東京都,世田谷区,等々力４丁目１２番１３号,,13,112,1580082,,,2021-07-30,清算の結了等,,,2015-10-05,1,,,,,アサダショウテン,0
2653,9011005006849,登記記録の閉鎖等,0,2021-08-05,2021-07-15,一般社団法人ジャパンシナジストアソシエーション,,その他の設立登記法人,東京都,渋谷区,代々木１丁目４４番９号メゾンドール代々木２０１号室,,13,113,1510053,,,2021-07-15,清算の結了等,,,2016-07-19,1,,,,,ジャパンシナジストアソシエーション,0
2667,9012401022720,登記記録の閉鎖等,0,2021-08-05,2021-07-02,健聖塗装株式会社,,株式会社,東京都,国分寺市,本多３丁目１６番２号,,13,214,1850011,,,2021-07-02,清算の結了等,,,2015-10-05,1,,,,,,0
2671,9013301034995,登記記録の閉鎖等,0,2021-08-05,2021-08-02,株式会社ＫＥＮカンパニー,,株式会社,群馬県,高崎市,倉渕町三ノ倉４５８番地８,,10,202,3703402,,,2021-08-02,清算の結了等,,,2015-10-05,1,,,,,ケンカンパニー,0
2677,9020001049167,登記記録の閉鎖等,0,2021-08-05,2021-07-27,株式会社ビッグバード,,株式会社,神奈川県,横浜市青葉区,寺家町２６０番地１,,14,117,2270031,,,2021-07-27,清算の結了等,,,2015-10-05,1,,,,,ビッグバード,0
2697,9030001022395,登記記録の閉鎖等,0,2021-08-05,2021-08-03,株式会社協和工業,,株式会社,東京都,板橋区,弥生町６７番２０号,,13,119,1730021,,,2021-08-03,清算の結了等,,,2015-10-05,1,,,,,キョウワコウギョウ,0
2714,9040002019547,登記記録の閉鎖等,0,2021-08-05,2021-07-28,有限会社アドバンス,,有限会社,千葉県,習志野市,鷺沼台３丁目３番７号,,12,216,2750015,,,2021-07-28,清算の結了等,,,2015-10-05,1,,,,,アドバンス,0
2730,9090002000114,登記記録の閉鎖等,0,2021-08-05,2021-08-02,有限会社アキノ,,有限会社,山梨県,甲府市,若松町５番１０号,,19,201,4000866,,,2021-08-02,清算の結了等,,,2015-10-05,1,,,,,アキノ,0
2735,9110002016875,登記記録の閉鎖等,0,2021-08-05,2021-07-30,有限会社ウイニングサプライ,,有限会社,新潟県,三条市,新光町２番２４号,,15,204,9550057,,,2021-07-30,清算の結了等,,,2015-10-05,1,,,,,ウイニングサプライ,0
2740,9120001204224,登記記録の閉鎖等,0,2021-08-05,2021-08-02,株式会社オアシス,,株式会社,大阪府,大阪市東住吉区,北田辺４丁目２２番６号田辺ビル３０１,,27,121,5460044,,,2021-08-02,合併による解散等,4120001186772,令和３年８月１日大阪市東成区大今里南一丁目１番地２３号ノアーズアーク今里駅前３０１株式会社ひまわり（4120001186772）に合併し解散,2017-03-08,1,,,,,オアシス,0
2765,9122005003305,登記記録の閉鎖等,0,2021-08-05,2021-08-02,特定非営利活動法人東大阪放課後ネット,,その他の設立登記法人,大阪府,東大阪市,横小路町４丁目６番５号シャルマン横小路１０２,,27,227,5798063,,,2021-08-02,清算の結了等,,,2018-01-04,1,,,,,ヒガシオオサカホウカゴネット,0
2787,9180001073977,登記記録の閉鎖等,0,2021-08-05,2021-08-02,株式会社川邊工業,,株式会社,愛知県,春日井市,割塚町３５番地,,23,206,4860824,,,2021-08-02,清算の結了等,,,2015-10-05,1,,,,,カワベコウギョウ,0
2800,9180002031777,登記記録の閉鎖等,0,2021-08-05,2021-07-30,有限会社中部旅行企画,,有限会社,愛知県,名古屋市天白区,中砂町６４－１０４,,23,116,4680065,,,2021-07-30,清算の結了等,,,2015-10-05,1,,,,,チュウブリョコウキカク,0
2806,9190005007294,登記記録の閉鎖等,0,2021-08-05,2021-07-20,長ケ生産森林組合,,その他の設立登記法人,三重県,多気郡大台町,長ケ８３１番地の１,,24,443,5192401,,,2021-07-20,清算の結了等,,,2015-10-05,1,,,,,ナガセイサンシンリンクミアイ,0
2818,9220001009118,登記記録の閉鎖等,0,2021-08-05,2021-07-21,株式会社兼杜,,株式会社,富山県,高岡市,問屋町４６番地,,16,202,9330804,,,2021-07-21,合併による解散等,7230001010043,令和３年７月２１日富山県高岡市問屋町５４番地株式会社才高（7230001010043）に合併し解散,2015-10-05,1,,,,,ケント,0
2836,9280002010267,登記記録の閉鎖等,0,2021-08-05,2021-08-02,有限会社フィールド,,有限会社,島根県,益田市,乙吉町イ１００番地２,,32,204,6980003,,,2021-08-02,合併による解散等,1280001004987,令和３年８月１日島根県益田市須子町４２番９号オリエンタル測量株式会社（1280001004987）に合併し解散,2015-10-05,1,,,,,フィールド,0
2837,9280005000546,登記記録の閉鎖等,0,2021-08-05,2021-08-03,一畑百貨店労働組合,,その他の設立登記法人,島根県,松江市,東朝日町１２３番地４,,32,201,6900001,,,2021-08-03,清算の結了等,,,2015-10-05,1,,,,,イチバタヒャッカテン,0
2852,9320002007192,登記記録の閉鎖等,0,2021-08-05,2021-07-30,有限会社ワイエスプランニング,,有限会社,大分県,大分市,萩原１丁目６番１８号,,44,201,8700921,,,2021-07-30,清算の結了等,,,2015-10-05,1,,,,,,0
2888,9460102000835,登記記録の閉鎖等,0,2021-08-05,2021-08-02,共栄自動車工業有限会社,,有限会社,北海道,中川郡幕別町,字千住３９７番地３３,,01,643,0890563,,,2021-08-02,合併による解散等,4460102002340,令和３年８月１日北海道中川郡幕別町字千住３９７番地２４イートランス株式会社（4460102002340）に合併し解散,2015-10-05,1,,,,,キョウエイジドウシャコウギョウ,0
2892,9490001002153,登記記録の閉鎖等,0,2021-08-05,2021-08-04,株式会社森木タイヤ工業所,,株式会社,高知県,高知市,はりまや町２丁目１２番１２号,,39,201,7800822,,,2021-08-04,清算の結了等,,,2015-10-05,1,,,,,モリキタイヤコウギョウショ,0
