sequenceNumber,corporateNumber,process,correct,updateDate,changeDate,name,nameImageId,kind,prefectureName,cityName,streetNumber,addressImageId,prefectureCode,cityCode,postCode,addressOutside,addressOutsideImageId,closeDate,closeCause,successorCorporateNumber,changeCause,assignmentDate,latest,enName,enPrefectureName,enCityName,enAddressOutside,furigana,hihyoji
14,1010401183301,新規,0,2024-06-24,2024-06-24,株式会社ユイッツピクチャーズ,,株式会社,東京都,港区,赤坂１丁目３番５号赤坂アビタシオンビル８階,,13,103,1070052,,,,,,,2024-06-24,1,,,,,ユイッツピクチャーズ,0
15,1010401183318,新規,0,2024-06-24,2024-06-24,キャリウム株式会社,,株式会社,東京都,港区,北青山３丁目１０番５号ＳｐｒｉｎｇＴｅｒｒａｃｅＯｍｏｔｅｓａｎｄｏ２Ｆ,,13,103,1070061,,,,,,,2024-06-24,1,,,,,キャリウム,0
16,1010401183326,新規,0,2024-06-24,2024-06-24,ニュータイプインフォテック株式会社,,株式会社,東京都,港区,港南２丁目１５番１号,,13,103,1080075,,,,,,,2024-06-24,1,,,,,ニュータイプインフォテック,0
23,1010801035151,新規,0,2024-06-24,2024-06-24,株式会社三友ホールディングス,,株式会社,東京都,大田区,仲池上１丁目１９番１６号,,13,111,1460081,,,,,,,2024-06-24,1,,,,,ミトモホールディングス,0
36,1011001162752,新規,0,2024-06-24,2024-06-24,ｐｏｉｎｔｐａｙ株式会社,,株式会社,東京都,渋谷区,渋谷２丁目１番１１号４階,,13,113,1500002,,,,,,,2024-06-24,1,,,,,ポイントペイ,0
37,1011001162843,新規,0,2024-06-24,2024-06-24,アールティー映像通信株式会社,,株式会社,東京都,渋谷区,神宮前６丁目２３番４号桑野ビル２階,,13,113,1500001,,,,,,,2024-06-24,1,,,,,アールティーエイゾウツウシン,0
38,1011001162892,新規,0,2024-06-24,2024-06-24,ＣＡＬＵＬＡ宝飾株式会社,,株式会社,東京都,渋谷区,千駄ヶ谷３丁目５番１２号ラピス原宿ＩＩ３０４,00135277,13,113,1510051,,,,,,,2024-06-24,1,,,,,カルラホウショク,0
41,1011003019389,新規,0,2024-06-24,2024-06-24,合同会社イラプト,,合同会社,東京都,渋谷区,恵比寿西２丁目４番８号ウィンド恵比寿ビル８Ｆ,,13,113,1500021,,,,,,,2024-06-24,1,,,,,イラプト,0
47,1011103014595,新規,0,2024-06-24,2024-06-24,ＡｌｄｅａｓＨＤ合同会社,,合同会社,東京都,新宿区,中井２丁目１９番２２号,,13,104,1610035,,,,,,,2024-06-24,1,,,,,アイデアーズホールディング,0
51,1011301029783,新規,0,2024-06-24,2024-06-24,株式会社ネイビー,,株式会社,東京都,杉並区,下井草２丁目３６－７,,13,115,1670022,,,,,,,2024-06-24,1,,,,,,0
53,1011401026177,新規,0,2024-06-24,2024-06-24,ギブアンドギブコンサルティング株式会社,,株式会社,東京都,板橋区,大山金井町４７番６－６０２号,,13,119,1730024,,,,,,,2024-06-24,1,,,,,ギブアンドギブコンサルティング,0
54,1011401026219,新規,0,2024-06-24,2024-06-24,株式会社田口興業,,株式会社,東京都,板橋区,高島平９丁目１－５－１０１１,,13,119,1750082,,,,,,,2024-06-24,1,,,,,タグチコウギョウ,0
55,1011403004420,新規,0,2024-06-24,2024-06-24,合同会社前島地図デザイン研究所,,合同会社,東京都,板橋区,四葉２丁目１８番１２号,,13,119,1750084,,,,,,,2024-06-24,1,,,,,マエシマチズデザインケンキュウジョ,0
56,1011501030839,新規,0,2024-06-24,2024-06-24,日比山株式会社,,株式会社,東京都,北区,浮間１丁目１番１４号リムジンビル２２０,,13,117,1150051,,,,,,,2024-06-24,1,,,,,ヒビヤマ,0
62,1011601027842,新規,0,2024-06-24,2024-06-24,株式会社イーグルホールディングス,,株式会社,東京都,練馬区,田柄４丁目３６番３５号,,13,120,1790073,,,,,,,2024-06-24,1,,,,,イーグルホールディングス,0
67,1012303002010,新規,0,2024-06-24,2024-06-24,Ｂｅｎａｎｎａ合同会社,,合同会社,東京都,町田市,小山町４４６９－１７,,13,209,1940212,,,,,,,2024-06-24,1,,,,,ベンアッンア,0
70,1012803003441,新規,0,2024-06-24,2024-06-24,合同会社Ｗａｓｔｅｄ,,合同会社,東京都,立川市,錦町３丁目９番２１号メゾン・ド・リラ３０４,,13,202,1900022,,,,,,,2024-06-24,1,,,,,ウェイステッド,0
72,1020001157803,新規,0,2024-06-24,2024-06-24,株式会社スパイナルイノベーション,,株式会社,神奈川県,横浜市都筑区,茅ケ崎中央４４番１４号,,14,118,2240032,,,,,,,2024-06-24,1,,,,,スパイナルイノベーション,0
73,1020001157828,新規,0,2024-06-24,2024-06-24,株式会社エキザカム,,株式会社,神奈川県,横浜市都筑区,中川５丁目２３番５号パークアベニュー６Ａ,,14,118,2240001,,,,,,,2024-06-24,1,,,,,エキザカム,0
75,1020003026378,新規,0,2024-06-24,2024-06-24,合同会社ＢＯＲＤＥＲＬＥＳＳ,,合同会社,神奈川県,川崎市宮前区,神木２丁目４番地２ブルーハイム２０４,,14,136,2160032,,,,,,,2024-06-24,1,,,,,ボーダーレス,0
81,1021001082561,新規,0,2024-06-24,2024-06-24,株式会社ｃａｓｉｔａ,,株式会社,神奈川県,藤沢市,藤が岡３丁目３番３号,,14,205,2510004,,,,,,,2024-06-24,1,,,,,カシータ,0
84,1030001161044,新規,0,2024-06-24,2024-06-24,アサンテ株式会社,,株式会社,埼玉県,春日部市,上蛭田４１４番地,,11,214,3440046,,,,,,,2024-06-24,1,,,,,アサンテ,0
85,1030001161060,新規,0,2024-06-24,2024-06-24,ＪＹＷ株式会社,,株式会社,埼玉県,蕨市,塚越７丁目３７番２号ブリーズコート蕨塚越テラス４０４号,,11,223,3350002,,,,,,,2024-06-24,1,,,,,ジェーワイーダブリュー,0
86,1030001161077,新規,0,2024-06-24,2024-06-24,株式会社ルーネル,,株式会社,埼玉県,比企郡嵐山町,むさし台２丁目３－１４,,11,342,3550216,,,,,,,2024-06-24,1,,,,,ルーネル,0
88,1030003024546,新規,0,2024-06-24,2024-06-24,Ｍｏｔｓ　Ｌａｂ合同会社,,合同会社,埼玉県,春日部市,谷原１丁目２番１０号,,11,214,3440065,,,,,,,2024-06-24,1,,,,,モッツラボ,0
91,1040001134148,新規,0,2024-06-24,2024-06-24,メディカルビューティー株式会社,,株式会社,千葉県,船橋市,宮本２丁目１２番１０号,,12,204,2730003,,,,,,,2024-06-24,1,,,,,メディカルビューティー,0
92,1040001134164,新規,0,2024-06-24,2024-06-24,Ｔｅａｍ株式会社,,株式会社,千葉県,千葉市中央区,蘇我２丁目３０－３１,,12,101,2600822,,,,,,,2024-06-24,1,,,,,チーム,0
93,1040001134180,新規,0,2024-06-24,2024-06-24,山岡商事株式会社,,株式会社,千葉県,松戸市,松飛台１１８番地の２９,,12,207,2702214,,,,,,,2024-06-24,1,,,,,ヤマオカショウジ,0
99,1040005022431,新規,0,2024-06-24,2024-06-24,一般社団法人ＳＯＷ,,その他の設立登記法人,千葉県,松戸市,河原塚４０８番地の１せんぱく工舎１階Ｆ号室,,12,207,2702254,,,,,,,2024-06-24,1,,,,,ソウ,0
110,1070001041886,新規,0,2024-06-24,2024-06-24,株式会社セレクトプラン,,株式会社,群馬県,太田市,新田村田町３５０番地,,10,205,3700312,,,,,,,2024-06-24,1,,,,,セレクトプラン,0
113,1080005007619,新規,0,2024-06-24,2024-06-24,一般社団法人コネクトサークル,,その他の設立登記法人,静岡県,焼津市,小土１０９１番地の４,,22,212,4250086,,,,,,,2024-06-24,1,,,,,コネクトサークル,0
117,1090001018783,新規,0,2024-06-24,2024-06-24,株式会社福正,,株式会社,山梨県,甲府市,里吉１丁目１番５号,,19,201,4000822,,,,,,,2024-06-24,1,,,,,フクショウ,0
135,1120001266148,新規,0,2024-06-24,2024-06-24,株式会社好崎,,株式会社,大阪府,大阪市天王寺区,城南寺町５－３４,,27,109,5430017,,,,,,,2024-06-24,1,,,,,ヨシザキ,0
136,1120005024386,新規,0,2024-06-24,2024-06-24,一般社団法人ミライ共済会,,その他の設立登記法人,大阪府,大阪市中央区,南久宝寺町２丁目６番８－７０６号,,27,128,5410058,,,,,,,2024-06-24,1,,,,,ミライキョウサイカイ,0
139,1120101069830,新規,0,2024-06-24,2024-06-24,鴻宇産業株式会社,,株式会社,大阪府,和泉市,仏並町１２４３番地,,27,219,5941136,,,,,,,2024-06-24,1,,,,,コウウサンギョウ,0
145,1130003009652,新規,0,2024-06-24,2024-06-24,阪和貿易合同会社,,合同会社,京都府,京都市中京区,御供町３０１－Ｄ,,26,104,6048331,,,,,,,2024-06-24,1,,,,,ハンワボウエキ,0
146,1130003009660,新規,0,2024-06-24,2024-06-24,合同会社Ｓｏｉｌ,,合同会社,京都府,綴喜郡井手町,大字多賀小字前川１２－１,,26,343,6100301,,,,,,,2024-06-24,1,,,,,ソイル,0
152,1140001134864,新規,0,2024-06-24,2024-06-24,日本Ａ＆Ｄ　ＩＮＶＥＳＴＭＥＮＴ株式会社,,株式会社,兵庫県,西宮市,苦楽園四番町５番４９号,,28,204,6620088,,,,,,,2024-06-24,1,,,,,ニホンエーアンドデイインベストメント,0
153,1140001134880,新規,0,2024-06-24,2024-06-24,株式会社伊原解業,,株式会社,兵庫県,尼崎市,道意町６丁目９番地の１０,,28,202,6600083,,,,,,,2024-06-24,1,,,,,イハラカイギョウ,0
154,1140001134889,新規,0,2024-06-24,2024-06-24,株式会社善,,株式会社,兵庫県,尼崎市,今福１丁目１番２８－５０７号,,28,202,6600812,,,,,,,2024-06-24,1,,,,,ゼン,0
160,1180001162069,新規,0,2024-06-24,2024-06-24,株式会社ＯＮＥ‐ＦＯＯＤ,,株式会社,愛知県,名古屋市西区,大野木５丁目１７０番地カーサシュシュ２０１,,23,104,4520803,,,,,,,2024-06-24,1,,,,,ワンフード,0
161,1180001162077,新規,0,2024-06-24,2024-06-24,株式会社ＢＡＳＫＥＴ　ＤＲＥＡＭ,,株式会社,愛知県,名古屋市港区,築盛町３６番地グランドレジデンス港シティー１０６号,,23,111,4550057,,,,,,,2024-06-24,1,,,,,バスケットドリーム,0
164,1180003026981,新規,0,2024-06-24,2024-06-24,合同会社ＲＡＳＨ,,合同会社,愛知県,海部郡蟹江町,学戸４丁目１８３－２０２,,23,425,4970050,,,,,,,2024-06-24,1,,,,,ラッシュ,0
165,1180005020669,新規,0,2024-06-24,2024-06-24,医療法人Ｍ．Ｓ．Ｋ．,,その他の設立登記法人,愛知県,稲沢市,横地４丁目３８番地４,,23,220,4928266,,,,,,,2024-06-24,1,,,,,エムエスケー,0
167,1180301038761,新規,0,2024-06-24,2024-06-24,株式会社ＥＡＧＬＥ,,株式会社,愛知県,刈谷市,井ケ谷町久伝原３９番地１,,23,210,4480001,,,,,,,2024-06-24,1,,,,,イーグル,0
170,1200005013637,新規,0,2024-06-24,2024-06-24,特定非営利活動法人未来の力,,その他の設立登記法人,岐阜県,岐阜市,宇佐南２丁目５番５号,,21,201,5008367,,,,,,,2024-06-24,1,,,,,ミライノチカラ,0
171,1220001026062,新規,0,2024-06-24,2024-06-24,Ａｉ　Ｇｒｏｕｐ　Ｈｏｌｄｉｎｇｓ株式会社,,株式会社,石川県,金沢市,諸江町中丁１７７番地１,,17,201,9200016,,,,,,,2024-06-24,1,,,,,エーアイグループホールディングス,0
174,1230001020403,新規,0,2024-06-24,2024-06-24,株式会社さくら,,株式会社,富山県,高岡市,木津５９７番地１,,16,202,9330857,,,,,,,2024-06-24,1,,,,,サクラ,0
184,1260003004797,新規,0,2024-06-24,2024-06-24,合同会社勇光,,合同会社,岡山県,笠岡市,北木島町６６３１番地２３,,33,205,7140301,,,,,,,2024-06-24,1,,,,,ユウコウ,0
191,1290001106246,新規,0,2024-06-24,2024-06-24,株式会社ＢＫ　ｇｒｏｕｐ,,株式会社,福岡県,福岡市博多区,中洲２丁目７番１８号タケクラビル２階,,40,132,8100801,,,,,,,2024-06-24,1,,,,,ビーケーグループ,0
195,1300001013804,新規,0,2024-06-24,2024-06-24,株式会社山北建設,,株式会社,佐賀県,多久市,多久町６０１９番地３,,41,204,8460031,,,,,,,2024-06-24,1,,,,,ヤマキタケンセツ,0
203,1350001019029,新規,0,2024-06-24,2024-06-24,株式会社ＮＡＫＡＩＧＡＭＩ,,株式会社,宮崎県,都城市,南鷹尾町４１街区１号,,45,202,8850082,,,,,,,2024-06-24,1,,,,,ナカイガミ,0
211,1360003014092,新規,0,2024-06-24,2024-06-24,南西マリンサービス合同会社,,合同会社,沖縄県,那覇市,松山２丁目５番１０－４０３号ライオンズマンション松山第２,,47,201,9000032,,,,,,,2024-06-24,1,,,,,ナンセイマリンサービス,0
213,1370001051442,新規,0,2024-06-24,2024-06-24,株式会社ひろ工業,,株式会社,宮城県,岩沼市,南長谷字田中１１５番地の１,,04,211,9892454,,,,,,,2024-06-24,1,,,,,ヒロコウギョウ,0
237,1430001092091,新規,0,2024-06-24,2024-06-24,株式会社リメイクベース,,株式会社,北海道,札幌市中央区,北二条東８丁目８６番地８エス・コート２８－４０７号,,01,101,0600032,,,,,,,2024-06-24,1,,,,,リメイクベース,0
238,1430001092100,新規,0,2024-06-24,2024-06-24,株式会社ＳＵＣＣＥＳＳ　ＳＴＡＧＥ,,株式会社,北海道,札幌市中央区,南五条西１５丁目２－３リズム医大前５０３号室,,01,101,0640805,,,,,,,2024-06-24,1,,,,,サクセスステージ,0
245,1470001020255,新規,0,2024-06-24,2024-06-24,株式会社カノア,,株式会社,香川県,丸亀市,浜町８４番地１８,,37,202,7630022,,,,,,,2024-06-24,1,,,,,カノア,0
246,1470001020263,新規,0,2024-06-24,2024-06-24,株式会社ひまわりプラス,,株式会社,香川県,高松市,勅使町１４９番地１,,37,201,7618058,,,,,,,2024-06-24,1,,,,,ヒマワリプラス,0
247,1500001025713,新規,0,2024-06-24,2024-06-24,株式会社ＸＩＵＭ,,株式会社,愛媛県,松山市,南吉田町１３６３番地５ドルチェ・ヴィータ２０１号,,38,201,7918042,,,,,,,2024-06-24,1,,,,,サイウン,0
248,1700150041945,新規,0,2024-06-24,2015-10-09,アリアンス・フランセ－ズ愛知フランス協会,,その他,愛知県,名古屋市千種区,四谷通２丁目１３ルーツストーンファーストビル　３階,,23,101,4640819,,,,,,,2015-10-09,1,,,,,アリアンスフランセーズアイチフランスキヨウカイ,0
249,1700150126151,新規,0,2024-06-24,2024-06-24,Ｍｏｘｃｏ　Ａｕｔｏ,,外国会社等,千葉県,大網白里市,南今泉６６７番地２オフィス３,,12,239,2993202,スリランカ民主社会主義共和国、アクラナ、マルワナヒンナ、Ｎｏ．７８３／Ａ,,,,,,2024-06-24,1,,,,,モスコオート,0
257,2010001245962,新規,0,2024-06-24,2024-06-24,株式会社ＯｎｅＴｉｅｓ　ＪＡＰＡＮ,,株式会社,東京都,千代田区,神田須田町２丁目１１番８号,,13,101,1010041,,,,,,,2024-06-24,1,,,,,ワンティーズジャパン,0
258,2010001246028,新規,0,2024-06-24,2024-06-24,株式会社ｃｒｅ’８,,株式会社,東京都,中央区,銀座１丁目１２―４Ｎ＆ＥＢＬＤ．７階,,13,102,1040061,,,,,,,2024-06-24,1,,,,,クリエイト,0
260,2010003044108,新規,0,2024-06-24,2024-06-24,合同会社Ｔｏｒｅａｑｕｅ,,合同会社,東京都,中央区,晴海５丁目５番６－４０９号,,13,102,1040053,,,,,,,2024-06-24,1,,,,,トリーク,0
261,2010003044124,新規,0,2024-06-24,2024-06-24,Ｖａｋａｂａｕｔａ合同会社,,合同会社,東京都,千代田区,五番町１２番地７－２０４３,,13,101,1020076,,,,,,,2024-06-24,1,,,,,ヴァカバウタ,0
262,2010003044149,新規,0,2024-06-24,2024-06-24,ＡＰデリバリー合同会社,,合同会社,東京都,中央区,日本橋中洲２－３－１１０４,,13,102,1030008,,,,,,,2024-06-24,1,,,,,エーピーデリバリー,0
263,2010005038446,新規,0,2024-06-24,2024-06-24,一般社団法人広島宮島口ホテルプロジェクト,,その他の設立登記法人,東京都,千代田区,霞が関３丁目２番５号,,13,101,1000013,,,,,,,2024-06-24,1,,,,,ヒロシマミヤジマグチホテルプロジェクト,0
270,2010401183226,新規,0,2024-06-24,2024-06-24,株式会社ウォータービジネスサプライ,,株式会社,東京都,港区,南青山３丁目１番３６号青山丸竹ビル６Ｆ,,13,103,1070062,,,,,,,2024-06-24,1,,,,,ウォータービジネスサプライ,0
271,2010401183325,新規,0,2024-06-24,2024-06-24,株式会社ミロク,,株式会社,東京都,港区,東麻布２丁目６番３号,,13,103,1060044,,,,,,,2024-06-24,1,,,,,ミロク,0
279,2010801035167,新規,0,2024-06-24,2024-06-24,株式会社月白,,株式会社,東京都,大田区,田園調布１丁目２７番２０号,,13,111,1450071,,,,,,,2024-06-24,1,,,,,ゲッパク,0
294,2011001162719,新規,0,2024-06-24,2024-06-24,株式会社Ｓｕｎｎｙｄａｙ,,株式会社,東京都,目黒区,上目黒３丁目３７番５号,,13,110,1530051,,,,,,,2024-06-24,1,,,,,サニーデイ,0
295,2011001162743,新規,0,2024-06-24,2024-06-24,カイギャック株式会社,,株式会社,東京都,渋谷区,富ヶ谷２丁目８番１４号ＡＭＥＮＩＴＹ・ＹＡＭＡＮＯＴＥ２０１,,13,113,1510063,,,,,,,2024-06-24,1,,,,,カイギャック,0
296,2011001162751,新規,0,2024-06-24,2024-06-24,パレード・ミュージック株式会社,,株式会社,東京都,渋谷区,代官山町４番１－５０２号,,13,113,1500034,,,,,,,2024-06-24,1,,,,,パレードミュージック,0
299,2011003019248,新規,0,2024-06-24,2024-06-24,合同会社ＳＳＫ,,合同会社,東京都,渋谷区,道玄坂１丁目１０番８号渋谷道玄坂東急ビル２Ｆ－Ｃ,,13,113,1500043,,,,,,,2024-06-24,1,,,,,エスエスケー,0
309,2011403004428,新規,0,2024-06-24,2024-06-24,合同会社ＨＡＩＡＮＨ,,合同会社,東京都,板橋区,前野町５丁目５２番地１３ハイツサイトウ２０１,,13,119,1740063,,,,,,,2024-06-24,1,,,,,ハイアイン,0
314,2012801023242,新規,0,2024-06-24,2024-06-24,株式会社芽花,,株式会社,東京都,立川市,砂川町３丁目８‐４グリーンシティ砂川１０１,,13,202,1900031,,,,,,,2024-06-24,1,,,,,メイカ,0
320,2020001157802,新規,0,2024-06-24,2024-06-24,株式会社デンパ,,株式会社,神奈川県,川崎市中原区,木月３丁目３９番５号,,14,133,2110025,,,,,,,2024-06-24,1,,,,,デンパ,0
321,2020001157827,新規,0,2024-06-24,2024-06-24,株式会社Ｓｈｉｎデザイン,,株式会社,神奈川県,横浜市中区,山下町２５６番地６０８号室,,14,104,2310023,,,,,,,2024-06-24,1,,,,,シンデザイン,0
323,2020003026385,新規,0,2024-06-24,2024-06-24,合同会社ＳｍａｒｔＳａｌｅｓ,,合同会社,神奈川県,横浜市神奈川区,西神奈川３丁目１７－２２,,14,102,2210822,,,,,,,2024-06-24,1,,,,,スマートセールス,0
328,2021003014586,新規,0,2024-06-24,2024-06-24,合同会社ＮＥＸＴ　ＯＮＥ,,合同会社,神奈川県,秦野市,尾尻４８３―７エステートアヤベＡ２０４,,14,211,2570011,,,,,,,2024-06-24,1,,,,,ネクストワン,0
333,2030001160937,新規,0,2024-06-24,2024-06-24,株式会社グリーンムル,,株式会社,埼玉県,さいたま市緑区,馬場１丁目１７番地８,,11,109,3360912,,,,,,,2024-06-24,1,,,,,グリーンムル,0
334,2030001161035,新規,0,2024-06-24,2024-06-24,雅国際貿易株式会社,,株式会社,埼玉県,本庄市,児玉町児玉１４３７番地１１,,11,211,3670212,,,,,,,2024-06-24,1,,,,,ミヤビコクサイボウエキ,0
335,2030001161043,新規,0,2024-06-24,2024-06-24,株式会社４４,,株式会社,埼玉県,越谷市,千間台西４丁目１２番地８,,11,222,3430041,,,,,,,2024-06-24,1,,,,,ヨンヨン,0
336,2030001161068,新規,0,2024-06-24,2024-06-24,株式会社ＫＯＣＯＭ,,株式会社,埼玉県,新座市,栄５丁目２番２２号,,11,230,3520014,,,,,,,2024-06-24,1,,,,,ココム,0
337,2030001161076,新規,0,2024-06-24,2024-06-24,株式会社錦承,,株式会社,埼玉県,蕨市,塚越５丁目３６番３号,,11,223,3350002,,,,,,,2024-06-24,1,,,,,キンショウ,0
343,2030003024545,新規,0,2024-06-24,2024-06-24,合同会社アットテト,,合同会社,埼玉県,狭山市,大字北入曽６４０番地の８バン・ド・ソレイユ２０２,,11,215,3501315,,,,,,,2024-06-24,1,,,,,アットテト,0
344,2030003024553,新規,0,2024-06-24,2024-06-24,合同会社義建,,合同会社,埼玉県,八潮市,大字二丁目１２４６番地１８,,11,234,3400811,,,,,,,2024-06-24,1,,,,,ヨシケン,0
345,2030003024561,新規,0,2024-06-24,2024-06-24,きずなねっと埼玉合同会社,,合同会社,埼玉県,さいたま市見沼区,東大宮４丁目２６番３号鯨井ビル２０２,,11,104,3370051,,,,,,,2024-06-24,1,,,,,キズナネットサイタマ,0
347,2030005021739,新規,0,2024-06-24,2024-06-24,税理士法人アエル,,その他の設立登記法人,埼玉県,川口市,江戸３丁目２９番３３号,,11,203,3340074,,,,,,,2024-06-24,1,,,,,アエル,0
355,2040001134147,新規,0,2024-06-24,2024-06-24,金楽株式会社,,株式会社,千葉県,野田市,みずき４丁目１９番地の２８,,12,208,2780027,,,,,,,2024-06-24,1,,,,,キンラク,0
369,2070001041885,新規,0,2024-06-24,2024-06-24,株式会社グランディー,,株式会社,群馬県,高崎市,東町７０,,10,202,3700045,,,,,,,2024-06-24,1,,,,,グランディー,0
370,2070001041893,新規,0,2024-06-24,2024-06-24,ＫＨＡＮ　ＢＲＯＴＨＥＲＳ　ＭＵＬＴＹ株式会社,,株式会社,群馬県,館林市,高根町１０５２番地の２９９,,10,207,3740074,,,,,,,2024-06-24,1,,,,,カンブラザーズマルチ,0
375,2080001026357,新規,0,2024-06-24,2024-06-24,株式会社Ｍｅｔｒｏｎｄ,,株式会社,静岡県,焼津市,焼津１丁目６番９号ＦＫビル１０１,,22,212,4250026,,,,,,,2024-06-24,1,,,,,メトロンド,0
378,2080005007618,新規,0,2024-06-24,2024-06-24,一般社団法人静美会,,その他の設立登記法人,静岡県,静岡市駿河区,宮本町１０番１８号,,22,102,4228065,,,,,,,2024-06-24,1,,,,,セイビカイ,0
382,2080401027269,新規,0,2024-06-24,2024-06-24,ＳＡ商事株式会社,,株式会社,静岡県,浜松市中央区,高丘東１丁目９番３７号,,22,138,4338117,,,,,,,2024-06-24,1,,,,,エスエーショウジ,0
383,2090001018782,新規,0,2024-06-24,2024-06-24,株式会社山田電気工業,,株式会社,山梨県,南巨摩郡身延町,下山９０８０番地１,,19,365,4092522,,,,,,,2024-06-24,1,,,,,ヤマダデンキコウギョウ,0
393,2120001265801,新規,0,2024-06-24,2024-06-24,プラファ株式会社,,株式会社,大阪府,寝屋川市,大成町７－１,,27,215,5720819,,,,,,,2024-06-24,1,,,,,プラファ,0
394,2120001266139,新規,0,2024-06-24,2024-06-24,株式会社モビレ,,株式会社,大阪府,大阪市中央区,瓦屋町２丁目４番１２号２Ｆ,,27,128,5420066,,,,,,,2024-06-24,1,,,,,モビレ,0
395,2120001266171,新規,0,2024-06-24,2024-06-24,株式会社Ｍ＆Ｋ,,株式会社,大阪府,大阪市此花区,島屋６丁目２番１００－１５１０号,,27,104,5540024,,,,,,,2024-06-24,1,,,,,エムアンドケー,0
396,2120003026904,新規,0,2024-06-24,2024-06-24,Ｍ＆Ａサポート合同会社,,合同会社,大阪府,大阪市中央区,松屋町住吉５番７－１１０４号,,27,128,5400017,,,,,,,2024-06-24,1,,,,,エムアンドエーサポート,0
399,2120101069805,新規,0,2024-06-24,2024-06-24,株式会社Ｇ‐ＳＴＵＤＩＯ,,株式会社,大阪府,泉南郡熊取町,小垣内２丁目５４１番地の７,,27,361,5900432,,,,,,,2024-06-24,1,,,,,ジースタヂオ,0
410,2130003009651,新規,0,2024-06-24,2024-06-24,吉豊貿易合同会社,,合同会社,京都府,京都市中京区,御供町３０１－Ｃ,,26,104,6048331,,,,,,,2024-06-24,1,,,,,ヨシトヨボウエキ,0
413,2140001134780,新規,0,2024-06-24,2024-06-24,ネコトラ重工業株式会社,,株式会社,兵庫県,神戸市北区,八多町附物１８３７番地の１,,28,109,6511343,,,,,,,2024-06-24,1,,,,,ネコトラジュウコウギョウ,0
414,2140001134871,新規,0,2024-06-24,2024-06-24,えびす株式会社,,株式会社,兵庫県,西宮市,笠屋町１２番１１号,,28,204,6638136,,,,,,,2024-06-24,1,,,,,エビス,0
421,2150001027364,新規,0,2024-06-24,2024-06-24,株式会社八百徳,,株式会社,奈良県,大和郡山市,馬司町６４２番地２,,29,203,6391124,,,,,,,2024-06-24,1,,,,,ヤオトク,0
422,2150001027372,新規,0,2024-06-24,2024-06-24,株式会社ＯＡＳＩＳ,,株式会社,奈良県,奈良市,南京終町１丁目８９番地４,,29,201,6308141,,,,,,,2024-06-24,1,,,,,オアシス,0
430,2180001162068,新規,0,2024-06-24,2024-06-24,株式会社ＰＩＸＹ２ｎｄ,,株式会社,愛知県,名古屋市千種区,清住町２丁目３８－２東山ハウス７０７,,23,101,4640034,,,,,,,2024-06-24,1,,,,,ピクシーセカンド,0
431,2180001162076,新規,0,2024-06-24,2024-06-24,株式会社ワイズリノベーション,,株式会社,愛知県,名古屋市守山区,金屋１丁目８番８号－２０１,,23,113,4630072,,,,,,,2024-06-24,1,,,,,ワイズリノベーション,0
437,2180301038769,新規,0,2024-06-24,2024-06-24,株式会社Ｇｌｏｗ　ｕｐ,,株式会社,愛知県,豊川市,美園２丁目９番地３２,,23,207,4410106,,,,,,,2024-06-24,1,,,,,グロウアップ,0
452,2240001063417,新規,0,2024-06-24,2024-06-24,株式会社フォラダー,,株式会社,広島県,広島市中区,光南３丁目１番９－５０３号,,34,101,7300825,,,,,,,2024-06-24,1,,,,,フォラダー,0
454,2240003006729,新規,0,2024-06-24,2024-06-24,ＨＯＷＡ＆ＰＵＹＡ合同会社,,合同会社,広島県,福山市,沼隈町大字下山南１９２７番地１,,34,207,7200403,,,,,,,2024-06-24,1,,,,,ホーワアンドプーヤ,0
458,2260003004796,新規,0,2024-06-24,2024-06-24,ＭＥＩサービス合同会社,,合同会社,岡山県,岡山市北区,福崎４２２番地５,,33,101,7011357,,,,,,,2024-06-24,1,,,,,エムイーアイサービス,0
470,2290801030660,新規,0,2024-06-24,2024-06-24,株式会社サダミツ,,株式会社,福岡県,直方市,大字上新入２８１８番地,,40,204,8220033,,,,,,,2024-06-24,1,,,,,サダミツ,0
471,2310001019080,新規,0,2024-06-24,2024-06-24,株式会社Ｓ＆Ｈ,,株式会社,長崎県,佐世保市,木原町１４３９番地,,42,202,8593166,,,,,,,2024-06-24,1,,,,,エスアンドエイチ,0
473,2320001020558,新規,0,2024-06-24,2024-06-24,ＪＬ株式会社,,株式会社,大分県,由布市,湯布院町川南１５９６－１ＹＵＦＵＩＮブランピエール２０２号室,,44,213,8795103,,,,,,,2024-06-24,1,,,,,ジェイエル,0
479,2350001019028,新規,0,2024-06-24,2024-06-24,株式会社樹,,株式会社,宮崎県,児湯郡新富町,大字新田１５２１６番地１,,45,402,8891406,,,,,,,2024-06-24,1,,,,,イツキ,0
482,2370001051441,新規,0,2024-06-24,2024-06-24,株式会社アツラエ,,株式会社,宮城県,東松島市,赤井字七反谷地４３３番地８,,04,214,9810501,,,,,,,2024-06-24,1,,,,,アツラエ,0
490,2390003002259,新規,0,2024-06-24,2024-06-24,合同会社バリューポーター,,合同会社,山形県,南陽市,宮内２００１番地の１０Ｙ＆Ｍ宮内３０５号室,,06,213,9920472,,,,,,,2024-06-24,1,,,,,バリューポーター,0
498,2430001092090,新規,0,2024-06-24,2024-06-24,株式会社ＣＯＰＡＲＴ　ＣＯＲＰＯＲＡＴＩＯＮ,,株式会社,北海道,石狩郡当別町,幸町１１０１番地２,,01,303,0610217,,,,,,,2024-06-24,1,,,,,コパートコーポレーション,0
499,2430001092099,新規,0,2024-06-24,2024-06-24,株式会社北海道ゑびす,,株式会社,北海道,恵庭市,南島松８１７番地４,,01,231,0611375,,,,,,,2024-06-24,1,,,,,ホッカイドウエビス,0
502,2430003016485,新規,0,2024-06-24,2024-06-24,サーブ合同会社,,合同会社,北海道,札幌市北区,屯田七条５丁目４番８号,,01,102,0020857,,,,,,,2024-06-24,1,,,,,サーブ,0
506,2460101007565,新規,0,2024-06-24,2024-06-24,タイキ医薬製造株式会社,,株式会社,北海道,広尾郡大樹町,中大樹６番地２２,,01,641,0892100,,,,,,,2024-06-24,1,,,,,タイキイヤクセイゾウ,0
508,2470001020262,新規,0,2024-06-24,2024-06-24,小豆島まちのデザイン株式会社,,株式会社,香川県,小豆郡小豆島町,池田１４３９番地１２,,37,324,7614301,,,,,,,2024-06-24,1,,,,,ショウドシママチノデザイン,0
513,2700150126150,新規,0,2024-06-24,2024-06-24,ＬＡＮＫＡ　ＰＲＯＤＵＣＥ　ＥＮＴＥＲＰＲＩＳＥＳ,,外国会社等,千葉県,山武市,横田１０５９番地５８オフィスＡ,,12,237,2891226,スリランカ民主社会主義共和国、キャンディ、ゲリオヤ、ガンポラロード、１２３,,,,,,2024-06-24,1,,,,,ランカプロデユースエンタープライズ,0
517,3010001245929,新規,0,2024-06-24,2024-06-24,Ｃｒｏｓｓｉｎｇ　Ｃａｒｄｓ株式会社,,株式会社,東京都,中央区,日本橋人形町３丁目１番１７号日本橋人形町石井ビル１階,,13,102,1030013,,,,,,,2024-06-24,1,,,,,クロッシングカーズ,0
520,3010003044115,新規,0,2024-06-24,2024-06-24,合同会社千代田産業医・労働衛生コンサルタント事務所,,合同会社,東京都,千代田区,内神田１丁目１５－１０,,13,101,1010047,,,,,,,2024-06-24,1,,,,,チヨダサンギョウイロウドウエイセイコンサルタントジムショ,0
526,3010401183241,新規,0,2024-06-24,2024-06-24,株式会社ヴェリード,,株式会社,東京都,港区,浜松町２丁目２番１５号浜松町ダイヤビル２Ｆ,,13,103,1050013,,,,,,,2024-06-24,1,,,,,ヴェリード,0
527,3010401183299,新規,0,2024-06-24,2024-06-24,石狩湾新港西埠頭バイオパワー株式会社,,株式会社,東京都,港区,高輪３丁目４番１号,,13,103,1080074,,,,,,,2024-06-24,1,,,,,イシカリワンシンコウニシフトウバイオパワー,0
531,3010403032850,新規,0,2024-06-24,2024-06-24,スーパーノーマル合同会社,,合同会社,東京都,港区,赤坂１丁目１２番３２号アークヒルズ森ビル１２Ｆ,,13,103,1070052,,,,,,,2024-06-24,1,,,,,スーパーノーマル,0
532,3010405023328,新規,0,2024-06-24,2024-06-24,一般社団法人ＭＯＮＣＥＮＡ,,その他の設立登記法人,東京都,港区,北青山１丁目３番１号アールキューブ青山３階,,13,103,1070061,,,,,,,2024-06-24,1,,,,,モンセナ,0
535,3010801035166,新規,0,2024-06-24,2024-06-24,ブイカインド綜合株式会社,,株式会社,東京都,大田区,中馬込２丁目２番２号ヒルサイドスクエア２０３,,13,111,1430027,,,,,,,2024-06-24,1,,,,,ブイカインドソウゴウ,0
539,3010901055519,新規,0,2024-06-24,2024-06-24,株式会社ＴＮＫプロジェクト,,株式会社,東京都,世田谷区,野沢４丁目１番１４号,,13,112,1540003,,,,,,,2024-06-24,1,,,,,ティエヌケイプロジェクト,0
541,3010903009175,新規,0,2024-06-24,2024-06-24,合同会社流木,,合同会社,東京都,世田谷区,岡本２丁目１４－６イニシアクラウド二子玉川イースト４０４,,13,112,1570076,,,,,,,2024-06-24,1,,,,,リュウボク,0
548,3011001162750,新規,0,2024-06-24,2024-06-24,株式会社ＹＭ,,株式会社,東京都,目黒区,南３丁目１３番１－７０４号マイキャッスル目黒富士見台,,13,110,1520013,,,,,,,2024-06-24,1,,,,,ワイエム,0
549,3011001162841,新規,0,2024-06-24,2024-06-24,株式会社３ｒｄ　ｗｏｒｋｓ,,株式会社,東京都,目黒区,柿の木坂１丁目３３番１４号,,13,110,1520022,,,,,,,2024-06-24,1,,,,,サードワークス,0
550,3011001162890,新規,0,2024-06-24,2024-06-24,ＲｏｂｏＰａｔｈ株式会社,,株式会社,東京都,渋谷区,渋谷２丁目１９－１５宮益坂ビルディング６０９,,13,113,1500002,,,,,,,2024-06-24,1,,,,,ロボパス,0
551,3011001162932,新規,0,2024-06-24,2024-06-24,ＭＭＹＷＯＲＬＤ　Ｊａｐａｎ株式会社,,株式会社,東京都,渋谷区,神宮前６丁目３番９号ユーハイム表参道アネックスビル４Ｆ,,13,113,1500001,,,,,,,2024-06-24,1,,,,,エムエムワイワールドジャパン,0
553,3011003019445,新規,0,2024-06-24,2024-06-24,合同会社ＣＯＯＬ,,合同会社,東京都,目黒区,碑文谷５丁目２０番３号Ｍ・Ｔハイツ１０５,,13,110,1520003,,,,,,,2024-06-24,1,,,,,,0
563,3011103014593,新規,0,2024-06-24,2024-06-24,トプリジャパン合同会社,,合同会社,東京都,新宿区,北新宿１丁目９番１３号,,13,104,1690074,,,,,,,2024-06-24,1,,,,,トプリジャパン,0
565,3011403004427,新規,0,2024-06-24,2024-06-24,合同会社エンター,,合同会社,東京都,板橋区,中丸町３番１－１１０６号,,13,119,1730026,,,,,,,2024-06-24,1,,,,,エンター,0
568,3011503006117,新規,0,2024-06-24,2024-06-24,合同会社光資力研究所,,合同会社,東京都,北区,西ケ原１丁目７番１号,,13,117,1140024,,,,,,,2024-06-24,1,,,,,コウシリョクケンキュウジョ,0
579,3013301052730,新規,0,2024-06-24,2024-06-24,アワーズシップ株式会社,,株式会社,東京都,豊島区,東池袋１丁目３４番５号いちご東池袋ビル６階,,13,116,1700013,,,,,,,2024-06-24,1,,,,,アワーズシップ,0
587,3020001157801,新規,0,2024-06-24,2024-06-24,株式会社Ｉ．Ｄ．Ｓ,,株式会社,神奈川県,横浜市戸塚区,鳥が丘２２番地１７,,14,110,2440001,,,,,,,2024-06-24,1,,,,,アイディーエス,0
588,3020001157826,新規,0,2024-06-24,2024-06-24,ＮＡＫＡＹＯＳＨＩ株式会社,,株式会社,神奈川県,横浜市旭区,四季美台７７番地７９,,14,112,2410025,,,,,,,2024-06-24,1,,,,,ナカヨシ,0
589,3020003026376,新規,0,2024-06-24,2024-06-24,合同会社ソレイユ,,合同会社,神奈川県,川崎市中原区,苅宿４４－１－７０４,,14,133,2110022,,,,,,,2024-06-24,1,,,,,ソレイユ,0
590,3020003026384,新規,0,2024-06-24,2024-06-24,ダイナリンク合同会社,,合同会社,神奈川県,横浜市戸塚区,名瀬町７９２番地１１藤ロイヤル４０３号,,14,110,2450051,,,,,,,2024-06-24,1,,,,,ダイナリンク,0
596,3021003014668,新規,0,2024-06-24,2024-06-24,合同会社エンジョイ商店,,合同会社,神奈川県,三浦郡葉山町,一色２１４７－２－Ａ２,,14,301,2400111,,,,,,,2024-06-24,1,,,,,エンジョイショウテン,0
601,3030001161042,新規,0,2024-06-24,2024-06-24,株式会社聡明商事,,株式会社,埼玉県,鶴ヶ島市,大字上広谷４３８番９号,,11,241,3502203,,,,,,,2024-06-24,1,,,,,ソウメイショウジ,0
602,3030001161050,新規,0,2024-06-24,2024-06-24,星光建設株式会社,,株式会社,埼玉県,川口市,上青木１丁目１９－１０,,11,203,3330844,,,,,,,2024-06-24,1,,,,,セイコウケンセツ,0
603,3030001161059,新規,0,2024-06-24,2024-06-24,株式会社Ｍ．Ｅ．Ｓ,,株式会社,埼玉県,北葛飾郡松伏町,大字上赤岩８１７番地５,,11,465,3430115,,,,,,,2024-06-24,1,,,,,エムイーエス,0
604,3030001161075,新規,0,2024-06-24,2024-06-24,株式会社ＮＥＸ　ＬＥＶＥＬ,,株式会社,埼玉県,川口市,芝富士１丁目１８番４号,,11,203,3330854,,,,,,,2024-06-24,1,,,,,ネックスレベル,0
609,3030003024544,新規,0,2024-06-24,2024-06-24,ＤＵＭＩＤＵ　ＮＩＨＯＮ合同会社,,合同会社,埼玉県,狭山市,新狭山２丁目９番地２７,,11,215,3501331,,,,,,,2024-06-24,1,,,,,ドゥミドゥニホン,0
610,3030003024569,新規,0,2024-06-24,2024-06-24,合同会社カムライ,,合同会社,埼玉県,上尾市,浅間台３丁目２４番地１３,,11,219,3620073,,,,,,,2024-06-24,1,,,,,カムライ,0
611,3030005021746,新規,0,2024-06-24,2024-06-24,国際物流協同組合,,その他の設立登記法人,埼玉県,越谷市,増森２丁目２０５番地３,,11,222,3430012,,,,,,,2024-06-24,1,,,,,,0
618,3050001054970,新規,0,2024-06-24,2024-06-24,株式会社ＳＫＹ,,株式会社,茨城県,結城市,大字鹿窪１４１６－２,,08,207,3070015,,,,,,,2024-06-24,1,,,,,スカイ,0
628,3070003005474,新規,0,2024-06-24,2024-06-24,ＴＡＩＯ　ＣＡＲＳ合同会社,,合同会社,群馬県,みどり市,東町花輪５３８番地１,,10,212,3760307,,,,,,,2024-06-24,1,,,,,タイオカーズ,0
630,3080001026356,新規,0,2024-06-24,2024-06-24,株式会社ランドベース静岡,,株式会社,静岡県,静岡市駿河区,下川原４丁目６番１５号,,22,102,4210113,,,,,,,2024-06-24,1,,,,,ランドベースシズオカ,0
636,3090001018773,新規,0,2024-06-24,2024-06-24,株式会社ＳＵＮ,,株式会社,山梨県,甲州市,塩山牛奥３７４７,,19,213,4040034,,,,,,,2024-06-24,1,,,,,サン,0
650,3120001266138,新規,0,2024-06-24,2024-06-24,ＮＵＹ国際株式会社,,株式会社,大阪府,大阪市中央区,高津２丁目３－１ライオンズマンション日本橋５０７号,,27,128,5420072,,,,,,,2024-06-24,1,,,,,ニューヤコクサイ,0
651,3120001266146,新規,0,2024-06-24,2024-06-24,株式会社コンフォートラボ,,株式会社,大阪府,大阪市北区,梅田１丁目１３番１号,,27,127,5300001,,,,,,,2024-06-24,1,,,,,コンフォートラボ,0
652,3120001266179,新規,0,2024-06-24,2024-06-24,中森株式会社,,株式会社,大阪府,大阪市西成区,長橋３丁目６番１９号,,27,122,5570025,,,,,,,2024-06-24,1,,,,,ナカモリ,0
658,3120101069837,新規,0,2024-06-24,2024-06-24,隠岐建設株式会社,,株式会社,大阪府,大阪狭山市,半田５丁目２６２２番地の１,,27,231,5890011,,,,,,,2024-06-24,1,,,,,オキケンセツ,0
670,3140003020739,新規,0,2024-06-24,2024-06-24,合同会社ＨＫ　ＰＲＯＤＵＣＴＩＯＮＳ,,合同会社,兵庫県,尼崎市,額田町５番５９号,,28,202,6610962,,,,,,,2024-06-24,1,,,,,エイチケープロダクションズ,0
671,3150001027371,新規,0,2024-06-24,2024-06-24,株式会社絆,,株式会社,奈良県,奈良市,芝辻町２丁目５番３号１０５号室,,29,201,6308114,,,,,,,2024-06-24,1,,,,,キズナ,0
675,3160001026026,新規,0,2024-06-24,2024-06-24,ＪＭＥ株式会社,,株式会社,滋賀県,大津市,末広町１１６－５２ＦＬ,,25,201,5200056,,,,,,,2024-06-24,1,,,,,,0
680,3180001162100,新規,0,2024-06-24,2024-06-24,株式会社克輝,,株式会社,愛知県,名古屋市中川区,打出２丁目３０９番地の２,,23,110,4540926,,,,,,,2024-06-24,1,,,,,カツキ,0
684,3180003026930,新規,0,2024-06-24,2024-06-24,合同会社丸善,,合同会社,愛知県,名古屋市中区,丸の内２丁目６番２７号ＬＵＸＥＮＡ丸の内７０５号,,23,106,4600002,,,,,,,2024-06-24,1,,,,,マルゼン,0
685,3180003026971,新規,0,2024-06-24,2024-06-24,合同会社さくら,,合同会社,愛知県,一宮市,開明字名古羅６番地１,,23,203,4940001,,,,,,,2024-06-24,1,,,,,サクラ,0
689,3190001031436,新規,0,2024-06-24,2024-06-24,株式会社ＨＩＲＡＮＯ　ＨＯＬＤＩＮＧＳ,,株式会社,三重県,桑名市,長島町平方１１１番地,,24,205,5111147,,,,,,,2024-06-24,1,,,,,ヒラノホールディングス,0
706,3290003015492,新規,0,2024-06-24,2024-06-24,合同会社ＬＩＮＯＨＡ,,合同会社,福岡県,朝倉市,堤１５８７番地１,,40,228,8380062,,,,,,,2024-06-24,1,,,,,リノハ,0
714,3290803004760,新規,0,2024-06-24,2024-06-24,合同会社ナガト楽器,,合同会社,福岡県,北九州市小倉北区,魚町１丁目１番１号９階,,40,106,8020006,,,,,,,2024-06-24,1,,,,,ナガトガッキ,0
716,3320001020557,新規,0,2024-06-24,2024-06-24,株式会社フクダイ運輸,,株式会社,大分県,大分市,大字中戸次５６７４番地５くすの木２１,,44,201,8797761,,,,,,,2024-06-24,1,,,,,フクダイウンユ,0
718,3340001026593,新規,0,2024-06-24,2024-06-24,株式会社西村ＺＥＮＳＨＩＮ,,株式会社,鹿児島県,鹿児島市,東谷山４丁目２４番１３号,,46,201,8910113,,,,,,,2024-06-24,1,,,,,ニシムラゼンシン,0
719,3340003004515,新規,0,2024-06-24,2024-06-24,合同会社ＮＡＨＡ,,合同会社,鹿児島県,出水市,緑町４４－３８,,46,208,8990201,,,,,,,2024-06-24,1,,,,,ナハ,0
720,3350001019027,新規,0,2024-06-24,2024-06-24,株式会社ＨＩＲＡＫＩ,,株式会社,宮崎県,宮崎市,田野町乙３１１８番地２,,45,201,8891702,,,,,,,2024-06-24,1,,,,,ヒラキ,0
725,3360003014066,新規,0,2024-06-24,2024-06-24,ティー・アボイダンス合同会社,,合同会社,沖縄県,那覇市,安謝１丁目３番５号ロイヤルフラット京屋５０２,,47,201,9000003,,,,,,,2024-06-24,1,,,,,ティーアボイダンス,0
734,3380001034626,新規,0,2024-06-24,2024-06-24,株式会社小宅左官店,,株式会社,福島県,いわき市,遠野町滝字洞坂１０６番地,,07,204,9720162,,,,,,,2024-06-24,1,,,,,オヤケサカンテン,0
737,3390001017662,新規,0,2024-06-24,2024-06-24,株式会社ｅｎｄｌｅｓｓ　ｓｋｙ,,株式会社,山形県,寒河江市,大字西根字石川西３８５番地の２２,,06,206,9910003,,,,,,,2024-06-24,1,,,,,エンドレススカイ,0
742,3430001092098,新規,0,2024-06-24,2024-06-24,株式会社珈琲開発,,株式会社,北海道,虻田郡京極町,字京極１７２番地１,,01,399,0440101,,,,,,,2024-06-24,1,,,,,コーヒーカイハツ,0
745,3430003016492,新規,0,2024-06-24,2024-06-24,合同会社ＭｏｎＲｅｐｏｓ,,合同会社,北海道,小樽市,望洋台２丁目２３－３,,01,203,0470155,,,,,,,2024-06-24,1,,,,,モンルポ,0
746,3430005015006,新規,0,2024-06-24,2024-06-24,農事組合法人孝海産業,,その他の設立登記法人,北海道,札幌市南区,澄川五条１２丁目６番２３号コート澄川Ａ１０２号,,01,106,0050005,,,,,,,2024-06-24,1,,,,,コウカイサンギョウ,0
752,3500001025711,新規,0,2024-06-24,2024-06-24,株式会社千樹,,株式会社,愛媛県,西条市,吉田１６１５番地１,,38,206,7991372,,,,,,,2024-06-24,1,,,,,センジュ,0
756,4010001245903,新規,0,2024-06-24,2024-06-24,Ｍｉｋｉ‐Ｌａｂ株式会社,,株式会社,東京都,文京区,千石４丁目１４番９号,,13,105,1120011,,,,,,,2024-06-24,1,,,,,ミキラブ,0
757,4010001245944,新規,0,2024-06-24,2024-06-24,株式会社ＣｏＮＣａ,,株式会社,東京都,千代田区,有楽町２丁目１０－１東京交通会館６Ｆ,,13,101,1000006,,,,,,,2024-06-24,1,,,,,コンカ,0
758,4010001245969,新規,0,2024-06-24,2024-06-24,セブンツールス株式会社,,株式会社,東京都,中央区,銀座１丁目１２番４号Ｎ＆ＥＢＬＤ．６Ｆ,,13,102,1040061,,,,,,,2024-06-24,1,,,,,セブンツールス,0
763,4010003044114,新規,0,2024-06-24,2024-06-24,合同会社アンタレス,,合同会社,東京都,中央区,銀座８丁目１０番５号第四秀和ビル３階,,13,102,1040061,,,,,,,2024-06-24,1,,,,,アンタレス,0
764,4010101016213,新規,0,2024-06-24,2024-06-24,株式会社ＯＣＥＡＮ　ＲＥＰＡＩＲ,,株式会社,東京都,八王子市,打越町１１５７－１６,,13,201,1920911,,,,,,,2024-06-24,1,,,,,オーシャンリペアー,0
774,4010401183158,新規,0,2024-06-24,2024-06-24,株式会社ＲＴＣ,,株式会社,東京都,港区,西麻布２丁目２４－３１－５０８,,13,103,1060031,,,,,,,2024-06-24,1,,,,,アールティーシー,0
775,4010401183265,新規,0,2024-06-24,2024-06-24,ＳｍａｒｔＢｏｏｋｓ　Ｓｅｒｖｉｃｅｓ株式会社,,株式会社,東京都,港区,赤坂４丁目８番１９号赤坂フロントタウン３階,,13,103,1070052,,,,,,,2024-06-24,1,,,,,スマートブックスサービス,0
776,4010401183307,新規,0,2024-06-24,2024-06-24,株式会社Ｓ．Ｏ．Ｗ,,株式会社,東京都,港区,高輪２丁目１１番９－５０１号,,13,103,1080074,,,,,,,2024-06-24,1,,,,,エスオーダブリュウ,0
777,4010401183348,新規,0,2024-06-24,2024-06-24,ニューブリッジ１１株式会社,,株式会社,東京都,港区,西新橋２丁目８番６号,,13,103,1050003,,,,,,,2024-06-24,1,,,,,ニューブリッジイレブン,0
778,4010403032882,新規,0,2024-06-24,2024-06-24,夕霧合同会社,,合同会社,東京都,港区,西新橋１丁目１番１号ＥＰコンサルティングサービス内,,13,103,1050003,,,,,,,2024-06-24,1,,,,,ユウギリ,0
789,4011001162849,新規,0,2024-06-24,2024-06-24,株式会社Ｄｏｕｂｌｅ　Ｅｌｅｖｅｎ,,株式会社,東京都,目黒区,八雲４丁目３－４,,13,110,1520023,,,,,,,2024-06-24,1,,,,,ダブルイレブン,0
790,4011001162873,新規,0,2024-06-24,2024-06-24,株式会社ＬＥＧＡＸＩＡ,,株式会社,東京都,渋谷区,神宮前６丁目２３番４号桑野ビル２階,,13,113,1500001,,,,,,,2024-06-24,1,,,,,レガシア,0
792,4011003019436,新規,0,2024-06-24,2024-06-24,合同会社ＥＳＲ３,,合同会社,東京都,目黒区,上目黒１丁目２３番１号中目黒アリーナ４０５号室,,13,110,1530051,,,,,,,2024-06-24,1,,,,,イーエスアールスリー,0
793,4011003019444,新規,0,2024-06-24,2024-06-24,ＮＧＤＢＥ合同会社,,合同会社,東京都,渋谷区,本町２丁目２－７レジデンス初台３０１,,13,113,1510071,,,,,,,2024-06-24,1,,,,,エヌジーディービーイー,0
796,4011101107803,新規,0,2024-06-24,2024-06-24,景悦株式会社,,株式会社,東京都,新宿区,山吹町１３０番地５ソーラ・デ・吉岡２階２０３号室,,13,104,1620801,,,,,,,2024-06-24,1,,,,,ケイエツ,0
801,4011103014576,新規,0,2024-06-24,2024-06-24,合同会社三谷設備物産,,合同会社,東京都,新宿区,住吉町６番５号,,13,104,1620065,,,,,,,2024-06-24,1,,,,,ミタニセツビブッサン,0
802,4011103014592,新規,0,2024-06-24,2024-06-24,合同会社義‐Ｇｉ,,合同会社,東京都,新宿区,西新宿３丁目３番１３号西新宿水間ビル２Ｆ,,13,104,1600023,,,,,,,2024-06-24,1,,,,,ギ,0
803,4011105011076,新規,0,2024-06-24,2024-06-24,一般社団法人ＴＵ３３,,その他の設立登記法人,東京都,新宿区,四谷２丁目９番地１５東京ユナイテッド綜合事務所内,,13,104,1600004,,,,,,,2024-06-24,1,,,,,ティーユーサンジュウサン,0
820,4020001157809,新規,0,2024-06-24,2024-06-24,株式会社ビルズホーム,,株式会社,神奈川県,川崎市多摩区,菅１丁目９－２１東和稲田堤第３ビル１０２,,14,135,2140001,,,,,,,2024-06-24,1,,,,,ビルズホーム,0
821,4020001157817,新規,0,2024-06-24,2024-06-24,株式会社ｔｏｗａｒｄｓ,,株式会社,神奈川県,川崎市高津区,末長１丁目５０番２６号エトワールＦｕｊｉ１０２,,14,134,2130013,,,,,,,2024-06-24,1,,,,,トゥワーズ,0
822,4020001157825,新規,0,2024-06-24,2024-06-24,ＨＡＮＤＳＰＡＣＥ株式会社,,株式会社,神奈川県,横浜市南区,別所２丁目１４番１－２号,,14,105,2320064,,,,,,,2024-06-24,1,,,,,ハンドスペース,0
825,4020003026375,新規,0,2024-06-24,2024-06-24,東旭合同会社,,合同会社,神奈川県,横浜市戸塚区,上矢部町１６５５番地４パルリバーサイドＩＩ１階,00135276,14,110,2450053,,,,,,,2024-06-24,1,,,,,トウキョク,0
826,4020003026383,新規,0,2024-06-24,2024-06-24,辰愛合同会社,,合同会社,神奈川県,横浜市西区,東ケ丘１１,,14,103,2200033,,,,,,,2024-06-24,1,,,,,シンアイ,0
827,4020003026400,新規,0,2024-06-24,2024-06-24,ＮＥＷ　ＬＩＦＥ合同会社,,合同会社,神奈川県,横浜市港北区,綱島東３丁目５番１０号第二カスミ荘２０２,,14,109,2230052,,,,,,,2024-06-24,1,,,,,ニューライフ,0
829,4020005016457,新規,0,2024-06-24,2024-06-24,一般社団法人こどもとそだち,,その他の設立登記法人,神奈川県,横浜市港南区,港南台１丁目１－１２レアシュロス港南台１Ｆ,,14,111,2340054,,,,,,,2024-06-24,1,,,,,コドモトソダチ,0
840,4030001161058,新規,0,2024-06-24,2024-06-24,三正食品株式会社,,株式会社,埼玉県,越谷市,東大沢３丁目３９番地１２,,11,222,3430022,,,,,,,2024-06-24,1,,,,,サンセイショクヒン,0
841,4030001161066,新規,0,2024-06-24,2024-06-24,株式会社ソラリノ,,株式会社,埼玉県,さいたま市桜区,大字塚本１６７番地２,,11,106,3380816,,,,,,,2024-06-24,1,,,,,ソラリノ,0
842,4030001161082,新規,0,2024-06-24,2024-06-24,株式会社イダズパーム,,株式会社,埼玉県,さいたま市桜区,大字白鍬５５７－９,,11,106,3380811,,,,,,,2024-06-24,1,,,,,イダズパーム,0
851,4040001044996,新規,0,2024-06-24,2024-06-24,株式会社藤田建材,,株式会社,千葉県,成田市,吉岡字来光台１１１６番地１２,,12,211,2870225,,,,,,,2024-06-24,1,,,,,,0
861,4050003008478,新規,0,2024-06-24,2024-06-24,合同会社ＩＳＵＲＵ　ＥＮＴＥＲＰＲＩＳＥＳ,,合同会社,茨城県,龍ケ崎市,緑町２５８番地エステートピア２号棟１０３号室,,08,208,3010832,,,,,,,2024-06-24,1,,,,,イスルエンタープライズ,0
866,4070001041900,新規,0,2024-06-24,2024-06-24,株式会社ＥＮＸＩＡ,,株式会社,群馬県,高崎市,中里町３６７番地１,,10,202,3703532,,,,,,,2024-06-24,1,,,,,エンシア,0
870,4080003003237,新規,0,2024-06-24,2024-06-24,合同会社ＯＫコンサルト,,合同会社,静岡県,静岡市葵区,七間町１７番地の１,,22,101,4200035,,,,,,,2024-06-24,1,,,,,オーケーコンサルト,0
884,4120001266005,新規,0,2024-06-24,2024-06-24,ＷＩＳＥＡ株式会社,,株式会社,大阪府,大阪市生野区,勝山北１丁目４－１２ワイズウェル桃谷１０２号,,27,116,5440033,,,,,,,2024-06-24,1,,,,,ワイズ,0
885,4120001266062,新規,0,2024-06-24,2024-06-24,株式会社ＴＯＭＩ,,株式会社,大阪府,大阪市中央区,船場中央２丁目２番５号船場センタービル５号館地下一階Ｂ１２９ＲＯＹＡＬＯＦＦＩＣＥ内,,27,128,5410055,,,,,,,2024-06-24,1,,,,,トミ,0
886,4120001266070,新規,0,2024-06-24,2024-06-24,ＸＯＯＸ　ＪＡＰＡＮ株式会社,,株式会社,大阪府,大阪市生野区,鶴橋２丁目６番７号野村ビル,,27,116,5440031,,,,,,,2024-06-24,1,,,,,エックスオーオーエックスジャパン,0
887,4120001266079,新規,0,2024-06-24,2024-06-24,株式会社グリーン・フロー,,株式会社,大阪府,大阪市北区,同心２丁目１１番１９－３０１号,,27,127,5300035,,,,,,,2024-06-24,1,,,,,グリーンフロー,0
888,4120001266153,新規,0,2024-06-24,2024-06-24,東方興利管理株式会社,,株式会社,大阪府,大阪市中央区,高津３丁目３番３３号１０１,,27,128,5420072,,,,,,,2024-06-24,1,,,,,トウホウコウリカンリ,0
889,4120001266194,新規,0,2024-06-24,2024-06-24,億融株式会社,,株式会社,大阪府,大阪市西成区,天下茶屋１丁目１番５－３０３号,,27,122,5570014,,,,,,,2024-06-24,1,,,,,オクユウ,0
893,4120101069828,新規,0,2024-06-24,2024-06-24,ＭＹ株式会社,,株式会社,大阪府,堺市堺区,竜神橋町２丁３番１号９１４号室,,27,141,5900972,,,,,,,2024-06-24,1,,,,,エムワイ,0
907,4140001134886,新規,0,2024-06-24,2024-06-24,株式会社ＳＮＳＫ,,株式会社,兵庫県,神戸市須磨区,戎町３丁目５番１５号７０３,,28,107,6540023,,,,,,,2024-06-24,1,,,,,エスエヌエスケー,0
910,4150001027370,新規,0,2024-06-24,2024-06-24,ジェイワプラス株式会社,,株式会社,奈良県,奈良市,三条町４７５,,29,201,6308244,,,,,,,2024-06-24,1,,,,,ジェイワプラス,0
918,4180001162033,新規,0,2024-06-24,2024-06-24,株式会社ダウザー,,株式会社,愛知県,名古屋市中川区,高杉町１０５番地の１,,23,110,4540936,,,,,,,2024-06-24,1,,,,,ダウザー,0
919,4180001162082,新規,0,2024-06-24,2024-06-24,株式会社歩ろう,,株式会社,愛知県,春日井市,高蔵寺町北４丁目１番地１５高蔵寺ファーストビル３０３号室,,23,206,4870016,,,,,,,2024-06-24,1,,,,,ホロウ,0
920,4180001162099,新規,0,2024-06-24,2024-06-24,マルエ産業株式会社,,株式会社,愛知県,知多郡武豊町,字大門田８番地１,,23,447,4702555,,,,,,,2024-06-24,1,,,,,マルエサンギョウ,0
925,4180301038767,新規,0,2024-06-24,2024-06-24,株式会社ｋｉｙｏｍａｒｉ,,株式会社,愛知県,北設楽郡東栄町,大字奈根字中在家９０,,23,562,4490215,,,,,,,2024-06-24,1,,,,,キヨマリ,0
926,4180305009582,新規,0,2024-06-24,2024-06-24,医療法人燕友会,,その他の設立登記法人,愛知県,豊田市,宮町５丁目５５番地１,,23,211,4710043,,,,,,,2024-06-24,1,,,,,エンユウカイ,0
928,4190001031435,新規,0,2024-06-24,2024-06-24,株式会社ラ・リシュテール,,株式会社,三重県,伊勢市,旭町１９３番地１,,24,203,5160045,,,,,,,2024-06-24,1,,,,,ラリシュテール,0
947,4320001020556,新規,0,2024-06-24,2024-06-24,株式会社崇建,,株式会社,大分県,大分市,新春日町２丁目２番２０号（Ｈ＆Ｂハウス２０２）,,44,201,8700818,,,,,,,2024-06-24,1,,,,,ソウケン,0
956,4360001033843,新規,0,2024-06-24,2024-06-24,株式会社Ｍｅｒａｋｉ　Ｇｒｏｕｐ,,株式会社,沖縄県,中頭郡北谷町,字桑江４６９番地１６キタヒルズ３０５,,47,326,9040103,,,,,,,2024-06-24,1,,,,,メラキグループ,0
969,4410001013856,新規,0,2024-06-24,2024-06-24,百信株式会社,,株式会社,秋田県,由利本荘市,石脇字田中１００番,,05,210,0150011,,,,,,,2024-06-24,1,,,,,ヒャクシン,0
970,4430001092048,新規,0,2024-06-24,2024-06-24,株式会社榊組,,株式会社,北海道,札幌市中央区,南六条西１７丁目２番２２－３０４号,,01,101,0640806,,,,,,,2024-06-24,1,,,,,サカキグミ,0
971,4430001092072,新規,0,2024-06-24,2024-06-24,株式会社Ｇｌａｎｚ　Ｏｎｅ’ｓ,,株式会社,北海道,札幌市北区,新琴似十条５丁目５番１８号,,01,102,0010910,,,,,,,2024-06-24,1,,,,,グランツワンズ,0
972,4430001092080,新規,0,2024-06-24,2024-06-24,株式会社クレシェンド,,株式会社,北海道,千歳市,幸町１丁目１５番地吉井川内,,01,224,0660063,,,,,,,2024-06-24,1,,,,,クレシェンド,0
973,4430001092089,新規,0,2024-06-24,2024-06-24,株式会社ＧＲＡＣＥ,,株式会社,北海道,札幌市北区,新川西二条２丁目４番３号,,01,102,0010932,,,,,,,2024-06-24,1,,,,,グレイス,0
974,4430003016483,新規,0,2024-06-24,2024-06-24,インタードレーンサービス合同会社,,合同会社,北海道,千歳市,幸福３丁目３番２号,,01,224,0660082,,,,,,,2024-06-24,1,,,,,インタードレーンサービス,0
975,4430005015005,新規,0,2024-06-24,2024-06-24,農事組合法人石丸運送,,その他の設立登記法人,北海道,札幌市南区,澄川五条１２丁目６番２３号コート澄川Ａ１０２号,,01,106,0050005,,,,,,,2024-06-24,1,,,,,イシマルウンソウ,0
978,4460001005915,新規,0,2024-06-24,2024-06-24,株式会社ヴィブラント,,株式会社,北海道,白糠郡白糠町,東二条南２丁目１番地２６,,01,668,0880302,,,,,,,2024-06-24,1,,,,,ヴィブラント,0
985,4700150126149,新規,0,2024-06-24,2024-06-24,ＹＥＨＥＮ　ＥＮＴＥＲＰＲＩＳＥＳ,,外国会社等,千葉県,山武市,横田１０５９番地５８オフィスＣ,,12,237,2891226,スリランカ民主社会主義共和国、キャンディ、アンクンブラ、ウダキトゥルゴラ、５－Ａ,,,,,,2024-06-24,1,,,,,イエヘンエンタープライズ,0
990,5010001245927,新規,0,2024-06-24,2024-06-24,株式会社Ｈｕｓｔａｒ,,株式会社,東京都,千代田区,大手町１丁目６番１号大手町ビル１Ｆ・２Ｆ,,13,101,1000004,,,,,,,2024-06-24,1,,,,,ヒュースター,0
991,5010003044113,新規,0,2024-06-24,2024-06-24,合同会社デイリーズ,,合同会社,東京都,中央区,銀座８丁目１０番５号第四秀和ビル３階,,13,102,1040061,,,,,,,2024-06-24,1,,,,,デイリーズ,0
998,5010401183207,新規,0,2024-06-24,2024-06-24,株式会社Ｊｉｚａｉ,,株式会社,東京都,港区,南青山２丁目２番１５－９４２号,,13,103,1070062,,,,,,,2024-06-24,1,,,,,ジザイ,0
999,5010401183347,新規,0,2024-06-24,2024-06-24,ニューブリッジ１０株式会社,,株式会社,東京都,港区,西新橋２丁目８番６号,,13,103,1050003,,,,,,,2024-06-24,1,,,,,ニューブリッジテン,0
1000,5010401183355,新規,0,2024-06-24,2024-06-24,株式会社ＩＮＰＥＸ　ＪＡＰＡＮ,,株式会社,東京都,港区,赤坂５丁目３番１号,,13,103,1070052,,,,,,,2024-06-24,1,,,,,インペックスジャパン,0
1008,5010701046162,新規,0,2024-06-24,2024-06-24,株式会社ＣＲＥＳＴ,,株式会社,東京都,品川区,上大崎３丁目１１番１２号,,13,109,1410021,,,,,,,2024-06-24,1,,,,,クレスト,0
1012,5010901055517,新規,0,2024-06-24,2024-06-24,ＺＡＰＯＴＥＣ株式会社,,株式会社,東京都,世田谷区,砧１丁目３３－２２,,13,112,1570073,,,,,,,2024-06-24,1,,,,,サポテク,0
1013,5010901055525,新規,0,2024-06-24,2024-06-24,株式会社バックヤードパートナーズ,,株式会社,東京都,世田谷区,北沢２丁目１１－１５ミカン下北Ａ街区４階,,13,112,1550031,,,,,,,2024-06-24,1,,,,,バックヤードパートナーズ,0
1021,5011001162864,新規,0,2024-06-24,2024-06-24,日本土地管財株式会社,,株式会社,東京都,目黒区,碑文谷５丁目２－５Ｔ＆Ａビル５Ｆ,,13,110,1520003,,,,,,,2024-06-24,1,,,,,ニホントチカンザイ,0
1022,5011001162889,新規,0,2024-06-24,2024-06-24,株式会社ＭＣＭ,,株式会社,東京都,渋谷区,代々木５丁目７番１２号,,13,113,1510053,,,,,,,2024-06-24,1,,,,,エムシーエム,0
1023,5011001162906,新規,0,2024-06-24,2024-06-24,ＧＭＯ　ＡＩ＆ロボティクス商事株式会社,,株式会社,東京都,渋谷区,桜丘町２６番１号,,13,113,1500031,,,,,,,2024-06-24,1,,,,,ジーエムオーエーアイアンドロボティクスショウジ,0
1025,5011003019435,新規,0,2024-06-24,2024-06-24,合同会社ＥＳＲ２,,合同会社,東京都,目黒区,上目黒１丁目２３番１号中目黒アリーナ４０５号室,,13,110,1530051,,,,,,,2024-06-24,1,,,,,イーエスアールツー,0
1028,5011101107645,新規,0,2024-06-24,2024-06-24,株式会社ＴＨＥ　ＭＩＮＥＲＶＡ,,株式会社,東京都,新宿区,中落合１丁目３番１８号リバーサイドマンション９０１号室,,13,104,1610032,,,,,,,2024-06-24,1,,,,,ザミネルヴァ,0
1031,5011103014575,新規,0,2024-06-24,2024-06-24,合同会社三谷設備商事,,合同会社,東京都,新宿区,住吉町６番５号,,13,104,1620065,,,,,,,2024-06-24,1,,,,,ミタニセツビショウジ,0
1032,5011105011075,新規,0,2024-06-24,2024-06-24,一般社団法人ＴＵ３２,,その他の設立登記法人,東京都,新宿区,四谷２丁目９番地１５東京ユナイテッド綜合事務所内,,13,104,1600004,,,,,,,2024-06-24,1,,,,,ティーユーサンジュウニ,0
1037,5011401026215,新規,0,2024-06-24,2024-06-24,株式会社ＭＯＮＩ,,株式会社,東京都,板橋区,西台２丁目４１番７号,,13,119,1750045,,,,,,,2024-06-24,1,,,,,モニ,0
1043,5011803006302,新規,0,2024-06-24,2024-06-24,合同会社まねぇきゃっと,,合同会社,東京都,足立区,関原２丁目３８番１８号,,13,121,1230852,,,,,,,2024-06-24,1,,,,,マネェキャット,0
1045,5012401042020,新規,0,2024-06-24,2024-06-24,Ｒ‐Ｓｔｙｌｅ株式会社,,株式会社,東京都,調布市,西つつじケ丘１丁目１３番地３ＮＳＧＡＴＥつつじヶ丘２０２,,13,208,1820006,,,,,,,2024-06-24,1,,,,,アールスタイル,0
1050,5020001157808,新規,0,2024-06-24,2024-06-24,株式会社アブダン,,株式会社,神奈川県,川崎市高津区,久末３６１番地２,,14,134,2130026,,,,,,,2024-06-24,1,,,,,アブダン,0
1051,5020001157824,新規,0,2024-06-24,2024-06-24,株式会社幸実水産,,株式会社,神奈川県,川崎市多摩区,東三田２丁目９番２－２号,,14,135,2140033,,,,,,,2024-06-24,1,,,,,コウミスイサン,0
1052,5020001157832,新規,0,2024-06-24,2024-06-24,株式会社エスブリッヂ,,株式会社,神奈川県,川崎市多摩区,宿河原１丁目９番３号,,14,135,2140021,,,,,,,2024-06-24,1,,,,,エスブリッヂ,0
1060,5020003026382,新規,0,2024-06-24,2024-06-24,合同会社Ｐｅｒｌｅ,,合同会社,神奈川県,横浜市神奈川区,金港町５－１４クアドリフォリオ８階,,14,102,2210056,,,,,,,2024-06-24,1,,,,,ペルレ,0
1062,5021001082533,新規,0,2024-06-24,2024-06-24,株式会社ＴＯＩＴＯＹ,,株式会社,神奈川県,鎌倉市,高野１２－２,,14,204,2470054,,,,,,,2024-06-24,1,,,,,トイトイ,0
1063,5021001082566,新規,0,2024-06-24,2024-06-24,株式会社Ｐｒｏｖｅ　Ｗａｙ,,株式会社,神奈川県,伊勢原市,東大竹６５４番地の２２,,14,214,2591133,,,,,,,2024-06-24,1,,,,,プルーブウェイ,0
1064,5021001082574,新規,0,2024-06-24,2024-06-24,株式会社ＳＥＮＴＨｉＬ,,株式会社,神奈川県,藤沢市,南藤沢２１番９号,,14,205,2510055,,,,,,,2024-06-24,1,,,,,センティル,0
1066,5021003014674,新規,0,2024-06-24,2024-06-24,シーグリーン合同会社,,合同会社,神奈川県,藤沢市,鵠沼松が岡１丁目２２－３,00135268,14,205,2510038,,,,,,,2024-06-24,1,,,,,シーグリーン,0
1074,5030001161032,新規,0,2024-06-24,2024-06-24,株式会社晴家ホーム,,株式会社,埼玉県,入間市,大字下藤沢１１２１番地１,,11,225,3580011,,,,,,,2024-06-24,1,,,,,ハレルヤホーム,0
1075,5030001161040,新規,0,2024-06-24,2024-06-24,株式会社Ａｇ　Ｈｏｍｅ,,株式会社,埼玉県,上尾市,上町１丁目１０番３号,,11,219,3620037,,,,,,,2024-06-24,1,,,,,エージーホーム,0
1076,5030001161049,新規,0,2024-06-24,2024-06-24,株式会社ＳＴＥＬＬＡＱＵＡ,,株式会社,埼玉県,さいたま市緑区,美園１丁目５－１プレミアムガレージ浦和美園３号室,,11,109,3360967,,,,,,,2024-06-24,1,,,,,ステラクア,0
1077,5030001161073,新規,0,2024-06-24,2024-06-24,株式会社トゥービーホーム,,株式会社,埼玉県,狭山市,大字東三ツ木１０２番地の１４,,11,215,3501302,,,,,,,2024-06-24,1,,,,,トゥービーホーム,0
1078,5030001161081,新規,0,2024-06-24,2024-06-24,Ｊ‐ＡＲＴ株式会社,,株式会社,埼玉県,越谷市,宮本町２丁目２４６－１,,11,222,3430806,,,,,,,2024-06-24,1,,,,,ジェイアート,0
1082,5030003024534,新規,0,2024-06-24,2024-06-24,合同会社Ａｌｌ　Ｐｌａｙｅｒｓ,,合同会社,埼玉県,さいたま市緑区,原山３丁目３番１０号,,11,109,3360931,,,,,,,2024-06-24,1,,,,,オールプレイヤーズ,0
1083,5030003024542,新規,0,2024-06-24,2024-06-24,ＧＴ合同会社,,合同会社,埼玉県,飯能市,本町１９番２号ＫＩＶＷｅｌｆａｒｅ会館飯能４号室,,11,209,3570032,,,,,,,2024-06-24,1,,,,,ジーティ,0
1084,5030003024550,新規,0,2024-06-24,2024-06-24,合同会社ｎｉｋａ,,合同会社,埼玉県,さいたま市岩槻区,西町１丁目７番５－９０１号,,11,110,3390067,,,,,,,2024-06-24,1,,,,,ニカ,0
1085,5030003024583,新規,0,2024-06-24,2024-06-24,ＬｏｕｉｓＬ合同会社,,合同会社,埼玉県,さいたま市中央区,大戸６丁目９番１５－２０３号,,11,105,3380012,,,,,,,2024-06-24,1,,,,,ルイエル,0
1090,5040001134094,新規,0,2024-06-24,2024-06-24,株式会社トータルケア,,株式会社,千葉県,千葉市花見川区,幕張本郷３丁目２２番７－３０２号,,12,102,2620033,,,,,,,2024-06-24,1,,,,,トータルケア,0
1091,5040001134136,新規,0,2024-06-24,2024-06-24,ＡＮＴ　ＪＡＰＡＮ株式会社,,株式会社,千葉県,習志野市,鷺沼３丁目１９番５号マウント・ヴィレッジＩＩＩ１階,00135272,12,216,2750014,,,,,,,2024-06-24,1,,,,,アントジャパン,0
1092,5040001134169,新規,0,2024-06-24,2024-06-24,ＳＡＫＵＲＡ　ＧＲＯＵＰ株式会社,,株式会社,千葉県,佐倉市,井野１８０３番地１９パークエステートＣ－２,,12,212,2850855,,,,,,,2024-06-24,1,,,,,サクラグループ,0
1095,5040003025259,新規,0,2024-06-24,2024-06-24,ＰＡＮＤＡ合同会社,,合同会社,千葉県,八千代市,八千代台東１丁目２番地１４,,12,221,2760032,,,,,,,2024-06-24,1,,,,,パンダ,0
1096,5050001054977,新規,0,2024-06-24,2024-06-24,アキバペイント株式会社,,株式会社,茨城県,常総市,岡田４０２番地７,,08,211,3002743,,,,,,,2024-06-24,1,,,,,アキバペイント,0
1097,5050003008477,新規,0,2024-06-24,2024-06-24,合同会社ＡＬＩ　ＴＲＡＤＩＮＧ,,合同会社,茨城県,古河市,尾崎３９５７番地３－２,,08,204,3060101,,,,,,,2024-06-24,1,,,,,アリトレーディング,0
1100,5070001041890,新規,0,2024-06-24,2024-06-24,ｓｔｕｄｉｏ００ｂ株式会社,,株式会社,群馬県,前橋市,下小出町３丁目１９－２－２０１,,10,201,3710031,,,,,,,2024-06-24,1,,,,,スタジオゼロゼロビー,0
1103,5080001026354,新規,0,2024-06-24,2024-06-24,株式会社日本再生システム,,株式会社,静岡県,静岡市駿河区,稲川１丁目２番１５号,,22,102,4228062,,,,,,,2024-06-24,1,,,,,ニホンサイセイシステム,0
1113,5110001038503,新規,0,2024-06-24,2024-06-24,妙高ハウス株式会社,,株式会社,新潟県,新潟市中央区,上大川前通７番町１２３０番地７,,15,103,9518068,,,,,,,2024-06-24,1,,,,,ミョウコウハウス,0
1127,5120001266136,新規,0,2024-06-24,2024-06-24,株式会社イーストエフ,,株式会社,大阪府,大阪市北区,大淀北１丁目６番２１－９１４号,,27,127,5310077,,,,,,,2024-06-24,1,,,,,イーストエフ,0
1128,5120001266144,新規,0,2024-06-24,2024-06-24,大庄株式会社,,株式会社,大阪府,大阪市東成区,東中本３丁目２０番２２号関西マンション１０８号室,,27,115,5370021,,,,,,,2024-06-24,1,,,,,ダイショウ,0
1129,5120001266152,新規,0,2024-06-24,2024-06-24,申融株式会社,,株式会社,大阪府,大阪市港区,港晴３丁目１－１１、２０２Ｂ,,27,107,5520023,,,,,,,2024-06-24,1,,,,,シンユウ,0
1131,5120003026901,新規,0,2024-06-24,2024-06-24,合同会社からだセレブ,,合同会社,大阪府,大阪市住吉区,苅田１０丁目４番１６－１５０１号,,27,120,5580011,,,,,,,2024-06-24,1,,,,,カラダセレブ,0
1134,5120101069810,新規,0,2024-06-24,2024-06-24,株式会社ＫＩＲＹＯ,,株式会社,大阪府,泉佐野市,長滝８３４番１,,27,213,5980034,,,,,,,2024-06-24,1,,,,,キリョウ,0
1135,5120101069827,新規,0,2024-06-24,2024-06-24,株式会社ｓｈｏｗｚ,,株式会社,大阪府,堺市堺区,中田出井町１丁４番２号,,27,141,5900016,,,,,,,2024-06-24,1,,,,,ショウズ,0
1136,5120101069843,新規,0,2024-06-24,2024-06-24,株式会社マルケン,,株式会社,大阪府,岸和田市,畑町４丁目３番７号,,27,202,5960831,,,,,,,2024-06-24,1,,,,,マルケン,0
1146,5130001077152,新規,0,2024-06-24,2024-06-24,万宝錘文化メディア株式会社,,株式会社,京都府,京都市中京区,蛸薬師通烏丸東入一蓮社町３００番地パームビル３階３１９号室,,26,104,6048146,,,,,,,2024-06-24,1,,,,,バンポウスイブンカメディア,0
1147,5130001077326,新規,0,2024-06-24,2024-06-24,株式会社ＹＤＫ,,株式会社,京都府,京都市南区,上鳥羽塔ノ森東向町５４５小寺運送共配倉庫２Ｆ,,26,107,6018151,,,,,,,2024-06-24,1,,,,,ワイディーケイ,0
1148,5130001077342,新規,0,2024-06-24,2024-06-24,株式会社ｎｔａ,,株式会社,京都府,京都市北区,大将軍西町８４番地,,26,101,6038331,,,,,,,2024-06-24,1,,,,,エヌティーエー,0
1153,5140001134860,新規,0,2024-06-24,2024-06-24,バード縁株式会社,,株式会社,兵庫県,加古川市,平岡町西谷２０１番地の５,,28,210,6750102,,,,,,,2024-06-24,1,,,,,バードエン,0
1155,5150001027361,新規,0,2024-06-24,2024-06-24,株式会社ＣＡＰ,,株式会社,奈良県,葛城市,當麻３７番地４,,29,211,6390276,,,,,,,2024-06-24,1,,,,,シーエーピー,0
1156,5160001026016,新規,0,2024-06-24,2024-06-24,株式会社ブリッツライド,,株式会社,滋賀県,甲賀市,水口町北泉２丁目４８番地－３０３号,,25,209,5280058,,,,,,,2024-06-24,1,,,,,ブリッツライド,0
1160,5180001162032,新規,0,2024-06-24,2024-06-24,谷豊株式会社,,株式会社,愛知県,名古屋市中村区,松重町４－５１,,23,105,4500004,,,,,,,2024-06-24,1,,,,,タニトミ,0
1163,5180301038758,新規,0,2024-06-24,2024-06-24,株式会社ＭＴ開発,,株式会社,愛知県,刈谷市,住吉町３丁目８番地コスモビル住吉２０１号,,23,210,4480852,,,,,,,2024-06-24,1,,,,,エムティカイハツ,0
1164,5180301038766,新規,0,2024-06-24,2024-06-24,株式会社Ｌａｐｉｎ,,株式会社,愛知県,西尾市,寄住町若宮３３番地ピノコート２０３号室,,23,213,4450073,,,,,,,2024-06-24,1,,,,,ラパン,0
1166,5180305009581,新規,0,2024-06-24,2024-06-24,医療法人ミラまち整形外科クリニック,,その他の設立登記法人,愛知県,豊橋市,曙町字松並１０１番地１５９,00135265,23,201,4418151,,,,,,,2024-06-24,1,,,,,ミラマチセイケイゲカクリニック,0
1187,5290003015482,新規,0,2024-06-24,2024-06-24,合同会社ＳＨＩＮＥ,,合同会社,福岡県,福岡市博多区,住吉２丁目１９番２９－７０２号,,40,132,8120018,,,,,,,2024-06-24,1,,,,,シャイン,0
1192,5320001020555,新規,0,2024-06-24,2024-06-24,ｋｕｒｉ・ｅｉｇｏ株式会社,,株式会社,大分県,大分市,中島西１丁目４番１６号アソシエビル４０１号室,,44,201,8700047,,,,,,,2024-06-24,1,,,,,クリエイゴ,0
1198,5340003004513,新規,0,2024-06-24,2024-06-24,合同会社滝丸,,合同会社,鹿児島県,曽於郡大崎町,野方６０７３番地２,,46,468,8998313,,,,,,,2024-06-24,1,,,,,タキマル,0
1204,5360001033850,新規,0,2024-06-24,2024-06-24,株式会社Ｂｉｏｔｏｐｅ　Ｈａｒｍｏｎｙ,,株式会社,沖縄県,糸満市,字与座４１２－１１７,,47,210,9010322,,,,,,,2024-06-24,1,,,,,ビオトープハーモニー,0
1227,5400001016693,新規,0,2024-06-24,2024-06-24,株式会社サンケン,,株式会社,岩手県,奥州市,水沢字田小路１３番地２,,03,215,0230803,,,,,,,2024-06-24,1,,,,,サンケン,0
1233,5430001092088,新規,0,2024-06-24,2024-06-24,株式会社Ｐｌｕｍｅｒｉａ,,株式会社,北海道,札幌市東区,北三十八条東５丁目３番２３号,,01,103,0070838,,,,,,,2024-06-24,1,,,,,プルメリア,0
1236,5430003016490,新規,0,2024-06-24,2024-06-24,合同会社ＷＬＩＧＨＴ,,合同会社,北海道,札幌市厚別区,大谷地東７丁目６番４－９０６号,,01,108,0040041,,,,,,,2024-06-24,1,,,,,ライト,0
1238,5430005015004,新規,0,2024-06-24,2024-06-24,農事組合法人高橋運送,,その他の設立登記法人,北海道,札幌市南区,澄川五条１２丁目６番２３号コート澄川Ａ１０２号,,01,106,0050005,,,,,,,2024-06-24,1,,,,,タカハシウンソウ,0
1243,5450001014346,新規,0,2024-06-24,2024-06-24,株式会社リバーツ,,株式会社,北海道,旭川市,東光七条１０丁目２番１５号,,01,204,0788347,,,,,,,2024-06-24,1,,,,,リバーツ,0
1249,5700150126148,新規,0,2024-06-24,2024-06-24,ＳＥＡ　ＧＡＴＥ　ＥＮＴＥＲＰＲＩＳＥＳ,,外国会社等,千葉県,山武市,横田１０５９番地５８オフィスＢ,,12,237,2891226,スリランカ民主社会主義共和国、キャンディ、ガルヒンナ、スクールロード、１２３－１,,,,,,2024-06-24,1,,,,,シーゲートエンタープライズ,0
1265,6010001245926,新規,0,2024-06-24,2024-06-24,Ｄｏｕｂｌｅ　ｅｇｇ株式会社,,株式会社,東京都,千代田区,九段北１丁目９番２号エクセレントビル九段１Ｆ,,13,101,1020073,,,,,,,2024-06-24,1,,,,,ダブルエッグ,0
1269,6010101016203,新規,0,2024-06-24,2024-06-24,小林地所株式会社,,株式会社,東京都,八王子市,犬目町７２０番地の２,,13,201,1930802,,,,,,,2024-06-24,1,,,,,コバヤシジショ,0
1270,6010105002273,新規,0,2024-06-24,2024-06-24,一般社団法人ゆいまーる,,その他の設立登記法人,東京都,八王子市,めじろ台３丁目１４番地６,,13,201,1930833,,,,,,,2024-06-24,1,,,,,ユイマール,0
1273,6010401183222,新規,0,2024-06-24,2024-06-24,ＹＦ　Ｆｒｅｓｈ　Ｆｕｔｕｒｅ株式会社,,株式会社,東京都,港区,赤坂２丁目１２番８号,,13,103,1070052,,,,,,,2024-06-24,1,,,,,ワイエフフレッシュフューチャー,0
1274,6010401183288,新規,0,2024-06-24,2024-06-24,ゼロリミッツ株式会社,,株式会社,東京都,港区,東新橋２丁目１０番１０号,,13,103,1050021,,,,,,,2024-06-24,1,,,,,ゼロリミッツ,0
1275,6010401183313,新規,0,2024-06-24,2024-06-24,ＳＡＭＵＲＡＩ　ＡＬＴＥＲＮＡＴＩＶＥ　ＭＡＮＡＧＥＭＥＮＴ株式会社,,株式会社,東京都,港区,赤坂２丁目１７番４６号,,13,103,1070052,,,,,,,2024-06-24,1,,,,,サムライオルタナティブマネジメント,0
1276,6010401183346,新規,0,2024-06-24,2024-06-24,ニューブリッジ９株式会社,,株式会社,東京都,港区,西新橋２丁目８番６号,,13,103,1050003,,,,,,,2024-06-24,1,,,,,ニューブリッジナイン,0
1277,6010401183354,新規,0,2024-06-24,2024-06-24,ＷＡＣエステート株式会社,,株式会社,東京都,港区,新橋３丁目９番１０－５０６号,,13,103,1050004,,,,,,,2024-06-24,1,,,,,ワックエステート,0
1278,6010403032864,新規,0,2024-06-24,2024-06-24,ＣｏｍｐａｓｓＩｎｔｌ合同会社,,合同会社,東京都,港区,南麻布１丁目２６－１０－３０５号,,13,103,1060047,,,,,,,2024-06-24,1,,,,,コンパスインターナショナル,0
1284,6010801035163,新規,0,2024-06-24,2024-06-24,河原アソシエイツ株式会社,,株式会社,東京都,大田区,北千束１丁目１７番１６号,,13,111,1450062,,,,,,,2024-06-24,1,,,,,カワハラアソシエイツ,0
1294,6011001162863,新規,0,2024-06-24,2024-06-24,株式会社Ｎｏａｒｋ,,株式会社,東京都,渋谷区,渋谷２丁目１９－１５宮益坂ビルディング６０９,,13,113,1500002,,,,,,,2024-06-24,1,,,,,ノアーク,0
1295,6011001162888,新規,0,2024-06-24,2024-06-24,株式会社ＧＩＹＹ,,株式会社,東京都,渋谷区,恵比寿１丁目２６番１３号ＳＥビル３Ｆ,,13,113,1500013,,,,,,,2024-06-24,1,,,,,ジー,0
1299,6011005010564,新規,0,2024-06-24,2024-06-24,行政書士法人サインポスト,,その他の設立登記法人,東京都,渋谷区,宇田川町２番１号渋谷ホームズ２０９号,,13,113,1500042,,,,,,,2024-06-24,1,,,,,サインポスト,0
1300,6011105011074,新規,0,2024-06-24,2024-06-24,一般社団法人ＴＵ３１,,その他の設立登記法人,東京都,新宿区,四谷２丁目９番地１５東京ユナイテッド綜合事務所内,,13,104,1600004,,,,,,,2024-06-24,1,,,,,ティーユーサンジュウイチ,0
1301,6011403004424,新規,0,2024-06-24,2024-06-24,合同会社やさしい手埼玉南,,合同会社,東京都,板橋区,幸町４４－８－４０４,,13,119,1730034,,,,,,,2024-06-24,1,,,,,ヤサイシイテサイタマミナミ,0
1304,6012703003025,新規,0,2024-06-24,2024-06-24,舞菜堂合同会社,,合同会社,東京都,東村山市,廻田町１丁目２５番地１５,,13,213,1890025,,,,,,,2024-06-24,1,,,,,マイサイドウ,0
1313,6020001157823,新規,0,2024-06-24,2024-06-24,株式会社鳶仁,,株式会社,神奈川県,横浜市磯子区,田中２丁目６番６号,,14,107,2350035,,,,,,,2024-06-24,1,,,,,,0
1314,6020001157831,新規,0,2024-06-24,2024-06-24,森＿商事株式会社,00135266,株式会社,神奈川県,横浜市神奈川区,片倉１丁目１１番７－１号,,14,102,2210865,,,,,,,2024-06-24,1,,,,,モリシンショウジ,0
1327,6030001160958,新規,0,2024-06-24,2024-06-24,株式会社スガワラ,,株式会社,埼玉県,さいたま市浦和区,岸町１丁目２番７号,,11,107,3300064,,,,,,,2024-06-24,1,,,,,スガワラ,0
1328,6030001161056,新規,0,2024-06-24,2024-06-24,株式会社ｌｅｖｅｅ,,株式会社,埼玉県,さいたま市大宮区,桜木町２丁目３番地大宮マルイ７階,,11,103,3300854,,,,,,,2024-06-24,1,,,,,レビィ,0
1329,6030001161064,新規,0,2024-06-24,2024-06-24,株式会社ＴＨＩＡＳ,,株式会社,埼玉県,八潮市,大字西袋１５５５番地１,,11,234,3400833,,,,,,,2024-06-24,1,,,,,ティアス,0
1333,6030003024558,新規,0,2024-06-24,2024-06-24,合同会社オーチャード,,合同会社,埼玉県,富士見市,大字水子５０２７番地８,,11,235,3540011,,,,,,,2024-06-24,1,,,,,オーチャード,0
1334,6030003024566,新規,0,2024-06-24,2024-06-24,合同会社ＩＢＭ　ＴＲＡＤＩＮＧ,,合同会社,埼玉県,三郷市,高州１丁目１４１番地１,,11,237,3410037,,,,,,,2024-06-24,1,,,,,アイビーエムトレーディング,0
1337,6040001134151,新規,0,2024-06-24,2024-06-24,ＲＳＧ株式会社,,株式会社,千葉県,市川市,大野町２丁目６４８番地３,,12,203,2720805,,,,,,,2024-06-24,1,,,,,アールエスジー,0
1341,6050001054968,新規,0,2024-06-24,2024-06-24,川崎モーターズ株式会社,,株式会社,茨城県,坂東市,駒跿９５５番５,,08,228,3060653,,,,,,,2024-06-24,1,,,,,カワサキモーターズ,0
1376,6120001266135,新規,0,2024-06-24,2024-06-24,株式会社Ｓｐａｒｋ,,株式会社,大阪府,大阪市北区,大淀中５丁目１４－５２アークレジデンス梅田北７０５号,,27,127,5310076,,,,,,,2024-06-24,1,,,,,スパーク,0
1377,6120001266143,新規,0,2024-06-24,2024-06-24,株式会社大信,,株式会社,大阪府,大阪市東成区,大今里南１丁目１８番７号大宝今里ロイヤルハイツ４０３号室,,27,115,5370013,,,,,,,2024-06-24,1,,,,,ダイシン,0
1378,6120001266184,新規,0,2024-06-24,2024-06-24,株式会社ＳＫ　ｇｌｏｂａｌ,,株式会社,大阪府,大阪市生野区,田島４丁目６番１９,,27,116,5440011,,,,,,,2024-06-24,1,,,,,エスケーグローバル,0
1379,6120003026900,新規,0,2024-06-24,2024-06-24,ファインエナジー合同会社,,合同会社,大阪府,大阪市中央区,北久宝寺町２丁目１番１０号,,27,128,5410057,,,,,,,2024-06-24,1,,,,,ファインエナジー,0
1380,6120003026917,新規,0,2024-06-24,2024-06-24,ＯｒｉｇａｍｉＧｏ合同会社,,合同会社,大阪府,大阪市浪速区,湊町２丁目２－１０－３４０６,,27,111,5560017,,,,,,,2024-06-24,1,,,,,オリガミゴー,0
1382,6120101069834,新規,0,2024-06-24,2024-06-24,株式会社トーカイ,,株式会社,大阪府,松原市,天美東４丁目４０３番地,,27,217,5800032,,,,,,,2024-06-24,1,,,,,トーカイ,0
1383,6120101069842,新規,0,2024-06-24,2024-06-24,株式会社シャンドラ,,株式会社,大阪府,泉北郡忠岡町,高月北１丁目９‐２０,,27,341,5950801,,,,,,,2024-06-24,1,,,,,シャンドラ,0
1385,6120901049358,新規,0,2024-06-24,2024-06-24,Ｇ’ｓ工務株式会社,,株式会社,大阪府,高槻市,辻子１丁目１６番８号,00135273,27,207,5690036,,,,,,,2024-06-24,1,,,,,ジーズコウム,0
1387,6122001020587,新規,0,2024-06-24,2024-06-24,株式会社吉田米穀,,株式会社,大阪府,八尾市,教興寺７丁目９９番地,,27,212,5810874,,,,,,,2024-06-24,1,,,,,,0
1394,6130003009656,新規,0,2024-06-24,2024-06-24,パラマウント・グローバル・トレーディング合同会社,,合同会社,京都府,南丹市,美山町下平屋谷口１９番地２階Ｂ室,,26,213,6010732,,,,,,,2024-06-24,1,,,,,パラマウントグローバルトレーディング,0
1406,6140001134884,新規,0,2024-06-24,2024-06-24,株式会社作り手,,株式会社,兵庫県,尼崎市,大庄北１丁目２０番３３号,,28,202,6600063,,,,,,,2024-06-24,1,,,,,ツクリテ,0
1417,6180001162072,新規,0,2024-06-24,2024-06-24,ＴＡＮＶＥＥＲ　ＺＵＬＦＩＱＡＲ株式会社,,株式会社,愛知県,名古屋市港区,新茶屋３丁目８０１番地,,23,111,4550863,,,,,,,2024-06-24,1,,,,,タンナビールズルフカー,0
1418,6180001162089,新規,0,2024-06-24,2024-06-24,クリエイタスワークス株式会社,,株式会社,愛知県,名古屋市名東区,梅森坂３丁目３７３６番地,,23,115,4650065,,,,,,,2024-06-24,1,,,,,クリエイタスワークス,0
1419,6180001162097,新規,0,2024-06-24,2024-06-24,株式会社ＧＬＡＤワークス,,株式会社,愛知県,名古屋市緑区,小坂２丁目１００５番地の２,,23,114,4580022,,,,,,,2024-06-24,1,,,,,グラッドワークス,0
1421,6180005020672,新規,0,2024-06-24,2024-06-24,一般社団法人リョウリツ,,その他の設立登記法人,愛知県,名古屋市熱田区,花表町１２番１２号,,23,109,4560033,,,,,,,2024-06-24,1,,,,,リョウリツ,0
1423,6180301038765,新規,0,2024-06-24,2024-06-24,株式会社琉久,,株式会社,愛知県,豊橋市,大脇町字大脇ノ谷７４番地３１７,,23,201,4413102,,,,,,,2024-06-24,1,,,,,リュウキュウ,0
1428,6210003001803,新規,0,2024-06-24,2024-06-24,Ａｌｌ　Ｉｎ合同会社,,合同会社,福井県,吉田郡永平寺町,松岡学園５０６番地,,18,322,9101102,,,,,,,2024-06-24,1,,,,,オールイン,0
1431,6230001020407,新規,0,2024-06-24,2024-06-24,株式会社柿澤設備,,株式会社,富山県,滑川市,田中新町７６番地１,,16,206,9360056,,,,,,,2024-06-24,1,,,,,カキザワセツビ,0
1434,6240003006733,新規,0,2024-06-24,2024-06-24,Ａｂｉｌｉｔｙ合同会社,,合同会社,広島県,広島市佐伯区,楽々園３丁目１５番１９号,,34,108,7315136,,,,,,,2024-06-24,1,,,,,アビリティ,0
1461,6360003014096,新規,0,2024-06-24,2024-06-24,合同会社さくら,,合同会社,沖縄県,国頭郡恩納村,字恩納３４７３番地１サンフラワー１０２号室,,47,311,9040411,,,,,,,2024-06-24,1,,,,,サクラ,0
1481,6430001092079,新規,0,2024-06-24,2024-06-24,株式会社ＭＴ．ｂｒｅｅｚｅ,,株式会社,北海道,千歳市,みどり台南３丁目５番４号,,01,224,0660084,,,,,,,2024-06-24,1,,,,,エムティーブリーズ,0
1485,6470001020259,新規,0,2024-06-24,2024-06-24,株式会社こばや,,株式会社,香川県,三豊市,仁尾町仁尾乙１８２番地６,,37,208,7691404,,,,,,,2024-06-24,1,,,,,コバヤ,0
1486,6470003002668,新規,0,2024-06-24,2024-06-24,合同会社翔栄ＬＣＴ,,合同会社,香川県,高松市,天神前１０番５号高松セントラルスカイビルディング３Ｆｓｏｕｔｈ,,37,201,7600018,,,,,,,2024-06-24,1,,,,,ショウエイエルシーティー,0
1487,6500001025709,新規,0,2024-06-24,2024-06-24,株式会社愛媛オレンジサンダース,,株式会社,愛媛県,今治市,北日吉町１丁目２番１３号,,38,202,7940054,,,,,,,2024-06-24,1,,,,,エヒメオレンジサンダース,0
1489,6700150126147,新規,0,2024-06-24,2024-06-24,ＫＡＮＤＹ　ＥＮＴＥＲＰＲＩＳＥＳ,,外国会社等,千葉県,山武市,横田１０５９番地５８オフィスＤ,,12,237,2891226,スリランカ民主社会主義共和国、キャンディ、ガルヒンナ、モスクロード、１２９,,,,,,2024-06-24,1,,,,,キヤンデイエンタープライズ,0
1496,7010001245917,新規,0,2024-06-24,2024-06-24,加藤総合コンサルティング株式会社,,株式会社,東京都,千代田区,鍛冶町１丁目１０番６号,,13,101,1010044,,,,,,,2024-06-24,1,,,,,カトウソウゴウコンサルティング,0
1497,7010001245925,新規,0,2024-06-24,2024-06-24,株式会社テクネスタ,,株式会社,東京都,千代田区,神田和泉町１番地６－１６ヤマトビル４０５号,,13,101,1010024,,,,,,,2024-06-24,1,,,,,テクネスタ,0
1500,7010005038409,新規,0,2024-06-24,2024-06-24,一般社団法人集まろうよ,,その他の設立登記法人,東京都,中央区,銀座１丁目１２－４Ｎ＆Ｅ．ＢＬＤ．７階,,13,102,1040061,,,,,,,2024-06-24,1,,,,,アツマロウヨ,0
1501,7010105002272,新規,0,2024-06-24,2024-06-24,特定非営利活動法人ふくろう,,その他の設立登記法人,東京都,八王子市,清川町５番地４,,13,201,1930804,,,,,,,2024-06-24,1,,,,,フクロウ,0
1507,7010401183320,新規,0,2024-06-24,2024-06-24,アクセラ株式会社,,株式会社,東京都,港区,北青山１丁目３番１号アールキューブ青山３階,,13,103,1070061,,,,,,,2024-06-24,1,,,,,アクセラ,0
1509,7010403032871,新規,0,2024-06-24,2024-06-24,枚方南合同会社,,合同会社,東京都,港区,元赤坂１丁目１番８号株式会社赤坂国際会計内,,13,103,1070051,,,,,,,2024-06-24,1,,,,,ヒラカタミナミ,0
1514,7010801035162,新規,0,2024-06-24,2024-06-24,株式会社ＯＰＴＩＪＯＹ,,株式会社,東京都,大田区,大森西６丁目１１番１７号,,13,111,1430015,,,,,,,2024-06-24,1,,,,,オプティジョイ,0
1522,7011001162656,新規,0,2024-06-24,2024-06-24,日新建設株式会社,,株式会社,東京都,渋谷区,道玄坂２丁目１０番７号,,13,113,1500043,,,,,,,2024-06-24,1,,,,,ニッシンケンセツ,0
1523,7011001162739,新規,0,2024-06-24,2024-06-24,ＨｉｓｔｏｒｉｚｅＧｒｏｕｐ株式会社,,株式会社,東京都,目黒区,東山３丁目２３番１号,,13,110,1530043,,,,,,,2024-06-24,1,,,,,ヒストライズグループ,0
1524,7011001162763,新規,0,2024-06-24,2024-06-24,株式会社ＨＲｉｉｎｇ,,株式会社,東京都,渋谷区,恵比寿４丁目２０番３号恵比寿ガーデンプレイスタワー１９階,,13,113,1500013,,,,,,,2024-06-24,1,,,,,エイチリング,0
1525,7011003019409,新規,0,2024-06-24,2024-06-24,合同会社Ｃｏｒｅ　ｆｌｏｗ,,合同会社,東京都,目黒区,青葉台１丁目１４番４号ＣｏｎｔｒａｌｎａｋａｍｅｇｕｒｏＷＬ－０８,,13,110,1530042,,,,,,,2024-06-24,1,,,,,コアフロー,0
1526,7011003019441,新規,0,2024-06-24,2024-06-24,合同会社ＰＥＡＣＥ　Ｋ,,合同会社,東京都,渋谷区,道玄坂１丁目１６－６二葉ビル８ｂ,,13,113,1500043,,,,,,,2024-06-24,1,,,,,ピースケー,0
1527,7011003019466,新規,0,2024-06-24,2024-06-24,合同会社ＩｍＴｈｒｅａｄ,,合同会社,東京都,渋谷区,神泉町１０番１５号アネックス神泉３０１,,13,113,1500045,,,,,,,2024-06-24,1,,,,,イムスレッド,0
1528,7011005010547,新規,0,2024-06-24,2024-06-24,一般社団法人エンタープライズＩＴ協会,,その他の設立登記法人,東京都,渋谷区,本町５丁目５番４号,,13,113,1510071,,,,,,,2024-06-24,1,,,,,,0
1533,7011101107825,新規,0,2024-06-24,2024-06-24,株式会社グラムグライド,,株式会社,東京都,新宿区,新宿１丁目１番１４号第一山田ビル２階,,13,104,1600022,,,,,,,2024-06-24,1,,,,,グラムグライド,0
1536,7011105011065,新規,0,2024-06-24,2024-06-24,特定非営利活動法人ヴォイス,,その他の設立登記法人,東京都,新宿区,矢来町４５番地シティハウス神楽坂１０６,,13,104,1620805,,,,,,,2024-06-24,1,,,,,ヴォイス,0
1537,7011105011073,新規,0,2024-06-24,2024-06-24,一般社団法人モーニンググローリー,,その他の設立登記法人,東京都,新宿区,四谷２丁目９番地１５東京ユナイテッド綜合事務所内,,13,104,1600004,,,,,,,2024-06-24,1,,,,,モーニンググローリー,0
1540,7011301029786,新規,0,2024-06-24,2024-06-24,株式会社ヒトメボレ,,株式会社,東京都,杉並区,高円寺北１丁目５番６号,,13,115,1660002,,,,,,,2024-06-24,1,,,,,ヒトメボレ,0
1541,7011303005216,新規,0,2024-06-24,2024-06-24,合同会社ＦＮＫ,,合同会社,東京都,杉並区,西荻南２丁目２９番１２号トノブール西荻２１３,,13,115,1670053,,,,,,,2024-06-24,1,,,,,,0
1543,7011403004431,新規,0,2024-06-24,2024-06-24,合同会社エミフル,,合同会社,東京都,板橋区,熊野町３２番５号,,13,119,1730025,,,,,,,2024-06-24,1,,,,,エミフル,0
1545,7011503006121,新規,0,2024-06-24,2024-06-24,Ｙｕｋａｗａ　Ａｄｖｉｓｏｒｙ合同会社,,合同会社,東京都,北区,王子５丁目１－１－６１７,,13,117,1140002,,,,,,,2024-06-24,1,,,,,ユカワアドバイザリー,0
1558,7012803003436,新規,0,2024-06-24,2024-06-24,合同会社オノ,,合同会社,東京都,武蔵村山市,中藤３丁目１番地の４,,13,223,2080001,,,,,,,2024-06-24,1,,,,,オノ,0
1560,7013301052710,新規,0,2024-06-24,2024-06-24,株式会社ＹＳＣ,,株式会社,東京都,豊島区,南大塚２丁目１１番１０号ミモザビル３Ｆ,,13,116,1700005,,,,,,,2024-06-24,1,,,,,ヤサシイ,0
1565,7020001157822,新規,0,2024-06-24,2024-06-24,リルレアーレ株式会社,,株式会社,神奈川県,横浜市都筑区,佐江戸町１４５,,14,118,2240054,,,,,,,2024-06-24,1,,,,,リルレアーレ,0
1566,7020001157839,新規,0,2024-06-24,2024-06-24,ＴＳＰアセットマネジメント株式会社,,株式会社,神奈川県,川崎市中原区,小杉町３丁目６００番地コスギサードアヴェニュー１２１１,,14,133,2110063,,,,,,,2024-06-24,1,,,,,ティーエスピーアセットマネジメント,0
1569,7020003026380,新規,0,2024-06-24,2024-06-24,合同会社ＣＯＢＡ,,合同会社,神奈川県,横浜市旭区,白根５丁目４８番１９号,,14,112,2410005,,,,,,,2024-06-24,1,,,,,コバ,0
1572,7021001082572,新規,0,2024-06-24,2024-06-24,株式会社ｎｏｏｋｓ,,株式会社,神奈川県,鎌倉市,材木座５丁目１１－８,,14,204,2480013,,,,,,,2024-06-24,1,,,,,ヌックス,0
1575,7021003014672,新規,0,2024-06-24,2024-06-24,グリュック・クリュークスト合同会社,,合同会社,神奈川県,大和市,草柳２丁目８番地５,,14,213,2420026,,,,,,,2024-06-24,1,,,,,グリュッククリュークスト,0
1581,7030001161022,新規,0,2024-06-24,2024-06-24,ＷＯＲＳＨＩＰ株式会社,,株式会社,埼玉県,戸田市,喜沢１丁目２４番地の１９,,11,224,3350013,,,,,,,2024-06-24,1,,,,,ワーシップ,0
1582,7030001161030,新規,0,2024-06-24,2024-06-24,徳泰生命科学株式会社,,株式会社,埼玉県,川口市,西川口１丁目３０番２０号４Ｆ,,11,203,3320021,,,,,,,2024-06-24,1,,,,,トクヤスセイメイカガク,0
1583,7030001161039,新規,0,2024-06-24,2024-06-24,株式会社わくわくラビット,,株式会社,埼玉県,八潮市,大字八條２８０７番地６－１Ｆ,,11,234,3400801,,,,,,,2024-06-24,1,,,,,ワクワクラビット,0
1584,7030001161071,新規,0,2024-06-24,2024-06-24,株式会社億祥,,株式会社,埼玉県,草加市,谷塚１丁目１８番２３号,,11,221,3400028,,,,,,,2024-06-24,1,,,,,オクショウ,0
1588,7030003024549,新規,0,2024-06-24,2024-06-24,合同会社Ｈａｒｅｍａ,,合同会社,埼玉県,さいたま市中央区,上落合９丁目１１番２５－３０３号,,11,105,3380001,,,,,,,2024-06-24,1,,,,,ハレマ,0
1589,7030003024565,新規,0,2024-06-24,2024-06-24,ＹＳＫコンサルティング合同会社,,合同会社,埼玉県,坂戸市,鶴舞４丁目１９番６号,,11,239,3500241,,,,,,,2024-06-24,1,,,,,ワイエスケイコンサルティング,0
1596,7040001134142,新規,0,2024-06-24,2024-06-24,日昇コーポレーションアドバンス株式会社,,株式会社,千葉県,柏市,西山２丁目６番１４号,,12,217,2770063,,,,,,,2024-06-24,1,,,,,ニッショウコーポレーションアドバンス,0
1597,7040001134175,新規,0,2024-06-24,2024-06-24,株式会社Ｋ‐ＰＬＵＳ,,株式会社,千葉県,市川市,末広１丁目１３番１０号,,12,203,2720121,,,,,,,2024-06-24,1,,,,,ケイプラス,0
1602,7040003025257,新規,0,2024-06-24,2024-06-24,合同会社ゆうあいＭＥＤ,,合同会社,千葉県,千葉市美浜区,稲毛海岸５丁目２１番１－７１２号,,12,106,2610005,,,,,,,2024-06-24,1,,,,,ユウアイメド,0
1611,7050001054934,新規,0,2024-06-24,2024-06-24,株式会社サイバーメディック,,株式会社,茨城県,つくば市,吾妻１丁目５－７ダイワロイネットホテルつくばビル２Ｆ,,08,220,3050031,,,,,,,2024-06-24,1,,,,,サイバーメディック,0
1617,7080003003234,新規,0,2024-06-24,2024-06-24,合同会社ｓｔｏｎｅ　ｕｐ,,合同会社,静岡県,静岡市駿河区,中原８３４－２プレラヴィル中原Ｂ１０１,,22,102,4228058,,,,,,,2024-06-24,1,,,,,,0
1618,7080101024834,新規,0,2024-06-24,2024-06-24,市川木工所株式会社,,株式会社,静岡県,富士市,大淵２５１１番地の３,,22,210,4170801,,,,,,,2024-06-24,1,,,,,イチカワモッコウジョ,0
1620,7090001018778,新規,0,2024-06-24,2024-06-24,株式会社Ｍｙｕ,,株式会社,山梨県,甲府市,国母７丁目１番２６号ｍｍビル１Ｆ,,19,201,4000043,,,,,,,2024-06-24,1,,,,,ミュー,0
1621,7090001018786,新規,0,2024-06-24,2024-06-24,株式会社緑風,,株式会社,山梨県,甲府市,上阿原町３１０番地２,,19,201,4000814,,,,,,,2024-06-24,1,,,,,リョクフウ,0
1625,7100003007620,新規,0,2024-06-24,2024-06-24,合同会社Ｙコンサルティング,,合同会社,長野県,長野市,中条２３６４番地４,,20,201,3813203,,,,,,,2024-06-24,1,,,,,ワイコンサルティング,0
1635,7120001265945,新規,0,2024-06-24,2024-06-24,宇和株式会社,,株式会社,大阪府,大阪市東淀川区,東中島２丁目８番６－６０５号,,27,114,5330033,,,,,,,2024-06-24,1,,,,,ウワ,0
1636,7120001266084,新規,0,2024-06-24,2024-06-24,株式会社つなぐ,,株式会社,大阪府,大阪市福島区,福島７丁目５番１９号エトワール宮本５０１号,,27,103,5530003,,,,,,,2024-06-24,1,,,,,ツナグ,0
1637,7120001266142,新規,0,2024-06-24,2024-06-24,株式会社リュウショウ,,株式会社,大阪府,大阪市平野区,喜連４丁目１３番１１号２ＦＡ号室,,27,126,5470027,,,,,,,2024-06-24,1,,,,,リュウショウ,0
1638,7120001266175,新規,0,2024-06-24,2024-06-24,楽魚株式会社,,株式会社,大阪府,大阪市中央区,島之内２丁目１番８号,,27,128,5420082,,,,,,,2024-06-24,1,,,,,ラクギョ,0
1639,7120001266183,新規,0,2024-06-24,2024-06-24,株式会社ＨＩＭＡＬＡＹＡＮ,,株式会社,大阪府,大阪市生野区,桃谷２丁目２４番３０,,27,116,5440034,,,,,,,2024-06-24,1,,,,,ヒマラヤン,0
1641,7120003026908,新規,0,2024-06-24,2024-06-24,昌和合同会社,,合同会社,大阪府,大阪市北区,堂山町１番５号三共梅田ビル６階センターオフィス,,27,127,5300027,,,,,,,2024-06-24,1,,,,,ショウワ,0
1643,7120101069833,新規,0,2024-06-24,2024-06-24,株式会社Ｂｌｏｏｍ　ｌｉｆｅ,,株式会社,大阪府,堺市堺区,神南辺町１丁１８番地３,,27,141,5900984,,,,,,,2024-06-24,1,,,,,ブルームライフ,0
1654,7140001134859,新規,0,2024-06-24,2024-06-24,武林株式会社,,株式会社,兵庫県,尼崎市,杭瀬北新町３丁目４番３３号,,28,202,6600815,,,,,,,2024-06-24,1,,,,,ブリン,0
1655,7140001134867,新規,0,2024-06-24,2024-06-24,株式会社サンフィールド,,株式会社,兵庫県,尼崎市,武庫元町２丁目１６番１３－２０６号,,28,202,6610043,,,,,,,2024-06-24,1,,,,,サンフィールド,0
1662,7150003003292,新規,0,2024-06-24,2024-06-24,合同会社Ｓｔｒａｗｂｅｒｒｙ,,合同会社,奈良県,奈良市,六条西３丁目２２番１５－Ｂ１０２号,,29,201,6308044,,,,,,,2024-06-24,1,,,,,ストロベリー,0
1670,7180003026968,新規,0,2024-06-24,2024-06-24,ＶＰＳ合同会社,,合同会社,愛知県,春日井市,八光町４丁目４３,,23,206,4860916,,,,,,,2024-06-24,1,,,,,ブイピーエス,0
1671,7180003026976,新規,0,2024-06-24,2024-06-24,合同会社ファイブ,,合同会社,愛知県,名古屋市千種区,今池１丁目２９番１号今池常盤ビル２階,,23,101,4640850,,,,,,,2024-06-24,1,,,,,ファイブ,0
1672,7180005020671,新規,0,2024-06-24,2024-06-24,医療法人慧悠会,,その他の設立登記法人,愛知県,名古屋市北区,会所町２２６番地,,23,103,4620061,,,,,,,2024-06-24,1,,,,,ケイユウカイ,0
1677,7180303006158,新規,0,2024-06-24,2024-06-24,合同会社ふくろう経営デザイン室,,合同会社,愛知県,西尾市,城崎町２丁目２５番地,,23,213,4450065,,,,,,,2024-06-24,1,,,,,フクロウケイエイデザインシツ,0
1684,7210003001802,新規,0,2024-06-24,2024-06-24,Ｒｅｌｉａｂｌｅ合同会社,,合同会社,福井県,越前市,大虫町第２４号１０番地の２,,18,209,9150885,,,,,,,2024-06-24,1,,,,,リライアブル,0
1687,7230001020406,新規,0,2024-06-24,2024-06-24,株式会社ＳＨＩＮＲＡＩ,,株式会社,富山県,高岡市,常国６３０番地１,,16,202,9391251,,,,,,,2024-06-24,1,,,,,シンライ,0
1705,7320001003970,新規,0,2024-06-24,2024-06-24,株式会社木村組,,株式会社,大分県,大分市,大字佐賀関１３８０番地の２,,44,201,8792201,,,,,,,2024-06-24,1,,,,,,0
1706,7330001032192,新規,0,2024-06-24,2024-06-24,株式会社協栄工業,,株式会社,熊本県,熊本市南区,城南町隈庄７６９番地１,,43,104,8614203,,,,,,,2024-06-24,1,,,,,キョウエイコウギョウ,0
1715,7390005009074,新規,0,2024-06-24,2024-06-24,特定非営利活動法人ｃｏｃｏｔｏｍｏ,,その他の設立登記法人,山形県,山形市,馬見ケ崎３丁目２－３３－１０５号,,06,201,9900810,,,,,,,2024-06-24,1,,,,,ココトモ,0
1716,7400001016683,新規,0,2024-06-24,2024-06-24,株式会社なかこや,,株式会社,岩手県,北上市,更木２２地割６９番地３,,03,206,0240103,,,,,,,2024-06-24,1,,,,,ナカコヤ,0
1723,7430001092094,新規,0,2024-06-24,2024-06-24,ヤマタニホールディングス株式会社,,株式会社,北海道,札幌市白石区,米里二条３丁目３番６０号,,01,104,0030872,,,,,,,2024-06-24,1,,,,,ヤマタニホールディングス,0
1725,7430003016489,新規,0,2024-06-24,2024-06-24,合同会社旅ピリカ,,合同会社,北海道,札幌市厚別区,厚別中央一条７丁目１５番１－１０５号,,01,108,0040051,,,,,,,2024-06-24,1,,,,,タビピリカ,0
1726,7430005015010,新規,0,2024-06-24,2024-06-24,一般社団法人虎杖浜鉄北地区温泉保護利用協会,,その他の設立登記法人,北海道,白老郡白老町,字虎杖浜４２０番地２３０,,01,578,0590641,,,,,,,2024-06-24,1,,,,,コジョウハマテツホクチクオンセンホゴリヨウキョウカイ,0
1736,7700150123011,新規,0,2024-06-24,2024-06-24,Ｔｈｅ　Ｕｒｂａｎ　Ｌａｎｄ　Ｉｎｓｔｉｔｕｔｅ,,外国会社等,,,,,,,,２００１　Ｌ　ＳＴＲＥＥＴ，ＮＷ，ＳＵＩＴＥ　２００　ＷＡＳＨＩＮＧＴＯＮ　ＤＣ　２００３６－４９４８,,,,,,2024-06-24,1,,,,,ザアーバンランドインスティテュート,0
1737,7700150126146,新規,0,2024-06-24,2024-06-24,ＨＯＮＧ　ＫＯＮＧ　ＬＥＩＷＥＮＦＡＮＧ　ＴＥＣＨＮＯＬＯＧＹ　ＣＯ．，ＬＩＭＩＴＥＤ,,外国会社等,,,,,,,,ＮＯ　Ｇ８８　Ｇ／Ｆ　ＭＡＮ　ＦＵＮＧ　ＢＬＤＧ　ＮＯＳ１１－１５　ＦＵＮＧ　ＫＷＡＮ　ＳＴ　ＹＵＥＮ　ＬＯＮＧ　ＨＯＮＧ　ＫＯＮＧ,,,,,,2024-06-24,1,,,,,シャンガンレイウェンファンコージーヨウシエンゴンスー,0
1745,8010001245899,新規,0,2024-06-24,2024-06-24,株式会社ＮＩＴＩ　Ｔｅｃｈｎｏｌｏｇｙ,,株式会社,東京都,文京区,本郷６丁目２５番１４号,,13,105,1130033,,,,,,,2024-06-24,1,,,,,ニチテクノロジー,0
1746,8010001245998,新規,0,2024-06-24,2024-06-24,株式会社英門舎,,株式会社,東京都,千代田区,麹町５丁目３番６号第７秋山ビルディング４階,,13,101,1020083,,,,,,,2024-06-24,1,,,,,エイモンシャ,0
1748,8010005038432,新規,0,2024-06-24,2024-06-24,一般財団法人Ｉｎｔｅｒｎａｔｉｏｎａｌ　Ｎｏｎ‐ｇｏｖｅｒｎｍｅｎｔａｌ　Ｏｒｇａｎｉｚａｔｉｏｎ　ＰＥＡＣＥ．,,その他の設立登記法人,東京都,千代田区,丸の内１丁目８－３丸の内トラストタワー本館２０階,,13,101,1000005,,,,,,,2024-06-24,1,,,,,インターナショナルノンガバメンタルオーガニゼーションピース,0
1758,8010401183286,新規,0,2024-06-24,2024-06-24,ＦＬＯＷ　ＪＡＰＡＮ株式会社,,株式会社,東京都,港区,麻布十番３丁目１０番１２号シティ麻布２階,,13,103,1060045,,,,,,,2024-06-24,1,,,,,フロージャパン,0
1759,8010401183303,新規,0,2024-06-24,2024-06-24,株式会社プライム,,株式会社,東京都,港区,六本木７丁目１５番１３号－１Ｆ,,13,103,1060032,,,,,,,2024-06-24,1,,,,,プライム,0
1761,8010403032854,新規,0,2024-06-24,2024-06-24,Ｖｉｓｉｏｎ　Ｃｏｎｎｅｃｔ合同会社,,合同会社,東京都,港区,高輪１丁目２３番２６－４０３号,,13,103,1080074,,,,,,,2024-06-24,1,,,,,ヴィジョンコネクト,0
1762,8010501052498,新規,0,2024-06-24,2024-06-24,株式会社都市創造研究所,,株式会社,東京都,台東区,北上野２丁目１４－９野崎ビル３０３号,,13,106,1100014,,,,,,,2024-06-24,1,,,,,トシソウゾウケンキュウジョ,0
1767,8010901055522,新規,0,2024-06-24,2024-06-24,株式会社丸中,,株式会社,東京都,世田谷区,奥沢１丁目５番３－６０１号,,13,112,1580083,,,,,,,2024-06-24,1,,,,,マルナカ,0
1768,8010903009146,新規,0,2024-06-24,2024-06-24,ＪＥＴ　ＳＥＴ　ｃｏｎｓｕｌｔｉｎｇ合同会社,,合同会社,東京都,世田谷区,船橋１丁目９番９―１０５号,,13,112,1560055,,,,,,,2024-06-24,1,,,,,ジェットセットコンサルティング,0
1776,8011001162721,新規,0,2024-06-24,2024-06-24,株式会社ＳＵＬＵＮ,,株式会社,東京都,渋谷区,恵比寿西２丁目４番８号ウィンド恵比寿ビル８Ｆ,,13,113,1500021,,,,,,,2024-06-24,1,,,,,スルン,0
1777,8011001162754,新規,0,2024-06-24,2024-06-24,株式会社ＭＡＲＯ,,株式会社,東京都,渋谷区,千駄ヶ谷４丁目６番８－１１１９号,,13,113,1510051,,,,,,,2024-06-24,1,,,,,マロ,0
1778,8011001162886,新規,0,2024-06-24,2024-06-24,株式会社Ｃｏｘｉｎ,,株式会社,東京都,渋谷区,桜丘町１８－４二宮ビル１Ｆ－６１,,13,113,1500031,,,,,,,2024-06-24,1,,,,,コクシン,0
1779,8011001162944,新規,0,2024-06-24,2024-06-24,ＫｉｎｄｉｅＰｌｕｓ株式会社,,株式会社,東京都,渋谷区,円山町５番５号Ｎａｖｉ渋谷Ｖ３階,,13,113,1500044,,,,,,,2024-06-24,1,,,,,,0
1783,8011003019432,新規,0,2024-06-24,2024-06-24,ヒノマルベース合同会社,,合同会社,東京都,渋谷区,道玄坂１丁目１６番６号二葉ビル８Ｂ,,13,113,1500043,,,,,,,2024-06-24,1,,,,,ヒノマルベース,0
1784,8011003019440,新規,0,2024-06-24,2024-06-24,ファイナンス資産管理合同会社,,合同会社,東京都,目黒区,駒場２丁目９番１４号リムテラス駒場１０４,,13,110,1530041,,,,,,,2024-06-24,1,,,,,ファイナンスシサンカンリ,0
1785,8011003019465,新規,0,2024-06-24,2024-06-24,パーフェクト・マッチング合同会社,,合同会社,東京都,渋谷区,渋谷区渋谷２‐１９‐１５宮益坂ビルディング６０９,,13,113,1500000,,,,,,,2024-06-24,1,,,,,パーフェクトマッチング,0
1790,8011101107832,新規,0,2024-06-24,2024-06-24,株式会社Ｎ．Ｕ．Ｓ,,株式会社,東京都,新宿区,高田馬場３丁目１番５号,,13,104,1690075,,,,,,,2024-06-24,1,,,,,エヌユーエス,0
1795,8011403004422,新規,0,2024-06-24,2024-06-24,合同会社りこう,,合同会社,東京都,板橋区,中板橋１０番１１号ステイタスヒル緒方３０１,,13,119,1730016,,,,,,,2024-06-24,1,,,,,リコウ,0
1798,8011601027844,新規,0,2024-06-24,2024-06-24,株式会社Ｋｎａｇカンパニー,,株式会社,東京都,練馬区,関町東１丁目１番７号,,13,120,1770052,,,,,,,2024-06-24,1,,,,,ナッグカンパニー,0
1803,8012701018320,新規,0,2024-06-24,2024-06-24,株式会社ｍｉｎｏｍｏ,,株式会社,東京都,東久留米市,浅間町２丁目２５番１１号,,13,222,2030012,,,,,,,2024-06-24,1,,,,,ミノモ,0
1804,8013103001352,新規,0,2024-06-24,2024-06-24,合同会社もるけあ,,合同会社,東京都,あきる野市,小中野２８３番地,,13,228,1900165,,,,,,,2024-06-24,1,,,,,,0
1810,8020001157805,新規,0,2024-06-24,2024-06-24,株式会社ＬＡＫＡＮＮＡ,,株式会社,神奈川県,川崎市麻生区,はるひ野４丁目４番６号,,14,137,2150036,,,,,,,2024-06-24,1,,,,,ラカンナ,0
1811,8020001157813,新規,0,2024-06-24,2024-06-24,株式会社やなさたファーマシー,,株式会社,神奈川県,川崎市中原区,中丸子３２７番地５イーグリッド２０２,,14,133,2110012,,,,,,,2024-06-24,1,,,,,ヤナサタファーマシー,0
1812,8020001157821,新規,0,2024-06-24,2024-06-24,株式会社ｚｅａｌ　ｍａｋｅｒ,,株式会社,神奈川県,横浜市保土ケ谷区,仏向西２２番２－５０９号,,14,106,2400046,,,,,,,2024-06-24,1,,,,,ジールメーカー,0
1821,8030001161038,新規,0,2024-06-24,2024-06-24,株式会社鮮春,,株式会社,埼玉県,狭山市,富士見１丁目３０番７号コスモ狭山富士見２０９,,11,215,3501306,,,,,,,2024-06-24,1,,,,,センハル,0
1822,8030001161054,新規,0,2024-06-24,2024-06-24,株式会社エヌコーポレーション,,株式会社,埼玉県,深谷市,宿根６６３番地１,,11,218,3660810,,,,,,,2024-06-24,1,,,,,エヌコーポレーション,0
1823,8030001161062,新規,0,2024-06-24,2024-06-24,ブルースワロー株式会社,,株式会社,埼玉県,さいたま市大宮区,下町３丁目７番地１グランドミッドタワーズ大宮６階,,11,103,3300844,,,,,,,2024-06-24,1,,,,,ブルースワロー,0
1824,8030001161070,新規,0,2024-06-24,2024-06-24,日本旅行国際株式会社,,株式会社,埼玉県,川口市,青木４丁目８－１５,,11,203,3320031,,,,,,,2024-06-24,1,,,,,ニホンリョコウコクサイ,0
1825,8030001161079,新規,0,2024-06-24,2024-06-24,株式会社ＭＹＨ,,株式会社,埼玉県,狭山市,根岸１丁目２７番６号,,11,215,3501325,,,,,,,2024-06-24,1,,,,,エムワイエイチ,0
1829,8030003024556,新規,0,2024-06-24,2024-06-24,ＭＩＲ合同会社,,合同会社,埼玉県,蕨市,南町３丁目２８－１０南町ハイツ３０１,,11,223,3350003,,,,,,,2024-06-24,1,,,,,ミロ,0
1830,8030003024572,新規,0,2024-06-24,2024-06-24,ＴＥＮＴＯＭ合同会社,,合同会社,埼玉県,所沢市,大字下富１２０８番地の９８,,11,208,3590001,,,,,,,2024-06-24,1,,,,,テントム,0
1832,8040001134166,新規,0,2024-06-24,2024-06-24,ｙ．株式会社,,株式会社,千葉県,富里市,七栄６４９番地７５３,,12,233,2860221,,,,,,,2024-06-24,1,,,,,ワイドット,0
1833,8040001134174,新規,0,2024-06-24,2024-06-24,株式会社ＣＦ,,株式会社,千葉県,鎌ケ谷市,南佐津間３番１７－６号,,12,224,2730133,,,,,,,2024-06-24,1,,,,,シーエフ,0
1834,8040001134182,新規,0,2024-06-24,2024-06-24,株式会社Ｌｏｙａｌ　Ｃｏｄｅ　Ａｒｔｉｓｔｓ,,株式会社,千葉県,野田市,尾崎１３２番地１３シティハイム尾崎２０３,,12,208,2700235,,,,,,,2024-06-24,1,,,,,ロイヤルコードアーティスツ,0
1849,8080401027271,新規,0,2024-06-24,2024-06-24,株式会社エメラルドエステート,,株式会社,静岡県,磐田市,富士見町３丁目７番地１－３０５,,22,211,4380083,,,,,,,2024-06-24,1,,,,,エメラルドエステート,0
1869,8120003026915,新規,0,2024-06-24,2024-06-24,合同会社ｏｗｌ,,合同会社,大阪府,寝屋川市,打上新町２０番４５号,,27,215,5720859,,,,,,,2024-06-24,1,,,,,アウル,0
1872,8120101069832,新規,0,2024-06-24,2024-06-24,株式会社マルキン,,株式会社,大阪府,堺市堺区,中安井町１丁４番２４号,,27,141,5900063,,,,,,,2024-06-24,1,,,,,マルキン,0
1876,8130001077331,新規,0,2024-06-24,2024-06-24,株式会社高本総建,00135271,株式会社,京都府,京都市西京区,大原野上里勝山町６番地１８,,26,111,6101125,,,,,,,2024-06-24,1,,,,,タカモトソウケン,0
1877,8130003009654,新規,0,2024-06-24,2024-06-24,名新貿易合同会社,,合同会社,京都府,京都市中京区,御供町３０１－Ａ,,26,104,6048331,,,,,,,2024-06-24,1,,,,,メイシンボウエキ,0
1878,8130003009662,新規,0,2024-06-24,2024-06-24,合同会社Ｒｃ,,合同会社,京都府,京都市中京区,西ノ京星池町４５番地１５,,26,104,6048416,,,,,,,2024-06-24,1,,,,,,0
1879,8140001134791,新規,0,2024-06-24,2024-06-24,株式会社雅,,株式会社,兵庫県,明石市,魚住町西岡５４８番地の１７,,28,203,6740084,,,,,,,2024-06-24,1,,,,,ミヤビ,0
1882,8140003020726,新規,0,2024-06-24,2024-06-24,合同会社ｓｈｉｚｕｋｕ,,合同会社,兵庫県,神戸市中央区,浜辺通６丁目１番１－２２２号,,28,110,6510083,,,,,,,2024-06-24,1,,,,,シズク,0
1885,8150001027367,新規,0,2024-06-24,2024-06-24,ヤマダ電気株式会社,,株式会社,奈良県,香芝市,関屋８６７番地,,29,210,6390255,,,,,,,2024-06-24,1,,,,,ヤマダデンキ,0
1887,8180001162112,新規,0,2024-06-24,2024-06-24,株式会社Ｐｒｅｍｉｕｍ　Ａｃｃｅｓｓ,,株式会社,愛知県,名古屋市中区,丸の内２丁目７‐２４ＫＳ名古屋ビル８０４,,23,106,4600002,,,,,,,2024-06-24,1,,,,,プレミアムアクセス,0
1888,8180001162129,新規,0,2024-06-24,2024-06-24,株式会社エターナル,,株式会社,愛知県,名古屋市東区,泉３丁目２３番２０号,,23,102,4610001,,,,,,,2024-06-24,1,,,,,エターナル,0
1891,8180005020670,新規,0,2024-06-24,2024-06-24,一般社団法人田中組,,その他の設立登記法人,愛知県,半田市,亀崎町４丁目９６番地,,23,205,4750023,,,,,,,2024-06-24,1,,,,,タナカグミ,0
1892,8190001031431,新規,0,2024-06-24,2024-06-24,株式会社丸宝産業,,株式会社,三重県,四日市市,東日野町７５３番地３,,24,202,5100942,,,,,,,2024-06-24,1,,,,,マルホウサンギョウ,0
1914,8290001106289,新規,0,2024-06-24,2024-06-24,株式会社フリースタイルコンサルティング,,株式会社,福岡県,福岡市中央区,天神２丁目２番１２号Ｔ＆Ｊビルディング７Ｆ,,40,133,8100001,,,,,,,2024-06-24,1,,,,,フリースタイルコンサルティング,0
1915,8290003015496,新規,0,2024-06-24,2024-06-24,ＫＡＪＩＴＯＲＩ合同会社,,合同会社,福岡県,福岡市早良区,西新４丁目３－６西新ビル４Ｆ,,40,137,8140002,,,,,,,2024-06-24,1,,,,,カジトリ,0
1917,8310003004810,新規,0,2024-06-24,2024-06-24,合同会社ｓｎｕｇｇｌｅ　ｕｐ,,合同会社,長崎県,西彼杵郡長与町,吉無田郷１４８８番地６０,,42,307,8512126,,,,,,,2024-06-24,1,,,,,スナグルアップ,0
1924,8360003014094,新規,0,2024-06-24,2024-06-24,合同会社山城,,合同会社,沖縄県,島尻郡南大東村,字在所２６２番地,,47,357,9013805,,,,,,,2024-06-24,1,,,,,ヤマシロ,0
1935,8430001092085,新規,0,2024-06-24,2024-06-24,株式会社建塗,,株式会社,北海道,札幌市白石区,菊水元町一条４丁目１番２７号,,01,104,0030821,,,,,,,2024-06-24,1,,,,,ケント,0
1940,8430003016447,新規,0,2024-06-24,2024-06-24,ストリア合同会社,,合同会社,北海道,札幌市中央区,南一条西１６丁目１番地３２３春野ビル３Ｆ,,01,101,0600061,,,,,,,2024-06-24,1,,,,,ストリア,0
1941,8430003016488,新規,0,2024-06-24,2024-06-24,ＫＫアルクス合同会社,,合同会社,北海道,札幌市清田区,平岡公園東６丁目８番１号,,01,110,0040882,,,,,,,2024-06-24,1,,,,,ケーケーアルクス,0
1942,8460301005231,新規,0,2024-06-24,2024-06-24,株式会社ネスト,,株式会社,北海道,北見市,北二条西２丁目８,,01,208,0900042,,,,,,,2024-06-24,1,,,,,ネスト,0
1948,8500001025698,新規,0,2024-06-24,2024-06-24,ＦＴＷ株式会社,,株式会社,愛媛県,松山市,持田町３丁目７番３号,,38,201,7900855,,,,,,,2024-06-24,1,,,,,エフティダブル,0
1949,8500001025715,新規,0,2024-06-24,2024-06-24,テクノユニティ株式会社,,株式会社,愛媛県,今治市,小浦町１丁目４番２５号,,38,202,7992111,,,,,,,2024-06-24,1,,,,,テクノユニティ,0
1952,8700150126145,新規,0,2024-06-24,2024-06-24,ｘｉｎｈｕａｚｉｑｉａｎｄｉａｎｚｉｓｈａｎｇｗｕｙｏｕｘｉａｎｇｏｎｇｓｉ,,外国会社等,,,,,,,,Ｘｕｅｆｕ　Ｓｏｕｔｈ　Ｒｏａｄ，Ｂａｉｓｈａ　ｃｏｍｍｕｎｉｔｙ，Ｓｈａｎｇｄｕ　Ｓｔｒｅｅｔ　Ｃｉｔｙ　２－１０２，Ｊｕｎｙｕｅ　Ｈｕａｆｕ　Ｘｉｎｈｕａ　Ｃｏｕｎｔｙ，Ｌｏｕｄｉ　Ｈｕｎａｎ　Ｐｒｏｖｉｎｃｅ　４１７０００　ＣＮ,,,,,,2024-06-24,1,,,,,シンフワーズーチエンディエンズーシャンウーヨウシエンゴンスー,0
1969,9010401183327,新規,0,2024-06-24,2024-06-24,ヴォパック・ジャパン株式会社,,株式会社,東京都,港区,元麻布３丁目１番６号,,13,103,1060046,,,,,,,2024-06-24,1,,,,,ヴォパックジャパン,0
1975,9010805003114,新規,0,2024-06-24,2024-06-24,一般社団法人といろ会,,その他の設立登記法人,東京都,大田区,蒲田５丁目２４番４号,,13,111,1440052,,,,,,,2024-06-24,1,,,,,トイロカイ,0
1979,9010903009145,新規,0,2024-06-24,2024-06-24,Ｐｒａｅｒｙｘ合同会社,,合同会社,東京都,世田谷区,等々力１丁目２６番２２号－２,,13,112,1580082,,,,,,,2024-06-24,1,,,,,プレイリックス,0
1984,9011001162761,新規,0,2024-06-24,2024-06-24,ＴＯＮＡＲＥＡＭ株式会社,,株式会社,東京都,渋谷区,道玄坂１丁目１０番８号渋谷道玄坂東急ビル２Ｆ－Ｃ,,13,113,1500043,,,,,,,2024-06-24,1,,,,,トナリーム,0
1985,9011001162778,新規,0,2024-06-24,2024-06-24,ＺＥＮＢＵ　ＰＬＵＳ株式会社,,株式会社,東京都,渋谷区,猿楽町２９番８号ヒルサイドテラスＥ－３２,,13,113,1500033,,,,,,,2024-06-24,1,,,,,ゼンブプラス,0
1986,9011001162852,新規,0,2024-06-24,2024-06-24,株式会社生島ホールディングス,,株式会社,東京都,目黒区,中目黒１丁目１番１７－９０６号,,13,110,1530061,,,,,,,2024-06-24,1,,,,,イクシマホールディングス,0
1987,9011001162877,新規,0,2024-06-24,2024-06-24,株式会社映心動,,株式会社,東京都,渋谷区,神宮前６丁目２３番４号桑野ビル２階,,13,113,1500001,,,,,,,2024-06-24,1,,,,,エイシンドウ,0
1988,9011001162893,新規,0,2024-06-24,2024-06-24,株式会社インサイトウェブ,,株式会社,東京都,渋谷区,道玄坂１丁目１０番８号渋谷道玄坂東急ビル２Ｆ－Ｃ,,13,113,1500043,,,,,,,2024-06-24,1,,,,,インサイトウェブ,0
1989,9011001162902,新規,0,2024-06-24,2024-06-24,株式会社Ｊ‐Ｈｏｐｅ,,株式会社,東京都,目黒区,平町１丁目１７番１号,,13,110,1520032,,,,,,,2024-06-24,1,,,,,ジェイホープ,0
1991,9011003019456,新規,0,2024-06-24,2024-06-24,合同会社ＷＡＴＥＣＨ,,合同会社,東京都,渋谷区,道玄坂１丁目１６‐６二葉ビル８ｂ,,13,113,1500043,,,,,,,2024-06-24,1,,,,,ワーテック,0
1996,9011101107732,新規,0,2024-06-24,2024-06-24,株式会社ＯＮＥ　ＳＩＮＫ,,株式会社,東京都,新宿区,西新宿３丁目３番１３号西新宿水間ビル６階,,13,104,1600023,,,,,,,2024-06-24,1,,,,,ワンシンク,0
2000,9011105011071,新規,0,2024-06-24,2024-06-24,一般財団法人ＧＲＥＥＮ,,その他の設立登記法人,東京都,新宿区,下落合４丁目６番２８号,,13,104,1610033,,,,,,,2024-06-24,1,,,,,グリーン,0
2011,9012801023277,新規,0,2024-06-24,2024-06-24,株式会社ホリホック,,株式会社,東京都,立川市,羽衣町２丁目６１番２０号,,13,202,1900021,,,,,,,2024-06-24,1,,,,,ホリホック,0
2019,9020001157804,新規,0,2024-06-24,2024-06-24,株式会社石井資整,,株式会社,神奈川県,川崎市中原区,宮内４丁目３１番１０号,,14,133,2110051,,,,,,,2024-06-24,1,,,,,イシイシセイ,0
2020,9020001157812,新規,0,2024-06-24,2024-06-24,株式会社Ｆｉｒｓｔ　ｅｙｅ,,株式会社,神奈川県,横浜市港北区,新横浜２丁目５番２６号新横浜ＳＳビル６０１,,14,109,2220033,,,,,,,2024-06-24,1,,,,,ファーストアイ,0
2021,9020001157829,新規,0,2024-06-24,2024-06-24,株式会社パソアパッソ,,株式会社,神奈川県,川崎市高津区,子母口３３４番地４,,14,134,2130023,,,,,,,2024-06-24,1,,,,,パソアパッソ,0
2033,9030001161012,新規,0,2024-06-24,2024-06-24,株式会社Ｃｈａｏ,,株式会社,埼玉県,所沢市,泉町８９７番地２号,,11,208,3591112,,,,,,,2024-06-24,1,,,,,チャオ,0
2034,9030001161037,新規,0,2024-06-24,2024-06-24,株式会社エンテック,,株式会社,埼玉県,三郷市,早稲田２丁目２４番地４,,11,237,3410018,,,,,,,2024-06-24,1,,,,,エンテック,0
2035,9030001161045,新規,0,2024-06-24,2024-06-24,株式会社ＪＢＸ,,株式会社,埼玉県,熊谷市,久保島１６４７番地１１,,11,202,3600831,,,,,,,2024-06-24,1,,,,,ジェイビーエックス,0
2036,9030001161053,新規,0,2024-06-24,2024-06-24,株式会社エイチアンドケーワイ,,株式会社,埼玉県,朝霞市,仲町１丁目１１番７号,,11,227,3510006,,,,,,,2024-06-24,1,,,,,エイチアンドケーワイ,0
2037,9030001161061,新規,0,2024-06-24,2024-06-24,株式会社土屋重量機設,,株式会社,埼玉県,さいたま市南区,大字円正寺５１１番地２０,,11,108,3360043,,,,,,,2024-06-24,1,,,,,ツチヤジュウリョウキセツ,0
2042,9030003024464,新規,0,2024-06-24,2024-06-24,合同会社はっぱ,,合同会社,埼玉県,所沢市,南住吉２０番２１号,,11,208,3591125,,,,,,,2024-06-24,1,,,,,ハッパ,0
2049,9040001134149,新規,0,2024-06-24,2024-06-24,株式会社クリックウィズ,,株式会社,千葉県,成田市,公津の杜５丁目９番地１４（リバティー公津の杜Ｂ棟１０１）,,12,211,2860048,,,,,,,2024-06-24,1,,,,,クリックウィズ,0
2050,9040001134181,新規,0,2024-06-24,2024-06-24,株式会社Ｍｏｏｎ　Ｔｅｄ　Ｋｅｙ　Ｈｉｌｌｓ,,株式会社,千葉県,野田市,尾崎１３２番地１３シティハイム尾崎２０３,,12,208,2700235,,,,,,,2024-06-24,1,,,,,ムーンテッドキーヒルズ,0
2054,9040005022424,新規,0,2024-06-24,2024-06-24,一般社団法人ワットプラチェートゥポン成田,,その他の設立登記法人,千葉県,香取市,加藤洲８８１番地,,12,236,2870802,,,,,,,2024-06-24,1,,,,,ワットプラチェートゥポンナリタ,0
2056,9050001054932,新規,0,2024-06-24,2024-06-24,株式会社Ｆｅｌｉｘａｒ,,株式会社,茨城県,土浦市,摩利山新田３０４－１３,,08,203,3000838,,,,,,,2024-06-24,1,,,,,フィリクサー,0
2057,9050001054940,新規,0,2024-06-24,2024-06-24,ＡＺＥＩＫＯ株式会社,,株式会社,茨城県,つくば市,明石５１２－１,,08,220,3004203,,,,,,,2024-06-24,1,,,,,アゼイコ,0
2058,9050001054973,新規,0,2024-06-24,2024-06-24,株式会社Ｇｏｓｈ,,株式会社,茨城県,つくば市,吾妻２丁目５番地１,,08,220,3050031,,,,,,,2024-06-24,1,,,,,ゴッシュ,0
2059,9050003008473,新規,0,2024-06-24,2024-06-24,ＧＭ　ＴＲＡＤＩＮＧ合同会社,,合同会社,茨城県,古河市,南間中橋１９番地５６,,08,204,3060108,,,,,,,2024-06-24,1,,,,,ジーエムトレーディング,0
2065,9060003005123,新規,0,2024-06-24,2024-06-24,コモンズエナジー合同会社,,合同会社,栃木県,日光市,瀬尾２５２番地,,09,206,3211264,,,,,,,2024-06-24,1,,,,,コモンズエナジー,0
2068,9070001041895,新規,0,2024-06-24,2024-06-24,ＭＩＲＯＫＵ　ＪＡＰＡＮ株式会社,,株式会社,群馬県,前橋市,表町１丁目２５番３パルミラ２０８号,,10,201,3710024,,,,,,,2024-06-24,1,,,,,ミロクジャパン,0
2078,9100001037568,新規,0,2024-06-24,2024-06-24,株式会社ａｌｌ　ｇａｐ,,株式会社,長野県,岡谷市,塚間町１丁目５番２０号,,20,204,3940026,,,,,,,2024-06-24,1,,,,,オールギャップ,0
2079,9100003007627,新規,0,2024-06-24,2024-06-24,ＡＴＲＩＥ合同会社,,合同会社,長野県,諏訪市,沖田町１丁目２７番地１ヒルサイド・ビレッヂ３０３号室,,20,206,3920013,,,,,,,2024-06-24,1,,,,,アトリエ,0
2092,9120001265596,新規,0,2024-06-24,2024-06-24,株式会社ＹＭＭＴ,,株式会社,大阪府,大阪市大正区,千島２丁目３番１４号,,27,108,5510003,,,,,,,2024-06-24,1,,,,,ワイエムエムティー,0
2093,9120001265976,新規,0,2024-06-24,2024-06-24,株式会社ＥＡＳＴ１３５,,株式会社,大阪府,大阪市中央区,本町橋２番１４号,,27,128,5400029,,,,,,,2024-06-24,1,,,,,イーストイチサンゴ,0
2094,9120001266124,新規,0,2024-06-24,2024-06-24,株式会社あかるいめ,,株式会社,大阪府,大阪市西区,千代崎２丁目８番６号,,27,106,5500023,,,,,,,2024-06-24,1,,,,,アカルイメ,0
2095,9120001266173,新規,0,2024-06-24,2024-06-24,ｏｄｄ株式会社,,株式会社,大阪府,大阪市西区,南堀江３丁目１６番２１－２１０１号,,27,106,5500015,,,,,,,2024-06-24,1,,,,,オッド,0
2097,9120003026914,新規,0,2024-06-24,2024-06-24,ＨｙＳＡ合同会社,,合同会社,大阪府,大阪市城東区,鴫野東３丁目２８番４号,,27,118,5360013,,,,,,,2024-06-24,1,,,,,ヒサ,0
2098,9120005024387,新規,0,2024-06-24,2024-06-24,一般社団法人ルナ・フレンドシップ協会,,その他の設立登記法人,大阪府,大阪市中央区,伏見町４丁目４番９号オーエックス淀屋橋ビル３階,,27,128,5410044,,,,,,,2024-06-24,1,,,,,ルナフレンドシップキョウカイ,0
2100,9120101069823,新規,0,2024-06-24,2024-06-24,株式会社Ｏｎｅｓ　ｉｎｎｏｖａｔｉｏｎ,,株式会社,大阪府,富田林市,喜志町５丁目１番２号ＳＡＭＵＲＡＩビル２ＦＣ号,,27,214,5840005,,,,,,,2024-06-24,1,,,,,ワンズイノベーション,0
2106,9130001077322,新規,0,2024-06-24,2024-06-24,エムケイルＤＸコンサルティング株式会社,,株式会社,京都府,京都市下京区,中堂寺南町１３４番地ＡＳＴＥＭビル８階,,26,106,6008813,,,,,,,2024-06-24,1,,,,,エムケイルディーエックスコンサルティング,0
2107,9130003009653,新規,0,2024-06-24,2024-06-24,吉来貿易合同会社,,合同会社,京都府,京都市中京区,御供町３０１－Ｆ,,26,104,6048331,,,,,,,2024-06-24,1,,,,,ヨシキボウエキ,0
2141,9180001162078,新規,0,2024-06-24,2024-06-24,株式会社アイリスブリッジ,,株式会社,愛知県,名古屋市千種区,内山３丁目１５番７号川出ビル２階,,23,101,4640075,,,,,,,2024-06-24,1,,,,,アイリスブリッジ,0
2142,9180001162094,新規,0,2024-06-24,2024-06-24,福邦株式会社,,株式会社,愛知県,名古屋市守山区,東山町１番２０号２０２室,,23,113,4630061,,,,,,,2024-06-24,1,,,,,フクホウ,0
2147,9180003026974,新規,0,2024-06-24,2024-06-24,合同会社テラコヤ,,合同会社,愛知県,半田市,宮本町３丁目２０１－２３,,23,205,4750925,,,,,,,2024-06-24,1,,,,,テラコヤ,0
2155,9220001026063,新規,0,2024-06-24,2024-06-24,株式会社のと復興タクシー,,株式会社,石川県,珠洲市,宝立町宗玄弐四字２５番地,,17,205,9271225,,,,,,,2024-06-24,1,,,,,ノトフッコウタクシー,0
2157,9220003003770,新規,0,2024-06-24,2024-06-24,合同会社千星,,合同会社,石川県,金沢市,藤江南３丁目１６８番地１５,,17,201,9200346,,,,,,,2024-06-24,1,,,,,センボシ,0
2160,9240001063419,新規,0,2024-06-24,2024-06-24,高陽交通株式会社,,株式会社,広島県,広島市安佐北区,落合２丁目９番１５号,,34,106,7391731,,,,,,,2024-06-24,1,,,,,コウヨウコウツウ,0
2176,9330001032190,新規,0,2024-06-24,2024-06-24,株式会社ルックアップ,,株式会社,熊本県,山鹿市,鹿央町千田４１８７番地,,43,208,8610563,,,,,,,2024-06-24,1,,,,,ルックアップ,0
2179,9340001026588,新規,0,2024-06-24,2024-06-24,株式会社キリン企画,,株式会社,鹿児島県,阿久根市,鶴見町３番地,,46,206,8991626,,,,,,,2024-06-24,1,,,,,キリンキカク,0
2187,9360001033822,新規,0,2024-06-24,2024-06-24,株式会社ｍｕｔｏ,,株式会社,沖縄県,宮古島市,平良字下里８１２番地,,47,214,9060013,,,,,,,2024-06-24,1,,,,,ムトゥ,0
2188,9360003014093,新規,0,2024-06-24,2024-06-24,学生バイト沖縄合同会社,,合同会社,沖縄県,宜野湾市,宜野湾１丁目１０－１３、２０２号室,,47,205,9012211,,,,,,,2024-06-24,1,,,,,ガクセイバイトオキナワ,0
2189,9370001051451,新規,0,2024-06-24,2024-06-24,株式会社クバル,,株式会社,宮城県,大崎市,古川駅南３丁目６番地－１２０２号,,04,215,9896161,,,,,,,2024-06-24,1,,,,,クバル,0
2190,9370005010809,新規,0,2024-06-24,2024-06-24,医療法人薬師堂歯科,,その他の設立登記法人,宮城県,仙台市若林区,木ノ下４丁目１番１３号,,04,103,9840047,,,,,,,2024-06-24,1,,,,,ヤクシドウシカ,0
2202,9430001092101,新規,0,2024-06-24,2024-06-24,株式会社もんじゅ,,株式会社,北海道,札幌市中央区,大通西１６丁目１番地１６ライオンズマンション第６大通２０４号,,01,101,0600042,,,,,,,2024-06-24,1,,,,,モンジュ,0
2204,9430003016487,新規,0,2024-06-24,2024-06-24,合同会社ｍｉｌｌｅｎｎｉｕｍ　ｌｕｃｋ,,合同会社,北海道,札幌市豊平区,月寒東一条５丁目１番２４号,,01,105,0620051,,,,,,,2024-06-24,1,,,,,ミレニアムラック,0
2209,9440003001604,新規,0,2024-06-24,2024-06-24,合同会社タクミ,,合同会社,北海道,函館市,山の手３丁目４番１号,,01,202,0410836,,,,,,,2024-06-24,1,,,,,タクミ,0
