sequenceNumber,corporateNumber,process,correct,updateDate,changeDate,name,nameImageId,kind,prefectureName,cityName,streetNumber,addressImageId,prefectureCode,cityCode,postCode,addressOutside,addressOutsideImageId,closeDate,closeCause,successorCorporateNumber,changeCause,assignmentDate,latest,enName,enPrefectureName,enCityName,enAddressOutside,furigana,hihyoji
23,1010403017432,登記記録の閉鎖等,0,2022-05-10,2022-04-15,合同会社マルーン,,合同会社,東京都,千代田区,永田町２丁目１４番３号,,13,101,1000014,,,2022-04-15,清算の結了等,,,2017-10-20,1,,,,,マルーン,0
24,1010502000677,登記記録の閉鎖等,0,2022-05-10,2022-05-09,有限会社アイ・シー印刷,,有限会社,東京都,台東区,台東１丁目２４番１２号,,13,106,1100016,,,2022-05-09,清算の結了等,,,2015-10-05,1,,,,,アイシーインサツ,0
70,1012702001728,登記記録の閉鎖等,0,2022-05-10,2022-05-02,有限会社松島,,有限会社,東京都,小平市,美園町３丁目１６番３５号,,13,211,1870041,,,2022-05-02,清算の結了等,,,2022-01-07,1,,,,,マツシマ,0
73,1020001134752,登記記録の閉鎖等,0,2022-05-10,2022-04-28,株式会社アール,,株式会社,神奈川県,横浜市港北区,富士塚１丁目８番１４号,,14,109,2220012,,,2022-04-28,清算の結了等,,,2020-02-04,1,,,,,アール,0
81,1021002041698,登記記録の閉鎖等,0,2022-05-10,2022-05-02,有限会社ティー・エム,,有限会社,神奈川県,大和市,中央林間西５丁目４番４３号,,14,213,2420008,,,2022-05-02,清算の結了等,,,2015-10-05,1,,,,,ティーエム,0
139,1100001011687,登記記録の閉鎖等,0,2022-05-10,2022-04-21,ユンコーポレーション株式会社,,株式会社,東京都,墨田区,石原２丁目３番３号ルミエール両国３０２号室,,13,107,1300011,,,2022-04-21,清算の結了等,,,2015-10-05,1,,,,,ユンコーポレーション,0
148,1120001032896,登記記録の閉鎖等,0,2022-05-10,2022-04-27,株式会社鈴木設備研究所,,株式会社,大阪府,大阪市住吉区,長居２丁目５番２１号,,27,120,5580003,,,2022-04-27,清算の結了等,,,2015-10-05,1,,,,,スズキセツビケンキュウショ,0
180,1120005019576,登記記録の閉鎖等,0,2022-05-10,2022-04-27,特定非営利活動法人エコアール,,その他の設立登記法人,大阪府,大阪市天王寺区,大道５丁目５番２号,,27,109,5430052,,,2022-04-27,清算の結了等,,,2017-07-14,1,,,,,エコアール,0
188,1120901039628,登記記録の閉鎖等,0,2022-05-10,2022-05-06,株式会社ライフステージ高槻,,株式会社,大阪府,高槻市,竹の内町６３番３号,,27,207,5690043,,,2022-05-06,清算の結了等,,,2018-03-06,1,,,,,ライブステージタカツキ,0
199,1140001032515,登記記録の閉鎖等,0,2022-05-10,2022-05-02,株式会社綜食,,株式会社,兵庫県,芦屋市,山手町３１番３０号,,28,206,6590096,,,2022-05-02,清算の結了等,,,2015-10-05,1,,,,,ソウショク,0
234,1190002019721,登記記録の閉鎖等,0,2022-05-10,2022-04-28,有限会社片山工業所,,有限会社,三重県,四日市市,松原町３４番１０号,,24,202,5108015,,,2022-04-28,清算の結了等,,,2015-10-05,1,,,,,カタヤマコウギョウショ,0
244,1230001012417,登記記録の閉鎖等,0,2022-05-10,2022-05-02,ＪＦＥマテリアル株式会社,,株式会社,富山県,射水市,庄西町２丁目９番３８号,,16,211,9340001,,,2022-05-02,合併による解散等,3010401063179,令和４年４月１日東京都港区芝三丁目８番２号ＪＦＥミネラル株式会社（3010401063179）に合併し解散,2015-10-05,1,,,,,ジェイエフイーマテリアル,0
253,1260001020474,登記記録の閉鎖等,0,2022-05-10,2022-05-02,株式会社吉田興産,00003270,株式会社,岡山県,津山市,小原８３番地１,,33,203,7080001,,,2022-05-02,合併による解散等,8260001020344,令和４年５月１日岡山県津山市小原８３番地の１株式会社環光（8260001020344）に合併し解散,2015-10-05,1,,,,,ヨシダコウサン,0
305,1370005001427,登記記録の閉鎖等,0,2022-05-10,2022-04-07,学校法人文理学院,,その他の設立登記法人,宮城県,仙台市青葉区,本町２丁目１２番１２号,,04,101,9800014,,,2022-04-07,合併による解散等,8180005002165,令和４年４月１日名古屋市瑞穂区駒場町四丁目１番地学校法人河合塾（8180005002165）に合併し解散,2015-10-05,1,,,,,ブンリガクイン,0
311,1410002003578,登記記録の閉鎖等,0,2022-05-10,2022-04-27,有限会社三浦美装,,有限会社,秋田県,秋田市,卸町４丁目１番２５号,,05,201,0100061,,,2022-04-27,清算の結了等,,,2015-10-05,1,,,,,ミウラビソウ,0
329,1500001009220,登記記録の閉鎖等,0,2022-05-10,2022-05-02,株式会社インテリア日國,,株式会社,愛媛県,西条市,北条７３２番地の３,,38,206,7991354,,,2022-05-02,清算の結了等,,,2015-10-05,1,,,,,インテリアニッコク,0
334,1700150043702,登記記録の閉鎖等,0,2022-05-10,2022-01-13,幡豆土地改良区,,その他,愛知県,西尾市,西幡豆町仲田１４番地２西尾市役所　幡豆支所内,,23,213,4440703,,,2022-01-13,その他の清算の結了等,,,2015-10-09,1,,,,,ハズトチカイリヨウク,0
353,2010003022468,登記記録の閉鎖等,0,2022-05-10,2022-04-15,那須クリーンエナジー合同会社,,合同会社,東京都,港区,海岸１丁目５番２０号,,13,103,1050022,,,2022-04-15,合併による解散等,6010003022464,令和４年４月１日東京都港区海岸一丁目５番２０号熊谷クリーンエナジー合同会社（6010003022464）に合併し解散,2015-10-05,1,,,,,ナスクリーンエナジー,0
354,2010003022666,登記記録の閉鎖等,0,2022-05-10,2022-04-15,Ｍ－Ｓｔｙｌｅ合同会社,,合同会社,東京都,千代田区,永田町２丁目１４番３号,,13,101,1000014,,,2022-04-15,清算の結了等,,,2015-11-13,1,,,,,エムスタイル,0
369,2010403020906,登記記録の閉鎖等,0,2022-05-10,2022-04-15,ゲートシティＢＫＫ３合同会社,,合同会社,東京都,港区,虎ノ門３丁目１８番１２－５０２号株式会社虎ノ門会計神谷町分室内,,13,103,1050001,,,2022-04-15,清算の結了等,,,2019-06-18,1,,,,,ゲートシティビーケイケイスリー,0
374,2010501038560,登記記録の閉鎖等,0,2022-05-10,2022-05-02,株式会社レスウェイ,,株式会社,東京都,台東区,下谷３丁目１０番２号,,13,106,1100004,,,2022-05-02,合併による解散等,6010501009129,令和４年５月１日東京都台東区下谷三丁目１０番２号株式会社東洋相互サービス（6010501009129）に合併し解散,2015-10-05,1,,,,,レスウェイ,0
392,2011001091736,登記記録の閉鎖等,0,2022-05-10,2022-05-02,株式会社共栄情報技術,,株式会社,愛知県,名古屋市中区,丸の内３丁目５番３３号名古屋有楽ビル,,23,106,4600002,,,2022-05-02,清算の結了等,,,2015-10-05,1,,,,,キョウエイジョウホウギジュツ,0
421,2011401023454,登記記録の閉鎖等,0,2022-05-10,2022-05-02,株式会社ツァーリ・ボンバ,,株式会社,東京都,板橋区,板橋４丁目４８番６号トップワイ板橋１０２,,13,119,1730004,,,2022-05-02,清算の結了等,,,2021-06-14,1,,,,,ツァーリボンバ,0
441,2020001050197,登記記録の閉鎖等,0,2022-05-10,2022-04-27,本多便株式会社,,株式会社,神奈川県,横浜市泉区,和泉町６２００番地２,,14,116,2450016,,,2022-04-27,清算の結了等,,,2015-10-05,1,,,,,ホンダビン,0
455,2020002077165,登記記録の閉鎖等,0,2022-05-10,2022-04-28,有限会社レガーロ,,有限会社,神奈川県,横浜市瀬谷区,三ツ境１７２番地２－１０４号,,14,114,2460022,,,2022-04-28,清算の結了等,,,2015-10-05,1,,,,,レガーロ,0
463,2021002003813,登記記録の閉鎖等,0,2022-05-10,2022-05-02,有限会社日清エコー,,有限会社,神奈川県,藤沢市,本鵠沼２丁目１９番１４号,,14,205,2510028,,,2022-05-02,清算の結了等,,,2015-10-05,1,,,,,ニッシンエコー,0
468,2021003007152,登記記録の閉鎖等,0,2022-05-10,2022-05-02,合同会社Ｏｄｉｎｇ,,合同会社,神奈川県,平塚市,明石町１６番１８号,,14,203,2540042,,,2022-05-02,清算の結了等,,,2017-12-18,1,,,,,オーディング,0
481,2030002081678,登記記録の閉鎖等,0,2022-05-10,2022-04-27,有限会社貫井石油,,有限会社,埼玉県,児玉郡神川町,大字下阿久原８１７番地１５,,11,383,3670311,,,2022-04-27,清算の結了等,,,2015-10-05,1,,,,,ヌクイセキユ,0
509,2060003002812,登記記録の閉鎖等,0,2022-05-10,2022-05-02,合同会社ｎａｎａホーム,,合同会社,栃木県,宇都宮市,東峰町３０７９番地１９,,09,201,3210944,,,2022-05-02,清算の結了等,,,2018-04-23,1,,,,,ナナホーム,0
512,2070001019543,登記記録の閉鎖等,0,2022-05-10,2022-04-11,株式会社セガワツールサービス,,株式会社,群馬県,太田市,西新町１９番地８,,10,205,3730847,,,2022-04-11,合併による解散等,9010001214655,令和４年４月１日東京都千代田区三番町９番地１麹町三番町マンション５０５号ＳＴＳＧ　Ｈｏｌｄｉｎｇｓ株式会社（9010001214655）に合併し解散,2015-10-05,1,,,,,セガワツールサービス,0
534,2120001117102,登記記録の閉鎖等,0,2022-05-10,2022-05-06,株式会社関西セルコ,,株式会社,大阪府,大阪市北区,豊崎５丁目２番２２号株式会社サーブ内,,27,127,5310072,,,2022-05-06,清算の結了等,,,2015-10-05,1,,,,,カンサイセルコ,0
537,2120001129428,登記記録の閉鎖等,0,2022-05-10,2022-05-09,株式会社西長堀商会,,株式会社,大阪府,大阪市西区,北堀江２丁目１２番１７号,,27,106,5500014,,,2022-05-09,清算の結了等,,,2015-10-05,1,,,,,ニシナガホリショウカイ,0
559,2120101041623,登記記録の閉鎖等,0,2022-05-10,2022-05-02,株式会社太陽興産,,株式会社,大阪府,和泉市,黒石町３２８番地,,27,219,5941113,,,2022-05-02,清算の結了等,,,2015-10-05,1,,,,,タイヨウコウサン,0
565,2120102020213,登記記録の閉鎖等,0,2022-05-10,2022-04-28,有限会社ヘリオス,,有限会社,大阪府,河内長野市,美加の台７丁目２８番１２号,,27,216,5860044,,,2022-04-28,清算の結了等,,,2015-10-05,1,,,,,ヘリオス,0
582,2130001054591,登記記録の閉鎖等,0,2022-05-10,2022-05-02,株式会社ＨＩＹＯＲＩ,,株式会社,京都府,南丹市,日吉町胡麻行ケ谷１５番地２８,,26,213,6290311,,,2022-05-02,清算の結了等,,,2015-10-05,1,,,,,ヒヨリ,0
597,2150001010452,登記記録の閉鎖等,0,2022-05-10,2022-04-28,近畿織布株式会社,,株式会社,奈良県,橿原市,今井町４丁目１１番３３号,,29,205,6340812,,,2022-04-28,清算の結了等,,,2015-10-05,1,,,,,キンキショクフ,0
609,2180001091168,登記記録の閉鎖等,0,2022-05-10,2022-05-02,株式会社Ｃ－ＡＣＴＩＯＮ,,株式会社,愛知県,名古屋市千種区,小松町５丁目３－１０,,23,101,4640853,,,2022-05-02,清算の結了等,,,2015-10-05,1,,,,,シーアクション,0
617,2180002010250,登記記録の閉鎖等,0,2022-05-10,2022-05-02,有限会社間瀬商会,,有限会社,愛知県,名古屋市天白区,八事天道５２５番地アリア八事２０１号室,,23,116,4680061,,,2022-05-02,清算の結了等,,,2015-10-05,1,,,,,マセショウカイ,0
629,2190001018392,登記記録の閉鎖等,0,2022-05-10,2022-04-28,飛雲電子株式会社,,株式会社,三重県,四日市市,南浜田町２番１４号,,24,202,5100066,,,2022-04-28,清算の結了等,,,2015-10-05,1,,,,,フェイーユンーデンシ,0
632,2200001004630,登記記録の閉鎖等,0,2022-05-10,2022-05-09,株式会社プラバ,,株式会社,岐阜県,岐阜市,川部５丁目１４番地２,,21,201,5011151,,,2022-05-09,清算の結了等,,,2015-10-05,1,,,,,プラバ,0
679,2340001009120,登記記録の閉鎖等,0,2022-05-10,2022-05-06,株式会社ペスカマール,,株式会社,鹿児島県,いちき串木野市,塩屋町１番地,,46,219,8960023,,,2022-05-06,清算の結了等,,,2015-10-05,1,,,,,ペスカマール,0
696,2380002001601,登記記録の閉鎖等,0,2022-05-10,2022-04-27,有限会社サンワケミカル,,有限会社,福島県,福島市,沖高字樋越１番地の４６,00083431,07,201,9600114,,,2022-04-27,清算の結了等,,,2015-10-05,1,,,,,サンワケミカル,0
698,2380002025542,登記記録の閉鎖等,0,2022-05-10,2022-05-02,有限会社ハヤシ企業,,有限会社,福島県,いわき市,植田町根小屋６５番地の１,,07,204,9748261,,,2022-05-02,合併による解散等,2380001013655,令和４年４月３０日福島県いわき市植田町根小屋６５番地の１林興業株式会社（2380001013655）に合併し解散,2015-10-05,1,,,,,ハヤシキギョウ,0
708,2430001047508,登記記録の閉鎖等,0,2022-05-10,2022-04-25,株式会社中央モータース,,株式会社,北海道,夕張郡長沼町,錦町南１丁目１２番１６号,,01,428,0691334,,,2022-04-25,清算の結了等,,,2015-10-05,1,,,,,チュウオウモータース,0
720,2470002010741,登記記録の閉鎖等,0,2022-05-10,2022-05-06,丸新運送有限会社,,有限会社,香川県,木田郡三木町,大字氷上１２１２番地７,,37,341,7610612,,,2022-05-06,清算の結了等,,,2015-10-05,1,,,,,マルシンウンソウ,0
732,2700150061942,登記記録の閉鎖等,0,2022-05-10,2022-01-31,加津佐西部土地改良区,,その他,長崎県,南島原市,加津佐町己２７９２－７,,42,214,8592601,,,2022-01-31,その他の清算の結了等,,,2015-10-09,1,,,,,カヅサセイブトチカイリヨウク,0
733,2700150091766,登記記録の閉鎖等,0,2022-05-10,2021-10-17,井土ヶ谷マンション建替組合,,その他,神奈川県,横浜市神奈川区,栄町８番地の１,,14,102,2210052,,,2021-10-17,その他の清算の結了等,,,2018-11-21,1,,,,,イドガヤマンシヨンタテカエクミアイ,0
743,3010003023424,登記記録の閉鎖等,0,2022-05-10,2022-04-15,香取クリーンエナジー合同会社,,合同会社,東京都,港区,海岸１丁目５番２０号,,13,103,1050022,,,2022-04-15,合併による解散等,6010003022464,令和４年４月１日東京都港区海岸一丁目５番２０号熊谷クリーンエナジー合同会社（6010003022464）に合併し解散,2016-04-25,1,,,,,カトリクリーンエナジー,0
744,3010003026848,登記記録の閉鎖等,0,2022-05-10,2022-04-15,合同会社ワラビー,,合同会社,東京都,千代田区,永田町２丁目１４番３号,,13,101,1000014,,,2022-04-15,清算の結了等,,,2018-01-26,1,,,,,ワラビー,0
812,3013202012148,登記記録の閉鎖等,0,2022-05-10,2022-04-15,有限会社ファンタビット,,有限会社,東京都,目黒区,青葉台４丁目７番７号,,13,110,1530042,,,2022-04-15,清算の結了等,,,2015-10-05,1,,,,,ファンタビット,0
814,3020001042565,登記記録の閉鎖等,0,2022-05-10,2022-05-02,日本検査機株式会社,,株式会社,神奈川県,藤沢市,弥勒寺８０番地,,14,205,2510016,,,2022-05-02,清算の結了等,,,2015-10-05,1,,,,,,0
830,3021001032523,登記記録の閉鎖等,0,2022-05-10,2022-04-28,株式会社カミヤ,,株式会社,神奈川県,小田原市,南鴨宮２丁目３５番１４号,,14,206,2500875,,,2022-04-28,清算の結了等,,,2015-10-05,1,,,,,カミヤ,0
849,3030002061035,登記記録の閉鎖等,0,2022-05-10,2022-04-28,有限会社建友社,,有限会社,埼玉県,新座市,馬場２丁目２番１６号,,11,230,3520016,,,2022-04-28,清算の結了等,,,2015-10-05,1,,,,,ケンユウシャ,0
857,3040001014538,登記記録の閉鎖等,0,2022-05-10,2022-04-27,株式会社杉林企画,,株式会社,千葉県,習志野市,津田沼１丁目１１番２０号,,12,216,2750016,,,2022-04-27,清算の結了等,,,2015-10-05,1,,,,,スギバヤシキカク,0
873,3060002007299,登記記録の閉鎖等,0,2022-05-10,2022-05-02,有限会社半田三郎商店,,有限会社,栃木県,宇都宮市,今泉町５７番地１,,09,201,3210962,,,2022-05-02,清算の結了等,,,2015-10-05,1,,,,,ハンダサブロウショウテン,0
874,3070001021309,登記記録の閉鎖等,0,2022-05-10,2022-04-25,株式会社鋼板加工,,株式会社,群馬県,伊勢崎市,八寸町４９８９番地,,10,204,3792236,,,2022-04-25,合併による解散等,6010601001712,令和４年４月１日東京都江東区亀戸六丁目４３番９号岩上鋼材株式会社（6010601001712）に合併し解散,2015-10-05,1,,,,,コウバンカコウ,0
875,3070002000856,登記記録の閉鎖等,0,2022-05-10,2022-04-26,有限会社エイチアンドアール,,有限会社,群馬県,前橋市,山王町２丁目３０番地の２,,10,201,3792123,,,2022-04-26,清算の結了等,,,2015-10-05,1,,,,,エイチアンドアール,0
885,3080402001387,登記記録の閉鎖等,0,2022-05-10,2022-05-02,有限会社エフアイ,,有限会社,静岡県,浜松市中区,葵東２丁目２３番４１号,,22,131,4338114,,,2022-05-02,清算の結了等,,,2015-10-05,1,,,,,エフアイ,0
936,3120102000346,登記記録の閉鎖等,0,2022-05-10,2022-05-02,有限会社有澤製作所,,有限会社,大阪府,堺市堺区,老松町１丁３６番地,,27,141,5900824,,,2022-05-02,清算の結了等,,,2015-10-05,1,,,,,アリサワセイサクショ,0
962,3150005004598,登記記録の閉鎖等,0,2022-05-10,2022-04-28,奈良県集成材協同組合,,その他の設立登記法人,奈良県,桜井市,大字生田６８６番地,,29,206,6330048,,,2022-04-28,清算の結了等,,,2015-10-05,1,,,,,ナラケンシュウセイザイ,0
964,3160001016712,登記記録の閉鎖等,0,2022-05-10,2022-05-06,株式会社サンクリスタル,,株式会社,滋賀県,守山市,水保町２８９１－２２７,,25,207,5240102,,,2022-05-06,清算の結了等,,,2015-10-05,1,,,,,サンクリスタル,0
971,3180001078742,登記記録の閉鎖等,0,2022-05-10,2022-05-02,窯神製陶株式会社,,株式会社,愛知県,瀬戸市,窯神町８７番地,,23,204,4890048,,,2022-05-02,清算の結了等,,,2015-10-05,1,,,,,カマガミセイトウ,0
1001,3180302001840,登記記録の閉鎖等,0,2022-05-10,2022-04-28,有限会社タツミ石油,,有限会社,愛知県,岡崎市,東明大寺町１０番地７,,23,202,4440863,,,2022-04-28,清算の結了等,,,2015-10-05,1,,,,,タツミセキユ,0
1014,3200002016302,登記記録の閉鎖等,0,2022-05-10,2022-05-02,有限会社山手,,有限会社,岐阜県,美濃加茂市,中富町３丁目１番１５号,,21,211,5050033,,,2022-05-02,清算の結了等,,,2015-10-05,1,,,,,ヤマテ,0
1017,3220001009313,登記記録の閉鎖等,0,2022-05-10,2022-05-09,株式会社ミライカ,,株式会社,東京都,台東区,千束４丁目４３番２－８０１号,,13,106,1110031,,,2022-05-09,清算の結了等,,,2015-10-05,1,,,,,ミライカ,0
1025,3250002010374,登記記録の閉鎖等,0,2022-05-10,2022-05-02,有限会社西日本大倉商事,,有限会社,山口県,下関市,大字田倉３９２番地の５,,35,201,7510883,,,2022-05-02,清算の結了等,,,2015-10-05,1,,,,,ニシニホンオオクラショウジ,0
1062,3340002019357,登記記録の閉鎖等,0,2022-05-10,2022-05-06,有限会社居川水産,,有限会社,鹿児島県,熊毛郡中種子町,野間５１７２番地２３,,46,501,8913604,,,2022-05-06,清算の結了等,,,2015-10-05,1,,,,,オリカワスイサン,0
1073,3370801001999,登記記録の閉鎖等,0,2022-05-10,2022-04-26,株式会社ワークエコ,,株式会社,宮城県,岩沼市,早股字土手添７５番地,,04,211,9892424,,,2022-04-26,清算の結了等,,,2015-10-05,1,,,,,ワークエコ,0
1080,3420002014580,登記記録の閉鎖等,0,2022-05-10,2022-04-26,有限会社佐藤輪業商会,,有限会社,青森県,弘前市,大字駒越字村元６２番地３,,02,202,0361322,,,2022-04-26,清算の結了等,,,2015-10-05,1,,,,,サトウリンギョウショウカイ,0
1083,3430002054403,登記記録の閉鎖等,0,2022-05-10,2022-04-20,有限会社三光社印刷所,,有限会社,北海道,札幌市西区,二十四軒四条７丁目４番２３号,,01,107,0630804,,,2022-04-20,清算の結了等,,,2015-10-05,1,,,,,サンコウシャインサツジョ,0
1090,3450002011146,登記記録の閉鎖等,0,2022-05-10,2022-05-09,有限会社ホンダオート道北,,有限会社,北海道,天塩郡豊富町,字豊富大通２丁目,,01,516,0984110,,,2022-05-09,清算の結了等,,,2015-10-05,1,,,,,ホンダオートドウホク,0
1102,3700150043642,登記記録の閉鎖等,0,2022-05-10,2022-01-13,高橋用水土地改良区,,その他,愛知県,西尾市,今川町石橋１５,,23,213,4450063,,,2022-01-13,その他の清算の結了等,,,2015-10-09,1,,,,,タカハシヨウスイトチカイリヨウク,0
1116,4010001210873,登記記録の閉鎖等,0,2022-05-10,2022-05-02,株式会社アクロフィット,,株式会社,東京都,新宿区,新宿１丁目７番２号,,13,104,1600022,,,2022-05-02,合併による解散等,2011001096363,令和４年５月１日東京都新宿区新宿一丁目７番２号株式会社イジット（2011001096363）に合併し解散,2020-07-10,1,,,,,アクロフィット,0
1151,4011001002732,登記記録の閉鎖等,0,2022-05-10,2022-04-18,岩田建設株式会社,,株式会社,東京都,渋谷区,神宮前５丁目２番１５号,,13,113,1500001,,,2022-04-18,清算の結了等,,,2015-10-05,1,,,,,イワタケンセツ,0
1179,4011601006109,登記記録の閉鎖等,0,2022-05-10,2022-05-02,株式会社プラクトロニカ昭芝,,株式会社,東京都,練馬区,小竹町１丁目４３番１５号,,13,120,1760004,,,2022-05-02,合併による解散等,8011601003218,令和４年５月１日東京都練馬区小竹町一丁目４３番１５号株式会社昭芝製作所（8011601003218）に合併し解散,2015-10-05,1,,,,,プラクトロニカショウシバ,0
1182,4011603002898,登記記録の閉鎖等,0,2022-05-10,2022-04-28,Ｂｌｕｅ　Ｍｉｒａｇｅ合同会社,,合同会社,東京都,練馬区,春日町４丁目１番４号,,13,120,1790074,,,2022-04-28,清算の結了等,,,2020-03-12,1,,,,,ブルーミラージュ,0
1215,4021002052131,登記記録の閉鎖等,0,2022-05-10,2022-04-28,有限会社スイ美容室,,有限会社,神奈川県,小田原市,本町３丁目１１番２４号,,14,206,2500012,,,2022-04-28,清算の結了等,,,2015-10-05,1,,,,,スイビヨウシツ,0
1239,4050002009007,登記記録の閉鎖等,0,2022-05-10,2022-04-28,有限会社湊給食センター,,有限会社,茨城県,ひたちなか市,湊中央１丁目６番１８号,,08,221,3111229,,,2022-04-28,清算の結了等,,,2015-10-05,1,,,,,ミナトキュウショクセンター,0
1253,4070003002537,登記記録の閉鎖等,0,2022-05-10,2022-04-25,Ｋ．Ｓ．８合同会社,,合同会社,群馬県,高崎市,台新田町１０１番地１,,10,202,3701206,,,2022-04-25,清算の結了等,,,2015-12-17,1,,,,,ケイエスエイト,0
1313,4130002009527,登記記録の閉鎖等,0,2022-05-10,2022-05-02,有限会社リンクアンドデジタルネット,,有限会社,京都府,京都市西京区,樫原石畑町１４番地の１０,,26,111,6158181,,,2022-05-02,清算の結了等,,,2015-10-05,1,,,,,リンクアンドデジタルネット,0
1332,4160005002955,登記記録の閉鎖等,0,2022-05-10,2022-04-11,天理教甲南分教会,,その他の設立登記法人,滋賀県,甲賀市,甲南町深川１８７８番地,,25,209,5203322,,,2022-04-11,合併による解散等,4160005003012,令和４年４月１１日滋賀県甲賀市信楽町長野８６９番地天理教長里分教会（4160005003012）に合併し解散,2015-10-05,1,,,,,,0
1340,4180001052630,登記記録の閉鎖等,0,2022-05-10,2022-04-28,スーパープランニング株式会社,,株式会社,愛知県,名古屋市中区,千代田２丁目２０－１エスティメゾン鶴舞１４０７,,23,106,4600012,,,2022-04-28,清算の結了等,,,2015-10-05,1,,,,,スーパープランニング,0
1367,4200001016995,登記記録の閉鎖等,0,2022-05-10,2022-05-09,株式会社ＫＮコーポレーション,,株式会社,岐阜県,大垣市,室村町２丁目７６番地１,,21,202,5030026,,,2022-05-09,清算の結了等,,,2015-10-05,1,,,,,ケイエヌコーポレーション,0
1384,4260001015876,登記記録の閉鎖等,0,2022-05-10,2022-05-06,キング製薬株式会社,,株式会社,岡山県,総社市,門田９９７番地１,,33,208,7191156,,,2022-05-06,清算の結了等,,,2015-10-05,1,,,,,キングセイヤク,0
1424,4360001011989,登記記録の閉鎖等,0,2022-05-10,2022-04-15,株式会社ウィンリッヂ,,株式会社,東京都,千代田区,神田淡路町２丁目１０５番地,,13,101,1010063,,,2022-04-15,合併による解散等,5010001154426,令和４年４月１５日東京都千代田区神田淡路町二丁目１０５番地ウィナーソフト株式会社（5010001154426）に合併し解散,2015-10-05,1,,,,,ウィンリッヂ,0
1439,4430001042366,登記記録の閉鎖等,0,2022-05-10,2022-04-22,株式会社居酒屋日本海,,株式会社,北海道,江別市,あけぼの町３１番地の２,,01,217,0670025,,,2022-04-22,清算の結了等,,,2015-10-05,1,,,,,イザカヤニホンカイ,0
1455,4700150056478,登記記録の閉鎖等,0,2022-05-10,2022-01-31,高松市川添土地改良区,,その他,香川県,高松市,由良町３７２番地１７,,37,201,7610441,,,2022-01-31,その他の清算の結了等,,,2015-10-09,1,,,,,タカマツシカワゾエトチカイリヨウク,0
1457,4700150099015,登記記録の閉鎖等,0,2022-05-10,2022-01-31,津波見土地改良区,,その他,長崎県,南島原市,加津佐町己２７９２番地７,,42,214,8592601,,,2022-01-31,その他の清算の結了等,,,2020-05-15,1,,,,,ツバミトチカイリヨウク,0
1490,5010403016125,登記記録の閉鎖等,0,2022-05-10,2022-04-15,合同会社クラージュ,,合同会社,東京都,千代田区,永田町２丁目１４番３号,,13,101,1000014,,,2022-04-15,清算の結了等,,,2017-02-13,1,,,,,クラージュ,0
1527,5011502006108,登記記録の閉鎖等,0,2022-05-10,2022-05-02,有限会社山賀自動車,,有限会社,東京都,北区,神谷２丁目２１番４号,,13,117,1150043,,,2022-05-02,清算の結了等,,,2015-10-05,1,,,,,ヤマガジドウシャ,0
1550,5013101000623,登記記録の閉鎖等,0,2022-05-10,2022-05-06,信栄物産株式会社,,株式会社,東京都,羽村市,羽中２丁目４番３０号,,13,227,2050015,,,2022-05-06,清算の結了等,,,2015-10-05,1,,,,,シンエイブッサン,0
1554,5013302001395,登記記録の閉鎖等,0,2022-05-10,2022-04-25,有限会社エー・エヌ・ジー,,有限会社,東京都,豊島区,駒込４丁目８番１号,,13,116,1700003,,,2022-04-25,清算の結了等,,,2015-10-05,1,,,,,エーエヌジー,0
1573,5021002064217,登記記録の閉鎖等,0,2022-05-10,2022-04-28,有限会社後藤工務店,,有限会社,神奈川県,横須賀市,野比１丁目５番４号,,14,201,2390841,,,2022-04-28,清算の結了等,,,2015-10-05,1,,,,,ゴトウコウムテン,0
1626,5110005008155,登記記録の閉鎖等,0,2022-05-10,2022-04-01,社会福祉法人きよさと福祉会,,その他の設立登記法人,新潟県,上越市,清里区岡野町１６１８番地,,15,222,9430501,,,2022-04-01,合併による解散等,3110005008149,令和４年４月１日新潟県上越市木田新田一丁目１番３号社会福祉法人上越市社会福祉協議会（3110005008149）に合併し解散,2015-10-05,1,,,,,キヨサトフクシカイ,0
1630,5120001063021,登記記録の閉鎖等,0,2022-05-10,2022-05-02,株式会社銀鍋,,株式会社,大阪府,大阪市北区,神山町８番２０号,,27,127,5300026,,,2022-05-02,合併による解散等,6120001206041,令和４年５月１日大阪市北区神山町８番２０号株式会社ステージお初天神（6120001206041）に合併し解散,2015-10-05,1,,,,,ギンナベ,0
1668,5130002033988,登記記録の閉鎖等,0,2022-05-10,2022-05-02,有限会社ＫＭ製作所,,有限会社,京都府,京丹後市,大宮町善王寺１４３０番地の１,,26,212,6292504,,,2022-05-02,清算の結了等,,,2015-10-05,1,,,,,,0
1701,5180001065747,登記記録の閉鎖等,0,2022-05-10,2022-05-02,株式会社ラクダ屋,,株式会社,愛知県,名古屋市北区,浪打町２丁目８６番地２,,23,103,4620041,,,2022-05-02,清算の結了等,,,2015-10-05,1,,,,,ラクダヤ,0
1748,5240005006732,登記記録の閉鎖等,0,2022-05-10,2022-04-07,社会福祉法人光の園,,その他の設立登記法人,広島県,廿日市市,地御前１８９５番地,,34,213,7380042,,,2022-04-07,合併による解散等,9260005003063,令和４年４月１日岡山市北区天神町６番３４号社会福祉法人みその児童福祉会（9260005003063）に合併し解散,2015-10-05,1,,,,,ヒカリノソノ,0
1763,5270002001907,登記記録の閉鎖等,0,2022-05-10,2022-05-02,有限会社ヤスキ商会,,有限会社,鳥取県,鳥取市,吉成６３８番地２,,31,201,6800864,,,2022-05-02,清算の結了等,,,2015-10-05,1,,,,,ヤスキショウカイ,0
1771,5290001053195,登記記録の閉鎖等,0,2022-05-10,2022-05-02,株式会社フジシステム,,株式会社,福岡県,みやま市,瀬高町小田２０７番地の３,,40,229,8350002,,,2022-05-02,清算の結了等,,,2015-10-05,1,,,,,フジシステム,0
1790,5340002017706,登記記録の閉鎖等,0,2022-05-10,2022-05-02,有限会社ＣＳＶ,,有限会社,鹿児島県,薩摩川内市,山之口町４６７７番地１,,46,215,8950032,,,2022-05-02,清算の結了等,,,2015-10-05,1,,,,,シーエスブイ,0
1797,5360001028132,登記記録の閉鎖等,0,2022-05-10,2022-04-21,株式会社ＦＭうるく,,株式会社,沖縄県,那覇市,字小禄７９６番地,,47,201,9010152,,,2022-04-21,清算の結了等,,,2020-12-25,1,,,,,エフエムウルク,0
1818,5700150029169,登記記録の閉鎖等,0,2022-05-10,2022-01-05,印南土地改良区,,その他,兵庫県,加古郡稲美町,国岡１丁目１,,28,381,6751115,,,2022-01-05,その他の清算の結了等,,,2015-10-09,1,,,,,インナミトチカイリヨウク,0
1819,5700150043632,登記記録の閉鎖等,0,2022-05-10,2022-01-13,吉良土地改良区,,その他,愛知県,西尾市,今川町石橋１５,,23,213,4450063,,,2022-01-13,その他の清算の結了等,,,2015-10-09,1,,,,,キラトチカイリヨウク,0
1820,5700150043681,登記記録の閉鎖等,0,2022-05-10,2022-01-13,矢作川南部土地改良区,,その他,愛知県,西尾市,今川町石橋１５,,23,213,4450063,,,2022-01-13,その他の清算の結了等,,,2015-10-09,1,,,,,ヤハギガワナンブトチカイリヨウク,0
1821,5700150061980,登記記録の閉鎖等,0,2022-05-10,2022-01-31,原尾土地改良区,,その他,長崎県,南島原市,有家町大苑１２,,42,214,8592122,,,2022-01-31,その他の清算の結了等,,,2015-10-09,1,,,,,ハラオトチカイリヨウク,0
1824,6010001015370,登記記録の閉鎖等,0,2022-05-10,2022-04-15,グローバルサービス清算株式会社,,株式会社,東京都,千代田区,麹町２丁目２番ＶＯＲＴ半蔵門ＩＩ,00116258,13,101,1020083,,,2022-04-15,清算の結了等,,,2015-10-05,1,,,,,グローバルサービスセイサン,0
1887,6011601024323,登記記録の閉鎖等,0,2022-05-10,2022-05-02,株式会社令和製薬,,株式会社,東京都,練馬区,関町北４丁目３２－３３キューブ関町北ビル５Ｆ,,13,120,1770051,,,2022-05-02,清算の結了等,,,2020-07-07,1,,,,,レイワセイヤク,0
1908,6020001065159,登記記録の閉鎖等,0,2022-05-10,2022-05-02,株式会社ケアメディコ,,株式会社,東京都,千代田区,六番町６番２０,,13,101,1020085,,,2022-05-02,合併による解散等,2010001017833,令和４年５月１日東京都千代田区六番町６番２０株式会社サンメデイコ（2010001017833）に合併し解散,2015-10-05,1,,,,,ケアメディコ,0
1963,6080101008292,登記記録の閉鎖等,0,2022-05-10,2022-05-02,株式会社オガワ,,株式会社,静岡県,富士市,石坂８５番地の２２,,22,210,4170862,,,2022-05-02,清算の結了等,,,2015-10-05,1,,,,,,0
1969,6090002010685,登記記録の閉鎖等,0,2022-05-10,2022-04-27,有限会社上野製作所,,有限会社,山梨県,山梨市,牧丘町窪平２６７番地,,19,205,4040013,,,2022-04-27,清算の結了等,,,2015-10-05,1,,,,,ウエノセイサクショ,0
1983,6120001095039,登記記録の閉鎖等,0,2022-05-10,2022-05-02,株式会社アイ・ジー・アイ,,株式会社,大阪府,大阪市西区,靱本町１丁目１７番１５号,,27,106,5500004,,,2022-05-02,合併による解散等,1120001157082,令和４年５月１日大阪府門真市向島町４番１１号岩田硝子工業株式会社（1120001157082）に合併し解散,2015-10-05,1,,,,,アイジーアイ,0
2000,6120002071914,登記記録の閉鎖等,0,2022-05-10,2022-05-02,大阪ロンタイ有限会社,,有限会社,大阪府,寝屋川市,黒原新町４番４１号,,27,215,5720059,,,2022-05-02,清算の結了等,,,2015-10-05,1,,,,,オオサカロンタイ,0
2006,6120101045488,登記記録の閉鎖等,0,2022-05-10,2022-05-02,株式会社アルゴ,,株式会社,大阪府,泉南市,樽井１丁目２番１３号泉南ビジネスセンタービル２階,,27,228,5900521,,,2022-05-02,清算の結了等,,,2015-10-05,1,,,,,アルゴ,0
2048,6160005009263,登記記録の閉鎖等,0,2022-05-10,2022-05-06,特定非営利活動法人環境アイエスオー自己宣言相互支援ネットワークジャパン,,その他の設立登記法人,滋賀県,守山市,今市町１３９番地４,,25,207,5240011,,,2022-05-06,清算の結了等,,,2015-10-05,1,,,,,カンキョウアイエスオージコセンゲンソウゴシエンネットワークジャパン,0
2051,6180001087807,登記記録の閉鎖等,0,2022-05-10,2022-04-28,水越産業株式会社,,株式会社,愛知県,岩倉市,稲荷町６５番地,,23,228,4820012,,,2022-04-28,清算の結了等,,,2015-10-05,1,,,,,ミズコシサンギョウ,0
2053,6180001118826,登記記録の閉鎖等,0,2022-05-10,2022-05-02,株式会社ＪＯＢ　ＳＨＩＰ,,株式会社,愛知県,豊明市,沓掛町丘下１２番地１ユニオンヒルズ丘下３０４,,23,229,4701101,,,2022-05-02,清算の結了等,,,2015-10-05,1,,,,,ジョブシップ,0
2055,6180002007945,登記記録の閉鎖等,0,2022-05-10,2022-04-28,有限会社建築計画連合,,有限会社,愛知県,名古屋市昭和区,妙見町１番地１３,,23,107,4660814,,,2022-04-28,清算の結了等,,,2015-10-05,1,,,,,ケンチクケイカクレンゴウ,0
2062,6180303003817,登記記録の閉鎖等,0,2022-05-10,2022-05-02,美利安合同会社,,合同会社,愛知県,豊田市,泉町３丁目１番地７,,23,211,4710803,,,2022-05-02,清算の結了等,,,2017-04-24,1,,,,,ミリアン,0
2075,6210001009559,登記記録の閉鎖等,0,2022-05-10,2022-04-28,株式会社小形米菓,,株式会社,福井県,福井市,定正町１２０１番地,,18,201,9100121,,,2022-04-28,清算の結了等,,,2015-10-05,1,,,,,オガタベイカ,0
2092,6290001032215,登記記録の閉鎖等,0,2022-05-10,2022-05-09,株式会社ファームバリュー,,株式会社,福岡県,糟屋郡新宮町,大字的野８１番地１４,,40,345,8110104,,,2022-05-09,合併による解散等,5290001003448,令和４年４月１日福岡県糟屋郡新宮町大字的野８１番地１４株式会社ダイコー物流（5290001003448）に合併し解散,2015-10-05,1,,,,,ファームバリュー,0
2097,6290002006102,登記記録の閉鎖等,0,2022-05-10,2022-05-02,有限会社みつしま,,有限会社,福岡県,福岡市東区,香椎駅東３丁目１番６号,,40,131,8130012,,,2022-05-02,清算の結了等,,,2015-10-05,1,,,,,ミツシマ,0
2102,6290005002115,登記記録の閉鎖等,0,2022-05-10,2022-05-02,福岡全水業協同組合,,その他の設立登記法人,福岡県,福岡市中央区,長浜３丁目１４番１号,,40,133,8100072,,,2022-05-02,清算の結了等,,,2015-10-05,1,,,,,フクオカゼンスイギョウ,0
2142,6460101003081,登記記録の閉鎖等,0,2022-05-10,2022-05-02,株式会社シミズ建設工業,,株式会社,北海道,上川郡清水町,北三条西６丁目８番地１,,01,636,0890122,,,2022-05-02,合併による解散等,4460101001450,令和４年５月１日北海道上川郡清水町北三条西六丁目１４番地１ヒラタ建設興業株式会社（4460101001450）に合併し解散,2015-10-05,1,,,,,シミズケンセツコウギョウ,0
2144,6460305001311,登記記録の閉鎖等,0,2022-05-10,2022-04-08,オホーツク農業共済組合,,その他の設立登記法人,北海道,北見市,美園４９７番地１,,01,208,0990879,,,2022-04-08,合併による解散等,6430005014442,令和４年４月１日札幌市中央区北四条西一丁目１番地みなみ北海道農業共済組合（8430005013054）と北海道深川市一条５番５号北海道中央農業共済組合（7450005004093）と北海道帯広市川西町基線５９番地２８十勝農業共済組合（5460105000349）と北海道標津郡中標津町西六条南十一丁目６番地１北海道ひがし農業共済組合（1460005001450）と合併して札幌市中央区北四条西一丁目１番地北海道農業共済組合（6430005014442）を設立し解散,2015-10-05,1,,,,,オホーツク,0
2147,6500002019437,登記記録の閉鎖等,0,2022-05-10,2022-05-02,有限会社渡部測量設計事務所,,有限会社,愛媛県,今治市,玉川町畑寺甲４６８番地,,38,202,7940116,,,2022-05-02,清算の結了等,,,2015-10-05,1,,,,,ワタナベソクリョウセッケイジムショ,0
2148,6700150016240,登記記録の閉鎖等,0,2022-05-10,2021-11-08,山名土地改良区,,その他,千葉県,南房総市,山名１２４８番地１,,12,234,2940802,,,2021-11-08,その他の清算の結了等,,,2015-10-09,1,,,,,ヤマナトチカイリヨウク,0
2149,6700150061971,登記記録の閉鎖等,0,2022-05-10,2022-01-31,布津北部土地改良区,,その他,長崎県,南島原市,布津町乙１６６３－１ふるさと道場２階,,42,214,8592112,,,2022-01-31,その他の清算の結了等,,,2015-10-09,1,,,,,フツホクブトチカイリヨウク,0
2150,6700150062004,登記記録の閉鎖等,0,2022-05-10,2022-01-31,大苑土地改良区,,その他,長崎県,南島原市,有家町大苑１２,,42,214,8592122,,,2022-01-31,その他の清算の結了等,,,2015-10-09,1,,,,,オオゾノトチカイリヨウク,0
2151,6700150093081,登記記録の閉鎖等,0,2022-05-10,2021-12-31,西尾上矢田西山土地区画整理組合,,その他,愛知県,西尾市,神下町８番地,,23,213,4450823,,,2021-12-31,その他の清算の結了等,,,2019-02-22,1,,,,,ニシオカミヤタニシヤマトチクカクセイリクミアイ,0
2152,6700150094617,登記記録の閉鎖等,0,2022-05-10,2022-01-31,馬場土地改良区,,その他,長崎県,南島原市,深江町丙４１９番地７,,42,214,8591503,,,2022-01-31,その他の清算の結了等,,,2019-06-07,1,,,,,ババトチカイリヨウク,0
2169,7010401085582,登記記録の閉鎖等,0,2022-05-10,2022-05-02,株式会社ジョージーズ,,株式会社,東京都,新宿区,新宿５丁目１１番１３号富士新宿ビル４階,,13,104,1600022,,,2022-05-02,清算の結了等,,,2015-10-05,1,,,,,ジョージーズ,0
2174,7010403012898,登記記録の閉鎖等,0,2022-05-10,2022-04-27,Ｕ－Ａｇｅｎｔ合同会社,,合同会社,神奈川県,川崎市川崎区,元木１丁目２－１１ライオンズマンション第１５６１１,,14,131,2100021,,,2022-04-27,清算の結了等,,,2015-10-05,1,,,,,ユーエージェント,0
2181,7010502010877,登記記録の閉鎖等,0,2022-05-10,2022-05-09,有限会社ベルリ,,有限会社,東京都,台東区,柳橋１丁目１５番５号,,13,106,1110052,,,2022-05-09,清算の結了等,,,2015-10-05,1,,,,,ベルリ,0
2182,7010503005455,登記記録の閉鎖等,0,2022-05-10,2022-05-02,合同会社ビジネスサポート,,合同会社,東京都,台東区,浅草橋１丁目２６－５－７０３,,13,106,1110053,,,2022-05-02,清算の結了等,,,2018-11-20,1,,,,,ビジネスサポート,0
2193,7010802007706,登記記録の閉鎖等,0,2022-05-10,2022-05-02,有限会社寿司平,,有限会社,東京都,大田区,大森中３丁目１４番７号,,13,111,1430014,,,2022-05-02,清算の結了等,,,2015-10-05,1,,,,,スシヘイ,0
2205,7011002028138,登記記録の閉鎖等,0,2022-05-10,2022-04-18,有限会社濱口経済研究所,,有限会社,東京都,渋谷区,広尾４丁目１番１０－８１０号,,13,113,1500012,,,2022-04-18,清算の結了等,,,2015-10-05,1,,,,,ハマグチケイザイケンキュウショ,0
2216,7011402000349,登記記録の閉鎖等,0,2022-05-10,2022-05-02,有限会社秋庭商事,,有限会社,東京都,板橋区,蓮根２丁目２７番１２号古谷野ビル３Ｆ－１４,,13,119,1740046,,,2022-05-02,清算の結了等,,,2015-10-05,1,,,,,,0
2251,7020001132668,登記記録の閉鎖等,0,2022-05-10,2022-05-06,株式会社ジオカスタムソリューションズ,,株式会社,神奈川県,横浜市戸塚区,川上町８７番地４,,14,110,2440805,,,2022-05-06,合併による解散等,2290801018961,令和４年５月１日福岡市博多区吉塚一丁目３８番２８号ジオビル株式会社ジオメディ（2290801018961）に合併し解散,2019-09-05,1,,,,,ジオカスタムソリューションズ,0
2265,7021002059339,登記記録の閉鎖等,0,2022-05-10,2022-05-02,有限会社秀工務店,,有限会社,神奈川県,平塚市,錦町１２番３号,,14,203,2540044,,,2022-05-02,清算の結了等,,,2015-10-05,1,,,,,シュウコウムテン,0
2285,7040001095392,登記記録の閉鎖等,0,2022-05-10,2022-04-28,株式会社ケイ・エス・イー,,株式会社,千葉県,市原市,西国吉４７－１,,12,219,2900231,,,2022-04-28,清算の結了等,,,2016-05-23,1,,,,,ケイエスイー,0
2303,7070001006553,登記記録の閉鎖等,0,2022-05-10,2022-04-25,カマタ建設株式会社,,株式会社,群馬県,高崎市,宮沢町１３８９番地,,10,202,3703338,,,2022-04-25,清算の結了等,,,2015-10-05,1,,,,,,0
2334,7120001162036,登記記録の閉鎖等,0,2022-05-10,2022-05-02,株式会社アドホックプラス,,株式会社,大阪府,大阪市東住吉区,桑津１丁目２３番１３号,,27,121,5460041,,,2022-05-02,合併による解散等,5120001011186,令和４年５月１日大阪市東住吉区桑津一丁目２３番１３号株式会社宮武製作所（5120001011186）に合併し解散,2015-10-05,1,,,,,アドホックプラス,0
2338,7120001244734,登記記録の閉鎖等,0,2022-05-10,2022-05-02,株式会社イオタホールディング,,株式会社,大阪府,大阪市中央区,本町４丁目２番５号,,27,128,5410053,,,2022-05-02,合併による解散等,8120001043078,令和４年４月２９日大阪市中央区本町四丁目２番５号株式会社ＩＯＴＡ（8120001043078）に合併し解散,2022-03-30,1,,,,,イオタホールディング,0
2363,7130001001003,登記記録の閉鎖等,0,2022-05-10,2022-05-02,白川染工株式会社,,株式会社,京都府,京都市右京区,山ノ内瀬戸畑町１９番地,,26,108,6150083,,,2022-05-02,清算の結了等,,,2015-10-05,1,,,,,シラカワセンコウ,0
2373,7130002001919,登記記録の閉鎖等,0,2022-05-10,2022-05-02,有限会社京都ビジネスリンケージ,,有限会社,京都府,京都市下京区,四条通室町東入函谷鉾町７８番地京都経済センター内,,26,106,6008009,,,2022-05-02,清算の結了等,,,2015-10-05,1,,,,,キョウトビジネスリンケージ,0
2436,7180302024243,登記記録の閉鎖等,0,2022-05-10,2022-04-27,有限会社廣瀬技術研究所,00075199,有限会社,愛知県,みよし市,莇生町川岸当３３番地の４,,23,236,4700206,,,2022-04-27,清算の結了等,,,2015-10-05,1,,,,,,0
2450,7210005000760,登記記録の閉鎖等,0,2022-05-10,2022-04-28,福井県鋳物工業協同組合,,その他の設立登記法人,福井県,福井市,有楽町９番１号,,18,201,9188008,,,2022-04-28,清算の結了等,,,2015-10-05,1,,,,,フクイケンイモノコウギョウ,0
2467,7270005004764,登記記録の閉鎖等,0,2022-05-10,2022-04-07,公益財団法人ごうぎん鳥取文化振興財団,,その他の設立登記法人,鳥取県,鳥取市,栄町４０２番地,,31,201,6800831,,,2022-04-07,合併による解散等,8280005006569,令和４年４月１日島根県松江市魚町１０番地公益財団法人ごうぎん島根文化振興財団（8280005006569）に合併し解散,2015-10-05,1,,,,,ゴウギントットリブンカシンコウザイダン,0
2470,7290001064034,登記記録の閉鎖等,0,2022-05-10,2022-05-09,株式会社ダイコーコーポレーション,,株式会社,福岡県,糟屋郡新宮町,大字的野８１番地１４,,40,345,8110104,,,2022-05-09,合併による解散等,5290001003448,令和４年４月１日福岡県糟屋郡新宮町大字的野８１番地１４株式会社ダイコー物流（5290001003448）に合併し解散,2015-10-05,1,,,,,ダイコーコーポレーション,0
2478,7290802023980,登記記録の閉鎖等,0,2022-05-10,2022-05-06,有限会社梅園,,有限会社,福岡県,田川市,大字弓削田３５１３番地の３,,40,206,8260041,,,2022-05-06,清算の結了等,,,2015-10-05,1,,,,,ウメゾノ,0
2503,7360001023577,登記記録の閉鎖等,0,2022-05-10,2022-04-22,ＫＡＺｐｌａｎ株式会社,,株式会社,沖縄県,中頭郡北谷町,字桑江３６４番地１１,,47,326,9040103,,,2022-04-22,清算の結了等,,,2018-02-23,1,,,,,カズプラン,0
2505,7370002005235,登記記録の閉鎖等,0,2022-05-10,2022-04-26,有限会社信共防水工業,,有限会社,宮城県,仙台市若林区,荒井５丁目１３番地の１,,04,103,9840032,,,2022-04-26,清算の結了等,,,2015-10-05,1,,,,,シンキョウボウスイコウギョウ,0
2506,7370002018807,登記記録の閉鎖等,0,2022-05-10,2022-04-25,有限会社仙台セントラルバス,,有限会社,宮城県,仙台市泉区,小角字宮１０８番２,,04,105,9813216,,,2022-04-25,清算の結了等,,,2015-10-05,1,,,,,,0
2511,7410001007789,登記記録の閉鎖等,0,2022-05-10,2022-04-28,株式会社ＴＭコンタクト,,株式会社,秋田県,秋田市,御所野元町４丁目１４番３２号,,05,201,0101414,,,2022-04-28,清算の結了等,,,2015-10-05,1,,,,,ティエムコンタクト,0
2516,7430001051793,登記記録の閉鎖等,0,2022-05-10,2022-04-22,中村建設株式会社,,株式会社,北海道,虻田郡留寿都村,字留寿都４９番地,,01,397,0481731,,,2022-04-22,清算の結了等,,,2015-10-05,1,,,,,ナカムラケンセツ,0
2533,7700150061979,登記記録の閉鎖等,0,2022-05-10,2022-01-31,古江・田中土地改良区,,その他,長崎県,南島原市,深江町丙４１９－７,,42,214,8591503,,,2022-01-31,その他の清算の結了等,,,2015-10-09,1,,,,,フルエタナカトチカイリヨウク,0
2534,7700150083908,登記記録の閉鎖等,0,2022-05-10,2022-01-31,高松市川島土地改良区,,その他,香川県,高松市,由良町３７２番地１７,,37,201,7610441,,,2022-01-31,その他の清算の結了等,,,2017-06-13,1,,,,,タカマツシカワシマトチカイリヨウク,0
2535,7700150105876,登記記録の閉鎖等,0,2022-05-10,2022-01-31,亡三田俊雄,,その他,東京都,世田谷区,深沢２丁目３－５,,13,112,1580081,,,2022-01-31,その他の清算の結了等,,,2021-11-18,1,,,,,ボウミタトシオ,0
2545,8010001216941,登記記録の閉鎖等,0,2022-05-10,2022-04-27,ＯＣＣＣＳ株式会社,,株式会社,東京都,調布市,国領町２丁目５番地１５コクティー３Ｆ産業労働支援センター内スモールオフィス２,,13,208,1820022,,,2022-04-27,清算の結了等,,,2021-04-01,1,,,,,オックス,0
2567,8010403015108,登記記録の閉鎖等,0,2022-05-10,2022-04-28,合同会社Ｌａｎｄｌｏａｄ,,合同会社,東京都,港区,浜松町２丁目２番１５号浜松町ダイヤビル２Ｆ,,13,103,1050013,,,2022-04-28,合併による解散等,5010703003772,令和４年４月１日東京都中央区銀座１－２２－１１銀座大竹ビジデンス２Ｆ合同会社ＥＳＴＡＴＥＳ（5010703003772）に合併し解散,2016-08-04,1,,,,,ランドロード,0
2569,8010601012815,登記記録の閉鎖等,0,2022-05-10,2022-04-21,株式会社タカダ,,株式会社,東京都,墨田区,東駒形４丁目１番１号,,13,107,1300005,,,2022-04-21,清算の結了等,,,2015-10-05,1,,,,,タカダ,0
2573,8010602031938,登記記録の閉鎖等,0,2022-05-10,2022-04-21,有限会社森製本,,有限会社,東京都,江東区,北砂６丁目２７番４号,,13,108,1360073,,,2022-04-21,清算の結了等,,,2015-10-05,1,,,,,モリセイホン,0
2608,8011201014895,登記記録の閉鎖等,0,2022-05-10,2022-04-25,エスケイコーポレーション株式会社,,株式会社,東京都,中野区,中央５丁目１０番２号クレアシオン７０３号,,13,114,1640011,,,2022-04-25,清算の結了等,,,2015-10-05,1,,,,,エスケイコーポレーション,0
2621,8011702006086,登記記録の閉鎖等,0,2022-05-10,2022-05-06,有限会社瑞芳産業,,有限会社,東京都,江戸川区,東瑞江２丁目４６番地,,13,123,1320014,,,2022-05-06,清算の結了等,,,2015-10-05,1,,,,,ズイホウサンギョウ,0
2623,8011802000088,登記記録の閉鎖等,0,2022-05-10,2022-04-27,有限会社相州屋,,有限会社,東京都,葛飾区,青戸３丁目３９番１２号,,13,122,1250062,,,2022-04-27,清算の結了等,,,2015-10-05,1,,,,,ソウシュウヤ,0
2636,8020001064084,登記記録の閉鎖等,0,2022-05-10,2022-05-02,広和システム株式会社,,株式会社,神奈川県,川崎市多摩区,登戸３３９８番地１,,14,135,2140014,,,2022-05-02,合併による解散等,1011001017717,令和４年４月１日東京都渋谷区桜丘町３１番１１号日本システムウエア株式会社（1011001017717）に合併し解散,2015-10-05,1,,,,,コウワシステム,0
2647,8021001032551,登記記録の閉鎖等,0,2022-05-10,2022-04-28,株式会社興電社,,株式会社,神奈川県,小田原市,寿町４丁目１６番１１号,,14,206,2500002,,,2022-04-28,清算の結了等,,,2015-10-05,1,,,,,コウデンシャ,0
2664,8030002084824,登記記録の閉鎖等,0,2022-05-10,2022-04-28,有限会社アドバンス住建,,有限会社,埼玉県,越谷市,大字下間久里１１８６番地２１,,11,222,3430045,,,2022-04-28,清算の結了等,,,2015-10-05,1,,,,,アドバンスジュウケン,0
2665,8030002085590,登記記録の閉鎖等,0,2022-05-10,2022-04-28,有限会社蒲生自動車整備工場,,有限会社,埼玉県,越谷市,登戸町４１番３２号,,11,222,3430846,,,2022-04-28,清算の結了等,,,2015-10-05,1,,,,,ガモウジドウシャセイビコウジョウ,0
2683,8050002045196,登記記録の閉鎖等,0,2022-05-10,2022-04-28,北伸物流有限会社,,有限会社,茨城県,桜川市,真壁町田６８５番地,,08,231,3004411,,,2022-04-28,清算の結了等,,,2015-10-05,1,,,,,ホクシンブツリュウ,0
2699,8080101019668,登記記録の閉鎖等,0,2022-05-10,2022-05-02,株式会社サン・エイチ,,株式会社,静岡県,伊東市,宇佐美８１３番地の３,,22,208,4140001,,,2022-05-02,清算の結了等,,,2017-03-10,1,,,,,サンエイチ,0
2724,8120001196355,登記記録の閉鎖等,0,2022-05-10,2022-05-02,株式会社エブリワン,,株式会社,大阪府,大阪市中央区,南久宝寺町１丁目６－９－３０１号,,27,128,5410058,,,2022-05-02,清算の結了等,,,2016-02-23,1,,,,,エブリワン,0
2769,8160002013308,登記記録の閉鎖等,0,2022-05-10,2022-05-02,有限会社ＺＵＥＭ,,有限会社,滋賀県,草津市,川原２丁目９番２５号,,25,206,5250021,,,2022-05-02,清算の結了等,,,2015-10-05,1,,,,,ツーエム,0
2782,8180002033337,登記記録の閉鎖等,0,2022-05-10,2022-05-02,有限会社山富商店,,有限会社,愛知県,名古屋市中区,橘１丁目２２番２３号,,23,106,4600016,,,2022-05-02,清算の結了等,,,2015-10-05,1,,,,,ヤマトミショウテン,0
2785,8180002065438,登記記録の閉鎖等,0,2022-05-10,2022-05-06,有限会社大鷲建築,,有限会社,愛知県,春日井市,牛山町２７９１番地の１６,,23,206,4860901,,,2022-05-06,清算の結了等,,,2015-10-05,1,,,,,オオワシケンチク,0
2801,8200005007161,登記記録の閉鎖等,0,2022-05-10,2022-05-09,農事組合法人七宗茶生産組合,,その他の設立登記法人,岐阜県,加茂郡七宗町,上麻生２１３４番地の１,,21,504,5090401,,,2022-05-09,清算の結了等,,,2015-10-05,1,,,,,ヒチソウチャセイサンクミアイ,0
2818,8260002020871,登記記録の閉鎖等,0,2022-05-10,2022-05-02,有限会社藤田修商店,,有限会社,岡山県,倉敷市,水島南瑞穂町１０番１６号,,33,202,7128026,,,2022-05-02,清算の結了等,,,2015-10-05,1,,,,,フジタオサムショウテン,0
2843,8310005002548,登記記録の閉鎖等,0,2022-05-10,2022-05-02,佐世保配車センター協同組合,,その他の設立登記法人,長崎県,佐世保市,広田４丁目８番５号,,42,202,8593223,,,2022-05-02,清算の結了等,,,2015-10-05,1,,,,,サセボハイシャセンター,0
2848,8330001017143,登記記録の閉鎖等,0,2022-05-10,2022-04-28,株式会社モイスティーヌ熊本北サロン,,株式会社,熊本県,熊本市北区,龍田陳内３丁目４番１号,,43,105,8618005,,,2022-04-28,清算の結了等,,,2015-10-05,1,,,,,モイスティーヌクマモトキタサロン,0
2879,8430005004350,登記記録の閉鎖等,0,2022-05-10,2022-04-22,特定非営利活動法人障害者自立生活センター・ＩＬ－ｉｓｍ,,その他の設立登記法人,北海道,札幌市豊平区,中の島一条３丁目４番１７－１０３号,,01,105,0620921,,,2022-04-22,清算の結了等,,,2015-10-05,1,,,,,ショウガイシャジリツセイカツセンターアイエルイズム,0
2880,8430005012353,登記記録の閉鎖等,0,2022-05-10,2022-04-22,特定非営利活動法人ＬＩＦＥ　ＩＮＮＯＶＡＴＩＯＮ,,その他の設立登記法人,北海道,札幌市清田区,平岡二条３丁目７番８号,,01,110,0040872,,,2022-04-22,清算の結了等,,,2015-10-05,1,,,,,ライフイノベーション,0
2892,8490001005710,登記記録の閉鎖等,0,2022-05-10,2022-04-27,株式会社ゆったり,,株式会社,高知県,高岡郡日高村,下分字北ノ町２３０番地２,,39,410,7812151,,,2022-04-27,清算の結了等,,,2015-10-05,1,,,,,ユッタリ,0
2894,8500002019872,登記記録の閉鎖等,0,2022-05-10,2022-05-02,大山工業有限会社,,有限会社,愛媛県,今治市,大西町九王甲２１１６番地３,,38,202,7992201,,,2022-05-02,清算の結了等,,,2015-10-05,1,,,,,ダイヤマコウギョウ,0
2896,8700150092651,登記記録の閉鎖等,0,2022-05-10,2022-01-31,高松市十河土地改良区,,その他,香川県,高松市,由良町３７２番地１７,,37,201,7610441,,,2022-01-31,その他の清算の結了等,,,2019-01-29,1,,,,,タカマツシソガワトチカイリヨウク,0
2926,9010405018743,登記記録の閉鎖等,0,2022-05-10,2022-04-18,ＲＢソーラー伊達ホールディングス一般社団法人,,その他の設立登記法人,東京都,港区,虎ノ門３丁目２２番１０－２０１号,,13,103,1050001,,,2022-04-18,清算の結了等,,,2020-05-28,1,,,,,アールビーソーラーダテホールディングス,0
2935,9010701016401,登記記録の閉鎖等,0,2022-05-10,2022-04-25,株式会社共和ＩＷＤ,,株式会社,群馬県,高崎市,下小鳥町７４番１号,,10,202,3700074,,,2022-04-25,清算の結了等,,,2015-10-05,1,,,,,キョウワアイダブリュディー,0
2973,9011603001887,登記記録の閉鎖等,0,2022-05-10,2022-05-02,合同会社クラック,,合同会社,東京都,練馬区,高松４丁目５番４号,,13,120,1790075,,,2022-05-02,清算の結了等,,,2016-07-12,1,,,,,クラック,0
3052,9080101014387,登記記録の閉鎖等,0,2022-05-10,2022-05-06,株式会社善積,,株式会社,静岡県,伊東市,池６１４番地の１４０,,22,208,4130234,,,2022-05-06,合併による解散等,7080001009092,令和４年５月１日静岡市清水区春日一丁目２番１２号株式会社ホクサン（7080001009092）に合併し解散,2015-10-05,1,,,,,ヨシヅミ,0
3058,9100001023907,登記記録の閉鎖等,0,2022-05-10,2022-05-02,株式会社ＺＥＮエンタープライズ,,株式会社,長野県,下伊那郡阿南町,新野１３５８番地,,20,404,3991612,,,2022-05-02,清算の結了等,,,2015-10-05,1,,,,,ゼンエンタープライズ,0
3077,9120001148149,登記記録の閉鎖等,0,2022-05-10,2022-05-02,株式会社ＷＩＳ,,株式会社,大阪府,寝屋川市,北大利町２１番１９号,,27,215,5720032,,,2022-05-02,清算の結了等,,,2015-10-05,1,,,,,ダブルアイエス,0
3082,9120001198004,登記記録の閉鎖等,0,2022-05-10,2022-05-06,大建プラスチックス株式会社,,株式会社,大阪府,大阪市中央区,平野町２丁目２番１２号,,27,128,5410046,,,2022-05-06,清算の結了等,,,2016-05-09,1,,,,,ダイケンプラスチックス,0
3113,9140001029074,登記記録の閉鎖等,0,2022-05-10,2022-05-02,グローリー・トータルマネジメント・リサーチ株式会社,,株式会社,兵庫県,神戸市兵庫区,菊水町５丁目４番５号,,28,105,6520058,,,2022-05-02,清算の結了等,,,2015-10-05,1,,,,,グローリートータルマネジメントリサーチ,0
3115,9140001060475,登記記録の閉鎖等,0,2022-05-10,2022-05-02,株式会社西日本住宅,,株式会社,兵庫県,姫路市,白鳥台２丁目４番１号,,28,201,6712245,,,2022-05-02,清算の結了等,,,2015-10-05,1,,,,,ニシニホンジュウタク,0
3121,9140002040237,登記記録の閉鎖等,0,2022-05-10,2022-05-02,有限会社大海住健,,有限会社,兵庫県,尼崎市,東園田町８丁目１１０番地の３０,,28,202,6610953,,,2022-05-02,清算の結了等,,,2015-10-05,1,,,,,タイカイジュウケン,0
3154,9180301015464,登記記録の閉鎖等,0,2022-05-10,2022-04-28,株式会社白鳳瓦,,株式会社,愛知県,碧南市,浜尾町２丁目３１番地,,23,209,4470055,,,2022-04-28,清算の結了等,,,2015-10-05,1,,,,,ハクホウガワラ,0
3155,9180301025414,登記記録の閉鎖等,0,2022-05-10,2022-04-27,株式会社パスタイム,,株式会社,愛知県,豊橋市,多米西町１丁目４番地１１,,23,201,4400026,,,2022-04-27,清算の結了等,,,2015-10-05,1,,,,,パスタイム,0
3158,9180302011702,登記記録の閉鎖等,0,2022-05-10,2022-04-26,有限会社ビーエス・トラスト,,有限会社,愛知県,豊橋市,天伯町字高田山４３番地の１４,,23,201,4418122,,,2022-04-26,清算の結了等,,,2015-10-05,1,,,,,ビーエストラスト,0
3159,9180302019539,登記記録の閉鎖等,0,2022-05-10,2022-04-28,有限会社とりい,,有限会社,愛知県,知立市,池端２丁目２６番地,,23,225,4720025,,,2022-04-28,清算の結了等,,,2015-10-05,1,,,,,トリイ,0
3161,9190001026298,登記記録の閉鎖等,0,2022-05-10,2022-04-01,株式会社ｏｐｓｏｌ　ｂｏｏｋ,,株式会社,三重県,伊勢市,小俣町元町６２３番１,,24,203,5190503,,,2022-04-01,合併による解散等,4190001024348,令和４年４月１日三重県伊勢市小俣町元町６２３番１ｏｐｓｏｌ株式会社（4190001024348）に吸収合併し解散,2019-04-05,1,,,,,オプソルブック,0
3167,9200005011261,登記記録の閉鎖等,0,2022-05-10,2022-05-02,一般社団法人花火師塾,,その他の設立登記法人,岐阜県,大垣市,島町６４３番地,,21,202,5030996,,,2022-05-02,清算の結了等,,,2015-10-05,1,,,,,ハナビシジュク,0
3190,9290001087041,登記記録の閉鎖等,0,2022-05-10,2022-04-28,ダイワ販売株式会社,,株式会社,福岡県,糟屋郡宇美町,宇美６丁目５番１１号,,40,341,8112101,,,2022-04-28,清算の結了等,,,2019-11-12,1,,,,,ダイワハンバイ,0
3205,9300001005083,登記記録の閉鎖等,0,2022-05-10,2022-04-06,パナソニック　デバイス佐賀株式会社,,株式会社,佐賀県,杵島郡大町町,大字福母２１７番地,,41,423,8492102,,,2022-04-06,合併による解散等,5120001235594,令和４年４月１日大阪府門真市大字門真１００６番地パナソニックインダストリー株式会社（5120001235594）に合併し解散,2015-10-05,1,,,,,パナソニックデバイスサガ,0
3232,9370001007123,登記記録の閉鎖等,0,2022-05-10,2022-04-25,岩崎文具株式会社,,株式会社,宮城県,仙台市青葉区,宮町４丁目７番７号,,04,101,9800004,,,2022-04-25,清算の結了等,,,2015-10-05,1,,,,,イワサキブング,0
3273,9500001011474,登記記録の閉鎖等,0,2022-05-10,2022-05-02,協和製袋株式会社,,株式会社,愛媛県,今治市,天保山町２丁目１番地の３,,38,202,7940032,,,2022-05-02,清算の結了等,,,2015-10-05,1,,,,,キョウワセイタイ,0
3277,9500002006804,登記記録の閉鎖等,0,2022-05-10,2022-05-02,有限会社明香電機,,有限会社,愛媛県,松山市,勝岡町８６番地６,,38,201,7992661,,,2022-05-02,清算の結了等,,,2015-10-05,1,,,,,メイコウデンキ,0
3280,9700150022871,登記記録の閉鎖等,0,2022-05-10,2021-12-30,柏崎中央労務管理協会,,その他,新潟県,柏崎市,学校町４－７５－２０１,,15,205,9450065,,,2021-12-30,その他の清算の結了等,,,2015-10-09,1,,,,,カシワザキチユウオウロウムカンリキヨウカイ,0
3281,9700150056481,登記記録の閉鎖等,0,2022-05-10,2022-01-31,高松市前田土地改良区,,その他,香川県,高松市,由良町３７２番地１７,,37,201,7610441,,,2022-01-31,その他の清算の結了等,,,2015-10-09,1,,,,,タカマツシマエダトチカイリヨウク,0
3282,9700150061944,登記記録の閉鎖等,0,2022-05-10,2022-01-31,釘山土地改良区,,その他,長崎県,南島原市,北有馬町戊２７４９,,42,214,8592305,,,2022-01-31,その他の清算の結了等,,,2015-10-09,1,,,,,クギヤマトチカイリヨウク,0
3283,9700150061960,登記記録の閉鎖等,0,2022-05-10,2022-01-31,諏訪土地改良区,,その他,長崎県,南島原市,深江町丙４１９－７,,42,214,8591503,,,2022-01-31,その他の清算の結了等,,,2015-10-09,1,,,,,スワトチカイリヨウク,0
3284,9700150061969,登記記録の閉鎖等,0,2022-05-10,2022-01-31,原山土地改良区,,その他,長崎県,南島原市,北有馬町戊２７４９,,42,214,8592305,,,2022-01-31,その他の清算の結了等,,,2015-10-09,1,,,,,ハラヤマトチカイリヨウク,0
3285,9700150072454,登記記録の閉鎖等,0,2022-05-10,2021-12-31,ピース・アーチ・ひろしまプロジェクト実行委員会,,その他,広島県,広島市中区,基町１０－５２広島県文化芸術課内,,34,101,7300011,,,2021-12-31,その他の清算の結了等,,,2016-04-05,1,,,,,ピースアーチヒロシマプロジエクトジツコウイインカイ,0
