sequenceNumber,corporateNumber,process,correct,updateDate,changeDate,name,nameImageId,kind,prefectureName,cityName,streetNumber,addressImageId,prefectureCode,cityCode,postCode,addressOutside,addressOutsideImageId,closeDate,closeCause,successorCorporateNumber,changeCause,assignmentDate,latest,enName,enPrefectureName,enCityName,enAddressOutside,furigana,hihyoji
50,1011001121163,登記記録の閉鎖等,0,2021-12-14,2021-12-06,Ｌ　Ｃａｐｉｔａｌ　ＴＯＫＹＯ株式会社,,株式会社,東京都,港区,芝公園２丁目１１番１号,,13,103,1050011,,,2021-12-06,合併による解散等,7010401099079,令和３年１２月１日東京都港区芝公園二丁目１１番１号ラオックス株式会社（7010401099079）に合併し解散,2018-03-15,1,,,,,エルキャピタルトウキョウ,0
51,1011001138595,登記記録の閉鎖等,0,2021-12-14,2021-12-08,ｉＹｅｌｌ　Ｃｈａｎｎｅｌ株式会社,,株式会社,東京都,渋谷区,道玄坂２丁目１０番７号,,13,113,1500043,,,2021-12-08,合併による解散等,9011001110927,令和３年１１月３０日東京都渋谷区道玄坂二丁目１０番７号ｉＹｅｌｌ株式会社（9011001110927）に合併し解散,2021-02-22,1,,,,,イエールチャンネル,0
77,1012302000469,登記記録の閉鎖等,0,2021-12-14,2021-12-01,有限会社イビサ,,有限会社,東京都,町田市,原町田６丁目１５番２号,,13,209,1940013,,,2021-12-01,合併による解散等,7012301001727,令和３年１２月１日東京都町田市原町田１－４－８株式会社東和工営（7012301001727）に合併し解散,2015-10-05,1,,,,,イビサ,0
98,1020001042344,登記記録の閉鎖等,0,2021-12-14,2021-12-09,株式会社アイ・シー・ティー　二十一,,株式会社,東京都,新宿区,四谷４丁目３４番１号,,13,104,1600004,,,2021-12-09,清算の結了等,,,2015-10-05,1,,,,,アイシーティーニジュウイチ,0
107,1020002025439,登記記録の閉鎖等,0,2021-12-14,2021-12-10,有限会社旭オフセツト印刷所,,有限会社,神奈川県,横浜市神奈川区,旭ケ丘８番７号,,14,102,2210814,,,2021-12-10,清算の結了等,,,2015-10-05,1,,,,,アサヒオフセットインサツショ,0
115,1030001014318,登記記録の閉鎖等,0,2021-12-14,2021-12-10,株式会社ナリア都市開発,,株式会社,埼玉県,さいたま市南区,沼影１丁目１２番１号,,11,108,3360027,,,2021-12-10,清算の結了等,,,2015-10-05,1,,,,,ナリアトシカイハツ,0
131,1040001116393,登記記録の閉鎖等,0,2021-12-14,2021-12-09,株式会社ベースビルド,,株式会社,千葉県,香取市,佐原イ１９０３番地２,,12,236,2870003,,,2021-12-09,清算の結了等,,,2020-12-23,1,,,,,ベースビルド,0
135,1040002077899,登記記録の閉鎖等,0,2021-12-14,2021-12-10,有限会社大島屋洋品店,,有限会社,千葉県,山武郡九十九里町,片貝３５７２番地２,,12,403,2830104,,,2021-12-10,清算の結了等,,,2015-10-05,1,,,,,オオシマヤヨウヒンテン,0
165,1120001021759,登記記録の閉鎖等,0,2021-12-14,2021-12-09,株式会社丸の内,,株式会社,大阪府,大阪市平野区,加美北９丁目１０番４号,,27,126,5470001,,,2021-12-09,清算の結了等,,,2015-10-05,1,,,,,マルノウチ,0
168,1120001043869,登記記録の閉鎖等,0,2021-12-14,2021-12-10,ジョー・ブラスコ・ジャパン株式会社,,株式会社,大阪府,大阪市西区,北堀江１丁目１番２７号,,27,106,5500014,,,2021-12-10,清算の結了等,,,2015-10-05,1,,,,,ジョーブラスコジャパン,0
172,1120001126665,登記記録の閉鎖等,0,2021-12-14,2021-12-01,株式会社ロサージュ,,株式会社,大阪府,大阪市北区,天神橋４丁目３番１７－３０３号,,27,127,5300041,,,2021-12-01,合併による解散等,3120001113117,令和３年１２月１日大阪市北区天神橋四丁目３番１７－３０３号株式会社ルーヴル（3120001113117）に合併し解散,2015-10-05,1,,,,,ロサージュ,0
207,1140005022181,登記記録の閉鎖等,0,2021-12-14,2021-12-09,一般社団法人フリージー,,その他の設立登記法人,兵庫県,神崎郡福崎町,西田原１４２番地,,28,443,6792204,,,2021-12-09,清算の結了等,,,2015-10-05,1,,,,,フリージー,0
258,1290005012671,登記記録の閉鎖等,0,2021-12-14,2021-11-30,天理教泉大分教会,,その他の設立登記法人,福岡県,大牟田市,一部町５０番地,,40,202,8360085,,,2021-11-30,合併による解散等,3290805006747,令和３年１１月２２日福岡県行橋市行事五丁目１６番１５号天理教京都分教会（3290805006747）に合併し解散,2015-10-05,1,,,,,テンリキョウイズミダイブンキョウカイ,0
288,1370302001030,登記記録の閉鎖等,0,2021-12-14,2021-12-08,有限会社佐藤屋,,有限会社,宮城県,石巻市,駅前北通り４丁目７番２９号,,04,202,9860813,,,2021-12-08,清算の結了等,,,2015-10-05,1,,,,,サトウヤ,0
309,1430002037921,登記記録の閉鎖等,0,2021-12-14,2021-12-10,有限会社ＹＣライフネット,,有限会社,北海道,札幌市中央区,南十七条西１３丁目１番３６号,,01,101,0640917,,,2021-12-10,清算の結了等,,,2015-10-05,1,,,,,ワイシーライフネット,0
311,1430002063686,登記記録の閉鎖等,0,2021-12-14,2021-12-09,洞爺食品有限会社,,有限会社,北海道,虻田郡洞爺湖町,栄町７２番地,,01,584,0495604,,,2021-12-09,清算の結了等,,,2015-10-05,1,,,,,トウヤショクヒン,0
336,2010401069862,登記記録の閉鎖等,0,2021-12-14,2021-12-06,株式会社インターブレーン,,株式会社,東京都,港区,新橋６丁目７番２号,,13,103,1050004,,,2021-12-06,清算の結了等,,,2015-10-05,1,,,,,インターブレーン,0
341,2010401149870,登記記録の閉鎖等,0,2021-12-14,2021-12-07,株式会社ＮＢキャピタル,,株式会社,東京都,港区,虎ノ門３丁目２２番１０－２０１号,,13,103,1050001,,,2021-12-07,清算の結了等,,,2019-12-13,1,,,,,エヌビーキャピタル,0
348,2010802008799,登記記録の閉鎖等,0,2021-12-14,2021-12-08,竹涛産業有限会社,,有限会社,東京都,大田区,東糀谷５丁目１５番２５号,,13,111,1440033,,,2021-12-08,清算の結了等,,,2015-10-05,1,,,,,タケナミサンギョウ,0
353,2010901043788,登記記録の閉鎖等,0,2021-12-14,2021-12-10,株式会社Ｈｏｍｅｋｕｒｕ,,株式会社,東京都,世田谷区,成城４丁目３３番３－３０４号,,13,112,1570066,,,2021-12-10,清算の結了等,,,2019-03-11,1,,,,,ホムクル,0
371,2011002007014,登記記録の閉鎖等,0,2021-12-14,2021-12-01,有限会社誠実堂,,有限会社,東京都,渋谷区,神宮前１丁目９番１１号,,13,113,1500001,,,2021-12-01,合併による解散等,3011002010487,令和３年１２月１日東京都渋谷区神宮前一丁目９番１１号株式会社百七十五番館商事（3011002010487）に合併し解散,2015-10-05,1,,,,,セイジツドウ,0
375,2011101019406,登記記録の閉鎖等,0,2021-12-14,2021-12-09,ペック有機開発株式会社,,株式会社,東京都,新宿区,西新宿３丁目５番１２号,,13,104,1600023,,,2021-12-09,清算の結了等,,,2015-10-05,1,,,,,,0
377,2011101083419,登記記録の閉鎖等,0,2021-12-14,2021-12-13,株式会社ＫＯＰＩＡ,,株式会社,東京都,板橋区,前野町３丁目１８－１ファーストヴィレッジ２０５号,,13,119,1740063,,,2021-12-13,清算の結了等,,,2018-03-06,1,,,,,コピア,0
422,2020001117582,登記記録の閉鎖等,0,2021-12-14,2021-12-10,新日本ホーム株式会社,,株式会社,神奈川県,川崎市川崎区,台町１９番１１号,,14,131,2100814,,,2021-12-10,清算の結了等,,,2016-08-23,1,,,,,シンニホンホーム,0
427,2020002085218,登記記録の閉鎖等,0,2021-12-14,2021-12-07,有限会社マルテイ,,有限会社,神奈川県,川崎市中原区,井田中ノ町２６番５号,,14,133,2110034,,,2021-12-07,清算の結了等,,,2015-10-05,1,,,,,マルテイ,0
436,2030001074765,登記記録の閉鎖等,0,2021-12-14,2021-12-09,幸福化学工業株式会社,,株式会社,埼玉県,川口市,弥平２丁目１番９号,,11,203,3320002,,,2021-12-09,清算の結了等,,,2015-10-05,1,,,,,コウフクカガクコウギョウ,0
437,2030001088402,登記記録の閉鎖等,0,2021-12-14,2021-12-10,株式会社あすなろ,,株式会社,埼玉県,熊谷市,奈良新田３９３番地１,,11,202,3600806,,,2021-12-10,清算の結了等,,,2015-10-05,1,,,,,アスナロ,0
438,2030001092635,登記記録の閉鎖等,0,2021-12-14,2021-12-13,株式会社輝和,,株式会社,東京都,足立区,六木４丁目５番９－２０号室,,13,121,1210052,,,2021-12-13,清算の結了等,,,2015-10-05,1,,,,,コウワ,0
448,2040001119809,登記記録の閉鎖等,0,2021-12-14,2021-12-09,株式会社日下芸術企画,,株式会社,千葉県,柏市,大室１４９９番地４９,,12,217,2770813,,,2021-12-09,清算の結了等,,,2021-08-18,1,,,,,クサカゲイジュツキカク,0
452,2040002068633,登記記録の閉鎖等,0,2021-12-14,2021-12-09,有限会社藤栄基礎,,有限会社,千葉県,袖ケ浦市,野田８６番地１６,,12,229,2990244,,,2021-12-09,清算の結了等,,,2015-10-05,1,,,,,トウエイキソ,0
463,2080102002083,登記記録の閉鎖等,0,2021-12-14,2021-12-09,有限会社園田保温,,有限会社,静岡県,沼津市,東椎路１４９８番地の５,,22,203,4100302,,,2021-12-09,清算の結了等,,,2015-10-05,1,,,,,ソノダホオン,0
467,2100002004854,登記記録の閉鎖等,0,2021-12-14,2021-12-09,有限会社丸清吉澤商会,,有限会社,長野県,長野市,大字稲葉１０３４番地の２,,20,201,3800911,,,2021-12-09,清算の結了等,,,2015-10-05,1,,,,,マルキヨヨシザワショウカイ,0
470,2110001025041,登記記録の閉鎖等,0,2021-12-14,2021-12-07,株式会社ハウゼ,,株式会社,新潟県,見附市,庄川町８７２番地,,15,211,9540016,,,2021-12-07,合併による解散等,5110001025055,令和３年１２月１日新潟県見附市庄川町８７２番地株式会社本間材木店（5110001025055）に合併し解散,2015-10-05,1,,,,,ハウゼ,0
484,2120101037968,登記記録の閉鎖等,0,2021-12-14,2021-12-07,株式会社井上水道工業所,,株式会社,大阪府,貝塚市,木積６８９番地,,27,208,5970102,,,2021-12-07,清算の結了等,,,2015-10-05,1,,,,,イノウエスイドウコウギョウショ,0
486,2120102002640,登記記録の閉鎖等,0,2021-12-14,2021-12-08,有限会社泉北計算センター,,有限会社,大阪府,堺市南区,竹城台３丁１７番３号,,27,145,5900105,,,2021-12-08,清算の結了等,,,2015-10-05,1,,,,,センボクケイサンセンター,0
495,2140001105162,登記記録の閉鎖等,0,2021-12-14,2021-12-09,サハラ機械株式会社,,株式会社,兵庫県,加古郡稲美町,下草谷４４１番地の１２７,,28,381,6751101,,,2021-12-09,清算の結了等,,,2017-02-23,1,,,,,サハラキカイ,0
503,2140003015995,登記記録の閉鎖等,0,2021-12-14,2021-12-09,合同会社ショウコ,,合同会社,兵庫県,神戸市灘区,琵琶町１丁目７番３号,,28,102,6570041,,,2021-12-09,清算の結了等,,,2021-03-05,1,,,,,ショウコ,0
509,2160002006936,登記記録の閉鎖等,0,2021-12-14,2021-12-10,有限会社ふじい,,有限会社,滋賀県,長浜市,宮司町５４２番地の７,,25,203,5260831,,,2021-12-10,清算の結了等,,,2015-10-05,1,,,,,フジイ,0
585,2390002013406,登記記録の閉鎖等,0,2021-12-14,2021-12-06,有限会社丸祐,,有限会社,山形県,米沢市,春日１丁目１番６号,,06,202,9920044,,,2021-12-06,清算の結了等,,,2015-10-05,1,,,,,マルユウ,0
588,2430001022782,登記記録の閉鎖等,0,2021-12-14,2021-12-10,マルエスサントー開発株式会社,,株式会社,北海道,札幌市中央区,南一条西２２丁目１番１７号,,01,101,0640801,,,2021-12-10,清算の結了等,,,2015-10-05,1,,,,,マルエスサントーカイハツ,0
597,2450001011313,登記記録の閉鎖等,0,2021-12-14,2021-12-13,株式会社リノベーション,,株式会社,北海道,旭川市,永山六条６丁目６番３号,,01,204,0798416,,,2021-12-13,清算の結了等,,,2015-10-05,1,,,,,リノベーション,0
607,2700150007474,登記記録の閉鎖等,0,2021-12-14,2020-09-02,目黒駅前地区市街地再開発組合,,その他,東京都,品川区,上大崎２丁目１５－１９,,13,109,1410021,,,2020-09-02,その他の清算の結了等,,,2015-10-09,1,,,,,メグロエキマエチクシガイチサイカイハツクイアイ,0
613,3010001068842,登記記録の閉鎖等,0,2021-12-14,2021-12-10,イー・シーシーエスジャパン株式会社,,株式会社,東京都,中央区,日本橋人形町１丁目１番２２号,,13,102,1030013,,,2021-12-10,清算の結了等,,,2015-10-05,1,,,,,イーシーシーエスジャパン,0
621,3010003025288,登記記録の閉鎖等,0,2021-12-14,2021-12-10,合同会社グローバルブリッジ,,合同会社,東京都,新宿区,天神町３７－２フリーディオ神楽坂７０３,,13,104,1620808,,,2021-12-10,清算の結了等,,,2017-05-11,1,,,,,グローバルブリッジ,0
623,3010005013786,登記記録の閉鎖等,0,2021-12-14,2021-12-08,ＳＨ　Ｐ－Ｌｉｆｅ　Ｍａｔｓｕｄｏ一般社団法人,,その他の設立登記法人,東京都,港区,赤坂２丁目１０番５号税理士法人赤坂国際会計事務所内,,13,103,1070052,,,2021-12-08,清算の結了等,,,2015-10-05,1,,,,,エスエイチピーライフマツド,0
625,3010401003399,登記記録の閉鎖等,0,2021-12-14,2021-12-03,イエシッピング株式会社,,株式会社,東京都,港区,新橋６丁目１０番２号第二新洋ビル３階,,13,103,1050004,,,2021-12-03,清算の結了等,,,2015-10-05,1,,,,,イエシッピング,0
647,3011001048628,登記記録の閉鎖等,0,2021-12-14,2021-12-01,トーア商事株式会社,,株式会社,東京都,渋谷区,神南１丁目２０番１６号,,13,113,1500041,,,2021-12-01,合併による解散等,9011001018550,令和３年１２月１日東京都渋谷区神南一丁目２０番１６号高山ランド株式会社（9011001018550）に合併し解散,2015-10-05,1,,,,,トーアショウジ,0
663,3011302008388,登記記録の閉鎖等,0,2021-12-14,2021-12-09,有限会社ホープ印刷,,有限会社,東京都,杉並区,阿佐谷南３丁目３番２４号,,13,115,1660004,,,2021-12-09,清算の結了等,,,2015-10-05,1,,,,,ホープインサツ,0
674,3011802027359,登記記録の閉鎖等,0,2021-12-14,2021-12-13,有限会社日下部ボルト,,有限会社,東京都,足立区,西新井５丁目４１番１７号,,13,121,1230841,,,2021-12-13,清算の結了等,,,2015-10-05,1,,,,,,0
675,3012303001225,登記記録の閉鎖等,0,2021-12-14,2021-12-03,合同会社とちラボ,,合同会社,東京都,町田市,上小山田町３０１５番地１０,,13,209,1940201,,,2021-12-03,清算の結了等,,,2019-01-11,1,,,,,トチラボ,0
720,3040002050045,登記記録の閉鎖等,0,2021-12-14,2021-12-07,有限会社シマジリ機工,,有限会社,千葉県,松戸市,稔台６丁目１０番地の１,,12,207,2702231,,,2021-12-07,清算の結了等,,,2015-10-05,1,,,,,,0
730,3060001018487,登記記録の閉鎖等,0,2021-12-14,2021-12-08,株式会社亀二,,株式会社,栃木県,足利市,大沼田町４６１番地,,09,202,3260011,,,2021-12-08,清算の結了等,,,2015-10-05,1,,,,,カメニ,0
747,3080401014464,登記記録の閉鎖等,0,2021-12-14,2021-12-08,株式会社富士商会,,株式会社,静岡県,掛川市,仁藤町１番地の１,,22,213,4360075,,,2021-12-08,清算の結了等,,,2015-10-05,1,,,,,フジショウカイ,0
771,3120101000157,登記記録の閉鎖等,0,2021-12-14,2021-12-09,株式会社亜歩未,,株式会社,大阪府,堺市堺区,甲斐町西２丁１番１１－９０６号,,27,141,5900950,,,2021-12-09,清算の結了等,,,2015-10-05,1,,,,,アブミ,0
782,3140001066783,登記記録の閉鎖等,0,2021-12-14,2021-12-10,株式会社ヒガシタニ,,株式会社,兵庫県,三田市,志手原８９３番地の５１,,28,219,6691506,,,2021-12-10,清算の結了等,,,2015-10-05,1,,,,,ヒガシタニ,0
790,3140002039359,登記記録の閉鎖等,0,2021-12-14,2021-12-10,有限会社アンデス,,有限会社,兵庫県,朝来市,山東町末歳１６６番地の６,,28,225,6695104,,,2021-12-10,清算の結了等,,,2015-10-05,1,,,,,アンデス,0
800,3160005010538,登記記録の閉鎖等,0,2021-12-14,2021-12-09,農事組合法人杉谷南ファーム,,その他の設立登記法人,滋賀県,甲賀市,甲南町杉谷５８番地１,,25,209,5203314,,,2021-12-09,清算の結了等,,,2018-02-22,1,,,,,スギタニミナミファーム,0
804,3170002004847,登記記録の閉鎖等,0,2021-12-14,2021-12-10,有限会社システム・マネージメント,,有限会社,和歌山県,和歌山市,南出島２８番１１,,30,201,6408318,,,2021-12-10,清算の結了等,,,2015-10-05,1,,,,,システムマネージメント,0
846,3290802021889,登記記録の閉鎖等,0,2021-12-14,2021-12-01,有限会社豊前商事,,有限会社,福岡県,豊前市,大字岸井４６５番地の３,,40,214,8280043,,,2021-12-01,合併による解散等,6290801015121,令和３年１２月１日福岡県豊前市大字久路土１５９０番地豊前・宇部コンクリート工業株式会社（6290801015121）に合併し解散,2015-10-05,1,,,,,ブゼンショウジ,0
860,3360001012666,登記記録の閉鎖等,0,2021-12-14,2021-12-08,株式会社アースノート,,株式会社,沖縄県,名護市,字伊差川４９８番地１城東ハウス４０３,,47,209,9051152,,,2021-12-08,清算の結了等,,,2015-10-05,1,,,,,アースノート,0
881,3410001008015,登記記録の閉鎖等,0,2021-12-14,2021-12-06,田畑建設株式会社,,株式会社,秋田県,大仙市,藤木字中野中１０番地,,05,212,0141412,,,2021-12-06,清算の結了等,,,2021-11-12,1,,,,,タバタケンセツ,0
883,3410003000531,登記記録の閉鎖等,0,2021-12-14,2021-12-10,合名会社ワタベ・テーラー,,合名会社,秋田県,秋田市,南通みその町１番５号,,05,201,0100012,,,2021-12-10,清算の結了等,,,2015-10-05,1,,,,,ワタベテーラー,0
891,3430002011783,登記記録の閉鎖等,0,2021-12-14,2021-12-09,有限会社大万ビル,,有限会社,北海道,札幌市中央区,南三条西２丁目１２番地１,,01,101,0600063,,,2021-12-09,清算の結了等,,,2015-10-05,1,,,,,ダイマンビル,0
927,4010001127754,登記記録の閉鎖等,0,2021-12-14,2021-12-09,株式会社大善,,株式会社,東京都,中央区,築地６丁目１９番２１－２００６号,,13,102,1040045,,,2021-12-09,清算の結了等,,,2015-10-05,1,,,,,ダイゼン,0
930,4010001219592,登記記録の閉鎖等,0,2021-12-14,2021-11-30,徳遠株式会社,,株式会社,東京都,中央区,築地４丁目４－１４ラフィネ東銀座７０９,,13,102,1040045,,,2021-11-30,合併による解散等,2030001098186,令和３年１１月２４日神奈川県藤沢市湘南台一丁目２１番３号株式会社中福商店（2030001098186）に合併し解散,2021-07-07,1,,,,,トクエン,0
937,4010101010026,登記記録の閉鎖等,0,2021-12-14,2021-12-01,平岩産業株式会社,,株式会社,東京都,八王子市,狭間町１４５８番地の７,,13,201,1930941,,,2021-12-01,合併による解散等,6010101001948,令和３年１２月１日東京都八王子市狭間町１４５８番地７西武電機株式会社（6010101001948）に合併し解散,2015-10-05,1,,,,,ヒライワサンギョウ,0
957,4011001135615,登記記録の閉鎖等,0,2021-12-14,2021-12-01,株式会社ＣｙｂｅｒＡｒｒｏｗ,,株式会社,東京都,渋谷区,宇田川町４０番１号,,13,113,1500042,,,2021-12-01,合併による解散等,2011001133637,令和３年１２月１日東京都渋谷区宇田川町４０番１号株式会社ＯＥＮ（2011001133637）に合併し解散,2020-09-07,1,,,,,サイバーアロー,0
968,4011401002935,登記記録の閉鎖等,0,2021-12-14,2021-12-10,株式会社神成工務店,,株式会社,東京都,板橋区,赤塚４丁目７番１０号,00065536,13,119,1750092,,,2021-12-10,清算の結了等,,,2015-10-05,1,,,,,カンナリコウムテン,0
969,4011401019855,登記記録の閉鎖等,0,2021-12-14,2021-12-13,東京北宝商事株式会社,,株式会社,東京都,板橋区,三園２丁目１７番１３号,,13,119,1750091,,,2021-12-13,清算の結了等,,,2016-11-17,1,,,,,トウキョウホッポウショウジ,0
998,4020001135426,登記記録の閉鎖等,0,2021-12-14,2021-12-10,セネジェニックスメディカル株式会社,,株式会社,神奈川県,横浜市神奈川区,青木町２番地６,,14,102,2210057,,,2021-12-10,清算の結了等,,,2020-03-25,1,,,,,セネジェニックスメディカル,0
1009,4021002056891,登記記録の閉鎖等,0,2021-12-14,2021-12-08,丸皇有限会社,,有限会社,神奈川県,平塚市,下島９８４番地７,,14,203,2540003,,,2021-12-08,清算の結了等,,,2015-10-05,1,,,,,マルオウ,0
1019,4030002114709,登記記録の閉鎖等,0,2021-12-14,2021-12-10,有限会社優輝,,有限会社,埼玉県,熊谷市,妻沼東２丁目７３番地４,,11,202,3600202,,,2021-12-10,清算の結了等,,,2015-10-05,1,,,,,ユウキ,0
1047,4080401011114,登記記録の閉鎖等,0,2021-12-14,2021-12-08,株式会社サイエンスウッド,,株式会社,静岡県,浜松市中区,萩丘３丁目４番２７－１号,,22,131,4338121,,,2021-12-08,合併による解散等,6100001033074,令和３年１２月１日長野県飯田市北方１０２３番地１株式会社綿半ホームズ（6100001033074）に合併し解散,2015-10-05,1,,,,,サイエンスウッド,0
1049,4080402017622,登記記録の閉鎖等,0,2021-12-14,2021-12-08,有限会社ハマカワ商事,,有限会社,静岡県,掛川市,城西２丁目１２番８号,,22,213,4360054,,,2021-12-08,清算の結了等,,,2015-10-05,1,,,,,ハマカワショウジ,0
1060,4120001118560,登記記録の閉鎖等,0,2021-12-14,2021-12-08,株式会社ライフプランニング,,株式会社,大阪府,大阪市東淀川区,小松２丁目１０番２０号,,27,114,5330004,,,2021-12-08,清算の結了等,,,2015-10-05,1,,,,,ライフプランニング,0
1069,4120002010700,登記記録の閉鎖等,0,2021-12-14,2021-12-06,有限会社ウェスティー,,有限会社,大阪府,大阪市平野区,加美西１丁目１０番１２－１０１１号,,27,126,5470005,,,2021-12-06,清算の結了等,,,2015-10-05,1,,,,,ウェスティー,0
1076,4130001042693,登記記録の閉鎖等,0,2021-12-14,2021-12-09,株式会社好美工業,,株式会社,京都府,京丹後市,峰山町五箇９４５番地,,26,212,6270052,,,2021-12-09,清算の結了等,,,2015-10-05,1,,,,,ヨシミコウギョウ,0
1114,4180002088285,登記記録の閉鎖等,0,2021-12-14,2021-12-08,有限会社千賀新聞店,,有限会社,愛知県,知多市,原２丁目２番地の１２,,23,224,4780011,,,2021-12-08,清算の結了等,,,2015-10-05,1,,,,,センガシンブンテン,0
1123,4190001025569,登記記録の閉鎖等,0,2021-12-14,2021-12-10,照店株式会社,,株式会社,三重県,多気郡明和町,大字竹川２７８番地５,,24,442,5150325,,,2021-12-10,清算の結了等,,,2018-05-24,1,,,,,テラステン,0
1128,4220001011169,登記記録の閉鎖等,0,2021-12-14,2021-12-10,アズソリューション株式会社,,株式会社,石川県,金沢市,二口町ニ８５番地１,,17,201,9200051,,,2021-12-10,清算の結了等,,,2015-10-05,1,,,,,アズソリューション,0
1146,4310002017478,登記記録の閉鎖等,0,2021-12-14,2021-12-10,有限会社長崎新聞竹松販売センター,,有限会社,長崎県,大村市,竹松本町１０３１番地２,,42,205,8560805,,,2021-12-10,清算の結了等,,,2015-10-05,1,,,,,ナガサキシンブンタケマツハンバイセンター,0
1155,4330005007490,登記記録の閉鎖等,0,2021-12-14,2021-11-30,天理教泉月分教会,,その他の設立登記法人,熊本県,人吉市,浪床町３０４５番地,,43,203,8680045,,,2021-11-30,合併による解散等,5330005000585,令和３年１１月３０日熊本市中央区水前寺三丁目１１番２号天理教東肥大教会（5330005000585）に合併し解散,2015-10-05,1,,,,,テンリキョウセンゲツブンキョウカイ,0
1190,4470001007480,登記記録の閉鎖等,0,2021-12-14,2021-12-10,サンエス警備保障株式会社,,株式会社,香川県,丸亀市,三条町８８９番地１,,37,202,7630094,,,2021-12-10,清算の結了等,,,2015-10-05,1,,,,,サンエスケイビホショウ,0
1208,5010003031730,登記記録の閉鎖等,0,2021-12-14,2021-12-10,合同会社マックス,,合同会社,東京都,千代田区,丸の内３丁目１番１号東京共同会計事務所内,,13,101,1000005,,,2021-12-10,清算の結了等,,,2020-03-03,1,,,,,マックス,0
1209,5010005030986,登記記録の閉鎖等,0,2021-12-14,2021-12-09,一般社団法人ＫＲＦ８９,,その他の設立登記法人,東京都,千代田区,内幸町２丁目１番６号,,13,101,1000011,,,2021-12-09,清算の結了等,,,2019-11-06,1,,,,,ケイアールエフエイティナイン,0
1249,5012301001407,登記記録の閉鎖等,0,2021-12-14,2021-12-01,ダイナテック株式会社,,株式会社,神奈川県,相模原市中央区,青葉１丁目１７番６号,,14,152,2520224,,,2021-12-01,合併による解散等,3021001016848,令和３年１２月１日神奈川県相模原市中央区青葉一丁目１７番６号株式会社アイ・ピー・システム（3021001016848）に合併し解散,2015-10-05,1,,,,,ダイナテック,0
1252,5012302005373,登記記録の閉鎖等,0,2021-12-14,2021-12-03,有限会社キーファー二十一,,有限会社,東京都,町田市,大蔵町１５３番地５,,13,209,1950062,,,2021-12-03,清算の結了等,,,2015-10-05,1,,,,,キーファーニジュウイチ,0
1257,5013101007619,登記記録の閉鎖等,0,2021-12-14,2021-12-10,株式会社アルティメットプラニング,,株式会社,東京都,小平市,鈴木町２丁目２０４－２７,,13,211,1870011,,,2021-12-10,清算の結了等,,,2017-05-17,1,,,,,アルティメットプランニング,0
1269,5020002012400,登記記録の閉鎖等,0,2021-12-14,2021-12-09,有限会社ドライブテック,,有限会社,神奈川県,横浜市戸塚区,汲沢７丁目２１番４１号,00010348,14,110,2450061,,,2021-12-09,清算の結了等,,,2015-10-05,1,,,,,ドライブテック,0
1274,5021001045820,登記記録の閉鎖等,0,2021-12-14,2021-12-09,株式会社トーワ配送,,株式会社,神奈川県,海老名市,大谷南４丁目１１番１２号,,14,215,2430418,,,2021-12-09,清算の結了等,,,2015-10-05,1,,,,,トーワハイソウ,0
1278,5021002046090,登記記録の閉鎖等,0,2021-12-14,2021-12-09,有限会社沖島電気,,有限会社,神奈川県,綾瀬市,大上８丁目１２番２８号,,14,218,2521104,,,2021-12-09,清算の結了等,,,2015-10-05,1,,,,,オキシマデンキ,0
1279,5021002063854,登記記録の閉鎖等,0,2021-12-14,2021-12-10,有限会社キャドサービス,,有限会社,神奈川県,横須賀市,小川町２５番地５－２０３,,14,201,2380004,,,2021-12-10,清算の結了等,,,2015-10-05,1,,,,,キャドサービス,0
1280,5021003005913,登記記録の閉鎖等,0,2021-12-14,2021-12-09,キリバッカ合同会社,,合同会社,東京都,墨田区,京島１丁目８－８ビズサークル曳舟,,13,107,1310046,,,2021-12-09,合併による解散等,1410001012076,令和３年１２月５日秋田県秋田市中通五丁目７－４０－６０３アクシエ株式会社（1410001012076）に合併し解散,2016-04-06,1,,,,,キリバッカ,0
1285,5030001054104,登記記録の閉鎖等,0,2021-12-14,2021-12-09,株式会社Ｓ＆ＪＳ,,株式会社,埼玉県,さいたま市大宮区,高鼻町２丁目１２１番地１,,11,103,3300803,,,2021-12-09,清算の結了等,,,2015-10-05,1,,,,,エスアンドジェイエス,0
1287,5030001136315,登記記録の閉鎖等,0,2021-12-14,2021-12-08,株式会社Ｓｔｕｄｉｏ　Ｙｏｈｅｉ,,株式会社,埼玉県,川越市,旭町３丁目４番地２３,,11,201,3501126,,,2021-12-08,清算の結了等,,,2020-05-01,1,,,,,スタジオヨウヘイ,0
1289,5030002060563,登記記録の閉鎖等,0,2021-12-14,2021-12-10,有限会社浅沼工務店,,有限会社,埼玉県,新座市,石神１丁目７番１２号,,11,230,3520033,,,2021-12-10,清算の結了等,,,2015-10-05,1,,,,,アサヌマコウムテン,0
1312,5070001014293,登記記録の閉鎖等,0,2021-12-14,2021-12-10,三ツ星産業株式会社,,株式会社,群馬県,佐波郡玉村町,大字上茂木６３９番地１,,10,464,3701122,,,2021-12-10,清算の結了等,,,2015-10-05,1,,,,,ミツボシサンギョウ,0
1313,5070001026413,登記記録の閉鎖等,0,2021-12-14,2021-12-10,株式会社ダルマヤコーポレーション,,株式会社,群馬県,伊勢崎市,市場町１丁目３４４番地１８,,10,204,3792211,,,2021-12-10,清算の結了等,,,2015-10-05,1,,,,,ダルマヤコーポレーション,0
1317,5080102000670,登記記録の閉鎖等,0,2021-12-14,2021-12-10,有限会社大川精機製作所,,有限会社,静岡県,沼津市,山王台１５番１６号,,22,203,4100035,,,2021-12-10,清算の結了等,,,2015-10-05,1,,,,,オオカワセイキセイサクショ,0
1353,5120102007257,登記記録の閉鎖等,0,2021-12-14,2021-12-06,有限会社堺セントラル,,有限会社,大阪府,堺市堺区,一条通８番１１号,,27,141,5900048,,,2021-12-06,清算の結了等,,,2015-10-05,1,,,,,サカイセントラル,0
1361,5140001088727,登記記録の閉鎖等,0,2021-12-14,2021-12-03,株式会社雅羅倶,,株式会社,兵庫県,神戸市中央区,山本通２丁目１４番２５号,,28,110,6500003,,,2021-12-03,合併による解散等,4140001037593,令和３年１２月１日兵庫県明石市二見町南二見１番地の３６株式会社タンクテック（4140001037593）に合併し解散,2015-10-05,1,,,,,ガラク,0
1387,5240003004787,登記記録の閉鎖等,0,2021-12-14,2021-12-08,合名会社ＨＡＢＡＲＡ,,合名会社,広島県,福山市,南蔵王町５丁目２２番１２号,,34,207,7210973,,,2021-12-08,清算の結了等,,,2020-09-04,1,,,,,ハバラ,0
1389,5250002010604,登記記録の閉鎖等,0,2021-12-14,2021-12-10,有限会社日吉商事,,有限会社,山口県,下関市,彦島杉田町１丁目７－１４,,35,201,7500078,,,2021-12-10,清算の結了等,,,2015-10-05,1,,,,,ヒヨシショウジ,0
1397,5260005010393,登記記録の閉鎖等,0,2021-12-14,2021-12-13,ＮＰＯ法人美作メンテナンス,,その他の設立登記法人,岡山県,美作市,三倉田４７２番地１,,33,215,7070046,,,2021-12-13,清算の結了等,,,2018-02-01,1,,,,,ミマサカメンテナンス,0
1420,5330002000423,登記記録の閉鎖等,0,2021-12-14,2021-12-10,有限会社アトリエムウ,,有限会社,熊本県,熊本市北区,高平２丁目５番５号,,43,105,8600085,,,2021-12-10,清算の結了等,,,2015-10-05,1,,,,,アトリエムウ,0
1439,5380005009853,登記記録の閉鎖等,0,2021-12-14,2021-11-22,北野神社,,その他の設立登記法人,福島県,南会津郡南会津町,大新田字臼久保口３７１番地,,07,368,9670603,,,2021-11-22,合併による解散等,7380005009827,令和３年１１月２２日福島県南会津郡南会津町木伏字上野山１５７０番地於加美神社（7380005009827）に合併し解散,2015-10-05,1,,,,,キタノ,0
1447,5420003002038,登記記録の閉鎖等,0,2021-12-14,2021-12-10,合同会社アシストＫ,,合同会社,青森県,青森市,妙見２丁目２０番１０号,,02,201,0300121,,,2021-12-10,清算の結了等,,,2019-09-17,1,,,,,アシストケー,0
1455,5430005000121,登記記録の閉鎖等,0,2021-12-14,2021-11-25,金光教札幌南郷教会,,その他の設立登記法人,北海道,札幌市白石区,南郷通９丁目南６番３号,,01,104,0030022,,,2021-11-25,合併による解散等,5430005007777,令和３年１１月２５日北海道小樽市花園三丁目１０番２号金光教小樽教会（5430005007777）に合併し解散,2015-10-05,1,,,,,,0
1469,5700150080452,登記記録の閉鎖等,0,2021-12-14,2020-12-31,ＢＲＩＤＧＥこころの発達研究所,,その他,東京都,世田谷区,東玉川２丁目１４－１１,,13,112,1580084,,,2020-12-31,その他の清算の結了等,,,2017-02-03,1,,,,,ブリツジココロノハツタツケンキユウジヨ,0
1479,6010001205962,登記記録の閉鎖等,0,2021-12-14,2021-12-07,ジャパンベンチャーズ株式会社,,株式会社,東京都,千代田区,永田町２丁目１１番１１号山王パークタワー３Ｆ,,13,101,1000014,,,2021-12-07,清算の結了等,,,2019-12-12,1,,,,,ジャパンベンチャーズ,0
1482,6010002001865,登記記録の閉鎖等,0,2021-12-14,2021-12-07,有限会社空全,,有限会社,東京都,文京区,根津１丁目１９番１３号,,13,105,1130031,,,2021-12-07,清算の結了等,,,2015-10-05,1,,,,,クウゼン,0
1483,6010002015758,登記記録の閉鎖等,0,2021-12-14,2021-12-08,有限会社東京メイドサービス,,有限会社,東京都,千代田区,神田神保町１丁目５４番地,,13,101,1010051,,,2021-12-08,清算の結了等,,,2015-10-05,1,,,,,トウキョウメイドサービス,0
1493,6010402010615,登記記録の閉鎖等,0,2021-12-14,2021-12-07,有限会社原野製パン所,,有限会社,東京都,港区,高輪１丁目２７番２２号,,13,103,1080074,,,2021-12-07,清算の結了等,,,2015-10-05,1,,,,,ハラノセイパンショ,0
1494,6010402029589,登記記録の閉鎖等,0,2021-12-14,2021-12-07,有限会社ノースキング,,有限会社,東京都,港区,南青山３丁目８番５号,,13,103,1070062,,,2021-12-07,清算の結了等,,,2015-10-05,1,,,,,ノースキング,0
1512,6011001102175,登記記録の閉鎖等,0,2021-12-14,2021-12-06,Ｔｉｍｅｓ　Ｔｒａｎｓｉｔ株式会社,,株式会社,東京都,新宿区,北新宿２丁目２１番１号,,13,104,1690074,,,2021-12-06,合併による解散等,8010401091992,令和３年１１月３０日東京都港区南青山二丁目２番１５号株式会社ギガトレンド（8010401091992）に合併し解散,2015-10-05,1,,,,,タイムズトランジット,0
1513,6011001124748,登記記録の閉鎖等,0,2021-12-14,2021-12-03,株式会社レビューレビュー,,株式会社,東京都,渋谷区,渋谷２丁目１２番１９号東建インターナショナルビル４Ｆ,,13,113,1500002,,,2021-12-03,清算の結了等,,,2018-10-17,1,,,,,レビューレビュー,0
1516,6011002003645,登記記録の閉鎖等,0,2021-12-14,2021-12-01,有限会社クララ,,有限会社,東京都,渋谷区,恵比寿１丁目７－４－９０６,,13,113,1500013,,,2021-12-01,清算の結了等,,,2015-10-05,1,,,,,,0
1517,6011003010847,登記記録の閉鎖等,0,2021-12-14,2021-12-01,合同会社まんのう・丸亀太陽光発電所,,合同会社,東京都,渋谷区,猿楽町７番１号ＫＤＸ代官山レジデンス１０５,,13,113,1500033,,,2021-12-01,清算の結了等,,,2020-02-04,1,,,,,マンノウマルガメタイヨウコウハツデンショ,0
1530,6011501011495,登記記録の閉鎖等,0,2021-12-14,2021-12-07,株式会社杏林図書,,株式会社,東京都,北区,西ケ原３丁目４６番１０号,,13,117,1140024,,,2021-12-07,清算の結了等,,,2015-10-05,1,,,,,キョウリントショ,0
1540,6012402001916,登記記録の閉鎖等,0,2021-12-14,2021-12-08,有限会社ときわや,,有限会社,東京都,府中市,宮西町２丁目１２番地１,,13,206,1830022,,,2021-12-08,清算の結了等,,,2015-10-05,1,,,,,トキワヤ,0
1558,6020001115327,登記記録の閉鎖等,0,2021-12-14,2021-12-10,株式会社光彩,,株式会社,神奈川県,横浜市金沢区,六浦５丁目１番１７号,,14,108,2360031,,,2021-12-10,清算の結了等,,,2016-03-18,1,,,,,コウサイ,0
1583,6050002042253,登記記録の閉鎖等,0,2021-12-14,2021-12-03,有限会社たつみ工商,,有限会社,茨城県,筑西市,幸町１丁目２５番９号,,08,227,3080848,,,2021-12-03,清算の結了等,,,2015-10-05,1,,,,,タツミコウショウ,0
1584,6060001014533,登記記録の閉鎖等,0,2021-12-14,2021-12-08,栃木県南公設市場青果精算株式会社,,株式会社,栃木県,小山市,大字下河原田９５４番地,,09,208,3230052,,,2021-12-08,合併による解散等,7021001037824,令和３年１２月１日神奈川県平塚市紅谷町１７番２号荒井商事株式会社（7021001037824）に合併し解散,2015-10-05,1,,,,,トチギケンナンコウセツイチバセイカセイサン,0
1587,6060002002545,登記記録の閉鎖等,0,2021-12-14,2021-12-08,有限会社小原住建,,有限会社,栃木県,宇都宮市,西刑部町２５３９番地３３,,09,201,3210917,,,2021-12-08,清算の結了等,,,2015-10-05,1,,,,,オバラジュウケン,0
1590,6070001000664,登記記録の閉鎖等,0,2021-12-14,2021-12-13,小野工業株式会社,,株式会社,群馬県,前橋市,山王町１丁目２３番地の１０,,10,201,3792123,,,2021-12-13,清算の結了等,,,2015-10-05,1,,,,,オノコウギョウ,0
1599,6080401001501,登記記録の閉鎖等,0,2021-12-14,2021-12-08,久保田電気工業株式会社,,株式会社,静岡県,浜松市東区,薬新町８６番地の３,,22,132,4350018,,,2021-12-08,清算の結了等,,,2015-10-05,1,,,,,クボタデンキコウギョウ,0
1626,6120101056675,登記記録の閉鎖等,0,2021-12-14,2021-12-03,株式会社ケーエムアイ,,株式会社,大阪府,岸和田市,荒木町２丁目１８番１５号,,27,202,5960004,,,2021-12-03,合併による解散等,4010001046252,令和３年１２月１日大阪府岸和田市荒木町二丁目１８番１５号株式会社實業之日本社（4010001046252）に合併し解散,2017-06-16,1,,,,,ケーエムアイ,0
1653,6180001098589,登記記録の閉鎖等,0,2021-12-14,2021-12-09,株式会社後藤鉄工所,,株式会社,愛知県,海部郡蟹江町,大字須成字西須成前１８３１番地,,23,425,4970031,,,2021-12-09,清算の結了等,,,2015-10-05,1,,,,,ゴトウテッコウショ,0
1663,6180302019987,登記記録の閉鎖等,0,2021-12-14,2021-12-13,有限会社小村工業所,,有限会社,愛知県,碧南市,白沢町３丁目７２番地２,,23,209,4470013,,,2021-12-13,清算の結了等,,,2015-10-05,1,,,,,コムラコウギョウショ,0
1671,6230005009000,登記記録の閉鎖等,0,2021-12-14,2021-12-09,一般社団法人アジア国際交流貿易支援会,,その他の設立登記法人,富山県,富山市,桜橋通り３番１号富山電気ビルデイング２階,,16,201,9300004,,,2021-12-09,清算の結了等,,,2019-05-15,1,,,,,アジアコクサイコウリュウボウエキシエンカイ,0
1685,6270002008307,登記記録の閉鎖等,0,2021-12-14,2021-12-10,有限会社後藤工務店,,有限会社,鳥取県,米子市,淀江町佐陀１１１１番地７,,31,202,6893425,,,2021-12-10,清算の結了等,,,2015-10-05,1,,,,,ゴトウコウムテン,0
1710,6330002014711,登記記録の閉鎖等,0,2021-12-14,2021-12-10,有限会社ラッドビルズ,,有限会社,熊本県,熊本市南区,田井島３丁目８番１号,,43,104,8620965,,,2021-12-10,清算の結了等,,,2015-10-05,1,,,,,ラッドビルズ,0
1713,6350001012920,登記記録の閉鎖等,0,2021-12-14,2021-12-09,株式会社丸岩コーポレーション,,株式会社,宮崎県,宮崎市,瀬頭１丁目１番１８号オーシャン瀬頭１００５号,,45,201,8800867,,,2021-12-09,清算の結了等,,,2015-10-05,1,,,,,マルイワコーポレーション,0
1733,6380002018476,登記記録の閉鎖等,0,2021-12-14,2021-12-09,有限会社マルタ商会,,有限会社,福島県,白河市,借宿鶴ヶ岡９番地,,07,205,9610014,,,2021-12-09,清算の結了等,,,2015-10-05,1,,,,,,0
1735,6380005009927,登記記録の閉鎖等,0,2021-12-14,2021-11-22,日吉神社,,その他の設立登記法人,福島県,南会津郡南会津町,水根沢字平林山５１９番地,,07,368,9670602,,,2021-11-22,合併による解散等,7380005009827,令和３年１１月２２日福島県南会津郡南会津町木伏字上野山１５７０番地於加美神社（7380005009827）に合併し解散,2015-10-05,1,,,,,ヒヨシ,0
1740,6390001004798,登記記録の閉鎖等,0,2021-12-14,2021-12-10,株式会社高橋工務店,,株式会社,山形県,上山市,松山２丁目８番３６号,,06,207,9993146,,,2021-12-10,清算の結了等,,,2015-10-05,1,,,,,タカハシコウムテン,0
1741,6420002006071,登記記録の閉鎖等,0,2021-12-14,2021-12-09,朱希コレクション有限会社,,有限会社,青森県,八戸市,大字市川町字下大谷地２９番地２,,02,203,0392241,,,2021-12-09,清算の結了等,,,2015-10-05,1,,,,,アキコレクション,0
1755,6700150007512,登記記録の閉鎖等,0,2021-12-14,2021-03-31,東京都報道事業厚生年金基金,,その他,東京都,中央区,築地７丁目６番１号,,13,102,1040045,,,2021-03-31,その他の清算の結了等,,,2015-10-09,1,,,,,トウキヨウトホウドウジギヨウコウセイネンキンキキン,0
1756,6700150065031,登記記録の閉鎖等,0,2021-12-14,2021-07-11,沖永良部昇竜洞観光社,,その他,鹿児島県,大島郡知名町,大字住吉１５２０,,46,534,8919223,,,2021-07-11,その他の清算の結了等,,,2015-10-09,1,,,,,オキエラブシヨウリユウドウカンコウシヤ,0
1757,7010001171972,登記記録の閉鎖等,0,2021-12-14,2021-12-07,ユニデンビルメンテナンス株式会社,,株式会社,東京都,中央区,八丁堀２丁目１２番７号,,13,102,1040032,,,2021-12-07,清算の結了等,,,2015-11-30,1,,,,,ユニデンビルメンテナンス,0
1762,7010002009494,登記記録の閉鎖等,0,2021-12-14,2021-12-07,有限会社ケージェースタッフ,,有限会社,東京都,千代田区,平河町１丁目４番１２号,,13,101,1020093,,,2021-12-07,清算の結了等,,,2015-10-05,1,,,,,ケージェースタッフ,0
1778,7010403018549,登記記録の閉鎖等,0,2021-12-14,2021-12-07,合同会社ＧＡＲＮＥＴ,,合同会社,東京都,港区,南青山２丁目２４番１５号,,13,103,1070062,,,2021-12-07,清算の結了等,,,2018-05-07,1,,,,,ガーネット,0
1812,7011301014466,登記記録の閉鎖等,0,2021-12-14,2021-12-09,長部商事株式会社,,株式会社,埼玉県,三郷市,彦成４丁目１番１７－２０８号,,11,237,3410003,,,2021-12-09,清算の結了等,,,2015-10-05,1,,,,,オサベショウジ,0
1832,7012701000543,登記記録の閉鎖等,0,2021-12-14,2021-12-10,株式会社蒼丘書林,,株式会社,東京都,小平市,上水南町２丁目１５番７－３号,,13,211,1870021,,,2021-12-10,清算の結了等,,,2015-10-05,1,,,,,ソウキュウショリン,0
1849,7021001028526,登記記録の閉鎖等,0,2021-12-14,2021-12-08,株式会社ＦＪＫ,,株式会社,神奈川県,愛甲郡愛川町,半原３８１０番地１,,14,401,2430307,,,2021-12-08,清算の結了等,,,2015-10-05,1,,,,,エフジェイケイ,0
1855,7030001064571,登記記録の閉鎖等,0,2021-12-14,2021-12-03,日栄電気工事株式会社,,株式会社,埼玉県,越谷市,七左町１丁目３６５番地５,,11,222,3430851,,,2021-12-03,清算の結了等,,,2015-10-05,1,,,,,,0
1861,7030002082432,登記記録の閉鎖等,0,2021-12-14,2021-12-10,有限会社英光マシニング,,有限会社,埼玉県,鴻巣市,上谷１８１３番地２,,11,217,3650027,,,2021-12-10,清算の結了等,,,2015-10-05,1,,,,,,0
1862,7030002082440,登記記録の閉鎖等,0,2021-12-14,2021-12-10,英光商事有限会社,,有限会社,埼玉県,鴻巣市,上谷１８１３番地２,,11,217,3650027,,,2021-12-10,清算の結了等,,,2015-10-05,1,,,,,,0
1868,7040001043533,登記記録の閉鎖等,0,2021-12-14,2021-12-09,株式会社三陽,,株式会社,千葉県,印旛郡栄町,安食２１６９番地,,12,329,2701516,,,2021-12-09,清算の結了等,,,2015-10-05,1,,,,,サンヨウ,0
1874,7040002005276,登記記録の閉鎖等,0,2021-12-14,2021-12-10,有限会社シーリングサービス,,有限会社,千葉県,千葉市緑区,大膳野町４番地の７０５,,12,105,2660006,,,2021-12-10,清算の結了等,,,2015-10-05,1,,,,,シーリングサービス,0
1885,7060002021825,登記記録の閉鎖等,0,2021-12-14,2021-12-06,有限会社秋元,,有限会社,栃木県,那須塩原市,下厚崎２６４番地,,09,213,3250025,,,2021-12-06,清算の結了等,,,2015-10-05,1,,,,,アキモト,0
1910,7120001024203,登記記録の閉鎖等,0,2021-12-14,2021-12-10,株式会社ライフ・リフォーム,,株式会社,大阪府,大阪市天王寺区,国分町１３番８号,,27,109,5430044,,,2021-12-10,清算の結了等,,,2015-10-05,1,,,,,ライフリフォーム,0
1921,7120102022766,登記記録の閉鎖等,0,2021-12-14,2021-12-03,有限会社エントメディカル,,有限会社,大阪府,岸和田市,土生町２丁目３２番３号,,27,202,5960825,,,2021-12-03,清算の結了等,,,2015-10-05,1,,,,,エントメディカル,0
1925,7120901019467,登記記録の閉鎖等,0,2021-12-14,2021-12-08,関特工業株式会社,,株式会社,大阪府,池田市,石橋４丁目９番１１号,,27,204,5630032,,,2021-12-08,清算の結了等,,,2015-10-05,1,,,,,カントクコウギョウ,0
1933,7130002027617,登記記録の閉鎖等,0,2021-12-14,2021-12-09,有限会社サン・ユニット・カンパニー,,有限会社,京都府,宇治市,伊勢田町井尻７０番地の１０,,26,204,6110043,,,2021-12-09,清算の結了等,,,2015-10-05,1,,,,,,0
1955,7180003021465,登記記録の閉鎖等,0,2021-12-14,2021-12-09,合同会社Ｌｕｐｏ,,合同会社,愛知県,日進市,岩崎町竹ノ山１４９番地９１８,,23,230,4700131,,,2021-12-09,清算の結了等,,,2020-08-06,1,,,,,ルポ,0
1959,7180301007538,登記記録の閉鎖等,0,2021-12-14,2021-12-13,株式会社豊整備,,株式会社,愛知県,豊橋市,東森岡１丁目６番地の１２,,23,201,4411113,,,2021-12-13,清算の結了等,,,2015-10-05,1,,,,,ユタカセイビ,0
1988,7300003000662,登記記録の閉鎖等,0,2021-12-14,2021-12-07,唐津屋形船合同会社,,合同会社,佐賀県,唐津市,山下町１１７５番地,,41,202,8470842,,,2021-12-07,清算の結了等,,,2015-10-05,1,,,,,カラツヤカタブネ,0
1998,7360002022628,登記記録の閉鎖等,0,2021-12-14,2021-12-06,琉美食品有限会社,,有限会社,沖縄県,宮古島市,平良字西里２９０番地,,47,214,9060012,,,2021-12-06,合併による解散等,8360001013750,令和３年１１月３０日沖縄県宮古島市平良字西里２９０番地菊之露酒造株式会社（8360001013750）に合併し解散,2015-10-05,1,,,,,リュウビショクヒン,0
2036,8010001003282,登記記録の閉鎖等,0,2021-12-14,2021-12-08,株式会社オークコーポレーション,,株式会社,東京都,文京区,小日向３丁目１５番１３号,,13,105,1120006,,,2021-12-08,合併による解散等,6010001000018,令和３年１２月１日東京都文京区小日向三丁目１５番１３号株式会社アサヒ（6010001000018）に合併し解散,2015-10-05,1,,,,,オークコーポレーション,0
2050,8010401091547,登記記録の閉鎖等,0,2021-12-14,2021-12-07,株式会社ＰＲＥＦＥＲＥＲ,,株式会社,東京都,港区,六本木７丁目２番２８号,,13,103,1060032,,,2021-12-07,清算の結了等,,,2015-10-05,1,,,,,プレフェレ,0
2064,8010701039997,登記記録の閉鎖等,0,2021-12-14,2021-12-10,株式会社ＫＹエステート,,株式会社,東京都,品川区,南品川６丁目７番１号４０１号室,,13,109,1400004,,,2021-12-10,清算の結了等,,,2020-10-22,1,,,,,ケーワイエステート,0
2071,8011001118450,登記記録の閉鎖等,0,2021-12-14,2021-12-02,株式会社メディカルサイエンスラボ,,株式会社,東京都,渋谷区,渋谷２丁目１０番１５号,,13,113,1500002,,,2021-12-02,清算の結了等,,,2017-09-22,1,,,,,メディカルサイエンスラボ,0
2087,8011302008846,登記記録の閉鎖等,0,2021-12-14,2021-12-10,有限会社丸二商店,,有限会社,東京都,杉並区,清水２丁目２２番１３号,,13,115,1670033,,,2021-12-10,清算の結了等,,,2015-10-05,1,,,,,マルニショウテン,0
2098,8011802018163,登記記録の閉鎖等,0,2021-12-14,2021-12-09,有限会社フレンド企画,,有限会社,千葉県,松戸市,根木内６１番地の１,,12,207,2700011,,,2021-12-09,清算の結了等,,,2015-10-05,1,,,,,フレンドキカク,0
2100,8012801014062,登記記録の閉鎖等,0,2021-12-14,2021-12-10,株式会社ティエラ,,株式会社,東京都,東大和市,狭山１丁目１２５６番地の１兼松マンション１０２号室,,13,220,2070003,,,2021-12-10,清算の結了等,,,2015-10-05,1,,,,,ティエラ,0
2110,8021001028855,登記記録の閉鎖等,0,2021-12-14,2021-12-08,株式会社ブルークリスタルプロダクション,,株式会社,神奈川県,大和市,深見西２丁目４番２６号,,14,213,2420018,,,2021-12-08,清算の結了等,,,2015-10-05,1,,,,,ブルークリスタルプロダクション,0
2116,8021003004185,登記記録の閉鎖等,0,2021-12-14,2021-12-07,合同会社ＨＭアーツ,,合同会社,神奈川県,横須賀市,上町２丁目２５番地,,14,201,2380017,,,2021-12-07,清算の結了等,,,2015-10-05,1,,,,,,0
2134,8040001045025,登記記録の閉鎖等,0,2021-12-14,2021-12-10,株式会社ヒューチャー,,株式会社,千葉県,富里市,十倉３４４番地７,,12,233,2860212,,,2021-12-10,清算の結了等,,,2015-10-05,1,,,,,ヒューチャー,0
2154,8060002005240,登記記録の閉鎖等,0,2021-12-14,2021-12-08,有限会社西和,,有限会社,栃木県,宇都宮市,桜２丁目５番２５号ポレスターセントラルシティ桜７０７号,,09,201,3200043,,,2021-12-08,清算の結了等,,,2015-10-05,1,,,,,セイワ,0
2155,8060002006338,登記記録の閉鎖等,0,2021-12-14,2021-12-08,東進商事有限会社,,有限会社,栃木県,宇都宮市,駅前通り３丁目１番２号,,09,201,3210964,,,2021-12-08,清算の結了等,,,2015-10-05,1,,,,,トウシンショウジ,0
2164,8080002010189,登記記録の閉鎖等,0,2021-12-14,2021-12-10,清水コーポレーション有限会社,,有限会社,静岡県,静岡市清水区,南岡町９番３号,,22,103,4240932,,,2021-12-10,清算の結了等,,,2015-10-05,1,,,,,シミズコーポレーション,0
2177,8120001066665,登記記録の閉鎖等,0,2021-12-14,2021-12-09,大明計装機器株式会社,,株式会社,大阪府,大阪市北区,（大阪市大淀区大淀中四丁目２番１１号）,,27,127,5300000,,,2021-12-09,清算の結了等,,,2015-10-05,1,,,,,ダイメイケイソウキキ,1
2194,8120102004219,登記記録の閉鎖等,0,2021-12-14,2021-12-10,有限会社フォトプラザ,,有限会社,大阪府,堺市北区,百舌鳥赤畑町５丁３９５番地,,27,146,5918037,,,2021-12-10,清算の結了等,,,2015-10-05,1,,,,,フォトプラザ,0
2218,8180001094958,登記記録の閉鎖等,0,2021-12-14,2021-12-09,株式会社ティーテック,,株式会社,愛知県,東海市,荒尾町中切８５番地,,23,222,4760003,,,2021-12-09,清算の結了等,,,2015-10-05,1,,,,,ティーテック,0
2224,8180002077631,登記記録の閉鎖等,0,2021-12-14,2021-12-09,有限会社丸光自動車,,有限会社,愛知県,一宮市,萩原町萩原字押切１７番地５,,23,203,4910353,,,2021-12-09,清算の結了等,,,2015-10-05,1,,,,,マルミツジドウシャ,0
2233,8180302027682,登記記録の閉鎖等,0,2021-12-14,2021-12-10,新城交通有限会社,,有限会社,愛知県,新城市,字裏野９０番地,,23,221,4411372,,,2021-12-10,清算の結了等,,,2015-10-05,1,,,,,シンシロコウツウ,0
2248,8250005006051,登記記録の閉鎖等,0,2021-12-14,2021-12-07,岩国個人タクシー協同組合,,その他の設立登記法人,山口県,岩国市,平田３丁目４５番２３号,,35,208,7410072,,,2021-12-07,清算の結了等,,,2015-10-05,1,,,,,イワクニコジンタクシー,0
2291,8380005009875,登記記録の閉鎖等,0,2021-12-14,2021-11-22,熊野神社,,その他の設立登記法人,福島県,南会津郡南会津町,山口字村上１０７３番地,,07,368,9670611,,,2021-11-22,合併による解散等,7380005009827,令和３年１１月２２日福島県南会津郡南会津町木伏字上野山１５７０番地於加美神社（7380005009827）に合併し解散,2015-10-05,1,,,,,クマノ,0
2324,9010401030355,登記記録の閉鎖等,0,2021-12-14,2021-12-07,ユナイテッド・オーシャン・エンタープライズ株式会社,,株式会社,東京都,港区,芝浦３丁目２０番６号,,13,103,1080023,,,2021-12-07,清算の結了等,,,2015-10-05,1,,,,,ユナイテッドオーシャンエンタープライズ,0
2363,9011003005828,登記記録の閉鎖等,0,2021-12-14,2021-12-01,合同会社Ａｓａｊｅｓ,,合同会社,東京都,渋谷区,渋谷１丁目１９番１８－４１１号,,13,113,1500002,,,2021-12-01,清算の結了等,,,2015-10-05,1,,,,,,0
2374,9011402017952,登記記録の閉鎖等,0,2021-12-14,2021-12-13,有限会社ジー・リサーチ,,有限会社,東京都,板橋区,中台２丁目３２番５号,,13,119,1740064,,,2021-12-13,清算の結了等,,,2015-10-05,1,,,,,ジーリサーチ,0
2383,9012301001171,登記記録の閉鎖等,0,2021-12-14,2021-12-03,株式会社昭栄,,株式会社,東京都,町田市,野津田町１７８番地３,,13,209,1950063,,,2021-12-03,清算の結了等,,,2015-10-05,1,,,,,ショウエイ,0
2408,9021001010696,登記記録の閉鎖等,0,2021-12-14,2021-12-13,株式会社ニューステージ,,株式会社,神奈川県,鎌倉市,津西２丁目１２番１６号,,14,204,2480034,,,2021-12-13,合併による解散等,1040001013104,令和３年１２月１日千葉県千葉市中央区富士見二丁目９番１３号株式会社クロスメディア（1040001013104）に合併し解散,2015-10-05,1,,,,,ニューステージ,0
2419,9030001075831,登記記録の閉鎖等,0,2021-12-14,2021-12-10,株式会社太陽,,株式会社,埼玉県,川口市,朝日２丁目１番１８－１００７号,,11,203,3320001,,,2021-12-10,清算の結了等,,,2015-10-05,1,,,,,,0
2420,9030001089476,登記記録の閉鎖等,0,2021-12-14,2021-12-09,株式会社中央印刷,,株式会社,埼玉県,飯能市,大字飯能１２４９番地１,,11,209,3570063,,,2021-12-09,清算の結了等,,,2015-10-05,1,,,,,チュウオウインサツ,0
2437,9040002024992,登記記録の閉鎖等,0,2021-12-14,2021-12-09,有限会社二和電気商会,,有限会社,千葉県,船橋市,二和西４丁目３６番２３号,,12,204,2740806,,,2021-12-09,清算の結了等,,,2015-10-05,1,,,,,フタワデンキショウカイ,0
2443,9060002028793,登記記録の閉鎖等,0,2021-12-14,2021-12-08,有限会社竹内鉄工所,,有限会社,栃木県,小山市,大字出井７１５番地,,09,208,3230808,,,2021-12-08,清算の結了等,,,2015-10-05,1,,,,,タケウチテッコウジョ,0
2453,9080401023823,登記記録の閉鎖等,0,2021-12-14,2021-12-08,株式会社Ｍｉｌｋｙ　Ｈｏｕｓｅ,,株式会社,静岡県,浜松市西区,入野町１９９５４番地の７０７,,22,133,4328061,,,2021-12-08,合併による解散等,6100001033074,令和３年１２月１日長野県飯田市北方１０２３番地１株式会社綿半ホームズ（6100001033074）に合併し解散,2019-09-02,1,,,,,ミルキーハウス,0
2459,9100001026133,登記記録の閉鎖等,0,2021-12-14,2021-12-09,株式会社田中組,,株式会社,長野県,大町市,大町５３９番地,,20,212,3980002,,,2021-12-09,清算の結了等,,,2015-10-05,1,,,,,タナカグミ,0
2488,9120101001166,登記記録の閉鎖等,0,2021-12-14,2021-12-08,株式会社オフィスエイト,,株式会社,大阪府,堺市堺区,霞ヶ丘町１丁１番２４号,,27,141,5900812,,,2021-12-08,清算の結了等,,,2015-10-05,1,,,,,オフィスエイト,0
2489,9120101007270,登記記録の閉鎖等,0,2021-12-14,2021-12-09,元町石油株式会社,,株式会社,大阪府,堺市堺区,旭ヶ丘中町２丁３番１１号,,27,141,5900808,,,2021-12-09,清算の結了等,,,2015-10-05,1,,,,,モトマチセキユ,0
2518,9170001014602,登記記録の閉鎖等,0,2021-12-14,2021-12-13,株式会社パラディ,,株式会社,和歌山県,紀の川市,貴志川町丸栖１３８１番地,,30,208,6400401,,,2021-12-13,清算の結了等,,,2017-02-06,1,,,,,パラディ,0
2531,9200001038531,登記記録の閉鎖等,0,2021-12-14,2021-12-10,株式会社柴田工業,,株式会社,岐阜県,高山市,花里町６丁目３４番地大地ビル４階,,21,203,5060026,,,2021-12-10,清算の結了等,,,2021-04-13,1,,,,,シバタコウギョウ,0
2536,9240002002292,登記記録の閉鎖等,0,2021-12-14,2021-12-10,有限会社エステート米澤,,有限会社,広島県,広島市西区,南観音５丁目５番２３号,,34,104,7330035,,,2021-12-10,清算の結了等,,,2015-10-05,1,,,,,エステートヨネザワ,0
2554,9300001006271,登記記録の閉鎖等,0,2021-12-14,2021-12-06,株式会社日栄テクノ,,株式会社,佐賀県,鳥栖市,幸津町１０１５番地２,,41,203,8410062,,,2021-12-06,清算の結了等,,,2015-10-05,1,,,,,ニチエイテクノ,0
2580,9370003001859,登記記録の閉鎖等,0,2021-12-14,2021-12-08,合同会社未来フードデザイン,,合同会社,宮城県,仙台市太白区,中田５丁目１３番６５号,,04,104,9811104,,,2021-12-08,清算の結了等,,,2015-10-05,1,,,,,ミライフードデザイン,0
