sequenceNumber,corporateNumber,process,correct,updateDate,changeDate,name,nameImageId,kind,prefectureName,cityName,streetNumber,addressImageId,prefectureCode,cityCode,postCode,addressOutside,addressOutsideImageId,closeDate,closeCause,successorCorporateNumber,changeCause,assignmentDate,latest,enName,enPrefectureName,enCityName,enAddressOutside,furigana,hihyoji
7,1010001253058,新規,0,2025-03-17,2025-03-17,株式会社ＦＬＩＰ第３１１号,,株式会社,東京都,千代田区,丸の内２丁目７番２号,,13,101,1000005,,,,,,,2025-03-17,1,,,,,エフエルアイピーダイサンビャクジュウイチゴウ,0
8,1010001253066,新規,0,2025-03-17,2025-03-17,株式会社ＳＨＩＰ第１００５号,,株式会社,東京都,千代田区,丸の内２丁目７番２号,,13,101,1000005,,,,,,,2025-03-17,1,,,,,エスエイチアイピーダイセンゴゴウ,0
9,1010001253082,新規,0,2025-03-17,2025-03-17,株式会社ＳＨＩＰ第１０２１号,,株式会社,東京都,千代田区,丸の内２丁目７番２号,,13,101,1000005,,,,,,,2025-03-17,1,,,,,エスエイチアイピーダイセンニジュウイチゴウ,0
10,1010001253198,新規,0,2025-03-17,2025-03-17,株式会社カーボンリサーチ,,株式会社,東京都,中央区,日本橋２丁目５番１号日本橋高島屋三井ビルディング３２階,,13,102,1030027,,,,,,,2025-03-17,1,,,,,カーボンリサーチ,0
11,1010001253207,新規,0,2025-03-17,2025-03-17,株式会社エポルテ,,株式会社,東京都,千代田区,神田和泉町１番地６－１６ヤマトビル４０５,,13,101,1010024,,,,,,,2025-03-17,1,,,,,エポルテ,0
12,1010001253215,新規,0,2025-03-17,2025-03-17,日本恩姆梯精工株式会社,,株式会社,東京都,文京区,千石４丁目１４番９号,,13,105,1120011,,,,,,,2025-03-17,1,,,,,ニホンオンボテイセイコウ,0
13,1010001253231,新規,0,2025-03-17,2025-03-17,株式会社ＪＳＫ１９,,株式会社,東京都,千代田区,麹町２丁目６番地５,,13,101,1020083,,,,,,,2025-03-17,1,,,,,ジェイエスケイジュウク,0
14,1010001253256,新規,0,2025-03-17,2025-03-17,ＥＸＩＭ株式会社,,株式会社,東京都,中央区,銀座１丁目１２番４号Ｎ＆ＥＢＬＤ．６Ｆ,,13,102,1040061,,,,,,,2025-03-17,1,,,,,イクシム,0
17,1010005039767,新規,0,2025-03-17,2025-03-17,ＲＥＰ１０２ホールディング一般社団法人,,その他の設立登記法人,東京都,中央区,京橋２丁目１２番６号ＡＯＪ税理士法人内,,13,102,1040031,,,,,,,2025-03-17,1,,,,,アールイーピーイチゼロニホールディング,0
18,1010005039775,新規,0,2025-03-17,2025-03-17,ソーラークローバーホールディングス一般社団法人,,その他の設立登記法人,東京都,千代田区,紀尾井町４番１号ニューオータニガーデンコート１９階フィンポート税理士法人内,,13,101,1020094,,,,,,,2025-03-17,1,,,,,ソーラークローバーホールディングス,0
24,1010401188936,新規,0,2025-03-17,2025-03-17,株式会社Ｐｒｏｆｉｎｉｔｙ,,株式会社,東京都,港区,北青山１丁目３番１号,,13,103,1070061,,,,,,,2025-03-17,1,,,,,プロフィニティー,0
25,1010401188960,新規,0,2025-03-17,2025-03-17,株式会社ＵＰＳＩＤＥＲ　Ａｇｅｎｔ,,株式会社,東京都,港区,六本木７丁目１５番７号,,13,103,1060032,,,,,,,2025-03-17,1,,,,,アップサイダーエージェント,0
26,1010401188969,新規,0,2025-03-17,2025-03-17,株式会社こうてん,,株式会社,東京都,港区,北青山２丁目９番１２号第５イノセビル７Ｆ,,13,103,1070061,,,,,,,2025-03-17,1,,,,,コウテン,0
29,1010403034634,新規,0,2025-03-17,2025-03-17,合同会社Ｒｅａｌｉｚｅ,,合同会社,東京都,港区,南青山５丁目１７番２号,,13,103,1070062,,,,,,,2025-03-17,1,,,,,リアライズ,0
30,1010403034667,新規,0,2025-03-17,2025-03-17,鳴神イノベーションワークス合同会社,,合同会社,東京都,港区,北青山１丁目３番１号アールキューブ青山３階,,13,103,1070061,,,,,,,2025-03-17,1,,,,,ナルカミイノベーションワークス,0
31,1010405024220,新規,0,2025-03-17,2025-03-17,Ａｔｌａｓ一般社団法人,,その他の設立登記法人,東京都,港区,虎ノ門２丁目６番１号,,13,103,1050001,,,,,,,2025-03-17,1,,,,,アトラス,0
32,1010501053767,新規,0,2025-03-17,2025-03-17,ＨＡＹＡＭＡ株式会社,,株式会社,東京都,台東区,蔵前４丁目１６－６ストーク蔵前Ｍ＆Ｋ４階４０２,,13,106,1110051,,,,,,,2025-03-17,1,,,,,ハヤマ,0
33,1010501053791,新規,0,2025-03-17,2025-03-17,株式会社アシスト,,株式会社,東京都,台東区,東上野２丁目１２番９号山崎ビル,,13,106,1100015,,,,,,,2025-03-17,1,,,,,アシスト,0
38,1010901056997,新規,0,2025-03-17,2025-03-17,株式会社アンヴィ,,株式会社,東京都,世田谷区,世田谷４丁目１４番３１－４０２号,,13,112,1540017,,,,,,,2025-03-17,1,,,,,アンヴィ,0
39,1010901057005,新規,0,2025-03-17,2025-03-17,株式会社ＭｏＭｅｎｔ,,株式会社,東京都,世田谷区,松原１丁目１８番４号,,13,112,1560043,,,,,,,2025-03-17,1,,,,,モーメント,0
40,1010901057021,新規,0,2025-03-17,2025-03-17,株式会社ＩＫＳ建築設計事務所,,株式会社,東京都,世田谷区,松原２丁目３８番９号明大前グランドハイツ１Ｆ３号室,,13,112,1560043,,,,,,,2025-03-17,1,,,,,アイケイエスケンチクセッケイジムショ,0
46,1011001168394,新規,0,2025-03-17,2025-03-17,伯鳳不動産株式会社,,株式会社,東京都,渋谷区,代々木１丁目３０番１４号,,13,113,1510053,,,,,,,2025-03-17,1,,,,,ハクホウフドウサン,0
51,1011501031820,新規,0,2025-03-17,2025-03-17,レトリス東京株式会社,,株式会社,東京都,荒川区,東日暮里５丁目５２番１０号東栄産業日暮里駅前第三ビル９Ｆ,,13,118,1160014,,,,,,,2025-03-17,1,,,,,レトリストウキョウ,0
58,1011803006735,新規,0,2025-03-17,2025-03-17,合同会社Ｗｅｌｌｂｅｉｎｇ　Ｃａｍｐ,,合同会社,東京都,葛飾区,西亀有２丁目４９番１４号,,13,122,1240002,,,,,,,2025-03-17,1,,,,,ウェルビーイングキャンプ,0
64,1013301053937,新規,0,2025-03-17,2025-03-17,一蓮株式会社,,株式会社,東京都,豊島区,南長崎５丁目６－１０アマデウス２１－２０１号室,,13,116,1710052,,,,,,,2025-03-17,1,,,,,イチレン,0
65,1013301053953,新規,0,2025-03-17,2025-03-17,株式会社Ｒｉｓｅ　Ｔｏｐ,,株式会社,東京都,豊島区,池袋２丁目４３番３号田村ビル４階,,13,116,1710014,,,,,,,2025-03-17,1,,,,,ライズトップ,0
68,1020001161862,新規,0,2025-03-17,2025-03-17,株式会社ニコニコホールディングス,,株式会社,神奈川県,横浜市港北区,新横浜２丁目６番地２３,,14,109,2220033,,,,,,,2025-03-17,1,,,,,ニコニコホールディングス,0
69,1020001161895,新規,0,2025-03-17,2025-03-17,株式会社美日,,株式会社,神奈川県,川崎市多摩区,菅馬場２丁目１０番１３号,,14,135,2140004,,,,,,,2025-03-17,1,,,,,ビビ,0
70,1020001161904,新規,0,2025-03-17,2025-03-17,株式会社ホワイトデザイン,,株式会社,神奈川県,横浜市神奈川区,高島台２０番地７リ・ラフォーレ２０２号,,14,102,2210833,,,,,,,2025-03-17,1,,,,,ホワイトデザイン,0
78,1020003028069,新規,0,2025-03-17,2025-03-17,合同会社オフィス・イチヨンイチ,,合同会社,神奈川県,川崎市高津区,下野毛３丁目１１番６－２号,,14,134,2130006,,,,,,,2025-03-17,1,,,,,オフィスイチヨンイチ,0
92,1030001165367,新規,0,2025-03-17,2025-03-17,株式会社サニーデイマーケット,,株式会社,埼玉県,春日部市,中央１丁目８番１５号,,11,214,3440067,,,,,,,2025-03-17,1,,,,,サニーデイマーケット,0
93,1030001165400,新規,0,2025-03-17,2025-03-17,株式会社みらいふぁーむ,,株式会社,埼玉県,深谷市,山崎１９５番地,,11,218,3690216,,,,,,,2025-03-17,1,,,,,ミライファーム,0
94,1030001165409,新規,0,2025-03-17,2025-03-17,鶴田重機工業株式会社,,株式会社,埼玉県,朝霞市,膝折町３丁目２番３４号,,11,227,3510014,,,,,,,2025-03-17,1,,,,,ツルタジュウキコウギョウ,0
95,1030001165466,新規,0,2025-03-17,2025-03-17,株式会社芳コーポレーション,,株式会社,埼玉県,越谷市,大字平方１７１８番地２,,11,222,3430002,,,,,,,2025-03-17,1,,,,,ヨシコーポレーション,0
103,1030003026360,新規,0,2025-03-17,2025-03-17,合同会社オフィスＭ,,合同会社,埼玉県,川口市,戸塚南４丁目８番２３号,,11,203,3330817,,,,,,,2025-03-17,1,,,,,オフィスエム,0
104,1030003026369,新規,0,2025-03-17,2025-03-17,合同会社へらじか,,合同会社,埼玉県,さいたま市桜区,大字大久保領家３６１番地４,,11,106,3380826,,,,,,,2025-03-17,1,,,,,ヘラジカ,0
105,1030005022077,新規,0,2025-03-17,2025-03-17,一般社団法人リフォーム詐欺撲滅協会,,その他の設立登記法人,埼玉県,さいたま市見沼区,東大宮５丁目１８－２,,11,104,3370051,,,,,,,2025-03-17,1,,,,,リフォームサギボクメツキョウカイ,0
108,1040001137794,新規,0,2025-03-17,2025-03-17,株式会社プラスセンス,,株式会社,千葉県,柏市,明原２丁目９番５０号,,12,217,2770843,,,,,,,2025-03-17,1,,,,,プラスセンス,0
109,1040001137828,新規,0,2025-03-17,2025-03-17,株式会社礼恩,,株式会社,千葉県,柏市,中新宿１丁目１１番１０－５１０,,12,217,2770066,,,,,,,2025-03-17,1,,,,,レイオン,0
110,1040001137852,新規,0,2025-03-17,2025-03-17,株式会社インテライズ,,株式会社,千葉県,千葉市花見川区,長作町８６５番地８,,12,102,2620044,,,,,,,2025-03-17,1,,,,,インテライズ,0
111,1040001137860,新規,0,2025-03-17,2025-03-17,株式会社ｇｏ‐ｔｏｏ,,株式会社,千葉県,千葉市若葉区,若松町４３２－１１,,12,104,2640021,,,,,,,2025-03-17,1,,,,,ゴートゥー,0
112,1040003027060,新規,0,2025-03-17,2025-03-17,Ａ　Ｄ　ＥＮＴＥＲＰＲＩＳＥＳ合同会社,,合同会社,千葉県,印西市,高西新田１０２番地１,,12,231,2701365,,,,,,,2025-03-17,1,,,,,エーディーエンタープライゼス,0
113,1040003027085,新規,0,2025-03-17,2025-03-17,合同会社Ｐａｙ　Ｉｔ　Ｆｏｒｗａｒｄ,,合同会社,千葉県,千葉市花見川区,検見川町３丁目３１７番地７－１０１号,,12,102,2620023,,,,,,,2025-03-17,1,,,,,ペイフォワード,0
114,1040003027102,新規,0,2025-03-17,2025-03-17,合同会社ＳｏｍｅＴｅｃｈ,,合同会社,千葉県,松戸市,西馬橋１丁目７－１３,,12,207,2710044,,,,,,,2025-03-17,1,,,,,ソメテック,0
115,1040003027110,新規,0,2025-03-17,2025-03-17,Ｍ．Ｐｌａｎｔａｉｒｅ合同会社,,合同会社,千葉県,市川市,須和田２丁目２７番３号,,12,203,2720825,,,,,,,2025-03-17,1,,,,,エムプランテール,0
121,1050001056317,新規,0,2025-03-17,2025-03-17,株式会社まつだ建築設計室,,株式会社,茨城県,常総市,豊岡町乙１１９３番地１４,,08,211,3030041,,,,,,,2025-03-17,1,,,,,マツダケンチクセッケイシツ,0
132,1090001019179,新規,0,2025-03-17,2025-03-17,株式会社ヘルマンズ,,株式会社,山梨県,南アルプス市,藤田２４３－１,,19,208,4000334,,,,,,,2025-03-17,1,,,,,ヘルマンズ,0
134,1090003002777,新規,0,2025-03-17,2025-03-17,合同会社あーさんｆａｒｍ,,合同会社,山梨県,笛吹市,御坂町大野寺７０６－１１,,19,211,4060817,,,,,,,2025-03-17,1,,,,,,0
135,1100001038400,新規,0,2025-03-17,2025-03-17,株式会社ウェルネスト,,株式会社,長野県,長野市,大字南長野新田町１４６５番地,,20,201,3800835,,,,,,,2025-03-17,1,,,,,ウェルネスト,0
136,1100001038409,新規,0,2025-03-17,2025-03-17,株式会社人間電力,,株式会社,長野県,上田市,古里７７７番地３,,20,203,3860005,,,,,,,2025-03-17,1,,,,,ニンゲンデンリョク,0
137,1100003008046,新規,0,2025-03-17,2025-03-17,エヌ．エス．ネット合同会社,,合同会社,長野県,上田市,東内２１５番地６,,20,203,3860413,,,,,,,2025-03-17,1,,,,,エヌエスネット,0
144,1120001273664,新規,0,2025-03-17,2025-03-17,Ｊａｐａｎｅｓｅ介護グループ株式会社,,株式会社,大阪府,大阪市浪速区,難波中３丁目１６番１４号難波ビル３階,,27,111,5560011,,,,,,,2025-03-17,1,,,,,ジャパニーズカイゴグループ,0
145,1120001273739,新規,0,2025-03-17,2025-03-17,株式会社ＰＢＢ,,株式会社,大阪府,大阪市西区,北堀江１丁目１５番２１号ＲＵＴＡＯ・ＢＬＤ．１０１,,27,106,5500014,,,,,,,2025-03-17,1,,,,,ピービービー,0
146,1120001273953,新規,0,2025-03-17,2025-03-17,株式会社ふじとつき,,株式会社,大阪府,大阪市中央区,南船場３丁目２番２２－２０５号,,27,128,5420081,,,,,,,2025-03-17,1,,,,,フジトツキ,0
153,1120901050592,新規,0,2025-03-17,2025-03-17,株式会社ＥＶＥＲＹＴＨＩＮＧ,,株式会社,大阪府,吹田市,朝日町１３番２号,,27,205,5640027,,,,,,,2025-03-17,1,,,,,エブリシング,0
157,1130001079219,新規,0,2025-03-17,2025-03-17,株式会社ＴＨＥ　ＢＯＤＹ,,株式会社,京都府,京都市下京区,五条烏丸町４００欧風館３Ｆ,,26,106,6008418,,,,,,,2025-03-17,1,,,,,ザボディ,0
158,1130001079227,新規,0,2025-03-17,2025-03-17,株式会社マッサーズ,,株式会社,京都府,宇治市,菟道車田３４番地の２,00138370,26,204,6110000,,,,,,,2025-03-17,1,,,,,マッサーズ,0
162,1140001137768,新規,0,2025-03-17,2025-03-17,株式会社Ｎａｎｋａ,,株式会社,兵庫県,神戸市中央区,浪花町５６番地起業プラザひょうご内,,28,110,6500035,,,,,,,2025-03-17,1,,,,,ナンカ,0
165,1170005007139,新規,0,2025-03-17,2025-03-17,一般社団法人ヘンプクリート推進機構,,その他の設立登記法人,和歌山県,和歌山市,和田３１０番地４,,30,201,6410004,,,,,,,2025-03-17,1,,,,,ヘンプクリートスイシンキコウ,0
169,1180001165823,新規,0,2025-03-17,2025-03-17,株式会社Ｉ．Ｃ．Ｉ　Ｉｎｆｉｎｉｔｙ,,株式会社,愛知県,名古屋市港区,小賀須３丁目１６０８番地の１,,23,111,4550882,,,,,,,2025-03-17,1,,,,,アイシアイーインフィニティー,0
170,1180001165889,新規,0,2025-03-17,2025-03-17,株式会社Ｒａｎｄ,,株式会社,愛知県,海部郡大治町,大字西條字西之川９０番地の１０,,23,424,4901144,,,,,,,2025-03-17,1,,,,,ランド,0
171,1180001165906,新規,0,2025-03-17,2025-03-17,株式会社原田鉄工所,,株式会社,愛知県,知多郡武豊町,大字冨貴字南側２５番地２,,23,447,4702531,,,,,,,2025-03-17,1,,,,,ハラダテッコウジョ,0
172,1180001165955,新規,0,2025-03-17,2025-03-17,株式会社Ｎａｔｕｒａｌ８,,株式会社,愛知県,あま市,七宝町鯰橋７丁目５８番地２,,23,237,4970015,,,,,,,2025-03-17,1,,,,,ナチュラルエイト,0
173,1180003028144,新規,0,2025-03-17,2025-03-17,合同会社Ｍ‐Ｈｉｇｕｃｈｉ,,合同会社,愛知県,一宮市,松降１丁目６－１３キャッスルハイツ２０２号,,23,203,4910042,,,,,,,2025-03-17,1,,,,,エムヒグチ,0
179,1200001043539,新規,0,2025-03-17,2025-03-17,株式会社ＴＲＡＵＭ,,株式会社,岐阜県,岐阜市,茜部新所３丁目１２０番地１キャッスル茜７ａ,,21,201,5008263,,,,,,,2025-03-17,1,,,,,トラオム,0
185,1280005007648,新規,0,2025-03-17,2025-03-17,特定非営利活動法人いわみの子供の居場所を創る会,,その他の設立登記法人,島根県,浜田市,田町１６５５番地,,32,202,6970026,,,,,,,2025-03-17,1,,,,,イワミノコドモノイバショヲツクルカイ,0
188,1290001109281,新規,0,2025-03-17,2025-03-17,株式会社笑ノ結屋,,株式会社,福岡県,福岡市早良区,賀茂２丁目２０番２６－１０３号ＡＲＫ－１,,40,137,8140164,,,,,,,2025-03-17,1,,,,,エミノムスビヤ,0
189,1290001109372,新規,0,2025-03-17,2025-03-17,株式会社ＲＯＡＲ,,株式会社,福岡県,福岡市城南区,別府７丁目１３番２５－２０２号シャンテ別府Ｂ棟,,40,136,8140104,,,,,,,2025-03-17,1,,,,,ロアー,0
190,1290003016542,新規,0,2025-03-17,2025-03-17,リセットジャパン合同会社,,合同会社,福岡県,糟屋郡篠栗町,津波黒１丁目１４番２１号,,40,342,8112415,,,,,,,2025-03-17,1,,,,,リセットジャパン,0
191,1290003016550,新規,0,2025-03-17,2025-03-17,Ｐｒｏｊｅｃｔ　Ｍｓ合同会社,,合同会社,福岡県,福岡市中央区,荒戸３丁目３番７２－１００５号,,40,133,8100062,,,,,,,2025-03-17,1,,,,,プロジェクトエムズ,0
193,1310003004965,新規,0,2025-03-17,2025-03-17,合同会社ｆｒｏｍＮ,,合同会社,長崎県,長崎市,大橋町３番２号,,42,201,8528134,,,,,,,2025-03-17,1,,,,,フロムエヌ,0
196,1330003010895,新規,0,2025-03-17,2025-03-17,合同会社フラン,,合同会社,熊本県,熊本市中央区,東子飼町８番５２－５１２号コアマンションリヴィエール子飼,,43,101,8600854,,,,,,,2025-03-17,1,,,,,フラン,0
199,1340001027197,新規,0,2025-03-17,2025-03-17,株式会社ＤＡＩＳＨＩＮ,,株式会社,鹿児島県,鹿児島市,西田２丁目２８番８号第１１川北ビル６０１,,46,201,8900046,,,,,,,2025-03-17,1,,,,,ダイシン,0
200,1350001019433,新規,0,2025-03-17,2025-03-17,株式会社ＩＮＴＥＲ　ＳＥＣＴＩＯＮ,,株式会社,宮崎県,都城市,高木町４２２１－１２,,45,202,8850003,,,,,,,2025-03-17,1,,,,,インターセクション,0
204,1370001052341,新規,0,2025-03-17,2025-03-17,Ａホープインテリア株式会社,,株式会社,宮城県,仙台市太白区,中田４丁目１３番３５号,,04,104,9811104,,,,,,,2025-03-17,1,,,,,エーホープインテリア,0
216,1430001093932,新規,0,2025-03-17,2025-03-17,株式会社Ｄ‐Ｌａｂｏ,,株式会社,北海道,札幌市東区,東雁来六条２丁目６番４号,,01,103,0070826,,,,,,,2025-03-17,1,,,,,ディーラボ,0
217,1430001093940,新規,0,2025-03-17,2025-03-17,Ｒ‐ｐｒｏｄｕｃｔ株式会社,,株式会社,北海道,札幌市豊平区,月寒東二条１１丁目７－１５－１０２,,01,105,0620052,,,,,,,2025-03-17,1,,,,,アールプロダクト,0
219,1430003017402,新規,0,2025-03-17,2025-03-17,合同会社コードウェーブ,,合同会社,北海道,札幌市中央区,南七条西９丁目１０２６番地８ミュゲＳ７－３０２号,,01,101,0640807,,,,,,,2025-03-17,1,,,,,コードウェーブ,0
223,1430005015180,新規,0,2025-03-17,2025-03-17,医療法人札幌矯正歯科,,その他の設立登記法人,北海道,札幌市西区,宮の沢一条１丁目７－１０ワイビル宮の沢２階,,01,107,0630051,,,,,,,2025-03-17,1,,,,,サッポロキョウセイシカ,0
231,1500001026199,新規,0,2025-03-17,2025-03-17,株式会社コクリエ,,株式会社,愛媛県,新居浜市,大生院１８９５番地の１,,38,205,7920060,,,,,,,2025-03-17,1,,,,,コクリエ,0
233,1700150129625,新規,0,2025-03-17,2025-03-17,Ｓｈｅｎｚｈｅｎ　Ｒｕｉｋｅ　Ｉｎｎｏｖａｔｉｏｎ　Ｔｅｃｈｎｏｌｏｇｙ　Ｃｏ．，Ｌｔｄ,,外国会社等,,,,,,,,Ｕｎｉｔ　１７０１，Ｒｕｆｅｎｇ　Ｂｕｉｌｄｉｎｇ，５７３　Ｂｕｌｏｎｇ　Ｒｄ，Ｂａｎｔｉａｎ　Ｓｔｒｅｅｔ　Ｍａａｎｔａｎｇ　ｃｏｍｍｕｎｉｔｙ，Ｌｏｎｇｇａｎｇ　ｄｉｓｔｒｉｃｔ，Ｓｈｅｎｚｈｅｎ，Ｃｈｉｎａ,,,,,,2025-03-17,1,,,,,シンセンルイケイノベイションテクノロジーカンパニーリミテッド,0
241,2010001253057,新規,0,2025-03-17,2025-03-17,株式会社ＦＬＩＰ第３１０号,,株式会社,東京都,千代田区,丸の内２丁目７番２号,,13,101,1000005,,,,,,,2025-03-17,1,,,,,エフエルアイピーダイサンビャクジュウゴウ,0
242,2010001253065,新規,0,2025-03-17,2025-03-17,株式会社ＳＨＩＰ第１００４号,,株式会社,東京都,千代田区,丸の内２丁目７番２号,,13,101,1000005,,,,,,,2025-03-17,1,,,,,エスエイチアイピーダイセンヨンゴウ,0
243,2010001253081,新規,0,2025-03-17,2025-03-17,株式会社ＳＨＩＰ第１０２０号,,株式会社,東京都,千代田区,丸の内２丁目７番２号,,13,101,1000005,,,,,,,2025-03-17,1,,,,,エスエイチアイピーダイセンニジュウゴウ,0
244,2010001253222,新規,0,2025-03-17,2025-03-17,株式会社人間味,,株式会社,東京都,千代田区,外神田６丁目１５番４号ＭＡＳＵｎｏＳＱＵＡＲＥ・ＡＫＩＨＡＢＡＲＡ２階・Ａｉｒ－Ｅｒａ,,13,101,1010021,,,,,,,2025-03-17,1,,,,,ニンゲンミ,0
246,2010003046789,新規,0,2025-03-17,2025-03-17,合同会社ｓ‐ｐｌｏｗ,,合同会社,東京都,中央区,銀座１丁目１２－４Ｎ＆ＥＢＬＤ．７階,,13,102,1040061,,,,,,,2025-03-17,1,,,,,エスプラウ,0
254,2010401188885,新規,0,2025-03-17,2025-03-17,ドリーダム株式会社,,株式会社,東京都,港区,北青山１丁目３－３三橋ビル３階,,13,103,1070061,,,,,,,2025-03-17,1,,,,,ドリーダム,0
255,2010403034658,新規,0,2025-03-17,2025-03-17,合同会社ティグレ,,合同会社,東京都,港区,浜松町２丁目２番１５号浜松町ダイヤビル２Ｆ,,13,103,1050013,,,,,,,2025-03-17,1,,,,,ティグレ,0
257,2010405024153,新規,0,2025-03-17,2025-03-17,特定目的会社ＴＳＭＺ９,,その他の設立登記法人,東京都,港区,元赤坂１丁目１番７号,,13,103,1070051,,,,,,,2025-03-17,1,,,,,ティーエスエムゼットナイン,0
261,2010601066957,新規,0,2025-03-17,2025-03-17,株式会社オータム,,株式会社,東京都,墨田区,立花５丁目５１番１１号,,13,107,1310043,,,,,,,2025-03-17,1,,,,,オータム,0
263,2010803005325,新規,0,2025-03-17,2025-03-17,ＫＥＮＳＡＫＵ　ＡＮＤ　ＣＯＭＰＡＮＹ合同会社,,合同会社,東京都,大田区,中馬込３丁目１４番４号ＩＩコーポ光和３０５,00138366,13,111,1430027,,,,,,,2025-03-17,1,,,,,ケンサクアンドカンバニー,0
264,2010901057012,新規,0,2025-03-17,2025-03-17,株式会社３１０,,株式会社,東京都,世田谷区,世田谷１丁目２１番１０号,,13,112,1540017,,,,,,,2025-03-17,1,,,,,サトウ,0
272,2011001168393,新規,0,2025-03-17,2025-03-17,株式会社ＧｒａｎｄＡｒｔ,,株式会社,東京都,渋谷区,渋谷２丁目１９番１５宮益坂ビルディング６０９号,,13,113,1500002,,,,,,,2025-03-17,1,,,,,グランアール,0
273,2011001168468,新規,0,2025-03-17,2025-03-17,株式会社メディカル・インベストメント,,株式会社,東京都,渋谷区,恵比寿西２丁目８番４号ＥＸ恵比寿西ビル５階,,13,113,1500021,,,,,,,2025-03-17,1,,,,,メディカルインベストメント,0
276,2011101110932,新規,0,2025-03-17,2025-03-17,吉祥如意東京国際株式会社,,株式会社,東京都,新宿区,西新宿４丁目３１番３号永谷リヴュール新宿１１０４－Ａ,,13,104,1600023,,,,,,,2025-03-17,1,,,,,キチジョウニョイトウキョウコクサイ,0
280,2011501031828,新規,0,2025-03-17,2025-03-17,蜂電株式会社,,株式会社,東京都,北区,浮間１丁目１番１４号リムジンビル１２８,,13,117,1150051,,,,,,,2025-03-17,1,,,,,ハチデン,0
281,2011503006456,新規,0,2025-03-17,2025-03-17,合同会社ＳｕｍｍｅｒＴｒｅｅ,,合同会社,東京都,荒川区,荒川３丁目６１番４－８０１号,,13,118,1160002,,,,,,,2025-03-17,1,,,,,サマーツリー,0
282,2011801045775,新規,0,2025-03-17,2025-03-17,株式会社ＴＭＴ,,株式会社,東京都,足立区,佐野２丁目２５番１０号佐野サンビレッジ２Ｆ,,13,121,1210053,,,,,,,2025-03-17,1,,,,,ティーエムティー,0
284,2012401042898,新規,0,2025-03-17,2025-03-17,株式会社Ｙｌｉｌｙ,,株式会社,東京都,調布市,若葉町１丁目１－３２アザリア・ブリーズ１０１,,13,208,1820003,,,,,,,2025-03-17,1,,,,,ワイリリー,0
285,2012801023820,新規,0,2025-03-17,2025-03-17,株式会社Ｃｏｎｎｅｃｔｉｏｎ,,株式会社,東京都,武蔵村山市,三ツ藤２丁目２７番地の５,,13,223,2080021,,,,,,,2025-03-17,1,,,,,コネクション,0
300,2020003028068,新規,0,2025-03-17,2025-03-17,合同会社Ｓ‐ＷＯＲＫＳ　ＪＡＰＡＮ,,合同会社,神奈川県,川崎市宮前区,平５丁目６番４９－１０５号,,14,136,2160022,,,,,,,2025-03-17,1,,,,,エスワークスジャパン,0
303,2021001084739,新規,0,2025-03-17,2025-03-17,株式会社シュプラス,,株式会社,神奈川県,相模原市南区,上鶴間１丁目４４－２リバーヒルズ林間２０３号室,,14,153,2520302,,,,,,,2025-03-17,1,,,,,シュプラス,0
311,2030001165341,新規,0,2025-03-17,2025-03-17,ココヒログッドサン株式会社,,株式会社,埼玉県,さいたま市浦和区,元町２丁目９番５号,,11,107,3300073,,,,,,,2025-03-17,1,,,,,ココヒログッドサン,0
312,2030001165424,新規,0,2025-03-17,2025-03-17,Ｎｕｔｉｓ株式会社,,株式会社,埼玉県,さいたま市浦和区,常盤５丁目８番地４４号２－４０１号,,11,107,3300061,,,,,,,2025-03-17,1,,,,,ヌティス,0
313,2030001165457,新規,0,2025-03-17,2025-03-17,株式会社柊,,株式会社,埼玉県,八潮市,大字大曽根６４番地３,,11,234,3400834,,,,,,,2025-03-17,1,,,,,ヒイラギ,0
318,2030003026319,新規,0,2025-03-17,2025-03-17,合同会社Ｚ・Ｚ・Ｃコ・クリエーション,,合同会社,埼玉県,川口市,西青木４丁目７番１４－５号,,11,203,3320035,,,,,,,2025-03-17,1,,,,,ゼットゼットシーコクリエーション,0
319,2030003026351,新規,0,2025-03-17,2025-03-17,合同会社Ａｍｂｅｒ,,合同会社,埼玉県,志木市,本町３丁目８番３２号,,11,228,3530004,,,,,,,2025-03-17,1,,,,,アンバー,0
325,2040001137777,新規,0,2025-03-17,2025-03-17,株式会社ロームアップ,,株式会社,千葉県,千葉市中央区,中央３丁目１８番３加瀬ビル１５８,,12,101,2600013,,,,,,,2025-03-17,1,,,,,ロームアップ,0
326,2040001137819,新規,0,2025-03-17,2025-03-17,株式会社大和興業,,株式会社,千葉県,市原市,大厩１２１８番地７０,,12,219,2900002,,,,,,,2025-03-17,1,,,,,ヤマトコウギョウ,0
327,2040001137827,新規,0,2025-03-17,2025-03-17,三崎不動産管理株式会社,,株式会社,千葉県,千葉市美浜区,若葉３丁目１番地１８,,12,106,2610014,,,,,,,2025-03-17,1,,,,,ミサキフドウサンカンリ,0
328,2040001137851,新規,0,2025-03-17,2025-03-17,さくらファーム株式会社,,株式会社,千葉県,長生郡白子町,中里３３８９番地３,,12,424,2994215,,,,,,,2025-03-17,1,,,,,サクラファーム,0
329,2040001137868,新規,0,2025-03-17,2025-03-17,株式会社ＥＮＬＩＦＥ,,株式会社,千葉県,千葉市花見川区,畑町８９２番地１グレースヒル１０１号,,12,102,2620018,,,,,,,2025-03-17,1,,,,,エンライフ,0
342,2040003027101,新規,0,2025-03-17,2025-03-17,合同会社グリーンケイ,,合同会社,千葉県,千葉市花見川区,横戸町３５番１３号,,12,102,2620001,,,,,,,2025-03-17,1,,,,,グリーンケイ,0
343,2050001056316,新規,0,2025-03-17,2025-03-17,ｍｉｎｏｌａｓｅｌｆａｒｍ株式会社,,株式会社,茨城県,常総市,横曽根新田町１３５１番地１,,08,211,3002522,,,,,,,2025-03-17,1,,,,,ミノラセルファーム,0
344,2050005013577,新規,0,2025-03-17,2025-03-17,一般社団法人那珂台湾友好交流の会,,その他の設立登記法人,茨城県,那珂市,鴻巣２３２４番地,,08,226,3110133,,,,,,,2025-03-17,1,,,,,ナカタイワンユウコウコウリュウノカイ,0
345,2060001038032,新規,0,2025-03-17,2025-03-17,大川ホールディングス株式会社,,株式会社,栃木県,佐野市,金井上町２２５４番地,,09,204,3270015,,,,,,,2025-03-17,1,,,,,オオカワホールディングス,0
348,2070003005822,新規,0,2025-03-17,2025-03-17,合同会社和み,,合同会社,群馬県,藤岡市,中栗須４７０－３,,10,209,3750015,,,,,,,2025-03-17,1,,,,,ナゴミ,0
350,2080101025382,新規,0,2025-03-17,2025-03-17,株式会社オーエス・マネージ,,株式会社,静岡県,賀茂郡東伊豆町,奈良本１２４７番地２０－１０２号,,22,301,4130302,,,,,,,2025-03-17,1,,,,,オーエスマネージ,0
353,2090001019178,新規,0,2025-03-17,2025-03-17,株式会社Ｓ‐ＯＮＥ,,株式会社,山梨県,南都留郡忍野村,忍草３３３８番地１０,,19,424,4010511,,,,,,,2025-03-17,1,,,,,エスワン,0
354,2090003002776,新規,0,2025-03-17,2025-03-17,合同会社結び,,合同会社,山梨県,南アルプス市,下市之瀬１５８９,,19,208,4000314,,,,,,,2025-03-17,1,,,,,ムスビ,0
356,2100001038408,新規,0,2025-03-17,2025-03-17,株式会社人間計画,,株式会社,長野県,上田市,古里７７７番地３,,20,203,3860005,,,,,,,2025-03-17,1,,,,,ニンゲンケイカク,0
358,2100003008037,新規,0,2025-03-17,2025-03-17,合同会社ＰＩＶＯＴ,,合同会社,長野県,北佐久郡軽井沢町,大字長倉１２５９番地３３７号ラ・軽井沢パディグリオン２号館１０９,,20,321,3890111,,,,,,,2025-03-17,1,,,,,ピボット,0
360,2110003005693,新規,0,2025-03-17,2025-03-17,心米工房合同会社,,合同会社,新潟県,新潟市中央区,下大川前通２ノ町２１６３－５０６,,15,103,9518052,,,,,,,2025-03-17,1,,,,,ココメコウボウ,0
363,2120001273580,新規,0,2025-03-17,2025-03-17,ＪＹ株式会社,,株式会社,大阪府,大阪市生野区,新今里４丁目７番２２－３０２号,,27,116,5440001,,,,,,,2025-03-17,1,,,,,ジェイワイ,0
364,2120001273713,新規,0,2025-03-17,2025-03-17,株式会社スマート,,株式会社,大阪府,大阪市生野区,勝山南２丁目４番２１号,,27,116,5440021,,,,,,,2025-03-17,1,,,,,スマート,0
365,2120001273787,新規,0,2025-03-17,2025-03-17,株式会社ＺＮＴ　ｃｒｅａｔｉｏｎ,,株式会社,大阪府,大阪市東成区,中本２丁目１番１０－９０７号,,27,115,5370022,,,,,,,2025-03-17,1,,,,,ジィネヌティクリエイション,0
367,2120003028859,新規,0,2025-03-17,2025-03-17,合同会社イノベートソリューション,,合同会社,大阪府,大阪市都島区,友渕町１丁目５番８５号,,27,102,5340016,,,,,,,2025-03-17,1,,,,,イノベートソリューション,0
370,2120101071240,新規,0,2025-03-17,2025-03-17,千合株式会社,,株式会社,大阪府,堺市堺区,山本町３丁７５番地８,,27,141,5900983,,,,,,,2025-03-17,1,,,,,チゴウ,0
371,2120101071257,新規,0,2025-03-17,2025-03-17,ＷＥＧＡ　ＪＡＰＡＮ　ＩＭＰＯＲＴ　ＡＮＤ　ＥＸＰＯＲＴ株式会社,,株式会社,大阪府,和泉市,大野町２３２番地の３,,27,219,5941134,,,,,,,2025-03-17,1,,,,,ヴェガジャパンインポートアンドエクスポート,0
372,2120103006319,新規,0,2025-03-17,2025-03-17,ＨＵＯＮＧ　ＶＩＥＴ　ＱＵＡＮ合同会社,,合同会社,大阪府,富田林市,錦織東１丁目６番５号－１０５号室,,27,214,5840069,,,,,,,2025-03-17,1,,,,,フォンヴィエトクアン,0
373,2120901050575,新規,0,2025-03-17,2025-03-17,株式会社森や,,株式会社,大阪府,豊中市,春日町３丁目５番１５号,,27,203,5600052,,,,,,,2025-03-17,1,,,,,モリヤ,0
379,2130001079151,新規,0,2025-03-17,2025-03-17,株式会社霊性,,株式会社,京都府,京都市東山区,三条通白川橋東入４丁目中之町２０３番地Ｓｃｈｉｌｆ神宮道３０５,,26,105,6050034,,,,,,,2025-03-17,1,,,,,レイセイ,0
380,2130001079201,新規,0,2025-03-17,2025-03-17,株式会社ＭＡＮＭＡ　ＢＵＯＮＯ　ＫＹＯＴＯ　ＪＡＰＡＮ,,株式会社,京都府,久世郡久御山町,市田北浦５７－１,,26,322,6130022,,,,,,,2025-03-17,1,,,,,マンマボーノキョウトジャパン,0
388,2140001137734,新規,0,2025-03-17,2025-03-17,株式会社オレンジ,,株式会社,兵庫県,南あわじ市,神代國衙１６８８番地の２,,28,224,6560455,,,,,,,2025-03-17,1,,,,,オレンジ,0
389,2140001137759,新規,0,2025-03-17,2025-03-17,Ｔａｓｋ　Ｊａｐａｎ株式会社,,株式会社,兵庫県,たつの市,新宮町光都２丁目２番地１１,,28,229,6795165,,,,,,,2025-03-17,1,,,,,タスクジャパン,0
390,2140003021795,新規,0,2025-03-17,2025-03-17,合同会社アドニュービジョン,,合同会社,兵庫県,尼崎市,浜田町２丁目５３－１,,28,202,6600062,,,,,,,2025-03-17,1,,,,,アドニュービジョン,0
400,2180001165822,新規,0,2025-03-17,2025-03-17,株式会社小林商店,,株式会社,愛知県,半田市,新居町４丁目１５０番地の１,,23,205,4750039,,,,,,,2025-03-17,1,,,,,コバヤシショウテン,0
401,2180001165839,新規,0,2025-03-17,2025-03-17,株式会社ＧＲＩＴ,,株式会社,愛知県,名古屋市守山区,川村町３３２番地,,23,113,4630097,,,,,,,2025-03-17,1,,,,,グリット,0
402,2180001165954,新規,0,2025-03-17,2025-03-17,株式会社ＫＡＳＨＩＫＯ,,株式会社,愛知県,名古屋市中村区,名駅４丁目２４番地５号第２森ビル４０１,,23,105,4500002,,,,,,,2025-03-17,1,,,,,カシコ,0
414,2200001043546,新規,0,2025-03-17,2025-03-17,Ｎａｑｖｉ　ｉｎｔｅｒｎａｔｉｏｎａｌ　ｔｒａｄｉｎｇ株式会社,,株式会社,岐阜県,美濃市,極楽寺５７７番地の２,,21,207,5013763,,,,,,,2025-03-17,1,,,,,ナクヴィインターナショナルトレーディング,0
422,2250001021051,新規,0,2025-03-17,2025-03-17,株式会社西日本システムプロダクツ,,株式会社,山口県,周南市,若宮町２丁目３８番地,,35,215,7450016,,,,,,,2025-03-17,1,,,,,ニシニホンシステムプロダクツ,0
425,2250003003675,新規,0,2025-03-17,2025-03-17,合同会社Ｍプロダクション,,合同会社,山口県,下関市,豊前田町２丁目６－２２ＲｅｄＬｉｎｅビル３Ｆ,,35,201,7500018,,,,,,,2025-03-17,1,,,,,エムプロダクション,0
436,2290001109297,新規,0,2025-03-17,2025-03-17,株式会社ＬｉｎｋＥｄｇｅ,,株式会社,福岡県,福岡市東区,香椎照葉６丁目２番５１－１９０４号アイランドシティオーシャン＆フォレストタワーレジデンスＥＡＳＴ棟,,40,131,8130017,,,,,,,2025-03-17,1,,,,,リンクエッジ,0
437,2290003016517,新規,0,2025-03-17,2025-03-17,エイチアイ合同会社,,合同会社,福岡県,久留米市,北野町石崎５６番地１,,40,203,8301116,,,,,,,2025-03-17,1,,,,,エイチアイ,0
473,2430003017392,新規,0,2025-03-17,2025-03-17,合同会社北のむすび,,合同会社,北海道,札幌市豊平区,中の島二条５丁目９－２７Ｆｅｌｉｘ５０１,,01,105,0620922,,,,,,,2025-03-17,1,,,,,キタノムスビ,0
474,2430003017401,新規,0,2025-03-17,2025-03-17,合同会社ＯＮＧ,,合同会社,北海道,札幌市南区,澄川四条２丁目１１－７－４０３,,01,106,0050004,,,,,,,2025-03-17,1,,,,,オーエヌジー,0
478,2462501001024,新規,0,2025-03-17,2025-03-17,株式会社ＬＡＣ,,株式会社,北海道,標津郡中標津町,東当幌２４番地２２,,01,692,0861144,,,,,,,2025-03-17,1,,,,,ラック,0
480,2700150129624,新規,0,2025-03-17,2025-03-17,ＬＩＮＱＵＪＵＮＦＥＮＧＪＩＮＳＨＵＺＨＩＰＩＮＹＯＵＸＩＡＮＺＥＲＥＮＧＯＮＧＳＩ,,外国会社等,,,,,,,,Ｎｏ．１１７８　ｎａｎｌｉｕ　ｖｉｌｌａｇｅ，Ｘｉｎｚｈａｉ　Ｔｏｗｎ，Ｌｉｎｑｕ　ｃｏｕｎｔｙ，Ｗｅｉｆａｎｇ　Ｃｉｔｙ，Ｓｈａｎｄｏｎｇ　Ｐｒｏｖｉｎｃｅ,,,,,,2025-03-17,1,,,,,リンクジュンジンスジピンユウゲンセキニンコウシ,0
489,3010001253064,新規,0,2025-03-17,2025-03-17,株式会社ＳＨＩＰ第１００３号,,株式会社,東京都,千代田区,丸の内２丁目７番２号,,13,101,1000005,,,,,,,2025-03-17,1,,,,,エスエイチアイピーダイセンサンゴウ,0
490,3010001253080,新規,0,2025-03-17,2025-03-17,株式会社ＳＨＩＰ第１０１９号,,株式会社,東京都,千代田区,丸の内２丁目７番２号,,13,101,1000005,,,,,,,2025-03-17,1,,,,,エスエイチアイピーダイセンジュウキュウゴウ,0
491,3010001253122,新規,0,2025-03-17,2025-03-17,株式会社Ｔｓｕ,,株式会社,東京都,文京区,千駄木２丁目２０番１２－２０２号,,13,105,1130022,,,,,,,2025-03-17,1,,,,,ツウ,0
492,3010001253163,新規,0,2025-03-17,2025-03-17,Ａ＆Ｍアセット株式会社,,株式会社,東京都,中央区,晴海３丁目１３番２号,,13,102,1040053,,,,,,,2025-03-17,1,,,,,エーアンドエムアセット,0
493,3010001253196,新規,0,2025-03-17,2025-03-17,株式会社ＳｕｍＰｒｏｆｉｔ,,株式会社,東京都,中央区,晴海３丁目１３番２号,,13,102,1040053,,,,,,,2025-03-17,1,,,,,サンプロフィット,0
494,3010001253205,新規,0,2025-03-17,2025-03-17,株式会社アイデアクリエイター,,株式会社,東京都,中央区,日本橋室町１丁目１１番１２号日本橋水野ビル７階,,13,102,1030022,,,,,,,2025-03-17,1,,,,,アイデアクリエイター,0
495,3010001253213,新規,0,2025-03-17,2025-03-17,株式会社アスレーベン,,株式会社,東京都,千代田区,岩本町２丁目１５－１０ニュー山本ビル２Ｆ,,13,101,1010032,,,,,,,2025-03-17,1,,,,,アスレーベン,0
496,3010001253270,新規,0,2025-03-17,2025-03-17,Ａｌｔａｉ　ＤＭＣ　Ｊａｐａｎ株式会社,,株式会社,東京都,中央区,日本橋本町２丁目２番２号日本橋本町ＹＳビル２階在日フランス商工会議所内,,13,102,1030023,,,,,,,2025-03-17,1,,,,,アルタイディーエムシージャパン,0
497,3010001253304,新規,0,2025-03-17,2025-03-17,株式会社九十九シンシャ,,株式会社,東京都,千代田区,内神田２丁目１２番６号,,13,101,1010047,,,,,,,2025-03-17,1,,,,,ツクモシンシャ,0
498,3010001253329,新規,0,2025-03-17,2025-03-17,宏大興業株式会社,,株式会社,東京都,千代田区,神田三崎町２丁目１０番１１号Ｐｅｇビル５Ａ－７,,13,101,1010061,,,,,,,2025-03-17,1,,,,,コウダイコウギョウ,0
504,3010003046739,新規,0,2025-03-17,2025-03-17,Ｎｉｌｅ１合同会社,,合同会社,東京都,中央区,京橋２丁目１２番６号ＡＯＪ税理士法人内,,13,102,1040031,,,,,,,2025-03-17,1,,,,,ナイルワン,0
505,3010005039765,新規,0,2025-03-17,2025-03-17,小牧ロジ一般社団法人,,その他の設立登記法人,東京都,中央区,銀座１丁目６番１１号アースタックス税理士法人内,,13,102,1040061,,,,,,,2025-03-17,1,,,,,コマキロジ,0
510,3010401188728,新規,0,2025-03-17,2025-03-17,株式会社ＡＶＡＮＩ,,株式会社,東京都,港区,北青山１丁目３番１号アールキューブ青山３階,,13,103,1070061,,,,,,,2025-03-17,1,,,,,アヴァニ,0
513,3010403034649,新規,0,2025-03-17,2025-03-17,合同会社アクト,,合同会社,東京都,港区,新橋４丁目１４番１号新橋ＡＵＮＢＬＤＧ４階,,13,103,1050004,,,,,,,2025-03-17,1,,,,,アクト,0
514,3010501053781,新規,0,2025-03-17,2025-03-17,美華株式会社,,株式会社,東京都,台東区,上野７丁目３番９号豊栄アルベルゴ上野１２１１号,,13,106,1100005,,,,,,,2025-03-17,1,,,,,ミカ,0
515,3010503007760,新規,0,2025-03-17,2025-03-17,合同会社メーター,,合同会社,東京都,台東区,橋場１丁目２６番３号,,13,106,1110023,,,,,,,2025-03-17,1,,,,,メーター,0
522,3010601066964,新規,0,2025-03-17,2025-03-17,株式会社マークロード,,株式会社,東京都,江東区,大島８丁目２８番２４－１００６号,,13,108,1360072,,,,,,,2025-03-17,1,,,,,マークロード,0
524,3010603011448,新規,0,2025-03-17,2025-03-17,カラダデザイン合同会社,,合同会社,東京都,江東区,亀戸６丁目１６－８ラ・トルチュ亀戸１０１,,13,108,1360071,,,,,,,2025-03-17,1,,,,,カラダデザイン,0
526,3010701047402,新規,0,2025-03-17,2025-03-17,日亜商事株式会社,,株式会社,東京都,品川区,大崎２丁目１番２－１９０８号,,13,109,1410032,,,,,,,2025-03-17,1,,,,,ニチアショウジ,0
528,3010801035934,新規,0,2025-03-17,2025-03-17,株式会社木村不動産,,株式会社,東京都,大田区,蒲田１丁目１６－３,,13,111,1440052,,,,,,,2025-03-17,1,,,,,キムラフドウサン,0
529,3010803005324,新規,0,2025-03-17,2025-03-17,合同会社ＨＯＭＭＡ＆Ｃｏ．,,合同会社,東京都,大田区,北千束３丁目２０番８号,,13,111,1450062,,,,,,,2025-03-17,1,,,,,ホンマアンドコ,0
530,3010901056995,新規,0,2025-03-17,2025-03-17,株式会社Ｒｉｓｉｎｇ　Ｓｕｎ,,株式会社,東京都,世田谷区,池尻２丁目９番８号エンドウビル２０１号室,,13,112,1540001,,,,,,,2025-03-17,1,,,,,ライジングサン,0
531,3010901057011,新規,0,2025-03-17,2025-03-17,株式会社Ｆｏｒｍｉｇａ,,株式会社,東京都,世田谷区,池尻２丁目９－８エンドウビル２０１,,13,112,1540001,,,,,,,2025-03-17,1,,,,,フォルミーガ,0
535,3011001168483,新規,0,2025-03-17,2025-03-17,株式会社ナンバーシックス,,株式会社,東京都,渋谷区,桜丘町２９番３５号,,13,113,1500031,,,,,,,2025-03-17,1,,,,,ナンバーシックス,0
536,3011001168558,新規,0,2025-03-17,2025-03-17,株式会社チョコフロッグ,,株式会社,東京都,渋谷区,渋谷２丁目１９ー１５宮益坂ビルディング６０９,,13,113,1500002,,,,,,,2025-03-17,1,,,,,チョコフロッグ,0
541,3011101111062,新規,0,2025-03-17,2025-03-17,株式会社ＰｉＣｏｎｎｅｃｔ,,株式会社,東京都,新宿区,西新宿３丁目５番１２号トーカン新宿第２キャステール２０９号室,,13,104,1600023,,,,,,,2025-03-17,1,,,,,ピコネクト,0
543,3011303005459,新規,0,2025-03-17,2025-03-17,合同会社フューチャーアーセナル,,合同会社,東京都,杉並区,永福３丁目３番１２号ウエスト１２・２０１,,13,115,1680064,,,,,,,2025-03-17,1,,,,,フューチャーアーセナル,0
546,3011503006455,新規,0,2025-03-17,2025-03-17,合同会社インテリア・アヤ,,合同会社,東京都,北区,赤羽北１丁目２５番５号,,13,117,1150052,,,,,,,2025-03-17,1,,,,,インテリアアヤ,0
547,3011701028169,新規,0,2025-03-17,2025-03-17,Ｃｅｌｌｕｃｅｎｔ株式会社,,株式会社,東京都,江戸川区,西葛西６丁目１０－１３ドルミ西葛西小泉ビル４０２,,13,123,1340088,,,,,,,2025-03-17,1,,,,,セルセント,0
548,3011701028177,新規,0,2025-03-17,2025-03-17,株式会社熱帯雨林,,株式会社,東京都,江戸川区,西葛西６丁目２８番１２－３０６号,,13,123,1340088,,,,,,,2025-03-17,1,,,,,ネッタイウリン,0
550,3011803006741,新規,0,2025-03-17,2025-03-17,ユニバーサルトレーディング合同会社,,合同会社,東京都,足立区,東伊興３丁目１５番３号,,13,121,1210801,,,,,,,2025-03-17,1,,,,,ユニバーサルトレーディング,0
552,3012405005090,新規,0,2025-03-17,2025-03-17,一般社団法人和モダンライフスタイル協会,,その他の設立登記法人,東京都,狛江市,岩戸南２丁目１５番６号グランヒルズＡ２０３,,13,219,2010005,,,,,,,2025-03-17,1,,,,,ワモダンライフスタイルキョウカイ,0
566,3020001161860,新規,0,2025-03-17,2025-03-17,株式会社ＪｕｓｔＫｅｅｐ,,株式会社,神奈川県,横浜市西区,戸部町１丁目１５番地２ＳＰレジデンス３０６号,,14,103,2200042,,,,,,,2025-03-17,1,,,,,ジャストキープ,0
567,3020001161893,新規,0,2025-03-17,2025-03-17,株式会社ゼロワン,,株式会社,神奈川県,横浜市港北区,新羽町２７５９番地１,,14,109,2230057,,,,,,,2025-03-17,1,,,,,ゼロワン,0
569,3020003028059,新規,0,2025-03-17,2025-03-17,ＰＲＯＪＥＣＴ宙合同会社,,合同会社,神奈川県,横浜市青葉区,あざみ野１丁目１１番地１あざみ野センタービル３階,,14,117,2250011,,,,,,,2025-03-17,1,,,,,プロジェクトソラ,0
573,3021001084696,新規,0,2025-03-17,2025-03-17,岩崎眼鏡工業株式会社,,株式会社,神奈川県,小田原市,本町３丁目１番３号,,14,206,2500012,,,,,,,2025-03-17,1,,,,,イワサキガンキョウコウギョウ,0
584,3030003026334,新規,0,2025-03-17,2025-03-17,カチサイ合同会社,,合同会社,埼玉県,吉川市,大字木売新田４５７番地,,11,243,3420044,,,,,,,2025-03-17,1,,,,,カチサイ,0
585,3030003026342,新規,0,2025-03-17,2025-03-17,ＢＬＵＥ　ＬＡＢＥＬ　Ｓｏｌｕｔｉｏｎｓ合同会社,,合同会社,埼玉県,さいたま市大宮区,桜木町２丁目３番地大宮マルイ７階,,11,103,3300854,,,,,,,2025-03-17,1,,,,,ブルーレーベルソリューションズ,0
591,3040001137719,新規,0,2025-03-17,2025-03-17,株式会社Ｋ‐Ｎｅｘｕｓ,,株式会社,千葉県,柏市,若柴１６５－３アルカンシエル１階,,12,217,2770871,,,,,,,2025-03-17,1,,,,,ケイネクサス,0
592,3040001137784,新規,0,2025-03-17,2025-03-17,株式会社凪人,,株式会社,千葉県,木更津市,中島２０５０番地,,12,206,2920008,,,,,,,2025-03-17,1,,,,,ナギト,0
593,3040001137792,新規,0,2025-03-17,2025-03-17,株式会社クラージュ,,株式会社,千葉県,千葉市若葉区,御殿町１番地３,,12,104,2650074,,,,,,,2025-03-17,1,,,,,クラージュ,0
594,3040001137818,新規,0,2025-03-17,2025-03-17,株式会社アンフィニ,,株式会社,千葉県,市原市,青柳２１０１番地１バーテックス１０６号,,12,219,2990102,,,,,,,2025-03-17,1,,,,,アンフィニ,0
595,3040001137826,新規,0,2025-03-17,2025-03-17,株式会社スサノオ,,株式会社,千葉県,流山市,大字東深井８８５番地の６７,,12,220,2700101,,,,,,,2025-03-17,1,,,,,スサノオ,0
596,3040001137842,新規,0,2025-03-17,2025-03-17,株式会社ＲＥＸＡＲＴＥ,,株式会社,千葉県,船橋市,二和西６丁目１番３号,,12,204,2740806,,,,,,,2025-03-17,1,,,,,レキサルト,0
597,3040001137859,新規,0,2025-03-17,2025-03-17,株式会社ＬＥＡＤ,,株式会社,千葉県,千葉市美浜区,真砂５丁目２１番６号和田ビル１０１,,12,106,2610011,,,,,,,2025-03-17,1,,,,,リード,0
598,3040001137867,新規,0,2025-03-17,2025-03-17,ＷｅｌＳｔｅｅｌ株式会社,,株式会社,千葉県,市原市,五井西４丁目９番地１１－３０４,,12,219,2900038,,,,,,,2025-03-17,1,,,,,ウエルスチール,0
599,3040001137883,新規,0,2025-03-17,2025-03-17,株式会社Ｈｏｌｏｍｕａ,,株式会社,千葉県,佐倉市,染井野３丁目２５番地５,,12,212,2850831,,,,,,,2025-03-17,1,,,,,ホロムア,0
603,3040003027091,新規,0,2025-03-17,2025-03-17,合同会社ＮＧＲＴ,,合同会社,千葉県,流山市,江戸川台東４丁目１００マインドハウス１－Ｂ,,12,220,2700111,,,,,,,2025-03-17,1,,,,,エヌジーアールティー,0
604,3050001056315,新規,0,2025-03-17,2025-03-17,株式会社パーマネントバケーション,,株式会社,茨城県,猿島郡境町,大字西泉田７４１番地１,,08,546,3060431,,,,,,,2025-03-17,1,,,,,パーマネントバケーション,0
606,3050003009114,新規,0,2025-03-17,2025-03-17,合同会社ツールグリーン,,合同会社,茨城県,水戸市,堀町９４３番地の１１堀町ホームズ１０３号,,08,201,3100903,,,,,,,2025-03-17,1,,,,,ツールグリーン,0
611,3060003005475,新規,0,2025-03-17,2025-03-17,ヨシザワ合同会社,,合同会社,栃木県,宇都宮市,石井町３０１０番地２８,,09,201,3210912,,,,,,,2025-03-17,1,,,,,ヨシザワ,0
612,3070003005821,新規,0,2025-03-17,2025-03-17,合同会社ａｉｒ,,合同会社,群馬県,高崎市,本町４８番地,,10,202,3700813,,,,,,,2025-03-17,1,,,,,エアー,0
615,3090001019177,新規,0,2025-03-17,2025-03-17,株式会社ＢＡＫＳ,,株式会社,山梨県,北杜市,小淵沢町５６２２番地１リビンググレイスＡ棟,,19,209,4080044,,,,,,,2025-03-17,1,,,,,バックス,0
616,3090003002767,新規,0,2025-03-17,2025-03-17,合同会社Ｗｅｅｋｅｎｄ　Ｈｏｕｓｅ　Ｓａｉｋｏ,,合同会社,山梨県,南都留郡富士河口湖町,西湖大路原１１７５番地２,,19,430,4010332,,,,,,,2025-03-17,1,,,,,ウィークエンドハウスサイコ,0
617,3090003002775,新規,0,2025-03-17,2025-03-17,合同会社共路,,合同会社,山梨県,富士吉田市,上吉田東１丁目９番３５号,,19,202,4030032,,,,,,,2025-03-17,1,,,,,トモル,0
628,3120001273555,新規,0,2025-03-17,2025-03-17,株式会社ニュージャパン,,株式会社,大阪府,大阪市西成区,南開１丁目３－６,,27,122,5570023,,,,,,,2025-03-17,1,,,,,ニュージャパン,0
629,3120001273704,新規,0,2025-03-17,2025-03-17,大洋産業株式会社,,株式会社,大阪府,大阪市港区,夕凪１丁目８番２６号,,27,107,5520004,,,,,,,2025-03-17,1,,,,,タイヨウサンギョウ,0
630,3120001273753,新規,0,2025-03-17,2025-03-17,ユニピスホールディングス株式会社,,株式会社,大阪府,寝屋川市,萱島桜園町１８番１８－１０１号,,27,215,5720828,,,,,,,2025-03-17,1,,,,,ユニピスホールディングス,0
631,3120001273786,新規,0,2025-03-17,2025-03-17,縁氣ネットワーク株式会社,,株式会社,大阪府,大阪市中央区,本町２丁目３番４号アソルティ本町４Ｆ,,27,128,5410053,,,,,,,2025-03-17,1,,,,,エンギネットワーク,0
634,3120003028866,新規,0,2025-03-17,2025-03-17,合同会社心響言語研究所,,合同会社,大阪府,大阪市北区,梅田１丁目２番２号大阪駅前第２ビル１２－１２,,27,127,5300001,,,,,,,2025-03-17,1,,,,,シンキョウゲンゴケンキュウショ,0
635,3120003028874,新規,0,2025-03-17,2025-03-17,合同会社Ｃａｓａ　ｆｅｌｉｃｅ,,合同会社,大阪府,大阪市北区,長柄中３丁目９番１－６０１号,,27,127,5310062,,,,,,,2025-03-17,1,,,,,カーサフェリーチェ,0
638,3120101071248,新規,0,2025-03-17,2025-03-17,株式会社Ｌｉｎｋ　ｕｐ,,株式会社,大阪府,和泉市,観音寺町５３６番地の３,,27,219,5940065,,,,,,,2025-03-17,1,,,,,リンクアップ,0
639,3120103006318,新規,0,2025-03-17,2025-03-17,ＴＨＵＡＮ６９合同会社,,合同会社,大阪府,富田林市,錦織東１丁目６番５号－１０３号室,,27,214,5840069,,,,,,,2025-03-17,1,,,,,トゥアンロクキュー,0
640,3120901050608,新規,0,2025-03-17,2025-03-17,タキビノックス株式会社,,株式会社,大阪府,茨木市,東宮町１－１６－４０８,,27,211,5670812,,,,,,,2025-03-17,1,,,,,タキビノックス,0
647,3130001079225,新規,0,2025-03-17,2025-03-17,海必拓株式会社,,株式会社,京都府,京都市北区,紫竹西南町６７番地５３,,26,101,6038206,,,,,,,2025-03-17,1,,,,,カイヒタク,0
651,3130003010278,新規,0,2025-03-17,2025-03-17,エムズプラン合同会社,,合同会社,京都府,木津川市,木津川台７丁目２２番地８,,26,214,6190225,,,,,,,2025-03-17,1,,,,,エムズプラン,0
652,3130003010286,新規,0,2025-03-17,2025-03-17,合同会社心晶,,合同会社,京都府,城陽市,寺田宮ノ谷２９番地の２２４,,26,207,6100121,,,,,,,2025-03-17,1,,,,,シンショウ,0
659,3140001137733,新規,0,2025-03-17,2025-03-17,株式会社ＭＧ,,株式会社,兵庫県,姫路市,継５５番地２７,,28,201,6728004,,,,,,,2025-03-17,1,,,,,エムジー,0
660,3140001137774,新規,0,2025-03-17,2025-03-17,株式会社リブスタイルシステム,,株式会社,兵庫県,川西市,萩原１丁目３番２－５号,,28,217,6660004,,,,,,,2025-03-17,1,,,,,リブスタイルシステム,0
661,3140001137790,新規,0,2025-03-17,2025-03-17,株式会社ＭＥＲＩＡ,,株式会社,兵庫県,西宮市,名次町５番１１号,,28,204,6620024,,,,,,,2025-03-17,1,,,,,メリア,0
669,3180003028126,新規,0,2025-03-17,2025-03-17,合同会社ＥＭＵＺＥ,,合同会社,愛知県,名古屋市中村区,名駅４丁目２４番５号第２森ビル４０１,,23,105,4500002,,,,,,,2025-03-17,1,,,,,エムゼ,0
671,3180005020980,新規,0,2025-03-17,2025-03-17,特定非営利活動法人名古屋福祉事業支援友の会,,その他の設立登記法人,愛知県,名古屋市緑区,浦里４丁目１８１フラワーハイツ１０５,,23,114,4580847,,,,,,,2025-03-17,1,,,,,ナゴヤフクシジギョウシエントモノカイ,0
679,3240001064653,新規,0,2025-03-17,2025-03-17,株式会社東昇貿易,,株式会社,広島県,広島市中区,光南６丁目２番７１－２号,,34,101,7300825,,,,,,,2025-03-17,1,,,,,トウショウボウエキ,0
683,3240003007115,新規,0,2025-03-17,2025-03-17,合同会社ラブ．ステップアップ,,合同会社,広島県,広島市安佐南区,相田６丁目２９番１０号,,34,105,7310141,,,,,,,2025-03-17,1,,,,,ラブステップアップ,0
690,3260001040025,新規,0,2025-03-17,2025-03-17,株式会社ＨＩＫＡＲＩ貿易,,株式会社,岡山県,総社市,三輪７９２－２,,33,208,7191132,,,,,,,2025-03-17,1,,,,,ヒカリボウエキ,0
699,3290001109296,新規,0,2025-03-17,2025-03-17,ＡＳＫＵ・プランニング株式会社,,株式会社,福岡県,福岡市南区,塩原１丁目２番２５号,,40,134,8150032,,,,,,,2025-03-17,1,,,,,アスクプランニング,0
700,3290001109305,新規,0,2025-03-17,2025-03-17,株式会社ＴＭＰ,,株式会社,福岡県,福岡市博多区,博多駅前３丁目７番３－７０６号,,40,132,8120011,,,,,,,2025-03-17,1,,,,,ティーエムピー,0
701,3290001109313,新規,0,2025-03-17,2025-03-17,株式会社ＭＴＭ,,株式会社,福岡県,福岡市南区,野間１丁目１１番２５号,,40,134,8150041,,,,,,,2025-03-17,1,,,,,エムティーエム,0
708,3290003016516,新規,0,2025-03-17,2025-03-17,アイ・エイチ・シー合同会社,,合同会社,福岡県,福岡市博多区,石城町５－１１－８０８クレアウォーターマーク,,40,132,8120032,,,,,,,2025-03-17,1,,,,,アイエイチシー,0
709,3290003016524,新規,0,2025-03-17,2025-03-17,合同会社ＴＡＰＰＹ,,合同会社,福岡県,福岡市中央区,天神２丁目３番１０号天神パインクレスト７１９号,,40,133,8100001,,,,,,,2025-03-17,1,,,,,タッピー,0
710,3290003016540,新規,0,2025-03-17,2025-03-17,合同会社ＴＨＩＮＧＳＳ,,合同会社,福岡県,福岡市中央区,薬院２丁目１４－１０,,40,133,8100022,,,,,,,2025-03-17,1,,,,,シングス,0
711,3300001014115,新規,0,2025-03-17,2025-03-17,株式会社牛丸ホールディングス,,株式会社,佐賀県,嬉野市,嬉野町大字下宿乙１０７６番地,,41,209,8430301,,,,,,,2025-03-17,1,,,,,ギュウマルホールディングス,0
716,3330001032980,新規,0,2025-03-17,2025-03-17,株式会社ＷＡＷＡＷＡ,,株式会社,熊本県,熊本市北区,弓削１丁目２番２４－５０３号,,43,105,8618002,,,,,,,2025-03-17,1,,,,,ワワワ,0
717,3330003010893,新規,0,2025-03-17,2025-03-17,合同会社かほりの会社,,合同会社,熊本県,八代市,本野町７１９番地,,43,202,8660073,,,,,,,2025-03-17,1,,,,,カホリノカイシャ,0
718,3340001027195,新規,0,2025-03-17,2025-03-17,株式会社ｍａｒｕｄｏｒａ,,株式会社,鹿児島県,薩摩川内市,大小路町２番１０号外村ビル１０１,,46,215,8950076,,,,,,,2025-03-17,1,,,,,マルドラ,0
720,3360001034925,新規,0,2025-03-17,2025-03-17,株式会社ＳＡＫＩＭＡ,,株式会社,沖縄県,宜野湾市,大山１丁目９－１７,,47,205,9012223,,,,,,,2025-03-17,1,,,,,サキマ,0
723,3410001014095,新規,0,2025-03-17,2025-03-17,株式会社アスリル,,株式会社,秋田県,横手市,山内土渕字中島８４番地１,,05,203,0191108,,,,,,,2025-03-17,1,,,,,アスリル,0
731,3430001093922,新規,0,2025-03-17,2025-03-17,株式会社ｓｏｋｅｉ,,株式会社,北海道,札幌市中央区,南十五条西７丁目２－３,,01,101,0640915,,,,,,,2025-03-17,1,,,,,ソケイ,0
732,3430001093939,新規,0,2025-03-17,2025-03-17,株式会社ＪＳＯ,,株式会社,北海道,札幌市白石区,川下２１４３番５,,01,104,0030869,,,,,,,2025-03-17,1,,,,,ジェイエスオー,0
738,3430005015179,新規,0,2025-03-17,2025-03-17,一般社団法人おたる港クルージング協会,,その他の設立登記法人,北海道,小樽市,港町４番５号,,01,203,0470007,,,,,,,2025-03-17,1,,,,,オタルミナトクルージングキョウカイ,0
739,3450003002615,新規,0,2025-03-17,2025-03-17,ジェイズスタイル合同会社,,合同会社,北海道,旭川市,東光三条６丁目３番１０号,,01,204,0788343,,,,,,,2025-03-17,1,,,,,,0
740,3470001020633,新規,0,2025-03-17,2025-03-17,株式会社ＶＯＹＡＧＥ,,株式会社,香川県,坂出市,富士見町１丁目２番１２号,,37,203,7620046,,,,,,,2025-03-17,1,,,,,,0
745,3700150129581,新規,0,2025-03-17,2025-03-17,登戸駅前地区市街地再開発組合,,その他,神奈川県,川崎市多摩区,登戸２０５４番１号,,14,135,2140014,,,,,,,2025-03-17,1,,,,,ノボリトエキマエチクシガイチサイカイハツクミアイ,0
746,3700150129623,新規,0,2025-03-17,2025-03-17,ｓｈｅｎｚｈｅｎｓｈｉｓｈｅｎｇｄｉｗｅｉｋｅｊｉｙｏｕｘｉａｎｇｏｎｇｓｉ,,外国会社等,,,,,,,,ｓｈｅｎｚｈｅｎｓｈｉ　ｂａｏａｎｑｕ　ｘｉｘｉａｎｇｊｉｅｄａｏ　ｙａｎｔｉａｎｓｈｅｑｕ　ｙｉｎｔｉａｎｇｏｎｇｙｅｑｕ　ｑｉａｏｈｏｎｇｓｈｅｎｇｗｅｎｈｕａｃｈｕａｎｇｙｉｙｕａｎｘｉｅｚｉｌｏｕＡｄｏｎｇ２１０,,,,,,2025-03-17,1,,,,,シンセンシセンディウェイカギユウゲンコウシ,0
755,4010001252866,新規,0,2025-03-17,2025-03-17,ＰＯＰ株式会社,,株式会社,東京都,千代田区,九段南４丁目３番４号,,13,101,1020074,,,,,,,2025-03-17,1,,,,,ポップ,0
756,4010001253063,新規,0,2025-03-17,2025-03-17,株式会社ＳＨＩＰ第１００２号,,株式会社,東京都,千代田区,丸の内２丁目７番２号,,13,101,1000005,,,,,,,2025-03-17,1,,,,,エスエイチアイピーダイセンニゴウ,0
757,4010001253212,新規,0,2025-03-17,2025-03-17,株式会社Ｌａｍｉｔａ,,株式会社,東京都,文京区,白山１丁目６－４文京ＶｅｎｔｕｒｅＢａｓｅ２階Ａ１６号室,,13,105,1130001,,,,,,,2025-03-17,1,,,,,ラミータ,0
758,4010001253220,新規,0,2025-03-17,2025-03-17,株式会社ＳＴＩＲＡ,,株式会社,東京都,千代田区,麹町４丁目４番地４ＡＣＮ麹町ビル１２階,,13,101,1020083,,,,,,,2025-03-17,1,,,,,スティラ,0
759,4010001253245,新規,0,2025-03-17,2025-03-17,ＳＫＤＥホールディングス株式会社,,株式会社,東京都,千代田区,大手町１丁目５番１号,,13,101,1000004,,,,,,,2025-03-17,1,,,,,エスケーディーイーホールディングス,0
764,4010003046738,新規,0,2025-03-17,2025-03-17,Ｍｏｌｏ　ｄｉ合同会社,,合同会社,東京都,千代田区,飯田橋２丁目５番１号Ｓ＆Ｎビル１０２,,13,101,1020072,,,,,,,2025-03-17,1,,,,,モロディ,0
765,4010003046770,新規,0,2025-03-17,2025-03-17,合同会社ロア,,合同会社,東京都,千代田区,飯田橋２丁目４番１－２０１号,,13,101,1020072,,,,,,,2025-03-17,1,,,,,ロア,0
766,4010003046795,新規,0,2025-03-17,2025-03-17,Ｍ・Ｉｎｉｔｉａｔｉｖｅｓ　Ｊａｐａｎ合同会社,,合同会社,東京都,中央区,日本橋１丁目２番１０号東洋ビル,,13,102,1030027,,,,,,,2025-03-17,1,,,,,エムイニシアティブスジャパン,0
767,4010005039756,新規,0,2025-03-17,2025-03-17,一般社団法人ＩＲ２,,その他の設立登記法人,東京都,千代田区,丸の内１丁目４番１号東京共同会計事務所内,,13,101,1000005,,,,,,,2025-03-17,1,,,,,アイアールツー,0
770,4010401188735,新規,0,2025-03-17,2025-03-17,錦映株式会社,,株式会社,東京都,港区,芝２丁目２８番１１号５０６号室,,13,103,1050014,,,,,,,2025-03-17,1,,,,,キンエイ,0
771,4010401188917,新規,0,2025-03-17,2025-03-17,エイチテクノロジーズ株式会社,,株式会社,東京都,港区,浜松町２丁目２番１５号浜松町ダイヤビル２Ｆ,,13,103,1050013,,,,,,,2025-03-17,1,,,,,エイチテクノロジーズ,0
775,4010403034623,新規,0,2025-03-17,2025-03-17,ＩＣＨＩＲＵ合同会社,,合同会社,東京都,港区,北青山１丁目３番１号アールキューブ青山３階,,13,103,1070061,,,,,,,2025-03-17,1,,,,,イチル,0
778,4010501053780,新規,0,2025-03-17,2025-03-17,ＷＩＮＬＡＮＤ株式会社,,株式会社,東京都,台東区,東浅草２丁目１２番８号３０１号室,,13,106,1110025,,,,,,,2025-03-17,1,,,,,ウィンランド,0
779,4010601066963,新規,0,2025-03-17,2025-03-17,ニューワールド株式会社,,株式会社,東京都,江東区,白河３丁目７－１３寿荘２０１,,13,108,1350021,,,,,,,2025-03-17,1,,,,,ニューワールド,0
780,4010603011439,新規,0,2025-03-17,2025-03-17,Ｓｔｒａｔｕｍ合同会社,,合同会社,東京都,江東区,東雲１丁目９番４３－３０３号,,13,108,1350062,,,,,,,2025-03-17,1,,,,,ストレイタム,0
785,4010701047418,新規,0,2025-03-17,2025-03-17,株式会社ＰＯＴＡＴＯ,,株式会社,東京都,品川区,小山３丁目５番７－４０５号,,13,109,1420062,,,,,,,2025-03-17,1,,,,,ポテイト,0
789,4010703007618,新規,0,2025-03-17,2025-03-17,合同会社ｉｒｏｒｅｓ,,合同会社,東京都,品川区,中延５丁目１０番３号,,13,109,1420053,,,,,,,2025-03-17,1,,,,,イロリス,0
795,4010901057002,新規,0,2025-03-17,2025-03-17,株式会社ディーセール,,株式会社,東京都,世田谷区,三軒茶屋２丁目１９番１８号,,13,112,1540024,,,,,,,2025-03-17,1,,,,,,0
798,4011001168227,新規,0,2025-03-17,2025-03-17,ＡＮＢＵＲ　ＬＥＡＧＵＥ株式会社,,株式会社,東京都,渋谷区,元代々木町３０番１３号,,13,113,1510062,,,,,,,2025-03-17,1,,,,,アンバーリーグ,0
799,4011001168433,新規,0,2025-03-17,2025-03-17,アシーナ株式会社,,株式会社,東京都,渋谷区,渋谷２丁目１９番１５号宮益坂ビルディング６０９,,13,113,1500002,,,,,,,2025-03-17,1,,,,,アシーナ,0
802,4011003021243,新規,0,2025-03-17,2025-03-17,合同会社日仏言語学習センター,,合同会社,東京都,渋谷区,幡ヶ谷２丁目１番１５号＃２０２,,13,113,1510072,,,,,,,2025-03-17,1,,,,,ニチフツゲンゴガクシュウセンター,0
803,4011005010913,新規,0,2025-03-17,2025-03-17,一般社団法人フルエーレピラティス協会,,その他の設立登記法人,東京都,目黒区,鷹番３丁目３－１４Ｒｏｏｆ３ｂ,,13,110,1520004,,,,,,,2025-03-17,1,,,,,フルエーレピラティスキョウカイ,0
810,4011501031826,新規,0,2025-03-17,2025-03-17,Ａ＆Ａ　ＰＡＮＴＨＩ株式会社,,株式会社,東京都,荒川区,南千住２丁目３４番４－５０１号,,13,118,1160003,,,,,,,2025-03-17,1,,,,,エーアンドエーパンティ,0
811,4011501031834,新規,0,2025-03-17,2025-03-17,日本旭日精工株式会社,,株式会社,東京都,荒川区,南千住３丁目２７－２浅草ビル５０８,,13,118,1160003,,,,,,,2025-03-17,1,,,,,ニホンアサヒセイコウ,0
812,4011601028508,新規,0,2025-03-17,2025-03-17,株式会社ほぐるん,,株式会社,東京都,練馬区,石神井町３丁目２５番８号石神井ビル２Ｆ－２,,13,120,1770041,,,,,,,2025-03-17,1,,,,,ホグルン,0
813,4011701028127,新規,0,2025-03-17,2025-03-17,雷神ホールディングス株式会社,,株式会社,東京都,江戸川区,西小岩５丁目９番５号,,13,123,1330057,,,,,,,2025-03-17,1,,,,,ライジンホールディングス,0
820,4013303007574,新規,0,2025-03-17,2025-03-17,Ｒｏｖｅ　Ｔｒｏｕｐｅ合同会社,,合同会社,東京都,豊島区,池袋４丁目１４番１１号アラート池袋１１５号,,13,116,1710014,,,,,,,2025-03-17,1,,,,,ローブトループ,0
824,4020001161892,新規,0,2025-03-17,2025-03-17,株式会社ゼロハウス,,株式会社,神奈川県,横浜市都筑区,中川中央２丁目５番１３号,,14,118,2240003,,,,,,,2025-03-17,1,,,,,ゼロハウス,0
827,4020003028066,新規,0,2025-03-17,2025-03-17,合同会社Ｊｕｎ＆Ｃｏ．,,合同会社,神奈川県,川崎市麻生区,上麻生４丁目４６番５号,,14,137,2150021,,,,,,,2025-03-17,1,,,,,ジュンアンドコウ,0
828,4020003028082,新規,0,2025-03-17,2025-03-17,フェリーチェ合同会社,,合同会社,神奈川県,横浜市西区,浅間町１丁目４番３号ウィザードビル４０２,,14,103,2200072,,,,,,,2025-03-17,1,,,,,フェリーチェ,0
829,4021001084753,新規,0,2025-03-17,2025-03-17,ビーウェストドットネット株式会社,,株式会社,神奈川県,相模原市中央区,小山２丁目２番１７－２０１号,,14,152,2520205,,,,,,,2025-03-17,1,,,,,ビーウェストドットネット,0
830,4021005013304,新規,0,2025-03-17,2025-03-17,一般社団法人Ｍｉａｃａｄｅｍｉａ,,その他の設立登記法人,神奈川県,平塚市,明石町２番２３－８０２号サンクレイドル湘南平塚Ｖ,00138369,14,203,2540042,,,,,,,2025-03-17,1,,,,,ミアカデミア,0
843,4030001165372,新規,0,2025-03-17,2025-03-17,株式会社グランテラスプロモーション,,株式会社,埼玉県,川越市,大字安比奈新田１３０－１,,11,201,3501173,,,,,,,2025-03-17,1,,,,,グランテラスプロモーション,0
844,4030001165439,新規,0,2025-03-17,2025-03-17,株式会社梨森,,株式会社,埼玉県,川口市,西川口４丁目６番２１号,,11,203,3320021,,,,,,,2025-03-17,1,,,,,リシン,0
845,4030001165463,新規,0,2025-03-17,2025-03-17,株式会社クリエイトメディカル,,株式会社,埼玉県,比企郡小川町,大字中爪１０３０番地１,,11,343,3550314,,,,,,,2025-03-17,1,,,,,クリエイトメディカル,0
846,4030001165471,新規,0,2025-03-17,2025-03-17,株式会社フラクタルワークス,,株式会社,埼玉県,草加市,西町６００番地２,,11,221,3400035,,,,,,,2025-03-17,1,,,,,フラクタルワークス,0
847,4030003026309,新規,0,2025-03-17,2025-03-17,合同会社ＮｏｒｔｈＰｉｘ,,合同会社,埼玉県,所沢市,寿町２９番１０－１００５号ラフィネ所沢,,11,208,3591122,,,,,,,2025-03-17,1,,,,,ノースピックス,0
848,4030003026358,新規,0,2025-03-17,2025-03-17,ＺＡＩＮ　ＴＲＡＤＩＮＧ合同会社,,合同会社,埼玉県,春日部市,金崎１０１４番地５,,11,214,3440117,,,,,,,2025-03-17,1,,,,,ザイントレーディング,0
849,4030005022066,新規,0,2025-03-17,2025-03-17,特定非営利活動法人ＬｉｔＡ,,その他の設立登記法人,埼玉県,所沢市,北所沢町２２４２番地の２コーポラス新所沢１０３,,11,208,3590046,,,,,,,2025-03-17,1,,,,,リタ,0
851,4040001137718,新規,0,2025-03-17,2025-03-17,Ｈ＆Ｈ株式会社,,株式会社,千葉県,富里市,七栄５７１番地４６,,12,233,2860221,,,,,,,2025-03-17,1,,,,,エイチアンドエイチ,0
852,4040001137791,新規,0,2025-03-17,2025-03-17,ｓｉｎｃｅｒｉｔｙ株式会社,,株式会社,千葉県,市原市,ちはら台東１丁目２５番地１１０,,12,219,2900141,,,,,,,2025-03-17,1,,,,,シンセリティ,0
853,4040001137800,新規,0,2025-03-17,2025-03-17,株式会社Ｒｉｌｌａ,,株式会社,千葉県,市川市,鬼高１丁目７番１０号,,12,203,2720015,,,,,,,2025-03-17,1,,,,,リラ,0
854,4040001137809,新規,0,2025-03-17,2025-03-17,株式会社ＵＰ　ＦＬＡＧ　ＧＲＯＵＰ,,株式会社,千葉県,千葉市美浜区,中瀬１丁目６番地ｍＢＡＹＰＯＩＮＴ幕張２階,,12,106,2610023,,,,,,,2025-03-17,1,,,,,アップフラッググループ,0
855,4040001137825,新規,0,2025-03-17,2025-03-17,株式会社はちはぐ,,株式会社,千葉県,浦安市,北栄４丁目２０番１号,,12,227,2790002,,,,,,,2025-03-17,1,,,,,ハチハグ,0
856,4040001137833,新規,0,2025-03-17,2025-03-17,株式会社ＭＯＮＯ　Ａｓｓｏｃｉａｔｅｓ,,株式会社,千葉県,佐倉市,宮ノ台１丁目８番３０号,,12,212,2850857,,,,,,,2025-03-17,1,,,,,モノアソシエイツ,0
857,4040001137858,新規,0,2025-03-17,2025-03-17,株式会社日ノ馬ＬＩＦＥ,,株式会社,千葉県,富里市,七栄８９７番地９（シャイネスストーリアＩＶ２０２）,00138364,12,233,2860221,,,,,,,2025-03-17,1,,,,,ヒノマライフ,0
858,4040001137866,新規,0,2025-03-17,2025-03-17,株式会社ラブインブルーム,,株式会社,千葉県,野田市,山崎２０９７番地の４,,12,208,2780022,,,,,,,2025-03-17,1,,,,,ラブインブルーム,0
862,4050001056314,新規,0,2025-03-17,2025-03-17,株式会社オサキオート,,株式会社,茨城県,古河市,尾崎２８５５番地１,,08,204,3060101,,,,,,,2025-03-17,1,,,,,オサキオート,0
863,4050001056322,新規,0,2025-03-17,2025-03-17,株式会社ＧＯＯＬＯ,,株式会社,茨城県,つくば市,西高野５９３番地１,,08,220,3002613,,,,,,,2025-03-17,1,,,,,グーロ,0
865,4060003005474,新規,0,2025-03-17,2025-03-17,合同会社ｐｈａｌａｎｘ,,合同会社,栃木県,宇都宮市,東峰町３０６０－５８,,09,201,3210944,,,,,,,2025-03-17,1,,,,,ファランクス,0
869,4080101025380,新規,0,2025-03-17,2025-03-17,株式会社ＳＥＧＡＷＡ　Ａｒｃｈｉｔｅｃｔｓ,,株式会社,静岡県,三島市,本町７番２７号,,22,206,4110855,,,,,,,2025-03-17,1,,,,,,0
876,4090001019184,新規,0,2025-03-17,2025-03-17,株式会社サンテレコムホールディングス,,株式会社,山梨県,甲府市,中央２丁目１３番２号,,19,201,4000032,,,,,,,2025-03-17,1,,,,,サンテレコムホールディングス,0
877,4090003002774,新規,0,2025-03-17,2025-03-17,ＫｅＮ’ｓ合同会社,,合同会社,山梨県,南都留郡山中湖村,平野１２６７番地,,19,425,4010502,,,,,,,2025-03-17,1,,,,,ケンズ,0
884,4120001273661,新規,0,2025-03-17,2025-03-17,エムインベストメント株式会社,,株式会社,大阪府,大阪市北区,豊崎３丁目２０番１０号,,27,127,5310072,,,,,,,2025-03-17,1,,,,,エムインベストメント,0
885,4120001273703,新規,0,2025-03-17,2025-03-17,ＫＳＦ株式会社,,株式会社,大阪府,大阪市北区,大淀南２丁目９番２２－６０２号,,27,127,5310075,,,,,,,2025-03-17,1,,,,,ケーエスエフ,0
886,4120001273728,新規,0,2025-03-17,2025-03-17,株式会社ＳＵＫ　ＡＳＳＥＴ　ＭＡＮＡＧＥＭＥＮＴ,,株式会社,大阪府,大阪市大正区,北恩加島１丁目４番５－１２０４号,,27,108,5510033,,,,,,,2025-03-17,1,,,,,スックアセットマネージメント,0
887,4120001273744,新規,0,2025-03-17,2025-03-17,株式会社ＤＩＡ　ＴＲＥＥ,,株式会社,大阪府,大阪市西区,南堀江３丁目１６番２１号シエリアタワー大阪堀江３９０３室,,27,106,5500015,,,,,,,2025-03-17,1,,,,,ダイアツリー,0
888,4120001273785,新規,0,2025-03-17,2025-03-17,株式会社ビジュパス,,株式会社,大阪府,大阪市中央区,日本橋１丁目２１－７,,27,128,5420073,,,,,,,2025-03-17,1,,,,,ビジュパス,0
889,4120001273950,新規,0,2025-03-17,2025-03-17,株式会社エム,,株式会社,大阪府,大阪市都島区,中野町３丁目５番１０号中三モータープール３号,,27,102,5340027,,,,,,,2025-03-17,1,,,,,エム,0
891,4120003028873,新規,0,2025-03-17,2025-03-17,合同会社Ｍコンパッション,,合同会社,大阪府,大阪市此花区,西九条６丁目１番１２５－１２０号,,27,104,5540012,,,,,,,2025-03-17,1,,,,,エムコンパッション,0
902,4120101071255,新規,0,2025-03-17,2025-03-17,株式会社ｊｉｊｉ,,株式会社,大阪府,岸和田市,摩湯町３４３番地,,27,202,5960806,,,,,,,2025-03-17,1,,,,,ジジ,0
903,4120101071263,新規,0,2025-03-17,2025-03-17,株式会社石田,,株式会社,大阪府,松原市,別所２丁目２番３号,,27,217,5800005,,,,,,,2025-03-17,1,,,,,イシダ,0
906,4120103006325,新規,0,2025-03-17,2025-03-17,ベストフーズジャパン合同会社,,合同会社,大阪府,富田林市,向陽台２丁目２２番１５号（２０１）,,27,214,5840082,,,,,,,2025-03-17,1,,,,,ベストフーズジャパン,0
907,4120901050581,新規,0,2025-03-17,2025-03-17,株式会社ｓｉｒｏｎ,,株式会社,大阪府,豊中市,緑丘１丁目２０番１４の２号,,27,203,5600002,,,,,,,2025-03-17,1,,,,,シロン,0
911,4122003003146,新規,0,2025-03-17,2025-03-17,合同会社ベル,,合同会社,大阪府,八尾市,刑部４丁目２２０番地の２,,27,212,5810015,,,,,,,2025-03-17,1,,,,,ベル,0
912,4130005017312,新規,0,2025-03-17,2025-03-17,一般社団法人寿々舎,,その他の設立登記法人,京都府,京都市下京区,小稲荷町８５－２Ｇｒａｎｄ－Ｋ京都駅ビル２０１,,26,106,6008208,,,,,,,2025-03-17,1,,,,,スズシャ,0
915,4140001137749,新規,0,2025-03-17,2025-03-17,株式会社ＵＮＩＯＮ　ＢＡＳＥ,,株式会社,兵庫県,神戸市中央区,中山手通７丁目１４番１－８１６号,,28,110,6500004,,,,,,,2025-03-17,1,,,,,ユニオンベース,0
917,4140003021793,新規,0,2025-03-17,2025-03-17,合同会社岡有,,合同会社,兵庫県,神戸市西区,今寺３５番地の３－２０１号,,28,111,6512114,,,,,,,2025-03-17,1,,,,,オカユウ,0
918,4150001027965,新規,0,2025-03-17,2025-03-17,株式会社コーケンエンジニアリング,,株式会社,奈良県,橿原市,菖蒲町２丁目１２番８号,,29,205,6340042,,,,,,,2025-03-17,1,,,,,コーケンエンジニアリング,0
920,4160003003419,新規,0,2025-03-17,2025-03-17,合同会社ＭＥＥＡＴｓ,,合同会社,滋賀県,草津市,渋川２丁目５番１５－１４０３号プレサンスロジェ草津シエル,,25,206,5250026,,,,,,,2025-03-17,1,,,,,ミーツ,0
930,4180003028125,新規,0,2025-03-17,2025-03-17,Ｎｕ合同会社,,合同会社,愛知県,名古屋市中区,丸の内３丁目２０番２０号チサンマンション丸の内第３．３０３,,23,106,4600002,,,,,,,2025-03-17,1,,,,,ヌー,0
931,4180003028158,新規,0,2025-03-17,2025-03-17,合同会社ＭＩＬＯＸ,,合同会社,愛知県,名古屋市中村区,名駅４丁目２４番５号第２森ビル４０１,,23,105,4500002,,,,,,,2025-03-17,1,,,,,ミロクス,0
935,4200003006739,新規,0,2025-03-17,2025-03-17,合同会社ＭＷ　Ｈｉｇｈｌａｎｄ　Ｃａｐｉｔａｌ,,合同会社,岐阜県,郡上市,高鷲町ひるがの４６７０番地８８５,,21,219,5015301,,,,,,,2025-03-17,1,,,,,エムダブリューハイランドキャピタル,0
939,4240003007114,新規,0,2025-03-17,2025-03-17,笑顔がいっぱい合同会社,,合同会社,広島県,広島市中区,東千田町１丁目１番５５－３１０６号,,34,101,7300053,,,,,,,2025-03-17,1,,,,,エガオガイッパイ,0
942,4260001040024,新規,0,2025-03-17,2025-03-17,株式会社ｃｒａｓｈ,,株式会社,岡山県,岡山市中区,福泊３９－８,,33,102,7038262,,,,,,,2025-03-17,1,,,,,クラッシュ,0
951,4290001109295,新規,0,2025-03-17,2025-03-17,エメミニョン株式会社,,株式会社,福岡県,久留米市,国分町３５４番地３３,,40,203,8390863,,,,,,,2025-03-17,1,,,,,エメミニョン,0
952,4290001109312,新規,0,2025-03-17,2025-03-17,株式会社ＳＯＬＸ,,株式会社,福岡県,福岡市城南区,長尾３丁目２３番２４号,,40,136,8140123,,,,,,,2025-03-17,1,,,,,ソルクス,0
953,4290001109320,新規,0,2025-03-17,2025-03-17,株式会社Ｔｕｒｔｌｅｓ,,株式会社,福岡県,福岡市東区,香椎照葉３丁目２番７－２６０２号アイタワー,,40,131,8130017,,,,,,,2025-03-17,1,,,,,タートルズ,0
954,4290003016515,新規,0,2025-03-17,2025-03-17,ＵＲＢＡＮ　ＫＩＤＳ　ＪＡＰＡＮ合同会社,,合同会社,福岡県,福岡市東区,西戸崎２丁目１番３０－１０１２号,,40,131,8110321,,,,,,,2025-03-17,1,,,,,アーバンキッズジャパン,0
956,4290801031368,新規,0,2025-03-17,2025-03-17,株式会社ニコガオ,,株式会社,福岡県,北九州市小倉南区,湯川新町３丁目２０番６５号,,40,107,8000256,,,,,,,2025-03-17,1,,,,,ニコガオ,0
966,4310003004962,新規,0,2025-03-17,2025-03-17,合同会社吉尾企画,,合同会社,長崎県,南松浦郡新上五島町,有川郷２５１５番地１,,42,411,8574211,,,,,,,2025-03-17,1,,,,,ヨシオキカク,0
968,4320001020993,新規,0,2025-03-17,2025-03-17,地域活性株式会社きっかけ,,株式会社,大分県,竹田市,大字竹田町１７１番地,,44,208,8780012,,,,,,,2025-03-17,1,,,,,チイキカッセイキッカケ,0
969,4320003004598,新規,0,2025-03-17,2025-03-17,合同会社ＮＥＸＴ,,合同会社,大分県,大分市,青葉台３丁目２２－２,,44,201,8700875,,,,,,,2025-03-17,1,,,,,ネクスト,0
976,4330001032971,新規,0,2025-03-17,2025-03-17,エムズコネクテッド株式会社,,株式会社,熊本県,上益城郡甲佐町,大字下横田４３５番地１４５,,43,444,8614621,,,,,,,2025-03-17,1,,,,,エムズコネクテッド,0
977,4330003010901,新規,0,2025-03-17,2025-03-17,合同会社あおさぎスタジオ,,合同会社,熊本県,熊本市中央区,上通町２番１７号びぷれす熊日会館７階,,43,101,8600845,,,,,,,2025-03-17,1,,,,,アオサギスタジオ,0
980,4350003004876,新規,0,2025-03-17,2025-03-17,合同会社楽紙夢屋,,合同会社,宮崎県,宮崎市,大字赤江８４９－６,,45,201,8800912,,,,,,,2025-03-17,1,,,,,タノシムヤ,0
987,4360003014767,新規,0,2025-03-17,2025-03-17,ＳＭＪビジネス合同会社,,合同会社,沖縄県,中頭郡西原町,字幸地３２１－１４,,47,329,9030116,,,,,,,2025-03-17,1,,,,,エスエムジェイビジネス,0
993,4390001017926,新規,0,2025-03-17,2025-03-17,株式会社ミライ,,株式会社,山形県,寒河江市,大字寒河江字塩水９番地の８,,06,206,9910041,,,,,,,2025-03-17,1,,,,,ミライ,0
994,4400001016975,新規,0,2025-03-17,2025-03-17,株式会社ａ‐ｌｉｖｅ　ｐｌａｃｅ,,株式会社,岩手県,盛岡市,三本柳７地割１３番地８,,03,201,0200831,,,,,,,2025-03-17,1,,,,,アライブプレイス,0
995,4400003003410,新規,0,2025-03-17,2025-03-17,合同会社タカマサ,,合同会社,岩手県,盛岡市,東新庄２丁目２１番６号,,03,201,0200805,,,,,,,2025-03-17,1,,,,,タカマサ,0
1005,4430001093938,新規,0,2025-03-17,2025-03-17,株式会社家と人,,株式会社,北海道,札幌市豊平区,月寒東二条１９丁目３番７号サンパレス月寒東１０３号,,01,105,0620052,,,,,,,2025-03-17,1,,,,,イエトヒト,0
1009,4430003017399,新規,0,2025-03-17,2025-03-17,合同会社ＨＯＰＥ,,合同会社,北海道,札幌市中央区,南二条西１０丁目１０００番地７二条パークビル５Ｆ,,01,101,0600062,,,,,,,2025-03-17,1,,,,,ホープ,0
1010,4430003017416,新規,0,2025-03-17,2025-03-17,合同会社ノルドタイフーン,,合同会社,北海道,札幌市南区,澄川四条２丁目１１－７－４０３,,01,106,0050004,,,,,,,2025-03-17,1,,,,,ノルドタイフーン,0
1013,4450005004443,新規,0,2025-03-17,2025-03-17,一般社団法人こどものミカタ,,その他の設立登記法人,北海道,旭川市,五条通１２丁目１４１２番地の１旭川５条ビルマンション４０１号室,,01,204,0700035,,,,,,,2025-03-17,1,,,,,コドモノミカタ,0
1015,4500003003458,新規,0,2025-03-17,2025-03-17,合同会社幸多,,合同会社,愛媛県,伊予市,宮下８５２番地,,38,210,7993102,,,,,,,2025-03-17,1,,,,,コウタ,0
1016,4700150129622,新規,0,2025-03-17,2025-03-17,ＳＨＥＮＺＨＥＮ　ＥＡＴＥＲＯＮ　ＣＯＭＰＡＮＹ　ＬＩＭＩＴＥＤ,,外国会社等,,,,,,,,ＲＯＯＭ　６０６，ＮＯ．２８８　ＤＡＨＥ　ＲＯＡＤ，ＧＵＡＮＣＨＥＮＧ　ＣＯＭＭＵＮＩＴＹ，ＧＵＡＮＨＵ　ＳＴＲＥＥＴ，ＬＯＮＧ　ＨＵＡ，ＳＨＥＮＺＨＥＮ，ＣＨＩＮＡ,,,,,,2025-03-17,1,,,,,シンセンイーターロンカンパニーリミテッド,0
1024,5010001252980,新規,0,2025-03-17,2025-03-17,株式会社プロモコネクト,,株式会社,東京都,中央区,銀座１丁目１２番４号Ｎ＆ＥＢＬＤ．６Ｆ,,13,102,1040061,,,,,,,2025-03-17,1,,,,,プロモコネクト,0
1025,5010001253062,新規,0,2025-03-17,2025-03-17,株式会社ＳＨＩＰ第１００１号,,株式会社,東京都,千代田区,丸の内２丁目７番２号,,13,101,1000005,,,,,,,2025-03-17,1,,,,,エスエイチアイピーダイセンイチゴウ,0
1026,5010001253079,新規,0,2025-03-17,2025-03-17,株式会社ＳＨＩＰ第１０１８号,,株式会社,東京都,千代田区,丸の内２丁目７番２号,,13,101,1000005,,,,,,,2025-03-17,1,,,,,エスエイチアイピーダイセンジュウハチゴウ,0
1027,5010001253186,新規,0,2025-03-17,2025-03-17,株式会社桂誠,,株式会社,東京都,千代田区,外神田４丁目１４番２号東京タイムズタワー３８０６,,13,101,1010021,,,,,,,2025-03-17,1,,,,,ケイセイ,0
1028,5010001253203,新規,0,2025-03-17,2025-03-17,転職ＡＩ株式会社,,株式会社,東京都,千代田区,神田須田町１丁目７番８号ＶＯＲＴ秋葉原ＩＶ２Ｆ,00138372,13,101,1010041,,,,,,,2025-03-17,1,,,,,テンショクエーアイ,0
1029,5010001253244,新規,0,2025-03-17,2025-03-17,株式会社ソラリ,,株式会社,東京都,千代田区,九段南３丁目７番２号九段みなみビル２Ｆ,,13,101,1020074,,,,,,,2025-03-17,1,,,,,ソラリ,0
1030,5010001253252,新規,0,2025-03-17,2025-03-17,株式会社エクシードテック,,株式会社,東京都,千代田区,飯田橋２丁目１１番３－５０２号,,13,101,1020072,,,,,,,2025-03-17,1,,,,,エクシードテック,0
1031,5010001253269,新規,0,2025-03-17,2025-03-17,株式会社ライズ,,株式会社,東京都,中央区,銀座１丁目１２－４Ｎ＆Ｅ・ＢＬＤ．７階,,13,102,1040061,,,,,,,2025-03-17,1,,,,,ライズ,0
1035,5010003046786,新規,0,2025-03-17,2025-03-17,合同会社壇,,合同会社,東京都,中央区,銀座７丁目２－１４第２６ポールスタービル８階,,13,102,1040061,,,,,,,2025-03-17,1,,,,,ダン,0
1043,5010401188370,新規,0,2025-03-17,2025-03-17,ＴＡホールディング株式会社,,株式会社,東京都,港区,西麻布３丁目２４番１７号西麻布広瀬ビル３階,,13,103,1060031,,,,,,,2025-03-17,1,,,,,ティーエーホールディング,0
1044,5010401188916,新規,0,2025-03-17,2025-03-17,株式会社本気ですか,,株式会社,東京都,港区,北青山１丁目３番１号アールキューブ青山３階,,13,103,1070061,,,,,,,2025-03-17,1,,,,,ホンキデスカ,0
1045,5010401188973,新規,0,2025-03-17,2025-03-17,麻布システム株式会社,,株式会社,東京都,港区,麻布十番３丁目１－４－４１１,,13,103,1060045,,,,,,,2025-03-17,1,,,,,アザブシステム,0
1049,5010403034622,新規,0,2025-03-17,2025-03-17,合同会社Ｂｒｅａｔｅ,,合同会社,東京都,港区,新橋４丁目１４番１新橋ＡＵＮＢＬＤＧ４階,,13,103,1050004,,,,,,,2025-03-17,1,,,,,ブリート,0
1050,5010405024142,新規,0,2025-03-17,2025-03-17,一般社団法人日本スタートアップ監査役等協会,,その他の設立登記法人,東京都,港区,虎ノ門１丁目１７番１号虎ノ門ヒルズビジネスタワー１５階,,13,103,1050001,,,,,,,2025-03-17,1,,,,,,0
1051,5010405024209,新規,0,2025-03-17,2025-03-17,一般社団法人Ｍａｎ‐ｙｉ,,その他の設立登記法人,東京都,港区,虎ノ門１丁目１番１８号ヒューリック虎ノ門ビル９階Ｌ＆Ｐ司法書士法人内,,13,103,1050001,,,,,,,2025-03-17,1,,,,,マンニィ,0
1055,5010603011438,新規,0,2025-03-17,2025-03-17,合同会社風薫堂,,合同会社,東京都,墨田区,横川４丁目１２番２号ジュウエル錦糸町８０１号,,13,107,1300003,,,,,,,2025-03-17,1,,,,,カゼカオルドウ,0
1064,5010901057001,新規,0,2025-03-17,2025-03-17,アセットリレーションズ株式会社,,株式会社,東京都,世田谷区,上馬１丁目５番１０グラーサ駒沢大学７０２号,,13,112,1540011,,,,,,,2025-03-17,1,,,,,アセットリレーションズ,0
1067,5011001168424,新規,0,2025-03-17,2025-03-17,株式会社Ａ．Ｋ．Ｉｎｎｏｖａｔｉｏｎ,,株式会社,東京都,目黒区,下目黒６丁目１２番２４－４２５号シティハウス下目黒,,13,110,1530064,,,,,,,2025-03-17,1,,,,,エーケーイノベーション,0
1068,5011001168481,新規,0,2025-03-17,2025-03-17,ＦＰ　Ｓｕｐｐｏｒｔ株式会社,,株式会社,東京都,渋谷区,恵比寿西２丁目４番８号ウィンド恵比寿ビル８Ｆ,,13,113,1500021,,,,,,,2025-03-17,1,,,,,エフピーサポート,0
1074,5011303005457,新規,0,2025-03-17,2025-03-17,ＳＴリサーチ＆コンサルティング合同会社,,合同会社,東京都,杉並区,永福１丁目３７番１６号,,13,115,1680064,,,,,,,2025-03-17,1,,,,,エスティリサーチアンドコンサルティング,0
1077,5011401026917,新規,0,2025-03-17,2025-03-17,株式会社Ｍａｖｅｒｉｃｋ＆Ｔｒｕｓｔ,,株式会社,東京都,板橋区,熊野町３６番１０－３０２号,,13,119,1730025,,,,,,,2025-03-17,1,,,,,マーヴェリックトラスト,0
1079,5011501031825,新規,0,2025-03-17,2025-03-17,株式会社Ｆｏｏｄ　Ｑｕｉｎｔｅｔ,,株式会社,東京都,北区,赤羽北１丁目４番４号,,13,117,1150052,,,,,,,2025-03-17,1,,,,,フードクインテット,0
1080,5011501031833,新規,0,2025-03-17,2025-03-17,株式会社ＴＳＫ,,株式会社,東京都,北区,志茂５丁目４番７号メゾンダジュール１Ｆ,,13,117,1150042,,,,,,,2025-03-17,1,,,,,ティーエスケー,0
1081,5011503006453,新規,0,2025-03-17,2025-03-17,合同会社ＵＣＨＩ‐ＯＮＥ,,合同会社,東京都,荒川区,東日暮里１丁目３５番１号,,13,118,1160014,,,,,,,2025-03-17,1,,,,,ウチワン,0
1084,5012803003652,新規,0,2025-03-17,2025-03-17,ＩＳＦサポート合同会社,,合同会社,東京都,昭島市,郷地町１丁目２０番２１号,,13,207,1960032,,,,,,,2025-03-17,1,,,,,アイエスエフサポート,0
1087,5013301053958,新規,0,2025-03-17,2025-03-17,株式会社ＵＰ　ＦＩＥＬＤ,,株式会社,東京都,豊島区,東池袋３丁目２１番２１－２８０９号,,13,116,1700013,,,,,,,2025-03-17,1,,,,,アップフィールド,0
1091,5020001161834,新規,0,2025-03-17,2025-03-17,株式会社ＲＥＳ,,株式会社,神奈川県,横浜市青葉区,あざみ野南３丁目２番地３２,,14,117,2250012,,,,,,,2025-03-17,1,,,,,レス,0
1092,5020001161875,新規,0,2025-03-17,2025-03-17,株式会社リーベルタス,,株式会社,神奈川県,横浜市南区,六ツ川３丁目１２４番地５５,,14,105,2320066,,,,,,,2025-03-17,1,,,,,リーベルタス,0
1096,5021001084728,新規,0,2025-03-17,2025-03-17,株式会社中津川,,株式会社,神奈川県,小田原市,久野１４３番地,,14,206,2500055,,,,,,,2025-03-17,1,,,,,ナカツガワ,0
1098,5021005013303,新規,0,2025-03-17,2025-03-17,一般社団法人着物ドレスプロジェクト協会,,その他の設立登記法人,神奈川県,大和市,渋谷２丁目２３番地８,,14,213,2420023,,,,,,,2025-03-17,1,,,,,キモノドレスプロジェクトキョウカイ,0
1106,5030001165347,新規,0,2025-03-17,2025-03-17,株式会社ＳｍｉｌＥ,,株式会社,埼玉県,本庄市,児玉町児玉１４２３番地５,,11,211,3670212,,,,,,,2025-03-17,1,,,,,スマイル,0
1107,5030001165355,新規,0,2025-03-17,2025-03-17,Ｍｏｄｏｋｉ株式会社,,株式会社,埼玉県,川越市,連雀町９番地２,,11,201,3500066,,,,,,,2025-03-17,1,,,,,モドキ,0
1108,5030001165413,新規,0,2025-03-17,2025-03-17,株式会社ネバーマイルグループ,,株式会社,埼玉県,所沢市,金山町６番１３－６号,,11,208,3591128,,,,,,,2025-03-17,1,,,,,ネバーマイルグループ,0
1113,5030003026349,新規,0,2025-03-17,2025-03-17,合同会社ファジー・フォリエッジ・テクノロジーズ,,合同会社,埼玉県,加須市,本町７番地４０,,11,210,3470066,,,,,,,2025-03-17,1,,,,,ファジーフォリエッジテクノロジーズ,0
1115,5040001137799,新規,0,2025-03-17,2025-03-17,株式会社Ｍ．Ｓｔｙｌｅ,,株式会社,千葉県,成田市,滑川４２番地２,,12,211,2890125,,,,,,,2025-03-17,1,,,,,エムスタイル,0
1116,5040001137824,新規,0,2025-03-17,2025-03-17,株式会社ＢｒａｎｄＷａｒｐ,,株式会社,千葉県,富里市,七栄６５０番地１５８６,,12,233,2860221,,,,,,,2025-03-17,1,,,,,ブランドワープ,0
1117,5040001137832,新規,0,2025-03-17,2025-03-17,株式会社ＲｉｓｉｎｇＳｕｎ,,株式会社,千葉県,館山市,北条２６０７番地２,,12,205,2940045,,,,,,,2025-03-17,1,,,,,ライジングサン,0
1118,5040001137840,新規,0,2025-03-17,2025-03-17,株式会社Ｒａｉｈａ,,株式会社,千葉県,松戸市,千駄堀１４８９番地,,12,207,2702252,,,,,,,2025-03-17,1,,,,,ライハ,0
1119,5040001137857,新規,0,2025-03-17,2025-03-17,株式会社ＴＲＵＳＴ　ＭＢ,,株式会社,千葉県,習志野市,津田沼５丁目１４番１６号,,12,216,2750016,,,,,,,2025-03-17,1,,,,,トラストエムビー,0
1120,5040001137865,新規,0,2025-03-17,2025-03-17,株式会社メゾンドスリー,,株式会社,千葉県,八千代市,ゆりのき台３丁目７番地１、２棟７０１号,,12,221,2760042,,,,,,,2025-03-17,1,,,,,メゾンドスリー,0
1122,5040003027098,新規,0,2025-03-17,2025-03-17,恵帆商事合同会社,,合同会社,千葉県,柏市,加賀３丁目３－２,,12,217,2770051,,,,,,,2025-03-17,1,,,,,エホショウジ,0
1123,5050001056313,新規,0,2025-03-17,2025-03-17,植木電機工業株式会社,,株式会社,茨城県,筑西市,藤ケ谷１３４３番地３,,08,227,3080112,,,,,,,2025-03-17,1,,,,,ウエキデンキコウギョウ,0
1124,5050001056321,新規,0,2025-03-17,2025-03-17,株式会社賢寿興業,,株式会社,茨城県,土浦市,板谷６丁目６５１番地１５,,08,203,3000007,,,,,,,2025-03-17,1,,,,,ケンジュコウギョウ,0
1126,5060001038021,新規,0,2025-03-17,2025-03-17,カクダイＨＤ株式会社,,株式会社,栃木県,宇都宮市,大谷町１０９３番地,,09,201,3210345,,,,,,,2025-03-17,1,,,,,カクダイホールディングス,0
1135,5090001019183,新規,0,2025-03-17,2025-03-17,株式会社ＩＭＣ,,株式会社,山梨県,甲府市,金竹町２番２９号,,19,201,4000063,,,,,,,2025-03-17,1,,,,,アイエムシー,0
1136,5090003002773,新規,0,2025-03-17,2025-03-17,宇宙クエスト合同会社,,合同会社,山梨県,北杜市,高根町蔵原９３７番地１,,19,209,4080000,,,,,,,2025-03-17,1,,,,,ウチュウクエスト,0
1142,5110001039121,新規,0,2025-03-17,2025-03-17,株式会社ＣＨＯＴＴＯｉｉ,,株式会社,新潟県,岩船郡関川村,大字湯沢２２８番地４,,15,581,9593261,,,,,,,2025-03-17,1,,,,,チョットイイ,0
1143,5110003005690,新規,0,2025-03-17,2025-03-17,合同会社スリーエフ,,合同会社,新潟県,小千谷市,城内１丁目８番２５号,,15,208,9470028,,,,,,,2025-03-17,1,,,,,スリーエフ,0
1144,5110005017197,新規,0,2025-03-17,2025-03-17,一般社団法人優,,その他の設立登記法人,新潟県,上越市,大字上千原３１７番地,,15,222,9420035,,,,,,,2025-03-17,1,,,,,ユウ,0
1154,5120001273693,新規,0,2025-03-17,2025-03-17,株式会社ｍｏｎｏＦａｍ,,株式会社,大阪府,大阪市浪速区,日本橋４丁目９番２２号３Ｆ,,27,111,5560005,,,,,,,2025-03-17,1,,,,,モノファム,0
1155,5120001273702,新規,0,2025-03-17,2025-03-17,株式会社ｍｉｒａｉｚａ,,株式会社,大阪府,大阪市中央区,南船場３丁目２番２２号おおきに南船場ビル２０５,,27,128,5420081,,,,,,,2025-03-17,1,,,,,ミライザ,0
1156,5120001273719,新規,0,2025-03-17,2025-03-17,株式会社大福建設,,株式会社,大阪府,大阪市福島区,吉野１丁目２番１４－１００１号,,27,103,5530006,,,,,,,2025-03-17,1,,,,,ダイフクケンセツ,0
1157,5120001273727,新規,0,2025-03-17,2025-03-17,株式会社Ｌｕｍｉｅ,,株式会社,大阪府,大阪市中央区,日本橋１丁目１７－１７ピカソ日本一ビル６０４号室,,27,128,5420073,,,,,,,2025-03-17,1,,,,,ルミー,0
1158,5120001273751,新規,0,2025-03-17,2025-03-17,株式会社ＴＨＩＥＲＲＹ,,株式会社,大阪府,大阪市北区,西天満３丁目４番５号,,27,127,5300047,,,,,,,2025-03-17,1,,,,,ティエリー,0
1159,5120001273776,新規,0,2025-03-17,2025-03-17,株式会社ひつじホールディングス,,株式会社,大阪府,大阪市北区,大深町６番３８号グラングリーン大阪北館ＪＡＭＢＡＳＥ９階ＪＡＭ－ＳＴＵＤＩＯ９１５号室,,27,127,5300011,,,,,,,2025-03-17,1,,,,,ヒツジホールディングス,0
1161,5120003028880,新規,0,2025-03-17,2025-03-17,合同会社ＨＡＳＨＩＣＯ,,合同会社,大阪府,大阪市中央区,南船場１丁目８－２順慶町エスアイビル２０１,,27,128,5420081,,,,,,,2025-03-17,1,,,,,ハシコ,0
1162,5120101071246,新規,0,2025-03-17,2025-03-17,株式会社大侑工務店,,株式会社,大阪府,泉南郡熊取町,小谷南２丁目１８番９号,,27,361,5900435,,,,,,,2025-03-17,1,,,,,ダイユウコウムテン,0
1165,5120901050580,新規,0,2025-03-17,2025-03-17,省エネ環境サポート株式会社,,株式会社,大阪府,池田市,満寿美町７番３号,,27,204,5630041,,,,,,,2025-03-17,1,,,,,ショウエネカンキョウサポート,0
1166,5120903005590,新規,0,2025-03-17,2025-03-17,合同会社ＯＫＡＲＡＤＡ,,合同会社,大阪府,吹田市,円山町２１－１５－２０３,,27,205,5640061,,,,,,,2025-03-17,1,,,,,オカラダ,0
1167,5122001038985,新規,0,2025-03-17,2025-03-17,株式会社ＢＵＳＳＬＵ,,株式会社,大阪府,八尾市,本町７丁目７番１８号Ｏｐｕｓ８Ｂｌｄｇ２０５,,27,212,5810003,,,,,,,2025-03-17,1,,,,,ボスル,0
1168,5122001038993,新規,0,2025-03-17,2025-03-17,株式会社シーピー・エス,,株式会社,大阪府,東大阪市,横枕西３番３３号,,27,227,5780956,,,,,,,2025-03-17,1,,,,,シーピーエス,0
1174,5140001137772,新規,0,2025-03-17,2025-03-17,株式会社みなつ,,株式会社,兵庫県,尼崎市,稲葉元町２丁目１７－３０藤井ビル２Ｆ,,28,202,6600055,,,,,,,2025-03-17,1,,,,,ミナツ,0
1186,5180001165927,新規,0,2025-03-17,2025-03-17,株式会社ＶＩＢＧＹＯＲ,,株式会社,愛知県,名古屋市熱田区,新尾頭１丁目６番１０－４０２号,,23,109,4560018,,,,,,,2025-03-17,1,,,,,ヴィブジョー,0
1187,5180003028140,新規,0,2025-03-17,2025-03-17,合同会社Ｄ．Ｄ,,合同会社,愛知県,名古屋市中川区,松重町４番４１号グランアベニュー名駅南４０２号,,23,110,4540003,,,,,,,2025-03-17,1,,,,,ディーディー,0
1188,5180003028165,新規,0,2025-03-17,2025-03-17,合同会社たかＬＡＢＯ,,合同会社,愛知県,尾張旭市,旭台３丁目２番地３,,23,226,4880001,,,,,,,2025-03-17,1,,,,,タカラボ,0
1191,5190001032069,新規,0,2025-03-17,2025-03-17,株式会社美縁,,株式会社,三重県,鈴鹿市,土師町１４３３番地の１,,24,207,5130812,,,,,,,2025-03-17,1,,,,,ビエン,0
1195,5200003006738,新規,0,2025-03-17,2025-03-17,合同会社レックス,,合同会社,岐阜県,岐阜市,高田３丁目８番８号,,21,201,5008224,,,,,,,2025-03-17,1,,,,,レックス,0
1196,5220005008937,新規,0,2025-03-17,2025-03-17,ＮＰＯ法人アジア太平洋ゴルフ協会,,その他の設立登記法人,石川県,金沢市,小坂町北１５６番地６,,17,201,9200811,,,,,,,2025-03-17,1,,,,,アジアタイヘイヨウゴルフキョウカイ,0
1198,5230005009447,新規,0,2025-03-17,2025-03-17,特定非営利活動法人まちづくりスポットとやま,,その他の設立登記法人,富山県,富山市,総曲輪４丁目４番３号,,16,201,9300083,,,,,,,2025-03-17,1,,,,,マチヅクリスポットトヤマ,0
1203,5250005008991,新規,0,2025-03-17,2025-03-17,医療法人智優会,,その他の設立登記法人,山口県,熊毛郡平生町,大字佐賀２２８９－１,,35,344,7421111,,,,,,,2025-03-17,1,,,,,チユウカイ,0
1205,5260001040023,新規,0,2025-03-17,2025-03-17,株式会社英都,,株式会社,岡山県,岡山市北区,岡南町１丁目５番２９号,,33,101,7000866,,,,,,,2025-03-17,1,,,,,エイツ,0
1211,5290001109303,新規,0,2025-03-17,2025-03-17,日本ＩＣＴシステム株式会社,,株式会社,福岡県,福岡市博多区,博多駅前３丁目２７番２５号,,40,132,8120011,,,,,,,2025-03-17,1,,,,,ニホンアイシーティーシステム,0
1212,5290001109369,新規,0,2025-03-17,2025-03-17,株式会社フォレストリビング,,株式会社,福岡県,福岡市城南区,南片江３丁目１８番１号,,40,136,8140143,,,,,,,2025-03-17,1,,,,,フォレストリビング,0
1214,5290003016539,新規,0,2025-03-17,2025-03-17,ＳＫアセット合同会社,,合同会社,福岡県,筑紫野市,大字永岡１９８番地２４,,40,217,8180066,,,,,,,2025-03-17,1,,,,,エスケーアセット,0
1215,5290003016555,新規,0,2025-03-17,2025-03-17,合同会社Ｄｅｐｏｒｔａｒｅ,,合同会社,福岡県,筑後市,大字長浜１３０２番地３,,40,211,8330005,,,,,,,2025-03-17,1,,,,,デポルターレ,0
1220,5320001021000,新規,0,2025-03-17,2025-03-17,株式会社ゼファーメープル,,株式会社,大分県,大分市,大字玉沢６８３番地の４サンパークわさだ中央グラッセ５０４,,44,201,8701155,,,,,,,2025-03-17,1,,,,,ゼファーメープル,0
1222,5330001032962,新規,0,2025-03-17,2025-03-17,ＩＫＥＤＡホールディングス株式会社,,株式会社,熊本県,熊本市中央区,下通１丁目１２番５号,,43,101,8600807,,,,,,,2025-03-17,1,,,,,イケダホールディングス,0
1223,5330001032979,新規,0,2025-03-17,2025-03-17,株式会社ＭＤ,,株式会社,熊本県,熊本市中央区,新市街３－８ＦＬＡＧＳビル４階Ｃ号,,43,101,8600803,,,,,,,2025-03-17,1,,,,,エムディー,0
1227,5330003010900,新規,0,2025-03-17,2025-03-17,合同会社トライアングル出版,,合同会社,熊本県,熊本市東区,長嶺西３丁目２番９７号,,43,102,8618037,,,,,,,2025-03-17,1,,,,,トライアングルシュッパン,0
1232,5370001052362,新規,0,2025-03-17,2025-03-17,株式会社イタルドライブ,,株式会社,宮城県,仙台市泉区,野村字新平山２番１号,,04,105,9813124,,,,,,,2025-03-17,1,,,,,イタルドライブ,0
1233,5370003006985,新規,0,2025-03-17,2025-03-17,合同会社オギクボ,,合同会社,宮城県,白石市,越河五賀字荻久保１番地,,04,206,9890111,,,,,,,2025-03-17,1,,,,,オギクボ,0
1247,5430001093937,新規,0,2025-03-17,2025-03-17,株式会社Ｔダイニング,,株式会社,北海道,札幌市白石区,平和通５丁目北１番１－５０２号,,01,104,0030029,,,,,,,2025-03-17,1,,,,,ティーダイニング,0
1250,5462503000228,新規,0,2025-03-17,2025-03-17,丸は宝来水産合同会社,,合同会社,北海道,目梨郡羅臼町,海岸町７４番地,,01,694,0861815,,,,,,,2025-03-17,1,,,,,マルハホウライスイサン,0
1256,5500003003457,新規,0,2025-03-17,2025-03-17,ＭＩＳＡＫＩ合同会社,,合同会社,愛媛県,大洲市,喜多山甲３８９番地,,38,207,7950075,,,,,,,2025-03-17,1,,,,,ミサキ,0
1257,5700150129621,新規,0,2025-03-17,2025-03-17,ＳｈｅｎＺｈｅｎＹｕｅＭｅｉＺｈｉＴｉｎｇＫｅＪｉＹｏｕＸｉａｎＧｏｎｇＳｉ,,外国会社等,,,,,,,,ｎａｎｓｈａｎｑｕｙｕｅｈａｉｊｉｅｄａｏｇａｏｘｉｎｑｕｓｈｅｑｕｇａｏｘｉｎｎａｎｊｉｕｄａｏ４５ｈａｏｘｉｂｅｉｇｏｎｇｙｅｄａｘｕｅｓａｎｈａｎｇｋｅｊｉｄａｓｈａ１６２９　ｓｈｅｎｚｈｅｎｓｈｉ　５１８０００　ＣＮ,,,,,,2025-03-17,1,,,,,シンセンユエメイジティンカギヨウシエンゴンスー,0
1271,6010001253061,新規,0,2025-03-17,2025-03-17,株式会社ＦＬＩＰ第３１４号,,株式会社,東京都,千代田区,丸の内２丁目７番２号,,13,101,1000005,,,,,,,2025-03-17,1,,,,,エフエルアイピーダイサンビャクジュウヨンゴウ,0
1272,6010001253078,新規,0,2025-03-17,2025-03-17,株式会社ＳＨＩＰ第１０１７号,,株式会社,東京都,千代田区,丸の内２丁目７番２号,,13,101,1000005,,,,,,,2025-03-17,1,,,,,エスエイチアイピーダイセンジュウナナゴウ,0
1273,6010001253160,新規,0,2025-03-17,2025-03-17,ＲＥＪＯＩＣＥＫ株式会社,,株式会社,東京都,千代田区,大手町１丁目５－１大手町ファーストスクエアイーストタワー４Ｆ,,13,101,1000004,,,,,,,2025-03-17,1,,,,,リジョイスケイ,0
1274,6010001253169,新規,0,2025-03-17,2025-03-17,株式会社ひとえ,,株式会社,東京都,中央区,銀座１丁目１２番４号Ｎ＆Ｅ・ＢＬＤ．７階,,13,102,1040061,,,,,,,2025-03-17,1,,,,,ヒトエ,0
1275,6010001253185,新規,0,2025-03-17,2025-03-17,株式会社ＩＭＩＰ,,株式会社,東京都,千代田区,外神田４丁目１４番２号東京タイムズタワー３８０６,,13,101,1010021,,,,,,,2025-03-17,1,,,,,アイエムアイピー,0
1276,6010001253235,新規,0,2025-03-17,2025-03-17,株式会社ＪＳＫ２３,,株式会社,東京都,千代田区,麹町２丁目６番地５,,13,101,1020083,,,,,,,2025-03-17,1,,,,,ジェイエスケイニジュウサン,0
1277,6010001253268,新規,0,2025-03-17,2025-03-17,桜倉製薬株式会社,,株式会社,東京都,中央区,銀座１丁目２２番１１号銀座大竹ビジデンス２Ｆ,,13,102,1040061,,,,,,,2025-03-17,1,,,,,サクラセイヤク,0
1285,6010003046769,新規,0,2025-03-17,2025-03-17,東京ＢＴＲ１合同会社,,合同会社,東京都,千代田区,霞が関３丁目２番５号,,13,101,1000013,,,,,,,2025-03-17,1,,,,,トウキョウビーティーアールワン,0
1286,6010003046777,新規,0,2025-03-17,2025-03-17,合同会社キャリアデシジョン,,合同会社,東京都,中央区,日本橋兜町１７番１号日本橋ロイヤルプラザ７０６,,13,102,1030026,,,,,,,2025-03-17,1,,,,,キャリアデシジョン,0
1287,6010003046785,新規,0,2025-03-17,2025-03-17,合同会社なおい企画,,合同会社,東京都,文京区,大塚２丁目１５番１３号,00138374,13,105,1120012,,,,,,,2025-03-17,1,,,,,ナオイキカク,0
1288,6010003046793,新規,0,2025-03-17,2025-03-17,合同会社ＫＩＫＵ,,合同会社,東京都,千代田区,麹町４丁目５番２０号ＫＳビル８階,,13,101,1020083,,,,,,,2025-03-17,1,,,,,キク,0
1289,6010003046802,新規,0,2025-03-17,2025-03-17,合同会社江ノ島線鶴間駅前ブリッジプロジェクト,,合同会社,東京都,千代田区,平河町１丁目６番１５号シルスフィア会計事務所内,,13,101,1020093,,,,,,,2025-03-17,1,,,,,エノシマセンツルマエキマエブリッジプロジェクト,0
1291,6010005039762,新規,0,2025-03-17,2025-03-17,一般社団法人Ａｓ　ｉＺ,,その他の設立登記法人,東京都,中央区,日本橋室町１丁目１１番１２号日本橋水野ビル７階,,13,102,1030022,,,,,,,2025-03-17,1,,,,,アズイズ,0
1292,6010005039770,新規,0,2025-03-17,2025-03-17,一般社団法人ＷＳ３,,その他の設立登記法人,東京都,千代田区,永田町２丁目１７番５号,,13,101,1000014,,,,,,,2025-03-17,1,,,,,ダブリュエススリー,0
1300,6010401188907,新規,0,2025-03-17,2025-03-17,株式会社マリアクト,,株式会社,東京都,港区,北青山１丁目３－３三橋ビル３階,,13,103,1070061,,,,,,,2025-03-17,1,,,,,マリアクト,0
1301,6010403034638,新規,0,2025-03-17,2025-03-17,合同会社Ｎａｔｙ,,合同会社,東京都,港区,南青山３丁目１番３６号青山丸竹ビル６Ｆ,,13,103,1070062,,,,,,,2025-03-17,1,,,,,ナティ,0
1302,6010403034662,新規,0,2025-03-17,2025-03-17,ｂｏａｔ合同会社,,合同会社,東京都,港区,六本木６丁目８番１０号ステップ六本木５階,,13,103,1060032,,,,,,,2025-03-17,1,,,,,ボート,0
1303,6010405024208,新規,0,2025-03-17,2025-03-17,一般社団法人Ｔｏｒａｊｉ,,その他の設立登記法人,東京都,港区,虎ノ門１丁目１番１８号ヒューリック虎ノ門ビル９階Ｌ＆Ｐ司法書士法人内,,13,103,1050001,,,,,,,2025-03-17,1,,,,,トラジー,0
1307,6010701047416,新規,0,2025-03-17,2025-03-17,株式会社センキュー,,株式会社,東京都,品川区,北品川５丁目５番１５号,,13,109,1410001,,,,,,,2025-03-17,1,,,,,センキュー,0
1309,6010703007616,新規,0,2025-03-17,2025-03-17,合同会社ピーファスバスターズ,,合同会社,東京都,品川区,東品川１丁目３９番１８号ジオ品川天王洲１００９,,13,109,1400002,,,,,,,2025-03-17,1,,,,,ピーファスバスターズ,0
1312,6010901057000,新規,0,2025-03-17,2025-03-17,株式会社ＷＨＩＳＫＥＲＭＡＮ,,株式会社,東京都,世田谷区,太子堂１丁目３番３６－２１４号,,13,112,1540004,,,,,,,2025-03-17,1,,,,,ウィスカーマン,0
1322,6011001168431,新規,0,2025-03-17,2025-03-17,株式会社Ｎｏｘ‐ｕｌ,,株式会社,東京都,渋谷区,神宮前６丁目２９番４号原宿Ｋｏｍｉｙａビル６階,,13,113,1500001,,,,,,,2025-03-17,1,,,,,ノクス,0
1326,6011205002683,新規,0,2025-03-17,2025-03-17,医療法人社団以和貴会,,その他の設立登記法人,東京都,中野区,上鷺宮３丁目１０番１２号１階,,13,114,1650031,,,,,,,2025-03-17,1,,,,,イワキカイ,0
1329,6011401026908,新規,0,2025-03-17,2025-03-17,株式会社Ｋａｆｕｕ,,株式会社,東京都,板橋区,蓮根２丁目２７番１２号古谷野ビル３Ｆ１０号,,13,119,1740046,,,,,,,2025-03-17,1,,,,,カフー,0
1330,6011401026924,新規,0,2025-03-17,2025-03-17,ディープメヤスタジオ株式会社,,株式会社,東京都,板橋区,徳丸１丁目５８番１２号,,13,119,1750083,,,,,,,2025-03-17,1,,,,,ディープメヤスタジオ,0
1331,6011403004647,新規,0,2025-03-17,2025-03-17,合同会社ウィズトライ,,合同会社,東京都,板橋区,氷川町２０－６リノパレス・ＹＨ２０１,,13,119,1730013,,,,,,,2025-03-17,1,,,,,ウィズトライ,0
1332,6011501031824,新規,0,2025-03-17,2025-03-17,アットフード株式会社,,株式会社,東京都,北区,赤羽西４丁目４番４号,,13,117,1150055,,,,,,,2025-03-17,1,,,,,アットフード,0
1334,6011503006452,新規,0,2025-03-17,2025-03-17,Ｏｎｅ　Ｔｈｏｕｇｈｔ合同会社,,合同会社,東京都,北区,赤羽北３丁目２６－３－３０８,,13,117,1150052,,,,,,,2025-03-17,1,,,,,ワンソート,0
1354,6020001161890,新規,0,2025-03-17,2025-03-17,株式会社美都建設,,株式会社,神奈川県,横浜市西区,北幸１丁目５番１０号ＪＰＲ横浜ビル８階,,14,103,2200004,,,,,,,2025-03-17,1,,,,,ミトケンセツ,0
1360,6020003028056,新規,0,2025-03-17,2025-03-17,Ｐｈｉｌｅａｓ合同会社,,合同会社,神奈川県,横浜市港北区,日吉３丁目１２－１０Ｊパーク日吉４０１,,14,109,2230061,,,,,,,2025-03-17,1,,,,,フィリアス,0
1363,6021001084743,新規,0,2025-03-17,2025-03-17,株式会社小松建設,,株式会社,神奈川県,厚木市,上荻野９２３番地５１,,14,212,2430201,,,,,,,2025-03-17,1,,,,,コマツケンセツ,0
1371,6030001165437,新規,0,2025-03-17,2025-03-17,株式会社スマイルピース,,株式会社,埼玉県,狭山市,大字南入曽７０１番地の２３ベノーネ入曽１０６,,11,215,3501316,,,,,,,2025-03-17,1,,,,,スマイルピース,0
1373,6030003026331,新規,0,2025-03-17,2025-03-17,合同会社ｎｕｍｂｅｒ８,,合同会社,埼玉県,入間市,春日町１丁目９番２０号,,11,225,3580006,,,,,,,2025-03-17,1,,,,,ナンバーエイト,0
1374,6030003026356,新規,0,2025-03-17,2025-03-17,ザナレッジガレージ合同会社,,合同会社,埼玉県,入間市,大字野田３８５－１,,11,225,3580054,,,,,,,2025-03-17,1,,,,,ザナレッジガレージ,0
1375,6030003026372,新規,0,2025-03-17,2025-03-17,合同会社ｒｅｄ　ｃａｍｅｌｌｉａ,,合同会社,埼玉県,さいたま市北区,本郷町３４番地オレンジハウス２０２,,11,102,3310802,,,,,,,2025-03-17,1,,,,,レッドカメリア,0
1378,6040001137815,新規,0,2025-03-17,2025-03-17,株式会社Ｇｅｍｉｏｒ,,株式会社,千葉県,習志野市,津田沼３丁目２番３８－４０６号,,12,216,2750016,,,,,,,2025-03-17,1,,,,,ジュミオール,0
1379,6040001137831,新規,0,2025-03-17,2025-03-17,ＯｒｃａＮｅｔ株式会社,,株式会社,千葉県,船橋市,三山３丁目３９番３号カーサ宇野１０２号室,,12,204,2740072,,,,,,,2025-03-17,1,,,,,オルカネット,0
1380,6040001137856,新規,0,2025-03-17,2025-03-17,輝匠株式会社,,株式会社,千葉県,船橋市,駿河台１丁目２０－３－１０１,,12,204,2730862,,,,,,,2025-03-17,1,,,,,キショウ,0
1382,6040003027089,新規,0,2025-03-17,2025-03-17,Ａｏ＆Ａ合同会社,,合同会社,千葉県,四街道市,もねの里３丁目２４番６１号,,12,228,2840016,,,,,,,2025-03-17,1,,,,,アオアンドエイ,0
1385,6060001038029,新規,0,2025-03-17,2025-03-17,株式会社福澤農園,,株式会社,栃木県,芳賀郡市貝町,大字椎谷４７４番地３,,09,344,3213414,,,,,,,2025-03-17,1,,,,,フクザワノウエン,0
1392,6090001019166,新規,0,2025-03-17,2025-03-17,ＹＡーＤＯ株式会社,,株式会社,山梨県,南都留郡富士河口湖町,船津４７７７番地,,19,430,4010301,,,,,,,2025-03-17,1,,,,,ヤード,0
1393,6090001019182,新規,0,2025-03-17,2025-03-17,株式会社ＩＮＦＵＳＥ,,株式会社,山梨県,南アルプス市,野牛島２５７８番地１,,19,208,4000205,,,,,,,2025-03-17,1,,,,,インフューズ,0
1396,6100001038395,新規,0,2025-03-17,2025-03-17,株式会社ＳＡＫＵＲＡ　ＢＡＳＥ,,株式会社,長野県,松本市,寿北６丁目１１番１号淵庵村Ｗ－ＢＡＳＥ６,,20,202,3990011,,,,,,,2025-03-17,1,,,,,サクラベース,0
1411,6120001273635,新規,0,2025-03-17,2025-03-17,株式会社田舎モノ舎,,株式会社,大阪府,大阪市北区,中之島４丁目１番１８号,,27,127,5300005,,,,,,,2025-03-17,1,,,,,イナカモノシャ,0
1412,6120001273684,新規,0,2025-03-17,2025-03-17,株式会社Ｆａｉｒｌｙ　ｃｏｎｎｅｃｔｉｎｇ,,株式会社,大阪府,大阪市中央区,島町２丁目２番３号,,27,128,5400034,,,,,,,2025-03-17,1,,,,,フェアリーコネクティング,0
1413,6120001273692,新規,0,2025-03-17,2025-03-17,株式会社ミラリズム,,株式会社,大阪府,守口市,大日東町３４番８－７０２号,,27,209,5700016,,,,,,,2025-03-17,1,,,,,ミラリズム,0
1414,6120001273734,新規,0,2025-03-17,2025-03-17,株式会社ＳＡＫＩＧＡＫＥ,,株式会社,大阪府,大阪市住吉区,万代４丁目１２－８,,27,120,5580055,,,,,,,2025-03-17,1,,,,,サキガケ,0
1415,6120001273817,新規,0,2025-03-17,2025-03-17,見守りシステム株式会社,,株式会社,大阪府,大阪市北区,堂山町１番５号三共梅田ビル７階,,27,127,5300027,,,,,,,2025-03-17,1,,,,,ミマモリシステム,0
1418,6120003028863,新規,0,2025-03-17,2025-03-17,合同会社シナジー・エフェクト,,合同会社,大阪府,枚方市,西禁野１丁目４番３８号,,27,210,5731192,,,,,,,2025-03-17,1,,,,,シナジーエフェクト,0
1420,6120101071237,新規,0,2025-03-17,2025-03-17,株式会社石川塗装,,株式会社,大阪府,松原市,東新町２丁目１７８番地の２６,,27,217,5800024,,,,,,,2025-03-17,1,,,,,イシカワトソウ,0
1421,6120101071245,新規,0,2025-03-17,2025-03-17,株式会社笑福亭,,株式会社,大阪府,貝塚市,永吉２６番地８,,27,208,5970032,,,,,,,2025-03-17,1,,,,,ショウフクテイ,0
1422,6120101071261,新規,0,2025-03-17,2025-03-17,株式会社ＭＫ建設,,株式会社,大阪府,堺市北区,百舌鳥陵南町３丁４１６番地,,27,146,5918034,,,,,,,2025-03-17,1,,,,,エムケーケンセツ,0
1425,6120901050588,新規,0,2025-03-17,2025-03-17,株式会社グランテック,,株式会社,大阪府,茨木市,新堂２丁目１８番１８号,,27,211,5670835,,,,,,,2025-03-17,1,,,,,グランテック,0
1426,6122001038992,新規,0,2025-03-17,2025-03-17,株式会社カカポジティブ,,株式会社,大阪府,東大阪市,荒川３丁目１０番２３号,,27,227,5770843,,,,,,,2025-03-17,1,,,,,カカポジティブ,0
1437,6140001137739,新規,0,2025-03-17,2025-03-17,株式会社ファルト,,株式会社,兵庫県,神戸市垂水区,名谷町１９４９番地の１リブコートオリジン１５１１号,,28,108,6550852,,,,,,,2025-03-17,1,,,,,ファルト,0
1438,6140001137763,新規,0,2025-03-17,2025-03-17,グリーンステーション株式会社,,株式会社,兵庫県,南あわじ市,北阿万伊賀野４７３番地１,,28,224,6560531,,,,,,,2025-03-17,1,,,,,,0
1439,6140001137788,新規,0,2025-03-17,2025-03-17,株式会社Ｈｕｇ,,株式会社,兵庫県,西宮市,北名次町１３番２２－５０３号,,28,204,6620025,,,,,,,2025-03-17,1,,,,,ハグ,0
1443,6140003021775,新規,0,2025-03-17,2025-03-17,合同会社ＩＴＯプロモーション,,合同会社,兵庫県,宝塚市,すみれガ丘１丁目７番１－８０５号,,28,214,6650847,,,,,,,2025-03-17,1,,,,,アイティーオープロモーション,0
1449,6170003002178,新規,0,2025-03-17,2025-03-17,合同会社阪和エレベーターメンテナンス,,合同会社,和歌山県,和歌山市,直川３１番地２４,,30,201,6408481,,,,,,,2025-03-17,1,,,,,ハンワエレベーターメンテナンス,0
1458,6180001165876,新規,0,2025-03-17,2025-03-17,株式会社ウェットノーズ,,株式会社,愛知県,名古屋市守山区,大字上志段味字東谷２０７９番地の５２,,23,113,4630001,,,,,,,2025-03-17,1,,,,,ウェットノーズ,0
1459,6180001165892,新規,0,2025-03-17,2025-03-17,株式会社ＬｉＨｕＡ,,株式会社,愛知県,名古屋市中区,大須３丁目６番３号,,23,106,4600011,,,,,,,2025-03-17,1,,,,,リーファ,0
1476,6270001009165,新規,0,2025-03-17,2025-03-17,株式会社ＫＧＨ,,株式会社,鳥取県,米子市,皆生温泉４丁目１８番４５号,,31,202,6830001,,,,,,,2025-03-17,1,,,,,ケイジイエイチ,0
1482,6290001109277,新規,0,2025-03-17,2025-03-17,株式会社アーバンリンク,,株式会社,福岡県,福岡市中央区,浄水通２番１－２０５号,,40,133,8100028,,,,,,,2025-03-17,1,,,,,アーバンリンク,0
1483,6290001109285,新規,0,2025-03-17,2025-03-17,株式会社Ｓｈｉｎ　Ｐａｋｕ,,株式会社,福岡県,柳川市,三橋町蒲船津１４１９番地８,,40,207,8320827,,,,,,,2025-03-17,1,,,,,シンパク,0
1484,6290001109319,新規,0,2025-03-17,2025-03-17,株式会社ＮＡＧＯＭＩ,,株式会社,福岡県,福岡市博多区,博多駅前３丁目７番３－７０６号,,40,132,8120011,,,,,,,2025-03-17,1,,,,,ナゴミ,0
1487,6290003016521,新規,0,2025-03-17,2025-03-17,合同会社ＲＩＳＴＯＲＡＺＩＯＮＥ,,合同会社,福岡県,糟屋郡宇美町,宇美東２丁目１５番６号,,40,341,8112125,,,,,,,2025-03-17,1,,,,,リストラツィオーネ,0
1491,6300003002247,新規,0,2025-03-17,2025-03-17,合同会社綿雲,,合同会社,佐賀県,嬉野市,嬉野町大字岩屋川内甲７４８番地３コーポクガ２０２号,,41,209,8430304,,,,,,,2025-03-17,1,,,,,ワタグモ,0
1494,6310001019498,新規,0,2025-03-17,2025-03-17,株式会社Ｃｒａｆｔ　ｈｏｕｓｅ,,株式会社,長崎県,佐世保市,潮見町３９－１,,42,202,8570834,,,,,,,2025-03-17,1,,,,,クラフトハウス,0
1500,6330001032978,新規,0,2025-03-17,2025-03-17,株式会社ヒカリエ不動産,,株式会社,熊本県,熊本市中央区,横手３丁目１８番２８号ヒカリエ横手１０１,,43,101,8600046,,,,,,,2025-03-17,1,,,,,ヒカリエフドウサン,0
1501,6330001032986,新規,0,2025-03-17,2025-03-17,株式会社ＧｏｙａＳ,,株式会社,熊本県,熊本市北区,飛田４丁目４番１５号,,43,105,8615514,,,,,,,2025-03-17,1,,,,,ゴーヤーズ,0
1504,6330003010899,新規,0,2025-03-17,2025-03-17,ＫＩＭ　ＤＵＮＧ合同会社,,合同会社,熊本県,宇城市,小川町河江１１８１番地,,43,213,8690606,,,,,,,2025-03-17,1,,,,,キムズン,0
1519,6390005009109,新規,0,2025-03-17,2025-03-17,一般社団法人蔵王トライアスロン協議会,,その他の設立登記法人,山形県,山形市,大字風間２０６８番地,,06,201,9902221,,,,,,,2025-03-17,1,,,,,ザオウトライアスロンキョウギカイ,0
1526,6430001093936,新規,0,2025-03-17,2025-03-17,株式会社ネクスト,,株式会社,北海道,札幌市清田区,清田三条３丁目４番２２号,,01,110,0040843,,,,,,,2025-03-17,1,,,,,ネクスト,0
1532,6500001026203,新規,0,2025-03-17,2025-03-17,株式会社不二教育研究所,,株式会社,愛媛県,今治市,上徳１丁目６番３３号,,38,202,7991511,,,,,,,2025-03-17,1,,,,,フジキョウイクケンキュウショ,0
1539,7010001253060,新規,0,2025-03-17,2025-03-17,株式会社ＦＬＩＰ第３１３号,,株式会社,東京都,千代田区,丸の内２丁目７番２号,,13,101,1000005,,,,,,,2025-03-17,1,,,,,エフエルアイピーダイサンビャクジュウサンゴウ,0
1540,7010001253077,新規,0,2025-03-17,2025-03-17,株式会社ＳＨＩＰ第１０１６号,,株式会社,東京都,千代田区,丸の内２丁目７番２号,,13,101,1000005,,,,,,,2025-03-17,1,,,,,エスエイチアイピーダイセンジュウロクゴウ,0
1541,7010001253085,新規,0,2025-03-17,2025-03-17,株式会社ＳＨＩＰ第１０２４号,,株式会社,東京都,千代田区,丸の内２丁目７番２号,,13,101,1000005,,,,,,,2025-03-17,1,,,,,エスエイチアイピーダイセンニジュウヨンゴウ,0
1542,7010001253234,新規,0,2025-03-17,2025-03-17,株式会社ＪＳＫ２２,,株式会社,東京都,千代田区,麹町２丁目６番地５,,13,101,1020083,,,,,,,2025-03-17,1,,,,,ジェイエスケイニジュウニ,0
1543,7010001253242,新規,0,2025-03-17,2025-03-17,飯田橋クロスパートナーズ株式会社,,株式会社,東京都,千代田区,富士見１丁目２番２１号,,13,101,1020071,,,,,,,2025-03-17,1,,,,,イイダバシクロスパートナーズ,0
1544,7010001253250,新規,0,2025-03-17,2025-03-17,株式会社感動エンジン,,株式会社,東京都,中央区,銀座１丁目２２番１１号銀座大竹ビジデンス２階,,13,102,1040061,,,,,,,2025-03-17,1,,,,,カンドウエンジン,0
1545,7010001253267,新規,0,2025-03-17,2025-03-17,ＭＯＪｉ株式会社,,株式会社,東京都,中央区,入船１丁目９番８号,,13,102,1040042,,,,,,,2025-03-17,1,,,,,モジ,0
1553,7010003046743,新規,0,2025-03-17,2025-03-17,合同会社ＰＨＯＥＮＩＸＴＯＮＥ,,合同会社,東京都,中央区,銀座１丁目１２－４Ｎ＆ＥＢＬＤ．７階,,13,102,1040061,,,,,,,2025-03-17,1,,,,,フェニックストーン,0
1554,7010003046768,新規,0,2025-03-17,2025-03-17,合同会社ＤＡＮ,,合同会社,東京都,中央区,銀座８丁目７－７中央林ビル４０２,,13,102,1040061,,,,,,,2025-03-17,1,,,,,ダン,0
1555,7010003046784,新規,0,2025-03-17,2025-03-17,合同会社ＩＦＡ,,合同会社,東京都,中央区,銀座１丁目１２番４号Ｎ＆ＥＢＬＤ．６Ｆ,,13,102,1040061,,,,,,,2025-03-17,1,,,,,アイエフエー,0
1556,7010003046801,新規,0,2025-03-17,2025-03-17,合同会社小田急伊勢原ツーブリッジプロジェクト,,合同会社,東京都,千代田区,平河町１丁目６番１５号シルスフィア会計事務所内,,13,101,1020093,,,,,,,2025-03-17,1,,,,,オダキュウイセハラツーブリッジプロジェクト,0
1559,7010005039761,新規,0,2025-03-17,2025-03-17,一般社団法人Ｈｅａｌｔｈ　Ｅｑｕｉｔｙ　Ｉｎｉｔｉａｔｉｖｅｓ　Ｊａｐａｎ,,その他の設立登記法人,東京都,中央区,銀座１丁目１２番４号Ｎ＆ＥＢＬＤ．７階,,13,102,1040061,,,,,,,2025-03-17,1,,,,,ヘルスエクイティイニシアティブズジャパン,0
1570,7010401188889,新規,0,2025-03-17,2025-03-17,株式会社Ａ‐ｎａｔｕｒａｓ,,株式会社,東京都,港区,浜松町２丁目２－１５浜松ダイヤビル２Ｆ,,13,103,1050013,,,,,,,2025-03-17,1,,,,,エーナチュラス,0
1572,7010403034612,新規,0,2025-03-17,2025-03-17,ＲＡＹ　Ｉｎｔｅｒｎａｔｉｏｎａｌ合同会社,,合同会社,東京都,港区,六本木５丁目１６番３５号,,13,103,1060032,,,,,,,2025-03-17,1,,,,,レイインターナショナル,0
1573,7010403034661,新規,0,2025-03-17,2025-03-17,Ａｔｌａｓ合同会社,,合同会社,東京都,港区,虎ノ門２丁目６番１号,,13,103,1050001,,,,,,,2025-03-17,1,,,,,アトラス,0
1575,7010501053794,新規,0,2025-03-17,2025-03-17,株式会社プロマック,,株式会社,東京都,台東区,上野３丁目１６番２号天翔上野末広町ビル６０４－Ａ,,13,106,1100005,,,,,,,2025-03-17,1,,,,,プロマック,0
1576,7010503007765,新規,0,2025-03-17,2025-03-17,合同会社シノフジ,,合同会社,東京都,台東区,浅草橋５丁目８番９号,,13,106,1110053,,,,,,,2025-03-17,1,,,,,シノフジ,0
1579,7010901057024,新規,0,2025-03-17,2025-03-17,株式会社Ｊ‐ｂｉｇ,,株式会社,東京都,世田谷区,上用賀５丁目１２番１８号フォレデュソレイユＡ棟１１５室,,13,112,1580098,,,,,,,2025-03-17,1,,,,,ジェイビッグ,0
1589,7011001168166,新規,0,2025-03-17,2025-03-17,株式会社ネクスト,,株式会社,東京都,渋谷区,渋谷２丁目１９－１５宮益坂ビルディング６０９,,13,113,1500002,,,,,,,2025-03-17,1,,,,,ネクスト,0
1590,7011001168216,新規,0,2025-03-17,2025-03-17,株式会社Ｗｉｚ．,,株式会社,東京都,渋谷区,富ヶ谷１丁目４９番２１－２０３号ＢｒｉｌｌｉａＴｏｗｅｒ代々木公園ＣＬＡＳＳＹ,,13,113,1510063,,,,,,,2025-03-17,1,,,,,,0
1591,7011001168389,新規,0,2025-03-17,2025-03-17,株式会社ＴＡＫＯＮＡ,,株式会社,東京都,渋谷区,恵比寿西２丁目４番８号ウィンド恵比寿ビル８Ｆ,,13,113,1500021,,,,,,,2025-03-17,1,,,,,タコナ,0
1592,7011001168397,新規,0,2025-03-17,2025-03-17,株式会社Ｃｐｈ　Ｇｏｌｆ,,株式会社,東京都,目黒区,中目黒１丁目１－１７－００１号室,,13,110,1530061,,,,,,,2025-03-17,1,,,,,シーピーエイチゴルフ,0
1593,7011001168447,新規,0,2025-03-17,2025-03-17,株式会社Ｍ,,株式会社,東京都,目黒区,上目黒３丁目６番２３号,,13,110,1530051,,,,,,,2025-03-17,1,,,,,エム,0
1594,7011003021174,新規,0,2025-03-17,2025-03-17,ａｎｄやさし合同会社,,合同会社,東京都,渋谷区,神南１丁目１１－４ＦＰＧリンクス神南５階,,13,113,1500041,,,,,,,2025-03-17,1,,,,,アンドヤサシ,0
1597,7011205002682,新規,0,2025-03-17,2025-03-17,医療法人社団由和,,その他の設立登記法人,東京都,中野区,東中野３丁目８番１３号ＭＳＲ東中野ビル８階,,13,114,1640003,,,,,,,2025-03-17,1,,,,,ユウワ,0
1598,7011301030406,新規,0,2025-03-17,2025-03-17,ＳＨＲＯＯＭ　ＬＡＢ株式会社,,株式会社,東京都,杉並区,本天沼３丁目１８番１４号,,13,115,1670031,,,,,,,2025-03-17,1,,,,,シュルームラボ,0
1599,7011301030439,新規,0,2025-03-17,2025-03-17,株式会社ＩＵＩＥ　ｔｏｋｙｏ,,株式会社,東京都,杉並区,西荻北１丁目９番１６号,,13,115,1670042,,,,,,,2025-03-17,1,,,,,イウイエトウキョウ,0
1603,7011501031823,新規,0,2025-03-17,2025-03-17,小山コンサルティング株式会社,,株式会社,東京都,北区,豊島７丁目８番３号,,13,117,1140003,,,,,,,2025-03-17,1,,,,,オヤマコンサルティング,0
1604,7011501031831,新規,0,2025-03-17,2025-03-17,株式会社ヒンカク,,株式会社,東京都,北区,浮間３丁目５番１５－３２５号,,13,117,1150051,,,,,,,2025-03-17,1,,,,,ヒンカク,0
1606,7011601028496,新規,0,2025-03-17,2025-03-17,株式会社ＬＩＦＥ　ＣＩＲＣＬＥ,,株式会社,東京都,練馬区,高松６丁目２２番１０号,,13,120,1790075,,,,,,,2025-03-17,1,,,,,ライフサークル,0
1607,7011601028513,新規,0,2025-03-17,2025-03-17,株式会社ＪＡＭ　ＬＩＮＫ,,株式会社,東京都,練馬区,谷原６丁目１５番１３号,,13,120,1770032,,,,,,,2025-03-17,1,,,,,ジャムリンク,0
1608,7011603004636,新規,0,2025-03-17,2025-03-17,丹下きものサービス合同会社,,合同会社,東京都,練馬区,春日町２丁目１３番１３号,,13,120,1790074,,,,,,,2025-03-17,1,,,,,タンゲキモノサービス,0
1612,7011801045770,新規,0,2025-03-17,2025-03-17,ＩＫＩＴＢＯＴ株式会社,,株式会社,東京都,足立区,竹の塚５丁目３６番１８号２０３室,,13,121,1210813,,,,,,,2025-03-17,1,,,,,アイキットボット,0
1614,7012401042885,新規,0,2025-03-17,2025-03-17,株式会社ＴＳＴ,,株式会社,東京都,調布市,調布ケ丘１丁目１１番地３５,,13,208,1820021,,,,,,,2025-03-17,1,,,,,ティーエスティー,0
1616,7012801023824,新規,0,2025-03-17,2025-03-17,株式会社ユナリ,,株式会社,東京都,国分寺市,本多３丁目１９番１３号,,13,214,1850011,,,,,,,2025-03-17,1,,,,,ユナリ,0
1617,7013101009646,新規,0,2025-03-17,2025-03-17,株式会社ＡＩＲＹＵ,,株式会社,東京都,西多摩郡瑞穂町,長岡１丁目１５番地１３,,13,303,1901232,,,,,,,2025-03-17,1,,,,,アイリュウ,0
1630,7013301053808,新規,0,2025-03-17,2025-03-17,株式会社こざりえ,,株式会社,東京都,豊島区,南池袋２丁目２６番５号アイ・アンド・イー池袋ビルＭ２階,,13,116,1710022,,,,,,,2025-03-17,1,,,,,コザリエ,0
1636,7020001161790,新規,0,2025-03-17,2025-03-17,Ｆｏｃｕｓ　Ｉｎｔｅｒｎａｔｉｏｎａｌ株式会社,,株式会社,神奈川県,横浜市港北区,小机町３６９番地１小机パークスクエアＡー３０７,,14,109,2220036,,,,,,,2025-03-17,1,,,,,フォーカスインターナショナル,0
1637,7020001161808,新規,0,2025-03-17,2025-03-17,株式会社Ｎ．Ｆ．Ｃ,,株式会社,神奈川県,横浜市青葉区,奈良２丁目２２番地１６ポワール奈良２０３,,14,117,2270038,,,,,,,2025-03-17,1,,,,,エヌエフシー,0
1638,7020001161907,新規,0,2025-03-17,2025-03-17,Ｆｅｅｌｓ　ＴＢＲ株式会社,,株式会社,神奈川県,川崎市中原区,小杉陣屋町１丁目８番２１－３０１号,,14,133,2110062,,,,,,,2025-03-17,1,,,,,フィールズティービーアール,0
1641,7020003028063,新規,0,2025-03-17,2025-03-17,ｊｕｓｔ　ｂｌｏｏｍ合同会社,,合同会社,神奈川県,横浜市西区,浅間町１丁目４番地３ウィザードビル４０２,,14,103,2200072,,,,,,,2025-03-17,1,,,,,ジャストブルーム,0
1642,7021001084726,新規,0,2025-03-17,2025-03-17,株式会社協同牛乳ホールディングス,,株式会社,神奈川県,横須賀市,森崎１丁目１７番２３号,,14,201,2380023,,,,,,,2025-03-17,1,,,,,キョウドウギュウニュウホールディングス,0
1643,7021001084750,新規,0,2025-03-17,2025-03-17,株式会社スワガーワークス,,株式会社,神奈川県,相模原市中央区,星が丘４丁目２番３２号１Ｆ,,14,152,2520238,,,,,,,2025-03-17,1,,,,,スワガーワークス,0
1645,7030001165436,新規,0,2025-03-17,2025-03-17,ＨＯＲＩ＆Ｃｏｍｐａｎｙ株式会社,,株式会社,埼玉県,川口市,鳩ヶ谷緑町１丁目１２番地の３ヴェレーナ川口南鳩ヶ谷１０１号,,11,203,3340015,,,,,,,2025-03-17,1,,,,,ホリアンドカンパニー,0
1646,7030001165444,新規,0,2025-03-17,2025-03-17,ＭＡＭＯＲ株式会社,,株式会社,埼玉県,川口市,元郷１丁目３番８－１１９号ワコーレ川口第五,,11,203,3320011,,,,,,,2025-03-17,1,,,,,マモル,0
1651,7030003026297,新規,0,2025-03-17,2025-03-17,合同会社小林商事,,合同会社,埼玉県,川口市,芝２丁目９番５号,,11,203,3330866,,,,,,,2025-03-17,1,,,,,コバヤシショウジ,0
1652,7030003026355,新規,0,2025-03-17,2025-03-17,合同会社ミンナｓｍｉｌｅ,,合同会社,埼玉県,桶川市,西２丁目６番３０号,,11,231,3630017,,,,,,,2025-03-17,1,,,,,ミンナスマイル,0
1653,7030003026363,新規,0,2025-03-17,2025-03-17,ＭＮマーケティング合同会社,,合同会社,埼玉県,蕨市,塚越７丁目２０‐１,,11,223,3350002,,,,,,,2025-03-17,1,,,,,エムエヌマーケティング,0
1660,7040001137789,新規,0,2025-03-17,2025-03-17,ＳＨＡＮＡＹＡ　ＨＯＬＤＩＮＧＳ株式会社,,株式会社,千葉県,船橋市,夏見２丁目１１番８－３０１号,,12,204,2730865,,,,,,,2025-03-17,1,,,,,シャナヤホールディングス,0
1661,7040001137806,新規,0,2025-03-17,2025-03-17,アビコ工業株式会社,,株式会社,千葉県,千葉市花見川区,作新台５丁目８番１３号,,12,102,2620045,,,,,,,2025-03-17,1,,,,,アビココウギョウ,0
1662,7040001137814,新規,0,2025-03-17,2025-03-17,株式会社ＬＵＮＡＲＩＳ,,株式会社,千葉県,野田市,清水８５５番地の５,,12,208,2780043,,,,,,,2025-03-17,1,,,,,ルナリス,0
1663,7040001137830,新規,0,2025-03-17,2025-03-17,株式会社泉隆,,株式会社,千葉県,柏市,若柴１７８番地４柏の葉キャンパス１４８街区１ザ・ゲートタワーウエスト３階Ｖ１３６,,12,217,2770871,,,,,,,2025-03-17,1,,,,,ミタカ,0
1664,7040001137839,新規,0,2025-03-17,2025-03-17,株式会社ＮＳＯ,,株式会社,千葉県,野田市,上花輪１３５３－１,,12,208,2780033,,,,,,,2025-03-17,1,,,,,エヌエスオー,0
1665,7040001137847,新規,0,2025-03-17,2025-03-17,株式会社ＲＩＶＥＲ　ＩＳＬＡＮＤ,,株式会社,千葉県,柏市,新柏２丁目９番地１３,,12,217,2770084,,,,,,,2025-03-17,1,,,,,リバーアイランド,0
1666,7040001137855,新規,0,2025-03-17,2025-03-17,グローバルジョブリンク株式会社,,株式会社,千葉県,船橋市,金杉９丁目１５－１６サクセス１番館１０８室,,12,204,2730853,,,,,,,2025-03-17,1,,,,,グローバルジョブリンク,0
1667,7040001137863,新規,0,2025-03-17,2025-03-17,株式会社ＭＥＴＥ,,株式会社,千葉県,千葉市美浜区,中瀬１丁目３幕張テクノガーデンＣＢ棟３Ｆ、ＭＢＰ,,12,106,2610023,,,,,,,2025-03-17,1,,,,,メテ,0
1669,7040003027088,新規,0,2025-03-17,2025-03-17,合同会社クロス・ロジ・コンサル,,合同会社,千葉県,八千代市,緑が丘３丁目１番地１リーセントヒルズＧ－１２０６,,12,221,2760049,,,,,,,2025-03-17,1,,,,,クロスロジコンサル,0
1672,7050003009110,新規,0,2025-03-17,2025-03-17,ＭＩＡＮ　ＳＨＯＫＡＩ合同会社,,合同会社,茨城県,結城市,大字久保田６１番地７８,,08,207,3070012,,,,,,,2025-03-17,1,,,,,ミアンショウカイ,0
1674,7080103003274,新規,0,2025-03-17,2025-03-17,合同会社ヒーローズケア＆コンディショニング,,合同会社,静岡県,富士宮市,宮原６３７番地の２,,22,207,4180005,,,,,,,2025-03-17,1,,,,,ヒーローズケアアンドコンディショニング,0
1675,7090001019181,新規,0,2025-03-17,2025-03-17,株式会社Ｎｏｕｖｅａｕ,,株式会社,山梨県,中央市,臼井阿原７９５番地７,,19,214,4093844,,,,,,,2025-03-17,1,,,,,ヌーヴ,0
1677,7090003002763,新規,0,2025-03-17,2025-03-17,合同会社ＪＤＭファーストジャパン,,合同会社,山梨県,南都留郡山中湖村,平野５１９－１ライオンズヴィラ山中湖Ｂ４０１,,19,425,4010502,,,,,,,2025-03-17,1,,,,,,0
1678,7090003002771,新規,0,2025-03-17,2025-03-17,合同会社レアウル,,合同会社,山梨県,甲府市,北新２丁目１２番５号,,19,201,4000005,,,,,,,2025-03-17,1,,,,,レアウル,0
1680,7100001038394,新規,0,2025-03-17,2025-03-17,株式会社Ｍａｎｊｕｓｒｉｅ,,株式会社,長野県,駒ヶ根市,赤穂１１０４３番地７,,20,210,3994117,,,,,,,2025-03-17,1,,,,,マンジュシュリー,0
1688,7120001273626,新規,0,2025-03-17,2025-03-17,日昇株式会社,,株式会社,大阪府,大阪市西成区,萩之茶屋１丁目１２－７－１０５,,27,122,5570004,,,,,,,2025-03-17,1,,,,,ニッショウ,0
1689,7120001273691,新規,0,2025-03-17,2025-03-17,サンテ株式会社,,株式会社,大阪府,大阪市中央区,備後町３丁目６番２号大雅ビル１０Ｆ,,27,128,5410051,,,,,,,2025-03-17,1,,,,,サンテ,0
1690,7120001273709,新規,0,2025-03-17,2025-03-17,株式会社オクトウェル,,株式会社,大阪府,大阪市北区,梅田１丁目２番２号大阪駅前第２ビル１２－１２,,27,127,5300001,,,,,,,2025-03-17,1,,,,,オクトウェル,0
1691,7120001273717,新規,0,2025-03-17,2025-03-17,株式会社ＴＨＥ　ＣＬＡＳＳ,,株式会社,大阪府,大阪市中央区,島之内２丁目４番１号Ｆ－１３０６,,27,128,5420082,,,,,,,2025-03-17,1,,,,,ザクラス,0
1692,7120001273725,新規,0,2025-03-17,2025-03-17,株式会社ｎｅｘｔ,,株式会社,大阪府,大阪市北区,浪花町１３番３８号７Ｈ,,27,127,5300022,,,,,,,2025-03-17,1,,,,,ネクスト,0
1693,7120001273733,新規,0,2025-03-17,2025-03-17,株式会社Ｅａｒｔｈ　Ｌｉｎｋｓ．ＪＰ,,株式会社,大阪府,大阪市淀川区,西中島３丁目１８－９新大阪日大ビル３０２,,27,123,5320011,,,,,,,2025-03-17,1,,,,,アースリンクスジェイピー,0
1694,7120001273741,新規,0,2025-03-17,2025-03-17,株式会社ＥＬＬＥ,,株式会社,大阪府,大阪市浪速区,難波中１丁目６番２６号二つ浪ビル７０１,,27,111,5560011,,,,,,,2025-03-17,1,,,,,エル,0
1699,7120101071236,新規,0,2025-03-17,2025-03-17,観一株式会社,,株式会社,大阪府,堺市北区,南花田町４１７番地３,,27,146,5918011,,,,,,,2025-03-17,1,,,,,カンイチ,0
1700,7120101071293,新規,0,2025-03-17,2025-03-17,株式会社ＭＯＤＯ,,株式会社,大阪府,泉佐野市,長滝２８８番地の２,,27,213,5980034,,,,,,,2025-03-17,1,,,,,モド,0
1702,7120105009983,新規,0,2025-03-17,2025-03-17,特定非営利活動法人ジョイファミリーエクレシア,,その他の設立登記法人,大阪府,松原市,上田１丁目６番１０号,,27,217,5800016,,,,,,,2025-03-17,1,,,,,ジョイファミリーエクレシア,0
1703,7120901050570,新規,0,2025-03-17,2025-03-17,株式会社アンブレラ,,株式会社,大阪府,吹田市,佐竹台１丁目５番１０－８０７号,,27,205,5650855,,,,,,,2025-03-17,1,,,,,アンブレラ,0
1704,7120901050595,新規,0,2025-03-17,2025-03-17,株式会社幸縁,,株式会社,大阪府,高槻市,塚原３丁目２３－２５,,27,207,5691046,,,,,,,2025-03-17,1,,,,,コウエン,0
1705,7122001038991,新規,0,2025-03-17,2025-03-17,セムデックジャパン株式会社,,株式会社,大阪府,東大阪市,新家２丁目６番２３号,,27,227,5770025,,,,,,,2025-03-17,1,,,,,セムデックジャパン,0
1707,7130001079171,新規,0,2025-03-17,2025-03-17,株式会社アウトサイン,,株式会社,京都府,向日市,寺戸町瓜生１６－１９－２０２,,26,208,6170002,,,,,,,2025-03-17,1,,,,,アウトサイン,0
1708,7130001079196,新規,0,2025-03-17,2025-03-17,株式会社ａｎｄａｔａ,,株式会社,京都府,京都市山科区,上花山久保町６６－２３,,26,110,6078464,,,,,,,2025-03-17,1,,,,,アンダータ,0
1709,7130001079221,新規,0,2025-03-17,2025-03-17,株式会社ジェイアップ丸山,,株式会社,京都府,京都市伏見区,横大路下三栖城ノ前町５８番１,,26,109,6128243,,,,,,,2025-03-17,1,,,,,ジェイアップマルヤマ,0
1716,7140001137721,新規,0,2025-03-17,2025-03-17,株式会社オオシマ,,株式会社,兵庫県,川西市,火打１丁目２番１－１１６号,,28,217,6660017,,,,,,,2025-03-17,1,,,,,オオシマ,0
1717,7140001137770,新規,0,2025-03-17,2025-03-17,株式会社命門堂のいえ,,株式会社,兵庫県,神戸市東灘区,深江北町４丁目４番８号　ルミエール東灘１Ｆ,,28,101,6580013,,,,,,,2025-03-17,1,,,,,メイモンドウノイエ,0
1718,7160001026609,新規,0,2025-03-17,2025-03-17,泰樹不動産株式会社,,株式会社,滋賀県,野洲市,永原７１１番地３,,25,210,5202304,,,,,,,2025-03-17,1,,,,,タイジュフドウサン,0
1724,7180001165826,新規,0,2025-03-17,2025-03-17,株式会社クキタリテック,,株式会社,愛知県,稲沢市,平和町鷲尾４５０番地１,,23,220,4901305,,,,,,,2025-03-17,1,,,,,クキタリテック,0
1725,7180001165842,新規,0,2025-03-17,2025-03-17,サギサカ株式会社,,株式会社,愛知県,春日井市,月見町１１番地３,,23,206,4860835,,,,,,,2025-03-17,1,,,,,サギサカ,0
1726,7180001165867,新規,0,2025-03-17,2025-03-17,ボンドグローバルエイト株式会社,,株式会社,愛知県,名古屋市東区,泉２丁目７番１３号ライジング泉Ｈ・Ｍビル７０２,,23,102,4610001,,,,,,,2025-03-17,1,,,,,ボンドグローバルエイト,0
1727,7180001165909,新規,0,2025-03-17,2025-03-17,株式会社心楓建材,,株式会社,愛知県,稲沢市,稲島東４丁目１１０番地,,23,220,4928230,,,,,,,2025-03-17,1,,,,,シンプウケンザイ,0
1741,7210001020102,新規,0,2025-03-17,2025-03-17,株式会社構造テクノ,,株式会社,福井県,福井市,上河北町第３号２番地,,18,201,9190322,,,,,,,2025-03-17,1,,,,,コウゾウテクノ,0
1744,7240001064633,新規,0,2025-03-17,2025-03-17,Ｊｕｓｔ　Ｍｅａｔ株式会社,,株式会社,広島県,福山市,東桜町１番３４－１７０６号,,34,207,7200065,,,,,,,2025-03-17,1,,,,,ジャストミート,0
1746,7260001039996,新規,0,2025-03-17,2025-03-17,株式会社ｕｍｂｒｅｌｌａ,,株式会社,岡山県,倉敷市,玉島阿賀崎１４１７番地１,,33,202,7138121,,,,,,,2025-03-17,1,,,,,アンブレラ,0
1749,7290001109276,新規,0,2025-03-17,2025-03-17,株式会社ダブルエム,,株式会社,福岡県,大野城市,乙金１丁目１３番１７号ディアス乙金２０２号,,40,219,8160902,,,,,,,2025-03-17,1,,,,,ダブルエム,0
1750,7290001109284,新規,0,2025-03-17,2025-03-17,株式会社ＲｉＰ　ＴｉＣＫ,,株式会社,福岡県,福岡市早良区,西新５丁目１５番１５－５０２号,,40,137,8140002,,,,,,,2025-03-17,1,,,,,リップティック,0
1751,7290001109292,新規,0,2025-03-17,2025-03-17,株式会社ＳＫプランニング,,株式会社,福岡県,福岡市東区,馬出３丁目１５番２５－７０７号,,40,131,8120054,,,,,,,2025-03-17,1,,,,,エスケープランニング,0
1752,7290001109318,新規,0,2025-03-17,2025-03-17,株式会社ヒトコトＥｄｕｃａｔｉｏｎ,,株式会社,福岡県,福津市,宮司２丁目１４番１３号ＮＹスタイルズ福津Ｄ棟Ｄ－２号,,40,224,8113305,,,,,,,2025-03-17,1,,,,,ヒトコトエデュケーション,0
1753,7290001109326,新規,0,2025-03-17,2025-03-17,株式会社５５,,株式会社,福岡県,福岡市中央区,那の津３丁目１３番３号,,40,133,8100071,,,,,,,2025-03-17,1,,,,,ゴジュウゴ,0
1754,7290001109334,新規,0,2025-03-17,2025-03-17,ＬＢＰ　ＷＯＲＬＤ　ＪＡＰＡＮ株式会社,,株式会社,福岡県,福岡市東区,香椎浜３丁目３番６号,,40,131,8130016,,,,,,,2025-03-17,1,,,,,エルビーピーワールドジャパン,0
1757,7290003016529,新規,0,2025-03-17,2025-03-17,慧ｇｅｎ合同会社,,合同会社,福岡県,福岡市中央区,草香江２丁目１１番６－４０２号,,40,133,8100045,,,,,,,2025-03-17,1,,,,,エゲン,0
1758,7290003016537,新規,0,2025-03-17,2025-03-17,合同会社レトロマン,,合同会社,福岡県,福岡市中央区,警固２丁目１３番１０号－５０１,,40,133,8100023,,,,,,,2025-03-17,1,,,,,レトロマン,0
1759,7290003016545,新規,0,2025-03-17,2025-03-17,インフィニティリンク国際合同会社,,合同会社,福岡県,福岡市南区,井尻２丁目１８－９シティベール井尻Ｃ棟１１５号室,,40,134,8111302,,,,,,,2025-03-17,1,,,,,インフィニティリンクコクサイ,0
1767,7320001020999,新規,0,2025-03-17,2025-03-17,ネイブ株式会社,,株式会社,大分県,大分市,金池南１丁目５番１号Ｊ：ＣＯＭホルトホール大分２階,,44,201,8700839,,,,,,,2025-03-17,1,,,,,ネイブ,0
1769,7330001032985,新規,0,2025-03-17,2025-03-17,株式会社オフィスＭＲ,,株式会社,熊本県,熊本市南区,島町２丁目１８番８号,,43,104,8614133,,,,,,,2025-03-17,1,,,,,オフィスエムアール,0
1776,7350003004865,新規,0,2025-03-17,2025-03-17,合同会社フェニックスエージェンシー,,合同会社,宮崎県,都城市,早鈴町１０街区２３号,,45,202,8850055,,,,,,,2025-03-17,1,,,,,フェニックスエージェンシー,0
1780,7360001034913,新規,0,2025-03-17,2025-03-17,株式会社ヤドカリップル,,株式会社,沖縄県,島尻郡南風原町,字津嘉山３５番地３,,47,350,9011117,,,,,,,2025-03-17,1,,,,,ヤドカリップル,0
1781,7360001034921,新規,0,2025-03-17,2025-03-17,株式会社クニテツ,,株式会社,沖縄県,宮古島市,平良字下里１７５０番地丸富マンション６、３０２号室,,47,214,9060013,,,,,,,2025-03-17,1,,,,,クニテツ,0
1782,7360003014772,新規,0,2025-03-17,2025-03-17,合同会社海兎,,合同会社,沖縄県,那覇市,宇栄原３丁目３３－２０,,47,201,9010153,,,,,,,2025-03-17,1,,,,,カイト,0
1798,7430001093927,新規,0,2025-03-17,2025-03-17,株式会社Ｔｒｕｓｔ　Ｅｄｇｅ,,株式会社,北海道,札幌市西区,琴似四条４丁目１番１８号,,01,107,0630814,,,,,,,2025-03-17,1,,,,,トラストエッジ,0
1799,7430001093943,新規,0,2025-03-17,2025-03-17,株式会社ルフェール,,株式会社,北海道,札幌市豊平区,旭町１丁目１番２４－７０２号,,01,105,0620911,,,,,,,2025-03-17,1,,,,,ルフェール,0
1807,7460003001042,新規,0,2025-03-17,2025-03-17,合同会社黒鉢屋,,合同会社,北海道,川上郡弟子屈町,湯の島１丁目６番８号,,01,665,0883203,,,,,,,2025-03-17,1,,,,,,0
1810,7480003002245,新規,0,2025-03-17,2025-03-17,合同会社和が社,,合同会社,徳島県,徳島市,南庄町３丁目１２番地６,,36,201,7700045,,,,,,,2025-03-17,1,,,,,ワガシャ,0
1811,7490001010991,新規,0,2025-03-17,2025-03-17,株式会社Ｍ　ｔｈｅ　Ｂ,,株式会社,高知県,高知市,高須３丁目７番１号,,39,201,7818104,,,,,,,2025-03-17,1,,,,,エムザビィ,0
1813,7700150128332,新規,0,2025-03-17,2025-03-17,Ｄｏｎｇｇｕａｎｓｈｉｋａｉｓｈｅｎｇｗｅｉｓｈｉｋｅｊｉｙｏｕｘｉａｎｇｏｎｇｓｉ,,外国会社等,,,,,,,,Ｇｕａｎｇｄｏｎｇ　Ｐｒｏｖｉｎｃｅ，Ｄｏｎｇｇｕａｎ　Ｃｉｔｙ，Ｎｏ．２　Ｗｅｉｄａ　Ｒｏａｄ，Ｆｅｎｇｇａｎｇ　Ｔｏｗｎ，Ｂｕｉｌｄｉｎｇ　３,,,,,,2025-03-17,1,,,,,ドングワンシーカイシヨンウエイシーコージーヨウシエンゴンスー,0
1816,8010001253084,新規,0,2025-03-17,2025-03-17,株式会社ＳＨＩＰ第１０２３号,,株式会社,東京都,千代田区,丸の内２丁目７番２号,,13,101,1000005,,,,,,,2025-03-17,1,,,,,エスエイチアイピーダイセンニジュウサンゴウ,0
1817,8010001253200,新規,0,2025-03-17,2025-03-17,ＣＥ’Ｌｉｓ株式会社,,株式会社,東京都,中央区,銀座１丁目１２番４号Ｎ＆ＥＢＬＤ．６Ｆ,,13,102,1040061,,,,,,,2025-03-17,1,,,,,セリス,0
1818,8010001253225,新規,0,2025-03-17,2025-03-17,アリストラム株式会社,,株式会社,東京都,千代田区,東神田３丁目４－１２－５Ｆ,,13,101,1010031,,,,,,,2025-03-17,1,,,,,アリストラム,0
1819,8010001253233,新規,0,2025-03-17,2025-03-17,株式会社ＪＳＫ２１,,株式会社,東京都,千代田区,麹町２丁目６番地５,,13,101,1020083,,,,,,,2025-03-17,1,,,,,ジェイエスケイニジュウイチ,0
1820,8010001253241,新規,0,2025-03-17,2025-03-17,ＬＭＫ．Ｇｌｏｂａｌ株式会社,,株式会社,東京都,中央区,入船３丁目７番７号,,13,102,1040042,,,,,,,2025-03-17,1,,,,,エルエムケイグローバル,0
1823,8010003046791,新規,0,2025-03-17,2025-03-17,合同会社ｂｒｅｗｈｏｕｓｅ,,合同会社,東京都,中央区,日本橋浜町２丁目１－５Ｈａｕｓ・ｄｅｒＴＡＮＮＥ２０３,,13,102,1030007,,,,,,,2025-03-17,1,,,,,ブリューハウス,0
1825,8010005039744,新規,0,2025-03-17,2025-03-17,一般社団法人たすけあい,,その他の設立登記法人,東京都,中央区,日本橋小舟町７番１２－１００１,,13,102,1030024,,,,,,,2025-03-17,1,,,,,タスケアイ,0
1826,8010005039760,新規,0,2025-03-17,2025-03-17,一般社団法人ＢＲＭ,,その他の設立登記法人,東京都,千代田区,永田町２丁目１７番５号,,13,101,1000014,,,,,,,2025-03-17,1,,,,,ビーアールエム,0
1828,8010401188896,新規,0,2025-03-17,2025-03-17,株式会社ミライバ,,株式会社,東京都,港区,北青山１丁目３番１号アールキューブ青山３階,,13,103,1070061,,,,,,,2025-03-17,1,,,,,ミライバ,0
1829,8010401188979,新規,0,2025-03-17,2025-03-17,株式会社Ｃａｂｌｉｏ　Ｃａｐｉｔａｌ,,株式会社,東京都,港区,六本木７丁目２１番７号ウエスタ六本木１階,,13,103,1060032,,,,,,,2025-03-17,1,,,,,カブリオキャピタル,0
1831,8010403034652,新規,0,2025-03-17,2025-03-17,合同会社Ｍｏｒｖｉｃｈ,,合同会社,東京都,港区,虎ノ門１丁目１番１８号ヒューリック虎ノ門ビル９階Ｌ＆Ｐ司法書士法人内,,13,103,1050001,,,,,,,2025-03-17,1,,,,,モーヴィック,0
1832,8010403034660,新規,0,2025-03-17,2025-03-17,Ｅｒｉｓ合同会社,,合同会社,東京都,港区,虎ノ門２丁目６番１号,,13,103,1050001,,,,,,,2025-03-17,1,,,,,エリス,0
1834,8010501053793,新規,0,2025-03-17,2025-03-17,ＨＯ　ＧＲＯＵＰ株式会社,,株式会社,東京都,台東区,浅草３丁目２９番３号,,13,106,1110032,,,,,,,2025-03-17,1,,,,,エイチオーグループ,0
1839,8010601066951,新規,0,2025-03-17,2025-03-17,イデアル株式会社,,株式会社,東京都,江東区,有明１丁目４番２０号,,13,108,1350063,,,,,,,2025-03-17,1,,,,,イデアル,0
1840,8010605004429,新規,0,2025-03-17,2025-03-17,一般社団法人Ｓａｖｅ　ｔｈｅ　　Ａｓｉａｎ　Ｅｄｕｃａｔｉｏｎｓ　Ｓｃｉｅｎｃｅ　ａｎｄ　Ｃｕｌｔｕｒｅ　Ｏｒｇａｎｉｚａｔｉｏｎ,,その他の設立登記法人,東京都,江東区,牡丹３丁目２５番７号,,13,108,1350046,,,,,,,2025-03-17,1,,,,,セイヴザアジアンエデュケーションズサイエンスアンドカルチャーオーガニゼイション,0
1845,8010801035913,新規,0,2025-03-17,2025-03-17,株式会社ルクスアソシア,,株式会社,東京都,大田区,山王２丁目５番６号,,13,111,1430023,,,,,,,2025-03-17,1,,,,,ルクスアソシア,0
1846,8010801035938,新規,0,2025-03-17,2025-03-17,株式会社Ｎｅｉｇｈｔ,,株式会社,東京都,大田区,中央８丁目２１－１３,,13,111,1430024,,,,,,,2025-03-17,1,,,,,ネイト,0
1847,8010901056999,新規,0,2025-03-17,2025-03-17,株式会社服売戯殿,,株式会社,東京都,世田谷区,下馬１丁目３９番８号,,13,112,1540002,,,,,,,2025-03-17,1,,,,,フクルギデン,0
1848,8010901057007,新規,0,2025-03-17,2025-03-17,株式会社Ｄ．ｐｏｄｓ,,株式会社,東京都,世田谷区,代田１丁目３２番２号,,13,112,1550033,,,,,,,2025-03-17,1,,,,,ディーポッズ,0
1850,8011001168371,新規,0,2025-03-17,2025-03-17,ＴｉｇａＯｎｅ株式会社,,株式会社,東京都,渋谷区,道玄坂１丁目１０番８号渋谷道玄坂東急ビル２Ｆ‐Ｃ,,13,113,1500043,,,,,,,2025-03-17,1,,,,,ティガワン,0
1851,8011001168438,新規,0,2025-03-17,2025-03-17,株式会社Ｂｌｏｗｉｎ,,株式会社,東京都,渋谷区,渋谷２丁目１９－１５宮益坂ビルディング６０９,,13,113,1500002,,,,,,,2025-03-17,1,,,,,ブローウィン,0
1852,8011001168504,新規,0,2025-03-17,2025-03-17,株式会社Ｄａｚｚｌｅ,,株式会社,東京都,渋谷区,恵比寿西１丁目３３番６号１階,,13,113,1500021,,,,,,,2025-03-17,1,,,,,ダズル,0
1866,8011201026197,新規,0,2025-03-17,2025-03-17,株式会社ＳＣＬ,,株式会社,東京都,中野区,中央２丁目８‐２２,,13,114,1640011,,,,,,,2025-03-17,1,,,,,エスシーエル,0
1867,8011203004639,新規,0,2025-03-17,2025-03-17,合同会社ｂｉｇ　ｒｏｃｋ,,合同会社,東京都,中野区,若宮３丁目２－８,,13,114,1650033,,,,,,,2025-03-17,1,,,,,ビッグロック,0
1868,8011303005454,新規,0,2025-03-17,2025-03-17,合同会社コンテンツ・エージェント,,合同会社,東京都,杉並区,永福３丁目４６番１２号アーバンコート１０１,,13,115,1680064,,,,,,,2025-03-17,1,,,,,コンテンツエージェント,0
1870,8011605002637,新規,0,2025-03-17,2025-03-17,医療法人社団泉水会,,その他の設立登記法人,東京都,練馬区,東大泉４丁目２７番４０号ＳＦＣビル２階,,13,120,1780063,,,,,,,2025-03-17,1,,,,,センスイカイ,0
1873,8011801045811,新規,0,2025-03-17,2025-03-17,株式会社モリス出版,,株式会社,東京都,足立区,大谷田１丁目２番１５号,,13,121,1200001,,,,,,,2025-03-17,1,,,,,モリスシュッパン,0
1874,8012401042868,新規,0,2025-03-17,2025-03-17,株式会社光和動力,,株式会社,東京都,府中市,分梅町５丁目２１番地の１すみれ荘１０１号室,,13,206,1830033,,,,,,,2025-03-17,1,,,,,コウワドウリョク,0
1878,8012803003666,新規,0,2025-03-17,2025-03-17,ＡＳＫ合同会社,,合同会社,東京都,立川市,高松町３丁目１５番１５号モアグランデ立川１００４,,13,202,1900011,,,,,,,2025-03-17,1,,,,,エーエスケー,0
1879,8013103001419,新規,0,2025-03-17,2025-03-17,合同会社コネクトベース,,合同会社,東京都,羽村市,小作台２丁目６－７フィエスタ小作１－Ａ,,13,227,2050001,,,,,,,2025-03-17,1,,,,,コネクトベース,0
1890,8020001161864,新規,0,2025-03-17,2025-03-17,Ｆｒｅｅｓｔｙｌｅ　Ｂｕｓｉｎｅｓｓ　Ｃｏｎｓｕｌｔｉｎｇ株式会社,,株式会社,神奈川県,横浜市神奈川区,金港町５－１４クアドリフォリオ８階,,14,102,2210056,,,,,,,2025-03-17,1,,,,,フリースタイルビジネスコンサルティング,0
1891,8020001161872,新規,0,2025-03-17,2025-03-17,株式会社Ｌｉａｎ,,株式会社,神奈川県,川崎市多摩区,登戸新町４０９番地２Ｆ,,14,135,2140013,,,,,,,2025-03-17,1,,,,,リアン,0
1892,8020001161897,新規,0,2025-03-17,2025-03-17,株式会社グッドツリー,,株式会社,神奈川県,横浜市戸塚区,原宿５丁目２番７号,,14,110,2450063,,,,,,,2025-03-17,1,,,,,グッドツリー,0
1893,8020001161914,新規,0,2025-03-17,2025-03-17,ファーイースト・リミテッド株式会社,,株式会社,神奈川県,横浜市南区,唐沢１８番地,,14,105,2320034,,,,,,,2025-03-17,1,,,,,ファーイーストリミテッド,0
1898,8020003028038,新規,0,2025-03-17,2025-03-17,合同会社ＫＡＲＡＳＩＸ,,合同会社,神奈川県,横浜市西区,浅間町１丁目４番３号ウィザードビル４０２,,14,103,2200072,,,,,,,2025-03-17,1,,,,,カラシックス,0
1899,8020003028054,新規,0,2025-03-17,2025-03-17,ＥｍＰａｃｔ合同会社,,合同会社,神奈川県,横浜市都筑区,東山田４丁目４４番１－１号,,14,118,2240023,,,,,,,2025-03-17,1,,,,,エンパクト,0
1900,8020003028070,新規,0,2025-03-17,2025-03-17,ｔｒｙ合同会社,,合同会社,神奈川県,横浜市西区,北幸１丁目１１番１号水信ビル７階,,14,103,2200004,,,,,,,2025-03-17,1,,,,,トライ,0
1902,8021001084725,新規,0,2025-03-17,2025-03-17,株式会社ＭＡＲＵＢＯＷＳ,,株式会社,神奈川県,相模原市緑区,橋本３丁目２７―６Ｓ＆Ｙビル４Ｆ・５Ｆ,,14,151,2520143,,,,,,,2025-03-17,1,,,,,マルボーズ,0
1903,8021001084733,新規,0,2025-03-17,2025-03-17,ＣＸＴ株式会社,,株式会社,神奈川県,小田原市,浜町２丁目５－５－１０３,,14,206,2500004,,,,,,,2025-03-17,1,,,,,シーエックスティー,0
1904,8021003015629,新規,0,2025-03-17,2025-03-17,ＡＩＦＡ　ＮＩＨＯＮ合同会社,,合同会社,神奈川県,厚木市,山際１－６オリエントハイツＮｏ．５－１０９,,14,212,2430803,,,,,,,2025-03-17,1,,,,,アイファニホン,0
1906,8030001165261,新規,0,2025-03-17,2025-03-17,株式会社ｍｙ　ａｓｓｅｔｓ,,株式会社,埼玉県,蕨市,塚越１丁目８番２７号,,11,223,3350002,,,,,,,2025-03-17,1,,,,,マイアセット,0
1907,8030001165385,新規,0,2025-03-17,2025-03-17,株式会社みらいメディカル,,株式会社,埼玉県,川口市,栄町３丁目１３番１－２８０３号,,11,203,3320017,,,,,,,2025-03-17,1,,,,,ミライメディカル,0
1908,8030001165419,新規,0,2025-03-17,2025-03-17,株式会社東管ホールディングス,,株式会社,埼玉県,草加市,新里町１４９９番地１,,11,221,3400031,,,,,,,2025-03-17,1,,,,,トウカンホールディングス,0
1909,8030001165427,新規,0,2025-03-17,2025-03-17,株式会社Ｍ２Ｆ,,株式会社,埼玉県,川口市,本町４丁目１３－３デュオプラザ川口壱番館１０４－１号室,,11,203,3320012,,,,,,,2025-03-17,1,,,,,エムツーエフ,0
1910,8030001165476,新規,0,2025-03-17,2025-03-17,株式会社ザビアス,,株式会社,埼玉県,川越市,大字大袋８７３番地７,,11,201,3501168,,,,,,,2025-03-17,1,,,,,ザビアス,0
1914,8030003026305,新規,0,2025-03-17,2025-03-17,合同会社ミレイ,,合同会社,埼玉県,蓮田市,東３丁目３番１５号２０２号室,,11,238,3490111,,,,,,,2025-03-17,1,,,,,ミレイ,0
1915,8030003026313,新規,0,2025-03-17,2025-03-17,中野技術コンサルティング合同会社,,合同会社,埼玉県,羽生市,東４丁目６番１１号,,11,216,3480052,,,,,,,2025-03-17,1,,,,,ナカノギジュツコンサルティング,0
1926,8040001137813,新規,0,2025-03-17,2025-03-17,ユカリゾラ株式会社,,株式会社,千葉県,松戸市,西馬橋幸町１１２番地ロイヤルパレス３０４号室,,12,207,2710047,,,,,,,2025-03-17,1,,,,,ユカリゾラ,0
1927,8040001137821,新規,0,2025-03-17,2025-03-17,株式会社Ｈｅａｒｔ＆Ｈａｎｄｓ,,株式会社,千葉県,千葉市美浜区,打瀬３丁目１３番地１幕張アクアテラス１３０５号,,12,106,2610013,,,,,,,2025-03-17,1,,,,,ハートアンドハンズ,0
1928,8040001137838,新規,0,2025-03-17,2025-03-17,株式会社Ｗｏｍａｍ　Ｐｌｕｓ,,株式会社,千葉県,柏市,篠籠田１０６２番地１セジュールヤマリ１０２号,,12,217,2770862,,,,,,,2025-03-17,1,,,,,ウーマムプラス,0
1929,8040001137854,新規,0,2025-03-17,2025-03-17,宝彩株式会社,,株式会社,千葉県,船橋市,金杉９丁目１５－１６サクセス１番館１０３室,,12,204,2730853,,,,,,,2025-03-17,1,,,,,ホウサイ,0
1931,8040003027079,新規,0,2025-03-17,2025-03-17,ＳＳ　ＪＡＰＡＮ合同会社,,合同会社,千葉県,山武市,埴谷１４０４番地３,,12,237,2891223,,,,,,,2025-03-17,1,,,,,エスエスジャパン,0
1937,8060001038035,新規,0,2025-03-17,2025-03-17,株式会社Ｒ・ＥＭ,,株式会社,栃木県,矢板市,成田梅ヶ久保１４７７番地４９,,09,211,3292134,,,,,,,2025-03-17,1,,,,,アールイーエム,0
1953,8090001019180,新規,0,2025-03-17,2025-03-17,株式会社ＺＥＲＯ　ＨＵＩＴ,,株式会社,山梨県,甲斐市,宇津谷８２４番地３,,19,210,4000108,,,,,,,2025-03-17,1,,,,,ゼロユイット,0
1956,8100001038410,新規,0,2025-03-17,2025-03-17,株式会社ベジテスタイル,,株式会社,長野県,諏訪郡富士見町,乙事３５７番地５,,20,362,3990213,,,,,,,2025-03-17,1,,,,,ベジテスタイル,0
1968,8120001273682,新規,0,2025-03-17,2025-03-17,株式会社スタジオフィグ,,株式会社,大阪府,大阪市中央区,道修町２丁目６番７号,,27,128,5410045,,,,,,,2025-03-17,1,,,,,スタジオフィグ,0
1969,8120001273749,新規,0,2025-03-17,2025-03-17,株式会社Ｇｒｉｔｒｉｏ,,株式会社,大阪府,大阪市淀川区,西中島７丁目８番３６－１０１号,,27,123,5320011,,,,,,,2025-03-17,1,,,,,グリットリオ,0
1970,8120001273823,新規,0,2025-03-17,2025-03-17,株式会社ＹＪＬ,,株式会社,大阪府,大阪市中央区,久太郎町３丁目１－２７ヒグチビル４０３号室,,27,128,5410056,,,,,,,2025-03-17,1,,,,,ワイジェイエル,0
1975,8120003028861,新規,0,2025-03-17,2025-03-17,合同会社ＢＯ‐ＥＮ,,合同会社,大阪府,大阪市淀川区,木川西１丁目１３番１８－２０１号,,27,123,5320013,,,,,,,2025-03-17,1,,,,,ボウエン,0
1976,8120003028878,新規,0,2025-03-17,2025-03-17,合同会社浮世繪,,合同会社,大阪府,大阪市此花区,酉島６丁目４－１９,,27,104,5540051,,,,,,,2025-03-17,1,,,,,ウキヨエ,0
1977,8120003028936,新規,0,2025-03-17,2025-03-17,合同会社Ｃｈｅｒｉｅ,,合同会社,大阪府,大阪市北区,梅田１丁目２番２号大阪駅前第２ビル１２－１２,,27,127,5300001,,,,,,,2025-03-17,1,,,,,シェリー,0
1983,8120101071243,新規,0,2025-03-17,2025-03-17,株式会社ＩｎＳｐａｒｋ,,株式会社,大阪府,河内長野市,上原町１１９番地の８,,27,216,5860037,,,,,,,2025-03-17,1,,,,,インスパーク,0
1988,8120901050578,新規,0,2025-03-17,2025-03-17,藤村工務店株式会社,,株式会社,大阪府,豊中市,西緑丘１丁目３番１－８０３号,,27,203,5600005,,,,,,,2025-03-17,1,,,,,フジムラコウムテン,0
1989,8120901050586,新規,0,2025-03-17,2025-03-17,株式会社ＦＬＯ,,株式会社,大阪府,高槻市,芝生町１丁目２４番２号サンハイム２０５号,,27,207,5690823,,,,,,,2025-03-17,1,,,,,フロー,0
1990,8120901050603,新規,0,2025-03-17,2025-03-17,株式会社まる,,株式会社,大阪府,豊中市,箕輪３丁目４番２７号,,27,203,5600035,,,,,,,2025-03-17,1,,,,,マル,0
2003,8140001137761,新規,0,2025-03-17,2025-03-17,株式会社テルノス,,株式会社,兵庫県,西宮市,今津二葉町１－３レフィシア西宮１Ｆ,,28,204,6638228,,,,,,,2025-03-17,1,,,,,テルノス,0
2004,8140001137786,新規,0,2025-03-17,2025-03-17,株式会社ＡＴＨＬＥＴＥ　ＥＮＤＬＥＳＳ,,株式会社,兵庫県,豊岡市,一日市１６７３番地の３,,28,209,6680015,,,,,,,2025-03-17,1,,,,,アスリートエンドレス,0
2006,8140003021773,新規,0,2025-03-17,2025-03-17,合同会社藏田一郎,,合同会社,兵庫県,宝塚市,山手台西４丁目７番１号,,28,214,6650886,,,,,,,2025-03-17,1,,,,,クラタイチロウ,0
2028,8180003028138,新規,0,2025-03-17,2025-03-17,Ｄｒ．ｓｔｙｌｅ合同会社,,合同会社,愛知県,豊明市,新田町広長２３の１－１０２号,,23,229,4701114,,,,,,,2025-03-17,1,,,,,ドクタースタイル,0
2029,8180003028146,新規,0,2025-03-17,2025-03-17,合同会社Ｒｅ．ｓｔａｒｔ,,合同会社,愛知県,名古屋市中村区,名駅３丁目４－１０アルティメイト名駅１ｓｔ２階,,23,105,4500002,,,,,,,2025-03-17,1,,,,,リスタート,0
2030,8180005020984,新規,0,2025-03-17,2025-03-17,一般社団法人ＯＲＫ,,その他の設立登記法人,愛知県,名古屋市港区,当知４丁目８０３番地の８,,23,111,4550804,,,,,,,2025-03-17,1,,,,,オーク,0
2033,8190001032074,新規,0,2025-03-17,2025-03-17,株式会社こころびパートナーズ,,株式会社,三重県,桑名市,大字西方８３６番地６,,24,205,5110864,,,,,,,2025-03-17,1,,,,,ココロビパートナーズ,0
2040,8210001020101,新規,0,2025-03-17,2025-03-17,グローシーフス株式会社,,株式会社,福井県,福井市,西木田２丁目２番１６号,,18,201,9188004,,,,,,,2025-03-17,1,,,,,グローシーフス,0
2055,8290001109275,新規,0,2025-03-17,2025-03-17,株式会社プレシオンアイ,,株式会社,福岡県,飯塚市,弁分５４０番地７,,40,205,8200088,,,,,,,2025-03-17,1,,,,,プレシオンアイ,0
2056,8290001109283,新規,0,2025-03-17,2025-03-17,株式会社ＬＳＨカンパニー,,株式会社,福岡県,福岡市博多区,対馬小路１３番３５－１００６号沙都和ＢＬＤＧ,,40,132,8120020,,,,,,,2025-03-17,1,,,,,エルエスエイチカンパニー,0
2057,8290001109317,新規,0,2025-03-17,2025-03-17,Ａｗｅｓｏｍｅ　Ｓｅｅｄ株式会社,,株式会社,福岡県,福岡市博多区,千代１丁目２４－１２－７０１,,40,132,8120044,,,,,,,2025-03-17,1,,,,,オーサムシード,0
2064,8290005019677,新規,0,2025-03-17,2025-03-17,一般社団法人徳善会日本再生医療研究所,,その他の設立登記法人,福岡県,福岡市博多区,中洲中島町三丁目４番,,40,132,8100802,,,,,,,2025-03-17,1,,,,,,0
2074,8330001032968,新規,0,2025-03-17,2025-03-17,株式会社丸,,株式会社,熊本県,合志市,須屋２７２番地１サンハイム須屋Ｂ棟２０３号,,43,216,8611102,,,,,,,2025-03-17,1,,,,,マル,0
2075,8330001032992,新規,0,2025-03-17,2025-03-17,株式会社ルミエール,,株式会社,熊本県,熊本市中央区,大江６丁目２７番３２号,,43,101,8620971,,,,,,,2025-03-17,1,,,,,ルミエール,0
2078,8350001019443,新規,0,2025-03-17,2025-03-17,株式会社ａｍａｒｕ,,株式会社,宮崎県,児湯郡都農町,大字川北５０８２番地２,,45,406,8891201,,,,,,,2025-03-17,1,,,,,アマル,0
2091,8430001093884,新規,0,2025-03-17,2025-03-17,丸正技建工業株式会社,,株式会社,北海道,札幌市北区,篠路三条８丁目８番１１号,,01,102,0028023,,,,,,,2025-03-17,1,,,,,マルマサギケンコウギョウ,0
2093,8430003017404,新規,0,2025-03-17,2025-03-17,デジナリー合同会社,,合同会社,北海道,札幌市中央区,南五条西１５丁目２番３号５０３,,01,101,0640805,,,,,,,2025-03-17,1,,,,,デジナリー,0
2096,8460101007683,新規,0,2025-03-17,2025-03-17,株式会社ＫＯＳＯＲＡ,,株式会社,北海道,帯広市,大空町１丁目２番地１道営大空団地３号棟３０２,,01,207,0800838,,,,,,,2025-03-17,1,,,,,コソラ,0
2097,8470001020629,新規,0,2025-03-17,2025-03-17,株式会社島ノ余韻,,株式会社,香川県,高松市,瓦町２丁目２－４８,,37,201,7600052,,,,,,,2025-03-17,1,,,,,,0
2098,8480003002244,新規,0,2025-03-17,2025-03-17,合同会社ｙパック,,合同会社,徳島県,小松島市,坂野町字吐田５番地７,,36,203,7730023,,,,,,,2025-03-17,1,,,,,ワイパック,0
2104,8700150015232,新規,0,2025-03-17,2015-10-09,千葉県倉庫協会,,その他,千葉県,千葉市美浜区,中瀬１丁目３幕張テクノガーデンＢ棟３Ｆ　日本通運株式会社千葉支店内,,12,106,2610023,,,,,,,2015-10-09,1,,,,,チバケンソウコキヨウカイ,0
2109,9010001253059,新規,0,2025-03-17,2025-03-17,株式会社ＦＬＩＰ第３１２号,,株式会社,東京都,千代田区,丸の内２丁目７番２号,,13,101,1000005,,,,,,,2025-03-17,1,,,,,エフエルアイピーダイサンビャクジュウニゴウ,0
2110,9010001253083,新規,0,2025-03-17,2025-03-17,株式会社ＳＨＩＰ第１０２２号,,株式会社,東京都,千代田区,丸の内２丁目７番２号,,13,101,1000005,,,,,,,2025-03-17,1,,,,,エスエイチアイピーダイセンニジュウニゴウ,0
2111,9010001253232,新規,0,2025-03-17,2025-03-17,株式会社ＪＳＫ２０,,株式会社,東京都,千代田区,麹町２丁目６番地５,,13,101,1020083,,,,,,,2025-03-17,1,,,,,ジェイエスケイニジュウ,0
2112,9010001253257,新規,0,2025-03-17,2025-03-17,株式会社Ｌｉｌｉｅ,,株式会社,東京都,千代田区,神田佐久間町１丁目１６－１大橋ビル５０３,,13,101,1010025,,,,,,,2025-03-17,1,,,,,リリー,0
2122,9010003046650,新規,0,2025-03-17,2025-03-17,ＷＬＰ合同会社,,合同会社,東京都,中央区,晴海２丁目３－２－３９０８,,13,102,1040053,,,,,,,2025-03-17,1,,,,,ダブリューエルピー,0
2123,9010003046790,新規,0,2025-03-17,2025-03-17,合同会社Ｍｏｒｉｏｋａ　Ｅｐｉｃ,,合同会社,東京都,中央区,日本橋堀留町１丁目１０番１号カクタビル２Ｆ,,13,102,1030012,,,,,,,2025-03-17,1,,,,,モリオカエピック,0
2124,9010003046816,新規,0,2025-03-17,2025-03-17,ＪＡＬ’Ｓ合同会社,,合同会社,東京都,中央区,銀座１丁目１２－４Ｎ＆ＥＢＬＤ．７階,,13,102,1040061,,,,,,,2025-03-17,1,,,,,ジャルス,0
2127,9010005039768,新規,0,2025-03-17,2025-03-17,アークホールディングス一般社団法人,,その他の設立登記法人,東京都,千代田区,永田町２丁目１７番５号,,13,101,1000014,,,,,,,2025-03-17,1,,,,,アークホールディングス,0
2134,9010401188879,新規,0,2025-03-17,2025-03-17,株式会社ＺＵＮＡ,,株式会社,東京都,港区,六本木７丁目７－７Ｔｒｉ－ＳｅｖｅｎＲｏｐｐｏｎｇｉ８階,,13,103,1060032,,,,,,,2025-03-17,1,,,,,ズナ,0
2135,9010401188978,新規,0,2025-03-17,2025-03-17,株式会社シェリーライズ,,株式会社,東京都,港区,新橋４丁目１４番１号新橋ＡＵＮＢＬＤＧ４階,,13,103,1050004,,,,,,,2025-03-17,1,,,,,シェリーライズ,0
2137,9010403034635,新規,0,2025-03-17,2025-03-17,合同会社Ｚｅｎｃｒｕｉｔ,,合同会社,東京都,港区,北青山１丁目３番１号アールキューブ青山３階,,13,103,1070061,,,,,,,2025-03-17,1,,,,,ゼンクルート,0
2138,9010403034651,新規,0,2025-03-17,2025-03-17,合同会社Ｐａｕｌ　Ｊｏｎｅｓ,,合同会社,東京都,港区,虎ノ門１丁目１番１８号ヒューリック虎ノ門ビル９階Ｌ＆Ｐ司法書士法人内,,13,103,1050001,,,,,,,2025-03-17,1,,,,,ポールジョーンズ,0
2140,9010501053768,新規,0,2025-03-17,2025-03-17,星＿株式会社,00138373,株式会社,東京都,台東区,蔵前４丁目１６－６ストーク蔵前Ｍ＆Ｋ４階－４０１,,13,106,1110051,,,,,,,2025-03-17,1,,,,,セイハク,0
2150,9010901056998,新規,0,2025-03-17,2025-03-17,日本茉莉株式会社,,株式会社,東京都,世田谷区,世田谷１丁目４１番２号,,13,112,1540017,,,,,,,2025-03-17,1,,,,,ニホンモォーリィー,0
2156,9011001168387,新規,0,2025-03-17,2025-03-17,株式会社ハイブロウ,,株式会社,東京都,目黒区,中目黒１丁目１１番１１号成幸ビル３０２,,13,110,1530061,,,,,,,2025-03-17,1,,,,,ハイブロウ,0
2157,9011001168429,新規,0,2025-03-17,2025-03-17,Ｓｏｈｅｉ　Ｃａｐｉｔａｌ株式会社,,株式会社,東京都,渋谷区,道玄坂１丁目１０番８号渋谷道玄坂東急ビル２Ｆ－Ｃ,,13,113,1500043,,,,,,,2025-03-17,1,,,,,ソウヘイキャピタル,0
2164,9011501031838,新規,0,2025-03-17,2025-03-17,株式会社コアパートナー,,株式会社,東京都,荒川区,東日暮里５丁目５０－５アートホテル日暮里ラングウッド３Ｆ,,13,118,1160014,,,,,,,2025-03-17,1,,,,,コアパートナー,0
2168,9012305002125,新規,0,2025-03-17,2025-03-17,一般社団法人ＮＡＮＮＡＲＵ　ＵＮＩＴＥＤ,,その他の設立登記法人,東京都,町田市,南成瀬７丁目７－１町田市立南成瀬中学校内,,13,209,1940045,,,,,,,2025-03-17,1,,,,,ナンナルユナイテッド,0
2176,9012401042891,新規,0,2025-03-17,2025-03-17,株式会社尾崎実業,00138368,株式会社,東京都,多摩市,馬引沢１丁目３番地の３２,,13,224,2060023,,,,,,,2025-03-17,1,,,,,オザキジツギョウ,0
2178,9012801023830,新規,0,2025-03-17,2025-03-17,株式会社王漸,,株式会社,東京都,東大和市,中央２丁目８４５番地の１中央エステート２０５,,13,220,2070015,,,,,,,2025-03-17,1,,,,,オウゼン,0
2182,9013301053954,新規,0,2025-03-17,2025-03-17,株式会社ＣＣＡＲＯ・シーカーオー,,株式会社,東京都,豊島区,駒込１丁目４０番１１－６０２号,,13,116,1700003,,,,,,,2025-03-17,1,,,,,シーカーオーシーカーオー,0
2184,9020001161888,新規,0,2025-03-17,2025-03-17,渡辺商事株式会社,,株式会社,神奈川県,横浜市瀬谷区,宮沢４丁目２６番地２３,,14,114,2460038,,,,,,,2025-03-17,1,,,,,ワタナベショウジ,0
2186,9021001084583,新規,0,2025-03-17,2025-03-17,創業黒馬株式会社,,株式会社,神奈川県,藤沢市,鵠沼松が岡５丁目５番７号,,14,205,2510038,,,,,,,2025-03-17,1,,,,,ソウギョウクロウマ,0
2187,9021001084617,新規,0,2025-03-17,2025-03-17,Ｃ‐Ｆｏｒｃｅ株式会社,,株式会社,神奈川県,平塚市,紅谷町１４－２４松ビル３階,,14,203,2540043,,,,,,,2025-03-17,1,,,,,シーフォース,0
2188,9021001084724,新規,0,2025-03-17,2025-03-17,株式会社ＴＥＥ,,株式会社,神奈川県,厚木市,妻田西１丁目２番３号Ｋワンビル１０８,,14,212,2430815,,,,,,,2025-03-17,1,,,,,ティーイーツー,0
2189,9021001084740,新規,0,2025-03-17,2025-03-17,株式会社湘南ＫＩＳＳ警備,,株式会社,神奈川県,相模原市南区,相武台２丁目１５番８号ハイムＫ３－２０２号室,,14,153,2520324,,,,,,,2025-03-17,1,,,,,ショウナンキスケイビ,0
2196,9030001165384,新規,0,2025-03-17,2025-03-17,株式会社Ｓｙｓｔｅｍ‐８,,株式会社,埼玉県,所沢市,金山町１３番８号,,11,208,3591128,,,,,,,2025-03-17,1,,,,,システムエイト,0
2197,9030001165459,新規,0,2025-03-17,2025-03-17,株式会社明豊建装,,株式会社,埼玉県,川越市,東田町４番地３２６,,11,201,3501114,,,,,,,2025-03-17,1,,,,,ハルトケンソウ,0
2198,9030001165467,新規,0,2025-03-17,2025-03-17,優遊株式会社,,株式会社,埼玉県,川口市,西川口６丁目４番６号第二萩島ビル２１７,,11,203,3320021,,,,,,,2025-03-17,1,,,,,ユウユウ,0
2205,9030003026304,新規,0,2025-03-17,2025-03-17,アルカド・インベストメント合同会社,,合同会社,埼玉県,草加市,北谷２丁目３８番５号,,11,221,3400046,,,,,,,2025-03-17,1,,,,,アルカドインベストメント,0
2206,9030003026329,新規,0,2025-03-17,2025-03-17,合同会社たまごアセット,,合同会社,埼玉県,川口市,東領家２丁目２３番９号,,11,203,3320003,,,,,,,2025-03-17,1,,,,,タマゴアセット,0
2207,9030003026361,新規,0,2025-03-17,2025-03-17,肢衣彩合同会社,,合同会社,埼玉県,越谷市,大字下間久里５６２‐１４,,11,222,3430045,,,,,,,2025-03-17,1,,,,,シキサイ,0
2212,9040001137779,新規,0,2025-03-17,2025-03-17,株式会社東進ホールディングス,,株式会社,千葉県,我孫子市,湖北台１０丁目６番７号,,12,222,2701132,,,,,,,2025-03-17,1,,,,,トウシンホールディングス,0
2213,9040001137804,新規,0,2025-03-17,2025-03-17,アマテル・ロジ株式会社,,株式会社,千葉県,千葉市稲毛区,園生町３９３番地鈴木ビル２０１号室,,12,103,2630051,,,,,,,2025-03-17,1,,,,,アマテルロジ,0
2214,9040001137820,新規,0,2025-03-17,2025-03-17,ＴｏＢｅ　Ｊａｐａｎ　ＶＮ株式会社,,株式会社,千葉県,市川市,東菅野１丁目２９番１１号,,12,203,2720823,,,,,,,2025-03-17,1,,,,,トゥービージャパンベトナム,0
2215,9040001137829,新規,0,2025-03-17,2025-03-17,株式会社ＴＪ‐ＢＡＳＥ,,株式会社,千葉県,柏市,大島田４１４－１,,12,217,2770922,,,,,,,2025-03-17,1,,,,,ティージェーベース,0
2216,9040001137837,新規,0,2025-03-17,2025-03-17,株式会社アオホン,,株式会社,千葉県,白井市,根６８番地の１４,,12,232,2701431,,,,,,,2025-03-17,1,,,,,アオホン,0
2219,9040003027103,新規,0,2025-03-17,2025-03-17,合同会社篠太朗,,合同会社,千葉県,山武市,実門２４３番地,,12,237,2891221,,,,,,,2025-03-17,1,,,,,シノタロウ,0
2223,9050001056318,新規,0,2025-03-17,2025-03-17,株式会社とろりん茶房,,株式会社,茨城県,つくば市,上横場４２９番地４９,,08,220,3050854,,,,,,,2025-03-17,1,,,,,トロリンサボウ,0
2229,9070001042745,新規,0,2025-03-17,2025-03-17,群馬ＢＡＬＬＡＲＥ株式会社,,株式会社,群馬県,伊勢崎市,曲沢町１６３番地９ツインエイトビルディングＢ－１,,10,204,3792203,,,,,,,2025-03-17,1,,,,,グンマバラーレ,0
2230,9080103003272,新規,0,2025-03-17,2025-03-17,合同会社ＡｒｒｏｗｓＨｅａｒｔ,,合同会社,静岡県,沼津市,東熊堂４０６番地の２,,22,203,4100013,,,,,,,2025-03-17,1,,,,,,0
2236,9100003008039,新規,0,2025-03-17,2025-03-17,合同会社信州Ｌｉｆｅ,,合同会社,長野県,松本市,並柳２丁目１３番１３号,,20,202,3900825,,,,,,,2025-03-17,1,,,,,シンシュウライフ,0
2243,9120001273681,新規,0,2025-03-17,2025-03-17,Ｄｉａｍｏｎｄ　Ａｃｃｏｕｎｔｉｎｇ株式会社,,株式会社,大阪府,大阪市中央区,内本町２丁目４番１６号,,27,128,5400026,,,,,,,2025-03-17,1,,,,,ダイヤモンドアカウンティング,0
2244,9120001273723,新規,0,2025-03-17,2025-03-17,株式会社Ｃｅｎｔｒａｌ　Ｈｏｕｓｅ,,株式会社,大阪府,大阪市中央区,難波４丁目１－１５近鉄難波ビル１Ｆ,,27,128,5420076,,,,,,,2025-03-17,1,,,,,セントラルハウス,0
2245,9120001273797,新規,0,2025-03-17,2025-03-17,Ｎｕｒｓｉｎｇ　Ｉｎｎｏｖａｔｉｏｎ株式会社,,株式会社,大阪府,大阪市中央区,久太郎町４丁目１番３号大阪センタービルＢ１‐２２号室,,27,128,5410056,,,,,,,2025-03-17,1,,,,,ナーシングイノベーション,0
2247,9120003028836,新規,0,2025-03-17,2025-03-17,ＶＪ‐ＳＫＹ合同会社,,合同会社,大阪府,大阪市生野区,中川６丁目４－３ＮＦＣ生野ハイツ,,27,116,5440005,,,,,,,2025-03-17,1,,,,,ヴィジェイスカイ,0
2248,9120003028869,新規,0,2025-03-17,2025-03-17,合同会社ＩＴサイエンス,,合同会社,大阪府,大阪市北区,梅田１丁目２番２号大阪駅前第２ビル１２－１２,,27,127,5300001,,,,,,,2025-03-17,1,,,,,アイティサイエンス,0
2249,9120003028877,新規,0,2025-03-17,2025-03-17,合同会社ＲｅＬｉｆｅ,,合同会社,大阪府,大阪市西成区,天下茶屋２丁目２４－７,,27,122,5570014,,,,,,,2025-03-17,1,,,,,リライフ,0
2250,9120101071242,新規,0,2025-03-17,2025-03-17,株式会社ＫＥＩＺＯ　ＩＮＴＥＲＮＡＴＩＯＮＡＬ　ＧＬＯＢＡＬ,,株式会社,大阪府,堺市中区,深井水池町３２５６番地１,,27,142,5998237,,,,,,,2025-03-17,1,,,,,ケイゾーインターナショナルグローバル,0
2251,9120101071250,新規,0,2025-03-17,2025-03-17,株式会社トレント,,株式会社,大阪府,富田林市,旭ケ丘町４番１７号,,27,214,5840006,,,,,,,2025-03-17,1,,,,,トレント,0
2252,9120101071267,新規,0,2025-03-17,2025-03-17,株式会社社会福祉ケアセンター,,株式会社,大阪府,和泉市,王子町２丁目１３番８号,,27,219,5940004,,,,,,,2025-03-17,1,,,,,シャカイフクシケアセンター,0
2255,9120901050585,新規,0,2025-03-17,2025-03-17,株式会社ＵＧ不動産,,株式会社,大阪府,豊中市,庄内幸町３丁目２８番１７号,,27,203,5610833,,,,,,,2025-03-17,1,,,,,ユージーフドウサン,0
2260,9130001079211,新規,0,2025-03-17,2025-03-17,ＰｒｏｔｏｄｕｃｔＡＩ株式会社,,株式会社,京都府,京都市東山区,祇園町南側５８２,,26,105,6050074,,,,,,,2025-03-17,1,,,,,プロトダクトエーアイ,0
2261,9130001079228,新規,0,2025-03-17,2025-03-17,株式会社桃花源,,株式会社,京都府,京都市右京区,嵯峨鳥居本化野町１２番地１８,,26,108,6168436,,,,,,,2025-03-17,1,,,,,トウカゲン,0
2264,9140001137744,新規,0,2025-03-17,2025-03-17,株式会社ＰＯＬＩＳＨ　ＨＥＡＲＴ,,株式会社,兵庫県,神戸市中央区,栄町通６丁目１番１７号栄町通佐田野ビル１Ｆ,,28,110,6500023,,,,,,,2025-03-17,1,,,,,ポリッシュハート,0
2265,9140001137785,新規,0,2025-03-17,2025-03-17,株式会社ＹＳＨ総合研究所,,株式会社,兵庫県,姫路市,御立東３丁目９番１８号,,28,201,6700072,,,,,,,2025-03-17,1,,,,,ワイエスエイチソウゴウケンキュウショ,0
2266,9140001137793,新規,0,2025-03-17,2025-03-17,株式会社ＫＡＴＡ‐ＣＬＩ,,株式会社,兵庫県,西宮市,剣谷町１１番２５号,,28,204,6620099,,,,,,,2025-03-17,1,,,,,カタークリ,0
2267,9140001137835,新規,0,2025-03-17,2025-03-17,株式会社Ａｕｒｅｎ,,株式会社,兵庫県,神戸市中央区,北長狭通６丁目２番１５号,,28,110,6500012,,,,,,,2025-03-17,1,,,,,オーレン,0
2269,9140003021789,新規,0,2025-03-17,2025-03-17,合同会社ｔｓｕｍｕｇｉｔｅ,,合同会社,兵庫県,三田市,すずかけ台３丁目５番地１、５棟４０２号,,28,219,6691322,,,,,,,2025-03-17,1,,,,,ツムギテ,0
2270,9140003021806,新規,0,2025-03-17,2025-03-17,ＭＡＳＵｐｌａｎｎｉｎｇ合同会社,,合同会社,兵庫県,神戸市須磨区,戎町３丁目１番８号,,28,107,6540023,,,,,,,2025-03-17,1,,,,,マスプランニング,0
2271,9140005027405,新規,0,2025-03-17,2025-03-17,一般社団法人ライフスタイル医学コーチング協会,,その他の設立登記法人,兵庫県,伊丹市,鴻池６丁目７番１７号,,28,207,6640006,,,,,,,2025-03-17,1,,,,,ライフスタイルイガクコーチングキョウカイ,0
2275,9160005011381,新規,0,2025-03-17,2025-03-17,医療法人なかの歯科,,その他の設立登記法人,滋賀県,高島市,安曇川町末広４丁目４０番地１,,25,212,5201214,,,,,,,2025-03-17,1,,,,,ナカノシカ,0
2280,9180001165898,新規,0,2025-03-17,2025-03-17,株式会社Ｍｉｄａｓ,,株式会社,愛知県,名古屋市中村区,香取町１丁目４０番地の１,,23,105,4530055,,,,,,,2025-03-17,1,,,,,マイダス,0
2284,9180005020991,新規,0,2025-03-17,2025-03-17,医療法人惠昭会,,その他の設立登記法人,愛知県,稲沢市,稲島東６丁目３１番地,,23,220,4928230,,,,,,,2025-03-17,1,,,,,ケイショウカイ,0
2302,9250001021045,新規,0,2025-03-17,2025-03-17,株式会社ｐｅｔｉｔｅ　ｐａｕｓｅ,,株式会社,山口県,周南市,松保町８－２２,,35,215,7450847,,,,,,,2025-03-17,1,,,,,プティットポーズ,0
2303,9250003003669,新規,0,2025-03-17,2025-03-17,新南陽埠頭運営合同会社,,合同会社,山口県,周南市,野村１丁目２３番１５号,,35,215,7460022,,,,,,,2025-03-17,1,,,,,シンナンヨウフトウウンエイ,0
2306,9280005007649,新規,0,2025-03-17,2025-03-17,弥栄町複業協同組合,,その他の設立登記法人,島根県,浜田市,弥栄町長安本郷３９９番地１,,32,202,6971211,,,,,,,2025-03-17,1,,,,,ヤサカチョウフクギョウ,0
2310,9290001109274,新規,0,2025-03-17,2025-03-17,株式会社ＨＫＴ,,株式会社,福岡県,福岡市博多区,板付３丁目８番１３－１０６号,,40,132,8120888,,,,,,,2025-03-17,1,,,,,エイチケーティー,0
2311,9290001109282,新規,0,2025-03-17,2025-03-17,株式会社ＭＩＲＩ　ＣＲＡＦＴ,,株式会社,福岡県,福岡市中央区,小笹３丁目１５番４５号,,40,133,8100033,,,,,,,2025-03-17,1,,,,,ミリクラフト,0
2312,9290001109290,新規,0,2025-03-17,2025-03-17,ＡＫＭ株式会社,,株式会社,福岡県,福岡市博多区,吉塚４丁目１番３号,,40,132,8120041,,,,,,,2025-03-17,1,,,,,エーケーエム,0
2313,9290001109316,新規,0,2025-03-17,2025-03-17,株式会社Ｐｏｌｉｔｅ　Ｊｏｂ,,株式会社,福岡県,大野城市,大池１丁目８番１号,,40,219,8160904,,,,,,,2025-03-17,1,,,,,ポライトジョブ,0
2314,9290001109324,新規,0,2025-03-17,2025-03-17,株式会社藤木不動産,,株式会社,福岡県,福岡市城南区,別府６丁目１４－２０－３０４,,40,136,8140104,,,,,,,2025-03-17,1,,,,,フジキフドウサン,0
2315,9290001109332,新規,0,2025-03-17,2025-03-17,株式会社実來,,株式会社,福岡県,糟屋郡志免町,志免中央４丁目１５番３５－１０６号,,40,343,8112244,,,,,,,2025-03-17,1,,,,,ミライ,0
2316,9290001109340,新規,0,2025-03-17,2025-03-17,株式会社プラスワンｅｍａ,,株式会社,福岡県,糟屋郡粕屋町,酒殿４丁目７－２０－１階,,40,349,8112303,,,,,,,2025-03-17,1,,,,,プラスワンエマ,0
2317,9290001109365,新規,0,2025-03-17,2025-03-17,Ｍ．Ｍ株式会社,,株式会社,福岡県,福岡市東区,千早２丁目２８番３４－７０１号,,40,131,8130044,,,,,,,2025-03-17,1,,,,,エムドットエム,0
2320,9290003016535,新規,0,2025-03-17,2025-03-17,合同会社ＢｏＳＨ,,合同会社,福岡県,筑紫野市,紫１丁目９番１０－４０２号,,40,217,8180061,,,,,,,2025-03-17,1,,,,,ボッシュ,0
2322,9290005019676,新規,0,2025-03-17,2025-03-17,一般社団法人インサリス,,その他の設立登記法人,福岡県,大野城市,若草２丁目１５番１９号,,40,219,8160981,,,,,,,2025-03-17,1,,,,,インサリス,0
2324,9310001019504,新規,0,2025-03-17,2025-03-17,ＦＪテック株式会社,,株式会社,長崎県,佐世保市,白岳町５０番地４号（有）山徳鉄工所内２階,,42,202,8571164,,,,,,,2025-03-17,1,,,,,エフジェイテック,0
2325,9310003004966,新規,0,2025-03-17,2025-03-17,ＩＴＯ　Ｋｒａｆｔ合同会社,,合同会社,長崎県,東彼杵郡東彼杵町,里郷２３９１番地,,42,321,8593929,,,,,,,2025-03-17,1,,,,,イトウクラフト,0
2334,9330003010888,新規,0,2025-03-17,2025-03-17,合同会社ＢＯＮＡＭＩ,,合同会社,熊本県,熊本市東区,尾ノ上２丁目２９番１１号,,43,102,8620913,,,,,,,2025-03-17,1,,,,,ボナミ,0
2336,9360001034928,新規,0,2025-03-17,2025-03-17,セントマーガレット株式会社,,株式会社,沖縄県,那覇市,松島１丁目３番１３号アビタシオン松島５０１,,47,201,9020069,,,,,,,2025-03-17,1,,,,,セントマーガレット,0
2338,9370001052367,新規,0,2025-03-17,2025-03-17,株式会社ｇｒａｃｅ,,株式会社,宮城県,仙台市青葉区,愛子東５丁目８番１２号,,04,101,9893127,,,,,,,2025-03-17,1,,,,,グレイス,0
2360,9430001093925,新規,0,2025-03-17,2025-03-17,株式会社ワンホース,,株式会社,北海道,小樽市,堺町４番９号,,01,203,0470027,,,,,,,2025-03-17,1,,,,,ワンホース,0
2361,9430001093933,新規,0,2025-03-17,2025-03-17,株式会社ＳＴＡＹ　ＣＬＯＳＥ,,株式会社,北海道,札幌市中央区,南三条西１丁目３番地ＵＵＲコート札幌南３条プレミアムタワー７０４号,,01,101,0600063,,,,,,,2025-03-17,1,,,,,ステイクローズ,0
2364,9430003017403,新規,0,2025-03-17,2025-03-17,合同会社おこめ,,合同会社,北海道,小樽市,赤岩１丁目１－４,,01,203,0470046,,,,,,,2025-03-17,1,,,,,オコメ,0
2365,9460003001040,新規,0,2025-03-17,2025-03-17,合同会社今野興業,,合同会社,北海道,釧路市,鳥取北５丁目１９番１８号,,01,206,0840907,,,,,,,2025-03-17,1,,,,,コンノコウギョウ,0
