sequenceNumber,corporateNumber,process,correct,updateDate,changeDate,name,nameImageId,kind,prefectureName,cityName,streetNumber,addressImageId,prefectureCode,cityCode,postCode,addressOutside,addressOutsideImageId,closeDate,closeCause,successorCorporateNumber,changeCause,assignmentDate,latest,enName,enPrefectureName,enCityName,enAddressOutside,furigana,hihyoji
9,1010401184357,新規,0,2024-08-13,2024-08-13,株式会社Ｗｉｔｈコンサルティング,,株式会社,東京都,港区,芝４丁目７番６号芝ビルディング７０４,,13,103,1080014,,,,,,,2024-08-13,1,,,,,ウィズコンサルティング,0
10,1010401184381,新規,0,2024-08-13,2024-08-13,ＪＳ延辺計画株式会社,,株式会社,東京都,港区,三田２丁目１１番１パークスクエア三田３階,,13,103,1080073,,,,,,,2024-08-13,1,,,,,ジェイエスエンペンケイカク,0
11,1010401184480,新規,0,2024-08-13,2024-08-13,Ａｐｈｅｌｉｏｎ株式会社,,株式会社,東京都,港区,北青山１丁目３番１号アールキューブ青山３階,,13,103,1070061,,,,,,,2024-08-13,1,,,,,アフェリオン,0
20,1010501052736,新規,0,2024-08-13,2024-08-13,冠熹株式会社,,株式会社,東京都,台東区,小島２丁目１４番６号２０１号室,,13,106,1110056,,,,,,,2024-08-13,1,,,,,カンキ,0
22,1010601065720,新規,0,2024-08-13,2024-08-13,株式会社ｂｌｏｏｍ,,株式会社,東京都,江東区,亀戸９丁目２３番１２号,,13,108,1360071,,,,,,,2024-08-13,1,,,,,ブルーム,0
23,1010601065737,新規,0,2024-08-13,2024-08-13,サクラテックエナジー株式会社,,株式会社,東京都,墨田区,両国３丁目３番８号５０４室,,13,107,1300026,,,,,,,2024-08-13,1,,,,,,0
25,1010701046406,新規,0,2024-08-13,2024-08-13,株式会社ＢｌｉｓＳｐｈｅｒｅ,,株式会社,東京都,品川区,西五反田８丁目９－５ＦＯＲＥＣＡＳＴ五反田ＷＥＳＴ４Ｆ,,13,109,1410031,,,,,,,2024-08-13,1,,,,,ブリスフィア,0
29,1010901055784,新規,0,2024-08-13,2024-08-13,株式会社ａｌｐｈａ,,株式会社,東京都,世田谷区,中町５丁目２４番２５号,,13,112,1580091,,,,,,,2024-08-13,1,,,,,アルファ,0
38,1011001163635,新規,0,2024-08-13,2024-08-13,株式会社ｍｉｌｌｉｏｎａｉｒｅ,,株式会社,東京都,渋谷区,代々木４丁目５４－１１ドゥーエ参宮橋３０４,,13,113,1510053,,,,,,,2024-08-13,1,,,,,ミリオネア,0
39,1011001163791,新規,0,2024-08-13,2024-08-13,ミストラルテック株式会社,,株式会社,東京都,渋谷区,渋谷２丁目１９－１５宮益坂ビルディング６０９,,13,113,1500002,,,,,,,2024-08-13,1,,,,,,0
40,1011001163916,新規,0,2024-08-13,2024-08-13,グラインドコンサルティング株式会社,,株式会社,東京都,渋谷区,桜丘町２６番１号セルリアンタワー１５階,,13,113,1500031,,,,,,,2024-08-13,1,,,,,グラインドコンサルティング,0
41,1011001163949,新規,0,2024-08-13,2024-08-13,株式会社ＳＴＯＮＥ　ＢＯＯＫ,,株式会社,東京都,渋谷区,神泉町８番１２号２Ｆ,,13,113,1500045,,,,,,,2024-08-13,1,,,,,ストーンブック,0
42,1011001163998,新規,0,2024-08-13,2024-08-13,株式会社ナンバーワン,,株式会社,東京都,渋谷区,恵比寿１丁目７番４号ハイライフ恵比寿３０１,,13,113,1500013,,,,,,,2024-08-13,1,,,,,ナンバーワン,0
43,1011003019760,新規,0,2024-08-13,2024-08-13,３Ｓ合同会社,,合同会社,東京都,目黒区,大橋１丁目５番１号,,13,110,1530044,,,,,,,2024-08-13,1,,,,,スリーエス,0
44,1011003019777,新規,0,2024-08-13,2024-08-13,合同会社バーディコーポレーション,,合同会社,東京都,渋谷区,代々木５丁目２番１３－１０３号,,13,113,1510053,,,,,,,2024-08-13,1,,,,,バーディコーポレーション,0
45,1011003019810,新規,0,2024-08-13,2024-08-13,Ｏｆｆｉｃｅ　ＴＯＭＯＴＳＵＫＡ合同会社,,合同会社,東京都,渋谷区,本町３丁目２－１０ＣＯＮＳＯＬＡＲＥ１０２,,13,113,1510071,,,,,,,2024-08-13,1,,,,,オフィストモツカ,0
54,1011401026350,新規,0,2024-08-13,2024-08-13,株式会社ｙｕｋｉｂｏ,,株式会社,東京都,板橋区,相生町１５－５アトラス志村三丁目９０８,,13,119,1740044,,,,,,,2024-08-13,1,,,,,ユキボー,0
65,1013101009486,新規,0,2024-08-13,2024-08-13,株式会社ワイホープ,,株式会社,東京都,あきる野市,野辺８７８番地１６,,13,228,1970823,,,,,,,2024-08-13,1,,,,,ワイホープ,0
69,1013301052971,新規,0,2024-08-13,2024-08-13,虹勢株式会社,,株式会社,東京都,豊島区,池袋２丁目６６－３同源ビル５Ｆ,,13,116,1710014,,,,,,,2024-08-13,1,,,,,ニジセイ,0
70,1013303007255,新規,0,2024-08-13,2024-08-13,アシストワークス合同会社,,合同会社,東京都,豊島区,東池袋１丁目３４番５号いちご東池袋ビル６階,,13,116,1700013,,,,,,,2024-08-13,1,,,,,アシストワークス,0
80,1020001158421,新規,0,2024-08-13,2024-08-13,株式会社クレセント,,株式会社,神奈川県,横浜市旭区,上川井町１７０番地,,14,112,2410802,,,,,,,2024-08-13,1,,,,,クレセント,0
81,1020001158438,新規,0,2024-08-13,2024-08-13,株式会社ＡＲ,,株式会社,神奈川県,横浜市中区,仲尾台７１番地２,,14,104,2310839,,,,,,,2024-08-13,1,,,,,エーアール,0
82,1020001158504,新規,0,2024-08-13,2024-08-13,株式会社アサヒホーム,,株式会社,神奈川県,横浜市港南区,東永谷１丁目１番３号,,14,111,2330011,,,,,,,2024-08-13,1,,,,,アサヒホーム,0
85,1020003026642,新規,0,2024-08-13,2024-08-13,Ｍａｒｙ　Ｌｏｖｅｌｙ合同会社,,合同会社,神奈川県,横浜市鶴見区,馬場４丁目６番２号,,14,101,2300076,,,,,,,2024-08-13,1,,,,,メリーラヴリィ,0
88,1021001082933,新規,0,2024-08-13,2024-08-13,株式会社弓,,株式会社,神奈川県,高座郡寒川町,一之宮１丁目５番１１号,,14,321,2530111,,,,,,,2024-08-13,1,,,,,ユミ,0
100,1030001161969,新規,0,2024-08-13,2024-08-13,株式会社グラッサ,,株式会社,埼玉県,富士見市,鶴馬１丁目１０番２５号,,11,235,3540021,,,,,,,2024-08-13,1,,,,,グラッサ,0
106,1030003024835,新規,0,2024-08-13,2024-08-13,合同会社ＩＮＡＥ,,合同会社,埼玉県,川口市,並木４丁目６番１８号,,11,203,3320034,,,,,,,2024-08-13,1,,,,,イネ,0
107,1030005021806,新規,0,2024-08-13,2024-08-13,特定非営利活動法人見沼こども・まちネットワーク,,その他の設立登記法人,埼玉県,さいたま市見沼区,春岡２丁目２７番地１２,,11,104,3370008,,,,,,,2024-08-13,1,,,,,ミヌマコドモマチネットワーク,0
111,1060001037398,新規,0,2024-08-13,2024-08-13,株式会社農園ステイ那須,,株式会社,栃木県,那須郡那須町,大字高久甲５０５０番地１３,,09,407,3250001,,,,,,,2024-08-13,1,,,,,ノウエンステイナス,0
112,1060001037407,新規,0,2024-08-13,2024-08-13,株式会社ダブルスタッフ,,株式会社,栃木県,足利市,五十部町１００９番地４,,09,202,3260843,,,,,,,2024-08-13,1,,,,,ダブルスタッフ,0
114,1060003005188,新規,0,2024-08-13,2024-08-13,Ｓａｋｕｒａ　Ｅｎｔｅｒｐｒｉｓｅｓ合同会社,,合同会社,栃木県,小山市,大字大行寺１１４８番地１８アンビション白鴎大前２号館２階２０１号室,,09,208,3230041,,,,,,,2024-08-13,1,,,,,サクラエンタープライズ,0
115,1060003005196,新規,0,2024-08-13,2024-08-13,吉日荘合同会社,,合同会社,栃木県,芳賀郡益子町,大字塙２２３５,,09,342,3214216,,,,,,,2024-08-13,1,,,,,キチジツソウ,0
119,1070003005542,新規,0,2024-08-13,2024-08-13,合同会社ＤｒｏｎｅＦｅａｔｈｅｒｓ,,合同会社,群馬県,高崎市,中里見町３６７番地６,,10,202,3703344,,,,,,,2024-08-13,1,,,,,ドローンフェザーズ,0
125,1080001026440,新規,0,2024-08-13,2024-08-13,株式会社ＴＫＨＤ,,株式会社,静岡県,静岡市葵区,紺屋町１２番地の５,,22,101,4200852,,,,,,,2024-08-13,1,,,,,ティーケーエイチディー,0
131,1080401027377,新規,0,2024-08-13,2024-08-13,株式会社ＴＢＰ,,株式会社,静岡県,浜松市中央区,龍禅寺町３７７番地の１英和マンション竜禅寺,,22,138,4300924,,,,,,,2024-08-13,1,,,,,ティビーピー,0
138,1100003007700,新規,0,2024-08-13,2024-08-13,合同会社ラディアント,,合同会社,長野県,塩尻市,大字大門１４７７番地,,20,215,3990744,,,,,,,2024-08-13,1,,,,,ラディアント,0
147,1120001267633,新規,0,2024-08-13,2024-08-13,株式会社Ｎａｓｏｒａ,,株式会社,大阪府,大阪市中央区,久太郎町３丁目５番１７号リバティ御堂筋本町６１１号室,,27,128,5410056,,,,,,,2024-08-13,1,,,,,ナソラ,0
148,1120001267674,新規,0,2024-08-13,2024-08-13,株式会社ＴＥＭＳ,,株式会社,大阪府,枚方市,岡山手町２番９号,,27,210,5730034,,,,,,,2024-08-13,1,,,,,テムス,0
149,1120001267682,新規,0,2024-08-13,2024-08-13,株式会社日進電設工業,,株式会社,大阪府,大阪市住之江区,東加賀屋３丁目６番６号,,27,125,5590012,,,,,,,2024-08-13,1,,,,,ニッシンデンセツコウギョウ,0
150,1120003027242,新規,0,2024-08-13,2024-08-13,Ｉ．ＮＯ合同会社,,合同会社,大阪府,大阪市中央区,東心斎橋１丁目９‐１９‐３０７,,27,128,5420083,,,,,,,2024-08-13,1,,,,,アイノー,0
155,1120101070152,新規,0,2024-08-13,2024-08-13,凱利株式会社,,株式会社,大阪府,堺市堺区,甲斐町西３丁２―３４牧野ビル１０７号,,27,141,5900950,,,,,,,2024-08-13,1,,,,,ガイリ,0
158,1120901049585,新規,0,2024-08-13,2024-08-13,株式会社Ｇｒｏｗｔｈ　ｃｏｎｎｅｃｔ,,株式会社,大阪府,茨木市,上野町２６番６号の１１,,27,211,5670064,,,,,,,2024-08-13,1,,,,,グロースコネクト,0
164,1140001135499,新規,0,2024-08-13,2024-08-13,株式会社つながり,,株式会社,兵庫県,神戸市中央区,磯上通８丁目１番２９号カサベラビルＣ＆Ｍ４０３号室,,28,110,6510086,,,,,,,2024-08-13,1,,,,,ツナガリ,0
165,1140001135524,新規,0,2024-08-13,2024-08-13,コロレル株式会社,,株式会社,兵庫県,神戸市東灘区,甲南町３丁目７番２３号１０１号室,,28,101,6580084,,,,,,,2024-08-13,1,,,,,コロレル,0
166,1140003020963,新規,0,2024-08-13,2024-08-13,クレインエンジニアリング合同会社,,合同会社,兵庫県,宝塚市,野上１丁目５番１０号ラ・ロッカ１０２,,28,214,6650022,,,,,,,2024-08-13,1,,,,,クレインエンジニアリング,0
167,1150001027497,新規,0,2024-08-13,2024-08-13,アルファサービス株式会社,,株式会社,奈良県,北葛城郡王寺町,太子１丁目１０番７号,,29,425,6360023,,,,,,,2024-08-13,1,,,,,アルファサービス,0
170,1160001026151,新規,0,2024-08-13,2024-08-13,株式会社ＲＥ　ｎｏｖｅｌ,,株式会社,滋賀県,高島市,新旭町深溝９７８番地,,25,212,5201503,,,,,,,2024-08-13,1,,,,,リノベル,0
173,1170001018263,新規,0,2024-08-13,2024-08-13,株式会社マルニシ,,株式会社,和歌山県,和歌山市,湊３００１番地,,30,201,6408404,,,,,,,2024-08-13,1,,,,,マルニシ,0
180,1180001162829,新規,0,2024-08-13,2024-08-13,株式会社ＥＴＦ,,株式会社,愛知県,長久手市,岩作下島８７番地２,,23,238,4801103,,,,,,,2024-08-13,1,,,,,イーティーエフ,0
181,1180001162837,新規,0,2024-08-13,2024-08-13,株式会社ＡＣＧ,,株式会社,愛知県,名古屋市港区,小賀須３丁目１６２６番地,,23,111,4550882,,,,,,,2024-08-13,1,,,,,エーシージ,0
182,1180001162878,新規,0,2024-08-13,2024-08-13,株式会社ドルフィニウム,,株式会社,愛知県,半田市,有楽町８丁目３６番地の１,,23,205,4750837,,,,,,,2024-08-13,1,,,,,ドルフィニウム,0
183,1180001162886,新規,0,2024-08-13,2024-08-13,株式会社ケイズペイント,,株式会社,愛知県,瀬戸市,品野町１丁目１２７番地,,23,204,4801207,,,,,,,2024-08-13,1,,,,,ケイズペイント,0
188,1180301038968,新規,0,2024-08-13,2024-08-13,株式会社輪音の調,,株式会社,愛知県,豊田市,青木町１丁目４７番地３,,23,211,4700335,,,,,,,2024-08-13,1,,,,,ワオンノシラベ,0
205,1240001063698,新規,0,2024-08-13,2024-08-13,株式会社エース広島,,株式会社,広島県,広島市安佐南区,中筋３丁目２１番２－２号,,34,105,7310122,,,,,,,2024-08-13,1,,,,,エースヒロシマ,0
206,1240001063715,新規,0,2024-08-13,2024-08-13,ロビンズジャーニー株式会社,,株式会社,広島県,広島市中区,大手町１丁目１－２０相生橋ビル７階Ａ号室,,34,101,7300051,,,,,,,2024-08-13,1,,,,,ロビンズジャーニー,0
207,1240003006804,新規,0,2024-08-13,2024-08-13,合同会社フルタニ,,合同会社,広島県,広島市中区,流川町５－７,,34,101,7300028,,,,,,,2024-08-13,1,,,,,フルタニ,0
213,1260001039366,新規,0,2024-08-13,2024-08-13,株式会社丸の内画廊,,株式会社,岡山県,岡山市北区,丸の内１丁目１番７号,,33,101,7000823,,,,,,,2024-08-13,1,,,,,マルノウチガロウ,0
214,1260001039374,新規,0,2024-08-13,2024-08-13,株式会社Ｇｒｏｗｉｎ,,株式会社,岡山県,岡山市北区,田中１５５番地１０２シャンポールながせＤ棟１０１,,33,101,7000951,,,,,,,2024-08-13,1,,,,,グローウィン,0
216,1260003004855,新規,0,2024-08-13,2024-08-13,Ｓｔｅａｍ倉敷合同会社,,合同会社,岡山県,倉敷市,北畝５丁目１７－５０,,33,202,7128032,,,,,,,2024-08-13,1,,,,,スチームクラシキ,0
219,1290001106592,新規,0,2024-08-13,2024-08-13,株式会社Ａｍｉｌｉｅｎ,,株式会社,福岡県,福岡市博多区,中洲３丁目１番２号,,40,132,8100801,,,,,,,2024-08-13,1,,,,,アミリアン,0
220,1290001106675,新規,0,2024-08-13,2024-08-13,株式会社たべポチ,,株式会社,福岡県,福岡市中央区,春吉３丁目２１番１８号Ｇｅｓｔ２５ビル５０４号,,40,133,8100003,,,,,,,2024-08-13,1,,,,,タベポチ,0
221,1290003015610,新規,0,2024-08-13,2024-08-13,ＳＩＭＰＬＹＰＯＬＹ商事合同会社,,合同会社,福岡県,福岡市中央区,警固１丁目４番１１－７０１号,,40,133,8100023,,,,,,,2024-08-13,1,,,,,シンプリポリショウジ,0
222,1290801030777,新規,0,2024-08-13,2024-08-13,株式会社オリジン,,株式会社,福岡県,北九州市小倉北区,大門１丁目２番１４号,,40,106,8030811,,,,,,,2024-08-13,1,,,,,オリジン,0
223,1290801030793,新規,0,2024-08-13,2024-08-13,和光マネジメント株式会社,,株式会社,福岡県,田川市,大字伊加利１４１５番地,,40,206,8250001,,,,,,,2024-08-13,1,,,,,ワコウマネジメント,0
224,1300005007208,新規,0,2024-08-13,2024-08-13,ＮＰＯ法人サニースマイル,,その他の設立登記法人,佐賀県,佐賀市,久保泉町大字川久保３０３９番地１,,41,201,8490901,,,,,,,2024-08-13,1,,,,,サニースマイル,0
225,1310001019164,新規,0,2024-08-13,2024-08-13,株式会社ＢＩＳＭ,,株式会社,長崎県,大村市,諏訪２丁目５２１番地１ショウビル２０３,,42,205,8560024,,,,,,,2024-08-13,1,,,,,ビズム,0
227,1320001020658,新規,0,2024-08-13,2024-08-13,株式会社Ｒｅｖｉｖｅ,,株式会社,大分県,大分市,萌葱台２丁目８番７号,,44,201,8701174,,,,,,,2024-08-13,1,,,,,リバイブ,0
228,1320001020666,新規,0,2024-08-13,2024-08-13,株式会社ゼクス,,株式会社,大分県,大分市,敷戸南町１１番４号,,44,201,8701105,,,,,,,2024-08-13,1,,,,,ゼクス,0
235,1350003004722,新規,0,2024-08-13,2024-08-13,ＡＬＥＱＰＬＵＳ合同会社,,合同会社,宮崎県,都城市,高木町４３７４－８,,45,202,8850003,,,,,,,2024-08-13,1,,,,,アレクプラス,0
236,1360001034076,新規,0,2024-08-13,2024-08-13,株式会社ＳＳ‐Ｍａｒｉｎｅ,,株式会社,沖縄県,宮古島市,平良字下里１０９２番地１１－Ｃ棟,,47,214,9060013,,,,,,,2024-08-13,1,,,,,エスエスマリン,0
239,1360003014217,新規,0,2024-08-13,2024-08-13,合同会社Ｆｅｅｌ　Ｏｋｉｎａｗａ,,合同会社,沖縄県,那覇市,三原３丁目２番１号,,47,201,9020063,,,,,,,2024-08-13,1,,,,,フィールオキナワ,0
252,1430001092463,新規,0,2024-08-13,2024-08-13,エスコンケイズ株式会社,,株式会社,北海道,札幌市手稲区,西宮の沢二条４丁目１３番２４号,,01,109,0060002,,,,,,,2024-08-13,1,,,,,エスコンケイズ,0
253,1430001092471,新規,0,2024-08-13,2024-08-13,株式会社松幸,,株式会社,北海道,札幌市北区,屯田六条５丁目１番２１号,,01,102,0020856,,,,,,,2024-08-13,1,,,,,マツコウ,0
256,1450001014382,新規,0,2024-08-13,2024-08-13,株式会社エコキャスティング,,株式会社,北海道,旭川市,末広三条１１丁目１番１７号,,01,204,0718133,,,,,,,2024-08-13,1,,,,,エコキャスティング,0
260,1500001025812,新規,0,2024-08-13,2024-08-13,株式会社７８６自動車,,株式会社,愛媛県,松山市,石手１丁目１番３８号,,38,201,7900852,,,,,,,2024-08-13,1,,,,,ナナハチロクジドウシャ,0
277,2010103002403,新規,0,2024-08-13,2024-08-13,合同会社いい日旅立ち,,合同会社,東京都,八王子市,下柚木４２５番地,,13,201,1920372,,,,,,,2024-08-13,1,,,,,イイヒタビダチ,0
280,2010401184315,新規,0,2024-08-13,2024-08-13,株式会社ＲＡＭ,,株式会社,東京都,港区,赤坂２丁目１０番７－７０５号,,13,103,1070052,,,,,,,2024-08-13,1,,,,,アールエーエム,0
281,2010401184471,新規,0,2024-08-13,2024-08-13,ケーエムビジネスソリューションズ株式会社,,株式会社,東京都,港区,新橋２丁目１６番１－８０２Ｇ号,,13,103,1050004,,,,,,,2024-08-13,1,,,,,ケーエムビジネスソリューションズ,0
285,2010405023428,新規,0,2024-08-13,2024-08-13,税理士法人ａｔＭ＆Ｓ東京本社,,その他の設立登記法人,東京都,港区,白金台５丁目１５番５号トゥワインデール２階,,13,103,1080071,,,,,,,2024-08-13,1,,,,,アットエムアンドエストウキョウホンシャ,0
294,2010901055775,新規,0,2024-08-13,2024-08-13,株式会社ジェントルスポーツ,,株式会社,東京都,世田谷区,鎌田３丁目１７－４豊伸ビル地下１階,,13,112,1570077,,,,,,,2024-08-13,1,,,,,ジェントルスポーツ,0
295,2010901055791,新規,0,2024-08-13,2024-08-13,Ｗｈａｔｅｖｅｒ株式会社,,株式会社,東京都,世田谷区,北烏山９丁目２１番１０－１１６号,,13,112,1570061,,,,,,,2024-08-13,1,,,,,ファットエバー,0
296,2010903009291,新規,0,2024-08-13,2024-08-13,合同会社一念,,合同会社,東京都,世田谷区,深沢１丁目４１－１２光ハイツ３０１号,,13,112,1580081,,,,,,,2024-08-13,1,,,,,イチネン,0
303,2011001163972,新規,0,2024-08-13,2024-08-13,Ｍｉｅｌ　Ｂｌａｎｃ株式会社,,株式会社,東京都,渋谷区,恵比寿西２丁目４番８号ウィンド恵比寿ビル８Ｆ,,13,113,1500021,,,,,,,2024-08-13,1,,,,,ミエルブラン,0
304,2011001164013,新規,0,2024-08-13,2024-08-13,株式会社新庄,,株式会社,東京都,目黒区,目黒２丁目８番７号鈴木ビルＢ１,,13,110,1530063,,,,,,,2024-08-13,1,,,,,,0
307,2011003019768,新規,0,2024-08-13,2024-08-13,合同会社ＥＳＲ４,,合同会社,東京都,目黒区,上目黒１丁目２３番１号中目黒アリーナ４０５号室,,13,110,1530051,,,,,,,2024-08-13,1,,,,,イーエスアールフォー,0
317,2011501031035,新規,0,2024-08-13,2024-08-13,株式会社典,,株式会社,東京都,北区,豊島３丁目２６番２１号,,13,117,1140003,,,,,,,2024-08-13,1,,,,,フミ,0
325,2013101009485,新規,0,2024-08-13,2024-08-13,ワンエフプラス株式会社,,株式会社,東京都,羽村市,神明台３丁目２９番地１ライオンズガーデン羽村２１８,,13,227,2050023,,,,,,,2024-08-13,1,,,,,ワンエフプラス,0
327,2013301052970,新規,0,2024-08-13,2024-08-13,ナサフ・トレードウェイ株式会社,,株式会社,東京都,豊島区,南大塚３丁目２９番５号光生ビル６階,,13,116,1700005,,,,,,,2024-08-13,1,,,,,ナサフトレードウェイ,0
331,2020001158453,新規,0,2024-08-13,2024-08-13,株式会社事務所ＫＡＹ,,株式会社,神奈川県,横浜市神奈川区,台町７－１０、花木ビル２Ｆ,,14,102,2210834,,,,,,,2024-08-13,1,,,,,ジムショケイ,0
332,2020001158511,新規,0,2024-08-13,2024-08-13,ＺＥＲＯ　ＩＣＨＩ株式会社,,株式会社,神奈川県,横浜市保土ケ谷区,川島町１５２６番地,,14,106,2400045,,,,,,,2024-08-13,1,,,,,ゼロイチ,0
333,2020001158528,新規,0,2024-08-13,2024-08-13,株式会社ジョイントデポイント,,株式会社,神奈川県,川崎市川崎区,渡田山王町１９番１７－１０３号,,14,131,2100845,,,,,,,2024-08-13,1,,,,,ジョイントデポイント,0
334,2020001158536,新規,0,2024-08-13,2024-08-13,株式会社古川電設,,株式会社,神奈川県,横浜市瀬谷区,相沢２丁目１５番地４,,14,114,2460013,,,,,,,2024-08-13,1,,,,,フルカワデンセツ,0
335,2020001158552,新規,0,2024-08-13,2024-08-13,株式会社セプタグラム,,株式会社,神奈川県,横浜市瀬谷区,本郷１丁目６７番地６,,14,114,2460015,,,,,,,2024-08-13,1,,,,,セプタグラム,0
336,2020003026609,新規,0,2024-08-13,2024-08-13,合同会社内匠工務店,,合同会社,神奈川県,横浜市南区,中里３丁目２１－３メゾン・ド・コゼット４０１号室,,14,105,2320063,,,,,,,2024-08-13,1,,,,,タクミコウムテン,0
337,2020003026641,新規,0,2024-08-13,2024-08-13,合同会社ｔｅａｍ響２４,,合同会社,神奈川県,横浜市保土ケ谷区,法泉１丁目４番５－８０４号,,14,106,2400032,,,,,,,2024-08-13,1,,,,,チームヒビキニジュウヨン,0
357,2030003024883,新規,0,2024-08-13,2024-08-13,合同会社ＦＬＹ,,合同会社,埼玉県,戸田市,本町４丁目１１－１９パールステーション２０２,,11,224,3350023,,,,,,,2024-08-13,1,,,,,フライ,0
358,2030005021796,新規,0,2024-08-13,2024-08-13,ＮＰＯ法人虫めがね,,その他の設立登記法人,埼玉県,志木市,中宗岡５丁目７番１３号,,11,228,3530002,,,,,,,2024-08-13,1,,,,,ムシネガネ,0
366,2050001055219,新規,0,2024-08-13,2024-08-13,ＥＢＥＮＥＺＥＲ株式会社,,株式会社,茨城県,下妻市,大木８９２番地３,,08,210,3040004,,,,,,,2024-08-13,1,,,,,エベネゼル,0
367,2050001055227,新規,0,2024-08-13,2024-08-13,株式会社コバヤシ,,株式会社,茨城県,小美玉市,柴高６１３番地３,,08,236,3190103,,,,,,,2024-08-13,1,,,,,コバヤシ,0
368,2050001055235,新規,0,2024-08-13,2024-08-13,株式会社Ｄｏ　Ｏｒ　Ｄｏ,,株式会社,茨城県,坂東市,大谷口１０８１番地２３,,08,228,3060621,,,,,,,2024-08-13,1,,,,,ドゥオアドゥ,0
372,2050003008595,新規,0,2024-08-13,2024-08-13,はーとり不動産合同会社,,合同会社,茨城県,小美玉市,羽鳥２６６２番地２,,08,236,3190123,,,,,,,2024-08-13,1,,,,,ハートリフドウサン,0
373,2050003008604,新規,0,2024-08-13,2024-08-13,合同会社ＥａｒｔｈＰｕｌｌ,,合同会社,茨城県,つくば市,谷田部８４３番地６（陣場Ｇ８街区３１）,,08,220,3050861,,,,,,,2024-08-13,1,,,,,アースプル,0
377,2060001037406,新規,0,2024-08-13,2024-08-13,ＳＬＹＶＥＸ株式会社,,株式会社,栃木県,宇都宮市,本町１３番１７号Ｔレックスビル６階Ｂ号室,,09,201,3200033,,,,,,,2024-08-13,1,,,,,スライベックス,0
381,2080401027376,新規,0,2024-08-13,2024-08-13,株式会社ＨＡＮＡ,,株式会社,静岡県,浜松市中央区,卸本町２０００番地の６,,22,138,4328055,,,,,,,2024-08-13,1,,,,,ハナ,0
383,2090001018857,新規,0,2024-08-13,2024-08-13,株式会社ナカジマ設備,,株式会社,山梨県,南アルプス市,上宮地７７５番地１,,19,208,4000312,,,,,,,2024-08-13,1,,,,,ナカジマセツビ,0
386,2100001037731,新規,0,2024-08-13,2024-08-13,アクアリウス株式会社,,株式会社,長野県,飯田市,上郷黒田２６３３番地５,,20,205,3950004,,,,,,,2024-08-13,1,,,,,アクアリウス,0
387,2100003007699,新規,0,2024-08-13,2024-08-13,合同会社ＰＡＹ　ｉｔ　ＦＯＲＷＡＲＤ,,合同会社,長野県,諏訪市,大字中洲１６１０番地４,,20,206,3920015,,,,,,,2024-08-13,1,,,,,ペイフォワード,0
388,2100003007708,新規,0,2024-08-13,2024-08-13,合同会社未来地図カタン,,合同会社,長野県,下伊那郡松川町,元大島３４７５番地１,,20,402,3993303,,,,,,,2024-08-13,1,,,,,ミライチズカタン,0
396,2120001267681,新規,0,2024-08-13,2024-08-13,株式会社ｅ‐ＤＥＮ,,株式会社,大阪府,大阪市天王寺区,南河堀町６番３３号,,27,109,5430054,,,,,,,2024-08-13,1,,,,,イーデン,0
397,2120001267707,新規,0,2024-08-13,2024-08-13,株式会社くくる,,株式会社,大阪府,大阪市大正区,小林西２丁目１８番５号,,27,108,5510013,,,,,,,2024-08-13,1,,,,,ククル,0
402,2120101070135,新規,0,2024-08-13,2024-08-13,株式会社悠月工業,,株式会社,大阪府,松原市,丹南５丁目５番地の１,,27,217,5800013,,,,,,,2024-08-13,1,,,,,ユヅキコウギョウ,0
404,2120103006005,新規,0,2024-08-13,2024-08-13,ＭＰＰ合同会社,,合同会社,大阪府,堺市東区,白鷺町１丁８－４白鷺ハイツ１Ｆ,,27,143,5998107,,,,,,,2024-08-13,1,,,,,エムピピ,0
409,2122001038352,新規,0,2024-08-13,2024-08-13,株式会社Ｂｕｄｄｙ,,株式会社,大阪府,東大阪市,鳥居町１番２２号,,27,227,5798035,,,,,,,2024-08-13,1,,,,,バディ,0
410,2122003002967,新規,0,2024-08-13,2024-08-13,合同会社ＳＭＲ,,合同会社,大阪府,東大阪市,吉田３丁目１－７－１０５,,27,227,5780924,,,,,,,2024-08-13,1,,,,,エスエムアール,0
415,2130001077634,新規,0,2024-08-13,2024-08-13,日本武専株式会社,,株式会社,京都府,京都市中京区,麩屋町通二条上る布袋屋町５２０番地３,,26,104,6040963,,,,,,,2024-08-13,1,,,,,ニホンブセン,0
416,2130001077683,新規,0,2024-08-13,2024-08-13,吉田屋株式会社,00135917,株式会社,京都府,京都市西京区,御陵溝浦町２０－５,,26,111,6158231,,,,,,,2024-08-13,1,,,,,ヨシダヤ,0
417,2130001077709,新規,0,2024-08-13,2024-08-13,株式会社パインヒルズ,,株式会社,京都府,京都市左京区,一乗寺築田町６７番地,,26,103,6068175,,,,,,,2024-08-13,1,,,,,パインヒルズ,0
429,2140003020946,新規,0,2024-08-13,2024-08-13,合同会社ファンシー,,合同会社,兵庫県,川西市,大和東２丁目３４番地の２０,,28,217,6660111,,,,,,,2024-08-13,1,,,,,ファンシー,0
430,2140003020954,新規,0,2024-08-13,2024-08-13,合同会社ラ・メール,,合同会社,兵庫県,神戸市東灘区,森北町５丁目１番１５－２０１号,,28,101,6580001,,,,,,,2024-08-13,1,,,,,ラメール,0
431,2140003020962,新規,0,2024-08-13,2024-08-13,ピュアフルハート合同会社,,合同会社,兵庫県,西宮市,甲子園七番町７番４号,,28,204,6638177,,,,,,,2024-08-13,1,,,,,ピュアフルハート,0
432,2150003003339,新規,0,2024-08-13,2024-08-13,イーケーコンサルティング合同会社,,合同会社,奈良県,奈良市,北登美ヶ丘２丁目１４―１８,,29,201,6310001,,,,,,,2024-08-13,1,,,,,イーケーコンサルティング,0
436,2180001162670,新規,0,2024-08-13,2024-08-13,ＷＯＮＤＥＲ　ＷＯＭＡＮ株式会社,,株式会社,愛知県,名古屋市中区,大須１丁目３２番１１号,,23,106,4600011,,,,,,,2024-08-13,1,,,,,ワンダーウーマン,0
437,2180001162720,新規,0,2024-08-13,2024-08-13,株式会社辰建,,株式会社,愛知県,東海市,名和町石田４６番地メゾン兜山ＩＩ２０１号,00135913,23,222,4760002,,,,,,,2024-08-13,1,,,,,タッケン,0
438,2180001162803,新規,0,2024-08-13,2024-08-13,株式会社ベベ,,株式会社,愛知県,名古屋市西区,名駅２丁目４番３号ウエスタンビル３６号,,23,104,4510045,,,,,,,2024-08-13,1,,,,,ベベ,0
439,2180001162811,新規,0,2024-08-13,2024-08-13,株式会社イルポンテ,,株式会社,愛知県,名古屋市西区,那古野１丁目３７番２２号ヴェルディーク那古野９０１号,00135928,23,104,4510042,,,,,,,2024-08-13,1,,,,,イルポンテ,0
444,2200001042812,新規,0,2024-08-13,2024-08-13,ＭＵＳＡ　ＴＲＡＤＩＮＧ株式会社,,株式会社,岐阜県,美濃加茂市,西町７丁目３１３番地西町テナント１－Ａ,,21,211,5050046,,,,,,,2024-08-13,1,,,,,ムサトレーディング,0
450,2220003003819,新規,0,2024-08-13,2024-08-13,合同会社四つ葉,,合同会社,石川県,かほく市,指江ソ３０番地１３,,17,209,9291113,,,,,,,2024-08-13,1,,,,,ヨツバ,0
452,2240001063689,新規,0,2024-08-13,2024-08-13,株式会社グランドレジデンス,,株式会社,広島県,広島市佐伯区,吉見園２１番２０号,,34,108,7315132,,,,,,,2024-08-13,1,,,,,グランドレジデンス,0
453,2240001063697,新規,0,2024-08-13,2024-08-13,株式会社Ｙ’ｓ　ＭＩＫＡＳ,,株式会社,広島県,広島市安芸区,上瀬野町１０６１９番地３９２,,34,107,7390302,,,,,,,2024-08-13,1,,,,,ワイズマイカス,0
454,2240001063714,新規,0,2024-08-13,2024-08-13,ミサキ工業株式会社,,株式会社,広島県,福山市,駅家町大字倉光５２７番地１,,34,207,7201132,,,,,,,2024-08-13,1,,,,,ミサキコウギョウ,0
455,2260001039373,新規,0,2024-08-13,2024-08-13,株式会社焼肉ソウル,,株式会社,岡山県,津山市,中原６７番地５,,33,203,7080854,,,,,,,2024-08-13,1,,,,,ヤキニクソウル,0
456,2260003004854,新規,0,2024-08-13,2024-08-13,合同会社Ｍ．Ｉ．Ｕ,,合同会社,岡山県,倉敷市,北畝６丁目８番２６号,,33,202,7128032,,,,,,,2024-08-13,1,,,,,エムアイユー,0
457,2270003001660,新規,0,2024-08-13,2024-08-13,合同会社Ｅｔｅｒｎｅｌ,,合同会社,鳥取県,鳥取市,青葉町３丁目１５０番地７,,31,201,6800802,,,,,,,2024-08-13,1,,,,,エテルネル,0
464,2290001106600,新規,0,2024-08-13,2024-08-13,株式会社Ｉｔｉｗａ　Ｆａｒｍ,,株式会社,福岡県,久留米市,藤山町１２４０番地,,40,203,8300053,,,,,,,2024-08-13,1,,,,,イチワファーム,0
465,2290001106658,新規,0,2024-08-13,2024-08-13,ＰＦＩ小郡市スクールランチ株式会社,,株式会社,福岡県,小郡市,松崎５３７番地３,,40,216,8380122,,,,,,,2024-08-13,1,,,,,ピーエフアイオゴオリシスクールランチ,0
466,2290001106666,新規,0,2024-08-13,2024-08-13,株式会社ＴＲＡＤ,,株式会社,福岡県,福岡市城南区,神松寺２丁目１８－８－３０４,,40,136,8140121,,,,,,,2024-08-13,1,,,,,,0
467,2290001106674,新規,0,2024-08-13,2024-08-13,株式会社ａｍｕｓａｎｔ,,株式会社,福岡県,福岡市中央区,薬院１丁目１２番地１０号ネクサス薬院１００２,,40,133,8100022,,,,,,,2024-08-13,1,,,,,アミュゾン,0
472,2290003015618,新規,0,2024-08-13,2024-08-13,合同会社ＰＬＳＵ‐Ａ,,合同会社,福岡県,古賀市,天神１丁目１８番２号ビオトープ１０２号,,40,223,8113101,,,,,,,2024-08-13,1,,,,,,0
474,2290801030792,新規,0,2024-08-13,2024-08-13,株式会社創確工業,,株式会社,福岡県,宮若市,金丸１３４－１０,,40,226,8220111,,,,,,,2024-08-13,1,,,,,ソウカクコウギョウ,0
475,2300005007207,新規,0,2024-08-13,2024-08-13,一般社団法人佐賀地方創生推進機構,,その他の設立登記法人,佐賀県,小城市,芦刈町芦溝１１２０番地５,00135919,41,208,8490311,,,,,,,2024-08-13,1,,,,,サガチホウソウセイスイシンキコウ,0
478,2310003004840,新規,0,2024-08-13,2024-08-13,Ｋａｎｏａ　Ｌｅａ合同会社,,合同会社,長崎県,諫早市,小川町７６０番地２４,,42,204,8540053,,,,,,,2024-08-13,1,,,,,カノアレア,0
480,2320001020657,新規,0,2024-08-13,2024-08-13,株式会社木村建設,,株式会社,大分県,由布市,湯布院町川上６４４番地５,,44,213,8795102,,,,,,,2024-08-13,1,,,,,キムラケンセツ,0
481,2320001020665,新規,0,2024-08-13,2024-08-13,株式会社Ｄｒｙｔ,,株式会社,大分県,別府市,大字鶴見４０２６番地の４６,,44,202,8740840,,,,,,,2024-08-13,1,,,,,ドライト,0
482,2330001032354,新規,0,2024-08-13,2024-08-13,株式会社采果,,株式会社,熊本県,熊本市北区,清水新地３丁目５番９７号,,43,105,8618075,,,,,,,2024-08-13,1,,,,,サイカ,0
484,2330003010515,新規,0,2024-08-13,2024-08-13,合同会社トラスティ,,合同会社,熊本県,熊本市中央区,練兵町６１－２－１００２,,43,101,8600017,,,,,,,2024-08-13,1,,,,,トラスティ,0
489,2360001034075,新規,0,2024-08-13,2024-08-13,株式会社琉加,,株式会社,沖縄県,那覇市,安里３丁目２－２０アイリープラザ２０３,,47,201,9020067,,,,,,,2024-08-13,1,,,,,リュウカ,0
490,2360003014216,新規,0,2024-08-13,2024-08-13,合同会社ＳＴＥＰ　ＵＰ,,合同会社,沖縄県,那覇市,久茂地１丁目６番１号,,47,201,9000015,,,,,,,2024-08-13,1,,,,,ステップアップ,0
492,2370001051631,新規,0,2024-08-13,2024-08-13,エレフォーミングテクノロジー株式会社,,株式会社,宮城県,仙台市宮城野区,榴岡３丁目６番３０－１００３号,,04,102,9830852,,,,,,,2024-08-13,1,,,,,エレフォーミングテクノロジー,0
494,2370003006724,新規,0,2024-08-13,2024-08-13,カナエール合同会社,,合同会社,宮城県,東松島市,赤井字鷲塚１２１番地の１,,04,214,9810501,,,,,,,2024-08-13,1,,,,,カナエール,0
497,2380001034726,新規,0,2024-08-13,2024-08-13,ＣｏＣｏＫＡＲＡ株式会社,,株式会社,福島県,双葉郡富岡町,大字本岡字関ノ前２０６番地８,,07,543,9791151,,,,,,,2024-08-13,1,,,,,ココカラ,0
498,2390005009079,新規,0,2024-08-13,2024-08-13,一般社団法人やまがた民事信託サポートセンター,,その他の設立登記法人,山形県,山形市,千歳２丁目１５番８６号,,06,201,9900812,,,,,,,2024-08-13,1,,,,,ヤナガタミンジシンタクサポートセンター,0
502,2420003002973,新規,0,2024-08-13,2024-08-13,合同会社いたや毛豆,,合同会社,青森県,北津軽郡板柳町,大字夕顔関字川部２６番地,,02,381,0383622,,,,,,,2024-08-13,1,,,,,イタヤケマメ,0
508,2430001092454,新規,0,2024-08-13,2024-08-13,株式会社ＮＳＫコーポレーション,,株式会社,北海道,札幌市中央区,南七条西６丁目６－５Ｊ１すすきのビル４０６,,01,101,0640807,,,,,,,2024-08-13,1,,,,,エヌエスケーコーポレーション,0
512,2480001012572,新規,0,2024-08-13,2024-08-13,株式会社Ｏａｒ　Ｂｅａｒｓ,,株式会社,徳島県,徳島市,佐古五番町４番１６号,,36,201,7700025,,,,,,,2024-08-13,1,,,,,オールベアーズ,0
530,3010003044627,新規,0,2024-08-13,2024-08-13,ブライトスケープ合同会社,,合同会社,東京都,中央区,日本橋兜町１７番２号兜町第六葉山ビル４階,,13,102,1030026,,,,,,,2024-08-13,1,,,,,ブライトスケープ,0
531,3010103002402,新規,0,2024-08-13,2024-08-13,合同会社３２１６,,合同会社,東京都,八王子市,小宮町９８５－１９ベルルミエール２０３,,13,201,1920031,,,,,,,2024-08-13,1,,,,,スリーツーワンシックス,0
536,3010401184330,新規,0,2024-08-13,2024-08-13,株式会社ＴＡＢＩＴＯ,,株式会社,東京都,港区,北青山２丁目１２－８－２３７,,13,103,1070061,,,,,,,2024-08-13,1,,,,,タビト,0
537,3010401184363,新規,0,2024-08-13,2024-08-13,株式会社ターン,,株式会社,東京都,港区,北青山３丁目５番８号青山ＯＫビル９Ｆ,,13,103,1070061,,,,,,,2024-08-13,1,,,,,ターン,0
538,3010401184371,新規,0,2024-08-13,2024-08-13,株式会社ＡｃｃｔＭａｔｒｉｘ,,株式会社,東京都,港区,浜松町２丁目２番１５号浜松町ダイヤビル２Ｆ,,13,103,1050013,,,,,,,2024-08-13,1,,,,,アクトマトリックス,0
542,3010403033246,新規,0,2024-08-13,2024-08-13,ＪＦＲブリッジ２合同会社,,合同会社,東京都,港区,元赤坂１丁目１番８号赤坂コミュニティビル４階,,13,103,1070051,,,,,,,2024-08-13,1,,,,,ジェイエフアールブリッジツー,0
545,3010601065735,新規,0,2024-08-13,2024-08-13,株式会社Ｉ　ＴＥＣＨ,,株式会社,東京都,墨田区,立花１丁目３３番４号,,13,107,1310043,,,,,,,2024-08-13,1,,,,,アイテック,0
552,3010801035307,新規,0,2024-08-13,2024-08-13,株式会社ｍａｒｕｐｉｏ,,株式会社,東京都,大田区,中馬込２丁目５番１０号第二飯島ビル１階,,13,111,1430027,,,,,,,2024-08-13,1,,,,,マルピオ,0
564,3011001163880,新規,0,2024-08-13,2024-08-13,株式会社Ｗｅｅｋｅｎｄｓ　Ｄｅｓｉｇｎ,,株式会社,東京都,渋谷区,道玄坂１丁目１０番８号渋谷道玄坂東急ビル２Ｆ－Ｃ,,13,113,1500043,,,,,,,2024-08-13,1,,,,,ウィークエンズデザイン,0
565,3011001163906,新規,0,2024-08-13,2024-08-13,株式会社アイヴィア,,株式会社,東京都,渋谷区,渋谷３丁目１１番１１号,,13,113,1500002,,,,,,,2024-08-13,1,,,,,アイヴィア,0
566,3011001163922,新規,0,2024-08-13,2024-08-13,株式会社Ｍａｎｔｒａ,,株式会社,東京都,渋谷区,渋谷２丁目１９番１５号宮益坂ビルディング６０９,,13,113,1500002,,,,,,,2024-08-13,1,,,,,マントラ,0
567,3011001163988,新規,0,2024-08-13,2024-08-13,ＮＪＳ　ＨＤ株式会社,,株式会社,東京都,渋谷区,道玄坂１丁目１０番８号渋谷道玄坂東急ビル２ＦーＣ,,13,113,1500043,,,,,,,2024-08-13,1,,,,,エヌジェーエスホールディングス,0
570,3011003019775,新規,0,2024-08-13,2024-08-13,合同会社ＥＳＲ１０,,合同会社,東京都,目黒区,上目黒１丁目２３番１号中目黒アリーナ４０５号室,,13,110,1530051,,,,,,,2024-08-13,1,,,,,イーエスアールテン,0
575,3011101108315,新規,0,2024-08-13,2024-08-13,株式会社トランプ,,株式会社,東京都,新宿区,四谷４丁目２５番地,,13,104,1600004,,,,,,,2024-08-13,1,,,,,トランプ,0
576,3011102002491,新規,0,2024-08-13,2024-08-13,有限会社大茂青果,,有限会社,東京都,新宿区,百人町１丁目９番地１９,,13,104,1690073,,,,,,,2024-08-13,1,,,,,オオシゲセイカ,0
581,3011403004468,新規,0,2024-08-13,2024-08-13,Ｍａｄｏｗ合同会社,,合同会社,東京都,板橋区,上板橋２丁目１５番５号,,13,119,1740076,,,,,,,2024-08-13,1,,,,,マド,0
587,3011801044644,新規,0,2024-08-13,2024-08-13,株式会社燈,,株式会社,東京都,足立区,西新井４丁目１０番１５号,,13,121,1230841,,,,,,,2024-08-13,1,,,,,トモシビ,0
588,3011801044685,新規,0,2024-08-13,2024-08-13,ユーナル株式会社,,株式会社,東京都,葛飾区,立石７丁目３１番８号,,13,122,1240012,,,,,,,2024-08-13,1,,,,,ユーナル,0
589,3012401042162,新規,0,2024-08-13,2024-08-13,株式会社Ｃａｎｏｐｕｓ,,株式会社,東京都,三鷹市,井の頭５丁目１２―１７,,13,204,1810001,,,,,,,2024-08-13,1,,,,,カノープス,0
591,3012403006710,新規,0,2024-08-13,2024-08-13,合同会社ボアズ,,合同会社,東京都,三鷹市,大沢３丁目１０番４号ＩＣＵ住宅４７２,,13,204,1810015,,,,,,,2024-08-13,1,,,,,ボアズ,0
605,3020001158403,新規,0,2024-08-13,2024-08-13,株式会社ＮＫ,,株式会社,神奈川県,横浜市磯子区,滝頭３丁目１番５７号,,14,107,2350012,,,,,,,2024-08-13,1,,,,,エヌケー,0
608,3020003026608,新規,0,2024-08-13,2024-08-13,合同会社ＴＨＯＵＳＡＮＤ　ＯＡＫＳ,,合同会社,神奈川県,横浜市西区,浅間台１０６番地２０,,14,103,2200071,,,,,,,2024-08-13,1,,,,,サウザンドオークス,0
609,3020003026616,新規,0,2024-08-13,2024-08-13,ｗｅｅｅｌｌ合同会社,,合同会社,神奈川県,横浜市旭区,四季美台５０－３２,,14,112,2410025,,,,,,,2024-08-13,1,,,,,ウィール,0
610,3020003026649,新規,0,2024-08-13,2024-08-13,合同会社たすたす,,合同会社,神奈川県,横浜市西区,北幸２丁目１０番４８号むつみビル３階,,14,103,2200004,,,,,,,2024-08-13,1,,,,,タスタス,0
622,3030003024890,新規,0,2024-08-13,2024-08-13,合同会社Ｗｅｓｔ　Ｔｏｗｅｒ　Ｔｒａｄｉｎｇ,,合同会社,埼玉県,春日部市,大場２４１番地１ソフィア春日部６０９号,,11,214,3440021,,,,,,,2024-08-13,1,,,,,ウェストタワートレーディング,0
623,3030003024908,新規,0,2024-08-13,2024-08-13,米倉合同会社,,合同会社,埼玉県,さいたま市中央区,八王子３丁目７番１３－１号,,11,105,3380006,,,,,,,2024-08-13,1,,,,,ヨネクラ,0
624,3030005021804,新規,0,2024-08-13,2024-08-13,特定非営利活動法人天眞正自源流兵法,,その他の設立登記法人,埼玉県,春日部市,豊町５丁目１９番地１－４,,11,214,3440066,,,,,,,2024-08-13,1,,,,,テンシンショウジゲンリュウヘイホウ,0
631,3050001055234,新規,0,2024-08-13,2024-08-13,株式会社信栄,,株式会社,茨城県,守谷市,松前台６丁目１１番地１６,,08,224,3020102,,,,,,,2024-08-13,1,,,,,シンエイ,0
632,3050001055242,新規,0,2024-08-13,2024-08-13,株式会社イノウエオフィス,,株式会社,茨城県,牛久市,ひたち野西１丁目８番地８４,,08,219,3001206,,,,,,,2024-08-13,1,,,,,イノウエオフィス,0
633,3050003008603,新規,0,2024-08-13,2024-08-13,合同会社水匠,,合同会社,茨城県,ひたちなか市,大字武田４３９番地１,,08,221,3120025,,,,,,,2024-08-13,1,,,,,スイショウ,0
640,3060001037405,新規,0,2024-08-13,2024-08-13,株式会社Ｇｏｅｎ不動産,,株式会社,栃木県,宇都宮市,竹林町５５０番地１,,09,201,3210974,,,,,,,2024-08-13,1,,,,,ゴエンフドウサン,0
643,3060003005186,新規,0,2024-08-13,2024-08-13,Ｈｉｍａｗａｒｉ　Ｂｉｃｙｃｌｅ合同会社,,合同会社,栃木県,佐野市,栃本町３３８２番地５,,09,204,3270312,,,,,,,2024-08-13,1,,,,,ヒマワリバイシクル,0
644,3060003005194,新規,0,2024-08-13,2024-08-13,合同会社みやび工研,,合同会社,栃木県,芳賀郡市貝町,大字赤羽２７１６番地,,09,344,3213426,,,,,,,2024-08-13,1,,,,,ミヤビコウケン,0
645,3060003005203,新規,0,2024-08-13,2024-08-13,合同会社ＭＯＡＮＩ,,合同会社,栃木県,宇都宮市,江曽島３丁目７６７番地８,,09,201,3210107,,,,,,,2024-08-13,1,,,,,モアニ,0
651,3080401027383,新規,0,2024-08-13,2024-08-13,株式会社ＫＯＨＯＫＵ　ＭＫ　ｃｏｍｐａｎｙ,,株式会社,静岡県,浜松市中央区,市野町２４３７番地の１,,22,138,4350051,,,,,,,2024-08-13,1,,,,,コホクエムケーカンパニー,0
657,3100003007707,新規,0,2024-08-13,2024-08-13,合同会社ＪａｙＲｕｎｎｉｎｇ,,合同会社,長野県,松本市,筑摩１丁目１３番３号,,20,202,3900821,,,,,,,2024-08-13,1,,,,,ジェイランニング,0
668,3120001267615,新規,0,2024-08-13,2024-08-13,株式会社原価屋,,株式会社,大阪府,大阪市中央区,日本橋２丁目１５番２１－３１０号,,27,128,5420073,,,,,,,2024-08-13,1,,,,,ゲンカヤ,0
669,3120001267730,新規,0,2024-08-13,2024-08-13,株式会社現代仏壇,,株式会社,大阪府,大阪市東成区,東今里２丁目７番３７号,,27,115,5370011,,,,,,,2024-08-13,1,,,,,ゲンダイブツダン,0
672,3120003027190,新規,0,2024-08-13,2024-08-13,ＷａＨａＱ合同会社,,合同会社,大阪府,大阪市北区,梅田１丁目１－２大阪駅前第２ビル１２－１２,,27,127,5300001,,,,,,,2024-08-13,1,,,,,ワハック,0
676,3120101070142,新規,0,2024-08-13,2024-08-13,株式会社ＭｅｅｅＴ,,株式会社,大阪府,和泉市,葛の葉町１丁目５番５９号,,27,219,5940081,,,,,,,2024-08-13,1,,,,,ミート,0
677,3120101070150,新規,0,2024-08-13,2024-08-13,Ｒｙｏ’ｓ　ｃｒｅａｔｅ株式会社,,株式会社,大阪府,羽曳野市,羽曳が丘２丁目１８５番地の１２,,27,222,5830864,,,,,,,2024-08-13,1,,,,,リョウズクリエイト,0
681,3120901049591,新規,0,2024-08-13,2024-08-13,株式会社Ｉ‐ＣｈｒｏＭ,,株式会社,大阪府,高槻市,郡家新町１１－２－４,,27,207,5691136,,,,,,,2024-08-13,1,,,,,アイクロム,0
687,3130003009766,新規,0,2024-08-13,2024-08-13,合同会社＿＿,00135922,合同会社,京都府,京都市左京区,田中里ノ前町２２エクセレント八木２０１号室,,26,103,6068227,,,,,,,2024-08-13,1,,,,,キンミョウ,0
690,3140003020961,新規,0,2024-08-13,2024-08-13,合同会社アサイ,,合同会社,兵庫県,西脇市,富吉上町１１３番地,,28,213,6770011,,,,,,,2024-08-13,1,,,,,アサイ,0
693,3150001027495,新規,0,2024-08-13,2024-08-13,株式会社Ｍａｋｅ　Ｓｅｎｃｅ,,株式会社,奈良県,北葛城郡広陵町,大字沢２０３－２,,29,426,6350804,,,,,,,2024-08-13,1,,,,,メイクセンス,0
702,3180001162711,新規,0,2024-08-13,2024-08-13,アグリロジ株式会社,,株式会社,愛知県,海部郡飛島村,元起２丁目１１６番地,,23,427,4901437,,,,,,,2024-08-13,1,,,,,アグリロジ,0
703,3180001162785,新規,0,2024-08-13,2024-08-13,株式会社ＨＥＲＯＨＯＭＥ,,株式会社,愛知県,北名古屋市,六ツ師中屋敷４４６番地,,23,234,4810001,,,,,,,2024-08-13,1,,,,,ヒーローホーム,0
704,3180001162793,新規,0,2024-08-13,2024-08-13,株式会社プルミエ,,株式会社,愛知県,大府市,共和町４丁目２９３番地１サンメゾン共和ヒルズアベニュー４１４,,23,223,4740061,,,,,,,2024-08-13,1,,,,,プルミエ,0
705,3180001162819,新規,0,2024-08-13,2024-08-13,株式会社雅コーポレーション,,株式会社,愛知県,北名古屋市,二子四反地２番地,,23,234,4810013,,,,,,,2024-08-13,1,,,,,ミヤビコーポレーション,0
709,3180003027202,新規,0,2024-08-13,2024-08-13,合同会社ｓｈｉｒｏ,,合同会社,愛知県,名古屋市中川区,春田１丁目１６２番地Ｗａｒｒｅｎ　ｈａｒｕｔａＩ１０１号,00135920,23,110,4540985,,,,,,,2024-08-13,1,,,,,シロ,0
711,3180301038909,新規,0,2024-08-13,2024-08-13,株式会社エバーグロウ,,株式会社,愛知県,額田郡幸田町,大字菱池字新田５５,,23,501,4440113,,,,,,,2024-08-13,1,,,,,エバーグロウ,0
712,3180301038966,新規,0,2024-08-13,2024-08-13,株式会社Ｍコーポレーション,,株式会社,愛知県,みよし市,打越町上屋敷４０番地３６,,23,236,4700213,,,,,,,2024-08-13,1,,,,,エムコーポレーション,0
713,3180301038974,新規,0,2024-08-13,2024-08-13,泰山サービス株式会社,,株式会社,愛知県,知立市,昭和３丁目１番地１知立団地３４棟４０４号,,23,225,4720011,,,,,,,2024-08-13,1,,,,,タイザンサービス,0
717,3190001031568,新規,0,2024-08-13,2024-08-13,株式会社ネクサス,,株式会社,三重県,津市,香良洲町２９２５番地１,,24,201,5140315,,,,,,,2024-08-13,1,,,,,ネクサス,0
722,3200001042828,新規,0,2024-08-13,2024-08-13,株式会社ＰＲＯＣＥＥＤ,,株式会社,岐阜県,岐阜市,此花町６丁目１７番地,,21,201,5008333,,,,,,,2024-08-13,1,,,,,プロシード,0
723,3200003006459,新規,0,2024-08-13,2024-08-13,合同会社ＴＹＭ,,合同会社,岐阜県,岐阜市,日ノ出町２丁目２０番地ＣＩＮＥＸ４階Ｄ室,,21,201,5008876,,,,,,,2024-08-13,1,,,,,ティーワイエム,0
728,3240001063688,新規,0,2024-08-13,2024-08-13,Ｒｉｊｏグループ株式会社,,株式会社,広島県,広島市佐伯区,石内上１丁目５番１号,,34,108,7315107,,,,,,,2024-08-13,1,,,,,リジョーグループ,0
729,3240001063696,新規,0,2024-08-13,2024-08-13,株式会社礒兼装業,,株式会社,広島県,広島市安佐南区,山本新町５丁目１８番２１号,,34,105,7310139,,,,,,,2024-08-13,1,,,,,イソカネソウギョウ,0
730,3240001063705,新規,0,2024-08-13,2024-08-13,株式会社Ｍａｇｎｉ,,株式会社,広島県,広島市東区,上大須賀町１番６－５０１号,,34,102,7320056,,,,,,,2024-08-13,1,,,,,マグニ,0
731,3260001039372,新規,0,2024-08-13,2024-08-13,株式会社ＳＢＭ,,株式会社,岡山県,岡山市南区,当新田３７０番地１,,33,104,7000956,,,,,,,2024-08-13,1,,,,,エスビーエム,0
734,3260003004853,新規,0,2024-08-13,2024-08-13,合同会社ティーズ,,合同会社,岡山県,岡山市中区,海吉２２６９番地５,,33,102,7038261,,,,,,,2024-08-13,1,,,,,ティーズ,0
735,3270001009036,新規,0,2024-08-13,2024-08-13,株式会社ＶｉｔａＲ,,株式会社,鳥取県,鳥取市,気高町新町２丁目１４３番地,,31,201,6890333,,,,,,,2024-08-13,1,,,,,バイタル,0
738,3290003015617,新規,0,2024-08-13,2024-08-13,合同会社出光,,合同会社,福岡県,福岡市東区,香住ヶ丘２丁目１６番２０－５０５号ドルチェＭ．Ｓ,,40,131,8130003,,,,,,,2024-08-13,1,,,,,,0
739,3290003015633,新規,0,2024-08-13,2024-08-13,合同会社ｃｏｏ,,合同会社,福岡県,三潴郡大木町,大字蛭池１８３８番地１,,40,522,8300411,,,,,,,2024-08-13,1,,,,,クー,0
741,3290801030791,新規,0,2024-08-13,2024-08-13,株式会社船調ツミキ,,株式会社,福岡県,北九州市小倉南区,上吉田５丁目８番８号,,40,107,8000201,,,,,,,2024-08-13,1,,,,,センチョウツミキ,0
742,3290803004819,新規,0,2024-08-13,2024-08-13,合同会社ＫＡＷＡＲＩＭＥ,,合同会社,福岡県,北九州市八幡西区,陣山２丁目７番地１３号パークサイド黒崎７０３,,40,109,8060012,,,,,,,2024-08-13,1,,,,,カワリメ,0
743,3290805009766,新規,0,2024-08-13,2024-08-13,一般社団法人出会いのチカラ,,その他の設立登記法人,福岡県,北九州市八幡西区,茶屋の原２丁目５番１３号,,40,109,8071134,,,,,,,2024-08-13,1,,,,,デアイノチカラ,0
749,3320003004450,新規,0,2024-08-13,2024-08-13,合同会社Ｉ　Ｄｏ　ｍｅ,,合同会社,大分県,大分市,大字松岡５９７０番地の７,,44,201,8700125,,,,,,,2024-08-13,1,,,,,アイドゥーミー,0
754,3360001033992,新規,0,2024-08-13,2024-08-13,株式会社ＢａｓｅＣａｍｐＯｋｉｎａｗａ,,株式会社,沖縄県,国頭郡本部町,字渡久地１５４,,47,308,9050214,,,,,,,2024-08-13,1,,,,,ベースキャンプオキナワ,0
755,3360001034066,新規,0,2024-08-13,2024-08-13,株式会社あしび,,株式会社,沖縄県,那覇市,牧志２丁目５番１４号１０３号室,,47,201,9000013,,,,,,,2024-08-13,1,,,,,,0
756,3360001034074,新規,0,2024-08-13,2024-08-13,インサイト・ネクサス株式会社,,株式会社,沖縄県,糸満市,字糸満５００,,47,210,9010361,,,,,,,2024-08-13,1,,,,,インサイトネクサス,0
757,3360003014223,新規,0,2024-08-13,2024-08-13,合同会社Ｍコーポレイション,,合同会社,沖縄県,島尻郡南風原町,字本部２９７番地７エール３０２,,47,350,9011112,,,,,,,2024-08-13,1,,,,,エムコーポレイション,0
764,3370001051630,新規,0,2024-08-13,2024-08-13,株式会社パルズレーヴ,,株式会社,宮城県,仙台市宮城野区,宮城野１丁目１番１７号,,04,102,9830045,,,,,,,2024-08-13,1,,,,,パルズレーヴ,0
765,3370001051655,新規,0,2024-08-13,2024-08-13,株式会社ガレスタ,,株式会社,宮城県,宮城郡利府町,森郷字仲町浦１－１,,04,406,9810103,,,,,,,2024-08-13,1,,,,,ガレスタ,0
775,3430001092478,新規,0,2024-08-13,2024-08-13,株式会社永翔水産,,株式会社,北海道,滝川市,新町４丁目１１番３号,,01,225,0730033,,,,,,,2024-08-13,1,,,,,エイトスイサン,0
788,3480001012571,新規,0,2024-08-13,2024-08-13,株式会社永和設備工業,,株式会社,徳島県,板野郡北島町,中村字河原１番地１４,,36,402,7710203,,,,,,,2024-08-13,1,,,,,エイワセツビコウギョウ,0
805,4010401184354,新規,0,2024-08-13,2024-08-13,ＴＫＹエンターテインメント株式会社,,株式会社,東京都,港区,南青山２丁目２番１５号ウィン青山９４２,,13,103,1070062,,,,,,,2024-08-13,1,,,,,ティーケーワイエンターテインメント,0
806,4010401184370,新規,0,2024-08-13,2024-08-13,オーランド・キャピタル株式会社,,株式会社,東京都,港区,六本木１丁目３番３９号,,13,103,1060032,,,,,,,2024-08-13,1,,,,,オーランドキャピタル,0
807,4010401184437,新規,0,2024-08-13,2024-08-13,株式会社ファストアーク,,株式会社,東京都,港区,北青山１丁目３番１号アールキューブ青山３階,,13,103,1070061,,,,,,,2024-08-13,1,,,,,ファストアーク,0
814,4010601065734,新規,0,2024-08-13,2024-08-13,株式会社かけはし,,株式会社,東京都,江東区,永代２丁目３１番１３号ヴィラオークラビル２階,,13,108,1350034,,,,,,,2024-08-13,1,,,,,カケハシ,0
826,4011001163855,新規,0,2024-08-13,2024-08-13,ＳＥＬＥＳ株式会社,,株式会社,東京都,渋谷区,神宮前６丁目２３番４号,,13,113,1500001,,,,,,,2024-08-13,1,,,,,セレス,0
827,4011001163905,新規,0,2024-08-13,2024-08-13,株式会社ＲＳ,,株式会社,東京都,渋谷区,恵比寿西２丁目４番８号ウィンド恵比寿ビル８Ｆ,,13,113,1500021,,,,,,,2024-08-13,1,,,,,アールエス,0
828,4011001163987,新規,0,2024-08-13,2024-08-13,株式会社ｔｒｕｅｔｅｃｈ,,株式会社,東京都,渋谷区,神宮前６丁目２３番４号桑野ビル２階,,13,113,1500001,,,,,,,2024-08-13,1,,,,,トゥルーテック,0
829,4011003019733,新規,0,2024-08-13,2024-08-13,渋谷デザイン合同会社,,合同会社,東京都,渋谷区,桜丘町２７－１エグゼクティブ渋谷４０５,,13,113,1500031,,,,,,,2024-08-13,1,,,,,シブヤデザイン,0
830,4011003019741,新規,0,2024-08-13,2024-08-13,致遠商事合同会社,,合同会社,東京都,目黒区,下目黒１丁目１番１４号,,13,110,1530064,,,,,,,2024-08-13,1,,,,,チエンショウジ,0
831,4011003019774,新規,0,2024-08-13,2024-08-13,合同会社ＥＳＲ９,,合同会社,東京都,目黒区,上目黒１丁目２３番１号中目黒アリーナ４０５号室,,13,110,1530051,,,,,,,2024-08-13,1,,,,,イーエスアールナイン,0
832,4011005010599,新規,0,2024-08-13,2024-08-13,特定非営利活動法人モチコマ,,その他の設立登記法人,東京都,目黒区,駒場２丁目８番９号Ｃ棟,,13,110,1530041,,,,,,,2024-08-13,1,,,,,モチコマ,0
835,4011101108306,新規,0,2024-08-13,2024-08-13,ウートーン株式会社,,株式会社,東京都,新宿区,大久保２丁目３２番２２号,,13,104,1690072,,,,,,,2024-08-13,1,,,,,ウートーン,0
836,4011101108314,新規,0,2024-08-13,2024-08-13,株式会社日本住宅損害調査センター,,株式会社,東京都,新宿区,新宿２丁目１５番２２号Ｌａｎｄｗｏｒｋ新宿ビル８階,,13,104,1600022,,,,,,,2024-08-13,1,,,,,ニホンジュウタクソンガイチョウサセンター,0
837,4011101108371,新規,0,2024-08-13,2024-08-13,株式会社ＴＳＵＭＵＧＵ,,株式会社,東京都,新宿区,早稲田鶴巻町５０１福井ビル４階,,13,104,1620041,,,,,,,2024-08-13,1,,,,,ツムグ,0
838,4011103014766,新規,0,2024-08-13,2024-08-13,合同会社ＧＲＥＥＮ　ＨＥＡＲＴＳ,,合同会社,東京都,新宿区,西新宿３丁目３－１３西新宿水間ビル６階,,13,104,1600023,,,,,,,2024-08-13,1,,,,,グリーンハーツ,0
839,4011103014782,新規,0,2024-08-13,2024-08-13,合同会社ＨＡＢアセット,,合同会社,東京都,新宿区,北新宿３丁目３７番３号,,13,104,1690074,,,,,,,2024-08-13,1,,,,,ハブアセット,0
846,4011401026348,新規,0,2024-08-13,2024-08-13,株式会社ＷａｌｋＡｂｏｕｔ,,株式会社,東京都,板橋区,小茂根２丁目２０番４号,,13,119,1730037,,,,,,,2024-08-13,1,,,,,ウォークアバウト,0
847,4011501031033,新規,0,2024-08-13,2024-08-13,株式会社ライズ,,株式会社,東京都,北区,王子４丁目２８番９－８０２号Ｂｒｉｌｌｉａ王子神谷,,13,117,1140002,,,,,,,2024-08-13,1,,,,,ライズ,0
848,4011503006173,新規,0,2024-08-13,2024-08-13,小川デンタルサポート合同会社,,合同会社,東京都,北区,東十条１丁目２０番１５号,,13,117,1140001,,,,,,,2024-08-13,1,,,,,オガワデンタルサポート,0
849,4011701027525,新規,0,2024-08-13,2024-08-13,株式会社カーテックＮ,,株式会社,東京都,江戸川区,大杉５丁目２番１５号,,13,123,1320022,,,,,,,2024-08-13,1,,,,,カーテックエヌ,0
850,4011703003937,新規,0,2024-08-13,2024-08-13,悦閃合同会社,,合同会社,東京都,江戸川区,松江２丁目１番１３－３０５,,13,123,1320025,,,,,,,2024-08-13,1,,,,,エツセン,0
853,4012301014046,新規,0,2024-08-13,2024-08-13,株式会社ＱＩＤＧＥ,,株式会社,東京都,町田市,小山ヶ丘１丁目１１番地３－５２０,,13,209,1940215,,,,,,,2024-08-13,1,,,,,クイッジ,0
854,4012405005024,新規,0,2024-08-13,2024-08-13,一般社団法人日本マーレライ協会,,その他の設立登記法人,東京都,三鷹市,下連雀４丁目１７番３－４０１号,,13,204,1810013,,,,,,,2024-08-13,1,,,,,ニホンンマーレライキョウカイ,0
855,4012803003488,新規,0,2024-08-13,2024-08-13,Ｋ‐ｆｏｒｅｓｔ合同会社,,合同会社,東京都,昭島市,宮沢町４９４－１１プレイシア１２９,,13,207,1960024,,,,,,,2024-08-13,1,,,,,ケーフォレスト,0
856,4013301052952,新規,0,2024-08-13,2024-08-13,アルプス住宅パートナーズ株式会社,,株式会社,東京都,豊島区,池袋２丁目１４番４号池袋西口スカイビル,,13,116,1710014,,,,,,,2024-08-13,1,,,,,アルプスジュウタクパートナーズ,0
862,4020003026656,新規,0,2024-08-13,2024-08-13,合同会社Ｂｉｂｉｅ,,合同会社,神奈川県,横浜市神奈川区,羽沢町５８３番地３４,,14,102,2210863,,,,,,,2024-08-13,1,,,,,ビビィ,0
864,4020005016498,新規,0,2024-08-13,2024-08-13,一般社団法人赤い靴記念文化事業団,,その他の設立登記法人,神奈川県,横浜市中区,山下町１番地,,14,104,2310023,,,,,,,2024-08-13,1,,,,,アカイクツキネンブンカジギョウダン,0
867,4030001161784,新規,0,2024-08-13,2024-08-13,株式会社ｆａｖｆａｂｒｉｃａｔｅ,,株式会社,埼玉県,東松山市,大字宮鼻１０１９－５,,11,212,3550045,,,,,,,2024-08-13,1,,,,,ファボファブリケイト,0
883,4040001134830,新規,0,2024-08-13,2024-08-13,泰吉株式会社,,株式会社,千葉県,市川市,市川３丁目７番７－２０３号,,12,203,2720034,,,,,,,2024-08-13,1,,,,,タイキチ,0
886,4050001055225,新規,0,2024-08-13,2024-08-13,株式会社ライフテック,,株式会社,茨城県,つくば市,観音台１丁目１４番地３－２０２号室,,08,220,3050856,,,,,,,2024-08-13,1,,,,,ライフテック,0
887,4050001055233,新規,0,2024-08-13,2024-08-13,株式会社タラザキワークス,,株式会社,茨城県,ひたちなか市,大字足崎６２１番地,,08,221,3120003,,,,,,,2024-08-13,1,,,,,タラザキワークス,0
888,4050001055241,新規,0,2024-08-13,2024-08-13,株式会社翔和管財,,株式会社,茨城県,常総市,水海道天満町４８０９－２,,08,211,3030034,,,,,,,2024-08-13,1,,,,,ショウワカンザイ,0
891,4060001037395,新規,0,2024-08-13,2024-08-13,株式会社那珂川サンライズ,,株式会社,栃木県,那須郡那珂川町,北向田５６８番地,,09,411,3240617,,,,,,,2024-08-13,1,,,,,ナカガワサンライズ,0
892,4060003005202,新規,0,2024-08-13,2024-08-13,ＯＲＩＧＡＭＩ　Ｂｉｒｄ合同会社,,合同会社,栃木県,宇都宮市,花房３丁目１番３号,,09,201,3200827,,,,,,,2024-08-13,1,,,,,オリガミバード,0
893,4070001042080,新規,0,2024-08-13,2024-08-13,株式会社ツーアール,,株式会社,群馬県,伊勢崎市,末広町１３９番地５,,10,204,3720057,,,,,,,2024-08-13,1,,,,,ツーアール,0
901,4100001037721,新規,0,2024-08-13,2024-08-13,カケン商事株式会社,,株式会社,長野県,安曇野市,穂高柏原１０７４番地９,,20,220,3998304,,,,,,,2024-08-13,1,,,,,カケンショウジ,0
902,4100003007689,新規,0,2024-08-13,2024-08-13,合同会社ｈｉ‐ｋａ,,合同会社,長野県,諏訪市,大字中洲３１０９番地,,20,206,3920015,,,,,,,2024-08-13,1,,,,,ハイカ,0
917,4120001267366,新規,0,2024-08-13,2024-08-13,株式会社エルムスユナイテッド動物病院グループ,,株式会社,大阪府,大阪市北区,中之島６丁目２番２７号,,27,127,5300005,,,,,,,2024-08-13,1,,,,,エルムスユナイテッドドウブツビョウイングループ,0
918,4120001267416,新規,0,2024-08-13,2024-08-13,佐也株式会社,,株式会社,大阪府,大阪市住吉区,遠里小野７丁目７番２号,,27,120,5580032,,,,,,,2024-08-13,1,,,,,サヤ,0
919,4120001267523,新規,0,2024-08-13,2024-08-13,株式会社Ｆｉｖｅ　Ｓｔａｒパートナーズ,,株式会社,大阪府,大阪市北区,中崎西２丁目４－１２,,27,127,5300015,,,,,,,2024-08-13,1,,,,,ファイブスターパートナーズ,0
920,4120001267647,新規,0,2024-08-13,2024-08-13,兆三石株式会社,,株式会社,大阪府,大阪市淀川区,十三本町２丁目１１番３号２０２室,,27,123,5320024,,,,,,,2024-08-13,1,,,,,チョウサンセキ,0
921,4120001267671,新規,0,2024-08-13,2024-08-13,株式会社ＢＵＮＧＯ,,株式会社,大阪府,大阪市大正区,南恩加島３丁目１８番１０号,,27,108,5510021,,,,,,,2024-08-13,1,,,,,ブンゴ,0
922,4120001267762,新規,0,2024-08-13,2024-08-13,ＡＺＣホールディングス株式会社,,株式会社,大阪府,大阪市中央区,安土町２丁目４番６号,,27,128,5410052,,,,,,,2024-08-13,1,,,,,エーゼットシーホールディングス,0
926,4120003027223,新規,0,2024-08-13,2024-08-13,合同会社ＵＥｉＱクリエーション,,合同会社,大阪府,大阪市中央区,大手前１丁目６番３号,,27,128,5400008,,,,,,,2024-08-13,1,,,,,ウエイククリエーション,0
933,4122001038350,新規,0,2024-08-13,2024-08-13,株式会社ＳＯＮＯ‐ＰＲＯ,,株式会社,大阪府,東大阪市,横枕西６番１７号,,27,227,5780956,,,,,,,2024-08-13,1,,,,,ソノプロ,0
935,4130003009765,新規,0,2024-08-13,2024-08-13,合同会社デジタルアシスト,,合同会社,京都府,木津川市,山城町上狛山神１０番地２ＦＥＬＩＣＩＴＡ２０２号,,26,214,6190204,,,,,,,2024-08-13,1,,,,,デジタルアシスト,0
937,4140001135513,新規,0,2024-08-13,2024-08-13,株式会社Ｂｒｉｓｖｉｌ,,株式会社,兵庫県,伊丹市,梅ノ木３丁目２番２号,,28,207,6640856,,,,,,,2024-08-13,1,,,,,ブリスヴィル,0
938,4140001135521,新規,0,2024-08-13,2024-08-13,株式会社Ｅｇｒｕ,,株式会社,兵庫県,神戸市中央区,古湊通１丁目２－１５モアライフ神戸４０３,,28,110,6500026,,,,,,,2024-08-13,1,,,,,エグ,0
940,4140003020960,新規,0,2024-08-13,2024-08-13,ＫＰＩＣ合同会社,,合同会社,兵庫県,神戸市中央区,港島中町６丁目２番地の１神戸パークシティ２号棟９０２号,,28,110,6500046,,,,,,,2024-08-13,1,,,,,ケイピーアイシー,0
944,4160005011329,新規,0,2024-08-13,2024-08-13,一般社団法人森林緑地菌類研究所,,その他の設立登記法人,滋賀県,甲賀市,信楽町牧１０５８番地１７マンション内裏野Ｉ－７,00135932,25,209,5291803,,,,,,,2024-08-13,1,,,,,シンリンリョクチキンルイケンキュウショ,0
951,4180001162669,新規,0,2024-08-13,2024-08-13,株式会社Ｙ’Ｓ,,株式会社,愛知県,東海市,加木屋町白拍子１３２番地７,,23,222,4770032,,,,,,,2024-08-13,1,,,,,ワイズ,0
952,4180001162751,新規,0,2024-08-13,2024-08-13,ジェンティル株式会社,,株式会社,愛知県,稲沢市,日下部西町２丁目１０２番地１,,23,220,4928185,,,,,,,2024-08-13,1,,,,,ジェンティル,0
953,4180001162784,新規,0,2024-08-13,2024-08-13,株式会社晴耕企画,,株式会社,愛知県,名古屋市天白区,植田山１丁目５２２番地,,23,116,4680001,,,,,,,2024-08-13,1,,,,,セイコウキカク,0
954,4180001162834,新規,0,2024-08-13,2024-08-13,株式会社黒建,,株式会社,愛知県,半田市,岩滑高山町３丁目１１７番地の４,,23,205,4750962,,,,,,,2024-08-13,1,,,,,クロケン,0
955,4180001162842,新規,0,2024-08-13,2024-08-13,株式会社ＷＯＲＫＳ　ＭＥＴＡＬ,,株式会社,愛知県,名古屋市守山区,元郷２丁目１３０８番地,,23,113,4630025,,,,,,,2024-08-13,1,,,,,ワークスメタル,0
956,4180001162867,新規,0,2024-08-13,2024-08-13,株式会社ＭＴＳ,,株式会社,愛知県,春日井市,松河戸町２丁目５番地８,,23,206,4860932,,,,,,,2024-08-13,1,,,,,エムティーエス,0
957,4180001162875,新規,0,2024-08-13,2024-08-13,株式会社ＫＡＮＡＬＡＮＩ,,株式会社,愛知県,春日井市,瑞穂通７丁目１１番地２,,23,206,4860845,,,,,,,2024-08-13,1,,,,,カナラニ,0
960,4180003027201,新規,0,2024-08-13,2024-08-13,二四五家合同会社,,合同会社,愛知県,名古屋市緑区,鳴海町字山下２番地４,,23,114,4580801,,,,,,,2024-08-13,1,,,,,ニシゴヤ,0
961,4180003027242,新規,0,2024-08-13,2024-08-13,プロデモリューション合同会社,,合同会社,愛知県,名古屋市中村区,名駅４丁目２４番５号第２森ビル４０１,,23,105,4500002,,,,,,,2024-08-13,1,,,,,プロデモリューション,0
965,4180303006227,新規,0,2024-08-13,2024-08-13,合同会社ｓｃｈａｓｔｙｅ,,合同会社,愛知県,安城市,桜井町印内南分７６－２,,23,212,4441154,,,,,,,2024-08-13,1,,,,,シャースチェ,0
967,4190001031567,新規,0,2024-08-13,2024-08-13,株式会社花いちめん,,株式会社,三重県,桑名市,大字安永９６８番地,,24,205,5110839,,,,,,,2024-08-13,1,,,,,ハナイチメン,0
969,4200001042819,新規,0,2024-08-13,2024-08-13,株式会社志貴,,株式会社,岐阜県,各務原市,前渡東町８丁目５８番地,,21,213,5040922,,,,,,,2024-08-13,1,,,,,シキ,0
971,4200003006458,新規,0,2024-08-13,2024-08-13,合同会社ＮＢ企画,,合同会社,岐阜県,山県市,高木１１８６番地,,21,215,5012113,,,,,,,2024-08-13,1,,,,,エヌビーキカク,0
973,4210003001821,新規,0,2024-08-13,2024-08-13,合同会社ＫＴコーポレーション,,合同会社,福井県,越前市,味真野町第８号３２番地の１１,,18,209,9150025,,,,,,,2024-08-13,1,,,,,ケーティーコーポレーション,0
978,4220001026159,新規,0,2024-08-13,2024-08-13,ＫＯＭＡＣＨＩ　ＢＡＳＥ株式会社,,株式会社,石川県,金沢市,東山３丁目１１‐２１,,17,201,9200831,,,,,,,2024-08-13,1,,,,,コマチベース,0
979,4220003003817,新規,0,2024-08-13,2024-08-13,合同会社川島商事,,合同会社,石川県,白山市,宮丸町１１９４番地１,,17,210,9240033,,,,,,,2024-08-13,1,,,,,カワシマショウジ,0
987,4240001063687,新規,0,2024-08-13,2024-08-13,株式会社泰雅建設,,株式会社,広島県,広島市佐伯区,城山１丁目１４番６－１０２号,,34,108,7315155,,,,,,,2024-08-13,1,,,,,タイガケンセツ,0
988,4240001063695,新規,0,2024-08-13,2024-08-13,扶桑ソリューションズ株式会社,,株式会社,広島県,広島市安佐南区,高取南３丁目２２番１２号,,34,105,7310142,,,,,,,2024-08-13,1,,,,,フソウソリューションズ,0
989,4240001063712,新規,0,2024-08-13,2024-08-13,都株式会社,,株式会社,広島県,広島市中区,薬研堀１番３－３０５号,,34,101,7300027,,,,,,,2024-08-13,1,,,,,ミヤコ,0
992,4240003006792,新規,0,2024-08-13,2024-08-13,合同会社Ｌｕｘ　Ｐｒｏｇｒｅｓ,,合同会社,広島県,尾道市,因島中庄町５０６６番地３,,34,205,7222211,,,,,,,2024-08-13,1,,,,,ラックスプログレス,0
993,4260001039363,新規,0,2024-08-13,2024-08-13,株式会社ＨＲＥＲＢ,,株式会社,岡山県,倉敷市,老松町３丁目１５番３４号,,33,202,7100826,,,,,,,2024-08-13,1,,,,,エイチアールイーアールビー,0
994,4260003004860,新規,0,2024-08-13,2024-08-13,浩洋合同会社,,合同会社,岡山県,備前市,日生町日生２４１番地９５マリンキャット１０１号,,33,211,7013204,,,,,,,2024-08-13,1,,,,,コウヨウ,0
995,4270003001659,新規,0,2024-08-13,2024-08-13,ｒｏｏｍｉｎ合同会社,,合同会社,鳥取県,米子市,米原８丁目６番４４号Ａ２０３号,,31,202,6830804,,,,,,,2024-08-13,1,,,,,ルーミン,0
997,4290001106581,新規,0,2024-08-13,2024-08-13,株式会社河野屋,,株式会社,福岡県,古賀市,日吉１丁目８番２１号,,40,223,8113106,,,,,,,2024-08-13,1,,,,,カワノヤ,0
998,4290001106631,新規,0,2024-08-13,2024-08-13,三すい株式会社,,株式会社,福岡県,福岡市博多区,吉塚１丁目２２番３７－１号,,40,132,8120041,,,,,,,2024-08-13,1,,,,,サンスイ,0
999,4290001106648,新規,0,2024-08-13,2024-08-13,株式会社ＡＲＫ‐ｂｅ,,株式会社,福岡県,福岡市博多区,麦野４丁目２９番２３号,,40,132,8120882,,,,,,,2024-08-13,1,,,,,アークビー,0
1000,4290001106656,新規,0,2024-08-13,2024-08-13,株式会社Ｋ電興,,株式会社,福岡県,福岡市南区,老司５丁目１５番４号,,40,134,8111346,,,,,,,2024-08-13,1,,,,,ケイデンコウ,0
1001,4290001106664,新規,0,2024-08-13,2024-08-13,株式会社ＭＬＤ　ＳＵＰＰＯＲＴ,,株式会社,福岡県,福岡市中央区,今泉１丁目２０番６－７０１号,,40,133,8100021,,,,,,,2024-08-13,1,,,,,,0
1003,4290003015566,新規,0,2024-08-13,2024-08-13,合同会社とくラボ,,合同会社,福岡県,春日市,須玖北２丁目１３フォレスタ春日４０２,,40,218,8160864,,,,,,,2024-08-13,1,,,,,,0
1004,4290003015599,新規,0,2024-08-13,2024-08-13,ハッピースター合同会社,,合同会社,福岡県,久留米市,北野町高良３１３番地５,,40,203,8301114,,,,,,,2024-08-13,1,,,,,ハッピースター,0
1005,4290003015624,新規,0,2024-08-13,2024-08-13,紀雲合同会社,,合同会社,福岡県,福岡市早良区,飯倉３丁目４５－１７ファミールハピネス原２０８号室,,40,137,8140161,,,,,,,2024-08-13,1,,,,,,0
1007,4290801030790,新規,0,2024-08-13,2024-08-13,井上商事株式会社,,株式会社,福岡県,豊前市,大字八屋１８１５番地１,,40,214,8280021,,,,,,,2024-08-13,1,,,,,イノウエショウジ,0
1008,4290803004818,新規,0,2024-08-13,2024-08-13,ＯＮＥ　ＳＴＹＬＥホールディングス合同会社,,合同会社,福岡県,北九州市小倉北区,浅野３丁目８－１ＡＩＭビル６階ＣＯＭＰＡＳＳ小倉,,40,106,8020001,,,,,,,2024-08-13,1,,,,,ワンスタイルホールディングス,0
1009,4300003002166,新規,0,2024-08-13,2024-08-13,合同会社ＳＫＹエステート,,合同会社,佐賀県,伊万里市,立花町１２７５番地,,41,205,8480027,,,,,,,2024-08-13,1,,,,,スカイエステート,0
1012,4310003004839,新規,0,2024-08-13,2024-08-13,合同会社アットホームクリーン,,合同会社,長崎県,諫早市,福田町３２５４番地４,,42,204,8540001,,,,,,,2024-08-13,1,,,,,アットホームクリーン,0
1014,4320001020655,新規,0,2024-08-13,2024-08-13,株式会社ＭＥＴＡＥＬＥ,,株式会社,大分県,大分市,横塚２丁目２番２号,,44,201,8700254,,,,,,,2024-08-13,1,,,,,メタエレ,0
1018,4330001032344,新規,0,2024-08-13,2024-08-13,株式会社ＲＯＯＴＵＳ,,株式会社,熊本県,熊本市中央区,上林町３番３９号,,43,101,8600847,,,,,,,2024-08-13,1,,,,,ルータス,0
1019,4330001032377,新規,0,2024-08-13,2024-08-13,ＭＲＡホールディングス株式会社,,株式会社,熊本県,熊本市西区,花園１丁目２０番６６号,,43,103,8600072,,,,,,,2024-08-13,1,,,,,エムアールエーホールディングス,0
1023,4360001034057,新規,0,2024-08-13,2024-08-13,株式会社ＲａｍｅｎＧｏ,,株式会社,沖縄県,うるま市,字赤道５７３番地４,,47,213,9042245,,,,,,,2024-08-13,1,,,,,ラーメンゴー,0
1024,4360001034073,新規,0,2024-08-13,2024-08-13,株式会社プティ・シャトン,,株式会社,沖縄県,那覇市,牧志２丁目１７番２７号－４０１,,47,201,9000013,,,,,,,2024-08-13,1,,,,,プティシャトン,0
1025,4360003014206,新規,0,2024-08-13,2024-08-13,ＶＡＳＥ合同会社,,合同会社,沖縄県,那覇市,字安里９－１マンションまさひろ９０７,,47,201,9020067,,,,,,,2024-08-13,1,,,,,ベース,0
1027,4370003006722,新規,0,2024-08-13,2024-08-13,合同会社ディライト,,合同会社,宮城県,仙台市若林区,かすみ町６番１号,,04,103,9840822,,,,,,,2024-08-13,1,,,,,ディライト,0
1046,4430001092444,新規,0,2024-08-13,2024-08-13,株式会社ネイト,,株式会社,北海道,札幌市清田区,清田五条２丁目３６番５号,,01,110,0040845,,,,,,,2024-08-13,1,,,,,ネイト,0
1047,4430001092460,新規,0,2024-08-13,2024-08-13,株式会社Ｔ‐Ｗｏｒｘ,,株式会社,北海道,札幌市白石区,菊水五条２丁目４番２３号パークヒルズ菊水１Ｆ,,01,104,0030805,,,,,,,2024-08-13,1,,,,,ティーワークス,0
1048,4430001092477,新規,0,2024-08-13,2024-08-13,株式会社地域水力エネルギー,,株式会社,北海道,札幌市中央区,北五条西２丁目５番地ＪＲタワーオフィスプラザさっぽろ２０階,,01,101,0600005,,,,,,,2024-08-13,1,,,,,チイキスイリョクエネルギー,0
1059,4440003001617,新規,0,2024-08-13,2024-08-13,合同会社クジラの歌,,合同会社,北海道,茅部郡森町,字尾白内町１００２番地１,,01,345,0492301,,,,,,,2024-08-13,1,,,,,クジラノウタ,0
1063,4470003002637,新規,0,2024-08-13,2024-08-13,共創ＤＡＯ合同会社,,合同会社,香川県,高松市,番町２丁目８の２５番町ハイム４０２,,37,201,7600017,,,,,,,2024-08-13,1,,,,,キョウソウダオ,0
1065,4480001012570,新規,0,2024-08-13,2024-08-13,キタトレーニングセンター株式会社,,株式会社,徳島県,徳島市,庄町３丁目１６番地,,36,201,7700044,,,,,,,2024-08-13,1,,,,,キタトレーニングセンター,0
1079,5010005038609,新規,0,2024-08-13,2024-08-13,行政書士法人トライ国際法務,,その他の設立登記法人,東京都,千代田区,東神田２丁目９番６号,,13,101,1010031,,,,,,,2024-08-13,1,,,,,トライコクサイホウム,0
1080,5010005038625,新規,0,2024-08-13,2024-08-13,一般社団法人経済安全保障連携協議会,,その他の設立登記法人,東京都,千代田区,丸の内３丁目３番１号新東京ビル,,13,101,1000005,,,,,,,2024-08-13,1,,,,,ケイザイアンゼンホショウレンケイキョウギカイ,0
1084,5010401184378,新規,0,2024-08-13,2024-08-13,株式会社クラウドイノベーション,,株式会社,東京都,港区,新橋１丁目１２番９号新橋プレイス６Ｆ・７Ｆ・８Ｆ,,13,103,1050004,,,,,,,2024-08-13,1,,,,,クラウドイノベーション,0
1087,5010503007544,新規,0,2024-08-13,2024-08-13,合同会社稲香,,合同会社,東京都,台東区,台東３丁目５番１０号１０２－２Ｔダイアパレス御徒町第３,,13,106,1100016,,,,,,,2024-08-13,1,,,,,トウショウ,0
1100,5011001163895,新規,0,2024-08-13,2024-08-13,株式会社ＪＣＳ,,株式会社,東京都,渋谷区,代々木１丁目２２番１号,,13,113,1510053,,,,,,,2024-08-13,1,,,,,ジェイシーエス,0
1101,5011001163904,新規,0,2024-08-13,2024-08-13,株式会社ＯＨＩＤＯＮ,,株式会社,東京都,渋谷区,代々木４丁目３０番５号フェニックス西参道タワー２３０４,,13,113,1510053,,,,,,,2024-08-13,1,,,,,オヒドン,0
1102,5011001163929,新規,0,2024-08-13,2024-08-13,株式会社Ｊｏｖａｎ,,株式会社,東京都,渋谷区,道玄坂１丁目１０番８号渋谷道玄坂東急ビル２Ｆ－Ｃ,,13,113,1500043,,,,,,,2024-08-13,1,,,,,ジョーバン,0
1103,5011001163937,新規,0,2024-08-13,2024-08-13,株式会社Ｎｕｉｉ,,株式会社,東京都,目黒区,自由が丘１丁目２２番５号東横タウンビル１０１,,13,110,1520035,,,,,,,2024-08-13,1,,,,,ニュイ,0
1104,5011001163978,新規,0,2024-08-13,2024-08-13,株式会社ＰＲＩＺＭＡ,,株式会社,東京都,渋谷区,渋谷２丁目６番１４号,,13,113,1500002,,,,,,,2024-08-13,1,,,,,プリズマ,0
1105,5011001164019,新規,0,2024-08-13,2024-08-13,スタートアップアシスト株式会社,,株式会社,東京都,渋谷区,渋谷２丁目１９－１５宮益坂ビルディング６０９,,13,113,1500002,,,,,,,2024-08-13,1,,,,,スタートアップアシスト,0
1111,5011003019732,新規,0,2024-08-13,2024-08-13,合同会社Ｎｅｏ’ｎ,,合同会社,東京都,渋谷区,神宮前６丁目２３番４号桑野ビル２階,,13,113,1500001,,,,,,,2024-08-13,1,,,,,ネオン,0
1112,5011003019740,新規,0,2024-08-13,2024-08-13,合同会社ＩＷＳＤ,,合同会社,東京都,渋谷区,恵比寿西２丁目４番８号ウィンド恵比寿ビル８Ｆ,,13,113,1500021,,,,,,,2024-08-13,1,,,,,アイワスッド,0
1113,5011003019757,新規,0,2024-08-13,2024-08-13,合同会社Ｋ‐Ｂｉｚサポート,,合同会社,東京都,渋谷区,本町２丁目２２番１２号,,13,113,1510071,,,,,,,2024-08-13,1,,,,,ケービズサポート,0
1114,5011003019773,新規,0,2024-08-13,2024-08-13,合同会社ＥＳＲ８,,合同会社,東京都,目黒区,上目黒１丁目２３番１号中目黒アリーナ４０５号室,,13,110,1530051,,,,,,,2024-08-13,1,,,,,イーエスアールエイト,0
1116,5011101108247,新規,0,2024-08-13,2024-08-13,株式会社ｔｋｒ,,株式会社,東京都,新宿区,新宿１丁目３６番２号新宿第七葉山ビル３Ｆ,,13,104,1600022,,,,,,,2024-08-13,1,,,,,ティーケーアール,0
1119,5011401026355,新規,0,2024-08-13,2024-08-13,株式会社ユニコール,,株式会社,東京都,板橋区,東新町２丁目２３番４号パークサイド城北２０６,,13,119,1740074,,,,,,,2024-08-13,1,,,,,ユニコール,0
1125,5011501031032,新規,0,2024-08-13,2024-08-13,プラチナホーム株式会社,,株式会社,東京都,北区,赤羽台１丁目３番８－１００４号,,13,117,1150053,,,,,,,2024-08-13,1,,,,,プラチナホーム,0
1126,5011503006164,新規,0,2024-08-13,2024-08-13,合同会社ネットキャンズ,,合同会社,東京都,北区,滝野川５丁目２２番１２号,,13,117,1140023,,,,,,,2024-08-13,1,,,,,ネットキャンズ,0
1132,5011701027524,新規,0,2024-08-13,2024-08-13,株式会社ＳＩＫＩ,,株式会社,東京都,江戸川区,下篠崎町７番５号,,13,123,1330064,,,,,,,2024-08-13,1,,,,,シキ,0
1136,5012401042169,新規,0,2024-08-13,2024-08-13,株式会社ＯＵＲ　ＤＩＮＩＮＧ,,株式会社,東京都,武蔵野市,吉祥寺本町２丁目１９番７号２階,,13,203,1800004,,,,,,,2024-08-13,1,,,,,アワーダイニング,0
1143,5013101009490,新規,0,2024-08-13,2024-08-13,株式会社Ｈａｒｕｌｅａｄ,,株式会社,東京都,福生市,加美平３丁目３０番地１０,,13,218,1970012,,,,,,,2024-08-13,1,,,,,ハルリード,0
1147,5013303007251,新規,0,2024-08-13,2024-08-13,合同会社ジロウ,,合同会社,東京都,豊島区,南大塚１丁目５１番１７号アパルトマン喜美よし５０２号,,13,116,1700005,,,,,,,2024-08-13,1,,,,,ジロウ,0
1149,5020001158418,新規,0,2024-08-13,2024-08-13,株式会社Ｐｉｘｅｌ,,株式会社,神奈川県,横浜市西区,浅間町１丁目４番３号,,14,103,2200072,,,,,,,2024-08-13,1,,,,,ピクセル,0
1150,5020001158459,新規,0,2024-08-13,2024-08-13,株式会社Ｗｒｉｇｈｔ　Ｆｌｙｅｒ,,株式会社,神奈川県,横浜市神奈川区,金港町５－１４クアドリフォリオ８階,,14,102,2210056,,,,,,,2024-08-13,1,,,,,ライトフライヤー,0
1151,5020001158491,新規,0,2024-08-13,2024-08-13,株式会社サトウ企業,,株式会社,神奈川県,川崎市川崎区,渡田新町２丁目３番４号,,14,131,2100844,,,,,,,2024-08-13,1,,,,,サトウキギョウ,0
1152,5020001158525,新規,0,2024-08-13,2024-08-13,株式会社ヴィアエッセンス,,株式会社,神奈川県,横浜市青葉区,新石川３丁目１５番１６号３０３号室,,14,117,2250003,,,,,,,2024-08-13,1,,,,,ヴィアエッセンス,0
1155,5020003026606,新規,0,2024-08-13,2024-08-13,合同会社Ｓｔａｙｔｕｎｅｄ,,合同会社,神奈川県,横浜市中区,相生町２丁目５０番地大和地所相生町ビル４０１,,14,104,2310012,,,,,,,2024-08-13,1,,,,,ステイチューンド,0
1156,5020003026614,新規,0,2024-08-13,2024-08-13,合同会社Ｆｅｌｉｃｅ,,合同会社,神奈川県,横浜市西区,北幸１丁目１１番１号水信ビル７階,,14,103,2200004,,,,,,,2024-08-13,1,,,,,フェリーチェ,0
1157,5020003026622,新規,0,2024-08-13,2024-08-13,合同会社日本ホリスティックアプローチ研究所,,合同会社,神奈川県,横浜市都筑区,東山田４丁目５番３－５１４号江澤方,,14,118,2240023,,,,,,,2024-08-13,1,,,,,ニホンホリスティックアプローチケンキュウジョ,0
1159,5021001082995,新規,0,2024-08-13,2024-08-13,株式会社オーサン,,株式会社,神奈川県,鎌倉市,台３丁目９番１５号,,14,204,2470061,,,,,,,2024-08-13,1,,,,,オーサン,0
1162,5021003014880,新規,0,2024-08-13,2024-08-13,リオーグジャパン合同会社,,合同会社,神奈川県,藤沢市,辻堂新町３丁目５番１９号,,14,205,2510042,,,,,,,2024-08-13,1,,,,,リオーグジャパン,0
1170,5030001161874,新規,0,2024-08-13,2024-08-13,株式会社ＲＳ,,株式会社,埼玉県,久喜市,栄１丁目１６番５号サンエスポワール２－１０３,,11,232,3400215,,,,,,,2024-08-13,1,,,,,アールエス,0
1171,5030001161899,新規,0,2024-08-13,2024-08-13,株式会社イシダ,,株式会社,埼玉県,和光市,下新倉３丁目９番８号,,11,229,3510111,,,,,,,2024-08-13,1,,,,,イシダ,0
1174,5040001134862,新規,0,2024-08-13,2024-08-13,株式会社フューチャーアーキテクト,,株式会社,千葉県,流山市,大字西深井１番地の３,,12,220,2700107,,,,,,,2024-08-13,1,,,,,フューチャーアーキテクト,0
1181,5050001055216,新規,0,2024-08-13,2024-08-13,ＳＴＫ未来農園株式会社,,株式会社,茨城県,つくば市,茎崎４４７番地１６１,,08,220,3001272,,,,,,,2024-08-13,1,,,,,エステイケーミライノウエン,0
1182,5050001055224,新規,0,2024-08-13,2024-08-13,株式会社ヌカガ,,株式会社,茨城県,神栖市,下幡木９７９番地,,08,232,3140131,,,,,,,2024-08-13,1,,,,,ヌカガ,0
1184,5050003008601,新規,0,2024-08-13,2024-08-13,合同会社ｓＴｍ,,合同会社,茨城県,土浦市,天川２丁目３番１２号,,08,203,3000818,,,,,,,2024-08-13,1,,,,,エスティーエム,0
1189,5060001037394,新規,0,2024-08-13,2024-08-13,株式会社ＭＯＴＯ　ＭＥＣ,,株式会社,栃木県,真岡市,下籠谷２８９８番地１３,,09,209,3214415,,,,,,,2024-08-13,1,,,,,モトメック,0
1191,5060005010240,新規,0,2024-08-13,2024-08-13,一般社団法人ＳＨＡＲＥＬＹ,,その他の設立登記法人,栃木県,宇都宮市,下栗町２２９２番地８,,09,201,3210923,,,,,,,2024-08-13,1,,,,,シェアリー,0
1194,5080401027381,新規,0,2024-08-13,2024-08-13,株式会社ユニオン小杉,,株式会社,静岡県,磐田市,掛塚１３４１,,22,211,4380234,,,,,,,2024-08-13,1,,,,,ユニオンコスギ,0
1196,5100001037712,新規,0,2024-08-13,2024-08-13,株式会社サントエナジーうえだ,,株式会社,長野県,上田市,大手１丁目１１番１６号,,20,203,3860024,,,,,,,2024-08-13,1,,,,,サントエナジーウエダ,0
1197,5100001037720,新規,0,2024-08-13,2024-08-13,ＨＡＫＵＢＡ　ＰＡＲＴＮＥＲ株式会社,,株式会社,長野県,北安曇郡白馬村,大字神城２７７２１番地３２５,,20,485,3999211,,,,,,,2024-08-13,1,,,,,ハクバパートナー,0
1198,5100003007696,新規,0,2024-08-13,2024-08-13,合同会社ゼブニル,,合同会社,長野県,長野市,上松２丁目２１番８号ハイツ岡本２０１,,20,201,3800802,,,,,,,2024-08-13,1,,,,,ゼブニル,0
1203,5120001267670,新規,0,2024-08-13,2024-08-13,神高塗装株式会社,,株式会社,大阪府,大阪市淀川区,東三国３丁目１０番３号プライムハイツ新大阪８０６,,27,123,5320002,,,,,,,2024-08-13,1,,,,,カミタカトソウ,0
1204,5120001267687,新規,0,2024-08-13,2024-08-13,五芳斎ＪＡＰＡＮ株式会社,,株式会社,大阪府,大阪市中央区,谷町３丁目１番２５－８０４号,,27,128,5400012,,,,,,,2024-08-13,1,,,,,ゴホウサイジャパン,0
1205,5120001267704,新規,0,2024-08-13,2024-08-13,株式会社ＯＭｅＤ,,株式会社,大阪府,大阪市西区,江戸堀３丁目１番１４－９１１号,,27,106,5500002,,,,,,,2024-08-13,1,,,,,オーエムイーディー,0
1206,5120001267712,新規,0,2024-08-13,2024-08-13,Ｌｉｆｅ　Ｓｕｐｐｏｒｔ株式会社,,株式会社,大阪府,大阪市福島区,吉野２丁目１５番２号,,27,103,5530006,,,,,,,2024-08-13,1,,,,,ライフサポート,0
1207,5120001267720,新規,0,2024-08-13,2024-08-13,株式会社誠建,,株式会社,大阪府,大阪市城東区,今福南４丁目６番２０－３１１号,,27,118,5360003,,,,,,,2024-08-13,1,,,,,セイケン,0
1212,5120101070132,新規,0,2024-08-13,2024-08-13,一番株式会社,,株式会社,大阪府,阪南市,貝掛６３番３号シーサイド貝掛Ｂ棟１０８号室,,27,232,5990231,,,,,,,2024-08-13,1,,,,,イチバン,0
1216,5130001077689,新規,0,2024-08-13,2024-08-13,大雄株式会社,,株式会社,京都府,宇治市,伊勢田町名木３丁目１番地の２４,,26,204,6110044,,,,,,,2024-08-13,1,,,,,ダイユウ,0
1220,5130003009764,新規,0,2024-08-13,2024-08-13,ａｔｅｌｉｅｒ　ｍｅｌｔｙ２５２合同会社,,合同会社,京都府,京都市北区,衣笠西開キ町２５番地２,,26,101,6038454,,,,,,,2024-08-13,1,,,,,アトリエメルティニーゴーニ,0
1224,5140001135487,新規,0,2024-08-13,2024-08-13,株式会社Ｌｉｅｒｒｅ,,株式会社,兵庫県,神戸市西区,櫨谷町寺谷１２４２－５８１,,28,111,6512231,,,,,,,2024-08-13,1,,,,,リエール,0
1225,5140001135504,新規,0,2024-08-13,2024-08-13,株式会社Ｐｌｕｓｒｉｅｎｔ,,株式会社,兵庫県,養父市,大屋町宮本１３４－２,,28,222,6670432,,,,,,,2024-08-13,1,,,,,プラスリエント,0
1226,5140003020951,新規,0,2024-08-13,2024-08-13,合同会社Ｔ．Ｎ．Ｋ．,,合同会社,兵庫県,南あわじ市,榎列松田７０２番地２,,28,224,6560427,,,,,,,2024-08-13,1,,,,,ティーエヌケー,0
1227,5140003020968,新規,0,2024-08-13,2024-08-13,合同会社ＮＩＣＯＴＯ,,合同会社,兵庫県,神戸市垂水区,千鳥が丘３丁目１８番８号,,28,108,6550011,,,,,,,2024-08-13,1,,,,,ニコト,0
1230,5140005027185,新規,0,2024-08-13,2024-08-13,一般社団法人ぐるりミライラボ,,その他の設立登記法人,兵庫県,尼崎市,東園田町２丁目９３番地の２,,28,202,6610953,,,,,,,2024-08-13,1,,,,,グルリミライラボ,0
1242,5180001162783,新規,0,2024-08-13,2024-08-13,株式会社Ｔ’ｓ,,株式会社,愛知県,名古屋市南区,宝生町１丁目２５番地,,23,112,4570828,,,,,,,2024-08-13,1,,,,,ティーズ,0
1243,5180001162825,新規,0,2024-08-13,2024-08-13,株式会社Ｊａｐａｎ警備,,株式会社,愛知県,津島市,西柳原町４丁目２０番地１,,23,208,4960047,,,,,,,2024-08-13,1,,,,,ジャパンケイビ,0
1250,5180003027209,新規,0,2024-08-13,2024-08-13,ＨＩＫＡＲＩ合同会社,,合同会社,愛知県,春日井市,瑞穂通７丁目８番地２,,23,206,4860845,,,,,,,2024-08-13,1,,,,,ヒカリ,0
1251,5180003027225,新規,0,2024-08-13,2024-08-13,合同会社ＧＯＡＴ,,合同会社,愛知県,清須市,春日流６５番地,,23,233,4520962,,,,,,,2024-08-13,1,,,,,ゴート,0
1260,5180301038972,新規,0,2024-08-13,2024-08-13,株式会社ＴＥＲＡ,,株式会社,愛知県,西尾市,徳永町北屋敷２１番地１,,23,213,4440315,,,,,,,2024-08-13,1,,,,,テラ,0
1262,5180303006226,新規,0,2024-08-13,2024-08-13,合同会社ちびＧＯ,,合同会社,愛知県,岡崎市,久後崎町字郷西９番地２,,23,202,4440851,,,,,,,2024-08-13,1,,,,,チビゴー,0
1263,5190001031566,新規,0,2024-08-13,2024-08-13,株式会社正宝産業,,株式会社,三重県,松阪市,久保町１０５５番地２３コーポ和院１Ｆ,,24,204,5150044,,,,,,,2024-08-13,1,,,,,セイホウサンギョウ,0
1264,5190003004768,新規,0,2024-08-13,2024-08-13,合同会社ななは,,合同会社,三重県,松阪市,大足町７３６番地２,,24,204,5150822,,,,,,,2024-08-13,1,,,,,ナナハ,0
1265,5200001042818,新規,0,2024-08-13,2024-08-13,株式会社中島興業,,株式会社,岐阜県,本巣郡北方町,北方２３２５番地,,21,421,5010431,,,,,,,2024-08-13,1,,,,,ナカシマコウギョウ,0
1266,5200001042834,新規,0,2024-08-13,2024-08-13,株式会社ＩＮＦＩＮＩＴＹ,,株式会社,岐阜県,岐阜市,北一色２丁目２番２４－３号,,21,201,5008227,,,,,,,2024-08-13,1,,,,,インフィニティ,0
1267,5200003006457,新規,0,2024-08-13,2024-08-13,合同会社ＴＹＧエフォート,,合同会社,岐阜県,可児郡御嵩町,中１４０６番地,,21,521,5050121,,,,,,,2024-08-13,1,,,,,ティーワイジーエフォート,0
1272,5240001063694,新規,0,2024-08-13,2024-08-13,株式会社ＳＥＭ,,株式会社,広島県,広島市安佐南区,山本新町３丁目２２番１５号,,34,105,7310139,,,,,,,2024-08-13,1,,,,,エスイーエム,0
1273,5240001063711,新規,0,2024-08-13,2024-08-13,ネクストホーム株式会社,,株式会社,広島県,広島市中区,富士見町９番１４－２０１号,,34,101,7300043,,,,,,,2024-08-13,1,,,,,ネクストホーム,0
1275,5250001001488,新規,0,2024-08-13,2024-08-13,株式会社二の宮,,株式会社,山口県,山口市,阿知須４８２３番地の５,,35,203,7541277,,,,,,,2024-08-13,1,,,,,ニノミヤ,0
1280,5290001106606,新規,0,2024-08-13,2024-08-13,株式会社千早フレア,,株式会社,福岡県,太宰府市,大佐野６丁目８番１４号,,40,221,8180134,,,,,,,2024-08-13,1,,,,,チハヤフレア,0
1281,5290001106688,新規,0,2024-08-13,2024-08-13,株式会社Ｓａｍｓｋｙ,,株式会社,福岡県,福岡市東区,香椎駅東４丁目５５番９号,,40,131,8130012,,,,,,,2024-08-13,1,,,,,サムスカイ,0
1282,5290001106952,新規,0,2024-08-13,2024-08-13,株式会社家ｔｏ不動産,,株式会社,福岡県,福岡市南区,野間３丁目４番７号,,40,134,8150041,,,,,,,2024-08-13,1,,,,,イエトフドウサン,0
1283,5290003015623,新規,0,2024-08-13,2024-08-13,ログコーポレーション合同会社,,合同会社,福岡県,福津市,日蒔野４丁目１８－９,,40,224,8113209,,,,,,,2024-08-13,1,,,,,,0
1285,5290801030781,新規,0,2024-08-13,2024-08-13,株式会社鞍手商会,,株式会社,福岡県,遠賀郡水巻町,伊左座３丁目８番１８号,,40,382,8070056,,,,,,,2024-08-13,1,,,,,クラテショウカイ,0
1294,5300003002165,新規,0,2024-08-13,2024-08-13,合同会社ＹＳコーポレーション,,合同会社,佐賀県,武雄市,武雄町大字永島１４５２９番地,,41,206,8430021,,,,,,,2024-08-13,1,,,,,ワイエスコーポレーション,0
1298,5310003004838,新規,0,2024-08-13,2024-08-13,合同会社紫雲山,,合同会社,長崎県,西海市,大瀬戸町瀬戸樫浦郷１７４２番地４,,42,212,8572302,,,,,,,2024-08-13,1,,,,,シウンザン,0
1299,5320001020670,新規,0,2024-08-13,2024-08-13,株式会社ＯＢＳクリエイト,,株式会社,大分県,大分市,今津留３丁目１番１号,,44,201,8700938,,,,,,,2024-08-13,1,,,,,オービーエスクリエイト,0
1301,5330003010520,新規,0,2024-08-13,2024-08-13,合同会社ＳＴＹＬＥ‐１,,合同会社,熊本県,上益城郡益城町,大字広崎梨木１２５２番１,,43,443,8612236,,,,,,,2024-08-13,1,,,,,スタイルワン,0
1305,5340001026708,新規,0,2024-08-13,2024-08-13,ＳＡＫＡＳＯＵ株式会社,,株式会社,鹿児島県,鹿屋市,笠之原町３７番３－１号,,46,203,8930023,,,,,,,2024-08-13,1,,,,,サカソウ,0
1306,5340003004570,新規,0,2024-08-13,2024-08-13,合同会社悠々スタジオ,,合同会社,鹿児島県,鹿児島市,牟礼岡３丁目１５番１４号,,46,201,8911306,,,,,,,2024-08-13,1,,,,,ユウユウスタジオ,0
1307,5340005009766,新規,0,2024-08-13,2024-08-13,特定非営利活動法人慈悲の学校＿啄塾,00135931,その他の設立登記法人,鹿児島県,鹿児島市,花尾町３８４１番地,,46,201,8911101,,,,,,,2024-08-13,1,,,,,ジヒノガッコウソッタクジュク,0
1308,5360001034072,新規,0,2024-08-13,2024-08-13,株式会社鶴亀本舗,,株式会社,沖縄県,沖縄市,登川１丁目２１－２４メゾンドリーム１０５,,47,211,9042142,,,,,,,2024-08-13,1,,,,,ツルカメホンポ,0
1310,5360005007074,新規,0,2024-08-13,2024-08-13,一般社団法人Ｅｃｏｌｏｇｉｃａｌ　Ｃｈｉｌｄ,,その他の設立登記法人,沖縄県,国頭郡恩納村,字恩名２４４３番１２,,47,311,9040400,,,,,,,2024-08-13,1,,,,,エコロジカルチャイルド,0
1311,5360005007090,新規,0,2024-08-13,2024-08-13,一般社団法人カルチャーパレット沖縄,,その他の設立登記法人,沖縄県,豊見城市,字我那覇１１０番地８,,47,212,9010231,,,,,,,2024-08-13,1,,,,,カルチャーパレットオキナワ,0
1312,5370001051595,新規,0,2024-08-13,2024-08-13,株式会社ベルマート,,株式会社,宮城県,仙台市青葉区,国見ケ丘３丁目８番地の１６,,04,101,9893201,,,,,,,2024-08-13,1,,,,,ベルマート,0
1313,5370001051637,新規,0,2024-08-13,2024-08-13,８ｏｙｏｌｏｚｕ株式会社,,株式会社,宮城県,仙台市青葉区,上杉５丁目３番２５―４０４号,,04,101,9800011,,,,,,,2024-08-13,1,,,,,ヤオヨロズ,0
1318,5380001034723,新規,0,2024-08-13,2024-08-13,株式会社ｄａｒ　ｆｒｕｔｏ,,株式会社,福島県,いわき市,常磐関船町１丁目６－１０,,07,204,9728318,,,,,,,2024-08-13,1,,,,,ダールフルート,0
1319,5380003005838,新規,0,2024-08-13,2024-08-13,合同会社ＴＭＮ,,合同会社,福島県,会津若松市,宮町４番４５号,,07,202,9650801,,,,,,,2024-08-13,1,,,,,ティーエムエヌ,0
1329,5430003016680,新規,0,2024-08-13,2024-08-13,合同会社つばきや商会,,合同会社,北海道,札幌市豊平区,月寒東五条１５丁目１５番２３号,,01,105,0620055,,,,,,,2024-08-13,1,,,,,ツバキヤショウカイ,0
1336,5460301005242,新規,0,2024-08-13,2024-08-13,株式会社シバタ,,株式会社,北海道,北見市,端野町緋牛内７８０番地２,,01,208,0992231,,,,,,,2024-08-13,1,,,,,シバタ,0
1338,5470001020334,新規,0,2024-08-13,2024-08-13,Ｒｅｆｃｏ株式会社,,株式会社,香川県,高松市,上天神町２６６番地,,37,201,7618056,,,,,,,2024-08-13,1,,,,,レフコ,0
1342,5490001010845,新規,0,2024-08-13,2024-08-13,株式会社ＲＥ‐Ｉ‐ＷＡ四国,,株式会社,高知県,高知市,竹島町８０番地１７コーポ岬２０２,,39,201,7808018,,,,,,,2024-08-13,1,,,,,レイワシコク,0
1345,5500001025817,新規,0,2024-08-13,2024-08-13,株式会社珠洲岬,,株式会社,愛媛県,松山市,高砂町２丁目１番地２７ゴールデンハイツ高砂１０１号,,38,201,7900822,,,,,,,2024-08-13,1,,,,,スズミサキ,0
1354,6010001247105,新規,0,2024-08-13,2024-08-13,株式会社ＤＲＩＳＴ　ＤＥＳＩＧＮ,,株式会社,東京都,中央区,銀座１丁目１２番４号Ｎ＆ＥＢＬＤ．６Ｆ,,13,102,1040061,,,,,,,2024-08-13,1,,,,,ドリストデザイン,0
1357,6010005038673,新規,0,2024-08-13,2024-08-13,ＥｄｇｅＣｏｎｎｅＸ　Ｊａｐａｎ　２一般社団法人,,その他の設立登記法人,東京都,千代田区,霞が関３丁目２番６号東京倶楽部ビルディング１１階,,13,101,1000013,,,,,,,2024-08-13,1,,,,,エッジコネックスジャパンツー,0
1359,6010401184360,新規,0,2024-08-13,2024-08-13,株式会社ＺＸ,,株式会社,東京都,港区,六本木４丁目３番１１号六本木ユニハウス２２３,,13,103,1060032,,,,,,,2024-08-13,1,,,,,ゼットエックス,0
1360,6010401184385,新規,0,2024-08-13,2024-08-13,株式会社エルプラス,,株式会社,東京都,港区,白金６丁目１６番２５号グランドメゾン白金の杜ザ・タワー１７１２号室,,13,103,1080072,,,,,,,2024-08-13,1,,,,,エルプラス,0
1361,6010403033219,新規,0,2024-08-13,2024-08-13,Ａｐｒｉｃｕｓ　Ｐａｒｔｎｅｒｓ合同会社,,合同会社,東京都,港区,北青山３丁目６番７号青山パラシオタワー１１階,,13,103,1070061,,,,,,,2024-08-13,1,,,,,アプリカスパートナーズ,0
1385,6011001163795,新規,0,2024-08-13,2024-08-13,ＥＡＲＥＮＤＥＬ株式会社,,株式会社,東京都,目黒区,碑文谷５丁目８－１２－４１４ウィルスクエア碑文谷,,13,110,1520003,,,,,,,2024-08-13,1,,,,,エアレンデル,0
1386,6011001163837,新規,0,2024-08-13,2024-08-13,株式会社ＳＯＭＡＴＯ,,株式会社,東京都,目黒区,柿の木坂２丁目２４番２３号,,13,110,1520022,,,,,,,2024-08-13,1,,,,,ソウマトウ,0
1387,6011001163878,新規,0,2024-08-13,2024-08-13,ビューティーサプライ株式会社,,株式会社,東京都,渋谷区,恵比寿西１丁目３番１１号ｂｅｌｌｅ恵比寿６０１号室,,13,113,1500021,,,,,,,2024-08-13,1,,,,,ビューティーサプライ,0
1388,6011001163911,新規,0,2024-08-13,2024-08-13,株式会社エノイ,,株式会社,東京都,渋谷区,神宮前１丁目１０番２３号ル・シャトーデフォンテーヌビル１Ｆ－１,,13,113,1500001,,,,,,,2024-08-13,1,,,,,エノイ,0
1389,6011001164050,新規,0,2024-08-13,2024-08-13,株式会社ＬｏｆｔｙＴｉｇｅｒ,,株式会社,東京都,渋谷区,渋谷２丁目１９番１５号宮益坂ビルディング６０９,,13,113,1500002,,,,,,,2024-08-13,1,,,,,ロフティタイガー,0
1390,6011003019731,新規,0,2024-08-13,2024-08-13,合同会社ＰＲＯＴＥＩＯＳ,,合同会社,東京都,渋谷区,神宮前４丁目２３番３号,,13,113,1500001,,,,,,,2024-08-13,1,,,,,プロティオス,0
1391,6011003019772,新規,0,2024-08-13,2024-08-13,合同会社ＥＳＲ７,,合同会社,東京都,目黒区,上目黒１丁目２３番１号中目黒アリーナ４０５号室,,13,110,1530051,,,,,,,2024-08-13,1,,,,,イーエスアールセブン,0
1392,6011003019814,新規,0,2024-08-13,2024-08-13,合同会社ウーシア,,合同会社,東京都,目黒区,目黒本町１丁目４番６号,,13,110,1520002,,,,,,,2024-08-13,1,,,,,ウーシア,0
1403,6011101108246,新規,0,2024-08-13,2024-08-13,株式会社ｔｂ,,株式会社,東京都,新宿区,新宿１丁目３６番２号新宿第七葉山ビル３Ｆ,,13,104,1600022,,,,,,,2024-08-13,1,,,,,ティービー,0
1404,6011101108345,新規,0,2024-08-13,2024-08-13,株式会社ｔｅｔｓｕｊｉｎ．ｊａｐａｎ,,株式会社,東京都,新宿区,西新宿６丁目２４番１号西新宿三井ビルディング１５Ｆ,,13,104,1600023,,,,,,,2024-08-13,1,,,,,テツジンジャパン,0
1410,6011401026346,新規,0,2024-08-13,2024-08-13,株式会社ジャパンパートナーグローバル,,株式会社,東京都,板橋区,大山東町３８－６,,13,119,1730014,,,,,,,2024-08-13,1,,,,,ジャパンパートナーグローバル,0
1415,6011501031031,新規,0,2024-08-13,2024-08-13,豊佳株式会社,,株式会社,東京都,荒川区,東尾久８丁目９番３号,,13,118,1160012,,,,,,,2024-08-13,1,,,,,トヨカカ,0
1417,6011801044633,新規,0,2024-08-13,2024-08-13,株式会社Ｋ３,,株式会社,東京都,足立区,栗原３丁目２５－１－５０２,,13,121,1230842,,,,,,,2024-08-13,1,,,,,ケースリー,0
1418,6011801044658,新規,0,2024-08-13,2024-08-13,賦雲株式会社,,株式会社,東京都,足立区,西新井本町４丁目２１－９,,13,121,1230845,,,,,,,2024-08-13,1,,,,,フウン,0
1419,6012301014044,新規,0,2024-08-13,2024-08-13,株式会社ホープ建装,,株式会社,東京都,町田市,鶴川２丁目１９番地２５,,13,209,1950061,,,,,,,2024-08-13,1,,,,,ホープケンソウ,0
1421,6012401042176,新規,0,2024-08-13,2024-08-13,株式会社ＧＩＶＥＲ,,株式会社,東京都,調布市,上石原３丁目１３番地３７,,13,208,1820035,,,,,,,2024-08-13,1,,,,,ギヴァー,0
1424,6012801023395,新規,0,2024-08-13,2024-08-13,株式会社ａｍｅｎｏｍｉ,,株式会社,東京都,国立市,中３丁目７－１７,,13,215,1860004,,,,,,,2024-08-13,1,,,,,アメノミ,0
1428,6013301052967,新規,0,2024-08-13,2024-08-13,株式会社奇貨可居,,株式会社,東京都,豊島区,巣鴨３丁目３番１号Ｙ．Ｙビル４０１号,,13,116,1700002,,,,,,,2024-08-13,1,,,,,キカカキョ,0
1429,6013303007250,新規,0,2024-08-13,2024-08-13,合同会社ＭＡＬＥ,,合同会社,東京都,豊島区,長崎１丁目１６－６コーポソフエ１０１,,13,116,1710051,,,,,,,2024-08-13,1,,,,,マール,0
1437,6020001158045,新規,0,2024-08-13,2024-08-13,株式会社四葉商事,,株式会社,神奈川県,川崎市宮前区,土橋２丁目１６番地１－３０３,,14,136,2160005,,,,,,,2024-08-13,1,,,,,ヨツバショウジ,0
1438,6020001158425,新規,0,2024-08-13,2024-08-13,株式会社ｒｏｍａ,,株式会社,神奈川県,横浜市西区,戸部町１丁目９番ＹＭビル２階,,14,103,2200042,,,,,,,2024-08-13,1,,,,,ロマ,0
1439,6020001158458,新規,0,2024-08-13,2024-08-13,ＫＥＥＰ　ＴＩＭＥ　ＢＩＯＴＥＣＨＮＯＬＯＧＹ　ＧＲＯＵＰ株式会社,,株式会社,神奈川県,川崎市川崎区,小田１丁目１５番５－４１０レーベン川崎小田一丁目,,14,131,2100846,,,,,,,2024-08-13,1,,,,,キープタイムバイオテクノロジーグループ,0
1440,6020001158516,新規,0,2024-08-13,2024-08-13,東京ＴＫインターナショナル株式会社,,株式会社,神奈川県,横浜市中区,住吉町１丁目１２番地５,,14,104,2310013,,,,,,,2024-08-13,1,,,,,トウキョウティーケーインターナショナル,0
1441,6020001158524,新規,0,2024-08-13,2024-08-13,株式会社爆腕,,株式会社,神奈川県,横浜市港北区,新横浜２丁目５番地２２エクセレントプラザ新横浜９０５号室,,14,109,2220033,,,,,,,2024-08-13,1,,,,,バクワン,0
1442,6020001158557,新規,0,2024-08-13,2024-08-13,リエレメント・テクノロジー・ジャパン株式会社,,株式会社,神奈川県,横浜市神奈川区,栄町５番地１横浜クリエーションスクエア１４階,,14,102,2210052,,,,,,,2024-08-13,1,,,,,リエレメントテクノロジージャパン,0
1443,6020001158763,新規,0,2024-08-13,2024-08-13,株式会社Ｓｅａ　Ｐｌａｎｎｉｎｇ,,株式会社,神奈川県,川崎市中原区,上小田中６丁目１０番１号,,14,133,2110053,,,,,,,2024-08-13,1,,,,,シープランニング,0
1445,6020003026613,新規,0,2024-08-13,2024-08-13,Ｔ．Ｐ合同会社,,合同会社,神奈川県,横浜市西区,花咲町４丁目１１１番地河原アパート２０２,,14,103,2200022,,,,,,,2024-08-13,1,,,,,ティーピー,0
1446,6020003026638,新規,0,2024-08-13,2024-08-13,ＵＭＲ合同会社,,合同会社,神奈川県,横浜市青葉区,しらとり台４９番地２８,,14,117,2270054,,,,,,,2024-08-13,1,,,,,ユーエムアール,0
1448,6021001082986,新規,0,2024-08-13,2024-08-13,アナザーハウス株式会社,,株式会社,神奈川県,鎌倉市,西鎌倉１丁目９番１３号,,14,204,2480035,,,,,,,2024-08-13,1,,,,,アナザーハウス,0
1449,6021001082994,新規,0,2024-08-13,2024-08-13,株式会社サクセス,,株式会社,神奈川県,大和市,上和田２４１２番地上和田団地１－９－３０１,,14,213,2420014,,,,,,,2024-08-13,1,,,,,サクセス,0
1451,6021003014888,新規,0,2024-08-13,2024-08-13,ＩＳＳＥＮ合同会社,,合同会社,神奈川県,三浦郡葉山町,上山口９０番地,,14,301,2400115,,,,,,,2024-08-13,1,,,,,,0
1456,6030001161923,新規,0,2024-08-13,2024-08-13,株式会社ＩＳ,,株式会社,埼玉県,さいたま市桜区,田島３丁目１４番２３－２号,,11,106,3380837,,,,,,,2024-08-13,1,,,,,アイエス,0
1471,6040003025530,新規,0,2024-08-13,2024-08-13,ＯＲＥＤＯ　Ｍａｒｉｎｅ合同会社,,合同会社,千葉県,松戸市,東松戸１丁目２２－１８,,12,207,2702225,,,,,,,2024-08-13,1,,,,,オレドマリン,0
1473,6050001055223,新規,0,2024-08-13,2024-08-13,株式会社ＫｏｏｏＨ　Ｃｒｅａｔｉｏｎｓ,,株式会社,茨城県,古河市,小堤６８番地１３,,08,204,3060231,,,,,,,2024-08-13,1,,,,,コウクリエイションズ,0
1474,6050001055231,新規,0,2024-08-13,2024-08-13,株式会社ＧＯＬＤ,,株式会社,茨城県,笠間市,赤坂２９番地４ガーデンロイヤルＡ棟２０２,,08,216,3091616,,,,,,,2024-08-13,1,,,,,ゴールド,0
1478,6060001037402,新規,0,2024-08-13,2024-08-13,株式会社宮建,,株式会社,栃木県,河内郡上三川町,大字ゆうきが丘６８番地２,,09,301,3290528,,,,,,,2024-08-13,1,,,,,ミヤケン,0
1483,6080101024950,新規,0,2024-08-13,2024-08-13,株式会社石川組,,株式会社,静岡県,富士宮市,杉田５３番地の１,,22,207,4180021,,,,,,,2024-08-13,1,,,,,イシカワグミ,0
1485,6080401027380,新規,0,2024-08-13,2024-08-13,株式会社中條メロン,,株式会社,静岡県,袋井市,見取１２７１番地,,22,216,4370005,,,,,,,2024-08-13,1,,,,,チュウジョウメロン,0
1489,6110001038626,新規,0,2024-08-13,2024-08-13,エヌケーテック新潟株式会社,,株式会社,新潟県,燕市,吉田法花堂１９４５,,15,213,9590214,,,,,,,2024-08-13,1,,,,,エヌケーテックニイガタ,0
1491,6110005017122,新規,0,2024-08-13,2024-08-13,一般社団法人安心相続支援,,その他の設立登記法人,新潟県,村上市,三之町９番３８号,,15,212,9580837,,,,,,,2024-08-13,1,,,,,アンシンソウゾクシエン,0
1501,6120001267637,新規,0,2024-08-13,2024-08-13,億呈通商株式会社,,株式会社,大阪府,大阪市浪速区,恵美須西２丁目９番３－１００２号,,27,111,5560003,,,,,,,2024-08-13,1,,,,,オクテイツウショウ,0
1502,6120001267645,新規,0,2024-08-13,2024-08-13,楽米株式会社,,株式会社,大阪府,大阪市東成区,中道４丁目１６番２１－４０９号,,27,115,5370025,,,,,,,2024-08-13,1,,,,,ラクマイ,0
1503,6120001267653,新規,0,2024-08-13,2024-08-13,新遠株式会社,,株式会社,大阪府,大阪市平野区,平野上町１丁目６番５号－３０５,,27,126,5470045,,,,,,,2024-08-13,1,,,,,シンエン,0
1504,6120001267678,新規,0,2024-08-13,2024-08-13,株式会社クローバーヘルスケア,,株式会社,大阪府,大阪市大正区,三軒家西３丁目１０番１９号,,27,108,5510001,,,,,,,2024-08-13,1,,,,,クローバーヘルスケア,0
1505,6120001267686,新規,0,2024-08-13,2024-08-13,株式会社Ｃａｆｔ,,株式会社,大阪府,大阪市住吉区,清水丘２丁目８番１６号,,27,120,5580033,,,,,,,2024-08-13,1,,,,,カフト,0
1509,6120003027295,新規,0,2024-08-13,2024-08-13,＿途合同会社,00135929,合同会社,大阪府,大阪市東成区,中道４丁目１６番２１－４０６号,,27,115,5370025,,,,,,,2024-08-13,1,,,,,エント,0
1512,6120005024489,新規,0,2024-08-13,2024-08-13,社会保険労務士法人Ｆｉｖｅ　Ｓｔａｒパートナーズ,,その他の設立登記法人,大阪府,大阪市北区,中崎西２丁目４番１２号梅田センタービル９階,,27,127,5300015,,,,,,,2024-08-13,1,,,,,ファイブスターパートナーズ,0
1518,6120903005301,新規,0,2024-08-13,2024-08-13,合同会社くるみ,,合同会社,大阪府,高槻市,若松町２７番１５号,,27,207,5690054,,,,,,,2024-08-13,1,,,,,クルミ,0
1519,6122001038365,新規,0,2024-08-13,2024-08-13,株式会社Ｔｉｌｅｍ,,株式会社,大阪府,八尾市,上之島町南４丁目３７番地の３２,,27,212,5810846,,,,,,,2024-08-13,1,,,,,ティラム,0
1523,6130001077671,新規,0,2024-08-13,2024-08-13,株式会社語瑾,,株式会社,京都府,京都市山科区,四ノ宮小金塚８番地６７４,00135915,26,110,6078022,,,,,,,2024-08-13,1,,,,,ゴキン,0
1530,6140001135486,新規,0,2024-08-13,2024-08-13,株式会社インターナショナルメディカルサポート,,株式会社,兵庫県,神戸市中央区,東町１２３番地の１,,28,110,6500031,,,,,,,2024-08-13,1,,,,,インターナショナルメディカルサポート,0
1535,6140005027184,新規,0,2024-08-13,2024-08-13,一般社団法人エルドール,,その他の設立登記法人,兵庫県,相生市,旭２丁目１９番７２号,,28,208,6780031,,,,,,,2024-08-13,1,,,,,エルドール,0
1538,6150003003335,新規,0,2024-08-13,2024-08-13,ＡＮ合同会社,,合同会社,奈良県,奈良市,学園南１丁目８番１８－１号,,29,201,6310034,,,,,,,2024-08-13,1,,,,,エーエヌ,0
1541,6170005007101,新規,0,2024-08-13,2024-08-13,医療法人生馬医院,,その他の設立登記法人,和歌山県,和歌山市,吉田４３６番地,,30,201,6408343,,,,,,,2024-08-13,1,,,,,イコマイイン,0
1548,6180001162700,新規,0,2024-08-13,2024-08-13,株式会社タネル,,株式会社,愛知県,名古屋市東区,東桜１丁目９番２６号,,23,102,4610005,,,,,,,2024-08-13,1,,,,,タネル,0
1549,6180001162824,新規,0,2024-08-13,2024-08-13,株式会社ＴｅＲＥＤＤｏ,,株式会社,愛知県,豊明市,二村台４丁目１０番地２３,,23,229,4701131,,,,,,,2024-08-13,1,,,,,テレッド,0
1550,6180003027166,新規,0,2024-08-13,2024-08-13,合同会社Ｈ＆Ｉ　ＣＯＭＰＡＮＹ,,合同会社,愛知県,尾張旭市,井田町３丁目６０番地ラビデンス尾張旭光和６１７号,,23,226,4880024,,,,,,,2024-08-13,1,,,,,エイチアンドアイカンパニー,0
1555,6190003004767,新規,0,2024-08-13,2024-08-13,初旭合同会社,,合同会社,三重県,伊勢市,辻久留町５４５‐７３,00135916,24,203,5160046,,,,,,,2024-08-13,1,,,,,ハツヒ,0
1561,6200003006464,新規,0,2024-08-13,2024-08-13,合同会社福よせカンパニー,,合同会社,岐阜県,海津市,平田町三郷１１７３番地,,21,221,5030312,,,,,,,2024-08-13,1,,,,,フクヨセカンパニー,0
1563,6220003003815,新規,0,2024-08-13,2024-08-13,合同会社ＴＥＡＭＹ　ＫＧ,,合同会社,石川県,加賀市,山代温泉北部１丁目４番地,,17,206,9220243,,,,,,,2024-08-13,1,,,,,チーミーカガ,0
1568,6240001063685,新規,0,2024-08-13,2024-08-13,株式会社５．ｉｎｋ,,株式会社,広島県,広島市中区,紙屋町２丁目３番２０号,,34,101,7300031,,,,,,,2024-08-13,1,,,,,ファイブドットインク,0
1569,6240001063693,新規,0,2024-08-13,2024-08-13,株式会社ＳＯＯＮ,,株式会社,広島県,東広島市,高屋町白市７７４番地８,,34,212,7392114,,,,,,,2024-08-13,1,,,,,スーン,0
1570,6240001063702,新規,0,2024-08-13,2024-08-13,株式会社ＹＳ,,株式会社,広島県,広島市南区,翠４丁目６番２２－５０１号,,34,103,7340005,,,,,,,2024-08-13,1,,,,,ワイエス,0
1571,6240001063710,新規,0,2024-08-13,2024-08-13,八方文化株式会社,,株式会社,広島県,広島市西区,庚午北２丁目１３番１１号,,34,104,7330821,,,,,,,2024-08-13,1,,,,,ハッポウブンカ,0
1574,6240003006808,新規,0,2024-08-13,2024-08-13,ひびきフローティングウィンドパワー合同会社,,合同会社,広島県,呉市,中通２丁目６番６号,,34,202,7370046,,,,,,,2024-08-13,1,,,,,ヒビキフローティングウィンドパワー,0
1576,6260001039361,新規,0,2024-08-13,2024-08-13,株式会社ＮＢＦパートナーズ,,株式会社,岡山県,倉敷市,児島下の町５丁目５番３号,,33,202,7110906,,,,,,,2024-08-13,1,,,,,エヌビーエフパートナーズ,0
1577,6270001009033,新規,0,2024-08-13,2024-08-13,米子メカエージェント株式会社,,株式会社,鳥取県,米子市,河崎２０４７番地６,,31,202,6830852,,,,,,,2024-08-13,1,,,,,ヨナゴメカエージェント,0
1578,6290001106571,新規,0,2024-08-13,2024-08-13,株式会社Ｔｏｉｖｏａｒｋ,,株式会社,福岡県,福岡市中央区,草香江２丁目１６番３３－７０２号,,40,133,8100045,,,,,,,2024-08-13,1,,,,,トイボアーク,0
1579,6290001106596,新規,0,2024-08-13,2024-08-13,オリオン企画株式会社,,株式会社,福岡県,福岡市早良区,城西２丁目１３番５２－７０６号,,40,137,8140003,,,,,,,2024-08-13,1,,,,,オリオンキカク,0
1580,6290001106638,新規,0,2024-08-13,2024-08-13,フクオカレンタカー株式会社,,株式会社,福岡県,太宰府市,大佐野１丁目１２番３号,,40,221,8180134,,,,,,,2024-08-13,1,,,,,フクオカレンタカー,0
1581,6290003015622,新規,0,2024-08-13,2024-08-13,ＺＥＲＯＯＮＥ合同会社,,合同会社,福岡県,福岡市博多区,千代４丁目２９－４６アストール博多ビル５０２,,40,132,8120044,,,,,,,2024-08-13,1,,,,,ゼロワン,0
1582,6290003015713,新規,0,2024-08-13,2024-08-13,Ｔ・Ｓ・Ｉ　ｃｏｍｐａｎｙ合同会社,,合同会社,福岡県,久留米市,城島町六町原３５４番地１,,40,203,8300206,,,,,,,2024-08-13,1,,,,,ティーエスアイカンパニー,0
1583,6290801030780,新規,0,2024-08-13,2024-08-13,株式会社真愛工業,,株式会社,福岡県,北九州市八幡西区,浅川日の峯２丁目２０番２１号,,40,109,8070876,,,,,,,2024-08-13,1,,,,,シンアイコウギョウ,0
1584,6290801030789,新規,0,2024-08-13,2024-08-13,株式会社豊正,,株式会社,福岡県,鞍手郡小竹町,大字勝野４０１０番地３,,40,401,8201103,,,,,,,2024-08-13,1,,,,,ホウセイ,0
1585,6290803004816,新規,0,2024-08-13,2024-08-13,合同会社賃貸管理サポートセンター,,合同会社,福岡県,北九州市小倉南区,沼緑町２丁目１０番７号,,40,107,8000207,,,,,,,2024-08-13,1,,,,,チンタイカンリサポートセンター,0
1586,6310001019168,新規,0,2024-08-13,2024-08-13,松風電設株式会社,,株式会社,長崎県,佐世保市,木風町７８７－７,,42,202,8571166,,,,,,,2024-08-13,1,,,,,マツカゼデンセツ,0
1587,6310003004837,新規,0,2024-08-13,2024-08-13,合同会社ｔｏｃｏｔｏｃｏｎｏｕｅｎ,,合同会社,長崎県,平戸市,田平町深月免１１７１－３,,42,207,8594813,,,,,,,2024-08-13,1,,,,,トコトコノウエン,0
1588,6320001020653,新規,0,2024-08-13,2024-08-13,株式会社秋吉工業,,株式会社,大分県,大分市,賀来北１丁目１７番２７号サンライト才賀ＩＩ１０１,00135930,44,201,8700848,,,,,,,2024-08-13,1,,,,,アキヨシコウギョウ,0
1589,6330001032342,新規,0,2024-08-13,2024-08-13,株式会社スカイ,,株式会社,熊本県,球磨郡あさぎり町,免田東３００３番地２６,,43,514,8680408,,,,,,,2024-08-13,1,,,,,スカイ,0
1590,6330001032350,新規,0,2024-08-13,2024-08-13,株式会社つなぎつくる,,株式会社,熊本県,葦北郡津奈木町,大字岩城１６０１番地,,43,484,8695603,,,,,,,2024-08-13,1,,,,,ツナギツクル,0
1591,6330001032359,新規,0,2024-08-13,2024-08-13,株式会社エクセルブレイン,,株式会社,熊本県,熊本市東区,西原３丁目１－５７－３Ｆ,,43,102,8618029,,,,,,,2024-08-13,1,,,,,エクセルブレイン,0
1596,6340003004561,新規,0,2024-08-13,2024-08-13,合同会社ｔａｋｅ,,合同会社,鹿児島県,薩摩川内市,宮崎町２０３２番地７,,46,215,8950013,,,,,,,2024-08-13,1,,,,,テイク,0
1598,6360001034055,新規,0,2024-08-13,2024-08-13,沖縄スペース株式会社,,株式会社,沖縄県,那覇市,久茂地１丁目１２番１２号ニッセイ那覇センタービル１０Ｆ,,47,201,9000015,,,,,,,2024-08-13,1,,,,,オキナワスペース,0
1599,6360003014212,新規,0,2024-08-13,2024-08-13,長田水産合同会社,,合同会社,沖縄県,南城市,知念字久原下後原２２６－７,,47,215,9011505,,,,,,,2024-08-13,1,,,,,ナガタスイサン,0
1600,6360003014220,新規,0,2024-08-13,2024-08-13,合同会社カイタク沖縄,,合同会社,沖縄県,中頭郡西原町,字池田１８２番地の５（池田ハイツＢ－８６）,,47,329,9030115,,,,,,,2024-08-13,1,,,,,カイタクオキナワ,0
1603,6370001051652,新規,0,2024-08-13,2024-08-13,株式会社ＮＩＩＳ,,株式会社,宮城県,遠田郡美里町,平針字中川前二番６０番地,,04,505,9870021,,,,,,,2024-08-13,1,,,,,エヌアイアイエス,0
1605,6370003006720,新規,0,2024-08-13,2024-08-13,デジタルライフデザイン合同会社,,合同会社,宮城県,宮城郡利府町,花園１丁目１１番地４,,04,406,9810132,,,,,,,2024-08-13,1,,,,,デジタルライフデザイン,0
1612,6410001013912,新規,0,2024-08-13,2024-08-13,株式会社ラクゼンドウ,,株式会社,秋田県,秋田市,新屋鳥木町４番２号,,05,201,0101633,,,,,,,2024-08-13,1,,,,,ラクゼンドウ,0
1616,6420003002978,新規,0,2024-08-13,2024-08-13,合同会社ｅｐｉｓ,,合同会社,青森県,八戸市,南類家２丁目１番３号ゴールデンアルト２０２,,02,203,0310004,,,,,,,2024-08-13,1,,,,,,0
1626,6430001092450,新規,0,2024-08-13,2024-08-13,株式会社恵大,,株式会社,北海道,恵庭市,黄金南４丁目２０番地１３,,01,231,0611409,,,,,,,2024-08-13,1,,,,,ケイダイ,0
1627,6430001092475,新規,0,2024-08-13,2024-08-13,株式会社ｍｇｓ,,株式会社,北海道,勇払郡むかわ町,生田２４８,,01,586,0540012,,,,,,,2024-08-13,1,,,,,エムジーエス,0
1634,6480001012569,新規,0,2024-08-13,2024-08-13,株式会社ｇｏｏｄ　ｂｅｉｎｇ,,株式会社,徳島県,徳島市,仲之町２丁目１４番地,,36,201,7700932,,,,,,,2024-08-13,1,,,,,グッドビーイング,0
1637,6500001025816,新規,0,2024-08-13,2024-08-13,株式会社ＳＥＣＯＮＤ　ＣＵＲＶＥ,,株式会社,愛媛県,松山市,鷹子町７８５番地３,,38,201,7900925,,,,,,,2024-08-13,1,,,,,セカンドカーブ,0
1638,6500001025824,新規,0,2024-08-13,2024-08-13,株式会社愛媛パートナーエステート,,株式会社,愛媛県,松山市,勝山町１丁目１６番地５,,38,201,7900878,,,,,,,2024-08-13,1,,,,,エヒメパートナーエステート,0
1652,7010105002289,新規,0,2024-08-13,2024-08-13,一般社団法人ＴＭＣ,,その他の設立登記法人,東京都,八王子市,南大沢５丁目１番地１－２１４,,13,201,1920364,,,,,,,2024-08-13,1,,,,,ティエムシー,0
1665,7010401184384,新規,0,2024-08-13,2024-08-13,株式会社ｖｉｓｕ,,株式会社,東京都,港区,高輪３丁目１０番１５号オープンレジデンシア高輪ザ・ハウス６０１,,13,103,1080074,,,,,,,2024-08-13,1,,,,,ビジュ,0
1666,7010401184392,新規,0,2024-08-13,2024-08-13,ＴＥＧ　ＬＥＤ　Ｓｏｌｕｔｉｏｎｓ株式会社,,株式会社,東京都,港区,芝公園４丁目２番８号日本電波塔ビルディング４階,,13,103,1050011,,,,,,,2024-08-13,1,,,,,テグレッドソリューションズ,0
1667,7010403033218,新規,0,2024-08-13,2024-08-13,グローバルプロパティーズ合同会社,,合同会社,東京都,港区,白金１丁目２－１－Ｅ２６０４,,13,103,1080072,,,,,,,2024-08-13,1,,,,,グローバルプロパティーズ,0
1668,7010403033226,新規,0,2024-08-13,2024-08-13,合同会社Ｍｒ．Ｓｎｏｗ,,合同会社,東京都,港区,北青山１丁目３番１号アールキューブ青山３階,,13,103,1070061,,,,,,,2024-08-13,1,,,,,ミスタースノー,0
1675,7010601065731,新規,0,2024-08-13,2024-08-13,チタンズジャパン株式会社,,株式会社,東京都,江東区,潮見１丁目２８番１号,,13,108,1350052,,,,,,,2024-08-13,1,,,,,チタンズジャパン,0
1677,7010603011023,新規,0,2024-08-13,2024-08-13,合同会社ハルメゾン,,合同会社,東京都,墨田区,石原１丁目２６番１－４０１号佐川ビル,,13,107,1300011,,,,,,,2024-08-13,1,,,,,ハルメゾン,0
1681,7010701046367,新規,0,2024-08-13,2024-08-13,株式会社トレフィールドＨＤ,,株式会社,東京都,品川区,中延３丁目６番８号,,13,109,1420053,,,,,,,2024-08-13,1,,,,,トレフィールドホールディングス,0
1685,7010901055779,新規,0,2024-08-13,2024-08-13,株式会社ソルビス,,株式会社,東京都,世田谷区,太子堂２丁目１７－５佐藤ビル３階,,13,112,1540004,,,,,,,2024-08-13,1,,,,,ソルビス,0
1690,7011001163852,新規,0,2024-08-13,2024-08-13,ＷｈｉｔｅＨａｔＡＩ株式会社,,株式会社,東京都,渋谷区,富ヶ谷２丁目１４番１９号,,13,113,1510063,,,,,,,2024-08-13,1,,,,,ホワイトハットエーアイ,0
1691,7011001163910,新規,0,2024-08-13,2024-08-13,株式会社幻冬舎フィルム,,株式会社,東京都,渋谷区,千駄ヶ谷４丁目９番７号,,13,113,1510051,,,,,,,2024-08-13,1,,,,,ゲントウシャフィルム,0
1692,7011001163927,新規,0,2024-08-13,2024-08-13,株式会社ＳＷＡＰ,,株式会社,東京都,目黒区,目黒１丁目７番７号,,13,110,1530063,,,,,,,2024-08-13,1,,,,,スワップ,0
1693,7011001163968,新規,0,2024-08-13,2024-08-13,株式会社ＡＲＳコンサルティング,,株式会社,東京都,目黒区,中町１丁目２２番１号,,13,110,1530065,,,,,,,2024-08-13,1,,,,,アルスコンサルティング,0
1694,7011003019771,新規,0,2024-08-13,2024-08-13,合同会社ＥＳＲ６,,合同会社,東京都,目黒区,上目黒１丁目２３番１号中目黒アリーナ４０５号室,,13,110,1530051,,,,,,,2024-08-13,1,,,,,イーエスアールシックス,0
1695,7011003019821,新規,0,2024-08-13,2024-08-13,合同会社Ｌｉｎｋ,,合同会社,東京都,渋谷区,道玄坂１丁目１０番８号渋谷道玄坂東急ビル２Ｆ－Ｃ,,13,113,1500043,,,,,,,2024-08-13,1,,,,,リンク,0
1698,7011101108245,新規,0,2024-08-13,2024-08-13,株式会社ｔｋＦＣ,,株式会社,東京都,新宿区,新宿２丁目８番１号新宿セブンビル２０３,,13,104,1600022,,,,,,,2024-08-13,1,,,,,ティーケーエフシー,0
1699,7011101108360,新規,0,2024-08-13,2024-08-13,株式会社ｌｉｆａｉｎ,,株式会社,東京都,新宿区,西新宿３丁目３番１３号西新宿水間ビル６階,,13,104,1600023,,,,,,,2024-08-13,1,,,,,リファイン,0
1702,7011201025712,新規,0,2024-08-13,2024-08-13,株式会社プローレン,,株式会社,東京都,中野区,沼袋２丁目１９番１１号フジテラス中野２０８,,13,114,1650025,,,,,,,2024-08-13,1,,,,,プローレン,0
1712,7012401042167,新規,0,2024-08-13,2024-08-13,ＰＦＩ調布小・中学校・図書館施設整備株式会社,,株式会社,東京都,調布市,多摩川２丁目２５番地１,,13,208,1820025,,,,,,,2024-08-13,1,,,,,ピーエフアイチョウフショウチュウガッコウトショカンシセツセイビ,0
1713,7012401042175,新規,0,2024-08-13,2024-08-13,株式会社Ｓ．ＭＣｏｎｓｕｌｔｉｎｇ,,株式会社,東京都,三鷹市,下連雀３丁目３５番１号ネオ・シティ三鷹６階,,13,204,1810013,,,,,,,2024-08-13,1,,,,,エスエムコンサルティング,0
1720,7013101009489,新規,0,2024-08-13,2024-08-13,株式会社さのはちみつ,,株式会社,東京都,羽村市,緑ヶ丘１丁目１８番地１０,,13,227,2050003,,,,,,,2024-08-13,1,,,,,サノハチミツ,0
1722,7013305003627,新規,0,2024-08-13,2024-08-13,一般社団法人ＨＥＬＬＯ　ＡＳＩＡ,,その他の設立登記法人,東京都,豊島区,北大塚２丁目１１番５－４０１号,,13,116,1700004,,,,,,,2024-08-13,1,,,,,ハローアジア,0
1730,7020001158457,新規,0,2024-08-13,2024-08-13,株式会社グランデ,,株式会社,神奈川県,横浜市西区,北幸２丁目１０番４８号むつみビル３階,,14,103,2200004,,,,,,,2024-08-13,1,,,,,グランデ,0
1731,7020001158473,新規,0,2024-08-13,2024-08-13,株式会社Ｃ．Ｏ．Ｒ．Ｄ．Ｅ．Ａ．Ｌ．,,株式会社,神奈川県,横浜市中区,山下町１１２番地４ポートヴィラ元町１００２号室,,14,104,2310023,,,,,,,2024-08-13,1,,,,,コウデアル,0
1732,7020001158531,新規,0,2024-08-13,2024-08-13,株式会社ＯＮＥｘＡ,,株式会社,神奈川県,横浜市中区,弁天通３丁目４３番地１,,14,104,2310007,,,,,,,2024-08-13,1,,,,,ワンエース,0
1733,7020001158713,新規,0,2024-08-13,2024-08-13,株式会社ＶＩＢＥＳ,,株式会社,神奈川県,横浜市栄区,長倉町２番１０号,,14,115,2470023,,,,,,,2024-08-13,1,,,,,バイブス,0
1735,7020003026604,新規,0,2024-08-13,2024-08-13,合同会社エミシング,,合同会社,神奈川県,横浜市神奈川区,松見町２丁目４２５－１ラフォーレカメリアＡ棟１０１,,14,102,2210005,,,,,,,2024-08-13,1,,,,,エミシング,0
1736,7020003026661,新規,0,2024-08-13,2024-08-13,合同会社ｅｔｏｉｌｅ,,合同会社,神奈川県,川崎市中原区,新丸子東３丁目１１００－１２,,14,133,2110004,,,,,,,2024-08-13,1,,,,,エトワール,0
1763,7050001055180,新規,0,2024-08-13,2024-08-13,株式会社Ｌｉｆｅ　Ｆｕｎ,,株式会社,茨城県,つくばみらい市,板橋３０８４番地１,,08,235,3002307,,,,,,,2024-08-13,1,,,,,ライフファン,0
1764,7050001055222,新規,0,2024-08-13,2024-08-13,株式会社ＥＱＵＩＦＩＮＥ,,株式会社,茨城県,稲敷郡阿見町,大字上長１０２７番地２,,08,443,3001154,,,,,,,2024-08-13,1,,,,,エクイファイン,0
1765,7050001055239,新規,0,2024-08-13,2024-08-13,株式会社永寿,,株式会社,茨城県,つくばみらい市,野堀６１２番地１６５,,08,235,3002311,,,,,,,2024-08-13,1,,,,,エイジュ,0
1782,7080103003118,新規,0,2024-08-13,2024-08-13,ａｎｉｃｃａ合同会社,,合同会社,静岡県,富士市,原田１０５３番地１の２の２,,22,210,4170852,,,,,,,2024-08-13,1,,,,,アニカ,0
1783,7080105006449,新規,0,2024-08-13,2024-08-13,一般社団法人ＦＣＬ,,その他の設立登記法人,静岡県,裾野市,伊豆島田８４５番地の１１,,22,220,4101123,,,,,,,2024-08-13,1,,,,,エフシーエル,0
1793,7100001037719,新規,0,2024-08-13,2024-08-13,株式会社縁工業,,株式会社,長野県,長野市,豊野町蟹沢２８７８番地２,,20,201,3891103,,,,,,,2024-08-13,1,,,,,エニシコウギョウ,0
1794,7100001037727,新規,0,2024-08-13,2024-08-13,株式会社ホームサービス,,株式会社,長野県,松本市,波田９１６４番地６,,20,202,3901401,,,,,,,2024-08-13,1,,,,,ホームサービス,0
1805,7120001267603,新規,0,2024-08-13,2024-08-13,Ｌｉｆｅ　ｓｕｐｐｏｒｔ株式会社,,株式会社,大阪府,大阪市北区,中之島６丁目１番３８－５２０３号,,27,127,5300005,,,,,,,2024-08-13,1,,,,,ライフサポート,0
1806,7120001267628,新規,0,2024-08-13,2024-08-13,日新株式会社,,株式会社,大阪府,大阪市東住吉区,矢田２丁目１０番４号,,27,121,5460023,,,,,,,2024-08-13,1,,,,,ニッシン,0
1807,7120001267636,新規,0,2024-08-13,2024-08-13,株式会社ハギノ,,株式会社,大阪府,大阪市城東区,成育５丁目７番２９号,,27,118,5360007,,,,,,,2024-08-13,1,,,,,ハギノ,0
1808,7120001267652,新規,0,2024-08-13,2024-08-13,旭圓株式会社,,株式会社,大阪府,大阪市天王寺区,四天王寺１丁目４番１８号,,27,109,5430051,,,,,,,2024-08-13,1,,,,,キョクエン,0
1809,7120001267710,新規,0,2024-08-13,2024-08-13,株式会社ブレスハートホールディングス,,株式会社,大阪府,大阪市旭区,中宮３丁目１５番２１号,,27,117,5350003,,,,,,,2024-08-13,1,,,,,ブレスハートホールディングス,0
1810,7120001267719,新規,0,2024-08-13,2024-08-13,株式会社Ｓａｎｔｅ,,株式会社,大阪府,大阪市北区,堂島浜１丁目１番８号,,27,127,5300004,,,,,,,2024-08-13,1,,,,,サンテ,0
1811,7120001267768,新規,0,2024-08-13,2024-08-13,株式会社８７ＳＵＰＰＯＲＴ,,株式会社,大阪府,大阪市北区,西天満５丁目６番２０号エルグレース南森町１００３号,,27,127,5300047,,,,,,,2024-08-13,1,,,,,ハチナナサポート,0
1812,7120001267776,新規,0,2024-08-13,2024-08-13,徳晟株式会社,,株式会社,大阪府,大阪市住之江区,粉浜１丁目３番２５－３０１号,,27,125,5590001,,,,,,,2024-08-13,1,,,,,トクセイ,0
1816,7120005024496,新規,0,2024-08-13,2024-08-13,税理士法人ＴＨＩＮＫＷＥＬＬ,,その他の設立登記法人,大阪府,大阪市福島区,福島１丁目４番４０号,,27,103,5530003,,,,,,,2024-08-13,1,,,,,シンクウェル,0
1818,7120101070155,新規,0,2024-08-13,2024-08-13,株式会社Ｖｊｕｐ,,株式会社,大阪府,岸和田市,大町３丁目１番１１号,,27,202,5960812,,,,,,,2024-08-13,1,,,,,ヴイジャップ,0
1821,7122001038364,新規,0,2024-08-13,2024-08-13,レイカ株式会社,,株式会社,大阪府,東大阪市,上石切町１丁目５番２２号,,27,227,5798012,,,,,,,2024-08-13,1,,,,,レイカ,0
1834,7140001135493,新規,0,2024-08-13,2024-08-13,株式会社ＣｏＣｏＢｉ,,株式会社,兵庫県,神戸市垂水区,高丸１丁目１番５号,,28,108,6550016,,,,,,,2024-08-13,1,,,,,ココビ,0
1835,7140001135502,新規,0,2024-08-13,2024-08-13,株式会社ａｎｇｅ,,株式会社,兵庫県,芦屋市,涼風町２９番３号,,28,206,6590036,,,,,,,2024-08-13,1,,,,,アンジュ,0
1839,7150003003334,新規,0,2024-08-13,2024-08-13,永利合同会社,,合同会社,奈良県,天理市,櫟本町２２８６番地の１０,,29,204,6320004,,,,,,,2024-08-13,1,,,,,エイリ,0
1840,7170001018266,新規,0,2024-08-13,2024-08-13,隆宇株式会社,,株式会社,和歌山県,海南市,阪井９４８番地３,,30,202,6420024,,,,,,,2024-08-13,1,,,,,タカソラ,0
1843,7180001162699,新規,0,2024-08-13,2024-08-13,株式会社あん,,株式会社,愛知県,春日井市,稲口町４丁目１９番地２ウインザーＫ＆Ｙ３０２号,,23,206,4860905,,,,,,,2024-08-13,1,,,,,アン,0
1844,7180001162773,新規,0,2024-08-13,2024-08-13,Ｒ‐Ｃｏｍｐａｎｙ株式会社,,株式会社,愛知県,北名古屋市,二子曙３１番地７,,23,234,4810013,,,,,,,2024-08-13,1,,,,,アールカンパニー,0
1845,7180001162823,新規,0,2024-08-13,2024-08-13,株式会社アズシエイト,,株式会社,愛知県,名古屋市中区,栄１丁目１３番４号,,23,106,4600008,,,,,,,2024-08-13,1,,,,,アズシエイト,0
1848,7180003027198,新規,0,2024-08-13,2024-08-13,ＫＳＥｉホールディングス合同会社,,合同会社,愛知県,名古屋市中区,栄１丁目２番３号プラウドタワー名古屋栄２４０５号,,23,106,4600008,,,,,,,2024-08-13,1,,,,,ケイセイホールディングス,0
1849,7180003027223,新規,0,2024-08-13,2024-08-13,ワンタイムライフ合同会社,,合同会社,愛知県,名古屋市中村区,名駅４丁目２４番５号第２森ビル４０１,,23,105,4500002,,,,,,,2024-08-13,1,,,,,ワンタイムライフ,0
1858,7190001031564,新規,0,2024-08-13,2024-08-13,株式会社Ｆｉｒｓｔ．Ｒｉｓｅ,,株式会社,三重県,松阪市,星合町２１９８番地２,,24,204,5152101,,,,,,,2024-08-13,1,,,,,ファーストライズ,0
1863,7240001063593,新規,0,2024-08-13,2024-08-13,株式会社ｆｕｎｄｒｅｄ,,株式会社,広島県,府中市,元町３６６番地７,,34,208,7260003,,,,,,,2024-08-13,1,,,,,ファンドレッド,0
1864,7240001063692,新規,0,2024-08-13,2024-08-13,株式会社ＴＵＭＵＧＵ,,株式会社,広島県,広島市安佐南区,上安２丁目４番４６号,,34,105,7310154,,,,,,,2024-08-13,1,,,,,ツムグ,0
1865,7240003006807,新規,0,2024-08-13,2024-08-13,センス合同会社,,合同会社,広島県,三次市,畠敷町１６５２番地４,,34,209,7280006,,,,,,,2024-08-13,1,,,,,センス,0
1867,7260003004858,新規,0,2024-08-13,2024-08-13,合同会社ＯＦＦＧＲＩＤ,,合同会社,岡山県,岡山市北区,下中野４８３番２,,33,101,7000973,,,,,,,2024-08-13,1,,,,,オフグリッド,0
1869,7270001009032,新規,0,2024-08-13,2024-08-13,株式会社ＢＥＡＮＳラボ,,株式会社,鳥取県,米子市,法勝寺町７０番地,,31,202,6830063,,,,,,,2024-08-13,1,,,,,ビーインズラボ,0
1874,7290001106637,新規,0,2024-08-13,2024-08-13,新飛株式会社,,株式会社,福岡県,福岡市博多区,博多駅中央街５番１１号,,40,132,8120012,,,,,,,2024-08-13,1,,,,,シンフェイ,0
1875,7290001106645,新規,0,2024-08-13,2024-08-13,株式会社アイティエム,,株式会社,福岡県,福岡市中央区,薬院３丁目１３－１１,,40,133,8100022,,,,,,,2024-08-13,1,,,,,,0
1876,7290003015613,新規,0,2024-08-13,2024-08-13,合同会社ａｋａｉ‐ｈａｓｉ,,合同会社,福岡県,福岡市中央区,地行２丁目３－１４－２７０５号,,40,133,8100064,,,,,,,2024-08-13,1,,,,,アカイハシ,0
1877,7290003015621,新規,0,2024-08-13,2024-08-13,合同会社みずき,,合同会社,福岡県,福岡市東区,箱崎２丁目９番２３－５０２号ハイネタウン箱崎,,40,131,8120053,,,,,,,2024-08-13,1,,,,,ミズキ,0
1880,7290801030788,新規,0,2024-08-13,2024-08-13,ふたじま九州株式会社,,株式会社,福岡県,北九州市若松区,南二島５丁目６番１号,,40,103,8080109,,,,,,,2024-08-13,1,,,,,フタジマキュウシュウ,0
1881,7290801030796,新規,0,2024-08-13,2024-08-13,株式会社ヒルビリー,,株式会社,福岡県,北九州市小倉北区,紺屋町７番１３号,,40,106,8020081,,,,,,,2024-08-13,1,,,,,ヒルビリー,0
1883,7290803004815,新規,0,2024-08-13,2024-08-13,合同会社ＳＡＮ,,合同会社,福岡県,北九州市小倉北区,木町３丁目２番２６－３０１号,,40,106,8030851,,,,,,,2024-08-13,1,,,,,サン,0
1888,7320003004447,新規,0,2024-08-13,2024-08-13,合同会社ＳＳ,,合同会社,大分県,大分市,庄境７番１７号,,44,201,8700241,,,,,,,2024-08-13,1,,,,,エスエス,0
1889,7320005010179,新規,0,2024-08-13,2024-08-13,特定非営利活動法人ブンブンマート,,その他の設立登記法人,大分県,大分市,高松１丁目２番２号,,44,201,8700917,,,,,,,2024-08-13,1,,,,,ブンブンマート,0
1900,7340005009764,新規,0,2024-08-13,2024-08-13,特定非営利活動法人幸和会,,その他の設立登記法人,鹿児島県,霧島市,国分府中町１８番５６号,,46,218,8994346,,,,,,,2024-08-13,1,,,,,コウワカイ,0
1906,7360003014211,新規,0,2024-08-13,2024-08-13,合同会社やんまる,,合同会社,沖縄県,島尻郡与那原町,字上与那原４１１番地の７,,47,348,9011302,,,,,,,2024-08-13,1,,,,,ヤンマル,0
1907,7360003014228,新規,0,2024-08-13,2024-08-13,オートメーション研究所合同会社,,合同会社,沖縄県,浦添市,内間５丁目２番１１号,,47,208,9012121,,,,,,,2024-08-13,1,,,,,オートメーションケンキュウジョ,0
1909,7370001051635,新規,0,2024-08-13,2024-08-13,株式会社大福,,株式会社,宮城県,仙台市泉区,八乙女中央４丁目７番８号フランネル八乙女中央,,04,105,9813135,,,,,,,2024-08-13,1,,,,,ダイフク,0
1913,7380001034721,新規,0,2024-08-13,2024-08-13,株式会社懐徳総合研究所,,株式会社,福島県,耶麻郡西会津町,奥川大字飯里字上ノ原９０,,07,405,9694734,,,,,,,2024-08-13,1,,,,,カイトクソウゴウケンキュウジョ,0
1930,7430003016662,新規,0,2024-08-13,2024-08-13,合同会社宮井農場,,合同会社,北海道,赤平市,住吉町１５７番地２,,01,218,0791156,,,,,,,2024-08-13,1,,,,,ミヤイノウジョウ,0
1933,7450003002529,新規,0,2024-08-13,2024-08-13,合同会社Ｂｒｅｅｚｅ,,合同会社,北海道,上川郡美瑛町,西町１丁目１番７号,,01,459,0710203,,,,,,,2024-08-13,1,,,,,ブリーズ,0
1936,7480001012568,新規,0,2024-08-13,2024-08-13,ふくエステート株式会社,,株式会社,徳島県,徳島市,住吉２丁目７番５１号,,36,201,7700861,,,,,,,2024-08-13,1,,,,,フクエステート,0
1945,7500001025815,新規,0,2024-08-13,2024-08-13,レクス株式会社,,株式会社,愛媛県,松山市,上野町１３９０番地６,,38,201,7911136,,,,,,,2024-08-13,1,,,,,レクス,0
1947,7500003003307,新規,0,2024-08-13,2024-08-13,合同会社いつき,,合同会社,愛媛県,伊予市,下吾川３４１番地７４,,38,210,7993111,,,,,,,2024-08-13,1,,,,,イツキ,0
1948,7700150126732,新規,0,2024-08-13,2024-08-13,福井宮崎土地改良区,,その他,福井県,丹生郡越前町,西田中４丁目５０１,,18,423,9160141,,,,,,,2024-08-13,1,,,,,フクイミヤザキトチカイリヨウク,0
1965,8010401184301,新規,0,2024-08-13,2024-08-13,株式会社Ｌｅ　Ｌｉｅｎ,,株式会社,東京都,港区,北青山１丁目３番１号アールキューブ青山３階,,13,103,1070061,,,,,,,2024-08-13,1,,,,,ルリアン,0
1966,8010401184350,新規,0,2024-08-13,2024-08-13,株式会社すいーと,,株式会社,東京都,港区,六本木７丁目１８番６号,,13,103,1060032,,,,,,,2024-08-13,1,,,,,スイート,0
1967,8010401184359,新規,0,2024-08-13,2024-08-13,株式会社サファイアストリーム,,株式会社,東京都,港区,港南２丁目１６番４号品川グランドセントラルタワー８階,,13,103,1080075,,,,,,,2024-08-13,1,,,,,サファイアストリーム,0
1968,8010401184391,新規,0,2024-08-13,2024-08-13,株式会社知成堂,,株式会社,東京都,港区,港南４丁目６番７号３６０５,,13,103,1080075,,,,,,,2024-08-13,1,,,,,チセイドウ,0
1975,8010601065722,新規,0,2024-08-13,2024-08-13,株式会社室町税務総研,,株式会社,東京都,墨田区,墨田１丁目９番１０号珊瑚ビル２階,,13,107,1310031,,,,,,,2024-08-13,1,,,,,ムロマチゼイムソウケン,0
1976,8010603010973,新規,0,2024-08-13,2024-08-13,合同会社００ｓｔｕｄｉｏ,,合同会社,東京都,江東区,東砂６丁目１８－１４－１４１０,,13,108,1360074,,,,,,,2024-08-13,1,,,,,ダブルオースタジオ,0
1982,8010701046399,新規,0,2024-08-13,2024-08-13,株式会社Ｇａｒｄｅｎ,,株式会社,東京都,品川区,北品川５丁目５－１５大崎ブライトコア４階,,13,109,1410001,,,,,,,2024-08-13,1,,,,,ガーデン,0
2008,8011001163950,新規,0,2024-08-13,2024-08-13,株式会社Ｈｏｍｅｃａｓｔｌｅ,,株式会社,東京都,渋谷区,道玄坂１丁目１０番８号渋谷道玄坂東急ビル２Ｆ－Ｃ,,13,113,1500043,,,,,,,2024-08-13,1,,,,,ホームキャッスル,0
2009,8011001163967,新規,0,2024-08-13,2024-08-13,トップコメットジャパン株式会社,,株式会社,東京都,渋谷区,幡ヶ谷１丁目２番２号京王幡ヶ谷ビル４階,,13,113,1510072,,,,,,,2024-08-13,1,,,,,トップコメットジャパン,0
2010,8011003019671,新規,0,2024-08-13,2024-08-13,合同会社リマックス,,合同会社,東京都,渋谷区,道玄坂１丁目１５番３号,,13,113,1500043,,,,,,,2024-08-13,1,,,,,リマックス,0
2011,8011003019762,新規,0,2024-08-13,2024-08-13,みらいアソシエイツ合同会社,,合同会社,東京都,渋谷区,円山町５番５号Ｎａｖｉ渋谷Ｖ３階,,13,113,1500044,,,,,,,2024-08-13,1,,,,,ミライアソシエイツ,0
2012,8011003019770,新規,0,2024-08-13,2024-08-13,合同会社ＥＳＲ５,,合同会社,東京都,目黒区,上目黒１丁目２３番１号中目黒アリーナ４０５号室,,13,110,1530051,,,,,,,2024-08-13,1,,,,,イーエスアールファイブ,0
2020,8011203004465,新規,0,2024-08-13,2024-08-13,合同会社ハシマルズ,,合同会社,東京都,中野区,中野６丁目８番２１号,,13,114,1640001,,,,,,,2024-08-13,1,,,,,ハシマルズ,0
2024,8011403004471,新規,0,2024-08-13,2024-08-13,ｋｕｌａｍ合同会社,,合同会社,東京都,板橋区,大山東町２０番８－１０１号,,13,119,1730014,,,,,,,2024-08-13,1,,,,,クラ,0
2026,8011501031038,新規,0,2024-08-13,2024-08-13,ＺＯＺＯ株式会社,,株式会社,東京都,北区,滝野川７丁目２０番２－７０３号グランカーサ板橋ＥＡＳＴ,,13,117,1140023,,,,,,,2024-08-13,1,,,,,ゾゾ,0
2027,8011503006178,新規,0,2024-08-13,2024-08-13,合同会社すえひろがり,,合同会社,東京都,荒川区,町屋３丁目３１―３―７０３号,,13,118,1160001,,,,,,,2024-08-13,1,,,,,スエヒロガリ,0
2030,8012401042182,新規,0,2024-08-13,2024-08-13,株式会社Ｆａｖｏｒｓ,,株式会社,東京都,武蔵野市,八幡町４丁目１９番１－３０５号,,13,203,1800011,,,,,,,2024-08-13,1,,,,,フェイバーズ,0
2032,8012801023393,新規,0,2024-08-13,2024-08-13,株式会社日野宿あふぎや,,株式会社,東京都,日野市,日野本町４丁目２番地の２,,13,212,1910011,,,,,,,2024-08-13,1,,,,,ヒノシュクオウギヤ,0
2034,8013101009488,新規,0,2024-08-13,2024-08-13,株式会社Ｕ‐ＦＩＸ,,株式会社,東京都,あきる野市,野辺１１７８番地７,,13,228,1970823,,,,,,,2024-08-13,1,,,,,ユーフィックス,0
2042,8020001158456,新規,0,2024-08-13,2024-08-13,株式会社ＫＺ,,株式会社,神奈川県,横浜市泉区,和泉町５６２７番地５ステイツいずみ野２０５,,14,116,2450016,,,,,,,2024-08-13,1,,,,,ケイズ,0
2043,8020001158506,新規,0,2024-08-13,2024-08-13,株式会社ＴＳＵＮＡＧＵ,,株式会社,神奈川県,横浜市西区,北幸１丁目１１番１号水信ビル７階,,14,103,2200004,,,,,,,2024-08-13,1,,,,,ツナグ,0
2044,8020001158588,新規,0,2024-08-13,2024-08-13,株式会社Ａｍａｎｅ,,株式会社,神奈川県,横浜市港北区,大倉山１丁目１８番２７号グロワールハウス１Ｆ,,14,109,2220037,,,,,,,2024-08-13,1,,,,,アマネ,0
2052,8020003026636,新規,0,2024-08-13,2024-08-13,合同会社ｆ‐ｌｉｎｋ,,合同会社,神奈川県,横浜市神奈川区,松ケ丘５８番地２,,14,102,2210843,,,,,,,2024-08-13,1,,,,,エフーリンク,0
2053,8020003026660,新規,0,2024-08-13,2024-08-13,合同会社青同友,,合同会社,神奈川県,横浜市中区,南仲通１丁目８ＳＫビル４Ｂ,,14,104,2310006,,,,,,,2024-08-13,1,,,,,セイドウユウ,0
2054,8020003026727,新規,0,2024-08-13,2024-08-13,ＮｏＳｔｕｄｉｏ合同会社,,合同会社,神奈川県,横浜市神奈川区,金港町５－１４クアドリフォリオ８階,,14,102,2210056,,,,,,,2024-08-13,1,,,,,ノースタジオ,0
2057,8021001082927,新規,0,2024-08-13,2024-08-13,株式会社イリミテ,,株式会社,神奈川県,綾瀬市,蓼川３丁目１１番４号,,14,218,2521105,,,,,,,2024-08-13,1,,,,,イリミテ,0
2065,8030001161723,新規,0,2024-08-13,2024-08-13,リバイブライフ株式会社,,株式会社,埼玉県,さいたま市浦和区,常盤３丁目１８番２０号常盤コーポラス９０３,,11,107,3300061,,,,,,,2024-08-13,1,,,,,リバイブライフ,0
2066,8030001161888,新規,0,2024-08-13,2024-08-13,五州園株式会社,,株式会社,埼玉県,本庄市,中央２丁目３番２０号,,11,211,3670053,,,,,,,2024-08-13,1,,,,,ゴシュウエン,0
2077,8050001055221,新規,0,2024-08-13,2024-08-13,株式会社ＹＡＮＡＧＩ,,株式会社,茨城県,つくば市,茎崎４３３番地４,,08,220,3001272,,,,,,,2024-08-13,1,,,,,ヤナギ,0
2089,8070001042077,新規,0,2024-08-13,2024-08-13,株式会社Ｂｏｃｏ　ｔｏ　Ｄｅｃｏ,,株式会社,群馬県,邑楽郡明和町,大輪２３０８－２,,10,522,3700718,,,,,,,2024-08-13,1,,,,,ボコトデコ,0
2090,8070003005544,新規,0,2024-08-13,2024-08-13,合同会社ｃｈａｒｍ,,合同会社,群馬県,前橋市,小屋原町４７２－１,,10,201,3792121,,,,,,,2024-08-13,1,,,,,チャーム,0
2094,8080003003274,新規,0,2024-08-13,2024-08-13,Ｈｅａｌｔｈ＆Ｗｏｒｋ合同会社,,合同会社,静岡県,静岡市駿河区,聖一色３６０番地の７,,22,102,4228007,,,,,,,2024-08-13,1,,,,,ヘルスアンドワーク,0
2102,8100003007727,新規,0,2024-08-13,2024-08-13,合同会社Ｌｙｓ　ｂｌａｎｃ,,合同会社,長野県,上田市,仁古田５２３－１８,,20,203,3861544,,,,,,,2024-08-13,1,,,,,リスブラン,0
2103,8100005013203,新規,0,2024-08-13,2024-08-13,農事組合法人産直しなの,,その他の設立登記法人,長野県,上水内郡信濃町,大字柏原４７４番地３,,20,583,3891305,,,,,,,2024-08-13,1,,,,,サンチョクシナノ,0
2111,8120001267387,新規,0,2024-08-13,2024-08-13,株式会社栄和商事,,株式会社,大阪府,枚方市,茄子作東町３１番２３号,,27,210,5730082,,,,,,,2024-08-13,1,,,,,エイワショウジ,0
2112,8120001267536,新規,0,2024-08-13,2024-08-13,イハダジャパン株式会社,,株式会社,大阪府,大阪市北区,曾根崎新地１丁目１３－２２御堂筋フロントタワー１Ｆ,,27,127,5300002,,,,,,,2024-08-13,1,,,,,イハダジャパン,0
2113,8120001267552,新規,0,2024-08-13,2024-08-13,株式会社Ｕｎｉｔｙ,,株式会社,大阪府,守口市,桜町５番９－４０２号,,27,209,5700027,,,,,,,2024-08-13,1,,,,,ユニティ,0
2114,8120001267651,新規,0,2024-08-13,2024-08-13,株式会社ＮＥＸＴ,,株式会社,大阪府,大阪市西区,南堀江１丁目１４番２９号Ｒビル,,27,106,5500015,,,,,,,2024-08-13,1,,,,,ネクスト,0
2115,8120001267668,新規,0,2024-08-13,2024-08-13,株式会社松の世,,株式会社,大阪府,大阪市中央区,内平野町１丁目５番５号日宝内平野町ビル１階,,27,128,5400037,,,,,,,2024-08-13,1,,,,,マツノヨ,0
2116,8120001267718,新規,0,2024-08-13,2024-08-13,株式会社Ｂｅｓｐｏｒｋ．,,株式会社,大阪府,大阪市中央区,南船場２丁目５番８号５Ａ,,27,128,5420081,,,,,,,2024-08-13,1,,,,,ビースポーク,0
2117,8120001267726,新規,0,2024-08-13,2024-08-13,園満株式会社,,株式会社,大阪府,大阪市淀川区,木川西２丁目２６番１５－４０３号,,27,123,5320013,,,,,,,2024-08-13,1,,,,,エンマン,0
2118,8120001267767,新規,0,2024-08-13,2024-08-13,株式会社マールス,,株式会社,大阪府,大阪市中央区,安土町２丁目２番１５号４階,,27,128,5410052,,,,,,,2024-08-13,1,,,,,マールス,0
2119,8120001267783,新規,0,2024-08-13,2024-08-13,株式会社タカトシ商事,,株式会社,大阪府,大阪市福島区,鷺洲５丁目１２－１－９０５号,,27,103,5530002,,,,,,,2024-08-13,1,,,,,タカトシショウジ,0
2121,8120003027293,新規,0,2024-08-13,2024-08-13,合同会社絆,,合同会社,大阪府,守口市,西郷通１丁目１１番２号,,27,209,5700034,,,,,,,2024-08-13,1,,,,,キズナ,0
2122,8120101070154,新規,0,2024-08-13,2024-08-13,株式会社ネクスト,,株式会社,大阪府,堺市北区,南花田町４６３番地１,,27,146,5918011,,,,,,,2024-08-13,1,,,,,ネクスト,0
2131,8130001077703,新規,0,2024-08-13,2024-08-13,株式会社香魂,,株式会社,京都府,京都市山科区,大塚高岩２番地４１,,26,110,6078122,,,,,,,2024-08-13,1,,,,,コウコン,0
2132,8130001077711,新規,0,2024-08-13,2024-08-13,株式会社高橋精工所,,株式会社,京都府,亀岡市,宮前町猪倉椿原２番地１２０,,26,206,6210241,,,,,,,2024-08-13,1,,,,,タカハシセイコウショ,0
2134,8130003009786,新規,0,2024-08-13,2024-08-13,合同会社ＨＢ,,合同会社,京都府,宮津市,字文珠６４０番地１８,,26,205,6260001,,,,,,,2024-08-13,1,,,,,エイチビー,0
2150,8140001135492,新規,0,2024-08-13,2024-08-13,株式会社天慶,,株式会社,兵庫県,明石市,大久保町江井島６４１番地の１,,28,203,6740064,,,,,,,2024-08-13,1,,,,,テンケイ,0
2151,8140001135501,新規,0,2024-08-13,2024-08-13,株式会社ＨＨＴ,,株式会社,兵庫県,神戸市長田区,六番町１丁目４番１アロバスビル２Ｆ,,28,106,6530002,,,,,,,2024-08-13,1,,,,,エイチエイチティー,0
2152,8140001135518,新規,0,2024-08-13,2024-08-13,株式会社Ａｖｖｏｌｔｏ,,株式会社,兵庫県,神戸市東灘区,御影３丁目２－１１－３０,,28,101,6580047,,,,,,,2024-08-13,1,,,,,アボルト,0
2154,8140003020957,新規,0,2024-08-13,2024-08-13,合同会社シーマネジＫＡＫＩ,,合同会社,兵庫県,加東市,新町３０２－１,,28,228,6790204,,,,,,,2024-08-13,1,,,,,シーマネジカキ,0
2156,8150001027499,新規,0,2024-08-13,2024-08-13,株式会社ｓａｗａｈ　ｄｅｓｉｇｎ,,株式会社,奈良県,奈良市,四条大路南町２番１４号,,29,201,6308015,,,,,,,2024-08-13,1,,,,,サワデザイン,0
2164,8170001018265,新規,0,2024-08-13,2024-08-13,株式会社第一テックホールディングス,,株式会社,和歌山県,和歌山市,秋月５５３番５,,30,201,6408322,,,,,,,2024-08-13,1,,,,,ダイイチテックホールディングス,0
2167,8180001162723,新規,0,2024-08-13,2024-08-13,株式会社ｅｃｕｌａ,,株式会社,愛知県,名古屋市千種区,京命１丁目９番５号,,23,101,4640004,,,,,,,2024-08-13,1,,,,,エクラ,0
2168,8180001162797,新規,0,2024-08-13,2024-08-13,株式会社観空,,株式会社,愛知県,名古屋市西区,笠取町３丁目６３番地の１４,,23,104,4510072,,,,,,,2024-08-13,1,,,,,カンクウ,0
2170,8180003027230,新規,0,2024-08-13,2024-08-13,合同会社Ｒｓｔｙｌｅ,,合同会社,愛知県,名古屋市中村区,名駅４丁目２４番５号第２森ビル４０１,,23,105,4500002,,,,,,,2024-08-13,1,,,,,アールスタイル,0
2173,8180005020712,新規,0,2024-08-13,2024-08-13,行政書士法人ＭＩＲＡＩ,,その他の設立登記法人,愛知県,名古屋市中村区,椿町２０番１５号名古屋国鉄会館３０７号,,23,105,4530015,,,,,,,2024-08-13,1,,,,,ミライ,0
2177,8200001042823,新規,0,2024-08-13,2024-08-13,株式会社マーケットラボ,,株式会社,岐阜県,関市,若草通１丁目８番地,,21,205,5013802,,,,,,,2024-08-13,1,,,,,マーケットラボ,0
2180,8200003006462,新規,0,2024-08-13,2024-08-13,合同会社ＬＯＯＰ,,合同会社,岐阜県,大垣市,木戸町２００番地６１,,21,202,5030973,,,,,,,2024-08-13,1,,,,,ループ,0
2183,8220001026163,新規,0,2024-08-13,2024-08-13,ＳＭＺ株式会社,,株式会社,石川県,小松市,幸町１丁目７８番地,,17,203,9230867,,,,,,,2024-08-13,1,,,,,エスエムゼット,0
2187,8230003002260,新規,0,2024-08-13,2024-08-13,合同会社Ｌｉｂｅｒｔｙ,,合同会社,富山県,富山市,婦中町羽根新７６番地２,,16,201,9392704,,,,,,,2024-08-13,1,,,,,リバティ,0
2191,8240001063634,新規,0,2024-08-13,2024-08-13,株式会社ＬＴＨ,,株式会社,広島県,広島市中区,東白島町３番２３－２０１号,,34,101,7300004,,,,,,,2024-08-13,1,,,,,エルティーエイチ,0
2192,8240001063691,新規,0,2024-08-13,2024-08-13,株式会社ＲｅＯＮ,,株式会社,広島県,広島市中区,堺町２丁目４番１３号１階Ｗｅｌｓｈ．Ｓビル３,,34,101,7300853,,,,,,,2024-08-13,1,,,,,リオン,0
2193,8240001063717,新規,0,2024-08-13,2024-08-13,株式会社リバーサイド福村,,株式会社,広島県,東広島市,西条中央１丁目１０番１１号,,34,212,7390025,,,,,,,2024-08-13,1,,,,,リバーサイドフクムラ,0
2196,8260003004857,新規,0,2024-08-13,2024-08-13,合同会社イノチテラス,,合同会社,岡山県,久米郡久米南町,北庄３８６３番地,,33,663,7093601,,,,,,,2024-08-13,1,,,,,イノチテラス,0
2199,8280001009229,新規,0,2024-08-13,2024-08-13,加茂福株式会社,,株式会社,島根県,邑智郡邑南町,中野１０６２番地,,32,449,6960102,,,,,,,2024-08-13,1,,,,,カモフク,0
2203,8290001106594,新規,0,2024-08-13,2024-08-13,株式会社Ｗｉｎホールディングス,,株式会社,福岡県,福岡市博多区,博多駅前２丁目１９番１７号トーカン博多第５ビル３１２号室,,40,132,8120011,,,,,,,2024-08-13,1,,,,,ウィンホールディングス,0
2204,8290001106611,新規,0,2024-08-13,2024-08-13,ティーグロウス株式会社,,株式会社,福岡県,福岡市博多区,三筑１丁目２番２１－２０１号ワンズビル空港南,,40,132,8120887,,,,,,,2024-08-13,1,,,,,ティーグロウス,0
2206,8290003015604,新規,0,2024-08-13,2024-08-13,エステートバンク合同会社,,合同会社,福岡県,うきは市,吉井町６５８番地１,,40,225,8391321,,,,,,,2024-08-13,1,,,,,エステートバンク,0
2207,8290003015620,新規,0,2024-08-13,2024-08-13,合同会社ＳＯＲＡ,,合同会社,福岡県,福岡市城南区,荒江団地５４番５０７号,,40,136,8140102,,,,,,,2024-08-13,1,,,,,ソラ,0
2212,8290801030787,新規,0,2024-08-13,2024-08-13,株式会社ＺＥＲＯ,,株式会社,福岡県,北九州市八幡西区,藤田４丁目４番５号２階,,40,109,8060022,,,,,,,2024-08-13,1,,,,,ゼロ,0
2213,8290801030804,新規,0,2024-08-13,2024-08-13,株式会社たなごころ,,株式会社,福岡県,北九州市小倉南区,長行東１丁目１１－１６,,40,107,8030273,,,,,,,2024-08-13,1,,,,,タナゴコロ,0
2220,8310003004843,新規,0,2024-08-13,2024-08-13,合同会社ＭＯＲＵＳＡ,,合同会社,長崎県,大村市,植松１丁目７３番地１リースランド植松Ｃ－１０１,,42,205,8560027,,,,,,,2024-08-13,1,,,,,モルサ,0
2222,8320001020668,新規,0,2024-08-13,2024-08-13,株式会社ＩＱ,,株式会社,大分県,大分市,都町４丁目３番４号一休,,44,201,8700034,,,,,,,2024-08-13,1,,,,,,0
2223,8320002022878,新規,0,2024-08-13,2024-08-13,幸野建設有限会社,,有限会社,大分県,大分市,長浜町３丁目１２番２２号,,44,201,8700023,,,,,,,2024-08-13,1,,,,,コウノケンセツ,0
2225,8330003010518,新規,0,2024-08-13,2024-08-13,合同会社ｂａｂｙｙｙ,,合同会社,熊本県,上益城郡御船町,大字高木４３７番地,,43,441,8613203,,,,,,,2024-08-13,1,,,,,ベイビー,0
2228,8350001019138,新規,0,2024-08-13,2024-08-13,株式会社西川タイル,,株式会社,宮崎県,小林市,野尻町紙屋３５８９番地２,,45,205,8860211,,,,,,,2024-08-13,1,,,,,ニシカワタイル,0
2230,8360001034061,新規,0,2024-08-13,2024-08-13,株式会社恩輝,,株式会社,沖縄県,国頭郡恩納村,字名嘉真８３番地１,,47,311,9040401,,,,,,,2024-08-13,1,,,,,オンキ,0
2235,8380003005843,新規,0,2024-08-13,2024-08-13,フィールドワン合同会社,,合同会社,福島県,福島市,方木田字葉ノ木立２９－５７ＭＡＲＵＧＥＮ２０３,,07,201,9608163,,,,,,,2024-08-13,1,,,,,フィールドワン,0
2245,8430003016678,新規,0,2024-08-13,2024-08-13,合同会社大槻商事,,合同会社,北海道,札幌市白石区,北郷四条１２丁目５－１１ホワイトピア北郷２０１,,01,104,0030834,,,,,,,2024-08-13,1,,,,,オオツキショウジ,0
2250,8480001012567,新規,0,2024-08-13,2024-08-13,シン・ブルーＧ株式会社,,株式会社,徳島県,徳島市,応神町古川字戎子野１１３番地１,,36,201,7711151,,,,,,,2024-08-13,1,,,,,シンブルージー,0
2275,9010005038646,新規,0,2024-08-13,2024-08-13,一般社団法人全国自動車用品工業会,,その他の設立登記法人,東京都,千代田区,麹町４丁目５番地海事センタービル６階,,13,101,1020083,,,,,,,2024-08-13,1,,,,,ゼンコクジドウシャヨウヒンコウギョウカイ,0
2276,9010005038662,新規,0,2024-08-13,2024-08-13,神戸ファシリティ一般社団法人,,その他の設立登記法人,東京都,中央区,日本橋１丁目４番１号日本橋一丁目ビルディング,,13,102,1030027,,,,,,,2024-08-13,1,,,,,コウベファシリティ,0
2282,9010401184390,新規,0,2024-08-13,2024-08-13,Ａｌｐｈａ　Ｇｅｎ株式会社,,株式会社,東京都,港区,南青山７丁目８－１－１３０２,,13,103,1070062,,,,,,,2024-08-13,1,,,,,アルファジェン,0
2283,9010401184408,新規,0,2024-08-13,2024-08-13,株式会社Ｂｅｙｏｎｄ　Ｂｉｚ,,株式会社,東京都,港区,芝大門１丁目１０－１１芝大門センタービル１０Ｆ,,13,103,1050012,,,,,,,2024-08-13,1,,,,,ビヨンドビズ,0
2287,9010403033232,新規,0,2024-08-13,2024-08-13,合同会社ＭｉＣｏ,,合同会社,東京都,港区,南青山２丁目２番１５号ウィン青山４３０,,13,103,1070062,,,,,,,2024-08-13,1,,,,,ミコ,0
2298,9010601065721,新規,0,2024-08-13,2024-08-13,ＥＬ　ＦＩＮＩＴＯ株式会社,,株式会社,東京都,江東区,亀戸４丁目４５番１６号,,13,108,1360071,,,,,,,2024-08-13,1,,,,,エルフィニート,0
2299,9010601065738,新規,0,2024-08-13,2024-08-13,株式会社ＭＢＡ　ＦＯＯＤ　ＪＡＰＡＮ,,株式会社,東京都,江東区,有明３丁目７－２６有明フロンティアビルＢ棟９階,,13,108,1350063,,,,,,,2024-08-13,1,,,,,エムビーエーフードジャパン,0
2304,9010701046407,新規,0,2024-08-13,2024-08-13,株式会社アンピーノ,,株式会社,東京都,品川区,東五反田１丁目６－３いちご東五反田ビル３１１,,13,109,1410022,,,,,,,2024-08-13,1,,,,,アンピーノ,0
2319,9011001163586,新規,0,2024-08-13,2024-08-13,株式会社島と藍,,株式会社,東京都,渋谷区,渋谷２丁目１９－１５宮益坂ビルディング６０９,,13,113,1500002,,,,,,,2024-08-13,1,,,,,シマトアイ,0
2320,9011001163850,新規,0,2024-08-13,2024-08-13,株式会社アイエス,,株式会社,東京都,渋谷区,広尾１丁目７番２５号,,13,113,1500012,,,,,,,2024-08-13,1,,,,,,0
2321,9011001163875,新規,0,2024-08-13,2024-08-13,株式会社スマートヤメマス,,株式会社,東京都,目黒区,青葉台３丁目１３‐１１‐２階,,13,110,1530042,,,,,,,2024-08-13,1,,,,,スマートヤメマス,0
2322,9011001163917,新規,0,2024-08-13,2024-08-13,たまきんち株式会社,,株式会社,東京都,渋谷区,恵比寿西１丁目３番５号アルス恵比寿メイクス１０６,,13,113,1500021,,,,,,,2024-08-13,1,,,,,タマキンチ,0
2323,9011001163966,新規,0,2024-08-13,2024-08-13,株式会社Ｗｅａｌｔｈ　Ｃｏｒｅ　Ｔｒａｄｉｔｉｏｎ,,株式会社,東京都,渋谷区,道玄坂１丁目１９番２号,,13,113,1500043,,,,,,,2024-08-13,1,,,,,ウェルスコアトラディション,0
2324,9011001163999,新規,0,2024-08-13,2024-08-13,ビデオプラス株式会社,,株式会社,東京都,渋谷区,道玄坂１丁目１０番８号渋谷道玄坂東急ビル２Ｆ－Ｃ,,13,113,1500043,,,,,,,2024-08-13,1,,,,,ビデオプラス,0
2325,9011003019670,新規,0,2024-08-13,2024-08-13,合同会社プライムコーポレーション,,合同会社,東京都,渋谷区,道玄坂１丁目１５番３号,,13,113,1500043,,,,,,,2024-08-13,1,,,,,プライムコーポレーション,0
2326,9011101108350,新規,0,2024-08-13,2024-08-13,株式会社Ｋｎｏｃｋ　Ｏｕｔ,,株式会社,東京都,新宿区,下落合２丁目３番１８号ＳＫビルＫ棟３階,,13,104,1610033,,,,,,,2024-08-13,1,,,,,ノックアウト,0
2329,9011401026343,新規,0,2024-08-13,2024-08-13,株式会社ｔｅｔｔｅ,,株式会社,東京都,板橋区,板橋１丁目１０番４－１０２号,,13,119,1730004,,,,,,,2024-08-13,1,,,,,テッテ,0
2330,9011401026351,新規,0,2024-08-13,2024-08-13,ＨＩＭＡＷＡＲＩ株式会社,,株式会社,東京都,板橋区,赤塚２丁目３１－７－２０５,,13,119,1750092,,,,,,,2024-08-13,1,,,,,ヒマワリ,0
2331,9011403004470,新規,0,2024-08-13,2024-08-13,Ｒｏａｍ　ａｎｄ　Ｒｏｌｌ合同会社,,合同会社,東京都,板橋区,板橋２丁目６３－４グローリア初穂板橋５０１ＥａｓｙＯｆｆｉｃｅ,,13,119,1730004,,,,,,,2024-08-13,1,,,,,ロームアンドロール,0
2333,9011501031037,新規,0,2024-08-13,2024-08-13,株式会社栄豊,,株式会社,東京都,北区,赤羽１丁目３７－７－３０２号室コンチネンタルプラザ赤羽弐号館,,13,117,1150045,,,,,,,2024-08-13,1,,,,,エイホウ,0
2334,9011503006169,新規,0,2024-08-13,2024-08-13,合同会社ソレイユ２７,,合同会社,東京都,荒川区,南千住８丁目８－１－６１８,,13,118,1160003,,,,,,,2024-08-13,1,,,,,ソレイユニジュウナナ,0
2338,9011803006389,新規,0,2024-08-13,2024-08-13,シー・ラメール合同会社,,合同会社,東京都,足立区,綾瀬４丁目１７番１７―３０２号,,13,121,1200005,,,,,,,2024-08-13,1,,,,,シーラメール,0
2340,9012401042173,新規,0,2024-08-13,2024-08-13,株式会社Ｒｅｎｏｅｓｔ,,株式会社,東京都,多摩市,東寺方１丁目３番２１号,,13,224,2060003,,,,,,,2024-08-13,1,,,,,リノエスト,0
2342,9012801023401,新規,0,2024-08-13,2024-08-13,株式会社バカンス,,株式会社,東京都,東大和市,高木１丁目３５番地２号,,13,220,2070005,,,,,,,2024-08-13,1,,,,,バカンス,0
2344,9013101009487,新規,0,2024-08-13,2024-08-13,株式会社リアン,,株式会社,東京都,あきる野市,秋川２丁目３番地３ＫＡＩビル１ＦＩＩ,00135921,13,228,1970804,,,,,,,2024-08-13,1,,,,,リアン,0
2347,9013301052964,新規,0,2024-08-13,2024-08-13,申道堂文化株式会社,,株式会社,東京都,豊島区,南池袋２丁目１４番１号,,13,116,1710022,,,,,,,2024-08-13,1,,,,,シンドウドウブンカ,0
2352,9020001158430,新規,0,2024-08-13,2024-08-13,株式会社ＵＢＵ,,株式会社,神奈川県,横浜市都筑区,荏田南２丁目１３番１７－４０１号,,14,118,2240007,,,,,,,2024-08-13,1,,,,,ユービーユー,0
2353,9020001158513,新規,0,2024-08-13,2024-08-13,巡リ巡ル株式会社,,株式会社,神奈川県,横浜市青葉区,桜台３８番地１２フォーシーズン桜台４０２,,14,117,2270061,,,,,,,2024-08-13,1,,,,,メグリメグル,0
2354,9020001158521,新規,0,2024-08-13,2024-08-13,サンワコミュニティ株式会社,,株式会社,神奈川県,横浜市金沢区,瀬戸１７番２号グレーシア・マーレ金沢八景１０１号,,14,108,2360027,,,,,,,2024-08-13,1,,,,,サンワコミュニティ,0
2356,9020003026619,新規,0,2024-08-13,2024-08-13,合同会社Ｉｎｆｉｎｉｔｙ　ｗａｓｈ,,合同会社,神奈川県,横浜市旭区,下川井町２３１９－３１,,14,112,2410806,,,,,,,2024-08-13,1,,,,,インフィニティウォッシュ,0
2363,9021003014828,新規,0,2024-08-13,2024-08-13,合同会社ＰｌｕｓＡＮ,,合同会社,神奈川県,横須賀市,三春町５丁目９１堀ノ内グリーンハイツ４０１,,14,201,2380014,,,,,,,2024-08-13,1,,,,,プルスエヌ,0
2364,9021003014877,新規,0,2024-08-13,2024-08-13,ＮＡＭＡＡ　ＥＮＴＥＲＰＲＩＳＥＳ合同会社,,合同会社,神奈川県,厚木市,妻田東３丁目３０番６号第２グリーンハイツ２０３号,,14,212,2430813,,,,,,,2024-08-13,1,,,,,ナマアエンタープライズ,0
2365,9021003014885,新規,0,2024-08-13,2024-08-13,合同会社ａｌｍｏ,,合同会社,神奈川県,鎌倉市,稲村ガ崎３丁目４番７号,,14,204,2480024,,,,,,,2024-08-13,1,,,,,アルモ,0
2369,9030001161887,新規,0,2024-08-13,2024-08-13,Ｓｈｏｏｔｉｎｇ　Ｔｅｃｈ株式会社,,株式会社,埼玉県,さいたま市緑区,大字大門１２１８番地１,,11,109,3360963,,,,,,,2024-08-13,1,,,,,シューティングテック,0
2374,9030003024852,新規,0,2024-08-13,2024-08-13,ＳＭＥ　ＩＮＶＥＳＴＭＥＮＴ合同会社,,合同会社,埼玉県,越谷市,大字下間久里６１番地２エスペランサ１０１,,11,222,3430045,,,,,,,2024-08-13,1,,,,,エスエムイーインベストメント,0
2378,9040003025593,新規,0,2024-08-13,2024-08-13,ＩｎｎｏＣｒｅａ合同会社,,合同会社,千葉県,大網白里市,季美の森南２丁目２８番地２９,,12,239,2993241,,,,,,,2024-08-13,1,,,,,イノクレア,0
2379,9040005022473,新規,0,2024-08-13,2024-08-13,一般社団法人印西放課後児童クラブ・明日支援の会,,その他の設立登記法人,千葉県,印西市,吉高１８８６番地７３,,12,231,2701603,,,,,,,2024-08-13,1,,,,,インザイホウカゴジドウクラブアシタシエンノカイ,0
2380,9050001055220,新規,0,2024-08-13,2024-08-13,イエリス株式会社,,株式会社,茨城県,土浦市,荒川沖５番地４４,,08,203,3000873,,,,,,,2024-08-13,1,,,,,イエリス,0
2381,9050001055237,新規,0,2024-08-13,2024-08-13,志遠株式会社,,株式会社,茨城県,つくばみらい市,戸崎１０８７番１０,,08,235,3002322,,,,,,,2024-08-13,1,,,,,シエン,0
2385,9060001037399,新規,0,2024-08-13,2024-08-13,株式会社テクニカル工業,,株式会社,栃木県,小山市,東間々田２丁目８番３２号,,09,208,3290206,,,,,,,2024-08-13,1,,,,,テクニカルコウギョウ,0
2386,9060001037408,新規,0,2024-08-13,2024-08-13,株式会社ｃｏ‐ｎｅｃｔ,,株式会社,栃木県,矢板市,本町７番４－４号,,09,211,3292164,,,,,,,2024-08-13,1,,,,,コネクト,0
2387,9060003005197,新規,0,2024-08-13,2024-08-13,合同会社ショウケイ,,合同会社,栃木県,宇都宮市,鶴田町６５８－１１ウェルコートビルディング３０５号,,09,201,3200851,,,,,,,2024-08-13,1,,,,,ショウケイ,0
2393,9080401027378,新規,0,2024-08-13,2024-08-13,さくら不動産株式会社,,株式会社,静岡県,周智郡森町,飯田２１０２番地の１,,22,461,4370222,,,,,,,2024-08-13,1,,,,,サクラフドウサン,0
2417,9120001267502,新規,0,2024-08-13,2024-08-13,東佳ビジネス株式会社,,株式会社,大阪府,大阪市中央区,玉造２丁目３番１８号フロンティアビル７階,,27,128,5400004,,,,,,,2024-08-13,1,,,,,トウカビジネス,0
2418,9120001267601,新規,0,2024-08-13,2024-08-13,株式会社流石,,株式会社,大阪府,大阪市北区,本庄東２丁目７－１３グレース梅田東１階,,27,127,5310074,,,,,,,2024-08-13,1,,,,,サスガ,0
2419,9120001267659,新規,0,2024-08-13,2024-08-13,株式会社ＬＡＵＧＨ　ＧＡＴＥ,,株式会社,大阪府,大阪市福島区,福島６丁目１１番１３号シャトー西梅田２０６号,,27,103,5530003,,,,,,,2024-08-13,1,,,,,ラフゲート,0
2420,9120001267667,新規,0,2024-08-13,2024-08-13,株式会社ＴＵＲＵＰＩＫＡ,,株式会社,大阪府,大阪市東淀川区,豊新３丁目２１番６号,,27,114,5330014,,,,,,,2024-08-13,1,,,,,ツルピカ,0
2421,9120001267700,新規,0,2024-08-13,2024-08-13,株式会社住まいづくりカンパニー,,株式会社,大阪府,大阪市淀川区,宮原１丁目１－１新大阪阪急ビル３階,,27,123,5320003,,,,,,,2024-08-13,1,,,,,スマイヅクリカンパニー,0
2422,9120001267717,新規,0,2024-08-13,2024-08-13,株式会社島田工務店,,株式会社,大阪府,大阪市生野区,巽東４丁目１０番４号,00135918,27,116,5440014,,,,,,,2024-08-13,1,,,,,シマダコウムテン,0
2423,9120001267766,新規,0,2024-08-13,2024-08-13,ｈａｎｉｌ株式会社,,株式会社,大阪府,大阪市西成区,旭１丁目５番８号,,27,122,5570032,,,,,,,2024-08-13,1,,,,,ハニル,0
2426,9120101070153,新規,0,2024-08-13,2024-08-13,冠美株式会社,,株式会社,大阪府,堺市堺区,甲斐町西３丁２―３４牧野ビル１０９号,,27,141,5900950,,,,,,,2024-08-13,1,,,,,カンビ,0
2434,9122001038362,新規,0,2024-08-13,2024-08-13,株式会社ｓｋｙ‐Ｋ,,株式会社,大阪府,八尾市,春日町３丁目２番１８号,,27,212,5810061,,,,,,,2024-08-13,1,,,,,スカイケー,0
2439,9130003009785,新規,0,2024-08-13,2024-08-13,大豊合同会社,,合同会社,京都府,久世郡久御山町,藤和田馬場崎野２２番地の１,,26,322,6130044,,,,,,,2024-08-13,1,,,,,タイホウ,0
2440,9140001135459,新規,0,2024-08-13,2024-08-13,つばくろ株式会社,,株式会社,兵庫県,朝来市,納座字梅ノ木田６７４番地２２,,28,225,6793413,,,,,,,2024-08-13,1,,,,,ツバクロ,0
2441,9140001135467,新規,0,2024-08-13,2024-08-13,ＡＭＥＴＨＹＳＴＡＲ株式会社,,株式会社,兵庫県,神戸市須磨区,須磨浦通３丁目３番２３号,,28,107,6540055,,,,,,,2024-08-13,1,,,,,アメジスター,0
2442,9140001135491,新規,0,2024-08-13,2024-08-13,えふらいふ株式会社,,株式会社,兵庫県,神戸市西区,伊川谷町潤和９１４番地１９,,28,111,6512124,,,,,,,2024-08-13,1,,,,,エフライフ,0
2443,9140001135509,新規,0,2024-08-13,2024-08-13,Ａｒｔ　Ｆｏｒｃｅ株式会社,,株式会社,兵庫県,神戸市西区,富士見が丘３丁目７番地の１０,,28,111,6512214,,,,,,,2024-08-13,1,,,,,アートフォース,0
2444,9140003020956,新規,0,2024-08-13,2024-08-13,合同会社車工房竹中屋,,合同会社,兵庫県,神戸市西区,伊川谷町有瀬１１５０番地の２黒田第２ビル１階,,28,111,6512113,,,,,,,2024-08-13,1,,,,,クルマコウボウタケナカヤ,0
2447,9150001027481,新規,0,2024-08-13,2024-08-13,株式会社関西獣医療イニシアティブ,,株式会社,奈良県,奈良市,疋田町２丁目１－１９－１,,29,201,6310843,,,,,,,2024-08-13,1,,,,,カンサイジュウイリョウイニシアティブ,0
2451,9170005007098,新規,0,2024-08-13,2024-08-13,医療法人誠友会,,その他の設立登記法人,和歌山県,有田郡有田川町,大字下津野１１０６番地３,,30,366,6430021,,,,,,,2024-08-13,1,,,,,セイユウカイ,0
2455,9180001162846,新規,0,2024-08-13,2024-08-13,ファミーユ株式会社,,株式会社,愛知県,名古屋市港区,春田野２丁目５０４番地,,23,111,4550873,,,,,,,2024-08-13,1,,,,,ファミーユ,0
2456,9180001162887,新規,0,2024-08-13,2024-08-13,株式会社カバーオール,,株式会社,愛知県,常滑市,瀬木町４丁目３４番地ウイング瀬木１０２号,,23,216,4790821,,,,,,,2024-08-13,1,,,,,カバーオール,0
2457,9180003027171,新規,0,2024-08-13,2024-08-13,合同会社ＹＯＨＡＫＵ,,合同会社,愛知県,名古屋市中村区,長筬町５丁目４４番地の１,,23,105,4530839,,,,,,,2024-08-13,1,,,,,ヨハク,0
2462,9190001031562,新規,0,2024-08-13,2024-08-13,株式会社ＳＩＭＡＴＥＣＨ,,株式会社,三重県,四日市市,河原田町５１１番地６,,24,202,5100874,,,,,,,2024-08-13,1,,,,,シマテック,0
2465,9200001042814,新規,0,2024-08-13,2024-08-13,株式会社スリーフローラ,,株式会社,岐阜県,岐阜市,福富出口６３番地２,,21,201,5012562,,,,,,,2024-08-13,1,,,,,スリーフローラ,0
2473,9240001063690,新規,0,2024-08-13,2024-08-13,株式会社アイコー,,株式会社,広島県,広島市東区,馬木９丁目１４番２４号,,34,102,7320031,,,,,,,2024-08-13,1,,,,,アイコー,0
2474,9240001063699,新規,0,2024-08-13,2024-08-13,株式会社はらいろ,,株式会社,広島県,広島市東区,上温品１丁目３４番９号,,34,102,7320032,,,,,,,2024-08-13,1,,,,,ハライロ,0
2478,9260001039367,新規,0,2024-08-13,2024-08-13,株式会社アワープレイス,,株式会社,岡山県,津山市,井口１９４番地１１,,33,203,7080885,,,,,,,2024-08-13,1,,,,,アワープレイス,0
2479,9260001039375,新規,0,2024-08-13,2024-08-13,株式会社ＳＴＡＮＤＯＵＴ,,株式会社,岡山県,岡山市北区,今３丁目９番１２号,,33,101,7000975,,,,,,,2024-08-13,1,,,,,スタンドアウト,0
2480,9260003004856,新規,0,2024-08-13,2024-08-13,合同会社ＵＰｓｔａｉｒｓ,,合同会社,岡山県,岡山市北区,白石２４０番地１,,33,101,7010143,,,,,,,2024-08-13,1,,,,,アップステアーズ,0
2481,9270001009030,新規,0,2024-08-13,2024-08-13,株式会社Ｂｏａｓｃｅｎｔ,,株式会社,鳥取県,鳥取市,河原町佐貫７７２,,31,201,6801243,,,,,,,2024-08-13,1,,,,,ボアセント,0
2488,9290001106635,新規,0,2024-08-13,2024-08-13,株式会社エフオーディ,,株式会社,福岡県,福岡市中央区,渡辺通２丁目３－１９－３１１,,40,133,8100004,,,,,,,2024-08-13,1,,,,,エフオーディ,0
2489,9290001106651,新規,0,2024-08-13,2024-08-13,株式会社ゼェフアップ,,株式会社,福岡県,福岡市早良区,早良１丁目１１番２０号,,40,137,8111122,,,,,,,2024-08-13,1,,,,,ゼェフアップ,0
2490,9290001106676,新規,0,2024-08-13,2024-08-13,株式会社インベストラボ,,株式会社,福岡県,福岡市中央区,六本松４丁目９－７－３０１,,40,133,8100044,,,,,,,2024-08-13,1,,,,,,0
2494,9320001020634,新規,0,2024-08-13,2024-08-13,株式会社大塚,,株式会社,大分県,大分市,要町１番４－１５０１号,,44,201,8700831,,,,,,,2024-08-13,1,,,,,オオツカ,0
2497,9330001032356,新規,0,2024-08-13,2024-08-13,株式会社グローブ,,株式会社,熊本県,熊本市中央区,新屋敷３丁目１４番２号,,43,101,8620975,,,,,,,2024-08-13,1,,,,,グローブ,0
2498,9330001032372,新規,0,2024-08-13,2024-08-13,株式会社ＰＲＥ４,,株式会社,熊本県,宇土市,岩古曽町２３２３番地１,,43,211,8690412,,,,,,,2024-08-13,1,,,,,プレフォー,0
2502,9350005006247,新規,0,2024-08-13,2024-08-13,行政書士法人げんき,,その他の設立登記法人,宮崎県,日南市,吾田西１丁目３番２８号東郷ビル１階－Ａ１０１号,,45,204,8892536,,,,,,,2024-08-13,1,,,,,,0
2503,9360003014176,新規,0,2024-08-13,2024-08-13,合同会社Ｖｉｔａｌ,,合同会社,沖縄県,中頭郡北谷町,字伊平４５８－１・１Ｆ,,47,326,9040102,,,,,,,2024-08-13,1,,,,,ヴィタル,0
2516,9380001034728,新規,0,2024-08-13,2024-08-13,株式会社アイアールエフ,,株式会社,福島県,いわき市,平小泉字東８２番地の１,,07,204,9708041,,,,,,,2024-08-13,1,,,,,アイアールエフ,0
2520,9380003005842,新規,0,2024-08-13,2024-08-13,合同会社エムズパートナー,,合同会社,福島県,郡山市,富久山町八山田字一本橋２９番地の４,,07,203,9638051,,,,,,,2024-08-13,1,,,,,エムズパートナー,0
2531,9430001092464,新規,0,2024-08-13,2024-08-13,サンユークレスト株式会社,,株式会社,北海道,札幌市豊平区,豊平三条４丁目２番１９号,,01,105,0620903,,,,,,,2024-08-13,1,,,,,サンユークレスト,0
2532,9430001092472,新規,0,2024-08-13,2024-08-13,株式会社Ｂａｓｅ　ｌｉｎｅ,,株式会社,北海道,札幌市白石区,本郷通１０丁目北２番１－２０１号,,01,104,0030025,,,,,,,2024-08-13,1,,,,,,0
2533,9430001092480,新規,0,2024-08-13,2024-08-13,株式会社サンダーバード不動産,,株式会社,北海道,石狩市,花川北一条２丁目２７４番地,,01,235,0613211,,,,,,,2024-08-13,1,,,,,サンダーバードフドウサン,0
2535,9430003016669,新規,0,2024-08-13,2024-08-13,合同会社ＨＡＮＡＣＨＯ,,合同会社,北海道,苫小牧市,若草町１丁目１番２７号,,01,213,0530021,,,,,,,2024-08-13,1,,,,,ハナチョウ,0
2536,9430003016677,新規,0,2024-08-13,2024-08-13,合同会社ＳＡＳＵＫＥ　ＮＥＸＴ,,合同会社,北海道,岩見沢市,幌向南一条１丁目１３番地１,,01,210,0690371,,,,,,,2024-08-13,1,,,,,サスケネクスト,0
2538,9450001014383,新規,0,2024-08-13,2024-08-13,株式会社Ｔｈｒｅｅ．,,株式会社,北海道,旭川市,東三条２丁目４番３号,,01,204,0700023,,,,,,,2024-08-13,1,,,,,スリーピリオド,0
2541,9470003002698,新規,0,2024-08-13,2024-08-13,合同会社Ｍ・Ｔカンパニー,,合同会社,香川県,三豊市,高瀬町下勝間２１５４番地１,,37,208,7670011,,,,,,,2024-08-13,1,,,,,エムティーカンパニー,0
2542,9480001012566,新規,0,2024-08-13,2024-08-13,開発水道工業所株式会社,,株式会社,徳島県,鳴門市,撫養町立岩字五枚１８０番地,,36,202,7720017,,,,,,,2024-08-13,1,,,,,カイハツスイドウコウギョウショ,0
2543,9480001012574,新規,0,2024-08-13,2024-08-13,株式会社山川不動産,,株式会社,徳島県,吉野川市,山川町前川１７２番地の６,,36,205,7793403,,,,,,,2024-08-13,1,,,,,ヤマカワフドウサン,0
2545,9500001025796,新規,0,2024-08-13,2024-08-13,ＴＡ企画株式会社,,株式会社,愛媛県,今治市,常盤町６丁目８番４号,,38,202,7940015,,,,,,,2024-08-13,1,,,,,ティーエーキカク,0
