sequenceNumber,corporateNumber,process,correct,updateDate,changeDate,name,nameImageId,kind,prefectureName,cityName,streetNumber,addressImageId,prefectureCode,cityCode,postCode,addressOutside,addressOutsideImageId,closeDate,closeCause,successorCorporateNumber,changeCause,assignmentDate,latest,enName,enPrefectureName,enCityName,enAddressOutside,furigana,hihyoji
11,1010401136928,登記記録の閉鎖等,0,2023-03-13,2023-03-06,ＤｅｆｉｎｅｄＣｒｏｗｄ　Ｊａｐａｎ株式会社,,株式会社,東京都,中央区,日本橋室町４丁目３番９号,,13,102,1030022,,,2023-03-06,清算の結了等,,,2018-03-02,1,,,,,ディファインドクラウドジャパン,0
18,1010403012045,登記記録の閉鎖等,0,2023-03-13,2023-03-01,合同会社ＪＲＥリアルエステート姫路,,合同会社,東京都,港区,六本木６丁目２番３１号六本木ヒルズノースタワー１５階,,13,103,1060032,,,2023-03-01,合併による解散等,5010401101449,令和５年３月１日東京都港区六本木六丁目２番３１号六本木ヒルズノースタワー１５階ジャパン・リニューアブル・エナジー株式会社（5010401101449）に合併し解散,2015-10-05,1,,,,,ジェーアールイーリアルエステートヒメジ,0
33,1011001112501,登記記録の閉鎖等,0,2023-03-13,2023-03-02,株式会社クアレ,,株式会社,東京都,大田区,千鳥１丁目１８番４－２０３号,,13,111,1460083,,,2023-03-02,清算の結了等,,,2016-08-26,1,,,,,クアレ,0
55,1011802000219,登記記録の閉鎖等,0,2023-03-13,2023-03-07,有限会社あかね薬局,,有限会社,東京都,葛飾区,高砂３丁目２７番５号,,13,122,1250054,,,2023-03-07,合併による解散等,7030001009733,令和５年３月１日東京都足立区伊興本町一丁目２番２号株式会社ジョイプランニング（7030001009733）に合併し解散,2015-10-05,1,,,,,アカネヤッキョク,0
61,1012701001514,登記記録の閉鎖等,0,2023-03-13,2023-03-09,多摩冨士機材株式会社,,株式会社,東京都,東村山市,秋津町２丁目２６番１号,,13,213,1890001,,,2023-03-09,合併による解散等,9010001055397,令和５年３月１日東京都千代田区一番町１２冨士機材株式会社（9010001055397）に合併し解散,2015-10-05,1,,,,,タマフジキザイ,0
62,1012801018045,登記記録の閉鎖等,0,2023-03-13,2023-03-06,株式会社クロスライン,,株式会社,東京都,昭島市,福島町３丁目１８番３－１０３号,,13,207,1960031,,,2023-03-06,清算の結了等,,,2017-06-02,1,,,,,クロスライン,0
68,1013303005754,登記記録の閉鎖等,0,2023-03-13,2023-03-08,３０合同会社,,合同会社,東京都,豊島区,北大塚１丁目１４番９号,,13,116,1700004,,,2023-03-08,清算の結了等,,,2021-07-21,1,,,,,サンゼロ,0
73,1020001141261,登記記録の閉鎖等,0,2023-03-13,2023-03-07,株式会社アキュラホーム神奈川,,株式会社,神奈川県,横浜市港北区,新横浜２丁目１３番地６第一Ｋ・Ｓビル７階,,14,109,2220033,,,2023-03-07,合併による解散等,3030001000431,令和５年３月１日さいたま市中央区円阿弥五丁目８番４０号株式会社ＡＱ　Ｇｒｏｕｐ（3030001000431）に合併し解散,2021-05-13,1,,,,,アキュラホームカナガワ,0
80,1030001075913,登記記録の閉鎖等,0,2023-03-13,2023-03-08,高直精機株式会社,,株式会社,埼玉県,川口市,赤井１丁目１９番３号,,11,203,3340073,,,2023-03-08,清算の結了等,,,2015-10-05,1,,,,,タカナオセイキ,0
82,1030001116519,登記記録の閉鎖等,0,2023-03-13,2023-03-03,株式会社理想ケアサービス,,株式会社,北海道,小樽市,長橋５丁目６番１４号,,01,203,0470036,,,2023-03-03,合併による解散等,8050001049181,令和５年３月１日茨城県日立市城南町三丁目４番１号株式会社ヒューマンサポートライフ（8050001049181）に合併し解散,2016-10-04,1,,,,,リソウケアサービス,0
108,1060001028744,登記記録の閉鎖等,0,2023-03-13,2023-02-28,東和宇都宮石産株式会社,,株式会社,栃木県,宇都宮市,東町１９番３号,,09,201,3210985,,,2023-02-28,合併による解散等,9030001006051,令和５年２月１日さいたま市大宮区桜木町四丁目３８４番地東和アークス株式会社（9030001006051）に合併し解散,2016-10-21,1,,,,,トウワウツノミヤセキサン,0
113,1080003001037,登記記録の閉鎖等,0,2023-03-13,2023-03-09,合資会社梅田屋,,合資会社,静岡県,静岡市清水区,江尻東２丁目４番１号,,22,103,4240815,,,2023-03-09,清算の結了等,,,2015-10-05,1,,,,,ウメダヤ,0
136,1120002055302,登記記録の閉鎖等,0,2023-03-13,2023-03-09,有限会社ケイ・アイ・ロードメンテ,,有限会社,大阪府,大阪市北区,本庄西１丁目９番１２－４０７号,,27,127,5310073,,,2023-03-09,清算の結了等,,,2015-10-05,1,,,,,,0
137,1120003021047,登記記録の閉鎖等,0,2023-03-13,2023-03-07,合同会社Ｔｏｔａｌ　Ｌｉｆｅ．,,合同会社,大阪府,大阪市淀川区,木川西１丁目８番２３－５０２号,,27,123,5320013,,,2023-03-07,清算の結了等,,,2022-02-01,1,,,,,トータルライフ,0
169,1180001130587,登記記録の閉鎖等,0,2023-03-13,2023-03-07,株式会社栄興,,株式会社,愛知県,名古屋市昭和区,明月町２丁目２５番地,,23,107,4660034,,,2023-03-07,清算の結了等,,,2017-12-22,1,,,,,エイコウ,0
184,1180302002295,登記記録の閉鎖等,0,2023-03-13,2023-03-06,有限会社なかいち建築,,有限会社,愛知県,岡崎市,箱柳町字川北４６番地９,,23,202,4440001,,,2023-03-06,清算の結了等,,,2015-10-05,1,,,,,ナカイチケンチク,0
189,1200001016899,登記記録の閉鎖等,0,2023-03-13,2023-03-07,株式会社ワタミ福祉住環境コンサルト,,株式会社,岐阜県,安八郡安八町,牧９０９番地の１,,21,383,5030125,,,2023-03-07,清算の結了等,,,2015-10-05,1,,,,,,0
190,1200002008400,登記記録の閉鎖等,0,2023-03-13,2023-03-13,有限会社スミ物産,,有限会社,岐阜県,各務原市,鵜沼川崎町３丁目１８８番地,,21,213,5090147,,,2023-03-13,清算の結了等,,,2015-10-05,1,,,,,スミブッサン,0
194,1240001017043,登記記録の閉鎖等,0,2023-03-13,2023-03-08,株式会社イーグルエンタープライズ,,株式会社,広島県,広島市西区,庚午中２丁目３番９号,,34,104,7330822,,,2023-03-08,清算の結了等,,,2015-10-05,1,,,,,,0
223,1300002007680,登記記録の閉鎖等,0,2023-03-13,2023-03-06,有限会社エッセイ,,有限会社,佐賀県,伊万里市,東山代町長浜１５４２番地６,,41,205,8494271,,,2023-03-06,清算の結了等,,,2023-01-04,1,,,,,エッセイ,0
259,2010001006068,登記記録の閉鎖等,0,2023-03-13,2023-03-02,株式会社ニジュウイチ・アド,,株式会社,東京都,文京区,大塚６丁目１２番２号,,13,105,1120012,,,2023-03-02,清算の結了等,,,2015-10-05,1,,,,,ニジュウイチアド,0
263,2010001186703,登記記録の閉鎖等,0,2023-03-13,2023-03-07,オートインスペクションジャパン株式会社,,株式会社,東京都,中央区,日本橋２丁目１５番３号,,13,102,1030027,,,2023-03-07,清算の結了等,,,2017-10-06,1,,,,,オートインスペクションジャパン,0
268,2010002036601,登記記録の閉鎖等,0,2023-03-13,2023-03-07,有限会社インターマックスコーポレーション,,有限会社,東京都,千代田区,一番町２２番７一番町ロイヤルハイツ５０４,,13,101,1020082,,,2023-03-07,清算の結了等,,,2015-10-05,1,,,,,インターマックスコーポレーション,0
276,2010401149697,登記記録の閉鎖等,0,2023-03-13,2023-02-24,株式会社Ｔｏｋｙｏ　Ｃｒｅａｔｏｒｓ’　Ｐｒｏｊｅｃｔ,,株式会社,東京都,渋谷区,猿楽町５－１７第一西尾ビル３０１,,13,113,1500033,,,2023-02-24,清算の結了等,,,2019-12-13,1,,,,,トウキョウクリエイターズプロジェクト,0
277,2010401166817,登記記録の閉鎖等,0,2023-03-13,2023-03-07,ＭＨ　Ｊａｐａｎ株式会社,,株式会社,東京都,渋谷区,神宮前３丁目２９番３号,,13,113,1500001,,,2023-03-07,清算の結了等,,,2022-04-15,1,,,,,エムエイチジャパン,0
280,2010403010493,登記記録の閉鎖等,0,2023-03-13,2023-03-01,合同会社ＪＲＥ南伊勢,,合同会社,東京都,港区,六本木６丁目２番３１号六本木ヒルズノースタワー１５階,,13,103,1060032,,,2023-03-01,合併による解散等,5010401101449,令和５年３月１日東京都港区六本木六丁目２番３１号六本木ヒルズノースタワー１５階ジャパン・リニューアブル・エナジー株式会社（5010401101449）に合併し解散,2015-10-05,1,,,,,ジェーアールイーミナミイセ,0
282,2010403011970,登記記録の閉鎖等,0,2023-03-13,2023-03-01,合同会社ＪＲＥ高島,,合同会社,東京都,港区,六本木６丁目２番３１号六本木ヒルズノースタワー１５階,,13,103,1060032,,,2023-03-01,合併による解散等,5010401101449,令和５年３月１日東京都港区六本木六丁目２番３１号六本木ヒルズノースタワー１５階ジャパン・リニューアブル・エナジー株式会社（5010401101449）に合併し解散,2015-10-05,1,,,,,ジェーアールイータカシマ,0
283,2010403016144,登記記録の閉鎖等,0,2023-03-13,2023-03-01,合同会社ＪＲＥ福智,,合同会社,東京都,港区,六本木６丁目２番３１号六本木ヒルズノースタワー１５階,,13,103,1060032,,,2023-03-01,合併による解散等,5010401101449,令和５年３月１日東京都港区六本木六丁目２番３１号六本木ヒルズノースタワー１５階ジャパン・リニューアブル・エナジー株式会社（5010401101449）に合併し解散,2017-02-21,1,,,,,ジェーアールイーフクチ,0
299,2011001109348,登記記録の閉鎖等,0,2023-03-13,2023-03-08,株式会社ＪＡＰＡＮ４ｓ　ＯＬＩＧＩＮＡＬ,,株式会社,東京都,新宿区,西新宿６丁目１５番１号,,13,104,1600023,,,2023-03-08,合併による解散等,7011003006233,令和５年２月２８日東京都新宿区西新宿六丁目１５番１号合同会社ＤＲＥＡＭＳＳ（7011003006233）に合併し解散,2016-01-29,1,,,,,ジャパンフォースオリジナル,0
320,2012401012406,登記記録の閉鎖等,0,2023-03-13,2023-03-07,株式会社ケイ・シー・エス,,株式会社,東京都,千代田区,神田錦町１丁目１７番地４,,13,101,1010054,,,2023-03-07,清算の結了等,,,2015-10-05,1,,,,,ケイシーエス,0
322,2012701000011,登記記録の閉鎖等,0,2023-03-13,2023-03-09,株式会社アイ・シー・エス,,株式会社,東京都,小平市,小川東町１８２１番地の１４０,,13,211,1870031,,,2023-03-09,清算の結了等,,,2015-10-05,1,,,,,アイシーエス,0
327,2021001006494,登記記録の閉鎖等,0,2023-03-13,2023-03-10,株式会社ラウニカ,,株式会社,神奈川県,高座郡寒川町,岡田２４６２番地の１７,,14,321,2530105,,,2023-03-10,清算の結了等,,,2015-10-05,1,,,,,,0
333,2030001070434,登記記録の閉鎖等,0,2023-03-13,2023-03-09,株式会社山成食品,,株式会社,埼玉県,鶴ヶ島市,富士見５丁目１５番地１１,,11,241,3502201,,,2023-03-09,清算の結了等,,,2015-10-05,1,,,,,ヤマセイショクヒン,0
355,2070001032843,登記記録の閉鎖等,0,2023-03-13,2023-03-08,株式会社儘田工業,,株式会社,群馬県,北群馬郡榛東村,大字山子田１５７２番地５,,10,344,3703502,,,2023-03-08,清算の結了等,,,2016-11-11,1,,,,,ママダコウギョウ,0
366,2110002009704,登記記録の閉鎖等,0,2023-03-13,2023-03-10,有限会社林鉄工所,,有限会社,新潟県,新潟市秋葉区,新町３丁目５番５号,,15,105,9560862,,,2023-03-10,清算の結了等,,,2015-10-05,1,,,,,ハヤシテッコウジョ,0
368,2120001049394,登記記録の閉鎖等,0,2023-03-13,2023-03-09,克昌インターナショナル株式会社,,株式会社,東京都,渋谷区,千駄ヶ谷５丁目２６番５号,,13,113,1510051,,,2023-03-09,清算の結了等,,,2015-10-05,1,,,,,,0
388,2120002038074,登記記録の閉鎖等,0,2023-03-13,2023-03-10,有限会社ひまわり商事,,有限会社,大阪府,大阪市中央区,伏見町３丁目１番１号,,27,128,5410044,,,2023-03-10,清算の結了等,,,2015-10-05,1,,,,,ヒマワリショウジ,0
398,2140001074399,登記記録の閉鎖等,0,2023-03-13,2023-03-08,ＹＴＣクロアジェール株式会社,,株式会社,兵庫県,西宮市,市庭町９番２号,,28,204,6620975,,,2023-03-08,清算の結了等,,,2015-10-05,1,,,,,ワイティーシークロアジェール,0
427,2220001018579,登記記録の閉鎖等,0,2023-03-13,2023-03-09,株式会社錦,,株式会社,石川県,金沢市,片町２丁目２１番１２号,,17,201,9200981,,,2023-03-09,合併による解散等,2230001003621,令和５年３月１日富山市蛯町１番１０号マルエン株式会社（2230001003621）に合併し解散,2015-10-05,1,,,,,ニシキ,0
439,2250002013915,登記記録の閉鎖等,0,2023-03-13,2023-03-08,有限会社田丸工業所,,有限会社,山口県,長門市,西深川１８９６番地の４,,35,211,7594102,,,2023-03-08,清算の結了等,,,2015-10-05,1,,,,,タマルコウギョウショ,0
458,2300001008118,登記記録の閉鎖等,0,2023-03-13,2023-03-08,株式会社エコ・サポートケィ,,株式会社,佐賀県,佐賀市,金立町大字金立字八本杉２６１５番５,,41,201,8490906,,,2023-03-08,清算の結了等,,,2015-10-05,1,,,,,エコサポートケィ,0
463,2320002021019,登記記録の閉鎖等,0,2023-03-13,2023-03-09,有限会社花満,,有限会社,大分県,中津市,島田本町１０番地,,44,203,8710036,,,2023-03-09,清算の結了等,,,2015-10-05,1,,,,,ハナマン,0
471,2360003001296,登記記録の閉鎖等,0,2023-03-13,2023-03-06,合資会社三島商事,,合資会社,沖縄県,那覇市,識名３丁目９番２９号,,47,201,9020078,,,2023-03-06,清算の結了等,,,2015-10-05,1,,,,,ミシマショウジ,0
488,2440001001307,登記記録の閉鎖等,0,2023-03-13,2023-03-07,株式会社手塚商店,,株式会社,北海道,函館市,大森町８番１５号,,01,202,0400034,,,2023-03-07,清算の結了等,,,2015-10-05,1,,,,,テズカショウテン,0
498,3010002000218,登記記録の閉鎖等,0,2023-03-13,2023-03-06,有限会社秋山製版,,有限会社,東京都,文京区,関口１丁目２８番４号,,13,105,1120014,,,2023-03-06,清算の結了等,,,2015-10-05,1,,,,,アキヤマセイハン,0
499,3010003028448,登記記録の閉鎖等,0,2023-03-13,2023-03-07,マックスコンサルティングサービス合同会社,,合同会社,東京都,中央区,日本橋人形町２丁目１４番６号,,13,102,1030013,,,2023-03-07,清算の結了等,,,2018-10-11,1,,,,,マックスコンサルティングサービス,0
513,3010403010492,登記記録の閉鎖等,0,2023-03-13,2023-03-01,合同会社ＪＲＥ福岡赤村,,合同会社,東京都,港区,六本木６丁目２番３１号六本木ヒルズノースタワー１５階,,13,103,1060032,,,2023-03-01,合併による解散等,5010401101449,令和５年３月１日東京都港区六本木六丁目２番３１号六本木ヒルズノースタワー１５階ジャパン・リニューアブル・エナジー株式会社（5010401101449）に合併し解散,2015-10-05,1,,,,,ジェーアールイーフクオカアカムラ,0
514,3010403011805,登記記録の閉鎖等,0,2023-03-13,2023-03-01,合同会社ＪＲＥリアルエステート南伊勢,,合同会社,東京都,港区,六本木６丁目２番３１号六本木ヒルズノースタワー１５階,,13,103,1060032,,,2023-03-01,合併による解散等,5010401101449,令和５年３月１日東京都港区六本木六丁目２番３１号六本木ヒルズノースタワー１５階ジャパン・リニューアブル・エナジー株式会社（5010401101449）に合併し解散,2015-10-05,1,,,,,ジェーアールイーリアルエステートミナミイセ,0
515,3010403012084,登記記録の閉鎖等,0,2023-03-13,2023-03-01,合同会社ＪＲＥ稲敷佐倉,,合同会社,東京都,港区,六本木６丁目２番３１号六本木ヒルズノースタワー１５階,,13,103,1060032,,,2023-03-01,合併による解散等,5010401101449,令和５年３月１日東京都港区六本木六丁目２番３１号六本木ヒルズノースタワー１５階ジャパン・リニューアブル・エナジー株式会社（5010401101449）に合併し解散,2015-10-05,1,,,,,ジェーアールイーイナシキサクラ,0
516,3010403012357,登記記録の閉鎖等,0,2023-03-13,2023-03-01,合同会社ＪＲＥ志賀西海,,合同会社,東京都,港区,六本木６丁目２番３１号六本木ヒルズノースタワー１５階,,13,103,1060032,,,2023-03-01,合併による解散等,5010401101449,令和５年３月１日東京都港区六本木六丁目２番３１号六本木ヒルズノースタワー１５階ジャパン・リニューアブル・エナジー株式会社（5010401101449）に合併し解散,2015-10-05,1,,,,,ジェーアールイーシカサイカイ,0
517,3010403018404,登記記録の閉鎖等,0,2023-03-13,2023-03-01,合同会社ＣＨＥＥＲ,,合同会社,東京都,港区,芝４丁目１番２３号三田ＮＮビル１８階,,13,103,1080014,,,2023-03-01,合併による解散等,7010401089807,令和５年３月１日東京都港区芝四丁目１番２３号三田ＮＮビル１８階株式会社ＤＤプラス（7010401089807）に合併し解散,2018-04-05,1,,,,,チアー,0
553,3011502000681,登記記録の閉鎖等,0,2023-03-13,2023-03-01,有限会社イワミ堂薬局,,有限会社,東京都,港区,虎ノ門１丁目１番１８号,,13,103,1050001,,,2023-03-01,合併による解散等,9010401061136,令和５年３月１日東京都港区虎ノ門一丁目１番１８号株式会社なの花東日本（9010401061136）に合併し解散,2015-10-05,1,,,,,イワミドウヤッキョク,0
566,3020001130700,登記記録の閉鎖等,0,2023-03-13,2023-03-07,エーアンドジーホールディングス株式会社,,株式会社,神奈川県,横浜市中区,花咲町２丁目６２番地１８号,,14,104,2310063,,,2023-03-07,清算の結了等,,,2019-04-11,1,,,,,エーアンドジーホールディングス,0
591,3030001135715,登記記録の閉鎖等,0,2023-03-13,2023-03-08,株式会社フクダＰＴＳ,,株式会社,埼玉県,川口市,青木３丁目２７番１７号,,11,203,3320031,,,2023-03-08,清算の結了等,,,2020-03-24,1,,,,,フクダピーティーエス,0
593,3030002062363,登記記録の閉鎖等,0,2023-03-13,2023-03-08,有限会社満月堂,,有限会社,埼玉県,新座市,野火止１丁目２番２８号,,11,230,3520011,,,2023-03-08,清算の結了等,,,2015-10-05,1,,,,,マンゲツドウ,0
597,3030005003208,登記記録の閉鎖等,0,2023-03-13,2023-03-08,特定非営利活動法人東京湾と荒川・利根川・多摩川を結ぶ水フォーラム,,その他の設立登記法人,埼玉県,戸田市,南町３番２０号,,11,224,3350025,,,2023-03-08,清算の結了等,,,2015-10-05,1,,,,,トウキョウワントアラカワトネガワタマガワヲムスブミズフォーラム,0
612,3070001015839,登記記録の閉鎖等,0,2023-03-13,2023-03-09,桐生冨士機材株式会社,,株式会社,群馬県,桐生市,広沢町４丁目２４４０番地の５,,10,203,3760013,,,2023-03-09,合併による解散等,9010001055397,令和５年３月１日東京都千代田区一番町１２冨士機材株式会社（9010001055397）に合併し解散,2015-10-05,1,,,,,キリュウフジキザイ,0
617,3080001002935,登記記録の閉鎖等,0,2023-03-13,2023-03-09,静岡冨士機材株式会社,,株式会社,静岡県,静岡市駿河区,豊田３丁目１０番１０号,,22,102,4228027,,,2023-03-09,合併による解散等,9010001055397,令和５年３月１日東京都千代田区一番町１２冨士機材株式会社（9010001055397）に合併し解散,2015-10-05,1,,,,,シズオカフジキザイ,0
625,3100005009718,登記記録の閉鎖等,0,2023-03-13,2023-03-09,照月寺,,その他の設立登記法人,長野県,飯田市,毛賀５２６番地,,20,205,3950813,,,2023-03-09,清算の結了等,,,2015-10-05,1,,,,,ショウゲツジ,0
628,3110005016036,登記記録の閉鎖等,0,2023-03-13,2023-03-06,特定非営利活動法人キッズサポートつむぎ,,その他の設立登記法人,新潟県,長岡市,栃尾本町４番２０号,,15,202,9400223,,,2023-03-06,清算の結了等,,,2016-12-20,1,,,,,キッズサポートツムギ,0
674,3180301030262,登記記録の閉鎖等,0,2023-03-13,2023-03-02,株式会社ナーチャ,,株式会社,愛知県,西尾市,市子町西蓑手４１番地,,23,213,4450055,,,2023-03-02,清算の結了等,,,2017-04-26,1,,,,,ナーチャ,0
719,3360001017608,登記記録の閉鎖等,0,2023-03-13,2023-03-01,株式会社愛・ゆぬん屋,,株式会社,沖縄県,石垣市,字平得１３３番地８,,47,207,9070003,,,2023-03-01,合併による解散等,3360002020998,令和５年３月１日沖縄県石垣市美崎町７番地１１株式会社稲福酒販（3360002020998）に合併し解散,2015-10-05,1,,,,,アイユヌンヤ,0
743,3460001000727,登記記録の閉鎖等,0,2023-03-13,2023-03-09,株式会社新建,,株式会社,北海道,釧路市,興津２丁目２番７号,,01,206,0850811,,,2023-03-09,清算の結了等,,,2015-10-05,1,,,,,シンケン,0
760,4010005030590,登記記録の閉鎖等,0,2023-03-13,2023-03-09,ＡＭＷ八王子ホールディング特定目的会社,,その他の設立登記法人,東京都,千代田区,丸の内３丁目１番１号東京共同会計事務所内,,13,101,1000005,,,2023-03-09,清算の結了等,,,2019-08-09,1,,,,,エーエムダブリューハチオウジホールディング,0
769,4010403013123,登記記録の閉鎖等,0,2023-03-13,2023-03-01,合同会社ＪＲＥ能代三種,,合同会社,東京都,港区,六本木６丁目２番３１号六本木ヒルズノースタワー１５階,,13,103,1060032,,,2023-03-01,合併による解散等,5010401101449,令和５年３月１日東京都港区六本木六丁目２番３１号六本木ヒルズノースタワー１５階ジャパン・リニューアブル・エナジー株式会社（5010401101449）に合併し解散,2015-10-05,1,,,,,ジェーアールイーノシロミタネ,0
771,4010403025886,登記記録の閉鎖等,0,2023-03-13,2023-03-01,合同会社ＪＲＥアルバ,,合同会社,東京都,港区,六本木６丁目２番３１号六本木ヒルズノースタワー１５階,,13,103,1060032,,,2023-03-01,合併による解散等,5010401101449,令和５年３月１日東京都港区六本木六丁目２番３１号六本木ヒルズノースタワー１５階ジャパン・リニューアブル・エナジー株式会社（5010401101449）に合併し解散,2021-08-10,1,,,,,ジェーアールイーアルバ,0
773,4010405004087,登記記録の閉鎖等,0,2023-03-13,2023-03-01,特定非営利活動法人共同住宅高齢者支援センター,,その他の設立登記法人,東京都,港区,南青山６丁目１番３２号南青ハイツ４１８号室,,13,103,1070062,,,2023-03-01,清算の結了等,,,2015-10-05,1,,,,,キョウドウジュウタクコウレイシャシエンセンター,0
775,4010701034597,登記記録の閉鎖等,0,2023-03-13,2023-03-08,株式会社イートレーディング,,株式会社,東京都,品川区,南大井５丁目１１,,13,109,1400013,,,2023-03-08,清算の結了等,,,2017-08-09,1,,,,,,0
796,4011805001698,登記記録の閉鎖等,0,2023-03-13,2023-03-07,協同組合全国製麸工業会,,その他の設立登記法人,東京都,足立区,扇１丁目５２番２１号,,13,121,1230873,,,2023-03-07,清算の結了等,,,2015-10-05,1,,,,,ゼンコクセイフコウギヨウカイ,0
797,4012401025694,登記記録の閉鎖等,0,2023-03-13,2023-03-07,株式会社ＫＡＤＯＤＥ,,株式会社,東京都,府中市,晴見町１丁目２８番地の３５,,13,206,1830057,,,2023-03-07,清算の結了等,,,2015-10-05,1,,,,,カドデ,0
817,4020002017367,登記記録の閉鎖等,0,2023-03-13,2023-03-08,有限会社藤棚大阪屋,,有限会社,神奈川県,横浜市西区,中央２丁目６番７号,,14,103,2200051,,,2023-03-08,清算の結了等,,,2015-10-05,1,,,,,フジダナオオサカヤ,0
828,4030001069094,登記記録の閉鎖等,0,2023-03-13,2023-03-09,埼玉冨士機材株式会社,,株式会社,埼玉県,鶴ヶ島市,大字太田ヶ谷字下後９４８番地３,,11,241,3502214,,,2023-03-09,合併による解散等,9010001055397,令和５年３月１日東京都千代田区一番町１２冨士機材株式会社（9010001055397）に合併し解散,2015-10-05,1,,,,,サイタマフジキザイ,0
836,4030005007182,登記記録の閉鎖等,0,2023-03-13,2023-03-03,特定非営利活動法人耀の会,,その他の設立登記法人,埼玉県,和光市,新倉２丁目２７番２５－７０１号ライオンズマンション和光第５,,11,229,3510115,,,2023-03-03,清算の結了等,,,2015-10-05,1,,,,,カガヤキノカイ,0
849,4070001003000,登記記録の閉鎖等,0,2023-03-13,2023-03-09,前橋冨士機材株式会社,,株式会社,群馬県,前橋市,力丸町２７２番地１,,10,201,3792134,,,2023-03-09,合併による解散等,9010001055397,令和５年３月１日東京都千代田区一番町１２冨士機材株式会社（9010001055397）に合併し解散,2015-10-05,1,,,,,マエバシフジキザイ,0
853,4070005001834,登記記録の閉鎖等,0,2023-03-13,2023-03-09,特定非営利活動法人夢すばる,,その他の設立登記法人,群馬県,前橋市,元総社町１３５１番地２,,10,201,3710846,,,2023-03-09,清算の結了等,,,2015-10-05,1,,,,,ムスバル,0
888,4130001005106,登記記録の閉鎖等,0,2023-03-13,2023-03-01,株式会社Ｓ．Ａ．Ｋ．,,株式会社,京都府,京都市北区,紫野下石龍町２５番地ルミエール紫野４０２,,26,101,6038213,,,2023-03-01,合併による解散等,9130001048141,令和５年３月１日京都市東山区祇園町北側２４４株式会社天周（9130001048141）に合併し解散,2015-10-05,1,,,,,エスエーケー,0
916,4180001152975,登記記録の閉鎖等,0,2023-03-13,2023-03-06,株式会社Ｉ４Ｕ,,株式会社,愛知県,名古屋市西区,則武新町２丁目１１－５８－１００４,,23,104,4510051,,,2023-03-06,清算の結了等,,,2022-09-09,1,,,,,アイフォーユー,0
917,4180002002948,登記記録の閉鎖等,0,2023-03-13,2023-03-07,有限会社日野原建設,,有限会社,愛知県,名古屋市千種区,新西１丁目４番１号ラ・プリマヴェーラ２Ｆ号,,23,101,4640003,,,2023-03-07,清算の結了等,,,2015-10-05,1,,,,,ヒノハラケンセツ,0
922,4180005012399,登記記録の閉鎖等,0,2023-03-13,2023-03-02,半田炊事協同組合,,その他の設立登記法人,愛知県,半田市,宮本町４丁目３８番地,,23,205,4750925,,,2023-03-02,清算の結了等,,,2015-10-05,1,,,,,ハンダスイジ,0
950,4290001092863,登記記録の閉鎖等,0,2023-03-13,2023-03-07,株式会社Ｌｏａ,,株式会社,福岡県,春日市,春日２丁目９７番地１,,40,218,8160814,,,2023-03-07,清算の結了等,,,2021-04-26,1,,,,,ロア,0
959,4330002021701,登記記録の閉鎖等,0,2023-03-13,2023-03-07,有限会社川村建設,,有限会社,熊本県,荒尾市,大島１０３番地２,,43,204,8640057,,,2023-03-07,合併による解散等,4330002021882,令和５年３月１日熊本県荒尾市大島９２番地１９株式会社日新商会（4330002021882）に合併し解散,2015-10-05,1,,,,,カワムラケンセツ,0
960,4340001019423,登記記録の閉鎖等,0,2023-03-13,2023-03-09,株式会社大吉不動産,,株式会社,鹿児島県,鹿児島市,本名町５５０番地１６,,46,201,8911304,,,2023-03-09,清算の結了等,,,2016-06-24,1,,,,,ダイキチフドウサン,0
994,5010003034254,登記記録の閉鎖等,0,2023-03-13,2023-03-03,リネン合同会社,,合同会社,東京都,中央区,銀座７丁目１３番６号サガミビル２階,,13,102,1040061,,,2023-03-03,清算の結了等,,,2021-02-26,1,,,,,リネン,0
997,5010401020871,登記記録の閉鎖等,0,2023-03-13,2023-03-09,東京冨士機材株式会社,,株式会社,東京都,港区,新橋５丁目１０番６号,,13,103,1050004,,,2023-03-09,合併による解散等,9010001055397,令和５年３月１日東京都千代田区一番町１２冨士機材株式会社（9010001055397）に合併し解散,2015-10-05,1,,,,,トウキョウフジキザイ,0
1003,5010401171062,登記記録の閉鎖等,0,2023-03-13,2023-03-01,株式会社恵比寿,,株式会社,東京都,港区,芝２丁目１０番６号ＥＡＲＴＨＳＨＩＢＡＢＬＤ．３Ｆ,,13,103,1050014,,,2023-03-01,合併による解散等,9010401142027,令和５年３月１日東京都港区赤坂一丁目１２番３２号アーク森ビルイーストウィング１８階エコロシティ株式会社（9010401142027）に合併し解散,2022-11-28,1,,,,,エビス,0
1005,5010403015647,登記記録の閉鎖等,0,2023-03-13,2023-03-01,合同会社ＪＲＥ神栖バイオマス発電,,合同会社,東京都,港区,六本木６丁目２番３１号六本木ヒルズノースタワー１５階,,13,103,1060032,,,2023-03-01,合併による解散等,5010401101449,令和５年３月１日東京都港区六本木六丁目２番３１号六本木ヒルズノースタワー１５階ジャパン・リニューアブル・エナジー株式会社（5010401101449）に合併し解散,2016-11-25,1,,,,,ジェーアールイーカミスバイオマスハツデン,0
1006,5010403016182,登記記録の閉鎖等,0,2023-03-13,2023-03-01,合同会社ＪＲＥ上駒月,,合同会社,東京都,港区,六本木６丁目２番３１号六本木ヒルズノースタワー１５階,,13,103,1060032,,,2023-03-01,合併による解散等,5010401101449,令和５年３月１日東京都港区六本木六丁目２番３１号六本木ヒルズノースタワー１５階ジャパン・リニューアブル・エナジー株式会社（5010401101449）に合併し解散,2017-02-24,1,,,,,ジェーアールイーカミコマヅキ,0
1042,5020001090257,登記記録の閉鎖等,0,2023-03-13,2023-03-06,株式会社たつ巳,,株式会社,東京都,江東区,富岡１丁目２番８号,,13,108,1350047,,,2023-03-06,清算の結了等,,,2015-10-05,1,,,,,,0
1064,5030001044071,登記記録の閉鎖等,0,2023-03-13,2023-03-03,株式会社ＭＳＡシステム,,株式会社,埼玉県,上尾市,浅間台４丁目２０番地６,,11,219,3620073,,,2023-03-03,清算の結了等,,,2015-10-05,1,,,,,エムエスエーシステム,0
1065,5030001064160,登記記録の閉鎖等,0,2023-03-13,2023-03-09,松竹商事株式会社,,株式会社,埼玉県,川口市,東川口４丁目２７番１４号,,11,203,3330801,,,2023-03-09,清算の結了等,,,2015-10-05,1,,,,,ショウチクショウジ,0
1070,5030002025459,登記記録の閉鎖等,0,2023-03-13,2023-03-07,有限会社ヤマミヤ,,有限会社,埼玉県,川口市,在家町３番９号,,11,203,3330863,,,2023-03-07,清算の結了等,,,2015-10-05,1,,,,,ヤマミヤ,0
1077,5050001010765,登記記録の閉鎖等,0,2023-03-13,2023-03-01,エスエスティー株式会社,,株式会社,東京都,港区,港南１丁目６番４１号,,13,103,1080075,,,2023-03-01,合併による解散等,9010401013459,令和５年３月１日東京都港区港南一丁目６番４１号芝浦シヤリング株式会社（9010401013459）に合併し解散,2015-10-05,1,,,,,エスエスティー,0
1084,5060001009410,登記記録の閉鎖等,0,2023-03-13,2023-03-08,リーフグループ株式会社,,株式会社,栃木県,真岡市,中郷２７５番地,,09,209,3214308,,,2023-03-08,清算の結了等,,,2015-10-05,1,,,,,リーフグループ,0
1116,5120101055034,登記記録の閉鎖等,0,2023-03-13,2023-03-10,株式会社スマイルステージ,,株式会社,大阪府,大阪市中央区,西心斎橋２丁目２番７号御堂筋ジュンアシダビル７階,,27,128,5420086,,,2023-03-10,清算の結了等,,,2016-07-13,1,,,,,スマイルステージ,0
1183,5330005001897,登記記録の閉鎖等,0,2023-03-13,2023-03-07,特定非営利活動法人平和と人権フォーラム,,その他の設立登記法人,熊本県,熊本市中央区,九品寺４丁目１番６号岩崎ビル３階,00098309,43,101,8620976,,,2023-03-07,清算の結了等,,,2015-10-05,1,,,,,ヘイワトジンケンフォーラム,0
1186,5340002004373,登記記録の閉鎖等,0,2023-03-13,2023-03-10,有限会社サンデー住宅,,有限会社,鹿児島県,鹿児島市,東谷山５丁目２６番７号,,46,201,8910113,,,2023-03-10,清算の結了等,,,2015-10-05,1,,,,,サンデージュウタク,0
1210,5430005008478,登記記録の閉鎖等,0,2023-03-13,2023-02-28,天理教狩太分教会,,その他の設立登記法人,北海道,虻田郡ニセコ町,字本通２５番地,,01,395,0481502,,,2023-02-28,合併による解散等,1140005016786,令和５年２月２７日兵庫県加東市山国２００４番地の４５天理教社大教会（1140005016786）に合併し解散,2015-10-05,1,,,,,テンリキョウカリブトブンキョウカイ,0
1237,6010003029047,登記記録の閉鎖等,0,2023-03-13,2023-03-07,合同会社アスールファイブ,,合同会社,東京都,中央区,日本橋１丁目４番１号日本橋一丁目ビルディング,,13,102,1030027,,,2023-03-07,清算の結了等,,,2019-01-11,1,,,,,アスールファイブ,0
1244,6010403011521,登記記録の閉鎖等,0,2023-03-13,2023-03-01,合同会社ＪＲＥリアルエステート香取,,合同会社,東京都,港区,六本木６丁目２番３１号六本木ヒルズノースタワー１５階,,13,103,1060032,,,2023-03-01,合併による解散等,5010401101449,令和５年３月１日東京都港区六本木六丁目２番３１号六本木ヒルズノースタワー１５階ジャパン・リニューアブル・エナジー株式会社（5010401101449）に合併し解散,2015-10-05,1,,,,,ジェーアールイーリアルエステートカトリ,0
1272,6011601021493,登記記録の閉鎖等,0,2023-03-13,2023-03-02,株式会社トモニッコ,,株式会社,東京都,練馬区,東大泉２丁目６番９号サンライズマンション２Ｆ,,13,120,1780063,,,2023-03-02,清算の結了等,,,2017-02-06,1,,,,,トモニッコ,0
1284,6012401030973,登記記録の閉鎖等,0,2023-03-13,2023-03-07,株式会社アキュラホーム東京中央,,株式会社,東京都,武蔵野市,吉祥寺南町１丁目３１番２号七井ビル１階,,13,203,1800003,,,2023-03-07,合併による解散等,3030001000431,令和５年３月１日さいたま市中央区円阿弥五丁目８番４０号株式会社ＡＱ　Ｇｒｏｕｐ（3030001000431）に合併し解散,2016-01-20,1,,,,,アキュラホームトウキョウチュウオウ,0
1290,6012801009403,登記記録の閉鎖等,0,2023-03-13,2023-03-06,株式会社環境ソーラー工販,,株式会社,東京都,立川市,錦町２丁目６番５号,,13,202,1900022,,,2023-03-06,清算の結了等,,,2015-10-05,1,,,,,カンキョウソーラーコウハン,0
1293,6013301010553,登記記録の閉鎖等,0,2023-03-13,2023-03-09,冨士機材ハウジング株式会社,,株式会社,東京都,豊島区,南池袋２丁目４０番２３号,,13,116,1710022,,,2023-03-09,合併による解散等,9010001055397,令和５年３月１日東京都千代田区一番町１２冨士機材株式会社（9010001055397）に合併し解散,2015-10-05,1,,,,,フジキザイハウジング,0
1299,6020002022043,登記記録の閉鎖等,0,2023-03-13,2023-03-07,有限会社中田建設,,有限会社,神奈川県,横浜市磯子区,岡村７丁目２９番２３号,,14,107,2350021,,,2023-03-07,清算の結了等,,,2015-10-05,1,,,,,ナカタケンセツ,0
1307,6030001091146,登記記録の閉鎖等,0,2023-03-13,2023-03-08,四方田産業株式会社,,株式会社,埼玉県,秩父郡皆野町,大字皆野１４０８番地,,11,362,3691412,,,2023-03-08,清算の結了等,,,2015-10-05,1,,,,,ヨモダサンギョウ,0
1320,6040001119103,登記記録の閉鎖等,0,2023-03-13,2023-03-06,株式会社一発屋,,株式会社,千葉県,木更津市,潮浜１丁目１７番地１０５,,12,206,2920838,,,2023-03-06,清算の結了等,,,2021-06-29,1,,,,,イッパツヤ,0
1337,6060002020308,登記記録の閉鎖等,0,2023-03-13,2023-03-07,有限会社杉野木工興業,,有限会社,栃木県,鹿沼市,幸町２丁目２番１３号,,09,205,3220023,,,2023-03-07,清算の結了等,,,2015-10-05,1,,,,,スギノモッコウコウギョウ,0
1366,6130003006430,登記記録の閉鎖等,0,2023-03-13,2023-03-06,合同会社フジ・コーポレーション,,合同会社,京都府,京都市左京区,浄土寺西田町２９番地２,,26,103,6068417,,,2023-03-06,清算の結了等,,,2020-03-04,1,,,,,フジコーポレーション,0
1401,6240002004374,登記記録の閉鎖等,0,2023-03-13,2023-03-10,有限会社祗園建材,,有限会社,広島県,広島市安佐南区,西原９丁目１３番１４号,,34,105,7310113,,,2023-03-10,清算の結了等,,,2015-10-05,1,,,,,ギオンケンザイ,0
1419,6290003011885,登記記録の閉鎖等,0,2023-03-13,2023-03-07,合同会社優基,,合同会社,福岡県,久留米市,北野町赤司字上町小路１７８８番地３,,40,203,8301127,,,2023-03-07,清算の結了等,,,2021-12-06,1,,,,,ユウキ,0
1420,6310001015910,登記記録の閉鎖等,0,2023-03-13,2023-03-10,長崎県央福祉サービス株式会社,,株式会社,長崎県,諫早市,山川町２番地６,,42,204,8540074,,,2023-03-10,清算の結了等,,,2019-01-10,1,,,,,ナガサキケンオウフクシサービス,0
1421,6310002018961,登記記録の閉鎖等,0,2023-03-13,2023-03-09,有限会社はらほげ,,有限会社,長崎県,壱岐市,芦辺町諸吉本村触１３０７番地,00096198,42,210,8115311,,,2023-03-09,清算の結了等,,,2015-10-05,1,,,,,ハラホゲ,0
1426,6330002021658,登記記録の閉鎖等,0,2023-03-13,2023-03-07,有限会社今津屋企画,,有限会社,熊本県,荒尾市,大島１０３番地の２,,43,204,8640057,,,2023-03-07,合併による解散等,4330002021882,令和５年３月１日熊本県荒尾市大島９２番地１９株式会社日新商会（4330002021882）に合併し解散,2015-10-05,1,,,,,イマヅヤキカク,0
1438,6380001028708,登記記録の閉鎖等,0,2023-03-13,2023-03-07,株式会社ＡｎｏｓｔＶＲ,,株式会社,福島県,福島市,大森字中町裏２０－５,,07,201,9601101,,,2023-03-07,清算の結了等,,,2017-12-18,1,,,,,アナストブイアール,0
1439,6380002001052,登記記録の閉鎖等,0,2023-03-13,2023-03-08,有限会社協働,,有限会社,福島県,福島市,荒町１番２１号,,07,201,9608042,,,2023-03-08,清算の結了等,,,2015-10-05,1,,,,,キョウドウ,0
1441,6390005002278,登記記録の閉鎖等,0,2023-03-13,2023-03-02,農事組合法人高擶組合,00085134,その他の設立登記法人,山形県,天童市,大字高擶南１５５８番地の１,00085135,06,210,9940068,,,2023-03-02,清算の結了等,,,2015-10-05,1,,,,,,0
1445,6430001079150,登記記録の閉鎖等,0,2023-03-13,2023-03-10,株式会社リハポート,,株式会社,北海道,札幌市南区,石山二条６丁目７番１号,,01,106,0050842,,,2023-03-10,清算の結了等,,,2019-06-07,1,,,,,リハポート,0
1453,6470003000746,登記記録の閉鎖等,0,2023-03-13,2023-03-09,ＭＡＫＩ合同会社,,合同会社,香川県,高松市,東山崎町２５５番地２,,37,201,7610312,,,2023-03-09,清算の結了等,,,2015-10-05,1,,,,,マキ,0
1455,6480003001719,登記記録の閉鎖等,0,2023-03-13,2023-03-09,吉岡電工合同会社,,合同会社,徳島県,板野郡上板町,泉谷字砂コウ３７番地１,,36,405,7711310,,,2023-03-09,清算の結了等,,,2021-08-31,1,,,,,ヨシオカデンコウ,0
1457,6500001015420,登記記録の閉鎖等,0,2023-03-13,2023-03-10,株式会社スポーツマン,,株式会社,愛媛県,宇和島市,丸之内３丁目５番６号,,38,203,7980060,,,2023-03-10,清算の結了等,,,2015-10-05,1,,,,,,0
1461,7010001134847,登記記録の閉鎖等,0,2023-03-13,2023-03-07,株式会社ガリバーインシュアランス,,株式会社,東京都,千代田区,丸の内２丁目７番２号,,13,101,1000005,,,2023-03-07,合併による解散等,1010001069520,令和５年２月２８日東京都千代田区丸の内二丁目７番２号株式会社ＩＤＯＭ（1010001069520）に合併し解散,2015-10-05,1,,,,,ガリバーインシュアランス,0
1466,7010002003431,登記記録の閉鎖等,0,2023-03-13,2023-03-06,有限会社セカンドステップ,,有限会社,東京都,文京区,大塚２丁目４番８－１００７号,,13,105,1120012,,,2023-03-06,清算の結了等,,,2015-10-05,1,,,,,セカンドステップ,0
1475,7010401048358,登記記録の閉鎖等,0,2023-03-13,2023-02-28,ノブアンド株式会社,,株式会社,東京都,港区,南青山７丁目１番２１号,,13,103,1070062,,,2023-02-28,清算の結了等,,,2015-10-05,1,,,,,,0
1488,7010403011768,登記記録の閉鎖等,0,2023-03-13,2023-03-01,合同会社ＪＲＥリアルエステート高島,,合同会社,東京都,港区,六本木６丁目２番３１号六本木ヒルズノースタワー１５階,,13,103,1060032,,,2023-03-01,合併による解散等,5010401101449,令和５年３月１日東京都港区六本木六丁目２番３１号六本木ヒルズノースタワー１５階ジャパン・リニューアブル・エナジー株式会社（5010401101449）に合併し解散,2015-10-05,1,,,,,ジェーアールイーリアルエステートタカシマ,0
1489,7010403012080,登記記録の閉鎖等,0,2023-03-13,2023-03-01,合同会社ＪＲＥ七戸鶴児平,,合同会社,東京都,港区,六本木６丁目２番３１号六本木ヒルズノースタワー１５階,,13,103,1060032,,,2023-03-01,合併による解散等,5010401101449,令和５年３月１日東京都港区六本木六丁目２番３１号六本木ヒルズノースタワー１５階ジャパン・リニューアブル・エナジー株式会社（5010401101449）に合併し解散,2015-10-05,1,,,,,ジェーアールイーシチノヘツルノコタイ,0
1495,7010602003822,登記記録の閉鎖等,0,2023-03-13,2023-03-06,有限会社澤村製本,,有限会社,東京都,江東区,東砂７丁目２番１０号,,13,108,1360074,,,2023-03-06,清算の結了等,,,2015-10-05,1,,,,,サワムラセイホン,0
1507,7011102002645,登記記録の閉鎖等,0,2023-03-13,2023-03-09,有限会社小川製本,,有限会社,東京都,新宿区,原町３丁目４２番５,,13,104,1620053,,,2023-03-09,清算の結了等,,,2015-10-05,1,,,,,,0
1523,7020001001261,登記記録の閉鎖等,0,2023-03-13,2023-03-09,神奈川冨士機材株式会社,,株式会社,神奈川県,横浜市瀬谷区,目黒町１５番地５,,14,114,2460007,,,2023-03-09,合併による解散等,9010001055397,令和５年３月１日東京都千代田区一番町１２冨士機材株式会社（9010001055397）に合併し解散,2015-10-05,1,,,,,カナガワフジキザイ,0
1530,7021002013072,登記記録の閉鎖等,0,2023-03-13,2023-03-08,有限会社リスコンオフィス,,有限会社,神奈川県,茅ヶ崎市,元町４番１３号鈴木ビル２０１,,14,207,2530043,,,2023-03-08,清算の結了等,,,2015-10-05,1,,,,,リスコンオフィス,0
1533,7030001036422,登記記録の閉鎖等,0,2023-03-13,2023-03-09,八潮冨士機材株式会社,,株式会社,埼玉県,八潮市,大瀬５丁目３番地１０,,11,234,3400822,,,2023-03-09,合併による解散等,9010001055397,令和５年３月１日東京都千代田区一番町１２冨士機材株式会社（9010001055397）に合併し解散,2015-10-05,1,,,,,ヤシオフジキザイ,0
1550,7050001003057,登記記録の閉鎖等,0,2023-03-13,2023-03-08,株式会社吉田商事,,株式会社,茨城県,水戸市,元吉田町１４２５番地６,,08,201,3100836,,,2023-03-08,清算の結了等,,,2015-10-05,1,,,,,ヨシダショウジ,0
1552,7050001046881,登記記録の閉鎖等,0,2023-03-13,2023-03-09,株式会社ＣＡＲ－ＮＩＶＡＬ,,株式会社,茨城県,水戸市,東野町２６３番地１１,,08,201,3100846,,,2023-03-09,清算の結了等,,,2019-12-05,1,,,,,カーニバル,0
1600,7120901032437,登記記録の閉鎖等,0,2023-03-13,2023-03-01,株式会社ＥＤＧＥ,,株式会社,大阪府,茨木市,宿久庄３丁目２４番２５号,,27,211,5670051,,,2023-03-01,合併による解散等,8120902016999,令和５年３月１日大阪府茨木市宿久庄三丁目２４番２５号株式会社ＥＤＧＥ　Ｇｒｏｕｐ（8120902016999）に合併し解散,2015-10-05,1,,,,,エッジ,0
1605,7130001026495,登記記録の閉鎖等,0,2023-03-13,2023-03-07,株式会社東京鮎家,00049557,株式会社,東京都,中央区,日本橋小伝馬町１２番９号,,13,102,1030001,,,2023-03-07,清算の結了等,,,2015-10-05,1,,,,,トウキョウアユヤ,0
1620,7180001105947,登記記録の閉鎖等,0,2023-03-13,2023-03-06,株式会社チェスト,,株式会社,愛知県,名古屋市中区,錦３丁目１４番９号,,23,106,4600003,,,2023-03-06,清算の結了等,,,2015-10-05,1,,,,,チェスト,0
1625,7180301004353,登記記録の閉鎖等,0,2023-03-13,2023-03-07,株式会社オカザキホーム,,株式会社,愛知県,岡崎市,大樹寺１丁目５番地２０,,23,202,4442134,,,2023-03-07,合併による解散等,3030001000431,令和５年３月１日さいたま市中央区円阿弥五丁目８番４０号株式会社ＡＱ　Ｇｒｏｕｐ（3030001000431）に合併し解散,2015-10-05,1,,,,,オカザキホーム,0
1627,7180305008680,登記記録の閉鎖等,0,2023-03-13,2023-03-03,一般社団法人ＵＮＡＢＡＬＡ２２,,その他の設立登記法人,愛知県,豊橋市,野依町字山中１９番地１５,,23,201,4418124,,,2023-03-03,清算の結了等,,,2017-08-18,1,,,,,ウナバラニジュウニ,0
1637,7250001013886,登記記録の閉鎖等,0,2023-03-13,2023-03-08,株式会社アノード,,株式会社,山口県,下関市,大字吉田１０２０番地８,,35,201,7501101,,,2023-03-08,清算の結了等,,,2015-10-05,1,,,,,アノード,0
1654,7290801010476,登記記録の閉鎖等,0,2023-03-13,2023-03-09,株式会社福七米穀,,株式会社,福岡県,北九州市八幡西区,町上津役東１丁目１６番１９号,,40,109,8070073,,,2023-03-09,清算の結了等,,,2015-10-05,1,,,,,フクシチベイコク,0
1704,8010003017537,登記記録の閉鎖等,0,2023-03-13,2023-03-01,水戸ニュータウン・メガソーラーパーク合同会社,,合同会社,東京都,港区,六本木６丁目２番３１号六本木ヒルズノースタワー１５階,,13,103,1060032,,,2023-03-01,合併による解散等,5010401101449,令和５年３月１日東京都港区六本木六丁目２番３１号六本木ヒルズノースタワー１５階ジャパン・リニューアブル・エナジー株式会社（5010401101449）に合併し解散,2015-10-05,1,,,,,ミトニュータウンメガソーラーパーク,0
1705,8010003028229,登記記録の閉鎖等,0,2023-03-13,2023-03-07,合同会社アスールフォー,,合同会社,東京都,中央区,日本橋１丁目４番１号日本橋一丁目ビルディング,,13,102,1030027,,,2023-03-07,清算の結了等,,,2018-09-10,1,,,,,アスールフォー,0
1706,8010005016330,登記記録の閉鎖等,0,2023-03-13,2023-03-06,一般社団法人子ども安全まちづくりパートナーズ,,その他の設立登記法人,千葉県,市川市,須和田２丁目１１番１１号,,12,203,2720825,,,2023-03-06,清算の結了等,,,2015-10-05,1,,,,,コドモアンゼンマチヅクリパートナーズ,0
1712,8010403012047,登記記録の閉鎖等,0,2023-03-13,2023-03-01,合同会社ＪＲＥ日高川,,合同会社,東京都,港区,六本木６丁目２番３１号六本木ヒルズノースタワー１５階,,13,103,1060032,,,2023-03-01,合併による解散等,5010401101449,令和５年３月１日東京都港区六本木六丁目２番３１号六本木ヒルズノースタワー１５階ジャパン・リニューアブル・エナジー株式会社（5010401101449）に合併し解散,2015-10-05,1,,,,,ジェーアールイーヒダカガワ,0
1733,8011002013725,登記記録の閉鎖等,0,2023-03-13,2023-03-08,有限会社良支,,有限会社,東京都,渋谷区,円山町７番５号,,13,113,1500044,,,2023-03-08,清算の結了等,,,2015-10-05,1,,,,,ヨシキ,0
1738,8011201007370,登記記録の閉鎖等,0,2023-03-13,2023-03-09,三和装工株式会社,,株式会社,東京都,中野区,本町１丁目１５番２２号パークハイム中野坂上７１１,,13,114,1640012,,,2023-03-09,清算の結了等,,,2015-10-05,1,,,,,,0
1746,8011602003555,登記記録の閉鎖等,0,2023-03-13,2023-03-07,有限会社小林鳶工業,,有限会社,東京都,練馬区,早宮１丁目４５番２２号,,13,120,1790085,,,2023-03-07,清算の結了等,,,2015-10-05,1,,,,,コバヤシトビコウギョウ,0
1748,8011701023289,登記記録の閉鎖等,0,2023-03-13,2023-03-10,株式会社ナナホシ給食,,株式会社,東京都,江戸川区,江戸川１丁目３６番９号ＫＳビル１階,,13,123,1320013,,,2023-03-10,清算の結了等,,,2020-02-05,1,,,,,ナナホシキュウショク,0
1755,8013201007697,登記記録の閉鎖等,0,2023-03-13,2023-03-09,株式会社フレッシュクリーム,,株式会社,東京都,目黒区,自由が丘１丁目２２番３号,,13,110,1520035,,,2023-03-09,清算の結了等,,,2015-10-05,1,,,,,,0
1760,8020001140389,登記記録の閉鎖等,0,2023-03-13,2023-03-08,株式会社経理ドクター,,株式会社,神奈川県,横浜市金沢区,富岡東１丁目１２番２号,,14,108,2360051,,,2023-03-08,清算の結了等,,,2021-03-16,1,,,,,ケイリドクター,0
1764,8021001007999,登記記録の閉鎖等,0,2023-03-13,2023-03-08,株式会社イシカワ技建,,株式会社,神奈川県,茅ヶ崎市,赤羽根２２４６第３コーポシマムラ１Ｂ,,14,207,2530001,,,2023-03-08,清算の結了等,,,2015-10-05,1,,,,,イシカワギケン,0
1781,8030003017147,登記記録の閉鎖等,0,2023-03-13,2023-03-08,ヒッコリー合同会社,,合同会社,埼玉県,志木市,柏町６丁目３０番５４号,,11,228,3530007,,,2023-03-08,清算の結了等,,,2021-04-22,1,,,,,ヒッコリー,0
1786,8040001076268,登記記録の閉鎖等,0,2023-03-13,2023-03-08,株式会社ウィロー,,株式会社,埼玉県,八潮市,大字垳３２１番地グランデ八潮１－１０１,,11,234,3400824,,,2023-03-08,清算の結了等,,,2015-10-05,1,,,,,ウィロー,0
1835,8120005014364,登記記録の閉鎖等,0,2023-03-13,2023-03-03,特定非営利活動法人グリーフケアネットワークとわど,,その他の設立登記法人,大阪府,大阪市東淀川区,東中島２丁目２２番９号,,27,114,5330033,,,2023-03-03,清算の結了等,,,2015-10-05,1,,,,,グリーフケアネットワークトワド,0
1843,8130002028003,登記記録の閉鎖等,0,2023-03-13,2023-03-09,有限会社カフェボーイ大塚,,有限会社,京都府,宇治市,神明石塚６番地の１２,,26,204,6110025,,,2023-03-09,清算の結了等,,,2015-10-05,1,,,,,カフェボーイオオツカ,0
1846,8130005013910,登記記録の閉鎖等,0,2023-03-13,2023-03-10,一般社団法人プライベートエージェント,,その他の設立登記法人,滋賀県,大津市,仰木の里東１丁目７番３号,,25,201,5200248,,,2023-03-10,清算の結了等,,,2015-10-05,1,,,,,プライベートエージェント,0
1869,8230002011618,登記記録の閉鎖等,0,2023-03-13,2023-03-09,有限会社東陽印刷所,,有限会社,富山県,高岡市,早川１５５番地の７,,16,202,9330957,,,2023-03-09,清算の結了等,,,2015-10-05,1,,,,,トウヨウインサツショ,0
1875,8250002013125,登記記録の閉鎖等,0,2023-03-13,2023-03-08,有限会社彩花,,有限会社,山口県,萩市,大字東田町８３番地,,35,204,7580047,,,2023-03-08,清算の結了等,,,2015-10-05,1,,,,,サイカ,0
1882,8280001000682,登記記録の閉鎖等,0,2023-03-13,2023-03-09,株式会社松江カントリー倶楽部,00004588,株式会社,島根県,松江市,薦津町８７５番地,,32,201,6900856,,,2023-03-09,清算の結了等,,,2015-10-05,1,,,,,マツエカントリークラブ,0
1886,8290001020845,登記記録の閉鎖等,0,2023-03-13,2023-03-06,株式会社高木,,株式会社,福岡県,福岡市南区,高木２丁目１９番１０号,,40,134,8150004,,,2023-03-06,清算の結了等,,,2015-10-05,1,,,,,タカギ,0
1890,8290005018803,登記記録の閉鎖等,0,2023-03-13,2023-03-13,特定非営利活動法人ほすぴぃ八女んちゃ,,その他の設立登記法人,福岡県,八女市,黒木町本分２３６６番地１,,40,210,8341213,,,2023-03-13,清算の結了等,,,2022-09-12,1,,,,,ホスピィヤメンチャ,0
1894,8290802005912,登記記録の閉鎖等,0,2023-03-13,2023-03-10,有限会社ｍ．ｃ,,有限会社,福岡県,北九州市小倉南区,中曽根東３丁目３番５８号,,40,107,8000213,,,2023-03-10,清算の結了等,,,2015-10-05,1,,,,,,0
1916,8400002002228,登記記録の閉鎖等,0,2023-03-13,2023-03-08,有限会社東北レストラン企画,,有限会社,新潟県,柏崎市,大字新道１２１３番地２,,15,205,9451122,,,2023-03-08,清算の結了等,,,2015-10-05,1,,,,,トウホクレストランキカク,0
1932,8470002013326,登記記録の閉鎖等,0,2023-03-13,2023-03-07,有限会社へんこつ茶屋,,有限会社,香川県,仲多度郡琴平町,２４０番地３,,37,403,7660001,,,2023-03-07,清算の結了等,,,2015-10-05,1,,,,,ヘンコツヂャヤ,0
1944,9010003026891,登記記録の閉鎖等,0,2023-03-13,2023-03-07,合同会社アスールツー,,合同会社,東京都,中央区,日本橋１丁目４番１号日本橋一丁目ビルディング,,13,102,1030027,,,2023-03-07,清算の結了等,,,2018-02-07,1,,,,,アスールツー,0
1950,9010401121105,登記記録の閉鎖等,0,2023-03-13,2023-03-02,イノベーティブマーケティング株式会社,,株式会社,東京都,港区,虎ノ門４丁目３番１号城山トラストタワー１７階,,13,103,1050001,,,2023-03-02,清算の結了等,,,2015-10-23,1,,,,,イノベーティブマーケティング,0
1963,9010403012079,登記記録の閉鎖等,0,2023-03-13,2023-03-01,合同会社ＪＲＥ姫路,,合同会社,東京都,港区,六本木６丁目２番３１号六本木ヒルズノースタワー１５階,,13,103,1060032,,,2023-03-01,合併による解散等,5010401101449,令和５年３月１日東京都港区六本木六丁目２番３１号六本木ヒルズノースタワー１５階ジャパン・リニューアブル・エナジー株式会社（5010401101449）に合併し解散,2015-10-05,1,,,,,ジェーアールイーヒメジ,0
1964,9010403012087,登記記録の閉鎖等,0,2023-03-13,2023-03-01,合同会社ＪＲＥリアルエステート高知香美,,合同会社,東京都,港区,六本木６丁目２番３１号六本木ヒルズノースタワー１５階,,13,103,1060032,,,2023-03-01,合併による解散等,5010401101449,令和５年３月１日東京都港区六本木六丁目２番３１号六本木ヒルズノースタワー１５階ジャパン・リニューアブル・エナジー株式会社（5010401101449）に合併し解散,2015-10-05,1,,,,,ジェーアールイーリアルエステートコウチカミ,0
1965,9010403013366,登記記録の閉鎖等,0,2023-03-13,2023-03-01,合同会社ＪＲＥ土浦,,合同会社,東京都,港区,六本木６丁目２番３１号六本木ヒルズノースタワー１５階,,13,103,1060032,,,2023-03-01,合併による解散等,5010401101449,令和５年３月１日東京都港区六本木六丁目２番３１号六本木ヒルズノースタワー１５階ジャパン・リニューアブル・エナジー株式会社（5010401101449）に合併し解散,2015-10-05,1,,,,,ジェーアールイーツチウラ,0
1985,9011001123128,登記記録の閉鎖等,0,2023-03-13,2023-03-07,株式会社アクシスメディコ,,株式会社,東京都,千代田区,内幸町２丁目１番１号,,13,101,1000011,,,2023-03-07,合併による解散等,1011001142688,令和５年３月１日東京都千代田区内幸町二丁目１番１号株式会社アクシス（1011001142688）に合併し解散,2018-07-05,1,,,,,アクシスメディコ,0
1987,9011001132252,登記記録の閉鎖等,0,2023-03-13,2023-03-07,デジタルフォース株式会社,,株式会社,東京都,新宿区,西新宿８丁目３番３０号,,13,104,1600023,,,2023-03-07,清算の結了等,,,2020-02-07,1,,,,,デジタルフォース,0
2012,9020001104343,登記記録の閉鎖等,0,2023-03-13,2023-03-10,株式会社ＳＹＲ,,株式会社,神奈川県,横浜市保土ケ谷区,帷子町１丁目４４西村アパート１０４号,,14,106,2400013,,,2023-03-10,清算の結了等,,,2015-10-05,1,,,,,エスワイアール,0
2013,9020002028104,登記記録の閉鎖等,0,2023-03-13,2023-03-10,有限会社豊月,,有限会社,神奈川県,横浜市神奈川区,子安通１丁目１２４番地,,14,102,2210021,,,2023-03-10,清算の結了等,,,2015-10-05,1,,,,,ホウゲツ,0
2040,9040001004871,登記記録の閉鎖等,0,2023-03-13,2023-03-09,千葉冨士機材株式会社,,株式会社,千葉県,千葉市稲毛区,山王町３８９番地,,12,103,2630002,,,2023-03-09,合併による解散等,9010001055397,令和５年３月１日東京都千代田区一番町１２冨士機材株式会社（9010001055397）に合併し解散,2015-10-05,1,,,,,チバフジキザイ,0
2041,9040001109332,登記記録の閉鎖等,0,2023-03-13,2023-03-06,株式会社ＹＳＭ,,株式会社,千葉県,千葉市中央区,矢作町１８５番地９,,12,101,2600851,,,2023-03-06,清算の結了等,,,2019-05-30,1,,,,,ワイエスエム,0
2054,9080001003903,登記記録の閉鎖等,0,2023-03-13,2023-03-10,中山設備工業株式会社,,株式会社,静岡県,静岡市葵区,下２５１番地の３,,22,101,4212108,,,2023-03-10,清算の結了等,,,2015-10-05,1,,,,,ナカヤマセツビコウギョウ,0
2056,9080401012504,登記記録の閉鎖等,0,2023-03-13,2023-03-08,株式会社静岡テレコム,,株式会社,神奈川県,横浜市西区,南幸１丁目１番１号,,14,103,2200005,,,2023-03-08,合併による解散等,1020001108657,令和５年３月１日横浜市西区南幸一丁目１番１号アイ・ティー・エックス株式会社（1020001108657）に合併し解散,2015-10-05,1,,,,,シズオカテレコム,0
2057,9080402017411,登記記録の閉鎖等,0,2023-03-13,2023-03-09,有限会社シンバ塗装店,,有限会社,静岡県,掛川市,大池３３７番地の２,,22,213,4360043,,,2023-03-09,清算の結了等,,,2015-10-05,1,,,,,シンバトソウテン,0
2058,9100001005186,登記記録の閉鎖等,0,2023-03-13,2023-03-07,株式会社テクニカルパートナー,,株式会社,長野県,長野市,大字栗田２１２５番地長栄長野東口ビル,,20,201,3800921,,,2023-03-07,合併による解散等,5010001105916,令和５年３月１日東京都千代田区神田三崎町一丁目３番１２号エスエイティーティー株式会社（5010001105916）に合併し解散,2015-10-05,1,,,,,テクニカルパートナー,0
2063,9120001116411,登記記録の閉鎖等,0,2023-03-13,2023-03-09,株式会社Ｋｉｗｉ留学ネット,,株式会社,大阪府,大東市,浜町５番２０号フミノマンション１００号,,27,218,5740041,,,2023-03-09,清算の結了等,,,2015-10-05,1,,,,,キウイリュウガクネット,0
2079,9120002050246,登記記録の閉鎖等,0,2023-03-13,2023-03-09,有限会社ワールド設備,,有限会社,大阪府,大阪市淀川区,十三東１丁目１４番１７号,,27,123,5320023,,,2023-03-09,清算の結了等,,,2015-10-05,1,,,,,ワールドセツビ,0
2091,9130001019654,登記記録の閉鎖等,0,2023-03-13,2023-02-22,株式会社浅野,,株式会社,京都府,京都市山科区,大塚高岩６番地６５,,26,110,6078122,,,2023-02-22,清算の結了等,,,2015-10-05,1,,,,,アサノ,0
2094,9130001049073,登記記録の閉鎖等,0,2023-03-13,2023-03-07,積水Ｐ２ナノテック株式会社,,株式会社,京都府,京都市南区,上鳥羽上調子町２番地の２,,26,107,6018105,,,2023-03-07,清算の結了等,,,2015-10-05,1,,,,,セキスイピーツーナノテック,0
2098,9140001053396,登記記録の閉鎖等,0,2023-03-13,2023-03-08,株式会社武庫川自動車整備工場,,株式会社,兵庫県,尼崎市,武庫川町１丁目１０番地,,28,202,6600084,,,2023-03-08,清算の結了等,,,2015-10-05,1,,,,,ムコガワジドウシャセイビコウジョウ,0
2111,9180001125869,登記記録の閉鎖等,0,2023-03-13,2023-03-06,株式会社アゲイン,,株式会社,愛知県,名古屋市中区,錦３丁目１４番９号,,23,106,4600003,,,2023-03-06,清算の結了等,,,2016-12-13,1,,,,,アゲイン,0
2117,9180003021471,登記記録の閉鎖等,0,2023-03-13,2023-03-06,合同会社ＤＥＶＩ,,合同会社,愛知県,海部郡大治町,大字西條字城前田１９番地の１０,,23,424,4901144,,,2023-03-06,清算の結了等,,,2020-08-06,1,,,,,デヴィ,0
2122,9190001012166,登記記録の閉鎖等,0,2023-03-13,2023-03-07,株式会社ＣＭＫ,,株式会社,三重県,桑名市,大字東汰上５１８番地,,24,205,5110806,,,2023-03-07,清算の結了等,,,2015-10-05,1,,,,,シーエムケー,0
2126,9200003005728,登記記録の閉鎖等,0,2023-03-13,2023-03-13,家電エンジニアハラ合同会社,,合同会社,岐阜県,中津川市,駒場１５５６番地の８８,,21,206,5080011,,,2023-03-13,清算の結了等,,,2022-11-02,1,,,,,カデンエンジニアハラ,0
2129,9200005008679,登記記録の閉鎖等,0,2023-03-13,2023-03-09,瑞浪建築板金協業組合,,その他の設立登記法人,岐阜県,瑞浪市,土岐町６９６０番地の２,,21,208,5096101,,,2023-03-09,清算の結了等,,,2015-10-05,1,,,,,ミズナミケンチクバンキン,0
2156,9320005002810,登記記録の閉鎖等,0,2023-03-13,2023-03-08,神聖庁,,その他の設立登記法人,大分県,別府市,野口元町１２番１１号,,44,202,8740933,,,2023-03-08,清算の結了等,,,2015-10-05,1,,,,,シンセイチョウ,0
2158,9330001019790,登記記録の閉鎖等,0,2023-03-13,2023-03-07,株式会社ＮＥＯホーム,,株式会社,熊本県,荒尾市,万田９５３番地,,43,204,8640002,,,2023-03-07,合併による解散等,4330002021882,令和５年３月１日熊本県荒尾市大島９２番地１９株式会社日新商会（4330002021882）に合併し解散,2015-10-05,1,,,,,ネオホーム,0
2164,9360001024672,登記記録の閉鎖等,0,2023-03-13,2023-03-07,株式会社やいま技研,,株式会社,沖縄県,石垣市,新栄町５２番地１２,,47,207,9070014,,,2023-03-07,清算の結了等,,,2018-10-03,1,,,,,ヤイマギケン,0
2168,9360002021660,登記記録の閉鎖等,0,2023-03-13,2023-03-06,農業生産法人有限会社ワイファーム,,有限会社,沖縄県,石垣市,字大浜４７２番地の２コーポスリーエス１０２号室,,47,207,9070001,,,2023-03-06,清算の結了等,,,2015-10-05,1,,,,,ノウギョウセイサンホウジンワイファーム,0
2171,9370002008681,登記記録の閉鎖等,0,2023-03-13,2023-03-08,有限会社マユミ商事,,有限会社,宮城県,仙台市宮城野区,中野字神明１０２番地の３,,04,102,9830013,,,2023-03-08,清算の結了等,,,2015-10-05,1,,,,,マユミショウジ,0
2174,9380002011065,登記記録の閉鎖等,0,2023-03-13,2023-03-08,有限会社トップエンブレム,,有限会社,福島県,郡山市,山根町３番１１号,,07,203,9638832,,,2023-03-08,合併による解散等,4380001004594,令和５年３月１日福島県郡山市備前舘一丁目２８番地株式会社トップエンブレム（4380001004594）に合併し解散,2015-10-05,1,,,,,トップエンブレム,0
