sequenceNumber,corporateNumber,process,correct,updateDate,changeDate,name,nameImageId,kind,prefectureName,cityName,streetNumber,addressImageId,prefectureCode,cityCode,postCode,addressOutside,addressOutsideImageId,closeDate,closeCause,successorCorporateNumber,changeCause,assignmentDate,latest,enName,enPrefectureName,enCityName,enAddressOutside,furigana,hihyoji
11,1010001239379,登記記録の閉鎖等,0,2025-07-31,2025-07-28,株式会社ＯＭＡＰＡＮ,,株式会社,東京都,中央区,日本橋室町１丁目１１番１２号日本橋水野ビル７階,,13,102,1030022,,,2025-07-28,合併による解散等,1011101064097,令和７年７月１日東京都港区南青山２－１２－１５南青山二丁目ビル５Ｆディヴォートソリューション株式会社（1011101064097）に合併し解散,2023-10-20,1,,,,,オマパン,0
17,1010002038284,登記記録の閉鎖等,0,2025-07-31,2025-07-02,有限会社ＭＡＭ,,有限会社,東京都,千代田区,二番町１１番地１０,,13,101,1020084,,,2025-07-02,清算の結了等,,,2015-10-05,1,,,,,,0
25,1010401111360,登記記録の閉鎖等,0,2025-07-31,2025-07-04,株式会社誠冨,,株式会社,東京都,港区,虎ノ門３丁目１０－５虎ノ門ミズサワビル５階,,13,103,1050001,,,2025-07-04,清算の結了等,,,2015-10-05,1,,,,,セイフウ,0
29,1010403026128,登記記録の閉鎖等,0,2025-07-31,2025-07-04,ジャパンインフラ１４号合同会社,,合同会社,東京都,港区,元赤坂１丁目１番７号,,13,103,1070051,,,2025-07-04,清算の結了等,,,2021-09-16,1,,,,,ジャパンインフラジュウヨンゴウ,0
48,1011001094616,登記記録の閉鎖等,0,2025-07-31,2025-07-03,株式会社アムタス,,株式会社,東京都,港区,赤坂９丁目７番２号,,13,103,1070052,,,2025-07-03,合併による解散等,9010401182469,令和７年７月１日東京都港区赤坂九丁目７番２号株式会社アムタス（9010401182469）に合併し解散,2015-10-05,1,,,,,アムタス,0
71,1011803003419,登記記録の閉鎖等,0,2025-07-31,2025-07-24,合同会社Ｙｏｕ＆Ｍｅケアサービス,,合同会社,東京都,足立区,栗原３丁目２５－１６清水ビル２０２,,13,121,1230842,,,2025-07-24,清算の結了等,,,2018-08-22,1,,,,,ユーアンドミーケアサービス,0
77,1012403006407,登記記録の閉鎖等,0,2025-07-31,2025-07-16,合同会社ＩＴＯ,,合同会社,東京都,府中市,府中町１丁目５番地の５ＳＲビル３階,,13,206,1830055,,,2025-07-16,清算の結了等,,,2024-02-08,1,,,,,アイティオー,0
104,1021001075227,登記記録の閉鎖等,0,2025-07-31,2025-07-18,レユール株式会社,,株式会社,神奈川県,相模原市緑区,向原１丁目２番１０,,14,151,2520104,,,2025-07-18,清算の結了等,,,2022-02-21,1,,,,,レユール,0
108,1030001077711,登記記録の閉鎖等,0,2025-07-31,2025-07-23,株式会社ユニオンファイリング,,株式会社,埼玉県,川口市,江戸袋１丁目７番２３号,,11,203,3340075,,,2025-07-23,清算の結了等,,,2015-10-05,1,,,,,ユニオンファイリング,0
109,1030001088667,登記記録の閉鎖等,0,2025-07-31,2025-07-18,株式会社プラスワン,,株式会社,埼玉県,熊谷市,上之２６８７番地１６,,11,202,3600012,,,2025-07-18,清算の結了等,,,2015-10-05,1,,,,,プラスワン,0
110,1030001152134,登記記録の閉鎖等,0,2025-07-31,2025-07-29,株式会社テラ・クオン,,株式会社,埼玉県,さいたま市中央区,鈴谷２丁目７９４番地,,11,105,3380013,,,2025-07-29,合併による解散等,9013201000767,令和７年６月３０日東京都北区赤羽北三丁目３番２０－３０７号株式会社宇富興産（9013201000767）に合併し解散,2023-01-30,1,,,,,テラクオン,0
119,1060001006956,登記記録の閉鎖等,0,2025-07-31,2025-07-16,株式会社フジ電気工業,,株式会社,栃木県,宇都宮市,野沢町４４１番地２５,,09,201,3200071,,,2025-07-16,清算の結了等,,,2015-10-05,1,,,,,フジデンキコウギョウ,0
135,1100002010119,登記記録の閉鎖等,0,2025-07-31,2025-07-22,有限会社フェディック,,有限会社,長野県,千曲市,大字野高場１７６４番地５,,20,218,3870022,,,2025-07-22,清算の結了等,,,2015-10-05,1,,,,,フェディック,0
136,1100005010958,登記記録の閉鎖等,0,2025-07-31,2025-07-25,一般社団法人トライアングル,,その他の設立登記法人,長野県,佐久市,岩村田北１丁目１２番地７,,20,217,3850023,,,2025-07-25,清算の結了等,,,2015-10-05,1,,,,,トライアングル,0
137,1100005010974,登記記録の閉鎖等,0,2025-07-31,2025-07-22,特定非営利活動法人千曲市環境市民会議,,その他の設立登記法人,長野県,千曲市,杭瀬下２丁目１番地,,20,218,3870011,,,2025-07-22,清算の結了等,,,2015-10-05,1,,,,,チクマシカンキョウシミンカイギ,0
156,1120105009221,登記記録の閉鎖等,0,2025-07-31,2025-07-14,一般社団法人スタジオフラッシュ,,その他の設立登記法人,大阪府,貝塚市,三ツ松１４６９番地３,,27,208,5970105,,,2025-07-14,清算の結了等,,,2020-05-28,1,,,,,スタジオフラッシュ,0
162,1130001077800,登記記録の閉鎖等,0,2025-07-31,2025-07-14,サン開発株式会社,,株式会社,京都府,京都市中京区,麸屋町通姉小路上る中白山町２７７番地,,26,104,6040000,,,2025-07-14,清算の結了等,,,2024-09-02,1,,,,,サンカイハツ,0
215,1340002013725,登記記録の閉鎖等,0,2025-07-31,2025-07-10,有限会社サウンドホーム,,有限会社,鹿児島県,霧島市,国分松木町４１番２０号,,46,218,8994325,,,2025-07-10,清算の結了等,,,2015-10-05,1,,,,,サウンドホーム,0
219,1360001032740,登記記録の閉鎖等,0,2025-07-31,2025-07-11,株式会社ゆいまるプロジェクト,,株式会社,沖縄県,浦添市,前田４丁目５番３号,,47,208,9012102,,,2025-07-11,清算の結了等,,,2023-10-27,1,,,,,ユイマルプロジェクト,0
224,1380001004457,登記記録の閉鎖等,0,2025-07-31,2025-07-07,株式会社浅見,,株式会社,福島県,郡山市,喜久田町字赤沼向４番地の３,,07,203,9630551,,,2025-07-07,清算の結了等,,,2015-10-05,1,,,,,アサミ,0
230,1400002008735,登記記録の閉鎖等,0,2025-07-31,2025-07-15,有限会社東和観光タクシー,,有限会社,岩手県,花巻市,東和町土沢５区４６７番地,,03,205,0280114,,,2025-07-15,合併による解散等,4400001005433,令和７年７月１日岩手県花巻市双葉町６番２号株式会社文化タクシー（4400001005433）に合併し解散,2015-10-05,1,,,,,トウワカンコウタクシー,0
231,1400002008768,登記記録の閉鎖等,0,2025-07-31,2025-07-15,有限会社大迫観光タクシー,,有限会社,岩手県,花巻市,大迫町大迫第１２地割１３番地の６,,03,205,0283203,,,2025-07-15,合併による解散等,4400001005433,令和７年７月１日岩手県花巻市双葉町６番２号株式会社文化タクシー（4400001005433）に合併し解散,2015-10-05,1,,,,,オオハサマカンコウタクシー,0
236,1420002011373,登記記録の閉鎖等,0,2025-07-31,2025-07-14,有限会社まやま,,有限会社,青森県,五所川原市,字大町５０８番地３,,02,205,0370063,,,2025-07-14,清算の結了等,,,2015-10-05,1,,,,,マヤマ,0
244,1470002004356,登記記録の閉鎖等,0,2025-07-31,2025-07-17,有限会社高商,,有限会社,香川県,高松市,仏生山町甲８３７番地１１,,37,201,7618078,,,2025-07-17,清算の結了等,,,2015-10-05,1,,,,,コウショウ,0
254,2010005017086,登記記録の閉鎖等,0,2025-07-31,2025-07-24,特定非営利活動法人平和の文化東京ユネスコクラブ,,その他の設立登記法人,東京都,町田市,玉川学園７丁目１５番９号田中正人方,,13,209,1940041,,,2025-07-24,清算の結了等,,,2015-10-05,1,,,,,ヘイワノブンカトウキョウユネスコクラブ,0
257,2010401045194,登記記録の閉鎖等,0,2025-07-31,2025-07-03,マネッジ・オンライン株式会社,,株式会社,東京都,港区,新橋４丁目３番１１号,,13,103,1050004,,,2025-07-03,清算の結了等,,,2015-10-05,1,,,,,マネッジオンライン,0
261,2010403025384,登記記録の閉鎖等,0,2025-07-31,2025-07-04,Ｔインフラ２号合同会社,,合同会社,東京都,港区,元赤坂１丁目１番７号,,13,103,1070051,,,2025-07-04,清算の結了等,,,2021-05-24,1,,,,,ティーインフラニゴウ,0
268,2010405022504,登記記録の閉鎖等,0,2025-07-31,2025-07-03,一般社団法人あかぼし,,その他の設立登記法人,東京都,港区,元赤坂１丁目１番７号,,13,103,1070051,,,2025-07-03,清算の結了等,,,2023-09-11,1,,,,,アカボシ,0
273,2010705002321,登記記録の閉鎖等,0,2025-07-31,2025-07-22,一般社団法人商用写真検定協会,,その他の設立登記法人,東京都,品川区,東品川２丁目２番４３号,,13,109,1400002,,,2025-07-22,清算の結了等,,,2015-10-05,1,,,,,ショウヨウシャシンケンテイキョウカイ,0
274,2010801004782,登記記録の閉鎖等,0,2025-07-31,2025-07-16,三宝化学株式会社,,株式会社,東京都,大田区,萩中２丁目６番１７号,,13,111,1440047,,,2025-07-16,清算の結了等,,,2015-10-05,1,,,,,サンポウカガク,0
297,2011402016969,登記記録の閉鎖等,0,2025-07-31,2025-07-29,有限会社オスト,,有限会社,東京都,板橋区,小豆沢３丁目６番７－５０９号,,13,119,1740051,,,2025-07-29,清算の結了等,,,2015-10-05,1,,,,,オスト,0
300,2011602022271,登記記録の閉鎖等,0,2025-07-31,2025-07-30,有限会社オフィス黒田,,有限会社,東京都,世田谷区,瀬田４丁目２０番１９号,,13,112,1580095,,,2025-07-30,清算の結了等,,,2015-10-05,1,,,,,,0
313,2020001004954,登記記録の閉鎖等,0,2025-07-31,2025-07-14,株式会社協和鉄工,,株式会社,神奈川県,横浜市保土ケ谷区,仏向西５番３１号,,14,106,2400046,,,2025-07-14,清算の結了等,,,2015-10-05,1,,,,,キョウワテッコウ,0
316,2020001106635,登記記録の閉鎖等,0,2025-07-31,2025-07-15,株式会社Ｐｕｌｉｔｏ,,株式会社,神奈川県,横浜市中区,桜木町１丁目１０１番地１クロスゲート７階,,14,104,2310062,,,2025-07-15,清算の結了等,,,2015-10-05,1,,,,,プリート,0
325,2021001021262,登記記録の閉鎖等,0,2025-07-31,2025-07-18,株式会社富士,,株式会社,神奈川県,伊勢原市,伊勢原４丁目６５４番地の４,,14,214,2591131,,,2025-07-18,清算の結了等,,,2015-10-05,1,,,,,,0
326,2021001022277,登記記録の閉鎖等,0,2025-07-31,2025-07-24,株式会社カワグチ,,株式会社,神奈川県,厚木市,愛名１０９３番地５,,14,212,2430038,,,2025-07-24,清算の結了等,,,2015-10-05,1,,,,,カワグチ,0
329,2021002054617,登記記録の閉鎖等,0,2025-07-31,2025-07-25,有限会社石川電化,,有限会社,神奈川県,南足柄市,壗下１８９番地,,14,217,2500103,,,2025-07-25,清算の結了等,,,2015-10-05,1,,,,,イシカワデンカ,0
349,2050003006401,登記記録の閉鎖等,0,2025-07-31,2025-07-15,合同会社アジャスト,,合同会社,茨城県,龍ケ崎市,佐貫１丁目８－１三好ビル２階,,08,208,3010032,,,2025-07-15,清算の結了等,,,2022-03-01,1,,,,,アジャスト,0
353,2060002019436,登記記録の閉鎖等,0,2025-07-31,2025-07-16,有限会社旭工業,,有限会社,栃木県,鹿沼市,見野１４６４番地１,,09,205,3220071,,,2025-07-16,清算の結了等,,,2015-10-05,1,,,,,アサヒコウギョウ,0
356,2060005002166,登記記録の閉鎖等,0,2025-07-31,2025-07-15,馬頭自動車協業組合,,その他の設立登記法人,栃木県,那須郡那珂川町,馬頭２１５７番地７,,09,411,3240613,,,2025-07-15,清算の結了等,,,2015-10-05,1,,,,,バトウジドウシャ,0
359,2070002005848,登記記録の閉鎖等,0,2025-07-31,2025-07-22,有限会社リカーワールド,,有限会社,群馬県,前橋市,天川大島町１丁目３番地１７,,10,201,3792154,,,2025-07-22,清算の結了等,,,2015-10-05,1,,,,,リカーワールド,0
394,2120902016501,登記記録の閉鎖等,0,2025-07-31,2025-07-11,有限会社ナカムラ建装,,有限会社,大阪府,箕面市,今宮４丁目２番１６号,,27,220,5620033,,,2025-07-11,清算の結了等,,,2015-10-05,1,,,,,ナカムラケンソウ,0
396,2120905005427,登記記録の閉鎖等,0,2025-07-31,2025-07-09,一般社団法人ＭＤＩ,,その他の設立登記法人,大阪府,豊中市,山ノ上町１１番１１の３号,,27,203,5610892,,,2025-07-09,清算の結了等,,,2016-07-21,1,,,,,エムディアイ,0
409,2140001130648,登記記録の閉鎖等,0,2025-07-31,2025-07-23,株式会社銀雅ライン,,株式会社,兵庫県,神戸市須磨区,桜の杜２丁目１０番３０号,,28,107,6540114,,,2025-07-23,清算の結了等,,,2023-06-27,1,,,,,ギンガライン,0
421,2180001072663,登記記録の閉鎖等,0,2025-07-31,2025-07-07,株式会社はしもと人形,,株式会社,愛知県,名古屋市守山区,大字中志段味字東原２５１４番地,,23,113,4630002,,,2025-07-07,清算の結了等,,,2015-10-05,1,,,,,ハシモトニンギョウ,0
439,2250001000303,登記記録の閉鎖等,0,2025-07-31,2025-07-29,新英パック株式会社,,株式会社,山口県,山口市,矢原１１９２番地の３,,35,203,7530861,,,2025-07-29,清算の結了等,,,2015-10-05,1,,,,,シンエイパック,0
442,2250002009376,登記記録の閉鎖等,0,2025-07-31,2025-07-16,有限会社ショウビ,,有限会社,山口県,下関市,彦島向井町２丁目１３番２５号,,35,201,7500084,,,2025-07-16,清算の結了等,,,2015-10-05,1,,,,,ショウビ,0
451,2290002024933,登記記録の閉鎖等,0,2025-07-31,2025-07-07,有限会社ミツヤクロゼット,,有限会社,福岡県,福岡市南区,柏原４丁目３０番１２号,,40,134,8111353,,,2025-07-07,清算の結了等,,,2015-10-05,1,,,,,ミツヤクロゼット,0
452,2290802009992,登記記録の閉鎖等,0,2025-07-31,2025-07-29,有限会社ダイリ工業ミシン商会,,有限会社,福岡県,北九州市門司区,上馬寄３丁目１０番２４号,,40,101,8000042,,,2025-07-29,清算の結了等,,,2015-10-05,1,,,,,ダイリコウギョウミシンショウカイ,0
461,2360002009381,登記記録の閉鎖等,0,2025-07-31,2025-07-11,有限会社製本サービスセンター,,有限会社,沖縄県,島尻郡八重瀬町,字外間２０２番地,,47,362,9010417,,,2025-07-11,清算の結了等,,,2015-10-05,1,,,,,セイホンサービスセンター,0
473,2400502000629,登記記録の閉鎖等,0,2025-07-31,2025-07-07,有限会社サンシャイン企画,,有限会社,岩手県,一関市,大町１番５５号,,03,209,0210881,,,2025-07-07,清算の結了等,,,2015-10-05,1,,,,,サンシャインキカク,0
475,2430001076218,登記記録の閉鎖等,0,2025-07-31,2025-07-09,豆蔵株式会社,,株式会社,北海道,江別市,工栄町５番地７,,01,217,0670051,,,2025-07-09,清算の結了等,,,2018-03-30,1,,,,,マメクラ,0
490,3010001133968,登記記録の閉鎖等,0,2025-07-31,2025-07-08,株式会社マクロラボ,,株式会社,東京都,港区,愛宕２丁目５番１号愛宕グリーンヒルズＭＯＲＩタワー３７階,,13,103,1050002,,,2025-07-08,清算の結了等,,,2015-10-05,1,,,,,マクロラボ,0
503,3010403026794,登記記録の閉鎖等,0,2025-07-31,2025-07-04,ジャパンインフラ１６号合同会社,,合同会社,東京都,港区,元赤坂１丁目１番７号,,13,103,1070051,,,2025-07-04,清算の結了等,,,2022-01-04,1,,,,,ジャパンインフラジュウロクゴウ,0
512,3010901050305,登記記録の閉鎖等,0,2025-07-31,2025-07-25,株式会社ド研,,株式会社,東京都,世田谷区,代田２丁目３６番１９号,,13,112,1550033,,,2025-07-25,清算の結了等,,,2022-02-04,1,,,,,ドケン,0
517,3011001055814,登記記録の閉鎖等,0,2025-07-31,2025-07-28,イソップ・ジャパン株式会社,,株式会社,東京都,渋谷区,神宮前４丁目８番２号,,13,113,1500001,,,2025-07-28,合併による解散等,4011101040731,令和７年７月１日東京都新宿区西新宿三丁目７番１号日本ロレアル株式会社（4011101040731）に合併し解散,2015-10-05,1,,,,,イソップジャパン,0
528,3011203004305,登記記録の閉鎖等,0,2025-07-31,2025-07-28,長生合同会社,,合同会社,東京都,中野区,中央３丁目３４番１号プラム鍋横１階Ｅ号室,,13,114,1640011,,,2025-07-28,清算の結了等,,,2024-02-19,1,,,,,チョウセイ,0
542,3012701002634,登記記録の閉鎖等,0,2025-07-31,2025-07-22,旭産業株式会社,,株式会社,東京都,西東京市,柳沢５丁目１３番１０－１０１号,,13,229,2020022,,,2025-07-22,清算の結了等,,,2015-10-05,1,,,,,アサヒサンギョウ,0
544,3013203001579,登記記録の閉鎖等,0,2025-07-31,2025-07-01,アール・アイ合同会社,,合同会社,東京都,目黒区,目黒本町２丁目１７番１９号,,13,110,1520002,,,2025-07-01,清算の結了等,,,2015-10-05,1,,,,,アールアイ,0
549,3020001013962,登記記録の閉鎖等,0,2025-07-31,2025-07-14,株式会社横浜合板商会,,株式会社,神奈川県,横浜市南区,井土ケ谷下町２８番地の１３,,14,105,2320053,,,2025-07-14,清算の結了等,,,2015-10-05,1,,,,,ヨコハマゴウハンショウカイ,0
560,3020002066101,登記記録の閉鎖等,0,2025-07-31,2025-07-14,有限会社ウオームコア,,有限会社,神奈川県,横浜市磯子区,杉田６丁目３番２１号,,14,107,2350033,,,2025-07-14,清算の結了等,,,2015-10-05,1,,,,,ウオームコア,0
565,3021002030113,登記記録の閉鎖等,0,2025-07-31,2025-07-25,有限会社松岡,,有限会社,神奈川県,座間市,栗原中央１丁目１０番１３号,,14,216,2520014,,,2025-07-25,清算の結了等,,,2015-10-05,1,,,,,マツオカ,0
570,3030001030049,登記記録の閉鎖等,0,2025-07-31,2025-07-24,株式会社忠正舎,,株式会社,埼玉県,狭山市,大字北入曽４９８番地の８,,11,215,3501315,,,2025-07-24,清算の結了等,,,2015-10-05,1,,,,,チュウセイシャ,0
575,3030001136176,登記記録の閉鎖等,0,2025-07-31,2025-07-23,株式会社彩優館,,株式会社,埼玉県,狭山市,大字青柳６３７番地の３,,11,215,3501301,,,2025-07-23,清算の結了等,,,2020-04-20,1,,,,,サイユウカン,0
583,3040002052520,登記記録の閉鎖等,0,2025-07-31,2025-07-08,有限会社ユースプレス工業,,有限会社,千葉県,流山市,鰭ケ崎１４番地の１０,,12,220,2700161,,,2025-07-08,清算の結了等,,,2015-10-05,1,,,,,ユースプレスコウギョウ,0
602,3100001023912,登記記録の閉鎖等,0,2025-07-31,2025-07-28,太陽ホールディングス株式会社,,株式会社,長野県,茅野市,ちの３５０２番地１ベルビア２階ワークラボ八ヶ岳２０２,,20,214,3910001,,,2025-07-28,合併による解散等,2100001019102,令和７年６月３０日長野県茅野市宮川大悦９８００番地５太陽精工株式会社（2100001019102）に合併し解散,2015-10-05,1,,,,,タイヨウホールディングス,0
624,3120003023603,登記記録の閉鎖等,0,2025-07-31,2025-07-09,キューブワークス合同会社,,合同会社,大阪府,守口市,佐太西町１丁目４番５－２０３号,,27,209,5700001,,,2025-07-09,清算の結了等,,,2023-03-13,1,,,,,キューブワークス,0
632,3120902020535,登記記録の閉鎖等,0,2025-07-31,2025-07-10,有限会社ミズカミ,,有限会社,大阪府,豊中市,城山町４丁目３番１４号,,27,203,5610803,,,2025-07-10,清算の結了等,,,2015-10-05,1,,,,,ミズカミ,0
634,3130002004132,登記記録の閉鎖等,0,2025-07-31,2025-07-15,有限会社丹羽製作所,,有限会社,京都府,京都市北区,大北山原谷乾町３８番地の４１,,26,101,6038487,,,2025-07-15,清算の結了等,,,2015-10-05,1,,,,,ニワセイサクショ,0
638,3140001051281,登記記録の閉鎖等,0,2025-07-31,2025-07-24,松岡建設株式会社,,株式会社,兵庫県,尼崎市,大物町２丁目３番１３号,,28,202,6600823,,,2025-07-24,清算の結了等,,,2015-10-05,1,,,,,マツオカケンセツ,0
645,3160001004015,登記記録の閉鎖等,0,2025-07-31,2025-07-14,株式会社草津バイクギャラリー,,株式会社,滋賀県,草津市,野路８丁目５番２９号,,25,206,5250059,,,2025-07-14,清算の結了等,,,2015-10-05,1,,,,,クサツバイクギャラリー,0
648,3160003000383,登記記録の閉鎖等,0,2025-07-31,2025-07-17,合名会社中西傅兵衛商店,,合名会社,滋賀県,甲賀市,水口町本町２丁目４番１号,,25,209,5280031,,,2025-07-17,清算の結了等,,,2015-10-05,1,,,,,ナカニシデンベィショウテン,0
657,3180005019924,登記記録の閉鎖等,0,2025-07-31,2025-07-29,一般社団法人空き家ｉｎｎｏｖａｔｉｏｎ,,その他の設立登記法人,愛知県,春日井市,上条町４丁目１７２番地２パルティルＪ２Ｄ号,,23,206,4860833,,,2025-07-29,清算の結了等,,,2022-09-05,1,,,,,アキヤイノベーション,0
660,3190002012939,登記記録の閉鎖等,0,2025-07-31,2025-07-22,有限会社尾形建築事務所,,有限会社,三重県,名張市,緑が丘東１１４番地１４,,24,208,5180756,,,2025-07-22,清算の結了等,,,2015-10-05,1,,,,,オガタケンチクジムショ,0
663,3220002010352,登記記録の閉鎖等,0,2025-07-31,2025-07-28,有限会社奥村繊維加工所,,有限会社,石川県,小松市,正蓮寺町い５０番地,,17,203,9230151,,,2025-07-28,清算の結了等,,,2015-10-05,1,,,,,オクムラセンイカコウショ,0
669,3260001013369,登記記録の閉鎖等,0,2025-07-31,2025-07-25,株式会社山陽エレベーター製作所,,株式会社,岡山県,倉敷市,片島町１５番地の２,,33,202,7100805,,,2025-07-25,合併による解散等,7240001038158,令和７年７月１日広島県尾道市栗原東一丁目６番２９号新和ビル・サービス株式会社（7240001038158）に合併し解散,2015-10-05,1,,,,,サンヨウエレベーターセイサクショ,0
670,3260001034571,登記記録の閉鎖等,0,2025-07-31,2025-07-01,サンヨーマネージメント株式会社,,株式会社,岡山県,岡山市北区,下伊福上町８番２０号,,33,101,7000051,,,2025-07-01,合併による解散等,5260001038620,令和７年７月１日岡山市北区下伊福上町８番２０号ＳＡＮＹＯ　ＨＤ株式会社（5260001038620）に合併し解散,2020-07-29,1,,,,,サンヨーマネージメント,0
674,3290001026590,登記記録の閉鎖等,0,2025-07-31,2025-07-07,株式会社ＥＭＣ,,株式会社,福岡県,福岡市中央区,清川３丁目２８番８号,,40,133,8100005,,,2025-07-07,清算の結了等,,,2015-10-05,1,,,,,イーエムシー,0
745,4011001159614,登記記録の閉鎖等,0,2025-07-31,2025-07-01,株式会社ＲＥＳＡＵＣＥ,,株式会社,東京都,渋谷区,神宮前２丁目２４番４－２０１号,,13,113,1500001,,,2025-07-01,清算の結了等,,,2024-01-26,1,,,,,リソース,0
754,4011101101715,登記記録の閉鎖等,0,2025-07-31,2025-07-10,株式会社ＲａｉｓｅＢａｓｓ,,株式会社,東京都,新宿区,西新宿３丁目３番１３号西新宿水間ビル６階,,13,104,1600023,,,2025-07-10,清算の結了等,,,2023-02-03,1,,,,,レイズベース,0
756,4011401005500,登記記録の閉鎖等,0,2025-07-31,2025-07-28,株式会社フォトン,,株式会社,東京都,板橋区,板橋１丁目５番１０号,,13,119,1730004,,,2025-07-28,清算の結了等,,,2015-10-05,1,,,,,フォトン,0
773,4020001080481,登記記録の閉鎖等,0,2025-07-31,2025-07-14,株式会社ＦＴＫＨ,,株式会社,神奈川県,川崎市幸区,古川町１４５番地,,14,132,2120025,,,2025-07-14,清算の結了等,,,2015-10-05,1,,,,,エフテイケーエイチ,0
775,4020001120196,登記記録の閉鎖等,0,2025-07-31,2025-07-14,株式会社ＡＶＡＮＴＹ,,株式会社,神奈川県,横浜市旭区,さちが丘６５番地３７,,14,112,2410822,,,2025-07-14,清算の結了等,,,2017-03-03,1,,,,,,0
781,4020002051556,登記記録の閉鎖等,0,2025-07-31,2025-07-15,有限会社セルテック,,有限会社,神奈川県,横浜市保土ケ谷区,新桜ケ丘２丁目１６番１６号,,14,106,2400036,,,2025-07-15,清算の結了等,,,2015-10-05,1,,,,,セルテック,0
786,4021001068797,登記記録の閉鎖等,0,2025-07-31,2025-07-09,株式会社ＢＥ　ＲＥＡＤＹ,,株式会社,神奈川県,鎌倉市,大船１丁目２３－７第５２東京ビル２Ｆ,,14,204,2470056,,,2025-07-09,清算の結了等,,,2019-12-09,1,,,,,ビーレディ,0
794,4030002001130,登記記録の閉鎖等,0,2025-07-31,2025-07-22,有限会社インテグラーレ,,有限会社,埼玉県,さいたま市緑区,大字三室８６０番地１６,,11,109,3360911,,,2025-07-22,清算の結了等,,,2015-10-05,1,,,,,インテグラーレ,0
800,4040005007033,登記記録の閉鎖等,0,2025-07-31,2025-07-08,特定非営利活動法人ワイルドストロベリー,,その他の設立登記法人,千葉県,印西市,下曽根１５５番地,,12,231,2702317,,,2025-07-08,清算の結了等,,,2015-10-05,1,,,,,ワイルドストロベリー,0
805,4050002032495,登記記録の閉鎖等,0,2025-07-31,2025-07-15,有限会社太陽観光,,有限会社,茨城県,北茨城市,関南町神岡下２９６１番地,,08,215,3191715,,,2025-07-15,清算の結了等,,,2015-10-05,1,,,,,タイヨウカンコウ,0
806,4050002043006,登記記録の閉鎖等,0,2025-07-31,2025-07-15,有限会社広沢プレス,,有限会社,茨城県,筑西市,小栗４８１２番地の１５,,08,227,3091101,,,2025-07-15,清算の結了等,,,2015-10-05,1,,,,,ヒロサワプレス,0
810,4060002015516,登記記録の閉鎖等,0,2025-07-31,2025-07-14,有限会社和香工業,,有限会社,栃木県,日光市,猪倉９１４番地２６,,09,206,3212344,,,2025-07-14,清算の結了等,,,2015-10-05,1,,,,,ワコウコウギョウ,0
812,4070001018238,登記記録の閉鎖等,0,2025-07-31,2025-07-23,小森谷精工株式会社,,株式会社,群馬県,渋川市,北橘町上箱田２３番地４,,10,208,3770052,,,2025-07-23,清算の結了等,,,2015-10-05,1,,,,,コモリヤセイコウ,0
814,4070001029895,登記記録の閉鎖等,0,2025-07-31,2025-07-23,ブッコウ貿易株式会社,,株式会社,群馬県,高崎市,箕郷町柏木沢１２３９－２,,10,202,3703101,,,2025-07-23,清算の結了等,,,2015-10-05,1,,,,,ブッコウボウエキ,0
817,4070002008709,登記記録の閉鎖等,0,2025-07-31,2025-07-22,有限会社石黒材木店,,有限会社,群馬県,高崎市,小八木町７４６番地,,10,202,3700071,,,2025-07-22,清算の結了等,,,2015-10-05,1,,,,,イシグロザイモクテン,0
833,4110001029593,登記記録の閉鎖等,0,2025-07-31,2025-07-18,株式会社ながの家,,株式会社,東京都,東村山市,栄町２丁目２２番地１,,13,213,1890013,,,2025-07-18,清算の結了等,,,2015-10-05,1,,,,,ナガノヤ,0
841,4120001166584,登記記録の閉鎖等,0,2025-07-31,2025-07-09,株式会社岩橋鉄工所ワークス,,株式会社,大阪府,枚方市,池之宮２丁目１番１号,,27,210,5730005,,,2025-07-09,清算の結了等,,,2015-10-05,1,,,,,イワハシテッコウショワークス,0
849,4120003017496,登記記録の閉鎖等,0,2025-07-31,2025-07-29,合同会社ＨＵ,,合同会社,奈良県,奈良市,紀寺町９１３番地,,29,201,6308306,,,2025-07-29,清算の結了等,,,2020-05-28,1,,,,,ヒュー,0
853,4122001033120,登記記録の閉鎖等,0,2025-07-31,2025-07-25,株式会社むにむにカンパニー,,株式会社,大阪府,八尾市,東山本新町７丁目１－２４ルアージュ２０３,,27,212,5810866,,,2025-07-25,清算の結了等,,,2019-11-08,1,,,,,ムニムニカンパニー,0
855,4122002009689,登記記録の閉鎖等,0,2025-07-31,2025-07-22,有限会社アトム・ダイス,,有限会社,大阪府,東大阪市,新家中町３番３７号,,27,227,5770027,,,2025-07-22,清算の結了等,,,2015-10-05,1,,,,,アトムダイス,0
859,4130005005473,登記記録の閉鎖等,0,2025-07-31,2025-07-11,特定非営利活動法人愛ねっと,,その他の設立登記法人,京都府,京都市中京区,両替町通御池上る金吹町４５９番地,,26,104,6040846,,,2025-07-11,清算の結了等,,,2015-10-05,1,,,,,アイネット,0
869,4140002021679,登記記録の閉鎖等,0,2025-07-31,2025-07-24,有限会社橘屋,,有限会社,兵庫県,神戸市兵庫区,東山町２丁目１番１３号,,28,105,6520042,,,2025-07-24,清算の結了等,,,2015-10-05,1,,,,,タチバナヤ,0
872,4140003020267,登記記録の閉鎖等,0,2025-07-31,2025-07-24,合同会社ｌｏｏｌ,,合同会社,兵庫県,尼崎市,西難波町５丁目２番３０号,,28,202,6600893,,,2025-07-24,清算の結了等,,,2024-03-13,1,,,,,ロール,0
883,4180002003401,登記記録の閉鎖等,0,2025-07-31,2025-07-07,有限会社ルンプ,,有限会社,愛知県,名古屋市千種区,豊年町４番１３号,,23,101,4640076,,,2025-07-07,清算の結了等,,,2015-10-05,1,,,,,ルンプ,0
888,4180303006532,登記記録の閉鎖等,0,2025-07-31,2025-07-18,合同会社三和通信工業,,合同会社,愛知県,岡崎市,伊賀町字７丁目１１１番地２シャンポール富士６０１,,23,202,4440075,,,2025-07-18,清算の結了等,,,2025-04-17,1,,,,,サンワツウシンコウギョウ,0
893,4200001009009,登記記録の閉鎖等,0,2025-07-31,2025-07-22,株式会社ＡＰＰＡＬＥ,,株式会社,岐阜県,岐阜市,大池町２２番地５,,21,201,5008373,,,2025-07-22,清算の結了等,,,2015-10-05,1,,,,,アッパーレ,0
923,4290002015897,登記記録の閉鎖等,0,2025-07-31,2025-07-07,有限会社スリング,,有限会社,福岡県,福岡市博多区,吉塚１丁目４３番１号,,40,132,8120041,,,2025-07-07,清算の結了等,,,2015-10-05,1,,,,,スリング,0
933,4320002019688,登記記録の閉鎖等,0,2025-07-31,2025-07-18,有限会社はし萬商店,,有限会社,大分県,日田市,大字十二町６２番地８（玉川町）,,44,204,8770000,,,2025-07-18,合併による解散等,5290001049615,令和７年７月１日福岡県久留米市山川市ノ上町７番２０号株式会社丸信（5290001049615）に合併し解散,2015-10-05,1,,,,,ハシマンショウテン,0
954,4390002007273,登記記録の閉鎖等,0,2025-07-31,2025-07-16,現代建物有限会社,,有限会社,山形県,酒田市,宮海字林内１６番地の４,,06,204,9980005,,,2025-07-16,清算の結了等,,,2015-10-05,1,,,,,ゲンダイタテモノ,0
957,4410001005028,登記記録の閉鎖等,0,2025-07-31,2025-07-29,株式会社大内町交流センター,,株式会社,秋田県,由利本荘市,岩谷町字西越３６番地,,05,210,0180711,,,2025-07-29,清算の結了等,,,2015-10-05,1,,,,,オオウチマチコウリュウセンター,0
960,4410003000571,登記記録の閉鎖等,0,2025-07-31,2025-07-28,ルーラルシステム合資会社,,合資会社,秋田県,秋田市,将軍野東２丁目１３番３８号,,05,201,0110931,,,2025-07-28,清算の結了等,,,2015-10-05,1,,,,,ルーラルシステム,0
961,4420002005554,登記記録の閉鎖等,0,2025-07-31,2025-07-22,有限会社青森メディカル,,有限会社,青森県,青森市,浪岡福田２丁目１３番地１３,,02,201,0381306,,,2025-07-22,合併による解散等,7370201000573,令和７年７月１日宮城県大崎市古川駅南一丁目９番地株式会社医薬品情報センター（7370201000573）に合併し解散,2015-10-05,1,,,,,アオモリメディカル,0
963,4430001024331,登記記録の閉鎖等,0,2025-07-31,2025-07-18,株式会社メディアリュウム,,株式会社,北海道,札幌市白石区,菊水二条１丁目４番２７号,,01,104,0030802,,,2025-07-18,清算の結了等,,,2015-10-05,1,,,,,メディアリュウム,0
964,4430005013834,登記記録の閉鎖等,0,2025-07-31,2025-07-10,一般社団法人訪問医療はりきゅうマッサージ推進協会,,その他の設立登記法人,北海道,札幌市中央区,北二条西２丁目２９番地２ＵＥＮＯビル３階,,01,101,0600002,,,2025-07-10,清算の結了等,,,2020-01-08,1,,,,,ホウモンイリョウハリキュウマッサージスイシンキョウカイ,0
966,4500001023540,登記記録の閉鎖等,0,2025-07-31,2025-07-14,株式会社酪彩,,株式会社,愛媛県,松山市,一番町３丁目１番１号,,38,201,7900001,,,2025-07-14,清算の結了等,,,2021-07-06,1,,,,,ラクサイ,0
985,5010402039127,登記記録の閉鎖等,0,2025-07-31,2025-07-03,有限会社アニューミュージック,,有限会社,東京都,港区,麻布十番４丁目３番１号,,13,103,1060045,,,2025-07-03,清算の結了等,,,2025-03-14,1,,,,,アニューミュージック,0
994,5010902000463,登記記録の閉鎖等,0,2025-07-31,2025-07-29,有限会社アクティブ・オート・サービス,,有限会社,東京都,世田谷区,若林２丁目１７番２７号,,13,112,1540023,,,2025-07-29,清算の結了等,,,2015-10-05,1,,,,,アクティブオートサービス,0
1010,5011801037308,登記記録の閉鎖等,0,2025-07-31,2025-07-28,株式会社Ｈ・Ｉ・Ｉ,,株式会社,東京都,葛飾区,青戸３丁目３８番７号,,13,122,1250062,,,2025-07-28,清算の結了等,,,2020-02-21,1,,,,,エイチアイアイ,0
1023,5020001088854,登記記録の閉鎖等,0,2025-07-31,2025-07-14,株式会社ルーキストレーディング,,株式会社,神奈川県,横浜市青葉区,荏田町１１５０番地４０白亜館ビル３０３号室,,14,117,2250013,,,2025-07-14,清算の結了等,,,2015-10-05,1,,,,,ルーキストレーディング,0
1025,5020001096221,登記記録の閉鎖等,0,2025-07-31,2025-07-15,アイケーホーム株式会社,,株式会社,神奈川県,横浜市青葉区,榎が丘４３番地３２,,14,117,2270063,,,2025-07-15,清算の結了等,,,2015-10-05,1,,,,,アイケーホーム,0
1027,5020001123124,登記記録の閉鎖等,0,2025-07-31,2025-07-18,株式会社未来産業研究所,,株式会社,神奈川県,藤沢市,藤沢３丁目２番５～４０１号,,14,205,2510052,,,2025-07-18,清算の結了等,,,2017-09-14,1,,,,,ミライサンギョウケンキュウショ,0
1039,5021002053962,登記記録の閉鎖等,0,2025-07-31,2025-07-18,有限会社マッサージワーク,,有限会社,神奈川県,南足柄市,塚原４５０４－５０,,14,217,2500117,,,2025-07-18,清算の結了等,,,2015-10-05,1,,,,,マッサージワーク,0
1042,5030001120186,登記記録の閉鎖等,0,2025-07-31,2025-07-23,株式会社アイ・コーポレーション,,株式会社,埼玉県,春日部市,備後東５丁目１０番８－３号,,11,214,3440032,,,2025-07-23,清算の結了等,,,2017-05-16,1,,,,,アイコーポレーション,0
1050,5030002034245,登記記録の閉鎖等,0,2025-07-31,2025-07-24,有限会社長谷部木工,,有限会社,埼玉県,狭山市,大字下奥富５１５－３,,11,215,3501332,,,2025-07-24,清算の結了等,,,2015-10-05,1,,,,,ハセベモッコウ,0
1089,5100002032472,登記記録の閉鎖等,0,2025-07-31,2025-07-28,有限会社稲垣商事,,有限会社,長野県,伊那市,西町５２３７番地１,,20,209,3960026,,,2025-07-28,清算の結了等,,,2015-10-05,1,,,,,イナガキショウジ,0
1094,5120001197835,登記記録の閉鎖等,0,2025-07-31,2025-07-22,株式会社マインズ,,株式会社,大阪府,大阪市浪速区,難波中３丁目３番１０号ナンバ清水ビル２Ｆ１０号,,27,111,5560011,,,2025-07-22,清算の結了等,,,2016-04-26,1,,,,,マインズ,0
1108,5122001038969,登記記録の閉鎖等,0,2025-07-31,2025-07-14,Ｒ＆Ｓグループ株式会社,,株式会社,大阪府,八尾市,上之島町南１丁目３１番地,,27,212,5810846,,,2025-07-14,清算の結了等,,,2025-03-10,1,,,,,アールアンドエスグループ,0
1115,5140001017520,登記記録の閉鎖等,0,2025-07-31,2025-07-23,株式会社サン・ビューティコーベ,,株式会社,兵庫県,神戸市須磨区,平田町２丁目３番９号,,28,107,6540021,,,2025-07-23,清算の結了等,,,2015-10-05,1,,,,,サンビューティコーベ,0
1125,5160001015943,登記記録の閉鎖等,0,2025-07-31,2025-07-16,株式会社アキムラフライング・シー,,株式会社,滋賀県,守山市,今浜町２５３０番地１,,25,207,5240101,,,2025-07-16,清算の結了等,,,2015-10-05,1,,,,,アキムラフライングシー,0
1141,5220002002488,登記記録の閉鎖等,0,2025-07-31,2025-07-25,有限会社高栄製作所,,有限会社,石川県,金沢市,藤江南２丁目１３番地,,17,201,9200346,,,2025-07-25,清算の結了等,,,2015-10-05,1,,,,,コウエイセイサクショ,0
1157,5260001019100,登記記録の閉鎖等,0,2025-07-31,2025-07-01,株式会社カルファインマネジメントサービス,,株式会社,岡山県,高梁市,松原通２１１１番地３,,33,209,7160036,,,2025-07-01,合併による解散等,2260001018906,令和７年７月１日岡山県高梁市松原通２１１１番地３株式会社カルファイン（2260001018906）に合併し解散,2015-10-05,1,,,,,カルファインマネジメントサービス,0
1175,5290802012829,登記記録の閉鎖等,0,2025-07-31,2025-07-22,有限会社ドリームカンパニー,,有限会社,福岡県,北九州市小倉北区,中井３丁目７番１２号１Ｆ,,40,106,8030836,,,2025-07-22,清算の結了等,,,2015-10-05,1,,,,,ドリームカンパニー,0
1176,5300001004163,登記記録の閉鎖等,0,2025-07-31,2025-07-24,株式会社Ｙ＆Ｔ－ａｐｐｌｅ,,株式会社,佐賀県,佐賀市,堀川町２番２７号,,41,201,8400832,,,2025-07-24,清算の結了等,,,2015-10-05,1,,,,,ワイアンドティーアップル,0
1180,5310003001249,登記記録の閉鎖等,0,2025-07-31,2025-07-23,合資会社中島モータース,,合資会社,長崎県,佐世保市,大和町１０１０番地７,,42,202,8571165,,,2025-07-23,清算の結了等,,,2015-10-05,1,,,,,ナカシマモータース,0
1182,5320002004417,登記記録の閉鎖等,0,2025-07-31,2025-07-18,有限会社田中水産,,有限会社,大分県,大分市,都町２丁目３番１２号,,44,201,8700034,,,2025-07-18,清算の結了等,,,2015-10-05,1,,,,,タナカスイサン,0
1183,5340001016865,登記記録の閉鎖等,0,2025-07-31,2025-07-14,あろえはうす株式会社,,株式会社,鹿児島県,鹿児島市,新栄町２４番１１－２号,,46,201,8900072,,,2025-07-14,清算の結了等,,,2015-10-05,1,,,,,アロエハウス,0
1208,5460102002174,登記記録の閉鎖等,0,2025-07-31,2025-07-25,有限会社デリシヤスフーズ,,有限会社,北海道,河西郡芽室町,東二条２丁目４番地,,01,637,0820012,,,2025-07-25,清算の結了等,,,2015-10-05,1,,,,,デリシャスフーズ,0
1216,5500001007690,登記記録の閉鎖等,0,2025-07-31,2025-07-22,株式会社近藤呉服店,,株式会社,愛媛県,大洲市,常磐町３１番地,,38,207,7950053,,,2025-07-22,清算の結了等,,,2015-10-05,1,,,,,コンドウゴフクテン,0
1218,5500002008085,登記記録の閉鎖等,0,2025-07-31,2025-07-24,有限会社岡崎鮮魚,00007839,有限会社,愛媛県,伊予市,灘町１番地９,00007840,38,210,7993114,,,2025-07-24,清算の結了等,,,2015-10-05,1,,,,,オカザキセンギョ,0
1222,6010001061266,登記記録の閉鎖等,0,2025-07-31,2025-07-28,株式会社東京クリエーティブ・イー・ディー,,株式会社,東京都,葛飾区,東金町４丁目２５番９号,,13,122,1250041,,,2025-07-28,清算の結了等,,,2015-10-05,1,,,,,トウキョウクリエーティブイーディー,0
1257,6011001048716,登記記録の閉鎖等,0,2025-07-31,2025-07-22,株式会社Ｏｗｌｓ＆Ｃｏ．,,株式会社,東京都,品川区,平塚３丁目１０番１５号,,13,109,1420051,,,2025-07-22,清算の結了等,,,2015-10-05,1,,,,,アウルスアンドコー,0
1258,6011001126422,登記記録の閉鎖等,0,2025-07-31,2025-07-01,株式会社ＣＨＩＣＫＥＮ　ＧＹＭ,,株式会社,東京都,渋谷区,恵比寿４丁目２０番３号恵比寿ガーデンプレイスタワー３４階,,13,113,1500013,,,2025-07-01,清算の結了等,,,2019-02-05,1,,,,,チキンジム,0
1259,6011001134284,登記記録の閉鎖等,0,2025-07-31,2025-07-04,Ｓｕｇａｒ　Ｌｉｆｅ株式会社,,株式会社,東京都,港区,六本木６丁目６番３号簗場ハイム１Ｆ,,13,103,1060032,,,2025-07-04,清算の結了等,,,2020-06-15,1,,,,,シュガーライフ,0
1268,6011802002268,登記記録の閉鎖等,0,2025-07-31,2025-07-28,有限会社協栄機械製作所,,有限会社,東京都,葛飾区,柴又４丁目３２番２６号,,13,122,1250052,,,2025-07-28,清算の結了等,,,2015-10-05,1,,,,,キョウエイキカイセイサクジョ,0
1272,6012401005240,登記記録の閉鎖等,0,2025-07-31,2025-07-22,株式会社サーモグレーズ・ジャパン,,株式会社,東京都,府中市,日新町５丁目１５番２１号,,13,206,1830036,,,2025-07-22,清算の結了等,,,2015-10-05,1,,,,,,0
1273,6012701002152,登記記録の閉鎖等,0,2025-07-31,2025-07-17,株式会社協栄エンタープライズ,,株式会社,東京都,西東京市,田無町１丁目１０番８号,,13,229,1880011,,,2025-07-17,清算の結了等,,,2015-10-05,1,,,,,キョウエイエンタープライズ,0
1282,6013305000674,登記記録の閉鎖等,0,2025-07-31,2025-07-11,特定非営利活動法人在宅医療協議会,,その他の設立登記法人,東京都,豊島区,池袋２丁目５２番８号大河内ビル,,13,116,1710014,,,2025-07-11,清算の結了等,,,2015-10-05,1,,,,,ザイタクイリョウキョウギカイ,0
1300,6020003025680,登記記録の閉鎖等,0,2025-07-31,2025-07-14,良縁物販合同会社,,合同会社,神奈川県,横浜市神奈川区,金港町５－１４クアドリフォリオ８階,,14,102,2210056,,,2025-07-14,清算の結了等,,,2024-03-07,1,,,,,リョウエンブッパン,0
1302,6021002014121,登記記録の閉鎖等,0,2025-07-31,2025-07-24,有限会社エヌティーエンタープライズ,,有限会社,神奈川県,鎌倉市,西鎌倉１丁目１４番１１号,,14,204,2480035,,,2025-07-24,清算の結了等,,,2015-10-05,1,,,,,エヌティーエンタープライズ,0
1303,6021002053086,登記記録の閉鎖等,0,2025-07-31,2025-07-25,有限会社幕田造園土木,,有限会社,神奈川県,小田原市,寿町５丁目１番２９号,,14,206,2500002,,,2025-07-25,清算の結了等,,,2015-10-05,1,,,,,マクタゾウエンドボク,0
1323,6060005010231,登記記録の閉鎖等,0,2025-07-31,2025-07-14,特定非営利活動法人アユターレ,,その他の設立登記法人,栃木県,宇都宮市,下栗町２２７８番地２フレールシャポー泉Ｂ２０６,,09,201,3210923,,,2025-07-14,清算の結了等,,,2024-07-23,1,,,,,アユターレ,0
1324,6070001010011,登記記録の閉鎖等,0,2025-07-31,2025-07-22,東群木材株式会社,,株式会社,群馬県,高崎市,八幡町１０６８番地３,,10,202,3700884,,,2025-07-22,清算の結了等,,,2015-10-05,1,,,,,トウグンモクザイ,0
1332,6080102012599,登記記録の閉鎖等,0,2025-07-31,2025-07-30,有限会社スターフーズ,,有限会社,静岡県,駿東郡清水町,玉川１４２番地２,,22,341,4110902,,,2025-07-30,清算の結了等,,,2015-10-05,1,,,,,スターフーズ,0
1333,6080402005253,登記記録の閉鎖等,0,2025-07-31,2025-07-25,有限会社電機マキノ,,有限会社,静岡県,浜松市中央区,中郡町５３３番地,,22,138,4313111,,,2025-07-25,清算の結了等,,,2015-10-05,1,,,,,デンキマキノ,0
1336,6090003001444,登記記録の閉鎖等,0,2025-07-31,2025-07-22,合同会社Ｎｏｒｔｈ,,合同会社,山梨県,甲斐市,西八幡２４０１番地１,,19,210,4000117,,,2025-07-22,清算の結了等,,,2018-09-18,1,,,,,,0
1341,6110001032579,登記記録の閉鎖等,0,2025-07-31,2025-07-08,株式会社みのり,,株式会社,新潟県,上越市,頸城区手島５２７番地,,15,222,9420207,,,2025-07-08,清算の結了等,,,2017-07-28,1,,,,,ミノリ,0
1359,6120005003286,登記記録の閉鎖等,0,2025-07-31,2025-07-24,一般社団法人大阪能率協会,,その他の設立登記法人,大阪府,大阪市中央区,本町橋２番５号マイドームおおさか内,,27,128,5400029,,,2025-07-24,清算の結了等,,,2015-10-05,1,,,,,オオサカノウリツキョウカイ,0
1366,6120905005092,登記記録の閉鎖等,0,2025-07-31,2025-07-10,ＮＰＯ法人ＨｕｍＡｌｉｖｅ　Ｒｅｓｉｌｉｅｎｃｅ,,その他の設立登記法人,大阪府,豊中市,服部西町２丁目９番２４号,,27,203,5610858,,,2025-07-10,清算の結了等,,,2015-10-05,1,,,,,ヒューマライブレジリエンス,0
1369,6130001059694,登記記録の閉鎖等,0,2025-07-31,2025-07-28,アクトメッド株式会社,,株式会社,東京都,中央区,日本橋本町３丁目１１－５,,13,102,1030023,,,2025-07-28,合併による解散等,8060001013525,令和７年７月１日栃木県大田原市下石上１３８５番地キヤノンメディカルシステムズ株式会社（8060001013525）に合併し解散,2017-05-08,1,,,,,アクトメッド,0
1379,6140002017634,登記記録の閉鎖等,0,2025-07-31,2025-07-24,有限会社ＮＥＷ　ＦＯＲＵＭ,,有限会社,兵庫県,神戸市長田区,細田町１丁目４－１３,,28,106,6530835,,,2025-07-24,清算の結了等,,,2015-10-05,1,,,,,ニューフォーラム,0
1383,6140005017920,登記記録の閉鎖等,0,2025-07-31,2025-07-17,ＮＰＯ法人食育サポート研究所,,その他の設立登記法人,兵庫県,神戸市灘区,赤松町２丁目３番２９号,,28,102,6570061,,,2025-07-17,清算の結了等,,,2015-10-05,1,,,,,ショクイクサポートケンキュウショ,0
1390,6180005002621,登記記録の閉鎖等,0,2025-07-31,2025-07-10,医療法人ながや会はじかの外科整形外科,,その他の設立登記法人,愛知県,名古屋市中村区,香取町１丁目２４番地,,23,105,4530055,,,2025-07-10,清算の結了等,,,2015-10-05,1,,,,,ナガヤカイハジカノゲカセイケイゲカ,0
1392,6180301015005,登記記録の閉鎖等,0,2025-07-31,2025-07-23,旭鉄工株式会社,,株式会社,愛知県,碧南市,中山町７丁目２６番地,,23,209,4470035,,,2025-07-23,合併による解散等,4010001248880,令和７年７月１日東京都千代田区内幸町一丁目３番３号内幸町ダイビル旭鉄工株式会社（4010001248880）に合併し解散,2015-10-05,1,,,,,アサヒテッコウ,0
1400,6230002003666,登記記録の閉鎖等,0,2025-07-31,2025-07-29,有限会社矢郷商店,,有限会社,富山県,富山市,中央通り２丁目２番１９号,,16,201,9300044,,,2025-07-29,清算の結了等,,,2015-10-05,1,,,,,ヤゴウショウテン,0
1408,6250001000308,登記記録の閉鎖等,0,2025-07-31,2025-07-29,新英マスト株式会社,,株式会社,山口県,山口市,矢原１１９２番地の３,,35,203,7530861,,,2025-07-29,清算の結了等,,,2015-10-05,1,,,,,シンエイマスト,0
1409,6260001020395,登記記録の閉鎖等,0,2025-07-31,2025-06-30,太陽産業株式会社,,株式会社,岡山県,津山市,一方１２番地,,33,203,7080883,,,2025-06-30,清算の結了等,,,2015-10-05,1,,,,,タイヨウサンギョウ,0
1417,6290001073077,登記記録の閉鎖等,0,2025-07-31,2025-07-25,株式会社ジャパン旅客サービス九州,,株式会社,福岡県,福岡市中央区,天神４丁目６番７号,,40,133,8100001,,,2025-07-25,合併による解散等,4010001136953,令和７年７月１日東京都港区芝浦四丁目９番２５号株式会社ジャパン・リリーフ（4010001136953）に合併し解散,2016-03-04,1,,,,,ジャパンリョキャクサービスキュウシュウ,0
1432,6330005003934,登記記録の閉鎖等,0,2025-07-31,2025-07-09,医療法人社団志楽会,,その他の設立登記法人,熊本県,上益城郡山都町,下市３９番地１,,43,447,8613513,,,2025-07-09,清算の結了等,,,2015-10-05,1,,,,,シラクカイ,0
1454,6460101006571,登記記録の閉鎖等,0,2025-07-31,2025-07-25,株式会社Ｎ１フェスタ,,株式会社,北海道,帯広市,西六条南２７丁目１６番地１,,01,207,0800016,,,2025-07-25,清算の結了等,,,2019-05-29,1,,,,,エヌワンフェスタ,0
1468,7010003038286,登記記録の閉鎖等,0,2025-07-31,2025-07-29,薬院プロパティー合同会社,,合同会社,東京都,千代田区,丸の内１丁目１１番１号,,13,101,1000005,,,2025-07-29,清算の結了等,,,2022-07-29,1,,,,,ヤクインプロパティー,0
1481,7010603008052,登記記録の閉鎖等,0,2025-07-31,2025-07-24,合同会社ＪＵＮ・Ｔｓ,,合同会社,東京都,墨田区,江東橋４丁目９番４号阿部ビル３０１号,,13,107,1300022,,,2025-07-24,清算の結了等,,,2019-10-31,1,,,,,ジュンティズ,0
1489,7010902022209,登記記録の閉鎖等,0,2025-07-31,2025-07-29,有限会社福澤インターナショナル,,有限会社,東京都,世田谷区,八幡山１丁目９番１０－１０５号,,13,112,1560056,,,2025-07-29,清算の結了等,,,2015-10-05,1,,,,,フクザワインターナショナル,0
1502,7011601023563,登記記録の閉鎖等,0,2025-07-31,2025-07-14,株式会社ＥＶＥＲＧＲＥＥＮ　ＳＥＲＶＩＣＥ,,株式会社,東京都,練馬区,豊玉北２丁目１８番１６号,,13,120,1760012,,,2025-07-14,清算の結了等,,,2019-08-08,1,,,,,エヴァーグリーンサービス,0
1516,7020001007531,登記記録の閉鎖等,0,2025-07-31,2025-07-24,Ｖ．Ｉ．Ｐ　ｊａｐａｎ　ｆｉｓｈｉｎｇ株式会社,,株式会社,神奈川県,小田原市,栄町１丁目１２番１２号,,14,206,2500011,,,2025-07-24,清算の結了等,,,2015-10-05,1,,,,,ブイアイピージャパンフィッシング,0
1522,7020002100120,登記記録の閉鎖等,0,2025-07-31,2025-07-14,有限会社大城架設,,有限会社,神奈川県,川崎市川崎区,京町３丁目１番２－２０２号,,14,131,2100848,,,2025-07-14,清算の結了等,,,2015-10-05,1,,,,,,0
1523,7020003006283,登記記録の閉鎖等,0,2025-07-31,2025-07-15,合資会社楓杏,,合資会社,神奈川県,川崎市多摩区,菅２丁目２番１号コンフォール．Ｋ１Ｆ,,14,135,2140001,,,2025-07-15,清算の結了等,,,2015-10-05,1,,,,,フウアン,0
1526,7021001015961,登記記録の閉鎖等,0,2025-07-31,2025-07-24,ヘキサゴン・メトロジー株式会社,,株式会社,神奈川県,相模原市緑区,橋本台１丁目１５番８号,,14,151,2520132,,,2025-07-24,合併による解散等,1010001118434,令和７年７月１日東京都千代田区神田錦町二丁目２番地１ＫＡＮＤＡＳＱＵＡＲＥ１６階Ｈｅｘａｇｏｎ　Ｍａｎｕｆａｃｔｕｒｉｎｇ　Ｉｎｔｅｌｌｉｇｅｎｃｅ株式会社（1010001118434）に合併し解散,2015-10-05,1,,,,,ヘキサゴンメトロジー,0
1544,7040001040175,登記記録の閉鎖等,0,2025-07-31,2025-07-07,株式会社後藤化学,,株式会社,千葉県,松戸市,大橋１４８番地,,12,207,2702224,,,2025-07-07,清算の結了等,,,2015-10-05,1,,,,,ゴトウカガク,0
1547,7040001095178,登記記録の閉鎖等,0,2025-07-31,2025-07-15,株式会社エーアイアカデミー,,株式会社,東京都,新宿区,新小川町５番５号,,13,104,1620814,,,2025-07-15,合併による解散等,9011201017162,令和７年６月３０日東京都新宿区新小川町５番５号株式会社アガルート（9011201017162）に合併し解散,2016-05-11,1,,,,,エーアイアカデミー,0
1548,7040001110928,登記記録の閉鎖等,0,2025-07-31,2025-07-01,株式会社ＨＯＰ,,株式会社,千葉県,白井市,折立３２番地の７,,12,232,2701404,,,2025-07-01,合併による解散等,4010501012084,令和７年７月１日千葉県白井市折立３２番地の８株式会社フジコー（4010501012084）に合併し解散,2019-10-02,1,,,,,ホップ,0
1557,7050002031668,登記記録の閉鎖等,0,2025-07-31,2025-07-15,有限会社常陸エンジニアリング,,有限会社,茨城県,日立市,大久保町４丁目１８番２３号,,08,202,3160012,,,2025-07-15,清算の結了等,,,2015-10-05,1,,,,,ヒタチエンジニアリング,0
1559,7070001028184,登記記録の閉鎖等,0,2025-07-31,2025-07-23,株式会社Ｍ－ＴＥＣ,,株式会社,群馬県,桐生市,新里町新川３７８０番地６加藤荘１５号,,10,203,3760121,,,2025-07-23,清算の結了等,,,2015-10-05,1,,,,,エムテック,0
1591,7122001026105,登記記録の閉鎖等,0,2025-07-31,2025-07-25,株式会社アイ・エス・エム,,株式会社,大阪府,八尾市,東山本新町７丁目１－２４ルアージュ２０３,,27,212,5810866,,,2025-07-25,清算の結了等,,,2015-10-05,1,,,,,アイエスエム,0
1593,7122002016393,登記記録の閉鎖等,0,2025-07-31,2025-07-28,有限会社ココ,,有限会社,大阪府,八尾市,上尾町２丁目３１番２９号,,27,212,5810851,,,2025-07-28,清算の結了等,,,2015-10-05,1,,,,,ココ,0
1612,7150005007738,登記記録の閉鎖等,0,2025-07-31,2025-07-31,五條市葬祭業協同組合,,その他の設立登記法人,奈良県,五條市,五條３丁目３８３番１号,,29,207,6370042,,,2025-07-31,清算の結了等,,,2015-10-05,1,,,,,ゴジョウシソウサイギョウ,0
1613,7160001017351,登記記録の閉鎖等,0,2025-07-31,2025-07-16,株式会社日本パネルシステムズ,,株式会社,滋賀県,東近江市,市辺町２８６６番地,,25,213,5270074,,,2025-07-16,清算の結了等,,,2015-10-05,1,,,,,ニホンパネルシステムズ,0
1620,7180305002114,登記記録の閉鎖等,0,2025-07-31,2025-07-16,特定非営利活動法人相よるいのちの会,,その他の設立登記法人,愛知県,岡崎市,庄司田２丁目８番地１７,,23,202,4440821,,,2025-07-16,清算の結了等,,,2015-10-05,1,,,,,アイヨルイノチノカイ,0
1624,7210001002091,登記記録の閉鎖等,0,2025-07-31,2025-07-22,中部モータース株式会社,,株式会社,福井県,福井市,和田中町９７字石田１７－１,,18,201,9188235,,,2025-07-22,清算の結了等,,,2015-10-05,1,,,,,チュウブモータース,0
1646,7290805007221,登記記録の閉鎖等,0,2025-07-31,2025-07-23,医療法人玄風会,,その他の設立登記法人,福岡県,田川郡糸田町,字木実浦８７０番地３,,40,604,8221300,,,2025-07-23,清算の結了等,,,2015-10-05,1,,,,,ゲンプウカイ,0
1676,8010001105822,登記記録の閉鎖等,0,2025-07-31,2025-07-15,ジェーユー・ハウジング株式会社,,株式会社,東京都,墨田区,横川３丁目７番１０号,,13,107,1300003,,,2025-07-15,合併による解散等,4010601054638,令和７年７月１５日東京都墨田区横川三丁目７番１０号ジェーユー・ハウジング株式会社（4010601054638）に合併し解散,2015-10-05,1,,,,,ジェーユーハウジング,0
1684,8010003038285,登記記録の閉鎖等,0,2025-07-31,2025-07-29,今泉プロパティー合同会社,,合同会社,東京都,千代田区,丸の内１丁目１１番１号,,13,101,1000005,,,2025-07-29,清算の結了等,,,2022-07-29,1,,,,,イマイズミプロパティー,0
1691,8010403026732,登記記録の閉鎖等,0,2025-07-31,2025-07-04,Ｔインフラ６号合同会社,,合同会社,東京都,港区,元赤坂１丁目１番７号,,13,103,1070051,,,2025-07-04,清算の結了等,,,2021-12-20,1,,,,,ティーインフラロクゴウ,0
1698,8010602005636,登記記録の閉鎖等,0,2025-07-31,2025-07-22,有限会社緑川製作所,,有限会社,東京都,江東区,大島７丁目４３番１６号,,13,108,1360072,,,2025-07-22,清算の結了等,,,2015-10-05,1,,,,,ミドリカワセイサクショ,0
1701,8010701031442,登記記録の閉鎖等,0,2025-07-31,2025-07-22,株式会社フォーパワーズ,,株式会社,東京都,品川区,南品川３丁目５番８号ＭＡビル３Ｆ,,13,109,1400004,,,2025-07-22,清算の結了等,,,2015-10-05,1,,,,,,0
1702,8010701034692,登記記録の閉鎖等,0,2025-07-31,2025-07-04,Ｓｍｏｏｔｈ　Ｐｕｂｌｉｓｈｉｎｇ株式会社,,株式会社,東京都,港区,北青山１丁目３番１号アールキューブ青山３階,,13,103,1070061,,,2025-07-04,清算の結了等,,,2017-09-08,1,,,,,スムースパブリッシング,0
1724,8011601019536,登記記録の閉鎖等,0,2025-07-31,2025-07-14,株式会社エヴァーグリーン,,株式会社,東京都,練馬区,豊玉北２丁目８番７号,,13,120,1760012,,,2025-07-14,清算の結了等,,,2015-10-05,1,,,,,,0
1728,8011802019104,登記記録の閉鎖等,0,2025-07-31,2025-07-29,有限会社水野建工,,有限会社,東京都,足立区,西保木間１丁目２０番５号,,13,121,1210812,,,2025-07-29,清算の結了等,,,2015-10-05,1,,,,,ミズノケンコウ,0
1730,8012302000479,登記記録の閉鎖等,0,2025-07-31,2025-07-18,有限会社イー・ビー・エフ,,有限会社,東京都,町田市,下小山田町２７４１－１６,,13,209,1940202,,,2025-07-18,清算の結了等,,,2015-10-05,1,,,,,イービーエフ,0
1734,8012402004223,登記記録の閉鎖等,0,2025-07-31,2025-07-28,有限会社ナカヤマエステート,,有限会社,東京都,葛飾区,堀切７丁目２８番１号,,13,122,1240006,,,2025-07-28,清算の結了等,,,2015-10-05,1,,,,,ナカヤマエステート,0
1746,8020001127898,登記記録の閉鎖等,0,2025-07-31,2025-07-14,株式会社Ｌａｒｇｏ,,株式会社,神奈川県,横浜市泉区,中田西１丁目６番３２号１階,,14,116,2450015,,,2025-07-14,清算の結了等,,,2018-09-12,1,,,,,ラルゴ,0
1754,8021002024928,登記記録の閉鎖等,0,2025-07-31,2025-07-25,有限会社アーイエバー,,有限会社,神奈川県,相模原市南区,上鶴間５丁目８番１号,,14,153,2520302,,,2025-07-25,清算の結了等,,,2015-10-05,1,,,,,アーイエバー,0
1756,8021002030711,登記記録の閉鎖等,0,2025-07-31,2025-07-24,有限会社飯田コンニヤク店,,有限会社,神奈川県,厚木市,元町４番７号,,14,212,2430002,,,2025-07-24,清算の結了等,,,2015-10-05,1,,,,,イイダコンニヤクテン,0
1760,8030002072531,登記記録の閉鎖等,0,2025-07-31,2025-07-24,有限会社エムエムエス,,有限会社,埼玉県,川越市,大字砂新田１５２７番地３,,11,201,3501137,,,2025-07-24,清算の結了等,,,2015-10-05,1,,,,,エムエムエス,0
1775,8070005006490,登記記録の閉鎖等,0,2025-07-31,2025-07-23,医療法人愛孝会,,その他の設立登記法人,群馬県,邑楽郡大泉町,仙石２丁目２３０４番地,,10,524,3700533,,,2025-07-23,清算の結了等,,,2015-10-05,1,,,,,アイコウカイ,0
1776,8080001005297,登記記録の閉鎖等,0,2025-07-31,2025-07-18,株式会社森下商店,,株式会社,静岡県,静岡市葵区,瀬名川３丁目２７番１０号,,22,101,4200913,,,2025-07-18,清算の結了等,,,2015-10-05,1,,,,,モリシタショウテン,0
1787,8110002020399,登記記録の閉鎖等,0,2025-07-31,2025-07-08,有限会社柏羽シーブィエス,,有限会社,新潟県,刈羽郡刈羽村,大字下高町４８８番地１,,15,504,9450316,,,2025-07-08,清算の結了等,,,2015-10-05,1,,,,,カシワシーブィエス,0
1788,8110005000365,登記記録の閉鎖等,0,2025-07-31,2025-07-08,新潟県化粧品小売協同組合,,その他の設立登記法人,新潟県,新潟市中央区,古町通８番町１４５１番地,,15,103,9518063,,,2025-07-08,清算の結了等,,,2015-10-05,1,,,,,ニイガタケンケショウヒンコウリ,0
1791,8120001032832,登記記録の閉鎖等,0,2025-07-31,2025-07-22,株式会社十全石油サービス,,株式会社,大阪府,東大阪市,吉田３丁目４番２８号,,27,227,5780924,,,2025-07-22,清算の結了等,,,2015-10-05,1,,,,,ジュウゼンセキユサービス,0
1823,8130003009679,登記記録の閉鎖等,0,2025-07-31,2025-07-28,合同会社ＴＨＩＥＮ　ＡＮ,,合同会社,京都府,宇治市,伊勢田町中ノ田３７番地２２２,,26,204,6110043,,,2025-07-28,清算の結了等,,,2024-07-05,1,,,,,ティエンアン,0
1832,8140001092288,登記記録の閉鎖等,0,2025-07-31,2025-07-18,ランドムーブ株式会社,,株式会社,大阪府,大阪市北区,豊崎３丁目１６番１６－４３０５号,,27,127,5310072,,,2025-07-18,合併による解散等,4140001064679,令和７年７月１８日大阪市中央区釣鐘町二丁目４番１６－１８０２号ランドヒルズ株式会社（4140001064679）に合併し解散,2015-10-05,1,,,,,ランドムーブ,0
1837,8140005011797,登記記録の閉鎖等,0,2025-07-31,2025-07-07,特定非営利活動法人夢の森作業所,,その他の設立登記法人,兵庫県,尼崎市,立花町２丁目２３番８号,,28,202,6610025,,,2025-07-07,清算の結了等,,,2015-10-05,1,,,,,ユメノモリサギョウショ,0
1850,8180005020984,登記記録の閉鎖等,0,2025-07-31,2025-07-25,一般社団法人ＯＲＫ,,その他の設立登記法人,愛知県,名古屋市港区,当知４丁目８０３番地の８,,23,111,4550804,,,2025-07-25,清算の結了等,,,2025-03-17,1,,,,,オーク,0
1856,8190001020013,登記記録の閉鎖等,0,2025-07-31,2025-07-22,株式会社マルヤス産業,,株式会社,三重県,鈴鹿市,算所３丁目５番２５号,,24,207,5130806,,,2025-07-22,清算の結了等,,,2015-10-05,1,,,,,マルヤスサンギョウ,0
1878,8240001040360,登記記録の閉鎖等,0,2025-07-31,2025-07-22,株式会社美覗い,,株式会社,広島県,広島市中区,小町９番３８号,,34,101,7300041,,,2025-07-22,清算の結了等,,,2015-10-05,1,,,,,ウツクシイ,0
1901,8320002017614,登記記録の閉鎖等,0,2025-07-31,2025-07-18,有限会社さつき建設,,有限会社,大分県,佐伯市,鶴見大字吹浦１９８０番地７,,44,205,8761201,,,2025-07-18,清算の結了等,,,2015-10-05,1,,,,,サツキケンセツ,0
1942,9010003028624,登記記録の閉鎖等,0,2025-07-31,2025-07-02,ＭＡＧＮＥＴ　ＣＯＭＭＵＮＩＣＡＴＩＯＮ　ＩＮＴＥＲＮＡＴＩＯＮＡＬ合同会社,,合同会社,東京都,千代田区,九段南１丁目５－６りそな九段ビル５ＦＫＳフロア,,13,101,1020074,,,2025-07-02,清算の結了等,,,2018-11-12,1,,,,,マグネットコミュニケーションインターナショナル,0
1943,9010003046130,登記記録の閉鎖等,0,2025-07-31,2025-07-02,合同会社ＢＩＯＳＳ,,合同会社,東京都,中央区,銀座１丁目１２番４号Ｎ＆Ｅ・ＢＬＤ．６Ｆ,,13,102,1040061,,,2025-07-02,清算の結了等,,,2025-01-22,1,,,,,バイオス,0
1949,9010403021732,登記記録の閉鎖等,0,2025-07-31,2025-07-04,ジャパンインフラ５号合同会社,,合同会社,東京都,港区,元赤坂１丁目１番７号,,13,103,1070051,,,2025-07-04,清算の結了等,,,2019-11-08,1,,,,,ジャパンインフラゴゴウ,0
1954,9010403032416,登記記録の閉鎖等,0,2025-07-31,2025-06-30,合同会社１６２３マネジメント,,合同会社,東京都,渋谷区,円山町２８－８第１８宮庭マンション３０５,,13,113,1500044,,,2025-06-30,合併による解散等,2010403028791,令和７年６月３０日東京都渋谷区円山町２８－８第１８宮庭マンション３０５合同会社１６２３（2010403028791）に合併し解散,2024-04-16,1,,,,,イチロクニサンマネジメント,0
1969,9011101043234,登記記録の閉鎖等,0,2025-07-31,2025-07-28,株式会社ゲームグース,,株式会社,東京都,品川区,小山３丁目２２番１９号,,13,109,1420062,,,2025-07-28,合併による解散等,4010801014318,令和７年７月１日東京都港区東新橋一丁目９番１号株式会社ＧＥＮＤＡ　ＧｉＧＯ　Ｅｎｔｅｒｔａｉｎｍｅｎｔ（4010801014318）に合併し解散,2015-10-05,1,,,,,ゲームグース,0
1994,9012702004707,登記記録の閉鎖等,0,2025-07-31,2025-07-15,有限会社のぼり坂,,有限会社,東京都,西東京市,保谷町２丁目１４番２号,,13,229,2020015,,,2025-07-15,清算の結了等,,,2015-10-05,1,,,,,ノボリザカ,0
1998,9013201007903,登記記録の閉鎖等,0,2025-07-31,2025-07-01,株式会社ケアメイト大岡山,,株式会社,東京都,目黒区,大岡山１丁目１番８号,,13,110,1520033,,,2025-07-01,合併による解散等,1013201010419,令和７年７月１日東京都目黒区大岡山一丁目１番８号株式会社ナイスケア（1013201010419）に合併し解散,2015-10-05,1,,,,,ケアメイトオオオカヤマ,0
2005,9020001033872,登記記録の閉鎖等,0,2025-07-31,2025-07-15,株式会社タイオックス,,株式会社,神奈川県,横浜市都筑区,北山田１丁目９番３－４１１号,,14,118,2240021,,,2025-07-15,清算の結了等,,,2015-10-05,1,,,,,タイオックス,0
2006,9020001106686,登記記録の閉鎖等,0,2025-07-31,2025-07-15,株式会社Ｔ－ｓｔｙｌｅ,,株式会社,神奈川県,横浜市磯子区,氷取沢町３４６番地,,14,107,2350043,,,2025-07-15,清算の結了等,,,2015-10-05,1,,,,,ティースタイル,0
2015,9020003024580,登記記録の閉鎖等,0,2025-07-31,2025-07-14,ｗｉｄｅｎ合同会社,,合同会社,神奈川県,横浜市西区,浅間町１丁目４番３号ウィザードビル４０２,,14,103,2200072,,,2025-07-14,清算の結了等,,,2023-09-11,1,,,,,ワイデン,0
2020,9021003006148,登記記録の閉鎖等,0,2025-07-31,2025-07-18,合同会社拓海介護,,合同会社,神奈川県,平塚市,徳延１３１番地１,,14,203,2540902,,,2025-07-18,清算の結了等,,,2016-08-16,1,,,,,,0
2022,9030001095945,登記記録の閉鎖等,0,2025-07-31,2025-07-22,株式会社ＳＫメディカル,,株式会社,埼玉県,川越市,南通町１６番地６,,11,201,3500045,,,2025-07-22,清算の結了等,,,2015-10-05,1,,,,,エスケイメディカル,0
2024,9030001154478,登記記録の閉鎖等,0,2025-07-31,2025-07-24,株式会社Ｃ＆Ｓ,,株式会社,埼玉県,草加市,八幡町１１２７番地１２,,11,221,3400006,,,2025-07-24,清算の結了等,,,2023-06-19,1,,,,,シーアンドエス,0
2039,9050002042399,登記記録の閉鎖等,0,2025-07-31,2025-07-11,有限会社ハヤセ住建,,有限会社,茨城県,筑西市,玉戸９６番地の５,,08,227,3080847,,,2025-07-11,清算の結了等,,,2015-10-05,1,,,,,ハヤセジュウケン,0
2040,9070001031954,登記記録の閉鎖等,0,2025-07-31,2025-07-24,株式会社リアルライフ,,株式会社,群馬県,前橋市,荒口町６０１番地１,,10,201,3792107,,,2025-07-24,清算の結了等,,,2016-03-16,1,,,,,リアルライフ,0
2044,9080401019656,登記記録の閉鎖等,0,2025-07-31,2025-07-25,東海器材株式会社,,株式会社,静岡県,袋井市,堀越２丁目１７番地の２,,22,216,4370065,,,2025-07-25,清算の結了等,,,2015-10-05,1,,,,,トウカイキザイ,0
2076,9120005009743,登記記録の閉鎖等,0,2025-07-31,2025-07-30,特定非営利活動法人ＳＡＭＧＨＡ,,その他の設立登記法人,大阪府,大阪市北区,東天満２丁目１０番３５号宗石ビル４０１号,,27,127,5300044,,,2025-07-30,清算の結了等,,,2015-10-05,1,,,,,サンガ,0
2081,9120102001181,登記記録の閉鎖等,0,2025-07-31,2025-07-17,有限会社リード,,有限会社,大阪府,堺市南区,御池台３丁目１番１３号,,27,145,5900134,,,2025-07-17,清算の結了等,,,2015-10-05,1,,,,,リード,0
2085,9122001017300,登記記録の閉鎖等,0,2025-07-31,2025-07-28,株式会社キムラプラスチックス,,株式会社,大阪府,大東市,平野屋２丁目８番１８号,,27,218,5740022,,,2025-07-28,清算の結了等,,,2015-10-05,1,,,,,キムラプラスチックス,0
2097,9150001002831,登記記録の閉鎖等,0,2025-07-31,2025-07-28,二和工業株式会社,,株式会社,奈良県,奈良市,右京５丁目７番地の６,,29,201,6310805,,,2025-07-28,清算の結了等,,,2015-10-05,1,,,,,ニワコウギョウ,0
2103,9180002007538,登記記録の閉鎖等,0,2025-07-31,2025-07-07,有限会社アサヒレジン,,有限会社,愛知県,名古屋市昭和区,広路本町４丁目２１番地,,23,107,4660841,,,2025-07-07,清算の結了等,,,2015-10-05,1,,,,,アサヒレジン,0
2104,9180003020746,登記記録の閉鎖等,0,2025-07-31,2025-07-25,合同会社すみれ,,合同会社,神奈川県,相模原市緑区,橋本２丁目１８－１４ＤＲＡＧＯＮ橋本六番館３０５号,,14,151,2520143,,,2025-07-25,清算の結了等,,,2020-01-16,1,,,,,スミレ,0
2108,9200001007890,登記記録の閉鎖等,0,2025-07-31,2025-07-23,株式会社ナオミ,,株式会社,東京都,品川区,東品川４丁目５番地８－２４０号,,13,109,1400002,,,2025-07-23,清算の結了等,,,2015-10-05,1,,,,,ナオミ,0
2131,9290001066870,登記記録の閉鎖等,0,2025-07-31,2025-07-14,株式会社トリニティコード,,株式会社,福岡県,福岡市博多区,麦野４丁目３５番１１号－９０１,,40,132,8120882,,,2025-07-14,清算の結了等,,,2015-10-05,1,,,,,トリニティコード,0
2153,9390001005158,登記記録の閉鎖等,0,2025-07-31,2025-07-16,株式会社鬼嶋庄一郎商店,,株式会社,山形県,山形市,松栄１丁目３番８号,,06,201,9902473,,,2025-07-16,清算の結了等,,,2015-10-05,1,,,,,キジマショウイチロウショウテン,0
2157,9420001011152,登記記録の閉鎖等,0,2025-07-31,2025-07-11,十和田ミート株式会社,,株式会社,青森県,十和田市,大字三本木字野崎４９９番地２,,02,206,0340001,,,2025-07-11,清算の結了等,,,2015-10-05,1,,,,,トワダミート,0
2164,9430005008788,登記記録の閉鎖等,0,2025-07-31,2025-07-10,医療法人社団袖井歯科医院,,その他の設立登記法人,北海道,苫小牧市,有珠の沢町６丁目７番２１号,,01,213,0530842,,,2025-07-10,清算の結了等,,,2015-10-05,1,,,,,ソデイシカイイン,0
2170,9500002018907,登記記録の閉鎖等,0,2025-07-31,2025-07-25,有限会社博愛看護婦家政婦紹介所,,有限会社,愛媛県,今治市,室屋町２丁目１番地９,,38,202,7940022,,,2025-07-25,清算の結了等,,,2015-10-05,1,,,,,ハクアイカンゴフカセイフショウカイショ,0
