sequenceNumber,corporateNumber,process,correct,updateDate,changeDate,name,nameImageId,kind,prefectureName,cityName,streetNumber,addressImageId,prefectureCode,cityCode,postCode,addressOutside,addressOutsideImageId,closeDate,closeCause,successorCorporateNumber,changeCause,assignmentDate,latest,enName,enPrefectureName,enCityName,enAddressOutside,furigana,hihyoji
52,1011101004615,登記記録の閉鎖等,0,2022-07-12,2022-07-05,株式会社片岡,,株式会社,東京都,新宿区,市谷砂土原町１丁目２番地３８,,13,104,1620842,,,2022-07-05,清算の結了等,,,2015-10-05,1,,,,,カタオカ,0
70,1011301006931,登記記録の閉鎖等,0,2022-07-12,2022-07-06,株式会社シルバーコスモ,,株式会社,東京都,杉並区,和泉２丁目４５番１１号パークサイド波良１０３号室,,13,115,1680063,,,2022-07-06,清算の結了等,,,2015-10-05,1,,,,,シルバーコスモ,0
74,1011501008455,登記記録の閉鎖等,0,2022-07-12,2022-07-06,冨士製＿株式会社,00055661,株式会社,東京都,荒川区,荒川４丁目４１番４－６０８号,,13,118,1160002,,,2022-07-06,清算の結了等,,,2015-10-05,1,,,,,フジセイアン,0
78,1011701004196,登記記録の閉鎖等,0,2022-07-12,2022-07-01,株式会社スエニージャパン,,株式会社,東京都,江戸川区,篠崎町７丁目２９番９号,,13,123,1330061,,,2022-07-01,合併による解散等,7011702016318,令和４年７月１日東京都江戸川区篠崎町七丁目２９番９号株式会社ＳＨＯＥ（7011702016318）に合併し解散,2015-10-05,1,,,,,スエニージャパン,0
145,1040002093632,登記記録の閉鎖等,0,2022-07-12,2022-07-05,有限会社成田工業,,有限会社,千葉県,柏市,大津ケ丘２丁目４番７,,12,217,2770921,,,2022-07-05,清算の結了等,,,2015-10-05,1,,,,,ナリタコウギョウ,0
155,1060002027984,登記記録の閉鎖等,0,2022-07-12,2022-07-01,有限会社小山ラス工業,,有限会社,栃木県,小山市,大字千駄塚４４０番地８,,09,208,3290202,,,2022-07-01,清算の結了等,,,2015-10-05,1,,,,,オヤマラスコウギョウ,0
158,1070002022596,登記記録の閉鎖等,0,2022-07-12,2022-06-30,有限会社アルファ総合企画,,有限会社,群馬県,みどり市,大間々町大間々２３１３番地,,10,212,3760101,,,2022-06-30,清算の結了等,,,2015-10-05,1,,,,,アルファソウゴウキカク,0
159,1080001008546,登記記録の閉鎖等,0,2022-07-12,2022-07-08,大正建築株式会社,,株式会社,静岡県,静岡市清水区,横砂西町１４番４６号,,22,103,4240036,,,2022-07-08,清算の結了等,,,2015-10-05,1,,,,,タイショウケンチク,0
164,1080402006388,登記記録の閉鎖等,0,2022-07-12,2022-07-06,有限会社浜一材木店,,有限会社,静岡県,浜松市東区,材木町１３７５番地,,22,132,4350021,,,2022-07-06,清算の結了等,,,2015-10-05,1,,,,,ハマイチザイモクテン,0
216,1140001030089,登記記録の閉鎖等,0,2022-07-12,2022-07-04,株式会社オンフルール,,株式会社,兵庫県,神戸市兵庫区,松本通７丁目１番３４号,,28,105,6520045,,,2022-07-04,清算の結了等,,,2015-10-05,1,,,,,オンフルール,0
237,1180001100516,登記記録の閉鎖等,0,2022-07-12,2022-07-05,Ｇ・Ｇ株式会社,,株式会社,愛知県,名古屋市中川区,外新町２丁目２８番地,,23,110,4540053,,,2022-07-05,清算の結了等,,,2015-10-05,1,,,,,ジージー,0
239,1180002025258,登記記録の閉鎖等,0,2022-07-12,2022-07-07,有限会社石垣螺子製作所,,有限会社,愛知県,名古屋市緑区,大高町字巳新田２７番地の３,,23,114,4598001,,,2022-07-07,清算の結了等,,,2015-10-05,1,,,,,イシガキネジセイサクジョ,0
247,1180302012030,登記記録の閉鎖等,0,2022-07-12,2022-07-06,有限会社ホワイト・ケア,,有限会社,愛知県,豊橋市,関屋町１３番地６,,23,201,4400891,,,2022-07-06,合併による解散等,7080001005414,令和４年７月１日静岡県島田市中河７３７番地株式会社ヤマシタ（7080001005414）に合併し解散,2015-10-05,1,,,,,ホワイトケア,0
266,1240002001186,登記記録の閉鎖等,0,2022-07-12,2022-07-06,有限会社いしだ,,有限会社,広島県,広島市安佐南区,相田７丁目５１番７号,,34,105,7310141,,,2022-07-06,清算の結了等,,,2015-10-05,1,,,,,イシダ,0
311,1370602001977,登記記録の閉鎖等,0,2022-07-12,2022-06-30,有限会社ユウキコーポレーション,,有限会社,宮城県,塩竈市,杉の入４丁目４番３号,,04,203,9850005,,,2022-06-30,清算の結了等,,,2015-10-05,1,,,,,ユウキコーポレーション,0
313,1380005011805,登記記録の閉鎖等,0,2022-07-12,2022-06-30,医療法人大高内科クリニック,,その他の設立登記法人,福島県,須賀川市,大町４０３番地９,,07,207,9620839,,,2022-06-30,清算の結了等,,,2017-03-13,1,,,,,オオタカナイカクリニック,0
335,1480002013802,登記記録の閉鎖等,0,2022-07-12,2022-07-06,有限会社保岡縫工所,,有限会社,徳島県,阿南市,見能林町東浦１２２番地５,,36,204,7740017,,,2022-07-06,清算の結了等,,,2015-10-05,1,,,,,ヤスオカホウコウショ,0
362,2010401081215,登記記録の閉鎖等,0,2022-07-12,2022-06-30,株式会社グローバルアセット,,株式会社,東京都,渋谷区,幡ヶ谷１丁目１７番６号,,13,113,1510072,,,2022-06-30,清算の結了等,,,2015-10-05,1,,,,,グローバルアセット,0
372,2010702004304,登記記録の閉鎖等,0,2022-07-12,2022-07-07,有限会社鈴木喜一プレス加工所,,有限会社,東京都,品川区,平塚２丁目９番１２号,,13,109,1420051,,,2022-07-07,清算の結了等,,,2015-10-05,1,,,,,スズキキイチプレスカコウジョ,0
407,2011305001829,登記記録の閉鎖等,0,2022-07-12,2022-07-05,特定非営利活動法人Ｂｒｉｌｌｉａｎｔ　Ｂａｍｂｉｎｉ,,その他の設立登記法人,東京都,品川区,大崎３丁目１０番１６号,,13,109,1410032,,,2022-07-05,清算の結了等,,,2015-10-05,1,,,,,ブリリアントバンビーニ,0
412,2011601002968,登記記録の閉鎖等,0,2022-07-12,2022-07-06,株式会社シーゲル,,株式会社,東京都,渋谷区,富ヶ谷１丁目３４番４号,,13,113,1510063,,,2022-07-06,清算の結了等,,,2015-10-05,1,,,,,,0
415,2011801007024,登記記録の閉鎖等,0,2022-07-12,2022-07-06,株式会社神山商店,,株式会社,東京都,足立区,関原１丁目４番１５号,,13,121,1230852,,,2022-07-06,清算の結了等,,,2015-10-05,1,,,,,カミヤマシヨウテン,0
431,2013402001190,登記記録の閉鎖等,0,2022-07-12,2022-06-30,有限会社花の清水園,,有限会社,東京都,日野市,平山５丁目２０番地の４,,13,212,1910043,,,2022-06-30,清算の結了等,,,2015-10-05,1,,,,,ハナノシミズエン,0
449,2021002057330,登記記録の閉鎖等,0,2022-07-12,2022-07-05,有限会社片岡建具,,有限会社,神奈川県,平塚市,万田４５１番地の３,,14,203,2540913,,,2022-07-05,清算の結了等,,,2015-10-05,1,,,,,,0
461,2040001002634,登記記録の閉鎖等,0,2022-07-12,2022-07-04,株式会社サカト商工,,株式会社,千葉県,千葉市花見川区,千種町３１４番地,,12,102,2620012,,,2022-07-04,清算の結了等,,,2015-10-05,1,,,,,サカトショウコウ,0
469,2040003009982,登記記録の閉鎖等,0,2022-07-12,2022-07-08,ハイエナジー合同会社,,合同会社,大阪府,大阪市福島区,吉野２丁目１１番２０－３１３号,,27,103,5530006,,,2022-07-08,清算の結了等,,,2017-04-28,1,,,,,ハイエナジー,0
470,2040003017481,登記記録の閉鎖等,0,2022-07-12,2022-07-05,ＡｐｌｕｓＸ　Ｊａｐａｎ合同会社,,合同会社,千葉県,習志野市,谷津２丁目２番１８－３０１号,,12,216,2750026,,,2022-07-05,清算の結了等,,,2021-04-12,1,,,,,アプラスエックスジャパン,0
475,2050002027225,登記記録の閉鎖等,0,2022-07-12,2022-06-30,有限会社清水動物医療センター,,有限会社,茨城県,神栖市,大野原２丁目２１番３４号,,08,232,3140144,,,2022-06-30,清算の結了等,,,2015-10-05,1,,,,,シミズドウブツイリョウセンター,0
485,2090005004993,登記記録の閉鎖等,0,2022-07-12,2022-07-04,一般社団法人そば処清里管理運営組合,,その他の設立登記法人,山梨県,北杜市,高根町清里２８９０番地の１,,19,209,4070301,,,2022-07-04,清算の結了等,,,2015-10-05,1,,,,,ソバドコロキヨサトカンリウンエイクミアイ,0
501,2120001150409,登記記録の閉鎖等,0,2022-07-12,2022-07-06,株式会社＿川製作所,00029406,株式会社,大阪府,枚方市,津田東町１丁目６番１６号,,27,210,5730122,,,2022-07-06,清算の結了等,,,2015-10-05,1,,,,,ハライカワセイサクショ,0
556,2180001120785,登記記録の閉鎖等,0,2022-07-12,2022-07-08,ウェルシェア株式会社,,株式会社,愛知県,名古屋市中区,栄１丁目１３番４号みその大林ビル,,23,106,4600008,,,2022-07-08,清算の結了等,,,2015-11-04,1,,,,,ウェルシェア,0
564,2180302025270,登記記録の閉鎖等,0,2022-07-12,2022-06-30,有限会社Ｔ・Ｄ・Ｎ,,有限会社,愛知県,豊田市,御蔵町広石９番地７,,23,211,4442522,,,2022-06-30,清算の結了等,,,2015-10-05,1,,,,,ティディエヌ,0
569,2200001001099,登記記録の閉鎖等,0,2022-07-12,2022-07-07,株式会社カヨウ商亊,,株式会社,岐阜県,岐阜市,六条大溝１丁目１２番１２号,,21,201,5008357,,,2022-07-07,合併による解散等,1130001001339,令和４年７月１日京都市右京区西京極町ノ坪町２６番地株式会社ツカサ（1130001001339）に合併し解散,2015-10-05,1,,,,,,0
570,2200001031848,登記記録の閉鎖等,0,2022-07-12,2022-07-08,株式会社オフィス・カワイ,,株式会社,岐阜県,大垣市,荒尾町５１２番地３,,21,202,5030034,,,2022-07-08,清算の結了等,,,2015-10-05,1,,,,,オフィスカワイ,0
599,2290001024281,登記記録の閉鎖等,0,2022-07-12,2022-07-06,株式会社アイペック,,株式会社,福岡県,福岡市中央区,渡辺通１丁目１番１号サンセルコ８階,,40,133,8100004,,,2022-07-06,合併による解散等,9290801002620,令和４年７月１日北九州市小倉北区吉野町１３番１号チユリス小倉二階東和産業株式会社（9290801002620）に合併し解散,2015-10-05,1,,,,,アイペック,0
622,2320201000582,登記記録の閉鎖等,0,2022-07-12,2022-07-04,イッシン商事株式会社,,株式会社,大分県,臼杵市,大字臼杵２の１０７番地の２９,,44,206,8750041,,,2022-07-04,清算の結了等,,,2015-10-05,1,,,,,シッシンショウジ,0
631,2340002027451,登記記録の閉鎖等,0,2022-07-12,2022-06-30,有限会社サン・ヤマハ,,有限会社,鹿児島県,志布志市,志布志町内之倉１７１９番地,,46,221,8997211,,,2022-06-30,清算の結了等,,,2015-10-05,1,,,,,サンヤマハ,0
640,2370002001932,登記記録の閉鎖等,0,2022-07-12,2022-06-22,有限会社ヤオキ,,有限会社,宮城県,仙台市青葉区,宮町２丁目１番７８－２０１号,,04,101,9800004,,,2022-06-22,清算の結了等,,,2015-10-05,1,,,,,ヤオキ,0
700,3010902023904,登記記録の閉鎖等,0,2022-07-12,2022-07-07,有限会社エヌビイワイコーポレーション,,有限会社,東京都,港区,南青山１丁目１番１号新青山ビル西館１７階,,13,103,1070062,,,2022-07-07,合併による解散等,4010901027079,令和４年７月１日東京都世田谷区代田一丁目３０番６号ウェリス下北沢６０１株式会社ＴＳＧ（4010901027079）に合併し解散,2015-10-05,1,,,,,エヌビイワイコーポレーション,0
709,3011001115221,登記記録の閉鎖等,0,2022-07-12,2022-07-08,株式会社アイエヌシー管理,,株式会社,東京都,目黒区,中目黒３丁目６－２,,13,110,1530061,,,2022-07-08,清算の結了等,,,2017-03-07,1,,,,,アイエヌシーカンリ,0
718,3011002036648,登記記録の閉鎖等,0,2022-07-12,2022-07-01,セールスエイドシステムズ有限会社,,有限会社,東京都,渋谷区,渋谷２丁目２２番７号,,13,113,1500002,,,2022-07-01,清算の結了等,,,2015-10-05,1,,,,,セールスエイドシステムズ,0
722,3011101043082,登記記録の閉鎖等,0,2022-07-12,2022-07-07,東陽インベストメント株式会社,,株式会社,東京都,新宿区,高田馬場４丁目１７番１５号,,13,104,1690075,,,2022-07-07,清算の結了等,,,2015-10-05,1,,,,,トウヨウインベストメント,0
739,3011702014036,登記記録の閉鎖等,0,2022-07-12,2022-07-07,有限会社トリニティ・ホーム,,有限会社,東京都,江戸川区,北小岩６丁目５２番４号,,13,123,1330051,,,2022-07-07,清算の結了等,,,2015-10-05,1,,,,,トリニティホーム,0
743,3011802024232,登記記録の閉鎖等,0,2022-07-12,2022-07-08,有限会社ティーケーコントラクトサービス,,有限会社,東京都,葛飾区,東四つ木４丁目１３番７号,,13,122,1240014,,,2022-07-08,清算の結了等,,,2015-10-05,1,,,,,ティーケーコントラクトサービス,0
745,3012401013592,登記記録の閉鎖等,0,2022-07-12,2022-07-06,ＪＡＰＡＮ観光株式会社,,株式会社,東京都,武蔵野市,吉祥寺東町２丁目６番１１号,,13,203,1800002,,,2022-07-06,清算の結了等,,,2015-10-05,1,,,,,ジャパンカンコウ,0
757,3020001133546,登記記録の閉鎖等,0,2022-07-12,2022-07-01,株式会社かぜなり,,株式会社,神奈川県,横浜市旭区,南本宿町４５番地１８,,14,112,2410833,,,2022-07-01,清算の結了等,,,2019-11-11,1,,,,,カゼナリ,0
766,3021001010512,登記記録の閉鎖等,0,2022-07-12,2022-07-04,株式会社創店,,株式会社,神奈川県,鎌倉市,大船１丁目１４番１８号２－Ｂ,,14,204,2470056,,,2022-07-04,清算の結了等,,,2015-10-05,1,,,,,ソウテン,0
773,3021002033974,登記記録の閉鎖等,0,2022-07-12,2022-07-05,有限会社久崎自動車,,有限会社,神奈川県,愛甲郡愛川町,半原４０７８番地２,,14,401,2430307,,,2022-07-05,清算の結了等,,,2015-10-05,1,,,,,キュウザキジドウシャ,0
777,3030002035749,登記記録の閉鎖等,0,2022-07-12,2022-06-29,有限会社バオ,,有限会社,埼玉県,入間市,大字下谷ケ貫１２番地,,11,225,3580041,,,2022-06-29,清算の結了等,,,2015-10-05,1,,,,,バオ,0
798,3100005007028,登記記録の閉鎖等,0,2022-07-12,2022-06-28,特定非営利活動法人ろっきーず,,その他の設立登記法人,長野県,塩尻市,大門幸町２番７号,,20,215,3990741,,,2022-06-28,清算の結了等,,,2015-10-05,1,,,,,ロッキーズ,0
800,3120001047439,登記記録の閉鎖等,0,2022-07-12,2022-07-08,株式会社ますや,,株式会社,大阪府,大阪市西区,九条１丁目１３番２６号,,27,106,5500027,,,2022-07-08,清算の結了等,,,2015-10-05,1,,,,,マスヤ,0
806,3120001174448,登記記録の閉鎖等,0,2022-07-12,2022-07-04,株式会社リンクス,,株式会社,大阪府,大阪市中央区,本町橋５－１４－５０４号室,,27,128,5400029,,,2022-07-04,清算の結了等,,,2015-10-05,1,,,,,,0
869,3240001006440,登記記録の閉鎖等,0,2022-07-12,2022-07-06,株式会社谷口電化,,株式会社,広島県,広島市安佐北区,可部３丁目４０番１０号,,34,106,7310221,,,2022-07-06,清算の結了等,,,2015-10-05,1,,,,,タニグチデンカ,0
925,3380002017803,登記記録の閉鎖等,0,2022-07-12,2022-07-04,有限会社斎藤建設,,有限会社,福島県,白河市,豊地弥次郎２７番地１,,07,205,9610005,,,2022-07-04,清算の結了等,,,2015-10-05,1,,,,,サイトウケンセツ,0
935,3410001005648,登記記録の閉鎖等,0,2022-07-12,2022-07-01,羽後セット株式会社,,株式会社,秋田県,雄勝郡羽後町,西馬音内堀回字元城下１２５番地２,,05,463,0121137,,,2022-07-01,清算の結了等,,,2015-10-05,1,,,,,ウゴセット,0
1002,4011302015367,登記記録の閉鎖等,0,2022-07-12,2022-07-07,ＲＯＯＢＩＫ株式会社,,株式会社,東京都,杉並区,下高井戸４丁目６－２６パールハイツ桜上水３０１号,,13,115,1680073,,,2022-07-07,清算の結了等,,,2015-10-05,1,,,,,ルービック,0
1018,4020001042168,登記記録の閉鎖等,0,2022-07-12,2022-07-01,株式会社ヤマダイ,,株式会社,神奈川県,横浜市神奈川区,新子安１丁目１１番１４号,,14,102,2210013,,,2022-07-01,清算の結了等,,,2015-10-05,1,,,,,ヤマダイ,0
1024,4020002065473,登記記録の閉鎖等,0,2022-07-12,2022-07-01,有限会社アデッソ,,有限会社,神奈川県,横浜市戸塚区,名瀬町７８４番地４２,,14,110,2450051,,,2022-07-01,清算の結了等,,,2015-10-05,1,,,,,アデッソ,0
1032,4021001052297,登記記録の閉鎖等,0,2022-07-12,2022-07-06,株式会社山本,,株式会社,大分県,大分市,大字千歳１８８７番地後藤五郎様方,,44,201,8700132,,,2022-07-06,清算の結了等,,,2015-10-05,1,,,,,ヤマモト,0
1035,4021002046538,登記記録の閉鎖等,0,2022-07-12,2022-07-05,有限会社大吉工務店,,有限会社,神奈川県,綾瀬市,吉岡１７６０番地,,14,218,2521124,,,2022-07-05,清算の結了等,,,2015-10-05,1,,,,,ダイキチコウムテン,0
1038,4030001017747,登記記録の閉鎖等,0,2022-07-12,2022-06-30,株式会社イシカワ,,株式会社,埼玉県,さいたま市岩槻区,大字釣上７４９番地１,,11,110,3390024,,,2022-06-30,清算の結了等,,,2015-10-05,1,,,,,イシカワ,0
1047,4040001074135,登記記録の閉鎖等,0,2022-07-12,2022-07-01,株式会社アスカ,,株式会社,千葉県,千葉市美浜区,新港３２番地１,,12,106,2610002,,,2022-07-01,合併による解散等,9040001006133,令和４年７月１日千葉市美浜区新港３２番地１ＳＯＵセレモニー株式会社（9040001006133）に合併し解散,2015-10-05,1,,,,,アスカ,0
1065,4040002090379,登記記録の閉鎖等,0,2022-07-12,2022-07-01,有限会社セラン,,有限会社,千葉県,柏市,柏下１６３番地１東京慈恵会医科大学附属柏病院内,,12,217,2770004,,,2022-07-01,清算の結了等,,,2015-10-05,1,,,,,セラン,0
1085,4120001217486,登記記録の閉鎖等,0,2022-07-12,2022-07-08,株式会社サカモト電設,,株式会社,大阪府,大阪市平野区,瓜破東２丁目１１番１１－５０１号,,27,126,5470022,,,2022-07-08,清算の結了等,,,2018-12-04,1,,,,,サカモトデンセツ,0
1107,4140002052583,登記記録の閉鎖等,0,2022-07-12,2022-07-05,早慶商事有限会社,,有限会社,兵庫県,姫路市,別所町別所４８５番地の３,,28,201,6710221,,,2022-07-05,清算の結了等,,,2015-10-05,1,,,,,,0
1117,4180001002957,登記記録の閉鎖等,0,2022-07-12,2022-07-06,株式会社萬珍飯店,,株式会社,愛知県,名古屋市名東区,本郷２丁目１６７番地,,23,115,4650024,,,2022-07-06,清算の結了等,,,2015-10-05,1,,,,,マンチンハンテン,0
1118,4180001079483,登記記録の閉鎖等,0,2022-07-12,2022-07-06,尾張建設株式会社,,株式会社,愛知県,尾張旭市,城前町４丁目１番地１６,,23,226,4880867,,,2022-07-06,清算の結了等,,,2015-10-05,1,,,,,オワリケンセツ,0
1121,4180001109661,登記記録の閉鎖等,0,2022-07-12,2022-07-07,株式会社エール,,株式会社,愛知県,名古屋市中川区,伏屋２丁目１２０番地の１,,23,110,4540996,,,2022-07-07,清算の結了等,,,2015-10-05,1,,,,,エール,0
1122,4180001114777,登記記録の閉鎖等,0,2022-07-12,2022-07-07,株式会社ラフィネ,,株式会社,愛知県,名古屋市名東区,上菅２丁目６１３番地の３,,23,115,4650014,,,2022-07-07,清算の結了等,,,2015-10-05,1,,,,,ラフィネ,0
1124,4180001116922,登記記録の閉鎖等,0,2022-07-12,2022-07-08,株式会社ユメココ,,株式会社,愛知県,名古屋市中区,金山２丁目１６番２２号シュズイビル７階,,23,106,4600022,,,2022-07-08,清算の結了等,,,2015-10-05,1,,,,,ユメココ,0
1127,4180002086363,登記記録の閉鎖等,0,2022-07-12,2022-07-06,有限会社山仁造園,,有限会社,愛知県,常滑市,西阿野字半月２２３番地,,23,216,4790802,,,2022-07-06,清算の結了等,,,2015-10-05,1,,,,,ヤマニゾウエン,0
1153,4290001059383,登記記録の閉鎖等,0,2022-07-12,2022-06-29,株式会社ＣＴネットワーク,,株式会社,宮城県,仙台市青葉区,一番町１丁目１７番２６号,,04,101,9800811,,,2022-06-29,清算の結了等,,,2015-10-05,1,,,,,シーティーネットワーク,0
1173,4360003005502,登記記録の閉鎖等,0,2022-07-12,2022-06-29,合同会社リファイン,,合同会社,沖縄県,那覇市,安里１丁目１番４５－３０６号,,47,201,9020067,,,2022-06-29,清算の結了等,,,2015-10-05,1,,,,,,0
1181,4380005007081,登記記録の閉鎖等,0,2022-07-12,2022-07-01,相馬地方食肉事業協同組合,,その他の設立登記法人,福島県,南相馬市,原町区高字竹ノ内１９番地の２,,07,212,9750054,,,2022-07-01,清算の結了等,,,2015-10-05,1,,,,,,0
1229,5010402018444,登記記録の閉鎖等,0,2022-07-12,2022-07-01,ＢＴグローバルジャパン有限会社,,有限会社,東京都,港区,赤坂１丁目１２番３２号アーク森ビル,,13,103,1070052,,,2022-07-01,合併による解散等,7010401023410,令和４年７月１日東京都港区赤坂一丁目１２番３２号ＡＲＫ森ビルＢＴジャパン株式会社（7010401023410）に合併し解散,2015-10-05,1,,,,,ビーティーグローバルジャパン,0
1247,5011001120252,登記記録の閉鎖等,0,2022-07-12,2022-07-05,株式会社パワー,,株式会社,東京都,新宿区,西新宿６丁目１２番１６号天空ＭＵＲＡ８０６,,13,104,1600023,,,2022-07-05,清算の結了等,,,2018-01-23,1,,,,,パワー,0
1262,5011101068978,登記記録の閉鎖等,0,2022-07-12,2022-06-24,Ｂｅａｔｒｏｂｏ株式会社,,株式会社,東京都,中央区,八丁堀４丁目９－１３,,13,102,1040032,,,2022-06-24,合併による解散等,8010603005882,令和４年５月３１日東京都中央区八丁堀４－９－１３合同会社ｒｅｖｉｖｅ（8010603005882）に合併し解散,2015-10-05,1,,,,,ビートロボ,0
1294,5012801003398,登記記録の閉鎖等,0,2022-07-12,2022-07-01,本荘ロジテム株式会社,,株式会社,東京都,東大和市,立野２丁目４番地の１３,,13,220,2070021,,,2022-07-01,清算の結了等,,,2015-10-05,1,,,,,ホンジョウロジテム,0
1313,5021002030029,登記記録の閉鎖等,0,2022-07-12,2022-07-05,スタジオハーツ有限会社,,有限会社,神奈川県,相模原市緑区,橋本３丁目１９番２０号,,14,151,2520143,,,2022-07-05,清算の結了等,,,2015-10-05,1,,,,,スタジオハーツ,0
1323,5040001054284,登記記録の閉鎖等,0,2022-07-12,2022-07-01,千葉防錆株式会社,,株式会社,千葉県,市原市,青柳北３丁目２番地,,12,219,2990101,,,2022-07-01,合併による解散等,1040001053959,令和４年７月１日千葉県市原市上高根１６０３番地１坂口工業株式会社（1040001053959）に合併し解散,2015-10-05,1,,,,,チバボウセイ,0
1336,5050003002991,登記記録の閉鎖等,0,2022-07-12,2022-06-29,合同会社インテリア丸忠,,合同会社,茨城県,石岡市,石岡２７４７番地４７,,08,205,3150001,,,2022-06-29,清算の結了等,,,2015-10-05,1,,,,,インテリアマルチュウ,0
1344,5070002034654,登記記録の閉鎖等,0,2022-07-12,2022-06-30,有限会社エスディーワークス,,有限会社,群馬県,沼田市,薄根町４４７０番地１,,10,206,3780031,,,2022-06-30,合併による解散等,9070001022912,令和４年６月３０日群馬県沼田市薄根町４４７０番地１株式会社サンポウ（9070001022912）に合併し解散,2015-10-05,1,,,,,エスディーワークス,0
1349,5100001014471,登記記録の閉鎖等,0,2022-07-12,2022-07-01,大野川区営企業株式会社,,株式会社,長野県,松本市,安曇３９９２番地１,,20,202,3901520,,,2022-07-01,清算の結了等,,,2015-10-05,1,,,,,オオノガワクエイキギョウ,0
1356,5120001132239,登記記録の閉鎖等,0,2022-07-12,2022-07-06,株式会社アットマルシェ,,株式会社,大阪府,大阪市平野区,瓜破西２丁目１４番２２号,,27,126,5470025,,,2022-07-06,清算の結了等,,,2015-10-05,1,,,,,,0
1398,5180002034998,登記記録の閉鎖等,0,2022-07-12,2022-07-05,有限会社ヒミコ,,有限会社,愛知県,名古屋市瑞穂区,高田町１丁目１９番地の５,,23,108,4670808,,,2022-07-05,清算の結了等,,,2015-10-05,1,,,,,ヒミコ,0
1400,5180002081917,登記記録の閉鎖等,0,2022-07-12,2022-07-06,有限会社十一屋本店,,有限会社,愛知県,江南市,古知野町本郷２１０番地,,23,217,4838273,,,2022-07-06,清算の結了等,,,2015-10-05,1,,,,,ジュウイチヤホンテン,0
1424,5270002001543,登記記録の閉鎖等,0,2022-07-12,2022-07-04,有限会社鳥西自動車,,有限会社,鳥取県,鳥取市,湖山町東５丁目３１５番地,,31,201,6800942,,,2022-07-04,清算の結了等,,,2015-10-05,1,,,,,トリニシジドウシャ,0
1428,5290001056644,登記記録の閉鎖等,0,2022-07-12,2022-07-07,マカディア製薬株式会社,,株式会社,愛知県,小牧市,大字入鹿出新田５６３番地６,,23,219,4850084,,,2022-07-07,清算の結了等,,,2015-10-05,1,,,,,マカディアセイヤク,0
1441,5310002002652,登記記録の閉鎖等,0,2022-07-12,2022-07-07,有限会社正紘,,有限会社,長崎県,長崎市,古川町３番１１号,,42,201,8500851,,,2022-07-07,清算の結了等,,,2015-10-05,1,,,,,セイコウ,0
1461,5380001021119,登記記録の閉鎖等,0,2022-07-12,2022-07-01,株式会社トラスト,,株式会社,福島県,郡山市,日和田町高倉字梅沢道３１番地の１,,07,203,9630531,,,2022-07-01,清算の結了等,,,2015-10-05,1,,,,,トラスト,0
1473,5460002001895,登記記録の閉鎖等,0,2022-07-12,2022-07-06,有限会社鶴冨興産,,有限会社,北海道,釧路市,昭和４１番地の２５１,,01,206,0840902,,,2022-07-06,清算の結了等,,,2015-10-05,1,,,,,ツルトミコウサン,0
1535,6011102015284,登記記録の閉鎖等,0,2022-07-12,2022-07-06,株式会社一條会計研究所,,株式会社,東京都,新宿区,高田馬場４丁目４番１６号一條ビル,,13,104,1690075,,,2022-07-06,清算の結了等,,,2015-10-05,1,,,,,イチジョウカイケイケンキュウジョ,0
1541,6011202005986,登記記録の閉鎖等,0,2022-07-12,2022-06-30,有限会社明和,,有限会社,埼玉県,さいたま市緑区,美園３丁目２４番地１１,,11,109,3360967,,,2022-06-30,清算の結了等,,,2015-10-05,1,,,,,メイワ,0
1543,6011301025844,登記記録の閉鎖等,0,2022-07-12,2022-07-05,株式会社ソシオ・エンジン・プロジェクト,,株式会社,東京都,杉並区,成田東２丁目２１番１９号,,13,115,1660015,,,2022-07-05,清算の結了等,,,2020-04-07,1,,,,,ソシオエンジンプロジェクト,0
1559,6011801027506,登記記録の閉鎖等,0,2022-07-12,2022-07-08,株式会社コミューズジャパン,,株式会社,東京都,足立区,南花畑１丁目１６番２８号,,13,121,1210062,,,2022-07-08,清算の結了等,,,2015-10-05,1,,,,,,0
1571,6020002005824,登記記録の閉鎖等,0,2022-07-12,2022-07-01,有限会社京浜ダイカスト製作所,,有限会社,神奈川県,横浜市都筑区,池辺町３２５９番地,,14,118,2240053,,,2022-07-01,清算の結了等,,,2015-10-05,1,,,,,,0
1578,6021001062740,登記記録の閉鎖等,0,2022-07-12,2022-07-01,株式会社ＨＧホールディングス,,株式会社,神奈川県,三浦郡葉山町,長柄１２９７番地の１,,14,301,2400113,,,2022-07-01,合併による解散等,5021001041877,令和４年７月１日神奈川県三浦郡葉山町長柄１２９７番地の１株式会社葉山ガーデン（5021001041877）に合併し解散,2017-08-07,1,,,,,エイチジーホールディングス,0
1608,6040002061758,登記記録の閉鎖等,0,2022-07-12,2022-07-04,有限会社陽世サークル,,有限会社,千葉県,佐倉市,西志津８丁目１番５号,,12,212,2850845,,,2022-07-04,清算の結了等,,,2015-10-05,1,,,,,ヨウセイサークル,0
1631,6100001030220,登記記録の閉鎖等,0,2022-07-12,2022-07-04,株式会社満天地,,株式会社,栃木県,佐野市,葛生西３丁目１０番地１０,,09,204,3270507,,,2022-07-04,清算の結了等,,,2017-04-26,1,,,,,マンテンチ,0
1635,6110002005690,登記記録の閉鎖等,0,2022-07-12,2022-07-04,有限会社藤木産商,,有限会社,新潟県,新潟市中央区,文京町６番２９号,,15,103,9518153,,,2022-07-04,清算の結了等,,,2015-10-05,1,,,,,フジキサンショウ,0
1646,6120001201001,登記記録の閉鎖等,0,2022-07-12,2022-07-04,株式会社プロシモ,,株式会社,大阪府,大阪市西区,江戸堀３丁目６番１７号,,27,106,5500002,,,2022-07-04,清算の結了等,,,2016-10-03,1,,,,,,0
1648,6120001233052,登記記録の閉鎖等,0,2022-07-12,2022-07-06,株式会社Ｅｃｏぴたっと,,株式会社,大阪府,大阪市中央区,瓦町３丁目１番３－７０３号,,27,128,5410048,,,2022-07-06,清算の結了等,,,2020-11-11,1,,,,,,0
1657,6120005014275,登記記録の閉鎖等,0,2022-07-12,2022-07-06,特定非営利活動法人ＳＡ門真の会,,その他の設立登記法人,大阪府,門真市,舟田町６番２８号,,27,223,5710021,,,2022-07-06,清算の結了等,,,2015-10-05,1,,,,,エスエカドマノカイ,0
1667,6122003001775,登記記録の閉鎖等,0,2022-07-12,2022-07-05,合同会社ＡＤＹ,,合同会社,大阪府,柏原市,大県２丁目３番２号,,27,221,5820018,,,2022-07-05,清算の結了等,,,2019-12-17,1,,,,,エーディーワイ,0
1675,6130005011981,登記記録の閉鎖等,0,2022-07-12,2022-06-29,特定非営利活動法人地湧,,その他の設立登記法人,京都府,綴喜郡宇治田原町,大字郷之口小字向井６０－５,,26,344,6100255,,,2022-06-29,清算の結了等,,,2015-10-05,1,,,,,ジユ,0
1676,6140001050272,登記記録の閉鎖等,0,2022-07-12,2022-07-05,トミヤ株式会社,,株式会社,兵庫県,尼崎市,神田南通３丁目８３番地,,28,202,6600885,,,2022-07-05,清算の結了等,,,2015-10-05,1,,,,,トミヤ,0
1683,6140003017328,登記記録の閉鎖等,0,2022-07-12,2022-07-04,合同会社こぐまＦＤ,,合同会社,兵庫県,宝塚市,山本丸橋２丁目６番２号シャーメゾン山本丸橋Ｂ１０５号室,,28,214,6650815,,,2022-07-04,清算の結了等,,,2022-02-07,1,,,,,コグマフードデリバリー,0
1695,6180002021285,登記記録の閉鎖等,0,2022-07-12,2022-07-08,有限会社かつら,,有限会社,愛知県,名古屋市天白区,植田西１丁目３０７番地,,23,116,4680058,,,2022-07-08,清算の結了等,,,2015-10-05,1,,,,,カツラ,0
1696,6180002066000,登記記録の閉鎖等,0,2022-07-12,2022-07-08,有限会社サカイ,,有限会社,愛知県,春日井市,柏原町２丁目９３番地,,23,206,4860913,,,2022-07-08,清算の結了等,,,2015-10-05,1,,,,,サカイ,0
1708,6230002012428,登記記録の閉鎖等,0,2022-07-12,2022-07-06,有限会社マツバラ産業,,有限会社,富山県,高岡市,福岡町木舟１７１番地,,16,202,9390134,,,2022-07-06,清算の結了等,,,2015-10-05,1,,,,,マツバラサンギョウ,0
1745,6320002015058,登記記録の閉鎖等,0,2022-07-12,2022-07-04,有限会社伊賀上工業,,有限会社,大分県,国東市,安岐町塩屋１９８７番地の２,,44,214,8730212,,,2022-07-04,清算の結了等,,,2015-10-05,1,,,,,イガガミコウギョウ,0
1751,6350001009685,登記記録の閉鎖等,0,2022-07-12,2022-07-07,山下産業株式会社,,株式会社,宮崎県,串間市,大字南方２５３６番地４７,,45,207,8880007,,,2022-07-07,合併による解散等,3350001009762,令和４年６月３０日宮崎県串間市大字南方２５３６番地４７株式会社やました農園（3350001009762）に合併し解散,2015-10-05,1,,,,,ヤマシタサンギョウ,0
1761,6370305000999,登記記録の閉鎖等,0,2022-07-12,2022-06-30,三陸沿岸家電事業協同組合,,その他の設立登記法人,宮城県,石巻市,鋳銭場８番４号,,04,202,9860826,,,2022-06-30,清算の結了等,,,2015-10-05,1,,,,,,0
1784,6450005002222,登記記録の閉鎖等,0,2022-07-12,2022-07-11,神習教東和支教会,,その他の設立登記法人,北海道,空知郡南富良野町,字北落合２８３７番地,,01,462,0792552,,,2022-07-11,清算の結了等,,,2015-10-05,1,,,,,,0
1792,6500002000693,登記記録の閉鎖等,0,2022-07-12,2022-07-11,有限会社浅海鉄工所,,有限会社,愛媛県,松山市,北吉田町１３６８番地,,38,201,7918041,,,2022-07-11,清算の結了等,,,2015-10-05,1,,,,,アサウミテッコウショ,0
1797,7010001071818,登記記録の閉鎖等,0,2022-07-12,2022-07-01,実用企画設計株式会社,,株式会社,東京都,文京区,白山１丁目２０番４号,,13,105,1130001,,,2022-07-01,合併による解散等,7010001003597,令和４年７月１日東京都文京区白山一丁目２０番４号株式会社実用ハウス（7010001003597）に合併し解散,2015-10-05,1,,,,,ジツヨウキカクセッケイ,0
1854,7011702012242,登記記録の閉鎖等,0,2022-07-12,2022-07-06,横尾電気有限会社,,有限会社,東京都,江戸川区,本一色３丁目２７番３１号,,13,123,1330044,,,2022-07-06,清算の結了等,,,2015-10-05,1,,,,,ヨコオデンキ,0
1857,7011801011426,登記記録の閉鎖等,0,2022-07-12,2022-07-07,株式会社ヒラノテーブルウェア,,株式会社,東京都,足立区,梅田７丁目３２番６号,,13,121,1230851,,,2022-07-07,清算の結了等,,,2015-10-05,1,,,,,ヒラノテーブルウェア,0
1885,7020003021241,登記記録の閉鎖等,0,2022-07-12,2022-06-27,合同会社グリーンハピネス,,合同会社,神奈川県,横浜市港南区,日野南４丁目２９番３－７号,,14,111,2340055,,,2022-06-27,清算の結了等,,,2022-02-03,1,,,,,グリーンハピネス,0
1890,7021003002875,登記記録の閉鎖等,0,2022-07-12,2022-07-04,合資会社田辺製作所,,合資会社,神奈川県,横須賀市,長浦町４丁目７５番地,,14,201,2370072,,,2022-07-04,清算の結了等,,,2015-10-05,1,,,,,タナベセイサクジョ,0
1903,7030003001457,登記記録の閉鎖等,0,2022-07-12,2022-06-24,アイ・エヌ・エス・コンサルティング合同会社,,合同会社,埼玉県,所沢市,大字上山口５０１４番地の３,,11,208,3591153,,,2022-06-24,清算の結了等,,,2015-10-05,1,,,,,アイエヌエスコンサルティング,0
1985,7140005003903,登記記録の閉鎖等,0,2022-07-12,2022-07-04,特定非営利活動法人リユース兵庫,,その他の設立登記法人,兵庫県,神戸市垂水区,多聞台４丁目１２番１０－５１０号,,28,108,6550007,,,2022-07-04,清算の結了等,,,2015-10-05,1,,,,,リユースヒョウゴ,0
1986,7140005021319,登記記録の閉鎖等,0,2022-07-12,2022-07-06,一般財団法人民警機構,,その他の設立登記法人,兵庫県,神戸市長田区,海運町２丁目１番２号,,28,106,6530052,,,2022-07-06,清算の結了等,,,2015-10-05,1,,,,,ミンケイキコウ,0
1990,7180001117488,登記記録の閉鎖等,0,2022-07-12,2022-07-07,エス・ホールディングス株式会社,,株式会社,愛知県,弥富市,中山町懸廻１３８番地１,,23,235,4980038,,,2022-07-07,清算の結了等,,,2015-10-05,1,,,,,エスホールディングス,0
2002,7220002008574,登記記録の閉鎖等,0,2022-07-12,2022-07-04,有限会社チハヤトランスポート,,有限会社,石川県,金沢市,打木町西２９０番地２,,17,201,9200377,,,2022-07-04,清算の結了等,,,2015-10-05,1,,,,,チハヤトランスポート,0
2007,7230005003274,登記記録の閉鎖等,0,2022-07-12,2022-07-05,順正寺,,その他の設立登記法人,富山県,中新川郡立山町,野町６９番地,,16,323,9303261,,,2022-07-05,清算の結了等,,,2015-10-05,1,,,,,ジュンショウジ,0
2010,7240001046482,登記記録の閉鎖等,0,2022-07-12,2022-07-06,株式会社国際結婚相談所,,株式会社,広島県,廿日市市,津田３１３４番地１６,,34,213,7380222,,,2022-07-06,清算の結了等,,,2015-10-05,1,,,,,コクサイケッコンソウダンジョ,0
2015,7260001024486,登記記録の閉鎖等,0,2022-07-12,2022-07-04,朝日新聞津山販売株式会社,,株式会社,岡山県,津山市,山下６９番地６１,,33,203,7080022,,,2022-07-04,清算の結了等,,,2015-10-05,1,,,,,アサヒシンブンツヤマハンバイ,0
2028,7290005002675,登記記録の閉鎖等,0,2022-07-12,2022-07-06,農事組合法人祖原生産組合,,その他の設立登記法人,福岡県,福岡市早良区,祖原１０番６号,,40,137,8140005,,,2022-07-06,清算の結了等,,,2015-10-05,1,,,,,ソハラセイサンクミアイ,0
2053,7370002017239,登記記録の閉鎖等,0,2022-07-12,2022-06-29,有限会社ケイツ,,有限会社,宮城県,仙台市若林区,遠見塚２丁目４０番２１号,,04,103,9840823,,,2022-06-29,清算の結了等,,,2015-10-05,1,,,,,ケイツ,0
2061,7400002004332,登記記録の閉鎖等,0,2022-07-12,2022-07-08,有限会社三上建設,,有限会社,岩手県,滝沢市,湯舟沢３２９番地２３７,,03,216,0200617,,,2022-07-08,清算の結了等,,,2015-10-05,1,,,,,ミカミケンセツ,0
2101,8010003021638,登記記録の閉鎖等,0,2022-07-12,2022-07-01,Ａｉ－ｍｏｔｔｏ合同会社,,合同会社,東京都,千代田区,九段南１丁目５番６号りそな九段ビル５Ｆ、ＫＳフロア,,13,101,1020074,,,2022-07-01,清算の結了等,,,2015-10-05,1,,,,,アイモット,0
2112,8010405017614,登記記録の閉鎖等,0,2022-07-12,2022-06-30,一般社団法人１００年健康アドバイザー協会,,その他の設立登記法人,東京都,渋谷区,道玄坂１丁目１０番８号渋谷道玄坂東急ビル６階,,13,113,1500043,,,2022-06-30,清算の結了等,,,2019-04-09,1,,,,,ヒャクネンケンコウアドバイザーキョウカイ,0
2116,8010601012229,登記記録の閉鎖等,0,2022-07-12,2022-07-04,信行印刷株式会社,,株式会社,東京都,墨田区,向島３丁目３２番２号,,13,107,1310033,,,2022-07-04,合併による解散等,4010601033798,令和４年６月３０日東京都墨田区向島三丁目３２番２号信行印刷株式会社（4010601033798）に合併し解散,2015-10-05,1,,,,,シンコウインサツ,0
2118,8010603009033,登記記録の閉鎖等,0,2022-07-12,2022-07-01,合同会社ｆｏｍ’ｓ,,合同会社,東京都,江東区,潮見１丁目２４－１０スターマンション４０３号室,,13,108,1350052,,,2022-07-01,清算の結了等,,,2021-07-12,1,,,,,フォムズ,0
2135,8011102002900,登記記録の閉鎖等,0,2022-07-12,2022-07-05,有限会社オリンピア,,有限会社,東京都,新宿区,山吹町８１番地３,,13,104,1620801,,,2022-07-05,清算の結了等,,,2015-10-05,1,,,,,,0
2154,8011802010236,登記記録の閉鎖等,0,2022-07-12,2022-07-08,有限会社エイト企画,,有限会社,東京都,足立区,六木２丁目６番１４号,,13,121,1210052,,,2022-07-08,清算の結了等,,,2015-10-05,1,,,,,,0
2156,8012802007098,登記記録の閉鎖等,0,2022-07-12,2022-07-01,有限会社東大和ガーデン,,有限会社,東京都,東大和市,立野２丁目２番地の１６,,13,220,2070021,,,2022-07-01,清算の結了等,,,2015-10-05,1,,,,,ヒガシヤマトガーデン,0
2161,8020001020120,登記記録の閉鎖等,0,2022-07-12,2022-07-01,コーア製薬株式会社,,株式会社,神奈川県,横浜市港北区,箕輪町２丁目１７番５号,,14,109,2230051,,,2022-07-01,合併による解散等,7020001040284,令和４年７月１日横浜市港北区日吉七丁目１５番１３号コーアバイオテックベイ株式会社（7020001040284）に合併し解散,2015-10-05,1,,,,,コーアセイヤク,0
2184,8030001055603,登記記録の閉鎖等,0,2022-07-12,2022-06-30,株式会社マネジメントデザインセンター,,株式会社,埼玉県,川越市,脇田本町１４番地３２,,11,201,3501123,,,2022-06-30,清算の結了等,,,2015-10-05,1,,,,,マネジメントデザインセンター,0
2194,8030002109168,登記記録の閉鎖等,0,2022-07-12,2022-06-30,有限会社グレートワン,,有限会社,埼玉県,川口市,北原台１丁目１５番１号,,11,203,3330815,,,2022-06-30,清算の結了等,,,2015-10-05,1,,,,,グレートワン,0
2199,8040001005961,登記記録の閉鎖等,0,2022-07-12,2022-06-30,日本自動車整備株式会社,,株式会社,千葉県,千葉市若葉区,川井町２２４番地の１４,,12,104,2650062,,,2022-06-30,清算の結了等,,,2015-10-05,1,,,,,ニホンジドウシャセイビ,0
2211,8050001023748,登記記録の閉鎖等,0,2022-07-12,2022-07-01,ヒタチハウジング建設株式会社,,株式会社,茨城県,日立市,砂沢町７５４番地１６,,08,202,3191418,,,2022-07-01,清算の結了等,,,2015-10-05,1,,,,,ヒタチハウジングケンセツ,0
2215,8050003002618,登記記録の閉鎖等,0,2022-07-12,2022-07-01,株式会社えふえむひたち,,株式会社,茨城県,日立市,幸町１丁目１９番１号,,08,202,3170073,,,2022-07-01,合併による解散等,4050001023917,令和４年７月１日茨城県日立市幸町一丁目１９番１号株式会社ＪＷＡＹ（4050001023917）に合併し解散,2015-10-05,1,,,,,エフエムヒタチ,0
2271,8122001026203,登記記録の閉鎖等,0,2022-07-12,2022-07-05,株式会社北出商会,,株式会社,大阪府,八尾市,八尾木北５丁目９０番地,,27,212,5810016,,,2022-07-05,清算の結了等,,,2015-10-05,1,,,,,キタデショウカイ,0
2296,8180001105780,登記記録の閉鎖等,0,2022-07-12,2022-07-01,株式会社エー・エム・インターナショナル,,株式会社,愛知県,名古屋市中区,丸の内２丁目９番４０号,,23,106,4600002,,,2022-07-01,合併による解散等,8180001117578,令和４年７月１日名古屋市中区丸の内二丁目９番４０号株式会社ミズノ・ホールディングス（8180001117578）に合併し解散,2015-10-05,1,,,,,エーエムインターナショナル,0
2301,8180001135877,登記記録の閉鎖等,0,2022-07-12,2022-07-07,株式会社Ｉ．Ｔ．Ｇ,,株式会社,愛知県,一宮市,南出町７８－２,,23,203,4910906,,,2022-07-07,清算の結了等,,,2019-03-27,1,,,,,アイティージー,0
2304,8180301032295,登記記録の閉鎖等,0,2022-07-12,2022-06-30,株式会社享屋,,株式会社,愛知県,蒲郡市,八百富町１２番３号,,23,214,4430055,,,2022-06-30,清算の結了等,,,2019-02-22,1,,,,,キョウヤ,0
2310,8200001015952,登記記録の閉鎖等,0,2022-07-12,2022-07-07,岐西建機株式会社,,株式会社,岐阜県,揖斐郡揖斐川町,脛永３５７番地の１,00080939,21,401,5010622,,,2022-07-07,清算の結了等,,,2015-10-05,1,,,,,ギサイケンキ,0
2313,8220001004383,登記記録の閉鎖等,0,2022-07-12,2022-07-05,テーエスケー工業株式会社,,株式会社,石川県,金沢市,駅西本町１丁目５番４５号,,17,201,9200025,,,2022-07-05,清算の結了等,,,2015-10-05,1,,,,,テーエスケーコウギョウ,0
2318,8240001021071,登記記録の閉鎖等,0,2022-07-12,2022-07-05,株式会社Ｔｏｍｓ　ｈｏｕｓｅ,,株式会社,広島県,広島市西区,古江西町２６番５３号,,34,104,7330874,,,2022-07-05,清算の結了等,,,2015-10-05,1,,,,,トムズハウス,0
2329,8260002010162,登記記録の閉鎖等,0,2022-07-12,2022-07-08,有限会社靖賢建築設計亊務所,,有限会社,岡山県,岡山市南区,新保１３１７番地の１,,33,104,7000945,,,2022-07-08,清算の結了等,,,2015-10-05,1,,,,,セイケンケンチクセッケイジムショ,0
2386,8460002003014,登記記録の閉鎖等,0,2022-07-12,2022-07-06,有限会社丸冨鶴冨興産,,有限会社,北海道,釧路市,昭和中央３丁目７番１号,,01,206,0840910,,,2022-07-06,清算の結了等,,,2015-10-05,1,,,,,マルトミツルトミコウサン,0
2388,8460301000018,登記記録の閉鎖等,0,2022-07-12,2022-07-08,株式会社アカシヤ堂薬局,,株式会社,北海道,北見市,北四条西３丁目２番地,,01,208,0900044,,,2022-07-08,清算の結了等,,,2015-10-05,1,,,,,アカシヤドウヤッキョク,0
2392,8480001009316,登記記録の閉鎖等,0,2022-07-12,2022-07-06,日通社株式会社,,株式会社,徳島県,徳島市,伊月町４丁目３０番地アーバンハイム東４０３号,,36,201,7700935,,,2022-07-06,清算の結了等,,,2015-10-05,1,,,,,,0
2394,8480002001008,登記記録の閉鎖等,0,2022-07-12,2022-07-11,有限会社木下商事,,有限会社,徳島県,徳島市,東船場町２丁目４３番地,,36,201,7700911,,,2022-07-11,清算の結了等,,,2015-10-05,1,,,,,キノシタショウジ,0
2422,9010101014261,登記記録の閉鎖等,0,2022-07-12,2022-07-01,株式会社軽井沢シンフォニ,,株式会社,東京都,八王子市,中野町２４８５番地５,,13,201,1920015,,,2022-07-01,清算の結了等,,,2020-07-15,1,,,,,カルイザワシンフォニ,0
2477,9011502014107,登記記録の閉鎖等,0,2022-07-12,2022-07-06,有限会社ＤＥＣＯ,,有限会社,東京都,北区,赤羽１丁目１９番７号葵ビル４０３,,13,117,1150045,,,2022-07-06,清算の結了等,,,2015-10-05,1,,,,,デコ,0
2535,9050002030156,登記記録の閉鎖等,0,2022-07-12,2022-06-29,有限会社いずる庵,,有限会社,茨城県,日立市,川尻町６丁目４９番１７号,,08,202,3191411,,,2022-06-29,清算の結了等,,,2015-10-05,1,,,,,イズルアン,0
2552,9110002007767,登記記録の閉鎖等,0,2022-07-12,2022-07-06,有限会社クラスト,,有限会社,新潟県,新潟市西区,赤塚４２１１番地,,15,107,9502261,,,2022-07-06,清算の結了等,,,2015-10-05,1,,,,,クラスト,0
2553,9120001003329,登記記録の閉鎖等,0,2022-07-12,2022-07-08,小池化粧合板株式会社,,株式会社,大阪府,大阪市西成区,花園南２丁目３番８号プレファシオ天下茶屋エスタシオン８０１号,,27,122,5570015,,,2022-07-08,清算の結了等,,,2015-10-05,1,,,,,コイケケショウゴウハン,0
2566,9120002028358,登記記録の閉鎖等,0,2022-07-12,2022-07-01,有限会社ホキモト商工,,有限会社,大阪府,大阪市淀川区,木川西２丁目２４番１５号,,27,123,5320013,,,2022-07-01,清算の結了等,,,2015-10-05,1,,,,,ホキモトショウコウ,0
2610,9180305006823,登記記録の閉鎖等,0,2022-07-12,2022-06-30,協同組合西尾ショッピングセンター,,その他の設立登記法人,愛知県,西尾市,高畠町３丁目１６６番４,,23,213,4450064,,,2022-06-30,清算の結了等,,,2015-10-05,1,,,,,ニシオショッピングセンター,0
2636,9250002008520,登記記録の閉鎖等,0,2022-07-12,2022-07-01,有限会社オルト商事,,有限会社,山口県,下関市,彦島江の浦町１丁目５番１７号,,35,201,7500075,,,2022-07-01,合併による解散等,9250002010567,令和４年７月１日山口県下関市彦島江の浦町一丁目５番２４号株式会社彦島メディカル（9250002010567）に合併し解散,2015-10-05,1,,,,,オルトショウジ,0
2658,9290802012767,登記記録の閉鎖等,0,2022-07-12,2022-07-04,有限会社田所製茶,,有限会社,福岡県,北九州市八幡東区,山王１丁目１５番１０号,,40,108,8050017,,,2022-07-04,清算の結了等,,,2015-10-05,1,,,,,,0
2682,9360005004992,登記記録の閉鎖等,0,2022-07-12,2022-06-20,特定非営利活動法人歴史観光文化事業実行委員会,,その他の設立登記法人,沖縄県,うるま市,字高江洲８４３番地１,,47,213,9042242,,,2022-06-20,清算の結了等,,,2015-10-05,1,,,,,,0
2708,9470002000471,登記記録の閉鎖等,0,2022-07-12,2022-07-01,有限会社八栗電機商会,,有限会社,香川県,高松市,牟礼町牟礼２４４７番地１,,37,201,7610121,,,2022-07-01,清算の結了等,,,2015-10-05,1,,,,,ヤクリデンキショウカイ,0
2710,9470002014075,登記記録の閉鎖等,0,2022-07-12,2022-07-06,有限会社ベストホームズ,,有限会社,香川県,仲多度郡多度津町,大字奥白方４５１番地,,37,404,7640035,,,2022-07-06,清算の結了等,,,2015-10-05,1,,,,,ベストホームズ,0
