sequenceNumber,corporateNumber,process,correct,updateDate,changeDate,name,nameImageId,kind,prefectureName,cityName,streetNumber,addressImageId,prefectureCode,cityCode,postCode,addressOutside,addressOutsideImageId,closeDate,closeCause,successorCorporateNumber,changeCause,assignmentDate,latest,enName,enPrefectureName,enCityName,enAddressOutside,furigana,hihyoji
18,1010401069236,登記記録の閉鎖等,0,2023-02-09,2023-02-06,セカンドアカデミー株式会社,,株式会社,東京都,港区,海岸１丁目９番１８号,,13,103,1050022,,,2023-02-06,合併による解散等,2010001034952,令和５年２月１日東京都中央区日本橋二丁目３番１０号丸善雄松堂株式会社（2010001034952）に合併し解散,2015-10-05,1,,,,,セカンドアカデミー,0
32,1010802018386,登記記録の閉鎖等,0,2023-02-09,2023-02-01,有限会社ビッグセンター,,有限会社,東京都,大田区,中央８丁目４１番５号,,13,111,1430024,,,2023-02-01,合併による解散等,5010801010019,令和５年２月１日東京都大田区中央八丁目４１番５号株式会社ビッグエッグジャパン（5010801010019）に合併し解散,2015-10-05,1,,,,,ビッグセンター,0
77,1013101001253,登記記録の閉鎖等,0,2023-02-09,2023-02-06,株式会社一鉄工所,,株式会社,東京都,西多摩郡瑞穂町,大字殿ケ谷６３１番地３,,13,303,1901212,,,2023-02-06,清算の結了等,,,2015-10-05,1,,,,,ハジメテッコウジョ,0
133,1080102004980,登記記録の閉鎖等,0,2023-02-09,2023-02-08,有限会社ランドサーチ,,有限会社,静岡県,沼津市,高島町２４番１６号,,22,203,4100056,,,2023-02-08,清算の結了等,,,2015-10-05,1,,,,,ランドサーチ,0
148,1120001207507,登記記録の閉鎖等,0,2023-02-09,2023-02-07,株式会社ＧｒｏｗＩｎｇ　Ｕｐ,,株式会社,東京都,豊島区,南池袋１丁目２７番８号,,13,116,1710022,,,2023-02-07,合併による解散等,7011201017783,令和５年１月３１日東京都荒川区南千住三丁目４番２３号株式会社未来ビジョン（7011201017783）に合併し解散,2017-08-21,1,,,,,グローイングアップ,0
163,1122001023933,登記記録の閉鎖等,0,2023-02-09,2023-02-03,株式会社Ｆ＆Ｆカワラタニ,,株式会社,大阪府,大東市,川中新町２４番１０２号,,27,218,5740031,,,2023-02-03,清算の結了等,,,2015-10-05,1,,,,,エフアンドエフカワラタニ,0
168,1130001009209,登記記録の閉鎖等,0,2023-02-09,2023-02-06,株式会社玉半,,株式会社,京都府,京都市東山区,下河原通八坂鳥居前下る下河原町４７７番地,,26,105,6050825,,,2023-02-06,清算の結了等,,,2015-10-05,1,,,,,タマハン,0
178,1140001067131,登記記録の閉鎖等,0,2023-02-09,2023-02-03,ソラ星出版株式会社,,株式会社,兵庫県,三田市,狭間が丘５丁目４番地２棟１１０５号,,28,219,6691545,,,2023-02-03,清算の結了等,,,2015-10-05,1,,,,,ソラホシシュッパン,0
192,1200001018391,登記記録の閉鎖等,0,2023-02-09,2023-02-07,ＫＭＯ株式会社,,株式会社,岐阜県,加茂郡八百津町,錦織７０６番地１,,21,505,5050302,,,2023-02-07,清算の結了等,,,2015-10-05,1,,,,,ケーエムオー,0
194,1220002007227,登記記録の閉鎖等,0,2023-02-09,2023-02-07,有限会社ポーチュラカ,,有限会社,石川県,金沢市,鈴見台２丁目２０番２６号,,17,201,9201161,,,2023-02-07,清算の結了等,,,2015-10-05,1,,,,,ポーチュラカ,0
209,1290005008439,登記記録の閉鎖等,0,2023-02-09,2023-02-02,天理教上栄穂分教会,,その他の設立登記法人,福岡県,飯塚市,筑穂元吉４５９番地の４,,40,205,8200705,,,2023-02-02,合併による解散等,2290005008438,令和５年２月２日福岡県嘉穂郡桂川町大字寿命１６９番地の３天理教上嘉穂分教会（2290005008438）に合併し解散,2015-10-05,1,,,,,テンリキョウジョウエイホブンキョウカイ,0
213,1290801025281,登記記録の閉鎖等,0,2023-02-09,2023-02-08,株式会社ゴーイング,,株式会社,福岡県,北九州市小倉北区,東篠崎１丁目１１番５号,,40,106,8020072,,,2023-02-08,清算の結了等,,,2019-02-19,1,,,,,ゴーイング,0
215,1290802018994,登記記録の閉鎖等,0,2023-02-09,2023-02-02,有限会社興震工業,,有限会社,福岡県,北九州市若松区,南二島２丁目１７番８号,,40,103,8080109,,,2023-02-02,清算の結了等,,,2015-10-05,1,,,,,コウシンコウギョウ,0
227,1350001008329,登記記録の閉鎖等,0,2023-02-09,2023-02-06,株式会社ミヤザキストック,,株式会社,宮崎県,都城市,上長飯町８４号６番地,,45,202,8850042,,,2023-02-06,清算の結了等,,,2015-10-05,1,,,,,ミヤザキストック,0
243,1430001046741,登記記録の閉鎖等,0,2023-02-09,2023-02-06,株式会社和商水島薬局,,株式会社,北海道,岩見沢市,六条西１丁目７番地３,,01,210,0680026,,,2023-02-06,清算の結了等,,,2015-10-05,1,,,,,ワショウミズシマヤッキョク,0
252,1470002003408,登記記録の閉鎖等,0,2023-02-09,2023-02-07,有限会社四国マリタイム,,有限会社,香川県,高松市,屋島西町２１０５番地２４,,37,201,7610113,,,2023-02-07,清算の結了等,,,2015-10-05,1,,,,,シコクマリタイム,0
278,2010001226384,登記記録の閉鎖等,0,2023-02-09,2023-02-02,株式会社レーサム・ホールディングス,,株式会社,東京都,千代田区,霞が関３丁目２番１号,,13,101,1000013,,,2023-02-02,合併による解散等,5120001221066,令和５年２月１日東京都千代田区霞が関三丁目２番１号日本投資株式会社（5120001221066）に合併し解散,2022-05-11,1,,,,,レーサムホールディングス,0
309,2011001025834,登記記録の閉鎖等,0,2023-02-09,2023-02-07,株式会社ともゑ,,株式会社,東京都,渋谷区,円山町７番１０号,,13,113,1500044,,,2023-02-07,清算の結了等,,,2015-10-05,1,,,,,トモエ,0
335,2011801036618,登記記録の閉鎖等,0,2023-02-09,2023-02-02,株式会社ＹＫ,,株式会社,東京都,葛飾区,西亀有３丁目２１番１３号,,13,122,1250002,,,2023-02-02,合併による解散等,7011801001575,令和５年２月１日東京都葛飾区西亀有三丁目２１番１３号株式会社ビッグワン・コバヤシ（7011801001575）に合併し解散,2019-09-12,1,,,,,ワイケー,0
359,2020002003906,登記記録の閉鎖等,0,2023-02-09,2023-02-07,有限会社春日製作所,,有限会社,神奈川県,横浜市都筑区,加賀原２丁目７番５号,,14,118,2240055,,,2023-02-07,清算の結了等,,,2015-10-05,1,,,,,カスガセイサクショ,0
363,2020002078452,登記記録の閉鎖等,0,2023-02-09,2023-02-06,有限会社シナジー,,有限会社,神奈川県,横浜市青葉区,すすき野１丁目６番地７０,,14,117,2250021,,,2023-02-06,清算の結了等,,,2015-10-05,1,,,,,シナジー,0
382,2040003004430,登記記録の閉鎖等,0,2023-02-09,2023-02-03,合資会社文化堂,,合資会社,千葉県,館山市,長須賀１７３番地,,12,205,2940037,,,2023-02-03,清算の結了等,,,2015-10-05,1,,,,,ブンカドウ,0
386,2050001050327,登記記録の閉鎖等,0,2023-02-09,2023-02-06,株式会社ＳＡＣＨＩ,,株式会社,茨城県,那珂市,菅谷５４５５番地１サンハイム那珂２０３号室,,08,226,3110105,,,2023-02-06,清算の結了等,,,2021-12-22,1,,,,,サチ,0
388,2080001010402,登記記録の閉鎖等,0,2023-02-09,2023-02-07,株式会社アド・クルー,,株式会社,静岡県,静岡市葵区,紺屋町１１番地の６の１０,,22,101,4200852,,,2023-02-07,清算の結了等,,,2015-10-05,1,,,,,アドクルー,0
399,2110005007317,登記記録の閉鎖等,0,2023-02-09,2023-02-01,柏崎農業協同組合,,その他の設立登記法人,新潟県,柏崎市,駅前１丁目３番２２号,,15,205,9450055,,,2023-02-01,合併による解散等,5110005016892,令和５年２月１日新潟県長岡市今朝白二丁目７番２５号越後ながおか農業協同組合（6110005012016）、新潟県長岡市大野２４９番地越後さんとう農業協同組合（7110005012015）、新潟県三条市下保内３４８番地１にいがた南蒲農業協同組合（5110005005904）と合併して新潟県長岡市今朝白二丁目７番２５号えちご中越農業協同組合（5110005016892）を設立し解散,2015-10-05,1,,,,,カシワザキ,0
426,2140002035383,登記記録の閉鎖等,0,2023-02-09,2023-02-03,有限会社オーサワ,,有限会社,兵庫県,加古川市,平岡町新在家８９５番地の１コスモハイツ東加古川４０１号,,28,210,6750101,,,2023-02-03,清算の結了等,,,2015-10-05,1,,,,,オーサワ,0
431,2190001008658,登記記録の閉鎖等,0,2023-02-09,2023-02-03,堀池開発株式会社,,株式会社,三重県,伊賀市,比土３２０５番地,,24,216,5180115,,,2023-02-03,清算の結了等,,,2015-10-05,1,,,,,ホリイケカイハツ,0
450,2290005000394,登記記録の閉鎖等,0,2023-02-09,2023-02-02,天理教神最分教会,,その他の設立登記法人,福岡県,福岡市中央区,輝国２丁目１番５６号,,40,133,8100032,,,2023-02-02,合併による解散等,3290005000419,令和５年２月２日福岡市中央区輝国二丁目１番４８号天理教博多分教会（3290005000419）に合併し解散,2015-10-05,1,,,,,テンリキョウシンサイブンキョウカイ,0
500,3010001093576,登記記録の閉鎖等,0,2023-02-09,2023-02-03,株式会社アイ・エス・ティ東京,,株式会社,東京都,中央区,築地３丁目８番１－１２０３号,,13,102,1040045,,,2023-02-03,清算の結了等,,,2015-10-05,1,,,,,アイエスティトウキョウ,0
503,3010001193319,登記記録の閉鎖等,0,2023-02-09,2023-02-02,株式会社ＹＡＭＡＭＯＴＯ企画,,株式会社,東京都,中央区,勝どき１丁目８番１号,,13,102,1040054,,,2023-02-02,清算の結了等,,,2018-07-18,1,,,,,ヤマモトキカク,0
505,3010001197435,登記記録の閉鎖等,0,2023-02-09,2023-02-02,株式会社ＳＷＡＧＤＯＧＳ,,株式会社,東京都,中央区,銀座１丁目２２番１１号銀座大竹ビジデンス,,13,102,1040061,,,2023-02-02,清算の結了等,,,2018-12-27,1,,,,,スワッグドッグス,0
524,3010802009482,登記記録の閉鎖等,0,2023-02-09,2023-02-01,有限会社円谷酒販,,有限会社,東京都,大田区,西糀谷４丁目４番４号,,13,111,1440034,,,2023-02-01,清算の結了等,,,2015-10-05,1,,,,,ツブラヤシュハン,0
530,3011001142744,登記記録の閉鎖等,0,2023-02-09,2023-01-31,ＦＩＶＥＳＴＡＲ　ＢＡＮＫ株式会社,,株式会社,東京都,目黒区,上目黒２丁目１番１号,,13,110,1530051,,,2023-01-31,清算の結了等,,,2021-09-10,1,,,,,ファイブスターバンク,0
551,3011602005481,登記記録の閉鎖等,0,2023-02-09,2023-02-06,有限会社スタジオジャイアンツ,,有限会社,東京都,練馬区,羽沢２丁目９番８号,,13,120,1760003,,,2023-02-06,清算の結了等,,,2015-10-05,1,,,,,スタジオジャイアンツ,0
588,3030002016889,登記記録の閉鎖等,0,2023-02-09,2023-02-07,有限会社塚越土建,,有限会社,埼玉県,さいたま市桜区,大字大久保領家１６４番地３,,11,106,3380826,,,2023-02-07,清算の結了等,,,2015-10-05,1,,,,,ツカゴシドケン,0
595,3040002033462,登記記録の閉鎖等,0,2023-02-09,2023-02-06,有限会社川名事務所,,有限会社,千葉県,船橋市,本中山４丁目１番２号,,12,204,2730035,,,2023-02-06,清算の結了等,,,2015-10-05,1,,,,,カワナジムショ,0
606,3080001011135,登記記録の閉鎖等,0,2023-02-09,2023-02-08,株式会社アイラブ,,株式会社,静岡県,静岡市葵区,川辺町１丁目１番４号６０１号,,22,101,4200043,,,2023-02-08,清算の結了等,,,2015-10-05,1,,,,,アイラブ,0
615,3110001011874,登記記録の閉鎖等,0,2023-02-09,2023-02-07,株式会社羽下,,株式会社,新潟県,五泉市,村松甲２３１０番地,,15,218,9591704,,,2023-02-07,清算の結了等,,,2015-10-05,1,,,,,ハガ,0
619,3120001139839,登記記録の閉鎖等,0,2023-02-09,2023-02-08,株式会社モバイルフラッシュ,,株式会社,大阪府,大阪市中央区,谷町３丁目６番４号大拓ビル２０,,27,128,5400012,,,2023-02-08,清算の結了等,,,2015-10-05,1,,,,,モバイルフラッシュ,0
643,3122001035638,登記記録の閉鎖等,0,2023-02-09,2023-02-07,ヒロギテック株式会社,,株式会社,大阪府,東大阪市,若江本町１丁目１番５１号,,27,227,5780942,,,2023-02-07,清算の結了等,,,2022-03-10,1,,,,,ヒロギテック,0
653,3140001011483,登記記録の閉鎖等,0,2023-02-09,2023-02-07,株式会社ヤマモト,,株式会社,兵庫県,神戸市中央区,京町７１番地,,28,110,6500034,,,2023-02-07,清算の結了等,,,2015-10-05,1,,,,,ヤマモト,0
674,3170001013485,登記記録の閉鎖等,0,2023-02-09,2023-02-08,株式会社場谷興業,,株式会社,和歌山県,和歌山市,西庄１５０番地の１７,,30,201,6400112,,,2023-02-08,清算の結了等,,,2015-10-05,1,,,,,,0
687,3200003005163,登記記録の閉鎖等,0,2023-02-09,2023-02-08,大橋給食合同会社,,合同会社,岐阜県,大垣市,外渕４丁目４１番地,,21,202,5030934,,,2023-02-08,清算の結了等,,,2021-04-08,1,,,,,オオハシキュウショク,0
689,3210001001031,登記記録の閉鎖等,0,2023-02-09,2023-02-07,株式会社共同物産,,株式会社,福井県,福井市,八重巻中町２８の２の３番地,,18,201,9100158,,,2023-02-07,清算の結了等,,,2015-10-05,1,,,,,キョウドウブッサン,0
703,3290001005520,登記記録の閉鎖等,0,2023-02-09,2023-02-06,株式会社西日本ビルケアセンター,,株式会社,福岡県,福岡市早良区,祖原１０番１６号,,40,137,8140005,,,2023-02-06,清算の結了等,,,2015-10-05,1,,,,,ニシニホンビルケアセンター,0
709,3290005000402,登記記録の閉鎖等,0,2023-02-09,2023-02-02,天理教筑紫原分教会,,その他の設立登記法人,福岡県,福岡市南区,塩原３丁目５番３１号,,40,134,8150032,,,2023-02-02,合併による解散等,3290005000419,令和５年２月２日福岡市中央区輝国二丁目１番４８号天理教博多分教会（3290005000419）に合併し解散,2015-10-05,1,,,,,テンリキョウチクシハラブンキョウカイ,0
733,3370402001564,登記記録の閉鎖等,0,2023-02-09,2023-02-07,有限会社及川建材,,有限会社,宮城県,登米市,迫町森字平柳７７番地,,04,212,9870512,,,2023-02-07,清算の結了等,,,2015-10-05,1,,,,,オイカワケンザイ,0
754,3450001009513,登記記録の閉鎖等,0,2023-02-09,2023-02-03,株式会社丸三岩倉商店,,株式会社,北海道,紋別市,港町３丁目１番３号,,01,219,0940011,,,2023-02-03,清算の結了等,,,2015-10-05,1,,,,,マルサンイワクラショウテン,0
767,4010001006578,登記記録の閉鎖等,0,2023-02-09,2023-02-03,ビーライン株式会社,,株式会社,東京都,文京区,小石川２丁目１８番２号,,13,105,1120002,,,2023-02-03,清算の結了等,,,2015-10-05,1,,,,,ビーライン,0
774,4010001182808,登記記録の閉鎖等,0,2023-02-09,2023-02-03,トライオリティジャパン株式会社,,株式会社,東京都,中央区,銀座１丁目２４番１号,,13,102,1040061,,,2023-02-03,清算の結了等,,,2017-04-18,1,,,,,トライオリティジャパン,0
779,4010002003277,登記記録の閉鎖等,0,2023-02-09,2023-02-03,有限会社スティック・ジャポン,,有限会社,東京都,文京区,湯島３丁目１８番１０－２１４号,,13,105,1130034,,,2023-02-03,清算の結了等,,,2015-10-05,1,,,,,スティックジャポン,0
785,4010401126901,登記記録の閉鎖等,0,2023-02-09,2023-01-26,株式会社ｉｍａｃｏｃｏ,,株式会社,東京都,港区,南青山２丁目２番１５号ウィン青山９４２,,13,103,1070062,,,2023-01-26,清算の結了等,,,2016-09-07,1,,,,,イマココ,0
805,4010901019761,登記記録の閉鎖等,0,2023-02-09,2023-02-06,株式会社ＯＫＩ国際コンサルティング,,株式会社,東京都,世田谷区,経堂４丁目３５番３号,,13,112,1560052,,,2023-02-06,清算の結了等,,,2015-10-05,1,,,,,オーケーアイコクサイコンサルティング,0
812,4011001122258,登記記録の閉鎖等,0,2023-02-09,2023-02-03,株式会社メタマテ,,株式会社,東京都,中央区,日本橋２丁目１番１７号丹生ビル２階,,13,102,1030027,,,2023-02-03,清算の結了等,,,2018-05-22,1,,,,,メタマテ,0
826,4011501007859,登記記録の閉鎖等,0,2023-02-09,2023-02-01,トーヨー総合建材株式会社,,株式会社,東京都,荒川区,東日暮里５丁目１０番６号,,13,118,1160014,,,2023-02-01,清算の結了等,,,2015-10-05,1,,,,,トーヨーソウゴウケンザイ,0
841,4012802006987,登記記録の閉鎖等,0,2023-02-09,2023-02-06,有限会社クラフト,,有限会社,東京都,東大和市,仲原１丁目７番地の４２,,13,220,2070016,,,2023-02-06,清算の結了等,,,2015-10-05,1,,,,,クラフト,0
847,4020001125988,登記記録の閉鎖等,0,2023-02-09,2023-02-06,株式会社ＭＩＲＡＩＲＥ　ＡＤ,,株式会社,神奈川県,横浜市西区,みなとみらい２丁目３－１クイーンズタワーＡ,,14,103,2200012,,,2023-02-06,清算の結了等,,,2018-04-19,1,,,,,ミライーレアド,0
850,4020002044337,登記記録の閉鎖等,0,2023-02-09,2023-02-06,パン・エシアン有限会社,,有限会社,神奈川県,横浜市中区,山下町９３番地２,,14,104,2310023,,,2023-02-06,清算の結了等,,,2015-10-05,1,,,,,パンエシアン,0
853,4020003018439,登記記録の閉鎖等,0,2023-02-09,2023-02-07,合同会社くには,,合同会社,神奈川県,横浜市中区,桜木町１丁目１０１番地１クロスゲート７階,,14,104,2310062,,,2023-02-07,清算の結了等,,,2020-09-02,1,,,,,クニハ,0
861,4030001060904,登記記録の閉鎖等,0,2023-02-09,2023-02-06,株式会社ホテルシステムズ,,株式会社,埼玉県,本庄市,若泉３丁目２番７号,,11,211,3670055,,,2023-02-06,清算の結了等,,,2015-10-05,1,,,,,ホテルシステムズ,0
869,4030005017363,登記記録の閉鎖等,0,2023-02-09,2023-02-06,一般社団法人Ｐａｒａｇｒｏｗｔｈ,,その他の設立登記法人,埼玉県,さいたま市岩槻区,大字小溝９２１番地１８９,,11,110,3390003,,,2023-02-06,清算の結了等,,,2015-10-05,1,,,,,パラグロウス,0
873,4040002034435,登記記録の閉鎖等,0,2023-02-09,2023-02-03,有限会社伸誠建装,,有限会社,千葉県,市川市,田尻４丁目１４番１９号,,12,203,2720014,,,2023-02-03,清算の結了等,,,2015-10-05,1,,,,,シンセイケンソウ,0
883,4080402003770,登記記録の閉鎖等,0,2023-02-09,2023-02-08,有限会社ショウカン工務店,,有限会社,静岡県,浜松市西区,深萩町２１１番地の４,,22,133,4311201,,,2023-02-08,清算の結了等,,,2015-10-05,1,,,,,ショウカンコウムテン,0
886,4100001004738,登記記録の閉鎖等,0,2023-02-09,2023-02-03,株式会社フェール,,株式会社,長野県,長野市,川中島町上氷鉋１６８５番地１３,,20,201,3812233,,,2023-02-03,清算の結了等,,,2015-10-05,1,,,,,フェール,0
898,4120001180321,登記記録の閉鎖等,0,2023-02-09,2023-02-08,株式会社しげよし,,株式会社,大阪府,大阪市中央区,内本町２丁目３番８号,,27,128,5400026,,,2023-02-08,清算の結了等,,,2015-10-05,1,,,,,シゲヨシ,0
900,4120001234903,登記記録の閉鎖等,0,2023-02-09,2023-02-07,株式会社Ｔ．Ｏ．Ｍプランニング,,株式会社,大阪府,大阪市中央区,瓦屋町１丁目１２番１０－４０２号,,27,128,5420066,,,2023-02-07,清算の結了等,,,2021-02-01,1,,,,,ティーオーエムプランニング,0
905,4120101028461,登記記録の閉鎖等,0,2023-02-09,2023-01-30,心富商事株式会社,,株式会社,大阪府,松原市,東新町３丁目５番１７－２１３号,,27,217,5800024,,,2023-01-30,清算の結了等,,,2015-10-05,1,,,,,シントミショウジ,0
907,4120901020659,登記記録の閉鎖等,0,2023-02-09,2023-02-02,株式会社滝井土木,,株式会社,大阪府,箕面市,粟生間谷西３丁目２４番８号,,27,220,5620023,,,2023-02-02,清算の結了等,,,2015-10-05,1,,,,,タキイドボク,0
916,4140001094668,登記記録の閉鎖等,0,2023-02-09,2023-02-06,株式会社福ふく,,株式会社,兵庫県,神崎郡福崎町,福田１８３番地,,28,443,6792212,,,2023-02-06,清算の結了等,,,2015-10-05,1,,,,,,0
920,4140003015878,登記記録の閉鎖等,0,2023-02-09,2023-02-06,エミフル合同会社,,合同会社,兵庫県,尼崎市,道意町３丁目８番,,28,202,6600083,,,2023-02-06,清算の結了等,,,2021-01-29,1,,,,,エミフル,0
923,4170001013212,登記記録の閉鎖等,0,2023-02-09,2023-02-08,和永建設工業株式会社,,株式会社,和歌山県,和歌山市,岩橋１８９番地２,,30,201,6408301,,,2023-02-08,清算の結了等,,,2015-10-05,1,,,,,,0
925,4180001060443,登記記録の閉鎖等,0,2023-02-09,2023-02-07,株式会社三晋,,株式会社,愛知県,名古屋市守山区,小幡千代田１３番２号アトレ小幡千代田１１０２号,,23,113,4630053,,,2023-02-07,清算の結了等,,,2015-10-05,1,,,,,サンシン,0
927,4180001098376,登記記録の閉鎖等,0,2023-02-09,2023-02-03,株式会社アスカ,,株式会社,愛知県,あま市,木田沼中切８番地の１,,23,237,4901222,,,2023-02-03,合併による解散等,6180001098060,令和５年２月３日愛知県海部郡大治町大字砂子字山ノ前７６３番地の１アスカ設備株式会社（6180001098060）に合併し解散,2015-10-05,1,,,,,アスカ,0
940,4220001022868,登記記録の閉鎖等,0,2023-02-09,2023-02-07,ＮＡＧデジタルクリエイト株式会社,,株式会社,石川県,金沢市,松島２丁目１９１番地ＣＯＭビル２Ｆ,,17,201,9200364,,,2023-02-07,清算の結了等,,,2019-05-17,1,,,,,エヌエージーデジタルクリエイト,0
949,4280002003283,登記記録の閉鎖等,0,2023-02-09,2023-02-07,有限会社ユーズファクトリー,,有限会社,島根県,松江市,上乃木８丁目２番４０号,,32,201,6900015,,,2023-02-07,清算の結了等,,,2015-10-05,1,,,,,ユーズファクトリー,0
958,4300002006184,登記記録の閉鎖等,0,2023-02-09,2023-02-06,有限会社川尻電化,,有限会社,佐賀県,嬉野市,嬉野町大字下宿乙１０９９番地,,41,209,8430301,,,2023-02-06,清算の結了等,,,2015-10-05,1,,,,,カワジリデンカ,0
979,4402702000290,登記記録の閉鎖等,0,2023-02-09,2023-02-07,有限会社中央鈑金,,有限会社,岩手県,大船渡市,盛町字御山下５番地１,,03,203,0220003,,,2023-02-07,清算の結了等,,,2015-10-05,1,,,,,チュウオウバンキン,0
1003,5010001059823,登記記録の閉鎖等,0,2023-02-09,2023-02-06,株式会社ユニシップ,,株式会社,東京都,中央区,日本橋蛎殻町１丁目３番５号,,13,102,1030014,,,2023-02-06,清算の結了等,,,2015-10-05,1,,,,,ユニシップ,0
1023,5010401099130,登記記録の閉鎖等,0,2023-02-09,2023-01-17,株式会社ＳＪＫ,,株式会社,東京都,港区,南麻布３丁目２０－１,,13,103,1060047,,,2023-01-17,清算の結了等,,,2015-10-05,1,,,,,エスジェイケイ,0
1043,5010701000391,登記記録の閉鎖等,0,2023-02-09,2023-02-08,曙マンション株式会社,,株式会社,東京都,品川区,北品川３丁目７番８号,,13,109,1400001,,,2023-02-08,清算の結了等,,,2015-10-05,1,,,,,アケボノマンション,0
1062,5011105006892,登記記録の閉鎖等,0,2023-02-09,2023-02-03,一般社団法人日本プラウドケア学会,,その他の設立登記法人,長野県,下高井郡山ノ内町,大字佐野字角間２１９７番地１,,20,561,3810402,,,2023-02-03,清算の結了等,,,2015-10-05,1,,,,,ニホンブラウドケアガッカイ,0
1065,5011301006614,登記記録の閉鎖等,0,2023-02-09,2023-02-03,マグネティクフィールド株式会社,,株式会社,東京都,杉並区,高円寺北１丁目１８番７号,,13,115,1660002,,,2023-02-03,清算の結了等,,,2015-10-05,1,,,,,マグネティクフィールド,0
1068,5011301024145,登記記録の閉鎖等,0,2023-02-09,2023-02-01,株式会社アイアン,,株式会社,東京都,杉並区,西荻北２丁目６番１２－１０７号,,13,115,1670042,,,2023-02-01,清算の結了等,,,2018-05-22,1,,,,,アイアン,0
1073,5011502011578,登記記録の閉鎖等,0,2023-02-09,2023-02-01,有限会社柳商店,,有限会社,東京都,荒川区,西尾久４丁目９番２号,,13,118,1160011,,,2023-02-01,清算の結了等,,,2015-10-05,1,,,,,ヤナギショウテン,0
1074,5011602006676,登記記録の閉鎖等,0,2023-02-09,2023-02-02,有限会社千代田駐車場,,有限会社,東京都,練馬区,東大泉４丁目１番７号,,13,120,1780063,,,2023-02-02,合併による解散等,3011602006678,令和４年１２月３１日東京都練馬区東大泉四丁目１番７号株式会社千代田屋（3011602006678）に合併し解散,2015-10-05,1,,,,,チヨダチュウシャジョウ,0
1129,5050001037016,登記記録の閉鎖等,0,2023-02-09,2023-02-06,松本建築株式会社,,株式会社,茨城県,牛久市,中央５丁目１０番１０－２０１,,08,219,3001234,,,2023-02-06,清算の結了等,,,2015-10-05,1,,,,,マツモトケンチク,0
1132,5050002020821,登記記録の閉鎖等,0,2023-02-09,2023-02-06,有限会社石田酒店,,有限会社,茨城県,つくば市,上大島５９８番地の３,,08,220,3004351,,,2023-02-06,清算の結了等,,,2015-10-05,1,,,,,イシダサケテン,0
1133,5050005001587,登記記録の閉鎖等,0,2023-02-09,2023-02-03,特定非営利活動法人子育て応援・ペンギンくらぶ,,その他の設立登記法人,茨城県,水戸市,千波町２５４５番地,,08,201,3100851,,,2023-02-03,清算の結了等,,,2015-10-05,1,,,,,コソダテオウエンペンギンクラブ,0
1136,5060002019235,登記記録の閉鎖等,0,2023-02-09,2023-02-07,有限会社ケアプランローズ,,有限会社,栃木県,芳賀郡益子町,大字塙２７９８番地３５,,09,342,3214216,,,2023-02-07,清算の結了等,,,2015-10-05,1,,,,,ケアプランローズ,0
1149,5110005005904,登記記録の閉鎖等,0,2023-02-09,2023-02-01,にいがた南蒲農業協同組合,,その他の設立登記法人,新潟県,三条市,下保内３４８番地１,,15,204,9550021,,,2023-02-01,合併による解散等,5110005016892,令和５年２月１日新潟県長岡市今朝白二丁目７番２５号越後ながおか農業協同組合（6110005012016）、新潟県長岡市大野２４９番地越後さんとう農業協同組合（7110005012015）、新潟県柏崎市駅前一丁目３番２２号柏崎農業協同組合（2110005007317）と合併して新潟県長岡市今朝白二丁目７番２５号えちご中越農業協同組合（5110005016892）を設立し解散,2015-10-05,1,,,,,ニイガタナンカン,0
1159,5120005007065,登記記録の閉鎖等,0,2023-02-09,2023-02-08,西日本マルヰ協同組合,,その他の設立登記法人,大阪府,大阪市中央区,本町３丁目６番４号,,27,128,5410053,,,2023-02-08,清算の結了等,,,2015-10-05,1,,,,,ニシニホンマルイ,0
1170,5140002020242,登記記録の閉鎖等,0,2023-02-09,2023-02-06,有限会社ケーズシステム,,有限会社,兵庫県,神戸市須磨区,清水台１番地の８－４２９,,28,107,6540123,,,2023-02-06,清算の結了等,,,2015-10-05,1,,,,,ケーズシステム,0
1171,5140002051411,登記記録の閉鎖等,0,2023-02-09,2023-02-06,有限会社ヤマダベテリナリィクリニック,,有限会社,兵庫県,姫路市,網干区大江島古川町６４番地,,28,201,6711233,,,2023-02-06,清算の結了等,,,2015-10-05,1,,,,,ヤマダベテリナリィクリニック,0
1196,5200002010781,登記記録の閉鎖等,0,2023-02-09,2023-02-08,有限会社伸和,,有限会社,岐阜県,羽島市,正木町須賀小松２０３番地,,21,209,5016217,,,2023-02-08,清算の結了等,,,2015-10-05,1,,,,,シンワ,0
1207,5250003000034,登記記録の閉鎖等,0,2023-02-09,2023-02-03,山口製氷冷蔵合名会社,,合名会社,山口県,山口市,中央２丁目３番２号,,35,203,7530074,,,2023-02-03,清算の結了等,,,2015-10-05,1,,,,,ヤマグチセイヒョウレイゾウ,0
1217,5290005017188,登記記録の閉鎖等,0,2023-02-09,2023-02-02,一般社団法人日本国際医療支援協会,,その他の設立登記法人,福岡県,福岡市中央区,渡辺通１丁目８番１７－２０４号,,40,133,8100004,,,2023-02-02,清算の結了等,,,2019-02-18,1,,,,,ニホンコクサイイリョウシエンキョウカイ,0
1227,5390001010269,登記記録の閉鎖等,0,2023-02-09,2023-02-01,株式会社米沢共同ガス,,株式会社,山形県,米沢市,窪田町窪田１３４０番地,,06,202,9920003,,,2023-02-01,清算の結了等,,,2015-10-05,1,,,,,ヨネザワキョウドウガス,0
1243,5480002001828,登記記録の閉鎖等,0,2023-02-09,2023-02-08,有限会社小山材木店,,有限会社,徳島県,徳島市,津田海岸町７番４４号,,36,201,7708001,,,2023-02-08,清算の結了等,,,2015-10-05,1,,,,,コヤマザイモクテン,0
1281,6010501032519,登記記録の閉鎖等,0,2023-02-09,2023-02-08,アレックスコア株式会社,,株式会社,東京都,台東区,柳橋１丁目２番１０号,,13,106,1110052,,,2023-02-08,清算の結了等,,,2015-10-05,1,,,,,アレックスコア,0
1285,6010502010812,登記記録の閉鎖等,0,2023-02-09,2023-02-07,有限会社巻嶋製作所,,有限会社,東京都,台東区,台東４丁目１５番３号,,13,106,1100016,,,2023-02-07,清算の結了等,,,2015-10-05,1,,,,,マキシマセイサクショ,0
1290,6010602031997,登記記録の閉鎖等,0,2023-02-09,2023-02-02,有限会社栄和,,有限会社,東京都,墨田区,文花２丁目６番２号,,13,107,1310044,,,2023-02-02,清算の結了等,,,2015-10-05,1,,,,,エイワ,0
1298,6010902010767,登記記録の閉鎖等,0,2023-02-09,2023-02-06,有限会社ドン・タック,,有限会社,東京都,世田谷区,北烏山１丁目７番２４号,,13,112,1570061,,,2023-02-06,清算の結了等,,,2015-10-05,1,,,,,ドンタック,0
1304,6011202007363,登記記録の閉鎖等,0,2023-02-09,2023-02-07,有限会社ツーエムホーム,,有限会社,東京都,中野区,大和町４丁目２６番５号,,13,114,1650034,,,2023-02-07,清算の結了等,,,2015-10-05,1,,,,,ツーエムホーム,0
1324,6020001011807,登記記録の閉鎖等,0,2023-02-09,2023-02-02,トーア工業株式会社,,株式会社,神奈川県,横浜市青葉区,しらとり台１番地６,,14,117,2270054,,,2023-02-02,清算の結了等,,,2022-08-31,1,,,,,トーアコウギョウ,0
1330,6020001136298,登記記録の閉鎖等,0,2023-02-09,2023-02-06,サンテクノ株式会社,,株式会社,神奈川県,川崎市川崎区,渡田１丁目９番９号フジハイツ１０２号,,14,131,2100837,,,2023-02-06,清算の結了等,,,2020-06-03,1,,,,,サンテクノ,0
1343,6021001051611,登記記録の閉鎖等,0,2023-02-09,2023-01-30,株式会社朋岩堂,,株式会社,神奈川県,相模原市中央区,下九沢７４５番地２県公社団地３－１８１１,,14,152,2520254,,,2023-01-30,清算の結了等,,,2015-10-05,1,,,,,,0
1353,6040001077747,登記記録の閉鎖等,0,2023-02-09,2023-02-02,株式会社千里,,株式会社,千葉県,印旛郡酒々井町,下岩橋２１３番地１,,12,322,2850907,,,2023-02-02,清算の結了等,,,2015-10-05,1,,,,,センリ,0
1359,6050002015333,登記記録の閉鎖等,0,2023-02-09,2023-02-06,有限会社常南ドライブセンター,,有限会社,茨城県,石岡市,国府７丁目８番５号,,08,205,3150014,,,2023-02-06,清算の結了等,,,2015-10-05,1,,,,,ジョウナンドライブセンター,0
1369,6080005000511,登記記録の閉鎖等,0,2023-02-09,2023-01-31,天理教本静鹿分教会,,その他の設立登記法人,静岡県,静岡市駿河区,小鹿１丁目３２番５号,,22,102,4228021,,,2023-01-31,合併による解散等,4010605000448,令和５年１月２７日東京都墨田区本所一丁目１３番１７号天理教東本大教会（4010605000448）に合併し解散,2015-10-05,1,,,,,テンリキョウホンシズシカブンキョウカイ,0
1384,6110002016201,登記記録の閉鎖等,0,2023-02-09,2023-02-06,有限会社大直,,有限会社,新潟県,胎内市,築地１７９４番地１,,15,227,9592712,,,2023-02-06,清算の結了等,,,2015-10-05,1,,,,,,0
1386,6110005012016,登記記録の閉鎖等,0,2023-02-09,2023-02-01,越後ながおか農業協同組合,,その他の設立登記法人,新潟県,長岡市,今朝白２丁目７番２５号,,15,202,9400033,,,2023-02-01,合併による解散等,5110005016892,令和５年２月１日新潟県長岡市大野２４９番地越後さんとう農業協同組合（7110005012015）、新潟県三条市下保内３４８番地１にいがた南蒲農業協同組合（5110005005904）、新潟県柏崎市駅前一丁目３番２２号柏崎農業協同組合（2110005007317）と合併して新潟県長岡市今朝白二丁目７番２５号えちご中越農業協同組合（5110005016892）を設立し解散,2015-10-05,1,,,,,エチゴナガオカ,0
1396,6120002030622,登記記録の閉鎖等,0,2023-02-09,2023-02-02,株式会社Ｒｉｇｈｔ　Ｎｏｗ,,株式会社,東京都,千代田区,霞が関３丁目２番１号,,13,101,1000013,,,2023-02-02,合併による解散等,5120001221066,令和５年２月１日東京都千代田区霞が関三丁目２番１号日本投資株式会社（5120001221066）に合併し解散,2015-10-05,1,,,,,ライトナウ,0
1399,6120003021298,登記記録の閉鎖等,0,2023-02-09,2023-02-07,合同会社ＴＫグループ,,合同会社,大阪府,大阪市福島区,吉野２丁目９番１０－９１０号,,27,103,5530006,,,2023-02-07,清算の結了等,,,2022-03-17,1,,,,,ティケイグループ,0
1414,6140002000292,登記記録の閉鎖等,0,2023-02-09,2023-02-07,有限会社きまぐれ族,,有限会社,兵庫県,芦屋市,船戸町３番２５－２０１号,,28,206,6590093,,,2023-02-07,清算の結了等,,,2015-10-05,1,,,,,キマグレゾク,0
1415,6140002016537,登記記録の閉鎖等,0,2023-02-09,2023-02-07,有限会社理住,,有限会社,兵庫県,神戸市中央区,元町通６丁目３番１９号,,28,110,6500022,,,2023-02-07,清算の結了等,,,2015-10-05,1,,,,,リズム,0
1420,6150001010457,登記記録の閉鎖等,0,2023-02-09,2023-02-06,近畿薬品販売株式会社,,株式会社,奈良県,高市郡高取町,大字清水谷１０１９番地,,29,401,6350103,,,2023-02-06,清算の結了等,,,2015-10-05,1,,,,,キンキヤクヒンハンバイ,0
1429,6180001047273,登記記録の閉鎖等,0,2023-02-09,2023-02-06,ジャパン・オーソ・メディカル株式会社,,株式会社,愛知県,名古屋市中区,錦１丁目１７番２６号,,23,106,4600003,,,2023-02-06,清算の結了等,,,2015-10-05,1,,,,,ジャパンオーソメディカル,0
1433,6180002080050,登記記録の閉鎖等,0,2023-02-09,2023-02-07,有限会社早川電機工業所,,有限会社,愛知県,一宮市,公園通５丁目２１番地,,23,203,4910842,,,2023-02-07,清算の結了等,,,2015-10-05,1,,,,,ハヤカワデンキコウギョウショ,0
1465,6290005017807,登記記録の閉鎖等,0,2023-02-09,2023-02-07,一般財団法人邪馬台国学会,,その他の設立登記法人,福岡県,久留米市,長門石５丁目３番１４号,,40,203,8300027,,,2023-02-07,清算の結了等,,,2020-06-23,1,,,,,ヤマタイコクガッカイ,0
1494,6430001056637,登記記録の閉鎖等,0,2023-02-09,2023-02-06,株式会社喫茶共同企業,,株式会社,北海道,室蘭市,絵鞆町２丁目３番１７号,00088797,01,205,0510035,,,2023-02-06,清算の結了等,,,2015-10-05,1,,,,,キッサキョウドウキギョウ,0
1495,6430001059433,登記記録の閉鎖等,0,2023-02-09,2023-02-07,株式会社黄金フーズ,,株式会社,北海道,伊達市,北黄金町１４番地１１,,01,233,0590272,,,2023-02-07,清算の結了等,,,2015-10-05,1,,,,,コガネフーズ,0
1501,6430003011350,登記記録の閉鎖等,0,2023-02-09,2023-02-06,合同会社ＬＩＦＥ　ＷＩＬＬ,,合同会社,北海道,札幌市白石区,菊水四条２丁目１－６政陽ビル３階,,01,104,0030804,,,2023-02-06,清算の結了等,,,2020-03-09,1,,,,,ライフウィル,0
1529,7010005025076,登記記録の閉鎖等,0,2023-02-09,2023-02-06,一般社団法人名古屋伏見プロジェクト,,その他の設立登記法人,東京都,中央区,日本橋１丁目４番１号日本橋一丁目ビルディング,,13,102,1030027,,,2023-02-06,清算の結了等,,,2016-03-10,1,,,,,ナゴヤフシミプロジェクト,0
1556,7010802018389,登記記録の閉鎖等,0,2023-02-09,2023-02-01,有限会社ビッグファースト,,有限会社,東京都,大田区,中央８丁目４１番５号,,13,111,1430024,,,2023-02-01,合併による解散等,5010801010019,令和５年２月１日東京都大田区中央八丁目４１番５号株式会社ビッグエッグジャパン（5010801010019）に合併し解散,2015-10-05,1,,,,,ビッグファースト,0
1571,7011502001627,登記記録の閉鎖等,0,2023-02-09,2023-02-03,有限会社技興舎,,有限会社,東京都,北区,上十条５丁目２７番７号,,13,117,1140034,,,2023-02-03,清算の結了等,,,2015-10-05,1,,,,,ギコウシャ,0
1576,7011801000395,登記記録の閉鎖等,0,2023-02-09,2023-02-03,株式会社イトーフード,,株式会社,東京都,葛飾区,東新小岩７丁目３１番１５号,,13,122,1240023,,,2023-02-03,清算の結了等,,,2015-10-05,1,,,,,イトーフード,0
1584,7012701010344,登記記録の閉鎖等,0,2023-02-09,2023-02-07,株式会社ピープルプラクティス,,株式会社,東京都,西東京市,南町３丁目２１番５号,,13,229,1880012,,,2023-02-07,清算の結了等,,,2015-10-05,1,,,,,ピープルプラクティス,0
1586,7012801018683,登記記録の閉鎖等,0,2023-02-09,2023-02-08,株式会社ＧＲパートナー,,株式会社,東京都,小平市,小川町１丁目４０６番３号グリューネワルトＡ号室,,13,211,1870032,,,2023-02-08,清算の結了等,,,2018-04-18,1,,,,,ジーアールパートナー,0
1614,7050001035158,登記記録の閉鎖等,0,2023-02-09,2023-02-03,株式会社Ａｄｖａｎｃｅｄ,,株式会社,茨城県,ひたちなか市,相金町４番地１４,,08,221,3111246,,,2023-02-03,清算の結了等,,,2015-10-05,1,,,,,アドバンセド,0
1629,7110001008850,登記記録の閉鎖等,0,2023-02-09,2023-02-07,グローバル・テクノロジー・ネットワーク株式会社,,株式会社,東京都,新宿区,揚場町１番２０号福升ビル７階,,13,104,1620824,,,2023-02-07,清算の結了等,,,2015-10-05,1,,,,,グローバルテクノロジーネットワーク,0
1635,7110005012015,登記記録の閉鎖等,0,2023-02-09,2023-02-01,越後さんとう農業協同組合,,その他の設立登記法人,新潟県,長岡市,大野２４９番地,,15,202,9402305,,,2023-02-01,合併による解散等,5110005016892,令和５年２月１日新潟県長岡市今朝白二丁目７番２５号越後ながおか農業協同組合（6110005012016）、新潟県三条市下保内３４８番地１にいがた南蒲農業協同組合（5110005005904）、新潟県柏崎市駅前一丁目３番２２号柏崎農業協同組合（2110005007317）と合併して新潟県長岡市今朝白二丁目７番２５号えちご中越農業協同組合（5110005016892）を設立し解散,2015-10-05,1,,,,,エチゴサントウ,0
1641,7120001215859,登記記録の閉鎖等,0,2023-02-09,2023-02-02,ターンラウンド・サード株式会社,,株式会社,東京都,千代田区,霞が関３丁目２番１号,,13,101,1000013,,,2023-02-02,合併による解散等,5120001221066,令和５年２月１日東京都千代田区霞が関三丁目２番１号日本投資株式会社（5120001221066）に合併し解散,2018-09-12,1,,,,,ターンラウンドサード,0
1662,7140002061441,登記記録の閉鎖等,0,2023-02-09,2023-02-03,有限会社おのだ,,有限会社,兵庫県,西脇市,上野１８３番地の３,,28,213,6770044,,,2023-02-03,清算の結了等,,,2015-10-05,1,,,,,オノダ,0
1666,7160002006205,登記記録の閉鎖等,0,2023-02-09,2023-02-08,有限会社秋山工業,,有限会社,滋賀県,米原市,間田４６２番地,,25,214,5210236,,,2023-02-08,清算の結了等,,,2015-10-05,1,,,,,アキヤマコウギョウ,0
1674,7180002019519,登記記録の閉鎖等,0,2023-02-09,2023-02-03,有限会社三好設備,,有限会社,愛知県,名古屋市中川区,東春田１丁目８５番地,,23,110,4540983,,,2023-02-03,清算の結了等,,,2015-10-05,1,,,,,ミヨシセツビ,0
1704,7300001004707,登記記録の閉鎖等,0,2023-02-09,2023-02-06,株式会社オリエント観光,,株式会社,佐賀県,嬉野市,嬉野町大字岩屋川内甲３９９番地,,41,209,8430304,,,2023-02-06,清算の結了等,,,2015-10-05,1,,,,,オリエントカンコウ,0
1706,7310002013557,登記記録の閉鎖等,0,2023-02-09,2023-02-06,有限会社広瀬エルビイ産業,,有限会社,長崎県,佐世保市,針尾東町２１７８番地１,,42,202,8593451,,,2023-02-06,清算の結了等,,,2020-02-10,1,,,,,ヒロセエルビイサンギョウ,0
1711,7360001010699,登記記録の閉鎖等,0,2023-02-09,2023-02-01,株式会社三和相互銀行,,株式会社,沖縄県,那覇市,牧志町一丁目７７０番地の２０,,47,201,9000000,,,2023-02-01,清算の結了等,,,2015-12-09,1,,,,,サンワソウゴギンコウ,0
1815,8011003013410,登記記録の閉鎖等,0,2023-02-09,2023-01-31,合同会社アシスト,,合同会社,東京都,渋谷区,神宮前６丁目２３番４号桑野ビル２階,,13,113,1500001,,,2023-01-31,清算の結了等,,,2021-09-16,1,,,,,アシスト,0
1816,8011003013823,登記記録の閉鎖等,0,2023-02-09,2023-02-01,合同会社ＣＡＳ,,合同会社,東京都,目黒区,自由が丘２丁目１６番１２号ＬＣ１Ｆ,,13,110,1520035,,,2023-02-01,清算の結了等,,,2021-12-08,1,,,,,シーエーエス,0
1830,8012802004319,登記記録の閉鎖等,0,2023-02-09,2023-02-06,有限会社紀の国屋,,有限会社,東京都,武蔵村山市,三ツ藤１丁目９３番地２,,13,223,2080021,,,2023-02-06,清算の結了等,,,2015-10-05,1,,,,,キノクニヤ,0
1831,8013102006113,登記記録の閉鎖等,0,2023-02-09,2023-02-06,有限会社澤田鉄工,,有限会社,東京都,青梅市,東青梅３丁目８番地の２吉崎マンション２０１,,13,205,1980042,,,2023-02-06,清算の結了等,,,2015-10-05,1,,,,,,0
1851,8021002046690,登記記録の閉鎖等,0,2023-02-09,2023-02-06,有限会社トハラ左官,,有限会社,神奈川県,綾瀬市,上土棚北２丁目６番１９号,,14,218,2521111,,,2023-02-06,清算の結了等,,,2015-10-05,1,,,,,トハラサカン,0
1854,8030001026802,登記記録の閉鎖等,0,2023-02-09,2023-02-06,株式会社エム・アンド・ジェイ,,株式会社,埼玉県,入間市,大字下藤沢９８７番地６,,11,225,3580011,,,2023-02-06,清算の結了等,,,2015-10-05,1,,,,,エムアンドジェイ,0
1865,8050002002858,登記記録の閉鎖等,0,2023-02-09,2023-02-03,有限会社プラス技研,,有限会社,茨城県,水戸市,元吉田町７１４番地の３,,08,201,3100836,,,2023-02-03,清算の結了等,,,2015-10-05,1,,,,,プラスギケン,0
1885,8120001215858,登記記録の閉鎖等,0,2023-02-09,2023-02-02,ターンラウンド・セカンド株式会社,,株式会社,東京都,千代田区,霞が関３丁目２番１号,,13,101,1000013,,,2023-02-02,合併による解散等,5120001221066,令和５年２月１日東京都千代田区霞が関三丁目２番１号日本投資株式会社（5120001221066）に合併し解散,2018-09-12,1,,,,,ターンラウンドセカンド,0
1892,8120005018943,登記記録の閉鎖等,0,2023-02-09,2023-02-08,特定非営利活動法人大阪国際看護師介護福祉士育成会,,その他の設立登記法人,大阪府,大阪市中央区,本町４丁目４番１７号,,27,128,5410053,,,2023-02-08,清算の結了等,,,2016-09-21,1,,,,,オオサカコクサイカンゴシカイゴフクシシイクセイカイ,0
1901,8130001042327,登記記録の閉鎖等,0,2023-02-09,2023-02-06,株式会社だんでらいおん,,株式会社,京都府,京都市山科区,安朱南屋敷町３番地の４３,,26,110,6078011,,,2023-02-06,清算の結了等,,,2015-10-05,1,,,,,ダンデライオン,0
1906,8140001020067,登記記録の閉鎖等,0,2023-02-09,2023-02-07,株式会社ロックエコ,,株式会社,兵庫県,神戸市長田区,高取山町２丁目２１番１６号,,28,106,6530856,,,2023-02-07,清算の結了等,,,2015-10-05,1,,,,,ロックエコ,0
1913,8160001015791,登記記録の閉鎖等,0,2023-02-09,2023-02-01,株式会社鮎家の郷,00044432,株式会社,滋賀県,野洲市,吉川字琵琶３５０２番２,,25,210,5240201,,,2023-02-01,合併による解散等,9160001015725,令和５年２月１日滋賀県大津市真野二丁目２４番１号株式会社鮎家（9160001015725）に合併し解散,2015-10-05,1,,,,,アユヤノサト,0
1930,8220001018524,登記記録の閉鎖等,0,2023-02-09,2023-02-07,株式会社タツル,,株式会社,石川県,金沢市,畝田中２丁目１２５番地,,17,201,9200343,,,2023-02-07,清算の結了等,,,2015-10-05,1,,,,,タツル,0
1938,8250002018504,登記記録の閉鎖等,0,2023-02-09,2023-02-06,有限会社プラスワン,,有限会社,山口県,岩国市,桂町２丁目１番１８号,,35,208,7400013,,,2023-02-06,清算の結了等,,,2015-10-05,1,,,,,プラスワン,0
1944,8290002039983,登記記録の閉鎖等,0,2023-02-09,2023-02-06,有限会社平野川,,有限会社,福岡県,大野城市,横峰２丁目１２番１号,,40,219,8160973,,,2023-02-06,清算の結了等,,,2015-10-05,1,,,,,ヒラノガワ,0
1945,8290003009804,登記記録の閉鎖等,0,2023-02-09,2023-01-31,カラーズＦＣ合同会社,,合同会社,福岡県,久留米市,上津町１８３２番地,,40,203,8300052,,,2023-01-31,合併による解散等,9290001069089,令和５年１月３１日福岡県久留米市上津町１８３２番地株式会社ハートアップ（9290001069089）に合併し解散,2020-03-04,1,,,,,カラーズエフシー,0
1949,8310002016749,登記記録の閉鎖等,0,2023-02-09,2023-02-06,有限会社山口健生堂,,有限会社,長崎県,諫早市,東小路町１０番２８号,,42,204,8540014,,,2023-02-06,清算の結了等,,,2015-10-05,1,,,,,ヤマグチケンショウドウ,0
1953,8330002028255,登記記録の閉鎖等,0,2023-02-09,2023-02-07,有限会社植野建設,,有限会社,熊本県,上天草市,松島町阿村７８０番地１２,,43,212,8616101,,,2023-02-07,清算の結了等,,,2015-10-05,1,,,,,ウエノケンセツ,0
1996,9010002048929,登記記録の閉鎖等,0,2023-02-09,2023-02-03,有限会社ＳＣリテールインベストメント,,有限会社,東京都,千代田区,大手町２丁目３番２号,,13,101,1000004,,,2023-02-03,清算の結了等,,,2015-10-05,1,,,,,エスシーリテールインベストメント,0
2002,9010401098054,登記記録の閉鎖等,0,2023-02-09,2023-02-06,株式会社環境システム研究所,,株式会社,東京都,世田谷区,船橋７丁目８－２－４５３,,13,112,1560055,,,2023-02-06,清算の結了等,,,2015-10-05,1,,,,,カンキョウシステムケンキュウジョ,0
2008,9010405014222,登記記録の閉鎖等,0,2023-02-09,2023-01-27,Ｔｈｅ　Ｖａｌｅ　Ｒｕｓｕｔｓｕ特定目的会社,,その他の設立登記法人,東京都,港区,元赤坂１丁目１番７号,,13,103,1070051,,,2023-01-27,清算の結了等,,,2015-10-05,1,,,,,ザヴェールルスツ,0
2009,9010405016739,登記記録の閉鎖等,0,2023-02-09,2023-01-27,一般社団法人Ｔｈｅ　Ｖａｌｅ　Ｒｕｓｕｔｓｕ,,その他の設立登記法人,東京都,港区,元赤坂１丁目１番７号,,13,103,1070051,,,2023-01-27,清算の結了等,,,2018-05-23,1,,,,,ザヴェールルスツ,0
2027,9010901038864,登記記録の閉鎖等,0,2023-02-09,2023-02-02,ＣＡＮＡＬ株式会社,,株式会社,東京都,世田谷区,代沢２丁目１番２４号,,13,112,1550032,,,2023-02-02,清算の結了等,,,2016-09-29,1,,,,,カナル,0
2042,9011201004185,登記記録の閉鎖等,0,2023-02-09,2023-02-08,株式会社ニイザ精密,,株式会社,東京都,中野区,鷺宮１丁目１０番１号,,13,114,1650032,,,2023-02-08,清算の結了等,,,2015-10-05,1,,,,,ニイザセイミツ,0
2073,9012302003357,登記記録の閉鎖等,0,2023-02-09,2023-02-07,有限会社常盤林,,有限会社,東京都,町田市,大蔵町１０９６番地,,13,209,1950062,,,2023-02-07,清算の結了等,,,2015-10-05,1,,,,,トキワリン,0
2076,9012702001415,登記記録の閉鎖等,0,2023-02-09,2023-02-08,有限会社日栄土木,,有限会社,東京都,小平市,小川町１丁目９３２番地の３５,,13,211,1870032,,,2023-02-08,清算の結了等,,,2015-10-05,1,,,,,ニチエイドボク,0
2105,9030005004596,登記記録の閉鎖等,0,2023-02-09,2023-01-31,天理教戸島分教会,,その他の設立登記法人,埼玉県,幸手市,大字戸島３５６番地,,11,240,3400144,,,2023-01-31,合併による解散等,6030005005606,令和５年１月３１日埼玉県草加市稲荷二丁目２９番２３号天理教立野堀大教会（6030005005606）に合併し解散,2015-10-05,1,,,,,テンリキョウトシマブンキョウカイ,0
2106,9040001036130,登記記録の閉鎖等,0,2023-02-09,2023-02-06,千葉県食品流通センター株式会社,,株式会社,東京都,中央区,日本橋小網町１６番１４号,,13,102,1030016,,,2023-02-06,合併による解散等,4030001041326,令和５年２月１日埼玉県上尾市大字西門前２８８番地１埼玉県食品流通センター株式会社（4030001041326）に合併し解散,2015-10-05,1,,,,,チバケンショクヒンリュウツウセンター,0
2111,9050001018086,登記記録の閉鎖等,0,2023-02-09,2023-02-06,株式会社Ｈｕｍａｎ　Ｉｎｖｅｓｔｍｅｎｔ,,株式会社,茨城県,つくば市,梅園２丁目７－３つくばシティビル３０３号,,08,220,3050045,,,2023-02-06,合併による解散等,3011001125518,令和５年２月１日東京都新宿区新宿二丁目１６番６号株式会社ＨＵＭＡＮ　ＬＩＦＥ（3011001125518）に合併し解散,2015-10-05,1,,,,,ヒューマンインベストメント,0
2115,9050003006519,登記記録の閉鎖等,0,2023-02-09,2023-02-07,合同会社養生庵,,合同会社,茨城県,ひたちなか市,大字高場２５８１番地３２,,08,221,3120062,,,2023-02-07,清算の結了等,,,2022-04-21,1,,,,,ヨウジョウアン,0
2127,9100002004369,登記記録の閉鎖等,0,2023-02-09,2023-02-03,有限会社フォルテ,,有限会社,長野県,長野市,川中島町上氷鉋１６８５番地１３,,20,201,3812233,,,2023-02-03,清算の結了等,,,2015-10-05,1,,,,,フォルテ,0
2137,9120001215857,登記記録の閉鎖等,0,2023-02-09,2023-02-02,ターンラウンド・ファースト株式会社,,株式会社,東京都,千代田区,霞が関３丁目２番１号,,13,101,1000013,,,2023-02-02,合併による解散等,5120001221066,令和５年２月１日東京都千代田区霞が関三丁目２番１号日本投資株式会社（5120001221066）に合併し解散,2018-09-12,1,,,,,ターンラウンドファースト,0
2158,9130002014464,登記記録の閉鎖等,0,2023-02-09,2023-02-06,有限会社豊島電機,,有限会社,京都府,京都市伏見区,深草直違橋３丁目３８９番地,,26,109,6120889,,,2023-02-06,清算の結了等,,,2015-10-05,1,,,,,トヨシマデンキ,0
2182,9180002017099,登記記録の閉鎖等,0,2023-02-09,2023-02-03,有限会社吉田観光開発,00072927,有限会社,愛知県,名古屋市東区,泉２丁目２５番６号,,23,102,4610001,,,2023-02-03,清算の結了等,,,2015-10-05,1,,,,,ヨシダカンコウカイハツ,0
2184,9180301027187,登記記録の閉鎖等,0,2023-02-09,2023-02-01,株式会社メイトデザイン,,株式会社,愛知県,豊川市,一宮町上新切５４３番地７,,23,207,4411231,,,2023-02-01,合併による解散等,7180301029524,令和５年２月１日愛知県豊川市豊川仲町２７番地シンユウ商工株式会社（7180301029524）に合併し解散,2015-10-05,1,,,,,メイトデザイン,0
2187,9180305002145,登記記録の閉鎖等,0,2023-02-09,2023-02-01,特定非営利活動法人福祉工房あいち,,その他の設立登記法人,愛知県,岡崎市,牧平町字コタラゲ１３番地８９,,23,202,4443624,,,2023-02-01,清算の結了等,,,2015-10-05,1,,,,,フクシコウボウアイチ,0
2226,9340002012083,登記記録の閉鎖等,0,2023-02-09,2023-01-30,有限会社逢豊,00099224,有限会社,鹿児島県,鹿児島市,小野３丁目８番６号,,46,201,8900021,,,2023-01-30,清算の結了等,,,2015-10-05,1,,,,,アイホウ,0
2254,9430002054488,登記記録の閉鎖等,0,2023-02-09,2023-02-07,有限会社さわだスポーツ店,,有限会社,北海道,小樽市,住ノ江２丁目１番１０号,,01,203,0470014,,,2023-02-07,清算の結了等,,,2015-10-05,1,,,,,サワダスポーツテン,0
2258,9480003001591,登記記録の閉鎖等,0,2023-02-09,2023-02-08,合同会社つくし,,合同会社,徳島県,阿波市,阿波町井出口３６番地１,,36,206,7711702,,,2023-02-08,清算の結了等,,,2020-12-11,1,,,,,ツクシ,0
