sequenceNumber,corporateNumber,process,correct,updateDate,changeDate,name,nameImageId,kind,prefectureName,cityName,streetNumber,addressImageId,prefectureCode,cityCode,postCode,addressOutside,addressOutsideImageId,closeDate,closeCause,successorCorporateNumber,changeCause,assignmentDate,latest,enName,enPrefectureName,enCityName,enAddressOutside,furigana,hihyoji
2,1010001129927,登記記録の閉鎖等,0,2021-12-15,2021-12-10,株式会社世論総合研究所,,株式会社,東京都,千代田区,岩本町３丁目５番８号,,13,101,1010032,,,2021-12-10,清算の結了等,,,2015-10-05,1,,,,,ヨロンソウゴウケンキュウショ,0
3,1010001132914,登記記録の閉鎖等,0,2021-12-15,2021-12-09,株式会社石狩インベストメンツ,,株式会社,東京都,千代田区,丸の内３丁目１番１号東京共同会計事務所内,,13,101,1000005,,,2021-12-09,清算の結了等,,,2015-10-05,1,,,,,イシカリインベストメンツ,0
19,1010403021153,登記記録の閉鎖等,0,2021-12-15,2021-12-08,ＣＨＥＲＲＹ　ＢＬＯＳＳＯＭ　ＭＥＤＩＡ合同会社,,合同会社,東京都,港区,南青山２丁目２番１５号ウィン青山１３０２,,13,103,1070062,,,2021-12-08,清算の結了等,,,2019-07-29,1,,,,,チェリーブロッサムメディア,0
28,1010802009501,登記記録の閉鎖等,0,2021-12-15,2021-12-09,有限会社鶴見製作所,,有限会社,東京都,大田区,久が原２丁目２２番５号,,13,111,1460085,,,2021-12-09,清算の結了等,,,2015-10-05,1,,,,,ツルミセイサクショ,0
30,1010901029664,登記記録の閉鎖等,0,2021-12-15,2021-12-02,エント設計株式会社,,株式会社,東京都,目黒区,東山３丁目１６番１９号,,13,110,1530043,,,2021-12-02,清算の結了等,,,2015-10-05,1,,,,,エントセッケイ,0
56,1011203000025,登記記録の閉鎖等,0,2021-12-15,2021-12-10,合資会社エスポ・トキオ,,合資会社,東京都,中野区,鷺宮３丁目３３番６号,,13,114,1650032,,,2021-12-10,清算の結了等,,,2015-10-05,1,,,,,エスポトキオ,0
102,1030003008391,登記記録の閉鎖等,0,2021-12-15,2021-12-13,合同会社Ｂｕ．ＥＮＡ,,合同会社,埼玉県,川越市,並木新町２番地１エルネスビル１Ｆ,,11,201,3500024,,,2021-12-13,清算の結了等,,,2016-02-04,1,,,,,ブエナ,0
117,1040002057199,登記記録の閉鎖等,0,2021-12-15,2021-12-13,有限会社木村商店,,有限会社,千葉県,印西市,小林字横須賀６７６番地の２,,12,231,2701318,,,2021-12-13,清算の結了等,,,2015-10-05,1,,,,,キムラショウテン,0
131,1070002011285,登記記録の閉鎖等,0,2021-12-15,2021-12-13,有限会社中川製作所,,有限会社,群馬県,高崎市,八幡町１１７１番地４,,10,202,3700884,,,2021-12-13,清算の結了等,,,2015-10-05,1,,,,,ナカガワセイサクショ,0
132,1070002013100,登記記録の閉鎖等,0,2021-12-15,2021-12-13,有限会社吉本工業,,有限会社,群馬県,高崎市,金古町９６８番地４,,10,202,3703511,,,2021-12-13,清算の結了等,,,2015-10-05,1,,,,,ヨシモトコウギョウ,0
133,1080001010923,登記記録の閉鎖等,0,2021-12-15,2021-12-10,株式会社アイ・エンジ,,株式会社,静岡県,静岡市清水区,石川本町２番１０号,,22,103,4240006,,,2021-12-10,清算の結了等,,,2015-10-05,1,,,,,,0
138,1080102021043,登記記録の閉鎖等,0,2021-12-15,2021-12-10,有限会社千草商店,,有限会社,静岡県,下田市,二丁目３番１８号,,22,219,4150022,,,2021-12-10,清算の結了等,,,2015-10-05,1,,,,,チグサショウテン,0
144,1100002003758,登記記録の閉鎖等,0,2021-12-15,2021-12-13,中島建設有限会社,,有限会社,長野県,長野市,大字屋島８７０番地１,,20,201,3810021,,,2021-12-13,清算の結了等,,,2015-10-05,1,,,,,ナカジマケンセツ,0
153,1120001096685,登記記録の閉鎖等,0,2021-12-15,2021-12-13,株式会社ジャパンクリンナップ,,株式会社,大阪府,大阪市西区,北堀江１丁目１２番１０号,,27,106,5500014,,,2021-12-13,清算の結了等,,,2015-10-05,1,,,,,ジャパンクリンナップ,0
196,1180003009301,登記記録の閉鎖等,0,2021-12-15,2021-12-10,合同会社シビルデザインコンサルティング,,合同会社,愛知県,名古屋市緑区,徳重２丁目１１４番地,,23,114,4580815,,,2021-12-10,清算の結了等,,,2015-10-05,1,,,,,シビルデザインコンサルティング,0
197,1180003022758,登記記録の閉鎖等,0,2021-12-15,2021-12-13,合同会社虹色,,合同会社,愛知県,岩倉市,大市場町郷前２３４番地１,,23,228,4820002,,,2021-12-13,清算の結了等,,,2021-07-19,1,,,,,ニジイロ,0
206,1190002015638,登記記録の閉鎖等,0,2021-12-15,2021-12-13,有限会社中井保険サービス,,有限会社,三重県,度会郡大紀町,滝原２３２番地２,,24,471,5192703,,,2021-12-13,清算の結了等,,,2015-10-05,1,,,,,ナカイホケンサービス,0
215,1240001057948,登記記録の閉鎖等,0,2021-12-15,2021-12-10,株式会社中本製作所,,株式会社,広島県,広島市中区,西川口町６番１－７０１号,,34,101,7300846,,,2021-12-10,清算の結了等,,,2021-05-12,1,,,,,ナカモトセイサクショ,0
227,1260003001621,登記記録の閉鎖等,0,2021-12-15,2021-12-14,合同会社黒豆屋,,合同会社,岡山県,岡山市北区,玉柏１５８９番地３,,33,101,7012142,,,2021-12-14,清算の結了等,,,2015-10-05,1,,,,,クロマメヤ,0
241,1350002016925,登記記録の閉鎖等,0,2021-12-15,2021-12-02,有限会社山加製材工場,,有限会社,宮崎県,日南市,大字隈谷乙１６６０番地,,45,204,8870023,,,2021-12-02,清算の結了等,,,2015-10-05,1,,,,,ヤマガセイザイコウジョウ,0
252,1400003002522,登記記録の閉鎖等,0,2021-12-15,2021-12-10,合同会社ＳＨＩＮＰＡＮ,,合同会社,岩手県,一関市,川崎町薄衣字法道地２１番地１３,,03,209,0290202,,,2021-12-10,合併による解散等,9400003002416,令和３年１２月１日岩手県一関市花泉町花泉字地平３３番地５合同会社エム・アンド・アイ（9400003002416）に合併し解散,2019-10-09,1,,,,,シンパン,0
259,1430002060840,登記記録の閉鎖等,0,2021-12-15,2021-12-13,有限会社コニシ・コンサルタント,,有限会社,北海道,苫小牧市,日吉町２丁目６番５号,,01,213,0530816,,,2021-12-13,清算の結了等,,,2015-10-05,1,,,,,コニシコンサルタント,0
294,2010403020030,登記記録の閉鎖等,0,2021-12-15,2021-12-03,合同会社Ｃｉｎｇ,,合同会社,東京都,港区,芝１丁目１４番１－９０３号,,13,103,1050014,,,2021-12-03,清算の結了等,,,2019-01-24,1,,,,,シーイング,0
295,2010405009625,登記記録の閉鎖等,0,2021-12-15,2021-12-07,特定非営利活動法人Ｅ－ｌａｂ,,その他の設立登記法人,東京都,港区,元赤坂１丁目７１６番地１,,13,103,1070051,,,2021-12-07,清算の結了等,,,2015-10-05,1,,,,,イーラボ,0
302,2010901005730,登記記録の閉鎖等,0,2021-12-15,2021-12-07,株式会社ＩＭＣＴ,,株式会社,東京都,港区,南青山２丁目２番１５号ＷｉｎＡｏｙａｍａビル－ＵＣＦ９１７,,13,103,1070062,,,2021-12-07,清算の結了等,,,2015-10-05,1,,,,,アイエムシーティ,0
322,2011101022260,登記記録の閉鎖等,0,2021-12-15,2021-12-08,株式会社楽太朗,,株式会社,東京都,豊島区,西巣鴨２丁目５番２号,,13,116,1700001,,,2021-12-08,清算の結了等,,,2015-10-05,1,,,,,ラクタロウ,0
324,2011102018596,登記記録の閉鎖等,0,2021-12-15,2021-12-10,有限会社マルオプランニング,,有限会社,千葉県,松戸市,新松戸６丁目１２２番地２,,12,207,2700034,,,2021-12-10,清算の結了等,,,2015-10-05,1,,,,,マルオプランニング,0
329,2011301013448,登記記録の閉鎖等,0,2021-12-15,2021-12-14,株式会社キープランニング,,株式会社,東京都,杉並区,清水１丁目２６番地１１号１階,,13,115,1670033,,,2021-12-14,清算の結了等,,,2015-10-05,1,,,,,キープランニング,0
343,2011702009219,登記記録の閉鎖等,0,2021-12-15,2021-12-13,有限会社八光電気,,有限会社,東京都,江戸川区,大杉３丁目８番１号,,13,123,1320022,,,2021-12-13,清算の結了等,,,2015-10-05,1,,,,,ハッコウデンキ,0
352,2012401032858,登記記録の閉鎖等,0,2021-12-15,2021-12-10,株式会社Ｇｌｏｂａｌ　Ｆｉｔ　Ｔｅｃｈｎｏｌｏｇｙ,,株式会社,東京都,多摩市,中沢２丁目７番地４ロイヤルレジデンス１０２号,,13,224,2060036,,,2021-12-10,清算の結了等,,,2017-06-12,1,,,,,グローバルフィットテクノロジー,0
353,2012402007891,登記記録の閉鎖等,0,2021-12-15,2021-12-10,有限会社加美藤,,有限会社,東京都,小金井市,貫井北町３丁目２１番１２号,,13,210,1840015,,,2021-12-10,清算の結了等,,,2015-10-05,1,,,,,カミフジ,0
371,2020002090119,登記記録の閉鎖等,0,2021-12-15,2021-12-13,有限会社韮山工務店,,有限会社,神奈川県,川崎市宮前区,宮崎１７５番地９０,,14,136,2160033,,,2021-12-13,清算の結了等,,,2015-10-05,1,,,,,ニラヤマコウムテン,0
386,2030002067594,登記記録の閉鎖等,0,2021-12-15,2021-12-10,有限会社街並工学研究所,,有限会社,埼玉県,富士見市,上沢２丁目５番地１２号,,11,235,3540034,,,2021-12-10,清算の結了等,,,2015-10-05,1,,,,,マチナミコウガクケンキュウジョ,0
401,2040002094563,登記記録の閉鎖等,0,2021-12-15,2021-12-09,有限会社ココ石井,,有限会社,千葉県,柏市,大津ケ丘２丁目１２番８,,12,217,2770921,,,2021-12-09,清算の結了等,,,2015-10-05,1,,,,,ココイシイ,0
404,2060001002665,登記記録の閉鎖等,0,2021-12-15,2021-12-10,株式会社タカセ・エンジェニアリング,,株式会社,栃木県,宇都宮市,雀の宮７丁目６番１９号,,09,201,3210132,,,2021-12-10,清算の結了等,,,2015-10-05,1,,,,,タカセエンジェニアリング,0
411,2060002038808,登記記録の閉鎖等,0,2021-12-15,2021-12-10,有限会社小野田電設,,有限会社,栃木県,佐野市,小中町３５６番地,,09,204,3270001,,,2021-12-10,清算の結了等,,,2015-10-05,1,,,,,オノダデンセツ,0
416,2080102017692,登記記録の閉鎖等,0,2021-12-15,2021-12-10,有限会社エスケイ,,有限会社,静岡県,富士宮市,山本３１０番地の４６,,22,207,4180023,,,2021-12-10,清算の結了等,,,2015-10-05,1,,,,,エスケイ,0
422,2100001025447,登記記録の閉鎖等,0,2021-12-15,2021-12-10,株式会社和泉屋工務店,,株式会社,長野県,安曇野市,豊科南穂高５１５９番地,,20,220,3998201,,,2021-12-10,清算の結了等,,,2015-10-05,1,,,,,イズミヤコウムテン,0
471,2180001083925,登記記録の閉鎖等,0,2021-12-15,2021-12-08,ヤシナ株式会社,,株式会社,愛知県,一宮市,千秋町加茂字長畑２５番地の２,,23,203,4910801,,,2021-12-08,清算の結了等,,,2015-10-05,1,,,,,ヤシナ,0
500,2240002046206,登記記録の閉鎖等,0,2021-12-15,2021-12-10,有限会社エフエスクラフト,,有限会社,広島県,福山市,木之庄町５丁目１２番２２号,,34,207,7200082,,,2021-12-10,清算の結了等,,,2015-10-05,1,,,,,エフエスクラフト,0
502,2250001018072,登記記録の閉鎖等,0,2021-12-15,2021-12-13,株式会社美祢クリスタル,,株式会社,山口県,美祢市,美東町長登２０８番地,,35,213,7540213,,,2021-12-13,清算の結了等,,,2020-01-06,1,,,,,ミネクリスタル,0
503,2250002011002,登記記録の閉鎖等,0,2021-12-15,2021-12-14,有限会社松本雑貨店,,有限会社,山口県,下関市,吉見本町１丁目１１番３号,,35,201,7596531,,,2021-12-14,清算の結了等,,,2015-10-05,1,,,,,マツモトザッカテン,0
513,2290801022212,登記記録の閉鎖等,0,2021-12-15,2021-12-10,ライブフィッシュキャリアー株式会社,,株式会社,福岡県,北九州市戸畑区,銀座２丁目６番２７号,,40,105,8040076,,,2021-12-10,清算の結了等,,,2016-02-03,1,,,,,ライブフィッシュキャリアー,0
525,2350001002264,登記記録の閉鎖等,0,2021-12-15,2021-12-13,データプラネット株式会社,,株式会社,宮崎県,宮崎市,吉村町宮ノ脇甲２１０２番地１,,45,201,8800841,,,2021-12-13,清算の結了等,,,2015-10-05,1,,,,,データプラネット,0
543,2380002001329,登記記録の閉鎖等,0,2021-12-15,2021-12-10,有限会社コンビニエンスすずき,,有限会社,福島県,福島市,郷野目字金込町４７番地の１,,07,201,9608161,,,2021-12-10,清算の結了等,,,2015-10-05,1,,,,,,0
551,2430001052722,登記記録の閉鎖等,0,2021-12-15,2021-12-13,株式会社岡田重機,,株式会社,北海道,白老郡白老町,字石山６８番地５,,01,578,0590921,,,2021-12-13,清算の結了等,,,2015-10-05,1,,,,,オカダジュウキ,0
555,2430005004281,登記記録の閉鎖等,0,2021-12-15,2021-12-10,税理士法人五十嵐会計,,その他の設立登記法人,北海道,札幌市中央区,北二条西１０丁目１番地植物園グランドハイツ西２０１号,,01,101,0600002,,,2021-12-10,清算の結了等,,,2015-10-05,1,,,,,イガラシカイケイ,0
565,2470002000206,登記記録の閉鎖等,0,2021-12-15,2021-12-10,有限会社村井本店,,有限会社,香川県,高松市,庵治町９１０番地第２,,37,201,7610130,,,2021-12-10,清算の結了等,,,2015-10-05,1,,,,,ムライホンテン,0
579,3010001205404,登記記録の閉鎖等,0,2021-12-15,2021-12-09,株式会社デイブレイク,,株式会社,東京都,千代田区,神田鍛冶町３丁目７番地２１天翔神田駅前ビル９０６号室,,13,101,1010045,,,2021-12-09,清算の結了等,,,2019-11-15,1,,,,,デイブレイク,0
583,3010003026138,登記記録の閉鎖等,0,2021-12-15,2021-12-10,ＣＲ京町家３号合同会社,,合同会社,東京都,千代田区,大手町１丁目６番１号,,13,101,1000004,,,2021-12-10,清算の結了等,,,2017-09-27,1,,,,,シーアールキョウマチヤサンゴウ,0
590,3010401048304,登記記録の閉鎖等,0,2021-12-15,2021-12-08,株式会社メディアソリューション,,株式会社,東京都,港区,高輪３丁目１４番２６－２０３号,,13,103,1080074,,,2021-12-08,清算の結了等,,,2015-10-05,1,,,,,メディアソリューション,0
601,3010702007702,登記記録の閉鎖等,0,2021-12-15,2021-12-13,有限会社丸嘉酒店,,有限会社,東京都,品川区,戸越１丁目２９番１号,,13,109,1420041,,,2021-12-13,清算の結了等,,,2015-10-05,1,,,,,マルカサケテン,0
626,3011201019081,登記記録の閉鎖等,0,2021-12-15,2021-12-13,株式会社エイチ・アンド・ケイ・ホールディングス,,株式会社,東京都,中野区,本町６丁目２７番８－８０５号,,13,114,1640012,,,2021-12-13,清算の結了等,,,2016-05-18,1,,,,,エイチアンドケイホールディングス,0
629,3011302000774,登記記録の閉鎖等,0,2021-12-15,2021-12-10,有限会社飯島章博演出事ム所,,有限会社,東京都,杉並区,和田２丁目４６番８号,,13,115,1660012,,,2021-12-10,清算の結了等,,,2015-10-05,1,,,,,イイジマアキヒロエンシュツジムショ,0
640,3011703002072,登記記録の閉鎖等,0,2021-12-15,2021-12-10,合同会社ＢＢＳ商会,,合同会社,東京都,江戸川区,東葛西７丁目２０番２６号,,13,123,1340084,,,2021-12-10,清算の結了等,,,2018-08-21,1,,,,,ビービーエスショウカイ,0
657,3012801018233,登記記録の閉鎖等,0,2021-12-15,2021-12-13,株式会社Ａｔ．ｓｍｉｌｅ,,株式会社,東京都,国立市,富士見台３丁目２５番地の４０,,13,215,1860003,,,2021-12-13,清算の結了等,,,2017-09-06,1,,,,,アットスマイル,0
683,3021002045706,登記記録の閉鎖等,0,2021-12-15,2021-12-13,有限会社みゆき,,有限会社,神奈川県,海老名市,中央１丁目３番７号,,14,215,2430432,,,2021-12-13,清算の結了等,,,2015-10-05,1,,,,,ミユキ,0
693,3030002038776,登記記録の閉鎖等,0,2021-12-15,2021-12-10,有限会社フリアン洋菓子店,,有限会社,埼玉県,白岡市,小久喜１１３１番地の４,,11,246,3490217,,,2021-12-10,清算の結了等,,,2015-10-05,1,,,,,フリアンヨウガシテン,0
703,3040001080860,登記記録の閉鎖等,0,2021-12-15,2021-12-13,株式会社オルコット,,株式会社,千葉県,印旛郡栄町,安食台２丁目７番１号,,12,329,2701515,,,2021-12-13,清算の結了等,,,2015-10-05,1,,,,,オルコット,0
708,3040002053799,登記記録の閉鎖等,0,2021-12-15,2021-12-10,有限会社桜花ライフサービス,,有限会社,千葉県,流山市,流山２丁目２８７番地の１,,12,220,2700164,,,2021-12-10,清算の結了等,,,2015-10-05,1,,,,,オウカライフサービス,0
720,3060002016721,登記記録の閉鎖等,0,2021-12-15,2021-12-10,有限会社よしだコーポレーション,,有限会社,栃木県,日光市,猪倉９２９番地８０,,09,206,3212344,,,2021-12-10,清算の結了等,,,2015-10-05,1,,,,,ヨシダコーポレーション,0
721,3070001009444,登記記録の閉鎖等,0,2021-12-15,2021-12-10,株式会社サクラ,,株式会社,群馬県,高崎市,福島町７２５番地１３,,10,202,3703523,,,2021-12-10,清算の結了等,,,2015-10-05,1,,,,,サクラ,0
735,3090002004021,登記記録の閉鎖等,0,2021-12-15,2021-12-09,有限会社石原彫刻,,有限会社,山梨県,甲斐市,長塚７３８番地の１,,19,210,4000125,,,2021-12-09,清算の結了等,,,2015-10-05,1,,,,,,0
742,3110002028901,登記記録の閉鎖等,0,2021-12-15,2021-12-09,有限会社広勝呉服店,,有限会社,新潟県,長岡市,神田町３丁目２番地３５,,15,202,9400052,,,2021-12-09,清算の結了等,,,2015-10-05,1,,,,,ヒロカツゴフクテン,0
748,3120001049360,登記記録の閉鎖等,0,2021-12-15,2021-12-09,山大水産株式会社,,株式会社,大阪府,大阪市西淀川区,福町２丁目３０番１６号,,27,113,5550034,,,2021-12-09,清算の結了等,,,2015-10-05,1,,,,,,0
761,3120002022671,登記記録の閉鎖等,0,2021-12-15,2021-12-10,有限会社日東藤栄商会,,有限会社,兵庫県,神戸市北区,幸陽町１丁目１８－９１４,,28,109,6511203,,,2021-12-10,清算の結了等,,,2015-10-05,1,,,,,ニットウフジエイショウカイ,0
765,3120101030699,登記記録の閉鎖等,0,2021-12-15,2021-12-10,株式会社アンビエンテ,,株式会社,大阪府,大阪市平野区,加美東２丁目３番４１号,,27,126,5470002,,,2021-12-10,清算の結了等,,,2015-10-05,1,,,,,アンビエンテ,0
767,3120102003704,登記記録の閉鎖等,0,2021-12-15,2021-12-08,有限会社のこ和,00032729,有限会社,大阪府,堺市堺区,東湊町１丁４６番地３号,,27,141,5900829,,,2021-12-08,清算の結了等,,,2015-10-05,1,,,,,ノコワ,0
796,3180001035330,登記記録の閉鎖等,0,2021-12-15,2021-12-13,河村屋株式会社,,株式会社,愛知県,名古屋市中区,新栄２丁目２４番９号,,23,106,4600007,,,2021-12-13,清算の結了等,,,2015-10-05,1,,,,,カワムラヤ,0
817,3200001008812,登記記録の閉鎖等,0,2021-12-15,2021-12-14,株式会社羽場機工,,株式会社,岐阜県,各務原市,鵜沼各務原町６丁目７６番地８,,21,213,5090141,,,2021-12-14,清算の結了等,,,2015-10-05,1,,,,,ハバキコウ,0
819,3200003003068,登記記録の閉鎖等,0,2021-12-15,2021-12-10,合同会社恵和,,合同会社,岐阜県,中津川市,中津川２３６４番地の２３１８,,21,206,5080001,,,2021-12-10,清算の結了等,,,2015-10-05,1,,,,,ケイワ,0
839,3290002035590,登記記録の閉鎖等,0,2021-12-15,2021-12-08,有限会社中山モータース,,有限会社,福岡県,宗像市,田熊１丁目５番２０号,,40,220,8113431,,,2021-12-08,清算の結了等,,,2021-11-11,1,,,,,ナカヤマモータース,0
851,3320002008106,登記記録の閉鎖等,0,2021-12-15,2021-12-14,有限会社ベイシスデザイン,,有限会社,大分県,大分市,大字寒田字六ノ平２９７番地１,,44,201,8701123,,,2021-12-14,清算の結了等,,,2015-10-05,1,,,,,ベイシスデザイン,0
887,3460102005633,登記記録の閉鎖等,0,2021-12-15,2021-12-10,有限会社杉山農場,,有限会社,北海道,河東郡上士幌町,字居辺東１７線２１７番地,,01,633,0801406,,,2021-12-10,清算の結了等,,,2015-10-05,1,,,,,スギヤマノウジョウ,0
888,3460302001564,登記記録の閉鎖等,0,2021-12-15,2021-12-13,有限会社ヤブキ,,有限会社,北海道,北見市,留辺蘂町旭中央２８番地５７,,01,208,0910023,,,2021-12-13,清算の結了等,,,2015-10-05,1,,,,,ヤブキ,0
901,4010003019446,登記記録の閉鎖等,0,2021-12-15,2021-12-10,合同会社ラケル名神レジデンス,,合同会社,東京都,千代田区,霞が関３丁目２番５号,,13,101,1000013,,,2021-12-10,清算の結了等,,,2015-10-05,1,,,,,ラケルメイシンレジデンス,0
902,4010003025254,登記記録の閉鎖等,0,2021-12-15,2021-12-10,クラウドリアルティ３号合同会社,,合同会社,東京都,千代田区,大手町１丁目６番１号,,13,101,1000004,,,2021-12-10,清算の結了等,,,2017-05-01,1,,,,,クラウドリアルティサンゴウ,0
915,4010401130696,登記記録の閉鎖等,0,2021-12-15,2021-12-02,新澤株式会社,,株式会社,東京都,渋谷区,広尾１丁目３番１６号東陽ビル２０１号,,13,113,1500012,,,2021-12-02,清算の結了等,,,2017-04-11,1,,,,,ニイザワ,0
938,4011001135177,登記記録の閉鎖等,0,2021-12-15,2021-12-02,株式会社ソーラープラットフォーム,,株式会社,東京都,渋谷区,道玄坂１丁目１５番３号,,13,113,1500043,,,2021-12-02,清算の結了等,,,2020-08-12,1,,,,,ソーラープラットフォーム,0
950,4011205001258,登記記録の閉鎖等,0,2021-12-15,2021-12-13,特定非営利活動法人日本社会福祉支援会,,その他の設立登記法人,東京都,中野区,東中野２丁目２７番４号,,13,114,1640003,,,2021-12-13,清算の結了等,,,2015-10-05,1,,,,,ニホンシャカイフクシシエンカイ,0
970,4013301006578,登記記録の閉鎖等,0,2021-12-15,2021-12-08,株式会社外山建設,,株式会社,東京都,豊島区,池袋本町４丁目８番１１号,,13,116,1700011,,,2021-12-08,清算の結了等,,,2015-10-05,1,,,,,トヤマケンセツ,0
972,4020001050559,登記記録の閉鎖等,0,2021-12-15,2021-12-13,株式会社中野研究所,,株式会社,神奈川県,横浜市都筑区,荏田南５丁目２０番３－１０４号,,14,118,2240007,,,2021-12-13,清算の結了等,,,2015-10-05,1,,,,,ナカノケンキュウジョ,0
978,4020002068856,登記記録の閉鎖等,0,2021-12-15,2021-12-09,有限会社エイチ・エスコンサルティング,,有限会社,東京都,大田区,上池台５丁目２９番４号,,13,111,1450064,,,2021-12-09,清算の結了等,,,2015-10-05,1,,,,,エイチエスコンサルティング,0
985,4021001008877,登記記録の閉鎖等,0,2021-12-15,2021-12-10,エクティー株式会社,,株式会社,神奈川県,鎌倉市,山ノ内２４１番地,,14,204,2470062,,,2021-12-10,清算の結了等,,,2015-10-05,1,,,,,エクティー,0
991,4030001036276,登記記録の閉鎖等,0,2021-12-15,2021-12-13,株式会社ハウスセコウ,,株式会社,埼玉県,八潮市,大字大曽根１２３番地９,,11,234,3400834,,,2021-12-13,清算の結了等,,,2015-10-05,1,,,,,ハウスセコウ,0
1007,4030002038296,登記記録の閉鎖等,0,2021-12-15,2021-12-10,有限会社ハローエース,,有限会社,埼玉県,久喜市,南４丁目８番２９号,,11,232,3460004,,,2021-12-10,清算の結了等,,,2015-10-05,1,,,,,ハローエース,0
1008,4030002047495,登記記録の閉鎖等,0,2021-12-15,2021-12-10,有限会社東栄産業,,有限会社,埼玉県,八潮市,大字木曽根１２４５番地１,,11,234,3400813,,,2021-12-10,清算の結了等,,,2015-10-05,1,,,,,トウエイサンギョウ,0
1013,4040001055886,登記記録の閉鎖等,0,2021-12-15,2021-12-13,株式会社中興業,,株式会社,千葉県,市原市,喜多９５１番地３３,,12,219,2900167,,,2021-12-13,清算の結了等,,,2015-10-05,1,,,,,ナカコウギョウ,0
1016,4040001115970,登記記録の閉鎖等,0,2021-12-15,2021-12-10,株式会社米五合,,株式会社,千葉県,松戸市,上本郷２２３４番地６,,12,207,2710064,,,2021-12-10,清算の結了等,,,2020-11-24,1,,,,,コメゴゴウ,0
1022,4050001033370,登記記録の閉鎖等,0,2021-12-15,2021-12-10,株式会社丸健,,株式会社,茨城県,稲敷郡阿見町,大字大室５７４番地,,08,443,3000303,,,2021-12-10,清算の結了等,,,2015-10-05,1,,,,,,0
1033,4070001030127,登記記録の閉鎖等,0,2021-12-15,2021-12-13,株式会社エムエフフーズ,,株式会社,群馬県,甘楽郡甘楽町,大字小幡２０４番地１,,10,384,3702202,,,2021-12-13,清算の結了等,,,2015-10-05,1,,,,,エムエフフーズ,0
1036,4080005002047,登記記録の閉鎖等,0,2021-12-15,2021-12-13,協同組合静岡不動産活性化研究所,,その他の設立登記法人,静岡県,静岡市駿河区,八幡１丁目１番２８号,,22,102,4228076,,,2021-12-13,清算の結了等,,,2015-10-05,1,,,,,シズオカフドウサンカッセイカケンキュウジョ,0
1043,4100002026509,登記記録の閉鎖等,0,2021-12-15,2021-12-13,有限会社曽根原商会,,有限会社,長野県,大町市,大町１２２０番地３,,20,212,3980002,,,2021-12-13,清算の結了等,,,2015-10-05,1,,,,,ソネハラショウカイ,0
1044,4100002037613,登記記録の閉鎖等,0,2021-12-15,2021-12-10,有限会社吉沢ミシン電機商会,,有限会社,長野県,飯田市,知久町２丁目１１番地,,20,205,3950045,,,2021-12-10,清算の結了等,,,2021-11-29,1,,,,,ヨシザワミシンデンキショウカイ,0
1073,4120902005221,登記記録の閉鎖等,0,2021-12-15,2021-12-13,有限会社イナバ,,有限会社,大阪府,吹田市,長野東１６番２０号メロディハイツ長野東２０１,,27,205,5650816,,,2021-12-13,清算の結了等,,,2015-10-05,1,,,,,,0
1093,4150002005508,登記記録の閉鎖等,0,2021-12-15,2021-12-13,有限会社三企工業,,有限会社,奈良県,大和郡山市,矢田町６２０３番地の２,,29,203,6391058,,,2021-12-13,清算の結了等,,,2015-10-05,1,,,,,サンキコウギョウ,0
1100,4180001099011,登記記録の閉鎖等,0,2021-12-15,2021-12-10,株式会社愛生,,株式会社,愛知県,愛西市,西川端町兼ケ角２０２番地,,23,232,4968019,,,2021-12-10,清算の結了等,,,2015-10-05,1,,,,,アイショウ,0
1108,4180003020610,登記記録の閉鎖等,0,2021-12-15,2021-12-10,合同会社ユニオン,,合同会社,愛知県,名古屋市中区,錦３丁目９番１８号,,23,106,4600003,,,2021-12-10,清算の結了等,,,2019-12-06,1,,,,,ユニオン,0
1111,4180302011054,登記記録の閉鎖等,0,2021-12-15,2021-12-10,有限会社マルカ水産,,有限会社,愛知県,田原市,古田町郷中１７１番地,,23,231,4413613,,,2021-12-10,清算の結了等,,,2015-10-05,1,,,,,マルカスイサン,0
1114,4190001026922,登記記録の閉鎖等,0,2021-12-15,2021-12-10,あさけ株式会社,,株式会社,三重県,四日市市,鵜の森１丁目１４番１８号,,24,202,5100074,,,2021-12-10,清算の結了等,,,2019-11-29,1,,,,,アサケ,0
1118,4200001028999,登記記録の閉鎖等,0,2021-12-15,2021-12-10,株式会社美濃コーティング,,株式会社,岐阜県,美濃市,楓台４１番地,,21,207,5013772,,,2021-12-10,合併による解散等,6180001016360,令和３年１２月１日名古屋市東区矢田三丁目１６番８５号尾張精機株式会社（6180001016360）に合併し解散,2015-10-05,1,,,,,,0
1120,4200002003159,登記記録の閉鎖等,0,2021-12-15,2021-12-14,有限会社トゥエンティワン,,有限会社,岐阜県,岐阜市,大縄場５丁目１７番地の１,,21,201,5008889,,,2021-12-14,清算の結了等,,,2015-10-05,1,,,,,トゥエンティワン,0
1121,4220001018420,登記記録の閉鎖等,0,2021-12-15,2021-12-10,株式会社アートレーシング,,株式会社,石川県,羽咋市,中央町サ４６番地２,,17,207,9250052,,,2021-12-10,清算の結了等,,,2015-10-05,1,,,,,アートレーシング,0
1123,4240001041701,登記記録の閉鎖等,0,2021-12-15,2021-12-10,株式会社マークサービス,,株式会社,広島県,広島市西区,楠木町１丁目２番５号,,34,104,7330002,,,2021-12-10,清算の結了等,,,2015-10-05,1,,,,,マークサービス,0
1129,4260002034529,登記記録の閉鎖等,0,2021-12-15,2021-12-14,有限会社郷原農産,,有限会社,岡山県,倉敷市,早高４７８番地,,33,202,7100022,,,2021-12-14,清算の結了等,,,2021-10-21,1,,,,,ゴウハラノウサン,0
1144,4340002021031,登記記録の閉鎖等,0,2021-12-15,2021-12-10,有限会社竹山クリーニング,,有限会社,鹿児島県,奄美市,名瀬小浜町２１番１４号,,46,222,8940006,,,2021-12-10,清算の結了等,,,2015-10-05,1,,,,,タケヤマクリーニング,0
1161,4430001062851,登記記録の閉鎖等,0,2021-12-15,2021-12-13,株式会社Ｋ．Ａ．Ｍ　ｒｉｃｈ　ｆｏｏｄｓ,,株式会社,北海道,札幌市西区,琴似一条７丁目１番３５号,,01,107,0630811,,,2021-12-13,清算の結了等,,,2015-10-05,1,,,,,カムリッチフーズ,0
1185,5010005024419,登記記録の閉鎖等,0,2021-12-15,2021-12-10,一般社団法人虎ノ門アセットリーシング,,その他の設立登記法人,東京都,千代田区,丸の内３丁目１番１号東京共同会計事務所内,,13,101,1000005,,,2021-12-10,清算の結了等,,,2015-10-05,1,,,,,トラノモンアセットリーシング,0
1188,5010103001757,登記記録の閉鎖等,0,2021-12-15,2021-12-13,合同会社ネオン,,合同会社,東京都,八王子市,北野町５６２番地１１フィカーサ北野２０３号,,13,201,1920906,,,2021-12-13,清算の結了等,,,2021-08-26,1,,,,,ネオン,0
1191,5010401125010,登記記録の閉鎖等,0,2021-12-15,2021-12-07,Ｃｙｌａｎｃｅ　Ｊａｐａｎ株式会社,,株式会社,東京都,港区,虎ノ門４丁目１番１７号神谷町プライムプレイス６階,,13,103,1050001,,,2021-12-07,清算の結了等,,,2016-05-24,1,,,,,サイランスジャパン,0
1222,5011001141447,登記記録の閉鎖等,0,2021-12-15,2021-12-02,株式会社ＫＡＫＡＲＡ,,株式会社,東京都,渋谷区,神宮前６丁目２３番４号桑野ビル２階,,13,113,1500001,,,2021-12-02,清算の結了等,,,2021-07-01,1,,,,,カカラ,0
1247,5012301008930,登記記録の閉鎖等,0,2021-12-15,2021-12-09,ウィーズグループ居宅調剤株式会社,,株式会社,神奈川県,横浜市港北区,新横浜２丁目５番１０号,,14,109,2220033,,,2021-12-09,合併による解散等,2180001083116,令和３年１２月１日愛知県一宮市八町通二丁目６番地１（１階）株式会社ウィーズ中部（2180001083116）に合併し解散,2015-10-05,1,,,,,ウィーズグループキョタクチョウザイ,0
1275,5030001092161,登記記録の閉鎖等,0,2021-12-15,2021-12-13,エム・ソーラーシステム株式会社,,株式会社,埼玉県,さいたま市緑区,原山２丁目３３番８号１－１１０,,11,109,3360931,,,2021-12-13,清算の結了等,,,2015-10-05,1,,,,,エムソーラーシステム,0
1282,5030002056743,登記記録の閉鎖等,0,2021-12-15,2021-12-10,有限会社アイ・ティー,,有限会社,埼玉県,北足立郡伊奈町,寿２丁目１８９番地,,11,301,3620807,,,2021-12-10,清算の結了等,,,2015-10-05,1,,,,,アイティー,0
1292,5040001063657,登記記録の閉鎖等,0,2021-12-15,2021-12-10,株式会社ハセックランド,,株式会社,千葉県,香取市,北３丁目１３番地２５号アリーナ１、３０３号室,,12,236,2870002,,,2021-12-10,清算の結了等,,,2015-10-05,1,,,,,ハッセックランド,0
1295,5040001110946,登記記録の閉鎖等,0,2021-12-15,2021-12-09,株式会社Ｓｐａｒｋ,,株式会社,千葉県,船橋市,東中山２丁目２番１３－２号,,12,204,2730036,,,2021-12-09,清算の結了等,,,2019-10-07,1,,,,,スパーク,0
1315,5080102000662,登記記録の閉鎖等,0,2021-12-15,2021-12-10,有限会社大久保産業,,有限会社,静岡県,沼津市,宮前町１番地の１０,,22,203,4100062,,,2021-12-10,清算の結了等,,,2015-10-05,1,,,,,オオクボサンギョウ,0
1316,5080403003397,登記記録の閉鎖等,0,2021-12-15,2021-12-10,合同会社エイトピークスジャパン,,合同会社,長野県,諏訪郡原村,原山１７２１７－２４３４、すずらん平８－２－７,,20,363,3910115,,,2021-12-10,清算の結了等,,,2017-02-08,1,,,,,エイトピークスジャパン,0
1318,5100001006972,登記記録の閉鎖等,0,2021-12-15,2021-12-10,ＺＥＲＯ株式会社,,株式会社,長野県,須坂市,大字小山２４６２番地１９,,20,207,3820000,,,2021-12-10,清算の結了等,,,2015-10-05,1,,,,,ゼロ,0
1321,5110001017886,登記記録の閉鎖等,0,2021-12-15,2021-12-09,株式会社ＣＡＰ,,株式会社,新潟県,柏崎市,北園町２２番５号,,15,205,9450072,,,2021-12-09,清算の結了等,,,2015-10-05,1,,,,,キャップ,0
1335,5120001165453,登記記録の閉鎖等,0,2021-12-15,2021-12-08,株式会社エム・エー・エス,,株式会社,大阪府,堺市中区,楢葉１７０－１－１１０３,,27,142,5998252,,,2021-12-08,清算の結了等,,,2015-10-05,1,,,,,エムエーエス,0
1345,5120005022378,登記記録の閉鎖等,0,2021-12-15,2021-12-14,ＳＨ土地家屋調査士法人,,その他の設立登記法人,大阪府,大阪市中央区,南船場１丁目３番２７号５Ｃ,,27,128,5420081,,,2021-12-14,清算の結了等,,,2021-07-14,1,,,,,,0
1348,5120102028154,登記記録の閉鎖等,0,2021-12-15,2021-12-09,有限会社エス・オー・エス,,有限会社,大阪府,泉南郡岬町,淡輪９１２番地３,,27,366,5990301,,,2021-12-09,清算の結了等,,,2015-10-05,1,,,,,エスオーエス,0
1359,5140001076087,登記記録の閉鎖等,0,2021-12-15,2021-12-07,株式会社エム・アイ・シー,,株式会社,兵庫県,加西市,坂元町１１９番地,,28,220,6752336,,,2021-12-07,清算の結了等,,,2015-10-05,1,,,,,エムアイシー,0
1360,5140001085492,登記記録の閉鎖等,0,2021-12-15,2021-12-10,株式会社アグリテック淡路,,株式会社,兵庫県,南あわじ市,八木養宜上７４番地,,28,224,6560443,,,2021-12-10,清算の結了等,,,2015-10-05,1,,,,,アグリテックアワジ,0
1363,5140002028624,登記記録の閉鎖等,0,2021-12-15,2021-12-13,有限会社Ｈ・Ｋ電設,,有限会社,兵庫県,明石市,本町２丁目５番３５号,,28,203,6730892,,,2021-12-13,清算の結了等,,,2015-10-05,1,,,,,エイチケーデンセツ,0
1376,5180003000644,登記記録の閉鎖等,0,2021-12-15,2021-12-10,合資会社遠藤商店,,合資会社,愛知県,名古屋市昭和区,川名町４丁目６７番地,,23,107,4660856,,,2021-12-10,清算の結了等,,,2015-10-05,1,,,,,エンドウショウテン,0
1382,5180302026340,登記記録の閉鎖等,0,2021-12-15,2021-12-14,有限会社清水鉄工,,有限会社,愛知県,西尾市,羽塚町新坂１０番地,,23,213,4440316,,,2021-12-14,清算の結了等,,,2015-10-05,1,,,,,,0
1386,5190002015080,登記記録の閉鎖等,0,2021-12-15,2021-12-06,有限会社ゼノア,,有限会社,三重県,多気郡多気町,五佐奈６７０番地,,24,441,5192157,,,2021-12-06,清算の結了等,,,2015-10-05,1,,,,,ゼノア,0
1398,5260001011552,登記記録の閉鎖等,0,2021-12-15,2021-12-14,株式会社エクセルプランニング,,株式会社,岡山県,岡山市中区,赤坂本町１２番２９号グレースセンチュリー赤坂９０３号,,33,102,7038288,,,2021-12-14,清算の結了等,,,2015-10-05,1,,,,,エクセルプランニング,0
1411,5320005001816,登記記録の閉鎖等,0,2021-12-15,2021-12-14,企業組合旬,,その他の設立登記法人,大分県,由布市,挾間町古野８２０番地１,,44,213,8795511,,,2021-12-14,清算の結了等,,,2015-10-05,1,,,,,シュン,0
1441,5490002001942,登記記録の閉鎖等,0,2021-12-15,2021-12-14,有限会社黒岩味好堂,,有限会社,高知県,高知市,神田４７５番１０,,39,201,7808040,,,2021-12-14,清算の結了等,,,2015-10-05,1,,,,,クロイワアジヨシドウ,0
1455,6010001013655,登記記録の閉鎖等,0,2021-12-15,2021-12-13,株式会社海馬書房,,株式会社,神奈川県,横浜市金沢区,能見台１丁目２３番地１９,,14,108,2360057,,,2021-12-13,清算の結了等,,,2015-10-05,1,,,,,カイバショボウ,0
1491,6010502005523,登記記録の閉鎖等,0,2021-12-15,2021-12-14,有限会社しょうたろう,,有限会社,東京都,台東区,今戸１丁目２２番８号,,13,106,1110024,,,2021-12-14,清算の結了等,,,2015-10-05,1,,,,,ショウタロウ,0
1494,6010602028416,登記記録の閉鎖等,0,2021-12-15,2021-12-09,有限会社鈴木商店,,有限会社,東京都,江東区,亀戸３丁目３１番６号,,13,108,1360071,,,2021-12-09,清算の結了等,,,2015-10-05,1,,,,,,0
1524,6011602006980,登記記録の閉鎖等,0,2021-12-15,2021-12-13,有限会社日正写真商会,,有限会社,東京都,練馬区,桜台２丁目２９－９,,13,120,1760002,,,2021-12-13,清算の結了等,,,2015-10-05,1,,,,,ニッショウシャシンショウカイ,0
1525,6011603003093,登記記録の閉鎖等,0,2021-12-15,2021-12-13,合同会社ＴＲＵＥ　ＨＥＡＲＴ．,,合同会社,東京都,練馬区,西大泉５丁目２５－４９,,13,120,1780065,,,2021-12-13,清算の結了等,,,2020-10-19,1,,,,,トゥルーハート,0
1543,6013301044782,登記記録の閉鎖等,0,2021-12-15,2021-12-03,株式会社モサクロ,,株式会社,東京都,渋谷区,代々木２丁目２３番１号ニューステートメナー８１８号室,,13,113,1510053,,,2021-12-03,清算の結了等,,,2019-11-15,1,,,,,モサクロ,0
1550,6020001067089,登記記録の閉鎖等,0,2021-12-15,2021-12-10,株式会社ミモリ建設,,株式会社,神奈川県,川崎市高津区,下作延３丁目１番８号,,14,134,2130033,,,2021-12-10,清算の結了等,,,2015-10-05,1,,,,,ミモリケンセツ,0
1567,6021002011993,登記記録の閉鎖等,0,2021-12-15,2021-12-13,有限会社フジ・プランニング,,有限会社,神奈川県,茅ヶ崎市,香川２丁目１７番１７号,,14,207,2530082,,,2021-12-13,清算の結了等,,,2015-10-05,1,,,,,フジプランニング,0
1572,6030001027455,登記記録の閉鎖等,0,2021-12-15,2021-12-10,株式会社アド・フォース,,株式会社,埼玉県,入間市,豊岡１丁目４番８号,,11,225,3580003,,,2021-12-10,清算の結了等,,,2015-10-05,1,,,,,アドフォース,0
1625,6080002017120,登記記録の閉鎖等,0,2021-12-15,2021-12-13,有限会社エフ・ティー・エム,,有限会社,静岡県,焼津市,與惣次５１番地,,22,212,4250000,,,2021-12-13,清算の結了等,,,2015-10-05,1,,,,,エフティーエム,0
1631,6080102004951,登記記録の閉鎖等,0,2021-12-15,2021-12-10,やへいた農園有限会社,,有限会社,静岡県,駿東郡長泉町,東野字八分平５１５番９１,,22,342,4110931,,,2021-12-10,清算の結了等,,,2015-10-05,1,,,,,ヤヘイタノウエン,0
1638,6100005012140,登記記録の閉鎖等,0,2021-12-15,2021-12-10,一般社団法人パワーストーンセラピー協会,,その他の設立登記法人,長野県,長野市,大字若槻東条１２１０番地２３,,20,201,3810084,,,2021-12-10,清算の結了等,,,2017-10-12,1,,,,,パワーストーンセラピーキョウカイ,0
1641,6110002015104,登記記録の閉鎖等,0,2021-12-15,2021-12-10,有限会社サンコー薬品,,有限会社,新潟県,新発田市,豊町４丁目３番４０号,,15,206,9570016,,,2021-12-10,清算の結了等,,,2015-10-05,1,,,,,サンコーヤクヒン,0
1657,6120901039326,登記記録の閉鎖等,0,2021-12-15,2021-12-13,株式会社ライーナ,,株式会社,大阪府,豊中市,緑丘４丁目１番３０－７２４号,,27,203,5600002,,,2021-12-13,清算の結了等,,,2017-12-15,1,,,,,ライーナ,0
1662,6130001037295,登記記録の閉鎖等,0,2021-12-15,2021-12-10,株式会社芝越設備,,株式会社,京都府,木津川市,加茂町里中森１番地,,26,214,6191152,,,2021-12-10,清算の結了等,,,2015-10-05,1,,,,,シバコシセツビ,0
1677,6140005013060,登記記録の閉鎖等,0,2021-12-15,2021-11-30,特定非営利活動法人つどい場みち,,その他の設立登記法人,兵庫県,尼崎市,戸ノ内町２丁目４番３号,,28,202,6610961,,,2021-11-30,清算の結了等,,,2015-10-05,1,,,,,ツドイバミチ,0
1686,6180001118025,登記記録の閉鎖等,0,2021-12-15,2021-12-08,株式会社Ｂ・ｓｅｌｅｃｔ,,株式会社,愛知県,海部郡大治町,大字長牧字中道１７２－１Ｃａｍｐａｎｉｌｌａ２０２,,23,424,4901131,,,2021-12-08,清算の結了等,,,2015-10-05,1,,,,,ビセレクト,0
1690,6180002078474,登記記録の閉鎖等,0,2021-12-15,2021-12-10,有限会社ラセーヌ,,有限会社,愛知県,一宮市,東五城字大平裏１６番地,,23,203,4940008,,,2021-12-10,清算の結了等,,,2015-10-05,1,,,,,ラセーヌ,0
1705,6200002000641,登記記録の閉鎖等,0,2021-12-15,2021-12-13,有限会社エヌケイアイ,,有限会社,岐阜県,岐阜市,千代田町１丁目２１番地の３,,21,201,5020832,,,2021-12-13,清算の結了等,,,2015-10-05,1,,,,,エヌケイアイ,0
1711,6240001043084,登記記録の閉鎖等,0,2021-12-15,2021-12-10,株式会社Ｙ＆Ｋシステムズ,,株式会社,広島県,広島市西区,中広町３丁目４番１０号,,34,104,7330012,,,2021-12-10,清算の結了等,,,2015-10-05,1,,,,,ワイアンドケーシステムズ,0
1717,6240005003514,登記記録の閉鎖等,0,2021-12-15,2021-12-14,公益財団法人メディックス・ハートサポート,,その他の設立登記法人,広島県,広島市中区,大手町１丁目６番２号,,34,101,7300051,,,2021-12-14,清算の結了等,,,2015-10-05,1,,,,,メディックスハートサポート,0
1734,6290801003274,登記記録の閉鎖等,0,2021-12-15,2021-12-10,株式会社プラスパー,,株式会社,福岡県,北九州市小倉北区,片野新町１丁目１１番１３号,,40,106,8020062,,,2021-12-10,清算の結了等,,,2015-10-05,1,,,,,プラスパー,0
1736,6290802024518,登記記録の閉鎖等,0,2021-12-15,2021-12-09,有限会社渡辺商事,,有限会社,福岡県,田川市,大字川宮１２００番地,,40,206,8260042,,,2021-12-09,清算の結了等,,,2015-10-05,1,,,,,ワタナベショウジ,0
1740,6330001018812,登記記録の閉鎖等,0,2021-12-15,2021-12-09,株式会社城北生コンクリート,,株式会社,熊本県,山鹿市,久原４２１１番地,,43,208,8610522,,,2021-12-09,清算の結了等,,,2015-10-05,1,,,,,ジョウホクナマコンクリート,0
1743,6350001004001,登記記録の閉鎖等,0,2021-12-15,2021-12-09,株式会社Ｔ商事,,株式会社,宮崎県,宮崎市,佐土原町下那珂２０６５番地１,,45,201,8800212,,,2021-12-09,清算の結了等,,,2015-10-05,1,,,,,ティーショウジ,0
1753,6380001006671,登記記録の閉鎖等,0,2021-12-15,2021-12-10,株式会社丸森,,株式会社,福島県,郡山市,富久山町久保田字梅田１０２番地,,07,203,9638071,,,2021-12-10,清算の結了等,,,2015-10-05,1,,,,,,0
1778,6470005005058,登記記録の閉鎖等,0,2021-12-15,2021-12-10,特定非営利活動法人遊,,その他の設立登記法人,香川県,小豆郡土庄町,肥土山甲１８０２番地３,,37,322,7614151,,,2021-12-10,清算の結了等,,,2015-10-05,1,,,,,ユウ,0
1801,7010001047223,登記記録の閉鎖等,0,2021-12-15,2021-12-09,ジヤパンフオアオーダー株式会社,,株式会社,東京都,中央区,銀座７丁目１２番４号友野本社ビル,,13,102,1040061,,,2021-12-09,清算の結了等,,,2015-10-05,1,,,,,ジャパンフォアオーダー,0
1812,7010002010543,登記記録の閉鎖等,0,2021-12-15,2021-12-13,白鶴販売有限会社,,有限会社,東京都,千代田区,内神田３丁目２１番５号,,13,101,1010047,,,2021-12-13,清算の結了等,,,2015-10-05,1,,,,,ハクツルハンバイ,0
1813,7010002044252,登記記録の閉鎖等,0,2021-12-15,2021-12-10,有限会社エムイーマネージメント,,有限会社,東京都,中央区,新川２丁目２５番１３－７０１号,,13,102,1040033,,,2021-12-10,清算の結了等,,,2015-10-05,1,,,,,エムイーマネージメント,0
1820,7010005023856,登記記録の閉鎖等,0,2021-12-15,2021-12-10,弁護士法人卯月法律事務所,,その他の設立登記法人,東京都,千代田区,岩本町２丁目１１番３号ＫＡＴＯビル３階,,13,101,1010032,,,2021-12-10,清算の結了等,,,2015-10-05,1,,,,,,0
1823,7010401032444,登記記録の閉鎖等,0,2021-12-15,2021-12-07,富貴酒販株式会社,,株式会社,東京都,港区,新橋２丁目９番８号,,13,103,1050004,,,2021-12-07,清算の結了等,,,2015-10-05,1,,,,,,0
1828,7010401151129,登記記録の閉鎖等,0,2021-12-15,2021-12-10,株式会社ｋｉｃｋｆｌｏｗ,,株式会社,神奈川県,横浜市金沢区,並木１丁目１６番６－４０４号,,14,108,2360005,,,2021-12-10,合併による解散等,6010001220433,令和３年１２月１日東京都千代田区九段南一丁目５番６号りそな九段ビル５Ｆ－ＫＳフロア株式会社ｋｉｃｋｆｌｏｗ（6010001220433）に合併し解散,2020-02-14,1,,,,,キックフロー,0
1832,7010405015890,登記記録の閉鎖等,0,2021-12-15,2021-12-08,一般社団法人仁愛会心理臨床センターこころの相談室,,その他の設立登記法人,東京都,港区,麻布十番１丁目２番７号ラフィネ麻布十番７０１号,,13,103,1060045,,,2021-12-08,清算の結了等,,,2017-07-11,1,,,,,ジンアイカイシンリリンショウセンターココロノソウダンシツ,0
1835,7010701020388,登記記録の閉鎖等,0,2021-12-15,2021-12-08,株式会社レナウンハートフルサポート,,株式会社,東京都,江東区,有明３丁目６番１１号ＴＦＴビル東館６階,,13,108,1350063,,,2021-12-08,清算の結了等,,,2015-10-05,1,,,,,レナウンハートフルサポート,0
1836,7010703003928,登記記録の閉鎖等,0,2021-12-15,2021-12-13,百合同会社,,合同会社,東京都,品川区,北品川５丁目５番１５号,,13,109,1410001,,,2021-12-13,清算の結了等,,,2017-11-09,1,,,,,,0
1840,7010802005081,登記記録の閉鎖等,0,2021-12-15,2021-12-09,有限会社小池商店,,有限会社,東京都,大田区,大森北４丁目３番３号,,13,111,1430016,,,2021-12-09,清算の結了等,,,2015-10-05,1,,,,,コイケショウテン,0
1844,7010902025104,登記記録の閉鎖等,0,2021-12-15,2021-12-10,有限会社ツジ・プランニング・オフィス,,有限会社,東京都,世田谷区,千歳台１丁目１８番５号,,13,112,1570071,,,2021-12-10,清算の結了等,,,2015-10-05,1,,,,,ツジプランニングオフィス,0
1882,7013401000833,登記記録の閉鎖等,0,2021-12-15,2021-12-10,株式会社アイザワ薬局,,株式会社,東京都,多摩市,諏訪５丁目８番地３,,13,224,2060024,,,2021-12-10,清算の結了等,,,2015-10-05,1,,,,,アイザワヤッキョク,0
1884,7020001078647,登記記録の閉鎖等,0,2021-12-15,2021-12-13,ウッドノート株式会社,,株式会社,神奈川県,横浜市青葉区,たちばな台１丁目１番２３,,14,117,2270046,,,2021-12-13,清算の結了等,,,2015-10-05,1,,,,,ウッドノート,0
1924,7070001025099,登記記録の閉鎖等,0,2021-12-15,2021-12-13,株式会社上州こだわり亭,,株式会社,群馬県,甘楽郡甘楽町,大字小幡２０４番地１,,10,384,3702202,,,2021-12-13,清算の結了等,,,2015-10-05,1,,,,,ジョウシュウコダワリテイ,0
1937,7100002022182,登記記録の閉鎖等,0,2021-12-15,2021-12-10,有限会社理涼,,有限会社,長野県,松本市,北深志２丁目５番１０号,,20,202,3900872,,,2021-12-10,清算の結了等,,,2015-10-05,1,,,,,リリョウ,0
1939,7110001027289,登記記録の閉鎖等,0,2021-12-15,2021-12-08,株式会社ＳＰＯＬＴ,,株式会社,新潟県,長岡市,石動町３３８番地６,,15,202,9402032,,,2021-12-08,合併による解散等,1110002030256,令和３年１１月２６日新潟県長岡市石動町３３８番地６株式会社スポルト（1110002030256）に合併し解散,2015-10-05,1,,,,,スポルト,0
1942,7110002022660,登記記録の閉鎖等,0,2021-12-15,2021-12-10,有限会社小平鉄工所,,有限会社,新潟県,上越市,大字安江５３番地４０,,15,222,9420041,,,2021-12-10,清算の結了等,,,2015-10-05,1,,,,,コダイラテッコウジョ,0
1945,7120001099105,登記記録の閉鎖等,0,2021-12-15,2021-12-09,株式会社オーエス・ジェイシー,,株式会社,大阪府,大阪市北区,豊崎２丁目５番５号シャルム北梅田５０１号室,,27,127,5310072,,,2021-12-09,清算の結了等,,,2015-10-05,1,,,,,オーエスジェイシー,0
1959,7120101031413,登記記録の閉鎖等,0,2021-12-15,2021-12-09,株式会社鳥勝,,株式会社,大阪府,南河内郡河南町,大字中９９４番地,,27,382,5850031,,,2021-12-09,清算の結了等,,,2015-10-05,1,,,,,トリカツ,0
1963,7120102001407,登記記録の閉鎖等,0,2021-12-15,2021-12-08,有限会社北野田興産,,有限会社,大阪府,堺市東区,北野田４４番地の５,,27,143,5998123,,,2021-12-08,清算の結了等,,,2015-10-05,1,,,,,キタノダコウサン,0
1968,7122005002119,登記記録の閉鎖等,0,2021-12-15,2021-12-13,山本南商店街振興組合,,その他の設立登記法人,大阪府,八尾市,山本町南１丁目６番２号,,27,212,5810013,,,2021-12-13,清算の結了等,,,2015-10-05,1,,,,,ヤマモトミナミ,0
1970,7130001052236,登記記録の閉鎖等,0,2021-12-15,2021-12-10,ドット京都インターネット株式会社,,株式会社,京都府,京都市下京区,寺町通高辻下る京極町４８８番地Ｍｏｒｅ河原町１号館２０１号,,26,106,6008035,,,2021-12-10,清算の結了等,,,2015-10-05,1,,,,,ドットキョウトインターネット,0
1982,7140005009149,登記記録の閉鎖等,0,2021-12-15,2021-12-13,医療法人社団山村耳鼻咽喉科医院,,その他の設立登記法人,兵庫県,加古川市,加古川町溝之口７７８番地,,28,210,6750064,,,2021-12-13,清算の結了等,,,2015-10-05,1,,,,,ヤマムラジビインコウカイイン,0
1990,7180001033157,登記記録の閉鎖等,0,2021-12-15,2021-12-10,諸戸林産株式会社,,株式会社,愛知県,名古屋市中村区,元中村町３丁目４４番地,,23,105,4530047,,,2021-12-10,清算の結了等,,,2015-10-05,1,,,,,モロトリンサン,0
1996,7180001122050,登記記録の閉鎖等,0,2021-12-15,2021-12-10,株式会社大進興業,,株式会社,愛知県,名古屋市港区,宝神３丁目１３０１バロワール宝神５０３,,23,111,4550832,,,2021-12-10,清算の結了等,,,2016-02-08,1,,,,,ダイシンコウギョウ,0
2003,7180002074480,登記記録の閉鎖等,0,2021-12-15,2021-12-10,有限会社藤原商店,,有限会社,愛知県,犬山市,大字犬山字東山下２番地の１,,23,215,4840081,,,2021-12-10,清算の結了等,,,2015-10-05,1,,,,,フジワラショウテン,0
2015,7200001015846,登記記録の閉鎖等,0,2021-12-15,2021-12-14,アイビー・グリーン株式会社,,株式会社,岐阜県,大垣市,河間町３丁目５５番地,,21,202,5030021,,,2021-12-14,清算の結了等,,,2015-10-05,1,,,,,アイビーグリーン,0
2019,7220001021149,登記記録の閉鎖等,0,2021-12-15,2021-12-03,大運物流株式会社,,株式会社,石川県,小松市,御館町乙４２番地２,,17,203,9230016,,,2021-12-03,清算の結了等,,,2016-08-02,1,,,,,ダイウンブツリュウ,0
2021,7230002014308,登記記録の閉鎖等,0,2021-12-15,2021-12-13,有限会社オアシスホーム,,有限会社,富山県,射水市,本江２３１６番地の２,,16,211,9330244,,,2021-12-13,清算の結了等,,,2015-10-05,1,,,,,オアシスホーム,0
2040,7320001010612,登記記録の閉鎖等,0,2021-12-15,2021-12-07,株式会社九重,,株式会社,大分県,玖珠郡九重町,大字野上１４番地の１,,44,461,8794802,,,2021-12-07,清算の結了等,,,2015-10-05,1,,,,,ココノエ,0
2041,7320001011024,登記記録の閉鎖等,0,2021-12-15,2021-12-14,株式会社マロックス,,株式会社,大分県,中津市,本耶馬渓町曽木１６４７番地１,,44,203,8710202,,,2021-12-14,清算の結了等,,,2015-10-05,1,,,,,マロックス,0
2045,7330001010306,登記記録の閉鎖等,0,2021-12-15,2021-12-10,株式会社服部建設,,株式会社,熊本県,山鹿市,方保田２３６番地の１,,43,208,8610382,,,2021-12-10,清算の結了等,,,2015-10-05,1,,,,,ハットリケンセツ,0
2051,7340003000849,登記記録の閉鎖等,0,2021-12-15,2021-12-10,合資会社里村商店,,合資会社,鹿児島県,大島郡徳之島町,亀徳６０番地１,,46,530,8917102,,,2021-12-10,清算の結了等,,,2015-10-05,1,,,,,サトムラショウテン,0
2053,7350001014148,登記記録の閉鎖等,0,2021-12-15,2021-12-10,株式会社宮崎ＳＵＮＳＵＮ,,株式会社,宮崎県,宮崎市,大字郡司分甲５７９７番地３,,45,201,8800924,,,2021-12-10,清算の結了等,,,2016-07-12,1,,,,,ミヤザキサンサン,0
2056,7360005002511,登記記録の閉鎖等,0,2021-12-15,2021-12-10,医療法人奈々和会,,その他の設立登記法人,沖縄県,浦添市,城間４丁目１８番２号,,47,208,9012133,,,2021-12-10,清算の結了等,,,2015-10-05,1,,,,,ナナワカイ,0
2062,7370302000811,登記記録の閉鎖等,0,2021-12-15,2021-12-09,有限会社木村電機商会,,有限会社,宮城県,牡鹿郡女川町,大原１２番地,,04,581,9862266,,,2021-12-09,清算の結了等,,,2015-10-05,1,,,,,キムラデンキショウカイ,0
2066,7380001002595,登記記録の閉鎖等,0,2021-12-15,2021-12-10,株式会社カネマン,,株式会社,福島県,伊達郡桑折町,大字上郡字仲丸４番地４,,07,301,9691661,,,2021-12-10,清算の結了等,,,2015-10-05,1,,,,,,0
2091,7480001008946,登記記録の閉鎖等,0,2021-12-15,2021-12-13,株式会社サンド貿易,,株式会社,徳島県,阿南市,橘町汐谷１０３番地,,36,204,7740023,,,2021-12-13,清算の結了等,,,2015-10-05,1,,,,,サンドボウエキ,0
2115,8010401150682,登記記録の閉鎖等,0,2021-12-15,2021-12-08,Ｅｇｇｐｌａｎｔ　Ｓｏｆｔｗａｒｅ株式会社,,株式会社,東京都,港区,麻布台３丁目４番２３号３ＦＪＭＣ株式会社内,,13,103,1060041,,,2021-12-08,清算の結了等,,,2020-01-28,1,,,,,エッグプラントソフトウェア,0
2139,8011001107370,登記記録の閉鎖等,0,2021-12-15,2021-12-08,株式会社ロイズコンチネンタル,,株式会社,東京都,豊島区,南池袋２丁目４９番７号池袋パークビル１階,,13,116,1710022,,,2021-12-08,清算の結了等,,,2015-10-05,1,,,,,ロイズコンチネンタル,0
2140,8011001125802,登記記録の閉鎖等,0,2021-12-15,2021-12-02,致椽建設株式会社,,株式会社,東京都,渋谷区,広尾１丁目３番１６号東陽ビル２０１号,,13,113,1500012,,,2021-12-02,清算の結了等,,,2019-01-07,1,,,,,チテンケンセツ,0
2169,8020002022917,登記記録の閉鎖等,0,2021-12-15,2021-12-10,有限会社ランド・ワークス,,有限会社,神奈川県,横浜市旭区,今川町４０番地１号,,14,112,2410033,,,2021-12-10,清算の結了等,,,2015-10-05,1,,,,,ランドワークス,0
2172,8020002102025,登記記録の閉鎖等,0,2021-12-15,2021-12-10,有限会社オークション・ネット,,有限会社,神奈川県,川崎市多摩区,三田１丁目２６番地３３,,14,135,2140034,,,2021-12-10,清算の結了等,,,2015-10-05,1,,,,,オークションネット,0
2184,8030001100813,登記記録の閉鎖等,0,2021-12-15,2021-12-13,株式会社ベスト行田,,株式会社,埼玉県,行田市,押上町１１番地１,,11,206,3610045,,,2021-12-13,清算の結了等,,,2015-10-05,1,,,,,ベストギョウダ,0
2191,8030002034176,登記記録の閉鎖等,0,2021-12-15,2021-12-10,有限会社日誠商事,,有限会社,埼玉県,狭山市,中央４丁目２６番８号,,11,215,3501308,,,2021-12-10,清算の結了等,,,2015-10-05,1,,,,,ニッセイショウジ,0
2193,8030003006091,登記記録の閉鎖等,0,2021-12-15,2021-12-13,めぐみ農場合同会社,,合同会社,埼玉県,川口市,芝２丁目１８番１７号,,11,203,3330866,,,2021-12-13,清算の結了等,,,2015-10-05,1,,,,,メグミノウジョウ,0
2204,8040002100134,登記記録の閉鎖等,0,2021-12-15,2021-12-13,有限会社ジューベイ,,有限会社,千葉県,南房総市,市部７１６番地７,,12,234,2992226,,,2021-12-13,清算の結了等,,,2015-10-05,1,,,,,ジューベイ,0
2227,8110002033987,登記記録の閉鎖等,0,2021-12-15,2021-12-10,有限会社ユメノーム,,有限会社,新潟県,魚沼市,和田２２５番地３,,15,225,9460109,,,2021-12-10,清算の結了等,,,2015-10-05,1,,,,,ユメノーム,0
2233,8120001077984,登記記録の閉鎖等,0,2021-12-15,2021-12-09,株式会社キャン・ドゥ,,株式会社,大阪府,枚方市,藤阪元町２丁目５０－２－１０４,,27,210,5730157,,,2021-12-09,清算の結了等,,,2015-10-05,1,,,,,キャンドゥ,0
2245,8120101022262,登記記録の閉鎖等,0,2021-12-15,2021-12-03,東洋興産株式会社,,株式会社,大阪府,堺市北区,常磐町３丁２０番地の３,,27,146,5918001,,,2021-12-03,清算の結了等,,,2015-10-05,1,,,,,トウヨウコウサン,0
2256,8130001042871,登記記録の閉鎖等,0,2021-12-15,2021-12-10,島尻株式会社,,株式会社,京都府,京丹後市,網野町生野内８０６番地,,26,212,6293134,,,2021-12-10,清算の結了等,,,2015-10-05,1,,,,,シマジリ,0
2257,8130001047482,登記記録の閉鎖等,0,2021-12-15,2021-12-10,株式会社ハッピープロジェクト,,株式会社,京都府,舞鶴市,字福来８７２－１,,26,202,6240905,,,2021-12-10,清算の結了等,,,2015-10-05,1,,,,,ハッピープロジェクト,0
2270,8180001006814,登記記録の閉鎖等,0,2021-12-15,2021-12-14,株式会社中京道路標識,,株式会社,愛知県,名古屋市港区,小碓４丁目１１１番地,,23,111,4550801,,,2021-12-14,清算の結了等,,,2015-10-05,1,,,,,チュウキョウドウロヒョウシキ,0
2306,8260002029228,登記記録の閉鎖等,0,2021-12-15,2021-12-13,有限会社ひまわり総合保険,,有限会社,岡山県,津山市,山下３５番地の４,,33,203,7080022,,,2021-12-13,清算の結了等,,,2015-10-05,1,,,,,ヒマワリソウゴウホケン,0
2311,8290002034448,登記記録の閉鎖等,0,2021-12-15,2021-12-08,有限会社吉田保険事務所,00093279,有限会社,福岡県,糟屋郡新宮町,桜山手３丁目１６番１７号,,40,345,8110113,,,2021-12-08,清算の結了等,,,2015-10-05,1,,,,,ヨシダホケンジムショ,0
2314,8290002055510,登記記録の閉鎖等,0,2021-12-15,2021-12-08,有限会社傳寿司,,有限会社,福岡県,大牟田市,大字歴木１８０７番地の１７６,,40,202,8370924,,,2021-12-08,清算の結了等,,,2015-10-05,1,,,,,デンズシ,0
2317,8290801021927,登記記録の閉鎖等,0,2021-12-15,2021-12-10,株式会社ＫＯＵＧＡ　ＦＵＫＵＯＫＡ,,株式会社,福岡県,糟屋郡須惠町,大字植木１４２８番地３,,40,344,8112112,,,2021-12-10,合併による解散等,1290001055971,令和３年１２月１日北九州市門司区新門司北二丁目１０番２号株式会社ＫＯＵＧＡ（1290001055971）に合併し解散,2015-10-05,1,,,,,コウガフクオカ,0
2368,8500002014221,登記記録の閉鎖等,0,2021-12-15,2021-12-01,有限会社白石自動車,,有限会社,愛媛県,西条市,大町２６６番地の２,,38,206,7930030,,,2021-12-01,清算の結了等,,,2015-10-05,1,,,,,シライシジドウシャ,0
2385,9010003026322,登記記録の閉鎖等,0,2021-12-15,2021-12-10,ＣＲ京町家４号合同会社,,合同会社,東京都,千代田区,大手町１丁目６番１号,,13,101,1000004,,,2021-12-10,清算の結了等,,,2017-10-26,1,,,,,シーアールキョウマチヤヨンゴウ,0
2401,9010502008465,登記記録の閉鎖等,0,2021-12-15,2021-12-10,有限会社仲田春光堂,,有限会社,東京都,台東区,台東３丁目４４番４号,,13,106,1100016,,,2021-12-10,清算の結了等,,,2015-10-05,1,,,,,ナカタシュンコウドウ,0
2407,9010801009437,登記記録の閉鎖等,0,2021-12-15,2021-12-09,株式會社日豐,,株式会社,東京都,大田区,中馬込２丁目２６番６号,,13,111,1430027,,,2021-12-09,清算の結了等,,,2015-10-05,1,,,,,,0
2412,9011001064990,登記記録の閉鎖等,0,2021-12-15,2021-12-07,ファイザー・ホールディングズ合同会社,,合同会社,東京都,渋谷区,代々木３丁目２２番７号,,13,113,1510053,,,2021-12-07,合併による解散等,1011001064627,令和３年１２月１日東京都港区虎ノ門五丁目１１番２号オランダヒルズ森タワーヴィアトリス製薬株式会社（1011001064627）に合併し解散,2015-10-05,1,,,,,ファイザーホールディングズ,0
2427,9011102000250,登記記録の閉鎖等,0,2021-12-15,2021-12-13,有限会社あずみ野設計,,有限会社,東京都,新宿区,西早稲田２丁目９番１６号,,13,104,1690051,,,2021-12-13,清算の結了等,,,2015-10-05,1,,,,,アズミノセッケイ,0
2440,9013202008198,登記記録の閉鎖等,0,2021-12-15,2021-12-02,有限会社目黒コミュニティー,,有限会社,東京都,目黒区,目黒１丁目３番１６－３０４号,,13,110,1530063,,,2021-12-02,清算の結了等,,,2015-10-05,1,,,,,メグロコミュニティー,0
2460,9030001128300,登記記録の閉鎖等,0,2021-12-15,2021-12-10,株式会社ボンズ,,株式会社,埼玉県,ふじみ野市,鶴ケ岡４丁目１５番３１号,,11,245,3560045,,,2021-12-10,清算の結了等,,,2018-11-19,1,,,,,ボンズ,0
2461,9030001131510,登記記録の閉鎖等,0,2021-12-15,2021-12-10,ＲＥＶＬＮＩ株式会社,,株式会社,埼玉県,川口市,元郷１丁目３－８クコーレ川口第五３２０号,,11,203,3320011,,,2021-12-10,清算の結了等,,,2019-06-18,1,,,,,レブルニ,0
2469,9030003005290,登記記録の閉鎖等,0,2021-12-15,2021-12-10,合同会社あめんぼ,,合同会社,埼玉県,鶴ヶ島市,大字中新田１１番地２０,,11,241,3502226,,,2021-12-10,清算の結了等,,,2015-10-05,1,,,,,アメンボ,0
2494,9080102000997,登記記録の閉鎖等,0,2021-12-15,2021-12-10,起源書庫記念館有限会社,,有限会社,静岡県,駿東郡長泉町,東野字八分平５１５番９１,,22,342,4110931,,,2021-12-10,清算の結了等,,,2015-10-05,1,,,,,キゲンショコキネンカン,0
2495,9080102004899,登記記録の閉鎖等,0,2021-12-15,2021-12-10,昭海企画有限会社,,有限会社,静岡県,裾野市,深良２４０番地の６,,22,220,4101102,,,2021-12-10,清算の結了等,,,2015-10-05,1,,,,,ショウカイキカク,0
2504,9110001019929,登記記録の閉鎖等,0,2021-12-15,2021-12-10,株式会社セラピ,,株式会社,新潟県,上越市,平成町５５４番地,,15,222,9430151,,,2021-12-10,清算の結了等,,,2015-10-05,1,,,,,セラピ,0
2507,9110002021181,登記記録の閉鎖等,0,2021-12-15,2021-12-10,有限会社北陸コーポレーション,,有限会社,新潟県,柏崎市,大字下田尻２２６０番地１,,15,205,9451345,,,2021-12-10,清算の結了等,,,2015-10-05,1,,,,,ホクリクコーポレーション,0
2508,9120001018368,登記記録の閉鎖等,0,2021-12-15,2021-12-09,浪速運輸株式会社,,株式会社,大阪府,大阪市生野区,勝山北３丁目８番２１号,,27,116,5440033,,,2021-12-09,清算の結了等,,,2015-10-05,1,,,,,ナニワウンユ,0
2512,9120001127730,登記記録の閉鎖等,0,2021-12-15,2021-12-07,株式会社セーフティ関西,,株式会社,奈良県,北葛城郡上牧町,桜ケ丘１丁目１９番地３,,29,424,6390202,,,2021-12-07,清算の結了等,,,2015-10-05,1,,,,,セーフティカンサイ,0
2524,9120902010596,登記記録の閉鎖等,0,2021-12-15,2021-12-13,有限会社谷ガス圧接,,有限会社,大阪府,高槻市,松川町４番５号,,27,207,5690023,,,2021-12-13,清算の結了等,,,2015-10-05,1,,,,,タニガスアッセツ,0
2529,9130001063867,登記記録の閉鎖等,0,2021-12-15,2021-12-13,株式会社オクダ工芸,,株式会社,京都府,京都市左京区,下鴨高木町３９番地４,,26,103,6060864,,,2021-12-13,清算の結了等,,,2019-02-06,1,,,,,オクダコウゲイ,0
2535,9140001009118,登記記録の閉鎖等,0,2021-12-15,2021-12-13,大洋住建株式会社,,株式会社,兵庫県,神戸市北区,中里町２丁目２番地の１、１４１号,,28,109,6511103,,,2021-12-13,清算の結了等,,,2015-10-05,1,,,,,タイヨウジュウケン,0
2565,9180301031214,登記記録の閉鎖等,0,2021-12-15,2021-12-13,イメージャー３７株式会社,,株式会社,愛知県,岡崎市,大和町字西六反６０番地１,,23,202,4440931,,,2021-12-13,清算の結了等,,,2018-02-15,1,,,,,イメージャーサンジュウナナ,0
2583,9240005010094,登記記録の閉鎖等,0,2021-12-15,2021-12-13,医療法人社団中村医院,,その他の設立登記法人,広島県,安芸郡府中町,本町３丁目４番１号,,34,302,7350006,,,2021-12-13,清算の結了等,,,2015-10-05,1,,,,,ナカムライイン,0
2585,9260001030144,登記記録の閉鎖等,0,2021-12-15,2021-12-14,株式会社ルーツ,,株式会社,岡山県,岡山市北区,下中野４７７‐６,,33,101,7000973,,,2021-12-14,清算の結了等,,,2016-11-08,1,,,,,ルーツ,0
2595,9290002010472,登記記録の閉鎖等,0,2021-12-15,2021-12-09,有限会社ギャラリー麻布,,有限会社,福岡県,福岡市中央区,赤坂２丁目１番１７号,,40,133,8100042,,,2021-12-09,清算の結了等,,,2015-10-05,1,,,,,ギャラリーアザブ,0
2596,9290002027921,登記記録の閉鎖等,0,2021-12-15,2021-12-10,有限会社アイ・アール・コンサルティング,,有限会社,福岡県,福岡市博多区,千代４丁目２９番４９号グローリー県庁前４０１,,40,132,8120044,,,2021-12-10,清算の結了等,,,2015-10-05,1,,,,,アイアールコンサルティング,0
2606,9310001017441,登記記録の閉鎖等,0,2021-12-15,2021-12-13,株式会社古都,,株式会社,長崎県,諫早市,久山町１９１０番地１０,,42,204,8540066,,,2021-12-13,清算の結了等,,,2021-09-01,1,,,,,コト,0
2617,9360001028624,登記記録の閉鎖等,0,2021-12-15,2021-12-10,農地所有適格法人株式会社みのりファーム,,株式会社,沖縄県,那覇市,曙２丁目２４番１３号,,47,201,9000002,,,2021-12-10,清算の結了等,,,2021-04-08,1,,,,,ミノリファーム,0
2640,9430001003909,登記記録の閉鎖等,0,2021-12-15,2021-12-13,株式会社カネサン山本建設,,株式会社,北海道,札幌市白石区,北郷五条５丁目５番４号,,01,104,0030835,,,2021-12-13,清算の結了等,,,2015-10-05,1,,,,,カネサンヤマモトケンセツ,0
2647,9430005004820,登記記録の閉鎖等,0,2021-12-15,2021-12-09,宗教法人聖心教会,,その他の設立登記法人,北海道,札幌市清田区,美しが丘二条７丁目７番３０号,,01,110,0040812,,,2021-12-09,清算の結了等,,,2015-10-05,1,,,,,セイシンキョウカイ,0
2658,9500002013965,登記記録の閉鎖等,0,2021-12-15,2021-12-13,有限会社伊予設備工業,,有限会社,愛媛県,西条市,禎瑞５１１番地,,38,206,7930061,,,2021-12-13,清算の結了等,,,2015-10-05,1,,,,,イヨセツビコウギョウ,0
