sequenceNumber,corporateNumber,process,correct,updateDate,changeDate,name,nameImageId,kind,prefectureName,cityName,streetNumber,addressImageId,prefectureCode,cityCode,postCode,addressOutside,addressOutsideImageId,closeDate,closeCause,successorCorporateNumber,changeCause,assignmentDate,latest,enName,enPrefectureName,enCityName,enAddressOutside,furigana,hihyoji
7,1010001227103,新規,0,2022-06-06,2022-06-06,株式会社ＭＰワークス,,株式会社,東京都,中央区,日本橋箱崎町１６－１東益ビル２階,,13,102,1030015,,,,,,,2022-06-06,1,,,,,エムピーワークス,0
10,1010003037814,新規,0,2022-06-06,2022-06-06,合同会社ＫＢＭＦ１,,合同会社,東京都,千代田区,内幸町２丁目１番６号,,13,101,1000011,,,,,,,2022-06-06,1,,,,,ケイビーエムエフワン,0
22,1010401167725,新規,0,2022-06-06,2022-06-06,株式会社ひのきコンサルティング,,株式会社,東京都,港区,浜松町２丁目２番１５号浜松町ダイヤビル２Ｆ,,13,103,1050013,,,,,,,2022-06-06,1,,,,,ヒノキコンサルティング,0
25,1010405021044,新規,0,2022-06-06,2022-06-06,ＵＬＩ　Ｊａｐａｎサービス一般社団法人,,その他の設立登記法人,東京都,港区,赤坂１丁目４番８号一光赤坂ビル４階,,13,103,1070052,,,,,,,2022-06-06,1,,,,,ユーエルアイジャパンサービス,0
26,1010405021052,新規,0,2022-06-06,2022-06-06,特定目的会社ベンチャーＧ,,その他の設立登記法人,東京都,港区,虎ノ門３丁目２２番１０－２０１号,,13,103,1050001,,,,,,,2022-06-06,1,,,,,ベンチャージー,0
32,1010701042743,新規,0,2022-06-06,2022-06-06,花火ギャラリー株式会社,,株式会社,東京都,品川区,北品川５丁目５番１５号,,13,109,1410001,,,,,,,2022-06-06,1,,,,,ハナビギャラリー,0
36,1010803004187,新規,0,2022-06-06,2022-06-06,みりょう合同会社,,合同会社,東京都,大田区,田園調布２丁目３８番８号,,13,111,1450071,,,,,,,2022-06-06,1,,,,,ミリョウ,0
37,1010901050975,新規,0,2022-06-06,2022-06-06,株式会社キャメルワークス,,株式会社,東京都,世田谷区,岡本３丁目３０番４号,,13,112,1570076,,,,,,,2022-06-06,1,,,,,キャメルワークス,0
38,1010901050983,新規,0,2022-06-06,2022-06-06,ｌｉｆｅｈａｃｋ株式会社,,株式会社,東京都,世田谷区,弦巻３丁目１３番２９－１０１号,,13,112,1540016,,,,,,,2022-06-06,1,,,,,ライフハック,0
39,1010903007420,新規,0,2022-06-06,2022-06-06,合同会社Ｋ‐Ｊ,,合同会社,東京都,世田谷区,桜丘５丁目３５番５号ビーフラット１０２,,13,112,1560054,,,,,,,2022-06-06,1,,,,,ケージェイ,0
49,1011001147919,新規,0,2022-06-06,2022-06-06,株式会社ミライ・エステート,,株式会社,東京都,渋谷区,東３丁目１５番２６号シャトレ恵比寿１００２,,13,113,1500011,,,,,,,2022-06-06,1,,,,,ミライエステート,0
50,1011001147935,新規,0,2022-06-06,2022-06-06,ミュトス株式会社,,株式会社,東京都,目黒区,下目黒２丁目２１番１５－１００４号ライオンズプラザ目黒,,13,110,1530064,,,,,,,2022-06-06,1,,,,,ミュトス,0
51,1011005009594,新規,0,2022-06-06,2022-06-06,一般社団法人予防・健康協会,,その他の設立登記法人,東京都,渋谷区,代々木２丁目６番７号,,13,113,1510053,,,,,,,2022-06-06,1,,,,,ヨボウケンコウキョウカイ,0
54,1011101099085,新規,0,2022-06-06,2022-06-06,株式会社バンダイナムコエイセス,,株式会社,東京都,新宿区,新宿５丁目１５番５号,,13,104,1600022,,,,,,,2022-06-06,1,,,,,バンダイナムコエイセス,0
55,1011103011816,新規,0,2022-06-06,2022-06-06,ＳｅｃｒｅｔＬｅｍｏｎ合同会社,,合同会社,東京都,新宿区,早稲田鶴巻町５４５－１０、２Ｆ,,13,104,1620041,,,,,,,2022-06-06,1,,,,,シークレットレモン,0
60,1011501028098,新規,0,2022-06-06,2022-06-06,株式会社日澤,,株式会社,東京都,北区,東田端２丁目９番１７号,,13,117,1140013,,,,,,,2022-06-06,1,,,,,ヒザワ,0
62,1011601026002,新規,0,2022-06-06,2022-06-06,アクアテイク株式会社,,株式会社,東京都,練馬区,平和台３丁目３番８号,,13,120,1790083,,,,,,,2022-06-06,1,,,,,アクアテイク,0
71,1011801040793,新規,0,2022-06-06,2022-06-06,タヌキカク株式会社,,株式会社,東京都,足立区,千住仲町二丁目３番ハマノ第一ビル５階,,13,121,1200036,,,,,,,2022-06-06,1,,,,,タヌキカク,0
75,1013101008934,新規,0,2022-06-06,2022-06-06,株式会社小林企画,,株式会社,東京都,羽村市,羽東３丁目１番１６号,,13,227,2050014,,,,,,,2022-06-06,1,,,,,コバヤシキカク,0
79,1020001146756,新規,0,2022-06-06,2022-06-06,株式会社栄匠,,株式会社,神奈川県,横浜市港北区,新横浜１丁目１９番地３,,14,109,2220033,,,,,,,2022-06-06,1,,,,,エイショウ,0
80,1020001146772,新規,0,2022-06-06,2022-06-06,株式会社ベイヒルズマネジメント,,株式会社,神奈川県,横浜市神奈川区,栄町１番地１,,14,102,2210052,,,,,,,2022-06-06,1,,,,,ベイヒルズマネジメント,0
88,1021001076126,新規,0,2022-06-06,2022-06-06,株式会社ＹＭコーポレーション,,株式会社,神奈川県,相模原市中央区,小山２丁目１０番１４号,,14,152,2520205,,,,,,,2022-06-06,1,,,,,ワイエムコーポレーション,0
89,1021001076159,新規,0,2022-06-06,2022-06-06,株式会社ＫＡＣ,,株式会社,神奈川県,横須賀市,長井３丁目１２番８号,,14,201,2380316,,,,,,,2022-06-06,1,,,,,ケーエーシー,0
95,1030001148438,新規,0,2022-06-06,2022-06-06,Ｆｕｓｈｉｍｉｙａ株式会社,,株式会社,埼玉県,北葛飾郡杉戸町,清地１丁目６番２８号,,11,464,3450025,,,,,,,2022-06-06,1,,,,,フシミヤ,0
96,1030001148487,新規,0,2022-06-06,2022-06-06,株式会社平野工業,,株式会社,埼玉県,春日部市,一ノ割１３３８番地３,,11,214,3440031,,,,,,,2022-06-06,1,,,,,ヒラノコウギョウ,0
97,1030001148504,新規,0,2022-06-06,2022-06-06,株式会社日本水道センター埼玉南,,株式会社,埼玉県,三郷市,戸ケ崎２丁目５３６番地レイフ三郷３０１,,11,237,3410044,,,,,,,2022-06-06,1,,,,,ニホンスイドウセンターサイタマミナミ,0
98,1030001148545,新規,0,2022-06-06,2022-06-06,株式会社ＰＡＳＵＰＡＴＩ　ＣＯＲＰＯＲＡＴＩＯＮ,,株式会社,埼玉県,本庄市,本庄３丁目７番４７号,,11,211,3670051,,,,,,,2022-06-06,1,,,,,,0
102,1030003019521,新規,0,2022-06-06,2022-06-06,合同会社Ｔ＆Ａ,,合同会社,埼玉県,行田市,持田３丁目２４番１６号,,11,206,3610056,,,,,,,2022-06-06,1,,,,,ティアンドエー,0
103,1030003019538,新規,0,2022-06-06,2022-06-06,合同会社菊池電気,,合同会社,埼玉県,上尾市,大字大谷本郷１５０番地９,,11,219,3620044,,,,,,,2022-06-06,1,,,,,キクチデンキ,0
104,1030005020881,新規,0,2022-06-06,2022-06-06,一般社団法人エスポアール,,その他の設立登記法人,埼玉県,川口市,北原台１丁目１５番地８,,11,203,3330815,,,,,,,2022-06-06,1,,,,,エスポアール,0
106,1040001123670,新規,0,2022-06-06,2022-06-06,株式会社ワイルドライフ・クリエイト,,株式会社,千葉県,茂原市,立木１１６５番地１１,,12,210,2970043,,,,,,,2022-06-06,1,,,,,ワイルドライフクリエイト,0
107,1040001123737,新規,0,2022-06-06,2022-06-06,住まいるＣＡＳＡ株式会社,,株式会社,千葉県,佐倉市,上志津１７９７番地２０,,12,212,2850846,,,,,,,2022-06-06,1,,,,,スマイルカーサ,0
108,1040003020107,新規,0,2022-06-06,2022-06-06,合同会社ｖａｍｏｓ．,,合同会社,千葉県,四街道市,もねの里１丁目７番１２号,,12,228,2840016,,,,,,,2022-06-06,1,,,,,シャバモス,0
109,1040003020180,新規,0,2022-06-06,2022-06-06,合同会社房総技術研究所,,合同会社,千葉県,富津市,笹毛７４１番地,,12,226,2930055,,,,,,,2022-06-06,1,,,,,ボウソウギジュツケンキュウショ,0
113,1050001051193,新規,0,2022-06-06,2022-06-06,株式会社ＭＯＭ．ＮＥＸＴ,,株式会社,茨城県,神栖市,平泉９０３番地１７８プリムヴェールＩ,00126768,08,232,3140146,,,,,,,2022-06-06,1,,,,,モムネクスト,0
119,1070001039294,新規,0,2022-06-06,2022-06-06,株式会社プロアクティブ,,株式会社,群馬県,吾妻郡草津町,大字草津２２６番地６８,,10,426,3771711,,,,,,,2022-06-06,1,,,,,プロアクティブ,0
123,1080003002811,新規,0,2022-06-06,2022-06-06,ＫＭＳフードサービス合同会社,,合同会社,静岡県,静岡市清水区,梅田町１３番２６号,,22,103,4240948,,,,,,,2022-06-06,1,,,,,ケイエムエスフードサービス,0
125,1080403004556,新規,0,2022-06-06,2022-06-06,合同会社ＹＯＬＯ,,合同会社,静岡県,浜松市南区,瓜内町５８３番地の１ティエドＩＩＯＡ－２０２,,22,134,4300854,,,,,,,2022-06-06,1,,,,,ヨロ,0
127,1100001035406,新規,0,2022-06-06,2022-06-06,株式会社アシュリップ,,株式会社,長野県,松本市,寿北６丁目３４番１６号,,20,202,3990011,,,,,,,2022-06-06,1,,,,,アシュリップ,0
142,1120001246307,新規,0,2022-06-06,2022-06-06,株式会社セレネフ,,株式会社,大阪府,大阪市北区,梅田１丁目１１番４号大阪駅前第４ビル９階９２３－１６３６号,,27,127,5300001,,,,,,,2022-06-06,1,,,,,セレネフ,0
143,1120001246315,新規,0,2022-06-06,2022-06-06,株式会社ＳＵＮ,,株式会社,大阪府,大阪市中央区,上本町西２丁目４番１７号,,27,128,5420062,,,,,,,2022-06-06,1,,,,,サン,0
144,1120001246356,新規,0,2022-06-06,2022-06-06,株式会社Ｄｅｅｒ　Ａｇｅｎｔ,,株式会社,大阪府,大阪市淀川区,西中島５丁目１３番１４号６Ｆ,,27,123,5320011,,,,,,,2022-06-06,1,,,,,ディアーエージェント,0
145,1120001246372,新規,0,2022-06-06,2022-06-06,株式会社ｍｏｎ　ａｍｉ,,株式会社,大阪府,守口市,八雲東町２丁目７４番２５－１０１号,,27,209,5700021,,,,,,,2022-06-06,1,,,,,モンアミ,0
146,1120001246414,新規,0,2022-06-06,2022-06-06,ＡＸＩＡ　Ｍａｒｋｅｔｉｎｇ株式会社,,株式会社,大阪府,大阪市西区,南堀江３丁目９番１４－７０２号,,27,106,5500015,,,,,,,2022-06-06,1,,,,,アクシアマーケティング,0
147,1120001246422,新規,0,2022-06-06,2022-06-06,株式会社ＴＡＫＵＭＵ,,株式会社,大阪府,大阪市東成区,神路２丁目９番１４号,,27,115,5370003,,,,,,,2022-06-06,1,,,,,タクム,0
148,1120001246430,新規,0,2022-06-06,2022-06-06,大阪北摂不動産株式会社,,株式会社,大阪府,大阪市淀川区,十八条３丁目５番２０号,,27,123,5320001,,,,,,,2022-06-06,1,,,,,オオサカホクセツフドウサン,0
149,1120001246447,新規,0,2022-06-06,2022-06-06,株式会社パステック,,株式会社,大阪府,大阪市中央区,久太郎町４丁目１番３号大阪センタービル６階,,27,128,5410056,,,,,,,2022-06-06,1,,,,,パステック,0
153,1120003021807,新規,0,2022-06-06,2022-06-06,合同会社Ｌｉｎｋ,,合同会社,大阪府,大阪市東淀川区,淡路５丁目１６番２５－４０２号,,27,114,5330032,,,,,,,2022-06-06,1,,,,,リンク,0
154,1120003021823,新規,0,2022-06-06,2022-06-06,合同会社Ｐｏｗｅｒ　Ｌａｂ．,,合同会社,大阪府,大阪市淀川区,東三国１丁目２番１－６１３号,,27,123,5320002,,,,,,,2022-06-06,1,,,,,パワーラボ,0
155,1120003021831,新規,0,2022-06-06,2022-06-06,合同会社アネット,,合同会社,大阪府,大阪市東成区,神路４丁目６番１９号スペーシア新深江６０１号,,27,115,5370003,,,,,,,2022-06-06,1,,,,,アネット,0
156,1120005022976,新規,0,2022-06-06,2022-06-06,弁護士法人あさひパートナーズ法律事務所,,その他の設立登記法人,大阪府,大阪市中央区,北浜２丁目１番５号平和不動産北浜ビル４階,,27,128,5410041,,,,,,,2022-06-06,1,,,,,アサヒパートナーズホウリツジムショ,0
157,1120101065680,新規,0,2022-06-06,2022-06-06,株式会社ＯＴＫ,,株式会社,大阪府,和泉市,府中町４丁目２１番１９号,,27,219,5940071,,,,,,,2022-06-06,1,,,,,オーティーケー,0
160,1120901046054,新規,0,2022-06-06,2022-06-06,株式会社サニーリンクス,,株式会社,大阪府,豊中市,上新田１丁目１６番５の３号,,27,203,5600085,,,,,,,2022-06-06,1,,,,,サニーリンクス,0
161,1120903004175,新規,0,2022-06-06,2022-06-06,合同会社あゆみ,,合同会社,大阪府,茨木市,山手台新町２丁目１６番８号,,27,211,5670010,,,,,,,2022-06-06,1,,,,,アユミ,0
163,1130001071910,新規,0,2022-06-06,2022-06-06,株式会社３９,,株式会社,京都府,京都市右京区,太秦森ケ東町３０番地２,,26,108,6168102,,,,,,,2022-06-06,1,,,,,サンキュー,0
168,1140001126218,新規,0,2022-06-06,2022-06-06,株式会社Ｎｏｉｒ,,株式会社,兵庫県,宝塚市,中山桜台２丁目２１番１号,,28,214,6650877,,,,,,,2022-06-06,1,,,,,ノワール,0
171,1140003017753,新規,0,2022-06-06,2022-06-06,神戸ハナノキ合同会社,,合同会社,兵庫県,神戸市中央区,三宮町２丁目８番８号,,28,110,6500021,,,,,,,2022-06-06,1,,,,,コウベハナノキ,0
179,1150001025600,新規,0,2022-06-06,2022-06-06,株式会社谷田電気,,株式会社,奈良県,奈良市,杏町８４番地７,,29,201,6308454,,,,,,,2022-06-06,1,,,,,タニダデンキ,0
184,1160001024254,新規,0,2022-06-06,2022-06-06,株式会社ゆうメディカル,,株式会社,滋賀県,守山市,播磨田町１１０番地１,,25,207,5240012,,,,,,,2022-06-06,1,,,,,ユウメディカル,0
199,1180001151550,新規,0,2022-06-06,2022-06-06,山田電工株式会社,,株式会社,愛知県,名古屋市中川区,東春田１丁目７５番地,,23,110,4540983,,,,,,,2022-06-06,1,,,,,ヤマダデンコウ,0
200,1180001151567,新規,0,2022-06-06,2022-06-06,株式会社柘植板金,,株式会社,愛知県,丹羽郡大口町,二ツ屋１丁目８６番地１,,23,361,4800123,,,,,,,2022-06-06,1,,,,,ツゲバンキン,0
201,1180001151575,新規,0,2022-06-06,2022-06-06,株式会社Ｈｉ　ＰＬＡＮ,,株式会社,愛知県,名古屋市名東区,梅森坂西２丁目２１９番地,,23,115,4650066,,,,,,,2022-06-06,1,,,,,ハイプラン,0
202,1180001151583,新規,0,2022-06-06,2022-06-06,株式会社中日ＫＵＢＡＲＵ,,株式会社,愛知県,名古屋市中区,栄４丁目１４番５号松下中日ビル５階,,23,106,4600008,,,,,,,2022-06-06,1,,,,,チュウニチクバル,0
203,1180001151600,新規,0,2022-06-06,2022-06-06,株式会社シュウエイグループ,,株式会社,愛知県,東海市,名和町後酉１９番地,,23,222,4760002,,,,,,,2022-06-06,1,,,,,シュウエイグループ,0
204,1180001151609,新規,0,2022-06-06,2022-06-06,名古屋空調エンジニアリング株式会社,,株式会社,愛知県,あま市,七宝町鷹居１丁目９番地２,,23,237,4970014,,,,,,,2022-06-06,1,,,,,ナゴヤクウチョウエンジニアリング,0
212,1180003023871,新規,0,2022-06-06,2022-06-06,合同会社人と場所,,合同会社,愛知県,半田市,白山町３丁目１８－４,,23,205,4750912,,,,,,,2022-06-06,1,,,,,ヒトトバショ,0
216,1190001029473,新規,0,2022-06-06,2022-06-06,株式会社アージュ,,株式会社,三重県,四日市市,笹川６丁目１２番地,,24,202,5100944,,,,,,,2022-06-06,1,,,,,アージュ,0
217,1190003004004,新規,0,2022-06-06,2022-06-06,合同会社ＳＵＤＡＣＨＩ,,合同会社,三重県,桑名市,大字西方８４０番地３０,,24,205,5110864,,,,,,,2022-06-06,1,,,,,スダチ,0
219,1200001040123,新規,0,2022-06-06,2022-06-06,株式会社ＲＴＣトレーデング,,株式会社,岐阜県,不破郡垂井町,宮代５５５番地１コスモハイツＢ－１０３,,21,361,5032124,,,,,,,2022-06-06,1,,,,,アールティーシートレーデング,0
220,1200001040131,新規,0,2022-06-06,2022-06-06,株式会社ミライエファッション研究所,,株式会社,岐阜県,岐阜市,鹿島町１丁目１０番地加藤第２ビル４階,,21,201,5008323,,,,,,,2022-06-06,1,,,,,ミライエファッションケンキュウジョ,0
223,1230001019395,新規,0,2022-06-06,2022-06-06,株式会社能作ホールディングス,,株式会社,富山県,高岡市,オフィスパーク８番地１,,16,202,9391119,,,,,,,2022-06-06,1,,,,,ノウサクホールディングス,0
230,1240005015407,新規,0,2022-06-06,2022-06-06,一般社団法人協働舎,,その他の設立登記法人,広島県,広島市東区,山根町２５番１３－１２０４号,,34,102,7320048,,,,,,,2022-06-06,1,,,,,キョウドウシャ,0
235,1260001036900,新規,0,2022-06-06,2022-06-06,ＫＳＣ株式会社,,株式会社,岡山県,瀬戸内市,長船町服部２８１番地１２,,33,212,7014276,,,,,,,2022-06-06,1,,,,,ケイエスシー,0
245,1290803004135,新規,0,2022-06-06,2022-06-06,冨士屋合同会社,,合同会社,福岡県,北九州市若松区,深町１丁目７－９,,40,103,8080012,,,,,,,2022-06-06,1,,,,,フジヤ,0
256,1370003005719,新規,0,2022-06-06,2022-06-06,合同会社ムカエノ家,,合同会社,宮城県,富谷市,富谷新町９５トミプラ２階,,04,216,9813311,,,,,,,2022-06-06,1,,,,,ムカエノイエ,0
264,1410003003668,新規,0,2022-06-06,2022-06-06,合同会社Ｎａｔｕｒａｌ＆Ｌｉｆｅ,,合同会社,秋田県,秋田市,千秋明徳町１番５６号３‐３,,05,201,0100875,,,,,,,2022-06-06,1,,,,,ナチュラルアンドライフ,0
272,1430001086754,新規,0,2022-06-06,2022-06-06,株式会社ＦＲＡＭＥ　ＡＳＳＥＴ　ＭＡＮＡＧＥＭＥＮＴ,,株式会社,北海道,虻田郡倶知安町,字岩尾別３２８番地４７パークハイアットニセコＨＡＮＡＺＯＮＯレジデンスｂ－２１２,,01,400,0440082,,,,,,,2022-06-06,1,,,,,フレイムアセットマネジメント,0
273,1430001086770,新規,0,2022-06-06,2022-06-06,株式会社ｂｏｗ　ｋｎｏｔ,,株式会社,北海道,札幌市手稲区,曙七条３丁目５番１４号,,01,109,0060837,,,,,,,2022-06-06,1,,,,,ボウノット,0
283,1470001019108,新規,0,2022-06-06,2022-06-06,株式会社ａｃｃｈａ,,株式会社,香川県,観音寺市,出作町１１６６番地,,37,205,7680011,,,,,,,2022-06-06,1,,,,,アチャ,0
294,2010001227093,新規,0,2022-06-06,2022-06-06,株式会社ＰＦＣ,,株式会社,東京都,千代田区,神田佐久間町１丁目１４番地,,13,101,1010025,,,,,,,2022-06-06,1,,,,,ピーエフシー,0
309,2010401167633,新規,0,2022-06-06,2022-06-06,株式会社障害福祉イノベーション,,株式会社,東京都,港区,六本木７丁目１５番１０号５Ｆ,,13,103,1060032,,,,,,,2022-06-06,1,,,,,ショウガイフクシイノベーション,0
310,2010401167732,新規,0,2022-06-06,2022-06-06,アルーフホーム株式会社,,株式会社,東京都,港区,南青山４丁目９番６号,,13,103,1070062,,,,,,,2022-06-06,1,,,,,アルーフホーム,0
322,2010603009567,新規,0,2022-06-06,2022-06-06,合同会社クリアリバー,,合同会社,東京都,江東区,白河４丁目９番２５－２２０１号,,13,108,1350021,,,,,,,2022-06-06,1,,,,,クリアリバー,0
325,2010903007411,新規,0,2022-06-06,2022-06-06,ネクストステップ合同会社,,合同会社,東京都,世田谷区,桜新町１丁目３８―１１,,13,112,1540015,,,,,,,2022-06-06,1,,,,,ネクストステップ,0
329,2011001147686,新規,0,2022-06-06,2022-06-06,株式会社Ｖ　Ｈｏｌｄｉｎｇｓ,,株式会社,東京都,渋谷区,神宮前５丁目１番７号,,13,113,1500001,,,,,,,2022-06-06,1,,,,,ブイホールディングス,0
330,2011001147918,新規,0,2022-06-06,2022-06-06,株式会社Ｏｈｋｕｒａ,,株式会社,東京都,渋谷区,渋谷２丁目１番１号,,13,113,1500002,,,,,,,2022-06-06,1,,,,,オークラ,0
331,2011001147950,新規,0,2022-06-06,2022-06-06,株式会社ａｎｄｂｅａｕｔｉｆｕｌ,,株式会社,東京都,渋谷区,東３丁目１４番２２号,,13,113,1500011,,,,,,,2022-06-06,1,,,,,アンドビューティフル,0
345,2011101099076,新規,0,2022-06-06,2022-06-06,株式会社湯気,,株式会社,東京都,新宿区,払方町９番地９ＡＲＫＨＯＵＳＥ市ヶ谷払方町１０１号室,,13,104,1620841,,,,,,,2022-06-06,1,,,,,ユゲ,0
360,2011701025357,新規,0,2022-06-06,2022-06-06,ＪＣＹ国際商事株式会社,,株式会社,東京都,江戸川区,西葛西３丁目１５－９,,13,123,1340088,,,,,,,2022-06-06,1,,,,,ジェイシーワイコクサイショウジ,0
363,2012401039267,新規,0,2022-06-06,2022-06-06,株式会社ヒューマンアセッツサービス,,株式会社,東京都,府中市,南町５丁目３８番地の３,,13,206,1830026,,,,,,,2022-06-06,1,,,,,ヒューマンアセッツサービス,0
374,2020001146805,新規,0,2022-06-06,2022-06-06,株式会社ファインエステート,,株式会社,神奈川県,横浜市中区,不老町１丁目４番４号丸萬ビル４０３号,,14,104,2310032,,,,,,,2022-06-06,1,,,,,ファインエステート,0
377,2020003021873,新規,0,2022-06-06,2022-06-06,合同会社アークセイバー,,合同会社,神奈川県,川崎市川崎区,大師駅前１丁目１６番７－１１０５号,,14,131,2100802,,,,,,,2022-06-06,1,,,,,アークセイバー,0
382,2021001076125,新規,0,2022-06-06,2022-06-06,株式会社アイザワオート,,株式会社,神奈川県,横須賀市,武１丁目２５番１３号,,14,201,2380313,,,,,,,2022-06-06,1,,,,,アイザワオート,0
383,2021001076141,新規,0,2022-06-06,2022-06-06,株式会社ケイワイプラス,,株式会社,神奈川県,鎌倉市,材木座４丁目４番３４－２号,,14,204,2480013,,,,,,,2022-06-06,1,,,,,ケイワイプラス,0
384,2021001076158,新規,0,2022-06-06,2022-06-06,リア・テクノス株式会社,,株式会社,神奈川県,逗子市,池子３丁目３番９号,,14,208,2490003,,,,,,,2022-06-06,1,,,,,リアテクノス,0
385,2021001076166,新規,0,2022-06-06,2022-06-06,株式会社松栄,,株式会社,神奈川県,秦野市,渋沢上２丁目８番４７号,,14,211,2591326,,,,,,,2022-06-06,1,,,,,ショウエイ,0
388,2021003011781,新規,0,2022-06-06,2022-06-06,葉山ＳＷＥＥＴ　ＴＯＯＴＨ合同会社,,合同会社,神奈川県,三浦郡葉山町,堀内８９０番地,,14,301,2400112,,,,,,,2022-06-06,1,,,,,ハヤマスウィートトゥース,0
395,2030001148437,新規,0,2022-06-06,2022-06-06,りぼん株式会社,,株式会社,埼玉県,春日部市,緑町２丁目６番１１号,,11,214,3440063,,,,,,,2022-06-06,1,,,,,リボン,0
396,2030001148486,新規,0,2022-06-06,2022-06-06,株式会社ＳＫ　ｆｏｒ　Ｃ,,株式会社,埼玉県,さいたま市大宮区,天沼町２丁目９０６番地１,,11,103,3300834,,,,,,,2022-06-06,1,,,,,エスケーフォーシー,0
397,2030001148528,新規,0,2022-06-06,2022-06-06,株式会社雷電工,,株式会社,埼玉県,飯能市,大字中山４０１番地５５,,11,209,3570006,,,,,,,2022-06-06,1,,,,,ライデンコウ,0
398,2030001148536,新規,0,2022-06-06,2022-06-06,Ｆｉｘ株式会社,,株式会社,埼玉県,行田市,大字馬見塚３３４番地,,11,206,3610082,,,,,,,2022-06-06,1,,,,,フィックス,0
400,2030003019529,新規,0,2022-06-06,2022-06-06,レオ合同会社,,合同会社,埼玉県,川口市,西川口３丁目２番８－６０４号,,11,203,3320021,,,,,,,2022-06-06,1,,,,,レオ,0
401,2030003019537,新規,0,2022-06-06,2022-06-06,合同会社ＦＢパートナーズ,,合同会社,埼玉県,草加市,氷川町２１４０番地２１,,11,221,3400034,,,,,,,2022-06-06,1,,,,,エフビーパートナーズ,0
406,2040001123661,新規,0,2022-06-06,2022-06-06,株式会社ＡＯＫＥＮ,,株式会社,千葉県,柏市,若柴２２７番地６柏の葉キャンパス１４７街区Ｄ－２２０８号,,12,217,2770871,,,,,,,2022-06-06,1,,,,,アオケン,0
407,2040001123678,新規,0,2022-06-06,2022-06-06,株式会社Ｊ＆Ｋ,,株式会社,千葉県,木更津市,潮浜１丁目１７番地２３,,12,206,2920838,,,,,,,2022-06-06,1,,,,,ジェイアンドケー,0
410,2050001051184,新規,0,2022-06-06,2022-06-06,株式会社リカバリーオフィス,,株式会社,茨城県,猿島郡境町,大字稲尾４０－１,,08,546,3060407,,,,,,,2022-06-06,1,,,,,リカバリーオフィス,0
418,2070001039269,新規,0,2022-06-06,2022-06-06,株式会社ＴＨＩＥＮ　ＴＵＯＮＧ,,株式会社,群馬県,伊勢崎市,馬見塚町９０６番地３,,10,204,3720842,,,,,,,2022-06-06,1,,,,,ティエントゥオン,0
419,2070001039302,新規,0,2022-06-06,2022-06-06,Ｂ・Ｔ・Ｐ　Ｔｒａｄｉｎｇ株式会社,,株式会社,群馬県,高崎市,鼻高町３６４番地１,,10,202,3700868,,,,,,,2022-06-06,1,,,,,ビーティーピートレーディング,0
420,2070001039310,新規,0,2022-06-06,2022-06-06,株式会社康希,,株式会社,群馬県,高崎市,緑町１丁目３番地２ヤマリビル１０３号室,,10,202,3700073,,,,,,,2022-06-06,1,,,,,コウキ,0
422,2080401025859,新規,0,2022-06-06,2022-06-06,株式会社ＡＯＮＯＣＲＡＦＴ,,株式会社,静岡県,掛川市,入山瀬１７４８番地,,22,213,4371438,,,,,,,2022-06-06,1,,,,,アオノクラフト,0
424,2080403004555,新規,0,2022-06-06,2022-06-06,合同会社エイト,,合同会社,静岡県,浜松市中区,砂山町３２５－２０水谷ビルＢ１Ｆ,,22,131,4300926,,,,,,,2022-06-06,1,,,,,エイト,0
426,2100001035396,新規,0,2022-06-06,2022-06-06,本州産業株式会社,,株式会社,長野県,上田市,岩下６０番地３,,20,203,3860153,,,,,,,2022-06-06,1,,,,,ホンシュウサンギョウ,0
432,2110001036699,新規,0,2022-06-06,2022-06-06,株式会社木戸総業,,株式会社,新潟県,阿賀野市,中島町３番３５号,,15,223,9592024,,,,,,,2022-06-06,1,,,,,キドソウギョウ,0
433,2110001036708,新規,0,2022-06-06,2022-06-06,株式会社ＣＡＲ　ＦＡＣＴＯＲＹ　ＹＯＵ,,株式会社,新潟県,上越市,浦川原区中猪子田１７８７番地１,,15,222,9420304,,,,,,,2022-06-06,1,,,,,カーファクトリーユウ,0
434,2110001036716,新規,0,2022-06-06,2022-06-06,株式会社創造遊園地,,株式会社,新潟県,新潟市東区,卸新町１丁目９２４番地８,,15,102,9500863,,,,,,,2022-06-06,1,,,,,ソウゾウユウエンチ,0
442,2120001246272,新規,0,2022-06-06,2022-06-06,株式会社ｇｉｖｅｒ,,株式会社,大阪府,大阪市中央区,西心斎橋２丁目８番１０号ＭＵ西心斎橋３０１号室,,27,128,5420086,,,,,,,2022-06-06,1,,,,,ギバー,0
443,2120001246371,新規,0,2022-06-06,2022-06-06,株式会社マボカリ,,株式会社,大阪府,大阪市中央区,難波千日前６番１２号,,27,128,5420075,,,,,,,2022-06-06,1,,,,,マボカリ,0
444,2120001246388,新規,0,2022-06-06,2022-06-06,株式会社ＮｅｎＲｉｎＧ,,株式会社,大阪府,大阪市西区,京町堀１丁目１０番１８号３Ｂ,,27,106,5500003,,,,,,,2022-06-06,1,,,,,ネンリング,0
445,2120001246421,新規,0,2022-06-06,2022-06-06,株式会社ＧＲホールディングス,,株式会社,大阪府,大阪市鶴見区,焼野１丁目南１１番３号ＧＲビルＢ１,,27,124,5380037,,,,,,,2022-06-06,1,,,,,ジーアールホールディングス,0
446,2120001246446,新規,0,2022-06-06,2022-06-06,テスラバイオヒーリングジャパン株式会社,,株式会社,大阪府,大阪市此花区,酉島４丁目１番２０－９１４号,,27,104,5540051,,,,,,,2022-06-06,1,,,,,テスラバイオヒーリングジャパン,0
451,2120101065688,新規,0,2022-06-06,2022-06-06,株式会社ＪＥＷＥＬ,,株式会社,大阪府,堺市北区,野遠町１８番地,,27,146,5918013,,,,,,,2022-06-06,1,,,,,ジュエル,0
452,2120101065696,新規,0,2022-06-06,2022-06-06,株式会社Ａ‐ｔｅｃ,,株式会社,大阪府,岸和田市,中井町１丁目１７番７号,,27,202,5960003,,,,,,,2022-06-06,1,,,,,エーテック,0
456,2120901046061,新規,0,2022-06-06,2022-06-06,株式会社フォルスナイン,,株式会社,大阪府,吹田市,南吹田３丁目１５番１３号,,27,205,5640043,,,,,,,2022-06-06,1,,,,,フォルスナイン,0
464,2130001071892,新規,0,2022-06-06,2022-06-06,株式会社ＫＭＳ,,株式会社,京都府,京都市南区,吉祥院高畑町４２－１,,26,107,6018332,,,,,,,2022-06-06,1,,,,,ケイエムエス,0
465,2130001071901,新規,0,2022-06-06,2022-06-06,株式会社本田造園土木,,株式会社,京都府,京都市北区,紫野東野町３４番地,,26,101,6038232,,,,,,,2022-06-06,1,,,,,ホンダゾウエンドボク,0
471,2140001126209,新規,0,2022-06-06,2022-06-06,株式会社ミコス,,株式会社,兵庫県,神戸市須磨区,車字尾鼻４７０番地の１,,28,107,6540111,,,,,,,2022-06-06,1,,,,,ミコス,0
472,2140001126217,新規,0,2022-06-06,2022-06-06,株式会社Ｌｉｍｏ,,株式会社,兵庫県,明石市,明南町２丁目１１番５号,,28,203,6730001,,,,,,,2022-06-06,1,,,,,リモ,0
473,2140005026207,新規,0,2022-06-06,2022-06-06,特定非営利活動法人てんびん,,その他の設立登記法人,兵庫県,神戸市中央区,元町通６丁目１－８東栄ビル,,28,110,6500022,,,,,,,2022-06-06,1,,,,,テンビン,0
475,2160001024261,新規,0,2022-06-06,2022-06-06,株式会社中村建設,,株式会社,滋賀県,大津市,本堅田５丁目１２番７号２０１,,25,201,5200242,,,,,,,2022-06-06,1,,,,,ナカムラケンセツ,0
476,2160005011090,新規,0,2022-06-06,2022-06-06,一般社団法人白鳥川景観Ｎ基金,,その他の設立登記法人,滋賀県,近江八幡市,堀上町２番地６,,25,204,5230031,,,,,,,2022-06-06,1,,,,,シラトリガワケイカンエヌキキン,0
478,2170001017132,新規,0,2022-06-06,2022-06-06,株式会社エーテシタ,,株式会社,和歌山県,有田郡有田川町,大字糸川４００番地,,30,366,6430165,,,,,,,2022-06-06,1,,,,,エーテシタ,0
489,2180001151566,新規,0,2022-06-06,2022-06-06,株式会社Ｂストーリー,,株式会社,愛知県,名古屋市中村区,名駅南２丁目１３番１号,,23,105,4500003,,,,,,,2022-06-06,1,,,,,ビーストーリー,0
490,2180001151582,新規,0,2022-06-06,2022-06-06,株式会社ガレージワン,,株式会社,愛知県,一宮市,時之島字上屋敷６６番地１,,23,203,4910002,,,,,,,2022-06-06,1,,,,,ガレージワン,0
491,2180001151608,新規,0,2022-06-06,2022-06-06,ＬＡＬＡ株式会社,,株式会社,愛知県,知多郡東浦町,大字緒川字植山３７番地１,,23,442,4702102,,,,,,,2022-06-06,1,,,,,ララ,0
494,2180301036302,新規,0,2022-06-06,2022-06-06,株式会社龍太郎,,株式会社,愛知県,豊川市,御津町御馬塩入１３６番地２,,23,207,4410311,,,,,,,2022-06-06,1,,,,,リュウタロウ,0
498,2190001029472,新規,0,2022-06-06,2022-06-06,株式会社Ｆｄｅｓｉｇｎ,,株式会社,三重県,四日市市,川島町６０００番地１７５,,24,202,5120934,,,,,,,2022-06-06,1,,,,,エフデザイン,0
499,2190001029480,新規,0,2022-06-06,2022-06-06,株式会社ウィズ・ユー,,株式会社,三重県,四日市市,中浜田町３番９号,,24,202,5100065,,,,,,,2022-06-06,1,,,,,ウィズユー,0
501,2190003004003,新規,0,2022-06-06,2022-06-06,合同会社ＤＡＩＫＥＩ　ＨＯＭＥ　ＷＯＲＫＳ,,合同会社,三重県,松阪市,松崎浦町３７３番地８,,24,204,5152132,,,,,,,2022-06-06,1,,,,,ダイケイホームワークス,0
504,2210003001518,新規,0,2022-06-06,2022-06-06,ＡＷＡＫＥ合同会社,,合同会社,福井県,鯖江市,西袋町第３７号３番地１,,18,207,9161221,,,,,,,2022-06-06,1,,,,,アウェイク,0
510,2230001019386,新規,0,2022-06-06,2022-06-06,株式会社Ｅｉｎｓ,,株式会社,富山県,富山市,善名２４６番地１,,16,201,9301303,,,,,,,2022-06-06,1,,,,,アインツ,0
511,2230001019394,新規,0,2022-06-06,2022-06-06,三喜株式会社,,株式会社,富山県,射水市,三ケ２７６２番地１,,16,211,9390341,,,,,,,2022-06-06,1,,,,,サンキ,0
523,2270001008542,新規,0,2022-06-06,2022-06-06,株式会社ＡＬＬ　ＲＥＮＴＡ,,株式会社,鳥取県,東伯郡湯梨浜町,大字久留１４８番地１,,31,370,6820723,,,,,,,2022-06-06,1,,,,,オールレンタ,0
531,2290801028580,新規,0,2022-06-06,2022-06-06,栄伸ホーム株式会社,,株式会社,福岡県,北九州市小倉北区,京町３丁目１０番９号,,40,106,8020002,,,,,,,2022-06-06,1,,,,,エイシンホーム,0
532,2290801028589,新規,0,2022-06-06,2022-06-06,株式会社福丸耐火,,株式会社,福岡県,北九州市八幡西区,引野１丁目１１番１５号,,40,109,8060067,,,,,,,2022-06-06,1,,,,,フクマルタイカ,0
533,2290801028597,新規,0,2022-06-06,2022-06-06,ＮＥＷ　ＷＯＲＬＤ株式会社,,株式会社,福岡県,北九州市小倉北区,緑ケ丘１丁目１０番２２号,,40,106,8030827,,,,,,,2022-06-06,1,,,,,ニューワールド,0
534,2310001017893,新規,0,2022-06-06,2022-06-06,株式会社壱岐真珠,,株式会社,長崎県,壱岐市,郷ノ浦町半城本村触１３４４番地,,42,210,8115111,,,,,,,2022-06-06,1,,,,,イキシンジュ,0
536,2320001019105,新規,0,2022-06-06,2022-06-06,株式会社シェルテクノ,,株式会社,大分県,大分市,青崎１丁目１２番１８号,,44,201,8700278,,,,,,,2022-06-06,1,,,,,シェルテクノ,0
538,2330001029788,新規,0,2022-06-06,2022-06-06,株式会社福むら,,株式会社,熊本県,八代市,横手新町７号１４番地,,43,202,8660875,,,,,,,2022-06-06,1,,,,,フクムラ,0
541,2360003012070,新規,0,2022-06-06,2022-06-06,合同会社ＯＴＫ一級建築士事務所,,合同会社,沖縄県,沖縄市,山内４丁目１１番７号,,47,211,9040034,,,,,,,2022-06-06,1,,,,,オーティーケイイッキュウケンチクシジムショ,0
550,2410003003667,新規,0,2022-06-06,2022-06-06,イサム電気合同会社,,合同会社,秋田県,大仙市,太田町中里字二十町１３０番地９,,05,212,0191603,,,,,,,2022-06-06,1,,,,,イサムデンキ,0
554,2430001086753,新規,0,2022-06-06,2022-06-06,ＢＬＯＣＫ株式会社,,株式会社,北海道,札幌市白石区,本通１１丁目北２番７号,,01,104,0030027,,,,,,,2022-06-06,1,,,,,ブロック,0
555,2430001086761,新規,0,2022-06-06,2022-06-06,ベンチコミュニティー株式会社,,株式会社,北海道,札幌市南区,真駒内緑町３丁目４番１－６０１号,,01,106,0050013,,,,,,,2022-06-06,1,,,,,ベンチコミュニティー,0
556,2430001086778,新規,0,2022-06-06,2022-06-06,桜梅観光株式会社,,株式会社,北海道,千歳市,末広４丁目７番１号,,01,224,0660027,,,,,,,2022-06-06,1,,,,,サクラウメカンコウ,0
564,2460105002240,新規,0,2022-06-06,2022-06-06,一般社団法人とかちイベンター協会,,その他の設立登記法人,北海道,帯広市,西十条南２７丁目１０番地９,,01,207,0800020,,,,,,,2022-06-06,1,,,,,,0
579,3010001227134,新規,0,2022-06-06,2022-06-06,株式会社スターズ,,株式会社,東京都,中央区,銀座６丁目１３番１６号銀座ＷａｌｌビルＵＣＦ５階,,13,102,1040061,,,,,,,2022-06-06,1,,,,,スターズ,0
580,3010001227159,新規,0,2022-06-06,2022-06-06,ＨＯＮＡＹＯＩ株式会社,,株式会社,東京都,中央区,入船１丁目６番３号朝日八丁堀マンション４０６,,13,102,1040042,,,,,,,2022-06-06,1,,,,,ホナヨイ,0
585,3010003037812,新規,0,2022-06-06,2022-06-06,合同会社ケイエスワイ,,合同会社,東京都,中央区,勝どき５丁目３番１－１９２６号,,13,102,1040054,,,,,,,2022-06-06,1,,,,,ケイエスワイ,0
587,3010401167731,新規,0,2022-06-06,2022-06-06,田中化学株式会社,,株式会社,東京都,港区,芝５丁目３０番１－６０６号,,13,103,1080014,,,,,,,2022-06-06,1,,,,,タナカカガク,0
588,3010401167756,新規,0,2022-06-06,2022-06-06,株式会社ラテ,,株式会社,東京都,港区,南青山５丁目４番４４号,,13,103,1070062,,,,,,,2022-06-06,1,,,,,ラテ,0
589,3010401167764,新規,0,2022-06-06,2022-06-06,ＰＲＡ株式会社,,株式会社,東京都,港区,西麻布３丁目１番２２号サイビルディング６階,,13,103,1060031,,,,,,,2022-06-06,1,,,,,プラ,0
594,3010403027826,新規,0,2022-06-06,2022-06-06,市川原木合同会社,,合同会社,東京都,港区,元赤坂１丁目１番８号株式会社赤坂国際会計内,,13,103,1070051,,,,,,,2022-06-06,1,,,,,イチカワバラキ,0
597,3010405021050,新規,0,2022-06-06,2022-06-06,弁護士法人ユニヴィス法律事務所,,その他の設立登記法人,東京都,港区,虎ノ門３丁目８番８号ＮＴＴ虎ノ門ビル６階,,13,103,1050001,,,,,,,2022-06-06,1,,,,,,0
600,3010501048906,新規,0,2022-06-06,2022-06-06,株式会社ｙｋｉｃ,,株式会社,東京都,台東区,上野２丁目１２番１８号池之端ヒロハイツ２階,,13,106,1100005,,,,,,,2022-06-06,1,,,,,ワイケーアイシー,0
602,3010503006606,新規,0,2022-06-06,2022-06-06,Ａｇｇｉｅ合同会社,,合同会社,東京都,台東区,根岸３丁目５番７号５０１,,13,106,1100003,,,,,,,2022-06-06,1,,,,,アジー,0
611,3010901050973,新規,0,2022-06-06,2022-06-06,株式会社ａｎａｈｏｃ,,株式会社,東京都,世田谷区,千歳台２丁目８番１７号－１,,13,112,1570071,,,,,,,2022-06-06,1,,,,,アナホック,0
612,3010901050981,新規,0,2022-06-06,2022-06-06,株式会社リガロ,,株式会社,東京都,世田谷区,代田４丁目１７番１１号,,13,112,1550033,,,,,,,2022-06-06,1,,,,,リガロ,0
618,3011001147891,新規,0,2022-06-06,2022-06-06,株式会社ＫＩＴＳＵＷＡ,,株式会社,東京都,目黒区,碑文谷４丁目４番５号グランベル碑文谷１０２,,13,110,1520003,,,,,,,2022-06-06,1,,,,,キツワ,0
619,3011001147909,新規,0,2022-06-06,2022-06-06,株式会社ＴＲＩＮＩＤＡＤ,,株式会社,東京都,渋谷区,渋谷１丁目８番５号グローリア宮益坂１０２,,13,113,1500002,,,,,,,2022-06-06,1,,,,,トリニダード,0
620,3011001147917,新規,0,2022-06-06,2022-06-06,株式会社ＷＩＬＬＥＲ,,株式会社,東京都,渋谷区,渋谷２丁目１番１号,,13,113,1500002,,,,,,,2022-06-06,1,,,,,ウィラー,0
621,3011001147933,新規,0,2022-06-06,2022-06-06,株式会社スピークラボ,,株式会社,東京都,目黒区,自由が丘３丁目１４番３号,,13,110,1520035,,,,,,,2022-06-06,1,,,,,スピークラボ,0
624,3011005009592,新規,0,2022-06-06,2022-06-06,一般社団法人ハピエコ,,その他の設立登記法人,東京都,渋谷区,神宮前６丁目２３番４号桑野ビル２階,,13,113,1500001,,,,,,,2022-06-06,1,,,,,ハピエコ,0
635,3011101099075,新規,0,2022-06-06,2022-06-06,株式会社ウィアー,,株式会社,東京都,新宿区,新宿２丁目１９番１号ビッグス新宿ビル１０Ｆ,,13,104,1600022,,,,,,,2022-06-06,1,,,,,ウィアー,0
638,3011103011814,新規,0,2022-06-06,2022-06-06,合同会社エミニュート,,合同会社,東京都,新宿区,河田町３番５１号河田町ガーデン１号棟１０１５号,,13,104,1620054,,,,,,,2022-06-06,1,,,,,エミニュート,0
640,3011205002496,新規,0,2022-06-06,2022-06-06,一般社団法人奉納プロジェクト,,その他の設立登記法人,東京都,中野区,本町４丁目３８番１６号,,13,114,1640012,,,,,,,2022-06-06,1,,,,,ホウノウプロジェクト,0
643,3011301027827,新規,0,2022-06-06,2022-06-06,株式会社スプモーニ,,株式会社,東京都,杉並区,荻窪２丁目３１番１３－４０３号,,13,115,1670051,,,,,,,2022-06-06,1,,,,,スプモーニ,0
644,3011303004428,新規,0,2022-06-06,2022-06-06,ＪＵＮＥ合同会社,,合同会社,東京都,杉並区,和泉２丁目２４番３号,,13,115,1680063,,,,,,,2022-06-06,1,,,,,ジューン,0
646,3011501028096,新規,0,2022-06-06,2022-06-06,株式会社ヘナ・ファクトリー,,株式会社,東京都,北区,十条仲原１丁目２８番１１号日本堂ビル１階,,13,117,1140031,,,,,,,2022-06-06,1,,,,,ヘナファクトリー,0
647,3011503005176,新規,0,2022-06-06,2022-06-06,合同会社一志かつら,,合同会社,東京都,北区,滝野川１丁目１３番３号,,13,117,1140023,,,,,,,2022-06-06,1,,,,,イッシカツラ,0
653,3012401039274,新規,0,2022-06-06,2022-06-06,株式会社ＹＵ　ＬｉＶＥ,,株式会社,東京都,調布市,上石原３丁目１１番地２,,13,208,1820035,,,,,,,2022-06-06,1,,,,,ユーライヴ,0
654,3012701017095,新規,0,2022-06-06,2022-06-06,株式会社ＺＨＯＡ,,株式会社,東京都,西東京市,保谷町３丁目１２番１５号,,13,229,2020015,,,,,,,2022-06-06,1,,,,,チョア,0
660,3013301049198,新規,0,2022-06-06,2022-06-06,株式会社アバンティア,,株式会社,東京都,豊島区,北大塚２丁目１６番４号Ｊ・Ｔ大塚ビル５０１,,13,116,1700004,,,,,,,2022-06-06,1,,,,,アバンティア,0
663,3020001146746,新規,0,2022-06-06,2022-06-06,株式会社ファイナンシャルＤＣサービス,,株式会社,神奈川県,横浜市栄区,小菅ケ谷３丁目５９番１０号,,14,115,2470007,,,,,,,2022-06-06,1,,,,,ファイナンシャルディーシーサービス,0
664,3020001146754,新規,0,2022-06-06,2022-06-06,株式会社ＬＩＯＲ,,株式会社,神奈川県,川崎市川崎区,渡田向町１番１５号ピアチェーレＡ棟,,14,131,2100841,,,,,,,2022-06-06,1,,,,,リオール,0
665,3020001146795,新規,0,2022-06-06,2022-06-06,株式会社鴻運商事,,株式会社,神奈川県,横浜市中区,山下町１５５番地３,,14,104,2310023,,,,,,,2022-06-06,1,,,,,コウウンショウジ,0
673,3020003021872,新規,0,2022-06-06,2022-06-06,合同会社エルダット・リサーチ＆コンサルティング,,合同会社,神奈川県,川崎市麻生区,上麻生２丁目２０番５号,,14,137,2150021,,,,,,,2022-06-06,1,,,,,エルダットリサーチアンドコンサルティング,0
676,3021001076140,新規,0,2022-06-06,2022-06-06,株式会社ＲｉＣＯ,,株式会社,神奈川県,大和市,大和東１丁目８番６号,,14,213,2420017,,,,,,,2022-06-06,1,,,,,リコ,0
677,3021001076149,新規,0,2022-06-06,2022-06-06,株式会社ＫＩｓｅｒｖｉｃｅ,,株式会社,神奈川県,厚木市,関口３７７番地１,,14,212,2430804,,,,,,,2022-06-06,1,,,,,ケーアイサービス,0
684,3030001148452,新規,0,2022-06-06,2022-06-06,ＡＮ　ＫＨＡＮＧ株式会社,,株式会社,埼玉県,久喜市,栗橋北１丁目５番１７－８号,,11,232,3491101,,,,,,,2022-06-06,1,,,,,アンカン,0
685,3030001148485,新規,0,2022-06-06,2022-06-06,株式会社Ｗｏｎｄｅｒ　ｌｉｆｅ,,株式会社,埼玉県,和光市,新倉１丁目２０番６号セレーノ和光２０３,,11,229,3510115,,,,,,,2022-06-06,1,,,,,ワンダーライフ,0
686,3030001148493,新規,0,2022-06-06,2022-06-06,株式会社ヴァンクール,,株式会社,埼玉県,さいたま市見沼区,大字小深作３６７番地１大宮東パーク・ホームズ７０４,,11,104,3370005,,,,,,,2022-06-06,1,,,,,ヴァンクール,0
687,3030001148527,新規,0,2022-06-06,2022-06-06,株式会社フジワークス,,株式会社,埼玉県,深谷市,岡２６１２番地,,11,218,3690201,,,,,,,2022-06-06,1,,,,,フジワークス,0
688,3030001148535,新規,0,2022-06-06,2022-06-06,アドバンスホールディングス株式会社,,株式会社,埼玉県,川口市,並木１丁目１１番７号,,11,203,3320034,,,,,,,2022-06-06,1,,,,,アドバンスホールディングス,0
689,3030001148543,新規,0,2022-06-06,2022-06-06,株式会社ＢＯＮＤＳサービス,,株式会社,埼玉県,さいたま市緑区,美園６丁目１０番１号,,11,109,3360967,,,,,,,2022-06-06,1,,,,,ボンズサービス,0
696,3040001123660,新規,0,2022-06-06,2022-06-06,株式会社ＡＯＫＯＵ,,株式会社,千葉県,柏市,若柴２２７番地６柏の葉キャンパス１４７街区Ｄ－２２０８号,,12,217,2770871,,,,,,,2022-06-06,1,,,,,アオコウ,0
697,3040001123669,新規,0,2022-06-06,2022-06-06,株式会社Ａｄｖａｎｃｅ,,株式会社,千葉県,千葉市花見川区,犢橋町１６２１番地１６,,12,102,2620013,,,,,,,2022-06-06,1,,,,,アドバンス,0
698,3040001123677,新規,0,2022-06-06,2022-06-06,株式会社Ｇ＆Ｔ,,株式会社,千葉県,千葉市中央区,赤井町３２９番地１,,12,101,2600804,,,,,,,2022-06-06,1,,,,,ジーアンドティー,0
704,3050001051167,新規,0,2022-06-06,2022-06-06,株式会社大道不動産開発,,株式会社,茨城県,東茨城郡城里町,大字石塚９１４番地の１,,08,310,3114303,,,,,,,2022-06-06,1,,,,,オオミチフドウサンカイハツ,0
705,3050001051183,新規,0,2022-06-06,2022-06-06,株式会社ｃｏｎｎｅｃｔｐｌｕｓ,,株式会社,茨城県,水戸市,大工町１丁目３番１１号水戸東陽ビル５Ｆ,,08,201,3100031,,,,,,,2022-06-06,1,,,,,コネクトプラス,0
708,3060001034939,新規,0,2022-06-06,2022-06-06,株式会社肉の泉や,,株式会社,栃木県,宇都宮市,泉が丘２丁目５番３６号,,09,201,3210952,,,,,,,2022-06-06,1,,,,,ニクノイズミヤ,0
712,3070001039292,新規,0,2022-06-06,2022-06-06,株式会社シーリングウォール,,株式会社,群馬県,伊勢崎市,小泉町２８８番地１８,,10,204,3792232,,,,,,,2022-06-06,1,,,,,シーリングウォール,0
713,3070001039301,新規,0,2022-06-06,2022-06-06,株式会社ｋｉｔａｉｃｈｉ,,株式会社,群馬県,佐波郡玉村町,大字川井１０４３番地１０,,10,464,3701117,,,,,,,2022-06-06,1,,,,,キタイチ,0
720,3080101023328,新規,0,2022-06-06,2022-06-06,株式会社高山,00126764,株式会社,静岡県,富士宮市,矢立町４３番地,,22,207,4180072,,,,,,,2022-06-06,1,,,,,タカヤマ,0
725,3080401025858,新規,0,2022-06-06,2022-06-06,ＬｉＢｅｌｌｅ株式会社,,株式会社,静岡県,浜松市中区,田町３２５番地の１４凧人ビル２階,,22,131,4300944,,,,,,,2022-06-06,1,,,,,リベル,0
726,3080401025866,新規,0,2022-06-06,2022-06-06,株式会社インテリア河合,,株式会社,静岡県,浜松市浜北区,中瀬４７１１番地の２,,22,136,4340012,,,,,,,2022-06-06,1,,,,,インテリアカワイ,0
733,3110001036715,新規,0,2022-06-06,2022-06-06,ＢｅｙｏｎｄＵＳ株式会社,,株式会社,新潟県,新潟市中央区,上大川前通４番町４０番地１ＢＵＥＮＡ上大川前通４、２０３号,,15,103,9518068,,,,,,,2022-06-06,1,,,,,ビヨンドアス,0
751,3120001246362,新規,0,2022-06-06,2022-06-06,Ｊｕｓｔ　Ｆｏｒ　Ｆｕｎ株式会社,,株式会社,大阪府,大阪市西区,江戸堀２丁目１番１号,,27,106,5500002,,,,,,,2022-06-06,1,,,,,ジャストフォーファン,0
752,3120001246420,新規,0,2022-06-06,2022-06-06,プレゼンテ株式会社,,株式会社,大阪府,大阪市中央区,谷町５丁目５番２－２１４号,,27,128,5400012,,,,,,,2022-06-06,1,,,,,プレゼンテ,0
753,3120001246429,新規,0,2022-06-06,2022-06-06,南野株式会社,,株式会社,大阪府,大阪市東成区,神路４丁目３－１０スターレジデンス新深江４０４号室,,27,115,5370003,,,,,,,2022-06-06,1,,,,,ミナミノ,0
756,3120003021771,新規,0,2022-06-06,2022-06-06,合同会社はじまり,,合同会社,大阪府,大阪市城東区,諏訪２丁目７番１５号,,27,118,5360021,,,,,,,2022-06-06,1,,,,,ハジマリ,0
759,3120005022958,新規,0,2022-06-06,2022-06-06,特定非営利活動法人大阪海さくら,,その他の設立登記法人,大阪府,大阪市此花区,酉島６丁目４番１９号,,27,104,5540051,,,,,,,2022-06-06,1,,,,,オオサカウミサクラ,0
760,3120101065670,新規,0,2022-06-06,2022-06-06,株式会社シャーロック,,株式会社,大阪府,堺市西区,鳳南町３丁１９９番地４１,,27,144,5938325,,,,,,,2022-06-06,1,,,,,シャーロック,0
761,3120101065695,新規,0,2022-06-06,2022-06-06,株式会社桑原産業,,株式会社,大阪府,藤井寺市,御舟町３番８号,,27,226,5830021,,,,,,,2022-06-06,1,,,,,クワバラサンギョウ,0
764,3120103004726,新規,0,2022-06-06,2022-06-06,Ａ・Ｗｏｒｋｓ合同会社,,合同会社,大阪府,堺市南区,檜尾１１４３番地５,,27,145,5900142,,,,,,,2022-06-06,1,,,,,エーワークス,0
765,3120901046028,新規,0,2022-06-06,2022-06-06,株式会社しろくまワークス,,株式会社,大阪府,豊中市,南桜塚２丁目９番２９号,,27,203,5610882,,,,,,,2022-06-06,1,,,,,シロクマワークス,0
766,3120901046044,新規,0,2022-06-06,2022-06-06,ＫＭＡＹ　Ｐｌａｎｎｉｎｇ株式会社,,株式会社,大阪府,豊中市,旭丘１１番２０－４０６号,,27,203,5610865,,,,,,,2022-06-06,1,,,,,ケイエムエイワイプランニング,0
767,3120901046052,新規,0,2022-06-06,2022-06-06,株式会社安全工房,,株式会社,大阪府,豊中市,服部元町１丁目９番４－３０４号,,27,203,5610851,,,,,,,2022-06-06,1,,,,,アンゼンコウボウ,0
770,3122001035927,新規,0,2022-06-06,2022-06-06,株株式会社Ｗｉｌｌ,,株式会社,大阪府,東大阪市,楠根２丁目１２番２７号,,27,227,5770006,,,,,,,2022-06-06,1,,,,,ウィル,0
772,3130001071900,新規,0,2022-06-06,2022-06-06,株式会社ｉｏ,,株式会社,京都府,京都市伏見区,横大路中ノ庄町１０番地,,26,109,6128482,,,,,,,2022-06-06,1,,,,,イオ,0
775,3130003007968,新規,0,2022-06-06,2022-06-06,Ｓｏｍｅｗｈｅｒｅ合同会社,,合同会社,京都府,京都市左京区,浄土寺馬場町１４番地ファーイースト東山２０１,,26,103,6068412,,,,,,,2022-06-06,1,,,,,サムウェア,0
781,3140001126190,新規,0,2022-06-06,2022-06-06,株式会社兵庫鑑定,,株式会社,兵庫県,淡路市,志筑３０２１番地３,,28,226,6562131,,,,,,,2022-06-06,1,,,,,ヒョウゴカンテイ,0
782,3140001126208,新規,0,2022-06-06,2022-06-06,株式会社オバタ,,株式会社,兵庫県,姫路市,香寺町須加院６９番地,,28,201,6792132,,,,,,,2022-06-06,1,,,,,オバタ,0
783,3140001126232,新規,0,2022-06-06,2022-06-06,株式会社やぐら,,株式会社,兵庫県,神戸市垂水区,多聞台２丁目１０－２,,28,108,6550007,,,,,,,2022-06-06,1,,,,,ヤグラ,0
784,3140001126273,新規,0,2022-06-06,2022-06-06,Ｂｉｒｒａ　Ｄｅｌｌａ　Ｍｏｎｔａｇｎａ株式会社,,株式会社,兵庫県,神戸市中央区,栄町通６丁目１－１８ライオンズスクエア神戸元町７０３号室,,28,110,6500023,,,,,,,2022-06-06,1,,,,,ビラデラモンターニャ,0
790,3140003017735,新規,0,2022-06-06,2022-06-06,合同会社ミライトリガー,,合同会社,兵庫県,多可郡多可町,八千代区大和７４４,,28,365,6770132,,,,,,,2022-06-06,1,,,,,ミライトリガー,0
792,3160001024260,新規,0,2022-06-06,2022-06-06,株式会社高木工業,00126774,株式会社,滋賀県,東近江市,布施町２７１番地,,25,213,5270081,,,,,,,2022-06-06,1,,,,,タカギコウギョウ,0
805,3180001151557,新規,0,2022-06-06,2022-06-06,株式会社ＫＤ　ＬＡＢＯ,,株式会社,愛知県,半田市,住吉町４丁目１２１番地の５,,23,205,4750862,,,,,,,2022-06-06,1,,,,,ケーディーラボ,0
806,3180001151581,新規,0,2022-06-06,2022-06-06,ニューテック株式会社,,株式会社,愛知県,半田市,成岩本町１丁目１０４番地,,23,205,4750848,,,,,,,2022-06-06,1,,,,,ニューテック,0
807,3180001151607,新規,0,2022-06-06,2022-06-06,株式会社リムシス,,株式会社,愛知県,日進市,浅田平子３丁目２５３番地,,23,230,4700128,,,,,,,2022-06-06,1,,,,,リムシス,0
816,3190003004002,新規,0,2022-06-06,2022-06-06,合同会社ＥＮＮ,,合同会社,三重県,名張市,赤目町長坂６７６番地２,,24,208,5180469,,,,,,,2022-06-06,1,,,,,イーエヌエヌ,0
828,3230001019393,新規,0,2022-06-06,2022-06-06,株式会社先祖山業,,株式会社,富山県,富山市,馬瀬口１６０番地,,16,201,9301301,,,,,,,2022-06-06,1,,,,,センゾサンギョウ,0
832,3240001059884,新規,0,2022-06-06,2022-06-06,株式会社Ｋｉｒｉｎ,,株式会社,広島県,広島市安佐北区,口田南３丁目３３－１３,,34,106,7391733,,,,,,,2022-06-06,1,,,,,キリン,0
839,3280001008706,新規,0,2022-06-06,2022-06-06,株式会社金吉屋商店,,株式会社,島根県,益田市,久城町１２７８番地１,,32,204,6980001,,,,,,,2022-06-06,1,,,,,カネヨシヤショウテン,0
845,3290801028588,新規,0,2022-06-06,2022-06-06,株式会社ＹＵＫＫＹ,,株式会社,福岡県,遠賀郡水巻町,二西２丁目１２番２９号,,40,382,8070055,,,,,,,2022-06-06,1,,,,,ユッキー,0
846,3290801028596,新規,0,2022-06-06,2022-06-06,匠創業株式会社,,株式会社,福岡県,直方市,大字中泉１０９番地３,,40,204,8220011,,,,,,,2022-06-06,1,,,,,タクミソウギョウ,0
850,3310001017884,新規,0,2022-06-06,2022-06-06,株式会社Ｇｒａｓｓ　ｔａｉｌ,,株式会社,長崎県,佐世保市,吉井町草ノ尾１２４番地,,42,202,8596301,,,,,,,2022-06-06,1,,,,,グラステイル,0
852,3320001019112,新規,0,2022-06-06,2022-06-06,株式会社セキュリティサポート大分,,株式会社,大分県,由布市,挾間町高崎２６０番地,,44,213,8795513,,,,,,,2022-06-06,1,,,,,セキュリティサポートオオイタ,0
859,3340001024770,新規,0,2022-06-06,2022-06-06,株式会社ＢｅＬｅａｄ,,株式会社,鹿児島県,肝属郡肝付町,前田６２２番地１,,46,492,8931206,,,,,,,2022-06-06,1,,,,,ビリード,0
868,3370001048635,新規,0,2022-06-06,2022-06-06,株式会社ゆうとぴあ,,株式会社,宮城県,名取市,高舘吉田字東中在家２６番地の３レオパレスヌーボ館１０３号,,04,207,9811242,,,,,,,2022-06-06,1,,,,,ユウトピア,0
871,3380001032860,新規,0,2022-06-06,2022-06-06,株式会社Ｖｉｃｔｏｒｙ,,株式会社,福島県,白河市,大工町５０番地第２大成プラザ２階,,07,205,9610936,,,,,,,2022-06-06,1,,,,,ビクトリー,0
872,3380001032869,新規,0,2022-06-06,2022-06-06,株式会社フードトリップ,,株式会社,福島県,郡山市,八山田５丁目１９番地１,,07,203,9638052,,,,,,,2022-06-06,1,,,,,フードトリップ,0
874,3390001016912,新規,0,2022-06-06,2022-06-06,株式会社町家建築設計室,,株式会社,山形県,酒田市,末広町１５番２３号,,06,204,9980854,,,,,,,2022-06-06,1,,,,,マチヤケンチクセッケイシツ,0
879,3430001086760,新規,0,2022-06-06,2022-06-06,信誠株式会社,,株式会社,北海道,札幌市中央区,南十一条西１５丁目２－１,,01,101,0640811,,,,,,,2022-06-06,1,,,,,シンセイ,0
880,3430001086769,新規,0,2022-06-06,2022-06-06,株式会社ＢＯＮＤＳ,,株式会社,北海道,小樽市,若竹町１８番７号,,01,203,0470001,,,,,,,2022-06-06,1,,,,,ボンズ,0
890,3430003013977,新規,0,2022-06-06,2022-06-06,合同会社ＩＲＯＨＡ　ＣＯＭＰＡＮＹ,,合同会社,北海道,札幌市東区,中沼町５５番１号,,01,103,0070890,,,,,,,2022-06-06,1,,,,,イロハカンパニー,0
911,4010001227109,新規,0,2022-06-06,2022-06-06,株式会社大渕総研,,株式会社,東京都,千代田区,九段北１丁目９番７号東洋Ｍビル,,13,101,1020073,,,,,,,2022-06-06,1,,,,,オオフチソウケン,0
912,4010001227125,新規,0,2022-06-06,2022-06-06,株式会社ＣＬＩＮＩＣ０２４,,株式会社,東京都,中央区,勝どき６丁目３番１－３４０５号,,13,102,1040054,,,,,,,2022-06-06,1,,,,,クリニックゼロニーヨン,0
913,4010001227133,新規,0,2022-06-06,2022-06-06,いかだ株式会社,,株式会社,東京都,中央区,日本橋蛎殻町１丁目３番５号共同ビル２階２３号,,13,102,1030014,,,,,,,2022-06-06,1,,,,,イカダ,0
916,4010003037811,新規,0,2022-06-06,2022-06-06,合同会社Ｌｕｃｋｓ,,合同会社,東京都,千代田区,神田佐久間町３丁目２１番地,,13,101,1010025,,,,,,,2022-06-06,1,,,,,ラックス,0
918,4010005035094,新規,0,2022-06-06,2022-06-06,一般社団法人ＫＢＭＦ１,,その他の設立登記法人,東京都,千代田区,内幸町２丁目１番６号,,13,101,1000011,,,,,,,2022-06-06,1,,,,,ケイビーエムエフワン,0
929,4010401167722,新規,0,2022-06-06,2022-06-06,株式会社マスターカフェ,,株式会社,東京都,港区,六本木３丁目１０番１１号青木ビル６階,,13,103,1060032,,,,,,,2022-06-06,1,,,,,マスターカフェ,0
930,4010401167730,新規,0,2022-06-06,2022-06-06,株式会社トラストダイニングＬ,,株式会社,東京都,港区,浜松町１丁目２７番９号,,13,103,1050013,,,,,,,2022-06-06,1,,,,,トラストダイニングエル,0
932,4010403027759,新規,0,2022-06-06,2022-06-06,Ｒａｕｐｅ合同会社,,合同会社,東京都,港区,青山二丁目２番１５号,,13,103,1050000,,,,,,,2022-06-06,1,,,,,ラウペ,0
939,4010601061279,新規,0,2022-06-06,2022-06-06,株式会社冬杏舎,,株式会社,東京都,江東区,豊洲１丁目３番１－１４０２号,,13,108,1350061,,,,,,,2022-06-06,1,,,,,トウアンシャ,0
941,4010701042757,新規,0,2022-06-06,2022-06-06,株式会社Ｋｒａｆｔ　ｂｅｅｒ,,株式会社,東京都,品川区,南品川１丁目２番３３号,,13,109,1400004,,,,,,,2022-06-06,1,,,,,クラフトビール,0
942,4010801033020,新規,0,2022-06-06,2022-06-06,株式会社ａｎｅｌｌｏ,,株式会社,東京都,大田区,大森西１丁目１番１－２０３号,,13,111,1430015,,,,,,,2022-06-06,1,,,,,アネロ,0
945,4010901050972,新規,0,2022-06-06,2022-06-06,株式会社ｔｈｉｎｋ　ａ　ｓｔｏｒｙ,,株式会社,東京都,世田谷区,駒沢２丁目５５番１２号,,13,112,1540012,,,,,,,2022-06-06,1,,,,,シンクアストーリー,0
946,4010901050980,新規,0,2022-06-06,2022-06-06,株式会社ｓｅｅｋ,,株式会社,東京都,世田谷区,桜新町２丁目１７番３号,,13,112,1540015,,,,,,,2022-06-06,1,,,,,シーク,0
947,4010903007418,新規,0,2022-06-06,2022-06-06,ＴＨＥ　ＳＵＮ　ＮＥＴＷＯＲＫ合同会社,,合同会社,東京都,世田谷区,北烏山３丁目１番３号,,13,112,1570061,,,,,,,2022-06-06,1,,,,,ザサンネットワーク,0
954,4011001147882,新規,0,2022-06-06,2022-06-06,リープコンサルティング株式会社,,株式会社,東京都,目黒区,中町１丁目２７番３０号,,13,110,1530065,,,,,,,2022-06-06,1,,,,,リープコンサルティング,0
955,4011001147916,新規,0,2022-06-06,2022-06-06,株式会社ＳＥＥＤ,,株式会社,東京都,渋谷区,渋谷２丁目１番１号,,13,113,1500002,,,,,,,2022-06-06,1,,,,,シード,0
956,4011001147924,新規,0,2022-06-06,2022-06-06,株式会社ＹＯＧＯＲＯ,,株式会社,東京都,渋谷区,神宮前２丁目２０番１０号小松ビル１Ｆ,,13,113,1500001,,,,,,,2022-06-06,1,,,,,ヨゴロウ,0
957,4011001147940,新規,0,2022-06-06,2022-06-06,株式会社ＲＯＣＫＰＡＲＴＮＥＲＳ,,株式会社,東京都,渋谷区,道玄坂１丁目１０番８号渋谷道玄坂東急ビル２Ｆ－Ｃ,,13,113,1500043,,,,,,,2022-06-06,1,,,,,ロックパートナーズ,0
962,4011003014817,新規,0,2022-06-06,2022-06-06,南合同会社,,合同会社,東京都,渋谷区,神南１丁目３番２号不二ビル１Ｆ,,13,113,1500041,,,,,,,2022-06-06,1,,,,,ミナミ,0
967,4011101099090,新規,0,2022-06-06,2022-06-06,株式会社香色,,株式会社,東京都,新宿区,市谷田町１丁目３番地,,13,104,1620843,,,,,,,2022-06-06,1,,,,,コウイロ,0
969,4011401024285,新規,0,2022-06-06,2022-06-06,株式会社フクモト,,株式会社,東京都,板橋区,弥生町２１番７号,,13,119,1730021,,,,,,,2022-06-06,1,,,,,フクモト,0
972,4011603003616,新規,0,2022-06-06,2022-06-06,合同会社税務会計研究所,,合同会社,東京都,練馬区,大泉学園町６丁目２１番２９号,,13,120,1780061,,,,,,,2022-06-06,1,,,,,ゼイムカイケイケンキュウジョ,0
974,4012301013007,新規,0,2022-06-06,2022-06-06,株式会社神山工業,,株式会社,東京都,町田市,下小山田町２７４９番地２,,13,209,1940202,,,,,,,2022-06-06,1,,,,,カミヤマコウギョウ,0
982,4013301049197,新規,0,2022-06-06,2022-06-06,生活備蓄株式会社,,株式会社,東京都,豊島区,南大塚３丁目５０番１号,,13,116,1700005,,,,,,,2022-06-06,1,,,,,セイカツビチク,0
986,4020001146745,新規,0,2022-06-06,2022-06-06,株式会社山田航空機販売,,株式会社,神奈川県,川崎市中原区,市ノ坪６９０番地,,14,133,2110016,,,,,,,2022-06-06,1,,,,,ヤマダコウクウキハンバイ,0
987,4020001146753,新規,0,2022-06-06,2022-06-06,株式会社ＪＳＢ,,株式会社,神奈川県,横浜市青葉区,美しが丘西２丁目４９番地１７,,14,117,2250001,,,,,,,2022-06-06,1,,,,,ジェイエスビー,0
988,4020001146778,新規,0,2022-06-06,2022-06-06,株式会社華錦,,株式会社,神奈川県,横浜市中区,山下町８１－１５,,14,104,2310023,,,,,,,2022-06-06,1,,,,,カキン,0
989,4020001146786,新規,0,2022-06-06,2022-06-06,Ｓａｎｋｏ　Ｇｒｅｅｎ　Ｐｏｗｅｒ株式会社,,株式会社,神奈川県,横浜市都筑区,中川中央１丁目５番１８号,,14,118,2240003,,,,,,,2022-06-06,1,,,,,サンコーグリーンパワー,0
993,4021001076156,新規,0,2022-06-06,2022-06-06,株式会社Ｍｕｌｔｉ　ｒｅｐａｉｒ　ｗｏｒｋｓ,,株式会社,神奈川県,相模原市緑区,下九沢２４４２番地２１,,14,151,2520134,,,,,,,2022-06-06,1,,,,,マルチリペアワークス,0
1004,4030001148484,新規,0,2022-06-06,2022-06-06,株式会社太陽,,株式会社,埼玉県,さいたま市浦和区,瀬ヶ崎５丁目２６番１３号,,11,107,3300044,,,,,,,2022-06-06,1,,,,,タイヨウ,0
1005,4030001148492,新規,0,2022-06-06,2022-06-06,株式会社ＨＮＳ,,株式会社,埼玉県,さいたま市北区,吉野町１丁目４２８番地２Ｇａｒｒｏｚｚｅ吉野町１０３,,11,102,3310811,,,,,,,2022-06-06,1,,,,,エイチエヌエス,0
1006,4030001148501,新規,0,2022-06-06,2022-06-06,株式会社ユーワ興業,,株式会社,埼玉県,行田市,藤原町２丁目２４番地４,,11,206,3610016,,,,,,,2022-06-06,1,,,,,ユーワコウギョウ,0
1007,4030001148534,新規,0,2022-06-06,2022-06-06,株式会社ＮＥＸＴ,,株式会社,埼玉県,所沢市,大字下安松８７８番地の１１,,11,208,3590024,,,,,,,2022-06-06,1,,,,,ネクスト,0
1008,4030001148542,新規,0,2022-06-06,2022-06-06,株式会社山電設備,,株式会社,埼玉県,東松山市,大字東平６３０番地１,,11,212,3550002,,,,,,,2022-06-06,1,,,,,ヤマデンセツビ,0
1017,4040001123668,新規,0,2022-06-06,2022-06-06,株式会社ＩＣＥ　ＢＬＵＥ,,株式会社,千葉県,市川市,島尻１番３６－６０３号,,12,203,2720145,,,,,,,2022-06-06,1,,,,,アイスブルー,0
1018,4040001123676,新規,0,2022-06-06,2022-06-06,株式会社ＭＯＺＺＹ,,株式会社,千葉県,東金市,大豆谷１８９番地,,12,213,2830815,,,,,,,2022-06-06,1,,,,,モジー,0
1019,4040003020145,新規,0,2022-06-06,2022-06-06,ＯＭＩ　Ｉｎｔｅｒｎａｔｉｏｎａｌ合同会社,,合同会社,千葉県,印西市,浦部大宮戸２６２９番地,,12,231,2701367,,,,,,,2022-06-06,1,,,,,オーエムアイインターナショナル,0
1022,4050001051166,新規,0,2022-06-06,2022-06-06,ワイズコーポレーション株式会社,,株式会社,茨城県,ひたちなか市,西大島１丁目５番５号,,08,221,3120041,,,,,,,2022-06-06,1,,,,,ワイズコーポレーション,0
1023,4060001034954,新規,0,2022-06-06,2022-06-06,株式会社リューワンテック,,株式会社,栃木県,那須塩原市,二区町１４６３番地６２,,09,213,3292733,,,,,,,2022-06-06,1,,,,,リューワンテック,0
1026,4070001039300,新規,0,2022-06-06,2022-06-06,株式会社ＢＲＥＳＴＡ,,株式会社,群馬県,甘楽郡甘楽町,大字白倉８５７番地２,,10,384,3702213,,,,,,,2022-06-06,1,,,,,ブレスタ,0
1027,4070001039309,新規,0,2022-06-06,2022-06-06,株式会社ｎｅｏ,,株式会社,群馬県,高崎市,八島町２４－３、３Ｆ,,10,202,3700849,,,,,,,2022-06-06,1,,,,,ネオ,0
1029,4080001024994,新規,0,2022-06-06,2022-06-06,株式会社ＦＵＲＵＫＡＷＡ,,株式会社,静岡県,牧之原市,細江３５８５番地１,,22,226,4210421,,,,,,,2022-06-06,1,,,,,フルカワ,0
1034,4080101023319,新規,0,2022-06-06,2022-06-06,長富商事株式会社,,株式会社,静岡県,御殿場市,二枚橋２７１番地の５,,22,215,4120021,,,,,,,2022-06-06,1,,,,,ナガトミショウジ,0
1035,4080101023335,新規,0,2022-06-06,2022-06-06,株式会社ＴＭＣ,,株式会社,静岡県,三島市,中島２６５番地の１８,,22,206,4110814,,,,,,,2022-06-06,1,,,,,ティーエムシー,0
1036,4080401025857,新規,0,2022-06-06,2022-06-06,株式会社高田商事,,株式会社,静岡県,浜松市東区,有玉南町１８６７番地の１,,22,132,4313122,,,,,,,2022-06-06,1,,,,,タカダショウジ,0
1044,4110001036706,新規,0,2022-06-06,2022-06-06,株式会社Ｙ．Ｋ．Ｈａｖｅ　Ｆｕｎ,,株式会社,新潟県,新潟市東区,牡丹山５丁目６番１３号,,15,102,9500872,,,,,,,2022-06-06,1,,,,,ワイケイハブファン,0
1055,4120001246345,新規,0,2022-06-06,2022-06-06,株式会社Ｌａ．ｍｏｌｙ,,株式会社,大阪府,大阪市浪速区,桜川１丁目２番１８－４０２号,,27,111,5560022,,,,,,,2022-06-06,1,,,,,ラモーリー,0
1056,4120001246411,新規,0,2022-06-06,2022-06-06,リプデル株式会社,,株式会社,大阪府,大阪市西淀川区,中島１丁目３８番２５号,,27,113,5550041,,,,,,,2022-06-06,1,,,,,リプデル,0
1062,4120003021804,新規,0,2022-06-06,2022-06-06,合同会社ＫＵＭＡ,,合同会社,大阪府,大阪市北区,西天満４丁目１３番５－１４０５号,,27,127,5300047,,,,,,,2022-06-06,1,,,,,クマ,0
1065,4120101065694,新規,0,2022-06-06,2022-06-06,株式会社堺Ｒｅ工務,,株式会社,大阪府,堺市中区,田園７５５－３,,27,142,5998246,,,,,,,2022-06-06,1,,,,,サカイリコウム,0
1066,4120101065703,新規,0,2022-06-06,2022-06-06,株式会社ＲＩＳＥ,,株式会社,大阪府,堺市北区,新堀町１丁３１－２カサベルテ北花田Ｃ号,,27,146,5918005,,,,,,,2022-06-06,1,,,,,ライズ,0
1068,4120103004725,新規,0,2022-06-06,2022-06-06,合同会社ミル,,合同会社,大阪府,河内長野市,野作町１６番２６－１０２号,,27,216,5860023,,,,,,,2022-06-06,1,,,,,ミル,0
1071,4120901046043,新規,0,2022-06-06,2022-06-06,株式会社ＧＮ　ＷＯＲＫ,,株式会社,大阪府,池田市,渋谷３丁目１４番５号,,27,204,5630028,,,,,,,2022-06-06,1,,,,,ジーエヌワーク,0
1079,4140001126248,新規,0,2022-06-06,2022-06-06,タニテック株式会社,,株式会社,兵庫県,宝塚市,紅葉ガ丘５番１３号,,28,214,6650006,,,,,,,2022-06-06,1,,,,,タニテック,0
1080,4140001126264,新規,0,2022-06-06,2022-06-06,株式会社Ｎｅｘｔ　Ｓｔａｇｅ,,株式会社,兵庫県,神戸市西区,伊川谷町有瀬１５８０番地,,28,111,6512113,,,,,,,2022-06-06,1,,,,,ネクストステージ,0
1087,4170001017139,新規,0,2022-06-06,2022-06-06,株式会社ｍｉｎｔ,,株式会社,和歌山県,和歌山市,西布経丁２丁目２番地１,,30,201,6408211,,,,,,,2022-06-06,1,,,,,ミント,0
1099,4180001151548,新規,0,2022-06-06,2022-06-06,株式会社バンブス,,株式会社,愛知県,名古屋市守山区,大字上志段味字稲堀田新田１９１３番地の１,,23,113,4630001,,,,,,,2022-06-06,1,,,,,バンブス,0
1100,4180001151564,新規,0,2022-06-06,2022-06-06,アンドエル株式会社,,株式会社,愛知県,弥富市,鯏浦町北前新田１５番地１,,23,235,4980021,,,,,,,2022-06-06,1,,,,,アンドエル,0
1101,4180001151580,新規,0,2022-06-06,2022-06-06,株式会社イルム,,株式会社,愛知県,名古屋市瑞穂区,雁道町１丁目１６番地８０２号,,23,108,4670877,,,,,,,2022-06-06,1,,,,,イルム,0
1102,4180001151589,新規,0,2022-06-06,2022-06-06,株式会社ミニミニコネクト,,株式会社,愛知県,名古屋市千種区,橋本町１丁目６番地の２,,23,101,4640035,,,,,,,2022-06-06,1,,,,,ミニミニコネクト,0
1103,4180001151630,新規,0,2022-06-06,2022-06-06,株式会社モノウリ,,株式会社,愛知県,名古屋市天白区,古川町４１番地２,,23,116,4680046,,,,,,,2022-06-06,1,,,,,モノウリ,0
1108,4180003023902,新規,0,2022-06-06,2022-06-06,合同会社サンフラウル,,合同会社,愛知県,名古屋市中川区,中島新町３丁目１４０５番地,,23,110,4540932,,,,,,,2022-06-06,1,,,,,サンフラウル,0
1111,4190001029470,新規,0,2022-06-06,2022-06-06,株式会社城翔,,株式会社,三重県,桑名市,大字江場５番地７,,24,205,5110836,,,,,,,2022-06-06,1,,,,,ジョウショウ,0
1112,4190001029479,新規,0,2022-06-06,2022-06-06,株式会社ＳＳＫ・ＣＬＥＡＮ,,株式会社,三重県,員弁郡東員町,大字長深３７６２番地１,,24,324,5110255,,,,,,,2022-06-06,1,,,,,エスエスケイクリーン,0
1117,4200003005583,新規,0,2022-06-06,2022-06-06,合同会社アドバンスサポート,,合同会社,岐阜県,大野郡白川村,大字平瀬３０３番地の６３,,21,604,5015507,,,,,,,2022-06-06,1,,,,,アドバンスサポート,0
1121,4230001019392,新規,0,2022-06-06,2022-06-06,株式会社ＳＢＧ,,株式会社,富山県,射水市,戸破１１２６番地２,,16,211,9390351,,,,,,,2022-06-06,1,,,,,エスビージー,0
1128,4240001059859,新規,0,2022-06-06,2022-06-06,株式会社マコト設備,,株式会社,広島県,福山市,曙町３丁目６番２３号,00126775,34,207,7210952,,,,,,,2022-06-06,1,,,,,マコトセツビ,0
1129,4240001059891,新規,0,2022-06-06,2022-06-06,株式会社なみしま,,株式会社,広島県,広島市中区,大手町１丁目１番２６－３０５号,,34,101,7300051,,,,,,,2022-06-06,1,,,,,ナミシマ,0
1138,4260001036906,新規,0,2022-06-06,2022-06-06,株式会社バイタルヴォイスマーケティング,,株式会社,岡山県,総社市,宿３４５,,33,208,7191161,,,,,,,2022-06-06,1,,,,,バイタルヴォイスマーケティング,0
1141,4260003003937,新規,0,2022-06-06,2022-06-06,合同会社アイランド,,合同会社,岡山県,倉敷市,児島小川９丁目７番３１号,,33,202,7110911,,,,,,,2022-06-06,1,,,,,,0
1145,4280003001617,新規,0,2022-06-06,2022-06-06,合同会社Ｎｅｓｔ木工,,合同会社,島根県,浜田市,熱田町１３７２,,32,202,6970062,,,,,,,2022-06-06,1,,,,,,0
1149,4290001097739,新規,0,2022-06-06,2022-06-06,松興産業株式会社,,株式会社,福岡県,福岡市早良区,祖原２９番１９号１Ｆ,,40,137,8140005,,,,,,,2022-06-06,1,,,,,マツコウサンギョウ,0
1150,4290001097813,新規,0,2022-06-06,2022-06-06,永福株式会社,,株式会社,福岡県,嘉麻市,平山７５３番地６,,40,227,8200506,,,,,,,2022-06-06,1,,,,,エイフク,0
1151,4290801028579,新規,0,2022-06-06,2022-06-06,株式会社大橋塗装工業,,株式会社,福岡県,北九州市小倉南区,横代東町２丁目１７番１６号５号室,,40,107,8020822,,,,,,,2022-06-06,1,,,,,オオハシトソウコウギョウ,0
1153,4300003001853,新規,0,2022-06-06,2022-06-06,合同会社丸正,,合同会社,佐賀県,武雄市,武雄町大字武雄５７３１番地１,,41,206,8430022,,,,,,,2022-06-06,1,,,,,マルショウ,0
1155,4310001017891,新規,0,2022-06-06,2022-06-06,株式会社野田創建,,株式会社,長崎県,佐世保市,西大久保町３番２号,,42,202,8570048,,,,,,,2022-06-06,1,,,,,ノダソウケン,0
1159,4320001019111,新規,0,2022-06-06,2022-06-06,昇成工業株式会社,,株式会社,大分県,大分市,三川上４丁目３番３６号サンライズ三川１０５,,44,201,8700143,,,,,,,2022-06-06,1,,,,,ショウセイコウギョウ,0
1163,4360003012060,新規,0,2022-06-06,2022-06-06,農業生産法人ふれあい農園合同会社,,合同会社,沖縄県,那覇市,首里汀良町３丁目１１１番地,,47,201,9030806,,,,,,,2022-06-06,1,,,,,,0
1164,4370003005716,新規,0,2022-06-06,2022-06-06,合同会社Ｎ‐ＭＩＳＳＩＯＮ,,合同会社,宮城県,大崎市,三本木坂本字青山３１番地６２,,04,215,9896311,,,,,,,2022-06-06,1,,,,,エヌミッション,0
1165,4370003005724,新規,0,2022-06-06,2022-06-06,合同会社Ｐｅｎｔａｓ,,合同会社,宮城県,富谷市,成田７丁目２６番地１０９,,04,216,9813341,,,,,,,2022-06-06,1,,,,,ペンタス,0
1168,4380001032876,新規,0,2022-06-06,2022-06-06,株式会社ＵＺＵＶＩＳ,,株式会社,福島県,郡山市,大槻町字西宮前４番地の１２,,07,203,9630201,,,,,,,2022-06-06,1,,,,,ウズビス,0
1169,4380003005186,新規,0,2022-06-06,2022-06-06,ハッピー合同会社,,合同会社,福島県,会津若松市,御旗町５番４１号,,07,202,9650851,,,,,,,2022-06-06,1,,,,,ハッピー,0
1178,4430001086768,新規,0,2022-06-06,2022-06-06,ＡＭＩＲＡ株式会社,,株式会社,北海道,札幌市手稲区,西宮の沢四条４丁目１８番７号,,01,109,0060004,,,,,,,2022-06-06,1,,,,,アミラ,0
1184,4430003013976,新規,0,2022-06-06,2022-06-06,合同会社ＳＯＵＴＨ,,合同会社,北海道,空知郡南幌町,元町４丁目１番１０－３０３号,,01,423,0690238,,,,,,,2022-06-06,1,,,,,サウス,0
1193,4490001010193,新規,0,2022-06-06,2022-06-06,株式会社竹と,,株式会社,高知県,高知市,鏡吉原５０９番地,,39,201,7813108,,,,,,,2022-06-06,1,,,,,タケト,0
1197,4700150109211,新規,0,2022-06-06,2022-06-06,大宮駅西口第３Ａ－Ｄ地区市街地再開発組合,,その他,埼玉県,さいたま市大宮区,桜木町２丁目１６４イワセビル３階,,11,103,3300854,,,,,,,2022-06-06,1,,,,,オオミヤエキニシグチダイサンエーデイチクシガイチサイカイハツクミアイ,0
1204,5010001227066,新規,0,2022-06-06,2022-06-06,ＥＸ４Ｅｎｅｒｇｙ株式会社,,株式会社,東京都,千代田区,神田富山町５番１,,13,101,1010043,,,,,,,2022-06-06,1,,,,,イーエックスフォーエナジー,0
1205,5010001227124,新規,0,2022-06-06,2022-06-06,株式会社ＹＯＮＥＴＡＩ,,株式会社,東京都,文京区,関口１丁目１０番８号,,13,105,1120014,,,,,,,2022-06-06,1,,,,,ヨネタイ,0
1206,5010001227132,新規,0,2022-06-06,2022-06-06,日本生物科学院株式会社,,株式会社,東京都,中央区,日本橋蛎殻町１丁目３番５号共同ビル２階２３号,,13,102,1030014,,,,,,,2022-06-06,1,,,,,ニホンセイブツカガクイン,0
1210,5010005035085,新規,0,2022-06-06,2022-06-06,一般財団法人再生医療振興財団,,その他の設立登記法人,東京都,中央区,明石町５番１９号横山ビル２階,,13,102,1040044,,,,,,,2022-06-06,1,,,,,サイセイイリョウシンコウザイダン,0
1211,5010105002167,新規,0,2022-06-06,2022-06-06,ウェルビー社会保険労務士法人,,その他の設立登記法人,東京都,八王子市,明神町４丁目７番３号やまとビル７Ｆ,,13,201,1920046,,,,,,,2022-06-06,1,,,,,ウェルビー,0
1226,5010401167416,新規,0,2022-06-06,2022-06-06,Ｋｅｅｐｅｒ　Ｓｅｃｕｒｉｔｙ　ＡＰＡＣ株式会社,,株式会社,東京都,港区,赤坂２丁目２３番１号アークヒルズ・フロントタワーＩｎＣｏｎｔｒｏｌ内,,13,103,1070052,,,,,,,2022-06-06,1,,,,,キーパーセキュリティエイパック,0
1229,5010405021081,新規,0,2022-06-06,2022-06-06,ＨＣＢプラチナ特定目的会社,,その他の設立登記法人,東京都,港区,西新橋１丁目２番９号メンターキャピタル税理士法人内,,13,103,1050003,,,,,,,2022-06-06,1,,,,,エイチシービープラチナ,0
1231,5010701042748,新規,0,2022-06-06,2022-06-06,ディアライン株式会社,,株式会社,東京都,品川区,北品川２丁目２番１６号,,13,109,1400001,,,,,,,2022-06-06,1,,,,,ディアライン,0
1235,5010901050971,新規,0,2022-06-06,2022-06-06,大中株式会社,,株式会社,東京都,世田谷区,玉堤２丁目５番１０号,,13,112,1580087,,,,,,,2022-06-06,1,,,,,ダイチュウ,0
1236,5010903007417,新規,0,2022-06-06,2022-06-06,豆鉄砲合同会社,,合同会社,東京都,世田谷区,北沢４丁目１２番２５号北沢コーポ２０３,,13,112,1550031,,,,,,,2022-06-06,1,,,,,マメデッポウ,0
1244,5011001147898,新規,0,2022-06-06,2022-06-06,株式会社Ｄｅｋａｙ,,株式会社,東京都,渋谷区,代々木２丁目３６番６号,,13,113,1510053,,,,,,,2022-06-06,1,,,,,デケイ,0
1245,5011001147915,新規,0,2022-06-06,2022-06-06,株式会社Ａｓｓｅｍｂｌｅ,,株式会社,東京都,渋谷区,渋谷２丁目１番１号,,13,113,1500002,,,,,,,2022-06-06,1,,,,,アッセンブル,0
1246,5011001147923,新規,0,2022-06-06,2022-06-06,株式会社ＳＴＡＲＬＩＧＨＴ,,株式会社,東京都,渋谷区,道玄坂２丁目２９番１８号才藤第二ビル４Ｆ,,13,113,1500043,,,,,,,2022-06-06,1,,,,,スターライト,0
1258,5011601026007,新規,0,2022-06-06,2022-06-06,株式会社ボイスアレンジメント,,株式会社,東京都,練馬区,高野台１丁目６番８号,,13,120,1770033,,,,,,,2022-06-06,1,,,,,ボイスアレンジメント,0
1263,5011605002458,新規,0,2022-06-06,2022-06-06,特定非営利活動法人こども食堂バァバんち,,その他の設立登記法人,東京都,練馬区,中村１丁目８番２号－７,,13,120,1760024,,,,,,,2022-06-06,1,,,,,コドモショクドウバァバンチ,0
1264,5012401039272,新規,0,2022-06-06,2022-06-06,株式会社リードネット,,株式会社,東京都,調布市,小島町３丁目３４番地１７,,13,208,1820026,,,,,,,2022-06-06,1,,,,,リードネット,0
1265,5012403005396,新規,0,2022-06-06,2022-06-06,ＹＯＲＯＤＵＧＡＲＵＤＯ合同会社,,合同会社,東京都,府中市,四谷５丁目８番地の３０デュオヒルズ府中多摩川８０６号室,,13,206,1830035,,,,,,,2022-06-06,1,,,,,ヨロヅガルド,0
1266,5012405004743,新規,0,2022-06-06,2022-06-06,ＮＰＯ法人未来の担い手支援機構,,その他の設立登記法人,東京都,調布市,調布ケ丘１丁目５番１国立大学法人電気通信大学内ＡＢＮ合同会社内,,13,208,1820021,,,,,,,2022-06-06,1,,,,,ミライノニナイテシエンキコウ,0
1267,5012703002473,新規,0,2022-06-06,2022-06-06,合同会社Ｆｏｒｅｘ　Ｌａｂ,,合同会社,東京都,西東京市,芝久保町４丁目１８－６ヴェール・ドムス２０７,,13,229,1880014,,,,,,,2022-06-06,1,,,,,フォレックスラボ,0
1272,5013301049196,新規,0,2022-06-06,2022-06-06,株式会社ＳｔｏｋｅｄＢａｓｅ,,株式会社,東京都,豊島区,東池袋１丁目３４番５号いちご東池袋ビル６階,,13,116,1700013,,,,,,,2022-06-06,1,,,,,ストークベース,0
1281,5020001146604,新規,0,2022-06-06,2022-06-06,株式会社アトム内装,,株式会社,神奈川県,横浜市磯子区,田中１丁目６番２１,,14,107,2350035,,,,,,,2022-06-06,1,,,,,アトムナイソウ,0
1282,5020001146752,新規,0,2022-06-06,2022-06-06,株式会社ＫＡＮＧＥＫＩ,,株式会社,神奈川県,横浜市泉区,中田南４丁目４５番１０号,,14,116,2450014,,,,,,,2022-06-06,1,,,,,カンゲキ,0
1285,5020003021879,新規,0,2022-06-06,2022-06-06,ｔｋｍｔ　ｄｅｓｉｇｎ合同会社,,合同会社,神奈川県,川崎市宮前区,土橋２丁目４番地３キャピタル１０２,,14,136,2160005,,,,,,,2022-06-06,1,,,,,ツカモトデザイン,0
1293,5021001076139,新規,0,2022-06-06,2022-06-06,株式会社ＫＩＮＫＩ,,株式会社,神奈川県,平塚市,北金目３丁目１１番６号,,14,203,2591207,,,,,,,2022-06-06,1,,,,,キンキ,0
1294,5021001076155,新規,0,2022-06-06,2022-06-06,Ｐｈｅｗ株式会社,,株式会社,神奈川県,三浦郡葉山町,一色５３０番地の１８３,,14,301,2400111,,,,,,,2022-06-06,1,,,,,ヒュー,0
1296,5021003011787,新規,0,2022-06-06,2022-06-06,合同会社広栄,,合同会社,神奈川県,平塚市,花水台２９番１２号,,14,203,2540824,,,,,,,2022-06-06,1,,,,,コウエイ,0
1300,5030001148500,新規,0,2022-06-06,2022-06-06,株式会社ＫｅｙＷｅｓｔ,,株式会社,埼玉県,越谷市,大字北後谷３６１番地１,,11,222,3430854,,,,,,,2022-06-06,1,,,,,キーウエスト,0
1301,5030001148525,新規,0,2022-06-06,2022-06-06,株式会社のがみメタル,,株式会社,埼玉県,川口市,領家３丁目１１番１７号,,11,203,3320004,,,,,,,2022-06-06,1,,,,,ノガミメタル,0
1302,5030001148533,新規,0,2022-06-06,2022-06-06,株式会社ＳＤＡＨ,,株式会社,埼玉県,さいたま市桜区,大字上大久保２０６番地１,,11,106,3380824,,,,,,,2022-06-06,1,,,,,エスディーエーエイチ,0
1303,5030001148541,新規,0,2022-06-06,2022-06-06,株式会社ルーメ,,株式会社,埼玉県,川口市,元郷４丁目８番１号,,11,203,3320011,,,,,,,2022-06-06,1,,,,,ルーメ,0
1319,5040001123667,新規,0,2022-06-06,2022-06-06,株式会社Ｎ’ｓオフィス,,株式会社,千葉県,市原市,八幡石塚２丁目２番地３５,,12,219,2900061,,,,,,,2022-06-06,1,,,,,エヌズオフィス,0
1320,5040001123675,新規,0,2022-06-06,2022-06-06,株式会社アルク,,株式会社,千葉県,流山市,大字鰭ケ崎１４４８番地,,12,220,2700161,,,,,,,2022-06-06,1,,,,,アルク,0
1321,5040001123733,新規,0,2022-06-06,2022-06-06,株式会社ＰＯＮＯ,,株式会社,千葉県,千葉市稲毛区,長沼町２９３番地２３６号,,12,103,2630005,,,,,,,2022-06-06,1,,,,,ポノ,0
1323,5040003020136,新規,0,2022-06-06,2022-06-06,合同会社光禾,,合同会社,千葉県,千葉市中央区,宮崎２丁目７番１２号エスペランサヒルズ３０１号,,12,101,2600806,,,,,,,2022-06-06,1,,,,,コウノギ,0
1324,5040003020152,新規,0,2022-06-06,2022-06-06,合同会社ＥｄｕＬｅａｆ,,合同会社,千葉県,市原市,若宮５丁目７番地７,,12,219,2900006,,,,,,,2022-06-06,1,,,,,エデュリーフ,0
1325,5040003020185,新規,0,2022-06-06,2022-06-06,合同会社ＡＳホールディングス,,合同会社,千葉県,松戸市,五香南１丁目１１－７,,12,207,2702212,,,,,,,2022-06-06,1,,,,,エーエスホールディングス,0
1328,5050001051157,新規,0,2022-06-06,2022-06-06,株式会社ＭＫＤコーポレーション,,株式会社,茨城県,東茨城郡茨城町,大字長岡３３１７番地２０一心テナント１０１,,08,302,3113116,,,,,,,2022-06-06,1,,,,,エムケーディーコーポレーション,0
1329,5050001051165,新規,0,2022-06-06,2022-06-06,アーバンネット不動産株式会社,,株式会社,茨城県,古河市,磯部４７９番地３,,08,204,3060225,,,,,,,2022-06-06,1,,,,,アーバンネットフドウサン,0
1332,5060001034796,新規,0,2022-06-06,2022-06-06,株式会社武商事,,株式会社,栃木県,栃木市,大平町西水代１５１４番地１７,,09,203,3294423,,,,,,,2022-06-06,1,,,,,タケショウジ,0
1333,5060001034929,新規,0,2022-06-06,2022-06-06,株式会社ｂｏｗ‐ｅｓｔａｔｅ,,株式会社,栃木県,足利市,百頭町２０１１番地３,,09,202,3260336,,,,,,,2022-06-06,1,,,,,バウエステート,0
1334,5060001034945,新規,0,2022-06-06,2022-06-06,株式会社ＴＲＵＳＴ　ＧＡＲＡＧＥ,,株式会社,栃木県,宇都宮市,簗瀬町８４２番地１,,09,201,3210933,,,,,,,2022-06-06,1,,,,,トラストガレージ,0
1339,5070001039308,新規,0,2022-06-06,2022-06-06,株式会社Ｖｉｇｏｒ,,株式会社,群馬県,伊勢崎市,境下渕名２０４０番地１,,10,204,3700103,,,,,,,2022-06-06,1,,,,,ヴィガー,0
1342,5080101023326,新規,0,2022-06-06,2022-06-06,株式会社ＡＣＥ,,株式会社,静岡県,富士市,伝法７６１番地の１３,,22,210,4170061,,,,,,,2022-06-06,1,,,,,エース,0
1343,5080101023334,新規,0,2022-06-06,2022-06-06,株式会社高山不動産販売,,株式会社,静岡県,富士市,青葉町１００番地,,22,210,4160952,,,,,,,2022-06-06,1,,,,,タカヤマフドウサンハンバイ,0
1345,5080401025848,新規,0,2022-06-06,2022-06-06,ＤＯＴ株式会社,,株式会社,静岡県,浜松市南区,卸本町１９番地,,22,134,4328055,,,,,,,2022-06-06,1,,,,,ディーオーティー,0
1347,5100001035393,新規,0,2022-06-06,2022-06-06,株式会社ＨＡＹ,,株式会社,長野県,諏訪郡富士見町,落合３６５１番地３,,20,362,3990214,,,,,,,2022-06-06,1,,,,,エイチエーワイ,0
1348,5100001035402,新規,0,2022-06-06,2022-06-06,株式会社トレ・リベルラ,,株式会社,長野県,諏訪郡富士見町,富士見８１３７番地,,20,362,3990211,,,,,,,2022-06-06,1,,,,,トレリベルラ,0
1355,5110001036696,新規,0,2022-06-06,2022-06-06,株式会社武田塗装,,株式会社,新潟県,上越市,大字北新保６４番地１,,15,222,9430109,,,,,,,2022-06-06,1,,,,,タケダトソウ,0
1356,5110001036705,新規,0,2022-06-06,2022-06-06,株式会社Ｗｏｏｄ　Ｗｏｒｋｓｈｏｐ　ＳＡＷＡ,,株式会社,新潟県,新潟市東区,津島屋７丁目１０番地,,15,102,9500801,,,,,,,2022-06-06,1,,,,,ウッドワークショップサワ,0
1369,5120001246303,新規,0,2022-06-06,2022-06-06,株式会社ファミリーホーム,,株式会社,大阪府,大阪市天王寺区,上本町４丁目１番１６号３階,,27,109,5430001,,,,,,,2022-06-06,1,,,,,ファミリーホーム,0
1370,5120001246419,新規,0,2022-06-06,2022-06-06,勝尾商事株式会社,,株式会社,大阪府,大阪市浪速区,大国２丁目５番３号エクラ大国町３０３号,,27,111,5560014,,,,,,,2022-06-06,1,,,,,カツオショウジ,0
1381,5120101065693,新規,0,2022-06-06,2022-06-06,株式会社トルチェ,,株式会社,大阪府,富田林市,楠風台１丁目２番１号,,27,214,5840051,,,,,,,2022-06-06,1,,,,,トルチェ,0
1385,5120903004171,新規,0,2022-06-06,2022-06-06,合同会社エグゼルマン,,合同会社,大阪府,茨木市,竹橋町９番１２号５０７,,27,211,5670815,,,,,,,2022-06-06,1,,,,,エグゼルマン,0
1387,5122001035933,新規,0,2022-06-06,2022-06-06,リアノス株式会社,,株式会社,大阪府,四條畷市,田原台１丁目１３番１６号,,27,229,5750013,,,,,,,2022-06-06,1,,,,,リアノス,0
1390,5130001071898,新規,0,2022-06-06,2022-06-06,株式会社まつもと,,株式会社,京都府,京都市右京区,西京極北裏町３４番地,,26,108,6150821,,,,,,,2022-06-06,1,,,,,マツモト,0
1391,5130001071915,新規,0,2022-06-06,2022-06-06,株式会社Ｊ‐ｃｏｎｎｅｃｔ,,株式会社,京都府,京田辺市,花住坂１丁目１８番地１３,,26,211,6100352,,,,,,,2022-06-06,1,,,,,ジェイコネクト,0
1393,5130003007966,新規,0,2022-06-06,2022-06-06,合同会社ＲＦサポート,,合同会社,京都府,京都市西京区,大原野東竹の里町２丁目１番地,,26,111,6101144,,,,,,,2022-06-06,1,,,,,アールエフサポート,0
1395,5130005016494,新規,0,2022-06-06,2022-06-06,一般社団法人京都アカデミア投資研究会,,その他の設立登記法人,京都府,京都市左京区,吉田本町３６番地１,,26,103,6068317,,,,,,,2022-06-06,1,,,,,キョウトアカデミアトウシケンキュウカイ,0
1398,5140001126164,新規,0,2022-06-06,2022-06-06,株式会社ネットソーラーパワーアイランド,,株式会社,兵庫県,小野市,神明町１８８番地の１,,28,218,6751331,,,,,,,2022-06-06,1,,,,,ネットソーラーパワーアイランド,0
1399,5140001126189,新規,0,2022-06-06,2022-06-06,Ｄ‐ＰＯＷＥＲ木之本株式会社,,株式会社,兵庫県,西宮市,若松町４番１７号,,28,204,6620035,,,,,,,2022-06-06,1,,,,,ディーパワーキノモト,0
1400,5140001126247,新規,0,2022-06-06,2022-06-06,山根産業株式会社,,株式会社,兵庫県,加古郡稲美町,国岡１３４９番地の１,,28,381,6751115,,,,,,,2022-06-06,1,,,,,ヤマネサンギョウ,0
1401,5140001126255,新規,0,2022-06-06,2022-06-06,株式会社ＰＨＯＴＯＲＡ,,株式会社,兵庫県,神戸市須磨区,車字菅ノ池１３５１－３グレーシィ須磨壱番館６０９,,28,107,6540111,,,,,,,2022-06-06,1,,,,,フォトラ,0
1402,5140001126263,新規,0,2022-06-06,2022-06-06,神戸アジア人材派遣株式会社,,株式会社,兵庫県,明石市,大久保町高丘６丁目１１－４,,28,203,6740057,,,,,,,2022-06-06,1,,,,,コウベアジアジンザイハケン,0
1406,5170003001734,新規,0,2022-06-06,2022-06-06,合同会社悠嬉,,合同会社,和歌山県,橋本市,高野口町伏原２８５番地の１タウラス１０１,,30,203,6497202,,,,,,,2022-06-06,1,,,,,ユウキ,0
1416,5180001151555,新規,0,2022-06-06,2022-06-06,株式会社サカイフィールド,,株式会社,愛知県,半田市,青山４丁目２番地の１,,23,205,4750836,,,,,,,2022-06-06,1,,,,,サカイフィールド,0
1417,5180001151571,新規,0,2022-06-06,2022-06-06,セントラルクック株式会社,,株式会社,愛知県,北名古屋市,九之坪小松８６番地,,23,234,4810041,,,,,,,2022-06-06,1,,,,,セントラルクック,0
1418,5180001151588,新規,0,2022-06-06,2022-06-06,株式会社クレオパートナーズ,,株式会社,愛知県,名古屋市中区,栄３丁目１５番３３号,,23,106,4600008,,,,,,,2022-06-06,1,,,,,クレオパートナーズ,0
1419,5180001151596,新規,0,2022-06-06,2022-06-06,Ｎ研究所株式会社,,株式会社,愛知県,名古屋市西区,笹塚町２丁目７０番地鳥見パークマンション三番街南棟２０１号,,23,104,4510077,,,,,,,2022-06-06,1,,,,,エヌケンキュウジョ,0
1420,5180001151605,新規,0,2022-06-06,2022-06-06,株式会社ＳＣＡＰＥ,,株式会社,愛知県,名古屋市中区,丸の内３丁目４番３３号プレサンス丸の内フォート１００２号,,23,106,4600002,,,,,,,2022-06-06,1,,,,,スケイプ,0
1421,5180001151613,新規,0,2022-06-06,2022-06-06,ＴＨＲＥＥ　ＰＬＵＳ株式会社,,株式会社,愛知県,名古屋市中区,丸の内３丁目１３番１号,,23,106,4600002,,,,,,,2022-06-06,1,,,,,スリープラス,0
1432,5180003023901,新規,0,2022-06-06,2022-06-06,合同会社プロ注,,合同会社,愛知県,あま市,下萱津坪井３５－４,,23,237,4901114,,,,,,,2022-06-06,1,,,,,プロチュウ,0
1435,5190001029478,新規,0,2022-06-06,2022-06-06,株式会社Ｅ‐ＮＡスペース,,株式会社,三重県,四日市市,中川原１丁目１５－１１,,24,202,5100833,,,,,,,2022-06-06,1,,,,,イーナスペース,0
1440,5200003005582,新規,0,2022-06-06,2022-06-06,合同会社Ｒａｙｓ,,合同会社,岐阜県,各務原市,鵜沼小伊木町２丁目２９ファミール２０３,,21,213,5090143,,,,,,,2022-06-06,1,,,,,レイズ,0
1442,5220001024896,新規,0,2022-06-06,2022-06-06,株式会社ペアー,,株式会社,石川県,白山市,茶屋１丁目１３番地,,17,210,9240867,,,,,,,2022-06-06,1,,,,,ペアー,0
1443,5220003003295,新規,0,2022-06-06,2022-06-06,合同会社ＴＡＮＭＡＳＳＩ,,合同会社,石川県,金沢市,泉が丘１丁目１６番１０号,,17,201,9218035,,,,,,,2022-06-06,1,,,,,タンマッシ,0
1446,5230001019391,新規,0,2022-06-06,2022-06-06,株式会社令和総合建築,,株式会社,富山県,富山市,町村２０８番地８,,16,201,9300952,,,,,,,2022-06-06,1,,,,,レイワソウゴウケンチク,0
1447,5230001019400,新規,0,2022-06-06,2022-06-06,株式会社ＴＡＱＷＡ・ＡＵＴＯ,,株式会社,富山県,射水市,草岡町２丁目１７番地７,,16,211,9330225,,,,,,,2022-06-06,1,,,,,タクワオート,0
1451,5240003005645,新規,0,2022-06-06,2022-06-06,合同会社Ｇｏｌｄｅｎ　Ｊ,,合同会社,広島県,広島市西区,己斐本町３丁目１０番４号,,34,104,7330812,,,,,,,2022-06-06,1,,,,,ゴールデンジェイ,0
1452,5250001019605,新規,0,2022-06-06,2022-06-06,Ｓプランニング株式会社,,株式会社,山口県,山口市,吉田２０３６番地３,,35,203,7530841,,,,,,,2022-06-06,1,,,,,エスプランニング,0
1458,5260005011094,新規,0,2022-06-06,2022-06-06,一般社団法人ＯＮ‐ＤＯ,,その他の設立登記法人,岡山県,総社市,総社２丁目２２番３４号,,33,208,7191126,,,,,,,2022-06-06,1,,,,,オンド,0
1459,5270001008548,新規,0,2022-06-06,2022-06-06,株式会社池口新聞舗,,株式会社,鳥取県,西伯郡大山町,富長８３９番地２,,31,386,6893221,,,,,,,2022-06-06,1,,,,,イケグチシンブンホ,0
1463,5290001097738,新規,0,2022-06-06,2022-06-06,株式会社ティーケーシー,,株式会社,福岡県,福岡市中央区,天神１丁目９番１７号,,40,133,8100001,,,,,,,2022-06-06,1,,,,,ティーケーシー,0
1464,5290001097746,新規,0,2022-06-06,2022-06-06,株式会社ギルドハウス,,株式会社,福岡県,福岡市早良区,原２丁目９番２０－２０５号,,40,137,8140022,,,,,,,2022-06-06,1,,,,,ギルドハウス,0
1465,5290001097812,新規,0,2022-06-06,2022-06-06,株式会社竹内機工,,株式会社,福岡県,みやま市,山川町真弓６４６番地５,,40,229,8350111,,,,,,,2022-06-06,1,,,,,タケウチキコウ,0
1466,5290003012579,新規,0,2022-06-06,2022-06-06,合同会社絆,,合同会社,福岡県,福岡市東区,松島３丁目２９番２０－５０１号,,40,131,8130062,,,,,,,2022-06-06,1,,,,,キズナ,0
1469,5290801028578,新規,0,2022-06-06,2022-06-06,株式会社谷崎,00126762,株式会社,福岡県,直方市,大字上頓野４９６５番地の２,,40,204,8220003,,,,,,,2022-06-06,1,,,,,タニザキ,0
1470,5290801028586,新規,0,2022-06-06,2022-06-06,株式会社ＹＯＳＨＩＤＡ,,株式会社,福岡県,北九州市若松区,中畑町２０番１号,,40,103,8080047,,,,,,,2022-06-06,1,,,,,ヨシダ,0
1472,5300003001852,新規,0,2022-06-06,2022-06-06,合同会社ＯＡＫＳ,,合同会社,佐賀県,佐賀市,若宮２丁目１７番１６号,,41,201,8490926,,,,,,,2022-06-06,1,,,,,オークス,0
1477,5320003003822,新規,0,2022-06-06,2022-06-06,合同会社浩真,,合同会社,大分県,豊後高田市,高田２０６８番地１,,44,209,8790617,,,,,,,2022-06-06,1,,,,,ヒロマ,0
1479,5330003009397,新規,0,2022-06-06,2022-06-06,Ｇｏｏｄ　ｂｏｒｉｎｇ　ｃｏｍｐａｎｙ合同会社,,合同会社,熊本県,熊本市南区,富合町莎崎７２２番地,,43,104,8614166,,,,,,,2022-06-06,1,,,,,グッドボーリングカンパニー,0
1485,5360001030501,新規,0,2022-06-06,2022-06-06,株式会社福田ＦＰよろず相談所,,株式会社,沖縄県,那覇市,牧志３丁目５番９号,,47,201,9000013,,,,,,,2022-06-06,1,,,,,フクダエフピーヨロズソウダンショ,0
1487,5370001048617,新規,0,2022-06-06,2022-06-06,株式会社高電工業所,00126770,株式会社,宮城県,塩竈市,北浜４丁目５番２６号,,04,203,9850003,,,,,,,2022-06-06,1,,,,,タカデンコウギョウショ,0
1488,5370003005715,新規,0,2022-06-06,2022-06-06,Ｌａｌａ合同会社,,合同会社,宮城県,仙台市太白区,袋原３丁目８番３１号,,04,104,9811102,,,,,,,2022-06-06,1,,,,,ララ,0
1489,5370003005723,新規,0,2022-06-06,2022-06-06,ＤＴ合同会社,,合同会社,宮城県,仙台市青葉区,花京院２丁目１番５４号ダイワ旭ビル４０１,,04,101,9800013,,,,,,,2022-06-06,1,,,,,ディーティー,0
1492,5380001032867,新規,0,2022-06-06,2022-06-06,株式会社ＹＴＩ,,株式会社,福島県,郡山市,安積町日出山字大洲河原８１番地の２,,07,203,9630101,,,,,,,2022-06-06,1,,,,,ワイティーアイ,0
1501,5410001013194,新規,0,2022-06-06,2022-06-06,住建開発株式会社,,株式会社,秋田県,秋田市,楢山川口境７番１９号,,05,201,0100029,,,,,,,2022-06-06,1,,,,,スミケンカイハツ,0
1509,5430001086759,新規,0,2022-06-06,2022-06-06,株式会社ＤＴプランニング,,株式会社,北海道,札幌市東区,北十九条東４丁目１番３５－５０６号,,01,103,0650019,,,,,,,2022-06-06,1,,,,,ディーティープランニング,0
1510,5430001086767,新規,0,2022-06-06,2022-06-06,株式会社チームフォース,,株式会社,北海道,札幌市中央区,南十六条西４丁目１番３－８０１号,,01,101,0640916,,,,,,,2022-06-06,1,,,,,チームフォース,0
1518,5440001009099,新規,0,2022-06-06,2022-06-06,ミライ設備株式会社,,株式会社,北海道,函館市,神山３丁目３１番６号,,01,202,0410832,,,,,,,2022-06-06,1,,,,,ミライセツビ,0
1525,5700150109210,新規,0,2022-06-06,2022-06-06,新義成実宗　恵晶山　孝福寺,,その他,東京都,新宿区,西新宿３丁目５－１２トーカン新宿第二キャステール３０１,,13,104,1600023,,,,,,,2022-06-06,1,,,,,シンギジョウジツシュウケイショウザンコウフクジ,0
1539,6010001227123,新規,0,2022-06-06,2022-06-06,株式会社夕凪堂,,株式会社,東京都,千代田区,外神田２丁目１番１６号昌平橋中央ビル２Ｆ,,13,101,1010021,,,,,,,2022-06-06,1,,,,,ユウナギドウ,0
1542,6010003037826,新規,0,2022-06-06,2022-06-06,ＫＳｉｇｎｅｄ　ｕｐ合同会社,,合同会社,東京都,文京区,大塚３丁目３５番４号,,13,105,1120012,,,,,,,2022-06-06,1,,,,,ケイサインドアップ,0
1547,6010005035076,新規,0,2022-06-06,2022-06-06,一般社団法人グリーンＣＰＳ協議会,,その他の設立登記法人,東京都,中央区,日本橋馬喰町１丁目５番１２号ＣＩＲＣＬＥＳ日本橋馬喰町１０階,,13,102,1030002,,,,,,,2022-06-06,1,,,,,グリーンシーピーエスキョウギカイ,0
1559,6010401167729,新規,0,2022-06-06,2022-06-06,株式会社ｎｅｗｂ,,株式会社,東京都,港区,赤坂２丁目２１番５号ＡＢＣ・Ｄ－７１,,13,103,1070052,,,,,,,2022-06-06,1,,,,,ニューブ,0
1560,6010401167737,新規,0,2022-06-06,2022-06-06,ＦＯＯＤＳ．ＰＬＡＺＡ株式会社,,株式会社,東京都,港区,芝浦４丁目４番３４号コトヒラビル８階,,13,103,1080023,,,,,,,2022-06-06,1,,,,,フーズプラザ,0
1573,6010601061244,新規,0,2022-06-06,2022-06-06,株式会社サンライト,,株式会社,東京都,墨田区,吾妻橋２丁目９番７号,,13,107,1300001,,,,,,,2022-06-06,1,,,,,サンライト,0
1574,6010601061269,新規,0,2022-06-06,2022-06-06,株式会社アゲイン,,株式会社,東京都,江東区,亀戸２丁目１３番１３号,,13,108,1360071,,,,,,,2022-06-06,1,,,,,アゲイン,0
1575,6010601061277,新規,0,2022-06-06,2022-06-06,日諾株式会社,,株式会社,東京都,江東区,北砂５丁目２０番１８－１１１０号,,13,108,1360073,,,,,,,2022-06-06,1,,,,,ニチダク,0
1580,6010603009563,新規,0,2022-06-06,2022-06-06,合同会社Ｃ＆Ｃビジネスコンサルティング,,合同会社,東京都,江東区,有明３丁目７－２６有明フロンティアビルＢ棟９階,,13,108,1350063,,,,,,,2022-06-06,1,,,,,シーアンドシービジネスコンサルティング,0
1586,6010901050970,新規,0,2022-06-06,2022-06-06,株式会社北烏山編集室,,株式会社,東京都,世田谷区,北烏山７丁目２５番８－２０２号,,13,112,1570061,,,,,,,2022-06-06,1,,,,,キタカラスヤマヘンシュウシツ,0
1587,6010901050979,新規,0,2022-06-06,2022-06-06,Ａ＆Ａマーケティング株式会社,,株式会社,東京都,世田谷区,中町５丁目９番６－１０９号,,13,112,1580091,,,,,,,2022-06-06,1,,,,,エーアンドエーマーケティング,0
1588,6010905004320,新規,0,2022-06-06,2022-06-06,一般社団法人若獅子会,,その他の設立登記法人,東京都,世田谷区,経堂５丁目５番８号白樺荘１６号室,,13,112,1560052,,,,,,,2022-06-06,1,,,,,ワカジシノカイ,0
1594,6011001147897,新規,0,2022-06-06,2022-06-06,株式会社山田,,株式会社,東京都,渋谷区,千駄ヶ谷４丁目３番１１号ニューベリー千駄ヶ谷１Ｆ,,13,113,1510051,,,,,,,2022-06-06,1,,,,,ヤマダ,0
1595,6011001147914,新規,0,2022-06-06,2022-06-06,株式会社Ｓｃａｒｌｅｔ,,株式会社,東京都,渋谷区,渋谷２丁目１番１号,,13,113,1500002,,,,,,,2022-06-06,1,,,,,スカーレット,0
1596,6011001147922,新規,0,2022-06-06,2022-06-06,株式会社Ｒｅａｆ,,株式会社,東京都,渋谷区,渋谷２丁目１９番１５号宮益坂ビルディング６０９,,13,113,1500002,,,,,,,2022-06-06,1,,,,,リーフ,0
1597,6011001147947,新規,0,2022-06-06,2022-06-06,株式会社ｋｏｃｈ,,株式会社,東京都,渋谷区,神宮前６丁目２３番４号・桑野ビル２階,,13,113,1500001,,,,,,,2022-06-06,1,,,,,コッホ,0
1600,6011003014757,新規,0,2022-06-06,2022-06-06,ひだまり手帳合同会社,,合同会社,東京都,渋谷区,神宮前６丁目２３番４号桑野ビル２Ｆ,,13,113,1500001,,,,,,,2022-06-06,1,,,,,ヒダマリテチョウ,0
1605,6011103011745,新規,0,2022-06-06,2022-06-06,合同会社ＭＵＬＴＩＴＵＤＥ,,合同会社,東京都,新宿区,西早稲田２丁目２１番－８レガーロ西早稲田６０９,,13,104,1690051,,,,,,,2022-06-06,1,,,,,マルチチュード,0
1606,6011103011811,新規,0,2022-06-06,2022-06-06,合同会社加奈,,合同会社,東京都,新宿区,新宿１丁目２９番５－４０２号,,13,104,1600022,,,,,,,2022-06-06,1,,,,,カナ,0
1607,6011105010274,新規,0,2022-06-06,2022-06-06,一般社団法人臨床スポーツ薬理学推進機構,,その他の設立登記法人,東京都,新宿区,霞ヶ丘町４番２号,,13,104,1600013,,,,,,,2022-06-06,1,,,,,リンショウスポーツヤクリガクスイシンキコウ,0
1611,6011301027824,新規,0,2022-06-06,2022-06-06,株式会社ＲＡＸ,,株式会社,東京都,杉並区,梅里１丁目８番９号プラムヴィレッジＡ１１１,,13,115,1660011,,,,,,,2022-06-06,1,,,,,ラックス,0
1612,6011601026014,新規,0,2022-06-06,2022-06-06,株式会社ニックジャパン,,株式会社,東京都,練馬区,下石神井４丁目３０番１０－１０６号,,13,120,1770042,,,,,,,2022-06-06,1,,,,,ニックジャパン,0
1620,6012401039271,新規,0,2022-06-06,2022-06-06,株式会社ＭＹＲＹ,,株式会社,東京都,狛江市,西野川２丁目２２番１０号,,13,219,2010001,,,,,,,2022-06-06,1,,,,,マイリー,0
1622,6012701017092,新規,0,2022-06-06,2022-06-06,株式会社けやきＷＯＲＫＳ,,株式会社,東京都,小平市,小川町１丁目４５９－１０サルーンマンションオザキ,,13,211,1870032,,,,,,,2022-06-06,1,,,,,ケヤキワークス,0
1629,6013301049187,新規,0,2022-06-06,2022-06-06,株式会社Ｃａｎｖａｓ,,株式会社,東京都,豊島区,池袋２丁目３４番８号モーリスＭ・Ｋ１０２号,,13,116,1710014,,,,,,,2022-06-06,1,,,,,キャンバス,0
1630,6013301049195,新規,0,2022-06-06,2022-06-06,株式会社Ｂｕｚｚ,,株式会社,東京都,豊島区,東池袋４丁目２９番１２－５０１号,,13,116,1700013,,,,,,,2022-06-06,1,,,,,バズ,0
1631,6013303006186,新規,0,2022-06-06,2022-06-06,イケブクロ不動産合同会社,,合同会社,東京都,豊島区,東池袋４丁目２番１－１６０８号,,13,116,1700013,,,,,,,2022-06-06,1,,,,,イケブクロフドウサン,0
1638,6020001146751,新規,0,2022-06-06,2022-06-06,株式会社ＭＫコンサル,,株式会社,神奈川県,横浜市青葉区,鴨志田町８０６番地１７,,14,117,2270033,,,,,,,2022-06-06,1,,,,,エムケイコンサル,0
1639,6020001146784,新規,0,2022-06-06,2022-06-06,株式会社ＭＯＴＯ,,株式会社,神奈川県,横浜市西区,桜木町７丁目４２番地１２Ｌ．Ｍ．横浜桜木町６０１号,,14,103,2200021,,,,,,,2022-06-06,1,,,,,モト,0
1640,6020001146792,新規,0,2022-06-06,2022-06-06,株式会社高橋興業,,株式会社,神奈川県,横浜市戸塚区,東俣野町１１６８番地１８,,14,110,2450065,,,,,,,2022-06-06,1,,,,,タカハシコウギョウ,0
1646,6021001076138,新規,0,2022-06-06,2022-06-06,株式会社伸住設,,株式会社,神奈川県,藤沢市,鵠沼海岸６丁目３番３１－２号,00126765,14,205,2510037,,,,,,,2022-06-06,1,,,,,シンジュウセツ,0
1647,6021001076162,新規,0,2022-06-06,2022-06-06,リフォームｍｉｋｉ株式会社,,株式会社,神奈川県,三浦郡葉山町,一色１５５０番地ハイツ葉山大道２０２号,,14,301,2400111,,,,,,,2022-06-06,1,,,,,リフォームミキ,0
1653,6021003011786,新規,0,2022-06-06,2022-06-06,ディーワイエステート合同会社,,合同会社,神奈川県,海老名市,柏ケ谷１０５３番地の１５,,14,215,2430402,,,,,,,2022-06-06,1,,,,,ディーワイエステート,0
1657,6030001148482,新規,0,2022-06-06,2022-06-06,海王商事株式会社,,株式会社,埼玉県,川口市,西川口６丁目７番３２号,,11,203,3320021,,,,,,,2022-06-06,1,,,,,カイオウショウジ,0
1658,6030001148499,新規,0,2022-06-06,2022-06-06,株式会社和田板金工業,,株式会社,埼玉県,上尾市,大字小敷谷８５４番地１誠勇ビル２０２,,11,219,3620064,,,,,,,2022-06-06,1,,,,,ワダバンキンコウギョウ,0
1659,6030001148508,新規,0,2022-06-06,2022-06-06,ＨＩＡ株式会社,,株式会社,埼玉県,熊谷市,上須戸４８３番地５,,11,202,3600213,,,,,,,2022-06-06,1,,,,,ヒア,0
1660,6030001148516,新規,0,2022-06-06,2022-06-06,株式会社ピース,,株式会社,埼玉県,川口市,大字差間１５５番地の１６,,11,203,3330816,,,,,,,2022-06-06,1,,,,,ピース,0
1661,6030001148524,新規,0,2022-06-06,2022-06-06,株式会社ＣＳＫ,,株式会社,埼玉県,深谷市,大谷１１３２番地３,,11,218,3660814,,,,,,,2022-06-06,1,,,,,シーエスケー,0
1662,6030001148532,新規,0,2022-06-06,2022-06-06,株式会社ミネルヴァ,,株式会社,埼玉県,上尾市,柏座１丁目７番３号,,11,219,3620075,,,,,,,2022-06-06,1,,,,,ミネルヴァ,0
1667,6030003019525,新規,0,2022-06-06,2022-06-06,合同会社タカギ建創,,合同会社,埼玉県,東松山市,六反町１１番地４須田ハイツＢ－２０２,,11,212,3550023,,,,,,,2022-06-06,1,,,,,タカギケンソウ,0
1670,6040001123674,新規,0,2022-06-06,2022-06-06,Ｋ　Ｃｏｎｖｅｒｔｉｎｇ　Ｓｏｌｕｔｉｏｎｓ株式会社,,株式会社,千葉県,野田市,中里２７６１番地２,,12,208,2700237,,,,,,,2022-06-06,1,,,,,ケーコンバーティングソリューションズ,0
1671,6040001123682,新規,0,2022-06-06,2022-06-06,株式会社高の屋,00126769,株式会社,千葉県,木更津市,清川１丁目３番３号,,12,206,2920051,,,,,,,2022-06-06,1,,,,,,0
1672,6040001123708,新規,0,2022-06-06,2022-06-06,株式会社結,,株式会社,千葉県,市原市,草刈８４０番地２,,12,219,2900001,,,,,,,2022-06-06,1,,,,,ユイ,0
1673,6040001123740,新規,0,2022-06-06,2022-06-06,沖レント株式会社,,株式会社,千葉県,千葉市緑区,おゆみ野有吉２２番地９,,12,105,2660034,,,,,,,2022-06-06,1,,,,,オキレント,0
1675,6040003020151,新規,0,2022-06-06,2022-06-06,合同会社ＹＯＫＯフードコンサルティング,,合同会社,千葉県,松戸市,樋野口６７８番地の１ヴェラハイツ松戸２０３号,,12,207,2710067,,,,,,,2022-06-06,1,,,,,ヨーコフードコンサルティング,0
1676,6040003020176,新規,0,2022-06-06,2022-06-06,七月合同会社,,合同会社,千葉県,松戸市,古ケ崎４丁目３５２５番地の２,,12,207,2710068,,,,,,,2022-06-06,1,,,,,,0
1678,6050001051164,新規,0,2022-06-06,2022-06-06,株式会社濱野工業,,株式会社,茨城県,つくばみらい市,筒戸１７９９番地９,,08,235,3002435,,,,,,,2022-06-06,1,,,,,ハマノコウギョウ,0
1680,6050003006595,新規,0,2022-06-06,2022-06-06,ＡＩ　ＴＲＡＤＩＮＧ合同会社,,合同会社,茨城県,筑西市,横塚９２０番地２,,08,227,3091116,,,,,,,2022-06-06,1,,,,,エーアイトレーディング,0
1682,6060001034928,新規,0,2022-06-06,2022-06-06,島田屋商店株式会社,,株式会社,栃木県,小山市,城東３丁目１４番３号,,09,208,3230807,,,,,,,2022-06-06,1,,,,,シマダヤショウテン,0
1689,6070003004507,新規,0,2022-06-06,2022-06-06,青葉合同会社,,合同会社,群馬県,高崎市,通町７３イマジンビル高崎４Ｆ,,10,202,3700053,,,,,,,2022-06-06,1,,,,,アオバ,0
1693,6080101023325,新規,0,2022-06-06,2022-06-06,ＡＣＡＯ　ＰＲＯＰＥＲＴＹ株式会社,,株式会社,静岡県,熱海市,上多賀１０３４番地の３８,,22,205,4130101,,,,,,,2022-06-06,1,,,,,アカオプロパティ,0
1694,6080401025855,新規,0,2022-06-06,2022-06-06,関塚建材株式会社,,株式会社,静岡県,磐田市,平間１１５７番地,,22,211,4380203,,,,,,,2022-06-06,1,,,,,セキヅカケンザイ,0
1695,6090005007497,新規,0,2022-06-06,2022-06-06,一般社団法人スポーツ動作特性協会,,その他の設立登記法人,山梨県,中巨摩郡昭和町,河西１６２５番地４,,19,384,4093851,,,,,,,2022-06-06,1,,,,,スポーツドウサトクセイキョウカイ,0
1697,6100001035401,新規,0,2022-06-06,2022-06-06,スケール・ワン株式会社,,株式会社,長野県,北佐久郡御代田町,大字馬瀬口１５９７番地４８５,,20,323,3890207,,,,,,,2022-06-06,1,,,,,スケールワン,0
1700,6100003006573,新規,0,2022-06-06,2022-06-06,長野近未来流通合同会社,,合同会社,長野県,飯田市,座光寺１２０８番地２,,20,205,3950001,,,,,,,2022-06-06,1,,,,,ナガノキンミライリュウツウ,0
1713,6110003004782,新規,0,2022-06-06,2022-06-06,合同会社スワローＸＦＦ,,合同会社,新潟県,燕市,吉田東栄町７番８号,,15,213,9590232,,,,,,,2022-06-06,1,,,,,スワローエックスエフエフ,0
1723,6120001246401,新規,0,2022-06-06,2022-06-06,株式会社ＨＡＲＵ,,株式会社,大阪府,大阪市北区,大淀南２丁目２番９－４４０２号,,27,127,5310075,,,,,,,2022-06-06,1,,,,,ハル,0
1730,6120101065684,新規,0,2022-06-06,2022-06-06,株式会社チェリーブロッサムジャパン,,株式会社,大阪府,堺市南区,御池台２丁１番１１９号,,27,145,5900134,,,,,,,2022-06-06,1,,,,,チェリーブロッサムジャパン,0
1731,6120101065701,新規,0,2022-06-06,2022-06-06,株式会社Ｐｕｒｅ　Ｈｅａｒｔ,,株式会社,大阪府,松原市,大堀２丁目１５番１７号,,27,217,5800006,,,,,,,2022-06-06,1,,,,,ピュアハート,0
1737,6130001071889,新規,0,2022-06-06,2022-06-06,株式会社Ｔａｐ,,株式会社,京都府,京都市山科区,音羽沢町３９番地８,,26,110,6078077,,,,,,,2022-06-06,1,,,,,タップ,0
1738,6130001071922,新規,0,2022-06-06,2022-06-06,株式会社西村造園,,株式会社,京都府,長岡京市,友岡２丁目３番３０号メゾン・ナチュール友岡３０４,,26,209,6170843,,,,,,,2022-06-06,1,,,,,ニシムラゾウエン,0
1740,6140001126163,新規,0,2022-06-06,2022-06-06,株式会社ネットソーラーパワーファクトリー,,株式会社,兵庫県,小野市,神明町１８８番地の１,,28,218,6751331,,,,,,,2022-06-06,1,,,,,ネットソーラーパワーファクトリー,0
1741,6140001126246,新規,0,2022-06-06,2022-06-06,株式会社Ｔｏｂｉｒａ,,株式会社,兵庫県,西宮市,甲風園１丁目１０番３号,,28,204,6620832,,,,,,,2022-06-06,1,,,,,トビラ,0
1746,6140005026186,新規,0,2022-06-06,2022-06-06,一般社団法人知足公益普及協会,,その他の設立登記法人,兵庫県,神戸市中央区,御幸通８丁目１番６号神戸国際会館２２Ｆ,,28,110,6510087,,,,,,,2022-06-06,1,,,,,チソクコウエキフキュウキョウカイ,0
1749,6160003002583,新規,0,2022-06-06,2022-06-06,合同会社夢,,合同会社,滋賀県,守山市,幸津川町１１２４番地,,25,207,5240215,,,,,,,2022-06-06,1,,,,,ユメ,0
1764,6180001151587,新規,0,2022-06-06,2022-06-06,株式会社Ｏｎｉｔｓｕｋａ,,株式会社,愛知県,小牧市,大字間々３５５番地,,23,219,4850015,,,,,,,2022-06-06,1,,,,,オニツカ,0
1765,6180001151604,新規,0,2022-06-06,2022-06-06,株式会社Ｔｒｉｕｍｐｈ,,株式会社,愛知県,名古屋市港区,津金１丁目３番２０号,,23,111,4550004,,,,,,,2022-06-06,1,,,,,トライアンフ,0
1766,6180001151629,新規,0,2022-06-06,2022-06-06,株式会社イチマル,,株式会社,愛知県,長久手市,岩作三ケ峯２番地１２２９,,23,238,4801103,,,,,,,2022-06-06,1,,,,,イチマル,0
1767,6180001151637,新規,0,2022-06-06,2022-06-06,株式会社Ｇ　ＡＵＴＯ　ＴＲＡＤＩＮＧ,,株式会社,愛知県,丹羽郡大口町,河北２丁目２７９番地,,23,361,4800121,,,,,,,2022-06-06,1,,,,,ジーオートトレーディング,0
1772,6180003023891,新規,0,2022-06-06,2022-06-06,合同会社ｆｙｓ,,合同会社,愛知県,一宮市,松降１丁目１０番２３号,,23,203,4910042,,,,,,,2022-06-06,1,,,,,エフワイエス,0
1773,6180003023900,新規,0,2022-06-06,2022-06-06,ケンコーポレーション合同会社,,合同会社,愛知県,名古屋市千種区,御棚町３丁目２１番地パークハウスヒルズ御棚町４０３号,,23,101,4640835,,,,,,,2022-06-06,1,,,,,ケンコーポレーション,0
1779,6180303005350,新規,0,2022-06-06,2022-06-06,さくらサービス合同会社,,合同会社,愛知県,知立市,新林町東新切１番地３６,,23,225,4720017,,,,,,,2022-06-06,1,,,,,サクラサービス,0
1785,6200003005581,新規,0,2022-06-06,2022-06-06,合同会社Ｋ‐ｓｋｙ,,合同会社,岐阜県,土岐市,駄知町２１８３番地７,,21,212,5095401,,,,,,,2022-06-06,1,,,,,ケースカイ,0
1789,6230001019399,新規,0,2022-06-06,2022-06-06,株式会社ヤギヤアカデミー,,株式会社,富山県,砺波市,本町６番１２号,,16,208,9391368,,,,,,,2022-06-06,1,,,,,ヤギヤアカデミー,0
1794,6250001019604,新規,0,2022-06-06,2022-06-06,株式会社大昇,,株式会社,山口県,周南市,大字富田２６７９番地の２,,35,215,7460034,,,,,,,2022-06-06,1,,,,,ダイショウ,0
1800,6260003003935,新規,0,2022-06-06,2022-06-06,合同会社泰水,,合同会社,岡山県,岡山市南区,浦安南町３６９－４,,33,104,7028024,,,,,,,2022-06-06,1,,,,,タイスイ,0
1802,6270001008547,新規,0,2022-06-06,2022-06-06,株式会社庄本電工,,株式会社,鳥取県,西伯郡南部町,阿賀８３７番地,,31,389,6830322,,,,,,,2022-06-06,1,,,,,ショウモトデンコウ,0
1806,6290003012586,新規,0,2022-06-06,2022-06-06,ワンリレート合同会社,,合同会社,福岡県,春日市,春日公園８丁目２３番地２春日公園ガーデンハウス３０１号,,40,218,8160811,,,,,,,2022-06-06,1,,,,,ワンリレート,0
1807,6290801028577,新規,0,2022-06-06,2022-06-06,株式会社丸平設備,,株式会社,福岡県,北九州市若松区,大字安屋６０番地２,,40,103,8080124,,,,,,,2022-06-06,1,,,,,マルヒラセツビ,0
1808,6290801028593,新規,0,2022-06-06,2022-06-06,株式会社ニュー豊栄,,株式会社,福岡県,北九州市小倉南区,田原４丁目１番３３号,,40,107,8000225,,,,,,,2022-06-06,1,,,,,ニューホウエイ,0
1810,6300001012958,新規,0,2022-06-06,2022-06-06,株式会社渡辺勇記商店,,株式会社,佐賀県,唐津市,相知町黒岩８８３番地１,,41,202,8493222,,,,,,,2022-06-06,1,,,,,ワタナベユウキショウテン,0
1815,6310001017898,新規,0,2022-06-06,2022-06-06,株式会社環境設備管理,,株式会社,長崎県,長崎市,神ノ島町１丁目３３１番地３５,,42,201,8500078,,,,,,,2022-06-06,1,,,,,カンキョウセツビカンリ,0
1816,6330001029784,新規,0,2022-06-06,2022-06-06,株式会社ステラ,,株式会社,熊本県,宇土市,野鶴町１０５番地２,,43,211,8690463,,,,,,,2022-06-06,1,,,,,ステラ,0
1817,6330001029792,新規,0,2022-06-06,2022-06-06,株式会社八坂,,株式会社,熊本県,熊本市中央区,安政町６番１２号シミズビル１階,,43,101,8600801,,,,,,,2022-06-06,1,,,,,ヤサカ,0
1823,6340001024768,新規,0,2022-06-06,2022-06-06,株式会社Ｆｕｉ‐Ｄｕｌｅ,,株式会社,鹿児島県,大島郡与論町,大字茶花２６０７番地１,,46,535,8919301,,,,,,,2022-06-06,1,,,,,フゥイドゥール,0
1828,6350001017787,新規,0,2022-06-06,2022-06-06,株式会社ｍｕｕｔ,,株式会社,宮崎県,延岡市,伊形町５３１４番地ひまわりＡ１０２,,45,203,8890503,,,,,,,2022-06-06,1,,,,,ムート,0
1830,6360001030491,新規,0,2022-06-06,2022-06-06,株式会社Ａｔ．ＲＥＦＯＲＭ,,株式会社,沖縄県,宜野湾市,愛知１丁目１０番１２号２Ｆ,,47,205,9012206,,,,,,,2022-06-06,1,,,,,アットリフォーム,0
1831,6360001030500,新規,0,2022-06-06,2022-06-06,株式会社パークステージ,,株式会社,沖縄県,豊見城市,字豊崎１番地２ミオビエント豊崎１４０６号,,47,212,9010225,,,,,,,2022-06-06,1,,,,,パークステージ,0
1832,6360003012042,新規,0,2022-06-06,2022-06-06,ＷＡＲＡＹＵＮ合同会社,,合同会社,沖縄県,石垣市,字登野城１２５５番地１オーシャンパレス登野城ＩＩ１０１,00126760,47,207,9070004,,,,,,,2022-06-06,1,,,,,ワラユン,0
1843,6390001016918,新規,0,2022-06-06,2022-06-06,株式会社ボデーショップくるまや,,株式会社,山形県,新庄市,大字萩野字横根山６８番２,,06,205,9995102,,,,,,,2022-06-06,1,,,,,ボデーショップクルマヤ,0
1849,6430001086584,新規,0,2022-06-06,2022-06-06,株式会社ロズ,,株式会社,北海道,札幌市中央区,南八条西９丁目７５８－８シャルム９Ｂ３０３号,,01,101,0640808,,,,,,,2022-06-06,1,,,,,ロズ,0
1850,6430001086774,新規,0,2022-06-06,2022-06-06,株式会社ＳＹＳ,,株式会社,北海道,札幌市中央区,南八条西５丁目２８９番地８９－１０６号,,01,101,0640808,,,,,,,2022-06-06,1,,,,,エスワイエス,0
1852,6440001009098,新規,0,2022-06-06,2022-06-06,株式会社箱館煮方工房,,株式会社,北海道,函館市,万代町２１番１１号,,01,202,0400075,,,,,,,2022-06-06,1,,,,,ハコダテニカタコウボウ,0
1870,7010001227163,新規,0,2022-06-06,2022-06-06,株式会社ロジェット,,株式会社,東京都,中央区,日本橋３丁目２番１４号,,13,102,1030027,,,,,,,2022-06-06,1,,,,,ロジェット,0
1876,7010005035091,新規,0,2022-06-06,2022-06-06,一般社団法人オフィスのりてん,,その他の設立登記法人,東京都,千代田区,九段南１丁目５番６号りそな九段ビル５階ＫＳフロア,,13,101,1020074,,,,,,,2022-06-06,1,,,,,オフィスノリテン,0
1877,7010105002165,新規,0,2022-06-06,2022-06-06,一般社団法人八王子冒険遊び場の会,,その他の設立登記法人,東京都,八王子市,子安町１丁目９番１７号,,13,201,1920904,,,,,,,2022-06-06,1,,,,,ハチオウジボウケンアソビバノカイ,0
1885,7010401167752,新規,0,2022-06-06,2022-06-06,Ｉｌｌ株式会社,,株式会社,東京都,港区,芝２丁目１０番２,,13,103,1050014,,,,,,,2022-06-06,1,,,,,イル,0
1891,7010503006610,新規,0,2022-06-06,2022-06-06,合同会社ＰＨＯＥＮＩＸ　ＬＬＣ,,合同会社,東京都,台東区,蔵前４丁目１４番１号ガラ・ステーション蔵前８０１,,13,106,1110051,,,,,,,2022-06-06,1,,,,,フェニックス,0
1897,7010701042738,新規,0,2022-06-06,2022-06-06,株式会社ＡＲＩＡＫＥ,,株式会社,東京都,品川区,南大井３丁目８番１４号,,13,109,1400013,,,,,,,2022-06-06,1,,,,,アリアケ,0
1898,7010803004198,新規,0,2022-06-06,2022-06-06,合同会社オンノート,,合同会社,東京都,大田区,羽田２丁目９番９号,,13,111,1440043,,,,,,,2022-06-06,1,,,,,オンノート,0
1900,7010901050986,新規,0,2022-06-06,2022-06-06,株式会社アーキテクト,,株式会社,東京都,世田谷区,北沢２丁目１１－１５ミカン下北Ａ街区４Ｆ,,13,112,1550031,,,,,,,2022-06-06,1,,,,,アーキテクト,0
1901,7010901050994,新規,0,2022-06-06,2022-06-06,株式会社ｈｉｆｉｖｅ,,株式会社,東京都,世田谷区,羽根木１丁目２１番８号フォート羽根木,,13,112,1560042,,,,,,,2022-06-06,1,,,,,ハイファイブ,0
1903,7010903007415,新規,0,2022-06-06,2022-06-06,合同会社ヴィレジェスト,,合同会社,東京都,世田谷区,池尻４丁目３４番６号シティライブ池ノ上６０１,,13,112,1540001,,,,,,,2022-06-06,1,,,,,ヴィレジェスト,0
1910,7011001147888,新規,0,2022-06-06,2022-06-06,株式会社アルケミ,,株式会社,東京都,渋谷区,神宮前５丁目４７番９号ＫプレイスＷＥＳＴ２Ｆ,,13,113,1500001,,,,,,,2022-06-06,1,,,,,アルケミ,0
1911,7011001147896,新規,0,2022-06-06,2022-06-06,はまじま設計株式会社,,株式会社,東京都,渋谷区,宇田川町１６番８号渋谷センタービル３階,,13,113,1500042,,,,,,,2022-06-06,1,,,,,ハマジマセッケイ,0
1912,7011001147913,新規,0,2022-06-06,2022-06-06,株式会社ＬＯＴＵＳ,,株式会社,東京都,渋谷区,渋谷２丁目１番１号,,13,113,1500002,,,,,,,2022-06-06,1,,,,,ロータス,0
1913,7011003014797,新規,0,2022-06-06,2022-06-06,合同会社ａｓａｋａｎ．ｃｏｍ,,合同会社,東京都,目黒区,碑文谷２丁目９番１５－２０２号,,13,110,1520003,,,,,,,2022-06-06,1,,,,,アサカンドットコム,0
1916,7011101099096,新規,0,2022-06-06,2022-06-06,株式会社英公,,株式会社,東京都,新宿区,住吉町４番１号,,13,104,1620065,,,,,,,2022-06-06,1,,,,,エイコウ,0
1921,7011401024282,新規,0,2022-06-06,2022-06-06,株式会社アルカ,,株式会社,東京都,板橋区,中板橋２０番１－１２０２号,,13,119,1730016,,,,,,,2022-06-06,1,,,,,アルカ,0
1936,7012401039262,新規,0,2022-06-06,2022-06-06,Ｆ．ＲＹＵ株式会社,,株式会社,東京都,稲城市,東長沼１番地１,,13,225,2060802,,,,,,,2022-06-06,1,,,,,エフリュウ,0
1938,7012701017091,新規,0,2022-06-06,2022-06-06,株式会社けやきスポーツ,,株式会社,東京都,小平市,小川町１丁目４５９－１０サルーンマンションオザキ,,13,211,1870032,,,,,,,2022-06-06,1,,,,,ケヤキスポーツ,0
1946,7013301049186,新規,0,2022-06-06,2022-06-06,双六株式会社,,株式会社,東京都,豊島区,南大塚１丁目６０番２０号天翔大塚駅前ビルＳ８１３号,,13,116,1700005,,,,,,,2022-06-06,1,,,,,スゴロク,0
1947,7013301049194,新規,0,2022-06-06,2022-06-06,株式会社ウエストセンター,,株式会社,東京都,豊島区,駒込１丁目３７番１０号駒信インテリジェントビル１階,,13,116,1700003,,,,,,,2022-06-06,1,,,,,ウエストセンター,0
1948,7013303006185,新規,0,2022-06-06,2022-06-06,合同会社えいちすりー,,合同会社,東京都,豊島区,南池袋２丁目１９番２－６０４号,,13,116,1710022,,,,,,,2022-06-06,1,,,,,エイチスリー,0
1956,7020001146742,新規,0,2022-06-06,2022-06-06,株式会社ＣＵＤ,,株式会社,神奈川県,横浜市緑区,東本郷５丁目１７番２２号マルトクハイムＢ棟１０５号,,14,113,2260002,,,,,,,2022-06-06,1,,,,,シーユーディー,0
1957,7020001146800,新規,0,2022-06-06,2022-06-06,株式会社リゾートライフ,,株式会社,神奈川県,川崎市中原区,上小田中６丁目７番１号,,14,133,2110053,,,,,,,2022-06-06,1,,,,,リゾートライフ,0
1960,7020003021869,新規,0,2022-06-06,2022-06-06,合同会社ハルタ防災設備,,合同会社,神奈川県,川崎市幸区,北加瀬２丁目１４番１１号,,14,132,2120057,,,,,,,2022-06-06,1,,,,,ハルタボウサイセツビ,0
1963,7021001076137,新規,0,2022-06-06,2022-06-06,株式会社フェザーローブ,,株式会社,神奈川県,藤沢市,亀井野５２４番地の２４,,14,205,2520813,,,,,,,2022-06-06,1,,,,,フェザーローブ,0
1964,7021001076153,新規,0,2022-06-06,2022-06-06,株式会社ＫＡＢＥ　ＪＡＰＡＮ,,株式会社,神奈川県,厚木市,中町３丁目３番９号アーバンプラザ４Ｆ,,14,212,2430018,,,,,,,2022-06-06,1,,,,,カーベジャパン,0
1971,7030001148481,新規,0,2022-06-06,2022-06-06,ａｃｃｏｍｐａｎｙ株式会社,,株式会社,埼玉県,さいたま市大宮区,下町３丁目７－１グランドミッドタワーズ大宮Ｆ７１３号室,,11,103,3300844,,,,,,,2022-06-06,1,,,,,アカンパニー,0
1972,7030001148498,新規,0,2022-06-06,2022-06-06,株式会社木村会計,,株式会社,埼玉県,戸田市,上戸田３丁目２６番７号,,11,224,3350022,,,,,,,2022-06-06,1,,,,,キムラカイケイ,0
1973,7030001148507,新規,0,2022-06-06,2022-06-06,株式会社Ｓｉｇｎｗｏｒｋｓ,,株式会社,埼玉県,朝霞市,三原１丁目１４番１２号,,11,227,3510025,,,,,,,2022-06-06,1,,,,,サインワークス,0
1974,7030001148523,新規,0,2022-06-06,2022-06-06,株式会社特機開発,,株式会社,埼玉県,春日部市,増富１５８番地とよはる台サンハイツＤ－１０８,,11,214,3440041,,,,,,,2022-06-06,1,,,,,トッキカイハツ,0
1975,7030001148564,新規,0,2022-06-06,2022-06-06,株式会社プレゼンス,,株式会社,埼玉県,八潮市,大瀬１丁目１番地１マインループ１５１２号,,11,234,3400822,,,,,,,2022-06-06,1,,,,,プレゼンス,0
1979,7030003019516,新規,0,2022-06-06,2022-06-06,合同会社ナチュラリウム,,合同会社,埼玉県,さいたま市南区,南浦和２丁目３０－１１,,11,108,3360017,,,,,,,2022-06-06,1,,,,,ナチュラリウム,0
1980,7030003019524,新規,0,2022-06-06,2022-06-06,花鳥風月合同会社,,合同会社,埼玉県,所沢市,大字北秋津８７６番地の２,,11,208,3590038,,,,,,,2022-06-06,1,,,,,カチョウフウゲツ,0
1981,7030003019540,新規,0,2022-06-06,2022-06-06,Ｍ．ｉｎｆｉｎｉｔｙ合同会社,,合同会社,埼玉県,上尾市,緑丘２丁目３番３号,,11,219,3620015,,,,,,,2022-06-06,1,,,,,エムインフィニティ,0
1982,7030005020884,新規,0,2022-06-06,2022-06-06,一般社団法人ＣｏａｃｈｉｎｇＣｒｏｗｎＺｅｒｏ学会,,その他の設立登記法人,埼玉県,さいたま市大宮区,寿能町２丁目１０５番地,,11,103,3300805,,,,,,,2022-06-06,1,,,,,コーチングクラウンゼロガッカイ,0
1986,7040001123673,新規,0,2022-06-06,2022-06-06,株式会社ＡＳＡＧＡＯ,,株式会社,千葉県,千葉市中央区,中央３丁目１７番１号,,12,101,2600013,,,,,,,2022-06-06,1,,,,,アサガオ,0
1990,7040003020126,新規,0,2022-06-06,2022-06-06,合同会社ＦＵＲＡＭＥＲＯ,,合同会社,千葉県,流山市,東初石１丁目１８３番地の９,,12,220,2700114,,,,,,,2022-06-06,1,,,,,フラメロ,0
1991,7040003020150,新規,0,2022-06-06,2022-06-06,合同会社Ｉｎｆｉｎｉｔｙ,,合同会社,千葉県,船橋市,薬円台３丁目１０番２３号,,12,204,2740077,,,,,,,2022-06-06,1,,,,,インフィニティ,0
1992,7040003020159,新規,0,2022-06-06,2022-06-06,あかりケアセンター合同会社,,合同会社,千葉県,船橋市,飯山満町３丁目１０９番地１３－４０１号,,12,204,2740822,,,,,,,2022-06-06,1,,,,,アカリケアセンター,0
1993,7040003020175,新規,0,2022-06-06,2022-06-06,合同会社チヨダアイモータース,,合同会社,千葉県,東金市,極楽寺４２５番地９７,,12,213,2830835,,,,,,,2022-06-06,1,,,,,チヨダアイモータース,0
2003,7060003004102,新規,0,2022-06-06,2022-06-06,合同会社ポティローファーム,,合同会社,栃木県,下都賀郡壬生町,駅東町１１１番２メゾン１５－４０１号室,,09,361,3210222,,,,,,,2022-06-06,1,,,,,ポティローファーム,0
2009,7070001039297,新規,0,2022-06-06,2022-06-06,庄司機工株式会社,,株式会社,群馬県,高崎市,萩原町１６番地３,,10,202,3700013,,,,,,,2022-06-06,1,,,,,ショウジキコウ,0
2010,7070001039306,新規,0,2022-06-06,2022-06-06,株式会社ＭＥＨＴＡＢ　ＴＲＡＤＩＮＧ,,株式会社,群馬県,邑楽郡板倉町,大字板倉１１２６番地の９,,10,521,3740132,,,,,,,2022-06-06,1,,,,,メタブトレーディング,0
2011,7070003004506,新規,0,2022-06-06,2022-06-06,ミカインターナショナル合同会社,,合同会社,群馬県,邑楽郡大泉町,住吉５３－１３シティハウス１０－２Ｆ,,10,524,3700521,,,,,,,2022-06-06,1,,,,,ミカインターナショナル,0
2016,7080101023332,新規,0,2022-06-06,2022-06-06,西友エアーテック株式会社,,株式会社,静岡県,御殿場市,川島田１６９８番地の９７７,,22,215,4120045,,,,,,,2022-06-06,1,,,,,セイユウエアーテック,0
2025,7100001035400,新規,0,2022-06-06,2022-06-06,株式会社プランエコ,,株式会社,長野県,松本市,沢村１丁目１４番３０－５０１号,,20,202,3900877,,,,,,,2022-06-06,1,,,,,プランエコ,0
2026,7100001035417,新規,0,2022-06-06,2022-06-06,株式会社アイアール・エムズ,,株式会社,長野県,北佐久郡軽井沢町,大字軽井沢１１３０番地１５,,20,321,3890102,,,,,,,2022-06-06,1,,,,,アイアールエムズ,0
2027,7100003006572,新規,0,2022-06-06,2022-06-06,合同会社シルバードリーム,,合同会社,長野県,上田市,本郷１２６０番地３－４０５,,20,203,3861323,,,,,,,2022-06-06,1,,,,,シルバードリーム,0
2030,7110001036703,新規,0,2022-06-06,2022-06-06,株式会社ＶＮ　Ｎｉｓｈｉｋｉｇｏｉ,,株式会社,新潟県,小千谷市,大字＿生甲１９９５番地９,00126773,15,208,9470003,,,,,,,2022-06-06,1,,,,,ヴイエヌニシキゴイ,0
2031,7110003004781,新規,0,2022-06-06,2022-06-06,ＮＩＴ合同会社,,合同会社,新潟県,上越市,三和区日和町６０番地,,15,222,9430226,,,,,,,2022-06-06,1,,,,,エヌアイティ,0
2042,7120001246367,新規,0,2022-06-06,2022-06-06,株式会社大智,,株式会社,大阪府,大阪市天王寺区,勝山２丁目３番３号,,27,109,5430043,,,,,,,2022-06-06,1,,,,,ダイチ,0
2043,7120001246417,新規,0,2022-06-06,2022-06-06,株式会社ＤＥＥＰ,,株式会社,大阪府,大阪市中央区,上町１丁目１８番１６－１８０１号,,27,128,5400005,,,,,,,2022-06-06,1,,,,,ディープ,0
2045,7120003021826,新規,0,2022-06-06,2022-06-06,合同会社Ａ・Ｃ・Ｅ,,合同会社,大阪府,大阪市東淀川区,大桐１丁目８－１７ハイツマエナカ４０７,,27,114,5330011,,,,,,,2022-06-06,1,,,,,エース,0
2049,7120103004730,新規,0,2022-06-06,2022-06-06,合同会社アイズアップ,,合同会社,大阪府,泉大津市,高津町１０番１２号,,27,206,5950042,,,,,,,2022-06-06,1,,,,,アイズアップ,0
2054,7120901046032,新規,0,2022-06-06,2022-06-06,株式会社ヒューリンク,,株式会社,大阪府,豊中市,西泉丘３丁目１番１－４０３号,,27,203,5610862,,,,,,,2022-06-06,1,,,,,ヒューリンク,0
2055,7120901046049,新規,0,2022-06-06,2022-06-06,株式会社華音,,株式会社,大阪府,豊中市,東泉丘４丁目５番５０－１２９号,,27,203,5610861,,,,,,,2022-06-06,1,,,,,カノン,0
2062,7130001071921,新規,0,2022-06-06,2022-06-06,ミキコーポレーション株式会社,,株式会社,京都府,京都市北区,紫野郷ノ上町４１番地３８,,26,101,6038304,,,,,,,2022-06-06,1,,,,,ミキコーポレーション,0
2071,7140001126162,新規,0,2022-06-06,2022-06-06,株式会社ネットソーラーパワープラネット,,株式会社,兵庫県,小野市,神明町１８８番地の１,,28,218,6751331,,,,,,,2022-06-06,1,,,,,ネットソーラーパワープラネット,0
2072,7140001126220,新規,0,2022-06-06,2022-06-06,株式会社ＴＭＴ,,株式会社,兵庫県,西宮市,柏堂町７番２５－２０１号,,28,204,6620097,,,,,,,2022-06-06,1,,,,,ティーエムティー,0
2073,7140001126261,新規,0,2022-06-06,2022-06-06,株式会社Ｔ‐ｔｅｃ,,株式会社,兵庫県,加古川市,平荘町磐１０２９番地,,28,210,6751226,,,,,,,2022-06-06,1,,,,,ティーテック,0
2078,7150001025603,新規,0,2022-06-06,2022-06-06,株式会社藤岡設備,,株式会社,奈良県,北葛城郡広陵町,大字三吉元赤部方６５番６,,29,426,6350823,,,,,,,2022-06-06,1,,,,,フジオカセツビ,0
2079,7160001024249,新規,0,2022-06-06,2022-06-06,株式会社睦庵,,株式会社,滋賀県,甲賀市,信楽町長野３１７番地２１,,25,209,5291851,,,,,,,2022-06-06,1,,,,,ムツミアン,0
2093,7180001151586,新規,0,2022-06-06,2022-06-06,株式会社中部総合不動産,,株式会社,愛知県,名古屋市名東区,高社２丁目２４２番地高社ビル３階,,23,115,4650095,,,,,,,2022-06-06,1,,,,,チュウブソウゴウフドウサン,0
2094,7180001151611,新規,0,2022-06-06,2022-06-06,株式会社アイリス,,株式会社,愛知県,名古屋市中区,金山１丁目２番２４号ロンシャン金山７０４号,,23,106,4600022,,,,,,,2022-06-06,1,,,,,アイリス,0
2095,7180001151628,新規,0,2022-06-06,2022-06-06,小宮商店株式会社,,株式会社,愛知県,名古屋市港区,七反野１丁目１８３０番地の１,,23,111,4550884,,,,,,,2022-06-06,1,,,,,コミヤショウテン,0
2100,7180003023899,新規,0,2022-06-06,2022-06-06,ｉｍｅｘｐｏｒｔ合同会社,,合同会社,愛知県,名古屋市中川区,本前田町２７８番地の２,,23,110,4540914,,,,,,,2022-06-06,1,,,,,インエクスポート,0
2105,7190001029484,新規,0,2022-06-06,2022-06-06,株式会社クシモトアソシエイツ,,株式会社,三重県,四日市市,大字羽津乙９３５番地５,,24,202,5100012,,,,,,,2022-06-06,1,,,,,クシモトアソシエイツ,0
2114,7200001040134,新規,0,2022-06-06,2022-06-06,株式会社八神製作所,,株式会社,岐阜県,羽島市,桑原町八神１９０３番地,,21,209,5016321,,,,,,,2022-06-06,1,,,,,ヤガミセイサクショ,0
2120,7220001024886,新規,0,2022-06-06,2022-06-06,株式会社ナカジマ,,株式会社,石川県,加賀市,河南町ルの１６番地,,17,206,9220277,,,,,,,2022-06-06,1,,,,,ナカジマ,0
2122,7220003003293,新規,0,2022-06-06,2022-06-06,合同会社美レッジ,,合同会社,石川県,金沢市,若松町３丁目２２３番地,,17,201,9201165,,,,,,,2022-06-06,1,,,,,ビレッジ,0
2125,7230001019398,新規,0,2022-06-06,2022-06-06,株式会社笹木モータース,,株式会社,富山県,富山市,中市１丁目２番１０号,,16,201,9398005,,,,,,,2022-06-06,1,,,,,ササキモータース,0
2127,7230003001858,新規,0,2022-06-06,2022-06-06,よろこびケアサロン合同会社,,合同会社,富山県,中新川郡立山町,米沢６番地３,,16,323,9303265,,,,,,,2022-06-06,1,,,,,ヨロコビケアサロン,0
2130,7240001059880,新規,0,2022-06-06,2022-06-06,株式会社エムズマリン,,株式会社,広島県,福山市,鞆町後地６５１番地３,,34,207,7200202,,,,,,,2022-06-06,1,,,,,エムズマリン,0
2132,7250001019594,新規,0,2022-06-06,2022-06-06,株式会社ＴＡＨＡＲＡ,,株式会社,山口県,山口市,宮野上１２７１番地１,,35,203,7530001,,,,,,,2022-06-06,1,,,,,タハラ,0
2138,7280005007485,新規,0,2022-06-06,2022-06-06,一般社団法人他力塾,,その他の設立登記法人,島根県,雲南市,木次町北原９３３－２,,32,209,6991341,,,,,,,2022-06-06,1,,,,,タリキジュク,0
2142,7290001097744,新規,0,2022-06-06,2022-06-06,株式会社ユリウス,,株式会社,福岡県,福岡市博多区,中洲３丁目７番１０号,,40,132,8100801,,,,,,,2022-06-06,1,,,,,ユリウス,0
2143,7290001097760,新規,0,2022-06-06,2022-06-06,たか株式会社,,株式会社,福岡県,福岡市東区,唐原１丁目４番２３号,,40,131,8130001,,,,,,,2022-06-06,1,,,,,タカ,0
2144,7290001097769,新規,0,2022-06-06,2022-06-06,株式会社ラグアート,,株式会社,福岡県,大野城市,乙金台２丁目１番１２号,,40,219,8160903,,,,,,,2022-06-06,1,,,,,ラグアート,0
2145,7290001097819,新規,0,2022-06-06,2022-06-06,春野デザイン株式会社,,株式会社,福岡県,福岡市中央区,笹丘３丁目２５－１０ＨｉｌｌＴｏｐ笹丘３０２,,40,133,8100034,,,,,,,2022-06-06,1,,,,,ハルノデザイン,0
2148,7290003012593,新規,0,2022-06-06,2022-06-06,合同会社Ｔ＆Ａソリューションズ,,合同会社,福岡県,福岡市南区,的場１丁目１１－２３的場藤ビル３０３,,40,134,8111314,,,,,,,2022-06-06,1,,,,,ティーアンドエーソリューションズ,0
2153,7290801028576,新規,0,2022-06-06,2022-06-06,株式会社ＡＴＯＦ,,株式会社,福岡県,北九州市八幡西区,瀬板２丁目４番１６号,,40,109,8070822,,,,,,,2022-06-06,1,,,,,アトフ,0
2154,7290801028584,新規,0,2022-06-06,2022-06-06,株式会社ＫＯＵ,,株式会社,福岡県,行橋市,中央３丁目７番６－１００５号,,40,213,8240005,,,,,,,2022-06-06,1,,,,,ケーオーユー,0
2155,7290801028592,新規,0,2022-06-06,2022-06-06,株式会社佳仙,,株式会社,福岡県,北九州市小倉南区,沼本町１丁目３番３１号,,40,107,8000208,,,,,,,2022-06-06,1,,,,,カセン,0
2156,7290801028601,新規,0,2022-06-06,2022-06-06,株式会社ｉｄｅａ,,株式会社,福岡県,北九州市小倉北区,金田１丁目８番１－２０１号,,40,106,8030816,,,,,,,2022-06-06,1,,,,,イデア,0
2160,7300001012957,新規,0,2022-06-06,2022-06-06,株式会社ＫＦＴＥＣ,,株式会社,佐賀県,杵島郡白石町,大字福田１５４４番地２,,41,425,8491112,,,,,,,2022-06-06,1,,,,,ケイエフテック,0
2163,7310001017880,新規,0,2022-06-06,2022-06-06,ＴＲＦ株式会社,,株式会社,長崎県,雲仙市,愛野町乙１６０９番地,,42,213,8540302,,,,,,,2022-06-06,1,,,,,ティーアールエフ,0
2173,7350001017786,新規,0,2022-06-06,2022-06-06,株式会社オリジナ,,株式会社,宮崎県,宮崎市,橘通西３丁目１０番３２号,,45,201,8800001,,,,,,,2022-06-06,1,,,,,オリジナ,0
2175,7370001048623,新規,0,2022-06-06,2022-06-06,株式会社児玉工業,,株式会社,宮城県,仙台市青葉区,栗生４丁目２番地の１３,,04,101,9893122,,,,,,,2022-06-06,1,,,,,コダマコウギョウ,0
2176,7370001048631,新規,0,2022-06-06,2022-06-06,株式会社宮千代設備,,株式会社,宮城県,仙台市宮城野区,宮千代２丁目１２番地の１,,04,102,9830044,,,,,,,2022-06-06,1,,,,,ミヤチヨセツビ,0
2180,7400001015909,新規,0,2022-06-06,2022-06-06,株式会社ＴＲＵＳＴ,,株式会社,岩手県,盛岡市,三本柳１２地割１８番地５５,,03,201,0200831,,,,,,,2022-06-06,1,,,,,トラスト,0
2190,7430001086773,新規,0,2022-06-06,2022-06-06,株式会社アルディファーシルピカロ,,株式会社,北海道,札幌市豊平区,平岸一条２丁目５番８号,,01,105,0620931,,,,,,,2022-06-06,1,,,,,アルディファーシルピカロ,0
2198,7450003002215,新規,0,2022-06-06,2022-06-06,合同会社今井技工,,合同会社,北海道,旭川市,東鷹栖四条３丁目６３６番地の２６１,,01,204,0718104,,,,,,,2022-06-06,1,,,,,イマイギコウ,0
2200,7470001019110,新規,0,2022-06-06,2022-06-06,株式会社カーオフィスタカシロ,,株式会社,香川県,観音寺市,三本松町３丁目１番１６号,,37,205,7680063,,,,,,,2022-06-06,1,,,,,カーオフィスタカシロ,0
2202,7490001010199,新規,0,2022-06-06,2022-06-06,向井電機水道工業株式会社,,株式会社,高知県,香南市,香我美町徳王子２６５８番地２,,39,211,7815332,,,,,,,2022-06-06,1,,,,,ムカイデンキスイドウコウギョウ,0
2204,7700150109209,新規,0,2022-06-06,2022-06-06,徐州澳特捷国際貿易有限公司,,外国会社等,,,,,,,,徐州市鼓楼区風尚米蘭小区商業辨公楼４号楼１－５１８,,,,,,2022-06-06,1,,,,,ジョシュウオウトクショウコクサイボウエキユウゲンコウシ,0
2217,8010001227088,新規,0,2022-06-06,2022-06-06,株式会社ＭＡＶＩＥ,,株式会社,東京都,中央区,勝どき１丁目１３番６－６０７号,,13,102,1040054,,,,,,,2022-06-06,1,,,,,メヴィ,0
2226,8010401167727,新規,0,2022-06-06,2022-06-06,株式会社ａｎｔｓ　ｗｏｏｄ　ｓｔｕｄｉｏ,,株式会社,東京都,港区,南青山５丁目４番２９号,,13,103,1070062,,,,,,,2022-06-06,1,,,,,アンツウッドスタジオ,0
2227,8010401167735,新規,0,2022-06-06,2022-06-06,岡田電機ホールディングス株式会社,,株式会社,東京都,港区,西新橋２丁目１１番９号,,13,103,1050003,,,,,,,2022-06-06,1,,,,,オカダデンキホールディングス,0
2242,8010803004197,新規,0,2022-06-06,2022-06-06,合同会社Ｇｒａｃｅ,,合同会社,東京都,大田区,南蒲田１丁目８番１５－５０４号,,13,111,1440035,,,,,,,2022-06-06,1,,,,,グレイス,0
2247,8010905004319,新規,0,2022-06-06,2022-06-06,一般財団法人Ｏｎｅ　Ｄｒｏｐ　Ｏｃｅａｎ財団,,その他の設立登記法人,東京都,世田谷区,奥沢５丁目３６番７号,,13,112,1580083,,,,,,,2022-06-06,1,,,,,ワンドロップオーシャンザイダン,0
2257,8011001147895,新規,0,2022-06-06,2022-06-06,株式会社フロイテック,,株式会社,東京都,目黒区,平町１丁目２２番３－３０２号,,13,110,1520032,,,,,,,2022-06-06,1,,,,,フロイテック,0
2258,8011001147904,新規,0,2022-06-06,2022-06-06,ｅｄｏｇｌｏｂｅ株式会社,,株式会社,東京都,渋谷区,道玄坂１丁目１０番８号渋谷道玄坂東急ビル２Ｆ－Ｃ,,13,113,1500043,,,,,,,2022-06-06,1,,,,,エドグローブ,0
2259,8011001147912,新規,0,2022-06-06,2022-06-06,株式会社ＣＯＮＮＥＣＴ,,株式会社,東京都,渋谷区,渋谷２丁目１番１号,,13,113,1500002,,,,,,,2022-06-06,1,,,,,コネクト,0
2260,8011001147945,新規,0,2022-06-06,2022-06-06,株式会社ｓａｉ,,株式会社,東京都,渋谷区,神宮前５丁目２番６号コロネード神宮前３Ｆ,,13,113,1500001,,,,,,,2022-06-06,1,,,,,サイ,0
2262,8011003014813,新規,0,2022-06-06,2022-06-06,合同会社ｃａｂｉｎ,,合同会社,東京都,渋谷区,道玄坂２丁目１６番１９号都路ビル１０１,,13,113,1500043,,,,,,,2022-06-06,1,,,,,キャビン,0
2264,8011101099005,新規,0,2022-06-06,2022-06-06,株式会社Ｃｉｅｌ,,株式会社,東京都,新宿区,西早稲田２丁目６－１－４０１,,13,104,1690051,,,,,,,2022-06-06,1,,,,,シエル,0
2265,8011101099095,新規,0,2022-06-06,2022-06-06,株式会社ネクストレベルグループ,,株式会社,東京都,新宿区,西新宿３丁目２番７号,,13,104,1600023,,,,,,,2022-06-06,1,,,,,ネクストレベルグループ,0
2266,8011103011818,新規,0,2022-06-06,2022-06-06,ＤＲＥＡＭ　Ｕ＆ＭＥ合同会社,,合同会社,東京都,新宿区,大久保１丁目９番１７－４０１号シルバービル大久保,,13,104,1690072,,,,,,,2022-06-06,1,,,,,ドリームユメ,0
2267,8011105010272,新規,0,2022-06-06,2022-06-06,一般社団法人スマイル相続協会,,その他の設立登記法人,東京都,新宿区,高田馬場３丁目２番１４号,,13,104,1690075,,,,,,,2022-06-06,1,,,,,スマイルソウゾクキョウカイ,0
2281,8012401039261,新規,0,2022-06-06,2022-06-06,日本防災スキーム株式会社,,株式会社,東京都,稲城市,東長沼５６８番地１１ＨＰビル２階,,13,225,2060802,,,,,,,2022-06-06,1,,,,,ニホンボウサイスキーム,0
2282,8012403005402,新規,0,2022-06-06,2022-06-06,合同会社野の,,合同会社,東京都,三鷹市,下連雀３丁目４１番１４－７０１号,,13,204,1810013,,,,,,,2022-06-06,1,,,,,ノノ,0
2283,8012403005410,新規,0,2022-06-06,2022-06-06,合同会社ＭＳＭ,,合同会社,東京都,武蔵野市,吉祥寺南町１丁目５番９号くまもとビル４階Ａ,,13,203,1800003,,,,,,,2022-06-06,1,,,,,エムエスエム,0
2284,8012701017090,新規,0,2022-06-06,2022-06-06,株式会社Ａｃｒａｆｔ,,株式会社,東京都,西東京市,芝久保町５丁目６番１１号,,13,229,1880014,,,,,,,2022-06-06,1,,,,,エークラフト,0
2292,8012803002791,新規,0,2022-06-06,2022-06-06,リジョイス企画合同会社,,合同会社,東京都,立川市,富士見町７丁目３２番４４号レガリア１０１,,13,202,1900013,,,,,,,2022-06-06,1,,,,,リジョイスキカク,0
2300,8020001146758,新規,0,2022-06-06,2022-06-06,株式会社ＰＬＵＳ　ＩＲＩＥ,,株式会社,神奈川県,横浜市青葉区,荏子田１丁目１４番地４３,,14,117,2250005,,,,,,,2022-06-06,1,,,,,プラスイリエ,0
2301,8020001146766,新規,0,2022-06-06,2022-06-06,株式会社ＶＦＭ,,株式会社,神奈川県,川崎市中原区,今井西町１４番７－１０４号ガーデンズコート武蔵小杉,,14,133,2110066,,,,,,,2022-06-06,1,,,,,ヴイエフエム,0
2302,8020001146774,新規,0,2022-06-06,2022-06-06,株式会社本多ホールディングス,,株式会社,神奈川県,横浜市神奈川区,栄町２０番２－２０１号,,14,102,2210052,,,,,,,2022-06-06,1,,,,,ホンダホールディングス,0
2303,8020001146799,新規,0,2022-06-06,2022-06-06,株式会社Ｐｒｏｕｄ,,株式会社,神奈川県,横浜市西区,高島２丁目１１番２号スカイメナー横浜５１９,,14,103,2200011,,,,,,,2022-06-06,1,,,,,プラウド,0
2310,8021001076128,新規,0,2022-06-06,2022-06-06,ナオン技研株式会社,,株式会社,神奈川県,座間市,ひばりが丘２丁目４１番１－６１０号エステ・スクエア南林間,,14,216,2520003,,,,,,,2022-06-06,1,,,,,ナオンギケン,0
2311,8021001076136,新規,0,2022-06-06,2022-06-06,株式会社山口住設,,株式会社,神奈川県,秦野市,千村３丁目２５番２５号,,14,211,2591324,,,,,,,2022-06-06,1,,,,,ヤマグチジュウセツ,0
2313,8021003011784,新規,0,2022-06-06,2022-06-06,Ｎａｔｕｒａｌ　Ｆｕｎ　Ｆａｃｔｏｒｙ合同会社,,合同会社,神奈川県,三浦郡葉山町,堀内６６３番地,,14,301,2400112,,,,,,,2022-06-06,1,,,,,ナチュラルファンファクトリー,0
2314,8021003011801,新規,0,2022-06-06,2022-06-06,プレミアムロジック合同会社,,合同会社,神奈川県,横須賀市,秋谷５２１６番地１,,14,201,2400105,,,,,,,2022-06-06,1,,,,,プレミアムロジック,0
2319,8030001148456,新規,0,2022-06-06,2022-06-06,株式会社藤組,,株式会社,埼玉県,新座市,菅沢２丁目８番５０号,,11,230,3520017,,,,,,,2022-06-06,1,,,,,フジグミ,0
2320,8030001148497,新規,0,2022-06-06,2022-06-06,株式会社Ｋ’ｓプロデュース,,株式会社,埼玉県,さいたま市見沼区,大和田町１丁目１４８１番地１,,11,104,3370053,,,,,,,2022-06-06,1,,,,,ケイズプロデュース,0
2321,8030001148506,新規,0,2022-06-06,2022-06-06,株式会社レオトランスポート,,株式会社,埼玉県,所沢市,美原町２丁目２９５２番地３６,,11,208,3590045,,,,,,,2022-06-06,1,,,,,レオトランスポート,0
2322,8030001148547,新規,0,2022-06-06,2022-06-06,グラデーション５１株式会社,,株式会社,埼玉県,さいたま市浦和区,本太３丁目２０番３３－１０２号,,11,107,3300052,,,,,,,2022-06-06,1,,,,,グラデーションフィフティワン,0
2325,8030003019531,新規,0,2022-06-06,2022-06-06,Ａｉｍｈｉｇｈコンサルティング合同会社,,合同会社,埼玉県,吉川市,きよみ野２丁目１６番地１０,,11,243,3420058,,,,,,,2022-06-06,1,,,,,エイムハイコンサルティング,0
2329,8040001123680,新規,0,2022-06-06,2022-06-06,株式会社ＹＫＳ,,株式会社,千葉県,木更津市,清川２丁目２０番１号サニーガーデンＡ１０４,,12,206,2920051,,,,,,,2022-06-06,1,,,,,ワイケーエス,0
2330,8040001123689,新規,0,2022-06-06,2022-06-06,株式会社ザデイ,,株式会社,千葉県,千葉市中央区,中央港１丁目２４番１４号ＳＥＡＳＣＡＰＥ１Ｆ,,12,101,2600024,,,,,,,2022-06-06,1,,,,,ザデイ,0
2331,8040003020141,新規,0,2022-06-06,2022-06-06,合同会社Ｃ．Ｓ．Ｔｅｃｈｎｏ,,合同会社,千葉県,東金市,油井１６８番地１５４,,12,213,2830804,,,,,,,2022-06-06,1,,,,,シーエステクノ,0
2332,8040003020158,新規,0,2022-06-06,2022-06-06,松戸流通合同会社,,合同会社,千葉県,松戸市,八ケ崎４丁目１０番地の２,,12,207,2700023,,,,,,,2022-06-06,1,,,,,マツドリュウツウ,0
2333,8040003020174,新規,0,2022-06-06,2022-06-06,ＴＨＡＯ　ＤＵＯＮＧ合同会社,,合同会社,千葉県,柏市,根戸４６７番地３０広瀬ビル１０２,,12,217,2770831,,,,,,,2022-06-06,1,,,,,タオズオン,0
2336,8050001051154,新規,0,2022-06-06,2022-06-06,株式会社Ｒｅｖｉｖｅ　Ｃｏ．Ｌｔｄ．,,株式会社,茨城県,取手市,井野台３丁目２１番２０号,,08,217,3020015,,,,,,,2022-06-06,1,,,,,リバイブ,0
2337,8050001051170,新規,0,2022-06-06,2022-06-06,株式会社ＳＨＲＫ,,株式会社,茨城県,日立市,日高町４丁目２０番７号,,08,202,3191414,,,,,,,2022-06-06,1,,,,,エスエイチアールケー,0
2338,8050001051179,新規,0,2022-06-06,2022-06-06,株式会社マツキ建装,,株式会社,茨城県,つくば市,下広岡４１０番地８６,,08,220,3050042,,,,,,,2022-06-06,1,,,,,マツキケンソウ,0
2339,8050001051187,新規,0,2022-06-06,2022-06-06,株式会社ＮＥＸＴ　ＯＮＥ,,株式会社,茨城県,常陸太田市,谷河原町７２２番地,,08,212,3130043,,,,,,,2022-06-06,1,,,,,ネクストワン,0
2345,8070001039305,新規,0,2022-06-06,2022-06-06,株式会社アイデン,,株式会社,群馬県,渋川市,金井１６２３番地１,,10,208,3770027,,,,,,,2022-06-06,1,,,,,アイデン,0
2349,8080101023315,新規,0,2022-06-06,2022-06-06,株式会社Ａ‐ＢＯＸ,,株式会社,静岡県,富士市,入山瀬３丁目７番２９号,,22,210,4190204,,,,,,,2022-06-06,1,,,,,エーボックス,0
2351,8080103002597,新規,0,2022-06-06,2022-06-06,合同会社４ｐｒｏｄａｃｔｓ,,合同会社,静岡県,沼津市,大岡３２９４番地１－１０１,,22,203,4100022,,,,,,,2022-06-06,1,,,,,フォープロダクツ,0
2353,8080401025853,新規,0,2022-06-06,2022-06-06,株式会社共和不動産センター,,株式会社,静岡県,浜松市浜北区,沼３１７番地の１グラード１０３,,22,136,4340037,,,,,,,2022-06-06,1,,,,,キョウワフドウサンセンター,0
2356,8100001035416,新規,0,2022-06-06,2022-06-06,株式会社北原建築,,株式会社,長野県,駒ヶ根市,下平２２２４番地,,20,210,3994101,,,,,,,2022-06-06,1,,,,,キタハラケンチク,0
2357,8100005012881,新規,0,2022-06-06,2022-06-06,一般社団法人エーアイエンジェル,,その他の設立登記法人,長野県,下伊那郡高森町,牛牧５６番地１,,20,403,3993105,,,,,,,2022-06-06,1,,,,,エーアイエンジェル,0
2361,8110001036702,新規,0,2022-06-06,2022-06-06,株式会社清十朗,,株式会社,新潟県,燕市,小高７０８３番地,,15,213,9591241,,,,,,,2022-06-06,1,,,,,セイジュウロウ,0
2365,8110003004780,新規,0,2022-06-06,2022-06-06,合同会社クボタ住設工業,,合同会社,新潟県,上越市,頸城区松本１番地８６,,15,222,9420144,,,,,,,2022-06-06,1,,,,,クボタジュウセツコウギョウ,0
2370,8120001246366,新規,0,2022-06-06,2022-06-06,株式会社ＣｏｃｏＭｅＲｕ,,株式会社,大阪府,大阪市中央区,南船場２丁目３番６号第一住建長堀橋駅前ビル８０２,,27,128,5420081,,,,,,,2022-06-06,1,,,,,ココメル,0
2371,8120001246408,新規,0,2022-06-06,2022-06-06,株式会社ぱる,,株式会社,大阪府,大阪市福島区,吉野４丁目９番２４－３０３号,,27,103,5530006,,,,,,,2022-06-06,1,,,,,パル,0
2372,8120001246416,新規,0,2022-06-06,2022-06-06,株式会社アシスト,,株式会社,大阪府,大阪市浪速区,難波中１丁目９番１０号,,27,111,5560011,,,,,,,2022-06-06,1,,,,,アシスト,0
2373,8120001246424,新規,0,2022-06-06,2022-06-06,株式会社ｉｏｅ,,株式会社,大阪府,大阪市北区,豊崎１丁目２番１６号,,27,127,5310072,,,,,,,2022-06-06,1,,,,,イオエ,0
2387,8120101065690,新規,0,2022-06-06,2022-06-06,株式会社村正工務店,,株式会社,大阪府,岸和田市,別所町２丁目５番２６号,,27,202,5960045,,,,,,,2022-06-06,1,,,,,ムラマサコウムテン,0
2388,8120101065699,新規,0,2022-06-06,2022-06-06,株式会社ＵＮＩＶＥＲＳＡＬ　ＢＯＤＹ,,株式会社,大阪府,高石市,千代田２丁目１番１０号,,27,225,5920005,,,,,,,2022-06-06,1,,,,,ユニバーサルボディ,0
2390,8120901046031,新規,0,2022-06-06,2022-06-06,ライブネクスト株式会社,,株式会社,大阪府,吹田市,豊津町２番１号,,27,205,5640051,,,,,,,2022-06-06,1,,,,,ライブネクスト,0
2395,8120903004169,新規,0,2022-06-06,2022-06-06,合同会社ミライメージ,,合同会社,大阪府,三島郡島本町,広瀬１丁目３番３３号,,27,301,6180011,,,,,,,2022-06-06,1,,,,,ミライメージ,0
2406,8140001126178,新規,0,2022-06-06,2022-06-06,株式会社Ｌａｐｌａｃｅ,,株式会社,兵庫県,神戸市須磨区,平田町２丁目２番１号ＨＩＲＡＴＡ１９７７ＢＵＩＬＤＩＮＧ２階,,28,107,6540021,,,,,,,2022-06-06,1,,,,,ラプラス,0
2407,8140001126236,新規,0,2022-06-06,2022-06-06,株式会社田中自動車整備,,株式会社,兵庫県,姫路市,広畑区正門通１丁目５番地３,,28,201,6711116,,,,,,,2022-06-06,1,,,,,タナカジドウシャセイビ,0
2408,8140001126244,新規,0,2022-06-06,2022-06-06,株式会社Ｋ‐ＴＥＣ,,株式会社,兵庫県,加古川市,尾上町養田１２４２番地の１５松本ハイツ東１０２号,,28,210,6750025,,,,,,,2022-06-06,1,,,,,ケイテック,0
2413,8140005026201,新規,0,2022-06-06,2022-06-06,弁護士法人神戸綜合法律事務所,,その他の設立登記法人,兵庫県,神戸市中央区,江戸町９６番地ストロングビル８階,,28,110,6500033,,,,,,,2022-06-06,1,,,,,コウベソウゴウホウリツジムショ,0
2414,8150001025577,新規,0,2022-06-06,2022-06-06,株式会社國貞,,株式会社,奈良県,大和郡山市,小泉町１６０４番地１－１０４,,29,203,6391042,,,,,,,2022-06-06,1,,,,,クニサダ,0
2415,8150001025602,新規,0,2022-06-06,2022-06-06,株式会社ＹＵＭＥ　ＧＲＯＵＰ,,株式会社,奈良県,橿原市,久米町５４０番地,,29,205,6340063,,,,,,,2022-06-06,1,,,,,ユメグループ,0
2416,8160001024248,新規,0,2022-06-06,2022-06-06,ＴＣＳホールディングス株式会社,,株式会社,滋賀県,草津市,東草津２丁目３番５４号,,25,206,5250033,,,,,,,2022-06-06,1,,,,,ティーシーエスホールディングス,0
2429,8180001151560,新規,0,2022-06-06,2022-06-06,株式会社ＫＡＮＯＡ　ＥＳＴＡＴＥ,,株式会社,愛知県,名古屋市北区,辻本通１丁目３２番地の１,,23,103,4620861,,,,,,,2022-06-06,1,,,,,カノアエステート,0
2430,8180001151585,新規,0,2022-06-06,2022-06-06,ＥＮＮｓ株式会社,,株式会社,愛知県,名古屋市中川区,服部３丁目１１０９番地の１,,23,110,4540976,,,,,,,2022-06-06,1,,,,,エンズ,0
2431,8180001151593,新規,0,2022-06-06,2022-06-06,大澤商事株式会社,,株式会社,愛知県,瀬戸市,若宮町３丁目８６番地の１,,23,204,4890864,,,,,,,2022-06-06,1,,,,,オオサワショウジ,0
2432,8180001151610,新規,0,2022-06-06,2022-06-06,ＡＩＨＯＬＤＩＮＧＳ株式会社,,株式会社,愛知県,名古屋市中区,錦３丁目１９番１７号,,23,106,4600003,,,,,,,2022-06-06,1,,,,,アイホールディングス,0
2433,8180001151619,新規,0,2022-06-06,2022-06-06,株式会社Ａｓｐｉｒｅ,,株式会社,愛知県,名古屋市中村区,名駅３丁目２番２２号,,23,105,4500002,,,,,,,2022-06-06,1,,,,,アスパイア,0
2436,8180301036288,新規,0,2022-06-06,2022-06-06,株式会社ＬＩＬＡＣ,,株式会社,愛知県,岡崎市,美合町字地蔵野１番地５０３,,23,202,4440805,,,,,,,2022-06-06,1,,,,,ライラック,0
2438,8190001029467,新規,0,2022-06-06,2022-06-06,株式会社大史ＥＥ,,株式会社,三重県,伊賀市,久米町３３１番地４,,24,216,5180843,,,,,,,2022-06-06,1,,,,,ダイシイーイー,0
2439,8190001029475,新規,0,2022-06-06,2022-06-06,株式会社ビーハイブ,,株式会社,三重県,名張市,鴻之台２番町５７番地,,24,208,5180702,,,,,,,2022-06-06,1,,,,,ビーハイブ,0
2440,8190003004006,新規,0,2022-06-06,2022-06-06,ＬｅｉＳ合同会社,,合同会社,三重県,熊野市,遊木町９２番地３,,24,212,5194205,,,,,,,2022-06-06,1,,,,,レイス,0
2444,8200001040125,新規,0,2022-06-06,2022-06-06,株式会社サターン,,株式会社,岐阜県,岐阜市,長森細畑３４４番地１,,21,201,5008247,,,,,,,2022-06-06,1,,,,,サターン,0
2445,8200001040133,新規,0,2022-06-06,2022-06-06,株式会社木型ムラセ,,株式会社,岐阜県,土岐市,駄知町２０８０番地の１,,21,212,5095401,,,,,,,2022-06-06,1,,,,,キガタムラセ,0
2449,8210001018954,新規,0,2022-06-06,2022-06-06,株式会社リソグラ,,株式会社,福井県,敦賀市,杉津４号７番地の１,,18,202,9140264,,,,,,,2022-06-06,1,,,,,リソグラ,0
2453,8230001019389,新規,0,2022-06-06,2022-06-06,株式会社ＤＨＲ,,株式会社,富山県,氷見市,朝日丘１番４１号,,16,205,9350023,,,,,,,2022-06-06,1,,,,,ディーエイチアール,0
2457,8240003005650,新規,0,2022-06-06,2022-06-06,ロックシャロー合同会社,,合同会社,広島県,尾道市,西藤町３１６５,,34,205,7290142,,,,,,,2022-06-06,1,,,,,ロックシャロー,0
2462,8260001036910,新規,0,2022-06-06,2022-06-06,株式会社ＧＥＮＩＵＳ,,株式会社,岡山県,倉敷市,連島町鶴新田２８５７－７サンコレクト２０２,,33,202,7128006,,,,,,,2022-06-06,1,,,,,ジーニアス,0
2465,8270005005522,新規,0,2022-06-06,2022-06-06,一般社団法人鳥取県自動車団体連合会,,その他の設立登記法人,鳥取県,鳥取市,丸山町２３３番地,,31,201,6800006,,,,,,,2022-06-06,1,,,,,トットリケンジドウシャダンタイレンゴウカイ,0
2468,8280005007484,新規,0,2022-06-06,2022-06-06,一般社団法人ぬくもりの里二川,,その他の設立登記法人,島根県,益田市,美都町宇津川ロ３８６番地３,,32,204,6980202,,,,,,,2022-06-06,1,,,,,ヌクモリノサトフタカワ,0
2469,8290001097743,新規,0,2022-06-06,2022-06-06,プロジェクトＳＫ株式会社,,株式会社,福岡県,福岡市博多区,博多駅中央街６番１号２Ｆ,,40,132,8120012,,,,,,,2022-06-06,1,,,,,プロジェクトエスケイ,0
2475,8290801028583,新規,0,2022-06-06,2022-06-06,株式会社ＹＲ工業,,株式会社,福岡県,北九州市小倉北区,赤坂３丁目３番１０号,,40,106,8020032,,,,,,,2022-06-06,1,,,,,ワイアールコウギョウ,0
2476,8300001012956,新規,0,2022-06-06,2022-06-06,株式会社古賀左建,,株式会社,佐賀県,嬉野市,嬉野町大字岩屋川内乙２９２０番地,,41,209,8430304,,,,,,,2022-06-06,1,,,,,コガサケン,0
2477,8310001017888,新規,0,2022-06-06,2022-06-06,ＦＵＤＯ株式会社,,株式会社,長崎県,佐世保市,谷郷町３－６－５Ｆ,,42,202,8570027,,,,,,,2022-06-06,1,,,,,フドー,0
2478,8310001017896,新規,0,2022-06-06,2022-06-06,株式会社九州谷,,株式会社,長崎県,西海市,西彼町上岳郷７０７番地２,,42,212,8513304,,,,,,,2022-06-06,1,,,,,キュウシュウダニ,0
2480,8320001019108,新規,0,2022-06-06,2022-06-06,株式会社くにさき農研,,株式会社,大分県,国東市,安岐町大添１１５６番地,,44,214,8730223,,,,,,,2022-06-06,1,,,,,クニサキノウケン,0
2495,8350001017785,新規,0,2022-06-06,2022-06-06,株式会社Ｃｏｎｔｉｎｕｅ,,株式会社,宮崎県,宮崎市,神宮東２丁目３番５５号河崎ビル１０１号,,45,201,8800056,,,,,,,2022-06-06,1,,,,,コンテニュー,0
2504,8390001016916,新規,0,2022-06-06,2022-06-06,株式会社ティーズ,,株式会社,山形県,鶴岡市,睦町１７番５号,,06,203,9970817,,,,,,,2022-06-06,1,,,,,ティーズ,0
2506,8400003002945,新規,0,2022-06-06,2022-06-06,合同会社あまるめファーム,,合同会社,岩手県,奥州市,水沢姉体町字水ノ口前２１５番地,,03,215,0230831,,,,,,,2022-06-06,1,,,,,アマルメファーム,0
2514,8430001086756,新規,0,2022-06-06,2022-06-06,株式会社ホームクリエーション,,株式会社,北海道,札幌市東区,北三十七条東５丁目２番１５号グレースハイツ麻生１０５号,,01,103,0070837,,,,,,,2022-06-06,1,,,,,ホームクリエーション,0
2515,8430001086780,新規,0,2022-06-06,2022-06-06,株式会社マインド,,株式会社,北海道,札幌市北区,屯田十一条３丁目５番１３号,,01,102,0020861,,,,,,,2022-06-06,1,,,,,マインド,0
2519,8430003013980,新規,0,2022-06-06,2022-06-06,合同会社西舘建設,,合同会社,北海道,新冠郡新冠町,字北星町２番地の２４,,01,604,0592403,,,,,,,2022-06-06,1,,,,,ニシダテケンセツ,0
2521,8440001009096,新規,0,2022-06-06,2022-06-06,株式会社ＳＯＲＡ,,株式会社,北海道,北斗市,清水川２６８番地１５,,01,236,0411221,,,,,,,2022-06-06,1,,,,,ソラ,0
2524,8470003002195,新規,0,2022-06-06,2022-06-06,ステップ合同会社,,合同会社,香川県,仲多度郡多度津町,大字庄９４８番地１Ｄ２０２,,37,404,7640031,,,,,,,2022-06-06,1,,,,,ステップ,0
2534,8700150109208,新規,0,2022-06-06,2022-06-06,江蘇加一健康科技有限公司,,外国会社等,,,,,,,,＿州市高新技術産業開発区濱湖大道北、争先路西,00126733,,,,,2022-06-06,1,,,,,コウソカイチケンコウカギユウゲンコウシ,0
2542,9010001227070,新規,0,2022-06-06,2022-06-06,株式会社ＡＩＣ,,株式会社,東京都,千代田区,神田富山町１７番地３,,13,101,1010043,,,,,,,2022-06-06,1,,,,,エーアイシー,0
2543,9010001227087,新規,0,2022-06-06,2022-06-06,株式会社エネワンでんき,,株式会社,東京都,千代田区,丸の内１丁目６番１号丸の内センタービル２Ｆ,,13,101,1000005,,,,,,,2022-06-06,1,,,,,エネワンデンキ,0
2544,9010001227095,新規,0,2022-06-06,2022-06-06,株式会社ｔｈｅ　ＧＲＡＰＨ,,株式会社,東京都,中央区,日本橋堀留町２丁目１番３号,,13,102,1030012,,,,,,,2022-06-06,1,,,,,ザグラフ,0
2550,9010101015202,新規,0,2022-06-06,2022-06-06,株式会社ＳＡＹＡＭＡ　ｗｏｒｋｓ,,株式会社,東京都,八王子市,打越町８７９番地１８８,,13,201,1920911,,,,,,,2022-06-06,1,,,,,サヤマワークス,0
2556,9010401167767,新規,0,2022-06-06,2022-06-06,Ａｎｄ　Ｅｐｏｃｈ株式会社,,株式会社,東京都,港区,芝浦２丁目１７番９号大友ビル２Ｆ－Ｃ,,13,103,1080023,,,,,,,2022-06-06,1,,,,,アンドエポック,0
2560,9010403027820,新規,0,2022-06-06,2022-06-06,Ｅｌ　ＰＯＲＴＯ　ＤＥＳＩＧＮ合同会社,,合同会社,東京都,港区,西麻布１丁目３番１２－２０７号,,13,103,1060031,,,,,,,2022-06-06,1,,,,,エルポルトデザイン,0
2564,9010503006609,新規,0,2022-06-06,2022-06-06,合同会社ＱＥＤソリューション,,合同会社,東京都,台東区,花川戸２丁目２－６エビスビル７階,,13,106,1110033,,,,,,,2022-06-06,1,,,,,キューイーディーソリューション,0
2567,9010701042736,新規,0,2022-06-06,2022-06-06,株式会社キュリモ,,株式会社,東京都,品川区,上大崎３丁目１０番５８号目黒ビューグリーン４０２,,13,109,1410021,,,,,,,2022-06-06,1,,,,,キュリモ,0
2568,9010701042744,新規,0,2022-06-06,2022-06-06,株式会社Ｈｅｌｉｋｓ　Ｄａｔａ,,株式会社,東京都,品川区,西五反田２丁目１４番１３号ニックハイム五反田２階,,13,109,1410031,,,,,,,2022-06-06,1,,,,,ヘリックスデータ,0
2569,9010701042752,新規,0,2022-06-06,2022-06-06,株式会社ｉＤＥＡＬ　Ｍｅｄｉａ,,株式会社,東京都,品川区,八潮５丁目６番３６－３０２号,,13,109,1400003,,,,,,,2022-06-06,1,,,,,アイディールメディア,0
2576,9010901050976,新規,0,2022-06-06,2022-06-06,株式会社ラアヴェニール,,株式会社,東京都,世田谷区,三軒茶屋２丁目１１番２４号サンタワーズＡ５０２,,13,112,1540024,,,,,,,2022-06-06,1,,,,,ラアヴェニール,0
2587,9011001147878,新規,0,2022-06-06,2022-06-06,株式会社スタジオ晃画,,株式会社,東京都,渋谷区,渋谷２丁目１０番６号,,13,113,1500002,,,,,,,2022-06-06,1,,,,,スタジオコウガ,0
2588,9011001147894,新規,0,2022-06-06,2022-06-06,株式会社ハーハ,,株式会社,東京都,渋谷区,道玄坂１丁目１０番８号２Ｆ－Ｃ,,13,113,1500043,,,,,,,2022-06-06,1,,,,,ハーハ,0
2589,9011001147911,新規,0,2022-06-06,2022-06-06,株式会社Ｔ＆Ｉ,,株式会社,東京都,渋谷区,渋谷２丁目１番１号,,13,113,1500002,,,,,,,2022-06-06,1,,,,,ティーアンドアイ,0
2591,9011003014787,新規,0,2022-06-06,2022-06-06,合同会社ＬＩＬＩ　ＬＩＶＥ,,合同会社,東京都,渋谷区,神宮前６丁目２３番４号桑野ビル２階,,13,113,1500001,,,,,,,2022-06-06,1,,,,,リリライブ,0
2592,9011005009604,新規,0,2022-06-06,2022-06-06,一般社団法人日本患者会情報センター,,その他の設立登記法人,東京都,目黒区,自由が丘２丁目１７番２４号,,13,110,1520035,,,,,,,2022-06-06,1,,,,,ニホンカンジャカイジョウホウセンター,0
2594,9011101099078,新規,0,2022-06-06,2022-06-06,株式会社マーケメディア,,株式会社,東京都,新宿区,四谷４丁目１番地,,13,104,1600004,,,,,,,2022-06-06,1,,,,,マーケメディア,0
2595,9011101099086,新規,0,2022-06-06,2022-06-06,株式会社ＲＡＧＤＯＬＬ,,株式会社,東京都,新宿区,西新宿３丁目３番１３号西新宿水間ビル６階,,13,104,1600023,,,,,,,2022-06-06,1,,,,,ラグドール,0
2598,9011303004422,新規,0,2022-06-06,2022-06-06,ＶＩＶＩＤ合同会社,,合同会社,東京都,杉並区,天沼１丁目１６番地１号西南荘１号,,13,115,1670032,,,,,,,2022-06-06,1,,,,,ヴィヴィッド,0
2604,9011501028099,新規,0,2022-06-06,2022-06-06,株式会社ポローニヤヒルズ,,株式会社,東京都,北区,桐ケ丘２丁目１１番２６号ポローニヤヒルズ５０１号,,13,117,1150054,,,,,,,2022-06-06,1,,,,,ポローニヤヒルズ,0
2605,9011601026011,新規,0,2022-06-06,2022-06-06,株式会社ＳＳＮ,,株式会社,東京都,練馬区,石神井台１丁目１１番１－５０１号,,13,120,1770045,,,,,,,2022-06-06,1,,,,,エスエスエヌ,0
2608,9012401039269,新規,0,2022-06-06,2022-06-06,株式会社イーストベル,,株式会社,東京都,調布市,布田４丁目２１番地１アルソスガーデン調布１０１号室,,13,208,1820024,,,,,,,2022-06-06,1,,,,,イーストベル,0
2609,9012401039277,新規,0,2022-06-06,2022-06-06,株式会社ＲＯＤ　ＭＡＲＫＥＴＩＮＧ,,株式会社,東京都,小金井市,梶野町１丁目２番３６号,,13,210,1840002,,,,,,,2022-06-06,1,,,,,ロッドマーケティング,0
2615,9013301049192,新規,0,2022-06-06,2022-06-06,株式会社ＳＴＡＢＬＥ,,株式会社,東京都,豊島区,北大塚２丁目６番３号メゾン大塚１０１,,13,116,1700004,,,,,,,2022-06-06,1,,,,,ステーブル,0
2616,9013301049201,新規,0,2022-06-06,2022-06-06,ＫＡＩＳＥＩ株式会社,,株式会社,東京都,豊島区,池袋本町４丁目４５番８－４０５号,,13,116,1700011,,,,,,,2022-06-06,1,,,,,カイセイ,0
2622,9020001146699,新規,0,2022-06-06,2022-06-06,株式会社善結,,株式会社,神奈川県,川崎市川崎区,本町２丁目６番地６－８０４,,14,131,2100001,,,,,,,2022-06-06,1,,,,,ゼンケイ,0
2623,9020001146765,新規,0,2022-06-06,2022-06-06,株式会社Ｋ７６,,株式会社,神奈川県,横浜市港南区,港南６丁目４番２９号,,14,111,2330003,,,,,,,2022-06-06,1,,,,,ケイナナロク,0
2624,9020001146781,新規,0,2022-06-06,2022-06-06,株式会社クリップ,,株式会社,神奈川県,川崎市宮前区,平３丁目１１番１１－２号,,14,136,2160022,,,,,,,2022-06-06,1,,,,,クリップ,0
2625,9020001146798,新規,0,2022-06-06,2022-06-06,飛鳥株式会社,,株式会社,神奈川県,川崎市多摩区,生田８丁目２０番２３－１０６号,,14,135,2140038,,,,,,,2022-06-06,1,,,,,アスカ,0
2627,9020003021867,新規,0,2022-06-06,2022-06-06,合同会社ＩＭＡ‐ＧＯ,,合同会社,神奈川県,横浜市中区,末吉町２丁目３４番地１－２０７号室,,14,104,2310055,,,,,,,2022-06-06,1,,,,,イマゴ,0
2628,9020003021875,新規,0,2022-06-06,2022-06-06,Ｅｌｓｉｅ　Ｌｉｌａｃ合同会社,,合同会社,神奈川県,横浜市都筑区,中川６丁目１番１０－９０１号,,14,118,2240001,,,,,,,2022-06-06,1,,,,,エルシィライラック,0
2629,9020003021883,新規,0,2022-06-06,2022-06-06,合同会社ＴＡＮＤＥＭ,,合同会社,神奈川県,川崎市中原区,下新城２丁目７番３０－４０２号,,14,133,2110042,,,,,,,2022-06-06,1,,,,,タンデム,0
2630,9020005015553,新規,0,2022-06-06,2022-06-06,一般社団法人繊維強化コンクリート協会,,その他の設立登記法人,神奈川県,横浜市西区,みなとみらいランドマークタワー１１階,,14,103,2200000,,,,,,,2022-06-06,1,,,,,センイキョウカコンクリートキョウカイ,0
2635,9021001076143,新規,0,2022-06-06,2022-06-06,株式会社プティパ,,株式会社,神奈川県,大和市,大和南１丁目１６番２２号,,14,213,2420016,,,,,,,2022-06-06,1,,,,,プティパ,0
2636,9021001076151,新規,0,2022-06-06,2022-06-06,株式会社ＨＭＭ,,株式会社,神奈川県,藤沢市,湘南台６丁目３２番地の３,,14,205,2520804,,,,,,,2022-06-06,1,,,,,エッチエムエム,0
2637,9021001076168,新規,0,2022-06-06,2022-06-06,湘南リゾート＆エンターテイメント株式会社,,株式会社,神奈川県,藤沢市,片瀬山１丁目１３番２７号,,14,205,2510033,,,,,,,2022-06-06,1,,,,,ショウナンリゾートアンドエンターテイメント,0
2641,9021003011791,新規,0,2022-06-06,2022-06-06,合同会社ＣＲＯＷＮ　ＡＲＣＨＥＲＹ　ＡＣＡＤＥＭＹ,,合同会社,神奈川県,相模原市南区,松が枝町１６番１２－７０４号,,14,153,2520313,,,,,,,2022-06-06,1,,,,,クラウンアーチェリーアカデミー,0
2645,9030001148488,新規,0,2022-06-06,2022-06-06,Ｇａｌｗａｙ株式会社,,株式会社,埼玉県,上尾市,日の出３丁目４番５号,,11,219,3620032,,,,,,,2022-06-06,1,,,,,ゴールウェイ,0
2646,9030001148496,新規,0,2022-06-06,2022-06-06,株式会社ピクトス,,株式会社,埼玉県,草加市,氷川町２１６８番地１４サニーサイドＣ号,,11,221,3400034,,,,,,,2022-06-06,1,,,,,ピクトス,0
2647,9030001148513,新規,0,2022-06-06,2022-06-06,株式会社小山アソシエート,,株式会社,埼玉県,上尾市,大字領家４２３番地４,,11,219,3620066,,,,,,,2022-06-06,1,,,,,コヤマアソシエート,0
2648,9030001148562,新規,0,2022-06-06,2022-06-06,株式会社ＧＴＯ,,株式会社,埼玉県,八潮市,大字木曽根４１１番地１,,11,234,3400813,,,,,,,2022-06-06,1,,,,,ジーティーオー,0
2651,9030003019530,新規,0,2022-06-06,2022-06-06,Ｍｅ　Ｌｉｆｅ　Ｃａｒｅ合同会社,,合同会社,埼玉県,飯能市,大字双柳９２８番地１,,11,209,3570021,,,,,,,2022-06-06,1,,,,,ミライフケア,0
2652,9030003019539,新規,0,2022-06-06,2022-06-06,ＴＥＣＨ　ＳＴＯＲＥ合同会社,,合同会社,埼玉県,入間郡毛呂山町,中央３丁目１０番地９－１０１,,11,326,3500461,,,,,,,2022-06-06,1,,,,,テックストア,0
2653,9030005020882,新規,0,2022-06-06,2022-06-06,一般社団法人総合型地域スポーツクラブすぱえもん,,その他の設立登記法人,埼玉県,草加市,中央２丁目１５番３２－１０６号,,11,221,3400016,,,,,,,2022-06-06,1,,,,,ソウゴウガタチイキスポーツクラブスパエモン,0
2656,9040001123671,新規,0,2022-06-06,2022-06-06,株式会社オートファクトリー,,株式会社,千葉県,山武郡九十九里町,真亀４７５８番地１３,,12,403,2830114,,,,,,,2022-06-06,1,,,,,オートファクトリー,0
2659,9040003020149,新規,0,2022-06-06,2022-06-06,合同会社田邊,,合同会社,千葉県,木更津市,太田２丁目１４番１４号,,12,206,2920044,,,,,,,2022-06-06,1,,,,,タナベ,0
2660,9040003020173,新規,0,2022-06-06,2022-06-06,合同会社ＥＬＩＳＨＡ　ＩＮＴＥＲＮＡＴＩＯＮＡＬ,,合同会社,千葉県,柏市,藤ケ谷１９２３－６,,12,217,2770931,,,,,,,2022-06-06,1,,,,,エリシャインターナショナル,0
2668,9060001034941,新規,0,2022-06-06,2022-06-06,株式会社あかり,,株式会社,栃木県,足利市,大前町７６３番地,,09,202,3260845,,,,,,,2022-06-06,1,,,,,アカリ,0
2670,9070001039287,新規,0,2022-06-06,2022-06-06,ＴＳＪ株式会社,,株式会社,群馬県,太田市,新田赤堀町４０４番地２グリーンヒルズミヤタ２－Ｄ号,,10,205,3700331,,,,,,,2022-06-06,1,,,,,ティーエスジェイ,0
2671,9070001039295,新規,0,2022-06-06,2022-06-06,ＧＲＯＷＩＮＧ株式会社,,株式会社,群馬県,太田市,宝町６３７番地,,10,205,3730042,,,,,,,2022-06-06,1,,,,,グロウイング,0
2672,9070001039304,新規,0,2022-06-06,2022-06-06,環境リンク株式会社,,株式会社,群馬県,伊勢崎市,波志江町１０２４番地２,,10,204,3720001,,,,,,,2022-06-06,1,,,,,カンキョウリンク,0
2673,9070001039312,新規,0,2022-06-06,2022-06-06,株式会社Ｔ．Ｓ．ＴＥＣ,,株式会社,群馬県,前橋市,敷島町２５６番地１４,,10,201,3710036,,,,,,,2022-06-06,1,,,,,ティーエステック,0
2677,9070003004504,新規,0,2022-06-06,2022-06-06,合同会社ミライベイク,,合同会社,群馬県,桐生市,相生町３丁目５９１番地２,,10,203,3760011,,,,,,,2022-06-06,1,,,,,ミライベイク,0
2679,9070005009996,新規,0,2022-06-06,2022-06-06,一般社団法人関甲新学生野球連盟,,その他の設立登記法人,群馬県,伊勢崎市,戸谷塚町６３４番地１,,10,204,3720825,,,,,,,2022-06-06,1,,,,,カンコウシンガクセイヤキュウレンメイ,0
2681,9080003002812,新規,0,2022-06-06,2022-06-06,合同会社Ｔ‐ｍｎｙ,,合同会社,静岡県,藤枝市,青木２丁目３７番１６号,,22,214,4260037,,,,,,,2022-06-06,1,,,,,ティーミニー,0
2685,9080103002596,新規,0,2022-06-06,2022-06-06,合同会社Ｓｅａ　Ｆｏｒｅｓｔ　Ｃｉｒｃｕｌａｔｉｏｎ,,合同会社,静岡県,伊東市,八幡野１２４９番地１８,,22,208,4130232,,,,,,,2022-06-06,1,,,,,シーフォレストサーキュレーション,0
2691,9100001035407,新規,0,2022-06-06,2022-06-06,株式会社ライフシステム,,株式会社,長野県,諏訪市,渋崎１７９２番３９４,,20,206,3920010,,,,,,,2022-06-06,1,,,,,ライフシステム,0
2692,9100001035415,新規,0,2022-06-06,2022-06-06,株式会社フレア,,株式会社,長野県,諏訪市,諏訪１丁目６番２２号ポレスター上諏訪駅前テラス４階,,20,206,3920004,,,,,,,2022-06-06,1,,,,,フレア,0
2698,9110001036701,新規,0,2022-06-06,2022-06-06,株式会社鳳電,,株式会社,新潟県,燕市,吉田日之出町１７番３２号,,15,213,9590231,,,,,,,2022-06-06,1,,,,,ホウデン,0
2708,9120001246282,新規,0,2022-06-06,2022-06-06,株式会社ドットジー,,株式会社,大阪府,大阪市中央区,島之内１丁目１３番３号１３０１号室,,27,128,5420082,,,,,,,2022-06-06,1,,,,,ドットジー,0
2709,9120001246423,新規,0,2022-06-06,2022-06-06,株式会社西村鞄,,株式会社,大阪府,大阪市住吉区,南住吉２丁目１６番２０号,,27,120,5580041,,,,,,,2022-06-06,1,,,,,ニシムラカバン,0
2710,9120001246431,新規,0,2022-06-06,2022-06-06,株式会社タイニーテコ,,株式会社,大阪府,大阪市東成区,深江北１丁目７番地１６号,,27,115,5370001,,,,,,,2022-06-06,1,,,,,タイニーテコ,0
2714,9120101065673,新規,0,2022-06-06,2022-06-06,株式会社さざんケアサービス,,株式会社,大阪府,貝塚市,久保１丁目７番２７号,,27,208,5970031,,,,,,,2022-06-06,1,,,,,サザンケアサービス,0
2715,9120101065681,新規,0,2022-06-06,2022-06-06,株式会社ＹＵＳＨＩＮ,,株式会社,大阪府,貝塚市,半田４丁目５番６号,,27,208,5970033,,,,,,,2022-06-06,1,,,,,ユーシン,0
2718,9120103004729,新規,0,2022-06-06,2022-06-06,合同会社エヌディーマネジメント,,合同会社,大阪府,堺市堺区,翁橋町１丁８番１４－１２０１号,,27,141,5900061,,,,,,,2022-06-06,1,,,,,エヌディーマネジメント,0
2720,9120901046047,新規,0,2022-06-06,2022-06-06,株式会社住宅リフォームサポート,,株式会社,大阪府,池田市,鉢塚２丁目９番２３－Ａ号,,27,204,5630024,,,,,,,2022-06-06,1,,,,,ジュウタクリフォームサポート,0
2721,9120903004176,新規,0,2022-06-06,2022-06-06,ＧＡＮＧＡ　ＩＮＴＥＲＮＡＴＩＯＮＡＬ合同会社,,合同会社,大阪府,豊中市,服部西町２丁目５番２０号,,27,203,5610858,,,,,,,2022-06-06,1,,,,,ガンガインターナショナル,0
2726,9130001071911,新規,0,2022-06-06,2022-06-06,ミヤタ防護テック株式会社,,株式会社,京都府,亀岡市,大井町並河５丁目７５番地,,26,206,6210013,,,,,,,2022-06-06,1,,,,,ミヤタボウゴテック,0
2727,9130001071928,新規,0,2022-06-06,2022-06-06,株式会社Ｙｄｅｐｓ,,株式会社,京都府,京都市右京区,嵯峨天龍寺今堀町１６番地の５,,26,108,6168366,,,,,,,2022-06-06,1,,,,,ワイデップス,0
2734,9140001126219,新規,0,2022-06-06,2022-06-06,株式会社大西電気,,株式会社,兵庫県,西宮市,甲子園口５丁目８番６－２号,,28,204,6638113,,,,,,,2022-06-06,1,,,,,オオニシデンキ,0
2735,9140001126235,新規,0,2022-06-06,2022-06-06,株式会社長澤工業,,株式会社,兵庫県,神崎郡福崎町,東田原６２番地１,,28,443,6792205,,,,,,,2022-06-06,1,,,,,ナガサワコウギョウ,0
2736,9140001126243,新規,0,2022-06-06,2022-06-06,株式会社八木建設,,株式会社,兵庫県,加古川市,別府新野辺５７４番地３１１,,28,210,6750000,,,,,,,2022-06-06,1,,,,,ヤギケンセツ,0
2740,9140003017762,新規,0,2022-06-06,2022-06-06,合同会社サンエス商会,,合同会社,兵庫県,姫路市,八家１２７２番地,,28,201,6728015,,,,,,,2022-06-06,1,,,,,サンエスショウカイ,0
2741,9150001025601,新規,0,2022-06-06,2022-06-06,株式会社ミラスト,,株式会社,奈良県,橿原市,内膳町１丁目１番４号,,29,205,6340804,,,,,,,2022-06-06,1,,,,,ミラスト,0
2744,9160001024247,新規,0,2022-06-06,2022-06-06,株式会社Ａｊｉｔｉｃ,,株式会社,滋賀県,蒲生郡竜王町,大字須惠１１１７－２,,25,384,5202561,,,,,,,2022-06-06,1,,,,,アジティック,0
2745,9160001024255,新規,0,2022-06-06,2022-06-06,株式会社ラクーンモーター,,株式会社,滋賀県,大津市,衣川１丁目１２番１６号,,25,201,5200244,,,,,,,2022-06-06,1,,,,,ラクーンモーター,0
2746,9160003002580,新規,0,2022-06-06,2022-06-06,合同会社ｊｏｙ,,合同会社,滋賀県,近江八幡市,武佐町６６１番地６,,25,204,5230012,,,,,,,2022-06-06,1,,,,,ジョイ,0
2756,9180001151568,新規,0,2022-06-06,2022-06-06,株式会社ワカイ組,,株式会社,愛知県,海部郡蟹江町,城４丁目２７６番地,,23,425,4970040,,,,,,,2022-06-06,1,,,,,ワカイグミ,0
2757,9180001151584,新規,0,2022-06-06,2022-06-06,株式会社ごはんやさん,,株式会社,愛知県,長久手市,前熊一ノ井１番地５２,,23,238,4801102,,,,,,,2022-06-06,1,,,,,ゴハンヤサン,0
2762,9190001029466,新規,0,2022-06-06,2022-06-06,株式会社佐熊工業,,株式会社,三重県,鈴鹿市,加佐登町１６３６番地の５,,24,207,5130003,,,,,,,2022-06-06,1,,,,,サクマコウギョウ,0
2777,9220001024884,新規,0,2022-06-06,2022-06-06,株式会社バリエイト,,株式会社,石川県,能美郡川北町,字田子島辰２３番地,,17,324,9231271,,,,,,,2022-06-06,1,,,,,バリエイト,0
2778,9230001019396,新規,0,2022-06-06,2022-06-06,株式会社ミライノ交通観光ラボ,,株式会社,富山県,富山市,西大泉１１番５号,,16,201,9398096,,,,,,,2022-06-06,1,,,,,ミライノコウツウカンコウラボ,0
2800,9290001097809,新規,0,2022-06-06,2022-06-06,株式会社ＡＣＥ　ＣＯＮＮＥＣＴＩＯＮ,,株式会社,福岡県,久留米市,東町３６１－１９,,40,203,8300032,,,,,,,2022-06-06,1,,,,,エースコネクション,0
2801,9290003012591,新規,0,2022-06-06,2022-06-06,ＦＡＮＫＳＹ合同会社,,合同会社,福岡県,福岡市中央区,大宮１丁目４－１０ピオアルテ薬院３０１,,40,133,8100013,,,,,,,2022-06-06,1,,,,,ファンクシー,0
2803,9290801028582,新規,0,2022-06-06,2022-06-06,ＫＡＷホールディングス株式会社,,株式会社,福岡県,北九州市小倉北区,東篠崎３丁目６番２７号,,40,106,8020072,,,,,,,2022-06-06,1,,,,,ケーエーダブリューホールディングス,0
2804,9290801028590,新規,0,2022-06-06,2022-06-06,株式会社ｉｍｐｒｏｏｍ,,株式会社,福岡県,北九州市八幡東区,大蔵２丁目１１番９号,,40,108,8050048,,,,,,,2022-06-06,1,,,,,インプルーム,0
2805,9290801028599,新規,0,2022-06-06,2022-06-06,ヤスナガ機工株式会社,,株式会社,福岡県,宮若市,本城１４１５番地,,40,226,8230003,,,,,,,2022-06-06,1,,,,,ヤスナガキコウ,0
2808,9290803004136,新規,0,2022-06-06,2022-06-06,合同会社あるこねっこ,,合同会社,福岡県,北九州市小倉北区,浅野３丁目８番１号ＡＩＭビル６Ｆ,,40,106,8020001,,,,,,,2022-06-06,1,,,,,アルコネッコ,0
2809,9300001012955,新規,0,2022-06-06,2022-06-06,株式会社Ｙ・Ｋ・Ｋ　ＦＡＲＭＥＲＳ,,株式会社,佐賀県,多久市,東多久町大字別府６３２６番地１,,41,204,8460012,,,,,,,2022-06-06,1,,,,,ワイケイケイファーマーズ,0
2811,9320001019115,新規,0,2022-06-06,2022-06-06,株式会社Ａ．Ｎ,,株式会社,大分県,由布市,湯布院町川上３０６４番地３,,44,213,8795102,,,,,,,2022-06-06,1,,,,,アーエヌ,0
2812,9320003003819,新規,0,2022-06-06,2022-06-06,合同会社ＴＲＳ,,合同会社,大分県,大分市,大字小池原１７２９番地の７７,,44,201,8700147,,,,,,,2022-06-06,1,,,,,ティーアールエス,0
2813,9330001029798,新規,0,2022-06-06,2022-06-06,株式会社ビームズ,,株式会社,熊本県,阿蘇郡西原村,大字布田１１５７番地５,,43,432,8612403,,,,,,,2022-06-06,1,,,,,ビームズ,0
2818,9340001024773,新規,0,2022-06-06,2022-06-06,株式会社浜正,,株式会社,鹿児島県,出水郡長島町,諸浦１３５１番地８,,46,404,8991403,,,,,,,2022-06-06,1,,,,,ハマショウ,0
2824,9360001030506,新規,0,2022-06-06,2022-06-06,株式会社星びる,,株式会社,沖縄県,那覇市,松山１丁目１番１４号,,47,201,9000032,,,,,,,2022-06-06,1,,,,,ホシビル,0
2833,9390001016915,新規,0,2022-06-06,2022-06-06,株式会社マルワ電気,,株式会社,山形県,村山市,楯岡二日町７番１３号,,06,208,9950015,,,,,,,2022-06-06,1,,,,,マルワデンキ,0
2834,9390003001964,新規,0,2022-06-06,2022-06-06,合同会社荘内資源,,合同会社,山形県,鶴岡市,由良字由良沢４８番地２,,06,203,9997464,,,,,,,2022-06-06,1,,,,,ショウナイシゲン,0
2836,9400001015907,新規,0,2022-06-06,2022-06-06,株式会社進月,,株式会社,岩手県,胆沢郡金ケ崎町,三ケ尻南花沢３６番地７,,03,381,0294502,,,,,,,2022-06-06,1,,,,,シンゲツ,0
2845,9430001086755,新規,0,2022-06-06,2022-06-06,株式会社オウルエア,,株式会社,北海道,札幌市北区,新琴似八条１０丁目１番１－４０１号,,01,102,0010908,,,,,,,2022-06-06,1,,,,,オウルエア,0
2846,9430001086763,新規,0,2022-06-06,2022-06-06,株式会社ＰＲＯＴＥＣＴ,,株式会社,北海道,札幌市豊平区,平岸三条１３丁目７番１６号,,01,105,0620933,,,,,,,2022-06-06,1,,,,,プロテクト,0
2850,9430005014480,新規,0,2022-06-06,2022-06-06,特定非営利活動法人ＳＤＧｓほっと北海道,,その他の設立登記法人,北海道,札幌市豊平区,平岸四条７丁目１番１－１１０６号,,01,105,0620934,,,,,,,2022-06-06,1,,,,,エスディジィズホットホッカイドウ,0
2851,9440001009095,新規,0,2022-06-06,2022-06-06,ＹＦＤホールディングス株式会社,,株式会社,北海道,二海郡八雲町,野田生５５７番地の１,,01,346,0492672,,,,,,,2022-06-06,1,,,,,ワイエフディーホールディングス,0
2856,9460303000766,新規,0,2022-06-06,2022-06-06,合同会社蒼空,,合同会社,北海道,北見市,美芳町１丁目７番１８号,,01,208,0900064,,,,,,,2022-06-06,1,,,,,アオイソラ,0
2858,9470001019109,新規,0,2022-06-06,2022-06-06,株式会社ＧＲＡＮＤ　ＺＥＲＯ,,株式会社,香川県,丸亀市,土器町東６丁目３２４番地,,37,202,7630082,,,,,,,2022-06-06,1,,,,,グランドゼロ,0
2860,9470003002194,新規,0,2022-06-06,2022-06-06,合同会社カネシン,,合同会社,香川県,観音寺市,木之郷町１７７９番地１,,37,205,7680051,,,,,,,2022-06-06,1,,,,,カネシン,0
2863,9700150109207,新規,0,2022-06-06,2022-06-06,徐州博峰源商貿有限公司,,外国会社等,,,,,,,,徐州市銅山区万和佳苑２期Ａ＃－１４９舗,,,,,,2022-06-06,1,,,,,ジョシュウハクホウゲンショウボウユウゲンコウシ,0
