sequenceNumber,corporateNumber,process,correct,updateDate,changeDate,name,nameImageId,kind,prefectureName,cityName,streetNumber,addressImageId,prefectureCode,cityCode,postCode,addressOutside,addressOutsideImageId,closeDate,closeCause,successorCorporateNumber,changeCause,assignmentDate,latest,enName,enPrefectureName,enCityName,enAddressOutside,furigana,hihyoji
10,1010001244131,新規,0,2024-04-23,2024-04-23,株式会社Ｆｕｔｕｒｅ　Ｖｉｓｉｏｎ,,株式会社,東京都,千代田区,神田岩本町１番地１４ＫＤＸ秋葉原ビル６階,,13,101,1010033,,,,,,,2024-04-23,1,,,,,フューチャーヴィジョン,0
11,1010001244222,新規,0,2024-04-23,2024-04-23,株式会社Ｌａｗ　ｅｄｕｃａｔｉｏｎ,,株式会社,東京都,中央区,日本橋室町１丁目１１番１２号日本橋水野ビル７階,,13,102,1030022,,,,,,,2024-04-23,1,,,,,ローエデュケーション,0
12,1010001244255,新規,0,2024-04-23,2024-04-23,ＢＢＴホールディングス株式会社,,株式会社,東京都,中央区,銀座５丁目１０番２号ＧＩＮＺＡ・ＭＩＳＳ・ＰＡＲＩＳ,,13,102,1040061,,,,,,,2024-04-23,1,,,,,ビービーティーホールディングス,0
13,1010001244263,新規,0,2024-04-23,2024-04-23,ｍａｓｕｔｅｃｈｎｏ株式会社,,株式会社,東京都,中央区,銀座１丁目１２－４－Ｎ＆Ｅ－ＢＬＤ．７階,,13,102,1040061,,,,,,,2024-04-23,1,,,,,マステクノ,0
17,1010003043556,新規,0,2024-04-23,2024-04-23,ＳＰＩＮＴＡ合同会社,,合同会社,東京都,千代田区,神田和泉町１番地６－１６ヤマトビル４０５,,13,101,1010024,,,,,,,2024-04-23,1,,,,,スピンタ,0
18,1010003043564,新規,0,2024-04-23,2024-04-23,ＡＳＡ　ＪＡＰＡＮ合同会社,,合同会社,東京都,千代田区,一番町１３番地１２日興ロイヤルパレス一番町第２・６０１号,,13,101,1020082,,,,,,,2024-04-23,1,,,,,アサジャパン,0
21,1010401181924,新規,0,2024-04-23,2024-04-23,株式会社サンガクリエーションズ,,株式会社,東京都,港区,南青山３丁目１番３６号青山丸竹ビル６Ｆ,,13,103,1070062,,,,,,,2024-04-23,1,,,,,サンガクリエーションズ,0
22,1010401182014,新規,0,2024-04-23,2024-04-23,Ｙ＆Ｍ株式会社,,株式会社,東京都,港区,南青山２丁目２番１５号ウィン青山９４２,,13,103,1070062,,,,,,,2024-04-23,1,,,,,ワイアンドエム,0
24,1010403032407,新規,0,2024-04-23,2024-04-23,合同会社Ｙｏｎｉｏｎ,,合同会社,東京都,港区,浜松町２丁目２番１５号浜松町ダイヤビル２Ｆ,,13,103,1050013,,,,,,,2024-04-23,1,,,,,ヨニオン,0
25,1010403032464,新規,0,2024-04-23,2024-04-23,合同会社ソンアンジャパン,,合同会社,東京都,港区,六本木４丁目３番２１号ブランズ六本木ザ・レジデンス３１１号,,13,103,1060032,,,,,,,2024-04-23,1,,,,,ソンアンジャパン,0
26,1010601065051,新規,0,2024-04-23,2024-04-23,三昌株式会社,,株式会社,東京都,墨田区,緑４丁目２４番１９号日神パレス錦糸町５０１,,13,107,1300021,,,,,,,2024-04-23,1,,,,,ミツマサ,0
30,1010901055082,新規,0,2024-04-23,2024-04-23,株式会社ＣＨＥＶＡＬ　ＰＬＵＳ,,株式会社,東京都,世田谷区,等々力４丁目１０番４号ベルプラザ等々力２０１,,13,112,1580082,,,,,,,2024-04-23,1,,,,,シュヴァルプラス,0
35,1011101106997,新規,0,2024-04-23,2024-04-23,ＬＯＡＤＷＥＬＬ株式会社,,株式会社,東京都,新宿区,西新宿７丁目７番２３号トミービル４階ＳＳ－ＯＦＦＩＣＥ新宿１号室,,13,104,1600023,,,,,,,2024-04-23,1,,,,,ロードウェル,0
36,1011101107046,新規,0,2024-04-23,2024-04-23,株式会社山倉工業,,株式会社,東京都,新宿区,西新宿３丁目３番１３号西新宿水間ビル２Ｆ,,13,104,1600023,,,,,,,2024-04-23,1,,,,,ヤマクラコウギョウ,0
37,1011301029602,新規,0,2024-04-23,2024-04-23,株式会社ＴＫＪＡＣ７,,株式会社,東京都,杉並区,大宮１丁目３番１８号,,13,115,1680061,,,,,,,2024-04-23,1,,,,,,0
40,1011403004354,新規,0,2024-04-23,2024-04-23,合同会社マゼンタ,,合同会社,東京都,板橋区,蓮根１丁目４番２号サンハイツ山口２０１,,13,119,1740046,,,,,,,2024-04-23,1,,,,,マゼンタ,0
41,1011501030582,新規,0,2024-04-23,2024-04-23,図南開発株式会社,,株式会社,東京都,荒川区,東日暮里３丁目２７番５号ＢＨビル７階,,13,118,1160014,,,,,,,2024-04-23,1,,,,,トナンカイハツ,0
46,1012401041785,新規,0,2024-04-23,2024-04-23,株式会社ＫＯＫＯＲＯ　ＪＡＰＡＮ,,株式会社,東京都,調布市,布田２丁目４０番地１Ｓ５０１号室,,13,208,1820024,,,,,,,2024-04-23,1,,,,,ココロジャパン,0
55,1020001156838,新規,0,2024-04-23,2024-04-23,プロデザインエンジ株式会社,,株式会社,神奈川県,横浜市中区,桜木町１丁目１０１番地１クロスゲート７階,,14,104,2310062,,,,,,,2024-04-23,1,,,,,プロデザインエンジ,0
62,1021001082058,新規,0,2024-04-23,2024-04-23,株式会社Ｌｕｘ,,株式会社,神奈川県,足柄下郡真鶴町,岩９１６番地,,14,383,2590202,,,,,,,2024-04-23,1,,,,,ルクス,0
66,1021003014430,新規,0,2024-04-23,2024-04-23,アルツノメディカ合同会社,,合同会社,神奈川県,藤沢市,片瀬海岸１丁目６番１５号,,14,205,2510035,,,,,,,2024-04-23,1,,,,,アルツノメディカ,0
76,1030001159971,新規,0,2024-04-23,2024-04-23,株式会社ＫＡＫＥＮＳＹＡ,,株式会社,埼玉県,北葛飾郡松伏町,大字金杉１７４３番地,,11,465,3430103,,,,,,,2024-04-23,1,,,,,カケンシャ,0
84,1040001133298,新規,0,2024-04-23,2024-04-23,株式会社シマーディ,,株式会社,千葉県,千葉市花見川区,朝日ケ丘３丁目８番１９号,,12,102,2620019,,,,,,,2024-04-23,1,,,,,シマーディ,0
86,1040003024727,新規,0,2024-04-23,2024-04-23,合同会社ＥＴＥＲＮＩＴＹ,,合同会社,千葉県,松戸市,五香西４丁目１―１０,,12,207,2702218,,,,,,,2024-04-23,1,,,,,エタニティ,0
87,1040003024842,新規,0,2024-04-23,2024-04-23,合同会社みゆきパートナーズ,,合同会社,千葉県,千葉市若葉区,中田町２４３５番地,,12,104,2650043,,,,,,,2024-04-23,1,,,,,ミユキパートナーズ,0
91,1050005013438,新規,0,2024-04-23,2024-04-23,特定非営利活動法人古河史楽会,,その他の設立登記法人,茨城県,古河市,桜町１３番２３号,,08,204,3060036,,,,,,,2024-04-23,1,,,,,,0
101,1070001041622,新規,0,2024-04-23,2024-04-23,株式会社好日,,株式会社,群馬県,伊勢崎市,豊城町１９８８－５,,10,204,3720012,,,,,,,2024-04-23,1,,,,,コウジツ,0
102,1070001041663,新規,0,2024-04-23,2024-04-23,株式会社ＤＡＮ,,株式会社,群馬県,伊勢崎市,長沼町６０４－１３,,10,204,3720855,,,,,,,2024-04-23,1,,,,,ダン,0
117,1090001018651,新規,0,2024-04-23,2024-04-23,ＯＳＨＩＮＯ　ＡＩＲ株式会社,,株式会社,山梨県,南都留郡忍野村,忍草３４９０番地１,,19,424,4010511,,,,,,,2024-04-23,1,,,,,オシノエアー,0
123,1100003007502,新規,0,2024-04-23,2024-04-23,合同会社和とろん,,合同会社,長野県,上田市,武石小沢根２０９番地３,,20,203,3860504,,,,,,,2024-04-23,1,,,,,ワトロン,0
136,1120001264259,新規,0,2024-04-23,2024-04-23,株式会社Ｂ．Ｌ．Ｄ,,株式会社,大阪府,大阪市都島区,片町２丁目７番１２号,,27,102,5340025,,,,,,,2024-04-23,1,,,,,ビーエルディー,0
137,1120001264283,新規,0,2024-04-23,2024-04-23,ＷＥＳＴ　ＳＨＯＴ株式会社,,株式会社,大阪府,大阪市港区,市岡元町３丁目３番１４－１０２号,,27,107,5520002,,,,,,,2024-04-23,1,,,,,ウエストショット,0
143,1120101069418,新規,0,2024-04-23,2024-04-23,株式会社Ａ’ｚリミテッド,,株式会社,大阪府,堺市中区,深井畑山町２３６－８（２階）,,27,142,5998248,,,,,,,2024-04-23,1,,,,,エースリミテッド,0
149,1120903005140,新規,0,2024-04-23,2024-04-23,合同会社オレンジクルー,,合同会社,大阪府,茨木市,北春日丘３丁目２番２１号,,27,211,5670048,,,,,,,2024-04-23,1,,,,,オレンジクルー,0
150,1122001038015,新規,0,2024-04-23,2024-04-23,株式会社ＬＥＡＧＲＯＷ,,株式会社,大阪府,東大阪市,西堤２丁目３番２３号株式会社エフロジ内,,27,227,5770042,,,,,,,2024-04-23,1,,,,,リーグロー,0
154,1130003009487,新規,0,2024-04-23,2024-04-23,合同会社示現,,合同会社,京都府,京都市下京区,七条通油小路東入大黒町２２７番地第２キョートビル４０２,,26,106,6008223,,,,,,,2024-04-23,1,,,,,ジゲン,0
164,1140001134162,新規,0,2024-04-23,2024-04-23,Ｆｕｊｉｉ株式会社,,株式会社,兵庫県,神戸市東灘区,本山北町４丁目７番８号,,28,101,6580003,,,,,,,2024-04-23,1,,,,,フジイ,0
165,1140001134179,新規,0,2024-04-23,2024-04-23,株式会社ＪＯＣＫ　ＲＯＣＫ,,株式会社,兵庫県,姫路市,南条２丁目１１３番地,,28,201,6700952,,,,,,,2024-04-23,1,,,,,ジョックロック,0
166,1140001134187,新規,0,2024-04-23,2024-04-23,株式会社ＳＵＮＳＥＴＭＡＮ,,株式会社,兵庫県,西宮市,日野町１番４９号,,28,204,6638022,,,,,,,2024-04-23,1,,,,,サンセットマン,0
169,1140003020484,新規,0,2024-04-23,2024-04-23,合同会社姫路電報配達センタ,,合同会社,兵庫県,姫路市,白浜町甲２１０番地４,,28,201,6728023,,,,,,,2024-04-23,1,,,,,ヒメジデンポウハイタツセンタ,0
170,1140005027040,新規,0,2024-04-23,2024-04-23,淡路米穀事業協同組合,,その他の設立登記法人,兵庫県,洲本市,五色町鮎原上８３２番地の１,,28,205,6561322,,,,,,,2024-04-23,1,,,,,アワジベイコク,0
197,1180003026701,新規,0,2024-04-23,2024-04-23,合同会社ループアウト,,合同会社,愛知県,名古屋市緑区,南大高２丁目１１１番地メゾンヴェール大高南２０１号,,23,114,4598016,,,,,,,2024-04-23,1,,,,,ループアウト,0
199,1180005020611,新規,0,2024-04-23,2024-04-23,一般社団法人中小事業主サポート機構,,その他の設立登記法人,愛知県,名古屋市西区,名駅２丁目３４番１７号セントラル名古屋１１０１号,,23,104,4510045,,,,,,,2024-04-23,1,,,,,チュウショウジギョウヌシサポートキコウ,0
200,1180301038547,新規,0,2024-04-23,2024-04-23,株式会社ＭＪ‐ＴＥＣ,,株式会社,愛知県,安城市,新明町１０番地１９,,23,212,4460019,,,,,,,2024-04-23,1,,,,,エムジェイテック,0
201,1180301038555,新規,0,2024-04-23,2024-04-23,Ｅｌｅ　ｓｔａｒ株式会社,,株式会社,愛知県,豊田市,金谷町１丁目９２番地４,,23,211,4710876,,,,,,,2024-04-23,1,,,,,エレスター,0
202,1180301038563,新規,0,2024-04-23,2024-04-23,株式会社Ｙ＆Ａ,,株式会社,愛知県,額田郡幸田町,大字菱池字前田６番地１,,23,501,4440113,,,,,,,2024-04-23,1,,,,,ワイアンドエー,0
203,1180301038571,新規,0,2024-04-23,2024-04-23,すまいるサポート株式会社,,株式会社,愛知県,豊田市,柿本町４丁目５０番地９,,23,211,4710855,,,,,,,2024-04-23,1,,,,,スマイルサポート,0
214,1210003001782,新規,0,2024-04-23,2024-04-23,合同会社北陸医療福祉研究所,,合同会社,福井県,あわら市,花乃杜４丁目１２番２２号,,18,208,9190633,,,,,,,2024-04-23,1,,,,,ホクリクイリョウフクシケンキュウジョ,0
219,1240003006639,新規,0,2024-04-23,2024-04-23,サウスクルーム合同会社,,合同会社,広島県,広島市中区,国泰寺町１丁目８番２８－１００２号,,34,101,7300042,,,,,,,2024-04-23,1,,,,,サウスクルーム,0
234,1290001105512,新規,0,2024-04-23,2024-04-23,瑞亜株式会社,,株式会社,福岡県,福岡市南区,野間３丁目２番１号,,40,134,8150041,,,,,,,2024-04-23,1,,,,,ルイア,0
249,1320001020419,新規,0,2024-04-23,2024-04-23,株式会社ＵＮＩＸ,,株式会社,大分県,別府市,駅前本町９番地の２０,,44,202,8740934,,,,,,,2024-04-23,1,,,,,ユニクロス,0
253,1330003010326,新規,0,2024-04-23,2024-04-23,ＢＡＢＹ’Ｓ　ＢＲＥＡＴＨ合同会社,,合同会社,熊本県,熊本市中央区,国府４丁目５番５－１０１号,,43,101,8620949,,,,,,,2024-04-23,1,,,,,ベイビーズブレス,0
258,1360003013920,新規,0,2024-04-23,2024-04-23,合同会社風庭夢,,合同会社,沖縄県,宮古島市,伊良部字池間添１１４４番地１,,47,214,9060502,,,,,,,2024-04-23,1,,,,,カジナム,0
273,1420001018700,新規,0,2024-04-23,2024-04-23,株式会社ＯＮＩ‐ＦＡＲＭ,,株式会社,青森県,弘前市,大字十面沢字轡１２４番地,,02,202,0361202,,,,,,,2024-04-23,1,,,,,オニファーム,0
276,1430001091622,新規,0,2024-04-23,2024-04-23,ＳＢグループ株式会社,,株式会社,北海道,小樽市,勝納町１４番１号,,01,203,0470005,,,,,,,2024-04-23,1,,,,,エスビーグループ,0
277,1430001091630,新規,0,2024-04-23,2024-04-23,株式会社澤田工業,,株式会社,北海道,苫小牧市,北栄町１丁目１３番２１号,,01,213,0591304,,,,,,,2024-04-23,1,,,,,サワダコウギョウ,0
278,1430001091639,新規,0,2024-04-23,2024-04-23,株式会社アルトテック,,株式会社,北海道,札幌市白石区,本郷通９丁目北３番１２号,,01,104,0030025,,,,,,,2024-04-23,1,,,,,アルトテック,0
279,1450001014300,新規,0,2024-04-23,2024-04-23,株式会社ＱＣＣ,,株式会社,北海道,旭川市,一条通１１丁目２０７９番地の３,,01,204,0700031,,,,,,,2024-04-23,1,,,,,キューシーシー,0
281,1460005001582,新規,0,2024-04-23,2024-04-23,農事組合法人釧路江本農産,,その他の設立登記法人,北海道,釧路市,春採２丁目１６番１１号内海マンション２０２号,,01,206,0850813,,,,,,,2024-04-23,1,,,,,,0
283,1470001020164,新規,0,2024-04-23,2024-04-23,株式会社Ｒｅ．,,株式会社,香川県,高松市,瓦町２丁目７番地１４フォルテ瓦町駅前ビル４階,,37,201,7600052,,,,,,,2024-04-23,1,,,,,リプレイ,0
289,1700150125038,新規,0,2024-04-23,2024-04-23,ＡＡＰ　ＧＬＯＢＡＬ　ＭＡＮＡＧＥＭＥＮＴ　ＬＬＣ,,外国会社等,,,,,,,,７６　ＣＥＤＡＲ　ＤＲＩＶＥ，ＧＲＥＡＴ　ＮＥＣＫ，ＮＹ　１１０２１,,,,,,2024-04-23,1,,,,,エーエーピーグローバルマネジメントエルエルシー,0
290,1700150125070,新規,0,2024-04-23,2024-04-23,Ｒｈｏｄｉａ　Ｃｈｉｍｉｅ,,外国会社等,,,,,,,,９　Ｒｕｅｓ　ｄｅｓ　Ｃｕｉｒａｓｓｉｅｒｓ　Ｉｍｍｅｕｂｌｅ　Ｓｉｌｅｘ　２　ＳＯＬＶＡＹ　６９００３　Ｌｙｏｎ，Ｆｒａｎｃｅ,,,,,,2024-04-23,1,,,,,ローデイアシーミー,0
291,1700150125079,新規,0,2024-04-23,2024-04-23,Ｄｅｃｈｒａ　Ｖｅｔｅｒｉｎａｒｙ　Ｐｒｏｄｕｃｔｓ　Ａ／Ｓ,,外国会社等,,,,,,,,Ｍｅｋｕｖｅｊ　９，ＤＫ－７１７１　Ｕｌｄｕｍ，Ｄｅｎｍａｒｋ,,,,,,2024-04-23,1,,,,,デクラベテリナリープロダクツエイエス,0
297,2010001244221,新規,0,2024-04-23,2024-04-23,シーモア株式会社,,株式会社,東京都,千代田区,内幸町１丁目３番１幸ビルディング９階,,13,101,1000011,,,,,,,2024-04-23,1,,,,,シーモア,0
299,2010003043563,新規,0,2024-04-23,2024-04-23,合同会社ＡＬＥＲＯ８６,,合同会社,東京都,千代田区,神田錦町１丁目２１番１号,,13,101,1010054,,,,,,,2024-04-23,1,,,,,アレーロエイティーシックス,0
300,2010003043571,新規,0,2024-04-23,2024-04-23,ＳｙＤｉｇｉｔａｌ合同会社,,合同会社,東京都,千代田区,神田須田町２丁目２３番地１,,13,101,1010041,,,,,,,2024-04-23,1,,,,,サイデジタル,0
307,2010401181873,新規,0,2024-04-23,2024-04-23,株式会社チョイス,,株式会社,東京都,港区,浜松町２丁目２－１５浜松町ダイヤビル２階,,13,103,1050013,,,,,,,2024-04-23,1,,,,,チョイス,0
308,2010401181997,新規,0,2024-04-23,2024-04-23,株式会社ＴＥＫＯ　ＬＥＶＥＲＡＧＥ,,株式会社,東京都,港区,赤坂５丁目３番１号,,13,103,1070052,,,,,,,2024-04-23,1,,,,,テコレバレッジ,0
309,2010403032463,新規,0,2024-04-23,2024-04-23,合同会社やどかり,,合同会社,東京都,港区,海岸３丁目８番１７－２０２号,,13,103,1080022,,,,,,,2024-04-23,1,,,,,ヤドカリ,0
312,2010501052116,新規,0,2024-04-23,2024-04-23,株式会社グレイスゴルフクラブ,,株式会社,東京都,台東区,柳橋１丁目２０－４深代ビル６Ｆ,,13,106,1110052,,,,,,,2024-04-23,1,,,,,グレイスゴルフクラブ,0
314,2010601065050,新規,0,2024-04-23,2024-04-23,ローテックメディカルジャパン株式会社,,株式会社,東京都,江東区,千田２番９－３０２号,,13,108,1350013,,,,,,,2024-04-23,1,,,,,ローテックメディカルジャパン,0
315,2010601065059,新規,0,2024-04-23,2024-04-23,株式会社ＰＯＰＯ,,株式会社,東京都,江東区,亀戸８丁目１２番１２号,,13,108,1360071,,,,,,,2024-04-23,1,,,,,ポポ,0
326,2010901055115,新規,0,2024-04-23,2024-04-23,株式会社Ｏ,,株式会社,東京都,世田谷区,代田３丁目２９番１０号メテオール１０２,,13,112,1550033,,,,,,,2024-04-23,1,,,,,オー,0
327,2010901055131,新規,0,2024-04-23,2024-04-23,株式会社Ｓｃｒｅａｔｅ,,株式会社,東京都,世田谷区,松原１丁目３４番１９号中銀明大前マンシオン４０３,,13,112,1560043,,,,,,,2024-04-23,1,,,,,エスクリエイト,0
341,2011101107053,新規,0,2024-04-23,2024-04-23,株式会社ゴールデンダッジ,,株式会社,東京都,新宿区,新宿２丁目１１番４号ストークビル長崎１０階,,13,104,1600022,,,,,,,2024-04-23,1,,,,,ゴールデンダッジ,0
342,2011101107078,新規,0,2024-04-23,2024-04-23,株式会社ランドホーム,,株式会社,東京都,新宿区,新宿４丁目３番１５号レイフラット新宿２Ｂ,,13,104,1600022,,,,,,,2024-04-23,1,,,,,ランドホーム,0
344,2011103014355,新規,0,2024-04-23,2024-04-23,合同会社ＭａｃＧｕｆｆｉｎ,,合同会社,東京都,新宿区,袋町５番地１ＦＡＲＯ神楽坂１階,,13,104,1620828,,,,,,,2024-04-23,1,,,,,マクガフィン,0
351,2011401026036,新規,0,2024-04-23,2024-04-23,大同商事株式会社,,株式会社,東京都,板橋区,大山金井町３０番１０号,,13,119,1730024,,,,,,,2024-04-23,1,,,,,ダイドウショウジ,0
352,2011403004353,新規,0,2024-04-23,2024-04-23,合同会社ＤＩＣＥ,,合同会社,東京都,板橋区,蓮根１丁目４番２号サンハイツ山口２０１,,13,119,1740046,,,,,,,2024-04-23,1,,,,,ダイス,0
356,2011501030607,新規,0,2024-04-23,2024-04-23,株式会社トータルケア王子,,株式会社,東京都,北区,上中里２丁目４３－３,,13,117,1140016,,,,,,,2024-04-23,1,,,,,トータルケアオウジ,0
360,2011603004327,新規,0,2024-04-23,2024-04-23,合同会社ソケットモバイル,,合同会社,東京都,練馬区,旭町２丁目５－６,,13,120,1790071,,,,,,,2024-04-23,1,,,,,ソケットモバイル,0
367,2012801023110,新規,0,2024-04-23,2024-04-23,株式会社リルーデンス,,株式会社,東京都,立川市,高松町３丁目３０番１０号,,13,202,1900011,,,,,,,2024-04-23,1,,,,,リルーデンス,0
371,2013301052401,新規,0,2024-04-23,2024-04-23,アクロビジョン株式会社,,株式会社,東京都,豊島区,東池袋１丁目３５番３号池袋センタービル,,13,116,1700013,,,,,,,2024-04-23,1,,,,,アクロビジョン,0
377,2020001156770,新規,0,2024-04-23,2024-04-23,株式会社ＳＧファースト,,株式会社,神奈川県,横浜市旭区,上川井町２６９８番地,,14,112,2410802,,,,,,,2024-04-23,1,,,,,エスジーファースト,0
378,2020001156845,新規,0,2024-04-23,2024-04-23,ｅｉｇｈｔｙ‐ｎｉｎｅ株式会社,,株式会社,神奈川県,横浜市中区,上野町１丁目８番地,,14,104,2310842,,,,,,,2024-04-23,1,,,,,エイティーナイン,0
383,2021001082057,新規,0,2024-04-23,2024-04-23,株式会社Ｎ＆Ｍ,,株式会社,神奈川県,足柄上郡大井町,金子１２４８番地１ヴェルドミールＡ２０１,,14,362,2580019,,,,,,,2024-04-23,1,,,,,エヌアンドエム,0
384,2021001082065,新規,0,2024-04-23,2024-04-23,株式会社ＬＩＢ,,株式会社,神奈川県,相模原市南区,下溝９５番地４,,14,153,2520335,,,,,,,2024-04-23,1,,,,,リブ,0
394,2030001159938,新規,0,2024-04-23,2024-04-23,株式会社照栄設備工業,,株式会社,埼玉県,川越市,大字下広谷１１９３番地,,11,201,3500804,,,,,,,2024-04-23,1,,,,,ショウエイセツビコウギョウ,0
395,2030001159946,新規,0,2024-04-23,2024-04-23,株式会社ＴＯＰＴＡＩＬ,,株式会社,埼玉県,深谷市,上野台１９５１番地４,,11,218,3660801,,,,,,,2024-04-23,1,,,,,トップテイル,0
396,2030001159970,新規,0,2024-04-23,2024-04-23,株式会社ひまわりリフォーム,,株式会社,埼玉県,北本市,大字下石戸下１５２１番地５,,11,233,3640023,,,,,,,2024-04-23,1,,,,,ヒマワリリフォーム,0
397,2030001159979,新規,0,2024-04-23,2024-04-23,ＭＡＫＥ　ＭＥＤＩＣＡＬ株式会社,,株式会社,埼玉県,所沢市,けやき台１丁目５１番１号－３０１,,11,208,3591118,,,,,,,2024-04-23,1,,,,,メイクメディカル,0
398,2030001160012,新規,0,2024-04-23,2024-04-23,株式会社セカンドピット,,株式会社,埼玉県,越谷市,大字船渡５２１－７,,11,222,3430003,,,,,,,2024-04-23,1,,,,,セカンドピット,0
403,2030003024132,新規,0,2024-04-23,2024-04-23,合同会社Ｔｒａｎｓｐｏｒｔｅｒ,,合同会社,埼玉県,さいたま市北区,東大成町２丁目６４２番地２,,11,102,3310814,,,,,,,2024-04-23,1,,,,,,0
404,2030003024140,新規,0,2024-04-23,2024-04-23,Ｈｅｘａｏｎｅ合同会社,,合同会社,埼玉県,八潮市,中央１丁目２９－７三八幸ビル１Ｆ,,11,234,3400816,,,,,,,2024-04-23,1,,,,,ヘキサワン,0
405,2030005021656,新規,0,2024-04-23,2024-04-23,医療法人社団新生会,,その他の設立登記法人,埼玉県,さいたま市大宮区,宮町１丁目６７番地２階,,11,103,3300802,,,,,,,2024-04-23,1,,,,,シンセイカイ,0
410,2040001133248,新規,0,2024-04-23,2024-04-23,ＴＳＵＫＩＹＯＭＩ株式会社,,株式会社,千葉県,千葉市美浜区,打瀬１丁目７－５－１９０７,,12,106,2610013,,,,,,,2024-04-23,1,,,,,ツキヨミ,0
411,2040001133306,新規,0,2024-04-23,2024-04-23,株式会社心和,,株式会社,千葉県,長生郡睦沢町,上市場６４４番地５,,12,422,2994403,,,,,,,2024-04-23,1,,,,,シンワ,0
414,2040003024809,新規,0,2024-04-23,2024-04-23,ＭＵＲＡＩＳＨＩ合同会社,,合同会社,千葉県,流山市,野々下５丁目９７３番地の３６,,12,220,2700135,,,,,,,2024-04-23,1,,,,,ムライシ,0
418,2050005013437,新規,0,2024-04-23,2024-04-23,特定非営利活動法人Ｉｂａｒａｋｉ　Ｃｏｍｍｕｎｉｔｙ　Ａｓｓｏｃｉａｔｉｏｎ,,その他の設立登記法人,茨城県,笠間市,笠間２２５５－３,,08,216,3091611,,,,,,,2024-04-23,1,,,,,,0
423,2060003005047,新規,0,2024-04-23,2024-04-23,合同会社ｇａｒｄｅｎ,,合同会社,栃木県,宇都宮市,駒生町８３２番地８５,,09,201,3200065,,,,,,,2024-04-23,1,,,,,ガーデン,0
429,2070001041670,新規,0,2024-04-23,2024-04-23,株式会社岡田ＨＤ,,株式会社,群馬県,佐波郡玉村町,大字与六分１３５番地５,,10,464,3701134,,,,,,,2024-04-23,1,,,,,オカダホールディングス,0
442,2100003007501,新規,0,2024-04-23,2024-04-23,合同会社Ｒｅ．Ｌｉｆｅ,,合同会社,長野県,東筑摩郡山形村,２２０番地３４,,20,450,3901301,,,,,,,2024-04-23,1,,,,,リライフ,0
460,2120001264274,新規,0,2024-04-23,2024-04-23,株式会社浪漫,,株式会社,大阪府,大阪市北区,梅田１丁目２番２号大阪駅前第２ビル１２－１２,,27,127,5300001,,,,,,,2024-04-23,1,,,,,ロマン,0
461,2120003026417,新規,0,2024-04-23,2024-04-23,合同会社ライズ,,合同会社,大阪府,門真市,岸和田３丁目６番３７号,,27,223,5710002,,,,,,,2024-04-23,1,,,,,ライズ,0
468,2122001038030,新規,0,2024-04-23,2024-04-23,株式会社ＲＯＣＬＩＮ,,株式会社,大阪府,四條畷市,大字清瀧３８１－１,,27,229,5750063,,,,,,,2024-04-23,1,,,,,ロクリン,0
472,2130001076900,新規,0,2024-04-23,2024-04-23,株式会社ＲＡＩ　ＩＮＶＥＳＴ,,株式会社,京都府,京都市東山区,祇園町北側３４７番地５１第一雅２階南側室,,26,105,6050073,,,,,,,2024-04-23,1,,,,,ライインベスト,0
479,2140001134161,新規,0,2024-04-23,2024-04-23,株式会社ＳＷＡＬＬＯＷ　ＪＡＰＡＮ,,株式会社,兵庫県,神戸市中央区,磯上通４丁目１－３２,,28,110,6510086,,,,,,,2024-04-23,1,,,,,スワロウジャパン,0
483,2140003020475,新規,0,2024-04-23,2024-04-23,ＤｅｓｉｇｎＣｈｏｒｄ合同会社,,合同会社,兵庫県,西宮市,山口町金仙寺３丁目３番１８号,,28,204,6511422,,,,,,,2024-04-23,1,,,,,デザインコード,0
492,2180001161103,新規,0,2024-04-23,2024-04-23,十吉彌商店株式会社,,株式会社,愛知県,一宮市,今伊勢町本神戸字立切４１番地,,23,203,4910053,,,,,,,2024-04-23,1,,,,,トキチアマネショウテン,0
498,2180003026700,新規,0,2024-04-23,2024-04-23,Ｋａｍｅｄｉｃａ合同会社,,合同会社,愛知県,名古屋市昭和区,滝川町２６―４滝川グランドヒルズパークヒル９０１,,23,107,4660826,,,,,,,2024-04-23,1,,,,,カメディカ,0
500,2180301038546,新規,0,2024-04-23,2024-04-23,株式会社藤光バイオパワー,,株式会社,愛知県,豊川市,御津町御馬梅田１２番地５２,,23,207,4410311,,,,,,,2024-04-23,1,,,,,フジコウバイオパワー,0
501,2180301038554,新規,0,2024-04-23,2024-04-23,株式会社Ｒｅｉｓｅ,,株式会社,愛知県,安城市,御幸本町１７番１６号名和安城プラザビル２階Ｃ号室,,23,212,4460032,,,,,,,2024-04-23,1,,,,,レイズ,0
502,2180301038570,新規,0,2024-04-23,2024-04-23,株式会社イルジ,,株式会社,愛知県,豊橋市,多米町字滝ノ谷３４番地２８４,,23,201,4400021,,,,,,,2024-04-23,1,,,,,イルジ,0
503,2180303006096,新規,0,2024-04-23,2024-04-23,合同会社スカイハイドインベストメンツ,,合同会社,愛知県,碧南市,岬町５丁目８３－３,,23,209,4470832,,,,,,,2024-04-23,1,,,,,スカイハイドインベストメンツ,0
517,2240003006638,新規,0,2024-04-23,2024-04-23,合同会社Ｔａｍａｅ．ｌａｂｏ,,合同会社,広島県,広島市中区,中町７番１６－１００７号,,34,101,7300037,,,,,,,2024-04-23,1,,,,,タマエドットラボ,0
527,2290003015188,新規,0,2024-04-23,2024-04-23,合同会社デイジー不動産,,合同会社,福岡県,福岡市早良区,室見１丁目１－２０,,40,137,8140015,,,,,,,2024-04-23,1,,,,,デイジーフドウサン,0
528,2290005019360,新規,0,2024-04-23,2024-04-23,一般社団法人花見納骨堂,,その他の設立登記法人,福岡県,古賀市,花見東２丁目９番１３号,,40,223,8113112,,,,,,,2024-04-23,1,,,,,ハナミノウコツドウ,0
530,2320003004352,新規,0,2024-04-23,2024-04-23,アンシンギフト合同会社,,合同会社,大分県,中津市,大字上宮永１３３番地５,,44,203,8710027,,,,,,,2024-04-23,1,,,,,アンシンギフト,0
531,2330001031983,新規,0,2024-04-23,2024-04-23,株式会社ウォルト,,株式会社,熊本県,熊本市中央区,八王寺町１４番４１－２号,,43,101,8600831,,,,,,,2024-04-23,1,,,,,ウォルト,0
549,2390001017589,新規,0,2024-04-23,2024-04-23,株式会社ＳＯＬ　ＢＡＲＯＮ,,株式会社,山形県,西村山郡河北町,谷地字所岡１１０番地の１５,,06,321,9993511,,,,,,,2024-04-23,1,,,,,ソルバロン,0
554,2420001018699,新規,0,2024-04-23,2024-04-23,ノザワ商事株式会社,,株式会社,青森県,青森市,桂木２丁目６番地２０,,02,201,0300844,,,,,,,2024-04-23,1,,,,,ノザワショウジ,0
563,2430001091638,新規,0,2024-04-23,2024-04-23,株式会社フルーラ,,株式会社,北海道,札幌市厚別区,大谷地西４丁目７番１５号,,01,108,0040042,,,,,,,2024-04-23,1,,,,,フルーラ,0
564,2430001091654,新規,0,2024-04-23,2024-04-23,株式会社近藤会計,,株式会社,北海道,札幌市豊平区,平岸五条８丁目１番１号イーストセンタービル２０５号室,,01,105,0620935,,,,,,,2024-04-23,1,,,,,コンドウカイケイ,0
574,2450003002475,新規,0,2024-04-23,2024-04-23,合同会社ＪＡＰＡＮＴＯＲＵＳ,,合同会社,北海道,上川郡東川町,西町８丁目１０番１号,,01,458,0711425,,,,,,,2024-04-23,1,,,,,,0
578,2480001012449,新規,0,2024-04-23,2024-04-23,曲木設備株式会社,,株式会社,徳島県,徳島市,国府町中６４９－５,,36,201,7793124,,,,,,,2024-04-23,1,,,,,マガキセツビ,0
584,2700150125037,新規,0,2024-04-23,2024-04-23,ＦＬＥＸＹ　ＭＯＴＯＲ　ＴＲＡＤＥＲＳ　ＰＶＴ　ＬＴＤ,,外国会社等,茨城県,神栖市,須田２９７９番地２,,08,232,3140253,スリランカ民主社会主義共和国、カトゥガストタ、ウグレッサピティヤ、８Ｇ,,,,,,2024-04-23,1,,,,,フレクシーモータートレーダーズプライベートリミテツド,0
585,2700150125078,新規,0,2024-04-23,2024-04-23,ＭＡＮＹＯ　ＦＡＣＴＯＲＹ　Ｃｏｒｐ．,,外国会社等,,,,,,,,大韓民国ソウル特別市江西区空港大路５１８,,,,,,2024-04-23,1,,,,,マニヨフアクトリーコーポレーシヨン,0
595,3010001244212,新規,0,2024-04-23,2024-04-23,株式会社ＰＰＰ,,株式会社,東京都,中央区,八重洲２丁目１番１号ＹＡＮＭＡＲＴＯＫＹＯ１２階,,13,102,1040028,,,,,,,2024-04-23,1,,,,,ピーピーピー,0
596,3010001244229,新規,0,2024-04-23,2024-04-23,株式会社ＧＲＡＮ・ｃｏｍ,,株式会社,東京都,千代田区,一番町１１番地１－７０８号,,13,101,1020082,,,,,,,2024-04-23,1,,,,,グランドットコム,0
597,3010001244261,新規,0,2024-04-23,2024-04-23,株式会社Ｍｉｇｈｔｙ　Ｌｅａｆ　Ａｓｉａ,,株式会社,東京都,中央区,銀座１丁目２７番８号セントラルビル７０３号,,13,102,1040061,,,,,,,2024-04-23,1,,,,,マイティーリーフアジア,0
598,3010001244286,新規,0,2024-04-23,2024-04-23,アサバヌエネシスエンジニアリング株式会社,,株式会社,東京都,中央区,日本橋茅場町１丁目３番１号,,13,102,1030025,,,,,,,2024-04-23,1,,,,,アサバヌエネシスエンジニアリング,0
601,3010003043562,新規,0,2024-04-23,2024-04-23,合同会社ＡＬＥＲＯ８５,,合同会社,東京都,千代田区,神田錦町１丁目２１番１号,,13,101,1010054,,,,,,,2024-04-23,1,,,,,アレーロエイティーファイブ,0
602,3010005038222,新規,0,2024-04-23,2024-04-23,一般社団法人ソーラーエネルギーパワー,,その他の設立登記法人,東京都,中央区,京橋２丁目２番１号京橋エドグラン,,13,102,1040031,,,,,,,2024-04-23,1,,,,,ソーラーエネルギーパワー,0
603,3010103002344,新規,0,2024-04-23,2024-04-23,クエビコ合同会社,,合同会社,東京都,八王子市,明神町１丁目２５－１１フロール１、２０２号室,,13,201,1920046,,,,,,,2024-04-23,1,,,,,クエビコ,0
610,3010401181930,新規,0,2024-04-23,2024-04-23,株式会社ＶＩＢＲＯＡ　Ｎｏ．００３,,株式会社,東京都,港区,赤坂８丁目６番１３号,,13,103,1070052,,,,,,,2024-04-23,1,,,,,ヴィブロアナンバーゼロゼロスリー,0
611,3010401181963,新規,0,2024-04-23,2024-04-23,株式会社アポロ,,株式会社,東京都,港区,六本木４丁目８番５号,,13,103,1060032,,,,,,,2024-04-23,1,,,,,アポロ,0
612,3010401182012,新規,0,2024-04-23,2024-04-23,株式会社バイオセル,,株式会社,東京都,港区,麻布十番１丁目８番９号,,13,103,1060045,,,,,,,2024-04-23,1,,,,,バイオセル,0
613,3010401182020,新規,0,2024-04-23,2024-04-23,株式会社ＨＡＰＳ　ＪＡＰＡＮ,,株式会社,東京都,港区,白金台３丁目１０番１０号,,13,103,1080071,,,,,,,2024-04-23,1,,,,,ハップスジャパン,0
614,3010401182037,新規,0,2024-04-23,2024-04-23,ＧＣＪＩ１３株式会社,,株式会社,東京都,港区,元赤坂１丁目１番８号株式会社赤坂国際会計内,,13,103,1070051,,,,,,,2024-04-23,1,,,,,ジーシージェイアイサーティーン,0
624,3010901055089,新規,0,2024-04-23,2024-04-23,ＵＮ株式会社,,株式会社,東京都,世田谷区,等々力２丁目３５－２０,,13,112,1580082,,,,,,,2024-04-23,1,,,,,ユーエヌ,0
625,3010901055114,新規,0,2024-04-23,2024-04-23,株式会社ｂｅｂｅ,,株式会社,東京都,世田谷区,深沢８丁目９番１２号コートアコート深沢７０２,,13,112,1580081,,,,,,,2024-04-23,1,,,,,ベベ,0
630,3011003019008,新規,0,2024-04-23,2024-04-23,合同会社ブリスブランド,,合同会社,東京都,渋谷区,道玄坂１丁目１０番８号渋谷道玄坂東急ビル２Ｆ－Ｃ,,13,113,1500043,,,,,,,2024-04-23,1,,,,,ブリスブランド,0
634,3011101107077,新規,0,2024-04-23,2024-04-23,Ｓｅｍｉ　Ｓｏｕｒｃｅ　Ｊａｐａｎ株式会社,,株式会社,東京都,新宿区,高田馬場２丁目７番１７－３号,,13,104,1690075,,,,,,,2024-04-23,1,,,,,セミソースジャッパン,0
638,3011103014354,新規,0,2024-04-23,2024-04-23,合同会社ＶＹ‐ｄｒａｙ,,合同会社,東京都,新宿区,西新宿３丁目３番１３号西新宿水間ビル２Ｆ,,13,104,1600023,,,,,,,2024-04-23,1,,,,,ヴィドライ,0
642,3011501030548,新規,0,2024-04-23,2024-04-23,テクローバー株式会社,,株式会社,東京都,荒川区,南千住５丁目１番１３－５０３号,,13,118,1160003,,,,,,,2024-04-23,1,,,,,テクローバー,0
645,3011701027204,新規,0,2024-04-23,2024-04-23,株式会社ａｒ．,,株式会社,東京都,江戸川区,江戸川６丁目８番４号,,13,123,1340013,,,,,,,2024-04-23,1,,,,,アール,0
647,3011801044116,新規,0,2024-04-23,2024-04-23,井同株式会社,,株式会社,東京都,葛飾区,東新小岩２丁目２８－１－Ｎｏ．１４,,13,122,1240023,,,,,,,2024-04-23,1,,,,,イドウ,0
648,3011801044124,新規,0,2024-04-23,2024-04-23,日昇設備株式会社,,株式会社,東京都,足立区,西新井本町３丁目１０番２２号Ｎビル１０１,,13,121,1230845,,,,,,,2024-04-23,1,,,,,ニッショウセツビ,0
649,3011801044132,新規,0,2024-04-23,2024-04-23,株式会社ＡＬＬ　ＩＮ,,株式会社,東京都,足立区,六木１丁目５番１７－５０２号,,13,121,1210052,,,,,,,2024-04-23,1,,,,,オールイン,0
654,3012705002399,新規,0,2024-04-23,2024-04-23,一般社団法人日本映像音響事業者協会,,その他の設立登記法人,東京都,東久留米市,金山町２丁目８番２２号センチュリー東久留米１０２,,13,222,2030003,,,,,,,2024-04-23,1,,,,,ニホンエイゾウオンキョウジギョウシャキョウカイ,0
659,3020001156778,新規,0,2024-04-23,2024-04-23,株式会社埼玉写真事務所,,株式会社,神奈川県,川崎市中原区,小杉御殿町２丁目４７番地２－５０２,,14,133,2110068,,,,,,,2024-04-23,1,,,,,サイタマシャシンジムショ,0
660,3020001156844,新規,0,2024-04-23,2024-04-23,株式会社アクティブロジ,,株式会社,神奈川県,横浜市金沢区,能見台東８番Ｂ－４０５号,,14,108,2360058,,,,,,,2024-04-23,1,,,,,アクティブロジ,0
665,3021001082048,新規,0,2024-04-23,2024-04-23,プレステージアス株式会社,,株式会社,神奈川県,大和市,代官３丁目１０番地１,,14,213,2420025,,,,,,,2024-04-23,1,,,,,プレステージアス,0
666,3021003014429,新規,0,2024-04-23,2024-04-23,合同会社ＮＸ　Ｓｔａｇｅ,,合同会社,神奈川県,藤沢市,鵠沼松が岡１丁目１２番１６号,,14,205,2510038,,,,,,,2024-04-23,1,,,,,エヌエックスステージ,0
667,3021003014437,新規,0,2024-04-23,2024-04-23,合同会社Ｍ‐ＤＡＯ,,合同会社,神奈川県,横須賀市,湘南鷹取２丁目９番５号,,14,201,2370066,,,,,,,2024-04-23,1,,,,,エムダオ,0
672,3030001159937,新規,0,2024-04-23,2024-04-23,株式会社Ｒｏｍｉｏｃｋ,,株式会社,埼玉県,狭山市,狭山台２丁目１４番地の２,,11,215,3501304,,,,,,,2024-04-23,1,,,,,ロミオック,0
673,3030001159978,新規,0,2024-04-23,2024-04-23,株式会社ＫＥＩ,,株式会社,埼玉県,白岡市,千駄野７６２番地２,,11,246,3490215,,,,,,,2024-04-23,1,,,,,ケイ,0
681,3040001133172,新規,0,2024-04-23,2024-04-23,株式会社ＭａＭＯＲＩ,,株式会社,千葉県,流山市,南流山４丁目１番４号ＫＳビル２Ｆ,,12,220,2700163,,,,,,,2024-04-23,1,,,,,マモリ,0
682,3040001133239,新規,0,2024-04-23,2024-04-23,ムサシ通商株式会社,,株式会社,千葉県,我孫子市,南新木２丁目５番地８,,12,222,2701119,,,,,,,2024-04-23,1,,,,,,0
685,3040003024849,新規,0,2024-04-23,2024-04-23,合同会社ｙ３,,合同会社,千葉県,船橋市,海神３丁目２５番１４号,,12,204,2730021,,,,,,,2024-04-23,1,,,,,ヤミー,0
687,3060001037025,新規,0,2024-04-23,2024-04-23,株式会社ＮＯＣＯ‐ＬＩＦＥ,,株式会社,栃木県,佐野市,高萩町１３３７番地１ポレスター佐野新都市５０３,,09,204,3270821,,,,,,,2024-04-23,1,,,,,ノコライフ,0
694,3070001041661,新規,0,2024-04-23,2024-04-23,株式会社永原建工,,株式会社,群馬県,太田市,新田中江田町６８６番地５,,10,205,3700332,,,,,,,2024-04-23,1,,,,,ナガハラケンコウ,0
696,3070003005375,新規,0,2024-04-23,2024-04-23,合同会社ジーエイチ,,合同会社,群馬県,太田市,下浜田町１９番地１９,,10,205,3730821,,,,,,,2024-04-23,1,,,,,ジーエイチ,0
697,3070003005383,新規,0,2024-04-23,2024-04-23,合同会社Ｋ．Ｓ,,合同会社,群馬県,伊勢崎市,田部井町２丁目４６０番地４,,10,204,3792222,,,,,,,2024-04-23,1,,,,,ケイエス,0
701,3080101024697,新規,0,2024-04-23,2024-04-23,ＭＡＴＦＲＩＰＳ　ＭＯＴＯＲＳ株式会社,,株式会社,静岡県,裾野市,平松１２５番地の１グランリード１０２,,22,220,4101127,,,,,,,2024-04-23,1,,,,,マットフリップスモーターズ,0
728,3120001264240,新規,0,2024-04-23,2024-04-23,株式会社ＧＲＯＷ　ＶＡＳ,,株式会社,大阪府,大阪市北区,梅田１丁目１－３大阪駅前第３ビル２９階１－１－１号室,,27,127,5300001,,,,,,,2024-04-23,1,,,,,グローバス,0
731,3120003026416,新規,0,2024-04-23,2024-04-23,合同会社ＢＵＤＤＩＥＳ,,合同会社,大阪府,大阪市天王寺区,大道３丁目１番１８－８０４号,,27,109,5430052,,,,,,,2024-04-23,1,,,,,バディーズ,0
732,3120003026424,新規,0,2024-04-23,2024-04-23,プラス合同会社,,合同会社,大阪府,大阪市城東区,今福西１丁目９－９レジュールアッシュ大阪城ＥＡＳＴ８０２,,27,118,5360004,,,,,,,2024-04-23,1,,,,,プラス,0
735,3120101069457,新規,0,2024-04-23,2024-04-23,株式会社ＧＳＱ,,株式会社,大阪府,富田林市,楠風台１丁目５番９号,,27,214,5840051,,,,,,,2024-04-23,1,,,,,ジーエスキュー,0
736,3120101069465,新規,0,2024-04-23,2024-04-23,株式会社Ｈａｒｔ‐Ｄｒｅａｍ‐Ｂｉｇ‐Ｏｃｅａｎ,,株式会社,大阪府,堺市西区,鳳南町２丁１０３－２,,27,144,5938325,,,,,,,2024-04-23,1,,,,,ハートドリームビッグオーシャン,0
746,3130001076899,新規,0,2024-04-23,2024-04-23,株式会社ＥＬＦ　ＢＥＡＣＨ,,株式会社,京都府,京都市下京区,七条通油小路東入大黒町２２７番地第２キョートビル４０２,,26,106,6008223,,,,,,,2024-04-23,1,,,,,エルフビーチ,0
758,3140001134160,新規,0,2024-04-23,2024-04-23,ＬＥＡＮ　ＨＯＫＥＮ株式会社,,株式会社,兵庫県,明石市,二見町西二見３６１番地の２,,28,203,6740094,,,,,,,2024-04-23,1,,,,,リーンホケン,0
759,3140001134177,新規,0,2024-04-23,2024-04-23,株式会社Ｊａｔａｍｏ,,株式会社,兵庫県,たつの市,揖保町東用１３９番地３,,28,229,6794143,,,,,,,2024-04-23,1,,,,,ジャタモ,0
760,3140001134185,新規,0,2024-04-23,2024-04-23,株式会社ＡＤＡＭ,,株式会社,兵庫県,南あわじ市,賀集福井９１４番地,,28,224,6560516,,,,,,,2024-04-23,1,,,,,アダム,0
764,3140003020482,新規,0,2024-04-23,2024-04-23,合同会社神戸地産管理,,合同会社,兵庫県,神戸市中央区,浜辺通５丁目１番１４号神戸商工貿易センタービル１１階,,28,110,6510083,,,,,,,2024-04-23,1,,,,,コウベチサンカンリ,0
766,3140005027055,新規,0,2024-04-23,2024-04-23,一般社団法人楽笑,,その他の設立登記法人,兵庫県,小野市,本町１丁目４３８番地,,28,218,6751374,,,,,,,2024-04-23,1,,,,,ラクワ,0
790,3180301038553,新規,0,2024-04-23,2024-04-23,兼信工業株式会社,,株式会社,愛知県,豊橋市,神野新田町字レノ割４７番地１,,23,201,4418077,,,,,,,2024-04-23,1,,,,,カネシンコウギョウ,0
791,3180301038561,新規,0,2024-04-23,2024-04-23,株式会社Ｆｒｉｅｎｄ　Ｓｈｉｐ,,株式会社,愛知県,安城市,安城町拝木４０番地１,,23,212,4460026,,,,,,,2024-04-23,1,,,,,フレンドシップ,0
792,3180303006095,新規,0,2024-04-23,2024-04-23,合同会社イロハエンタープライズ,,合同会社,愛知県,豊田市,平和町４丁目６４番地２パレス平和Ｂ－３Ｈ号,,23,211,4710821,,,,,,,2024-04-23,1,,,,,イロハエンタープライズ,0
798,3230003002190,新規,0,2024-04-23,2024-04-23,川端プランニング合同会社,,合同会社,富山県,黒部市,三日市３３３３番地１,,16,207,9380031,,,,,,,2024-04-23,1,,,,,カワバタプランニング,0
808,3250001020622,新規,0,2024-04-23,2024-04-23,株式会社Ｙ’ｓ,,株式会社,山口県,光市,島田２丁目１１番６号,,35,210,7430063,,,,,,,2024-04-23,1,,,,,ワイズ,0
819,3290001105469,新規,0,2024-04-23,2024-04-23,株式会社Ｖｏｉｅ　Ｌａｃｔｅｅ,,株式会社,福岡県,福岡市博多区,博多駅前２丁目１７－１博多プレステージ本館,,40,132,8120011,,,,,,,2024-04-23,1,,,,,ヴォアラクテ,0
820,3290001105493,新規,0,2024-04-23,2024-04-23,株式会社玄,,株式会社,福岡県,福岡市中央区,草香江２丁目６番１４号,,40,133,8100045,,,,,,,2024-04-23,1,,,,,ゲン,0
833,3330001031990,新規,0,2024-04-23,2024-04-23,株式会社リエゾン,,株式会社,熊本県,熊本市北区,打越町３７番２５号,,43,105,8600086,,,,,,,2024-04-23,1,,,,,リエゾン,0
837,3360001033547,新規,0,2024-04-23,2024-04-23,株式会社ＳＥＣＵＲＥ　ＨＯＬＤＩＮＧＳ,,株式会社,沖縄県,沖縄市,与儀１丁目７番５号,,47,211,9042174,,,,,,,2024-04-23,1,,,,,セキュアホールディングス,0
844,3380003005740,新規,0,2024-04-23,2024-04-23,ピースネットワーク合同会社,,合同会社,福島県,いわき市,泉ケ丘２丁目２３番地の５,,07,204,9718171,,,,,,,2024-04-23,1,,,,,ピースネットワーク,0
850,3430001091629,新規,0,2024-04-23,2024-04-23,株式会社エス・イー・マテック,,株式会社,北海道,札幌市中央区,南十条西６丁目４番２０－１０２号,,01,101,0640810,,,,,,,2024-04-23,1,,,,,エスイーマテック,0
851,3430001091637,新規,0,2024-04-23,2024-04-23,株式会社ホクシンビル開発,,株式会社,北海道,札幌市白石区,本郷通１丁目北１番１５号,,01,104,0030025,,,,,,,2024-04-23,1,,,,,ホクシンビルカイハツ,0
857,3430003016253,新規,0,2024-04-23,2024-04-23,合同会社ＡＫＲ,,合同会社,北海道,札幌市豊平区,水車町７丁目１番８号北海コーポＣ,,01,105,0620912,,,,,,,2024-04-23,1,,,,,エーケーアール,0
858,3440003001584,新規,0,2024-04-23,2024-04-23,合同会社ピリカノース,,合同会社,北海道,瀬棚郡今金町,字今金２１１番地,,01,370,0494308,,,,,,,2024-04-23,1,,,,,ピリカノース,0
859,3450001014298,新規,0,2024-04-23,2024-04-23,株式会社加藤,,株式会社,北海道,上川郡東神楽町,ひじり野南三条１丁目９番７号,,01,453,0711525,,,,,,,2024-04-23,1,,,,,カトウ,0
861,3460105002289,新規,0,2024-04-23,2024-04-23,農事組合法人荒井農園,,その他の設立登記法人,北海道,中川郡幕別町,旭町２１番地の７３,,01,643,0890602,,,,,,,2024-04-23,1,,,,,,0
865,3480001012448,新規,0,2024-04-23,2024-04-23,株式会社阿波魂Ｇｕａｒｄ,,株式会社,徳島県,吉野川市,鴨島町鴨島字本郷２３０番３,,36,205,7760010,,,,,,,2024-04-23,1,,,,,アワソウルガード,0
876,3700150125036,新規,0,2024-04-23,2024-04-23,ＰＨＩ　ＮＥＴＷＯＲＫＳ，ＩＮＣ,,外国会社等,,,,,,,,大韓民国ソウル市江西区麻谷中央６路１１、２０１号及び２０２号,,,,,,2024-04-23,1,,,,,パイネツトワークスインコーポレイテツド,0
877,3700150125069,新規,0,2024-04-23,2024-04-23,株式会社Ｗｅｍａｄｅ,,外国会社等,,,,,,,,大韓民国京畿道城南市盆唐区大王板橋路６４４番道４９ＷｅｍａｄｅＴｏｗｅｒ,,,,,,2024-04-23,1,,,,,カブシキガイシヤウイメイド,0
878,3700150125077,新規,0,2024-04-23,2024-04-23,Ｔｅｎ　Ｓｑｕａｒｅ　Ｇａｍｅｓ　Ｓ．Ａ．,,外国会社等,,,,,,,,Ｔｒａｕｇｕｔｔａ　４５，５０－４１６　Ｗｒｏｃｌａｗ，Ｐｏｌａｎｄ,,,,,,2024-04-23,1,,,,,テンスクエアゲームズ,0
879,3700150125085,新規,0,2024-04-23,2024-04-23,Ｊｅｌｌｙｃａｔ　Ｌｉｍｉｔｅｄ,,外国会社等,,,,,,,,Ｗｅｓｔｗｏｒｋｓ　Ｂｕｉｌｄｉｎｇ，１９５　Ｗｏｏｄ　Ｌａｎｅ，Ｌｏｎｄｏｎ，Ｅｎｇｌａｎｄ　Ｗ１２　７ＦＱ,,,,,,2024-04-23,1,,,,,ジエリーキヤツトリミテツド,0
894,4010001244070,新規,0,2024-04-23,2024-04-23,株式会社アルファコンサルタンツ,,株式会社,東京都,中央区,日本橋室町１丁目１１番１２号日本橋水野ビル７階,,13,102,1030022,,,,,,,2024-04-23,1,,,,,アルファコンサルタンツ,0
895,4010001244161,新規,0,2024-04-23,2024-04-23,株式会社ＳＴＡＲＴＵＰＳＴＵＤＩＯ,,株式会社,東京都,中央区,銀座７丁目１３番２０号銀座ＴＨビル９階,,13,102,1040061,,,,,,,2024-04-23,1,,,,,スタートアップスタジオ,0
896,4010001244236,新規,0,2024-04-23,2024-04-23,株式会社ＭＳＡ,,株式会社,東京都,中央区,日本橋室町１丁目１１－１２日本橋水野ビル７階,,13,102,1030022,,,,,,,2024-04-23,1,,,,,エムエスエー,0
897,4010001244252,新規,0,2024-04-23,2024-04-23,ＳＹＬＡ　ＨＯＴＥＬ第２号株式会社,,株式会社,東京都,千代田区,九段南１丁目５番６号りそな九段ビル５階ＫＳフロア,,13,101,1020074,,,,,,,2024-04-23,1,,,,,シーラホテルダイニゴウ,0
902,4010003043553,新規,0,2024-04-23,2024-04-23,合同会社ａｐｒｉｒｅ,,合同会社,東京都,文京区,本郷４丁目１６番６号,,13,105,1130033,,,,,,,2024-04-23,1,,,,,アプリーレ,0
903,4010003043561,新規,0,2024-04-23,2024-04-23,合同会社ＡＬＥＲＯ８４,,合同会社,東京都,千代田区,神田錦町１丁目２１番１号,,13,101,1010054,,,,,,,2024-04-23,1,,,,,アレーロエイティーフォー,0
908,4010101016106,新規,0,2024-04-23,2024-04-23,株式会社Ａｄｖａｎｔａｇｅ,,株式会社,東京都,八王子市,元八王子町２丁目３３６１番地２０,,13,201,1930826,,,,,,,2024-04-23,1,,,,,アドヴァンテージ,0
909,4010103002343,新規,0,2024-04-23,2024-04-23,合同会社ハミングバード,,合同会社,東京都,八王子市,上柚木２丁目６３番地８－３１０,,13,201,1920373,,,,,,,2024-04-23,1,,,,,ハミングバード,0
917,4010401181921,新規,0,2024-04-23,2024-04-23,株式会社ロボトラック,,株式会社,東京都,港区,白金１丁目７番１号アズ白金ビル４０１,,13,103,1080072,,,,,,,2024-04-23,1,,,,,ロボトラック,0
918,4010401181970,新規,0,2024-04-23,2024-04-23,株式会社ＳＨＩＭＡＧＩＣ,,株式会社,東京都,港区,南青山２丁目１１－１,,13,103,1070062,,,,,,,2024-04-23,1,,,,,,0
919,4010401181979,新規,0,2024-04-23,2024-04-23,ＣＴＸ　Ｓｐｅｃｉａｌ　Ｒｉｓｋｓ　Ｊａｐａｎ株式会社,,株式会社,東京都,港区,元麻布３丁目１番６号,,13,103,1060046,,,,,,,2024-04-23,1,,,,,シーティーエックススペシャルリスクジャパン,0
920,4010401181995,新規,0,2024-04-23,2024-04-23,Ｔｏｙａｒ株式会社,,株式会社,東京都,港区,三田５丁目４－４リッツ三田３Ｆ,,13,103,1080073,,,,,,,2024-04-23,1,,,,,トウヤ,0
921,4010401182011,新規,0,2024-04-23,2024-04-23,株式会社ＷＩＮＧ引越センター,,株式会社,東京都,港区,海岸３丁目１６番１号,,13,103,1080022,,,,,,,2024-04-23,1,,,,,ウイングヒッコシセンター,0
922,4010401182060,新規,0,2024-04-23,2024-04-23,株式会社リシェスホールディングス,,株式会社,東京都,港区,北青山２丁目７番１３号プラセオ青山ビル３Ｆ,,13,103,1070061,,,,,,,2024-04-23,1,,,,,リシェスホールディングス,0
924,4010403032461,新規,0,2024-04-23,2024-04-23,ＣＫ　Ｇｌｏｂａｌ合同会社,,合同会社,東京都,港区,南麻布３丁目１１番３号,,13,103,1060047,,,,,,,2024-04-23,1,,,,,シーケーグローバル,0
931,4010701045875,新規,0,2024-04-23,2024-04-23,株式会社インシデントテック,,株式会社,東京都,品川区,西大井１丁目１番２号Ｊタワー西大井イーストタワー２階,,13,109,1400015,,,,,,,2024-04-23,1,,,,,インシデントテック,0
932,4010701045909,新規,0,2024-04-23,2024-04-23,株式会社五反田エリアマネジメント,,株式会社,東京都,品川区,西五反田１丁目４番８―８０５号,,13,109,1410031,,,,,,,2024-04-23,1,,,,,ゴタンダエリアマネジメント,0
935,4010901055071,新規,0,2024-04-23,2024-04-23,ＴＳＨ株式会社,,株式会社,東京都,世田谷区,砧６丁目２６番３５号,,13,112,1570073,,,,,,,2024-04-23,1,,,,,ティーエスエイチ,0
936,4010903008985,新規,0,2024-04-23,2024-04-23,合同会社ＨＯＰＥ,,合同会社,東京都,世田谷区,北烏山６丁目１１番３－１６０１号,,13,112,1570061,,,,,,,2024-04-23,1,,,,,ホープ,0
937,4010903008993,新規,0,2024-04-23,2024-04-23,コンサル大塚合同会社,,合同会社,東京都,世田谷区,砧１丁目２２番２４号,,13,112,1570073,,,,,,,2024-04-23,1,,,,,コンサルオオツカ,0
949,4011005010491,新規,0,2024-04-23,2024-04-23,一般社団法人Ｅｔｈｅｒｅｕｍ　Ｊａｐａｎ,,その他の設立登記法人,東京都,目黒区,駒場１丁目１番６号,,13,110,1530041,,,,,,,2024-04-23,1,,,,,イーサリアムジャパン,0
953,4011101107101,新規,0,2024-04-23,2024-04-23,株式会社八郷不動産,,株式会社,東京都,新宿区,下落合１丁目７－５斉藤ビル４階,,13,104,1610033,,,,,,,2024-04-23,1,,,,,ハチゴウフドウサン,0
964,4011801044115,新規,0,2024-04-23,2024-04-23,ミラクル株式会社,,株式会社,東京都,足立区,江北６丁目１２－１２メゾネットアイム１０３,,13,121,1230872,,,,,,,2024-04-23,1,,,,,ミラクル,0
965,4011801044131,新規,0,2024-04-23,2024-04-23,ＡＢＲＩＴＥ株式会社,,株式会社,東京都,足立区,六木３丁目３５番２号パークハマナカ１０２号室,,13,121,1210052,,,,,,,2024-04-23,1,,,,,アブライト,0
972,4012803003356,新規,0,2024-04-23,2024-04-23,合同会社ＷＡＫＡＳＡ,,合同会社,東京都,立川市,錦町１丁目１１番７号メゾン・ド・ノアロゼ６１１号,,13,202,1900022,,,,,,,2024-04-23,1,,,,,ワカサ,0
974,4013301052358,新規,0,2024-04-23,2024-04-23,模因造品株式会社,,株式会社,東京都,豊島区,東池袋３丁目１３－１２グランメール池袋６１４,,13,116,1700013,,,,,,,2024-04-23,1,,,,,モインゾウヒン,0
980,4020001156769,新規,0,2024-04-23,2024-04-23,株式会社エスコート,,株式会社,神奈川県,川崎市川崎区,京町２丁目２４番６－９０７号,,14,131,2100848,,,,,,,2024-04-23,1,,,,,エスコート,0
981,4020001156777,新規,0,2024-04-23,2024-04-23,株式会社グッドスロープ,,株式会社,神奈川県,横浜市港北区,新羽町２３５４番地,,14,109,2230057,,,,,,,2024-04-23,1,,,,,グッドスロープ,0
990,4021003014428,新規,0,2024-04-23,2024-04-23,合同会社Ｒ＆Ｋ,,合同会社,神奈川県,藤沢市,南藤沢２０番２３号アシビシティビル５Ｆ,,14,205,2510055,,,,,,,2024-04-23,1,,,,,アールアンドケー,0
991,4021003014436,新規,0,2024-04-23,2024-04-23,ライズ合同会社,,合同会社,神奈川県,海老名市,河原口４丁目３－１－１０５,,14,215,2430433,,,,,,,2024-04-23,1,,,,,ライズ,0
997,4030001159977,新規,0,2024-04-23,2024-04-23,株式会社Ｐｉｅｃｅｓ　Ｗｏｒｋ,,株式会社,埼玉県,さいたま市中央区,新中里５丁目２０番９－３０２号,,11,105,3380011,,,,,,,2024-04-23,1,,,,,ピースズワーク,0
1004,4030003024147,新規,0,2024-04-23,2024-04-23,合同会社ＴＯＫＩＫＡＧＡ,,合同会社,埼玉県,入間市,大字仏子１番地５,,11,225,3580053,,,,,,,2024-04-23,1,,,,,トキカガ,0
1005,4030003024163,新規,0,2024-04-23,2024-04-23,ＬＩＧＨＴＧ合同会社,,合同会社,埼玉県,所沢市,東所沢１丁目６－２レゾンデートル３０５,,11,208,3590021,,,,,,,2024-04-23,1,,,,,ライトジー,0
1014,4040001133196,新規,0,2024-04-23,2024-04-23,株式会社阿部工務店,,株式会社,千葉県,千葉市若葉区,小倉台１丁目１９番１１号,,12,104,2640006,,,,,,,2024-04-23,1,,,,,アベコウムテン,0
1015,4040001133270,新規,0,2024-04-23,2024-04-23,株式会社石川鉄筋,,株式会社,千葉県,船橋市,新高根２丁目２５番２号,,12,204,2740814,,,,,,,2024-04-23,1,,,,,イシカワテッキン,0
1016,4040001133287,新規,0,2024-04-23,2024-04-23,株式会社カイルリープ,,株式会社,千葉県,市川市,市川４丁目４番３号,,12,203,2720034,,,,,,,2024-04-23,1,,,,,カイルリープ,0
1017,4040001133304,新規,0,2024-04-23,2024-04-23,株式会社ねくすとす,,株式会社,千葉県,千葉市美浜区,打瀬３丁目１３番地１幕張アクアテラス９０２号,,12,106,2610013,,,,,,,2024-04-23,1,,,,,ネクストス,0
1024,4050001054607,新規,0,2024-04-23,2024-04-23,株式会社ＳＴＵＲ’Ｓ,,株式会社,茨城県,坂東市,小泉２４４番地２,,08,228,3060635,,,,,,,2024-04-23,1,,,,,スターズ,0
1032,4060002033600,新規,0,2024-04-23,2024-04-23,関根金型有限会社,,有限会社,栃木県,栃木市,藤岡町甲１６８８番地２,,09,203,3231105,,,,,,,2024-04-23,1,,,,,セキネカナガタ,0
1034,4070001041660,新規,0,2024-04-23,2024-04-23,株式会社飛鳥テック,,株式会社,群馬県,前橋市,東片貝町２７５番地５,,10,201,3710012,,,,,,,2024-04-23,1,,,,,アスカテック,0
1039,4080101024696,新規,0,2024-04-23,2024-04-23,株式会社おでぽて,,株式会社,静岡県,御殿場市,新橋２０７３番地の１５,,22,215,4120043,,,,,,,2024-04-23,1,,,,,オデポテ,0
1043,4100001037408,新規,0,2024-04-23,2024-04-23,ＳＨＡＲＪＥＥＬ　ＴＲＡＤＩＮＧ株式会社,,株式会社,長野県,松本市,大字笹賀７０６２番地８,,20,202,3990033,,,,,,,2024-04-23,1,,,,,シャルジルトレーディング,0
1044,4100003007499,新規,0,2024-04-23,2024-04-23,合同会社Ｌｅｓ　Ｖｉｇｎｅｓ　ｄｅ　Ａｚｕｍｉｎｏ,,合同会社,長野県,安曇野市,堀金烏川１５２６番地,,20,220,3998211,,,,,,,2024-04-23,1,,,,,レヴィーニュデアヅミノ,0
1062,4120001264289,新規,0,2024-04-23,2024-04-23,文華株式会社,,株式会社,大阪府,大阪市中央区,島之内２丁目８番２９－３０３号,,27,128,5420082,,,,,,,2024-04-23,1,,,,,ブンカ,0
1063,4120001264339,新規,0,2024-04-23,2024-04-23,ウェルネスライフ株式会社,,株式会社,大阪府,大阪市中央区,南船場３丁目２番２２号おおきに南船場ビル２０５,,27,128,5420081,,,,,,,2024-04-23,1,,,,,ウェルネスライフ,0
1069,4120003026423,新規,0,2024-04-23,2024-04-23,ｓｔｒｏｎｇ合同会社,,合同会社,大阪府,大阪市西区,新町１丁目６－８－４０３,,27,106,5500013,,,,,,,2024-04-23,1,,,,,ストロング,0
1073,4120105009846,新規,0,2024-04-23,2024-04-23,一般社団法人オルオルケアラー協会,,その他の設立登記法人,大阪府,貝塚市,名越３４２番地１,,27,208,5970042,,,,,,,2024-04-23,1,,,,,オルオルケアラーキョウカイ,0
1077,4122001038029,新規,0,2024-04-23,2024-04-23,株式会社Ｎ,,株式会社,大阪府,東大阪市,鴻池町１丁目１番１４－５１９号,,27,227,5780972,,,,,,,2024-04-23,1,,,,,エヌ,0
1087,4140001134143,新規,0,2024-04-23,2024-04-23,株式会社ＴＭＳ,,株式会社,兵庫県,姫路市,上大野５丁目１４番３号,,28,201,6700896,,,,,,,2024-04-23,1,,,,,ティーエムエス,0
1088,4140001134168,新規,0,2024-04-23,2024-04-23,株式会社セントウエスト,,株式会社,兵庫県,神戸市兵庫区,羽坂通３丁目５－２２甲南兵庫ハイム２０５,,28,105,6520805,,,,,,,2024-04-23,1,,,,,セントウエスト,0
1092,4140003020457,新規,0,2024-04-23,2024-04-23,ＡＫＶＮ　Ｇｒｏｕｐ合同会社,,合同会社,兵庫県,神戸市灘区,新在家南町４丁目１６番１８－５０６号,,28,102,6570864,,,,,,,2024-04-23,1,,,,,エイケイブイエヌグループ,0
1093,4140003020465,新規,0,2024-04-23,2024-04-23,合同会社Ｄ‐ｔｙ,,合同会社,兵庫県,西宮市,大社町１１番６１号,,28,204,6620867,,,,,,,2024-04-23,1,,,,,ディーティーワイ,0
1094,4140003020481,新規,0,2024-04-23,2024-04-23,合同会社ＡＬＡ,,合同会社,兵庫県,丹波市,春日町下三井庄１１３７番地１,,28,223,6694252,,,,,,,2024-04-23,1,,,,,アラ,0
1096,4150001027247,新規,0,2024-04-23,2024-04-23,株式会社承継・相続タスクフォース,,株式会社,奈良県,奈良市,下三条町３４番地,,29,201,6308236,,,,,,,2024-04-23,1,,,,,ショウケイソウゾクタスクフォース,0
1098,4160001025869,新規,0,2024-04-23,2024-04-23,なでしこ株式会社,,株式会社,滋賀県,長浜市,港町４番１９号,,25,203,5260067,,,,,,,2024-04-23,1,,,,,,0
1110,4180001161068,新規,0,2024-04-23,2024-04-23,スーシェフ株式会社,,株式会社,愛知県,稲沢市,高重西町１２２番地１,,23,220,4928421,,,,,,,2024-04-23,1,,,,,スーシェフ,0
1116,4180301038552,新規,0,2024-04-23,2024-04-23,株式会社氷室建設,,株式会社,愛知県,岡崎市,洞町字長沼１５番地４２,,23,202,4440008,,,,,,,2024-04-23,1,,,,,ヒムロケンセツ,0
1117,4180301038569,新規,0,2024-04-23,2024-04-23,株式会社西垣内装,,株式会社,愛知県,額田郡幸田町,大字芦谷字要善４１番地５,00134517,23,501,4440116,,,,,,,2024-04-23,1,,,,,ニシガキナイソウ,0
1123,4190003004653,新規,0,2024-04-23,2024-04-23,合同会社ひなたの道,,合同会社,三重県,四日市市,三重６丁目６６番地２,,24,202,5120912,,,,,,,2024-04-23,1,,,,,ヒナタノミチ,0
1128,4220005008839,新規,0,2024-04-23,2024-04-23,一般社団法人シニアライフカウンセラー協会石川,,その他の設立登記法人,石川県,金沢市,泉野町５丁目１３番２７号,,17,201,9218034,,,,,,,2024-04-23,1,,,,,シニアライフカウンセラーキョウカイイシカワ,0
1132,4240003006636,新規,0,2024-04-23,2024-04-23,合同会社ｖｉｓ‐ａ‐ｖｉｓ,,合同会社,広島県,広島市東区,牛田新町３丁目７番１４－３０３号,,34,102,7320068,,,,,,,2024-04-23,1,,,,,ビサビス,0
1152,4290001105484,新規,0,2024-04-23,2024-04-23,株式会社高山ゴム工業,00134525,株式会社,福岡県,福岡市東区,下原４丁目１番１４号,,40,131,8130002,,,,,,,2024-04-23,1,,,,,タカヤマゴムコウギョウ,0
1154,4290003015194,新規,0,2024-04-23,2024-04-23,合同会社ＭＯＴＺ,,合同会社,福岡県,福岡市中央区,天神２丁目２番１２号Ｔ＆Ｊビルディング７Ｆ,,40,133,8100001,,,,,,,2024-04-23,1,,,,,モッツ,0
1165,4340003004448,新規,0,2024-04-23,2024-04-23,合同会社ゆらおうあまみ,,合同会社,鹿児島県,大島郡瀬戸内町,大字阿木名４４６－１シャトー渡辺Ａ－１０２,,46,525,8941511,,,,,,,2024-04-23,1,,,,,ユラオウアマミ,0
1168,4360003013884,新規,0,2024-04-23,2024-04-23,合同会社Ｔ‐Ｓｔｙｌｅ,,合同会社,沖縄県,うるま市,字田場１８９５－２,,47,213,9042213,,,,,,,2024-04-23,1,,,,,ティースタイル,0
1169,4360003013918,新規,0,2024-04-23,2024-04-23,合同会社ＬＥＯＬＥＯ,,合同会社,沖縄県,名護市,字済井出２１９－３,,47,209,9051635,,,,,,,2024-04-23,1,,,,,,0
1171,4370005010771,新規,0,2024-04-23,2024-04-23,農事組合法人ひろぶち営農組合,,その他の設立登記法人,宮城県,石巻市,広渕字砂三３９番地,,04,202,9871222,,,,,,,2024-04-23,1,,,,,ヒロブチエイノウクミアイ,0
1174,4380001034484,新規,0,2024-04-23,2024-04-23,株式会社くすりのマルト医療福祉協会,,株式会社,福島県,いわき市,勿来町窪田十条３番１,,07,204,9790141,,,,,,,2024-04-23,1,,,,,クスリノマルトイリョウフクシキョウカイ,0
1185,4430001091628,新規,0,2024-04-23,2024-04-23,株式会社Ｍｅｄｉｃａｌ　Ｃｏｎｃｅｐｔ,,株式会社,北海道,札幌市中央区,南六条西１３丁目４‐３‐５０１,,01,101,0640806,,,,,,,2024-04-23,1,,,,,メディカルコンセプト,0
1187,4450001014297,新規,0,2024-04-23,2024-04-23,株式会社オフィスアーキ,,株式会社,北海道,旭川市,旭町一条１１丁目２２０４番地２２,,01,204,0700831,,,,,,,2024-04-23,1,,,,,オフィスアーキ,0
1190,4460105002288,新規,0,2024-04-23,2024-04-23,農事組合法人ＡＲＩサポート,,その他の設立登記法人,北海道,中川郡幕別町,旭町２１番地の７３,,01,643,0890602,,,,,,,2024-04-23,1,,,,,,0
1192,4470001020161,新規,0,2024-04-23,2024-04-23,株式会社Ｆｅｍ’ｓデザインスタジオ,,株式会社,香川県,高松市,木太町３６９９番地１,,37,201,7600080,,,,,,,2024-04-23,1,,,,,フェムズデザインスタジオ,0
1194,4490003001884,新規,0,2024-04-23,2024-04-23,エヌズ・トータルケア合同会社,,合同会社,高知県,高知市,東秦泉寺５１５番地１７０,,39,201,7800023,,,,,,,2024-04-23,1,,,,,エヌズトータルケア,0
1201,4700150125035,新規,0,2024-04-23,2024-04-23,ＮＴＴ　ＤＡＴＡ　Ｉｎｆｏｒｍａｔｉｏｎ　Ｐｒｏｃｅｓｓｉｎｇ　Ｓｅｒｖｉｃｅｓ　Ｐｒｉｖａｔｅ　Ｌｉｍｉｔｅｄ,,外国会社等,,,,,,,,ＰＬＯＴ　ＮＯ．１２３．ＥＰＩＰ　ＰＨＡＳＥ－ＩＩ，ＷＨＩＴＥＦＩＥＬＤ　ＩＮＤＵＳＴＲＩＡＬ　ＡＲＥＡ，ＢＡＮＧＡＬＯＲＥ，Ｂａｎｇａｌｏｒｅ，Ｋａｒｎａｔａｋａ，Ｉｎｄｉａ，５６００６６,00134502,,,,,2024-04-23,1,,,,,エヌテイテイデータインフオメーシヨンプロセツシングサービスプライベートリミテツド,0
1202,4700150125068,新規,0,2024-04-23,2024-04-23,Ｌａｖｅｎｏ　Ｐｔｅ．Ｌｔｄ．,,外国会社等,,,,,,,,２０５　Ｂａｌｅｓｔｉｅｒ　Ｒｏａｄ　＃０２－０６　Ｔｈｅ　Ｍｅｚｚｏ　Ｓｉｎｇａｐｏｒｅ　３２９６８２,,,,,,2024-04-23,1,,,,,ラヴエノピーテイーイーリミテツド,0
1203,4700150125076,新規,0,2024-04-23,2024-04-23,Ｓｉｅｍｅｎｓ　Ｅｎｅｒｇｙ　Ｃｏ．，Ｌｔｄ．,,外国会社等,,,,,,,,Ｒｏｏｍ　４０９，４ｔｈ　ｆｌｏｏｒ，Ｎｏ．３８　Ｙｉｎｇｌｕｎ　Ｒｏａｄ，Ｓｈａｎｇｈａｉ，Ｃｈｉｎａ,,,,,,2024-04-23,1,,,,,シーメンスエナジーカンパニーリミテツド,0
1204,4700150125084,新規,0,2024-04-23,2024-04-23,ＲｅａｌｔｉｍｅＢｏａｒｄ　Ｉｎｃ．,,外国会社等,,,,,,,,２０１　Ｓｐｅａｒ　Ｓｔｒｅｅｔ，Ｓｕｉｔｅ　１１００，Ｓａｎ　Ｆｒａｎｃｉｓｃｏ，ＣＡ　９４１０５,,,,,,2024-04-23,1,,,,,リアルタイムボードインク,0
1216,5010001244235,新規,0,2024-04-23,2024-04-23,ブラボーＢＲＳ株式会社,,株式会社,東京都,中央区,銀座７丁目１３番６号,,13,102,1040061,,,,,,,2024-04-23,1,,,,,ブラボービーアールエス,0
1217,5010001244268,新規,0,2024-04-23,2024-04-23,ＬＳＯＵＴＨ株式会社,,株式会社,東京都,中央区,銀座１丁目１２番４号７階,,13,102,1040061,,,,,,,2024-04-23,1,,,,,エルサウス,0
1223,5010003043560,新規,0,2024-04-23,2024-04-23,合同会社ＡＬＥＲＯ８３,,合同会社,東京都,千代田区,神田錦町１丁目２１番１号,,13,101,1010054,,,,,,,2024-04-23,1,,,,,アレーロエイティースリー,0
1224,5010005038212,新規,0,2024-04-23,2024-04-23,半導体後工程自動化・標準化技術研究組合,,その他の設立登記法人,東京都,千代田区,永田町２丁目１０番３号,,13,101,1000014,,,,,,,2024-04-23,1,,,,,ハンドウタイアトコウテイジドウカヒョウジュンカ,0
1225,5010005038237,新規,0,2024-04-23,2024-04-23,ＤＨＦ３一般社団法人,,その他の設立登記法人,東京都,千代田区,丸の内３丁目１番１号東京共同会計事務所内,,13,101,1000005,,,,,,,2024-04-23,1,,,,,ディーエイチエフスリー,0
1233,5010405023177,新規,0,2024-04-23,2024-04-23,Ｎ８６特定目的会社,,その他の設立登記法人,東京都,港区,元赤坂１丁目１番８号株式会社赤坂国際会計内,,13,103,1070051,,,,,,,2024-04-23,1,,,,,エヌエイティーシックス,0
1235,5010501052138,新規,0,2024-04-23,2024-04-23,ＷＩＬＫ　ＴＲＡＤＩＮＧ株式会社,,株式会社,東京都,台東区,台東３丁目５－１０－１０２－２Ｃ,,13,106,1100016,,,,,,,2024-04-23,1,,,,,ウィルクトレーディング,0
1246,5010703007146,新規,0,2024-04-23,2024-04-23,合同会社ガンディアル,,合同会社,東京都,品川区,西五反田８丁目２－１２アール五反田７Ａ,,13,109,1410031,,,,,,,2024-04-23,1,,,,,ガンディアル,0
1250,5010901055112,新規,0,2024-04-23,2024-04-23,Ｄｅａｒ　Ｗｏｍａｎ株式会社,,株式会社,東京都,世田谷区,太子堂２丁目１番１号,,13,112,1540004,,,,,,,2024-04-23,1,,,,,ディアウーマン,0
1254,5011001161593,新規,0,2024-04-23,2024-04-23,株式会社ＮＥＸＴＳＴＡＮ,,株式会社,東京都,渋谷区,神宮前６丁目２９番４号原宿Ｋｏｍｉｙａビル６階,,13,113,1500001,,,,,,,2024-04-23,1,,,,,ネクストスタン,0
1257,5011003018916,新規,0,2024-04-23,2024-04-23,合同会社アカツキ,,合同会社,東京都,渋谷区,道玄坂１丁目１６‐６二葉ビル８ｂ,,13,113,1500043,,,,,,,2024-04-23,1,,,,,アカツキ,0
1258,5011003018949,新規,0,2024-04-23,2024-04-23,タートル商事合同会社,,合同会社,東京都,渋谷区,千駄ヶ谷５丁目２６－５代々木シティホームズ３０５号,,13,113,1510051,,,,,,,2024-04-23,1,,,,,タートルショウジ,0
1264,5011101107075,新規,0,2024-04-23,2024-04-23,株式会社ＫＫ１,,株式会社,東京都,新宿区,歌舞伎町２丁目３３番１号,,13,104,1600021,,,,,,,2024-04-23,1,,,,,ケーケーワン,0
1265,5011101107100,新規,0,2024-04-23,2024-04-23,株式会社檸檬女無天,,株式会社,東京都,新宿区,下落合１丁目７－５斉藤ビル４階,,13,104,1610033,,,,,,,2024-04-23,1,,,,,レモンミント,0
1267,5011103014360,新規,0,2024-04-23,2024-04-23,合同会社エフェクトナビ,,合同会社,東京都,新宿区,西新宿３丁目３番１３号西新宿水間ビル６階,,13,104,1600023,,,,,,,2024-04-23,1,,,,,エフェクトナビ,0
1268,5011201025301,新規,0,2024-04-23,2024-04-23,株式会社ＧＡＹエンターテインメント,,株式会社,東京都,中野区,東中野３丁目１６番１４号小谷ビル４０２,,13,114,1640003,,,,,,,2024-04-23,1,,,,,ジーエーワイエンターテインメント,0
1274,5011603004308,新規,0,2024-04-23,2024-04-23,ナイアガラコネクト合同会社,,合同会社,東京都,練馬区,石神井町６丁目１１番１０号,,13,120,1770041,,,,,,,2024-04-23,1,,,,,ナイアガラコネクト,0
1276,5012403006535,新規,0,2024-04-23,2024-04-23,Ｇａｐ　ｔｉｍｅ合同会社,,合同会社,東京都,三鷹市,牟礼２丁目１３番２２号,,13,204,1810002,,,,,,,2024-04-23,1,,,,,ギャップタイム,0
1282,5013303007103,新規,0,2024-04-23,2024-04-23,ＮＯＶＡＬＣ．ｓ合同会社,,合同会社,東京都,豊島区,南大塚３丁目４３番５－６０２号,,13,116,1700005,,,,,,,2024-04-23,1,,,,,ノヴァルキス,0
1284,5020001156776,新規,0,2024-04-23,2024-04-23,株式会社Ａｃｅ　Ｔｏｔａｌ　Ｒｅｆｏｒｍ,,株式会社,神奈川県,横浜市旭区,都岡町２０番地７上田ハイツ第一２０１,,14,112,2410805,,,,,,,2024-04-23,1,,,,,エーストータルリフォーム,0
1285,5020001156801,新規,0,2024-04-23,2024-04-23,株式会社ＲＯＮＡ,,株式会社,神奈川県,横浜市西区,みなとみらい４丁目７番１－２５１２号,,14,103,2200012,,,,,,,2024-04-23,1,,,,,ロナ,0
1287,5020003025954,新規,0,2024-04-23,2024-04-23,同天合同会社,,合同会社,神奈川県,横浜市中区,翁町２丁目８番地６第二東里ビル２１８号,,14,104,2310028,,,,,,,2024-04-23,1,,,,,ドウテン,0
1289,5021001081989,新規,0,2024-04-23,2024-04-23,株式会社ｓｔｕｄｉｏ　ＵＭＩ,,株式会社,神奈川県,藤沢市,朝日町１４番３号第３榎本ビル２階Ａ室,,14,205,2510054,,,,,,,2024-04-23,1,,,,,スタジオユーエムアイ,0
1303,5030001159951,新規,0,2024-04-23,2024-04-23,株式会社あいま,,株式会社,埼玉県,さいたま市西区,大字三条町１６８,,11,101,3310056,,,,,,,2024-04-23,1,,,,,アイマ,0
1304,5030001159968,新規,0,2024-04-23,2024-04-23,株式会社ｄｉｇｉｔａｌ　Ｍａｇｉｃ　ｂｏｘ,,株式会社,埼玉県,和光市,丸山台１丁目４番４号２Ｆ和光市オフィス２Ｆ－１０号室,,11,229,3510112,,,,,,,2024-04-23,1,,,,,デジタルマジックボックス,0
1307,5030003024154,新規,0,2024-04-23,2024-04-23,合同会社伊関地域医療研究所,,合同会社,埼玉県,さいたま市緑区,松木３丁目１０番地,,11,109,3360918,,,,,,,2024-04-23,1,,,,,イセキチイキイリョウケンキュウショ,0
1308,5030003024162,新規,0,2024-04-23,2024-04-23,合同会社ＡＫＳ,,合同会社,埼玉県,上尾市,大字原市４２４２－１１,,11,219,3620021,,,,,,,2024-04-23,1,,,,,エーケーエス,0
1310,5040001133220,新規,0,2024-04-23,2024-04-23,Ｒｏｓｅ株式会社,,株式会社,千葉県,佐倉市,西ユーカリが丘２丁目９番地２,,12,212,2850850,,,,,,,2024-04-23,1,,,,,ローズ,0
1311,5040001133245,新規,0,2024-04-23,2024-04-23,株式会社ヘーゼルリーフ,,株式会社,千葉県,市川市,妙典６丁目３番２１－６１５号,,12,203,2720111,,,,,,,2024-04-23,1,,,,,ヘーゼルリーフ,0
1312,5040001133278,新規,0,2024-04-23,2024-04-23,やさしいコンサルティング株式会社,,株式会社,千葉県,習志野市,実籾１丁目１６番１号,,12,216,2750002,,,,,,,2024-04-23,1,,,,,ヤサシイコンサルティング,0
1313,5040001133286,新規,0,2024-04-23,2024-04-23,株式会社スマイルマックス木更津,,株式会社,千葉県,木更津市,桜井新町２丁目２番３号,,12,206,2920823,,,,,,,2024-04-23,1,,,,,スマイルマックスキサラヅ,0
1314,5040001133303,新規,0,2024-04-23,2024-04-23,株式会社ＡＺＵＲＥ,,株式会社,千葉県,鴨川市,浜荻１３７６番地,,12,223,2995504,,,,,,,2024-04-23,1,,,,,アズール,0
1318,5040005022361,新規,0,2024-04-23,2024-04-23,一般財団法人柳内国際育英光財団,,その他の設立登記法人,千葉県,浦安市,北栄４丁目２０番１０号,,12,227,2790002,,,,,,,2024-04-23,1,,,,,ヤナイコクサイイクエイヒカリザイダン,0
1320,5050001054671,新規,0,2024-04-23,2024-04-23,株式会社ケーズジャパン,,株式会社,茨城県,ひたちなか市,殿山町２丁目４番３０号,,08,221,3111212,,,,,,,2024-04-23,1,,,,,ケーズジャパン,0
1327,5070001041668,新規,0,2024-04-23,2024-04-23,株式会社ハッスル餃子本舗,,株式会社,群馬県,高崎市,新町２１４３番地２,,10,202,3701301,,,,,,,2024-04-23,1,,,,,ハッスルギョウザホンポ,0
1328,5070003005381,新規,0,2024-04-23,2024-04-23,恋珈琲店合同会社,,合同会社,群馬県,太田市,鳥山上町１２１７番地,,10,205,3730061,,,,,,,2024-04-23,1,,,,,コイコーヒー,0
1332,5080103003045,新規,0,2024-04-23,2024-04-23,合同会社椛,,合同会社,静岡県,駿東郡小山町,須走３３８番地の４４,,22,344,4101431,,,,,,,2024-04-23,1,,,,,モミジ,0
1341,5100003007498,新規,0,2024-04-23,2024-04-23,合同会社Ｓｏａｒ　Ｓｕｎ,,合同会社,長野県,北佐久郡御代田町,大字馬瀬口５－１フィオーレＩＩ１０３,00134518,20,323,3890207,,,,,,,2024-04-23,1,,,,,ソアーサン,0
1354,5120001264255,新規,0,2024-04-23,2024-04-23,株式会社ｇｉｖｅｒ,,株式会社,大阪府,大阪市北区,南扇町３番２５－３０４号,,27,127,5300052,,,,,,,2024-04-23,1,,,,,ギバー,0
1355,5120001264288,新規,0,2024-04-23,2024-04-23,グランシンシア株式会社,,株式会社,大阪府,大阪市港区,南市岡３丁目７番２１－１２０８号,,27,107,5520011,,,,,,,2024-04-23,1,,,,,グランシンシア,0
1359,5120003026422,新規,0,2024-04-23,2024-04-23,合同会社ＳＳＣ,,合同会社,大阪府,大阪市浪速区,戎本町１丁目８番１７－１３１２号,,27,111,5560013,,,,,,,2024-04-23,1,,,,,エスエスシー,0
1364,5120903005145,新規,0,2024-04-23,2024-04-23,合同会社ＬＡＴ＆Ｒ,,合同会社,大阪府,高槻市,北園町１３番３２－５０４号,,27,207,5690802,,,,,,,2024-04-23,1,,,,,ラットアンドアール,0
1369,5130003009467,新規,0,2024-04-23,2024-04-23,合同会社浩晨制作所,,合同会社,京都府,久世郡久御山町,林垣内８８－１９,,26,322,6130033,,,,,,,2024-04-23,1,,,,,ホシンセイサクショ,0
1372,5140001134101,新規,0,2024-04-23,2024-04-23,熊本ＴＨＰ株式会社,,株式会社,兵庫県,明石市,魚住町清水２２４７番地の１５,,28,203,6740074,,,,,,,2024-04-23,1,,,,,クマモトティーエイチピー,0
1373,5140001134159,新規,0,2024-04-23,2024-04-23,メカストテクノロジー株式会社,,株式会社,兵庫県,神戸市中央区,磯辺通１丁目１番１８号カサベラ国際プラザビル７０７号室,,28,110,6510084,,,,,,,2024-04-23,1,,,,,メカストテクノロジー,0
1374,5140001134167,新規,0,2024-04-23,2024-04-23,株式会社Ｂｌｉｓｓｆｕｌ　Ｎｅｓｔ,,株式会社,兵庫県,姫路市,東延末１丁目２４番地,,28,201,6700965,,,,,,,2024-04-23,1,,,,,ブリスフルネスト,0
1375,5140001134183,新規,0,2024-04-23,2024-04-23,株式会社はなのひ,,株式会社,兵庫県,西宮市,大社町１１番８４－３号,,28,204,6620867,,,,,,,2024-04-23,1,,,,,ハナノヒ,0
1378,5140003020480,新規,0,2024-04-23,2024-04-23,家ｚｍ合同会社,,合同会社,兵庫県,洲本市,由良４丁目２番６号,,28,205,6562541,,,,,,,2024-04-23,1,,,,,イエズム,0
1383,5160001025868,新規,0,2024-04-23,2024-04-23,株式会社二十六,,株式会社,滋賀県,栗東市,綣３丁目１７番地１７号クラルテファミーユ３０３号室,,25,208,5203031,,,,,,,2024-04-23,1,,,,,,0
1395,5180001161067,新規,0,2024-04-23,2024-04-23,エクスプライ株式会社,,株式会社,愛知県,小牧市,小木東２丁目２２１番地,,23,219,4850059,,,,,,,2024-04-23,1,,,,,エクスプライ,0
1396,5180001161075,新規,0,2024-04-23,2024-04-23,株式会社ＩＭＰＡＣＴ　ＡＧＥＮＣＹ,,株式会社,愛知県,名古屋市中区,栄２丁目２番１号広小路伏見中駒ビル５Ｆ,,23,106,4600008,,,,,,,2024-04-23,1,,,,,インパクトエージェンシー,0
1400,5180003026664,新規,0,2024-04-23,2024-04-23,アミティエ合同会社,,合同会社,愛知県,愛西市,鰯江町郷中９５番地,,23,232,4960923,,,,,,,2024-04-23,1,,,,,アミティエ,0
1401,5180003026680,新規,0,2024-04-23,2024-04-23,合同会社ＯＧＴ,,合同会社,愛知県,春日井市,八田町２丁目４－２０,,23,206,4860849,,,,,,,2024-04-23,1,,,,,オージーティー,0
1402,5180301038551,新規,0,2024-04-23,2024-04-23,株式会社オーロラぴよこ,,株式会社,愛知県,豊橋市,西高師町字沢向２３番地２,,23,201,4418154,,,,,,,2024-04-23,1,,,,,オーロラピヨコ,0
1403,5180301038568,新規,0,2024-04-23,2024-04-23,ネオホールディングス株式会社,,株式会社,愛知県,西尾市,西幡豆町黒松８２番地,,23,213,4440703,,,,,,,2024-04-23,1,,,,,ネオホールディングス,0
1404,5180303006093,新規,0,2024-04-23,2024-04-23,合同会社春縁,,合同会社,愛知県,豊橋市,飯村町字高山７１番地の１,,23,201,4400833,,,,,,,2024-04-23,1,,,,,ハルエン,0
1407,5190003004660,新規,0,2024-04-23,2024-04-23,合同会社ＲＥ‐ＳＯＵＺＯＵ,,合同会社,三重県,松阪市,曽原町７３５番地１,,24,204,5152112,,,,,,,2024-04-23,1,,,,,リソウゾウ,0
1408,5190005011936,新規,0,2024-04-23,2024-04-23,一般社団法人すずのね会,,その他の設立登記法人,三重県,鈴鹿市,白子１丁目３番１３号,,24,207,5100243,,,,,,,2024-04-23,1,,,,,スズノネカイ,0
1412,5230003002189,新規,0,2024-04-23,2024-04-23,合同会社アスラボ,,合同会社,富山県,魚津市,友道１４６７番地,,16,204,9370806,,,,,,,2024-04-23,1,,,,,アスラボ,0
1415,5240003006635,新規,0,2024-04-23,2024-04-23,合同会社ＭＡＫＥ　Ｎ,,合同会社,広島県,安芸郡坂町,坂西１丁目２９－２９,,34,309,7314314,,,,,,,2024-04-23,1,,,,,メイクエヌ,0
1417,5240005015766,新規,0,2024-04-23,2024-04-23,一般財団法人ヒロテック財団,,その他の設立登記法人,広島県,広島市佐伯区,石内南５丁目２番１号,,34,108,7315108,,,,,,,2024-04-23,1,,,,,ヒロテックザイダン,0
1418,5260001038991,新規,0,2024-04-23,2024-04-23,株式会社ＭＡＬＵＭＯ,,株式会社,岡山県,倉敷市,有城２１番地１２,,33,202,7100031,,,,,,,2024-04-23,1,,,,,マルモ,0
1420,5290001105483,新規,0,2024-04-23,2024-04-23,株式会社ヤエリ,,株式会社,福岡県,福岡市中央区,天神２丁目３番１０号天神パインクレスト７１９号,,40,133,8100001,,,,,,,2024-04-23,1,,,,,ヤエリ,0
1421,5290001105491,新規,0,2024-04-23,2024-04-23,株式会社モトランド,,株式会社,福岡県,糟屋郡粕屋町,大字阿惠２２０番地１,,40,349,8112306,,,,,,,2024-04-23,1,,,,,モトランド,0
1422,5290001105500,新規,0,2024-04-23,2024-04-23,株式会社Ｄｒｅａｍ,,株式会社,福岡県,糸島市,南風台３丁目１２番３号メゾンドレトアＤ２０２,,40,230,8191137,,,,,,,2024-04-23,1,,,,,ドリーム,0
1423,5290001105590,新規,0,2024-04-23,2024-04-23,株式会社ＪＰＳ,,株式会社,福岡県,福岡市中央区,谷１丁目１２番２６号,,40,133,8100031,,,,,,,2024-04-23,1,,,,,ジェイピーエス,0
1424,5290001105599,新規,0,2024-04-23,2024-04-23,株式会社ＩＤＯ,,株式会社,福岡県,飯塚市,柏の森９２番地１８３,,40,205,8200011,,,,,,,2024-04-23,1,,,,,アイディーオー,0
1429,5290803004701,新規,0,2024-04-23,2024-04-23,ひかり会計合同会社,,合同会社,福岡県,鞍手郡鞍手町,弥生１丁目１１番２－３０８号,,40,402,8071315,,,,,,,2024-04-23,1,,,,,ヒカリカイケイ,0
1433,5310005008762,新規,0,2024-04-23,2024-04-23,特定非営利活動法人諫早かるた協会,,その他の設立登記法人,長崎県,諫早市,久山町１４９８番地２,,42,204,8540066,,,,,,,2024-04-23,1,,,,,イサハヤカルタキョウカイ,0
1436,5330001031997,新規,0,2024-04-23,2024-04-23,株式会社ワイドフロンテージ,,株式会社,熊本県,熊本市中央区,南熊本１丁目９番３４号２Ｆ,,43,101,8600812,,,,,,,2024-04-23,1,,,,,ワイドフロンテージ,0
1442,5360001033553,新規,0,2024-04-23,2024-04-23,株式会社正栄,,株式会社,沖縄県,南城市,大里字稲嶺７５２番地高江洲アパート１０１,,47,215,9011204,,,,,,,2024-04-23,1,,,,,ショウエイ,0
1446,5370001051216,新規,0,2024-04-23,2024-04-23,リノベーショングループ株式会社,,株式会社,宮城県,仙台市青葉区,本町１丁目５－２８－６０３,,04,101,9800014,,,,,,,2024-04-23,1,,,,,リノベーショングループ,0
1450,5380001034483,新規,0,2024-04-23,2024-04-23,株式会社ペスカ福島,,株式会社,福島県,福島市,三河北町２番８号,,07,201,9608054,,,,,,,2024-04-23,1,,,,,ペスカフクシマ,0
1474,5700150125067,新規,0,2024-04-23,2024-04-23,Ｓｌｅｅｐ　Ｃｙｃｌｅ　ＡＢ（ｐｕｂｌ）,,外国会社等,,,,,,,,Ｄｒａｋｅｇａｔａｎ　１０，４１２　５０　Ｇｏｔｈｅｎｂｕｒｇ，Ｓｗｅｄｅｎ,,,,,,2024-04-23,1,,,,,スリープサイクルパブリークアクチエボラグ,0
1475,5700150125075,新規,0,2024-04-23,2024-04-23,Ｉ＆Ｖ　ＧＡＭＥＳ　Ｉｎｃ．,,外国会社等,,,,,,,,１５０３　１２　Ｄｉｇｉｔａｌ－ｒｏ　３１－ｇｉｌ　Ｇｕｒｏ－ｇｕ，Ｓｅｏｕｌ　８３８０，Ｓｏｕｔｈ　Ｋｏｒｅａ,,,,,,2024-04-23,1,,,,,アイアンドブイゲームスインク,0
1476,5700150125083,新規,0,2024-04-23,2024-04-23,Ｃｒａｙ　Ｖａｌｌｅｙ　Ｓ．Ａ．,,外国会社等,,,,,,,,２，ｐｌａｃｅ　Ｊｅａｎ　Ｍｉｌｌｉｅｒ－Ｌａ　Ｄｅｆｅｎｓｅ　６－９２４００　Ｃｏｕｒｂｅｖｏｉｅ,,,,,,2024-04-23,1,,,,,クレイバレーエスエー,0
1482,6010001244201,新規,0,2024-04-23,2024-04-23,株式会社エスエス,,株式会社,東京都,千代田区,神田司町２丁目５番地ＤｅＬＣＣＳ神田大手町２０１号,,13,101,1010048,,,,,,,2024-04-23,1,,,,,エスエス,0
1483,6010001244242,新規,0,2024-04-23,2024-04-23,株式会社鋭意,,株式会社,東京都,中央区,勝どき１丁目８番１－３８０４,,13,102,1040054,,,,,,,2024-04-23,1,,,,,エイイ,0
1484,6010001244267,新規,0,2024-04-23,2024-04-23,ＬＮＯＲＴＨ株式会社,,株式会社,東京都,中央区,銀座１丁目１２番４号７階,,13,102,1040061,,,,,,,2024-04-23,1,,,,,エルノース,0
1486,6010003043535,新規,0,2024-04-23,2024-04-23,Ａｋｅｓａ合同会社,,合同会社,東京都,千代田区,丸の内１丁目８番３号丸の内トラストタワー本館２０階,,13,101,1000005,,,,,,,2024-04-23,1,,,,,アケサ,0
1490,6010101016095,新規,0,2024-04-23,2024-04-23,株式会社志恩,,株式会社,東京都,八王子市,元本郷町１丁目２５番１２号,,13,201,1920051,,,,,,,2024-04-23,1,,,,,シオン,0
1495,6010401181969,新規,0,2024-04-23,2024-04-23,ＷｉｒｅｌｅｓｓＣａｒ　Ｊａｐａｎ株式会社,,株式会社,東京都,港区,六本木１丁目１０番３号,,13,103,1060032,,,,,,,2024-04-23,1,,,,,ワイヤレスカージャパン,0
1496,6010401182018,新規,0,2024-04-23,2024-04-23,株式会社Ｔｈｅ　Ｂｏｕｎｔｙ　ｏｆ　Ｊａｐａｎ,,株式会社,東京都,港区,愛宕２丁目５番１号愛宕グリーンヒルズＭＯＲＩタワー３４階,,13,103,1050002,,,,,,,2024-04-23,1,,,,,ザバウンティオブジャパン,0
1499,6010403032468,新規,0,2024-04-23,2024-04-23,Ａｓｋａｉｇ　Ｊａｐａｎ合同会社,,合同会社,東京都,港区,芝２丁目１０番６号ＥＡＲＴＨＳＨＩＢＡＢＬＤ．３Ｆイントリム内,,13,103,1050014,,,,,,,2024-04-23,1,,,,,アスケイグジャパン,0
1500,6010403032476,新規,0,2024-04-23,2024-04-23,合同会社Ｐｒｉｎｃｅ　Ｒｏｙａｌ,,合同会社,東京都,港区,虎ノ門５丁目１番４号,,13,103,1050001,,,,,,,2024-04-23,1,,,,,プリンスロイヤル,0
1501,6010601012107,新規,0,2024-04-23,2024-04-23,千代田トラスト株式会社,,株式会社,東京都,墨田区,東駒形３丁目１番２号,,13,107,1300005,,,,,,,2024-04-23,1,,,,,,0
1516,6011001161312,新規,0,2024-04-23,2024-04-23,株式会社ＩＣＲ,,株式会社,東京都,目黒区,東山１丁目９番６号マ・メゾンボヌール２０１,,13,110,1530043,,,,,,,2024-04-23,1,,,,,アイシーアール,0
1521,6011101107099,新規,0,2024-04-23,2024-04-23,株式会社ジオアジア,,株式会社,東京都,新宿区,大久保２丁目１番８号,,13,104,1690072,,,,,,,2024-04-23,1,,,,,ジオアジア,0
1524,6011401026032,新規,0,2024-04-23,2024-04-23,株式会社ビックソフト,,株式会社,東京都,板橋区,大山金井町５４番１５－３０４号サンライズ大山マンション,,13,119,1730024,,,,,,,2024-04-23,1,,,,,ビックソフト,0
1525,6011601027697,新規,0,2024-04-23,2024-04-23,臻吉株式会社,,株式会社,東京都,練馬区,旭町１丁目８－１サンフラワー徳力ビル４０６号室,,13,120,1790071,,,,,,,2024-04-23,1,,,,,チェンジー,0
1526,6011601027706,新規,0,2024-04-23,2024-04-23,株式会社Ｄ‐ｐｌｕｓ,,株式会社,東京都,練馬区,谷原４丁目７－１５,,13,120,1770032,,,,,,,2024-04-23,1,,,,,ディープラス,0
1536,6012401041797,新規,0,2024-04-23,2024-04-23,株式会社Ｃｈａｒｉｓ,,株式会社,東京都,三鷹市,下連雀３丁目３番３号,,13,204,1810013,,,,,,,2024-04-23,1,,,,,カリス,0
1537,6012403006534,新規,0,2024-04-23,2024-04-23,合同会社アカンパニーラボ,,合同会社,東京都,府中市,紅葉丘２丁目２―５６,,13,206,1830004,,,,,,,2024-04-23,1,,,,,アカンパニーラボ,0
1546,6020001156775,新規,0,2024-04-23,2024-04-23,株式会社そよかぜ,,株式会社,神奈川県,横浜市金沢区,柴町３４５番地８３－２０１,,14,108,2360012,,,,,,,2024-04-23,1,,,,,ソヨカゼ,0
1547,6020001156791,新規,0,2024-04-23,2024-04-23,株式会社ｔｒａｄｅ,,株式会社,神奈川県,横浜市西区,久保町１３番１４号,,14,103,2200061,,,,,,,2024-04-23,1,,,,,トレード,0
1550,6021001082029,新規,0,2024-04-23,2024-04-23,ムーンストーン株式会社,,株式会社,神奈川県,海老名市,中央３丁目３番２８－４１２号ライオンズマンション海老名第２,,14,215,2430432,,,,,,,2024-04-23,1,,,,,ムーンストーン,0
1551,6021001082045,新規,0,2024-04-23,2024-04-23,株式会社Ｍｉｒａｉガス,,株式会社,神奈川県,厚木市,岡田４丁目３番７－１０８号,,14,212,2430021,,,,,,,2024-04-23,1,,,,,ミライガス,0
1557,6021003014426,新規,0,2024-04-23,2024-04-23,ＴＨＥ　ＧＲＯＵＰ合同会社,,合同会社,神奈川県,大和市,中央１丁目１番１１号４階,,14,213,2420021,,,,,,,2024-04-23,1,,,,,ザグループ,0
1569,6030001159934,新規,0,2024-04-23,2024-04-23,株式会社ファブリス,,株式会社,埼玉県,川口市,八幡木３丁目２８番８号,,11,203,3340012,,,,,,,2024-04-23,1,,,,,ファブリス,0
1575,6040001133269,新規,0,2024-04-23,2024-04-23,株式会社Ｄｔｒｅｅ,,株式会社,千葉県,市川市,田尻５丁目１３番２６号サンモール１０２,,12,203,2720014,,,,,,,2024-04-23,1,,,,,ディーツリー,0
1576,6040001133285,新規,0,2024-04-23,2024-04-23,株式会社ＥｍｅｒｇｅｎｃｙＤｏｃｔｏｒ,,株式会社,千葉県,習志野市,津田沼１丁目３番１１号昭和第三ビル６階,,12,216,2750016,,,,,,,2024-04-23,1,,,,,エマージェンシードクター,0
1577,6040001133302,新規,0,2024-04-23,2024-04-23,株式会社Ａｃｅ,,株式会社,千葉県,南房総市,千倉町大川９９４番地,,12,234,2950026,,,,,,,2024-04-23,1,,,,,エース,0
1586,6060001037022,新規,0,2024-04-23,2024-04-23,株式会社ＮＫＺ,,株式会社,栃木県,佐野市,馬門町１６５６番地１３,,09,204,3270824,,,,,,,2024-04-23,1,,,,,エヌケージィー,0
1591,6070001041675,新規,0,2024-04-23,2024-04-23,かくたに建築工房株式会社,,株式会社,群馬県,高崎市,石原町３２２６番地１,,10,202,3700864,,,,,,,2024-04-23,1,,,,,カクタニケンチクコウボウ,0
1595,6080001026262,新規,0,2024-04-23,2024-04-23,株式会社ＨＹＧＧＥ,,株式会社,静岡県,静岡市葵区,新伝馬３丁目９番６－２号,,22,101,4200944,,,,,,,2024-04-23,1,,,,,ヒュッゲ,0
1600,6080101024694,新規,0,2024-04-23,2024-04-23,Ｄｒａｇｏｎｆｌｙ　Ｓｈｉｍｏｄａ株式会社,,株式会社,静岡県,下田市,田牛７１１番地４８,,22,219,4150029,,,,,,,2024-04-23,1,,,,,ドラゴンフライシモダ,0
1607,6100003007506,新規,0,2024-04-23,2024-04-23,合同会社びりーぶ,,合同会社,長野県,飯田市,鼎一色４９６番地７,,20,205,3950805,,,,,,,2024-04-23,1,,,,,ビリーブ,0
1616,6120001263982,新規,0,2024-04-23,2024-04-23,コーペックス株式会社,,株式会社,大阪府,大阪市東淀川区,上新庄２丁目３番９－１０１号室,,27,114,5330006,,,,,,,2024-04-23,1,,,,,コーペックス,0
1618,6120003026388,新規,0,2024-04-23,2024-04-23,ＨＥＲＯ合同会社,,合同会社,大阪府,大阪市住之江区,北加賀屋５丁目６番１８号Ｔ０３,,27,125,5590011,,,,,,,2024-04-23,1,,,,,ヒロ,0
1619,6120005024217,新規,0,2024-04-23,2024-04-23,雅司法書士法人,,その他の設立登記法人,大阪府,大阪市中央区,鎗屋町１丁目３－１０－２０３,,27,128,5400027,,,,,,,2024-04-23,1,,,,,ミヤビ,0
1620,6120005024290,新規,0,2024-04-23,2024-04-23,行政書士法人東方旭国際法務事務所,,その他の設立登記法人,大阪府,大阪市中央区,天満橋京町２番６号八千代ビル別館１０階Ｃ号室,,27,128,5400032,,,,,,,2024-04-23,1,,,,,トウホウアサヒコクサイホウムジムショ,0
1623,6120101069462,新規,0,2024-04-23,2024-04-23,輝翔工業株式会社,,株式会社,大阪府,堺市中区,辻之３７９番地４０,00134515,27,142,5998245,,,,,,,2024-04-23,1,,,,,キショウコウギョウ,0
1638,6140001134166,新規,0,2024-04-23,2024-04-23,株式会社ノイチゴ,,株式会社,兵庫県,芦屋市,春日町１３番２８－３０８号,,28,206,6590021,,,,,,,2024-04-23,1,,,,,ノイチゴ,0
1640,6140003020463,新規,0,2024-04-23,2024-04-23,合同会社淡路観光,,合同会社,兵庫県,淡路市,大谷１０８２番地２,,28,226,6562224,,,,,,,2024-04-23,1,,,,,アワジカンコウ,0
1652,6180001161033,新規,0,2024-04-23,2024-04-23,朝陽株式会社,,株式会社,愛知県,名古屋市中川区,五月通１丁目２１番地の５,,23,110,4540812,,,,,,,2024-04-23,1,,,,,アサヒ,0
1657,6180003026663,新規,0,2024-04-23,2024-04-23,Ｃ＆Ｈ　Ｆａｒｍ　ａｎｄ　Ｔｒａｄｉｎｇ合同会社,,合同会社,愛知県,名古屋市緑区,鳴子町１丁目９６番地,,23,114,4580041,,,,,,,2024-04-23,1,,,,,シーアンドエイチファームアンドトレーディング,0
1661,6180301038550,新規,0,2024-04-23,2024-04-23,サノファンズ株式会社,,株式会社,愛知県,豊川市,御油町小山９番地３,,23,207,4410211,,,,,,,2024-04-23,1,,,,,サノファンズ,0
1662,6180301038567,新規,0,2024-04-23,2024-04-23,株式会社神正板金,,株式会社,愛知県,碧南市,神有町６丁目７２番地,,23,209,4470028,,,,,,,2024-04-23,1,,,,,カミショウバンキン,0
1663,6180303006092,新規,0,2024-04-23,2024-04-23,合同会社ＫＡＩ,,合同会社,愛知県,安城市,桜町７－２０グローリアス安城桜町第２－２０３,,23,212,4460041,,,,,,,2024-04-23,1,,,,,カイ,0
1667,6200003006324,新規,0,2024-04-23,2024-04-23,ＮＡＶＥＥＴＡトレーディング合同会社,,合同会社,岐阜県,羽島市,竹鼻町駒塚７３２番地１,00134524,21,209,5016234,,,,,,,2024-04-23,1,,,,,ナヴィータトレーディング,0
1669,6220001025951,新規,0,2024-04-23,2024-04-23,ＧＥＮＬＡＤＹ株式会社,,株式会社,石川県,輪島市,河井町４部９９番地１２,,17,204,9280001,,,,,,,2024-04-23,1,,,,,ジェンレディー,0
1671,6220005008837,新規,0,2024-04-23,2024-04-23,医療法人みのる会,,その他の設立登記法人,石川県,白山市,美川和波町カ１２８番地１,,17,210,9290231,,,,,,,2024-04-23,1,,,,,ミノルカイ,0
1672,6230001020308,新規,0,2024-04-23,2024-04-23,株式会社Ｋ２,,株式会社,富山県,富山市,豊若町１丁目１６番９号,,16,201,9318305,,,,,,,2024-04-23,1,,,,,ケーツー,0
1673,6230003002188,新規,0,2024-04-23,2024-04-23,合同会社ヤング不動産,,合同会社,富山県,富山市,高屋敷１４５番地１９,,16,201,9398036,,,,,,,2024-04-23,1,,,,,ヤングフドウサン,0
1674,6230005009388,新規,0,2024-04-23,2024-04-23,一般社団法人ＢｌｕｅＰｒｉｎｔ,,その他の設立登記法人,富山県,高岡市,野村１１９８番地６,,16,202,9330014,,,,,,,2024-04-23,1,,,,,ブループリント,0
1676,6240003006642,新規,0,2024-04-23,2024-04-23,合同会社品川会計,,合同会社,広島県,広島市中区,東白島町２１番７号,,34,101,7300004,,,,,,,2024-04-23,1,,,,,シナガワカイケイ,0
1725,6430001091634,新規,0,2024-04-23,2024-04-23,株式会社ＲｅＤＥＷ,,株式会社,北海道,札幌市中央区,北四条西４丁目１‐７ＭＭＳ札幌駅前ビル１階,,01,101,0600004,,,,,,,2024-04-23,1,,,,,リデュー,0
1726,6430001091642,新規,0,2024-04-23,2024-04-23,株式会社エムズ,,株式会社,北海道,勇払郡安平町,早来大町２１番地,,01,585,0591501,,,,,,,2024-04-23,1,,,,,エムズ,0
1731,6430003016250,新規,0,2024-04-23,2024-04-23,Ｇｒａｐｈｉｔｅ合同会社,,合同会社,北海道,札幌市中央区,南一条西２７丁目１番３５‐６０２号,,01,101,0640801,,,,,,,2024-04-23,1,,,,,グラファイト,0
1733,6450003002463,新規,0,2024-04-23,2024-04-23,日本リトリート合同会社,,合同会社,北海道,富良野市,山部北町１番６号,,01,229,0791562,,,,,,,2024-04-23,1,,,,,ニッポンリトリート,0
1734,6450003002471,新規,0,2024-04-23,2024-04-23,ミウラグリーン合同会社,,合同会社,北海道,上川郡美瑛町,憩が丘４番８号,,01,459,0710251,,,,,,,2024-04-23,1,,,,,ミウラグリーン,0
1742,6700150125041,新規,0,2024-04-23,2024-04-23,Ｎｉｎｇｂｏ　Ｅｈｏｍ　Ｔｅｃｈｎｏｌｏｇｙ　Ｄｅｖｅｌｏｐｍｅｎｔ　Ｃｏ．，Ｌｔｄ,,外国会社等,,,,,,,,ｘｉｎｇｙｅｙｉｌｕ，５ｈａｏ１ｚｈｕａｎｇ７ｌｏｕ７０１ｓｈｉ，Ｎｉｎｇｂｏ，ｂａｏｓｈｕｉｑｕ，Ｚｈｅｊｉａｎｇ,,,,,,2024-04-23,1,,,,,ニーンボーイーホーンコーアジーヨウシエンゴーンスー,0
1743,6700150125066,新規,0,2024-04-23,2024-04-23,ＺＥＵＳＣｏ．，Ｌｔｄ．,,外国会社等,,,,,,,,大韓民国京畿道華城市安寧南路１３２,,,,,,2024-04-23,1,,,,,ゼウス,0
1744,6700150125074,新規,0,2024-04-23,2024-04-23,ＥＺＲＡ　ＭＡＲＩＴＩＭＥ　Ｓ．Ａ．,,外国会社等,,,,,,,,Ｂａｌｂｏａ　Ａｖｅｎｕｅ，Ｐａｎａｍａ　Ｃｉｔｙ　Ｒｅｐ．ｏｆ　Ｐａｎａｍａ,,,,,,2024-04-23,1,,,,,エズラマリタイムソシエダアノニマ,0
1745,6700150125082,新規,0,2024-04-23,2024-04-23,ＡＣＣＵＲＯ　ＴＲＵＳＴＥＥＳ（ＪＥＲＳＥＹ）ＬＴＤ,,外国会社等,,,,,,,,Ｓｅｃｏｎｄ　Ｆｌｏｏｒ，Ｏｎｅ　Ｔｈｅ　Ｅｓｐｌａｎａｄｅ，Ｓｔ　Ｈｅｌｉｅｒ，Ｊｅｒｓｅｙ　ＪＥ２　３ＱＡ,,,,,,2024-04-23,1,,,,,アクロトラステイーズジヤージーリミテツド,0
1756,7010001244035,新規,0,2024-04-23,2024-04-23,株式会社ＮＡＴＵＲＥ,,株式会社,東京都,中央区,銀座１丁目２２番１１号銀座大竹ビジデンス２階,,13,102,1040061,,,,,,,2024-04-23,1,,,,,ナトゥーラ,0
1757,7010001244233,新規,0,2024-04-23,2024-04-23,ＫＬＡＶＩＥＲ株式会社,,株式会社,東京都,中央区,銀座１丁目１２－４Ｎ＆ＥＢＬＤ．７階,,13,102,1040061,,,,,,,2024-04-23,1,,,,,クレイヴィア,0
1758,7010001244241,新規,0,2024-04-23,2024-04-23,株式会社五十嵐工業,,株式会社,東京都,中央区,日本橋兜町１７番１号ロイヤルプラザ７０６,,13,102,1030026,,,,,,,2024-04-23,1,,,,,イガラシコウギョウ,0
1759,7010001244266,新規,0,2024-04-23,2024-04-23,ＬＥＡＳＴ株式会社,,株式会社,東京都,中央区,銀座１丁目１２番４号７階,,13,102,1040061,,,,,,,2024-04-23,1,,,,,リースト,0
1761,7010003043550,新規,0,2024-04-23,2024-04-23,ＩＮＦ蓄電所１号合同会社,,合同会社,東京都,千代田区,富士見２丁目１０番２号,,13,101,1020071,,,,,,,2024-04-23,1,,,,,アイエヌエフチクデンショイチゴウ,0
1762,7010003043559,新規,0,2024-04-23,2024-04-23,合同会社ＡＬＥＲＯ８２,,合同会社,東京都,千代田区,神田錦町１丁目２１番１号,,13,101,1010054,,,,,,,2024-04-23,1,,,,,アレーロエイティーツー,0
1768,7010401182009,新規,0,2024-04-23,2024-04-23,グリーン株式会社,,株式会社,東京都,港区,港南２丁目１６番２号太陽生命品川ビル２８階,,13,103,1080075,,,,,,,2024-04-23,1,,,,,グリーン,0
1770,7010403032467,新規,0,2024-04-23,2024-04-23,ＦＤＡＮＣＯＮＩＡ　ＪＡＰＡＮ合同会社,,合同会社,東京都,港区,芝２丁目１０番６号ＥＡＲＴＨＳＨＩＢＡＢＬＤ．３Ｆイントリム内,,13,103,1050014,,,,,,,2024-04-23,1,,,,,エフダンコニア,0
1771,7010403032475,新規,0,2024-04-23,2024-04-23,合同会社Ｅｘｂｕｒｙ,,合同会社,東京都,港区,虎ノ門５丁目１番４号,,13,103,1050001,,,,,,,2024-04-23,1,,,,,エクスビュリ,0
1782,7010701045880,新規,0,2024-04-23,2024-04-23,ＭＯＶＥＡＣＴＩＯＮ株式会社,,株式会社,東京都,品川区,東大井５丁目１９番９号,,13,109,1400011,,,,,,,2024-04-23,1,,,,,ムーブアクション,0
1787,7010901055119,新規,0,2024-04-23,2024-04-23,株式会社Ｋ・ＵＰ,,株式会社,東京都,世田谷区,駒沢１丁目６番１７号,,13,112,1540012,,,,,,,2024-04-23,1,,,,,ケイアップ,0
1791,7011001161534,新規,0,2024-04-23,2024-04-23,株式会社尾高,00134526,株式会社,東京都,渋谷区,神宮前３丁目１３番１９－３０６号,,13,113,1500001,,,,,,,2024-04-23,1,,,,,オダカ,0
1792,7011001161542,新規,0,2024-04-23,2024-04-23,ＭａｔＣｈａｔ株式会社,,株式会社,東京都,渋谷区,道玄坂１丁目１０番８号渋谷道玄坂東急ビル２Ｆ－Ｃ,,13,113,1500043,,,,,,,2024-04-23,1,,,,,マッチャット,0
1802,7011101107073,新規,0,2024-04-23,2024-04-23,株式会社昼ＪＯＢ,,株式会社,東京都,新宿区,新宿４丁目３番１５号レイフラット新宿Ｂ棟３Ｆ,,13,104,1600022,,,,,,,2024-04-23,1,,,,,ヒルジョブ,0
1803,7011101107081,新規,0,2024-04-23,2024-04-23,一鳴株式会社,,株式会社,東京都,新宿区,新宿３丁目１２番４号新宿Ｎタウンプラザ３０９号,,13,104,1600022,,,,,,,2024-04-23,1,,,,,イチメイ,0
1804,7011103014350,新規,0,2024-04-23,2024-04-23,東一合同会社,,合同会社,東京都,新宿区,西新宿６丁目１２－７ハローオフィス西新宿１階,,13,104,1600023,,,,,,,2024-04-23,1,,,,,トウイチ,0
1810,7011403004349,新規,0,2024-04-23,2024-04-23,響奏合同会社,,合同会社,東京都,板橋区,志村２丁目１５番１９号,,13,119,1740056,,,,,,,2024-04-23,1,,,,,キョウソウ,0
1811,7011501030528,新規,0,2024-04-23,2024-04-23,株式会社ラプラス,,株式会社,東京都,北区,西が丘１丁目４３番１号,,13,117,1150056,,,,,,,2024-04-23,1,,,,,ラプラス,0
1812,7011501030560,新規,0,2024-04-23,2024-04-23,日本佐竹株式会社,,株式会社,東京都,荒川区,西尾久７丁目１３番８号,,13,118,1160011,,,,,,,2024-04-23,1,,,,,ニホンサタケ,0
1816,7011601027705,新規,0,2024-04-23,2024-04-23,株式会社フォックス,,株式会社,東京都,練馬区,関町北３丁目４３番１３号,,13,120,1770051,,,,,,,2024-04-23,1,,,,,フォックス,0
1818,7011701027217,新規,0,2024-04-23,2024-04-23,ＨＣＨワールドスポーツ株式会社,,株式会社,東京都,江戸川区,松江１丁目１７番１３号,,13,123,1320025,,,,,,,2024-04-23,1,,,,,エイチシーエイチワールドスポーツ,0
1830,7020001156824,新規,0,2024-04-23,2024-04-23,株式会社ＳＧコーポレーション,,株式会社,神奈川県,横浜市神奈川区,西神奈川２丁目２番地１,,14,102,2210822,,,,,,,2024-04-23,1,,,,,エスジーコーポレーション,0
1834,7021001082060,新規,0,2024-04-23,2024-04-23,ＳＧアセット株式会社,,株式会社,神奈川県,藤沢市,辻堂２丁目１３番２６号,,14,205,2510047,,,,,,,2024-04-23,1,,,,,エスジーアセット,0
1836,7021003014417,新規,0,2024-04-23,2024-04-23,ＡＩＤＨＡ　ＴＲＡＤＩＮＧ合同会社,,合同会社,神奈川県,藤沢市,遠藤２５０９－５,,14,205,2520816,,,,,,,2024-04-23,1,,,,,アイダトレーディング,0
1839,7021005013086,新規,0,2024-04-23,2024-04-23,ＮＰＯ法人葉山ビーチレスリングクラブ,,その他の設立登記法人,神奈川県,三浦郡葉山町,一色１８９９番地ラヴィー葉山Ａ号,,14,301,2400111,,,,,,,2024-04-23,1,,,,,ハヤマビーチレスリングクラブ,0
1846,7030001159966,新規,0,2024-04-23,2024-04-23,株式会社乙羽工業,,株式会社,埼玉県,三郷市,半田１６０番地１,,11,237,3410012,,,,,,,2024-04-23,1,,,,,オトワコウギョウ,0
1852,7030003024152,新規,0,2024-04-23,2024-04-23,装建工業合同会社,,合同会社,埼玉県,三郷市,栄４丁目１６０番地２,,11,237,3410043,,,,,,,2024-04-23,1,,,,,ソウケンコウギョウ,0
1858,7040001133243,新規,0,2024-04-23,2024-04-23,株式会社サカキ,,株式会社,千葉県,千葉市若葉区,加曽利町１８００番地９６,,12,104,2640017,,,,,,,2024-04-23,1,,,,,サカキ,0
1859,7040001133276,新規,0,2024-04-23,2024-04-23,株式会社ＩＰＰＯ,,株式会社,千葉県,流山市,江戸川台西２丁目１４１番地ロータリービル２階,,12,220,2700115,,,,,,,2024-04-23,1,,,,,イッポ,0
1871,7060005010197,新規,0,2024-04-23,2024-04-23,一般社団法人トチギスタートアップス,,その他の設立登記法人,栃木県,宇都宮市,東宿郷４丁目１－１１大塚宇都宮ビル６Ｆ,,09,201,3210953,,,,,,,2024-04-23,1,,,,,トチギスタートアップス,0
1883,7080401027124,新規,0,2024-04-23,2024-04-23,株式会社Ｒｏｍａｘ,,株式会社,静岡県,浜松市中央区,和田町２７番地,,22,138,4350016,,,,,,,2024-04-23,1,,,,,ロマックス,0
1885,7080405007634,新規,0,2024-04-23,2024-04-23,農事組合法人浜松ファーム,,その他の設立登記法人,静岡県,浜松市中央区,上新屋町２４６番地８,,22,138,4350053,,,,,,,2024-04-23,1,,,,,ハママツファーム,0
1900,7120001264138,新規,0,2024-04-23,2024-04-23,株式会社ＢＷコンサルティング,,株式会社,大阪府,大阪市天王寺区,堂ケ芝２丁目１２番１７－４０２,,27,109,5430033,,,,,,,2024-04-23,1,,,,,ビーダブリューコンサルティング,0
1901,7120001264245,新規,0,2024-04-23,2024-04-23,アイオイ株式会社,,株式会社,大阪府,大阪市浪速区,日本橋３丁目１番４号,,27,111,5560005,,,,,,,2024-04-23,1,,,,,アイオイ,0
1902,7120001264261,新規,0,2024-04-23,2024-04-23,株式会社辰巳興業,,株式会社,大阪府,大阪市西淀川区,御幣島２丁目１０番１０号,,27,113,5550012,,,,,,,2024-04-23,1,,,,,タツミコウギョウ,0
1905,7120003026370,新規,0,2024-04-23,2024-04-23,あす合同会社,,合同会社,大阪府,大阪市旭区,中宮２丁目１０－２１,,27,117,5350003,,,,,,,2024-04-23,1,,,,,アス,0
1907,7120101069445,新規,0,2024-04-23,2024-04-23,株式会社ＵＢ　ＰＬＵＳ,,株式会社,大阪府,堺市東区,引野町１丁９５番地１０,,27,143,5998104,,,,,,,2024-04-23,1,,,,,ユービープラス,0
1908,7120101069461,新規,0,2024-04-23,2024-04-23,株式会社マル成食品,,株式会社,大阪府,羽曳野市,野４３８番地７,,27,222,5830884,,,,,,,2024-04-23,1,,,,,マルセイショクヒン,0
1921,7140001134149,新規,0,2024-04-23,2024-04-23,株式会社麻布十番,,株式会社,兵庫県,淡路市,志筑２３３２番地８、２０２号,,28,226,6562131,,,,,,,2024-04-23,1,,,,,アザブジュウバン,0
1922,7140001134157,新規,0,2024-04-23,2024-04-23,株式会社アドバンスト,,株式会社,兵庫県,明石市,大久保町西島８３９番地の１,,28,203,6740065,,,,,,,2024-04-23,1,,,,,アドバンスト,0
1923,7140001134165,新規,0,2024-04-23,2024-04-23,株式会社ＬｉＤａ,,株式会社,兵庫県,神戸市中央区,吾妻通５丁目４番８号新井マンション１階東号室,,28,110,6510076,,,,,,,2024-04-23,1,,,,,リダ,0
1926,7140003020462,新規,0,2024-04-23,2024-04-23,ＭＩＺＵＩ合同会社,,合同会社,兵庫県,宝塚市,長寿ガ丘２１番１２号,,28,214,6650001,,,,,,,2024-04-23,1,,,,,ミズイ,0
1927,7160001025858,新規,0,2024-04-23,2024-04-23,ＮＮＮ株式会社,,株式会社,滋賀県,長浜市,鍛冶屋町６１２番地,,25,203,5260204,,,,,,,2024-04-23,1,,,,,エヌエヌエヌ,0
1939,7180301038558,新規,0,2024-04-23,2024-04-23,株式会社ゲンヤ,,株式会社,愛知県,豊橋市,二川町字南裏４番地３,,23,201,4413152,,,,,,,2024-04-23,1,,,,,ゲンヤ,0
1940,7180301038574,新規,0,2024-04-23,2024-04-23,株式会社Ｆｒａｇｒａｎｔ　Ｗｉｎｄ,,株式会社,愛知県,安城市,三河安城本町２丁目１番地６レゾンシティ三河安城ザ・レジデンス１００７,,23,212,4460059,,,,,,,2024-04-23,1,,,,,フレグラントウィンド,0
1941,7180303006091,新規,0,2024-04-23,2024-04-23,合同会社ＡＬＰＨＡ　ｓｐｏｒｔｓ　ａｎｄ　ａｃａｄｅｍｉａ,,合同会社,愛知県,安城市,篠目町井原３番地２,,23,212,4460073,,,,,,,2024-04-23,1,,,,,アルファスポーツアンドアカデミア,0
1943,7190003004659,新規,0,2024-04-23,2024-04-23,合同会社ソンリサ・イズム,,合同会社,三重県,津市,幸町１８‐２２Ｔ‐１０１,,24,201,5140835,,,,,,,2024-04-23,1,,,,,ソンリサイズム,0
1947,7200003006323,新規,0,2024-04-23,2024-04-23,合同会社結び乃,,合同会社,岐阜県,高山市,下三之町２３番地,,21,203,5060841,,,,,,,2024-04-23,1,,,,,ムスビノノ,0
1952,7220001025959,新規,0,2024-04-23,2024-04-23,株式会社前川商店,,株式会社,石川県,金沢市,木越３丁目６４番地１,,17,201,9200202,,,,,,,2024-04-23,1,,,,,マエカワショウテン,0
1953,7220005008836,新規,0,2024-04-23,2024-04-23,医療法人社団和永会,,その他の設立登記法人,石川県,金沢市,小坂町南６７５番地,,17,201,9200811,,,,,,,2024-04-23,1,,,,,ワエイカイ,0
1955,7230001020315,新規,0,2024-04-23,2024-04-23,Ｌ＆Ｃ　ＬＩＦＥ株式会社,,株式会社,富山県,富山市,上本町７－６,,16,201,9300057,,,,,,,2024-04-23,1,,,,,エルアンドシーライフ,0
1960,7240001063107,新規,0,2024-04-23,2024-04-23,ライトローズ株式会社,,株式会社,広島県,福山市,沼隈町大字草深２７８５番地６７,,34,207,7200311,,,,,,,2024-04-23,1,,,,,ライトローズ,0
1961,7240001063115,新規,0,2024-04-23,2024-04-23,スリーアップ株式会社,,株式会社,広島県,広島市東区,光町６番１号,,34,102,7320000,,,,,,,2024-04-23,1,,,,,スリーアップ,0
1962,7240001063123,新規,0,2024-04-23,2024-04-23,株式会社Ｌｕｓｔ,,株式会社,広島県,広島市東区,中山上１丁目９番１－１０２号,,34,102,7320027,,,,,,,2024-04-23,1,,,,,ルスト,0
1963,7240003006641,新規,0,2024-04-23,2024-04-23,合同会社ＢＯＭＳ,,合同会社,広島県,安芸郡府中町,山田２丁目１１番３８－２号２０３,,34,302,7350004,,,,,,,2024-04-23,1,,,,,ボムズ,0
1978,7290001105457,新規,0,2024-04-23,2024-04-23,株式会社ＮＯＴ．,,株式会社,福岡県,福岡市中央区,天神１丁目９－１７福岡天神フコク生命ビル１５階,,40,133,8100001,,,,,,,2024-04-23,1,,,,,ノット,0
1985,7290003015167,新規,0,2024-04-23,2024-04-23,合同会社エーフォー,,合同会社,福岡県,久留米市,東町４番地３エスポワール久留米２０２号,,40,203,8300032,,,,,,,2024-04-23,1,,,,,エーフォー,0
1988,7290803004699,新規,0,2024-04-23,2024-04-23,合同会社牧山商事,,合同会社,福岡県,北九州市小倉北区,中井浜４番２９号,,40,106,8030804,,,,,,,2024-04-23,1,,,,,マキヤマショウジ,0
2000,7360001033551,新規,0,2024-04-23,2024-04-23,株式会社Ｇｒａｔｅｆｕｌ,,株式会社,沖縄県,石垣市,字平得１０８３番地,,47,207,9070003,,,,,,,2024-04-23,1,,,,,グレートフル,0
2002,7360003013923,新規,0,2024-04-23,2024-04-23,合同会社ＵＭＣ,,合同会社,沖縄県,糸満市,字潮平６８番地の１０,,47,210,9010302,,,,,,,2024-04-23,1,,,,,ユーエムシー,0
2003,7360005007031,新規,0,2024-04-23,2024-04-23,一般社団法人沖縄ステーキ協会,,その他の設立登記法人,沖縄県,うるま市,字州崎８番地１２,,47,213,9042234,,,,,,,2024-04-23,1,,,,,オキナワステーキキョウカイ,0
2006,7370003006579,新規,0,2024-04-23,2024-04-23,Ｂｅｌｅｅｐ合同会社,,合同会社,宮城県,仙台市太白区,越路１３－１５ロータス越路１０２,,04,104,9820842,,,,,,,2024-04-23,1,,,,,ビーリープ,0
2016,7390003002238,新規,0,2024-04-23,2024-04-23,日本国不動産合同会社,,合同会社,山形県,鶴岡市,末広町５番２２‐２０１号,,06,203,9970015,,,,,,,2024-04-23,1,,,,,ニッポンコクフドウサン,0
2022,7420003002911,新規,0,2024-04-23,2024-04-23,合同会社クラウド９,,合同会社,青森県,三沢市,岡三沢８丁目１２０番地１０号リアンＨ（Ｒ５３６）,,02,207,0330021,,,,,,,2024-04-23,1,,,,,クラウドナイン,0
2025,7430001091633,新規,0,2024-04-23,2024-04-23,株式会社ＲｅＰｌａｙ,,株式会社,北海道,札幌市中央区,南六条西３丁目１１番３号セントラルビル３Ｆ,,01,101,0640806,,,,,,,2024-04-23,1,,,,,リプレイ,0
2026,7430001091641,新規,0,2024-04-23,2024-04-23,株式会社ＴＷＯ‐ＨＡＬＦ,,株式会社,北海道,札幌市東区,北三十四条東９丁目１番１号,,01,103,0070834,,,,,,,2024-04-23,1,,,,,トゥーハーフ,0
2032,7440001009428,新規,0,2024-04-23,2024-04-23,株式会社ドリームプラス,,株式会社,北海道,函館市,石川町４５０番地２１,,01,202,0410802,,,,,,,2024-04-23,1,,,,,ドリームプラス,0
2042,7700150125040,新規,0,2024-04-23,2024-04-23,Ｈａｎｇｚｈｏｕ　Ｘｉｎｋｉｎｇ　Ｔｒａｄｉｎｇ　Ｃｏ．，Ｌｔｄ,,外国会社等,,,,,,,,ｓｈａｎｇｃｈｅｎｇｑｕ　ｘｉｎｔａｎｇｌｕ３６、３８、４６、５０、５６、５８、６６ｈａｏ　ｇｕａｎｇｘｉｎｄａｓｈａ１７ｃｅｎｇ１７０７　Ｈａｎｇｚｈｏｕ　Ｚｈｅｊｉａｎｇ,,,,,,2024-04-23,1,,,,,ハーンジヨウシンカイマオイーヨウシエンゴーンスー,0
2043,7700150125065,新規,0,2024-04-23,2024-04-23,長富國際　有限公司,,外国会社等,,,,,,,,サモア独立国アピア市バイア通り　ロテマウセンタービル２階,,,,,,2024-04-23,1,,,,,ナガトミコクサイユウゲンコウシ,0
2044,7700150125073,新規,0,2024-04-23,2024-04-23,Ｈａｐｐｙｓｅｅｄ　Ｉｎｄｉａ　Ｐｒｉｖａｔｅ　Ｌｔｄ．,,外国会社等,,,,,,,,Ｓｉｄｄｈａｒｔｈ　ｔｏｗｅｒｓ，Ｔｏｗｅｒ　１，ｏｐｐ．ｔｏ　Ｍａｓｋａｗａｌａ　＆　Ｃｏ，Ｋｏｔｈｒｕｄ，Ｐｕｎｅ，Ｍａｈａｒａｓｈｔｒａ　Ｉｎｄｉａ,,,,,,2024-04-23,1,,,,,ハツピーシードインデイアプライベートリミテツド,0
2045,7700150125081,新規,0,2024-04-23,2024-04-23,ＰＴ　Ｂａｎｋ　Ｄａｎａｍｏｎ　Ｉｎｄｏｎｅｓｉａ　Ｔｂｋ．,,外国会社等,,,,,,,,Ｍｅｎａｒａ　Ｂａｎｋ　Ｄａｎａｍｏｎ，Ｊｌ．ＨＲ　Ｒａｓｕｎａ　Ｓａｉｄ　Ｂｌｏｋ　Ｃ　Ｎｏ．１０，ｋａｒｅｔ，Ｓｅｔｉａｂｕｄｉ，Ｋｏｔａ　Ａｄ,,,,,,2024-04-23,1,,,,,ピーテイーバンクダナモンインドネシアテイービーケー,0
2056,8010001244158,新規,0,2024-04-23,2024-04-23,株式会社トニーコンサルティング,,株式会社,東京都,千代田区,丸の内３丁目２番２号丸の内ビル２階,,13,101,1000005,,,,,,,2024-04-23,1,,,,,トニーコンサルティング,0
2057,8010001244224,新規,0,2024-04-23,2024-04-23,株式会社グリーグローブ,,株式会社,東京都,文京区,本郷２丁目２２番１２号本郷ボックスツリー４Ｆ,,13,105,1130033,,,,,,,2024-04-23,1,,,,,グリーグローブ,0
2059,8010003043558,新規,0,2024-04-23,2024-04-23,合同会社ＲＥＣＦ電子募集１号,,合同会社,東京都,千代田区,丸の内２丁目２番１号岸本ビル１０階,,13,101,1000005,,,,,,,2024-04-23,1,,,,,アールイーシーエフデンシボシュウイチゴウ,0
2060,8010003043574,新規,0,2024-04-23,2024-04-23,合同会社ＲＥＮＲｉ,,合同会社,東京都,中央区,日本橋富沢町３－６,,13,102,1030006,,,,,,,2024-04-23,1,,,,,レンリ,0
2065,8010101016102,新規,0,2024-04-23,2024-04-23,株式会社Ｋ．ＰＬＵＳ,,株式会社,東京都,八王子市,中野上町３丁目３４番１２号,,13,201,1920041,,,,,,,2024-04-23,1,,,,,ケープラス,0
2066,8010105002263,新規,0,2024-04-23,2024-04-23,特定非営利活動法人全国自立生活センター協議会,,その他の設立登記法人,東京都,八王子市,明神町４丁目１１番地１１号シルクヒルズ大塚１階,,13,201,1920046,,,,,,,2024-04-23,1,,,,,ゼンコクジリツセイカツセンターキョウギカイ,0
2073,8010401182024,新規,0,2024-04-23,2024-04-23,Ｂ　ｒｅｖｉｖｅ株式会社,,株式会社,東京都,港区,西新橋１丁目６番１２号６０２号室,,13,103,1050003,,,,,,,2024-04-23,1,,,,,ビーリバイヴ,0
2075,8010405023182,新規,0,2024-04-23,2024-04-23,弁護士法人ＪＩＮ,,その他の設立登記法人,東京都,港区,六本木６丁目１０番１号六本木ヒルズ森タワー１６階,,13,103,1060032,,,,,,,2024-04-23,1,,,,,ジン,0
2079,8010903008981,新規,0,2024-04-23,2024-04-23,合同会社スノーオシュ,,合同会社,東京都,世田谷区,用賀２丁目３１－１０イイダアネックス１０２号室,,13,112,1580097,,,,,,,2024-04-23,1,,,,,スノーオシュ,0
2091,8011003018946,新規,0,2024-04-23,2024-04-23,合同会社ＷｈｉｔｅＬＡＬＡ,,合同会社,東京都,渋谷区,神宮前５丁目３６番６号－４０２号パークアクシス表参道レジデンス,,13,113,1500001,,,,,,,2024-04-23,1,,,,,ホワイトララ,0
2092,8011003018954,新規,0,2024-04-23,2024-04-23,合同会社ＡＳＯＢＯＡＲＤ,,合同会社,東京都,渋谷区,道玄坂１丁目１０番８号渋谷道玄坂東急ビル２Ｆ－Ｃ,,13,113,1500043,,,,,,,2024-04-23,1,,,,,アソボード,0
2096,8011101107089,新規,0,2024-04-23,2024-04-23,株式会社サンリバ,,株式会社,東京都,新宿区,西新宿３丁目３番１３号西新宿水間ビル２Ｆ,,13,104,1600023,,,,,,,2024-04-23,1,,,,,サンリバ,0
2099,8011201025414,新規,0,2024-04-23,2024-04-23,株式会社ＤｉＡ,,株式会社,東京都,中野区,本町３丁目１４番２２号１階,,13,114,1640012,,,,,,,2024-04-23,1,,,,,ディーアイーエー,0
2104,8011403004356,新規,0,2024-04-23,2024-04-23,合同会社Ｌｉｎｋ,,合同会社,東京都,板橋区,大山東町５９－８ドルメン大山４０６,,13,119,1730014,,,,,,,2024-04-23,1,,,,,リンク,0
2107,8011601027704,新規,0,2024-04-23,2024-04-23,ティービー株式会社,,株式会社,東京都,練馬区,石神井町２丁目３４番１９号,,13,120,1770041,,,,,,,2024-04-23,1,,,,,ティービー,0
2117,8011801044128,新規,0,2024-04-23,2024-04-23,タジマアルミ株式会社,,株式会社,東京都,足立区,南花畑１丁目８番１２号－１０２号,,13,121,1210062,,,,,,,2024-04-23,1,,,,,タジマアルミ,0
2118,8011803006200,新規,0,2024-04-23,2024-04-23,前や合同会社,,合同会社,東京都,足立区,佐野２丁目６番１８号アーク佐野Ｂ２０６,,13,121,1210053,,,,,,,2024-04-23,1,,,,,マエヤ,0
2120,8012401041779,新規,0,2024-04-23,2024-04-23,オーロックス株式会社,,株式会社,東京都,三鷹市,下連雀６丁目１－３３,,13,204,1810013,,,,,,,2024-04-23,1,,,,,オーロックス,0
2123,8012803003369,新規,0,2024-04-23,2024-04-23,桃之夭夭庵合同会社,,合同会社,東京都,昭島市,上川原町１丁目９番３－２１７号,,13,207,1960011,,,,,,,2024-04-23,1,,,,,モモノヨウヨウアン,0
2128,8020001156765,新規,0,2024-04-23,2024-04-23,株式会社ヴァーブ一級建築士事務所,,株式会社,神奈川県,横浜市神奈川区,平川町５番地４ライオンズマンション東白楽３０１号,,14,102,2210812,,,,,,,2024-04-23,1,,,,,ヴァーブイッキュウケンチクシジムショ,0
2129,8020001156807,新規,0,2024-04-23,2024-04-23,株式会社ａｖａｎｔｅ,,株式会社,神奈川県,川崎市幸区,小倉１丁目１０番１４－７０３号,,14,132,2120054,,,,,,,2024-04-23,1,,,,,アバンテ,0
2130,8020001156939,新規,0,2024-04-23,2024-04-23,株式会社ティーアールマーケットプレイス,,株式会社,神奈川県,川崎市高津区,蟹ケ谷６３番地４３,,14,134,2130025,,,,,,,2024-04-23,1,,,,,ティーアールマーケットプレイス,0
2139,8020003025794,新規,0,2024-04-23,2024-04-23,エムワイテクノロジー合同会社,,合同会社,神奈川県,川崎市宮前区,平５丁目７番３１号,,14,136,2160022,,,,,,,2024-04-23,1,,,,,エムワイテクノロジー,0
2140,8021001081961,新規,0,2024-04-23,2024-04-23,株式会社ＰＢ　ｓｅｃｏｎｄ,,株式会社,神奈川県,足柄上郡開成町,延沢３７２番地３,,14,366,2580026,,,,,,,2024-04-23,1,,,,,ピービーセカンド,0
2141,8021001082027,新規,0,2024-04-23,2024-04-23,株式会社ＣＬＥＡ,,株式会社,神奈川県,相模原市中央区,矢部４丁目５番１８号アベリア２１０,,14,152,2520232,,,,,,,2024-04-23,1,,,,,クレア,0
2151,8030001159949,新規,0,2024-04-23,2024-04-23,株式会社小竹商会,,株式会社,埼玉県,春日部市,上蛭田２６０番地１,,11,214,3440046,,,,,,,2024-04-23,1,,,,,コタケショウカイ,0
2152,8030001159965,新規,0,2024-04-23,2024-04-23,株式会社リフォームのデザイン,,株式会社,埼玉県,さいたま市大宮区,堀の内町３丁目３５番地３,,11,103,3300804,,,,,,,2024-04-23,1,,,,,リフォームノデザイン,0
2153,8030001159973,新規,0,2024-04-23,2024-04-23,株式会社岡田興業,,株式会社,埼玉県,さいたま市岩槻区,南平野４丁目１２番地３５,,11,110,3390051,,,,,,,2024-04-23,1,,,,,オカダコウギョウ,0
2154,8030001160015,新規,0,2024-04-23,2024-04-23,株式会社ＱｕｉｃｋＣＥＰ,,株式会社,埼玉県,さいたま市中央区,鈴谷５丁目６－２６－１,,11,105,3380013,,,,,,,2024-04-23,1,,,,,クイックセップ,0
2159,8030003024143,新規,0,2024-04-23,2024-04-23,合同会社パンダ貿易,,合同会社,埼玉県,蕨市,中央２丁目３番４号,,11,223,3350004,,,,,,,2024-04-23,1,,,,,パンダボウエキ,0
2160,8030003024151,新規,0,2024-04-23,2024-04-23,ＮＥＸＵＳ合同会社,,合同会社,埼玉県,志木市,柏町４丁目１番２５－３０３号,,11,228,3530007,,,,,,,2024-04-23,1,,,,,ネクサス,0
2163,8040001133275,新規,0,2024-04-23,2024-04-23,株式会社翔英,,株式会社,千葉県,市原市,加茂２丁目１番地１２,,12,219,2900025,,,,,,,2024-04-23,1,,,,,ショウエイ,0
2164,8040001133291,新規,0,2024-04-23,2024-04-23,株式会社Ｓ‐ＫＡＮ,,株式会社,千葉県,船橋市,湊町２丁目１３番１１－８０１号,,12,204,2730011,,,,,,,2024-04-23,1,,,,,エスカン,0
2170,8040003024836,新規,0,2024-04-23,2024-04-23,合同会社ＴＯＳＳ,,合同会社,千葉県,柏市,篠籠田１４３５番地２,,12,217,2770862,,,,,,,2024-04-23,1,,,,,トス,0
2171,8040003024860,新規,0,2024-04-23,2024-04-23,Ｃｙｐｒｅｓｓ　Ｓｔｒａｔｅｇｙ＆Ｐａｒｔｎｅｒｓ合同会社,,合同会社,千葉県,船橋市,本町６丁目１８番１９号第３山中ビル４０１号室,,12,204,2730005,,,,,,,2024-04-23,1,,,,,サイプレスストラテジーアンドパートナーズ,0
2183,8070001041665,新規,0,2024-04-23,2024-04-23,株式会社Ｂｏｒｅａｓ　Ｊａｐａｎ,,株式会社,群馬県,甘楽郡甘楽町,大字秋畑６０３番地,,10,384,3702204,,,,,,,2024-04-23,1,,,,,ボレアスジャパン,0
2196,8100001037387,新規,0,2024-04-23,2024-04-23,株式会社八千穂いで牧場,,株式会社,長野県,南佐久郡佐久穂町,大字千代里５０８４番地１６５,,20,309,3840703,,,,,,,2024-04-23,1,,,,,ヤチホイデボクジョウ,0
2197,8100001037412,新規,0,2024-04-23,2024-04-23,株式会社島田商会,,株式会社,長野県,長野市,大字上駒沢３０１番地１６,,20,201,3810082,,,,,,,2024-04-23,1,,,,,シマダショウカイ,0
2199,8100003007504,新規,0,2024-04-23,2024-04-23,Ｅｘｏｔｉｃ合同会社,,合同会社,長野県,北佐久郡軽井沢町,軽井沢７４６－１,,20,321,3890103,,,,,,,2024-04-23,1,,,,,エキゾチック,0
2220,8120001264236,新規,0,2024-04-23,2024-04-23,株式会社ＴＡＨＡ　ＧＲＯＵＰ,,株式会社,大阪府,大阪市生野区,小路３丁目１３番５号グランソシエ小路、店舗Ｂ,,27,116,5440002,,,,,,,2024-04-23,1,,,,,タハグループ,0
2221,8120001264285,新規,0,2024-04-23,2024-04-23,株式会社Ａ＆Ｔアドバイザーズ,,株式会社,大阪府,大阪市中央区,南本町４丁目５番７号,,27,128,5410054,,,,,,,2024-04-23,1,,,,,エーアンドティーアドバイザーズ,0
2229,8120101069469,新規,0,2024-04-23,2024-04-23,株式会社ＡＤＭＯＲＥ,,株式会社,大阪府,和泉市,上町４９番１０号,,27,219,5940002,,,,,,,2024-04-23,1,,,,,アドモア,0
2233,8130001076630,新規,0,2024-04-23,2024-04-23,株式会社ｍｅｍｂｅｒ’ｓ　Ｏｎｌｙ,,株式会社,京都府,京都市伏見区,下鳥羽長田町１３５番地,,26,109,6128471,,,,,,,2024-04-23,1,,,,,メンバーズオンリー,0
2234,8130001076894,新規,0,2024-04-23,2024-04-23,株式会社和寂,,株式会社,京都府,京都市右京区,太秦安井西裏町５－３,,26,108,6168065,,,,,,,2024-04-23,1,,,,,ワノサビ,0
2235,8130001076903,新規,0,2024-04-23,2024-04-23,株式会社水陽,,株式会社,京都府,京丹後市,網野町小浜２６番地の６,,26,212,6293113,,,,,,,2024-04-23,1,,,,,スイヨウ,0
2240,8140001134164,新規,0,2024-04-23,2024-04-23,富星株式会社,,株式会社,兵庫県,神戸市東灘区,向洋町中１丁目１７,,28,101,6580032,,,,,,,2024-04-23,1,,,,,フセイ,0
2244,8140005027059,新規,0,2024-04-23,2024-04-23,一般社団法人ｉコミュニティデザインラボ,,その他の設立登記法人,兵庫県,加西市,下宮木町２０７番地の１,,28,220,6752105,,,,,,,2024-04-23,1,,,,,アイコミュニティデザインラボ,0
2247,8150003003234,新規,0,2024-04-23,2024-04-23,合同会社Ｇｒａｖｉｔｙ‐Ｌｉｎｅ,,合同会社,奈良県,奈良市,大宮町４丁目２７５番地の１森村第３ビル４０１号,,29,201,6308115,,,,,,,2024-04-23,1,,,,,グラビティライン,0
2259,8180001161114,新規,0,2024-04-23,2024-04-23,株式会社ＫＭ　Ｄａｒｇｅｎｔ,,株式会社,愛知県,名古屋市中区,丸の内１丁目９番２７号,,23,106,4600002,,,,,,,2024-04-23,1,,,,,ケイエムダジャン,0
2266,8180003026661,新規,0,2024-04-23,2024-04-23,ＭＴＭ　Ｃａｒ　Ｅｘｐｅｒｔ合同会社,,合同会社,愛知県,名古屋市守山区,本地が丘１１０１グリーンコーポ白山１０６,,23,113,4630031,,,,,,,2024-04-23,1,,,,,エムティーエムカーエクスパート,0
2269,8180301038557,新規,0,2024-04-23,2024-04-23,ＹＡＳＬＩＭＡ株式会社,,株式会社,愛知県,岡崎市,渡町字能光前４８番地２アネックス渡１０２,,23,202,4440933,,,,,,,2024-04-23,1,,,,,ヤスリマ,0
2270,8180301038565,新規,0,2024-04-23,2024-04-23,株式会社ブルースタイル,,株式会社,愛知県,みよし市,莇生町藤塚６番地１７０,,23,236,4700206,,,,,,,2024-04-23,1,,,,,ブルースタイル,0
2273,8190003004658,新規,0,2024-04-23,2024-04-23,合同会社Ｎワールド,,合同会社,三重県,亀山市,川崎町４７６５番地３,,24,210,5190211,,,,,,,2024-04-23,1,,,,,エヌワールド,0
2277,8220001025958,新規,0,2024-04-23,2024-04-23,セカンドライフ株式会社,,株式会社,石川県,金沢市,割出町６３８番地３,,17,201,9200062,,,,,,,2024-04-23,1,,,,,セカンドライフ,0
2278,8220005008835,新規,0,2024-04-23,2024-04-23,医療法人わせだ,,その他の設立登記法人,石川県,金沢市,駅西本町２丁目５番２０号,,17,201,9200025,,,,,,,2024-04-23,1,,,,,ワセダ,0
2280,8230001020314,新規,0,2024-04-23,2024-04-23,株式会社サンテン・コーポレーション２,,株式会社,富山県,高岡市,東上関３４３番地１,,16,202,9330878,,,,,,,2024-04-23,1,,,,,サンテンコーポレーションツー,0
2283,8240003006640,新規,0,2024-04-23,2024-04-23,合同会社ｃｈａｏ,,合同会社,広島県,安芸郡府中町,山田２丁目１１－３８－２－２０３,,34,302,7350004,,,,,,,2024-04-23,1,,,,,チャオ,0
2295,8290001105480,新規,0,2024-04-23,2024-04-23,聖晴株式会社,,株式会社,福岡県,福岡市中央区,今川２丁目６番４１－４０３号,,40,133,8100054,,,,,,,2024-04-23,1,,,,,タカハル,0
2296,8290001105506,新規,0,2024-04-23,2024-04-23,株式会社ＭＦＡＭ,,株式会社,福岡県,福岡市博多区,住吉１丁目１番９号,,40,132,8120018,,,,,,,2024-04-23,1,,,,,エムファム,0
2300,8290805009737,新規,0,2024-04-23,2024-04-23,一般社団法人サークサクシード,,その他の設立登記法人,福岡県,北九州市小倉北区,日明３丁目６番１６号,,40,106,8030831,,,,,,,2024-04-23,1,,,,,サークサクシード,0
2305,8330001031986,新規,0,2024-04-23,2024-04-23,株式会社松風,,株式会社,熊本県,菊池郡大津町,大字杉水３４２１－６３,,43,403,8691236,,,,,,,2024-04-23,1,,,,,マツカゼ,0
2318,8360001033550,新規,0,2024-04-23,2024-04-23,株式会社ＳＨＩＳＥＩ,,株式会社,沖縄県,沖縄市,美里仲原町７番１４号,,47,211,9042156,,,,,,,2024-04-23,1,,,,,シセイ,0
2321,8370003006578,新規,0,2024-04-23,2024-04-23,合同会社桃華コランダム,,合同会社,宮城県,仙台市太白区,金剛沢３丁目６－４８,,04,104,9820803,,,,,,,2024-04-23,1,,,,,トウカコランダム,0
2327,8390003002237,新規,0,2024-04-23,2024-04-23,合同会社ワクプラ山形,,合同会社,山形県,西村山郡西川町,大字海味１３２７－２「みどり団地内」４０号,,06,322,9900702,,,,,,,2024-04-23,1,,,,,ワクプラヤマガタ,0
2328,8390005009065,新規,0,2024-04-23,2024-04-23,医療法人はがタウンクリニック,,その他の設立登記法人,山形県,天童市,芳賀タウン南６丁目１番４５号,,06,210,9940083,,,,,,,2024-04-23,1,,,,,ハガタウンクリニック,0
2329,8420001018702,新規,0,2024-04-23,2024-04-23,株式会社ＩＮ　ＴＨＥ　ＨＯＵＳＥ,,株式会社,青森県,弘前市,大字駅前町９－２０ヒロロ５Ｆ,,02,202,0368003,,,,,,,2024-04-23,1,,,,,インザハウス,0
2335,8430001091632,新規,0,2024-04-23,2024-04-23,株式会社Ｔｏｗａｓ,,株式会社,北海道,札幌市北区,北八条西１丁目３番地,,01,102,0600808,,,,,,,2024-04-23,1,,,,,トワス,0
2336,8430001091640,新規,0,2024-04-23,2024-04-23,アット・ランダム株式会社,,株式会社,北海道,札幌市北区,百合が原１１丁目１８３番地１,,01,102,0028081,,,,,,,2024-04-23,1,,,,,アットランダム,0
2337,8430001091649,新規,0,2024-04-23,2024-04-23,晃栄測量株式会社,,株式会社,北海道,札幌市西区,福井８丁目１５番７号,,01,107,0630012,,,,,,,2024-04-23,1,,,,,コウエイソクリョウ,0
2349,8460101007535,新規,0,2024-04-23,2024-04-23,株式会社羽帯コントラクター,,株式会社,北海道,上川郡清水町,字羽帯３４０番地２,,01,636,0890356,,,,,,,2024-04-23,1,,,,,ハオビコントラクター,0
2351,8480001012443,新規,0,2024-04-23,2024-04-23,株式会社ティーケーオー,,株式会社,徳島県,徳島市,沖浜３丁目２４番地,,36,201,7708052,,,,,,,2024-04-23,1,,,,,ティーケーオー,0
2352,8480001012451,新規,0,2024-04-23,2024-04-23,株式会社ライトテック,,株式会社,徳島県,徳島市,川内町旭野８８番地の１８,,36,201,7710101,,,,,,,2024-04-23,1,,,,,ライトテック,0
2357,8700150125064,新規,0,2024-04-23,2024-04-23,如意祥投資　有限公司,,外国会社等,,,,,,,,台湾台北市中山区農安街５８號２楼之５,,,,,,2024-04-23,1,,,,,ニヨイシヨウトウシユウゲンコウシ,0
2358,8700150125072,新規,0,2024-04-23,2024-04-23,Ｃｒｏｗｎ　Ｂｅｓｔ　Ｅｎｔｅｒｐｒｉｓｅｓ　Ｌｉｍｉｔｅｄ,,外国会社等,,,,,,,,Ｃｈｕｎ　Ｗｏ　Ｃｏｍｍｅｒｃｉａｌ　Ｃｅｎｔｒｅ，２５　Ｗｉｎｇ　Ｗｏ　Ｓｔｒｅｅｔ，Ｃｅｎｔｒａｌ,,,,,,2024-04-23,1,,,,,クラウンベストエンタープライズリミテツド,0
2359,8700150125080,新規,0,2024-04-23,2024-04-23,Ｉｍａｇｅ　Ｆｕｔｕｒｅ　Ｉｎｖｅｓｔｍｅｎｔ（ＨＫ）Ｌｔｄ,,外国会社等,,,,,,,,２９／Ｆ，ＴＨＲＥＥ　ＰＡＣＩＦＩＣ　ＰＬＡＣＥ，１　ＱＵＥＥＮ’Ｓ　ＲＯＡＤ　ＥＡＳＴ，ＷＡＮＣＨＡＩ，ＨＯＮＧ　ＫＯＮＧ,,,,,,2024-04-23,1,,,,,イメージフユーチヤーインベストメントホンコンリミテツド,0
2377,9010003043516,新規,0,2024-04-23,2024-04-23,合同会社駒弥,,合同会社,東京都,中央区,新川１丁目１７番２７号,,13,102,1040033,,,,,,,2024-04-23,1,,,,,コマヤ,0
2378,9010003043581,新規,0,2024-04-23,2024-04-23,番町キャピタル合同会社,,合同会社,東京都,千代田区,四番町４番地６パークコート千代田四番町１２０１号,,13,101,1020081,,,,,,,2024-04-23,1,,,,,バンチョウキャピタル,0
2380,9010005038217,新規,0,2024-04-23,2024-04-23,日光Ｐｌｕｓ２２ホールディング特定目的会社,,その他の設立登記法人,東京都,千代田区,丸の内３丁目１番１号東京共同会計事務所内,,13,101,1000005,,,,,,,2024-04-23,1,,,,,ニッコウプラストゥエンティツーホールディング,0
2385,9010401181974,新規,0,2024-04-23,2024-04-23,株式会社ナイスジョブ,,株式会社,東京都,港区,浜松町２丁目７番１７号,,13,103,1050013,,,,,,,2024-04-23,1,,,,,ナイスジョブ,0
2386,9010401182007,新規,0,2024-04-23,2024-04-23,デジタルダイナミック株式会社,,株式会社,東京都,港区,虎ノ門１丁目１７－１虎ノ門ビジネスタワー１５階,,13,103,1050001,,,,,,,2024-04-23,1,,,,,デジタルダイナミック,0
2387,9010403032457,新規,0,2024-04-23,2024-04-23,合同会社ＢＡＣＫ　ＢＡＲ,,合同会社,東京都,港区,麻布十番２丁目１９番１０号桂麻布十番ビル７Ｆ,,13,103,1060045,,,,,,,2024-04-23,1,,,,,バックバー,0
2388,9010405023198,新規,0,2024-04-23,2024-04-23,一般社団法人Ｋｙｏｗａ,,その他の設立登記法人,東京都,港区,虎ノ門５丁目１番４号,,13,103,1050001,,,,,,,2024-04-23,1,,,,,キョウワ,0
2392,9010501052142,新規,0,2024-04-23,2024-04-23,ＦＰＡＲＭＡ６ＪＡＰＡＮ株式会社,,株式会社,東京都,台東区,台東４丁目２７番５号,,13,106,1100016,,,,,,,2024-04-23,1,,,,,ファーマシックスジャパン,0
2395,9010701045879,新規,0,2024-04-23,2024-04-23,株式会社ＢａｙＭｏｖｉｅ,,株式会社,東京都,品川区,西大井１丁目１０番１４号,,13,109,1400015,,,,,,,2024-04-23,1,,,,,ベイムービー,0
2406,9011001161499,新規,0,2024-04-23,2024-04-23,株式会社ＫＭ　ＲＥＡＬＴＹ,,株式会社,東京都,渋谷区,宇田川町２番１号渋谷ホームズ２階,,13,113,1500042,,,,,,,2024-04-23,1,,,,,ケーエムリアルティ,0
2411,9011101107063,新規,0,2024-04-23,2024-04-23,株式会社トレカＧＡＬＬＥＲＹ,,株式会社,東京都,新宿区,西新宿３丁目３番１３号西新宿水間ビル６階,,13,104,1600023,,,,,,,2024-04-23,1,,,,,トレカギャラリー,0
2416,9011401025997,新規,0,2024-04-23,2024-04-23,中国たばこ産業株式会社,,株式会社,東京都,板橋区,泉町６－２－３０１,,13,119,1740055,,,,,,,2024-04-23,1,,,,,チュウゴクタバコサンギョウ,0
2418,9011501030575,新規,0,2024-04-23,2024-04-23,シャオバイチュー株式会社,,株式会社,東京都,荒川区,南千住２丁目１６番９－５０１号,,13,118,1160003,,,,,,,2024-04-23,1,,,,,シャオバイチュー,0
2419,9011503005996,新規,0,2024-04-23,2024-04-23,合同会社ｓａｃｈｉ,,合同会社,東京都,北区,赤羽１丁目７－９赤羽第一葉山ビル４Ｆ,,13,117,1150045,,,,,,,2024-04-23,1,,,,,サチ,0
2420,9011601027703,新規,0,2024-04-23,2024-04-23,ＫＴ‐ＣＲＥＷ株式会社,,株式会社,東京都,練馬区,春日町５丁目１７－２３,,13,120,1790074,,,,,,,2024-04-23,1,,,,,ケーティクルー,0
2424,9012303001979,新規,0,2024-04-23,2024-04-23,合同会社ありがとう,,合同会社,東京都,町田市,原町田６丁目９番８号ＡＥＴＡ町田４Ｆ,,13,209,1940013,,,,,,,2024-04-23,1,,,,,アリガトウ,0
2428,9012401041794,新規,0,2024-04-23,2024-04-23,株式会社スモールカンパニー,,株式会社,東京都,多摩市,一ノ宮４丁目２０番地の１３,,13,224,2060002,,,,,,,2024-04-23,1,,,,,スモールカンパニー,0
2430,9012403006515,新規,0,2024-04-23,2024-04-23,合同会社グラツィアアロマティクス,,合同会社,東京都,武蔵野市,吉祥寺南町１丁目３２番１３号,,13,203,1800003,,,,,,,2024-04-23,1,,,,,グラツィアアロマティクス,0
2432,9012705002402,新規,0,2024-04-23,2024-04-23,一般社団法人カウンセラーズ・オフィスとも,,その他の設立登記法人,東京都,小平市,回田町１９７番１８号,,13,211,1870013,,,,,,,2024-04-23,1,,,,,,0
2441,9020001156772,新規,0,2024-04-23,2024-04-23,株式会社ｏｆｆｉｃｅＴＯ,,株式会社,神奈川県,川崎市中原区,宮内２丁目１７番２４号,,14,133,2110051,,,,,,,2024-04-23,1,,,,,オフィスティーオー,0
2444,9021001082026,新規,0,2024-04-23,2024-04-23,株式会社Ｃｉｄ　Ｈａｚｅ,,株式会社,神奈川県,藤沢市,円行１８９３番地の１ブランズシティ湘南台７０２号室,,14,205,2520805,,,,,,,2024-04-23,1,,,,,シドヘイズ,0
2445,9021001082034,新規,0,2024-04-23,2024-04-23,さくら電気株式会社,,株式会社,神奈川県,茅ヶ崎市,円蔵２５６１番地２,,14,207,2530084,,,,,,,2024-04-23,1,,,,,サクラデンキ,0
2446,9021003014423,新規,0,2024-04-23,2024-04-23,合同会社アイリス千尋オフィス,,合同会社,神奈川県,三浦郡葉山町,一色３５７―３,,14,301,2400111,,,,,,,2024-04-23,1,,,,,アイリスチヒロオフィス,0
2454,9030001159915,新規,0,2024-04-23,2024-04-23,ケイエス株式会社,,株式会社,埼玉県,坂戸市,千代田４丁目１０－４プレシャス・リゾート３０２号,,11,239,3500214,,,,,,,2024-04-23,1,,,,,ケイエス,0
2455,9030001159980,新規,0,2024-04-23,2024-04-23,株式会社翔栄工業,,株式会社,埼玉県,行田市,大字若小玉２３９０番地１,,11,206,3610017,,,,,,,2024-04-23,1,,,,,ショウエイコウギョウ,0
2469,9060003005049,新規,0,2024-04-23,2024-04-23,ＭＩＮＡＭＩ　ＧＲＯＵＰ合同会社,,合同会社,栃木県,大田原市,元町１丁目１０番１号,,09,210,3240053,,,,,,,2024-04-23,1,,,,,ミナミグループ,0
2472,9070001041648,新規,0,2024-04-23,2024-04-23,株式会社キューピット,,株式会社,群馬県,伊勢崎市,宮子町３４３３－２,,10,204,3720801,,,,,,,2024-04-23,1,,,,,キューピット,0
2473,9070001041664,新規,0,2024-04-23,2024-04-23,Ｔ＆Ａ株式会社,,株式会社,群馬県,太田市,高林西町３８２番地７３,,10,205,3730828,,,,,,,2024-04-23,1,,,,,ティーアンドエー,0
2474,9070001041672,新規,0,2024-04-23,2024-04-23,株式会社サンポーグッド,,株式会社,群馬県,伊勢崎市,緑町５－１６,,10,204,3720043,,,,,,,2024-04-23,1,,,,,サンポーグッド,0
2484,9100001037386,新規,0,2024-04-23,2024-04-23,宏祥産業株式会社,,株式会社,長野県,埴科郡坂城町,大字上五明１４８０番地,,20,521,3890606,,,,,,,2024-04-23,1,,,,,コウショウサンギョウ,0
2489,9110005017086,新規,0,2024-04-23,2024-04-23,医療法人社団清水たろう歯科,,その他の設立登記法人,新潟県,新潟市中央区,長潟１２０１番地１,,15,103,9500932,,,,,,,2024-04-23,1,,,,,シミズタロウシカ,0
2503,9120001264235,新規,0,2024-04-23,2024-04-23,株式会社ＫＥＮＫＡＮＳＡＩリフォーム,,株式会社,大阪府,大阪市平野区,長吉六反４丁目９番５８号,,27,126,5470012,,,,,,,2024-04-23,1,,,,,ケンカンサイリフォーム,0
2504,9120001264342,新規,0,2024-04-23,2024-04-23,株式会社なこい,,株式会社,大阪府,大阪市住之江区,新北島５丁目１番５０号１階,,27,125,5590024,,,,,,,2024-04-23,1,,,,,ナコイ,0
2506,9120003026451,新規,0,2024-04-23,2024-04-23,合同会社Ｕｎｉｔｅ,,合同会社,大阪府,大阪市北区,梅田１丁目２番２号大阪駅前第２ビル１２－１２,,27,127,5300001,,,,,,,2024-04-23,1,,,,,ユナイト,0
2514,9120901049082,新規,0,2024-04-23,2024-04-23,株式会社ＡＳＴＲＯ,,株式会社,大阪府,豊中市,西緑丘３丁目１１番５－２０２号,,27,203,5600005,,,,,,,2024-04-23,1,,,,,アストロ,0
2516,9120903005133,新規,0,2024-04-23,2024-04-23,合同会社和み,,合同会社,大阪府,豊能郡豊能町,新光風台２丁目９－６,,27,321,5630105,,,,,,,2024-04-23,1,,,,,ナゴミ,0
2519,9130001076902,新規,0,2024-04-23,2024-04-23,ｂｅｙｏｎｄ株式会社,,株式会社,京都府,京都市伏見区,深草西浦町５丁目３２番地４,,26,109,6120029,,,,,,,2024-04-23,1,,,,,ビヨンド,0
2527,9140001134171,新規,0,2024-04-23,2024-04-23,一井貿易株式会社,,株式会社,兵庫県,神戸市長田区,鹿松町２丁目１４番,,28,106,6530877,,,,,,,2024-04-23,1,,,,,イチイボウエキ,0
2550,9180003026693,新規,0,2024-04-23,2024-04-23,合同会社結び,,合同会社,愛知県,名古屋市南区,豊１丁目２２番３号,,23,112,4570863,,,,,,,2024-04-23,1,,,,,ムスビ,0
2553,9180301038548,新規,0,2024-04-23,2024-04-23,Ｔ＆Ｒ建設株式会社,,株式会社,愛知県,豊田市,前山町２丁目１番地１,,23,211,4710828,,,,,,,2024-04-23,1,,,,,ティーアンドアールケンセツ,0
2554,9180301038556,新規,0,2024-04-23,2024-04-23,株式会社Ｎｅｗ　Ｈｙｄｒｏｇｅｎ　Ｆｕｓｉｏｎ　Ｅｎｅｒｇｙ,,株式会社,愛知県,安城市,三河安城東町１丁目４番地１４,,23,212,4460057,,,,,,,2024-04-23,1,,,,,ニューハイドロジェンフュージョンエナジー,0
2556,9190003004649,新規,0,2024-04-23,2024-04-23,合同会社せきらら,,合同会社,三重県,四日市市,下さざらい町５番６号,,24,202,5108033,,,,,,,2024-04-23,1,,,,,セキララ,0
2557,9190005011940,新規,0,2024-04-23,2024-04-23,ＮＰＯ法人チーム６ばん,,その他の設立登記法人,三重県,鈴鹿市,下大久保町４１６５番地の２,,24,207,5131123,,,,,,,2024-04-23,1,,,,,チームロクバン,0
2566,9220001025957,新規,0,2024-04-23,2024-04-23,株式会社Ｆｅａｒｌｅｓｓ,,株式会社,石川県,金沢市,片町２丁目２１番２７号オーロラビル２Ｆ２０２,,17,201,9200981,,,,,,,2024-04-23,1,,,,,フィアレス,0
2567,9220005008834,新規,0,2024-04-23,2024-04-23,医療法人社団心匡会,,その他の設立登記法人,石川県,野々市市,白山町４３８番地,,17,212,9218821,,,,,,,2024-04-23,1,,,,,シンキョウカイ,0
2569,9230001020305,新規,0,2024-04-23,2024-04-23,株式会社ＳＥＶＥＮ・ＦＯＵＲ,,株式会社,富山県,富山市,友杉３６６番地,,16,201,9398224,,,,,,,2024-04-23,1,,,,,セブンフォー,0
2570,9230001020313,新規,0,2024-04-23,2024-04-23,株式会社リクイド,,株式会社,富山県,高岡市,東上関３４３番地１,,16,202,9330878,,,,,,,2024-04-23,1,,,,,リクイド,0
2571,9230003002193,新規,0,2024-04-23,2024-04-23,合同会社ステップアップ,,合同会社,富山県,富山市,八尾町黒田５９２番地,,16,201,9392304,,,,,,,2024-04-23,1,,,,,ステップアップ,0
2607,9330003010327,新規,0,2024-04-23,2024-04-23,合同会社ＰＳＤＣ,,合同会社,熊本県,熊本市中央区,白山２丁目１－４,,43,101,8620959,,,,,,,2024-04-23,1,,,,,ピーエスディーシー,0
2608,9340001026448,新規,0,2024-04-23,2024-04-23,株式会社ＫＰＦ,,株式会社,鹿児島県,鹿児島市,中町３番１１号日専連ビル・５７号室,,46,201,8920827,,,,,,,2024-04-23,1,,,,,ケイピーエフ,0
2610,9340003004451,新規,0,2024-04-23,2024-04-23,合同会社マルガリテス,,合同会社,鹿児島県,鹿児島市,武１丁目２番１０号ＪＲ鹿児島中央ビル４階,,46,201,8900045,,,,,,,2024-04-23,1,,,,,マルガリテス,0
2615,9360003013921,新規,0,2024-04-23,2024-04-23,合同会社ソウルフル,,合同会社,沖縄県,宮古島市,伊良部字池間添１１８７番地１,,47,214,9060502,,,,,,,2024-04-23,1,,,,,ソウルフル,0
2626,9430001091631,新規,0,2024-04-23,2024-04-23,株式会社チャンピオンロード,,株式会社,北海道,札幌市東区,東苗穂十条２丁目１８番１－２０１号,,01,103,0070810,,,,,,,2024-04-23,1,,,,,チャンピオンロード,0
2627,9430001091656,新規,0,2024-04-23,2024-04-23,北海道ドレージ株式会社,,株式会社,北海道,石狩市,新港西１丁目７０３番１０,,01,235,0613241,,,,,,,2024-04-23,1,,,,,ホッカイドウドレージ,0
2637,9470001020165,新規,0,2024-04-23,2024-04-23,株式会社海和工業,,株式会社,香川県,観音寺市,柞田町甲２０５２番地１１,,37,205,7680040,,,,,,,2024-04-23,1,,,,,カイワコウギョウ,0
2638,9480001012450,新規,0,2024-04-23,2024-04-23,株式会社山城工業,,株式会社,徳島県,徳島市,山城町西浜傍示１５３番地の１,,36,201,7708055,,,,,,,2024-04-23,1,,,,,ヤマシロコウギョウ,0
2645,9700150125039,新規,0,2024-04-23,2024-04-23,中科九台科技集団有限公司,,外国会社等,,,,,,,,Ｕｎｉｔ４２０９，４２Ｆ，ＨｏｎｇＫｏｎｇ，Ｐｌａｚａ，１８８　Ｃｏｎｎａｕｇｈｔ　Ｒｏａｄ　Ｗｅｓｔ，ＨＫ,,,,,,2024-04-23,1,,,,,チユウカキユウダイカギシユウダンユウゲンコウシ,0
2646,9700150125063,新規,0,2024-04-23,2024-04-23,Ｋｙｏｔｏ　Ｐｒｏｐｅｒｔｙ，ＬＬＣ,,外国会社等,京都府,京都市左京区,北白川別当町４７,,26,103,6068276,１１７　Ｗｈｉｔｅ　Ｏａｋ　Ｒｏａｄ，Ｃｈｅｒｒｙ　Ｈｉｌｌ，ＮＪ　０８０３４，ＵＳＡ,,,,,,2024-04-23,1,,,,,キヨウトプロパテイ,0
2647,9700150125071,新規,0,2024-04-23,2024-04-23,ＮＣＲ　Ｄｅ　Ｃｈｉｌｅ　Ｉｎｄｕｓｔｒｉａｌ　Ｙ　Ｃｏｍｍｅｒｃｉａｌ　Ｌｉｍｉｔａｄａ,,外国会社等,,,,,,,,Ｓａｎｔｉａｇｏ，Ｒｅｇｉｏｎ　Ｍｅｔｒｏｐｏｌｉｔａｎａ　７５６１２５８,,,,,,2024-04-23,1,,,,,エヌシーアールデチリインダストリアル,0
