sequenceNumber,corporateNumber,process,correct,updateDate,changeDate,name,nameImageId,kind,prefectureName,cityName,streetNumber,addressImageId,prefectureCode,cityCode,postCode,addressOutside,addressOutsideImageId,closeDate,closeCause,successorCorporateNumber,changeCause,assignmentDate,latest,enName,enPrefectureName,enCityName,enAddressOutside,furigana,hihyoji
14,1010001237498,新規,0,2023-08-10,2023-08-10,イージス・ワークス株式会社,,株式会社,東京都,中央区,銀座６丁目２番１号Ｄａｉｗａ銀座ビル３階,,13,102,1040061,,,,,,,2023-08-10,1,,,,,イージスワークス,0
15,1010001237507,新規,0,2023-08-10,2023-08-10,ビソワ・デザイン株式会社,,株式会社,東京都,中央区,日本橋２丁目１６番３号,,13,102,1030027,,,,,,,2023-08-10,1,,,,,ビソワデザイン,0
16,1010001237630,新規,0,2023-08-10,2023-08-10,サービスドット株式会社,,株式会社,東京都,中央区,銀座１丁目１２番４号Ｎ＆ＥＢＬＤ．６Ｆ,,13,102,1040061,,,,,,,2023-08-10,1,,,,,サービスドット,0
20,1010401176263,新規,0,2023-08-10,2023-08-10,株式会社最強,,株式会社,東京都,港区,西新橋２丁目８番１８号共立ビル２Ｆ,,13,103,1050003,,,,,,,2023-08-10,1,,,,,サイキョウ,0
21,1010401176288,新規,0,2023-08-10,2023-08-10,株式会社オフィスディーエイチ,,株式会社,東京都,港区,南青山３丁目１－３６青山丸竹ビル６Ｆ,,13,103,1070062,,,,,,,2023-08-10,1,,,,,オフィスディーエイチ,0
22,1010401176305,新規,0,2023-08-10,2023-08-10,ｅｉｃｈｉ株式会社,,株式会社,東京都,港区,白金６丁目１２番２５－４０３号,,13,103,1080072,,,,,,,2023-08-10,1,,,,,エイチ,0
23,1010401176379,新規,0,2023-08-10,2023-08-10,株式会社アートアーカイブＴＯＫＹＯ,,株式会社,東京都,港区,芝公園１丁目７番１７号ＴＨＩＮＸ大門,,13,103,1050011,,,,,,,2023-08-10,1,,,,,アートアーカイブトウキョウ,0
24,1010401176478,新規,0,2023-08-10,2023-08-10,ＬＳ‐ＳＨＩＰ第４３号株式会社,,株式会社,東京都,港区,六本木１丁目６番１号,,13,103,1060032,,,,,,,2023-08-10,1,,,,,エルエスシップダイヨンジュウサンゴウ,0
25,1010403030658,新規,0,2023-08-10,2023-08-10,ＤＡＹ合同会社,,合同会社,東京都,港区,海岸３丁目１９－２マリンシティダイヤモンドパレス６１９,,13,103,1080022,,,,,,,2023-08-10,1,,,,,デイ,0
26,1010403030666,新規,0,2023-08-10,2023-08-10,合同会社Ｄｒｅａｍ　Ｃｏｎｄｕｃｔｏｒ,,合同会社,東京都,港区,六本木６丁目２番３１号六本木ヒルズノースタワー１７階,,13,103,1060032,,,,,,,2023-08-10,1,,,,,ドリームコンダクター,0
27,1010501050855,新規,0,2023-08-10,2023-08-10,Ｓｔｕｄｉｏ　ＥＮＴＲＥ　ＮＥＸＴ株式会社,,株式会社,東京都,台東区,谷中２丁目７番６号ユーベルク谷中３０１,,13,106,1100001,,,,,,,2023-08-10,1,,,,,スタジオエントレネクスト,0
28,1010503007119,新規,0,2023-08-10,2023-08-10,合同会社ネクスト,,合同会社,東京都,台東区,寿４丁目１６番６号寿ビル４階,,13,106,1110042,,,,,,,2023-08-10,1,,,,,ネクスト,0
32,1010601063567,新規,0,2023-08-10,2023-08-10,株式会社高春陸運,00131483,株式会社,東京都,江東区,豊洲６丁目６番３号ホウスイ冷蔵庫４階,,13,108,1350061,,,,,,,2023-08-10,1,,,,,タカハルリクウン,0
33,1010601063583,新規,0,2023-08-10,2023-08-10,イーグル精機株式会社,,株式会社,東京都,墨田区,錦糸１丁目２－１アルカセントラル１４Ｆ,,13,107,1300013,,,,,,,2023-08-10,1,,,,,イーグルセイキ,0
34,1010601063591,新規,0,2023-08-10,2023-08-10,株式会社ＩＳＥ,,株式会社,東京都,墨田区,緑４丁目５番４号,,13,107,1300021,,,,,,,2023-08-10,1,,,,,イセ,0
35,1010601063600,新規,0,2023-08-10,2023-08-10,株式会社Ｍｉｎｋ,,株式会社,東京都,江東区,東砂５丁目５番６－３０７号,,13,108,1360074,,,,,,,2023-08-10,1,,,,,ミンク,0
37,1010801034228,新規,0,2023-08-10,2023-08-10,株式会社ｓｌａｓｈ　ｄｒｏｗ,,株式会社,東京都,大田区,南馬込４丁目２６番１９号馬込ガーデンヒル３０１,,13,111,1430025,,,,,,,2023-08-10,1,,,,,スラッシュドロー,0
38,1010801034236,新規,0,2023-08-10,2023-08-10,ジンジズ株式会社,,株式会社,東京都,大田区,上池台１丁目７番１６号ＢＩＺｃｉｒｃｌｅ大田長原３０４,,13,111,1450064,,,,,,,2023-08-10,1,,,,,ジンジズ,0
41,1010901053615,新規,0,2023-08-10,2023-08-10,株式会社ニュートラルラーニング,,株式会社,東京都,世田谷区,深沢２丁目１６番２３号メルヴェールフカサワ３０１,,13,112,1580081,,,,,,,2023-08-10,1,,,,,ニュートラルラーニング,0
44,1011001156168,新規,0,2023-08-10,2023-08-10,株式会社ＲＥＶＩＡ,,株式会社,東京都,渋谷区,桜丘町８番１１号パークアクシス渋谷桜丘サウス３０３,,13,113,1500031,,,,,,,2023-08-10,1,,,,,レヴィア,0
45,1011001156184,新規,0,2023-08-10,2023-08-10,株式会社ｍｏｏｎｈｏｐｅ,,株式会社,東京都,渋谷区,道玄坂１丁目１０番８号渋谷道玄坂東急ビル２Ｆ－Ｃ,,13,113,1500043,,,,,,,2023-08-10,1,,,,,ムーンホープ,0
46,1011001156250,新規,0,2023-08-10,2023-08-10,株式会社ＶａｎＱｕａｔｒｅ２４,,株式会社,東京都,渋谷区,神宮前１丁目５番８号神宮前タワービル,,13,113,1500001,,,,,,,2023-08-10,1,,,,,ヴァンキャトルニジュウヨン,0
47,1011001156283,新規,0,2023-08-10,2023-08-10,ＯＲＥＺ株式会社,,株式会社,東京都,渋谷区,恵比寿１丁目２０番２６号ＪＥＬＡ恵比寿レジデンス３０３,,13,113,1500013,,,,,,,2023-08-10,1,,,,,オルズ,0
48,1011001156366,新規,0,2023-08-10,2023-08-10,ピルグリム株式会社,,株式会社,東京都,渋谷区,道玄坂１丁目２番３号渋谷フクラス１７Ｆ,,13,113,1500043,,,,,,,2023-08-10,1,,,,,,0
50,1011201024827,新規,0,2023-08-10,2023-08-10,株式会社ＹＳＣ,,株式会社,東京都,中野区,東中野５丁目１番１－４０９,,13,114,1640003,,,,,,,2023-08-10,1,,,,,ワイエスシー,0
51,1011201024843,新規,0,2023-08-10,2023-08-10,株式会社八百屋さん,,株式会社,東京都,中野区,中野３丁目２６番１６号,,13,114,1640001,,,,,,,2023-08-10,1,,,,,ヤオヤサン,0
54,1011303004867,新規,0,2023-08-10,2023-08-10,合同会社ｂｏｃｃｉ,,合同会社,東京都,杉並区,浜田山２丁目１５－３４－２０２,,13,115,1680065,,,,,,,2023-08-10,1,,,,,ボッチ,0
56,1011701026513,新規,0,2023-08-10,2023-08-10,株式会社ルート・ジー,,株式会社,東京都,江戸川区,上篠崎３丁目８番３号,,13,123,1330054,,,,,,,2023-08-10,1,,,,,ルートジー,0
59,1011801042872,新規,0,2023-08-10,2023-08-10,株式会社ムンゴリ,,株式会社,東京都,足立区,本木２丁目８番１１－２０２号,,13,121,1230853,,,,,,,2023-08-10,1,,,,,ムンゴリ,0
63,1012401040837,新規,0,2023-08-10,2023-08-10,株式会社ソルディックアーツ,,株式会社,東京都,調布市,小島町２丁目５１番地２寿ビル２階,,13,208,1820026,,,,,,,2023-08-10,1,,,,,ソルディックアーツ,0
64,1012401040853,新規,0,2023-08-10,2023-08-10,プランテ・エナジー株式会社,,株式会社,東京都,府中市,寿町１丁目３番地の２６,,13,206,1830056,,,,,,,2023-08-10,1,,,,,プランテエナジー,0
73,1020001152903,新規,0,2023-08-10,2023-08-10,株式会社ＮＤＭ,,株式会社,神奈川県,川崎市中原区,上丸子八幡町１４８０－６－７０２,,14,133,2110001,,,,,,,2023-08-10,1,,,,,エヌディーエム,0
74,1020001152936,新規,0,2023-08-10,2023-08-10,株式会社橘樹,,株式会社,神奈川県,横浜市神奈川区,西寺尾２丁目３９番１号,,14,102,2210001,,,,,,,2023-08-10,1,,,,,タチバナ,0
75,1020001152960,新規,0,2023-08-10,2023-08-10,ピュアグローバル株式会社,,株式会社,神奈川県,横浜市中区,尾上町３丁目３９尾上町ビル１階,,14,104,2310015,,,,,,,2023-08-10,1,,,,,ピュアグローバル,0
76,1020001152993,新規,0,2023-08-10,2023-08-10,株式会社Ｍ‐ｒａｉｓｅ,,株式会社,神奈川県,川崎市多摩区,菅馬場３丁目１７番７－１号,,14,135,2140004,,,,,,,2023-08-10,1,,,,,ミライズ,0
77,1020001153001,新規,0,2023-08-10,2023-08-10,株式会社杉弘,,株式会社,神奈川県,横浜市磯子区,杉田１丁目２２番１６－２号,,14,107,2350033,,,,,,,2023-08-10,1,,,,,スギヒロ,0
83,1020003024324,新規,0,2023-08-10,2023-08-10,ＡＩＥ合同会社,,合同会社,神奈川県,横浜市西区,北幸２丁目１０番地２８むつみビル３Ｆ,,14,103,2200004,,,,,,,2023-08-10,1,,,,,エーアイイー,0
84,1020003024340,新規,0,2023-08-10,2023-08-10,合同会社Ｆｉｖｅ　ｔｈｉｎｋｓ,,合同会社,神奈川県,横浜市港北区,大豆戸町１４６－１０,,14,109,2220032,,,,,,,2023-08-10,1,,,,,ファイブシンクス,0
85,1020003024349,新規,0,2023-08-10,2023-08-10,合同会社３ＫＡ,,合同会社,神奈川県,横浜市港北区,新吉田東７丁目７番１２号,,14,109,2230058,,,,,,,2023-08-10,1,,,,,サンケーエー,0
86,1021001079888,新規,0,2023-08-10,2023-08-10,株式会社ＨＨＡ,,株式会社,神奈川県,大和市,中央林間９丁目２８番１３号,,14,213,2420007,,,,,,,2023-08-10,1,,,,,エイチエイチエー,0
87,1021001079905,新規,0,2023-08-10,2023-08-10,株式会社吉建,,株式会社,神奈川県,厚木市,及川１１７１番地６,,14,212,2430212,,,,,,,2023-08-10,1,,,,,ヨシケン,0
90,1021003013424,新規,0,2023-08-10,2023-08-10,ＲＡＭＩＡ合同会社,,合同会社,神奈川県,藤沢市,辻堂元町５丁目１６番２７号マロード湘南２０２,,14,205,2510043,,,,,,,2023-08-10,1,,,,,ラーミア,0
96,1030001155203,新規,0,2023-08-10,2023-08-10,カーサ・フェリーチェ株式会社,,株式会社,埼玉県,さいたま市南区,沼影１丁目１０番１号,,11,108,3360027,,,,,,,2023-08-10,1,,,,,カーサフェリーチェ,0
97,1030001155236,新規,0,2023-08-10,2023-08-10,株式会社サクマ工業,,株式会社,埼玉県,久喜市,吉羽２３０８番地２,,11,232,3460014,,,,,,,2023-08-10,1,,,,,サクマコウギョウ,0
98,1030001155277,新規,0,2023-08-10,2023-08-10,ＪＰＴＤＩ株式会社,,株式会社,埼玉県,志木市,柏町２丁目２番７号,,11,228,3530007,,,,,,,2023-08-10,1,,,,,ジェイピーティーディーアイ,0
102,1040001129635,新規,0,2023-08-10,2023-08-10,ＲＥＤ株式会社,,株式会社,千葉県,千葉市中央区,中央２丁目５－１－７階,,12,101,2600013,,,,,,,2023-08-10,1,,,,,アルイディ,0
103,1040001129643,新規,0,2023-08-10,2023-08-10,海遊国際株式会社,,株式会社,千葉県,茂原市,千代田町１丁目６－１－１３－２０２,,12,210,2970023,,,,,,,2023-08-10,1,,,,,カイユウコクサイ,0
105,1040003023076,新規,0,2023-08-10,2023-08-10,ＦＲＢ　ＴＲＡＤＩＮＧ合同会社,,合同会社,千葉県,野田市,次木１５９番地,,12,208,2700228,,,,,,,2023-08-10,1,,,,,エフアールビートレーディング,0
107,1050001053272,新規,0,2023-08-10,2023-08-10,ワタナベ商會株式会社,,株式会社,茨城県,筑西市,八田４６６番地,,08,227,3080013,,,,,,,2023-08-10,1,,,,,ワタナベショウカイ,0
108,1060001036251,新規,0,2023-08-10,2023-08-10,日晃電設株式会社,,株式会社,栃木県,日光市,千本木３５８番地３,,09,206,3211277,,,,,,,2023-08-10,1,,,,,ニッコウデンセツ,0
109,1060003004677,新規,0,2023-08-10,2023-08-10,ＶＯＬＥＲＥ合同会社,,合同会社,栃木県,佐野市,若宮上町１３－１４,,09,204,3270833,,,,,,,2023-08-10,1,,,,,,0
118,1070003005055,新規,0,2023-08-10,2023-08-10,ＪＡＰＡＮ　ＩＮＴＥＲＮＡＴＩＯＮＡＬ合同会社,,合同会社,群馬県,太田市,飯田町１００４番地カネバヤシビル１Ｆ,,10,205,3730851,,,,,,,2023-08-10,1,,,,,ジャパンインターナショナル,0
136,1120001257023,新規,0,2023-08-10,2023-08-10,株式会社アイユーコーポレーション,,株式会社,大阪府,大阪市東成区,大今里３丁目５番３号,,27,115,5370012,,,,,,,2023-08-10,1,,,,,アイユーコーポレーション,0
137,1120001257147,新規,0,2023-08-10,2023-08-10,株式会社ナッツカンパニー,,株式会社,大阪府,大阪市城東区,関目２丁目７－８,,27,118,5360008,,,,,,,2023-08-10,1,,,,,ナッツカンパニー,0
138,1120001257205,新規,0,2023-08-10,2023-08-10,株式会社ライフコア,,株式会社,大阪府,大阪市中央区,南本町２丁目３番１２号,,27,128,5410054,,,,,,,2023-08-10,1,,,,,ライフコア,0
139,1120001257238,新規,0,2023-08-10,2023-08-10,株式会社リンピア,,株式会社,大阪府,大阪市北区,大淀中２丁目４番２４－９０６号,,27,127,5310076,,,,,,,2023-08-10,1,,,,,リンピア,0
142,1120003024685,新規,0,2023-08-10,2023-08-10,合同会社Ｐ＆Ｍ,,合同会社,大阪府,大阪市東住吉区,矢田３丁目１２番１５号,,27,121,5460023,,,,,,,2023-08-10,1,,,,,ピーアンドエム,0
144,1120005023801,新規,0,2023-08-10,2023-08-10,一般社団法人ＡＫ．Ｆ,,その他の設立登記法人,大阪府,大阪市天王寺区,北河堀町１０番８－８０５号,,27,109,5430053,,,,,,,2023-08-10,1,,,,,エーケードットエフ,0
148,1120101068048,新規,0,2023-08-10,2023-08-10,株式会社関西パワー,,株式会社,大阪府,泉南市,新家４３６４番地,,27,228,5900503,,,,,,,2023-08-10,1,,,,,カンサイパワー,0
151,1120901047928,新規,0,2023-08-10,2023-08-10,株式会社佐藤重量,,株式会社,大阪府,高槻市,西真上１丁目７番２０号東白マンション３１４号,,27,207,5691127,,,,,,,2023-08-10,1,,,,,サトウジュウリョウ,0
156,1130001074871,新規,0,2023-08-10,2023-08-10,住吉電気株式会社,,株式会社,京都府,京都市伏見区,淀際目町３２１番地,,26,109,6130915,,,,,,,2023-08-10,1,,,,,スミヨシデンキ,0
157,1130001074921,新規,0,2023-08-10,2023-08-10,株式会社建築美装北川,,株式会社,京都府,長岡京市,金ケ原寿先１番地７,,26,209,6170856,,,,,,,2023-08-10,1,,,,,ケンチクビソウキタガワ,0
158,1130003008902,新規,0,2023-08-10,2023-08-10,合同会社あおい経営,,合同会社,京都府,京都市中京区,西ノ京内畑町２５番地８シーンズ京都二条４０２号,,26,104,6048417,,,,,,,2023-08-10,1,,,,,アオイケイエイ,0
161,1140001131168,新規,0,2023-08-10,2023-08-10,株式会社ポートメディカル,,株式会社,兵庫県,神戸市中央区,橘通４丁目２番１６号１Ｆ,,28,110,6500016,,,,,,,2023-08-10,1,,,,,ポートメディカル,0
162,1140001131234,新規,0,2023-08-10,2023-08-10,アートテック株式会社,,株式会社,兵庫県,神戸市西区,宮下１丁目１１番１９号－１０２,,28,111,6512146,,,,,,,2023-08-10,1,,,,,アートテック,0
163,1140001131242,新規,0,2023-08-10,2023-08-10,株式会社片岡総建,,株式会社,兵庫県,加古川市,加古川町木村７５４番地の４７,,28,210,6750038,,,,,,,2023-08-10,1,,,,,カタオカソウケン,0
167,1150001026615,新規,0,2023-08-10,2023-08-10,株式会社ＨＹ,,株式会社,奈良県,生駒市,本町１０－１生駒ビル３０２,,29,209,6300256,,,,,,,2023-08-10,1,,,,,エイチワイ,0
168,1150001026631,新規,0,2023-08-10,2023-08-10,株式会社ＨＡＰＰＩＮＥＳＳ　ＨＯＭＥ,,株式会社,奈良県,大和郡山市,筒井町１４２－１－３,,29,203,6391123,,,,,,,2023-08-10,1,,,,,ハピネスホーム,0
169,1150003003034,新規,0,2023-08-10,2023-08-10,合同会社ＳＥＩＲＹＯ,,合同会社,奈良県,北葛城郡上牧町,服部台１丁目２番３１号,,29,424,6390212,,,,,,,2023-08-10,1,,,,,セイリョウ,0
171,1160001025260,新規,0,2023-08-10,2023-08-10,株式会社ＢＥ,,株式会社,滋賀県,湖南市,下田２７５８番地１６,,25,211,5203201,,,,,,,2023-08-10,1,,,,,ビーイー,0
183,1180001157424,新規,0,2023-08-10,2023-08-10,ジプラス株式会社,,株式会社,愛知県,名古屋市緑区,大高町字杁前３９番地,,23,114,4598001,,,,,,,2023-08-10,1,,,,,ジプラス,0
184,1180001157589,新規,0,2023-08-10,2023-08-10,株式会社池田建装,,株式会社,愛知県,名古屋市西区,枇杷島５丁目２１番２８号,,23,104,4510053,,,,,,,2023-08-10,1,,,,,イケダケンソウ,0
185,1180001157614,新規,0,2023-08-10,2023-08-10,たすき株式会社,,株式会社,愛知県,長久手市,岩作西島２０３番地,,23,238,4801103,,,,,,,2023-08-10,1,,,,,タスキ,0
188,1180003025604,新規,0,2023-08-10,2023-08-10,合同会社ａ．ｓ．,,合同会社,愛知県,名古屋市守山区,脇田町２０１,,23,113,4630024,,,,,,,2023-08-10,1,,,,,オールモストシュアリー,0
191,1180301037664,新規,0,2023-08-10,2023-08-10,株式会社イヤシロ２１３４,,株式会社,愛知県,豊田市,福受町中ノ切１６番地,,23,211,4701214,,,,,,,2023-08-10,1,,,,,イヤシロニイイチサンヨン,0
194,1190001030646,新規,0,2023-08-10,2023-08-10,株式会社不老不死大学,,株式会社,三重県,桑名市,中央町１丁目８２番地,,24,205,5110068,,,,,,,2023-08-10,1,,,,,フロウフシダイガク,0
196,1200001041600,新規,0,2023-08-10,2023-08-10,東洋ホールディングス株式会社,,株式会社,岐阜県,安八郡輪之内町,大薮１３５番地,,21,382,5030200,,,,,,,2023-08-10,1,,,,,トウヨウホールディングス,0
199,1210001019422,新規,0,2023-08-10,2023-08-10,株式会社ＩＲＯＤＯＲＩ,,株式会社,福井県,福井市,二の宮２丁目２７番３１号,,18,201,9100015,,,,,,,2023-08-10,1,,,,,イロドリ,0
202,1220001025551,新規,0,2023-08-10,2023-08-10,株式会社ＪＪＣホールディングス,,株式会社,石川県,金沢市,西念１丁目１番３号,,17,201,9200024,,,,,,,2023-08-10,1,,,,,ジェイジェイシーホールディングス,0
204,1230001019965,新規,0,2023-08-10,2023-08-10,株式会社権九郎,,株式会社,富山県,南砺市,広安２０５番地,,16,210,9391534,,,,,,,2023-08-10,1,,,,,ゴンクロウ,0
206,1230005009327,新規,0,2023-08-10,2023-08-10,特定非営利活動法人ものがたり倶楽部,,その他の設立登記法人,富山県,砺波市,太田１３８２番地,,16,208,9391315,,,,,,,2023-08-10,1,,,,,,0
211,1240001061990,新規,0,2023-08-10,2023-08-10,ＯＭＮＩＣＥＢＯ株式会社,,株式会社,広島県,広島市佐伯区,石内南４丁目５番２３号,,34,108,7315108,,,,,,,2023-08-10,1,,,,,,0
220,1260001038211,新規,0,2023-08-10,2023-08-10,株式会社ｌｕｎａｒｂａｓｅ,,株式会社,岡山県,岡山市北区,駅元町２９番１０号,,33,101,7000024,,,,,,,2023-08-10,1,,,,,ルナベイス,0
223,1280001009012,新規,0,2023-08-10,2023-08-10,株式会社ＢＲＥＡＫＴＨＲＯＵＧＨ,,株式会社,島根県,松江市,東津田町１７３３番地３－２０１,,32,201,6900011,,,,,,,2023-08-10,1,,,,,ブレイクスルー,0
227,1290001102575,新規,0,2023-08-10,2023-08-10,Ｈ　ａｎｄ　Ｋ株式会社,,株式会社,福岡県,福岡市中央区,港２丁目１２番１６号,,40,133,8100075,,,,,,,2023-08-10,1,,,,,エイチアンドケイ,0
228,1290001102583,新規,0,2023-08-10,2023-08-10,Ｋ　ａｎｄ　Ｔ株式会社,,株式会社,福岡県,福岡市中央区,港２丁目１２番１６号,,40,133,8100075,,,,,,,2023-08-10,1,,,,,ケイアンドティー,0
229,1290001102633,新規,0,2023-08-10,2023-08-10,株式会社グランデ,,株式会社,福岡県,福岡市中央区,大手門３丁目５－１８アパルトメントエクセレンサ１Ｆ,,40,133,8100074,,,,,,,2023-08-10,1,,,,,グランデ,0
239,1320001019931,新規,0,2023-08-10,2023-08-10,株式会社伍貴工業,,株式会社,大分県,宇佐市,大字大根川３３３番地の２,,44,211,8790232,,,,,,,2023-08-10,1,,,,,イツキコウギョウ,0
240,1330001031126,新規,0,2023-08-10,2023-08-10,株式会社ボワリーヴル,,株式会社,熊本県,阿蘇市,小倉９５６番地７,,43,214,8692312,,,,,,,2023-08-10,1,,,,,ボワリーヴル,0
241,1330001031142,新規,0,2023-08-10,2023-08-10,株式会社ＬＵＢＲＩ＆ＯＮＥ,,株式会社,熊本県,熊本市中央区,帯山６丁目７－１０１－１オリーブ帯山３号棟,,43,101,8620924,,,,,,,2023-08-10,1,,,,,ルブリアンドワン,0
242,1340001025795,新規,0,2023-08-10,2023-08-10,株式会社カワグチ２１,,株式会社,鹿児島県,大島郡天城町,大字浅間６２９番地２,,46,531,8917605,,,,,,,2023-08-10,1,,,,,カワグチニジュウイチ,0
243,1340001025812,新規,0,2023-08-10,2023-08-10,株式会社Ｒｅプラス,,株式会社,鹿児島県,鹿児島市,玉里団地３丁目３７番２０－１３ダイヤハイツ玉里Ｂ棟１０３号,,46,201,8920811,,,,,,,2023-08-10,1,,,,,リプラス,0
246,1350003004409,新規,0,2023-08-10,2023-08-10,甲斐興産合同会社,,合同会社,宮崎県,延岡市,北方町曽木子２３９５番地,,45,203,8820124,,,,,,,2023-08-10,1,,,,,カイコウサン,0
249,1360001032393,新規,0,2023-08-10,2023-08-10,株式会社ｅ‐ｓｅｌｅｃｔ,,株式会社,沖縄県,中頭郡北谷町,字桃原９番地の２,,47,326,9040104,,,,,,,2023-08-10,1,,,,,イーセレクト,0
250,1360001032410,新規,0,2023-08-10,2023-08-10,株式会社沖縄県麦生産組合,,株式会社,沖縄県,うるま市,石川伊波１５５３番地２２２,,47,213,9041115,,,,,,,2023-08-10,1,,,,,オキナワケンムギセイサンクミアイ,0
255,1370001050279,新規,0,2023-08-10,2023-08-10,株式会社Ｈｏｗｄｙ．,,株式会社,宮城県,仙台市青葉区,台原７丁目１－１３－２号,,04,101,9810911,,,,,,,2023-08-10,1,,,,,ハウディ,0
261,1380001033902,新規,0,2023-08-10,2023-08-10,株式会社米田建設,,株式会社,福島県,郡山市,開成３丁目３番２２号コーポ・セシール２０２,,07,203,9638851,,,,,,,2023-08-10,1,,,,,ヨネダケンセツ,0
262,1380001033910,新規,0,2023-08-10,2023-08-10,株式会社内外ウォール,,株式会社,福島県,郡山市,安積荒井３丁目５０９番地,,07,203,9630117,,,,,,,2023-08-10,1,,,,,ナイガイウォール,0
265,1390001017350,新規,0,2023-08-10,2023-08-10,株式会社ラ・ヴェリタ,,株式会社,山形県,米沢市,大字芳泉町２５７９番地の２,,06,202,9921442,,,,,,,2023-08-10,1,,,,,ラヴェリタ,0
274,1430001089765,新規,0,2023-08-10,2023-08-10,株式会社アリモト,,株式会社,北海道,札幌市清田区,清田八条１丁目１１番２号,,01,110,0040848,,,,,,,2023-08-10,1,,,,,アリモト,0
281,1430003015307,新規,0,2023-08-10,2023-08-10,合同会社いせ眼科クリニック,,合同会社,北海道,札幌市北区,北二十四条西１４丁目３番８号北二十四条メディカルプレイス４Ｆ,,01,102,0010024,,,,,,,2023-08-10,1,,,,,イセガンカクリニック,0
285,1700150118974,新規,0,2023-08-10,2023-08-10,ｓｈｅｎｚｈｅｎｓｈｉｊｉｎｘｕｎｋｅｊｉｙｏｕｘｉａｎｇｏｎｇｓｉ,,外国会社等,,,,,,,,Ｒｏｏｍ　５０３，Ｄｏｒｍｉｔｏｒｙ　Ｂｕｉｌｄｉｎｇ，Ｎｏ．４５　Ｌｉｘｉｎ　Ｒｏａｄ，Ｄａｎｚｈｕｔｏｕ　Ｃｏｍｍｕｎｉｔｙ，Ｎａｎｗａｎ　Ｓｔｒｅｅｔ．Ｌｏｎｇｇａｎｇ　Ｄｉｓｔｒｉｃｔ，Ｓｈｅｎｚｈｅｎ,,,,,,2023-08-10,1,,,,,シェンジェンシージンシンコージーヨウシエンゴンスー,0
300,2010001237209,新規,0,2023-08-10,2023-08-10,株式会社Ｃｈａｒｍｅ,,株式会社,東京都,中央区,日本橋室町１丁目１１番１２号日本橋水野ビル７階,,13,102,1030022,,,,,,,2023-08-10,1,,,,,チャーミー,0
301,2010003041344,新規,0,2023-08-10,2023-08-10,オーパスファンディング７合同会社,,合同会社,東京都,千代田区,丸の内３丁目１番１号東京共同会計事務所内,,13,101,1000005,,,,,,,2023-08-10,1,,,,,オーパスファンディングセブン,0
303,2010005037068,新規,0,2023-08-10,2023-08-10,特定非営利活動法人Ｒｏａｄｓ　ｔｏ　ＳＤＧｓ,,その他の設立登記法人,東京都,中央区,日本橋室町３丁目３番１号Ｅ．Ｔ．Ｓ．室町ビル４階,,13,102,1030022,,,,,,,2023-08-10,1,,,,,ロードツーエスディージーズ,0
308,2010401176254,新規,0,2023-08-10,2023-08-10,株式会社ＬＥＥＴ,,株式会社,東京都,港区,赤坂４丁目８番１９号赤坂フロントタウン３階,,13,103,1070052,,,,,,,2023-08-10,1,,,,,リート,0
309,2010401176262,新規,0,2023-08-10,2023-08-10,株式会社Ｌ．Ｃ,,株式会社,東京都,港区,赤坂１丁目１４番５号アークヒルズエグゼクティブタワー３０２,,13,103,1070052,,,,,,,2023-08-10,1,,,,,エルシー,0
310,2010401176345,新規,0,2023-08-10,2023-08-10,株式会社ＷＨＩＦ,,株式会社,東京都,港区,浜松町２丁目２番１５号浜松町ダイヤビル２階,,13,103,1050013,,,,,,,2023-08-10,1,,,,,ウィフ,0
311,2010401176378,新規,0,2023-08-10,2023-08-10,株式会社キースアージュ,,株式会社,東京都,港区,赤坂２丁目１６番２１－３０３号,,13,103,1070052,,,,,,,2023-08-10,1,,,,,キースアージュ,0
312,2010401176477,新規,0,2023-08-10,2023-08-10,ＬＳ‐ＳＨＩＰ第４２号株式会社,,株式会社,東京都,港区,六本木１丁目６番１号,,13,103,1060032,,,,,,,2023-08-10,1,,,,,エルエスシップダイヨンジュウニゴウ,0
314,2010403030723,新規,0,2023-08-10,2023-08-10,合同会社Ｋｉｎｏｋｏ　ｉｎｃ．,,合同会社,東京都,港区,南青山２丁目２―１５ＷｉｎＡｏｙａｍａビルＵＣＦ６３５,,13,103,1070062,,,,,,,2023-08-10,1,,,,,キノコインク,0
315,2010501050862,新規,0,2023-08-10,2023-08-10,株式会社力砥,,株式会社,東京都,台東区,上野７丁目３番９号,,13,106,1100005,,,,,,,2023-08-10,1,,,,,リキット,0
316,2010501050887,新規,0,2023-08-10,2023-08-10,株式会社Ｐｉｋａ　Ｐｕｔｓｕ,,株式会社,東京都,台東区,台東４丁目２９番７号花椿ビル４階,,13,106,1100016,,,,,,,2023-08-10,1,,,,,ピカプツ,0
317,2010503007118,新規,0,2023-08-10,2023-08-10,合同会社アクト,,合同会社,東京都,台東区,東上野５丁目１番８号新下谷ビル７階,,13,106,1100015,,,,,,,2023-08-10,1,,,,,アクト,0
320,2010601063566,新規,0,2023-08-10,2023-08-10,ＤＩＶＩＮＥ　ｐｏｗｅｒ　ｓｍｓ株式会社,,株式会社,東京都,江東区,千石２丁目１１番７号千石Ｎビル３Ｆ,,13,108,1350015,,,,,,,2023-08-10,1,,,,,ディバインパワーエスエムエス,0
321,2010601063590,新規,0,2023-08-10,2023-08-10,株式会社Ｉｔｏｔｓｕ,,株式会社,東京都,墨田区,緑４丁目５番４号,,13,107,1300021,,,,,,,2023-08-10,1,,,,,イトツ,0
323,2010603010302,新規,0,2023-08-10,2023-08-10,ピースシャイン合同会社,,合同会社,東京都,江東区,常盤１丁目１９番８号２０３,,13,108,1350006,,,,,,,2023-08-10,1,,,,,ピースシャイン,0
325,2010801034227,新規,0,2023-08-10,2023-08-10,株式会社ＮＯＡＨ,,株式会社,東京都,大田区,南蒲田２丁目１９番９号,,13,111,1440035,,,,,,,2023-08-10,1,,,,,ノア,0
328,2010901053614,新規,0,2023-08-10,2023-08-10,ＧＬＯＢＡＬ　ＲＯＵＮＤ株式会社,,株式会社,東京都,世田谷区,深沢１丁目３７番３号,,13,112,1580081,,,,,,,2023-08-10,1,,,,,グローバルラウンド,0
330,2011001156225,新規,0,2023-08-10,2023-08-10,Ｓｏｔｅｒ株式会社,,株式会社,東京都,目黒区,目黒３丁目４番８－７０３号ベルドミール目黒,,13,110,1530063,,,,,,,2023-08-10,1,,,,,ソテル,0
331,2011001156274,新規,0,2023-08-10,2023-08-10,株式会社ＫａＫａ　Ｍｅｒｃｈ,,株式会社,東京都,目黒区,青葉台３丁目１８番３号ＴＨＥＷＯＲＫＳ４１４号,,13,110,1530042,,,,,,,2023-08-10,1,,,,,カカマーチ,0
332,2011001156282,新規,0,2023-08-10,2023-08-10,株式会社豊島商事,,株式会社,東京都,目黒区,五本木１丁目３２番２７号ヴァンベール五本木１０２,,13,110,1530053,,,,,,,2023-08-10,1,,,,,トヨジマショウジ,0
333,2011001156290,新規,0,2023-08-10,2023-08-10,株式会社山本測量,,株式会社,東京都,目黒区,緑が丘３丁目３番１２号大新ビル３０１,,13,110,1520034,,,,,,,2023-08-10,1,,,,,ヤマモトソクリョウ,0
334,2011005010171,新規,0,2023-08-10,2023-08-10,特定非営利活動法人バース,,その他の設立登記法人,東京都,渋谷区,宇田川町３番７号ヒューリック渋谷公園通りビル５Ｆ－６９,,13,113,1500042,,,,,,,2023-08-10,1,,,,,バース,0
335,2011103013349,新規,0,2023-08-10,2023-08-10,合同会社でごじゃる,,合同会社,東京都,新宿区,西新宿３丁目３－１３西新宿水間ビル６Ｆ,,13,104,1600023,,,,,,,2023-08-10,1,,,,,デゴジャル,0
338,2011201024834,新規,0,2023-08-10,2023-08-10,株式会社デラクト,,株式会社,東京都,中野区,南台２丁目３７番１１号,,13,114,1640014,,,,,,,2023-08-10,1,,,,,デラクト,0
340,2011501029616,新規,0,2023-08-10,2023-08-10,銜鯤株式会社,,株式会社,東京都,北区,東田端２丁目９番１７号マンション西新宿２１０号室,,13,117,1140013,,,,,,,2023-08-10,1,,,,,カンコン,0
341,2011701026504,新規,0,2023-08-10,2023-08-10,株式会社アトラクト,,株式会社,東京都,江戸川区,江戸川５丁目３９番地２２フローラル・テラスＢ,,13,123,1340013,,,,,,,2023-08-10,1,,,,,アトラクト,0
345,2012301013553,新規,0,2023-08-10,2023-08-10,株式会社ハチ・アンリミテッド,,株式会社,東京都,町田市,真光寺３丁目３０番地２５,,13,209,1950057,,,,,,,2023-08-10,1,,,,,ハチアンリミテッド,0
349,2012405004886,新規,0,2023-08-10,2023-08-10,司法書士法人槐事務所,,その他の設立登記法人,東京都,多摩市,鶴牧１丁目３番地の１０シティハウス多摩２０７,,13,224,2060034,,,,,,,2023-08-10,1,,,,,エンジュジムショ,0
351,2013303006751,新規,0,2023-08-10,2023-08-10,合同会社ＷＡＶＥ,,合同会社,東京都,豊島区,南長崎６丁目２５番２－２Ｂ号,,13,116,1710052,,,,,,,2023-08-10,1,,,,,ウェイブ,0
357,2020001152910,新規,0,2023-08-10,2023-08-10,アールフォルツ株式会社,,株式会社,神奈川県,川崎市中原区,下沼部１７７８,,14,133,2110011,,,,,,,2023-08-10,1,,,,,アールフォルツ,0
358,2020001152951,新規,0,2023-08-10,2023-08-10,平良工業株式会社,,株式会社,神奈川県,横浜市鶴見区,馬場１丁目１０番３７－Ａ３０３号,,14,101,2300076,,,,,,,2023-08-10,1,,,,,タイラコウギョウ,0
359,2020001152968,新規,0,2023-08-10,2023-08-10,株式会社はる着付けサロン,,株式会社,神奈川県,横浜市西区,平沼１丁目４０番１号嶋森ビル８階,,14,103,2200023,,,,,,,2023-08-10,1,,,,,ハルキツケサロン,0
360,2020001152976,新規,0,2023-08-10,2023-08-10,株式会社ＤＥＡＰ　ＣＲＡＦＴ,,株式会社,神奈川県,横浜市港南区,芹が谷４丁目２５番５－２号,,14,111,2330006,,,,,,,2023-08-10,1,,,,,ディープクラフト,0
361,2020001153000,新規,0,2023-08-10,2023-08-10,株式会社獅ノ火,,株式会社,神奈川県,横浜市保土ケ谷区,仏向町２０番地プレシアセイショウ５０１号,,14,106,2400044,,,,,,,2023-08-10,1,,,,,シノビ,0
362,2020001153017,新規,0,2023-08-10,2023-08-10,Ｙｕｔｏｒｉ　Ｔｅｃｈ株式会社,,株式会社,神奈川県,横浜市西区,みなとみらい４丁目９－１Ｍ．Ｍ．ＴｏｗｅｒｓＦｏｒｅｓｉｓＲ棟Ｂ５０４,,14,103,2200012,,,,,,,2023-08-10,1,,,,,ユトリテック,0
366,2020003024348,新規,0,2023-08-10,2023-08-10,合同会社ｂａｃｋｓｔａｇｅ,,合同会社,神奈川県,川崎市高津区,新作１丁目２３番３２－３０８号,,14,134,2130014,,,,,,,2023-08-10,1,,,,,バックステージ,0
367,2020003024356,新規,0,2023-08-10,2023-08-10,東海勧業合同会社,,合同会社,神奈川県,川崎市宮前区,宮前平２丁目８番地１０ライオンズマンション宮前平第７・１０３,,14,136,2160006,,,,,,,2023-08-10,1,,,,,トウカイカンギョウ,0
368,2020003024372,新規,0,2023-08-10,2023-08-10,合同会社さくまコーポレーション,,合同会社,神奈川県,横浜市西区,御所山町３９番地,,14,103,2200043,,,,,,,2023-08-10,1,,,,,サクマコーポレーション,0
369,2020003024380,新規,0,2023-08-10,2023-08-10,ＣＡＤＥＸ合同会社,,合同会社,神奈川県,川崎市幸区,柳町３５番地ミツミレジデンス３０２,,14,132,2120015,,,,,,,2023-08-10,1,,,,,キャデックス,0
370,2020003024389,新規,0,2023-08-10,2023-08-10,Ｈａｒｖｅｓｔ合同会社,,合同会社,神奈川県,横浜市栄区,本郷台５丁目１２番７号ハイツサトウ１０１,,14,115,2470008,,,,,,,2023-08-10,1,,,,,ハーヴェスト,0
372,2021001079854,新規,0,2023-08-10,2023-08-10,株式会社ＢｌａｎｋＡＩ,,株式会社,神奈川県,逗子市,逗子５丁目１番１２号,,14,208,2490006,,,,,,,2023-08-10,1,,,,,ブランクエーアイ,0
373,2021001079862,新規,0,2023-08-10,2023-08-10,株式会社テクラボワークス,,株式会社,神奈川県,愛甲郡愛川町,半原１６９２－２０,,14,401,2430307,,,,,,,2023-08-10,1,,,,,テクラボワークス,0
374,2021003013415,新規,0,2023-08-10,2023-08-10,合同会社鵠福企画,,合同会社,神奈川県,藤沢市,鵠沼松が岡２丁目１４番９号,,14,205,2510038,,,,,,,2023-08-10,1,,,,,コウフクキカク,0
383,2030001155193,新規,0,2023-08-10,2023-08-10,株式会社Ｓｏａｒ,,株式会社,埼玉県,川口市,大字道合１２４３番地の１ＡｍｒｉｔａＩＩＩ１０１,00131481,11,203,3330835,,,,,,,2023-08-10,1,,,,,ソアー,0
384,2030001155490,新規,0,2023-08-10,2023-08-10,サンシステムズ株式会社,,株式会社,埼玉県,入間郡毛呂山町,前久保南１丁目６番地３７,,11,326,3500463,,,,,,,2023-08-10,1,,,,,サンシステムズ,0
386,2030003022276,新規,0,2023-08-10,2023-08-10,合同会社星野,,合同会社,埼玉県,越谷市,レイクタウン１丁目１９番地１７,,11,222,3430828,,,,,,,2023-08-10,1,,,,,ホシノ,0
388,2040001129642,新規,0,2023-08-10,2023-08-10,ケアーナ株式会社,,株式会社,千葉県,茂原市,千代田町１丁目６－１－１３,,12,210,2970023,,,,,,,2023-08-10,1,,,,,ケアーナ,0
392,2040003023083,新規,0,2023-08-10,2023-08-10,合同会社ＢＯＮＤ,,合同会社,千葉県,我孫子市,下ケ戸４３９番地,,12,222,2701138,,,,,,,2023-08-10,1,,,,,ボンド,0
393,2040003023109,新規,0,2023-08-10,2023-08-10,合同会社ギフテッド,,合同会社,千葉県,浦安市,今川４丁目６番１４号,,12,227,2790022,,,,,,,2023-08-10,1,,,,,ギフテッド,0
400,2050003007696,新規,0,2023-08-10,2023-08-10,東光合同会社,,合同会社,茨城県,水戸市,小吹町２６７番地の８７,,08,201,3100914,,,,,,,2023-08-10,1,,,,,トウコウ,0
402,2060001036242,新規,0,2023-08-10,2023-08-10,ＳＵＳＴＡＲ　ＴＲＡＤＩＮＧ　ＡＮＤ　ＣＯＮＳＵＬＴＩＮＧ株式会社,,株式会社,栃木県,宇都宮市,泉が丘１丁目１５番２９号ＭＵＳＡＳＨＩ・ＩＺＵＭＩＧＡＯＫＡ・ＢＡＳＥ・Ｒｏｏｍ－３,,09,201,3210952,,,,,,,2023-08-10,1,,,,,スースタートレーディングアンドコンサルティング,0
403,2060001036250,新規,0,2023-08-10,2023-08-10,株式会社ＲＦＦ,,株式会社,栃木県,宇都宮市,富士見が丘１丁目２番５号,,09,201,3200011,,,,,,,2023-08-10,1,,,,,アールエフエフ,0
429,2120001257088,新規,0,2023-08-10,2023-08-10,株式会社Ｌｉｂｅｒｔｙ,,株式会社,大阪府,大阪市西成区,旭１丁目５－２３,,27,122,5570032,,,,,,,2023-08-10,1,,,,,リバティ,0
430,2120001257245,新規,0,2023-08-10,2023-08-10,株式会社結,,株式会社,大阪府,大阪市淀川区,木川西２丁目２番１７号岡寺ビル８０５号,,27,123,5320013,,,,,,,2023-08-10,1,,,,,ムスビ,0
435,2120103005378,新規,0,2023-08-10,2023-08-10,合同会社Ｗｅｌｌ‐ｂｅｉｎｇ,,合同会社,大阪府,松原市,天美我堂２丁目３７８番地２０３号,,27,217,5800026,,,,,,,2023-08-10,1,,,,,ウェルビーイング,0
436,2120901047935,新規,0,2023-08-10,2023-08-10,ＥＣＦ　Ｊａｐａｎ株式会社,,株式会社,大阪府,摂津市,東別府３丁目１番１０号,,27,224,5660042,,,,,,,2023-08-10,1,,,,,イーシーエフジャパン,0
438,2122001037255,新規,0,2023-08-10,2023-08-10,株式会社Ｎｉｓｈｉｏ内装,,株式会社,大阪府,東大阪市,横小路町３丁目８番５号,,27,227,5798063,,,,,,,2023-08-10,1,,,,,ニシオナイソウ,0
445,2130001074937,新規,0,2023-08-10,2023-08-10,３ｗａｙｇｏｏｄ株式会社,,株式会社,京都府,京都市伏見区,淀池上町１３５番地１ウインライフ淀４０５号室,,26,109,6130904,,,,,,,2023-08-10,1,,,,,スリーウェイグッド,0
446,2130005016844,新規,0,2023-08-10,2023-08-10,一般社団法人薬害研究資料館,,その他の設立登記法人,京都府,京都市中京区,堺町通竹屋町下る絹屋町１２０番地,,26,104,6040804,,,,,,,2023-08-10,1,,,,,ヤクガイケンキュウシリョウカン,0
451,2140001131159,新規,0,2023-08-10,2023-08-10,株式会社ｅ‐チェリッシュ,,株式会社,兵庫県,三木市,志染町広野３丁目４７０番地の１,,28,215,6730541,,,,,,,2023-08-10,1,,,,,イーチェリッシュ,0
452,2140001131209,新規,0,2023-08-10,2023-08-10,永那工業株式会社,,株式会社,兵庫県,神戸市北区,中里町１丁目８番地の１９６,,28,109,6511103,,,,,,,2023-08-10,1,,,,,エイナコウギョウ,0
453,2140001131241,新規,0,2023-08-10,2023-08-10,株式会社Ａｌｖｙ,,株式会社,兵庫県,神戸市中央区,磯上通８丁目１番２９号カサベラビルＣ＆Ｍ４０３,,28,110,6510086,,,,,,,2023-08-10,1,,,,,アルヴィー,0
458,2140003019393,新規,0,2023-08-10,2023-08-10,合同会社ＰＵＰＵ,,合同会社,兵庫県,西宮市,雲井町３番２８号,,28,204,6620064,,,,,,,2023-08-10,1,,,,,ププ,0
459,2140003019402,新規,0,2023-08-10,2023-08-10,合同会社ＨＯＵＳＨＯ,,合同会社,兵庫県,神戸市東灘区,西岡本５丁目７番１０号,,28,101,6580073,,,,,,,2023-08-10,1,,,,,ホウショウ,0
462,2150001026614,新規,0,2023-08-10,2023-08-10,フジコウ株式会社,,株式会社,奈良県,生駒郡三郷町,勢野東４丁目２番２０号,,29,343,6360811,,,,,,,2023-08-10,1,,,,,フジコウ,0
463,2150003003025,新規,0,2023-08-10,2023-08-10,Ｗａｌｒｕｓ合同会社,,合同会社,奈良県,御所市,大字僧堂３１番地の１,,29,208,6392342,,,,,,,2023-08-10,1,,,,,ウォールラス,0
464,2160001025243,新規,0,2023-08-10,2023-08-10,ＶｉｏｌａＰｅｔｓ　Ｊａｐａｎ株式会社,,株式会社,滋賀県,大津市,衣川３丁目１７番１９号,,25,201,5200244,,,,,,,2023-08-10,1,,,,,ヴィオラペッツジャパン,0
470,2180001157522,新規,0,2023-08-10,2023-08-10,株式会社来日,,株式会社,愛知県,名古屋市瑞穂区,川澄町２丁目８番地シャンポール藤美２ｂ,,23,108,4670002,,,,,,,2023-08-10,1,,,,,ライジツ,0
475,2180003025594,新規,0,2023-08-10,2023-08-10,ＮＡＲＩＫＯダンススクール合同会社,,合同会社,愛知県,北名古屋市,薬師寺屋敷６０番地,,23,234,4810005,,,,,,,2023-08-10,1,,,,,ナリコダンススクール,0
476,2180003025611,新規,0,2023-08-10,2023-08-10,合同会社三弘スタッフ,,合同会社,愛知県,名古屋市昭和区,車田町１丁目１０３番地２,,23,107,4660001,,,,,,,2023-08-10,1,,,,,サンコウスタッフ,0
478,2180005020321,新規,0,2023-08-10,2023-08-10,一般社団法人ｃｈｅｒｉｓｈ,,その他の設立登記法人,愛知県,名古屋市緑区,松が根台２３０番地の１松が根台マンション４０７,,23,114,4580843,,,,,,,2023-08-10,1,,,,,チェリッシュ,0
479,2180301037663,新規,0,2023-08-10,2023-08-10,株式会社サンエクス,,株式会社,愛知県,豊川市,市田町河尻４１番地の１,,23,207,4420862,,,,,,,2023-08-10,1,,,,,サンエクス,0
480,2180301037671,新規,0,2023-08-10,2023-08-10,株式会社オールスターズ,,株式会社,愛知県,豊橋市,駅前大通２丁目８１番地（１７０８）,,23,201,4400888,,,,,,,2023-08-10,1,,,,,オールスターズ,0
487,2190001030645,新規,0,2023-08-10,2023-08-10,株式会社ニシモリ,,株式会社,三重県,四日市市,石塚町１番６号,,24,202,5100828,,,,,,,2023-08-10,1,,,,,ニシモリ,0
488,2190001030653,新規,0,2023-08-10,2023-08-10,ＫｏｂａＳｙｓｔｅｍ株式会社,,株式会社,三重県,松阪市,鎌田町９７７番地１９,,24,204,5150005,,,,,,,2023-08-10,1,,,,,コバシステム,0
491,2200001041566,新規,0,2023-08-10,2023-08-10,株式会社ＴＬ　ＢＯＡＲＤ,,株式会社,岐阜県,養老郡養老町,養老１２３２番地２,,21,341,5031255,,,,,,,2023-08-10,1,,,,,ティーエルボード,0
497,2220001025542,新規,0,2023-08-10,2023-08-10,三つ星食彩株式会社,,株式会社,石川県,金沢市,玉鉾５丁目６４番地２,,17,201,9218002,,,,,,,2023-08-10,1,,,,,ミツボシショクサイ,0
499,2220003003562,新規,0,2023-08-10,2023-08-10,合同会社ＯＷＮＥＲＳ,,合同会社,石川県,野々市市,稲荷２丁目２６‐１,,17,212,9218805,,,,,,,2023-08-10,1,,,,,,0
500,2230001019964,新規,0,2023-08-10,2023-08-10,西村工業株式会社,,株式会社,富山県,富山市,婦中町ねむの木２番地９,,16,201,9392724,,,,,,,2023-08-10,1,,,,,ニシムラコウギョウ,0
508,2290001102533,新規,0,2023-08-10,2023-08-10,株式会社ウェルスビル,,株式会社,福岡県,福岡市中央区,大名２丁目１番４３号４０２号,,40,133,8100041,,,,,,,2023-08-10,1,,,,,ウェルスビル,0
509,2290001102541,新規,0,2023-08-10,2023-08-10,ネクストコア株式会社,,株式会社,福岡県,春日市,宝町１丁目４フラワーライフ伯玄２０２号室,,40,218,8160807,,,,,,,2023-08-10,1,,,,,ネクストコア,0
510,2290001102558,新規,0,2023-08-10,2023-08-10,ＵＮＲＥＡＬ株式会社,,株式会社,福岡県,福岡市博多区,下呉服町５番１号－３Ｆ,,40,132,8120034,,,,,,,2023-08-10,1,,,,,アンリアル,0
511,2290001102566,新規,0,2023-08-10,2023-08-10,株式会社ＬＡＣＨＵ,,株式会社,福岡県,久留米市,六ツ門町１３番地４１シャルム六ツ門１０１号,,40,203,8300031,,,,,,,2023-08-10,1,,,,,ラチュ,0
512,2290001102599,新規,0,2023-08-10,2023-08-10,アステラス株式会社,,株式会社,福岡県,久留米市,南３丁目２３番１１号セフィラミナミＢ棟１０５号,,40,203,8300051,,,,,,,2023-08-10,1,,,,,アステラス,0
513,2290001102632,新規,0,2023-08-10,2023-08-10,株式会社ＴＥＲＡＳ　ＬＩＮＱ,,株式会社,福岡県,福岡市博多区,吉塚７丁目１１０番１号２Ｆ,,40,132,8120041,,,,,,,2023-08-10,1,,,,,テラスリンク,0
514,2290001102640,新規,0,2023-08-10,2023-08-10,株式会社Ａｐｐｌｅ　Ｔｒｅｅ,,株式会社,福岡県,糟屋郡篠栗町,大字尾仲４９９－１,,40,342,8112413,,,,,,,2023-08-10,1,,,,,アップルツリー,0
515,2290001102649,新規,0,2023-08-10,2023-08-10,株式会社エムアンドエム,,株式会社,福岡県,福岡市西区,姪の浜４丁目１４番２５号３階,,40,135,8190002,,,,,,,2023-08-10,1,,,,,エムアンドエム,0
517,2290003014223,新規,0,2023-08-10,2023-08-10,合同会社エリタージュ,,合同会社,福岡県,福岡市中央区,大名２丁目１０番３号,,40,133,8100041,,,,,,,2023-08-10,1,,,,,エリタージュ,0
523,2310001018561,新規,0,2023-08-10,2023-08-10,四ツ葉運輸株式会社,,株式会社,長崎県,松浦市,調川町下免６９５番地１９,,42,208,8594536,,,,,,,2023-08-10,1,,,,,ヨツバウンユ,0
526,2330001031133,新規,0,2023-08-10,2023-08-10,株式会社ＦＵＫＵＤＡ,,株式会社,熊本県,合志市,須屋２８９３番地２６,,43,216,8611102,,,,,,,2023-08-10,1,,,,,フクダ,0
528,2330003009937,新規,0,2023-08-10,2023-08-10,合同会社ＴＭＭＳパートナーズ,,合同会社,熊本県,熊本市東区,広木町７番１号,,43,102,8620906,,,,,,,2023-08-10,1,,,,,パートナーズ,0
529,2340003004202,新規,0,2023-08-10,2023-08-10,合同会社ＢＲＩＧＨＴ,,合同会社,鹿児島県,鹿児島市,樋之口町３番２１号ウエストパーク１０１,,46,201,8920845,,,,,,,2023-08-10,1,,,,,ブライト,0
530,2340005009637,新規,0,2023-08-10,2023-08-10,一般社団法人ぱずる,,その他の設立登記法人,鹿児島県,いちき串木野市,上名１０６番地１,,46,219,8960052,,,,,,,2023-08-10,1,,,,,パズル,0
531,2350003004408,新規,0,2023-08-10,2023-08-10,合同会社うちでのこづち,,合同会社,宮崎県,都城市,豊満町５２４番地９,,45,202,8850043,,,,,,,2023-08-10,1,,,,,ウチデノコヅチ,0
535,2360001032418,新規,0,2023-08-10,2023-08-10,ｉ‐ｃｏｂ株式会社,,株式会社,沖縄県,うるま市,勝連平敷屋１１６番地,,47,213,9042314,,,,,,,2023-08-10,1,,,,,アイコブ,0
538,2370005010666,新規,0,2023-08-10,2023-08-10,税理士法人大原・齋藤会計事務所,,その他の設立登記法人,宮城県,仙台市青葉区,片平１丁目１番６－９０３号,,04,101,9800812,,,,,,,2023-08-10,1,,,,,オオハラサイトウカイケイジムショ,0
544,2380003005535,新規,0,2023-08-10,2023-08-10,アルシオン合同会社,,合同会社,福島県,郡山市,西ノ内１丁目３番２号,,07,203,9638022,,,,,,,2023-08-10,1,,,,,アルシオン,0
545,2380005012736,新規,0,2023-08-10,2023-08-10,一般社団法人みらいの光,,その他の設立登記法人,福島県,福島市,方木田字仲川原３番地の１５,,07,201,9608163,,,,,,,2023-08-10,1,,,,,ミライノヒカリ,0
547,2410001013560,新規,0,2023-08-10,2023-08-10,株式会社佐藤ルーフ工業,,株式会社,秋田県,秋田市,横森２丁目２０－９,,05,201,0100044,,,,,,,2023-08-10,1,,,,,,0
550,2430001089640,新規,0,2023-08-10,2023-08-10,株式会社ケイ・アイコーポレーション,,株式会社,北海道,恵庭市,白樺町３丁目１４番５号,,01,231,0611412,,,,,,,2023-08-10,1,,,,,ケイアイコーポレーション,0
551,2430001089681,新規,0,2023-08-10,2023-08-10,株式会社Ｔ’Ｓ　ＦＡＣＴＯＲＹ,,株式会社,北海道,札幌市西区,発寒十条４丁目６番２５号,,01,107,0630830,,,,,,,2023-08-10,1,,,,,ティーズファクトリー,0
552,2430001089748,新規,0,2023-08-10,2023-08-10,株式会社ＰＯＬＡＩＤ,,株式会社,北海道,札幌市清田区,北野一条１丁目５番１５号ラ・メール１０２号,,01,110,0040861,,,,,,,2023-08-10,1,,,,,ポライド,0
553,2430003015322,新規,0,2023-08-10,2023-08-10,大沢印刷合同会社,,合同会社,北海道,札幌市東区,本町二条７丁目５番１９号,,01,103,0650042,,,,,,,2023-08-10,1,,,,,オオサワインサツ,0
554,2450003002376,新規,0,2023-08-10,2023-08-10,合同会社ロイヤルヒーロー,,合同会社,北海道,旭川市,北門町１６丁目２１５９番地の２,,01,204,0700825,,,,,,,2023-08-10,1,,,,,ロイヤルヒーロー,0
556,2460101007417,新規,0,2023-08-10,2023-08-10,株式会社トライ,,株式会社,北海道,帯広市,西二十三条南２丁目４－１２,,01,207,0802473,,,,,,,2023-08-10,1,,,,,,0
559,2470001019734,新規,0,2023-08-10,2023-08-10,株式会社コネクト・リンク,,株式会社,香川県,坂出市,林田町２６８番地７,,37,203,7620012,,,,,,,2023-08-10,1,,,,,コネクトリンク,0
560,2470001019750,新規,0,2023-08-10,2023-08-10,株式会社ＣＯＮＮＥＣＴ　Ｕ,,株式会社,香川県,高松市,木太町１３５３番地１ル・エスト宮前３０４号,,37,201,7600080,,,,,,,2023-08-10,1,,,,,コネクトユー,0
561,2480003002010,新規,0,2023-08-10,2023-08-10,ＫＪレンタカー合同会社,,合同会社,徳島県,阿波市,吉野町五条字北原４４１番地４,,36,206,7711403,,,,,,,2023-08-10,1,,,,,ケイジェイレンタカー,0
562,2480005006975,新規,0,2023-08-10,2023-08-10,一般社団法人藻藍部,,その他の設立登記法人,徳島県,海部郡美波町,日和佐浦原野１９番地８地先埋立地,,36,387,7792304,,,,,,,2023-08-10,1,,,,,モアイブ,0
565,2500001025134,新規,0,2023-08-10,2023-08-10,株式会社ＡＬＢＵＳ,,株式会社,愛媛県,松山市,小坂３丁目３番３６号サザンステラ２０２号,,38,201,7900963,,,,,,,2023-08-10,1,,,,,アルバス,0
568,2700150118973,新規,0,2023-08-10,2023-08-10,ｓｈｅｎｚｈｅｎｓｈｅｎｇｙａｎｇｋｅｊｉｙｏｕｘｉａｎｇｏｎｇｓｉ,,外国会社等,,,,,,,,ｈｕａｑｉａｎｇｂｅｉｊｉｅｄａｏｈｕａｈａｎｇｓｈｅｑｕｈｕａｑｉａｎｇｂｅｉｌｕ２００１ｈａｏ　ｓｈｅｎｆａｎｇｄａｓｈａＢｚｕｏ１７１０　ｓｈｅｎｚｈｅｎｓｈｉ　ｆｕｔｉａｎｑｕ　５１８０２８　ＣＮ,,,,,,2023-08-10,1,,,,,シェンジェンションヤンコージーヨウシエンゴンスー,0
569,2700150118981,新規,0,2023-08-10,2023-08-10,Ｔｈｅ　ＰＯＳ　Ｉｎｃ．,,外国会社等,埼玉県,さいたま市浦和区,本太５丁目１６番７号,,11,107,3300052,大韓民国京畿道利川市新屯面圓寂路４１９－５６,,,,,,2023-08-10,1,,,,,ザポスインク,0
574,3010001237595,新規,0,2023-08-10,2023-08-10,株式会社三山,,株式会社,東京都,中央区,勝どき６丁目３番２－５６１８号,,13,102,1040054,,,,,,,2023-08-10,1,,,,,ミツヤマ,0
579,3010003041293,新規,0,2023-08-10,2023-08-10,合同会社志摩,,合同会社,東京都,千代田区,平河町１丁目６番１７－１２０２号,,13,101,1020093,,,,,,,2023-08-10,1,,,,,シマ,0
580,3010003041310,新規,0,2023-08-10,2023-08-10,カラムス合同会社,,合同会社,東京都,千代田区,神田和泉町１番地６－１６ヤマトビル４０５,,13,101,1010024,,,,,,,2023-08-10,1,,,,,カラムス,0
581,3010005037075,新規,0,2023-08-10,2023-08-10,一般社団法人Ｔａｔｓｕｍａ　Ｓｐｏｒｔｓ　Ｃｒｅａｔｉｏｎ,,その他の設立登記法人,東京都,中央区,日本橋室町１丁目１１番１２号日本橋水野ビル７階,,13,102,1030022,,,,,,,2023-08-10,1,,,,,タツマスポーツクリエーション,0
582,3010005037091,新規,0,2023-08-10,2023-08-10,一般社団法人ＫＲＦ２,,その他の設立登記法人,東京都,千代田区,丸の内３丁目１番１号東京共同会計事務所内,,13,101,1000005,,,,,,,2023-08-10,1,,,,,ケイアールエフツー,0
588,3010401176253,新規,0,2023-08-10,2023-08-10,株式会社燈,,株式会社,東京都,港区,芝４丁目６番１３－１４０１号,,13,103,1080014,,,,,,,2023-08-10,1,,,,,アカリ,0
589,3010401176278,新規,0,2023-08-10,2023-08-10,株式会社ＳＫＹ,,株式会社,東京都,港区,白金６丁目１０番１７号,,13,103,1080072,,,,,,,2023-08-10,1,,,,,スカイ,0
590,3010401176294,新規,0,2023-08-10,2023-08-10,株式会社グローバル・ブリッジ・リアリティージャパン,,株式会社,東京都,港区,赤坂４丁目５番２１号バルミ赤坂５０６,,13,103,1070052,,,,,,,2023-08-10,1,,,,,グローバルブリッジリアリティージャパン,0
591,3010401176352,新規,0,2023-08-10,2023-08-10,株式会社ＮＡＴＳＬＩＶＥ,,株式会社,東京都,港区,北青山３丁目１１番７号,,13,103,1070061,,,,,,,2023-08-10,1,,,,,ナッツライブ,0
592,3010401176377,新規,0,2023-08-10,2023-08-10,株式会社Ｇａｍａｄａｓ,,株式会社,東京都,港区,西麻布２丁目２４番１４号ＳＡＦＵＹＡ西麻布２０２,,13,103,1060031,,,,,,,2023-08-10,1,,,,,ガマダス,0
593,3010403030664,新規,0,2023-08-10,2023-08-10,みなよし合同会社,,合同会社,東京都,港区,三田４丁目１５番１－４２１号,,13,103,1080073,,,,,,,2023-08-10,1,,,,,ミナヨシ,0
594,3010403030672,新規,0,2023-08-10,2023-08-10,合同会社Ｋ２３,,合同会社,東京都,港区,北青山３丁目６番７号青山パラシオタワー１１階,,13,103,1070061,,,,,,,2023-08-10,1,,,,,ケーニジュウサン,0
595,3010501050861,新規,0,2023-08-10,2023-08-10,株式会社アシメデフィット,,株式会社,東京都,台東区,上野７丁目３番９号,,13,106,1100005,,,,,,,2023-08-10,1,,,,,アシメデフィット,0
596,3010501050894,新規,0,2023-08-10,2023-08-10,株式会社カンパニーナビコンサルティング,,株式会社,東京都,台東区,上野５丁目１６番１６号天美ビル２階,,13,106,1100005,,,,,,,2023-08-10,1,,,,,カンパニーナビコンサルティング,0
597,3010503007117,新規,0,2023-08-10,2023-08-10,合同会社エムズ,,合同会社,東京都,台東区,浅草橋１丁目３０番１号浅草橋東口ビル４階,,13,106,1110053,,,,,,,2023-08-10,1,,,,,エムズ,0
598,3010601063573,新規,0,2023-08-10,2023-08-10,株式会社ＫＡＢＵＲＡＧＩ,,株式会社,東京都,江東区,永代２丁目３１番９号,,13,108,1350034,,,,,,,2023-08-10,1,,,,,カブラギ,0
599,3010601063581,新規,0,2023-08-10,2023-08-10,株式会社チコネクト,,株式会社,東京都,江東区,大島６丁目９番３号,,13,108,1360072,,,,,,,2023-08-10,1,,,,,チコネクト,0
600,3010603010301,新規,0,2023-08-10,2023-08-10,合同会社みてり,,合同会社,東京都,江東区,白河１丁目２番１０－３０４号,,13,108,1350021,,,,,,,2023-08-10,1,,,,,ミテリ,0
604,3010701044696,新規,0,2023-08-10,2023-08-10,株式会社ＢＬＵＥ　ＩＮ　ＧＲＥＥＮ,,株式会社,東京都,品川区,荏原６丁目１７－２０プリモアームズエバラ４０１,,13,109,1420063,,,,,,,2023-08-10,1,,,,,ブルーイングリーン,0
605,3010701044705,新規,0,2023-08-10,2023-08-10,株式会社Ｇｉｇｉ,,株式会社,東京都,品川区,西五反田３丁目４番１０号目黒ＭＡＲＣレジデンスタワー３０４,,13,109,1410031,,,,,,,2023-08-10,1,,,,,ジジ,0
608,3010801034226,新規,0,2023-08-10,2023-08-10,ＡＴＯＴＯ　ＪＡＰＡＮ株式会社,,株式会社,東京都,大田区,矢口２丁目１２番１９号,,13,111,1460093,,,,,,,2023-08-10,1,,,,,アトートジャパン,0
609,3010801034234,新規,0,2023-08-10,2023-08-10,株式会社ウエキホールディングス,,株式会社,東京都,大田区,久が原５丁目３３番１０号,,13,111,1460085,,,,,,,2023-08-10,1,,,,,ウエキホールディングス,0
611,3010901053596,新規,0,2023-08-10,2023-08-10,株式会社ｐＡＩｎｔｅｒ,,株式会社,東京都,世田谷区,上野毛３丁目１７番８号上野毛グリーンヒルズ１００,,13,112,1580093,,,,,,,2023-08-10,1,,,,,ペインター,0
616,3011001156174,新規,0,2023-08-10,2023-08-10,株式会社ＭＹ　ＳＴＯＲＹ,,株式会社,東京都,渋谷区,鶯谷町３番１号渋谷ＳＵビル８０１,,13,113,1500032,,,,,,,2023-08-10,1,,,,,マイストーリー,0
617,3011003017317,新規,0,2023-08-10,2023-08-10,合同会社岸コンサルティング,,合同会社,東京都,渋谷区,千駄ヶ谷３丁目３－２３－２０３,,13,113,1510051,,,,,,,2023-08-10,1,,,,,キシコンサルティング,0
618,3011003017341,新規,0,2023-08-10,2023-08-10,合同会社ＰＢＨ,,合同会社,東京都,渋谷区,笹塚１丁目５６番５号,,13,113,1510073,,,,,,,2023-08-10,1,,,,,ピービーエイチ,0
620,3011201024841,新規,0,2023-08-10,2023-08-10,株式会社オレンジ,,株式会社,東京都,中野区,上鷺宮５丁目２１番地４３号,,13,114,1650031,,,,,,,2023-08-10,1,,,,,オレンジ,0
624,3011501029615,新規,0,2023-08-10,2023-08-10,Ｓｕｍｓｈｉｎｅ株式会社,,株式会社,東京都,北区,東田端２丁目９番１７号マンション西新宿２１３号室,,13,117,1140013,,,,,,,2023-08-10,1,,,,,サンシャイン,0
631,3012703002772,新規,0,2023-08-10,2023-08-10,ＰｅｔＴｅｃｈ合同会社,,合同会社,東京都,小平市,仲町２６３番地の１モンシャトー吉田Ｃ棟２０２号,,13,211,1870042,,,,,,,2023-08-10,1,,,,,ペットテック,0
638,3013303006750,新規,0,2023-08-10,2023-08-10,京東ハウジング合同会社,,合同会社,東京都,豊島区,南池袋２丁目１８番２号池袋南ビル２階,,13,116,1710022,,,,,,,2023-08-10,1,,,,,キョウトウハウジング,0
643,3020001152926,新規,0,2023-08-10,2023-08-10,株式会社ＯＮＥ　ＳＴＥＰ,,株式会社,神奈川県,横浜市西区,西平沼町４番１号,,14,103,2200024,,,,,,,2023-08-10,1,,,,,ワンステップ,0
644,3020001152934,新規,0,2023-08-10,2023-08-10,株式会社佐竹組,,株式会社,神奈川県,横浜市栄区,飯島町１０７２番地９,,14,115,2440842,,,,,,,2023-08-10,1,,,,,サタケグミ,0
645,3020001152983,新規,0,2023-08-10,2023-08-10,株式会社ＭＥＩＫＩ,,株式会社,神奈川県,横浜市泉区,弥生台４６番地８,,14,116,2450008,,,,,,,2023-08-10,1,,,,,メイキ,0
649,3020003024339,新規,0,2023-08-10,2023-08-10,合同会社Ｍ＆Ｈ,,合同会社,神奈川県,川崎市高津区,二子１丁目１７番１－５２６号ドレッセ二子新地,,14,134,2130002,,,,,,,2023-08-10,1,,,,,エムアンドエイチ,0
650,3020003024371,新規,0,2023-08-10,2023-08-10,合同会社歩平,,合同会社,神奈川県,川崎市宮前区,土橋２丁目８番地５、４０７,,14,136,2160005,,,,,,,2023-08-10,1,,,,,ホヘイ,0
653,3021001079837,新規,0,2023-08-10,2023-08-10,株式会社Ｔｒｙコーポレーション,,株式会社,神奈川県,厚木市,中町３丁目３番２０号ビクトリアビル３０１,,14,212,2430018,,,,,,,2023-08-10,1,,,,,トライコーポレーション,0
654,3021003013414,新規,0,2023-08-10,2023-08-10,合同会社いちまるまるいち,,合同会社,神奈川県,藤沢市,柄沢５６０－４,,14,205,2510003,,,,,,,2023-08-10,1,,,,,イチマルマルイチ,0
655,3021003013422,新規,0,2023-08-10,2023-08-10,合同会社ｒｏｕｅｔｌａｎｔｉｓ,,合同会社,神奈川県,横須賀市,池田町１丁目１３番１７号,,14,201,2390806,,,,,,,2023-08-10,1,,,,,ルウトランティス,0
657,3030001155481,新規,0,2023-08-10,2023-08-10,株式会社山本建設運輸,,株式会社,埼玉県,草加市,長栄３丁目４４番地７グッティワン２０５号,,11,221,3400051,,,,,,,2023-08-10,1,,,,,ヤマモトケンセツウンユ,0
658,3030003022382,新規,0,2023-08-10,2023-08-10,ホンチョウ商事合同会社,,合同会社,埼玉県,越谷市,越ヶ谷１丁目１０番１１号ハラグチビル５０１号,,11,222,3430813,,,,,,,2023-08-10,1,,,,,ホンチョウショウジ,0
664,3040001129609,新規,0,2023-08-10,2023-08-10,ＡＴＳ自動車株式会社,,株式会社,千葉県,銚子市,春日町１０５番地,,12,202,2880814,,,,,,,2023-08-10,1,,,,,エーティエスジドウシャ,0
665,3040001129633,新規,0,2023-08-10,2023-08-10,株式会社ｄｉｘ‐ｓｅｐｔ,,株式会社,千葉県,市原市,ちはら台東５丁目６－１４,,12,219,2900141,,,,,,,2023-08-10,1,,,,,ディセット,0
666,3040001129641,新規,0,2023-08-10,2023-08-10,栄信工業株式会社,,株式会社,千葉県,富津市,小久保２７１３－１９,,12,226,2930042,,,,,,,2023-08-10,1,,,,,エイシンコウギョウ,0
672,3040003023090,新規,0,2023-08-10,2023-08-10,合同会社ＭＡＵＬＩＩ,,合同会社,千葉県,市川市,市川南１丁目６番２８号,,12,203,2720033,,,,,,,2023-08-10,1,,,,,マウリ,0
675,3050001053287,新規,0,2023-08-10,2023-08-10,ＨＡＴ長川株式会社,,株式会社,茨城県,筑西市,玉戸１２００番地１７,,08,227,3080847,,,,,,,2023-08-10,1,,,,,エイチエイティナガカワ,0
677,3060001036241,新規,0,2023-08-10,2023-08-10,さつきトレード株式会社,,株式会社,栃木県,宇都宮市,さつき１丁目３番８号,,09,201,3210141,,,,,,,2023-08-10,1,,,,,サツキトレード,0
683,3080401026666,新規,0,2023-08-10,2023-08-10,株式会社Ｓ＆Ｎ,,株式会社,静岡県,浜松市東区,市野町２７９番地の１,,22,132,4350051,,,,,,,2023-08-10,1,,,,,エスアンドエヌ,0
694,3120001257153,新規,0,2023-08-10,2023-08-10,株式会社ＴＥＴＲＡ,,株式会社,大阪府,大阪市城東区,関目２丁目７－８,,27,118,5360008,,,,,,,2023-08-10,1,,,,,テトラ,0
695,3120001257178,新規,0,2023-08-10,2023-08-10,株式会社アストライブ,,株式会社,大阪府,大阪市中央区,平野町２丁目５－８平野町センチュリービル,,27,128,5410046,,,,,,,2023-08-10,1,,,,,アストライブ,0
696,3120001257252,新規,0,2023-08-10,2023-08-10,株式会社星野商会,,株式会社,大阪府,大阪市都島区,大東町２丁目１８番９号,,27,102,5340002,,,,,,,2023-08-10,1,,,,,ホシノショウカイ,0
697,3120001257277,新規,0,2023-08-10,2023-08-10,株式会社Ｊｕｎｃｔｉｏｎ,,株式会社,大阪府,大阪市中央区,南船場３丁目１１－１０心斎橋大陽ビルＢ１ＦＴＨＥＨＵＢ心斎橋内,,27,128,5420081,,,,,,,2023-08-10,1,,,,,ジャンクション,0
698,3120001257368,新規,0,2023-08-10,2023-08-10,河北大業株式会社,,株式会社,大阪府,大阪市浪速区,幸町２丁目３－１４ダイトービル２０８号室,,27,111,5560021,,,,,,,2023-08-10,1,,,,,カホクダイギョウ,0
699,3120003024691,新規,0,2023-08-10,2023-08-10,合同会社ａｎｅｌａ,,合同会社,大阪府,大阪市鶴見区,放出東２丁目８－３６，２階,,27,124,5380044,,,,,,,2023-08-10,1,,,,,アネラ,0
702,3120101068005,新規,0,2023-08-10,2023-08-10,株式会社佐藤商店,,株式会社,大阪府,岸和田市,別所町３丁目２５番１２号,,27,202,5960045,,,,,,,2023-08-10,1,,,,,サトウショウテン,0
706,3122003002644,新規,0,2023-08-10,2023-08-10,合同会社ＳＫＲ　ＥＳＴＡＴＥ,,合同会社,大阪府,東大阪市,高井田本通１丁目４－５,,27,227,5770066,,,,,,,2023-08-10,1,,,,,エスケーアールエステート,0
708,3130001074861,新規,0,2023-08-10,2023-08-10,株式会社レガシア,,株式会社,京都府,京田辺市,同志社山手３丁目２番地２５０,,26,211,6100315,,,,,,,2023-08-10,1,,,,,レガシア,0
709,3130001074903,新規,0,2023-08-10,2023-08-10,株式会社西原事務所,,株式会社,京都府,京都市北区,紫竹下梅ノ木町１６番地,,26,101,6038178,,,,,,,2023-08-10,1,,,,,ニシハラジムショ,0
710,3130001074969,新規,0,2023-08-10,2023-08-10,応志不動産株式会社,,株式会社,京都府,京都市山科区,四ノ宮小金塚８番地８１０,,26,110,6078022,,,,,,,2023-08-10,1,,,,,オウシフドウサン,0
711,3130003008909,新規,0,2023-08-10,2023-08-10,きさな堂合同会社,,合同会社,京都府,南丹市,日吉町胡麻隅田川１番地１１,,26,213,6290311,,,,,,,2023-08-10,1,,,,,キサナドウ,0
716,3140001131075,新規,0,2023-08-10,2023-08-10,寺尾鉄工所株式会社,,株式会社,兵庫県,尼崎市,大浜町１丁目３４番地,,28,202,6600095,,,,,,,2023-08-10,1,,,,,テラオテッコウショ,0
717,3140001131208,新規,0,2023-08-10,2023-08-10,株式会社クレアール,,株式会社,兵庫県,尼崎市,食満６丁目７番１０号,,28,202,6610982,,,,,,,2023-08-10,1,,,,,クレアール,0
718,3140001131216,新規,0,2023-08-10,2023-08-10,株式会社アトリエネコノタネ,,株式会社,兵庫県,南あわじ市,神代地頭方１６７５,,28,224,6560456,,,,,,,2023-08-10,1,,,,,アトリエネコノタネ,0
719,3140001131249,新規,0,2023-08-10,2023-08-10,株式会社ＨＥＩＰＬ,,株式会社,兵庫県,神戸市須磨区,平田町２丁目３番９号６０１号,,28,107,6540021,,,,,,,2023-08-10,1,,,,,ハイフル,0
725,3140003019401,新規,0,2023-08-10,2023-08-10,合同会社ＳＩＲＩＵＳ,,合同会社,兵庫県,尼崎市,食満３丁目１４－８,,28,202,6610982,,,,,,,2023-08-10,1,,,,,,0
726,3140003019418,新規,0,2023-08-10,2023-08-10,合同会社トリプルセブン,,合同会社,兵庫県,神戸市灘区,灘北通８丁目３番１２号,,28,102,6570835,,,,,,,2023-08-10,1,,,,,トリプルセブン,0
742,3180001157488,新規,0,2023-08-10,2023-08-10,ＤＰＴホールディングス株式会社,,株式会社,愛知県,名古屋市中区,栄３丁目３番２１号,,23,106,4600008,,,,,,,2023-08-10,1,,,,,ディーピーティーホールディングス,0
743,3180001157538,新規,0,2023-08-10,2023-08-10,株式会社ＭＫスタイル,,株式会社,愛知県,名古屋市守山区,茶臼前１４番３５号,,23,113,4630012,,,,,,,2023-08-10,1,,,,,エムケイスタイル,0
744,3180001157554,新規,0,2023-08-10,2023-08-10,Ｅｉｇｈｔ　Ｔｈｉｎｇｓ株式会社,,株式会社,愛知県,名古屋市天白区,八事山３０８番地の１,,23,116,4680077,,,,,,,2023-08-10,1,,,,,エイトシングス,0
745,3180001157587,新規,0,2023-08-10,2023-08-10,ＦＯＲＴＥ・ＦＬＯＷ株式会社,,株式会社,愛知県,名古屋市南区,氷室町１番５号,,23,112,4570865,,,,,,,2023-08-10,1,,,,,フォルテフロー,0
746,3180001157604,新規,0,2023-08-10,2023-08-10,株式会社ユタカトレーディング,,株式会社,愛知県,清須市,下河原９９５番地,,23,233,4520916,,,,,,,2023-08-10,1,,,,,ユタカトレーディング,0
752,3180301037662,新規,0,2023-08-10,2023-08-10,株式会社ＨＡＳＥＧＡＷＡ,,株式会社,愛知県,豊田市,永覚町東訳２２番地,,23,211,4701205,,,,,,,2023-08-10,1,,,,,ハセガワ,0
753,3180301037670,新規,0,2023-08-10,2023-08-10,株式会社山本商事,,株式会社,愛知県,豊川市,御津町西方源農８番地１,,23,207,4410312,,,,,,,2023-08-10,1,,,,,ヤマモトショウジ,0
754,3180301037687,新規,0,2023-08-10,2023-08-10,株式会社リヴェマクス,,株式会社,愛知県,豊田市,小坂本町１丁目１５番地８シティハイツＡＴ２０４号,,23,211,4710034,,,,,,,2023-08-10,1,,,,,リヴェマクス,0
755,3190001030636,新規,0,2023-08-10,2023-08-10,株式会社ＴＯ‐Ｙ　ＦＡＣＴＯＲＹ,,株式会社,三重県,伊賀市,小田町１４４２番地,,24,216,5180825,,,,,,,2023-08-10,1,,,,,トーイファクトリー,0
756,3190001030644,新規,0,2023-08-10,2023-08-10,ＧＱサポート株式会社,,株式会社,三重県,津市,藤方１２２３番地１らべんだー１０２号室,,24,201,5140815,,,,,,,2023-08-10,1,,,,,ジーキューサポート,0
757,3190001030652,新規,0,2023-08-10,2023-08-10,株式会社Ｓ，ｔｅｃ．,,株式会社,三重県,四日市市,楠町吉崎７９番地１,,24,202,5100102,,,,,,,2023-08-10,1,,,,,エステック,0
758,3190003004407,新規,0,2023-08-10,2023-08-10,合同会社ＭＹＢ,,合同会社,三重県,四日市市,朝明町１９３８番地２,,24,202,5128054,,,,,,,2023-08-10,1,,,,,エムワイビー,0
759,3200001041598,新規,0,2023-08-10,2023-08-10,株式会社ダイヤモンド,,株式会社,岐阜県,岐阜市,鏡島西２丁目１４番１－３０７号鏡島ハイツ,,21,201,5010123,,,,,,,2023-08-10,1,,,,,ダイヤモンド,0
761,3210001019420,新規,0,2023-08-10,2023-08-10,株式会社ＤＡｉＮＡ,,株式会社,福井県,福井市,中央２丁目２番１２号,,18,201,9100006,,,,,,,2023-08-10,1,,,,,ダイナ,0
762,3220001025541,新規,0,2023-08-10,2023-08-10,パダヨンジャパン株式会社,,株式会社,石川県,金沢市,野町３丁目１１番１号,,17,201,9218031,,,,,,,2023-08-10,1,,,,,パダヨンジャパン,0
766,3230003002067,新規,0,2023-08-10,2023-08-10,ライフラボ合同会社,,合同会社,富山県,黒部市,新牧野１７８番地１４,,16,207,9380037,,,,,,,2023-08-10,1,,,,,ライフラボ,0
772,3260001038184,新規,0,2023-08-10,2023-08-10,株式会社ＳｈｉＲａ,,株式会社,岡山県,岡山市北区,下石井１丁目１番１７号アクロスキューブビル２Ｆ,,33,101,7000907,,,,,,,2023-08-10,1,,,,,シラ,0
775,3270003001552,新規,0,2023-08-10,2023-08-10,合同会社ＣｈｒｅｅＤｉｉ,,合同会社,鳥取県,倉吉市,福庭町２丁目３７番地１,,31,203,6820018,,,,,,,2023-08-10,1,,,,,クリーディ,0
779,3280003001758,新規,0,2023-08-10,2023-08-10,合同会社Ｓｏａｒ,,合同会社,島根県,松江市,上東川津町７１４―１２７,,32,201,6900821,,,,,,,2023-08-10,1,,,,,ソア,0
782,3290001102540,新規,0,2023-08-10,2023-08-10,株式会社あさひ,,株式会社,福岡県,朝倉郡筑前町,東小田３２４０番地１２,,40,447,8380214,,,,,,,2023-08-10,1,,,,,アサヒ,0
783,3300001013422,新規,0,2023-08-10,2023-08-10,株式会社永友装蹄所,,株式会社,佐賀県,鳥栖市,今泉町２１４６番地３,,41,203,8410047,,,,,,,2023-08-10,1,,,,,ナガトモソウテイジョ,0
787,3320001019946,新規,0,2023-08-10,2023-08-10,株式会社Ｒｅ．Ｌｉｆｅ,,株式会社,大分県,速見郡日出町,大字川崎３４２番地１２,,44,341,8791505,,,,,,,2023-08-10,1,,,,,リライフ,0
788,3330001031132,新規,0,2023-08-10,2023-08-10,ＷＡＣＨＩＳ　ＭＯＯＮ株式会社,,株式会社,熊本県,熊本市中央区,島崎１丁目１１番５９号,,43,101,8600073,,,,,,,2023-08-10,1,,,,,ワッチスムーン,0
789,3330001031149,新規,0,2023-08-10,2023-08-10,株式会社ＯＺプランニング,,株式会社,熊本県,熊本市中央区,細工町４丁目９番地１パールハイム１１１号,,43,101,8600041,,,,,,,2023-08-10,1,,,,,オズプランニング,0
790,3340001025785,新規,0,2023-08-10,2023-08-10,ザウルスグループ株式会社,,株式会社,鹿児島県,鹿児島市,西田２丁目１３番１６号,,46,201,8900046,,,,,,,2023-08-10,1,,,,,ザウルスグループ,0
791,3340001025810,新規,0,2023-08-10,2023-08-10,株式会社Ｐｒｅｃｉｏｕｓ,,株式会社,鹿児島県,鹿児島市,吉野町２４３３番地５,,46,201,8920871,,,,,,,2023-08-10,1,,,,,プレシャス,0
792,3340003004201,新規,0,2023-08-10,2023-08-10,スパーブコミュニティ合同会社,,合同会社,鹿児島県,出水市,明神町１２５４番地,,46,208,8990131,,,,,,,2023-08-10,1,,,,,スパーブコミュニティ,0
793,3350001018499,新規,0,2023-08-10,2023-08-10,株式会社あいの環,,株式会社,宮崎県,延岡市,伊形町４７３５－３,,45,203,8890503,,,,,,,2023-08-10,1,,,,,アイノワ,0
797,3370001050260,新規,0,2023-08-10,2023-08-10,株式会社スプラウト,,株式会社,宮城県,仙台市青葉区,芋沢字林下１３番地の２,,04,101,9893212,,,,,,,2023-08-10,1,,,,,スプラウト,0
798,3370001050285,新規,0,2023-08-10,2023-08-10,ＷＯＮＤＥＲＦＵＬ　ＤＡＹＳ株式会社,,株式会社,宮城県,栗原市,築館字萩沢木戸８０番地６,,04,213,9872223,,,,,,,2023-08-10,1,,,,,ワンダフルデイズ,0
804,3380001033900,新規,0,2023-08-10,2023-08-10,アルーク株式会社,,株式会社,福島県,相馬市,岩子字北稲田８６番地,,07,209,9760025,,,,,,,2023-08-10,1,,,,,アルーク,0
805,3380003005534,新規,0,2023-08-10,2023-08-10,合同会社ｒｏｏｔ２,,合同会社,福島県,いわき市,平字杉平２１番地の３６,,07,204,9708026,,,,,,,2023-08-10,1,,,,,ルーツ,0
806,3380005012735,新規,0,2023-08-10,2023-08-10,特定非営利活動法人郡山シルバー・サポートセンター,,その他の設立登記法人,福島県,郡山市,安積町日出山字旧屋敷２２番地の２,,07,203,9630101,,,,,,,2023-08-10,1,,,,,コオリヤマシルバーサポートセンター,0
811,3430001089615,新規,0,2023-08-10,2023-08-10,株式会社Ｔ‐ＢＲＡＮＤ,,株式会社,北海道,札幌市中央区,大通西１７丁目２－１９,,01,101,0600042,,,,,,,2023-08-10,1,,,,,ティーブランド,0
813,3430003015354,新規,0,2023-08-10,2023-08-10,合同会社田中コーポレーション,,合同会社,北海道,札幌市清田区,里塚緑ケ丘３丁目３番７号,,01,110,0040805,,,,,,,2023-08-10,1,,,,,タナカコーポレーション,0
816,3460101007416,新規,0,2023-08-10,2023-08-10,株式会社庭やたにぞえ,,株式会社,北海道,中川郡幕別町,札内暁町２７６番地の２,,01,643,0890531,,,,,,,2023-08-10,1,,,,,ニワヤタニゾエ,0
820,3470005006521,新規,0,2023-08-10,2023-08-10,医療法人社団成清会,,その他の設立登記法人,香川県,高松市,多肥上町１２９２番地１,,37,201,7618076,,,,,,,2023-08-10,1,,,,,セイセイカイ,0
823,3500003003079,新規,0,2023-08-10,2023-08-10,合同会社ＧＮＩＥＳ,,合同会社,愛媛県,松山市,平和通１丁目４番地１井手テナント２階,,38,201,7900807,,,,,,,2023-08-10,1,,,,,ジニエス,0
824,3700150118972,新規,0,2023-08-10,2023-08-10,ｇｕａｎｇｚｈｏｕ　ｗｅｎｙｉ　ｃｏｍｍｕｎｉｃａｔｉｏｎ　ｅｑｕｉｐｍｅｎｔ　ｃｏ，ｌｔｄ,,外国会社等,,,,,,,,Ｈｕａｎｇｂｉａｎ　ｓｏｕｔｈ　Ｒｏａｄ，Ｂａｉｙｕｎ　Ｄｉｓｔｒｉｃｔ　Ｎｏ．２８，Ｔｈｅ　Ｆｉｒｓｔ　ｓｔｒｅｅｔ　Ｇｕａｎｇｚｈｏｕ　Ｇｕａｎｇｄｏｎｇ　５１０４４０　ＣＮ,,,,,,2023-08-10,1,,,,,グワンジョウシーウェンイートンシンショーベイヨウシエンゴンスー,0
825,3700150118980,新規,0,2023-08-10,2023-08-10,ｊｉｎｇｊｉａｎｇ　ｈａｎｓｅｎｔａｏ　ｅ－ｃｏｍｍｅｒｃｅ　ｃｏ．，ｌｔｄ,,外国会社等,,,,,,,,ｊｉａｎｇ　ｓｕ　ｊｉｎｇ　ｊｉａｎｇ　ｊｉａｎｇ　ｓｈａｎ　ｒｏａｄ　Ｎｏ．３８,,,,,,2023-08-10,1,,,,,ジンジャンシーハンセンタオディエンズーシャンウーヨウシエンゴンスー,0
830,4010001237479,新規,0,2023-08-10,2023-08-10,株式会社Ｙｕｊｙｕ,,株式会社,東京都,中央区,東日本橋２丁目２８番４号日本橋ＣＥＴビル２階,,13,102,1030004,,,,,,,2023-08-10,1,,,,,ユジュ,0
832,4010003041301,新規,0,2023-08-10,2023-08-10,合同会社フィナンシャルパートナーズ,,合同会社,東京都,中央区,銀座１丁目１２－４Ｎ＆ＥＢＬＤ．７階,,13,102,1040061,,,,,,,2023-08-10,1,,,,,フィナンシャルパートナーズ,0
833,4010003041334,新規,0,2023-08-10,2023-08-10,秀清リアリティ合同会社,,合同会社,東京都,中央区,晴海３丁目１３番２－４０３号,,13,102,1040053,,,,,,,2023-08-10,1,,,,,シュウセイリアリティ,0
837,4010401176186,新規,0,2023-08-10,2023-08-10,株式会社パラダイム・ソリューション・ジャパン,,株式会社,東京都,港区,新橋６丁目９番６号１２東洋海事ビル２階,,13,103,1050004,,,,,,,2023-08-10,1,,,,,パラダイムソリューションジャパン,0
838,4010401176277,新規,0,2023-08-10,2023-08-10,株式会社ＳＥＡ,,株式会社,東京都,港区,白金６丁目１０番１７号,,13,103,1080072,,,,,,,2023-08-10,1,,,,,シー,0
839,4010401176285,新規,0,2023-08-10,2023-08-10,株式会社ＯｎｅＥｏｎ,,株式会社,東京都,港区,赤坂４丁目８番１９号赤坂フロントタウン３階,,13,103,1070052,,,,,,,2023-08-10,1,,,,,ワンイーオン,0
840,4010401176293,新規,0,2023-08-10,2023-08-10,黄地地所株式会社,,株式会社,東京都,港区,虎ノ門４丁目１番１号神谷町トラストタワー２３Ｆ,,13,103,1050001,,,,,,,2023-08-10,1,,,,,コウチジショ,0
841,4010401176327,新規,0,2023-08-10,2023-08-10,株式会社みらいプラス,,株式会社,東京都,港区,芝浦４丁目１２番３８号,,13,103,1080023,,,,,,,2023-08-10,1,,,,,ミライプラス,0
842,4010401176351,新規,0,2023-08-10,2023-08-10,株式会社ＳＴＪ,,株式会社,東京都,港区,海岸２丁目２番９－１００４号,,13,103,1050022,,,,,,,2023-08-10,1,,,,,エスティージェイ,0
843,4010401176384,新規,0,2023-08-10,2023-08-10,ＵＴＯＰＩＡ　ＩＮＮＯＶＡＴＩＯＮ株式会社,,株式会社,東京都,港区,北青山１丁目３番１号アールキューブ青山３階,,13,103,1070061,,,,,,,2023-08-10,1,,,,,ユートピアイノベーション,0
844,4010401176392,新規,0,2023-08-10,2023-08-10,Ｒｅｉｋｏｕ株式会社,,株式会社,東京都,港区,虎ノ門１丁目１６番６号虎ノ門ＲＡＰＯ－ＴＯビルＵＣＦ７階,,13,103,1050001,,,,,,,2023-08-10,1,,,,,レイコウ,0
845,4010403030671,新規,0,2023-08-10,2023-08-10,合同会社ｏｆｆｉｃｅ　ＯＴＯ,,合同会社,東京都,港区,新橋６丁目２０番２号,,13,103,1050004,,,,,,,2023-08-10,1,,,,,オフィスオト,0
851,4010601063589,新規,0,2023-08-10,2023-08-10,株式会社Ｃ＆Ｊ,,株式会社,東京都,江東区,豊洲３丁目６番５－１３１７号,,13,108,1350061,,,,,,,2023-08-10,1,,,,,シーアンドジェイ,0
852,4010601063597,新規,0,2023-08-10,2023-08-10,ＦｕｔｕｒｅＱ株式会社,,株式会社,東京都,江東区,豊洲３丁目６番８－３０１１号,,13,108,1350061,,,,,,,2023-08-10,1,,,,,フューチャーキュ,0
853,4010603010300,新規,0,2023-08-10,2023-08-10,ＸＬＲ８合同会社,,合同会社,東京都,江東区,潮見２丁目８番１４－１２１２号,,13,108,1350052,,,,,,,2023-08-10,1,,,,,アクセラレイト,0
854,4010701044687,新規,0,2023-08-10,2023-08-10,株式会社ＧＫＳＫ,,株式会社,東京都,品川区,東五反田２丁目９番１－２４０３号,,13,109,1410022,,,,,,,2023-08-10,1,,,,,ジーケーエスケー,0
857,4010901053604,新規,0,2023-08-10,2023-08-10,ＹＥＳ株式会社,,株式会社,東京都,世田谷区,松原６丁目５番２０号,,13,112,1560043,,,,,,,2023-08-10,1,,,,,イエス,0
858,4010901053612,新規,0,2023-08-10,2023-08-10,ＦＵＲＥＧＯ　Ｅｍｐｏｗｅｒｍｅｎｔ株式会社,,株式会社,東京都,世田谷区,北沢２丁目２７番９号,,13,112,1550031,,,,,,,2023-08-10,1,,,,,フレゴーエンパワメント,0
859,4010901053620,新規,0,2023-08-10,2023-08-10,株式会社ＡＳＩ,,株式会社,東京都,世田谷区,玉川田園調布２丁目１６番４号,,13,112,1580085,,,,,,,2023-08-10,1,,,,,エーエスアイ,0
860,4010903008374,新規,0,2023-08-10,2023-08-10,ｖｕｉ合同会社,,合同会社,東京都,世田谷区,砧３丁目４番２号,,13,112,1570073,,,,,,,2023-08-10,1,,,,,ヴイ,0
861,4010903008382,新規,0,2023-08-10,2023-08-10,ｎａｎａｉｒｏ合同会社,,合同会社,東京都,世田谷区,玉川台１丁目９番２３－３０３号,,13,112,1580096,,,,,,,2023-08-10,1,,,,,ナナイロ,0
863,4011001156264,新規,0,2023-08-10,2023-08-10,ボイット株式会社,,株式会社,東京都,渋谷区,神宮前６丁目２３番４号桑野ビル２階,,13,113,1500001,,,,,,,2023-08-10,1,,,,,ボイット,0
864,4011001156272,新規,0,2023-08-10,2023-08-10,株式会社ＭＯＶＩＥ．ＣＡＭＰ,,株式会社,東京都,目黒区,青葉台４丁目４番１２－１０１２号ルフォンプログレ渋谷ヒルトップ,,13,110,1530042,,,,,,,2023-08-10,1,,,,,ムービーキャンプ,0
867,4011103013363,新規,0,2023-08-10,2023-08-10,合同会社フェルナ,,合同会社,東京都,新宿区,新宿２丁目１２番１３号新宿アントレサロンビル,,13,104,1600022,,,,,,,2023-08-10,1,,,,,フェルナ,0
868,4011201024832,新規,0,2023-08-10,2023-08-10,株式会社ＰｅｏｐｌｅＸ,,株式会社,東京都,中野区,東中野５丁目６番８号,,13,114,1640003,,,,,,,2023-08-10,1,,,,,ピープレックス,0
869,4011201024840,新規,0,2023-08-10,2023-08-10,株式会社ＳｔｅｌｌａｒＣｒｅａｔｅ,,株式会社,東京都,中野区,上高田１丁目４４番１１号シュロス中野２０４,,13,114,1640002,,,,,,,2023-08-10,1,,,,,ステラクリエイト,0
871,4011501029639,新規,0,2023-08-10,2023-08-10,株式会社Ｆｉｏｒｉデザイン,,株式会社,東京都,北区,王子４丁目２番５号,,13,117,1140002,,,,,,,2023-08-10,1,,,,,フィオーリデザイン,0
875,4011701026485,新規,0,2023-08-10,2023-08-10,株式会社ＦＡＭＩＬＩＡＲ,,株式会社,東京都,江戸川区,宇喜田町１１０８番地１,,13,123,1340082,,,,,,,2023-08-10,1,,,,,ファミリア,0
876,4012301013551,新規,0,2023-08-10,2023-08-10,株式会社ウスイ施工,,株式会社,東京都,町田市,図師町２８０１番地１,,13,209,1940203,,,,,,,2023-08-10,1,,,,,ウスイセコウ,0
879,4013101009228,新規,0,2023-08-10,2023-08-10,株式会社Ｌ・Ｒ,,株式会社,東京都,羽村市,小作台３丁目１０番地２,,13,227,2050001,,,,,,,2023-08-10,1,,,,,エルアール,0
888,4020001152883,新規,0,2023-08-10,2023-08-10,浜フーズ株式会社,,株式会社,神奈川県,横浜市中区,曙町４丁目４５番地,,14,104,2310057,,,,,,,2023-08-10,1,,,,,ハマフーズ,0
889,4020001152974,新規,0,2023-08-10,2023-08-10,株式会社ＭＣＭ,,株式会社,神奈川県,横浜市鶴見区,豊岡町１８番２２号,,14,101,2300062,,,,,,,2023-08-10,1,,,,,エムシーエム,0
890,4020001152990,新規,0,2023-08-10,2023-08-10,株式会社ミル,,株式会社,神奈川県,横浜市神奈川区,六角橋２丁目２６番６‐２号パステルコートＢ号,,14,102,2210802,,,,,,,2023-08-10,1,,,,,ミル,0
891,4020001153007,新規,0,2023-08-10,2023-08-10,株式会社ＮＡＯＢＩ,,株式会社,神奈川県,横浜市港北区,大倉山７丁目１０番２－３号,,14,109,2220037,,,,,,,2023-08-10,1,,,,,ナオビ,0
895,4021001079860,新規,0,2023-08-10,2023-08-10,株式会社ＴｏＫｉＴｏＫｉ,,株式会社,神奈川県,相模原市南区,相模大野９丁目２０番３０号,,14,153,2520303,,,,,,,2023-08-10,1,,,,,トキトキ,0
896,4021001079877,新規,0,2023-08-10,2023-08-10,株式会社パフォーマンスマネジメント,,株式会社,神奈川県,鎌倉市,浄明寺３丁目９番３７号,,14,204,2480003,,,,,,,2023-08-10,1,,,,,パフォーマンスマネジメント,0
897,4021001079885,新規,0,2023-08-10,2023-08-10,株式会社Ａｒｏｕｎｄ　Ｍｅ,,株式会社,神奈川県,相模原市中央区,淵野辺２丁目５番６１－２１２号,,14,152,2520206,,,,,,,2023-08-10,1,,,,,アラウンドミー,0
900,4021003013413,新規,0,2023-08-10,2023-08-10,ＰｏｎｙＰｏｎｙＲｕｎＲｕｎ合同会社,,合同会社,神奈川県,藤沢市,川名１丁目１１－４２,,14,205,2510015,,,,,,,2023-08-10,1,,,,,ポニーポニーランラン,0
901,4021003013421,新規,0,2023-08-10,2023-08-10,合同会社クローザー,,合同会社,神奈川県,横須賀市,久里浜４丁目６番１３号,,14,201,2390831,,,,,,,2023-08-10,1,,,,,クローザー,0
902,4021003013438,新規,0,2023-08-10,2023-08-10,合同会社エム・ディー・エヌ,,合同会社,神奈川県,藤沢市,長後１２７７番地,,14,205,2520801,,,,,,,2023-08-10,1,,,,,エムディーエヌ,0
905,4030001155175,新規,0,2023-08-10,2023-08-10,株式会社ニューライフ,,株式会社,埼玉県,本庄市,西富田３１１番地１,,11,211,3670035,,,,,,,2023-08-10,1,,,,,ニューライフ,0
906,4030001155209,新規,0,2023-08-10,2023-08-10,ビンテージ株式会社,,株式会社,埼玉県,川口市,本町４丁目１４番２－１０３号,,11,203,3320012,,,,,,,2023-08-10,1,,,,,ビンテージ,0
907,4030001155472,新規,0,2023-08-10,2023-08-10,株式会社ＳＭＫホールディングス,,株式会社,埼玉県,南埼玉郡宮代町,字東７８番地,,11,442,3450814,,,,,,,2023-08-10,1,,,,,エスエムケイホールディングス,0
914,4030003022258,新規,0,2023-08-10,2023-08-10,新船ＩＴサービス合同会社,,合同会社,埼玉県,狭山市,大字北入曽７８１番地の１２,,11,215,3501315,,,,,,,2023-08-10,1,,,,,アラフネアイティサービス,0
918,4040001129640,新規,0,2023-08-10,2023-08-10,ＲＲＡ株式会社,,株式会社,千葉県,松戸市,古ケ崎８８番地水神ビル２０６号,,12,207,2710068,,,,,,,2023-08-10,1,,,,,アールアールエー,0
921,4040003023107,新規,0,2023-08-10,2023-08-10,合同会社一希,,合同会社,千葉県,八街市,八街ほ１７番地５米山ハイツ１０２,,12,230,2891115,,,,,,,2023-08-10,1,,,,,イッキ,0
926,4050003007711,新規,0,2023-08-10,2023-08-10,ＵＤＯＫＵ合同会社,,合同会社,茨城県,牛久市,小坂町２００６番地６１,,08,219,3001286,,,,,,,2023-08-10,1,,,,,ウドク,0
927,4060001036240,新規,0,2023-08-10,2023-08-10,ｇｌｒｏｗ株式会社,,株式会社,栃木県,宇都宮市,江曽島町１４１２－５,,09,201,3210102,,,,,,,2023-08-10,1,,,,,グロウ,0
929,4060003004682,新規,0,2023-08-10,2023-08-10,足利ワインバレープロジェクト合同会社,,合同会社,栃木県,足利市,田中町７１２番地プチメゾンフジ１０２号,,09,202,3260822,,,,,,,2023-08-10,1,,,,,アシカガワインバレープロジェクト,0
934,4080001025803,新規,0,2023-08-10,2023-08-10,クレアール労務コンサルタント株式会社,,株式会社,静岡県,静岡市葵区,鷹匠３丁目１番２０号サンパレス鷹匠３０１Ｂ,,22,101,4200839,,,,,,,2023-08-10,1,,,,,クレアールロウムコンサルタント,0
939,4100001036665,新規,0,2023-08-10,2023-08-10,ＴａｎａＢｏｒｎ株式会社,,株式会社,長野県,上伊那郡南箕輪村,９６０７番地７,,20,385,3994511,,,,,,,2023-08-10,1,,,,,ターナボーン,0
951,4120001257004,新規,0,2023-08-10,2023-08-10,株式会社ＷＫ,,株式会社,大阪府,大阪市中央区,島之内１丁目１５番９号,,27,128,5420082,,,,,,,2023-08-10,1,,,,,ダブリューケー,0
952,4120001257086,新規,0,2023-08-10,2023-08-10,ＭＣＴＹ投資株式会社,,株式会社,大阪府,大阪市中央区,南久宝寺町１丁目４番１５号,,27,128,5410058,,,,,,,2023-08-10,1,,,,,エムシーティワイトウシ,0
953,4120001257144,新規,0,2023-08-10,2023-08-10,株式会社高木組,00131488,株式会社,大阪府,門真市,三ツ島２丁目１６番２４号,,27,223,5710015,,,,,,,2023-08-10,1,,,,,タカギグミ,0
954,4120001257193,新規,0,2023-08-10,2023-08-10,株式会社ワイツーエステート,,株式会社,大阪府,大阪市西区,南堀江３丁目７番１９号ＰＧＳビル４階,,27,106,5500015,,,,,,,2023-08-10,1,,,,,ワイツーエステート,0
955,4120001257202,新規,0,2023-08-10,2023-08-10,株式会社ｏｆｆｉｃｅ．,,株式会社,大阪府,大阪市住之江区,西住之江２丁目９番２１号,,27,125,5590005,,,,,,,2023-08-10,1,,,,,オフィスドット,0
956,4120001257243,新規,0,2023-08-10,2023-08-10,Ｚｅｔｔｏｎ株式会社,,株式会社,大阪府,大阪市北区,梅田１丁目２番２号大阪駅前第２ビル１２－１２,,27,127,5300001,,,,,,,2023-08-10,1,,,,,ゼットン,0
957,4120001257251,新規,0,2023-08-10,2023-08-10,保利商事株式会社,,株式会社,大阪府,大阪市天王寺区,生玉前町１番１２号,,27,109,5430072,,,,,,,2023-08-10,1,,,,,ホリショウジ,0
958,4120001257268,新規,0,2023-08-10,2023-08-10,株式会社ＭＡＫＮＯＴ,,株式会社,大阪府,大阪市北区,梅田１丁目２番２号大阪駅前第２ビル１２－１２,,27,127,5300001,,,,,,,2023-08-10,1,,,,,マクノット,0
962,4120003024658,新規,0,2023-08-10,2023-08-10,ＮＳＭ　Ａｓｓｅｔｓ　Ｊａｐａｎ合同会社,,合同会社,大阪府,大阪市北区,芝田１丁目１番４号,,27,127,5300012,,,,,,,2023-08-10,1,,,,,エヌエスエムアセッツジャパン,0
963,4120003024682,新規,0,2023-08-10,2023-08-10,合同会社つきだし,,合同会社,大阪府,大阪市阿倍野区,王子町３丁目１３番１２号,,27,119,5450023,,,,,,,2023-08-10,1,,,,,ツキダシ,0
964,4120005023823,新規,0,2023-08-10,2023-08-10,一般社団法人ＣＳＷＥＮ,,その他の設立登記法人,大阪府,大阪市北区,梅田２丁目２番２号ヒルトンプラザウエストオフィスタワー１９階,,27,127,5300001,,,,,,,2023-08-10,1,,,,,コズウェン,0
965,4120101067988,新規,0,2023-08-10,2023-08-10,株式会社橋本デンキ,,株式会社,大阪府,岸和田市,南町１１番３５－２０３号,,27,202,5960067,,,,,,,2023-08-10,1,,,,,ハシモトデンキ,0
966,4120101068053,新規,0,2023-08-10,2023-08-10,ｉｒｏ‐ＤＡＭＡ株式会社,,株式会社,大阪府,堺市美原区,大保１２８番地３,,27,147,5870001,,,,,,,2023-08-10,1,,,,,イロダマ,0
969,4120901047925,新規,0,2023-08-10,2023-08-10,Ａｓｍｏｃ　Ｊａｐａｎ株式会社,,株式会社,大阪府,豊能郡豊能町,ときわ台６丁目１４番地の５,,27,321,5630102,,,,,,,2023-08-10,1,,,,,アスモックジャパン,0
970,4120905006506,新規,0,2023-08-10,2023-08-10,ＮＰＯ法人関西共生センター,,その他の設立登記法人,大阪府,茨木市,大字泉原８９６番１号,,27,211,5680097,,,,,,,2023-08-10,1,,,,,カンサイキョウセイセンター,0
974,4122001037204,新規,0,2023-08-10,2023-08-10,株式会社小國建設工業,,株式会社,大阪府,四條畷市,南野６丁目１番４１号,,27,229,5750021,,,,,,,2023-08-10,1,,,,,オグニケンセツコウギョウ,0
975,4122001037261,新規,0,2023-08-10,2023-08-10,株式会社メタル工業,,株式会社,大阪府,八尾市,刑部４丁目２１０番地の１エスポワール２０２号,,27,212,5810015,,,,,,,2023-08-10,1,,,,,メタルコウギョウ,0
977,4130001074860,新規,0,2023-08-10,2023-08-10,株式会社ＡＲＱＺ,,株式会社,京都府,京都市南区,吉祥院内河原町３番地２サクシード吉祥院３０３号,,26,107,6018392,,,,,,,2023-08-10,1,,,,,アークス,0
978,4130001074910,新規,0,2023-08-10,2023-08-10,株式会社エンドン,,株式会社,京都府,京都市北区,鷹峯旧土居町１－７０カナーズ洛北３０２号室,,26,101,6038448,,,,,,,2023-08-10,1,,,,,エンドン,0
979,4130001074968,新規,0,2023-08-10,2023-08-10,株式会社ＳｕｎｎｙＳｉｇｈｔ　Ｊａｐａｎ,,株式会社,京都府,京都市下京区,松原通烏丸西入ル玉津島町２９４,,26,106,6000000,,,,,,,2023-08-10,1,,,,,サニーサイトジャパン,0
980,4130001074992,新規,0,2023-08-10,2023-08-10,株式会社Ｕｎｄｅｒ．ｔｈｅ．ｔａｂｌｅ,,株式会社,京都府,京都市伏見区,竹田西桶ノ井町１４番地Ｋ’ｓクラブハウス３１０号,,26,109,6128428,,,,,,,2023-08-10,1,,,,,アンダーザテーブル,0
982,4130003008890,新規,0,2023-08-10,2023-08-10,Ｖａｒｉｃａｉｄｅ合同会社,,合同会社,京都府,京都市上京区,宮垣町９１－１０２,,26,102,6020853,,,,,,,2023-08-10,1,,,,,バリケイド,0
983,4140001131149,新規,0,2023-08-10,2023-08-10,株式会社ＢＥＴＳ,,株式会社,兵庫県,神戸市中央区,中山手通１丁目１７番６－４０５号,,28,110,6500004,,,,,,,2023-08-10,1,,,,,ベッツ,0
984,4140001131181,新規,0,2023-08-10,2023-08-10,株式会社ＦｉｖｅＯｎｅ,,株式会社,兵庫県,宝塚市,中山寺３丁目１０番１７号,,28,214,6650861,,,,,,,2023-08-10,1,,,,,ファイブワン,0
985,4140001131207,新規,0,2023-08-10,2023-08-10,ルーチェデバイス株式会社,,株式会社,兵庫県,神戸市中央区,磯辺通１丁目１番１８号カサベラ国際プラザビル７０７号室,,28,110,6510084,,,,,,,2023-08-10,1,,,,,ルーチェデバイス,0
988,4140003019383,新規,0,2023-08-10,2023-08-10,合名会社ＭｅＧ,,合名会社,兵庫県,伊丹市,野間４丁目１番２４号,,28,207,6640873,,,,,,,2023-08-10,1,,,,,エムイージー,0
989,4140003019400,新規,0,2023-08-10,2023-08-10,合同会社ジェイ・コーポレーション,,合同会社,兵庫県,神戸市東灘区,本山南町８丁目３番１－１４０５号,,28,101,6580015,,,,,,,2023-08-10,1,,,,,ジェイコーポレーション,0
990,4140003019409,新規,0,2023-08-10,2023-08-10,ｇｕｌａｍｏｕｒ．合同会社,,合同会社,兵庫県,芦屋市,翠ケ丘町４番１８－４０２号,,28,206,6590014,,,,,,,2023-08-10,1,,,,,グラムール,0
991,4140003019417,新規,0,2023-08-10,2023-08-10,合同会社ＥＮＺＡ,,合同会社,兵庫県,明石市,朝霧南町２丁目９番２０号,,28,203,6730870,,,,,,,2023-08-10,1,,,,,エンザ,0
995,4170003001909,新規,0,2023-08-10,2023-08-10,ｃａｄｅａｕ　ａｎｇｅ合同会社,,合同会社,和歌山県,和歌山市,六十谷２９―１,,30,201,6408482,,,,,,,2023-08-10,1,,,,,カドーアンジュ,0
1003,4180001157504,新規,0,2023-08-10,2023-08-10,株式会社アイチ不動産,,株式会社,愛知県,名古屋市東区,芳野１丁目１７番２２号（プラウド東白壁１０３号）,,23,102,4610027,,,,,,,2023-08-10,1,,,,,アイチフドウサン,0
1004,4180001157529,新規,0,2023-08-10,2023-08-10,ＮＭＫホールディングス株式会社,,株式会社,愛知県,名古屋市南区,南陽通４丁目４８番地,,23,112,4570856,,,,,,,2023-08-10,1,,,,,エヌエムケーホールディングス,0
1005,4180001157545,新規,0,2023-08-10,2023-08-10,株式会社エポックコネクト,,株式会社,愛知県,丹羽郡扶桑町,大字柏森字中切３９３番地,,23,362,4800103,,,,,,,2023-08-10,1,,,,,エポックコネクト,0
1006,4180001157586,新規,0,2023-08-10,2023-08-10,株式会社Ｓ＆Ｋ,,株式会社,愛知県,名古屋市千種区,南ケ丘１丁目２－１２,,23,101,4640042,,,,,,,2023-08-10,1,,,,,エスアンドケー,0
1009,4180003025618,新規,0,2023-08-10,2023-08-10,合同会社実結,,合同会社,愛知県,名古屋市北区,中味鋺３丁目１００２番地,,23,103,4620015,,,,,,,2023-08-10,1,,,,,ミユウ,0
1011,4180301037653,新規,0,2023-08-10,2023-08-10,末永美装株式会社,,株式会社,愛知県,豊川市,市田町七反田４１番地５（２）,,23,207,4420862,,,,,,,2023-08-10,1,,,,,スエナガビソウ,0
1012,4180301037661,新規,0,2023-08-10,2023-08-10,株式会社ダイパレ,,株式会社,愛知県,豊橋市,新栄町字鳥畷７０番地,,23,201,4418016,,,,,,,2023-08-10,1,,,,,ダイパレ,0
1013,4190001030651,新規,0,2023-08-10,2023-08-10,株式会社Ｃｏｃｏ,,株式会社,三重県,名張市,栄町２９４３番地６ルミエール名張駅前４０５号,,24,208,5180719,,,,,,,2023-08-10,1,,,,,ココ,0
1014,4190003004406,新規,0,2023-08-10,2023-08-10,ＫＩＮＯＫＵＮＩＹＡ合同会社,,合同会社,三重県,松阪市,下村町１３４９番地１,,24,204,5150043,,,,,,,2023-08-10,1,,,,,キノクニヤ,0
1016,4190005011854,新規,0,2023-08-10,2023-08-10,一般社団法人暮らしの設計室,,その他の設立登記法人,三重県,松阪市,魚町１６２５番地,,24,204,5150082,,,,,,,2023-08-10,1,,,,,クラシノセッケイシツ,0
1023,4240001061947,新規,0,2023-08-10,2023-08-10,株式会社エンカウンター,,株式会社,広島県,呉市,光町１５番２号,,34,202,7370831,,,,,,,2023-08-10,1,,,,,エンカウンター,0
1030,4260001038183,新規,0,2023-08-10,2023-08-10,株式会社近藤庄店,,株式会社,岡山県,倉敷市,林３４１－１,,33,202,7100142,,,,,,,2023-08-10,1,,,,,コンドウショウテン,0
1031,4260001038225,新規,0,2023-08-10,2023-08-10,中国エネルギー株式会社,,株式会社,岡山県,岡山市北区,下石井１丁目１番３号,,33,101,7000907,,,,,,,2023-08-10,1,,,,,チュウゴクエネルギー,0
1035,4280003001757,新規,0,2023-08-10,2023-08-10,合同会社ウミノマド,,合同会社,島根県,松江市,美保関町諸喰２６１－２,,32,201,6901503,,,,,,,2023-08-10,1,,,,,,0
1036,4290001102556,新規,0,2023-08-10,2023-08-10,株式会社いつきＨ＆Ｂ,,株式会社,福岡県,福岡市中央区,地行浜２丁目２番４－６０９号ザ・パークハウス福岡タワーズＷＥＳＴ,,40,133,8100065,,,,,,,2023-08-10,1,,,,,イツキエイチアンドビー,0
1037,4290001102572,新規,0,2023-08-10,2023-08-10,株式会社アルゴーテクノ,,株式会社,福岡県,大野城市,下大利１丁目２１番２０－５２２号,,40,219,8160952,,,,,,,2023-08-10,1,,,,,アルゴーテクノ,0
1038,4290001102606,新規,0,2023-08-10,2023-08-10,ＫＭＯ株式会社,,株式会社,福岡県,福岡市東区,筥松３丁目２０番３１－２０９号,,40,131,8120061,,,,,,,2023-08-10,1,,,,,ケイエムオー,0
1048,4350001018498,新規,0,2023-08-10,2023-08-10,株式会社ＺＥＨ宮崎,,株式会社,宮崎県,宮崎市,恒久南１丁目５番地７ＳｏｌｅｉｌＩＩ２階２０２号室,00131484,45,201,8800915,,,,,,,2023-08-10,1,,,,,ゼッチミヤザキ,0
1051,4360001032390,新規,0,2023-08-10,2023-08-10,株式会社沖なわｃｌｅａｎ,,株式会社,沖縄県,島尻郡与那原町,字東浜７８番地の１６シュティルブリーゼ・アガリハマ１０１,,47,348,9011304,,,,,,,2023-08-10,1,,,,,オキナワクリーン,0
1052,4360001032416,新規,0,2023-08-10,2023-08-10,ＥＩＢＵＮ株式会社,,株式会社,沖縄県,那覇市,壺屋１丁目５番１４号,,47,201,9020065,,,,,,,2023-08-10,1,,,,,エイブン,0
1053,4360003013208,新規,0,2023-08-10,2023-08-10,合同会社アルカラタベルカ,,合同会社,沖縄県,宮古島市,平良字西里１１２０番地２,,47,214,9060012,,,,,,,2023-08-10,1,,,,,アルカラタベルカ,0
1061,4370003006235,新規,0,2023-08-10,2023-08-10,合同会社かたすみＬａｂｏ,,合同会社,宮城県,仙台市泉区,高森７丁目１‐４すていじ仙台,,04,105,9813203,,,,,,,2023-08-10,1,,,,,カタスミラボ,0
1068,4430001089688,新規,0,2023-08-10,2023-08-10,株式会社ノマディア,,株式会社,北海道,札幌市豊平区,美園四条６丁目２番１７号,,01,105,0620004,,,,,,,2023-08-10,1,,,,,ノマディア,0
1071,4430003015345,新規,0,2023-08-10,2023-08-10,合同会社五紬六起,,合同会社,北海道,札幌市白石区,平和通６丁目南３番４号,,01,104,0030028,,,,,,,2023-08-10,1,,,,,イツツムギ,0
1073,4430005014758,新規,0,2023-08-10,2023-08-10,一般社団法人ＯＷＬ,,その他の設立登記法人,北海道,札幌市東区,北二十三条東１５丁目５番２６号,,01,103,0650023,,,,,,,2023-08-10,1,,,,,アウル,0
1075,4470001019749,新規,0,2023-08-10,2023-08-10,亀野ハイアーテック株式会社,,株式会社,香川県,観音寺市,吉岡町９７５番地７,,37,205,7680021,,,,,,,2023-08-10,1,,,,,カメノハイアーテック,0
1076,4470001019757,新規,0,2023-08-10,2023-08-10,株式会社まと八,,株式会社,香川県,高松市,庵治町字浜９７７番１０,,37,201,7610130,,,,,,,2023-08-10,1,,,,,マトハチ,0
1077,4470003002471,新規,0,2023-08-10,2023-08-10,合同会社マル伊コンサルティング,,合同会社,香川県,高松市,牟礼町牟礼２５９６番地１１９,,37,201,7610121,,,,,,,2023-08-10,1,,,,,マルイコンサルティング,0
1083,4700150118971,新規,0,2023-08-10,2023-08-10,Ｚｈｅｊｉａｎｇ　ｍａｉｍｕｍａｏｙｉ　ｙｏｕｘｉａｎｇｏｎｇｓｉ,,外国会社等,,,,,,,,ｑｉａｎｔａｎｇｑｕ　ｂａｉｙａｎｇｊｉｅｄａｏ１０ｈａｏｄａｊｉｅ　３６ｈａｏ　３ｚｈｕａｎｇ　４２３ｓｈｉ　ｈａｎｇｚｈｏｕ　ｚｈｅｊｉａｎｇ　ｚｈｏｎｇｇｕｏ　３１００００,,,,,,2023-08-10,1,,,,,ヂェジャンマイムマオイヨウシェンゴンスー,0
1088,5010001237503,新規,0,2023-08-10,2023-08-10,株式会社ウルトライゾン,,株式会社,東京都,千代田区,鍛冶町２丁目９番１８号,,13,101,1010044,,,,,,,2023-08-10,1,,,,,ウルトライゾン,0
1089,5010001237610,新規,0,2023-08-10,2023-08-10,株式会社ｐｌｕｇｌｅｎ,,株式会社,東京都,中央区,銀座１丁目１２－４Ｎ＆ＥＢＬＤ．７階,,13,102,1040061,,,,,,,2023-08-10,1,,,,,プラグレン,0
1095,5010005037057,新規,0,2023-08-10,2023-08-10,ひらく社会保険労務士法人,,その他の設立登記法人,東京都,千代田区,神田多町２丁目１番地神田東山ビル７Ｆ,,13,101,1010046,,,,,,,2023-08-10,1,,,,,ヒラク,0
1107,5010401176276,新規,0,2023-08-10,2023-08-10,株式会社ＦＢ　Ｅｎｔｅｒｔａｉｎｍｅｎｔ,,株式会社,東京都,港区,芝浦４丁目２２番１－２５１２号,,13,103,1080023,,,,,,,2023-08-10,1,,,,,エフビーエンターテインメント,0
1108,5010401176284,新規,0,2023-08-10,2023-08-10,ＨｅｒｃｉＢｏｋｕ株式会社,,株式会社,東京都,港区,南麻布５丁目１４番４－１０１号,,13,103,1060047,,,,,,,2023-08-10,1,,,,,ヘルシーボク,0
1109,5010401176334,新規,0,2023-08-10,2023-08-10,株式会社ＡＩ　Ｂｏｏｓｔｅｒ,,株式会社,東京都,港区,元麻布３丁目１番３５号ＶＯＲＴ元麻布５階,,13,103,1060046,,,,,,,2023-08-10,1,,,,,エーアイブースター,0
1110,5010401176350,新規,0,2023-08-10,2023-08-10,ＣＩＰＡＮＧＯ株式会社,,株式会社,東京都,港区,元麻布３丁目７番２３－３０５号,,13,103,1060046,,,,,,,2023-08-10,1,,,,,チパンゴ,0
1115,5010501050884,新規,0,2023-08-10,2023-08-10,株式会社Ｒｅｇｏｌｉｔｈ,,株式会社,東京都,台東区,清川１丁目５番１２号,,13,106,1110022,,,,,,,2023-08-10,1,,,,,レゴリス,0
1119,5010601063530,新規,0,2023-08-10,2023-08-10,ＦＩＴ　ＩＮＮ株式会社,,株式会社,東京都,墨田区,押上１丁目４１番６－５０１号,,13,107,1310045,,,,,,,2023-08-10,1,,,,,フィットイン,0
1120,5010601063571,新規,0,2023-08-10,2023-08-10,株式会社ＹＵＵＭＯＰＬＵＳ,,株式会社,東京都,江東区,豊洲１丁目３番１８－５０２号,,13,108,1350061,,,,,,,2023-08-10,1,,,,,ユーモプラス,0
1121,5010601063588,新規,0,2023-08-10,2023-08-10,株式会社Ｏ,,株式会社,東京都,墨田区,本所１丁目３４番２号,,13,107,1300004,,,,,,,2023-08-10,1,,,,,オー,0
1124,5010701044686,新規,0,2023-08-10,2023-08-10,株式会社ＴＯコンサルティング,,株式会社,東京都,品川区,戸越１丁目２７－１レジデンス戸越５２２号室,,13,109,1420041,,,,,,,2023-08-10,1,,,,,ティーオーコンサルティング,0
1125,5010801034232,新規,0,2023-08-10,2023-08-10,株式会社ＳＨＩＮ,,株式会社,東京都,大田区,上池台１丁目３２番１５－５０１号,,13,111,1450064,,,,,,,2023-08-10,1,,,,,シン,0
1127,5010901053586,新規,0,2023-08-10,2023-08-10,株式会社ラポールｍｊ,,株式会社,東京都,世田谷区,奥沢４丁目１５番８号,,13,112,1580083,,,,,,,2023-08-10,1,,,,,ラポールエムジェイ,0
1129,5011001156271,新規,0,2023-08-10,2023-08-10,株式会社Ｍａｌａｍａ．,,株式会社,東京都,渋谷区,道玄坂１丁目１０番８号,,13,113,1500043,,,,,,,2023-08-10,1,,,,,マラマドット,0
1130,5011001156288,新規,0,2023-08-10,2023-08-10,ＹＤＫ　Ｔｕｂｅ株式会社,,株式会社,東京都,渋谷区,恵比寿４丁目１６番６号パークアクシス恵比寿１０４,,13,113,1500013,,,,,,,2023-08-10,1,,,,,ワイディーケーチューブ,0
1131,5011003017348,新規,0,2023-08-10,2023-08-10,合同会社Ｂ‐ｕｎ,,合同会社,東京都,目黒区,青葉台１丁目２５番１２号,,13,110,1530042,,,,,,,2023-08-10,1,,,,,ビウン,0
1133,5011201024831,新規,0,2023-08-10,2023-08-10,株式会社ＫＵＳＯＷ,,株式会社,東京都,中野区,中野２丁目１９－２－３Ｆ,,13,114,1640001,,,,,,,2023-08-10,1,,,,,クウソウ,0
1135,5011301028906,新規,0,2023-08-10,2023-08-10,株式会社善和,,株式会社,東京都,杉並区,松ノ木２丁目２７番１１－１０１,,13,115,1660014,,,,,,,2023-08-10,1,,,,,ゼンワ,0
1136,5011301028930,新規,0,2023-08-10,2023-08-10,株式会社ＩＳＡＭＩＹＡ,,株式会社,東京都,杉並区,和田１丁目３１番６号,,13,115,1660012,,,,,,,2023-08-10,1,,,,,イサミヤ,0
1145,5011801042877,新規,0,2023-08-10,2023-08-10,株式会社グノ・クリエーションズ,,株式会社,東京都,足立区,梅田４丁目３９番１８号,,13,121,1230851,,,,,,,2023-08-10,1,,,,,グノクリエーションズ,0
1146,5012301013550,新規,0,2023-08-10,2023-08-10,株式会社Ａ．Ｐ．ｃ,,株式会社,東京都,町田市,本町田２１５８番地６,,13,209,1940032,,,,,,,2023-08-10,1,,,,,エーピーシー,0
1149,5012401040858,新規,0,2023-08-10,2023-08-10,株式会社シスコ,,株式会社,東京都,府中市,若松町２丁目６番地の１プリマベーラＣ棟１０１,,13,206,1830005,,,,,,,2023-08-10,1,,,,,シスコ,0
1151,5012701017795,新規,0,2023-08-10,2023-08-10,株式会社優,,株式会社,東京都,東村山市,萩山町５丁目２番地２４,,13,213,1890012,,,,,,,2023-08-10,1,,,,,ユウ,0
1153,5012803003157,新規,0,2023-08-10,2023-08-10,合同会社ＨＡＹＡＧＡＭｙ,,合同会社,東京都,国立市,富士見台１丁目１７番地の１２Ｓ＆Ｓビル３０３,,13,215,1860003,,,,,,,2023-08-10,1,,,,,ハヤガミ,0
1154,5013101009227,新規,0,2023-08-10,2023-08-10,株式会社みと,,株式会社,東京都,福生市,大字熊川３９９番地１５,,13,218,1970003,,,,,,,2023-08-10,1,,,,,ミト,0
1155,5013103001256,新規,0,2023-08-10,2023-08-10,合同会社リベスト,,合同会社,東京都,羽村市,栄町２丁目１２番地８ベルクハウス３０５,,13,227,2050002,,,,,,,2023-08-10,1,,,,,リベスト,0
1157,5020001152949,新規,0,2023-08-10,2023-08-10,株式会社Ｈｆｕ,,株式会社,神奈川県,横浜市西区,南幸２丁目１１番９号プライムメゾン横浜ＷＥＳＴ３Ｆ,,14,103,2200005,,,,,,,2023-08-10,1,,,,,エイチエフユー,0
1158,5020001153006,新規,0,2023-08-10,2023-08-10,株式会社創伸ビル管理,,株式会社,神奈川県,川崎市高津区,蟹ケ谷２１２番地１－７１４,,14,134,2130025,,,,,,,2023-08-10,1,,,,,ソウシンビルカンリ,0
1159,5020003024386,新規,0,2023-08-10,2023-08-10,エシンシアコンサルティング合同会社,,合同会社,神奈川県,横浜市港北区,新横浜３丁目６番地１２日総第１２ビルウィンドベース新横浜６１０,,14,109,2220033,,,,,,,2023-08-10,1,,,,,エシンシアコンサルティング,0
1160,5020003024394,新規,0,2023-08-10,2023-08-10,リジョナルアクティベーション合同会社,,合同会社,神奈川県,横浜市戸塚区,品濃町８８１―７―５０７,,14,110,2440801,,,,,,,2023-08-10,1,,,,,リジョナルアクティベーション,0
1164,5021001079843,新規,0,2023-08-10,2023-08-10,株式会社ｎｏｇｉｋａ,,株式会社,神奈川県,鎌倉市,七里ガ浜東２丁目３１番５号,,14,204,2480025,,,,,,,2023-08-10,1,,,,,ノギカ,0
1165,5021001079892,新規,0,2023-08-10,2023-08-10,ＳＳホールディングス株式会社,,株式会社,神奈川県,藤沢市,羽鳥４丁目１３番３３号,,14,205,2510056,,,,,,,2023-08-10,1,,,,,エスエスホールディングス,0
1167,5021003013437,新規,0,2023-08-10,2023-08-10,Ｒｉｖｅｒｓｔ合同会社,,合同会社,神奈川県,相模原市南区,南台５丁目１２番２２号,,14,153,2520314,,,,,,,2023-08-10,1,,,,,リバースト,0
1175,5030001154952,新規,0,2023-08-10,2023-08-10,株式会社ｍｅｅｌ,,株式会社,埼玉県,東松山市,大字下唐子２００６番地５,,11,212,3550076,,,,,,,2023-08-10,1,,,,,ミール,0
1176,5030001155422,新規,0,2023-08-10,2023-08-10,株式会社ワンドロップワークス,,株式会社,埼玉県,さいたま市岩槻区,南平野３丁目２１番地１３,,11,110,3390051,,,,,,,2023-08-10,1,,,,,ワンドロップワークス,0
1180,5030003022208,新規,0,2023-08-10,2023-08-10,万霖合同会社,,合同会社,埼玉県,草加市,氷川町２１０４－１７ＶＩＰルーム３Ｆ,,11,221,3400034,,,,,,,2023-08-10,1,,,,,マンリン,0
1185,5040001129474,新規,0,2023-08-10,2023-08-10,株式会社ガリプラ,,株式会社,千葉県,旭市,井戸野２５４９番地１,,12,215,2892531,,,,,,,2023-08-10,1,,,,,ガリプラ,0
1186,5040001129557,新規,0,2023-08-10,2023-08-10,株式会社真創建,,株式会社,千葉県,市原市,うるいど南３丁目２番地１０２,,12,219,2900170,,,,,,,2023-08-10,1,,,,,シンソウケン,0
1187,5040001129607,新規,0,2023-08-10,2023-08-10,ミヤサコデリバリー株式会社,,株式会社,千葉県,柏市,増尾５丁目２３番３号,,12,217,2770033,,,,,,,2023-08-10,1,,,,,ミヤサコデリバリー,0
1188,5040001129631,新規,0,2023-08-10,2023-08-10,株式会社Ｗｈｉｔｅ　Ｍｏｎｋｅｙ,,株式会社,千葉県,松戸市,常盤平６丁目２９－２４,,12,207,2702261,,,,,,,2023-08-10,1,,,,,ホワイトモンキー,0
1194,5040003023097,新規,0,2023-08-10,2023-08-10,合同会社Ａ＆Ｍ工業,,合同会社,千葉県,銚子市,和田町１５０３番地１階,,12,202,2880066,,,,,,,2023-08-10,1,,,,,エーアンドエムコウギョウ,0
1195,5050003007719,新規,0,2023-08-10,2023-08-10,Ｄ‐Ｎｅｘｔ合同会社,,合同会社,茨城県,常陸太田市,馬場町８５－１ＫＫビル２Ｆ,,08,212,3130004,,,,,,,2023-08-10,1,,,,,ディーネクスト,0
1196,5050003007727,新規,0,2023-08-10,2023-08-10,合同会社ハルソラヤ,,合同会社,茨城県,つくば市,松代２丁目９―１３,,08,220,3050035,,,,,,,2023-08-10,1,,,,,ハルソラヤ,0
1207,5080401026664,新規,0,2023-08-10,2023-08-10,株式会社東海安全調査,,株式会社,静岡県,浜松市南区,米津町２１７３番地,,22,134,4328056,,,,,,,2023-08-10,1,,,,,トウカイアンゼンチョウサ,0
1208,5090001018243,新規,0,2023-08-10,2023-08-10,株式会社ポートファーム,,株式会社,山梨県,北杜市,高根町清里３５４５番地１０７３,,19,209,4070301,,,,,,,2023-08-10,1,,,,,ポートファーム,0
1209,5100001036664,新規,0,2023-08-10,2023-08-10,株式会社ココリング,,株式会社,長野県,佐久市,小宮山５６９番地５,,20,217,3850047,,,,,,,2023-08-10,1,,,,,ココリング,0
1210,5100001036680,新規,0,2023-08-10,2023-08-10,ＭＩＹＡ　ＴＲＡＤＩＮＧ株式会社,,株式会社,長野県,中野市,大字吉田９６番地１,,20,211,3830015,,,,,,,2023-08-10,1,,,,,ミヤトレーディング,0
1211,5100003007135,新規,0,2023-08-10,2023-08-10,合同会社ＳＯＷ,,合同会社,長野県,中野市,大字片塩３６７番地８,,20,211,3830046,,,,,,,2023-08-10,1,,,,,ソウ,0
1218,5120001257069,新規,0,2023-08-10,2023-08-10,株式会社ハウスパートナー,,株式会社,大阪府,大阪市鶴見区,今津北１丁目８番３３－６１４号,,27,124,5380041,,,,,,,2023-08-10,1,,,,,ハウスパートナー,0
1219,5120001257110,新規,0,2023-08-10,2023-08-10,株式会社ＨＡＫＵ,,株式会社,大阪府,門真市,四宮３丁目２番６号,,27,223,5710017,,,,,,,2023-08-10,1,,,,,ハク,0
1220,5120001257242,新規,0,2023-08-10,2023-08-10,Ｇｌｏｂａｌ　Ｄｒｅａｍ株式会社,,株式会社,大阪府,守口市,梶町２丁目１４番７号,,27,209,5700015,,,,,,,2023-08-10,1,,,,,グローバルドリーム,0
1221,5120001257250,新規,0,2023-08-10,2023-08-10,株式会社あざらし,,株式会社,大阪府,大阪市浪速区,元町１丁目５番７号,,27,111,5560016,,,,,,,2023-08-10,1,,,,,アザラシ,0
1222,5120001257275,新規,0,2023-08-10,2023-08-10,株式会社一番,,株式会社,大阪府,大阪市都島区,都島中通３丁目２０番１４号,,27,102,5340022,,,,,,,2023-08-10,1,,,,,イチバン,0
1225,5120901047924,新規,0,2023-08-10,2023-08-10,株式会社エイトテック,,株式会社,大阪府,高槻市,大冠町３丁目２番１４号,,27,207,5690031,,,,,,,2023-08-10,1,,,,,エイトテック,0
1227,5130001074892,新規,0,2023-08-10,2023-08-10,筱株式会社,,株式会社,京都府,京都市左京区,一乗寺地蔵本町６－１，メイコービル２０３号室,,26,103,6068181,,,,,,,2023-08-10,1,,,,,シノ,0
1228,5130001074950,新規,0,2023-08-10,2023-08-10,株式会社まねきねこ,,株式会社,京都府,京都市上京区,猪熊通元誓願寺下る竪神明町４８３番地７,,26,102,6028228,,,,,,,2023-08-10,1,,,,,マネキネコ,0
1232,5140001131057,新規,0,2023-08-10,2023-08-10,株式会社ＤＮコーポレーション,,株式会社,兵庫県,姫路市,東山１２４５番地,,28,201,6728014,,,,,,,2023-08-10,1,,,,,ディーエヌコーポレーション,0
1233,5140001131156,新規,0,2023-08-10,2023-08-10,株式会社ブランディア,,株式会社,兵庫県,神戸市灘区,八幡町１丁目２－３６,,28,102,6570051,,,,,,,2023-08-10,1,,,,,ブランディア,0
1234,5140001131180,新規,0,2023-08-10,2023-08-10,株式会社Ｂｏｎｄｓ　Ｃｏｒｐｏｒａｔｉｏｎ,,株式会社,兵庫県,神戸市須磨区,明神町２丁目３番２－１号,,28,107,6540002,,,,,,,2023-08-10,1,,,,,ボンズコーポレーション,0
1235,5140001131189,新規,0,2023-08-10,2023-08-10,株式会社ティエナ,,株式会社,兵庫県,明石市,魚住町錦が丘４丁目１２－８,,28,203,6740081,,,,,,,2023-08-10,1,,,,,ティエナ,0
1236,5140001131206,新規,0,2023-08-10,2023-08-10,レイ不動産株式会社,,株式会社,兵庫県,神戸市西区,学園西町２丁目５番地の１３７,,28,111,6512103,,,,,,,2023-08-10,1,,,,,レイフドウサン,0
1237,5140001131247,新規,0,2023-08-10,2023-08-10,株式会社ウインドアート,,株式会社,兵庫県,明石市,日富美町１０番２３号,,28,203,6730896,,,,,,,2023-08-10,1,,,,,ウインドアート,0
1238,5140003019408,新規,0,2023-08-10,2023-08-10,Ｓｔａｒｓ　ａｇａｉｎ合同会社,,合同会社,兵庫県,神戸市垂水区,海岸通９番５８－１０３,,28,108,6550036,,,,,,,2023-08-10,1,,,,,スターズアゲイン,0
1239,5140003019416,新規,0,2023-08-10,2023-08-10,合同会社ＥＭＢ,,合同会社,兵庫県,神戸市長田区,若松町１丁目４－８カニビル３Ｆ,,28,106,6530038,,,,,,,2023-08-10,1,,,,,イーエムビー,0
1244,5160001025257,新規,0,2023-08-10,2023-08-10,株式会社ＬＩＦＩＸ　Ｇｒｏｕｐ,,株式会社,滋賀県,大津市,大江４丁目２３－６,,25,201,5202141,,,,,,,2023-08-10,1,,,,,リフィックスグループ,0
1261,5180003025617,新規,0,2023-08-10,2023-08-10,合同会社ＳｋｙＣ,,合同会社,愛知県,一宮市,千秋町佐野字郷前２７９４番地２ハズ・ホース１０１号,,23,203,4910804,,,,,,,2023-08-10,1,,,,,スカイシー,0
1262,5180301037677,新規,0,2023-08-10,2023-08-10,株式会社ｍｏｎ　ｆｕｔｕｒ,,株式会社,愛知県,岡崎市,上地５丁目９番地４,,23,202,4440823,,,,,,,2023-08-10,1,,,,,モンファボリ,0
1269,5200001041605,新規,0,2023-08-10,2023-08-10,丸久株式会社,,株式会社,岐阜県,郡上市,八幡町五町３丁目２番地２,,21,219,5014234,,,,,,,2023-08-10,1,,,,,マルキュウ,0
1271,5210001019419,新規,0,2023-08-10,2023-08-10,Ａｉｔ　Ｄｅｓｉｇｎ株式会社,,株式会社,福井県,福井市,二の宮１丁目１番１号グラフグラス１０２,,18,201,9100015,,,,,,,2023-08-10,1,,,,,エイトデザイン,0
1272,5220003003568,新規,0,2023-08-10,2023-08-10,合同会社ｌｏｖｅ　ｌｉｇｈｔ　ｌｉｆｅ,,合同会社,石川県,小松市,八里台８番地３,,17,203,9230056,,,,,,,2023-08-10,1,,,,,ラブライトライフ,0
1275,5230003002065,新規,0,2023-08-10,2023-08-10,合同会社トラスト北陸,,合同会社,富山県,富山市,新庄町１５番地９ｇｒａｎ‐ｎｏｉｘ新庄１０２,,16,201,9300992,,,,,,,2023-08-10,1,,,,,トラストホクリク,0
1278,5240001061970,新規,0,2023-08-10,2023-08-10,株式会社岩田工建,,株式会社,広島県,福山市,神村町３５８番地１,,34,207,7290112,,,,,,,2023-08-10,1,,,,,イワタコウケン,0
1279,5240001061979,新規,0,2023-08-10,2023-08-10,株式会社五光Ｇｒｏｕｐ,,株式会社,広島県,広島市西区,高須台１丁目７番６－１０１号,,34,104,7330876,,,,,,,2023-08-10,1,,,,,ゴコウグループ,0
1290,5260001038182,新規,0,2023-08-10,2023-08-10,ドレンシーグループ株式会社,,株式会社,岡山県,浅口市,鴨方町六条院西２１５９番地,,33,216,7190251,,,,,,,2023-08-10,1,,,,,ドレンシーグループ,0
1291,5260001038224,新規,0,2023-08-10,2023-08-10,スタンフィルド株式会社,,株式会社,岡山県,苫田郡鏡野町,寺元３４１番地７,,33,606,7080323,,,,,,,2023-08-10,1,,,,,スタンフィルド,0
1293,5280001009009,新規,0,2023-08-10,2023-08-10,株式会社天空月花,,株式会社,島根県,出雲市,今市町１４１４番地１号,,32,203,6930001,,,,,,,2023-08-10,1,,,,,アマツキ,0
1297,5290001102547,新規,0,2023-08-10,2023-08-10,株式会社ヤマックス福岡本社,,株式会社,福岡県,糟屋郡須惠町,大字植木１５１番地,,40,344,8112112,,,,,,,2023-08-10,1,,,,,ヤマックスフクオカホンシャ,0
1298,5290001102571,新規,0,2023-08-10,2023-08-10,株式会社ｕｐｔｒａｄｅ,,株式会社,福岡県,福岡市中央区,天神１丁目１５番３２号,,40,133,8100001,,,,,,,2023-08-10,1,,,,,アップトレード,0
1302,5300001013420,新規,0,2023-08-10,2023-08-10,古賀株式会社,,株式会社,佐賀県,武雄市,北方町大字志久２０４０番地２,,41,206,8492201,,,,,,,2023-08-10,1,,,,,コガ,0
1304,5320001019944,新規,0,2023-08-10,2023-08-10,邉建ＷＯＲＫ株式会社,,株式会社,大分県,大分市,羽屋４丁目１３番４号,,44,201,8700854,,,,,,,2023-08-10,1,,,,,ナベケンワーク,0
1305,5320003004143,新規,0,2023-08-10,2023-08-10,ＳＴＡＲ　ＳＭＩＬＥ合同会社,,合同会社,大分県,杵築市,大字鴨川３３５番地１,,44,210,8730023,,,,,,,2023-08-10,1,,,,,スタースマイル,0
1307,5330001031147,新規,0,2023-08-10,2023-08-10,株式会社新明,,株式会社,熊本県,菊池市,旭志新明１４０３番地１,,43,210,8691207,,,,,,,2023-08-10,1,,,,,シンメイ,0
1312,5330003009942,新規,0,2023-08-10,2023-08-10,シンシャ合同会社,,合同会社,熊本県,熊本市中央区,新町４丁目２－１５リバティ新町３０１,,43,101,8600004,,,,,,,2023-08-10,1,,,,,シンシャ,0
1313,5340001025809,新規,0,2023-08-10,2023-08-10,株式会社倫美装,,株式会社,鹿児島県,鹿児島市,桜ヶ丘６丁目４６番地１,,46,201,8910175,,,,,,,2023-08-10,1,,,,,リンビソウ,0
1314,5340003004199,新規,0,2023-08-10,2023-08-10,合同会社鹿児島プロモーション,,合同会社,鹿児島県,鹿児島市,吉野４丁目６１番１１号,,46,201,8920877,,,,,,,2023-08-10,1,,,,,カゴシマプロモーション,0
1315,5350001018497,新規,0,2023-08-10,2023-08-10,株式会社ＮＢサービス,,株式会社,宮崎県,宮崎市,吉村町宮ノ前甲２１４７番地１２,,45,201,8800841,,,,,,,2023-08-10,1,,,,,エヌビーサービス,0
1318,5360001032415,新規,0,2023-08-10,2023-08-10,株式会社ＦＵＪＩＹＡ　ＲＥＬＩＦＥ,,株式会社,沖縄県,那覇市,泊２丁目１０番地９,,47,201,9000012,,,,,,,2023-08-10,1,,,,,フジヤリライフ,0
1319,5360005006893,新規,0,2023-08-10,2023-08-10,一般社団法人Ｈａｌｅｌｅａ,,その他の設立登記法人,沖縄県,南城市,佐敷字津波古２３９１番地３,,47,215,9011414,,,,,,,2023-08-10,1,,,,,ハレレア,0
1321,5370001050267,新規,0,2023-08-10,2023-08-10,ネクスト株式会社,,株式会社,宮城県,登米市,中田町上沼字長根３６－１,,04,212,9870602,,,,,,,2023-08-10,1,,,,,ネクスト,0
1322,5370001050291,新規,0,2023-08-10,2023-08-10,株式会社ｓｏｌｕｆａｃｔｉｏｎ,,株式会社,宮城県,仙台市太白区,茂庭字町北２１番地の１－２Ｆ,,04,104,9820251,,,,,,,2023-08-10,1,,,,,ソルファクション,0
1325,5380001033907,新規,0,2023-08-10,2023-08-10,株式会社エアー,,株式会社,福島県,福島市,南矢野目字盈田１０番地の１,,07,201,9600112,,,,,,,2023-08-10,1,,,,,エアー,0
1326,5380001033915,新規,0,2023-08-10,2023-08-10,あぶくまエコクリエイション株式会社,,株式会社,福島県,福島市,泉字清水内１番地,,07,201,9608253,,,,,,,2023-08-10,1,,,,,アブクマエコクリエイション,0
1330,5380003005532,新規,0,2023-08-10,2023-08-10,合同会社文字通訳ゆびわ,,合同会社,福島県,会津若松市,高野町大字上高野字畑田９番地,,07,202,9650077,,,,,,,2023-08-10,1,,,,,モジツウヤクユビワ,0
1336,5430001089695,新規,0,2023-08-10,2023-08-10,株式会社エフマジマ,,株式会社,北海道,札幌市白石区,川北二条１丁目１８番２号,,01,104,0030852,,,,,,,2023-08-10,1,,,,,エフマジマ,0
1341,5440003001533,新規,0,2023-08-10,2023-08-10,合同会社ハルモニア,,合同会社,北海道,函館市,末広町２０番６－１０５号,,01,202,0400053,,,,,,,2023-08-10,1,,,,,ハルモニア,0
1342,5450001014065,新規,0,2023-08-10,2023-08-10,ＤａｉｒｙＡｃｅ株式会社,,株式会社,北海道,宗谷郡猿払村,芦野２１８４番地２８,00131489,01,511,0986225,,,,,,,2023-08-10,1,,,,,,0
1343,5460001005815,新規,0,2023-08-10,2023-08-10,北洋建材ホールディングス株式会社,,株式会社,北海道,釧路市,花園町３番１２号,,01,206,0850038,,,,,,,2023-08-10,1,,,,,ホクヨウケンザイホールディングス,0
1344,5470001019748,新規,0,2023-08-10,2023-08-10,ＭＡＫＯＴＯ電設株式会社,,株式会社,香川県,高松市,春日町１４９５番地７,,37,201,7610101,,,,,,,2023-08-10,1,,,,,マコトデンセツ,0
1345,5470001019756,新規,0,2023-08-10,2023-08-10,那須工業株式会社,,株式会社,香川県,坂出市,池園町６番２４号,,37,203,7620035,,,,,,,2023-08-10,1,,,,,ナスコウギョウ,0
1348,5500001025131,新規,0,2023-08-10,2023-08-10,株式会社日向エステート,,株式会社,愛媛県,松山市,竹原４丁目８番４０号エアフォルク竹原６０１号,,38,201,7900053,,,,,,,2023-08-10,1,,,,,ヒムカイエステート,0
1349,5700150118970,新規,0,2023-08-10,2023-08-10,ｓｈｅｎｚｈｅｎｓｈｉ　ａｉｆｅｎｇｙｕａｎｍａｏｙｉ　ｙｏｕｘｉａｎｇｏｎｇｓｉ,,外国会社等,,,,,,,,ｆｕｃｈｅｎｇｊｉｅｄａｏｘｉｎｈｅｓｈｅｑｕｇｕａｎｌａｎｄａｄａｏ５４－６ｈａｏ　ｌｏｕｆａｎｇｅｒ４１７　ｓｈｅｎｚｈｅｎｓｈｉ　ｌｏｎｇｈｕａｑｕ　ｇｕａｎｇｄｏｎｇｓｈｅｎｇ　５１８０００　ＣＮ,,,,,,2023-08-10,1,,,,,シンセンシアイフェンユェンマオイヨウシェンゴンスー,0
1350,5700150118979,新規,0,2023-08-10,2023-08-10,Ｇｕａｎｇｚｈｏｕ　Ｓｉｄｉａｎｊｉｎ　Ｔｒａｄｉｎｇ　Ｃｏ．，ＬＴＤ,,外国会社等,,,,,,,,Ａ２－３０３　Ｈｏｎｇｔｕ　Ｉｎｄｕｓｔｒｉａｌ　Ｐａｒｋ，Ｎａｎｄａ　Ｈｉｇｈｗａｙ，Ｄａｓｈｉ　Ｓｔｒｅｅｔ，Ｐａｎｙｕ　Ｄｉｓｔｒｉｃｔ，Ｇｕａｎｇｚｈｏｕ,,,,,,2023-08-10,1,,,,,グワンジョウスーディエンジンマオイーヨウシエンゴンスー,0
1358,6010001237519,新規,0,2023-08-10,2023-08-10,株式会社ＮｅｏＲｅａｌＸ,,株式会社,東京都,文京区,湯島３丁目１番３号,,13,105,1130034,,,,,,,2023-08-10,1,,,,,ネオリアルエックス,0
1359,6010001237626,新規,0,2023-08-10,2023-08-10,株式会社Ｓｐｉｃｅｔｅｃｈ,,株式会社,東京都,中央区,銀座１丁目１２番４号Ｎ＆ＥＢＬＤ．６Ｆ,,13,102,1040061,,,,,,,2023-08-10,1,,,,,スパイステック,0
1363,6010003041332,新規,0,2023-08-10,2023-08-10,Ｊ．Ｂｅｓｐｏｋｅ　Ｔａｔｓｕｍｉ合同会社,,合同会社,東京都,千代田区,九段北１丁目１２番２号ＬＥＯ九段８０２,,13,101,1020073,,,,,,,2023-08-10,1,,,,,ジェイビスポークタツミ,0
1378,6010401176250,新規,0,2023-08-10,2023-08-10,株式会社ティール,,株式会社,東京都,港区,南青山２丁目２番１５号ウィン青山９４２,,13,103,1070062,,,,,,,2023-08-10,1,,,,,ティール,0
1379,6010401176291,新規,0,2023-08-10,2023-08-10,株式会社ＩｎｎｏＣｏ,,株式会社,東京都,港区,南青山２丁目２番１５号,,13,103,1070062,,,,,,,2023-08-10,1,,,,,イノコ,0
1380,6010401176325,新規,0,2023-08-10,2023-08-10,株式会社玖壱,,株式会社,東京都,港区,赤坂６丁目１１番１３号赤坂鏡ビルＢ１Ｆ,,13,103,1070052,,,,,,,2023-08-10,1,,,,,クイチ,0
1381,6010401176382,新規,0,2023-08-10,2023-08-10,オニキスワークス株式会社,,株式会社,東京都,港区,浜松町２丁目２番１５号浜松町ダイヤビル２Ｆ,,13,103,1050013,,,,,,,2023-08-10,1,,,,,オニキスワークス,0
1382,6010401176424,新規,0,2023-08-10,2023-08-10,株式会社ｘｗａ,,株式会社,東京都,港区,南青山３丁目１番３号,,13,103,1070062,,,,,,,2023-08-10,1,,,,,エックスダブリューエー,0
1385,6010403030661,新規,0,2023-08-10,2023-08-10,合同会社Ｐｌｙｕｍｅ,,合同会社,東京都,港区,北青山１丁目３番１号アールキューブ青山３階,,13,103,1070061,,,,,,,2023-08-10,1,,,,,プリューミー,0
1386,6010403030678,新規,0,2023-08-10,2023-08-10,合同会社ライトアップフォーエバー,,合同会社,東京都,港区,芝浦４丁目２０番２－２２０１号,,13,103,1080023,,,,,,,2023-08-10,1,,,,,ライトアップフォーエバー,0
1387,6010403030686,新規,0,2023-08-10,2023-08-10,ＬＣＯＲＤＹ合同会社,,合同会社,東京都,港区,西新橋２丁目４番３号,,13,103,1050003,,,,,,,2023-08-10,1,,,,,ロコディー,0
1389,6010501050883,新規,0,2023-08-10,2023-08-10,株式会社ＳＫＪ,,株式会社,東京都,台東区,上野３丁目２３番１１号東販ビル５階,,13,106,1100005,,,,,,,2023-08-10,1,,,,,エスケージェイ,0
1391,6010505003433,新規,0,2023-08-10,2023-08-10,一般社団法人０‐ｅＡ,,その他の設立登記法人,東京都,台東区,西浅草３丁目１番２号ダイヤモンドビル新浅草３０２,,13,106,1110035,,,,,,,2023-08-10,1,,,,,ゼロイーエイ,0
1394,6010601063570,新規,0,2023-08-10,2023-08-10,株式会社ミノル建物,,株式会社,東京都,江東区,越中島１丁目３番１２－１４１０号,,13,108,1350044,,,,,,,2023-08-10,1,,,,,ミノルタテモノ,0
1399,6010701044685,新規,0,2023-08-10,2023-08-10,株式会社ＬＩＶＥ　ＵＰ,,株式会社,東京都,品川区,上大崎３丁目１番１号ＪＲ東京目黒ビル４階,,13,109,1410021,,,,,,,2023-08-10,1,,,,,ライブアップ,0
1401,6010703006816,新規,0,2023-08-10,2023-08-10,合同会社ウイング,,合同会社,東京都,品川区,西五反田１丁目２４番４号タキゲンビル４階,,13,109,1410031,,,,,,,2023-08-10,1,,,,,ウイング,0
1407,6010901053577,新規,0,2023-08-10,2023-08-10,株式会社Ｐｅａｒｔｈ,,株式会社,東京都,世田谷区,上用賀６丁目３２番３３号－２,,13,112,1580098,,,,,,,2023-08-10,1,,,,,パース,0
1408,6010901053619,新規,0,2023-08-10,2023-08-10,株式会社Ｂｌｅｕ,,株式会社,東京都,世田谷区,玉川３丁目２０番２号マノア玉川第３ビル５０１号室,,13,112,1580094,,,,,,,2023-08-10,1,,,,,ブルー,0
1410,6011001156270,新規,0,2023-08-10,2023-08-10,株式会社フィールドマーケティング,,株式会社,東京都,渋谷区,渋谷２丁目２４番１２号渋谷スクランブルスクエア３９Ｆ,,13,113,1500002,,,,,,,2023-08-10,1,,,,,フィールドマーケティング,0
1411,6011001156304,新規,0,2023-08-10,2023-08-10,Ｉｒｏｎｃｌａｄ株式会社,,株式会社,東京都,渋谷区,代官山町１０番１２－６０１号,,13,113,1500034,,,,,,,2023-08-10,1,,,,,アイロンクラッド,0
1419,6011201024839,新規,0,2023-08-10,2023-08-10,株式会社ｈｂ,,株式会社,東京都,中野区,江原町３丁目５番１０－８０１号,,13,114,1650023,,,,,,,2023-08-10,1,,,,,エイチビー,0
1424,6011503005710,新規,0,2023-08-10,2023-08-10,合同会社ワントレード,,合同会社,東京都,北区,滝野川７丁目２４番６－７０２号,,13,117,1140023,,,,,,,2023-08-10,1,,,,,ワントレード,0
1428,6011803005781,新規,0,2023-08-10,2023-08-10,Ｂａｌｌｅｔ　Ｐａｒｆａｉｔ　Ｃｌａｓｓｉｑｕｅ合同会社,,合同会社,東京都,葛飾区,亀有２丁目５８番４号,,13,122,1250061,,,,,,,2023-08-10,1,,,,,バレエパルフェクラシック,0
1439,6020001152907,新規,0,2023-08-10,2023-08-10,株式会社ＪＭＥ,,株式会社,神奈川県,横浜市旭区,本宿町１３－１６－Ｖ１０２,,14,112,2410023,,,,,,,2023-08-10,1,,,,,ジェーエムイー,0
1440,6020001152948,新規,0,2023-08-10,2023-08-10,株式会社ホロムア,,株式会社,神奈川県,川崎市中原区,上丸子天神町２９９番地,,14,133,2110007,,,,,,,2023-08-10,1,,,,,ホロムア,0
1441,6020001152972,新規,0,2023-08-10,2023-08-10,株式会社Ｔ‐５,,株式会社,神奈川県,横浜市神奈川区,片倉２丁目４４番５号,,14,102,2210865,,,,,,,2023-08-10,1,,,,,ティーゴ,0
1442,6020001152980,新規,0,2023-08-10,2023-08-10,株式会社匠,,株式会社,神奈川県,川崎市川崎区,下並木７８番地２ナイスアーバン川崎八丁畷２０６,,14,131,2100025,,,,,,,2023-08-10,1,,,,,タクミ,0
1447,6020003024385,新規,0,2023-08-10,2023-08-10,合同会社Ｎｏｒｂｉｔｏｎビジネスコンサルティング,,合同会社,神奈川県,横浜市磯子区,西町６番７－２０６号,,14,107,2350007,,,,,,,2023-08-10,1,,,,,ノービトンビジネスコンサルティング,0
1450,6021001079867,新規,0,2023-08-10,2023-08-10,ウチヌキホールディングス株式会社,,株式会社,神奈川県,綾瀬市,早川２６４７番地１６,,14,218,2521123,,,,,,,2023-08-10,1,,,,,ウチヌキホールディングス,0
1451,6021001079891,新規,0,2023-08-10,2023-08-10,株式会社ラス,,株式会社,神奈川県,大和市,西鶴間３丁目７番２２号,,14,213,2420005,,,,,,,2023-08-10,1,,,,,ラス,0
1459,6021005012881,新規,0,2023-08-10,2023-08-10,一般社団法人日本語アカデミー,,その他の設立登記法人,神奈川県,相模原市中央区,鹿沼台２丁目１９番２２号,,14,152,2520233,,,,,,,2023-08-10,1,,,,,ニホンゴアカデミー,0
1464,6030001155099,新規,0,2023-08-10,2023-08-10,株式会社ＧＲＯＷ,,株式会社,埼玉県,川口市,芝中田２丁目３１番２５号ＰＬＥＮＤＹ川口芝公園ＩＩ１０１号,00131478,11,203,3330847,,,,,,,2023-08-10,1,,,,,グロー,0
1465,6030001155272,新規,0,2023-08-10,2023-08-10,株式会社Ｇ・Ｅ・Ｔ,,株式会社,埼玉県,三郷市,茂田井１５４番地４,,11,237,3410025,,,,,,,2023-08-10,1,,,,,ジーイーティ,0
1469,6030003022165,新規,0,2023-08-10,2023-08-10,Ａｘｉｏｎ合同会社,,合同会社,埼玉県,入間郡三芳町,大字藤久保５１２４番地,,11,324,3540041,,,,,,,2023-08-10,1,,,,,アキシオン,0
1470,6030003022256,新規,0,2023-08-10,2023-08-10,合同会社ｒｉａ,,合同会社,埼玉県,草加市,稲荷３丁目１０番２４－２号,,11,221,3400003,,,,,,,2023-08-10,1,,,,,リア,0
1476,6040001129548,新規,0,2023-08-10,2023-08-10,株式会社金太郎商事,,株式会社,千葉県,松戸市,小山７１１番地の３ソフィア松戸３２１号,,12,207,2710093,,,,,,,2023-08-10,1,,,,,キンタロウショウジ,0
1477,6040001129556,新規,0,2023-08-10,2023-08-10,株式会社和昂,,株式会社,千葉県,富津市,下飯野１６０３番地１,,12,226,2930006,,,,,,,2023-08-10,1,,,,,ワコウ,0
1478,6040001129639,新規,0,2023-08-10,2023-08-10,Ｌａｒｄｏｏ株式会社,,株式会社,千葉県,柏市,新柏２丁目８－１３,,12,217,2770084,,,,,,,2023-08-10,1,,,,,ラドー,0
1481,6040003023096,新規,0,2023-08-10,2023-08-10,合同会社ほそや照明研究所,,合同会社,千葉県,野田市,野田８５９番地の１１,,12,208,2780037,,,,,,,2023-08-10,1,,,,,ホソヤショウメイケンキュウジョ,0
1484,6060001036239,新規,0,2023-08-10,2023-08-10,Ｈｏｌｏｍｕａ株式会社,,株式会社,栃木県,栃木市,箱森町２－３３,,09,203,3280075,,,,,,,2023-08-10,1,,,,,ホロムア,0
1487,6060003004680,新規,0,2023-08-10,2023-08-10,合同会社野州Ｒｅ．便．社,,合同会社,栃木県,下野市,祇園２丁目１３番地１ダイアパレス５番館５０１号,00131482,09,216,3290434,,,,,,,2023-08-10,1,,,,,ヤシュウリベンシャ,0
1491,6080101024166,新規,0,2023-08-10,2023-08-10,株式会社ＶＡＬＴＥＮ,,株式会社,静岡県,沼津市,足高３２２番地の６７,,22,203,4100001,,,,,,,2023-08-10,1,,,,,,0
1497,6080403004849,新規,0,2023-08-10,2023-08-10,合同会社Ｉ・Ｖ,,合同会社,静岡県,浜松市中区,文丘町３０番２２号,,22,131,4328004,,,,,,,2023-08-10,1,,,,,アイヴィー,0
1502,6110001037768,新規,0,2023-08-10,2023-08-10,株式会社愛興業,,株式会社,新潟県,新潟市中央区,天神１丁目１番地プラーカ３－２Ｆ、ＨＵＢＳＴＡＴＩＯＮＫＥＮＴＯ内,,15,103,9500917,,,,,,,2023-08-10,1,,,,,メグミコウギョウ,0
1506,6110003005129,新規,0,2023-08-10,2023-08-10,合同会社Ａ．Ｃｈｏｉｃｅ,,合同会社,新潟県,長岡市,鉢伏町３０３番地６,,15,202,9400842,,,,,,,2023-08-10,1,,,,,エーチョイス,0
1514,6120001257084,新規,0,2023-08-10,2023-08-10,金光不動産株式会社,,株式会社,大阪府,大阪市東淀川区,菅原４丁目４番４０号村上ビル３Ｆ,,27,114,5330022,,,,,,,2023-08-10,1,,,,,カネミツフドウサン,0
1515,6120001257101,新規,0,2023-08-10,2023-08-10,新東商事株式会社,,株式会社,大阪府,大阪市平野区,加美西２丁目１０－３５,,27,126,5470005,,,,,,,2023-08-10,1,,,,,シントウショウジ,0
1516,6120001257118,新規,0,2023-08-10,2023-08-10,株式会社ＴＲＵＮＫＹ,,株式会社,大阪府,大阪市西淀川区,柏里１丁目１１番１６－４０１号,,27,113,5550022,,,,,,,2023-08-10,1,,,,,トランキー,0
1517,6120001257191,新規,0,2023-08-10,2023-08-10,株式会社ＪＯＹ,,株式会社,大阪府,大阪市都島区,都島北通２丁目２２番１９ファラン都島３０５号,,27,102,5340014,,,,,,,2023-08-10,1,,,,,ジョイ,0
1518,6120003024565,新規,0,2023-08-10,2023-08-10,合同会社ＰＵＭＰＵＰＳＹＳＴＥＭ,,合同会社,大阪府,大阪市北区,梅田１丁目２番２号大阪駅前第２ビル１２‐１２,,27,127,5300001,,,,,,,2023-08-10,1,,,,,ポンプアップシステム,0
1519,6120003024648,新規,0,2023-08-10,2023-08-10,合同会社Ｈｉ‐Ｆｉｖｅ．,,合同会社,大阪府,大阪市北区,梅田１丁目２番２号大阪駅前第２ビル１２－１２,,27,127,5300001,,,,,,,2023-08-10,1,,,,,ハイファイブ,0
1520,6120003024664,新規,0,2023-08-10,2023-08-10,合同会社ｃｕｎｅａ,,合同会社,大阪府,大阪市港区,磯路２丁目１２番１－１０６号,,27,107,5520003,,,,,,,2023-08-10,1,,,,,クネア,0
1523,6120101068051,新規,0,2023-08-10,2023-08-10,株式会社クラウドエイト,,株式会社,大阪府,羽曳野市,駒ケ谷２７６番地,,27,222,5830841,,,,,,,2023-08-10,1,,,,,クラウドエイト,0
1526,6122003002641,新規,0,2023-08-10,2023-08-10,とんかつひろ喜Ｂｏｎｄ合同会社,,合同会社,大阪府,東大阪市,稲田本町３丁目２０番１１号,,27,227,5770007,,,,,,,2023-08-10,1,,,,,トンカツヒロキボンド,0
1530,6130001074933,新規,0,2023-08-10,2023-08-10,株式会社ＮＲ電装,,株式会社,京都府,宇治市,広野町尖山５２番地１,,26,204,6110031,,,,,,,2023-08-10,1,,,,,エヌアールデンソウ,0
1531,6130001074966,新規,0,2023-08-10,2023-08-10,株式会社イナイチ商会,,株式会社,京都府,京都市南区,上鳥羽奈須野町２４１,,26,107,6018146,,,,,,,2023-08-10,1,,,,,イナイチショウカイ,0
1538,6140001131246,新規,0,2023-08-10,2023-08-10,ナガイエンジニア株式会社,,株式会社,兵庫県,尼崎市,武庫町４丁目１０－４－４号,,28,202,6610044,,,,,,,2023-08-10,1,,,,,ナガイエンジニア,0
1540,6140003019407,新規,0,2023-08-10,2023-08-10,平原合同会社,,合同会社,兵庫県,西宮市,枝川町１１番６２号,,28,204,6638143,,,,,,,2023-08-10,1,,,,,ヒラハラ,0
1542,6150001026619,新規,0,2023-08-10,2023-08-10,ケイトパイプ株式会社,,株式会社,奈良県,桜井市,大字三輪１２１５－３,,29,206,6330001,,,,,,,2023-08-10,1,,,,,ケイトパイプ,0
1543,6160001025256,新規,0,2023-08-10,2023-08-10,株式会社リイマジンド,,株式会社,滋賀県,草津市,下笠町８３番地８,,25,206,5250029,,,,,,,2023-08-10,1,,,,,リイマジンド,0
1544,6170001017731,新規,0,2023-08-10,2023-08-10,株式会社鹿六,,株式会社,和歌山県,新宮市,元鍛治町２丁目３番地の５,,30,207,6470005,,,,,,,2023-08-10,1,,,,,シカロク,0
1549,6180001157601,新規,0,2023-08-10,2023-08-10,こころ株式会社,,株式会社,愛知県,名古屋市西区,新道１丁目１４番１３号,,23,104,4510043,,,,,,,2023-08-10,1,,,,,ココロ,0
1554,6180301037676,新規,0,2023-08-10,2023-08-10,ユーティーズ株式会社,,株式会社,愛知県,西尾市,中畑１丁目１３５番地,,23,213,4440304,,,,,,,2023-08-10,1,,,,,ユーティーズ,0
1557,6190001030625,新規,0,2023-08-10,2023-08-10,キオクシアエネルギー・マネジメント株式会社,,株式会社,三重県,四日市市,山之一色町８００番地,,24,202,5120906,,,,,,,2023-08-10,1,,,,,キオクシアエネルギーマネジメント,0
1559,6200001041604,新規,0,2023-08-10,2023-08-10,株式会社Ｉ’Ｚ　ＯＮＥ,,株式会社,岐阜県,羽島郡岐南町,八剣北１丁目１８０番地の１,,21,302,5016011,,,,,,,2023-08-10,1,,,,,アイズワン,0
1561,6210001019418,新規,0,2023-08-10,2023-08-10,福北電力株式会社,,株式会社,福井県,福井市,竹生町第１９号１２番地１,,18,201,9103602,,,,,,,2023-08-10,1,,,,,フクキタデンリョク,0
1571,6240003006254,新規,0,2023-08-10,2023-08-10,ｎａｔｉｖｅ．合同会社,,合同会社,広島県,広島市南区,西本浦町２０－２１,,34,103,7340045,,,,,,,2023-08-10,1,,,,,ネイティブ,0
1579,6290001102488,新規,0,2023-08-10,2023-08-10,株式会社ハートスタッフＫｉＫｉ,,株式会社,福岡県,糟屋郡篠栗町,大字尾仲４４４番地１メゾン篠栗１０２号,,40,342,8112413,,,,,,,2023-08-10,1,,,,,ハートスタッフキキ,0
1580,6290001102546,新規,0,2023-08-10,2023-08-10,株式会社ユネクト,,株式会社,福岡県,福岡市博多区,博多駅前３丁目１０番３４号６階,,40,132,8120011,,,,,,,2023-08-10,1,,,,,ユネクト,0
1581,6290001102562,新規,0,2023-08-10,2023-08-10,株式会社やったらできた,,株式会社,福岡県,福岡市博多区,博多駅東２丁目４番３０号,,40,132,8120013,,,,,,,2023-08-10,1,,,,,ヤッタラデキタ,0
1582,6290001102570,新規,0,2023-08-10,2023-08-10,てらすもあコンサル株式会社,,株式会社,福岡県,福岡市中央区,天神２丁目２番１２号Ｔ＆Ｊビルディング７Ｆ,,40,133,8100001,,,,,,,2023-08-10,1,,,,,テラスモアコンサル,0
1583,6290001102579,新規,0,2023-08-10,2023-08-10,Ｋ　ａｎｄ　Ｈ株式会社,,株式会社,福岡県,福岡市中央区,港２丁目１２番１６号,,40,133,8100075,,,,,,,2023-08-10,1,,,,,ケイアンドエイチ,0
1586,6290003014203,新規,0,2023-08-10,2023-08-10,ＨＥＡＴＨ　ＨＩＬＬＳ合同会社,,合同会社,福岡県,福岡市中央区,荒戸３丁目５番５‐２０１号ＦＯＲＴＩＳ西公園,,40,133,8100062,,,,,,,2023-08-10,1,,,,,ヒースヒルズ,0
1587,6290003014228,新規,0,2023-08-10,2023-08-10,合同会社ミネルバ,,合同会社,福岡県,福岡市中央区,長浜２丁目２番８－２００３号,,40,133,8100072,,,,,,,2023-08-10,1,,,,,ミネルバ,0
1594,6330001031146,新規,0,2023-08-10,2023-08-10,前川ホールディングス株式会社,,株式会社,熊本県,天草郡苓北町,都呂々９１６番地,,43,531,8632611,,,,,,,2023-08-10,1,,,,,マエカワホールディングス,0
1598,6340001025808,新規,0,2023-08-10,2023-08-10,株式会社アンカーエステート,,株式会社,鹿児島県,鹿児島市,加治屋町９番２５号,,46,201,8920846,,,,,,,2023-08-10,1,,,,,アンカーエステート,0
1599,6340001025816,新規,0,2023-08-10,2023-08-10,株式会社ハッピー,,株式会社,鹿児島県,鹿児島市,新屋敷町１６番公社ビルＡ棟４１１号,,46,201,8920838,,,,,,,2023-08-10,1,,,,,ハッピー,0
1600,6350001018496,新規,0,2023-08-10,2023-08-10,株式会社ＺＹＸ　ＤＥＳＩＧＮ,,株式会社,宮崎県,宮崎市,本郷３丁目８番１６号,,45,201,8800922,,,,,,,2023-08-10,1,,,,,ゼットワイエックスデザイン,0
1601,6350001018505,新規,0,2023-08-10,2023-08-10,株式会社Ｃ＆Ａ,,株式会社,宮崎県,都城市,大岩田町５４７５番地２,,45,202,8850062,,,,,,,2023-08-10,1,,,,,シーアンドエー,0
1602,6350003004412,新規,0,2023-08-10,2023-08-10,合同会社サイトウ,,合同会社,宮崎県,児湯郡都農町,大字川北３６８５番地,,45,406,8891201,,,,,,,2023-08-10,1,,,,,サイトウ,0
1603,6360001032406,新規,0,2023-08-10,2023-08-10,デジベル株式会社,,株式会社,沖縄県,那覇市,牧志２丁目１７－２７－４０１,,47,201,9000013,,,,,,,2023-08-10,1,,,,,デジベル,0
1604,6360003013172,新規,0,2023-08-10,2023-08-10,合同会社ＳＨＵＲＩ,,合同会社,沖縄県,那覇市,久茂地３丁目２５番１３号ＯＫテラス１階,,47,201,9000015,,,,,,,2023-08-10,1,,,,,シュリ,0
1605,6360003013206,新規,0,2023-08-10,2023-08-10,合同会社おやくに,,合同会社,沖縄県,島尻郡南風原町,字津嘉山１８１９－２、１Ｆ,,47,350,9011117,,,,,,,2023-08-10,1,,,,,オヤクニ,0
1609,6380001033914,新規,0,2023-08-10,2023-08-10,株式会社ＬＥＧＡＭＲＥＡ,,株式会社,福島県,郡山市,駅前１丁目４－８遠藤ビル２階,,07,203,9638002,,,,,,,2023-08-10,1,,,,,レガリア,0
1613,6390003002131,新規,0,2023-08-10,2023-08-10,合同会社オーケーシステム,,合同会社,山形県,山形市,高堂１丁目４番２８－３０２号高堂パークハイツ,,06,201,9902464,,,,,,,2023-08-10,1,,,,,オーケーシステム,0
1614,6410001013565,新規,0,2023-08-10,2023-08-10,株式会社岩城,,株式会社,秋田県,由利本荘市,岩城二古字草刈道２５番地１,,05,210,0181305,,,,,,,2023-08-10,1,,,,,イワキ,0
1617,6420003002771,新規,0,2023-08-10,2023-08-10,合同会社サトウゴト,,合同会社,青森県,八戸市,根城４丁目２１番１２号,,02,203,0391166,,,,,,,2023-08-10,1,,,,,サトウゴト,0
1622,6430001089637,新規,0,2023-08-10,2023-08-10,ＯＮストロー株式会社,,株式会社,北海道,札幌市東区,北二十六条東７丁目３－２３丸岡ビル１階,,01,103,0650026,,,,,,,2023-08-10,1,,,,,オーエヌストロー,0
1625,6430003015327,新規,0,2023-08-10,2023-08-10,Ｍａｖｉａｌ合同会社,,合同会社,北海道,札幌市西区,二十四軒四条４丁目５番２４－３０１号,,01,107,0630804,,,,,,,2023-08-10,1,,,,,メヴィアル,0
1629,6470001019747,新規,0,2023-08-10,2023-08-10,株式会社豚に飲酒,,株式会社,香川県,高松市,錦町１丁目２０番１１号メイフェア錦町４０１号室,,37,201,7600020,,,,,,,2023-08-10,1,,,,,ブタニインシュ,0
1632,6480001012180,新規,0,2023-08-10,2023-08-10,株式会社ＯＢＳ,,株式会社,徳島県,徳島市,中洲町３丁目４３番地３メゾン中洲２０２,,36,201,7700856,,,,,,,2023-08-10,1,,,,,オービーエス,0
1636,6700150118978,新規,0,2023-08-10,2023-08-10,ＧＵＡＮＧＺＨＯＵ　ＹＩＸＩＡＮＴＩＡＮ　ＭＡＯＹＩ　ＹＯＵＸＩＡＮ　ＧＯＮＧＳＩ,,外国会社等,,,,,,,,Ｒｏｏｍ　５４９，Ｎｏ．１４９　Ｚｅｎｇｃｈａ　Ｒｏａｄ，Ｓｏｎｇｚｈｏｕ　Ｓｔｒｅｅｔ，Ｂａｉｙｕｎ　Ｄｉｓｔｒｉｃｔ，Ｇｕａｎｇｚｈｏｕ（ｓｅｌｆ－ｄｅｃｌａｒａｔｉｏｎ）,,,,,,2023-08-10,1,,,,,グワンジョウイーシエンティエンマオイーヨウシエンゴンスー,0
1644,7010001237542,新規,0,2023-08-10,2023-08-10,株式会社Ｈａｒｍｏｎｙ,,株式会社,東京都,中央区,日本橋茅場町２丁目８番１号ＢＲＩＣＫＧＡＴＥ茅場町３階,,13,102,1030025,,,,,,,2023-08-10,1,,,,,ハーモニー,0
1645,7010001237567,新規,0,2023-08-10,2023-08-10,株式会社ＪＥＮＥＳＴ,,株式会社,東京都,中央区,日本橋室町１丁目１１番１２号日本橋水野ビル７階,,13,102,1030022,,,,,,,2023-08-10,1,,,,,ジェネスト,0
1646,7010003041323,新規,0,2023-08-10,2023-08-10,合同会社ＶＩＫＩＮＧｓ,,合同会社,東京都,中央区,日本橋浜町２丁目５８－４パークヴィスタ日本橋浜町２０２,,13,102,1030007,,,,,,,2023-08-10,1,,,,,バイキングス,0
1647,7010005037063,新規,0,2023-08-10,2023-08-10,一般社団法人日本物販アカデミー,,その他の設立登記法人,東京都,中央区,日本橋室町１丁目１１番１２号日本橋水野ビル７階,,13,102,1030022,,,,,,,2023-08-10,1,,,,,ニホンブッパンアカデミー,0
1650,7010401176258,新規,0,2023-08-10,2023-08-10,株式会社ＵＢコンサルティング,,株式会社,東京都,港区,南青山３丁目１番３６号青山丸竹ビル６Ｆ,,13,103,1070062,,,,,,,2023-08-10,1,,,,,ユービーコンサルティング,0
1651,7010401176266,新規,0,2023-08-10,2023-08-10,株式会社ポルトフォース,,株式会社,東京都,港区,港南４丁目２番７号,,13,103,1080075,,,,,,,2023-08-10,1,,,,,ポルトフォース,0
1652,7010401176282,新規,0,2023-08-10,2023-08-10,株式会社パワーパートナーズ,,株式会社,東京都,港区,高輪４丁目８番２３号エスパシオ高輪１０２,,13,103,1080074,,,,,,,2023-08-10,1,,,,,パワーパートナーズ,0
1653,7010401176324,新規,0,2023-08-10,2023-08-10,株式会社シックスディー,,株式会社,東京都,港区,港南３丁目９番３３号,,13,103,1080075,,,,,,,2023-08-10,1,,,,,シックスディー,0
1654,7010401176357,新規,0,2023-08-10,2023-08-10,株式会社Ｂｅｍａｓｙ,,株式会社,東京都,港区,南青山５丁目１７番２号,,13,103,1070062,,,,,,,2023-08-10,1,,,,,ビマシー,0
1655,7010401176373,新規,0,2023-08-10,2023-08-10,株式会社Ｃｏｍｅｔ,,株式会社,東京都,港区,三田３丁目１番１４号ＭＡ２１－５０２,,13,103,1080073,,,,,,,2023-08-10,1,,,,,コメット,0
1656,7010401176381,新規,0,2023-08-10,2023-08-10,株式会社五眼テクノロジーズ,,株式会社,東京都,港区,芝５丁目３６番４号札の辻スクエア９階,,13,103,1080014,,,,,,,2023-08-10,1,,,,,ゴゲンテクノロジーズ,0
1658,7010403030669,新規,0,2023-08-10,2023-08-10,ＡＺ　Ｇｒｏｕｐ合同会社,,合同会社,東京都,港区,新橋６丁目２０番２号,,13,103,1050004,,,,,,,2023-08-10,1,,,,,エージーグループ,0
1659,7010403030702,新規,0,2023-08-10,2023-08-10,合同会社弥生プロジェクト,,合同会社,東京都,港区,浜松町２丁目２番１５号浜松町ダイヤビル２Ｆ,,13,103,1050013,,,,,,,2023-08-10,1,,,,,ヤヨイプロジェクト,0
1661,7010503007113,新規,0,2023-08-10,2023-08-10,合同会社ファーストグループ,,合同会社,東京都,台東区,元浅草１丁目１２番６号,,13,106,1110041,,,,,,,2023-08-10,1,,,,,ファーストグループ,0
1663,7010601063561,新規,0,2023-08-10,2023-08-10,丘白株式会社,,株式会社,東京都,江東区,東砂５丁目５番６－３０６号室,,13,108,1360074,,,,,,,2023-08-10,1,,,,,キュウハク,0
1664,7010601063586,新規,0,2023-08-10,2023-08-10,ストーンベース株式会社,,株式会社,東京都,江東区,亀戸５丁目１番６－４１４号,,13,108,1360071,,,,,,,2023-08-10,1,,,,,ストーンベース,0
1665,7010603010297,新規,0,2023-08-10,2023-08-10,合同会社東山マネジメントオフィス,,合同会社,東京都,墨田区,江東橋３丁目９番７号,,13,107,1300022,,,,,,,2023-08-10,1,,,,,ヒガシヤママネジメントオフィス,0
1666,7010703006815,新規,0,2023-08-10,2023-08-10,合同会社チャコランド,,合同会社,東京都,品川区,東五反田１丁目２―４６アーバンパレス高輪台４０１,,13,109,1410022,,,,,,,2023-08-10,1,,,,,チャコランド,0
1667,7010801034230,新規,0,2023-08-10,2023-08-10,株式会社ＳＵＮＲＯＯＴＳ,,株式会社,東京都,大田区,東雪谷２丁目１１番３号石川台マンション別館５０７,,13,111,1450065,,,,,,,2023-08-10,1,,,,,サンルーツ,0
1669,7010803004636,新規,0,2023-08-10,2023-08-10,Ｃｅｎｔｒａｌ　Ｇａｒｄｅｎ合同会社,,合同会社,東京都,大田区,久が原５丁目６－１３,,13,111,1460085,,,,,,,2023-08-10,1,,,,,セントラルガーデン,0
1672,7010901053592,新規,0,2023-08-10,2023-08-10,株式会社ＩＮＡＭＩ,,株式会社,東京都,世田谷区,深沢４丁目２８番９号グランジャーフカサワ２０５,,13,112,1580081,,,,,,,2023-08-10,1,,,,,イナミ,0
1673,7010901053618,新規,0,2023-08-10,2023-08-10,株式会社フィオリエラ,,株式会社,東京都,世田谷区,上馬５丁目８番６号,,13,112,1540011,,,,,,,2023-08-10,1,,,,,フィオリエラ,0
1674,7010903008371,新規,0,2023-08-10,2023-08-10,合同会社ＲＥＤ　ＰＬＡＮＥＴ,,合同会社,東京都,世田谷区,三宿１丁目２１番１８号泰成コーポ２０１,,13,112,1540005,,,,,,,2023-08-10,1,,,,,レッドプラネット,0
1677,7011001156187,新規,0,2023-08-10,2023-08-10,古田島生花店株式会社,,株式会社,東京都,渋谷区,道玄坂２丁目１８番１１号サンモール道玄坂７０６,,13,113,1500043,,,,,,,2023-08-10,1,,,,,コダジマセイカテン,0
1678,7011001156245,新規,0,2023-08-10,2023-08-10,株式会社Ｒａｙ,,株式会社,東京都,渋谷区,桜丘町１６番３号,,13,113,1500031,,,,,,,2023-08-10,1,,,,,レイ,0
1679,7011001156278,新規,0,2023-08-10,2023-08-10,ＴＳ　ｃｏｍｐａｎｙ株式会社,,株式会社,東京都,渋谷区,道玄坂１丁目１０番８号渋谷道玄坂東急ビル２Ｆ－Ｃ,,13,113,1500043,,,,,,,2023-08-10,1,,,,,ティーエスカンパニー,0
1680,7011003017338,新規,0,2023-08-10,2023-08-10,合同会社ｋｈａａｎａ,,合同会社,東京都,目黒区,下目黒５丁目１１番１７号－２０１,,13,110,1530064,,,,,,,2023-08-10,1,,,,,カーナ,0
1681,7011003017346,新規,0,2023-08-10,2023-08-10,コネクトシンシアリー合同会社,,合同会社,東京都,渋谷区,道玄坂１丁目１０番８号渋谷道玄坂東急ビル２Ｆ－Ｃ,,13,113,1500043,,,,,,,2023-08-10,1,,,,,コネクトシンシアリー,0
1685,7011201024846,新規,0,2023-08-10,2023-08-10,株式会社ＲＥＤ　ＦＯＲＴＵＮＥ,,株式会社,東京都,中野区,野方１丁目５番６号,,13,114,1650027,,,,,,,2023-08-10,1,,,,,レッドフォーチューン,0
1686,7011203004144,新規,0,2023-08-10,2023-08-10,合同会社サンテック,,合同会社,東京都,中野区,本町１丁目３２番２号ハーモニータワー４階,,13,114,1640012,,,,,,,2023-08-10,1,,,,,サンテック,0
1693,7011701026508,新規,0,2023-08-10,2023-08-10,Ｃｅ　Ｐｌｕｓ株式会社,,株式会社,東京都,江戸川区,松島２丁目３３番１０－１０１号,,13,123,1320031,,,,,,,2023-08-10,1,,,,,シープラス,0
1694,7011701026516,新規,0,2023-08-10,2023-08-10,Ｌｅａｄｉｎｇ　Ｂｅａｕｔｙ株式会社,,株式会社,東京都,江戸川区,江戸川４丁目２５番地３５Ｙ・Ｓマジョリス２０２,,13,123,1340013,,,,,,,2023-08-10,1,,,,,リーディングビューティー,0
1695,7011703003562,新規,0,2023-08-10,2023-08-10,合同会社アシスト,,合同会社,東京都,江戸川区,平井４丁目８番７号イニシャルハウス６階,,13,123,1320035,,,,,,,2023-08-10,1,,,,,アシスト,0
1697,7011801042875,新規,0,2023-08-10,2023-08-10,株式会社エフテック,,株式会社,東京都,葛飾区,東四つ木１丁目２２番１－１０５号東四つ木工場ビル,,13,122,1240014,,,,,,,2023-08-10,1,,,,,エフテック,0
1698,7012301013557,新規,0,2023-08-10,2023-08-10,株式会社ＹＫＳ,,株式会社,東京都,町田市,小山ヶ丘４丁目１０－６,,13,209,1940215,,,,,,,2023-08-10,1,,,,,ワイケイエス,0
1703,7012403006104,新規,0,2023-08-10,2023-08-10,合同会社ジョン,,合同会社,東京都,調布市,国領町５丁目４７－１３トレ・フィーリャ２０５号室,,13,208,1820022,,,,,,,2023-08-10,1,,,,,ジョン,0
1704,7012403006120,新規,0,2023-08-10,2023-08-10,ＭＪ合同会社,,合同会社,東京都,三鷹市,新川２丁目１５番７号,,13,204,1810004,,,,,,,2023-08-10,1,,,,,エムジェイ,0
1706,7013101009225,新規,0,2023-08-10,2023-08-10,株式会社守笑,,株式会社,東京都,青梅市,富岡１丁目２１０番地,,13,205,1980002,,,,,,,2023-08-10,1,,,,,モリエ,0
1707,7013103001254,新規,0,2023-08-10,2023-08-10,合同会社キャリアワークス,,合同会社,東京都,青梅市,師岡町４丁目７番地の６２,,13,205,1980031,,,,,,,2023-08-10,1,,,,,キャリアワークス,0
1714,7020001152781,新規,0,2023-08-10,2023-08-10,株式会社メンカ,,株式会社,神奈川県,横浜市神奈川区,神奈川１丁目４番地５,,14,102,2210045,,,,,,,2023-08-10,1,,,,,メンカ,0
1715,7020001152798,新規,0,2023-08-10,2023-08-10,株式会社ユニバーサルブリス,,株式会社,神奈川県,横浜市鶴見区,市場東中町３－８カーサ・デ・メルカード１０１,,14,101,2300022,,,,,,,2023-08-10,1,,,,,ユニバーサルブリス,0
1716,7020001152947,新規,0,2023-08-10,2023-08-10,株式会社Ｆｕｊｉ‐Ｓｕｎ企画,,株式会社,神奈川県,横浜市金沢区,東朝比奈１丁目１８番２３号メゾン・ド・プティ１０１号室,,14,108,2360033,,,,,,,2023-08-10,1,,,,,フジサンキカク,0
1717,7020001152988,新規,0,2023-08-10,2023-08-10,ムカイエステート株式会社,,株式会社,神奈川県,横浜市鶴見区,梶山２丁目１６番５号,,14,101,2300072,,,,,,,2023-08-10,1,,,,,ムカイエステート,0
1718,7020001152996,新規,0,2023-08-10,2023-08-10,一心株式会社,,株式会社,神奈川県,横浜市栄区,桂町１番地１４コーポ平島Ｋ２０２号,,14,115,2470005,,,,,,,2023-08-10,1,,,,,イッシン,0
1719,7020001153012,新規,0,2023-08-10,2023-08-10,株式会社ＪＯＩＮＴ　ＥＤＧＥ,,株式会社,神奈川県,川崎市多摩区,生田７丁目１０番１号共和建物ビル２０４Ａ号,,14,135,2140038,,,,,,,2023-08-10,1,,,,,ジョイントエッジ,0
1723,7020003024285,新規,0,2023-08-10,2023-08-10,ｔｒｅｅ合同会社,,合同会社,神奈川県,横浜市瀬谷区,本郷３丁目１８番地８ＦＵＪＩハイツＡ１０６,,14,114,2460015,,,,,,,2023-08-10,1,,,,,ツリー,0
1724,7021001079882,新規,0,2023-08-10,2023-08-10,株式会社ＪＧ,,株式会社,神奈川県,三浦郡葉山町,長柄１６４２番地の２７１,,14,301,2400113,,,,,,,2023-08-10,1,,,,,ジェイジー,0
1725,7021001079890,新規,0,2023-08-10,2023-08-10,株式会社ラボラトリー,,株式会社,神奈川県,藤沢市,鵠沼桜が岡１丁目１７番２１号,00131480,14,205,2510027,,,,,,,2023-08-10,1,,,,,ラボラトリー,0
1731,7021003013419,新規,0,2023-08-10,2023-08-10,合同会社マネー木根っこクラブ,,合同会社,神奈川県,鎌倉市,大船２丁目１番３号ミサオビル４０２号室,,14,204,2470056,,,,,,,2023-08-10,1,,,,,マネーキネッコクラブ,0
1732,7021003013427,新規,0,2023-08-10,2023-08-10,合同会社ＺＥＳＴ,,合同会社,神奈川県,藤沢市,鵠沼橘１丁目１番１７号サンヨービル２Ｄ,,14,205,2510024,,,,,,,2023-08-10,1,,,,,ゼスト,0
1733,7021003013435,新規,0,2023-08-10,2023-08-10,合同会社ＰＯＷＥＲ　ＧＡＴＥ,,合同会社,神奈川県,藤沢市,鵠沼石上２丁目５番１号湘南鵠沼ＢＬＤ３ＦーＣ,,14,205,2510025,,,,,,,2023-08-10,1,,,,,パワーゲート,0
1742,7030001155148,新規,0,2023-08-10,2023-08-10,ＲＤ　Ｊａｐａｎ株式会社,,株式会社,埼玉県,熊谷市,小江川１８７３番地５,,11,202,3600103,,,,,,,2023-08-10,1,,,,,アールディージャパン,0
1743,7030001155180,新規,0,2023-08-10,2023-08-10,株式会社神代住建,,株式会社,埼玉県,草加市,青柳５丁目２８番１０－２０１号,,11,221,3400002,,,,,,,2023-08-10,1,,,,,カミシロジュウケン,0
1744,7030001155197,新規,0,2023-08-10,2023-08-10,株式会社Ｍ．アメニティ,,株式会社,埼玉県,草加市,瀬崎３丁目５番１号,,11,221,3400022,,,,,,,2023-08-10,1,,,,,エムアメニティ,0
1752,7030005021354,新規,0,2023-08-10,2023-08-10,一般社団法人綾瀬川水系浄化運動委員会,,その他の設立登記法人,埼玉県,草加市,瀬崎１丁目９番１号－２４１３,,11,221,3400022,,,,,,,2023-08-10,1,,,,,アヤセガワスイケイジョウカウンドウイインカイ,0
1758,7040001129555,新規,0,2023-08-10,2023-08-10,株式会社サンライズ,,株式会社,千葉県,千葉市緑区,あすみが丘１丁目２０番地１,,12,105,2670066,,,,,,,2023-08-10,1,,,,,サンライズ,0
1759,7040001129563,新規,0,2023-08-10,2023-08-10,株式会社西野工業,,株式会社,千葉県,松戸市,新松戸６丁目１７３エスポワール新松戸２０１,,12,207,2700034,,,,,,,2023-08-10,1,,,,,ニシノコウギョウ,0
1762,7040003023087,新規,0,2023-08-10,2023-08-10,合同会社なんでも屋しょうべい,,合同会社,千葉県,富津市,竹岡１７３番地１１３,,12,226,2991621,,,,,,,2023-08-10,1,,,,,ナンデモヤショウベイ,0
1763,7040003023112,新規,0,2023-08-10,2023-08-10,筆耕雨読合同会社,,合同会社,千葉県,船橋市,湊町２丁目１２番２４号湊町日本橋ビル６Ｆ,,12,204,2730011,,,,,,,2023-08-10,1,,,,,ヒッコウウドク,0
1766,7050001053283,新規,0,2023-08-10,2023-08-10,株式会社Ｂｌｕｅ　Ｄｅｔｏｘ,,株式会社,茨城県,取手市,本郷５丁目１８－１８コーポＣｅｎｔｕｒｙ２０１号,,08,217,3020022,,,,,,,2023-08-10,1,,,,,ブルーデトックス,0
1768,7050003007717,新規,0,2023-08-10,2023-08-10,合同会社フック,,合同会社,茨城県,那珂市,菅谷７６６番地５,,08,226,3110105,,,,,,,2023-08-10,1,,,,,フック,0
1770,7060001036246,新規,0,2023-08-10,2023-08-10,株式会社ＴＯｉＸ,,株式会社,栃木県,下都賀郡野木町,大字南赤塚３７３番地８,,09,364,3290112,,,,,,,2023-08-10,1,,,,,トイックス,0
1773,7080101024165,新規,0,2023-08-10,2023-08-10,株式会社カミーデ,,株式会社,静岡県,富士宮市,上井出３４７２番地の４８,,22,207,4180103,,,,,,,2023-08-10,1,,,,,カミーデ,0
1776,7100001036679,新規,0,2023-08-10,2023-08-10,株式会社ＫＩＮＤＥＳＴ,,株式会社,長野県,塩尻市,大字大門５７番地９,,20,215,3990744,,,,,,,2023-08-10,1,,,,,カインデスト,0
1785,7120001257216,新規,0,2023-08-10,2023-08-10,リトラスト株式会社,,株式会社,大阪府,大阪市天王寺区,上汐５丁目１番１４号－２０２,,27,109,5430002,,,,,,,2023-08-10,1,,,,,リトラスト,0
1786,7120005023804,新規,0,2023-08-10,2023-08-10,一般社団法人関西空き家築古協会,,その他の設立登記法人,大阪府,大阪市此花区,西九条１丁目２０番１号,,27,104,5540012,,,,,,,2023-08-10,1,,,,,カンサイアキヤチクフルキョウカイ,0
1792,7130001074817,新規,0,2023-08-10,2023-08-10,Ｇｏｌｄ　Ｓｐａｃｅ　Ｋｙｏｔｏ株式会社,,株式会社,京都府,京都市上京区,浄福寺通寺之内下る大黒町７２８番地２,,26,102,6028482,,,,,,,2023-08-10,1,,,,,ゴールドスペースキョウト,0
1793,7130001074957,新規,0,2023-08-10,2023-08-10,株式会社ａｋａｒｉｔｏ,,株式会社,京都府,向日市,上植野町妙峠１番地の１,,26,208,6170006,,,,,,,2023-08-10,1,,,,,アカリト,0
1794,7130001074965,新規,0,2023-08-10,2023-08-10,株式会社五力建物,,株式会社,京都府,京都市下京区,西七条市部町３番地,,26,106,6008894,,,,,,,2023-08-10,1,,,,,ゴリキタテモノ,0
1800,7140001131162,新規,0,2023-08-10,2023-08-10,Ｙｅｌｌｏｗ　Ｄｕｃｋ株式会社,,株式会社,兵庫県,神戸市北区,上津台６丁目３番２８号,,28,109,6511515,,,,,,,2023-08-10,1,,,,,イエローダック,0
1801,7140001131179,新規,0,2023-08-10,2023-08-10,株式会社ＧＲＩＴ,,株式会社,兵庫県,洲本市,納５８６クローバーレジデンスオサメ２０１,,28,205,6560101,,,,,,,2023-08-10,1,,,,,グリット,0
1802,7140001131204,新規,0,2023-08-10,2023-08-10,株式会社ベリースター,,株式会社,兵庫県,尼崎市,稲葉荘２丁目１４番２７号,,28,202,6600064,,,,,,,2023-08-10,1,,,,,ベリースター,0
1803,7140001131237,新規,0,2023-08-10,2023-08-10,株式会社Ｓｈａｌｌ,,株式会社,兵庫県,姫路市,北条１丁目４８番地１１ＯＭＯＲＩビル４０１号室,,28,201,6700947,,,,,,,2023-08-10,1,,,,,シャル,0
1806,7140003019397,新規,0,2023-08-10,2023-08-10,Ｎ‐Ｌｏｏｐ合同会社,,合同会社,兵庫県,神戸市中央区,磯上通８丁目１番２９号カサベラビルＣ＆Ｍ４０３号室,,28,110,6510086,,,,,,,2023-08-10,1,,,,,エヌループ,0
1807,7140003019430,新規,0,2023-08-10,2023-08-10,合同会社Ｌｅｔ　Ｉｔ　Ｂｅ,,合同会社,兵庫県,神戸市北区,藤原台中町６丁目２５番２号,,28,109,6511302,,,,,,,2023-08-10,1,,,,,レットイットビー,0
1809,7140005026706,新規,0,2023-08-10,2023-08-10,一般社団法人ＯｎｅＮｅｓｔ,,その他の設立登記法人,兵庫県,西宮市,甲風園１丁目１１番１８号,,28,204,6620832,,,,,,,2023-08-10,1,,,,,ワンネスト,0
1810,7150001026626,新規,0,2023-08-10,2023-08-10,株式会社ＧＫ,,株式会社,奈良県,生駒市,緑ケ丘１４５１番地,,29,209,6300262,,,,,,,2023-08-10,1,,,,,ジーケー,0
1814,7150003003029,新規,0,2023-08-10,2023-08-10,合同会社Ｌｉｘｉｎ,,合同会社,奈良県,奈良市,東九条町１７番１号フクダギフトビル１０２号室,,29,201,6308144,,,,,,,2023-08-10,1,,,,,リシン,0
1817,7160001025263,新規,0,2023-08-10,2023-08-10,風雪株式会社,,株式会社,滋賀県,米原市,上野７０９番地,,25,214,5210312,,,,,,,2023-08-10,1,,,,,フウセツ,0
1818,7170001017730,新規,0,2023-08-10,2023-08-10,株式会社ＯＮＥ　ＬＯＶＥ,,株式会社,和歌山県,田辺市,高雄１丁目１１番２３－５０６号,,30,206,6460028,,,,,,,2023-08-10,1,,,,,ワンラブ,0
1827,7180001157518,新規,0,2023-08-10,2023-08-10,株式会社ＶｉＶｉハーモニースター,,株式会社,愛知県,名古屋市南区,豊２丁目１４番４０号,,23,112,4570863,,,,,,,2023-08-10,1,,,,,ヴィヴィハーモニースター,0
1828,7180001157583,新規,0,2023-08-10,2023-08-10,中日不動産株式会社,,株式会社,愛知県,名古屋市熱田区,幡野町１８番１１号,,23,109,4560077,,,,,,,2023-08-10,1,,,,,チュウニチフドウサン,0
1831,7180003025598,新規,0,2023-08-10,2023-08-10,合同会社Ｍａｒｍｙ,,合同会社,愛知県,一宮市,北方町北方字宝江新田２６番地７,,23,203,4938001,,,,,,,2023-08-10,1,,,,,マーミー,0
1836,7190001030649,新規,0,2023-08-10,2023-08-10,株式会社鈴蔵コーポレーション,,株式会社,三重県,四日市市,小杉町３３２番地,,24,202,5120902,,,,,,,2023-08-10,1,,,,,スズクラコーポレーション,0
1838,7200001041603,新規,0,2023-08-10,2023-08-10,建雄株式会社,,株式会社,岐阜県,岐阜市,大洞１丁目１番１６号酒向第二ビル２０３号室,,21,201,5013124,,,,,,,2023-08-10,1,,,,,ケンユウ,0
1840,7210003001686,新規,0,2023-08-10,2023-08-10,合同会社瀧波パーク,,合同会社,福井県,福井市,高木１丁目１００２番地ロアール高木１０６号,,18,201,9100805,,,,,,,2023-08-10,1,,,,,タキナミパーク,0
1842,7220001025554,新規,0,2023-08-10,2023-08-10,株式会社北陸ＯＥＭ企画,,株式会社,石川県,金沢市,石引１丁目１６番１７号‐１,,17,201,9200935,,,,,,,2023-08-10,1,,,,,ホクリクオーイーエムキカク,0
1843,7220003003566,新規,0,2023-08-10,2023-08-10,合同会社スタープロパティ,,合同会社,石川県,金沢市,三池栄町１０４番地,,17,201,9200809,,,,,,,2023-08-10,1,,,,,スタープロパティ,0
1851,7240001061928,新規,0,2023-08-10,2023-08-10,株式会社華誠産業,,株式会社,広島県,安芸郡海田町,つくも町５番１４－４号,,34,304,7360051,,,,,,,2023-08-10,1,,,,,カセイサンギョウ,0
1852,7240001061977,新規,0,2023-08-10,2023-08-10,ＩＫホーム株式会社,,株式会社,広島県,広島市東区,二葉の里１丁目１番７２号Ｇ．Ｃ二葉通りビル８０４,,34,102,7320057,,,,,,,2023-08-10,1,,,,,アイケーホーム,0
1858,7260001038164,新規,0,2023-08-10,2023-08-10,株式会社ＯＤＡビル,,株式会社,岡山県,岡山市北区,田中１４６番地１１０,,33,101,7000951,,,,,,,2023-08-10,1,,,,,オダビル,0
1859,7260001038222,新規,0,2023-08-10,2023-08-10,株式会社Ｍａ,,株式会社,岡山県,岡山市北区,野田２丁目１番５号,,33,101,7000971,,,,,,,2023-08-10,1,,,,,エムエー,0
1860,7270003001549,新規,0,2023-08-10,2023-08-10,中小企業Ｌａｂ．合同会社,,合同会社,鳥取県,米子市,錦町２丁目１５７番地４,,31,202,6830811,,,,,,,2023-08-10,1,,,,,チュショウキギョウラボ,0
1862,7280005007568,新規,0,2023-08-10,2023-08-10,一般社団法人氣まま,,その他の設立登記法人,島根県,益田市,高津町ロ４９３番地１,,32,204,6980041,,,,,,,2023-08-10,1,,,,,,0
1866,7290003014210,新規,0,2023-08-10,2023-08-10,合同会社ＳＫ,,合同会社,福岡県,朝倉市,堤１７３６番地４ＮＲ２１Ｂ１０２,,40,228,8380062,,,,,,,2023-08-10,1,,,,,エスケー,0
1870,7290803004476,新規,0,2023-08-10,2023-08-10,グリーテック合同会社,,合同会社,福岡県,北九州市小倉北区,馬借３丁目６１－３ＣＯＳビル５０３号室,,40,106,8020077,,,,,,,2023-08-10,1,,,,,グリーテック,0
1876,7330001031145,新規,0,2023-08-10,2023-08-10,株式会社ビエル,,株式会社,熊本県,熊本市北区,高平３丁目４４番２７－８０５号,,43,105,8600085,,,,,,,2023-08-10,1,,,,,ビエル,0
1880,7340001025815,新規,0,2023-08-10,2023-08-10,株式会社秀建,,株式会社,鹿児島県,曽於市,大隅町坂元６３３番地６,,46,217,8998422,,,,,,,2023-08-10,1,,,,,シュウケン,0
1882,7360001032396,新規,0,2023-08-10,2023-08-10,株式会社かふう,,株式会社,沖縄県,那覇市,宇栄原１丁目３番６号２０２,,47,201,9010153,,,,,,,2023-08-10,1,,,,,カフウ,0
1884,7360003013196,新規,0,2023-08-10,2023-08-10,ＳＨＩＢＡＴＡＲＯＵ　ＨＯＵＳＥ合同会社,,合同会社,沖縄県,うるま市,勝連南風原６７６番地８,,47,213,9042311,,,,,,,2023-08-10,1,,,,,シバタロウハウス,0
1886,7370001050257,新規,0,2023-08-10,2023-08-10,株式会社永戸会計,,株式会社,宮城県,仙台市泉区,松森字明神３９番地の１,,04,105,9813111,,,,,,,2023-08-10,1,,,,,ナガトカイケイ,0
1888,7380001033905,新規,0,2023-08-10,2023-08-10,株式会社ＦＲＹＵＳ,,株式会社,福島県,須賀川市,森宿字鍛治山３６番地３４－東棟,,07,207,9620001,,,,,,,2023-08-10,1,,,,,フライアス,0
1892,7400001016345,新規,0,2023-08-10,2023-08-10,ゴールドカーレスキュー株式会社,,株式会社,岩手県,西磐井郡平泉町,平泉字花立９１番地２,,03,402,0294102,,,,,,,2023-08-10,1,,,,,ゴールドカーレスキュー,0
1900,7430001089685,新規,0,2023-08-10,2023-08-10,アルスポーター株式会社,,株式会社,北海道,札幌市北区,新琴似一条１２丁目１番３８－２０２号,,01,102,0010901,,,,,,,2023-08-10,1,,,,,アルスポーター,0
1901,7430001089702,新規,0,2023-08-10,2023-08-10,株式会社新岡屋,,株式会社,北海道,札幌市中央区,南一条西１６丁目１番地３２３春野ビル３Ｆ,,01,101,0600061,,,,,,,2023-08-10,1,,,,,,0
1902,7430001089768,新規,0,2023-08-10,2023-08-10,ＪＡＰＡＮ　ＴＩＭＥＬＥＳＳ　ＷＥＥＤＳ　Ｃｏｍｍｅｒｃｉａｌ　ａｆｆａｉｒｓ株式会社,,株式会社,北海道,札幌市白石区,北郷三条１丁目７番９号,,01,104,0030833,,,,,,,2023-08-10,1,,,,,ジャパンタイムレスウィーズコマーシャルアフェイアース,0
1903,7430003015326,新規,0,2023-08-10,2023-08-10,みゆうこんさる合同会社,,合同会社,北海道,札幌市白石区,東札幌二条２丁目４番２１号,,01,104,0030002,,,,,,,2023-08-10,1,,,,,ミユウコンサル,0
1907,7470001019754,新規,0,2023-08-10,2023-08-10,株式会社ＢＲＡＶＥ,,株式会社,香川県,高松市,東植田町２１４９番地２,,37,201,7610446,,,,,,,2023-08-10,1,,,,,ブレイヴ,0
1913,7700150118969,新規,0,2023-08-10,2023-08-10,ＳＨＡＮＸＩ　ＲＵＯＹＡＸＩＮＧ　Ｅ－ＣＯＭＭＥＲＣＥ　ＣＯ．，ＬＴＤ,,外国会社等,,,,,,,,Ｒｏｏｍ　２９０２，Ｕｎｉｔ　１，Ｂｕｉｌｄｉｎｇ　１４，Ｗａｎｋｅ　Ｌａｎｓｈａｎ，Ｎ０．２０５　Ｈｅｐｉｎｇ　Ｓｏｕｔｈ　Ｒｏａｄ，Ｗａｎｂａｉｌｉｎ　Ｄｉｓｔｒｉｃｔ　Ｔａｉｙｕａｎ　Ｓｈａｎｘｉ　０３００００,,,,,,2023-08-10,1,,,,,シャンシルオヤシンイーコマースカンパニーリミテッド,0
1914,7700150118977,新規,0,2023-08-10,2023-08-10,ＤＯＮＧＧＵＡＮＳＨｌ　ＯＵＧＥ　ＷＥＮＪＵ　ＹＯＵＸＩＡＮ　ＧＯＮＧＳＩ,,外国会社等,,,,,,,,ＮＯ．９　ＸＩＮＦＥＮＧ　ＲＯＡＤ　ＹＯＵＪＩＵ　ＶＩＬＬＡＧＥ，ＤＯＮＧＧＵＡＮ　ＳＴＲＥＥＴ，ＷＡＮＪＩＡＮＧ　ＤＩＳＴＲＩＣＴ　ＤＯＮＧＧＵＡＮ　ＧＵＡＮＧＤＯＮＧ　５２３０３９,,,,,,2023-08-10,1,,,,,ドングワンシーオウゴーウェンジーヨウシエンゴンスー,0
1928,8010001237500,新規,0,2023-08-10,2023-08-10,ＯＮＳ株式会社,,株式会社,東京都,中央区,銀座６丁目２番１号Ｄａｉｗａ銀座ビル３階,,13,102,1040061,,,,,,,2023-08-10,1,,,,,オンズ,0
1929,8010001237599,新規,0,2023-08-10,2023-08-10,ＹＤＫ　Ａｃｃｏｕｎｔｉｎｇ　Ｔｏｋｙｏ株式会社,,株式会社,東京都,中央区,日本橋室町１丁目１番３号紅花ビル６階,,13,102,1030022,,,,,,,2023-08-10,1,,,,,ワイディーケーアカウンティングトーキョー,0
1933,8010003041322,新規,0,2023-08-10,2023-08-10,合同会社Ｏｐｔｉｍｉｚｅ,,合同会社,東京都,中央区,銀座１丁目１２－４Ｎ＆ＥＢＬＤ．７階,,13,102,1040061,,,,,,,2023-08-10,1,,,,,オプティマイズ,0
1934,8010103002190,新規,0,2023-08-10,2023-08-10,合同会社センカク,,合同会社,東京都,八王子市,横川町５２７番地１号,,13,201,1930823,,,,,,,2023-08-10,1,,,,,センカク,0
1936,8010401176125,新規,0,2023-08-10,2023-08-10,株式会社サステナフォワード,,株式会社,東京都,港区,赤坂８丁目１１番３８号,,13,103,1070052,,,,,,,2023-08-10,1,,,,,サステナフォワード,0
1937,8010401176249,新規,0,2023-08-10,2023-08-10,株式会社Ｇｒａｎ　Ｃｅｎｏｔｅ,,株式会社,東京都,港区,北青山１丁目３番１号アールキューブ青山３階,,13,103,1070061,,,,,,,2023-08-10,1,,,,,グランセノーテ,0
1938,8010401176265,新規,0,2023-08-10,2023-08-10,株式会社クロックワークス・スタジオ,,株式会社,東京都,港区,赤坂２丁目１７番４４号福吉坂ビル３階,,13,103,1070052,,,,,,,2023-08-10,1,,,,,クロックワークススタジオ,0
1939,8010401176356,新規,0,2023-08-10,2023-08-10,株式会社ＭＯＮＯＬＩＴＨＰＲＯＤＵＣＴＩＯＮ,,株式会社,東京都,港区,南青山３丁目１番３６号青山丸竹ビル６Ｆ,,13,103,1070062,,,,,,,2023-08-10,1,,,,,モノリスプロダクション,0
1940,8010401176380,新規,0,2023-08-10,2023-08-10,ｅｎｒｉｓｅ　ｐａｒｔｎｅｒｓ株式会社,,株式会社,東京都,港区,海岸１丁目７番１号東京ポートシティ竹芝オフィスタワー８Ｆ,,13,103,1050022,,,,,,,2023-08-10,1,,,,,エンライズパートナーズ,0
1942,8010403030668,新規,0,2023-08-10,2023-08-10,のだっち合同会社,,合同会社,東京都,港区,南青山２丁目２－１５,,13,103,1070062,,,,,,,2023-08-10,1,,,,,ノダッチ,0
1943,8010403030676,新規,0,2023-08-10,2023-08-10,ミュージック・ドリームス合同会社,,合同会社,東京都,港区,赤坂６丁目４番１８号プリンストン赤坂１１０２号室,,13,103,1070052,,,,,,,2023-08-10,1,,,,,ミュージックドリームス,0
1944,8010403030692,新規,0,2023-08-10,2023-08-10,Ａｋａｎｅ合同会社,,合同会社,東京都,港区,北青山１丁目３番１号アールキューブ青山３階,,13,103,1070061,,,,,,,2023-08-10,1,,,,,アカネ,0
1945,8010403030701,新規,0,2023-08-10,2023-08-10,合同会社ビーチタウン,,合同会社,東京都,港区,虎ノ門１丁目１６番６号虎ノ門ＲＡＰＯ－ＴＯビルＵＣＦ７階,,13,103,1050001,,,,,,,2023-08-10,1,,,,,ビーチタウン,0
1946,8010405022408,新規,0,2023-08-10,2023-08-10,ハル司法書士法人,,その他の設立登記法人,東京都,港区,東麻布２丁目２３番３－２０２号,,13,103,1060044,,,,,,,2023-08-10,1,,,,,ハル,0
1951,8010601063569,新規,0,2023-08-10,2023-08-10,株式会社ブレーメン,,株式会社,東京都,墨田区,八広４丁目１番２－７０１号,,13,107,1310041,,,,,,,2023-08-10,1,,,,,ブレーメン,0
1952,8010601063585,新規,0,2023-08-10,2023-08-10,株式会社コアサークル,,株式会社,東京都,墨田区,石原１丁目２０番６号,,13,107,1300011,,,,,,,2023-08-10,1,,,,,コアサークル,0
1956,8010701044683,新規,0,2023-08-10,2023-08-10,株式会社ｍａ‐ｍｅ,,株式会社,東京都,品川区,東五反田５丁目２１番２号ライオンズマンション池田山３０４,,13,109,1410022,,,,,,,2023-08-10,1,,,,,マーメ,0
1957,8010701044691,新規,0,2023-08-10,2023-08-10,株式会社マジカルエイト,,株式会社,東京都,品川区,西五反田２丁目５番２,,13,109,1410031,,,,,,,2023-08-10,1,,,,,マジカルエイト,0
1959,8010703006814,新規,0,2023-08-10,2023-08-10,トリプルアセット合同会社,,合同会社,東京都,品川区,北品川６丁目６番３３号プライムメゾン御殿山ＥＡＳＴ２０６,,13,109,1410001,,,,,,,2023-08-10,1,,,,,トリプルアセット,0
1965,8010901053617,新規,0,2023-08-10,2023-08-10,株式会社零一,,株式会社,東京都,世田谷区,代沢１丁目１１番２０号,,13,112,1550032,,,,,,,2023-08-10,1,,,,,ゼロイチ,0
1966,8010901053625,新規,0,2023-08-10,2023-08-10,株式会社ラブ・ギブズ・ラブ,,株式会社,東京都,世田谷区,等々力１丁目２番３号,,13,112,1580082,,,,,,,2023-08-10,1,,,,,ラブギブズラブ,0
1967,8010903008379,新規,0,2023-08-10,2023-08-10,合同会社ＨＴＥ,,合同会社,東京都,世田谷区,下馬１丁目４８番１０－１０２号,,13,112,1540002,,,,,,,2023-08-10,1,,,,,エイチティイー,0
1968,8011001156178,新規,0,2023-08-10,2023-08-10,株式会社ゴクウ・マネジメント・システム,,株式会社,東京都,渋谷区,道玄坂１丁目１２番１号渋谷マークシティＷ２２階,,13,113,1500043,,,,,,,2023-08-10,1,,,,,,0
1969,8011001156186,新規,0,2023-08-10,2023-08-10,株式会社ＳＳＢｅ,,株式会社,東京都,渋谷区,神宮前６丁目２３番４号桑野ビル２階,,13,113,1500001,,,,,,,2023-08-10,1,,,,,エスエスビー,0
1976,8011403004075,新規,0,2023-08-10,2023-08-10,合同会社ＣＮＧシステム,,合同会社,東京都,板橋区,大谷口北町８６番９－２０１号,,13,119,1730031,,,,,,,2023-08-10,1,,,,,シーエヌジーシステム,0
1977,8011603004008,新規,0,2023-08-10,2023-08-10,合同会社ＭＹＲＫ,,合同会社,東京都,練馬区,西大泉５丁目３２番１２号アイフィールド大泉Ａ２０５,,13,120,1780065,,,,,,,2023-08-10,1,,,,,マーク,0
1981,8012401040855,新規,0,2023-08-10,2023-08-10,ネイピア株式会社,,株式会社,東京都,調布市,西つつじケ丘３丁目２６番７号アーバンフラッツＭＡ２０３,,13,208,1820006,,,,,,,2023-08-10,1,,,,,ネイピア,0
1982,8012403006103,新規,0,2023-08-10,2023-08-10,合同会社サマンサ,,合同会社,東京都,調布市,国領町５丁目４７－１３トレ・フィーリャ２０５号室,,13,208,1820022,,,,,,,2023-08-10,1,,,,,サマンサ,0
1986,8012701017784,新規,0,2023-08-10,2023-08-10,株式会社ひまり,,株式会社,東京都,西東京市,柳沢１丁目４番２６号,,13,229,2020022,,,,,,,2023-08-10,1,,,,,ヒマリ,0
1987,8013101009224,新規,0,2023-08-10,2023-08-10,株式会社ＹＳ工房,,株式会社,東京都,福生市,大字福生１０９３番地,,13,218,1970011,,,,,,,2023-08-10,1,,,,,ワイエスコウボウ,0
1996,8020001153003,新規,0,2023-08-10,2023-08-10,株式会社Ｐｌｅｖｅｒ,,株式会社,神奈川県,横浜市神奈川区,神大寺４丁目３３番３２－１０２号,,14,102,2210801,,,,,,,2023-08-10,1,,,,,プレバー,0
1997,8020001153011,新規,0,2023-08-10,2023-08-10,株式会社ｓｗｉｔｃｈ,,株式会社,神奈川県,横浜市都筑区,二の丸１５番９号,,14,118,2240052,,,,,,,2023-08-10,1,,,,,スウィッチ,0
1999,8020003024359,新規,0,2023-08-10,2023-08-10,合同会社ＦＯＸＹ,,合同会社,神奈川県,横浜市磯子区,中原４丁目１３番４２－１号,,14,107,2350036,,,,,,,2023-08-10,1,,,,,フォクシー,0
2000,8020003024383,新規,0,2023-08-10,2023-08-10,合同会社オムソーリ,,合同会社,神奈川県,横浜市保土ケ谷区,境木本町６７番２－Ｂ２０８号,,14,106,2400033,,,,,,,2023-08-10,1,,,,,オムソーリ,0
2007,8021001079857,新規,0,2023-08-10,2023-08-10,株式会社サムライド,,株式会社,神奈川県,厚木市,泉町８‐２・１０３,,14,212,2430013,,,,,,,2023-08-10,1,,,,,サムライド,0
2008,8021001079873,新規,0,2023-08-10,2023-08-10,株式会社阿部内装,,株式会社,神奈川県,綾瀬市,深谷中１丁目１９番２１号,,14,218,2521107,,,,,,,2023-08-10,1,,,,,アベナイソウ,0
2009,8021001079881,新規,0,2023-08-10,2023-08-10,株式会社ＲｅｐａｉｒＸ,,株式会社,神奈川県,茅ヶ崎市,本宿町１番６－５０７号,,14,207,2530014,,,,,,,2023-08-10,1,,,,,リペアエックス,0
2010,8021001079898,新規,0,2023-08-10,2023-08-10,トモテック株式会社,,株式会社,神奈川県,座間市,広野台１丁目３０番１５号,,14,216,2520012,,,,,,,2023-08-10,1,,,,,トモテック,0
2012,8021003013418,新規,0,2023-08-10,2023-08-10,Ｒ‐ＦＡＣＴ合同会社,,合同会社,神奈川県,厚木市,下川入１３０４番地３,,14,212,2430206,,,,,,,2023-08-10,1,,,,,アールファクト,0
2016,8030001155196,新規,0,2023-08-10,2023-08-10,ＲＥＤＵＣＥ株式会社,,株式会社,埼玉県,日高市,大字高萩１１５番地４,,11,242,3501213,,,,,,,2023-08-10,1,,,,,リデュース,0
2017,8030001155270,新規,0,2023-08-10,2023-08-10,株式会社ファーストビジョン,,株式会社,埼玉県,さいたま市岩槻区,東町２丁目４番１４号,,11,110,3390055,,,,,,,2023-08-10,1,,,,,ファーストビジョン,0
2018,8030001155386,新規,0,2023-08-10,2023-08-10,株式会社Ｆｕｔｕｒｅｓ　Ａｄｖａｎｃｅｄ　Ｓｏｌｕｔｉｏｎｓ,,株式会社,埼玉県,鶴ヶ島市,富士見４丁目１２番４－４号,,11,241,3502201,,,,,,,2023-08-10,1,,,,,フューチャーズアドバンスドソリューションズ,0
2023,8040001129637,新規,0,2023-08-10,2023-08-10,株式会社ＡＵＴＯ　ＤＥＴＡＩＬ　ＳＰＡＲＫＬＥ,,株式会社,千葉県,千葉市中央区,新千葉２丁目２番１号新日本ＥＸビル１３０１号,,12,101,2600031,,,,,,,2023-08-10,1,,,,,オートディティールスパークル,0
2024,8040001129645,新規,0,2023-08-10,2023-08-10,株式会社柏スマイ,,株式会社,千葉県,柏市,永楽台２丁目２－２０,,12,217,2770086,,,,,,,2023-08-10,1,,,,,カシワスマイ,0
2029,8040003023094,新規,0,2023-08-10,2023-08-10,ＢＲｅＨＡ合同会社,,合同会社,千葉県,市川市,北国分１丁目１番１６号,,12,203,2720836,,,,,,,2023-08-10,1,,,,,ブレハ,0
2030,8040003023111,新規,0,2023-08-10,2023-08-10,コウギ商事合同会社,,合同会社,千葉県,柏市,新柏２丁目８－１３,,12,217,2770084,,,,,,,2023-08-10,1,,,,,コウギショウジ,0
2032,8050001053282,新規,0,2023-08-10,2023-08-10,株式会社ふれあぼいす,,株式会社,茨城県,つくば市,並木３丁目２１番地１１,,08,220,3050044,,,,,,,2023-08-10,1,,,,,フレアボイス,0
2034,8050003007674,新規,0,2023-08-10,2023-08-10,北相馬ガーデン合同会社,,合同会社,茨城県,北相馬郡利根町,大字布川３２３８番地,,08,564,3001622,,,,,,,2023-08-10,1,,,,,キタソウマガーデン,0
2036,8080005007554,新規,0,2023-08-10,2023-08-10,土地家屋調査士法人Ｓｋｅｔｃｈ,,その他の設立登記法人,静岡県,静岡市駿河区,敷地２丁目１３番１号,,22,102,4228036,,,,,,,2023-08-10,1,,,,,スケッチ,0
2037,8100001036678,新規,0,2023-08-10,2023-08-10,株式会社ヒロイン＆ヒーローズ,,株式会社,長野県,茅野市,宮川４３９１番地７,,20,214,3910013,,,,,,,2023-08-10,1,,,,,ヒロインアンドヒーローズ,0
2038,8100003007132,新規,0,2023-08-10,2023-08-10,ａｒｃｏｂａｌｅｎｏ合同会社,,合同会社,長野県,上伊那郡南箕輪村,２３５８番地５,,20,385,3994511,,,,,,,2023-08-10,1,,,,,アルコバレーノ,0
2047,8120001257124,新規,0,2023-08-10,2023-08-10,株式会社リンテック,,株式会社,大阪府,大阪市生野区,中川５丁目１１番１３号,,27,116,5440005,,,,,,,2023-08-10,1,,,,,リンテック,0
2048,8120001257231,新規,0,2023-08-10,2023-08-10,株式会社スリーウッド,,株式会社,大阪府,枚方市,北中振３丁目２７番３号Ｌｏｔｕｓ．Ｙｕｍｉ２０６号室,,27,210,5730064,,,,,,,2023-08-10,1,,,,,スリーウッド,0
2049,8120001257256,新規,0,2023-08-10,2023-08-10,株式会社森販,,株式会社,大阪府,大阪市中央区,南久宝寺町３丁目２番７号９Ｆ,,27,128,5410058,,,,,,,2023-08-10,1,,,,,モリハン,0
2051,8120005023811,新規,0,2023-08-10,2023-08-10,一般社団法人ＫＯＨ‐ＹＡ,,その他の設立登記法人,大阪府,大阪市阿倍野区,阿倍野筋５丁目１０番２１号,,27,119,5450052,,,,,,,2023-08-10,1,,,,,コーヤ,0
2054,8120901047871,新規,0,2023-08-10,2023-08-10,株式会社ｍｏｌ,,株式会社,大阪府,吹田市,南金田２丁目２４番１０－２０３号,,27,205,5640044,,,,,,,2023-08-10,1,,,,,モル,0
2055,8122001037258,新規,0,2023-08-10,2023-08-10,株式会社ＴｓｕＺｍｕ,,株式会社,大阪府,東大阪市,吉田本町１丁目１番３２号アルデールエスパシオ１Ｆ,,27,227,5780982,,,,,,,2023-08-10,1,,,,,ツツム,0
2056,8130001074881,新規,0,2023-08-10,2023-08-10,ＫＲＫ株式会社,,株式会社,京都府,京都市下京区,七条通油小路東入大黒町２２７番地第２キョートビル４０２,,26,106,6008223,,,,,,,2023-08-10,1,,,,,ケーアールケー,0
2057,8130001074964,新規,0,2023-08-10,2023-08-10,株式会社ＷＡＮＤ,,株式会社,京都府,京都市山科区,西野山射庭ノ上町１３７番地１,,26,110,6078307,,,,,,,2023-08-10,1,,,,,ワンド,0
2062,8140001131211,新規,0,2023-08-10,2023-08-10,株式会社川本工務店,,株式会社,兵庫県,神戸市東灘区,魚崎南町４丁目１６－２０,,28,101,6580025,,,,,,,2023-08-10,1,,,,,カワモトコウムテン,0
2063,8140001131236,新規,0,2023-08-10,2023-08-10,株式会社神防災テック,,株式会社,兵庫県,伊丹市,寺本東２丁目２－６－２０３号,,28,207,6640020,,,,,,,2023-08-10,1,,,,,シンボウサイテック,0
2066,8140003019396,新規,0,2023-08-10,2023-08-10,合同会社アールセブン,,合同会社,兵庫県,宝塚市,野上１丁目１番８号,,28,214,6650022,,,,,,,2023-08-10,1,,,,,アールセブン,0
2072,8180001157509,新規,0,2023-08-10,2023-08-10,株式会社ゆいまーる,,株式会社,愛知県,豊明市,栄町上姥子３番地１９シャトー桜ケ丘ＩＩＩ６０３号,00131485,23,229,4701162,,,,,,,2023-08-10,1,,,,,ユイマール,0
2073,8180001157525,新規,0,2023-08-10,2023-08-10,株式会社ＩＳＭ,,株式会社,愛知県,一宮市,八幡２丁目１１番２０－１３０２号プライムステージメイツ一宮,,23,203,4910903,,,,,,,2023-08-10,1,,,,,アイエスエム,0
2074,8180001157558,新規,0,2023-08-10,2023-08-10,Ｄ　ｃｒｅａｔｅ株式会社,,株式会社,愛知県,あま市,甚目寺稲荷１３２番地,,23,237,4901111,,,,,,,2023-08-10,1,,,,,ディークリエイト,0
2075,8180001157616,新規,0,2023-08-10,2023-08-10,株式会社ｃｏｃｏｓｃｈｏｏｌ,,株式会社,愛知県,名古屋市中区,栄５丁目２６番地３９号ＧＳ栄ビル３Ｆ,,23,106,4600008,,,,,,,2023-08-10,1,,,,,ココスク,0
2079,8180301037674,新規,0,2023-08-10,2023-08-10,美清株式会社,,株式会社,愛知県,豊田市,喜多町３丁目１２０番地,,23,211,4710027,,,,,,,2023-08-10,1,,,,,ミセイ,0
2080,8180301037682,新規,0,2023-08-10,2023-08-10,株式会社光昇,,株式会社,愛知県,刈谷市,一ツ木町鵜島１番地１４８,,23,210,4480003,,,,,,,2023-08-10,1,,,,,コウショウ,0
2083,8190001030656,新規,0,2023-08-10,2023-08-10,株式会社安城貿易津工場,,株式会社,三重県,津市,大字殿村惣作６６番,,24,201,5140000,,,,,,,2023-08-10,1,,,,,アンジョウボウエキツコウジョウ,0
2084,8190001030664,新規,0,2023-08-10,2023-08-10,株式会社ＢＥＬＩＥＲ,,株式会社,三重県,桑名市,南魚町６８番地,,24,205,5110088,,,,,,,2023-08-10,1,,,,,ベリエ,0
2086,8190003004410,新規,0,2023-08-10,2023-08-10,ＫＭＳ合同会社,,合同会社,三重県,亀山市,和田町９５７番地９,,24,210,5190102,,,,,,,2023-08-10,1,,,,,ケーエムエス,0
2087,8200001041602,新規,0,2023-08-10,2023-08-10,力水耕農芸株式会社,,株式会社,岐阜県,各務原市,那加西浦町１丁目７５番地１,,21,213,5040959,,,,,,,2023-08-10,1,,,,,リキスイコウノウゲイ,0
2089,8210001019416,新規,0,2023-08-10,2023-08-10,株式会社泰慎,,株式会社,福井県,福井市,成和２丁目５０５番地,,18,201,9188239,,,,,,,2023-08-10,1,,,,,タイシン,0
2090,8210003001685,新規,0,2023-08-10,2023-08-10,合同会社フィールドプラス,,合同会社,福井県,福井市,渕１丁目６１０番地１,,18,201,9188026,,,,,,,2023-08-10,1,,,,,フィールドプラス,0
2095,8240001061984,新規,0,2023-08-10,2023-08-10,株式会社ハコレポ,,株式会社,広島県,広島市東区,中山東１丁目３番２０号グレイス中山７０１号室,,34,102,7320023,,,,,,,2023-08-10,1,,,,,ハコレポ,0
2100,8270003001548,新規,0,2023-08-10,2023-08-10,合同会社湯梨浜工業,,合同会社,鳥取県,東伯郡湯梨浜町,大字田後８１番地２８,,31,370,6820721,,,,,,,2023-08-10,1,,,,,ユリハマコウギョウ,0
2106,8290001102528,新規,0,2023-08-10,2023-08-10,株式会社エルドラド,,株式会社,福岡県,福岡市南区,大橋団地４番１７－３０３号,,40,134,8150038,,,,,,,2023-08-10,1,,,,,エルドラド,0
2107,8290001102569,新規,0,2023-08-10,2023-08-10,株式会社九州三徳,,株式会社,福岡県,福岡市南区,若久４丁目４番１４号,,40,134,8150042,,,,,,,2023-08-10,1,,,,,キュウシュウサントク,0
2108,8290001102593,新規,0,2023-08-10,2023-08-10,ｐｕｔ　ｓｏｍｅ　ａｒｔｓ株式会社,,株式会社,福岡県,福岡市博多区,下川端町９番１５号溝口ビル行の町テラス２０４,,40,132,8120027,,,,,,,2023-08-10,1,,,,,プットサムアーツ,0
2109,8290001102635,新規,0,2023-08-10,2023-08-10,株式会社Ｓｏｕｔｈｅｒｎ　Ｌｉｎｋｓ,,株式会社,福岡県,福岡市中央区,天神２丁目２番１２号Ｔ＆Ｊビルディング７Ｆ,,40,133,8100001,,,,,,,2023-08-10,1,,,,,サザンリンクス,0
2112,8290003014218,新規,0,2023-08-10,2023-08-10,合同会社テイクプランニング,,合同会社,福岡県,糸島市,高田４丁目３１番４号,,40,230,8191102,,,,,,,2023-08-10,1,,,,,テイクプランニング,0
2113,8290003014226,新規,0,2023-08-10,2023-08-10,合同会社ＲＧＴ,,合同会社,福岡県,糸島市,志摩芥屋１８７－８,,40,230,8191335,,,,,,,2023-08-10,1,,,,,アールジーティー,0
2114,8290801029788,新規,0,2023-08-10,2023-08-10,株式会社ＳＨＯＷ３,,株式会社,福岡県,北九州市八幡西区,春日台５丁目４番１８号,,40,109,8070844,,,,,,,2023-08-10,1,,,,,ショウスリー,0
2116,8300001013426,新規,0,2023-08-10,2023-08-10,ｈｏｍｅ株式会社,,株式会社,佐賀県,藤津郡太良町,大字大浦丙１６３２番地,,41,441,8491613,,,,,,,2023-08-10,1,,,,,ホーム,0
2121,8330001031103,新規,0,2023-08-10,2023-08-10,株式会社ＳＡＭＳ,,株式会社,熊本県,熊本市東区,佐土原１丁目１３－３０,,43,102,8620916,,,,,,,2023-08-10,1,,,,,サムズ,0
2125,8340001025814,新規,0,2023-08-10,2023-08-10,株式会社Ｈｏｋｏｒａｓｈａｙａ,,株式会社,鹿児島県,大島郡瀬戸内町,古仁屋瀬久井西１６番地４,,46,525,8941510,,,,,,,2023-08-10,1,,,,,ホコラシャヤ,0
2127,8350001018486,新規,0,2023-08-10,2023-08-10,ジャパンザイサンツクール株式会社,,株式会社,宮崎県,宮崎市,大塚町小原田２１０６番地６,,45,201,8800951,,,,,,,2023-08-10,1,,,,,ジャパンザイサンツクール,0
2128,8350001018503,新規,0,2023-08-10,2023-08-10,株式会社ＷＯＮＤＥＲ　ＣＯＭＭＵＮＩＣＡＴＩＯＮＳ,,株式会社,宮崎県,宮崎市,大字島之内７２８６－３８,,45,201,8800121,,,,,,,2023-08-10,1,,,,,ワンダーコミュニケーションズ,0
2129,8350003004410,新規,0,2023-08-10,2023-08-10,合同会社ｊｉｎｂｅｅ,,合同会社,宮崎県,宮崎市,大字塩路１６９０－１１,,45,201,8800122,,,,,,,2023-08-10,1,,,,,ジンビー,0
2131,8360001032395,新規,0,2023-08-10,2023-08-10,ＲＯ‐ＭＡＮ株式会社,,株式会社,沖縄県,うるま市,石川１丁目５０番６号,,47,213,9041106,,,,,,,2023-08-10,1,,,,,ローマン,0
2132,8360001032420,新規,0,2023-08-10,2023-08-10,株式会社石垣島総合商事浦内,,株式会社,沖縄県,石垣市,字新川１９－１,,47,207,9070024,,,,,,,2023-08-10,1,,,,,イシガキジマソウゴウショウジウラウチ,0
2141,8380001033912,新規,0,2023-08-10,2023-08-10,株式会社サンライズ,,株式会社,福島県,いわき市,平字田町１２０番地ＬＡＴＯＶ６階いわき産業創造館シェアオフィス内,,07,204,9708026,,,,,,,2023-08-10,1,,,,,サンライズ,0
2151,8430001089775,新規,0,2023-08-10,2023-08-10,株式会社Ｏｄｙ,,株式会社,北海道,札幌市南区,藤野五条６丁目１５番１１号,,01,106,0612285,,,,,,,2023-08-10,1,,,,,オディ,0
2152,8430003015325,新規,0,2023-08-10,2023-08-10,ハウスリボーン合同会社,,合同会社,北海道,札幌市南区,藻岩下２丁目２－５１,,01,106,0050040,,,,,,,2023-08-10,1,,,,,ハウスリボーン,0
2154,8470001019761,新規,0,2023-08-10,2023-08-10,株式会社ＳＳＹ,,株式会社,香川県,高松市,勅使町１２６４－１,,37,201,7618058,,,,,,,2023-08-10,1,,,,,エスエスワイ,0
2156,8490001010561,新規,0,2023-08-10,2023-08-10,ラッキー農園株式会社,,株式会社,高知県,長岡郡大豊町,西川７３５番地,,39,344,7890165,,,,,,,2023-08-10,1,,,,,ラッキーノウエン,0
2161,8700150118968,新規,0,2023-08-10,2023-08-10,Ｚｈｅｎｇｚｈｏｕ　Ｗｅｉｚｈｅｎｇｙｕａｎ　Ａｕｔｏｍａｔｉｏｎ　Ｅｑｕｉｐｍｅｎｔ　Ｃｏ．，Ｌｔｄ．,,外国会社等,,,,,,,,Ｒｏｏｍ　２００３，２０ｔｈ　Ｆｌｏｏｒ，Ｂｌｏｃｋ　Ｂ．Ｘｉｃｈｅｎｇ　Ｓｃｉｅｎｃｅ　ａｎｄ　Ｔｅｃｈｎｏｌｏｇｙ　Ｂｕｉｌｄｉｎｇ，Ｎｏ．４１　Ｊｉｎｓｕｏ　Ｒｏａｄ，Ｚｈｅｎｇｚｈｏｕ　Ｈｉｇｈ－ｔｅｃｈ　Ｉｎｄｕｓｔｒｉａｌ　Ｄｅｖｅｌｏｐｍｅｎｔ　Ｚｏｎｅ,,,,,,2023-08-10,1,,,,,ジョンジョウウェイジョンユエンズードンフワーショーベイヨウシエンゴンスー,0
2162,8700150118976,新規,0,2023-08-10,2023-08-10,ＳＨＥＮＺＨＥＮＳＨＩＺＨＩＴＯＮＧＪＩＡＪＵＹＯＮＧＰＩＮＹＯＵＸＩＡＮＧＯＮＧＳＩ,,外国会社等,,,,,,,,ＢＵＪｌＪｌＥＤＡＯＮＡＮＳＨＡＮＳＨＥＱＵＸｌＮＳＡＮＣＵＮＸＩＮＬＥＬＵ８０ＨＡＯＫＵＩＤＥＤＡＳＨＡＡＤＯＮＧ３０１　ＬＯＮＧＧＡＮＧＱＵ　ＳＨＥＮＺＨＥＮＳＨＩ　５１８０００　ＣＮ,,,,,,2023-08-10,1,,,,,シェンジェンシージートンジャージーヨンビンヨウシエンゴンスー,0
2165,9010001237499,新規,0,2023-08-10,2023-08-10,イージス・プロパティ株式会社,,株式会社,東京都,中央区,銀座６丁目２番１号Ｄａｉｗａ銀座ビル３階,,13,102,1040061,,,,,,,2023-08-10,1,,,,,イージスプロパティ,0
2166,9010001237508,新規,0,2023-08-10,2023-08-10,スマートエネテック株式会社,,株式会社,東京都,千代田区,西神田２丁目５番７号神田中央ビル２Ｆ,,13,101,1010065,,,,,,,2023-08-10,1,,,,,スマートエネテック,0
2167,9010001237598,新規,0,2023-08-10,2023-08-10,セミコロン・コンサルティング株式会社,,株式会社,東京都,中央区,銀座８丁目１０－５ＤＥＮＳＡＮビルＧ－７６５４２,,13,102,1040061,,,,,,,2023-08-10,1,,,,,セミコロンコンサルティング,0
2168,9010001237615,新規,0,2023-08-10,2023-08-10,株式会社Ｓｕｎｓｅｔ　Ｂａｓｅ,,株式会社,東京都,中央区,銀座１丁目１２－４Ｎ＆ＥＢＬＤ．７階,,13,102,1040061,,,,,,,2023-08-10,1,,,,,サンセットベース,0
2174,9010401176231,新規,0,2023-08-10,2023-08-10,株式会社ＳＩＧＮＡＬ,,株式会社,東京都,港区,南青山３丁目１番３６号青山丸竹ビル６Ｆ,,13,103,1070062,,,,,,,2023-08-10,1,,,,,シグナル,0
2175,9010401176256,新規,0,2023-08-10,2023-08-10,トライ・エヴリシング株式会社,,株式会社,東京都,港区,赤坂８丁目１１番３８号,,13,103,1070052,,,,,,,2023-08-10,1,,,,,トライエヴリシング,0
2176,9010401176280,新規,0,2023-08-10,2023-08-10,株式会社かめ久,,株式会社,東京都,港区,三田３丁目４番１５－２０３号,,13,103,1080073,,,,,,,2023-08-10,1,,,,,カメキュウ,0
2177,9010401176289,新規,0,2023-08-10,2023-08-10,株式会社Ｙ’ｓ　Ｃｏｌｌｅｃｔｉｏｎ,,株式会社,東京都,港区,六本木７丁目１８番１１号ＤＭビル７Ｆ－Ａ,,13,103,1060032,,,,,,,2023-08-10,1,,,,,ワイズコレクション,0
2178,9010401176363,新規,0,2023-08-10,2023-08-10,株式会社ＭＯＤＥＸ,,株式会社,東京都,港区,南青山５丁目１０番２号第２九曜ビル９階,,13,103,1070062,,,,,,,2023-08-10,1,,,,,モデックス,0
2179,9010401176479,新規,0,2023-08-10,2023-08-10,ＬＳ‐ＳＨＩＰ第４４号株式会社,,株式会社,東京都,港区,六本木１丁目６番１号,,13,103,1060032,,,,,,,2023-08-10,1,,,,,エルエスシップダイヨンジュウヨンゴウ,0
2182,9010403030675,新規,0,2023-08-10,2023-08-10,ＢＥＬＬＳＯＡＨ合同会社,,合同会社,東京都,港区,芝浦４丁目２０番２－３２０１号,,13,103,1080023,,,,,,,2023-08-10,1,,,,,ベルソア,0
2183,9010501050889,新規,0,2023-08-10,2023-08-10,株式会社グリーントレード,,株式会社,東京都,台東区,上野３丁目１４番２号,,13,106,1100005,,,,,,,2023-08-10,1,,,,,グリーントレード,0
2192,9010601063568,新規,0,2023-08-10,2023-08-10,株式会社Ｗｅｅｇｅｎｔ,,株式会社,東京都,江東区,住吉２丁目１５番１号ＳＴＥＬＬＡ住吉４０２,,13,108,1350002,,,,,,,2023-08-10,1,,,,,ウィージェント,0
2193,9010601063576,新規,0,2023-08-10,2023-08-10,株式会社Ｇ．ｆｇ,,株式会社,東京都,墨田区,亀沢３丁目１５番１０－６０１号,,13,107,1300014,,,,,,,2023-08-10,1,,,,,ジーエフジー,0
2194,9010601063592,新規,0,2023-08-10,2023-08-10,日源株式会社,,株式会社,東京都,墨田区,江東橋４丁目２７－１４楽天地３階,,13,107,1300022,,,,,,,2023-08-10,1,,,,,ニチゲン,0
2195,9010601063601,新規,0,2023-08-10,2023-08-10,株式会社ＭｅＸ,,株式会社,東京都,墨田区,江東橋１丁目７番２０－１００２号,,13,107,1300022,,,,,,,2023-08-10,1,,,,,メック,0
2196,9010601063618,新規,0,2023-08-10,2023-08-10,久遠ガーデン株式会社,,株式会社,東京都,墨田区,石原４丁目１４－４－５０１,,13,107,1300011,,,,,,,2023-08-10,1,,,,,クオンガーデン,0
2197,9010603010287,新規,0,2023-08-10,2023-08-10,合同会社むぎとろ,,合同会社,東京都,江東区,有明２丁目１－３－３００７,,13,108,1350063,,,,,,,2023-08-10,1,,,,,ムギトロ,0
2203,9010803004634,新規,0,2023-08-10,2023-08-10,合同会社バック・バー,,合同会社,東京都,大田区,北嶺町２５番５号,,13,111,1450073,,,,,,,2023-08-10,1,,,,,バックバー,0
2204,9010901053582,新規,0,2023-08-10,2023-08-10,株式会社ＬＵＧＥＮＤ,,株式会社,東京都,世田谷区,奥沢２丁目９番２５－１０４号,,13,112,1580083,,,,,,,2023-08-10,1,,,,,ルジェンド,0
2205,9010901053599,新規,0,2023-08-10,2023-08-10,株式会社ａｎｄ　Ｌｉｎｋ,,株式会社,東京都,世田谷区,深沢５丁目３７－１０,,13,112,1580081,,,,,,,2023-08-10,1,,,,,アンドリンク,0
2206,9010901053616,新規,0,2023-08-10,2023-08-10,ｅ‐Ｌａｂｏ株式会社,,株式会社,東京都,世田谷区,世田谷４丁目２番１０号宇田川ビル２０１,,13,112,1540017,,,,,,,2023-08-10,1,,,,,イーラボ,0
2207,9010901053632,新規,0,2023-08-10,2023-08-10,株式会社ｃａｓｅ,,株式会社,東京都,世田谷区,太子堂２丁目１７－５佐藤ビル３階,,13,112,1540004,,,,,,,2023-08-10,1,,,,,ケース,0
2209,9010905004516,新規,0,2023-08-10,2023-08-10,一般社団法人Ｓｅｖｅｎ　Ｏａｋｓ,,その他の設立登記法人,東京都,世田谷区,玉川田園調布２丁目１６番４号,,13,112,1580085,,,,,,,2023-08-10,1,,,,,セブンオークス,0
2210,9011001156177,新規,0,2023-08-10,2023-08-10,株式会社ＴＯＫＹＯ　ＴＲＩＧＧＥＲ,,株式会社,東京都,渋谷区,道玄坂１丁目１５番３－３１６号プリメーラ道玄坂,,13,113,1500043,,,,,,,2023-08-10,1,,,,,トウキョウトリガー,0
2211,9011001156193,新規,0,2023-08-10,2023-08-10,株式会社ジーエルアーク,,株式会社,東京都,渋谷区,神宮前２丁目１０番１号,,13,113,1500001,,,,,,,2023-08-10,1,,,,,ジーエルアーク,0
2212,9011001156235,新規,0,2023-08-10,2023-08-10,デク株式会社,,株式会社,東京都,渋谷区,神宮前３丁目２８番５号,,13,113,1500001,,,,,,,2023-08-10,1,,,,,デク,0
2213,9011001156251,新規,0,2023-08-10,2023-08-10,株式会社ＬＵＧＥＮＤ,,株式会社,東京都,渋谷区,本町１丁目５１番９号シャトレ初台３０２,,13,113,1510071,,,,,,,2023-08-10,1,,,,,ルジェンド,0
2215,9011003017286,新規,0,2023-08-10,2023-08-10,合同会社サマージャム,,合同会社,東京都,渋谷区,円山町５番５号Ｎａｖｉ渋谷Ｖ３階,,13,113,1500044,,,,,,,2023-08-10,1,,,,,サマージャム,0
2218,9011101103946,新規,0,2023-08-10,2023-08-10,Ｊ　ｓｔａｔｅ株式会社,,株式会社,東京都,新宿区,高田馬場１丁目１６番３７号グレイス池田２０１,,13,104,1690075,,,,,,,2023-08-10,1,,,,,ジェイステイト,0
2227,9011201024844,新規,0,2023-08-10,2023-08-10,株式会社八の日,,株式会社,東京都,中野区,新井２丁目１番８－６０１号,,13,114,1650026,,,,,,,2023-08-10,1,,,,,ハチノヒ,0
2229,9011501029634,新規,0,2023-08-10,2023-08-10,嘉業和合株式会社,,株式会社,東京都,北区,中十条４丁目１３－７,,13,117,1140032,,,,,,,2023-08-10,1,,,,,カギョウワゴウ,0
2234,9011603004015,新規,0,2023-08-10,2023-08-10,合同会社利根川物産,,合同会社,東京都,練馬区,旭町２丁目１７番７号,,13,120,1790071,,,,,,,2023-08-10,1,,,,,トネガワブッサン,0
2236,9011703003560,新規,0,2023-08-10,2023-08-10,ＴＯＰｓ合同会社,,合同会社,東京都,江戸川区,大杉２丁目２１番１１号リバーハイツ３０５,,13,123,1320022,,,,,,,2023-08-10,1,,,,,トップス,0
2237,9011801042873,新規,0,2023-08-10,2023-08-10,株式会社ｃｏｎｎｅｃｔ,,株式会社,東京都,足立区,堀之内１丁目３番２３号アヴニールＩＩＩ１０１,00131477,13,121,1230874,,,,,,,2023-08-10,1,,,,,コネクト,0
2238,9011803005779,新規,0,2023-08-10,2023-08-10,合同会社ＹＡＴ,,合同会社,東京都,葛飾区,水元４丁目６番１９－１１４号プリンス,,13,122,1250032,,,,,,,2023-08-10,1,,,,,ヤト,0
2239,9012301013555,新規,0,2023-08-10,2023-08-10,ヘルス・メーカー株式会社,,株式会社,東京都,町田市,小山町１４９番地４ラ・カーサ・コモダ１０２,,13,209,1940212,,,,,,,2023-08-10,1,,,,,ヘルスメーカー,0
2243,9013301051165,新規,0,2023-08-10,2023-08-10,株式会社ジョイコラボ,,株式会社,東京都,豊島区,池袋２丁目１４番４号,,13,116,1710014,,,,,,,2023-08-10,1,,,,,ジョイコラボ,0
2245,9020001152846,新規,0,2023-08-10,2023-08-10,株式会社Ｙ．ｓ　ｃｏｍｐａｎｙ,,株式会社,神奈川県,横浜市鶴見区,鶴見中央３丁目１番６号ダイアパレス２０１,,14,101,2300051,,,,,,,2023-08-10,1,,,,,ワイズカンパニー,0
2246,9020001152870,新規,0,2023-08-10,2023-08-10,株式会社Ｐｒｅｍｉｅｒ　Ｆｉｎｄｓ,,株式会社,神奈川県,川崎市中原区,上丸子山王町１丁目１４１３番地１上丸子住宅Ａ棟１０３,,14,133,2110002,,,,,,,2023-08-10,1,,,,,プルミエファインズ,0
2247,9020001152929,新規,0,2023-08-10,2023-08-10,株式会社ケービーム,,株式会社,神奈川県,横浜市青葉区,市ケ尾町５３６番地２,,14,117,2250024,,,,,,,2023-08-10,1,,,,,ケービーム,0
2248,9020001152953,新規,0,2023-08-10,2023-08-10,株式会社ヴァリュービルディング,,株式会社,神奈川県,川崎市麻生区,上麻生３丁目２２番６号,,14,137,2150021,,,,,,,2023-08-10,1,,,,,ヴァリュービルディング,0
2249,9020001152994,新規,0,2023-08-10,2023-08-10,株式会社ＭｅｄｉＣＥ,,株式会社,神奈川県,横浜市中区,桜木町１丁目１０１番地１クロスゲート７階,,14,104,2310062,,,,,,,2023-08-10,1,,,,,メディシーイー,0
2250,9020001153002,新規,0,2023-08-10,2023-08-10,株式会社ＤＯＧ　ＹＥＡＲ,,株式会社,神奈川県,川崎市川崎区,藤崎１丁目６番２号,,14,131,2100804,,,,,,,2023-08-10,1,,,,,ドッグイヤー,0
2252,9020003024309,新規,0,2023-08-10,2023-08-10,合同会社ＰＲＩＭＥ　ＳＴＯＲＡＧＥ,,合同会社,神奈川県,横浜市栄区,飯島町５２７番地飯島団地２街区６棟２０１号,,14,115,2440842,,,,,,,2023-08-10,1,,,,,プライムストレージ,0
2253,9020003024325,新規,0,2023-08-10,2023-08-10,合同会社ＭＫＢＵＤ,,合同会社,神奈川県,横浜市中区,本牧満坂１８７番地３３,,14,104,2310833,,,,,,,2023-08-10,1,,,,,エムケーバド,0
2254,9020003024366,新規,0,2023-08-10,2023-08-10,ＥＲＴ合同会社,,合同会社,神奈川県,横浜市栄区,笠間２丁目２番２－１８０４号,,14,115,2470006,,,,,,,2023-08-10,1,,,,,イーアールティー,0
2258,9021001079848,新規,0,2023-08-10,2023-08-10,株式会社建築継承研究所,,株式会社,神奈川県,藤沢市,鵠沼桜が岡１丁目３－１９,,14,205,2510027,,,,,,,2023-08-10,1,,,,,ケンチクケイショウケンキュウジョ,0
2259,9021001079856,新規,0,2023-08-10,2023-08-10,株式会社ホリテック,,株式会社,神奈川県,大和市,草柳２丁目４番地１５,,14,213,2420026,,,,,,,2023-08-10,1,,,,,ホリテック,0
2262,9021003013417,新規,0,2023-08-10,2023-08-10,ＡＵＴＯ　ＩＭＡＸ合同会社,,合同会社,神奈川県,愛甲郡愛川町,中津３４０７番地の２－１０５号,,14,401,2430303,,,,,,,2023-08-10,1,,,,,オートアイマックス,0
2269,9030001155179,新規,0,2023-08-10,2023-08-10,彩和株式会社,,株式会社,埼玉県,さいたま市岩槻区,大字釣上新田１４７８番１,,11,110,3390025,,,,,,,2023-08-10,1,,,,,サイワ,0
2273,9030003022253,新規,0,2023-08-10,2023-08-10,合同会社アトラス,,合同会社,埼玉県,越谷市,北越谷１丁目７番２１号ＴｉｐＴｏｐＭａｓｕｋｏ１０１,,11,222,3430026,,,,,,,2023-08-10,1,,,,,アトラス,0
2277,9040003023093,新規,0,2023-08-10,2023-08-10,ＡＺＲＩ　ＴＲＡＤＩＮＧ合同会社,,合同会社,千葉県,八街市,用草１７４番地２、１階１０１号室,,12,230,2891138,,,,,,,2023-08-10,1,,,,,アズリトレーディング,0
2278,9040003023110,新規,0,2023-08-10,2023-08-10,合同会社将一,,合同会社,千葉県,千葉市稲毛区,黒砂台１丁目２２番１５号カーサ黒砂Ａ－１０４号,,12,103,2630041,,,,,,,2023-08-10,1,,,,,ショウイチ,0
2293,9100001036669,新規,0,2023-08-10,2023-08-10,高原計画学者村株式会社,,株式会社,長野県,安曇野市,穂高有明７３７２番地２２,,20,220,3998301,,,,,,,2023-08-10,1,,,,,コウゲンケイカクガクシャムラ,0
2295,9110001037765,新規,0,2023-08-10,2023-08-10,株式会社サンクチュアリ,,株式会社,新潟県,新潟市中央区,米山４丁目１番１号,,15,103,9500916,,,,,,,2023-08-10,1,,,,,サンクチュアリ,0
2301,9120001257180,新規,0,2023-08-10,2023-08-10,株式会社すが屋,,株式会社,大阪府,大阪市中央区,平野町４丁目６番６号２階,,27,128,5410046,,,,,,,2023-08-10,1,,,,,スガヤ,0
2302,9120001257189,新規,0,2023-08-10,2023-08-10,株式会社Ｐｒｅｖｅｎａｎｃｅ,,株式会社,大阪府,大阪市福島区,鷺洲３丁目６番１０号シティタワー大阪福島３６１０号室,,27,103,5530002,,,,,,,2023-08-10,1,,,,,プレヴナンス,0
2303,9120001257197,新規,0,2023-08-10,2023-08-10,株式会社ｅｎｅｌ,,株式会社,大阪府,寝屋川市,三井が丘４丁目１２番１０号,,27,215,5720013,,,,,,,2023-08-10,1,,,,,エネル,0
2305,9120003024661,新規,0,2023-08-10,2023-08-10,合同会社Ｇｒｏｗｉｎｇ　Ｕｐ,,合同会社,大阪府,寝屋川市,河北中町７－３７－１,,27,215,5720816,,,,,,,2023-08-10,1,,,,,グロウイングアップ,0
2306,9120005023802,新規,0,2023-08-10,2023-08-10,一般社団法人ＷＡＲＡリズム普及委員会,,その他の設立登記法人,大阪府,大阪市北区,梅田１丁目１－３大阪駅前第３ビル２９階１－１－１号室,,27,127,5300001,,,,,,,2023-08-10,1,,,,,ワラリズムフキュウイインカイ,0
2310,9120901047912,新規,0,2023-08-10,2023-08-10,希美林国際株式会社,,株式会社,大阪府,吹田市,江坂町５丁目１１番１０号サンシャイン緑地公園２０３号室,,27,205,5640063,,,,,,,2023-08-10,1,,,,,キビリンコクサイ,0
2311,9120901047929,新規,0,2023-08-10,2023-08-10,株式会社リヴェレンテ,,株式会社,大阪府,豊中市,中桜塚２丁目３０番１５ヒルズ豊中桜塚ガレリア１０８号,,27,203,5610881,,,,,,,2023-08-10,1,,,,,リヴェレンテ,0
2313,9122001037240,新規,0,2023-08-10,2023-08-10,株式会社東進,,株式会社,大阪府,東大阪市,源氏ケ丘１番１３号プレアール源氏ケ丘１０３号室,,27,227,5770822,,,,,,,2023-08-10,1,,,,,トウシン,0
2314,9122001037249,新規,0,2023-08-10,2023-08-10,株式会社ＥＩＪＩＮ,,株式会社,大阪府,柏原市,国分東条町３番５号,,27,221,5820023,,,,,,,2023-08-10,1,,,,,エイジン,0
2315,9122001037257,新規,0,2023-08-10,2023-08-10,株式会社ライズクリーン,,株式会社,大阪府,大東市,新田中町３番１０号,,27,218,5740056,,,,,,,2023-08-10,1,,,,,ライズクリーン,0
2316,9122001037265,新規,0,2023-08-10,2023-08-10,株式会社Ｈａｎａ,,株式会社,大阪府,東大阪市,昭和町２０番１７号,,27,227,5798046,,,,,,,2023-08-10,1,,,,,ハナ,0
2320,9130001074897,新規,0,2023-08-10,2023-08-10,株式会社Ｋｙｏｔｏ　Ａｒｒｏｗｓ,,株式会社,京都府,京都市伏見区,両替町４丁目３１３番地,,26,109,6128082,,,,,,,2023-08-10,1,,,,,キョウトアローズ,0
2321,9130005016854,新規,0,2023-08-10,2023-08-10,ｍｃ２１監査法人,,その他の設立登記法人,京都府,京都市中京区,蛸薬師通烏丸西入橋弁慶町２２７番地第１２長谷ビル７階,,26,104,6048151,,,,,,,2023-08-10,1,,,,,エムシーツーワン,0
2327,9140001131169,新規,0,2023-08-10,2023-08-10,株式会社Ｄａｌａｈ,,株式会社,兵庫県,神戸市長田区,鶯町４丁目２番５号,,28,106,6530871,,,,,,,2023-08-10,1,,,,,ダラー,0
2328,9140001131185,新規,0,2023-08-10,2023-08-10,株式会社ｄｅ　Ｄｏｕ,,株式会社,兵庫県,神戸市中央区,海岸通２丁目４番１５号海岸商店ビルディング２Ｆ,,28,110,6500024,,,,,,,2023-08-10,1,,,,,ドゥドゥー,0
2329,9140001131193,新規,0,2023-08-10,2023-08-10,株式会社ぼくらのコンパス,,株式会社,兵庫県,芦屋市,船戸町５番２６号マリアキャリーヌビル,,28,206,6590093,,,,,,,2023-08-10,1,,,,,ボクラノコンパス,0
2332,9140003019412,新規,0,2023-08-10,2023-08-10,合同会社Ａ‐ｉｎｚ,,合同会社,兵庫県,神戸市須磨区,菅の台７丁目３９番地の１,,28,107,6540143,,,,,,,2023-08-10,1,,,,,エインズ,0
2333,9140003019420,新規,0,2023-08-10,2023-08-10,森徳堂合同会社,,合同会社,兵庫県,神戸市長田区,片山町５丁目１１番３－７１４号,,28,106,6530805,,,,,,,2023-08-10,1,,,,,モリトクドウ,0
2337,9170001017729,新規,0,2023-08-10,2023-08-10,株式会社堀口建装,,株式会社,和歌山県,田辺市,中芳養２０７番地の５２,,30,206,6460057,,,,,,,2023-08-10,1,,,,,ホリグチケンソウ,0
2343,9180001157490,新規,0,2023-08-10,2023-08-10,株式会社名南冷熱,,株式会社,愛知県,名古屋市南区,内田橋１丁目３１番１１号,,23,112,4570862,,,,,,,2023-08-10,1,,,,,メイナンレイネツ,0
2344,9180001157573,新規,0,2023-08-10,2023-08-10,株式会社ＭＹＬＣ,,株式会社,愛知県,清須市,西枇杷島町南大和１８０番地３０１,,23,233,4520013,,,,,,,2023-08-10,1,,,,,エムワイエルシー,0
2345,9180001157598,新規,0,2023-08-10,2023-08-10,サクラモールド株式会社,,株式会社,愛知県,瀬戸市,小金町１４７番地の２６,,23,204,4890064,,,,,,,2023-08-10,1,,,,,サクラモールド,0
2346,9180001157607,新規,0,2023-08-10,2023-08-10,株式会社ＮＥＸＥＥＤ,,株式会社,愛知県,名古屋市中区,丸の内３丁目６番７－７０３号,,23,106,4600002,,,,,,,2023-08-10,1,,,,,ネクシード,0
2351,9180003025605,新規,0,2023-08-10,2023-08-10,合同会社Ｔプラン,,合同会社,愛知県,名古屋市南区,六条町４丁目７９番地の３,,23,112,4570853,,,,,,,2023-08-10,1,,,,,ティープラン,0
2353,9180301037665,新規,0,2023-08-10,2023-08-10,株式会社ＲＩＶＥＲ,,株式会社,愛知県,豊田市,畝部東町馬場西５番地４,,23,211,4701211,,,,,,,2023-08-10,1,,,,,リバー,0
2356,9190001030655,新規,0,2023-08-10,2023-08-10,稀美商建株式会社,,株式会社,三重県,伊勢市,下野町１９０－１,,24,203,5160003,,,,,,,2023-08-10,1,,,,,マレビショウケン,0
2364,9220001025552,新規,0,2023-08-10,2023-08-10,株式会社アップオンコンサルティング,,株式会社,石川県,金沢市,畝田中１丁目１２０番地２,,17,201,9200343,,,,,,,2023-08-10,1,,,,,アップオンコンサルティング,0
2367,9230001019966,新規,0,2023-08-10,2023-08-10,売木化工株式会社,,株式会社,富山県,氷見市,西朴木４番地１,,16,205,9350057,,,,,,,2023-08-10,1,,,,,ウルキカコウ,0
2388,9260001038229,新規,0,2023-08-10,2023-08-10,雨ニモマケズ株式会社,,株式会社,岡山県,玉野市,用吉４４番地５,,33,204,7060132,,,,,,,2023-08-10,1,,,,,アメニモマケズ,0
2390,9280001009013,新規,0,2023-08-10,2023-08-10,株式会社ＬＡＧ＆Ｓ,,株式会社,島根県,浜田市,紺屋町４２番地１,,32,202,6970031,,,,,,,2023-08-10,1,,,,,ラグアンドエス,0
2395,9290001102576,新規,0,2023-08-10,2023-08-10,株式会社アプロ・ラ・ヴィータ,,株式会社,福岡県,福岡市博多区,博多駅東２丁目１８番２８号,,40,132,8120013,,,,,,,2023-08-10,1,,,,,アプロラヴィータ,0
2402,9290803004482,新規,0,2023-08-10,2023-08-10,澤田試錐調査合同会社,,合同会社,福岡県,田川郡糸田町,上糸田２２１７－２,,40,604,8221316,,,,,,,2023-08-10,1,,,,,サワダシスイチョウサ,0
2412,9340001025796,新規,0,2023-08-10,2023-08-10,株式会社Ｉ’ｓ,,株式会社,鹿児島県,霧島市,隼人町真孝１１１２番地５,,46,218,8995102,,,,,,,2023-08-10,1,,,,,アイズ,0
2413,9340003004204,新規,0,2023-08-10,2023-08-10,合同会社フォーゲル,,合同会社,鹿児島県,薩摩川内市,御陵下町６０２５番地１,,46,215,8950061,,,,,,,2023-08-10,1,,,,,フォーゲル,0
2414,9350001018510,新規,0,2023-08-10,2023-08-10,株式会社働馬,,株式会社,宮崎県,宮崎市,大字恒久６６３３番地２,,45,201,8800916,,,,,,,2023-08-10,1,,,,,ドウマ,0
2418,9360001032394,新規,0,2023-08-10,2023-08-10,株式会社宮工務店,,株式会社,沖縄県,沖縄市,知花６丁目１４番１１号,,47,211,9042143,,,,,,,2023-08-10,1,,,,,ミヤコウムテン,0
2419,9360003013194,新規,0,2023-08-10,2023-08-10,合同会社Ｐｒｏｂｉｒｔｈ,,合同会社,沖縄県,中頭郡西原町,字兼久３１７番１,,47,329,9030104,,,,,,,2023-08-10,1,,,,,プロバース,0
2421,9370001050239,新規,0,2023-08-10,2023-08-10,株式会社カバーロロッソ・ケーエスエーエム,,株式会社,宮城県,塩竈市,新浜町２丁目２４番１３号,,04,203,9850001,,,,,,,2023-08-10,1,,,,,カバーロロッソケーエスエーエム,0
2422,9370003006239,新規,0,2023-08-10,2023-08-10,合同会社ワタナベ動画製作所,,合同会社,宮城県,角田市,横倉字松崎８８番地８,,04,208,9811512,,,,,,,2023-08-10,1,,,,,ワタナベドウガセイサクショ,0
2429,9380001033903,新規,0,2023-08-10,2023-08-10,株式会社エムテック,,株式会社,福島県,郡山市,田村町山中字鬼越４５３番地の１,,07,203,9631162,,,,,,,2023-08-10,1,,,,,エムテック,0
2441,9430001089667,新規,0,2023-08-10,2023-08-10,株式会社ＯＮＥ　ＭＯＲＥ,,株式会社,北海道,札幌市中央区,南二条西３丁目１３番地４カタオカビル７Ｆ,,01,101,0600062,,,,,,,2023-08-10,1,,,,,ワンモア,0
2442,9440005002757,新規,0,2023-08-10,2023-08-10,一般社団法人ＬｏｃａｌＲｅｖｏｌｕｔｉｏｎ,,その他の設立登記法人,北海道,函館市,青柳町３５番７－４号,,01,202,0400044,,,,,,,2023-08-10,1,,,,,ローカルレボリューション,0
2444,9460101007419,新規,0,2023-08-10,2023-08-10,株式会社Ｂｉｔ,,株式会社,北海道,帯広市,西二十三条南３丁目２８番地１,,01,207,0802473,,,,,,,2023-08-10,1,,,,,ビット,0
2445,9470001019744,新規,0,2023-08-10,2023-08-10,エフオール株式会社,,株式会社,香川県,丸亀市,土器町西２丁目３８２番地１,,37,202,7630081,,,,,,,2023-08-10,1,,,,,エフオール,0
2449,9500003003081,新規,0,2023-08-10,2023-08-10,合同会社レイド,,合同会社,愛媛県,松山市,上野町甲８０８番地１７号,,38,201,7911136,,,,,,,2023-08-10,1,,,,,レイド,0
2450,9500005008632,新規,0,2023-08-10,2023-08-10,一般社団法人きざはし,,その他の設立登記法人,愛媛県,今治市,近見町２丁目１番６１号,,38,202,7940007,,,,,,,2023-08-10,1,,,,,キザハシ,0
2451,9700150118975,新規,0,2023-08-10,2023-08-10,Ｊｉａｎｇｍｅｎ　ＺＨＯＮＧＴＡＯ　Ｔｅｃｈｎｏｌｏｇｙ　Ｓｅｒｖｉｃｅ　Ｃｏ．，Ｌｔｄ,,外国会社等,,,,,,,,Ａ０４，ｓｅｃｏｎｄ　ｆｌｏｏｒ，ｂｕｉｌｄｉｎｇ　Ｂ，Ｎｏ．３　Ｈｏｎｇｘｉｎｇ　Ｒｏａｄ，Ｐｅｎｇｊｉａｎｇ　ｄｉｓｔｒｉｃｔ　Ｊｉａｎｇｍｅｎ　Ｇｕａｎｇｄｏｎｇ　５２９０００　ＣＮ,,,,,,2023-08-10,1,,,,,ジャンメンシージョンタオコージーフーウーヨウシエンゴンスー,0
