sequenceNumber,corporateNumber,process,correct,updateDate,changeDate,name,nameImageId,kind,prefectureName,cityName,streetNumber,addressImageId,prefectureCode,cityCode,postCode,addressOutside,addressOutsideImageId,closeDate,closeCause,successorCorporateNumber,changeCause,assignmentDate,latest,enName,enPrefectureName,enCityName,enAddressOutside,furigana,hihyoji
4,1010001256226,新規,0,2025-06-27,2025-06-27,啓信商事株式会社,,株式会社,東京都,中央区,日本橋室町２丁目１番１号日本橋三井タワー６Ｆワークスタイリング内,,13,102,1030022,,,,,,,2025-06-27,1,,,,,ケイシンショウジ,0
5,1010001256234,新規,0,2025-06-27,2025-06-27,ＳＴＮソリューション株式会社,,株式会社,東京都,中央区,日本橋本町３丁目３番６号ワカ末ビル７階,,13,102,1030023,,,,,,,2025-06-27,1,,,,,エスティエヌーソリューション,0
6,1010001256267,新規,0,2025-06-27,2025-06-27,ＧＲＥＥＮ　ＶＩＳＩＯＮ株式会社,,株式会社,東京都,中央区,築地２丁目１番１４号トミービル４階,,13,102,1040045,,,,,,,2025-06-27,1,,,,,グリーンビジョン,0
10,1010003047788,新規,0,2025-06-27,2025-06-27,合同会社Ｑｕａｌｉｆｙ,,合同会社,東京都,千代田区,神田和泉町１番地６－１６ヤマトビル４０５,,13,101,1010024,,,,,,,2025-06-27,1,,,,,クオリファイ,0
12,1010005040254,新規,0,2025-06-27,2025-06-27,一般社団法人トリニティフィンランド,,その他の設立登記法人,東京都,中央区,日本橋１丁目４番１号,,13,102,1030027,,,,,,,2025-06-27,1,,,,,トリニティフィンランド,0
23,1010401191312,新規,0,2025-06-27,2025-06-27,株式会社Ｅｃｈｅｌｏｎ　Ｃｏｎｓｕｌｔｉｎｇ,,株式会社,東京都,港区,高輪４丁目２３番６号ハイホーム高輪７０８,,13,103,1080074,,,,,,,2025-06-27,1,,,,,エシュロンコンサルティング,0
24,1010401191345,新規,0,2025-06-27,2025-06-27,株式会社ＴＡＣ,,株式会社,東京都,港区,芝２丁目２０番８号リバティ芝公園６０３,,13,103,1050014,,,,,,,2025-06-27,1,,,,,ティーエイシー,0
30,1010501054286,新規,0,2025-06-27,2025-06-27,株式会社申力商会,,株式会社,東京都,台東区,元浅草１丁目６番１２号３２５号室,,13,106,1110041,,,,,,,2025-06-27,1,,,,,シンリキショウカイ,0
44,1011001170342,新規,0,2025-06-27,2025-06-27,株式会社ＲＥＴＲＡ,,株式会社,東京都,渋谷区,道玄坂１丁目１０番８号渋谷道玄坂東急ビル２Ｆ－Ｃ,,13,113,1500043,,,,,,,2025-06-27,1,,,,,リトラ,0
45,1011001170359,新規,0,2025-06-27,2025-06-27,株式会社うつわ謙心,,株式会社,東京都,渋谷区,渋谷２丁目３番４号,,13,113,1500002,,,,,,,2025-06-27,1,,,,,ウツワケンシン,0
46,1011001170383,新規,0,2025-06-27,2025-06-27,ネオバート株式会社,,株式会社,東京都,目黒区,東山３丁目１６番１７号,,13,110,1530043,,,,,,,2025-06-27,1,,,,,ネオバート,0
47,1011001170433,新規,0,2025-06-27,2025-06-27,株式会社ＮＵＮ,,株式会社,東京都,渋谷区,恵比寿南１丁目１０－６恵比寿南パールマンション４０２,,13,113,1500022,,,,,,,2025-06-27,1,,,,,エヌユーエヌ,0
49,1011101112236,新規,0,2025-06-27,2025-06-27,株式会社スリースター,,株式会社,東京都,新宿区,市谷薬王寺町１４－５,,13,104,1620063,,,,,,,2025-06-27,1,,,,,スリースター,0
50,1011101112244,新規,0,2025-06-27,2025-06-27,株式会社Ｒｕｆｉｋａ,,株式会社,東京都,新宿区,西新宿７丁目１８番５号ＶＯＲＴ西新宿５０２,,13,104,1600023,,,,,,,2025-06-27,1,,,,,ルフィカ,0
55,1011103016039,新規,0,2025-06-27,2025-06-27,ＧＰＤ合同会社,,合同会社,東京都,新宿区,百人町１丁目２３－１４－２０３号,,13,104,1690073,,,,,,,2025-06-27,1,,,,,ジーピーディー,0
61,1011301030675,新規,0,2025-06-27,2025-06-27,株式会社アセットリー,,株式会社,東京都,杉並区,高円寺南１丁目８番２－３０１,,13,115,1660003,,,,,,,2025-06-27,1,,,,,アセットリー,0
68,1011701028468,新規,0,2025-06-27,2025-06-27,品悦生態科技株式会社,,株式会社,東京都,江戸川区,江戸川６丁目４０番１４－２２３号,,13,123,1340013,,,,,,,2025-06-27,1,,,,,ヒンエツセイタイカギ,0
83,1020001163561,新規,0,2025-06-27,2025-06-27,株式会社ＬａｓｉＱ,,株式会社,神奈川県,横浜市保土ケ谷区,峰岡町１丁目７番地の３１,,14,106,2400064,,,,,,,2025-06-27,1,,,,,ラシック,0
84,1020001163578,新規,0,2025-06-27,2025-06-27,株式会社オリカワークス,,株式会社,神奈川県,横浜市青葉区,荏子田２丁目３６番地２２－２０３,,14,117,2250005,,,,,,,2025-06-27,1,,,,,オリカワークス,0
85,1020003028812,新規,0,2025-06-27,2025-06-27,合同会社西方科学技術研究所,,合同会社,神奈川県,横浜市神奈川区,金港町５－１４クアドリフォリオ８階,,14,102,2210056,,,,,,,2025-06-27,1,,,,,サイホウカガクギジュツケンキュウショ,0
88,1021001085614,新規,0,2025-06-27,2025-06-27,株式会社ナカデン,,株式会社,神奈川県,伊勢原市,沼目２丁目２４番７号,,14,214,2591126,,,,,,,2025-06-27,1,,,,,ナカデン,0
100,1030001167339,新規,0,2025-06-27,2025-06-27,共同ＧＬＯＢＡＬ株式会社,,株式会社,埼玉県,日高市,横手１丁目２０番地１１,,11,242,3501257,,,,,,,2025-06-27,1,,,,,キョウドウグローバル,0
102,1030003027029,新規,0,2025-06-27,2025-06-27,合同会社Ｇｏｌｄ　Ｎｏｖａ,,合同会社,埼玉県,さいたま市大宮区,堀の内町３丁目５８－１－３０２,,11,103,3300804,,,,,,,2025-06-27,1,,,,,ゴールドノヴァ,0
103,1030003027037,新規,0,2025-06-27,2025-06-27,合同会社関東エイラク,,合同会社,埼玉県,戸田市,大字新曽５番地の１,,11,224,3350021,,,,,,,2025-06-27,1,,,,,カントウエイラク,0
104,1030003027086,新規,0,2025-06-27,2025-06-27,合同会社ａｌｉｖｅ,,合同会社,埼玉県,さいたま市浦和区,上木崎４丁目１番３号Ａｕｇｕｒｉ与野２０２,,11,107,3300071,,,,,,,2025-06-27,1,,,,,アライブ,0
105,1030005022201,新規,0,2025-06-27,2025-06-27,一般社団法人日本潮汕総商会,,その他の設立登記法人,埼玉県,草加市,松原１丁目１番６－３００４号,,11,221,3400041,,,,,,,2025-06-27,1,,,,,ニホンチョウサンソウショウカイ,0
110,1040001139345,新規,0,2025-06-27,2025-06-27,ゴールドウインドジャパン株式会社,,株式会社,千葉県,千葉市稲毛区,稲毛３丁目８－３３－１,,12,103,2630034,,,,,,,2025-06-27,1,,,,,ゴールドウインドジャパン,0
111,1040001139428,新規,0,2025-06-27,2025-06-27,株式会社新寿土建,,株式会社,千葉県,松戸市,緑ケ丘１丁目４１番地グリーンヴィラ４０２号,,12,207,2710074,,,,,,,2025-06-27,1,,,,,シンジュドケン,0
120,1050001056845,新規,0,2025-06-27,2025-06-27,株式会社ケアテンダー,,株式会社,茨城県,土浦市,中荒川沖町１２番８号メゾンド八千代１０２,,08,203,3000875,,,,,,,2025-06-27,1,,,,,ケアテンダー,0
121,1050001056853,新規,0,2025-06-27,2025-06-27,株式会社ミサキライズ,,株式会社,茨城県,猿島郡境町,大字山崎３６０番地１,,08,546,3060413,,,,,,,2025-06-27,1,,,,,ミサキライズ,0
124,1060001038330,新規,0,2025-06-27,2025-06-27,フォ・イース株式会社,,株式会社,栃木県,下都賀郡野木町,大字友沼５４３５番地１４,,09,364,3290101,,,,,,,2025-06-27,1,,,,,フォイース,0
125,1060003005618,新規,0,2025-06-27,2025-06-27,合同会社ＲＵＡＬＩＦＥ,,合同会社,栃木県,宇都宮市,御幸ケ原町１０３番地２９,,09,201,3210982,,,,,,,2025-06-27,1,,,,,ルアライフ,0
128,1080001027001,新規,0,2025-06-27,2025-06-27,株式会社ＮＯ　ＬＩＭＩＴ,,株式会社,静岡県,島田市,中河町８９４７番地,,22,209,4270041,,,,,,,2025-06-27,1,,,,,ノーリミット,0
132,1080401027996,新規,0,2025-06-27,2025-06-27,株式会社クルーズ,,株式会社,静岡県,磐田市,岡２０番地１,,22,211,4380204,,,,,,,2025-06-27,1,,,,,クルーズ,0
133,1090001019360,新規,0,2025-06-27,2025-06-27,株式会社ＫｉＭｉＤＯＲｉ,,株式会社,山梨県,甲斐市,竜王１３９１番地１レフィナードｉｓｈｉｈａｒａＡ号室,,19,210,4000118,,,,,,,2025-06-27,1,,,,,キミドリ,0
151,1120001277244,新規,0,2025-06-27,2025-06-27,明日香株式会社,,株式会社,大阪府,大阪市西成区,天下茶屋北１丁目１番３号１Ｆ,,27,122,5570003,,,,,,,2025-06-27,1,,,,,アスカ,0
152,1120001277260,新規,0,2025-06-27,2025-06-27,永安株式会社,,株式会社,大阪府,大阪市東淀川区,瑞光１丁目２番１１－３１０号,,27,114,5330005,,,,,,,2025-06-27,1,,,,,ナガヤス,0
155,1120101071951,新規,0,2025-06-27,2025-06-27,伊藤産業株式会社,,株式会社,大阪府,堺市南区,庭代台２丁２番５４号,,27,145,5900133,,,,,,,2025-06-27,1,,,,,イトウサンギョウ,0
156,1120101071976,新規,0,2025-06-27,2025-06-27,株式会社タカヨシ,,株式会社,大阪府,泉南郡熊取町,美熊台１丁目１０番１８号,,27,361,5900456,,,,,,,2025-06-27,1,,,,,タカヨシ,0
164,1130001079994,新規,0,2025-06-27,2025-06-27,株式会社クラフトフルライフ,,株式会社,京都府,京都市中京区,上一文字町２９１番１,,26,104,6048325,,,,,,,2025-06-27,1,,,,,クラフトフルライフ,0
171,1140001139070,新規,0,2025-06-27,2025-06-27,株式会社ＫＳリゾート,,株式会社,兵庫県,淡路市,室津２５０４番１,,28,226,6561606,,,,,,,2025-06-27,1,,,,,ケイエスリゾート,0
177,1160003003529,新規,0,2025-06-27,2025-06-27,合同会社ＡＣＲＥＡ,,合同会社,滋賀県,大津市,和邇春日１丁目８７９－１２,,25,201,5200529,,,,,,,2025-06-27,1,,,,,アクリア,0
182,1180001167472,新規,0,2025-06-27,2025-06-27,株式会社イトウ,,株式会社,愛知県,知多郡美浜町,大字布土字大池５３番地１,,23,446,4702401,,,,,,,2025-06-27,1,,,,,イトウ,0
198,1220003004066,新規,0,2025-06-27,2025-06-27,合同会社はなまるプロジェクト,,合同会社,石川県,野々市市,稲荷４丁目６－１－２,,17,212,9218805,,,,,,,2025-06-27,1,,,,,ハナマルプロジェクト,0
200,1230001020964,新規,0,2025-06-27,2025-06-27,魚津観光まちづくり株式会社,,株式会社,富山県,魚津市,釈迦堂１丁目１３番１１号にいかわ信用金庫魚津駅前支店３階,,16,204,9370067,,,,,,,2025-06-27,1,,,,,ウオヅカンコウマチヅクリ,0
201,1230001020972,新規,0,2025-06-27,2025-06-27,株式会社ｉｅ‐ｃｈａｎｇｅ,,株式会社,富山県,富山市,清水元町３番４号,,16,201,9300034,,,,,,,2025-06-27,1,,,,,イエチェン,0
203,1230005009483,新規,0,2025-06-27,2025-06-27,一般社団法人終身サポートセンター富山,,その他の設立登記法人,富山県,富山市,五艘１３５０番地２２,,16,201,9300882,,,,,,,2025-06-27,1,,,,,シュウシンサポートセンタートヤマ,0
209,1290001110512,新規,0,2025-06-27,2025-06-27,株式会社ギヤグループ,,株式会社,福岡県,福岡市中央区,天神２丁目２番１２号Ｔ＆Ｊビルディング７Ｆ,,40,133,8100001,,,,,,,2025-06-27,1,,,,,ギヤグループ,0
210,1290001110520,新規,0,2025-06-27,2025-06-27,株式会社エイト・シーズ,,株式会社,福岡県,大牟田市,新勝立町１丁目４８番地１渋谷ビル,,40,202,8360895,,,,,,,2025-06-27,1,,,,,エイトシーズ,0
211,1290001110545,新規,0,2025-06-27,2025-06-27,株式会社虹の輪,,株式会社,福岡県,嘉麻市,上臼井２８７番地２０,,40,227,8200502,,,,,,,2025-06-27,1,,,,,ニジノワ,0
215,1330001033329,新規,0,2025-06-27,2025-06-27,ＲｅＢｕｉｌｄ株式会社,,株式会社,熊本県,熊本市中央区,水前寺３丁目２番１４号フラワービル８０２,,43,101,8620950,,,,,,,2025-06-27,1,,,,,リビルド,0
216,1330003011068,新規,0,2025-06-27,2025-06-27,美吉兆合同会社,,合同会社,熊本県,熊本市中央区,白山２丁目１１－５,,43,101,8620959,,,,,,,2025-06-27,1,,,,,ビキッチョウ,0
235,1430003017807,新規,0,2025-06-27,2025-06-27,合同会社ｈａｃｈｉ,,合同会社,北海道,札幌市西区,八軒九条西４丁目４番５号,,01,107,0630849,,,,,,,2025-06-27,1,,,,,ハチ,0
242,1500003003543,新規,0,2025-06-27,2025-06-27,砂田農林合同会社,,合同会社,愛媛県,今治市,八町西４丁目１番２１号,,38,202,7940832,,,,,,,2025-06-27,1,,,,,スナダノウリン,0
248,2010001256175,新規,0,2025-06-27,2025-06-27,ＨＡＰＰＹ　ＮＯＣＮＯＣ株式会社,,株式会社,東京都,文京区,千石４丁目１４番９号,,13,105,1120011,,,,,,,2025-06-27,1,,,,,,0
249,2010001256282,新規,0,2025-06-27,2025-06-27,ｆｏｒＧｏｏｄ株式会社,,株式会社,東京都,中央区,銀座１丁目２２番１１号銀座大竹ビジデンス２Ｆ,,13,102,1040061,,,,,,,2025-06-27,1,,,,,フォーグッド,0
250,2010001256308,新規,0,2025-06-27,2025-06-27,株式会社ＩＤＯＭ　Ｃａｒｅｅｒ　Ｃｏｎｎｅｃｔｉｏｎｓ,,株式会社,東京都,千代田区,丸の内２丁目７番２号,,13,101,1000005,,,,,,,2025-06-27,1,,,,,イドムキャリアコネクションズ,0
251,2010001256340,新規,0,2025-06-27,2025-06-27,星野株式会社,,株式会社,東京都,中央区,日本橋兜町１７－１日本橋ロイヤルプラザ内,,13,102,1030026,,,,,,,2025-06-27,1,,,,,シノ,0
254,2010003047556,新規,0,2025-06-27,2025-06-27,ｋｉｎａｎａｔｓｕ　ｔｒａｄｉｎｇ合同会社,,合同会社,東京都,中央区,銀座１丁目１２番４号Ｎ＆ＥＢＬＤ．６Ｆ,,13,102,1040061,,,,,,,2025-06-27,1,,,,,キナナツトレーディング,0
255,2010003047795,新規,0,2025-06-27,2025-06-27,アディーズ合同会社,,合同会社,東京都,中央区,銀座２丁目１０番８号マニエラ銀座ビル４階,,13,102,1040061,,,,,,,2025-06-27,1,,,,,,0
256,2010003047804,新規,0,2025-06-27,2025-06-27,合同会社ＳＴＡＹ８ｂ,,合同会社,東京都,中央区,京橋２丁目１２番６号ＡＯＪ税理士法人内,,13,102,1040031,,,,,,,2025-06-27,1,,,,,ステイエイトビー,0
263,2010401191278,新規,0,2025-06-27,2025-06-27,株式会社オズランド,,株式会社,東京都,港区,浜松町２丁目２番１５号浜松町ダイヤビル２Ｆ,,13,103,1050013,,,,,,,2025-06-27,1,,,,,オズランド,0
265,2010403035458,新規,0,2025-06-27,2025-06-27,合同会社恵風,,合同会社,東京都,港区,六本木５丁目１６番４号ＺＯＮＥ麻布六本木ビル２階,,13,103,1060032,,,,,,,2025-06-27,1,,,,,ケイフウ,0
269,2010405024467,新規,0,2025-06-27,2025-06-27,一般社団法人ＧＥＮＥＴ,,その他の設立登記法人,東京都,港区,南麻布３丁目２０番１号,,13,103,1060047,,,,,,,2025-06-27,1,,,,,ジェネット,0
284,2011001170341,新規,0,2025-06-27,2025-06-27,株式会社ＧｏＧｌｏｂａｌ　Ｃａｔａｌｙｓｔ,,株式会社,東京都,目黒区,碑文谷５丁目３番４号,,13,110,1520003,,,,,,,2025-06-27,1,,,,,ゴーグローバルカタリスト,0
285,2011001170374,新規,0,2025-06-27,2025-06-27,株式会社ＭＥＲＴＯＮＥ,,株式会社,東京都,渋谷区,神南１丁目１１番４号ＦＰＧリンクス神南５階,,13,113,1500041,,,,,,,2025-06-27,1,,,,,メルトーン,0
286,2011001170424,新規,0,2025-06-27,2025-06-27,ＰＯＷＥＲ株式会社,,株式会社,東京都,目黒区,中目黒１丁目８番１号,,13,110,1530061,,,,,,,2025-06-27,1,,,,,パワー,0
287,2011001170481,新規,0,2025-06-27,2025-06-27,株式会社Ｂ‐Ｃｕｒｖｅ,,株式会社,東京都,渋谷区,神南１丁目１１番４号,,13,113,1500041,,,,,,,2025-06-27,1,,,,,ビーカーブ,0
289,2011003021880,新規,0,2025-06-27,2025-06-27,合同会社ＹＡＡＯ,,合同会社,東京都,渋谷区,千駄ヶ谷３丁目６１番３号コンフォリア原宿４０２,,13,113,1510051,,,,,,,2025-06-27,1,,,,,ワイエーエーオー,0
294,2011103016038,新規,0,2025-06-27,2025-06-27,Ｊａｐａｎ　Ｇｒｉｄｉｒｏｎ　Ａｓｓｏｃｉａｔｉｏｎ合同会社,,合同会社,東京都,新宿区,山吹町３４０番地２２ＨＪＰＬＡＣＥ神楽坂１０２,,13,104,1620801,,,,,,,2025-06-27,1,,,,,ジャパングリッドアイアンアソシエーション,0
295,2011103016046,新規,0,2025-06-27,2025-06-27,合同会社シエル,,合同会社,東京都,新宿区,神楽坂５丁目３４－１ディアライフ神楽坂４Ｆ,,13,104,1620825,,,,,,,2025-06-27,1,,,,,シエル,0
296,2011303005609,新規,0,2025-06-27,2025-06-27,合同会社オフィス北野,,合同会社,東京都,杉並区,荻窪３丁目１９番１８号,,13,115,1670051,,,,,,,2025-06-27,1,,,,,オフィスキタノ,0
299,2011501032256,新規,0,2025-06-27,2025-06-27,株式会社Ｏｉｋａｚｅ,,株式会社,東京都,荒川区,西日暮里２丁目２２番１号ステーションプラザタワー７０４号,,13,118,1160013,,,,,,,2025-06-27,1,,,,,オイカゼ,0
301,2011601028757,新規,0,2025-06-27,2025-06-27,株式会社ＭＡＩコーポレーション,,株式会社,東京都,練馬区,春日町３丁目３４番８号,,13,120,1790074,,,,,,,2025-06-27,1,,,,,マイコーポレーション,0
310,2012401043277,新規,0,2025-06-27,2025-06-27,株式会社ＨＯＯＤ　ＳＴＡＲ,,株式会社,東京都,調布市,国領町２丁目５番地１５グランタワー調布国領３４０５,,13,208,1820022,,,,,,,2025-06-27,1,,,,,フッドスター,0
311,2012701018937,新規,0,2025-06-27,2025-06-27,株式会社ＰＭ‐ライトハウス,,株式会社,東京都,小平市,小川西町５丁目３７番３４号,,13,211,1870035,,,,,,,2025-06-27,1,,,,,ピーエムライトハウス,0
315,2013303007717,新規,0,2025-06-27,2025-06-27,永良合同会社,,合同会社,東京都,豊島区,目白４丁目１－２,,13,116,1710031,,,,,,,2025-06-27,1,,,,,ナガヨシ,0
316,2013303007741,新規,0,2025-06-27,2025-06-27,合同会社福一,,合同会社,東京都,豊島区,上池袋４丁目９番１－９０３号,,13,116,1700012,,,,,,,2025-06-27,1,,,,,フクイチ,0
320,2020001163486,新規,0,2025-06-27,2025-06-27,株式会社和乃市,,株式会社,神奈川県,横浜市港北区,新横浜２丁目３番８号ＫＤＸ新横浜ビル８Ｆ,,14,109,2220033,,,,,,,2025-06-27,1,,,,,ワノイチ,0
321,2020001163560,新規,0,2025-06-27,2025-06-27,株式会社Ｓ・Ｔ　ＰＲＯＪＥＣＴ,,株式会社,神奈川県,川崎市宮前区,平３丁目１９番３０号,,14,136,2160022,,,,,,,2025-06-27,1,,,,,エスティプロジェクト,0
322,2020001163577,新規,0,2025-06-27,2025-06-27,虹株式会社,,株式会社,神奈川県,横浜市旭区,白根６丁目２７番４号,,14,112,2410005,,,,,,,2025-06-27,1,,,,,ニジ,0
324,2020003028712,新規,0,2025-06-27,2025-06-27,Ｃａｄｄｉｅ　Ｆｏｒ合同会社,,合同会社,神奈川県,横浜市戸塚区,戸塚町３５５７－４,,14,110,2440003,,,,,,,2025-06-27,1,,,,,キャディフォー,0
327,2021001085613,新規,0,2025-06-27,2025-06-27,株式会社匠,,株式会社,神奈川県,横須賀市,久里浜１丁目２０００番地,,14,201,2390831,,,,,,,2025-06-27,1,,,,,タクミ,0
328,2021001085621,新規,0,2025-06-27,2025-06-27,株式会社オフィス中塚,,株式会社,神奈川県,藤沢市,鵠沼松が岡２丁目１７番１１号,00139718,14,205,2510038,,,,,,,2025-06-27,1,,,,,オフィスナカツカ,0
329,2021003016203,新規,0,2025-06-27,2025-06-27,合同会社ＡＤＳＹＮ,,合同会社,神奈川県,茅ヶ崎市,赤羽根３９８番地１４,,14,207,2530001,,,,,,,2025-06-27,1,,,,,アドシン,0
332,2030001167338,新規,0,2025-06-27,2025-06-27,株式会社Ｇｏｌｄ　Ａｇｅｎｔ,,株式会社,埼玉県,さいたま市南区,南浦和１丁目３－７,,11,108,3360017,,,,,,,2025-06-27,1,,,,,ゴールドエージェント,0
338,2030005022200,新規,0,2025-06-27,2025-06-27,特定非営利活動法人ＭｅＹｏｕ,,その他の設立登記法人,埼玉県,志木市,幸町３丁目４番４号シーズウィッシュ志木５１２号室,,11,228,3530005,,,,,,,2025-06-27,1,,,,,ミユウ,0
344,2040001139427,新規,0,2025-06-27,2025-06-27,株式会社アクティール,,株式会社,千葉県,船橋市,坪井西２丁目２番３０－１０２号,,12,204,2740069,,,,,,,2025-06-27,1,,,,,アクティール,0
346,2040003027794,新規,0,2025-06-27,2025-06-27,合同会社ピボット,,合同会社,千葉県,流山市,西初石１丁目７４２－２－１０１,,12,220,2700121,,,,,,,2025-06-27,1,,,,,ピボット,0
347,2040003027935,新規,0,2025-06-27,2025-06-27,ｍ＆ｙコンサルタンツ合同会社,,合同会社,千葉県,東金市,菱沼２４１番地４,,12,213,2830016,,,,,,,2025-06-27,1,,,,,エムアンドワイコンサルタンツ,0
352,2050001056836,新規,0,2025-06-27,2025-06-27,株式会社ザ・株鬼,,株式会社,茨城県,つくば市,上郷１３８３番地１,,08,220,3002645,,,,,,,2025-06-27,1,,,,,,0
360,2080001027000,新規,0,2025-06-27,2025-06-27,株式会社くまラボ,,株式会社,静岡県,静岡市葵区,水落町７－２－２スピガ水落１０１,,22,101,4200831,,,,,,,2025-06-27,1,,,,,クマラボ,0
361,2080003003494,新規,0,2025-06-27,2025-06-27,合同会社クロノリンク,,合同会社,静岡県,焼津市,東小川２丁目１１－１８－Ａ１０２,,22,212,4250035,,,,,,,2025-06-27,1,,,,,クロノリンク,0
385,2120001277053,新規,0,2025-06-27,2025-06-27,株式会社まいきー,,株式会社,大阪府,大阪市浪速区,塩草１丁目１番７８－４０３号,,27,111,5560024,,,,,,,2025-06-27,1,,,,,マイキー,0
386,2120001277276,新規,0,2025-06-27,2025-06-27,株式会社Ｂ　Ｐｌｕｇ,,株式会社,大阪府,大阪市福島区,福島７丁目２０－１８－４２０３号,,27,103,5530003,,,,,,,2025-06-27,1,,,,,ビープラグ,0
388,2120003029873,新規,0,2025-06-27,2025-06-27,合同会社ＤｒａｗＺｏｎｅ,,合同会社,大阪府,大阪市浪速区,敷津西１丁目１－７ＦＵＫＵＥＢＬＤ・Ｃ－３号,,27,111,5560015,,,,,,,2025-06-27,1,,,,,ドローゾーン,0
390,2120101071975,新規,0,2025-06-27,2025-06-27,トリニティメディカル株式会社,,株式会社,大阪府,富田林市,梅の里３丁目３３番１号,,27,214,5840001,,,,,,,2025-06-27,1,,,,,トリニティメディカル,0
391,2120103006541,新規,0,2025-06-27,2025-06-27,天馬開発合同会社,,合同会社,大阪府,泉佐野市,日根野４０６６番地,,27,213,5980021,,,,,,,2025-06-27,1,,,,,テンマカイハツ,0
393,2130001079969,新規,0,2025-06-27,2025-06-27,株式会社ＴＯＹＯＵＫＥ,,株式会社,京都府,京都市西京区,大枝塚原町４番地２８第２６長栄センチュリーハイツ１０３,00139722,26,111,6101105,,,,,,,2025-06-27,1,,,,,トヨウケ,0
401,2140001139078,新規,0,2025-06-27,2025-06-27,アクア化学株式会社,,株式会社,兵庫県,神戸市中央区,港島中町３丁目２番地の６エバーグリーンポートアイランド３号棟１００４号,,28,110,6500046,,,,,,,2025-06-27,1,,,,,アクアカガク,0
402,2150001028222,新規,0,2025-06-27,2025-06-27,ライトニングコスモ株式会社,,株式会社,奈良県,奈良市,高畑町１５２－５,,29,201,6308301,,,,,,,2025-06-27,1,,,,,ライトニングコスモ,0
403,2160003003528,新規,0,2025-06-27,2025-06-27,合同会社ＳＵＮＳＵＮ配達,,合同会社,滋賀県,甲賀市,水口町北泉１丁目７４番地－１０７号,,25,209,5280058,,,,,,,2025-06-27,1,,,,,サンサンハイタツ,0
406,2180001167397,新規,0,2025-06-27,2025-06-27,株式会社鈴憲,,株式会社,愛知県,一宮市,明地字東下城８４番地１,,23,203,4940012,,,,,,,2025-06-27,1,,,,,スズケン,0
407,2180001167422,新規,0,2025-06-27,2025-06-27,株式会社翔エナジー,,株式会社,愛知県,愛知郡東郷町,和合ケ丘３丁目３番地１,,23,302,4700154,,,,,,,2025-06-27,1,,,,,カケルエナジー,0
408,2180001167430,新規,0,2025-06-27,2025-06-27,７５８内装建築株式会社,,株式会社,愛知県,津島市,葉苅町字北町２２番地２Ｆ,,23,208,4960009,,,,,,,2025-06-27,1,,,,,ナゴヤナイソウケンチク,0
414,2200003006897,新規,0,2025-06-27,2025-06-27,グリーンリバー合同会社,,合同会社,岐阜県,岐阜市,金町６丁目２１岐阜ステーションビル３０４,,21,201,5008842,,,,,,,2025-06-27,1,,,,,グリーンリバー,0
415,2200005013776,新規,0,2025-06-27,2025-06-27,一般社団法人北辰会基金,,その他の設立登記法人,岐阜県,多治見市,上山町２丁目４９番地,,21,204,5070022,,,,,,,2025-06-27,1,,,,,ホクシンカイキキン,0
423,2240001065116,新規,0,2025-06-27,2025-06-27,株式会社ＹＹカンパニー,,株式会社,広島県,福山市,地吹町１１番４号,,34,207,7200816,,,,,,,2025-06-27,1,,,,,ワイワイカンパニー,0
429,2290001110511,新規,0,2025-06-27,2025-06-27,株式会社Ｙ’ｓ　ｅｓｔａｔｅ,,株式会社,福岡県,福岡市博多区,店屋町４番２１号,,40,132,8120025,,,,,,,2025-06-27,1,,,,,ワイズエステート,0
430,2290001110528,新規,0,2025-06-27,2025-06-27,株式会社ＳＡＮＨＡＩ,,株式会社,福岡県,福岡市中央区,今泉２丁目５番２４号権藤ビル１Ｆ,,40,133,8100021,,,,,,,2025-06-27,1,,,,,サンハイ,0
431,2290003017028,新規,0,2025-06-27,2025-06-27,合同会社Ｔａｓｋ,,合同会社,福岡県,福岡市東区,名島１丁目１３番１２号,,40,131,8130043,,,,,,,2025-06-27,1,,,,,タスク,0
435,2320001021184,新規,0,2025-06-27,2025-06-27,株式会社勝運,,株式会社,大分県,別府市,北浜１丁目３番２号,,44,202,8740920,,,,,,,2025-06-27,1,,,,,タウン,0
437,2330001033336,新規,0,2025-06-27,2025-06-27,株式会社シーズ,,株式会社,熊本県,熊本市中央区,水前寺５丁目１３番１号,,43,101,8620950,,,,,,,2025-06-27,1,,,,,シーズ,0
439,2330003011075,新規,0,2025-06-27,2025-06-27,合同会社ＳＫ,,合同会社,熊本県,菊池郡大津町,大字室１９３－１アンセムコート７０２号,,43,403,8691235,,,,,,,2025-06-27,1,,,,,エスケイ,0
440,2340001027460,新規,0,2025-06-27,2025-06-27,株式会社アイシモ,,株式会社,鹿児島県,鹿児島市,上福元町５７４２－１,,46,201,8910116,,,,,,,2025-06-27,1,,,,,アイシモ,0
447,2360003015049,新規,0,2025-06-27,2025-06-27,合同会社虹福來,,合同会社,沖縄県,宮古島市,城辺字福里１２８０番地６,,47,214,9060103,,,,,,,2025-06-27,1,,,,,ナナフク,0
449,2370001052753,新規,0,2025-06-27,2025-06-27,ＮＡＭＡＳＴＥ　ＴＲＡＤＩＮＧ株式会社,,株式会社,宮城県,仙台市青葉区,中央２丁目１１－１９仙南ビル４階－Ａ,,04,101,9800021,,,,,,,2025-06-27,1,,,,,ナマステトレーディング,0
456,2400005008500,新規,0,2025-06-27,2025-06-27,一般社団法人ＯＦＵＮＡＴＯ　ＲＥＳＣＵＥ,,その他の設立登記法人,岩手県,大船渡市,赤崎町字中井３８番地１６,,03,203,0220007,,,,,,,2025-06-27,1,,,,,オオフナトレスキュー,0
458,2410005006651,新規,0,2025-06-27,2025-06-27,医療法人崇雲会大石クリニック,,その他の設立登記法人,秋田県,大仙市,大曲浜町７番４５号,,05,212,0140051,,,,,,,2025-06-27,1,,,,,スウウンカイオオイシクリニック,0
463,2500001026363,新規,0,2025-06-27,2025-06-27,株式会社菓子工房後藤,,株式会社,愛媛県,八幡浜市,浜田町１丁目１３８５番地,,38,204,7960034,,,,,,,2025-06-27,1,,,,,カシコウボウゴトウ,0
471,3010001256208,新規,0,2025-06-27,2025-06-27,Ｖｅｒｏ　Ｖｉｓｉｏｎ株式会社,,株式会社,東京都,中央区,銀座１丁目２２番１１号銀座大竹ビジデンス２Ｆ,,13,102,1040061,,,,,,,2025-06-27,1,,,,,ベロビジョン,0
472,3010001256216,新規,0,2025-06-27,2025-06-27,明治エナジー株式会社,,株式会社,東京都,千代田区,神田司町２丁目８番地１,,13,101,1010048,,,,,,,2025-06-27,1,,,,,メイジエナジー,0
473,3010001256232,新規,0,2025-06-27,2025-06-27,株式会社ＩＮＣＵＢＡＴＩＯＮ,,株式会社,東京都,千代田区,東神田２丁目１０－９ポータル秋葉原１階,,13,101,1010031,,,,,,,2025-06-27,1,,,,,インキューベーション,0
474,3010001256281,新規,0,2025-06-27,2025-06-27,島田ビジネスコンサルティング株式会社,,株式会社,東京都,中央区,京橋３丁目１－１東京スクエアガーデン７Ｆ,,13,102,1040031,,,,,,,2025-06-27,1,,,,,シマダビジネスコンサルティング,0
476,3010003047803,新規,0,2025-06-27,2025-06-27,合同会社ＳＴＡＹ８ａ,,合同会社,東京都,中央区,京橋２丁目１２番６号ＡＯＪ税理士法人内,,13,102,1040031,,,,,,,2025-06-27,1,,,,,ステイエイトエー,0
477,3010005040252,新規,0,2025-06-27,2025-06-27,一般財団法人全国公益支援財団,,その他の設立登記法人,東京都,千代田区,神田小川町３丁目６番１号栄信ビル９階,,13,101,1010052,,,,,,,2025-06-27,1,,,,,ゼンコクコウエキシエンザイダン,0
496,3010903010034,新規,0,2025-06-27,2025-06-27,合同会社ＨａＲｅ,,合同会社,東京都,世田谷区,羽根木２丁目２１－１０チェリーフラッツ１０３,,13,112,1560042,,,,,,,2025-06-27,1,,,,,ハレ,0
501,3011001170340,新規,0,2025-06-27,2025-06-27,株式会社Ｍ＆Ｋ　ｃｏｒｐｏｒａｔｉｏｎ,,株式会社,東京都,渋谷区,神宮前１丁目１９番１９号ファーマメント３０４号室,,13,113,1500001,,,,,,,2025-06-27,1,,,,,エムアンドケーコーポレーション,0
502,3011001170357,新規,0,2025-06-27,2025-06-27,株式会社ＫＨＯＲＤＬＩＮＥ,,株式会社,東京都,渋谷区,円山町５番３号ＭＩＥＵＸ渋谷ビル８階,,13,113,1500044,,,,,,,2025-06-27,1,,,,,コードライン,0
503,3011001170407,新規,0,2025-06-27,2025-06-27,ＬｉｎｋａＳｔｕｄｉｏ株式会社,,株式会社,東京都,渋谷区,千駄ヶ谷５丁目１番３号千駄ヶ谷ガーデンズコート４０１,,13,113,1510051,,,,,,,2025-06-27,1,,,,,リンカスタジオ,0
505,3011003021830,新規,0,2025-06-27,2025-06-27,アストラルコード合同会社,,合同会社,東京都,渋谷区,道玄坂１丁目１０番８号渋谷道玄坂東急ビル２Ｆ－Ｃ,,13,113,1500043,,,,,,,2025-06-27,1,,,,,アストラルコード,0
506,3011003021847,新規,0,2025-06-27,2025-06-27,合同会社山悦カンパニー,,合同会社,東京都,目黒区,自由が丘３丁目１７番２０号マンションサニ－アンドサニ－４０１,,13,110,1520035,,,,,,,2025-06-27,1,,,,,ヤマエツカンパニー,0
508,3011101112218,新規,0,2025-06-27,2025-06-27,株式会社Ｘ‐Ｏｐｓ,,株式会社,東京都,新宿区,西新宿３丁目３番１３号西新宿水間ビル２Ｆ,,13,104,1600023,,,,,,,2025-06-27,1,,,,,クロスオプス,0
509,3011101112242,新規,0,2025-06-27,2025-06-27,豊鈞株式会社,,株式会社,東京都,新宿区,西新宿８丁目１２番１号サンパレス新宿４０３,,13,104,1600023,,,,,,,2025-06-27,1,,,,,トヨキン,0
511,3011103016045,新規,0,2025-06-27,2025-06-27,合同会社アクシス,,合同会社,東京都,新宿区,新宿６丁目２０番７－３０３,,13,104,1600022,,,,,,,2025-06-27,1,,,,,アクシス,0
512,3011201026474,新規,0,2025-06-27,2025-06-27,株式会社美祷設備,,株式会社,東京都,中野区,東中野３丁目２番９号,,13,114,1640003,,,,,,,2025-06-27,1,,,,,ミノリセツビ,0
513,3011301030673,新規,0,2025-06-27,2025-06-27,株式会社桜ウェル,,株式会社,東京都,杉並区,久我山４丁目１４番２号,,13,115,1680082,,,,,,,2025-06-27,1,,,,,サクラウェル,0
517,3011401027215,新規,0,2025-06-27,2025-06-27,日藻工材ホールディングス株式会社,,株式会社,東京都,板橋区,坂下２丁目１３番１８号,,13,119,1740043,,,,,,,2025-06-27,1,,,,,ニッソウコウザイホールディングス,0
520,3011403004740,新規,0,2025-06-27,2025-06-27,合同会社宏源,,合同会社,東京都,板橋区,大山町５７番６－２０１号,,13,119,1730023,,,,,,,2025-06-27,1,,,,,コウゲン,0
521,3011501032263,新規,0,2025-06-27,2025-06-27,Ｋ‐ｈｏｐｅ株式会社,,株式会社,東京都,荒川区,西日暮里５丁目３５番５号,,13,118,1160013,,,,,,,2025-06-27,1,,,,,ケーホープ,0
529,3012303002181,新規,0,2025-06-27,2025-06-27,合同会社富士,,合同会社,東京都,町田市,小山町１２６４番地８,,13,209,1940212,,,,,,,2025-06-27,1,,,,,フジ,0
531,3012701018944,新規,0,2025-06-27,2025-06-27,株式会社ｌａ　ｃｉｍａ,,株式会社,東京都,小平市,花小金井４丁目７―７―１,,13,211,1870002,,,,,,,2025-06-27,1,,,,,ラチーマ,0
544,3020001163576,新規,0,2025-06-27,2025-06-27,株式会社神藤,,株式会社,神奈川県,横浜市港北区,綱島東５丁目１０番４３号,,14,109,2230052,,,,,,,2025-06-27,1,,,,,シントウ,0
553,3021001085629,新規,0,2025-06-27,2025-06-27,株式会社やとと,,株式会社,神奈川県,横須賀市,汐入町３丁目２０番地４,,14,201,2380042,,,,,,,2025-06-27,1,,,,,ヤトト,0
558,3030001167238,新規,0,2025-06-27,2025-06-27,株式会社瀧本技研工業,,株式会社,埼玉県,川口市,上青木西１丁目１７－３４,,11,203,3330845,,,,,,,2025-06-27,1,,,,,タキモトギケンコウギョウ,0
559,3030001167320,新規,0,2025-06-27,2025-06-27,ＹＴＯ株式会社,,株式会社,埼玉県,川口市,末広１丁目１番１４号ハイツ末広４０３号室,,11,203,3320006,,,,,,,2025-06-27,1,,,,,ワイティーオー,0
567,3040001139426,新規,0,2025-06-27,2025-06-27,株式会社セキデン,,株式会社,千葉県,船橋市,坪井西２丁目５－２１,,12,204,2740069,,,,,,,2025-06-27,1,,,,,セキデン,0
573,3050001056851,新規,0,2025-06-27,2025-06-27,株式会社関根米穀,,株式会社,茨城県,古河市,山田７０７番地１,,08,204,3060114,,,,,,,2025-06-27,1,,,,,セキネベイコク,0
574,3050003009386,新規,0,2025-06-27,2025-06-27,合同会社ＩＮＴＡＩＬ,,合同会社,茨城県,那珂市,菅谷４４５７番地１７,,08,226,3110105,,,,,,,2025-06-27,1,,,,,,0
592,3120001276954,新規,0,2025-06-27,2025-06-27,株式会社キューエムアイティー,,株式会社,大阪府,大阪市北区,梅田２丁目６番２０号パシフィックマークス西梅田４階,,27,127,5300001,,,,,,,2025-06-27,1,,,,,キューエムアイティー,0
593,3120001277127,新規,0,2025-06-27,2025-06-27,株式会社ＹｕＬｉｎｋ,,株式会社,大阪府,大阪市鶴見区,放出東３丁目２５番５号２階,,27,124,5380044,,,,,,,2025-06-27,1,,,,,ユウリンク,0
594,3120001277259,新規,0,2025-06-27,2025-06-27,株式会社Ｄ．Ｉワークス,,株式会社,大阪府,枚方市,杉山手１丁目３０番１０号,,27,210,5730118,,,,,,,2025-06-27,1,,,,,ディーアイワークス,0
601,3120101071974,新規,0,2025-06-27,2025-06-27,株式会社金石工業,,株式会社,大阪府,岸和田市,磯上町３丁目７番１７号,,27,202,5960001,,,,,,,2025-06-27,1,,,,,カネイシコウギョウ,0
602,3120103006540,新規,0,2025-06-27,2025-06-27,合同会社Ｄｉｅｚ　ｃｌｉｍｂ,,合同会社,大阪府,堺市北区,北花田町２丁１７３番地,,27,146,5918002,,,,,,,2025-06-27,1,,,,,ディエスクライム,0
603,3120901051093,新規,0,2025-06-27,2025-06-27,株式会社ＵＢＳ,,株式会社,大阪府,豊中市,東泉丘１丁目１０番８の４号,,27,203,5610861,,,,,,,2025-06-27,1,,,,,ユービーエス,0
607,3130001079984,新規,0,2025-06-27,2025-06-27,株式会社ミルーペ,,株式会社,京都府,京都市中京区,烏丸通蛸薬師下る手洗水町６５１－１,,26,104,6048152,,,,,,,2025-06-27,1,,,,,ミルーペ,0
613,3140001139077,新規,0,2025-06-27,2025-06-27,株式会社いえもん,,株式会社,兵庫県,神戸市西区,長畑町２７９番地の１,,28,111,6512148,,,,,,,2025-06-27,1,,,,,イエモン,0
614,3140003022256,新規,0,2025-06-27,2025-06-27,合同会社住井総合会計,,合同会社,兵庫県,西宮市,丸橋町４番１７－２２４号,,28,204,6620831,,,,,,,2025-06-27,1,,,,,スミイソウゴウカイケイ,0
627,3180001167396,新規,0,2025-06-27,2025-06-27,Ｊａｐａｎ　Ｔａｉｌｏｒ株式会社,,株式会社,愛知県,名古屋市中区,新栄１丁目２９番２３号アーバンドエル新栄３Ｆ,,23,106,4600007,,,,,,,2025-06-27,1,,,,,ジャパンテイラー,0
628,3180001167413,新規,0,2025-06-27,2025-06-27,Ｔｈｒｅｅ　Ｂｒｏｓ＆Ｃｏ株式会社,,株式会社,愛知県,一宮市,緑１丁目５番１８号,,23,203,4910862,,,,,,,2025-06-27,1,,,,,スリーブロスアンドカンパニー,0
629,3180001167462,新規,0,2025-06-27,2025-06-27,株式会社Ｊ‐ＳＯＫＳ　Ｋｏｎｎｅｃｔ,,株式会社,愛知県,名古屋市東区,泉３丁目１１番２２号,,23,102,4610001,,,,,,,2025-06-27,1,,,,,ジェイソックスコネクト,0
630,3180001167470,新規,0,2025-06-27,2025-06-27,株式会社シンリンク,,株式会社,愛知県,名古屋市守山区,下志段味１丁目１５０５番地（翠城ＩＶ２０１号）,00139719,23,113,4630003,,,,,,,2025-06-27,1,,,,,シンリンク,0
632,3180003028662,新規,0,2025-06-27,2025-06-27,合同会社Ｌｕｃｕｌｉａ,,合同会社,愛知県,名古屋市千種区,春岡１丁目５番３号ステージ池下７０１,,23,101,4640848,,,,,,,2025-06-27,1,,,,,ルクリア,0
635,3180303006632,新規,0,2025-06-27,2025-06-27,合同会社にじいろ,,合同会社,愛知県,豊田市,曙町５丁目７４番,,23,211,4710835,,,,,,,2025-06-27,1,,,,,ニジイロ,0
646,3240001065123,新規,0,2025-06-27,2025-06-27,株式会社サングローブ,,株式会社,広島県,広島市西区,商工センター１丁目１０番８号,,34,104,7330833,,,,,,,2025-06-27,1,,,,,サングローブ,0
654,3290001110510,新規,0,2025-06-27,2025-06-27,株式会社Ｗ＆Ｘ,,株式会社,福岡県,福岡市博多区,博多駅前１丁目２３番２号ＰａｒｋＦｒｏｎｔ博多駅前１丁目５Ｆ－Ｂ,,40,132,8120011,,,,,,,2025-06-27,1,,,,,ダブリュアンドエックス,0
655,3290001110535,新規,0,2025-06-27,2025-06-27,株式会社キュークラフト・ジャパン,,株式会社,福岡県,福岡市早良区,百道浜２丁目３番２号,,40,137,8140001,,,,,,,2025-06-27,1,,,,,キュークラフトジャパン,0
656,3290001110543,新規,0,2025-06-27,2025-06-27,株式会社えこぷろ,,株式会社,福岡県,福岡市南区,塩原３丁目２２番１－４０２号,,40,134,8150032,,,,,,,2025-06-27,1,,,,,エコプロ,0
658,3290003017043,新規,0,2025-06-27,2025-06-27,合同会社Ｉｇｎｉｔｅ,,合同会社,福岡県,福岡市早良区,室住団地２０番４０７号,,40,137,8140035,,,,,,,2025-06-27,1,,,,,イグニット,0
664,3300001014247,新規,0,2025-06-27,2025-06-27,株式会社たんぽぽ,,株式会社,佐賀県,武雄市,北方町大字志久４６３５番地２７,,41,206,8492201,,,,,,,2025-06-27,1,,,,,タンポポ,0
665,3310001019666,新規,0,2025-06-27,2025-06-27,株式会社タカハシ装建,,株式会社,長崎県,諫早市,多良見町化屋７３５番地１,,42,204,8590401,,,,,,,2025-06-27,1,,,,,タカハシソウケン,0
668,3320001021183,新規,0,2025-06-27,2025-06-27,株式会社春木,,株式会社,大分県,別府市,浜町１７番２号,,44,202,8740945,,,,,,,2025-06-27,1,,,,,ハルキ,0
673,3370001004704,新規,0,2025-06-27,2025-06-27,潮工業株式会社,,株式会社,宮城県,仙台市宮城野区,幸町２丁目１２番８号,,04,102,9830836,,,,,,,2025-06-27,1,,,,,ウシオコウギョウ,0
674,3370001052752,新規,0,2025-06-27,2025-06-27,株式会社ＭＡＳＡＯ,,株式会社,宮城県,仙台市泉区,鶴が丘４丁目１９番地の５,,04,105,9813109,,,,,,,2025-06-27,1,,,,,マサオ,0
679,3430003017805,新規,0,2025-06-27,2025-06-27,合同会社ジェネラリスト,,合同会社,北海道,札幌市豊平区,中の島二条５丁目１番２１－５０１号,,01,105,0620922,,,,,,,2025-06-27,1,,,,,ジェネラリスト,0
694,4010001255737,新規,0,2025-06-27,2025-06-27,株式会社ワッショイプロダクション,,株式会社,東京都,中央区,八重洲２丁目１１番７号,,13,102,1040028,,,,,,,2025-06-27,1,,,,,ワッショイプロダクション,0
695,4010001255910,新規,0,2025-06-27,2025-06-27,株式会社解体総合研究所,,株式会社,東京都,文京区,大塚４丁目５１番１－８０４号,,13,105,1120012,,,,,,,2025-06-27,1,,,,,カイタイソウゴウケンキュウジョ,0
696,4010001256207,新規,0,2025-06-27,2025-06-27,セレンブリオ株式会社一級建築士事務所,,株式会社,東京都,千代田区,内幸町２丁目１番６号日比谷パークフロント１９Ｆ,,13,101,1000011,,,,,,,2025-06-27,1,,,,,セレンブリオイッキュウケンチクシジムショ,0
697,4010001256289,新規,0,2025-06-27,2025-06-27,ポラリスワン株式会社,,株式会社,東京都,千代田区,神田神保町２丁目３２番地３カーサ神保町５階５０４室,,13,101,1010051,,,,,,,2025-06-27,1,,,,,ポラリスワン,0
709,4010401191292,新規,0,2025-06-27,2025-06-27,株式会社グロース,,株式会社,東京都,港区,北青山２丁目１１番１０号,,13,103,1070061,,,,,,,2025-06-27,1,,,,,グロース,0
710,4010405024507,新規,0,2025-06-27,2025-06-27,一般社団法人メディカルアライアンス,,その他の設立登記法人,東京都,港区,西新橋３丁目２５番３３号フロンティア御成門,,13,103,1050003,,,,,,,2025-06-27,1,,,,,メディカルアライアンス,0
712,4010501054267,新規,0,2025-06-27,2025-06-27,株式会社Ｇｏｌｄ　Ｗｉｄｅ　Ｖａｌｌｅｙ,,株式会社,東京都,台東区,北上野２丁目８番４号メゾン・フジ山伏町３０１,,13,106,1100014,,,,,,,2025-06-27,1,,,,,ゴールドワイドバレー,0
719,4010901057654,新規,0,2025-06-27,2025-06-27,株式会社アールアセット,,株式会社,東京都,世田谷区,玉川３丁目２０番２号マノア玉川第３ビル５０１号室,,13,112,1580094,,,,,,,2025-06-27,1,,,,,アールアセット,0
731,4011001170141,新規,0,2025-06-27,2025-06-27,株式会社Ｔｈｒｅｅ　Ｐｅａｋ　Ｖａｎｔａｇｅ,,株式会社,東京都,渋谷区,恵比寿４丁目２０番３号恵比寿ガーデンプレイスタワー１８階,,13,113,1500013,,,,,,,2025-06-27,1,,,,,スリーピークバンテージ,0
732,4011001170372,新規,0,2025-06-27,2025-06-27,株式会社ＣＣＲ,,株式会社,東京都,渋谷区,東１丁目２番２０号,,13,113,1500011,,,,,,,2025-06-27,1,,,,,シーシーアール,0
733,4011003021739,新規,0,2025-06-27,2025-06-27,ＳＬＡＳＨ合同会社,,合同会社,東京都,渋谷区,円山町５－４フィールＡ渋谷１３０９,,13,113,1500044,,,,,,,2025-06-27,1,,,,,スラッシュ,0
735,4011101112233,新規,0,2025-06-27,2025-06-27,エデンソフト株式会社,,株式会社,東京都,新宿区,百人町４丁目９－２第二浅美ビル６階,,13,104,1690073,,,,,,,2025-06-27,1,,,,,エデンソフト,0
736,4011101112241,新規,0,2025-06-27,2025-06-27,フローホールディングス株式会社,,株式会社,東京都,新宿区,西新宿６丁目５番１号新宿アイランドタワー２階,,13,104,1600023,,,,,,,2025-06-27,1,,,,,フローホールディングス,0
737,4011105011489,新規,0,2025-06-27,2025-06-27,行政書士法人第一総合法務事務所,,その他の設立登記法人,東京都,新宿区,西新宿７丁目１３番５号,,13,104,1600023,,,,,,,2025-06-27,1,,,,,ダイイチソウゴウホウムジムショ,0
738,4011201026465,新規,0,2025-06-27,2025-06-27,結彩株式会社,,株式会社,東京都,中野区,野方１丁目２８番１０号,,13,114,1650027,,,,,,,2025-06-27,1,,,,,ユウサイ,0
742,4011405002394,新規,0,2025-06-27,2025-06-27,特定非営利活動法人ウエルネス・ステップ,,その他の設立登記法人,東京都,板橋区,常盤台１丁目３３番１９号ＮＦ常盤台３階,,13,119,1740071,,,,,,,2025-06-27,1,,,,,ウエルネスステップ,0
743,4011501032254,新規,0,2025-06-27,2025-06-27,株式会社ＧｌｏｗＣｏｓｍｏｓ,,株式会社,東京都,荒川区,西日暮里６丁目３７番１号,,13,118,1160013,,,,,,,2025-06-27,1,,,,,グローコスモス,0
744,4011503006594,新規,0,2025-06-27,2025-06-27,合同会社ＳＥＡＭＺ,,合同会社,東京都,荒川区,西尾久８丁目２７番１１号サンフラッツ４０１,,13,118,1160011,,,,,,,2025-06-27,1,,,,,シームズ,0
752,4011803006939,新規,0,2025-06-27,2025-06-27,合同会社Ｒｅｎｅｅ,,合同会社,東京都,足立区,新田３丁目３６番２－４１０号,,13,121,1230865,,,,,,,2025-06-27,1,,,,,レネ,0
760,4020001163534,新規,0,2025-06-27,2025-06-27,株式会社エヌエーエンジニアリング,,株式会社,神奈川県,川崎市麻生区,高石３丁目２７番１２号,,14,137,2150003,,,,,,,2025-06-27,1,,,,,エヌエーエンジニアリング,0
761,4020001163591,新規,0,2025-06-27,2025-06-27,株式会社ティーケー,,株式会社,神奈川県,横浜市港北区,綱島西１丁目４番２３－３１０号,,14,109,2230053,,,,,,,2025-06-27,1,,,,,ティーケー,0
763,4021005013394,新規,0,2025-06-27,2025-06-27,一般社団法人ザ・スマイール,,その他の設立登記法人,神奈川県,小田原市,永塚２０７番地の４,,14,206,2500214,,,,,,,2025-06-27,1,,,,,ザスマイール,0
774,4030003027018,新規,0,2025-06-27,2025-06-27,ＳＷＥＥＴＲＯＯＭ２２合同会社,,合同会社,埼玉県,さいたま市浦和区,仲町４丁目２３番１８ー１号,,11,107,3300062,,,,,,,2025-06-27,1,,,,,,0
775,4030003027075,新規,0,2025-06-27,2025-06-27,ＮＡＭ　ＸＯＡＮ合同会社,,合同会社,埼玉県,鶴ヶ島市,大字下新田６２１番地２０５ＫＩＶオフィス下新田Ａ号室,,11,241,3502222,,,,,,,2025-06-27,1,,,,,ナムソアン,0
776,4030003027083,新規,0,2025-06-27,2025-06-27,合同会社３Ｄ,,合同会社,埼玉県,熊谷市,西野２７８番地３７,,11,202,3600216,,,,,,,2025-06-27,1,,,,,スリーディー,0
777,4030005022181,新規,0,2025-06-27,2025-06-27,一般社団法人クオラ,,その他の設立登記法人,埼玉県,所沢市,並木２丁目１番地３－３１１,,11,208,3590042,,,,,,,2025-06-27,1,,,,,クオラ,0
778,4030005022198,新規,0,2025-06-27,2025-06-27,ＮＰＯ法人スマイルサポートまるさんかくしかく,,その他の設立登記法人,埼玉県,川越市,旭町３丁目２３番地３９,,11,201,3501126,,,,,,,2025-06-27,1,,,,,スマイルサポートマルサンカクシカク,0
782,4040001139409,新規,0,2025-06-27,2025-06-27,株式会社山市,,株式会社,千葉県,市原市,青柳北２丁目６番地１３,,12,219,2990101,,,,,,,2025-06-27,1,,,,,ヤマイチ,0
783,4040001139425,新規,0,2025-06-27,2025-06-27,株式会社トップ,,株式会社,千葉県,君津市,久保３丁目１１－１０,,12,225,2991152,,,,,,,2025-06-27,1,,,,,トップ,0
786,4040003027933,新規,0,2025-06-27,2025-06-27,ステップアップジャパン合同会社,,合同会社,千葉県,香取市,三ノ分目２３３番地,,12,236,2890302,,,,,,,2025-06-27,1,,,,,ステップアップジャパン,0
787,4040003027941,新規,0,2025-06-27,2025-06-27,４８２エナジー合同会社,,合同会社,千葉県,柏市,若柴１７８番地４柏の葉キャンパス１４８街区２ＫＯＩＬ５,,12,217,2770871,,,,,,,2025-06-27,1,,,,,シバフエナジー,0
793,4070003005977,新規,0,2025-06-27,2025-06-27,ＨＵＤＨＡ商会合同会社,,合同会社,群馬県,太田市,浜町１５‐６ロヤルパーク１０２,,10,205,3730853,,,,,,,2025-06-27,1,,,,,フダショウカイ,0
811,4120001277241,新規,0,2025-06-27,2025-06-27,株式会社ＡＳＳソリューションズ,,株式会社,大阪府,守口市,大日町１丁目８番５号,,27,209,5700003,,,,,,,2025-06-27,1,,,,,エーエスエスソリューションズ,0
812,4120001277258,新規,0,2025-06-27,2025-06-27,ＷｏｒｋｅｒｓＣａｒｅ株式会社,,株式会社,大阪府,大阪市北区,曾根崎２丁目１６－１９メッセージ梅田ビル１階ＯＮｔｈｅＵＭＥＤＡ内,,27,127,5300057,,,,,,,2025-06-27,1,,,,,ワーカーズケア,0
813,4120001277274,新規,0,2025-06-27,2025-06-27,株式会社あかときエステート,,株式会社,大阪府,大阪市西区,新町１丁目８番１号行政ビル９階Ｅ－１号室,,27,106,5500013,,,,,,,2025-06-27,1,,,,,アカトキエステート,0
818,4120003029863,新規,0,2025-06-27,2025-06-27,南平産業合同会社,,合同会社,大阪府,大阪市阿倍野区,昭和町４丁目１番２２－４０２号,,27,119,5450011,,,,,,,2025-06-27,1,,,,,ナンペイサンギョウ,0
819,4120003029871,新規,0,2025-06-27,2025-06-27,浪花インベストメント合同会社,,合同会社,大阪府,大阪市中央区,南本町２丁目５番１３号ブランズタワー２７０８号室,,27,128,5410054,,,,,,,2025-06-27,1,,,,,ナニワインベストメント,0
821,4120101071932,新規,0,2025-06-27,2025-06-27,アイサイン株式会社,,株式会社,大阪府,堺市西区,上野芝向ヶ丘町４丁１０番８号,,27,144,5938303,,,,,,,2025-06-27,1,,,,,アイサイン,0
822,4120101071949,新規,0,2025-06-27,2025-06-27,株式会社ＯＮＥ　ＥＩＧＨＴＹ,,株式会社,大阪府,堺市東区,日置荘原寺町４４９番地５,,27,143,5998112,,,,,,,2025-06-27,1,,,,,ワンエイティ,0
823,4120101071965,新規,0,2025-06-27,2025-06-27,Ｖｉｌｌａ　Ｎｏｖａ　Ｅｂｉｓｕ株式会社,,株式会社,大阪府,大阪狭山市,大野台６丁目２０番１８号,,27,231,5890023,,,,,,,2025-06-27,1,,,,,ヴィラノバエビス,0
824,4120101071973,新規,0,2025-06-27,2025-06-27,株式会社ＲＩＳＥ　ＰＬＵＳ,,株式会社,大阪府,堺市東区,白鷺町１丁３番１３号２Ｆ,,27,143,5998107,,,,,,,2025-06-27,1,,,,,ライズプラス,0
834,4130001079983,新規,0,2025-06-27,2025-06-27,テンソー設計株式会社,,株式会社,京都府,京都市伏見区,北端町６２,,26,109,6128372,,,,,,,2025-06-27,1,,,,,テンソー,0
835,4130003010574,新規,0,2025-06-27,2025-06-27,合同会社Ｓｍｉｌｅ　Ｌｉｎｋ,,合同会社,京都府,京都市下京区,松原通烏丸西入玉津島町３０６番地,,26,106,6008427,,,,,,,2025-06-27,1,,,,,スマイルリンク,0
847,4180001167420,新規,0,2025-06-27,2025-06-27,株式会社ＩＫＫＯＵ,,株式会社,愛知県,東海市,浅山３丁目１１２番地,,23,222,4760006,,,,,,,2025-06-27,1,,,,,イッコウ,0
855,4200001043940,新規,0,2025-06-27,2025-06-27,株式会社ＢＬＯＯＭ,,株式会社,岐阜県,美濃加茂市,本郷町６丁目３番１９号,,21,211,5050027,,,,,,,2025-06-27,1,,,,,ブルーム,0
859,4220001026761,新規,0,2025-06-27,2025-06-27,株式会社急便ＮＯＴＯ,,株式会社,石川県,七尾市,田鶴浜町ハ部１０９番地２,,17,202,9292121,,,,,,,2025-06-27,1,,,,,キュウビンノト,0
872,4290001110518,新規,0,2025-06-27,2025-06-27,株式会社カヤノ,,株式会社,福岡県,太宰府市,大佐野２丁目８番２０号,,40,221,8180134,,,,,,,2025-06-27,1,,,,,カヤノ,0
873,4290001110559,新規,0,2025-06-27,2025-06-27,株式会社ＣＬＯＮＥ９,,株式会社,福岡県,春日市,春日原北町４丁目１３番地,,40,218,8160802,,,,,,,2025-06-27,1,,,,,クローンナイン,0
878,4300001014246,新規,0,2025-06-27,2025-06-27,株式会社ハマダ商店,,株式会社,佐賀県,唐津市,京町１７８３番地,,41,202,8470045,,,,,,,2025-06-27,1,,,,,ハマダショウテン,0
885,4340001027459,新規,0,2025-06-27,2025-06-27,株式会社岩根工業,,株式会社,鹿児島県,志布志市,志布志町志布志１９４５番地１,,46,221,8997103,,,,,,,2025-06-27,1,,,,,イワネコウギョウ,0
889,4360003015030,新規,0,2025-06-27,2025-06-27,ＭＤＣ合同会社,,合同会社,沖縄県,那覇市,久茂地３丁目９－１２タカビル２０２号室,,47,201,9000015,,,,,,,2025-06-27,1,,,,,エムディーシー,0
891,4370001052751,新規,0,2025-06-27,2025-06-27,ＭＣアセットマネジメント株式会社,,株式会社,宮城県,富谷市,太子堂２丁目１８番２０号,,04,216,9813303,,,,,,,2025-06-27,1,,,,,エムシーアセットマネジメント,0
895,4410001014202,新規,0,2025-06-27,2025-06-27,株式会社エントラ,,株式会社,秋田県,秋田市,千秋矢留町６番１４－１００１号,,05,201,0100877,,,,,,,2025-06-27,1,,,,,エントラ,0
897,4420003003144,新規,0,2025-06-27,2025-06-27,合同会社ＳＹＵＭＥＩサプライ,,合同会社,青森県,三戸郡階上町,蒼前西２丁目９－２６６４メゾン慎月２０１,,02,446,0391212,,,,,,,2025-06-27,1,,,,,シュウメイサプライ,0
904,4500005008802,新規,0,2025-06-27,2025-06-27,特定非営利活動法人シネ研宇和島,,その他の設立登記法人,愛媛県,宇和島市,高串１番耕地１０５３,,38,203,7980020,,,,,,,2025-06-27,1,,,,,シネケンウワジマ,0
913,5010001256230,新規,0,2025-06-27,2025-06-27,株式会社ＰａｔｈｔＡ,,株式会社,東京都,中央区,銀座１丁目２２番１１号銀座大竹ビジデンス２Ｆ,,13,102,1040061,,,,,,,2025-06-27,1,,,,,パスタ,0
914,5010001256255,新規,0,2025-06-27,2025-06-27,大護商船日本株式会社,,株式会社,東京都,中央区,日本橋兜町５番１号兜町第一平和ビル３階,,13,102,1030026,,,,,,,2025-06-27,1,,,,,デホショウセンニホン,0
915,5010001256263,新規,0,2025-06-27,2025-06-27,株式会社やすらぎ支援センター,,株式会社,東京都,中央区,銀座１丁目１２番４号Ｎ＆Ｅ・ＢＬＤ．６Ｆ,,13,102,1040061,,,,,,,2025-06-27,1,,,,,ヤスラギシエンセンター,0
916,5010001256296,新規,0,2025-06-27,2025-06-27,ＡＩＰ　Ａｕｔｏｍｏｔｉｖｅ　Ｊａｐａｎ株式会社,,株式会社,東京都,中央区,日本橋本町３丁目３番６号ワカ末ビル７階,,13,102,1030023,,,,,,,2025-06-27,1,,,,,エーアイピーオートモーティブジャパン,0
917,5010001256321,新規,0,2025-06-27,2025-06-27,ＣＳＲＩ５号株式会社,,株式会社,東京都,中央区,京橋１丁目６番１２号,,13,102,1040031,,,,,,,2025-06-27,1,,,,,シーエスアールアイゴゴウ,0
918,5010001256346,新規,0,2025-06-27,2025-06-27,株式会社東西ニューアート,,株式会社,東京都,中央区,銀座１丁目１５番２号,,13,102,1040061,,,,,,,2025-06-27,1,,,,,トウザイニューアート,0
922,5010003047792,新規,0,2025-06-27,2025-06-27,モリクス合同会社,,合同会社,東京都,千代田区,霞が関３丁目６－１５霞ヶ関ＭＨタワーズ３Ｆ,,13,101,1000013,,,,,,,2025-06-27,1,,,,,モリクス,0
923,5010005040250,新規,0,2025-06-27,2025-06-27,東京ＢＴＲ２一般社団法人,,その他の設立登記法人,東京都,千代田区,霞が関３丁目２番５号,,13,101,1000013,,,,,,,2025-06-27,1,,,,,トウキョウビーティーアールツー,0
924,5010005040259,新規,0,2025-06-27,2025-06-27,南麻布一般社団法人,,その他の設立登記法人,東京都,千代田区,平河町１丁目６番１５号シルスフィア会計事務所内,,13,101,1020093,,,,,,,2025-06-27,1,,,,,ミナミアザブ,0
925,5010005040275,新規,0,2025-06-27,2025-06-27,ＨＫＢ一般社団法人,,その他の設立登記法人,東京都,千代田区,丸の内１丁目４番１号東京共同会計事務所内,,13,101,1000005,,,,,,,2025-06-27,1,,,,,エイチケービー,0
926,5010103002607,新規,0,2025-06-27,2025-06-27,和幸マネジメント合同会社,,合同会社,東京都,八王子市,椚田町５０７番地１１,,13,201,1930942,,,,,,,2025-06-27,1,,,,,ワコウマネジメント,0
944,5011001170347,新規,0,2025-06-27,2025-06-27,株式会社Ｌ’ｅａｕ　ｖｉｌｌｅｎｔ,,株式会社,東京都,渋谷区,神泉町１０番１５号アネックス神泉３０１,,13,113,1500045,,,,,,,2025-06-27,1,,,,,ローヴィレント,0
945,5011001170388,新規,0,2025-06-27,2025-06-27,リージョナルパス株式会社,,株式会社,東京都,渋谷区,千駄ヶ谷５丁目２８－１０－８０２,,13,113,1510051,,,,,,,2025-06-27,1,,,,,リージョナルパス,0
946,5011001170438,新規,0,2025-06-27,2025-06-27,株式会社４２Ｓｔｕｄｉｏ,,株式会社,東京都,渋谷区,幡ヶ谷２丁目３８番１－１１７号,,13,113,1510072,,,,,,,2025-06-27,1,,,,,フォーティートゥースタジオ,0
949,5011003021837,新規,0,2025-06-27,2025-06-27,合同会社Ｏｌｏ,,合同会社,東京都,目黒区,上目黒３丁目８番５－５０４号柳元ビル,,13,110,1530051,,,,,,,2025-06-27,1,,,,,オロ,0
950,5011005011051,新規,0,2025-06-27,2025-06-27,一般社団法人ブルーアンドグリーンカーボンコンソーシアム,,その他の設立登記法人,東京都,渋谷区,神南１丁目１１－４ＦＰＧリンクス神南５階,,13,113,1500041,,,,,,,2025-06-27,1,,,,,ブルーアンドグリーンカーボンコンソーシアム,0
956,5011101112208,新規,0,2025-06-27,2025-06-27,株式会社Ｅｕｒｅｋａ,,株式会社,東京都,新宿区,百人町１丁目１８－８大久保カドビル４０４室１２２区画,,13,104,1690073,,,,,,,2025-06-27,1,,,,,エウレカ,0
957,5011101112240,新規,0,2025-06-27,2025-06-27,株式会社ＢＩＧ．ＳＭＩＬｅ,,株式会社,東京都,新宿区,西新宿４丁目２１番２号ハイツ横川１０８,,13,104,1600023,,,,,,,2025-06-27,1,,,,,ビッグスマイル,0
968,5011503006593,新規,0,2025-06-27,2025-06-27,Ｆｒｅａｋｓ　Ｂａｒ＆Ｃａｂａｒｅｔ合同会社,,合同会社,東京都,荒川区,東尾久１丁目３１－４,,13,118,1160012,,,,,,,2025-06-27,1,,,,,フリークスバーアンドカバレット,0
969,5011601028754,新規,0,2025-06-27,2025-06-27,株式会社祥雲,,株式会社,東京都,練馬区,関町北５丁目１３－２５－２階２－Ｄ号室,,13,120,1770051,,,,,,,2025-06-27,1,,,,,ショウウン,0
972,5011701028464,新規,0,2025-06-27,2025-06-27,ＮＳＥＬＥＤＪＡＰＡＮ株式会社,,株式会社,東京都,江戸川区,西葛西１丁目１５－１美秀ハイム２Ｆ,,13,123,1340088,,,,,,,2025-06-27,1,,,,,ネッセエルイーディジャパン,0
973,5011701028472,新規,0,2025-06-27,2025-06-27,ピットエム株式会社,,株式会社,東京都,江戸川区,南葛西１丁目１３番５号メゾンピット３０１,,13,123,1340085,,,,,,,2025-06-27,1,,,,,ピットエム,0
976,5011801046366,新規,0,2025-06-27,2025-06-27,株式会社小粋な大松,,株式会社,東京都,葛飾区,東四つ木４丁目１２番３号,,13,122,1240014,,,,,,,2025-06-27,1,,,,,コイキナダイマツ,0
978,5011803006938,新規,0,2025-06-27,2025-06-27,ｉｍａｙｏｕ合同会社,,合同会社,東京都,足立区,伊興２丁目１９－２１－３０１,,13,121,1210823,,,,,,,2025-06-27,1,,,,,イマユウ,0
985,5020003028809,新規,0,2025-06-27,2025-06-27,合同会社守興業,,合同会社,神奈川県,川崎市麻生区,栗平２丁目１２－１７,,14,137,2150031,,,,,,,2025-06-27,1,,,,,マモルコウギョウ,0
988,5021001085619,新規,0,2025-06-27,2025-06-27,ブライトホーム株式会社,,株式会社,神奈川県,綾瀬市,深谷上２丁目１５番８号,,14,218,2521108,,,,,,,2025-06-27,1,,,,,ブライトホーム,0
990,5021003016191,新規,0,2025-06-27,2025-06-27,ＪＫ語学学院合同会社,,合同会社,神奈川県,大和市,中央林間４丁目１７－６,,14,213,2420007,,,,,,,2025-06-27,1,,,,,ジェイケーゴガクガクイン,0
991,5021005013393,新規,0,2025-06-27,2025-06-27,一般社団法人湘南薬事研究所,,その他の設立登記法人,神奈川県,藤沢市,鵠沼石上１丁目４番５号湘南ライトビル６０３号,00139720,14,205,2510025,,,,,,,2025-06-27,1,,,,,ショウナンヤクジケンキュウジョ,0
996,5030001167310,新規,0,2025-06-27,2025-06-27,株式会社大翔,,株式会社,埼玉県,深谷市,上柴町東１丁目２７番地１－２０１号,,11,218,3660051,,,,,,,2025-06-27,1,,,,,タイショウ,0
997,5030001167335,新規,0,2025-06-27,2025-06-27,株式会社アクトマーケティング,,株式会社,埼玉県,三郷市,さつき平１丁目３番１号,,11,237,3410021,,,,,,,2025-06-27,1,,,,,アクトマーケティング,0
1006,5040001139408,新規,0,2025-06-27,2025-06-27,旭日珊瑚株式会社,,株式会社,千葉県,松戸市,串崎新田１５６番地の１小田急くぬぎ山マンション１Ｆ,,12,207,2702216,,,,,,,2025-06-27,1,,,,,アサヒサンゴ,0
1017,5080101025594,新規,0,2025-06-27,2025-06-27,株式会社ウエストホールディングス,,株式会社,静岡県,沼津市,足高２８７番地の２９,,22,203,4100001,,,,,,,2025-06-27,1,,,,,ウエストホールディングス,0
1023,5080403005294,新規,0,2025-06-27,2025-06-27,丹菜合同会社,,合同会社,静岡県,浜松市中央区,泉２丁目２－２２,,22,138,4338124,,,,,,,2025-06-27,1,,,,,ニナ,0
1025,5090001019365,新規,0,2025-06-27,2025-06-27,株式会社清春芸術村農園,,株式会社,山梨県,北杜市,長坂町中丸字祭の神４５６１番地,,19,209,4080036,,,,,,,2025-06-27,1,,,,,キヨハルゲイジュツムラノウエン,0
1035,5120001277182,新規,0,2025-06-27,2025-06-27,株式会社ｒｇｆｏｏｄ,,株式会社,大阪府,大阪市中央区,南船場１丁目１番１２号企業交流プラザビル１Ｆ,,27,128,5420081,,,,,,,2025-06-27,1,,,,,アールジーフード,0
1036,5120001277249,新規,0,2025-06-27,2025-06-27,春和美術株式会社,,株式会社,大阪府,大阪市西区,江之子島２丁目２番２１号レジスコート阿波座７０１号室,,27,106,5500006,,,,,,,2025-06-27,1,,,,,ハルワビジュツ,0
1041,5120101071964,新規,0,2025-06-27,2025-06-27,株式会社ｎａｎａｉｒｏ,,株式会社,大阪府,南河内郡太子町,聖和台４丁目７番地の４,,27,381,5830996,,,,,,,2025-06-27,1,,,,,ナナイロ,0
1042,5120103006539,新規,0,2025-06-27,2025-06-27,Ｌａｓａｇｎａ．ｏｎｅ　Ｊａｐａｎ合同会社,,合同会社,大阪府,堺市北区,長曽根町１３０番地４２,,27,146,5918025,,,,,,,2025-06-27,1,,,,,ラザニアワンジャパン,0
1046,5130001079990,新規,0,2025-06-27,2025-06-27,萬歳株式会社,,株式会社,京都府,京都市下京区,東洞院通綾小路下る扇酒屋町２８８番地２ベラジオ四条烏丸２０５号室,,26,106,6008095,,,,,,,2025-06-27,1,,,,,バンザイ,0
1047,5130001080008,新規,0,2025-06-27,2025-06-27,松町株式会社,,株式会社,京都府,京都市伏見区,深草下川原町５０番地４未来ビル１０５号室,,26,109,6128401,,,,,,,2025-06-27,1,,,,,マツマチ,0
1048,5130003010573,新規,0,2025-06-27,2025-06-27,合同会社ザイン,,合同会社,京都府,京都市南区,西九条菅田町２７番地２－４０１号室,,26,107,6018445,,,,,,,2025-06-27,1,,,,,ザイン,0
1062,5180001167403,新規,0,2025-06-27,2025-06-27,大田株式会社,,株式会社,愛知県,名古屋市天白区,島田黒石４２０,,23,116,4680028,,,,,,,2025-06-27,1,,,,,オオタ,0
1063,5180001167428,新規,0,2025-06-27,2025-06-27,宏和株式会社,,株式会社,愛知県,名古屋市中村区,亀島２丁目３０番３２号,,23,105,4530013,,,,,,,2025-06-27,1,,,,,コウワ,0
1064,5180001167436,新規,0,2025-06-27,2025-06-27,株式会社正琉商事,,株式会社,愛知県,一宮市,平島２丁目３番９号,,23,203,4910833,,,,,,,2025-06-27,1,,,,,マサルショウジ,0
1067,5180305009697,新規,0,2025-06-27,2025-06-27,特定非営利活動法人ゆめぱレット,,その他の設立登記法人,愛知県,豊田市,柿本町８丁目１９番地４明華荘Ｃ号,,23,211,4710855,,,,,,,2025-06-27,1,,,,,ユメパレット,0
1074,5230003002453,新規,0,2025-06-27,2025-06-27,合同会社ビープランツ,,合同会社,富山県,富山市,中川原２４９‐４,,16,201,9398015,,,,,,,2025-06-27,1,,,,,ビープランツ,0
1076,5240001065121,新規,0,2025-06-27,2025-06-27,株式会社ｍｅｉ,,株式会社,広島県,廿日市市,玖島４４０４番地１,,34,213,7380205,,,,,,,2025-06-27,1,,,,,メイ,0
1084,5290001110533,新規,0,2025-06-27,2025-06-27,株式会社ｅｎｈａｎｚ　ｆａｂｒｉｃ,,株式会社,福岡県,福岡市南区,清水１丁目３番８号,,40,134,8150031,,,,,,,2025-06-27,1,,,,,エンハンズファブリック,0
1085,5290001110541,新規,0,2025-06-27,2025-06-27,ｕｍｉ株式会社,,株式会社,福岡県,福岡市中央区,大名２丁目１０番４号シャンボール大名Ｄ棟１５０３,,40,133,8100041,,,,,,,2025-06-27,1,,,,,ウミ,0
1090,5320001021181,新規,0,2025-06-27,2025-06-27,株式会社そらホールディングス,,株式会社,大分県,大分市,大字下郡３２６０番地の１０,,44,201,8700951,,,,,,,2025-06-27,1,,,,,ソラホールディングス,0
1092,5330001033333,新規,0,2025-06-27,2025-06-27,株式会社大也産業,,株式会社,熊本県,山鹿市,杉６０７番地,,43,208,8610552,,,,,,,2025-06-27,1,,,,,ダイヤサンギョウ,0
1100,5360001035384,新規,0,2025-06-27,2025-06-27,株式会社琉球美華サービス,,株式会社,沖縄県,那覇市,松山１丁目１２番１０号３階,,47,201,9000032,,,,,,,2025-06-27,1,,,,,リュウキュウビカサービス,0
1101,5360001035392,新規,0,2025-06-27,2025-06-27,沖月ホールディングス株式会社,,株式会社,沖縄県,那覇市,小禄２丁目８番地１１,,47,201,9010152,,,,,,,2025-06-27,1,,,,,オキツキホールディングス,0
1102,5360003015046,新規,0,2025-06-27,2025-06-27,合同会社Ｗｈｉｔｅ　Ｏｃｅａｎ,,合同会社,沖縄県,うるま市,石川東山２丁目２９番地１,,47,213,9041102,,,,,,,2025-06-27,1,,,,,ホワイトオーシャン,0
1106,5370003007166,新規,0,2025-06-27,2025-06-27,合同会社ＣＯＭＳＴＡＴ　ＺＥＲＯ,,合同会社,宮城県,仙台市青葉区,千代田町１１番１３号,,04,101,9810936,,,,,,,2025-06-27,1,,,,,コムスタットゼロ,0
1131,6010001256246,新規,0,2025-06-27,2025-06-27,Ｐ・Ｒ・Ｄ株式会社,,株式会社,東京都,文京区,音羽１丁目１５番１５－１３０２号,,13,105,1120013,,,,,,,2025-06-27,1,,,,,ピーアールディー,0
1132,6010001256295,新規,0,2025-06-27,2025-06-27,株式会社ＣＨＣＰ　Ａｌｆａ,,株式会社,東京都,千代田区,丸の内１丁目８番１号,,13,101,1000005,,,,,,,2025-06-27,1,,,,,シーエイチシーピーアルファ,0
1133,6010001256320,新規,0,2025-06-27,2025-06-27,ＣＳＲＩ４号株式会社,,株式会社,東京都,中央区,京橋１丁目６番１２号,,13,102,1040031,,,,,,,2025-06-27,1,,,,,シーエスアールアイヨンゴウ,0
1145,6010403035462,新規,0,2025-06-27,2025-06-27,ＲｏＲｉＲｏ合同会社,,合同会社,東京都,港区,赤坂２丁目８番１４－４０７号,,13,103,1070052,,,,,,,2025-06-27,1,,,,,ロリロ,0
1157,6011001170338,新規,0,2025-06-27,2025-06-27,株式会社ベリラ,,株式会社,東京都,渋谷区,道玄坂１丁目１０番８号渋谷道玄坂東急ビル２Ｆ－Ｃ,,13,113,1500043,,,,,,,2025-06-27,1,,,,,ベリラ,0
1158,6011001170346,新規,0,2025-06-27,2025-06-27,株式会社ゆめひつじ,,株式会社,東京都,渋谷区,円山町５番３号ＭＩＥＵＸ渋谷ビル８階,,13,113,1500044,,,,,,,2025-06-27,1,,,,,ユメヒツジ,0
1159,6011001170412,新規,0,2025-06-27,2025-06-27,株式会社ＹＩ＆ｐａｒｔｎｅｒｓ,,株式会社,東京都,渋谷区,恵比寿南１丁目２０番６号,,13,113,1500022,,,,,,,2025-06-27,1,,,,,ワイアイアンドパートナーズ,0
1160,6011001170841,新規,0,2025-06-27,2025-06-27,株式会社ＬＯＴＵＳ,,株式会社,東京都,目黒区,目黒本町１丁目１６－１３マンションニュー目黒２０３号室,,13,110,1520002,,,,,,,2025-06-27,1,,,,,ロータス,0
1166,6011401027212,新規,0,2025-06-27,2025-06-27,エコフレンドリー株式会社,,株式会社,東京都,板橋区,板橋２丁目６０番３号板橋区役所前ビューハイツ１階,,13,119,1730004,,,,,,,2025-06-27,1,,,,,エコフレンドリー,0
1169,6011501032244,新規,0,2025-06-27,2025-06-27,Ｓｈｅｐｈｅｒｄ株式会社,,株式会社,東京都,北区,中里１丁目２１番２号中里ビル１Ｆ,,13,117,1140015,,,,,,,2025-06-27,1,,,,,シェパード,0
1172,6011603004752,新規,0,2025-06-27,2025-06-27,私たちの合同会社,,合同会社,東京都,練馬区,田柄２丁目４２－１２,,13,120,1790073,,,,,,,2025-06-27,1,,,,,ワタシタチノ,0
1173,6011701028471,新規,0,2025-06-27,2025-06-27,株式会社ＲＥＷＯＲＫ　ＪＡＰＡＮ,,株式会社,東京都,江戸川区,中葛西６丁目１８－１０－２０２,,13,123,1340083,,,,,,,2025-06-27,1,,,,,リワークジャパン,0
1175,6011703004297,新規,0,2025-06-27,2025-06-27,ＲＲＭ合同会社,,合同会社,東京都,江戸川区,鹿骨５丁目３９番９号雅１０２,,13,123,1330073,,,,,,,2025-06-27,1,,,,,アールアールエム,0
1176,6011801046373,新規,0,2025-06-27,2025-06-27,宏信株式会社,,株式会社,東京都,足立区,島根４丁目２４番２号,,13,121,1210815,,,,,,,2025-06-27,1,,,,,コシン,0
1183,6012701018941,新規,0,2025-06-27,2025-06-27,株式会社ジェイアシスト,,株式会社,東京都,東村山市,本町２丁目１２番地４６アート・フルＨ＆Ｅ１０１号,,13,213,1890014,,,,,,,2025-06-27,1,,,,,ジェイアシスト,0
1184,6013305003727,新規,0,2025-06-27,2025-06-27,一般社団法人池袋地区駐車場地域ルール運用協議会,,その他の設立登記法人,東京都,豊島区,東池袋１丁目５番６号,,13,116,1700013,,,,,,,2025-06-27,1,,,,,イケブクロチクチュウシャジョウチイキルールウンヨウキョウギカイ,0
1190,6020001163549,新規,0,2025-06-27,2025-06-27,池田商事株式会社,,株式会社,神奈川県,横浜市保土ケ谷区,桜ケ丘２丁目５番１号,,14,106,2400011,,,,,,,2025-06-27,1,,,,,イケダショウジ,0
1191,6020001163573,新規,0,2025-06-27,2025-06-27,株式会社ｎａｇｉｓａ,,株式会社,神奈川県,川崎市高津区,坂戸１丁目７番９号,,14,134,2130012,,,,,,,2025-06-27,1,,,,,ナギサ,0
1192,6020001163581,新規,0,2025-06-27,2025-06-27,ＢＲＩＧＨＴ株式会社,,株式会社,神奈川県,横浜市戸塚区,戸塚町４９４６番地１レトワール１０３号,,14,110,2440003,,,,,,,2025-06-27,1,,,,,ブライト,0
1193,6020001163598,新規,0,2025-06-27,2025-06-27,株式会社ＦＬＡＴ,,株式会社,神奈川県,横浜市鶴見区,岸谷４丁目８番２７－４号,,14,101,2300078,,,,,,,2025-06-27,1,,,,,フラット,0
1196,6020003028808,新規,0,2025-06-27,2025-06-27,合同会社ＨＩＺＩＲＩ,,合同会社,神奈川県,横浜市鶴見区,尻手２丁目９－４－１０３,,14,101,2300003,,,,,,,2025-06-27,1,,,,,ヒジリ,0
1201,6021001085634,新規,0,2025-06-27,2025-06-27,株式会社守禮,,株式会社,神奈川県,平塚市,河内３０８番地の１船橋コーポ２０１号,,14,203,2540903,,,,,,,2025-06-27,1,,,,,シュレイ,0
1205,6021003016208,新規,0,2025-06-27,2025-06-27,合同会社ＴＦＭ,,合同会社,神奈川県,藤沢市,片瀬山１丁目６番３９号,,14,205,2510033,,,,,,,2025-06-27,1,,,,,ティーエフエム,0
1213,6030001167103,新規,0,2025-06-27,2025-06-27,株式会社グロビー,,株式会社,埼玉県,ふじみ野市,ふじみ野４丁目８番,,11,245,3560050,,,,,,,2025-06-27,1,,,,,グロビー,0
1218,6040001139415,新規,0,2025-06-27,2025-06-27,株式会社ＡＧＴ,,株式会社,千葉県,佐倉市,王子台１丁目１番１号,,12,212,2850837,,,,,,,2025-06-27,1,,,,,エイジィティ,0
1236,6070005010404,新規,0,2025-06-27,2025-06-27,群馬ＳＤＧｓ食糧計画事業協同組合,,その他の設立登記法人,群馬県,吾妻郡嬬恋村,大字田代６４６番地３,,10,425,3771614,,,,,,,2025-06-27,1,,,,,グンマエスディージーズショクリョウケイカク,0
1237,6080101025585,新規,0,2025-06-27,2025-06-27,株式会社篠原建設,,株式会社,静岡県,御殿場市,駒門１５８番地の１,,22,215,4120038,,,,,,,2025-06-27,1,,,,,シノハラケンセツ,0
1260,6120001276910,新規,0,2025-06-27,2025-06-27,株式会社クローバーリンク,,株式会社,大阪府,大阪市中央区,道修町４丁目５－５ハイフィールドビル４１４,,27,128,5410045,,,,,,,2025-06-27,1,,,,,クローバーリンク,0
1261,6120001277124,新規,0,2025-06-27,2025-06-27,日本紫瑞株式会社,,株式会社,大阪府,大阪市淀川区,加島４丁目４番３８号アイビーハイム加島３Ｄ,,27,123,5320031,,,,,,,2025-06-27,1,,,,,ニホンシズイ,0
1262,6120001277215,新規,0,2025-06-27,2025-06-27,日越総合サービス株式会社,,株式会社,大阪府,大阪市生野区,巽北２丁目５番３４号マック北巽別棟１Ｆ,00139728,27,116,5440004,,,,,,,2025-06-27,1,,,,,ニチエツソウゴウサービス,0
1263,6120001277264,新規,0,2025-06-27,2025-06-27,京むすび株式会社,,株式会社,大阪府,大阪市北区,梅田１丁目２番２号大阪駅前第２ビル１２－１２,,27,127,5300001,,,,,,,2025-06-27,1,,,,,キョウムスビ,0
1264,6120001277297,新規,0,2025-06-27,2025-06-27,幣爾株式会社,,株式会社,大阪府,大阪市城東区,東中浜３丁目１２番１０号,,27,118,5360023,,,,,,,2025-06-27,1,,,,,ベル,0
1268,6120101071939,新規,0,2025-06-27,2025-06-27,株式会社モノツー,,株式会社,大阪府,松原市,一津屋６丁目１５番２７号,,27,217,5800003,,,,,,,2025-06-27,1,,,,,モノツー,0
1269,6120101071947,新規,0,2025-06-27,2025-06-27,株式会社ＭＯＫＯＲＩ,,株式会社,大阪府,堺市中区,深阪６丁７番２３号,,27,142,5998253,,,,,,,2025-06-27,1,,,,,モコリ,0
1274,6130001079973,新規,0,2025-06-27,2025-06-27,メインデスク株式会社,,株式会社,京都府,久世郡久御山町,田井新荒見２６０番地１,,26,322,6130036,,,,,,,2025-06-27,1,,,,,メインデスク,0
1276,6130005017392,新規,0,2025-06-27,2025-06-27,一般社団法人日本疾患幹細胞学会,,その他の設立登記法人,京都府,京都市左京区,聖護院川原町５３番地,,26,103,6068397,,,,,,,2025-06-27,1,,,,,ニホンシッカンカンサイボウガッカイ,0
1285,6150001028219,新規,0,2025-06-27,2025-06-27,ユースタイルかしはら株式会社,,株式会社,奈良県,橿原市,中曽司町１９７番地の１３,,29,205,6340845,,,,,,,2025-06-27,1,,,,,ユースタイルカシハラ,0
1292,6180001167435,新規,0,2025-06-27,2025-06-27,株式会社ＣＬＥＡＲ,,株式会社,愛知県,名古屋市中村区,名駅４丁目２４番５号第２森ビル４０１,,23,105,4500002,,,,,,,2025-06-27,1,,,,,クリア,0
1293,6180001167451,新規,0,2025-06-27,2025-06-27,株式会社夢広場,,株式会社,愛知県,知多郡南知多町,大字内海１９,,23,445,4703321,,,,,,,2025-06-27,1,,,,,ユメヒロバ,0
1294,6180003028668,新規,0,2025-06-27,2025-06-27,合同会社サポートアルファー,,合同会社,愛知県,名古屋市中村区,太閤５丁目１０番２１号フジスター太閤３０５号,,23,105,4530801,,,,,,,2025-06-27,1,,,,,サポートアルファー,0
1308,6280001009445,新規,0,2025-06-27,2025-06-27,風舟株式会社,,株式会社,島根県,隠岐郡海士町,大字福井１３６５‐５,,32,525,6840404,,,,,,,2025-06-27,1,,,,,フーセン,0
1315,6290003017032,新規,0,2025-06-27,2025-06-27,ＭＩＺＵ　ａｒｔ　ａｎｄ　ｃｕｌｔｕｒｅ合同会社,,合同会社,福岡県,福岡市中央区,薬院３丁目１６番２６号西鉄薬院ビル５階,,40,133,8100022,,,,,,,2025-06-27,1,,,,,ミズアートアンドカルチャー,0
1325,6330001033332,新規,0,2025-06-27,2025-06-27,株式会社ＴＯＹＯＦＵＫＵ,,株式会社,熊本県,阿蘇郡南阿蘇村,大字中松３８８０番地５,,43,433,8691505,,,,,,,2025-06-27,1,,,,,トヨフク,0
1327,6360001035383,新規,0,2025-06-27,2025-06-27,株式会社ＩＺＡＫ,,株式会社,沖縄県,那覇市,西２丁目２１番１－４０５号ル・サンク那覇西街,,47,201,9000036,,,,,,,2025-06-27,1,,,,,イザック,0
1328,6360003015037,新規,0,2025-06-27,2025-06-27,合同会社Ａｂｌｏｏｍ　ｔｏ　ｈｅａｒｔｓ,,合同会社,沖縄県,中頭郡西原町,字翁長４６１番地（仲宗根アパート３０３号）,,47,329,9030117,,,,,,,2025-06-27,1,,,,,アブルームトゥハーツ,0
1341,6390001018030,新規,0,2025-06-27,2025-06-27,株式会社吾大建設,,株式会社,山形県,新庄市,大字鳥越１５１６番地,,06,205,9960041,,,,,,,2025-06-27,1,,,,,ゴダイケンセツ,0
1345,6430001094736,新規,0,2025-06-27,2025-06-27,株式会社デラスタイル,,株式会社,北海道,石狩市,花川北三条５丁目１４８番地２,,01,235,0613213,,,,,,,2025-06-27,1,,,,,デラスタイル,0
1346,6430001094744,新規,0,2025-06-27,2025-06-27,ＣＯＺＹ　ＳＴＡＹ北海道株式会社,,株式会社,北海道,札幌市中央区,南六条西２６丁目４番１０－９０１号,,01,101,0640806,,,,,,,2025-06-27,1,,,,,コージーステイホッカイドウ,0
1356,6500001026368,新規,0,2025-06-27,2025-06-27,株式会社中野電設,,株式会社,愛媛県,新居浜市,吉岡町９番１７号,,38,205,7920843,,,,,,,2025-06-27,1,,,,,ナカノデンセツ,0
1366,7010001256294,新規,0,2025-06-27,2025-06-27,株式会社オーディ,,株式会社,東京都,文京区,西片１丁目１４番４号,,13,105,1130024,,,,,,,2025-06-27,1,,,,,オーディ,0
1369,7010005040249,新規,0,2025-06-27,2025-06-27,一般社団法人長崎唐通事研究会,,その他の設立登記法人,東京都,中央区,日本橋蛎殻町１丁目１４番９号,,13,102,1030014,,,,,,,2025-06-27,1,,,,,ナガサキトウツウジケンキュウカイ,0
1374,7010401190820,新規,0,2025-06-27,2025-06-27,株式会社ＳＰＩＣ,,株式会社,東京都,港区,新橋４丁目２１番３号,,13,103,1050004,,,,,,,2025-06-27,1,,,,,スピック,0
1375,7010401191307,新規,0,2025-06-27,2025-06-27,天程株式会社,,株式会社,東京都,港区,浜松町２丁目７番１７号イーグル浜松町天翔オフィス浜松町大門５階５１４号室,,13,103,1050013,,,,,,,2025-06-27,1,,,,,テンテイ,0
1377,7010403035461,新規,0,2025-06-27,2025-06-27,泓和国際貿易合同会社,,合同会社,東京都,港区,赤坂２丁目８番１４－４０７号,,13,103,1070052,,,,,,,2025-06-27,1,,,,,ホウワコクサイボウエキ,0
1379,7010503007897,新規,0,2025-06-27,2025-06-27,合同会社ホリデイオプスマネージ,,合同会社,東京都,台東区,北上野２丁目２３－９イチロービル３階,,13,106,1100014,,,,,,,2025-06-27,1,,,,,ホリデイオプスマネージ,0
1387,7010903010039,新規,0,2025-06-27,2025-06-27,合同会社ＭＫＧ,,合同会社,東京都,世田谷区,船橋３丁目１０番１７号,,13,112,1560055,,,,,,,2025-06-27,1,,,,,エムケイジー,0
1391,7011001170295,新規,0,2025-06-27,2025-06-27,Ｖｉｒｇｏ　Ｐｒｉｎｃｅ株式会社,,株式会社,東京都,渋谷区,恵比寿４丁目２０番２号,,13,113,1500013,,,,,,,2025-06-27,1,,,,,ヴァーゴプリンス,0
1392,7011001170337,新規,0,2025-06-27,2025-06-27,株式会社ビープラスマーケティングラボ,,株式会社,東京都,渋谷区,東２丁目２４番３号,,13,113,1500011,,,,,,,2025-06-27,1,,,,,ビープラスマーケティングラボ,0
1396,7011101112206,新規,0,2025-06-27,2025-06-27,株式会社Ｃｉａｏ,,株式会社,東京都,新宿区,新宿５丁目１０－１５ＴｈｅＣｏｒｎｅｒＳＨＩＮＪＵＫＵ４階,,13,104,1600022,,,,,,,2025-06-27,1,,,,,チャオ,0
1397,7011101112230,新規,0,2025-06-27,2025-06-27,株式会社ＤＥＲＩＧＩＮＯ,,株式会社,東京都,新宿区,市谷台町１２－１２Ｂ１Ｆ,,13,104,1620066,,,,,,,2025-06-27,1,,,,,デリギノ,0
1398,7011103016017,新規,0,2025-06-27,2025-06-27,合同会社リーフペアＹ,,合同会社,東京都,新宿区,西新宿３丁目３番１３号,,13,104,1600023,,,,,,,2025-06-27,1,,,,,リーフペアワイ,0
1404,7011603004743,新規,0,2025-06-27,2025-06-27,合同会社プラスワン,,合同会社,東京都,練馬区,西大泉６丁目１９番１９号,,13,120,1780065,,,,,,,2025-06-27,1,,,,,プラスワン,0
1406,7011701028470,新規,0,2025-06-27,2025-06-27,東福タクシー株式会社,,株式会社,東京都,江戸川区,松島２丁目３７番７号,,13,123,1320031,,,,,,,2025-06-27,1,,,,,トウフクタクシー,0
1410,7012401043280,新規,0,2025-06-27,2025-06-27,株式会社Ｐａｗ,,株式会社,東京都,調布市,仙川町１丁目１３番地２３ＬＵＮＡＳＥＮＧＡＷＡ２階,,13,208,1820002,,,,,,,2025-06-27,1,,,,,パウ,0
1411,7012405005129,新規,0,2025-06-27,2025-06-27,一般社団法人一橋ＣＲＩＭＳＯＮアメリカンフットボールクラブ,,その他の設立登記法人,東京都,調布市,若葉町１丁目２２番地１,,13,208,1820003,,,,,,,2025-06-27,1,,,,,ヒトツバシクリムゾンアメリカンフットボールクラブ,0
1413,7012703003305,新規,0,2025-06-27,2025-06-27,合同会社ＰｏｌｉＴｉＣｏｎ,,合同会社,東京都,小平市,大沼町２丁目１６番３６号,,13,211,1870001,,,,,,,2025-06-27,1,,,,,ポリティコン,0
1415,7012803003782,新規,0,2025-06-27,2025-06-27,合同会社Ｍａｐｌｅ　Ｓｕｍｍｅｒ,,合同会社,東京都,立川市,曙町１丁目３７－６－Ｎ６１２,00139729,13,202,1900012,,,,,,,2025-06-27,1,,,,,メープルサマー,0
1419,7013301054517,新規,0,2025-06-27,2025-06-27,株式会社ＢＡＳＥＭＡＲＫＥＲ,,株式会社,東京都,豊島区,南池袋１丁目１６番１５号ダイヤゲート池袋５Ｆ,,13,116,1710022,,,,,,,2025-06-27,1,,,,,ベースマーカー,0
1420,7013305003726,新規,0,2025-06-27,2025-06-27,特定非営利活動法人おひとりさま終活支援協議会,,その他の設立登記法人,東京都,豊島区,駒込６丁目２６番１０号チェルナードパレス３０２号,,13,116,1700003,,,,,,,2025-06-27,1,,,,,オヒトリサマシュウカツシエンキョウギカイ,0
1434,7020001163556,新規,0,2025-06-27,2025-06-27,株式会社ＤＯＲＴＨＯ,,株式会社,神奈川県,川崎市宮前区,鷺沼３丁目９番地１２,,14,136,2160004,,,,,,,2025-06-27,1,,,,,ドルソ,0
1435,7020001163589,新規,0,2025-06-27,2025-06-27,Ｃｏｃｏｃｉａ株式会社,,株式会社,神奈川県,横浜市港南区,丸山台１丁目１１番１６号１階,,14,111,2330013,,,,,,,2025-06-27,1,,,,,ココシア,0
1442,7020003028798,新規,0,2025-06-27,2025-06-27,Ｂｏｏｍ　Ｈｅａｄｓ合同会社,,合同会社,神奈川県,横浜市中区,桜木町１丁目１０１番地１クロスゲート７階,,14,104,2310062,,,,,,,2025-06-27,1,,,,,ブームヘッズ,0
1449,7021005013391,新規,0,2025-06-27,2025-06-27,一般社団法人平和の杜ふじさわ,,その他の設立登記法人,神奈川県,藤沢市,円行８２７番地の６,,14,205,2520805,,,,,,,2025-06-27,1,,,,,ヘイワノモリフジサワ,0
1457,7030001167300,新規,0,2025-06-27,2025-06-27,株式会社ニューポート,,株式会社,埼玉県,川口市,本町４丁目１４番９－４０７号グランヴァンプレミアムイースト川口,,11,203,3320012,,,,,,,2025-06-27,1,,,,,ニューポート,0
1461,7040001139406,新規,0,2025-06-27,2025-06-27,ＤＩＭＥ株式会社,,株式会社,千葉県,木更津市,長須賀１３５０番地３,,12,206,2920054,,,,,,,2025-06-27,1,,,,,ダイム,0
1462,7040001139414,新規,0,2025-06-27,2025-06-27,ＲｉｖｅｒＦｉｅｌｄ株式会社,,株式会社,千葉県,鎌ケ谷市,鎌ケ谷１丁目７番３０号,,12,224,2730105,,,,,,,2025-06-27,1,,,,,リバーフィールド,0
1463,7040001139439,新規,0,2025-06-27,2025-06-27,株式会社ｉｔｅｃ,,株式会社,千葉県,八街市,八街は１番地３８６,,12,230,2891107,,,,,,,2025-06-27,1,,,,,アイテック,0
1465,7040003027930,新規,0,2025-06-27,2025-06-27,合同会社ＢＥＬＴＨ,,合同会社,千葉県,千葉市稲毛区,小仲台２丁目５番２号第一大越ビル９０５,,12,103,2630043,,,,,,,2025-06-27,1,,,,,ベルス,0
1470,7060001038333,新規,0,2025-06-27,2025-06-27,コダイラホールディングス株式会社,,株式会社,栃木県,宇都宮市,西川田町１１６４番地,,09,201,3210151,,,,,,,2025-06-27,1,,,,,コダイラホールディングス,0
1476,7090001019355,新規,0,2025-06-27,2025-06-27,株式会社オフィス大木,,株式会社,山梨県,中巨摩郡昭和町,西条１２７０番地１,,19,384,4093866,,,,,,,2025-06-27,1,,,,,オフィスオオキ,0
1489,7120001277247,新規,0,2025-06-27,2025-06-27,株式会社ＨＴ,,株式会社,大阪府,大阪市福島区,海老江１丁目１１番２－４０２号,,27,103,5530001,,,,,,,2025-06-27,1,,,,,エイチティー,0
1490,7120001277255,新規,0,2025-06-27,2025-06-27,株式会社アメニティ巽,,株式会社,大阪府,大阪市生野区,巽中２丁目２５番１８号,00139721,27,116,5440013,,,,,,,2025-06-27,1,,,,,アメニティタツミ,0
1495,7120003029456,新規,0,2025-06-27,2025-06-27,合同会社グローバル・ワン,,合同会社,大阪府,大阪市平野区,長吉出戸４丁目５番３８－５１０号,,27,126,5470011,,,,,,,2025-06-27,1,,,,,グローバルワン,0
1496,7120103006529,新規,0,2025-06-27,2025-06-27,合同会社彩り,,合同会社,大阪府,富田林市,若松町西２丁目１７３４番地２セブンフロアハイツ２Ｂ号室,,27,214,5840025,,,,,,,2025-06-27,1,,,,,イロドリ,0
1500,7120903005721,新規,0,2025-06-27,2025-06-27,合同会社安心クラブ,,合同会社,大阪府,池田市,菅原町２番４号ピースビル３０５号,,27,204,5630055,,,,,,,2025-06-27,1,,,,,アンシンクラブ,0
1501,7120905006750,新規,0,2025-06-27,2025-06-27,一般社団法人すまいろ,,その他の設立登記法人,大阪府,豊中市,緑丘４丁目７番２号,,27,203,5600002,,,,,,,2025-06-27,1,,,,,スマイロ,0
1503,7130003010571,新規,0,2025-06-27,2025-06-27,Ｌｉｇｈｔ　Ｇｉｖｅｒｓ合同会社,,合同会社,京都府,京都市下京区,四条通室町東入函谷鉾町１０１アーバンネット四条烏丸ビル６Ｆ・７Ｆ,,26,106,6008009,,,,,,,2025-06-27,1,,,,,ライトギバーズ,0
1507,7140001139065,新規,0,2025-06-27,2025-06-27,株式会社アーテリースタッフ,,株式会社,兵庫県,姫路市,飾東町佐良和４２５番地１,,28,201,6710217,,,,,,,2025-06-27,1,,,,,アーテリースタッフ,0
1508,7140001139098,新規,0,2025-06-27,2025-06-27,株式会社ＡＩＥＩ上下水道サービス,,株式会社,兵庫県,神戸市西区,玉津町高津橋２２６番地の１,,28,111,6512122,,,,,,,2025-06-27,1,,,,,アイエイジョウゲスイドウサービス,0
1518,7180001167434,新規,0,2025-06-27,2025-06-27,株式会社ＭＩＫＯＳＨＩ,,株式会社,愛知県,名古屋市中区,富士見町４番１２号（ワイズマホロバ２０１号）,,23,106,4600014,,,,,,,2025-06-27,1,,,,,ミコシ,0
1519,7180001167442,新規,0,2025-06-27,2025-06-27,株式会社エデンズガーデン,,株式会社,愛知県,名古屋市天白区,海老山町９０４番地の１,,23,116,4680042,,,,,,,2025-06-27,1,,,,,エデンズガーデン,0
1520,7180003028659,新規,0,2025-06-27,2025-06-27,ＮＥＸＵＳ　ＧＬＯＢＡＬ合同会社,,合同会社,愛知県,名古屋市港区,東土古町２丁目２０番地１浅野ビル４Ａ,,23,111,4550061,,,,,,,2025-06-27,1,,,,,ネクサスグローバル,0
1521,7180003028667,新規,0,2025-06-27,2025-06-27,合同会社ＩｎｋＬｉｎｅ　ｌａｂ,,合同会社,愛知県,名古屋市天白区,植田山５丁目２５２０番地へーベルメゾン植田山１０２号,,23,116,4680001,,,,,,,2025-06-27,1,,,,,インクラインラボ,0
1523,7180303006629,新規,0,2025-06-27,2025-06-27,ＣＬＯＶＥＲ　ＢＡＳＥ合同会社,,合同会社,愛知県,刈谷市,今岡町荒神４３番地１,,23,210,4480008,,,,,,,2025-06-27,1,,,,,クローバーベース,0
1530,7250001021212,新規,0,2025-06-27,2025-06-27,株式会社Ｆｅｒｎａ　Ｂａｙ,,株式会社,山口県,山口市,湯田温泉６丁目３番１４号山内ヴィラージュ湯田ＩＩ４０５号,00139730,35,203,7530056,,,,,,,2025-06-27,1,,,,,フェルナベイ,0
1531,7250003003761,新規,0,2025-06-27,2025-06-27,合同会社Ｌｕｃａ　Ｖｏｙａｇｅ,,合同会社,山口県,宇部市,大字上宇部１９３番地の９１,,35,202,7550091,,,,,,,2025-06-27,1,,,,,ルカボヤージュ,0
1543,7340003004882,新規,0,2025-06-27,2025-06-27,合同会社Ｔｏｕｒｍｕｇｕｅｔ,,合同会社,鹿児島県,薩摩川内市,隈之城町１６０番地３,,46,215,8950041,,,,,,,2025-06-27,1,,,,,トゥールミュゲ,0
1549,7360003015036,新規,0,2025-06-27,2025-06-27,５スター・ハウスキーピング合同会社,,合同会社,沖縄県,中頭郡北谷町,北谷１丁目６番５号－１Ｆ,,47,326,9040116,,,,,,,2025-06-27,1,,,,,,0
1550,7360003015052,新規,0,2025-06-27,2025-06-27,合同会社ＣＩＣ,,合同会社,沖縄県,豊見城市,字高嶺４０４番地１,,47,212,9010213,,,,,,,2025-06-27,1,,,,,シーアイシー,0
1556,7380001035406,新規,0,2025-06-27,2025-06-27,グリーンワーク株式会社,,株式会社,福島県,郡山市,大平町字簓田８５番地の１０６,,07,203,9638817,,,,,,,2025-06-27,1,,,,,グリーンワーク,0
1559,7390003002411,新規,0,2025-06-27,2025-06-27,合同会社拡散軒,,合同会社,山形県,米沢市,本町３丁目１－１７－２０２,,06,202,9920037,,,,,,,2025-06-27,1,,,,,,0
1564,7430001094735,新規,0,2025-06-27,2025-06-27,株式会社ＭＯアルク,,株式会社,北海道,江別市,大麻泉町１５番地５桂ハイツＡ,,01,217,0690864,,,,,,,2025-06-27,1,,,,,エムオーアルク,0
1565,7430001094743,新規,0,2025-06-27,2025-06-27,株式会社開択,,株式会社,北海道,札幌市中央区,南二条西５丁目３１‐１ＲＭＢｌｄ．７０１,,01,101,0600062,,,,,,,2025-06-27,1,,,,,カイタク,0
1571,7500001026367,新規,0,2025-06-27,2025-06-27,株式会社クリーンワールド,,株式会社,愛媛県,松山市,水泥町６４番地１,,38,201,7910244,,,,,,,2025-06-27,1,,,,,クリーンワールド,0
1581,8010001256046,新規,0,2025-06-27,2025-06-27,Ｓｔｏｒａｇｅ　Ｋｉｎｇ　ＴＯＫＹＯ株式会社,,株式会社,東京都,千代田区,内神田２丁目４番２号一広グローバルビル１００１号,,13,101,1010047,,,,,,,2025-06-27,1,,,,,ストレージキングトウキョウ,0
1582,8010001256211,新規,0,2025-06-27,2025-06-27,株式会社結乃ギフト,,株式会社,東京都,中央区,銀座３丁目１３番１９号,,13,102,1040061,,,,,,,2025-06-27,1,,,,,ユイノギフト,0
1583,8010001256285,新規,0,2025-06-27,2025-06-27,株式会社倉富佐原Ｍ＆Ａ事務所,,株式会社,東京都,千代田区,丸の内１丁目６番２号新丸の内センタービル２１階,,13,101,1000005,,,,,,,2025-06-27,1,,,,,クラトミサハラエムアンドエージムショ,0
1584,8010001256293,新規,0,2025-06-27,2025-06-27,ＩＮＡ　ｇｒｅｅｎｔｅｃｈ株式会社,,株式会社,東京都,中央区,銀座１丁目１２番４号Ｎ＆Ｅ・ＢＬＤ．７階,,13,102,1040061,,,,,,,2025-06-27,1,,,,,イナグリーンテック,0
1589,8010003047807,新規,0,2025-06-27,2025-06-27,中立研究・メディアセンター合同会社,,合同会社,東京都,千代田区,神田錦町３丁目７番２号東京堂錦町ビル７階,,13,101,1010054,,,,,,,2025-06-27,1,,,,,チュウリツケンキュウメディアセンター,0
1590,8010003047831,新規,0,2025-06-27,2025-06-27,アルキメデスラボ合同会社,,合同会社,東京都,文京区,千石４丁目１７－８立山ハイツ１０１,,13,105,1120011,,,,,,,2025-06-27,1,,,,,アルキメデスラボ,0
1604,8010401191272,新規,0,2025-06-27,2025-06-27,トライヤングル株式会社,,株式会社,東京都,港区,北青山２丁目７番１３号プラセオ青山ビル３階,,13,103,1070061,,,,,,,2025-06-27,1,,,,,トライヤングル,0
1605,8010401191314,新規,0,2025-06-27,2025-06-27,株式会社上医國際,,株式会社,東京都,港区,東麻布２丁目３番５号第一ビル４階,,13,103,1060044,,,,,,,2025-06-27,1,,,,,ショイコクサイ,0
1608,8010503007896,新規,0,2025-06-27,2025-06-27,合同会社パヤ,,合同会社,東京都,台東区,上野２丁目１２－１８池之端ヒロハイツ２階,,13,106,1100005,,,,,,,2025-06-27,1,,,,,パヤ,0
1621,8010903010038,新規,0,2025-06-27,2025-06-27,合同会社Ｍｏｎｏｔｏｎｅ,,合同会社,東京都,世田谷区,松原１丁目５２番８－２０１号,,13,112,1560043,,,,,,,2025-06-27,1,,,,,モノトーン,0
1625,8011001170377,新規,0,2025-06-27,2025-06-27,株式会社Ｃｏｒｄｉａ,,株式会社,東京都,渋谷区,恵比寿西２丁目４番８号ウィンド恵比寿８Ｆ,,13,113,1500021,,,,,,,2025-06-27,1,,,,,,0
1626,8011001170385,新規,0,2025-06-27,2025-06-27,株式会社セイソリュー,,株式会社,東京都,渋谷区,円山町５番３号ＭＩＥＵＸ渋谷ビル８階,,13,113,1500044,,,,,,,2025-06-27,1,,,,,セイソリュー,0
1627,8011101112196,新規,0,2025-06-27,2025-06-27,株式会社Ｍａｙｏｒｉｓｔａ,,株式会社,東京都,新宿区,西新宿３丁目３番１３号西新宿水間ビル６階,,13,104,1600023,,,,,,,2025-06-27,1,,,,,マヨリスタ,0
1628,8011101112246,新規,0,2025-06-27,2025-06-27,株式会社ＭＯＭＯＺＩＲＩ,,株式会社,東京都,新宿区,若葉１丁目１０番地１１ＳＫ四谷第２ビル１０２,,13,104,1600011,,,,,,,2025-06-27,1,,,,,モモジリ,0
1629,8011103016049,新規,0,2025-06-27,2025-06-27,合同会社Ｏ＆Ｙ,,合同会社,東京都,新宿区,西新宿３丁目３番１３号西新宿水間ビル６階,,13,104,1600023,,,,,,,2025-06-27,1,,,,,オーアンドワイ,0
1630,8011103016081,新規,0,2025-06-27,2025-06-27,合同会社ＹＵＩＢＩ,,合同会社,東京都,新宿区,新宿５丁目１１番３０号,,13,104,1600022,,,,,,,2025-06-27,1,,,,,ユイビ,0
1631,8011401027177,新規,0,2025-06-27,2025-06-27,株式会社ＣＴＷ,,株式会社,東京都,板橋区,本町３３－７第一千里１Ｆ,,13,119,1730001,,,,,,,2025-06-27,1,,,,,シーティーダブリュー,0
1632,8011401027219,新規,0,2025-06-27,2025-06-27,株式会社グッドランコントル,,株式会社,東京都,板橋区,成増１丁目２６番２号,,13,119,1750094,,,,,,,2025-06-27,1,,,,,グッドランコントル,0
1635,8011501032250,新規,0,2025-06-27,2025-06-27,株式会社Ｋ＆Ｎ,,株式会社,東京都,北区,赤羽西１丁目３０番１２号,,13,117,1150055,,,,,,,2025-06-27,1,,,,,ケーアンドエヌ,0
1636,8011603004750,新規,0,2025-06-27,2025-06-27,合同会社陶花,,合同会社,東京都,練馬区,豊玉上１丁目２５番５号,,13,120,1760011,,,,,,,2025-06-27,1,,,,,トウカ,0
1639,8011705001902,新規,0,2025-06-27,2025-06-27,一般社団法人川澄,,その他の設立登記法人,東京都,江戸川区,新堀１丁目１３番１１号,,13,123,1320001,,,,,,,2025-06-27,1,,,,,カワスミ,0
1640,8011803006927,新規,0,2025-06-27,2025-06-27,合同会社クレスト,,合同会社,東京都,葛飾区,青戸５丁目１３－１アルファコート青砥４・５０９,,13,122,1250062,,,,,,,2025-06-27,1,,,,,クレスト,0
1642,8012303002185,新規,0,2025-06-27,2025-06-27,合同会社ＳＹＴ,,合同会社,東京都,町田市,小山町６００４－８,,13,209,1940212,,,,,,,2025-06-27,1,,,,,,0
1644,8012703003304,新規,0,2025-06-27,2025-06-27,ＴｏｙｏＮｅｘｔ合同会社,,合同会社,東京都,西東京市,泉町３丁目１６番１４号,,13,229,2020011,,,,,,,2025-06-27,1,,,,,トーヨーネクスト,0
1645,8012801024045,新規,0,2025-06-27,2025-06-27,株式会社咲,,株式会社,東京都,武蔵村山市,大南２丁目５番地の４・１０３号,,13,223,2080013,,,,,,,2025-06-27,1,,,,,サク,0
1651,8013301054516,新規,0,2025-06-27,2025-06-27,ディトゥア株式会社,,株式会社,東京都,豊島区,東池袋２丁目１番７号ＯＳ共同ビル５０３号,,13,116,1700013,,,,,,,2025-06-27,1,,,,,ディトゥア,0
1659,8020001163522,新規,0,2025-06-27,2025-06-27,ＦＯＲＴＩＡ株式会社,,株式会社,神奈川県,横浜市西区,北幸２丁目１０－４８むつみビル,,14,103,2200004,,,,,,,2025-06-27,1,,,,,フォルティア,0
1662,8020003028789,新規,0,2025-06-27,2025-06-27,Ｊａｐａｎ　Ｉｎｓｐｅｃｔｉｏｎ　Ａｇｅｎｃｙ　Ｉｎｔｅｒｎａｔｉｏｎａｌ合同会社,,合同会社,神奈川県,横浜市緑区,いぶき野６７番地５２,,14,113,2260028,,,,,,,2025-06-27,1,,,,,ジャパンインスペクションエージェンシーインターナショナル,0
1664,8020005016908,新規,0,2025-06-27,2025-06-27,一般社団法人長閑ひより,,その他の設立登記法人,神奈川県,川崎市幸区,中幸町４丁目１９番地川崎パークホームズ９０４,,14,132,2120012,,,,,,,2025-06-27,1,,,,,ノドカヒヨリ,0
1676,8030003027006,新規,0,2025-06-27,2025-06-27,ダンスワーカー合同会社,,合同会社,埼玉県,鶴ヶ島市,大字上広谷１７６－１３コムステージ３０３,,11,241,3502203,,,,,,,2025-06-27,1,,,,,ダンスワーカー,0
1680,8040001139405,新規,0,2025-06-27,2025-06-27,株式会社Ｋ．Ｋサッシ,,株式会社,千葉県,鴨川市,天津１９１０番地,,12,223,2995503,,,,,,,2025-06-27,1,,,,,ケーケーサッシ,0
1683,8040003027847,新規,0,2025-06-27,2025-06-27,合同会社風見の社,,合同会社,千葉県,市川市,南大野１丁目４７－５６クレストフォルム市川ＷＳ２０５,,12,203,2720804,,,,,,,2025-06-27,1,,,,,カザミノヤシロ,0
1684,8040003027855,新規,0,2025-06-27,2025-06-27,ＹＵＳＨＩＮ　ＴＲＡＤＩＮＧ合同会社,,合同会社,千葉県,山武市,小松１６９番地４８Ｂ,,12,237,2891302,,,,,,,2025-06-27,1,,,,,ユシントレーディング,0
1688,8050001056855,新規,0,2025-06-27,2025-06-27,茨城学園不動産株式会社,,株式会社,茨城県,土浦市,生田町４番２１号,,08,203,3000047,,,,,,,2025-06-27,1,,,,,イバラキガクエンフドウサン,0
1699,8080101025583,新規,0,2025-06-27,2025-06-27,株式会社レインボー・エキスプレス,,株式会社,静岡県,御殿場市,西田中１９５番地の１,,22,215,4120027,,,,,,,2025-06-27,1,,,,,レインボーエキスプレス,0
1703,8090001019362,新規,0,2025-06-27,2025-06-27,株式会社山梨青果卸売市場,,株式会社,山梨県,山梨市,下井尻４４８番地１,,19,205,4050003,,,,,,,2025-06-27,1,,,,,ヤマナシセイカオロシウリシジョウ,0
1717,8120001277279,新規,0,2025-06-27,2025-06-27,勝山株式会社,,株式会社,大阪府,大阪市生野区,巽北１丁目２１番２９号３１１号室,,27,116,5440004,,,,,,,2025-06-27,1,,,,,カツヤマ,0
1718,8120001277312,新規,0,2025-06-27,2025-06-27,旭沃株式会社,,株式会社,大阪府,大阪市東成区,大今里３丁目１５番６号ＩｍａｚａｔｏＴｏｗｅｒ５１０Ｃ,,27,115,5370012,,,,,,,2025-06-27,1,,,,,キョクヨク,0
1721,8120003029868,新規,0,2025-06-27,2025-06-27,合同会社Ｌｉａｌａ,,合同会社,大阪府,大阪市北区,梅田１丁目２番２号大阪駅前第２ビル１２－１２,,27,127,5300001,,,,,,,2025-06-27,1,,,,,リアラ,0
1732,8130001079988,新規,0,2025-06-27,2025-06-27,株式会社ｅＮ,,株式会社,京都府,京都市中京区,河原町通三条下る２丁目北車屋町２６１番地１Ｒ．北車屋町０１１,,26,104,6048021,,,,,,,2025-06-27,1,,,,,エン,0
1734,8140001139048,新規,0,2025-06-27,2025-06-27,株式会社山本工業,,株式会社,兵庫県,三田市,学園７丁目２０番地２,,28,219,6691337,,,,,,,2025-06-27,1,,,,,ヤマモトコウギョウ,0
1735,8140001139056,新規,0,2025-06-27,2025-06-27,株式会社クロクラフト,,株式会社,兵庫県,神戸市東灘区,本山北町１丁目４番１７－６０６号,,28,101,6580003,,,,,,,2025-06-27,1,,,,,クロクラフト,0
1741,8160003003506,新規,0,2025-06-27,2025-06-27,合同会社河村総合研究所,,合同会社,滋賀県,草津市,野村５丁目９番３４－８１０号,,25,206,5250027,,,,,,,2025-06-27,1,,,,,カワムラソウゴウケンキュウショ,0
1742,8170001018686,新規,0,2025-06-27,2025-06-27,株式会社木下高野山研究所,,株式会社,和歌山県,伊都郡高野町,大字高野山４０１番地,,30,344,6480211,,,,,,,2025-06-27,1,,,,,キノシタコウヤサンケンキュウジョ,0
1753,8200001043945,新規,0,2025-06-27,2025-06-27,シンハ株式会社,,株式会社,岐阜県,大垣市,津村町１丁目９１０番地１,,21,202,5030003,,,,,,,2025-06-27,1,,,,,シンハ,0
1770,8290001110489,新規,0,2025-06-27,2025-06-27,株式会社三陽フードシステム,,株式会社,福岡県,福岡市中央区,長浜２丁目３番６号三陽長浜ビル,,40,133,8100072,,,,,,,2025-06-27,1,,,,,サンヨウフードシステム,0
1771,8290001110514,新規,0,2025-06-27,2025-06-27,株式会社咲福ツーリスト,,株式会社,福岡県,福岡市博多区,月隈１丁目５２２番１４２号,,40,132,8120858,,,,,,,2025-06-27,1,,,,,ショウフクツーリスト,0
1772,8290001110539,新規,0,2025-06-27,2025-06-27,津山株式会社,,株式会社,福岡県,福岡市東区,千早２丁目４３－２エクセル千早２０５号室,,40,131,8130044,,,,,,,2025-06-27,1,,,,,ツヤマ,0
1776,8330001033330,新規,0,2025-06-27,2025-06-27,株式会社ルーミナ,,株式会社,熊本県,天草市,北原町６番１７号,,43,215,8630049,,,,,,,2025-06-27,1,,,,,ルーミナ,0
1777,8330001033339,新規,0,2025-06-27,2025-06-27,株式会社若松家,,株式会社,熊本県,八代市,大手町２丁目１番３号,,43,202,8660852,,,,,,,2025-06-27,1,,,,,ワカマツヤ,0
1779,8340003004881,新規,0,2025-06-27,2025-06-27,合同会社一喜,,合同会社,鹿児島県,鹿屋市,笠之原町３番３号,,46,203,8930023,,,,,,,2025-06-27,1,,,,,イッキ,0
1786,8370001052748,新規,0,2025-06-27,2025-06-27,株式会社シーケーサービス,,株式会社,宮城県,仙台市宮城野区,幸町３丁目４番１９号,,04,102,9830836,,,,,,,2025-06-27,1,,,,,シーケーサービス,0
1787,8370001052756,新規,0,2025-06-27,2025-06-27,ＤＭＯ日本三景松島株式会社,,株式会社,宮城県,宮城郡松島町,松島字町内７５番地の１４,,04,401,9810213,,,,,,,2025-06-27,1,,,,,ディーエムオーニホンサンケイマツシマ,0
1788,8370003007171,新規,0,2025-06-27,2025-06-27,合同会社デジタル工房,,合同会社,宮城県,仙台市青葉区,中央４丁目３番４－９０１号,,04,101,9800021,,,,,,,2025-06-27,1,,,,,デジタルコウボウ,0
1790,8380001035405,新規,0,2025-06-27,2025-06-27,株式会社ＰｌｕｍＬｅａｆ,,株式会社,福島県,いわき市,小名浜字林ノ上１番地の５,,07,204,9718101,,,,,,,2025-06-27,1,,,,,プラムリーフ,0
1793,8390001018029,新規,0,2025-06-27,2025-06-27,國井株式会社,,株式会社,山形県,山形市,香澄町１丁目７番５号,,06,201,9900039,,,,,,,2025-06-27,1,,,,,クニイ,0
1794,8410001014198,新規,0,2025-06-27,2025-06-27,株式会社ＣＯＣＯＲＯＢＡ,,株式会社,秋田県,横手市,平鹿町下鍋倉字下掵１２４番地３,,05,203,0130103,,,,,,,2025-06-27,1,,,,,ココロバ,0
1797,8430003017809,新規,0,2025-06-27,2025-06-27,第三楽章合同会社,,合同会社,北海道,恵庭市,島松仲町３丁目７番３号,,01,231,0611352,,,,,,,2025-06-27,1,,,,,ダイサンガクショウ,0
1798,8430003017817,新規,0,2025-06-27,2025-06-27,カネショウ金子商店合同会社,,合同会社,北海道,札幌市東区,中沼町８３番地３０,,01,103,0070890,,,,,,,2025-06-27,1,,,,,カネショウカネコショウテン,0
1799,8430005015257,新規,0,2025-06-27,2025-06-27,特定非営利活動法人債務整理支援協会,,その他の設立登記法人,北海道,札幌市中央区,北四条西２７丁目１－１０ハイデンス赤坂２０２号室,,01,101,0640824,,,,,,,2025-06-27,1,,,,,サイムセイリシエンキョウカイ,0
1804,8490003002029,新規,0,2025-06-27,2025-06-27,合同会社稲穂,,合同会社,高知県,高知市,針木北１丁目７－２０－６,,39,201,7808087,,,,,,,2025-06-27,1,,,,,イナホ,0
1806,8500001026374,新規,0,2025-06-27,2025-06-27,株式会社Ｓ＆Ａ,,株式会社,愛媛県,新居浜市,庄内町５丁目２番２号,,38,205,7920811,,,,,,,2025-06-27,1,,,,,エスアンドエー,0
1819,9010001256219,新規,0,2025-06-27,2025-06-27,株式会社ＴＭ７１,,株式会社,東京都,千代田区,外神田２丁目１１番８号,,13,101,1010021,,,,,,,2025-06-27,1,,,,,ティーエムナナイチ,0
1820,9010001256227,新規,0,2025-06-27,2025-06-27,株式会社ｋｏｈａｋｕ,,株式会社,東京都,千代田区,丸の内１丁目１１番１号,,13,101,1000005,,,,,,,2025-06-27,1,,,,,コハク,0
1821,9010001256235,新規,0,2025-06-27,2025-06-27,株式会社ネクスリンク,,株式会社,東京都,千代田区,神田鍛冶町３丁目７－２１天翔神田駅前ビル５階５０６号室,,13,101,1010045,,,,,,,2025-06-27,1,,,,,ネクスリンク,0
1822,9010001256251,新規,0,2025-06-27,2025-06-27,株式会社Ｔｉｘｉｍａｘ,,株式会社,東京都,中央区,築地４丁目３番１２－１００２号,,13,102,1040045,,,,,,,2025-06-27,1,,,,,ティーシーマックス,0
1823,9010001256284,新規,0,2025-06-27,2025-06-27,マキシムホールディングス株式会社,,株式会社,東京都,中央区,日本橋蛎殻町１丁目３０番１１号ヨートービル３階,,13,102,1030014,,,,,,,2025-06-27,1,,,,,マキシムホールディングス,0
1824,9010001256292,新規,0,2025-06-27,2025-06-27,株式会社ＪＰＥＣ,,株式会社,東京都,千代田区,丸の内２丁目３番２号郵船ビルディング１階,,13,101,1000005,,,,,,,2025-06-27,1,,,,,ジェイペック,0
1825,9010001256301,新規,0,2025-06-27,2025-06-27,株式会社ＡＰＸ,,株式会社,東京都,千代田区,丸の内１丁目８番３号丸の内トラストタワー２０階,,13,101,1000005,,,,,,,2025-06-27,1,,,,,エーピーエックス,0
1834,9010401190819,新規,0,2025-06-27,2025-06-27,Ｅｎｓｈｉｎ株式会社,,株式会社,東京都,港区,新橋４丁目２１番３号,,13,103,1050004,,,,,,,2025-06-27,1,,,,,エンシン,0
1838,9010403035451,新規,0,2025-06-27,2025-06-27,グラファナラボ日本合同会社,,合同会社,東京都,港区,元麻布３丁目１番６号,,13,103,1060046,,,,,,,2025-06-27,1,,,,,グラファナラボニホン,0
1840,9010501054279,新規,0,2025-06-27,2025-06-27,尺渡株式会社,,株式会社,東京都,台東区,浅草橋５丁目１－３１ロッキービル２Ｆ,,13,106,1110053,,,,,,,2025-06-27,1,,,,,シャクド,0
1841,9010501054295,新規,0,2025-06-27,2025-06-27,瑞錦株式会社,,株式会社,東京都,台東区,松が谷２丁目１５番８号浅草Ｋ２ビル２０３号室,,13,106,1110036,,,,,,,2025-06-27,1,,,,,ズイキン,0
1842,9010501054304,新規,0,2025-06-27,2025-06-27,株式会社ライズジャパン,,株式会社,東京都,台東区,日本堤２丁目１１番５－３０３号,,13,106,1110021,,,,,,,2025-06-27,1,,,,,ライズジャパン,0
1843,9010501054312,新規,0,2025-06-27,2025-06-27,株式会社Ｎｅｖｏｌｉｓ,,株式会社,東京都,台東区,台東３丁目５番１０号－１０２－２Ｌ号室,,13,106,1100016,,,,,,,2025-06-27,1,,,,,ネヴォリス,0
1850,9010801036209,新規,0,2025-06-27,2025-06-27,株式会社アルブルエスト,,株式会社,東京都,大田区,蒲田５丁目１８番２号,,13,111,1440052,,,,,,,2025-06-27,1,,,,,アルブルエスト,0
1857,9011005011089,新規,0,2025-06-27,2025-06-27,一般社団法人グローバルデンタルウィング,,その他の設立登記法人,東京都,渋谷区,渋谷２丁目１番１２号４Ｆ,,13,113,1500002,,,,,,,2025-06-27,1,,,,,グローバルデンタルウィング,0
1860,9011101112212,新規,0,2025-06-27,2025-06-27,株式会社Ｐｅｎｋｅｙ,,株式会社,東京都,新宿区,西新宿３丁目３番１３号西新宿水間ビル２Ｆ,,13,104,1600023,,,,,,,2025-06-27,1,,,,,ペンキ,0
1861,9011101112229,新規,0,2025-06-27,2025-06-27,株式会社Ｍｙｔｈｅｒｉａ,,株式会社,東京都,新宿区,西新宿３丁目３番１３号西新宿水間ビル６階,,13,104,1600023,,,,,,,2025-06-27,1,,,,,ミセリア,0
1862,9011203004745,新規,0,2025-06-27,2025-06-27,フレンズ合同会社,,合同会社,東京都,中野区,弥生町５丁目２６番９号富士見町ビル７０１,,13,114,1640013,,,,,,,2025-06-27,1,,,,,フレンズ,0
1870,9012303002184,新規,0,2025-06-27,2025-06-27,合同会社Ｋプライド,,合同会社,東京都,町田市,大蔵町１８３番地１メルベーユオークラ３０１,,13,209,1950062,,,,,,,2025-06-27,1,,,,,,0
1871,9012401043279,新規,0,2025-06-27,2025-06-27,株式会社かのかの,,株式会社,東京都,狛江市,西野川１丁目４番５号,,13,219,2010001,,,,,,,2025-06-27,1,,,,,カノカノ,0
1873,9012803003780,新規,0,2025-06-27,2025-06-27,ＰＥＮＴＡＸ　Ｍｅｄｉｃａｌ合同会社,,合同会社,東京都,昭島市,つつじが丘１丁目１番１１０号,,13,207,1960012,,,,,,,2025-06-27,1,,,,,ペンタックスメディカル,0
1877,9013301054507,新規,0,2025-06-27,2025-06-27,イベトラル株式会社,,株式会社,東京都,豊島区,東池袋２丁目６２－８ＢＩＧオフィスプラザ池袋１２０６,,13,116,1700013,,,,,,,2025-06-27,1,,,,,イベトラル,0
1885,9020001163562,新規,0,2025-06-27,2025-06-27,株式会社ＭＵＮＤＯ,,株式会社,神奈川県,横浜市港南区,大久保２丁目３２番２４号,,14,111,2330007,,,,,,,2025-06-27,1,,,,,ムンド,0
1886,9020001163579,新規,0,2025-06-27,2025-06-27,株式会社ソラノモト,,株式会社,神奈川県,川崎市高津区,二子４丁目６番２５－４０２号グランディール高津,,14,134,2130002,,,,,,,2025-06-27,1,,,,,ソラノモト,0
1887,9020001163587,新規,0,2025-06-27,2025-06-27,株式会社ＳＧ‐Ｗｏｒｋｓ,,株式会社,神奈川県,横浜市港北区,大倉山６丁目１２番１７－２号,,14,109,2220037,,,,,,,2025-06-27,1,,,,,エスジーワークス,0
1889,9020003028805,新規,0,2025-06-27,2025-06-27,合同会社金田,,合同会社,神奈川県,横浜市都筑区,南山田２丁目２９番１５号,,14,118,2240029,,,,,,,2025-06-27,1,,,,,カネダ,0
1892,9021003016205,新規,0,2025-06-27,2025-06-27,合同会社一風,,合同会社,神奈川県,平塚市,紅谷町１１番１号,,14,203,2540043,,,,,,,2025-06-27,1,,,,,イップウ,0
1899,9030001167331,新規,0,2025-06-27,2025-06-27,Ｃ．Ａ．Ｔフロンティア株式会社,,株式会社,埼玉県,羽生市,中央１丁目１２番４号,,11,216,3480058,,,,,,,2025-06-27,1,,,,,シーエーティーフロンティア,0
1903,9030003027062,新規,0,2025-06-27,2025-06-27,合同会社松下,,合同会社,埼玉県,さいたま市中央区,下落合５丁目１９番７－１号,,11,105,3380002,,,,,,,2025-06-27,1,,,,,マツシタ,0
1907,9040001139429,新規,0,2025-06-27,2025-06-27,株式会社ＴＵＲＮＩＮＧ　ＯＮＥ,,株式会社,千葉県,浦安市,富士見１丁目４番１７－１０７号スプリングハウス,,12,227,2790043,,,,,,,2025-06-27,1,,,,,ターニングワン,0
1923,9080001027002,新規,0,2025-06-27,2025-06-27,株式会社Ｄ．Ｇ．Ｍ,,株式会社,静岡県,静岡市駿河区,南八幡町２３番２０号オラシオン南八幡Ｃ－１０１,,22,102,4228074,,,,,,,2025-06-27,1,,,,,ディージーエム,0
1926,9080401027997,新規,0,2025-06-27,2025-06-27,株式会社Ｔｒｅｅ　Ｂｅｌｌ,,株式会社,静岡県,浜松市中央区,富塚町１３８８番地の７８,,22,138,4328002,,,,,,,2025-06-27,1,,,,,ツリーベル,0
1931,9090001019361,新規,0,2025-06-27,2025-06-27,株式会社龍建,,株式会社,山梨県,甲府市,七沢町５０４番地２９,,19,201,4000825,,,,,,,2025-06-27,1,,,,,リュウケン,0
1946,9120001277162,新規,0,2025-06-27,2025-06-27,Ａｓｐｉｒａ株式会社,,株式会社,大阪府,大阪市中央区,久太郎町２丁目１番４－４００５号,,27,128,5410056,,,,,,,2025-06-27,1,,,,,アスピラ,0
1947,9120001277237,新規,0,2025-06-27,2025-06-27,株式会社ノブコーポレーション,,株式会社,大阪府,大阪市此花区,春日出北１丁目１番４－２０２号,,27,104,5540021,,,,,,,2025-06-27,1,,,,,ノブコーポレーション,0
1948,9120001277253,新規,0,2025-06-27,2025-06-27,新蜂株式会社,,株式会社,大阪府,大阪市東成区,中道１丁目５－２４－２０３,,27,115,5370025,,,,,,,2025-06-27,1,,,,,シンホウ,0
1949,9120001277261,新規,0,2025-06-27,2025-06-27,ＣｒｅＥｉｇｈｔ株式会社,,株式会社,大阪府,大阪市北区,梅田１丁目２番２号大阪駅前第２ビル１２－１２,,27,127,5300001,,,,,,,2025-06-27,1,,,,,クリエイト,0
1950,9120001277294,新規,0,2025-06-27,2025-06-27,株式会社日本天王商社,,株式会社,大阪府,大阪市東住吉区,杭全３丁目３番１６号,,27,121,5460002,,,,,,,2025-06-27,1,,,,,ニホンテンノウショウシャ,0
1955,9120101071936,新規,0,2025-06-27,2025-06-27,株式会社クロスカンパニー,,株式会社,大阪府,岸和田市,上野町東７－２０,,27,202,5960047,,,,,,,2025-06-27,1,,,,,クロスカンパニー,0
1956,9120101071944,新規,0,2025-06-27,2025-06-27,三森株式会社,,株式会社,大阪府,堺市北区,東三国ヶ丘町５丁６番９号,,27,146,5918046,,,,,,,2025-06-27,1,,,,,サンシン,0
1957,9120101071985,新規,0,2025-06-27,2025-06-27,株式会社ＦＩＣ,,株式会社,大阪府,岸和田市,上町５番２８号,,27,202,5960077,,,,,,,2025-06-27,1,,,,,エフアイシー,0
1963,9130001080012,新規,0,2025-06-27,2025-06-27,株式会社ｚｅｎｔｏ,,株式会社,京都府,京都市左京区,松ケ崎井出ケ海道町３番地１２コルザ河村６０１号,,26,103,6060931,,,,,,,2025-06-27,1,,,,,ゼント,0
1969,9140001139022,新規,0,2025-06-27,2025-06-27,株式会社アネモネ,,株式会社,兵庫県,西宮市,高座町６番１２号,,28,204,6620872,,,,,,,2025-06-27,1,,,,,アネモネ,0
1976,9180001167399,新規,0,2025-06-27,2025-06-27,イークリーン株式会社,,株式会社,愛知県,名古屋市港区,十一屋町６２１番地３１,,23,111,4550835,,,,,,,2025-06-27,1,,,,,イークリーン,0
1977,9180001167408,新規,0,2025-06-27,2025-06-27,株式会社リュクシス,,株式会社,愛知県,名古屋市千種区,唐山町３丁目３１番地１,,23,101,4640806,,,,,,,2025-06-27,1,,,,,リュクシス,0
1978,9180001167432,新規,0,2025-06-27,2025-06-27,株式会社タイヤサービス愛知,,株式会社,愛知県,名古屋市港区,当知２丁目１５０４番地,,23,111,4550804,,,,,,,2025-06-27,1,,,,,タイヤサービスアイチ,0
1979,9180003028665,新規,0,2025-06-27,2025-06-27,合同会社Ｉｍｙｅｅ,,合同会社,愛知県,愛知郡東郷町,清水１丁目１３番地６,,23,302,4700165,,,,,,,2025-06-27,1,,,,,アイミー,0
2001,9290801031652,新規,0,2025-06-27,2025-06-27,株式会社秋桜,,株式会社,福岡県,宮若市,上大隈４５０番地１８９,,40,226,8230005,,,,,,,2025-06-27,1,,,,,アキザクラ,0
2002,9330001033338,新規,0,2025-06-27,2025-06-27,ノボル藤本株式会社,,株式会社,熊本県,熊本市中央区,保田窪１丁目４番８号,,43,101,8620926,,,,,,,2025-06-27,1,,,,,ノボルフジモト,0
2007,9360001035397,新規,0,2025-06-27,2025-06-27,株式会社ＭＡコンサルタント,,株式会社,沖縄県,浦添市,伊祖３丁目４番１２－３０３号,,47,208,9012132,,,,,,,2025-06-27,1,,,,,エムエーコンサルタント,0
2014,9370001052755,新規,0,2025-06-27,2025-06-27,株式会社セントワン,,株式会社,宮城県,登米市,南方町山崎９６番地,,04,212,9870422,,,,,,,2025-06-27,1,,,,,セントワン,0
2025,9430003017790,新規,0,2025-06-27,2025-06-27,ファイブサミット合同会社,,合同会社,北海道,札幌市南区,石山三条６丁目１３番２５号,,01,106,0050843,,,,,,,2025-06-27,1,,,,,ファイブサミット,0
2026,9460101007724,新規,0,2025-06-27,2025-06-27,中札内飼料株式会社,,株式会社,北海道,河西郡中札内村,栄東２線２６０番地５,,01,638,0891366,,,,,,,2025-06-27,1,,,,,ナカサツナイシリョウ,0
2028,9500001026373,新規,0,2025-06-27,2025-06-27,株式会社おとわ,,株式会社,愛媛県,松山市,柳井町３丁目１番地２０,,38,201,7900014,,,,,,,2025-06-27,1,,,,,オトワ,0
