sequenceNumber,corporateNumber,process,correct,updateDate,changeDate,name,nameImageId,kind,prefectureName,cityName,streetNumber,addressImageId,prefectureCode,cityCode,postCode,addressOutside,addressOutsideImageId,closeDate,closeCause,successorCorporateNumber,changeCause,assignmentDate,latest,enName,enPrefectureName,enCityName,enAddressOutside,furigana,hihyoji
9,1010001261696,新規,0,2026-01-22,2026-01-22,株式会社ｆｒｅｖｉａ,,株式会社,東京都,中央区,銀座１丁目１２－４Ｎ＆ＥＢＬＤ．７階,,13,102,1040061,,,,,,,2026-01-22,1,,,,,フレビア,0
10,1010001261894,新規,0,2026-01-22,2026-01-22,株式会社Ｂｅｓｔ　Ｏｎｅ　ａｓｓｅｔ,,株式会社,東京都,中央区,京橋２丁目７番８号ＦＰＧ・ｌｉｎｋｓ・ＫＹＯＢＡＳＨＩ,,13,102,1040031,,,,,,,2026-01-22,1,,,,,ベストワンアセット,0
11,1010001262075,新規,0,2026-01-22,2026-01-22,株式会社桐山,,株式会社,東京都,中央区,銀座７丁目７番１２号ＺＸＧＩＮＺＡ７・１１階,,13,102,1040061,,,,,,,2026-01-22,1,,,,,キリヤマ,0
12,1010001262125,新規,0,2026-01-22,2026-01-22,グランディール株式会社,,株式会社,東京都,千代田区,西神田３丁目３番７号,,13,101,1010065,,,,,,,2026-01-22,1,,,,,グランディール,0
15,1010003050115,新規,0,2026-01-22,2026-01-22,合同会社此花ホテルオペレーションズ,,合同会社,東京都,中央区,日本橋１丁目４番１号,,13,102,1030027,,,,,,,2026-01-22,1,,,,,コノハナホテルオペレーションズ,0
17,1010005041244,新規,0,2026-01-22,2026-01-22,一般社団法人群馬安中太陽光発電２,,その他の設立登記法人,東京都,千代田区,神田三崎町３丁目３番２０号,,13,101,1010061,,,,,,,2026-01-22,1,,,,,グンマアンナカタイヨウコウハツデンニ,0
18,1010005041260,新規,0,2026-01-22,2026-01-22,此花ホテル一般社団法人,,その他の設立登記法人,東京都,中央区,日本橋１丁目４番１号,,13,102,1030027,,,,,,,2026-01-22,1,,,,,コノハナホテル,0
31,1010401195965,新規,0,2026-01-22,2026-01-22,Ａｕｔｈｅｎｓｅ　Ｃａｐｉｔａｌ株式会社,,株式会社,東京都,港区,赤坂９丁目７番１号ミッドタウン・タワー２２階,,13,103,1070052,,,,,,,2026-01-22,1,,,,,オーセンスキャピタル,0
41,1010403037091,新規,0,2026-01-22,2026-01-22,合同会社Ｓｉｎｇｕｌａｒ　Ｓｏｆｔｗａｒｅ　Ｊａｐａｎ,,合同会社,東京都,港区,西麻布１丁目４番４０号西麻布ＳＨＩＮＯビル４階,,13,103,1060031,,,,,,,2026-01-22,1,,,,,シンギュラーソフトウェアジャパン,0
42,1010403037117,新規,0,2026-01-22,2026-01-22,ＣＡＮＤＹ２合同会社,,合同会社,東京都,港区,虎ノ門５丁目１番４号,,13,103,1050001,,,,,,,2026-01-22,1,,,,,キャンディツー,0
43,1010405025268,新規,0,2026-01-22,2026-01-22,一般社団法人奥州市ふるさと会,,その他の設立登記法人,東京都,港区,南青山３丁目１番３６号青山丸竹ビル６階,,13,103,1070062,,,,,,,2026-01-22,1,,,,,オウシュウシフルサトカイ,0
79,1010501055342,新規,0,2026-01-22,2026-01-22,株式会社Ａｘｉｓ,,株式会社,東京都,台東区,上野１丁目１７番６号広小路ビル８階－Ｂ,,13,106,1100005,,,,,,,2026-01-22,1,,,,,アクシス,0
90,1011001174748,新規,0,2026-01-22,2026-01-22,Ｒｅｂｉｒｔｈｄａｙ株式会社,,株式会社,東京都,渋谷区,代々木１丁目４５番１３号ルネッサンス代々木８５－３０５号室,,13,113,1510053,,,,,,,2026-01-22,1,,,,,リバースデイ,0
93,1011003023358,新規,0,2026-01-22,2026-01-22,大三島ポニー合同会社,,合同会社,東京都,渋谷区,広尾１丁目１１番５－２１９号室,,13,113,1500012,,,,,,,2026-01-22,1,,,,,オオミシマポニー,0
98,1011203004934,新規,0,2026-01-22,2026-01-22,合同会社ＭＡＩＳＯＮ,,合同会社,東京都,中野区,中野５丁目６７－７プラザ中野２０１,,13,114,1640001,,,,,,,2026-01-22,1,,,,,メゾン,0
101,1011501033032,新規,0,2026-01-22,2026-01-22,株式会社リアル,,株式会社,東京都,北区,赤羽台１丁目４番１１－７１２号,,13,117,1150053,,,,,,,2026-01-22,1,,,,,リアル,0
181,1011603004988,新規,0,2026-01-22,2026-01-22,合同会社コスモス,,合同会社,東京都,練馬区,東大泉７丁目１４番２４号,,13,120,1780063,,,,,,,2026-01-22,1,,,,,コスモス,0
187,1011801047351,新規,0,2026-01-22,2026-01-22,望み株式会社,,株式会社,東京都,足立区,入谷１丁目２２番１１号,,13,121,1210836,,,,,,,2026-01-22,1,,,,,ノゾミ,0
202,1020001166498,新規,0,2026-01-22,2026-01-22,ｆａｍｉｌｌｅ株式会社,,株式会社,神奈川県,川崎市高津区,久本２丁目１１番１号パレステージ溝の口７０５,,14,134,2130011,,,,,,,2026-01-22,1,,,,,ファミーユ,0
203,1020001166812,新規,0,2026-01-22,2026-01-22,株式会社ＲＯＯＴＳ,,株式会社,神奈川県,川崎市中原区,上丸子山王町２丁目１３３２番地グランデュール山王１０２,,14,133,2110002,,,,,,,2026-01-22,1,,,,,ルーツ,0
206,1020003030099,新規,0,2026-01-22,2026-01-22,ＢＲＩＧＨＴＰＡＴＨ合同会社,,合同会社,神奈川県,横浜市中区,桜木町２丁目２港陽ビル３－５Ｆ,,14,104,2310062,,,,,,,2026-01-22,1,,,,,ブライトパス,0
207,1020003030140,新規,0,2026-01-22,2026-01-22,合同会社川崎アプレイザル,,合同会社,神奈川県,川崎市中原区,井田中ノ町３２番６－２０１号,,14,133,2110034,,,,,,,2026-01-22,1,,,,,カワサキアプレイザル,0
208,1020003030173,新規,0,2026-01-22,2026-01-22,合同会社ｋａｎａｋｏｏ,,合同会社,神奈川県,横浜市西区,北幸２丁目１０－４８むつみビル３階,,14,103,2200004,,,,,,,2026-01-22,1,,,,,カナコー,0
209,1020003030198,新規,0,2026-01-22,2026-01-22,合同会社ＹＲＳＫ,,合同会社,神奈川県,横浜市港北区,綱島東１丁目１０番４号イケモリビル１０階,,14,109,2230052,,,,,,,2026-01-22,1,,,,,ワイアールエスケー,0
210,1020003030231,新規,0,2026-01-22,2026-01-22,Ａｂｅｅ　Ｃｒａｆｔ　Ｌａｂ合同会社,,合同会社,神奈川県,川崎市麻生区,向原２丁目１４番３３号,,14,137,2150007,,,,,,,2026-01-22,1,,,,,アビークラフトラボ,0
215,1021001087271,新規,0,2026-01-22,2026-01-22,韻昇日本株式会社,,株式会社,神奈川県,秦野市,菩提９０番地,,14,211,2591302,,,,,,,2026-01-22,1,,,,,ユンシェンニホン,0
228,1040001142101,新規,0,2026-01-22,2026-01-22,株式会社拓健,,株式会社,千葉県,船橋市,松が丘５丁目２７番２号,,12,204,2740064,,,,,,,2026-01-22,1,,,,,,0
233,1040003029321,新規,0,2026-01-22,2026-01-22,ＳＹＮＣＲＩＳＥ合同会社,,合同会社,千葉県,柏市,豊四季７００番地１１グランディール２０２号室,,12,217,2770863,,,,,,,2026-01-22,1,,,,,シンクライズ,0
234,1040003029354,新規,0,2026-01-22,2026-01-22,Ｒ’ｓ　ＮＯＩＲ合同会社,,合同会社,千葉県,富里市,七栄６５０番地１７２６,,12,233,2860221,,,,,,,2026-01-22,1,,,,,アールエスノワール,0
235,1040003029362,新規,0,2026-01-22,2026-01-22,無限ＳＴ合同会社,,合同会社,千葉県,松戸市,二十世紀が丘萩町１７２,,12,207,2710086,,,,,,,2026-01-22,1,,,,,ムゲンエスティ,0
236,1040005023009,新規,0,2026-01-22,2026-01-22,一般社団法人ＦＬＡＧＳ,,その他の設立登記法人,千葉県,市原市,五井２２８５番地２,,12,219,2900056,,,,,,,2026-01-22,1,,,,,,0
237,1050001057892,新規,0,2026-01-22,2026-01-22,株式会社日宣キックス,,株式会社,茨城県,水戸市,白梅４丁目７番２２号,,08,201,3100804,,,,,,,2026-01-22,1,,,,,ニッセンキックス,0
251,1110001039827,新規,0,2026-01-22,2026-01-22,渡辺エンタープライズ株式会社,,株式会社,新潟県,新潟市南区,新飯田７１０番地,,15,106,9501455,,,,,,,2026-01-22,1,,,,,ワタナベエンタープライズ,0
261,1120001283498,新規,0,2026-01-22,2026-01-22,株式会社Ｄｒｅａｎｏ,,株式会社,大阪府,交野市,私部南４丁目９番３７号,,27,230,5760035,,,,,,,2026-01-22,1,,,,,ドリーノ,0
262,1120001283548,新規,0,2026-01-22,2026-01-22,ｔｍｈ株式会社,,株式会社,大阪府,大阪市住吉区,上住吉１丁目４番１３－１２０３号,,27,120,5580046,,,,,,,2026-01-22,1,,,,,ティーエムエイチ,0
263,1120001283556,新規,0,2026-01-22,2026-01-22,株式会社Ｋ．Ｅ．Ｎ,,株式会社,大阪府,大阪市西区,南堀江４丁目４番１８号南堀江エルムビル５階,,27,106,5500015,,,,,,,2026-01-22,1,,,,,ケン,0
264,1120001283647,新規,0,2026-01-22,2026-01-22,三洋商事株式会社,,株式会社,大阪府,大阪市中央区,谷町６丁目２－３７オークビル６０２,,27,128,5420012,,,,,,,2026-01-22,1,,,,,サンヨウショウジ,0
267,1120003031673,新規,0,2026-01-22,2026-01-22,合同会社ライフ,,合同会社,大阪府,大阪市都島区,網島町１２－１５－３０３,,27,102,5340026,,,,,,,2026-01-22,1,,,,,ライフ,0
270,1122001040111,新規,0,2026-01-22,2026-01-22,株式会社Ｋ‐ＷＯＲＫＳ,,株式会社,大阪府,八尾市,南木の本５丁目４９番地の１,,27,212,5810042,,,,,,,2026-01-22,1,,,,,ケーワークス,0
272,1130001081455,新規,0,2026-01-22,2026-01-22,株式会社未都輝,,株式会社,京都府,京都市西京区,松室追上ゲ町２２番地ハイツエリーＰａｒｔ２－５０２号室,,26,111,6158206,,,,,,,2026-01-22,1,,,,,ミツキ,0
274,1130003011088,新規,0,2026-01-22,2026-01-22,合同会社ＰＵＬＹＡ,,合同会社,京都府,京都市下京区,小稲荷町８５－２－２０１,,26,106,6008208,,,,,,,2026-01-22,1,,,,,プルヤ,0
282,1140001141423,新規,0,2026-01-22,2026-01-22,ｎａｔｕｒａｌ９株式会社,,株式会社,兵庫県,姫路市,西庄甲６７１番地８,,28,201,6700981,,,,,,,2026-01-22,1,,,,,ナチュラルナイン,0
283,1140001141464,新規,0,2026-01-22,2026-01-22,ｕｐ　Ｂｅａｔ株式会社,,株式会社,兵庫県,尼崎市,上ノ島町１丁目２８番５－２号,,28,202,6610014,,,,,,,2026-01-22,1,,,,,アップビート,0
284,1140003023124,新規,0,2026-01-22,2026-01-22,潤成合同会社,,合同会社,兵庫県,明石市,魚住町西岡９６４番３号,,28,203,6740084,,,,,,,2026-01-22,1,,,,,ジュンセイ,0
286,1160001027372,新規,0,2026-01-22,2026-01-22,株式会社Ｎ‐ＦＬＡＴ,,株式会社,滋賀県,彦根市,平田町２４３番地１,,25,202,5220041,,,,,,,2026-01-22,1,,,,,エヌフラット,0
292,1170003002372,新規,0,2026-01-22,2026-01-22,合同会社田村設備,,合同会社,和歌山県,紀の川市,貴志川町岸宮２７７－３,,30,208,6400405,,,,,,,2026-01-22,1,,,,,タムラセツビ,0
299,1180003029654,新規,0,2026-01-22,2026-01-22,アイヴァンス合同会社,,合同会社,愛知県,名古屋市天白区,平針５丁目６０８番地,,23,116,4680011,,,,,,,2026-01-22,1,,,,,アイヴァンス,0
304,1200001044644,新規,0,2026-01-22,2026-01-22,三幸財託株式会社,,株式会社,岐阜県,関市,大杉４７２番地５,,21,205,5013922,,,,,,,2026-01-22,1,,,,,サンコウザイタク,0
307,1240001066081,新規,0,2026-01-22,2026-01-22,株式会社Ｒｅａｎｇ,,株式会社,広島県,広島市中区,鉄砲町８番２４－７０４号,,34,101,7300017,,,,,,,2026-01-22,1,,,,,リアング,0
315,1290001112814,新規,0,2026-01-22,2026-01-22,アップライズホールディングス株式会社,,株式会社,福岡県,久留米市,荒木町白口１９１２番地１７,,40,203,8300062,,,,,,,2026-01-22,1,,,,,アップライズホールディングス,0
316,1290001112871,新規,0,2026-01-22,2026-01-22,株式会社ＯｒｉｇｉｎａｌＧａｒａｇｅ,,株式会社,福岡県,久留米市,山川追分１丁目４－９,,40,203,8390814,,,,,,,2026-01-22,1,,,,,オリジナルガレージ,0
317,1290001112905,新規,0,2026-01-22,2026-01-22,融達株式会社,,株式会社,福岡県,福岡市博多区,大博町７番３－８０１号ステイツ天神東３,,40,132,8120033,,,,,,,2026-01-22,1,,,,,ユウタツ,0
322,1290005019972,新規,0,2026-01-22,2026-01-22,一般社団法人黒幕,00142294,その他の設立登記法人,福岡県,糸島市,志摩新町２１番地３,,40,230,8191333,,,,,,,2026-01-22,1,,,,,クロマク,0
324,1300003002409,新規,0,2026-01-22,2026-01-22,合同会社中山工務店,,合同会社,佐賀県,鳥栖市,田代外町６９８番地５,,41,203,8410016,,,,,,,2026-01-22,1,,,,,ナカヤマコウムテン,0
326,1310003005170,新規,0,2026-01-22,2026-01-22,合同会社ＢＦＧ,,合同会社,長崎県,長崎市,三原２丁目１３番４０号Ｍ２ビル３０３号室,,42,201,8528123,,,,,,,2026-01-22,1,,,,,ビーエフジー,0
329,1320001021549,新規,0,2026-01-22,2026-01-22,株式会社池辺建築,,株式会社,大分県,日田市,大字石井町一丁目３３０番地１,,44,204,8770061,,,,,,,2026-01-22,1,,,,,イケベケンチク,0
340,1370001053414,新規,0,2026-01-22,2026-01-22,株式会社Ａｌｉｃｅコーポレーション,,株式会社,宮城県,富谷市,明石台７丁目１６番地８,,04,216,9813332,,,,,,,2026-01-22,1,,,,,アリスコーポレーション,0
343,1380003006237,新規,0,2026-01-22,2026-01-22,合同会社ｃｏｒａｔｉｃｕｍ,,合同会社,福島県,喜多方市,字大荒井９番地,,07,208,9660904,,,,,,,2026-01-22,1,,,,,,0
347,1420001019401,新規,0,2026-01-22,2026-01-22,株式会社ｂｅｅ．ｗｋｓ．,,株式会社,青森県,青森市,橋本１丁目２番１５号,,02,201,0300823,,,,,,,2026-01-22,1,,,,,ビーワークス,0
350,1430003018524,新規,0,2026-01-22,2026-01-22,合同会社オール・サービス,,合同会社,北海道,札幌市西区,西野六条７丁目７番５号,,01,107,0630036,,,,,,,2026-01-22,1,,,,,オールサービス,0
351,1430005015395,新規,0,2026-01-22,2026-01-22,一般財団法人ワイス国際学園都市財団,,その他の設立登記法人,北海道,岩内郡共和町,ワイス１４３８番地１,,01,401,0482141,,,,,,,2026-01-22,1,,,,,ワイスコクサイガクエントシザイダン,0
352,1440003001751,新規,0,2026-01-22,2026-01-22,合同会社ビリカ未来コーポレーション,,合同会社,北海道,山越郡長万部町,字双葉５番地２８３号,,01,347,0493501,,,,,,,2026-01-22,1,,,,,ビリカミライコーポレーション,0
360,1470001021063,新規,0,2026-01-22,2026-01-22,株式会社樫村,,株式会社,香川県,高松市,丸亀町１番地１,,37,201,7600029,,,,,,,2026-01-22,1,,,,,,0
365,1490001011260,新規,0,2026-01-22,2026-01-22,株式会社鳳,,株式会社,高知県,安芸郡東洋町,大字白浜２９番地,,39,301,7817413,,,,,,,2026-01-22,1,,,,,ホウ,0
375,2010001261778,新規,0,2026-01-22,2026-01-22,山佐ネクストＮＫＬＭ１リース株式会社,,株式会社,東京都,千代田区,丸の内１丁目４番１号東京共同会計事務所内,,13,101,1000005,,,,,,,2026-01-22,1,,,,,ヤマサネクストエヌケイエルエムワンリース,0
376,2010001261844,新規,0,2026-01-22,2026-01-22,株式会社Ｙ‐０１０,,株式会社,東京都,中央区,築地３丁目１３番１号,,13,102,1040045,,,,,,,2026-01-22,1,,,,,ワイゼロワンゼロ,0
377,2010001262108,新規,0,2026-01-22,2026-01-22,晴光株式会社,,株式会社,東京都,中央区,銀座１丁目１４番５号銀座ウイングビル北９階,,13,102,1040061,,,,,,,2026-01-22,1,,,,,セイコウ,0
382,2010003050114,新規,0,2026-01-22,2026-01-22,合同会社此花ホテルアセット,,合同会社,東京都,中央区,日本橋１丁目４番１号,,13,102,1030027,,,,,,,2026-01-22,1,,,,,コノハナホテルアセット,0
383,2010005041227,新規,0,2026-01-22,2026-01-22,一般社団法人自然未来医療研究会,,その他の設立登記法人,東京都,中央区,銀座１丁目２３－８,,13,102,1040061,,,,,,,2026-01-22,1,,,,,シゼンミライイリョウケンキュウカイ,0
384,2010005041243,新規,0,2026-01-22,2026-01-22,一般社団法人栃木市貝太陽光発電,,その他の設立登記法人,東京都,千代田区,神田三崎町３丁目３番２０号,,13,101,1010061,,,,,,,2026-01-22,1,,,,,トチギイチカイタイヨウコウハツデン,0
413,2010403037116,新規,0,2026-01-22,2026-01-22,ＣＡＮＤＹ１合同会社,,合同会社,東京都,港区,虎ノ門５丁目１番４号,,13,103,1050001,,,,,,,2026-01-22,1,,,,,キャンディワン,0
441,2010501055341,新規,0,2026-01-22,2026-01-22,株式会社ｎｕｉｍｉｅ,,株式会社,東京都,台東区,上野１丁目１７番６号広小路ビル８Ｆ－Ｂ,,13,106,1100005,,,,,,,2026-01-22,1,,,,,ヌイミー,0
449,2010901058811,新規,0,2026-01-22,2026-01-22,大野造形株式会社,,株式会社,東京都,世田谷区,桜新町１丁目３１番１８号コスモスパジオ桜新町１０３,,13,112,1540015,,,,,,,2026-01-22,1,,,,,オオノゾウケイ,0
462,2011101114479,新規,0,2026-01-22,2026-01-22,株式会社Ｆｉｏｒａ　Ｉｎｆｉｎｉｔｙ,,株式会社,東京都,新宿区,白銀町６番１－６２６号,,13,104,1620816,,,,,,,2026-01-22,1,,,,,フィオーラインフィニティ,0
464,2011201026913,新規,0,2026-01-22,2026-01-22,株式会社エルガーハウス,,株式会社,東京都,中野区,弥生町１丁目２７番５号,,13,114,1640013,,,,,,,2026-01-22,1,,,,,エルガーハウス,0
466,2011501033031,新規,0,2026-01-22,2026-01-22,株式会社濱健,00142295,株式会社,東京都,荒川区,西日暮里１丁目５０－６－３０２,,13,118,1160013,,,,,,,2026-01-22,1,,,,,ハマケン,0
548,2011801047350,新規,0,2026-01-22,2026-01-22,日本ビューティースプリング株式会社,,株式会社,東京都,葛飾区,亀有２丁目５４番１１号,,13,122,1250061,,,,,,,2026-01-22,1,,,,,ニホンビューティースプリング,0
552,2012401044036,新規,0,2026-01-22,2026-01-22,リヒトビル株式会社,,株式会社,東京都,狛江市,東野川１丁目２９番１２号,,13,219,2010002,,,,,,,2026-01-22,1,,,,,リヒトビル,0
556,2013301055643,新規,0,2026-01-22,2026-01-22,株式会社サイヴァント,,株式会社,東京都,豊島区,池袋２丁目５２番８号大河内ビル３階,,13,116,1710014,,,,,,,2026-01-22,1,,,,,サイヴァント,0
569,2020001166670,新規,0,2026-01-22,2026-01-22,株式会社ＤＳＫ,,株式会社,神奈川県,横浜市港南区,日野４丁目２４番２６号１０１号室,,14,111,2340051,,,,,,,2026-01-22,1,,,,,ディーエスケー,0
570,2020001166704,新規,0,2026-01-22,2026-01-22,株式会社ゼロコネクト,,株式会社,神奈川県,横浜市磯子区,森５丁目２‐２０‐１０３,,14,107,2350023,,,,,,,2026-01-22,1,,,,,ゼロコネクト,0
571,2020001166737,新規,0,2026-01-22,2026-01-22,株式会社ＢＨＩ　ＪＡＰＡＮ,,株式会社,神奈川県,川崎市川崎区,小田２丁目９番７号,,14,131,2100846,,,,,,,2026-01-22,1,,,,,ビーエイチアイジャパン,0
572,2020001166803,新規,0,2026-01-22,2026-01-22,株式会社ＲＹＱＵＡ,,株式会社,神奈川県,川崎市多摩区,宿河原４丁目２２番１７号,,14,135,2140021,,,,,,,2026-01-22,1,,,,,リクア,0
573,2020001166811,新規,0,2026-01-22,2026-01-22,株式会社曜軒,,株式会社,神奈川県,横浜市中区,花咲町１丁目４８番地３ロゼ桜木町４０６号,,14,104,2310063,,,,,,,2026-01-22,1,,,,,,0
578,2020003030148,新規,0,2026-01-22,2026-01-22,ビジネスグロースパートナー合同会社,,合同会社,神奈川県,川崎市宮前区,菅生２丁目５番４２－３０４号,,14,136,2160015,,,,,,,2026-01-22,1,,,,,ビジネスグロースパートナー,0
579,2020003030164,新規,0,2026-01-22,2026-01-22,Ｍａｓｈ　Ｗｏｒｋｓ合同会社,,合同会社,神奈川県,横浜市中区,弁天通３丁目４７番地２フロール横濱関内７０７,,14,104,2310007,,,,,,,2026-01-22,1,,,,,マッシュワークス,0
584,2021001087279,新規,0,2026-01-22,2026-01-22,株式会社ルミエックス,,株式会社,神奈川県,伊勢原市,日向７７７番地１,,14,214,2591101,,,,,,,2026-01-22,1,,,,,ルミエックス,0
593,2040001142190,新規,0,2026-01-22,2026-01-22,株式会社碧,,株式会社,千葉県,浦安市,富士見１丁目１５番１４号,,12,227,2790043,,,,,,,2026-01-22,1,,,,,アオ,0
598,2040003029353,新規,0,2026-01-22,2026-01-22,合同会社東京岡崎医学医療総合研究所,00142297,合同会社,千葉県,市原市,磯ケ谷１９７０番地２,,12,219,2900204,,,,,,,2026-01-22,1,,,,,トウキョウオカザキイガクイリョウソウゴウケンキュウジョ,0
600,2050001057818,新規,0,2026-01-22,2026-01-22,株式会社コンフォート,,株式会社,茨城県,水戸市,泉町３丁目７番３０－２０４号ラ・フォンテーヌ,,08,201,3100026,,,,,,,2026-01-22,1,,,,,コンフォート,0
601,2050001057891,新規,0,2026-01-22,2026-01-22,神栖グリーンパワープラント株式会社,,株式会社,茨城県,神栖市,奥野谷６１７０番５５,,08,232,3140116,,,,,,,2026-01-22,1,,,,,カミスグリーンパワープラント,0
603,2050005013750,新規,0,2026-01-22,2026-01-22,一般社団法人Ｂａｃｋ　ｔｏ　ｔｈｅ　Ｎａｔｕｒｅ,,その他の設立登記法人,茨城県,つくば市,二の宮１丁目１０番地２８,,08,220,3050051,,,,,,,2026-01-22,1,,,,,バックトゥザネイチャー,0
606,2080001027396,新規,0,2026-01-22,2026-01-22,株式会社Ａｓｅｎｄ　ＯＮＥ,,株式会社,静岡県,静岡市葵区,紺屋町１２番５号カプチーノビル５Ｆ,,22,101,4200852,,,,,,,2026-01-22,1,,,,,アセンドワン,0
615,2120001283480,新規,0,2026-01-22,2026-01-22,Ｄａｗｎ＆Ｃｏ株式会社,,株式会社,大阪府,大阪市都島区,中野町４丁目１７番１７号,,27,102,5340027,,,,,,,2026-01-22,1,,,,,ドーンアンドコー,0
616,2120001283497,新規,0,2026-01-22,2026-01-22,株式会社縁結び,,株式会社,大阪府,大阪市東淀川区,下新庄６丁目９－２０ノアーズアーク北大阪４０６号室,,27,114,5330021,,,,,,,2026-01-22,1,,,,,エンムスビ,0
617,2120001283547,新規,0,2026-01-22,2026-01-22,ＧＳＥ株式会社,,株式会社,大阪府,大阪市福島区,福島５丁目１６番１５号,,27,103,5530003,,,,,,,2026-01-22,1,,,,,ジーエスイー,0
618,2120001283555,新規,0,2026-01-22,2026-01-22,アーチ株式会社,,株式会社,大阪府,寝屋川市,末広町７番１８号,,27,215,5720009,,,,,,,2026-01-22,1,,,,,アーチ,0
619,2120001283563,新規,0,2026-01-22,2026-01-22,株式会社Ｂｌｏｏｍ　Ａｇｅｎｔ,,株式会社,大阪府,大阪市北区,中津１丁目６－２９ザ・セントラルマークタワー２６１５,,27,127,5310071,,,,,,,2026-01-22,1,,,,,ブルームエージェント,0
620,2120001283588,新規,0,2026-01-22,2026-01-22,自由漫歩株式会社,,株式会社,大阪府,大阪市浪速区,恵美須西３丁目１５番５号,,27,111,5560003,,,,,,,2026-01-22,1,,,,,ジユウマンポ,0
623,2120003031747,新規,0,2026-01-22,2026-01-22,駿誠合同会社,,合同会社,大阪府,大阪市東成区,神路４丁目６番１０－８０４号,,27,115,5370003,,,,,,,2026-01-22,1,,,,,シュンセイ,0
625,2120101073105,新規,0,2026-01-22,2026-01-22,株式会社マイトラシス,,株式会社,大阪府,岸和田市,畑町２丁目１番１１号,,27,202,5960831,,,,,,,2026-01-22,1,,,,,マイトラシス,0
626,2120101073113,新規,0,2026-01-22,2026-01-22,株式会社ＨＪ,,株式会社,大阪府,富田林市,平町２丁目８番４０号,,27,214,5840002,,,,,,,2026-01-22,1,,,,,エイチジェイ,0
629,2122001040102,新規,0,2026-01-22,2026-01-22,株式会社宮脇電装,,株式会社,大阪府,八尾市,福栄町１丁目３７番地の６,,27,212,5810844,,,,,,,2026-01-22,1,,,,,ミヤワキデンソウ,0
630,2122001040110,新規,0,2026-01-22,2026-01-22,株式会社ＬＩＯＣＡＲＥ．,,株式会社,大阪府,大東市,御供田５丁目６番２３号,,27,218,5740025,,,,,,,2026-01-22,1,,,,,リオケア,0
643,2140003023065,新規,0,2026-01-22,2026-01-22,合同会社ｍｏｚ,,合同会社,兵庫県,神戸市中央区,磯辺通１丁目１番１８号カサベラ国際プラザビル７０７号室,,28,110,6510084,,,,,,,2026-01-22,1,,,,,モズ,0
644,2140003023115,新規,0,2026-01-22,2026-01-22,Ａｒｉｔｅｌ　Ｎｅｔ合同会社,,合同会社,兵庫県,明石市,魚住町錦が丘４丁目７番地の１コーポ錦が丘５０３号,,28,203,6740081,,,,,,,2026-01-22,1,,,,,アリテルネット,0
663,2200001044651,新規,0,2026-01-22,2026-01-22,株式会社チロウ商事,,株式会社,岐阜県,高山市,初田町３丁目１８番地２,,21,203,5060008,,,,,,,2026-01-22,1,,,,,チロウショウジ,0
665,2200003007185,新規,0,2026-01-22,2026-01-22,合同会社アストレア,,合同会社,岐阜県,大垣市,横曽根３丁目２５６番地２サファイア２０２号,,21,202,5030944,,,,,,,2026-01-22,1,,,,,アストレア,0
683,2260003005489,新規,0,2026-01-22,2026-01-22,合同会社ライフクリエーション,,合同会社,岡山県,岡山市東区,宿毛１３０６,,33,103,7048133,,,,,,,2026-01-22,1,,,,,ライフクリエーション,0
685,2290001112879,新規,0,2026-01-22,2026-01-22,株式会社Ｇａｖａｒ,,株式会社,福岡県,福岡市早良区,百道浜２丁目３番２号ＴＮＣ放送会館３Ｆ,,40,137,8140001,,,,,,,2026-01-22,1,,,,,ガヴァル,0
686,2290001112895,新規,0,2026-01-22,2026-01-22,株式会社エイペックスオプト,,株式会社,福岡県,福岡市早良区,荒江２丁目１２番２３号　１４０１号,,40,137,8140021,,,,,,,2026-01-22,1,,,,,エイペックスオプト,0
687,2290001112904,新規,0,2026-01-22,2026-01-22,株式会社ＦＫフィールド,,株式会社,福岡県,福岡市中央区,舞鶴３丁目２－５－３階,,40,133,8100073,,,,,,,2026-01-22,1,,,,,エフケーフィールド,0
694,2290003017952,新規,0,2026-01-22,2026-01-22,合同会社ｉｒｕｋａ,,合同会社,福岡県,春日市,春日原北町１丁目８番２０４号室,,40,218,8160802,,,,,,,2026-01-22,1,,,,,イルカ,0
695,2290003017960,新規,0,2026-01-22,2026-01-22,合同会社オーバーホール,,合同会社,福岡県,福岡市早良区,曙１丁目１１番１２の５０４号,,40,137,8140004,,,,,,,2026-01-22,1,,,,,オーバーホール,0
702,2320001021548,新規,0,2026-01-22,2026-01-22,ゼンクラフト株式会社,,株式会社,大分県,大分市,府内町２丁目５番１号ＡＩＣ府内２５１ＢＬＤ２Ｆ,,44,201,8700021,,,,,,,2026-01-22,1,,,,,ゼンクラフト,0
712,2340003005076,新規,0,2026-01-22,2026-01-22,合同会社Ｔｏｐ　Ｔｈｉｎｋ,,合同会社,鹿児島県,霧島市,国分敷根２８２８番地,,46,218,8994462,,,,,,,2026-01-22,1,,,,,トップシンク,0
715,2380001035823,新規,0,2026-01-22,2026-01-22,株式会社Ａ．Ｓ．アブクマ,,株式会社,福島県,石川郡平田村,大字小松原字小滝原８５番地,,07,503,9638206,,,,,,,2026-01-22,1,,,,,エーエスアブクマ,0
717,2390001018224,新規,0,2026-01-22,2026-01-22,株式会社クラフト温泉寒河江製造局,,株式会社,山形県,寒河江市,中央工業団地６４番地,,06,206,9910061,,,,,,,2026-01-22,1,,,,,クラフトオンセンサガエセイゾウキョク,0
723,2430001096109,新規,0,2026-01-22,2026-01-22,株式会社ナイスプランニング,,株式会社,北海道,余市郡仁木町,北町１丁目２３番地,,01,407,0482405,,,,,,,2026-01-22,1,,,,,ナイスプランニング,0
724,2430005015394,新規,0,2026-01-22,2026-01-22,一般社団法人札幌映像機材博物館,,その他の設立登記法人,北海道,札幌市白石区,平和通２丁目南１番６号,,01,104,0030028,,,,,,,2026-01-22,1,,,,,サッポロエイゾウキザイハクブツカン,0
737,2480001013059,新規,0,2026-01-22,2026-01-22,株式会社Ｒｏａｒ,,株式会社,徳島県,徳島市,秋田町１丁目１０番地アトラスＩＩ３階,00142296,36,201,7700934,,,,,,,2026-01-22,1,,,,,ロア,0
751,3010001261777,新規,0,2026-01-22,2026-01-22,エクト共創研究所株式会社,,株式会社,東京都,中央区,東日本橋２丁目２８番４号日本橋ＣＥＴビル２階,,13,102,1030004,,,,,,,2026-01-22,1,,,,,エクトキョウソウケンキュウジョ,0
752,3010001261843,新規,0,2026-01-22,2026-01-22,株式会社Ｌａｒｃｏ,,株式会社,東京都,中央区,晴海５丁目５番５－４０８号,,13,102,1040053,,,,,,,2026-01-22,1,,,,,ラルコ,0
753,3010001262107,新規,0,2026-01-22,2026-01-22,Ｄｉｒｅｘｉｏｎ　Ｊａｐａｎ株式会社,,株式会社,東京都,中央区,日本橋３丁目９番１号日本橋三丁目スクエア１１階,,13,102,1030027,,,,,,,2026-01-22,1,,,,,ディレクションジャパン,0
756,3010005041242,新規,0,2026-01-22,2026-01-22,一般社団法人山口由宇太陽光発電,,その他の設立登記法人,東京都,千代田区,神田三崎町３丁目３番２０号,,13,101,1010061,,,,,,,2026-01-22,1,,,,,ヤマグチユウタイヨウコウハツデン,0
757,3010005041250,新規,0,2026-01-22,2026-01-22,ＮＴＴグローバルデータセンターＳＨＲ３‐Ｃ特定目的会社,,その他の設立登記法人,東京都,中央区,日本橋１丁目４番１号日本橋一丁目ビルディング,,13,102,1030027,,,,,,,2026-01-22,1,,,,,エヌティティグローバルデータセンターエスエイチアールスリーシー,0
770,3010101017047,新規,0,2026-01-22,2026-01-22,株式会社キャメロン,,株式会社,東京都,八王子市,子安町１丁目３２番１６号,,13,201,1920904,,,,,,,2026-01-22,1,,,,,キャメロン,0
778,3010103002740,新規,0,2026-01-22,2026-01-22,ＫＡＬＡＶＩＮＫＡ　ＷＯＲＫＳ合同会社,,合同会社,東京都,八王子市,片倉町５３４―Ａ,,13,201,1920914,,,,,,,2026-01-22,1,,,,,カラビンカワークス,0
789,3010405025183,新規,0,2026-01-22,2026-01-22,旭橋ホールディング２一般社団法人,,その他の設立登記法人,東京都,港区,虎ノ門３丁目２２番１０－２０１号,,13,103,1050001,,,,,,,2026-01-22,1,,,,,アサヒバシホールディングツー,0
818,3010501055349,新規,0,2026-01-22,2026-01-22,株式会社明和,,株式会社,東京都,台東区,元浅草３丁目１３番２号アベニールさかもと,,13,106,1110041,,,,,,,2026-01-22,1,,,,,メイワ,0
831,3010703008088,新規,0,2026-01-22,2026-01-22,合同会社ＭＡＳＴＥＲ　ＭＩＮＤ,,合同会社,東京都,品川区,北品川２丁目１１－９ＣｏｎｗｏｏｄＫＩＴＡＳＨＩＮＡＧＡＷＡ３０２,,13,109,1400001,,,,,,,2026-01-22,1,,,,,マスターマインド,0
832,3010803005695,新規,0,2026-01-22,2026-01-22,合同会社ＫＴＭ　Ｃｏｒａｚｏｎ,,合同会社,東京都,大田区,西嶺町１１番１７号,,13,111,1450075,,,,,,,2026-01-22,1,,,,,ケーティーエムコラソン,0
836,3010901058802,新規,0,2026-01-22,2026-01-22,株式会社カモノハシワークス,,株式会社,東京都,世田谷区,世田谷１丁目４６番１２号,,13,112,1540017,,,,,,,2026-01-22,1,,,,,カモノハシワークス,0
846,3011003023422,新規,0,2026-01-22,2026-01-22,合同会社Ｌｕｎａｄａｙ,,合同会社,東京都,目黒区,下目黒１丁目１番１４号コノトラビル７階,,13,110,1530064,,,,,,,2026-01-22,1,,,,,ルナデイ,0
849,3011101114602,新規,0,2026-01-22,2026-01-22,ＡＬＬＭＡＮＡＧＥ株式会社,,株式会社,東京都,新宿区,新宿５丁目１８番２０－８０３号,,13,104,1600022,,,,,,,2026-01-22,1,,,,,オールマネージ,0
852,3011403005004,新規,0,2026-01-22,2026-01-22,合同会社シービジョンズ,,合同会社,東京都,板橋区,大山西町６４番８号,,13,119,1730033,,,,,,,2026-01-22,1,,,,,シービジョンズ,0
938,3013305003820,新規,0,2026-01-22,2026-01-22,一般社団法人文理佐藤バンタン学園準備室,,その他の設立登記法人,東京都,豊島区,東池袋３丁目９番３号,,13,116,1700013,,,,,,,2026-01-22,1,,,,,ブンリサトウバンタンガクエンジュンビシツ,0
945,3020001166802,新規,0,2026-01-22,2026-01-22,株式会社Ｓｕｎｒｉｓｅ　Ｅｓｔａｔｅ,,株式会社,神奈川県,川崎市川崎区,砂子２丁目６番地１３武藤時計ビル３階,,14,131,2100006,,,,,,,2026-01-22,1,,,,,サンライズエステート,0
946,3020001166810,新規,0,2026-01-22,2026-01-22,株式会社Ｙ’ｓ　Ｍａｋｅｒ,,株式会社,神奈川県,横浜市緑区,長津田７丁目２番２－２号,,14,113,2260027,,,,,,,2026-01-22,1,,,,,ワイズメーカー,0
950,3020003030196,新規,0,2026-01-22,2026-01-22,ＴＳパートナーズ合同会社,,合同会社,神奈川県,横浜市中区,住吉町１丁目５番地メイフェア横濱関内１１０１号室,,14,104,2310013,,,,,,,2026-01-22,1,,,,,ティーエスパートナーズ,0
954,3021001087278,新規,0,2026-01-22,2026-01-22,Ｆｕｋｕｙａｍａ　Ｏｎｌｉｎｅ株式会社,,株式会社,神奈川県,平塚市,八重咲町２３番３３－３０２号クレストコート平塚八重咲,,14,203,2540811,,,,,,,2026-01-22,1,,,,,フクヤマオンライン,0
962,3030001170539,新規,0,2026-01-22,2026-01-22,株式会社小池土建,,株式会社,埼玉県,さいたま市岩槻区,大字尾ヶ崎９８０番地４,,11,110,3390027,,,,,,,2026-01-22,1,,,,,コイケドケン,0
963,3030001170687,新規,0,2026-01-22,2026-01-22,ＳＯＲＡ株式会社,,株式会社,埼玉県,さいたま市見沼区,大字小深作３６７番地１大宮東パーク・ホームズ３０１,,11,104,3370005,,,,,,,2026-01-22,1,,,,,ソラ,0
969,3040001142198,新規,0,2026-01-22,2026-01-22,ネットサイドキック株式会社,,株式会社,千葉県,柏市,藤ケ谷５４７番地４,,12,217,2770931,,,,,,,2026-01-22,1,,,,,ネットサイドキック,0
974,3040003029278,新規,0,2026-01-22,2026-01-22,Ｃａｎｃｅｒ　Ｗｏｒｋ‐Ｌｉｆｅ　Ｂａｌａｎｃｅ合同会社,,合同会社,千葉県,佐倉市,ユーカリが丘１丁目１２番６号,,12,212,2850858,,,,,,,2026-01-22,1,,,,,キャンサーワークライフバランス,0
976,3050003009808,新規,0,2026-01-22,2026-01-22,合同会社ＯＨ．ＫＩＭＯＮＯ３３７,,合同会社,茨城県,鉾田市,安房１１０５番地３４,,08,234,3111504,,,,,,,2026-01-22,1,,,,,,0
982,3070001043757,新規,0,2026-01-22,2026-01-22,８３１株式会社,,株式会社,群馬県,高崎市,倉賀野町２４５９番地１,,10,202,3701201,,,,,,,2026-01-22,1,,,,,ハチサンイチ,0
998,3120001283546,新規,0,2026-01-22,2026-01-22,株式会社Ｌｏｗｋｅｙ　Ｌｏｃａｌ,,株式会社,大阪府,大阪市北区,梅田１丁目２番２号大阪駅前第２ビル１２－１２,,27,127,5300001,,,,,,,2026-01-22,1,,,,,ローキーローカル,0
999,3120001283570,新規,0,2026-01-22,2026-01-22,株式会社コアイールド,,株式会社,大阪府,大阪市北区,梅田１丁目１番３号大阪駅前第三ビル２３０７,,27,127,5300001,,,,,,,2026-01-22,1,,,,,コアイールド,0
1000,3120001283587,新規,0,2026-01-22,2026-01-22,株式会社Ａｌｐｉｎｅ　Ｌｕｘｅ,,株式会社,大阪府,大阪市北区,天満２丁目１－１２,,27,127,5300043,,,,,,,2026-01-22,1,,,,,アルパインルクス,0
1001,3120001283595,新規,0,2026-01-22,2026-01-22,ジオストラテクス株式会社,,株式会社,大阪府,大阪市中央区,平野町２丁目５番８号平野町センチュリービル３階,,27,128,5410046,,,,,,,2026-01-22,1,,,,,ジオストラテクス,0
1006,3120003031738,新規,0,2026-01-22,2026-01-22,光翔合同会社,,合同会社,大阪府,大阪市西区,南堀江４丁目１番１６－２０４号,,27,106,5500015,,,,,,,2026-01-22,1,,,,,コウショウ,0
1007,3120005025366,新規,0,2026-01-22,2026-01-22,一般社団法人モアナ,,その他の設立登記法人,大阪府,交野市,倉治４丁目１６番１７号,,27,230,5760051,,,,,,,2026-01-22,1,,,,,モアナ,0
1015,3130005017560,新規,0,2026-01-22,2026-01-22,一般社団法人保護団体ｄ＆ｈｕｍａｎ,,その他の設立登記法人,京都府,船井郡京丹波町,質美下祠田２１番地１,,26,407,6220332,,,,,,,2026-01-22,1,,,,,ホゴダンタイダンドヒューマン,0
1016,3130005017569,新規,0,2026-01-22,2026-01-22,医療法人ほりなか耳鼻咽喉科,,その他の設立登記法人,京都府,木津川市,梅美台２丁目１０番地１２,,26,214,6190215,,,,,,,2026-01-22,1,,,,,ホリナカジビインコウカ,0
1025,3140001141470,新規,0,2026-01-22,2026-01-22,株式会社梅乃家,,株式会社,兵庫県,美方郡香美町,香住区下浜３０８番地の１,,28,585,6696564,,,,,,,2026-01-22,1,,,,,ウメノヤ,0
1034,3170001018955,新規,0,2026-01-22,2026-01-22,リズムの森株式会社,,株式会社,和歌山県,和歌山市,府中４９７番地１,,30,201,6496338,,,,,,,2026-01-22,1,,,,,リズムノモリ,0
1058,3200001044642,新規,0,2026-01-22,2026-01-22,トータルマネジメント株式会社,,株式会社,岐阜県,岐阜市,河渡１丁目１８６番地,,21,201,5010105,,,,,,,2026-01-22,1,,,,,トータルマネジメント,0
1067,3260003005488,新規,0,2026-01-22,2026-01-22,合同会社ＯＲＤＥＲ＆ＪＯＹ,,合同会社,岡山県,岡山市北区,柳町１丁目９番７号,,33,101,7000904,,,,,,,2026-01-22,1,,,,,オーダーアンドジョイ,0
1073,3290001112853,新規,0,2026-01-22,2026-01-22,株式会社ジェントルフィットネス,,株式会社,福岡県,福岡市中央区,天神４丁目６番２８号いちご天神ノースビル７階,,40,133,8100001,,,,,,,2026-01-22,1,,,,,ジェントルフィットネス,0
1074,3290001112886,新規,0,2026-01-22,2026-01-22,株式会社イーソフト,,株式会社,福岡県,福岡市西区,石丸１丁目４番９－７０１号ロワールマンション新室見,,40,135,8190025,,,,,,,2026-01-22,1,,,,,イーソフト,0
1077,3290003017951,新規,0,2026-01-22,2026-01-22,合同会社ＬＥＡＤＥＲ,,合同会社,福岡県,福岡市東区,唐原３丁目２０番６号,,40,131,8130001,,,,,,,2026-01-22,1,,,,,リーダー,0
1078,3290003017968,新規,0,2026-01-22,2026-01-22,日本のマーカス合同会社,,合同会社,福岡県,福岡市東区,和白東５丁目６番２号,,40,131,8110214,,,,,,,2026-01-22,1,,,,,ニホンノマーカス,0
1083,3300001014486,新規,0,2026-01-22,2026-01-22,株式会社杏家,,株式会社,佐賀県,佐賀市,久保泉町大字上和泉１７５７番地１,,41,201,8490902,,,,,,,2026-01-22,1,,,,,キョウヤ,0
1085,3300005007288,新規,0,2026-01-22,2026-01-22,一般社団法人みやき町地域スポーツ・文化クラブ,,その他の設立登記法人,佐賀県,三養基郡みやき町,大字東尾６４３６番地２,,41,346,8490113,,,,,,,2026-01-22,1,,,,,ミヤキマチチイキスポーツブンカクラブ,0
1091,3350003005124,新規,0,2026-01-22,2026-01-22,合同会社ＩＭＳ,,合同会社,宮崎県,宮崎市,大字赤江１５１９番地１０,,45,201,8800912,,,,,,,2026-01-22,1,,,,,アイエムエス,0
1100,3400001017297,新規,0,2026-01-22,2026-01-22,株式会社ソアレ,,株式会社,岩手県,奥州市,江刺岩谷堂字北田８３番地５,,03,215,0231101,,,,,,,2026-01-22,1,,,,,ソアレ,0
1107,3430001096099,新規,0,2026-01-22,2026-01-22,株式会社井坪設備,,株式会社,北海道,札幌市北区,西茨戸六条１丁目５番１２号,,01,102,0028036,,,,,,,2026-01-22,1,,,,,イツボセツビ,0
1108,3430001096108,新規,0,2026-01-22,2026-01-22,株式会社ｍａｋｏｔｏｓｏｆｔ,,株式会社,北海道,札幌市中央区,大通西１８丁目１番地４５エステート大通２０２号,,01,101,0600042,,,,,,,2026-01-22,1,,,,,マコトソフト,0
1110,3430003018489,新規,0,2026-01-22,2026-01-22,ＥＩＭＹ　ＢＥＡＵＴＹ合同会社,,合同会社,北海道,札幌市清田区,里塚緑ケ丘６丁目１－８,,01,110,0040805,,,,,,,2026-01-22,1,,,,,エイミービューティー,0
1111,3430003018530,新規,0,2026-01-22,2026-01-22,合同会社山鼻技術士事務所,,合同会社,北海道,札幌市中央区,南十条西１４丁目２番６－３０１号,,01,101,0640810,,,,,,,2026-01-22,1,,,,,ヤマハナギジュツシジムショ,0
1129,4010001261792,新規,0,2026-01-22,2026-01-22,株式会社トレジャーシップジャパン,,株式会社,東京都,中央区,勝どき４丁目６番２号,,13,102,1040054,,,,,,,2026-01-22,1,,,,,トレジャーシップジャパン,0
1130,4010001261925,新規,0,2026-01-22,2026-01-22,株式会社ダブリュー・ディー,,株式会社,東京都,文京区,本郷４丁目１６番６号天翔オフィス後楽園３０４,,13,105,1130033,,,,,,,2026-01-22,1,,,,,ダブリューディー,0
1131,4010003050079,新規,0,2026-01-22,2026-01-22,ＮＭＣファイブ合同会社,,合同会社,東京都,千代田区,内幸町１丁目３番３号,,13,101,1000011,,,,,,,2026-01-22,1,,,,,エヌエムシーファイブ,0
1132,4010003050104,新規,0,2026-01-22,2026-01-22,合同会社リナ,,合同会社,東京都,中央区,銀座１丁目１２－４Ｎ＆ＥＢＬＤ．６Ｆ,,13,102,1040061,,,,,,,2026-01-22,1,,,,,リナ,0
1133,4010005041225,新規,0,2026-01-22,2026-01-22,一般社団法人アジアパス,,その他の設立登記法人,東京都,中央区,銀座１丁目１２番４号Ｎ＆ＥＢＬＤ．６Ｆ,,13,102,1040061,,,,,,,2026-01-22,1,,,,,アジアパス,0
1154,4010401195681,新規,0,2026-01-22,2026-01-22,株式会社アイムエム,,株式会社,東京都,港区,白金台５丁目４－３－５０６,,13,103,1080071,,,,,,,2026-01-22,1,,,,,アイムエム,0
1155,4010401195913,新規,0,2026-01-22,2026-01-22,ＯＲＣＡ　ＪＡＰＡＮ株式会社,,株式会社,東京都,港区,元赤坂１丁目７番２０号元赤坂ウエスト５階,,13,103,1070051,,,,,,,2026-01-22,1,,,,,,0
1156,4010401195970,新規,0,2026-01-22,2026-01-22,瑜露株式会社,,株式会社,東京都,港区,虎ノ門３丁目２５－５ウェリスタワー愛宕虎ノ門２００２号室,,13,103,1050001,,,,,,,2026-01-22,1,,,,,ユロ,0
1169,4010405025182,新規,0,2026-01-22,2026-01-22,旭橋ホールディング１一般社団法人,,その他の設立登記法人,東京都,港区,虎ノ門３丁目２２番１０－２０１号,,13,103,1050001,,,,,,,2026-01-22,1,,,,,アサヒバシホールディングワン,0
1170,4010405025240,新規,0,2026-01-22,2026-01-22,一般社団法人音育舎,,その他の設立登記法人,東京都,港区,南麻布１丁目１５番５号ソフィア麻布１００１,,13,103,1060047,,,,,,,2026-01-22,1,,,,,オトイクシャ,0
1202,4010503008147,新規,0,2026-01-22,2026-01-22,サピオニクス合同会社,,合同会社,東京都,台東区,上野１丁目１７番６号広小路ビル８Ｆ－Ｂ,,13,106,1100005,,,,,,,2026-01-22,1,,,,,サピオニクス,0
1207,4010601068571,新規,0,2026-01-22,2026-01-22,株式会社スタジオ９７３４,,株式会社,東京都,墨田区,錦糸１丁目２番１号アルカセントラル１４階,,13,107,1300013,,,,,,,2026-01-22,1,,,,,スタジオキューナナサンヨン,0
1214,4010803005694,新規,0,2026-01-22,2026-01-22,合同会社グロウ,,合同会社,東京都,大田区,東馬込１丁目９番－８プラザドゥビオ１０１,,13,111,1430022,,,,,,,2026-01-22,1,,,,,グロウ,0
1215,4010901058818,新規,0,2026-01-22,2026-01-22,株式会社Ｒ’ｓ　Ｃｈｏｉｃｅ,,株式会社,東京都,世田谷区,桜新町２丁目１６番２－４０３号,,13,112,1540015,,,,,,,2026-01-22,1,,,,,アールズチョイス,0
1216,4010901058850,新規,0,2026-01-22,2026-01-22,ＤＥＣＩＭＡ株式会社,,株式会社,東京都,世田谷区,経堂２丁目１９―８―１０１,,13,112,1560052,,,,,,,2026-01-22,1,,,,,デシマ,0
1222,4011001174927,新規,0,2026-01-22,2026-01-22,株式会社ＩＲＯＲＩｗｏｒｋｓ,,株式会社,東京都,渋谷区,神宮前６丁目２３番４号桑野ビル２階,,13,113,1500001,,,,,,,2026-01-22,1,,,,,イロリワークス,0
1223,4011001175124,新規,0,2026-01-22,2026-01-22,株式会社ＰＬＡＣＥｉ,,株式会社,東京都,渋谷区,恵比寿西２丁目８番４号ＥＸ恵比寿西ビル５階,,13,113,1500021,,,,,,,2026-01-22,1,,,,,プレイスアイ,0
1224,4011003023363,新規,0,2026-01-22,2026-01-22,ピースキャピタルデザイン合同会社,,合同会社,東京都,渋谷区,千駄ヶ谷５丁目２９番１１号６０２号室,,13,113,1510051,,,,,,,2026-01-22,1,,,,,ピースキャピタルデザイン,0
1227,4011101114361,新規,0,2026-01-22,2026-01-22,株式会社ＮＵＶＯＲＡ,,株式会社,東京都,新宿区,大久保２丁目１７番８号ソレイユ大久保２０１,,13,104,1690072,,,,,,,2026-01-22,1,,,,,ヌヴォラ,0
1228,4011101114502,新規,0,2026-01-22,2026-01-22,Ｍｉｌｅｓｅｅｙ　Ｔｅｃｈｎｏｌｏｇｙ　Ｊａｐａｎ株式会社,,株式会社,東京都,新宿区,高田馬場４丁目４０番１２号日興高田馬場ビル６階,,13,104,1690075,,,,,,,2026-01-22,1,,,,,マイルシーテクノロジージャパン,0
1229,4011201026903,新規,0,2026-01-22,2026-01-22,株式会社ＲＩＭＵＲＵ,,株式会社,東京都,中野区,中央４丁目４１番１６号ダイナシティ中野中央１３Ｆ,,13,114,1640011,,,,,,,2026-01-22,1,,,,,リムル,0
1236,4011503006842,新規,0,2026-01-22,2026-01-22,合同会社クオーレ,,合同会社,東京都,荒川区,東尾久２丁目６番７－１０２号サウスピア,,13,118,1160012,,,,,,,2026-01-22,1,,,,,クオーレ,0
1345,4020001166628,新規,0,2026-01-22,2026-01-22,ウラヌス株式会社,,株式会社,神奈川県,横浜市西区,霞ケ丘９３番地１０,,14,103,2200035,,,,,,,2026-01-22,1,,,,,ウラヌス,0
1346,4020001166710,新規,0,2026-01-22,2026-01-22,Ｅ　ＴＥＣ株式会社,,株式会社,神奈川県,横浜市港南区,芹が谷５丁目４番３２号－２０１,,14,111,2330006,,,,,,,2026-01-22,1,,,,,イーテック,0
1350,4020005017117,新規,0,2026-01-22,2026-01-22,一般社団法人ピラティス＆ヨガライフスタイル協会,,その他の設立登記法人,神奈川県,横浜市西区,みなとみらい３丁目３番３号,,14,103,2200012,,,,,,,2026-01-22,1,,,,,ピラティスアンドヨガライフスタイルキョウカイ,0
1365,4040001142123,新規,0,2026-01-22,2026-01-22,テクニコデジタルソリューションズ株式会社,,株式会社,千葉県,茂原市,東郷１３８３番地２,,12,210,2970017,,,,,,,2026-01-22,1,,,,,テクニコデジタルソリューションズ,0
1366,4040001142214,新規,0,2026-01-22,2026-01-22,株式会社Ｔｒｕｓｔ建設,,株式会社,千葉県,八千代市,八千代台西７丁目１－１５－２０３,,12,221,2760034,,,,,,,2026-01-22,1,,,,,トラストケンセツ,0
1380,4080401028397,新規,0,2026-01-22,2026-01-22,松井シャッター株式会社,,株式会社,静岡県,磐田市,藤上原４１６番地５,,22,211,4380001,,,,,,,2026-01-22,1,,,,,マツイシャッター,0
1382,4090001019696,新規,0,2026-01-22,2026-01-22,株式会社ヘセドケア,,株式会社,山梨県,甲府市,小瀬町５８９－２５,,19,201,4000836,,,,,,,2026-01-22,1,,,,,ヘセドケア,0
1385,4110001039857,新規,0,2026-01-22,2026-01-22,株式会社ＵＭＩ　ＢＡＳＥ,,株式会社,新潟県,柏崎市,大字笠島下夕浜８１８,,15,205,9493662,,,,,,,2026-01-22,1,,,,,ウミベース,0
1393,4120001283388,新規,0,2026-01-22,2026-01-22,さくら電気株式会社,,株式会社,大阪府,大阪市北区,太融寺町１番１７号梅田アスカビル５階,,27,127,5300051,,,,,,,2026-01-22,1,,,,,サクラデンキ,0
1394,4120001283438,新規,0,2026-01-22,2026-01-22,株式会社ＯＳ建築事務所,,株式会社,大阪府,大阪市生野区,新今里３丁目２４番９号Ｃｏｃｏ・Ｒ１０２,,27,116,5440001,,,,,,,2026-01-22,1,,,,,オーエスケンチクジムショウ,0
1395,4120001283446,新規,0,2026-01-22,2026-01-22,クリアアセットマネジメント株式会社,,株式会社,大阪府,大阪市中央区,平野町２丁目１番１４号,,27,128,5410046,,,,,,,2026-01-22,1,,,,,クリアアセットマネジメント,0
1396,4120001283537,新規,0,2026-01-22,2026-01-22,司テック株式会社,,株式会社,大阪府,大阪市住吉区,沢之町２丁目８－１８－１０５,,27,120,5580031,,,,,,,2026-01-22,1,,,,,ツカサテック,0
1397,4120001283545,新規,0,2026-01-22,2026-01-22,株式会社白麗,,株式会社,大阪府,大阪市住之江区,安立１丁目３番１１号１０２,,27,125,5590003,,,,,,,2026-01-22,1,,,,,ハクレイ,0
1398,4120001283553,新規,0,2026-01-22,2026-01-22,株式会社ＫＯＰＹ,,株式会社,大阪府,大阪市中央区,久太郎町２丁目１－４－３２１１,,27,128,5410056,,,,,,,2026-01-22,1,,,,,コピー,0
1399,4120001283586,新規,0,2026-01-22,2026-01-22,株式会社Ｌｉｓｈｕｈａ,,株式会社,大阪府,大阪市中央区,島之内１丁目７－２１・８Ｆ,,27,128,5420082,,,,,,,2026-01-22,1,,,,,リシュハ,0
1400,4120001283594,新規,0,2026-01-22,2026-01-22,株式会社和の心,,株式会社,大阪府,大阪市阿倍野区,三明町２丁目１１番１１号－２０５号室,,27,119,5450005,,,,,,,2026-01-22,1,,,,,ワノココロ,0
1403,4120003031729,新規,0,2026-01-22,2026-01-22,マルカ商店合同会社,,合同会社,大阪府,大阪市城東区,中浜３丁目２６番１０号,,27,118,5360024,,,,,,,2026-01-22,1,,,,,マルカショウテン,0
1404,4120003031745,新規,0,2026-01-22,2026-01-22,合同会社ＵＮＣＨＡＮＧＥＤ,,合同会社,大阪府,大阪市淀川区,三国本町３丁目１１‐１２‐２Ｆ,,27,123,5320005,,,,,,,2026-01-22,1,,,,,アンチェンジド,0
1405,4120003031753,新規,0,2026-01-22,2026-01-22,合同会社岬,,合同会社,大阪府,大阪市天王寺区,悲田院町１番３８－１９０５号,,27,109,5430055,,,,,,,2026-01-22,1,,,,,ミサキ,0
1412,4120101073103,新規,0,2026-01-22,2026-01-22,株式会社輝建築工房,,株式会社,大阪府,岸和田市,西大路町１６番地の３,,27,202,5960802,,,,,,,2026-01-22,1,,,,,ヒカルケンチクコウボウ,0
1413,4120105010110,新規,0,2026-01-22,2026-01-22,医療法人英,,その他の設立登記法人,大阪府,堺市中区,深阪２丁１１番１号吉田ビル１階,00142289,27,142,5998253,,,,,,,2026-01-22,1,,,,,ハナブサ,0
1418,4120905006828,新規,0,2026-01-22,2026-01-22,一般社団法人長宗我部和子バレエスタジオ,,その他の設立登記法人,大阪府,箕面市,粟生間谷西７丁目８番２号,,27,220,5620023,,,,,,,2026-01-22,1,,,,,チョウソカベカズコバレエスタジオ,0
1421,4122001040117,新規,0,2026-01-22,2026-01-22,ＫＪＨホールディングス株式会社,,株式会社,大阪府,東大阪市,菱江３丁目１番７号,,27,227,5780984,,,,,,,2026-01-22,1,,,,,ケイジェイエイチホールディングス,0
1424,4130001081452,新規,0,2026-01-22,2026-01-22,洛東エステート株式会社,,株式会社,京都府,京都市山科区,東野中井ノ上町１番地２１,,26,110,6078142,,,,,,,2026-01-22,1,,,,,ラクトウエステート,0
1425,4130003011102,新規,0,2026-01-22,2026-01-22,合同会社アイズアセット,,合同会社,京都府,京都市下京区,七条通油小路東入大黒町２２７番地第２キョートビル４０２,,26,106,6008223,,,,,,,2026-01-22,1,,,,,アイズアセット,0
1428,4140001141429,新規,0,2026-01-22,2026-01-22,ＴＯＲＡＡＳ株式会社,,株式会社,兵庫県,神戸市兵庫区,小河通４丁目２番１５号ハイライフ小河ＩＶ６０３号室,00142282,28,105,6520895,,,,,,,2026-01-22,1,,,,,トラアス,0
1429,4140003023105,新規,0,2026-01-22,2026-01-22,合同会社トア,,合同会社,兵庫県,明石市,魚住町住吉４丁目７－９,,28,203,6740083,,,,,,,2026-01-22,1,,,,,トア,0
1431,4150003003816,新規,0,2026-01-22,2026-01-22,かたよし合同会社,,合同会社,奈良県,香芝市,藤山２丁目１１０７－９,,29,210,6390243,,,,,,,2026-01-22,1,,,,,カタヨシ,0
1455,4180001170382,新規,0,2026-01-22,2026-01-22,株式会社ｍｏｏｎｌｉｔ．,,株式会社,愛知県,清須市,西枇杷島町芳野３丁目８１番地,,23,233,4520065,,,,,,,2026-01-22,1,,,,,ムーンリット,0
1459,4180005021400,新規,0,2026-01-22,2026-01-22,一般社団法人えがきＢＡＳＥ,,その他の設立登記法人,愛知県,海部郡蟹江町,桜３丁目３９６番地,,23,425,4970038,,,,,,,2026-01-22,1,,,,,エガキベース,0
1460,4190001032846,新規,0,2026-01-22,2026-01-22,株式会社ビオーラ,,株式会社,三重県,桑名市,星見ヶ丘１丁目６０１番地３,,24,205,5110912,,,,,,,2026-01-22,1,,,,,ビオーラ,0
1468,4260001040908,新規,0,2026-01-22,2026-01-22,株式会社ＴＳＵＫＡＳＡ,,株式会社,岡山県,倉敷市,羽島３０５番地,,33,202,7100043,,,,,,,2026-01-22,1,,,,,ツカサ,0
1469,4260003005487,新規,0,2026-01-22,2026-01-22,合同会社ＳＰＡＣＥＯＮＥ,,合同会社,岡山県,岡山市北区,平野４１０カバメゾン平野２０２号室,,33,101,7010151,,,,,,,2026-01-22,1,,,,,スペースワン,0
1473,4290001112852,新規,0,2026-01-22,2026-01-22,株式会社Ｏｎ　ｔｈｅ　Ｕｐ　ａｎｄ　Ｕｐ,,株式会社,福岡県,福岡市南区,高宮３丁目７番３号アクアマリン高宮２０２号,,40,134,8150083,,,,,,,2026-01-22,1,,,,,,0
1474,4290001112885,新規,0,2026-01-22,2026-01-22,メイズプランニング株式会社,,株式会社,福岡県,小郡市,津古４８５番地４,,40,216,8380102,,,,,,,2026-01-22,1,,,,,メイズプランニング,0
1476,4290003017942,新規,0,2026-01-22,2026-01-22,おそうじハウスきらり合同会社,,合同会社,福岡県,福岡市南区,野多目２丁目１４番９－２号,,40,134,8111347,,,,,,,2026-01-22,1,,,,,オソウジハウスキラリ,0
1477,4290003017959,新規,0,2026-01-22,2026-01-22,合同会社エール,,合同会社,福岡県,太宰府市,五条３丁目６番３号,,40,221,8180125,,,,,,,2026-01-22,1,,,,,エール,0
1479,4300001014477,新規,0,2026-01-22,2026-01-22,株式会社Ｔ．Ｄ．Ｃ,,株式会社,佐賀県,佐賀市,鍋島町大字蛎久１１５２番地３,,41,201,8490931,,,,,,,2026-01-22,1,,,,,ティーディーシー,0
1487,4330001033920,新規,0,2026-01-22,2026-01-22,大茜海運株式会社,,株式会社,熊本県,熊本市西区,二本木２丁目７番３０－１４０１,,43,103,8600051,,,,,,,2026-01-22,1,,,,,ダイセンカイウン,0
1496,4350003005123,新規,0,2026-01-22,2026-01-22,合同会社Ｒｅｖｉａ,,合同会社,宮崎県,都城市,下長飯町４１６番地５９,,45,202,8850061,,,,,,,2026-01-22,1,,,,,レヴィア,0
1516,4430001096107,新規,0,2026-01-22,2026-01-22,株式会社すずき,,株式会社,北海道,札幌市中央区,北四条西４丁目１番７号ＭＭＳ札幌駅前ビル１階,,01,101,0600004,,,,,,,2026-01-22,1,,,,,スズキ,0
1517,4430003018521,新規,0,2026-01-22,2026-01-22,合同会社ＹＵＵ建築設計事務所,,合同会社,北海道,札幌市中央区,南二十四条西７丁目２－１６－２,,01,101,0640924,,,,,,,2026-01-22,1,,,,,ユウケンチクセッケイジムショ,0
1518,4440001009752,新規,0,2026-01-22,2026-01-22,株式会社村井建設,,株式会社,北海道,函館市,亀田港町５５－６,,01,202,0410822,,,,,,,2026-01-22,1,,,,,,0
1524,4700150134077,新規,0,2026-01-22,2026-01-22,徳原自治会,,その他,三重県,亀山市,川崎町３１２１番地１,,24,210,5190211,,,,,,,2026-01-22,1,,,,,トクハラジチカイ,0
1535,5010001261701,新規,0,2026-01-22,2026-01-22,株式会社森下産業グループ,,株式会社,東京都,中央区,日本橋小伝馬町８番９号,,13,102,1030001,,,,,,,2026-01-22,1,,,,,モリシタサンギョウグループ,0
1536,5010001261726,新規,0,2026-01-22,2026-01-22,株式会社ＣＬＣホールディングス,,株式会社,東京都,中央区,新川１丁目８番８号アクロス新川ビル,,13,102,1040033,,,,,,,2026-01-22,1,,,,,シーエルシーホールディングス,0
1537,5010001261759,新規,0,2026-01-22,2026-01-22,プレーリーホース・エンタテインメント株式会社,,株式会社,東京都,文京区,本郷１丁目３０番２７－８０９号,,13,105,1130033,,,,,,,2026-01-22,1,,,,,プレーリーホースエンタテインメント,0
1539,5010003050086,新規,0,2026-01-22,2026-01-22,合同会社ズームエコシステム,,合同会社,東京都,千代田区,神田駿河台４丁目４番地３,,13,101,1010062,,,,,,,2026-01-22,1,,,,,ズームエコシステム,0
1543,5010005041240,新規,0,2026-01-22,2026-01-22,特定非営利活動法人こどもピースネットワーク,,その他の設立登記法人,東京都,中央区,銀座１丁目２０番１４号銀座ＮＫビル２Ｆ,,13,102,1040061,,,,,,,2026-01-22,1,,,,,コドモピースネットワーク,0
1544,5010005041249,新規,0,2026-01-22,2026-01-22,ＮＴＴグローバルデータセンターＳＨＲ３‐Ｂ特定目的会社,,その他の設立登記法人,東京都,中央区,日本橋１丁目４番１号日本橋一丁目ビルディング,,13,102,1030027,,,,,,,2026-01-22,1,,,,,エヌティティグローバルデータセンターエスエイチアールスリービー,0
1570,5010405025215,新規,0,2026-01-22,2026-01-22,一般社団法人アフリカ人材支援協会,,その他の設立登記法人,東京都,港区,赤坂４丁目５番２１号,,13,103,1070052,,,,,,,2026-01-22,1,,,,,アフリカジンザイシエンキョウカイ,0
1613,5010601068612,新規,0,2026-01-22,2026-01-22,墨田トレーディング株式会社,,株式会社,東京都,墨田区,業平１丁目７番９号,,13,107,1300002,,,,,,,2026-01-22,1,,,,,スミダトレーディング,0
1629,5010901058684,新規,0,2026-01-22,2026-01-22,ＯｎｅＴｏｎｅ株式会社,,株式会社,東京都,世田谷区,野沢１丁目１３番３号,,13,112,1540003,,,,,,,2026-01-22,1,,,,,ワントーン,0
1630,5010901058800,新規,0,2026-01-22,2026-01-22,株式会社ｏＴｏｍｏ,,株式会社,東京都,世田谷区,岡本３丁目４０番１４号,,13,112,1570076,,,,,,,2026-01-22,1,,,,,オトモ,0
1631,5010901058825,新規,0,2026-01-22,2026-01-22,Ｃｒｅａｔｉｖｅ　Ｃｏｕｎｓｅｌ株式会社,,株式会社,東京都,世田谷区,玉川３丁目２０番２号マノア玉川第３ビル５０１号室,,13,112,1580094,,,,,,,2026-01-22,1,,,,,クリエイティブカウンセル,0
1635,5011001174934,新規,0,2026-01-22,2026-01-22,株式会社ＰＬＡＮ‐Ｂ,,株式会社,東京都,渋谷区,広尾１丁目１番２２－２１２号,,13,113,1500012,,,,,,,2026-01-22,1,,,,,プランビー,0
1636,5011001175081,新規,0,2026-01-22,2026-01-22,ＢＥＩｔｙ株式会社,,株式会社,東京都,目黒区,自由が丘２丁目１６番１２号ＲＪ３,,13,110,1520035,,,,,,,2026-01-22,1,,,,,,0
1641,5011101114501,新規,0,2026-01-22,2026-01-22,株式会社ｎｕｎｃ,,株式会社,東京都,新宿区,荒木町１番地４４マガザン荒木町６階,,13,104,1600007,,,,,,,2026-01-22,1,,,,,ヌンク,0
1642,5011101114534,新規,0,2026-01-22,2026-01-22,杉並先端アニメーション研究所株式会社,,株式会社,東京都,新宿区,西新宿１丁目２６番２号新宿野村ビル３２階,,13,104,1600023,,,,,,,2026-01-22,1,,,,,スギナミセンタンアニメーションケンキュウジョ,0
1649,5011501033029,新規,0,2026-01-22,2026-01-22,ダッシュビル株式会社,,株式会社,東京都,荒川区,東日暮里５丁目６－１１ビラサンリーベ３Ｆ,,13,118,1160014,,,,,,,2026-01-22,1,,,,,ダッシュビル,0
1727,5011601029331,新規,0,2026-01-22,2026-01-22,株式会社ＳＰＩＣＡ,,株式会社,東京都,練馬区,大泉学園町６丁目１３番４号,,13,120,1780061,,,,,,,2026-01-22,1,,,,,スピカ,0
1738,5011703004505,新規,0,2026-01-22,2026-01-22,ＭＦ合同会社,,合同会社,東京都,江戸川区,中葛西７丁目９－１１第１関口マンション２０２,,13,123,1340083,,,,,,,2026-01-22,1,,,,,エムエフ,0
1739,5011803007291,新規,0,2026-01-22,2026-01-22,合同会社アジア物産,,合同会社,東京都,葛飾区,東立石４丁目４９－６,,13,122,1240013,,,,,,,2026-01-22,1,,,,,アジアブッサン,0
1753,5020001166783,新規,0,2026-01-22,2026-01-22,株式会社ＷＥＬＬＦＯＲＩＡ,,株式会社,神奈川県,横浜市栄区,中野町１０７１番地４７,,14,115,2470015,,,,,,,2026-01-22,1,,,,,ウェルフォリア,0
1767,5030001170660,新規,0,2026-01-22,2026-01-22,福中工業株式会社,,株式会社,埼玉県,川口市,大字芝３７５８番地の３,,11,203,3330866,,,,,,,2026-01-22,1,,,,,フクナカコウギョウ,0
1768,5030001170677,新規,0,2026-01-22,2026-01-22,株式会社毅結不動産,,株式会社,埼玉県,熊谷市,円光２丁目１２番１７号グランソフィア円光、中,,11,202,3600813,,,,,,,2026-01-22,1,,,,,キユウフドウサン,0
1770,5040001142213,新規,0,2026-01-22,2026-01-22,株式会社セキュリティオフィス好日よきひ,,株式会社,千葉県,千葉市中央区,星久喜町９９４－１２,,12,101,2600808,,,,,,,2026-01-22,1,,,,,セキュリティオフィスコウジツヨキヒ,0
1771,5040003029243,新規,0,2026-01-22,2026-01-22,ＴＡＬＥ　ＴＩＧＥＲ合同会社,,合同会社,千葉県,市川市,高石神５－１,,12,203,2720814,,,,,,,2026-01-22,1,,,,,テイルタイガー,0
1781,5050003009888,新規,0,2026-01-22,2026-01-22,ニューオーダー合同会社,,合同会社,茨城県,水戸市,平須町１８２５－９７,,08,201,3100853,,,,,,,2026-01-22,1,,,,,ニューオーダー,0
1784,5060005010406,新規,0,2026-01-22,2026-01-22,一般社団法人住まいの相談センター,,その他の設立登記法人,栃木県,宇都宮市,宝木町２丁目８０２番地１ヴィラパンフィーリ３０３号,,09,201,3200061,,,,,,,2026-01-22,1,,,,,スマイノソウダンセンター,0
1786,5070001043755,新規,0,2026-01-22,2026-01-22,株式会社ＣＲ・ＣＲＥＡＴＥ,,株式会社,群馬県,富岡市,七日市３１４番地３,,10,210,3702343,,,,,,,2026-01-22,1,,,,,シーアールクリエイト,0
1788,5070005010462,新規,0,2026-01-22,2026-01-22,特定非営利活動法人ハッピー綿打,,その他の設立登記法人,群馬県,太田市,新田早川町４３０番地,,10,205,3700344,,,,,,,2026-01-22,1,,,,,ハッピーワタウチ,0
1795,5100001039287,新規,0,2026-01-22,2026-01-22,株式会社ＮＫＲ,,株式会社,長野県,上田市,上野１１７２番地３９,,20,203,3860003,,,,,,,2026-01-22,1,,,,,エヌケーアール,0
1797,5100003008579,新規,0,2026-01-22,2026-01-22,合同会社ｄａｋｅｄｏ,,合同会社,長野県,伊那市,上新田２７８３番地,,20,209,3960012,,,,,,,2026-01-22,1,,,,,ダケド,0
1809,5120001283263,新規,0,2026-01-22,2026-01-22,株式会社Ｑｕｅ,,株式会社,大阪府,大阪市生野区,巽南５丁目１７番３８号オフィスタウンＥ号,,27,116,5440015,,,,,,,2026-01-22,1,,,,,クウ,0
1810,5120001283437,新規,0,2026-01-22,2026-01-22,株式会社リベルタスワークス,,株式会社,大阪府,大阪市北区,大深町グラングリーン大阪ゲートタワー７階シグネイチャー,,27,127,5300011,,,,,,,2026-01-22,1,,,,,リベルタスワークス,0
1811,5120001283478,新規,0,2026-01-22,2026-01-22,ケイズアイピーホールディングス株式会社,,株式会社,大阪府,大阪市北区,与力町４番８号,,27,127,5300036,,,,,,,2026-01-22,1,,,,,ケイズアイピーホールディングス,0
1812,5120001283494,新規,0,2026-01-22,2026-01-22,株式会社ＮＡＶＩＯＮ,,株式会社,大阪府,大阪市北区,梅田１丁目２番２－１２１２号大阪駅前第２ビル,,27,127,5300001,,,,,,,2026-01-22,1,,,,,ナビオン,0
1813,5120001283560,新規,0,2026-01-22,2026-01-22,株式会社天華,,株式会社,大阪府,大阪市中央区,北浜１丁目１番２０号北浜三ツ星ビル８階,,27,128,5410041,,,,,,,2026-01-22,1,,,,,テンゲ,0
1814,5120001283602,新規,0,2026-01-22,2026-01-22,株式会社ＣＨＩＬＬ　ＳＴＡＲＴ,,株式会社,大阪府,大阪市此花区,高見１丁目３番３３－２０１号,,27,104,5540001,,,,,,,2026-01-22,1,,,,,チルスタート,0
1815,5120001283619,新規,0,2026-01-22,2026-01-22,株式会社ＴＢＳプライムサポート,,株式会社,大阪府,大阪市北区,豊崎２丁目１‐９Ｇ＆Ｒビル７階,,27,127,5310072,,,,,,,2026-01-22,1,,,,,ティービーエスプライムサポート,0
1821,5120003031736,新規,0,2026-01-22,2026-01-22,合同会社玉ちゃん本舗,,合同会社,大阪府,大阪市住之江区,北島２丁目４番４－６０９号,,27,125,5590014,,,,,,,2026-01-22,1,,,,,タマチャンホンポ,0
1823,5120101073110,新規,0,2026-01-22,2026-01-22,速郵達株式会社,,株式会社,大阪府,高石市,綾園５丁目５番３１－Ｄ１３号,,27,225,5920014,,,,,,,2026-01-22,1,,,,,ソクユウタツ,0
1831,5140001141444,新規,0,2026-01-22,2026-01-22,株式会社コンサル三河,,株式会社,兵庫県,姫路市,山田町南山田１９３番地２,,28,201,6792113,,,,,,,2026-01-22,1,,,,,コンサルミカワ,0
1834,5140003023120,新規,0,2026-01-22,2026-01-22,合同会社ＳＯＦＵ,,合同会社,兵庫県,加古川市,平岡町二俣９０―１１,,28,210,6750111,,,,,,,2026-01-22,1,,,,,ソフ,0
1838,5150003003815,新規,0,2026-01-22,2026-01-22,合同会社かがやきパートナーズ,,合同会社,奈良県,桜井市,大字初瀬２７８２－２,,29,206,6330112,,,,,,,2026-01-22,1,,,,,カガヤキパートナーズ,0
1850,5180003029659,新規,0,2026-01-22,2026-01-22,合同会社ＹＧオフィス,,合同会社,愛知県,あま市,新居屋新町５番地ＷＩＳＴＥＲＩＡＬｉｆｅ３０１号,,23,237,4901105,,,,,,,2026-01-22,1,,,,,ワイジーオフィス,0
1851,5180303006878,新規,0,2026-01-22,2026-01-22,合同会社ゆうてん,,合同会社,愛知県,豊川市,御津町上佐脇東区１６番地２,,23,207,4410301,,,,,,,2026-01-22,1,,,,,ユウテン,0
1855,5200001044649,新規,0,2026-01-22,2026-01-22,株式会社ＬｉｂｅｒａＷｏｒｋｅｒｓ,,株式会社,岐阜県,大垣市,墨俣町墨俣４９７番地,,21,202,5030102,,,,,,,2026-01-22,1,,,,,リベラワーカーズ,0
1858,5200003007199,新規,0,2026-01-22,2026-01-22,合同会社Ｌｕｍｅｎ　Ｗｏｒｋｓ,,合同会社,岐阜県,岐阜市,長良雄総字乾ケ洞８８０番‐４７,,21,201,5020017,,,,,,,2026-01-22,1,,,,,ルーメンワークス,0
1872,5260001040923,新規,0,2026-01-22,2026-01-22,株式会社ハジメ建工,,株式会社,岡山県,倉敷市,老松町３丁目７番地２０号７０７号室,,33,202,7100826,,,,,,,2026-01-22,1,,,,,ハジメケンコウ,0
1874,5290001112851,新規,0,2026-01-22,2026-01-22,株式会社誠光不動産,,株式会社,福岡県,福岡市西区,姪の浜２丁目４－２７,,40,135,8190002,,,,,,,2026-01-22,1,,,,,セイコウフドウサン,0
1875,5290001112868,新規,0,2026-01-22,2026-01-22,株式会社インテグレーションラボ,,株式会社,福岡県,福岡市南区,高木２丁目４番４号,,40,134,8150004,,,,,,,2026-01-22,1,,,,,インテグレーションラボ,0
1876,5290001112901,新規,0,2026-01-22,2026-01-22,株式会社コハク,,株式会社,福岡県,福岡市東区,香椎駅東４丁目４３番１７号,,40,131,8130012,,,,,,,2026-01-22,1,,,,,,0
1877,5290001112934,新規,0,2026-01-22,2026-01-22,ＫＮＯＲＱ　Ｔｅｃｈｎｏｌｏｇｉｅｓ株式会社,,株式会社,福岡県,福岡市中央区,大名２丁目６番１１号,,40,133,8100041,,,,,,,2026-01-22,1,,,,,ノークテクノロジーズ,0
1879,5290003017966,新規,0,2026-01-22,2026-01-22,合同会社ｓｈｉｚｕｋｕ,,合同会社,福岡県,福岡市早良区,原８丁目４番２５－３０３号フレグランスＨＡＲＡ－Ｂ,,40,137,8140022,,,,,,,2026-01-22,1,,,,,シズク,0
1880,5290803005261,新規,0,2026-01-22,2026-01-22,松岡電気管理事務所合同会社,,合同会社,福岡県,田川市,新町８番１６号,,40,206,8250016,,,,,,,2026-01-22,1,,,,,マツオカデンキカンリジムシヨ,0
1881,5300001014484,新規,0,2026-01-22,2026-01-22,株式会社Ｓｋｙｎｏｖａ,,株式会社,佐賀県,武雄市,山内町大字大野甲９９１８番地１０,,41,206,8492304,,,,,,,2026-01-22,1,,,,,スカイノヴァ,0
1886,5330001033944,新規,0,2026-01-22,2026-01-22,株式会社ＡＤＯＮＯＳ,,株式会社,熊本県,熊本市中央区,安政町２－２３トマトビル２Ｆ,,43,101,8600801,,,,,,,2026-01-22,1,,,,,アドノス,0
1887,5330003011403,新規,0,2026-01-22,2026-01-22,合同会社ＧＲＯＷ,,合同会社,熊本県,熊本市西区,上代２丁目４番１１－８０２号,,43,103,8600068,,,,,,,2026-01-22,1,,,,,グロウ,0
1890,5350001019909,新規,0,2026-01-22,2026-01-22,株式会社ひむか産業,,株式会社,宮崎県,日向市,大字財光寺８９２－３,,45,206,8830021,,,,,,,2026-01-22,1,,,,,ヒムカサンギョウ,0
1893,5370001053410,新規,0,2026-01-22,2026-01-22,株式会社ＡＲＤＯＲＥ　ＯＮＥ,,株式会社,宮城県,仙台市泉区,加茂１丁目３９番地の３,,04,105,9813122,,,,,,,2026-01-22,1,,,,,アルドーレワン,0
1895,5430001096097,新規,0,2026-01-22,2026-01-22,ＫＴＳライン株式会社,,株式会社,北海道,札幌市東区,北二十二条東７丁目２－２４三階,,01,103,0650022,,,,,,,2026-01-22,1,,,,,ケーティーエスライン,0
1896,5430001096114,新規,0,2026-01-22,2026-01-22,株式会社永光,,株式会社,北海道,札幌市北区,太平五条２丁目３番１６号,,01,102,0028005,,,,,,,2026-01-22,1,,,,,エイコウ,0
1899,5430003018520,新規,0,2026-01-22,2026-01-22,合同会社Ｌｉｖｒｕｎ,,合同会社,北海道,札幌市中央区,南五条西１５丁目２番３号５０３号室,,01,101,0640805,,,,,,,2026-01-22,1,,,,,リブラン,0
1900,5430003018529,新規,0,2026-01-22,2026-01-22,合同会社ネクスト,,合同会社,北海道,苫小牧市,拓勇東町８丁目５番３７号レオパレスギルビーＭ２０３号,,01,213,0591303,,,,,,,2026-01-22,1,,,,,ネクスト,0
1913,5500001026740,新規,0,2026-01-22,2026-01-22,株式会社積み木,,株式会社,愛媛県,北宇和郡鬼北町,大字下鍵山６０番地,,38,488,7981502,,,,,,,2026-01-22,1,,,,,ツミキ,0
1915,5700150134076,新規,0,2026-01-22,2026-01-22,Ｃａｄｗｉｎ　Ｓｙｓｔｅｍ　株式会社,,外国会社等,,,,,,,,韓国釜山広域市海雲台区セントム洞路５７、５０７号（右洞、釜山デザインセントム）,,,,,,2026-01-22,1,,,,,キヤドウインシステム,0
1923,6010001261782,新規,0,2026-01-22,2026-01-22,株式会社Ｊｕｍｐｓｔａｒｔ,,株式会社,東京都,千代田区,神田多町２丁目１－２３－７Ｆ,,13,101,1010046,,,,,,,2026-01-22,1,,,,,ジャンプスタート,0
1924,6010001261799,新規,0,2026-01-22,2026-01-22,株式会社ＯＧＡ,,株式会社,東京都,中央区,銀座１丁目１２－４Ｎ＆ＥＢＬＤ．７階,,13,102,1040061,,,,,,,2026-01-22,1,,,,,オージーエー,0
1925,6010001262120,新規,0,2026-01-22,2026-01-22,株式会社ＢｅｙｏｎｄＶｏｉｃｅ,,株式会社,東京都,中央区,日本橋室町１丁目１１番１２号日本橋水野ビル７階,,13,102,1030022,,,,,,,2026-01-22,1,,,,,ビヨンドボイス,0
1928,6010005041248,新規,0,2026-01-22,2026-01-22,ＮＴＴグローバルデータセンターＳＨＲ３‐Ａ特定目的会社,,その他の設立登記法人,東京都,中央区,日本橋１丁目４番１号日本橋一丁目ビルディング,,13,102,1030027,,,,,,,2026-01-22,1,,,,,エヌティティグローバルデータセンターエスエイチアールスリーエー,0
1941,6010401195738,新規,0,2026-01-22,2026-01-22,株式会社Ｍｉｎｏｒｉ,,株式会社,東京都,港区,北青山１丁目３番１号アールキューブ青山３階,,13,103,1070061,,,,,,,2026-01-22,1,,,,,ミノリ,0
1942,6010401195969,新規,0,2026-01-22,2026-01-22,Ｎｏｒｔｈ　Ｇａｔｅｗａｙ　Ｅｎｅｒｇｙ　Ｊａｐａｎ株式会社,,株式会社,東京都,港区,浜松町２丁目２番１５号浜松町ダイヤビル２Ｆ,,13,103,1050013,,,,,,,2026-01-22,1,,,,,ノースゲートウェイエナジージャパン,0
1947,6010405025271,新規,0,2026-01-22,2026-01-22,一般社団法人ＴｏｋｙｏＷ１０,,その他の設立登記法人,東京都,港区,虎ノ門５丁目１番４号,,13,103,1050001,,,,,,,2026-01-22,1,,,,,トウキョウダブリューテン,0
1984,6010603012030,新規,0,2026-01-22,2026-01-22,金華合同会社,,合同会社,東京都,墨田区,墨田５丁目４番３号,,13,107,1310031,,,,,,,2026-01-22,1,,,,,キンカ,0
1985,6010701048892,新規,0,2026-01-22,2026-01-22,株式会社ＷＧＡＣＡ　ＪＰ,,株式会社,東京都,品川区,西五反田８丁目３番６号,,13,109,1410031,,,,,,,2026-01-22,1,,,,,ワガカジェイピー,0
1987,6010901058832,新規,0,2026-01-22,2026-01-22,株式会社エリフ,,株式会社,東京都,世田谷区,上北沢５丁目４３―５,,13,112,1560057,,,,,,,2026-01-22,1,,,,,エリフ,0
1998,6011001174850,新規,0,2026-01-22,2026-01-22,テラックス株式会社,,株式会社,東京都,渋谷区,上原１丁目７番２０号ＳＫ・ＰＬＡＣＥ,,13,113,1510064,,,,,,,2026-01-22,1,,,,,テラックス,0
2010,6011301031181,新規,0,2026-01-22,2026-01-22,Ａｅｑｕｉｌｉｂ株式会社,,株式会社,東京都,杉並区,下高井戸５丁目１０－２,,13,115,1680073,,,,,,,2026-01-22,1,,,,,エークリブ,0
2013,6011303005836,新規,0,2026-01-22,2026-01-22,合同会社グローバルラテ,,合同会社,東京都,杉並区,高井戸東１丁目３０番７号１０３,,13,115,1680072,,,,,,,2026-01-22,1,,,,,グローバルラテ,0
2100,6011801047355,新規,0,2026-01-22,2026-01-22,株式会社千代田,,株式会社,東京都,足立区,関原３丁目４１番５号,,13,121,1230852,,,,,,,2026-01-22,1,,,,,チヨダ,0
2106,6012701019287,新規,0,2026-01-22,2026-01-22,東京リンクス株式会社,,株式会社,東京都,小平市,学園西町１丁目２番２８号,,13,211,1870045,,,,,,,2026-01-22,1,,,,,トウキョウリンクス,0
2119,6020001166799,新規,0,2026-01-22,2026-01-22,株式会社ＷＡＴ,,株式会社,神奈川県,川崎市麻生区,白鳥４丁目１７番４号１０１,,14,137,2150024,,,,,,,2026-01-22,1,,,,,ワット,0
2120,6020001166808,新規,0,2026-01-22,2026-01-22,ライノ株式会社,,株式会社,神奈川県,川崎市高津区,諏訪３丁目１６‐５,,14,134,2130004,,,,,,,2026-01-22,1,,,,,ライノ,0
2121,6020001166824,新規,0,2026-01-22,2026-01-22,株式会社エナジーウイング,,株式会社,神奈川県,横浜市中区,相生町１丁目２１番地Ｂｒｅｅｚｅ横浜公園９０２,,14,104,2310012,,,,,,,2026-01-22,1,,,,,エナジーウイング,0
2122,6020003030177,新規,0,2026-01-22,2026-01-22,合同会社Ｌｕｌｚ,,合同会社,神奈川県,川崎市中原区,苅宿９番１０－２０６号グランドゥールオークラＮｏ．１,,14,133,2110022,,,,,,,2026-01-22,1,,,,,ルルズ,0
2123,6020003030202,新規,0,2026-01-22,2026-01-22,シンシステムエージェンシー合同会社,,合同会社,神奈川県,川崎市川崎区,駅前本町１１－２,,14,131,2100007,,,,,,,2026-01-22,1,,,,,シンシステムエージェンシー,0
2124,6020003030227,新規,0,2026-01-22,2026-01-22,ＩＴＯＭＡ合同会社,,合同会社,神奈川県,横浜市港北区,鳥山町２５１番地１３,,14,109,2220035,,,,,,,2026-01-22,1,,,,,イトマ,0
2129,6021001087226,新規,0,2026-01-22,2026-01-22,株式会社エルシエスタ,,株式会社,神奈川県,座間市,相模が丘３丁目７０番８号,,14,216,2520001,,,,,,,2026-01-22,1,,,,,エルシエスタ,0
2130,6021001087267,新規,0,2026-01-22,2026-01-22,株式会社バックライン,,株式会社,神奈川県,横須賀市,浦郷町２丁目９２番地６,,14,201,2370062,,,,,,,2026-01-22,1,,,,,バックライン,0
2137,6030001170619,新規,0,2026-01-22,2026-01-22,株式会社ＧＴ‐Ｒａｃｉｎｇ,,株式会社,埼玉県,川越市,大字増形３２９番地５,,11,201,3501172,,,,,,,2026-01-22,1,,,,,ジーティーレーシング,0
2144,6040001142179,新規,0,2026-01-22,2026-01-22,株式会社ＮＥＯ,,株式会社,千葉県,千葉市中央区,中央２丁目３番１６号ネクスタ千葉葭川公園前ＩＩ１４号,00142285,12,101,2600013,,,,,,,2026-01-22,1,,,,,ネオ,0
2145,6040001142195,新規,0,2026-01-22,2026-01-22,株式会社ＣＫ　Ｓｔｒａｔｅｇｙ,,株式会社,千葉県,船橋市,高野台２丁目１３番２４号,,12,204,2740801,,,,,,,2026-01-22,1,,,,,シーケーストラテジー,0
2148,6040002105498,新規,0,2026-01-22,2026-01-22,有限会社秋本商事,,有限会社,千葉県,木更津市,長須賀２３８４番地,,12,206,2920054,,,,,,,2026-01-22,1,,,,,アキモトショウジ,0
2149,6040003029333,新規,0,2026-01-22,2026-01-22,合同会社アマンダ,,合同会社,千葉県,木更津市,東中央２丁目１２番２－３０５号,,12,206,2920057,,,,,,,2026-01-22,1,,,,,アマンダ,0
2153,6050001057888,新規,0,2026-01-22,2026-01-22,株式会社ナガノアグリトラスト,,株式会社,茨城県,取手市,山王３４１番地,,08,217,3001544,,,,,,,2026-01-22,1,,,,,ナガノアグリトラスト,0
2154,6060001038953,新規,0,2026-01-22,2026-01-22,株式会社Ｉｒｉｓ,,株式会社,栃木県,宇都宮市,今泉新町８番地２,,09,201,3210961,,,,,,,2026-01-22,1,,,,,アイリス,0
2159,6080005007754,新規,0,2026-01-22,2026-01-22,静岡地産地消推進協同組合,,その他の設立登記法人,静岡県,静岡市葵区,沓谷５丁目１番地の６,,22,101,4200816,,,,,,,2026-01-22,1,,,,,シズオカチサンチショウスイシン,0
2168,6100001039286,新規,0,2026-01-22,2026-01-22,株式会社おおしまファーム,,株式会社,長野県,下伊那郡松川町,元大島３００番地３,,20,402,3993303,,,,,,,2026-01-22,1,,,,,オオシマファーム,0
2176,6120001283485,新規,0,2026-01-22,2026-01-22,株式会社ＢＲＩＤＧＥ,,株式会社,大阪府,大阪市北区,東天満２丁目６番１－９０４号,,27,127,5300044,,,,,,,2026-01-22,1,,,,,ブリッジ,0
2177,6120001283502,新規,0,2026-01-22,2026-01-22,西唯産業株式会社,,株式会社,大阪府,大阪市住吉区,南住吉１丁目８番２２号４０１室,,27,120,5580041,,,,,,,2026-01-22,1,,,,,ニシユイサンギョウ,0
2178,6120001283527,新規,0,2026-01-22,2026-01-22,株式会社笠原防水工業,,株式会社,大阪府,門真市,四宮３丁目２番１２号,,27,223,5710017,,,,,,,2026-01-22,1,,,,,カサハラボウスイコウギョウ,0
2179,6120001283543,新規,0,2026-01-22,2026-01-22,かるたや株式会社,,株式会社,大阪府,大阪市天王寺区,生玉前町３番３３号,,27,109,5430072,,,,,,,2026-01-22,1,,,,,カルタヤ,0
2180,6120001283568,新規,0,2026-01-22,2026-01-22,ケーズリビング株式会社,,株式会社,大阪府,大阪市鶴見区,鶴見３丁目５番１９号,,27,124,5380053,,,,,,,2026-01-22,1,,,,,ケーズリビング,0
2181,6120001283584,新規,0,2026-01-22,2026-01-22,株式会社ＲＣＳＨＬ,,株式会社,大阪府,大阪市都島区,高倉町１丁目１０番３０号,,27,102,5340011,,,,,,,2026-01-22,1,,,,,ルシル,0
2182,6120001283618,新規,0,2026-01-22,2026-01-22,ライフサイエンスジャパン株式会社,,株式会社,大阪府,大阪市東住吉区,今林２丁目９番１２号,,27,121,5460001,,,,,,,2026-01-22,1,,,,,ライフサイエンスジャパン,0
2184,6120003031751,新規,0,2026-01-22,2026-01-22,崋大合同会社,,合同会社,大阪府,大阪市住之江区,粉浜３丁目１４番２７号,,27,125,5590001,,,,,,,2026-01-22,1,,,,,ゲダイ,0
2200,6130001081434,新規,0,2026-01-22,2026-01-22,株式会社西陣上島,,株式会社,京都府,京都市上京区,大宮通上立売上る西入伊佐町２２１番地,,26,102,6028407,,,,,,,2026-01-22,1,,,,,ニシジンウエシマ,0
2201,6130003011100,新規,0,2026-01-22,2026-01-22,合同会社ＤＥＮＴＡＬ　ｌａｂ　ＳＯＲＡＬＩＥＲ,,合同会社,京都府,京都市上京区,中務町４９１番地７１,,26,102,6028158,,,,,,,2026-01-22,1,,,,,デンタルラボソラリエ,0
2207,6140003023103,新規,0,2026-01-22,2026-01-22,合同会社ＥＭＡＲＬ,,合同会社,兵庫県,神戸市北区,藤原台北町２丁目１番２－３０８号,,28,109,6511301,,,,,,,2026-01-22,1,,,,,エマール,0
2210,6160001027368,新規,0,2026-01-22,2026-01-22,２８３８ｉｎｃ株式会社,,株式会社,滋賀県,草津市,野路５丁目４番１２号,,25,206,5250059,,,,,,,2026-01-22,1,,,,,ニワサワインク,0
2222,6180001170348,新規,0,2026-01-22,2026-01-22,株式会社ＲＡＮＤＡＳ,,株式会社,愛知県,名古屋市千種区,千種３丁目７－１０－５Ｂ,,23,101,4640858,,,,,,,2026-01-22,1,,,,,ランダス,0
2223,6180001170372,新規,0,2026-01-22,2026-01-22,株式会社布留部,,株式会社,愛知県,名古屋市中区,丸の内２丁目１７番４号,,23,106,4600002,,,,,,,2026-01-22,1,,,,,フルベ,0
2224,6180001170389,新規,0,2026-01-22,2026-01-22,株式会社愉誠,,株式会社,愛知県,名古屋市名東区,名東本通３丁目５５番地の２,,23,115,4650087,,,,,,,2026-01-22,1,,,,,ユタカ,0
2228,6180003029617,新規,0,2026-01-22,2026-01-22,合同会社ｉＢ,,合同会社,愛知県,名古屋市瑞穂区,惣作町１丁目１８－２,,23,108,4670831,,,,,,,2026-01-22,1,,,,,アイビー,0
2229,6180003029666,新規,0,2026-01-22,2026-01-22,合同会社りん,,合同会社,愛知県,名古屋市東区,泉１丁目１２番２５号シティタワー名古屋久屋大通公園１８０７号,,23,102,4610001,,,,,,,2026-01-22,1,,,,,リン,0
2231,6180303006877,新規,0,2026-01-22,2026-01-22,ケイオー管理合同会社,,合同会社,愛知県,知立市,南陽２丁目６０番地エルグランデ知立南陽４０９号,,23,225,4720004,,,,,,,2026-01-22,1,,,,,ケイオーカンリ,0
2235,6220003004210,新規,0,2026-01-22,2026-01-22,合同会社ＴＯＭＯ不動産,,合同会社,石川県,金沢市,南御所町２５７番地,,17,201,9200812,,,,,,,2026-01-22,1,,,,,トモフドウサン,0
2239,6230001021256,新規,0,2026-01-22,2026-01-22,株式会社田中農産,,株式会社,富山県,射水市,七美３３８番地,,16,211,9330252,,,,,,,2026-01-22,1,,,,,タナカノウサン,0
2242,6250003003886,新規,0,2026-01-22,2026-01-22,合同会社ＦＲＯＮＴＬＩＮＥセキュリティ,,合同会社,山口県,下関市,椋野町２丁目１２番３７号,,35,201,7510816,,,,,,,2026-01-22,1,,,,,フロントラインセキュリティ,0
2255,6290003017957,新規,0,2026-01-22,2026-01-22,合同会社ＴＡＲＡＳ,,合同会社,福岡県,福岡市中央区,天神４丁目６－２８いちご天神ノースビル７階,,40,133,8100001,,,,,,,2026-01-22,1,,,,,テラス,0
2261,6320001021552,新規,0,2026-01-22,2026-01-22,株式会社ライトライン,,株式会社,大分県,大分市,王子中町６番２１号中村ビル２Ｆ,,44,201,8700006,,,,,,,2026-01-22,1,,,,,ライトライン,0
2264,6320003004885,新規,0,2026-01-22,2026-01-22,合同会社エタステック,,合同会社,大分県,大分市,中央町１丁目４番２４号,,44,201,8700035,,,,,,,2026-01-22,1,,,,,エタステック,0
2266,6330003011402,新規,0,2026-01-22,2026-01-22,合同会社レアアセット,,合同会社,熊本県,玉名市,中１７７８－２０２号,,43,206,8650064,,,,,,,2026-01-22,1,,,,,,0
2272,6380001035828,新規,0,2026-01-22,2026-01-22,株式会社ＬＵＸＥＮＡ,,株式会社,福島県,福島市,森合字蒲原４―１６,,07,201,9608003,,,,,,,2026-01-22,1,,,,,ルクセナ,0
2283,6430001096113,新規,0,2026-01-22,2026-01-22,株式会社Ｈｏｋｋａｉｄｏ　Ｍｅｄｂｒｉｄｇｅ,,株式会社,北海道,札幌市北区,北二十一条西１１丁目北海道大学フード＆メディカルイノベーション国際拠点１階,,01,102,0010021,,,,,,,2026-01-22,1,,,,,ホッカイドウメドブリッジ,0
2287,6430003018528,新規,0,2026-01-22,2026-01-22,合同会社寅太郎,,合同会社,北海道,札幌市白石区,栄通２１丁目７番２－２０１号,,01,104,0030021,,,,,,,2026-01-22,1,,,,,トラタロウ,0
2303,7010001261749,新規,0,2026-01-22,2026-01-22,Ｃｒａｆｔ　Ｗａｇｙｕ　Ｊａｐａｎ株式会社,,株式会社,東京都,千代田区,丸の内１丁目８番２号鉄鋼ビル４Ｆ,,13,101,1000005,,,,,,,2026-01-22,1,,,,,クラフトワギュウジャパン,0
2304,7010001261757,新規,0,2026-01-22,2026-01-22,株式会社ＭａｒｃｈＯｎ,,株式会社,東京都,千代田区,永田町２丁目１７番３号来栖ビル１階,,13,101,1000014,,,,,,,2026-01-22,1,,,,,マーチオン,0
2305,7010001261798,新規,0,2026-01-22,2026-01-22,ポルカドルフィン株式会社,,株式会社,東京都,千代田区,神田和泉町一番地６－１６ヤマトビル４０５,,13,101,1010024,,,,,,,2026-01-22,1,,,,,ポルカドルフィン,0
2326,7010401195910,新規,0,2026-01-22,2026-01-22,株式会社ＦＲＣ,,株式会社,東京都,港区,六本木３丁目１６番１２号六本木ＫＳビル５階,,13,103,1060032,,,,,,,2026-01-22,1,,,,,エフアールシー,0
2327,7010401195919,新規,0,2026-01-22,2026-01-22,アインクラング株式会社,,株式会社,東京都,港区,南青山３丁目１番３６号青山丸竹ビル６Ｆ,,13,103,1070062,,,,,,,2026-01-22,1,,,,,アインクラング,0
2367,7010701048933,新規,0,2026-01-22,2026-01-22,ｅｉｅｎｌｏｏｐ株式会社,,株式会社,東京都,品川区,八潮５丁目１０―５２―５０５,,13,109,1400003,,,,,,,2026-01-22,1,,,,,エイエンループ,0
2370,7010801036986,新規,0,2026-01-22,2026-01-22,株式会社ＮＯＡＬＩＮＫ,,株式会社,東京都,大田区,西蒲田７丁目１８番６号ロータスフラットＩＩ２階１号室,00142288,13,111,1440051,,,,,,,2026-01-22,1,,,,,ノアリンク,0
2371,7010803005700,新規,0,2026-01-22,2026-01-22,合同会社Ｇｉｎｉｔｅｃｈ,,合同会社,東京都,大田区,田園調布１丁目１４番１５号,,13,111,1450071,,,,,,,2026-01-22,1,,,,,ジニテック,0
2372,7010903010542,新規,0,2026-01-22,2026-01-22,イエス合同会社,,合同会社,東京都,世田谷区,駒沢５丁目９番９号サンク駒沢３０１,,13,112,1540012,,,,,,,2026-01-22,1,,,,,イエス,0
2376,7011001174965,新規,0,2026-01-22,2026-01-22,株式会社Ｂｒｉｇｈｔｐｅａｋ,,株式会社,東京都,渋谷区,道玄坂１丁目１０番８号渋谷道玄坂東急ビル２Ｆ－Ｃ,,13,113,1500043,,,,,,,2026-01-22,1,,,,,ブライトピーク,0
2377,7011001175030,新規,0,2026-01-22,2026-01-22,株式会社アトラスト,,株式会社,東京都,渋谷区,渋谷１丁目７番１号,,13,113,1500002,,,,,,,2026-01-22,1,,,,,アトラスト,0
2378,7011001175146,新規,0,2026-01-22,2026-01-22,株式会社Ｍｏｚｕｌｅ,,株式会社,東京都,目黒区,自由が丘２丁目１６番１２号ＲＪ３,,13,110,1520035,,,,,,,2026-01-22,1,,,,,モジュール,0
2379,7011001175154,新規,0,2026-01-22,2026-01-22,株式会社ＧＡＲＭＥＮＴ　ＷＯＲＫ,,株式会社,東京都,渋谷区,神宮前６丁目２３番４号桑野ビル２階,,13,113,1500001,,,,,,,2026-01-22,1,,,,,ガーメントワーク,0
2381,7011003023427,新規,0,2026-01-22,2026-01-22,合同会社うみとかぜ,,合同会社,東京都,渋谷区,道玄坂１丁目１０番８号渋谷道玄坂東急ビル２Ｆ‐Ｃ,,13,113,1500043,,,,,,,2026-01-22,1,,,,,ウミトカゼ,0
2382,7011003023435,新規,0,2026-01-22,2026-01-22,合同会社ＫＲＹＰＴＡ,,合同会社,東京都,渋谷区,広尾１丁目２番地１号ヒカリビル４階,,13,113,1500012,,,,,,,2026-01-22,1,,,,,クリプタ,0
2394,7011501033019,新規,0,2026-01-22,2026-01-22,株式会社ＴＡＴＥ‐ＹＵＫＩ,,株式会社,東京都,北区,赤羽１丁目１番６号赤羽駅前第２ビル４階,,13,117,1150045,,,,,,,2026-01-22,1,,,,,タテユキ,0
2475,7011701029097,新規,0,2026-01-22,2026-01-22,株式会社絵夢ＰＬＡＮＮＩＮＧ,,株式会社,東京都,江戸川区,江戸川２丁目２１番１８号,,13,123,1320013,,,,,,,2026-01-22,1,,,,,エムプランニング,0
2476,7011703004503,新規,0,2026-01-22,2026-01-22,ＡＫＩ合同会社,,合同会社,東京都,江戸川区,東小岩３丁目１４番１号,,13,123,1330052,,,,,,,2026-01-22,1,,,,,アキ,0
2480,7011803007281,新規,0,2026-01-22,2026-01-22,合同会社Ｌｉｆｅ　Ｇｒｏｗｉｎ,,合同会社,東京都,足立区,千住東１丁目２２番１４号フィオール立石１階,,13,121,1200025,,,,,,,2026-01-22,1,,,,,ライフグロウウィン,0
2482,7012403007572,新規,0,2026-01-22,2026-01-22,合同会社ＴＭシステムズ,,合同会社,東京都,狛江市,西野川４丁目２８番１６号,,13,219,2010001,,,,,,,2026-01-22,1,,,,,ティーエムシステムズ,0
2493,7020001166740,新規,0,2026-01-22,2026-01-22,株式会社Ｓコネクト,,株式会社,神奈川県,横浜市中区,本郷町２丁目６０番地６‐１０６,,14,104,2310843,,,,,,,2026-01-22,1,,,,,エスコネクト,0
2494,7020001166798,新規,0,2026-01-22,2026-01-22,株式会社ＳＵＫＩＭＡ,,株式会社,神奈川県,川崎市麻生区,栗平２丁目８番８号ナイスステージ栗平ガーデンズ１０７,,14,137,2150031,,,,,,,2026-01-22,1,,,,,スキマ,0
2495,7020001166823,新規,0,2026-01-22,2026-01-22,株式会社ユグドラシル,,株式会社,神奈川県,横浜市中区,相生町１丁目２１番地Ｂｒｅｅｚｅ横浜公園９０２,,14,104,2310012,,,,,,,2026-01-22,1,,,,,ユグドラシル,0
2498,7020003030192,新規,0,2026-01-22,2026-01-22,ＴＥＣＨＳＰＲＥＳＳＯ合同会社,,合同会社,神奈川県,横浜市戸塚区,品濃町５１７‐１パークハウス南の街９０４,,14,110,2440801,,,,,,,2026-01-22,1,,,,,テクスプレッソ,0
2505,7021001087290,新規,0,2026-01-22,2026-01-22,株式会社ｍａｐｌｅ,,株式会社,神奈川県,平塚市,万田３丁目３７番１２号,,14,203,2540913,,,,,,,2026-01-22,1,,,,,メープル,0
2511,7030001170667,新規,0,2026-01-22,2026-01-22,ＳＡＩＫＯＵ株式会社,,株式会社,埼玉県,川口市,芝新町１１－１８サンテラス蕨４０２号,,11,203,3330851,,,,,,,2026-01-22,1,,,,,サイコウ,0
2526,7040003029258,新規,0,2026-01-22,2026-01-22,合同会社Ｙ’ｓＤｅｓｉｇｎ,,合同会社,千葉県,柏市,若柴２２７―６柏の葉キャンパス１４７―Ｅ４０１,,12,217,2770871,,,,,,,2026-01-22,1,,,,,ワイズデザイン,0
2532,7070001043745,新規,0,2026-01-22,2026-01-22,株式会社ホース,,株式会社,群馬県,館林市,本町２丁目３番７号木村ビル１Ｆ,,10,207,3740024,,,,,,,2026-01-22,1,,,,,ホース,0
2535,7080003003630,新規,0,2026-01-22,2026-01-22,合同会社ほけんのＹＭ,,合同会社,静岡県,静岡市駿河区,みずほ１丁目３２番１２号パーソンライフみずほ１０３号,,22,102,4210115,,,,,,,2026-01-22,1,,,,,ホケンノワイエム,0
2536,7080401028394,新規,0,2026-01-22,2026-01-22,株式会社歓喜ケアグループ,,株式会社,静岡県,浜松市中央区,楊子町１６番地の３,,22,138,4300855,,,,,,,2026-01-22,1,,,,,カンキケアグループ,0
2551,7120001283542,新規,0,2026-01-22,2026-01-22,株式会社ルミナスケア,,株式会社,大阪府,大阪市西淀川区,佃３丁目６番１１号,,27,113,5550001,,,,,,,2026-01-22,1,,,,,ルミナスケア,0
2552,7120001283550,新規,0,2026-01-22,2026-01-22,盛大株式会社,,株式会社,大阪府,大阪市北区,天神橋１丁目１８－２７天神ビル４０２号室,,27,127,5300041,,,,,,,2026-01-22,1,,,,,セイダイ,0
2553,7120001283609,新規,0,2026-01-22,2026-01-22,励恒株式会社,,株式会社,大阪府,大阪市平野区,平野西４丁目８番５号リアライズ平野西１０１号,,27,126,5470033,,,,,,,2026-01-22,1,,,,,レイコウ,0
2556,7120003031718,新規,0,2026-01-22,2026-01-22,合同会社ＴＯＭＯＥ,,合同会社,大阪府,大阪市中央区,平野町２丁目３番１１号北浜ＮＫビル２階,,27,128,5410046,,,,,,,2026-01-22,1,,,,,トモエ,0
2557,7120003031726,新規,0,2026-01-22,2026-01-22,合同会社Ｄ‐ＳＩＴＥ,,合同会社,大阪府,枚方市,岡東町２６番３号,,27,210,5730032,,,,,,,2026-01-22,1,,,,,ディーサイト,0
2564,7122001040080,新規,0,2026-01-22,2026-01-22,ＡＩ総研ソリューションズ株式会社,,株式会社,大阪府,東大阪市,高井田本通５丁目１番５号,,27,227,5770066,,,,,,,2026-01-22,1,,,,,エーアイソウケンソリューションズ,0
2565,7122001040114,新規,0,2026-01-22,2026-01-22,株式会社サンティ,,株式会社,大阪府,八尾市,高安町南４丁目１４番地の８,,27,212,5810875,,,,,,,2026-01-22,1,,,,,サンティ,0
2568,7130001081391,新規,0,2026-01-22,2026-01-22,株式会社ＦＵＴＵＲＯ,,株式会社,京都府,舞鶴市,丸山西町３２０番地１７,,26,202,6250064,,,,,,,2026-01-22,1,,,,,フトゥーロ,0
2569,7130001081433,新規,0,2026-01-22,2026-01-22,株式会社北澤造園,,株式会社,京都府,京都市右京区,鳴滝般若寺町２９番地の３,,26,108,6168258,,,,,,,2026-01-22,1,,,,,キタザワゾウエン,0
2570,7130001081466,新規,0,2026-01-22,2026-01-22,オムロンデバイス株式会社,,株式会社,京都府,京都市下京区,塩小路通堀川東入南不動堂町８０１番地,,26,106,6008234,,,,,,,2026-01-22,1,,,,,オムロンデバイス,0
2580,7140001141426,新規,0,2026-01-22,2026-01-22,株式会社しくみアレンジ,,株式会社,兵庫県,たつの市,龍野町片山１１０－２,,28,229,6794123,,,,,,,2026-01-22,1,,,,,シクミアレンジ,0
2581,7140001141467,新規,0,2026-01-22,2026-01-22,株式会社Ｓｅｉｗａ　Ｌｉｎｋ,,株式会社,兵庫県,神戸市中央区,日暮通４丁目１番２８号ライオンズマンション三宮東２０７号室,,28,110,6510077,,,,,,,2026-01-22,1,,,,,セイワリンク,0
2585,7150003003813,新規,0,2026-01-22,2026-01-22,合同会社Ｍ＆Ｈ,,合同会社,奈良県,奈良市,北永井町４５５番地,,29,201,6308442,,,,,,,2026-01-22,1,,,,,エムアンドエイチ,0
2587,7160003003705,新規,0,2026-01-22,2026-01-22,千幸合同会社,,合同会社,滋賀県,草津市,東草津２丁目６番１－７号,,25,206,5250033,,,,,,,2026-01-22,1,,,,,センコウ,0
2596,7180001170090,新規,0,2026-01-22,2026-01-22,愛知特殊機工株式会社,,株式会社,愛知県,名古屋市中川区,澄池町３番５号,,23,110,4540806,,,,,,,2026-01-22,1,,,,,アイチトクシュキコウ,0
2601,7180003029599,新規,0,2026-01-22,2026-01-22,合同会社サル‐タヒコ．,,合同会社,愛知県,名古屋市西区,花の木２丁目３番２０号フィオーレＩＩ１０１号,00142287,23,104,4510062,,,,,,,2026-01-22,1,,,,,サルタヒコ,0
2604,7190003005327,新規,0,2026-01-22,2026-01-22,Ｅ‐ＳＥＣ合同会社,,合同会社,三重県,桑名市,多度町柚井１６１３番地,,24,205,5110101,,,,,,,2026-01-22,1,,,,,イーセック,0
2608,7200001044614,新規,0,2026-01-22,2026-01-22,揖斐川農苑株式会社,,株式会社,岐阜県,揖斐郡揖斐川町,谷汲有鳥４２９番地,,21,401,5011315,,,,,,,2026-01-22,1,,,,,イビガワノウエン,0
2609,7200001044647,新規,0,2026-01-22,2026-01-22,株式会社高木建設,00142283,株式会社,岐阜県,多治見市,滝呂町１２丁目１４８番地の１１１０,,21,204,5070813,,,,,,,2026-01-22,1,,,,,タカギケンセツ,0
2613,7230001021255,新規,0,2026-01-22,2026-01-22,株式会社Ｆａｍｉｅｉｅ,,株式会社,富山県,黒部市,三日市３１２０番地,,16,207,9380031,,,,,,,2026-01-22,1,,,,,ファミエール,0
2618,7250003003885,新規,0,2026-01-22,2026-01-22,合同会社ＫＬ‐Ｓｈｏｏｔ,,合同会社,山口県,周南市,大字呼坂１４８,,35,215,7450612,,,,,,,2026-01-22,1,,,,,ケーエルシュート,0
2625,7290001112866,新規,0,2026-01-22,2026-01-22,株式会社ＷｅＧｏ．Ｊｐ,,株式会社,福岡県,福岡市博多区,博多駅南２丁目１番９号博多筑紫通りセンタービル１Ｆ,,40,132,8120016,,,,,,,2026-01-22,1,,,,,ウィゴードットジェイピー,0
2626,7290001112882,新規,0,2026-01-22,2026-01-22,株式会社ピュアプランニング,,株式会社,福岡県,福岡市博多区,東那珂１丁目１３番３２－６０３号,,40,132,8120892,,,,,,,2026-01-22,1,,,,,ピュアプランニング,0
2628,7290003017956,新規,0,2026-01-22,2026-01-22,合同会社Ｓ,,合同会社,福岡県,福岡市中央区,梅光園団地２－１１５,,40,133,8100036,,,,,,,2026-01-22,1,,,,,エス,0
2630,7290005019967,新規,0,2026-01-22,2026-01-22,ＮＰＯ法人福岡幼児発達教育研究会,,その他の設立登記法人,福岡県,福岡市南区,井尻４丁目２番４６号,,40,134,8111302,,,,,,,2026-01-22,1,,,,,フクオカヨウジハッタツキョウイクケンキュウカイ,0
2636,7320001021551,新規,0,2026-01-22,2026-01-22,株式会社佐藤工業,,株式会社,大分県,臼杵市,野津町大字西畑５５１６番地の１,,44,206,8750224,,,,,,,2026-01-22,1,,,,,サトウコウギョウ,0
2640,7330003011401,新規,0,2026-01-22,2026-01-22,合同会社マイカー保険サービス,,合同会社,熊本県,熊本市南区,近見７丁目４番２６号,,43,104,8614101,,,,,,,2026-01-22,1,,,,,マイカーホケンサービス,0
2642,7340001027919,新規,0,2026-01-22,2026-01-22,株式会社ＥＣＯＰＡ開発,,株式会社,鹿児島県,鹿児島市,真砂本町５２番１６号,,46,201,8900067,,,,,,,2026-01-22,1,,,,,エコパカイハツ,0
2648,7360001036257,新規,0,2026-01-22,2026-01-22,株式会社琉美,,株式会社,沖縄県,宜野湾市,野嵩２丁目１３－１－２０１,,47,205,9012203,,,,,,,2026-01-22,1,,,,,リュウビ,0
2651,7360003015556,新規,0,2026-01-22,2026-01-22,合同会社よし興業,,合同会社,沖縄県,島尻郡南風原町,字兼城４６９－５ヒルズコート城Ａ－１０５,,47,350,9011111,,,,,,,2026-01-22,1,,,,,ヨシコウギョウ,0
2656,7430001096104,新規,0,2026-01-22,2026-01-22,ＴＯＵＹＡ　ＳＵＰＰＯＲＴ　ＳＹＳＴＥＭ株式会社,,株式会社,北海道,札幌市手稲区,前田九条１４丁目２番１３号,,01,109,0060819,,,,,,,2026-01-22,1,,,,,トウヤサポートシステム,0
2660,7460101007809,新規,0,2026-01-22,2026-01-22,株式会社林司商店,,株式会社,北海道,中川郡池田町,字大通５丁目２０番地,,01,644,0830090,,,,,,,2026-01-22,1,,,,,ハヤシツカサショウテン,0
2664,7500001026739,新規,0,2026-01-22,2026-01-22,株式会社結,,株式会社,愛媛県,東温市,松瀬川甲５３３番地１３,,38,215,7910314,,,,,,,2026-01-22,1,,,,,ユイ,0
2679,8010001261789,新規,0,2026-01-22,2026-01-22,ＵＧＩ　ＣＲＥＡＴＩＶＥ株式会社,,株式会社,東京都,中央区,東日本橋３丁目５－１６仙石ビル２階,,13,102,1030004,,,,,,,2026-01-22,1,,,,,ユージーアイクリエイティブ,0
2680,8010001262110,新規,0,2026-01-22,2026-01-22,昇匯株式会社,,株式会社,東京都,中央区,銀座１丁目１４番５号銀座ウイングビル北９階,,13,102,1040061,,,,,,,2026-01-22,1,,,,,ショウカイ,0
2686,8010003050001,新規,0,2026-01-22,2026-01-22,合同会社トゥモロー・メディカル・ファシリティ,,合同会社,東京都,中央区,銀座１丁目２２番１１号銀座大竹ビジデンス２Ｆ,,13,102,1040061,,,,,,,2026-01-22,1,,,,,トゥモローメディカルファシリティ,0
2706,8010401195595,新規,0,2026-01-22,2026-01-22,株式会社三和建設,,株式会社,東京都,港区,港南２丁目１５番１号品川インターシティＡ棟２８階,,13,103,1080075,,,,,,,2026-01-22,1,,,,,サンワケンセツ,0
2707,8010401195959,新規,0,2026-01-22,2026-01-22,ＶｅｔＦａｍｉｌｙ　Ｊａｐａｎ株式会社,,株式会社,東京都,港区,港南２丁目１６番１号品川イーストワンタワー４階,,13,103,1080075,,,,,,,2026-01-22,1,,,,,ベットファミリージャパン,0
2713,8010403037011,新規,0,2026-01-22,2026-01-22,合同会社ＥＦ２,,合同会社,東京都,港区,赤坂４丁目１－２９赤坂赤菱ビル５階,,13,103,1070052,,,,,,,2026-01-22,1,,,,,イーエフツー,0
2766,8010901058822,新規,0,2026-01-22,2026-01-22,キーウェアメディカル株式会社,,株式会社,東京都,世田谷区,上北沢５丁目３７番１８号,,13,112,1560057,,,,,,,2026-01-22,1,,,,,キーウェアメディカル,0
2776,8011003023401,新規,0,2026-01-22,2026-01-22,合同会社エムズコンサルタント,,合同会社,東京都,渋谷区,神泉町２０番２１号クロスシー渋谷神泉ビル３－１４,,13,113,1500045,,,,,,,2026-01-22,1,,,,,エムズコンサルタント,0
2781,8011101114498,新規,0,2026-01-22,2026-01-22,株式会社Ｓｕｎｆｌｏｗｅｒ,,株式会社,東京都,新宿区,弁天町１４３－４,,13,104,1620851,,,,,,,2026-01-22,1,,,,,サンフラワー,0
2782,8011101114606,新規,0,2026-01-22,2026-01-22,Ｒｅａｄｙ　Ｇｏ株式会社,,株式会社,東京都,新宿区,西新宿１丁目２０番３号西新宿高木ビル７Ｆ・８Ｆリージャス新宿西口ビジネスセンター,00142286,13,104,1600023,,,,,,,2026-01-22,1,,,,,レディーゴー,0
2783,8011101114671,新規,0,2026-01-22,2026-01-22,株式会社Ａｌｌｏｒ,,株式会社,東京都,新宿区,百人町１丁目２３番４号,,13,104,1690073,,,,,,,2026-01-22,1,,,,,アロール,0
2863,8011703004502,新規,0,2026-01-22,2026-01-22,ｃｏｃｏ合同会社,,合同会社,東京都,江戸川区,南小岩８丁目１６番１７号,,13,123,1330056,,,,,,,2026-01-22,1,,,,,ココ,0
2867,8013303008057,新規,0,2026-01-22,2026-01-22,合同会社Ｋａｌａｎｃｈｏｅ,,合同会社,東京都,豊島区,東池袋２丁目６２番８号ＢＩＧオフィスプラザ池袋１２０６,,13,116,1700013,,,,,,,2026-01-22,1,,,,,カランコイエ,0
2872,8020001166715,新規,0,2026-01-22,2026-01-22,株式会社Ａｔｌａｓ　Ｌｉｆｔｉｎｇ＆Ｒｉｇｇｉｎｇ　Ｊａｐａｎ,,株式会社,神奈川県,横浜市鶴見区,鶴見中央４丁目３７番３７－３０１号,,14,101,2300051,,,,,,,2026-01-22,1,,,,,アトラスリフティングアンドリギングジャパン,0
2873,8020001166764,新規,0,2026-01-22,2026-01-22,株式会社サンライズ,,株式会社,神奈川県,横浜市西区,浅間町１丁目４番３号ウィザードビル４０２,,14,103,2200072,,,,,,,2026-01-22,1,,,,,サンライズ,0
2874,8020001166822,新規,0,2026-01-22,2026-01-22,株式会社サイリンク,,株式会社,神奈川県,横浜市中区,相生町１丁目２１番地Ｂｒｅｅｚｅ横浜公園９０２,,14,104,2310012,,,,,,,2026-01-22,1,,,,,サイリンク,0
2879,8020003030084,新規,0,2026-01-22,2026-01-22,合同会社ＦＯＳＴＯＲＹ,,合同会社,神奈川県,横浜市神奈川区,金港町５－１４クアドリフォリオ８階,,14,102,2210056,,,,,,,2026-01-22,1,,,,,フォストリー,0
2880,8020003030183,新規,0,2026-01-22,2026-01-22,ナギ・アグリフード合同会社,,合同会社,神奈川県,川崎市高津区,瀬田１０番７号１０２,,14,134,2130003,,,,,,,2026-01-22,1,,,,,ナギアグリフード,0
2881,8020003030191,新規,0,2026-01-22,2026-01-22,合同会社いりおす,,合同会社,神奈川県,横浜市保土ケ谷区,鎌谷町３０５番地４,,14,106,2400063,,,,,,,2026-01-22,1,,,,,イリオス,0
2884,8021003017022,新規,0,2026-01-22,2026-01-22,ＷＥＳＴ・Ｓｅｒｖｉｃｅ合同会社,,合同会社,神奈川県,茅ヶ崎市,香川６丁目１４番５７号,,14,207,2530082,,,,,,,2026-01-22,1,,,,,ウエストサービス,0
2889,8030001170641,新規,0,2026-01-22,2026-01-22,株式会社Ａ・Ｃ・Ｌ,,株式会社,埼玉県,川口市,並木３丁目４番２３号レインボー並木ビル１Ｆ,,11,203,3320034,,,,,,,2026-01-22,1,,,,,エーシーエル,0
2898,8040003029224,新規,0,2026-01-22,2026-01-22,ＪＩＫＡ合同会社,,合同会社,千葉県,松戸市,南花島２丁目２２番地の４ｌｕｃａｓβ１０５,,12,207,2710065,,,,,,,2026-01-22,1,,,,,ジーカ,0
2899,8040003029315,新規,0,2026-01-22,2026-01-22,合同会社新居設備,,合同会社,千葉県,柏市,塚崎８９７番地２５,,12,217,2770923,,,,,,,2026-01-22,1,,,,,ニイイセツビ,0
2900,8040003029331,新規,0,2026-01-22,2026-01-22,合同会社Ｗ．Ｒ,,合同会社,千葉県,市川市,稲越２丁目１８番８号,,12,203,2720831,,,,,,,2026-01-22,1,,,,,ダブルアール,0
2903,8050001057829,新規,0,2026-01-22,2026-01-22,株式会社ＮＩＴＴＯＣＯＲＰホールディングス,,株式会社,茨城県,東茨城郡茨城町,大字長岡３２６８番地,,08,302,3113116,,,,,,,2026-01-22,1,,,,,ニットーコープホールディングス,0
2904,8050003009877,新規,0,2026-01-22,2026-01-22,合同会社エイト,,合同会社,茨城県,行方市,小高２１９－１,,08,233,3113804,,,,,,,2026-01-22,1,,,,,エイト,0
2905,8050005013753,新規,0,2026-01-22,2026-01-22,一般社団法人Ｉｎｎｏｃｅｎｃｅ,,その他の設立登記法人,茨城県,日立市,大みか町１丁目５－５,,08,202,3191221,,,,,,,2026-01-22,1,,,,,イノセンス,0
2921,8120001283491,新規,0,2026-01-22,2026-01-22,宸光瑾瑜株式会社,,株式会社,大阪府,大阪市平野区,平野西５丁目９－２－２０２室,,27,126,5470033,,,,,,,2026-01-22,1,,,,,シンコウキンユ,0
2922,8120001283590,新規,0,2026-01-22,2026-01-22,株式会社ＭＩＲＡ,,株式会社,大阪府,大阪市鶴見区,諸口６丁目１５番８０－１６０号,,27,124,5380051,,,,,,,2026-01-22,1,,,,,ミラ,0
2930,8120101073108,新規,0,2026-01-22,2026-01-22,株式会社サナノイヘヤ,,株式会社,大阪府,泉佐野市,新町２丁目５１８７番地１０１,,27,213,5980051,,,,,,,2026-01-22,1,,,,,サナノイヘヤ,0
2938,8130001081465,新規,0,2026-01-22,2026-01-22,株式会社小崎米穀店,,株式会社,京都府,京都市下京区,伊勢松町１１４,,26,106,6008254,,,,,,,2026-01-22,1,,,,,コザキベイコクテン,0
2939,8130001081473,新規,0,2026-01-22,2026-01-22,株式会社みやこパートナーズ,,株式会社,京都府,京都市伏見区,両替町９丁目２６３番地,,26,109,6128082,,,,,,,2026-01-22,1,,,,,ミヤコパートナーズ,0
2944,8140001141425,新規,0,2026-01-22,2026-01-22,株式会社ＲＨＹ,,株式会社,兵庫県,神戸市垂水区,名谷町字平ノ垣内８５０番地の１エクシアパーム弐番館３０３号,,28,108,6550852,,,,,,,2026-01-22,1,,,,,アールエイチワイ,0
2968,8190001032850,新規,0,2026-01-22,2026-01-22,株式会社Ｒｉｎｇｏ＆Ｃａｒｅ,,株式会社,三重県,四日市市,西新地７番３号プラトンホテル四日市２階,,24,202,5100087,,,,,,,2026-01-22,1,,,,,リンゴアンドケア,0
2973,8210001020472,新規,0,2026-01-22,2026-01-22,Ｕ‐ＴＥＣ株式会社,,株式会社,福井県,福井市,木田町１９０５番地,,18,201,9188106,,,,,,,2026-01-22,1,,,,,ユーテック,0
2974,8230001021254,新規,0,2026-01-22,2026-01-22,ＩＣＨＩ株式会社,,株式会社,富山県,砺波市,杉木２丁目１８１番地４,,16,208,9391355,,,,,,,2026-01-22,1,,,,,イチ,0
2977,8240005016035,新規,0,2026-01-22,2026-01-22,社会保険労務士法人新風,,その他の設立登記法人,広島県,広島市中区,舟入川口町１６番２６号,,34,101,7300845,,,,,,,2026-01-22,1,,,,,シンプウ,0
2991,8290001112857,新規,0,2026-01-22,2026-01-22,株式会社ＬＹＮＮＥＯ,,株式会社,福岡県,福岡市南区,大楠２丁目７番１８－３０７,,40,134,8150082,,,,,,,2026-01-22,1,,,,,リンネオ,0
2992,8290001112898,新規,0,2026-01-22,2026-01-22,株式会社ＦＬＭｕｓｉｃ,,株式会社,福岡県,福岡市中央区,平和５丁目２０番６号サンヒルズ平和１０３,,40,133,8100016,,,,,,,2026-01-22,1,,,,,エフエルミュージック,0
2993,8290001112907,新規,0,2026-01-22,2026-01-22,株式会社ｈｏｍｅ,,株式会社,福岡県,福岡市博多区,大字立花寺１７９－５５,,40,132,8120862,,,,,,,2026-01-22,1,,,,,ホーム,0
2995,8290003017939,新規,0,2026-01-22,2026-01-22,合同会社モバイルリンク,,合同会社,福岡県,糟屋郡粕屋町,花ヶ浦２丁目１７－１,,40,349,8112310,,,,,,,2026-01-22,1,,,,,モバイルリンク,0
2996,8290003017955,新規,0,2026-01-22,2026-01-22,合同会社オリーブ,,合同会社,福岡県,福岡市西区,今宿東１丁目１３番５号,,40,135,8190161,,,,,,,2026-01-22,1,,,,,オリーブ,0
2997,8290005019974,新規,0,2026-01-22,2026-01-22,一般社団法人研亜会,,その他の設立登記法人,福岡県,福岡市中央区,桜坂３丁目８番４５号ＹＳビル２階,,40,133,8100024,,,,,,,2026-01-22,1,,,,,ケンアカイ,0
3002,8300003002410,新規,0,2026-01-22,2026-01-22,合同会社にゃんぱらり,,合同会社,佐賀県,佐賀市,蓮池町蓮池１５６,,41,201,8490000,,,,,,,2026-01-22,1,,,,,ニャンパラリ,0
3013,8330003011400,新規,0,2026-01-22,2026-01-22,合同会社ビーアンドエス,,合同会社,熊本県,熊本市中央区,迎町１丁目２－２５,,43,101,8600817,,,,,,,2026-01-22,1,,,,,ビーアンドエス,0
3017,8360001036280,新規,0,2026-01-22,2026-01-22,ＤＭＯなんじょう株式会社,,株式会社,沖縄県,南城市,佐敷字新里１８７０番地,,47,215,9011412,,,,,,,2026-01-22,1,,,,,ディエムオーナンジョウ,0
3022,8370001053416,新規,0,2026-01-22,2026-01-22,株式会社ＨＥＭ　ＳＴＩＴＣＨ,,株式会社,宮城県,仙台市青葉区,国分町１丁目１番１３号,,04,101,9800803,,,,,,,2026-01-22,1,,,,,ヘムステッチ,0
3023,8370003007452,新規,0,2026-01-22,2026-01-22,合同会社ＰａｉｎｔＢｏｘ,,合同会社,宮城県,仙台市太白区,中田町字法地北１９－６５,,04,104,9811103,,,,,,,2026-01-22,1,,,,,ペイントボックス,0
3025,8380001035826,新規,0,2026-01-22,2026-01-22,拓く株式会社,,株式会社,福島県,いわき市,好間町下好間字一町坪２１番地の１,,07,204,9701151,,,,,,,2026-01-22,1,,,,,ヒラク,0
3026,8380003006239,新規,0,2026-01-22,2026-01-22,合同会社ＧＬＯＲＹ,,合同会社,福島県,郡山市,横塚３丁目１７‐１３ベルグランツ２０５,,07,203,9638803,,,,,,,2026-01-22,1,,,,,グローリー,0
3028,8390003002484,新規,0,2026-01-22,2026-01-22,合同会社まる福,,合同会社,山形県,尾花沢市,大字荻袋１６９１,,06,212,9994552,,,,,,,2026-01-22,1,,,,,マルフク,0
3029,8410003004206,新規,0,2026-01-22,2026-01-22,合同会社ファーム五ケ別府,,合同会社,秋田県,仙北郡美郷町,土崎字上野１０３番地,,05,434,0191541,,,,,,,2026-01-22,1,,,,,ファームゴカベップ,0
3034,8430001096086,新規,0,2026-01-22,2026-01-22,ＡＴＬＡＳ　ＯＮＥ株式会社,,株式会社,北海道,札幌市清田区,平岡三条３丁目２６番３号,,01,110,0040873,,,,,,,2026-01-22,1,,,,,アトラスワン,0
3037,8430003018518,新規,0,2026-01-22,2026-01-22,Ｓｈｉｂａｐｐ合同会社,,合同会社,北海道,札幌市中央区,南二条西５丁目３１番１ＲＭＢｌｄ７０１,,01,101,0600062,,,,,,,2026-01-22,1,,,,,シバップ,0
3038,8430003018526,新規,0,2026-01-22,2026-01-22,ジオスフィア合同会社,,合同会社,北海道,札幌市西区,琴似四条１丁目１番１５－２１０号,,01,107,0630814,,,,,,,2026-01-22,1,,,,,ジオスフィア,0
3039,8440001009749,新規,0,2026-01-22,2026-01-22,株式会社ＨＡＲＡＤＡ,,株式会社,北海道,函館市,富岡町２丁目２０番９号,,01,202,0410811,,,,,,,2026-01-22,1,,,,,ハラダ,0
3040,8460101007808,新規,0,2026-01-22,2026-01-22,幸和商事株式会社,,株式会社,北海道,十勝郡浦幌町,字貴老路４１番地６,,01,649,0893587,,,,,,,2026-01-22,1,,,,,コウワショウジ,0
3048,8490001011262,新規,0,2026-01-22,2026-01-22,株式会社Ｔｅｍｐｕｓ,,株式会社,高知県,高知市,針木北２丁目１１番３２号,,39,201,7808087,,,,,,,2026-01-22,1,,,,,テンプス,0
3056,9010001261697,新規,0,2026-01-22,2026-01-22,ＴＦ２ホールディングス株式会社,,株式会社,東京都,千代田区,丸の内２丁目４番１号,,13,101,1000005,,,,,,,2026-01-22,1,,,,,ティーエフツーホールディングス,0
3057,9010001261788,新規,0,2026-01-22,2026-01-22,株式会社ウィズコンパス,,株式会社,東京都,千代田区,神田錦町３丁目７番地２東京堂錦町ビル８Ｆ,,13,101,1010054,,,,,,,2026-01-22,1,,,,,ウィズコンパス,0
3058,9010001262134,新規,0,2026-01-22,2026-01-22,株式会社イーサン,,株式会社,東京都,千代田区,神田駿河台１丁目７番１－５０１号,,13,101,1010062,,,,,,,2026-01-22,1,,,,,イーサン,0
3059,9010001262200,新規,0,2026-01-22,2026-01-22,ＶＮＫ株式会社,,株式会社,東京都,千代田区,丸の内３丁目３番１号新東京ビル３階,,13,101,1000005,,,,,,,2026-01-22,1,,,,,ブイエヌケー,0
3062,9010005041245,新規,0,2026-01-22,2026-01-22,ＮＴＴグローバルデータセンターＳＨＲ３‐Ｄ特定目的会社,,その他の設立登記法人,東京都,中央区,日本橋１丁目４番１号日本橋一丁目ビルディング,,13,102,1030027,,,,,,,2026-01-22,1,,,,,エヌティティグローバルデータセンターエスエイチアールスリーディー,0
3080,9010103002743,新規,0,2026-01-22,2026-01-22,合同会社ステレオ・スキップ,,合同会社,東京都,八王子市,元八王子町３丁目２７５０番地９５７,,13,201,1930826,,,,,,,2026-01-22,1,,,,,ステレオスキップ,0
3088,9010401195909,新規,0,2026-01-22,2026-01-22,株式会社オストリケ,,株式会社,東京都,港区,白金台２丁目１４番１０－５０３号,,13,103,1080071,,,,,,,2026-01-22,1,,,,,オストリケ,0
3089,9010401195974,新規,0,2026-01-22,2026-01-22,株式会社トーマンホールディングス,,株式会社,東京都,港区,赤坂９丁目７番１号ミッドタウン・タワー３４階,,13,103,1070052,,,,,,,2026-01-22,1,,,,,トーマンホールディングス,0
3093,9010403037084,新規,0,2026-01-22,2026-01-22,Ｗｏｒｔｒａｌ合同会社,,合同会社,東京都,港区,六本木３丁目１６番１２号六本木ＫＳビル５Ｆ,,13,103,1060032,,,,,,,2026-01-22,1,,,,,ワートラル,0
3094,9010403037118,新規,0,2026-01-22,2026-01-22,ＣＡＮＤＹ３合同会社,,合同会社,東京都,港区,虎ノ門５丁目１番４号,,13,103,1050001,,,,,,,2026-01-22,1,,,,,キャンディスリー,0
3095,9010405025194,新規,0,2026-01-22,2026-01-22,一般社団法人希少種保全・疾病対策支援機構,,その他の設立登記法人,東京都,港区,北青山１丁目３番１号アールキューブ青山３階,,13,103,1070061,,,,,,,2026-01-22,1,,,,,キショウシュホゼンシッペイタイサクシエンキコウ,0
3121,9010501055310,新規,0,2026-01-22,2026-01-22,Ｂ＆Ｂ　Ｔｏｋｙｏ株式会社,,株式会社,東京都,台東区,千束４丁目３９番１２号,,13,106,1110031,,,,,,,2026-01-22,1,,,,,ビーアンドビートーキョー,0
3127,9010503008150,新規,0,2026-01-22,2026-01-22,三桜合同会社,,合同会社,東京都,台東区,台東３丁目１８－７藤和シティコープ御徒町５０２,,13,106,1100016,,,,,,,2026-01-22,1,,,,,サンオウ,0
3132,9010601068617,新規,0,2026-01-22,2026-01-22,クレセント・アセット株式会社,,株式会社,東京都,江東区,南砂７丁目１番２２号,,13,108,1360076,,,,,,,2026-01-22,1,,,,,クレセントアセット,0
3135,9010603012028,新規,0,2026-01-22,2026-01-22,合同会社ＳＧＬ,,合同会社,東京都,墨田区,亀沢２丁目１１番１８－３０１号,,13,107,1300014,,,,,,,2026-01-22,1,,,,,エスジーエル,0
3138,9010801036992,新規,0,2026-01-22,2026-01-22,Ｇｌｏｓｓ　Ｌｉｆｅ　Ｅｎｔｅｒｔａｉｎｍｅｎｔ株式会社,,株式会社,東京都,大田区,田園調布本町１１番７号,,13,111,1450072,,,,,,,2026-01-22,1,,,,,グロスライフエンターテイメント,0
3139,9010803005698,新規,0,2026-01-22,2026-01-22,合同会社ＭＯＡ,,合同会社,東京都,大田区,西蒲田７丁目１３番１号トラストバリュー蒲田５０２,,13,111,1440051,,,,,,,2026-01-22,1,,,,,モア,0
3144,9010901058805,新規,0,2026-01-22,2026-01-22,国際戦略パートナーズ株式会社,,株式会社,東京都,世田谷区,桜上水３丁目５番２号,,13,112,1560045,,,,,,,2026-01-22,1,,,,,コクサイセンリャクパートナーズ,0
3146,9010903010565,新規,0,2026-01-22,2026-01-22,ホイミデンタルラボ合同会社,,合同会社,東京都,世田谷区,等々力８丁目２番２４号,,13,112,1580082,,,,,,,2026-01-22,1,,,,,ホイミデンタルラボ,0
3147,9010903010581,新規,0,2026-01-22,2026-01-22,合同会社ｅｍｅｔｈ　ｌａｂ,,合同会社,東京都,世田谷区,桜１丁目５０番１０号,,13,112,1560053,,,,,,,2026-01-22,1,,,,,エメスラボ,0
3164,9011003023342,新規,0,2026-01-22,2026-01-22,合同会社ベリーベリーホット,,合同会社,東京都,目黒区,自由が丘２丁目１６番１２号ＲＪ３,,13,110,1520035,,,,,,,2026-01-22,1,,,,,ベリーベリーホット,0
3165,9011003023350,新規,0,2026-01-22,2026-01-22,合同会社豊友,,合同会社,東京都,渋谷区,桜丘町２５－１７大谷・加藤ビルＢ１Ｆ,,13,113,1500031,,,,,,,2026-01-22,1,,,,,ホウユウ,0
3166,9011003023433,新規,0,2026-01-22,2026-01-22,ＡＲＸＳ合同会社,,合同会社,東京都,渋谷区,恵比寿４丁目２０番２－８０５号,,13,113,1500013,,,,,,,2026-01-22,1,,,,,アルクス,0
3169,9011101114497,新規,0,2026-01-22,2026-01-22,株式会社和巧総合,,株式会社,東京都,新宿区,大久保２丁目１番８号プラザ新大樹ビル６階,,13,104,1690072,,,,,,,2026-01-22,1,,,,,ワコウソウゴウ,0
3170,9011101114522,新規,0,2026-01-22,2026-01-22,株式会社ＧＲＩＴＸ,,株式会社,東京都,新宿区,西新宿７丁目７番２５号ワコーレ新宿第二ビル３階,,13,104,1600023,,,,,,,2026-01-22,1,,,,,グリックス,0
3264,9011803007288,新規,0,2026-01-22,2026-01-22,合同会社クリーンプレイス,,合同会社,東京都,足立区,西新井本町４丁目１３番２０号,,13,121,1230845,,,,,,,2026-01-22,1,,,,,クリーンプレイス,0
3270,9013101009917,新規,0,2026-01-22,2026-01-22,株式会社ｉｋｎｏｔ,,株式会社,東京都,福生市,大字福生７９８番地１１,,13,218,1970011,,,,,,,2026-01-22,1,,,,,アイノット,0
3271,9013301055620,新規,0,2026-01-22,2026-01-22,株式会社キャリナビ,,株式会社,東京都,豊島区,池袋２丁目１６番１２号,,13,116,1710014,,,,,,,2026-01-22,1,,,,,キャリナビ,0
3272,9013301055629,新規,0,2026-01-22,2026-01-22,ヴェルトン株式会社,,株式会社,東京都,豊島区,巣鴨４丁目２６－３・３０１号室,,13,116,1700002,,,,,,,2026-01-22,1,,,,,ヴェルトン,0
3276,9020001166722,新規,0,2026-01-22,2026-01-22,エムドラド株式会社,,株式会社,神奈川県,横浜市保土ケ谷区,新桜ケ丘１丁目１４番５号Ｅ２０１,,14,106,2400036,,,,,,,2026-01-22,1,,,,,エムドラド,0
3277,9020001166747,新規,0,2026-01-22,2026-01-22,株式会社ＫＩＷＩ　ＬＩＮＫＳ,,株式会社,神奈川県,横浜市青葉区,すみよし台１５番地２１,,14,117,2270035,,,,,,,2026-01-22,1,,,,,キウイリンクス,0
3278,9020001166771,新規,0,2026-01-22,2026-01-22,ＫＢＳグループ株式会社,,株式会社,神奈川県,横浜市中区,尾上町６丁目８９番地５階,,14,104,2310015,,,,,,,2026-01-22,1,,,,,ケービーエスグループ,0
3279,9020001166805,新規,0,2026-01-22,2026-01-22,株式会社ソリオン,,株式会社,神奈川県,横浜市緑区,東本郷４丁目２０番２７号,,14,113,2260002,,,,,,,2026-01-22,1,,,,,ソリオン,0
3284,9020005017120,新規,0,2026-01-22,2026-01-22,医療法人社団ＥＳＴ,,その他の設立登記法人,神奈川県,横浜市青葉区,藤が丘１丁目１２番地６０,,14,117,2270043,,,,,,,2026-01-22,1,,,,,エスト,0
3290,9021003017013,新規,0,2026-01-22,2026-01-22,合同会社ブラザーホープ,,合同会社,神奈川県,厚木市,三田南２丁目１７番３７号,,14,212,2430217,,,,,,,2026-01-22,1,,,,,ブラザーホープ,0
3299,9040001142168,新規,0,2026-01-22,2026-01-22,真意株式会社,,株式会社,千葉県,千葉市若葉区,御殿町１番地９５,,12,104,2650074,,,,,,,2026-01-22,1,,,,,マナキ,0
3300,9040001142218,新規,0,2026-01-22,2026-01-22,ストーンエッジ株式会社,,株式会社,千葉県,市川市,平田１丁目１１番２号,,12,203,2720031,,,,,,,2026-01-22,1,,,,,ストーンエッジ,0
3306,9050001057885,新規,0,2026-01-22,2026-01-22,株式会社ＧｅｎｅＬｉｆｆｅ,,株式会社,茨城県,つくば市,安食２５３７番地７８,,08,220,3004205,,,,,,,2026-01-22,1,,,,,ゼネライフ,0
3308,9050003009892,新規,0,2026-01-22,2026-01-22,合同会社ＯＡＳＩＳ,,合同会社,茨城県,石岡市,柿岡３４４９番地１５,,08,205,3150116,,,,,,,2026-01-22,1,,,,,オアシス,0
3309,9050005013752,新規,0,2026-01-22,2026-01-22,一般社団法人ダイヤモンドベースボールアカデミー,,その他の設立登記法人,茨城県,守谷市,百合ケ丘２丁目２７６０番地４テラスハウス１０１,,08,224,3020110,,,,,,,2026-01-22,1,,,,,ダイヤモンドベースボールアカデミー,0
3311,9060001038950,新規,0,2026-01-22,2026-01-22,株式会社ＢＯＳＱＵＥＴ,,株式会社,栃木県,宇都宮市,下戸祭１丁目１７－１５グローリィ・ヒルズ１０３,,09,201,3200055,,,,,,,2026-01-22,1,,,,,ボスケット,0
3314,9060003005932,新規,0,2026-01-22,2026-01-22,ＡＹＡＡＮ合同会社,,合同会社,栃木県,小山市,神山２丁目１０－２シティハウス小山１６号,,09,208,3230828,,,,,,,2026-01-22,1,,,,,アヤーン,0
3317,9070001043751,新規,0,2026-01-22,2026-01-22,株式会社アノサＡＩ,,株式会社,群馬県,利根郡みなかみ町,後閑１１４７番地９,,10,449,3791305,,,,,,,2026-01-22,1,,,,,アノサエーアイ,0
3324,9080401028392,新規,0,2026-01-22,2026-01-22,株式会社グロースパス・パートナーズ,,株式会社,静岡県,浜松市中央区,常盤町１３２－１３,,22,138,4300917,,,,,,,2026-01-22,1,,,,,グロースパスパートナーズ,0
3337,9120001283508,新規,0,2026-01-22,2026-01-22,株式会社豊美,,株式会社,大阪府,大阪市城東区,今福東３丁目３番２３号,,27,118,5360002,,,,,,,2026-01-22,1,,,,,ホウビ,0
3338,9120001283524,新規,0,2026-01-22,2026-01-22,株式会社ｔａｎｉ‐ｙａ,,株式会社,大阪府,大阪市西区,京町堀１丁目８番３１号,,27,106,5500003,,,,,,,2026-01-22,1,,,,,タニヤ,0
3339,9120001283549,新規,0,2026-01-22,2026-01-22,興隆株式会社,,株式会社,大阪府,大阪市東淀川区,東中島１丁目１３－４３－６１８,,27,114,5330033,,,,,,,2026-01-22,1,,,,,コウリュウ,0
3340,9120001283565,新規,0,2026-01-22,2026-01-22,株式会社ＳＴＡＲＦＹ,,株式会社,大阪府,大阪市北区,梅田１丁目１－３大阪駅前第３ビル２９階１－１－１号室,,27,127,5300001,,,,,,,2026-01-22,1,,,,,スターフィ,0
3341,9120001283607,新規,0,2026-01-22,2026-01-22,株式会社Ｂｅｌｌ,,株式会社,大阪府,大阪市阿倍野区,阪南町５丁目１６番３号ステータス西田辺８０３,,27,119,5450021,,,,,,,2026-01-22,1,,,,,ベル,0
3347,9120003031674,新規,0,2026-01-22,2026-01-22,合同会社ファースト,,合同会社,大阪府,大阪市東淀川区,淡路５丁目１５－２２－１０１,,27,114,5330032,,,,,,,2026-01-22,1,,,,,ファースト,0
3348,9120003031716,新規,0,2026-01-22,2026-01-22,合同会社厨子フードサービス,,合同会社,大阪府,大阪市北区,豊崎３丁目１７番１２号岡ビル１Ｆ,,27,127,5310072,,,,,,,2026-01-22,1,,,,,ズシフードサービス,0
3349,9120003031724,新規,0,2026-01-22,2026-01-22,合同会社Ｍｅｇｕｍｉ　Ｔｒａｖｅｌ,,合同会社,大阪府,大阪市淀川区,東三国２丁目３０番１号３Ｃ,,27,123,5320002,,,,,,,2026-01-22,1,,,,,メグミトラベル,0
3350,9120005025369,新規,0,2026-01-22,2026-01-22,特定非営利活動法人Ａｄｄ‐ｏｎ,,その他の設立登記法人,大阪府,大阪市生野区,舎利寺１丁目１３番２１号,,27,116,5440022,,,,,,,2026-01-22,1,,,,,アドオン,0
3365,9140001141366,新規,0,2026-01-22,2026-01-22,Ｖｅｌｔｏ株式会社,,株式会社,兵庫県,神戸市垂水区,西舞子１丁目１番１５－２０９号,,28,108,6550048,,,,,,,2026-01-22,1,,,,,ヴェルト,0
3366,9140001141374,新規,0,2026-01-22,2026-01-22,株式会社ＮＡＭＥ,,株式会社,兵庫県,神戸市兵庫区,新開地３丁目３－６シンプルライフ新開地２－１０１号,,28,105,6520811,,,,,,,2026-01-22,1,,,,,ネイム,0
3377,9180001170378,新規,0,2026-01-22,2026-01-22,名南事務所ｓｔｙｌｅ‐ＮＥＯ株式会社,,株式会社,愛知県,名古屋市港区,港明２丁目１番３号,,23,111,4550018,,,,,,,2026-01-22,1,,,,,メイナンジムショスタイルネオ,0
3378,9180001170386,新規,0,2026-01-22,2026-01-22,株式会社シャガム,,株式会社,愛知県,名古屋市港区,小碓４丁目５６２ライオンズマンション小碓８０２,,23,111,4550801,,,,,,,2026-01-22,1,,,,,シャガム,0
3387,9180301040628,新規,0,2026-01-22,2026-01-22,Ｓｐａｔｉｕｍ＆Ｃｏ．株式会社,,株式会社,愛知県,豊田市,西町２丁目１４ミルオンデユール西町８０３号,,23,211,4710025,,,,,,,2026-01-22,1,,,,,スパティウムアンドカンパニー,0
3389,9190003005333,新規,0,2026-01-22,2026-01-22,合同会社司,,合同会社,三重県,津市,大里川北町４２７,,24,201,5140124,,,,,,,2026-01-22,1,,,,,ツカサ,0
3406,9290001112880,新規,0,2026-01-22,2026-01-22,株式会社リオル,,株式会社,福岡県,福岡市中央区,清川３丁目２６番２４号,,40,133,8100005,,,,,,,2026-01-22,1,,,,,リオル,0
3407,9290001112889,新規,0,2026-01-22,2026-01-22,株式会社ＩＢＸ,,株式会社,福岡県,糸島市,板持１０６番地３,,40,230,8191101,,,,,,,2026-01-22,1,,,,,アイビーエックス,0
3408,9290001112897,新規,0,2026-01-22,2026-01-22,株式会社ＳｉＮＲＡ九州,,株式会社,福岡県,糟屋郡新宮町,大字新宮２番地４,,40,345,8110115,,,,,,,2026-01-22,1,,,,,シンラキュウシュウ,0
3409,9290001112906,新規,0,2026-01-22,2026-01-22,ＡＤＦＵＬ株式会社,,株式会社,福岡県,福岡市博多区,博多駅東１丁目１２番１７号オフィスニューガイア博多駅前３階,,40,132,8120013,,,,,,,2026-01-22,1,,,,,アドフル,0
3410,9290003017970,新規,0,2026-01-22,2026-01-22,合同会社アクシス,,合同会社,福岡県,福岡市博多区,美野島３丁目１７番２６－３０６号リブジョイみのしま,,40,132,8120017,,,,,,,2026-01-22,1,,,,,アクシス,0
3422,9330001033940,新規,0,2026-01-22,2026-01-22,株式会社Ｌａｓｈ　Ｗｏｒｋｓ,,株式会社,熊本県,熊本市中央区,城東町５番３６号大祥ビル３Ｆ,,43,101,8600846,,,,,,,2026-01-22,1,,,,,ラッシュワークス,0
3425,9340001027917,新規,0,2026-01-22,2026-01-22,株式会社サザンファーム,,株式会社,鹿児島県,奄美市,名瀬末広町１２番９号（叶ビル５０２号）,,46,222,8940027,,,,,,,2026-01-22,1,,,,,サザンファーム,0
3428,9350001019905,新規,0,2026-01-22,2026-01-22,株式会社ハレーナ,,株式会社,宮崎県,宮崎市,曽師町４７番地,,45,201,8800875,,,,,,,2026-01-22,1,,,,,ハレーナ,0
3435,9360005007351,新規,0,2026-01-22,2026-01-22,一般社団法人結人,,その他の設立登記法人,沖縄県,宮古島市,平良字下里５４５番地２、与古田１０３,,47,214,9060013,,,,,,,2026-01-22,1,,,,,ユインチュ,0
3445,9430001096110,新規,0,2026-01-22,2026-01-22,株式会社改テック,,株式会社,北海道,札幌市北区,新琴似十一条９丁目７番１号,,01,102,0010911,,,,,,,2026-01-22,1,,,,,カイテック,0
3447,9430003018525,新規,0,2026-01-22,2026-01-22,合同会社Ｙ２Ｋサービス,,合同会社,北海道,江別市,ゆめみ野東町２８－６,,01,217,0670065,,,,,,,2026-01-22,1,,,,,ワイツーケーサービス,0
3454,9470001021064,新規,0,2026-01-22,2026-01-22,株式会社Ｅａｓｅ　Ｌｉｆｅ,,株式会社,香川県,高松市,天神前１０番５号高松セントラルスカイビルディング３Ｆｓｏｕｔｈ,,37,201,7600018,,,,,,,2026-01-22,1,,,,,,0
3455,9490001011261,新規,0,2026-01-22,2026-01-22,株式会社アルペントラバース,,株式会社,高知県,高知市,南万々１１０番地２,,39,201,7800971,,,,,,,2026-01-22,1,,,,,アルペントラバース,0
3456,9500001026729,新規,0,2026-01-22,2026-01-22,株式会社ＢＯＮＧＳＯＮ,,株式会社,愛媛県,松山市,南吉田町２５１０番地１,,38,201,7918042,,,,,,,2026-01-22,1,,,,,ボンソン,0
3457,9500001026737,新規,0,2026-01-22,2026-01-22,株式会社ＭＦＡ,,株式会社,愛媛県,四国中央市,中曽根町２８９番地７,,38,213,7990413,,,,,,,2026-01-22,1,,,,,エムエフエー,0
