sequenceNumber,corporateNumber,process,correct,updateDate,changeDate,name,nameImageId,kind,prefectureName,cityName,streetNumber,addressImageId,prefectureCode,cityCode,postCode,addressOutside,addressOutsideImageId,closeDate,closeCause,successorCorporateNumber,changeCause,assignmentDate,latest,enName,enPrefectureName,enCityName,enAddressOutside,furigana,hihyoji
8,1010001250922,新規,0,2024-12-27,2024-12-27,ＭＣＰＭ６株式会社,,株式会社,東京都,千代田区,丸の内１丁目６番５号,,13,101,1000005,,,,,,,2024-12-27,1,,,,,エムシーピーエムシックス,0
10,1010005039338,新規,0,2024-12-27,2024-12-27,一般社団法人シックスオフィスマネジメント,,その他の設立登記法人,東京都,千代田区,丸の内１丁目４番１号東京共同会計事務所内,,13,101,1000005,,,,,,,2024-12-27,1,,,,,シックスオフィスマネジメント,0
17,1010401187285,新規,0,2024-12-27,2024-12-27,株式会社ホールデム,,株式会社,東京都,港区,赤坂３丁目１０番３号黛ビル３階,,13,103,1070052,,,,,,,2024-12-27,1,,,,,ホールデム,0
28,1010701047040,新規,0,2024-12-27,2024-12-27,株式会社ナカハタ商店,,株式会社,東京都,品川区,南品川２丁目７番１３号,,13,109,1400004,,,,,,,2024-12-27,1,,,,,ナカハタショウテン,0
42,1011003020677,新規,0,2024-12-27,2024-12-27,ＫＯＫＵＲＩＴＳＵ合同会社,,合同会社,東京都,渋谷区,恵比寿２丁目３６番１３号,,13,113,1500013,,,,,,,2024-12-27,1,,,,,コクリツ,0
43,1011003020693,新規,0,2024-12-27,2024-12-27,ＳＭＡＲＴ　ＡＥＲＯＳＰＡＣＥ　ＳＯＬＵＴＩＯＮＳ　ＪＡＰＡＮ合同会社,,合同会社,東京都,渋谷区,神南１丁目１２番１４号渋谷宮田ビル６階,,13,113,1500041,,,,,,,2024-12-27,1,,,,,スマートエアロスペースソリューションズジャパン,0
47,1011101110090,新規,0,2024-12-27,2024-12-27,株式会社ラッカウスジャパン,,株式会社,東京都,新宿区,西新宿３丁目３番１３号西新宿水間ビル６階,,13,104,1600023,,,,,,,2024-12-27,1,,,,,ラッカウスジャパン,0
49,1011103015354,新規,0,2024-12-27,2024-12-27,合同会社ＴｏｉＴｏｉＴｏｉ,,合同会社,東京都,新宿区,二十騎町１番３０号－２０５,,13,104,1620855,,,,,,,2024-12-27,1,,,,,トイトイトイ,0
51,1011201026022,新規,0,2024-12-27,2024-12-27,Ｗｒｉｔｔｅｎ　ｂｙ株式会社,,株式会社,東京都,中野区,白鷺３丁目１３番２１号,,13,114,1650035,,,,,,,2024-12-27,1,,,,,リトゥンバイ,0
53,1011403004577,新規,0,2024-12-27,2024-12-27,合同会社ジェリードーナッツ,,合同会社,東京都,板橋区,大山町３０－１９渡辺ビル１Ｆ,,13,119,1730023,,,,,,,2024-12-27,1,,,,,ジェリードーナッツ,0
56,1011501031531,新規,0,2024-12-27,2024-12-27,ウェルスマネジメント株式会社,,株式会社,東京都,荒川区,東尾久１丁目３４－６－１０３号室,,13,118,1160012,,,,,,,2024-12-27,1,,,,,ウェルスマネジメント,0
59,1011701027916,新規,0,2024-12-27,2024-12-27,ＰｒｏｂｌｅｍＣｌｅａｎ　Ｓｏｌｕｔｉｏｎ株式会社,,株式会社,東京都,江戸川区,松島３丁目１６番４号,,13,123,1320031,,,,,,,2024-12-27,1,,,,,プロブラムクリーンソルティオン,0
60,1011701027932,新規,0,2024-12-27,2024-12-27,株式会社Ｔ‐ＳＷＩＮＧ,,株式会社,東京都,江戸川区,南小岩３丁目４番８号,,13,123,1330056,,,,,,,2024-12-27,1,,,,,ティースイング,0
63,1011801045371,新規,0,2024-12-27,2024-12-27,株式会社ティー・エス・エム,,株式会社,東京都,足立区,古千谷本町４丁目２番７号１階,,13,121,1210832,,,,,,,2024-12-27,1,,,,,ティーエスエム,0
67,1012401042627,新規,0,2024-12-27,2024-12-27,株式会社ＵＫＩＹＯ,,株式会社,東京都,武蔵野市,御殿山１丁目８番９号パークハウス８９－２１１号,,13,203,1800005,,,,,,,2024-12-27,1,,,,,ウキヨ,0
68,1012403006893,新規,0,2024-12-27,2024-12-27,ＯＴＯＮＡＳ合同会社,,合同会社,東京都,三鷹市,北野１丁目９番２３号,,13,204,1810003,,,,,,,2024-12-27,1,,,,,オトナズ,0
69,1013301053565,新規,0,2024-12-27,2024-12-27,株式会社ユタログ,,株式会社,東京都,豊島区,雑司が谷２丁目１４番４号,,13,116,1710032,,,,,,,2024-12-27,1,,,,,ユタログ,0
71,1013303007453,新規,0,2024-12-27,2024-12-27,合同会社メリット,,合同会社,東京都,豊島区,池袋３丁目９番２１号,,13,116,1710014,,,,,,,2024-12-27,1,,,,,メリット,0
73,1020001160690,新規,0,2024-12-27,2024-12-27,株式会社Ｔ‐ＬａＧａ,,株式会社,神奈川県,横浜市西区,浅間町１丁目４番３号ウィザードビル４０２,,14,103,2200072,,,,,,,2024-12-27,1,,,,,ティーラガ,0
74,1020001160699,新規,0,2024-12-27,2024-12-27,株式会社ＡＡＭＲＡ　ＩＮＴＥＲＮＡＴＩＯＮＡＬ,,株式会社,神奈川県,横浜市中区,松影町２丁目５－９アークｋビル７階,,14,104,2310025,,,,,,,2024-12-27,1,,,,,アマラインターナショナル,0
79,1020003027566,新規,0,2024-12-27,2024-12-27,合同会社キャリアラボＫｕｋｕｒｕ,,合同会社,神奈川県,横浜市神奈川区,松本町１丁目２番地９ヴェレーナ横浜反町駅前４０８号,,14,102,2210841,,,,,,,2024-12-27,1,,,,,キャリアラボククル,0
81,1021001084095,新規,0,2024-12-27,2024-12-27,株式会社ＰＯＬ,,株式会社,神奈川県,伊勢原市,桜台２丁目１７番１号,,14,214,2591132,,,,,,,2024-12-27,1,,,,,ピーオーエル,0
82,1021001084104,新規,0,2024-12-27,2024-12-27,瑞穂屋株式会社,,株式会社,神奈川県,茅ヶ崎市,今宿４１０番地６オリーブ茅ヶ崎１０５号,,14,207,2530072,,,,,,,2024-12-27,1,,,,,ミズホヤ,0
89,1030001164030,新規,0,2024-12-27,2024-12-27,株式会社ＶＭＤ　Ｌａｎｄ,,株式会社,埼玉県,新座市,東北２丁目６番１４号内海ハイム２０３号室,,11,230,3520001,,,,,,,2024-12-27,1,,,,,ブイエムディーランド,0
90,1030001164146,新規,0,2024-12-27,2024-12-27,株式会社ハルモニア,,株式会社,埼玉県,さいたま市浦和区,針ヶ谷４丁目２番６０－１０２号,,11,107,3300075,,,,,,,2024-12-27,1,,,,,ハルモニア,0
91,1030001164204,新規,0,2024-12-27,2024-12-27,株式会社工房４３,,株式会社,埼玉県,加須市,下谷１３４５,,11,210,3470053,,,,,,,2024-12-27,1,,,,,コウボウヨンジュウサン,0
95,1030003025767,新規,0,2024-12-27,2024-12-27,ＦＵＴＵＲＥ　ＭＩＮＤ合同会社,,合同会社,埼玉県,所沢市,緑町４丁目２８番３９－２０３号,,11,208,3591111,,,,,,,2024-12-27,1,,,,,フューチャーマインド,0
96,1030003025791,新規,0,2024-12-27,2024-12-27,合同会社ＭＩＩＮＡ,,合同会社,埼玉県,所沢市,大字山口５１７０－９,,11,208,3591145,,,,,,,2024-12-27,1,,,,,ミーナ,0
97,1030003025800,新規,0,2024-12-27,2024-12-27,合同会社メイク・ユア・マーク,,合同会社,埼玉県,さいたま市南区,内谷３丁目１１番２８号,,11,108,3360034,,,,,,,2024-12-27,1,,,,,メイクユアマーク,0
99,1030005021987,新規,0,2024-12-27,2024-12-27,農事組合法人Ｄ８,,その他の設立登記法人,埼玉県,東松山市,大字松山２３０９番地３,,11,212,3550005,,,,,,,2024-12-27,1,,,,,ディーエイト,0
120,1070001042488,新規,0,2024-12-27,2024-12-27,株式会社トラックサポート,,株式会社,群馬県,前橋市,西片貝町３丁目２８８番地３,,10,201,3710013,,,,,,,2024-12-27,1,,,,,トラックサポート,0
121,1070001042496,新規,0,2024-12-27,2024-12-27,株式会社ＴＭ,,株式会社,群馬県,伊勢崎市,上蓮町５４１番地１５,,10,204,3720851,,,,,,,2024-12-27,1,,,,,ティーエム,0
127,1080101025219,新規,0,2024-12-27,2024-12-27,株式会社ＴＳＵＢＡＳＡ,,株式会社,静岡県,沼津市,大手町５丁目５－２２,,22,203,4100801,,,,,,,2024-12-27,1,,,,,ツバサ,0
132,1100001038169,新規,0,2024-12-27,2024-12-27,Ｒｉｖａ　Ｋ　ｐｒｏｄｏｔｔｏ株式会社,,株式会社,長野県,北佐久郡軽井沢町,大字長倉５２８９番地２０,,20,321,3890111,,,,,,,2024-12-27,1,,,,,リヴァケイプロドット,0
137,1110001038969,新規,0,2024-12-27,2024-12-27,株式会社豊崎組ホールディングス,,株式会社,新潟県,新発田市,東新町２丁目１番１９号,,15,206,9570015,,,,,,,2024-12-27,1,,,,,トヨサキグミホールディングス,0
147,1120001271429,新規,0,2024-12-27,2024-12-27,信徳株式会社,,株式会社,大阪府,大阪市浪速区,敷津西１丁目１－１６生駒ビル３０１号室,,27,111,5560015,,,,,,,2024-12-27,1,,,,,シントク,0
148,1120001271544,新規,0,2024-12-27,2024-12-27,株式会社ＧＬＯＷＳ,,株式会社,大阪府,門真市,五月田町４－３１シャッターＢ,,27,223,5710027,,,,,,,2024-12-27,1,,,,,グロース,0
149,1120001271552,新規,0,2024-12-27,2024-12-27,ＳＷＥＬＬ株式会社,,株式会社,大阪府,大阪市中央区,平野町２丁目２番７－９０３号,,27,128,5410046,,,,,,,2024-12-27,1,,,,,スウェル,0
152,1120003028240,新規,0,2024-12-27,2024-12-27,Ｒｏｙａｌ　Ｃｒｅｄｅｎｃｅ合同会社,,合同会社,大阪府,大阪市中央区,内久宝寺町４丁目１番７号グランドメゾン上町台レジデンスタワー１５０５号,,27,128,5400013,,,,,,,2024-12-27,1,,,,,ロイヤルクレデンス,0
155,1120005024675,新規,0,2024-12-27,2024-12-27,一般財団法人えいわ奨学会,,その他の設立登記法人,大阪府,大阪市浪速区,日本橋４丁目７番２０号永和信用金庫内,,27,111,5560005,,,,,,,2024-12-27,1,,,,,エイワショウガクカイ,0
156,1120105009948,新規,0,2024-12-27,2024-12-27,一般社団法人千乃会,,その他の設立登記法人,大阪府,高石市,千代田５丁目２番１３号２Ｆ,,27,225,5920005,,,,,,,2024-12-27,1,,,,,センノカイ,0
158,1120901050221,新規,0,2024-12-27,2024-12-27,株式会社ＫＲＴ,,株式会社,大阪府,茨木市,竹橋町２番２号王子ビル４０６,,27,211,5670815,,,,,,,2024-12-27,1,,,,,ケーアールティー,0
161,1120903005487,新規,0,2024-12-27,2024-12-27,合同会社にか,,合同会社,大阪府,吹田市,末広町２６－３コアティ岡本２０２,,27,205,5640022,,,,,,,2024-12-27,1,,,,,ニカ,0
163,1122001038774,新規,0,2024-12-27,2024-12-27,株式会社ＧＯＯＤ　ＭＥＴＡＬ,,株式会社,大阪府,八尾市,大竹７丁目１６９ブルースカイコート１０５号室,,27,212,5810854,,,,,,,2024-12-27,1,,,,,グッドメタル,0
164,1130001078674,新規,0,2024-12-27,2024-12-27,株式会社ＤＯＵＢＬＥＳ,,株式会社,京都府,京都市中京区,河原町通二条下る２丁目下丸屋町４０３番地,,26,104,6048006,,,,,,,2024-12-27,1,,,,,ダブルス,0
167,1130003010098,新規,0,2024-12-27,2024-12-27,合同会社コンフォート・リビング,,合同会社,京都府,京都市左京区,下鴨北芝町２３番地２,,26,103,6060842,,,,,,,2024-12-27,1,,,,,コンフォートリビング,0
172,1140001136860,新規,0,2024-12-27,2024-12-27,Ｓ１セキュリティ株式会社,,株式会社,兵庫県,宝塚市,旭町３丁目２１番１０号,,28,214,6650835,,,,,,,2024-12-27,1,,,,,エスワンセキュリティ,0
173,1140001136885,新規,0,2024-12-27,2024-12-27,株式会社ＦＵＪＩＮＯ　ＥＳＴＡＴＥ,,株式会社,兵庫県,神戸市中央区,八幡通４丁目２番２４号,,28,110,6510085,,,,,,,2024-12-27,1,,,,,フジノエステート,0
175,1150001027786,新規,0,2024-12-27,2024-12-27,ペーパークリエイト株式会社,,株式会社,奈良県,桜井市,大字吉備５６７番地の１,,29,206,6330065,,,,,,,2024-12-27,1,,,,,ペーパークリエイト,0
179,1170001018429,新規,0,2024-12-27,2024-12-27,株式会社ＪＯＡＮ　ＳＴＡＲ,,株式会社,和歌山県,有田市,箕島２６－５,,30,204,6490304,,,,,,,2024-12-27,1,,,,,ジョーンスター,0
180,1170005007122,新規,0,2024-12-27,2024-12-27,一般社団法人メディカルサポートセンター,,その他の設立登記法人,和歌山県,和歌山市,南汀丁２２番地４階Ｄ号室,,30,201,6408232,,,,,,,2024-12-27,1,,,,,メディカルサポートセンター,0
184,1180001164692,新規,0,2024-12-27,2024-12-27,株式会社ていくおん,,株式会社,愛知県,名古屋市熱田区,三本松町１１番１３号,,23,109,4560032,,,,,,,2024-12-27,1,,,,,テイクオン,0
185,1180001164701,新規,0,2024-12-27,2024-12-27,株式会社ＡＲＫ,,株式会社,愛知県,名古屋市港区,大手町２丁目３１ダイコウマンション１階,,23,111,4550046,,,,,,,2024-12-27,1,,,,,アーク,0
188,1180003027781,新規,0,2024-12-27,2024-12-27,合同会社Ｌｙｌｉｓ,,合同会社,愛知県,名古屋市瑞穂区,春山町２０番地の２（シャトー春山１０８号）,,23,108,4670024,,,,,,,2024-12-27,1,,,,,リリス,0
189,1180003027823,新規,0,2024-12-27,2024-12-27,合同会社ライフコネクト,,合同会社,愛知県,大府市,桃山町４丁目２５番地６,,23,223,4740026,,,,,,,2024-12-27,1,,,,,ライフコネクト,0
190,1180005020875,新規,0,2024-12-27,2024-12-27,医療法人覚王会,,その他の設立登記法人,愛知県,名古屋市千種区,山門町１丁目７８番地,,23,101,4640064,,,,,,,2024-12-27,1,,,,,カクオウカイ,0
192,1190003004895,新規,0,2024-12-27,2024-12-27,合同会社ＮＩＰＰＯＮ　ＳＩＬＫ　ＲＯＵＴＥ,,合同会社,三重県,松阪市,大口町３３６番地,,24,204,5150001,,,,,,,2024-12-27,1,,,,,ニッポンシルクルート,0
195,1200001043266,新規,0,2024-12-27,2024-12-27,株式会社光彩,,株式会社,岐阜県,岐阜市,岩井３８０番地１６６,,21,201,5013101,,,,,,,2024-12-27,1,,,,,コウサイ,0
196,1200001043274,新規,0,2024-12-27,2024-12-27,株式会社Ｓ．Ｓ,,株式会社,岐阜県,中津川市,千旦林８０８番地の１５,,21,206,5099131,,,,,,,2024-12-27,1,,,,,エスエス,0
201,1200005013703,新規,0,2024-12-27,2024-12-27,特定非営利活動法人清流福祉事業支援友の会,,その他の設立登記法人,岐阜県,瑞穂市,本田１５５２番地１２３,,21,216,5010236,,,,,,,2024-12-27,1,,,,,セイリュウフクシジギョウシエントモノカイ,0
204,1230003002341,新規,0,2024-12-27,2024-12-27,合同会社マナコロニー,,合同会社,富山県,高岡市,伏木東一宮１４番１９号,,16,202,9330111,,,,,,,2024-12-27,1,,,,,マナコロニー,0
209,1240001064325,新規,0,2024-12-27,2024-12-27,株式会社ウェルボックス,,株式会社,広島県,東広島市,西条町御薗宇８８４４番地１１,,34,212,7390024,,,,,,,2024-12-27,1,,,,,ウェルボックス,0
213,1240003007001,新規,0,2024-12-27,2024-12-27,合同会社ＡＫ,,合同会社,広島県,福山市,神辺町字湯野４３番地９,,34,207,7202121,,,,,,,2024-12-27,1,,,,,エーケー,0
215,1250001020946,新規,0,2024-12-27,2024-12-27,株式会社ＬｅＬｉｅｎ,,株式会社,山口県,岩国市,牛野谷町３丁目９１番１３号,,35,208,7410071,,,,,,,2024-12-27,1,,,,,ルリアン,0
216,1260001039738,新規,0,2024-12-27,2024-12-27,株式会社Ｐｏｌａｒｉｓ,,株式会社,岡山県,岡山市北区,奥田２丁目２番１０号,,33,101,7000933,,,,,,,2024-12-27,1,,,,,ポラリス,0
217,1260001039754,新規,0,2024-12-27,2024-12-27,株式会社Ｒｍｅ,,株式会社,岡山県,倉敷市,西中新田５０７番地２,,33,202,7100833,,,,,,,2024-12-27,1,,,,,アールミー,0
218,1260001039762,新規,0,2024-12-27,2024-12-27,株式会社松崎カンパニー,00137475,株式会社,岡山県,倉敷市,児島赤崎１丁目１３番２０－１号,,33,202,7110931,,,,,,,2024-12-27,1,,,,,マツザキカンパニー,0
219,1270003001694,新規,0,2024-12-27,2024-12-27,合同会社ステイ,,合同会社,鳥取県,鳥取市,鹿野町今市９８３番地８９,,31,201,6890425,,,,,,,2024-12-27,1,,,,,ステイ,0
224,1290001108457,新規,0,2024-12-27,2024-12-27,株式会社ｆｉｎｅ‐Ｒ,,株式会社,福岡県,福岡市西区,西の丘２丁目６番１１号,,40,135,8190046,,,,,,,2024-12-27,1,,,,,ファインアール,0
225,1290003016237,新規,0,2024-12-27,2024-12-27,合同会社ｒｅｎｉｔｏｙａ１５２４,,合同会社,福岡県,福岡市中央区,天神４丁目６－２８天神ファーストビル７階,,40,133,8100001,,,,,,,2024-12-27,1,,,,,レニトヤイチゴニヨン,0
226,1290005019592,新規,0,2024-12-27,2024-12-27,医療法人健幸会,,その他の設立登記法人,福岡県,福岡市中央区,大名２丁目１０番１号,,40,133,8100041,,,,,,,2024-12-27,1,,,,,ケンコウカイ,0
227,1290005019601,新規,0,2024-12-27,2024-12-27,医療法人おうちにかえろう会,,その他の設立登記法人,福岡県,福岡市早良区,原５丁目３番６号,,40,137,8140022,,,,,,,2024-12-27,1,,,,,,0
235,1310001019395,新規,0,2024-12-27,2024-12-27,株式会社Ｉｎｎｏｖａｔｉｏｎ　Ｑｕｅｓｔ,,株式会社,長崎県,西彼杵郡時津町,西時津郷４４８番地６ノーブルメゾン１０４,,42,308,8512101,,,,,,,2024-12-27,1,,,,,イノベーションクエスト,0
243,1320003004543,新規,0,2024-12-27,2024-12-27,ｎｏｔｉｃｅ．３合同会社,,合同会社,大分県,大分市,府内町３丁目７番３３号Ｂアパートメント２Ｆ,,44,201,8700021,,,,,,,2024-12-27,1,,,,,ノーティスサン,0
245,1330005010860,新規,0,2024-12-27,2024-12-27,医療法人ゆうしん会,,その他の設立登記法人,熊本県,熊本市東区,健軍本町５２－３,,43,102,8620910,,,,,,,2024-12-27,1,,,,,ユウシンカイ,0
249,1370003006873,新規,0,2024-12-27,2024-12-27,合同会社までなプランニング,,合同会社,宮城県,栗原市,築館字照越八ツ沢３８番地１６,,04,213,9872233,,,,,,,2024-12-27,1,,,,,マデナプランニング,0
269,1430001093370,新規,0,2024-12-27,2024-12-27,株式会社Ｍｏｒｕｅｒａｎｉ,,株式会社,北海道,室蘭市,知利別町４丁目６番１３号,,01,205,0500076,,,,,,,2024-12-27,1,,,,,モルエラニ,0
270,1430001093387,新規,0,2024-12-27,2024-12-27,プロ・リンク株式会社,,株式会社,北海道,札幌市北区,北二十三条西７丁目３番８号,,01,102,0010023,,,,,,,2024-12-27,1,,,,,プロリンク,0
271,1430003017121,新規,0,2024-12-27,2024-12-27,合同会社酒井開発,,合同会社,北海道,札幌市中央区,南十五条西９丁目２番３号,,01,101,0640915,,,,,,,2024-12-27,1,,,,,サカイカイハツ,0
272,1440003001652,新規,0,2024-12-27,2024-12-27,合同会社順風,,合同会社,北海道,亀田郡七飯町,字上藤城１２４番地３,,01,337,0411104,,,,,,,2024-12-27,1,,,,,ジュンプウ,0
273,1450001014481,新規,0,2024-12-27,2024-12-27,株式会社ＳＳＳ,,株式会社,北海道,上川郡東川町,松山温泉,,01,458,0711473,,,,,,,2024-12-27,1,,,,,エスエスエス,0
279,1470001020511,新規,0,2024-12-27,2024-12-27,株式会社ぶりき屋,,株式会社,香川県,さぬき市,志度３８１９番地２３,,37,206,7692101,,,,,,,2024-12-27,1,,,,,ブリキヤ,0
289,1700150128445,新規,0,2024-12-27,2024-12-27,Ｉ．Ｄ．Ｌ．Ｃｏｍｐｕｔｅｒ　Ｉｎｓｔｉｔｕｔｅ,,外国会社等,東京都,豊島区,西巣鴨１丁目２４番７号ロッヂングサクセス１０１号,,13,116,1700001,ネパール国、ルンビニ州、バルディヤ群、バンスガディ自治体２６区、チサパニチョック,,,,,,2024-12-27,1,,,,,アイデイエルコンピユーターインステイテユート,0
290,1700150128453,新規,0,2024-12-27,2024-12-27,ｘｉａｎｌｕｏｙａｏｓｈａｎｇｍａｏｙｏｕｘｉａｎｇｏｎｇｓｉ,,外国会社等,,,,,,,,Ｘｉａｎ　Ｑｕｊｉａｎｇｘｉｎｑｕ　Ｑｕｊｉａｎｇｄａｄａｏ　Ｌｏｎｇｈｕｚｉｄｕｃｈｅｎｇ　Ｄｉ５ｚｈｕａｎｇｌｄａｎｙｕａｎ　１０ｃｅｎｇ１１００１ｈａｏｆａｎｇ　ＣＮ　７１００００,,,,,,2024-12-27,1,,,,,シアンロウヤオシャンマオヨウシエンゴンスー,0
302,2010005039337,新規,0,2024-12-27,2024-12-27,ヒルギ一般社団法人,,その他の設立登記法人,東京都,千代田区,丸の内１丁目４番１号東京共同会計事務所内,,13,101,1000005,,,,,,,2024-12-27,1,,,,,ヒルギ,0
318,2010803005226,新規,0,2024-12-27,2024-12-27,２１０ｄｉｇｉ合同会社,,合同会社,東京都,大田区,上池台１丁目５番１０号,,13,111,1450064,,,,,,,2024-12-27,1,,,,,ニーイチマルディジ,0
328,2011001166760,新規,0,2024-12-27,2024-12-27,株式会社ＪＯＣ,,株式会社,東京都,渋谷区,渋谷３丁目１８番５号,,13,113,1500002,,,,,,,2024-12-27,1,,,,,ジェイオーシー,0
329,2011001166843,新規,0,2024-12-27,2024-12-27,株式会社ＫＴグローバル,,株式会社,東京都,渋谷区,神宮前２丁目２番３９－１４０１号ＴＨＥＣＯＵＲＴ神宮外苑,,13,113,1500001,,,,,,,2024-12-27,1,,,,,ケーティーグローバル,0
332,2011105011276,新規,0,2024-12-27,2024-12-27,一般社団法人対性会,,その他の設立登記法人,東京都,新宿区,新宿１丁目３６番２号新宿第七葉山ビル６階,,13,104,1600022,,,,,,,2024-12-27,1,,,,,タイセイカイ,0
339,2011503006365,新規,0,2024-12-27,2024-12-27,合同会社ＹＭＨＮ,,合同会社,東京都,北区,赤羽１丁目６６－７清誠ビル１階,,13,117,1150045,,,,,,,2024-12-27,1,,,,,ワイエムエイチエヌ,0
341,2011603004558,新規,0,2024-12-27,2024-12-27,合同会社ライトアップ,,合同会社,東京都,練馬区,石神井台８丁目１０番１号,,13,120,1770045,,,,,,,2024-12-27,1,,,,,ライトアップ,0
343,2011705001866,新規,0,2024-12-27,2024-12-27,一般社団法人崇秀会,,その他の設立登記法人,東京都,江戸川区,東小岩５丁目５番８号サンハイツ７０１,,13,123,1330052,,,,,,,2024-12-27,1,,,,,スウシュウカイ,0
345,2011801045379,新規,0,2024-12-27,2024-12-27,株式会社アクアコネクト,,株式会社,東京都,足立区,加賀１丁目１番２号,,13,121,1230861,,,,,,,2024-12-27,1,,,,,アクアコネクト,0
346,2012401042626,新規,0,2024-12-27,2024-12-27,興陽株式会社,,株式会社,東京都,小金井市,梶野町２丁目１３－２－２０２Ａ,,13,210,1840002,,,,,,,2024-12-27,1,,,,,コウヨウ,0
352,2013301053564,新規,0,2024-12-27,2024-12-27,株式会社Ｉ’ｍ　ＦＲＥＥ,,株式会社,東京都,豊島区,東池袋１丁目１３番１２号,,13,116,1700013,,,,,,,2024-12-27,1,,,,,アイムフリー,0
354,2020001160715,新規,0,2024-12-27,2024-12-27,株式会社フォーオール,,株式会社,神奈川県,横浜市保土ケ谷区,岩井町１－７アーバン・Ｉ保土ヶ谷駅ビル５Ｆ,00137472,14,106,2400023,,,,,,,2024-12-27,1,,,,,フォーオール,0
355,2020001160723,新規,0,2024-12-27,2024-12-27,和風株式会社,,株式会社,神奈川県,横浜市西区,久保町２０－１７,,14,103,2200061,,,,,,,2024-12-27,1,,,,,ワフウ,0
356,2020001160756,新規,0,2024-12-27,2024-12-27,エヌフォー株式会社,,株式会社,神奈川県,川崎市宮前区,有馬５丁目５番２４号,,14,136,2160003,,,,,,,2024-12-27,1,,,,,エヌフォー,0
357,2020001160764,新規,0,2024-12-27,2024-12-27,株式会社プラチナムステージ,,株式会社,神奈川県,横浜市神奈川区,金港町２番地１パークタワー横濱ポートサイド３１０１号,,14,102,2210056,,,,,,,2024-12-27,1,,,,,プラチナムステージ,0
358,2020001160780,新規,0,2024-12-27,2024-12-27,株式会社モアーズ,,株式会社,神奈川県,横浜市西区,みなとみらい２丁目３番５号クイーンズタワーＣ棟１１階,,14,103,2200012,,,,,,,2024-12-27,1,,,,,モアーズ,0
365,2020003027508,新規,0,2024-12-27,2024-12-27,合同会社キービック,,合同会社,神奈川県,横浜市港北区,菊名３丁目１５番３４号,,14,109,2220011,,,,,,,2024-12-27,1,,,,,キービック,0
370,2021001084103,新規,0,2024-12-27,2024-12-27,太陽建築株式会社,,株式会社,神奈川県,相模原市南区,相武台２丁目１５番６号アルテミスＩＩ４０２,00137471,14,153,2520324,,,,,,,2024-12-27,1,,,,,タイヨウケンチク,0
371,2021001084136,新規,0,2024-12-27,2024-12-27,株式会社政匠工業,,株式会社,神奈川県,南足柄市,塚原５９７番地１,,14,217,2500117,,,,,,,2024-12-27,1,,,,,セイショウコウギョウ,0
378,2030001164137,新規,0,2024-12-27,2024-12-27,株式会社デジタルサーボ,,株式会社,埼玉県,北葛飾郡松伏町,大字松伏２７１７－３,,11,465,3430111,,,,,,,2024-12-27,1,,,,,デジタルサーボ,0
379,2030001164145,新規,0,2024-12-27,2024-12-27,ハーネスホーム株式会社,,株式会社,埼玉県,越谷市,七左町４丁目４９,,11,222,3430851,,,,,,,2024-12-27,1,,,,,ハーネスホーム,0
382,2030003025808,新規,0,2024-12-27,2024-12-27,Ｍｓ不動産合同会社,,合同会社,埼玉県,川口市,原町１０番２－２０９号プランヴェール川口,,11,203,3320025,,,,,,,2024-12-27,1,,,,,エムエスフドウサン,0
383,2030005021986,新規,0,2024-12-27,2024-12-27,農事組合法人Ｄ６,,その他の設立登記法人,埼玉県,東松山市,大字松山２３０９番地３,,11,212,3550005,,,,,,,2024-12-27,1,,,,,ディーシックス,0
384,2030005021994,新規,0,2024-12-27,2024-12-27,一般社団法人埼玉県バレーボール協会,,その他の設立登記法人,埼玉県,川越市,宮元町１３番地２１,,11,201,3500838,,,,,,,2024-12-27,1,,,,,サイタマケンバレーボールキョウカイ,0
388,2050001055929,新規,0,2024-12-27,2024-12-27,株式会社ＳＵＭＩＫＡ,,株式会社,茨城県,日立市,本宮町５丁目７番３０号,,08,202,3170054,,,,,,,2024-12-27,1,,,,,スミカ,0
392,2070001042495,新規,0,2024-12-27,2024-12-27,株式会社誉藤,,株式会社,群馬県,邑楽郡明和町,大佐貫６９１番地２,,10,522,3700715,,,,,,,2024-12-27,1,,,,,タカトウ,0
393,2070003005723,新規,0,2024-12-27,2024-12-27,Ｎｏｒｔｈｅｒｎ　Ｈｏｐｅ合同会社,,合同会社,群馬県,館林市,東美園町５番地の１１,,10,207,3740031,,,,,,,2024-12-27,1,,,,,ノーザンホープ,0
394,2080001026687,新規,0,2024-12-27,2024-12-27,株式会社エアブラシワークス,,株式会社,静岡県,静岡市葵区,東千代田１丁目７番４号２Ｆ,,22,101,4200801,,,,,,,2024-12-27,1,,,,,エアブラシワークス,0
407,2100001038168,新規,0,2024-12-27,2024-12-27,ケリアデザイン株式会社,,株式会社,長野県,北佐久郡軽井沢町,大字長倉５２８９番地２０,,20,321,3890111,,,,,,,2024-12-27,1,,,,,ケリアデザイン,0
415,2120001271403,新規,0,2024-12-27,2024-12-27,株式会社ＷＬＯＴ,,株式会社,大阪府,枚方市,招提元町１丁目３４番２６号,,27,210,5731133,,,,,,,2024-12-27,1,,,,,ワロット,0
416,2120001271428,新規,0,2024-12-27,2024-12-27,株式会社折口商事,,株式会社,大阪府,大阪市西成区,山王２丁目１０番７号,,27,122,5570001,,,,,,,2024-12-27,1,,,,,オリグチショウジ,0
417,2120001271477,新規,0,2024-12-27,2024-12-27,株式会社都人材,,株式会社,大阪府,大阪市生野区,小路東１丁目６番４号,,27,116,5440003,,,,,,,2024-12-27,1,,,,,ミヤコジンザイ,0
421,2120003028256,新規,0,2024-12-27,2024-12-27,合同会社ＳＨＹ　ＬＩＺＡＲＤ,,合同会社,大阪府,大阪市浪速区,元町３丁目４番７－６０１号,,27,111,5560016,,,,,,,2024-12-27,1,,,,,シャイリザード,0
424,2120101070829,新規,0,2024-12-27,2024-12-27,ＮＤＬ　ＡＳＩＡ株式会社,,株式会社,大阪府,和泉市,万町９５番１号,,27,219,5941104,,,,,,,2024-12-27,1,,,,,エヌディエルアジア,0
425,2120105009947,新規,0,2024-12-27,2024-12-27,一般社団法人Ｍｉｒａｉ,,その他の設立登記法人,大阪府,藤井寺市,藤井寺４丁目１１番７号,,27,226,5830024,,,,,,,2024-12-27,1,,,,,ミライ,0
426,2120901050220,新規,0,2024-12-27,2024-12-27,株式会社ＧＲＡＣＥ,,株式会社,大阪府,箕面市,桜１丁目２番５０号,,27,220,5620041,,,,,,,2024-12-27,1,,,,,グレイス,0
431,2130001078269,新規,0,2024-12-27,2024-12-27,株式会社サクライム,,株式会社,京都府,京都市右京区,西院西矢掛町１８番地,,26,108,6150025,,,,,,,2024-12-27,1,,,,,サクライム,0
432,2130001078673,新規,0,2024-12-27,2024-12-27,株式会社アセットマネジメント彩,,株式会社,京都府,京都市伏見区,淀木津町１９７－１－８０２,,26,109,6130911,,,,,,,2024-12-27,1,,,,,アセットマネジメントアヤ,0
435,2130003010106,新規,0,2024-12-27,2024-12-27,Ｍ　Ｐｌａｎｎｉｎｇ合同会社,,合同会社,京都府,宇治市,折居台１丁目４番地の１７１,,26,204,6110023,,,,,,,2024-12-27,1,,,,,エムプランニング,0
439,2140001136884,新規,0,2024-12-27,2024-12-27,ｓａｉ株式会社,,株式会社,兵庫県,尼崎市,南塚口町２丁目１３番１８号リーガルビル３Ｆ,,28,202,6610012,,,,,,,2024-12-27,1,,,,,サイ,0
447,2140005027329,新規,0,2024-12-27,2024-12-27,医療法人たくみ内科クリニック,,その他の設立登記法人,兵庫県,神戸市垂水区,学が丘７丁目１番３１号,,28,108,6550004,,,,,,,2024-12-27,1,,,,,タクミナイカクリニック,0
448,2150001027777,新規,0,2024-12-27,2024-12-27,株式会社Ｙｓｉｓ,,株式会社,奈良県,奈良市,西大寺南町２－２８マンションオカザワ１－Ｂ,,29,201,6310824,,,,,,,2024-12-27,1,,,,,ワイシス,0
449,2150001027785,新規,0,2024-12-27,2024-12-27,株式会社同立有志会ホールディングス,,株式会社,奈良県,大和郡山市,矢田山町１番地７同立有志会ビル,,29,203,6391055,,,,,,,2024-12-27,1,,,,,ドウリツユウシカイホールディングス,0
453,2170001018428,新規,0,2024-12-27,2024-12-27,日本営業推進センター株式会社,,株式会社,和歌山県,岩出市,相谷２９番地,,30,209,6496257,,,,,,,2024-12-27,1,,,,,ニホンエイギョウスイシンセンター,0
457,2180001164691,新規,0,2024-12-27,2024-12-27,株式会社荒木不動産,,株式会社,愛知県,日進市,東山５丁目１０１９番地,,23,230,4700116,,,,,,,2024-12-27,1,,,,,アラキフドウサン,0
458,2180001164717,新規,0,2024-12-27,2024-12-27,利衆産業株式会社,,株式会社,愛知県,弥富市,森津４丁目１８番地６,,23,235,4980036,,,,,,,2024-12-27,1,,,,,リシュウサンギョウ,0
461,2180003027789,新規,0,2024-12-27,2024-12-27,タレントプラン合同会社,,合同会社,愛知県,名古屋市中村区,名駅４丁目２４番５号第２森ビル４０１,,23,105,4500002,,,,,,,2024-12-27,1,,,,,タレントプラン,0
466,2190001031899,新規,0,2024-12-27,2024-12-27,株式会社ＧＳ,,株式会社,三重県,四日市市,生桑町２２７９番地２,,24,202,5120911,,,,,,,2024-12-27,1,,,,,ジーエス,0
469,2200001043265,新規,0,2024-12-27,2024-12-27,株式会社ａｖｅｎｉｒ,,株式会社,岐阜県,岐阜市,柳津町蓮池６丁目９８－２,,21,201,5016103,,,,,,,2024-12-27,1,,,,,アヴェニール,0
475,2230001020682,新規,0,2024-12-27,2024-12-27,株式会社榮メディカルケア,,株式会社,富山県,氷見市,窪５５２番地１,,16,205,9350024,,,,,,,2024-12-27,1,,,,,サカエメディカルケア,0
477,2250001020945,新規,0,2024-12-27,2024-12-27,株式会社三春堂Ｌ’ｅｓｐｒｉｔ　ｄｅ　ｌａ　ｖｉｅ,,株式会社,山口県,下関市,豊浦町大字川棚５１３４番地,,35,201,7596301,,,,,,,2024-12-27,1,,,,,サンシュンドウレスプリドゥラヴィ,0
478,2260001039737,新規,0,2024-12-27,2024-12-27,株式会社ココロ電業,,株式会社,岡山県,岡山市中区,山崎２５７番地２４,,33,102,7038267,,,,,,,2024-12-27,1,,,,,ココロデンギョウ,0
479,2260001039753,新規,0,2024-12-27,2024-12-27,株式会社ディスティーノ,,株式会社,岡山県,岡山市北区,丸の内１丁目５番８号,,33,101,7000823,,,,,,,2024-12-27,1,,,,,ディスティーノ,0
480,2260001039761,新規,0,2024-12-27,2024-12-27,株式会社佑心,,株式会社,岡山県,岡山市中区,倉田６２０ベルメゾン東光倉田１０１,,33,102,7038265,,,,,,,2024-12-27,1,,,,,ユウシン,0
481,2260003005019,新規,0,2024-12-27,2024-12-27,合同会社Ｂ．ＧＩＦＴ,,合同会社,岡山県,岡山市北区,中山下１丁目６－２５ロイヤルガーデン中山下９０２,,33,101,7000821,,,,,,,2024-12-27,1,,,,,ビーギフト,0
482,2270001009111,新規,0,2024-12-27,2024-12-27,株式会社原商店,,株式会社,鳥取県,東伯郡琴浦町,大字三保７７８番地７,,31,371,6892353,,,,,,,2024-12-27,1,,,,,ハラショウテン,0
490,2290001108456,新規,0,2024-12-27,2024-12-27,株式会社ＣｅＬａＶｉｅ,,株式会社,福岡県,飯塚市,平恒９３６－１プレステージ穂波東１０１,,40,205,8200073,,,,,,,2024-12-27,1,,,,,セラヴィ,0
494,2290003016236,新規,0,2024-12-27,2024-12-27,合同会社ＳＴＧ,,合同会社,福岡県,久留米市,大善寺町宮本５１番地２３,,40,203,8300073,,,,,,,2024-12-27,1,,,,,エスティージー,0
496,2290005019600,新規,0,2024-12-27,2024-12-27,医療法人正恵会みかも歯科医院,,その他の設立登記法人,福岡県,飯塚市,有井３３４番地１２,,40,205,8200112,,,,,,,2024-12-27,1,,,,,ショウケイカイミカモシカイイン,0
497,2290801031147,新規,0,2024-12-27,2024-12-27,株式会社エスエスエス,,株式会社,福岡県,北九州市小倉北区,大手町１２番５－１２０２号,,40,106,8030814,,,,,,,2024-12-27,1,,,,,エスエスエス,0
498,2290801031155,新規,0,2024-12-27,2024-12-27,株式会社いち律,,株式会社,福岡県,北九州市小倉南区,城野４丁目３番４０－３０８号,,40,107,8020802,,,,,,,2024-12-27,1,,,,,イチリツ,0
507,2330001032759,新規,0,2024-12-27,2024-12-27,株式会社高木内装,00137485,株式会社,熊本県,熊本市西区,蓮台寺１丁目１３番３２号,00137486,43,103,8600055,,,,,,,2024-12-27,1,,,,,タカキナイソウ,0
508,2360001034579,新規,0,2024-12-27,2024-12-27,フィフティノット株式会社,,株式会社,沖縄県,那覇市,曙３丁目１６－１６－４０１,,47,201,9000002,,,,,,,2024-12-27,1,,,,,フィフティノット,0
509,2360001034595,新規,0,2024-12-27,2024-12-27,株式会社昇龍,,株式会社,沖縄県,浦添市,大平２丁目１９番７号,,47,208,9012113,,,,,,,2024-12-27,1,,,,,ショウリュウ,0
510,2360001034604,新規,0,2024-12-27,2024-12-27,株式会社琉家,,株式会社,沖縄県,中頭郡北谷町,字桑江６３５番地１アルファステイツ北谷ヒルズ１２０７号室,,47,326,9040103,,,,,,,2024-12-27,1,,,,,リュウカ,0
511,2360003014546,新規,0,2024-12-27,2024-12-27,グローリー合同会社,,合同会社,沖縄県,島尻郡南風原町,字新川１６６番地２４,,47,350,9011105,,,,,,,2024-12-27,1,,,,,グローリー,0
512,2360003014554,新規,0,2024-12-27,2024-12-27,農地所有適格法人彦農園合同会社,,合同会社,沖縄県,南城市,知念字知念１１７９番地４４,,47,215,9011513,,,,,,,2024-12-27,1,,,,,ヒコノウエン,0
513,2360003014562,新規,0,2024-12-27,2024-12-27,合同会社ハウスリノベ,,合同会社,沖縄県,うるま市,字兼箇段１０６０番地１,,47,213,9042241,,,,,,,2024-12-27,1,,,,,ハウスリノベ,0
515,2370001052068,新規,0,2024-12-27,2024-12-27,株式会社グローライフ,,株式会社,宮城県,黒川郡大郷町,土橋字台畑１１番地の２,,04,422,9813523,,,,,,,2024-12-27,1,,,,,グローライフ,0
526,2390005009095,新規,0,2024-12-27,2024-12-27,一般社団法人空き家相談・活用支援協議会,,その他の設立登記法人,山形県,山形市,本町１丁目３番１４号ラサール本町２Ｆ,,06,201,9900043,,,,,,,2024-12-27,1,,,,,ヤマガタアキヤソウダンカンリキョウカイ,0
527,2420005007938,新規,0,2024-12-27,2024-12-27,一般社団法人ＦＣＳインターナショナル,,その他の設立登記法人,青森県,上北郡六戸町,大字犬落瀬字高舘６２番地９７,,02,405,0392371,,,,,,,2024-12-27,1,,,,,エフシーエスインターナショナル,0
531,2430001093353,新規,0,2024-12-27,2024-12-27,ＡＭＥＲＩ株式会社,,株式会社,北海道,札幌市中央区,南三条西１丁目２番地２,,01,101,0600063,,,,,,,2024-12-27,1,,,,,アメリ,0
532,2430001093378,新規,0,2024-12-27,2024-12-27,バードペア株式会社,,株式会社,北海道,札幌市清田区,北野四条５丁目１１番１１号,,01,110,0040864,,,,,,,2024-12-27,1,,,,,バードペア,0
533,2430001093386,新規,0,2024-12-27,2024-12-27,株式会社つぎびと,,株式会社,北海道,札幌市北区,新琴似町９９８番地４９,,01,102,0010915,,,,,,,2024-12-27,1,,,,,ツギビト,0
534,2430003017120,新規,0,2024-12-27,2024-12-27,ｍｏｚ．７合同会社,,合同会社,北海道,札幌市中央区,南二条西５丁目３１番地１ＲМＢｌｄ．７０１,,01,101,0600062,,,,,,,2024-12-27,1,,,,,モズドットセブン,0
535,2430003017129,新規,0,2024-12-27,2024-12-27,合同会社ｍｏｏｌｅａ,,合同会社,北海道,虻田郡豊浦町,字新山梨８３２－２,,01,571,0495406,,,,,,,2024-12-27,1,,,,,モーリー,0
536,2430005015130,新規,0,2024-12-27,2024-12-27,一般社団法人ＺｏｏｔｏｍｏｎｏＷａ基金,,その他の設立登記法人,北海道,札幌市中央区,南一条西１６丁目１番地３２３春野ビル３Ｆ,,01,101,0600061,,,,,,,2024-12-27,1,,,,,ズートモノワキキン,0
537,2440005002788,新規,0,2024-12-27,2024-12-27,うみ街税理士法人,,その他の設立登記法人,北海道,函館市,北浜町１０番５号,,01,202,0400078,,,,,,,2024-12-27,1,,,,,ウミマチ,0
538,2450003002574,新規,0,2024-12-27,2024-12-27,合同会社日根野,,合同会社,北海道,名寄市,風連町字中央９０１番地２,,01,221,0980515,,,,,,,2024-12-27,1,,,,,ヒネノ,0
545,2490001010930,新規,0,2024-12-27,2024-12-27,株式会社ｏ’ｔｏｍｉｒｕＫ．,,株式会社,高知県,高知市,土居町１３番１号２Ｆ,,39,201,7818001,,,,,,,2024-12-27,1,,,,,オトミルク,0
547,2700150128452,新規,0,2024-12-27,2024-12-27,Ｎｉｎｇｂｏ　Ｈａｉｓｈｕ　Ｌｉａｎｇｐｉｎ　Ｄａｉｌｙ　Ｎｅｃｅｓｓｉｔｉｅｓ　Ｃｏ．，Ｌｔｄ．,,外国会社等,,,,,,,,Ｔａｏｙｕａｎ　Ｖｉｌｌａｇｅ，Ｈｅｎｇｊｉｅ　Ｔｏｗｎ，Ｈａｉｓｈｕ　Ｄｉｓｔｒｉｃｔ，Ｎｉｎｇｂｏ　Ｃｉｔｙ，Ｚｈｅｊｉａｎｇ　Ｐｒｏｖｉｎｃｅ，Ｃｈｉｎａ　３１５１７１,,,,,,2024-12-27,1,,,,,ニンボハイスリャンピンデイリーネセシテイズカンパニーリミテッド,0
552,3010001251043,新規,0,2024-12-27,2024-12-27,株式会社ＲｅＢａｓｅＥｎｔｅｒｔａｉｎｍｅｎｔ,,株式会社,東京都,千代田区,神田須田町２丁目３－１２－１２ＫＡＮＤＡ７０４,,13,101,1010041,,,,,,,2024-12-27,1,,,,,リベースエンタテインメント,0
558,3010401187341,新規,0,2024-12-27,2024-12-27,株式会社かぎけん,,株式会社,東京都,港区,西麻布１丁目４番４６号カーサスプレンディッド７０１,,13,103,1060031,,,,,,,2024-12-27,1,,,,,カギケン,0
565,3010903009596,新規,0,2024-12-27,2024-12-27,オフィスＦＡＤ合同会社,,合同会社,東京都,世田谷区,上北沢３丁目６番１８号日神デュオステージ上北沢１０５,,13,112,1560057,,,,,,,2024-12-27,1,,,,,オフィスエフエーディー,0
566,3010903009613,新規,0,2024-12-27,2024-12-27,Ａｓｕｆｕｋｕ合同会社,,合同会社,東京都,世田谷区,太子堂４丁目１８番１５号マガザン三軒茶屋２・３Ｆ－３,,13,112,1540004,,,,,,,2024-12-27,1,,,,,アスフク,0
569,3011001166339,新規,0,2024-12-27,2024-12-27,株式会社善美,,株式会社,東京都,渋谷区,渋谷１丁目１番６号エムエフ青山５０４,,13,113,1500002,,,,,,,2024-12-27,1,,,,,ゼンビ,0
570,3011001166438,新規,0,2024-12-27,2024-12-27,株式会社ＷｏｒＣｒｙ,,株式会社,東京都,渋谷区,渋谷２丁目２４番１２号,,13,113,1500002,,,,,,,2024-12-27,1,,,,,ワークライ,0
577,3011105011267,新規,0,2024-12-27,2024-12-27,行政書士法人ＮＣＰ相続サポート,,その他の設立登記法人,東京都,新宿区,四谷坂町１２番２１号コモンズビル四谷坂町５Ｆ,,13,104,1600002,,,,,,,2024-12-27,1,,,,,エヌシーピーソウゾクサポート,0
578,3011105011275,新規,0,2024-12-27,2024-12-27,一般社団法人生殖医療センター,,その他の設立登記法人,東京都,新宿区,新宿１丁目３６番２号新宿第七葉山ビル６階,,13,104,1600022,,,,,,,2024-12-27,1,,,,,セイショクイリョウセンター,0
581,3011201026029,新規,0,2024-12-27,2024-12-27,ファーマップ株式会社,,株式会社,東京都,中野区,上高田５丁目２－５ウェンゲン上高田１０４,,13,114,1640002,,,,,,,2024-12-27,1,,,,,ファーマップ,0
589,3011503006356,新規,0,2024-12-27,2024-12-27,ｍｅｍｏｒｉｅｓ合同会社,,合同会社,東京都,北区,上十条１丁目２２－２１,,13,117,1140034,,,,,,,2024-12-27,1,,,,,メモリーズ,0
590,3011503006364,新規,0,2024-12-27,2024-12-27,合同会社ＴＩ,,合同会社,東京都,荒川区,南千住５丁目２２番７－１０３号Ｇｌａｎｚ南千住ＩＩ,00137483,13,118,1160003,,,,,,,2024-12-27,1,,,,,ティーアイ,0
594,3011703004069,新規,0,2024-12-27,2024-12-27,哲研合同会社,,合同会社,東京都,江戸川区,南小岩２丁目２－３,,13,123,1330056,,,,,,,2024-12-27,1,,,,,テツケン,0
599,3011803006618,新規,0,2024-12-27,2024-12-27,奈田商事合同会社,,合同会社,東京都,葛飾区,立石７丁目３０番８－１０２号,,13,122,1240012,,,,,,,2024-12-27,1,,,,,ナタショウジ,0
601,3012401042609,新規,0,2024-12-27,2024-12-27,株式会社ロータス総合人材サービス,,株式会社,東京都,三鷹市,中原４丁目２４番４号１階２号室,,13,204,1810005,,,,,,,2024-12-27,1,,,,,ロータスソウゴウジンザイサービス,0
602,3012401042625,新規,0,2024-12-27,2024-12-27,株式会社ＪＯＳＡＩ　ＦＲＯＮＴ,,株式会社,東京都,府中市,若松町２丁目３７－１,,13,206,1830005,,,,,,,2024-12-27,1,,,,,ジョウサイフロント,0
604,3013303007451,新規,0,2024-12-27,2024-12-27,合同会社あかさか総合事務所,,合同会社,東京都,豊島区,西池袋３丁目３２番７号,,13,116,1710021,,,,,,,2024-12-27,1,,,,,アカサカソウゴウジムショ,0
609,3020001160722,新規,0,2024-12-27,2024-12-27,ＫＳＳ株式会社,,株式会社,神奈川県,横浜市戸塚区,舞岡町３５４４－３,,14,110,2440813,,,,,,,2024-12-27,1,,,,,ケーエスエス,0
610,3020001160763,新規,0,2024-12-27,2024-12-27,株式会社ベルフラワー,,株式会社,神奈川県,横浜市神奈川区,金港町２番地１パークタワー横濱ポートサイド３１０１号,,14,102,2210056,,,,,,,2024-12-27,1,,,,,ベルフラワー,0
614,3021001084077,新規,0,2024-12-27,2024-12-27,ブルーシー株式会社,,株式会社,神奈川県,秦野市,南矢名２２２３番地の４東海ビル１１１Ｄ,,14,211,2570003,,,,,,,2024-12-27,1,,,,,ブルーシー,0
615,3021001084093,新規,0,2024-12-27,2024-12-27,株式会社どらやき絃,,株式会社,神奈川県,足柄下郡湯河原町,中央１丁目７番地１８,,14,384,2590301,,,,,,,2024-12-27,1,,,,,ドラヤキイト,0
616,3021001084102,新規,0,2024-12-27,2024-12-27,壱乃彦株式会社,,株式会社,神奈川県,横須賀市,佐島の丘２丁目１３－１０,,14,201,2400108,,,,,,,2024-12-27,1,,,,,イチノヒコ,0
617,3021001084110,新規,0,2024-12-27,2024-12-27,株式会社ケアシス,,株式会社,神奈川県,相模原市中央区,共和３丁目９番４号,,14,152,2520234,,,,,,,2024-12-27,1,,,,,ケアシス,0
618,3021001084119,新規,0,2024-12-27,2024-12-27,暁株式会社,,株式会社,神奈川県,鎌倉市,寺分３丁目１番８号,,14,204,2470064,,,,,,,2024-12-27,1,,,,,アカツキ,0
624,3030001164210,新規,0,2024-12-27,2024-12-27,株式会社ＣＩＲＣＵＩＴ,,株式会社,埼玉県,ふじみ野市,西原２丁目１番地２－２０１,,11,245,3560028,,,,,,,2024-12-27,1,,,,,サーキット,0
635,3040003026382,新規,0,2024-12-27,2024-12-27,合同会社アクトリンク,,合同会社,千葉県,習志野市,東習志野８丁目１０－１１インペリアルハイム２０２号,,12,216,2750001,,,,,,,2024-12-27,1,,,,,アクトリンク,0
636,3040005022611,新規,0,2024-12-27,2024-12-27,特定非営利活動法人マカロン,,その他の設立登記法人,千葉県,匝瑳市,椿１６５０番地１５,,12,235,2892102,,,,,,,2024-12-27,1,,,,,マカロン,0
638,3060001037768,新規,0,2024-12-27,2024-12-27,パスレル株式会社,,株式会社,栃木県,大田原市,加治屋８３番地２６８,,09,210,3240046,,,,,,,2024-12-27,1,,,,,パスレル,0
639,3060003005376,新規,0,2024-12-27,2024-12-27,合同会社ＭＩＴＳＵＯＪＡＰＡＮ,,合同会社,栃木県,宇都宮市,富士見が丘４丁目２１－５,,09,201,3200011,,,,,,,2024-12-27,1,,,,,ミツオジャパン,0
640,3070001042461,新規,0,2024-12-27,2024-12-27,株式会社あきら電機,,株式会社,群馬県,高崎市,足門町８６１番地２,,10,202,3703531,,,,,,,2024-12-27,1,,,,,アキラデンキ,0
641,3070003005722,新規,0,2024-12-27,2024-12-27,Ｈｏｐｅｆｕｌ合同会社,,合同会社,群馬県,伊勢崎市,宮子町３４７７－５八木ヒルズＢ１０１号室,,10,204,3720801,,,,,,,2024-12-27,1,,,,,ホープフル,0
642,3080101025217,新規,0,2024-12-27,2024-12-27,株式会社ＶＮＶ,,株式会社,静岡県,三島市,芝本町１２番６号ＭｉｓｈｉｍａＴｒｕｓｔＢｕｉｌｄｉｎｇ,,22,206,4110857,,,,,,,2024-12-27,1,,,,,ブイエヌブイ,0
653,3110001038967,新規,0,2024-12-27,2024-12-27,Ａｏｍｉホールディングス株式会社,,株式会社,新潟県,新潟市南区,下曲通字中江下７８７番地,,15,106,9501301,,,,,,,2024-12-27,1,,,,,アオミホールディングス,0
655,3110005017166,新規,0,2024-12-27,2024-12-27,ＮＰＯ法人ＮＰＯ事業評価コーディネーター友の会,,その他の設立登記法人,新潟県,三条市,神明町３－７ＳＨＯＯ燕三条内,,15,204,9550063,,,,,,,2024-12-27,1,,,,,,0
666,3120001271559,新規,0,2024-12-27,2024-12-27,株式会社えいえいおー,,株式会社,大阪府,寝屋川市,香里新町１６番１８号,,27,215,5720085,,,,,,,2024-12-27,1,,,,,エイエイオー,0
669,3120003028255,新規,0,2024-12-27,2024-12-27,合同会社ｔ．ｏｆｆｉｃｅ２１,,合同会社,大阪府,大阪市中央区,南船場３丁目２番２２号おおきに南船場ビル２０５,,27,128,5420081,,,,,,,2024-12-27,1,,,,,ティオフィスニジュウイチ,0
671,3120903005485,新規,0,2024-12-27,2024-12-27,合同会社相羽,,合同会社,大阪府,豊中市,上野東２丁目４番５９号,,27,203,5600013,,,,,,,2024-12-27,1,,,,,アイワ,0
679,3130001078664,新規,0,2024-12-27,2024-12-27,株式会社山三ホールディングス,,株式会社,京都府,京都市中京区,西ノ京北壺井町８５番地,,26,104,6048472,,,,,,,2024-12-27,1,,,,,ヤマサンホールディングス,0
680,3130001078672,新規,0,2024-12-27,2024-12-27,株式会社ＳＯＲＡ．,,株式会社,京都府,長岡京市,長岡２丁目３－２３アーネストビルＤ棟３階,,26,209,6170823,,,,,,,2024-12-27,1,,,,,ソラ,0
681,3130001078697,新規,0,2024-12-27,2024-12-27,株式会社おさとう,,株式会社,京都府,京都市右京区,西院春日町２３,,26,108,6150015,,,,,,,2024-12-27,1,,,,,オサトウ,0
686,3140001136850,新規,0,2024-12-27,2024-12-27,株式会社Ｉｎｔｅｒｎａｔｉｏｎａｌ　ＨＫＭ,,株式会社,兵庫県,神戸市中央区,旗塚通１丁目５番８号２階,,28,110,6510068,,,,,,,2024-12-27,1,,,,,インターナショナルエイチケーエム,0
687,3140001136859,新規,0,2024-12-27,2024-12-27,株式会社砂川組,,株式会社,兵庫県,尼崎市,南武庫之荘１１丁目１番４０号,,28,202,6610033,,,,,,,2024-12-27,1,,,,,スナガワグミ,0
688,3140001136867,新規,0,2024-12-27,2024-12-27,株式会社ハイライト,,株式会社,兵庫県,神戸市灘区,都通４丁目１番２２号,,28,102,6570844,,,,,,,2024-12-27,1,,,,,ハイライト,0
689,3140001136875,新規,0,2024-12-27,2024-12-27,株式会社Ａｓｔｒｅ,,株式会社,兵庫県,神戸市灘区,城内通２丁目５番１９号,,28,102,6570836,,,,,,,2024-12-27,1,,,,,アストル,0
690,3140001136883,新規,0,2024-12-27,2024-12-27,株式会社ロック・アセット・マネジメント,,株式会社,兵庫県,神戸市須磨区,東町１丁目１番１１号,,28,107,6540033,,,,,,,2024-12-27,1,,,,,ロックアセットマネジメント,0
694,3140005027328,新規,0,2024-12-27,2024-12-27,一般社団法人フューチャーデザインネットワーク,,その他の設立登記法人,兵庫県,豊岡市,日高町名色８３番地３６９,,28,209,6695379,,,,,,,2024-12-27,1,,,,,フューチャーデザインネットワーク,0
695,3150001027768,新規,0,2024-12-27,2024-12-27,株式会社Ｌｉｎｋｘ,,株式会社,奈良県,橿原市,久米町５７６番地,,29,205,6340063,,,,,,,2024-12-27,1,,,,,リンクス,0
696,3150001027776,新規,0,2024-12-27,2024-12-27,株式会社エイチアイ,,株式会社,奈良県,葛城市,北花内５２７番地,,29,211,6392113,,,,,,,2024-12-27,1,,,,,エイチアイ,0
697,3150001027784,新規,0,2024-12-27,2024-12-27,新光株式会社,,株式会社,奈良県,奈良市,左京４丁目３番地の１７,,29,201,6310801,,,,,,,2024-12-27,1,,,,,シンコウ,0
698,3150001027792,新規,0,2024-12-27,2024-12-27,株式会社あめつちかえる,,株式会社,奈良県,奈良市,月ヶ瀬石打２２７９,,29,201,6302301,,,,,,,2024-12-27,1,,,,,アメツチカエル,0
699,3150003003461,新規,0,2024-12-27,2024-12-27,合同会社耶麻良,,合同会社,奈良県,奈良市,富雄川西１丁目３４番２２号,,29,201,6310077,,,,,,,2024-12-27,1,,,,,ヤマリョウ,0
701,3160001026439,新規,0,2024-12-27,2024-12-27,株式会社ＯＷＬＤＡＹＳ,,株式会社,滋賀県,近江八幡市,西本郷町西７番地１（５０４号）,,25,204,5230819,,,,,,,2024-12-27,1,,,,,オウルデイズ,0
702,3160001026447,新規,0,2024-12-27,2024-12-27,株式会社都湯,,株式会社,滋賀県,大津市,馬場３丁目１２番２１号,,25,201,5200802,,,,,,,2024-12-27,1,,,,,ミヤコユ,0
703,3170001018427,新規,0,2024-12-27,2024-12-27,株式会社ＫＴｆｅｌｉｚ,,株式会社,和歌山県,日高郡日高川町,大字玄子２５３番地１,,30,392,6491315,,,,,,,2024-12-27,1,,,,,ケイティーフェリス,0
709,3180001164690,新規,0,2024-12-27,2024-12-27,株式会社ＦＩＲＳＴＳＴＥＰ,,株式会社,愛知県,名古屋市西区,八筋町２６０第三平松マンション８０２,,23,104,4520815,,,,,,,2024-12-27,1,,,,,ファーストステップ,0
710,3180003027788,新規,0,2024-12-27,2024-12-27,ＣｕｒａＢｅａ合同会社,,合同会社,愛知県,名古屋市西区,那古野２丁目１９番１８号（シティハウス名駅那古野１２０６号）,,23,104,4510042,,,,,,,2024-12-27,1,,,,,クラベア,0
711,3180005020881,新規,0,2024-12-27,2024-12-27,社会保険労務士法人伊勢山社保,,その他の設立登記法人,愛知県,名古屋市中区,金山１丁目１４番１８号,,23,106,4600022,,,,,,,2024-12-27,1,,,,,イセヤマシャホ,0
718,3190001031898,新規,0,2024-12-27,2024-12-27,株式会社４ＤＣＧ　Ｅｎｔｅｒｔａｉｎｍｅｎｔ,,株式会社,三重県,四日市市,諏訪栄町１１番９号,,24,202,5100086,,,,,,,2024-12-27,1,,,,,フォーディーシージーエンターテイメント,0
719,3200001043280,新規,0,2024-12-27,2024-12-27,株式会社ふしめ,,株式会社,岐阜県,多治見市,笠原町２２００番地の２３４,,21,204,5070901,,,,,,,2024-12-27,1,,,,,フシメ,0
720,3200001043289,新規,0,2024-12-27,2024-12-27,Ｗａｔａｒａｉ株式会社,,株式会社,岐阜県,岐阜市,芥見３丁目３０３番地,,21,201,5013134,,,,,,,2024-12-27,1,,,,,ワタライ,0
723,3220003003900,新規,0,2024-12-27,2024-12-27,ハイフォース合同会社,,合同会社,石川県,野々市市,押野３丁目５６番地スカイヒル２０２号,,17,212,9218802,,,,,,,2024-12-27,1,,,,,ハイフォース,0
724,3230001020681,新規,0,2024-12-27,2024-12-27,Ｒｅ．Ｍ　ｇｒｏｕｐ株式会社,,株式会社,富山県,富山市,総曲輪３丁目３番１４号第一ハタビル２階,,16,201,9300083,,,,,,,2024-12-27,1,,,,,リムグループ,0
728,3240001064265,新規,0,2024-12-27,2024-12-27,株式会社ＨｉＬｓ,,株式会社,広島県,広島市安佐南区,西原４丁目２９番２３号,,34,105,7310113,,,,,,,2024-12-27,1,,,,,ヒルズ,0
729,3240001064298,新規,0,2024-12-27,2024-12-27,しまなみフーズ株式会社,,株式会社,広島県,尾道市,新浜１丁目７番２５号,,34,205,7220014,,,,,,,2024-12-27,1,,,,,シマナミフーズ,0
730,3240001064323,新規,0,2024-12-27,2024-12-27,株式会社ＰＬＫ,,株式会社,広島県,福山市,昭和町８－８（１Ｆ）,,34,207,7200808,,,,,,,2024-12-27,1,,,,,ピエルケイ,0
731,3240003006991,新規,0,2024-12-27,2024-12-27,合同会社ＬＵＳＨＥＲＡ,,合同会社,広島県,呉市,広石内３丁目５番２号,,34,202,7370101,,,,,,,2024-12-27,1,,,,,ルシェラ,0
732,3250003003617,新規,0,2024-12-27,2024-12-27,１０９合同会社,,合同会社,山口県,岩国市,御庄１５５６番地１,,35,208,7410083,,,,,,,2024-12-27,1,,,,,イチマルキュー,0
733,3260001039744,新規,0,2024-12-27,2024-12-27,株式会社ブルーム,,株式会社,岡山県,倉敷市,水島明神町７番３５号,,33,202,7128003,,,,,,,2024-12-27,1,,,,,ブルーム,0
734,3260001039752,新規,0,2024-12-27,2024-12-27,株式会社ナカイチ建設,,株式会社,岡山県,岡山市南区,福島４丁目１９番２３号,,33,104,7028044,,,,,,,2024-12-27,1,,,,,ナカイチケンセツ,0
738,3280001009324,新規,0,2024-12-27,2024-12-27,フルカワ開発株式会社,,株式会社,島根県,出雲市,斐川町中洲６８０番地,,32,203,6990552,,,,,,,2024-12-27,1,,,,,フルカワカイハツ,0
743,3290001108447,新規,0,2024-12-27,2024-12-27,株式会社ＳＳＫメディカル,,株式会社,福岡県,久留米市,六ツ門町７－２４－１４０９,,40,203,8300031,,,,,,,2024-12-27,1,,,,,エスエスケーメディカル,0
751,3290803004934,新規,0,2024-12-27,2024-12-27,Ｇｏｌｄｅｎ　Ｍｅａｎ合同会社,,合同会社,福岡県,北九州市八幡西区,引野３丁目１６番３２号,,40,109,8060067,,,,,,,2024-12-27,1,,,,,ゴールデンミーン,0
758,3330001032758,新規,0,2024-12-27,2024-12-27,株式会社ＡＮＯＮ,,株式会社,熊本県,熊本市北区,清水万石１丁目６番８号,,43,105,8618068,,,,,,,2024-12-27,1,,,,,アノン,0
761,3340001027022,新規,0,2024-12-27,2024-12-27,株式会社伊地知企画,,株式会社,鹿児島県,肝属郡肝付町,前田４９７７番地３,,46,492,8931206,,,,,,,2024-12-27,1,,,,,イジチキカク,0
764,3350001019340,新規,0,2024-12-27,2024-12-27,株式会社グリーンダイニング,,株式会社,宮崎県,日向市,大字日知屋１７３５２番地９ＮＡハウス２号,,45,206,8830062,,,,,,,2024-12-27,1,,,,,グリーンダイニング,0
765,3360001034594,新規,0,2024-12-27,2024-12-27,株式会社高良工業,00137478,株式会社,沖縄県,浦添市,前田１丁目１４番１５号,,47,208,9012102,,,,,,,2024-12-27,1,,,,,タカラコウギョウ,0
766,3360005007142,新規,0,2024-12-27,2024-12-27,石垣島事業活性化協同組合,,その他の設立登記法人,沖縄県,石垣市,字伊原間２－２８２,,47,207,9070332,,,,,,,2024-12-27,1,,,,,イシガキジマジギョウカッセイカ,0
768,3370001052067,新規,0,2024-12-27,2024-12-27,株式会社ＧＯ‐ＫＥＮ,,株式会社,宮城県,仙台市宮城野区,岩切字今市東２３３番地,,04,102,9830821,,,,,,,2024-12-27,1,,,,,ゴウケン,0
770,3370003006871,新規,0,2024-12-27,2024-12-27,ＢａｓｋｎＢｅａｎｓ合同会社,,合同会社,宮城県,仙台市青葉区,中央３丁目８－５新仙台駅前ビル２Ｆ－３,,04,101,9800021,,,,,,,2024-12-27,1,,,,,バスキンビーンズ,0
783,3430001093311,新規,0,2024-12-27,2024-12-27,株式会社ＲｅＲｏｏｔ,,株式会社,北海道,勇払郡厚真町,京町１番地,,01,581,0591601,,,,,,,2024-12-27,1,,,,,リルート,0
784,3430001093369,新規,0,2024-12-27,2024-12-27,株式会社Ｓｔａｒ　Ｃａｂｉｎ,,株式会社,北海道,小樽市,塩谷１丁目２５番５号,,01,203,0482672,,,,,,,2024-12-27,1,,,,,スターキャビン,0
793,3500001026049,新規,0,2024-12-27,2024-12-27,株式会社Ｎ‐ＦＬＡＴ,,株式会社,愛媛県,松山市,湊町４丁目１４番地１４かね八ビル３階,,38,201,7900012,,,,,,,2024-12-27,1,,,,,エヌフラット,0
796,3700150128443,新規,0,2024-12-27,2024-12-27,Ｇ－Ｓｕｃｃｅｓｓ　Ｃｏｍｐａｎｙ,,外国会社等,,,,,,,,ＮＯ．３０９，ＸＩＡＮＧＹＡＮＧ　ＬＮ．Ｐｉｎｇｔｕｎｇ　ｃｉｔｙ　Ｐｉｎｇｔｕｎｇ　ｃｏｕｎｔｙ,,,,,,2024-12-27,1,,,,,キョセイコクサイボウエキ,0
797,3700150128451,新規,0,2024-12-27,2024-12-27,Ｌｃｏｌｏｒ　Ｔｅｃｈｎｏｌｏｇｙ（Ｄｏｎｇｇｕａｎ）Ｃｏ．，Ｌｔｄ,,外国会社等,,,,,,,,１１０９，Ｂｌｄ　４，Ｆｉｒｓｔ　Ｉｎｔｅｒｎ．Ｂａｉａｎ　Ｃｅｎｔｅｒ，Ｎｏ．２００　Ｈｏｎｇｆｕ　Ｒｄ，Ｎａｎｃｈｅｎｇ　Ｓｔ，Ｄｏｎｇｇｕａｎ，Ｇｕａｎｇｄｏｎｇ，ＣＮ　５２３０００,,,,,,2024-12-27,1,,,,,エルカラーテクノロジードングゥアンカンパニーリミテッド,0
806,4010001250746,新規,0,2024-12-27,2024-12-27,株式会社ＳＨＷＥ　ＺＡＢＵ　ＤＥＩＫ　ＪＡＰＡＮ,,株式会社,東京都,文京区,水道２丁目４番１,,13,105,1120005,,,,,,,2024-12-27,1,,,,,シェイザブディックジャパン,0
809,4010003045797,新規,0,2024-12-27,2024-12-27,合同会社レムカエステート,,合同会社,東京都,中央区,東日本橋２丁目２８番４号日本橋ＣＥＴビル２階,,13,102,1030004,,,,,,,2024-12-27,1,,,,,レムカエステート,0
810,4010003045913,新規,0,2024-12-27,2024-12-27,合同会社嬉野温泉開発,,合同会社,東京都,千代田区,霞が関３丁目２番５号,,13,101,1000013,,,,,,,2024-12-27,1,,,,,ウレシノオンセンカイハツ,0
811,4010005039327,新規,0,2024-12-27,2024-12-27,一般財団法人宮内シェア基金,,その他の設立登記法人,東京都,千代田区,神田須田町１丁目９番地,,13,101,1010041,,,,,,,2024-12-27,1,,,,,ミヤウチシェアキキン,0
813,4010401187266,新規,0,2024-12-27,2024-12-27,ベルシティキャリアエージェント株式会社,,株式会社,東京都,港区,港南１丁目６番３３号品川グラスレジデンス１５Ｆ,,13,103,1080075,,,,,,,2024-12-27,1,,,,,ベルシティキャリアエージェント,0
814,4010401187324,新規,0,2024-12-27,2024-12-27,株式会社Ｒコンサルタンツ,,株式会社,東京都,港区,白金１丁目２７番６号白金高輪ステーションビル８Ｆ,,13,103,1080072,,,,,,,2024-12-27,1,,,,,アールコンサルタンツ,0
816,4010403034061,新規,0,2024-12-27,2024-12-27,ネットプライス事業再生２号合同会社,,合同会社,東京都,港区,新橋２丁目１６番１号ニュー新橋ビル７階,,13,103,1050004,,,,,,,2024-12-27,1,,,,,,0
817,4010403034103,新規,0,2024-12-27,2024-12-27,ＲａａＳ合同会社,,合同会社,東京都,港区,南青山２丁目２番１５号,,13,103,1070062,,,,,,,2024-12-27,1,,,,,ラース,0
821,4010605004399,新規,0,2024-12-27,2024-12-27,一般社団法人Ｇｅｎｉａｌ　Ｐｌｕｓ,,その他の設立登記法人,東京都,江東区,南砂７丁目１番２１号,,13,108,1360076,,,,,,,2024-12-27,1,,,,,ジニアルプラス,0
822,4010901056557,新規,0,2024-12-27,2024-12-27,株式会社Ｌａｎｉ,,株式会社,東京都,世田谷区,太子堂４丁目１８番１５号マガザン三軒茶屋２－３Ｆ－３,,13,112,1540004,,,,,,,2024-12-27,1,,,,,ラニ,0
826,4011003020690,新規,0,2024-12-27,2024-12-27,合同会社ｎｅｗ　ｔｅａｍ,,合同会社,東京都,渋谷区,神宮前６丁目２３‐４桑野ビル２Ｆ,,13,113,1500001,,,,,,,2024-12-27,1,,,,,ニューチーム,0
827,4011003020724,新規,0,2024-12-27,2024-12-27,エウレカ合同会社,,合同会社,東京都,渋谷区,道玄坂１丁目１０番８号渋谷道玄坂東急ビル２ＦーＣ,,13,113,1500043,,,,,,,2024-12-27,1,,,,,エウレカ,0
836,4011103015351,新規,0,2024-12-27,2024-12-27,合同会社ＣＲＥＳＴ,,合同会社,東京都,新宿区,中落合１丁目１２番９－５０６号,,13,104,1610032,,,,,,,2024-12-27,1,,,,,クレスト,0
837,4011103015368,新規,0,2024-12-27,2024-12-27,合同会社ｋｏｙｏｍｉ,,合同会社,東京都,新宿区,西新宿３丁目３番１３号西新宿水間ビル２Ｆ,,13,104,1600023,,,,,,,2024-12-27,1,,,,,コヨミ,0
839,4011105011274,新規,0,2024-12-27,2024-12-27,一般社団法人ＤＡＲＣ　Ｃｅｎｔｒａｌ　Ｏｆｆｉｃｅ,,その他の設立登記法人,東京都,新宿区,余丁町１４番１号１Ｆ,,13,104,1620055,,,,,,,2024-12-27,1,,,,,ダルクセントラルオフィス,0
840,4011401026694,新規,0,2024-12-27,2024-12-27,株式会社ＰＲＯＧＲＥＳＳ,,株式会社,東京都,板橋区,成増３丁目３１－５成増ヴィレッヂ２０２,,13,119,1750094,,,,,,,2024-12-27,1,,,,,プログレス,0
841,4011501031537,新規,0,2024-12-27,2024-12-27,中棋株式会社,,株式会社,東京都,北区,王子２丁目２番９号レグルスＩＩ３０２号室,,13,117,1140002,,,,,,,2024-12-27,1,,,,,チュウギ,0
845,4012401042624,新規,0,2024-12-27,2024-12-27,株式会社サイクルヒット,,株式会社,東京都,調布市,布田４丁目４－３ＤＵＡＬＥＡ１０１,,13,208,1820024,,,,,,,2024-12-27,1,,,,,サイクルヒット,0
849,4020001160754,新規,0,2024-12-27,2024-12-27,株式会社ＦＯＵＲＳＩＤＥ　ＥＳＴＡＴＥ,,株式会社,神奈川県,横浜市磯子区,中原４丁目１３番１９号,,14,107,2350036,,,,,,,2024-12-27,1,,,,,フォーサイドエステート,0
853,4020003027489,新規,0,2024-12-27,2024-12-27,合同会社大智,,合同会社,神奈川県,横浜市青葉区,すすき野２丁目８番地すすき野第二団地１棟２０４号,,14,117,2250021,,,,,,,2024-12-27,1,,,,,ダイチ,0
854,4020005016663,新規,0,2024-12-27,2024-12-27,医療法人社団はる内科クリニック,,その他の設立登記法人,神奈川県,横浜市金沢区,六浦１丁目１４番１２号金沢八景国際コミュニティプラザ１階１０２号,,14,108,2360031,,,,,,,2024-12-27,1,,,,,,0
857,4021001084076,新規,0,2024-12-27,2024-12-27,Ｃ＆Ｃ旅行商事株式会社,,株式会社,神奈川県,秦野市,南矢名２２２３番地の４東海ビル１１３Ｃ,,14,211,2570003,,,,,,,2024-12-27,1,,,,,シーアンドシーリョコウショウジ,0
858,4021001084092,新規,0,2024-12-27,2024-12-27,ＹＳＳ株式会社,,株式会社,神奈川県,藤沢市,亀井野３丁目１６番地の６,,14,205,2520813,,,,,,,2024-12-27,1,,,,,ワイエスエス,0
859,4021001084101,新規,0,2024-12-27,2024-12-27,株式会社ＹＳＫマネジメント,,株式会社,神奈川県,藤沢市,湘南台３丁目３番地の７,,14,205,2520804,,,,,,,2024-12-27,1,,,,,ワイエスケーマネジメント,0
862,4021003015401,新規,0,2024-12-27,2024-12-27,合同会社ＣＯＯＰＥＲ,,合同会社,神奈川県,藤沢市,川名３８４番地の５ノブレス湘南藤沢センタースクエア４１１,,14,205,2510015,,,,,,,2024-12-27,1,,,,,クーパー,0
865,4030003025764,新規,0,2024-12-27,2024-12-27,ＢＡＭＢＯＯ　ＥＮＴＥＲＰＲＩＳＥＳ合同会社,,合同会社,埼玉県,川口市,戸塚東４丁目２－１０サンシティ東川口２０７号室,,11,203,3330802,,,,,,,2024-12-27,1,,,,,バンブーエンタープライズ,0
866,4030003025806,新規,0,2024-12-27,2024-12-27,ＨＲＳ合同会社,,合同会社,埼玉県,川口市,南町２丁目６番２９号,,11,203,3320026,,,,,,,2024-12-27,1,,,,,エイチアールエス,0
870,4040001136736,新規,0,2024-12-27,2024-12-27,ＮｅｍＯ株式会社,,株式会社,千葉県,市原市,神崎５１４番地,,12,219,2900178,,,,,,,2024-12-27,1,,,,,ネモ,0
872,4040005022610,新規,0,2024-12-27,2024-12-27,一般社団法人千葉県介護支援専門員協議会,,その他の設立登記法人,千葉県,千葉市中央区,千葉港４番５号,,12,101,2600026,,,,,,,2024-12-27,1,,,,,チバケンカイゴシエンセンモンインキョウギカイ,0
875,4050003008882,新規,0,2024-12-27,2024-12-27,ゆいまーる合同会社,,合同会社,茨城県,神栖市,太田６８３－１６７,,08,232,3140254,,,,,,,2024-12-27,1,,,,,ユイマール,0
876,4060001037767,新規,0,2024-12-27,2024-12-27,齋藤総建株式会社,,株式会社,栃木県,栃木市,西方町金崎９０７番地２８,,09,203,3220601,,,,,,,2024-12-27,1,,,,,サイトウソウケン,0
877,4070001042485,新規,0,2024-12-27,2024-12-27,株式会社Ｃｏｐｉｎ,,株式会社,群馬県,吾妻郡嬬恋村,大字鎌原１０５３番地１２５３３,,10,425,3771524,,,,,,,2024-12-27,1,,,,,コパン,0
878,4070001042493,新規,0,2024-12-27,2024-12-27,株式会社ＡＣＥＲＯ’Ｖａｌｌｅ,,株式会社,群馬県,高崎市,下小鳥町６１番地４,,10,202,3700074,,,,,,,2024-12-27,1,,,,,アチェロヴァッレ,0
879,4070003005721,新規,0,2024-12-27,2024-12-27,合同会社ビアサイト,,合同会社,群馬県,前橋市,堀越町９２６番地１８,,10,201,3710231,,,,,,,2024-12-27,1,,,,,ビアサイト,0
881,4080003003360,新規,0,2024-12-27,2024-12-27,レッドホーリーコンサルティング合同会社,,合同会社,静岡県,静岡市清水区,蜂ヶ谷南町９番２号,,22,103,4240004,,,,,,,2024-12-27,1,,,,,レッドホーリーコンサルティング,0
893,4120001271442,新規,0,2024-12-27,2024-12-27,精工技研株式会社,,株式会社,大阪府,寝屋川市,点野５丁目４番２７号,,27,215,5720077,,,,,,,2024-12-27,1,,,,,セイコウギケン,0
894,4120001271459,新規,0,2024-12-27,2024-12-27,ＫＭ株式会社,,株式会社,大阪府,大阪市北区,天神橋２丁目１番１８号,,27,127,5300041,,,,,,,2024-12-27,1,,,,,ケーエム,0
895,4120001271475,新規,0,2024-12-27,2024-12-27,株式会社アンティル,,株式会社,大阪府,大阪市淀川区,新高２丁目１４番６号,,27,123,5320033,,,,,,,2024-12-27,1,,,,,アンティル,0
896,4120001271491,新規,0,2024-12-27,2024-12-27,ＰＡＳＳ＆ＭＡＫＥ株式会社,,株式会社,大阪府,大阪市福島区,福島１丁目１番４８－１８０９号,,27,103,5530003,,,,,,,2024-12-27,1,,,,,パスアンドメイク,0
897,4120001271558,新規,0,2024-12-27,2024-12-27,株式会社ＳＫＤ,,株式会社,大阪府,大阪市中央区,難波３丁目７－５,,27,128,5420076,,,,,,,2024-12-27,1,,,,,エスケーディー,0
898,4120003028246,新規,0,2024-12-27,2024-12-27,合同会社ＭＥＳ,,合同会社,大阪府,大阪市北区,梅田１丁目２番２号大阪駅前第２ビル１２－１２,,27,127,5300001,,,,,,,2024-12-27,1,,,,,エムイーエス,0
899,4120005024680,新規,0,2024-12-27,2024-12-27,大阪再生生コンクリート事業協同組合,,その他の設立登記法人,大阪府,大阪市西成区,南津守７丁目１８番２２号,,27,122,5570063,,,,,,,2024-12-27,1,,,,,オオサカサイセイナマコンクリート,0
904,4120101070810,新規,0,2024-12-27,2024-12-27,亀井貴史株式会社,,株式会社,大阪府,泉佐野市,高松北２丁目１番６１号,,27,213,5980011,,,,,,,2024-12-27,1,,,,,カメイタカシ,0
905,4120101070827,新規,0,2024-12-27,2024-12-27,株式会社Ｔｒｉｐｌｅ,,株式会社,大阪府,河内長野市,市町７２２番地の４,,27,216,5860002,,,,,,,2024-12-27,1,,,,,トリプル,0
910,4120901050160,新規,0,2024-12-27,2024-12-27,株式会社柴田会計事務所,,株式会社,大阪府,豊中市,本町１丁目３－１９長尾第一ビル３階,,27,203,5600021,,,,,,,2024-12-27,1,,,,,シバタカイケイジムショ,0
911,4120901050219,新規,0,2024-12-27,2024-12-27,株式会社Ｇｏｏｄ　Ｐｌａｎｎｉｎｇｓ,,株式会社,大阪府,吹田市,千里丘北１番２８－１３１２号,,27,205,5650815,,,,,,,2024-12-27,1,,,,,グッドプランニングス,0
921,4130001078663,新規,0,2024-12-27,2024-12-27,株式会社ｃｏｍ,,株式会社,京都府,京都市左京区,聖護院中町８番地４ドルフ聖護院３０２号室,,26,103,6068324,,,,,,,2024-12-27,1,,,,,コム,0
922,4130001078671,新規,0,2024-12-27,2024-12-27,株式会社ゆばん,,株式会社,京都府,京都市下京区,木屋町通上ノ口上る岩滝町１７５,,26,106,6008115,,,,,,,2024-12-27,1,,,,,ユバン,0
929,4140001136858,新規,0,2024-12-27,2024-12-27,株式会社千紫葉,,株式会社,兵庫県,西宮市,甲子園五番町２番２７号,,28,204,6638175,,,,,,,2024-12-27,1,,,,,チシバ,0
930,4140001136890,新規,0,2024-12-27,2024-12-27,株式会社ＮＨＤテクノ,,株式会社,兵庫県,神崎郡福崎町,西治２１２１番地,,28,443,6792215,,,,,,,2024-12-27,1,,,,,エヌエイチディーテクノ,0
937,4140003021471,新規,0,2024-12-27,2024-12-27,合同会社ＴＳＵＮＡＧＵ,,合同会社,兵庫県,三木市,福井１丁目８番３１号,,28,215,6730433,,,,,,,2024-12-27,1,,,,,ツナグ,0
938,4140005027327,新規,0,2024-12-27,2024-12-27,医療法人河原歯科医院,,その他の設立登記法人,兵庫県,豊岡市,城崎町桃島１２９２番地の６,,28,209,6696102,,,,,,,2024-12-27,1,,,,,カワハラシカイイン,0
942,4150001027775,新規,0,2024-12-27,2024-12-27,青田地所株式会社,,株式会社,奈良県,北葛城郡王寺町,王寺２丁目８番１２－２０７号,,29,425,6360002,,,,,,,2024-12-27,1,,,,,アオタジショ,0
943,4150001027783,新規,0,2024-12-27,2024-12-27,株式会社ＯＬＬ,,株式会社,奈良県,奈良市,四条大路４丁目１番３１－２０５号,,29,201,6308014,,,,,,,2024-12-27,1,,,,,オール,0
944,4150001027791,新規,0,2024-12-27,2024-12-27,ＭＩＹＯＳＨＩ庭景株式会社,,株式会社,奈良県,桜井市,大字橋本３８７番地の１７,,29,206,6330047,,,,,,,2024-12-27,1,,,,,ミヨシテイケイ,0
945,4160001026438,新規,0,2024-12-27,2024-12-27,株式会社ＨＫ２ホールディングス,,株式会社,滋賀県,守山市,今浜町２５７４－４,,25,207,5240101,,,,,,,2024-12-27,1,,,,,エイチケイツーホールディングス,0
947,4170001018426,新規,0,2024-12-27,2024-12-27,株式会社Ｍｅｎｏ　Ｓｐｒｏｕｔｓ,,株式会社,和歌山県,和歌山市,太田６３０番地１９,,30,201,6408323,,,,,,,2024-12-27,1,,,,,メノスプラウト,0
948,4170001018434,新規,0,2024-12-27,2024-12-27,辻本不動産株式会社,00137482,株式会社,和歌山県,和歌山市,松島１３８番地１０,,30,201,6408304,,,,,,,2024-12-27,1,,,,,ツジモトフドウサン,0
955,4180001164681,新規,0,2024-12-27,2024-12-27,株式会社アンカービジネスサポート,,株式会社,愛知県,大府市,共栄町６丁目４３３番地の５,,23,223,4740074,,,,,,,2024-12-27,1,,,,,アンカービジネスサポート,0
960,4180003027787,新規,0,2024-12-27,2024-12-27,合同会社ＭＡＲＵＺＯＵ,,合同会社,愛知県,名古屋市守山区,西川原町２８番地（宝マンション新守山スクエア１０１号）,,23,113,4630089,,,,,,,2024-12-27,1,,,,,マルゾウ,0
961,4180005020880,新規,0,2024-12-27,2024-12-27,一般社団法人＿泉,00137484,その他の設立登記法人,愛知県,名古屋市中村区,名駅１丁目１－１ＪＰタワー２１Ｆ,,23,105,4500002,,,,,,,2024-12-27,1,,,,,エイセン,0
962,4180301039410,新規,0,2024-12-27,2024-12-27,株式会社Ｄｒｏｖｉ,,株式会社,愛知県,西尾市,徳永町東側５８,,23,213,4440315,,,,,,,2024-12-27,1,,,,,ドロービー,0
965,4190001031906,新規,0,2024-12-27,2024-12-27,株式会社ＢｏａＳｏｒｔｅ,,株式会社,三重県,四日市市,大字泊村４１９０番地９０,,24,202,5100894,,,,,,,2024-12-27,1,,,,,ボアソルチ,0
966,4190003004901,新規,0,2024-12-27,2024-12-27,合同会社愛カンパニー,,合同会社,三重県,津市,柳山津興３６９番地６６,,24,201,5140803,,,,,,,2024-12-27,1,,,,,アイカンパニー,0
970,4230001020680,新規,0,2024-12-27,2024-12-27,株式会社ｒｉｌａ,,株式会社,富山県,富山市,布瀬本町２番地２ＬＵＳＳＯ光陽１階Ｄ号室,,16,201,9398207,,,,,,,2024-12-27,1,,,,,リラ,0
971,4250001020951,新規,0,2024-12-27,2024-12-27,レモン株式会社,,株式会社,山口県,宇部市,新天町２丁目１番１５号,,35,202,7550029,,,,,,,2024-12-27,1,,,,,レモン,0
973,4260001039719,新規,0,2024-12-27,2024-12-27,株式会社ＮＡＧＩＳＡ,,株式会社,岡山県,瀬戸内市,邑久町豊安６９番地１,,33,212,7014222,,,,,,,2024-12-27,1,,,,,ナギサ,0
974,4260001039735,新規,0,2024-12-27,2024-12-27,河田商店株式会社,,株式会社,岡山県,玉野市,八浜町見石１５２３番地２０,,33,204,7060222,,,,,,,2024-12-27,1,,,,,カワタショウテン,0
976,4280001009323,新規,0,2024-12-27,2024-12-27,坂根設備工業株式会社,,株式会社,島根県,大田市,五十猛町１６５１番地１,,32,205,6940035,,,,,,,2024-12-27,1,,,,,サカネセツビコウギョウ,0
978,4290001108438,新規,0,2024-12-27,2024-12-27,株式会社ｈｉｔｏｔｏｋｉ,,株式会社,福岡県,福岡市中央区,渡辺通２丁目８番３号１階,,40,133,8100004,,,,,,,2024-12-27,1,,,,,ヒトトキ,0
979,4290001108479,新規,0,2024-12-27,2024-12-27,ミーツ・テック株式会社,,株式会社,福岡県,福岡市西区,豊浜２丁目１２番９号,,40,135,8190014,,,,,,,2024-12-27,1,,,,,ミーツテック,0
984,4290005019598,新規,0,2024-12-27,2024-12-27,ＮＰＯ法人ボーダレスファウンデーション,,その他の設立登記法人,福岡県,福岡市中央区,天神３丁目１番１号天神フタタビル４階ソーシャルベンチャーＰＡＲＫ福岡,,40,133,8100001,,,,,,,2024-12-27,1,,,,,ボーダレスファウンデーション,0
991,4320003004540,新規,0,2024-12-27,2024-12-27,合同会社ＣｈｒｉｓｔｍａｓＸｍａｓ,,合同会社,大分県,別府市,浜脇１丁目１番６号,,44,202,8740947,,,,,,,2024-12-27,1,,,,,,0
996,4340001027021,新規,0,2024-12-27,2024-12-27,株式会社和田レンタカー,,株式会社,鹿児島県,日置市,吹上町永吉１４１８４番地１,,46,216,8993221,,,,,,,2024-12-27,1,,,,,ワダレンタカー,0
997,4340003004695,新規,0,2024-12-27,2024-12-27,美風商会合同会社,,合同会社,鹿児島県,大島郡龍郷町,嘉渡４３４番地５,,46,527,8940331,,,,,,,2024-12-27,1,,,,,ミフウショウカイ,0
998,4340003004704,新規,0,2024-12-27,2024-12-27,合同会社ドリナル,,合同会社,鹿児島県,鹿児島市,東坂元３丁目１２番３号,,46,201,8920861,,,,,,,2024-12-27,1,,,,,ドリナル,0
1000,4360001034585,新規,0,2024-12-27,2024-12-27,株式会社ニコウ事務機,,株式会社,沖縄県,那覇市,松川２丁目７番５号,,47,201,9020062,,,,,,,2024-12-27,1,,,,,ニコウジムキ,0
1001,4360001034593,新規,0,2024-12-27,2024-12-27,農業生産法人やんばる北港ファーム株式会社,,株式会社,沖縄県,国頭郡本部町,字崎本部５２０４番地,,47,308,9050225,,,,,,,2024-12-27,1,,,,,ノウギョウセイサンホウジンヤンバルホッコウファーム,0
1002,4360001034602,新規,0,2024-12-27,2024-12-27,株式会社ハーティ,,株式会社,沖縄県,宜野湾市,真栄原２丁目９番１０号,,47,205,9012215,,,,,,,2024-12-27,1,,,,,ハーティ,0
1005,4360003014544,新規,0,2024-12-27,2024-12-27,まんまＬａ‐Ｓｏｌｔｅ合同会社,,合同会社,沖縄県,那覇市,牧志２丁目１７番２７－４０１号,,47,201,9000013,,,,,,,2024-12-27,1,,,,,マンマラソルテ,0
1007,4370001052066,新規,0,2024-12-27,2024-12-27,株式会社ＲＳＰ,,株式会社,宮城県,仙台市泉区,松森字刺松２２番地の７,,04,105,9813111,,,,,,,2024-12-27,1,,,,,アールエスピー,0
1008,4370001052082,新規,0,2024-12-27,2024-12-27,株式会社ｆｉｖｅ‐ｕ,,株式会社,宮城県,塩竈市,舟入２丁目１番５５号,,04,203,9850014,,,,,,,2024-12-27,1,,,,,ファイブユー,0
1009,4370003006870,新規,0,2024-12-27,2024-12-27,ゼロワン合同会社,,合同会社,宮城県,仙台市泉区,南光台２丁目１０番２８号,,04,105,9818003,,,,,,,2024-12-27,1,,,,,ゼロワン,0
1010,4390001017835,新規,0,2024-12-27,2024-12-27,株式会社アクセル通信,,株式会社,山形県,尾花沢市,大字延沢９４３番地,,06,212,9994441,,,,,,,2024-12-27,1,,,,,アクセルツウシン,0
1020,4430001093368,新規,0,2024-12-27,2024-12-27,株式会社ランドスター,,株式会社,北海道,札幌市中央区,南三条東３丁目８番地ラフィネタワー札幌南３条２１０７号,,01,101,0600053,,,,,,,2024-12-27,1,,,,,ランドスター,0
1021,4430001093376,新規,0,2024-12-27,2024-12-27,株式会社佐藤自工,,株式会社,北海道,札幌市東区,丘珠町７２２番地１,,01,103,0070880,,,,,,,2024-12-27,1,,,,,サトウジコウ,0
1022,4430001093384,新規,0,2024-12-27,2024-12-27,株式会社ｃｏｃｏｎｏｎｅ,,株式会社,北海道,札幌市手稲区,稲穂一条６丁目１２番３号,,01,109,0060031,,,,,,,2024-12-27,1,,,,,ココノネ,0
1024,4430003017127,新規,0,2024-12-27,2024-12-27,合同会社拓沼興産,,合同会社,北海道,美唄市,字沼の内２７３４番地１０,,01,215,0720000,,,,,,,2024-12-27,1,,,,,タクショウコウサン,0
1029,4460103001671,新規,0,2024-12-27,2024-12-27,合同会社Ｐｅｔｉｔ　Ｍｏｕｔｏｎ,,合同会社,北海道,帯広市,東八条南１９丁目７－９　２Ｆ,,01,207,0800808,,,,,,,2024-12-27,1,,,,,プティムートン,0
1033,4470003002769,新規,0,2024-12-27,2024-12-27,だいりき合同会社,,合同会社,香川県,丸亀市,綾歌町富熊５０２４番地６,,37,202,7612407,,,,,,,2024-12-27,1,,,,,,0
1039,4700150128450,新規,0,2024-12-27,2024-12-27,ｓｈｅｎｚｈｅｎｓｈｉｍｉｌｉｋｅｊｉｙｏｕｘｉａｎｇｏｎｇｓｉ,,外国会社等,,,,,,,,ｎａｎｓｈａｎｑｕｎａｎｔｏｕｊｉｅｄａｏｄａｗａｎｇｓｈａｎｓｈｅｑｕｔａｏｙｕａｎｌｕ８ｈａｏ　ｔｉａｎｓｈａｇｕｏｊｉｚｈｏｎｇｘｉｎＢｚｕｏ２００２　ｓｈｅｎｚｈｅｎｓｈｉ　ｃｈｉｎａ　１５４１００,,,,,,2024-12-27,1,,,,,シンセンシミリカギヨウシエンゴンスー,0
1054,5010003045895,新規,0,2024-12-27,2024-12-27,合同会社ＪＳＫ２０２５,,合同会社,東京都,千代田区,麹町２丁目６番地５号,,13,101,1020083,,,,,,,2024-12-27,1,,,,,ジェイエスケーニゼロニゴ,0
1055,5010003045904,新規,0,2024-12-27,2024-12-27,エディションアップ合同会社,,合同会社,東京都,中央区,日本橋室町１丁目１１番１２号日本橋水野ビル７階,,13,102,1030022,,,,,,,2024-12-27,1,,,,,エディションアップ,0
1056,5010003045920,新規,0,2024-12-27,2024-12-27,万屋Ｆｏｕｎｄｅｒｓ合同会社,,合同会社,東京都,中央区,日本橋室町１丁目１１番１２号日本橋水野ビル７階,,13,102,1030022,,,,,,,2024-12-27,1,,,,,ヨロズヤファウンダーズ,0
1061,5010005039334,新規,0,2024-12-27,2024-12-27,一般社団法人会計事務所連携協議会,,その他の設立登記法人,東京都,中央区,銀座３丁目７番３号,,13,102,1040061,,,,,,,2024-12-27,1,,,,,カイケイジムショレンケイキョウギカイ,0
1070,5010401187298,新規,0,2024-12-27,2024-12-27,カンティヤーノ株式会社,,株式会社,東京都,港区,新橋４丁目２６－４愛場新橋タワー７Ｆ,,13,103,1050004,,,,,,,2024-12-27,1,,,,,カンティヤーノ,0
1071,5010401187323,新規,0,2024-12-27,2024-12-27,株式会社ＬＵＣＩＤ,,株式会社,東京都,港区,高輪３丁目１０番３０－３０８号,,13,103,1080074,,,,,,,2024-12-27,1,,,,,ルーシッド,0
1079,5010701046996,新規,0,2024-12-27,2024-12-27,ＨＡＰｉ株式会社,,株式会社,東京都,品川区,上大崎２丁目２１番１０－３０２号,,13,109,1410021,,,,,,,2024-12-27,1,,,,,ハッピィ,0
1088,5010905004718,新規,0,2024-12-27,2024-12-27,一般社団法人シェア実家,,その他の設立登記法人,東京都,世田谷区,弦巻３丁目１９番１４号,,13,112,1540016,,,,,,,2024-12-27,1,,,,,シェアジッカ,0
1100,5011005010805,新規,0,2024-12-27,2024-12-27,一般社団法人育成就労制度監査協会,,その他の設立登記法人,東京都,渋谷区,渋谷２丁目２２番３号渋谷東口ビル２Ｆ,,13,113,1500002,,,,,,,2024-12-27,1,,,,,イクセイシュウロウセイドカンサキョウカイ,0
1103,5011103015367,新規,0,2024-12-27,2024-12-27,合同会社ＢａＢａＢａ,,合同会社,東京都,新宿区,西落合２丁目２０－１－９０１,,13,104,1610031,,,,,,,2024-12-27,1,,,,,バババ,0
1104,5011201026027,新規,0,2024-12-27,2024-12-27,株式会社住良ホーム,,株式会社,東京都,中野区,野方２丁目２２番１１号,,13,114,1650027,,,,,,,2024-12-27,1,,,,,スミラホーム,0
1110,5011501031528,新規,0,2024-12-27,2024-12-27,株式会社Ｃａｒｒｏ,,株式会社,東京都,荒川区,東日暮里５丁目４９番５号,,13,118,1160014,,,,,,,2024-12-27,1,,,,,,0
1115,5011701027937,新規,0,2024-12-27,2024-12-27,株式会社美宏商事,,株式会社,東京都,江戸川区,大杉５丁目８番８号,,13,123,1320022,,,,,,,2024-12-27,1,,,,,ミヒロショウジ,0
1120,5011801045368,新規,0,2024-12-27,2024-12-27,株式会社ウィズ・ユー,,株式会社,東京都,葛飾区,お花茶屋２丁目５番９号,,13,122,1240003,,,,,,,2024-12-27,1,,,,,ウィズユー,0
1123,5012401042623,新規,0,2024-12-27,2024-12-27,株式会社ジャパンネオパートナーズ,,株式会社,東京都,多摩市,貝取２丁目２番地，４－２０３,,13,224,2060012,,,,,,,2024-12-27,1,,,,,ジャパンネオパートナーズ,0
1129,5013301053561,新規,0,2024-12-27,2024-12-27,金宝東亜株式会社,,株式会社,東京都,豊島区,西巣鴨２丁目６－１２－５０３号室,,13,116,1700001,,,,,,,2024-12-27,1,,,,,キンポウトウア,0
1133,5020001160679,新規,0,2024-12-27,2024-12-27,株式会社椿総業,,株式会社,神奈川県,横浜市鶴見区,潮田町４丁目１５６番地１潮田マンションＡ４０１,,14,101,2300041,,,,,,,2024-12-27,1,,,,,ツバキソウギョウ,0
1142,5021003015391,新規,0,2024-12-27,2024-12-27,ＮＳ　ＥＶＯＬＵＴＩＯＮ合同会社,,合同会社,神奈川県,茅ヶ崎市,浜竹２丁目１０番４８号,,14,207,2530021,,,,,,,2024-12-27,1,,,,,エヌエスエボリューション,0
1146,5030001164126,新規,0,2024-12-27,2024-12-27,株式会社Ｃｏｖｅｒｓ　Ｉｎｃ,,株式会社,埼玉県,さいたま市浦和区,北浦和４丁目１番５号ＨＹビル５階,,11,107,3300074,,,,,,,2024-12-27,1,,,,,カバーズインク,0
1147,5030001164150,新規,0,2024-12-27,2024-12-27,株式会社アトリエミミナ,,株式会社,埼玉県,川越市,松江町２丁目１１－１０川越市文化創造インキュベーション施設コエトコアトリエミミナ,,11,201,3500056,,,,,,,2024-12-27,1,,,,,アトリエミミナ,0
1148,5030001164175,新規,0,2024-12-27,2024-12-27,株式会社こここらぼ,,株式会社,埼玉県,草加市,西町４９４番地２,,11,221,3400035,,,,,,,2024-12-27,1,,,,,コココラボ,0
1149,5030001164191,新規,0,2024-12-27,2024-12-27,株式会社ＺＯ内装,,株式会社,埼玉県,新座市,新堀３丁目６番１３号リエス清瀬２０４号室,,11,230,3520032,,,,,,,2024-12-27,1,,,,,ゾナイソウ,0
1150,5030001164209,新規,0,2024-12-27,2024-12-27,株式会社ＫａｎａｅＲｕｓ,,株式会社,埼玉県,川口市,西青木１丁目１３番２１号プルメリア３０３号,,11,203,3320035,,,,,,,2024-12-27,1,,,,,カナエルス,0
1156,5030003025796,新規,0,2024-12-27,2024-12-27,合同会社Ｙ＆Ｋ,,合同会社,埼玉県,川口市,戸塚東４丁目３４番２４号,,11,203,3330802,,,,,,,2024-12-27,1,,,,,ワイアンドケイ,0
1164,5040003026513,新規,0,2024-12-27,2024-12-27,合同会社にじいろコンサルティング,,合同会社,千葉県,柏市,若葉町１番２－１００２号,,12,217,2770024,,,,,,,2024-12-27,1,,,,,ニジイロコンサルティング,0
1169,5060001037790,新規,0,2024-12-27,2024-12-27,株式会社トップトラスト,,株式会社,栃木県,下都賀郡壬生町,大字安塚２０６２－３６,,09,361,3210201,,,,,,,2024-12-27,1,,,,,トップトラスト,0
1170,5070001042492,新規,0,2024-12-27,2024-12-27,株式会社さくら,,株式会社,群馬県,太田市,東本町３５番１号,,10,205,3730026,,,,,,,2024-12-27,1,,,,,サクラ,0
1173,5080001026692,新規,0,2024-12-27,2024-12-27,ミビオ株式会社,,株式会社,静岡県,藤枝市,八幡５５０番１,,22,214,4260009,,,,,,,2024-12-27,1,,,,,ミビオ,0
1175,5080101025207,新規,0,2024-12-27,2024-12-27,菊池創建株式会社,,株式会社,静岡県,富士市,比奈１１４９番地の５,,22,210,4170847,,,,,,,2024-12-27,1,,,,,キクチソウケン,0
1192,5120001271383,新規,0,2024-12-27,2024-12-27,小濤株式会社,,株式会社,大阪府,大阪市中央区,瓦屋町２丁目５－２０－３０１,,27,128,5420066,,,,,,,2024-12-27,1,,,,,ショウトウ,0
1193,5120001271466,新規,0,2024-12-27,2024-12-27,株式会社ＫＤ,,株式会社,大阪府,大阪市西区,北堀江１丁目９番９号１階,,27,106,5500014,,,,,,,2024-12-27,1,,,,,ケーディー,0
1194,5120001271524,新規,0,2024-12-27,2024-12-27,株式会社ＢＯＮＯ,,株式会社,大阪府,大阪市阿倍野区,美章園２丁目１９番２０号,,27,119,5450003,,,,,,,2024-12-27,1,,,,,ビーオーエヌオー,0
1199,5120103006209,新規,0,2024-12-27,2024-12-27,合同会社Ｓｑｕａｒｅ　Ｆｉｅｌｄ,,合同会社,大阪府,河内長野市,小塩町７番地の２＜８０８号＞,,27,216,5860035,,,,,,,2024-12-27,1,,,,,スクエアフィールド,0
1201,5120901050218,新規,0,2024-12-27,2024-12-27,株式会社ソラナ,,株式会社,大阪府,茨木市,竹橋町１０番２５号,,27,211,5670815,,,,,,,2024-12-27,1,,,,,ソラナ,0
1204,5130001078670,新規,0,2024-12-27,2024-12-27,ｓｈｉｎｍｉ　ｃｉｅｌ株式会社,,株式会社,京都府,京都市上京区,中立売通六軒町東入四番町１２３－６,,26,102,6028347,,,,,,,2024-12-27,1,,,,,シンミシエル,0
1205,5130001078679,新規,0,2024-12-27,2024-12-27,株式会社Ｇ‐ＴＲＩＢＥ,,株式会社,京都府,京都市中京区,中島町９８番御所飴ビル４Ａ,,26,104,6048004,,,,,,,2024-12-27,1,,,,,ジートライブ,0
1208,5140003021470,新規,0,2024-12-27,2024-12-27,合同会社Ｈ８Ｄ,,合同会社,兵庫県,加古川市,神野町石守３丁目７６番地の１,,28,210,6750005,,,,,,,2024-12-27,1,,,,,エイチエイトディ,0
1209,5140005027326,新規,0,2024-12-27,2024-12-27,医療法人てらおクリニック,,その他の設立登記法人,兵庫県,西宮市,池開町３番２０号メイマネジメントビル２階,,28,204,6638137,,,,,,,2024-12-27,1,,,,,テラオクリニック,0
1210,5150001027774,新規,0,2024-12-27,2024-12-27,丸野興業株式会社,,株式会社,奈良県,奈良市,横井５丁目３７８番地,,29,201,6308422,,,,,,,2024-12-27,1,,,,,マルノコウギョウ,0
1211,5150001027782,新規,0,2024-12-27,2024-12-27,株式会社ＬＩＮＵＳ,,株式会社,奈良県,奈良市,東城戸町３５－１Ｆ東,,29,201,6308344,,,,,,,2024-12-27,1,,,,,ライナス,0
1213,5170001018425,新規,0,2024-12-27,2024-12-27,株式会社心多元,,株式会社,和歌山県,和歌山市,太田２丁目８番５号３０２,,30,201,6408323,,,,,,,2024-12-27,1,,,,,ココロタゲン,0
1214,5170001018433,新規,0,2024-12-27,2024-12-27,株式会社きのくに経営アシスト,,株式会社,和歌山県,海南市,大野中４８３番地３,,30,202,6420022,,,,,,,2024-12-27,1,,,,,キノクニケイエイアシスト,0
1218,5180001164689,新規,0,2024-12-27,2024-12-27,株式会社りぼん,,株式会社,愛知県,名古屋市港区,船頭場１丁目１５３番地の２,,23,111,4550881,,,,,,,2024-12-27,1,,,,,リボン,0
1223,5190001031905,新規,0,2024-12-27,2024-12-27,Ｐａｒａｄｅ株式会社,,株式会社,三重県,亀山市,北山町２番７号,,24,210,5190117,,,,,,,2024-12-27,1,,,,,パレード,0
1224,5200001043262,新規,0,2024-12-27,2024-12-27,株式会社ＵＮＧ,,株式会社,岐阜県,郡上市,大和町徳永１６４番地２,,21,219,5014607,,,,,,,2024-12-27,1,,,,,ユーエヌジー,0
1225,5200001043279,新規,0,2024-12-27,2024-12-27,株式会社２ＷＩＮ　ＳＴＲＥＥＴ,,株式会社,岐阜県,多治見市,小名田町小滝１番地の１０８,,21,204,5070001,,,,,,,2024-12-27,1,,,,,ツーウィンストリート,0
1226,5200001043287,新規,0,2024-12-27,2024-12-27,株式会社Ｓｐｉｃａ,,株式会社,岐阜県,岐阜市,城東通５丁目３６番地,,21,201,5008441,,,,,,,2024-12-27,1,,,,,スピカ,0
1229,5210001020005,新規,0,2024-12-27,2024-12-27,ＣａｒｓＰＬＵＳ株式会社,,株式会社,福井県,鯖江市,下野田町３７－１ＢＯＳＳビル２階,,18,207,9160073,,,,,,,2024-12-27,1,,,,,カーズプラス,0
1237,5240003007006,新規,0,2024-12-27,2024-12-27,合同会社Ｙ・Ｏ・Ｙ,,合同会社,広島県,尾道市,山波町１９０５番地２１,,34,205,7220052,,,,,,,2024-12-27,1,,,,,ワイオーワイ,0
1239,5250001020950,新規,0,2024-12-27,2024-12-27,株式会社ゼンコウ,,株式会社,山口県,宇部市,大字小野３８９４番地２,,35,202,7541311,,,,,,,2024-12-27,1,,,,,ゼンコウ,0
1241,5260001039742,新規,0,2024-12-27,2024-12-27,株式会社Ｉ．Ｃ．Ｃ,,株式会社,岡山県,岡山市北区,問屋町１１番１０２号,,33,101,7000977,,,,,,,2024-12-27,1,,,,,アイシーシー,0
1242,5260001039759,新規,0,2024-12-27,2024-12-27,株式会社ＵＩ雅政秀,,株式会社,岡山県,岡山市南区,洲崎２丁目６番２５号,,33,104,7028042,,,,,,,2024-12-27,1,,,,,ユーアイビセイシュウ,0
1243,5260001039767,新規,0,2024-12-27,2024-12-27,株式会社Ｍ＆Ａクリエーション,,株式会社,岡山県,倉敷市,本町１１－２２,,33,202,7100054,,,,,,,2024-12-27,1,,,,,エムアンドエークリエーション,0
1246,5280001009322,新規,0,2024-12-27,2024-12-27,瑞穂トーアリゾート株式会社,,株式会社,島根県,邑智郡邑南町,上亀谷２０７５番地,,32,449,6960224,,,,,,,2024-12-27,1,,,,,ミズホトーアリゾート,0
1259,5290001108437,新規,0,2024-12-27,2024-12-27,株式会社ｉｏ,,株式会社,福岡県,福岡市城南区,鳥飼６丁目１番２６－１００４号,,40,136,8140103,,,,,,,2024-12-27,1,,,,,イオ,0
1266,5300003002215,新規,0,2024-12-27,2024-12-27,アジサシ合同会社,,合同会社,佐賀県,武雄市,武雄町富岡７４８４－３,,41,206,8430000,,,,,,,2024-12-27,1,,,,,アジサシ,0
1267,5310001019391,新規,0,2024-12-27,2024-12-27,株式会社Ｆｏｕｒ　Ｈ　ＭＥＤＩＣＡＬ　ＧＲＯＵＰ,,株式会社,長崎県,対馬市,厳原町日吉２９６番地,,42,209,8170012,,,,,,,2024-12-27,1,,,,,フォーエイチメディカルグループ,0
1272,5340001027020,新規,0,2024-12-27,2024-12-27,株式会社Ｍｉｌｋｉｓｈ　Ｆａｒｍ,,株式会社,鹿児島県,南九州市,頴娃町上別府６５５１番地,,46,223,8910705,,,,,,,2024-12-27,1,,,,,ミルキッシュファーム,0
1273,5340001027029,新規,0,2024-12-27,2024-12-27,株式会社煌大,,株式会社,鹿児島県,鹿屋市,下堀町３４４０番地３,,46,203,8930047,,,,,,,2024-12-27,1,,,,,コウダイ,0
1274,5340003004703,新規,0,2024-12-27,2024-12-27,合同会社ぷらむ,,合同会社,鹿児島県,日置市,東市来町養母５４６２番地１,,46,216,8992311,,,,,,,2024-12-27,1,,,,,プラム,0
1277,5360001034601,新規,0,2024-12-27,2024-12-27,株式会社がじゅまる動物クリニック,,株式会社,沖縄県,島尻郡与那原町,字東浜１００番地１,,47,348,9011304,,,,,,,2024-12-27,1,,,,,ガジュマルドウブツクリニック,0
1302,5430001093367,新規,0,2024-12-27,2024-12-27,Ｌｕｍｉｅｒｅ　Ｊａｐａｎ　Ｈｏｌｄｉｎｇｓ株式会社,,株式会社,北海道,札幌市中央区,南六条西１３丁目３番１２号,,01,101,0640806,,,,,,,2024-12-27,1,,,,,ルミエールジャパンホールディングス,0
1305,5430003017126,新規,0,2024-12-27,2024-12-27,合同会社北海道セラー,,合同会社,北海道,札幌市豊平区,西岡四条７丁目１番４０号,,01,105,0620034,,,,,,,2024-12-27,1,,,,,ホッカイドウセラー,0
1309,5460301005267,新規,0,2024-12-27,2024-12-27,株式会社エバーグロウファーム,,株式会社,北海道,斜里郡斜里町,本町４５番地１９,,01,545,0994113,,,,,,,2024-12-27,1,,,,,エバーグロウファーム,0
1315,5470003002776,新規,0,2024-12-27,2024-12-27,さぬきアセットマネジメント合同会社,,合同会社,香川県,丸亀市,綾歌町岡田下３４６番地３,,37,202,7612402,,,,,,,2024-12-27,1,,,,,サヌキアセットマネジメント,0
1316,5470003002784,新規,0,2024-12-27,2024-12-27,合同会社新春珠,,合同会社,香川県,高松市,松島町３丁目１４番２５－４０２号ファミール松島町,,37,201,7600068,,,,,,,2024-12-27,1,,,,,,0
1318,5480001012685,新規,0,2024-12-27,2024-12-27,株式会社川野商事,,株式会社,徳島県,阿波市,吉野町西条字東大竹７３番地８,,36,206,7711402,,,,,,,2024-12-27,1,,,,,カワノショウジ,0
1319,5480001012693,新規,0,2024-12-27,2024-12-27,株式会社ＣＪインターナショナル,,株式会社,徳島県,徳島市,北田宮２丁目８番３号,,36,201,7700003,,,,,,,2024-12-27,1,,,,,シージェイインターナショナル,0
1320,5480005007054,新規,0,2024-12-27,2024-12-27,一般社団法人食農推進協会,,その他の設立登記法人,徳島県,徳島市,沖浜東１丁目３６番地の４,,36,201,7708053,,,,,,,2024-12-27,1,,,,,ショクノウスイシンキョウカイ,0
1322,5490001010928,新規,0,2024-12-27,2024-12-27,センステップ株式会社,,株式会社,高知県,南国市,岡豊町小蓮１３２９番地１,,39,204,7830043,,,,,,,2024-12-27,1,,,,,センステップ,0
1329,5700150128441,新規,0,2024-12-27,2024-12-27,ＭＡＹＡＢＡ　ＩＮＴＥＲＮＡＴＩＯＮＡＬ　ＩＮＣ．,,外国会社等,神奈川県,愛甲郡愛川町,角田１５６５番地２,,14,401,2430301,フィリピン共和国、スービックベイフリーポートゾーン経済特別区、ティポハイテックエコパーク、ＴＨＥＰアベニュー、経済特別区Ｌｏｔ２５、Ｃ１ビルディング、ユニット１－２,,,,,,2024-12-27,1,,,,,マヤバインターナシヨナルインク,0
1337,6010001250703,新規,0,2024-12-27,2024-12-27,株式会社ウィッシュポート,,株式会社,東京都,中央区,日本橋室町１丁目１１番１２号,,13,102,1030022,,,,,,,2024-12-27,1,,,,,ウィッシュポート,0
1340,6010003045928,新規,0,2024-12-27,2024-12-27,合同会社ことりらんど,,合同会社,東京都,文京区,本郷１丁目４番６号ヴァリエ後楽園５０４,,13,105,1130033,,,,,,,2024-12-27,1,,,,,コトリランド,0
1348,6010401187363,新規,0,2024-12-27,2024-12-27,株式会社Ｚｏｅ,,株式会社,東京都,港区,北青山１丁目３番１号アールキューブ青山３階,,13,103,1070061,,,,,,,2024-12-27,1,,,,,ゾーイ,0
1355,6010901056555,新規,0,2024-12-27,2024-12-27,日本テクノワークス株式会社,,株式会社,東京都,世田谷区,深沢３丁目４番４号深沢ビル１Ｆ,,13,112,1580081,,,,,,,2024-12-27,1,,,,,ニホンテクノワークス,0
1363,6011001166443,新規,0,2024-12-27,2024-12-27,株式会社Ｗ,,株式会社,東京都,渋谷区,渋谷１丁目１０番１号八千代ビル８Ｆ,,13,113,1500002,,,,,,,2024-12-27,1,,,,,ダブリュー,0
1365,6011003020722,新規,0,2024-12-27,2024-12-27,合同会社Ｓｔｏｒｉｄｇｅ,,合同会社,東京都,渋谷区,渋谷２丁目１９―１５宮益坂ビルディング６０９,,13,113,1500002,,,,,,,2024-12-27,1,,,,,ストリッジ,0
1368,6011101110103,新規,0,2024-12-27,2024-12-27,経理システム株式会社,,株式会社,東京都,新宿区,北新宿１丁目１番１６号ＪＳビル５０３,,13,104,1690074,,,,,,,2024-12-27,1,,,,,ケイリシステム,0
1376,6011501031527,新規,0,2024-12-27,2024-12-27,株式会社トラバース,,株式会社,東京都,荒川区,南千住３丁目２６番９号,,13,118,1160003,,,,,,,2024-12-27,1,,,,,トラバース,0
1377,6011501031535,新規,0,2024-12-27,2024-12-27,元吉株式会社,,株式会社,東京都,荒川区,東尾久２丁目２番９号三祥ビル２０２,,13,118,1160012,,,,,,,2024-12-27,1,,,,,モトヨシ,0
1381,6011701027936,新規,0,2024-12-27,2024-12-27,株式会社ゴールデントラスト,,株式会社,東京都,江戸川区,西葛西２丁目６－８－７０１号,,13,123,1340088,,,,,,,2024-12-27,1,,,,,ゴールデントラスト,0
1383,6012403006880,新規,0,2024-12-27,2024-12-27,ギャレーズ合同会社,,合同会社,東京都,多摩市,永山１丁目１３番地の１エクレール多摩永山ヒルズ１０１,,13,224,2060025,,,,,,,2024-12-27,1,,,,,ギャレーズ,0
1384,6012405005071,新規,0,2024-12-27,2024-12-27,一般社団法人子どもとひまわりの会,,その他の設立登記法人,東京都,府中市,西府町１丁目４０番地の２１,,13,206,1830031,,,,,,,2024-12-27,1,,,,,コドモトヒマワリノカイ,0
1387,6012803003585,新規,0,2024-12-27,2024-12-27,合同会社ＴＩＭ,,合同会社,東京都,立川市,曙町１丁目２０番１号アーバンスタイル立川１０３号室,00137476,13,202,1900012,,,,,,,2024-12-27,1,,,,,ティム,0
1389,6013303007449,新規,0,2024-12-27,2024-12-27,合同会社ｅｇｏ,,合同会社,東京都,豊島区,西池袋５丁目２６番２１号メゾンマールＩＩ１０２号,00137468,13,116,1710021,,,,,,,2024-12-27,1,,,,,エゴ,0
1390,6013303007457,新規,0,2024-12-27,2024-12-27,合同会社プラス,,合同会社,東京都,豊島区,池袋３丁目９番２１号,,13,116,1710014,,,,,,,2024-12-27,1,,,,,プラス,0
1396,6020001160752,新規,0,2024-12-27,2024-12-27,明＿日本株式会社,00137473,株式会社,神奈川県,横浜市西区,高島１丁目２番５号横濱ゲートタワー３Ｆ,,14,103,2200011,,,,,,,2024-12-27,1,,,,,メイキンジャパン,0
1397,6020003027512,新規,0,2024-12-27,2024-12-27,合同会社ＨＦＮ　Ｉｎｔｅｒｎａｔｉｏｎａｌ,,合同会社,神奈川県,横浜市磯子区,滝頭３丁目６番２１号,,14,107,2350012,,,,,,,2024-12-27,1,,,,,エイチエフエヌインターナショナル,0
1398,6020003027520,新規,0,2024-12-27,2024-12-27,合同会社ひまわり,,合同会社,神奈川県,川崎市中原区,新城３丁目１０番５号,,14,133,2110044,,,,,,,2024-12-27,1,,,,,ヒマワリ,0
1401,6021001084099,新規,0,2024-12-27,2024-12-27,湘南社株式会社,,株式会社,神奈川県,藤沢市,湘南台６丁目２７番地の３,,14,205,2520804,,,,,,,2024-12-27,1,,,,,ショウナンシャ,0
1402,6021001084116,新規,0,2024-12-27,2024-12-27,株式会社ｓｌｏ,,株式会社,神奈川県,厚木市,戸室１丁目２７番２４号リリーコート本厚木１０７,,14,212,2430031,,,,,,,2024-12-27,1,,,,,ソウ,0
1403,6021001084124,新規,0,2024-12-27,2024-12-27,株式会社Ｂｒｉｇｈｔ　Ｌａｂｏｒ,,株式会社,神奈川県,相模原市南区,当麻２３６５―２,,14,153,2520336,,,,,,,2024-12-27,1,,,,,ブライトレイバー,0
1404,6021001084132,新規,0,2024-12-27,2024-12-27,株式会社エシオン,,株式会社,神奈川県,藤沢市,藤沢３丁目４番３２～２０６号,,14,205,2510052,,,,,,,2024-12-27,1,,,,,エシオン,0
1416,6030001164190,新規,0,2024-12-27,2024-12-27,株式会社ＪＵＳＴＩＣＥ,,株式会社,埼玉県,さいたま市緑区,原山４丁目１２番２３号,,11,109,3360931,,,,,,,2024-12-27,1,,,,,ジャスティス,0
1419,6030003025787,新規,0,2024-12-27,2024-12-27,合同会社向山商事,,合同会社,埼玉県,戸田市,本町４丁目４－６ＴＢＣ２１９号,,11,224,3350023,,,,,,,2024-12-27,1,,,,,ムカイヤマショウジ,0
1420,6030005021990,新規,0,2024-12-27,2024-12-27,農事組合法人トップギア,,その他の設立登記法人,埼玉県,東松山市,大字大谷３２０８番地４,,11,212,3550008,,,,,,,2024-12-27,1,,,,,トップギア,0
1427,6040001136734,新規,0,2024-12-27,2024-12-27,株式会社ＣＯＣＯＲＯ,,株式会社,千葉県,習志野市,津田沼３丁目９－８京成ツダヌマビル３Ｆ,,12,216,2750016,,,,,,,2024-12-27,1,,,,,ココロ,0
1432,6040003026479,新規,0,2024-12-27,2024-12-27,合同会社ｋｉｃｏｔｔｏ,,合同会社,千葉県,柏市,新富町２丁目１６番１号,,12,217,2770856,,,,,,,2024-12-27,1,,,,,キコット,0
1433,6040005022609,新規,0,2024-12-27,2024-12-27,ハイムスイート成田ＮＴ管理組合法人,,その他の設立登記法人,千葉県,成田市,加良部５丁目１２－５４,,12,211,2860036,,,,,,,2024-12-27,1,,,,,ハイムスイートナリタニュータウン,0
1437,6060001037773,新規,0,2024-12-27,2024-12-27,株式会社Ａｎｅｌａ,,株式会社,栃木県,宇都宮市,山本１丁目３番３４号ガウディウムサカモトＢ号室,,09,201,3200012,,,,,,,2024-12-27,1,,,,,アネラ,0
1439,6070001042483,新規,0,2024-12-27,2024-12-27,株式会社ＪＯＹＩＮ,,株式会社,群馬県,桐生市,境野町３丁目２１２４番地２,,10,203,3760002,,,,,,,2024-12-27,1,,,,,ジョイン,0
1440,6070001042500,新規,0,2024-12-27,2024-12-27,株式会社高申コーポレーション,,株式会社,群馬県,高崎市,吉井町岩崎２８７番地３,,10,202,3702131,,,,,,,2024-12-27,1,,,,,コウシンコーポレーション,0
1443,6080001026691,新規,0,2024-12-27,2024-12-27,最高のＩＴ補助金株式会社,,株式会社,静岡県,静岡市葵区,日出町２番地の１田中産商第一生命共同ビルディング５階,,22,101,4200837,,,,,,,2024-12-27,1,,,,,サイコウノアイティホジョキン,0
1445,6080101025214,新規,0,2024-12-27,2024-12-27,株式会社最善生活,,株式会社,静岡県,熱海市,昭和町１６－２,,22,205,4130022,,,,,,,2024-12-27,1,,,,,サイゼンセイカツ,0
1452,6110001038956,新規,0,2024-12-27,2024-12-27,株式会社じがく,,株式会社,新潟県,見附市,双葉町１３‐１２,,15,211,9540046,,,,,,,2024-12-27,1,,,,,ジガク,0
1453,6110003005616,新規,0,2024-12-27,2024-12-27,合同会社つばめくと,,合同会社,新潟県,燕市,大曲４４９番地２,,15,213,9591263,,,,,,,2024-12-27,1,,,,,ツバメクト,0
1460,6120001271465,新規,0,2024-12-27,2024-12-27,株式会社Ｗｅｌｌ　Ｓｋｙ,,株式会社,大阪府,大阪市西区,九条１丁目２７番１４－４０８号,,27,106,5500027,,,,,,,2024-12-27,1,,,,,ウェルスカイ,0
1461,6120001271498,新規,0,2024-12-27,2024-12-27,株式会社アットルーモ,,株式会社,大阪府,大阪市中央区,南船場３丁目２番２８号,,27,128,5420081,,,,,,,2024-12-27,1,,,,,アットルーモ,0
1462,6120001271507,新規,0,2024-12-27,2024-12-27,株式会社Ｇｌａｎｚ,,株式会社,大阪府,枚方市,宮之阪２丁目６番１０号,,27,210,5730022,,,,,,,2024-12-27,1,,,,,グランツ,0
1463,6120001271572,新規,0,2024-12-27,2024-12-27,ＲＡＮＡＲ株式会社,,株式会社,大阪府,大阪市東住吉区,杭全４丁目１２番６－１０１号,,27,121,5460002,,,,,,,2024-12-27,1,,,,,ラナー,0
1468,6120003028302,新規,0,2024-12-27,2024-12-27,合同会社Ｃｏｎｖｅｌｉａ,,合同会社,大阪府,大阪市中央区,今橋２丁目３番１６号ＪＭＦビル今橋０１（４階）,,27,128,5410042,,,,,,,2024-12-27,1,,,,,コンヴェリア,0
1469,6120005024679,新規,0,2024-12-27,2024-12-27,一般社団法人料理検定研究会,,その他の設立登記法人,大阪府,大阪市北区,西天満４丁目３番８号,,27,127,5300047,,,,,,,2024-12-27,1,,,,,リョウリケンテイケンキュウカイ,0
1470,6120005024687,新規,0,2024-12-27,2024-12-27,司法書士法人栗山事務所,,その他の設立登記法人,大阪府,大阪市中央区,南久宝寺町４丁目６番６号リーガル北心斎橋ＩＩ２０５,00137487,27,128,5410058,,,,,,,2024-12-27,1,,,,,クリヤマジムショ,0
1477,6130003010093,新規,0,2024-12-27,2024-12-27,ＡＤＥＥＬＡ　ＴＲＡＤＥＲＳ合同会社,,合同会社,京都府,八幡市,橋本狩尾１番地の４２７,,26,210,6148322,,,,,,,2024-12-27,1,,,,,アディーラトレーダース,0
1478,6130005017260,新規,0,2024-12-27,2024-12-27,特定非営利活動法人Ｌｉｎｅｎ,,その他の設立登記法人,京都府,京都市中京区,蛸薬師通高倉東入雁金町３８１ハイランドコート蛸薬師１Ｆ,,26,104,6048115,,,,,,,2024-12-27,1,,,,,リネン,0
1484,6140001136856,新規,0,2024-12-27,2024-12-27,株式会社ピッコラ,,株式会社,兵庫県,神戸市中央区,元町通６丁目１－８東栄ビル,,28,110,6500022,,,,,,,2024-12-27,1,,,,,ピッコラ,0
1485,6140001136880,新規,0,2024-12-27,2024-12-27,ＪＡＧ株式会社,,株式会社,兵庫県,神戸市中央区,筒井町３丁目１番２号４０１,,28,110,6510071,,,,,,,2024-12-27,1,,,,,ジェイエイジイ,0
1486,6140005027325,新規,0,2024-12-27,2024-12-27,医療法人社団クローバーデンタルクリニック,,その他の設立登記法人,兵庫県,神戸市西区,糀台５丁目５番地２ナチュラリー西神中央２号館２０２号室,,28,111,6512273,,,,,,,2024-12-27,1,,,,,クローバーデンタルクリニック,0
1489,6150001027773,新規,0,2024-12-27,2024-12-27,株式会社ＳＥＴＯＵＴＩ学舎,,株式会社,奈良県,奈良市,西大寺栄町３番２３号,,29,201,6310822,,,,,,,2024-12-27,1,,,,,セトウチガクシャ,0
1490,6160001026444,新規,0,2024-12-27,2024-12-27,株式会社ＦＩＮＥ,,株式会社,滋賀県,大津市,大萱７丁目２２番６号エルシャトー１０２号,,25,201,5202144,,,,,,,2024-12-27,1,,,,,ファイン,0
1491,6170001018424,新規,0,2024-12-27,2024-12-27,株式会社ＥＣＯクリーンクリエイト,,株式会社,和歌山県,和歌山市,岡山丁１７番地,,30,201,6408145,,,,,,,2024-12-27,1,,,,,エコクリーンクリエイト,0
1492,6170003002145,新規,0,2024-12-27,2024-12-27,合同会社ＳＲＭ,,合同会社,和歌山県,和歌山市,友田町３丁目１６番地（１２０３号）,,30,201,6408342,,,,,,,2024-12-27,1,,,,,エスアールエム,0
1499,6180001164663,新規,0,2024-12-27,2024-12-27,株式会社ＤＩＭ　ＨＯＵＳＥ,,株式会社,愛知県,春日井市,堀ノ内町１丁目１４番地６,,23,206,4860829,,,,,,,2024-12-27,1,,,,,ディムハウス,0
1500,6180001164688,新規,0,2024-12-27,2024-12-27,株式会社Ｇ’ｓ,,株式会社,愛知県,名古屋市中区,千代田４丁目８番２７号ＷＩＬＬ４０３号,,23,106,4600012,,,,,,,2024-12-27,1,,,,,ジーズ,0
1501,6180001164705,新規,0,2024-12-27,2024-12-27,ＨＡＫ株式会社,,株式会社,愛知県,江南市,村久野町九郷７６番地,,23,217,4838311,,,,,,,2024-12-27,1,,,,,エイチエーケイ,0
1502,6180001164754,新規,0,2024-12-27,2024-12-27,藤岡商店株式会社,,株式会社,愛知県,一宮市,大和町馬引字郷丑寅２１２８番地２,,23,203,4910931,,,,,,,2024-12-27,1,,,,,フジオカショウテン,0
1505,6180003027769,新規,0,2024-12-27,2024-12-27,合同会社ＭＩＲＡＩ,,合同会社,愛知県,あま市,坂牧西之宮４８番地１,,23,237,4901115,,,,,,,2024-12-27,1,,,,,ミライ,0
1506,6180003027785,新規,0,2024-12-27,2024-12-27,合同会社悠久キャピタル,,合同会社,愛知県,春日井市,松新町４丁目６番地７,,23,206,4860931,,,,,,,2024-12-27,1,,,,,ユウキュウキャピタル,0
1510,6190001031895,新規,0,2024-12-27,2024-12-27,株式会社ケアウェルパイン,,株式会社,三重県,志摩市,志摩町布施田１６８４番地１,,24,215,5170702,,,,,,,2024-12-27,1,,,,,ケアウェルパイン,0
1511,6190001031904,新規,0,2024-12-27,2024-12-27,ジャスト物流ＨＤ株式会社,,株式会社,三重県,鈴鹿市,広瀬町１４３２番地,,24,207,5130001,,,,,,,2024-12-27,1,,,,,ジャストブツリュウホールディングス,0
1512,6190001031912,新規,0,2024-12-27,2024-12-27,株式会社Ｗｉｌｌａｔｅ,,株式会社,三重県,伊勢市,楠部町乙１３３,,24,203,5160014,,,,,,,2024-12-27,1,,,,,ウィルエイト,0
1516,6200001043278,新規,0,2024-12-27,2024-12-27,株式会社アイビー土木,,株式会社,岐阜県,美濃加茂市,山手町１丁目１番地,,21,211,5050036,,,,,,,2024-12-27,1,,,,,アイビードボク,0
1517,6200001043286,新規,0,2024-12-27,2024-12-27,株式会社ＮＹＴ,,株式会社,岐阜県,山県市,西深瀬２４２４番地８,,21,215,5012112,,,,,,,2024-12-27,1,,,,,エヌワイティー,0
1523,6230001020679,新規,0,2024-12-27,2024-12-27,株式会社伸誠商会,,株式会社,富山県,射水市,赤井１１５番地３,,16,211,9390287,,,,,,,2024-12-27,1,,,,,シンセイショウカイ,0
1527,6240001064329,新規,0,2024-12-27,2024-12-27,株式会社恵逢,,株式会社,広島県,呉市,阿賀中央６丁目１２番２号,,34,202,7370003,,,,,,,2024-12-27,1,,,,,ケイオウ,0
1532,6260001039741,新規,0,2024-12-27,2024-12-27,株式会社マツモト企画,,株式会社,岡山県,岡山市中区,湊１３７１番地２,,33,102,7038266,,,,,,,2024-12-27,1,,,,,マツモトキカク,0
1533,6260001039758,新規,0,2024-12-27,2024-12-27,株式会社裕和,,株式会社,岡山県,岡山市北区,白石西新町３番地１０４（３０３号室）,,33,101,7010142,,,,,,,2024-12-27,1,,,,,ユウワ,0
1534,6260001039766,新規,0,2024-12-27,2024-12-27,株式会社善環,,株式会社,岡山県,瀬戸内市,邑久町山田庄４１９番地１,,33,212,7014246,,,,,,,2024-12-27,1,,,,,ゼンカン,0
1537,6260003005015,新規,0,2024-12-27,2024-12-27,合同会社又長,,合同会社,岡山県,岡山市中区,国富９８８番地１１,,33,102,7038236,,,,,,,2024-12-27,1,,,,,マタチョウ,0
1544,6290001108436,新規,0,2024-12-27,2024-12-27,株式会社ＨＧＫ,,株式会社,福岡県,福岡市博多区,諸岡５丁目３０番３－２０６号,,40,132,8120894,,,,,,,2024-12-27,1,,,,,エイチジーケイ,0
1545,6290001108444,新規,0,2024-12-27,2024-12-27,株式会社ＴａｏＬａｂ,,株式会社,福岡県,久留米市,南１丁目２５－３３,,40,203,8300051,,,,,,,2024-12-27,1,,,,,タオラボ,0
1547,6290003016232,新規,0,2024-12-27,2024-12-27,合同会社２ｎｄ,,合同会社,福岡県,福岡市早良区,弥生２丁目１番１号北側店舗,,40,137,8140014,,,,,,,2024-12-27,1,,,,,セカンド,0
1550,6290803004931,新規,0,2024-12-27,2024-12-27,合同会社オースタイル,,合同会社,福岡県,北九州市八幡西区,下上津役２丁目１番２６号,,40,109,8070075,,,,,,,2024-12-27,1,,,,,オースタイル,0
1551,6290805009796,新規,0,2024-12-27,2024-12-27,医療法人中村内科クリニック,,その他の設立登記法人,福岡県,北九州市小倉南区,横代北町４丁目２０番６号,,40,107,8020821,,,,,,,2024-12-27,1,,,,,ナカムラナイカクリニック,0
1552,6310001019390,新規,0,2024-12-27,2024-12-27,川棚観光開発株式会社,,株式会社,長崎県,東彼杵郡川棚町,小串郷２７２番地,,42,322,8593618,,,,,,,2024-12-27,1,,,,,カワタナカンコウカイハツ,0
1556,6340001027028,新規,0,2024-12-27,2024-12-27,株式会社ヨガコーチング,,株式会社,鹿児島県,熊毛郡屋久島町,宮之浦７６番地,,46,505,8914205,,,,,,,2024-12-27,1,,,,,ヨガコーチング,0
1559,6360001034609,新規,0,2024-12-27,2024-12-27,株式会社恵比寿,,株式会社,沖縄県,沖縄市,泡瀬１丁目１４番８号,,47,211,9042172,,,,,,,2024-12-27,1,,,,,エビス,0
1561,6370001052064,新規,0,2024-12-27,2024-12-27,宮城県住宅設備センター株式会社,,株式会社,宮城県,仙台市青葉区,芋沢字権現森山６０番地の２３,,04,101,9893212,,,,,,,2024-12-27,1,,,,,ミヤギケンジュウタクセツビセンター,0
1562,6370001052080,新規,0,2024-12-27,2024-12-27,タートルパートナーズ株式会社,,株式会社,宮城県,仙台市宮城野区,幸町２丁目１４番６号,,04,102,9830836,,,,,,,2024-12-27,1,,,,,タートルパートナーズ,0
1570,6380005012906,新規,0,2024-12-27,2024-12-27,税理士法人グリーンガーネット,,その他の設立登記法人,福島県,福島市,三河南町４番１号Ｄ’クラディアプリズムシティ３０５,,07,201,9608053,,,,,,,2024-12-27,1,,,,,グリーンガーネット,0
1571,6390001017833,新規,0,2024-12-27,2024-12-27,株式会社Ｂａｇｕｅｔｔｅ　Ｌｉｓｔ,,株式会社,山形県,米沢市,通町６丁目１１番１号,,06,202,9920025,,,,,,,2024-12-27,1,,,,,バゲットリスト,0
1575,6420003003043,新規,0,2024-12-27,2024-12-27,合同会社蒔苗技検,,合同会社,青森県,五所川原市,金木町中柏木鎧石２６８番地６,,02,205,0370205,,,,,,,2024-12-27,1,,,,,マカナエギケン,0
1577,6430001093366,新規,0,2024-12-27,2024-12-27,株式会社札幌リアルエステート,,株式会社,北海道,札幌市中央区,南三条西１２丁目３２６番地１０,,01,101,0600063,,,,,,,2024-12-27,1,,,,,サッポロリアルエステート,0
1579,6430003017117,新規,0,2024-12-27,2024-12-27,合同会社ＬＴＢ,,合同会社,北海道,札幌市清田区,北野五条３丁目４－１０コーポー岡Ｂ－１,,01,110,0040865,,,,,,,2024-12-27,1,,,,,エルティービー,0
1580,6430003017125,新規,0,2024-12-27,2024-12-27,合同会社Ｗａｖｅ,,合同会社,北海道,札幌市北区,新川西三条５丁目６－１４,,01,102,0010933,,,,,,,2024-12-27,1,,,,,ウェーブ,0
1582,6430005015127,新規,0,2024-12-27,2024-12-27,北海道ユニバー協同組合,,その他の設立登記法人,北海道,岩見沢市,四条西７丁目３番地３,,01,210,0680024,,,,,,,2024-12-27,1,,,,,ホッカイドウユニバー,0
1583,6460001005962,新規,0,2024-12-27,2024-12-27,株式会社センテクト,,株式会社,北海道,釧路市,春採３丁目９番１２号,,01,206,0850813,,,,,,,2024-12-27,1,,,,,センテクト,0
1589,6480001012692,新規,0,2024-12-27,2024-12-27,株式会社ＶＣｉＪ,,株式会社,徳島県,徳島市,伊賀町１丁目２番地の２サーパス伊賀町７０２,,36,201,7700926,,,,,,,2024-12-27,1,,,,,ブイシーアイジェイ,0
1591,6480005007053,新規,0,2024-12-27,2024-12-27,一般財団法人徳島音楽芸術振興財団,,その他の設立登記法人,徳島県,徳島市,中通町３丁目５番１号,,36,201,7700844,,,,,,,2024-12-27,1,,,,,トクシマオンガクゲイジュツシンコウザイダン,0
1592,6490001010927,新規,0,2024-12-27,2024-12-27,株式会社カミノバグループホールディングス,,株式会社,高知県,高知市,北本町１丁目１０番３１号高知八州ビル４Ｆ,,39,201,7800056,,,,,,,2024-12-27,1,,,,,カミノバグループホールディングス,0
1598,6700150128449,新規,0,2024-12-27,2024-12-27,ｓｈｅｎｚｈｅｎｓｈｉｘｕａｎｈｕｏｓｈｅｊｉｙｏｕｘｉａｎｇｏｎｇｓｉ,,外国会社等,,,,,,,,３０１，Ｄｏｒｍｉｔｏｒｙ　Ｂｕｉｌｄｉｎｇ，Ｎｏ．３，Ｌｏｎｇｓｈａｎ　５ｔｈ　Ｒｏａｄ，Ｘｉｎｓｈｅｎｇ　Ｃｏｍｍｕｎｉｔｙ，Ｌｏｎｇｇａｎｇ　Ｓｔｒｅｅｔ，Ｌｏｎｇｇａｎｇ　Ｄｉｓｔｒｉｃｔ，Ｓｈｅｎｚｈｅｎ，Ｇｕａｎｇｄｏｎｇ，Ｃｈｉｎａ,,,,,,2024-12-27,1,,,,,シンセンシスエンホウシェジヨウシエンゴンスー,0
1619,7010001250925,新規,0,2024-12-27,2024-12-27,日本京都室町院株式会社,,株式会社,東京都,中央区,銀座６丁目１３番１６号銀座ＷａｌｌビルＵＣＦ５０１,,13,102,1040061,,,,,,,2024-12-27,1,,,,,ニホンキョウトムロマチイン,0
1620,7010001251031,新規,0,2024-12-27,2024-12-27,株式会社ＭＡＳＡ　ＧＩＮＺＡ,,株式会社,東京都,中央区,銀座５丁目５－１２ＨＵＬＩＣ＆ＮｅｗＧＩＮＺＡＭＩＹＵＫＩ５８ＦＭＡＳＡＧＩＮＺＡＨＡＩＲ,,13,102,1040061,,,,,,,2024-12-27,1,,,,,マサギンザ,0
1621,7010001251106,新規,0,2024-12-27,2024-12-27,株式会社テルナホールディングス,,株式会社,東京都,中央区,築地１丁目９番１１号,,13,102,1040045,,,,,,,2024-12-27,1,,,,,テルナホールディングス,0
1622,7010001251122,新規,0,2024-12-27,2024-12-27,アリストキャッツインターナショナル株式会社,,株式会社,東京都,千代田区,丸の内２丁目３番２号郵船ビルディング１Ｆ,,13,101,1000005,,,,,,,2024-12-27,1,,,,,アリストキャッツインターナショナル,0
1625,7010003045910,新規,0,2024-12-27,2024-12-27,エスティ１４合同会社,,合同会社,東京都,千代田区,丸の内１丁目４番１号東京共同会計事務所内,,13,101,1000005,,,,,,,2024-12-27,1,,,,,エスティジュウヨン,0
1626,7010005039332,新規,0,2024-12-27,2024-12-27,一般社団法人ＬＡＣ,,その他の設立登記法人,東京都,千代田区,神田神保町１丁目１１番地さくら綜合事務所内,,13,101,1010051,,,,,,,2024-12-27,1,,,,,ラック,0
1632,7010401187065,新規,0,2024-12-27,2024-12-27,株式会社日本アジアビアンドツ,,株式会社,東京都,港区,虎ノ門３丁目１４番１－１００１号,,13,103,1050001,,,,,,,2024-12-27,1,,,,,ニホンアジアビアンドツ,0
1633,7010403034083,新規,0,2024-12-27,2024-12-27,合同会社ＳＡＫＥ,,合同会社,東京都,港区,南青山１丁目１４番７号ベルメーゾン１Ｆ,,13,103,1070062,,,,,,,2024-12-27,1,,,,,エスエイケイイー,0
1634,7010403034091,新規,0,2024-12-27,2024-12-27,合同会社エトワレ,,合同会社,東京都,港区,高輪４丁目２３番６号ハイホーム高輪７０８,,13,103,1080074,,,,,,,2024-12-27,1,,,,,エトワレ,0
1641,7010701047043,新規,0,2024-12-27,2024-12-27,ＰｒｉｎｔＫＫ株式会社,,株式会社,東京都,品川区,南品川５丁目１０番３９号５階,,13,109,1400004,,,,,,,2024-12-27,1,,,,,プリントケーケー,0
1645,7010903009601,新規,0,2024-12-27,2024-12-27,ＥｘａＬｉｎｋ　Ｓｏｌｕｔｉｏｎｓ合同会社,,合同会社,東京都,世田谷区,赤堤４丁目２７番１０号,,13,112,1560044,,,,,,,2024-12-27,1,,,,,エクサリンクソリューションズ,0
1650,7011001166871,新規,0,2024-12-27,2024-12-27,株式会社日本ブロードキャストネットワーク,,株式会社,東京都,渋谷区,神南２丁目２番１号,,13,113,1500041,,,,,,,2024-12-27,1,,,,,ニッポンブロードキャストネットワーク,0
1651,7011003020696,新規,0,2024-12-27,2024-12-27,合同会社ビブル,,合同会社,東京都,渋谷区,渋谷１丁目３番１８号,,13,113,1500002,,,,,,,2024-12-27,1,,,,,ビブル,0
1656,7011101110093,新規,0,2024-12-27,2024-12-27,株式会社ｏｒｓｈｉｐ,,株式会社,東京都,新宿区,百人町３丁目２６番１－１２２号,,13,104,1690073,,,,,,,2024-12-27,1,,,,,オルシップ,0
1660,7011201026025,新規,0,2024-12-27,2024-12-27,株式会社識,,株式会社,東京都,中野区,南台３丁目３０番１０号,,13,114,1640014,,,,,,,2024-12-27,1,,,,,シキ,0
1670,7011601028331,新規,0,2024-12-27,2024-12-27,株式会社ＢＬＥＳＳ,,株式会社,東京都,練馬区,南大泉６丁目２１番１１号,,13,120,1780064,,,,,,,2024-12-27,1,,,,,ブレス,0
1673,7011801045374,新規,0,2024-12-27,2024-12-27,ＤＩＡＭＯＮＤ　ＰＲＯＧＲＥＳＳＩＶＥ　ＣＬＵＢ株式会社,,株式会社,東京都,足立区,中央本町５丁目３番１９号,,13,121,1210011,,,,,,,2024-12-27,1,,,,,ダイヤモンドプログレッシブクラブ,0
1678,7012401042621,新規,0,2024-12-27,2024-12-27,株式会社ｎａｎａｉｒｏ,,株式会社,東京都,稲城市,坂浜３丁目１８－６,,13,225,2060822,,,,,,,2024-12-27,1,,,,,ナナイロ,0
1681,7012803003584,新規,0,2024-12-27,2024-12-27,合同会社ＳＵＳＨＩＬＡ,,合同会社,東京都,日野市,日野本町３丁目１３番地の１,,13,212,1910011,,,,,,,2024-12-27,1,,,,,スシラ,0
1684,7013303007456,新規,0,2024-12-27,2024-12-27,合同会社セブン,,合同会社,東京都,豊島区,池袋３丁目９番２１号,,13,116,1710014,,,,,,,2024-12-27,1,,,,,セブン,0
1689,7020001160719,新規,0,2024-12-27,2024-12-27,株式会社龍神,,株式会社,神奈川県,横浜市緑区,中山１丁目６番１号ミヨシズシードビル２０３,,14,113,2260019,,,,,,,2024-12-27,1,,,,,リュウジン,0
1690,7020001160727,新規,0,2024-12-27,2024-12-27,株式会社ＺＡＩ,,株式会社,神奈川県,横浜市保土ケ谷区,岩井町１番地７アーバン・Ｉ保土ヶ谷駅ビル５Ｆ７号室,,14,106,2400023,,,,,,,2024-12-27,1,,,,,ザイ,0
1691,7020001160768,新規,0,2024-12-27,2024-12-27,株式会社ＯＣＣリゾート,,株式会社,神奈川県,川崎市幸区,鹿島田１丁目１番５－２９１１号,,14,132,2120058,,,,,,,2024-12-27,1,,,,,オーシーシーリゾート,0
1697,7021001084049,新規,0,2024-12-27,2024-12-27,Ｍｕｌｂｅｒｒｙ株式会社,,株式会社,神奈川県,相模原市南区,鵜野森１丁目３３番５号,,14,153,2520301,,,,,,,2024-12-27,1,,,,,マルベリー,0
1698,7021001084115,新規,0,2024-12-27,2024-12-27,株式会社琉球ユタはんだん,,株式会社,神奈川県,厚木市,鳶尾２丁目７番１０－２号,,14,212,2430204,,,,,,,2024-12-27,1,,,,,リュウキュウユタハンダン,0
1699,7021003015373,新規,0,2024-12-27,2024-12-27,合同会社Ｄｏｔｉｎｇ　ａｔｅｌｉｅｒ,,合同会社,神奈川県,大和市,南林間４丁目６―５ルミエール南林間３０４,,14,213,2420006,,,,,,,2024-12-27,1,,,,,ドティングアトリエ,0
1700,7021003015398,新規,0,2024-12-27,2024-12-27,ＲＥドリーム合同会社,,合同会社,神奈川県,相模原市中央区,淵野辺２丁目５番６２－１２９号,,14,152,2520206,,,,,,,2024-12-27,1,,,,,アールイードリーム,0
1704,7030001164223,新規,0,2024-12-27,2024-12-27,株式会社ＳＭＡＦＡＳＴ,,株式会社,埼玉県,川越市,脇田町８－１大橋ビル３０３号,,11,201,3501122,,,,,,,2024-12-27,1,,,,,スマファスト,0
1709,7030003025794,新規,0,2024-12-27,2024-12-27,合同会社Ｓｏｌｅｕｓ,,合同会社,埼玉県,春日部市,栄町１丁目３３４番地,,11,214,3440058,,,,,,,2024-12-27,1,,,,,ソウリアス,0
1710,7030005021998,新規,0,2024-12-27,2024-12-27,一般社団法人ビッグエアワールドカップジャパン準備委員会,,その他の設立登記法人,埼玉県,比企郡嵐山町,大字古里１１８０番地１,,11,342,3550201,,,,,,,2024-12-27,1,,,,,ビッグエアワールドカップジャパンジュンビイインカイ,0
1713,7040001136733,新規,0,2024-12-27,2024-12-27,株式会社エルエス,,株式会社,千葉県,松戸市,二ツ木１９０３番地鶴ハイム二三ヶ丘７０７号室,,12,207,2700027,,,,,,,2024-12-27,1,,,,,エルエス,0
1717,7050001055916,新規,0,2024-12-27,2024-12-27,株式会社ＳＨＩＮＹ,,株式会社,茨城県,守谷市,けやき台６丁目２０番地１６,,08,224,3020128,,,,,,,2024-12-27,1,,,,,シャイニー,0
1720,7060001037772,新規,0,2024-12-27,2024-12-27,Ａｒｃｋｃ　Ｔｒａｄｅｓ株式会社,,株式会社,栃木県,足利市,小俣町８９５,,09,202,3260141,,,,,,,2024-12-27,1,,,,,アークトレーズ,0
1721,7070003005719,新規,0,2024-12-27,2024-12-27,合同会社ＴＡＩＫＨＡＲ,,合同会社,群馬県,太田市,吉沢町１６４８番地１,,10,205,3730019,,,,,,,2024-12-27,1,,,,,タイハル,0
1722,7070003005727,新規,0,2024-12-27,2024-12-27,ＴＲ合同会社,,合同会社,群馬県,館林市,美園町９番地１館林グリーンハイツ１－３０５,,10,207,3740039,,,,,,,2024-12-27,1,,,,,ティーアール,0
1724,7080001026682,新規,0,2024-12-27,2024-12-27,株式会社せとや邑,,株式会社,静岡県,藤枝市,本郷５１７２番地,,22,214,4260132,,,,,,,2024-12-27,1,,,,,セトヤムラ,0
1740,7120001270929,新規,0,2024-12-27,2024-12-27,ＫＭジャパン株式会社,,株式会社,大阪府,大阪市西淀川区,福町１丁目１２番３４－１１２号,,27,113,5550034,,,,,,,2024-12-27,1,,,,,ケーエムジャパン,0
1741,7120001271480,新規,0,2024-12-27,2024-12-27,株式会社三人者,,株式会社,大阪府,大阪市此花区,西九条４丁目５番２０号,,27,104,5540012,,,,,,,2024-12-27,1,,,,,サンニンシャ,0
1746,7120003028177,新規,0,2024-12-27,2024-12-27,合同会社リリー,,合同会社,大阪府,大阪市阿倍野区,阿倍野元町１４番３－１２０３号,,27,119,5450034,,,,,,,2024-12-27,1,,,,,リリー,0
1747,7120003028235,新規,0,2024-12-27,2024-12-27,Ｓａｋｕｒａ　Ｂｅａｕｔｙ合同会社,,合同会社,大阪府,枚方市,東香里元町１４番２５号１０７号室,,27,210,5730076,,,,,,,2024-12-27,1,,,,,サクラビューティ,0
1748,7120003028276,新規,0,2024-12-27,2024-12-27,合同会社イマジカル,,合同会社,大阪府,門真市,御堂町２４番１号,,27,223,5710064,,,,,,,2024-12-27,1,,,,,イマジカル,0
1749,7120005024686,新規,0,2024-12-27,2024-12-27,一般社団法人ＲＩＳＥ・ＵＰ,,その他の設立登記法人,大阪府,大阪市北区,長柄中３丁目１番７号,,27,127,5310062,,,,,,,2024-12-27,1,,,,,ライズアップ,0
1751,7120101070816,新規,0,2024-12-27,2024-12-27,株式会社リブストン,,株式会社,大阪府,堺市東区,白鷺町２丁９番１５号,,27,143,5998107,,,,,,,2024-12-27,1,,,,,リブストン,0
1754,7120901050224,新規,0,2024-12-27,2024-12-27,株式会社ｅｌｅＭｅｎｔ,,株式会社,大阪府,吹田市,垂水町３丁目１５番２３号セレニテ江坂四番館１０２,,27,205,5640062,,,,,,,2024-12-27,1,,,,,エレメント,0
1759,7130001078660,新規,0,2024-12-27,2024-12-27,株式会社浅津建設,,株式会社,京都府,木津川市,相楽一新堂３番地１５,,26,214,6190222,,,,,,,2024-12-27,1,,,,,アサヅケンセツ,0
1760,7130001078677,新規,0,2024-12-27,2024-12-27,株式会社オオニシグミ,,株式会社,京都府,宇治市,神明宮東１０４番地の２,,26,204,6110025,,,,,,,2024-12-27,1,,,,,オオニシグミ,0
1763,7140001136871,新規,0,2024-12-27,2024-12-27,株式会社ソレイユエナジー,,株式会社,兵庫県,神戸市中央区,栄町通７丁目１番１－１７１０号,,28,110,6500023,,,,,,,2024-12-27,1,,,,,ソレイユエナジー,0
1764,7140001136888,新規,0,2024-12-27,2024-12-27,株式会社Ｍ２リレーション,,株式会社,兵庫県,神戸市灘区,原田通１丁目３番１７号,,28,102,6570837,,,,,,,2024-12-27,1,,,,,エムツーリレーション,0
1765,7140003021428,新規,0,2024-12-27,2024-12-27,合同会社ａｄｊｕｓｔ,,合同会社,兵庫県,伊丹市,中央１丁目４－７,,28,207,6640851,,,,,,,2024-12-27,1,,,,,アジャスト,0
1766,7140003021460,新規,0,2024-12-27,2024-12-27,ｃａｔｏｏｃｒａｆｔ合同会社,,合同会社,兵庫県,神戸市中央区,磯辺通１丁目１番１８号カサベラ国際プラザビル７０７号室,,28,110,6510084,,,,,,,2024-12-27,1,,,,,キャトゥクラフト,0
1768,7150001027772,新規,0,2024-12-27,2024-12-27,株式会社ＫＩＭＵＲＡ,,株式会社,奈良県,天理市,柳本町８６０番地１,,29,204,6320052,,,,,,,2024-12-27,1,,,,,キムラ,0
1769,7150001027780,新規,0,2024-12-27,2024-12-27,株式会社カラーガーデン,,株式会社,奈良県,奈良市,敷島町１丁目５５７番地の１１,,29,201,6310031,,,,,,,2024-12-27,1,,,,,カラーガーデン,0
1771,7150003003466,新規,0,2024-12-27,2024-12-27,合同会社ラウレアサロンヒロ,,合同会社,奈良県,香芝市,上中１８１番地７,,29,210,6390265,,,,,,,2024-12-27,1,,,,,ラウレアサロンヒロ,0
1774,7160001026435,新規,0,2024-12-27,2024-12-27,株式会社ＯｎｅＬｉｆｅ,,株式会社,滋賀県,守山市,守山４丁目５－２１サンクリエート１０２,,25,207,5240022,,,,,,,2024-12-27,1,,,,,ワンライフ,0
1775,7160001026443,新規,0,2024-12-27,2024-12-27,株式会社アーガマ,,株式会社,滋賀県,栗東市,小柿８丁目３番１９号,,25,208,5203024,,,,,,,2024-12-27,1,,,,,アーガマ,0
1776,7160003003366,新規,0,2024-12-27,2024-12-27,建設コンサルタント合同会社,,合同会社,滋賀県,大津市,柳が崎９番１‐１５１６号,,25,201,5200022,,,,,,,2024-12-27,1,,,,,ケンセツコンサルタント,0
1783,7180001164712,新規,0,2024-12-27,2024-12-27,株式会社Ｆｌｏｒｅｎｃｅ　Ｕｎｉｔｙ,,株式会社,愛知県,春日井市,坂下町７丁目１７７６番地,,23,206,4800305,,,,,,,2024-12-27,1,,,,,フローレンスユニティー,0
1784,7180001164753,新規,0,2024-12-27,2024-12-27,三協株式会社,,株式会社,愛知県,北名古屋市,沖村権現１番地,,23,234,4810043,,,,,,,2024-12-27,1,,,,,サンキョウ,0
1786,7180003027784,新規,0,2024-12-27,2024-12-27,合同会社ＭＣＴ,,合同会社,愛知県,名古屋市西区,牛島町６番１号名古屋ルーセントタワー４０階,,23,104,4510046,,,,,,,2024-12-27,1,,,,,エムシーティー,0
1791,7190001031903,新規,0,2024-12-27,2024-12-27,株式会社アクアリフォーム,,株式会社,三重県,松阪市,上川町３６７９番地８,,24,204,5150041,,,,,,,2024-12-27,1,,,,,アクアリフォーム,0
1795,7200001043277,新規,0,2024-12-27,2024-12-27,株式会社ヤマシタホールディング,,株式会社,岐阜県,郡上市,大和町剣１７５３番地,,21,219,5014612,,,,,,,2024-12-27,1,,,,,ヤマシタホールディング,0
1799,7240001064311,新規,0,2024-12-27,2024-12-27,株式会社ＮＡＦＡＹ　Ｔｒａｄｉｎｇ,,株式会社,広島県,安芸郡熊野町,１３６７番地１３９,,34,307,7314200,,,,,,,2024-12-27,1,,,,,ナフィトレーディング,0
1801,7240003006996,新規,0,2024-12-27,2024-12-27,合同会社ＯＲＡＮＧＥ　ＭＯＯＤ,,合同会社,広島県,広島市安佐南区,伴東１丁目２８番１９号,,34,105,7313164,,,,,,,2024-12-27,1,,,,,オレンジムード,0
1803,7250001020949,新規,0,2024-12-27,2024-12-27,株式会社アステル自動車,,株式会社,山口県,山口市,小郡上郷２２９６－５４,,35,203,7540001,,,,,,,2024-12-27,1,,,,,アステルジドウシャ,0
1810,7260001039740,新規,0,2024-12-27,2024-12-27,株式会社イロドリ,,株式会社,岡山県,岡山市南区,浜野２丁目１０番９号,,33,104,7000845,,,,,,,2024-12-27,1,,,,,イロドリ,0
1821,7290001108435,新規,0,2024-12-27,2024-12-27,ＺＥＲＯ　ｓｔｕｄｉｏ株式会社,,株式会社,福岡県,福岡市南区,高宮４丁目４番７号,,40,134,8150083,,,,,,,2024-12-27,1,,,,,ゼロスタジオ,0
1828,7290801031150,新規,0,2024-12-27,2024-12-27,ＤＡＴＴＡ株式会社,,株式会社,福岡県,北九州市小倉北区,大字藍島１８４番地２,,40,106,8020091,,,,,,,2024-12-27,1,,,,,ダッタ,0
1833,7290805009795,新規,0,2024-12-27,2024-12-27,一般社団法人ＮＯＢシフトワーク研究会,,その他の設立登記法人,福岡県,北九州市八幡西区,医生ケ丘１－１産業医科大学医学部第１生理学教室,,40,109,8070804,,,,,,,2024-12-27,1,,,,,ノブシフトワークケンキュウカイ,0
1836,7330003010691,新規,0,2024-12-27,2024-12-27,合同会社うつわ,,合同会社,熊本県,熊本市中央区,神水１丁目３５番５号,,43,101,8620954,,,,,,,2024-12-27,1,,,,,ウツワ,0
1838,7340001027019,新規,0,2024-12-27,2024-12-27,ＨＡＥＮＫＡＺＥ株式会社,,株式会社,鹿児島県,南さつま市,加世田益山７９３７番地６,,46,220,8971125,,,,,,,2024-12-27,1,,,,,ハエンカゼ,0
1839,7340001027027,新規,0,2024-12-27,2024-12-27,株式会社ＢＬＣ,,株式会社,鹿児島県,霧島市,隼人町見次１３００番地２ドラゴンポート８８－１０Ｃ,,46,218,8995117,,,,,,,2024-12-27,1,,,,,ビーエルシー,0
1844,7360003014558,新規,0,2024-12-27,2024-12-27,合同会社エース不動産,,合同会社,沖縄県,那覇市,銘苅２丁目９番２５－５０５号,,47,201,9000004,,,,,,,2024-12-27,1,,,,,エースフドウサン,0
1845,7370001052071,新規,0,2024-12-27,2024-12-27,株式会社大木タイル,,株式会社,宮城県,多賀城市,留ケ谷１丁目１６番１５号,,04,209,9850871,,,,,,,2024-12-27,1,,,,,オオキタイル,0
1847,7370003006876,新規,0,2024-12-27,2024-12-27,ＶＩＶＡＲＩＺＥ合同会社,,合同会社,宮城県,仙台市青葉区,本町１丁目５番２８号カーニープレイス仙台駅前通６０３号室,,04,101,9800014,,,,,,,2024-12-27,1,,,,,ヴィヴァライズ,0
1848,7370005010876,新規,0,2024-12-27,2024-12-27,医療法人たくまこどもクリニック,,その他の設立登記法人,宮城県,仙台市若林区,長喜城字山神４５番地の６,,04,103,9840036,,,,,,,2024-12-27,1,,,,,タクマコドモクリニック,0
1859,7410003004025,新規,0,2024-12-27,2024-12-27,那須商店合同会社,,合同会社,秋田県,秋田市,山王２丁目７番２９号シティパレス秋田壱号館３０１,,05,201,0100951,,,,,,,2024-12-27,1,,,,,ナスショウテン,0
1865,7430001093365,新規,0,2024-12-27,2024-12-27,エーエムジーホールディングス株式会社,,株式会社,北海道,伊達市,鹿島町４８番地１,,01,233,0520024,,,,,,,2024-12-27,1,,,,,エーエムジーホールディングス,0
1866,7430001093373,新規,0,2024-12-27,2024-12-27,株式会社人手,,株式会社,北海道,札幌市北区,新琴似五条８丁目７番１３号,,01,102,0010905,,,,,,,2024-12-27,1,,,,,ヒトデ,0
1867,7430003017108,新規,0,2024-12-27,2024-12-27,合同会社おつけものがたり,,合同会社,北海道,石狩郡当別町,末広３８０番地辻野ビル２階,,01,303,0610224,,,,,,,2024-12-27,1,,,,,オツケモノガタリ,0
1868,7430003017116,新規,0,2024-12-27,2024-12-27,合同会社サラダ倶楽部ベジママ,,合同会社,北海道,江別市,大麻新町２４番地の１３,,01,217,0690863,,,,,,,2024-12-27,1,,,,,サラダクラブベジママ,0
1869,7430003017124,新規,0,2024-12-27,2024-12-27,エムワイアセット合同会社,,合同会社,北海道,札幌市中央区,南二十条西１１丁目２番２６号,,01,101,0640920,,,,,,,2024-12-27,1,,,,,エムワイアセット,0
1870,7440001009543,新規,0,2024-12-27,2024-12-27,株式会社大和設備,,株式会社,北海道,亀田郡七飯町,大川５丁目３９番１５号,,01,337,0411122,,,,,,,2024-12-27,1,,,,,ダイワセツビ,0
1873,7470003002782,新規,0,2024-12-27,2024-12-27,合同会社ＹＵＵ,,合同会社,香川県,丸亀市,綾歌町富熊２２１９番地３,,37,202,7612407,,,,,,,2024-12-27,1,,,,,,0
1875,7490001010926,新規,0,2024-12-27,2024-12-27,株式会社可能性アカデミー高知,,株式会社,高知県,高知市,西秦泉寺３７３番地５,,39,201,7800033,,,,,,,2024-12-27,1,,,,,,0
1877,7500001026045,新規,0,2024-12-27,2024-12-27,伊予縫製株式会社,,株式会社,愛媛県,今治市,近見町３丁目１番１６号,,38,202,7940007,,,,,,,2024-12-27,1,,,,,イヨホウセイ,0
1878,7500001026053,新規,0,2024-12-27,2024-12-27,株式会社ヨシダコーポレーション,,株式会社,愛媛県,松山市,北梅本町甲２９５９番地１,,38,201,7910242,,,,,,,2024-12-27,1,,,,,ヨシダコーポレーション,0
1880,7700150128448,新規,0,2024-12-27,2024-12-27,Ｈａｌｅｏｎ　ＵＫ　Ｔｒａｄｉｎｇ　Ｓｅｒｖｉｃｅｓ　Ｌｉｍｉｔｅｄ,,外国会社等,,,,,,,,Ｂｕｉｌｄｉｎｇ　５，Ｆｉｒｓｔ　Ｆｌｏｏｒ，Ｔｈｅ　Ｈｅｉｇｈｔｓ，Ｗｅｙｂｒｉｄｇｅ，Ｓｕｒｒｅｙ，Ｕｎｉｔｅｄ　Ｋｉｎｇｄｏｍ，ＫＴ１３　０ＮＹ,,,,,,2024-12-27,1,,,,,ヘイリオンユーケートレーディングサービシズリミテッド,0
1887,8010001251113,新規,0,2024-12-27,2024-12-27,株式会社橋本,,株式会社,東京都,文京区,白山１丁目３１番６－６０１号,,13,105,1130001,,,,,,,2024-12-27,1,,,,,ハシモト,0
1888,8010003045926,新規,0,2024-12-27,2024-12-27,合同会社想文社,,合同会社,東京都,中央区,銀座１丁目１２－４Ｎ＆ＥＢＬＤ．７階,,13,102,1040061,,,,,,,2024-12-27,1,,,,,ソウブンシャ,0
1898,8010401187295,新規,0,2024-12-27,2024-12-27,ＪＰ　ＲＯＢＯＴＩＣＳ株式会社,,株式会社,東京都,港区,南青山３丁目１５番９号ＭＩＮＯＷＡ表参道３Ｆ,,13,103,1070062,,,,,,,2024-12-27,1,,,,,ジェイピーロボティクス,0
1903,8010403034082,新規,0,2024-12-27,2024-12-27,合同会社オフィス大和,,合同会社,東京都,港区,南青山１丁目１９番１３号,,13,103,1070062,,,,,,,2024-12-27,1,,,,,オフィスヤマト,0
1909,8010701047042,新規,0,2024-12-27,2024-12-27,株式会社スマート薬機,,株式会社,東京都,品川区,東大井１丁目９番３２－１０１１号,,13,109,1400011,,,,,,,2024-12-27,1,,,,,スマートヤッキ,0
1911,8010901056578,新規,0,2024-12-27,2024-12-27,株式会社Ｎｅｗ　Ｆｉｃｔｉｏｎ,,株式会社,東京都,世田谷区,奥沢６丁目２３番１６号ヴュ・メゾン自由が丘Ｅ２０２,,13,112,1580083,,,,,,,2024-12-27,1,,,,,ニューフィクション,0
1916,8011001166879,新規,0,2024-12-27,2024-12-27,株式会社ＡＩスキル,,株式会社,東京都,渋谷区,神南１丁目１１－４ＦＰＧリンクス神南５階,,13,113,1500041,,,,,,,2024-12-27,1,,,,,エイアイスキル,0
1918,8011003020712,新規,0,2024-12-27,2024-12-27,ｖｉｓ合同会社,,合同会社,東京都,目黒区,三田２丁目１８番１９―１１８号,,13,110,1530062,,,,,,,2024-12-27,1,,,,,ウイス,0
1925,8011105011279,新規,0,2024-12-27,2024-12-27,一般社団法人社長簿記ゲーム協会,,その他の設立登記法人,東京都,新宿区,高田馬場１丁目３３番１３号千年ビル８０３,,13,104,1690075,,,,,,,2024-12-27,1,,,,,シャチョウボキキョウカイ,0
1926,8011203004564,新規,0,2024-12-27,2024-12-27,合同会社オフィス充,,合同会社,東京都,中野区,弥生町５丁目２番６号シェル中野弥生町５０８号,,13,114,1640013,,,,,,,2024-12-27,1,,,,,オフィスミツル,0
1927,8011301030248,新規,0,2024-12-27,2024-12-27,株式会社Ｆｒｏｎｔｉｅｒ,,株式会社,東京都,杉並区,高円寺南４丁目４５番４－６０２号,,13,115,1660003,,,,,,,2024-12-27,1,,,,,フロンティア,0
1932,8011701027835,新規,0,2024-12-27,2024-12-27,株式会社ＪＴＣ,,株式会社,東京都,江戸川区,本一色１丁目２４番２号,,13,123,1330044,,,,,,,2024-12-27,1,,,,,ジェイティーシー,0
1933,8011701027942,新規,0,2024-12-27,2024-12-27,株式会社カイ・コーポレーション,,株式会社,東京都,江戸川区,西葛西７丁目５番１７号,,13,123,1340088,,,,,,,2024-12-27,1,,,,,カイコーポレーション,0
1936,8011801045373,新規,0,2024-12-27,2024-12-27,株式会社ＳａＧＡＳ,,株式会社,東京都,葛飾区,東金町１丁目４５番１２号,,13,122,1250041,,,,,,,2024-12-27,1,,,,,サガス,0
1940,8012401042620,新規,0,2024-12-27,2024-12-27,株式会社ラ・ネージュ,,株式会社,東京都,府中市,片町１丁目１９番地の１,,13,206,1830021,,,,,,,2024-12-27,1,,,,,ラネージュ,0
1941,8012403006887,新規,0,2024-12-27,2024-12-27,合同会社アストラル,,合同会社,東京都,武蔵野市,西久保２丁目３番１３号第３山下ビル３０２,,13,203,1800013,,,,,,,2024-12-27,1,,,,,アストラル,0
1942,8012803003583,新規,0,2024-12-27,2024-12-27,合同会社ＮＡＭＩＫＩ,,合同会社,東京都,立川市,幸町２丁目５１－３－２階,,13,202,1900002,,,,,,,2024-12-27,1,,,,,ナミキ,0
1946,8013303007455,新規,0,2024-12-27,2024-12-27,合同会社グッジョブ,,合同会社,東京都,豊島区,池袋３丁目９番２１号,,13,116,1710014,,,,,,,2024-12-27,1,,,,,グッジョブ,0
1953,8020001160676,新規,0,2024-12-27,2024-12-27,株式会社Ｗｈｉｓｐｅｒ,,株式会社,神奈川県,川崎市幸区,北加瀬３丁目８番２５－１０１号,,14,132,2120057,,,,,,,2024-12-27,1,,,,,ウィスパー,0
1960,8021001084097,新規,0,2024-12-27,2024-12-27,株式会社トヨタガズーレーシングディベロップメント,,株式会社,神奈川県,足柄上郡中井町,境４４０番地,,14,361,2590157,,,,,,,2024-12-27,1,,,,,トヨタガズーレーシングディベロップメント,0
1961,8021001084114,新規,0,2024-12-27,2024-12-27,株式会社イッチー住建,,株式会社,神奈川県,高座郡寒川町,一之宮３丁目２６番３号,,14,321,2530111,,,,,,,2024-12-27,1,,,,,イッチージュウケン,0
1963,8021005013242,新規,0,2024-12-27,2024-12-27,一般社団法人神奈川県ボディビル・フィットネス連盟,,その他の設立登記法人,神奈川県,高座郡寒川町,田端１１７０－１,,14,321,2530114,,,,,,,2024-12-27,1,,,,,カナガワケンボディビルフィットネスレンメイ,0
1964,8021005013250,新規,0,2024-12-27,2024-12-27,一般社団法人シニアサポート協会ひまわり,,その他の設立登記法人,神奈川県,大和市,大和東３丁目９番３号,,14,213,2420017,,,,,,,2024-12-27,1,,,,,シニアサポートキョウカイヒマワリ,0
1967,8030001164123,新規,0,2024-12-27,2024-12-27,株式会社Ｆｏｕｒ　ｌｅａｆ,,株式会社,埼玉県,川口市,青木１丁目１７番３７号,,11,203,3320031,,,,,,,2024-12-27,1,,,,,フォーリーフ,0
1970,8030003025752,新規,0,2024-12-27,2024-12-27,合同会社ＳＳＫサービス,,合同会社,埼玉県,所沢市,大字山口９６９－２,,11,208,3591145,,,,,,,2024-12-27,1,,,,,エスエスケイサービス,0
1971,8030003025785,新規,0,2024-12-27,2024-12-27,合同会社スタイ,,合同会社,埼玉県,東松山市,旗立台３０番地４９,,11,212,3550054,,,,,,,2024-12-27,1,,,,,スタイ,0
1972,8030003025793,新規,0,2024-12-27,2024-12-27,Ａａｒｕ　Ｅｎｔｅｒｐｒｉｓｅｓ合同会社,,合同会社,埼玉県,上尾市,本町１丁目１番５号遠山ビル３階３１４号室,,11,219,3620014,,,,,,,2024-12-27,1,,,,,アールエンタープライズ,0
1973,8030005021989,新規,0,2024-12-27,2024-12-27,農事組合法人Ｄライン,,その他の設立登記法人,埼玉県,東松山市,大字大谷３２０８番地４,,11,212,3550008,,,,,,,2024-12-27,1,,,,,ディーライン,0
1982,8060001037771,新規,0,2024-12-27,2024-12-27,株式会社ＫＡＴＯ,,株式会社,栃木県,芳賀郡益子町,大字山本２０４４番地,,09,342,3214213,,,,,,,2024-12-27,1,,,,,カトー,0
1984,8070003005718,新規,0,2024-12-27,2024-12-27,Ｍ＆Ｐ　Ｓｏｌｕｔｉｏｎｓ合同会社,,合同会社,群馬県,太田市,南矢島町６０９番地,,10,205,3730861,,,,,,,2024-12-27,1,,,,,エムアンドピーソリューションズ,0
1986,8080101025220,新規,0,2024-12-27,2024-12-27,ジョイランドアセットマネージメント株式会社,,株式会社,静岡県,沼津市,大手町４丁目３番５５号,,22,203,4100801,,,,,,,2024-12-27,1,,,,,ジョイラインドアセットマネージメント,0
1987,8080103003224,新規,0,2024-12-27,2024-12-27,エーエムジー合同会社,,合同会社,静岡県,富士市,中之郷３１５８―６,,22,210,4213306,,,,,,,2024-12-27,1,,,,,エーエムジー,0
1989,8100001038154,新規,0,2024-12-27,2024-12-27,株式会社小泉運輸九州,,株式会社,長野県,上伊那郡南箕輪村,２３８０番地７７６,,20,385,3994511,,,,,,,2024-12-27,1,,,,,コイズミウンユキュウシュウ,0
2000,8120003028275,新規,0,2024-12-27,2024-12-27,合同会社Ｍａｉｋｅｙ　ａｎｄ　Ｃｏ．,,合同会社,大阪府,大阪市西区,北堀江３丁目１０－２２－２Ｃ,,27,106,5500014,,,,,,,2024-12-27,1,,,,,マイキーアンドコー,0
2001,8120005024677,新規,0,2024-12-27,2024-12-27,一般社団法人シンジ,,その他の設立登記法人,大阪府,大阪市鶴見区,諸口１丁目１番９号２Ｆ,,27,124,5380051,,,,,,,2024-12-27,1,,,,,シンジ,0
2012,8130001078651,新規,0,2024-12-27,2024-12-27,株式会社青龍の吐息,,株式会社,京都府,京都市東山区,石橋町３０７番地９,,26,105,6050066,,,,,,,2024-12-27,1,,,,,セイリュウノトイキ,0
2013,8130001078676,新規,0,2024-12-27,2024-12-27,ｍｉｃｈａ株式会社,,株式会社,京都府,京都市左京区,一乗寺木ノ本町５－２０４,,26,103,6068161,,,,,,,2024-12-27,1,,,,,ミカ,0
2014,8130001078684,新規,0,2024-12-27,2024-12-27,株式会社大和ｆａｒｍ,,株式会社,京都府,与謝郡与謝野町,字男山１４０４番地,,26,465,6292261,,,,,,,2024-12-27,1,,,,,ヤマトファーム,0
2021,8140003021427,新規,0,2024-12-27,2024-12-27,合同会社ＯＲＩＧＡＭＩ,,合同会社,兵庫県,尼崎市,椎堂１丁目１１番２１号,,28,202,6610952,,,,,,,2024-12-27,1,,,,,オリガミ,0
2023,8150001027771,新規,0,2024-12-27,2024-12-27,株式会社ｏｆｆｉｃｅ．１１１０,,株式会社,奈良県,天理市,遠田町４２９番地,,29,204,6320055,,,,,,,2024-12-27,1,,,,,オフィスカワグチ,0
2024,8150001027788,新規,0,2024-12-27,2024-12-27,株式会社Ｃｙｂｅｒ　Ｍｅｄｉｃａｌ,,株式会社,奈良県,生駒市,北大和１丁目１７番地１３,,29,209,6300121,,,,,,,2024-12-27,1,,,,,サイバーメディカル,0
2025,8150001027796,新規,0,2024-12-27,2024-12-27,株式会社ＣＯＣＯＬＯＧＲＯＵＰ,,株式会社,奈良県,生駒郡三郷町,勢野北５丁目８番２５号,,29,343,6360815,,,,,,,2024-12-27,1,,,,,ココログループ,0
2026,8150003003465,新規,0,2024-12-27,2024-12-27,合同会社Ｅｎ．,,合同会社,奈良県,橿原市,南八木町１丁目４番３－２０１号ピアッツァコート南八木,,29,205,6340077,,,,,,,2024-12-27,1,,,,,エン,0
2032,8160001026450,新規,0,2024-12-27,2024-12-27,株式会社Ｍ　ＦＡＲＭ,,株式会社,滋賀県,野洲市,吉川４３４９番地１,,25,210,5202401,,,,,,,2024-12-27,1,,,,,エムファーム,0
2036,8170001018430,新規,0,2024-12-27,2024-12-27,株式会社浅井化学,,株式会社,和歌山県,和歌山市,市小路１１２－５プライムパーク市小路１０４号室,,30,201,6408464,,,,,,,2024-12-27,1,,,,,アサイカガク,0
2043,8180001164661,新規,0,2024-12-27,2024-12-27,東籬株式会社,,株式会社,愛知県,一宮市,大和町苅安賀字伝治越２４‐２,,23,203,4910934,,,,,,,2024-12-27,1,,,,,トウリ,0
2047,8180003027767,新規,0,2024-12-27,2024-12-27,合同会社タニガワ,,合同会社,愛知県,名古屋市名東区,引山１丁目８１１番地アーバンスクエアＩＩＩ１０１号,00137474,23,115,4650002,,,,,,,2024-12-27,1,,,,,タニガワ,0
2048,8180003027809,新規,0,2024-12-27,2024-12-27,合同会社ｕｌｌａｋｋｏ,,合同会社,愛知県,半田市,板山町２丁目１番地の４,,23,205,4750936,,,,,,,2024-12-27,1,,,,,ウーラッコ,0
2052,8180005020885,新規,0,2024-12-27,2024-12-27,一般社団法人地域連携イノベーティブキャリア支援機構,,その他の設立登記法人,愛知県,名古屋市名東区,代万町２丁目８３番地の１,,23,115,4650086,,,,,,,2024-12-27,1,,,,,チイキレンケイイノベーティブキャリアシエンキコウ,0
2053,8180301039381,新規,0,2024-12-27,2024-12-27,株式会社ｓｈｕｋｕｒａｎ,,株式会社,愛知県,豊橋市,平川本町２丁目１１番地３,,23,201,4400038,,,,,,,2024-12-27,1,,,,,シュクラン,0
2056,8190001031902,新規,0,2024-12-27,2024-12-27,株式会社テクノサンコー,,株式会社,三重県,津市,久居一色町２２３番地７,,24,201,5141253,,,,,,,2024-12-27,1,,,,,テクノサンコー,0
2057,8190001031910,新規,0,2024-12-27,2024-12-27,株式会社カワバタ,,株式会社,三重県,四日市市,笹川６丁目７番地１７,,24,202,5100944,,,,,,,2024-12-27,1,,,,,カワバタ,0
2059,8190003004897,新規,0,2024-12-27,2024-12-27,合同会社百色,,合同会社,三重県,度会郡南伊勢町,贄浦４１４番地,,24,472,5161307,,,,,,,2024-12-27,1,,,,,モモイロ,0
2060,8200001043276,新規,0,2024-12-27,2024-12-27,Ｆ３Ｃｒｅａｔｅ株式会社,,株式会社,岐阜県,可児市,下恵土７８６番地２,,21,214,5090203,,,,,,,2024-12-27,1,,,,,エフスリークリエート,0
2061,8200001043284,新規,0,2024-12-27,2024-12-27,株式会社伏屋,,株式会社,岐阜県,岐阜市,城東通１丁目１４番地１,,21,201,5008441,,,,,,,2024-12-27,1,,,,,フセヤ,0
2062,8200001043292,新規,0,2024-12-27,2024-12-27,中部電気工業株式会社,,株式会社,岐阜県,岐阜市,水海道５丁目６番１９,,21,201,5008223,,,,,,,2024-12-27,1,,,,,チュウブデンキコウギョウ,0
2067,8240001064327,新規,0,2024-12-27,2024-12-27,株式会社ｎｕ．,,株式会社,広島県,広島市西区,三篠町１丁目８番８号,,34,104,7330003,,,,,,,2024-12-27,1,,,,,ヌウ,0
2068,8240003007003,新規,0,2024-12-27,2024-12-27,合同会社ウッドドア,,合同会社,広島県,廿日市市,駅前４－２４,,34,213,7380011,,,,,,,2024-12-27,1,,,,,ウッドドア,0
2071,8250001020948,新規,0,2024-12-27,2024-12-27,株式会社ＢｅａｕｔｙＣｌｏｕｄ,,株式会社,山口県,下関市,ゆめタウン１－１ゆめタウン長府２階Ｅｍｉゆめタウン長府店,,35,201,7520926,,,,,,,2024-12-27,1,,,,,ビューティークラウド,0
2072,8260001039756,新規,0,2024-12-27,2024-12-27,株式会社ＴＲＹ,,株式会社,岡山県,玉野市,八浜町八浜１２００番地１,,33,204,7060221,,,,,,,2024-12-27,1,,,,,トライ,0
2073,8260001039764,新規,0,2024-12-27,2024-12-27,Ｓｍｉｌｅ　Ｗｏｒｋｓ株式会社,,株式会社,岡山県,井原市,井原町６２３番地５,,33,207,7150019,,,,,,,2024-12-27,1,,,,,スマイルワークス,0
2074,8270001009114,新規,0,2024-12-27,2024-12-27,株式会社ねこむら,,株式会社,鳥取県,鳥取市,西品治９２８番地６,,31,201,6800811,,,,,,,2024-12-27,1,,,,,,0
2084,8290001108178,新規,0,2024-12-27,2024-12-27,サクラエイト株式会社,,株式会社,福岡県,福岡市中央区,赤坂３丁目７番１５号,,40,133,8100042,,,,,,,2024-12-27,1,,,,,サクラエイト,0
2085,8290001108384,新規,0,2024-12-27,2024-12-27,クマ・マート株式会社,,株式会社,福岡県,福岡市中央区,大名１丁目４番２３号ロワールマンション大名４０１号,,40,133,8100041,,,,,,,2024-12-27,1,,,,,クママート,0
2086,8290001108426,新規,0,2024-12-27,2024-12-27,株式会社ＶＩＳＩＯＮ,,株式会社,福岡県,福岡市中央区,舞鶴３丁目２－５,,40,133,8100073,,,,,,,2024-12-27,1,,,,,ビジョン,0
2087,8290001108450,新規,0,2024-12-27,2024-12-27,株式会社縁繋,,株式会社,福岡県,筑紫野市,塔原東３丁目１０番３号,,40,217,8180059,,,,,,,2024-12-27,1,,,,,エンケイ,0
2088,8290001108459,新規,0,2024-12-27,2024-12-27,株式会社さんきゅーと,,株式会社,福岡県,福岡市博多区,美野島２丁目４番地１１号,,40,132,8120017,,,,,,,2024-12-27,1,,,,,サンキュート,0
2093,8290801031141,新規,0,2024-12-27,2024-12-27,下剋上株式会社,,株式会社,福岡県,北九州市八幡東区,荒手１丁目１番１２号,,40,108,8050001,,,,,,,2024-12-27,1,,,,,ゲコクジョウ,0
2094,8290801031158,新規,0,2024-12-27,2024-12-27,株式会社ＬａＬａＬａｎｄ,,株式会社,福岡県,京都郡苅田町,富久町１丁目１６番地１５,,40,621,8000352,,,,,,,2024-12-27,1,,,,,ララランド,0
2098,8290805009794,新規,0,2024-12-27,2024-12-27,一般社団法人筑豊ｅスポーツ協会,,その他の設立登記法人,福岡県,田川市,魚町１３番１２号エトワールプラザ５００号室,,40,206,8250014,,,,,,,2024-12-27,1,,,,,チクホウイースポーツキョウカイ,0
2099,8320001020874,新規,0,2024-12-27,2024-12-27,株式会社ＰＰＣｒｅａｔｅ,,株式会社,大分県,大分市,新明治５丁目１番１９号,,44,201,8700172,,,,,,,2024-12-27,1,,,,,ピーピークリエイト,0
2101,8330001032753,新規,0,2024-12-27,2024-12-27,原＿株式会社,00137477,株式会社,熊本県,熊本市東区,長嶺西３丁目２６７６番１,,43,102,8618037,,,,,,,2024-12-27,1,,,,,ゲンキ,0
2102,8340001027018,新規,0,2024-12-27,2024-12-27,株式会社ＹＵＩ,,株式会社,鹿児島県,鹿児島市,東谷山６丁目３６番１１号,,46,201,8910113,,,,,,,2024-12-27,1,,,,,ユイ,0
2103,8340001027026,新規,0,2024-12-27,2024-12-27,株式会社ユリシス,,株式会社,鹿児島県,薩摩川内市,永利町４１３４番地１８３,,46,215,8950005,,,,,,,2024-12-27,1,,,,,ユリシス,0
2105,8350001019344,新規,0,2024-12-27,2024-12-27,ＷＡＳＨハウスサステナブル株式会社,,株式会社,宮崎県,宮崎市,大字芳士８９８番地２,,45,201,8800123,,,,,,,2024-12-27,1,,,,,ウォッシュハウスサステナブル,0
2113,8370001052079,新規,0,2024-12-27,2024-12-27,ＨＹＲ　ｂｅｎｅｆｉｔ株式会社,,株式会社,宮城県,仙台市青葉区,旭ケ丘４丁目３１番２０号,,04,101,9810904,,,,,,,2024-12-27,1,,,,,エイチワイアールベネフィット,0
2118,8380001035009,新規,0,2024-12-27,2024-12-27,株式会社ふくしま総研,,株式会社,福島県,郡山市,富久山町久保田字下河原１９１番地の１,,07,203,9638071,,,,,,,2024-12-27,1,,,,,フクシマソウケン,0
2128,8430001093348,新規,0,2024-12-27,2024-12-27,株式会社ＴＡＤ高橋建築企画室,,株式会社,北海道,札幌市東区,北二十二条東１９丁目３番２４号,,01,103,0650022,,,,,,,2024-12-27,1,,,,,ティーエーディータカハシケンチクキカクシツ,0
2129,8430001093372,新規,0,2024-12-27,2024-12-27,株式会社イシダワークス,,株式会社,北海道,北広島市,大曲緑ヶ丘７丁目１３番地１０,,01,234,0611276,,,,,,,2024-12-27,1,,,,,イシダワークス,0
2131,8430003017107,新規,0,2024-12-27,2024-12-27,ＭＴテック合同会社,,合同会社,北海道,千歳市,栄町５丁目３番地,,01,224,0660061,,,,,,,2024-12-27,1,,,,,エムティーテック,0
2132,8430003017115,新規,0,2024-12-27,2024-12-27,合同会社Ｗａｒｍ,,合同会社,北海道,札幌市東区,東雁来十一条２丁目１１番８号,,01,103,0070031,,,,,,,2024-12-27,1,,,,,ウォーム,0
2133,8430003017131,新規,0,2024-12-27,2024-12-27,合同会社アップル,,合同会社,北海道,札幌市北区,新琴似二条３丁目１番１７号,,01,102,0010902,,,,,,,2024-12-27,1,,,,,アップル,0
2135,8450001014483,新規,0,2024-12-27,2024-12-27,株式会社ルームクリエイト,,株式会社,北海道,旭川市,永山十一条２丁目５番７号,,01,204,0798421,,,,,,,2024-12-27,1,,,,,ルームクリエイト,0
2140,8470003002781,新規,0,2024-12-27,2024-12-27,アメジアン合同会社,,合同会社,香川県,仲多度郡琴平町,五條９９１番地１,,37,403,7660003,,,,,,,2024-12-27,1,,,,,アメジアン,0
2141,8480001012690,新規,0,2024-12-27,2024-12-27,株式会社ＭＳＨＧ,,株式会社,徳島県,板野郡藍住町,富吉字須崎６７番地７,,36,403,7711231,,,,,,,2024-12-27,1,,,,,エムエスエイチジー,0
2142,8490003001963,新規,0,2024-12-27,2024-12-27,合同会社ＡＯＩ,,合同会社,高知県,高知市,小石木町２６番地２２パレスヒル４０５,,39,201,7808032,,,,,,,2024-12-27,1,,,,,アオイ,0
2143,8500001026052,新規,0,2024-12-27,2024-12-27,株式会社ＲＡＣ,,株式会社,愛媛県,松山市,三番町５丁目５番地１,,38,201,7900003,,,,,,,2024-12-27,1,,,,,ラック,0
2144,8500003003396,新規,0,2024-12-27,2024-12-27,合同会社ＦＵＬＬ,,合同会社,愛媛県,東温市,牛渕６０３番地３,,38,215,7910213,,,,,,,2024-12-27,1,,,,,フル,0
2148,8700150128447,新規,0,2024-12-27,2024-12-27,産学交流プラザ　創造,,その他,北海道,室蘭市,東町４丁目２８番１号　室蘭テクノセンター内,,01,205,0500083,,,,,,,2024-12-27,1,,,,,サンガクコウリュウプラザソウゾウ,0
2149,8700150128455,新規,0,2024-12-27,2024-12-27,ＨＡＰＰＹ　ＳＯＩＬ　ＦＯＯＤＳ　ＬＩＭＩＴＥＤ,,外国会社等,大阪府,豊中市,上野西３丁目１２番１６－３０２,,27,203,5600011,英国ロンドン市カムデンロード４６番地,,,,,,2024-12-27,1,,,,,ハッピーソイルフーズリミテッド,0
2160,9010001250923,新規,0,2024-12-27,2024-12-27,プロシアネクスト株式会社,,株式会社,東京都,中央区,日本橋富沢町６番４号,,13,102,1030006,,,,,,,2024-12-27,1,,,,,プロシアネクスト,0
2161,9010001250964,新規,0,2024-12-27,2024-12-27,ＹＧＫ株式会社,,株式会社,東京都,中央区,銀座１丁目１２番４号Ｎ＆ＥＢＬＤ．６階,,13,102,1040061,,,,,,,2024-12-27,1,,,,,ワイジーケー,0
2164,9010003045891,新規,0,2024-12-27,2024-12-27,匠心合同会社,,合同会社,東京都,千代田区,一ツ橋２丁目６番３号アクシスインベストメントアドバイザーズ株式会社内,,13,101,1010003,,,,,,,2024-12-27,1,,,,,タクミゴコロ,0
2165,9010005039322,新規,0,2024-12-27,2024-12-27,一般社団法人日本自治体経営支援協会,,その他の設立登記法人,東京都,中央区,八重洲１丁目８番１７号新槇町ビル６階,,13,102,1030028,,,,,,,2024-12-27,1,,,,,ニホンジチタイケイエイシエンキョウカイ,0
2166,9010005039339,新規,0,2024-12-27,2024-12-27,Ｖｉａｌｔｏパートナーズ社会保険労務士法人,,その他の設立登記法人,東京都,千代田区,丸の内１丁目４番１号,,13,101,1000005,,,,,,,2024-12-27,1,,,,,ヴィアルトパートナーズ,0
2178,9010401187360,新規,0,2024-12-27,2024-12-27,ＧＣＪＧ４５株式会社,,株式会社,東京都,港区,元赤坂１丁目１番８号株式会社赤坂国際会計内,,13,103,1070051,,,,,,,2024-12-27,1,,,,,ジーシージェイジーフォーティーファイブ,0
2188,9010801035714,新規,0,2024-12-27,2024-12-27,株式会社ＭＵＲＡ,,株式会社,東京都,大田区,西嶺町６番１２号グレイスウィステリア２０１,,13,111,1450075,,,,,,,2024-12-27,1,,,,,ムラ,0
2198,9011003020645,新規,0,2024-12-27,2024-12-27,合同会社Ｎｅｘｏｒ,,合同会社,東京都,目黒区,上目黒３丁目２１－９テラスハウス上目黒２号室,,13,110,1530051,,,,,,,2024-12-27,1,,,,,ネクサー,0
2199,9011003020694,新規,0,2024-12-27,2024-12-27,仔馬舎合同会社,,合同会社,東京都,渋谷区,神南１丁目１１番４号,,13,113,1500041,,,,,,,2024-12-27,1,,,,,コウマシャ,0
2203,9011101110067,新規,0,2024-12-27,2024-12-27,株式会社マツバラ設計室,,株式会社,東京都,新宿区,西新宿３丁目３番１３号西新宿水間ビル２Ｆ,,13,104,1600023,,,,,,,2024-12-27,1,,,,,マツバラセッケイシツ,0
2204,9011101110083,新規,0,2024-12-27,2024-12-27,株式会社桜幸綜合事務所,,株式会社,東京都,新宿区,西新宿３丁目２番９号,,13,104,1600023,,,,,,,2024-12-27,1,,,,,サクラユキソウゴウジムショ,0
2215,9011803006620,新規,0,2024-12-27,2024-12-27,ＧＬＯＢＡＬ　ＰＵＲＮＡＤＥＥＰ合同会社,,合同会社,東京都,葛飾区,高砂３丁目１７番１号２Ｆ,,13,122,1250054,,,,,,,2024-12-27,1,,,,,グローバルプルナディープ,0
2217,9012401042611,新規,0,2024-12-27,2024-12-27,株式会社ミカハビタート,,株式会社,東京都,調布市,下石原１丁目４７番地７,,13,208,1820034,,,,,,,2024-12-27,1,,,,,ミカハビタート,0
2218,9012401042628,新規,0,2024-12-27,2024-12-27,株式会社大建,,株式会社,東京都,府中市,是政３丁目６２番地の２７,,13,206,1830014,,,,,,,2024-12-27,1,,,,,ダイケン,0
2227,9013101009594,新規,0,2024-12-27,2024-12-27,株式会社ＡＫＩコーポレーション,,株式会社,東京都,福生市,大字福生６８２番地,,13,218,1970011,,,,,,,2024-12-27,1,,,,,アキコーポレーション,0
2231,9013301053566,新規,0,2024-12-27,2024-12-27,エトスホテル株式会社,,株式会社,東京都,豊島区,南池袋１丁目１０番１３号,,13,116,1710022,,,,,,,2024-12-27,1,,,,,エトスホテル,0
2232,9013303007454,新規,0,2024-12-27,2024-12-27,合同会社スタート,,合同会社,東京都,豊島区,池袋３丁目９番２１号,,13,116,1710014,,,,,,,2024-12-27,1,,,,,スタート,0
2236,9020001160667,新規,0,2024-12-27,2024-12-27,株式会社新考社,,株式会社,神奈川県,横浜市神奈川区,台町１１番地３０台ビル５５,,14,102,2210834,,,,,,,2024-12-27,1,,,,,シンコウシャ,0
2237,9020001160782,新規,0,2024-12-27,2024-12-27,株式会社浜建,,株式会社,神奈川県,横浜市西区,中央２丁目５０番５－７０９号,,14,103,2200051,,,,,,,2024-12-27,1,,,,,ハマケン,0
2238,9020001160832,新規,0,2024-12-27,2024-12-27,シルバラボ株式会社,,株式会社,神奈川県,横浜市青葉区,荏子田２丁目３３番地７２,,14,117,2250005,,,,,,,2024-12-27,1,,,,,シルバラボ,0
2241,9020003027526,新規,0,2024-12-27,2024-12-27,合同会社チーム未来富,,合同会社,神奈川県,横浜市青葉区,黒須田２８番地３５,,14,117,2250022,,,,,,,2024-12-27,1,,,,,チームミライフ,0
2248,9021001084096,新規,0,2024-12-27,2024-12-27,株式会社ＢＬＯＮ,,株式会社,神奈川県,藤沢市,辻堂２丁目９番３号,,14,205,2510047,,,,,,,2024-12-27,1,,,,,ブロン,0
2253,9030001164155,新規,0,2024-12-27,2024-12-27,株式会社ＡＫＲ,,株式会社,埼玉県,草加市,吉町４丁目８番８－２号,,11,221,3400017,,,,,,,2024-12-27,1,,,,,エーケーアール,0
2254,9030001164188,新規,0,2024-12-27,2024-12-27,株式会社Ｒａｃｃｏｌｔａ　Ｔｅｃｎｉｃａ,,株式会社,埼玉県,川口市,元郷２丁目３番３２号,,11,203,3320011,,,,,,,2024-12-27,1,,,,,ラコルタテクニカ,0
2255,9030001164221,新規,0,2024-12-27,2024-12-27,株式会社ＹＡＦＵＳＯ　ＡＲＣＨＩＴＥＣＴ　ＯＦＦＩＣＥ,,株式会社,埼玉県,さいたま市浦和区,高砂２丁目１０番１号グローバル高砂５０４号,,11,107,3300063,,,,,,,2024-12-27,1,,,,,ヤフソアーキテクトオフィス,0
2259,9030003025792,新規,0,2024-12-27,2024-12-27,合同会社Ｊｓ,,合同会社,埼玉県,川越市,脇田町１０３番川越マイン・メディカルセンター川越２階,,11,201,3501122,,,,,,,2024-12-27,1,,,,,ジェーエス,0
2260,9030003025801,新規,0,2024-12-27,2024-12-27,合同会社もりりん,,合同会社,埼玉県,加須市,大門町１３番１６号,,11,210,3470068,,,,,,,2024-12-27,1,,,,,モリリン,0
2266,9040001136608,新規,0,2024-12-27,2024-12-27,永和産業株式会社,,株式会社,千葉県,長生郡長南町,小生田８０５番地,,12,427,2970136,,,,,,,2024-12-27,1,,,,,エイワサンギョウ,0
2267,9040001136715,新規,0,2024-12-27,2024-12-27,株式会社道,,株式会社,千葉県,東金市,東金８６２番地８,,12,213,2830802,,,,,,,2024-12-27,1,,,,,ミチ,0
2275,9040003026484,新規,0,2024-12-27,2024-12-27,ＬＯＩＭＥＮ合同会社,,合同会社,千葉県,船橋市,若松２丁目４番４棟３０３号,,12,204,2730013,,,,,,,2024-12-27,1,,,,,ロイメン,0
2278,9050001055930,新規,0,2024-12-27,2024-12-27,株式会社ＴＨＲＥＥ　ＲＡＢＢＩＴｓ,,株式会社,茨城県,水戸市,泉町２丁目３番３０号４Ｆ,,08,201,3100026,,,,,,,2024-12-27,1,,,,,スリーラビッツ,0
2279,9050001055939,新規,0,2024-12-27,2024-12-27,株式会社くるみぐみ,,株式会社,茨城県,守谷市,松前台７丁目２１番地１６,,08,224,3020102,,,,,,,2024-12-27,1,,,,,クルミグミ,0
2280,9060003005379,新規,0,2024-12-27,2024-12-27,合同会社松,,合同会社,栃木県,小山市,駅東通り１丁目２番４５号プレミスト小山ステーションレジデンス５０９号,,09,208,3230022,,,,,,,2024-12-27,1,,,,,マツ,0
2282,9070001042472,新規,0,2024-12-27,2024-12-27,中瀬株式会社,,株式会社,群馬県,高崎市,中里見町字根岸１６番,,10,202,3703344,,,,,,,2024-12-27,1,,,,,ナカセ,0
2283,9070001042497,新規,0,2024-12-27,2024-12-27,Ｓｕｎｎｙ　ｆｌｏｗｅｒ株式会社,,株式会社,群馬県,安中市,下後閑１９１番地２,,10,211,3790106,,,,,,,2024-12-27,1,,,,,サニーフラワー,0
2284,9070001042506,新規,0,2024-12-27,2024-12-27,株式会社ＴＵＮＡＧＯＯ,,株式会社,群馬県,邑楽郡大泉町,大字吉田２３１１番地の９,,10,524,3700523,,,,,,,2024-12-27,1,,,,,ツナグ,0
2286,9070003005725,新規,0,2024-12-27,2024-12-27,合同会社腸食育子ども未来,,合同会社,群馬県,高崎市,下之城町１０８３番地１サンシャイン１０３,,10,202,3700854,,,,,,,2024-12-27,1,,,,,チョウショクイクコドモミライ,0
2287,9080001026689,新規,0,2024-12-27,2024-12-27,株式会社ＨＩＭＡＷＡＲＩ　Ｃｏ．,,株式会社,静岡県,藤枝市,岡部町岡部１６６０番地の１１,,22,214,4211121,,,,,,,2024-12-27,1,,,,,ヒマワリカンパニー,0
2288,9080003003364,新規,0,2024-12-27,2024-12-27,ドリカムハウス合同会社,,合同会社,静岡県,静岡市葵区,瀬名１丁目２５番１０号,,22,101,4200911,,,,,,,2024-12-27,1,,,,,ドリカムハウス,0
2295,9120001271487,新規,0,2024-12-27,2024-12-27,株式会社ＩＲＩＥ　Ｐｌｕｓ,,株式会社,大阪府,大阪市都島区,高倉町３丁目９番９号,,27,102,5340011,,,,,,,2024-12-27,1,,,,,アイリプラス,0
2296,9120001271495,新規,0,2024-12-27,2024-12-27,タイムＢＯＸ株式会社,,株式会社,大阪府,大阪市平野区,平野西６丁目３番９－２０１号,,27,126,5470033,,,,,,,2024-12-27,1,,,,,タイムボックス,0
2299,9120003028200,新規,0,2024-12-27,2024-12-27,ジムグリ合同会社,,合同会社,大阪府,大阪市北区,中津３丁目５番１２号島浦ビル４０１号室,,27,127,5310071,,,,,,,2024-12-27,1,,,,,ジムグリ,0
2300,9120003028274,新規,0,2024-12-27,2024-12-27,合同会社ＴＡＭＡＭＯＮＯ　ｄｅｓｉｇｎ,,合同会社,大阪府,寝屋川市,松屋町２４－１３,,27,215,5720086,,,,,,,2024-12-27,1,,,,,タマモノデザイン,0
2303,9120005024676,新規,0,2024-12-27,2024-12-27,一般社団法人関西日印協会,,その他の設立登記法人,大阪府,大阪市北区,天満橋３丁目３番５号天満インキュベーションラボ４０３号室,,27,127,5300042,,,,,,,2024-12-27,1,,,,,カンサイニチインキョウカイ,0
2304,9120005024684,新規,0,2024-12-27,2024-12-27,弁護士法人ＡＣＰ,,その他の設立登記法人,大阪府,大阪市中央区,北浜２丁目６番１１号,,27,128,5410041,,,,,,,2024-12-27,1,,,,,エーシーピー,0
2309,9120903005488,新規,0,2024-12-27,2024-12-27,合同会社ラビット,,合同会社,大阪府,豊中市,東豊中町４丁目１３－５,,27,203,5600003,,,,,,,2024-12-27,1,,,,,ラビット,0
2312,9130001078659,新規,0,2024-12-27,2024-12-27,株式会社ＴＫＳＴａ,,株式会社,京都府,京都市南区,西九条豊田町３８番地,,26,107,6018448,,,,,,,2024-12-27,1,,,,,ティーケイエスティーエイ,0
2313,9130001078675,新規,0,2024-12-27,2024-12-27,株式会社高田商店,,株式会社,京都府,京都市伏見区,向島東泉寺町４４番地２,,26,109,6128125,,,,,,,2024-12-27,1,,,,,タカダショウテン,0
2314,9130003010099,新規,0,2024-12-27,2024-12-27,合同会社サミット,,合同会社,京都府,京都市右京区,嵯峨石ケ坪町１番地１４５,,26,108,6168335,,,,,,,2024-12-27,1,,,,,サミット,0
2318,9140001136829,新規,0,2024-12-27,2024-12-27,株式会社アメイジング,,株式会社,兵庫県,神戸市兵庫区,新開地２丁目５番１１－３１０号,,28,105,6520811,,,,,,,2024-12-27,1,,,,,アメイジング,0
2319,9140001136861,新規,0,2024-12-27,2024-12-27,株式会社Ｋ‐Ｒｉｓｅ,,株式会社,兵庫県,加古川市,八幡町中西条９２３番地の５,,28,210,6751205,,,,,,,2024-12-27,1,,,,,ケイライズ,0
2320,9140001136878,新規,0,2024-12-27,2024-12-27,株式会社ＮＡＧＡＹＡＭＡ,,株式会社,兵庫県,神戸市須磨区,戎町１丁目２番１２号,,28,107,6540023,,,,,,,2024-12-27,1,,,,,ナガヤマ,0
2321,9140001136894,新規,0,2024-12-27,2024-12-27,株式会社香川不動産,,株式会社,兵庫県,三木市,大村１０７４－３４６,,28,215,6730404,,,,,,,2024-12-27,1,,,,,カガワフドウサン,0
2331,9170005007123,新規,0,2024-12-27,2024-12-27,一般社団法人アニマン・コクリエ,,その他の設立登記法人,和歌山県,和歌山市,宇須１丁目５番１６号,,30,201,6410043,,,,,,,2024-12-27,1,,,,,アニマンコクリエ,0
2335,9180001164702,新規,0,2024-12-27,2024-12-27,株式会社Ｎｅｘｕｓ　ｉｎｎｏｖａｔｉｏｎ,,株式会社,愛知県,名古屋市中川区,応仁町２丁目１４番地Ｂｒａｃｅ１０３,,23,110,4540042,,,,,,,2024-12-27,1,,,,,ネクサスイノベーション,0
2336,9180001164710,新規,0,2024-12-27,2024-12-27,株式会社かりやど,,株式会社,愛知県,半田市,雁宿町３丁目２００番地の１３,,23,205,4750918,,,,,,,2024-12-27,1,,,,,カリヤド,0
2337,9180001164735,新規,0,2024-12-27,2024-12-27,株式会社三陽測量事務所,,株式会社,愛知県,名古屋市西区,天神山町２番１９号,,23,104,4510065,,,,,,,2024-12-27,1,,,,,サンヨウソクリョウジムショ,0
2338,9180005020876,新規,0,2024-12-27,2024-12-27,医療法人クラウン歯科,,その他の設立登記法人,愛知県,名古屋市中村区,本陣通３丁目４８番地,,23,105,4530041,,,,,,,2024-12-27,1,,,,,クラウンシカ,0
2339,9180005020884,新規,0,2024-12-27,2024-12-27,医療法人灯心会,,その他の設立登記法人,愛知県,小牧市,小松寺５丁目２番地Ｖトピアキッズスクール１階,,23,219,4850828,,,,,,,2024-12-27,1,,,,,トウシンカイ,0
2340,9180301039397,新規,0,2024-12-27,2024-12-27,株式会社Ｓｉｍｐｌｅ‐ＳＴＡＮＤＡＲＤ．,,株式会社,愛知県,安城市,緑町１丁目３７番地１１,,23,212,4460055,,,,,,,2024-12-27,1,,,,,シンプルスタンダード,0
2341,9190001031892,新規,0,2024-12-27,2024-12-27,株式会社リアンソリデ,,株式会社,三重県,桑名市,赤尾台５丁目１番地１１,,24,205,5110935,,,,,,,2024-12-27,1,,,,,リアンソリデ,0
2342,9190001031901,新規,0,2024-12-27,2024-12-27,カシイ工業株式会社,,株式会社,三重県,伊勢市,御薗町新開６０番地,,24,203,5160802,,,,,,,2024-12-27,1,,,,,カシイコウギョウ,0
2344,9200001043275,新規,0,2024-12-27,2024-12-27,株式会社中西,,株式会社,岐阜県,高山市,新宮町１１２番地２８,,21,203,5060035,,,,,,,2024-12-27,1,,,,,ナカニシ,0
2345,9200001043283,新規,0,2024-12-27,2024-12-27,株式会社ＴＭ,,株式会社,岐阜県,揖斐郡池田町,八幡２４５９番地の２,,21,404,5032426,,,,,,,2024-12-27,1,,,,,ティーエム,0
2358,9240003006994,新規,0,2024-12-27,2024-12-27,合同会社ｂｅｅｂ,,合同会社,広島県,安芸郡府中町,浜田１丁目６番３号１０２号,,34,302,7350013,,,,,,,2024-12-27,1,,,,,ビーブ,0
2359,9260001039739,新規,0,2024-12-27,2024-12-27,株式会社ＳＫＢ,,株式会社,岡山県,倉敷市,南畝２丁目１５番８号,,33,202,7128055,,,,,,,2024-12-27,1,,,,,エスケービー,0
2366,9290001108425,新規,0,2024-12-27,2024-12-27,株式会社ＤＧＨ,,株式会社,福岡県,福岡市南区,屋形原５丁目５番４号,,40,134,8111351,,,,,,,2024-12-27,1,,,,,ディージーエイチ,0
2377,9290803004929,新規,0,2024-12-27,2024-12-27,合同会社けんちゃんわくわくらんど,,合同会社,福岡県,北九州市小倉北区,紺屋町３番３－５０５号ウィステリアビル,,40,106,8020081,,,,,,,2024-12-27,1,,,,,ケンチャンワクワクランド,0
2382,9320001020873,新規,0,2024-12-27,2024-12-27,西部森林株式会社,,株式会社,大分県,日田市,大字田島１５３番地８,,44,204,8770023,,,,,,,2024-12-27,1,,,,,セイブシンリン,0
2384,9340001027025,新規,0,2024-12-27,2024-12-27,株式会社プロジェクトたるみず,,株式会社,鹿児島県,垂水市,田神２９７８番地１１,,46,214,8912104,,,,,,,2024-12-27,1,,,,,プロジェクトタルミズ,0
2387,9360001034580,新規,0,2024-12-27,2024-12-27,株式会社神希建設工業,,株式会社,沖縄県,糸満市,字武富７４３番地の２,,47,210,9010311,,,,,,,2024-12-27,1,,,,,カミキケンセツコウギョウ,0
2388,9360001034597,新規,0,2024-12-27,2024-12-27,株式会社興和ブリリオ,,株式会社,沖縄県,那覇市,真嘉比２丁目３７番５－６０３号グレイスベル,,47,201,9020068,,,,,,,2024-12-27,1,,,,,コウワブリリオ,0
2389,9360003014548,新規,0,2024-12-27,2024-12-27,合同会社Ｌａ　ｐａｕｓｅ,,合同会社,沖縄県,糸満市,字真栄里２１２０番地９,,47,210,9010362,,,,,,,2024-12-27,1,,,,,ラポーズ,0
2391,9370003006874,新規,0,2024-12-27,2024-12-27,合同会社ＪＯＵＲＮＥＹ,,合同会社,宮城県,仙台市青葉区,水の森２丁目２２－３,,04,101,9810962,,,,,,,2024-12-27,1,,,,,ジャーニー,0
2401,9430001093355,新規,0,2024-12-27,2024-12-27,株式会社雅ホールディングス,,株式会社,北海道,苫小牧市,小糸井町１丁目７番１９号,,01,213,0530813,,,,,,,2024-12-27,1,,,,,ミヤビホールディングス,0
2402,9430001093371,新規,0,2024-12-27,2024-12-27,株式会社２２２,,株式会社,北海道,札幌市東区,北十一条東１０丁目１－２８フィラコート北１１条６０１号室,,01,103,0650011,,,,,,,2024-12-27,1,,,,,ニーニーニー,0
2405,9430003017122,新規,0,2024-12-27,2024-12-27,リファ合同会社,,合同会社,北海道,札幌市南区,定山渓温泉東４丁目３１０番５１号,,01,106,0612302,,,,,,,2024-12-27,1,,,,,リファ,0
2406,9430003017130,新規,0,2024-12-27,2024-12-27,ＡＲＲＯＷＳ合同会社,,合同会社,北海道,千歳市,大和１丁目７番１３号,,01,224,0660066,,,,,,,2024-12-27,1,,,,,アローズ,0
2407,9450003002576,新規,0,2024-12-27,2024-12-27,ｆｕｒａｎｏ　ｓｔａｙ合同会社,,合同会社,北海道,空知郡上富良野町,西１２線北３１号３３９７番地６,,01,460,0710512,,,,,,,2024-12-27,1,,,,,フラノステイ,0
2409,9470001020512,新規,0,2024-12-27,2024-12-27,株式会社シコククリーンサービス,,株式会社,香川県,さぬき市,長尾東１０８２番地３,,37,206,7692301,,,,,,,2024-12-27,1,,,,,シコククリーンサービス,0
2411,9470005006598,新規,0,2024-12-27,2024-12-27,一般社団法人はぐるま,,その他の設立登記法人,香川県,さぬき市,志度８９３番地４,,37,206,7692101,,,,,,,2024-12-27,1,,,,,ハグルマ,0
2414,9490005006968,新規,0,2024-12-27,2024-12-27,一般社団法人あきすまいる地域活性化支援協会,,その他の設立登記法人,高知県,安芸市,久世町９番２０号すまいるあき２階フロア内,,39,203,7840003,,,,,,,2024-12-27,1,,,,,アキスマイルチイキカッセイカシエンキョウカイ,0
2420,9700150128446,新規,0,2024-12-27,2024-12-27,Ｓｈｅｎｚｈｅｎ　Ｂａｉｌｕ　Ｏｕｔｄｏｏｒ　Ｐｒｏｄｕｃｔｓ　Ｃｏ．，Ｌｔｄ,,外国会社等,,,,,,,,Ｓｈｅｎｚｈｅｎｓｈｉｂａｏａｎｑｕｘｉｘｉａｎｇｊｉｅｄａｏｃｈｅｎｔｉａｎｓｈｅｑｕｂａｏｍｉｎｅｒｌｕｄｏｎｇｆａｎｇｙａｙｕａｎ　Ａ３１９,,,,,,2024-12-27,1,,,,,シンセンバイルアウトドアプロダクツカンパニーリミテッド,0
