sequenceNumber,corporateNumber,process,correct,updateDate,changeDate,name,nameImageId,kind,prefectureName,cityName,streetNumber,addressImageId,prefectureCode,cityCode,postCode,addressOutside,addressOutsideImageId,closeDate,closeCause,successorCorporateNumber,changeCause,assignmentDate,latest,enName,enPrefectureName,enCityName,enAddressOutside,furigana,hihyoji
8,1010001220933,新規,0,2021-09-10,2021-09-10,株式会社ＦＡＮＴＡＳＩＡ,,株式会社,東京都,文京区,本郷３丁目３０番１０号,,13,105,1130033,,,,,,,2021-09-10,1,,,,,ファンタジア,0
9,1010001221056,新規,0,2021-09-10,2021-09-10,株式会社ナンバー０２２,,株式会社,東京都,中央区,京橋３丁目１番１号,,13,102,1040031,,,,,,,2021-09-10,1,,,,,ナンバーゼロニニ,0
10,1010001221089,新規,0,2021-09-10,2021-09-10,株式会社Ｓｕｎ　Ｌｉｇｈｔ　Ｍｉｎｄ,,株式会社,東京都,中央区,銀座１丁目１２番４号Ｎ＆ＥＢＬＤ．７階,,13,102,1040061,,,,,,,2021-09-10,1,,,,,サンライトマインド,0
26,1010501047819,新規,0,2021-09-10,2021-09-10,ピーアンドピー環境株式会社,,株式会社,東京都,台東区,北上野１丁目７番７－９０２号,,13,106,1100014,,,,,,,2021-09-10,1,,,,,ピーアンドピーカンキョウ,0
30,1010601059887,新規,0,2021-09-10,2021-09-10,株式会社リート,,株式会社,東京都,墨田区,向島３丁目２９番４－７０３号,,13,107,1310033,,,,,,,2021-09-10,1,,,,,リート,0
44,1011001142655,新規,0,2021-09-10,2021-09-10,株式会社ＢＥ－Ｒａｉｓｅ,,株式会社,東京都,渋谷区,恵比寿西２丁目１１番９号,,13,113,1500021,,,,,,,2021-09-10,1,,,,,ビレイズ,0
46,1011003013318,新規,0,2021-09-10,2021-09-10,Ｔｈｅ　ｃｏｌｏｒ合同会社,,合同会社,東京都,渋谷区,代々木１丁目４０番１２号,,13,113,1510053,,,,,,,2021-09-10,1,,,,,ザカラー,0
48,1011101096256,新規,0,2021-09-10,2021-09-10,ＬＧＰ株式会社,,株式会社,東京都,新宿区,高田馬場４丁目４０番１１号ユニゾ高田馬場看山ビル１０Ｆ,,13,104,1690075,,,,,,,2021-09-10,1,,,,,エルジーピー,0
50,1011303004165,新規,0,2021-09-10,2021-09-10,エールコンサルティング合同会社,,合同会社,東京都,杉並区,西荻北３丁目２４番３号オープンレジデンス西荻窪２０２,,13,115,1670042,,,,,,,2021-09-10,1,,,,,エールコンサルティング,0
56,1011803004771,新規,0,2021-09-10,2021-09-10,アップル・ツリー合同会社,,合同会社,東京都,足立区,本木東町１４番１３号,,13,121,1230854,,,,,,,2021-09-10,1,,,,,アップルツリー,0
60,1012701016660,新規,0,2021-09-10,2021-09-10,ユニコーンアセットマネジメント株式会社,,株式会社,東京都,西東京市,緑町３丁目５番１５－２０２号,,13,229,1880002,,,,,,,2021-09-10,1,,,,,ユニコーンアセットマネジメント,0
67,1020001142895,新規,0,2021-09-10,2021-09-10,株式会社Ｇ．Ａ．Ｎ．Ｆ,,株式会社,神奈川県,横浜市港南区,笹下５丁目５番１４号,,14,111,2340052,,,,,,,2021-09-10,1,,,,,ジィエーエヌエフ,0
68,1020001142978,新規,0,2021-09-10,2021-09-10,株式会社ＭａｒＢｌａｃｋ,,株式会社,神奈川県,横浜市神奈川区,白幡東町３３番１－４０７号,,14,102,2210072,,,,,,,2021-09-10,1,,,,,マーブラック,0
76,1020003020455,新規,0,2021-09-10,2021-09-10,Ｓｙｎｉｉ合同会社,,合同会社,神奈川県,横浜市中区,長者町５丁目６８番地１,,14,104,2310033,,,,,,,2021-09-10,1,,,,,シンイ,0
77,1020003020463,新規,0,2021-09-10,2021-09-10,合同会社もぐもぐ,,合同会社,神奈川県,横浜市神奈川区,六角橋６丁目２－２アルスハイツ横浜１０１,,14,102,2210802,,,,,,,2021-09-10,1,,,,,モグモグ,0
103,1030003017913,新規,0,2021-09-10,2021-09-10,ａｎｄｍｏｒｅ合同会社,,合同会社,埼玉県,深谷市,上柴町西１丁目１０番２４号,,11,218,3660052,,,,,,,2021-09-10,1,,,,,アンドモア,0
109,1040001120156,新規,0,2021-09-10,2021-09-10,明治電子通商株式会社,,株式会社,千葉県,千葉市若葉区,みつわ台２丁目４６番１３棟４０３号,,12,104,2640032,,,,,,,2021-09-10,1,,,,,メイジデンシツウショウ,0
115,1040003018456,新規,0,2021-09-10,2021-09-10,ＫＡＮＴＯ　ＦＯＯＤＳ合同会社,,合同会社,千葉県,四街道市,大日５２６番地１３,,12,228,2840001,,,,,,,2021-09-10,1,,,,,カントーフーズ,0
116,1040003018497,新規,0,2021-09-10,2021-09-10,合同会社Ｏｋａｉｃｈｉ,,合同会社,千葉県,松戸市,田中新田４４－１８－１０５,,12,207,2702255,,,,,,,2021-09-10,1,,,,,オカイチ,0
125,1070001038420,新規,0,2021-09-10,2021-09-10,志佑ホールディングス株式会社,,株式会社,群馬県,高崎市,中島町７３番地８,,10,202,3700023,,,,,,,2021-09-10,1,,,,,シユウホールディングス,0
157,1120001240160,新規,0,2021-09-10,2021-09-10,ニコ株式会社,,株式会社,大阪府,大阪市中央区,南久宝寺町３丁目２－７,,27,128,5410058,,,,,,,2021-09-10,1,,,,,ニコ,0
158,1120001240334,新規,0,2021-09-10,2021-09-10,株式会社ＧＯＯＤＬＩＦＥ,,株式会社,大阪府,大阪市都島区,都島中通２丁目１５－７,,27,102,5340022,,,,,,,2021-09-10,1,,,,,グッドライフ,0
159,1120001240350,新規,0,2021-09-10,2021-09-10,株式会社ファインリード・コンサルティング,,株式会社,大阪府,大阪市北区,梅田１丁目３番１号大阪駅前第一ビル８階５号,,27,127,5300001,,,,,,,2021-09-10,1,,,,,ファインリードコンサルティング,0
165,1120003020148,新規,0,2021-09-10,2021-09-10,タカセデザイン合同会社,,合同会社,大阪府,大阪市西区,阿波座１丁目９番２１号,,27,106,5500011,,,,,,,2021-09-10,1,,,,,タカセデザイン,0
166,1120003020164,新規,0,2021-09-10,2021-09-10,合同会社ブランエミュ,,合同会社,大阪府,大阪市中央区,西心斎橋２丁目１番１３号,,27,128,5420086,,,,,,,2021-09-10,1,,,,,ブランエミュ,0
167,1120003020189,新規,0,2021-09-10,2021-09-10,合同会社メディカルプランニング,,合同会社,大阪府,大阪市東淀川区,大隅１丁目７番１６号ＨＡＭＭＯＣＫ８０１,,27,114,5330015,,,,,,,2021-09-10,1,,,,,メディカルプランニング,0
168,1120003020206,新規,0,2021-09-10,2021-09-10,合同会社ＪＳインテンション,,合同会社,大阪府,大阪市福島区,福島７丁目１７－９大包ビル２階,,27,103,5530003,,,,,,,2021-09-10,1,,,,,ジェイエスインテンション,0
173,1120101064278,新規,0,2021-09-10,2021-09-10,株式会社ＳＵＭＯＭＯ,,株式会社,大阪府,堺市北区,北花田町２丁９７番地４,,27,146,5918002,,,,,,,2021-09-10,1,,,,,スモモ,0
184,1130001070094,新規,0,2021-09-10,2021-09-10,株式会社Ｔａｒｒａｇｏｎ,,株式会社,京都府,京都市下京区,七条通東洞院東入飴屋町２３８番地１エスリード京都駅前１１０３,,26,106,6008148,,,,,,,2021-09-10,1,,,,,タラゴン,0
185,1130003007474,新規,0,2021-09-10,2021-09-10,柊野テックコモン合同会社,,合同会社,京都府,京都市北区,上賀茂朝露ケ原町８－３６,,26,101,6038035,,,,,,,2021-09-10,1,,,,,ヒラギノテックコモン,0
190,1140001123000,新規,0,2021-09-10,2021-09-10,株式会社カナヤ,,株式会社,兵庫県,丹波市,山南町大河１３９番地３,,28,223,6693123,,,,,,,2021-09-10,1,,,,,カナヤ,0
192,1140005025812,新規,0,2021-09-10,2021-09-10,一般社団法人全国厚生事業推進委員会,,その他の設立登記法人,兵庫県,神戸市東灘区,魚崎南町３丁目１０番７号,,28,101,6580025,,,,,,,2021-09-10,1,,,,,ゼンコクコウセイジギョウスイシンイインカイ,0
207,1180301035354,新規,0,2021-09-10,2021-09-10,株式会社ＧＮ,,株式会社,愛知県,豊橋市,向草間町字向西１５９番地７,,23,201,4418142,,,,,,,2021-09-10,1,,,,,ジーエヌ,0
210,1190003003757,新規,0,2021-09-10,2021-09-10,合同会社吉雪舘,,合同会社,三重県,伊賀市,上野忍町２５２５番地２,,24,216,5180854,,,,,,,2021-09-10,1,,,,,キセツカン,0
244,1260001035951,新規,0,2021-09-10,2021-09-10,株式会社ＡＳＯＢＩ,,株式会社,岡山県,倉敷市,玉島上成６５２‐４,,33,202,7138101,,,,,,,2021-09-10,1,,,,,アソビ,0
253,1290001094516,新規,0,2021-09-10,2021-09-10,株式会社艷,,株式会社,福岡県,福岡市城南区,茶山１丁目９番２５号,,40,136,8140111,,,,,,,2021-09-10,1,,,,,エン,0
254,1290001094565,新規,0,2021-09-10,2021-09-10,株式会社ＨＭｉｔ,,株式会社,福岡県,福岡市博多区,美野島３丁目６番１０－１０１号ベルトピア福岡Ⅲ,00124196,40,132,8120017,,,,,,,2021-09-10,1,,,,,ハミット,0
255,1290001094598,新規,0,2021-09-10,2021-09-10,株式会社リメイク,,株式会社,福岡県,糸島市,志摩小富士２４２５番地,,40,230,8191321,,,,,,,2021-09-10,1,,,,,リメイク,0
256,1290003011592,新規,0,2021-09-10,2021-09-10,ＰＥＧ　ＣＯＲＰＯＲＡＴＩＯＮ合同会社,,合同会社,福岡県,久留米市,通町７番１号,,40,203,8300018,,,,,,,2021-09-10,1,,,,,ペグコーポレーション,0
258,1290005018355,新規,0,2021-09-10,2021-09-10,一般社団法人日本ヒッコリーゴルフ協会,,その他の設立登記法人,福岡県,糸島市,志摩船越４６６番地２１５,,40,230,8191332,,,,,,,2021-09-10,1,,,,,ニホンヒッコリーゴルフキョウカイ,0
260,1290801027757,新規,0,2021-09-10,2021-09-10,株式会社松尾環境,,株式会社,福岡県,北九州市八幡西区,黒崎３丁目８番１８号,,40,109,8060021,,,,,,,2021-09-10,1,,,,,マツオカンキョウ,0
261,1290801027765,新規,0,2021-09-10,2021-09-10,株式会社スマイルクリーン,,株式会社,福岡県,北九州市若松区,上原町３番６号,,40,103,8080015,,,,,,,2021-09-10,1,,,,,スマイルクリーン,0
262,1290801027781,新規,0,2021-09-10,2021-09-10,株式会社ＳＲＦ,,株式会社,福岡県,北九州市小倉南区,津田新町３丁目１番１０－２０２号,,40,107,8000227,,,,,,,2021-09-10,1,,,,,エスアールエフ,0
263,1290803003921,新規,0,2021-09-10,2021-09-10,合同会社ＣＬＯＶＥＲ,,合同会社,福岡県,北九州市八幡西区,星ケ丘４丁目２番５号,,40,109,8071264,,,,,,,2021-09-10,1,,,,,クローバー,0
264,1290805009470,新規,0,2021-09-10,2021-09-10,一般社団法人岩武の里,,その他の設立登記法人,福岡県,北九州市小倉南区,湯川４丁目２１番２－７０３号,,40,107,8000257,,,,,,,2021-09-10,1,,,,,イワタケノサト,0
265,1300001012624,新規,0,2021-09-10,2021-09-10,株式会社キタサン,,株式会社,佐賀県,伊万里市,瀬戸町１４３１番地６,,41,205,8480043,,,,,,,2021-09-10,1,,,,,キタサン,0
272,1330003009038,新規,0,2021-09-10,2021-09-10,合同会社ネクステージ,,合同会社,熊本県,熊本市中央区,本荘４丁目７番２３－１００１号,,43,101,8600811,,,,,,,2021-09-10,1,,,,,ネクステージ,0
273,1340001024095,新規,0,2021-09-10,2021-09-10,株式会社第一リアルエステート,,株式会社,鹿児島県,鹿児島市,玉里団地３丁目２３番１２号,,46,201,8920811,,,,,,,2021-09-10,1,,,,,,0
277,1360001029365,新規,0,2021-09-10,2021-09-10,株式会社オリタトサカナ,,株式会社,沖縄県,那覇市,字与儀３６６番地３城徳アパートＢ１０５,,47,201,9020076,,,,,,,2021-09-10,1,,,,,オリタトサカナ,0
284,1370005010345,新規,0,2021-09-10,2021-09-10,特定非営利活動法人スロコミ,,その他の設立登記法人,宮城県,仙台市太白区,長町１丁目５番１７号,,04,104,9820011,,,,,,,2021-09-10,1,,,,,スロコミ,0
301,1430005014265,新規,0,2021-09-10,2021-09-10,一般社団法人フィジカルケアラボ,,その他の設立登記法人,北海道,札幌市北区,麻生町５丁目１番３号,,01,102,0010045,,,,,,,2021-09-10,1,,,,,フィジカルケアラボ,0
302,1440001008947,新規,0,2021-09-10,2021-09-10,丸栄水産株式会社,,株式会社,北海道,函館市,木直町１０４５番地,,01,202,0411602,,,,,,,2021-09-10,1,,,,,マルエイスイサン,0
309,1470005006382,新規,0,2021-09-10,2021-09-10,特定非営利活動法人子どもたちの未来を応援するオアシス丸亀,,その他の設立登記法人,香川県,丸亀市,山北町７３１番地４,,37,202,7630072,,,,,,,2021-09-10,1,,,,,コドモタチノミライヲオウエンスルオアシスマルガメ,0
314,1500001023675,新規,0,2021-09-10,2021-09-10,株式会社ＭＡＫＮＥＬ,,株式会社,愛媛県,松山市,馬木町３０６番地１,,38,201,7992655,,,,,,,2021-09-10,1,,,,,マクネル,0
326,2010003035750,新規,0,2021-09-10,2021-09-10,合同会社ＶＩＯＥＬＬ,,合同会社,東京都,中央区,銀座１丁目１２番４号Ｎ＆ＥＢＬＤ．７階,,13,102,1040061,,,,,,,2021-09-10,1,,,,,ヴィオエル,0
327,2010003035791,新規,0,2021-09-10,2021-09-10,合同会社ＡＬＥＲＯ６２,,合同会社,東京都,千代田区,神田美土代町９番１号,,13,101,1010053,,,,,,,2021-09-10,1,,,,,アレーロシックスティーツー,0
328,2010005033934,新規,0,2021-09-10,2021-09-10,一般社団法人家事のまなび研究所,,その他の設立登記法人,東京都,中央区,銀座７丁目１３番６号サガミビル２階,,13,102,1040061,,,,,,,2021-09-10,1,,,,,カジノマナビケンキュウジョ,0
338,2010401162618,新規,0,2021-09-10,2021-09-10,株式会社ＡＬＬ　ＷＩＮ,,株式会社,東京都,港区,芝２丁目２６番２号,,13,103,1050014,,,,,,,2021-09-10,1,,,,,オールウィン,0
342,2010403026085,新規,0,2021-09-10,2021-09-10,Ｍｅｎａｉ　Ｍａｒｋｅｔｓ　Ｊａｐａｎ合同会社,,合同会社,東京都,港区,元麻布３丁目１番６号,,13,103,1060046,,,,,,,2021-09-10,1,,,,,メナイマーケッツジャパン,0
358,2011001142704,新規,0,2021-09-10,2021-09-10,デンタルバズ株式会社,,株式会社,東京都,渋谷区,渋谷２丁目１０番１５号,,13,113,1500002,,,,,,,2021-09-10,1,,,,,デンタルバズ,0
359,2011005009206,新規,0,2021-09-10,2021-09-10,一般社団法人ｔｗｏ　ｈｅａｒｔ,,その他の設立登記法人,東京都,目黒区,柿の木坂１丁目３１番１４号,,13,110,1520022,,,,,,,2021-09-10,1,,,,,トゥーハート,0
366,2011303004164,新規,0,2021-09-10,2021-09-10,おじか合同会社,,合同会社,東京都,杉並区,下高井戸２丁目１５番１号,,13,115,1680073,,,,,,,2021-09-10,1,,,,,オジカ,0
379,2012703002303,新規,0,2021-09-10,2021-09-10,Ｂｉｔ　Ｄｒｅａｍｓ合同会社,,合同会社,東京都,東久留米市,下里７丁目７番４号,,13,222,2030043,,,,,,,2021-09-10,1,,,,,ビットドリームス,0
382,2012801021080,新規,0,2021-09-10,2021-09-10,ａｄｄ株式会社,,株式会社,東京都,立川市,栄町３丁目４１番３６号,,13,202,1900003,,,,,,,2021-09-10,1,,,,,アッド,0
386,2013103001077,新規,0,2021-09-10,2021-09-10,合同会社ａｓｓｉｓｔ,,合同会社,東京都,あきる野市,小川東２丁目１１－１６,,13,228,1970822,,,,,,,2021-09-10,1,,,,,,0
392,2020001142977,新規,0,2021-09-10,2021-09-10,Ａ＆Ｋコモンズ株式会社,,株式会社,神奈川県,横浜市港北区,新横浜３丁目７番地７新横浜アリーナ通りビル３Ｆ,,14,109,2220033,,,,,,,2021-09-10,1,,,,,エーアンドケーコモンズ,0
395,2020003020470,新規,0,2021-09-10,2021-09-10,合同会社Ｋｕｒａｙｕｕ,,合同会社,神奈川県,横浜市港北区,大倉山６丁目３０－１９－１０１,,14,109,2220037,,,,,,,2021-09-10,1,,,,,クラユウ,0
403,2021001073782,新規,0,2021-09-10,2021-09-10,株式会社Ｔ．Ｄｒｅａｍ,,株式会社,神奈川県,横須賀市,平作７丁目９番２２号,,14,201,2380032,,,,,,,2021-09-10,1,,,,,ティードリーム,0
404,2021001073799,新規,0,2021-09-10,2021-09-10,株式会社トライクロケア,,株式会社,神奈川県,伊勢原市,板戸５３０番地の３,,14,214,2591145,,,,,,,2021-09-10,1,,,,,トライクロケア,0
408,2021003010874,新規,0,2021-09-10,2021-09-10,合同会社ａｎｄＷＡＹ,,合同会社,神奈川県,秦野市,菩提１９２番地の８,,14,211,2591302,,,,,,,2021-09-10,1,,,,,アンドウェイ,0
425,2030001144279,新規,0,2021-09-10,2021-09-10,株式会社クレディホーム,,株式会社,埼玉県,川越市,大字的場２４１８番地１小沼ビル１０２,,11,201,3501101,,,,,,,2021-09-10,1,,,,,クレディホーム,0
438,2040001120147,新規,0,2021-09-10,2021-09-10,富優達株式会社,,株式会社,千葉県,成田市,水の上９６２－４４,,12,211,2870241,,,,,,,2021-09-10,1,,,,,フユウタツ,0
439,2040001120163,新規,0,2021-09-10,2021-09-10,株式会社桜花,,株式会社,千葉県,市原市,うるいど南３丁目１８番地１５,,12,219,2900170,,,,,,,2021-09-10,1,,,,,オウカ,0
456,2110001036030,新規,0,2021-09-10,2021-09-10,株式会社Ｂ．Ｆ．Ｄ,,株式会社,新潟県,上越市,春日山町３丁目２２番６２号ニュープレイス３０５号,,15,222,9430807,,,,,,,2021-09-10,1,,,,,ビーエフディー,0
471,2120001240201,新規,0,2021-09-10,2021-09-10,金井貿易株式会社,,株式会社,大阪府,大阪市淀川区,西宮原２丁目６－１６新大阪コーポビアネーズ５２４号室,,27,123,5320004,,,,,,,2021-09-10,1,,,,,カネイボウエキ,0
472,2120001240300,新規,0,2021-09-10,2021-09-10,株式会社Ｏｃｅａｎ,,株式会社,大阪府,大阪市北区,中津６丁目８番６－７０３号,,27,127,5310071,,,,,,,2021-09-10,1,,,,,オーシャン,0
473,2120001240309,新規,0,2021-09-10,2021-09-10,株式会社日栄トラベル,,株式会社,大阪府,大阪市中央区,島之内１丁目２１番２２号共通ビル２Ｆ１Ａ,,27,128,5420082,,,,,,,2021-09-10,1,,,,,ニチエイトラベル,0
474,2120001240341,新規,0,2021-09-10,2021-09-10,株式会社アームズ,,株式会社,大阪府,大阪市鶴見区,今津中３丁目７番３７号,,27,124,5380042,,,,,,,2021-09-10,1,,,,,アームズ,0
481,2120101064277,新規,0,2021-09-10,2021-09-10,熙雅株式会社,,株式会社,大阪府,泉大津市,条南町３－２６－１０５Ａ,,27,206,5950016,,,,,,,2021-09-10,1,,,,,キガ,0
482,2120101064285,新規,0,2021-09-10,2021-09-10,株式会社ラフテル,,株式会社,大阪府,堺市南区,御池台２丁４番１８２号,,27,145,5900134,,,,,,,2021-09-10,1,,,,,ラフテル,0
508,2180001147770,新規,0,2021-09-10,2021-09-10,株式会社コーワファーム,,株式会社,愛知県,あま市,西今宿郷内二２０番地,,23,237,4901104,,,,,,,2021-09-10,1,,,,,コーワファーム,0
509,2180001147787,新規,0,2021-09-10,2021-09-10,原田商事株式会社,,株式会社,愛知県,知多郡東浦町,大字緒川字上家左川１２５番地の６,,23,442,4702102,,,,,,,2021-09-10,1,,,,,ハラダショウジ,0
532,2250001019112,新規,0,2021-09-10,2021-09-10,株式会社エイト,,株式会社,山口県,下関市,幡生宮の下町２７番１７－１０４号,,35,201,7510829,,,,,,,2021-09-10,1,,,,,エイト,0
544,2290801027764,新規,0,2021-09-10,2021-09-10,株式会社ふじフードサービス,,株式会社,福岡県,北九州市小倉北区,馬借１丁目５番２５号,,40,106,8020077,,,,,,,2021-09-10,1,,,,,フジフードサービス,0
545,2290803003920,新規,0,2021-09-10,2021-09-10,合同会社ＹＵＭＥ－ＫＡＮＡ,,合同会社,福岡県,北九州市八幡西区,引野３丁目１３番１０号,,40,109,8060067,,,,,,,2021-09-10,1,,,,,ユメカナ,0
553,2330001028988,新規,0,2021-09-10,2021-09-10,株式会社Ｋ＆Ｐ,,株式会社,熊本県,宇城市,松橋町松橋１３２番地１,,43,213,8690502,,,,,,,2021-09-10,1,,,,,ケイアンドピー,0
559,2360003011428,新規,0,2021-09-10,2021-09-10,きまぐれ合同会社,,合同会社,沖縄県,宮古島市,平良字西里２５１番地１,,47,214,9060012,,,,,,,2021-09-10,1,,,,,キマグレ,0
565,2370005010344,新規,0,2021-09-10,2021-09-10,みちのくデリバリー協同組合,,その他の設立登記法人,宮城県,仙台市宮城野区,中野５丁目４番地の２５,,04,102,9830013,,,,,,,2021-09-10,1,,,,,ミチノクデリバリー,0
581,2410003003568,新規,0,2021-09-10,2021-09-10,合同会社ＭＤＣＴ,,合同会社,秋田県,横手市,駅前町１１番１０号パークヒルズ駅前アネックス１０２号,,05,203,0130036,,,,,,,2021-09-10,1,,,,,エムディーシーティー,0
585,2430001084889,新規,0,2021-09-10,2021-09-10,株式会社宇佐美フードサービス,,株式会社,北海道,札幌市西区,西野四条１丁目５番６号,,01,107,0630034,,,,,,,2021-09-10,1,,,,,ウサミフードサービス,0
586,2430001084930,新規,0,2021-09-10,2021-09-10,株式会社池内リサーチインスティテュート,,株式会社,北海道,札幌市中央区,南一条西２丁目１８番地,,01,101,0600061,,,,,,,2021-09-10,1,,,,,イケウチリサーチインスティテュート,0
588,2430003013136,新規,0,2021-09-10,2021-09-10,合同会社ユメナリ,,合同会社,北海道,小樽市,真栄１丁目２０番４０号,,01,203,0470003,,,,,,,2021-09-10,1,,,,,ユメナリ,0
598,2500001023674,新規,0,2021-09-10,2021-09-10,株式会社ＹＯＰＰＹファーム,,株式会社,愛媛県,大洲市,大洲７５１－１,,38,207,7950012,,,,,,,2021-09-10,1,,,,,ヨッピーファーム,0
601,2700150104676,新規,0,2021-09-10,2021-09-10,Ｊｏｙｎｉｓｔ，Ｉｎｃ．,,外国会社等,東京都,中央区,銀座７丁目５番４号,,13,102,1040061,アメリカ合衆国テキサス州オースティン市ブラゾス通り７０１番７２０号,,,,,,2021-09-10,1,,,,,ジヨイニストインク,0
617,3010001220972,新規,0,2021-09-10,2021-09-10,株式会社Ｒ＆Ａ　Ｏｒｔｈｏ　Ｃｏｎｓｕｌｔｉｎｇ,,株式会社,東京都,文京区,白山１丁目２４番２号,,13,105,1130001,,,,,,,2021-09-10,1,,,,,アールアンドエーオルソコンサルティング,0
624,3010003035790,新規,0,2021-09-10,2021-09-10,合同会社ＡＬＥＲＯ６１,,合同会社,東京都,千代田区,神田美土代町９番１号,,13,101,1010053,,,,,,,2021-09-10,1,,,,,アレーロシックスティーワン,0
638,3010405020184,新規,0,2021-09-10,2021-09-10,医療法人社団暁光会,,その他の設立登記法人,東京都,港区,三田３丁目１番１４号Ｍ・Ａ２１－１階,,13,103,1080073,,,,,,,2021-09-10,1,,,,,ギョウコウカイ,0
640,3010503006382,新規,0,2021-09-10,2021-09-10,合同会社音月,,合同会社,東京都,台東区,元浅草３丁目１５－５－８０１,,13,106,1110041,,,,,,,2021-09-10,1,,,,,オトツキ,0
643,3010701041495,新規,0,2021-09-10,2021-09-10,ＭＡＳＯＲＩ　ＪＡＰＡＮ株式会社,,株式会社,東京都,品川区,上大崎１丁目３番１１号,,13,109,1410021,,,,,,,2021-09-10,1,,,,,マソリジャパン,0
646,3010705003269,新規,0,2021-09-10,2021-09-10,一般社団法人ファーストビル,,その他の設立登記法人,東京都,品川区,上大崎３丁目１番１号目黒セントラルスクエア１５階,,13,109,1410021,,,,,,,2021-09-10,1,,,,,ファーストビル,0
652,3010903006775,新規,0,2021-09-10,2021-09-10,合同会社ａｎｔ,,合同会社,東京都,世田谷区,池尻２丁目３５－９池尻８１１,,13,112,1540001,,,,,,,2021-09-10,1,,,,,アント,0
653,3010903006791,新規,0,2021-09-10,2021-09-10,ＴＲＫパートナーズ合同会社,,合同会社,東京都,世田谷区,桜上水４丁目１番Ｉ－７０７号,,13,112,1560045,,,,,,,2021-09-10,1,,,,,ティーアールケーパートナーズ,0
660,3011001142579,新規,0,2021-09-10,2021-09-10,凡盈株式会社,,株式会社,東京都,渋谷区,千駄ヶ谷５丁目３３番１６号シャトレー新宿御苑Ｉ－５０３,,13,113,1510051,,,,,,,2021-09-10,1,,,,,ハンエイ,0
661,3011001142653,新規,0,2021-09-10,2021-09-10,株式会社ＳＰ商事,,株式会社,東京都,渋谷区,代々木２丁目７番６号ＧＳハイム佐藤ビル４０５,,13,113,1510053,,,,,,,2021-09-10,1,,,,,エスピーショウジ,0
662,3011001142703,新規,0,2021-09-10,2021-09-10,イギアルホールディングス株式会社,,株式会社,東京都,渋谷区,恵比寿南１丁目１番１号ＨｕｍａｘＥｂｉｓｕ８Ｆ,,13,113,1500022,,,,,,,2021-09-10,1,,,,,イギアルホールディングス,0
663,3011001142711,新規,0,2021-09-10,2021-09-10,Ｓｅｒｅｎｅ　Ｅｎｔｅｒｐｒｉｓｅｓ株式会社,,株式会社,東京都,渋谷区,神宮前５丁目５番５号１０３Ｗ,,13,113,1500001,,,,,,,2021-09-10,1,,,,,セリーンエンタープライズ,0
664,3011001142744,新規,0,2021-09-10,2021-09-10,ＦＩＶＥＳＴＡＲ　ＢＡＮＫ株式会社,,株式会社,東京都,目黒区,上目黒２丁目１番１号,,13,110,1530051,,,,,,,2021-09-10,1,,,,,ファイブスターバンク,0
666,3011003013316,新規,0,2021-09-10,2021-09-10,Ａ’ＡＬＤＡ　ＰＡＲＴＮＥＲＳ４合同会社,,合同会社,東京都,渋谷区,松濤１丁目２８－２ＷｏｒｋＣｏｕｒｔ渋谷松濤,,13,113,1500046,,,,,,,2021-09-10,1,,,,,アルダパートナーズフォー,0
671,3011103011005,新規,0,2021-09-10,2021-09-10,合同会社Ｆ＆Ｂ,,合同会社,東京都,新宿区,北新宿４丁目３番５号,,13,104,1690074,,,,,,,2021-09-10,1,,,,,エフアンドビー,0
675,3011301027166,新規,0,2021-09-10,2021-09-10,株式会社ＤＰＳ,,株式会社,東京都,杉並区,成田東４丁目３番２－３０９号,,13,115,1660015,,,,,,,2021-09-10,1,,,,,ディーピーエス,0
676,3011303004163,新規,0,2021-09-10,2021-09-10,合同会社理晃エナジー,,合同会社,東京都,杉並区,高井戸東３丁目１０番３号,,13,115,1680072,,,,,,,2021-09-10,1,,,,,リコウエナジー,0
685,3011801039693,新規,0,2021-09-10,2021-09-10,Ｓｉｌｖｅｒ　Ｓｈｉｐ株式会社,,株式会社,東京都,足立区,綾瀬１丁目２３番１５号,,13,121,1200005,,,,,,,2021-09-10,1,,,,,シルバーシップ,0
689,3012403005019,新規,0,2021-09-10,2021-09-10,合同会社池袋ＯＫビル,,合同会社,東京都,小金井市,東町４丁目４０番１５号,,13,210,1840011,,,,,,,2021-09-10,1,,,,,イケブクロオーケービル,0
690,3012703002310,新規,0,2021-09-10,2021-09-10,合同会社ＷＡＬＫＷＩＴ,,合同会社,東京都,東久留米市,南沢１丁目１２番２２号アザレアガーデンＡ２０１,,13,222,2030023,,,,,,,2021-09-10,1,,,,,ウォークウィット,0
691,3012705002275,新規,0,2021-09-10,2021-09-10,医療法人社団隆清会,,その他の設立登記法人,東京都,小平市,花小金井南町１丁目１９番３号ＳＯＲＡ１階,,13,211,1870003,,,,,,,2021-09-10,1,,,,,リュウセイカイ,0
692,3013103001076,新規,0,2021-09-10,2021-09-10,ＩＦＮＥＳＳ　Ｅｎｔｅｒｔａｉｎｍｅｎｔ合同会社,,合同会社,東京都,青梅市,新町９丁目２０１６番地の１０ヴェレーナ青梅新町７２０号,,13,205,1980024,,,,,,,2021-09-10,1,,,,,イフネスエンターテイメント,0
693,3013303005819,新規,0,2021-09-10,2021-09-10,合同会社Ｒａｙ,,合同会社,東京都,豊島区,目白３丁目１８－７,,13,116,1710031,,,,,,,2021-09-10,1,,,,,レイ,0
699,3020001142935,新規,0,2021-09-10,2021-09-10,ＺｅｎＰｒｏｍｏｔｉｏｎ株式会社,,株式会社,神奈川県,横浜市港北区,綱島西２丁目１７番１２号１階,,14,109,2230053,,,,,,,2021-09-10,1,,,,,ゼンプロモーション,0
700,3020001142976,新規,0,2021-09-10,2021-09-10,株式会社Ｏｍｏｔｅｃｏｒｔ,,株式会社,神奈川県,横浜市西区,北幸１丁目１１番１号水信ビル７階,,14,103,2200004,,,,,,,2021-09-10,1,,,,,オモテコ,0
710,3021001073922,新規,0,2021-09-10,2021-09-10,株式会社Ｇｒｏｗ,,株式会社,神奈川県,大和市,鶴間２丁目１２－１８,,14,213,2420004,,,,,,,2021-09-10,1,,,,,グロウ,0
711,3021001073930,新規,0,2021-09-10,2021-09-10,ＥａｔＧｏｏｄＦｏｏｄ鎌倉山株式会社,,株式会社,神奈川県,鎌倉市,鎌倉山１丁目１３番３号,,14,204,2480031,,,,,,,2021-09-10,1,,,,,イートグッドフードカマクラヤマ,0
732,3030003017936,新規,0,2021-09-10,2021-09-10,アドカラーズ合同会社,,合同会社,埼玉県,さいたま市岩槻区,上野６丁目１１－３,,11,110,3390073,,,,,,,2021-09-10,1,,,,,アドカラーズ,0
733,3030005020517,新規,0,2021-09-10,2021-09-10,一般社団法人脱炭素社会推進協会,,その他の設立登記法人,埼玉県,坂戸市,大字森戸３２番地４,,11,239,3500244,,,,,,,2021-09-10,1,,,,,ダツタンソシャカイスイシンキョウカイ,0
740,3040001120154,新規,0,2021-09-10,2021-09-10,株式会社ＭＡＴＲＡエンジニアリング,,株式会社,千葉県,千葉市花見川区,こてはし台２丁目１－８,,12,102,2620005,,,,,,,2021-09-10,1,,,,,マトラエンジニアリング,0
745,3040003018504,新規,0,2021-09-10,2021-09-10,合同会社ＣＪＢ　ＥＮＴＥＲＰＲＩＳＥＳ,,合同会社,千葉県,白井市,根６７番地２６－１０４号室,,12,232,2701431,,,,,,,2021-09-10,1,,,,,シージェービーエンタープライセズ,0
759,3070001038427,新規,0,2021-09-10,2021-09-10,リノベ・スマイル株式会社,,株式会社,群馬県,沼田市,利根町多那２２４０番地,,10,206,3780317,,,,,,,2021-09-10,1,,,,,リノベスマイル,0
765,3080001024434,新規,0,2021-09-10,2021-09-10,株式会社ＮＯＡ,,株式会社,静岡県,静岡市清水区,梅ヶ谷１７２番地の１５,,22,103,4240001,,,,,,,2021-09-10,1,,,,,ノア,0
782,3120001240084,新規,0,2021-09-10,2021-09-10,株式会社Ｗｉｔｈ,,株式会社,大阪府,大阪市住之江区,安立３丁目８番１２号,,27,125,5590003,,,,,,,2021-09-10,1,,,,,ウィズ,0
783,3120001240316,新規,0,2021-09-10,2021-09-10,Ｋグループホールディングス株式会社,,株式会社,大阪府,大阪市福島区,玉川１丁目２番１５号,,27,103,5530004,,,,,,,2021-09-10,1,,,,,ケーグループホールディングス,0
784,3120001240349,新規,0,2021-09-10,2021-09-10,Ａｌｂａ　ｌｕｃｅ株式会社,,株式会社,大阪府,大阪市北区,菅原町２－１４－１０３ビル７Ｆ,,27,127,5300046,,,,,,,2021-09-10,1,,,,,アルバルーチェ,0
785,3120001240357,新規,0,2021-09-10,2021-09-10,株式会社ＦＴ　ＬＡＢ,,株式会社,大阪府,大阪市中央区,玉造１丁目２番３６号大阪農商ビル,,27,128,5400004,,,,,,,2021-09-10,1,,,,,エフティラボ,0
789,3120003020195,新規,0,2021-09-10,2021-09-10,合同会社Ｍａｒｃｄｏｒ,,合同会社,大阪府,大阪市中央区,日本橋２丁目１４番１７号,,27,128,5420073,,,,,,,2021-09-10,1,,,,,マルカドール,0
790,3120003020212,新規,0,2021-09-10,2021-09-10,合同会社つながりの手,,合同会社,大阪府,大阪市住吉区,南住吉２丁目８番２－１１０１,,27,120,5580041,,,,,,,2021-09-10,1,,,,,ツナガリノテ,0
792,3120105009442,新規,0,2021-09-10,2021-09-10,一般社団法人くまとりにぎわい観光協会,,その他の設立登記法人,大阪府,泉南郡熊取町,大久保中１丁目１７番１号,,27,361,5900403,,,,,,,2021-09-10,1,,,,,クマトリニギワイカンコウキョウカイ,0
806,3140001122999,新規,0,2021-09-10,2021-09-10,株式会社ウィットＡＬＰＨＡ,,株式会社,兵庫県,西宮市,木津山町７番１４号,,28,204,6620062,,,,,,,2021-09-10,1,,,,,ウィットアルファ,0
812,3160003002371,新規,0,2021-09-10,2021-09-10,合同会社Ｙｏｕ＆Ｍｅ,,合同会社,滋賀県,長浜市,木之本町木之本１０３２番地,,25,203,5290425,,,,,,,2021-09-10,1,,,,,ユーアンドミー,0
820,3180001147729,新規,0,2021-09-10,2021-09-10,株式会社Ｓｕｍｆｉｅｌｄ,,株式会社,愛知県,一宮市,木曽川町黒田六ノ通り１８－５,,23,203,4930001,,,,,,,2021-09-10,1,,,,,サムフィールド,0
821,3180001147786,新規,0,2021-09-10,2021-09-10,株式会社ＢアンドＢ,,株式会社,愛知県,稲沢市,野崎町本郷５６番地２,,23,220,4928447,,,,,,,2021-09-10,1,,,,,ビーアンドビー,0
822,3180001147794,新規,0,2021-09-10,2021-09-10,株式会社ファーマトップ,,株式会社,愛知県,春日井市,出川町３丁目３番地１２コスモ・ビリン２０２号,,23,206,4870025,,,,,,,2021-09-10,1,,,,,ファーマトップ,0
852,3290001094522,新規,0,2021-09-10,2021-09-10,株式会社ウィンズ,,株式会社,福岡県,福岡市東区,香椎照葉２丁目５番２－２０３号,,40,131,8130017,,,,,,,2021-09-10,1,,,,,ウィンズ,0
853,3290001094563,新規,0,2021-09-10,2021-09-10,株式会社ＡＧＥＮＴ　ＬＩＮＥ,,株式会社,福岡県,福岡市中央区,天神３丁目４番地９号ＧＧソーラービル６階,,40,133,8100001,,,,,,,2021-09-10,1,,,,,エージェントライン,0
854,3290001094571,新規,0,2021-09-10,2021-09-10,瑞穂株式会社,,株式会社,福岡県,福岡市博多区,住吉５丁目１９番２５号,,40,132,8120018,,,,,,,2021-09-10,1,,,,,ミズホ,0
856,3290801027755,新規,0,2021-09-10,2021-09-10,株式会社ボルクバレットジャパン,,株式会社,福岡県,北九州市八幡西区,陣原３丁目２３番９号,,40,109,8070821,,,,,,,2021-09-10,1,,,,,ボルクバレットジャパン,0
857,3290801027771,新規,0,2021-09-10,2021-09-10,株式会社信秀,,株式会社,福岡県,北九州市八幡西区,陣原５丁目９番９号,,40,109,8070821,,,,,,,2021-09-10,1,,,,,シンシュウ,0
859,3290805009469,新規,0,2021-09-10,2021-09-10,一般社団法人ＵＰ,,その他の設立登記法人,福岡県,北九州市小倉北区,熊本４丁目２番２６－４０２号,,40,106,8020044,,,,,,,2021-09-10,1,,,,,アップ,0
862,3320001018592,新規,0,2021-09-10,2021-09-10,株式会社晴結工業,,株式会社,大分県,大分市,大字猪野４３５番地の１４,,44,201,8700134,,,,,,,2021-09-10,1,,,,,セイユウコウギョウ,0
863,3330001028987,新規,0,2021-09-10,2021-09-10,株式会社サムライズ,,株式会社,熊本県,阿蘇郡西原村,大字布田１０４０番地１,,43,432,8612403,,,,,,,2021-09-10,1,,,,,サムライズ,0
865,3340001024093,新規,0,2021-09-10,2021-09-10,株式会社大幸建設,,株式会社,鹿児島県,霧島市,霧島川北９１番地,,46,218,8994204,,,,,,,2021-09-10,1,,,,,,0
867,3360001029363,新規,0,2021-09-10,2021-09-10,株式会社沖縄マテリアル輸送,,株式会社,沖縄県,浦添市,伊奈武瀬１丁目６番１号,,47,208,9012128,,,,,,,2021-09-10,1,,,,,オキナワマテリアルユソウ,0
887,3410003003567,新規,0,2021-09-10,2021-09-10,合資会社ミサト工業,,合資会社,秋田県,仙北郡美郷町,浪花字雨池１２８－５,,05,434,0191501,,,,,,,2021-09-10,1,,,,,ミサトコウギョウ,0
888,3420003002378,新規,0,2021-09-10,2021-09-10,合同会社デアルナ,,合同会社,青森県,八戸市,柏崎５丁目５番８号苅田マンション３０５,,02,203,0310081,,,,,,,2021-09-10,1,,,,,デアルナ,0
897,3430001084343,新規,0,2021-09-10,2021-09-10,グレイスランド株式会社,,株式会社,北海道,札幌市白石区,北郷八条８丁目３番１０号,,01,104,0030838,,,,,,,2021-09-10,1,,,,,グレイスランド,0
898,3430001084921,新規,0,2021-09-10,2021-09-10,株式会社コネクション,,株式会社,北海道,苫小牧市,拓勇西町５丁目８番６号,,01,213,0591302,,,,,,,2021-09-10,1,,,,,コネクション,0
899,3430001084938,新規,0,2021-09-10,2021-09-10,株式会社オレゴン,,株式会社,北海道,江別市,角山４６７番地の１,,01,217,0670052,,,,,,,2021-09-10,1,,,,,オレゴン,0
904,3440001008945,新規,0,2021-09-10,2021-09-10,株式会社ＫＥＮ　ＢＡＳＥ　ＪＡＰＡＮ,,株式会社,北海道,函館市,亀田港町１２番１７号,,01,202,0410822,,,,,,,2021-09-10,1,,,,,ケンベースジャパン,0
911,3500001023673,新規,0,2021-09-10,2021-09-10,株式会社パプリカファーム,,株式会社,愛媛県,宇和島市,三間町則１５８６,,38,203,7981102,,,,,,,2021-09-10,1,,,,,パプリカファーム,0
919,4010001220740,新規,0,2021-09-10,2021-09-10,株式会社ＳＰＡＣＥ,,株式会社,東京都,中央区,銀座１丁目２２番１１号,,13,102,1040061,,,,,,,2021-09-10,1,,,,,スペース,0
923,4010003035807,新規,0,2021-09-10,2021-09-10,合同会社ＰＲＩＭＡＲＹ　ＣＯＬＯＲＳ,,合同会社,東京都,中央区,銀座１丁目１５－７,,13,102,1040061,,,,,,,2021-09-10,1,,,,,プライマリーカラーズ,0
924,4010003035815,新規,0,2021-09-10,2021-09-10,合同会社山和経営研究所,,合同会社,東京都,千代田区,神田錦町２丁目２番地１１,,13,101,1010054,,,,,,,2021-09-10,1,,,,,サンワケイエイケンキュウジョ,0
925,4010005033932,新規,0,2021-09-10,2021-09-10,一般社団法人八重洲一丁目開発,,その他の設立登記法人,東京都,千代田区,丸の内３丁目１番１号東京共同会計事務所内,,13,101,1000005,,,,,,,2021-09-10,1,,,,,ヤエスイッチョウメカイハツ,0
926,4010005033949,新規,0,2021-09-10,2021-09-10,一般社団法人岡山津山ソーラー,,その他の設立登記法人,東京都,中央区,日本橋１丁目４番１号,,13,102,1030027,,,,,,,2021-09-10,1,,,,,オカヤマツヤマソーラー,0
945,4010601059918,新規,0,2021-09-10,2021-09-10,ダルワールド株式会社,,株式会社,東京都,江東区,亀戸３丁目３４－２２,,13,108,1360071,,,,,,,2021-09-10,1,,,,,ダルワールド,0
951,4010701041494,新規,0,2021-09-10,2021-09-10,株式会社アドファーム,,株式会社,東京都,品川区,上大崎２丁目３番４－４０３号,,13,109,1410021,,,,,,,2021-09-10,1,,,,,アドファーム,0
952,4010703005935,新規,0,2021-09-10,2021-09-10,合同会社ＧｒｅｅｎＰｏｗｅｒ,,合同会社,東京都,品川区,東五反田２丁目１０番２号,,13,109,1410022,,,,,,,2021-09-10,1,,,,,グリーンパワー,0
955,4010903006790,新規,0,2021-09-10,2021-09-10,富士箱根プロパティーズ合同会社,,合同会社,東京都,世田谷区,岡本３丁目３４番７号,,13,112,1570076,,,,,,,2021-09-10,1,,,,,フジハコネプロパティーズ,0
961,4011001142636,新規,0,2021-09-10,2021-09-10,Ｄｒｅａｍ株式会社,,株式会社,東京都,目黒区,八雲１丁目１番５号,,13,110,1520023,,,,,,,2021-09-10,1,,,,,ドリーム,0
962,4011001142693,新規,0,2021-09-10,2021-09-10,株式会社ＬＯＣＡＨＩ,,株式会社,東京都,渋谷区,宇田川町３－７ヒューリック渋谷公園通りビル５Ｆ,,13,113,1500042,,,,,,,2021-09-10,1,,,,,ロカヒ,0
963,4011001142735,新規,0,2021-09-10,2021-09-10,ソーシャル・アイディー株式会社,,株式会社,東京都,渋谷区,恵比寿２丁目２８番１０号ＳｈｕＢＬＤＧ２９４８,,13,113,1500013,,,,,,,2021-09-10,1,,,,,ソーシャルアイディー,0
968,4011003013380,新規,0,2021-09-10,2021-09-10,すまいの丘合同会社,,合同会社,東京都,渋谷区,渋谷３丁目１番９号ＹＡＺＡＷＡビル３階,,13,113,1500002,,,,,,,2021-09-10,1,,,,,スマイノオカ,0
973,4011103010963,新規,0,2021-09-10,2021-09-10,久堂合同会社,,合同会社,東京都,新宿区,高田馬場２丁目１４－６スワンビル５０２,,13,104,1690075,,,,,,,2021-09-10,1,,,,,クドウ,0
980,4011601025397,新規,0,2021-09-10,2021-09-10,株式会社ＡＢコーポレーション,,株式会社,東京都,練馬区,南大泉４丁目３４番２３号第３平野ハイツ１０８,,13,120,1780064,,,,,,,2021-09-10,1,,,,,エービーコーポレーション,0
987,4012403005018,新規,0,2021-09-10,2021-09-10,合同会社アトリエ・エピドール,,合同会社,東京都,多摩市,永山５丁目２４番地の５,,13,224,2060025,,,,,,,2021-09-10,1,,,,,アトリエエピドール,0
1009,4020003020452,新規,0,2021-09-10,2021-09-10,合同会社メガハウス,,合同会社,神奈川県,横浜市中区,桜木町１丁目１０１－１クロスゲート７階,,14,104,2310062,,,,,,,2021-09-10,1,,,,,メガハウス,0
1010,4020003020469,新規,0,2021-09-10,2021-09-10,クリエイティブワークス合同会社,,合同会社,神奈川県,横浜市神奈川区,栄町１９－８－５０２,,14,102,2210052,,,,,,,2021-09-10,1,,,,,クリエイティブワークス,0
1016,4021003010880,新規,0,2021-09-10,2021-09-10,合同会社Ｕ－企画,,合同会社,神奈川県,藤沢市,鵠沼海岸５丁目１番２２～１０３号,,14,205,2510037,,,,,,,2021-09-10,1,,,,,ユーキカク,0
1022,4030001144244,新規,0,2021-09-10,2021-09-10,株式会社スリーエス,,株式会社,埼玉県,熊谷市,塩１０３７番地９,,11,202,3600104,,,,,,,2021-09-10,1,,,,,スリーエス,0
1023,4030001144285,新規,0,2021-09-10,2021-09-10,ハナンＩＴソリューションズ株式会社,,株式会社,埼玉県,入間市,豊岡１丁目４番３４号,,11,225,3580003,,,,,,,2021-09-10,1,,,,,ハナンアイティソリューションズ,0
1028,4030005020490,新規,0,2021-09-10,2021-09-10,一般社団法人ＷＯＯＤＰＬＵＳ,,その他の設立登記法人,埼玉県,草加市,柿木町７１０番地１,,11,221,3400001,,,,,,,2021-09-10,1,,,,,ウッドプラス,0
1029,4030005020516,新規,0,2021-09-10,2021-09-10,一般社団法人サンドプレイヤーズ協会,,その他の設立登記法人,埼玉県,鶴ヶ島市,大字下新田５８３番地３７,,11,241,3502222,,,,,,,2021-09-10,1,,,,,サンドプレイヤーズキョウカイ,0
1039,4040003018503,新規,0,2021-09-10,2021-09-10,合同会社ＫＪＹＣ,,合同会社,千葉県,松戸市,新松戸北２丁目２２－２４－２０２,,12,207,2700032,,,,,,,2021-09-10,1,,,,,ケージェイワイシー,0
1041,4040005021348,新規,0,2021-09-10,2021-09-10,一般社団法人住まいる本舗会,,その他の設立登記法人,千葉県,大網白里市,北今泉２９４４番地４,,12,239,2993201,,,,,,,2021-09-10,1,,,,,スマイルホンポカイ,0
1051,4080001024433,新規,0,2021-09-10,2021-09-10,アイルＧＲＯＵＰ株式会社,,株式会社,静岡県,静岡市駿河区,鎌田５１－６,,22,102,4210133,,,,,,,2021-09-10,1,,,,,アイルグループ,0
1064,4120001240141,新規,0,2021-09-10,2021-09-10,株式会社ＡＩＮＣＸ,,株式会社,大阪府,大阪市城東区,蒲生２丁目７番１７号,,27,118,5360016,,,,,,,2021-09-10,1,,,,,アインクス,0
1065,4120001240190,新規,0,2021-09-10,2021-09-10,ジャフテック株式会社,,株式会社,大阪府,大阪市北区,梅田１丁目３番１号大阪駅前第一ビル８階,,27,127,5300001,,,,,,,2021-09-10,1,,,,,ジャフテック,0
1066,4120001240232,新規,0,2021-09-10,2021-09-10,株式会社ＨＲＳ,,株式会社,大阪府,門真市,上野口町４６番３１号,,27,223,5710070,,,,,,,2021-09-10,1,,,,,エイチアールエス,0
1067,4120001240273,新規,0,2021-09-10,2021-09-10,株式会社ユキ工業,,株式会社,大阪府,大阪市大正区,南恩加島４丁目５番１４号,,27,108,5510021,,,,,,,2021-09-10,1,,,,,ユキコウギョウ,0
1068,4120001240323,新規,0,2021-09-10,2021-09-10,株式会社物販科学研究所,,株式会社,大阪府,大阪市淀川区,十三東４丁目２番１５号十三アルヴィーダビル３階,,27,123,5320023,,,,,,,2021-09-10,1,,,,,ブッパンカガクケンキュウジョ,0
1069,4120001240348,新規,0,2021-09-10,2021-09-10,株式会社Ｆｌｏｒｅｎｔｉａ,,株式会社,大阪府,大阪市中央区,瓦町１丁目３－２,,27,128,5410048,,,,,,,2021-09-10,1,,,,,フロレンティア,0
1075,4120101064283,新規,0,2021-09-10,2021-09-10,第一電工株式会社,,株式会社,大阪府,泉大津市,旭町２２番４９－２０１号,,27,206,5950025,,,,,,,2021-09-10,1,,,,,ダイイチデンコウ,0
1081,4120903003819,新規,0,2021-09-10,2021-09-10,合同会社Ｏｎｅ　ｂｏｘ,,合同会社,大阪府,高槻市,萩之庄１丁目５－２９,,27,207,5690093,,,,,,,2021-09-10,1,,,,,ワンボックス,0
1091,4140001122998,新規,0,2021-09-10,2021-09-10,株式会社ＳＰＣ,,株式会社,兵庫県,西宮市,獅子ケ口町４番４８号,,28,204,6620026,,,,,,,2021-09-10,1,,,,,エスピーシー,0
1097,4160003002370,新規,0,2021-09-10,2021-09-10,合同会社ナオヨロシ,,合同会社,滋賀県,彦根市,元岡町８番地,,25,202,5220035,,,,,,,2021-09-10,1,,,,,ナオヨロシ,0
1118,4190001028679,新規,0,2021-09-10,2021-09-10,株式会社ＳＫＬ,,株式会社,三重県,津市,栗真町屋町１１３２番地１,,24,201,5140102,,,,,,,2021-09-10,1,,,,,エスケーエル,0
1136,4240005015263,新規,0,2021-09-10,2021-09-10,一般社団法人三和大地の力・未来,,その他の設立登記法人,広島県,三次市,三和町敷名１７５４番地,,34,209,7296702,,,,,,,2021-09-10,1,,,,,ミワダイチノチカラミライ,0
1140,4260003003672,新規,0,2021-09-10,2021-09-10,合同会社サンプロジェクト,,合同会社,岡山県,倉敷市,児島駅前４丁目６４番地の４,,33,202,7110921,,,,,,,2021-09-10,1,,,,,サンプロジェクト,0
1147,4290001094538,新規,0,2021-09-10,2021-09-10,株式会社獅子,,株式会社,福岡県,福岡市中央区,今泉１丁目１４番２１号グランピア天神２－Ｂ号室,,40,133,8100021,,,,,,,2021-09-10,1,,,,,シシ,0
1148,4290001094554,新規,0,2021-09-10,2021-09-10,株式会社足立電工,,株式会社,福岡県,朝倉市,甘木２０３６番地７,,40,228,8380068,,,,,,,2021-09-10,1,,,,,アダチデンコウ,0
1149,4290001094570,新規,0,2021-09-10,2021-09-10,株式会社ピースマン,,株式会社,福岡県,福岡市博多区,美野島３丁目２０番１６,,40,132,8120017,,,,,,,2021-09-10,1,,,,,ピースマン,0
1150,4290001094595,新規,0,2021-09-10,2021-09-10,株式会社ＧＴ,,株式会社,福岡県,福岡市博多区,堅粕４丁目１４番２２号スペーステック博多Ⅰ４０６号,00124194,40,132,8120043,,,,,,,2021-09-10,1,,,,,ジーティー,0
1151,4290003011607,新規,0,2021-09-10,2021-09-10,合同会社Ｃｕｒｔａｉｎ　Ｃａｌｌ,,合同会社,福岡県,福岡市中央区,天神２丁目３番１０号天神パインクレスト７１９号,,40,133,8100001,,,,,,,2021-09-10,1,,,,,カーテンコール,0
1157,4290801027762,新規,0,2021-09-10,2021-09-10,株式会社宗像電気,,株式会社,福岡県,直方市,大字感田８９４番地８４,,40,204,8220001,,,,,,,2021-09-10,1,,,,,ムナカタデンキ,0
1159,4290803003919,新規,0,2021-09-10,2021-09-10,合同会社西日本教育文化社,,合同会社,福岡県,北九州市小倉北区,浅野３丁目８番１号,,40,106,8020001,,,,,,,2021-09-10,1,,,,,ニシニホンキョウイクブンカシャ,0
1167,4330001028986,新規,0,2021-09-10,2021-09-10,株式会社華,,株式会社,熊本県,熊本市北区,植木町滴水１４７１番地９,,43,105,8610133,,,,,,,2021-09-10,1,,,,,ハナ,0
1172,4370001047586,新規,0,2021-09-10,2021-09-10,株式会社Ｓ　Ｐｌｕｓ,,株式会社,宮城県,仙台市太白区,西多賀２丁目７番５６号,,04,104,9820034,,,,,,,2021-09-10,1,,,,,エスプラス,0
1183,4410001012957,新規,0,2021-09-10,2021-09-10,ファームあきあかね株式会社,,株式会社,秋田県,能代市,外荒巻字家ノ下８２番地,,05,202,0160001,,,,,,,2021-09-10,1,,,,,,0
1190,4430001084929,新規,0,2021-09-10,2021-09-10,株式会社ｐｏｏｌ,,株式会社,北海道,札幌市中央区,北五条西２５丁目１番１２号東和ビル４０１,,01,101,0640825,,,,,,,2021-09-10,1,,,,,プール,0
1192,4430005014270,新規,0,2021-09-10,2021-09-10,医療法人まどかレディースクリニック,,その他の設立登記法人,北海道,札幌市中央区,大通西５丁目８番地昭和ビル９Ｆ,,01,101,0600042,,,,,,,2021-09-10,1,,,,,マドカレディースクリニック,0
1219,5010001221044,新規,0,2021-09-10,2021-09-10,株式会社マルクパージュ,,株式会社,東京都,中央区,日本橋人形町２丁目３０番４－７０２号,,13,102,1030013,,,,,,,2021-09-10,1,,,,,マルクパージュ,0
1222,5010003035789,新規,0,2021-09-10,2021-09-10,合同会社ＡＬＥＲＯ６０,,合同会社,東京都,千代田区,神田美土代町９番１号,,13,101,1010053,,,,,,,2021-09-10,1,,,,,アレーロシックスティー,0
1223,5010003035806,新規,0,2021-09-10,2021-09-10,ペイジオブペンタクル合同会社,,合同会社,東京都,中央区,銀座１丁目２７－７銀座里村ビル２階,,13,102,1040061,,,,,,,2021-09-10,1,,,,,,0
1227,5010005033948,新規,0,2021-09-10,2021-09-10,一般社団法人所沢山口,,その他の設立登記法人,東京都,中央区,日本橋１丁目４番１号日本橋一丁目ビルディング,,13,102,1030027,,,,,,,2021-09-10,1,,,,,トコロザワヤマグチ,0
1228,5010101014851,新規,0,2021-09-10,2021-09-10,株式会社Ｎｅｏｆｉｎｉｔｙ,,株式会社,東京都,八王子市,下柚木２丁目２７番地５－３０１号,,13,201,1920372,,,,,,,2021-09-10,1,,,,,,0
1238,5010401162631,新規,0,2021-09-10,2021-09-10,生き活きネット株式会社,,株式会社,東京都,港区,赤坂２丁目１０番７号,,13,103,1070052,,,,,,,2021-09-10,1,,,,,イキイキネット,0
1241,5010403026090,新規,0,2021-09-10,2021-09-10,ベーカー合同会社,,合同会社,東京都,港区,三田５丁目８番１６号,,13,103,1080073,,,,,,,2021-09-10,1,,,,,ベーカー,0
1242,5010403026099,新規,0,2021-09-10,2021-09-10,ＳＫａＹ合同会社,,合同会社,東京都,港区,北青山２丁目７－２０猪瀬ビル２Ｆ,,13,103,1070061,,,,,,,2021-09-10,1,,,,,スカイ,0
1244,5010503006380,新規,0,2021-09-10,2021-09-10,合同会社東京内職,,合同会社,東京都,台東区,鳥越１丁目５番２号,,13,106,1110054,,,,,,,2021-09-10,1,,,,,トウキョウナイショク,0
1249,5010601059900,新規,0,2021-09-10,2021-09-10,株式会社竹徳ホールディングス,,株式会社,東京都,墨田区,立川３丁目１８番１４号,,13,107,1300023,,,,,,,2021-09-10,1,,,,,タケトクホールディングス,0
1251,5010605003994,新規,0,2021-09-10,2021-09-10,一般社団法人Ｂｅｅｓｌｏｗ,,その他の設立登記法人,東京都,江東区,白河１丁目３番１号,,13,108,1350021,,,,,,,2021-09-10,1,,,,,ビースロー,0
1253,5010801032285,新規,0,2021-09-10,2021-09-10,株式会社Ｓｈａｐｅ　Ｆｉｔ,,株式会社,東京都,大田区,大森北５丁目１５番４号フェニックス大森３０３,,13,111,1430016,,,,,,,2021-09-10,1,,,,,シェイプフィット,0
1261,5011001142692,新規,0,2021-09-10,2021-09-10,株式会社星めぐり社,,株式会社,東京都,目黒区,緑が丘１丁目２１－２林ビル１Ｆ,,13,110,1520034,,,,,,,2021-09-10,1,,,,,ホシメグリシャ,0
1262,5011001142701,新規,0,2021-09-10,2021-09-10,株式会社Ｊａｐａｎｅｗ,,株式会社,東京都,渋谷区,広尾３丁目２番９号,,13,113,1500012,,,,,,,2021-09-10,1,,,,,ジャパニュー,0
1265,5011101096178,新規,0,2021-09-10,2021-09-10,株式会社保険メンテナンス,,株式会社,東京都,新宿区,新宿５丁目１７番１８号,,13,104,1600022,,,,,,,2021-09-10,1,,,,,ホケンメンテナンス,0
1266,5011103011003,新規,0,2021-09-10,2021-09-10,合同会社カシポム,,合同会社,東京都,新宿区,西新宿７丁目５番５号Ｐｌａｚａ西新宿ＵＣＦ４階,,13,104,1600023,,,,,,,2021-09-10,1,,,,,カシポム,0
1272,5011301027172,新規,0,2021-09-10,2021-09-10,マトク商事株式会社,,株式会社,東京都,杉並区,上高井戸３丁目２番２０号上高井戸ヒミコマンション３０３,,13,115,1680074,,,,,,,2021-09-10,1,,,,,マトクショウジ,0
1275,5011503004886,新規,0,2021-09-10,2021-09-10,合同会社ＧＰＰ,,合同会社,東京都,北区,浮間１丁目１番１４号リムジンビル３４３,,13,117,1150051,,,,,,,2021-09-10,1,,,,,ジーピーピー,0
1280,5011801039691,新規,0,2021-09-10,2021-09-10,株式会社橋本商店,,株式会社,東京都,葛飾区,柴又１丁目６番９号,,13,122,1250052,,,,,,,2021-09-10,1,,,,,ハシモトショウテン,0
1284,5012801021078,新規,0,2021-09-10,2021-09-10,株式会社サンタミュージックオフィス,,株式会社,東京都,国立市,北２丁目１０番の１８,,13,215,1860001,,,,,,,2021-09-10,1,,,,,サンタミュージックオフィス,0
1297,5020001142974,新規,0,2021-09-10,2021-09-10,株式会社玉山工業,,株式会社,神奈川県,横浜市磯子区,杉田５丁目２番５０号,,14,107,2350033,,,,,,,2021-09-10,1,,,,,タマヤマコウギョウ,0
1301,5020003020468,新規,0,2021-09-10,2021-09-10,Ｅｎａｓｕｎ合同会社,,合同会社,神奈川県,川崎市宮前区,土橋７丁目２８番地２３,,14,136,2160005,,,,,,,2021-09-10,1,,,,,エナサン,0
1302,5020005015202,新規,0,2021-09-10,2021-09-10,ＫＹＯＡＩ横浜協同組合,,その他の設立登記法人,神奈川県,横浜市瀬谷区,宮沢３丁目２９番地１４,,14,114,2460038,,,,,,,2021-09-10,1,,,,,キョウアイヨコハマ,0
1315,5030001144169,新規,0,2021-09-10,2021-09-10,ＤＯＧ株式会社,,株式会社,埼玉県,さいたま市大宮区,浅間町２丁目１２４番地１,,11,103,3300842,,,,,,,2021-09-10,1,,,,,ドッグ,0
1316,5030001144284,新規,0,2021-09-10,2021-09-10,株式会社ＫＭＴ,,株式会社,埼玉県,朝霞市,根岸台８丁目７番４４－３１１号,,11,227,3510005,,,,,,,2021-09-10,1,,,,,ケイエムティ,0
1321,5030005020515,新規,0,2021-09-10,2021-09-10,一般社団法人幼児プログラミング協会,,その他の設立登記法人,埼玉県,さいたま市北区,宮原町４丁目３番１２号ナーサリールームマザーリング,,11,102,3310812,,,,,,,2021-09-10,1,,,,,ヨウジプログラミングキョウカイ,0
1328,5040001120160,新規,0,2021-09-10,2021-09-10,Ｒｏｔｉｒ株式会社,,株式会社,千葉県,市川市,市川南３丁目１－１アプロード市川４１８,,12,203,2720033,,,,,,,2021-09-10,1,,,,,ロティール,0
1336,5040003018444,新規,0,2021-09-10,2021-09-10,石崎工業合同会社,,合同会社,千葉県,旭市,三川６６５４番地４,,12,215,2892714,,,,,,,2021-09-10,1,,,,,イシザキコウギョウ,0
1337,5040003018502,新規,0,2021-09-10,2021-09-10,合同会社スター吸角鍼灸整骨院,,合同会社,千葉県,千葉市若葉区,桜木６丁目２３番３７号ルミネ桜木１０２号,,12,104,2640028,,,,,,,2021-09-10,1,,,,,スターキュウカクシンキュウセイコツイン,0
1338,5040005021347,新規,0,2021-09-10,2021-09-10,一般社団法人遊心堂,,その他の設立登記法人,千葉県,松戸市,稔台３丁目４６番地の１８,,12,207,2702231,,,,,,,2021-09-10,1,,,,,ユウシンドウ,0
1339,5050001049762,新規,0,2021-09-10,2021-09-10,ＷＳ　ＮＩＳＥＫＯ株式会社,,株式会社,茨城県,龍ケ崎市,３２６１番地メゾン・サンライズ５１－１０２号,,08,208,3010000,,,,,,,2021-09-10,1,,,,,ダブリューエスニセコ,0
1351,5070001038425,新規,0,2021-09-10,2021-09-10,株式会社青木塗装,,株式会社,群馬県,前橋市,江木町１３４１番地２７,,10,201,3710002,,,,,,,2021-09-10,1,,,,,アオキトソウ,0
1356,5080401025336,新規,0,2021-09-10,2021-09-10,株式会社スギヤマ,,株式会社,静岡県,磐田市,竜洋中島１６６８－２,,22,211,4380201,,,,,,,2021-09-10,1,,,,,スギヤマ,0
1358,5080403004362,新規,0,2021-09-10,2021-09-10,合同会社ここぷらった,,合同会社,静岡県,浜松市西区,大平台３丁目３２－２４グリーンヴェール１０１,,22,133,4328068,,,,,,,2021-09-10,1,,,,,ココプラッタ,0
1383,5120001240256,新規,0,2021-09-10,2021-09-10,株式会社茜丸マーケティングＬＡＢＯ．,,株式会社,大阪府,大阪市天王寺区,大道２丁目１３－１５,,27,109,5430052,,,,,,,2021-09-10,1,,,,,アカネマルマーケティングラボ,0
1384,5120001240289,新規,0,2021-09-10,2021-09-10,インフルエンサーズ株式会社,,株式会社,大阪府,大阪市中央区,平野町２丁目２番７－６０１,,27,128,5410046,,,,,,,2021-09-10,1,,,,,インフルエンサーズ,0
1385,5120001240363,新規,0,2021-09-10,2021-09-10,仁和ロジスティック株式会社,,株式会社,大阪府,大阪市淀川区,西宮原２丁目６－４１－２０３,,27,123,5320004,,,,,,,2021-09-10,1,,,,,ジンワロジスティック,0
1390,5120003020169,新規,0,2021-09-10,2021-09-10,プロテアフロウ合同会社,,合同会社,大阪府,大阪市西区,北堀江１丁目１番２号都市開発ビル４１１,,27,106,5500014,,,,,,,2021-09-10,1,,,,,プロテアフロウ,0
1409,5140003016735,新規,0,2021-09-10,2021-09-10,合同会社ＴＡＫＥ,,合同会社,兵庫県,西宮市,甲子園砂田町６番２０号,,28,204,6638162,,,,,,,2021-09-10,1,,,,,テイク,0
1422,5180001147776,新規,0,2021-09-10,2021-09-10,株式会社ＷＥＬＧＲＥＥＮ,,株式会社,愛知県,知多郡阿久比町,大字卯坂字坂部１９番地,,23,441,4702212,,,,,,,2021-09-10,1,,,,,ウェルグリーン,0
1423,5180001147801,新規,0,2021-09-10,2021-09-10,株式会社ナイトメアスタジオ,,株式会社,愛知県,丹羽郡大口町,余野３丁目９０,,23,361,4800146,,,,,,,2021-09-10,1,,,,,ナイトメアスタジオ,0
1452,5290001094553,新規,0,2021-09-10,2021-09-10,株式会社ＮＥＸＴ　ＩＮＮＯＶＡＴＩＯＮ,,株式会社,福岡県,大牟田市,南船津町４丁目１２－５－２０３,,40,202,8360075,,,,,,,2021-09-10,1,,,,,ネクストイノベーション,0
1453,5290001094586,新規,0,2021-09-10,2021-09-10,株式会社Ｊ－Ｗｏｒｋｓ,,株式会社,福岡県,飯塚市,平恒４３２番地５,,40,205,8200073,,,,,,,2021-09-10,1,,,,,ジェイワークス,0
1454,5290003011597,新規,0,2021-09-10,2021-09-10,合同会社ラグナル,,合同会社,福岡県,福岡市早良区,内野３丁目１８番１号,,40,137,8111123,,,,,,,2021-09-10,1,,,,,ラグナル,0
1459,5290801027761,新規,0,2021-09-10,2021-09-10,株式会社ＧＲＡＰＥ　ＢＲＡＩＮ,,株式会社,福岡県,北九州市小倉南区,蜷田若園３丁目８番１２号,,40,107,8020814,,,,,,,2021-09-10,1,,,,,グレイプブレイン,0
1460,5290803003918,新規,0,2021-09-10,2021-09-10,合同会社ＴＳカンパニー,,合同会社,福岡県,遠賀郡水巻町,二東３丁目１８番１６号,,40,382,8070054,,,,,,,2021-09-10,1,,,,,ティーエスカンパニー,0
1489,5400001015596,新規,0,2021-09-10,2021-09-10,株式会社ＮＥＸＴ,,株式会社,岩手県,盛岡市,向中野６丁目２番４３－３０３号,,03,201,0200851,,,,,,,2021-09-10,1,,,,,ネクスト,0
1495,5430001084928,新規,0,2021-09-10,2021-09-10,株式会社ベストファイナンシャルサービス,,株式会社,北海道,札幌市北区,南あいの里６丁目１０番１号,,01,102,0028091,,,,,,,2021-09-10,1,,,,,ベストファイナンシャルサービス,0
1496,5430001084936,新規,0,2021-09-10,2021-09-10,株式会社リコ,,株式会社,北海道,札幌市手稲区,新発寒六条８丁目５番１号,,01,109,0060806,,,,,,,2021-09-10,1,,,,,リコ,0
1501,5430003013125,新規,0,2021-09-10,2021-09-10,合同会社Ｔｈｙｏｎｅ,,合同会社,北海道,札幌市東区,北二十二条東３丁目１番４１号,,01,103,0650022,,,,,,,2021-09-10,1,,,,,シオネ,0
1502,5450001013471,新規,0,2021-09-10,2021-09-10,株式会社ひとまち,,株式会社,北海道,旭川市,末広東二条６丁目２番７号,,01,204,0718122,,,,,,,2021-09-10,1,,,,,ヒトマチ,0
1507,5500001023630,新規,0,2021-09-10,2021-09-10,富多株式会社,,株式会社,愛媛県,西条市,下島山甲７０６番地１３,,38,206,7930006,,,,,,,2021-09-10,1,,,,,トミタ,0
1520,6010001219005,新規,0,2021-09-10,2021-09-10,株式会社アールデザイン,,株式会社,東京都,文京区,千駄木１丁目２２番３０号,,13,105,1130022,,,,,,,2021-09-10,1,,,,,アールデザイン,0
1522,6010003035788,新規,0,2021-09-10,2021-09-10,合同会社ＡＬＥＲＯ５９,,合同会社,東京都,千代田区,神田美土代町９番１号,,13,101,1010053,,,,,,,2021-09-10,1,,,,,アレーロフィフティーナイン,0
1523,6010003035796,新規,0,2021-09-10,2021-09-10,合同会社ワイサポート,,合同会社,東京都,中央区,日本橋箱崎町１５番３－６０１号,,13,102,1030015,,,,,,,2021-09-10,1,,,,,ワイサポート,0
1532,6010401162622,新規,0,2021-09-10,2021-09-10,ＡｔａｒｉＰｕｎｋ　Ｔｏｋｙｏ株式会社,,株式会社,東京都,港区,元麻布３丁目１３番１５号グランカーサ元麻布００２,,13,103,1060046,,,,,,,2021-09-10,1,,,,,アタリパンクトウキョウ,0
1542,6010601059916,新規,0,2021-09-10,2021-09-10,ＧＨ　Ｔｅｃｈ株式会社,,株式会社,東京都,江東区,豊洲６丁目２番３１号,,13,108,1350061,,,,,,,2021-09-10,1,,,,,ジーエイチテック,0
1543,6010605003993,新規,0,2021-09-10,2021-09-10,特定非営利活動法人リーブノートレイスジャパン,,その他の設立登記法人,東京都,墨田区,吾妻橋１丁目１０番３号,,13,107,1300001,,,,,,,2021-09-10,1,,,,,リーブノートレイスジャパン,0
1552,6011001142642,新規,0,2021-09-10,2021-09-10,株式会社イユアーキテクチャー,,株式会社,東京都,目黒区,鷹番３丁目１０番４号,,13,110,1520004,,,,,,,2021-09-10,1,,,,,イユアーキテクチャー,0
1553,6011003013313,新規,0,2021-09-10,2021-09-10,合同会社アセット,,合同会社,東京都,渋谷区,代々木１丁目５３番１－２００２号,,13,113,1510053,,,,,,,2021-09-10,1,,,,,アセット,0
1554,6011003013338,新規,0,2021-09-10,2021-09-10,ＩＮＤコンサルティング合同会社,,合同会社,東京都,目黒区,五本木３丁目１８番１３－７０３号,,13,110,1530053,,,,,,,2021-09-10,1,,,,,アイエヌディーコンサルティング,0
1556,6011101096193,新規,0,2021-09-10,2021-09-10,株式会社アップセール,,株式会社,東京都,新宿区,新宿１丁目８番１号大橋御苑駅ビル７階,,13,104,1600022,,,,,,,2021-09-10,1,,,,,アップセール,0
1557,6011101096251,新規,0,2021-09-10,2021-09-10,株式会社ひまわり堂,,株式会社,東京都,新宿区,新宿１丁目２９番５号グランドメゾン新宿東２０７号室,,13,104,1600022,,,,,,,2021-09-10,1,,,,,ヒマワリドウ,0
1563,6011303004169,新規,0,2021-09-10,2021-09-10,合同会社サンビレッジ,,合同会社,東京都,杉並区,成田東４丁目１１番１６号テレパレス阿佐ヶ谷の杜１－３０２,,13,115,1660015,,,,,,,2021-09-10,1,,,,,サンビレッジ,0
1567,6011605002399,新規,0,2021-09-10,2021-09-10,医療法人社団真仁心会,,その他の設立登記法人,東京都,練馬区,石神井台４丁目７番地３号石神井台クリニックモール２階,,13,120,1770045,,,,,,,2021-09-10,1,,,,,シンジンシンカイ,0
1574,6012301012700,新規,0,2021-09-10,2021-09-10,アップストリーム株式会社,,株式会社,東京都,町田市,原町田２丁目８番１号太陽ビル２１・４０１,,13,209,1940013,,,,,,,2021-09-10,1,,,,,アップストリーム,0
1575,6012401038273,新規,0,2021-09-10,2021-09-10,株式会社グリモアスタジオジャパン,,株式会社,東京都,武蔵野市,吉祥寺北町４丁目１番２７－２１４号レジデンスコート吉祥寺,,13,203,1800001,,,,,,,2021-09-10,1,,,,,グリモアスタジオジャパン,0
1578,6012703002308,新規,0,2021-09-10,2021-09-10,ｉ　Ｐｒｏｄｕｃｔｉｏｎ合同会社,,合同会社,東京都,東村山市,本町１丁目８－３９ルミエール久米川２０５,,13,213,1890014,,,,,,,2021-09-10,1,,,,,アイプロダクション,0
1579,6012801021077,新規,0,2021-09-10,2021-09-10,株式会社加藤建装,,株式会社,東京都,武蔵村山市,三ツ藤３丁目２４番地の５,,13,223,2080021,,,,,,,2021-09-10,1,,,,,カトウケンソウ,0
1586,6020001142973,新規,0,2021-09-10,2021-09-10,株式会社ガチメタル,,株式会社,神奈川県,川崎市高津区,蟹ケ谷２０９番地５ヒルステージ日吉７０１,,14,134,2130025,,,,,,,2021-09-10,1,,,,,ガチメタル,0
1590,6020003020459,新規,0,2021-09-10,2021-09-10,ナムチャイ合同会社,,合同会社,神奈川県,横浜市中区,若葉町３丁目５１番地一二三ビル３０１号室,,14,104,2310056,,,,,,,2021-09-10,1,,,,,ナムチャイ,0
1591,6020003020467,新規,0,2021-09-10,2021-09-10,合同会社ＹＯ税務会計コンサル,,合同会社,神奈川県,横浜市港北区,新吉田東４丁目７番１８号,,14,109,2230058,,,,,,,2021-09-10,1,,,,,ワイオーゼイムカイケイコンサル,0
1604,6030001144151,新規,0,2021-09-10,2021-09-10,株式会社一爽,,株式会社,埼玉県,飯能市,美杉台３丁目１番地５,,11,209,3570041,,,,,,,2021-09-10,1,,,,,イッソウ,0
1613,6030003017917,新規,0,2021-09-10,2021-09-10,合同会社ケーエムユー,,合同会社,埼玉県,川口市,本町２丁目６番２５－４２２号,,11,203,3320012,,,,,,,2021-09-10,1,,,,,ケーエムユー,0
1629,6040003018501,新規,0,2021-09-10,2021-09-10,Ｃｌｅａｎ　Ｌｉｇｈｔ　Ｃｏｍｐｕｔｅｒ合同会社,,合同会社,千葉県,市川市,塩浜４丁目２番５２棟２０２号（ハイタウン塩浜）,,12,203,2720127,,,,,,,2021-09-10,1,,,,,クリーンライトコンピューター,0
1641,6070001038424,新規,0,2021-09-10,2021-09-10,株式会社パンドラ,,株式会社,群馬県,高崎市,中尾町７７番地７ＭＤハイツ２１１号,,10,202,3700001,,,,,,,2021-09-10,1,,,,,パンドラ,0
1667,6120001240255,新規,0,2021-09-10,2021-09-10,ＰＩＸＥＬ　ＰＯＷＥＲ株式会社,,株式会社,大阪府,大阪市港区,波除６丁目５番１８号安治川コールウェアハウス３Ｆ,,27,107,5520001,,,,,,,2021-09-10,1,,,,,ピクセルパワー,0
1668,6120001240305,新規,0,2021-09-10,2021-09-10,オウンスタイル株式会社,,株式会社,大阪府,大阪市淀川区,木川西４丁目１－３１,,27,123,5320013,,,,,,,2021-09-10,1,,,,,オウンスタイル,0
1669,6120001240313,新規,0,2021-09-10,2021-09-10,株式会社ＪＯＥＴＡＬＫ,,株式会社,大阪府,大阪市北区,堂島２丁目２番３８号,,27,127,5300003,,,,,,,2021-09-10,1,,,,,ジョートーク,0
1670,6120001240338,新規,0,2021-09-10,2021-09-10,Ｕｔｏｐｉａ株式会社,,株式会社,大阪府,大阪市中央区,島之内２丁目１９－１５コーポシャペル６０６,,27,128,5420082,,,,,,,2021-09-10,1,,,,,ユートピア,0
1671,6120001240370,新規,0,2021-09-10,2021-09-10,株式会社ＲＩＧＨＴ,,株式会社,大阪府,大阪市阿倍野区,昭和町４丁目２－２６,,27,119,5450011,,,,,,,2021-09-10,1,,,,,ライト,0
1683,6120103004343,新規,0,2021-09-10,2021-09-10,合同会社明王,,合同会社,大阪府,松原市,岡７丁目２３９番地,,27,217,5800014,,,,,,,2021-09-10,1,,,,,メイオウ,0
1695,6140003016734,新規,0,2021-09-10,2021-09-10,合同会社ジェネシス,,合同会社,兵庫県,神戸市東灘区,御影山手５丁目２２番２４号,,28,101,6580065,,,,,,,2021-09-10,1,,,,,ジェネシス,0
1709,6180001147783,新規,0,2021-09-10,2021-09-10,株式会社Ｌｕ．ｎａ,,株式会社,愛知県,愛西市,東保町権右３０番地,,23,232,4960912,,,,,,,2021-09-10,1,,,,,ルナ,0
1715,6180003022910,新規,0,2021-09-10,2021-09-10,合同会社２２５,,合同会社,愛知県,名古屋市守山区,大字上志段味字東谷２０８６番地の２８,,23,113,4630001,,,,,,,2021-09-10,1,,,,,ニーニーゴ,0
1716,6180003022935,新規,0,2021-09-10,2021-09-10,上村合同会社,,合同会社,愛知県,名古屋市千種区,小松町６丁目１１番地の３レスカール大久手４０１号,,23,101,4640853,,,,,,,2021-09-10,1,,,,,ウエムラ,0
1719,6180301035358,新規,0,2021-09-10,2021-09-10,三州フットボールクラブ株式会社,,株式会社,愛知県,岡崎市,康生通南３丁目２,,23,202,4440044,,,,,,,2021-09-10,1,,,,,サンシュウフットボールクラブ,0
1730,6230001018979,新規,0,2021-09-10,2021-09-10,株式会社今を生きる,,株式会社,富山県,高岡市,駅南１丁目３番７号グラン・ラドゥーノ１２０２,,16,202,9330871,,,,,,,2021-09-10,1,,,,,イマヲイキル,0
1736,6260001035955,新規,0,2021-09-10,2021-09-10,セリオデジタルドリブン株式会社,,株式会社,岡山県,岡山市中区,原尾島３丁目１６番４号,,33,102,7038235,,,,,,,2021-09-10,1,,,,,セリオデジタルドリブン,0
1742,6290003011596,新規,0,2021-09-10,2021-09-10,合同会社ＳＨＥＬＴＩＥ,,合同会社,福岡県,福岡市博多区,東平尾２丁目４番１７号,,40,132,8120853,,,,,,,2021-09-10,1,,,,,シェルティ,0
1747,6290803003917,新規,0,2021-09-10,2021-09-10,ソフィアインターナショナル合同会社,,合同会社,福岡県,北九州市門司区,西海岸１丁目４番７号,,40,101,8010841,,,,,,,2021-09-10,1,,,,,ソフィアインターナショナル,0
1751,6330001028976,新規,0,2021-09-10,2021-09-10,株式会社リペアボックス,,株式会社,熊本県,菊池市,七城町清水１１６番地,,43,210,8611341,,,,,,,2021-09-10,1,,,,,リペアボックス,0
1755,6350003003918,新規,0,2021-09-10,2021-09-10,合同会社西日本芹幸福祉会,,合同会社,宮崎県,宮崎市,小戸町８６番地,,45,201,8800857,,,,,,,2021-09-10,1,,,,,ニシニホンキンコウフクシカイ,0
1756,6360003011432,新規,0,2021-09-10,2021-09-10,ブラボー通商合同会社,,合同会社,沖縄県,那覇市,牧志３丁目５番４号,,47,201,9000013,,,,,,,2021-09-10,1,,,,,ブラボーツウショウ,0
1785,6430001084919,新規,0,2021-09-10,2021-09-10,株式会社ＳＡＮＺＵＩ,,株式会社,北海道,苫小牧市,明野新町６丁目２１番２０号,,01,213,0530054,,,,,,,2021-09-10,1,,,,,サンズイ,0
1786,6430001084927,新規,0,2021-09-10,2021-09-10,株式会社日本ジョーティシュ出版,,株式会社,北海道,恵庭市,島松仲町２丁目４番１２号,,01,231,0611352,,,,,,,2021-09-10,1,,,,,ニホンジョーティシュシュッパン,0
1789,6430003013116,新規,0,2021-09-10,2021-09-10,合同会社ヨーグルト,,合同会社,北海道,札幌市北区,北三十条西１１丁目３番７号,,01,102,0010030,,,,,,,2021-09-10,1,,,,,ヨーグルト,0
1790,6430003013132,新規,0,2021-09-10,2021-09-10,合同会社Ｃｏｒｅｓ,,合同会社,北海道,札幌市北区,新川西四条４丁目１０－６,,01,102,0010934,,,,,,,2021-09-10,1,,,,,コアーズ,0
1794,6460101007058,新規,0,2021-09-10,2021-09-10,株式会社ルーツケア,,株式会社,北海道,帯広市,大通南１６丁目１２番地１ＣＥＮＴＥＲＣＩＴＹ⑤１００５号室,00124193,01,207,0800010,,,,,,,2021-09-10,1,,,,,ルーツケア,0
1808,7010003035795,新規,0,2021-09-10,2021-09-10,合同会社ＦＵＪＩＬＩＮＫＳ,,合同会社,東京都,中央区,月島４丁目１２番１２号大増ビル４０１号,,13,102,1040052,,,,,,,2021-09-10,1,,,,,フジリンクス,0
1809,7010003035812,新規,0,2021-09-10,2021-09-10,合同会社ＴＳＵＣＨＩＹＡサポート,,合同会社,東京都,千代田区,外神田３丁目６－４第一勧業信用組合秋葉原ビル５階,,13,101,1010021,,,,,,,2021-09-10,1,,,,,ツチヤサポート,0
1810,7010005033921,新規,0,2021-09-10,2021-09-10,一般社団法人近未来ハイスクール,,その他の設立登記法人,東京都,千代田区,一番町２３－２,,13,101,1020082,,,,,,,2021-09-10,1,,,,,キンミライハイスクール,0
1815,7010405020180,新規,0,2021-09-10,2021-09-10,ＳＣＧ６６一般社団法人,,その他の設立登記法人,東京都,港区,虎ノ門４丁目１番２８号,,13,103,1050001,,,,,,,2021-09-10,1,,,,,エスシージーシックスティシックス,0
1816,7010405020189,新規,0,2021-09-10,2021-09-10,医療法人社団令和会,,その他の設立登記法人,東京都,港区,新橋２丁目１２番１６号明和ビル３階,,13,103,1050004,,,,,,,2021-09-10,1,,,,,レイワカイ,0
1841,7011001142641,新規,0,2021-09-10,2021-09-10,株式会社プロジェクトシックス,,株式会社,東京都,渋谷区,千駄ヶ谷５丁目１３番１８号,,13,113,1510051,,,,,,,2021-09-10,1,,,,,プロジェクトシックス,0
1842,7011001142658,新規,0,2021-09-10,2021-09-10,株式会社Ａ－Ｓｍｉｌｅ,,株式会社,東京都,渋谷区,桜丘町１５番１４号フジビル４０・７Ｆ,,13,113,1500031,,,,,,,2021-09-10,1,,,,,エースマイル,0
1844,7011003013312,新規,0,2021-09-10,2021-09-10,ゴートグループジャパン合同会社,,合同会社,東京都,渋谷区,神宮前３丁目３２番５号,,13,113,1500001,,,,,,,2021-09-10,1,,,,,ゴートグループジャパン,0
1845,7011003013320,新規,0,2021-09-10,2021-09-10,Ｅｌｅｎａ合同会社,,合同会社,東京都,渋谷区,神宮前６丁目２３番４号桑野ビル２階,,13,113,1500001,,,,,,,2021-09-10,1,,,,,エレナ,0
1846,7011003013378,新規,0,2021-09-10,2021-09-10,テンペスト・キャピタル合同会社,,合同会社,東京都,渋谷区,広尾４丁目１番８－４０５号,,13,113,1500012,,,,,,,2021-09-10,1,,,,,テンペストキャピタル,0
1848,7011101096234,新規,0,2021-09-10,2021-09-10,株式会社ＳＰ－ＥＡＫ,,株式会社,東京都,新宿区,歌舞伎町２丁目１１番７号メトロビル６階,,13,104,1600021,,,,,,,2021-09-10,1,,,,,エスピーク,0
1849,7011101096242,新規,0,2021-09-10,2021-09-10,株式会社ミライ,,株式会社,東京都,新宿区,高田馬場２丁目１５番１号田中ビル１階,,13,104,1690075,,,,,,,2021-09-10,1,,,,,ミライ,0
1850,7011101096250,新規,0,2021-09-10,2021-09-10,株式会社Ｉｓｈａｒｅ,,株式会社,東京都,新宿区,山吹町４番地４プラウドフラット神楽坂Ⅱ５１５,00124205,13,104,1620801,,,,,,,2021-09-10,1,,,,,アイシェアー,0
1851,7011105009968,新規,0,2021-09-10,2021-09-10,医療法人社団優仁会,,その他の設立登記法人,東京都,新宿区,若松町９－９パークホームズ新宿若松町２階店舗２,,13,104,1620056,,,,,,,2021-09-10,1,,,,,ユウジンカイ,0
1860,7011803004766,新規,0,2021-09-10,2021-09-10,合同会社貴畠,,合同会社,東京都,葛飾区,立石１丁目１５番１１号メディコビル２０１,,13,122,1240012,,,,,,,2021-09-10,1,,,,,タカハタ,0
1863,7012701016655,新規,0,2021-09-10,2021-09-10,株式会社ＳＡＩＬＡＷＡＹ,,株式会社,東京都,西東京市,富士町４丁目８番５号メゾンＺ伏見２０３号,,13,229,2020014,,,,,,,2021-09-10,1,,,,,セイルアウェイ,0
1864,7013101008722,新規,0,2021-09-10,2021-09-10,株式会社コウワ企画,,株式会社,東京都,西多摩郡日の出町,大字平井２０６６番地,,13,305,1900182,,,,,,,2021-09-10,1,,,,,コウワキカク,0
1870,7020001142972,新規,0,2021-09-10,2021-09-10,株式会社ＡｃｅＦａｃｉｌｉｔｙ,,株式会社,神奈川県,横浜市泉区,白百合２丁目３１－１４,,14,116,2450005,,,,,,,2021-09-10,1,,,,,エースファシリティ,0
1872,7020003020466,新規,0,2021-09-10,2021-09-10,合同会社甲斐Ｆｃｏｍｐａｎｙ,,合同会社,神奈川県,横浜市神奈川区,七島町１７番地４－７,,14,102,2210061,,,,,,,2021-09-10,1,,,,,カイエフカンパニー,0
1880,7021001073902,新規,0,2021-09-10,2021-09-10,株式会社ＫＡＭＡＬＡＢＯ,,株式会社,神奈川県,鎌倉市,七里ガ浜東２丁目３１－５,,14,204,2480025,,,,,,,2021-09-10,1,,,,,カマラボ,0
1904,7040001120019,新規,0,2021-09-10,2021-09-10,株式会社ログログ,,株式会社,千葉県,柏市,若柴１７８番地４柏の葉キャンパス１４８街区２ららぽーと北館オフィス棟５階,,12,217,2770871,,,,,,,2021-09-10,1,,,,,ログログ,0
1922,7070001038423,新規,0,2021-09-10,2021-09-10,株式会社ルバートキャリア,,株式会社,群馬県,高崎市,栄町１８－４武山ビル２０４号室,,10,202,3700841,,,,,,,2021-09-10,1,,,,,ルバートキャリア,0
1953,7120001240097,新規,0,2021-09-10,2021-09-10,株式会社エレメント社,,株式会社,大阪府,大阪市東住吉区,鷹合２丁目１番２５号２０８Ａ,,27,121,5460014,,,,,,,2021-09-10,1,,,,,エレメントシャ,0
1954,7120001240262,新規,0,2021-09-10,2021-09-10,株式会社一心,,株式会社,大阪府,枚方市,中宮山戸町２６番１８号,,27,210,5730011,,,,,,,2021-09-10,1,,,,,イッシン,0
1955,7120001240287,新規,0,2021-09-10,2021-09-10,株式会社エアーグラント,,株式会社,大阪府,大阪市淀川区,西三国３丁目３番２５号,,27,123,5320006,,,,,,,2021-09-10,1,,,,,エアーグラント,0
1956,7120001240312,新規,0,2021-09-10,2021-09-10,株式会社ベクトル,,株式会社,大阪府,大阪市城東区,古市１丁目１番１２号カナルグランデ３０１,,27,118,5360001,,,,,,,2021-09-10,1,,,,,ベクトル,0
1957,7120001240337,新規,0,2021-09-10,2021-09-10,株式会社亜多夢,,株式会社,大阪府,大阪市港区,市岡元町２丁目６番１１－３０２号,,27,107,5520002,,,,,,,2021-09-10,1,,,,,アタム,0
1962,7120003020200,新規,0,2021-09-10,2021-09-10,日本至柚合同会社,,合同会社,大阪府,大阪市住之江区,西加賀屋１丁目２番５６－８２３号,,27,125,5590016,,,,,,,2021-09-10,1,,,,,ニホンシユウ,0
1964,7120005022483,新規,0,2021-09-10,2021-09-10,協同友好労働組合,,その他の設立登記法人,大阪府,大阪市淀川区,十三元今里２丁目１９番１７－３０２号,,27,123,5320028,,,,,,,2021-09-10,1,,,,,キョウドウユウコウ,0
1986,7140001122995,新規,0,2021-09-10,2021-09-10,株式会社健幸ＰＬＵＳ,,株式会社,兵庫県,川西市,出在家町１番６号,,28,217,6660011,,,,,,,2021-09-10,1,,,,,ケンコウプラス,0
1990,7140003016733,新規,0,2021-09-10,2021-09-10,合同会社ルシーダ,,合同会社,兵庫県,神戸市西区,秋葉台１丁目５６番地の１３１,,28,111,6512224,,,,,,,2021-09-10,1,,,,,ルシーダ,0
1992,7140005025807,新規,0,2021-09-10,2021-09-10,一般社団法人フィランソロピー研究所,,その他の設立登記法人,兵庫県,神戸市中央区,山本通１丁目７番１１号,,28,110,6500003,,,,,,,2021-09-10,1,,,,,フィランソロピーケンキュウショ,0
1997,7150001024910,新規,0,2021-09-10,2021-09-10,株式会社希望舎,,株式会社,奈良県,奈良市,秋篠新町２６２番地の４－２０５,,29,201,6310813,,,,,,,2021-09-10,1,,,,,キボウシャ,0
2002,7170001016773,新規,0,2021-09-10,2021-09-10,株式会社渡辺工業,,株式会社,和歌山県,紀の川市,西三谷４７１番地２,,30,208,6496433,,,,,,,2021-09-10,1,,,,,ワタナベコウギョウ,0
2012,7180001147782,新規,0,2021-09-10,2021-09-10,株式会社川野トレーディング,,株式会社,愛知県,東海市,加木屋町鎌吉良根５３番地の２５７,,23,222,4770032,,,,,,,2021-09-10,1,,,,,カワノトレーディング,0
2018,7180003022942,新規,0,2021-09-10,2021-09-10,７ＳＴＡＲＳ．ＪＰ合同会社,,合同会社,愛知県,清須市,西枇杷島町上新３７番地グランドメゾン小田井Ｊ－４,,23,233,4520022,,,,,,,2021-09-10,1,,,,,セブンスターズジェイピー,0
2032,7230001018978,新規,0,2021-09-10,2021-09-10,株式会社１１．５９,,株式会社,富山県,高岡市,駅南１丁目３番７号グラン・ラドゥーノ１２０２,,16,202,9330871,,,,,,,2021-09-10,1,,,,,イチイチピリオドゴウキュウ,0
2037,7240003005271,新規,0,2021-09-10,2021-09-10,Ｐｏｗｄｅｒ　Ｋｅｇ　Ｔｅｃｈｎｏｌｏｇｉｅｓ合同会社,,合同会社,広島県,広島市中区,舟入町１番地１９号,,34,101,7300841,,,,,,,2021-09-10,1,,,,,パウダーケグテクノロジーズ,0
2043,7290001094551,新規,0,2021-09-10,2021-09-10,株式会社ＦＩＸＥＲ＆Ｃｏ．,,株式会社,福岡県,福岡市博多区,中洲２丁目３番２１号２Ｆ,,40,132,8100801,,,,,,,2021-09-10,1,,,,,フィクサーアンドコー,0
2051,7290003011587,新規,0,2021-09-10,2021-09-10,合同会社Ｈｅｌｅａｎａ,,合同会社,福岡県,福岡市博多区,榎田１丁目９番１３号,,40,132,8120004,,,,,,,2021-09-10,1,,,,,ヘレアナ,0
2053,7290801027768,新規,0,2021-09-10,2021-09-10,株式会社Ｐｅａｃｅｆｕｌ,,株式会社,福岡県,行橋市,大字今井３６４３番地３,,40,213,8240018,,,,,,,2021-09-10,1,,,,,ピースフル,0
2056,7310001017468,新規,0,2021-09-10,2021-09-10,株式会社Ｃｈａｒｍｅ,,株式会社,長崎県,大村市,乾馬場町８４６番地１マリナハウス１０３,,42,205,8560823,,,,,,,2021-09-10,1,,,,,シャルム,0
2066,7350001017299,新規,0,2021-09-10,2021-09-10,Ｌａｎｄｓｃａｐｅｓ株式会社,,株式会社,宮崎県,宮崎市,青島１丁目１６番１号,,45,201,8892162,,,,,,,2021-09-10,1,,,,,ランドスケープス,0
2067,7350003003917,新規,0,2021-09-10,2021-09-10,合同会社東日本芹幸福祉会,,合同会社,宮崎県,宮崎市,小戸町８６番地,,45,201,8800857,,,,,,,2021-09-10,1,,,,,ヒガシニホンキンコウフクシカイ,0
2090,7420003002382,新規,0,2021-09-10,2021-09-10,合同会社Ｔａｋｕｍａｓｕ,,合同会社,青森県,青森市,佃１丁目１１番３号,,02,201,0300962,,,,,,,2021-09-10,1,,,,,タクマス,0
2092,7430001084934,新規,0,2021-09-10,2021-09-10,株式会社オールデザイン,,株式会社,北海道,恵庭市,駒場町５丁目５－２１,,01,231,0611417,,,,,,,2021-09-10,1,,,,,オールデザイン,0
2100,7490003001584,新規,0,2021-09-10,2021-09-10,合同会社坂田電気,,合同会社,高知県,高知市,薊野北町４丁目１４番１５－１１号,,39,201,7810011,,,,,,,2021-09-10,1,,,,,サカタデンキ,0
2109,8010001220803,新規,0,2021-09-10,2021-09-10,アルコニックスベンチャーズ株式会社,,株式会社,東京都,千代田区,永田町２丁目１１番１号,,13,101,1000014,,,,,,,2021-09-10,1,,,,,アルコニックスベンチャーズ,0
2110,8010001220927,新規,0,2021-09-10,2021-09-10,株式会社タスカル,,株式会社,東京都,中央区,日本橋２丁目１番１７号丹生ビル２階,,13,102,1030027,,,,,,,2021-09-10,1,,,,,タスカル,0
2112,8010003035803,新規,0,2021-09-10,2021-09-10,グライダーズ合同会社,,合同会社,東京都,中央区,東日本橋２丁目２８番４号日本橋ＣＥＴビル２階,,13,102,1030004,,,,,,,2021-09-10,1,,,,,,0
2116,8010103001770,新規,0,2021-09-10,2021-09-10,キャピストン合同会社,,合同会社,東京都,八王子市,北野台５丁目３６番１号,,13,201,1920913,,,,,,,2021-09-10,1,,,,,キャピストン,0
2124,8010401162455,新規,0,2021-09-10,2021-09-10,株式会社ＣＲＹＰＴＯ＆Ｉｎｃ．,,株式会社,東京都,港区,北青山３丁目６番２６号第５ＳＩビル４階,,13,103,1070061,,,,,,,2021-09-10,1,,,,,クリプトアンド,0
2125,8010401162620,新規,0,2021-09-10,2021-09-10,株式会社ラテールネクスト,,株式会社,東京都,港区,虎ノ門４丁目３番１号,,13,103,1050001,,,,,,,2021-09-10,1,,,,,ラテールネクスト,0
2126,8010401162629,新規,0,2021-09-10,2021-09-10,株式会社ｐｕｓｈ２３,,株式会社,東京都,港区,芝浦１丁目６番４１号,,13,103,1050023,,,,,,,2021-09-10,1,,,,,プッシュツースリー,0
2130,8010601059914,新規,0,2021-09-10,2021-09-10,Ｗ＆Ｗ株式会社,,株式会社,東京都,墨田区,東向島２丁目３４番７－２０３号メイツ向島,,13,107,1310032,,,,,,,2021-09-10,1,,,,,ダブリューアンドダブリュー,0
2134,8010701041482,新規,0,2021-09-10,2021-09-10,株式会社Ｃｈｅｅｋｙ,,株式会社,東京都,品川区,北品川５丁目１２番４号,,13,109,1410001,,,,,,,2021-09-10,1,,,,,チーキー,0
2141,8010903006795,新規,0,2021-09-10,2021-09-10,合同会社ダブルエース,,合同会社,東京都,世田谷区,上野毛２丁目２１－９,,13,112,1580093,,,,,,,2021-09-10,1,,,,,ダブルエース,0
2155,8011001142665,新規,0,2021-09-10,2021-09-10,株式会社バジェットアドテクノロジーズ,,株式会社,東京都,渋谷区,代々木２丁目２３番１号,,13,113,1510053,,,,,,,2021-09-10,1,,,,,バジェットアドテクノロジーズ,0
2156,8011001142723,新規,0,2021-09-10,2021-09-10,株式会社ネペンテスウーマン,,株式会社,東京都,渋谷区,渋谷１丁目５番６号,,13,113,1500002,,,,,,,2021-09-10,1,,,,,ネペンテスウーマン,0
2157,8011003013369,新規,0,2021-09-10,2021-09-10,Ｔｈｅ　Ｃｏｎｓｔａｎｔ　Ｃｏｍｐａｎｙ　Ｊａｐａｎ合同会社,,合同会社,東京都,渋谷区,恵比寿４丁目３番５号７０４号室アークアウトソーシング株式会社内,,13,113,1500013,,,,,,,2021-09-10,1,,,,,ザコンスタントカンパニージャパン,0
2160,8011303004167,新規,0,2021-09-10,2021-09-10,合同会社ＩＣＨＩＫＡＲＡ,,合同会社,東京都,杉並区,高円寺南１丁目１６－１１北澤ハイツ２０１号,,13,115,1660003,,,,,,,2021-09-10,1,,,,,イチカラ,0
2173,8012403005014,新規,0,2021-09-10,2021-09-10,合同会社ｂｉｒｙａｎｉ,,合同会社,東京都,武蔵野市,吉祥寺本町３丁目２４番５号ＭａｉｓｏｎＬｕｍｉｎｅｕｓｅ１０２,,13,203,1800004,,,,,,,2021-09-10,1,,,,,ビリヤニ,0
2174,8012805003053,新規,0,2021-09-10,2021-09-10,行政書士法人ストレート,,その他の設立登記法人,東京都,日野市,豊田３丁目４０番地の３レジェイドサザンゲート１Ｆ,,13,212,1910053,,,,,,,2021-09-10,1,,,,,ストレート,0
2186,8020003020465,新規,0,2021-09-10,2021-09-10,合同会社心のしずくカウンセリングルーム,,合同会社,神奈川県,横浜市金沢区,能見台６丁目３６番地２,,14,108,2360057,,,,,,,2021-09-10,1,,,,,ココロノシズクカウンセリングルーム,0
2187,8020003020473,新規,0,2021-09-10,2021-09-10,Ｍａｒｋｅｔｈｉｎｋ合同会社,,合同会社,神奈川県,横浜市都筑区,北山田５丁目１７番２７－６１７号,,14,118,2240021,,,,,,,2021-09-10,1,,,,,マーケシンク,0
2216,8040001120018,新規,0,2021-09-10,2021-09-10,株式会社ＹＡＲＤ　ｂｙ　ｆａｎ’ｓ,,株式会社,千葉県,柏市,若柴１７８番地４柏の葉キャンパス１４８街区２ららぽーと北館オフィス棟５階,,12,217,2770871,,,,,,,2021-09-10,1,,,,,ヤードバイファンズ,0
2225,8040005021344,新規,0,2021-09-10,2021-09-10,一般社団法人福祉介護機構,,その他の設立登記法人,千葉県,松戸市,松戸１３０７番地の１,,12,207,2710092,,,,,,,2021-09-10,1,,,,,フクシカイゴキコウ,0
2241,8070001038430,新規,0,2021-09-10,2021-09-10,青高アグリ株式会社,,株式会社,群馬県,渋川市,北橘町上南室１４５番地２,,10,208,3770055,,,,,,,2021-09-10,1,,,,,セイコウアグリ,0
2258,8120001240286,新規,0,2021-09-10,2021-09-10,株式会社ＧＥＡ,,株式会社,大阪府,大阪市福島区,福島１丁目６番８号,,27,103,5530003,,,,,,,2021-09-10,1,,,,,ジーイーエー,0
2259,8120001240303,新規,0,2021-09-10,2021-09-10,株式会社ＢＥＡＭ,,株式会社,大阪府,大阪市旭区,森小路１丁目５番２号,,27,117,5350013,,,,,,,2021-09-10,1,,,,,ビーム,0
2260,8120001240352,新規,0,2021-09-10,2021-09-10,株式会社ＲＥＬＡＺＹ,,株式会社,大阪府,大阪市西区,靱本町３丁目１０番１０－１１０５号,,27,106,5500004,,,,,,,2021-09-10,1,,,,,リレイジー,0
2275,8120103004341,新規,0,2021-09-10,2021-09-10,合同会社昭,,合同会社,大阪府,堺市堺区,東雲西町２丁３番１８号,,27,141,5900013,,,,,,,2021-09-10,1,,,,,アキ,0
2289,8140001122920,新規,0,2021-09-10,2021-09-10,株式会社Ｋａｉ,,株式会社,兵庫県,神戸市垂水区,西舞子１丁目９番６号,,28,108,6550048,,,,,,,2021-09-10,1,,,,,カイ,0
2290,8140001122994,新規,0,2021-09-10,2021-09-10,ヤナショーリサイクル株式会社,,株式会社,兵庫県,神戸市中央区,港島４丁目５番１号,,28,110,6500045,,,,,,,2021-09-10,1,,,,,ヤナショーリサイクル,0
2303,8180001147781,新規,0,2021-09-10,2021-09-10,株式会社ｓｔａｔｅ　ｔｏｐｓ,,株式会社,愛知県,名古屋市東区,葵２丁目３番２２号ハウスアベニュー２Ｃ,,23,102,4610004,,,,,,,2021-09-10,1,,,,,ステートトップス,0
2310,8180305009240,新規,0,2021-09-10,2021-09-10,一般社団法人カルチャー＆スポーツクラブ岡崎,,その他の設立登記法人,愛知県,岡崎市,青木町１番地５,,23,202,4442131,,,,,,,2021-09-10,1,,,,,カルチャーアンドスポーツクラブオカザキ,0
2315,8210001018582,新規,0,2021-09-10,2021-09-10,株式会社３９．ｎｅｔ,,株式会社,福井県,福井市,問屋町１丁目３４番地,,18,201,9188231,,,,,,,2021-09-10,1,,,,,サンキュードットネット,0
2316,8210001018599,新規,0,2021-09-10,2021-09-10,株式会社日本システムリノベーション,,株式会社,福井県,福井市,江守の里２丁目５０９番地,,18,201,9188035,,,,,,,2021-09-10,1,,,,,ニホンシステムリノベーション,0
2321,8230001018977,新規,0,2021-09-10,2021-09-10,アマンフーズ株式会社,,株式会社,富山県,高岡市,駅南１丁目３番７号グラン・ラドゥーノ１２０２,,16,202,9330871,,,,,,,2021-09-10,1,,,,,アマンフーズ,0
2322,8240001058592,新規,0,2021-09-10,2021-09-10,株式会社エムアンドイー,,株式会社,広島県,広島市安佐南区,長楽寺１丁目７０番６号,,34,105,7310143,,,,,,,2021-09-10,1,,,,,エムアンドイー,0
2332,8290001094575,新規,0,2021-09-10,2021-09-10,株式会社まるのき,,株式会社,福岡県,那珂川市,恵子３丁目１０番１０号,,40,231,8111255,,,,,,,2021-09-10,1,,,,,マルノキ,0
2333,8290001094600,新規,0,2021-09-10,2021-09-10,なすの株式会社,,株式会社,福岡県,福岡市城南区,七隈５丁目１２番８号,,40,136,8140133,,,,,,,2021-09-10,1,,,,,ナスノ,0
2334,8290001094617,新規,0,2021-09-10,2021-09-10,株式会社ＯＲＧ,,株式会社,福岡県,福岡市中央区,黒門２番１５号,,40,133,8100055,,,,,,,2021-09-10,1,,,,,オーアールジー,0
2335,8290003011586,新規,0,2021-09-10,2021-09-10,合同会社未来電通,,合同会社,福岡県,福岡市城南区,樋井川２丁目６番５－１号,,40,136,8140153,,,,,,,2021-09-10,1,,,,,ミライデンツウ,0
2342,8290801027759,新規,0,2021-09-10,2021-09-10,株式会社カーサービス中村,,株式会社,福岡県,宮若市,小伏１５４９番地２,,40,226,8220132,,,,,,,2021-09-10,1,,,,,カーサービスナカムラ,0
2343,8300003001718,新規,0,2021-09-10,2021-09-10,Ｍ＆Ｃ合同会社,,合同会社,佐賀県,小城市,小城町松尾４０５５番地１,,41,208,8450004,,,,,,,2021-09-10,1,,,,,エムアンドシー,0
2345,8330001028990,新規,0,2021-09-10,2021-09-10,株式会社橋本総業,,株式会社,熊本県,天草市,新和町小宮地６５３番地２,,43,215,8630101,,,,,,,2021-09-10,1,,,,,ハシモトソウギョウ,0
2349,8350001017298,新規,0,2021-09-10,2021-09-10,株式会社ＶＥＮＤＯＲ,,株式会社,宮崎県,宮崎市,祇園２丁目３５番地,,45,201,8800024,,,,,,,2021-09-10,1,,,,,ベンダー,0
2353,8360001029350,新規,0,2021-09-10,2021-09-10,沖縄ＳＶアグリ株式会社,,株式会社,沖縄県,豊見城市,字豊崎３番地５９トヨプラ４Ｆ,,47,212,9010225,,,,,,,2021-09-10,1,,,,,オキナワエスファウアグリ,0
2384,8430001084925,新規,0,2021-09-10,2021-09-10,株式会社ＬＵＮＡ,,株式会社,北海道,札幌市北区,麻生町５丁目５番１１号日乃出ビル２０２号,,01,102,0010045,,,,,,,2021-09-10,1,,,,,ルナ,0
2385,8430003013114,新規,0,2021-09-10,2021-09-10,合同会社ｋａｚｒｏｏ,,合同会社,北海道,札幌市清田区,里塚緑ケ丘８丁目１５番３２号,,01,110,0040805,,,,,,,2021-09-10,1,,,,,カズロー,0
2392,8500001023677,新規,0,2021-09-10,2021-09-10,株式会社ｃｈｏｕ　ｃｈｏｕ　ｃｏｐａｉｎ,,株式会社,愛媛県,松山市,古川北２丁目６番１２号,,38,201,7900942,,,,,,,2021-09-10,1,,,,,シュシュコパン,0
2396,8700150104687,新規,0,2021-09-10,2021-09-10,福島駅東口地区市街地再開発組合,,その他,福島県,福島市,大町７－２５アクティ大町ビル,,07,201,9608041,,,,,,,2021-09-10,1,,,,,フクシマエキヒガシグチチクシガイチサイカイハツクミアイ,0
2401,9010001221065,新規,0,2021-09-10,2021-09-10,株式会社Ｇｒｅｅｄｙ,,株式会社,東京都,千代田区,岩本町２丁目７番６号,,13,101,1010032,,,,,,,2021-09-10,1,,,,,,0
2403,9010003035819,新規,0,2021-09-10,2021-09-10,合同会社ＬＩＭ,,合同会社,東京都,中央区,銀座６丁目６番１号,,13,102,1040061,,,,,,,2021-09-10,1,,,,,リム,0
2416,9010405020179,新規,0,2021-09-10,2021-09-10,ＳＣＧ６５一般社団法人,,その他の設立登記法人,東京都,港区,虎ノ門４丁目１番２８号,,13,103,1050001,,,,,,,2021-09-10,1,,,,,エスシージーシックスティファイブ,0
2417,9010405020187,新規,0,2021-09-10,2021-09-10,医療法人社団ＢＯＳＴＯＮ会,,その他の設立登記法人,東京都,港区,西新橋１丁目９番８号南佐久間町ビル３階,,13,103,1050003,,,,,,,2021-09-10,1,,,,,ボストンカイ,0
2419,9010601059913,新規,0,2021-09-10,2021-09-10,Ｕｌｔｒａｇｅｎｙｘ　Ｊａｐａｎ株式会社,,株式会社,東京都,江東区,有明３丁目７番２６号有明フロンティアビルＢ棟９階,,13,108,1350063,,,,,,,2021-09-10,1,,,,,ウルトラジェニクスジャパン,0
2421,9010805002875,新規,0,2021-09-10,2021-09-10,医療法人社団賢斉会,,その他の設立登記法人,東京都,大田区,大森西６丁目１２番２０号山中ビル１階,,13,111,1430015,,,,,,,2021-09-10,1,,,,,ケンセイカイ,0
2423,9010905004202,新規,0,2021-09-10,2021-09-10,一般社団法人まめっつ,,その他の設立登記法人,東京都,世田谷区,桜新町２丁目５－２０－２０１,,13,112,1540015,,,,,,,2021-09-10,1,,,,,マメッツ,0
2425,9011001142615,新規,0,2021-09-10,2021-09-10,株式会社ｃｏｃｏ,,株式会社,東京都,目黒区,三田１丁目３－２１パルテール恵比寿８０３号室,,13,110,1530062,,,,,,,2021-09-10,1,,,,,ココ,0
2426,9011001142664,新規,0,2021-09-10,2021-09-10,株式会社Ｃｏｒｅ　Ｒｅｖｏｌｕｔｉｏｎ,,株式会社,東京都,渋谷区,神宮前６丁目２３番４号桑野ビル２階,,13,113,1500001,,,,,,,2021-09-10,1,,,,,コアレボリューション,0
2427,9011001142730,新規,0,2021-09-10,2021-09-10,株式会社Ｌｉｌｗｅｓｓ,,株式会社,東京都,目黒区,中根１丁目７番２２号,,13,110,1520031,,,,,,,2021-09-10,1,,,,,リルウェス,0
2428,9011001142739,新規,0,2021-09-10,2021-09-10,株式会社シャクティジャパン,,株式会社,東京都,渋谷区,神宮前１丁目２１番１５号,,13,113,1500001,,,,,,,2021-09-10,1,,,,,シャクティジャパン,0
2432,9011101096232,新規,0,2021-09-10,2021-09-10,株式会社スターホーム,,株式会社,東京都,新宿区,新宿１丁目２４番７－２１１号,,13,104,1600022,,,,,,,2021-09-10,1,,,,,スターホーム,0
2438,9011301027160,新規,0,2021-09-10,2021-09-10,株式会社Ｃｒａｆｔ　Ｔｏｋｙｏ,,株式会社,東京都,杉並区,高円寺北２丁目３－１１藤の森ビル１Ｆ,,13,115,1660002,,,,,,,2021-09-10,1,,,,,クラフトトウキョウ,0
2439,9011303004166,新規,0,2021-09-10,2021-09-10,合同会社ＧＢＭ,,合同会社,東京都,杉並区,下高井戸５丁目３－１０－６０２ルクレ上北沢ルネサンスコート,,13,115,1680073,,,,,,,2021-09-10,1,,,,,ジービーエム,0
2441,9011503004858,新規,0,2021-09-10,2021-09-10,ＭＲ　Ｐａｒｔｎｅｒｓ合同会社,,合同会社,東京都,北区,中十条２丁目１９－１５,,13,117,1140032,,,,,,,2021-09-10,1,,,,,エムアールパートナーズ,0
2449,9012403005021,新規,0,2021-09-10,2021-09-10,合同会社ＰＬＭ,,合同会社,東京都,調布市,富士見町３丁目１－２４,,13,208,1820033,,,,,,,2021-09-10,1,,,,,ピーエルエヌ,0
2458,9020001142954,新規,0,2021-09-10,2021-09-10,株式会社神奈川監察医務センター,,株式会社,神奈川県,横浜市泉区,緑園３丁目３番地３,,14,116,2450002,,,,,,,2021-09-10,1,,,,,カナガワカンサツイムセンター,0
2466,9020003020464,新規,0,2021-09-10,2021-09-10,合同会社マヌケグマ,,合同会社,神奈川県,川崎市多摩区,宿河原２丁目３４－１コート向ヶ丘５０５号,,14,135,2140021,,,,,,,2021-09-10,1,,,,,マヌケグマ,0
2467,9020003020472,新規,0,2021-09-10,2021-09-10,クラフティジャパン合同会社,,合同会社,神奈川県,横浜市鶴見区,東寺尾中台７番４－１０３号,,14,101,2300017,,,,,,,2021-09-10,1,,,,,クラフティジャパン,0
2478,9021001073867,新規,0,2021-09-10,2021-09-10,株式会社鎌倉ひとはこ,,株式会社,神奈川県,鎌倉市,西御門１丁目２３－８,,14,204,2480004,,,,,,,2021-09-10,1,,,,,カマクラヒトハコ,0
2486,9030001143332,新規,0,2021-09-10,2021-09-10,株式会社ｅｘｌ,,株式会社,埼玉県,草加市,長栄１丁目６９７－１アルカンシェル２０２,,11,221,3400051,,,,,,,2021-09-10,1,,,,,エル,0
2488,9030001144272,新規,0,2021-09-10,2021-09-10,株式会社レディースヘルスケアラボ,,株式会社,埼玉県,草加市,栄町２丁目２番２４号フラットフィールドⅡ－２０２,00124206,11,221,3400011,,,,,,,2021-09-10,1,,,,,レディースヘルスケアラボ,0
2502,9040001120124,新規,0,2021-09-10,2021-09-10,Ｂｅｉｎｇ　ＢａＳＥ株式会社,,株式会社,千葉県,佐倉市,井野１１０３番地１２,,12,212,2850855,,,,,,,2021-09-10,1,,,,,ビーイングベース,0
2503,9040001120165,新規,0,2021-09-10,2021-09-10,ＭＫ株式会社,,株式会社,千葉県,船橋市,本町２丁目１１－２２－２Ｆ,,12,204,2730005,,,,,,,2021-09-10,1,,,,,エムケー,0
2507,9040005021343,新規,0,2021-09-10,2021-09-10,社会保険労務士法人彩工房,,その他の設立登記法人,千葉県,我孫子市,我孫子１丁目７番２０－２０１号,,12,222,2701166,,,,,,,2021-09-10,1,,,,,サイコウボウ,0
2512,9050001048851,新規,0,2021-09-10,2021-09-10,株式会社ベネクラフト,,株式会社,茨城県,つくば市,吉沼１０９３番地３,,08,220,3002617,,,,,,,2021-09-10,1,,,,,ベネクラフト,0
2513,9050001049825,新規,0,2021-09-10,2021-09-10,株式会社ＩＦＣ,,株式会社,茨城県,鹿嶋市,大字鉢形１３８５番地３８,,08,222,3140034,,,,,,,2021-09-10,1,,,,,アイエフシー,0
2514,9050003006072,新規,0,2021-09-10,2021-09-10,合同会社八朔商事,,合同会社,茨城県,結城郡八千代町,大字新地新田１０番地２,,08,521,3003543,,,,,,,2021-09-10,1,,,,,ハッサクショウジ,0
2546,9120001240302,新規,0,2021-09-10,2021-09-10,株式会社ＺＵＣＣＡ,,株式会社,大阪府,大阪市都島区,友渕町１丁目５番８－２５０８号,,27,102,5340016,,,,,,,2021-09-10,1,,,,,ズカ,0
2547,9120001240310,新規,0,2021-09-10,2021-09-10,サクラリア株式会社,,株式会社,大阪府,大阪市阿倍野区,阪南町５丁目４番２８号,,27,119,5450021,,,,,,,2021-09-10,1,,,,,サクラリア,0
2548,9120001240327,新規,0,2021-09-10,2021-09-10,株式会社ずんだ,,株式会社,大阪府,大阪市東住吉区,住道矢田４丁目６番３０号レオネクストサレ１０３号,,27,121,5460022,,,,,,,2021-09-10,1,,,,,ズンダ,0
2549,9120001240335,新規,0,2021-09-10,2021-09-10,ＯＩＳ株式会社,,株式会社,大阪府,大阪市阿倍野区,王子町４丁目１番４８－１０６号,,27,119,5450023,,,,,,,2021-09-10,1,,,,,オーアイエス,0
2552,9120003020207,新規,0,2021-09-10,2021-09-10,Ｊｐ－Ｌｉｆｅ合同会社,,合同会社,大阪府,大阪市北区,中之島６丁目１番４５－４０１号,,27,127,5300005,,,,,,,2021-09-10,1,,,,,ジェーピライフ,0
2558,9122003002176,新規,0,2021-09-10,2021-09-10,合同会社マグマプレート,,合同会社,大阪府,東大阪市,寿町２丁目１番２号,,27,227,5770837,,,,,,,2021-09-10,1,,,,,マグマプレート,0
2559,9130001070062,新規,0,2021-09-10,2021-09-10,株式会社イーシーセンス,,株式会社,京都府,相楽郡精華町,光台１丁目７番けいはんなプラザラボ棟,,26,366,6190237,,,,,,,2021-09-10,1,,,,,イーシーセンス,0
2568,9140003016723,新規,0,2021-09-10,2021-09-10,合同会社ＹＯＬＯ　ｃｒｅａｔｅ,,合同会社,兵庫県,明石市,大久保町駅前１丁目５－６アルファ大久保１階,,28,203,6740058,,,,,,,2021-09-10,1,,,,,ヨーロークリエイト,0
2570,9150001024917,新規,0,2021-09-10,2021-09-10,株式会社Ｓｍｉｌｅ　Ｌａｂｏ,,株式会社,奈良県,奈良市,左京３丁目１３－７,,29,201,6310801,,,,,,,2021-09-10,1,,,,,スマイルラボ,0
2571,9150003002482,新規,0,2021-09-10,2021-09-10,合同会社ヨシチカ,,合同会社,奈良県,橿原市,中曽司町１３２番地の１８,,29,205,6340845,,,,,,,2021-09-10,1,,,,,ヨシチカ,0
2574,9160005010978,新規,0,2021-09-10,2021-09-10,一般社団法人アウン,,その他の設立登記法人,滋賀県,大津市,桜野町１丁目１番６号２Ｆ,,25,201,5200026,,,,,,,2021-09-10,1,,,,,アウン,0
2582,9180001147475,新規,0,2021-09-10,2021-09-10,ｆｌｙ．ｈｉｇｈ．Ｃｏ，Ｌｔｄ．株式会社,,株式会社,愛知県,一宮市,起字堤町１６５番地１,,23,203,4940006,,,,,,,2021-09-10,1,,,,,フライハイシーオーエルティーディー,0
2583,9180001147780,新規,0,2021-09-10,2021-09-10,株式会社建物被災調査サービス,,株式会社,愛知県,北名古屋市,中之郷栗島４０番地,,23,234,4810045,,,,,,,2021-09-10,1,,,,,タテモノヒサイチョウササービス,0
2584,9180001147797,新規,0,2021-09-10,2021-09-10,株式会社Ｍｉｎｔ,,株式会社,愛知県,名古屋市中区,橘１丁目２１番２９号Ｎ．Ｓ．ＺＥＡＬ東別院３１０号,,23,106,4600016,,,,,,,2021-09-10,1,,,,,ミント,0
2588,9180003022940,新規,0,2021-09-10,2021-09-10,合同会社ぐみの木,,合同会社,愛知県,一宮市,千秋町佐野４８５番地１６,,23,203,4910804,,,,,,,2021-09-10,1,,,,,グミノキ,0
2594,9190003003758,新規,0,2021-09-10,2021-09-10,合同会社ＧＰ,,合同会社,三重県,度会郡南伊勢町,木谷４３８番地６６,,24,472,5160106,,,,,,,2021-09-10,1,,,,,ジーピー,0
2619,9290001094558,新規,0,2021-09-10,2021-09-10,ＣＡＬＬ＆ＲＥＳＰＯＮＳＥホールディングス株式会社,,株式会社,福岡県,福岡市南区,玉川町６番１号１Ｆ,,40,134,8150037,,,,,,,2021-09-10,1,,,,,コールアンドレスポンスホールディングス,0
2620,9290001094566,新規,0,2021-09-10,2021-09-10,ランデザイン株式会社,,株式会社,福岡県,福岡市博多区,美野島１丁目１２番７号,,40,132,8120017,,,,,,,2021-09-10,1,,,,,ランデザイン,0
2627,9290003011593,新規,0,2021-09-10,2021-09-10,Ｒｅｐｅ－ｓ合同会社,,合同会社,福岡県,福岡市南区,井尻１丁目２５番１５－２０５号,,40,134,8111302,,,,,,,2021-09-10,1,,,,,リペース,0
2628,9290003011602,新規,0,2021-09-10,2021-09-10,合同会社ＧＭＹＳＡ,,合同会社,福岡県,春日市,伯玄町２丁目５５番地５,,40,218,8160825,,,,,,,2021-09-10,1,,,,,ジーエムワイエスエー,0
2634,9290801027766,新規,0,2021-09-10,2021-09-10,株式会社彩工房オーケン,,株式会社,福岡県,北九州市小倉南区,朽網西３丁目９番３号,,40,107,8000233,,,,,,,2021-09-10,1,,,,,サイコウボウオーケン,0
2636,9300003001717,新規,0,2021-09-10,2021-09-10,合同会社ＳＷＢＣ,,合同会社,佐賀県,武雄市,北方町志久２４５４－１,,41,206,8430000,,,,,,,2021-09-10,1,,,,,エスダブリュビーシー,0
2684,9430003013138,新規,0,2021-09-10,2021-09-10,合同会社ＬｕａｎａＷ,,合同会社,北海道,札幌市豊平区,月寒中央通５丁目１－１,,01,105,0620020,,,,,,,2021-09-10,1,,,,,ルアナダブル,0
2685,9430005014266,新規,0,2021-09-10,2021-09-10,弁護士法人札幌ポラリス法律事務所,,その他の設立登記法人,北海道,札幌市中央区,北一条西６丁目２番地損保ジャパン札幌ビル,,01,101,0600001,,,,,,,2021-09-10,1,,,,,サッポロポラリスホウリツジムショ,0
2694,9500001023676,新規,0,2021-09-10,2021-09-10,株式会社ＮＡＧＡＩ,,株式会社,愛媛県,伊予市,下唐川甲１５９番地１,,38,210,7993133,,,,,,,2021-09-10,1,,,,,ナガイ,0
