sequenceNumber,corporateNumber,process,correct,updateDate,changeDate,name,nameImageId,kind,prefectureName,cityName,streetNumber,addressImageId,prefectureCode,cityCode,postCode,addressOutside,addressOutsideImageId,closeDate,closeCause,successorCorporateNumber,changeCause,assignmentDate,latest,enName,enPrefectureName,enCityName,enAddressOutside,furigana,hihyoji
3,1010001165732,登記記録の閉鎖等,0,2025-08-20,2025-07-22,株式会社ライトウイング,,株式会社,東京都,中央区,新川１丁目６番１１号,,13,102,1040033,,,2025-07-22,清算の結了等,,,2015-10-05,1,,,,,ライトウイング,0
8,1010003041840,登記記録の閉鎖等,0,2025-08-20,2025-07-22,神田ホテルマネジメント合同会社,,合同会社,東京都,千代田区,丸の内１丁目４番１号東京共同会計事務所内,,13,101,1000005,,,2025-07-22,清算の結了等,,,2023-10-05,1,,,,,カンダホテルマネジメント,0
19,1010405020533,登記記録の閉鎖等,0,2025-08-20,2025-07-14,一般社団法人データサイエンティスト育成機構,,その他の設立登記法人,東京都,渋谷区,渋谷３丁目５番１６号渋谷三丁目スクエアビル２階,,13,113,1500002,,,2025-07-14,清算の結了等,,,2021-12-27,1,,,,,データサイエンティストイクセイキコウ,0
35,1011003006809,登記記録の閉鎖等,0,2025-08-20,2025-08-12,ケルン合同会社,,合同会社,東京都,東村山市,多摩湖町３丁目１１番地１７,,13,213,1890026,,,2025-08-12,清算の結了等,,,2016-05-19,1,,,,,ケルン,0
49,1011701010681,登記記録の閉鎖等,0,2025-08-20,2025-08-05,株式会社パリオ服飾,,株式会社,東京都,江戸川区,東葛西８丁目７番３５号,,13,123,1340084,,,2025-08-05,清算の結了等,,,2015-10-05,1,,,,,パリオフクショク,0
53,1012702013178,登記記録の閉鎖等,0,2025-08-20,2025-08-12,有限会社Ｔａｋｅ,,有限会社,東京都,清瀬市,中里１丁目７１３番地,,13,221,2040003,,,2025-08-12,清算の結了等,,,2015-10-05,1,,,,,,0
68,1021005008125,登記記録の閉鎖等,0,2025-08-20,2025-07-28,医療法人社団金子整形外科,,その他の設立登記法人,神奈川県,横須賀市,東浦賀１丁目１番１号ＷＡＴＡＮＡＢＥｏｎｅ’ｓビル５階,,14,201,2390821,,,2025-07-28,清算の結了等,,,2015-10-05,1,,,,,カネコセイケイゲカ,0
70,1030001011521,登記記録の閉鎖等,0,2025-08-20,2025-08-08,株式会社埼玉タイセイ,,株式会社,埼玉県,川口市,飯塚１丁目３番２６号,,11,203,3320023,,,2025-08-08,清算の結了等,,,2015-10-05,1,,,,,サイタマタイセイ,0
83,1030002075540,登記記録の閉鎖等,0,2025-08-20,2025-08-01,有限会社吉崎組,00017120,有限会社,埼玉県,川越市,大字古谷上４９４６番地,,11,201,3500001,,,2025-08-01,清算の結了等,,,2015-10-05,1,,,,,ヨシザキグミ,0
84,1040001011363,登記記録の閉鎖等,0,2025-08-20,2025-07-24,株式会社タジマ,,株式会社,千葉県,千葉市若葉区,若松町４４３番地３９,,12,104,2640021,,,2025-07-24,清算の結了等,,,2015-10-05,1,,,,,タジマ,0
103,1080401016198,登記記録の閉鎖等,0,2025-08-20,2025-08-19,丸大鐵工株式会社,,株式会社,静岡県,磐田市,豊田西之島２５５番地の４,,22,211,4380835,,,2025-08-19,清算の結了等,,,2015-10-05,1,,,,,マルダイテッコウ,0
108,1110002001967,登記記録の閉鎖等,0,2025-08-20,2025-07-31,有限会社桐生衣料品店,,有限会社,新潟県,新潟市東区,北葉町１０番１２号,,15,102,9500055,,,2025-07-31,清算の結了等,,,2015-10-05,1,,,,,キリュウイリョウヒンテン,0
138,1130005012605,登記記録の閉鎖等,0,2025-08-20,2025-07-29,一般社団法人マキシマネットワーク,,その他の設立登記法人,京都府,宇治市,槇島町十一１７３番地の１,,26,204,6110041,,,2025-07-29,清算の結了等,,,2015-10-05,1,,,,,マキシマネットワーク,0
158,1200005004685,登記記録の閉鎖等,0,2025-08-20,2025-08-08,妙見宗河間教会,,その他の設立登記法人,岐阜県,大垣市,河間町５１２番地の３,,21,202,5030021,,,2025-08-08,清算の結了等,,,2015-10-05,1,,,,,ミョウケンシュウガマキョウカイ,0
159,1200005008091,登記記録の閉鎖等,0,2025-08-20,2025-08-14,特定非営利活動法人エルフレーベン,,その他の設立登記法人,岐阜県,美濃市,大矢田２２４７番地２８,,21,207,5013771,,,2025-08-14,清算の結了等,,,2015-10-05,1,,,,,エルフレーベン,0
168,1250001016779,登記記録の閉鎖等,0,2025-08-20,2025-08-19,山根建築株式会社,,株式会社,山口県,防府市,大字鈴屋１３５６番地,,35,206,7470105,,,2025-08-19,清算の結了等,,,2017-09-06,1,,,,,,0
171,1290001001942,登記記録の閉鎖等,0,2025-08-20,2025-07-29,ニチハツ工業株式会社,,株式会社,福岡県,福岡市南区,柳瀬２丁目１５番８号,,40,134,8111321,,,2025-07-29,清算の結了等,,,2015-10-05,1,,,,,ニチハツコウギョウ,0
176,1290002051854,登記記録の閉鎖等,0,2025-08-20,2025-08-18,有限会社イル・マーレ,,有限会社,佐賀県,佐賀市,大財６丁目５番３０号,,41,201,8400811,,,2025-08-18,清算の結了等,,,2015-10-05,1,,,,,イルマーレ,0
180,1320001011913,登記記録の閉鎖等,0,2025-08-20,2025-08-01,株式会社シームス,,株式会社,大分県,大分市,大字角子原８７０番地,,44,201,8700271,,,2025-08-01,合併による解散等,1320002008792,令和７年８月１日大分市大字下郡３４６２番地の４オフィスパレア下郡Ｉ株式会社エヌエムエス企画（1320002008792）に合併し解散,2015-10-05,1,,,,,シームス,0
182,1330001017760,登記記録の閉鎖等,0,2025-08-20,2025-08-18,フェイバリット株式会社,,株式会社,佐賀県,三養基郡みやき町,大字市武８３２番地７,,41,346,8401106,,,2025-08-18,清算の結了等,,,2015-10-05,1,,,,,フェイバリット,0
200,1380002009827,登記記録の閉鎖等,0,2025-08-20,2025-07-31,有限会社佐藤組,,有限会社,福島県,郡山市,並木２丁目３番地の２０,,07,203,9638026,,,2025-07-31,清算の結了等,,,2015-10-05,1,,,,,サトウグミ,0
219,2010005037134,登記記録の閉鎖等,0,2025-08-20,2025-07-28,黒岩ウェアハウス５一般社団法人,,その他の設立登記法人,東京都,千代田区,丸の内１丁目４番１号東京共同会計事務所内,,13,101,1000005,,,2025-07-28,清算の結了等,,,2023-08-16,1,,,,,クロイワウェアハウスファイブ,0
220,2010101012825,登記記録の閉鎖等,0,2025-08-20,2025-08-19,丸商テクノサービス株式会社,,株式会社,東京都,八王子市,めじろ台２丁目２９番地５,,13,201,1930833,,,2025-08-19,清算の結了等,,,2017-05-09,1,,,,,マルショウテクノサービス,0
232,2010501021946,登記記録の閉鎖等,0,2025-08-20,2025-08-08,株式会社キャトル・イディ,,株式会社,東京都,品川区,北品川６丁目７番１１－５０１号,,13,109,1410001,,,2025-08-08,清算の結了等,,,2015-10-05,1,,,,,キャトルイディ,0
235,2010601050102,登記記録の閉鎖等,0,2025-08-20,2025-08-06,株式会社ＷＩＳＥ企画,,株式会社,栃木県,小山市,中久喜５丁目５番４号,,09,208,3230806,,,2025-08-06,清算の結了等,,,2016-07-28,1,,,,,ワイズキカク,0
242,2011001115197,登記記録の閉鎖等,0,2025-08-20,2025-08-15,株式会社ｎｉｇｉｒｕ,,株式会社,福岡県,福岡市中央区,平尾２丁目１５番１６号,,40,133,8100014,,,2025-08-15,合併による解散等,6010601033326,令和７年６月３０日東京都中央区八重洲二丁目１番１号株式会社ドレステーブル（6010601033326）に合併し解散,2017-03-09,1,,,,,ニギル,0
267,2011801042590,登記記録の閉鎖等,0,2025-08-20,2025-08-18,株式会社ＭＹＮ,,株式会社,東京都,足立区,西綾瀬３丁目２２番４号,,13,121,1200014,,,2025-08-18,清算の結了等,,,2023-06-16,1,,,,,マイン,0
271,2012401016844,登記記録の閉鎖等,0,2025-08-20,2025-08-13,株式会社ファインサポート,,株式会社,東京都,府中市,浅間町３丁目１８番地の１,,13,206,1830001,,,2025-08-13,清算の結了等,,,2015-10-05,1,,,,,ファインサポート,0
275,2012702003285,登記記録の閉鎖等,0,2025-08-20,2025-08-12,有限会社西澤商会,,有限会社,東京都,東村山市,秋津町３丁目３０番地３３,,13,213,1890001,,,2025-08-12,清算の結了等,,,2015-10-05,1,,,,,ニシザワショウカイ,0
280,2013301046997,登記記録の閉鎖等,0,2025-08-20,2025-08-13,峻明園株式会社,,株式会社,東京都,江戸川区,松江２丁目１番１３－１０７号室,,13,123,1320025,,,2025-08-13,清算の結了等,,,2021-02-24,1,,,,,シュンメイエン,0
281,2013301049562,登記記録の閉鎖等,0,2025-08-20,2025-08-01,株式会社ディノスシネマ,,株式会社,東京都,豊島区,東池袋１丁目１４番３号,,13,116,1700013,,,2025-08-01,合併による解散等,2013301004625,令和７年８月１日東京都豊島区東池袋一丁目１４番３号佐々木総合管理株式会社（2013301004625）に合併し解散,2022-08-29,1,,,,,ディノスシネマ,0
287,2020005001428,登記記録の閉鎖等,0,2025-08-20,2025-08-01,医療法人社団栗原歯科医院,,その他の設立登記法人,神奈川県,横浜市青葉区,市ケ尾町１０５３番地２３,,14,117,2250024,,,2025-08-01,清算の結了等,,,2015-10-05,1,,,,,,0
301,2030002106996,登記記録の閉鎖等,0,2025-08-20,2025-08-08,株式会社ｅｓｔ　ｃｏｒｐｏｒａｔｉｏｎ,,株式会社,埼玉県,川口市,朝日４丁目２１番６２号,,11,203,3320001,,,2025-08-08,合併による解散等,4030001125624,令和７年８月１日埼玉県川口市朝日四丁目２１番６２号Ｏｏｒｔ株式会社（4030001125624）に合併し解散,2015-10-05,1,,,,,エストコーポレーション,0
308,2040002093994,登記記録の閉鎖等,0,2025-08-20,2025-07-23,有限会社セーフティキープ,,有限会社,千葉県,我孫子市,布佐平和台１丁目４番３０９号,,12,222,2701108,,,2025-07-23,清算の結了等,,,2015-10-05,1,,,,,セーフティキープ,0
325,2110002004944,登記記録の閉鎖等,0,2025-08-20,2025-07-31,新潟マリーンサービス工業有限会社,,有限会社,新潟県,新潟市中央区,附船町１丁目４２６６番地,,15,103,9518006,,,2025-07-31,清算の結了等,,,2015-10-05,1,,,,,ニイガタマリーンサービスコウギョウ,0
329,2120001019892,登記記録の閉鎖等,0,2025-08-20,2025-08-05,株式会社加美自動車,,株式会社,大阪府,大阪市平野区,加美南３丁目２番１６号,,27,126,5470003,,,2025-08-05,清算の結了等,,,2015-10-05,1,,,,,カミジドウシャ,0
348,2120901013805,登記記録の閉鎖等,0,2025-08-20,2025-07-31,株式会社今西不動産鑑定,,株式会社,大阪府,吹田市,垂水町３丁目２４番１４－７１３号,,27,205,5640062,,,2025-07-31,清算の結了等,,,2015-10-05,1,,,,,イマニシフドウサンカンテイ,0
362,2180001001424,登記記録の閉鎖等,0,2025-08-20,2025-08-01,ライオン交通株式会社,,株式会社,愛知県,名古屋市守山区,菱池町１１番３号,,23,113,4630045,,,2025-08-01,合併による解散等,5180001004309,令和７年８月１日名古屋市千種区猪高町大字猪子石字山之端８１番地の４伸和交通株式会社（5180001004309）に合併し解散,2015-10-05,1,,,,,ライオンコウツウ,0
369,2180002067927,登記記録の閉鎖等,0,2025-08-20,2025-07-28,有限会社プロフト,,有限会社,愛知県,春日井市,坂下町２丁目１０００番地,,23,206,4800305,,,2025-07-28,清算の結了等,,,2015-10-05,1,,,,,プロフト,0
374,2180302013416,登記記録の閉鎖等,0,2025-08-20,2025-08-05,有限会社鈴木塗装店,,有限会社,愛知県,豊川市,御津町広石後畠５番地,,23,207,4410321,,,2025-08-05,清算の結了等,,,2015-10-05,1,,,,,スズキトソウテン,0
379,2200001043389,登記記録の閉鎖等,0,2025-08-20,2025-08-14,山田設備工業株式会社,,株式会社,岐阜県,羽島市,竹鼻町駒塚６４４番地の２,00137822,21,209,5016241,,,2025-08-14,清算の結了等,,,2025-02-05,1,,,,,,0
389,2260002015101,登記記録の閉鎖等,0,2025-08-20,2025-07-29,有限会社オネスト,,有限会社,岡山県,岡山市南区,西高崎５番地３１１,,33,104,7091204,,,2025-07-29,清算の結了等,,,2015-10-05,1,,,,,オネスト,0
399,2300001010478,登記記録の閉鎖等,0,2025-08-20,2025-08-12,株式会社ＴＳＫ,,株式会社,佐賀県,西松浦郡有田町,本町乙３０３０番地４,,41,401,8440018,,,2025-08-12,清算の結了等,,,2016-09-07,1,,,,,ティエスケイ,0
401,2320002005418,登記記録の閉鎖等,0,2025-08-20,2025-08-18,有限会社はと商事,,有限会社,大分県,別府市,大字鶴見３０４８番地,,44,202,8740840,,,2025-08-18,清算の結了等,,,2015-10-05,1,,,,,ハトショウジ,0
403,2340001007603,登記記録の閉鎖等,0,2025-08-20,2025-08-05,霧島国際ホテルマネジメント株式会社,,株式会社,鹿児島県,霧島市,牧園町高千穂３９３０番地１２,,46,218,8996603,,,2025-08-05,清算の結了等,,,2015-10-05,1,,,,,キリシマコクサイホテルマネジメント,0
411,2360005003555,登記記録の閉鎖等,0,2025-08-20,2025-08-05,沖縄県グリーン環境協同組合,,その他の設立登記法人,沖縄県,名護市,字宇茂佐１９６６番地６,,47,209,9050006,,,2025-08-05,清算の結了等,,,2015-10-05,1,,,,,オキナワケングリーンカンキョウ,0
412,2370001031427,登記記録の閉鎖等,0,2025-08-20,2025-07-24,株式会社ピースサポートサービス,,株式会社,宮城県,名取市,美田園５丁目９－８,,04,207,9811217,,,2025-07-24,清算の結了等,,,2015-10-05,1,,,,,ピースサポートサービス,0
417,2380001032382,登記記録の閉鎖等,0,2025-08-20,2025-07-31,株式会社ベルウッド,,株式会社,福島県,二本松市,亀谷１丁目６８番地,,07,210,9640911,,,2025-07-31,清算の結了等,,,2021-12-09,1,,,,,ベルウッド,0
422,2410002002455,登記記録の閉鎖等,0,2025-08-20,2025-08-18,有限会社高橋技研,,有限会社,秋田県,秋田市,新屋町字新町後２７８番地２センチュリー２１Ｂ１０２,,05,201,0101623,,,2025-08-18,清算の結了等,,,2015-10-05,1,,,,,,0
423,2470002005444,登記記録の閉鎖等,0,2025-08-20,2025-08-18,有限会社ハート犬猫病院,,有限会社,香川県,高松市,太田下町２３０７番地１,,37,201,7618073,,,2025-08-18,清算の結了等,,,2015-10-05,1,,,,,ハートイヌネコビョウイン,0
446,3010401078482,登記記録の閉鎖等,0,2025-08-20,2025-07-15,株式会社松堀ホールディングス,,株式会社,東京都,港区,六本木７丁目１５番１３－５０２号,,13,103,1060032,,,2025-07-15,合併による解散等,7010401096539,令和７年７月１５日東京都港区六本木七丁目１８番１５号株式会社松堀トラスト（7010401096539）に合併し解散,2015-10-05,1,,,,,マツボリホールディングス,0
452,3010501034939,登記記録の閉鎖等,0,2025-08-20,2025-08-18,株式会社ｇａｉｎ,,株式会社,東京都,足立区,千住河原町３８番７－８０４号,,13,121,1200037,,,2025-08-18,清算の結了等,,,2015-10-05,1,,,,,ゲイン,0
471,3011501024566,登記記録の閉鎖等,0,2025-08-20,2025-08-05,株式会社イーズ,,株式会社,東京都,北区,赤羽南２丁目１５番３号,,13,117,1150044,,,2025-08-05,清算の結了等,,,2019-03-12,1,,,,,イーズ,0
472,3011503002347,登記記録の閉鎖等,0,2025-08-20,2025-08-15,合同会社岩淵恒産,,合同会社,東京都,北区,赤羽２丁目３０番５号,,13,117,1150045,,,2025-08-15,清算の結了等,,,2015-10-05,1,,,,,イワブチコウサン,0
502,3040001059145,登記記録の閉鎖等,0,2025-08-20,2025-07-25,協立技研株式会社,,株式会社,千葉県,茂原市,六ツ野３３７９番地４,,12,210,2970012,,,2025-07-25,清算の結了等,,,2015-10-05,1,,,,,キョウリツギケン,0
515,3050002008711,登記記録の閉鎖等,0,2025-08-20,2025-08-06,有限会社東野屋,,有限会社,茨城県,ひたちなか市,東本町８番３号,,08,221,3111215,,,2025-08-06,清算の結了等,,,2015-10-05,1,,,,,トウノヤ,0
518,3060001019279,登記記録の閉鎖等,0,2025-08-20,2025-08-08,モケン工業株式会社,,株式会社,栃木県,足利市,助戸３丁目５２２番地４,,09,202,3260044,,,2025-08-08,清算の結了等,,,2015-10-05,1,,,,,モケンコウギョウ,0
521,3070003004542,登記記録の閉鎖等,0,2025-08-20,2025-08-08,合同会社ドッグランドＳＫＹ,,合同会社,群馬県,高崎市,白岩町１０７６番地１,,10,202,3703332,,,2025-08-08,清算の結了等,,,2022-07-06,1,,,,,ドッグランドスカイ,0
526,3090003000829,登記記録の閉鎖等,0,2025-08-20,2025-08-12,合同会社雨畑シリカ,,合同会社,山梨県,甲府市,下鍛冶屋町４６９番地１,,19,201,4000835,,,2025-08-12,清算の結了等,,,2015-10-05,1,,,,,アメハタシリカ,0
530,3120001122571,登記記録の閉鎖等,0,2025-08-20,2025-08-07,電源株式会社,,株式会社,兵庫県,洲本市,五色町都志９０８番地,,28,205,6561301,,,2025-08-07,合併による解散等,4140001093323,令和７年７月３１日兵庫県加東市田中１６５番地日本電建株式会社（4140001093323）に合併し解散,2015-10-05,1,,,,,デンゲン,0
541,3120002060820,登記記録の閉鎖等,0,2025-08-20,2025-08-06,有限会社アイ・テック,,有限会社,大阪府,大阪市中央区,南船場２丁目１１番９号,,27,128,5420081,,,2025-08-06,清算の結了等,,,2015-10-05,1,,,,,,0
569,3140002057831,登記記録の閉鎖等,0,2025-08-20,2025-08-08,有限会社堀印刷所,,有限会社,兵庫県,西宮市,染殿町１番１５号,,28,204,6620913,,,2025-08-08,清算の結了等,,,2015-10-05,1,,,,,ホリインサツジョ,0
574,3180001044488,登記記録の閉鎖等,0,2025-08-20,2025-07-28,江蘇株式会社,,株式会社,愛知県,名古屋市中区,丸の内３丁目８番８号山富丸の内ビル,,23,106,4600002,,,2025-07-28,清算の結了等,,,2015-10-05,1,,,,,コウソ,0
575,3180001107162,登記記録の閉鎖等,0,2025-08-20,2025-07-28,株式会社ＡＫＩ,,株式会社,愛知県,一宮市,木曽川町内割田字南出４１６番地３,,23,203,4930006,,,2025-07-28,清算の結了等,,,2015-10-05,1,,,,,アキ,0
577,3180001127409,登記記録の閉鎖等,0,2025-08-20,2025-07-28,株式会社Ｌｉａｉｓｏｎ,,株式会社,愛知県,名古屋市中区,栄２丁目８－７シーエフ伏見ビル３階,,23,106,4600008,,,2025-07-28,清算の結了等,,,2017-04-20,1,,,,,リエゾン,0
584,3180002009250,登記記録の閉鎖等,0,2025-08-20,2025-07-28,有限会社牛巻鉄工所,,有限会社,愛知県,名古屋市瑞穂区,宝田町１丁目１８番地,,23,108,4670866,,,2025-07-28,清算の結了等,,,2015-10-05,1,,,,,ウシマキテッコウジョ,0
587,3180301010256,登記記録の閉鎖等,0,2025-08-20,2025-08-06,株式会社ミズコシ,,株式会社,愛知県,豊川市,中央通３丁目３１番地,,23,207,4420051,,,2025-08-06,清算の結了等,,,2015-10-05,1,,,,,ミズコシ,0
590,3190003004191,登記記録の閉鎖等,0,2025-08-20,2025-08-18,ＡｓａｎｏＪａｐａｎ合同会社,,合同会社,三重県,桑名市,大字赤須賀１８１７番地５５,,24,205,5110033,,,2025-08-18,清算の結了等,,,2023-01-11,1,,,,,アサノジャパン,0
595,3230002004428,登記記録の閉鎖等,0,2025-08-20,2025-08-19,有限会社システムユニオン,,有限会社,富山県,富山市,今泉３４番地,,16,201,9398075,,,2025-08-19,清算の結了等,,,2015-10-05,1,,,,,システムユニオン,0
604,3260001027658,登記記録の閉鎖等,0,2025-08-20,2025-07-24,株式会社こうざい,,株式会社,岡山県,倉敷市,玉島長尾１６７番地８,,33,202,7100251,,,2025-07-24,清算の結了等,,,2015-10-05,1,,,,,コウザイ,0
607,3260003000720,登記記録の閉鎖等,0,2025-08-20,2025-07-28,ライト・ウエイブ合同会社,,合同会社,岡山県,倉敷市,西坂１４８０番地１３１,,33,202,7100004,,,2025-07-28,清算の結了等,,,2015-10-05,1,,,,,ライトウエイブ,0
623,3290003008133,登記記録の閉鎖等,0,2025-08-20,2025-07-18,株式会社Ｄｒｅａｍ　ｂｏｘ,,株式会社,福岡県,福岡市南区,向野２丁目２番１号,,40,134,8150035,,,2025-07-18,清算の結了等,,,2018-06-05,1,,,,,,0
648,3370001024231,登記記録の閉鎖等,0,2025-08-20,2025-08-06,株式会社Ｒｅｖｅ．Ｔ．Ｋ,,株式会社,青森県,西津軽郡鰺ヶ沢町,大字舞戸町字上富田５３番地４,,02,321,0382761,,,2025-08-06,清算の結了等,,,2015-10-05,1,,,,,,0
649,3370005001103,登記記録の閉鎖等,0,2025-08-20,2025-07-31,宮城県企業人材支援協同組合,,その他の設立登記法人,宮城県,仙台市青葉区,国分町１丁目７番１８号,,04,101,9800803,,,2025-07-31,清算の結了等,,,2015-10-05,1,,,,,ミヤギケンキギョウジンザイシエン,0
652,3380002020261,登記記録の閉鎖等,0,2025-08-20,2025-08-01,有限会社マルト自動車,,有限会社,福島県,須賀川市,森宿字茶畑４６番地,,07,207,9620001,,,2025-08-01,清算の結了等,,,2015-10-05,1,,,,,,0
657,3410002003460,登記記録の閉鎖等,0,2025-08-20,2025-08-18,有限会社誠不動産,,有限会社,秋田県,秋田市,広面字樋ノ上３１番地５,,05,201,0100041,,,2025-08-18,清算の結了等,,,2015-10-05,1,,,,,マコトフドウサン,0
675,4010003042084,登記記録の閉鎖等,0,2025-08-20,2025-08-08,合同会社レオニズ,,合同会社,東京都,千代田区,平河町１丁目６番１５号シルスフィア会計事務所内,,13,101,1020093,,,2025-08-08,清算の結了等,,,2023-11-01,1,,,,,レオニズ,0
688,4010501048665,登記記録の閉鎖等,0,2025-08-20,2025-08-04,株式会社Ｓｅｎｓｈｕｋａｉ　Ｍａｋｅ　Ｃｏ,,株式会社,東京都,台東区,寿３丁目１５番１２号,,13,106,1110042,,,2025-08-04,清算の結了等,,,2022-04-04,1,,,,,センシュカイメイクコー,0
706,4011101088853,登記記録の閉鎖等,0,2025-08-20,2025-07-31,株式会社メディコ,,株式会社,東京都,新宿区,西新宿３丁目２０番２号,,13,104,1600023,,,2025-07-31,清算の結了等,,,2019-09-04,1,,,,,メディコ,0
708,4011305002123,登記記録の閉鎖等,0,2025-08-20,2025-08-12,一般社団法人ガンダムＧＬＯＢＡＬ　ＣＨＡＬＬＥＮＧＥ,,その他の設立登記法人,東京都,杉並区,荻窪４丁目３０番１６号,,13,115,1670051,,,2025-08-12,清算の結了等,,,2015-10-05,1,,,,,ガンダムグローバルチャレンジ,0
709,4011502004525,登記記録の閉鎖等,0,2025-08-20,2025-08-18,有限会社日精サービス,,有限会社,東京都,北区,赤羽北２丁目１９－１０－１０６,,13,117,1150052,,,2025-08-18,清算の結了等,,,2015-10-05,1,,,,,,0
728,4030001116945,登記記録の閉鎖等,0,2025-08-20,2025-08-08,ＤＮ．Ｔｒｕｓｔ－Ｊａｐａｎ株式会社,,株式会社,埼玉県,飯能市,大字中居５５番地１レオパレスシャルマン２０６号室,,11,209,3570002,,,2025-08-08,清算の結了等,,,2016-10-27,1,,,,,ディーエヌトラストジャパン,0
746,4050001021879,登記記録の閉鎖等,0,2025-08-20,2025-08-06,須加野運送株式会社,,株式会社,茨城県,鉾田市,造谷１３７８番地,,08,234,3111415,,,2025-08-06,清算の結了等,,,2015-10-05,1,,,,,スカノウンソウ,0
757,4060001018890,登記記録の閉鎖等,0,2025-08-20,2025-08-07,常見繊維株式会社,,株式会社,栃木県,足利市,山下町１４３５番地,,09,202,3260846,,,2025-08-07,清算の結了等,,,2015-10-05,1,,,,,ツネミセンイ,0
760,4080002010911,登記記録の閉鎖等,0,2025-08-20,2025-08-15,有限会社はぎはら,,有限会社,静岡県,静岡市清水区,西久保５９番地の２２,,22,103,4240038,,,2025-08-15,清算の結了等,,,2015-10-05,1,,,,,ハギハラ,0
765,4110001036037,登記記録の閉鎖等,0,2025-08-20,2025-07-31,ＲＳＩサービス株式会社,,株式会社,新潟県,燕市,物流センター２丁目３４番地,,15,213,9591277,,,2025-07-31,清算の結了等,,,2021-09-15,1,,,,,アールエスアイサービス,0
769,4120001148392,登記記録の閉鎖等,0,2025-08-20,2025-08-05,株式会社ニッポンリターダシステム,,株式会社,大阪府,寝屋川市,木田元宮１丁目１番３３号,,27,215,5720822,,,2025-08-05,清算の結了等,,,2015-10-05,1,,,,,ニッポンリターダシステム,0
777,4120001267795,登記記録の閉鎖等,0,2025-08-20,2025-07-30,元和株式会社,,株式会社,大阪府,大阪市住吉区,殿辻１丁目２－２６シーズコート１０５号,,27,120,5580042,,,2025-07-30,清算の結了等,,,2024-08-15,1,,,,,ゲンワ,0
801,4122002001027,登記記録の閉鎖等,0,2025-08-20,2025-08-04,有限会社大久保金型製作所,,有限会社,大阪府,東大阪市,森河内東１丁目２６番１３号,,27,227,5770062,,,2025-08-04,清算の結了等,,,2015-10-05,1,,,,,オオクボカナガタセイサクショ,0
814,4170002006413,登記記録の閉鎖等,0,2025-08-20,2025-08-18,有限会社海南東ガス,,有限会社,和歌山県,海南市,七山７７２番地の５１,,30,202,6400441,,,2025-08-18,清算の結了等,,,2015-10-05,1,,,,,カイナンヒガシガス,0
831,4190001025115,登記記録の閉鎖等,0,2025-08-20,2025-08-18,株式会社ホールマーク,,株式会社,三重県,伊勢市,小俣町湯田６４番地３,,24,203,5190506,,,2025-08-18,清算の結了等,,,2017-11-27,1,,,,,ホールマーク,0
833,4200005004195,登記記録の閉鎖等,0,2025-08-20,2025-08-01,医療法人社団平泉こどもクリニック,,その他の設立登記法人,岐阜県,大垣市,友江２丁目１０９番地,,21,202,5030955,,,2025-08-01,清算の結了等,,,2015-10-05,1,,,,,ヒライズミコドモクリニック,0
859,4300001010146,登記記録の閉鎖等,0,2025-08-20,2025-08-18,株式会社ＨＩＤＥＹＯＳＨＩ,,株式会社,佐賀県,唐津市,湊町４５５番地,,41,202,8470133,,,2025-08-18,清算の結了等,,,2015-11-13,1,,,,,ヒデヨシ,0
863,4330001009409,登記記録の閉鎖等,0,2025-08-20,2025-08-18,株式会社進藤建設,,株式会社,熊本県,合志市,御代志２０８６番地４４,,43,216,8611104,,,2025-08-18,合併による解散等,8330002017167,令和７年８月１日熊本県合志市野々島３９７９番地３株式会社つくしの里（8330002017167）に合併し解散,2015-10-05,1,,,,,シンドウケンセツ,0
885,4380002000782,登記記録の閉鎖等,0,2025-08-20,2025-07-31,有限会社オルテシステム,,有限会社,福島県,福島市,笹谷字釜川原３番地の４,,07,201,9600241,,,2025-07-31,清算の結了等,,,2015-10-05,1,,,,,オルテシステム,0
895,4430005007720,登記記録の閉鎖等,0,2025-08-20,2025-08-08,医療法人社団桜台クリニック,,その他の設立登記法人,北海道,小樽市,桜２丁目３２番２２号,,01,203,0470156,,,2025-08-08,清算の結了等,,,2015-10-05,1,,,,,サクラダイクリニック,0
902,5010001170076,登記記録の閉鎖等,0,2025-08-20,2025-08-05,エコソーラー・ジャパン株式会社,,株式会社,沖縄県,豊見城市,字豊崎１番地１１７７,,47,212,9010225,,,2025-08-05,清算の結了等,,,2015-10-05,1,,,,,エコソーラージャパン,0
903,5010001235630,登記記録の閉鎖等,0,2025-08-20,2025-07-03,株式会社ブルーモルフ,,株式会社,東京都,中央区,勝どき５丁目３－１勝どきザ・タワー３３１６,,13,102,1040054,,,2025-07-03,清算の結了等,,,2023-05-26,1,,,,,ブルーモルフ,0
918,5010501033484,登記記録の閉鎖等,0,2025-08-20,2025-08-04,株式会社ロイヤル観光,,株式会社,東京都,台東区,千束４丁目１７番１７号,,13,106,1110031,,,2025-08-04,清算の結了等,,,2015-10-05,1,,,,,,0
944,5011101088951,登記記録の閉鎖等,0,2025-08-20,2025-07-15,株式会社悠意,,株式会社,東京都,新宿区,新宿５丁目１０番１０号海老沢ビル２０２,,13,104,1600022,,,2025-07-15,清算の結了等,,,2019-09-17,1,,,,,ユウココロ,0
954,5011801039717,登記記録の閉鎖等,0,2025-08-20,2025-08-18,株式会社サンキョーファニチャー,,株式会社,東京都,足立区,中川４丁目１２番１２号メゾン・ド・富士１００号室,,13,121,1200002,,,2025-08-18,清算の結了等,,,2021-09-21,1,,,,,サンキョーファニチャー,0
982,5030005011943,登記記録の閉鎖等,0,2025-08-20,2025-08-12,特定非営利活動法人市民の患者学研究会,,その他の設立登記法人,埼玉県,さいたま市中央区,上落合６丁目６番９号,,11,105,3380001,,,2025-08-12,清算の結了等,,,2015-10-05,1,,,,,シミンノカンジャガクケンキュウカイ,0
994,5050001052188,登記記録の閉鎖等,0,2025-08-20,2025-08-06,株式会社Ｋ＆Ｇ,,株式会社,茨城県,つくば市,さくらの森５番地３２,,08,220,3050019,,,2025-08-06,清算の結了等,,,2023-01-06,1,,,,,ケーアンドジー,0
999,5050005006933,登記記録の閉鎖等,0,2025-08-20,2025-08-04,特定非営利活動法人コネカクラブ,,その他の設立登記法人,茨城県,鹿嶋市,大字木滝佐田谷原入会３番地１５,,08,222,3140026,,,2025-08-04,清算の結了等,,,2015-10-05,1,,,,,コネカクラブ,0
1003,5060001032610,登記記録の閉鎖等,0,2025-08-20,2025-08-07,ＴＨＯ株式会社,,株式会社,栃木県,佐野市,鐙塚町３２４番地３,,09,204,3270815,,,2025-08-07,清算の結了等,,,2020-05-20,1,,,,,ティーエイチオー,0
1004,5070001035513,登記記録の閉鎖等,0,2025-08-20,2025-08-18,群馬トランスポート株式会社,,株式会社,群馬県,桐生市,新里町山上９９番地７,,10,203,3760125,,,2025-08-18,合併による解散等,3140001072311,令和７年７月３１日兵庫県西宮市山口町阪神流通センター三丁目２５番地協伸運輸株式会社（3140001072311）に合併し解散,2019-03-01,1,,,,,グンマトランスポート,0
1009,5080102005083,登記記録の閉鎖等,0,2025-08-20,2025-08-14,有限会社ワラビ,,有限会社,静岡県,沼津市,原１７２１番地の１２,,22,203,4100312,,,2025-08-14,清算の結了等,,,2015-10-05,1,,,,,ワラビ,0
1012,5080401011030,登記記録の閉鎖等,0,2025-08-20,2025-08-12,株式会社ハイムホーム＆ガーデン,,株式会社,静岡県,浜松市中央区,初生町１４番地,,22,138,4338112,,,2025-08-12,清算の結了等,,,2015-10-05,1,,,,,ハイムホームアンドガーデン,0
1013,5080401013159,登記記録の閉鎖等,0,2025-08-20,2025-08-07,株式会社サトウ,,株式会社,静岡県,浜松市中央区,豊町１９９０番地の１,,22,138,4313101,,,2025-08-07,清算の結了等,,,2015-10-05,1,,,,,サトウ,0
1018,5110001009867,登記記録の閉鎖等,0,2025-08-20,2025-07-31,株式会社ワールドリーヴ,,株式会社,新潟県,新潟市東区,東明３丁目１０番地１,,15,102,9500853,,,2025-07-31,清算の結了等,,,2015-10-05,1,,,,,ワールドリーヴ,0
1026,5120001267464,登記記録の閉鎖等,0,2025-08-20,2025-08-05,株式会社Ａ　ｔｏ,,株式会社,大阪府,大阪市天王寺区,勝山３丁目１番１９号,,27,109,5430043,,,2025-08-05,清算の結了等,,,2024-08-05,1,,,,,エートゥー,0
1050,5120903003124,登記記録の閉鎖等,0,2025-08-20,2025-08-06,合同会社ＣＬＡＲＵＳ,,合同会社,大阪府,堺市堺区,向陵中町４丁４－３三国ビル２５号,,27,141,5900024,,,2025-08-06,清算の結了等,,,2020-02-07,1,,,,,クラルス,0
1059,5130005015736,登記記録の閉鎖等,0,2025-08-20,2025-07-29,一般社団法人市民活動ネット・チーム長岡京,,その他の設立登記法人,京都府,長岡京市,開田３丁目１－１９カワセビル１Ｆ,,26,209,6170826,,,2025-07-29,清算の結了等,,,2019-11-07,1,,,,,シミンカツドウネットチームナガオカキョウ,0
1073,5180001135046,登記記録の閉鎖等,0,2025-08-20,2025-07-28,株式会社ｃｉｑｋ,,株式会社,愛知県,名古屋市中区,栄５丁目４番２号,,23,106,4600008,,,2025-07-28,清算の結了等,,,2019-01-08,1,,,,,シック,0
1090,5200001042966,登記記録の閉鎖等,0,2025-08-20,2025-08-12,株式会社ダイユウホールディングス,,株式会社,岐阜県,各務原市,鵜沼西町４丁目６９番地,,21,213,5090132,,,2025-08-12,合併による解散等,6200001007299,令和７年８月１２日岐阜県各務原市鵜沼西町四丁目６９番地株式会社大雄（6200001007299）に合併し解散,2024-09-30,1,,,,,ダイユウホールディングス,0
1102,5260002001602,登記記録の閉鎖等,0,2025-08-20,2025-08-01,有限会社エルデコンストラクション,,有限会社,岡山県,岡山市北区,北方２丁目３番地の８,,33,101,7000803,,,2025-08-01,清算の結了等,,,2015-10-05,1,,,,,エルデコンストラクション,0
1104,5260002020032,登記記録の閉鎖等,0,2025-08-20,2025-07-31,中島電気有限会社,,有限会社,岡山県,倉敷市,児島下の町６丁目５番２７号,,33,202,7110906,,,2025-07-31,清算の結了等,,,2015-10-05,1,,,,,ナカシマデンキ,0
1105,5260002026079,登記記録の閉鎖等,0,2025-08-20,2025-07-25,有限会社山下鈑金塗装,,有限会社,岡山県,井原市,美星町黒忠３５３０番地１,,33,207,7141407,,,2025-07-25,清算の結了等,,,2015-10-05,1,,,,,ヤマシタバンキントソウ,0
1111,5290001102968,登記記録の閉鎖等,0,2025-08-20,2025-07-14,株式会社Ｗ,,株式会社,福岡県,福岡市博多区,博多駅前１丁目２３番２号ＰａｒｋＦｒｏｎｔ博多駅前１丁目５Ｆ－Ｂ,,40,132,8120011,,,2025-07-14,清算の結了等,,,2023-09-07,1,,,,,ダブリュー,0
1120,5340002022136,登記記録の閉鎖等,0,2025-08-20,2025-08-05,有限会社アイ・テック,,有限会社,鹿児島県,出水市,美原町６５１番地,,46,208,8990124,,,2025-08-05,清算の結了等,,,2015-10-05,1,,,,,,0
1124,5360001009140,登記記録の閉鎖等,0,2025-08-20,2025-08-06,株式会社ペルソ,,株式会社,沖縄県,浦添市,沢岻２丁目１７番１号,,47,208,9012112,,,2025-08-06,清算の結了等,,,2015-10-05,1,,,,,ペルソ,0
1130,5380005009647,登記記録の閉鎖等,0,2025-08-20,2025-07-31,神習教三島講社,,その他の設立登記法人,福島県,喜多方市,上三宮町上三宮字籬山６０７番地,,07,208,9660931,,,2025-07-31,清算の結了等,,,2015-10-05,1,,,,,,0
1132,5420001009027,登記記録の閉鎖等,0,2025-08-20,2025-08-06,株式会社弘美堂,,株式会社,青森県,弘前市,大字坂本町１番地,,02,202,0368016,,,2025-08-06,清算の結了等,,,2015-10-05,1,,,,,コウビドウ,0
1159,6010003033255,登記記録の閉鎖等,0,2025-08-20,2025-07-18,Ｉネットワーク・コミュニケーションズ合同会社,,合同会社,東京都,中央区,晴海５丁目６番５号,,13,102,1040053,,,2025-07-18,清算の結了等,,,2020-10-13,1,,,,,アイネットワークコミュニケーションズ,0
1160,6010003046166,登記記録の閉鎖等,0,2025-08-20,2025-07-18,エイチ・ピージャパン合同会社,,合同会社,東京都,千代田区,丸の内２丁目１番１号,,13,101,1000005,,,2025-07-18,合併による解散等,1010001230585,令和７年７月１８日東京都千代田区丸の内二丁目１番１号ＴＢＪホールディングス株式会社（1010001230585）に合併し解散,2025-01-24,1,,,,,エイチピージャパン,0
1163,6010401100342,登記記録の閉鎖等,0,2025-08-20,2025-07-22,ＪＩ　ＷＯＲＬＤ　ＪＡＰＡＮ株式会社,,株式会社,東京都,港区,赤坂６丁目１９番５０－３１３号,,13,103,1070052,,,2025-07-22,清算の結了等,,,2015-10-05,1,,,,,ジェイアイワールドジャパン,0
1168,6010502017205,登記記録の閉鎖等,0,2025-08-20,2025-07-31,有限会社プルミエ,,有限会社,東京都,台東区,寿３丁目７番１号,,13,106,1110042,,,2025-07-31,清算の結了等,,,2015-10-05,1,,,,,,0
1185,6011101001541,登記記録の閉鎖等,0,2025-08-20,2025-07-15,アサヒ都市開発株式会社,,株式会社,東京都,新宿区,弁天町２３番地６,,13,104,1620851,,,2025-07-15,清算の結了等,,,2025-06-17,1,,,,,,0
1186,6011101099361,登記記録の閉鎖等,0,2025-08-20,2025-07-15,仲野商事株式会社,,株式会社,東京都,新宿区,新宿２丁目７番１１号,,13,104,1600022,,,2025-07-15,清算の結了等,,,2022-07-01,1,,,,,ナカノショウジ,0
1187,6011103013964,登記記録の閉鎖等,0,2025-08-20,2025-07-18,合同会社ＮＫ３,,合同会社,東京都,新宿区,西新宿７丁目１０番１号Ｏ－ＧＵＡＲＤＳＨＩＮＪＵＫＵ７階,,13,104,1600023,,,2025-07-18,清算の結了等,,,2024-01-16,1,,,,,エヌケースリー,0
1190,6011301015663,登記記録の閉鎖等,0,2025-08-20,2025-08-08,株式会社エムジェイケイ,,株式会社,東京都,杉並区,高円寺北２丁目２２－１ＣＯＮＣＯＲＤ高円寺,,13,115,1660002,,,2025-08-08,清算の結了等,,,2015-10-05,1,,,,,エムジェイケイ,0
1211,6013102002312,登記記録の閉鎖等,0,2025-08-20,2025-08-18,有限会社番場電気商会,,有限会社,東京都,あきる野市,伊奈１５３９番地,,13,228,1900142,,,2025-08-18,清算の結了等,,,2015-10-05,1,,,,,バンバデンキショウカイ,0
1223,6030001142667,登記記録の閉鎖等,0,2025-08-20,2025-08-12,株式会社Ｂａｔｔｅｒｙ,,株式会社,埼玉県,朝霞市,泉水１丁目４－２４－５０７,,11,227,3510024,,,2025-08-12,清算の結了等,,,2021-06-07,1,,,,,バッテリー,0
1225,6030002019666,登記記録の閉鎖等,0,2025-08-20,2025-08-12,有限会社サイタマＹＭＳ,,有限会社,埼玉県,さいたま市見沼区,大字御蔵１１６９番地１３,,11,104,3370033,,,2025-08-12,清算の結了等,,,2015-10-05,1,,,,,サイタマワイエムエス,0
1239,6060002028359,登記記録の閉鎖等,0,2025-08-20,2025-08-07,有限会社幸田建業,,有限会社,栃木県,小山市,駅南町６丁目２５番１号,,09,208,3230822,,,2025-08-07,清算の結了等,,,2015-10-05,1,,,,,コウダケンギョウ,0
1241,6070001002082,登記記録の閉鎖等,0,2025-08-20,2025-08-14,株式会社地測設計,,株式会社,群馬県,前橋市,大友町２丁目２８番地３,,10,201,3710847,,,2025-08-14,清算の結了等,,,2015-10-05,1,,,,,チソクセッケイ,0
1248,6080402001541,登記記録の閉鎖等,0,2025-08-20,2025-08-12,有限会社遠州テレビサービス,,有限会社,静岡県,浜松市中央区,篠原町２１３９２番地の２,,22,138,4310201,,,2025-08-12,清算の結了等,,,2015-10-05,1,,,,,エンシュウテレビサービス,0
1253,6120001015855,登記記録の閉鎖等,0,2025-08-20,2025-08-05,日月工藝株式会社,,株式会社,大阪府,大阪市城東区,諏訪４丁目１１番２０号,,27,118,5360021,,,2025-08-05,清算の結了等,,,2015-10-05,1,,,,,ニチゲツコウゲイ,0
1279,6122002009588,登記記録の閉鎖等,0,2025-08-20,2025-08-04,志免重機有限会社,,有限会社,大阪府,東大阪市,下六万寺町３丁目７番３号,,27,227,5798066,,,2025-08-04,清算の結了等,,,2015-10-05,1,,,,,シメジュウキ,0
1291,6140002049909,登記記録の閉鎖等,0,2025-08-20,2025-08-14,有限会社ナガミ,,有限会社,兵庫県,姫路市,網干区和久字下前田５８７番,,28,201,6711227,,,2025-08-14,清算の結了等,,,2015-10-05,1,,,,,ナガミ,0
1293,6160002009836,登記記録の閉鎖等,0,2025-08-20,2025-07-22,福永商事有限会社,,有限会社,滋賀県,近江八幡市,出町９１５番地,,25,204,5230892,,,2025-07-22,清算の結了等,,,2015-10-05,1,,,,,フクナガショウジ,0
1297,6180001124634,登記記録の閉鎖等,0,2025-08-20,2025-07-28,株式会社愛知在宅生活支援機構,,株式会社,愛知県,名古屋市南区,弥生町２２９番田中ビル１０５号,,23,112,4570027,,,2025-07-28,清算の結了等,,,2016-08-31,1,,,,,アイチザイタクセイカツシエンキコウ,0
1298,6180001140045,登記記録の閉鎖等,0,2025-08-20,2025-07-28,光貴組運輸株式会社,,株式会社,愛知県,名古屋市緑区,大高町字杁前３９番地,,23,114,4598001,,,2025-07-28,清算の結了等,,,2020-02-12,1,,,,,コウキグミウンユ,0
1299,6180001148187,登記記録の閉鎖等,0,2025-08-20,2025-07-28,株式会社ＵｎＦｉｎｉＧｒｏｗ,,株式会社,愛知県,名古屋市中村区,名駅南２丁目８－１（ＡＪＢＬＤＧ４０１）,,23,105,4500003,,,2025-07-28,清算の結了等,,,2021-10-06,1,,,,,アンフィニグロウ,0
1308,6180002082179,登記記録の閉鎖等,0,2025-08-20,2025-07-28,有限会社豊成精工,,有限会社,愛知県,江南市,般若町東山１９３番地,,23,217,4838012,,,2025-07-28,清算の結了等,,,2015-10-05,1,,,,,ホウセイセイコウ,0
1336,6310003004969,登記記録の閉鎖等,0,2025-08-20,2025-08-15,合同会社尾上エンタープライズ,,合同会社,長崎県,大村市,宮小路３丁目１９５０番地２１,,42,205,8560807,,,2025-08-15,合併による解散等,3300002007225,令和７年７月２４日佐賀県杵島郡白石町大字新拓４６番地４株式会社マルハ園芸（3300002007225）に合併し解散,2025-03-25,1,,,,,オノウエエンタープライズ,0
1340,6350002004355,登記記録の閉鎖等,0,2025-08-20,2025-08-12,有限会社松岡水産,,有限会社,宮崎県,宮崎市,小戸町８８番地１,,45,201,8800857,,,2025-08-12,清算の結了等,,,2015-10-05,1,,,,,マツオカスイサン,0
1341,6350002005163,登記記録の閉鎖等,0,2025-08-20,2025-08-08,有限会社吉國,,有限会社,宮崎県,宮崎市,神宮東１丁目６番２２号,,45,201,8800056,,,2025-08-08,清算の結了等,,,2015-10-05,1,,,,,ヨシクニ,0
1357,6440002004461,登記記録の閉鎖等,0,2025-08-20,2025-08-14,有限会社丸サ坂田商店,,有限会社,北海道,茅部郡鹿部町,字鹿部１１８番地,,01,343,0411402,,,2025-08-14,清算の結了等,,,2015-10-05,1,,,,,マルササカタショウテン,0
1369,7010001219103,登記記録の閉鎖等,0,2025-08-20,2025-08-18,ＷＣＫホールディングス株式会社,,株式会社,東京都,中央区,新川１丁目３番３号,,13,102,1040033,,,2025-08-18,合併による解散等,8011601011220,令和７年８月１日東京都世田谷区池尻三丁目５番３８号株式会社ワールドスカイ（8011601011220）に合併し解散,2021-06-22,1,,,,,ダブリューシーケーホールディングス,0
1379,7010005026330,登記記録の閉鎖等,0,2025-08-20,2025-08-08,一般社団法人神田をワインの街にしようの会,,その他の設立登記法人,東京都,千代田区,鍛冶町１丁目３番９号,,13,101,1010044,,,2025-08-08,清算の結了等,,,2017-02-07,1,,,,,カンダヲワインノマチニシヨウノカイ,0
1381,7010101009180,登記記録の閉鎖等,0,2025-08-20,2025-08-14,株式会社ハイリーズ,,株式会社,東京都,八王子市,裏高尾町１９０番地５,,13,201,1930841,,,2025-08-14,清算の結了等,,,2015-10-05,1,,,,,ハイリーズ,0
1384,7010401069008,登記記録の閉鎖等,0,2025-08-20,2025-07-23,株式会社箕浦商事,,株式会社,東京都,港区,三田３丁目２番８号,,13,103,1080073,,,2025-07-23,清算の結了等,,,2015-10-05,1,,,,,ミノウラショウジ,0
1408,7010801033488,登記記録の閉鎖等,0,2025-08-20,2025-08-06,株式会社ヤスダイ,,株式会社,沖縄県,那覇市,松山１丁目１４番１５号,,47,201,9000032,,,2025-08-06,清算の結了等,,,2022-12-05,1,,,,,ヤスダイ,0
1409,7010901010073,登記記録の閉鎖等,0,2025-08-20,2025-08-18,株式会社久松企画,,株式会社,東京都,世田谷区,代沢２丁目４番７号,,13,112,1550032,,,2025-08-18,清算の結了等,,,2015-10-05,1,,,,,ヒサマツキカク,0
1414,7011001062591,登記記録の閉鎖等,0,2025-08-20,2025-07-22,株式会社ｉｎｄｉｖｉｄｕａｌ,,株式会社,岩手県,盛岡市,志家町３番２８,,03,201,0200883,,,2025-07-22,清算の結了等,,,2015-10-05,1,,,,,,0
1424,7011003008543,登記記録の閉鎖等,0,2025-08-20,2025-07-14,合同会社エスティーエフ,,合同会社,東京都,渋谷区,渋谷３丁目１番９号ＹＡＺＡＷＡビルＵＣＦ３階,,13,113,1500002,,,2025-07-14,合併による解散等,1011003008326,令和７年７月１４日東京都渋谷区神宮前四丁目２６番２８号２階合同会社コアプラス（1011003008326）に合併し解散,2018-02-27,1,,,,,エスティーエフ,0
1456,7012802003643,登記記録の閉鎖等,0,2025-08-20,2025-08-04,有限会社ファイネスト,,有限会社,東京都,昭島市,玉川町３丁目３番１７－２０２号,,13,207,1960034,,,2025-08-04,清算の結了等,,,2015-10-05,1,,,,,ファイネスト,0
1469,7021002035612,登記記録の閉鎖等,0,2025-08-20,2025-07-24,有限会社八百庄商店,,有限会社,神奈川県,伊勢原市,伊勢原２丁目３番２２号,,14,214,2591131,,,2025-07-24,清算の結了等,,,2015-10-05,1,,,,,ヤオショウショウテン,0
1473,7030001078935,登記記録の閉鎖等,0,2025-08-20,2025-08-12,株式会社アルパ・ロジスティクス,,株式会社,埼玉県,川口市,大字赤井４９３番地の２,,11,203,3340073,,,2025-08-12,清算の結了等,,,2015-10-05,1,,,,,アルパロジスティクス,0
1479,7030002049563,登記記録の閉鎖等,0,2025-08-20,2025-08-12,有限会社のろせ,,有限会社,埼玉県,三郷市,中央５丁目３７番地３,,11,237,3410038,,,2025-08-12,清算の結了等,,,2015-10-05,1,,,,,ノロセ,0
1480,7030002107032,登記記録の閉鎖等,0,2025-08-20,2025-08-08,有限会社舛井工務店,00017802,有限会社,埼玉県,戸田市,大字新曽１８５７番地の１,,11,224,3350021,,,2025-08-08,清算の結了等,,,2015-10-05,1,,,,,マスイコウムテン,0
1510,7100001032463,登記記録の閉鎖等,0,2025-08-20,2025-08-12,ＡＫＥＢＯＮＯ株式会社,,株式会社,長野県,長野市,大字稲葉６６９番地,,20,201,3800911,,,2025-08-12,合併による解散等,1100001000095,令和７年８月９日長野市大字稲葉６６９番地あけぼの印刷株式会社（1100001000095）に合併し解散,2019-08-15,1,,,,,アケボノ,0
1525,7120001179930,登記記録の閉鎖等,0,2025-08-20,2025-08-05,株式会社ｔｅｃｈ　ｖｅｉｎ,,株式会社,大阪府,大阪市中央区,備後町３丁目６－２大雅ビル１０Ｆ,,27,128,5410051,,,2025-08-05,清算の結了等,,,2015-10-05,1,,,,,テックベイン,0
1526,7120001198773,登記記録の閉鎖等,0,2025-08-20,2025-08-04,株式会社ライフソリューションズ,,株式会社,大阪府,大阪市中央区,南船場４丁目１０番２１号,,27,128,5420081,,,2025-08-04,清算の結了等,,,2016-06-07,1,,,,,ライフソリューションズ,0
1537,7120003019589,登記記録の閉鎖等,0,2025-08-20,2025-07-22,合同会社Ｓ２,,合同会社,大阪府,大阪市生野区,新今里４丁目３－２１－１Ｆ,,27,116,5440001,,,2025-07-22,清算の結了等,,,2021-06-10,1,,,,,エスツー,0
1542,7120901029540,登記記録の閉鎖等,0,2025-08-20,2025-07-29,株式会社ＷＩＮフードプランニング,,株式会社,大阪府,豊中市,西泉丘２丁目７４４番地の１（Ａ―５０９号）,,27,203,5610862,,,2025-07-29,清算の結了等,,,2015-10-05,1,,,,,,0
1556,7140002028564,登記記録の閉鎖等,0,2025-08-20,2025-08-05,有限会社岡井不動産,,有限会社,兵庫県,明石市,太寺２丁目１２番２７号,,28,203,6730845,,,2025-08-05,清算の結了等,,,2015-10-05,1,,,,,オカイフドウサン,0
1568,7180001154300,登記記録の閉鎖等,0,2025-08-20,2025-07-28,株式会社Ｒ‐ｖｉｌｌａｇｅ,,株式会社,愛知県,名古屋市千種区,神田町３２番１５号,,23,101,4640077,,,2025-07-28,清算の結了等,,,2022-12-23,1,,,,,,0
1584,7180301012397,登記記録の閉鎖等,0,2025-08-20,2025-08-01,株式会社フードソース,,株式会社,愛知県,豊川市,正岡町池田７００番地,,23,207,4420823,,,2025-08-01,清算の結了等,,,2015-10-05,1,,,,,,0
1596,7220002016445,登記記録の閉鎖等,0,2025-08-20,2025-08-19,有限会社イイダ,,有限会社,石川県,河北郡内灘町,字鶴ケ丘３丁目１３８番地８,,17,365,9200271,,,2025-08-19,清算の結了等,,,2015-10-05,1,,,,,イイダ,0
1599,7230002008094,登記記録の閉鎖等,0,2025-08-20,2025-08-19,有限会社田中保険コンサルタント,,有限会社,富山県,黒部市,田家新７７１番地,,16,207,9380045,,,2025-08-19,清算の結了等,,,2015-10-05,1,,,,,タナカホケンコンサルタント,0
1601,7250003003547,登記記録の閉鎖等,0,2025-08-20,2025-08-14,合同会社ブラックカッターズ,,合同会社,山口県,宇部市,大字西万倉１３０１番地１,,35,202,7570214,,,2025-08-14,清算の結了等,,,2024-08-09,1,,,,,ブラックカッターズ,0
1604,7260002030517,登記記録の閉鎖等,0,2025-08-20,2025-07-24,有限会社末田建工,,有限会社,岡山県,勝田郡勝央町,植月北２５３９番地,,33,622,7094331,,,2025-07-24,清算の結了等,,,2015-10-05,1,,,,,スエダケンコウ,0
1611,7290001068704,登記記録の閉鎖等,0,2025-08-20,2025-07-18,株式会社Ｍａｓｔｅｒｐｌａｎ,,株式会社,福岡県,大牟田市,大字橘４７番地５,,40,202,8370911,,,2025-07-18,清算の結了等,,,2015-10-05,1,,,,,,0
1618,7300001008583,登記記録の閉鎖等,0,2025-08-20,2025-08-18,株式会社エムズ,,株式会社,佐賀県,唐津市,和多田天満町１丁目４１２３番地１,,41,202,8470082,,,2025-08-18,清算の結了等,,,2015-10-05,1,,,,,エムズ,0
1628,7380003004292,登記記録の閉鎖等,0,2025-08-20,2025-08-01,合同会社ファンデ,,合同会社,福島県,会津若松市,八角町７番２０号,,07,202,9650009,,,2025-08-01,清算の結了等,,,2018-07-18,1,,,,,ファンデ,0
1629,7390002001967,登記記録の閉鎖等,0,2025-08-20,2025-08-13,有限会社東洋,,有限会社,山形県,山形市,北町３丁目８番１７号,,06,201,9900821,,,2025-08-13,清算の結了等,,,2015-10-05,1,,,,,トウヨウ,0
1657,8010001183323,登記記録の閉鎖等,0,2025-08-20,2025-07-22,ＧＴｅｃｈ株式会社,,株式会社,東京都,中央区,新川１丁目６番１１号,,13,102,1040033,,,2025-07-22,清算の結了等,,,2017-05-08,1,,,,,ジーテック,0
1669,8010003032024,登記記録の閉鎖等,0,2025-08-20,2025-07-18,Ｉモバイル・コミュニケーションズ合同会社,,合同会社,東京都,中央区,晴海５丁目６番５号,,13,102,1040053,,,2025-07-18,清算の結了等,,,2020-04-08,1,,,,,アイモバイルコミュニケーションズ,0
1683,8010403021329,登記記録の閉鎖等,0,2025-08-20,2025-07-22,欅インベストメント合同会社,,合同会社,東京都,港区,赤坂２丁目１０番５号デロイトトーマツ赤坂インターナショナル株式会社内,,13,103,1070052,,,2025-07-22,清算の結了等,,,2019-08-27,1,,,,,ケヤキインベストメント,0
1685,8010501051467,登記記録の閉鎖等,0,2025-08-20,2025-08-04,株式会社オオモリ,,株式会社,東京都,台東区,浅草３丁目２１－９トーラス浅草２０１号,,13,106,1110032,,,2025-08-04,清算の結了等,,,2023-12-06,1,,,,,オオモリ,0
1687,8010503006816,登記記録の閉鎖等,0,2025-08-20,2025-08-01,合同会社ブルーム,,合同会社,東京都,台東区,元浅草１丁目６番１２号,,13,106,1110041,,,2025-08-01,清算の結了等,,,2022-12-14,1,,,,,ブルーム,0
1694,8010801005602,登記記録の閉鎖等,0,2025-08-20,2025-08-12,ジュンインターナショナル株式会社,,株式会社,東京都,大田区,南蒲田２丁目１１番１３号,,13,111,1440035,,,2025-08-12,清算の結了等,,,2015-10-05,1,,,,,ジュンインターナショナル,0
1700,8010901039649,登記記録の閉鎖等,0,2025-08-20,2025-08-07,株式会社電建,,株式会社,兵庫県,神戸市中央区,二宮町４丁目９番１－３０１,,28,110,6510093,,,2025-08-07,合併による解散等,4140001093323,令和７年７月３１日兵庫県加東市田中１６５番地日本電建株式会社（4140001093323）に合併し解散,2017-03-09,1,,,,,デンケン,0
1731,8013202014255,登記記録の閉鎖等,0,2025-08-20,2025-08-15,ウイングビート有限会社,,有限会社,東京都,世田谷区,深沢１丁目２５番１９号,,13,112,1580081,,,2025-08-15,清算の結了等,,,2015-10-05,1,,,,,ウイングビート,0
1742,8030001063663,登記記録の閉鎖等,0,2025-08-20,2025-08-08,株式会社エドヤ桐箪笥,00015096,株式会社,埼玉県,越谷市,大沢２丁目８番１２号,,11,222,3430025,,,2025-08-08,清算の結了等,,,2015-10-05,1,,,,,エドヤキリタンス,0
1743,8030001089923,登記記録の閉鎖等,0,2025-08-20,2025-08-12,株式会社アビコマシン,,株式会社,埼玉県,日高市,大字高萩２３０４番地４６,,11,242,3501213,,,2025-08-12,清算の結了等,,,2015-10-05,1,,,,,アビコマシン,0
1750,8030002030316,登記記録の閉鎖等,0,2025-08-20,2025-08-12,有限会社所沢建築設計事務所,,有限会社,埼玉県,所沢市,大字荒幡４９７番地の９,,11,208,3591133,,,2025-08-12,清算の結了等,,,2015-10-05,1,,,,,トコロザワケンチクセッケイジムショ,0
1751,8030002077613,登記記録の閉鎖等,0,2025-08-20,2025-08-07,有限会社中華料理喜楽,,有限会社,埼玉県,比企郡川島町,大字三保谷宿３７６番地１,,11,346,3500124,,,2025-08-07,清算の結了等,,,2015-10-05,1,,,,,チュウカリョウリキラク,0
1757,8040001010078,登記記録の閉鎖等,0,2025-08-20,2025-07-24,株式会社京葉シヤツ,,株式会社,千葉県,千葉市稲毛区,山王町３３番地,,12,103,2630002,,,2025-07-24,清算の結了等,,,2015-10-05,1,,,,,,0
1773,8050002006883,登記記録の閉鎖等,0,2025-08-20,2025-08-06,有限会社トマツリ,,有限会社,茨城県,那珂市,向山筒粥９６８番地の１,,08,226,3110102,,,2025-08-06,清算の結了等,,,2015-10-05,1,,,,,トマツリ,0
1783,8080102003043,登記記録の閉鎖等,0,2025-08-20,2025-08-15,有限会社富士酒蔵,,有限会社,静岡県,沼津市,下香貫木ノ宮８４１番地の４,,22,203,4100822,,,2025-08-15,清算の結了等,,,2015-10-05,1,,,,,フジシュゾウ,0
1790,8110005002089,登記記録の閉鎖等,0,2025-08-20,2025-07-31,医療法人社団馬場内科医院,,その他の設立登記法人,新潟県,新潟市南区,杉菜５番４１号,,15,106,9501208,,,2025-07-31,清算の結了等,,,2015-10-05,1,,,,,ババナイカイイン,0
1833,8150001010884,登記記録の閉鎖等,0,2025-08-20,2025-08-18,船倉製薬株式会社,,株式会社,奈良県,高市郡高取町,大字市尾９０５番地,,29,401,6350123,,,2025-08-18,清算の結了等,,,2015-10-05,1,,,,,フナクラセイヤク,0
1847,8180301024664,登記記録の閉鎖等,0,2025-08-20,2025-08-05,株式会社吉良シノブ,,株式会社,愛知県,西尾市,吉良町津平大入６２４番地,,23,213,4440503,,,2025-08-05,清算の結了等,,,2015-10-05,1,,,,,キラシノブ,0
1857,8250001007152,登記記録の閉鎖等,0,2025-08-20,2025-08-07,株式会社河久,,株式会社,山口県,下関市,彦島西山町４丁目１１番１８号,,35,201,7500093,,,2025-08-07,清算の結了等,,,2015-10-05,1,,,,,,0
1859,8260001003423,登記記録の閉鎖等,0,2025-08-20,2025-07-28,昭和技術測量株式会社,,株式会社,岡山県,岡山市北区,富吉２４１０番地,,33,101,7011133,,,2025-07-28,清算の結了等,,,2015-10-05,1,,,,,ショウワギジュツソクリョウ,0
1860,8260001019353,登記記録の閉鎖等,0,2025-08-20,2025-08-12,三栄コンクリート工業株式会社,,株式会社,岡山県,新見市,哲西町上神代４０７２番地１,,33,210,7193702,,,2025-08-12,清算の結了等,,,2015-10-05,1,,,,,サンエイコンクリートコウギョウ,0
1866,8290001071525,登記記録の閉鎖等,0,2025-08-20,2025-07-22,株式会社ジョイハンズ,,株式会社,福岡県,久留米市,東合川３丁目１８－２２,,40,203,8390809,,,2025-07-22,清算の結了等,,,2015-10-05,1,,,,,ジョイハンズ,0
1869,8290001087430,登記記録の閉鎖等,0,2025-08-20,2025-07-18,株式会社ＨＦＩ,,株式会社,福岡県,久留米市,東町３６番地８,,40,203,8300032,,,2025-07-18,清算の結了等,,,2019-12-13,1,,,,,,0
1882,8320001017581,登記記録の閉鎖等,0,2025-08-20,2025-08-08,株式会社ティーアップ,,株式会社,大分県,大分市,花園２丁目３番３６号,,44,201,8700846,,,2025-08-08,清算の結了等,,,2020-03-04,1,,,,,ティーアップ,0
1893,8360001033848,登記記録の閉鎖等,0,2025-08-20,2025-08-05,株式会社プロスペリテ,,株式会社,沖縄県,浦添市,西原６丁目１番５－３０５号Ｙシャルマン,,47,208,9012101,,,2025-08-05,清算の結了等,,,2024-06-21,1,,,,,プロスペリテ,0
1902,8400502000912,登記記録の閉鎖等,0,2025-08-20,2025-07-28,有限会社リビングちば,,有限会社,岩手県,一関市,花泉町花泉字深井沢３７番地,,03,209,0293101,,,2025-07-28,清算の結了等,,,2015-10-05,1,,,,,リビングチバ,0
1908,8430002045439,登記記録の閉鎖等,0,2025-08-20,2025-07-30,有限会社及川商店,,有限会社,北海道,江別市,豊幌美咲町４２番地の９,,01,217,0670027,,,2025-07-30,清算の結了等,,,2015-10-05,1,,,,,オイカワショウテン,0
1913,9010001119177,登記記録の閉鎖等,0,2025-08-20,2025-07-22,ＧＰＩ株式会社,,株式会社,東京都,港区,海岸１丁目１番１－２６１５号,,13,103,1050022,,,2025-07-22,清算の結了等,,,2015-10-05,1,,,,,ジーピーアイ,0
1932,9010405018677,登記記録の閉鎖等,0,2025-08-20,2025-08-08,一般社団法人エヴァセラピー協会,,その他の設立登記法人,東京都,大田区,田園調布２丁目４１番１３号,,13,111,1450071,,,2025-08-08,清算の結了等,,,2020-04-17,1,,,,,エヴァセラピーキョウカイ,0
1935,9010501015537,登記記録の閉鎖等,0,2025-08-20,2025-07-18,渡辺商事株式会社,,株式会社,東京都,台東区,東上野３丁目３３番６号,,13,106,1100015,,,2025-07-18,清算の結了等,,,2015-10-05,1,,,,,,0
1953,9011101037888,登記記録の閉鎖等,0,2025-08-20,2025-08-18,オリンパステルモバイオマテリアル株式会社,,株式会社,東京都,渋谷区,笹塚１丁目５０番１号,,13,113,1510073,,,2025-08-18,合併による解散等,5010001244796,令和７年８月１日東京都千代田区丸の内一丁目９番１号オスフェリオンバイオマテリアル株式会社（5010001244796）に合併し解散,2015-10-05,1,,,,,オリンパステルモバイオマテリアル,0
1971,9012402004552,登記記録の閉鎖等,0,2025-08-20,2025-08-18,有限会社ウイツシュ,,有限会社,東京都,小金井市,中町２丁目１５番３４号,,13,210,1840012,,,2025-08-18,清算の結了等,,,2015-10-05,1,,,,,,0
1978,9013302005723,登記記録の閉鎖等,0,2025-08-20,2025-08-01,有限会社泰東電気,,有限会社,東京都,豊島区,池袋本町２丁目２０番５号,,13,116,1700011,,,2025-08-01,清算の結了等,,,2015-10-05,1,,,,,タイトウデンキ,0
1984,9020002095945,登記記録の閉鎖等,0,2025-08-20,2025-08-12,有限会社エムアンドティーマネジメントサービス,,有限会社,東京都,杉並区,成田東５丁目２９番６－３０６号グローリオ南阿佐谷,,13,115,1660015,,,2025-08-12,清算の結了等,,,2015-10-05,1,,,,,エムアンドティーマネジメントサービス,0
1994,9030001121478,登記記録の閉鎖等,0,2025-08-20,2025-08-08,プラスワン株式会社,,株式会社,埼玉県,所沢市,緑町３丁目９番１４号,,11,208,3591111,,,2025-08-08,清算の結了等,,,2017-07-28,1,,,,,プラスワン,0
1999,9040001058059,登記記録の閉鎖等,0,2025-08-20,2025-08-05,フィデスアルス株式会社,,株式会社,千葉県,大網白里市,木崎１２７番地,,12,239,2993217,,,2025-08-05,合併による解散等,8040001003321,令和７年８月１日千葉市緑区大高町４０番地１５フィデス株式会社（8040001003321）に合併し解散,2015-10-05,1,,,,,フィデスアルス,0
2024,9080001025369,登記記録の閉鎖等,0,2025-08-20,2025-08-14,株式会社エムシェアリング,,株式会社,静岡県,焼津市,三ケ名９６１番地の８,,22,212,4250071,,,2025-08-14,清算の結了等,,,2023-01-11,1,,,,,エムシェアリング,0
2034,9110002031882,登記記録の閉鎖等,0,2025-08-20,2025-07-31,有限会社山暢,,有限会社,新潟県,見附市,元町２丁目３番６６号,,15,211,9540004,,,2025-07-31,清算の結了等,,,2015-10-05,1,,,,,ヤマチョウ,0
2040,9120001230625,登記記録の閉鎖等,0,2025-08-20,2025-08-04,白墨株式会社,,株式会社,大阪府,大阪市浪速区,日本橋３丁目１番２７－１００３号,,27,111,5560005,,,2025-08-04,清算の結了等,,,2020-07-28,1,,,,,シロスミ,0
2050,9120002003435,登記記録の閉鎖等,0,2025-08-20,2025-08-01,有限会社とん助,,有限会社,大阪府,大阪市阿倍野区,昭和町４丁目２番１号,,27,119,5450011,,,2025-08-01,清算の結了等,,,2015-10-05,1,,,,,トンスケ,0
2068,9130001061128,登記記録の閉鎖等,0,2025-08-20,2025-08-18,ＯＫテックス株式会社,,株式会社,京都府,京都市山科区,御陵下御廟野町１７番地,,26,110,6078426,,,2025-08-18,清算の結了等,,,2017-12-19,1,,,,,オーケーテックス,0
2081,9170003001128,登記記録の閉鎖等,0,2025-08-20,2025-08-18,合同会社陽,,合同会社,和歌山県,和歌山市,大谷８３１番地１１２,,30,201,6408472,,,2025-08-18,清算の結了等,,,2017-04-10,1,,,,,ハル,0
2087,9180001131925,登記記録の閉鎖等,0,2025-08-20,2025-07-28,株式会社ジーナ,,株式会社,愛知県,名古屋市中区,新栄２丁目２番１号イノフィス５－５Ａ,,23,106,4600007,,,2025-07-28,清算の結了等,,,2018-04-23,1,,,,,,0
2094,9180002051635,登記記録の閉鎖等,0,2025-08-20,2025-07-28,有限会社中北商店,,有限会社,愛知県,名古屋市港区,春田野１丁目２３０６番地,,23,111,4550873,,,2025-07-28,清算の結了等,,,2015-10-05,1,,,,,ナカキタショウテン,0
2095,9180002065313,登記記録の閉鎖等,0,2025-08-20,2025-07-28,有限会社エスポアール,,有限会社,愛知県,春日井市,貴船町１８番地,,23,206,4860826,,,2025-07-28,清算の結了等,,,2015-10-05,1,,,,,エスポアール,0
2113,9210002003657,登記記録の閉鎖等,0,2025-08-20,2025-08-12,有限会社森篤商店,,有限会社,福井県,福井市,上森田６丁目３０２番地,,18,201,9100142,,,2025-08-12,清算の結了等,,,2015-10-05,1,,,,,モリアツシショウテン,0
2124,9290001103509,登記記録の閉鎖等,0,2025-08-20,2025-07-25,株式会社京福,,株式会社,福岡県,福岡市東区,多の津１丁目１０－１－４３３,,40,131,8130034,,,2025-07-25,清算の結了等,,,2023-10-25,1,,,,,キョウフク,0
2132,9320001020898,登記記録の閉鎖等,0,2025-08-20,2025-08-19,株式会社ＳＯＣＴＯ地建,,株式会社,大分県,大分市,府内町３丁目４番２０号４階,,44,201,8700021,,,2025-08-19,清算の結了等,,,2025-01-21,1,,,,,ソクトチケン,0
2150,9390002014513,登記記録の閉鎖等,0,2025-08-20,2025-08-05,有限会社皆川工務店,,有限会社,山形県,南陽市,二色根５１番地,,06,213,9992231,,,2025-08-05,清算の結了等,,,2015-10-05,1,,,,,ミナガワコウムテン,0
2151,9390005008644,登記記録の閉鎖等,0,2025-08-20,2025-08-12,特定非営利活動法人あらえびすサンタクロースプロジェクト,,その他の設立登記法人,山形県,東根市,大字泉郷甲８０８番地,,06,211,9993722,,,2025-08-12,清算の結了等,,,2017-06-05,1,,,,,アラエビスサンタクロースプロジェクト,0
2154,9400005007735,登記記録の閉鎖等,0,2025-08-20,2025-08-07,株式会社エリアサポート,,株式会社,岩手県,八幡平市,田の沢８７番地,,03,214,0287563,,,2025-08-07,清算の結了等,,,2016-12-12,1,,,,,エリアサポート,0
2161,9430001070420,登記記録の閉鎖等,0,2025-08-20,2025-08-12,杏雲堂製薬株式会社,,株式会社,北海道,札幌市東区,苗穂町１３丁目１番２３号,,01,103,0650043,,,2025-08-12,清算の結了等,,,2015-12-09,1,,,,,,0
