sequenceNumber,corporateNumber,process,correct,updateDate,changeDate,name,nameImageId,kind,prefectureName,cityName,streetNumber,addressImageId,prefectureCode,cityCode,postCode,addressOutside,addressOutsideImageId,closeDate,closeCause,successorCorporateNumber,changeCause,assignmentDate,latest,enName,enPrefectureName,enCityName,enAddressOutside,furigana,hihyoji
32,1010801030318,登記記録の閉鎖等,0,2022-08-19,2022-08-18,鏈接世界株式会社,,株式会社,東京都,台東区,上野３丁目１１番５号,,13,106,1100005,,,2022-08-18,清算の結了等,,,2019-11-11,1,,,,,レンセツセカイ,0
42,1011001106899,登記記録の閉鎖等,0,2022-08-19,2022-08-01,株式会社ＳＱＣツールズ,,株式会社,東京都,渋谷区,代々木２丁目１３番５号,,13,113,1510053,,,2022-08-01,合併による解散等,3011001111757,令和４年８月１日東京都渋谷区代々木二丁目１３番５号株式会社ＳＱＣコンサルティング（3011001111757）に合併し解散,2015-10-05,1,,,,,エスキューシーツールズ,0
78,1020001048259,登記記録の閉鎖等,0,2022-08-19,2022-08-10,株式会社サンワイ企画,,株式会社,神奈川県,横浜市南区,日枝町２丁目４７番地７,,14,105,2320011,,,2022-08-10,清算の結了等,,,2015-10-05,1,,,,,,0
122,1030005007879,登記記録の閉鎖等,0,2022-08-19,2022-08-09,特定非営利活動法人春日部藤スポーツクラブ,,その他の設立登記法人,埼玉県,春日部市,中央１丁目４番地２日神パレステージ春日部中央５０５号,,11,214,3440067,,,2022-08-09,清算の結了等,,,2015-10-05,1,,,,,カスカベフジスポーツクラブ,0
133,1040002053545,登記記録の閉鎖等,0,2022-08-19,2022-08-08,有限会社みどりの都,,有限会社,千葉県,松戸市,松戸新田３０番地,,12,207,2702241,,,2022-08-08,清算の結了等,,,2015-10-05,1,,,,,,0
140,1060001015916,登記記録の閉鎖等,0,2022-08-19,2022-08-10,株式会社音風館,,株式会社,栃木県,小山市,大字中久喜１７６６－２,,09,208,3230806,,,2022-08-10,清算の結了等,,,2015-10-05,1,,,,,オンプウカン,0
143,1060005006250,登記記録の閉鎖等,0,2022-08-19,2022-08-10,両毛ツバメ石油事業協同組合,,その他の設立登記法人,栃木県,足利市,問屋町１５３５番地の１２,,09,202,3260333,,,2022-08-10,清算の結了等,,,2015-10-05,1,,,,,リョウモウツバメセキユ,0
155,1110002013186,登記記録の閉鎖等,0,2022-08-19,2022-08-17,有限会社田村屋,,有限会社,新潟県,阿賀野市,中央町１丁目８番８号,,15,223,9592021,,,2022-08-17,清算の結了等,,,2015-10-05,1,,,,,タムラヤ,0
165,1120005009759,登記記録の閉鎖等,0,2022-08-19,2022-08-15,ＮＰＯ法人ぐるーぷ・いま,,その他の設立登記法人,大阪府,大阪市淀川区,西中島２丁目５－２８岡本方,,27,123,5320011,,,2022-08-15,清算の結了等,,,2015-10-05,1,,,,,グループイマ,0
177,1130003006591,登記記録の閉鎖等,0,2022-08-19,2022-08-01,ＫＹＯＢＩＴ合同会社,,合同会社,京都府,京都市上京区,出水町２７５ドムス河原町５０６,,26,102,6020862,,,2022-08-01,清算の結了等,,,2020-06-16,1,,,,,キョービット,0
178,1130005007514,登記記録の閉鎖等,0,2022-08-19,2022-08-10,医療法人財団美山健康会,,その他の設立登記法人,京都府,南丹市,美山町安掛下８番地,,26,213,6010722,,,2022-08-10,清算の結了等,,,2015-10-05,1,,,,,ミヤマケンコウカイ,0
193,1180001031281,登記記録の閉鎖等,0,2022-08-19,2022-08-12,株式会社中央ラボ,,株式会社,愛知県,名古屋市中村区,中村町５丁目２５番地,,23,105,4530053,,,2022-08-12,清算の結了等,,,2015-10-05,1,,,,,チュウオウラボ,0
196,1180002013601,登記記録の閉鎖等,0,2022-08-19,2022-08-15,有限会社共有リース,,有限会社,愛知県,名古屋市南区,元桜田町３２番地,,23,112,4570032,,,2022-08-15,清算の結了等,,,2015-10-05,1,,,,,キョウユウリース,0
216,1260002009112,登記記録の閉鎖等,0,2022-08-19,2022-08-18,有限会社Ｙｏｕ　Ｏｆｆｉｃｅ,,有限会社,岡山県,岡山市北区,庭瀬５４７番地,,33,101,7010153,,,2022-08-18,清算の結了等,,,2015-10-05,1,,,,,ユウオフィス,0
230,1360002009721,登記記録の閉鎖等,0,2022-08-19,2022-08-01,有限会社フレンド,,有限会社,沖縄県,那覇市,繁多川３丁目５番１８号,,47,201,9020071,,,2022-08-01,合併による解散等,8360002009756,令和４年８月１日沖縄県那覇市上之屋一丁目３番３２号株式会社アミティ（8360002009756）に合併し解散,2015-10-05,1,,,,,フレンド,0
232,1370001009242,登記記録の閉鎖等,0,2022-08-19,2022-08-10,株式会社ティ・エル・ティ,,株式会社,宮城県,仙台市泉区,歩坂町７４番２１号,,04,105,9813106,,,2022-08-10,清算の結了等,,,2015-10-05,1,,,,,ティエルティ,0
235,1370602002348,登記記録の閉鎖等,0,2022-08-19,2022-08-12,有限会社エムアンドエー,,有限会社,宮城県,塩竈市,西町５番１６－６０３号エトワール塩釜,,04,203,9850057,,,2022-08-12,清算の結了等,,,2015-10-05,1,,,,,エムアンドエー,0
247,1450001007378,登記記録の閉鎖等,0,2022-08-19,2022-08-18,北海道カーボナイズ株式会社,,株式会社,北海道,名寄市,風連町字豊里５０９番地７,,01,221,0980501,,,2022-08-18,清算の結了等,,,2015-10-05,1,,,,,ホッカイドウカーボナイズ,0
282,2010803003460,登記記録の閉鎖等,0,2022-08-19,2022-08-09,合同会社Ｓ＆Ｄ　ＣＯＲＰＯＲＡＴＩＯＮ,,合同会社,東京都,大田区,多摩川２丁目２７番６－４０３号,,13,111,1460095,,,2022-08-09,清算の結了等,,,2020-08-20,1,,,,,,0
284,2010803004194,登記記録の閉鎖等,0,2022-08-19,2022-08-09,合同会社ブライト,,合同会社,東京都,大田区,南馬込３丁目５－１－２０３,,13,111,1430025,,,2022-08-09,清算の結了等,,,2022-06-03,1,,,,,ブライト,0
317,2011801038952,登記記録の閉鎖等,0,2022-08-19,2022-08-09,株式会社ＲＥＩＷＡ,,株式会社,千葉県,茂原市,八千代２丁目５－１６－１０１,,12,210,2970024,,,2022-08-09,清算の結了等,,,2021-03-26,1,,,,,レイワ,0
319,2012402003478,登記記録の閉鎖等,0,2022-08-19,2022-08-15,有限会社ケネックス設計事務所,,有限会社,東京都,国分寺市,西恋ヶ窪３丁目１６番５０号,,13,214,1850013,,,2022-08-15,清算の結了等,,,2015-10-05,1,,,,,ケネックスセッケイジムショ,0
328,2020001142399,登記記録の閉鎖等,0,2022-08-19,2022-08-10,株式会社メモシル,,株式会社,神奈川県,横浜市西区,北幸１丁目１１番１号水信ビル７階,,14,103,2200004,,,2022-08-10,清算の結了等,,,2021-07-28,1,,,,,メモシル,0
337,2021001001487,登記記録の閉鎖等,0,2022-08-19,2022-08-18,東海交通株式会社,,株式会社,神奈川県,藤沢市,川名１丁目１番１号,,14,205,2510015,,,2022-08-18,清算の結了等,,,2015-10-05,1,,,,,トウカイコウツウ,0
344,2030002067322,登記記録の閉鎖等,0,2022-08-19,2022-08-08,有限会社イデル,,有限会社,埼玉県,志木市,幸町１丁目８番４０号,,11,228,3530005,,,2022-08-08,清算の結了等,,,2015-10-05,1,,,,,イデル,0
350,2040003018050,登記記録の閉鎖等,0,2022-08-19,2022-08-08,合同会社犬,,合同会社,千葉県,市原市,辰巳台東５丁目１１番１号武蔵屋グランパレスＢ－１０２号,,12,219,2900003,,,2022-08-08,清算の結了等,,,2021-06-29,1,,,,,ケン,0
357,2060001027324,登記記録の閉鎖等,0,2022-08-19,2022-08-10,市民葬儀相談センター株式会社,,株式会社,栃木県,宇都宮市,駒生町２５９７番５,,09,201,3200065,,,2022-08-10,清算の結了等,,,2015-10-05,1,,,,,シミンソウギソウダンセンター,0
363,2080101016794,登記記録の閉鎖等,0,2022-08-19,2022-08-18,エイチ・エー・シー株式会社,,株式会社,静岡県,沼津市,寿町９番１８号,,22,203,4100053,,,2022-08-18,清算の結了等,,,2015-10-05,1,,,,,エイチエーシー,0
368,2100001025876,登記記録の閉鎖等,0,2022-08-19,2022-08-12,株式会社ＧＯＧ,,株式会社,長野県,上伊那郡辰野町,大字伊那富８７５６番地,,20,382,3990428,,,2022-08-12,清算の結了等,,,2015-10-05,1,,,,,ジーオージー,0
373,2110002000076,登記記録の閉鎖等,0,2022-08-19,2022-08-18,有限会社こばやし,,有限会社,新潟県,新潟市西区,大野町３２３５番地,,15,107,9501111,,,2022-08-18,清算の結了等,,,2015-10-05,1,,,,,コバヤシ,0
378,2120001029339,登記記録の閉鎖等,0,2022-08-19,2022-08-15,株式会社タモツ自動車工作所,,株式会社,大阪府,大阪市港区,波除３丁目１番４号,,27,107,5520001,,,2022-08-15,清算の結了等,,,2015-10-05,1,,,,,タモツジドウシャコウサクショ,0
385,2120001228675,登記記録の閉鎖等,0,2022-08-19,2022-08-16,株式会社マザーアーチ,,株式会社,東京都,新宿区,市谷田町２丁目１７番地,,13,104,1620843,,,2022-08-16,合併による解散等,5290001080710,令和４年７月１１日福岡市東区多の津四丁目１４番１号ビジネスレザーファクトリー株式会社（5290001080710）に合併し解散,2020-04-20,1,,,,,マザーアーチ,0
395,2120003018777,登記記録の閉鎖等,0,2022-08-19,2022-08-16,合同会社松本事務所,,合同会社,大阪府,大阪市中央区,谷町３丁目１番２４－４０３号,,27,128,5400012,,,2022-08-16,清算の結了等,,,2021-01-22,1,,,,,マツモトジムショ,0
401,2120905004668,登記記録の閉鎖等,0,2022-08-19,2022-08-17,公益財団法人高槻市みどりとスポーツ振興事業団,,その他の設立登記法人,大阪府,高槻市,桃園町１番１号,,27,207,5690067,,,2022-08-17,清算の結了等,,,2015-10-05,1,,,,,タカツキシミドリトスポーツシンコウジギョウダン,0
404,2130002011864,登記記録の閉鎖等,0,2022-08-19,2022-08-10,有限会社石川米穀,,有限会社,京都府,京都市山科区,椥辻東潰２９番地の３,00037308,26,110,6078163,,,2022-08-10,清算の結了等,,,2015-10-05,1,,,,,イシカワベイコク,0
416,2150002005617,登記記録の閉鎖等,0,2022-08-19,2022-08-16,有限会社えいてぃぶ,,有限会社,奈良県,天理市,川原城町８４２番地,,29,204,6320016,,,2022-08-16,清算の結了等,,,2015-10-05,1,,,,,エイティブ,0
417,2150002010229,登記記録の閉鎖等,0,2022-08-19,2022-08-18,有限会社ネスタ,,有限会社,奈良県,北葛城郡王寺町,明神３丁目１番２０号,,29,425,6360022,,,2022-08-18,清算の結了等,,,2015-10-05,1,,,,,ネスタ,0
435,2200002009620,登記記録の閉鎖等,0,2022-08-19,2022-08-17,有限会社常川工務店,,有限会社,岐阜県,本巣郡北方町,北方１８８４番地の１３,,21,421,5010431,,,2022-08-17,清算の結了等,,,2015-10-05,1,,,,,ツネカワコウムテン,0
437,2220001002624,登記記録の閉鎖等,0,2022-08-19,2022-08-10,兼六設備工業株式会社,,株式会社,石川県,金沢市,久安５丁目３１５番地,,17,201,9218164,,,2022-08-10,清算の結了等,,,2015-10-05,1,,,,,ケンロクセツビコウギョウ,0
441,2240001027470,登記記録の閉鎖等,0,2022-08-19,2022-08-18,株式会社さいとう,,株式会社,広島県,呉市,中央５丁目１１番３号,,34,202,7370051,,,2022-08-18,清算の結了等,,,2015-10-05,1,,,,,サイトウ,0
451,2290003004546,登記記録の閉鎖等,0,2022-08-19,2022-08-09,合同会社Ｍ・Ｓ・Ｙ,,合同会社,福岡県,福岡市早良区,飯倉７丁目２９番３１－３１０号,,40,137,8140161,,,2022-08-09,清算の結了等,,,2015-10-05,1,,,,,エムエスワイ,0
463,2410005006016,登記記録の閉鎖等,0,2022-08-19,2022-08-12,一般社団法人ハローケア,,その他の設立登記法人,秋田県,能代市,字長崎２２７番地２,,05,202,0160873,,,2022-08-12,清算の結了等,,,2016-12-01,1,,,,,ハローケア,0
466,2420002005259,登記記録の閉鎖等,0,2022-08-19,2022-08-17,有限会社青森火薬販売,,有限会社,青森県,青森市,長島２丁目１７番２号,,02,201,0300861,,,2022-08-17,清算の結了等,,,2015-10-05,1,,,,,アオモリカヤクハンバイ,0
476,2470001002475,登記記録の閉鎖等,0,2022-08-19,2022-08-18,株式会社高松ホワイトホテル,00005027,株式会社,香川県,高松市,天神前５番２２号,,37,201,7600018,,,2022-08-18,清算の結了等,,,2015-10-05,1,,,,,タカマツホワイトホテル,0
504,3010501041423,登記記録の閉鎖等,0,2022-08-19,2022-08-18,ユーティーシー株式会社,,株式会社,神奈川県,鎌倉市,長谷２丁目１７番６号,,14,204,2480016,,,2022-08-18,清算の結了等,,,2017-08-07,1,,,,,ユーティーシー,0
518,3011001004853,登記記録の閉鎖等,0,2022-08-19,2022-08-01,株式会社オーミック,,株式会社,東京都,渋谷区,広尾５丁目１番１５号,,13,113,1500012,,,2022-08-01,合併による解散等,4011002002203,令和４年８月１日東京都渋谷区広尾五丁目２５番６号株式会社大道（4011002002203）に合併し解散,2015-10-05,1,,,,,オーミック,0
530,3011101013135,登記記録の閉鎖等,0,2022-08-19,2022-08-17,津川興業株式会社,,株式会社,東京都,新宿区,新宿３丁目２４番１１号,,13,104,1600022,,,2022-08-17,清算の結了等,,,2015-10-05,1,,,,,ツガワコウギョウ,0
544,3012403002354,登記記録の閉鎖等,0,2022-08-19,2022-08-12,群青デザインシステムズ合同会社,,合同会社,東京都,調布市,調布ケ丘１丁目５番地１電気通信大学西１１号館４階,,13,208,1820021,,,2022-08-12,清算の結了等,,,2015-10-05,1,,,,,グンジョウデザインシステムズ,0
547,3013301015836,登記記録の閉鎖等,0,2022-08-19,2022-08-16,株式会社山田水城建築設計事務所,,株式会社,東京都,豊島区,目白３丁目１番８号,,13,116,1710031,,,2022-08-16,清算の結了等,,,2015-10-05,1,,,,,ヤマダミズキケンチクセッケイジムショ,0
555,3020001112855,登記記録の閉鎖等,0,2022-08-19,2022-08-15,株式会社Ｓｍｉｌｅ　Ｍｏｔｉｖａｔｉｏｎｚ,,株式会社,神奈川県,川崎市川崎区,渡田１丁目９番２号タカノフラット２０１,,14,131,2100837,,,2022-08-15,清算の結了等,,,2015-10-05,1,,,,,,0
562,3021002059458,登記記録の閉鎖等,0,2022-08-19,2022-08-18,有限会社富士インテリア,,有限会社,神奈川県,平塚市,見附町９の３番地,,14,203,2540045,,,2022-08-18,清算の結了等,,,2015-10-05,1,,,,,,0
568,3030001053801,登記記録の閉鎖等,0,2022-08-19,2022-08-05,Ｔ・Ｋ企画株式会社,,株式会社,埼玉県,南埼玉郡宮代町,宮代台３丁目１５番７号,,11,442,3450835,,,2022-08-05,清算の結了等,,,2015-10-05,1,,,,,ティーケーキカク,0
584,3040001069334,登記記録の閉鎖等,0,2022-08-19,2022-08-08,株式会社シーピーネット,,株式会社,千葉県,柏市,みどり台２丁目１７番１３号,,12,217,2770884,,,2022-08-08,清算の結了等,,,2015-10-05,1,,,,,シーピーネット,0
589,3050001044022,登記記録の閉鎖等,0,2022-08-19,2022-08-15,株式会社クレドコア,,株式会社,茨城県,結城市,大字結城１３０５番地９,,08,207,3070001,,,2022-08-15,清算の結了等,,,2018-02-16,1,,,,,クレドコア,0
590,3050002011401,登記記録の閉鎖等,0,2022-08-19,2022-08-15,有限会社慶明会,,有限会社,茨城県,土浦市,小岩田東１丁目１番３７号,,08,203,3000834,,,2022-08-15,清算の結了等,,,2015-10-05,1,,,,,ケイメイカイ,0
591,3060001010510,登記記録の閉鎖等,0,2022-08-19,2022-08-15,株式会社栃木フカガワ,,株式会社,栃木県,鹿沼市,茂呂６５番地１,,09,205,3220026,,,2022-08-15,合併による解散等,8030001076970,令和４年８月１日埼玉県川口市西青木二丁目９番５号株式会社フカガワ（8030001076970）に合併し解散,2015-10-05,1,,,,,トチギフカガワ,0
603,3100001008979,登記記録の閉鎖等,0,2022-08-19,2022-08-10,株式会社ブルーム,,株式会社,長野県,北佐久郡御代田町,大字御代田２５２１番地２３,,20,323,3890206,,,2022-08-10,清算の結了等,,,2015-10-05,1,,,,,ブルーム,0
612,3120001045871,登記記録の閉鎖等,0,2022-08-19,2022-08-16,株式会社登茂商会,,株式会社,大阪府,大阪市西区,北堀江１丁目１番１５号,,27,106,5500014,,,2022-08-16,清算の結了等,,,2015-10-05,1,,,,,トモショウカイ,0
614,3120001123009,登記記録の閉鎖等,0,2022-08-19,2022-08-17,株式会社吉武,00028998,株式会社,大阪府,大阪市西区,立売堀６丁目７番５１号,,27,106,5500012,,,2022-08-17,清算の結了等,,,2015-10-05,1,,,,,,0
630,3120905005384,登記記録の閉鎖等,0,2022-08-19,2022-08-18,一般社団法人Ｓｕｎｎｙ,,その他の設立登記法人,大阪府,豊中市,宮山町１丁目１番３５号,,27,203,5600056,,,2022-08-18,清算の結了等,,,2016-04-27,1,,,,,サニー,0
644,3160001019608,登記記録の閉鎖等,0,2022-08-19,2022-08-18,株式会社保志花Ｐｒｏ,,株式会社,滋賀県,草津市,大路３丁目５番５０号Ａ１０１,,25,206,5250032,,,2022-08-18,清算の結了等,,,2016-07-15,1,,,,,,0
647,3180002037417,登記記録の閉鎖等,0,2022-08-19,2022-08-08,有限会社健美,,有限会社,愛知県,名古屋市瑞穂区,井の元町１６番地の２,,23,108,4670057,,,2022-08-08,清算の結了等,,,2015-10-05,1,,,,,ケンビ,0
654,3180301031566,登記記録の閉鎖等,0,2022-08-19,2022-08-15,株式会社ＭＳＧ　ｐｌａｎｎｉｎｇ,,株式会社,愛知県,豊川市,東上町炭焼平２６番地２,,23,207,4411201,,,2022-08-15,清算の結了等,,,2018-06-06,1,,,,,エムエスジープランニング,0
663,3210002009949,登記記録の閉鎖等,0,2022-08-19,2022-08-17,有限会社ヤマト,,有限会社,福井県,勝山市,旭町１丁目２番８号９,,18,206,9110803,,,2022-08-17,清算の結了等,,,2015-10-05,1,,,,,ヤマト,0
679,3290801015611,登記記録の閉鎖等,0,2022-08-19,2022-08-18,株式会社テクノネット,,株式会社,福岡県,行橋市,大字元永９６番地,,40,213,8240015,,,2022-08-18,清算の結了等,,,2015-10-05,1,,,,,テクノネット,0
681,3300001008686,登記記録の閉鎖等,0,2022-08-19,2022-08-09,株式会社石屋,,株式会社,佐賀県,佐賀市,諸富町大字寺井津４５２番地,,41,201,8402103,,,2022-08-09,清算の結了等,,,2015-10-05,1,,,,,イシヤ,0
690,3340001008278,登記記録の閉鎖等,0,2022-08-19,2022-08-17,ＭＫエンジニアリング株式会社,,株式会社,鹿児島県,姶良市,西姶良３丁目１３番１０号,,46,225,8995656,,,2022-08-17,清算の結了等,,,2015-10-05,1,,,,,エムケイエンジニアリング,0
696,3370001012764,登記記録の閉鎖等,0,2022-08-19,2022-08-16,株式会社トミザワ薬局,,株式会社,宮城県,仙台市太白区,泉崎１丁目３２番１５号,,04,104,9820031,,,2022-08-16,合併による解散等,7430001069398,令和４年８月１日札幌市白石区東札幌五条二丁目４番３０号株式会社アインファーマシーズ（7430001069398）に合併し解散,2015-10-05,1,,,,,トミザワヤッキョク,0
715,3430002056151,登記記録の閉鎖等,0,2022-08-19,2022-08-05,有限会社うつわ倶楽部,,有限会社,北海道,小樽市,朝里２丁目１３番３０号,,01,203,0470151,,,2022-08-05,清算の結了等,,,2015-10-05,1,,,,,ウツワクラブ,0
718,3460105001308,登記記録の閉鎖等,0,2022-08-19,2022-08-03,天理教新豊郷分教会,,その他の設立登記法人,北海道,河東郡鹿追町,上幌内４線北４番地７,,01,634,0810226,,,2022-08-03,合併による解散等,7460105001295,令和４年８月３日北海道上川郡新得町本通北五丁目１番地天理教北新得分教会（7460105001295）に合併し解散,2015-10-05,1,,,,,,0
740,4010005028486,登記記録の閉鎖等,0,2022-08-19,2022-08-09,一般財団法人田中角栄平和祈念財団,,その他の設立登記法人,東京都,中央区,佃２丁目２－８号棟７０３号,,13,102,1040051,,,2022-08-09,清算の結了等,,,2018-05-09,1,,,,,タナカカクエイヘイワキネンザイダン,0
749,4010401162756,登記記録の閉鎖等,0,2022-08-19,2022-08-02,ＩＤＲ　Ｈｏｌｄｉｎｇｓ株式会社,,株式会社,東京都,港区,北青山２丁目１０番２８号,,13,103,1070061,,,2022-08-02,清算の結了等,,,2021-09-17,1,,,,,アイディーアールホールディングス,0
780,4011401004857,登記記録の閉鎖等,0,2022-08-19,2022-08-17,永原建設株式会社,,株式会社,東京都,板橋区,赤塚４丁目１９番２７号,00065580,13,119,1750092,,,2022-08-17,清算の結了等,,,2015-10-05,1,,,,,,0
783,4011601012742,登記記録の閉鎖等,0,2022-08-19,2022-08-18,Ａ・ＥＳＳＥ・５株式会社,,株式会社,東京都,練馬区,向山２丁目２２番２０号,,13,120,1760022,,,2022-08-18,清算の結了等,,,2015-10-05,1,,,,,,0
790,4012801020246,登記記録の閉鎖等,0,2022-08-19,2022-08-16,株式会社ＰＬＡＹ,,株式会社,東京都,昭島市,中神町１３０４番地４８,,13,207,1960022,,,2022-08-16,清算の結了等,,,2020-07-13,1,,,,,プレイ,0
794,4020001091891,登記記録の閉鎖等,0,2022-08-19,2022-08-12,株式会社ベストメンバー,,株式会社,神奈川県,横浜市西区,楠町１番地３,,14,103,2200003,,,2022-08-12,清算の結了等,,,2015-10-05,1,,,,,ベストメンバー,0
799,4020002038693,登記記録の閉鎖等,0,2022-08-19,2022-08-12,有限会社鈴木化工,,有限会社,神奈川県,横浜市鶴見区,駒岡２丁目１３番３６号,,14,101,2300071,,,2022-08-12,清算の結了等,,,2015-10-05,1,,,,,スズキカコウ,0
829,4040001121192,登記記録の閉鎖等,0,2022-08-19,2022-08-15,株式会社上広通商,,株式会社,東京都,北区,中里２丁目１３番６号藤澤マンション駒込５０１号室,,13,117,1140015,,,2022-08-15,清算の結了等,,,2021-12-01,1,,,,,ジョウコウツウショウ,0
841,4060003001052,登記記録の閉鎖等,0,2022-08-19,2022-08-09,合資会社影萬捺染工場,,合資会社,栃木県,足利市,西宮町２８５８番地,,09,202,3260817,,,2022-08-09,清算の結了等,,,2015-10-05,1,,,,,カゲマンナッセンコウジョウ,0
848,4080001002190,登記記録の閉鎖等,0,2022-08-19,2022-08-17,株式会社白谷,,株式会社,静岡県,静岡市葵区,伝馬町１２番地の１１,,22,101,4200858,,,2022-08-17,清算の結了等,,,2015-10-05,1,,,,,シラタニ,0
863,4120001197431,登記記録の閉鎖等,0,2022-08-19,2022-08-17,プラマスクエア株式会社,,株式会社,大阪府,大阪市西区,立売堀２丁目５番４１号,,27,106,5500012,,,2022-08-17,清算の結了等,,,2016-04-08,1,,,,,プラマスクエア,0
870,4120002021821,登記記録の閉鎖等,0,2022-08-19,2022-08-12,有限会社コバルト,,有限会社,大阪府,大阪市西区,阿波座１丁目１２番９号,,27,106,5500011,,,2022-08-12,清算の結了等,,,2015-10-05,1,,,,,コバルト,0
875,4120101054128,登記記録の閉鎖等,0,2022-08-19,2022-08-18,株式会社ＴＩＮＣ,,株式会社,大阪府,藤井寺市,春日丘１丁目１番２８号,,27,226,5830026,,,2022-08-18,清算の結了等,,,2016-01-12,1,,,,,ティンク,0
877,4120102019377,登記記録の閉鎖等,0,2022-08-19,2022-08-16,三光天メディカル有限会社,,有限会社,大阪府,羽曳野市,はびきの３丁目６番８号,,27,222,5830872,,,2022-08-16,合併による解散等,7430001069398,令和４年８月１日札幌市白石区東札幌五条二丁目４番３０号株式会社アインファーマシーズ（7430001069398）に合併し解散,2015-10-05,1,,,,,サンコウテンメディカル,0
887,4140002009955,登記記録の閉鎖等,0,2022-08-19,2022-08-17,有限会社三栄設備,,有限会社,兵庫県,神戸市北区,八多町附物字物前田１０４８番地の１,,28,109,6511343,,,2022-08-17,清算の結了等,,,2015-10-05,1,,,,,,0
889,4140005021338,登記記録の閉鎖等,0,2022-08-19,2022-08-10,ＮＰＯ法人がじゅまるの木,,その他の設立登記法人,兵庫県,神戸市兵庫区,荒田町３丁目２番２０号,,28,105,6520032,,,2022-08-10,清算の結了等,,,2015-10-05,1,,,,,ガジュマルノキ,0
890,4160001016513,登記記録の閉鎖等,0,2022-08-19,2022-08-18,株式会社おおつき,,株式会社,滋賀県,草津市,野路１丁目８番９号,,25,206,5250059,,,2022-08-18,清算の結了等,,,2015-10-05,1,,,,,オオツキ,0
894,4180001127069,登記記録の閉鎖等,0,2022-08-19,2022-08-17,ＤＡＩＲＹＵ株式会社,,株式会社,静岡県,富士市,富士岡１３８６番地の１８,,22,210,4170841,,,2022-08-17,清算の結了等,,,2017-03-28,1,,,,,ダイリュウ,0
902,4180301027200,登記記録の閉鎖等,0,2022-08-19,2022-07-01,株式会社サンキホールディングス,,株式会社,愛知県,豊田市,花丘町２丁目７３番地１,,23,211,4710051,,,2022-07-01,合併による解散等,7180301018287,令和４年７月１日愛知県豊田市花丘町二丁目７３番地１株式会社サンキ（7180301018287）に合併し解散,2015-10-05,1,,,,,サンキホールディングス,0
904,4180302016202,登記記録の閉鎖等,0,2022-08-19,2022-08-15,有限会社記念日,,有限会社,愛知県,岡崎市,真宮町１２番地６,,23,202,4440855,,,2022-08-15,清算の結了等,,,2015-10-05,1,,,,,キネンビ,0
915,4220002009674,登記記録の閉鎖等,0,2022-08-19,2022-08-16,有限会社今井保険事務所,,有限会社,石川県,白山市,千代野東２丁目１０番地８,,17,210,9240073,,,2022-08-16,清算の結了等,,,2015-10-05,1,,,,,イマイホケンジムショ,0
927,4260002026220,登記記録の閉鎖等,0,2022-08-19,2022-08-17,有限会社オアシス,,有限会社,岡山県,井原市,東江原町１６５７番地の１,,33,207,7150003,,,2022-08-17,清算の結了等,,,2015-10-05,1,,,,,オアシス,0
941,4320002007461,登記記録の閉鎖等,0,2022-08-19,2022-08-18,有限会社アトリエドつつみ,,有限会社,大分県,大分市,城東町１番２２号,,44,201,8700153,,,2022-08-18,清算の結了等,,,2015-10-05,1,,,,,アトリエドツツミ,0
950,4370502000028,登記記録の閉鎖等,0,2022-08-19,2022-08-10,有限会社アルル工芸,,有限会社,宮城県,気仙沼市,本吉町幸土５８番地の５８,,04,205,9880303,,,2022-08-10,清算の結了等,,,2015-10-05,1,,,,,アルルコウゲイ,0
951,4380002010716,登記記録の閉鎖等,0,2022-08-19,2022-08-17,有限会社泰喜不動産,,有限会社,東京都,練馬区,小竹町２丁目７４番８号,,13,120,1760004,,,2022-08-17,清算の結了等,,,2015-10-05,1,,,,,タイキフドウサン,0
952,4400001004699,登記記録の閉鎖等,0,2022-08-19,2022-08-18,株式会社光文社,,株式会社,岩手県,盛岡市,東松園３丁目１２番１号,,03,201,0200106,,,2022-08-18,清算の結了等,,,2015-10-05,1,,,,,コウブンシャ,0
993,5010701031610,登記記録の閉鎖等,0,2022-08-19,2022-08-17,アストマックス・エナジー・サービス株式会社,,株式会社,東京都,品川区,東五反田２丁目１０番２号,,13,109,1410022,,,2022-08-17,清算の結了等,,,2015-11-12,1,,,,,アストマックスエナジーサービス,0
997,5010801024885,登記記録の閉鎖等,0,2022-08-19,2022-08-10,株式会社信和通信社ＡＤ,,株式会社,東京都,大田区,南馬込５丁目４１番１－２０１号,,13,111,1430025,,,2022-08-10,清算の結了等,,,2015-10-05,1,,,,,,0
1030,5013301029215,登記記録の閉鎖等,0,2022-08-19,2022-08-17,株式会社ポストゥーラ,,株式会社,東京都,豊島区,西池袋４丁目２番９号,,13,116,1710021,,,2022-08-17,清算の結了等,,,2015-10-05,1,,,,,ポストゥーラ,0
1036,5020001127158,登記記録の閉鎖等,0,2022-08-19,2022-08-10,株式会社ティエラポニカ,,株式会社,神奈川県,川崎市高津区,坂戸３丁目２番１号,,14,134,2130012,,,2022-08-10,清算の結了等,,,2018-07-12,1,,,,,ティエラポニカ,0
1041,5021003010640,登記記録の閉鎖等,0,2022-08-19,2022-08-16,すみやすサポート合同会社,,合同会社,神奈川県,相模原市緑区,橋本７丁目１３－４９ボナールハウスＩ－１０２,00123505,14,151,2520143,,,2022-08-16,清算の結了等,,,2021-06-29,1,,,,,スミヤスサポート,0
1042,5030001010503,登記記録の閉鎖等,0,2022-08-19,2022-08-08,株式会社エコートランスポート,,株式会社,埼玉県,さいたま市桜区,町谷４丁目２８番１３号,,11,106,3380836,,,2022-08-08,清算の結了等,,,2015-10-05,1,,,,,エコートランスポート,0
1075,5060002027510,登記記録の閉鎖等,0,2022-08-19,2022-08-10,有限会社タテワキ寝具店,,有限会社,栃木県,矢板市,中１５７番地６,,09,211,3292135,,,2022-08-10,清算の結了等,,,2015-10-05,1,,,,,タテワキシングテン,0
1076,5060005003954,登記記録の閉鎖等,0,2022-08-19,2022-08-10,北那須エルピーガス保安センター協同組合,,その他の設立登記法人,栃木県,那須郡那須町,大字高久甲５１０４番地,,09,407,3250001,,,2022-08-10,清算の結了等,,,2015-10-05,1,,,,,キタナスエルピーガスホアンセンター,0
1092,5120001223079,登記記録の閉鎖等,0,2022-08-19,2022-08-17,Ｎｅｔ　Ｇｅｙｓｅｒ株式会社,,株式会社,東京都,品川区,西五反田１丁目２６－２五反田サンハイツビル２Ｆ,,13,109,1410031,,,2022-08-17,合併による解散等,9120001211311,令和４年８月１１日大阪市中央区淡路町４－３－１０ＴＭＭビル８Ｆ株式会社ｙｏｕ　ｎｅｔ光（9120001211311）に合併し解散,2019-08-15,1,,,,,ネットガイザー,0
1112,5140002041841,登記記録の閉鎖等,0,2022-08-19,2022-08-18,有限会社ＹＯＵＭ企画,,有限会社,東京都,板橋区,常盤台４丁目３３番１４－５０１号,,13,119,1740071,,,2022-08-18,清算の結了等,,,2015-10-05,1,,,,,,0
1121,5180002091874,登記記録の閉鎖等,0,2022-08-19,2022-08-17,有限会社リョーサン,,有限会社,愛知県,あま市,中萱津親牧９番地５,,23,237,4901113,,,2022-08-17,清算の結了等,,,2015-10-05,1,,,,,リョーサン,0
1127,5210002000575,登記記録の閉鎖等,0,2022-08-19,2022-08-17,有限会社落合鈑金,,有限会社,福井県,福井市,河増町第３２号１番地の９,,18,201,9188218,,,2022-08-17,清算の結了等,,,2015-10-05,1,,,,,オチアイバンキン,0
1134,5250002013425,登記記録の閉鎖等,0,2022-08-19,2022-08-03,有限会社萩書店,,有限会社,山口県,萩市,大字土原１９７番地,,35,204,7580025,,,2022-08-03,清算の結了等,,,2015-10-05,1,,,,,ハギショテン,0
1138,5260005007786,登記記録の閉鎖等,0,2022-08-19,2022-08-05,天理教龍泉分教会,,その他の設立登記法人,岡山県,備前市,吉永町吉永中１６０番地,,33,211,7090224,,,2022-08-05,合併による解散等,9140005009502,令和４年８月２日兵庫県加古川市加古川町粟津７２９番地天理教神正分教会（9140005009502）に合併し解散,2015-10-05,1,,,,,,0
1143,5290002036488,登記記録の閉鎖等,0,2022-08-19,2022-08-08,有限会社城東工業,,有限会社,福岡県,糟屋郡篠栗町,大字尾仲３３０番地の２,,40,342,8112413,,,2022-08-08,清算の結了等,,,2015-10-05,1,,,,,ジョウトウコウギョウ,0
1146,5290003004931,登記記録の閉鎖等,0,2022-08-19,2022-08-09,合同会社ｋｏｎａｙａ,,合同会社,福岡県,福岡市中央区,梅光園１丁目２番２９－１０１号,,40,133,8100035,,,2022-08-09,清算の結了等,,,2015-10-05,1,,,,,コナヤ,0
1152,5290805006935,登記記録の閉鎖等,0,2022-08-19,2022-08-16,行橋京都食肉事業協同組合,,その他の設立登記法人,福岡県,行橋市,大橋３丁目６番９号株式会社神戸屋内,,40,213,8240003,,,2022-08-16,清算の結了等,,,2015-10-05,1,,,,,ユクハシミヤコショクニクジギョウ,0
1164,5370601002361,登記記録の閉鎖等,0,2022-08-19,2022-08-12,株式会社くすりの一休,,株式会社,宮城県,塩竈市,藤倉２丁目１５番１号,,04,203,9850004,,,2022-08-12,清算の結了等,,,2015-10-05,1,,,,,クスリノイッキュウ,0
1168,5380005000300,登記記録の閉鎖等,0,2022-08-19,2022-08-09,医療法人みね皮膚科クリニック,,その他の設立登記法人,福島県,福島市,鎌田字御仮家５１番１,,07,201,9600102,,,2022-08-09,清算の結了等,,,2015-10-05,1,,,,,ミネヒフカクリニック,0
1172,5410002005389,登記記録の閉鎖等,0,2022-08-19,2022-08-10,有限会社秋田共同技研,,有限会社,秋田県,南秋田郡五城目町,東磯ノ目２丁目５番地１５,,05,361,0181724,,,2022-08-10,清算の結了等,,,2015-10-05,1,,,,,アキタキョウドウギケン,0
1173,5420001017418,登記記録の閉鎖等,0,2022-08-19,2022-08-05,株式会社アクト建築社,,株式会社,青森県,青森市,中佃３丁目５番１４号,,02,201,0300963,,,2022-08-05,合併による解散等,6420001016063,令和４年７月３１日青森市浪打二丁目１番１７号株式会社アクト（6420001016063）に合併し解散,2021-05-14,1,,,,,アクトケンチクシャ,0
1180,5460103000037,登記記録の閉鎖等,0,2022-08-19,2022-08-17,合資会社山郷,,合資会社,北海道,河西郡芽室町,西士狩北９線３０番地２,,01,637,0820003,,,2022-08-17,清算の結了等,,,2015-10-05,1,,,,,ヤマサト,0
1233,6011101062699,登記記録の閉鎖等,0,2022-08-19,2022-08-18,株式会社第一総合商事,,株式会社,東京都,江戸川区,東葛西１丁目４９－７,,13,123,1340084,,,2022-08-18,清算の結了等,,,2015-10-05,1,,,,,ダイイチソウゴウショウジ,0
1242,6011302002454,登記記録の閉鎖等,0,2022-08-19,2022-08-16,有限会社加藤建材社,,有限会社,東京都,杉並区,永福４丁目１０番５号,,13,115,1680064,,,2022-08-16,清算の結了等,,,2015-10-05,1,,,,,カトウケンザイシャ,0
1260,6013403000428,登記記録の閉鎖等,0,2022-08-19,2022-08-12,合資会社サンガイア,,合資会社,東京都,多摩市,落合５丁目９番地１１－２０４,,13,224,2060033,,,2022-08-12,清算の結了等,,,2015-10-05,1,,,,,サンガイア,0
1267,6020001126893,登記記録の閉鎖等,0,2022-08-19,2022-08-10,株式会社植物ルネサンス,,株式会社,神奈川県,川崎市高津区,坂戸３丁目２番１号,,14,134,2130012,,,2022-08-10,清算の結了等,,,2018-06-25,1,,,,,ショクブツルネサンス,0
1292,6030001137056,登記記録の閉鎖等,0,2022-08-19,2022-08-09,彩新聞販売株式会社,,株式会社,埼玉県,春日部市,道口蛭田１１８番地５,,11,214,3440045,,,2022-08-09,清算の結了等,,,2020-06-25,1,,,,,サイシンブンハンバイ,0
1301,6030002097786,登記記録の閉鎖等,0,2022-08-19,2022-08-08,有限会社宮田商事,,有限会社,埼玉県,比企郡嵐山町,大字菅谷４８５番地の３,,11,342,3550221,,,2022-08-08,清算の結了等,,,2015-10-05,1,,,,,ミヤタショウジ,0
1302,6030003018799,登記記録の閉鎖等,0,2022-08-19,2022-08-08,合同会社Ｃｅｒｉｓｅ,,合同会社,埼玉県,さいたま市見沼区,東大宮７丁目１番地１３,,11,104,3370051,,,2022-08-08,清算の結了等,,,2022-02-14,1,,,,,スリィーズ,0
1316,6050001009773,登記記録の閉鎖等,0,2022-08-19,2022-08-15,株式会社松田工業,,株式会社,茨城県,土浦市,天川２丁目２８番３４号,,08,203,3000818,,,2022-08-15,清算の結了等,,,2015-10-05,1,,,,,マツダコウギョウ,0
1317,6050001012934,登記記録の閉鎖等,0,2022-08-19,2022-08-12,株式会社和工業,,株式会社,茨城県,かすみがうら市,中佐谷４５０番地,,08,230,3150066,,,2022-08-12,清算の結了等,,,2015-10-05,1,,,,,ナゴミコウギョウ,0
1330,6080102000694,登記記録の閉鎖等,0,2022-08-19,2022-08-19,有限会社オーシャンフーズ,,有限会社,静岡県,沼津市,下香貫下障子３１９５番地ニューカネブン２１０,,22,203,4100822,,,2022-08-19,清算の結了等,,,2015-10-05,1,,,,,オーシャンフーズ,0
1331,6100001029436,登記記録の閉鎖等,0,2022-08-19,2022-08-12,株式会社信,,株式会社,長野県,上伊那郡南箕輪村,９７０５番地４,,20,385,3994511,,,2022-08-12,清算の結了等,,,2016-06-21,1,,,,,シン,0
1338,6120001155222,登記記録の閉鎖等,0,2022-08-19,2022-08-18,株式会社アサヒハウジング,,株式会社,大阪府,守口市,京阪北本通５番１０号,,27,209,5700094,,,2022-08-18,清算の結了等,,,2015-10-05,1,,,,,アサヒハウジング,0
1346,6120001237656,登記記録の閉鎖等,0,2022-08-19,2022-08-17,ＳＴＯＲＩＥＳ株式会社,,株式会社,大阪府,大阪市旭区,大宮４丁目２１番１３号フィールド大宮１０２号室,,27,117,5350002,,,2022-08-17,清算の結了等,,,2021-05-27,1,,,,,ストーリーズ,0
1389,6210002010004,登記記録の閉鎖等,0,2022-08-19,2022-08-17,有限会社正津電気管理事務所,,有限会社,福井県,大野市,菖蒲池第１２号６番地,,18,205,9120041,,,2022-08-17,清算の結了等,,,2015-10-05,1,,,,,ショウツデンキカンリジムショ,0
1396,6240003003937,登記記録の閉鎖等,0,2022-08-19,2022-08-05,ゼロインチ合同会社,,合同会社,神奈川県,川崎市幸区,中幸町４丁目３０番地３グリフィン川崎・西口シティプラザ３０１,,14,132,2120012,,,2022-08-05,清算の結了等,,,2018-06-18,1,,,,,ゼロインチ,0
1418,6380001016737,登記記録の閉鎖等,0,2022-08-19,2022-08-08,株式会社よつば,,株式会社,福島県,双葉郡広野町,大字下北迫字折返５７番地の２,,07,541,9790402,,,2022-08-08,清算の結了等,,,2015-10-05,1,,,,,ヨツバ,0
1425,6430002001922,登記記録の閉鎖等,0,2022-08-19,2022-08-08,有限会社一戸水産,,有限会社,北海道,札幌市東区,北二十三条東１３丁目５番１号,,01,103,0650023,,,2022-08-08,清算の結了等,,,2015-10-05,1,,,,,,0
1431,6460302001339,登記記録の閉鎖等,0,2022-08-19,2022-08-18,北海道ヒートポンプ開発有限会社,,有限会社,北海道,北見市,朝日町４８番地,,01,208,0900803,,,2022-08-18,清算の結了等,,,2015-10-05,1,,,,,ホッカイドウヒートポンプカイハツ,0
1435,6500002019305,登記記録の閉鎖等,0,2022-08-19,2022-08-17,有限会社矢野船舶設計事務所,,有限会社,愛媛県,今治市,八町東５丁目２番２８号,,38,202,7940831,,,2022-08-17,清算の結了等,,,2015-10-05,1,,,,,ヤノセンパクセッケイジムショ,0
1448,7010002004388,登記記録の閉鎖等,0,2022-08-19,2022-08-09,有限会社永瀬製本所,,有限会社,東京都,文京区,千駄木５丁目４１番２０号,,13,105,1130022,,,2022-08-09,清算の結了等,,,2015-10-05,1,,,,,ナガセセイホンジョ,0
1466,7010403021354,登記記録の閉鎖等,0,2022-08-19,2022-08-01,神戸ファイナンス合同会社,,合同会社,東京都,港区,虎ノ門３丁目２２番１０－２０１号,,13,103,1050001,,,2022-08-01,清算の結了等,,,2019-08-28,1,,,,,コウベファイナンス,0
1484,7010901034527,登記記録の閉鎖等,0,2022-08-19,2022-08-08,株式会社Ｂｌｏｏｍ　Ｃｏｎｓｕｌｔｉｎｇ,,株式会社,東京都,世田谷区,駒沢１丁目２番３３号,,13,112,1540012,,,2022-08-08,清算の結了等,,,2015-10-05,1,,,,,ブルームコンサルティング,0
1500,7012701009790,登記記録の閉鎖等,0,2022-08-19,2022-08-18,株式会社ｓｔｕｄｉｏ　Ｕｌｕｌｕ,,株式会社,東京都,板橋区,東新町２丁目６番６号,,13,119,1740074,,,2022-08-18,清算の結了等,,,2015-10-05,1,,,,,スタジオウルル,0
1514,7021001037510,登記記録の閉鎖等,0,2022-08-19,2022-08-17,吉田電装工業株式会社,,株式会社,神奈川県,平塚市,大神３１７９番地１,,14,203,2540012,,,2022-08-17,清算の結了等,,,2015-10-05,1,,,,,ヨシダセンソウコウギョウ,0
1517,7021002066541,登記記録の閉鎖等,0,2022-08-19,2022-08-17,有限会社藤建ホーム,,有限会社,神奈川県,横須賀市,桜が丘１丁目１０番１０号,,14,201,2390803,,,2022-08-17,清算の結了等,,,2015-10-05,1,,,,,フジケンホーム,0
1520,7030001145215,登記記録の閉鎖等,0,2022-08-19,2022-08-08,株式会社ライズサポート会計,,株式会社,埼玉県,比企郡吉見町,大字北下砂２２４番地６,,11,347,3550111,,,2022-08-08,清算の結了等,,,2021-11-08,1,,,,,ライズサポートカイケイ,0
1526,7030002074693,登記記録の閉鎖等,0,2022-08-19,2022-08-08,有限会社ハラ・トレーディング,,有限会社,埼玉県,川越市,大字今福１６７２番地１（７１１号室）,,11,201,3501151,,,2022-08-08,清算の結了等,,,2015-10-05,1,,,,,ハラトレーディング,0
1540,7050001019334,登記記録の閉鎖等,0,2022-08-19,2022-08-12,株式会社コレットＧ,,株式会社,茨城県,古河市,諸川２３２２番地４,,08,204,3060126,,,2022-08-12,清算の結了等,,,2015-10-05,1,,,,,コレットジー,0
1544,7060001033879,登記記録の閉鎖等,0,2022-08-19,2022-08-09,日本ドローン塾株式会社,,株式会社,栃木県,日光市,鬼怒川温泉滝５４５番地,,09,206,3212526,,,2022-08-09,清算の結了等,,,2021-07-06,1,,,,,ニホンドローンジュク,0
1583,7140001108441,登記記録の閉鎖等,0,2022-08-19,2022-08-17,株式会社ＡＣＥ,,株式会社,大阪府,大阪市中央区,北久宝寺町２丁目６番１－６０３号ＲＥ－０１７ビル,,27,128,5410057,,,2022-08-17,清算の結了等,,,2017-12-06,1,,,,,,0
1599,7180002004669,登記記録の閉鎖等,0,2022-08-19,2022-08-17,有限会社千種資源,,有限会社,愛知県,名古屋市千種区,高見１丁目１９番３号,,23,101,4640073,,,2022-08-17,清算の結了等,,,2015-10-05,1,,,,,チクサシゲン,0
1601,7180002066503,登記記録の閉鎖等,0,2022-08-19,2022-08-16,有限会社太陽電工,,有限会社,愛知県,春日井市,東山町１丁目３番３号,,23,206,4860811,,,2022-08-16,清算の結了等,,,2015-10-05,1,,,,,タイヨウデンコウ,0
1609,7220001019597,登記記録の閉鎖等,0,2022-08-19,2022-08-17,ユーラク株式会社,,株式会社,石川県,金沢市,此花町３番２号,,17,201,9200852,,,2022-08-17,合併による解散等,1230002004124,令和４年８月１日富山市今泉北部町１番地の１株式会社クリニカルファーマシー（1230002004124）に合併し解散,2015-10-05,1,,,,,ユーラク,0
1610,7220002016016,登記記録の閉鎖等,0,2022-08-19,2022-08-16,有限会社のとエアーグリーン穴水,,有限会社,石川県,鳳珠郡穴水町,字菅谷２字５１番地,,17,461,9270002,,,2022-08-16,清算の結了等,,,2015-10-05,1,,,,,ノトエアーグリーンアナミズ,0
1617,7260002013208,登記記録の閉鎖等,0,2022-08-19,2022-08-16,有限会社テイケイエンジニアリング,,有限会社,岡山県,岡山市東区,瀬戸町旭ヶ丘１丁目３番地の１６,,33,103,7090853,,,2022-08-16,清算の結了等,,,2015-10-05,1,,,,,テイケイエンジニアリング,0
1619,7280002007538,登記記録の閉鎖等,0,2022-08-19,2022-08-18,有限会社ＯＤＰ,,有限会社,島根県,大田市,久手町刺鹿１１９２番地１,,32,205,6940052,,,2022-08-18,清算の結了等,,,2015-10-05,1,,,,,オーディーピー,0
1626,7290801008388,登記記録の閉鎖等,0,2022-08-19,2022-08-01,三陽船舶株式会社,,株式会社,福岡県,北九州市若松区,深町１丁目３番２８号,,40,103,8080012,,,2022-08-01,合併による解散等,8290801011936,令和４年７月３１日北九州市若松区深町一丁目３番２８号原海運株式会社（8290801011936）に合併し解散,2015-10-05,1,,,,,サンヨウセンパク,0
1627,7290801026415,登記記録の閉鎖等,0,2022-08-19,2022-08-18,ＣＭＡＢＥＣ株式会社,,株式会社,福岡県,北九州市若松区,深町１丁目２１－１６,,40,103,8080012,,,2022-08-18,清算の結了等,,,2020-04-07,1,,,,,クマベック,0
1633,7330001021402,登記記録の閉鎖等,0,2022-08-19,2022-08-12,株式会社緒方農園,,株式会社,熊本県,玉名市,南坂門田４９９番地,,43,206,8650034,,,2022-08-12,清算の結了等,,,2015-10-05,1,,,,,オガタノウエン,0
1647,7370802000880,登記記録の閉鎖等,0,2022-08-19,2022-08-12,有限会社小林鈑金製作所,,有限会社,宮城県,岩沼市,大昭和１４番４１号,,04,211,9892453,,,2022-08-12,清算の結了等,,,2015-10-05,1,,,,,,0
1649,7380001027428,登記記録の閉鎖等,0,2022-08-19,2022-08-08,株式会社クインタイル,,株式会社,福島県,福島市,飯坂町平野字道間２４番地,,07,201,9600231,,,2022-08-08,清算の結了等,,,2016-10-24,1,,,,,クインタイル,0
1651,7390002000093,登記記録の閉鎖等,0,2022-08-19,2022-08-10,有限会社あいあい,,有限会社,山形県,山形市,平清水１丁目１番１５号,,06,201,9902401,,,2022-08-10,清算の結了等,,,2015-10-05,1,,,,,アイアイ,0
1664,7480001004417,登記記録の閉鎖等,0,2022-08-19,2022-08-18,藤原設備工業株式会社,,株式会社,徳島県,徳島市,城東町２丁目１番３３号,,36,201,7700862,,,2022-08-18,清算の結了等,,,2015-10-05,1,,,,,フジワラセツビコウギョウ,0
1674,8010001135415,登記記録の閉鎖等,0,2022-08-19,2022-07-22,株式会社アイエスジェー,,株式会社,東京都,港区,六本木７丁目２０番１９号スタジオＭ１階,,13,103,1060032,,,2022-07-22,清算の結了等,,,2015-10-05,1,,,,,アイエスジェー,0
1693,8010405017738,登記記録の閉鎖等,0,2022-08-19,2022-07-22,一般社団法人Ａ．Ｐ．７,,その他の設立登記法人,東京都,港区,元赤坂１丁目１番８号赤坂コミュニティビル４階,,13,103,1070051,,,2022-07-22,清算の結了等,,,2019-05-28,1,,,,,エーピーセブン,0
1725,8011702016507,登記記録の閉鎖等,0,2022-08-19,2022-08-17,有限会社エース２１,,有限会社,東京都,江戸川区,東葛西２丁目１５番１６－１０３号,,13,123,1340084,,,2022-08-17,清算の結了等,,,2015-10-05,1,,,,,エースニジュウイチ,0
1732,8013301031390,登記記録の閉鎖等,0,2022-08-19,2022-08-17,株式会社セレンディ,,株式会社,東京都,豊島区,東池袋１丁目３４番５号いちご東池袋ビル６階,,13,116,1700013,,,2022-08-17,清算の結了等,,,2015-10-05,1,,,,,セレンディ,0
1735,8020001106217,登記記録の閉鎖等,0,2022-08-19,2022-08-09,サイフォックス株式会社,,株式会社,神奈川県,横浜市鶴見区,小野町１番地１－７０５,,14,101,2300046,,,2022-08-09,清算の結了等,,,2015-10-05,1,,,,,サイフォックス,0
1744,8020002012884,登記記録の閉鎖等,0,2022-08-19,2022-08-12,有限会社松下塗装工業所,,有限会社,神奈川県,横浜市戸塚区,上矢部町字東台５１８番地,,14,110,2450053,,,2022-08-12,清算の結了等,,,2015-10-05,1,,,,,マツシタトソウコウギョウショ,0
1748,8021002017741,登記記録の閉鎖等,0,2022-08-19,2022-08-17,有限会社イイコン,,有限会社,神奈川県,相模原市中央区,相生２丁目１４番１号,,14,152,2520235,,,2022-08-17,清算の結了等,,,2015-10-05,1,,,,,イイコン,0
1760,8030002083982,登記記録の閉鎖等,0,2022-08-19,2022-08-08,有限会社カナザワ設備,,有限会社,埼玉県,鴻巣市,堤町２４番１６号,,11,217,3650056,,,2022-08-08,清算の結了等,,,2015-10-05,1,,,,,カナザワセツビ,0
1770,8040002031701,登記記録の閉鎖等,0,2022-08-19,2022-08-09,有限会社添田工業,,有限会社,千葉県,船橋市,三山６丁目５番６号,,12,204,2740072,,,2022-08-09,清算の結了等,,,2015-10-05,1,,,,,ソエダコウギョウ,0
1782,8060002027788,登記記録の閉鎖等,0,2022-08-19,2022-08-09,有限会社池羽産業,,有限会社,栃木県,小山市,大字生駒２５４番地１,,09,208,3230051,,,2022-08-09,清算の結了等,,,2015-10-05,1,,,,,イケバサンギョウ,0
1788,8080002005569,登記記録の閉鎖等,0,2022-08-19,2022-08-17,有限会社丸正,,有限会社,静岡県,静岡市駿河区,国吉田１丁目６番３０号,,22,102,4228004,,,2022-08-17,清算の結了等,,,2015-10-05,1,,,,,マルショウ,0
1795,8100005011941,登記記録の閉鎖等,0,2022-08-19,2022-08-09,一般社団法人日本活育推進フォーラム,,その他の設立登記法人,長野県,佐久市,新子田７４８番地,,20,217,3850007,,,2022-08-09,清算の結了等,,,2016-10-13,1,,,,,ニホンカツイクスイシンフォーラム,0
1819,8130002005076,登記記録の閉鎖等,0,2022-08-19,2022-08-12,有限会社北山コンタクトレンズ,,有限会社,京都府,京都市左京区,下鴨本町１１番地９,,26,103,6060862,,,2022-08-12,清算の結了等,,,2015-10-05,1,,,,,キタヤマコンタクトレンズ,0
1838,8150005006607,登記記録の閉鎖等,0,2022-08-19,2022-08-17,特定非営利活動法人ごせまちネットワーク・創,,その他の設立登記法人,奈良県,御所市,大字室６６２番地,,29,208,6392277,,,2022-08-17,清算の結了等,,,2015-10-05,1,,,,,ゴセマチネットワークソウ,0
1840,8160005003116,登記記録の閉鎖等,0,2022-08-19,2022-08-17,特定非営利活動法人鳩の街,,その他の設立登記法人,滋賀県,湖南市,石部東３丁目１番５号,,25,211,5203107,,,2022-08-17,清算の結了等,,,2015-10-05,1,,,,,ハトノマチ,0
1848,8180001099759,登記記録の閉鎖等,0,2022-08-19,2022-08-17,株式会社ホソノアルミ,,株式会社,愛知県,津島市,江川町２丁目７番地１,,23,208,4960867,,,2022-08-17,清算の結了等,,,2015-10-05,1,,,,,ホソノアルミ,0
1866,8260002010773,登記記録の閉鎖等,0,2022-08-19,2022-08-18,有限会社ＷＡＳＯ,,有限会社,岡山県,岡山市北区,大安寺東町７番８号,,33,101,7000063,,,2022-08-18,清算の結了等,,,2015-10-05,1,,,,,ワソー,0
1887,8360003006406,登記記録の閉鎖等,0,2022-08-19,2022-08-08,シオンガーデン合同会社,,合同会社,沖縄県,中頭郡嘉手納町,字嘉手納２３９番地,,47,325,9040203,,,2022-08-08,清算の結了等,,,2015-10-05,1,,,,,シオンガーデン,0
1890,8380001006190,登記記録の閉鎖等,0,2022-08-19,2022-08-09,野内建設工業株式会社,,株式会社,福島県,郡山市,喜久田町堀之内字瓶焼場１４番地,,07,203,9630541,,,2022-08-09,清算の結了等,,,2015-10-05,1,,,,,ノウチケンセツコウギョウ,0
1924,9010003024739,登記記録の閉鎖等,0,2022-08-19,2022-08-05,合同会社ダブルオーシックス,,合同会社,東京都,中央区,日本橋１丁目４番１号,,13,102,1030027,,,2022-08-05,清算の結了等,,,2017-01-25,1,,,,,ダブルオーシックス,0
1933,9010401073437,登記記録の閉鎖等,0,2022-08-19,2022-08-01,株式会社ディパーチャーグループ,,株式会社,東京都,渋谷区,本町３丁目１３番１２号渋谷本町ビル３Ｆ,,13,113,1510071,,,2022-08-01,合併による解散等,6011001091526,令和４年７月３１日東京都渋谷区本町三丁目１３番１２号渋谷本町ビル３Ｆ株式会社ビルフィックス（6011001091526）に合併し解散,2015-10-05,1,,,,,ディパーチャーグループ,0
1977,9020001120316,登記記録の閉鎖等,0,2022-08-19,2022-08-10,株式会社ＡＳＴＲＡＩＢＬＡ,,株式会社,神奈川県,横浜市保土ケ谷区,新桜ケ丘１丁目６４番６－２０２号,,14,106,2400036,,,2022-08-10,清算の結了等,,,2017-03-08,1,,,,,アストライブラ,0
1983,9020005004878,登記記録の閉鎖等,0,2022-08-19,2022-08-10,特定非営利活動法人高齢者ＮＰＯ,,その他の設立登記法人,神奈川県,横浜市磯子区,磯子台２６番１号コスモヒルズ磯子台５１３号室,,14,107,2350019,,,2022-08-10,清算の結了等,,,2015-10-05,1,,,,,コウレイシャエヌピーオー,0
1988,9030001080311,登記記録の閉鎖等,0,2022-08-19,2022-08-10,株式会社フィエレ,,株式会社,長野県,伊那市,東春近２６６４番地３,,20,209,3994432,,,2022-08-10,清算の結了等,,,2015-10-05,1,,,,,フィエレ,0
1997,9030002086852,登記記録の閉鎖等,0,2022-08-19,2022-08-05,有限会社大戸商店,,有限会社,埼玉県,越谷市,大沢２丁目１２番１８号,,11,222,3430025,,,2022-08-05,清算の結了等,,,2015-10-05,1,,,,,オオトショウテン,0
1998,9030002097395,登記記録の閉鎖等,0,2022-08-19,2022-08-08,有限会社倉方組,,有限会社,埼玉県,比企郡小川町,大字小川１５２０番地,,11,343,3550321,,,2022-08-08,清算の結了等,,,2015-10-05,1,,,,,クラカタクミ,0
1999,9030002119389,登記記録の閉鎖等,0,2022-08-19,2022-08-08,有限会社黒田技工所,,有限会社,埼玉県,飯能市,大字双柳９２８番地２,,11,209,3570021,,,2022-08-08,清算の結了等,,,2015-10-05,1,,,,,クロダギコウショ,0
2000,9030003002115,登記記録の閉鎖等,0,2022-08-19,2022-08-08,合資会社レミントスタジオ,,合資会社,埼玉県,越谷市,蒲生茜町１７－１８サンフォーレ越谷南２０３,,11,222,3430843,,,2022-08-08,清算の結了等,,,2015-10-05,1,,,,,レミントスタジオ,0
2006,9040001024597,登記記録の閉鎖等,0,2022-08-19,2022-08-08,タンバ塗装工業株式会社,,株式会社,千葉県,船橋市,松が丘３丁目５１番１０号,,12,204,2740064,,,2022-08-08,清算の結了等,,,2015-10-05,1,,,,,タンバトソウコウギョウ,0
2008,9040001040438,登記記録の閉鎖等,0,2022-08-19,2022-08-05,株式会社スカイト,,株式会社,千葉県,流山市,野々下３丁目７５９番地の１,,12,220,2700135,,,2022-08-05,清算の結了等,,,2015-10-05,1,,,,,スカイト,0
2030,9120001169954,登記記録の閉鎖等,0,2022-08-19,2022-08-17,株式会社門真製作所,,株式会社,大阪府,守口市,南寺方東通４丁目１４番２７号,,27,209,5700043,,,2022-08-17,清算の結了等,,,2015-10-05,1,,,,,,0
2042,9120002017047,登記記録の閉鎖等,0,2022-08-19,2022-08-17,有限会社山本葬祭,,有限会社,大阪府,大阪市住之江区,中加賀屋３丁目６番２３号,,27,125,5590017,,,2022-08-17,清算の結了等,,,2015-10-05,1,,,,,,0
2052,9130001030066,登記記録の閉鎖等,0,2022-08-19,2022-08-09,光徳産業株式会社,,株式会社,京都府,向日市,上植野町下川原１番地,,26,208,6170006,,,2022-08-09,清算の結了等,,,2015-10-05,1,,,,,コウトクサンギョウ,0
2057,9130005015971,登記記録の閉鎖等,0,2022-08-19,2022-08-08,一般社団法人総合生存学インパクトセンター,,その他の設立登記法人,京都府,京都市中京区,御池通東洞院東入笹屋町４３６永和御池ビル６０６号,,26,104,6048187,,,2022-08-08,清算の結了等,,,2020-08-25,1,,,,,ソウゴウセイゾンガクインパクトセンター,0
2063,9150003000809,登記記録の閉鎖等,0,2022-08-19,2022-08-16,東山合資会社,,合資会社,奈良県,吉野郡吉野町,大字新子１６５番地,,29,441,6393433,,,2022-08-16,清算の結了等,,,2015-10-05,1,,,,,ヒガシヤマ,0
2069,9180001070041,登記記録の閉鎖等,0,2022-08-19,2022-08-16,株式会社ジェイエッチディー,,株式会社,愛知県,長久手市,上川原２２番地５,,23,238,4801132,,,2022-08-16,清算の結了等,,,2015-10-05,1,,,,,ジェイエッチディー,0
2077,9180301022139,登記記録の閉鎖等,0,2022-08-19,2022-08-18,安元商事株式会社,,株式会社,愛知県,豊川市,御油町八面横３２番地１,,23,207,4410211,,,2022-08-18,清算の結了等,,,2015-10-05,1,,,,,,0
2091,9280001006489,登記記録の閉鎖等,0,2022-08-19,2022-08-18,株式会社貝援隊,,株式会社,島根県,出雲市,湖陵町板津１番地,,32,203,6990817,,,2022-08-18,清算の結了等,,,2015-10-05,1,,,,,カイエンタイ,0
2102,9290002009589,登記記録の閉鎖等,0,2022-08-19,2022-08-08,伊東システムフーズ有限会社,,有限会社,福岡県,福岡市城南区,神松寺３丁目１番３７号,,40,136,8140121,,,2022-08-08,清算の結了等,,,2015-10-05,1,,,,,イトウシステムフーズ,0
2104,9290005006617,登記記録の閉鎖等,0,2022-08-19,2022-08-17,筑紫食糧販売協同組合,,その他の設立登記法人,福岡県,太宰府市,水城１丁目３番８号,,40,221,8180131,,,2022-08-17,清算の結了等,,,2015-10-05,1,,,,,チクシショクリョウハンバイ,0
2118,9380002025379,登記記録の閉鎖等,0,2022-08-19,2022-08-09,農業生産法人有限会社いわき遠野牧場,,有限会社,福島県,いわき市,遠野町上根本字折松１２８番地,,07,204,9720252,,,2022-08-09,清算の結了等,,,2015-10-05,1,,,,,ノウギョウセイサンホウジンイワキトウノボクジョウ,0
2119,9400001009685,登記記録の閉鎖等,0,2022-08-19,2022-08-18,株式会社北日本アミューズ,,株式会社,岩手県,盛岡市,長橋町６番１６号,,03,201,0200146,,,2022-08-18,清算の結了等,,,2015-10-05,1,,,,,,0
