sequenceNumber,corporateNumber,process,correct,updateDate,changeDate,name,nameImageId,kind,prefectureName,cityName,streetNumber,addressImageId,prefectureCode,cityCode,postCode,addressOutside,addressOutsideImageId,closeDate,closeCause,successorCorporateNumber,changeCause,assignmentDate,latest,enName,enPrefectureName,enCityName,enAddressOutside,furigana,hihyoji
9,1010001232078,新規,0,2023-01-13,2023-01-13,ｘ３ｄ株式会社,,株式会社,東京都,中央区,八重洲１丁目５番２０号東京建物八重洲さくら通りビル３階,,13,102,1030028,,,,,,,2023-01-13,1,,,,,クロスサード,0
12,1010003039513,新規,0,2023-01-13,2023-01-13,合同会社メディフォルン,,合同会社,東京都,千代田区,神田猿楽町１丁目３番６号フェリーチェお茶の水４０４,,13,101,1010064,,,,,,,2023-01-13,1,,,,,メディフォルン,0
13,1010003039521,新規,0,2023-01-13,2023-01-13,ｒｉｎｆａｒｒｅ合同会社,,合同会社,東京都,中央区,銀座７丁目３番１３号,,13,102,1040061,,,,,,,2023-01-13,1,,,,,リンファーレ,0
14,1010003039546,新規,0,2023-01-13,2023-01-13,合同会社ａｌｌＴｈｅｍ,,合同会社,東京都,千代田区,神田和泉町１番地６－１６ヤマトビル４０５,,13,101,1010024,,,,,,,2023-01-13,1,,,,,オールゼム,0
23,1010401171768,新規,0,2023-01-13,2023-01-13,株式会社ｄｕａｒｉｓｅ,,株式会社,東京都,港区,南青山３丁目１番３６号青山丸竹ビル６Ｆ,,13,103,1070062,,,,,,,2023-01-13,1,,,,,デュアライズ,0
24,1010401171792,新規,0,2023-01-13,2023-01-13,株式会社ころぼっくすぷろじぇくと,,株式会社,東京都,港区,南青山２丁目２番１５号,,13,103,1070062,,,,,,,2023-01-13,1,,,,,コロボックスプロジェクト,0
25,1010401171891,新規,0,2023-01-13,2023-01-13,株式会社ヒステリシス,,株式会社,東京都,港区,芝４丁目３番２－７０３号,,13,103,1080014,,,,,,,2023-01-13,1,,,,,ヒステリシス,0
26,1010401171900,新規,0,2023-01-13,2023-01-13,株式会社ＳＫＹＬＡＫＥ　ＪＡＰＡＮ,,株式会社,東京都,港区,西新橋３丁目２５番３１号愛宕山ＰＲＥＸ３階,,13,103,1050003,,,,,,,2023-01-13,1,,,,,スカイレイクジャパン,0
30,1010403029270,新規,0,2023-01-13,2023-01-13,合同会社ＣＦＯホットライン,,合同会社,東京都,港区,赤坂６丁目１３番１６号アジミックビル,,13,103,1070052,,,,,,,2023-01-13,1,,,,,シーエフオーホットライン,0
31,1010403029279,新規,0,2023-01-13,2023-01-13,０１合同会社,,合同会社,東京都,港区,南青山３丁目１番３６号青山丸竹ビル６階,,13,103,1070062,,,,,,,2023-01-13,1,,,,,ゼロイチ,0
33,1010405021713,新規,0,2023-01-13,2023-01-13,弁理士法人蒼洋国際特許事務所,,その他の設立登記法人,東京都,港区,赤坂３丁目２１番１５号東都赤坂ビル６階,,13,103,1070052,,,,,,,2023-01-13,1,,,,,ソウヨウコクサイトッキョジムショ,0
34,1010405021721,新規,0,2023-01-13,2023-01-13,一般社団法人ＳＨ０６３,,その他の設立登記法人,東京都,港区,虎ノ門３丁目２２番１０－２０１号,,13,103,1050001,,,,,,,2023-01-13,1,,,,,エスエイチゼロシックススリー,0
41,1010601062412,新規,0,2023-01-13,2023-01-13,株式会社ｋｉｋｉｋｉ,,株式会社,東京都,江東区,豊洲４丁目１０番６－４１３号,,13,108,1350061,,,,,,,2023-01-13,1,,,,,キキキ,0
44,1010701043700,新規,0,2023-01-13,2023-01-13,株式会社パートナーズ,,株式会社,東京都,品川区,西五反田１丁目４番８号,,13,109,1410031,,,,,,,2023-01-13,1,,,,,パートナーズ,0
45,1010801033592,新規,0,2023-01-13,2023-01-13,仁愛内装株式会社,,株式会社,東京都,大田区,南六郷３丁目１４番６号メゾンドスピカ１０１,,13,111,1440045,,,,,,,2023-01-13,1,,,,,ジンアイナイソウ,0
53,1010901052311,新規,0,2023-01-13,2023-01-13,株式会社ＴＯＯＹ,,株式会社,東京都,世田谷区,代田３丁目５１番６号代田リハイム２０１,,13,112,1550033,,,,,,,2023-01-13,1,,,,,トーイ,0
54,1010901052328,新規,0,2023-01-13,2023-01-13,株式会社ｂｏｏｓｔｅｒ,,株式会社,東京都,世田谷区,若林２丁目３０番４号,,13,112,1540023,,,,,,,2023-01-13,1,,,,,ブースター,0
55,1010903007890,新規,0,2023-01-13,2023-01-13,合同会社ＮＡＣＳパートナーズ,,合同会社,東京都,世田谷区,瀬田３丁目１番２２号,,13,112,1580095,,,,,,,2023-01-13,1,,,,,ナックスパートナーズ,0
56,1010903007908,新規,0,2023-01-13,2023-01-13,ＯＮＥＳＥＬ合同会社,,合同会社,東京都,世田谷区,野毛２丁目９番１２号,,13,112,1580092,,,,,,,2023-01-13,1,,,,,ワンセル,0
62,1011001151796,新規,0,2023-01-13,2023-01-13,株式会社ＴｒｉｄｅｎｔＣｕｒｖｅ,,株式会社,東京都,渋谷区,神宮前４丁目１５－１６原宿ジートルンク１０６,,13,113,1500001,,,,,,,2023-01-13,1,,,,,トライデントカーブ,0
63,1011001151945,新規,0,2023-01-13,2023-01-13,株式会社Ｐｏｉｎｔｌｅｓｓ　Ｊｏｕｒｎｅｙ,,株式会社,東京都,渋谷区,道玄坂１丁目１０番８号,,13,113,1500043,,,,,,,2023-01-13,1,,,,,ポイントレスジャーニー,0
64,1011001151986,新規,0,2023-01-13,2023-01-13,株式会社Ｏｍｉａｉ,,株式会社,東京都,渋谷区,恵比寿１丁目１９番１９号,,13,113,1500013,,,,,,,2023-01-13,1,,,,,オミアイ,0
65,1011001152051,新規,0,2023-01-13,2023-01-13,株式会社梨怜コーポレーション,,株式会社,東京都,目黒区,目黒本町１丁目１６番１３号,,13,110,1520002,,,,,,,2023-01-13,1,,,,,リレイコーポレーション,0
74,1011101101445,新規,0,2023-01-13,2023-01-13,マイホームＦＰ株式会社,,株式会社,東京都,新宿区,新宿１丁目２４番７号ルネ御苑プラザ,,13,104,1600022,,,,,,,2023-01-13,1,,,,,マイホームエフピー,0
75,1011101101453,新規,0,2023-01-13,2023-01-13,株式会社アンドネス,,株式会社,東京都,新宿区,西新宿３丁目９番７号フロンティア新宿タワー７０９号,,13,104,1600023,,,,,,,2023-01-13,1,,,,,アンドネス,0
76,1011101101461,新規,0,2023-01-13,2023-01-13,株式会社晟和企画,,株式会社,東京都,新宿区,百人町２丁目４番５号ライオンズマンション新大久保５０５号,,13,104,1690073,,,,,,,2023-01-13,1,,,,,セイワキカク,0
79,1011103012582,新規,0,2023-01-13,2023-01-13,合同会社ｇｏｏｄ　ｌｉｆｅ　ｍａｒｋｅｔ,,合同会社,東京都,新宿区,西新宿３丁目３番１３号西新宿水間ビル２Ｆ,,13,104,1600023,,,,,,,2023-01-13,1,,,,,グッドライフマーケット,0
86,1011401024833,新規,0,2023-01-13,2023-01-13,株式会社ＤＨＴ総合,,株式会社,東京都,板橋区,徳丸６丁目４１番１０号Ｔ－１ｓｔ３０１,,13,119,1750083,,,,,,,2023-01-13,1,,,,,ディーエイチティーソウゴウ,0
87,1011403003868,新規,0,2023-01-13,2023-01-13,合同会社認知症総合研究所,,合同会社,東京都,板橋区,小豆沢４丁目１４番１６号Ｓｙｍｐｈｏｎｙ１０１,,13,119,1740051,,,,,,,2023-01-13,1,,,,,ニンチショウソウゴウケンキュウショ,0
88,1011403003876,新規,0,2023-01-13,2023-01-13,合同会社キカオク,,合同会社,東京都,板橋区,若木１丁目２７番１－６０４号,,13,119,1740065,,,,,,,2023-01-13,1,,,,,キカオク,0
95,1011701025952,新規,0,2023-01-13,2023-01-13,株式会社奔走王,,株式会社,東京都,江戸川区,平井３丁目２４番９号３階,,13,123,1320035,,,,,,,2023-01-13,1,,,,,,0
96,1011703003361,新規,0,2023-01-13,2023-01-13,合同会社リアライズ,,合同会社,東京都,江戸川区,西葛西７丁目２１－１１サントヴィラージスガ２０７,,13,123,1340088,,,,,,,2023-01-13,1,,,,,リアライズ,0
101,1012701017428,新規,0,2023-01-13,2023-01-13,株式会社ＱＵＩＬＬＹ,,株式会社,東京都,東久留米市,下里１丁目１１番３９号,,13,222,2030043,,,,,,,2023-01-13,1,,,,,クイリー,0
109,1013301050174,新規,0,2023-01-13,2023-01-13,株式会社ＭＳＫ,,株式会社,東京都,豊島区,東池袋３丁目５番７号７０３号,,13,116,1700013,,,,,,,2023-01-13,1,,,,,エムエスケー,0
110,1013301050190,新規,0,2023-01-13,2023-01-13,＿森株式会社,00129060,株式会社,東京都,豊島区,池袋本町４丁目３４－４,,13,116,1700011,,,,,,,2023-01-13,1,,,,,シンセン,0
119,1020001149734,新規,0,2023-01-13,2023-01-13,株式会社長江産業,,株式会社,神奈川県,横浜市港北区,新横浜３丁目１３番地６－７階,,14,109,2220033,,,,,,,2023-01-13,1,,,,,ナガエサンギョウ,0
120,1020001149825,新規,0,2023-01-13,2023-01-13,株式会社プリソル,,株式会社,神奈川県,横浜市港北区,新吉田東５丁目５１番１６号,,14,109,2230058,,,,,,,2023-01-13,1,,,,,プリソル,0
121,1020001149833,新規,0,2023-01-13,2023-01-13,株式会社Ｆ．Ｐ,,株式会社,神奈川県,横浜市中区,野毛町２丁目８１番地,,14,104,2310064,,,,,,,2023-01-13,1,,,,,エフピー,0
125,1020003023086,新規,0,2023-01-13,2023-01-13,ＳＪＭ合同会社,,合同会社,神奈川県,横浜市磯子区,杉田５丁目１番４－５０１号,,14,107,2350033,,,,,,,2023-01-13,1,,,,,エスジェーエム,0
126,1020003023094,新規,0,2023-01-13,2023-01-13,合同会社ディー・エイチ・サポート,,合同会社,神奈川県,横浜市港北区,日吉７丁目６番２９号,,14,109,2230061,,,,,,,2023-01-13,1,,,,,ディーエイチサポート,0
127,1020003023111,新規,0,2023-01-13,2023-01-13,合同会社Ｋ．Ｉ,,合同会社,神奈川県,川崎市麻生区,栗木１丁目４番５号,,14,137,2150033,,,,,,,2023-01-13,1,,,,,ケイアイ,0
128,1020005015800,新規,0,2023-01-13,2023-01-13,行政書士法人ＪＡＰＡＮ　ＶＩＳＡ　ＳＵＰＰＯＲＴ,,その他の設立登記法人,神奈川県,川崎市川崎区,東田町２番地１１大谷加工川崎大通りビル３階,,14,131,2100005,,,,,,,2023-01-13,1,,,,,ジャパンビザサポート,0
129,1021001077883,新規,0,2023-01-13,2023-01-13,株式会社ホワイトニア,,株式会社,神奈川県,藤沢市,大鋸２丁目２番５号,,14,205,2510002,,,,,,,2023-01-13,1,,,,,ホワイトニア,0
130,1021001077917,新規,0,2023-01-13,2023-01-13,株式会社野崎,,株式会社,神奈川県,大和市,中央林間２丁目６番１７号,,14,213,2420007,,,,,,,2023-01-13,1,,,,,ノザキ,0
131,1021001077925,新規,0,2023-01-13,2023-01-13,株式会社グルメスタ,,株式会社,神奈川県,相模原市中央区,田名塩田４丁目６番７号,,14,152,2520245,,,,,,,2023-01-13,1,,,,,グルメスタ,0
134,1021003012590,新規,0,2023-01-13,2023-01-13,Ｋリンクス合同会社,,合同会社,神奈川県,海老名市,上郷１丁目９番２４号,,14,215,2430434,,,,,,,2023-01-13,1,,,,,ケイリンクス,0
135,1021003012599,新規,0,2023-01-13,2023-01-13,合同会社松和,,合同会社,神奈川県,大和市,鶴間２丁目２番１３号ファミールサカモト２０４,,14,213,2420004,,,,,,,2023-01-13,1,,,,,ショウワ,0
140,1030001151904,新規,0,2023-01-13,2023-01-13,株式会社ＳＣ,,株式会社,埼玉県,越谷市,北越谷４丁目１９番１０号,,11,222,3430026,,,,,,,2023-01-13,1,,,,,エスシー,0
141,1030001151929,新規,0,2023-01-13,2023-01-13,株式会社アイシーエス,,株式会社,埼玉県,川口市,大字伊刈３１８番地の５,,11,203,3330865,,,,,,,2023-01-13,1,,,,,アイシーエス,0
147,1030003020958,新規,0,2023-01-13,2023-01-13,金輝合同会社,,合同会社,埼玉県,川越市,大字的場２１６４番地２２レジェンドハイムナカノ１０２号室,,11,201,3501101,,,,,,,2023-01-13,1,,,,,キンキ,0
148,1030003020966,新規,0,2023-01-13,2023-01-13,ＣＬＯＵＤ　ＳＴＲＥＥＴ合同会社,,合同会社,埼玉県,越谷市,レイクタウン５丁目１２番地２シティテラス越谷レイクタウン２１５,,11,222,3430828,,,,,,,2023-01-13,1,,,,,クラウドストリート,0
151,1030005021112,新規,0,2023-01-13,2023-01-13,一般社団法人シンデレラ協会,,その他の設立登記法人,埼玉県,川越市,脇田本町４番地４スーペリエ１０１,,11,201,3501123,,,,,,,2023-01-13,1,,,,,シンデレラキョウカイ,0
157,1040001126566,新規,0,2023-01-13,2023-01-13,ＭＩＫ株式会社,,株式会社,千葉県,印西市,木刈３丁目５番地１,,12,231,2701359,,,,,,,2023-01-13,1,,,,,エムアイケー,0
158,1040001126582,新規,0,2023-01-13,2023-01-13,株式会社千葉・エイト,,株式会社,千葉県,市原市,青柳５６９番地４１,,12,219,2990102,,,,,,,2023-01-13,1,,,,,チバエイト,0
159,1040001126616,新規,0,2023-01-13,2023-01-13,株式会社焚火,,株式会社,千葉県,柏市,柏２丁目７番１０号２Ｆ,,12,217,2770005,,,,,,,2023-01-13,1,,,,,タキビ,0
164,1040003021674,新規,0,2023-01-13,2023-01-13,合同会社ＴＲＩＴＯＮ,,合同会社,千葉県,市川市,富浜２丁目１５－１－Ａ２１９,,12,203,2720115,,,,,,,2023-01-13,1,,,,,トライトン,0
165,1050001052233,新規,0,2023-01-13,2023-01-13,株式会社ＭＡＲＷＡＴ　ＴＲＡＤＩＮＧ,,株式会社,茨城県,結城市,大字結城８０１番地３３大山ハイツＢ１０２,,08,207,3070001,,,,,,,2023-01-13,1,,,,,マルワトトレーディング,0
166,1060001035600,新規,0,2023-01-13,2023-01-13,株式会社ＮＥＥＤ,,株式会社,栃木県,足利市,小俣町５７６番地７,,09,202,3260141,,,,,,,2023-01-13,1,,,,,ニード,0
167,1060001035609,新規,0,2023-01-13,2023-01-13,Ｕｎｒｉｐｅ株式会社,,株式会社,栃木県,足利市,永楽町６－１３,,09,202,3260055,,,,,,,2023-01-13,1,,,,,アンライプ,0
172,1070001040013,新規,0,2023-01-13,2023-01-13,ラジオヤ電機株式会社,,株式会社,群馬県,太田市,内ケ島町１２０５番地１,,10,205,3730813,,,,,,,2023-01-13,1,,,,,ラジオヤデンキ,0
180,1080401026247,新規,0,2023-01-13,2023-01-13,株式会社クラージュ,,株式会社,静岡県,磐田市,福田中島７０８カウベル３０６,,22,211,4371204,,,,,,,2023-01-13,1,,,,,クラージュ,0
186,1100005012962,新規,0,2023-01-13,2023-01-13,一般社団法人上田市建設発生土活用推進協会,,その他の設立登記法人,長野県,上田市,小泉８４５番地１７,,20,203,3861106,,,,,,,2023-01-13,1,,,,,ウエダシケンセツハッセイドカツヨウスイシンキョウカイ,0
190,1110003004960,新規,0,2023-01-13,2023-01-13,愛国商店合同会社,,合同会社,新潟県,長岡市,北山２丁目３８番地１８,,15,202,9402114,,,,,,,2023-01-13,1,,,,,アイコクショウテン,0
200,1120001251661,新規,0,2023-01-13,2023-01-13,株式会社錦戸,,株式会社,大阪府,大阪市西区,京町堀１丁目３番１号ワイズビスタビル４階,,27,106,5500003,,,,,,,2023-01-13,1,,,,,ニシキド,0
201,1120001251686,新規,0,2023-01-13,2023-01-13,ＡＵＵＮ株式会社,,株式会社,大阪府,大阪市北区,堂島１丁目１－５関電不動産梅田新道ビルＢ２Ｆ,,27,127,5300003,,,,,,,2023-01-13,1,,,,,アウーン,0
202,1120001251703,新規,0,2023-01-13,2023-01-13,株式会社ｎｕｉ,,株式会社,大阪府,大阪市住之江区,新北島３丁目６－３８,,27,125,5590024,,,,,,,2023-01-13,1,,,,,ヌイ,0
207,1120003023217,新規,0,2023-01-13,2023-01-13,キャリア＆ラーニング・デザイン合同会社,,合同会社,大阪府,大阪市北区,梅田１丁目２番２号大阪駅前第２ビル,,27,127,5300001,,,,,,,2023-01-13,1,,,,,キャリアアンドラーニングデザイン,0
208,1120003023233,新規,0,2023-01-13,2023-01-13,合同会社ＣａｐｒｉｃｅＳｔｙｌｅ,,合同会社,大阪府,大阪市北区,梅田２丁目２番２号ヒルトンプラザウエスト１９階,,27,127,5300001,,,,,,,2023-01-13,1,,,,,カプリススタイル,0
209,1120003023241,新規,0,2023-01-13,2023-01-13,合同会社ｔｉｐｓ,,合同会社,大阪府,枚方市,岡本町７番１号枚方ビオルネ５階,,27,210,5730031,,,,,,,2023-01-13,1,,,,,ティップス,0
210,1120003023258,新規,0,2023-01-13,2023-01-13,合同会社ＴＯＣ,,合同会社,大阪府,大阪市西区,新町１丁目１４番２１－５２０８号,,27,106,5500013,,,,,,,2023-01-13,1,,,,,ティーオーシー,0
212,1120005023396,新規,0,2023-01-13,2023-01-13,スタートパートナーズ税理士法人,,その他の設立登記法人,大阪府,大阪市北区,梅田１丁目１１番４号大阪駅前第４ビル１９階,,27,127,5300001,,,,,,,2023-01-13,1,,,,,スタートパートナーズ,0
218,1120101066803,新規,0,2023-01-13,2023-01-13,株式会社京和建築,,株式会社,大阪府,泉南市,信達大苗代３３６番地の１,,27,228,5900505,,,,,,,2023-01-13,1,,,,,キョウワケンチク,0
219,1120101066828,新規,0,2023-01-13,2023-01-13,太子温泉株式会社,,株式会社,大阪府,南河内郡太子町,大字山田１１３１番地,,27,381,5830992,,,,,,,2023-01-13,1,,,,,タイシオンセン,0
225,1120901046938,新規,0,2023-01-13,2023-01-13,Ｕ‐ｌｅａｐ株式会社,,株式会社,大阪府,箕面市,坊島１丁目１０番３２号の１,,27,220,5620013,,,,,,,2023-01-13,1,,,,,ユリープ,0
231,1130001073444,新規,0,2023-01-13,2023-01-13,株式会社アデッソ,,株式会社,京都府,京都市伏見区,向島善阿弥町３０番地の１０,,26,109,6128121,,,,,,,2023-01-13,1,,,,,アデッソ,0
232,1130001073452,新規,0,2023-01-13,2023-01-13,株式会社クリエイト,,株式会社,京都府,京都市右京区,宇多野福王子町５番地２,,26,108,6168208,,,,,,,2023-01-13,1,,,,,クリエイト,0
235,1130003008448,新規,0,2023-01-13,2023-01-13,ルンビニ合同会社,,合同会社,京都府,京都市南区,東九条明田町４４番２号,,26,107,6018044,,,,,,,2023-01-13,1,,,,,ルンビニ,0
241,1140001128676,新規,0,2023-01-13,2023-01-13,株式会社スミカエパートナーズ,,株式会社,兵庫県,神戸市中央区,御幸通６丁目１番１５－１０１号,,28,110,6510087,,,,,,,2023-01-13,1,,,,,スミカエパートナーズ,0
242,1140001128692,新規,0,2023-01-13,2023-01-13,Ｏｎｅｎｅｓｓ　Ｌｉｎｋ株式会社,,株式会社,兵庫県,神戸市中央区,御幸通８丁目１－６神戸国際会館２２階,,28,110,6510087,,,,,,,2023-01-13,1,,,,,ワンネスリンク,0
243,1140001128759,新規,0,2023-01-13,2023-01-13,株式会社Ｚｅｒｏ　Ｐｌｕｓ,,株式会社,兵庫県,西宮市,浜甲子園３丁目７番１２号,,28,204,6638154,,,,,,,2023-01-13,1,,,,,ゼロプラス,0
245,1140003018553,新規,0,2023-01-13,2023-01-13,アドヨシダ合同会社,,合同会社,兵庫県,尼崎市,神田北通４丁目６１番地の７,,28,202,6600883,,,,,,,2023-01-13,1,,,,,アドヨシダ,0
246,1150001026086,新規,0,2023-01-13,2023-01-13,株式会社ａｎｄＢ,,株式会社,奈良県,北葛城郡広陵町,みささぎ台２番１４号,,29,426,6350835,,,,,,,2023-01-13,1,,,,,アンビー,0
247,1150003002861,新規,0,2023-01-13,2023-01-13,合同会社むすひ邑,,合同会社,奈良県,香芝市,西真美２丁目１９番地７,,29,210,6390222,,,,,,,2023-01-13,1,,,,,,0
249,1160001024758,新規,0,2023-01-13,2023-01-13,株式会社ｓｗｅｅｐ,,株式会社,滋賀県,野洲市,小篠原８２６番地１５,,25,210,5202331,,,,,,,2023-01-13,1,,,,,スウィープ,0
252,1160003002778,新規,0,2023-01-13,2023-01-13,みらいＰＯＷＥＲ　ＪＡＰＡＮ合同会社,,合同会社,滋賀県,蒲生郡日野町,松尾４丁目１０番地スカイハイツＩ－１０２号,00129040,25,383,5291601,,,,,,,2023-01-13,1,,,,,ミライパワージャパン,0
253,1170005006990,新規,0,2023-01-13,2023-01-13,特定非営利活動法人スペシャルオリンピックス日本・和歌山,,その他の設立登記法人,和歌山県,紀の川市,尾崎７９番地１麦の郷紀の川生活支援センター内,,30,208,6496423,,,,,,,2023-01-13,1,,,,,スペシャルオリンピックスニッポンワカヤマ,0
257,1180001154495,新規,0,2023-01-13,2023-01-13,株式会社ＲｅＬＩＦＥ,,株式会社,愛知県,名古屋市中区,栄５丁目２６番３９号ＧＳ栄ビル３Ｆ,,23,106,4600008,,,,,,,2023-01-13,1,,,,,リライフ,0
258,1180001154537,新規,0,2023-01-13,2023-01-13,株式会社９０,,株式会社,愛知県,名古屋市北区,大杉２丁目４番８号,,23,103,4620837,,,,,,,2023-01-13,1,,,,,ナインティー,0
259,1180001154545,新規,0,2023-01-13,2023-01-13,株式会社ＹＷ,,株式会社,愛知県,大府市,北崎町井田１２９番地,,23,223,4740001,,,,,,,2023-01-13,1,,,,,ワイダブリュー,0
260,1180001154553,新規,0,2023-01-13,2023-01-13,株式会社すぅみーるＦＡＲＭ,,株式会社,愛知県,名古屋市緑区,桃山３丁目５０７番地オーラム桃山台４０１号,,23,114,4580002,,,,,,,2023-01-13,1,,,,,スゥミールファーム,0
268,1180301036988,新規,0,2023-01-13,2023-01-13,株式会社ＩＴＳＵＫＡ,,株式会社,愛知県,蒲郡市,三谷北通２丁目５９番地,,23,214,4430022,,,,,,,2023-01-13,1,,,,,イツカ,0
269,1180301036996,新規,0,2023-01-13,2023-01-13,株式会社高橋工業,00129058,株式会社,愛知県,安城市,藤井町南山１６８番地,,23,212,4441164,,,,,,,2023-01-13,1,,,,,タカハシコウギョウ,0
271,1190001030101,新規,0,2023-01-13,2023-01-13,株式会社三重トラストフーズ,,株式会社,三重県,伊勢市,村松町３０２６番地,,24,203,5150507,,,,,,,2023-01-13,1,,,,,ミエトラストフーズ,0
279,1230001019676,新規,0,2023-01-13,2023-01-13,株式会社大屋組,,株式会社,富山県,富山市,清水町５丁目６番５号,,16,201,9300036,,,,,,,2023-01-13,1,,,,,オオヤグミ,0
281,1240001060951,新規,0,2023-01-13,2023-01-13,ＫＩＮＧＬＥＹ　ＨＯＵＳＥ株式会社,,株式会社,広島県,広島市西区,田方１丁目２９－２９－２０１,,34,104,7330851,,,,,,,2023-01-13,1,,,,,キングリーハウス,0
287,1280001008864,新規,0,2023-01-13,2023-01-13,株式会社紅浪漫,,株式会社,島根県,益田市,東町２３番２５号,,32,204,6980004,,,,,,,2023-01-13,1,,,,,ベニロマン,0
294,1290001100174,新規,0,2023-01-13,2023-01-13,株式会社柴田金属,,株式会社,福岡県,糸島市,篠原西１丁目２番２３号,,40,230,8191129,,,,,,,2023-01-13,1,,,,,シバタキンゾク,0
295,1290001100190,新規,0,2023-01-13,2023-01-13,株式会社サンライズ・ハート,,株式会社,福岡県,春日市,日の出町６丁目３６番地１シティベール日の出１０５,,40,218,8160873,,,,,,,2023-01-13,1,,,,,サンライズハート,0
296,1290001100208,新規,0,2023-01-13,2023-01-13,株式会社Ｗｅｌｌｎｅｓｓ　Ｏｃｅａｎｓ,,株式会社,福岡県,福岡市西区,横浜２丁目７－７－４０３,,40,135,8190166,,,,,,,2023-01-13,1,,,,,ウェルネスオーシャンズ,0
301,1290003013341,新規,0,2023-01-13,2023-01-13,ＩＮＵ企画合同会社,,合同会社,福岡県,福岡市博多区,吉塚１丁目３９番１１ユニヴヨシヅカ３０１号,,40,132,8120041,,,,,,,2023-01-13,1,,,,,アイエヌユーキカク,0
302,1290801029209,新規,0,2023-01-13,2023-01-13,株式会社シライシ不動産,,株式会社,福岡県,北九州市八幡西区,里中２丁目１８番１２号,,40,109,8070846,,,,,,,2023-01-13,1,,,,,シライシフドウサン,0
308,1320003003990,新規,0,2023-01-13,2023-01-13,合同会社ＧＬＯＷＲＡＹＺ,,合同会社,大分県,竹田市,大字倉木９３４番地,,44,208,8780576,,,,,,,2023-01-13,1,,,,,グロウレイズ,0
311,1350005006130,新規,0,2023-01-13,2023-01-13,一般社団法人芹幸医療会,,その他の設立登記法人,宮崎県,宮崎市,恒久５丁目２番地１１,,45,201,8800913,,,,,,,2023-01-13,1,,,,,キンコウイリョウカイ,0
313,1360001031429,新規,0,2023-01-13,2023-01-13,株式会社花鈴々,,株式会社,沖縄県,中頭郡中城村,字南上原８１６番地南マンションＴ－６,,47,328,9012424,,,,,,,2023-01-13,1,,,,,ハナリンリン,0
316,1360003012625,新規,0,2023-01-13,2023-01-13,合同会社松匠建築デザイン,,合同会社,沖縄県,宮古島市,平良字西里２５９番地,,47,214,9060012,,,,,,,2023-01-13,1,,,,,マッショウケンチクデザイン,0
317,1360003012633,新規,0,2023-01-13,2023-01-13,合同会社Ｔａｋｕｍｉコーポレーション,,合同会社,沖縄県,那覇市,安謝１丁目１０番２号,,47,201,9000003,,,,,,,2023-01-13,1,,,,,タクミコーポレーション,0
320,1370001049478,新規,0,2023-01-13,2023-01-13,株式会社シトロン,,株式会社,宮城県,仙台市青葉区,国分町２丁目９番３６－５０２号,,04,101,9800803,,,,,,,2023-01-13,1,,,,,シトロン,0
321,1370001049486,新規,0,2023-01-13,2023-01-13,ニイヌマホールディングス株式会社,,株式会社,宮城県,石巻市,門脇字元浦屋敷２番地の２０,,04,202,9860853,,,,,,,2023-01-13,1,,,,,ニイヌマホールディングス,0
326,1380001033373,新規,0,2023-01-13,2023-01-13,株式会社ＯＭＪテクノソリューションズ,,株式会社,福島県,福島市,本町２番地１０Ｆｕｋｕｓｈｉｍａ‐ＢＡＳＥ内,,07,201,9608035,,,,,,,2023-01-13,1,,,,,オーエムジェーテクノソリューションズ,0
332,1420001018114,新規,0,2023-01-13,2023-01-13,株式会社東建築,,株式会社,青森県,弘前市,大字熊嶋字豊田２０７番地１,,02,202,0361321,,,,,,,2023-01-13,1,,,,,アズマケンチク,0
337,1430001088156,新規,0,2023-01-13,2023-01-13,株式会社ＮＥＯ,,株式会社,北海道,小樽市,稲穂５丁目１１番２１号,,01,203,0470032,,,,,,,2023-01-13,1,,,,,ネオ,0
338,1430001088197,新規,0,2023-01-13,2023-01-13,株式会社ＮＯＢＬＥ,,株式会社,北海道,札幌市東区,北四十五条東６丁目４番２８号,,01,103,0070845,,,,,,,2023-01-13,1,,,,,ノーブル,0
339,1430001088206,新規,0,2023-01-13,2023-01-13,株式会社Ｃａｌｉｎ,,株式会社,北海道,室蘭市,輪西町１丁目３２番１４号,,01,205,0500085,,,,,,,2023-01-13,1,,,,,カラン,0
340,1430003014647,新規,0,2023-01-13,2023-01-13,ＺＥＮＺＡＩ合同会社,,合同会社,北海道,札幌市豊平区,水車町３丁目１－１３,,01,105,0620912,,,,,,,2023-01-13,1,,,,,ゼンザイ,0
341,1430003014655,新規,0,2023-01-13,2023-01-13,合同会社ＭＡＲＵＦＵＪＩ,,合同会社,北海道,札幌市北区,北三十九条西７丁目３番３‐１００６号,,01,102,0010039,,,,,,,2023-01-13,1,,,,,マルフジ,0
344,1500001024715,新規,0,2023-01-13,2023-01-13,株式会社ミートショップ大洲,,株式会社,愛媛県,大洲市,若宮５３４番地,,38,207,7950052,,,,,,,2023-01-13,1,,,,,ミートショップオオズ,0
347,1700150008548,新規,0,2023-01-13,2015-10-09,東京コピーライターズクラブ,,その他,東京都,渋谷区,神宮前５丁目７－１５,,13,113,1500001,,,,,,,2015-10-09,1,,,,,トウキヨウコピーライターズクラブ,0
354,1700150113711,新規,0,2023-01-13,2023-01-13,ｓｈｅｎｚｈｅｎ　ｙｏｕｍｅｉｑｉ　ｔｅｃｈｎｏｌｏｇｙ　ｃｏ．，ｌｔｄ．,,外国会社等,,,,,,,,Ｎｏ．３０３，３　ｆｌｏｏｒ，１０　ｂｕｉｌｄｉｎｇ，ｃｈａｎｇｘｉｎｇ　ｐａｒｋ　ｓｈａｙｉ　ｃｏｍｍｕｎｉｔｙ，ｓｈａｊｉｎｇ　ｓｔｒｅｅｔ，ｂａｏ’ａｎ　ｓｈｅｎｚｈｅｎ　ｇｕａｎｇｄｏｎｇ　５１８１０４,,,,,,2023-01-13,1,,,,,シンセンシトユウミキケイジユウシィアンゴンスー,0
362,2010001232044,新規,0,2023-01-13,2023-01-13,Ａｌｐｈａ　Ｂｕｓｉｎｅｓｓ株式会社,,株式会社,東京都,千代田区,飯田橋２丁目９－４サンパークマンション千代田９０５号室,,13,101,1020072,,,,,,,2023-01-13,1,,,,,アルファビジネス,0
363,2010001232077,新規,0,2023-01-13,2023-01-13,株式会社マネー・ローンダリング対策共同機構,,株式会社,東京都,千代田区,丸の内１丁目３番１号,,13,101,1000005,,,,,,,2023-01-13,1,,,,,マネーローンダリングタイサクキョウドウキコウ,0
367,2010003039545,新規,0,2023-01-13,2023-01-13,ＴｔｏＡ合同会社,,合同会社,東京都,中央区,銀座６丁目１３－１６ヒューリック銀座ウォールビル,,13,102,1040061,,,,,,,2023-01-13,1,,,,,ティトア,0
372,2010401171759,新規,0,2023-01-13,2023-01-13,ＳＡＬＵＳ　ＰＨＡＲＭＡ株式会社,,株式会社,東京都,港区,西新橋１丁目１番１５号日比谷セントラルビルＢ１階,,13,103,1050003,,,,,,,2023-01-13,1,,,,,サルースファルマ,0
373,2010401171783,新規,0,2023-01-13,2023-01-13,リスクブランディング株式会社,,株式会社,東京都,港区,新橋３丁目２６番３号,,13,103,1050004,,,,,,,2023-01-13,1,,,,,リスクブランディング,0
374,2010401171833,新規,0,2023-01-13,2023-01-13,株式会社ｂｅｌｐｒｏ,,株式会社,東京都,港区,三田３丁目３番６号,,13,103,1080073,,,,,,,2023-01-13,1,,,,,ベルプロ,0
377,2010403029220,新規,0,2023-01-13,2023-01-13,合同会社Ｔｗｏ　ｏｆ　ｕｓ,,合同会社,東京都,港区,南青山３丁目６番４号,,13,103,1070062,,,,,,,2023-01-13,1,,,,,トゥーオブアス,0
378,2010403029286,新規,0,2023-01-13,2023-01-13,Ｈ＆Ｙビジネスストラテジックパートナーズ合同会社,,合同会社,東京都,港区,高輪３丁目１９番２２号,,13,103,1080074,,,,,,,2023-01-13,1,,,,,エイチアンドワイビジネスストラテジックパートナーズ,0
380,2010601062428,新規,0,2023-01-13,2023-01-13,株式会社Ｄｉｇｉｔａｌ　Ｐｈｏｅｎｉｘ,,株式会社,東京都,墨田区,錦糸２丁目４番６号６０５,,13,107,1300013,,,,,,,2023-01-13,1,,,,,デジタルフェニックス,0
381,2010701043716,新規,0,2023-01-13,2023-01-13,株式会社Ｘ,,株式会社,東京都,品川区,南品川４丁目１７－１８,,13,109,1400004,,,,,,,2023-01-13,1,,,,,エックス,0
383,2010803004418,新規,0,2023-01-13,2023-01-13,合同会社夢追人,,合同会社,東京都,大田区,久が原１丁目３６番３号,,13,111,1460085,,,,,,,2023-01-13,1,,,,,ユメオイビト,0
385,2010901052293,新規,0,2023-01-13,2023-01-13,株式会社コンクリ,,株式会社,東京都,世田谷区,弦巻４丁目３１番１０,,13,112,1540016,,,,,,,2023-01-13,1,,,,,コンクリ,0
386,2010901052310,新規,0,2023-01-13,2023-01-13,株式会社ａｒｋ　ａｘｉｓ,,株式会社,東京都,世田谷区,三宿１丁目３番２３号クラールハイト三宿Ｉ３０１,00129056,13,112,1540005,,,,,,,2023-01-13,1,,,,,アークアクシス,0
387,2010901052319,新規,0,2023-01-13,2023-01-13,株式会社Ｓｈｉｍｍｅｒ,,株式会社,東京都,世田谷区,松原１丁目５８番１２－１３０４号,,13,112,1560043,,,,,,,2023-01-13,1,,,,,シマー,0
388,2010901052327,新規,0,2023-01-13,2023-01-13,株式会社Ｐｌｕｍｅ　Ａｔｅｌｉｅｒ,,株式会社,東京都,世田谷区,粕谷３丁目２６番１２号,,13,112,1570063,,,,,,,2023-01-13,1,,,,,プリュームアトリエ,0
396,2011001151960,新規,0,2023-01-13,2023-01-13,ｆｏｒｍａｎ　ｄｅｓｉｇｎ株式会社,,株式会社,東京都,渋谷区,富ヶ谷２丁目１９番１２号,,13,113,1510063,,,,,,,2023-01-13,1,,,,,フォルマンデザイン,0
401,2011101101452,新規,0,2023-01-13,2023-01-13,株式会社アンド・ツー,,株式会社,東京都,新宿区,西新宿３丁目３番１３号西新宿水間ビル６階,,13,104,1600023,,,,,,,2023-01-13,1,,,,,アンドツー,0
402,2011101101460,新規,0,2023-01-13,2023-01-13,セキベハウス株式会社,,株式会社,東京都,新宿区,西新宿４丁目１９番１２号,,13,104,1600023,,,,,,,2023-01-13,1,,,,,セキベハウス,0
403,2011101101469,新規,0,2023-01-13,2023-01-13,株式会社Ｂｒｉｌｌａｎｔ,,株式会社,東京都,新宿区,西新宿３丁目３番１３号西新宿水間ビル２Ｆ,,13,104,1600023,,,,,,,2023-01-13,1,,,,,ブリオン,0
408,2011103012581,新規,0,2023-01-13,2023-01-13,合同会社ａｎｃｈｏｒａｇｅ,,合同会社,東京都,新宿区,新宿５丁目１５番１４号,,13,104,1600022,,,,,,,2023-01-13,1,,,,,アンカレッジ,0
410,2011401024832,新規,0,2023-01-13,2023-01-13,株式会社ＴＦＭＩカンパニー,,株式会社,東京都,板橋区,仲宿６０番１６号マルジュー仲宿ビル,,13,119,1730005,,,,,,,2023-01-13,1,,,,,ティーエフエムアイカンパニー,0
411,2011501028832,新規,0,2023-01-13,2023-01-13,株式会社モノストーリー,,株式会社,東京都,北区,田端２丁目３番３号,,13,117,1140014,,,,,,,2023-01-13,1,,,,,モノストーリー,0
418,2011701025951,新規,0,2023-01-13,2023-01-13,株式会社姫ストーリー,,株式会社,東京都,江戸川区,西葛西７丁目１番５号,,13,123,1340088,,,,,,,2023-01-13,1,,,,,ヒメストーリー,0
422,2011801041774,新規,0,2023-01-13,2023-01-13,株式会社ユーイツパートナー,,株式会社,東京都,足立区,西伊興２丁目１１番３０号,,13,121,1210824,,,,,,,2023-01-13,1,,,,,ユーイツパートナー,0
423,2011801041782,新規,0,2023-01-13,2023-01-13,Ｅｎｄｌｅｓｓ　Ｅｍｏｔｉｏｎ株式会社,,株式会社,東京都,葛飾区,奥戸６丁目１４番１６号ＮＩＫＯリバーハイム２０２号,,13,122,1240022,,,,,,,2023-01-13,1,,,,,エンドレスエモーション,0
428,2012801022079,新規,0,2023-01-13,2023-01-13,株式会社Ｗｉｚｅｓｔ,,株式会社,東京都,国分寺市,本多２丁目１番１１号ＧＴ本多ビル３Ｆ,,13,214,1850011,,,,,,,2023-01-13,1,,,,,ウィゼスト,0
435,2013301050149,新規,0,2023-01-13,2023-01-13,北都金属新材料株式会社,,株式会社,東京都,豊島区,北大塚３丁目３４番１号,,13,116,1700004,,,,,,,2023-01-13,1,,,,,,0
436,2013301050173,新規,0,2023-01-13,2023-01-13,株式会社Ｋａｒｅｎ,,株式会社,東京都,豊島区,千早２丁目２６番３号ベルスパジオ３０１号,,13,116,1710044,,,,,,,2023-01-13,1,,,,,カレン,0
445,2020001149758,新規,0,2023-01-13,2023-01-13,株式会社ＰＬＥＡＦＥＥＬ,,株式会社,神奈川県,川崎市宮前区,犬蔵２丁目８番２１号,,14,136,2160011,,,,,,,2023-01-13,1,,,,,プレフィール,0
446,2020001149766,新規,0,2023-01-13,2023-01-13,株式会社ｋ．ｓ．ｋ,,株式会社,神奈川県,川崎市高津区,千年新町２３番地１２,,14,134,2130021,,,,,,,2023-01-13,1,,,,,ケーエスケー,0
447,2020001149790,新規,0,2023-01-13,2023-01-13,Ｗ．Ｌ株式会社,,株式会社,神奈川県,川崎市中原区,上丸子八幡町８０１番地１０・ＴＯＰ新丸子１０５号室,,14,133,2110001,,,,,,,2023-01-13,1,,,,,ダブルエル,0
448,2020001149799,新規,0,2023-01-13,2023-01-13,株式会社Ｂａｃｋ　Ｏｆｆｉｃｅ　Ｎａｋａｊｉｍａ,,株式会社,神奈川県,横浜市港北区,高田西３丁目２６番１１号,,14,109,2230066,,,,,,,2023-01-13,1,,,,,,0
449,2020001149816,新規,0,2023-01-13,2023-01-13,エビス・アキ株式会社,,株式会社,神奈川県,横浜市中区,山手町４６番地４,,14,104,2310862,,,,,,,2023-01-13,1,,,,,エビスアキ,0
450,2020001149832,新規,0,2023-01-13,2023-01-13,株式会社ＺｉｉｉＲＡ,,株式会社,神奈川県,川崎市多摩区,登戸新町３９７番地,,14,135,2140013,,,,,,,2023-01-13,1,,,,,ジーラ,0
454,2020003023003,新規,0,2023-01-13,2023-01-13,Ｋｅｐｌｅｒ４合同会社,,合同会社,神奈川県,横浜市保土ケ谷区,和田２丁目１７番６号１１０２室,,14,106,2400065,,,,,,,2023-01-13,1,,,,,ケプラーフィア,0
455,2020003023060,新規,0,2023-01-13,2023-01-13,合同会社小太郎,,合同会社,神奈川県,横浜市西区,北幸２丁目１０番地２８むつみビル３Ｆ,,14,103,2200004,,,,,,,2023-01-13,1,,,,,コタロウ,0
456,2020003023069,新規,0,2023-01-13,2023-01-13,ＰＩＮＷＯＲＫＳ合同会社,,合同会社,神奈川県,横浜市中区,柏葉９７番地,,14,104,2310866,,,,,,,2023-01-13,1,,,,,ピンワークス,0
457,2020003023085,新規,0,2023-01-13,2023-01-13,ＲＥＣＳ合同会社,,合同会社,神奈川県,川崎市宮前区,鷺沼２丁目１３番１７号,,14,136,2160004,,,,,,,2023-01-13,1,,,,,レックス,0
458,2020003023110,新規,0,2023-01-13,2023-01-13,エグゼクティブパートナーズ合同会社,,合同会社,神奈川県,横浜市青葉区,新石川２丁目１４番地７グリーンヒルズたまプラーザ１０５,,14,117,2250003,,,,,,,2023-01-13,1,,,,,エグゼクティブパートナーズ,0
460,2020005015808,新規,0,2023-01-13,2023-01-13,特定非営利活動法人ゆきうさぎ,,その他の設立登記法人,神奈川県,横浜市泉区,新橋町９１１番地１,,14,116,2450009,,,,,,,2023-01-13,1,,,,,ユキウサギ,0
464,2021001077908,新規,0,2023-01-13,2023-01-13,株式会社吉田興業,,株式会社,神奈川県,足柄上郡開成町,吉田島３０２４番地６,,14,366,2580021,,,,,,,2023-01-13,1,,,,,ヨシダコウギョウ,0
465,2021001077916,新規,0,2023-01-13,2023-01-13,株式会社のぞみ,,株式会社,神奈川県,平塚市,徳延３３６番地の５,,14,203,2540902,,,,,,,2023-01-13,1,,,,,ノゾミ,0
466,2021001077924,新規,0,2023-01-13,2023-01-13,株式会社ぜネックス電子,,株式会社,神奈川県,相模原市南区,磯部１４５２番地７,,14,153,2520327,,,,,,,2023-01-13,1,,,,,ゼネックスデンシ,0
467,2021001077940,新規,0,2023-01-13,2023-01-13,株式会社ａｍｕｙａ,,株式会社,神奈川県,横須賀市,湘南鷹取６丁目１１番２３号,,14,201,2370066,,,,,,,2023-01-13,1,,,,,,0
470,2021003012598,新規,0,2023-01-13,2023-01-13,合同会社あさひ企画,,合同会社,神奈川県,相模原市中央区,矢部１丁目２番８号広田ビル７０１,,14,152,2520232,,,,,,,2023-01-13,1,,,,,アサヒキカク,0
471,2021005012712,新規,0,2023-01-13,2023-01-13,一般社団法人丸親会,,その他の設立登記法人,神奈川県,小田原市,城山１丁目３番２０号,,14,206,2500045,,,,,,,2023-01-13,1,,,,,マルシンカイ,0
476,2030001151754,新規,0,2023-01-13,2023-01-13,エフメディア株式会社,,株式会社,埼玉県,さいたま市北区,別所町２９番地７３,,11,102,3310821,,,,,,,2023-01-13,1,,,,,エフメディア,0
477,2030001151903,新規,0,2023-01-13,2023-01-13,てんとてん株式会社,,株式会社,埼玉県,さいたま市桜区,中島１丁目３２番２０号,,11,106,3380822,,,,,,,2023-01-13,1,,,,,テントテン,0
478,2030001151944,新規,0,2023-01-13,2023-01-13,株式会社ＮＯＭ,,株式会社,埼玉県,さいたま市見沼区,大字南中丸１２２番地１３,,11,104,3370041,,,,,,,2023-01-13,1,,,,,エヌオーエム,0
483,2030003020932,新規,0,2023-01-13,2023-01-13,ラソワ合同会社,,合同会社,埼玉県,さいたま市岩槻区,大字裏慈恩寺４２番地２４,,11,110,3390002,,,,,,,2023-01-13,1,,,,,ラソワ,0
484,2030003020949,新規,0,2023-01-13,2023-01-13,Ｔ＆Ｔ合同会社,,合同会社,埼玉県,さいたま市中央区,鈴谷５丁目１７番２号,,11,105,3380013,,,,,,,2023-01-13,1,,,,,ティーアンドティー,0
494,2040001126549,新規,0,2023-01-13,2023-01-13,株式会社ＬＩＶＥ　ＯＮ,,株式会社,千葉県,柏市,柏３丁目２番１８号マリエールビル１Ｆ－２,,12,217,2770005,,,,,,,2023-01-13,1,,,,,ライヴオン,0
496,2040003021673,新規,0,2023-01-13,2023-01-13,ＭＺＹプレーニング合同会社,,合同会社,千葉県,船橋市,本郷町５９８番地１パークホームズ西船橋本郷町５０４号,,12,204,2730033,,,,,,,2023-01-13,1,,,,,エムズィーワイプレーニング,0
497,2050001052208,新規,0,2023-01-13,2023-01-13,株式会社久松佑吉商店,,株式会社,茨城県,かすみがうら市,稲吉５丁目３番２０号,,08,230,3150054,,,,,,,2023-01-13,1,,,,,ヒサマツユウキチショウテン,0
498,2050001052224,新規,0,2023-01-13,2023-01-13,株式会社野内工業,,株式会社,茨城県,ひたちなか市,大字田彦４１９番地３,,08,221,3120063,,,,,,,2023-01-13,1,,,,,ノウチコウギョウ,0
499,2050005013189,新規,0,2023-01-13,2023-01-13,特定非営利活動法人Ｈａｐｐｙえがお,,その他の設立登記法人,茨城県,水戸市,東野町５１１番地の１,,08,201,3100846,,,,,,,2023-01-13,1,,,,,ハッピーエガオ,0
500,2060001035616,新規,0,2023-01-13,2023-01-13,株式会社野澤農産,,株式会社,栃木県,真岡市,上大曽３３４番地,,09,209,3214542,,,,,,,2023-01-13,1,,,,,ノザワノウサン,0
504,2070001039987,新規,0,2023-01-13,2023-01-13,株式会社Ｃｌｏｖｅｒ,,株式会社,群馬県,高崎市,下滝町５４３番地２,,10,202,3700026,,,,,,,2023-01-13,1,,,,,クローバー,0
521,2110005016887,新規,0,2023-01-13,2023-01-13,農事組合法人米道楽,,その他の設立登記法人,新潟県,阿賀野市,駒林１７５７番地,,15,223,9592101,,,,,,,2023-01-13,1,,,,,コメドウラク,0
539,2120001251636,新規,0,2023-01-13,2023-01-13,株式会社サインズプラン,,株式会社,大阪府,大阪市天王寺区,勝山３丁目１４番２２号,,27,109,5430043,,,,,,,2023-01-13,1,,,,,サインズプラン,0
540,2120001251652,新規,0,2023-01-13,2023-01-13,株式会社ｓａｗａｎ,,株式会社,大阪府,大阪市中央区,北浜１丁目３－１,,27,128,5410041,,,,,,,2023-01-13,1,,,,,サワン,0
541,2120001251685,新規,0,2023-01-13,2023-01-13,株式会社松本装建,,株式会社,大阪府,大阪市鶴見区,安田１丁目１番４－９０８号,,27,124,5380032,,,,,,,2023-01-13,1,,,,,マツモトソウケン,0
542,2120001251693,新規,0,2023-01-13,2023-01-13,ＣＡＬＬＡ　ＬｉＬＹ株式会社,,株式会社,大阪府,大阪市天王寺区,四天王寺１丁目２番９号,,27,109,5430051,,,,,,,2023-01-13,1,,,,,カラーリリー,0
543,2120001251710,新規,0,2023-01-13,2023-01-13,株式会社アルゴプレストロープアクセストレーニングジム,,株式会社,大阪府,寝屋川市,黒原新町４番８号,,27,215,5720059,,,,,,,2023-01-13,1,,,,,アルゴプレストロープアクセストレーニングジム,0
544,2120001251719,新規,0,2023-01-13,2023-01-13,株式会社Ｌａｐｉｎ‐Ｌａｐｉｎ,,株式会社,大阪府,大阪市北区,天満１丁目８番１３号,,27,127,5300043,,,,,,,2023-01-13,1,,,,,ラパンラパン,0
545,2120001251743,新規,0,2023-01-13,2023-01-13,株式会社ＥＩＤＡＩ,,株式会社,大阪府,大阪市中央区,城見１丁目３番７号ＩＭＰビル,,27,128,5400001,,,,,,,2023-01-13,1,,,,,エイダイ,0
546,2120001251768,新規,0,2023-01-13,2023-01-13,株式会社ＯＲＡＮＧＥ‐ＴＫＯ,,株式会社,大阪府,大阪市北区,堂島２丁目１番２５－８０８号室,,27,127,5300003,,,,,,,2023-01-13,1,,,,,オレンジトキオ,0
547,2120003023224,新規,0,2023-01-13,2023-01-13,合同会社ＦＪＭＴ,,合同会社,大阪府,大阪市北区,梅田１丁目２番２号大阪駅前第２ビル１２－１２,,27,127,5300001,,,,,,,2023-01-13,1,,,,,フジモト,0
548,2120003023232,新規,0,2023-01-13,2023-01-13,ＰＲＯＣＥＥＤ合同会社,,合同会社,大阪府,大阪市北区,梅田１丁目２番２号大阪駅前第２ビル１２－１２,,27,127,5300001,,,,,,,2023-01-13,1,,,,,プロシード,0
549,2120003023240,新規,0,2023-01-13,2023-01-13,合同会社大河,,合同会社,大阪府,大阪市都島区,東野田町５丁目１１番２４号コンフォール京橋２０１号,,27,102,5340024,,,,,,,2023-01-13,1,,,,,タイガ,0
550,2120005023395,新規,0,2023-01-13,2023-01-13,税理士法人近藤会計パートナーズ,,その他の設立登記法人,大阪府,大阪市中央区,瓦町４丁目６番１５号瓦町浪速ビル１０１,,27,128,5410048,,,,,,,2023-01-13,1,,,,,コンドウカイケイパートナーズ,0
553,2120101066835,新規,0,2023-01-13,2023-01-13,株式会社ドネックス,,株式会社,大阪府,藤井寺市,岡１丁目５番３５号,,27,226,5830027,,,,,,,2023-01-13,1,,,,,ドネックス,0
565,2120903004455,新規,0,2023-01-13,2023-01-13,合同会社Ｃｏｎｖｉｃｔｉｏｎ,,合同会社,大阪府,摂津市,別府１丁目７番５号,,27,224,5660046,,,,,,,2023-01-13,1,,,,,コンビクション,0
569,2130001073468,新規,0,2023-01-13,2023-01-13,株式会社Ａｒｃｈｉｎｅｍａ,,株式会社,京都府,京都市中京区,先斗町通四条上る柏屋町１６８番地２,,26,104,6048014,,,,,,,2023-01-13,1,,,,,アーキネマ,0
570,2130003008439,新規,0,2023-01-13,2023-01-13,ＱｅＦａｒｅ合同会社,,合同会社,京都府,京都市中京区,西大文字町６１３番地,,26,104,6048054,,,,,,,2023-01-13,1,,,,,ケハレ,0
575,2140001128691,新規,0,2023-01-13,2023-01-13,株式会社グレース,,株式会社,兵庫県,伊丹市,荻野５丁目７２番地,,28,207,6640002,,,,,,,2023-01-13,1,,,,,グレース,0
576,2140001128741,新規,0,2023-01-13,2023-01-13,株式会社スマ商事,,株式会社,兵庫県,神戸市須磨区,関守町２丁目２番３９号,,28,107,6540073,,,,,,,2023-01-13,1,,,,,スマショウジ,0
578,2140003018560,新規,0,2023-01-13,2023-01-13,合同会社ハレルヤ,,合同会社,兵庫県,姫路市,石倉５３９番地１,,28,201,6712231,,,,,,,2023-01-13,1,,,,,ハレルヤ,0
579,2140003018569,新規,0,2023-01-13,2023-01-13,クオーレ・フォルテ合同会社,,合同会社,兵庫県,神戸市灘区,岩屋北町４丁目３番５５－５０４号,,28,102,6570846,,,,,,,2023-01-13,1,,,,,クオーレフォルテ,0
580,2140003018585,新規,0,2023-01-13,2023-01-13,合同会社ＰＨＳＪ,,合同会社,兵庫県,神戸市東灘区,森北町６丁目３番４号,,28,101,6580001,,,,,,,2023-01-13,1,,,,,ピーエイチエスジェイ,0
584,2140005026454,新規,0,2023-01-13,2023-01-13,医療法人社団仁卓会,,その他の設立登記法人,兵庫県,加古川市,平岡町新在家１５７３－１,,28,210,6750101,,,,,,,2023-01-13,1,,,,,ジンタクカイ,0
588,2150001026085,新規,0,2023-01-13,2023-01-13,株式会社ＲＯＹ,,株式会社,奈良県,奈良市,中山町西３丁目５３５番地の１０４,,29,201,6310013,,,,,,,2023-01-13,1,,,,,ロイ,0
589,2150001026093,新規,0,2023-01-13,2023-01-13,株式会社ＹＵＩ,,株式会社,奈良県,橿原市,中曽司町２２８番地の３８,,29,205,6340845,,,,,,,2023-01-13,1,,,,,ユイ,0
590,2150003002860,新規,0,2023-01-13,2023-01-13,合同会社サニープレイス,,合同会社,奈良県,生駒郡斑鳩町,興留８丁目８番６号,,29,344,6360123,,,,,,,2023-01-13,1,,,,,サニーブレイス,0
593,2160003002777,新規,0,2023-01-13,2023-01-13,合同会社回天,,合同会社,滋賀県,大津市,長等１丁目２番４３号,,25,201,5200046,,,,,,,2023-01-13,1,,,,,カイテン,0
598,2180001154494,新規,0,2023-01-13,2023-01-13,株式会社ゼロワン,,株式会社,愛知県,名古屋市中区,錦３丁目２２番２４号ＡＴＳ広小路ビル５２６号室,,23,106,4600003,,,,,,,2023-01-13,1,,,,,ゼロワン,0
599,2180001154503,新規,0,2023-01-13,2023-01-13,株式会社ジーテンシャ,,株式会社,愛知県,東海市,元浜町１２番地の１７,,23,222,4770035,,,,,,,2023-01-13,1,,,,,ジーテンシャ,0
600,2180001154511,新規,0,2023-01-13,2023-01-13,株式会社Ｙ．Ｏ．Ｓ．,,株式会社,愛知県,清須市,寺野美鈴１番地,,23,233,4520908,,,,,,,2023-01-13,1,,,,,ワイオーエス,0
601,2180001154536,新規,0,2023-01-13,2023-01-13,株式会社ＤＳＭ,,株式会社,愛知県,知多郡南知多町,大字豊浜字鳥居１０２番地,,23,445,4703412,,,,,,,2023-01-13,1,,,,,ディーエスエム,0
603,2180003024712,新規,0,2023-01-13,2023-01-13,合同会社ＪＰＵＳ,,合同会社,愛知県,あま市,篠田南長無２６番地１ロイヤルマンション美和６０２,,23,237,4901211,,,,,,,2023-01-13,1,,,,,ジェイパス,0
604,2180003024720,新規,0,2023-01-13,2023-01-13,スリーリングス合同会社,,合同会社,愛知県,丹羽郡扶桑町,大字柏森字平塚５３番地３,,23,362,4800103,,,,,,,2023-01-13,1,,,,,スリーリングス,0
606,2180301036970,新規,0,2023-01-13,2023-01-13,株式会社Ｓｉｄｅ　ｏｎｅ,,株式会社,愛知県,豊田市,梅坪町１丁目６番地１０,,23,211,4710064,,,,,,,2023-01-13,1,,,,,サイドワン,0
619,2210001019207,新規,0,2023-01-13,2023-01-13,株式会社Ｓ．Ｉ．Ｃ．Ｋ,,株式会社,福井県,敦賀市,野神４０号２３６番地コーポ・スエルテ１０１,,18,202,9140121,,,,,,,2023-01-13,1,,,,,シック,0
621,2230001019675,新規,0,2023-01-13,2023-01-13,株式会社福原産業,,株式会社,富山県,中新川郡立山町,鉾木２０２番地３,,16,323,9300276,,,,,,,2023-01-13,1,,,,,フクハラサンギョウ,0
624,2230005009276,新規,0,2023-01-13,2023-01-13,特定非営利活動法人山田地域農業振興会,,その他の設立登記法人,富山県,富山市,山田中瀬４３０９番地１,,16,201,9302101,,,,,,,2023-01-13,1,,,,,ヤマダチイキノウギョウシンコウカイ,0
627,2240001060959,新規,0,2023-01-13,2023-01-13,エヌテック株式会社,,株式会社,広島県,尾道市,栗原町３７５５番地,,34,205,7220022,,,,,,,2023-01-13,1,,,,,エヌテック,0
633,2250001019913,新規,0,2023-01-13,2023-01-13,株式会社Ｅｓｐｅｃｉａｌ,,株式会社,山口県,下関市,安岡本町１丁目７番２１号,,35,201,7596611,,,,,,,2023-01-13,1,,,,,エスペシアル,0
634,2250001019921,新規,0,2023-01-13,2023-01-13,株式会社松本工業,,株式会社,山口県,山口市,黒川１０４５番地,,35,203,7530851,,,,,,,2023-01-13,1,,,,,マツモトコウギョウ,0
643,2290001100157,新規,0,2023-01-13,2023-01-13,株式会社橋本自動車,,株式会社,福岡県,柳川市,筑紫町４１２番地１,,40,207,8320077,,,,,,,2023-01-13,1,,,,,ハシモトジドウシャ,0
644,2290001100207,新規,0,2023-01-13,2023-01-13,ＥＧアセットマネジメント株式会社,,株式会社,福岡県,福岡市中央区,天神２丁目３番１０号天神パインクレスト７１９号,,40,133,8100001,,,,,,,2023-01-13,1,,,,,イージーアセットマネジメント,0
650,2310001018223,新規,0,2023-01-13,2023-01-13,株式会社Ｌａｎａｉｉ,,株式会社,長崎県,長崎市,万屋町１番８号,,42,201,8500852,,,,,,,2023-01-13,1,,,,,ラナイ,0
652,2320001019518,新規,0,2023-01-13,2023-01-13,株式会社メタケア,,株式会社,大分県,宇佐市,安心院町木裳２３７－２,,44,211,8720507,,,,,,,2023-01-13,1,,,,,メタケア,0
653,2330001030498,新規,0,2023-01-13,2023-01-13,株式会社誉工業,,株式会社,熊本県,玉名市,岱明町上１７２番地２,,43,206,8690232,,,,,,,2023-01-13,1,,,,,ホマレコウギョウ,0
659,2360003012624,新規,0,2023-01-13,2023-01-13,コローレ沖縄合同会社,,合同会社,沖縄県,浦添市,西原５丁目３６－１２,,47,208,9012101,,,,,,,2023-01-13,1,,,,,コローレオキナワ,0
663,2370001049452,新規,0,2023-01-13,2023-01-13,株式会社睦麒,,株式会社,宮城県,黒川郡大和町,落合松坂字佐野２５番地の１,,04,421,9813407,,,,,,,2023-01-13,1,,,,,ムツキ,0
667,2380001033397,新規,0,2023-01-13,2023-01-13,株式会社深谷総建,,株式会社,福島県,白河市,昭和町２７４番地,,07,205,9610971,,,,,,,2023-01-13,1,,,,,フカヤソウケン,0
668,2390001017135,新規,0,2023-01-13,2023-01-13,株式会社にしむら青果店,,株式会社,山形県,酒田市,中町１丁目８番４号,,06,204,9980044,,,,,,,2023-01-13,1,,,,,ニシムラセイカテン,0
673,2390005008989,新規,0,2023-01-13,2023-01-13,一般社団法人日本ムエタイ連盟．,,その他の設立登記法人,山形県,山形市,北山形１丁目２番１９号,,06,201,9900822,,,,,,,2023-01-13,1,,,,,ニホンムエタイレンメイ,0
681,2700150028710,新規,0,2023-01-13,2015-10-09,明石市学校給食協力組合,,その他,兵庫県,明石市,藤江２０２９－１明石市公設卸売市場Ｂ－９,,28,203,6730044,,,,,,,2015-10-09,1,,,,,アカシシガツコウキユウシヨクキヨウリヨククミアイ,0
682,2700150111920,新規,0,2023-01-13,2022-09-28,Ｅｎｓｅｍｂｌｅ紫音～Ｓｈｉｏｎ～,,その他,東京都,練馬区,平和台３丁目２－７ブランズ平和台２０５,,13,120,1790083,,,,,,,2022-09-28,1,,,,,アンサンブルシオン,0
683,2700150112506,新規,0,2023-01-13,2023-01-13,ＡＳＵＳＴＯＲ　ＩＮＣ．,,外国会社等,,,,,,,,３Ｆ　Ｎｏ．，１３６，Ｄａｙｅ　Ｒｄ．，Ｂｅｉｔｏｕ　Ｄｉｓｔ．，Ｔａｉｐｅｉ　１１２６８，Ｔａｉｗａｎ,,,,,,2023-01-13,1,,,,,アスシトアールインク,0
685,2700150113710,新規,0,2023-01-13,2023-01-13,Ｓｈｅｎｚｈｅｎ　Ｚｈｕｏｓｈｕｏ　ｔｅｃｈｎｏｌｏｇｙ　ｓｅｒｖｉｃｅ　ｃｏ．ｌｔｄ,,外国会社等,,,,,,,,６Ａ－５５５，Ｔｅｃｈｎｏｌｏｇｙ　Ｂｕｉｌｄｉｎｇ，ｈａｉｊｉｎｇｅｒｌｕ，ｐｅｎｇｗａｎｓｈｅｑｕ，ｈａｉｓｈａｎｊｉｅｄａｏ，ｙａｎｔｉａｎ，Ｓｈｅｎｚｈｅｎ，Ｇｕａｎｇｄｏｎｇ，ｃｈｉｎａ,,,,,,2023-01-13,1,,,,,シンセンシタクシャクケイジフムウユウシィアンゴンスー,0
686,2700150113719,新規,0,2023-01-13,2023-01-13,ＧＥＬＩＯＹＡ　ＭＯＴＯＲＳ,,外国会社等,神奈川県,綾瀬市,深谷上５丁目１９－２第一杉本ハイツＡ－３,,14,218,2521108,スリランカ民主社会主義共和国、キャンディ、ゲリオヤ、グルディニヤ、ガンポラロードＮｏ．１７２号,,,,,,2023-01-13,1,,,,,ゲリオーヤモータース,0
701,3010001231945,新規,0,2023-01-13,2023-01-13,ピース株式会社,,株式会社,東京都,中央区,日本橋室町１丁目９番４号Ｂ１Ｆ,,13,102,1030022,,,,,,,2023-01-13,1,,,,,ピース,0
702,3010001232076,新規,0,2023-01-13,2023-01-13,株式会社ＣＴＩアセンド,,株式会社,東京都,中央区,日本橋浜町３丁目２１番１号,,13,102,1030007,,,,,,,2023-01-13,1,,,,,シーティーアイアセンド,0
703,3010001232092,新規,0,2023-01-13,2023-01-13,セントケア・Ｒｅｐｌｕｓ株式会社,,株式会社,東京都,中央区,京橋２丁目８番７号,,13,102,1040031,,,,,,,2023-01-13,1,,,,,セントケアリプラス,0
704,3010001232101,新規,0,2023-01-13,2023-01-13,脱炭素推進機構株式会社,,株式会社,東京都,千代田区,外神田２丁目１－４,,13,101,1010021,,,,,,,2023-01-13,1,,,,,ダツタンソスイシンキコウ,0
705,3010001232126,新規,0,2023-01-13,2023-01-13,株式会社ＭＡＬＩＥ,,株式会社,東京都,中央区,銀座７丁目６番７号日欧ビル５階,,13,102,1040061,,,,,,,2023-01-13,1,,,,,マリエ,0
712,3010003039503,新規,0,2023-01-13,2023-01-13,合同会社ＭＹ　ＨＥＡＤ,,合同会社,東京都,中央区,銀座３丁目１１番３号,,13,102,1040061,,,,,,,2023-01-13,1,,,,,マイヘッド,0
713,3010003039511,新規,0,2023-01-13,2023-01-13,合同会社Ｚａｎｓｈｉｎ,,合同会社,東京都,中央区,勝どき１丁目１番１―６３８号,,13,102,1040054,,,,,,,2023-01-13,1,,,,,ザンシン,0
714,3010003039528,新規,0,2023-01-13,2023-01-13,合同会社ガイア,,合同会社,東京都,中央区,銀座１丁目２２番１１号銀座大竹ビジデンス２Ｆ,,13,102,1040061,,,,,,,2023-01-13,1,,,,,ガイア,0
715,3010003039536,新規,0,2023-01-13,2023-01-13,合同会社ミライエール,,合同会社,東京都,中央区,銀座１丁目２２番１１号銀座大竹ビジデンス２Ｆ,,13,102,1040061,,,,,,,2023-01-13,1,,,,,ミライエール,0
716,3010003039544,新規,0,2023-01-13,2023-01-13,Ｇ２Ｇ　Ｊａｐａｎ合同会社,,合同会社,東京都,千代田区,紀尾井町３番１０号紀尾井町ガーデンタワー２５０４号（Ｃ／Ｏｓｈｉｍａｄａ－ｏｆｆｉｃｅ）,,13,101,1020094,,,,,,,2023-01-13,1,,,,,ジーツージージャパン,0
717,3010101015488,新規,0,2023-01-13,2023-01-13,シオン管理株式会社,,株式会社,東京都,八王子市,本町２番６号,,13,201,1920066,,,,,,,2023-01-13,1,,,,,シオンカンリ,0
733,3010401171741,新規,0,2023-01-13,2023-01-13,株式会社９,,株式会社,東京都,港区,南青山２丁目２－１５,,13,103,1070062,,,,,,,2023-01-13,1,,,,,ナイン,0
734,3010401171766,新規,0,2023-01-13,2023-01-13,Ｓ　Ｈｏｌｄｉｎｇｓ株式会社,,株式会社,東京都,港区,虎ノ門４丁目１番２０－２００４号,,13,103,1050001,,,,,,,2023-01-13,1,,,,,エスホールディングス,0
735,3010401171790,新規,0,2023-01-13,2023-01-13,株式会社ダズル,,株式会社,東京都,港区,浜松町２丁目２番１５号浜松町ダイヤビル２Ｆ,,13,103,1050013,,,,,,,2023-01-13,1,,,,,ダズル,0
736,3010401171881,新規,0,2023-01-13,2023-01-13,ラスティングマネジメント株式会社,,株式会社,東京都,港区,虎ノ門４丁目３番２０号神谷町ＭＴビル１４階,,13,103,1050001,,,,,,,2023-01-13,1,,,,,ラスティングマネジメント,0
742,3010405021694,新規,0,2023-01-13,2023-01-13,一般社団法人大中恩プロジェクト,,その他の設立登記法人,東京都,港区,赤坂８丁目５番２８－１３０６号,,13,103,1070052,,,,,,,2023-01-13,1,,,,,オオナカメグミプロジェクト,0
743,3010405021703,新規,0,2023-01-13,2023-01-13,一般社団法人ホームドクターズ,,その他の設立登記法人,東京都,港区,虎ノ門３丁目２２－７東武ハイライン第二芝虎ノ門３０２,,13,103,1050001,,,,,,,2023-01-13,1,,,,,ホームドクターズ,0
744,3010405021728,新規,0,2023-01-13,2023-01-13,一般社団法人国際小顔矯正骨気協会,,その他の設立登記法人,東京都,港区,南青山５丁目９番１２号,,13,103,1070062,,,,,,,2023-01-13,1,,,,,コクサイコガオキョウセイコルギキョウカイ,0
745,3010501049862,新規,0,2023-01-13,2023-01-13,株式会社ＴＹキャピタル,,株式会社,東京都,台東区,東上野２丁目２番１号品田ビル３階,,13,106,1100015,,,,,,,2023-01-13,1,,,,,ティーワイキャピタル,0
747,3010601062419,新規,0,2023-01-13,2023-01-13,エスジー建設株式会社,,株式会社,東京都,江東区,森下３丁目５番９号,,13,108,1350004,,,,,,,2023-01-13,1,,,,,エスジーケンセツ,0
749,3010603009938,新規,0,2023-01-13,2023-01-13,合同会社ｍａｓｈ,,合同会社,東京都,墨田区,菊川２丁目１８番７－６０６号,,13,107,1300024,,,,,,,2023-01-13,1,,,,,マッシュ,0
752,3010701043715,新規,0,2023-01-13,2023-01-13,株式会社山王,,株式会社,東京都,品川区,東大井３丁目２８番８号,,13,109,1400011,,,,,,,2023-01-13,1,,,,,サンノウ,0
754,3010801033582,新規,0,2023-01-13,2023-01-13,株式会社凛,,株式会社,東京都,大田区,北嶺町３４番６号中央ビル２０６,,13,111,1450073,,,,,,,2023-01-13,1,,,,,リン,0
755,3010901052301,新規,0,2023-01-13,2023-01-13,株式会社ＲＫ,,株式会社,東京都,世田谷区,祖師谷３丁目２３番１４号,,13,112,1570072,,,,,,,2023-01-13,1,,,,,アールケー,0
756,3010901052318,新規,0,2023-01-13,2023-01-13,株式会社Ｍ＆Ａ　Ｅｎａｂｌｅｒ,,株式会社,東京都,世田谷区,弦巻２丁目５番１１号プレジールヴァン１０２,,13,112,1540016,,,,,,,2023-01-13,1,,,,,エムアンドエーイネーブラー,0
757,3010901052326,新規,0,2023-01-13,2023-01-13,株式会社Ｐｈｉｌ,,株式会社,東京都,世田谷区,代沢４丁目２８番１３号,,13,112,1550032,,,,,,,2023-01-13,1,,,,,フィル,0
759,3010903007897,新規,0,2023-01-13,2023-01-13,合同会社リンクフード,,合同会社,東京都,世田谷区,池尻２丁目１５番８号プラザ池尻１０２号,,13,112,1540001,,,,,,,2023-01-13,1,,,,,リンクフード,0
760,3010903007906,新規,0,2023-01-13,2023-01-13,合同会社コープコム,,合同会社,東京都,世田谷区,成城６丁目１４番２３号,,13,112,1570066,,,,,,,2023-01-13,1,,,,,コープコム,0
764,3011001151927,新規,0,2023-01-13,2023-01-13,株式会社ｙａｍａｉｃｈｉ,,株式会社,東京都,渋谷区,代々木５丁目４５番４号,,13,113,1510053,,,,,,,2023-01-13,1,,,,,ヤマイチ,0
766,3011003016087,新規,0,2023-01-13,2023-01-13,合同会社アサダアツ社,,合同会社,東京都,渋谷区,代々木５丁目５９番７－５０５号プレシス代々木公園,,13,113,1510053,,,,,,,2023-01-13,1,,,,,アサダアツシャ,0
776,3011101101435,新規,0,2023-01-13,2023-01-13,株式会社ツユ,,株式会社,東京都,新宿区,西新宿６丁目１０番１号日土地西新宿ビル８階,,13,104,1600023,,,,,,,2023-01-13,1,,,,,ツユ,0
777,3011101101451,新規,0,2023-01-13,2023-01-13,株式会社ＥＮＶＴ,,株式会社,東京都,新宿区,大京町３番地,,13,104,1600015,,,,,,,2023-01-13,1,,,,,イーエヌブイティー,0
778,3011101101468,新規,0,2023-01-13,2023-01-13,株式会社トルテオプランニング,,株式会社,東京都,新宿区,新宿６丁目２－４－１２６,,13,104,1600022,,,,,,,2023-01-13,1,,,,,トルテオプランニング,0
780,3011103012589,新規,0,2023-01-13,2023-01-13,合同会社フラワーバトン,,合同会社,東京都,新宿区,高田馬場３丁目２４－３,,13,104,1690075,,,,,,,2023-01-13,1,,,,,フラワーバトン,0
781,3011105010517,新規,0,2023-01-13,2023-01-13,弁理士法人葛和国際特許事務所,,その他の設立登記法人,東京都,新宿区,西新宿６丁目２４番１号西新宿三井ビルディング１７階,,13,104,1600023,,,,,,,2023-01-13,1,,,,,クズワコクサイトッキョジムショ,0
784,3011203003983,新規,0,2023-01-13,2023-01-13,合同会社関飯店,,合同会社,東京都,中野区,中野５丁目６２番９号,,13,114,1640001,,,,,,,2023-01-13,1,,,,,セキハンテン,0
792,3011701025918,新規,0,2023-01-13,2023-01-13,株式会社黒川設備工業,,株式会社,東京都,江戸川区,南葛西４丁目１２番５－７０５号サンライフレジデンス,,13,123,1340085,,,,,,,2023-01-13,1,,,,,クロカワセツビコウギョウ,0
793,3011801041773,新規,0,2023-01-13,2023-01-13,パーパスデザイン＆ライフ株式会社,,株式会社,東京都,足立区,東和４丁目３番８－４０１号,,13,121,1200003,,,,,,,2023-01-13,1,,,,,パーパスデザインアンドライフ,0
796,3012401040075,新規,0,2023-01-13,2023-01-13,株式会社Ｓ・Ｋ・Ｙ,,株式会社,東京都,三鷹市,上連雀７丁目１番１６号,,13,204,1810012,,,,,,,2023-01-13,1,,,,,エスケーワイ,0
799,3012801022078,新規,0,2023-01-13,2023-01-13,株式会社Ｆｉｖｅ　ｄｏｏｒｓ,,株式会社,東京都,国分寺市,光町１丁目４５番地１２号富国コテト１階東南店舗,,13,214,1850034,,,,,,,2023-01-13,1,,,,,ファイブドアーズ,0
806,3013301050156,新規,0,2023-01-13,2023-01-13,株式会社ｂｏｏｍ　ｎｏｗ,,株式会社,東京都,豊島区,南池袋３丁目１５番１１号ナイスフォーラム南池袋３階,,13,116,1710022,,,,,,,2023-01-13,1,,,,,ブームナウ,0
807,3013301050172,新規,0,2023-01-13,2023-01-13,株式会社パステル出版,,株式会社,東京都,豊島区,東池袋３丁目１番１号サンシャイン６０－４５階,,13,116,1700013,,,,,,,2023-01-13,1,,,,,パステルシュッパン,0
808,3013301050180,新規,0,2023-01-13,2023-01-13,株式会社ＧＡＴＥ,,株式会社,東京都,豊島区,西池袋４丁目１５番１号西池袋グリーンハイツ２１１号,,13,116,1710021,,,,,,,2023-01-13,1,,,,,ゲート,0
812,3020001149781,新規,0,2023-01-13,2023-01-13,株式会社Ｌａｐｉｎ,,株式会社,神奈川県,川崎市麻生区,上麻生３丁目２番１－２１６号,,14,137,2150021,,,,,,,2023-01-13,1,,,,,ラパン,0
813,3020001149798,新規,0,2023-01-13,2023-01-13,株式会社Ｓ．Ｙ．Ｃ,,株式会社,神奈川県,川崎市中原区,木月４丁目４８番５号,,14,133,2110025,,,,,,,2023-01-13,1,,,,,エスワイシー,0
814,3020001149807,新規,0,2023-01-13,2023-01-13,株式会社コネクドット,,株式会社,神奈川県,川崎市中原区,今井仲町１１番８－２０８号,,14,133,2110065,,,,,,,2023-01-13,1,,,,,コネクドット,0
815,3020001149831,新規,0,2023-01-13,2023-01-13,ａｌｉｖｅｌａｎｄ株式会社,,株式会社,神奈川県,横浜市港北区,綱島東１丁目２番１６号,,14,109,2230052,,,,,,,2023-01-13,1,,,,,アライブランド,0
820,3020003023068,新規,0,2023-01-13,2023-01-13,合同会社くむすけ,,合同会社,神奈川県,川崎市幸区,南幸町３丁目３７番地１ＢＥＬＩＮＤＡ３０５,,14,132,2120016,,,,,,,2023-01-13,1,,,,,クムスケ,0
821,3020003023076,新規,0,2023-01-13,2023-01-13,合同会社Ｃｏｍｙｕ,,合同会社,神奈川県,川崎市麻生区,上麻生７丁目２３－１－７０８,,14,137,2150021,,,,,,,2023-01-13,1,,,,,コミュ,0
822,3020003023084,新規,0,2023-01-13,2023-01-13,合同会社みはぎや,,合同会社,神奈川県,横浜市青葉区,梅が丘３６番地７７,,14,117,2270052,,,,,,,2023-01-13,1,,,,,ミハギヤ,0
823,3020003023101,新規,0,2023-01-13,2023-01-13,弘勝商事合同会社,,合同会社,神奈川県,横浜市南区,中村町４丁目２７８番地２４－１Ｆ,,14,105,2320033,,,,,,,2023-01-13,1,,,,,ヒロカツショウジ,0
824,3020005015807,新規,0,2023-01-13,2023-01-13,社会保険労務士法人Ｌｉｇｈｔｈｏｕｓｅ,,その他の設立登記法人,神奈川県,横浜市中区,山下町１６１番地１０マリーゴールド元町５０３,,14,104,2310023,,,,,,,2023-01-13,1,,,,,,0
828,3021001077915,新規,0,2023-01-13,2023-01-13,ＴＯＲＩインダストリー株式会社,,株式会社,神奈川県,厚木市,温水１９８３番地２０,,14,212,2430033,,,,,,,2023-01-13,1,,,,,,0
829,3021001077931,新規,0,2023-01-13,2023-01-13,株式会社ＳｏｃｉｕＳ,,株式会社,神奈川県,海老名市,杉久保南１丁目２８番５－１号,,14,215,2430427,,,,,,,2023-01-13,1,,,,,ソキウス,0
830,3021003012597,新規,0,2023-01-13,2023-01-13,合同会社オンザトロット,,合同会社,神奈川県,秦野市,栄町９番２５号,,14,211,2570043,,,,,,,2023-01-13,1,,,,,オンザトロット,0
841,3030001151919,新規,0,2023-01-13,2023-01-13,株式会社ソリッドライン,,株式会社,埼玉県,さいたま市岩槻区,大字加倉１９３番地１,,11,110,3390056,,,,,,,2023-01-13,1,,,,,ソリッドライン,0
845,3030003020948,新規,0,2023-01-13,2023-01-13,合同会社輝未来援,,合同会社,埼玉県,さいたま市桜区,桜田１丁目２４番１６号,,11,106,3380833,,,,,,,2023-01-13,1,,,,,キミライエン,0
846,3030003020956,新規,0,2023-01-13,2023-01-13,合同会社ＩＴＯ,,合同会社,埼玉県,さいたま市大宮区,仲町１丁目２６番地小嶋ビル１階,,11,103,3300845,,,,,,,2023-01-13,1,,,,,アイティオー,0
853,3040001126572,新規,0,2023-01-13,2023-01-13,株式会社ＤＯＴＯＭＯ,,株式会社,千葉県,松戸市,二十世紀が丘美野里町１０番地の２,,12,207,2710081,,,,,,,2023-01-13,1,,,,,ドトモ,0
854,3040001126580,新規,0,2023-01-13,2023-01-13,株式会社ピカルディ,,株式会社,千葉県,市川市,千鳥町５番地２,,12,203,2720126,,,,,,,2023-01-13,1,,,,,ピカルディ,0
855,3040001126614,新規,0,2023-01-13,2023-01-13,株式会社ショウカ,,株式会社,千葉県,市原市,松ケ島３３番地２４,,12,219,2900035,,,,,,,2023-01-13,1,,,,,ショウカ,0
856,3040001126622,新規,0,2023-01-13,2023-01-13,株式会社アクシアコンサルティング,,株式会社,千葉県,千葉市美浜区,中瀬１丁目３番地幕張テクノガーデン,,12,106,2610023,,,,,,,2023-01-13,1,,,,,アクシアコンサルティング,0
861,3040003021656,新規,0,2023-01-13,2023-01-13,野ノ合同会社,,合同会社,千葉県,習志野市,秋津５丁目７番３号,,12,216,2750025,,,,,,,2023-01-13,1,,,,,ノノ,0
864,3050001052198,新規,0,2023-01-13,2023-01-13,株式会社松英,,株式会社,茨城県,稲敷郡美浦村,大字木原３７９番地１,,08,442,3000421,,,,,,,2023-01-13,1,,,,,ショウエイ,0
865,3050003007142,新規,0,2023-01-13,2023-01-13,合同会社ミヤマエ,,合同会社,茨城県,東茨城郡大洗町,大貫町９５１２番地の１６,,08,309,3111311,,,,,,,2023-01-13,1,,,,,ミヤマエ,0
869,3060001035607,新規,0,2023-01-13,2023-01-13,株式会社前処理塗装店,,株式会社,栃木県,佐野市,並木町２８１,,09,204,3270002,,,,,,,2023-01-13,1,,,,,マエショリトソウテン,0
874,3070001040003,新規,0,2023-01-13,2023-01-13,河内機料株式会社,,株式会社,群馬県,桐生市,相生町３丁目１７２番地の８,,10,203,3760011,,,,,,,2023-01-13,1,,,,,カワチキリョウ,0
877,3080101023740,新規,0,2023-01-13,2023-01-13,株式会社進武,,株式会社,静岡県,御殿場市,北久原５９９番地の６,,22,215,4120004,,,,,,,2023-01-13,1,,,,,シンブ,0
880,3090001017932,新規,0,2023-01-13,2023-01-13,株式会社Ｆｕｊｉ　Ｏｒｅ　Ｇｒａｃｅ,,株式会社,山梨県,南都留郡山中湖村,山中２２４,,19,425,4010501,,,,,,,2023-01-13,1,,,,,フジオレグレース,0
882,3100001036047,新規,0,2023-01-13,2023-01-13,株式会社ＦＡＣＴＥ,,株式会社,長野県,長野市,松代町西条３８７７番地８,,20,201,3811232,,,,,,,2023-01-13,1,,,,,ファクト,0
885,3100003006840,新規,0,2023-01-13,2023-01-13,合同会社花水木,,合同会社,長野県,佐久市,内山２８４７番地２,,20,217,3850031,,,,,,,2023-01-13,1,,,,,ハナミズキ,0
886,3100005012960,新規,0,2023-01-13,2023-01-13,社会保険労務士法人ファルコンズアイ,,その他の設立登記法人,長野県,諏訪市,大字四賀７１０１番地４,,20,206,3920012,,,,,,,2023-01-13,1,,,,,ファルコンズアイ,0
900,3120001251610,新規,0,2023-01-13,2023-01-13,株式会社タリアテック,,株式会社,大阪府,枚方市,楠葉花園町５番６－３１０号,,27,210,5731121,,,,,,,2023-01-13,1,,,,,タリアテック,0
901,3120001251643,新規,0,2023-01-13,2023-01-13,ＮＯＢＯＲＤＥＲＳ株式会社,,株式会社,大阪府,大阪市福島区,福島７丁目１７－９大包ビル２階ＧＲＡＮＤＳＬＡＭ,,27,103,5530003,,,,,,,2023-01-13,1,,,,,ノーボーダーズ,0
902,3120001251684,新規,0,2023-01-13,2023-01-13,株式会社ブルーオーシャン,,株式会社,大阪府,大阪市浪速区,日本橋西２丁目５番１１号,,27,111,5560004,,,,,,,2023-01-13,1,,,,,ブルーオーシャン,0
903,3120001251692,新規,0,2023-01-13,2023-01-13,株式会社ＦＡＶＯＮ,,株式会社,大阪府,大阪市中央区,南船場４丁目１０－１８－８０２,,27,128,5420081,,,,,,,2023-01-13,1,,,,,ファボン,0
904,3120001251701,新規,0,2023-01-13,2023-01-13,株式会社リープアシスト,,株式会社,大阪府,枚方市,田口山２丁目２２番地１－１０３,,27,210,5730001,,,,,,,2023-01-13,1,,,,,リープアシスト,0
905,3120001251742,新規,0,2023-01-13,2023-01-13,松飛商事株式会社,,株式会社,大阪府,大阪市住吉区,長居東４丁目１５番２０号第二紀和マンション１０３室,,27,120,5580004,,,,,,,2023-01-13,1,,,,,ショウヒショウジ,0
906,3120001251775,新規,0,2023-01-13,2023-01-13,キングスリー資産管理株式会社,,株式会社,大阪府,大阪市浪速区,桜川４丁目１７番２７号,,27,111,5560022,,,,,,,2023-01-13,1,,,,,キングスリーシサンカンリ,0
913,3120003023207,新規,0,2023-01-13,2023-01-13,合同会社裕,,合同会社,大阪府,交野市,私部６丁目２１番７号,,27,230,5760052,,,,,,,2023-01-13,1,,,,,ユウ,0
914,3120003023223,新規,0,2023-01-13,2023-01-13,Ｂｅ．Ｍａｒｏｏ合同会社,,合同会社,大阪府,大阪市住吉区,山之内２丁目１０－１２,,27,120,5580023,,,,,,,2023-01-13,1,,,,,ビーマロー,0
915,3120003023231,新規,0,2023-01-13,2023-01-13,合同会社ＬＴＬＹＬ,,合同会社,大阪府,大阪市東住吉区,東田辺２丁目３番１０号３０２,,27,121,5460032,,,,,,,2023-01-13,1,,,,,リトリル,0
919,3120101066826,新規,0,2023-01-13,2023-01-13,株式会社中林,,株式会社,大阪府,大阪狭山市,池之原４丁目７１３番地の１,,27,231,5890031,,,,,,,2023-01-13,1,,,,,ナカバヤシ,0
922,3120103005022,新規,0,2023-01-13,2023-01-13,合同会社八楓,,合同会社,大阪府,藤井寺市,惣社２丁目５番３号,,27,226,5830005,,,,,,,2023-01-13,1,,,,,ヤブキ,0
928,3122001036586,新規,0,2023-01-13,2023-01-13,株式会社ごぶごぶ,,株式会社,大阪府,八尾市,萱振町１丁目１５８番地,,27,212,5810834,,,,,,,2023-01-13,1,,,,,ゴブゴブ,0
930,3130001073418,新規,0,2023-01-13,2023-01-13,株式会社安達塗装店,,株式会社,京都府,福知山市,字天田６１５番地の２,,26,201,6200000,,,,,,,2023-01-13,1,,,,,アダチトソウテン,0
931,3130001073426,新規,0,2023-01-13,2023-01-13,株式会社忍電設,,株式会社,京都府,京都市南区,吉祥院東砂ノ町１９番地,,26,107,6018334,,,,,,,2023-01-13,1,,,,,シノブデンセツ,0
932,3130001073442,新規,0,2023-01-13,2023-01-13,株式会社エースプラン,,株式会社,京都府,宇治市,寺山台１丁目８番地１３,,26,204,6110032,,,,,,,2023-01-13,1,,,,,エースプラン,0
933,3130001073450,新規,0,2023-01-13,2023-01-13,株式会社ブラックダイヤ,,株式会社,京都府,城陽市,久世下大谷６－５１,,26,207,6100102,,,,,,,2023-01-13,1,,,,,ブラックダイヤ,0
934,3130001073467,新規,0,2023-01-13,2023-01-13,メタハウスイノベーション株式会社,,株式会社,京都府,京都市山科区,竹鼻堂ノ前町４６番地１,,26,110,6078085,,,,,,,2023-01-13,1,,,,,メタハウスイノベーション,0
939,3140001128609,新規,0,2023-01-13,2023-01-13,株式会社名神設備,,株式会社,兵庫県,伊丹市,鈴原町８丁目８番地東２号,,28,207,6640882,,,,,,,2023-01-13,1,,,,,メイシンセツビ,0
940,3140001128682,新規,0,2023-01-13,2023-01-13,株式会社エムスタイル,,株式会社,兵庫県,加古川市,野口町水足６７２番地２,,28,210,6750019,,,,,,,2023-01-13,1,,,,,エムスタイル,0
941,3140001128699,新規,0,2023-01-13,2023-01-13,株式会社あかね會,,株式会社,兵庫県,姫路市,城東町野田１番地５,,28,201,6700844,,,,,,,2023-01-13,1,,,,,アカネカイ,0
942,3140001128708,新規,0,2023-01-13,2023-01-13,株式会社ＱＵＰＥＴ,,株式会社,兵庫県,明石市,宮の上５番２１号,,28,203,6730031,,,,,,,2023-01-13,1,,,,,キュペット,0
943,3140001128773,新規,0,2023-01-13,2023-01-13,フリースタイルホーム株式会社,,株式会社,兵庫県,神戸市垂水区,泉が丘５丁目１２番２５号,,28,108,6550885,,,,,,,2023-01-13,1,,,,,フリースタイルホーム,0
944,3140001128781,新規,0,2023-01-13,2023-01-13,株式会社ビジサポ,,株式会社,兵庫県,丹波市,市島町下鴨阪３０４番地１,,28,223,6694343,,,,,,,2023-01-13,1,,,,,ビジサポ,0
946,3140003018551,新規,0,2023-01-13,2023-01-13,サンコート合同会社,,合同会社,兵庫県,加古川市,尾上町養田２６２番地の１０,,28,210,6750025,,,,,,,2023-01-13,1,,,,,サンコート,0
948,3150001026084,新規,0,2023-01-13,2023-01-13,株式会社ＯＰＬＵＳ,,株式会社,奈良県,大和郡山市,矢田町６５５４番地３ヨークビル,,29,203,6391058,,,,,,,2023-01-13,1,,,,,オプラス,0
951,3150003002851,新規,0,2023-01-13,2023-01-13,合同会社ＡｔＷＩＬＬ,,合同会社,奈良県,奈良市,南半田西町７,,29,201,6308282,,,,,,,2023-01-13,1,,,,,アットウィル,0
956,3170005006989,新規,0,2023-01-13,2023-01-13,医療法人慶栄会,,その他の設立登記法人,和歌山県,和歌山市,木ノ本３１０番地１,,30,201,6408453,,,,,,,2023-01-13,1,,,,,ケイエイカイ,0
967,3180001154477,新規,0,2023-01-13,2023-01-13,株式会社三晃社コミュニケーションホールディングス,,株式会社,愛知県,名古屋市中区,錦３丁目５番３０号,,23,106,4600003,,,,,,,2023-01-13,1,,,,,サンコウシャコミュニケーションホールディングス,0
968,3180001154502,新規,0,2023-01-13,2023-01-13,株式会社エブリ・ニーズ・ライフ,,株式会社,愛知県,豊明市,新栄町７丁目３６８番地メゾンかおる２０１号,,23,229,4701154,,,,,,,2023-01-13,1,,,,,エブリニーズライフ,0
969,3180001154510,新規,0,2023-01-13,2023-01-13,株式会社ｓｅｃｏｎｄ　ｙｏｕｔｈ,,株式会社,愛知県,春日井市,貴船町１３６番地,,23,206,4860826,,,,,,,2023-01-13,1,,,,,セカンドユース,0
970,3180001154527,新規,0,2023-01-13,2023-01-13,株式会社茂松塗装,,株式会社,愛知県,名古屋市港区,小碓３丁目９５番地,,23,111,4550801,,,,,,,2023-01-13,1,,,,,シゲマツトソウ,0
971,3180001154535,新規,0,2023-01-13,2023-01-13,株式会社エステートリリー,,株式会社,愛知県,江南市,村久野町冨士塚１８９番地,,23,217,4838325,,,,,,,2023-01-13,1,,,,,エステートリリー,0
972,3180001154543,新規,0,2023-01-13,2023-01-13,株式会社メタルクラフト中部,,株式会社,愛知県,あま市,森山堂建２９番地１,,23,237,4901223,,,,,,,2023-01-13,1,,,,,メタルクラフトチュウブ,0
973,3180001154568,新規,0,2023-01-13,2023-01-13,株式会社クローバーマシン,,株式会社,愛知県,尾張旭市,東三郷町２２２番地Ｂ棟,,23,226,4880017,,,,,,,2023-01-13,1,,,,,クローバーマシン,0
974,3180001154576,新規,0,2023-01-13,2023-01-13,株式会社エクセル,,株式会社,愛知県,あま市,甚目寺郷前２８番地,,23,237,4901111,,,,,,,2023-01-13,1,,,,,エクセル,0
982,3190001030099,新規,0,2023-01-13,2023-01-13,株式会社ＩＷＡＴＯ,,株式会社,三重県,四日市市,高角町２８０１番地,,24,202,5120923,,,,,,,2023-01-13,1,,,,,イワト,0
1022,3290001100164,新規,0,2023-01-13,2023-01-13,株式会社とらいあんぐる,,株式会社,福岡県,福岡市博多区,博多駅南４丁目２０番１７号,,40,132,8120016,,,,,,,2023-01-13,1,,,,,トライアングル,0
1023,3290001100180,新規,0,2023-01-13,2023-01-13,株式会社ＮＥＷ　ＮＯＲＭＡＬ,,株式会社,福岡県,大牟田市,大字宮崎１８１３番地,,40,202,8370903,,,,,,,2023-01-13,1,,,,,ニューノーマル,0
1024,3290001100206,新規,0,2023-01-13,2023-01-13,Ｗｏｒｌｄ　Ｒｅｆｏｒｍａｔｉｏｎ株式会社,,株式会社,福岡県,福岡市南区,若久５丁目２番３号コーポ若久通り２階,,40,134,8150042,,,,,,,2023-01-13,1,,,,,ワールドリフォーメイション,0
1025,3290001100222,新規,0,2023-01-13,2023-01-13,株式会社宮市,,株式会社,福岡県,福岡市早良区,田隈３丁目１２番１２号,,40,137,8140174,,,,,,,2023-01-13,1,,,,,ミヤイチ,0
1027,3290003013397,新規,0,2023-01-13,2023-01-13,合同会社ＨＯＦＦＮＵＮＧ,,合同会社,福岡県,福岡市西区,石丸３丁目１７番３９号,,40,135,8190025,,,,,,,2023-01-13,1,,,,,ホフヌン,0
1028,3290003013414,新規,0,2023-01-13,2023-01-13,合同会社Ｍ‐Ｃｏｍｐａｎｙｓ．,,合同会社,福岡県,飯塚市,太郎丸３７５番地６,,40,205,8200076,,,,,,,2023-01-13,1,,,,,エムカンパニーズ,0
1030,3300001013190,新規,0,2023-01-13,2023-01-13,フロンティア株式会社,,株式会社,佐賀県,三養基郡みやき町,大字東尾２７２４番地７,,41,346,8490113,,,,,,,2023-01-13,1,,,,,フロンティア,0
1031,3300005007123,新規,0,2023-01-13,2023-01-13,医療法人邦仁会,,その他の設立登記法人,佐賀県,佐賀市,若宮１丁目１９番２２号,,41,201,8490926,,,,,,,2023-01-13,1,,,,,ホウジンカイ,0
1032,3310001018222,新規,0,2023-01-13,2023-01-13,株式会社ファーストステップ,,株式会社,長崎県,東彼杵郡波佐見町,志折郷１７４５番地,,42,323,8593724,,,,,,,2023-01-13,1,,,,,ファーストステップ,0
1036,3320003003989,新規,0,2023-01-13,2023-01-13,合同会社ＳＡＬＡ,,合同会社,大分県,日田市,上津江町上野田１２１４番地,,44,204,8770312,,,,,,,2023-01-13,1,,,,,セーラ,0
1038,3330001030398,新規,0,2023-01-13,2023-01-13,株式会社ダイバーストレージ,,株式会社,熊本県,上益城郡甲佐町,大字府領２１８２番地５４,,43,444,8614615,,,,,,,2023-01-13,1,,,,,ダイバーストレージ,0
1041,3350001018136,新規,0,2023-01-13,2023-01-13,ＫＩＫＯＲＩ株式会社,,株式会社,宮崎県,宮崎市,田野町甲２００５番地８,,45,201,8891701,,,,,,,2023-01-13,1,,,,,キコリ,0
1043,3350005006129,新規,0,2023-01-13,2023-01-13,医療法人Ｙ’ｓ会,,その他の設立登記法人,宮崎県,宮崎市,大字芳士字祝田１２２２番地１,,45,201,8800123,,,,,,,2023-01-13,1,,,,,ワイズカイ,0
1044,3360001031377,新規,0,2023-01-13,2023-01-13,株式会社伊島マリンサービス,,株式会社,沖縄県,宮古島市,伊良部字伊良部１３９１－１,,47,214,9060503,,,,,,,2023-01-13,1,,,,,イシママリンサービス,0
1045,3360001031427,新規,0,2023-01-13,2023-01-13,株式会社ＸＴＲＥＭＥ,,株式会社,沖縄県,中頭郡北谷町,北谷２丁目３番地１ワイズマークグランデ北谷２０１,,47,326,9040116,,,,,,,2023-01-13,1,,,,,エクストリーム,0
1047,3360003012631,新規,0,2023-01-13,2023-01-13,合同会社ＢＫｓｔｙｌｅ,,合同会社,沖縄県,中頭郡嘉手納町,屋良１丁目２４番地１,,47,325,9040202,,,,,,,2023-01-13,1,,,,,ビーケイスタイル,0
1050,3370001049484,新規,0,2023-01-13,2023-01-13,株式会社Ｇ・Ｎ・Ｓ美装,,株式会社,宮城県,仙台市若林区,若林５丁目１１番３８号,,04,103,9840826,,,,,,,2023-01-13,1,,,,,ジーエヌエスビソウ,0
1053,3370003005948,新規,0,2023-01-13,2023-01-13,合同会社池田興業,,合同会社,宮城県,仙台市泉区,館３丁目２２番地の９,,04,105,9813214,,,,,,,2023-01-13,1,,,,,イケダコウギョウ,0
1059,3390001017134,新規,0,2023-01-13,2023-01-13,株式会社思春期コーチング,,株式会社,山形県,山形市,木の実町１３番２－４０３号,,06,201,9900044,,,,,,,2023-01-13,1,,,,,シシュンキコーチング,0
1061,3390005008988,新規,0,2023-01-13,2023-01-13,農事組合法人上和田有機米生産組合,,その他の設立登記法人,山形県,東置賜郡高畠町,大字馬頭１２７番地の１,,06,381,9920264,,,,,,,2023-01-13,1,,,,,カミワダユウキマイセイサンクミアイ,0
1070,3430003014645,新規,0,2023-01-13,2023-01-13,合同会社農福てらす北海道,,合同会社,北海道,札幌市北区,篠路一条８丁目８番１０号,,01,102,0028021,,,,,,,2023-01-13,1,,,,,ノウフクテラスホッカイドウ,0
1071,3440001009209,新規,0,2023-01-13,2023-01-13,株式会社北斗ライス,,株式会社,北海道,北斗市,追分４丁目７番４７号メゾンＫＴ１３号館２０３号,,01,236,0490101,,,,,,,2023-01-13,1,,,,,ホクトライス,0
1072,3450001013886,新規,0,2023-01-13,2023-01-13,株式会社ホップラボ,,株式会社,北海道,空知郡上富良野町,西５線北２７号,,01,460,0710505,,,,,,,2023-01-13,1,,,,,,0
1073,3460101007309,新規,0,2023-01-13,2023-01-13,株式会社上田牧場,,株式会社,北海道,中川郡本別町,西勇足７５番地,,01,646,0893300,,,,,,,2023-01-13,1,,,,,ウエダボクジョウ,0
1076,3470003002332,新規,0,2023-01-13,2023-01-13,合同会社玉冨士ファイナンス,,合同会社,香川県,さぬき市,志度１１９５－１,,37,206,7692101,,,,,,,2023-01-13,1,,,,,タマフジファイナンス,0
1086,4010001232083,新規,0,2023-01-13,2023-01-13,ＡＩ技術研究開発株式会社,,株式会社,東京都,中央区,銀座７丁目１４番１３号,,13,102,1040061,,,,,,,2023-01-13,1,,,,,エーアイギジュツケンキュウカイハツ,0
1087,4010001232166,新規,0,2023-01-13,2023-01-13,株式会社ホールトーン,,株式会社,東京都,中央区,銀座１丁目１２－４Ｎ＆ＥＢＬＤ．７階,,13,102,1040061,,,,,,,2023-01-13,1,,,,,ホールトーン,0
1089,4010003039551,新規,0,2023-01-13,2023-01-13,Ｏｔｅｍａｃｈｉ　Ｈｏｌｄｉｎｇｓ合同会社,,合同会社,東京都,千代田区,大手町１丁目２番１号,,13,101,1000004,,,,,,,2023-01-13,1,,,,,オオテマチホールディングス,0
1092,4010101015487,新規,0,2023-01-13,2023-01-13,株式会社もぉるもる,,株式会社,東京都,八王子市,高倉町４７番地１・１階,,13,201,1920033,,,,,,,2023-01-13,1,,,,,モォルモル,0
1100,4010401171724,新規,0,2023-01-13,2023-01-13,株式会社ＫａｉＵ,,株式会社,東京都,港区,南青山１丁目２６番４号六本木ダイヤビル５階,,13,103,1070062,,,,,,,2023-01-13,1,,,,,カイユウ,0
1101,4010401171732,新規,0,2023-01-13,2023-01-13,株式会社ＢＥＥＭ　Ｊａｐａｎ,,株式会社,東京都,港区,南青山２丁目２番１５号ウィン青山１２１４号,,13,103,1070062,,,,,,,2023-01-13,1,,,,,ビームジャパン,0
1102,4010401171773,新規,0,2023-01-13,2023-01-13,ＧＯＥＮ株式会社,,株式会社,東京都,港区,赤坂３丁目１０番１９号第二対翠館ビル,,13,103,1070052,,,,,,,2023-01-13,1,,,,,ゴエン,0
1103,4010401171781,新規,0,2023-01-13,2023-01-13,株式会社アルテミスユージー,,株式会社,東京都,港区,港南２丁目１６番７－１２１４号,,13,103,1080075,,,,,,,2023-01-13,1,,,,,アルテミスユージー,0
1104,4010401171798,新規,0,2023-01-13,2023-01-13,ウイルプラスエンハンス株式会社,,株式会社,東京都,港区,芝５丁目１３番１５号,,13,103,1080014,,,,,,,2023-01-13,1,,,,,ウイルプラスエンハンス,0
1105,4010401171807,新規,0,2023-01-13,2023-01-13,Ｄｅ　Ｃａｐｉｔａｌ株式会社,,株式会社,東京都,港区,六本木７丁目１５番７号,,13,103,1060032,,,,,,,2023-01-13,1,,,,,ディーキャピタル,0
1107,4010403029268,新規,0,2023-01-13,2023-01-13,フワリループ合同会社,,合同会社,東京都,港区,白金３丁目１番１３号日恵ビル２階,,13,103,1080072,,,,,,,2023-01-13,1,,,,,フワリループ,0
1108,4010403029276,新規,0,2023-01-13,2023-01-13,Ｓｈｏｐ８１合同会社,,合同会社,東京都,港区,南青山７丁目１０番６－９０１号,,13,103,1070062,,,,,,,2023-01-13,1,,,,,ショップエイティーワン,0
1112,4010501049861,新規,0,2023-01-13,2023-01-13,株式会社フォーアイマネージメント,,株式会社,東京都,台東区,寿３丁目１２番５号,,13,106,1110042,,,,,,,2023-01-13,1,,,,,フォーアイマネージメント,0
1116,4010701043706,新規,0,2023-01-13,2023-01-13,株式会社Ｙ’ｓ　ＮＥＸＴ,,株式会社,東京都,品川区,南品川２丁目９番２５－３０４号,,13,109,1400004,,,,,,,2023-01-13,1,,,,,ワイズネクスト,0
1117,4010701043714,新規,0,2023-01-13,2023-01-13,株式会社たいらヒポ,,株式会社,東京都,品川区,西品川１丁目１番１号住友不動産大崎ガーデンタワー,,13,109,1410033,,,,,,,2023-01-13,1,,,,,タイラヒポ,0
1118,4010703006537,新規,0,2023-01-13,2023-01-13,合同会社ＭＩＵ,,合同会社,東京都,品川区,東五反田１丁目１７番１１号,,13,109,1410022,,,,,,,2023-01-13,1,,,,,ミュウ,0
1124,4010901052291,新規,0,2023-01-13,2023-01-13,株式会社ＭＫ　Ｓｔｙｌｅ,,株式会社,東京都,世田谷区,岡本２丁目１１番１０号,,13,112,1570076,,,,,,,2023-01-13,1,,,,,エムケイスタイル,0
1125,4010901052309,新規,0,2023-01-13,2023-01-13,株式会社Ｐａｌｅ,,株式会社,東京都,世田谷区,尾山台２丁目２８番１６号,,13,112,1580086,,,,,,,2023-01-13,1,,,,,ペール,0
1126,4010901052317,新規,0,2023-01-13,2023-01-13,株式会社ｐｉｃｎｉｃ,,株式会社,東京都,世田谷区,大蔵５丁目１７番９－２０３号,,13,112,1570074,,,,,,,2023-01-13,1,,,,,ピクニック,0
1129,4010903007888,新規,0,2023-01-13,2023-01-13,アストリユース合同会社,,合同会社,東京都,世田谷区,玉川３丁目２０番２号マノア玉川第３ビル５０１,,13,112,1580094,,,,,,,2023-01-13,1,,,,,アストリユース,0
1130,4010905004421,新規,0,2023-01-13,2023-01-13,一般社団法人日本ウィスキング協会,,その他の設立登記法人,東京都,世田谷区,三宿１丁目４番７号,,13,112,1540005,,,,,,,2023-01-13,1,,,,,ニホンウィスキングキョウカイ,0
1134,4011001151942,新規,0,2023-01-13,2023-01-13,株式会社Ｔａｃｔ,,株式会社,東京都,渋谷区,恵比寿南１丁目１番１号ヒューマックス恵比寿ビル８Ｆ,,13,113,1500022,,,,,,,2023-01-13,1,,,,,タクト,0
1135,4011001151950,新規,0,2023-01-13,2023-01-13,株式会社ａｐｉｓｈ　ＨＤ,,株式会社,東京都,渋谷区,神宮前６丁目１４－１４－１Ｆ,,13,113,1500001,,,,,,,2023-01-13,1,,,,,アピッシュホールディングス,0
1143,4011101101434,新規,0,2023-01-13,2023-01-13,株式会社ウエミナ,,株式会社,東京都,新宿区,歌舞伎町２丁目１４番８号メトロプラザ２ビル７階Ｇ室,,13,104,1600021,,,,,,,2023-01-13,1,,,,,ウエミナ,0
1144,4011101101450,新規,0,2023-01-13,2023-01-13,株式会社グレイプアップ,,株式会社,東京都,新宿区,西新宿３丁目３番１３号西新宿水間ビル６階,,13,104,1600023,,,,,,,2023-01-13,1,,,,,グレイプアップ,0
1145,4011101101459,新規,0,2023-01-13,2023-01-13,株式会社ＣＡＷＡ,,株式会社,東京都,新宿区,荒木町１１番地３キャッスルマンション荒木町３０５,,13,104,1600007,,,,,,,2023-01-13,1,,,,,カワ,0
1146,4011101101467,新規,0,2023-01-13,2023-01-13,Ｈｕｄｌ　Ｊａｐａｎ株式会社,,株式会社,東京都,新宿区,西新宿３丁目３番１３号西新宿水間ビル６Ｆ,,13,104,1600023,,,,,,,2023-01-13,1,,,,,ハドルジャパン,0
1148,4011103012596,新規,0,2023-01-13,2023-01-13,Ａｒｃｈｅｒ　Ｔｅｃｈｎｏｌｏｇｉｅｓ　Ｊａｐａｎ合同会社,,合同会社,東京都,新宿区,西新宿３丁目３番１３号西新宿水間ビル６Ｆ,,13,104,1600023,,,,,,,2023-01-13,1,,,,,アーチャーテクノロジーズジャパン,0
1149,4011105010516,新規,0,2023-01-13,2023-01-13,一般社団法人ＤＩＣ　Ｊａｐａｎ,,その他の設立登記法人,東京都,新宿区,西新宿３丁目３番１３号西新宿水間ビル２Ｆ,,13,104,1600023,,,,,,,2023-01-13,1,,,,,ディーアイシージャパン,0
1152,4011201024345,新規,0,2023-01-13,2023-01-13,株式会社ＩＢＥＲＩＳ,,株式会社,東京都,中野区,丸山１丁目９番１３号,,13,114,1650021,,,,,,,2023-01-13,1,,,,,イベリス,0
1155,4011203003982,新規,0,2023-01-13,2023-01-13,合同会社伊八,,合同会社,東京都,中野区,丸山１丁目９番１３号Ｃ棟,,13,114,1650021,,,,,,,2023-01-13,1,,,,,イハチ,0
1158,4011501028830,新規,0,2023-01-13,2023-01-13,株式会社ＨＡＮＣＯＯＫ,,株式会社,東京都,荒川区,東日暮里３丁目１２番１４号,,13,118,1160014,,,,,,,2023-01-13,1,,,,,ハンクック,0
1160,4011503005423,新規,0,2023-01-13,2023-01-13,エニセル合同会社,,合同会社,東京都,北区,堀船２丁目１５番６号,,13,117,1140004,,,,,,,2023-01-13,1,,,,,エニセル,0
1164,4011603003797,新規,0,2023-01-13,2023-01-13,合同会社アンペアテック,,合同会社,東京都,練馬区,旭町３丁目９番１２号,,13,120,1790071,,,,,,,2023-01-13,1,,,,,アンペアテック,0
1168,4011701025925,新規,0,2023-01-13,2023-01-13,株式会社オフィスアライト,,株式会社,東京都,江戸川区,南小岩４丁目１０番２４号,,13,123,1330056,,,,,,,2023-01-13,1,,,,,オフィスアライト,0
1169,4011701025933,新規,0,2023-01-13,2023-01-13,株式会社アンダイン・ジャパン,,株式会社,東京都,江戸川区,一之江７丁目８９番地１２,,13,123,1320024,,,,,,,2023-01-13,1,,,,,アンダインジャパン,0
1170,4011701025941,新規,0,2023-01-13,2023-01-13,フィディ株式会社,,株式会社,東京都,江戸川区,南小岩７丁目７番１６号サクラハウス小岩１０１,,13,123,1330056,,,,,,,2023-01-13,1,,,,,フィディ,0
1177,4011801041772,新規,0,2023-01-13,2023-01-13,株式会社サンリッジ,,株式会社,東京都,足立区,千住旭町３８－１東京千住アネックス４１７,,13,121,1200026,,,,,,,2023-01-13,1,,,,,サンリッジ,0
1179,4011803005461,新規,0,2023-01-13,2023-01-13,渡辺工務店合同会社,,合同会社,東京都,足立区,六月１丁目１５番４号,,13,121,1210814,,,,,,,2023-01-13,1,,,,,,0
1180,4012401040082,新規,0,2023-01-13,2023-01-13,株式会社Ｔ‐ａｗａｎ,,株式会社,東京都,府中市,日新町５丁目７２番地の４７,,13,206,1830036,,,,,,,2023-01-13,1,,,,,ティアワン,0
1181,4012403005760,新規,0,2023-01-13,2023-01-13,合同会社Ｓｏｔｅｎｏｋ,,合同会社,東京都,三鷹市,新川２丁目７番４号,,13,204,1810004,,,,,,,2023-01-13,1,,,,,ソーテノック,0
1194,4020001149748,新規,0,2023-01-13,2023-01-13,株式会社Ｂａｙｌｅａｆ　Ｋ．Ｃｏｎｓｕｌｔｉｎｇ,,株式会社,神奈川県,横浜市都筑区,中川中央１丁目３０－１プレミアヨコハマ３階ＢＩＺｃｏｍｆｏｒｔ４７号室,,14,118,2240003,,,,,,,2023-01-13,1,,,,,ベイリーフケイコンサルティング,0
1195,4020001149764,新規,0,2023-01-13,2023-01-13,グルメタイム株式会社,,株式会社,神奈川県,川崎市川崎区,塩浜３丁目２４番６号,,14,131,2100826,,,,,,,2023-01-13,1,,,,,グルメタイム,0
1196,4020001149772,新規,0,2023-01-13,2023-01-13,株式会社ＳＨＯＺＯ,,株式会社,神奈川県,横浜市中区,日本大通７合人社横浜日本大通７ビル横浜ビジネスポート,,14,104,2310021,,,,,,,2023-01-13,1,,,,,ショウゾウ,0
1197,4020001149780,新規,0,2023-01-13,2023-01-13,株式会社たぬきち商事,,株式会社,神奈川県,横浜市南区,前里町４丁目９７－１０１,,14,105,2320004,,,,,,,2023-01-13,1,,,,,タヌキチショウジ,0
1198,4020001149814,新規,0,2023-01-13,2023-01-13,株式会社ソレイユ,,株式会社,神奈川県,横浜市神奈川区,金港町８番地８・９Ｆ,,14,102,2210056,,,,,,,2023-01-13,1,,,,,ソレイユ,0
1199,4020001149822,新規,0,2023-01-13,2023-01-13,株式会社ブロッサム,,株式会社,神奈川県,横浜市西区,中央２丁目４２番２２号,,14,103,2200051,,,,,,,2023-01-13,1,,,,,ブロッサム,0
1206,4020003023059,新規,0,2023-01-13,2023-01-13,合同会社ドゥーイング,,合同会社,神奈川県,横浜市港北区,日吉本町３丁目３６番８号,,14,109,2230062,,,,,,,2023-01-13,1,,,,,ドゥーイング,0
1207,4020003023083,新規,0,2023-01-13,2023-01-13,合同会社ＸＥＮＯ,,合同会社,神奈川県,横浜市泉区,上飯田町３６７２番地４ボナールＡ１０２号,,14,116,2450018,,,,,,,2023-01-13,1,,,,,ゼノ,0
1208,4020005015806,新規,0,2023-01-13,2023-01-13,医療法人社団正侑会,,その他の設立登記法人,神奈川県,川崎市川崎区,駅前本町３番地１ＮＭＦ川崎東口ビルＢ１階,,14,131,2100007,,,,,,,2023-01-13,1,,,,,セイユウカイ,0
1210,4021001077922,新規,0,2023-01-13,2023-01-13,ＳＵＮＲＩＳＥ．ＤＮＷ株式会社,,株式会社,神奈川県,中郡大磯町,東町１丁目７番２６号,,14,341,2550002,,,,,,,2023-01-13,1,,,,,サンライズドットディーエヌダブリュ,0
1211,4021001077930,新規,0,2023-01-13,2023-01-13,株式会社ボルト,,株式会社,神奈川県,藤沢市,善行坂１丁目１番２６号,,14,205,2510876,,,,,,,2023-01-13,1,,,,,ボルト,0
1212,4021001077939,新規,0,2023-01-13,2023-01-13,株式会社春夏秋冬,,株式会社,神奈川県,小田原市,久野４８７１番地,,14,206,2500055,,,,,,,2023-01-13,1,,,,,シュンカシュウトウ,0
1217,4021003012596,新規,0,2023-01-13,2023-01-13,Ｍ　ＳＡＳＯ　ＤＥＳＩＧＮ合同会社,,合同会社,神奈川県,厚木市,下川入５０１番地５,,14,212,2430206,,,,,,,2023-01-13,1,,,,,エムサソウデザイン,0
1232,4030001151752,新規,0,2023-01-13,2023-01-13,シンクレアホールディングス株式会社,,株式会社,埼玉県,さいたま市南区,鹿手袋３丁目２３番３０号,,11,108,3360031,,,,,,,2023-01-13,1,,,,,シンクレアホールディングス,0
1237,4030003020939,新規,0,2023-01-13,2023-01-13,合同会社ＳＧ,,合同会社,埼玉県,三郷市,鷹野３丁目１１１番１５号,,11,237,3410035,,,,,,,2023-01-13,1,,,,,エスジー,0
1238,4030003020947,新規,0,2023-01-13,2023-01-13,元代合同会社,,合同会社,埼玉県,川越市,大字的場２１６４番地２２レジェンドハイムナカノ１０３号室,,11,201,3501101,,,,,,,2023-01-13,1,,,,,ゲンダイ,0
1239,4030003020963,新規,0,2023-01-13,2023-01-13,合同会社ＤＫＣｏｎｓｕｌｔｉｎｇ,,合同会社,埼玉県,さいたま市浦和区,本太５丁目１８番２号,,11,107,3300052,,,,,,,2023-01-13,1,,,,,ディーケイコンサルティング,0
1250,4040001126555,新規,0,2023-01-13,2023-01-13,薩本工業株式会社,00129049,株式会社,千葉県,船橋市,南三咲４丁目１７番２８号,,12,204,2740813,,,,,,,2023-01-13,1,,,,,サツモトコウギョウ,0
1251,4040001126563,新規,0,2023-01-13,2023-01-13,株式会社ＦＯＲ３,,株式会社,千葉県,我孫子市,我孫子２丁目５番１０４０号,,12,222,2701166,,,,,,,2023-01-13,1,,,,,フォースリー,0
1252,4040001126613,新規,0,2023-01-13,2023-01-13,株式会社ワティード,,株式会社,千葉県,市川市,市川１丁目１３番２８号,,12,203,2720034,,,,,,,2023-01-13,1,,,,,ワティード,0
1253,4040001126621,新規,0,2023-01-13,2023-01-13,株式会社クオレス,,株式会社,千葉県,八千代市,高津１１７６番地３,,12,221,2760036,,,,,,,2023-01-13,1,,,,,クオレス,0
1259,4050001052206,新規,0,2023-01-13,2023-01-13,株式会社ＴＮＳ,,株式会社,茨城県,牛久市,ひたち野西３丁目３１番地１１,,08,219,3001206,,,,,,,2023-01-13,1,,,,,ティーエヌエス,0
1260,4050001052230,新規,0,2023-01-13,2023-01-13,株式会社川口カートエンジニアリング,,株式会社,茨城県,龍ケ崎市,松ケ丘１丁目２１番地１５,,08,208,3010853,,,,,,,2023-01-13,1,,,,,カワグチカートエンジニアリング,0
1261,4050005013195,新規,0,2023-01-13,2023-01-13,社会保険労務士法人ａｃｃｏｍｐａｎｙ,,その他の設立登記法人,茨城県,水戸市,平須町１５８番地の８,,08,201,3100853,,,,,,,2023-01-13,1,,,,,アカンパニー,0
1262,4060001035606,新規,0,2023-01-13,2023-01-13,株式会社Ｈ．Ｋ　ＴＲＡＤＩＮＧ,,株式会社,栃木県,小山市,大字向野３５１番地１－Ａ,,09,208,3230805,,,,,,,2023-01-13,1,,,,,エチケトレーディング,0
1267,4070001040002,新規,0,2023-01-13,2023-01-13,株式会社小さな願い,,株式会社,群馬県,みどり市,笠懸町阿左美３３９７番地５,,10,212,3792311,,,,,,,2023-01-13,1,,,,,チイサナネガイ,0
1268,4070001040010,新規,0,2023-01-13,2023-01-13,株式会社Ｋｅｙ　Ｐｅａｃｅ,,株式会社,群馬県,前橋市,総社町総社１５２０－６,,10,201,3710852,,,,,,,2023-01-13,1,,,,,キーピース,0
1269,4070001040019,新規,0,2023-01-13,2023-01-13,株式会社ＴＷＯ‐ＯＮＥ,,株式会社,群馬県,前橋市,上泉町１５７番地,,10,201,3710007,,,,,,,2023-01-13,1,,,,,ツーワン,0
1270,4070001040027,新規,0,2023-01-13,2023-01-13,株式会社Ｐ．Ｔ．Ｆ,,株式会社,群馬県,高崎市,島野町２８０番地１,,10,202,3700015,,,,,,,2023-01-13,1,,,,,ピーティーエフ,0
1272,4080003002924,新規,0,2023-01-13,2023-01-13,ぷりん合同会社,,合同会社,静岡県,静岡市葵区,大岩本町２６番１９号,,22,101,4200884,,,,,,,2023-01-13,1,,,,,プリン,0
1284,4120001251469,新規,0,2023-01-13,2023-01-13,フェニックス株式会社,,株式会社,大阪府,大阪市生野区,鶴橋５丁目１９－４－１０１,,27,116,5440031,,,,,,,2023-01-13,1,,,,,フェニックス,0
1285,4120001251675,新規,0,2023-01-13,2023-01-13,Ｔｍ設計株式会社,,株式会社,大阪府,大阪市中央区,船越町２丁目１番７－１１０２号,,27,128,5400036,,,,,,,2023-01-13,1,,,,,ティーエムセッケイ,0
1286,4120001251683,新規,0,2023-01-13,2023-01-13,株式会社クレドリーガルサービス,,株式会社,大阪府,大阪市淀川区,西中島５丁目９番５号,,27,123,5320011,,,,,,,2023-01-13,1,,,,,クレドリーガルサービス,0
1287,4120001251691,新規,0,2023-01-13,2023-01-13,株式会社ピーツリィ,,株式会社,大阪府,大阪市住吉区,苅田７丁目４番２３－２０８号,,27,120,5580011,,,,,,,2023-01-13,1,,,,,ピーツリィ,0
1288,4120001251700,新規,0,2023-01-13,2023-01-13,株式会社ＴＲＩＤＥＮＴ,,株式会社,大阪府,大阪市西区,新町１丁目３４番２－１８０６号,,27,106,5500013,,,,,,,2023-01-13,1,,,,,トライデント,0
1289,4120001251709,新規,0,2023-01-13,2023-01-13,株式会社ＫＯＡ,,株式会社,大阪府,大阪市淀川区,西三国１丁目３２番１号,,27,123,5320006,,,,,,,2023-01-13,1,,,,,コア,0
1290,4120001251725,新規,0,2023-01-13,2023-01-13,ｔｈｉｎｋ　Ｌａｂ株式会社,,株式会社,大阪府,大阪市北区,天満橋３丁目４番３３佐々木マンション４０１,,27,127,5300042,,,,,,,2023-01-13,1,,,,,シンクラボ,0
1291,4120001251766,新規,0,2023-01-13,2023-01-13,株式会社Ｊアライアンスソリューションズ,,株式会社,大阪府,大阪市北区,梅田１丁目１１番４号大阪駅前第４ビル,,27,127,5300001,,,,,,,2023-01-13,1,,,,,ジェイアライアンスソリューションズ,0
1295,4120003023222,新規,0,2023-01-13,2023-01-13,コルク合同会社,,合同会社,大阪府,大阪市北区,梅田１丁目２番２号大阪駅前第２ビル１２－１２,,27,127,5300001,,,,,,,2023-01-13,1,,,,,コルク,0
1296,4120003023230,新規,0,2023-01-13,2023-01-13,合同会社リブロ,,合同会社,大阪府,大阪市生野区,田島２丁目６番２８号,,27,116,5440011,,,,,,,2023-01-13,1,,,,,リブロ,0
1297,4120005023393,新規,0,2023-01-13,2023-01-13,ＮＰＯ法人部活動リノベクエストＬａｂｏ,,その他の設立登記法人,大阪府,交野市,妙見東３丁目１２番８号,,27,230,5760012,,,,,,,2023-01-13,1,,,,,ブカツドウリノベクエストラボ,0
1299,4120101066800,新規,0,2023-01-13,2023-01-13,株式会社甲田エクステリア,,株式会社,大阪府,泉南郡熊取町,大宮３丁目９２４番地の７,,27,361,5900450,,,,,,,2023-01-13,1,,,,,コウタエクステリア,0
1300,4120101066833,新規,0,2023-01-13,2023-01-13,株式会社はな電,,株式会社,大阪府,羽曳野市,はびきの５丁目４２８番地の９,,27,222,5830872,,,,,,,2023-01-13,1,,,,,ハナデン,0
1305,4130001073441,新規,0,2023-01-13,2023-01-13,株式会社大和空調,,株式会社,京都府,木津川市,山城町上狛北荒堀１９番地,,26,214,6190204,,,,,,,2023-01-13,1,,,,,ヤマトクウチョウ,0
1306,4130001073458,新規,0,2023-01-13,2023-01-13,株式会社Ｋｕｒｏｓｕｋｅ,,株式会社,京都府,舞鶴市,字和田１１３３番地７,,26,202,6250085,,,,,,,2023-01-13,1,,,,,クロスケ,0
1307,4130001073466,新規,0,2023-01-13,2023-01-13,株式会社洛趣舎,,株式会社,京都府,京都市東山区,清水２丁目２５８番地,,26,105,6050862,,,,,,,2023-01-13,1,,,,,ラクシュシャ,0
1308,4130001073482,新規,0,2023-01-13,2023-01-13,株式会社折鶴企画,,株式会社,京都府,京都市伏見区,指物町５７４番地ＹＴハウス４Ｆ,,26,109,6128074,,,,,,,2023-01-13,1,,,,,オリヅルキカク,0
1316,4140001128707,新規,0,2023-01-13,2023-01-13,株式会社紙屋,,株式会社,兵庫県,神戸市西区,白水２丁目１８番５０号,,28,111,6512129,,,,,,,2023-01-13,1,,,,,カミヤ,0
1317,4140001128756,新規,0,2023-01-13,2023-01-13,こいほだ株式会社,,株式会社,兵庫県,神戸市西区,美穂が丘２丁目９－２５,,28,111,6512216,,,,,,,2023-01-13,1,,,,,コイホダ,0
1321,4150001026083,新規,0,2023-01-13,2023-01-13,株式会社エニシスｐｌｕｓ,,株式会社,奈良県,奈良市,富雄泉ヶ丘１８番１０号,,29,201,6310051,,,,,,,2023-01-13,1,,,,,エニシスプラス,0
1322,4150003002859,新規,0,2023-01-13,2023-01-13,Ｌｉｅｎ合同会社,,合同会社,奈良県,奈良市,秋篠三和町２丁目１０番１５号,,29,201,6310814,,,,,,,2023-01-13,1,,,,,リアン,0
1327,4180001154501,新規,0,2023-01-13,2023-01-13,株式会社Ｋｉｍｏｎｏ椿,,株式会社,愛知県,名古屋市中区,丸の内１丁目２－３１景雲橋ハイツ５０３号,,23,106,4600002,,,,,,,2023-01-13,1,,,,,キモノツバキ,0
1328,4180001154526,新規,0,2023-01-13,2023-01-13,株式会社ＳＵＧＩＮＯ,,株式会社,愛知県,長久手市,岩作東島４８番地４,,23,238,4801103,,,,,,,2023-01-13,1,,,,,スギノ,0
1329,4180001154542,新規,0,2023-01-13,2023-01-13,株式会社ＣＡ,,株式会社,愛知県,名古屋市中村区,竹橋町１９番７号プレシャス名駅７０３号室,,23,105,4530016,,,,,,,2023-01-13,1,,,,,シーエー,0
1330,4180001154567,新規,0,2023-01-13,2023-01-13,株式会社ｓｉｘ　ｔｒｅｅ,,株式会社,愛知県,名古屋市中村区,名駅２丁目４２番１２号,,23,105,4500002,,,,,,,2023-01-13,1,,,,,シックスツリー,0
1352,4220001025227,新規,0,2023-01-13,2023-01-13,株式会社兼六マネキン紹介所,,株式会社,石川県,金沢市,瓢箪町１２番７号,,17,201,9200845,,,,,,,2023-01-13,1,,,,,ケンロクマネキンショウカイジョ,0
1355,4240001060957,新規,0,2023-01-13,2023-01-13,株式会社明心工業,,株式会社,広島県,呉市,安浦町内海北５丁目１２番４号Ｂ１０３,,34,202,7372518,,,,,,,2023-01-13,1,,,,,メイシンコウギョウ,0
1356,4240001060965,新規,0,2023-01-13,2023-01-13,株式会社栄塗,,株式会社,広島県,広島市安佐北区,可部６丁目１１番３０－１０１号,,34,106,7310221,,,,,,,2023-01-13,1,,,,,エイト,0
1364,4270001008706,新規,0,2023-01-13,2023-01-13,株式会社Ｒ‐ＰＩＴ,,株式会社,鳥取県,米子市,旗ヶ崎２丁目２番４１号,,31,202,6830845,,,,,,,2023-01-13,1,,,,,アールピット,0
1367,4290001100163,新規,0,2023-01-13,2023-01-13,株式会社ＢＤ,,株式会社,福岡県,福岡市中央区,地行２丁目３番１４号ラクレイス西新レジデンシャルタワー２８０６号,,40,133,8100064,,,,,,,2023-01-13,1,,,,,ビーディ,0
1368,4290001100188,新規,0,2023-01-13,2023-01-13,道深株式会社,,株式会社,福岡県,福岡市中央区,赤坂３丁目１番２９号,,40,133,8100042,,,,,,,2023-01-13,1,,,,,ドウシン,0
1369,4290001100213,新規,0,2023-01-13,2023-01-13,株式会社ｗｉｌｌ　ｗｅｌｌ,,株式会社,福岡県,福岡市博多区,古門戸町２番５号,,40,132,8120029,,,,,,,2023-01-13,1,,,,,ウィルウェル,0
1372,4290003013405,新規,0,2023-01-13,2023-01-13,合同会社ハッピース,,合同会社,福岡県,小郡市,大保１５３９番地１０,,40,216,8380115,,,,,,,2023-01-13,1,,,,,ハッピース,0
1373,4290005018914,新規,0,2023-01-13,2023-01-13,医療法人天神会,,その他の設立登記法人,福岡県,福岡市中央区,天神２丁目６番１３号ジェムキャッスルきらめき通り３・４・５階,,40,133,8100001,,,,,,,2023-01-13,1,,,,,テンジンカイ,0
1376,4310001018188,新規,0,2023-01-13,2023-01-13,株式会社佐世保産業サービス,,株式会社,長崎県,佐世保市,天神２丁目２７２番地９,,42,202,8571174,,,,,,,2023-01-13,1,,,,,サセボサンギョウサービス,0
1378,4330001030488,新規,0,2023-01-13,2023-01-13,株式会社グラスト,,株式会社,熊本県,熊本市北区,山室６丁目１－１６,,43,105,8600084,,,,,,,2023-01-13,1,,,,,グラスト,0
1379,4330001030496,新規,0,2023-01-13,2023-01-13,株式会社島工務店,,株式会社,熊本県,熊本市北区,飛田２丁目１０番１５３号,,43,105,8615514,,,,,,,2023-01-13,1,,,,,シマコウムテン,0
1382,4340003004019,新規,0,2023-01-13,2023-01-13,合同会社ｔａｂ,,合同会社,鹿児島県,霧島市,国分中央３丁目２４番１３－９０２号,,46,218,8994332,,,,,,,2023-01-13,1,,,,,タブ,0
1384,4350001018135,新規,0,2023-01-13,2023-01-13,株式会社サンケイロジスティクス,,株式会社,宮崎県,東臼杵郡門川町,大字加草７３２番地,,45,421,8890603,,,,,,,2023-01-13,1,,,,,サンケイロジスティクス,0
1386,4350003004265,新規,0,2023-01-13,2023-01-13,合同会社ＨｏｌｏｍｕＡ,,合同会社,宮崎県,日向市,大字平岩１８番地４,,45,206,8830022,,,,,,,2023-01-13,1,,,,,ホロムア,0
1388,4360003012630,新規,0,2023-01-13,2023-01-13,合同会社ＳｕｎＢｅｌｌ,,合同会社,沖縄県,国頭郡恩納村,字名嘉真２２４７番地２,,47,311,9040401,,,,,,,2023-01-13,1,,,,,サンベル,0
1391,4370001049491,新規,0,2023-01-13,2023-01-13,株式会社ｄｒｉｖｅ,,株式会社,宮城県,仙台市青葉区,錦ケ丘７丁目７番地の９,,04,101,9893123,,,,,,,2023-01-13,1,,,,,ドライブ,0
1397,4380001033395,新規,0,2023-01-13,2023-01-13,ＦＴＬＳ株式会社,,株式会社,福島県,伊達郡桑折町,字西大隅２２番地の２,,07,301,9691612,,,,,,,2023-01-13,1,,,,,エフティエルエス,0
1398,4380001033404,新規,0,2023-01-13,2023-01-13,株式会社ＳＫＹ　ＴＲＡＤＩＮＧ,,株式会社,福島県,西白河郡矢吹町,赤沢７１２番地２,,07,466,9690206,,,,,,,2023-01-13,1,,,,,スカイトレーディング,0
1403,4390001017133,新規,0,2023-01-13,2023-01-13,株式会社ＤＥＷＡ,,株式会社,山形県,上山市,葉山５番２０号,,06,207,9993242,,,,,,,2023-01-13,1,,,,,デワ,0
1406,4390003002034,新規,0,2023-01-13,2023-01-13,合同会社クレノーフ,,合同会社,山形県,東置賜郡川西町,大字玉庭６６０６番地２,,06,382,9990361,,,,,,,2023-01-13,1,,,,,クレノーフ,0
1409,4430001088203,新規,0,2023-01-13,2023-01-13,株式会社ノドカ,,株式会社,北海道,恵庭市,恵央町４番１２,,01,231,0611432,,,,,,,2023-01-13,1,,,,,ノドカ,0
1410,4430001088211,新規,0,2023-01-13,2023-01-13,株式会社まるおと,,株式会社,北海道,札幌市西区,発寒八条１３丁目１４番２号,,01,107,0630828,,,,,,,2023-01-13,1,,,,,マルオト,0
1413,4430003014644,新規,0,2023-01-13,2023-01-13,合同会社中川農園,,合同会社,北海道,余市郡余市町,登町２６０番地５,,01,408,0460002,,,,,,,2023-01-13,1,,,,,ナカガワノウエン,0
1414,4450001013885,新規,0,2023-01-13,2023-01-13,株式会社紅,,株式会社,北海道,苫前郡羽幌町,南三条１丁目１６番地の２,,01,484,0784103,,,,,,,2023-01-13,1,,,,,ベニ,0
1416,4470001019427,新規,0,2023-01-13,2023-01-13,株式会社エイシン,,株式会社,香川県,高松市,牟礼町牟礼２４２０番地９,,37,201,7610121,,,,,,,2023-01-13,1,,,,,エイシン,0
1417,4480001011977,新規,0,2023-01-13,2023-01-13,株式会社ＳＡＫＡＧＵＣＨＩ,,株式会社,徳島県,徳島市,栄町１丁目３２番地の１松原ビル,,36,201,7700921,,,,,,,2023-01-13,1,,,,,サカグチ,0
1428,4700150113709,新規,0,2023-01-13,2023-01-13,Ｓｃｒｉｂｄ，Ｉｎｃ．,,外国会社等,,,,,,,,４６０　Ｂｒｙａｎｔ　Ｓｔ．＃１００，Ｓａｎ　Ｆｒａｎｃｉｓｃｏ，ＣＡ　９４１０７　Ｕ．Ｓ．Ａ,,,,,,2023-01-13,1,,,,,スクリブドインク,0
1443,5010001232108,新規,0,2023-01-13,2023-01-13,ｐａｔｔｙｔｈｒｅｅ株式会社,,株式会社,東京都,中央区,銀座１丁目１２－４Ｎ＆ＥＢＬＤ．７階,,13,102,1040061,,,,,,,2023-01-13,1,,,,,パティスリー,0
1444,5010001232116,新規,0,2023-01-13,2023-01-13,株式会社Ｍｏｄｅｒｎ　Ｍｕｓｅ　Ｔｏｋｙｏ,,株式会社,東京都,中央区,銀座７丁目１３番２０号銀座ＴＨビル９階,,13,102,1040061,,,,,,,2023-01-13,1,,,,,モダンミューズトウキョウ,0
1445,5010001232173,新規,0,2023-01-13,2023-01-13,シー・シックス・ツー・ホールディングス株式会社,,株式会社,東京都,千代田区,丸の内２丁目４番１号,,13,101,1000005,,,,,,,2023-01-13,1,,,,,シーシックスツーホールディングス,0
1449,5010101015486,新規,0,2023-01-13,2023-01-13,株式会社まぁるまる,,株式会社,東京都,八王子市,高倉町４７番地１・１階,,13,201,1920033,,,,,,,2023-01-13,1,,,,,マァルマル,0
1455,5010401171772,新規,0,2023-01-13,2023-01-13,株式会社カリナン,,株式会社,東京都,港区,赤坂６丁目８番２－１８０４号,,13,103,1070052,,,,,,,2023-01-13,1,,,,,カリナン,0
1456,5010401171789,新規,0,2023-01-13,2023-01-13,田野壱株式会社,,株式会社,東京都,港区,東新橋１丁目６番地３号,,13,103,1050021,,,,,,,2023-01-13,1,,,,,タノイチ,0
1457,5010401171797,新規,0,2023-01-13,2023-01-13,株式会社Ｃｅｒａｓｕｓ,,株式会社,東京都,港区,浜松町２丁目２番１５号浜松町ダイヤビル２Ｆ,,13,103,1050013,,,,,,,2023-01-13,1,,,,,ケラスス,0
1458,5010401171814,新規,0,2023-01-13,2023-01-13,ＣＴＦ株式会社,,株式会社,東京都,港区,北青山３丁目６番７号青山パラシオタワー１１階,,13,103,1070061,,,,,,,2023-01-13,1,,,,,シーティーエフ,0
1459,5010401171822,新規,0,2023-01-13,2023-01-13,株式会社３ａｒｒｏｗｓ,,株式会社,東京都,港区,海岸１丁目２－２０汐留ビルディング３Ｆ,,13,103,1050022,,,,,,,2023-01-13,1,,,,,スリーアローズ,0
1462,5010403029267,新規,0,2023-01-13,2023-01-13,ＧＵＩＤＥ合同会社,,合同会社,東京都,港区,浜松町２丁目２番１５号浜松町ダイヤビル２Ｆ,,13,103,1050013,,,,,,,2023-01-13,1,,,,,,0
1463,5010403029291,新規,0,2023-01-13,2023-01-13,ＮＦＴＡｌｌｉａｎｃｅ合同会社,,合同会社,東京都,港区,六本木５丁目２番１号,,13,103,1060032,,,,,,,2023-01-13,1,,,,,エヌエフティアライアンス,0
1471,5010701043713,新規,0,2023-01-13,2023-01-13,株式会社ＩＮＴＥＲＭＩＮＤ,,株式会社,東京都,品川区,西五反田１丁目２６番２号五反田サンハイツ９１１,,13,109,1410031,,,,,,,2023-01-13,1,,,,,インターマインド,0
1479,5010901052290,新規,0,2023-01-13,2023-01-13,日本建物リユース株式会社,,株式会社,東京都,世田谷区,宇奈根２丁目９－２６,,13,112,1570068,,,,,,,2023-01-13,1,,,,,ニホンタテモノリユース,0
1481,5010903007904,新規,0,2023-01-13,2023-01-13,合同会社セントラルシステム,,合同会社,東京都,世田谷区,粕谷４丁目８番１０号粕谷ハウス２Ｂ,,13,112,1570063,,,,,,,2023-01-13,1,,,,,セントラルシステム,0
1489,5011001151909,新規,0,2023-01-13,2023-01-13,株式会社ＹＵＥＮ,,株式会社,東京都,渋谷区,千駄ヶ谷２丁目２番７号,,13,113,1510051,,,,,,,2023-01-13,1,,,,,ユエン,0
1490,5011001151925,新規,0,2023-01-13,2023-01-13,Ｃａｍｉ株式会社,,株式会社,東京都,渋谷区,神宮前２丁目２番３９－８２４号ＴＨＥ・ＣＯＵＲＴ神宮外苑,,13,113,1500001,,,,,,,2023-01-13,1,,,,,カミ,0
1491,5011001151966,新規,0,2023-01-13,2023-01-13,株式会社ＰＲｉｓｍ,,株式会社,東京都,渋谷区,代々木１丁目１２番２号,,13,113,1510053,,,,,,,2023-01-13,1,,,,,プリズム,0
1497,5011101101409,新規,0,2023-01-13,2023-01-13,株式会社コミックファン,,株式会社,東京都,新宿区,早稲田鶴巻町５４７番地井上ビル１階,,13,104,1620041,,,,,,,2023-01-13,1,,,,,コミックファン,0
1498,5011101101458,新規,0,2023-01-13,2023-01-13,株式会社ラクアンフーズ,,株式会社,東京都,新宿区,新宿２丁目１３番１０号武蔵野ビル１階,,13,104,1600022,,,,,,,2023-01-13,1,,,,,ラクアンフーズ,0
1499,5011101101466,新規,0,2023-01-13,2023-01-13,株式会社まおう,,株式会社,東京都,新宿区,歌舞伎町２丁目９－１８ライオンズプラザＢ１１４,,13,104,1600021,,,,,,,2023-01-13,1,,,,,マオウ,0
1500,5011103012579,新規,0,2023-01-13,2023-01-13,ＩＦｉＳ合同会社,,合同会社,東京都,新宿区,天神町４番地グランスイート神楽坂８０４,,13,104,1620808,,,,,,,2023-01-13,1,,,,,アイエフアイエス,0
1501,5011103012587,新規,0,2023-01-13,2023-01-13,合同会社ｍｉｍｉ,,合同会社,東京都,新宿区,若松町３２番７号,,13,104,1620056,,,,,,,2023-01-13,1,,,,,ミミ,0
1502,5011103012604,新規,0,2023-01-13,2023-01-13,ＰＡＲＡＤＩＳＥ合同会社,,合同会社,東京都,新宿区,百人町２丁目２０－２２スカイコート新宿ＩＩ１０８－Ｂ号室,00129045,13,104,1690073,,,,,,,2023-01-13,1,,,,,パラダイス,0
1510,5011503005422,新規,0,2023-01-13,2023-01-13,ランブック合同会社,,合同会社,東京都,北区,浮間１丁目１３番１号,,13,117,1150051,,,,,,,2023-01-13,1,,,,,ランブック,0
1512,5011603003796,新規,0,2023-01-13,2023-01-13,ＳＵ　Ｍｙａｎｍａｒ合同会社,,合同会社,東京都,練馬区,北町８丁目２８番８－４０２号,,13,120,1790081,,,,,,,2023-01-13,1,,,,,スミャンマー,0
1513,5011701025949,新規,0,2023-01-13,2023-01-13,株式会社ＯＮＥ　ＷＥ,,株式会社,東京都,江戸川区,西葛西３丁目６番１４号,,13,123,1340088,,,,,,,2023-01-13,1,,,,,ワンウィー,0
1515,5011801041788,新規,0,2023-01-13,2023-01-13,株式会社ＥＳＣ,,株式会社,東京都,足立区,佐野２丁目４２番５号１Ｆ,,13,121,1210053,,,,,,,2023-01-13,1,,,,,イーエスシー,0
1519,5011803005460,新規,0,2023-01-13,2023-01-13,合同会社ｋｕｋｕ,,合同会社,東京都,葛飾区,金町６丁目１２番１３号辻森コーポ２０１号室,,13,122,1250042,,,,,,,2023-01-13,1,,,,,クク,0
1520,5012401040065,新規,0,2023-01-13,2023-01-13,株式会社スキラボ,,株式会社,東京都,多摩市,関戸４丁目２４番地７第１６通南ビル２階,,13,224,2060011,,,,,,,2023-01-13,1,,,,,スキラボ,0
1521,5012401040073,新規,0,2023-01-13,2023-01-13,株式会社ダイバージェンス,,株式会社,東京都,武蔵野市,吉祥寺北町１丁目１０番２０号,,13,203,1800001,,,,,,,2023-01-13,1,,,,,ダイバージェンス,0
1522,5012403005776,新規,0,2023-01-13,2023-01-13,合同会社メーヴェ,,合同会社,東京都,調布市,若葉町２丁目２１－２グリーンシャトー３、２０１号室,,13,208,1820003,,,,,,,2023-01-13,1,,,,,メーヴェ,0
1538,5020001149747,新規,0,2023-01-13,2023-01-13,Ｘ‐Ａｓｓｅｍｂｌｙ　Ｃｌａｎ株式会社,,株式会社,神奈川県,横浜市緑区,東本郷６丁目１番６号,,14,113,2260002,,,,,,,2023-01-13,1,,,,,アッセンブリクラン,0
1539,5020001149755,新規,0,2023-01-13,2023-01-13,株式会社ラ・フルゥータ,,株式会社,神奈川県,横浜市南区,別所中里台９番２２号,,14,105,2320065,,,,,,,2023-01-13,1,,,,,ラフルゥータ,0
1540,5020001149763,新規,0,2023-01-13,2023-01-13,株式会社響和,,株式会社,神奈川県,横浜市南区,井土ケ谷中町１５４番地５スカール井土ケ谷３０２号,,14,105,2320052,,,,,,,2023-01-13,1,,,,,キョウワ,0
1541,5020001149788,新規,0,2023-01-13,2023-01-13,株式会社Ｎｅｘｔ　ＥＲＡ,,株式会社,神奈川県,横浜市港南区,日野５丁目１番１１号,,14,111,2340051,,,,,,,2023-01-13,1,,,,,ネクストエラ,0
1542,5020001149796,新規,0,2023-01-13,2023-01-13,株式会社アーティファム,,株式会社,神奈川県,川崎市多摩区,東生田２丁目１－２８－２,,14,135,2140031,,,,,,,2023-01-13,1,,,,,アーティファム,0
1543,5020001149813,新規,0,2023-01-13,2023-01-13,株式会社Ｃｌｏｕｄ　Ｎａｖｉｇａｔｏｒ,,株式会社,神奈川県,横浜市青葉区,美しが丘西２丁目４６－１６,,14,117,2250001,,,,,,,2023-01-13,1,,,,,クラウドナビゲーター,0
1544,5020001149821,新規,0,2023-01-13,2023-01-13,エフ・フォー・ドット株式会社,,株式会社,神奈川県,川崎市宮前区,宮崎１丁目１２番地２５秀和宮崎台レジデンス５０６,,14,136,2160033,,,,,,,2023-01-13,1,,,,,エフフォードット,0
1545,5020001149846,新規,0,2023-01-13,2023-01-13,株式会社ＦＲＥＡＫ,,株式会社,神奈川県,横浜市青葉区,しらとり台５６番地７－２０５,,14,117,2270054,,,,,,,2023-01-13,1,,,,,フリーク,0
1546,5020001149854,新規,0,2023-01-13,2023-01-13,株式会社ｃｈｏｕｄｏ‐ｉｉカンパニー,,株式会社,神奈川県,横浜市青葉区,美しが丘４丁目２６番地３ピンひらはらばし１０１,,14,117,2250002,,,,,,,2023-01-13,1,,,,,チョウドイイカンパニー,0
1550,5020003023058,新規,0,2023-01-13,2023-01-13,合同会社ＡＲＥＡ,,合同会社,神奈川県,横浜市港北区,日吉７丁目１３番１２号グランデコ日吉２０３,,14,109,2230061,,,,,,,2023-01-13,1,,,,,エリア,0
1551,5020003023066,新規,0,2023-01-13,2023-01-13,合同会社ブロッサムＲ,,合同会社,神奈川県,横浜市港北区,新横浜１丁目４－４ひかるコート横浜１００２,,14,109,2220033,,,,,,,2023-01-13,1,,,,,ブロッサムアール,0
1552,5020003023082,新規,0,2023-01-13,2023-01-13,合同会社キング,,合同会社,神奈川県,横浜市戸塚区,影取町１７３０番地２８,,14,110,2450064,,,,,,,2023-01-13,1,,,,,キング,0
1553,5020003023090,新規,0,2023-01-13,2023-01-13,合同会社ケイズインベストメント,,合同会社,神奈川県,川崎市川崎区,下並木１１番地５川崎サイトシティＩＩ番館２０４,00129043,14,131,2100025,,,,,,,2023-01-13,1,,,,,ケイズインベストメント,0
1557,5021001077913,新規,0,2023-01-13,2023-01-13,株式会社Ｒｅｅ,,株式会社,神奈川県,相模原市緑区,橋本２丁目３番２２号,,14,151,2520143,,,,,,,2023-01-13,1,,,,,リー,0
1558,5021001077921,新規,0,2023-01-13,2023-01-13,株式会社湘南秋谷の家,,株式会社,神奈川県,横須賀市,秋谷５２９６番地,,14,201,2400105,,,,,,,2023-01-13,1,,,,,ショウナンアキヤノイエ,0
1571,5030001151818,新規,0,2023-01-13,2023-01-13,ＫＡＲＡコンサルティング株式会社,,株式会社,埼玉県,さいたま市岩槻区,東岩槻４丁目８番地２１,,11,110,3390005,,,,,,,2023-01-13,1,,,,,カラコンサルティング,0
1572,5030001151883,新規,0,2023-01-13,2023-01-13,ハニーレモン株式会社,,株式会社,埼玉県,本庄市,朝日町１丁目６番１２号,,11,211,3670026,,,,,,,2023-01-13,1,,,,,ハニーレモン,0
1573,5030001151925,新規,0,2023-01-13,2023-01-13,Ａ＆Ｍ’ｓ株式会社,,株式会社,埼玉県,入間市,高倉１丁目８番２０号２,,11,225,3580021,,,,,,,2023-01-13,1,,,,,エーアンドエムズ,0
1574,5030001151958,新規,0,2023-01-13,2023-01-13,株式会社庭仁,,株式会社,埼玉県,さいたま市浦和区,瀬ヶ崎４丁目４番１２号１号室,,11,107,3300044,,,,,,,2023-01-13,1,,,,,ニワジン,0
1579,5030003020954,新規,0,2023-01-13,2023-01-13,合同会社サステーナ,,合同会社,埼玉県,さいたま市緑区,美園４丁目１番地２センターフィールド浦和美園参番街５１８,,11,109,3360967,,,,,,,2023-01-13,1,,,,,サステーナ,0
1583,5040001126554,新規,0,2023-01-13,2023-01-13,株式会社ＡＢＣ　ＧＯＬＦ　ＪＡＰＡＮ,,株式会社,千葉県,船橋市,坪井町６００番地６９,,12,204,2740062,,,,,,,2023-01-13,1,,,,,エービーシーゴルフジャパン,0
1584,5040001126579,新規,0,2023-01-13,2023-01-13,きづき株式会社,,株式会社,千葉県,千葉市中央区,栄町３５－１４シンテイ千葉ビル６階,,12,101,2600016,,,,,,,2023-01-13,1,,,,,キヅキ,0
1585,5040001126620,新規,0,2023-01-13,2023-01-13,便利屋ＴＲＹ株式会社,,株式会社,千葉県,柏市,南逆井３丁目１５番２１号,,12,217,2770043,,,,,,,2023-01-13,1,,,,,ベンリヤトライ,0
1588,5040003021638,新規,0,2023-01-13,2023-01-13,合同会社Ｓａｋｕｍａ　Ｍｏｔｏｒｓ,,合同会社,千葉県,船橋市,東船橋７丁目１８番５号,,12,204,2730002,,,,,,,2023-01-13,1,,,,,サクマモーターズ,0
1589,5040003021679,新規,0,2023-01-13,2023-01-13,合同会社ＥＦＩＬＡＴＹ,,合同会社,千葉県,浦安市,富岡１丁目７－３,,12,227,2790021,,,,,,,2023-01-13,1,,,,,エフィラティ,0
1592,5050001052221,新規,0,2023-01-13,2023-01-13,株式会社日宣ＲＲ,,株式会社,茨城県,水戸市,元吉田町７１６番地の３,,08,201,3100836,,,,,,,2023-01-13,1,,,,,ニッセンアールアール,0
1593,5050001052238,新規,0,2023-01-13,2023-01-13,Ｖａｇ株式会社,,株式会社,茨城県,神栖市,堀割１丁目１番３９号,,08,232,3140135,,,,,,,2023-01-13,1,,,,,ヴァグ,0
1595,5050005013194,新規,0,2023-01-13,2023-01-13,一般社団法人ＶＥＮＴＯ,,その他の設立登記法人,茨城県,龍ケ崎市,城ノ内５丁目２５番地３,,08,208,3010847,,,,,,,2023-01-13,1,,,,,ヴェント,0
1597,5060001035563,新規,0,2023-01-13,2023-01-13,株式会社ＳＡＴＯＹＡＭＡ　ＡＣＡＤＥＭＹ,,株式会社,栃木県,宇都宮市,昭和２丁目５－２５,,09,201,3200032,,,,,,,2023-01-13,1,,,,,サトヤマアカデミー,0
1598,5060001035605,新規,0,2023-01-13,2023-01-13,株式会社ＴＡＬＥ,,株式会社,栃木県,宇都宮市,砥上町１０８７番地２４,,09,201,3200856,,,,,,,2023-01-13,1,,,,,テール,0
1599,5060001035613,新規,0,2023-01-13,2023-01-13,株式会社磯技研,,株式会社,栃木県,大田原市,富士見１丁目１６０６番地２３５,,09,210,3240028,,,,,,,2023-01-13,1,,,,,イソギケン,0
1602,5060003004376,新規,0,2023-01-13,2023-01-13,合同会社高山信夫,00129057,合同会社,栃木県,下野市,薬師寺１９５３番地,,09,216,3290431,,,,,,,2023-01-13,1,,,,,タカヤマノブオ,0
1608,5080001025406,新規,0,2023-01-13,2023-01-13,株式会社インテーク,,株式会社,静岡県,静岡市葵区,七間町１４番地の１ザエンブル七間町１４０１,,22,101,4200035,,,,,,,2023-01-13,1,,,,,インテーク,0
1609,5080003002923,新規,0,2023-01-13,2023-01-13,合同会社ＴＴＫ,,合同会社,静岡県,静岡市駿河区,谷田１番１号,,22,102,4228002,,,,,,,2023-01-13,1,,,,,ティーティーケイ,0
1612,5080103002724,新規,0,2023-01-13,2023-01-13,三江合同会社,,合同会社,静岡県,富士市,青島町３５番地,,22,210,4170047,,,,,,,2023-01-13,1,,,,,ミエ,0
1615,5090003002229,新規,0,2023-01-13,2023-01-13,合同会社オフィースクリム,,合同会社,山梨県,富士吉田市,松山１丁目６番３号,,19,202,4030016,,,,,,,2023-01-13,1,,,,,,0
1619,5100001036045,新規,0,2023-01-13,2023-01-13,株式会社Ｌｉｅｎ,,株式会社,長野県,中野市,大字江部１１２５番地,,20,211,3830045,,,,,,,2023-01-13,1,,,,,リアン,0
1621,5100003006839,新規,0,2023-01-13,2023-01-13,合同会社アイズエアシステム,,合同会社,長野県,松本市,大字島内５５２３番地９,,20,202,3900851,,,,,,,2023-01-13,1,,,,,アイズエアシステム,0
1622,5100005012959,新規,0,2023-01-13,2023-01-13,一般社団法人デザインファーム信州,,その他の設立登記法人,長野県,長野市,篠ノ井布施高田１００６番地９,,20,201,3888007,,,,,,,2023-01-13,1,,,,,デザインファームシンシュウ,0
1623,5110001037216,新規,0,2023-01-13,2023-01-13,株式会社Ｌｉ　Ｗｏｒｋ,,株式会社,新潟県,長岡市,金房３丁目１０番１２号,,15,202,9400045,,,,,,,2023-01-13,1,,,,,リワーク,0
1624,5110001037240,新規,0,2023-01-13,2023-01-13,株式会社熊建設,,株式会社,新潟県,新発田市,東新町４丁目６番１４号９,,15,206,9570015,,,,,,,2023-01-13,1,,,,,クマケンセツ,0
1629,5120001251575,新規,0,2023-01-13,2023-01-13,株式会社にしで設計工務,,株式会社,大阪府,交野市,天野が原町１丁目３５番１９号,,27,230,5760034,,,,,,,2023-01-13,1,,,,,ニシデセッケイコウム,0
1630,5120001251633,新規,0,2023-01-13,2023-01-13,株式会社ＺＥＲＯ　ＯＮＥ,,株式会社,大阪府,大阪市中央区,北久宝寺町３丁目５番１２号御堂筋本町アーバンビル４階,,27,128,5410057,,,,,,,2023-01-13,1,,,,,ゼロワン,0
1631,5120001251666,新規,0,2023-01-13,2023-01-13,天隆株式会社,,株式会社,大阪府,大阪市西区,江之子島１丁目８番２０号５Ｆ,,27,106,5500006,,,,,,,2023-01-13,1,,,,,テンリュウ,0
1632,5120001251708,新規,0,2023-01-13,2023-01-13,株式会社Ｔｉｏ建築デザイン,,株式会社,大阪府,大阪市中央区,玉造２丁目２５番１号アバンティオ玉造２階,,27,128,5400004,,,,,,,2023-01-13,1,,,,,ティオケンチクデザイン,0
1634,5120003023238,新規,0,2023-01-13,2023-01-13,合同会社三協舎,,合同会社,大阪府,大阪市西淀川区,姫島５丁目１番１０号,,27,113,5550033,,,,,,,2023-01-13,1,,,,,サンキョウシャ,0
1635,5120003023246,新規,0,2023-01-13,2023-01-13,合同会社ミニマム,,合同会社,大阪府,大阪市福島区,福島６丁目１１番１－２０１号,,27,103,5530003,,,,,,,2023-01-13,1,,,,,ミニマム,0
1637,5120101066774,新規,0,2023-01-13,2023-01-13,株式会社ビバテック,,株式会社,大阪府,堺市中区,深井畑山町２３６番地８,,27,142,5998248,,,,,,,2023-01-13,1,,,,,ビバテック,0
1638,5120101066832,新規,0,2023-01-13,2023-01-13,株式会社伸和,,株式会社,大阪府,藤井寺市,東藤井寺町１番３３号,,27,226,5830022,,,,,,,2023-01-13,1,,,,,シンワ,0
1645,5120105009663,新規,0,2023-01-13,2023-01-13,一般社団法人わとせん,,その他の設立登記法人,大阪府,堺市南区,槇塚台３丁９番２号,,27,145,5900114,,,,,,,2023-01-13,1,,,,,ワトセン,0
1646,5120901046983,新規,0,2023-01-13,2023-01-13,株式会社コージーマネジメント,,株式会社,大阪府,茨木市,南春日丘２丁目７番１６号,,27,211,5670046,,,,,,,2023-01-13,1,,,,,コージーマネジメント,0
1647,5120901046991,新規,0,2023-01-13,2023-01-13,ウエルアップ株式会社,,株式会社,大阪府,豊中市,上新田４丁目３０番１２－３０８号,,27,203,5600085,,,,,,,2023-01-13,1,,,,,ウエルアップ,0
1651,5130001073408,新規,0,2023-01-13,2023-01-13,株式会社横山建設,,株式会社,京都府,綾部市,西町２丁目５３番地,,26,203,6230016,,,,,,,2023-01-13,1,,,,,ヨコヤマケンセツ,0
1652,5130001073424,新規,0,2023-01-13,2023-01-13,株式会社ＡＳＩＲＡ,,株式会社,京都府,京都市東山区,白川筋三条下る梅宮町４８５番地５パークハウス１０８,,26,105,6050061,,,,,,,2023-01-13,1,,,,,アシラ,0
1653,5130001073457,新規,0,2023-01-13,2023-01-13,株式会社芳泉コーポレーション,,株式会社,京都府,京都市右京区,御室小松野町１６番地２,,26,108,6168094,,,,,,,2023-01-13,1,,,,,ホウセンコーポレーション,0
1654,5130001073465,新規,0,2023-01-13,2023-01-13,株式会社山杜,,株式会社,京都府,向日市,寺戸町向畑２０番地の７８,,26,208,6170002,,,,,,,2023-01-13,1,,,,,ヤマト,0
1656,5130003008436,新規,0,2023-01-13,2023-01-13,Ｓｉｆａ合同会社,,合同会社,京都府,京田辺市,薪長尾谷５２－３７,,26,211,6100341,,,,,,,2023-01-13,1,,,,,シーファ,0
1659,5140001128689,新規,0,2023-01-13,2023-01-13,株式会社ヤマナカ空調,,株式会社,兵庫県,丹波市,春日町朝日１２５５番地３７,,28,223,6693411,,,,,,,2023-01-13,1,,,,,ヤマナカクウチョウ,0
1662,5140003018558,新規,0,2023-01-13,2023-01-13,合同会社かいじゅうプラン,,合同会社,兵庫県,神戸市灘区,永手町５丁目８－６,,28,102,6570027,,,,,,,2023-01-13,1,,,,,カイジュウプラン,0
1663,5140003018599,新規,0,2023-01-13,2023-01-13,合同会社オフィス藤井,,合同会社,兵庫県,南あわじ市,市福永５６３－２２,,28,224,6560478,,,,,,,2023-01-13,1,,,,,オフィスフジイ,0
1667,5150001026090,新規,0,2023-01-13,2023-01-13,コーラル株式会社,,株式会社,奈良県,北葛城郡広陵町,馬見南４丁目１番５－１４号,,29,426,6350833,,,,,,,2023-01-13,1,,,,,コーラル,0
1669,5160001024762,新規,0,2023-01-13,2023-01-13,株式会社Ｖｅｇｇｉｃａｌ　ｆａｒｍ,,株式会社,滋賀県,野洲市,栄４３番１３号,,25,210,5202333,,,,,,,2023-01-13,1,,,,,ベジカルファーム,0
1678,5180001154376,新規,0,2023-01-13,2023-01-13,株式会社ＲＥＥＦ,,株式会社,愛知県,名古屋市西区,上小田井１丁目３２５番地,,23,104,4520821,,,,,,,2023-01-13,1,,,,,リーフ,0
1679,5180001154500,新規,0,2023-01-13,2023-01-13,ウィステリア株式会社,,株式会社,愛知県,名古屋市昭和区,鶴舞２丁目７番１７号オリエンタルハイツ鶴舞１Ｂ号室,,23,107,4660064,,,,,,,2023-01-13,1,,,,,ウィステリア,0
1680,5180001154509,新規,0,2023-01-13,2023-01-13,株式会社ＴＲＥＵ,,株式会社,愛知県,津島市,百島町字中割２番地１ＫＡＷＡＮＯビル２階,,23,208,4960019,,,,,,,2023-01-13,1,,,,,トロイ,0
1681,5180001154525,新規,0,2023-01-13,2023-01-13,株式会社トヤマ,,株式会社,愛知県,名古屋市千種区,本山町２丁目３番地の１,,23,101,4640036,,,,,,,2023-01-13,1,,,,,トヤマ,0
1682,5180001154533,新規,0,2023-01-13,2023-01-13,ラピス株式会社,,株式会社,愛知県,津島市,白浜町字小新開２１番地,,23,208,4960016,,,,,,,2023-01-13,1,,,,,ラピス,0
1683,5180001154566,新規,0,2023-01-13,2023-01-13,株式会社ＨＹＵＧＡ,,株式会社,愛知県,名古屋市西区,幅下１丁目１０番１６号,,23,104,4510041,,,,,,,2023-01-13,1,,,,,ヒューガ,0
1691,5180301036984,新規,0,2023-01-13,2023-01-13,株式会社ＮＯＭＵＲＡ　ＨＵＭＡＮ　ＡＧＥＮＣＹ,,株式会社,愛知県,安城市,今池町１丁目２２番１０号,,23,212,4460071,,,,,,,2023-01-13,1,,,,,ノムラヒューマンエージェンシー,0
1707,5200003005797,新規,0,2023-01-13,2023-01-13,合同会社ライティ,,合同会社,岐阜県,可児市,皐ケ丘８丁目１６８,,21,214,5090236,,,,,,,2023-01-13,1,,,,,ライティ,0
1713,5200005013435,新規,0,2023-01-13,2023-01-13,一般社団法人バリーズ,,その他の設立登記法人,岐阜県,各務原市,川島河田町４９８番地,,21,213,5016025,,,,,,,2023-01-13,1,,,,,バリーズ,0
1737,5290001100154,新規,0,2023-01-13,2023-01-13,ＭＩＲＡＩコンサルティング株式会社,,株式会社,福岡県,飯塚市,花瀬１１番地１,,40,205,8200045,,,,,,,2023-01-13,1,,,,,ミライコンサルティング,0
1738,5290001100162,新規,0,2023-01-13,2023-01-13,後藤運送株式会社,,株式会社,福岡県,太宰府市,五条４丁目１３番１号,,40,221,8180125,,,,,,,2023-01-13,1,,,,,ゴトウウンソウ,0
1739,5290001100179,新規,0,2023-01-13,2023-01-13,株式会社ＬＩＦＡＣＴ,,株式会社,福岡県,久留米市,上津２丁目２０番２－６０３号,,40,203,8300055,,,,,,,2023-01-13,1,,,,,リファクト,0
1740,5290001100187,新規,0,2023-01-13,2023-01-13,株式会社Ｔｏｂｉｒｒａ,,株式会社,福岡県,福岡市東区,水谷３丁目２５番１３号,,40,131,8130041,,,,,,,2023-01-13,1,,,,,トビラ,0
1741,5290001100195,新規,0,2023-01-13,2023-01-13,株式会社ビーエフエフ,,株式会社,福岡県,久留米市,東町１番地８,,40,203,8300032,,,,,,,2023-01-13,1,,,,,ビーエフエフ,0
1742,5290001100229,新規,0,2023-01-13,2023-01-13,株式会社ワンダフル観光,,株式会社,福岡県,福岡市南区,若久６丁目３３番１４号,,40,134,8150042,,,,,,,2023-01-13,1,,,,,ワンダフルカンコウ,0
1743,5290003013395,新規,0,2023-01-13,2023-01-13,合同会社ガーベラ,,合同会社,福岡県,福岡市中央区,大宮１丁目１番２６号,,40,133,8100013,,,,,,,2023-01-13,1,,,,,ガーベラ,0
1744,5290003013404,新規,0,2023-01-13,2023-01-13,Ａｉｎａａｍ合同会社,,合同会社,福岡県,福岡市中央区,長浜１丁目３番２５－９１１号オーベルウェルス天神,,40,133,8100072,,,,,,,2023-01-13,1,,,,,アイナーム,0
1745,5290003013412,新規,0,2023-01-13,2023-01-13,合同会社ＳＰＯＲＯ,,合同会社,福岡県,福岡市中央区,天神４丁目６番２８号天神ファーストビル７階,,40,133,8100001,,,,,,,2023-01-13,1,,,,,スポロ,0
1747,5290005018913,新規,0,2023-01-13,2023-01-13,医療法人環栄会南條内科,,その他の設立登記法人,福岡県,福岡市早良区,野芥７丁目１７番２１号,,40,137,8140171,,,,,,,2023-01-13,1,,,,,カンエイカイナンジョウナイカ,0
1751,5300001013189,新規,0,2023-01-13,2023-01-13,ポラテック九州株式会社,,株式会社,佐賀県,唐津市,佐志浜町４５２５番地４,,41,202,8470115,,,,,,,2023-01-13,1,,,,,ポラテックキュウシュウ,0
1760,5330001030462,新規,0,2023-01-13,2023-01-13,株式会社ＮＥＷＭＯＲＥ,,株式会社,熊本県,熊本市北区,龍田弓削１丁目１６番９３号,,43,105,8618007,,,,,,,2023-01-13,1,,,,,ニューモア,0
1761,5330001030487,新規,0,2023-01-13,2023-01-13,株式会社ＩＣ企画,,株式会社,熊本県,熊本市南区,田井島３丁目１４番３３号リラ３０３号,,43,104,8620965,,,,,,,2023-01-13,1,,,,,アイシーキカク,0
1762,5330001030504,新規,0,2023-01-13,2023-01-13,株式会社縁グループ,,株式会社,熊本県,山鹿市,津留３３０８番地１,,43,208,8610551,,,,,,,2023-01-13,1,,,,,エニシグループ,0
1767,5350003004264,新規,0,2023-01-13,2023-01-13,合同会社黒田総建,,合同会社,宮崎県,宮崎市,祇園４丁目９５番地１ソラーナぎおんＣ棟１０１号,,45,201,8800024,,,,,,,2023-01-13,1,,,,,クロダソウケン,0
1769,5360001031441,新規,0,2023-01-13,2023-01-13,株式会社笑コネクト,,株式会社,沖縄県,中頭郡北谷町,字北前２４７番地－３０１,,47,326,9040117,,,,,,,2023-01-13,1,,,,,ショウコネクト,0
1780,5380001033411,新規,0,2023-01-13,2023-01-13,株式会社Ｓｍｉｌｅ　Ｃｒｅａｔｅ,,株式会社,福島県,西白河郡西郷村,大字小田倉字大平２２９番地８,,07,461,9618061,,,,,,,2023-01-13,1,,,,,スマイルクリエイト,0
1790,5420001018127,新規,0,2023-01-13,2023-01-13,青森福祉バンク株式会社,,株式会社,青森県,青森市,古川１丁目８－２倉内ビル３階,,02,201,0300862,,,,,,,2023-01-13,1,,,,,アオモリフクシバンク,0
1796,5430003014643,新規,0,2023-01-13,2023-01-13,スチールライフ合同会社,,合同会社,北海道,札幌市白石区,栄通１５丁目７番２０－３号室,,01,104,0030021,,,,,,,2023-01-13,1,,,,,スチールライフ,0
1798,5450001013884,新規,0,2023-01-13,2023-01-13,株式会社ヴォルフェ,,株式会社,北海道,上川郡比布町,北２線八号Ｖｉｌｌａｇｅ　ｂｙ　ＶＯＲＥＡＳ　ｐｉｐｐｕ　ｂａｓｅ,,01,455,0780322,,,,,,,2023-01-13,1,,,,,ヴォルフェ,0
1802,5460105002254,新規,0,2023-01-13,2023-01-13,社会保険労務士法人土田陽子事務所,,その他の設立登記法人,北海道,帯広市,西十五条南１４丁目１番地,,01,207,0800025,,,,,,,2023-01-13,1,,,,,ツチダヨウコジムショ,0
1805,5480001011976,新規,0,2023-01-13,2023-01-13,株式会社藍羽,,株式会社,徳島県,那賀郡那賀町,中山字孫の７番地１,,36,368,7715204,,,,,,,2023-01-13,1,,,,,アイバ,0
1807,5490003001727,新規,0,2023-01-13,2023-01-13,合同会社ＹＵＥＮ,,合同会社,高知県,高岡郡中土佐町,大野見奈路４７２,,39,401,7891404,,,,,,,2023-01-13,1,,,,,ユエン,0
1810,5700150113708,新規,0,2023-01-13,2023-01-13,北京奕斯偉計算技術股ｆｅｎ有限公司,,外国会社等,,,,,,,,北京市経済技術開発区科創十街１８号院３号楼１階１０１室,,,,,,2023-01-13,1,,,,,ペキンイシウエンケイサンギジユツカブシキガイシヤ,0
1818,6010001232098,新規,0,2023-01-13,2023-01-13,株式会社Ｖｏｙａｇｅｒ,,株式会社,東京都,中央区,銀座１丁目１２番４号Ｎ＆ＥＢＬＤ．７階,,13,102,1040061,,,,,,,2023-01-13,1,,,,,ボイジャー,0
1819,6010001232107,新規,0,2023-01-13,2023-01-13,クラスアース株式会社,,株式会社,東京都,中央区,銀座７丁目１３番２０号銀座ＴＨビル９階,,13,102,1040061,,,,,,,2023-01-13,1,,,,,クラスアース,0
1820,6010001232115,新規,0,2023-01-13,2023-01-13,ＣｌｏｕｄＢｙｔｅ株式会社,,株式会社,東京都,千代田区,神田岩本町１番地岩本町ビル,,13,101,1010033,,,,,,,2023-01-13,1,,,,,クラウドバイト,0
1821,6010001232180,新規,0,2023-01-13,2023-01-13,株式会社ｐａｎｔｅｒａ,,株式会社,東京都,中央区,日本橋久松町６番９号ＡＳＯＮＥ日本橋Ｅａｓｔ６０２室,,13,102,1030005,,,,,,,2023-01-13,1,,,,,パンテラ,0
1823,6010003039533,新規,0,2023-01-13,2023-01-13,合同会社ＹＩｎＭｎ,,合同会社,東京都,千代田区,神田和泉町一丁目６番１６号ヤマトビル４０５,,13,101,1010024,,,,,,,2023-01-13,1,,,,,インミン,0
1824,6010003039582,新規,0,2023-01-13,2023-01-13,合同会社ソーシャルライト,,合同会社,東京都,中央区,東日本橋２丁目５－５レオーネ東日本橋駅前ＩＩ６０１号,00129059,13,102,1030004,,,,,,,2023-01-13,1,,,,,ソーシャルライト,0
1830,6010401171755,新規,0,2023-01-13,2023-01-13,Ｊｏｙ　Ａｃｔ　Ｍａｎａｇｅｍｅｎｔ株式会社,,株式会社,東京都,港区,南青山４丁目９番６号ラポール南青山３０１,,13,103,1070062,,,,,,,2023-01-13,1,,,,,ジョイアクトマネジメント,0
1831,6010401171763,新規,0,2023-01-13,2023-01-13,ＰｒｏｄｕｃｔＩｎ株式会社,,株式会社,東京都,港区,北青山２丁目１２番８号,,13,103,1070061,,,,,,,2023-01-13,1,,,,,プロダクトイン,0
1832,6010401171821,新規,0,2023-01-13,2023-01-13,Ｎ．Ｋ．ナーツ株式会社,,株式会社,東京都,港区,赤坂４丁目８番１９号赤坂フロントタウン３階,,13,103,1070052,,,,,,,2023-01-13,1,,,,,エヌケーナーツ,0
1833,6010401171854,新規,0,2023-01-13,2023-01-13,株式会社ＴＴホールディングス,,株式会社,東京都,港区,虎ノ門１丁目２３番１号ジャフコグループ株式会社内,,13,103,1050001,,,,,,,2023-01-13,1,,,,,ティーティーホールディングス,0
1834,6010403029266,新規,0,2023-01-13,2023-01-13,合同会社ＧＫ０６３,,合同会社,東京都,港区,虎ノ門３丁目２２番１０－２０１号,,13,103,1050001,,,,,,,2023-01-13,1,,,,,ジーケイゼロシックススリー,0
1835,6010403029290,新規,0,2023-01-13,2023-01-13,合同会社アネシス,,合同会社,東京都,港区,新橋２丁目２０番１５号,,13,103,1050004,,,,,,,2023-01-13,1,,,,,アネシス,0
1839,6010405021691,新規,0,2023-01-13,2023-01-13,一般社団法人日本ＳＤ共生振興会,,その他の設立登記法人,東京都,港区,海岸１丁目２－２０汐留ビル３Ｆ,,13,103,1050022,,,,,,,2023-01-13,1,,,,,ニホンエスディーキョウセイシンコウカイ,0
1847,6010703006519,新規,0,2023-01-13,2023-01-13,テクニカル・ファーム合同会社,,合同会社,東京都,品川区,西五反田８丁目２－１２,,13,109,1410031,,,,,,,2023-01-13,1,,,,,テクニカルファーム,0
1848,6010801033588,新規,0,2023-01-13,2023-01-13,株式会社絲,,株式会社,東京都,大田区,池上１丁目２２番２１号,,13,111,1460082,,,,,,,2023-01-13,1,,,,,イト,0
1851,6010901052307,新規,0,2023-01-13,2023-01-13,株式会社Ｐｅｒｅｎｎｅｓ,,株式会社,東京都,世田谷区,世田谷１丁目２２番５号山一ビル２Ａ－１,,13,112,1540017,,,,,,,2023-01-13,1,,,,,ペレン,0
1852,6010901052331,新規,0,2023-01-13,2023-01-13,カルムインセンス株式会社,,株式会社,東京都,世田谷区,下馬１丁目６番１２号,,13,112,1540002,,,,,,,2023-01-13,1,,,,,カルムインセンス,0
1853,6010903007886,新規,0,2023-01-13,2023-01-13,合同会社ＳＡＮＰＯ,,合同会社,東京都,世田谷区,北沢２丁目１０番１５号マルシェ下北沢２階２０２Ｃ号室,,13,112,1550031,,,,,,,2023-01-13,1,,,,,サンポ,0
1872,6011101101440,新規,0,2023-01-13,2023-01-13,株式会社Ｊａｒｍｉｎａｌ,,株式会社,東京都,新宿区,富久町１５－１－３８０７,,13,104,1620067,,,,,,,2023-01-13,1,,,,,ジャーミナル,0
1873,6011101101449,新規,0,2023-01-13,2023-01-13,株式会社Ａｃｒｏｓｓ　Ｄｉｇｉｔａｌ,,株式会社,東京都,新宿区,岩戸町２６番地１コンフォリア神楽坂６０１,,13,104,1620832,,,,,,,2023-01-13,1,,,,,アクロスデジタル,0
1874,6011101101457,新規,0,2023-01-13,2023-01-13,株式会社ＭａｓＴａｇ,,株式会社,東京都,新宿区,西新宿７丁目５－９ファーストリアルタワー新宿９１３号室,,13,104,1600023,,,,,,,2023-01-13,1,,,,,マスタグ,0
1875,6011101101465,新規,0,2023-01-13,2023-01-13,株式会社フランクス,,株式会社,東京都,新宿区,西早稲田２丁目２０番１２号,,13,104,1690051,,,,,,,2023-01-13,1,,,,,フランクス,0
1877,6011105010514,新規,0,2023-01-13,2023-01-13,一般社団法人Ｌｅｖｅｌ９Ｃｏａｃｈｉｎｇ,,その他の設立登記法人,東京都,新宿区,西新宿６丁目１２番７号ストーク新宿１階Ｃ－１４,,13,104,1600023,,,,,,,2023-01-13,1,,,,,レベルナインコーチング,0
1885,6011501028829,新規,0,2023-01-13,2023-01-13,株式会社トリプルワン,,株式会社,東京都,北区,赤羽西４丁目４４番１０号,,13,117,1150055,,,,,,,2023-01-13,1,,,,,トリプルワン,0
1886,6011503005421,新規,0,2023-01-13,2023-01-13,ラットラン合同会社,,合同会社,東京都,北区,王子５丁目１番３３－６０４号,,13,117,1140002,,,,,,,2023-01-13,1,,,,,ラットラン,0
1893,6011801041787,新規,0,2023-01-13,2023-01-13,株式会社渡辺ホームデザイン,,株式会社,東京都,足立区,梅島２丁目２９番３号,,13,121,1210816,,,,,,,2023-01-13,1,,,,,ワタナベホームデザイン,0
1895,6012701017431,新規,0,2023-01-13,2023-01-13,株式会社ＡＬＧＡＲＡ,,株式会社,東京都,東村山市,久米川町２丁目２７番地１７,,13,213,1890003,,,,,,,2023-01-13,1,,,,,アルガラ,0
1897,6012801022059,新規,0,2023-01-13,2023-01-13,ＲＩＳＥ　ＳＵＲＶＥＹ株式会社,,株式会社,東京都,立川市,柴崎町１丁目１３番１０号,,13,202,1900023,,,,,,,2023-01-13,1,,,,,ライズサーヴェイ,0
1903,6013301050161,新規,0,2023-01-13,2023-01-13,株式会社ＹＯＳＨＩ,,株式会社,東京都,豊島区,東池袋１丁目４０番１号５Ｆ,,13,116,1700013,,,,,,,2023-01-13,1,,,,,ヨシ,0
1910,6020001149746,新規,0,2023-01-13,2023-01-13,株式会社Ｏｅｓｔ,,株式会社,神奈川県,横浜市神奈川区,白楽１８番５号ＣＫ白楽Ｂ,,14,102,2210065,,,,,,,2023-01-13,1,,,,,オエスト,0
1911,6020001149787,新規,0,2023-01-13,2023-01-13,ＣＯＮＯｉＴＯ株式会社,,株式会社,神奈川県,横浜市鶴見区,鶴見中央１丁目３１番２２－２５１１号,,14,101,2300051,,,,,,,2023-01-13,1,,,,,コノイト,0
1912,6020001149804,新規,0,2023-01-13,2023-01-13,株式会社ＩＳＰ,,株式会社,神奈川県,川崎市多摩区,菅６丁目１０番１９－４０４号,,14,135,2140001,,,,,,,2023-01-13,1,,,,,アイエスピー,0
1913,6020001149812,新規,0,2023-01-13,2023-01-13,株式会社ＦＥＮＳＴＥＲ,,株式会社,神奈川県,横浜市緑区,長津田みなみ台６丁目８番地１１,,14,113,2260018,,,,,,,2023-01-13,1,,,,,フェンスター,0
1914,6020001149845,新規,0,2023-01-13,2023-01-13,株式会社ＣＵＯＲＥ,,株式会社,神奈川県,横浜市金沢区,富岡西４丁目３３番１０号,,14,108,2360052,,,,,,,2023-01-13,1,,,,,クオレ,0
1919,6020003023065,新規,0,2023-01-13,2023-01-13,ＳＩインベストメント合同会社,,合同会社,神奈川県,横浜市神奈川区,金港町２番地１,,14,102,2210056,,,,,,,2023-01-13,1,,,,,エスアイインベストメント,0
1920,6020003023081,新規,0,2023-01-13,2023-01-13,Ｅｄｇｅ　Ｇｒｏｗｔｈ合同会社,,合同会社,神奈川県,横浜市中区,桜木町１丁目１０１番地１クロスゲート７階,,14,104,2310062,,,,,,,2023-01-13,1,,,,,エッジグロース,0
1921,6020003023115,新規,0,2023-01-13,2023-01-13,合同会社アルペジオ,,合同会社,神奈川県,川崎市中原区,今井上町５番２３－５０８号,,14,133,2110067,,,,,,,2023-01-13,1,,,,,アルペジオ,0
1923,6020005015804,新規,0,2023-01-13,2023-01-13,土地家屋調査士法人小原事務所,,その他の設立登記法人,神奈川県,横浜市神奈川区,富家町１番地１３スカイハイツトーカイ８０４号,,14,102,2210821,,,,,,,2023-01-13,1,,,,,オハラジムショ,0
1924,6021001077920,新規,0,2023-01-13,2023-01-13,フジヤマスタジオ株式会社,,株式会社,神奈川県,相模原市南区,上鶴間５丁目６番３号,,14,153,2520302,,,,,,,2023-01-13,1,,,,,フジヤマスタジオ,0
1925,6021001077929,新規,0,2023-01-13,2023-01-13,株式会社根府川鷹の巣農園,,株式会社,神奈川県,小田原市,曽我光海２３番地の１,,14,206,2500207,,,,,,,2023-01-13,1,,,,,ネブカワタカノスノウエン,0
1926,6021001077937,新規,0,2023-01-13,2023-01-13,株式会社カネコ,,株式会社,神奈川県,大和市,深見台４丁目１４番６号,,14,213,2420013,,,,,,,2023-01-13,1,,,,,カネコ,0
1943,6040001126561,新規,0,2023-01-13,2023-01-13,ひろ建築株式会社,,株式会社,千葉県,木更津市,江川８９２番地,,12,206,2920063,,,,,,,2023-01-13,1,,,,,ヒロケンチク,0
1949,6040003021653,新規,0,2023-01-13,2023-01-13,ＲＫ合同会社,,合同会社,千葉県,船橋市,みやぎ台２丁目１８番７号,,12,204,2740804,,,,,,,2023-01-13,1,,,,,アールケイ,0
1957,6050001052237,新規,0,2023-01-13,2023-01-13,株式会社ＮＥＸ　ＣＬＥＡＮ,,株式会社,茨城県,下妻市,鎌庭２５２番地１,,08,210,3040819,,,,,,,2023-01-13,1,,,,,ネクスクリーン,0
1958,6050001052245,新規,0,2023-01-13,2023-01-13,株式会社トライロジック,,株式会社,茨城県,取手市,東６丁目５４番４号,,08,217,3020005,,,,,,,2023-01-13,1,,,,,トライロジック,0
1963,6060001035612,新規,0,2023-01-13,2023-01-13,株式会社Ｔ＆Ｃ,,株式会社,栃木県,鹿沼市,松原４丁目４番地,,09,205,3220012,,,,,,,2023-01-13,1,,,,,ティーアンドシー,0
1969,6070001040009,新規,0,2023-01-13,2023-01-13,群栄建設株式会社,,株式会社,群馬県,高崎市,上佐野町５６８番地６,,10,202,3700857,,,,,,,2023-01-13,1,,,,,グンエイケンセツ,0
1970,6070001040017,新規,0,2023-01-13,2023-01-13,旭商事株式会社,,株式会社,群馬県,太田市,南矢島町８９９番地１,,10,205,3730861,,,,,,,2023-01-13,1,,,,,アサヒショウジ,0
1971,6070002037755,新規,0,2023-01-13,2023-01-13,有限会社ホテルキャニオン,,有限会社,群馬県,利根郡みなかみ町,小仁田５５８番地,,10,449,3791615,,,,,,,2023-01-13,1,,,,,ホテルキャニオン,0
1977,6100001036044,新規,0,2023-01-13,2023-01-13,株式会社ＵＮＴＡＭＥＤ　ＧＯＲＩＬＬＡ,,株式会社,長野県,佐久市,野沢３９２－６,,20,217,3850053,,,,,,,2023-01-13,1,,,,,アンテイムドゴリラ,0
1994,6120001251657,新規,0,2023-01-13,2023-01-13,株式会社ｌｅｂｌｏｖｅ,,株式会社,大阪府,寝屋川市,緑町３０番８号,,27,215,5720022,,,,,,,2023-01-13,1,,,,,リブロブ,0
1995,6120001251756,新規,0,2023-01-13,2023-01-13,アールウィズエイチ株式会社,,株式会社,大阪府,大阪市中央区,上町Ａ番１０－４０１号,,27,128,5400005,,,,,,,2023-01-13,1,,,,,アールウィズエイチ,0
1996,6120001251764,新規,0,2023-01-13,2023-01-13,株式会社ＡＤＢＬＵＥ．,,株式会社,大阪府,大阪市中央区,平野町２丁目３番７号アーバンエース北浜ビル１階,,27,128,5410046,,,,,,,2023-01-13,1,,,,,アドブルー,0
2003,6120003023245,新規,0,2023-01-13,2023-01-13,合同会社ＨＡＲＵ,,合同会社,大阪府,大阪市生野区,新今里６丁目３番８号,,27,116,5440001,,,,,,,2023-01-13,1,,,,,ハル,0
2008,6120103005028,新規,0,2023-01-13,2023-01-13,合同会社まる市,,合同会社,大阪府,河内長野市,緑ケ丘北町３－２３,,27,216,5860081,,,,,,,2023-01-13,1,,,,,マルイチ,0
2012,6122001036583,新規,0,2023-01-13,2023-01-13,株式会社高村計測,00129046,株式会社,大阪府,東大阪市,出雲井町６番２４号Ｅ１０２号,,27,227,5798033,,,,,,,2023-01-13,1,,,,,,0
2015,6130001073381,新規,0,2023-01-13,2023-01-13,株式会社わさん,,株式会社,京都府,京都市中京区,聚楽廻松下町２－９,,26,104,6048401,,,,,,,2023-01-13,1,,,,,ワサン,0
2016,6130001073464,新規,0,2023-01-13,2023-01-13,株式会社ＣＡＴＯシステムズ,,株式会社,京都府,京都市北区,平野鳥居前町４３－２０１,,26,101,6038321,,,,,,,2023-01-13,1,,,,,シーエーティーオーシステムズ,0
2017,6130001073472,新規,0,2023-01-13,2023-01-13,株式会社ボヌール,,株式会社,京都府,京都市下京区,西洞院通五条上る八幡町５２７番地１フォルム五条西洞院３０５,,26,106,6008455,,,,,,,2023-01-13,1,,,,,ボヌール,0
2018,6130001073480,新規,0,2023-01-13,2023-01-13,株式会社ぐるぐるファーム,,株式会社,京都府,京都市山科区,音羽役出町３７番地２０,,26,110,6078076,,,,,,,2023-01-13,1,,,,,グルグルファーム,0
2026,6140001128622,新規,0,2023-01-13,2023-01-13,株式会社ブルーバランス,,株式会社,兵庫県,神戸市長田区,東尻池町６丁目１－９－２,,28,106,6530022,,,,,,,2023-01-13,1,,,,,ブルーバランス,0
2027,6140001128688,新規,0,2023-01-13,2023-01-13,株式会社森川工務店,,株式会社,兵庫県,神戸市垂水区,下畑町９１０番地,,28,108,6550861,,,,,,,2023-01-13,1,,,,,モリカワコウムテン,0
2030,6140003018557,新規,0,2023-01-13,2023-01-13,オスカー合同会社,,合同会社,兵庫県,川辺郡猪名川町,松尾台４丁目６番地１５８,,28,301,6660261,,,,,,,2023-01-13,1,,,,,オスカー,0
2034,6150001026081,新規,0,2023-01-13,2023-01-13,株式会社西内装,,株式会社,奈良県,生駒市,南田原町１９５５番地１,,29,209,6300135,,,,,,,2023-01-13,1,,,,,,0
2035,6150003002857,新規,0,2023-01-13,2023-01-13,合同会社ミューズ,,合同会社,奈良県,五條市,野原中４丁目５番地４１号伊谷アパート２Ｆ,,29,207,6370037,,,,,,,2023-01-13,1,,,,,,0
2042,6180001154482,新規,0,2023-01-13,2023-01-13,株式会社ｉｍｐｒｏｖｅ,,株式会社,愛知県,日進市,岩崎台４丁目４０１番地,,23,230,4700135,,,,,,,2023-01-13,1,,,,,インプルーヴ,0
2043,6180001154508,新規,0,2023-01-13,2023-01-13,株式会社メイボックス,,株式会社,愛知県,名古屋市中村区,大秋町２丁目２６番地,,23,105,4530042,,,,,,,2023-01-13,1,,,,,メイボックス,0
2044,6180001154516,新規,0,2023-01-13,2023-01-13,株式会社フォーザディーティー,,株式会社,愛知県,名古屋市天白区,横町１０２番地の１,,23,116,4680054,,,,,,,2023-01-13,1,,,,,フォーザディーティー,0
2045,6180001154532,新規,0,2023-01-13,2023-01-13,株式会社ＴＳＧ,,株式会社,愛知県,名古屋市中村区,五反城町７丁目２７番地,,23,105,4530836,,,,,,,2023-01-13,1,,,,,ティーエスジー,0
2046,6180001154540,新規,0,2023-01-13,2023-01-13,シェアーズ株式会社,,株式会社,愛知県,名古屋市中区,栄５丁目１２番３２号,,23,106,4600008,,,,,,,2023-01-13,1,,,,,シェアーズ,0
2047,6180001154549,新規,0,2023-01-13,2023-01-13,株式会社ＲＥＢＯＯＴ,,株式会社,愛知県,名古屋市北区,大我麻町１７１番地１,,23,103,4620064,,,,,,,2023-01-13,1,,,,,リブート,0
2048,6180001154565,新規,0,2023-01-13,2023-01-13,株式会社ＡＳＷＡ,,株式会社,愛知県,名古屋市中川区,五月通２丁目３７番地黄金ステーションビル５階,,23,110,4540812,,,,,,,2023-01-13,1,,,,,アスワ,0
2049,6180001154581,新規,0,2023-01-13,2023-01-13,株式会社キラッとＪａｐａｎ,,株式会社,愛知県,名古屋市東区,徳川町１０１０番地（三井農林徳川園ハイツ５０１号）,,23,102,4610023,,,,,,,2023-01-13,1,,,,,キラットジャパン,0
2053,6180301036967,新規,0,2023-01-13,2023-01-13,株式会社ＡＢＳＯＲＢ,,株式会社,愛知県,豊田市,市木町５丁目６番地２第２司ビル３０１,,23,211,4710006,,,,,,,2023-01-13,1,,,,,アブソーブ,0
2063,6200001040861,新規,0,2023-01-13,2023-01-13,株式会社ランドマーク,,株式会社,岐阜県,大垣市,和合新町１丁目１番地３０,,21,202,5030801,,,,,,,2023-01-13,1,,,,,ランドマーク,0
2069,6200003005805,新規,0,2023-01-13,2023-01-13,合同会社ＴＯＫＡＩ　ＧＡＬＬＥＲＹ　ＪＡＰＡＮ,,合同会社,岐阜県,下呂市,森１０８９番地１,,21,220,5092202,,,,,,,2023-01-13,1,,,,,トーカイギャラリージャパン,0
2079,6220001025217,新規,0,2023-01-13,2023-01-13,ＨＯＴ株式会社,,株式会社,石川県,加賀市,分校町カ１６３番地,,17,206,9220304,,,,,,,2023-01-13,1,,,,,ホット,0
2083,6240001060955,新規,0,2023-01-13,2023-01-13,株式会社トエルセキュリティ,,株式会社,広島県,広島市安佐北区,可部４丁目１９番６号,,34,106,7310221,,,,,,,2023-01-13,1,,,,,トエルセキュリティ,0
2084,6240001060963,新規,0,2023-01-13,2023-01-13,株式会社Ｋ’ｓプラン,,株式会社,広島県,広島市南区,上東雲町３１番１７号,,34,103,7340021,,,,,,,2023-01-13,1,,,,,ケーズプラン,0
2091,6240005015501,新規,0,2023-01-13,2023-01-13,一般社団法人生きがい,,その他の設立登記法人,広島県,呉市,三条２丁目９番５号,,34,202,7370821,,,,,,,2023-01-13,1,,,,,イキガイ,0
2092,6260001037588,新規,0,2023-01-13,2023-01-13,株式会社Ｃ．Ｌ．Ｂ　ＨＯＭＥ,,株式会社,岡山県,備前市,香登本１００４,,33,211,7050012,,,,,,,2023-01-13,1,,,,,シーエルビーホーム,0
2093,6260005011184,新規,0,2023-01-13,2023-01-13,行政書士法人つじ相続法務事務所,,その他の設立登記法人,岡山県,岡山市南区,西市１４６番地３０,,33,104,7000953,,,,,,,2023-01-13,1,,,,,ツジソウゾクホウムジムショ,0
2099,6290001100153,新規,0,2023-01-13,2023-01-13,株式会社Ｂ．ＣＯＮＥＣＴ,,株式会社,福岡県,福岡市中央区,草香江１丁目４番２５,,40,133,8100045,,,,,,,2023-01-13,1,,,,,ビーコネクト,0
2100,6290001100161,新規,0,2023-01-13,2023-01-13,株式会社懐,,株式会社,福岡県,福岡市中央区,薬院２丁目７番１４－７０５号,,40,133,8100022,,,,,,,2023-01-13,1,,,,,フトコロ,0
2101,6290001100203,新規,0,2023-01-13,2023-01-13,株式会社山口木型,,株式会社,福岡県,柳川市,三橋町中山３４９番地,,40,207,8320811,,,,,,,2023-01-13,1,,,,,ヤマグチキガタ,0
2105,6290003013394,新規,0,2023-01-13,2023-01-13,合同会社ＫＳＴ,,合同会社,福岡県,筑紫野市,天拝坂２丁目３番地５３,,40,217,8180053,,,,,,,2023-01-13,1,,,,,ケイエスティー,0
2109,6300001013188,新規,0,2023-01-13,2023-01-13,株式会社リュウマ工業,,株式会社,佐賀県,伊万里市,大坪町乙１２９７番地４,,41,205,8480022,,,,,,,2023-01-13,1,,,,,リュウマコウギョウ,0
2110,6330001030494,新規,0,2023-01-13,2023-01-13,株式会社ＣＯＯＬ,,株式会社,熊本県,天草市,楠浦町２番地１６,,43,215,8630044,,,,,,,2023-01-13,1,,,,,クール,0
2111,6330003009669,新規,0,2023-01-13,2023-01-13,合同会社Ｋ’ＲＩＳＥ,,合同会社,熊本県,熊本市中央区,出水７丁目８９番３１号,,43,101,8620941,,,,,,,2023-01-13,1,,,,,ケイライズ,0
2112,6330003009677,新規,0,2023-01-13,2023-01-13,合同会社虹霓,,合同会社,熊本県,宇城市,松橋町両仲間１６２５番地,,43,213,8690533,,,,,,,2023-01-13,1,,,,,コウゲイ,0
2113,6340001025295,新規,0,2023-01-13,2023-01-13,株式会社大重畜産,,株式会社,鹿児島県,姶良市,上名１７０番地,,46,225,8995542,,,,,,,2023-01-13,1,,,,,オオシゲチクサン,0
2119,6350003004247,新規,0,2023-01-13,2023-01-13,合同会社ＣＡＮＡＤＡ,,合同会社,宮崎県,都城市,金田町２８８２番地,,45,202,8850001,,,,,,,2023-01-13,1,,,,,カナダ,0
2124,6360001031424,新規,0,2023-01-13,2023-01-13,株式会社ｃｏｎｎｅｃｔ　ａｎｄ　ｃｒｅａｔｅ,,株式会社,沖縄県,那覇市,安謝２丁目２番２号,,47,201,9000003,,,,,,,2023-01-13,1,,,,,コネクトアンドクリエイト,0
2125,6360001031440,新規,0,2023-01-13,2023-01-13,株式会社ズケラン,,株式会社,沖縄県,南城市,大里字高平３９０番地１,,47,215,9011205,,,,,,,2023-01-13,1,,,,,ズケラン,0
2126,6360003012620,新規,0,2023-01-13,2023-01-13,真希工業合同会社,,合同会社,沖縄県,うるま市,字田場２６７番地５,,47,213,9042213,,,,,,,2023-01-13,1,,,,,シンキコウギョウ,0
2127,6360003012653,新規,0,2023-01-13,2023-01-13,合同会社ごきげんファーム,,合同会社,沖縄県,国頭郡東村,字平良伊是名１０２７,,47,303,9051204,,,,,,,2023-01-13,1,,,,,ゴキゲンファーム,0
2134,6370001049481,新規,0,2023-01-13,2023-01-13,株式会社ＤＭＣワークス,,株式会社,宮城県,富谷市,三ノ関太子堂下１６３番地５５,,04,216,9813302,,,,,,,2023-01-13,1,,,,,ディーエムシーワークス,0
2140,6410001013375,新規,0,2023-01-13,2023-01-13,株式会社ウェルスチール信和,,株式会社,秋田県,大館市,柄沢字狐台９８番地１１,,05,204,0170804,,,,,,,2023-01-13,1,,,,,ウェルスチールシンワ,0
2147,6430001088201,新規,0,2023-01-13,2023-01-13,エピファニー株式会社,,株式会社,北海道,札幌市清田区,清田七条３丁目１３番２号,,01,110,0040847,,,,,,,2023-01-13,1,,,,,エピファニー,0
2154,6460101007314,新規,0,2023-01-13,2023-01-13,株式会社近藤工業,,株式会社,北海道,帯広市,東六条南１８丁目３番地２４,,01,207,0800806,,,,,,,2023-01-13,1,,,,,コンドウコウギョウ,0
2158,6490003001726,新規,0,2023-01-13,2023-01-13,合同会社ノイン,,合同会社,高知県,高知市,追手筋１丁目８番１号グリーンパークビル９階東,,39,201,7800842,,,,,,,2023-01-13,1,,,,,ノイン,0
2159,6500001024710,新規,0,2023-01-13,2023-01-13,鈴商株式会社,,株式会社,愛媛県,松山市,湯の山５丁目２番地４,,38,201,7910121,,,,,,,2023-01-13,1,,,,,スズショウ,0
2164,6700150113707,新規,0,2023-01-13,2023-01-13,ＵＣＧＰ　Ｖ（Ｈ），Ｌｔｄ．,,外国会社等,,,,,,,,１９０　Ｅｌｇｉｎ　Ａｖｅｎｕｅ　Ｇｅｏｒｇｅ　Ｔｏｗｎ　Ｇｒａｎｄ　Ｃａｙｍａｎ　ＫＹ１－９００８,,,,,,2023-01-13,1,,,,,ユーシージーピーフアイブエイチリミテツド,0
2179,7010001232114,新規,0,2023-01-13,2023-01-13,株式会社ＭＩＫＩＡ,,株式会社,東京都,文京区,大塚１丁目５番１８号大伴ビル８階,00129050,13,105,1120012,,,,,,,2023-01-13,1,,,,,ミキア,0
2180,7010001232147,新規,0,2023-01-13,2023-01-13,ａｉｆｌｏ株式会社,,株式会社,東京都,千代田区,東神田１丁目３－９,,13,101,1010031,,,,,,,2023-01-13,1,,,,,アイフロー,0
2183,7010003039516,新規,0,2023-01-13,2023-01-13,Ｐｉｅｃｅ合同会社,,合同会社,東京都,中央区,東日本橋２丁目２８番４号日本橋ＣＥＴビル２階,,13,102,1030004,,,,,,,2023-01-13,1,,,,,ピース,0
2184,7010003039540,新規,0,2023-01-13,2023-01-13,ＡＯｊ合同会社,,合同会社,東京都,文京区,千駄木３丁目４４番１０号,,13,105,1130022,,,,,,,2023-01-13,1,,,,,エーオージェイ,0
2185,7010003039573,新規,0,2023-01-13,2023-01-13,合同会社ＺＥＨＰＪ４,,合同会社,東京都,中央区,銀座４丁目６番１号三幸オフィスマネジメント株式会社内,,13,102,1040061,,,,,,,2023-01-13,1,,,,,ゼッチピージェーフォー,0
2193,7010401171762,新規,0,2023-01-13,2023-01-13,株式会社Ｂｅｎｎｅｔ　ＢＷＳ,,株式会社,東京都,港区,南麻布２丁目１３番１８号ピアース南麻布２０８,,13,103,1060047,,,,,,,2023-01-13,1,,,,,ベネットビーダブリューエス,0
2194,7010401171770,新規,0,2023-01-13,2023-01-13,株式会社マインドセット・デザインズ,,株式会社,東京都,港区,南青山２丁目１８番２０号,,13,103,1070062,,,,,,,2023-01-13,1,,,,,マインドセットデザインズ,0
2195,7010401171795,新規,0,2023-01-13,2023-01-13,株式会社ＥＮＯＳＴＥＣＨ,,株式会社,東京都,港区,芝５丁目３６番４号札の辻スクエア９階,00129048,13,103,1080014,,,,,,,2023-01-13,1,,,,,エノステック,0
2196,7010401171804,新規,0,2023-01-13,2023-01-13,株式会社とむとむ,,株式会社,東京都,港区,台場１丁目１番１号シーリアお台場１番街１３１２号室,,13,103,1350091,,,,,,,2023-01-13,1,,,,,トムトム,0
2204,7010501049842,新規,0,2023-01-13,2023-01-13,地域力創造株式会社,,株式会社,東京都,台東区,浅草６丁目１番１６号ＨＡＴＣＨビル,,13,106,1110032,,,,,,,2023-01-13,1,,,,,チイキリョクソウゾウ,0
2208,7010601062423,新規,0,2023-01-13,2023-01-13,株式会社ブラザーフッド商会,,株式会社,東京都,墨田区,業平４丁目３番１９号,,13,107,1300002,,,,,,,2023-01-13,1,,,,,ブラザーフッドショウカイ,0
2209,7010603009942,新規,0,2023-01-13,2023-01-13,合同会社ＴＫコンサルティング,,合同会社,東京都,墨田区,東駒形１丁目１番１０号,,13,107,1300005,,,,,,,2023-01-13,1,,,,,ティーケーコンサルティング,0
2215,7010901052289,新規,0,2023-01-13,2023-01-13,遺品整理むすび株式会社,,株式会社,東京都,世田谷区,宇奈根２丁目３番５号,,13,112,1570068,,,,,,,2023-01-13,1,,,,,イヒンセイリムスビ,0
2216,7010901052297,新規,0,2023-01-13,2023-01-13,株式会社ＲＥＴＯＬＩＳ,,株式会社,東京都,世田谷区,鎌田１丁目３－１,,13,112,1570077,,,,,,,2023-01-13,1,,,,,レトリス,0
2217,7010901052339,新規,0,2023-01-13,2023-01-13,株式会社スリーアローズ,,株式会社,東京都,世田谷区,太子堂５丁目４番１０号フェリシアス太子堂１階,,13,112,1540004,,,,,,,2023-01-13,1,,,,,スリーアローズ,0
2228,7011001151931,新規,0,2023-01-13,2023-01-13,株式会社アークライズ,,株式会社,東京都,渋谷区,神宮前６丁目２３番４号桑野ビル２階,,13,113,1500001,,,,,,,2023-01-13,1,,,,,アークライズ,0
2230,7011003016075,新規,0,2023-01-13,2023-01-13,合同会社海部椿生,,合同会社,東京都,渋谷区,道玄坂１丁目１０番８号渋谷道玄坂東急ビル２Ｆ－Ｃ,,13,113,1500043,,,,,,,2023-01-13,1,,,,,カイフツバキ,0
2233,7011101101456,新規,0,2023-01-13,2023-01-13,ｋａｚａｎ株式会社,,株式会社,東京都,新宿区,神楽坂６丁目８文悠ビル７Ｆ,,13,104,1620825,,,,,,,2023-01-13,1,,,,,カザン,0
2234,7011101101464,新規,0,2023-01-13,2023-01-13,株式会社ｗ．ｓ,,株式会社,東京都,新宿区,赤城下町２９－２,,13,104,1620803,,,,,,,2023-01-13,1,,,,,ダブルエス,0
2237,7011103012560,新規,0,2023-01-13,2023-01-13,千里合同会社,,合同会社,東京都,新宿区,榎町３４－３榎町ビル７階－１室,,13,104,1620806,,,,,,,2023-01-13,1,,,,,センリ,0
2238,7011103012593,新規,0,2023-01-13,2023-01-13,合同会社Ｃｒｅａｔｉｖｅ　ａｎｄ　Ｖｉｓｉｏｎ,,合同会社,東京都,新宿区,西新宿３丁目３番１３号西新宿水間ビル２Ｆ,,13,104,1600023,,,,,,,2023-01-13,1,,,,,クリエイティブアンドビジョン,0
2242,7011403003879,新規,0,2023-01-13,2023-01-13,Ｓ．ＳＡＭＰＥＮＯＮＧ合同会社,,合同会社,東京都,板橋区,南常盤台２丁目３番１０号リヨンドール南常盤台４０１,,13,119,1740072,,,,,,,2023-01-13,1,,,,,エスサームピーノーン,0
2249,7011801041778,新規,0,2023-01-13,2023-01-13,株式会社ＫＪ,,株式会社,東京都,足立区,鹿浜３丁目９番１７号,,13,121,1230864,,,,,,,2023-01-13,1,,,,,ケイジェイ,0
2250,7011801041786,新規,0,2023-01-13,2023-01-13,株式会社藤屋,,株式会社,東京都,足立区,保木間２丁目２６番１号,,13,121,1210064,,,,,,,2023-01-13,1,,,,,フジヤ,0
2255,7012401040071,新規,0,2023-01-13,2023-01-13,株式会社ＭＲＳｗｏｒｋｓ,,株式会社,東京都,武蔵野市,吉祥寺本町４丁目４番１３号,,13,203,1800004,,,,,,,2023-01-13,1,,,,,マーズワークス,0
2261,7012803002966,新規,0,2023-01-13,2023-01-13,エスピーソリューション合同会社,,合同会社,東京都,国分寺市,本町２丁目１４番３号ＩＴプラスビル２階,,13,214,1850012,,,,,,,2023-01-13,1,,,,,エスピーソリューション,0
2263,7013101009101,新規,0,2023-01-13,2023-01-13,株式会社ＫＪＯＯＮＩ．,,株式会社,東京都,福生市,東町２番地７,,13,218,1970021,,,,,,,2023-01-13,1,,,,,クジュニ,0
2269,7013301050185,新規,0,2023-01-13,2023-01-13,ＯＭＯＫＡＧＥ　Ｒ＆Ｃ株式会社,,株式会社,東京都,豊島区,高田１丁目３１番１０号,,13,116,1710033,,,,,,,2023-01-13,1,,,,,オモカゲアールアンドシー,0
2270,7013301050193,新規,0,2023-01-13,2023-01-13,株式会社たなかぐみ,,株式会社,東京都,豊島区,駒込３丁目１－３エコプレイス駒込１階Ｂ－１１８号室,,13,116,1700003,,,,,,,2023-01-13,1,,,,,タナカグミ,0
2278,7020001149794,新規,0,2023-01-13,2023-01-13,株式会社ＹＣ,,株式会社,神奈川県,横浜市旭区,南希望が丘９８番地２,,14,112,2410824,,,,,,,2023-01-13,1,,,,,ワイシー,0
2279,7020001149803,新規,0,2023-01-13,2023-01-13,株式会社Ｎｉｎｅ,,株式会社,神奈川県,横浜市港北区,新横浜２丁目１８－４－１４０５,,14,109,2220033,,,,,,,2023-01-13,1,,,,,ナイン,0
2280,7020001149811,新規,0,2023-01-13,2023-01-13,株式会社ＧａｏＮ,,株式会社,神奈川県,横浜市港北区,新横浜２丁目１４番８号オフィス新横浜７０９,,14,109,2220033,,,,,,,2023-01-13,1,,,,,ガオン,0
2281,7020001149828,新規,0,2023-01-13,2023-01-13,株式会社ジェイサーバイオ,,株式会社,神奈川県,横浜市西区,北幸１丁目１１番１号水信ビル７階,,14,103,2200004,,,,,,,2023-01-13,1,,,,,ジェイサーバイオ,0
2282,7020001149836,新規,0,2023-01-13,2023-01-13,株式会社ウインスマイル,,株式会社,神奈川県,横浜市中区,相生町３丁目６３番地１,,14,104,2310012,,,,,,,2023-01-13,1,,,,,ウインスマイル,0
2286,7020003023031,新規,0,2023-01-13,2023-01-13,合同会社アジア高度人財開発センター,,合同会社,神奈川県,横浜市磯子区,洋光台６丁目３４番３４号プレジール洋光台３０３号,,14,107,2350045,,,,,,,2023-01-13,1,,,,,アジアコウドジンザイカイハツセンター,0
2287,7020003023072,新規,0,2023-01-13,2023-01-13,合同会社高橋笑店,00129039,合同会社,神奈川県,横浜市神奈川区,大口通２８番地２７カーサ・ミウニ１Ｆ,,14,102,2210002,,,,,,,2023-01-13,1,,,,,タカハシショウテン,0
2288,7020003023080,新規,0,2023-01-13,2023-01-13,３ＤハウスＫａｎａｄｅｓｉｇｎ合同会社,,合同会社,神奈川県,横浜市港北区,日吉１丁目１１番１７号,,14,109,2230061,,,,,,,2023-01-13,1,,,,,スリーディーハウスカナデザイン,0
2289,7020003023089,新規,0,2023-01-13,2023-01-13,カードリビング合同会社,,合同会社,神奈川県,川崎市宮前区,南野川２丁目５５番４５－１０１号藤和ライブタウン鷺沼東ステージＩＩ,00129047,14,136,2160042,,,,,,,2023-01-13,1,,,,,カードリビング,0
2290,7020003023097,新規,0,2023-01-13,2023-01-13,合同会社はーとらんど,,合同会社,神奈川県,横浜市中区,麦田町４丁目９６,,14,104,2310849,,,,,,,2023-01-13,1,,,,,ハートランド,0
2291,7020003023106,新規,0,2023-01-13,2023-01-13,８９’ｓ　Ｄｅｓｉｇｎ合同会社,,合同会社,神奈川県,横浜市港北区,日吉７丁目２１番２３－３号,,14,109,2230061,,,,,,,2023-01-13,1,,,,,エイティーナインズデザイン,0
2292,7020005015803,新規,0,2023-01-13,2023-01-13,司法書士法人小原事務所,,その他の設立登記法人,神奈川県,横浜市神奈川区,富家町１番地１３スカイハイツトーカイ８０４号,,14,102,2210821,,,,,,,2023-01-13,1,,,,,オハラジムショ,0
2293,7020005015811,新規,0,2023-01-13,2023-01-13,一般社団法人中小企業事業支援協会,,その他の設立登記法人,神奈川県,横浜市神奈川区,鶴屋町３丁目３０番地１,,14,102,2210835,,,,,,,2023-01-13,1,,,,,チュウショウキギョウジギョウシエンキョウカイ,0
2298,7021003012593,新規,0,2023-01-13,2023-01-13,合同会社グリーン・ピース,,合同会社,神奈川県,相模原市緑区,向原２丁目７番１１号,,14,151,2520104,,,,,,,2023-01-13,1,,,,,グリーンピース,0
2304,7030001151691,新規,0,2023-01-13,2023-01-13,株式会社Ｌｉｆｅ　Ｅｄｇｅ,,株式会社,埼玉県,三郷市,三郷１丁目１２番地１９徳重コーポラス１０２,,11,237,3410024,,,,,,,2023-01-13,1,,,,,ライフエッジ,0
2305,7030001151865,新規,0,2023-01-13,2023-01-13,株式会社ＤａｉｌｙＤｉｎｅｒ,,株式会社,埼玉県,川口市,朝日３丁目３番１３号,,11,203,3320001,,,,,,,2023-01-13,1,,,,,デイリーダイナー,0
2309,7030003020911,新規,0,2023-01-13,2023-01-13,合同会社ランディスミス,,合同会社,埼玉県,草加市,金明町２３６－９－１０１,,11,221,3400052,,,,,,,2023-01-13,1,,,,,ランディスミス,0
2310,7030003020960,新規,0,2023-01-13,2023-01-13,ＭＯＭＴ合同会社,,合同会社,埼玉県,越谷市,神明町１丁目１３２－１ラ・ルミエールＡ２階２０３号室,,11,222,3430805,,,,,,,2023-01-13,1,,,,,モート,0
2319,7040001126552,新規,0,2023-01-13,2023-01-13,株式会社樹,,株式会社,千葉県,千葉市中央区,南生実町３４５番地３,,12,101,2600814,,,,,,,2023-01-13,1,,,,,イツキ,0
2320,7040001126560,新規,0,2023-01-13,2023-01-13,株式会社Ｋ．ｏ’ＲＡＬ,,株式会社,千葉県,船橋市,東船橋６丁目１２番８１号,,12,204,2730002,,,,,,,2023-01-13,1,,,,,コーラル,0
2324,7040003021677,新規,0,2023-01-13,2023-01-13,合同会社ｗｉｓｅ,,合同会社,千葉県,流山市,加６丁目１２９６番地の１,,12,220,2700176,,,,,,,2023-01-13,1,,,,,ワイズ,0
2326,7050001052211,新規,0,2023-01-13,2023-01-13,株式会社アールコーポレーション,,株式会社,茨城県,常総市,水海道森下町４５２６番地,,08,211,3030005,,,,,,,2023-01-13,1,,,,,アールコーポレーション,0
2327,7050001052236,新規,0,2023-01-13,2023-01-13,株式会社コネクト,,株式会社,茨城県,つくば市,稲岡５７７番地,,08,220,3050071,,,,,,,2023-01-13,1,,,,,コネクト,0
2328,7050001052244,新規,0,2023-01-13,2023-01-13,株式会社Ｓａｎｋｙｏ　Ｍｏｔｏｒｓ　Ｓｅｃｏｎｄ．,,株式会社,茨城県,古河市,静町１番５０号,,08,204,3060001,,,,,,,2023-01-13,1,,,,,サンキョーモータースセカンド,0
2330,7050003007130,新規,0,2023-01-13,2023-01-13,合同会社はしもと,,合同会社,茨城県,古河市,大山１６６３番地３,,08,204,3060052,,,,,,,2023-01-13,1,,,,,ハシモト,0
2331,7050003007147,新規,0,2023-01-13,2023-01-13,合同会社ＬＩＮＸＳ,,合同会社,茨城県,龍ケ崎市,松葉４丁目６番地１８,,08,208,3010043,,,,,,,2023-01-13,1,,,,,リンクス,0
2332,7050005013192,新規,0,2023-01-13,2023-01-13,一般社団法人にゃんこの大冒険,,その他の設立登記法人,茨城県,下妻市,下妻乙１９２番地２,,08,210,3040067,,,,,,,2023-01-13,1,,,,,ニャンコノダイボウケン,0
2334,7060001035603,新規,0,2023-01-13,2023-01-13,株式会社Ｄｅａｌｓ,,株式会社,栃木県,矢板市,玉田４０４番地６８コリーナ矢板Ｇ－１５３９,,09,211,3291577,,,,,,,2023-01-13,1,,,,,ディールズ,0
2337,7090003002227,新規,0,2023-01-13,2023-01-13,ＩｒｏｄｏｒＩ合同会社,,合同会社,山梨県,南都留郡富士河口湖町,船津７２０３番地３,,19,430,4010301,,,,,,,2023-01-13,1,,,,,イロドリ,0
2341,7100003006845,新規,0,2023-01-13,2023-01-13,ＲＬＫ　ｇｒｏｕｐ合同会社,,合同会社,長野県,安曇野市,三郷温５３１３－１,,20,220,3998102,,,,,,,2023-01-13,1,,,,,アールエルケーグループ,0
2347,7120001251516,新規,0,2023-01-13,2023-01-13,一進電工株式会社,,株式会社,大阪府,大阪市西成区,旭１丁目１１番３－８０１号,,27,122,5570032,,,,,,,2023-01-13,1,,,,,イッシンデンコウ,0
2348,7120001251623,新規,0,2023-01-13,2023-01-13,株式会社ブレイブリィ,,株式会社,大阪府,大阪市北区,梅田１丁目２番２号大阪駅前第２ビル１２－１２,,27,127,5300001,,,,,,,2023-01-13,1,,,,,ブレイブリィ,0
2349,7120001251648,新規,0,2023-01-13,2023-01-13,株式会社Ｏ．Ｕ．Ｏａｎｕｅｎｕｅ,,株式会社,大阪府,大阪市中央区,南船場４丁目１０番５号南船場ＳＯＨＯビル７０２,,27,128,5420081,,,,,,,2023-01-13,1,,,,,オーユーオーアーヌエヌエ,0
2350,7120001251680,新規,0,2023-01-13,2023-01-13,タカラプラント株式会社,,株式会社,大阪府,大阪市此花区,島屋３丁目４番１１号,,27,104,5540024,,,,,,,2023-01-13,1,,,,,タカラプラント,0
2351,7120001251689,新規,0,2023-01-13,2023-01-13,株式会社ＥＩＧＨＴ,,株式会社,大阪府,大阪市浪速区,元町１丁目７番２１号,,27,111,5560016,,,,,,,2023-01-13,1,,,,,エイト,0
2352,7120001251697,新規,0,2023-01-13,2023-01-13,株式会社Ａｇｒａｄｏ,,株式会社,大阪府,大阪市福島区,福島２丁目１５番１１号秋元ビル５階,,27,103,5530003,,,,,,,2023-01-13,1,,,,,アグラード,0
2353,7120001251714,新規,0,2023-01-13,2023-01-13,株式会社ローレライデザイン,,株式会社,大阪府,大阪市東淀川区,上新庄３丁目１番２－５１５号,,27,114,5330006,,,,,,,2023-01-13,1,,,,,ローレライデザイン,0
2355,7120003023203,新規,0,2023-01-13,2023-01-13,合同会社ＳＮＵＢ　ＮＯＳＥ,,合同会社,大阪府,大阪市中央区,瓦屋町２丁目４番１２号７０２号室,,27,128,5420066,,,,,,,2023-01-13,1,,,,,スヌーブノーズ,0
2360,7120101066822,新規,0,2023-01-13,2023-01-13,億龍商事株式会社,,株式会社,大阪府,堺市東区,野尻町１９２－２３,,27,143,5998116,,,,,,,2023-01-13,1,,,,,オクリュウショウジ,0
2361,7120101066830,新規,0,2023-01-13,2023-01-13,株式会社富組,,株式会社,大阪府,堺市南区,高尾１丁５４３番地,,27,145,5900157,,,,,,,2023-01-13,1,,,,,トミグミ,0
2362,7120103005027,新規,0,2023-01-13,2023-01-13,合同会社芽生,,合同会社,大阪府,泉南郡熊取町,五門東３丁目３３番３６号,,27,361,5900414,,,,,,,2023-01-13,1,,,,,メグミ,0
2366,7122003002491,新規,0,2023-01-13,2023-01-13,合同会社ＳＦＴｏｍｏｒｒｏｗ,,合同会社,大阪府,大東市,御供田５丁目６番２３号,,27,218,5740025,,,,,,,2023-01-13,1,,,,,エスエフトゥモロウ,0
2371,7130001073471,新規,0,2023-01-13,2023-01-13,株式会社ＨＤ,,株式会社,京都府,京都市伏見区,淀下津町２５７番地７０,,26,109,6130905,,,,,,,2023-01-13,1,,,,,エイチディ,0
2373,7130003008418,新規,0,2023-01-13,2023-01-13,合同会社１０ポイント,,合同会社,京都府,京都市下京区,朱雀宝蔵町４４番地協栄ビル２階京都朱雀スタジオ,,26,106,6008846,,,,,,,2023-01-13,1,,,,,テンポイント,0
2374,7130003008434,新規,0,2023-01-13,2023-01-13,合同会社ＲＡＫＵＳＵＩ,,合同会社,京都府,京都市北区,西賀茂南川上町５４番地,,26,101,6038814,,,,,,,2023-01-13,1,,,,,ラクスイ,0
2384,7140001128753,新規,0,2023-01-13,2023-01-13,高田化工機株式会社,,株式会社,兵庫県,三木市,鳥町２１番地の１,,28,215,6730456,,,,,,,2023-01-13,1,,,,,タカダカコウキ,0
2388,7140003018548,新規,0,2023-01-13,2023-01-13,ＬＡＭＡ合同会社,,合同会社,兵庫県,尼崎市,南塚口町２丁目１８番１３号レッドバトラー３０５,,28,202,6610012,,,,,,,2023-01-13,1,,,,,ラマ,0
2389,7140003018564,新規,0,2023-01-13,2023-01-13,合同会社東播社,,合同会社,兵庫県,加古川市,平岡町つつじ野１番地の７８,,28,210,6750105,,,,,,,2023-01-13,1,,,,,トウバンシャ,0
2390,7140003018572,新規,0,2023-01-13,2023-01-13,合同会社ティーアクティビスト,,合同会社,兵庫県,神戸市中央区,御幸通８丁目１－６神戸国際会館２２Ｆ,,28,110,6510087,,,,,,,2023-01-13,1,,,,,ティーアクティビスト,0
2391,7150001026089,新規,0,2023-01-13,2023-01-13,株式会社グリバードコーポレーション,,株式会社,奈良県,大和郡山市,高田町９６番地７ローレルコート郡山７１２号,,29,203,6391132,,,,,,,2023-01-13,1,,,,,グリバードコーポレーション,0
2395,7160003002780,新規,0,2023-01-13,2023-01-13,合同会社ＧＲ　ＷＯＲＫＳ,,合同会社,滋賀県,守山市,山賀町３４８番地,,25,207,5240065,,,,,,,2023-01-13,1,,,,,ジーアールワークス,0
2406,7180001154498,新規,0,2023-01-13,2023-01-13,株式会社ＳｘＳ,,株式会社,愛知県,名古屋市西区,花の木３丁目１２番１５号,,23,104,4510062,,,,,,,2023-01-13,1,,,,,エスバイエス,0
2407,7180001154507,新規,0,2023-01-13,2023-01-13,株式会社ＡｉＡＭ,,株式会社,愛知県,名古屋市中区,大須４丁目１番１８号セイジョウビル５Ｆ,,23,106,4600011,,,,,,,2023-01-13,1,,,,,アイアム,0
2408,7180001154523,新規,0,2023-01-13,2023-01-13,株式会社ＳＥＣＲＥＴ．,,株式会社,愛知県,名古屋市北区,山田２丁目４番４７号,,23,103,4620810,,,,,,,2023-01-13,1,,,,,スクレ,0
2409,7180001154548,新規,0,2023-01-13,2023-01-13,株式会社ＢＵＤＤＹ,,株式会社,愛知県,名古屋市中区,大須３丁目１４番５５号ネオハイツ大須８０６号,,23,106,4600011,,,,,,,2023-01-13,1,,,,,バディ,0
2410,7180001154556,新規,0,2023-01-13,2023-01-13,江松化成株式会社,,株式会社,愛知県,名古屋市中川区,江松４丁目６５８番地,,23,110,4540954,,,,,,,2023-01-13,1,,,,,エマツカセイ,0
2411,7180001154580,新規,0,2023-01-13,2023-01-13,スギモト設計株式会社,,株式会社,愛知県,名古屋市北区,志賀町３丁目１８番地の７０,,23,103,4620037,,,,,,,2023-01-13,1,,,,,スギモトセッケイ,0
2415,7180301036982,新規,0,2023-01-13,2023-01-13,株式会社タフト,,株式会社,愛知県,西尾市,吉良町吉田上榎島４０番地１,,23,213,4440516,,,,,,,2023-01-13,1,,,,,タフト,0
2418,7190001030095,新規,0,2023-01-13,2023-01-13,ジンネット株式会社,,株式会社,三重県,鈴鹿市,岡田２丁目１０番１２号,,24,207,5130027,,,,,,,2023-01-13,1,,,,,ジンネット,0
2422,7200001017272,新規,0,2023-01-13,2023-01-13,株式会社ハイエスト,,株式会社,岐阜県,美濃加茂市,川合町１丁目１３番３９号,,21,211,5050022,,,,,,,2023-01-13,1,,,,,ハイエスト,0
2430,7210001019202,新規,0,2023-01-13,2023-01-13,株式会社ファーストエー,,株式会社,福井県,福井市,中央３丁目５番１２号,,18,201,9100006,,,,,,,2023-01-13,1,,,,,ファーストエー,0
2437,7240001060855,新規,0,2023-01-13,2023-01-13,株式会社Ａ・ＰＲＯＪＥＣＴ,,株式会社,広島県,広島市西区,己斐本町１丁目１７番１号ＴＫビル１階,,34,104,7330812,,,,,,,2023-01-13,1,,,,,エープロジェクト,0
2438,7240001060962,新規,0,2023-01-13,2023-01-13,株式会社ユーフェティ,,株式会社,広島県,安芸郡府中町,浜田３丁目５番１２号,,34,302,7350013,,,,,,,2023-01-13,1,,,,,ユーフェティ,0
2440,7250001019917,新規,0,2023-01-13,2023-01-13,株式会社藤井,,株式会社,山口県,光市,三井８丁目６番２４号,,35,210,7430052,,,,,,,2023-01-13,1,,,,,フジイ,0
2456,7290001100185,新規,0,2023-01-13,2023-01-13,株式会社フォーライズ,,株式会社,福岡県,福岡市東区,松香台１丁目２－２１,,40,131,8130004,,,,,,,2023-01-13,1,,,,,フォーライズ,0
2457,7290001100202,新規,0,2023-01-13,2023-01-13,株式会社オアシス,,株式会社,福岡県,古賀市,筵内１３１５番地,,40,223,8113121,,,,,,,2023-01-13,1,,,,,オアシス,0
2458,7290001100227,新規,0,2023-01-13,2023-01-13,株式会社Ｂｉｚサクセッション,,株式会社,福岡県,福岡市博多区,博多駅前１丁目１５番２０号ＮＭＦ博多駅前ビル２階,,40,132,8120011,,,,,,,2023-01-13,1,,,,,ビズサクセッション,0
2461,7290005018911,新規,0,2023-01-13,2023-01-13,一般社団法人ディアライフ２,,その他の設立登記法人,福岡県,久留米市,荘島町１６番地２サンヒルズ荘島３０５,,40,203,8300042,,,,,,,2023-01-13,1,,,,,ディアライフツー,0
2465,7300001013187,新規,0,2023-01-13,2023-01-13,株式会社ライズ,,株式会社,佐賀県,佐賀市,本庄町大字本庄１１８５番地１－２Ｆ,,41,201,8400027,,,,,,,2023-01-13,1,,,,,ライズ,0
2471,7330001030502,新規,0,2023-01-13,2023-01-13,株式会社三重野,,株式会社,熊本県,熊本市東区,御領５丁目１番５６号,,43,102,8618035,,,,,,,2023-01-13,1,,,,,ミエノ,0
2472,7330003009676,新規,0,2023-01-13,2023-01-13,合同会社ＰＡＳＳプランニング,,合同会社,熊本県,山鹿市,鹿央町岩原４７９番地１,,43,208,8610561,,,,,,,2023-01-13,1,,,,,パスプランニング,0
2474,7340001025294,新規,0,2023-01-13,2023-01-13,株式会社エトラ,,株式会社,鹿児島県,鹿屋市,大浦町１４１７９番地２２,,46,203,8930067,,,,,,,2023-01-13,1,,,,,エトラ,0
2481,7370001049489,新規,0,2023-01-13,2023-01-13,蒼い杜商事株式会社,,株式会社,宮城県,仙台市若林区,沖野２丁目６番３号,,04,103,9840831,,,,,,,2023-01-13,1,,,,,アオイモリショウジ,0
2488,7390001017114,新規,0,2023-01-13,2023-01-13,穂積工業株式会社,,株式会社,山形県,山形市,印役町５丁目３番７４号Ｄ号棟,,06,201,9900066,,,,,,,2023-01-13,1,,,,,ホヅミコウギョウ,0
2490,7410001013374,新規,0,2023-01-13,2023-01-13,株式会社咲クシード,,株式会社,秋田県,横手市,城南町６番３６号,,05,203,0130013,,,,,,,2023-01-13,1,,,,,サクシード,0
2496,7430003014641,新規,0,2023-01-13,2023-01-13,合同会社ＢＥＲＲＹ．ＦＩＶＥ,,合同会社,北海道,沙流郡日高町,字平賀１６２番地の１,,01,601,0550002,,,,,,,2023-01-13,1,,,,,ベリーファイブ,0
2497,7430005014623,新規,0,2023-01-13,2023-01-13,一般社団法人日本ココロフルネス協会,,その他の設立登記法人,北海道,札幌市西区,平和二条４丁目７番１０号,,01,107,0630022,,,,,,,2023-01-13,1,,,,,ニホンココロフルネスキョウカイ,0
2498,7460001005763,新規,0,2023-01-13,2023-01-13,株式会社ＪＫファーム,,株式会社,北海道,釧路市,旭町１番１０２３号,,01,206,0850011,,,,,,,2023-01-13,1,,,,,ジェイケーファーム,0
2503,7470003002329,新規,0,2023-01-13,2023-01-13,ＰＯＬＩＳＳＯＮ合同会社,,合同会社,香川県,高松市,庵治町３８７７,,37,201,7610130,,,,,,,2023-01-13,1,,,,,ポリソン,0
2506,7490001010380,新規,0,2023-01-13,2023-01-13,株式会社ＡＱＵＳＨ　ＳＭＩＬＥ　ＬＡＢ,,株式会社,高知県,高知市,河ノ瀬町４１番地１,,39,201,7808035,,,,,,,2023-01-13,1,,,,,アクシュスマイルラボ,0
2508,7500001024718,新規,0,2023-01-13,2023-01-13,株式会社ドローウィズ,,株式会社,愛媛県,松山市,吉藤２丁目１２番２１号,,38,201,7918011,,,,,,,2023-01-13,1,,,,,ドローウィズ,0
2511,7700150106610,新規,0,2023-01-13,2022-01-13,西荻窪芸術センター,,その他,東京都,杉並区,西荻北４丁目２－１４－２０１,,13,115,1670042,,,,,,,2022-01-13,1,,,,,ニシオギクボゲイジユツセンター,0
2512,7700150113706,新規,0,2023-01-13,2023-01-13,Ｃｈｕｗｉ　ＩＮＮＯＶＡＴＩＯＮ　ａｎｄ　Ｔｅｃｈｎｏｌｏｇｙ（ＳＨＥＮＺＨＥＮ）Ｃｏ．，Ｌｔ,,外国会社等,,,,,,,,ｇｏｎｇ　ｙｅ　ｄｏｎｇ　ｌｕ，ｌｉ　ｊｉｎ　ｃｈｅｎｇ　ｋｅ　ｊｉ　ｇｏｎｇ　ｙｅ　ｙｕａｎ　３　ｄｏｎｇ　２　ｌｏｕ，ｌｏｎｇ　ｈｕａ　ｘｉｎ　ｑｕ，ｓｈｅｎ　ｚｈｅｎ，ｇｕａｎｇ　ｄｏｎｇ，Ｃｈｉｎａ,,,,,,2023-01-13,1,,,,,チイソウシンカギシンセンユウゲンコウシ,0
2523,8010001232071,新規,0,2023-01-13,2023-01-13,株式会社ほどく,,株式会社,東京都,中央区,銀座１丁目１２番４号Ｎ＆ＥＢＬＤ．７階,,13,102,1040061,,,,,,,2023-01-13,1,,,,,ホドク,0
2524,8010001232105,新規,0,2023-01-13,2023-01-13,株式会社ＷＡＪＩＷＯＯＤ,,株式会社,東京都,千代田区,九段北４丁目３番２６号,,13,101,1020073,,,,,,,2023-01-13,1,,,,,ワジウッド,0
2525,8010001232204,新規,0,2023-01-13,2023-01-13,佳留株式会社,,株式会社,東京都,中央区,晴海５丁目１番１７号ザ・晴海レジデンス１３２４号室,,13,102,1040053,,,,,,,2023-01-13,1,,,,,カリュウ,0
2529,8010003039498,新規,0,2023-01-13,2023-01-13,合同会社Ｅ＆Ｅ総合研究所,,合同会社,東京都,千代田区,二番町８番地７,,13,101,1020084,,,,,,,2023-01-13,1,,,,,イーアンドイーソウゴウケンキュウジョ,0
2530,8010003039507,新規,0,2023-01-13,2023-01-13,きゃりびーラーニング合同会社,,合同会社,東京都,中央区,銀座１丁目２２番１１号銀座大竹ビジデンス２Ｆ,,13,102,1040061,,,,,,,2023-01-13,1,,,,,キャリビーラーニング,0
2531,8010003039556,新規,0,2023-01-13,2023-01-13,合同会社ＯＣＰＦ２号,,合同会社,東京都,中央区,日本橋１丁目４番１号,,13,102,1030027,,,,,,,2023-01-13,1,,,,,オーシーピーエフニゴウ,0
2532,8010003039580,新規,0,2023-01-13,2023-01-13,合同会社ライナー,,合同会社,東京都,中央区,勝どき３丁目２番３号セルリアンホームズ勝どき１６０５,,13,102,1040054,,,,,,,2023-01-13,1,,,,,ライナー,0
2535,8010105002197,新規,0,2023-01-13,2023-01-13,特定非営利活動法人団地応援隊,,その他の設立登記法人,東京都,八王子市,館町１０９７番地第２街区第５号棟第１０９号室,,13,201,1930944,,,,,,,2023-01-13,1,,,,,ダンチオウエンタイ,0
2539,8010401171786,新規,0,2023-01-13,2023-01-13,株式会社ＮＯＷ,,株式会社,東京都,港区,南青山２丁目１５番５号ＦＡＲＯ青山１階,,13,103,1070062,,,,,,,2023-01-13,1,,,,,ナウ,0
2540,8010401171794,新規,0,2023-01-13,2023-01-13,株式会社ＶＩＹＥＬＬ,,株式会社,東京都,港区,三田１丁目７番１－８０４号,,13,103,1080073,,,,,,,2023-01-13,1,,,,,ビエール,0
2541,8010401171803,新規,0,2023-01-13,2023-01-13,あとむ株式会社,,株式会社,東京都,港区,白金台３丁目１２番３２－３０２号,,13,103,1080071,,,,,,,2023-01-13,1,,,,,アトム,0
2545,8010603009941,新規,0,2023-01-13,2023-01-13,Ｎ　ｆｉｅｌｄ合同会社,,合同会社,東京都,江東区,扇橋３丁目１７番１０号９０４,,13,108,1350011,,,,,,,2023-01-13,1,,,,,エヌフィールド,0
2552,8010901052288,新規,0,2023-01-13,2023-01-13,株式会社Ｙ＆Ｋ,,株式会社,東京都,世田谷区,千歳台２丁目３９番１０号,,13,112,1570071,,,,,,,2023-01-13,1,,,,,ワイアンドケイ,0
2553,8010901052313,新規,0,2023-01-13,2023-01-13,竹輪不動産株式会社,,株式会社,東京都,世田谷区,駒沢１丁目１３－１２,,13,112,1540012,,,,,,,2023-01-13,1,,,,,タケワフドウサン,0
2554,8010901052321,新規,0,2023-01-13,2023-01-13,株式会社センターセンターセンター,,株式会社,東京都,世田谷区,玉堤１丁目９番１７号ガーデンハイツたまがわＢ－１,,13,112,1580087,,,,,,,2023-01-13,1,,,,,センターセンターセンター,0
2555,8010903007892,新規,0,2023-01-13,2023-01-13,ｕｐｓｔａｉｒｓ合同会社,,合同会社,東京都,世田谷区,赤堤５丁目９番１２号,,13,112,1560044,,,,,,,2023-01-13,1,,,,,アップステアーズ,0
2556,8010903007901,新規,0,2023-01-13,2023-01-13,センコウクリエイト合同会社,,合同会社,東京都,世田谷区,世田谷１丁目１４番１８号,,13,112,1540017,,,,,,,2023-01-13,1,,,,,センコウクリエイト,0
2560,8011001151880,新規,0,2023-01-13,2023-01-13,株式会社ＳＡＫＡＭＯＴＯｇｒａｐｈ．,,株式会社,東京都,渋谷区,神宮前６丁目２３番４号桑野ビル２階,,13,113,1500001,,,,,,,2023-01-13,1,,,,,サカモトグラフ,0
2569,8011101101447,新規,0,2023-01-13,2023-01-13,株式会社Ｈｉｂｉｋｉ,,株式会社,東京都,新宿区,早稲田鶴巻町５３３－１７ココミ早稲田４Ｆ,,13,104,1620041,,,,,,,2023-01-13,1,,,,,ヒビキ,0
2570,8011101101455,新規,0,2023-01-13,2023-01-13,株式会社ＳＩＮ,,株式会社,東京都,新宿区,西新宿３丁目３番１３号西新宿水間ビル２Ｆ,,13,104,1600023,,,,,,,2023-01-13,1,,,,,シン,0
2571,8011101101463,新規,0,2023-01-13,2023-01-13,株式会社ＷＩＮＴＥＲ,,株式会社,東京都,新宿区,新宿７丁目２６番３８号サントーク新宿１６０５,,13,104,1600022,,,,,,,2023-01-13,1,,,,,ウィンター,0
2572,8011101101471,新規,0,2023-01-13,2023-01-13,Ｏｕｔｓｈｉｎｅ株式会社,,株式会社,東京都,新宿区,北新宿１丁目２１番１６‐６０３号,,13,104,1690074,,,,,,,2023-01-13,1,,,,,アウトシャイン,0
2577,8011103012576,新規,0,2023-01-13,2023-01-13,ＣＮ　ｍｅｉｋｏｓ合同会社,,合同会社,東京都,新宿区,西新宿３丁目３番１３号西新宿水間ビル６階,,13,104,1600023,,,,,,,2023-01-13,1,,,,,シーエヌメイコス,0
2581,8011205002533,新規,0,2023-01-13,2023-01-13,一般社団法人じぶんケアアカデミー,,その他の設立登記法人,東京都,中野区,中央２丁目３０番９号ＴＶＳＥＳ．ＰＡＲＴ１８－３２０区,,13,114,1640011,,,,,,,2023-01-13,1,,,,,ジブンケアアカデミー,0
2589,8011403003878,新規,0,2023-01-13,2023-01-13,合同会社ＥＶＥＲ　ＹＯＵＲＳ,,合同会社,東京都,板橋区,南常盤台１丁目３８番２号,,13,119,1740072,,,,,,,2023-01-13,1,,,,,エバーユアーズ,0
2590,8011701025946,新規,0,2023-01-13,2023-01-13,株式会社Ｆｉａｔｔ　Ｌｕｘ,,株式会社,東京都,江戸川区,南小岩７丁目２６番４号飯島ビル１階,,13,123,1330056,,,,,,,2023-01-13,1,,,,,フィアットラクス,0
2597,8012403005773,新規,0,2023-01-13,2023-01-13,和華商事合同会社,,合同会社,東京都,武蔵野市,吉祥寺本町１丁目１３－１千歳ビル２Ｆ,,13,203,1800004,,,,,,,2023-01-13,1,,,,,ワカショウジ,0
2606,8013301050184,新規,0,2023-01-13,2023-01-13,株式会社ドリームファクトリー,,株式会社,東京都,豊島区,東池袋１丁目３４番５号いちご東池袋ビル６階,,13,116,1700013,,,,,,,2023-01-13,1,,,,,ドリームファクトリー,0
2607,8013303006440,新規,0,2023-01-13,2023-01-13,ＬｉｖｅＷｅｌｌ　Ｈｏｕｅｉ‐リブウェル豊英合同会社,,合同会社,東京都,豊島区,目白４丁目１番５号目白豊英１０１号,,13,116,1710031,,,,,,,2023-01-13,1,,,,,リブウェルホウエイリブウェルホウエイ,0
2613,8020001149769,新規,0,2023-01-13,2023-01-13,株式会社ｒｉｃｈ・ｍｅａｌ,,株式会社,神奈川県,川崎市中原区,木月住吉町２３番６－２０３号,,14,133,2110021,,,,,,,2023-01-13,1,,,,,リッチミール,0
2614,8020001149793,新規,0,2023-01-13,2023-01-13,株式会社ＡＤｅｌ,,株式会社,神奈川県,横浜市神奈川区,鶴屋町１丁目７番地３４,,14,102,2210835,,,,,,,2023-01-13,1,,,,,アデル,0
2615,8020001149810,新規,0,2023-01-13,2023-01-13,株式会社キャリアプラス,,株式会社,神奈川県,川崎市幸区,遠藤町５８ポレスター川崎２１５,,14,132,2120006,,,,,,,2023-01-13,1,,,,,キャリアプラス,0
2618,8020003023030,新規,0,2023-01-13,2023-01-13,アセットコン合同会社,,合同会社,神奈川県,川崎市中原区,中丸子４０１番地１０,,14,133,2110012,,,,,,,2023-01-13,1,,,,,アセットコン,0
2619,8020003023047,新規,0,2023-01-13,2023-01-13,合同会社イーホワイト,,合同会社,神奈川県,川崎市川崎区,浅田３丁目１０番２２号ユナイト浅田ジェシカ・ウォルター１１３,,14,131,2100847,,,,,,,2023-01-13,1,,,,,イーホワイト,0
2620,8020003023088,新規,0,2023-01-13,2023-01-13,合同会社みずのと,,合同会社,神奈川県,横浜市中区,尾上町４丁目５７番地横浜尾上町ビルディング８階,,14,104,2310015,,,,,,,2023-01-13,1,,,,,ミズノト,0
2625,8021001077910,新規,0,2023-01-13,2023-01-13,株式会社Ｍ‐ＴＥＣ,,株式会社,神奈川県,横須賀市,安浦町１丁目１３番地３２,,14,201,2380012,,,,,,,2023-01-13,1,,,,,エムテック,0
2626,8021001077919,新規,0,2023-01-13,2023-01-13,株式会社ＣＬＥＶＥＲＹ,,株式会社,神奈川県,海老名市,大谷南４丁目１８番１７号,,14,215,2430418,,,,,,,2023-01-13,1,,,,,クレバリー,0
2627,8021001077927,新規,0,2023-01-13,2023-01-13,株式会社ツクローズ,,株式会社,神奈川県,茅ヶ崎市,浜之郷１１４０番地１２,,14,207,2530086,,,,,,,2023-01-13,1,,,,,ツクローズ,0
2631,8021003012519,新規,0,2023-01-13,2023-01-13,天馬梱包合同会社,,合同会社,神奈川県,横須賀市,岩戸１丁目１３－１２,,14,201,2390844,,,,,,,2023-01-13,1,,,,,テンバコンポウ,0
2632,8021003012601,新規,0,2023-01-13,2023-01-13,合同会社タッドプレイ,,合同会社,神奈川県,大和市,下鶴間２９９８番地３０,,14,213,2420001,,,,,,,2023-01-13,1,,,,,タッドプレイ,0
2642,8030001151930,新規,0,2023-01-13,2023-01-13,株式会社野村ファーム,,株式会社,埼玉県,東松山市,若松町１丁目１７番１６号,,11,212,3550037,,,,,,,2023-01-13,1,,,,,ノムラファーム,0
2643,8030001151939,新規,0,2023-01-13,2023-01-13,株式会社ヴェルパシオ,,株式会社,埼玉県,さいたま市見沼区,東大宮１丁目３０番１号,,11,104,3370051,,,,,,,2023-01-13,1,,,,,ヴェルパシオ,0
2644,8030001151947,新規,0,2023-01-13,2023-01-13,株式会社丸仁,,株式会社,埼玉県,川口市,上青木西４丁目２番２９号,,11,203,3330845,,,,,,,2023-01-13,1,,,,,マルニ,0
2645,8030001151955,新規,0,2023-01-13,2023-01-13,株式会社クライム,,株式会社,埼玉県,新座市,野火止２丁目６番１５号,,11,230,3520011,,,,,,,2023-01-13,1,,,,,クライム,0
2651,8030003020919,新規,0,2023-01-13,2023-01-13,合同会社ＦＵＫＵ‐ＤＥＮ,,合同会社,埼玉県,川口市,戸塚南５丁目２３－２４,,11,203,3330817,,,,,,,2023-01-13,1,,,,,フクデン,0
2660,8040001126568,新規,0,2023-01-13,2023-01-13,大蓮建設株式会社,,株式会社,千葉県,四街道市,和良比９４６－９－１０１号,,12,228,2840044,,,,,,,2023-01-13,1,,,,,ダイレンケンセツ,0
2661,8040001126576,新規,0,2023-01-13,2023-01-13,株式会社ＣＨＷ,,株式会社,千葉県,市川市,幸２丁目７番１７号,,12,203,2720123,,,,,,,2023-01-13,1,,,,,シーエイチダブリュー,0
2662,8040001126601,新規,0,2023-01-13,2023-01-13,株式会社光成,,株式会社,千葉県,流山市,流山２丁目２９７番１キャッスルマンション流山１０３号,,12,220,2700164,,,,,,,2023-01-13,1,,,,,コウセイ,0
2663,8040001126618,新規,0,2023-01-13,2023-01-13,英輝興業株式会社,,株式会社,千葉県,野田市,関宿台町２０６６番地１,,12,208,2700202,,,,,,,2023-01-13,1,,,,,エイキコウギョウ,0
2666,8040003021668,新規,0,2023-01-13,2023-01-13,合同会社Ｖｉｔａｌｉｚｅ　Ｃｏｍｍｕｎｉｔｙ,,合同会社,千葉県,千葉市美浜区,若葉３丁目１番１８号幕張ベイパーククロスレジデンスＳ２－１,,12,106,2610014,,,,,,,2023-01-13,1,,,,,ヴァイタライズコミュニティ,0
2667,8040005021864,新規,0,2023-01-13,2023-01-13,土地家屋調査士法人コーケン,,その他の設立登記法人,千葉県,茂原市,長尾２６８３番地２８,,12,210,2970073,,,,,,,2023-01-13,1,,,,,コーケン,0
2668,8050001052227,新規,0,2023-01-13,2023-01-13,紅忠黒田ラミネーション株式会社,,株式会社,茨城県,那珂市,向山字笠松１２２７番の１,,08,226,3110102,,,,,,,2023-01-13,1,,,,,ベニチュウクロダラミネーション,0
2669,8050001052235,新規,0,2023-01-13,2023-01-13,ＧｏｏｄＮｅｗｓ株式会社,,株式会社,茨城県,つくば市,春日１丁目６番地２サンヒルズやまのい１０６号,,08,220,3050821,,,,,,,2023-01-13,1,,,,,グッドニュース,0
2670,8050001052243,新規,0,2023-01-13,2023-01-13,ＴＨＹＭＵＳ　ＣＯＦＦＥＥ　ＪＡＰＡＮ株式会社,,株式会社,茨城県,北茨城市,華川町臼場３２６番地３６,,08,215,3191535,,,,,,,2023-01-13,1,,,,,タイムスコーヒージャパン,0
2673,8050005013191,新規,0,2023-01-13,2023-01-13,行政書士法人三田寺・星野事務所,,その他の設立登記法人,茨城県,土浦市,小松３丁目２４番２６号,,08,203,3000823,,,,,,,2023-01-13,1,,,,,ミタデラホシノジムショ,0
2677,8060003004373,新規,0,2023-01-13,2023-01-13,合同会社ＲＳ　ｓｔｙｌｅｓ,,合同会社,栃木県,足利市,五十部町８１１番地３,,09,202,3260843,,,,,,,2023-01-13,1,,,,,アールエススタイルズ,0
2680,8070001040015,新規,0,2023-01-13,2023-01-13,株式会社クリア,,株式会社,群馬県,太田市,下浜田町３３４番地１,,10,205,3730821,,,,,,,2023-01-13,1,,,,,クリア,0
2682,8080001025403,新規,0,2023-01-13,2023-01-13,株式会社ＭＪ　ＴＲＡＤＩＮＧ　ＪＡＰＡＮ,,株式会社,静岡県,静岡市駿河区,高松３２３１番地,,22,102,4228034,,,,,,,2023-01-13,1,,,,,エムジェイトレイディングジャパン,0
2685,8080101023744,新規,0,2023-01-13,2023-01-13,株式会社サン,,株式会社,静岡県,伊豆の国市,田京１５２番地の５,,22,225,4102315,,,,,,,2023-01-13,1,,,,,サン,0
2687,8080405007518,新規,0,2023-01-13,2023-01-13,一般社団法人日本体質美容認証機構,,その他の設立登記法人,静岡県,浜松市中区,神明町３１５－１５,,22,131,4300931,,,,,,,2023-01-13,1,,,,,ニホンタイシツビヨウニンショウキコウ,0
2689,8090001017928,新規,0,2023-01-13,2023-01-13,株式会社ＴＡＭＯＹＡ,,株式会社,山梨県,甲府市,和戸町３２１番地１,,19,201,4000812,,,,,,,2023-01-13,1,,,,,タモヤ,0
2690,8090005007537,新規,0,2023-01-13,2023-01-13,一般社団法人ＧＥＮＩＡＬ,,その他の設立登記法人,山梨県,山梨市,鴨居寺４１６番地,,19,205,4050013,,,,,,,2023-01-13,1,,,,,,0
2702,8120001251663,新規,0,2023-01-13,2023-01-13,Ｖａｌｉｄ　Ｃｏｄｅ株式会社,,株式会社,大阪府,大阪市淀川区,宮原１丁目１番１号新大阪阪急ビル３Ｆ,,27,123,5320003,,,,,,,2023-01-13,1,,,,,バリッドコード,0
2703,8120001251696,新規,0,2023-01-13,2023-01-13,株式会社力舎,,株式会社,大阪府,大阪市西区,九条１丁目２０番１４号ハウス中島４Ｄ,,27,106,5500027,,,,,,,2023-01-13,1,,,,,リキシャ,0
2704,8120001251705,新規,0,2023-01-13,2023-01-13,株式会社成和,,株式会社,大阪府,大阪市中央区,瓦町１丁目４番６号岡宏産ビル７階,,27,128,5410048,,,,,,,2023-01-13,1,,,,,セイワ,0
2707,8120003023219,新規,0,2023-01-13,2023-01-13,合同会社ｗｉｌｌｗｉｎ,,合同会社,大阪府,門真市,末広町３７－２３－６０６,,27,223,5710030,,,,,,,2023-01-13,1,,,,,ウィルウィン,0
2708,8120003023227,新規,0,2023-01-13,2023-01-13,合同会社アーベスタ,,合同会社,大阪府,大阪市北区,梅田１丁目２番２号大阪駅前第２ビル１２－１２,,27,127,5300001,,,,,,,2023-01-13,1,,,,,アーベスタ,0
2711,8120103005026,新規,0,2023-01-13,2023-01-13,合同会社ＫＡＩＮＡＮ,,合同会社,大阪府,堺市中区,福田７０３番地,,27,142,5998241,,,,,,,2023-01-13,1,,,,,カイナン,0
2717,8122001036565,新規,0,2023-01-13,2023-01-13,株式会社縁謝,,株式会社,大阪府,八尾市,太子堂３丁目２－６,,27,212,5810063,,,,,,,2023-01-13,1,,,,,エンシャ,0
2718,8130001073446,新規,0,2023-01-13,2023-01-13,株式会社ヒトツナガリ,,株式会社,京都府,向日市,寺戸町寺田５０－１ブライトスクエア６２４号,,26,208,6170002,,,,,,,2023-01-13,1,,,,,ヒトツナガリ,0
2719,8130001073454,新規,0,2023-01-13,2023-01-13,株式会社ｓｉｏ,,株式会社,京都府,京都市伏見区,久我石原町２－９１,,26,109,6128491,,,,,,,2023-01-13,1,,,,,シオ,0
2722,8130003008433,新規,0,2023-01-13,2023-01-13,トミナガ合同会社,,合同会社,京都府,八幡市,八幡吉野１番地,,26,210,6148012,,,,,,,2023-01-13,1,,,,,トミナガ,0
2727,8140001128686,新規,0,2023-01-13,2023-01-13,株式会社ＲＹＪ,,株式会社,兵庫県,神戸市中央区,神仙寺通２丁目１番７号,,28,110,6510051,,,,,,,2023-01-13,1,,,,,アールワイジェイ,0
2728,8140001128694,新規,0,2023-01-13,2023-01-13,株式会社ＹＹ,,株式会社,兵庫県,神戸市東灘区,向洋町中５丁目１１番地５０２号棟１００４号室,,28,101,6580032,,,,,,,2023-01-13,1,,,,,ワイワイ,0
2729,8140001128744,新規,0,2023-01-13,2023-01-13,株式会社ポエマート,,株式会社,兵庫県,神戸市中央区,元町通３丁目１１番１５号,,28,110,6500022,,,,,,,2023-01-13,1,,,,,ポエマート,0
2734,8140003018588,新規,0,2023-01-13,2023-01-13,イクシマ経営企画合同会社,,合同会社,兵庫県,西宮市,甲子園口２丁目２５番２１号,,28,204,6638113,,,,,,,2023-01-13,1,,,,,イクシマケイエイキカク,0
2735,8140005026440,新規,0,2023-01-13,2023-01-13,医療法人社団阿部レディースクリニック,,その他の設立登記法人,兵庫県,芦屋市,公光町７番１５号スピリット芦屋１階,00129042,28,206,6590065,,,,,,,2023-01-13,1,,,,,アベレディースクリニック,0
2736,8140005026449,新規,0,2023-01-13,2023-01-13,一般社団法人ＳＯＧＩ　Ｊａｐａｎ,,その他の設立登記法人,兵庫県,宍粟市,一宮町公文６６６番地,,28,227,6714111,,,,,,,2023-01-13,1,,,,,ソジジャパン,0
2738,8150001026088,新規,0,2023-01-13,2023-01-13,株式会社陽稔,,株式会社,奈良県,奈良市,南京終町６８８番地の１,,29,201,6308141,,,,,,,2023-01-13,1,,,,,ハルトシ,0
2739,8150001026096,新規,0,2023-01-13,2023-01-13,株式会社ピスタチオ,,株式会社,奈良県,奈良市,古市町１８４１番地の６,,29,201,6308424,,,,,,,2023-01-13,1,,,,,ピスタチオ,0
2740,8160001024768,新規,0,2023-01-13,2023-01-13,株式会社ゼンビルド,,株式会社,滋賀県,大津市,秋葉台２３番６７号,,25,201,5200822,,,,,,,2023-01-13,1,,,,,ゼンビルド,0
2747,8180001154497,新規,0,2023-01-13,2023-01-13,株式会社にしかたコンサルティング,,株式会社,愛知県,半田市,北二ツ坂町２丁目１４番地の９,,23,205,4750927,,,,,,,2023-01-13,1,,,,,ニシカタコンサルティング,0
2748,8180001154514,新規,0,2023-01-13,2023-01-13,株式会社エス・サポート,,株式会社,愛知県,愛西市,町方町南堤外１４２番地３１,,23,232,4968014,,,,,,,2023-01-13,1,,,,,エスサポート,0
2749,8180001154522,新規,0,2023-01-13,2023-01-13,株式会社Ｆｏｕｒ　Ｆｏｕｌ,,株式会社,愛知県,名古屋市名東区,朝日が丘１３０番地の１,,23,115,4650041,,,,,,,2023-01-13,1,,,,,フォーファウル,0
2750,8180001154530,新規,0,2023-01-13,2023-01-13,株式会社ｍｅｃｈａｎｉａ,,株式会社,愛知県,名古屋市中村区,椿町１９番７号チサンマンション椿町６０４,,23,105,4530015,,,,,,,2023-01-13,1,,,,,メカニア,0
2751,8180001154539,新規,0,2023-01-13,2023-01-13,ＡＬＰＨＡ　ＬＡＳＥＲ　ＥＮＧＩＮＥＥＲＩＮＧ株式会社,,株式会社,愛知県,一宮市,伝法寺３丁目８番地２,,23,203,4910828,,,,,,,2023-01-13,1,,,,,アルファレーザーエンジニアリング,0
2752,8180001154547,新規,0,2023-01-13,2023-01-13,株式会社山下,,株式会社,愛知県,名古屋市中区,大須３丁目１４番５５号ネオハイツ大須８０６号,,23,106,4600011,,,,,,,2023-01-13,1,,,,,ヤマシタ,0
2754,8180003024707,新規,0,2023-01-13,2023-01-13,合同会社ＹＵＡＮ２ｎｄ,,合同会社,愛知県,名古屋市天白区,土原３丁目１０１番地の４,,23,116,4680026,,,,,,,2023-01-13,1,,,,,ユアンセカンド,0
2755,8180005020076,新規,0,2023-01-13,2023-01-13,弁理士法人オリベ特許事務所,,その他の設立登記法人,愛知県,名古屋市中区,栄２丁目６番１号ＲＴ白川ビル６階,,23,106,4600008,,,,,,,2023-01-13,1,,,,,オリベトッキョジムショ,0
2780,8250001019908,新規,0,2023-01-13,2023-01-13,株式会社ＦＴＧ,,株式会社,山口県,岩国市,麻里布町２丁目２番１６号,,35,208,7400018,,,,,,,2023-01-13,1,,,,,エフティージー,0
2782,8280003001687,新規,0,2023-01-13,2023-01-13,合同会社ｎｏｃｈｉ,,合同会社,島根県,隠岐郡隠岐の島町,中町目貫の四９―６,,32,528,6850013,,,,,,,2023-01-13,1,,,,,ノチ,0
2784,8290001100168,新規,0,2023-01-13,2023-01-13,株式会社ソイテクト,,株式会社,福岡県,八女市,龍ケ原２５１番地１０,,40,210,8340067,,,,,,,2023-01-13,1,,,,,ソイテクト,0
2785,8290001100192,新規,0,2023-01-13,2023-01-13,株式会社ＬＯＯＰ,,株式会社,福岡県,福津市,津屋崎８丁目９番地１９号,,40,224,8113304,,,,,,,2023-01-13,1,,,,,ループ,0
2786,8290001100226,新規,0,2023-01-13,2023-01-13,株式会社藤総業,,株式会社,福岡県,福岡市早良区,内野６丁目１２番２８号,,40,137,8111123,,,,,,,2023-01-13,1,,,,,フジソウギョウ,0
2787,8290801029219,新規,0,2023-01-13,2023-01-13,株式会社上田鉄筋工業,,株式会社,福岡県,北九州市小倉南区,横代東町３丁目２３番８号,,40,107,8020822,,,,,,,2023-01-13,1,,,,,ウエダテッキンコウギョウ,0
2790,8330003009667,新規,0,2023-01-13,2023-01-13,九州情報通信ネットワーク合同会社,,合同会社,熊本県,熊本市西区,春日１丁目１４番１号,,43,103,8600047,,,,,,,2023-01-13,1,,,,,キュウシュウジョウホウツウシンネットワーク,0
2791,8350001018131,新規,0,2023-01-13,2023-01-13,ヤグミ建築株式会社,,株式会社,宮崎県,延岡市,須美江町１４０９番地１２ホリデーハウス日豊,,45,203,8890321,,,,,,,2023-01-13,1,,,,,ヤグミケンチク,0
2793,8350003004253,新規,0,2023-01-13,2023-01-13,ライブドリーム合同会社,,合同会社,宮崎県,宮崎市,吉村町大町甲１９３５番地２５,,45,201,8800841,,,,,,,2023-01-13,1,,,,,ライブドリーム,0
2799,8360001031422,新規,0,2023-01-13,2023-01-13,株式会社やんばるアドベンチャーパーク,,株式会社,沖縄県,豊見城市,字豊崎１－１２２３パークホームズオキナワ内,,47,212,9010225,,,,,,,2023-01-13,1,,,,,ヤンバルアドベンチャーパーク,0
2800,8360001031430,新規,0,2023-01-13,2023-01-13,株式会社ＢＩ‐ＪＯＵ,,株式会社,沖縄県,那覇市,宇栄原１丁目１４番１０号,,47,201,9010153,,,,,,,2023-01-13,1,,,,,ビジュウ,0
2804,8370001049488,新規,0,2023-01-13,2023-01-13,あかつき株式会社,,株式会社,宮城県,塩竈市,西玉川町１番９号,,04,203,9850045,,,,,,,2023-01-13,1,,,,,アカツキ,0
2808,8380001033400,新規,0,2023-01-13,2023-01-13,佐藤農産株式会社,,株式会社,福島県,伊達郡桑折町,大字下郡字遠上９番地の１,,07,301,9691662,,,,,,,2023-01-13,1,,,,,サトウノウサン,0
2809,8380001033409,新規,0,2023-01-13,2023-01-13,株式会社ＬＩＧ,,株式会社,福島県,福島市,黒岩字八郎内２１番地の２,,07,201,9608153,,,,,,,2023-01-13,1,,,,,エルアイジー,0
2812,8400003003019,新規,0,2023-01-13,2023-01-13,エム電興合同会社,,合同会社,岩手県,奥州市,水沢星ガ丘町１番１２号,,03,215,0230861,,,,,,,2023-01-13,1,,,,,エムデンコウ,0
2815,8410001013373,新規,0,2023-01-13,2023-01-13,株式会社うるかしこと,,株式会社,秋田県,横手市,駅前町１番２１号Ｙ２ぷらざ３階,,05,203,0130036,,,,,,,2023-01-13,1,,,,,ウルカシコト,0
2816,8410005006497,新規,0,2023-01-13,2023-01-13,行政書士法人達栄会,,その他の設立登記法人,秋田県,秋田市,山王２丁目７－３６山王ソラリスビル４－３,,05,201,0100951,,,,,,,2023-01-13,1,,,,,タツエイカイ,0
2820,8430001088190,新規,0,2023-01-13,2023-01-13,株式会社マカロニ,,株式会社,北海道,岩内郡岩内町,字清住１番地１０,,01,402,0450022,,,,,,,2023-01-13,1,,,,,マカロニ,0
2821,8430001088208,新規,0,2023-01-13,2023-01-13,スタークリエイツ株式会社,,株式会社,北海道,札幌市中央区,南六条西１１丁目１２８５－１６エクリュ７０２号室,,01,101,0640806,,,,,,,2023-01-13,1,,,,,スタークリエイツ,0
2822,8430003014624,新規,0,2023-01-13,2023-01-13,合同会社Ｈｉ‐ｎｏｓｓｏ,,合同会社,北海道,札幌市中央区,南十七条西１０丁目２番３号,,01,101,0640917,,,,,,,2023-01-13,1,,,,,ヒノッソ,0
2824,8460303000783,新規,0,2023-01-13,2023-01-13,合同会社ユニオン,,合同会社,北海道,北見市,春光町５丁目７番１１号,,01,208,0900801,,,,,,,2023-01-13,1,,,,,ユニオン,0
2827,8470001019423,新規,0,2023-01-13,2023-01-13,株式会社サンクス,,株式会社,香川県,高松市,林町２０２番地２１,,37,201,7610301,,,,,,,2023-01-13,1,,,,,サンクス,0
2829,8470005006483,新規,0,2023-01-13,2023-01-13,一般社団法人香川管工機材商協会,,その他の設立登記法人,香川県,高松市,常磐町２丁目６番地の１７,,37,201,7600054,,,,,,,2023-01-13,1,,,,,カガワカンコウキザイショウキョウカイ,0
2830,8480003001915,新規,0,2023-01-13,2023-01-13,合同会社美容サロンＳｒｉ,,合同会社,徳島県,徳島市,蔵本町２丁目３０番地１号パティオ蔵本２０５号室,,36,201,7700042,,,,,,,2023-01-13,1,,,,,ビヨウサロンシュリー,0
2832,8500003002951,新規,0,2023-01-13,2023-01-13,５Ｍ合同会社,,合同会社,愛媛県,松山市,竹原町１丁目１０番１４号,,38,201,7900052,,,,,,,2023-01-13,1,,,,,ゴエム,0
2834,8700150011132,新規,0,2023-01-13,2015-10-09,桜ケ丘コミュニティセンタ－運営協議会,,その他,東京都,多摩市,桜ヶ丘１丁目１７－７,,13,224,2060013,,,,,,,2015-10-09,1,,,,,サクラガオカコミユニテイセンターウンエイキヨウギカイ,0
2835,8700150113548,新規,0,2023-01-13,2023-01-10,角田市行政区長連絡協議会,,その他,宮城県,角田市,角田字大坊４１,,04,208,9811505,,,,,,,2023-01-10,1,,,,,カクダシギヨウセイクチヨウレンラクキヨウギカイ,0
2836,8700150113705,新規,0,2023-01-13,2023-01-13,ＹＥＡＲ　ＷＩＳＨ　ＬＩＭＩＴＥＤ,,外国会社等,,,,,,,,Ｐ．Ｏ．　Ｂｏｘ　９５７，Ｏｆｆｓｈｏｒｅ　Ｉｎｃｏｒｐｏｒａｔｉｏｎｓ　Ｃｅｎｔｒｅ，Ｒｏａｄ　Ｔｏｗｎ，Ｔｏｒｔｏｌａ，Ｂｒｉｔｉｓｈ　Ｖｉｒｇｉｎ　Ｉｓｌａｎｄｓ,,,,,,2023-01-13,1,,,,,イヤーウイツシユリミテツド,0
2837,8700150113713,新規,0,2023-01-13,2023-01-13,ｂｅｉｊｉｎｇ　ｊｉｕｓｈｅｎｇｈｕｉ　ｊｉｎｇｍａｏ　ｙｏｕｘｉａｎｇｏｎｇｓｉ,,外国会社等,,,,,,,,ｃｈａｏｙａｎｇｑｕｚｈｏｕｚｈｕａｎｇｊａｙｕａｎｎａｎｌｉ，１ｈａｏｌｏｕ５ｃｅｎｇ（０５）５１３，ｂｅｉｊｉｎｇ，ｃｈｉｎａ,,,,,,2023-01-13,1,,,,,ペキンクショウキケイボウユウゲンコウシ,0
2844,9010001232062,新規,0,2023-01-13,2023-01-13,株式会社Ｑｕｉｋｓｏｌ　Ｊａｐａｎ,,株式会社,東京都,中央区,築地５丁目４番１９号,,13,102,1040045,,,,,,,2023-01-13,1,,,,,クイックソルジャパン,0
2845,9010001232137,新規,0,2023-01-13,2023-01-13,株式会社コーポレートブランディング,,株式会社,東京都,中央区,晴海３丁目１６番１号,,13,102,1040053,,,,,,,2023-01-13,1,,,,,コーポレートブランディング,0
2850,9010103002058,新規,0,2023-01-13,2023-01-13,合同会社ライフエナジー,,合同会社,東京都,八王子市,下柚木１６２４番地８８,,13,201,1920372,,,,,,,2023-01-13,1,,,,,ライフエナジー,0
2857,9010401171653,新規,0,2023-01-13,2023-01-13,サンリアルティ株式会社,,株式会社,東京都,港区,麻布台１丁目１１番１０号,,13,103,1060041,,,,,,,2023-01-13,1,,,,,サンリアルティ,0
2858,9010401171769,新規,0,2023-01-13,2023-01-13,株式会社ＪａＫＥ,,株式会社,東京都,港区,南青山４丁目２３番１－４０１号,,13,103,1070062,,,,,,,2023-01-13,1,,,,,ジェイク,0
2864,9010503006848,新規,0,2023-01-13,2023-01-13,Ｎｏｒｔｈ　Ｔｒａｄｉｎｇ合同会社,,合同会社,東京都,台東区,上野５丁目５－９－１４０２,,13,106,1100005,,,,,,,2023-01-13,1,,,,,ノーストレーディング,0
2866,9010603009940,新規,0,2023-01-13,2023-01-13,合同会社ＢＵＬＬＳ,,合同会社,東京都,江東区,豊洲４丁目１１番５－３０８号,,13,108,1350061,,,,,,,2023-01-13,1,,,,,ブルズ,0
2867,9010703006540,新規,0,2023-01-13,2023-01-13,合同会社ＲａｍｓＯｆｆｉｃｅ,,合同会社,東京都,品川区,戸越２丁目１番３号丸雄ビル３０２,,13,109,1420041,,,,,,,2023-01-13,1,,,,,ラムズオフィス,0
2869,9010901052287,新規,0,2023-01-13,2023-01-13,アンペアクト株式会社,,株式会社,東京都,世田谷区,上野毛３丁目２６番１２－２０１号,,13,112,1580093,,,,,,,2023-01-13,1,,,,,アンペアクト,0
2870,9010901052304,新規,0,2023-01-13,2023-01-13,Ｒｅｄｅｍｐｔｉｏｎ株式会社,,株式会社,東京都,世田谷区,代沢２丁目３９番１３－１２１号,,13,112,1550032,,,,,,,2023-01-13,1,,,,,レデンプション,0
2871,9010901052312,新規,0,2023-01-13,2023-01-13,レオン・ストラテジー株式会社,,株式会社,東京都,世田谷区,下馬５丁目２７番１７号,,13,112,1540002,,,,,,,2023-01-13,1,,,,,レオンストラテジー,0
2872,9010901052320,新規,0,2023-01-13,2023-01-13,株式会社ａｂｉｓｓｏ,,株式会社,東京都,世田谷区,松原３丁目３９番２５号,,13,112,1560043,,,,,,,2023-01-13,1,,,,,アビッソ,0
2873,9010901052353,新規,0,2023-01-13,2023-01-13,株式会社潮,,株式会社,東京都,世田谷区,奥沢６丁目２２番１２号,,13,112,1580083,,,,,,,2023-01-13,1,,,,,ウシオ,0
2875,9010903007900,新規,0,2023-01-13,2023-01-13,合同会社セカンドソート,,合同会社,東京都,世田谷区,船橋２丁目１９番２２号,,13,112,1560055,,,,,,,2023-01-13,1,,,,,セカンドソート,0
2876,9010905004417,新規,0,2023-01-13,2023-01-13,一般社団法人ポータブル蓄電池リサイクル協会,,その他の設立登記法人,東京都,世田谷区,用賀１丁目２７番２０号山浦ビル３階,,13,112,1580097,,,,,,,2023-01-13,1,,,,,ポータブルチクデンチリサイクルキョウカイ,0
2881,9011003016040,新規,0,2023-01-13,2023-01-13,ＴＢＤ合同会社,,合同会社,東京都,渋谷区,恵比寿南２丁目２１番８号恵比寿ファインヒル５０２,,13,113,1500022,,,,,,,2023-01-13,1,,,,,ティービーディー,0
2882,9011003016057,新規,0,2023-01-13,2023-01-13,合同会社ＲＩＴＡ,,合同会社,東京都,渋谷区,渋谷２丁目１９番１５号宮益坂ビルディング６０９,,13,113,1500002,,,,,,,2023-01-13,1,,,,,リタ,0
2887,9011101101421,新規,0,2023-01-13,2023-01-13,株式会社アタリヤ管財,,株式会社,東京都,新宿区,西早稲田３丁目６番４号,,13,104,1690051,,,,,,,2023-01-13,1,,,,,アタリヤカンザイ,0
2888,9011101101438,新規,0,2023-01-13,2023-01-13,株式会社東京第一調査,,株式会社,東京都,新宿区,新宿５丁目１４番１２号天翔オフィス２１１号室,,13,104,1600022,,,,,,,2023-01-13,1,,,,,トウキョウダイイチチョウサ,0
2889,9011101101454,新規,0,2023-01-13,2023-01-13,株式会社ＭｅｇａＦＯＸ,,株式会社,東京都,新宿区,高田馬場２丁目７番１１号コーポ高田２０２号,,13,104,1690075,,,,,,,2023-01-13,1,,,,,メガフォックス,0
2890,9011101101462,新規,0,2023-01-13,2023-01-13,株式会社もとしょっぷ神楽坂,,株式会社,東京都,新宿区,横寺町３６番地,,13,104,1620831,,,,,,,2023-01-13,1,,,,,モトショップカグラザカ,0
2891,9011101101470,新規,0,2023-01-13,2023-01-13,足つぼ睡眠研究所株式会社,,株式会社,東京都,新宿区,西新宿７丁目１８番１２号新都心ビル６０２,,13,104,1600023,,,,,,,2023-01-13,1,,,,,アシツボスイミンケンキュウジョ,0
2892,9011103012591,新規,0,2023-01-13,2023-01-13,合同会社ダブルプランニング,,合同会社,東京都,新宿区,西新宿３丁目３番１３号西新宿水間ビル６階,,13,104,1600023,,,,,,,2023-01-13,1,,,,,ダブルプランニング,0
2900,9011403003877,新規,0,2023-01-13,2023-01-13,Ｒ・Ｃａｒｒｙ合同会社,,合同会社,東京都,板橋区,板橋２丁目６４番２－４０４号,,13,119,1730004,,,,,,,2023-01-13,1,,,,,アールキャリー,0
2902,9011501028826,新規,0,2023-01-13,2023-01-13,便利屋ミヤナミ株式会社,,株式会社,東京都,北区,西ケ原１丁目５８番１１号,,13,117,1140024,,,,,,,2023-01-13,1,,,,,ベンリヤミヤナミ,0
2910,9012701017429,新規,0,2023-01-13,2023-01-13,株式会社ＴＢＯ,,株式会社,東京都,東久留米市,幸町２丁目５番３号,,13,222,2030052,,,,,,,2023-01-13,1,,,,,ティービーオー,0
2915,9013301050183,新規,0,2023-01-13,2023-01-13,株式会社ｉｍｐｌａｎｔＬａｂ,,株式会社,東京都,豊島区,西池袋１丁目２番１号アウル・スクエアビルＢ１階,,13,116,1710021,,,,,,,2023-01-13,1,,,,,インプラントラボ,0
2916,9013301050191,新規,0,2023-01-13,2023-01-13,株式会社Ｆｏｒ　ｆ,,株式会社,東京都,豊島区,池袋２丁目３６－１ＩＮＦＩＮＩＴＹＩＫＥＢＵＫＵＲＯ６Ｆ,,13,116,1710014,,,,,,,2023-01-13,1,,,,,フォーエフ,0
2917,9013303006448,新規,0,2023-01-13,2023-01-13,ＧＯＬＤＳＨＩＰ合同会社,,合同会社,東京都,豊島区,上池袋１丁目２５番２号コスモス２６上池袋４０１,,13,116,1700012,,,,,,,2023-01-13,1,,,,,ゴールドシップ,0
2925,9020001149719,新規,0,2023-01-13,2023-01-13,株式会社リンクアップコンサルティング,,株式会社,神奈川県,横浜市中区,長者町２丁目５－１８ピアセントラルビル２０１,,14,104,2310033,,,,,,,2023-01-13,1,,,,,リンクアップコンサルティング,0
2926,9020001149735,新規,0,2023-01-13,2023-01-13,株式会社トライスターシステム,,株式会社,神奈川県,横浜市金沢区,六浦３丁目８番２号,,14,108,2360031,,,,,,,2023-01-13,1,,,,,トライスターシステム,0
2927,9020001149743,新規,0,2023-01-13,2023-01-13,株式会社誠和電設,,株式会社,神奈川県,横浜市瀬谷区,上瀬谷町９番地１８インペリアル瀬谷１０１,,14,114,2460006,,,,,,,2023-01-13,1,,,,,セイワデンセツ,0
2928,9020001149751,新規,0,2023-01-13,2023-01-13,株式会社Ｔｒｅｅ,,株式会社,神奈川県,横浜市青葉区,梅が丘２５番地５ヴェレーナ青葉台４０４,,14,117,2270052,,,,,,,2023-01-13,1,,,,,トゥリー,0
2929,9020001149768,新規,0,2023-01-13,2023-01-13,アーク・ビルド株式会社,,株式会社,神奈川県,横浜市中区,山手町１００番,,14,104,2310862,,,,,,,2023-01-13,1,,,,,アークビルド,0
2930,9020001149776,新規,0,2023-01-13,2023-01-13,株式会社Ａｋａｌａ,,株式会社,神奈川県,横浜市都筑区,茅ケ崎中央８番２５－６０４号,,14,118,2240032,,,,,,,2023-01-13,1,,,,,アカラ,0
2931,9020001149784,新規,0,2023-01-13,2023-01-13,ＩＫＳインベストメント株式会社,,株式会社,神奈川県,川崎市川崎区,駅前本町１１番地２,,14,131,2100007,,,,,,,2023-01-13,1,,,,,アイケイエスインベストメント,0
2932,9020001149801,新規,0,2023-01-13,2023-01-13,株式会社ｎｅｘｔａｇｅ,,株式会社,神奈川県,川崎市多摩区,南生田２丁目６番４号,,14,135,2140036,,,,,,,2023-01-13,1,,,,,ネクステージ,0
2933,9020001149834,新規,0,2023-01-13,2023-01-13,株式会社Ｎ綜合サービス,,株式会社,神奈川県,川崎市麻生区,東百合丘２丁目２７番５号,,14,137,2150012,,,,,,,2023-01-13,1,,,,,エヌソウゴウサービス,0
2936,9020003023062,新規,0,2023-01-13,2023-01-13,合同会社審明社,,合同会社,神奈川県,川崎市麻生区,片平４丁目５番２４号,,14,137,2150023,,,,,,,2023-01-13,1,,,,,シンメイシャ,0
2937,9020003023112,新規,0,2023-01-13,2023-01-13,ＵＮＥＭ．合同会社,,合同会社,神奈川県,横浜市神奈川区,西寺尾４丁目１９番１９号,,14,102,2210001,,,,,,,2023-01-13,1,,,,,ユネム,0
2938,9021001077918,新規,0,2023-01-13,2023-01-13,近所コーポレーション株式会社,,株式会社,神奈川県,藤沢市,みその台９番２０号,,14,205,2510873,,,,,,,2023-01-13,1,,,,,キンジョコーポレーション,0
2939,9021001077926,新規,0,2023-01-13,2023-01-13,株式会社アパダーナ,,株式会社,神奈川県,厚木市,温水２２２９番地８,,14,212,2430033,,,,,,,2023-01-13,1,,,,,アパダーナ,0
2940,9021001077934,新規,0,2023-01-13,2023-01-13,株式会社Ｒｉｍｔｅｃ,,株式会社,神奈川県,厚木市,恩名１丁目１３番２６号,,14,212,2430032,,,,,,,2023-01-13,1,,,,,リムテック,0
2941,9021001077942,新規,0,2023-01-13,2023-01-13,株式会社ＬｉｅｎｓＴｅｃ,,株式会社,神奈川県,相模原市南区,上鶴間本町９丁目３４番１５号,,14,153,2520318,,,,,,,2023-01-13,1,,,,,リアンテック,0
2944,9021003012591,新規,0,2023-01-13,2023-01-13,鎌倉Ｌａｂ合同会社,,合同会社,神奈川県,藤沢市,辻堂元町２丁目１０番４７号,,14,205,2510043,,,,,,,2023-01-13,1,,,,,カマクララボ,0
2947,9021005012714,新規,0,2023-01-13,2023-01-13,一般社団法人湘南エールアンサンブル,,その他の設立登記法人,神奈川県,藤沢市,鵠沼東３番１－６１６号,,14,205,2510026,,,,,,,2023-01-13,1,,,,,ショウナンエールアンサンブル,0
2952,9030001151962,新規,0,2023-01-13,2023-01-13,ＭＲ空調株式会社,,株式会社,埼玉県,所沢市,小手指町２丁目１５番地の２２,,11,208,3591141,,,,,,,2023-01-13,1,,,,,エムアールクウチョウ,0
2957,9030003020959,新規,0,2023-01-13,2023-01-13,合同会社秀麗金属,,合同会社,埼玉県,鶴ヶ島市,大字高倉３３０番地１,,11,241,3502223,,,,,,,2023-01-13,1,,,,,シュウレイキンゾク,0
2965,9040001126501,新規,0,2023-01-13,2023-01-13,おおたか経営コンサルティング株式会社,,株式会社,千葉県,市川市,妙典５丁目１３番３３号Ａ＆Ｙビル３Ｆ,,12,203,2720111,,,,,,,2023-01-13,1,,,,,オオタカケイエイコンサルティング,0
2966,9040001126567,新規,0,2023-01-13,2023-01-13,株式会社ＩＣＳ,,株式会社,千葉県,成田市,三里塚２５２番地２１,,12,211,2860111,,,,,,,2023-01-13,1,,,,,アイシーエス,0
2967,9040001126575,新規,0,2023-01-13,2023-01-13,株式会社トータルハウスクリーニングセンター,,株式会社,千葉県,市川市,鬼越１丁目８番２３号,,12,203,2720022,,,,,,,2023-01-13,1,,,,,トータルハウスクリーニングセンター,0
2968,9040001126617,新規,0,2023-01-13,2023-01-13,Ｂｅｌｌｅ　Ｈｅａｌｔｈ　Ｓｔｒａｔｅｇｉｅｓ株式会社,,株式会社,千葉県,市川市,八幡３丁目３番２－６１９号,,12,203,2720021,,,,,,,2023-01-13,1,,,,,ベルヘルスストラテジーズ,0
2969,9040001126625,新規,0,2023-01-13,2023-01-13,株式会社トランステック,,株式会社,千葉県,松戸市,小金原７丁目１番地２１棟３０６号,,12,207,2700021,,,,,,,2023-01-13,1,,,,,トランステック,0
2973,9040003021667,新規,0,2023-01-13,2023-01-13,合同会社レジリエ,,合同会社,千葉県,千葉市若葉区,桜木北３丁目１６－１０,,12,104,2640029,,,,,,,2023-01-13,1,,,,,レジリエ,0
2974,9040003021675,新規,0,2023-01-13,2023-01-13,合同会社ユーカリが丘ファイナンシャル・プランニング研究所,,合同会社,千葉県,佐倉市,宮ノ台２丁目２５番６号,,12,212,2850857,,,,,,,2023-01-13,1,,,,,ユーカリガオカファイナンシャルプランニングケンキュウジョ,0
2978,9050001052218,新規,0,2023-01-13,2023-01-13,株式会社ａｎｏｎ,,株式会社,茨城県,神栖市,大野原１丁目４番３４号ＳａｋｕｒａＰａｌａｃｅＤ１０６,,08,232,3140144,,,,,,,2023-01-13,1,,,,,アノン,0
2979,9050001052234,新規,0,2023-01-13,2023-01-13,宏貴商会株式会社,,株式会社,茨城県,神栖市,太田７０５番地１１２,,08,232,3140254,,,,,,,2023-01-13,1,,,,,ヒロキショウカイ,0
2980,9050003007137,新規,0,2023-01-13,2023-01-13,Ｂｅｌｌａｔｒｉｘ合同会社,,合同会社,茨城県,つくばみらい市,紫峰ヶ丘１丁目１３番地２,,08,235,3002359,,,,,,,2023-01-13,1,,,,,ベラトリックス,0
2987,9060001035618,新規,0,2023-01-13,2023-01-13,株式会社ＦＫＳ,,株式会社,栃木県,宇都宮市,竹林町１６４番地４,,09,201,3210974,,,,,,,2023-01-13,1,,,,,エフケイエス,0
2989,9060005010039,新規,0,2023-01-13,2023-01-13,社会保険労務士法人栃木労務管理事務所,,その他の設立登記法人,栃木県,宇都宮市,西一の沢町１５番３５号,,09,201,3200046,,,,,,,2023-01-13,1,,,,,トチギロウムカンリジムショ,0
2993,9070003004784,新規,0,2023-01-13,2023-01-13,合同会社ｆｅｓｔａｒｉａ,,合同会社,群馬県,高崎市,白銀町９番地白金ビル３階,,10,202,3700825,,,,,,,2023-01-13,1,,,,,フェスタリア,0
2998,9090001017927,新規,0,2023-01-13,2023-01-13,株式会社ロメホール,,株式会社,山梨県,山梨市,大野７３６番地,,19,205,4050016,,,,,,,2023-01-13,1,,,,,ロメホール,0
3003,9110001037245,新規,0,2023-01-13,2023-01-13,株式会社Ｍ‐ＣＲＯＳＳ　ＣＡＲＳ新潟,,株式会社,新潟県,十日町市,中条丙９８２番地１,,15,210,9498614,,,,,,,2023-01-13,1,,,,,エムクロスカーズニイガタ,0
3014,9120001251638,新規,0,2023-01-13,2023-01-13,株式会社ＭＡＲＵＴＡＫＥ,,株式会社,大阪府,大阪市西成区,山王１丁目７番１号,,27,122,5570001,,,,,,,2023-01-13,1,,,,,マルタケ,0
3015,9120001251654,新規,0,2023-01-13,2023-01-13,株式会社働き蜂不動産,,株式会社,大阪府,大阪市西区,北堀江３丁目７番３０号,,27,106,5500014,,,,,,,2023-01-13,1,,,,,ハタラキバチフドウサン,0
3016,9120001251679,新規,0,2023-01-13,2023-01-13,株式会社Ｍ’ｓブロウ,,株式会社,大阪府,大阪市浪速区,湊町２丁目２番１０－３５０７号,,27,111,5560017,,,,,,,2023-01-13,1,,,,,エムズブロウ,0
3017,9120001251712,新規,0,2023-01-13,2023-01-13,日本ヘルスメディカル株式会社,,株式会社,大阪府,大阪市都島区,片町１丁目５番１３号,,27,102,5340025,,,,,,,2023-01-13,1,,,,,ニホンヘルスメディカル,0
3018,9120001251737,新規,0,2023-01-13,2023-01-13,ＫＣＭＣ　Ｊａｐａｎ株式会社,,株式会社,大阪府,大阪市住之江区,南港北２丁目１番１０号ＡＴＣビルＯ’ｓ棟５Ｆ,,27,125,5590034,,,,,,,2023-01-13,1,,,,,ケイシーエムシージャパン,0
3019,9120001251745,新規,0,2023-01-13,2023-01-13,株式会社リープアクト,,株式会社,大阪府,大阪市城東区,今福東１丁目４番３号,,27,118,5360002,,,,,,,2023-01-13,1,,,,,リープアクト,0
3022,9120003023218,新規,0,2023-01-13,2023-01-13,アーシャ・プランニング合同会社,,合同会社,大阪府,枚方市,南中振１丁目６２番７号,,27,210,5730094,,,,,,,2023-01-13,1,,,,,アーシャプランニング,0
3023,9120003023226,新規,0,2023-01-13,2023-01-13,合同会社ｏｎｅｓ,,合同会社,大阪府,大阪市淀川区,新北野２丁目４番２３－３１６号,,27,123,5320025,,,,,,,2023-01-13,1,,,,,ワンズ,0
3024,9120003023234,新規,0,2023-01-13,2023-01-13,大信合同会社,,合同会社,大阪府,大阪市浪速区,恵美須西３丁目３番３６号,,27,111,5560003,,,,,,,2023-01-13,1,,,,,ダイシン,0
3025,9120003023250,新規,0,2023-01-13,2023-01-13,リダレ合同会社,,合同会社,大阪府,大阪市北区,大淀南２丁目２番９－３１０１号,,27,127,5310075,,,,,,,2023-01-13,1,,,,,リダレ,0
3033,9120101066837,新規,0,2023-01-13,2023-01-13,株式会社Ａｃｔｒｉｂｕｔｉｏｎ,,株式会社,大阪府,泉大津市,東助松町２丁目９番８号,,27,206,5950006,,,,,,,2023-01-13,1,,,,,アクトリビューション,0
3035,9120901046963,新規,0,2023-01-13,2023-01-13,株式会社Ｑｕａｌｉｔｙ　ｔｉｍｅ,,株式会社,大阪府,茨木市,西河原１丁目１８番１１３号,,27,211,5670023,,,,,,,2023-01-13,1,,,,,クオリティタイム,0
3041,9122001036580,新規,0,2023-01-13,2023-01-13,日本＿桂貿易株式会社,00129041,株式会社,大阪府,東大阪市,源氏ケ丘１番１３号,,27,227,5770822,,,,,,,2023-01-13,1,,,,,ニホンイッケイボウエキ,0
3047,9130001073437,新規,0,2023-01-13,2023-01-13,株式会社ライフブック,,株式会社,京都府,舞鶴市,字上安５６６番地１,,26,202,6240912,,,,,,,2023-01-13,1,,,,,ライフブック,0
3048,9130001073453,新規,0,2023-01-13,2023-01-13,株式会社三ツ星,,株式会社,京都府,向日市,寺戸町小佃５番地の１グランマークシティ東向日駅前９１６号,,26,208,6170002,,,,,,,2023-01-13,1,,,,,ミツボシ,0
3049,9130001073478,新規,0,2023-01-13,2023-01-13,株式会社ＴＵＫＵＲＵ,,株式会社,京都府,京都市北区,西賀茂山ノ森町４８番地１,,26,101,6038812,,,,,,,2023-01-13,1,,,,,ツクル,0
3058,9140001128685,新規,0,2023-01-13,2023-01-13,株式会社ＫＤＳ,,株式会社,兵庫県,神戸市垂水区,多聞台３丁目１１番８－１号,,28,108,6550007,,,,,,,2023-01-13,1,,,,,ケーディーエス,0
3059,9140001128693,新規,0,2023-01-13,2023-01-13,株式会社ＳＯＬＥＩＬ,,株式会社,兵庫県,姫路市,立町３８番地２Ｆ,,28,201,6700903,,,,,,,2023-01-13,1,,,,,ソレイユ,0
3062,9140003018554,新規,0,2023-01-13,2023-01-13,豊岡地域エネルギーサービス合同会社,,合同会社,兵庫県,豊岡市,神美台１５７番地の７４,,28,209,6680831,,,,,,,2023-01-13,1,,,,,トヨオカチイキエネルギーサービス,0
3066,9150001026079,新規,0,2023-01-13,2023-01-13,株式会社Ｓ＆Ｓコンサルティング,,株式会社,奈良県,橿原市,久米町５６９番地ウエストゲート神宮前２０８号,,29,205,6340063,,,,,,,2023-01-13,1,,,,,エスアンドエスコンサルティング,0
3067,9150001026095,新規,0,2023-01-13,2023-01-13,株式会社ｉｒｏｄｏｒｉ,,株式会社,奈良県,北葛城郡上牧町,服部台３丁目６番７号,,29,424,6390212,,,,,,,2023-01-13,1,,,,,イロドリ,0
3068,9150005009451,新規,0,2023-01-13,2023-01-13,医療法人Ｌ＆Ｌ,,その他の設立登記法人,奈良県,香芝市,上中７８８番１,,29,210,6390265,,,,,,,2023-01-13,1,,,,,エルアンドエル,0
3070,9160001024759,新規,0,2023-01-13,2023-01-13,株式会社アルファーウェイブ,,株式会社,滋賀県,大津市,平津１丁目２１－２２本郷ビル２Ｆ,,25,201,5200862,,,,,,,2023-01-13,1,,,,,アルファーウェイブ,0
3071,9160001024775,新規,0,2023-01-13,2023-01-13,株式会社レイクサイド・ビジュー,,株式会社,滋賀県,彦根市,大堀町９４７番地１２,,25,202,5220026,,,,,,,2023-01-13,1,,,,,レイクサイドビジュー,0
3073,9170003001821,新規,0,2023-01-13,2023-01-13,合同会社ヨシウェルディング,,合同会社,和歌山県,紀の川市,北大井５２９番地１３,,30,208,6496406,,,,,,,2023-01-13,1,,,,,ヨシウェルディング,0
3076,9180001154455,新規,0,2023-01-13,2023-01-13,株式会社ＫＡＮＡＴＡ,,株式会社,愛知県,名古屋市北区,東大杉町４丁目３９番地の３ツインビービル１Ｆ,,23,103,4620826,,,,,,,2023-01-13,1,,,,,カナタ,0
3077,9180001154496,新規,0,2023-01-13,2023-01-13,後藤建工株式会社,,株式会社,愛知県,江南市,北野町旭２９番地２,,23,217,4838176,,,,,,,2023-01-13,1,,,,,ゴトウケンコウ,0
3078,9180001154505,新規,0,2023-01-13,2023-01-13,株式会社ＲＡＳ,,株式会社,愛知県,江南市,飛高町栄４１番地,,23,217,4838339,,,,,,,2023-01-13,1,,,,,ラス,0
3079,9180001154513,新規,0,2023-01-13,2023-01-13,株式会社ハナキリン,,株式会社,愛知県,名古屋市中区,千代田１丁目５番１１号,,23,106,4600012,,,,,,,2023-01-13,1,,,,,ハナキリン,0
3080,9180001154521,新規,0,2023-01-13,2023-01-13,株式会社Ｐｉｅｃｅ　Ｖａｌｕｅ,,株式会社,愛知県,名古屋市中区,新栄３丁目３番９号（Ｇ１ビル千種５Ａ号）,,23,106,4600007,,,,,,,2023-01-13,1,,,,,ピースバリュー,0
3081,9180001154538,新規,0,2023-01-13,2023-01-13,株式会社津留建設工業,,株式会社,愛知県,知多郡阿久比町,大字宮津字西森下１１番地,,23,441,4702204,,,,,,,2023-01-13,1,,,,,ツドメケンセツコウギョウ,0
3082,9180001154562,新規,0,2023-01-13,2023-01-13,株式会社ランスー,,株式会社,愛知県,稲沢市,稲島東３丁目１２９番地,,23,220,4928230,,,,,,,2023-01-13,1,,,,,ランスー,0
3083,9180001154570,新規,0,2023-01-13,2023-01-13,ピクシーワークス株式会社,,株式会社,愛知県,名古屋市西区,名駅１丁目１番１７号名駅ダイヤメイテツビル１１階,,23,104,4510045,,,,,,,2023-01-13,1,,,,,ピクシーワークス,0
3095,9190001030102,新規,0,2023-01-13,2023-01-13,株式会社藤竜建設,,株式会社,三重県,桑名市,大字和泉４８８番地１ハープスターＢ棟１０１号,,24,205,5110838,,,,,,,2023-01-13,1,,,,,トウリュウケンセツ,0
3117,9220001025206,新規,0,2023-01-13,2023-01-13,株式会社エステート竣,,株式会社,石川県,金沢市,西泉３丁目１２番地,,17,201,9218043,,,,,,,2023-01-13,1,,,,,エステートシュン,0
3119,9230003001955,新規,0,2023-01-13,2023-01-13,合同会社大福,,合同会社,富山県,富山市,田畠２３４番地５,,16,201,9301331,,,,,,,2023-01-13,1,,,,,,0
3123,9240001060952,新規,0,2023-01-13,2023-01-13,株式会社創慎,,株式会社,広島県,広島市安佐南区,川内５丁目１番７０－１０号,,34,105,7310102,,,,,,,2023-01-13,1,,,,,ソウシン,0
3124,9240001060960,新規,0,2023-01-13,2023-01-13,株式会社ＳＭＯＫ　ＤＥＳＩＧＮ,,株式会社,広島県,安芸高田市,高宮町羽佐竹１９３０番地,,34,214,7391807,,,,,,,2023-01-13,1,,,,,スモックデザイン,0
3127,9260001037585,新規,0,2023-01-13,2023-01-13,株式会社雄和機設,,株式会社,岡山県,倉敷市,上東４５８番地３,,33,202,7010111,,,,,,,2023-01-13,1,,,,,ユウワキセツ,0
3138,9290001100183,新規,0,2023-01-13,2023-01-13,株式会社０８ＬＡＢＯ,,株式会社,福岡県,福岡市博多区,博多駅前１丁目２３番１号ＰａｒｋＦｒｏｎｔ博多駅前一丁目５Ｆ－Ｂ,,40,132,8120011,,,,,,,2023-01-13,1,,,,,オハラボ,0
3139,9290001100200,新規,0,2023-01-13,2023-01-13,株式会社インテイク,,株式会社,福岡県,福岡市城南区,片江５丁目１番４５－３０９号,,40,136,8140142,,,,,,,2023-01-13,1,,,,,インテイク,0
3140,9290001100217,新規,0,2023-01-13,2023-01-13,株式会社ベター・サンクス,,株式会社,福岡県,糟屋郡粕屋町,若宮２丁目２０番２０号,,40,349,8112314,,,,,,,2023-01-13,1,,,,,ベターサンクス,0
3141,9290001100233,新規,0,2023-01-13,2023-01-13,株式会社Ｎｏｄａｘ,,株式会社,福岡県,福岡市中央区,天神２丁目３番１０号,,40,133,8100001,,,,,,,2023-01-13,1,,,,,ノダックス,0
3142,9290003013409,新規,0,2023-01-13,2023-01-13,合同会社ｋｉｏ,,合同会社,福岡県,福岡市博多区,山王１丁目１４番８号,,40,132,8120015,,,,,,,2023-01-13,1,,,,,キオ,0
3144,9290801029184,新規,0,2023-01-13,2023-01-13,株式会社Ｊ‐Ｗ．Ｉ．Ｔ,,株式会社,福岡県,北九州市門司区,吉志１丁目３６番２６号,,40,101,8000114,,,,,,,2023-01-13,1,,,,,ジェイウィット,0
3146,9290803004301,新規,0,2023-01-13,2023-01-13,合同会社ヒビキ通商,,合同会社,福岡県,遠賀郡芦屋町,正門町７－３,,40,381,8070112,,,,,,,2023-01-13,1,,,,,ヒビキツウショウ,0
3156,9330001030483,新規,0,2023-01-13,2023-01-13,株式会社フォーテック,,株式会社,熊本県,熊本市北区,池田３丁目１４番５号,,43,105,8600082,,,,,,,2023-01-13,1,,,,,フォーテック,0
3157,9330001030491,新規,0,2023-01-13,2023-01-13,株式会社Ｔ‐Ｃｕｏｒｅ不動産,,株式会社,熊本県,熊本市中央区,出水５丁目１１番３１号,,43,101,8620941,,,,,,,2023-01-13,1,,,,,ティークオーレフドウサン,0
3158,9330001030500,新規,0,2023-01-13,2023-01-13,株式会社グラッドワーク,,株式会社,熊本県,熊本市中央区,子飼本町１４番１８号,,43,101,8600851,,,,,,,2023-01-13,1,,,,,グラッドワーク,0
3159,9330003009666,新規,0,2023-01-13,2023-01-13,合同会社ＣＲＯＳＳ　ｔｈｅ　ＷＡＬＬ,,合同会社,熊本県,熊本市北区,植木町鞍掛１－１,,43,105,8610161,,,,,,,2023-01-13,1,,,,,クロスザウォール,0
3165,9360003012626,新規,0,2023-01-13,2023-01-13,合同会社ＷＡＴＴＹ　ＲＥＳＯＲＴ,,合同会社,沖縄県,島尻郡座間味村,字阿佐１１９番地,,47,354,9013401,,,,,,,2023-01-13,1,,,,,ワッティーリゾート,0
3178,9390001017137,新規,0,2023-01-13,2023-01-13,株式会社内海不動産,,株式会社,山形県,山形市,上桜田２丁目１１番１７号,,06,201,9902421,,,,,,,2023-01-13,1,,,,,ウチウミフドウサン,0
3182,9410001013372,新規,0,2023-01-13,2023-01-13,株式会社種ファーム,,株式会社,秋田県,能代市,二ツ井町種字熊野堂前７１番地,,05,202,0183132,,,,,,,2023-01-13,1,,,,,タネファーム,0
3183,9410005006496,新規,0,2023-01-13,2023-01-13,秋田インターナショナル協同組合,,その他の設立登記法人,秋田県,仙北市,田沢湖生保内字街道ノ上８０番地２,,05,215,0141201,,,,,,,2023-01-13,1,,,,,アキタインターナショナル,0
3185,9430001088165,新規,0,2023-01-13,2023-01-13,株式会社福助貨物軽自動車運送事業,,株式会社,北海道,札幌市豊平区,豊平三条４丁目２番２５号福島ビル３階,,01,105,0620903,,,,,,,2023-01-13,1,,,,,フクスケカモツケイジドウシャウンソウジギョウ,0
3188,9440001009211,新規,0,2023-01-13,2023-01-13,株式会社プラチナエージェント,,株式会社,北海道,函館市,昭和３丁目１番２７号,,01,202,0410812,,,,,,,2023-01-13,1,,,,,プラチナエージェント,0
3189,9460101007311,新規,0,2023-01-13,2023-01-13,株式会社フィールドアス,,株式会社,北海道,上川郡清水町,字熊牛７０番地,,01,636,0890241,,,,,,,2023-01-13,1,,,,,フィールドアス,0
3190,9460103001502,新規,0,2023-01-13,2023-01-13,合同会社トワイン,,合同会社,北海道,帯広市,大通南２５丁目１４番地１,,01,207,0800010,,,,,,,2023-01-13,1,,,,,トワイン,0
3191,9470001019422,新規,0,2023-01-13,2023-01-13,株式会社Ｊ’ｓ　ＪＡＰＡＮ,,株式会社,香川県,高松市,大工町７番地８ロイヤル小川ビル１０１号,,37,201,7600042,,,,,,,2023-01-13,1,,,,,ジェイズジャパン,0
3192,9470003002327,新規,0,2023-01-13,2023-01-13,合同会社ｈａｎａｍａｒｕ,,合同会社,香川県,丸亀市,郡家町７５－１,,37,202,7630093,,,,,,,2023-01-13,1,,,,,,0
3193,9480001011972,新規,0,2023-01-13,2023-01-13,株式会社ｔｏｕｎｏｍａｒｕ,,株式会社,徳島県,徳島市,徳島町城内６－４１第２ことぶきビル,,36,201,7700851,,,,,,,2023-01-13,1,,,,,トウノマル,0
3194,9480001011980,新規,0,2023-01-13,2023-01-13,株式会社スターフィールド,,株式会社,徳島県,徳島市,東沖洲２丁目４３番地４,,36,201,7700873,,,,,,,2023-01-13,1,,,,,スターフィールド,0
3200,9490001010379,新規,0,2023-01-13,2023-01-13,株式会社ＤＡＩＳＨＩＮ,,株式会社,高知県,高知市,百石町１丁目５番１１号,,39,201,7808015,,,,,,,2023-01-13,1,,,,,ダイシン,0
3202,9500001024716,新規,0,2023-01-13,2023-01-13,ユウダイ建設株式会社,,株式会社,愛媛県,越智郡上島町,岩城１３５１番地,,38,356,7942410,,,,,,,2023-01-13,1,,,,,ユウダイケンセツ,0
3204,9700150113712,新規,0,2023-01-13,2023-01-13,Ｓｈｅｎｚｈｅｎ　Ｚｈｏｎｇｈｏｎｇ　Ｄｅｃｏｒａｔｉｏｎ　Ｅｎｇｉｎｅｅｒｉｎｇ　Ｃｏ．，ＬＴＤ,,外国会社等,,,,,,,,Ｐｉｎｇ　Ｓｈａｎ　Ｓｔｒｅｅｔ，Ｒｏｏｍ　１８１０，Ｂｕｉｌｄｉｎｇ　Ｈ，Ｌｉｕｈｅ　Ｃｉｔｙ，１６８　Ｓｈｅｎｓｈａｎ　Ｒｏａｄ，Ｐｉｎｇｓｈａｎ　Ｄｉｓｔｒｉｃｔ，Ｓｈｅｎｚｈｅｎ　Ｃｉｔｙ，Ｇｕａｎｇｄｏｎｇ　Ｐｒｏｖｉｎｃｅ，Ｃｈｉｎａ,,,,,,2023-01-13,1,,,,,シンセンシチュウコンソウショクコウテイユウゲンコウシ,0
