sequenceNumber,corporateNumber,process,correct,updateDate,changeDate,name,nameImageId,kind,prefectureName,cityName,streetNumber,addressImageId,prefectureCode,cityCode,postCode,addressOutside,addressOutsideImageId,closeDate,closeCause,successorCorporateNumber,changeCause,assignmentDate,latest,enName,enPrefectureName,enCityName,enAddressOutside,furigana,hihyoji
4,1010001218168,登記記録の閉鎖等,0,2023-12-27,2023-12-22,株式会社ＭＴＴＨ,,株式会社,東京都,千代田区,永田町２丁目１７番１７号,,13,101,1000014,,,2023-12-22,清算の結了等,,,2021-05-20,1,,,,,エムティーティーエイチ,0
25,1010501037893,登記記録の閉鎖等,0,2023-12-27,2023-12-18,三九商店株式会社,,株式会社,東京都,荒川区,南千住１丁目２６番８号,,13,118,1160003,,,2023-12-18,清算の結了等,,,2015-10-05,1,,,,,サンキュウショウテン,0
29,1010601029691,登記記録の閉鎖等,0,2023-12-27,2023-12-21,幸成サービス株式会社,,株式会社,東京都,墨田区,東向島５丁目９番１０号,,13,107,1310032,,,2023-12-21,清算の結了等,,,2015-10-05,1,,,,,コウセイサービス,0
32,1010702005930,登記記録の閉鎖等,0,2023-12-27,2023-12-22,有限会社内藤塗装店,,有限会社,東京都,品川区,西品川２丁目１０番１３号,,13,109,1410033,,,2023-12-22,清算の結了等,,,2015-10-05,1,,,,,ナイトウトソウテン,0
65,1012302000824,登記記録の閉鎖等,0,2023-12-27,2023-12-20,有限会社エーワン,,有限会社,東京都,町田市,鶴川３丁目１７番地９,,13,209,1950061,,,2023-12-20,清算の結了等,,,2015-10-05,1,,,,,エーワン,0
79,1020001096209,登記記録の閉鎖等,0,2023-12-27,2023-12-20,株式会社まるみハウス,,株式会社,神奈川県,横浜市戸塚区,吉田町１４０８番地３２,,14,110,2440817,,,2023-12-20,清算の結了等,,,2015-10-05,1,,,,,マルミハウス,0
82,1020002076102,登記記録の閉鎖等,0,2023-12-27,2023-12-20,有限会社佐々木興業,,有限会社,神奈川県,横浜市旭区,西川島町１１０番地３,,14,112,2410012,,,2023-12-20,清算の結了等,,,2015-10-05,1,,,,,,0
85,1020003019150,登記記録の閉鎖等,0,2023-12-27,2023-12-20,Ｓｋｙｌｉｎｅ　Ｚｉｐｌｉｎｅｓ　Ｊａｐａｎ合同会社,,合同会社,神奈川県,横浜市中区,尾上町６丁目８７－１,,14,104,2310015,,,2023-12-20,清算の結了等,,,2021-01-27,1,,,,,スカイラインジップラインジャパン,0
105,1030002054750,登記記録の閉鎖等,0,2023-12-27,2023-12-19,有限会社平野急便,,有限会社,埼玉県,上尾市,大字中新井３２５番地の２,,11,219,3620052,,,2023-12-19,清算の結了等,,,2015-10-05,1,,,,,ヒラノキュウビン,0
112,1050001025651,登記記録の閉鎖等,0,2023-12-27,2023-12-21,株式会社石井自動車,,株式会社,茨城県,稲敷市,伊佐部７４５番地,,08,229,3000603,,,2023-12-21,清算の結了等,,,2015-10-05,1,,,,,イシイジドウシャ,0
122,1070001005486,登記記録の閉鎖等,0,2023-12-27,2023-12-25,株式会社創夢,,株式会社,群馬県,前橋市,滝窪町３７６番地３,,10,201,3710235,,,2023-12-25,清算の結了等,,,2015-10-05,1,,,,,,0
131,1080105005712,登記記録の閉鎖等,0,2023-12-27,2023-12-22,一般社団法人富士山学協会,,その他の設立登記法人,静岡県,三島市,加茂５２番地の１１,,22,206,4110023,,,2023-12-22,清算の結了等,,,2017-01-30,1,,,,,フジサンガクキョウカイ,0
136,1110001021776,登記記録の閉鎖等,0,2023-12-27,2023-12-25,能生燃料株式会社,,株式会社,新潟県,糸魚川市,大字能生２１０２番地,,15,216,9491352,,,2023-12-25,清算の結了等,,,2015-10-05,1,,,,,ノウネンリョウ,0
140,1110002010035,登記記録の閉鎖等,0,2023-12-27,2023-12-21,有限会社イシグロ,,有限会社,新潟県,新潟市南区,新飯田８０１番地３,,15,106,9501455,,,2023-12-21,清算の結了等,,,2015-10-05,1,,,,,,0
141,1110002010118,登記記録の閉鎖等,0,2023-12-27,2023-12-25,有限会社小林オートサービス,,有限会社,新潟県,新潟市南区,新飯田２３９２番地１,,15,106,9501455,,,2023-12-25,清算の結了等,,,2015-10-05,1,,,,,コバヤシオートサービス,0
144,1120001185034,登記記録の閉鎖等,0,2023-12-27,2023-12-25,株式会社あゆみ,,株式会社,大阪府,枚方市,招提南町１丁目２３番３号,,27,210,5731155,,,2023-12-25,清算の結了等,,,2015-10-05,1,,,,,アユミ,0
145,1120001226085,登記記録の閉鎖等,0,2023-12-27,2023-12-25,ヤスダＴＳＣインターナショナル株式会社,,株式会社,大阪府,大阪市浪速区,塩草３丁目２番２６号,,27,111,5560024,,,2023-12-25,清算の結了等,,,2020-01-06,1,,,,,ヤスダティーエスシーインターナショナル,0
186,1140005024145,登記記録の閉鎖等,0,2023-12-27,2023-12-25,一般社団法人国際健美軸協会,,その他の設立登記法人,兵庫県,姫路市,飾東町山崎５４４番地２,,28,201,6710207,,,2023-12-25,清算の結了等,,,2018-05-29,1,,,,,コクサイケンビジクキョウカイ,0
193,1180002063043,登記記録の閉鎖等,0,2023-12-27,2023-12-15,有限会社ナスカエンジニアリング,,有限会社,愛知県,刈谷市,松栄町１丁目６番地３,,23,210,4480806,,,2023-12-15,清算の結了等,,,2015-10-05,1,,,,,ナスカエンジニアリング,0
194,1180005016816,登記記録の閉鎖等,0,2023-12-27,2023-12-25,一般社団法人子ども支援ひろば・つむぎ,,その他の設立登記法人,愛知県,名古屋市西区,歌里町１１１番地３,,23,104,4520807,,,2023-12-25,清算の結了等,,,2016-06-10,1,,,,,コドモシエンヒロバツムギ,0
196,1180302027318,登記記録の閉鎖等,0,2023-12-27,2023-12-19,有限会社青山保険サービス,,有限会社,愛知県,西尾市,丁田町杢左２２番地１,,23,213,4450062,,,2023-12-19,清算の結了等,,,2015-10-05,1,,,,,アオヤマホケンサービス,0
199,1190002022394,登記記録の閉鎖等,0,2023-12-27,2023-12-25,有限会社森工業,,有限会社,三重県,四日市市,前田町２３番５号,,24,202,5100893,,,2023-12-25,清算の結了等,,,2015-10-05,1,,,,,モリコウギョウ,0
215,1250001013314,登記記録の閉鎖等,0,2023-12-27,2023-12-25,ＬＥＤ商研株式会社,,株式会社,山口県,周南市,遠石３丁目１０番１号,,35,215,7450816,,,2023-12-25,清算の結了等,,,2015-10-05,1,,,,,エルイーディーショウケン,0
217,1260001003041,登記記録の閉鎖等,0,2023-12-27,2023-12-21,サンユー株式会社,,株式会社,岡山県,岡山市北区,御津野々口１１００番地,,33,101,7092117,,,2023-12-21,合併による解散等,6260001005719,令和５年１２月１日岡山市中区神下５６５番地リンク＆リンケージ株式会社（6260001005719）に合併し解散,2015-10-05,1,,,,,サンユー,0
221,1270001006555,登記記録の閉鎖等,0,2023-12-27,2023-12-22,株式会社山陰振興,,株式会社,鳥取県,鳥取市,湖山町東５丁目５０４番地２１,,31,201,6800942,,,2023-12-22,清算の結了等,,,2015-10-05,1,,,,,サンインシンコウ,0
222,1270001007900,登記記録の閉鎖等,0,2023-12-27,2023-12-25,株式会社はまだしょうじ,,株式会社,鳥取県,米子市,皆生温泉３丁目１７番７号,,31,202,6830001,,,2023-12-25,清算の結了等,,,2019-12-17,1,,,,,ハマダショウジ,0
232,1290805006402,登記記録の閉鎖等,0,2023-12-27,2023-12-25,医療法人永尾医院,,その他の設立登記法人,福岡県,築上郡築上町,大字安武１５０番地１,,40,647,8290111,,,2023-12-25,清算の結了等,,,2015-10-05,1,,,,,ナガオイイン,0
240,1320002007175,登記記録の閉鎖等,0,2023-12-27,2023-12-22,有限会社吉村石材,,有限会社,大分県,大分市,坂ノ市中央１丁目１０番３号,,44,201,8700307,,,2023-12-22,清算の結了等,,,2015-10-05,1,,,,,,0
243,1340001013668,登記記録の閉鎖等,0,2023-12-27,2023-12-25,株式会社オモト１３８０,,株式会社,鹿児島県,鹿児島市,堀江町４番１１号,,46,201,8920824,,,2023-12-25,清算の結了等,,,2015-10-05,1,,,,,,0
253,1370003001692,登記記録の閉鎖等,0,2023-12-27,2023-12-25,合同会社松尾不動産研究所,,合同会社,宮城県,仙台市青葉区,五橋１丁目１番４５－５０６号,,04,101,9800022,,,2023-12-25,清算の結了等,,,2015-10-05,1,,,,,マツオフドウサンケンキュウショ,0
256,1370005010188,登記記録の閉鎖等,0,2023-12-27,2023-12-22,一般社団法人高橋経営ＦＰ事務所,00121331,その他の設立登記法人,宮城県,岩沼市,下野郷字舘外２０６番地の２,,04,211,9892421,,,2023-12-22,清算の結了等,,,2020-11-13,1,,,,,,0
263,1410001012563,登記記録の閉鎖等,0,2023-12-27,2023-12-25,株式会社リージョン,,株式会社,秋田県,横手市,朝日が丘４丁目５番１３号,,05,203,0130055,,,2023-12-25,清算の結了等,,,2020-07-20,1,,,,,リージョン,0
275,1430002015423,登記記録の閉鎖等,0,2023-12-27,2023-12-21,矢部建設株式会社,,株式会社,北海道,札幌市厚別区,もみじ台北６丁目２番１号,,01,108,0040014,,,2023-12-21,清算の結了等,,,2015-10-05,1,,,,,ヤベケンセツ,0
304,2010502010097,登記記録の閉鎖等,0,2023-12-27,2023-12-21,有限会社ポツト,,有限会社,東京都,台東区,入谷１丁目６番２号,,13,106,1100013,,,2023-12-21,清算の結了等,,,2015-10-05,1,,,,,ポット,0
312,2010802003957,登記記録の閉鎖等,0,2023-12-27,2023-12-21,有限会社河本硝子店,,有限会社,東京都,大田区,南久が原２丁目５番１７号,,13,111,1460084,,,2023-12-21,清算の結了等,,,2015-10-05,1,,,,,カワモトガラステン,0
348,2011602009203,登記記録の閉鎖等,0,2023-12-27,2023-12-20,有限会社増本製本,,有限会社,東京都,練馬区,豊玉北１丁目２３番３号,,13,120,1760012,,,2023-12-20,清算の結了等,,,2015-10-05,1,,,,,マスモトセイホン,0
381,2021001052828,登記記録の閉鎖等,0,2023-12-27,2023-12-22,ブリングアップ株式会社,,株式会社,神奈川県,厚木市,酒井３０７０番地,,14,212,2430022,,,2023-12-22,清算の結了等,,,2015-10-05,1,,,,,ブリングアップ,0
382,2021001068790,登記記録の閉鎖等,0,2023-12-27,2023-12-22,株式会社ＩＭＡＸ,,株式会社,神奈川県,相模原市中央区,中央３丁目１４番７号,,14,152,2520239,,,2023-12-22,清算の結了等,,,2019-12-09,1,,,,,アイマックス,0
385,2021002026673,登記記録の閉鎖等,0,2023-12-27,2023-12-14,有限会社エンジョイワーク,,有限会社,神奈川県,相模原市南区,下溝２００５番地,,14,153,2520335,,,2023-12-14,清算の結了等,,,2015-10-05,1,,,,,エンジョイワーク,0
388,2021002064525,登記記録の閉鎖等,0,2023-12-27,2023-12-22,有限会社佐藤商店,,有限会社,神奈川県,横須賀市,馬堀海岸３丁目１０番１３号,,14,201,2390801,,,2023-12-22,清算の結了等,,,2015-10-05,1,,,,,サトウショウテン,0
394,2030002120048,登記記録の閉鎖等,0,2023-12-27,2023-12-21,有限会社イー・エイ・エイ・インシアード,,有限会社,埼玉県,日高市,武蔵台３丁目２１番９号,,11,242,3501255,,,2023-12-21,清算の結了等,,,2015-10-05,1,,,,,イーエイエイインシアード,0
403,2050001019165,登記記録の閉鎖等,0,2023-12-27,2023-12-22,総和観光株式会社,,株式会社,茨城県,古河市,上片田１４２７番地２,,08,204,3060128,,,2023-12-22,清算の結了等,,,2015-10-05,1,,,,,ソウワカンコウ,0
410,2080102014640,登記記録の閉鎖等,0,2023-12-27,2023-12-25,有限会社にっしん,,有限会社,静岡県,富士市,五貫島１１０２番地,,22,210,4160946,,,2023-12-25,清算の結了等,,,2015-10-05,1,,,,,ニッシン,0
438,2120102017572,登記記録の閉鎖等,0,2023-12-27,2023-12-25,有限会社ライト建築サービス,,有限会社,大阪府,富田林市,藤沢台６丁目１３番１４号,,27,214,5840071,,,2023-12-25,清算の結了等,,,2015-10-05,1,,,,,ライトケンチクサービス,0
445,2130001014579,登記記録の閉鎖等,0,2023-12-27,2023-12-25,株式会社サンワード,,株式会社,京都府,京都市伏見区,深草下川原町１２２番地,,26,109,6128401,,,2023-12-25,清算の結了等,,,2015-10-05,1,,,,,サンワード,0
453,2130005009922,登記記録の閉鎖等,0,2023-12-27,2023-12-25,医療法人社団恒陽会,,その他の設立登記法人,京都府,福知山市,内記五丁目６７番地１２,,26,201,6200000,,,2023-12-25,清算の結了等,,,2015-10-05,1,,,,,コウヨウカイ,0
454,2140001089075,登記記録の閉鎖等,0,2023-12-27,2023-12-20,株式会社ベクトルジャパン,,株式会社,東京都,練馬区,豊玉北５丁目２５番９号１階,,13,120,1760012,,,2023-12-20,清算の結了等,,,2015-10-05,1,,,,,ベクトルジャパン,0
455,2140001108693,登記記録の閉鎖等,0,2023-12-27,2023-11-30,株式会社ＳＰＳｃｏｒｐｏｒａｔｉｏｎ,,株式会社,大阪府,豊中市,蛍池西町一丁目１６番１５号サンシャインビル３０２,,27,203,5600000,,,2023-11-30,合併による解散等,9140001106328,令和５年１１月３０日大阪府豊中市蛍池西町一丁目１６番１５号サンシャインビル３０２株式会社Ｓ．ＣＡＲＲＹ（9140001106328）に合併し解散,2018-01-09,1,,,,,エスピーエスコーポレーション,0
465,2160005009267,登記記録の閉鎖等,0,2023-12-27,2023-12-26,特定非営利活動法人エヌピーオー花園さいかい荘,,その他の設立登記法人,滋賀県,野洲市,小篠原３２８番地,,25,210,5202331,,,2023-12-26,清算の結了等,,,2015-10-05,1,,,,,エヌピーオーハナゾノサイカイソウ,0
469,2180001016380,登記記録の閉鎖等,0,2023-12-27,2023-12-22,株式会社漢字情報システム,,株式会社,愛知県,名古屋市熱田区,六野１丁目２番２１号,,23,109,4560023,,,2023-12-22,清算の結了等,,,2015-10-05,1,,,,,カンジジョウホウシステム,0
476,2180301032441,登記記録の閉鎖等,0,2023-12-27,2023-12-21,株式会社中根クリーニングラボ,,株式会社,大阪府,大阪市福島区,福島７丁目１５－１ローレルタワー梅田ウエスト２４０３,,27,103,5530003,,,2023-12-21,清算の結了等,,,2019-04-05,1,,,,,,0
480,2190001019812,登記記録の閉鎖等,0,2023-12-27,2023-12-25,株式会社二幸産業,,株式会社,三重県,桑名市,大字大仲新田４５２－１,,24,205,5110947,,,2023-12-25,清算の結了等,,,2015-10-05,1,,,,,,0
481,2200001016238,登記記録の閉鎖等,0,2023-12-27,2023-12-25,ミナミマーブル株式会社,,株式会社,岐阜県,揖斐郡大野町,大字加納１３６２番地の２,,21,403,5010535,,,2023-12-25,清算の結了等,,,2015-10-05,1,,,,,ミナミマーブル,0
483,2200002002030,登記記録の閉鎖等,0,2023-12-27,2023-12-22,有限会社サンながら,,有限会社,岐阜県,岐阜市,粟野西１丁目２番地１,,21,201,5020006,,,2023-12-22,清算の結了等,,,2015-10-05,1,,,,,サンナガラ,0
489,2230001005460,登記記録の閉鎖等,0,2023-12-27,2023-12-21,まちっこ富山アイ・イー・エス株式会社,,株式会社,富山県,富山市,布瀬本町４番８大和ハウス富山ビル４階,,16,201,9398207,,,2023-12-21,清算の結了等,,,2015-10-05,1,,,,,マチッコトヤマアイイーエス,0
492,2240002054522,登記記録の閉鎖等,0,2023-12-27,2023-12-19,有限会社わきストアー,,有限会社,広島県,三原市,久井町和草２１６８番地,,34,204,7221412,,,2023-12-19,清算の結了等,,,2015-10-05,1,,,,,ワキストアー,0
500,2290003008084,登記記録の閉鎖等,0,2023-12-27,2023-12-12,合同会社ｚｅｒｏファーム,,合同会社,福岡県,古賀市,花見東４丁目３番１－３０６号,,40,223,8113112,,,2023-12-12,清算の結了等,,,2018-05-17,1,,,,,,0
520,2360001019191,登記記録の閉鎖等,0,2023-12-27,2023-12-26,株式会社西部ガス,,株式会社,沖縄県,島尻郡八重瀬町,字志多伯１３３番地,,47,362,9010413,,,2023-12-26,清算の結了等,,,2015-10-05,1,,,,,セイブガス,0
527,2380001026005,登記記録の閉鎖等,0,2023-12-27,2023-12-22,株式会社ワンズ・カフェ,,株式会社,福島県,郡山市,深沢２丁目４番１５号,,07,203,9638874,,,2023-12-22,清算の結了等,,,2015-10-05,1,,,,,ワンズカフェ,0
537,2400001003777,登記記録の閉鎖等,0,2023-12-27,2023-12-25,サンワミート株式会社,,株式会社,岩手県,紫波郡矢巾町,大字西徳田第５地割６４番地の１,,03,322,0283603,,,2023-12-25,清算の結了等,,,2015-10-05,1,,,,,サンワミート,0
542,2400602000917,登記記録の閉鎖等,0,2023-12-27,2023-12-22,有限会社菊栄輪店,,有限会社,岩手県,奥州市,江刺本町１番１８号,,03,215,0231115,,,2023-12-22,清算の結了等,,,2015-10-05,1,,,,,キクエイリンテン,0
548,2430001049999,登記記録の閉鎖等,0,2023-12-27,2023-12-21,株式会社三立商会,,株式会社,北海道,小樽市,色内２丁目１０番１号,,01,203,0470031,,,2023-12-21,清算の結了等,,,2015-10-05,1,,,,,サンリツショウカイ,0
554,2430002059584,登記記録の閉鎖等,0,2023-12-27,2023-12-20,有限会社野村測量調査,,有限会社,北海道,苫小牧市,桜木町２丁目３１番３６号,,01,213,0530832,,,2023-12-20,清算の結了等,,,2015-10-05,1,,,,,ノムラソクリョウチョウサ,0
556,2430005007400,登記記録の閉鎖等,0,2023-12-27,2023-12-22,医療法人社団近藤医院,,その他の設立登記法人,北海道,滝川市,本町２丁目３番２３号,,01,225,0730021,,,2023-12-22,清算の結了等,,,2015-10-05,1,,,,,,0
561,2462502000082,登記記録の閉鎖等,0,2023-12-27,2023-12-22,有限会社ウッディファーム,,有限会社,北海道,標津郡中標津町,字当幌１３９６番地３,,01,692,0882681,,,2023-12-22,清算の結了等,,,2015-10-05,1,,,,,ウッディファーム,0
565,2490001001186,登記記録の閉鎖等,0,2023-12-27,2023-12-26,高知保険サービス株式会社,,株式会社,高知県,高知市,幸町１５番７号,,39,201,7800045,,,2023-12-26,清算の結了等,,,2015-10-05,1,,,,,コウチホケンサービス,0
570,2500002021413,登記記録の閉鎖等,0,2023-12-27,2023-12-25,有限会社宇田ツーリスト,,有限会社,愛媛県,四国中央市,金生町下分２５７１番地の２９,,38,213,7990111,,,2023-12-25,清算の結了等,,,2015-10-05,1,,,,,ウダツーリスト,0
579,3010003029124,登記記録の閉鎖等,0,2023-12-27,2023-12-22,合同会社えんけい,,合同会社,東京都,中央区,日本橋１丁目４番１号日本橋一丁目ビルディング,,13,102,1030027,,,2023-12-22,清算の結了等,,,2019-01-22,1,,,,,エンケイ,0
598,3010503004023,登記記録の閉鎖等,0,2023-12-27,2023-12-20,合同会社茂原ソーラーパーク,,合同会社,東京都,台東区,台東２丁目６番６号,,13,106,1100016,,,2023-12-20,清算の結了等,,,2015-10-05,1,,,,,,0
618,3011001126474,登記記録の閉鎖等,0,2023-12-27,2023-12-25,株式会社ＳＨＩＡＮ,,株式会社,東京都,渋谷区,恵比寿２丁目２８番地１０号ＳｈｕＢＬＤＧ２８４８,,13,113,1500013,,,2023-12-25,清算の結了等,,,2019-02-06,1,,,,,シアン,0
642,3011601024466,登記記録の閉鎖等,0,2023-12-27,2023-12-20,株式会社トーヨー・ラボ,,株式会社,東京都,練馬区,高野台１丁目１７番１８号,,13,120,1770033,,,2023-12-20,清算の結了等,,,2020-09-04,1,,,,,トーヨーラボ,0
650,3012705000469,登記記録の閉鎖等,0,2023-12-27,2023-12-21,特定非営利活動法人東京雑学大学,,その他の設立登記法人,東京都,西東京市,新町５丁目８番７号,,13,229,2020023,,,2023-12-21,清算の結了等,,,2015-10-05,1,,,,,トウキョウザツガクダイガク,0
662,3021001032770,登記記録の閉鎖等,0,2023-12-27,2023-12-22,株式会社杉三製作所,,株式会社,神奈川県,小田原市,成田９４３番地,,14,206,2500862,,,2023-12-22,清算の結了等,,,2015-10-05,1,,,,,,0
703,3060002014411,登記記録の閉鎖等,0,2023-12-27,2023-12-21,有限会社Ａ＆Ｋ企画社,,有限会社,栃木県,那須烏山市,中央１丁目２番２６号,,09,215,3210621,,,2023-12-21,清算の結了等,,,2015-10-05,1,,,,,エイアンドケイキカクシャ,0
717,3120001036631,登記記録の閉鎖等,0,2023-12-27,2023-12-25,明光産業株式会社,,株式会社,大阪府,大阪市福島区,海老江５丁目２番２号,,27,103,5530001,,,2023-12-25,清算の結了等,,,2015-10-05,1,,,,,メイコウサンギョウ,0
741,3130001038429,登記記録の閉鎖等,0,2023-12-27,2023-12-22,株式会社城南給食センター,,株式会社,京都府,城陽市,寺田垣内後２８番地の２,,26,207,6100121,,,2023-12-22,清算の結了等,,,2015-10-05,1,,,,,ジョウナンキュウショクセンター,0
744,3130002029360,登記記録の閉鎖等,0,2023-12-27,2023-12-22,有限会社岡本設備,,有限会社,京都府,亀岡市,西町２９番地,,26,206,6210862,,,2023-12-22,清算の結了等,,,2015-10-05,1,,,,,オカモトセツビ,0
746,3140001017431,登記記録の閉鎖等,0,2023-12-27,2023-12-25,株式会社キョクスイ,,株式会社,兵庫県,神戸市須磨区,東白川台３丁目１５番地の１４,,28,107,6540102,,,2023-12-25,清算の結了等,,,2015-10-05,1,,,,,キョクスイ,0
751,3140002019022,登記記録の閉鎖等,0,2023-12-27,2023-12-22,青木交通有限会社,,有限会社,兵庫県,神戸市東灘区,深江浜町９９番地の１,,28,101,6580023,,,2023-12-22,清算の結了等,,,2015-10-05,1,,,,,オオギコウツウ,0
752,3140002044598,登記記録の閉鎖等,0,2023-12-27,2023-12-22,アート工房ＢＥＧＩＮ有限会社,,有限会社,兵庫県,尼崎市,東園田町９丁目１番地の１３,,28,202,6610953,,,2023-12-22,清算の結了等,,,2015-10-05,1,,,,,アートコウボウビギン,0
761,3180001009598,登記記録の閉鎖等,0,2023-12-27,2023-12-22,山慶建材株式会社,,株式会社,愛知県,名古屋市昭和区,天神町３丁目１５番地,,23,107,4660032,,,2023-12-22,清算の結了等,,,2015-10-05,1,,,,,ヤマケイケンザイ,0
776,3180003017954,登記記録の閉鎖等,0,2023-12-27,2023-12-22,合同会社ＺＥＮ　ＨＡＮＫＯＯＫ　ＪＡＰＡＮ,,合同会社,愛知県,名古屋市東区,代官町３９番１８号,,23,102,4610002,,,2023-12-22,清算の結了等,,,2017-05-18,1,,,,,ゼンハンコックジャパン,0
789,3220001002169,登記記録の閉鎖等,0,2023-12-27,2023-12-25,株式会社ブルースカイ,,株式会社,石川県,河北郡内灘町,字鶴ケ丘３丁目１３８番地４２,,17,365,9200271,,,2023-12-25,清算の結了等,,,2015-10-05,1,,,,,ブルースカイ,0
796,3260001020811,登記記録の閉鎖等,0,2023-12-27,2023-12-25,東郷酒造株式会社,,株式会社,岡山県,美作市,巨勢１６８６番地,,33,215,7070045,,,2023-12-25,清算の結了等,,,2015-10-05,1,,,,,トウゴウシュゾウ,0
799,3280005006499,登記記録の閉鎖等,0,2023-12-27,2023-12-26,農事組合法人小島西営農組合,,その他の設立登記法人,島根県,出雲市,灘分町１９４２番地３,,32,203,6910003,,,2023-12-26,清算の結了等,,,2015-10-05,1,,,,,コジマニシエイノウクミアイ,0
801,3290001002121,登記記録の閉鎖等,0,2023-12-27,2023-12-19,福岡ハウス株式会社,,株式会社,福岡県,福岡市南区,柳河内１丁目３番５－１０８号,,40,134,8150063,,,2023-12-19,清算の結了等,,,2015-10-05,1,,,,,,0
820,3320002005788,登記記録の閉鎖等,0,2023-12-27,2023-12-25,福園酒造有限会社,,有限会社,大分県,大分市,大字丹川６４番地の４,,44,201,8700317,,,2023-12-25,清算の結了等,,,2015-10-05,1,,,,,フクゾノシュゾウ,0
823,3320002021380,登記記録の閉鎖等,0,2023-12-27,2023-12-25,有限会社中央工業,,有限会社,大分県,中津市,大字上宮永３００番地の１２,,44,203,8710027,,,2023-12-25,清算の結了等,,,2015-10-05,1,,,,,チュウオウコウギョウ,0
830,3340002008715,登記記録の閉鎖等,0,2023-12-27,2023-12-25,有限会社堀口園,,有限会社,鹿児島県,鹿児島市,加治屋町１番８号,,46,201,8920846,,,2023-12-25,清算の結了等,,,2015-10-05,1,,,,,ホリグチエン,0
831,3350001009317,登記記録の閉鎖等,0,2023-12-27,2023-12-25,晨ダイニング株式会社,,株式会社,宮崎県,宮崎市,清武町木原５８番地１３,,45,201,8891601,,,2023-12-25,清算の結了等,,,2015-10-05,1,,,,,シンダイニング,0
842,3380002024782,登記記録の閉鎖等,0,2023-12-27,2023-12-25,有限会社田中商事,,有限会社,福島県,いわき市,平字愛谷町一丁目４番地の１０,,07,204,9708026,,,2023-12-25,清算の結了等,,,2015-10-05,1,,,,,タナカショウジ,0
849,3430001042152,登記記録の閉鎖等,0,2023-12-27,2023-12-25,棟晶株式会社,,株式会社,北海道,札幌市東区,北三十四条東２２丁目１番３５号,,01,103,0070834,,,2023-12-25,清算の結了等,,,2015-10-05,1,,,,,トウショウ,0
858,3430002036368,登記記録の閉鎖等,0,2023-12-27,2023-12-20,有限会社ゴールド企画,,有限会社,北海道,札幌市南区,定山渓温泉西１丁目２１番－８０１号,,01,106,0612303,,,2023-12-20,清算の結了等,,,2015-10-05,1,,,,,ゴールドキカク,0
863,3440002003615,登記記録の閉鎖等,0,2023-12-27,2023-12-22,有限会社花園正家,,有限会社,北海道,函館市,港町１丁目３３番２５号,,01,202,0410821,,,2023-12-22,清算の結了等,,,2015-10-05,1,,,,,ハナゾノセイヤ,0
869,3480002011804,登記記録の閉鎖等,0,2023-12-27,2023-12-26,有限会社清幸,,有限会社,徳島県,板野郡板野町,吹田字平山５１番地の９,,36,404,7790104,,,2023-12-26,清算の結了等,,,2015-10-05,1,,,,,シンコウ,0
877,4010003029123,登記記録の閉鎖等,0,2023-12-27,2023-12-22,合同会社えごころ,,合同会社,東京都,中央区,日本橋１丁目４番１号日本橋一丁目ビルディング,,13,102,1030027,,,2023-12-22,清算の結了等,,,2019-01-23,1,,,,,エゴコロ,0
892,4010901041831,登記記録の閉鎖等,0,2023-12-27,2023-12-20,シャトー株式会社,,株式会社,東京都,世田谷区,新町３丁目２３番３号,,13,112,1540014,,,2023-12-20,清算の結了等,,,2018-04-09,1,,,,,シャトー,0
907,4011105003346,登記記録の閉鎖等,0,2023-12-27,2023-12-25,一般社団法人血液を大切にする会,,その他の設立登記法人,東京都,新宿区,信濃町３５番地信濃町煉瓦館４階,,13,104,1600016,,,2023-12-25,清算の結了等,,,2015-10-05,1,,,,,ケツエキヲタイセツニスルカイ,0
925,4020001091792,登記記録の閉鎖等,0,2023-12-27,2023-12-20,株式会社グリーンライフパートナー,,株式会社,神奈川県,横浜市保土ケ谷区,東川島町８５番地１０号,,14,106,2400041,,,2023-12-20,清算の結了等,,,2015-10-05,1,,,,,グリーンライフパートナー,0
932,4021001039138,登記記録の閉鎖等,0,2023-12-27,2023-12-25,株式会社アドバンスドプロセステクノロジーリサーチ,,株式会社,神奈川県,平塚市,代官町８番６‐６０１号ライオンズマンション平塚代官町第２,,14,203,2540807,,,2023-12-25,清算の結了等,,,2015-10-05,1,,,,,アドバンスドプロセステクノロジーリサーチ,0
937,4021001055382,登記記録の閉鎖等,0,2023-12-27,2023-11-10,株式会社エーワン,,株式会社,神奈川県,秦野市,名古木４０７番地１,,14,211,2570024,,,2023-11-10,合併による解散等,6021001059712,令和５年１１月３日神奈川県秦野市名古木４０８番地２Ｈ＆Ａホールディングス株式会社（6021001059712）に合併し解散,2015-10-05,1,,,,,エーワン,0
954,4040002027298,登記記録の閉鎖等,0,2023-12-27,2023-12-18,有限会社下総トレーニング,,有限会社,千葉県,船橋市,東中山１丁目１０番３４号,,12,204,2730036,,,2023-12-18,清算の結了等,,,2015-10-05,1,,,,,,0
958,4040003017059,登記記録の閉鎖等,0,2023-12-27,2023-12-19,ティーエイチビルド合同会社,,合同会社,東京都,港区,赤坂６丁目１９番５４号,,13,103,1070052,,,2023-12-19,清算の結了等,,,2021-02-18,1,,,,,ティーエイチビルド,0
969,4070005000126,登記記録の閉鎖等,0,2023-12-27,2023-12-22,農事組合法人東前橋温室バラ組合,,その他の設立登記法人,群馬県,前橋市,富田町７２７番地,,10,201,3792161,,,2023-12-22,清算の結了等,,,2015-10-05,1,,,,,ヒガシマエバシオンシツバラクミアイ,0
975,4080401015610,登記記録の閉鎖等,0,2023-12-27,2023-12-21,株式会社ハピネス,,株式会社,静岡県,御前崎市,門屋２０７２番地の１,,22,223,4371615,,,2023-12-21,清算の結了等,,,2015-10-05,1,,,,,ハピネス,0
979,4100001015058,登記記録の閉鎖等,0,2023-12-27,2023-12-21,あづみ野ツアーサービス株式会社,,株式会社,長野県,松本市,大字島立１６５３－５,,20,202,3900852,,,2023-12-21,清算の結了等,,,2015-10-05,1,,,,,アヅミノツアーサービス,0
981,4100002014496,登記記録の閉鎖等,0,2023-12-27,2023-12-22,有限会社中川酒店,,有限会社,長野県,上田市,中之条１３４番地,,20,203,3860034,,,2023-12-22,清算の結了等,,,2015-10-05,1,,,,,ナカガワサケテン,0
982,4100005002366,登記記録の閉鎖等,0,2023-12-27,2023-12-25,小布施町土地開発公社,,その他の設立登記法人,長野県,上高井郡小布施町,大字小布施１４９１番地２,,20,541,3810201,,,2023-12-25,清算の結了等,,,2015-10-05,1,,,,,オブセマチ,0
985,4110005003693,登記記録の閉鎖等,0,2023-12-27,2023-12-25,社会福祉法人五頭会,,その他の設立登記法人,新潟県,阿賀野市,出湯２８０番地６,,15,223,9591926,,,2023-12-25,清算の結了等,,,2015-10-05,1,,,,,ゴズカイ,0
987,4120001081412,登記記録の閉鎖等,0,2023-12-27,2023-12-25,周防商事株式会社,,株式会社,大阪府,大阪市中央区,島之内２丁目８番２０号,,27,128,5420082,,,2023-12-25,清算の結了等,,,2015-10-05,1,,,,,スホウショウジ,0
1001,4120002078102,登記記録の閉鎖等,0,2023-12-27,2023-12-22,有限会社大山製作所,,有限会社,大阪府,守口市,藤田町４丁目３１番６号,,27,209,5700014,,,2023-12-22,清算の結了等,,,2015-10-05,1,,,,,オオヤマセイサクショ,0
1004,4120101007465,登記記録の閉鎖等,0,2023-12-27,2023-12-21,山口興業株式会社,,株式会社,大阪府,堺市西区,草部１５１７番地の１０,,27,144,5938312,,,2023-12-21,清算の結了等,,,2015-10-05,1,,,,,ヤマグチコウギョウ,0
1014,4122001021240,登記記録の閉鎖等,0,2023-12-27,2023-12-25,株式会社真野商店,,株式会社,大阪府,柏原市,太平寺２丁目１６番１０号,,27,221,5820017,,,2023-12-25,清算の結了等,,,2015-10-05,1,,,,,マノショウテン,0
1042,4150002003494,登記記録の閉鎖等,0,2023-12-27,2023-12-26,有限会社プロフィット,,有限会社,奈良県,奈良市,中町４９９２番地の２９,,29,201,6310052,,,2023-12-26,清算の結了等,,,2015-10-05,1,,,,,プロフィット,0
1045,4160002008369,登記記録の閉鎖等,0,2023-12-27,2023-12-25,有限会社デザインスペース,,有限会社,滋賀県,愛知郡愛荘町,市１７０５番地１,,25,425,5291313,,,2023-12-25,合併による解散等,9160001008662,令和５年１２月２５日滋賀県愛知郡愛荘町市１７０５番地１株式会社Ｄｏ，プラン（9160001008662）に合併し解散,2015-10-05,1,,,,,デザインスペース,0
1048,4180001080581,登記記録の閉鎖等,0,2023-12-27,2023-12-08,株式会社真紗廣電気通信,,株式会社,愛知県,尾張旭市,狩宿町３丁目２４番地５,,23,226,4880021,,,2023-12-08,清算の結了等,,,2015-10-05,1,,,,,マサヒロデンキツウシン,0
1055,4180002074277,登記記録の閉鎖等,0,2023-12-27,2023-12-22,有限会社イン・ケイス,,有限会社,愛知県,犬山市,大字羽黒字高橋郷２３番地の２,,23,215,4840894,,,2023-12-22,清算の結了等,,,2015-10-05,1,,,,,インケイス,0
1059,4180301029114,登記記録の閉鎖等,0,2023-12-27,2023-12-18,株式会社ＮＡＩＴＯ－ＳＡＦＥＴＹ－ＯＦＦＩＣＥ,,株式会社,愛知県,刈谷市,半城土西町１丁目１３番地５,,23,210,4480816,,,2023-12-18,清算の結了等,,,2016-04-13,1,,,,,ナイトウセイフテイオフイス,0
1062,4190001024835,登記記録の閉鎖等,0,2023-12-27,2023-12-25,株式会社システムディッグ,,株式会社,三重県,四日市市,別名６丁目１番３－１号,,24,202,5100007,,,2023-12-25,清算の結了等,,,2017-07-27,1,,,,,システムディッグ,0
1066,4200005007479,登記記録の閉鎖等,0,2023-12-27,2023-12-26,関市土地開発公社,,その他の設立登記法人,岐阜県,関市,若草通３丁目１番地,,21,205,5013802,,,2023-12-26,清算の結了等,,,2015-10-05,1,,,,,セキシ,0
1071,4260001003261,登記記録の閉鎖等,0,2023-12-27,2023-12-21,株式会社システムメイト,,株式会社,岡山県,岡山市中区,神下５６５番地,,33,102,7038225,,,2023-12-21,合併による解散等,6260001005719,令和５年１２月１日岡山市中区神下５６５番地リンク＆リンケージ株式会社（6260001005719）に合併し解散,2015-10-05,1,,,,,システムメイト,0
1072,4260001003740,登記記録の閉鎖等,0,2023-12-27,2023-12-21,瀬戸内海食品株式会社,,株式会社,岡山県,岡山市中区,神下５６５番地,,33,102,7038225,,,2023-12-21,合併による解散等,6260001005719,令和５年１２月１日岡山市中区神下５６５番地リンク＆リンケージ株式会社（6260001005719）に合併し解散,2015-10-05,1,,,,,セトナイカイショクヒン,0
1082,4290001074713,登記記録の閉鎖等,0,2023-12-27,2023-12-19,１Ｐｌａｃｅ株式会社,,株式会社,福岡県,福岡市中央区,渡辺通５丁目１４－１２南天神ビル３階,,40,133,8100004,,,2023-12-19,清算の結了等,,,2016-07-29,1,,,,,ワンプレイス,0
1083,4290001093317,登記記録の閉鎖等,0,2023-12-27,2023-12-13,株式会社Ｇｒａｓｔｏ,,株式会社,東京都,豊島区,東池袋５丁目７番７号エワル４０１号,,13,116,1700013,,,2023-12-13,清算の結了等,,,2021-05-31,1,,,,,グラスト,0
1095,4290801012442,登記記録の閉鎖等,0,2023-12-27,2023-12-25,山賀舗道株式会社,,株式会社,福岡県,北九州市若松区,東二島５丁目１２番６号,,40,103,8080102,,,2023-12-25,清算の結了等,,,2015-10-05,1,,,,,ヤマガホドウ,0
1096,4290801029619,登記記録の閉鎖等,0,2023-12-27,2023-12-26,株式会社中西建設,,株式会社,福岡県,遠賀郡遠賀町,大字今古賀５８８番地３,,40,384,8114303,,,2023-12-26,清算の結了等,,,2023-06-19,1,,,,,ナカニシケンセツ,0
1104,4300005006660,登記記録の閉鎖等,0,2023-12-27,2023-12-25,一般社団法人ＲＯＹＡＬ　ＣＡＲＥ協会,,その他の設立登記法人,佐賀県,佐賀市,神野西４丁目１番４２号,,41,201,8400805,,,2023-12-25,清算の結了等,,,2017-06-22,1,,,,,ロイヤルケアキョウカイ,0
1105,4320001010978,登記記録の閉鎖等,0,2023-12-27,2023-12-25,株式会社ミツワ,,株式会社,大分県,中津市,大字鍋島８２９番地,,44,203,8790102,,,2023-12-25,清算の結了等,,,2015-10-05,1,,,,,ミツワ,0
1109,4330005002005,登記記録の閉鎖等,0,2023-12-27,2023-12-19,特定非営利活動法人夢と希望の架け橋,,その他の設立登記法人,熊本県,熊本市西区,小島９丁目１９番７号,,43,103,8615287,,,2023-12-19,清算の結了等,,,2015-10-05,1,,,,,ユメトキボウノカケハシ,0
1111,4340002000885,登記記録の閉鎖等,0,2023-12-27,2023-12-25,有限会社赤尾酒店,,有限会社,鹿児島県,鹿児島市,上本町３番１６号,,46,201,8920818,,,2023-12-25,清算の結了等,,,2015-10-05,1,,,,,アカオサケテン,0
1131,4430002063031,登記記録の閉鎖等,0,2023-12-27,2023-12-22,有限会社びらとり牧場,,有限会社,北海道,沙流郡平取町,字荷負１番地２,,01,602,0550324,,,2023-12-22,清算の結了等,,,2015-10-05,1,,,,,ビラトリボクジョウ,0
1133,4440002002285,登記記録の閉鎖等,0,2023-12-27,2023-12-25,有限会社砂子製飴,00090362,有限会社,北海道,函館市,若松町２２番１５号,,01,202,0400063,,,2023-12-25,清算の結了等,,,2015-10-05,1,,,,,スナゴセイイ,0
1148,5010001197326,登記記録の閉鎖等,0,2023-12-27,2023-12-21,マーズパートナーズ株式会社,,株式会社,東京都,中央区,新富１丁目８番２号,,13,102,1040041,,,2023-12-21,清算の結了等,,,2018-12-26,1,,,,,マーズパートナーズ,0
1157,5010401020558,登記記録の閉鎖等,0,2023-12-27,2023-12-19,東京サンキ株式会社,,株式会社,東京都,港区,赤坂６丁目１０番４５号,,13,103,1070052,,,2023-12-19,清算の結了等,,,2015-10-05,1,,,,,トウキョウサンキ,0
1159,5010401117627,登記記録の閉鎖等,0,2023-12-27,2023-12-21,ＰＡＹＣＯ株式会社,,株式会社,東京都,港区,西新橋３丁目１番８号,,13,103,1050003,,,2023-12-21,清算の結了等,,,2015-10-05,1,,,,,ペイコ,0
1168,5010602026263,登記記録の閉鎖等,0,2023-12-27,2023-12-20,有限会社アルファプランニング,,有限会社,東京都,江東区,猿江２丁目１６番２３－５０１号,,13,108,1350003,,,2023-12-20,清算の結了等,,,2015-10-05,1,,,,,アルファプランニング,0
1179,5011001097474,登記記録の閉鎖等,0,2023-12-27,2023-12-19,株式会社ＲＯＯＬ　ＰＡＲＴＮＥＲＳ,,株式会社,東京都,港区,南青山６丁目１２番３号,,13,103,1070062,,,2023-12-19,清算の結了等,,,2015-10-05,1,,,,,ルールパートナーズ,0
1190,5011301027016,登記記録の閉鎖等,0,2023-12-27,2023-12-18,株式会社Ｗｉｓｄｏｍ　Ｃｏｎｎｅｃｔ,,株式会社,東京都,杉並区,善福寺３丁目２６番１５号,,13,115,1670041,,,2023-12-18,清算の結了等,,,2021-07-05,1,,,,,ウィズダムコネクト,0
1191,5011302014260,登記記録の閉鎖等,0,2023-12-27,2023-12-20,有限会社アルファシステム,,有限会社,東京都,杉並区,高円寺北２丁目３番１９号ライオンズマンション高円寺北９０３号,,13,115,1660002,,,2023-12-20,清算の結了等,,,2015-10-05,1,,,,,アルファシステム,0
1204,5012703002424,登記記録の閉鎖等,0,2023-12-27,2023-12-22,シエル合同会社,,合同会社,東京都,西東京市,柳沢２丁目１３－１５朝日パリオ西武柳沢４０７,,13,229,2020022,,,2023-12-22,清算の結了等,,,2022-03-16,1,,,,,シエル,0
1205,5013303006220,登記記録の閉鎖等,0,2023-12-27,2023-12-14,合同会社副,,合同会社,東京都,豊島区,南大塚１丁目６０番２０号天翔大塚駅前ビルＳ５０２号,,13,116,1700005,,,2023-12-14,清算の結了等,,,2022-07-11,1,,,,,フク,0
1215,5021001024213,登記記録の閉鎖等,0,2023-12-27,2023-11-10,ハートフルソフトデザイン株式会社,,株式会社,神奈川県,秦野市,名古木４０８番２,,14,211,2570024,,,2023-11-10,合併による解散等,6021001059712,令和５年１１月３日神奈川県秦野市名古木４０８番地２Ｈ＆Ａホールディングス株式会社（6021001059712）に合併し解散,2015-10-05,1,,,,,ハートフルソフトデザイン,0
1251,5060001025465,登記記録の閉鎖等,0,2023-12-27,2023-12-21,株式会社いいおうち,,株式会社,東京都,中央区,東日本橋２丁目２８番４号日本橋ＣＥＴビル２階,,13,102,1030004,,,2023-12-21,清算の結了等,,,2015-10-05,1,,,,,イイオウチ,0
1259,5070003003889,登記記録の閉鎖等,0,2023-12-27,2023-12-21,ＭＣＯ合同会社,,合同会社,群馬県,前橋市,富士見町石井１３７２番地１５,,10,201,3710105,,,2023-12-21,清算の結了等,,,2020-10-21,1,,,,,エムシーオー,0
1262,5080102013664,登記記録の閉鎖等,0,2023-12-27,2023-12-25,有限会社加藤電機工業所,,有限会社,静岡県,富士市,松岡５７２番地の２,,22,210,4160909,,,2023-12-25,清算の結了等,,,2015-10-05,1,,,,,カトウデンキコウギョウショ,0
1268,5120001010799,登記記録の閉鎖等,0,2023-12-27,2023-12-25,株式会社阪南交通社,,株式会社,大阪府,大阪市福島区,大開２丁目１７番４９号,,27,103,5530007,,,2023-12-25,清算の結了等,,,2015-10-05,1,,,,,ハンナンコウツウシャ,0
1278,5120001184800,登記記録の閉鎖等,0,2023-12-27,2023-12-07,アマルフィーメディカル株式会社,,株式会社,大阪府,大阪市住之江区,浜口西３丁目７番６－１１０６号,,27,125,5590006,,,2023-12-07,清算の結了等,,,2015-10-05,1,,,,,アマルフィーメディカル,0
1285,5120003009856,登記記録の閉鎖等,0,2023-12-27,2023-12-20,合同会社きよりん,,合同会社,大阪府,大阪市住吉区,苅田３丁目１４番２０－４０３号,,27,120,5580011,,,2023-12-20,清算の結了等,,,2015-10-05,1,,,,,キヨリン,0
1290,5120005002090,登記記録の閉鎖等,0,2023-12-27,2023-12-26,大神教三輪龍王中教会,00046771,その他の設立登記法人,大阪府,大阪市東住吉区,杭全町１８８番地,,27,121,5460000,,,2023-12-26,清算の結了等,,,2015-10-05,1,,,,,,1
1307,5140001050835,登記記録の閉鎖等,0,2023-12-27,2023-12-22,ハヤセタカラ電器株式会社,,株式会社,兵庫県,尼崎市,金楽寺町１丁目２番６５号,,28,202,6600806,,,2023-12-22,清算の結了等,,,2015-10-05,1,,,,,ハヤセタカラデンキ,0
1322,5180001076802,登記記録の閉鎖等,0,2023-12-27,2023-12-21,株式会社ＴＲＣ,,株式会社,愛知県,春日井市,出川町７丁目２０番地の１３,,23,206,4870025,,,2023-12-21,清算の結了等,,,2015-10-05,1,,,,,ティーアールシー,0
1325,5180001128108,登記記録の閉鎖等,0,2023-12-27,2023-12-25,株式会社Ｌ＆ＤＫ不動産販売,,株式会社,愛知県,名古屋市緑区,池上台２丁目２４７番地３,,23,114,4580044,,,2023-12-25,清算の結了等,,,2017-06-07,1,,,,,エルアンドデイケイフドウサンハンバイ,0
1335,5190002014628,登記記録の閉鎖等,0,2023-12-27,2023-12-25,有限会社山口屋呉服店,,有限会社,三重県,松阪市,川井町２６７７番地,,24,204,5150818,,,2023-12-25,清算の結了等,,,2015-10-05,1,,,,,ヤマグチヤゴフクテン,0
1338,5200002018288,登記記録の閉鎖等,0,2023-12-27,2023-12-21,有限会社土屋製作所,,有限会社,岐阜県,加茂郡坂祝町,加茂山２丁目１番地８,,21,501,5050073,,,2023-12-21,清算の結了等,,,2015-10-05,1,,,,,ツチヤセイサクジョ,0
1341,5220001024541,登記記録の閉鎖等,0,2023-12-27,2023-12-25,株式会社ダイシーエス,,株式会社,石川県,金沢市,大河端西２丁目９４番地,,17,201,9200210,,,2023-12-25,清算の結了等,,,2021-11-17,1,,,,,ダイシーエス,0
1349,5260002013317,登記記録の閉鎖等,0,2023-12-27,2023-12-15,有限会社ブルームセキュリティ,,有限会社,岡山県,岡山市中区,平井１１１９番地１９,,33,102,7038282,,,2023-12-15,清算の結了等,,,2015-10-05,1,,,,,ブルームセキュリティ,0
1361,5290005001761,登記記録の閉鎖等,0,2023-12-27,2023-12-21,医療法人塚本歯科診療所,00093821,その他の設立登記法人,福岡県,福岡市博多区,博多駅前１丁目３番２２号かき善ビル５階,,40,132,8120011,,,2023-12-21,清算の結了等,,,2015-10-05,1,,,,,,0
1363,5290801022911,登記記録の閉鎖等,0,2023-12-27,2023-12-25,Ｙｅｌｌ－Ｌｉｎｋ株式会社,,株式会社,福岡県,北九州市八幡西区,本城東５丁目１５番８号－２Ｆ,,40,109,8070815,,,2023-12-25,清算の結了等,,,2016-09-27,1,,,,,エールリンク,0
1368,5300002005631,登記記録の閉鎖等,0,2023-12-27,2023-12-26,有限会社総合会計,,有限会社,佐賀県,佐賀市,若宮２丁目８番２４号,,41,201,8490926,,,2023-12-26,清算の結了等,,,2015-10-05,1,,,,,ソウゴウカイケイ,0
1378,5350003004124,登記記録の閉鎖等,0,2023-12-27,2023-12-22,合同会社ニチナンベース,,合同会社,宮崎県,日南市,瀬貝２丁目２番１号,,45,204,8870011,,,2023-12-22,清算の結了等,,,2022-07-13,1,,,,,ニチナンベース,0
1379,5360001022044,登記記録の閉鎖等,0,2023-12-27,2023-12-25,りゅうはん株式会社,,株式会社,沖縄県,那覇市,首里石嶺町４丁目１番地７（１０１）,,47,201,9030804,,,2023-12-25,清算の結了等,,,2017-03-15,1,,,,,リュウハン,0
1384,5370003001160,登記記録の閉鎖等,0,2023-12-27,2023-12-22,合同会社ＤＫＮリサーチ・ジャパン,,合同会社,宮城県,仙台市青葉区,西勝山２３番１２号,,04,101,9810953,,,2023-12-22,清算の結了等,,,2015-10-05,1,,,,,ディーケーエヌリサーチジャパン,0
1385,5380001016861,登記記録の閉鎖等,0,2023-12-27,2023-12-25,株式会社グローバルコーポレーション,,株式会社,福島県,双葉郡双葉町,大字下羽鳥字南迫１０番地,00083257,07,546,9791441,,,2023-12-25,清算の結了等,,,2015-10-05,1,,,,,グローバルコーポレーション,0
1393,5430001078285,登記記録の閉鎖等,0,2023-12-27,2023-12-25,ＧＬ，ＨＯＬＤＩＮＧＳ株式会社,,株式会社,北海道,札幌市東区,北三十六条東２７丁目２番１号,,01,103,0070836,,,2023-12-25,清算の結了等,,,2019-02-07,1,,,,,ジーエルホールディングス,0
1394,5430001088961,登記記録の閉鎖等,0,2023-12-27,2023-12-20,株式会社啓北自動車工業,,株式会社,北海道,札幌市東区,北二十条東６丁目２－３２,,01,103,0650020,,,2023-12-20,清算の結了等,,,2023-04-27,1,,,,,ケイホクジドウシャコウギョウ,0
1397,5430002041688,登記記録の閉鎖等,0,2023-12-27,2023-12-20,有限会社若松電装,,有限会社,北海道,札幌市清田区,平岡十条１丁目１７番１４号,,01,110,0040880,,,2023-12-20,清算の結了等,,,2015-10-05,1,,,,,ワカマツデンソウ,0
1406,5490002006066,登記記録の閉鎖等,0,2023-12-27,2023-12-25,有限会社ニシモリ設備,,有限会社,高知県,高知市,一宮８８４番地３,,39,201,7818130,,,2023-12-25,清算の結了等,,,2015-10-05,1,,,,,ニシモリセツビ,0
1409,5500005001723,登記記録の閉鎖等,0,2023-12-27,2023-12-25,医療法人近藤医院,,その他の設立登記法人,愛媛県,伊予市,灘町３０２番地６,,38,210,7993114,,,2023-12-25,清算の結了等,,,2015-10-05,1,,,,,コンドウイイン,0
1421,6010102007713,登記記録の閉鎖等,0,2023-12-27,2023-12-21,有限会社ケイ・エス・エル,,有限会社,東京都,八王子市,台町３丁目１９番３２号シティハイツ八王子１Ｆ,,13,201,1930931,,,2023-12-21,清算の結了等,,,2015-10-05,1,,,,,ケイエスエル,0
1429,6010402019383,登記記録の閉鎖等,0,2023-12-27,2023-12-25,有限会社ティーエイ経営研究所,,有限会社,東京都,板橋区,小豆沢４丁目１１番１９号,,13,119,1740051,,,2023-12-25,清算の結了等,,,2015-10-05,1,,,,,ティーエイケイエイケンキュウショ,0
1433,6010601029324,登記記録の閉鎖等,0,2023-12-27,2023-12-21,株式会社ＥＳＣＡＴＥＱ　ＪＡＰＡＮ,,株式会社,東京都,墨田区,墨田３丁目２８番６号,,13,107,1310031,,,2023-12-21,清算の結了等,,,2015-10-05,1,,,,,エスカテックジャパン,0
1436,6010603004143,登記記録の閉鎖等,0,2023-12-27,2023-12-20,ＭＡＫＫＡ合同会社,,合同会社,東京都,江東区,豊洲４丁目１０番１８号,,13,108,1350061,,,2023-12-20,清算の結了等,,,2015-10-05,1,,,,,マッカ,0
1465,6011301000789,登記記録の閉鎖等,0,2023-12-27,2023-12-20,株式会社いわしや総本店,,株式会社,東京都,杉並区,永福１丁目３３番１３号,,13,115,1680064,,,2023-12-20,清算の結了等,,,2015-10-05,1,,,,,イワシヤソウホンテン,0
1466,6011301002018,登記記録の閉鎖等,0,2023-12-27,2023-12-20,株式会社クチユールカセツト,,株式会社,東京都,杉並区,成田東４丁目１３番２２号竹下方,,13,115,1660015,,,2023-12-20,清算の結了等,,,2015-10-05,1,,,,,クチュールカセット,0
1493,6020003019641,登記記録の閉鎖等,0,2023-12-27,2023-12-22,和ｎｏｔｅ合同会社,,合同会社,東京都,足立区,千住仲町３２番９号プレシャスハウスＶＩ１０４号室,00125880,13,121,1200036,,,2023-12-22,清算の結了等,,,2021-04-16,1,,,,,ワノート,0
1499,6021002030481,登記記録の閉鎖等,0,2023-12-27,2023-11-10,有限会社愛鶴グループ,,有限会社,神奈川県,海老名市,国分北３丁目１９番２８号,,14,215,2430406,,,2023-11-10,合併による解散等,6021001059712,令和５年１１月３日神奈川県秦野市名古木４０８番地２Ｈ＆Ａホールディングス株式会社（6021001059712）に合併し解散,2015-10-05,1,,,,,アイツルグループ,0
1507,6030002114632,登記記録の閉鎖等,0,2023-12-27,2023-12-20,有限会社ダイヤプラテック,,有限会社,埼玉県,熊谷市,妻沼１６３９番地１,,11,202,3600201,,,2023-12-20,清算の結了等,,,2015-10-05,1,,,,,ダイヤプラテック,0
1518,6050001038244,登記記録の閉鎖等,0,2023-12-27,2023-12-22,株式会社エクサライフ,,株式会社,茨城県,猿島郡境町,１６１９番地１,,08,546,3060433,,,2023-12-22,清算の結了等,,,2015-10-05,1,,,,,エクサライフ,0
1522,6050002016414,登記記録の閉鎖等,0,2023-12-27,2023-12-21,有限会社もずきかく,,有限会社,茨城県,小美玉市,中台８４２番地の１８,,08,236,3190116,,,2023-12-21,清算の結了等,,,2015-10-05,1,,,,,モズキカク,0
1524,6050002032428,登記記録の閉鎖等,0,2023-12-27,2023-12-22,有限会社栄工務店,,有限会社,茨城県,北茨城市,華川町車１０１１番地５,,08,215,3191534,,,2023-12-22,清算の結了等,,,2015-10-05,1,,,,,サカエコウムテン,0
1545,6110002010641,登記記録の閉鎖等,0,2023-12-27,2023-12-25,有限会社小林養鶏場,,有限会社,新潟県,新潟市北区,長戸呂５５９番地,,15,101,9503353,,,2023-12-25,清算の結了等,,,2015-10-05,1,,,,,コバヤシヨウケイジョウ,0
1548,6110005005531,登記記録の閉鎖等,0,2023-12-27,2023-12-26,医療法人社団石黒内科,,その他の設立登記法人,新潟県,三条市,四日町２２番２３号,,15,204,9550854,,,2023-12-26,清算の結了等,,,2015-10-05,1,,,,,イシグロナイカ,0
1570,6120101008478,登記記録の閉鎖等,0,2023-12-27,2023-12-19,成田株式会社,,株式会社,大阪府,大阪市中央区,南船場１丁目１２番２６号ニュー船場２０５,,27,128,5420081,,,2023-12-19,清算の結了等,,,2015-10-05,1,,,,,,0
1573,6120101043921,登記記録の閉鎖等,0,2023-12-27,2023-12-25,大塚ターフテック株式会社,,株式会社,大阪府,大阪市中央区,大手通３丁目２番２７号,,27,128,5400021,,,2023-12-25,清算の結了等,,,2015-10-05,1,,,,,オオツカターフテック,0
1594,6130002026421,登記記録の閉鎖等,0,2023-12-27,2023-12-25,有限会社コムテック,,有限会社,京都府,宇治市,折居台３丁目２番地５０,,26,204,6110023,,,2023-12-25,清算の結了等,,,2015-10-05,1,,,,,コムテック,0
1598,6140001102008,登記記録の閉鎖等,0,2023-12-27,2023-12-19,共栄工業株式会社,,株式会社,兵庫県,尼崎市,大庄中通２丁目６４番地,,28,202,6600075,,,2023-12-19,清算の結了等,,,2016-05-18,1,,,,,キョウエイコウギョウ,0
1601,6140002004343,登記記録の閉鎖等,0,2023-12-27,2023-12-19,有限会社神出電化,,有限会社,兵庫県,神戸市西区,神出町東１１６７番地の１４７,,28,111,6512311,,,2023-12-19,清算の結了等,,,2015-10-05,1,,,,,カンデデンカ,0
1602,6140002008022,登記記録の閉鎖等,0,2023-12-27,2023-12-19,有限会社渡辺設計事務所,,有限会社,兵庫県,神戸市須磨区,神の谷１丁目１番８３－２０２号,,28,107,6540162,,,2023-12-19,清算の結了等,,,2015-10-05,1,,,,,ワタナベセッケイジムショ,0
1603,6140003015018,登記記録の閉鎖等,0,2023-12-27,2023-12-25,合同会社タートルズ,,合同会社,兵庫県,尼崎市,南武庫之荘５丁目２５番２０－５０２号,,28,202,6610033,,,2023-12-25,清算の結了等,,,2020-06-01,1,,,,,タートルズ,0
1619,6180002020551,登記記録の閉鎖等,0,2023-12-27,2023-12-21,有限会社トップサービス名古屋,,有限会社,愛知県,名古屋市緑区,旭出１丁目３１１番地,,23,114,4580031,,,2023-12-21,清算の結了等,,,2015-10-05,1,,,,,トップサービスナゴヤ,0
1622,6180002066223,登記記録の閉鎖等,0,2023-12-27,2023-12-25,有限会社シモコバ工業,,有限会社,愛知県,春日井市,牛山町１３０７番地の１７,,23,206,4860901,,,2023-12-25,清算の結了等,,,2015-10-05,1,,,,,シモコバコウギョウ,0
1625,6180003019799,登記記録の閉鎖等,0,2023-12-27,2023-12-20,合同会社Ｓｔａｃｋｉｎｇ　Ｔｏｙ,,合同会社,愛知県,知多市,つつじが丘１丁目１４番地９－５０７,,23,224,4780054,,,2023-12-20,清算の結了等,,,2019-03-15,1,,,,,スタッキングトイ,0
1629,6180301026539,登記記録の閉鎖等,0,2023-12-27,2023-12-18,株式会社ＫＳソーラー,,株式会社,愛知県,豊橋市,往完町字往還東２２番地,,23,201,4418082,,,2023-12-18,清算の結了等,,,2015-10-05,1,,,,,ケーエスソーラー,0
1638,6250002012021,登記記録の閉鎖等,0,2023-12-27,2023-12-13,有限会社まなべ会計事務所,,有限会社,山口県,下関市,秋根本町１丁目７番１２－２０１号,,35,201,7510875,,,2023-12-13,清算の結了等,,,2015-10-05,1,,,,,マナベカイケイジムショ,0
1639,6260001004984,登記記録の閉鎖等,0,2023-12-27,2023-12-21,日本高速道路サービス株式会社,,株式会社,岡山県,岡山市北区,御津野々口１１００番地,,33,101,7092117,,,2023-12-21,合併による解散等,6260001005719,令和５年１２月１日岡山市中区神下５６５番地リンク＆リンケージ株式会社（6260001005719）に合併し解散,2015-10-05,1,,,,,ニホンコウソクドウロサービス,0
1643,6290001048599,登記記録の閉鎖等,0,2023-12-27,2023-12-18,株式会社久正,,株式会社,福岡県,久留米市,通外町１１番地の１６,,40,203,8300005,,,2023-12-18,清算の結了等,,,2015-10-05,1,,,,,,0
1652,6290802023180,登記記録の閉鎖等,0,2023-12-27,2023-12-26,有限会社廣春堂,,有限会社,福岡県,築上郡築上町,大字安武１５１番地,,40,647,8290111,,,2023-12-26,清算の結了等,,,2015-10-05,1,,,,,コウシュンドウ,0
1695,6430002010097,登記記録の閉鎖等,0,2023-12-27,2023-12-20,有限会社白井運送,,有限会社,北海道,札幌市厚別区,厚別中央五条４丁目１番２０号,,01,108,0040055,,,2023-12-20,清算の結了等,,,2015-10-05,1,,,,,シライウンソウ,0
1702,6470002017824,登記記録の閉鎖等,0,2023-12-27,2023-12-25,有限会社ウエムラ・エス．シー,,有限会社,香川県,さぬき市,志度４２３９番地３,,37,206,7692101,,,2023-12-25,清算の結了等,,,2015-10-05,1,,,,,ウエムラエスシー,0
1714,7010001217965,登記記録の閉鎖等,0,2023-12-27,2023-12-22,株式会社ＣＢＡアートオークション,,株式会社,東京都,中央区,銀座１丁目１６番５号,,13,102,1040061,,,2023-12-22,清算の結了等,,,2021-05-12,1,,,,,シービーエーアートオークション,0
1723,7010101010106,登記記録の閉鎖等,0,2023-12-27,2023-12-26,株式会社せいおん,,株式会社,東京都,八王子市,下恩方町８９４番地２,,13,201,1920154,,,2023-12-26,清算の結了等,,,2015-10-05,1,,,,,セイオン,0
1757,7010802015361,登記記録の閉鎖等,0,2023-12-27,2023-12-21,有限会社吉田製作所,,有限会社,東京都,大田区,本羽田２丁目１４番１６号,,13,111,1440044,,,2023-12-21,清算の結了等,,,2015-10-05,1,,,,,ヨシダセイサクショ,0
1769,7011003015622,登記記録の閉鎖等,0,2023-12-27,2023-12-21,Ｐａｕｌｉｓｔａ　Ｒｅａｌ　Ｅｓｔａｔｅ合同会社,,合同会社,東京都,渋谷区,恵比寿１丁目３２番６－５０４号,,13,113,1500013,,,2023-12-21,清算の結了等,,,2022-11-02,1,,,,,ポウリスタリアルエステート,0
1788,7012301010760,登記記録の閉鎖等,0,2023-12-27,2023-12-20,株式会社讃,,株式会社,東京都,町田市,玉川学園５丁目２８番１０号,,13,209,1940041,,,2023-12-20,清算の結了等,,,2016-11-04,1,,,,,サン,0
1795,7020001022935,登記記録の閉鎖等,0,2023-12-27,2023-12-21,県央木材株式会社,,株式会社,神奈川県,横浜市神奈川区,西大口２５番地,,14,102,2210004,,,2023-12-21,清算の結了等,,,2015-10-05,1,,,,,,0
1801,7020001131760,登記記録の閉鎖等,0,2023-12-27,2023-12-20,明日翔重機工株式会社,,株式会社,神奈川県,横浜市神奈川区,菅田町２００３番地２８,,14,102,2210864,,,2023-12-20,清算の結了等,,,2019-06-27,1,,,,,アスカジュウキコウ,0
1808,7020003020482,登記記録の閉鎖等,0,2023-12-27,2023-12-20,合同会社ウィキッド,,合同会社,神奈川県,川崎市中原区,丸子通１丁目６１２番地２－１２０６,,14,133,2110006,,,2023-12-20,清算の結了等,,,2021-09-14,1,,,,,ウィキッド,0
1822,7030002026513,登記記録の閉鎖等,0,2023-12-27,2023-12-22,有限会社ヒッツ,,有限会社,埼玉県,蕨市,南町４丁目３４番１４号,,11,223,3350003,,,2023-12-22,清算の結了等,,,2015-10-05,1,,,,,ヒッツ,0
1833,7040002034424,登記記録の閉鎖等,0,2023-12-27,2023-12-07,有限会社塩浜モータース,,有限会社,千葉県,市川市,福栄３丁目８番６号,,12,203,2720137,,,2023-12-07,清算の結了等,,,2015-10-05,1,,,,,シオハマモータース,0
1853,7080002012285,登記記録の閉鎖等,0,2023-12-27,2023-12-20,有限会社ファルマコポラ,,有限会社,静岡県,静岡市清水区,天神１丁目１１番６号,,22,103,4240809,,,2023-12-20,合併による解散等,5180001054725,令和５年１２月１日名古屋市緑区南大高四丁目１８０８番地株式会社愛知メディックス（5180001054725）に合併し解散,2015-10-05,1,,,,,ファルマコポラ,0
1856,7080402018097,登記記録の閉鎖等,0,2023-12-27,2023-12-21,有限会社マックスモーメント,,有限会社,静岡県,掛川市,西大渕３３５９番地,,22,213,4371304,,,2023-12-21,清算の結了等,,,2015-10-05,1,,,,,マックスモーメント,0
1866,7110001027685,登記記録の閉鎖等,0,2023-12-27,2023-12-25,北陸建材株式会社,,株式会社,新潟県,佐渡市,八幡字田屋田８番地,,15,224,9521311,,,2023-12-25,合併による解散等,5110001027729,令和５年１２月２５日新潟県佐渡市小木町１９３５番地２９株式会社北陸ムラタ（5110001027729）に合併し解散,2015-10-05,1,,,,,ホクリクケンザイ,0
1868,7110002007091,登記記録の閉鎖等,0,2023-12-27,2023-12-25,有限会社ワールドデンタルラボラトリー,,有限会社,新潟県,新潟市西区,平島３丁目１番６号,,15,107,9502004,,,2023-12-25,清算の結了等,,,2015-10-05,1,,,,,ワールドデンタルラボラトリー,0
1871,7120001021695,登記記録の閉鎖等,0,2023-12-27,2023-12-18,株式会社松川鋼商店,,株式会社,大阪府,大阪市平野区,長吉長原東３丁目１３番１２号,,27,126,5470013,,,2023-12-18,清算の結了等,,,2015-10-05,1,,,,,マツカワハガネショウテン,0
1877,7120001150783,登記記録の閉鎖等,0,2023-12-27,2023-12-25,ムツヤ物産株式会社,,株式会社,大阪府,枚方市,東香里元町１３番１０号,,27,210,5730076,,,2023-12-25,清算の結了等,,,2015-10-05,1,,,,,ムツヤブッサン,0
1894,7122002015552,登記記録の閉鎖等,0,2023-12-27,2023-12-25,有限会社眞野商店,,有限会社,大阪府,柏原市,太平寺２丁目１６番１０号,,27,221,5820017,,,2023-12-25,清算の結了等,,,2015-10-05,1,,,,,マノショウテン,0
1917,7160001014670,登記記録の閉鎖等,0,2023-12-27,2023-12-22,株式会社インテリア渋江,,株式会社,滋賀県,栗東市,林６番地,,25,208,5203043,,,2023-12-22,清算の結了等,,,2015-10-05,1,,,,,インテリアシブエ,0
1922,7170001002146,登記記録の閉鎖等,0,2023-12-27,2023-12-26,堤商事株式会社,,株式会社,和歌山県,和歌山市,美園町５丁目６番地の８,,30,201,6408331,,,2023-12-26,清算の結了等,,,2015-10-05,1,,,,,ツツミショウジ,0
1928,7170002008910,登記記録の閉鎖等,0,2023-12-27,2023-12-25,有限会社谷本土木,,有限会社,和歌山県,田辺市,中芳養２０番地の５７,,30,206,6460057,,,2023-12-25,清算の結了等,,,2015-10-05,1,,,,,タニモトドボク,0
1929,7180001114618,登記記録の閉鎖等,0,2023-12-27,2023-12-25,テルエンジニアリング株式会社,,株式会社,愛知県,一宮市,浅野字外裏３３番地,,23,203,4910871,,,2023-12-25,清算の結了等,,,2015-10-05,1,,,,,テルエンジニアリング,0
1936,7180002079645,登記記録の閉鎖等,0,2023-12-27,2023-12-25,有限会社テル,,有限会社,愛知県,一宮市,浅野字外裏３３番地,,23,203,4910871,,,2023-12-25,清算の結了等,,,2015-10-05,1,,,,,テル,0
1940,7180301005310,登記記録の閉鎖等,0,2023-12-27,2023-12-15,株式会社お米の国,,株式会社,愛知県,豊橋市,前田南町１丁目１２番地の１４,,23,201,4400851,,,2023-12-15,清算の結了等,,,2015-10-05,1,,,,,オコメノクニ,0
1949,7200002002158,登記記録の閉鎖等,0,2023-12-27,2023-12-26,有限会社シーエムエフ技建,,有限会社,岐阜県,岐阜市,諏訪山１丁目２０番３号,,21,201,5013142,,,2023-12-26,清算の結了等,,,2015-10-05,1,,,,,シーエムエフギケン,0
1958,7240002016575,登記記録の閉鎖等,0,2023-12-27,2023-12-18,村商工販有限会社,,有限会社,広島県,広島市西区,中広町３丁目１番５１号－４０６,,34,104,7330012,,,2023-12-18,清算の結了等,,,2015-10-05,1,,,,,,0
1962,7260001001659,登記記録の閉鎖等,0,2023-12-27,2023-12-21,オハヨー乳販株式会社,,株式会社,岡山県,岡山市中区,神下５６５番地,,33,102,7038225,,,2023-12-21,合併による解散等,6260001005719,令和５年１２月１日岡山市中区神下５６５番地リンク＆リンケージ株式会社（6260001005719）に合併し解散,2015-10-05,1,,,,,オハヨーニュウハン,0
1978,7300002008104,登記記録の閉鎖等,0,2023-12-27,2023-12-22,有限会社峯商店,,有限会社,佐賀県,伊万里市,黒川町塩屋２０４番地１,,41,205,8480121,,,2023-12-22,清算の結了等,,,2015-10-05,1,,,,,,0
1979,7310002002295,登記記録の閉鎖等,0,2023-12-27,2023-12-26,有限会社システム電器,,有限会社,長崎県,長崎市,葉山１丁目３９番８号,,42,201,8528053,,,2023-12-26,清算の結了等,,,2015-10-05,1,,,,,,0
1980,7310005007572,登記記録の閉鎖等,0,2023-12-27,2023-12-25,特定非営利活動法人ハッピーライフはしもと,,その他の設立登記法人,長崎県,大村市,竹松本町８０３番地７（フォレスト竹松１０２号室）,,42,205,8560805,,,2023-12-25,清算の結了等,,,2015-10-05,1,,,,,ハッピーライフハシモト,0
1998,7370003001101,登記記録の閉鎖等,0,2023-12-27,2023-12-25,万竜株式会社,,株式会社,宮城県,仙台市泉区,高玉町３番地の６Ｓｏｌｅ高玉２０５,,04,105,9813116,,,2023-12-25,清算の結了等,,,2015-10-05,1,,,,,マンリュウ,0
2007,7430001015311,登記記録の閉鎖等,0,2023-12-27,2023-12-21,株式会社プルシェール,,株式会社,北海道,札幌市中央区,南五条西２５丁目１３５番地,,01,101,0640805,,,2023-12-21,清算の結了等,,,2015-10-05,1,,,,,プルシェール,0
2022,8010005034547,登記記録の閉鎖等,0,2023-12-27,2023-12-22,エコグリーン八戸ホールディングス一般社団法人,,その他の設立登記法人,東京都,千代田区,麹町２丁目８番地ＭＬＣ麹町ビル４階フィンポート税理士法人内,,13,101,1020083,,,2023-12-22,清算の結了等,,,2022-02-01,1,,,,,エコグリーンハチノヘホールディングス,0
2023,8010101013990,登記記録の閉鎖等,0,2023-12-27,2023-12-21,株式会社ビオ・ソラーレ,,株式会社,東京都,八王子市,万町２４,,13,201,1920903,,,2023-12-21,清算の結了等,,,2019-12-27,1,,,,,ビオソラーレ,0
2037,8010601057612,登記記録の閉鎖等,0,2023-12-27,2023-12-08,株式会社ＳＬジャパン,,株式会社,東京都,千代田区,神田須田町１丁目２８－４日宝神田ビル１０階,,13,101,1010041,,,2023-12-08,清算の結了等,,,2020-07-13,1,,,,,エスエルジャパン,0
2045,8010801024016,登記記録の閉鎖等,0,2023-12-27,2023-12-25,株式会社ＰＬＤ,,株式会社,千葉県,流山市,南流山１丁目７番地２号６０２号室,,12,220,2700163,,,2023-12-25,清算の結了等,,,2015-10-05,1,,,,,ピーエルディー,0
2071,8011303002328,登記記録の閉鎖等,0,2023-12-27,2023-12-20,ユニボス合同会社,,合同会社,東京都,杉並区,高井戸東４丁目１２番１６号－２０３,,13,115,1680072,,,2023-12-20,清算の結了等,,,2015-10-30,1,,,,,,0
2089,8013405000300,登記記録の閉鎖等,0,2023-12-27,2023-12-25,特定非営利活動法人ライフ・サポート・マネジメント,,その他の設立登記法人,東京都,府中市,宮西町３丁目８番地の１セザールプラザ府中１１８,,13,206,1830022,,,2023-12-25,清算の結了等,,,2015-10-05,1,,,,,ライフサポートマネジメント,0
2101,8021001018303,登記記録の閉鎖等,0,2023-12-27,2023-12-22,株式会社ふる里かおる,,株式会社,神奈川県,相模原市中央区,田名４７４９番地２４,,14,152,2520244,,,2023-12-22,清算の結了等,,,2015-10-05,1,,,,,フルサトカオル,0
2105,8021002048134,登記記録の閉鎖等,0,2023-12-27,2023-12-18,有限会社トップラン,,有限会社,神奈川県,大和市,中央林間西６丁目７番１７号,,14,213,2420008,,,2023-12-18,清算の結了等,,,2015-10-05,1,,,,,トップラン,0
2107,8030001098940,登記記録の閉鎖等,0,2023-12-27,2023-12-22,ＫＹ企画株式会社,,株式会社,埼玉県,北足立郡伊奈町,中央５丁目８４番地,,11,301,3620809,,,2023-12-22,清算の結了等,,,2015-10-05,1,,,,,ケイワイキカク,0
2113,8030002045363,登記記録の閉鎖等,0,2023-12-27,2023-12-21,有限会社はしぎや,,有限会社,埼玉県,草加市,金明町３７５番地１７,,11,221,3400052,,,2023-12-21,清算の結了等,,,2015-10-05,1,,,,,ハシギヤ,0
2115,8030005010471,登記記録の閉鎖等,0,2023-12-27,2023-12-20,医療法人社団金田整形外科,,その他の設立登記法人,埼玉県,吉川市,中央１丁目１５番地２０,,11,243,3420061,,,2023-12-20,清算の結了等,,,2015-10-05,1,,,,,カネダセイケイゲカ,0
2131,8060002025445,登記記録の閉鎖等,0,2023-12-27,2023-12-22,有限会社手塚,,有限会社,栃木県,大田原市,本町１丁目２７０１番地１４,,09,210,3240041,,,2023-12-22,清算の結了等,,,2015-10-05,1,,,,,テヅカ,0
2133,8070002000091,登記記録の閉鎖等,0,2023-12-27,2023-12-21,有限会社アート印刷,,有限会社,群馬県,前橋市,富士見町小沢５７番地の３,,10,201,3710115,,,2023-12-21,清算の結了等,,,2015-10-05,1,,,,,アートインサツ,0
2135,8080001024512,登記記録の閉鎖等,0,2023-12-27,2023-12-22,もみかるライフツリー株式会社,,株式会社,静岡県,静岡市駿河区,西脇１１番地の１・２階,,22,102,4228044,,,2023-12-22,清算の結了等,,,2021-10-18,1,,,,,モミカルライフツリー,0
2136,8080003002169,登記記録の閉鎖等,0,2023-12-27,2023-12-25,相良衣料品合同会社,,合同会社,静岡県,牧之原市,波津７７３番地,,22,226,4210523,,,2023-12-25,清算の結了等,,,2018-09-27,1,,,,,サガライリョウヒン,0
2137,8080102019717,登記記録の閉鎖等,0,2023-12-27,2023-12-22,有限会社川口,,有限会社,静岡県,伊東市,広野１丁目７番２４号,,22,208,4140038,,,2023-12-22,清算の結了等,,,2015-10-05,1,,,,,カワグチ,0
2155,8120002044513,登記記録の閉鎖等,0,2023-12-27,2023-12-25,有限会社伊予建設,,有限会社,大阪府,大阪市東住吉区,公園南矢田２丁目５番２９号,,27,121,5460024,,,2023-12-25,清算の結了等,,,2015-10-05,1,,,,,イヨケンセツ,0
2159,8120002081655,登記記録の閉鎖等,0,2023-12-27,2023-12-25,有限会社クオン建築設計事務所,,有限会社,大阪府,守口市,金田町４丁目７番２０号,,27,209,5700011,,,2023-12-25,清算の結了等,,,2015-10-05,1,,,,,クオンケンチクセッケイジムショ,0
2165,8130001005886,登記記録の閉鎖等,0,2023-12-27,2023-12-22,株式会社池田製本紙工,,株式会社,京都府,京都市左京区,岩倉上蔵町１９９番地,,26,103,6060017,,,2023-12-22,清算の結了等,,,2015-10-05,1,,,,,イケダセイホンシコウ,0
2166,8130001006059,登記記録の閉鎖等,0,2023-12-27,2023-12-25,株式会社大木工務店,,株式会社,京都府,京都市左京区,上高野仲町１番地１,,26,103,6060044,,,2023-12-25,清算の結了等,,,2015-10-05,1,,,,,オオキコウムテン,0
2169,8130001032666,登記記録の閉鎖等,0,2023-12-27,2023-12-25,株式会社斎藤工業,,株式会社,京都府,宇治市,白川笹原３８番地,,26,204,6110022,,,2023-12-25,清算の結了等,,,2015-10-05,1,,,,,,0
2192,8160005010640,登記記録の閉鎖等,0,2023-12-27,2023-12-26,特定非営利活動法人しが生活支援者ネット,,その他の設立登記法人,滋賀県,大津市,馬場１丁目１０番６号,,25,201,5200802,,,2023-12-26,清算の結了等,,,2018-10-24,1,,,,,シガセイカツシエンシャネット,0
2193,8180001042396,登記記録の閉鎖等,0,2023-12-27,2023-12-25,株式会社ダイワ,,株式会社,愛知県,名古屋市中村区,松原町４丁目１６番地,,23,105,4530021,,,2023-12-25,清算の結了等,,,2015-10-05,1,,,,,ダイワ,0
2196,8180001109055,登記記録の閉鎖等,0,2023-12-27,2023-12-20,株式会社アヴェーク,,株式会社,愛知県,海部郡大治町,大字西條字苅屋橋１５番地の２,,23,424,4901144,,,2023-12-20,清算の結了等,,,2015-10-05,1,,,,,アヴェーク,0
2202,8180002088406,登記記録の閉鎖等,0,2023-12-27,2023-12-21,有限会社フォッサ・デンタルテック,,有限会社,愛知県,知多市,大草字東屋敷７９番地の２,,23,224,4780035,,,2023-12-21,清算の結了等,,,2015-10-05,1,,,,,フォッサデンタルテック,0
2206,8200001013923,登記記録の閉鎖等,0,2023-12-27,2023-12-25,高橋塗装株式会社,,株式会社,岐阜県,大垣市,千鳥町４丁目２１番地,,21,202,5030891,,,2023-12-25,清算の結了等,,,2015-10-05,1,,,,,タカハシトソウ,0
2210,8210002012782,登記記録の閉鎖等,0,2023-12-27,2023-12-20,有限会社梅田工務店,,有限会社,福井県,鯖江市,四方谷町第１５号１１５番地１,,18,207,9161106,,,2023-12-20,清算の結了等,,,2015-10-05,1,,,,,ウメダコウムテン,0
2213,8230002002872,登記記録の閉鎖等,0,2023-12-27,2023-12-25,有限会社日の出商事,,有限会社,富山県,富山市,赤江町１番２４号,,16,201,9300855,,,2023-12-25,清算の結了等,,,2015-10-05,1,,,,,ヒノデショウジ,0
2216,8260001024667,登記記録の閉鎖等,0,2023-12-27,2023-12-26,株式会社ナカジマ,,株式会社,岡山県,倉敷市,連島２丁目６番３５－１号,,33,202,7128012,,,2023-12-26,清算の結了等,,,2015-10-05,1,,,,,ナカジマ,0
2219,8280001004023,登記記録の閉鎖等,0,2023-12-27,2023-12-25,株式会社大田粘土企業,,株式会社,島根県,大田市,久手町刺鹿３０６番地１,,32,205,6940052,,,2023-12-25,清算の結了等,,,2015-10-05,1,,,,,オオダネンドキギョウ,0
2223,8290001025761,登記記録の閉鎖等,0,2023-12-27,2023-12-15,株式会社清庵,,株式会社,福岡県,福岡市早良区,飯倉４丁目３５番１７号,,40,137,8140161,,,2023-12-15,清算の結了等,,,2015-10-05,1,,,,,キヨシアン,0
2229,8290002043696,登記記録の閉鎖等,0,2023-12-27,2023-12-21,有限会社ちろりん村,,有限会社,福岡県,朝倉市,一木１８番地の２６,,40,228,8380065,,,2023-12-21,清算の結了等,,,2015-10-05,1,,,,,チロリンムラ,0
2234,8310002008770,登記記録の閉鎖等,0,2023-12-27,2023-12-26,有限会社はるかぜ,,有限会社,長崎県,長崎市,横尾１丁目４－１,,42,201,8528065,,,2023-12-26,清算の結了等,,,2015-10-05,1,,,,,ハルカゼ,0
2257,8390001007948,登記記録の閉鎖等,0,2023-12-27,2023-12-25,株式会社秋山食品,,株式会社,山形県,鶴岡市,黒川字大杉川原４４６番地,,06,203,9970311,,,2023-12-25,清算の結了等,,,2015-10-05,1,,,,,,0
2258,8400001012822,登記記録の閉鎖等,0,2023-12-27,2023-12-22,株式会社平野システム,,株式会社,岩手県,釜石市,新浜町２丁目２番１６号,,03,211,0260015,,,2023-12-22,清算の結了等,,,2015-10-05,1,,,,,ヒラノシステム,0
2262,8410002013050,登記記録の閉鎖等,0,2023-12-27,2023-12-20,有限会社佐藤儀右衛門商店,,有限会社,秋田県,横手市,四日町５番１５号,,05,203,0130022,,,2023-12-20,清算の結了等,,,2015-10-05,1,,,,,サトウギエモンショウテン,0
2272,8450003002255,登記記録の閉鎖等,0,2023-12-27,2023-12-25,合同会社サンリバー,,合同会社,北海道,旭川市,東光五条７丁目２番２号,,01,204,0788345,,,2023-12-25,清算の結了等,,,2022-10-18,1,,,,,サンリバー,0
2275,8470003001560,登記記録の閉鎖等,0,2023-12-27,2023-12-26,合同会社華邦商事,,合同会社,香川県,善通寺市,金蔵寺町３５７番地１,,37,204,7650031,,,2023-12-26,清算の結了等,,,2019-03-18,1,,,,,カホウショウジ,0
2285,9010401008698,登記記録の閉鎖等,0,2023-12-27,2023-12-21,株式会社クラス・エーワン,,株式会社,東京都,港区,虎ノ門２丁目７番１０号,,13,103,1050001,,,2023-12-21,清算の結了等,,,2015-10-05,1,,,,,クラスエーワン,0
2294,9010502008366,登記記録の閉鎖等,0,2023-12-27,2023-12-21,有限会社中屋,,有限会社,東京都,台東区,浅草３丁目３６番１号,,13,106,1110032,,,2023-12-21,清算の結了等,,,2015-10-05,1,,,,,ナカヤ,0
2300,9010802001673,登記記録の閉鎖等,0,2023-12-27,2023-12-21,有限会社ウイング,,有限会社,東京都,大田区,大森西１丁目５番７号,,13,111,1430015,,,2023-12-21,清算の結了等,,,2015-10-05,1,,,,,ウイング,0
2321,9011301024249,登記記録の閉鎖等,0,2023-12-27,2023-12-14,株式会社ルーチェ,,株式会社,東京都,杉並区,西荻北３丁目１番９号マルスビル５階,,13,115,1670042,,,2023-12-14,清算の結了等,,,2018-06-27,1,,,,,ルーチェ,0
2323,9011401018472,登記記録の閉鎖等,0,2023-12-27,2023-12-25,株式会社数寄社,,株式会社,東京都,板橋区,中丸町１１番２号ワコーレ要町ビル７階,,13,119,1730026,,,2023-12-25,清算の結了等,,,2015-10-05,1,,,,,スキシャ,0
2326,9011402002368,登記記録の閉鎖等,0,2023-12-27,2023-12-22,有限会社金子塗料店,,有限会社,東京都,板橋区,上板橋３丁目１４番４号,,13,119,1740076,,,2023-12-22,清算の結了等,,,2015-10-05,1,,,,,カネコトリョウテン,0
2331,9012403002670,登記記録の閉鎖等,0,2023-12-27,2023-12-21,合同会社岩盤地下計画,,合同会社,東京都,調布市,柴崎１丁目４５番地５４,,13,208,1820014,,,2023-12-21,清算の結了等,,,2016-03-08,1,,,,,,0
2332,9012403004568,登記記録の閉鎖等,0,2023-12-27,2023-12-22,Ａｌｉｃｉａ　ｃｏｍｐａｎｙ合同会社,,合同会社,東京都,渋谷区,神宮前６丁目２３番４号桑野ビル２階,,13,113,1500001,,,2023-12-22,清算の結了等,,,2020-10-27,1,,,,,アリシアカンパニー,0
2334,9013301049795,登記記録の閉鎖等,0,2023-12-27,2023-12-14,株式会社インターネット,,株式会社,東京都,豊島区,池袋２丁目１７番８号天翔池袋ＡＮＮＥＸ２１４号,,13,116,1710014,,,2023-12-14,清算の結了等,,,2022-10-14,1,,,,,インターネット,0
2369,9050001019101,登記記録の閉鎖等,0,2023-12-27,2023-12-22,株式会社共立創建,,株式会社,茨城県,古河市,五部４３７番地２,,08,204,3060123,,,2023-12-22,清算の結了等,,,2015-10-05,1,,,,,キョウリツソウケン,0
2373,9060001011949,登記記録の閉鎖等,0,2023-12-27,2023-12-21,石のエスワン株式会社,,株式会社,栃木県,那須塩原市,五軒町１番３４号,,09,213,3292753,,,2023-12-21,清算の結了等,,,2015-10-05,1,,,,,イシノエスワン,0
2378,9080001022457,登記記録の閉鎖等,0,2023-12-27,2023-12-25,ＳＰレストランツ株式会社,,株式会社,静岡県,静岡市葵区,常磐町１丁目５番地の１村田ビル,,22,101,4200034,,,2023-12-25,清算の結了等,,,2018-09-27,1,,,,,エスピーレストランツ,0
2396,9110002007750,登記記録の閉鎖等,0,2023-12-27,2023-12-19,有限会社タカヤマ,,有限会社,新潟県,新潟市北区,嘉山２１９２番地１,,15,101,9503322,,,2023-12-19,清算の結了等,,,2015-10-05,1,,,,,タカヤマ,0
2398,9120001027773,登記記録の閉鎖等,0,2023-12-27,2023-12-25,大和木炭株式会社,,株式会社,大阪府,大阪市大正区,三軒家東１丁目１２番１８号,,27,108,5510002,,,2023-12-25,清算の結了等,,,2015-10-05,1,,,,,ダイワモクタン,0
2401,9120001138785,登記記録の閉鎖等,0,2023-12-27,2023-12-22,株式会社久保初製作所,,株式会社,大阪府,大阪市港区,波除５丁目３番９号,,27,107,5520001,,,2023-12-22,清算の結了等,,,2015-10-05,1,,,,,クボハツセイサクショ,0
2417,9120102000126,登記記録の閉鎖等,0,2023-12-27,2023-12-21,有限会社白木刃物,,有限会社,大阪府,堺市中区,土師町３丁３４番３５号,,27,142,5998238,,,2023-12-21,清算の結了等,,,2015-10-05,1,,,,,シラキハモノ,0
2429,9130001039446,登記記録の閉鎖等,0,2023-12-27,2023-12-11,株式会社エスアールデー,,株式会社,京都府,八幡市,西山足立１６番地１,,26,210,6148351,,,2023-12-11,清算の結了等,,,2015-10-05,1,,,,,エスアールデー,0
2440,9140001013697,登記記録の閉鎖等,0,2023-12-27,2023-12-25,東洋ビルテック株式会社,,株式会社,兵庫県,神戸市兵庫区,水木通４丁目２番２号,,28,105,6520802,,,2023-12-25,清算の結了等,,,2015-10-05,1,,,,,トウヨウビルテック,0
2449,9160002004421,登記記録の閉鎖等,0,2023-12-27,2023-12-25,ケイエスシー有限会社,,有限会社,滋賀県,大津市,朝日が丘２丁目１０番４９号,,25,201,5200052,,,2023-12-25,清算の結了等,,,2015-10-05,1,,,,,ケイエスシー,0
2459,9180002074990,登記記録の閉鎖等,0,2023-12-27,2023-12-22,有限会社ノバ,,有限会社,愛知県,犬山市,上坂町３丁目１０７番地,,23,215,4840059,,,2023-12-22,清算の結了等,,,2015-10-05,1,,,,,ノバ,0
2464,9180301014045,登記記録の閉鎖等,0,2023-12-27,2023-12-15,株式会社サシュウ産業,,株式会社,愛知県,刈谷市,築地町３丁目３番地３,,23,210,4480011,,,2023-12-15,清算の結了等,,,2015-10-05,1,,,,,サシュウサンギョウ,0
2469,9180305007367,登記記録の閉鎖等,0,2023-12-27,2023-12-18,特定非営利活動法人三河湾環境保全研究会,,その他の設立登記法人,愛知県,西尾市,東幡豆町岩廻４６番地５,,23,213,4440701,,,2023-12-18,清算の結了等,,,2015-10-05,1,,,,,ミカワワンカンキョウホゼンケンキュウカイ,0
2471,9180305008704,登記記録の閉鎖等,0,2023-12-27,2023-12-19,一般社団法人ＯＣＷＪ,,その他の設立登記法人,愛知県,額田郡幸田町,大字高力字西崎１５番地４,,23,501,4440111,,,2023-12-19,清算の結了等,,,2017-10-03,1,,,,,オーシーダブルジェイ,0
2475,9200001002454,登記記録の閉鎖等,0,2023-12-27,2023-12-25,鹿野米穀株式会社,,株式会社,岐阜県,岐阜市,西改田宮西３９番地,,21,201,5011165,,,2023-12-25,清算の結了等,,,2015-10-05,1,,,,,シカノベイコク,0
2478,9200001023847,登記記録の閉鎖等,0,2023-12-27,2023-12-25,種田襖材株式会社,00076684,株式会社,岐阜県,中津川市,坂下３３９５番地の１,,21,206,5099232,,,2023-12-25,清算の結了等,,,2015-10-05,1,,,,,タネダフスマザイ,0
2479,9200001024952,登記記録の閉鎖等,0,2023-12-27,2023-12-25,株式会社ダイヤ堂,,株式会社,岐阜県,高山市,相生町１７番地,,21,203,5060014,,,2023-12-25,清算の結了等,,,2015-10-05,1,,,,,ダイヤドウ,0
2481,9200002015703,登記記録の閉鎖等,0,2023-12-27,2023-12-25,有限会社洞口電工,,有限会社,岐阜県,揖斐郡池田町,八幡２６６３番地の２,,21,404,5032426,,,2023-12-25,清算の結了等,,,2015-10-05,1,,,,,ホラグチデンコウ,0
2498,9290001088188,登記記録の閉鎖等,0,2023-12-27,2023-12-20,ＳＫ流通サービス株式会社,,株式会社,福岡県,福岡市東区,多の津４丁目５番１２号ＬＩＺビル２Ｆ,,40,131,8130034,,,2023-12-20,清算の結了等,,,2020-02-27,1,,,,,エスケイリュウツウサービス,0
2502,9290002016981,登記記録の閉鎖等,0,2023-12-27,2023-12-25,有限会社浜崎商店,00093113,有限会社,福岡県,福岡市博多区,板付４丁目５番８号,,40,132,8120888,,,2023-12-25,清算の結了等,,,2015-10-05,1,,,,,ハマサキショウテン,0
2508,9290801022412,登記記録の閉鎖等,0,2023-12-27,2023-12-22,ＴＲＩＳＥ株式会社,,株式会社,福岡県,北九州市小倉南区,長野本町１丁目１番２５号,,40,107,8000241,,,2023-12-22,清算の結了等,,,2016-04-08,1,,,,,トライズ,0
2512,9300002007327,登記記録の閉鎖等,0,2023-12-27,2023-12-26,有限会社さかい,,有限会社,佐賀県,杵島郡江北町,大字下小田３０８３番地,,41,424,8490505,,,2023-12-26,清算の結了等,,,2015-10-05,1,,,,,サカイ,0
2516,9310005002407,登記記録の閉鎖等,0,2023-12-27,2023-12-25,医療法人社団沖永歯科医院,,その他の設立登記法人,長崎県,佐世保市,黒髪町１２番１１号,,42,202,8571152,,,2023-12-25,清算の結了等,,,2015-10-05,1,,,,,オキナガシカイイン,0
2524,9360002010449,登記記録の閉鎖等,0,2023-12-27,2023-12-25,有限会社兼城設備工業,,有限会社,沖縄県,島尻郡南風原町,字兼城１３６番地,,47,350,9011111,,,2023-12-25,清算の結了等,,,2015-10-05,1,,,,,カネシロセツビコウギョウ,0
2528,9380001012659,登記記録の閉鎖等,0,2023-12-27,2023-12-25,株式会社桂商事,,株式会社,福島県,いわき市,小名浜大原字東田２番地の３,,07,204,9718111,,,2023-12-25,清算の結了等,,,2015-10-05,1,,,,,カツラショウジ,0
2529,9380001014259,登記記録の閉鎖等,0,2023-12-27,2023-12-25,株式会社コトブキレジャー,,株式会社,福島県,いわき市,平字愛谷町一丁目４番地の１０,,07,204,9708026,,,2023-12-25,清算の結了等,,,2015-10-05,1,,,,,コトブキレジャー,0
2538,9380002024967,登記記録の閉鎖等,0,2023-12-27,2023-12-25,有限会社藤栄商事,,有限会社,福島県,いわき市,平字愛谷町一丁目４番地の１０,,07,204,9708026,,,2023-12-25,清算の結了等,,,2015-10-05,1,,,,,トウエイショウジ,0
2539,9390001009555,登記記録の閉鎖等,0,2023-12-27,2023-12-15,ＰＦＩさくらんぼ東根学校給食サービス株式会社,,株式会社,山形県,東根市,大字蟹沢字下縄目１８６３番地１２,,06,211,9993716,,,2023-12-15,清算の結了等,,,2015-10-05,1,,,,,ピーエフアイサクランボヒガシネガッコウキュウショクサービス,0
2544,9430001059810,登記記録の閉鎖等,0,2023-12-27,2023-12-21,株式会社岩佐,,株式会社,北海道,札幌市北区,新琴似七条１６丁目２番２１号２階,,01,102,0010907,,,2023-12-21,清算の結了等,,,2015-10-05,1,,,,,イワサ,0
2557,9480002007598,登記記録の閉鎖等,0,2023-12-27,2023-12-26,大栗電機有限会社,,有限会社,徳島県,小松島市,芝生町字内開４３番地１,,36,203,7730009,,,2023-12-26,清算の結了等,,,2015-10-05,1,,,,,オオグリデンキ,0
