sequenceNumber,corporateNumber,process,correct,updateDate,changeDate,name,nameImageId,kind,prefectureName,cityName,streetNumber,addressImageId,prefectureCode,cityCode,postCode,addressOutside,addressOutsideImageId,closeDate,closeCause,successorCorporateNumber,changeCause,assignmentDate,latest,enName,enPrefectureName,enCityName,enAddressOutside,furigana,hihyoji
44,1010005035048,登記記録の閉鎖等,0,2024-11-08,2024-11-06,ＤＥ１特定目的会社,,その他の設立登記法人,東京都,千代田区,大手町１丁目２番１号ＯｔｅｍａｃｈｉＯｎｅタワー６階,,13,101,1000004,,,2024-11-06,清算の結了等,,,2022-05-24,1,,,,,ディーイーワン,0
49,1010401153725,登記記録の閉鎖等,0,2024-11-08,2024-10-22,株式会社ＣＶ１号,,株式会社,東京都,港区,虎ノ門１丁目３番１号東京虎ノ門グローバルスクエア株式会社ＵＮＩＶＡ・Ｏａｋホールディングス内,,13,103,1050001,,,2024-10-22,清算の結了等,,,2020-07-02,1,,,,,シーブイイチゴウ,0
107,1012701012073,登記記録の閉鎖等,0,2024-11-08,2024-10-25,株式会社ヒロ,,株式会社,東京都,小平市,学園西町１丁目１３番４号,,13,211,1870045,,,2024-10-25,清算の結了等,,,2015-10-05,1,,,,,ヒロ,0
109,1012701017543,登記記録の閉鎖等,0,2024-11-08,2024-11-05,ＫＳ株式会社,,株式会社,東京都,荒川区,荒川１丁目８番１号２階,,13,118,1160002,,,2024-11-05,清算の結了等,,,2023-03-16,1,,,,,ケーエス,0
110,1012803003094,登記記録の閉鎖等,0,2024-11-08,2024-10-24,ＳＴＡＧＥＷＯＲＫＳ合同会社,,合同会社,東京都,国分寺市,南町２丁目１０番１３号,,13,214,1850021,,,2024-10-24,清算の結了等,,,2023-06-06,1,,,,,ステージワークス,0
129,1021003014083,登記記録の閉鎖等,0,2024-11-08,2024-11-05,合同会社ＳＡＴＥＬＬＡ,,合同会社,神奈川県,秦野市,鶴巻北１丁目１１番１―４１７号,,14,211,2570001,,,2024-11-05,清算の結了等,,,2024-01-26,1,,,,,サテラ,0
136,1030001058554,登記記録の閉鎖等,0,2024-11-08,2024-11-01,株式会社ジオテクノ,,株式会社,埼玉県,川越市,大字古谷上６０８３番地８（Ａ－２棟４０２号室）,,11,201,3500001,,,2024-11-01,清算の結了等,,,2015-10-05,1,,,,,ジオテクノ,0
148,1030002072777,登記記録の閉鎖等,0,2024-11-08,2024-11-05,有限会社関越ビジネスマシン,,有限会社,埼玉県,川越市,南大塚５丁目１５番地３,,11,201,3501162,,,2024-11-05,清算の結了等,,,2015-10-05,1,,,,,カンエツビジネスマシン,0
156,1040001108507,登記記録の閉鎖等,0,2024-11-08,2024-10-28,株式会社サクシード,,株式会社,東京都,中央区,築地２丁目８番１０号築地Ｋ＆ＲＩＩＴＯＤＡビル３階,00125578,13,102,1040045,,,2024-10-28,清算の結了等,,,2019-03-27,1,,,,,サクシード,0
159,1040002101832,登記記録の閉鎖等,0,2024-11-08,2024-11-01,有限会社関徳,,有限会社,千葉県,いすみ市,大原８６９９番地,,12,238,2980004,,,2024-11-01,清算の結了等,,,2015-10-05,1,,,,,セキトク,0
164,1050001022681,登記記録の閉鎖等,0,2024-11-08,2024-10-31,株式会社松星フードサービス,,株式会社,茨城県,神栖市,大野原３丁目２番２１号,,08,232,3140144,,,2024-10-31,清算の結了等,,,2015-10-05,1,,,,,マツボシフードサービス,0
175,1080402006826,登記記録の閉鎖等,0,2024-11-08,2024-11-01,有限会社ファースト・ハウジング,,有限会社,静岡県,浜松市中央区,天王町１５１２番地の１,,22,138,4350052,,,2024-11-01,合併による解散等,6080401010007,令和６年１１月１日静岡県浜松市中央区天王町１１４７番地の１幸和ハウジング株式会社ビル１階株式会社コーワ住センター（6080401010007）に合併し解散,2015-10-05,1,,,,,ファーストハウジング,0
184,1120001049924,登記記録の閉鎖等,0,2024-11-08,2024-11-06,相互保険サービス株式会社,,株式会社,大阪府,大阪市西淀川区,姫島５丁目７番３６号,,27,113,5550033,,,2024-11-06,清算の結了等,,,2015-10-05,1,,,,,ソウゴホケンサービス,0
205,1130001001834,登記記録の閉鎖等,0,2024-11-08,2024-11-01,豊基建設株式会社,,株式会社,京都府,京都市右京区,嵯峨野西ノ藤町２番地の１１,,26,108,6168333,,,2024-11-01,清算の結了等,,,2015-10-05,1,,,,,ホウキケンセツ,0
222,1140002049574,登記記録の閉鎖等,0,2024-11-08,2024-11-01,有限会社田中マツサージ院,,有限会社,兵庫県,姫路市,塩町７７番地,,28,201,6700904,,,2024-11-01,清算の結了等,,,2015-10-05,1,,,,,タナカマツサージイン,0
224,1150001027613,登記記録の閉鎖等,0,2024-11-08,2024-11-01,清水紙業株式会社,,株式会社,奈良県,奈良市,花園町３０番地,,29,201,6308328,,,2024-11-01,清算の結了等,,,2024-10-30,1,,,,,シミズシギョウ,0
227,1170001004346,登記記録の閉鎖等,0,2024-11-08,2024-11-01,株式会社アイワライフネット,,株式会社,和歌山県,和歌山市,美園町５丁目２番地の５,,30,201,6408331,,,2024-11-01,合併による解散等,1170001001467,令和６年１１月１日和歌山市美園町五丁目２番地の５株式会社シージェーシー管理センター（1170001001467）に合併し解散,2015-10-05,1,,,,,アイワライフネット,0
241,1180003002628,登記記録の閉鎖等,0,2024-11-08,2024-10-28,合資会社都築瓦店,,合資会社,愛知県,名古屋市中川区,八神町１丁目４０番地,,23,110,4540041,,,2024-10-28,清算の結了等,,,2015-10-05,1,,,,,ツズキカワラテン,0
249,1200001007056,登記記録の閉鎖等,0,2024-11-08,2024-11-07,美尾整理株式会社,,株式会社,岐阜県,各務原市,上戸町３丁目３２０番地,,21,213,5040927,,,2024-11-07,清算の結了等,,,2015-10-05,1,,,,,ミオセイリ,0
256,1220003003497,登記記録の閉鎖等,0,2024-11-08,2024-10-30,Ｋ＆Ｈ合同会社,,合同会社,石川県,金沢市,片町１丁目８‐２０ＧＡＺＡ片町２Ｆ,,17,201,9200981,,,2024-10-30,清算の結了等,,,2023-04-12,1,,,,,ケイアンドエイチ,0
257,1230002006327,登記記録の閉鎖等,0,2024-11-08,2024-11-05,有限会社ミツバハウジング,,有限会社,富山県,富山市,東流杉１７１番地１,,16,201,9398031,,,2024-11-05,清算の結了等,,,2015-10-05,1,,,,,ミツバハウジング,0
285,1350002006133,登記記録の閉鎖等,0,2024-11-08,2024-11-05,有限会社菅産業,,有限会社,宮崎県,宮崎市,中村東３丁目５番２号南興ビル７１０号,,45,201,8800904,,,2024-11-05,清算の結了等,,,2015-10-05,1,,,,,スガサンギョウ,0
296,1390002013035,登記記録の閉鎖等,0,2024-11-08,2024-10-30,有限会社西部プロパン,,有限会社,山形県,米沢市,城西４丁目２番４７号,,06,202,9920054,,,2024-10-30,清算の結了等,,,2015-10-05,1,,,,,セイブプロパン,0
299,1410002001755,登記記録の閉鎖等,0,2024-11-08,2024-11-06,有限会社三四郎,,有限会社,秋田県,秋田市,大町２丁目１番９号,,05,201,0100921,,,2024-11-06,清算の結了等,,,2015-10-05,1,,,,,サンシロウ,0
300,1420001013288,登記記録の閉鎖等,0,2024-11-08,2024-11-06,株式会社感動ハウス弘前,,株式会社,青森県,弘前市,大字早稲田２丁目８番地６,,02,202,0368087,,,2024-11-06,清算の結了等,,,2015-10-05,1,,,,,カンドウハウスヒロサキ,0
323,2010001211295,登記記録の閉鎖等,0,2024-11-08,2024-10-25,株式会社ＭＵＦＵ,,株式会社,東京都,中央区,晴海２丁目２番４２号３３１２室,,13,102,1040053,,,2024-10-25,清算の結了等,,,2020-07-30,1,,,,,エムユーエフユー,0
342,2010005023241,登記記録の閉鎖等,0,2024-11-08,2024-10-08,一般社団法人アフリカン・サポート・アソシエーション,,その他の設立登記法人,東京都,目黒区,目黒本町１丁目１３番９号－００７,,13,110,1520002,,,2024-10-08,清算の結了等,,,2015-10-05,1,,,,,アフリカンサポートアソシエーション,0
372,2010401092352,登記記録の閉鎖等,0,2024-11-08,2024-10-25,株式会社エー・エス・コーポレーション,,株式会社,東京都,千代田区,平河町１丁目５－１３,,13,101,1020093,,,2024-10-25,清算の結了等,,,2015-10-05,1,,,,,エーエスコーポレーション,0
409,2011201024058,登記記録の閉鎖等,0,2024-11-08,2024-10-25,株式会社サンサン,,株式会社,東京都,千代田区,神田和泉町１番地６－１６ヤマトビル４０５,,13,101,1010024,,,2024-10-25,清算の結了等,,,2022-08-23,1,,,,,サンサン,0
414,2011502003842,登記記録の閉鎖等,0,2024-11-08,2024-11-06,有限会社ちば製図材料,,有限会社,東京都,北区,西が丘２丁目２４番１１号,,13,117,1150056,,,2024-11-06,清算の結了等,,,2015-10-05,1,,,,,チバセイズザイリョウ,0
423,2011802025289,登記記録の閉鎖等,0,2024-11-08,2024-10-30,マルチキャストデザイン有限会社,,有限会社,長野県,北佐久郡軽井沢町,大字発地１０６番地１４,,20,321,3890113,,,2024-10-30,清算の結了等,,,2015-10-05,1,,,,,マルチキャストデザイン,0
436,2021001004845,登記記録の閉鎖等,0,2024-11-08,2024-11-06,株式会社モンバード,,株式会社,神奈川県,藤沢市,鵠沼桜が岡３丁目５番１１号,00012223,14,205,2510027,,,2024-11-06,清算の結了等,,,2015-10-05,1,,,,,モンバード,0
447,2030001017930,登記記録の閉鎖等,0,2024-11-08,2024-11-01,三陸設備株式会社,,株式会社,埼玉県,さいたま市岩槻区,大字釣上新田３４８番地の１,,11,110,3390025,,,2024-11-01,清算の結了等,,,2015-10-05,1,,,,,サンリクセツビ,0
485,2060001005528,登記記録の閉鎖等,0,2024-11-08,2024-11-01,株式会社イシザワ,,株式会社,栃木県,宇都宮市,清原台２丁目６番１７号,,09,201,3213223,,,2024-11-01,清算の結了等,,,2015-10-05,1,,,,,イシザワ,0
486,2060001012367,登記記録の閉鎖等,0,2024-11-08,2024-11-01,秀和管理株式会社,,株式会社,栃木県,那須郡那須町,大字豊原乙１番地３２３３,,09,407,3293224,,,2024-11-01,合併による解散等,5060001011630,令和６年１１月１日栃木県那須郡那須町大字豊原乙１番地３２３３株式会社秀和（5060001011630）に合併し解散,2015-10-05,1,,,,,シュウワカンリ,0
491,2070005001910,登記記録の閉鎖等,0,2024-11-08,2024-11-05,特定非営利活動法人群馬コングレスサポート,,その他の設立登記法人,群馬県,前橋市,南町２丁目６５番１号,,10,201,3710805,,,2024-11-05,清算の結了等,,,2015-10-05,1,,,,,グンマコングレスサポート,0
494,2080001025160,登記記録の閉鎖等,0,2024-11-08,2024-10-31,株式会社小柳津工業,,株式会社,静岡県,藤枝市,志太３丁目１４番２８－１号,,22,214,4260071,,,2024-10-31,清算の結了等,,,2022-09-02,1,,,,,オヤイヅコウギョウ,0
498,2080103001712,登記記録の閉鎖等,0,2024-11-08,2024-11-01,合同会社日本インフラ,,合同会社,静岡県,下田市,五丁目１１番２号,,22,219,4150025,,,2024-11-01,清算の結了等,,,2017-08-21,1,,,,,ニッポンインフラ,0
505,2100002001422,登記記録の閉鎖等,0,2024-11-08,2024-10-31,有限会社久保田自工,,有限会社,長野県,長野市,篠ノ井二ツ柳１９５８番地１,,20,201,3888012,,,2024-10-31,清算の結了等,,,2015-10-05,1,,,,,クボタジコウ,0
507,2100002036245,登記記録の閉鎖等,0,2024-11-08,2024-10-31,有限会社ケーアイ育英,,有限会社,長野県,飯田市,北方３８７２番地１６,,20,205,3950151,,,2024-10-31,清算の結了等,,,2015-10-05,1,,,,,ケーアイイクエイ,0
549,2140002029195,登記記録の閉鎖等,0,2024-11-08,2024-10-31,有限会社谷金型工業,,有限会社,兵庫県,神戸市長田区,駒ケ林町３丁目３番１号,,28,106,6530043,,,2024-10-31,清算の結了等,,,2015-10-05,1,,,,,タニカナガタコウギョウ,0
560,2180002011819,登記記録の閉鎖等,0,2024-11-08,2024-10-29,有限会社デフトデザイン工房,,有限会社,愛知県,名古屋市北区,成願寺１丁目９番１２号,,23,103,4620021,,,2024-10-29,清算の結了等,,,2015-10-05,1,,,,,デフトデザインコウボウ,0
575,2200002006840,登記記録の閉鎖等,0,2024-11-08,2024-11-07,アイワン加工有限会社,,有限会社,岐阜県,各務原市,鵜沼各務原町２丁目３５番地,,21,213,5090141,,,2024-11-07,清算の結了等,,,2015-10-05,1,,,,,アイワンカコウ,0
609,2370005010006,登記記録の閉鎖等,0,2024-11-08,2024-10-25,ロマーヌ仙台桜ケ丘第一マンション管理組合法人,,その他の設立登記法人,宮城県,仙台市青葉区,桜ケ丘１丁目２番８号,,04,101,9810961,,,2024-10-25,清算の結了等,,,2019-10-28,1,,,,,ロマーヌセンダイサクラガオカダイイチマンション,0
610,2370302000056,登記記録の閉鎖等,0,2024-11-08,2024-10-21,有限会社アースティクト,,有限会社,宮城県,石巻市,恵み野４丁目３番地１,,04,202,9860868,,,2024-10-21,清算の結了等,,,2015-10-05,1,,,,,アースティクト,0
611,2370305000953,登記記録の閉鎖等,0,2024-11-08,2024-10-28,特定非営利活動法人東松島市芸術文化振興会,,その他の設立登記法人,宮城県,東松島市,矢本字大溜１番地１,,04,214,9810503,,,2024-10-28,清算の結了等,,,2015-10-05,1,,,,,ヒガシマツシマシゲイジュツブンカシンコウカイ,0
622,2420001015465,登記記録の閉鎖等,0,2024-11-08,2024-11-06,青匠建設株式会社,,株式会社,青森県,青森市,奥野２丁目９番１９号,,02,201,0300841,,,2024-11-06,清算の結了等,,,2016-10-27,1,,,,,セイショウケンセツ,0
624,2420002020167,登記記録の閉鎖等,0,2024-11-08,2024-11-05,有限会社クリーントラスト,,有限会社,青森県,下北郡東通村,大字砂子又字上新田１番地７,,02,424,0394222,,,2024-11-05,清算の結了等,,,2015-10-05,1,,,,,クリーントラスト,0
637,2500002017626,登記記録の閉鎖等,0,2024-11-08,2024-11-01,有限会社赤坂,,有限会社,愛媛県,今治市,黄金町４丁目４番地の１６,,38,202,7940037,,,2024-11-01,清算の結了等,,,2015-10-05,1,,,,,アカサカ,0
643,3010001029200,登記記録の閉鎖等,0,2024-11-08,2024-10-02,株式会社ボリショイサーカス,,株式会社,福岡県,福岡市西区,愛宕浜２丁目３番８－９０４号,,40,135,8190013,,,2024-10-02,清算の結了等,,,2015-10-05,1,,,,,ボリショイサーカス,0
691,3010401027497,登記記録の閉鎖等,0,2024-11-08,2024-10-23,株式会社星野商会,,株式会社,東京都,港区,虎ノ門３丁目７番２０号,,13,103,1050001,,,2024-10-23,清算の結了等,,,2015-10-05,1,,,,,ホシノショウカイ,0
723,3011101057124,登記記録の閉鎖等,0,2024-11-08,2024-11-07,永井建築不動産綜合事務所株式会社,,株式会社,東京都,三鷹市,下連雀２丁目１０番１０号,,13,204,1810013,,,2024-11-07,清算の結了等,,,2015-10-05,1,,,,,ナガイケンチクフドウサンソウゴウジムショ,0
732,3011401003967,登記記録の閉鎖等,0,2024-11-08,2024-11-01,株式会社タケノウチ,,株式会社,東京都,板橋区,氷川町２２番１７号,,13,119,1730013,,,2024-11-01,清算の結了等,,,2015-10-05,1,,,,,タケノウチ,0
742,3012401017313,登記記録の閉鎖等,0,2024-11-08,2024-11-07,コルディアリタ株式会社,,株式会社,東京都,府中市,朝日町１丁目１４番地の２８,,13,206,1830003,,,2024-11-07,清算の結了等,,,2015-10-05,1,,,,,コルディアリタ,0
744,3013102005227,登記記録の閉鎖等,0,2024-11-08,2024-11-05,有限会社ＴＨＹ,,有限会社,東京都,羽村市,羽東１丁目１２番３号,,13,227,2050014,,,2024-11-05,清算の結了等,,,2015-10-05,1,,,,,ティーエイチワイ,0
769,3021002029956,登記記録の閉鎖等,0,2024-11-08,2024-11-06,有限会社山電工業,,有限会社,神奈川県,相模原市緑区,名倉２９９４番地,,14,151,2520187,,,2024-11-06,清算の結了等,,,2015-10-05,1,,,,,ヤマデンコウギョウ,0
770,3021005009690,登記記録の閉鎖等,0,2024-11-08,2024-10-31,特定非営利活動法人病態解析研究所,,その他の設立登記法人,神奈川県,厚木市,妻田東２丁目１０番６号,,14,212,2430813,,,2024-10-31,清算の結了等,,,2015-10-05,1,,,,,ビョウタイカイセキケンキュウジョ,0
778,3030001103969,登記記録の閉鎖等,0,2024-11-08,2024-11-05,株式会社ウッドビルド,,株式会社,埼玉県,さいたま市緑区,大字中野田８８８番地７,,11,109,3360972,,,2024-11-05,清算の結了等,,,2015-10-05,1,,,,,ウッドビルド,0
790,3030003014941,登記記録の閉鎖等,0,2024-11-08,2024-11-01,高齢者と障がい者の合同会社,,合同会社,埼玉県,羽生市,南羽生３丁目１７番地７,,11,216,3480071,,,2024-11-01,清算の結了等,,,2020-03-11,1,,,,,コウレイシャトショウガイシャノ,0
820,3070001007150,登記記録の閉鎖等,0,2024-11-08,2024-11-01,株式会社新効,,株式会社,福岡県,久留米市,東町２８番地９,,40,203,8300032,,,2024-11-01,合併による解散等,5290001049739,令和６年１１月１日福岡県久留米市東町２８番地９株式会社ユーコー（5290001049739）に合併し解散,2015-10-05,1,,,,,シンコウ,0
844,3100001012428,登記記録の閉鎖等,0,2024-11-08,2024-10-31,株式会社山口機工,,株式会社,長野県,下高井郡木島平村,大字上木島２３６９番地,,20,562,3892303,,,2024-10-31,清算の結了等,,,2015-10-05,1,,,,,ヤマグチキコウ,0
860,3120001220994,登記記録の閉鎖等,0,2024-11-08,2024-11-05,株式会社パピーズ,,株式会社,大阪府,大阪市生野区,巽西２丁目７番１４号,00116589,27,116,5440012,,,2024-11-05,清算の結了等,,,2019-05-16,1,,,,,パピーズ,0
869,3120002069151,登記記録の閉鎖等,0,2024-11-08,2024-11-05,有限会社和風創作直親,,有限会社,大阪府,大阪市淀川区,東三国４丁目２５番３号,,27,123,5320002,,,2024-11-05,清算の結了等,,,2015-10-05,1,,,,,,0
871,3120003015154,登記記録の閉鎖等,0,2024-11-08,2024-11-06,合同会社ｎａｄｅｓｈｉｋｏ,,合同会社,大阪府,大阪市北区,曾根崎新地１丁目５番２１号松木興産ビル３階,,27,127,5300002,,,2024-11-06,清算の結了等,,,2019-01-09,1,,,,,ナデシコ,0
881,3120102016581,登記記録の閉鎖等,0,2024-11-08,2024-11-05,有限会社アートライズジャパン,,有限会社,大阪府,富田林市,須賀１丁目２５番２０号,,27,214,5840062,,,2024-11-05,清算の結了等,,,2015-10-05,1,,,,,ユウガンガイシャアートライズジャパン,0
933,3180302011088,登記記録の閉鎖等,0,2024-11-08,2024-11-01,有限会社和光設備,,有限会社,愛知県,田原市,浦町山家２５番・２６番合筆地,,23,231,4413403,,,2024-11-01,清算の結了等,,,2015-10-05,1,,,,,ワコウセツビ,0
951,3240001006291,登記記録の閉鎖等,0,2024-11-08,2024-11-05,株式会社高橋商店,,株式会社,広島県,広島市南区,猿猴橋町６番１５号,,34,103,7320823,,,2024-11-05,清算の結了等,,,2015-10-05,1,,,,,タカハシショウテン,0
967,3290801021709,登記記録の閉鎖等,0,2024-11-08,2024-10-24,株式会社カツヒナ,,株式会社,福岡県,北九州市門司区,緑ケ丘５番８号,,40,101,8000043,,,2024-10-24,清算の結了等,,,2015-10-05,1,,,,,カツヒナ,0
968,3290801028340,登記記録の閉鎖等,0,2024-11-08,2024-10-28,琥羽総建株式会社,,株式会社,福岡県,京都郡苅田町,大字与原２０６４番地２,,40,621,8000323,,,2024-10-28,清算の結了等,,,2022-03-18,1,,,,,コハネソウケン,0
980,3340001006538,登記記録の閉鎖等,0,2024-11-08,2024-11-05,株式会社ラグナ,,株式会社,鹿児島県,鹿児島市,小山田町１０２４０番地,,46,201,8911231,,,2024-11-05,清算の結了等,,,2015-10-05,1,,,,,ラグナ,0
981,3340005004711,登記記録の閉鎖等,0,2024-11-08,2024-11-01,医療法人清仁会,,その他の設立登記法人,鹿児島県,奄美市,名瀬久里町１８番８号,,46,222,8940022,,,2024-11-01,清算の結了等,,,2015-10-05,1,,,,,セイジンカイ,0
1039,4010003027481,登記記録の閉鎖等,0,2024-11-08,2024-11-07,合同会社ｔｏｔｏｎｏｉ,,合同会社,神奈川県,平塚市,御殿４丁目１－２０,,14,203,2540061,,,2024-11-07,清算の結了等,,,2018-05-10,1,,,,,トトノイ,0
1040,4010003033471,登記記録の閉鎖等,0,2024-11-08,2024-10-25,合同会社オア,,合同会社,東京都,中央区,銀座１丁目１５番７号ＭＡＣ銀座ビル３階,,13,102,1040061,,,2024-10-25,清算の結了等,,,2020-11-09,1,,,,,オア,0
1077,4010401158259,登記記録の閉鎖等,0,2024-11-08,2024-11-01,株式会社ルミナス,,株式会社,東京都,港区,浜松町２丁目３番１号,,13,103,1050013,,,2024-11-01,合併による解散等,3010401103075,令和６年１１月１日東京都港区浜松町二丁目３番１号株式会社シノケンウェルネス（3010401103075）に合併し解散,2021-02-15,1,,,,,ルミナス,0
1126,4011701016494,登記記録の閉鎖等,0,2024-11-08,2024-11-01,株式会社ケィシステムズ,,株式会社,東京都,江戸川区,鹿骨４丁目１５番７号,,13,123,1330073,,,2024-11-01,清算の結了等,,,2015-10-05,1,,,,,,0
1141,4012802006806,登記記録の閉鎖等,0,2024-11-08,2024-10-23,有限会社日野屋カギセンター,,有限会社,東京都,立川市,柴崎町３丁目４番４号,,13,202,1900023,,,2024-10-23,清算の結了等,,,2015-10-05,1,,,,,ヒノヤカギセンター,0
1147,4021001017787,登記記録の閉鎖等,0,2024-11-08,2024-11-05,株式会社樹,,株式会社,佐賀県,佐賀市,末広２丁目３番７号,,41,201,8400032,,,2024-11-05,清算の結了等,,,2015-10-05,1,,,,,イツキ,0
1162,4030001070580,登記記録の閉鎖等,0,2024-11-08,2024-11-01,株式会社プロスパー,,株式会社,埼玉県,坂戸市,大字紺屋８２番地５,,11,239,3500204,,,2024-11-01,清算の結了等,,,2015-10-05,1,,,,,プロスパー,0
1173,4030002045532,登記記録の閉鎖等,0,2024-11-08,2024-11-01,有限会社福島工務店,,有限会社,埼玉県,草加市,谷塚町１５６７番地３,,11,221,3400023,,,2024-11-01,清算の結了等,,,2015-10-05,1,,,,,フクシマコウムテン,0
1174,4030002068319,登記記録の閉鎖等,0,2024-11-08,2024-11-05,有限会社ごくう古河,,有限会社,埼玉県,春日部市,栄町２丁目１６９番地,,11,214,3440058,,,2024-11-05,清算の結了等,,,2015-10-05,1,,,,,ゴクウコガ,0
1193,4060002034219,登記記録の閉鎖等,0,2024-11-08,2024-11-01,有限会社大橋建築設計事務所,,有限会社,栃木県,下都賀郡壬生町,大字福和田５６９番地,,09,361,3210219,,,2024-11-01,清算の結了等,,,2015-10-05,1,,,,,オオハシケンチクセッケイジムショ,0
1195,4070001011779,登記記録の閉鎖等,0,2024-11-08,2024-11-06,株式会社しみず,,株式会社,群馬県,富岡市,富岡１０４２番地,,10,210,3702316,,,2024-11-06,清算の結了等,,,2015-10-05,1,,,,,シミズ,0
1196,4070001021670,登記記録の閉鎖等,0,2024-11-08,2024-11-05,株式会社キャリックス,,株式会社,群馬県,館林市,赤生田町２２０２番地,,10,207,3740013,,,2024-11-05,清算の結了等,,,2015-10-05,1,,,,,キャリックス,0
1201,4080101004806,登記記録の閉鎖等,0,2024-11-08,2024-11-05,駿河測地株式会社,,株式会社,静岡県,伊豆市,貴僧坊１１３番地の２,,22,222,4102517,,,2024-11-05,清算の結了等,,,2015-10-05,1,,,,,スルガソクチ,0
1204,4100002033067,登記記録の閉鎖等,0,2024-11-08,2024-10-31,有限会社東明開発,,有限会社,長野県,伊那市,下新田３０８１番地,,20,209,3960013,,,2024-10-31,清算の結了等,,,2015-10-05,1,,,,,トウメイカイハツ,0
1223,4120001254991,登記記録の閉鎖等,0,2024-11-08,2024-11-01,富華株式会社,,株式会社,大阪府,大阪市東成区,深江南１丁目１１番９－４０１号,,27,115,5370002,,,2024-11-01,清算の結了等,,,2023-05-26,1,,,,,トミハナ,0
1248,4140003015952,登記記録の閉鎖等,0,2024-11-08,2024-11-05,Ａｒｔ　ｏｆ　Ｌｉｖｉｎｇ合同会社,,合同会社,兵庫県,芦屋市,宮塚町１２－２４－５,,28,206,6590062,,,2024-11-05,清算の結了等,,,2021-02-25,1,,,,,アートオブリヴィング,0
1260,4180001149352,登記記録の閉鎖等,0,2024-11-08,2024-10-29,株式会社ノーヴァンブル,,株式会社,愛知県,名古屋市東区,白壁４丁目５１番地,,23,102,4610011,,,2024-10-29,清算の結了等,,,2022-01-06,1,,,,,ノーヴァンブル,0
1271,4220001020269,登記記録の閉鎖等,0,2024-11-08,2024-11-01,株式会社白山ビジネスアシスト,,株式会社,石川県,白山市,馬場２丁目３８番地,,17,210,9240864,,,2024-11-01,清算の結了等,,,2015-10-05,1,,,,,ハクサンビジネスアシスト,0
1273,4220002016183,登記記録の閉鎖等,0,2024-11-08,2024-11-01,有限会社干場食品,,有限会社,石川県,珠洲市,宝立町春日野２字１０１番地５,,17,205,9271221,,,2024-11-01,清算の結了等,,,2015-10-05,1,,,,,ホシバショクヒン,0
1275,4230001000088,登記記録の閉鎖等,0,2024-11-08,2024-11-01,朝日商亊株式会社,,株式会社,富山県,富山市,太田口通り１丁目３番１５号,,16,201,9300063,,,2024-11-01,合併による解散等,6230001000086,令和６年１１月１日富山市太田口通り一丁目３番１５号朝日製薬販売株式会社（6230001000086）に合併し解散,2015-10-05,1,,,,,アサヒショウジ,0
1276,4230005005686,登記記録の閉鎖等,0,2024-11-08,2024-11-05,特定非営利活動法人暮らしの経済研究所,,その他の設立登記法人,富山県,砺波市,中央町７番４号,,16,208,9391375,,,2024-11-05,清算の結了等,,,2015-10-05,1,,,,,クラシノケイザイケンキュウショ,0
1296,4300002006507,登記記録の閉鎖等,0,2024-11-08,2024-11-05,萩の尾計算センター株式会社,,株式会社,佐賀県,武雄市,武雄町大字武雄４０８９番地４,,41,206,8430022,,,2024-11-05,清算の結了等,,,2015-10-05,1,,,,,ハギノオケイサンセンター,0
1310,4370301000030,登記記録の閉鎖等,0,2024-11-08,2024-10-30,株式会社アシハラ,,株式会社,宮城県,石巻市,大街道西１丁目６番２号,,04,202,9860859,,,2024-10-30,清算の結了等,,,2015-10-05,1,,,,,アシハラ,0
1318,4400002012098,登記記録の閉鎖等,0,2024-11-08,2024-10-29,有限会社グランヂヤ,,有限会社,岩手県,釜石市,小佐野町４丁目５番２２－１号,,03,211,0260052,,,2024-10-29,清算の結了等,,,2015-10-05,1,,,,,グランヂヤ,0
1320,4420001013450,登記記録の閉鎖等,0,2024-11-08,2024-11-05,株式会社クリエイト,,株式会社,青森県,黒石市,大字横町２４番地３,,02,204,0360368,,,2024-11-05,清算の結了等,,,2015-10-05,1,,,,,クリエイト,0
1351,5010003038098,登記記録の閉鎖等,0,2024-11-08,2024-10-25,ＲＢソーラーボート合同会社,,合同会社,東京都,中央区,八丁堀４丁目２番１０号ＡＯＪ税理士法人内,,13,102,1040032,,,2024-10-25,清算の結了等,,,2022-07-15,1,,,,,アールビーソーラーボート,0
1386,5010501029458,登記記録の閉鎖等,0,2024-11-08,2024-10-28,株式会社ＣＨＩＹＯＪＩ・ＳＵＭＩＹＥ＆ＣＯＭＰＡＮＹ,,株式会社,東京都,文京区,本郷３丁目４－３ヒルズ８８４お茶の水ビル５階,,13,105,1130033,,,2024-10-28,清算の結了等,,,2015-10-05,1,,,,,チヨジスミエカンパニー,0
1410,5011103010046,登記記録の閉鎖等,0,2024-11-08,2024-10-30,Ｇ　ａｎｄ　ＥＮ合同会社,,合同会社,東京都,新宿区,西早稲田３丁目１２－４－５０３,,13,104,1690051,,,2024-10-30,清算の結了等,,,2020-09-25,1,,,,,ジーアンドエン,0
1411,5011103014121,登記記録の閉鎖等,0,2024-11-08,2024-10-30,合同会社ライフケア・パートナーズ,,合同会社,東京都,新宿区,西新宿７丁目１番７号新宿ダイカンプラザＡ館９２１,,13,104,1600023,,,2024-10-30,清算の結了等,,,2024-02-21,1,,,,,ライフケアパートナーズ,0
1418,5011502011371,登記記録の閉鎖等,0,2024-11-08,2024-11-05,有限会社ミノル金属工芸,,有限会社,東京都,荒川区,町屋７丁目２０番２号,,13,118,1160001,,,2024-11-05,清算の結了等,,,2015-10-05,1,,,,,ミノルキンゾクコウゲイ,0
1439,5013302014075,登記記録の閉鎖等,0,2024-11-08,2024-10-25,有限会社ヒューマンアクセス,,有限会社,東京都,豊島区,東池袋１丁目３４番５号いちご東池袋ビル６階,,13,116,1700013,,,2024-10-25,清算の結了等,,,2015-10-05,1,,,,,ヒューマンアクセス,0
1441,5020001047380,登記記録の閉鎖等,0,2024-11-08,2024-10-23,株式会社エムズコーポレーション,,株式会社,東京都,港区,西新橋３丁目１８－１西新橋三丁目ビル２階,,13,103,1050003,,,2024-10-23,清算の結了等,,,2015-10-05,1,,,,,エムズコーポレーション,0
1442,5020001053511,登記記録の閉鎖等,0,2024-11-08,2024-10-23,株式会社オージーオー,,株式会社,神奈川県,横浜市都筑区,南山田３丁目３７番１６号,,14,118,2240029,,,2024-10-23,清算の結了等,,,2015-10-05,1,,,,,オージーオー,0
1448,5020001137834,登記記録の閉鎖等,0,2024-11-08,2024-10-23,株式会社Ｒｉｐｐｌｅｒ,,株式会社,神奈川県,横浜市中区,桜木町１丁目１０１番地１クロスゲート７階,,14,104,2310062,,,2024-10-23,清算の結了等,,,2020-09-25,1,,,,,リップラー,0
1459,5030001055102,登記記録の閉鎖等,0,2024-11-08,2024-11-01,株式会社エスエヌジー,,株式会社,埼玉県,川越市,大字山田１７６９番地１,,11,201,3500822,,,2024-11-01,清算の結了等,,,2015-10-05,1,,,,,エスエヌジー,0
1487,5080001008179,登記記録の閉鎖等,0,2024-11-08,2024-11-01,清水地所株式会社,,株式会社,静岡県,静岡市清水区,上原２丁目５番１２号,,22,103,4240871,,,2024-11-01,清算の結了等,,,2015-10-05,1,,,,,,0
1488,5080002002858,登記記録の閉鎖等,0,2024-11-08,2024-11-01,有限会社スギマツ,,有限会社,静岡県,静岡市駿河区,小鹿１５５６番地の１,,22,102,4228021,,,2024-11-01,清算の結了等,,,2015-10-05,1,,,,,スギマツ,0
1496,5090005000404,登記記録の閉鎖等,0,2024-11-08,2024-10-29,心靈界教団塩野教会,,その他の設立登記法人,山梨県,甲府市,新田町４５１番地,,19,201,4000066,,,2024-10-29,清算の結了等,,,2015-10-05,1,,,,,,0
1499,5100002003275,登記記録の閉鎖等,0,2024-11-08,2024-10-31,有限会社デザインスタジオアドマン,,有限会社,長野県,長野市,東鶴賀町６７番地２,,20,201,3800811,,,2024-10-31,清算の結了等,,,2015-10-05,1,,,,,デザインスタジオアドマン,0
1500,5100002013596,登記記録の閉鎖等,0,2024-11-08,2024-10-30,有限会社泉園,,有限会社,長野県,上田市,上野１８３８番地３,,20,203,3860003,,,2024-10-30,清算の結了等,,,2015-10-05,1,,,,,イズミエン,0
1526,5120102027420,登記記録の閉鎖等,0,2024-11-08,2024-11-05,有限会社浅羽畳商店,,有限会社,大阪府,泉南市,信達牧野１２６５番地の１,,27,228,5900522,,,2024-11-05,清算の結了等,,,2015-10-05,1,,,,,アサバタタミショウテン,0
1532,5130001010352,登記記録の閉鎖等,0,2024-11-08,2024-11-05,共栄産業株式会社,,株式会社,京都府,京都市中京区,東洞院通二条下る瓦之町３８０番地１ＣＩＴＹＳＰＩＲＥ烏丸御池６０１,,26,104,6040837,,,2024-11-05,清算の結了等,,,2015-10-05,1,,,,,キョウエイサンギョウ,0
1537,5130003003899,登記記録の閉鎖等,0,2024-11-08,2024-11-01,合同会社ｒｏｏｍ６,,合同会社,京都府,京都市左京区,下鴨中川原町３３番地１０,,26,103,6060811,,,2024-11-01,合併による解散等,7130001046436,令和６年１１月１日京都市左京区田中上柳町２１鴨柳アパートメント６号室株式会社ｒｏｏｍ６（7130001046436）に合併し解散,2015-10-05,1,,,,,ルームシックス,0
1540,5140001053417,登記記録の閉鎖等,0,2024-11-08,2024-11-01,株式会社ペルガス,,株式会社,兵庫県,尼崎市,東園田町９丁目８番５号,,28,202,6610953,,,2024-11-01,清算の結了等,,,2015-10-05,1,,,,,ペルガス,0
1544,5140002047335,登記記録の閉鎖等,0,2024-11-08,2024-11-01,有限会社網干鉄工,,有限会社,兵庫県,姫路市,網干区余子浜１８８番地の１０,,28,201,6711254,,,2024-11-01,清算の結了等,,,2015-10-05,1,,,,,アボシテッコウ,0
1551,5160002001703,登記記録の閉鎖等,0,2024-11-08,2024-10-30,有限会社松之荘,,有限会社,滋賀県,大津市,錦織１丁目５番６号,,25,201,5200027,,,2024-10-30,清算の結了等,,,2015-10-05,1,,,,,マツノソウ,0
1553,5160005010073,登記記録の閉鎖等,0,2024-11-08,2024-11-05,農事組合法人万笑一座,,その他の設立登記法人,滋賀県,長浜市,谷口町３０番地,,25,203,5260271,,,2024-11-05,清算の結了等,,,2015-10-05,1,,,,,マンショウイチザ,0
1559,5180001011016,登記記録の閉鎖等,0,2024-11-08,2024-10-30,株式会社ベスト,,株式会社,愛知県,名古屋市天白区,植田南３丁目５１１番地の３,,23,116,4680053,,,2024-10-30,清算の結了等,,,2015-10-05,1,,,,,ベスト,0
1562,5180001113613,登記記録の閉鎖等,0,2024-11-08,2024-10-29,株式会社ディライト,,株式会社,愛知県,名古屋市中区,錦３丁目１２番１０号,,23,106,4600003,,,2024-10-29,清算の結了等,,,2015-10-05,1,,,,,ディライト,0
1571,5180002082510,登記記録の閉鎖等,0,2024-11-08,2024-10-29,有限会社ハマヤ,,有限会社,愛知県,岩倉市,大市場町順喜１１０番地の２,,23,228,4820002,,,2024-10-29,清算の結了等,,,2015-10-05,1,,,,,ハマヤ,0
1572,5180002085356,登記記録の閉鎖等,0,2024-11-08,2024-10-28,有限会社ケンクラフト,,有限会社,愛知県,知多郡東浦町,大字石浜字平林５４番地,,23,442,4702103,,,2024-10-28,清算の結了等,,,2015-10-05,1,,,,,ケンクラフト,0
1575,5180005015938,登記記録の閉鎖等,0,2024-11-08,2024-11-01,一般社団法人ＨＯＴＡＸ,,その他の設立登記法人,愛知県,海部郡大治町,大字三本木字西之川３０番地,,23,424,4901142,,,2024-11-01,清算の結了等,,,2015-10-05,1,,,,,ホタックス,0
1578,5180302003174,登記記録の閉鎖等,0,2024-11-08,2024-11-05,有限会社山本スレート,,有限会社,愛知県,岡崎市,美合町字下長根１番地,,23,202,4440802,,,2024-11-05,清算の結了等,,,2015-10-05,1,,,,,ヤマモトスレート,0
1586,5200002006648,登記記録の閉鎖等,0,2024-11-08,2024-11-06,有限会社ヤマヤ,,有限会社,岐阜県,山県市,佐賀１３７番地,,21,215,5012114,,,2024-11-06,清算の結了等,,,2015-10-05,1,,,,,ヤマヤ,0
1588,5230001015903,登記記録の閉鎖等,0,2024-11-08,2024-11-05,株式会社テレモバイル,,株式会社,富山県,富山市,桜町１丁目３番９号アイビル３階,,16,201,9300003,,,2024-11-05,清算の結了等,,,2015-10-05,1,,,,,テレモバイル,0
1610,5330002017038,登記記録の閉鎖等,0,2024-11-08,2024-10-30,有限会社ケンアカデミー,,有限会社,熊本県,合志市,須屋１９２１番地２,,43,216,8611102,,,2024-10-30,清算の結了等,,,2015-10-05,1,,,,,ケンアカデミー,0
1614,5340001006354,登記記録の閉鎖等,0,2024-11-08,2024-11-05,グリーン開発株式会社,,株式会社,鹿児島県,鹿児島市,武３丁目１５番１０号第５濱田ビル２０２号,00119490,46,201,8900045,,,2024-11-05,清算の結了等,,,2015-10-05,1,,,,,グリーンカイハツ,0
1627,5370802000932,登記記録の閉鎖等,0,2024-11-08,2024-10-29,有限会社庄司工業所,,有限会社,宮城県,岩沼市,大昭和１番地１号,,04,211,9892453,,,2024-10-29,清算の結了等,,,2015-10-05,1,,,,,ショウジコウギョウショ,0
1642,5420001012955,登記記録の閉鎖等,0,2024-11-08,2024-11-06,株式会社ＡＮＯＶＡ,,株式会社,青森県,上北郡六ヶ所村,大字尾駮字弥栄平１１５番地４,,02,411,0393212,,,2024-11-06,清算の結了等,,,2015-10-05,1,,,,,アノヴァ,0
1654,6010001024198,登記記録の閉鎖等,0,2024-11-08,2024-10-28,株式会社東洋ビジネスパートナーズ,,株式会社,東京都,千代田区,紀尾井町４番１号ニューオータニビジネスコート１０階,,13,101,1020094,,,2024-10-28,清算の結了等,,,2015-10-05,1,,,,,トウヨウビジネスパートナーズ,0
1703,6010401028377,登記記録の閉鎖等,0,2024-11-08,2024-10-22,株式会社マルチイメージ,,株式会社,東京都,港区,新橋２丁目１９番６－６０１号,,13,103,1050004,,,2024-10-22,清算の結了等,,,2015-10-05,1,,,,,マルチイメージ,0
1724,6010901002724,登記記録の閉鎖等,0,2024-11-08,2024-10-29,株式会社カサイティ,,株式会社,東京都,世田谷区,松原５丁目１４番３号,,13,112,1560043,,,2024-10-29,清算の結了等,,,2015-10-05,1,,,,,カサイティ,0
1725,6010903006046,登記記録の閉鎖等,0,2024-11-08,2024-11-01,Ｂｉｇ　ｐｒｏｍｏｔｉｏｎ合同会社,,合同会社,東京都,世田谷区,深沢２丁目１番１１－１０２号,,13,112,1580081,,,2024-11-01,清算の結了等,,,2020-11-13,1,,,,,ビッグプロモーション,0
1742,6011602004506,登記記録の閉鎖等,0,2024-11-08,2024-10-31,有限会社里見プロダクション,,有限会社,東京都,練馬区,西大泉３丁目１６番７号,,13,120,1780065,,,2024-10-31,清算の結了等,,,2015-10-05,1,,,,,サトミプロダクション,0
1776,6030001063450,登記記録の閉鎖等,0,2024-11-08,2024-11-01,株式会社アイケイ,,株式会社,埼玉県,越谷市,花田２丁目２２番地１９,,11,222,3430015,,,2024-11-01,清算の結了等,,,2015-10-05,1,,,,,アイケイ,0
1778,6030001069027,登記記録の閉鎖等,0,2024-11-08,2024-11-01,株式会社アルファーメイツ,,株式会社,埼玉県,鶴ヶ島市,松ヶ丘３丁目１０番１０号の２０２クレインヒル第５,,11,241,3502205,,,2024-11-01,清算の結了等,,,2015-10-05,1,,,,,アルファーメイツ,0
1788,6030002058012,登記記録の閉鎖等,0,2024-11-08,2024-11-05,有限会社ホームケアかすみ,,有限会社,埼玉県,川越市,大字砂３６番地３,,11,201,3501133,,,2024-11-05,清算の結了等,,,2015-10-05,1,,,,,ホームケアカスミ,0
1789,6030003006531,登記記録の閉鎖等,0,2024-11-08,2024-10-28,合同会社テイコク商事,,合同会社,埼玉県,熊谷市,赤城町１丁目１３０番地２,,11,202,3600826,,,2024-10-28,清算の結了等,,,2015-10-05,1,,,,,テイコクショウジ,0
1790,6030003006861,登記記録の閉鎖等,0,2024-11-08,2024-10-28,合同会社Ｂｕｌｌｅｔ　ｅｎｔｅｒｔａｉｎｍｅｎｔ,,合同会社,埼玉県,熊谷市,筑波２丁目６２番地,,11,202,3600037,,,2024-10-28,清算の結了等,,,2015-10-05,1,,,,,,0
1823,6080101023639,登記記録の閉鎖等,0,2024-11-08,2024-11-05,株式会社日本風洞試験,,株式会社,静岡県,沼津市,小諏訪９３８番地１,,22,203,4100872,,,2024-11-05,合併による解散等,9290001075590,令和６年１０月１日福岡県久留米市藤光町１１４７番地１株式会社日本風洞製作所（9290001075590）に合併し解散,2022-11-15,1,,,,,ニホンフウドウシケン,0
1825,6080401013645,登記記録の閉鎖等,0,2024-11-08,2024-10-29,株式会社小和田総合保険事務所,,株式会社,静岡県,浜松市中央区,下池川町１７番５号,,22,138,4300905,,,2024-10-29,清算の結了等,,,2015-10-05,1,,,,,オワダソウゴウホケンジムショ,0
1826,6080401015591,登記記録の閉鎖等,0,2024-11-08,2024-10-31,株式会社お茶の芸術村研究所,,株式会社,静岡県,掛川市,伊達方９１９番地の１,,22,213,4360005,,,2024-10-31,清算の結了等,,,2015-10-05,1,,,,,オチャノゲイジュツムラケンキュウジョ,0
1833,6090002001206,登記記録の閉鎖等,0,2024-11-08,2024-11-01,有限会社小林住宅設備,,有限会社,山梨県,甲府市,山宮町３１２１番地,,19,201,4000075,,,2024-11-01,清算の結了等,,,2015-10-05,1,,,,,コバヤシジュウタクセツビ,0
1836,6100002011046,登記記録の閉鎖等,0,2024-11-08,2024-10-30,有限会社長野ビルクリーニング,,有限会社,長野県,佐久市,中込３丁目１７番地１,,20,217,3850051,,,2024-10-30,清算の結了等,,,2015-10-05,1,,,,,ナガノビルクリーニング,0
1837,6100002025962,登記記録の閉鎖等,0,2024-11-08,2024-10-31,アニバーサリー有限会社,,有限会社,長野県,北安曇郡池田町,大字池田２５４６番地８,,20,481,3998601,,,2024-10-31,清算の結了等,,,2015-10-05,1,,,,,アニバーサリー,0
1839,6110001029880,登記記録の閉鎖等,0,2024-11-08,2024-11-01,アイコア株式会社,,株式会社,新潟県,新潟市北区,松浜東町１丁目３番６１号,,15,101,9503128,,,2024-11-01,合併による解散等,4110001032928,令和６年１１月１日新潟市北区松浜東町一丁目３番６１号青木ホールディングス株式会社（4110001032928）に合併し解散,2015-10-05,1,,,,,アイコア,0
1842,6110002025053,登記記録の閉鎖等,0,2024-11-08,2024-11-05,有限会社赤倉銀座山荘,,有限会社,新潟県,妙高市,大字赤倉５８５番地１０９,,15,217,9492111,,,2024-11-05,清算の結了等,,,2015-10-05,1,,,,,アカクラギンザサンソウ,0
1843,6120001014460,登記記録の閉鎖等,0,2024-11-08,2024-11-05,大岩塗装株式会社,,株式会社,大阪府,大阪市城東区,成育２丁目５番１９号,,27,118,5360007,,,2024-11-05,清算の結了等,,,2015-10-05,1,,,,,オオイワトソウ,0
1851,6120001183462,登記記録の閉鎖等,0,2024-11-08,2024-11-05,株式会社ビーエムハナテン,,株式会社,東京都,多摩市,貝取５丁目３番地,,13,224,2060012,,,2024-11-05,合併による解散等,9250001011590,令和６年１１月１日東京都多摩市貝取五丁目３番地株式会社ＢＡＬＭ（9250001011590）に合併し解散,2015-10-05,1,,,,,ビーエムハナテン,0
1863,6120101003124,登記記録の閉鎖等,0,2024-11-08,2024-11-05,幸徳運輸株式会社,,株式会社,大阪府,堺市西区,津久野町２丁３９番３号,,27,144,5938322,,,2024-11-05,清算の結了等,,,2015-10-05,1,,,,,コウトクウンユ,0
1865,6120101052022,登記記録の閉鎖等,0,2024-11-08,2024-11-05,株式会社まき,,株式会社,大阪府,堺市南区,原山台４丁１５番２号２階,,27,145,5900132,,,2024-11-05,清算の結了等,,,2015-10-05,1,,,,,マキ,0
1872,6120901039169,登記記録の閉鎖等,0,2024-11-08,2024-11-05,阪急茨木市駅西地区再開発株式会社,,株式会社,大阪府,茨木市,永代町４番阪急駅前永代ビル,,27,211,5670816,,,2024-11-05,清算の結了等,,,2017-11-06,1,,,,,ハンキュウイバラキシエキニシチクサイカイハツ,0
1878,6130001032338,登記記録の閉鎖等,0,2024-11-08,2024-11-05,株式会社宇治工務店,,株式会社,京都府,宇治市,神明石塚３９番地,,26,204,6110025,,,2024-11-05,清算の結了等,,,2015-10-05,1,,,,,ウジコウムテン,0
1879,6130001053953,登記記録の閉鎖等,0,2024-11-08,2024-11-05,株式会社Ｃｈａｌｌｅｎｇｅ　Ｏｆ　Ｓｏｕｌ,,株式会社,京都府,京田辺市,河原北口４３番地３ＷｙｔｈｅＡｖｅ．Ｉ－１１３,00105593,26,211,6100361,,,2024-11-05,清算の結了等,,,2015-10-05,1,,,,,,0
1886,6130003006620,登記記録の閉鎖等,0,2024-11-08,2024-10-30,合同会社ＩＺＡ,,合同会社,京都府,京都市東山区,大和大路通三条下る３丁目弁財天町１２番地ぎおんシャトービル５階,,26,105,6050086,,,2024-10-30,清算の結了等,,,2020-06-30,1,,,,,イザ,0
1888,6140001030893,登記記録の閉鎖等,0,2024-11-08,2024-11-01,株式会社ラーニング・ラボ,,株式会社,兵庫県,神戸市中央区,八幡通４丁目２番１４号,,28,110,6510085,,,2024-11-01,清算の結了等,,,2015-10-05,1,,,,,ラーニングラボ,0
1897,6170003001163,登記記録の閉鎖等,0,2024-11-08,2024-11-07,トリプル合同会社,,合同会社,和歌山県,和歌山市,田中町４丁目１１２番地,,30,201,6408329,,,2024-11-07,清算の結了等,,,2017-08-28,1,,,,,トリプル,0
1909,6180301015228,登記記録の閉鎖等,0,2024-11-08,2024-10-30,幸福セメント株式会社,,株式会社,愛知県,碧南市,玉津浦町１２番地,,23,209,4470834,,,2024-10-30,清算の結了等,,,2015-10-05,1,,,,,コウフクセメント,0
1913,6180302026133,登記記録の閉鎖等,0,2024-11-08,2024-11-01,有限会社鈴木金型,,有限会社,愛知県,西尾市,行用町東縄３２番地,,23,213,4450885,,,2024-11-01,清算の結了等,,,2015-10-05,1,,,,,スズキカナガタ,0
1918,6190002005196,登記記録の閉鎖等,0,2024-11-08,2024-11-05,有限会社宇井石油店,,有限会社,三重県,南牟婁郡御浜町,大字阿田和４２５２番地１,,24,561,5195204,,,2024-11-05,清算の結了等,,,2015-10-05,1,,,,,ウイセキユテン,0
1941,6260002008613,登記記録の閉鎖等,0,2024-11-08,2024-11-01,有限会社福富アパート,,有限会社,岡山県,岡山市北区,今保２３５番地１５,,33,101,7010145,,,2024-11-01,合併による解散等,4260003003037,令和６年１１月１日岡山市北区今保２３５番地１５エスケーシー合同会社（4260003003037）に合併し解散,2015-10-05,1,,,,,フクトミアパート,0
1944,6270003001310,登記記録の閉鎖等,0,2024-11-08,2024-11-07,合同会社ＴＩＭＥＴＡＢＬＥ,,合同会社,鳥取県,米子市,彦名町３６番地４号,,31,202,6830854,,,2024-11-07,清算の結了等,,,2021-06-08,1,,,,,タイムテーブル,0
1953,6330003000990,登記記録の閉鎖等,0,2024-11-08,2024-10-31,合同会社吉井輪業,,合同会社,熊本県,熊本市中央区,神水１丁目１５番７号,,43,101,8620954,,,2024-10-31,清算の結了等,,,2015-10-05,1,,,,,ヨシイリンギョウ,0
1958,6340001007517,登記記録の閉鎖等,0,2024-11-08,2024-10-31,株式会社文盛堂,,株式会社,鹿児島県,伊佐市,大口里３０３２番地,,46,224,8952511,,,2024-10-31,清算の結了等,,,2015-10-05,1,,,,,ブンセイドウ,0
1960,6360001005634,登記記録の閉鎖等,0,2024-11-08,2024-11-06,東亜海事土木株式会社,,株式会社,沖縄県,那覇市,東町１４番地３,,47,201,9000034,,,2024-11-06,清算の結了等,,,2015-10-05,1,,,,,トウアカイジドボク,0
1963,6370001024963,登記記録の閉鎖等,0,2024-11-08,2024-11-05,株式会社アルテ工房,,株式会社,埼玉県,川口市,川口２丁目１３番１１号,,11,203,3320015,,,2024-11-05,清算の結了等,,,2015-10-05,1,,,,,アルテコウボウ,0
1970,6430001085289,登記記録の閉鎖等,0,2024-11-08,2024-11-01,コントローラーガストロノミー株式会社,,株式会社,北海道,夕張郡由仁町,中央１４９番地１,,01,427,0691205,,,2024-11-01,合併による解散等,3430002033753,令和６年１１月１日北海道夕張郡由仁町中央１４９番地１くにをの鮭キムチ株式会社（3430002033753）に合併し解散,2021-11-08,1,,,,,コントローラーガストロノミー,0
1976,7010001071561,登記記録の閉鎖等,0,2024-11-08,2024-10-25,株式会社フューチャーズ・ワン,,株式会社,東京都,中央区,銀座７丁目１２番４号友野本社ビル８階,,13,102,1040061,,,2024-10-25,清算の結了等,,,2015-10-05,1,,,,,フューチャーズワン,0
1984,7010001238235,登記記録の閉鎖等,0,2024-11-08,2024-10-25,株式会社ＫＳＴ７,,株式会社,東京都,千代田区,内幸町２丁目１番６号,,13,101,1000011,,,2024-10-25,清算の結了等,,,2023-09-06,1,,,,,ケイエスティーセブン,0
1994,7010003020062,登記記録の閉鎖等,0,2024-11-08,2024-10-25,ＢＡＥＶ梅田エクセルハイツ合同会社,,合同会社,東京都,千代田区,丸の内１丁目１１番１号,,13,101,1000005,,,2024-10-25,清算の結了等,,,2015-10-05,1,,,,,ビーエーイーヴィーウメダエクセルハイツ,0
2053,7010501032831,登記記録の閉鎖等,0,2024-11-08,2024-10-21,クラシカルカコ株式会社,,株式会社,東京都,台東区,上野５丁目８番１３号ＲＩＣＨビル５階,,13,106,1100005,,,2024-10-21,清算の結了等,,,2015-10-05,1,,,,,クラシカルカコ,0
2064,7010801032011,登記記録の閉鎖等,0,2024-11-08,2024-10-31,株式会社ＨＭＫＫ,,株式会社,東京都,大田区,東馬込１丁目１０番１号,,13,111,1430022,,,2024-10-31,清算の結了等,,,2021-06-07,1,,,,,エイチエムケーケー,0
2075,7011003006646,登記記録の閉鎖等,0,2024-11-08,2024-10-28,Ｖｅｗｄ　Ｓｏｆｔｗａｒｅ　Ｊａｐａｎ合同会社,,合同会社,東京都,千代田区,丸の内１丁目８番１号丸の内トラストタワーＮ館１２Ｆ,,13,101,1000005,,,2024-10-28,清算の結了等,,,2016-03-11,1,,,,,ビュードソフトウェアジャパン,0
2080,7011102005193,登記記録の閉鎖等,0,2024-11-08,2024-10-29,有限会社栄フリーエンタープライズ,,有限会社,東京都,練馬区,春日町３丁目２１番１０号,,13,120,1790074,,,2024-10-29,清算の結了等,,,2015-10-05,1,,,,,サカエフリーエンタープライズ,0
2087,7011402010232,登記記録の閉鎖等,0,2024-11-08,2024-10-25,有限会社ラクシュミフューチャーズ,,有限会社,東京都,豊島区,池袋２丁目６１番５号,,13,116,1710014,,,2024-10-25,清算の結了等,,,2015-10-05,1,,,,,ラクシュミフューチャーズ,0
2106,7013103000495,登記記録の閉鎖等,0,2024-11-08,2024-11-05,合同会社Ｍ＆Ｙ,,合同会社,東京都,羽村市,小作台２丁目１８番地１,,13,227,2050001,,,2024-11-05,清算の結了等,,,2015-10-05,1,,,,,,0
2114,7020001098463,登記記録の閉鎖等,0,2024-11-08,2024-11-06,株式会社リレーションファクトリー,,株式会社,神奈川県,海老名市,国分南４丁目２１番３７号,,14,215,2430405,,,2024-11-06,清算の結了等,,,2015-10-05,1,,,,,リレーションファクトリー,0
2139,7030001151378,登記記録の閉鎖等,0,2024-11-08,2024-11-01,株式会社清水プロダクション,,株式会社,埼玉県,三郷市,戸ケ崎２１４０番地１清水ビル１０１,,11,237,3410044,,,2024-11-01,清算の結了等,,,2022-12-08,1,,,,,シミズプロダクション,0
2151,7040001060966,登記記録の閉鎖等,0,2024-11-08,2024-11-01,株式会社ホームマイスター２４,,株式会社,千葉県,木更津市,羽鳥野６丁目２１番地４,,12,206,2920819,,,2024-11-01,合併による解散等,2040001060970,令和６年１１月１日千葉県木更津市羽鳥野六丁目２１番地４日本賃貸保証株式会社（2040001060970）に合併し解散,2015-10-05,1,,,,,ホームマイスターニジュウヨン,0
2157,7040002032452,登記記録の閉鎖等,0,2024-11-08,2024-10-30,有限会社石井材木店,,有限会社,千葉県,市川市,鬼越２丁目９番３号,,12,203,2720022,,,2024-10-30,清算の結了等,,,2015-10-05,1,,,,,イシイザイモクテン,0
2158,7040002036478,登記記録の閉鎖等,0,2024-11-08,2024-10-30,有限会社宝永システム,,有限会社,千葉県,市川市,大和田３丁目１番１３号,,12,203,2720025,,,2024-10-30,清算の結了等,,,2015-10-05,1,,,,,ホウエイシステム,0
2175,7070001020430,登記記録の閉鎖等,0,2024-11-08,2024-11-06,株式会社マルト,,株式会社,群馬県,邑楽郡邑楽町,大字明野２２番地の６,,10,525,3700602,,,2024-11-06,清算の結了等,,,2015-10-05,1,,,,,マルト,0
2184,7080402019541,登記記録の閉鎖等,0,2024-11-08,2024-11-01,有限会社蔵工務店,,有限会社,静岡県,磐田市,今之浦２丁目１１番地９,,22,211,4380071,,,2024-11-01,合併による解散等,6080402021374,令和６年１１月１日静岡県磐田市今之浦二丁目１１番地９株式会社清和土地（6080402021374）に合併し解散,2015-10-05,1,,,,,,0
2189,7100002003612,登記記録の閉鎖等,0,2024-11-08,2024-10-31,有限会社長野証券会館,,有限会社,長野県,長野市,大字南長野新田町１１１６番地７,,20,201,3800835,,,2024-10-31,清算の結了等,,,2015-10-05,1,,,,,ナガノショウケンカイカン,0
2233,7130002027765,登記記録の閉鎖等,0,2024-11-08,2024-10-31,有限会社ＯＮＥ　ＡＮＤ　Ｋ,,有限会社,京都府,宇治市,木幡西浦４８番地デミューズ木幡４０７,,26,204,6110002,,,2024-10-31,清算の結了等,,,2015-10-05,1,,,,,ワンアンドケイ,0
2236,7140001081655,登記記録の閉鎖等,0,2024-11-08,2024-10-31,宝塚衛生株式会社,,株式会社,兵庫県,宝塚市,月見山２丁目９番１０号,,28,214,6650002,,,2024-10-31,清算の結了等,,,2015-10-05,1,,,,,タカラヅカエイセイ,0
2243,7160001024587,登記記録の閉鎖等,0,2024-11-08,2024-11-05,株式会社綿向き屋,,株式会社,滋賀県,蒲生郡日野町,中道１丁目２２番地,,25,383,5291609,,,2024-11-05,清算の結了等,,,2022-10-28,1,,,,,ワタムキヤ,0
2248,7160005007927,登記記録の閉鎖等,0,2024-11-08,2024-10-31,平安製作所労働組合,,その他の設立登記法人,滋賀県,高島市,マキノ町中庄４６４番地株式会社平安製作所内,,25,212,5201823,,,2024-10-31,清算の結了等,,,2015-10-05,1,,,,,ヘイアンセイサクジョ,0
2249,7170001005685,登記記録の閉鎖等,0,2024-11-08,2024-11-06,株式会社日章鉄工所,,株式会社,和歌山県,紀の川市,貴志川町神戸２４０番地６,,30,208,6400413,,,2024-11-06,清算の結了等,,,2015-10-05,1,,,,,ニッショウテッコウショ,0
2253,7180001155199,登記記録の閉鎖等,0,2024-11-08,2024-10-29,株式会社マサキ,,株式会社,愛知県,日進市,五色園４丁目１０２番地,,23,230,4700105,,,2024-10-29,清算の結了等,,,2023-03-07,1,,,,,マサキ,0
2257,7180003026167,登記記録の閉鎖等,0,2024-11-08,2024-10-29,Ｊ　Ｊ　Ｔｒａｄｉｎｇ合同会社,,合同会社,愛知県,名古屋市中村区,烏森町１丁目１０４番地,,23,105,4530855,,,2024-10-29,清算の結了等,,,2023-12-27,1,,,,,ジェイジェイトレーディング,0
2272,7220002016197,登記記録の閉鎖等,0,2024-11-08,2024-11-01,丸辰鮮冷有限会社,,有限会社,石川県,珠洲市,蛸島町ネ部６０番地,00078546,17,205,9271204,,,2024-11-01,清算の結了等,,,2015-10-05,1,,,,,マルタツセンレイ,0
2287,7290001077341,登記記録の閉鎖等,0,2024-11-08,2024-10-02,株式会社おあしす,,株式会社,福岡県,福岡市博多区,半道橋１丁目３番１３－１００２号,,40,132,8120897,,,2024-10-02,清算の結了等,,,2017-04-05,1,,,,,オアシス,0
2297,7350002001293,登記記録の閉鎖等,0,2024-11-08,2024-11-05,有限会社木下産業,,有限会社,宮崎県,宮崎市,下北方町寺ケ迫５４５１番地９,,45,201,8800035,,,2024-11-05,清算の結了等,,,2015-10-05,1,,,,,キノシタサンギョウ,0
2305,7380001007611,登記記録の閉鎖等,0,2024-11-08,2024-10-25,株式会社吉建工務店,,株式会社,福島県,郡山市,大槻町字葉山下６番地,,07,203,9630201,,,2024-10-25,清算の結了等,,,2024-01-22,1,,,,,ヨシケンコウムテン,0
2328,8010001195129,登記記録の閉鎖等,0,2024-11-08,2024-10-25,株式会社プロスペクト,,株式会社,東京都,中央区,銀座１丁目１５番７号ＭＡＣ銀座ビル３階,,13,102,1040061,,,2024-10-25,清算の結了等,,,2018-09-27,1,,,,,プロスペクト,0
2337,8010003037568,登記記録の閉鎖等,0,2024-11-08,2024-10-25,ＲＢソーラーパール合同会社,,合同会社,東京都,中央区,八丁堀４丁目２番１０号ＡＯＪ税理士法人内,,13,102,1040032,,,2024-10-25,清算の結了等,,,2022-05-09,1,,,,,アールビーソーラーパール,0
2344,8010005027815,登記記録の閉鎖等,0,2024-11-08,2024-11-01,一般社団法人ＨＴ１,,その他の設立登記法人,東京都,千代田区,神田佐久間町３丁目２７番３号ガーデンパークビル３階吉田・森本・石野税理士法人内,,13,101,1010025,,,2024-11-01,清算の結了等,,,2017-12-05,1,,,,,エイチティワン,0
2375,8010401078899,登記記録の閉鎖等,0,2024-11-08,2024-11-01,株式会社イシュア,,株式会社,東京都,台東区,蔵前１丁目３番２８号,,13,106,1110051,,,2024-11-01,清算の結了等,,,2015-10-05,1,,,,,イシュア,0
2386,8010602008481,登記記録の閉鎖等,0,2024-11-08,2024-11-01,有限会社アジカ,,有限会社,東京都,墨田区,墨田３丁目３９番８号,,13,107,1310031,,,2024-11-01,清算の結了等,,,2015-10-05,1,,,,,アジカ,0
2395,8010901016598,登記記録の閉鎖等,0,2024-11-08,2024-11-01,株式会社文祐社,,株式会社,東京都,世田谷区,奥沢２丁目３７番６号,,13,112,1580083,,,2024-11-01,清算の結了等,,,2015-10-05,1,,,,,ブンユウシャ,0
2398,8011001147235,登記記録の閉鎖等,0,2024-11-08,2024-10-10,株式会社イロドリパーク,,株式会社,東京都,目黒区,目黒２丁目１１番９－６０１号,,13,110,1530063,,,2024-10-10,清算の結了等,,,2022-04-27,1,,,,,イロドリパーク,0
2420,8011802012496,登記記録の閉鎖等,0,2024-11-08,2024-11-01,有限会社コーヨー商事,,有限会社,東京都,足立区,綾瀬１丁目３３番７号,,13,121,1200005,,,2024-11-01,清算の結了等,,,2015-10-05,1,,,,,,0
2428,8013301000148,登記記録の閉鎖等,0,2024-11-08,2024-10-25,株式会社アートクリエイト,,株式会社,東京都,豊島区,南大塚１丁目３番１１号,,13,116,1700005,,,2024-10-25,清算の結了等,,,2015-10-05,1,,,,,アートクリエイト,0
2441,8030001061683,登記記録の閉鎖等,0,2024-11-08,2024-11-05,神田印刷サービス株式会社,,株式会社,埼玉県,鴻巣市,神明３丁目１０番６号,,11,217,3650074,,,2024-11-05,清算の結了等,,,2015-10-05,1,,,,,カンダインサツサービス,0
2487,8070001008482,登記記録の閉鎖等,0,2024-11-08,2024-11-06,株式会社水島鉄工所,,株式会社,群馬県,高崎市,高砂町８１番地１,,10,202,3700047,,,2024-11-06,清算の結了等,,,2015-10-05,1,,,,,ミズシマテッコウジョ,0
2488,8070001010703,登記記録の閉鎖等,0,2024-11-08,2024-11-06,株式会社岩井商店,,株式会社,群馬県,高崎市,片岡町１丁目１０番１６号,,10,202,3700862,,,2024-11-06,清算の結了等,,,2015-10-05,1,,,,,イワイショウテン,0
2507,8120001197642,登記記録の閉鎖等,0,2024-11-08,2024-10-31,株式会社ＹＵＮＯ,,株式会社,大阪府,大阪市平野区,加美南５丁目６番１３号,,27,126,5470003,,,2024-10-31,合併による解散等,9120001021520,令和６年１０月３１日大阪市平野区加美南三丁目９番１６号株式会社不動化学（9120001021520）に合併し解散,2016-04-19,1,,,,,ユノ,0
2508,8120001200678,登記記録の閉鎖等,0,2024-11-08,2024-11-05,株式会社ｓｅｅｑ,,株式会社,大阪府,大阪市浪速区,浪速西３丁目８番３－７０３号,,27,111,5560026,,,2024-11-05,清算の結了等,,,2016-09-26,1,,,,,,0
2529,8130001005102,登記記録の閉鎖等,0,2024-11-08,2024-11-06,株式会社淡交センター,,株式会社,京都府,京都市北区,紫野宮西町１９番地の１,,26,101,6038158,,,2024-11-06,清算の結了等,,,2015-10-05,1,,,,,タンコウセンター,0
2549,8140002040774,登記記録の閉鎖等,0,2024-11-08,2024-11-05,有限会社貢栄商事,,有限会社,兵庫県,尼崎市,稲葉荘４丁目１番７号,,28,202,6600064,,,2024-11-05,清算の結了等,,,2015-10-05,1,,,,,,0
2556,8180001008802,登記記録の閉鎖等,0,2024-11-08,2024-10-30,中部住宅株式会社,,株式会社,愛知県,名古屋市昭和区,恵方町１丁目３５番地パックス恵方２階,,23,107,4660037,,,2024-10-30,清算の結了等,,,2015-10-05,1,,,,,チュウブジュウタク,0
2568,8180301030729,登記記録の閉鎖等,0,2024-11-08,2024-11-01,株式会社アクトス,,株式会社,愛知県,豊田市,十塚町３丁目３６番地,,23,211,4710869,,,2024-11-01,清算の結了等,,,2017-09-05,1,,,,,アクトス,0
2572,8190001025788,登記記録の閉鎖等,0,2024-11-08,2024-11-01,株式会社ライフ葬祭,,株式会社,三重県,四日市市,元町８番５号,,24,202,5100088,,,2024-11-01,合併による解散等,5190001016427,令和６年１１月１日三重県四日市市元町８番５号株式会社三重平安閣（5190001016427）に合併し解散,2018-08-09,1,,,,,ライフソウサイ,0
2575,8190005011611,登記記録の閉鎖等,0,2024-11-08,2024-11-06,一般社団法人リッチェフラワースマイルズジャパン,,その他の設立登記法人,三重県,桑名市,大字東方１５９８番地１,,24,205,5110811,,,2024-11-06,清算の結了等,,,2021-08-05,1,,,,,リッチェフラワースマイルズジャパン,0
2581,8230002002204,登記記録の閉鎖等,0,2024-11-08,2024-11-01,有限会社鶴屋,,有限会社,富山県,富山市,石田１９０６番地２,,16,201,9398193,,,2024-11-01,清算の結了等,,,2015-10-05,1,,,,,ツルヤ,0
2597,8310001002329,登記記録の閉鎖等,0,2024-11-08,2024-11-01,株式会社ユーコーラッキーウエスト,,株式会社,福岡県,久留米市,東町２８番地９,,40,203,8300032,,,2024-11-01,合併による解散等,5290001049739,令和６年１１月１日福岡県久留米市東町２８番地９株式会社ユーコー（5290001049739）に合併し解散,2015-10-05,1,,,,,ユーコーラッキーウエスト,0
2603,8360003012296,登記記録の閉鎖等,0,2024-11-08,2024-11-01,合同会社未来の和,,合同会社,沖縄県,豊見城市,字豊崎１－１２２３,,47,212,9010225,,,2024-11-01,合併による解散等,7013201005974,令和６年１０月３１日沖縄県南城市玉城字船越２１８番地１株式会社ホールネスプロセス（7013201005974）に合併し解散,2022-09-09,1,,,,,ミライノワ,0
2622,8430001073548,登記記録の閉鎖等,0,2024-11-08,2024-11-07,株式会社マオイゴルフリゾート,,株式会社,北海道,夕張郡長沼町,東５線北１０番地,,01,428,0691317,,,2024-11-07,清算の結了等,,,2017-03-16,1,,,,,マオイゴルフリゾート,0
2636,9010001145198,登記記録の閉鎖等,0,2024-11-08,2024-10-28,株式会社日比野商店,,株式会社,東京都,中央区,日本橋人形町２丁目１１番４号,,13,102,1030013,,,2024-10-28,清算の結了等,,,2015-10-05,1,,,,,ヒビノショウテン,0
2638,9010001174833,登記記録の閉鎖等,0,2024-11-08,2024-10-25,株式会社モメンタムエンジニアリング,,株式会社,東京都,千代田区,神田神保町３丁目１１番地１安田神保町マンション１Ｆ－５,,13,101,1010051,,,2024-10-25,清算の結了等,,,2016-04-12,1,,,,,モメンタムエンジニアリング,0
2639,9010001178025,登記記録の閉鎖等,0,2024-11-08,2024-10-28,株式会社東京デンタルケアセンター,,株式会社,東京都,中央区,日本橋３丁目１番１７号９階,,13,102,1030027,,,2024-10-28,清算の結了等,,,2016-08-31,1,,,,,トウキョウデンタルケアセンター,0
2652,9010003039638,登記記録の閉鎖等,0,2024-11-08,2024-10-25,合同会社マーベリック,,合同会社,東京都,中央区,日本橋１丁目４番１号日本橋一丁目ビルディング,,13,102,1030027,,,2024-10-25,清算の結了等,,,2023-01-23,1,,,,,マーベリック,0
2679,9010401068164,登記記録の閉鎖等,0,2024-11-08,2024-10-23,株式会社初音,,株式会社,東京都,港区,六本木３丁目７番１－６１２号,,13,103,1060032,,,2024-10-23,清算の結了等,,,2015-10-05,1,,,,,ハツネ,0
2682,9010401147216,登記記録の閉鎖等,0,2024-11-08,2024-10-30,株式会社リレーションズ,,株式会社,東京都,新宿区,西新宿８丁目１１番１０号,,13,104,1600023,,,2024-10-30,合併による解散等,5011101059556,令和６年１０月２９日東京都新宿区西新宿八丁目１１番１０号株式会社ライジングトラスト（5011101059556）に合併し解散,2019-08-06,1,,,,,リレーションズ,0
2689,9010501004853,登記記録の閉鎖等,0,2024-11-08,2024-10-30,株式会社三善堂,,株式会社,東京都,台東区,西浅草１丁目１番１８号,,13,106,1110035,,,2024-10-30,合併による解散等,3010501011327,令和６年９月２９日東京都台東区西浅草一丁目１番１８号株式会社東惣（3010501011327）に合併し解散,2015-10-05,1,,,,,サンゼンドウ,0
2729,9011203003243,登記記録の閉鎖等,0,2024-11-08,2024-11-05,Ａｃｃｅｓｓ合同会社,,合同会社,東京都,中野区,上高田４丁目３７－３スクエアハウス２０１,,13,114,1640002,,,2024-11-05,清算の結了等,,,2020-03-13,1,,,,,アクセス,0
2754,9020003011637,登記記録の閉鎖等,0,2024-11-08,2024-10-23,合同会社小林事務所,,合同会社,神奈川県,横浜市鶴見区,北寺尾４丁目２７番３３号,,14,101,2300074,,,2024-10-23,清算の結了等,,,2016-08-03,1,,,,,コバヤシジムショ,0
2763,9021002032665,登記記録の閉鎖等,0,2024-11-08,2024-11-05,有限会社浪花そば,,有限会社,神奈川県,厚木市,下荻野１３９４番地の２２,,14,212,2430203,,,2024-11-05,清算の結了等,,,2015-10-05,1,,,,,ナニワソバ,0
2766,9021005012409,登記記録の閉鎖等,0,2024-11-08,2024-11-06,一般社団法人山田耐性菌自然療法研究所,,その他の設立登記法人,神奈川県,横須賀市,衣笠町１３番２２号,,14,201,2380025,,,2024-11-06,清算の結了等,,,2022-01-04,1,,,,,ヤマダタイセイキンシゼンリョウホウケンキュウジョ,0
2803,9080001010247,登記記録の閉鎖等,0,2024-11-08,2024-10-31,平岩塗装工業株式会社,,株式会社,静岡県,静岡市清水区,蒲原堰沢３４６番地の１,,22,103,4213214,,,2024-10-31,清算の結了等,,,2015-10-05,1,,,,,ヒライワトソウコウギョウ,0
2807,9080401012842,登記記録の閉鎖等,0,2024-11-08,2024-11-06,株式会社泉メディカルサービス研究所,,株式会社,静岡県,浜松市中央区,篠ケ瀬町１２０５番地,,22,138,4350042,,,2024-11-06,合併による解散等,1080001011764,令和６年１１月１日静岡県静岡市葵区呉服町一丁目３０番地札の辻クロス２Ｆ株式会社アース（1080001011764）に合併し解散,2015-10-05,1,,,,,イズミメディカルサービスケンキュウジョ,0
2809,9100001035448,登記記録の閉鎖等,0,2024-11-08,2024-10-30,株式会社信和商事,,株式会社,長野県,飯田市,主税町３２番地,,20,205,3950032,,,2024-10-30,清算の結了等,,,2022-06-27,1,,,,,シンワショウジ,0
2811,9100002016281,登記記録の閉鎖等,0,2024-11-08,2024-10-31,有限会社信州アグリ,,有限会社,長野県,上田市,武石下本入７９２番地,,20,203,3860506,,,2024-10-31,清算の結了等,,,2015-10-05,1,,,,,シンシュウアグリ,0
2815,9110001031479,登記記録の閉鎖等,0,2024-11-08,2024-11-01,株式会社レナトス,,株式会社,新潟県,新潟市東区,中野山１丁目５番地５,,15,102,9500841,,,2024-11-01,合併による解散等,3110001000159,令和６年１１月１日新潟市北区島見町４４６３番地２青木産業株式会社（3110001000159）に合併し解散,2016-04-27,1,,,,,レナトス,0
2818,9120001183229,登記記録の閉鎖等,0,2024-11-08,2024-11-05,株式会社ビーエムホールディングス,,株式会社,東京都,多摩市,貝取５丁目３番地,,13,224,2060012,,,2024-11-05,合併による解散等,9250001011590,令和６年１１月１日東京都多摩市貝取五丁目３番地株式会社ＢＡＬＭ（9250001011590）に合併し解散,2015-10-05,1,,,,,ビーエムホールディングス,0
2837,9120101064618,登記記録の閉鎖等,0,2024-11-08,2024-11-01,株式会社寿企画,,株式会社,大阪府,堺市中区,堀上町３番地１５,,27,142,5998261,,,2024-11-01,清算の結了等,,,2021-11-09,1,,,,,コトブキキカク,0
2842,9120903002650,登記記録の閉鎖等,0,2024-11-08,2024-11-01,合同会社ビットエナジー,,合同会社,兵庫県,芦屋市,大桝町３－１７ビルボード芦屋４０１,00129296,28,206,6590066,,,2024-11-01,合併による解散等,7120901034020,令和６年１１月１日兵庫県芦屋市大桝町３－１７ビルボード芦屋４０１株式会社ビルボードインベストメント（7120901034020）に合併し解散,2018-11-06,1,,,,,ビットエナジー,0
2845,9130001016222,登記記録の閉鎖等,0,2024-11-08,2024-11-05,京都商業運輸株式会社,,株式会社,京都府,京都市伏見区,横大路畔ノ内８番地,,26,109,6128284,,,2024-11-05,清算の結了等,,,2015-10-05,1,,,,,キョウトショウギョウウンユ,0
2862,9180001078472,登記記録の閉鎖等,0,2024-11-08,2024-10-29,大東インターナショナル株式会社,,株式会社,愛知県,小牧市,大字北外山２１２８番地１,,23,219,4850023,,,2024-10-29,清算の結了等,,,2015-10-05,1,,,,,ダイトウインターナショナル,0
2875,9190001019145,登記記録の閉鎖等,0,2024-11-08,2024-11-01,三重グリーンパワー株式会社,,株式会社,三重県,四日市市,上海老町１５８５番地１２２,,24,202,5121201,,,2024-11-01,清算の結了等,,,2015-10-05,1,,,,,ミエグリーンパワー,0
2884,9200002006917,登記記録の閉鎖等,0,2024-11-08,2024-11-06,有限会社足立洋品店,,有限会社,岐阜県,各務原市,各務おがせ町７丁目６０番地,,21,213,5090104,,,2024-11-06,清算の結了等,,,2015-10-05,1,,,,,アダチヨウヒンテン,0
2890,9240002028412,登記記録の閉鎖等,0,2024-11-08,2024-11-01,松田木材有限会社,,有限会社,広島県,東広島市,河内町戸野１７８１番地の１,,34,212,7392205,,,2024-11-01,清算の結了等,,,2015-10-05,1,,,,,マツダモクザイ,0
2906,9330001014305,登記記録の閉鎖等,0,2024-11-08,2024-10-30,片岡鮮魚株式会社,,株式会社,熊本県,水俣市,浜町１丁目１３番１０号,,43,205,8670065,,,2024-10-30,清算の結了等,,,2015-10-05,1,,,,,カタオカセンギョ,0
2911,9350001016035,登記記録の閉鎖等,0,2024-11-08,2024-11-05,ナスカ株式会社,,株式会社,宮崎県,宮崎市,大字恒久３９２４番地１コンフォーツメゾン２０３号,,45,201,8800916,,,2024-11-05,清算の結了等,,,2019-10-01,1,,,,,ナスカ,0
2915,9370205001921,登記記録の閉鎖等,0,2024-11-08,2024-10-21,一般社団法人日本傳療術師会,,その他の設立登記法人,宮城県,栗原市,築館字萩沢木戸南５１番地６,,04,213,9872223,,,2024-10-21,清算の結了等,,,2015-10-05,1,,,,,ニホンデンリョウジュツシカイ,0
2916,9380001012114,登記記録の閉鎖等,0,2024-11-08,2024-10-25,株式会社ダイク,,株式会社,福島県,郡山市,逢瀬町多田野字河田堀１２番地３,,07,203,9630213,,,2024-10-25,清算の結了等,,,2015-10-05,1,,,,,ダイク,0
2922,9410003000204,登記記録の閉鎖等,0,2024-11-08,2024-11-01,合資会社川村自転車商会,,合資会社,秋田県,秋田市,旭南２丁目９番１９号,,05,201,0100925,,,2024-11-01,清算の結了等,,,2015-10-05,1,,,,,カワムラジテンシャショウカイ,0
2926,9440002003659,登記記録の閉鎖等,0,2024-11-08,2024-11-06,有限会社ハロー通信,,有限会社,北海道,函館市,高丘町１８番６号,,01,202,0420955,,,2024-11-06,清算の結了等,,,2015-10-05,1,,,,,ハローツウシン,0
