sequenceNumber,corporateNumber,process,correct,updateDate,changeDate,name,nameImageId,kind,prefectureName,cityName,streetNumber,addressImageId,prefectureCode,cityCode,postCode,addressOutside,addressOutsideImageId,closeDate,closeCause,successorCorporateNumber,changeCause,assignmentDate,latest,enName,enPrefectureName,enCityName,enAddressOutside,furigana,hihyoji
9,1010001240064,新規,0,2023-11-16,2023-11-16,株式会社スタートス,,株式会社,東京都,千代田区,外神田４丁目７番１１号,,13,101,1010021,,,,,,,2023-11-16,1,,,,,スタートス,0
10,1010001240080,新規,0,2023-11-16,2023-11-16,ＡＱ　Ｓｏｒａ　Ｊａｐａｎ株式会社,,株式会社,東京都,中央区,日本橋浜町２丁目２３番５号ＪＰ浜町ビル８階,,13,102,1030007,,,,,,,2023-11-16,1,,,,,エィキューソラジャパン,0
11,1010001240089,新規,0,2023-11-16,2023-11-16,株式会社鎌倉新書ライフパートナーズ,,株式会社,東京都,中央区,京橋２丁目１４番１号,,13,102,1040031,,,,,,,2023-11-16,1,,,,,カマクラシンショライフパートナーズ,0
12,1010001240147,新規,0,2023-11-16,2023-11-16,株式会社キリサメ,,株式会社,東京都,中央区,佃２丁目１０番９－２６０４号,,13,102,1040051,,,,,,,2023-11-16,1,,,,,キリサメ,0
16,1010005037523,新規,0,2023-11-16,2023-11-16,一般社団法人入間新光,,その他の設立登記法人,東京都,中央区,日本橋１丁目４番１号,,13,102,1030027,,,,,,,2023-11-16,1,,,,,イルマシンコウ,0
18,1010101015894,新規,0,2023-11-16,2023-11-16,株式会社スペース,,株式会社,東京都,八王子市,石川町２４７４番地１５,,13,201,1920032,,,,,,,2023-11-16,1,,,,,スペース,0
19,1010103002255,新規,0,2023-11-16,2023-11-16,ウエストリッジホームズ合同会社,,合同会社,東京都,八王子市,七国５丁目２０番１０号,,13,201,1920919,,,,,,,2023-11-16,1,,,,,ウエストリッジホームズ,0
24,1010401178557,新規,0,2023-11-16,2023-11-16,株式会社ピクセルグロー,,株式会社,東京都,港区,東麻布２丁目１９番３号,,13,103,1060044,,,,,,,2023-11-16,1,,,,,ピクセルグロー,0
28,1010403031375,新規,0,2023-11-16,2023-11-16,合同会社Ｂｅｎｊａｍｉｎ　Ｏｒｃｈｉｄ　Ｔｏｋｙｏ,,合同会社,東京都,港区,新橋６丁目７―７カーサスプレンディド虎ノ門新橋８０１号室,,13,103,1050004,,,,,,,2023-11-16,1,,,,,ベンジャミンオーキッドトウキョウ,0
29,1010403031391,新規,0,2023-11-16,2023-11-16,千葉合同会社,,合同会社,東京都,港区,赤坂２丁目１４番５号,,13,103,1070052,,,,,,,2023-11-16,1,,,,,チバ,0
30,1010403031409,新規,0,2023-11-16,2023-11-16,Ｓｅｇａｒｒａ合同会社,,合同会社,東京都,港区,浜松町２丁目２番１５号浜松町ダイヤビル２Ｆ,,13,103,1050013,,,,,,,2023-11-16,1,,,,,セガラ,0
50,1011103013754,新規,0,2023-11-16,2023-11-16,ＨＩＦ　ＦＵＮＤ８号合同会社,,合同会社,東京都,新宿区,西新宿６丁目２１番１号アイタウン・プラザ２０３号,,13,104,1600023,,,,,,,2023-11-16,1,,,,,エイチアイエフファンドハチゴウ,0
53,1011303004966,新規,0,2023-11-16,2023-11-16,合同会社エクリプス,,合同会社,東京都,杉並区,和泉４丁目４０番２５－３０１号,,13,115,1680063,,,,,,,2023-11-16,1,,,,,エクリプス,0
54,1011303004974,新規,0,2023-11-16,2023-11-16,ＲＥＮＧＥ　ＪＡＰＡＮ合同会社,,合同会社,東京都,杉並区,南荻窪４丁目２７番１０－１号,,13,115,1670052,,,,,,,2023-11-16,1,,,,,レンゲジャパン,0
58,1011503005847,新規,0,2023-11-16,2023-11-16,合同会社ｍａｕｓ,,合同会社,東京都,荒川区,南千住７丁目１１番２－８０１号,,13,118,1160003,,,,,,,2023-11-16,1,,,,,マウス,0
59,1011601027272,新規,0,2023-11-16,2023-11-16,株式会社縁樹,,株式会社,東京都,練馬区,大泉町２丁目２２番１号,,13,120,1780062,,,,,,,2023-11-16,1,,,,,エンジュ,0
70,1013301051635,新規,0,2023-11-16,2023-11-16,株式会社Ｘａｍｉｄｉｍｕｒａ,,株式会社,東京都,豊島区,要町２丁目４番１３号小杉方２０１号,,13,116,1710043,,,,,,,2023-11-16,1,,,,,ハミディムラ,0
80,1021001080755,新規,0,2023-11-16,2023-11-16,株式会社ＴＮ４５,,株式会社,神奈川県,横須賀市,二葉２丁目１０番１２号,,14,201,2390814,,,,,,,2023-11-16,1,,,,,ティーエヌフォーティーファイブ,0
90,1030001157091,新規,0,2023-11-16,2023-11-16,株式会社前鶴工業,,株式会社,埼玉県,春日部市,大場１１１２番地５シャトルロイヤルＩ－１０２,00132681,11,214,3440021,,,,,,,2023-11-16,1,,,,,マエヅルコウギョウ,0
91,1030001157158,新規,0,2023-11-16,2023-11-16,株式会社グロース＆ソリューションズ,,株式会社,埼玉県,さいたま市大宮区,桜木町２丁目３大宮マルイ７階,,11,103,3300854,,,,,,,2023-11-16,1,,,,,グロースアンドソリューションズ,0
92,1030001157166,新規,0,2023-11-16,2023-11-16,株式会社リトルユニコーン,,株式会社,埼玉県,さいたま市見沼区,春岡１丁目１３－１,,11,104,3370008,,,,,,,2023-11-16,1,,,,,リトルユニコーン,0
100,1040001130923,新規,0,2023-11-16,2023-11-16,株式会社ＣＹＣ,,株式会社,千葉県,千葉市中央区,都町５丁目１７番６号,,12,101,2600001,,,,,,,2023-11-16,1,,,,,シーワイシー,0
101,1040001130948,新規,0,2023-11-16,2023-11-16,株式会社竹内,,株式会社,千葉県,船橋市,本町６丁目４番２７－９０１号,,12,204,2730005,,,,,,,2023-11-16,1,,,,,タケウチ,0
102,1040001130956,新規,0,2023-11-16,2023-11-16,株式会社ＲＭＧＭ,,株式会社,千葉県,千葉市花見川区,幕張町４丁目５３１番地,,12,102,2620032,,,,,,,2023-11-16,1,,,,,アールエムジーエム,0
108,1040003023737,新規,0,2023-11-16,2023-11-16,デンタルノバ合同会社,,合同会社,千葉県,流山市,南流山１丁目１番地の２ＭＭビル６０５,,12,220,2700163,,,,,,,2023-11-16,1,,,,,デンタルノバ,0
109,1040003023745,新規,0,2023-11-16,2023-11-16,第十四日本ソーラー電力合同会社,,合同会社,千葉県,千葉市中央区,富士見１丁目１４番１３号千葉大栄ビル８階,,12,101,2600015,,,,,,,2023-11-16,1,,,,,ダイジュウヨンニホンソーラーデンリョク,0
111,1050001053834,新規,0,2023-11-16,2023-11-16,株式会社ＡＩＣ,,株式会社,茨城県,つくば市,島名２１７１（諏訪Ｃ１７街区１）,,08,220,3002655,,,,,,,2023-11-16,1,,,,,エーアイシー,0
112,1050001053850,新規,0,2023-11-16,2023-11-16,株式会社ＤＲＭ,,株式会社,茨城県,かすみがうら市,牛渡５５３２番地,,08,230,3000213,,,,,,,2023-11-16,1,,,,,ディーアールエム,0
114,1060001036557,新規,0,2023-11-16,2023-11-16,歌ヶ浜フーズ株式会社,,株式会社,栃木県,日光市,中宮祠２５７７番地２の３,,09,206,3211661,,,,,,,2023-11-16,1,,,,,ウタガハマフーズ,0
122,1090001018412,新規,0,2023-11-16,2023-11-16,アグリテックプラン株式会社,,株式会社,山梨県,甲府市,丸の内２丁目１９番８号ＭＫビル２Ｆ,,19,201,4000031,,,,,,,2023-11-16,1,,,,,アグリテックプラン,0
123,1100001036973,新規,0,2023-11-16,2023-11-16,株式会社Ｂｌａｃｋ　Ｓｍｉｔｈ,,株式会社,長野県,飯田市,大門町２６番地,,20,205,3950011,,,,,,,2023-11-16,1,,,,,ブラックスミス,0
124,1100001036981,新規,0,2023-11-16,2023-11-16,株式会社日日,,株式会社,長野県,松本市,大手２丁目２番５号,,20,202,3900874,,,,,,,2023-11-16,1,,,,,ヒビ,0
139,1120001259845,新規,0,2023-11-16,2023-11-16,株式会社ＨＡＲＵ,,株式会社,大阪府,大阪市平野区,加美北１丁目２４番８号,,27,126,5470001,,,,,,,2023-11-16,1,,,,,ハル,0
140,1120001259861,新規,0,2023-11-16,2023-11-16,ＬＩＮＫケア株式会社,,株式会社,大阪府,大阪市中央区,谷町９丁目１番１８号アクセス谷町ビル６Ａ,,27,128,5420012,,,,,,,2023-11-16,1,,,,,リンクケア,0
141,1120001259903,新規,0,2023-11-16,2023-11-16,株式会社Ｔ‐ｃｒｅＡｒ,,株式会社,大阪府,大阪市西区,江之子島１丁目１０番１号阿波座スポーツメディカルビル６Ｆ,,27,106,5500006,,,,,,,2023-11-16,1,,,,,ティークレアール,0
142,1120001259911,新規,0,2023-11-16,2023-11-16,東勝株式会社,,株式会社,大阪府,大阪市生野区,中川西１丁目１－４１－４階,,27,116,5440032,,,,,,,2023-11-16,1,,,,,トウショウ,0
148,1120101068551,新規,0,2023-11-16,2023-11-16,株式会社日光設備,,株式会社,大阪府,和泉市,寺門町２丁目５番１４号,,27,219,5940064,,,,,,,2023-11-16,1,,,,,ニッコウセツビ,0
153,1122001037578,新規,0,2023-11-16,2023-11-16,株式会社Ｔｏｐａｓ,,株式会社,大阪府,東大阪市,小若江３丁目６番９号,,27,227,5770818,,,,,,,2023-11-16,1,,,,,トパーズ,0
160,1130001075655,新規,0,2023-11-16,2023-11-16,株式会社ｒｅｓｐｉｔｅＪＡＰＡＮ,,株式会社,京都府,京都市下京区,大黒町２２７番地第２キョートビル４０２,,26,106,6008043,,,,,,,2023-11-16,1,,,,,レスパイトジャパン,0
161,1130001075738,新規,0,2023-11-16,2023-11-16,ｏｚｅ不動産コンサル株式会社,,株式会社,京都府,京都市西京区,桂野里町３１番地２９,,26,111,6158073,,,,,,,2023-11-16,1,,,,,オゼフドウサンコンサル,0
162,1130001075746,新規,0,2023-11-16,2023-11-16,株式会社ＡＭＯＮ,,株式会社,京都府,京都市中京区,河原町通二条下る二丁目下丸屋町４０３番地,,26,104,6040000,,,,,,,2023-11-16,1,,,,,アモン,0
165,1130005016928,新規,0,2023-11-16,2023-11-16,一般社団法人榮鳴会,,その他の設立登記法人,京都府,京都市下京区,木屋町通正面下る十禅師町２０３番地２４,,26,106,6008137,,,,,,,2023-11-16,1,,,,,エイメイカイ,0
167,1140001132372,新規,0,2023-11-16,2023-11-16,株式会社ＫＣＮ,,株式会社,兵庫県,加古川市,加古川町中津１５５－１１,,28,210,6750068,,,,,,,2023-11-16,1,,,,,ケーシーエヌ,0
170,1150001026887,新規,0,2023-11-16,2023-11-16,株式会社和州,,株式会社,奈良県,橿原市,木原町８番地の７,,29,205,6340004,,,,,,,2023-11-16,1,,,,,ワシュウ,0
180,1180001158959,新規,0,2023-11-16,2023-11-16,あぐりシーディング株式会社,,株式会社,愛知県,半田市,花田町２丁目１０３番地の３,,23,205,4750088,,,,,,,2023-11-16,1,,,,,アグリシーディング,0
181,1180001158975,新規,0,2023-11-16,2023-11-16,株式会社ブルーバッハ,,株式会社,愛知県,名古屋市東区,徳川１丁目１０番３５号ナビシティ徳川Ｉ１００４号,00132679,23,102,4610025,,,,,,,2023-11-16,1,,,,,ブルーバッハ,0
182,1180001158983,新規,0,2023-11-16,2023-11-16,株式会社ＺＥＮＬＯｊｉ,,株式会社,愛知県,愛西市,森川町梶島１５９番地,,23,232,4960943,,,,,,,2023-11-16,1,,,,,ゼンロジ,0
183,1180003026008,新規,0,2023-11-16,2023-11-16,ＴＯＹＯ　ＬＡＮＫＡ　ＴＲＡＤＩＮＧ合同会社,,合同会社,愛知県,名古屋市中川区,富田町大字千音寺字仏供田３０９３番地ガーデンハイツ１０２号,,23,110,4540971,,,,,,,2023-11-16,1,,,,,,0
184,1180301038027,新規,0,2023-11-16,2023-11-16,株式会社ＦＺＦインターナショナル,,株式会社,愛知県,豊川市,上長山町田川４５番地,,23,207,4411202,,,,,,,2023-11-16,1,,,,,エフゼットエフインターナショナル,0
188,1190001030893,新規,0,2023-11-16,2023-11-16,株式会社高岡土地開発,,株式会社,三重県,鈴鹿市,木田町１３９４,,24,207,5130015,,,,,,,2023-11-16,1,,,,,タカオカトチカイハツ,0
194,1210001019546,新規,0,2023-11-16,2023-11-16,エターナルリンクス株式会社,,株式会社,福井県,坂井市,三国町神明２丁目８番７号,,18,210,9130047,,,,,,,2023-11-16,1,,,,,エターナルリンクス,0
196,1210005010121,新規,0,2023-11-16,2023-11-16,協同組合ＦＲＯＮＰＩＡ福井,,その他の設立登記法人,福井県,福井市,問屋町２丁目６５番地,,18,201,9188231,,,,,,,2023-11-16,1,,,,,フロンピアフクイ,0
209,1290001103755,新規,0,2023-11-16,2023-11-16,株式会社優,,株式会社,福岡県,福岡市城南区,田島３丁目４番２８号,,40,136,8140113,,,,,,,2023-11-16,1,,,,,ユウ,0
210,1290003014612,新規,0,2023-11-16,2023-11-16,秀一合同会社,,合同会社,福岡県,福岡市西区,今宿青木１０５８－１スワンマンション今宿１０６号,,40,135,8190162,,,,,,,2023-11-16,1,,,,,シュウイチ,0
211,1290801030050,新規,0,2023-11-16,2023-11-16,株式会社ＹＫ　ＰＲＯＪＥＣＴ,,株式会社,福岡県,北九州市八幡西区,山寺町１２番６０－１００６号,,40,109,8060030,,,,,,,2023-11-16,1,,,,,ワイケイプロジェクト,0
212,1290803004548,新規,0,2023-11-16,2023-11-16,Ｂｏｎａｎｚａ　Ａｎｉｍａｔｉｏｎ合同会社,,合同会社,福岡県,北九州市小倉北区,木町２丁目４－３２－９０６,,40,106,8030851,,,,,,,2023-11-16,1,,,,,ボナンザアニメーション,0
215,1310001018711,新規,0,2023-11-16,2023-11-16,つしま総本舗株式会社,,株式会社,長崎県,対馬市,厳原町国分１３０５番地,,42,209,8170022,,,,,,,2023-11-16,1,,,,,ツシマソウホンポ,0
226,1360001032807,新規,0,2023-11-16,2023-11-16,株式会社ゆいまーる,,株式会社,沖縄県,宮古島市,上野字野原３１８番地２,,47,214,9060201,,,,,,,2023-11-16,1,,,,,ユイマール,0
227,1360001032823,新規,0,2023-11-16,2023-11-16,株式会社Ａｃｔｕａｌｉｚｅ,,株式会社,沖縄県,那覇市,三原１丁目２０番８号,,47,201,9020063,,,,,,,2023-11-16,1,,,,,アクチュアライズ,0
230,1370001050626,新規,0,2023-11-16,2023-11-16,株式会社Ｚｅｎｉｔｈ,,株式会社,宮城県,仙台市若林区,上飯田２丁目２番２１号,,04,103,9840838,,,,,,,2023-11-16,1,,,,,ゼニス,0
231,1380001034124,新規,0,2023-11-16,2023-11-16,株式会社リバイブ,,株式会社,福島県,白河市,大観音前３９,,07,205,9610051,,,,,,,2023-11-16,1,,,,,リバイブ,0
232,1380001034140,新規,0,2023-11-16,2023-11-16,グローメディカル株式会社,,株式会社,福島県,郡山市,大槻町字弥八池南１４番地９,,07,203,9630201,,,,,,,2023-11-16,1,,,,,グローメディカル,0
239,1430001090450,新規,0,2023-11-16,2023-11-16,株式会社リンクアップ・クリエイション,,株式会社,北海道,室蘭市,東町３丁目８番４号,,01,205,0500083,,,,,,,2023-11-16,1,,,,,リンクアップクリエイション,0
241,1430003015620,新規,0,2023-11-16,2023-11-16,合同会社ＭＯＲＥ,,合同会社,北海道,札幌市中央区,北一条東８丁目８４番地２,,01,101,0600031,,,,,,,2023-11-16,1,,,,,モア,0
263,2010001240088,新規,0,2023-11-16,2023-11-16,株式会社Ｅｖａｌ,,株式会社,東京都,中央区,銀座１丁目２２－１１銀座大竹ビジデンス２階,,13,102,1040061,,,,,,,2023-11-16,1,,,,,イーバル,0
264,2010001240138,新規,0,2023-11-16,2023-11-16,株式会社Ｋｏｕｓｙｏ,,株式会社,東京都,中央区,築地２丁目１０－５寿ビル２０１,,13,102,1040045,,,,,,,2023-11-16,1,,,,,コウショウ,0
270,2010003042219,新規,0,2023-11-16,2023-11-16,アドミラル合同会社,,合同会社,東京都,中央区,銀座１丁目２２番１１号銀座大竹ビジデンス２Ｆ,,13,102,1040061,,,,,,,2023-11-16,1,,,,,アドミラル,0
274,2010005037522,新規,0,2023-11-16,2023-11-16,ＤＧＬ神戸一般社団法人,,その他の設立登記法人,東京都,千代田区,丸の内３丁目１番１号東京共同会計事務所内,,13,101,1000005,,,,,,,2023-11-16,1,,,,,ディージーエルコウベ,0
277,2010101015893,新規,0,2023-11-16,2023-11-16,株式会社ＣＹＹ,,株式会社,東京都,八王子市,八木町５番２号シャトル朝倉１階,,13,201,1920055,,,,,,,2023-11-16,1,,,,,シーワイワイ,0
278,2010103002254,新規,0,2023-11-16,2023-11-16,合同会社ＲＥＹＳ,,合同会社,東京都,八王子市,三崎町９番１１号,,13,201,1920084,,,,,,,2023-11-16,1,,,,,レイズ,0
283,2010401178572,新規,0,2023-11-16,2023-11-16,株式会社オプサリオン,,株式会社,東京都,港区,六本木６丁目１２番３－３７０３号,,13,103,1060032,,,,,,,2023-11-16,1,,,,,オプサリオン,0
284,2010401178606,新規,0,2023-11-16,2023-11-16,株式会社アシスト,,株式会社,東京都,港区,白金台５丁目１８番２号プラチナワイズビル２Ｆ,,13,103,1080071,,,,,,,2023-11-16,1,,,,,アシスト,0
287,2010403031390,新規,0,2023-11-16,2023-11-16,ジュピター合同会社,,合同会社,東京都,港区,赤坂２丁目１４番５号,,13,103,1070052,,,,,,,2023-11-16,1,,,,,ジュピター,0
288,2010405022719,新規,0,2023-11-16,2023-11-16,一般社団法人グニー,,その他の設立登記法人,東京都,港区,元赤坂１丁目１番７号,,13,103,1070051,,,,,,,2023-11-16,1,,,,,グニー,0
291,2010603010483,新規,0,2023-11-16,2023-11-16,合同会社赤塚,,合同会社,東京都,江東区,扇橋１丁目３番１２‐６０２号,,13,108,1350011,,,,,,,2023-11-16,1,,,,,アカツカ,0
293,2010801034516,新規,0,2023-11-16,2023-11-16,株式会社エソラド,,株式会社,東京都,大田区,上池台２丁目５番１８号,,13,111,1450064,,,,,,,2023-11-16,1,,,,,エソラド,0
294,2010903008590,新規,0,2023-11-16,2023-11-16,合同会社セカンドウインド,,合同会社,東京都,世田谷区,上祖師谷５丁目１７番４－１０３号,,13,112,1570065,,,,,,,2023-11-16,1,,,,,セカンドウインド,0
300,2011001158246,新規,0,2023-11-16,2023-11-16,株式会社ＧＦＬＯＰＳ,,株式会社,東京都,渋谷区,道玄坂１丁目１０－８渋谷道玄坂東急ビル２Ｆ－Ｃ,,13,113,1500043,,,,,,,2023-11-16,1,,,,,ジーフロップス,0
305,2011005010279,新規,0,2023-11-16,2023-11-16,一般社団法人千葉万仁土地,,その他の設立登記法人,東京都,渋谷区,神宮前１丁目５番８号,,13,113,1500001,,,,,,,2023-11-16,1,,,,,チバマンニトチ,0
310,2011101105131,新規,0,2023-11-16,2023-11-16,株式会社アニメＤ．ｃｏｒｐ．,,株式会社,東京都,新宿区,富久町４０－４Ａ,,13,104,1620067,,,,,,,2023-11-16,1,,,,,アニメディーコープ,0
312,2011103013745,新規,0,2023-11-16,2023-11-16,合同会社和敬,,合同会社,東京都,新宿区,中落合４丁目２１番１６号,,13,104,1610032,,,,,,,2023-11-16,1,,,,,ワケイ,0
318,2011503005846,新規,0,2023-11-16,2023-11-16,ラックス合同会社,,合同会社,東京都,北区,中里２丁目６番１４号駒込ＮＡＣビル３階,,13,117,1140015,,,,,,,2023-11-16,1,,,,,ラックス,0
322,2011801043358,新規,0,2023-11-16,2023-11-16,大厨四宝グループ株式会社,,株式会社,東京都,足立区,足立１丁目３５－１３サンライトマンション３０１号室,,13,121,1200015,,,,,,,2023-11-16,1,,,,,ダイチュウシホウグループ,0
323,2011803005942,新規,0,2023-11-16,2023-11-16,合同会社ＤＥＥＰ,,合同会社,東京都,足立区,千住寿町４番９号,,13,121,1200033,,,,,,,2023-11-16,1,,,,,ディープ,0
328,2012703002856,新規,0,2023-11-16,2023-11-16,合同会社てらすコンサルティング,,合同会社,東京都,小平市,鈴木町２丁目１９８番地の２カエサル花小金井２０３号,,13,211,1870011,,,,,,,2023-11-16,1,,,,,テラスコンサルティング,0
330,2013101009287,新規,0,2023-11-16,2023-11-16,ＡＬＯ．Ｗ株式会社,,株式会社,東京都,青梅市,新町６丁目９番地の４,,13,205,1980024,,,,,,,2023-11-16,1,,,,,エーエルオーダブリュー,0
332,2013301051634,新規,0,2023-11-16,2023-11-16,株式会社オリーブ,,株式会社,東京都,豊島区,南池袋１丁目９番１８号,,13,116,1710022,,,,,,,2023-11-16,1,,,,,オリーブ,0
333,2013303006883,新規,0,2023-11-16,2023-11-16,合同会社Ｗａａａｐ,,合同会社,東京都,豊島区,池袋２丁目３６番１号，ＩｎｆｉｎｉｔｙＩｋｅｂｕｋｕｒｏ，６Ｆ,,13,116,1710014,,,,,,,2023-11-16,1,,,,,ワープ,0
352,2030001156935,新規,0,2023-11-16,2023-11-16,株式会社クライムエイド,,株式会社,埼玉県,越谷市,花田４丁目６番地１８,,11,222,3430015,,,,,,,2023-11-16,1,,,,,クライムエイド,0
353,2030001157149,新規,0,2023-11-16,2023-11-16,４５ＲＥＣＫ株式会社,,株式会社,埼玉県,白岡市,小久喜６７５番地１パークシティ白岡Ｂ棟１０２,,11,246,3490217,,,,,,,2023-11-16,1,,,,,フォーファイブレック,0
354,2030001157215,新規,0,2023-11-16,2023-11-16,Ｒｉｄｄｈｉ　Ｓｉｄｄｈｉ株式会社,,株式会社,埼玉県,熊谷市,中央２丁目４５,,11,202,3600018,,,,,,,2023-11-16,1,,,,,リッデイシッデイ,0
359,2030003022945,新規,0,2023-11-16,2023-11-16,俊美合同会社,,合同会社,埼玉県,蕨市,塚越５丁目１９－３キャニオンマンション第２蕨４０３,,11,223,3350002,,,,,,,2023-11-16,1,,,,,シュンメイ,0
360,2030003023019,新規,0,2023-11-16,2023-11-16,合同会社黒猫ラジオ,,合同会社,埼玉県,新座市,野火止５丁目３６番１３号,,11,230,3520011,,,,,,,2023-11-16,1,,,,,クロネコラジオ,0
364,2040001130939,新規,0,2023-11-16,2023-11-16,株式会社岡崎工業,,株式会社,千葉県,市原市,飯沼８３７番地１,,12,219,2900037,,,,,,,2023-11-16,1,,,,,オカザキコウギョウ,0
365,2040001130963,新規,0,2023-11-16,2023-11-16,株式会社西川工業,,株式会社,千葉県,市原市,島野２０６４番地１グランシャリオ１棟２０６,,12,219,2900034,,,,,,,2023-11-16,1,,,,,ニシカワコウギョウ,0
371,2040003023744,新規,0,2023-11-16,2023-11-16,田中アセットマネジメント合同会社,,合同会社,千葉県,市川市,新田５丁目９番６号（庄ェ門マンション２－Ａ号）,,12,203,2720035,,,,,,,2023-11-16,1,,,,,タナカアセットマネジメント,0
374,2050001053833,新規,0,2023-11-16,2023-11-16,株式会社ＭＫ美創,,株式会社,茨城県,つくばみらい市,小絹８２３番地５,,08,235,3002445,,,,,,,2023-11-16,1,,,,,エムケービソウ,0
379,2080001025978,新規,0,2023-11-16,2023-11-16,株式会社Ｌｅａｆ,,株式会社,静岡県,静岡市清水区,由比１８番地の１,,22,103,4213103,,,,,,,2023-11-16,1,,,,,リーフ,0
380,2080401026849,新規,0,2023-11-16,2023-11-16,株式会社ＥＧＡＫＥＲＵ,,株式会社,静岡県,浜松市中区,千歳町９１－１遠鉄モール街ビル１階Ａｎｙ,,22,131,4300934,,,,,,,2023-11-16,1,,,,,エガケル,0
382,2110001037978,新規,0,2023-11-16,2023-11-16,ＳＳＣ株式会社,,株式会社,新潟県,胎内市,関沢字中道１０６番１,,15,227,9592633,,,,,,,2023-11-16,1,,,,,エスエスシー,0
393,2120001259761,新規,0,2023-11-16,2023-11-16,株式会社睿翹,,株式会社,大阪府,大阪市港区,市岡１丁目２３－１２,,27,107,5520012,,,,,,,2023-11-16,1,,,,,エイギョウ,0
394,2120001259893,新規,0,2023-11-16,2023-11-16,ピノトレーディング株式会社,,株式会社,大阪府,大阪市東成区,中本１丁目５番２９－６０２号,,27,115,5370022,,,,,,,2023-11-16,1,,,,,ピノトレーディング,0
395,2120001259902,新規,0,2023-11-16,2023-11-16,オールモ株式会社,,株式会社,大阪府,大阪市中央区,日本橋１丁目９番１１号弥生プラザ日本橋５０１号,,27,128,5420073,,,,,,,2023-11-16,1,,,,,オールモ,0
396,2120001259910,新規,0,2023-11-16,2023-11-16,ｂｏＲｄ株式会社,,株式会社,大阪府,大阪市都島区,都島北通２丁目１５番１２号,,27,102,5340014,,,,,,,2023-11-16,1,,,,,ボード,0
397,2120001259935,新規,0,2023-11-16,2023-11-16,ＴＩＷＥＩ株式会社,,株式会社,大阪府,大阪市西淀川区,姫島２丁目４番１０号,,27,113,5550033,,,,,,,2023-11-16,1,,,,,タイウェー,0
401,2120003025344,新規,0,2023-11-16,2023-11-16,Ｔｈｅ　Ｂｏｔｔｌｅｒｓ合同会社,,合同会社,大阪府,大阪市北区,梅田１丁目２番２－２００号大阪駅前第２ビル２階３－１－２,,27,127,5300001,,,,,,,2023-11-16,1,,,,,,0
409,2120901048363,新規,0,2023-11-16,2023-11-16,株式会社大和,,株式会社,大阪府,豊中市,豊南町東４丁目８番４１号１０１号,,27,203,5610814,,,,,,,2023-11-16,1,,,,,ヤマト,0
419,2130001075720,新規,0,2023-11-16,2023-11-16,株式会社エスエスホーム,,株式会社,京都府,京都市伏見区,横大路貴船１１５番地ワンエイトビル３Ｆ,,26,109,6128297,,,,,,,2023-11-16,1,,,,,エスエスホーム,0
420,2130001075729,新規,0,2023-11-16,2023-11-16,株式会社ティーエム・ツー,,株式会社,京都府,京都市伏見区,羽束師古川町２１０,,26,109,6128486,,,,,,,2023-11-16,1,,,,,ティーエムツー,0
429,2150001026886,新規,0,2023-11-16,2023-11-16,株式会社ＴＩＡ’Ｉ,,株式会社,奈良県,橿原市,曽我町９２番地の２,,29,205,6340831,,,,,,,2023-11-16,1,,,,,ティーアイ,0
430,2170001017891,新規,0,2023-11-16,2023-11-16,株式会社Ｆａｍｉｌｙ　Ｆｅｅｌｉｎｇｓ,,株式会社,和歌山県,有田市,宮崎町５８０番地８,,30,204,6490316,,,,,,,2023-11-16,1,,,,,ファミリーフィーリングズ,0
434,2180001158925,新規,0,2023-11-16,2023-11-16,株式会社Ｌａｌａ,,株式会社,愛知県,春日井市,瑞穂通２丁目４８番地１,,23,206,4860845,,,,,,,2023-11-16,1,,,,,ララ,0
435,2180001158933,新規,0,2023-11-16,2023-11-16,株式会社ＮＥＦ　Ｌａｔｅｓｔ,,株式会社,愛知県,名古屋市中区,新栄１丁目５番地８号広小路アクアプレイス９Ｆ,,23,106,4600007,,,,,,,2023-11-16,1,,,,,エヌイーエフレイティスト,0
436,2180001158941,新規,0,2023-11-16,2023-11-16,Ｎ・Ｈプラント株式会社,,株式会社,愛知県,北名古屋市,鍜治ケ一色西二丁目１９５番地フルール１０１号室,,23,234,4810037,,,,,,,2023-11-16,1,,,,,エヌエイチプラント,0
437,2180001158958,新規,0,2023-11-16,2023-11-16,株式会社ドルムシュ工業,,株式会社,愛知県,春日井市,熊野町２８８３番地３,,23,206,4860822,,,,,,,2023-11-16,1,,,,,ドルムシュコウギョウ,0
442,2180003025982,新規,0,2023-11-16,2023-11-16,合同会社Ｇｏｏｄｊｏｂ,,合同会社,愛知県,名古屋市中村区,名駅３丁目４－１０－２階,,23,105,4500002,,,,,,,2023-11-16,1,,,,,グッドジョブ,0
443,2180003026015,新規,0,2023-11-16,2023-11-16,ｅａｒｌｙ合同会社,,合同会社,愛知県,春日井市,町田町２丁目９１番地２,,23,206,4860936,,,,,,,2023-11-16,1,,,,,アーリー,0
444,2180005020429,新規,0,2023-11-16,2023-11-16,ＧＳＪ協同組合,,その他の設立登記法人,愛知県,名古屋市昭和区,元宮町５丁目１６番地,,23,107,4660851,,,,,,,2023-11-16,1,,,,,ジーエスジェイ,0
448,2180301038026,新規,0,2023-11-16,2023-11-16,サーベイ・トラスト株式会社,,株式会社,愛知県,西尾市,熊味町大道南２１番地２,,23,213,4450071,,,,,,,2023-11-16,1,,,,,サーベイトラスト,0
449,2180303005908,新規,0,2023-11-16,2023-11-16,合同会社Ｌｅｐｕｓ,,合同会社,愛知県,豊橋市,松葉町１丁目８８番地大幸ビル２Ｆ,,23,201,4400897,,,,,,,2023-11-16,1,,,,,レプス,0
453,2190003004507,新規,0,2023-11-16,2023-11-16,ＭＧＡ合同会社,,合同会社,三重県,亀山市,布気町８０１－１亀山ハイウェイオアシス管内,,24,210,5190166,,,,,,,2023-11-16,1,,,,,エムジーエー,0
457,2230001020096,新規,0,2023-11-16,2023-11-16,株式会社富山流通サービス,,株式会社,富山県,富山市,掛尾町５００番地,,16,201,9398212,,,,,,,2023-11-16,1,,,,,トヤマリュウツウサービス,0
487,2360001032797,新規,0,2023-11-16,2023-11-16,株式会社ＡＰＩＣＡ,,株式会社,沖縄県,那覇市,泉崎１丁目２０－１,,47,201,9000021,,,,,,,2023-11-16,1,,,,,アピカ,0
492,2370003006377,新規,0,2023-11-16,2023-11-16,合同会社すまいる九,,合同会社,宮城県,富谷市,ひより台２丁目１３番地１０,,04,216,9813304,,,,,,,2023-11-16,1,,,,,スマイルキュウ,0
496,2380003005618,新規,0,2023-11-16,2023-11-16,合同会社保三,,合同会社,福島県,安達郡大玉村,大山字東１５,,07,322,9691301,,,,,,,2023-11-16,1,,,,,ヤスミ,0
497,2410005006552,新規,0,2023-11-16,2023-11-16,一般財団法人ジョルジオジャノ財団ジャパン,,その他の設立登記法人,秋田県,にかほ市,平沢字前谷地１１２番地４,,05,214,0180402,,,,,,,2023-11-16,1,,,,,ジョルジオジャノザイダンジャパン,0
499,2420001018484,新規,0,2023-11-16,2023-11-16,株式会社ジーテック,,株式会社,青森県,青森市,松森３丁目２０番２７号,,02,201,0300965,,,,,,,2023-11-16,1,,,,,ジーテック,0
510,2430001090409,新規,0,2023-11-16,2023-11-16,株式会社リアレントテラス,,株式会社,北海道,恵庭市,漁町１３５番地１,,01,231,0611414,,,,,,,2023-11-16,1,,,,,リアレントテラス,0
514,2430003015644,新規,0,2023-11-16,2023-11-16,合同会社ｎｉｃｏ,,合同会社,北海道,札幌市白石区,本郷通１丁目北２番１０－７０３号,,01,104,0030025,,,,,,,2023-11-16,1,,,,,ニコ,0
518,2490001010641,新規,0,2023-11-16,2023-11-16,株式会社徳久水産,00132683,株式会社,高知県,南国市,稲生１３１８番地,,39,204,7830084,,,,,,,2023-11-16,1,,,,,トクヒサスイサン,0
527,3010001240046,新規,0,2023-11-16,2023-11-16,株式会社Ｔｒａｎｃｅ,,株式会社,東京都,文京区,千駄木１丁目６－２,,13,105,1130022,,,,,,,2023-11-16,1,,,,,トランス,0
528,3010001240062,新規,0,2023-11-16,2023-11-16,株式会社ＭＹ　ｇｒｏｕｐ,,株式会社,東京都,中央区,日本橋室町４丁目４番３号２階,,13,102,1030022,,,,,,,2023-11-16,1,,,,,マイグループ,0
529,3010001240120,新規,0,2023-11-16,2023-11-16,株式会社富来コーポレーション,,株式会社,東京都,千代田区,麹町２丁目３番９号麹町プレイス５Ｆ,,13,101,1020083,,,,,,,2023-11-16,1,,,,,トライコーポレーション,0
530,3010001240161,新規,0,2023-11-16,2023-11-16,アイマックス．ＪＰ株式会社,,株式会社,東京都,中央区,銀座１丁目２２番１１号銀座大竹ビジデンス２Ｆ,,13,102,1040061,,,,,,,2023-11-16,1,,,,,アイマックスドットジェーピー,0
537,3010003042201,新規,0,2023-11-16,2023-11-16,合同会社Ｃｒａｆｔ　Ｂｅａｒ,,合同会社,東京都,中央区,銀座１丁目１２－４Ｎ＆ＥＢＬＤ．７階,,13,102,1040061,,,,,,,2023-11-16,1,,,,,クラフトベア,0
538,3010101015892,新規,0,2023-11-16,2023-11-16,株式会社ＺＬＡＴＡＮ,,株式会社,東京都,八王子市,みつい台２丁目３２番１５号,,13,201,1920014,,,,,,,2023-11-16,1,,,,,ズラタン,0
542,3010401178555,新規,0,2023-11-16,2023-11-16,株式会社キッチンカーの窓口,,株式会社,東京都,港区,六本木４丁目１２－１０グレイト綱ビル４Ｃ,,13,103,1060032,,,,,,,2023-11-16,1,,,,,キッチンカーノマドグチ,0
543,3010401178563,新規,0,2023-11-16,2023-11-16,株式会社ＬＥＴＯ,,株式会社,東京都,港区,北青山１丁目３番１号アールキューブ青山３階,,13,103,1070061,,,,,,,2023-11-16,1,,,,,レト,0
544,3010401178571,新規,0,2023-11-16,2023-11-16,埼玉地域医療連携推進株式会社,,株式会社,東京都,港区,三田２丁目１４番７－６０２号ローレル三田,,13,103,1080073,,,,,,,2023-11-16,1,,,,,サイタマチイキイリョウレンケイスイシン,0
547,3010403031357,新規,0,2023-11-16,2023-11-16,合同会社クルマユール,,合同会社,東京都,港区,六本木４丁目３番３８号六本木パークマンション４０４,,13,103,1060032,,,,,,,2023-11-16,1,,,,,クルマユール,0
548,3010403031381,新規,0,2023-11-16,2023-11-16,合同会社ＦＳＨ,,合同会社,東京都,港区,白金１丁目２番１－Ｅ１１１４号,,13,103,1080072,,,,,,,2023-11-16,1,,,,,エフエスエイチ,0
557,3010701045125,新規,0,2023-11-16,2023-11-16,ＡｒｔｉＰｈｉ株式会社,,株式会社,東京都,品川区,西五反田５丁目１３－１１－２０２号,,13,109,1410031,,,,,,,2023-11-16,1,,,,,アーティファイ,0
562,3011001158047,新規,0,2023-11-16,2023-11-16,株式会社サンルイダ,,株式会社,東京都,渋谷区,道玄坂１丁目１０番８号渋谷道玄坂東急ビル２Ｆ－Ｃ,,13,113,1500043,,,,,,,2023-11-16,1,,,,,サンルイダ,0
565,3011003017928,新規,0,2023-11-16,2023-11-16,合同会社Ｈ２,,合同会社,東京都,渋谷区,笹塚３丁目６０番２号メルベーユさくら１０２,,13,113,1510073,,,,,,,2023-11-16,1,,,,,エイチツー,0
566,3011003017936,新規,0,2023-11-16,2023-11-16,合同会社ＥＬＬＡ　ＶＥＮＴＵＲＡ,,合同会社,東京都,目黒区,下目黒１丁目１番１４号コノトラビル７Ｆ,,13,110,1530064,,,,,,,2023-11-16,1,,,,,エラベンチュラ,0
572,3011101105147,新規,0,2023-11-16,2023-11-16,株式会社ａｚｕｍａｙａ,,株式会社,東京都,新宿区,西新宿３丁目３番１３号西新宿水間ビル６階,,13,104,1600023,,,,,,,2023-11-16,1,,,,,アズマヤ,0
575,3011301029179,新規,0,2023-11-16,2023-11-16,株式会社大森ビル,,株式会社,東京都,杉並区,善福寺４丁目８番５号,,13,115,1670041,,,,,,,2023-11-16,1,,,,,オオモリビル,0
580,3011503005845,新規,0,2023-11-16,2023-11-16,ＨＥＮＳ合同会社,,合同会社,東京都,荒川区,西日暮里２丁目２５番１－３７１０号,,13,118,1160013,,,,,,,2023-11-16,1,,,,,ヘンス,0
584,3011601027279,新規,0,2023-11-16,2023-11-16,ルーミナス東京株式会社,,株式会社,東京都,練馬区,向山３丁目１０番１８号,,13,120,1760022,,,,,,,2023-11-16,1,,,,,ルーミナストウキョウ,0
587,3011801043349,新規,0,2023-11-16,2023-11-16,Ｇｌｏｖｏｙ株式会社,,株式会社,東京都,足立区,西新井本町５丁目２番４－１０１号,,13,121,1230845,,,,,,,2023-11-16,1,,,,,グロボ,0
588,3011801043357,新規,0,2023-11-16,2023-11-16,Ｒｏｙｃｅ　Ｃａｐｉｔａｌ株式会社,,株式会社,東京都,足立区,東伊興３丁目４－１４－１０２,,13,121,1210801,,,,,,,2023-11-16,1,,,,,ロイスキャピタル,0
594,3012403006280,新規,0,2023-11-16,2023-11-16,合同会社ＹＭＦ,,合同会社,東京都,府中市,宮町１丁目１１－２,,13,206,1830023,,,,,,,2023-11-16,1,,,,,ワイエムエフ,0
601,3013101009286,新規,0,2023-11-16,2023-11-16,株式会社英商事,,株式会社,東京都,青梅市,和田町２丁目１８５番地の５,,13,205,1980062,,,,,,,2023-11-16,1,,,,,ハナブサショウジ,0
603,3013301051633,新規,0,2023-11-16,2023-11-16,株式会社ＡＬｕｎａｌｉａ,,株式会社,東京都,豊島区,南大塚１丁目６０番２０号,,13,116,1700005,,,,,,,2023-11-16,1,,,,,アルナリア,0
620,3021001080753,新規,0,2023-11-16,2023-11-16,株式会社Ｃｏｐｐｉｃｅ,,株式会社,神奈川県,茅ヶ崎市,西久保７２７番地１－１０１,,14,207,2530083,,,,,,,2023-11-16,1,,,,,コピス,0
627,3030003022993,新規,0,2023-11-16,2023-11-16,杉元合同会社,,合同会社,埼玉県,川口市,西青木２丁目１７番１５号ＡＲＩＥＴＴＡ・ＥＡＳＴ１０１号室,,11,203,3320035,,,,,,,2023-11-16,1,,,,,スギモト,0
628,3030003023018,新規,0,2023-11-16,2023-11-16,合同会社メイジボウエキ,,合同会社,埼玉県,加須市,川口３丁目２番地８アビタシオン金子１０７号室,,11,210,3470014,,,,,,,2023-11-16,1,,,,,メイジボウエキ,0
634,3040001130954,新規,0,2023-11-16,2023-11-16,株式会社ウエストアクトンプロパティーサービス,,株式会社,千葉県,船橋市,習志野台６丁目３－３オハナ北習志野７１０,,12,204,2740063,,,,,,,2023-11-16,1,,,,,ウエストアクトンプロパティーサービス,0
635,3040001130970,新規,0,2023-11-16,2023-11-16,ＮＥＤＩＳ株式会社,,株式会社,千葉県,浦安市,猫実１丁目１４－２０,,12,227,2790004,,,,,,,2023-11-16,1,,,,,ネディス,0
637,3040003023743,新規,0,2023-11-16,2023-11-16,合同会社Ｎｅｘｔ,,合同会社,千葉県,八街市,榎戸４０７番地６７,,12,230,2891106,,,,,,,2023-11-16,1,,,,,,0
639,3050001053832,新規,0,2023-11-16,2023-11-16,株式会社エイセイ,,株式会社,茨城県,水戸市,見和１丁目３０７番地の２,,08,201,3100911,,,,,,,2023-11-16,1,,,,,エイセイ,0
650,3090001018419,新規,0,2023-11-16,2023-11-16,株式会社裕裕ｃｏｍ,,株式会社,山梨県,南アルプス市,十日市場２０１９番地１,,19,208,4000336,,,,,,,2023-11-16,1,,,,,ユウユウコム,0
652,3110001037977,新規,0,2023-11-16,2023-11-16,株式会社ＪＹスターリースカイ,,株式会社,新潟県,新潟市中央区,川岸町２丁目１番地１,,15,103,9518133,,,,,,,2023-11-16,1,,,,,ジェイワイスターリースカイ,0
669,3120001259843,新規,0,2023-11-16,2023-11-16,シックスウェブサポート株式会社,,株式会社,大阪府,大阪市淀川区,三国本町２丁目２番１０－７０４号,,27,123,5320005,,,,,,,2023-11-16,1,,,,,シックスウェブサポート,0
670,3120001259884,新規,0,2023-11-16,2023-11-16,河上＆入水組株式会社,,株式会社,大阪府,大阪市西区,江戸堀１丁目２４番１９号,,27,106,5500002,,,,,,,2023-11-16,1,,,,,カワカミアンドイリミズグミ,0
671,3120001259942,新規,0,2023-11-16,2023-11-16,エムケイトレーディング株式会社,,株式会社,大阪府,大阪市大正区,小林西１丁目１８番１０号,,27,108,5510013,,,,,,,2023-11-16,1,,,,,エムケイトレーディング,0
675,3120901048362,新規,0,2023-11-16,2023-11-16,ＭＦＥ株式会社,,株式会社,大阪府,摂津市,鳥飼下１丁目１８番１０号,,27,224,5660071,,,,,,,2023-11-16,1,,,,,エムエフイー,0
677,3120903004925,新規,0,2023-11-16,2023-11-16,ＳＣＡＮＤＩＡ合同会社,,合同会社,大阪府,豊中市,上野東１丁目２５番２号,,27,203,5600013,,,,,,,2023-11-16,1,,,,,スカンディア,0
681,3130001075728,新規,0,2023-11-16,2023-11-16,株式会社ヨシムラ,,株式会社,京都府,京都市左京区,北白川東瀬ノ内町１番地の１,,26,103,6068254,,,,,,,2023-11-16,1,,,,,ヨシムラ,0
682,3130001075752,新規,0,2023-11-16,2023-11-16,株式会社Ｎｉｃａ,,株式会社,京都府,京都市西京区,桂上野北町９４番地－２０５,,26,111,6158001,,,,,,,2023-11-16,1,,,,,ニカ,0
685,3130003009139,新規,0,2023-11-16,2023-11-16,合同会社きょうべっと,,合同会社,京都府,向日市,上植野町下川原２８－１,,26,208,6170006,,,,,,,2023-11-16,1,,,,,キョウベット,0
692,3150001026885,新規,0,2023-11-16,2023-11-16,ＭＩＹＡＢＩ　ＪＡＰＡＮ株式会社,,株式会社,奈良県,奈良市,神功３丁目３番地の８,,29,201,6310804,,,,,,,2023-11-16,1,,,,,ミヤビジャパン,0
694,3150003003115,新規,0,2023-11-16,2023-11-16,合同会社西野中小企業診断士事務所,,合同会社,奈良県,奈良市,学園大和町６丁目６６５番地の２ローレルコート富雄６０７号,,29,201,6310041,,,,,,,2023-11-16,1,,,,,ニシノチュウショウキギョウシンダンシジムショ,0
695,3170001017890,新規,0,2023-11-16,2023-11-16,株式会社勇愛,,株式会社,和歌山県,有田市,港町１６４番地,,30,204,6490305,,,,,,,2023-11-16,1,,,,,ユウアイ,0
696,3170003001950,新規,0,2023-11-16,2023-11-16,合同会社翠輝,,合同会社,和歌山県,御坊市,湯川町丸山３８番地６,,30,205,6440013,,,,,,,2023-11-16,1,,,,,スイキ,0
703,3180001158924,新規,0,2023-11-16,2023-11-16,株式会社ナカハル,,株式会社,愛知県,名古屋市中区,栄１丁目２９番２９号,,23,106,4600008,,,,,,,2023-11-16,1,,,,,ナカハル,0
719,3180301038025,新規,0,2023-11-16,2023-11-16,前原設備工業株式会社,,株式会社,愛知県,豊田市,梅坪町１丁目６番地９,,23,211,4710064,,,,,,,2023-11-16,1,,,,,マエハラセツビコウギョウ,0
720,3180301038033,新規,0,2023-11-16,2023-11-16,株式会社谷下澤興業,,株式会社,愛知県,新城市,字札木３９番地１,,23,221,4411367,,,,,,,2023-11-16,1,,,,,ヤゲザワコウギョウ,0
723,3180303005907,新規,0,2023-11-16,2023-11-16,合同会社ＡＮＴＳ,,合同会社,愛知県,西尾市,住崎１丁目２１番地,,23,213,4450879,,,,,,,2023-11-16,1,,,,,アンツ,0
727,3190003004506,新規,0,2023-11-16,2023-11-16,ケアラボ合同会社,,合同会社,三重県,伊賀市,上野東町２９２４番地１,,24,216,5180861,,,,,,,2023-11-16,1,,,,,ケアラボ,0
735,3230001020095,新規,0,2023-11-16,2023-11-16,富山中央青果株式会社,,株式会社,富山県,富山市,掛尾町５００番地,,16,201,9398212,,,,,,,2023-11-16,1,,,,,トヤマチュウオウセイカ,0
740,3240001062434,新規,0,2023-11-16,2023-11-16,株式会社小杉自動車,,株式会社,広島県,広島市南区,仁保４丁目６番２０号,,34,103,7340026,,,,,,,2023-11-16,1,,,,,コスギジドウシャ,0
743,3250001020399,新規,0,2023-11-16,2023-11-16,株式会社いちのみやファーム,,株式会社,山口県,下関市,一の宮町４丁目１番５号,,35,201,7510806,,,,,,,2023-11-16,1,,,,,イチノミヤファーム,0
744,3260003004498,新規,0,2023-11-16,2023-11-16,合同会社ミライ土地,,合同会社,岡山県,岡山市北区,京橋町７番１６－１０１号,,33,101,7000831,,,,,,,2023-11-16,1,,,,,ミライトチ,0
758,3320003004236,新規,0,2023-11-16,2023-11-16,合同会社カレーウドン,,合同会社,大分県,大分市,明野北２丁目１１番３４号,,44,201,8700165,,,,,,,2023-11-16,1,,,,,カレーウドン,0
760,3330001031462,新規,0,2023-11-16,2023-11-16,株式会社Ｓｃａｂｌｅ,,株式会社,熊本県,熊本市西区,上松尾町２６８４番地,,43,103,8615289,,,,,,,2023-11-16,1,,,,,スケーブル,0
765,3360001032821,新規,0,2023-11-16,2023-11-16,株式会社前田産業ホテルズ,,株式会社,沖縄県,名護市,字宮里４５３番地１,,47,209,9050011,,,,,,,2023-11-16,1,,,,,マエダサンギョウホテルズ,0
766,3360005006937,新規,0,2023-11-16,2023-11-16,一般社団法人木村家財産管理,,その他の設立登記法人,沖縄県,那覇市,おもろまち４丁目７番８号,,47,201,9000006,,,,,,,2023-11-16,1,,,,,キムラケザイサンカンリ,0
767,3370001050632,新規,0,2023-11-16,2023-11-16,株式会社守屋工業,,株式会社,宮城県,仙台市泉区,松陵１丁目６番地の５,,04,105,9813108,,,,,,,2023-11-16,1,,,,,モリヤコウギョウ,0
768,3370003006376,新規,0,2023-11-16,2023-11-16,合同会社アドバンス,,合同会社,宮城県,仙台市太白区,羽黒台２６番４６－１号,,04,104,9820817,,,,,,,2023-11-16,1,,,,,アドバンス,0
784,3500001025307,新規,0,2023-11-16,2023-11-16,株式会社享工業,,株式会社,愛媛県,八幡浜市,五反田１番耕地１３５番地９,,38,204,7968010,,,,,,,2023-11-16,1,,,,,タカコウギョウ,0
785,3700150121423,新規,0,2023-11-16,2023-10-26,川西市スポーツ協会,,その他,兵庫県,川西市,火打１丁目１－４,,28,217,6660017,,,,,,,2023-10-26,1,,,,,カワニシシスポーツキヨウカイ,0
786,3700150121563,新規,0,2023-11-16,2023-10-30,東京都電気工事工業組合調布地区本部,,その他,東京都,調布市,小島町１丁目２－１,,13,208,1820026,,,,,,,2023-10-30,1,,,,,トウキヨウトデンキコウジコウギヨウクミアイチヨウフチクホンブ,0
791,4010001239855,新規,0,2023-11-16,2023-11-16,株式会社ｅｖｅｒ　ｆｒｅｅ　ｓｔｕｄｉｏ,,株式会社,東京都,中央区,銀座１丁目１２－４Ｎ＆ＥＢＬＤ．７階,,13,102,1040061,,,,,,,2023-11-16,1,,,,,エバーフリースタジオ,0
795,4010101015891,新規,0,2023-11-16,2023-11-16,ＥＬＯＮ株式会社,,株式会社,東京都,八王子市,横川町４８５‐１,,13,201,1930823,,,,,,,2023-11-16,1,,,,,イーロン,0
798,4010401178570,新規,0,2023-11-16,2023-11-16,株式会社何がなんでも,,株式会社,東京都,港区,白金１丁目２番１号白金ザ・スカイＥ４１９,,13,103,1080072,,,,,,,2023-11-16,1,,,,,ナニガナンデモ,0
799,4010401178579,新規,0,2023-11-16,2023-11-16,株式会社ＧＥＮＩＵＳ,,株式会社,東京都,港区,北青山１丁目３番１号アールキューブ青山３階,,13,103,1070061,,,,,,,2023-11-16,1,,,,,ゲニオス,0
801,4010405022717,新規,0,2023-11-16,2023-11-16,広島観音ロジスティクス特定目的会社,,その他の設立登記法人,東京都,港区,六本木１丁目６番１号泉ガーデンタワー,,13,103,1060032,,,,,,,2023-11-16,1,,,,,ヒロシマカンオンロジスティクス,0
803,4010501051363,新規,0,2023-11-16,2023-11-16,ＯＨＩＭＥ株式会社,,株式会社,東京都,台東区,上野５丁目１８番８号ＡＤＭａｎｓｉｏｎ２－２Ｆ,,13,106,1100005,,,,,,,2023-11-16,1,,,,,オヒメ,0
817,4010803004754,新規,0,2023-11-16,2023-11-16,合同会社布川宗親,,合同会社,東京都,大田区,西蒲田７丁目１２番６号,,13,111,1440051,,,,,,,2023-11-16,1,,,,,ヌノカワムネチカ,0
822,4010901054197,新規,0,2023-11-16,2023-11-16,ＹＦＫ　Ｍａｎａｇｅｍｅｎｔ株式会社,,株式会社,東京都,世田谷区,中町５丁目３１－１５,,13,112,1580091,,,,,,,2023-11-16,1,,,,,ワイエフケイマネジメント,0
831,4011001158194,新規,0,2023-11-16,2023-11-16,株式会社ＨＥＡＬＴＨＲＥＥ,,株式会社,東京都,渋谷区,道玄坂１丁目１０番８号渋谷道玄坂東急ビル２Ｆ－Ｃ,,13,113,1500043,,,,,,,2023-11-16,1,,,,,ヘルスリー,0
832,4011001158244,新規,0,2023-11-16,2023-11-16,Ｓｎａｐｒｏｌｅ株式会社,,株式会社,東京都,渋谷区,道玄坂１丁目１０番８号渋谷道玄坂東急ビル２Ｆ－Ｃ,,13,113,1500043,,,,,,,2023-11-16,1,,,,,スナップロール,0
840,4011101105154,新規,0,2023-11-16,2023-11-16,株式会社日本フォレストハウス,,株式会社,東京都,新宿区,西新宿３丁目３番１３号西新宿水間ビル２Ｆ,,13,104,1600023,,,,,,,2023-11-16,1,,,,,ニホンフォレストハウス,0
844,4011301029186,新規,0,2023-11-16,2023-11-16,株式会社エムアール・アモン,,株式会社,東京都,杉並区,浜田山１丁目３番９号,,13,115,1680065,,,,,,,2023-11-16,1,,,,,エムアールアモン,0
847,4011501029993,新規,0,2023-11-16,2023-11-16,株式会社ａｒａｎ,,株式会社,東京都,荒川区,東日暮里５丁目５０－５アートホテル日暮里ラングウッド３ＦＣ３３,,13,118,1160014,,,,,,,2023-11-16,1,,,,,アラン,0
851,4011603004135,新規,0,2023-11-16,2023-11-16,合同会社ｅｖｏｌｃｙｃｌｅ,,合同会社,東京都,練馬区,小竹町１丁目２０－１ヴィミナーレ八雲３０５,,13,120,1760004,,,,,,,2023-11-16,1,,,,,エヴォルサイクル,0
853,4011701026766,新規,0,2023-11-16,2023-11-16,Ｕｎｉｈｅｒｔｚ株式会社,,株式会社,東京都,江戸川区,西小岩１丁目２０番８号,,13,123,1330057,,,,,,,2023-11-16,1,,,,,ユニハーツ,0
854,4011703003656,新規,0,2023-11-16,2023-11-16,金太陽合同会社,,合同会社,東京都,江戸川区,平井３丁目２４番９－５０１号平井マンション,,13,123,1320035,,,,,,,2023-11-16,1,,,,,キンタイヨウ,0
855,4011803005940,新規,0,2023-11-16,2023-11-16,合同会社ＴＯＰ,,合同会社,東京都,足立区,栗原２丁目１２番１４号アパートメント宝谷２０１,,13,121,1230842,,,,,,,2023-11-16,1,,,,,トップ,0
861,4012701017945,新規,0,2023-11-16,2023-11-16,スマイリブホーム株式会社,,株式会社,東京都,東村山市,恩多町４丁目２番地６０、２Ｆ,,13,213,1890011,,,,,,,2023-11-16,1,,,,,スマイリブホーム,0
866,4013301051624,新規,0,2023-11-16,2023-11-16,株式会社ハコニワ,,株式会社,東京都,豊島区,東池袋４丁目５番１号エアライズタワー２２０２号,,13,116,1700013,,,,,,,2023-11-16,1,,,,,ハコニワ,0
867,4013301051632,新規,0,2023-11-16,2023-11-16,ｘＴｏｍ　Ｊａｐａｎ株式会社,,株式会社,東京都,豊島区,巣鴨１丁目１７番３－子野ビル２０３号,,13,116,1700002,,,,,,,2023-11-16,1,,,,,エックストムジャパン,0
868,4013303006881,新規,0,2023-11-16,2023-11-16,合同会社イントロダクトコンサルティング,,合同会社,東京都,豊島区,雑司が谷２丁目３番８号,,13,116,1710032,,,,,,,2023-11-16,1,,,,,イントロダクトコンサルティング,0
889,4030001157205,新規,0,2023-11-16,2023-11-16,那須商事株式会社,,株式会社,埼玉県,越谷市,川柳町３丁目２８７番地１号,,11,222,3430827,,,,,,,2023-11-16,1,,,,,ナスショウジ,0
895,4040001130945,新規,0,2023-11-16,2023-11-16,株式会社ＳｈｏｗＡｘｅｌ,,株式会社,千葉県,松戸市,馬橋３２３番地の１リブレアホースブリッジ１０４号,,12,207,2710051,,,,,,,2023-11-16,1,,,,,ショーアクセル,0
902,4040003023750,新規,0,2023-11-16,2023-11-16,合同会社Ｒａｓｈｉ　ｅｎｔｅｒｐｒｉｓｅ,,合同会社,千葉県,柏市,つくしが丘２丁目７番７号つくしが丘タウンハウス１０２号,,12,217,2770072,,,,,,,2023-11-16,1,,,,,ラシエンタープライズ,0
904,4050001053798,新規,0,2023-11-16,2023-11-16,ＳＤＨ株式会社,,株式会社,茨城県,稲敷市,犬塚９８１－１,00132676,08,229,3000507,,,,,,,2023-11-16,1,,,,,エスディーエッチ,0
905,4050001053831,新規,0,2023-11-16,2023-11-16,錦福産業株式会社,,株式会社,茨城県,土浦市,富士崎１丁目３番１５号,,08,203,3000813,,,,,,,2023-11-16,1,,,,,キンフクサンギョウ,0
913,4070001041082,新規,0,2023-11-16,2023-11-16,株式会社Ｐｒａｔｉｑｕｅ,,株式会社,群馬県,太田市,新田木崎町１７７１－３,,10,205,3700321,,,,,,,2023-11-16,1,,,,,,0
928,4120001259925,新規,0,2023-11-16,2023-11-16,株式会社ＫＯＮ,,株式会社,大阪府,大阪市生野区,桃谷５丁目１番２１号,,27,116,5440034,,,,,,,2023-11-16,1,,,,,ゴン,0
931,4120003025318,新規,0,2023-11-16,2023-11-16,関西方舟合同会社,,合同会社,大阪府,大阪市城東区,鴫野西２丁目２－８、３１１号,,27,118,5360014,,,,,,,2023-11-16,1,,,,,カンサイハコブネ,0
932,4120003025359,新規,0,2023-11-16,2023-11-16,ＦＭＳＳ合同会社,,合同会社,大阪府,大阪市東住吉区,南田辺３丁目１１番２１－３０６号,,27,121,5460033,,,,,,,2023-11-16,1,,,,,エフエムエスエス,0
936,4120903004924,新規,0,2023-11-16,2023-11-16,合同会社インノバーレ,,合同会社,大阪府,池田市,五月丘１丁目１番５号,,27,204,5630029,,,,,,,2023-11-16,1,,,,,インノバーレ,0
938,4122001037575,新規,0,2023-11-16,2023-11-16,楽書株式会社,,株式会社,大阪府,東大阪市,長瀬町１丁目１８番２６号,,27,227,5770832,,,,,,,2023-11-16,1,,,,,ラクショ,0
946,4130001075719,新規,0,2023-11-16,2023-11-16,伊藤商事株式会社,,株式会社,京都府,京都市伏見区,向島新上林町９６番地１,,26,109,6128152,,,,,,,2023-11-16,1,,,,,イトウショウジ,0
948,4140001132353,新規,0,2023-11-16,2023-11-16,株式会社ある活,,株式会社,兵庫県,神戸市北区,南五葉３丁目５番１８号,,28,109,6511132,,,,,,,2023-11-16,1,,,,,アルカツ,0
949,4150003003114,新規,0,2023-11-16,2023-11-16,スマートテック合同会社,,合同会社,奈良県,天理市,前栽町１０４番地１クラウンハイム天理フォレストコート３１１,,29,204,6320094,,,,,,,2023-11-16,1,,,,,スマートテック,0
956,4180001158923,新規,0,2023-11-16,2023-11-16,株式会社ａｃｒｏ,,株式会社,愛知県,瀬戸市,中品野町６６８番地の３,,23,204,4801218,,,,,,,2023-11-16,1,,,,,アクロ,0
957,4180001158948,新規,0,2023-11-16,2023-11-16,ＲＮＫ株式会社,,株式会社,愛知県,名古屋市昭和区,出口町１丁目１９番地の１,,23,107,4660041,,,,,,,2023-11-16,1,,,,,アールエヌケー,0
965,4180301038024,新規,0,2023-11-16,2023-11-16,株式会社あやめマネジメント,,株式会社,愛知県,安城市,三河安城町１丁目４番地４,,23,212,4460056,,,,,,,2023-11-16,1,,,,,アヤメマネジメント,0
969,4180303005906,新規,0,2023-11-16,2023-11-16,合同会社ＩＦＩ,,合同会社,愛知県,豊田市,朝日町５丁目２６番地１グローリアス豊田朝日町２１２号,,23,211,4710031,,,,,,,2023-11-16,1,,,,,アイエフアイ,0
978,4220001025689,新規,0,2023-11-16,2023-11-16,株式会社ＴＨＣマネジメント,,株式会社,石川県,河北郡津幡町,字津幡ハ１４番地,,17,361,9290323,,,,,,,2023-11-16,1,,,,,ティーエッチシーマネジメント,0
985,4270005005567,新規,0,2023-11-16,2023-11-16,協同組合海の声,,その他の設立登記法人,鳥取県,米子市,旗ヶ崎２丁目３番２５号,,31,202,6830845,,,,,,,2023-11-16,1,,,,,ウミノコエ,0
986,4280001009075,新規,0,2023-11-16,2023-11-16,株式会社向,,株式会社,島根県,松江市,宍道町佐々布２１８１番地１,,32,201,6990406,,,,,,,2023-11-16,1,,,,,ムカイ,0
1005,4330003010083,新規,0,2023-11-16,2023-11-16,合同会社カワグチ,,合同会社,熊本県,熊本市中央区,新屋敷２丁目１０番２０号,,43,101,8620975,,,,,,,2023-11-16,1,,,,,カワグチ,0
1007,4340001026080,新規,0,2023-11-16,2023-11-16,株式会社Ｃｈｅｌｏｎｉａ’Ｓ,,株式会社,鹿児島県,奄美市,名瀬朝仁町１３番地３メイスイビル朝仁３０６号,,46,222,8940042,,,,,,,2023-11-16,1,,,,,チェロニアス,0
1010,4360001032820,新規,0,2023-11-16,2023-11-16,株式会社美月,,株式会社,沖縄県,宮古島市,平良字西里１７１番地パティドゥビル１０２,,47,214,9060012,,,,,,,2023-11-16,1,,,,,ミツキ,0
1013,4360003013488,新規,0,2023-11-16,2023-11-16,合同会社Ｔｕｒｔｌｅｓ０９８,,合同会社,沖縄県,宜野湾市,我如古３丁目１５番２７号,,47,205,9012214,,,,,,,2023-11-16,1,,,,,タートルズゼロキューハチ,0
1015,4380001034138,新規,0,2023-11-16,2023-11-16,株式会社ウェルマインド,,株式会社,福島県,郡山市,八山田西１丁目９３番地,,07,203,9638053,,,,,,,2023-11-16,1,,,,,ウェルマインド,0
1016,4390001017422,新規,0,2023-11-16,2023-11-16,株式会社ＳＫＧ,,株式会社,山形県,東置賜郡高畠町,大字一本柳１７番地の３１,,06,381,9920334,,,,,,,2023-11-16,1,,,,,エスケージー,0
1017,4400001016463,新規,0,2023-11-16,2023-11-16,株式会社エステック,,株式会社,岩手県,岩手郡岩手町,大字土川第１地割４４１番地８,,03,303,0284423,,,,,,,2023-11-16,1,,,,,エステック,0
1028,4430005014832,新規,0,2023-11-16,2023-11-16,一般社団法人能美会,,その他の設立登記法人,北海道,札幌市白石区,菊水元町六条４丁目２番８号,,01,104,0030826,,,,,,,2023-11-16,1,,,,,ノウミカイ,0
1030,4440003001559,新規,0,2023-11-16,2023-11-16,合同会社ＷＩＳＥ,,合同会社,北海道,檜山郡厚沢部町,字美和１２５１番地３,,01,363,0431117,,,,,,,2023-11-16,1,,,,,ワイズ,0
1031,4460303000804,新規,0,2023-11-16,2023-11-16,優あんど愛合同会社,,合同会社,北海道,北見市,常呂町字常呂５３２番地,,01,208,0930210,,,,,,,2023-11-16,1,,,,,ユウアンドアイ,0
1036,4700150121513,新規,0,2023-11-16,2023-10-27,あまがさき市民ウォーク実行委員会,,その他,兵庫県,尼崎市,三反田町１丁目１番１号尼崎市教育・障害福祉センター４階,,28,202,6610024,,,,,,,2023-10-27,1,,,,,アマガサキシミンウオークジツコウイインカイ,0
1048,5010001240052,新規,0,2023-11-16,2023-11-16,株式会社Ｃａｒｅｅｒ　Ｅｄｉｔｏｒｓ,,株式会社,東京都,文京区,小日向４丁目４番６－５０３号,,13,105,1120006,,,,,,,2023-11-16,1,,,,,キャリアエディターズ,0
1049,5010001240102,新規,0,2023-11-16,2023-11-16,株式会社Ｕｓａｈａ　Ｊａｎａ　Ｊａｐａｎ,,株式会社,東京都,中央区,銀座７丁目１３番２０号銀座ＴＨビル９階,,13,102,1040061,,,,,,,2023-11-16,1,,,,,ウサハジャナジャパン,0
1054,5010003042182,新規,0,2023-11-16,2023-11-16,クレジット・ギャランティ９号合同会社,,合同会社,東京都,千代田区,内神田２丁目２番６号５階あすな会計事務所内,,13,101,1010047,,,,,,,2023-11-16,1,,,,,クレジットギャランティキュウゴウ,0
1055,5010003042249,新規,0,2023-11-16,2023-11-16,合同会社ＵＭ,,合同会社,東京都,中央区,入船３丁目１番６－９０４号,,13,102,1040042,,,,,,,2023-11-16,1,,,,,ユーエム,0
1059,5010101015890,新規,0,2023-11-16,2023-11-16,株式会社ＤＡＳＨ,,株式会社,東京都,八王子市,上柚木１１９７番地６,,13,201,1920373,,,,,,,2023-11-16,1,,,,,ダッシュ,0
1067,5010401178553,新規,0,2023-11-16,2023-11-16,薪橋株式会社,,株式会社,東京都,港区,三田１丁目７－１パークコート麻布十番ザ・タワー８０９室,,13,103,1080073,,,,,,,2023-11-16,1,,,,,シンキョウ,0
1068,5010401178578,新規,0,2023-11-16,2023-11-16,株式会社Ａｓｔｒｏｌａｂｅ　Ｌａｂｏ,,株式会社,東京都,港区,赤坂９丁目６番３５号,,13,103,1070052,,,,,,,2023-11-16,1,,,,,アストロラーベラボ,0
1077,5010405022716,新規,0,2023-11-16,2023-11-16,つくば谷田部ロジスティクス特定目的会社,,その他の設立登記法人,東京都,港区,六本木１丁目６番１号泉ガーデンタワー,,13,103,1060032,,,,,,,2023-11-16,1,,,,,ツクバヤタベロジスティクス,0
1084,5010701045123,新規,0,2023-11-16,2023-11-16,株式会社Ｌｉｂｉｏｎ,,株式会社,東京都,品川区,小山３丁目２１－１９クレール武蔵小山６０１,,13,109,1420062,,,,,,,2023-11-16,1,,,,,リビオン,0
1092,5011001158045,新規,0,2023-11-16,2023-11-16,株式会社バズった一一一２,,株式会社,東京都,目黒区,東山１丁目６－２ＴＰＲ中目黒ビル５階,,13,110,1530043,,,,,,,2023-11-16,1,,,,,バズッターニ,0
1093,5011001158251,新規,0,2023-11-16,2023-11-16,株式会社ごはく,,株式会社,東京都,渋谷区,千駄ヶ谷４丁目８番７号,,13,113,1510051,,,,,,,2023-11-16,1,,,,,ゴハク,0
1095,5011003017926,新規,0,2023-11-16,2023-11-16,合同会社ＳｈａｒｋＵｐ,,合同会社,東京都,渋谷区,神泉町１０番１５号アネックス神泉３０１,,13,113,1500045,,,,,,,2023-11-16,1,,,,,シャークアップ,0
1096,5011003017942,新規,0,2023-11-16,2023-11-16,合同会社ＶＯＣ,,合同会社,東京都,渋谷区,道玄坂１丁目１０番８号渋谷道玄坂東急ビル２Ｆ－Ｃ,,13,113,1500043,,,,,,,2023-11-16,1,,,,,ヴィーオーシー,0
1097,5011005010268,新規,0,2023-11-16,2023-11-16,一般財団法人ドーバー洋酒財団,,その他の設立登記法人,東京都,渋谷区,上原３丁目４３番３号,,13,113,1510064,,,,,,,2023-11-16,1,,,,,ドーバーヨウシュザイダン,0
1100,5011101105145,新規,0,2023-11-16,2023-11-16,日本幇潔株式会社,,株式会社,東京都,新宿区,歌舞伎町２丁目２５番８号,,13,104,1600021,,,,,,,2023-11-16,1,,,,,ジャパンバンジェ,0
1102,5011103013759,新規,0,2023-11-16,2023-11-16,合同会社キュー,,合同会社,東京都,新宿区,新宿１丁目３６番２号新宿第七葉山ビル３階,,13,104,1600022,,,,,,,2023-11-16,1,,,,,キュー,0
1103,5011105010861,新規,0,2023-11-16,2023-11-16,一般社団法人日本生活と科学研究所,,その他の設立登記法人,東京都,新宿区,大久保１丁目３番１４号９Ｆ,,13,104,1690072,,,,,,,2023-11-16,1,,,,,ニホンセイカツトカガクケンキュウジョ,0
1106,5011301029185,新規,0,2023-11-16,2023-11-16,株式会社ＳＬＹ,,株式会社,東京都,杉並区,高井戸西１丁目５番３９号ルーク高井戸２０１,,13,115,1680071,,,,,,,2023-11-16,1,,,,,スライ,0
1109,5011501029992,新規,0,2023-11-16,2023-11-16,株式会社ＰＡＲｃ,,株式会社,東京都,荒川区,東日暮里５丁目５０番５号,,13,118,1160014,,,,,,,2023-11-16,1,,,,,パーク,0
1112,5011603004134,新規,0,2023-11-16,2023-11-16,合同会社ふどうみち,,合同会社,東京都,練馬区,田柄４丁目３０番１７号ホープＭ上野２Ｆ,,13,120,1790073,,,,,,,2023-11-16,1,,,,,フドウミチ,0
1119,5012701017960,新規,0,2023-11-16,2023-11-16,株式会社有害鳥獣感染研究所,,株式会社,東京都,東久留米市,学園町２丁目３番６号,,13,222,2030021,,,,,,,2023-11-16,1,,,,,ユウガイチョウジュウカンセンケンキュウジョ,0
1122,5013301051623,新規,0,2023-11-16,2023-11-16,Ａｉ　Ｃｈａｎ株式会社,,株式会社,東京都,豊島区,上池袋１丁目３１番２３号第２吉岡ビル１０２号,,13,116,1700012,,,,,,,2023-11-16,1,,,,,アイチャン,0
1123,5013303006880,新規,0,2023-11-16,2023-11-16,大発合同会社,,合同会社,東京都,豊島区,池袋２丁目５６番１０号フラワーハイツ１０３号,,13,116,1710014,,,,,,,2023-11-16,1,,,,,ダイハツ,0
1137,5021005012940,新規,0,2023-11-16,2023-11-16,一般社団法人ｅｉｗａアカデミー,,その他の設立登記法人,神奈川県,綾瀬市,吉岡東４丁目６番３１号,,14,218,2521125,,,,,,,2023-11-16,1,,,,,エイワアカデミー,0
1145,5030001156627,新規,0,2023-11-16,2023-11-16,金昌隆株式会社,,株式会社,埼玉県,川越市,大字的場２１６４番地２２レジェンドハイムナカノ１０１号室,,11,201,3501101,,,,,,,2023-11-16,1,,,,,キンショウリュウ,0
1155,5040001130928,新規,0,2023-11-16,2023-11-16,株式会社和煌,,株式会社,千葉県,君津市,中島１１４２番地４,,12,225,2991106,,,,,,,2023-11-16,1,,,,,ワコウ,0
1156,5040001130944,新規,0,2023-11-16,2023-11-16,株式会社Ｇ・ｂｏｏｋ,,株式会社,千葉県,千葉市中央区,中央４丁目１０番１７号卑弥呼マンション７０４号,,12,101,2600013,,,,,,,2023-11-16,1,,,,,ジーブック,0
1157,5040001130952,新規,0,2023-11-16,2023-11-16,Ｂ‐ＷＯＯＤ株式会社,,株式会社,千葉県,野田市,柏寺５５番地１３,,12,208,2700214,,,,,,,2023-11-16,1,,,,,ビーウッド,0
1158,5040001130969,新規,0,2023-11-16,2023-11-16,ＧＢワークス株式会社,,株式会社,千葉県,市川市,新浜１丁目２１－２３テラスハウス行徳１号,,12,203,2720136,,,,,,,2023-11-16,1,,,,,,0
1160,5040003023667,新規,0,2023-11-16,2023-11-16,合同会社ＦＰアカウンティング,,合同会社,千葉県,印西市,美瀬１丁目２２番地６,,12,231,2701607,,,,,,,2023-11-16,1,,,,,エフピーアカウンティング,0
1163,5050001053839,新規,0,2023-11-16,2023-11-16,Ｙ＆Ｎ株式会社,,株式会社,茨城県,取手市,井野７８９番地５,,08,217,3020011,,,,,,,2023-11-16,1,,,,,ワイアンドエヌ,0
1168,5080401026846,新規,0,2023-11-16,2023-11-16,株式会社プレビー,,株式会社,静岡県,袋井市,徳光１４１番地の４,,22,216,4370054,,,,,,,2023-11-16,1,,,,,プレビー,0
1174,5100003007267,新規,0,2023-11-16,2023-11-16,合同会社白馬ＬＩＥＢＥ,,合同会社,長野県,北安曇郡白馬村,大字北城３７７８番地２,,20,485,3999301,,,,,,,2023-11-16,1,,,,,ハクバリーベ,0
1185,5120001259866,新規,0,2023-11-16,2023-11-16,株式会社いいじかん,,株式会社,大阪府,大阪市北区,梅田１丁目１－３大阪駅前第３ビル２９階１－１－１号室,,27,127,5300001,,,,,,,2023-11-16,1,,,,,イイジカン,0
1192,5120901048360,新規,0,2023-11-16,2023-11-16,株式会社Ａｌｃｅｄｏ,,株式会社,大阪府,高槻市,上田辺町６番２３－２０３号,,27,207,5690805,,,,,,,2023-11-16,1,,,,,アルケド,0
1196,5120903004931,新規,0,2023-11-16,2023-11-16,ｔｅｃｎｏｌｏｇｉａ　ｅ　ｃｕｏｒｅ合同会社,,合同会社,大阪府,高槻市,月見町３－１－５０４,,27,207,5691122,,,,,,,2023-11-16,1,,,,,テクノロジアイクオーレ,0
1205,5130003009145,新規,0,2023-11-16,2023-11-16,合同会社ＴｏｐＣｏｕｒｓｅ,,合同会社,京都府,京都市伏見区,深草相深町７番地１３,,26,109,6120004,,,,,,,2023-11-16,1,,,,,トップコース,0
1218,5170001017889,新規,0,2023-11-16,2023-11-16,Ｇｌｏｗ株式会社,,株式会社,和歌山県,日高郡みなべ町,西本庄７４９番地１,,30,391,6450027,,,,,,,2023-11-16,1,,,,,グロウ,0
1229,5180003025996,新規,0,2023-11-16,2023-11-16,蒼合同会社,,合同会社,愛知県,名古屋市中村区,名駅３丁目４番１０号アルティメイト名駅１ｓｔ２階,,23,105,4500002,,,,,,,2023-11-16,1,,,,,アオ,0
1232,5180301038023,新規,0,2023-11-16,2023-11-16,ハイティラ株式会社,,株式会社,愛知県,岡崎市,竜美南４丁目１４番地１４,,23,202,4440874,,,,,,,2023-11-16,1,,,,,ハイティラ,0
1233,5180303005905,新規,0,2023-11-16,2023-11-16,リーナ賃貸管理合同会社,,合同会社,愛知県,岡崎市,蓬莱町１丁目２４番地２,00132674,23,202,4440021,,,,,,,2023-11-16,1,,,,,リーナチンタイカンリ,0
1237,5190005011886,新規,0,2023-11-16,2023-11-16,医療法人ＹＯＵ,,その他の設立登記法人,三重県,員弁郡東員町,大字長深８８３ー１,,24,324,5110255,,,,,,,2023-11-16,1,,,,,ユー,0
1243,5230001020110,新規,0,2023-11-16,2023-11-16,鈴木興業株式会社,,株式会社,富山県,富山市,高内２１１番地１,,16,201,9392254,,,,,,,2023-11-16,1,,,,,スズキコウギョウ,0
1251,5240001062424,新規,0,2023-11-16,2023-11-16,株式会社ＴＣＨ,,株式会社,広島県,福山市,神村町５１８番地１,,34,207,7290112,,,,,,,2023-11-16,1,,,,,ティシーエイチ,0
1253,5250001020397,新規,0,2023-11-16,2023-11-16,株式会社ＲＩＮＥＸ,,株式会社,山口県,下関市,南部町２１番１９号,,35,201,7500006,,,,,,,2023-11-16,1,,,,,ライネックス,0
1258,5290001103768,新規,0,2023-11-16,2023-11-16,Ｐｉｇｒｏ株式会社,,株式会社,福岡県,福岡市中央区,天神２丁目３番１０号天神パインクレスト７１９号,,40,133,8100001,,,,,,,2023-11-16,1,,,,,,0
1264,5320003004234,新規,0,2023-11-16,2023-11-16,合同会社ベストウィステリア,,合同会社,大分県,大分市,高崎１丁目３番８号,,44,201,8700872,,,,,,,2023-11-16,1,,,,,ベストウィステリア,0
1271,5330001031460,新規,0,2023-11-16,2023-11-16,株式会社酒井塗装,,株式会社,熊本県,熊本市西区,春日７丁目２０番３６号Ｃ１０１,,43,103,8600047,,,,,,,2023-11-16,1,,,,,サカイトソウ,0
1276,5360003013487,新規,0,2023-11-16,2023-11-16,合同会社ＥＭＢ２４,,合同会社,沖縄県,那覇市,三原２丁目２４番地１８号１階,,47,201,9020063,,,,,,,2023-11-16,1,,,,,イーエムビートゥエンティーフォー,0
1278,5370003006374,新規,0,2023-11-16,2023-11-16,合同会社３Ｃ,,合同会社,宮城県,仙台市泉区,南光台南３丁目１４番３８号,,04,105,9818002,,,,,,,2023-11-16,1,,,,,サンシー,0
1279,5380003005615,新規,0,2023-11-16,2023-11-16,合同会社Ｏｌａ’ｉ企画,,合同会社,福島県,大沼郡金山町,大字大志字掛橋７６８,,07,445,9680005,,,,,,,2023-11-16,1,,,,,オライキカク,0
1292,5430001090430,新規,0,2023-11-16,2023-11-16,株式会社ＫＩＲＥＩＮＩ,,株式会社,北海道,虻田郡倶知安町,北七条東８丁目１番地１３,,01,400,0440007,,,,,,,2023-11-16,1,,,,,キレイニ,0
1293,5430001090439,新規,0,2023-11-16,2023-11-16,株式会社ＺＩＧ,,株式会社,北海道,江別市,あけぼの町３１番地１,,01,217,0670025,,,,,,,2023-11-16,1,,,,,ジグ,0
1299,5430003015633,新規,0,2023-11-16,2023-11-16,合同会社きずなグループＭ７,,合同会社,北海道,札幌市豊平区,平岸一条５丁目４番３０－１０３号,,01,105,0620931,,,,,,,2023-11-16,1,,,,,キズナグループエムセブン,0
1307,5470001019896,新規,0,2023-11-16,2023-11-16,ＷＯＲＬＤ　ＣＲＵＩＳＥ株式会社,,株式会社,香川県,観音寺市,坂本町６丁目４番８号,,37,205,7680067,,,,,,,2023-11-16,1,,,,,ワールドクルーズ,0
1313,5700150121545,新規,0,2023-11-16,2023-10-30,新潟市内科医会,,その他,新潟県,新潟市中央区,紫竹山３丁目３－１１,,15,103,9500914,,,,,,,2023-10-30,1,,,,,ニイガタシナイカイカイ,0
1324,6010001240068,新規,0,2023-11-16,2023-11-16,ピエゾポリマードットコム株式会社,,株式会社,東京都,文京区,本駒込６丁目２４番５号,,13,105,1130021,,,,,,,2023-11-16,1,,,,,ピエゾポリマードットコム,0
1325,6010001240134,新規,0,2023-11-16,2023-11-16,ＡＢＳ株式会社,,株式会社,東京都,中央区,日本橋３丁目１番６号あいおいニッセイ同和損保八重洲ビル１Ｆ,,13,102,1030027,,,,,,,2023-11-16,1,,,,,エービーエス,0
1326,6010001240150,新規,0,2023-11-16,2023-11-16,株式会社Ｖａｒｉａｔｉｏｎ,,株式会社,東京都,千代田区,神田錦町３丁目７番２号東京堂錦町ビルディング,,13,101,1010054,,,,,,,2023-11-16,1,,,,,バリエーション,0
1327,6010003042149,新規,0,2023-11-16,2023-11-16,Ｕ＆Ｃ　Ｔｅｃｈｎｉｃａｌ合同会社,,合同会社,東京都,中央区,銀座７丁目１３番２１号銀座ｓｉｎｒｏｋｕｓｙｕビル２階,,13,102,1040061,,,,,,,2023-11-16,1,,,,,ユーアンドシーテクニカル,0
1333,6010401178247,新規,0,2023-11-16,2023-11-16,０９１８株式会社,,株式会社,東京都,港区,西麻布４丁目１－１麻布霞町マンション２Ｆ,,13,103,1060031,,,,,,,2023-11-16,1,,,,,ゼロキュウイチハチ,0
1334,6010401178536,新規,0,2023-11-16,2023-11-16,株式会社ＶＡＬＢＥＮＴ,,株式会社,東京都,港区,南青山３丁目８番４０号,,13,103,1070062,,,,,,,2023-11-16,1,,,,,バルベント,0
1335,6010401178560,新規,0,2023-11-16,2023-11-16,株式会社アスパラントグループＳＰＣ１１号,,株式会社,東京都,港区,赤坂２丁目２３番１号,,13,103,1070052,,,,,,,2023-11-16,1,,,,,アスパラントグループエスピーシージュウイチゴウ,0
1336,6010401178569,新規,0,2023-11-16,2023-11-16,株式会社フォーティーンズ,,株式会社,東京都,港区,港南４丁目２－７シティタワー品川１３１７,,13,103,1080075,,,,,,,2023-11-16,1,,,,,フォーティーンズ,0
1341,6010403031395,新規,0,2023-11-16,2023-11-16,広島観音ロジスティクス合同会社,,合同会社,東京都,港区,六本木１丁目６番１号泉ガーデンタワー,,13,103,1060032,,,,,,,2023-11-16,1,,,,,ヒロシマカンオンロジスティクス,0
1346,6010501051353,新規,0,2023-11-16,2023-11-16,株式会社ＭＫｓｏｌｕｔｉｏｎ,,株式会社,東京都,台東区,小島２丁目２０番１１号ＬＩＧビル,,13,106,1110056,,,,,,,2023-11-16,1,,,,,エムケーソリューション,0
1351,6010705003563,新規,0,2023-11-16,2023-11-16,一般社団法人女流画家協会,,その他の設立登記法人,東京都,品川区,二葉４丁目１４番１０号女流画家協会事務所,,13,109,1420043,,,,,,,2023-11-16,1,,,,,ジョリュウガカキョウカイ,0
1352,6010803004752,新規,0,2023-11-16,2023-11-16,合同会社インゴット,,合同会社,東京都,大田区,久が原２丁目１４番１４号,,13,111,1460085,,,,,,,2023-11-16,1,,,,,インゴット,0
1358,6010901054187,新規,0,2023-11-16,2023-11-16,ＴＯＤＯＲＯＫＩ‐ＥＮ株式会社,,株式会社,東京都,世田谷区,等々力３丁目２１番４号,,13,112,1580082,,,,,,,2023-11-16,1,,,,,トドロキエン,0
1359,6010903008579,新規,0,2023-11-16,2023-11-16,Ａｏｉ不動産合同会社,,合同会社,東京都,世田谷区,船橋３丁目２４番３号ユニテ千歳船橋３０１,,13,112,1560055,,,,,,,2023-11-16,1,,,,,アオイフドウサン,0
1364,6011001158250,新規,0,2023-11-16,2023-11-16,株式会社ＧＺＬ　ＢＢＳ,,株式会社,東京都,渋谷区,恵比寿２丁目３２番１０号ベラカーサ広尾４０９,,13,113,1500013,,,,,,,2023-11-16,1,,,,,ジーゼットエルビービーエス,0
1367,6011003017925,新規,0,2023-11-16,2023-11-16,合同会社リボーン,,合同会社,東京都,渋谷区,円山町５番４号フィールＡ渋谷５２０,,13,113,1500044,,,,,,,2023-11-16,1,,,,,リボーン,0
1368,6011003017933,新規,0,2023-11-16,2023-11-16,リエゾン合同会社,,合同会社,東京都,目黒区,上目黒３丁目６番１８号,,13,110,1530051,,,,,,,2023-11-16,1,,,,,リエゾン,0
1369,6011003017941,新規,0,2023-11-16,2023-11-16,エイムアシスト合同会社,,合同会社,東京都,渋谷区,恵比寿西２丁目８番４号ＥＸ恵比寿西ビル５階,,13,113,1500021,,,,,,,2023-11-16,1,,,,,エイムアシスト,0
1374,6011301029184,新規,0,2023-11-16,2023-11-16,ふくき株式会社,,株式会社,東京都,杉並区,宮前１丁目１４番１６号アートイン杉並４０７,,13,115,1680081,,,,,,,2023-11-16,1,,,,,フクキ,0
1379,6011401025612,新規,0,2023-11-16,2023-11-16,コアラボグループ株式会社,,株式会社,東京都,板橋区,赤塚７丁目３番２０号,,13,119,1750092,,,,,,,2023-11-16,1,,,,,コアラボグループ,0
1380,6011403004176,新規,0,2023-11-16,2023-11-16,ＨＫ合同会社,,合同会社,東京都,板橋区,大山金井町５３番７号,,13,119,1730024,,,,,,,2023-11-16,1,,,,,,0
1381,6011405002269,新規,0,2023-11-16,2023-11-16,一般社団法人日本パートナーシップ教育協会,,その他の設立登記法人,東京都,板橋区,南常盤台１丁目１１番６号レフア南常盤台１０１号室,,13,119,1740072,,,,,,,2023-11-16,1,,,,,ニホンパートナーシップキョウイクキョウカイ,0
1382,6011501029975,新規,0,2023-11-16,2023-11-16,株式会社ＡＭＢＩＤＥＳＴＲＯ,,株式会社,東京都,荒川区,東日暮里４丁目３３番１２号,,13,118,1160014,,,,,,,2023-11-16,1,,,,,アンビデストロ,0
1383,6011501029991,新規,0,2023-11-16,2023-11-16,株式会社ＮＡＣＫ’Ｓ,,株式会社,東京都,荒川区,西尾久４丁目２８番４,,13,118,1160011,,,,,,,2023-11-16,1,,,,,ナックス,0
1384,6011501030000,新規,0,2023-11-16,2023-11-16,ＴＮＫファーマ株式会社,,株式会社,東京都,北区,志茂５丁目４番１号,,13,117,1150042,,,,,,,2023-11-16,1,,,,,ティエヌケイファーマ,0
1386,6011601027284,新規,0,2023-11-16,2023-11-16,株式会社Ｂｒｉｄｇｅ,,株式会社,東京都,練馬区,練馬２丁目６－４,,13,120,1760001,,,,,,,2023-11-16,1,,,,,ブリッジ,0
1391,6011801043346,新規,0,2023-11-16,2023-11-16,株式会社エステル,,株式会社,東京都,足立区,舎人６丁目２－１８,,13,121,1210831,,,,,,,2023-11-16,1,,,,,エステル,0
1392,6011801043354,新規,0,2023-11-16,2023-11-16,株式会社オフィスメンテナンス,,株式会社,東京都,足立区,綾瀬３丁目１９番１６号松代ビル２０２,,13,121,1200005,,,,,,,2023-11-16,1,,,,,オフィスメンテナンス,0
1395,6011803005939,新規,0,2023-11-16,2023-11-16,合同会社ＭＯＯＮ,,合同会社,東京都,足立区,鹿浜２丁目３０番１９号カーサメルヴェーユ１０２,,13,121,1230864,,,,,,,2023-11-16,1,,,,,ムーン,0
1398,6012401041137,新規,0,2023-11-16,2023-11-16,ｋｅｅｐｅｒ株式会社,,株式会社,東京都,多摩市,愛宕４丁目９番地の２５,,13,224,2060041,,,,,,,2023-11-16,1,,,,,キーパー,0
1399,6012401041228,新規,0,2023-11-16,2023-11-16,株式会社石和,,株式会社,東京都,三鷹市,上連雀７丁目３０番１７号,,13,204,1810012,,,,,,,2023-11-16,1,,,,,イシワ,0
1401,6012801022769,新規,0,2023-11-16,2023-11-16,ＴＧＣ株式会社,,株式会社,東京都,立川市,高松町２丁目２１－５,,13,202,1900011,,,,,,,2023-11-16,1,,,,,ティージーシー,0
1418,6020001154515,新規,0,2023-11-16,2023-11-16,株式会社アスリード,,株式会社,神奈川県,横浜市青葉区,柿の木台４５番地１４,,14,117,2270048,,,,,,,2023-11-16,1,,,,,アスリード,0
1426,6021001080759,新規,0,2023-11-16,2023-11-16,株式会社Ｕ‐Ｓｔｙｌｅ,,株式会社,神奈川県,相模原市緑区,橋本台１丁目１８番１０号,,14,151,2520132,,,,,,,2023-11-16,1,,,,,ユースタイル,0
1430,6021003013816,新規,0,2023-11-16,2023-11-16,合同会社Ｌａ　Ｂｅｌｌｅ　Ｌｕｎｅ,,合同会社,神奈川県,藤沢市,片瀬海岸１丁目１３―９クリオ湘南江ノ島グランマーレ７０４号,,14,205,2510035,,,,,,,2023-11-16,1,,,,,ラベルリュンヌ,0
1438,6030001157153,新規,0,2023-11-16,2023-11-16,株式会社ＡｓＴｒａｄｉｎｇ,,株式会社,埼玉県,さいたま市大宮区,三橋１丁目５７２番地,,11,103,3300856,,,,,,,2023-11-16,1,,,,,アストレーディング,0
1439,6030001157228,新規,0,2023-11-16,2023-11-16,Ｈ・Ｄメンテ株式会社,,株式会社,埼玉県,さいたま市緑区,太田窪１丁目９番８号,,11,109,3360936,,,,,,,2023-11-16,1,,,,,エイチディーメンテ,0
1445,6030003022999,新規,0,2023-11-16,2023-11-16,合同会社ハクマイ,,合同会社,埼玉県,戸田市,南町１番３４号アンレーヴ戸田公園１０３号室,,11,224,3350025,,,,,,,2023-11-16,1,,,,,ハクマイ,0
1446,6030003023007,新規,0,2023-11-16,2023-11-16,合同会社だるま,,合同会社,埼玉県,越谷市,レイクタウン１丁目１０番地１８,,11,222,3430828,,,,,,,2023-11-16,1,,,,,ダルマ,0
1449,6040001130927,新規,0,2023-11-16,2023-11-16,株式会社琉心,,株式会社,千葉県,市原市,玉前１５５番地４,,12,219,2900041,,,,,,,2023-11-16,1,,,,,リュウシン,0
1450,6040001130935,新規,0,2023-11-16,2023-11-16,ＦＵＮＺ株式会社,,株式会社,千葉県,千葉市中央区,神明町１３番地１神明ビル１Ｆ,,12,101,2600022,,,,,,,2023-11-16,1,,,,,ファンズ,0
1451,6040001130951,新規,0,2023-11-16,2023-11-16,株式会社セフォラ,,株式会社,千葉県,千葉市美浜区,磯辺１丁目４２番１４号,,12,106,2610012,,,,,,,2023-11-16,1,,,,,セフォラ,0
1453,6040003023740,新規,0,2023-11-16,2023-11-16,Ｇｌｏｂａｌ　Ｓｃｉｅｎｃｅ　Ｕｎｉｏｎ合同会社,,合同会社,千葉県,市川市,妙典５丁目１番２１－２１３号,,12,203,2720111,,,,,,,2023-11-16,1,,,,,グローバルサイエンスユニオン,0
1454,6040003023749,新規,0,2023-11-16,2023-11-16,エステュアリーコンサルティング合同会社,,合同会社,千葉県,浦安市,弁天１丁目２２－３５,,12,227,2790026,,,,,,,2023-11-16,1,,,,,エステュアリーコンサルティング,0
1458,6050003007949,新規,0,2023-11-16,2023-11-16,ＭＩＮＨ　ＫＨＯＩ合同会社,,合同会社,茨城県,下妻市,下妻乙３５３番地１３,,08,210,3040067,,,,,,,2023-11-16,1,,,,,ミンコイ,0
1467,6100001036977,新規,0,2023-11-16,2023-11-16,ウェルネスツーリズム株式会社,,株式会社,長野県,北佐久郡軽井沢町,大字長倉７番地７１,,20,321,3890111,,,,,,,2023-11-16,1,,,,,ウェルネスツーリズム,0
1468,6100003007266,新規,0,2023-11-16,2023-11-16,合同会社アンバーデザイン,,合同会社,長野県,上田市,本郷１２６０番地３－４０５,,20,203,3861323,,,,,,,2023-11-16,1,,,,,アンバーデザイン,0
1469,6100005013097,新規,0,2023-11-16,2023-11-16,一般社団法人楽交,,その他の設立登記法人,長野県,茅野市,玉川７４０１番地,,20,214,3910011,,,,,,,2023-11-16,1,,,,,ガッコウ,0
1485,6120001259816,新規,0,2023-11-16,2023-11-16,青藤株式会社,,株式会社,大阪府,大阪市西淀川区,歌島１丁目１１番１３－３０１号,,27,113,5550021,,,,,,,2023-11-16,1,,,,,アオトウ,0
1486,6120001259865,新規,0,2023-11-16,2023-11-16,株式会社松田経営コンサルティング,,株式会社,大阪府,大阪市東住吉区,住道矢田６丁目１３番１０号,,27,121,5460022,,,,,,,2023-11-16,1,,,,,マツダケイエイコンサルティング,0
1487,6120003025349,新規,0,2023-11-16,2023-11-16,合同会社ＳＷＡＧ,,合同会社,大阪府,大阪市住之江区,中加賀屋３丁目４番２５号フジパレス加賀屋ＩＩ番館３０３,00132675,27,125,5590017,,,,,,,2023-11-16,1,,,,,スワッグ,0
1493,6120901048368,新規,0,2023-11-16,2023-11-16,株式会社エヌワークス,,株式会社,大阪府,池田市,城南１丁目２番２６－７０５号,,27,204,5630025,,,,,,,2023-11-16,1,,,,,エヌワークス,0
1494,6120903004922,新規,0,2023-11-16,2023-11-16,合同会社ＪＴスタジオ,,合同会社,大阪府,箕面市,西小路３丁目１３番１５－５０１号,,27,220,5620003,,,,,,,2023-11-16,1,,,,,ジェイティースタジオ,0
1499,6130001075725,新規,0,2023-11-16,2023-11-16,コロコロスタイル株式会社,,株式会社,京都府,京都市山科区,椥辻東潰２８番地３,,26,110,6078163,,,,,,,2023-11-16,1,,,,,コロコロスタイル,0
1505,6140001132343,新規,0,2023-11-16,2023-11-16,株式会社ｂａｒｏｎ,,株式会社,兵庫県,神戸市中央区,中山手通１丁目２７番１０号,,28,110,6500004,,,,,,,2023-11-16,1,,,,,バロン,0
1506,6140001132368,新規,0,2023-11-16,2023-11-16,株式会社木村興業,,株式会社,兵庫県,神戸市東灘区,御影石町１丁目８－２６－６０３,,28,101,6580045,,,,,,,2023-11-16,1,,,,,キムラコウギョウ,0
1517,6180001158979,新規,0,2023-11-16,2023-11-16,株式会社Ａｕｔｈｅｎｔｉｃ　Ｊａｐａｎ,,株式会社,愛知県,名古屋市北区,米が瀬町１１５番地の３,,23,103,4620031,,,,,,,2023-11-16,1,,,,,オーセンティックジャパン,0
1521,6180003025995,新規,0,2023-11-16,2023-11-16,ｍ．ｔａｋａｎｏ合同会社,,合同会社,愛知県,清須市,西田中松本３２番地,,23,233,4520933,,,,,,,2023-11-16,1,,,,,エムドットタカノ,0
1523,6180303005904,新規,0,2023-11-16,2023-11-16,合同会社チャンス,,合同会社,愛知県,豊川市,市田町河尻８９番地の４,,23,207,4420862,,,,,,,2023-11-16,1,,,,,チャンス,0
1530,6190003004503,新規,0,2023-11-16,2023-11-16,Ｎａｌｍａｒｔ合同会社,,合同会社,三重県,松阪市,大黒田町５６４番地２,,24,204,5150063,,,,,,,2023-11-16,1,,,,,ナルマート,0
1532,6200001041901,新規,0,2023-11-16,2023-11-16,株式会社Ｌｉｎｋｔｒｅｅ,,株式会社,岐阜県,岐阜市,九重町３丁目１番地,,21,201,5008146,,,,,,,2023-11-16,1,,,,,リンクツリー,0
1534,6200003006159,新規,0,2023-11-16,2023-11-16,合同会社Ａｍｉｇｏ,,合同会社,岐阜県,大垣市,和合本町２丁目１１番地２サンフィールド１０５,,21,202,5030005,,,,,,,2023-11-16,1,,,,,アミーゴ,0
1538,6220003003625,新規,0,2023-11-16,2023-11-16,しぇあらいふ金澤合同会社,,合同会社,石川県,金沢市,米泉町１０丁目１番地１５４（２０１号）,,17,201,9218044,,,,,,,2023-11-16,1,,,,,シェアライフカナザワ,0
1540,6240005015682,新規,0,2023-11-16,2023-11-16,一般社団法人ＯＵＤＡ会,,その他の設立登記法人,広島県,福山市,丸之内１丁目２番３２－９０４号,,34,207,7200061,,,,,,,2023-11-16,1,,,,,オーユーディーエーカイ,0
1542,6250001020396,新規,0,2023-11-16,2023-11-16,株式会社リバティ,,株式会社,山口県,岩国市,山手町１丁目９番１６号,,35,208,7400022,,,,,,,2023-11-16,1,,,,,リバティ,0
1545,6260001038487,新規,0,2023-11-16,2023-11-16,株式会社ＩＴＡＤＡＫＩ,,株式会社,岡山県,岡山市北区,辰巳３７番地１２３,,33,101,7000976,,,,,,,2023-11-16,1,,,,,イタダキ,0
1546,6260001038495,新規,0,2023-11-16,2023-11-16,Ｒ．Ｄ．Ｅ株式会社,,株式会社,岡山県,岡山市北区,中央町４－２７パークサイドプラザ３０２,,33,101,7000836,,,,,,,2023-11-16,1,,,,,アールディーイー,0
1557,6290001103767,新規,0,2023-11-16,2023-11-16,株式会社サニーゴー,,株式会社,福岡県,福岡市中央区,渡辺通２丁目４番８号,,40,133,8100004,,,,,,,2023-11-16,1,,,,,,0
1561,6290003014616,新規,0,2023-11-16,2023-11-16,合同会社Ｔｗｏ　Ｈｅａｒｔｓ　Ｉｎｔｅｒｎａｔｉｏｎａｌ,,合同会社,福岡県,久留米市,六ツ門町２－１５ワイユー第７ビル２階,,40,203,8300031,,,,,,,2023-11-16,1,,,,,トゥーハーツインターナショナル,0
1571,6360001032819,新規,0,2023-11-16,2023-11-16,株式会社丸仁トラスト,,株式会社,沖縄県,中頭郡西原町,字津花波１８７番地の４,,47,329,9030123,,,,,,,2023-11-16,1,,,,,マルジントラスト,0
1587,6430003015632,新規,0,2023-11-16,2023-11-16,合同会社柿本建設工業,,合同会社,北海道,北広島市,大曲８０４番１１８,,01,234,0611270,,,,,,,2023-11-16,1,,,,,カキモトケンセツコウギョウ,0
1602,7010001240059,新規,0,2023-11-16,2023-11-16,株式会社ＭＥＤＩＫＵＬ,,株式会社,東京都,千代田区,麹町５丁目３－２３日テレ四谷ビル１０Ｆ,,13,101,1020083,,,,,,,2023-11-16,1,,,,,メディクル,0
1605,7010003042206,新規,0,2023-11-16,2023-11-16,慶應管財合同会社,,合同会社,東京都,中央区,銀座１丁目２２番１１号銀座大竹ビジデンス２Ｆ,,13,102,1040061,,,,,,,2023-11-16,1,,,,,ケイオウカンザイ,0
1609,7010005037534,新規,0,2023-11-16,2023-11-16,一般社団法人サターン,,その他の設立登記法人,東京都,千代田区,霞が関３丁目２番５号,,13,101,1000013,,,,,,,2023-11-16,1,,,,,サターン,0
1615,7010401178576,新規,0,2023-11-16,2023-11-16,株式会社ＸＬＩＮＫ,,株式会社,東京都,港区,浜松町２丁目２番１５号浜松町ダイヤビル２Ｆ,,13,103,1050013,,,,,,,2023-11-16,1,,,,,エックスリンク,0
1616,7010401178584,新規,0,2023-11-16,2023-11-16,株式会社Ｘ＆Ｒ　ＧＬＯＢＡＬ,,株式会社,東京都,港区,北青山２丁目５番１号,,13,103,1070061,,,,,,,2023-11-16,1,,,,,エックスアンドアールグローバル,0
1617,7010401178601,新規,0,2023-11-16,2023-11-16,株式会社ＣＯＲＥ,,株式会社,東京都,港区,東新橋２丁目１－６,,13,103,1050021,,,,,,,2023-11-16,1,,,,,コア,0
1618,7010403031353,新規,0,2023-11-16,2023-11-16,Ｘ＆Ｍａｎａｇｅｍｅｎｔ　Ｊａｐａｎ合同会社,,合同会社,東京都,港区,赤坂１丁目１２番３２号アーク森ビル３６階,,13,103,1070052,,,,,,,2023-11-16,1,,,,,エックスアンドマネジメントジャパン,0
1619,7010403031361,新規,0,2023-11-16,2023-11-16,合同会社Ｋｉｎｅｃｔ　ｂｅ,,合同会社,東京都,港区,浜松町２丁目２番１５号浜松町ダイヤビル２Ｆ,,13,103,1050013,,,,,,,2023-11-16,1,,,,,キネクトビー,0
1620,7010403031378,新規,0,2023-11-16,2023-11-16,合同会社ＴｗｏＴｈｒｅｅ３３,,合同会社,東京都,港区,麻布十番１丁目５－１０アトラスビル４－６Ｆ,,13,103,1060045,,,,,,,2023-11-16,1,,,,,ツースリーサンサン,0
1622,7010405022706,新規,0,2023-11-16,2023-11-16,一般社団法人永和こども会,,その他の設立登記法人,東京都,港区,三田１丁目１１番３３号,,13,103,1080073,,,,,,,2023-11-16,1,,,,,エイワコドモカイ,0
1623,7010405022714,新規,0,2023-11-16,2023-11-16,千葉一般社団法人,,その他の設立登記法人,東京都,港区,赤坂２丁目１４番５号,,13,103,1070052,,,,,,,2023-11-16,1,,,,,チバ,0
1627,7010601064147,新規,0,2023-11-16,2023-11-16,株式会社マーナホールディングス,,株式会社,東京都,墨田区,東駒形１丁目３番１５号,,13,107,1300005,,,,,,,2023-11-16,1,,,,,マーナホールディングス,0
1632,7010901054211,新規,0,2023-11-16,2023-11-16,株式会社ヌメロワン,,株式会社,東京都,世田谷区,宮坂２丁目７番１０号,,13,112,1560051,,,,,,,2023-11-16,1,,,,,ヌメロワン,0
1640,7011001158183,新規,0,2023-11-16,2023-11-16,ソライエ株式会社,,株式会社,東京都,渋谷区,渋谷１丁目３番１８号ビラ・モデルナＡ９０２,,13,113,1500002,,,,,,,2023-11-16,1,,,,,ソライエ,0
1641,7011001158241,新規,0,2023-11-16,2023-11-16,無電柱株式会社,,株式会社,東京都,渋谷区,道玄坂１丁目１０番８号渋谷道玄坂東急ビル２Ｆ－Ｃ,,13,113,1500043,,,,,,,2023-11-16,1,,,,,ムデンチュウ,0
1644,7011003017932,新規,0,2023-11-16,2023-11-16,合同会社ワールドピュアレスト,,合同会社,東京都,渋谷区,幡ヶ谷３丁目５２番１２号アーバンステージ幡ヶ谷２０２,,13,113,1510072,,,,,,,2023-11-16,1,,,,,ワールドピュアレスト,0
1650,7011103013740,新規,0,2023-11-16,2023-11-16,合同会社ミヤケ商事,,合同会社,東京都,新宿区,北新宿１丁目２７番１５号Ａｒｔｅ柏木２０２,,13,104,1690074,,,,,,,2023-11-16,1,,,,,ミヤケショウジ,0
1653,7011301029183,新規,0,2023-11-16,2023-11-16,株式会社竜善警備保障,,株式会社,東京都,杉並区,松ノ木２丁目２７番１１－１０１,,13,115,1660014,,,,,,,2023-11-16,1,,,,,リュウゼンケイビホショウ,0
1658,7011801043262,新規,0,2023-11-16,2023-11-16,鼎信株式会社,,株式会社,東京都,足立区,中川２丁目１３－２ジョイフル亀有４０１,,13,121,1200002,,,,,,,2023-11-16,1,,,,,,0
1659,7011801043345,新規,0,2023-11-16,2023-11-16,株式会社豪成,,株式会社,東京都,足立区,伊興３丁目１番９号,,13,121,1210823,,,,,,,2023-11-16,1,,,,,ゴウセイ,0
1660,7011801043353,新規,0,2023-11-16,2023-11-16,株式会社ストアエージェント,,株式会社,東京都,足立区,綾瀬３丁目１９番１６号松代ビル２０２,,13,121,1200005,,,,,,,2023-11-16,1,,,,,ストアエージェント,0
1661,7011803005946,新規,0,2023-11-16,2023-11-16,宮本企画合同会社,,合同会社,東京都,葛飾区,南水元４丁目１６番７号,,13,122,1250035,,,,,,,2023-11-16,1,,,,,ミヤモトキカク,0
1664,7012701017950,新規,0,2023-11-16,2023-11-16,ｙｕ＆ｙｏ株式会社,,株式会社,東京都,清瀬市,松山１丁目２番２３－６０４号,,13,221,2040022,,,,,,,2023-11-16,1,,,,,ユーアンドヨー,0
1668,7013301051621,新規,0,2023-11-16,2023-11-16,株式会社ＨＴｓｕｎｇｌｅ,,株式会社,東京都,豊島区,西巣鴨１丁目２番２２号ＷＡＮＤＡビル２階,,13,116,1700001,,,,,,,2023-11-16,1,,,,,エイチティーサングル,0
1675,7020001154530,新規,0,2023-11-16,2023-11-16,ｙａｍｍ　ｄａｉｌｙｐｌｕｓ株式会社,,株式会社,神奈川県,横浜市南区,花之木町２丁目３８番地レ・ジェイド横濱花之木２０９,,14,105,2320018,,,,,,,2023-11-16,1,,,,,ヤムムデイリープラス,0
1691,7030001157152,新規,0,2023-11-16,2023-11-16,凱先生株式会社,,株式会社,埼玉県,蕨市,南町３丁目１４－１１－１０１室,,11,223,3350003,,,,,,,2023-11-16,1,,,,,カイセンセイ,0
1692,7030001157177,新規,0,2023-11-16,2023-11-16,正茂株式会社,,株式会社,埼玉県,北葛飾郡松伏町,大字築比地１３２５番地１,,11,465,3430102,,,,,,,2023-11-16,1,,,,,ヒロマサ,0
1702,7040001130926,新規,0,2023-11-16,2023-11-16,株式会社シャイン,,株式会社,千葉県,茂原市,萩原町３丁目２０番地１９,,12,210,2970018,,,,,,,2023-11-16,1,,,,,シャイン,0
1703,7040001130942,新規,0,2023-11-16,2023-11-16,株式会社ＭＩＹＡＢＩ,,株式会社,千葉県,八千代市,平戸９４５番地,,12,221,2760017,,,,,,,2023-11-16,1,,,,,ミヤビ,0
1704,7040001130959,新規,0,2023-11-16,2023-11-16,株式会社嘉益,,株式会社,千葉県,香取市,福田９５９番地２９,,12,236,2870024,,,,,,,2023-11-16,1,,,,,カエキ,0
1706,7040003023748,新規,0,2023-11-16,2023-11-16,合同会社アクセス,,合同会社,千葉県,柏市,柏４丁目６番３号２１世紀第二ビルＢ１Ｆ,,12,217,2770005,,,,,,,2023-11-16,1,,,,,アクセス,0
1708,7050001053829,新規,0,2023-11-16,2023-11-16,ＣＳＴ株式会社,,株式会社,茨城県,つくば市,研究学園４丁目２番地１４エビスタウンＤ１０１,,08,220,3050817,,,,,,,2023-11-16,1,,,,,シーエスティ,0
1709,7050003007915,新規,0,2023-11-16,2023-11-16,ＮＡ‐ＬＩ合同会社,,合同会社,茨城県,常総市,水海道宝町２７６３番地５エビスビル２０１,,08,211,3030023,,,,,,,2023-11-16,1,,,,,ナーリ,0
1710,7050003007948,新規,0,2023-11-16,2023-11-16,合同会社青木解体,,合同会社,茨城県,古河市,東山田３９７０番地,,08,204,3060112,,,,,,,2023-11-16,1,,,,,アオキカイタイ,0
1712,7080103002920,新規,0,2023-11-16,2023-11-16,合同会社海と山と空と,,合同会社,静岡県,賀茂郡西伊豆町,宇久須１１５―２,,22,306,4103501,,,,,,,2023-11-16,1,,,,,ウミトヤマトソラト,0
1716,7100003007265,新規,0,2023-11-16,2023-11-16,伊那金属産業合同会社,,合同会社,長野県,伊那市,小沢７７２４番地２,,20,209,3960032,,,,,,,2023-11-16,1,,,,,イナキンゾクサンギョウ,0
1717,7100005013096,新規,0,2023-11-16,2023-11-16,一般社団法人長野県クラフト振興協会,,その他の設立登記法人,長野県,松本市,平田東１丁目１９番１５号,,20,202,3990014,,,,,,,2023-11-16,1,,,,,ナガノケンクラフトシンコウキョウカイ,0
1724,7120001259848,新規,0,2023-11-16,2023-11-16,株式会社よし,,株式会社,大阪府,大阪市西淀川区,御幣島１丁目１８番２－１１２号,,27,113,5550012,,,,,,,2023-11-16,1,,,,,ヨシ,0
1725,7120001259864,新規,0,2023-11-16,2023-11-16,株式会社ラッシュ,,株式会社,大阪府,交野市,郡津３丁目４８番１０号,,27,230,5760053,,,,,,,2023-11-16,1,,,,,ラッシュ,0
1726,7120001259914,新規,0,2023-11-16,2023-11-16,千尋株式会社,,株式会社,大阪府,大阪市生野区,中川３丁目６番１７号,,27,116,5440005,,,,,,,2023-11-16,1,,,,,チヒロ,0
1731,7120003025348,新規,0,2023-11-16,2023-11-16,順欣合同会社,,合同会社,大阪府,大阪市中央区,島之内２丁目６番５－２５号,,27,128,5420082,,,,,,,2023-11-16,1,,,,,ジュンキン,0
1732,7120005023985,新規,0,2023-11-16,2023-11-16,一般社団法人日本理化学機構,,その他の設立登記法人,大阪府,大阪市北区,天満２丁目１番８号,,27,127,5300043,,,,,,,2023-11-16,1,,,,,ニホンリカガクキコウ,0
1733,7120005023993,新規,0,2023-11-16,2023-11-16,一般社団法人日本キックボクシングリーグ機構,,その他の設立登記法人,大阪府,大阪市北区,錦町３番１号龍王ビル,,27,127,5300034,,,,,,,2023-11-16,1,,,,,ニホンキックボクシングリーグキコウ,0
1736,7120101068538,新規,0,2023-11-16,2023-11-16,株式会社ベストクリエイト,,株式会社,大阪府,岸和田市,沼町３０番８号,,27,202,5960053,,,,,,,2023-11-16,1,,,,,ベストクリエイト,0
1741,7120901048367,新規,0,2023-11-16,2023-11-16,墓参代行株式会社,,株式会社,大阪府,箕面市,瀬川１丁目１２番２３号,,27,220,5620045,,,,,,,2023-11-16,1,,,,,ボサンダイコウ,0
1743,7120903004921,新規,0,2023-11-16,2023-11-16,合同会社裕恵,,合同会社,大阪府,摂津市,新在家１丁目２６番１３号,,27,224,5660055,,,,,,,2023-11-16,1,,,,,ユウケイ,0
1744,7122001037580,新規,0,2023-11-16,2023-11-16,株式会社Ｌｉｓ　Ｒｏｓｅ,,株式会社,大阪府,大東市,灰塚２丁目６番２０号,,27,218,5740043,,,,,,,2023-11-16,1,,,,,リホーズ,0
1752,7130001075749,新規,0,2023-11-16,2023-11-16,株式会社古美術柳,,株式会社,京都府,京都市東山区,大和大路通新門前上る西之町１９５番地,,26,105,6050088,,,,,,,2023-11-16,1,,,,,コビジュツヤナギ,0
1776,7180001158929,新規,0,2023-11-16,2023-11-16,株式会社Ｊｅｅｃｏ,,株式会社,愛知県,春日井市,高山町２丁目３番地１３グランソレイユ２０２号,,23,206,4860912,,,,,,,2023-11-16,1,,,,,ジーコ,0
1777,7180001158978,新規,0,2023-11-16,2023-11-16,株式会社癸卯建設,,株式会社,愛知県,名古屋市北区,矢田町１丁目３曽我ガラス２階,,23,103,4620812,,,,,,,2023-11-16,1,,,,,キボウケンセツ,0
1780,7180003026002,新規,0,2023-11-16,2023-11-16,Ｍ＆Ｔ合同会社,,合同会社,愛知県,名古屋市中区,千代田２丁目２５番１１号第３宮地マンション記念橋８０７号,,23,106,4600012,,,,,,,2023-11-16,1,,,,,エムアンドティー,0
1781,7180003026010,新規,0,2023-11-16,2023-11-16,合同会社ピュアグリーン,,合同会社,愛知県,常滑市,本郷町４丁目１３,,23,216,4790853,,,,,,,2023-11-16,1,,,,,ピュアグリーン,0
1782,7180301038038,新規,0,2023-11-16,2023-11-16,株式会社タウン,,株式会社,愛知県,刈谷市,高津波町３丁目６０３番地,,23,210,4480047,,,,,,,2023-11-16,1,,,,,タウン,0
1794,7240001062430,新規,0,2023-11-16,2023-11-16,株式会社Ｎｅｉｇｈｂｏｒ’ｓ,,株式会社,広島県,広島市東区,中山上２丁目２９番６号,,34,102,7320027,,,,,,,2023-11-16,1,,,,,ネイバーズ,0
1806,7290001103766,新規,0,2023-11-16,2023-11-16,株式会社Ｃ‐２,,株式会社,福岡県,福岡市中央区,薬院２丁目７－２９－７０５,,40,133,8100022,,,,,,,2023-11-16,1,,,,,シーツー,0
1810,7290803004542,新規,0,2023-11-16,2023-11-16,合同会社サニーテックソアソリューションズ,,合同会社,福岡県,北九州市若松区,塩屋４丁目１番４－４１１号,,40,103,8080131,,,,,,,2023-11-16,1,,,,,サニーテックソアソリューションズ,0
1812,7310003004679,新規,0,2023-11-16,2023-11-16,合同会社万事屋,,合同会社,長崎県,長崎市,小江原５丁目２６番１５号,,42,201,8511132,,,,,,,2023-11-16,1,,,,,ヨロズヤ,0
1813,7330001031459,新規,0,2023-11-16,2023-11-16,株式会社坂田建設,,株式会社,熊本県,熊本市南区,八分字町２９０９番地３,,43,104,8615253,,,,,,,2023-11-16,1,,,,,,0
1824,7380001034135,新規,0,2023-11-16,2023-11-16,帝建商株式会社,,株式会社,福島県,いわき市,平下神谷字内宿１３番地の２,,07,204,9700101,,,,,,,2023-11-16,1,,,,,ミカドケンショウ,0
1826,7390005009041,新規,0,2023-11-16,2023-11-16,特定非営利活動法人たかだま児童クラブ,,その他の設立登記法人,山形県,天童市,大字長岡１７２６番地,,06,210,9940066,,,,,,,2023-11-16,1,,,,,タカダマジドウクラブ,0
1831,7400003003176,新規,0,2023-11-16,2023-11-16,合同会社シーム,,合同会社,岩手県,一関市,萩荘字千ノ沢８１番地２０コーポグリーンヒル１０２号,,03,209,0210902,,,,,,,2023-11-16,1,,,,,シーム,0
1840,7440003001556,新規,0,2023-11-16,2023-11-16,合同会社ＢＩＧ　Ｂ,,合同会社,北海道,山越郡長万部町,字長万部４３４番地２０３,,01,347,0493521,,,,,,,2023-11-16,1,,,,,,0
1847,7490005006912,新規,0,2023-11-16,2023-11-16,一般社団法人愛が鍾まる,,その他の設立登記法人,高知県,高知市,若草町１６番５号Ａ棟,,39,201,7808081,,,,,,,2023-11-16,1,,,,,アイガアツマル,0
1865,8010001240090,新規,0,2023-11-16,2023-11-16,ＰｒｉｍｅＰａｔｈ株式会社,,株式会社,東京都,中央区,日本橋室町１丁目１１番１２号日本橋水野ビル７階,,13,102,1030022,,,,,,,2023-11-16,1,,,,,プライムパス,0
1866,8010001240116,新規,0,2023-11-16,2023-11-16,株式会社マーボスコンサルタント,,株式会社,東京都,中央区,八丁堀３丁目６番５号佐野ビル２０１,,13,102,1040032,,,,,,,2023-11-16,1,,,,,マーボスコンサルタント,0
1867,8010003042196,新規,0,2023-11-16,2023-11-16,フォーラムナイン合同会社,,合同会社,東京都,千代田区,外神田６丁目１３番１号,,13,101,1010021,,,,,,,2023-11-16,1,,,,,フォーラムナイン,0
1868,8010005037525,新規,0,2023-11-16,2023-11-16,一般社団法人睡眠ヘルスケア協議会,,その他の設立登記法人,東京都,千代田区,紀尾井町３番３３号プリンス通ビル２階,,13,101,1020094,,,,,,,2023-11-16,1,,,,,スイミンヘルスケアキョウギカイ,0
1877,8010401178559,新規,0,2023-11-16,2023-11-16,株式会社ＧＬＳ,,株式会社,東京都,港区,新橋６丁目２０番１１号,,13,103,1050004,,,,,,,2023-11-16,1,,,,,ジーエルエス,0
1881,8010403031360,新規,0,2023-11-16,2023-11-16,合同会社Ｇｒｉｎ　Ｌｉｆｅ,,合同会社,東京都,港区,北青山１丁目３番１号アールキューブ青山３階,,13,103,1070061,,,,,,,2023-11-16,1,,,,,,0
1882,8010405022713,新規,0,2023-11-16,2023-11-16,ジュピター一般社団法人,,その他の設立登記法人,東京都,港区,赤坂２丁目１４番５号,,13,103,1070052,,,,,,,2023-11-16,1,,,,,ジュピター,0
1883,8010501051351,新規,0,2023-11-16,2023-11-16,Ｍｉｎｄｂｏｘａｒｔ株式会社,,株式会社,東京都,台東区,台東１丁目２４番９号ブライト秋葉原８Ｆ,,13,106,1100016,,,,,,,2023-11-16,1,,,,,マインドボックスアート,0
1884,8010501051368,新規,0,2023-11-16,2023-11-16,株式会社ＳＨＯＷＴＩＭＥ,,株式会社,東京都,台東区,千束１丁目１２番９号アーバンステージ浅草６０１,,13,106,1110031,,,,,,,2023-11-16,1,,,,,ショウタイム,0
1894,8010901054169,新規,0,2023-11-16,2023-11-16,株式会社ＢＡＮＢＡＮ,,株式会社,東京都,世田谷区,池尻２丁目１９番７号レザン池尻３０５,,13,112,1540001,,,,,,,2023-11-16,1,,,,,,0
1895,8010901054193,新規,0,2023-11-16,2023-11-16,株式会社Ｕｎｄｅｒ　Ｄｏｇ,,株式会社,東京都,世田谷区,新町２丁目１番１２号,,13,112,1540014,,,,,,,2023-11-16,1,,,,,アンダードッグ,0
1896,8010901054202,新規,0,2023-11-16,2023-11-16,株式会社ＮＫマネージメント,,株式会社,東京都,世田谷区,粕谷４丁目１７番９号,,13,112,1570063,,,,,,,2023-11-16,1,,,,,ネヌケーマネージメント,0
1902,8011001158249,新規,0,2023-11-16,2023-11-16,株式会社ＮＥＳＨＥＬＹ,,株式会社,東京都,渋谷区,神宮前６丁目２３番４号桑野ビル２階,,13,113,1500001,,,,,,,2023-11-16,1,,,,,ネシェリー,0
1909,8011101105150,新規,0,2023-11-16,2023-11-16,株式会社ロジクルー,,株式会社,東京都,新宿区,西新宿２丁目６番１号新宿住友ビル２５階,,13,104,1600023,,,,,,,2023-11-16,1,,,,,ロジクルー,0
1912,8011103013756,新規,0,2023-11-16,2023-11-16,Ｓｅｒｉａｌ　Ｇａｔｅｗａｙ合同会社,,合同会社,東京都,新宿区,新宿１丁目３６番２号新宿第七葉山ビル３Ｆ,,13,104,1600022,,,,,,,2023-11-16,1,,,,,シリアルゲートウエイ,0
1915,8011301029182,新規,0,2023-11-16,2023-11-16,ゲントー株式会社,,株式会社,東京都,杉並区,高円寺南４丁目２４番１１号,,13,115,1660003,,,,,,,2023-11-16,1,,,,,ゲントー,0
1918,8011403004174,新規,0,2023-11-16,2023-11-16,合同会社再生一級建築士事務所,,合同会社,東京都,板橋区,清水町４１番１号Ｎ１５０２号室,,13,119,1740053,,,,,,,2023-11-16,1,,,,,サイセイイッキュウケンチクシジムショ,0
1919,8011501029998,新規,0,2023-11-16,2023-11-16,Ｒｅｗａｒｄ株式会社,,株式会社,東京都,荒川区,南千住６丁目４７番３号１０１,,13,118,1160003,,,,,,,2023-11-16,1,,,,,リワード,0
1927,8011803005937,新規,0,2023-11-16,2023-11-16,合同会社ＣＯＬＯＲ,,合同会社,東京都,足立区,西新井２丁目２番６－５０３号,,13,121,1230841,,,,,,,2023-11-16,1,,,,,カラー,0
1931,8012401041218,新規,0,2023-11-16,2023-11-16,株式会社ワイメンテナンス,,株式会社,東京都,調布市,飛田給３丁目２５番２７号飛田給コーポ１０１,,13,208,1820036,,,,,,,2023-11-16,1,,,,,ワイメンテナンス,0
1932,8012701017958,新規,0,2023-11-16,2023-11-16,ドリーム株式会社,,株式会社,東京都,小平市,学園東町２丁目１０番３７－１号,,13,211,1870043,,,,,,,2023-11-16,1,,,,,ドリーム,0
1933,8013103001278,新規,0,2023-11-16,2023-11-16,合同会社ツシマ,,合同会社,東京都,青梅市,千ヶ瀬町２丁目２４３番地の３ソネット高野３０５,,13,205,1980043,,,,,,,2023-11-16,1,,,,,,0
1937,8013303006878,新規,0,2023-11-16,2023-11-16,合同会社トラスト,,合同会社,東京都,豊島区,巣鴨５丁目３５番３１号,,13,116,1700002,,,,,,,2023-11-16,1,,,,,トラスト,0
1962,8030001157110,新規,0,2023-11-16,2023-11-16,浦壁会計株式会社,,株式会社,埼玉県,さいたま市中央区,下落合６丁目１２－２０,,11,105,3380002,,,,,,,2023-11-16,1,,,,,ウラカベカイケイ,0
1963,8030001157176,新規,0,2023-11-16,2023-11-16,株式会社中里倉庫,,株式会社,埼玉県,鶴ヶ島市,柳戸町１１番地７,,11,241,3502218,,,,,,,2023-11-16,1,,,,,ナカザトソウコ,0
1964,8030003023005,新規,0,2023-11-16,2023-11-16,合同会社ＴＵＦＡＩＬ　ＴＲＡＤＥＲＳ,,合同会社,埼玉県,羽生市,南羽生３丁目４番地７田村アパート１０３号室,,11,216,3480071,,,,,,,2023-11-16,1,,,,,トゥフェイルトレーダーズ,0
1965,8030003023021,新規,0,2023-11-16,2023-11-16,合同会社Ｈｏｍｅ　Ｓｔｏｒｙ,,合同会社,埼玉県,さいたま市緑区,大字大崎２４６８番地４,,11,109,3360974,,,,,,,2023-11-16,1,,,,,ホームストーリー,0
1971,8040001130958,新規,0,2023-11-16,2023-11-16,株式会社渡辺工務店,,株式会社,千葉県,鎌ケ谷市,鎌ケ谷４丁目１０番１７－２号,,12,224,2730105,,,,,,,2023-11-16,1,,,,,ワタナベコウムテン,0
1979,8050001053852,新規,0,2023-11-16,2023-11-16,Ｙ＆Ａアセットマネジメント株式会社,,株式会社,茨城県,水戸市,笠原町１７５０番地９,,08,201,3100852,,,,,,,2023-11-16,1,,,,,ワイアンドエー,0
1983,8050003007947,新規,0,2023-11-16,2023-11-16,合同会社フリウリ,,合同会社,茨城県,かすみがうら市,上土田６３１番地７,,08,230,3150057,,,,,,,2023-11-16,1,,,,,フリウリ,0
1985,8060001036559,新規,0,2023-11-16,2023-11-16,株式会社インザスープ,,株式会社,栃木県,宇都宮市,上大曽町３６２番地３建都ビル１階１０１号室,,09,201,3200013,,,,,,,2023-11-16,1,,,,,インザスープ,0
1988,8070003005131,新規,0,2023-11-16,2023-11-16,合同会社ＧＬＯＢＡＬ．ＪＡＰＡＮ,,合同会社,群馬県,高崎市,上中居町３４１番地１ＬＡ・ＦＲＡＮＣＥ４０３号,,10,202,3700851,,,,,,,2023-11-16,1,,,,,グローバルジャパン,0
1992,8100001036975,新規,0,2023-11-16,2023-11-16,株式会社いわや,,株式会社,長野県,木曽郡木曽町,福島５１６９番地,,20,432,3970001,,,,,,,2023-11-16,1,,,,,イワヤ,0
1993,8100005013095,新規,0,2023-11-16,2023-11-16,医療法人社団水嶺会,,その他の設立登記法人,長野県,安曇野市,豊科南穂高７６８番４,,20,220,3998201,,,,,,,2023-11-16,1,,,,,スイレイカイ,0
2005,8120001259789,新規,0,2023-11-16,2023-11-16,ＳＫ株式会社,,株式会社,大阪府,大阪市中央区,東心斎橋２丁目２－１２ＥＸＥ東心斎橋１階,,27,128,5420083,,,,,,,2023-11-16,1,,,,,エスケー,0
2006,8120001259822,新規,0,2023-11-16,2023-11-16,日本建物株式会社,,株式会社,大阪府,大阪市浪速区,元町１丁目２番１７号フクダ不動産ビル６Ｆ－Ｂ室,,27,111,5560016,,,,,,,2023-11-16,1,,,,,ニホンタテモノ,0
2007,8120001259830,新規,0,2023-11-16,2023-11-16,嘉閣株式会社,,株式会社,大阪府,大阪市淀川区,西中島５丁目８番２９－４０６室,,27,123,5320011,,,,,,,2023-11-16,1,,,,,カカク,0
2008,8120001259839,新規,0,2023-11-16,2023-11-16,Ｋａｒｉｚｍａ株式会社,,株式会社,大阪府,大阪市中央区,南本町２丁目１－１－１Ｆ,,27,128,5410054,,,,,,,2023-11-16,1,,,,,カリズマ,0
2009,8120001259847,新規,0,2023-11-16,2023-11-16,株式会社Ｓｉｌｋ　Ｌｉｇｈｔ　Ｂｌｕｅ,,株式会社,大阪府,大阪市淀川区,西中島６丁目５番３号サムティフェイム新大阪１号館７Ｆ,,27,123,5320011,,,,,,,2023-11-16,1,,,,,シルクライトブルー,0
2010,8120001259921,新規,0,2023-11-16,2023-11-16,ｔａｓｕｋｉ株式会社,,株式会社,大阪府,大阪市中央区,谷町６丁目１４－８メイプルコート２０４,,27,128,5420012,,,,,,,2023-11-16,1,,,,,タスキ,0
2011,8120003025347,新規,0,2023-11-16,2023-11-16,合同会社リンク,,合同会社,大阪府,大阪市東住吉区,鷹合４丁目１２番７号,,27,121,5460014,,,,,,,2023-11-16,1,,,,,リンク,0
2015,8120103005538,新規,0,2023-11-16,2023-11-16,合同会社ＰＥＡＣＥ,,合同会社,大阪府,泉大津市,なぎさ町２番６－１７０７号,,27,206,5950055,,,,,,,2023-11-16,1,,,,,ピース,0
2025,8130001075731,新規,0,2023-11-16,2023-11-16,株式会社ＫｕＲａｉＲｏ,,株式会社,京都府,京都市伏見区,向島東泉寺町２番地,,26,109,6128125,,,,,,,2023-11-16,1,,,,,クライロ,0
2030,8140001132358,新規,0,2023-11-16,2023-11-16,株式会社セーフティコーポレーション,,株式会社,兵庫県,姫路市,網干区大江島４０３番地１,,28,201,6711231,,,,,,,2023-11-16,1,,,,,セーフティコーポレーション,0
2031,8140001132374,新規,0,2023-11-16,2023-11-16,株式会社中井重機,,株式会社,兵庫県,小野市,復井町８２５,,28,218,6751352,,,,,,,2023-11-16,1,,,,,ナカイジュウキ,0
2035,8140003019719,新規,0,2023-11-16,2023-11-16,合同会社ＭＹＫＳ　ＳＵＰＰＯＲＴ,,合同会社,兵庫県,川西市,加茂２丁目１３－３,,28,217,6660025,,,,,,,2023-11-16,1,,,,,マイクスサポート,0
2037,8150001026889,新規,0,2023-11-16,2023-11-16,ジェイスコンサルティング株式会社,,株式会社,奈良県,大和郡山市,小泉町３１１２番地３２,,29,203,6391042,,,,,,,2023-11-16,1,,,,,ジェイスコンサルティング,0
2046,8180001158936,新規,0,2023-11-16,2023-11-16,ＳＴＡＲＴ‐ＯＶＥＲ株式会社,,株式会社,愛知県,名古屋市中区,平和１丁目１９番３号,,23,106,4600021,,,,,,,2023-11-16,1,,,,,スタートオーバー,0
2047,8180001158977,新規,0,2023-11-16,2023-11-16,センデザイン株式会社,,株式会社,愛知県,一宮市,木曽川町内割田字八荷丸３０番地１,,23,203,4930006,,,,,,,2023-11-16,1,,,,,センデザイン,0
2050,8180301038037,新規,0,2023-11-16,2023-11-16,孝ＷＯＲＬＤ株式会社,,株式会社,愛知県,岡崎市,大幅町字方便野１０８番地,,23,202,4440000,,,,,,,2023-11-16,1,,,,,コウワールド,0
2053,8190001030895,新規,0,2023-11-16,2023-11-16,株式会社ＤＡＩＨＡ,,株式会社,三重県,津市,半田２２２６番地２４２,,24,201,5140823,,,,,,,2023-11-16,1,,,,,ダイハ,0
2054,8190003004501,新規,0,2023-11-16,2023-11-16,日月オフィス合同会社,,合同会社,三重県,四日市市,札場町５６５番地１,,24,202,5128056,,,,,,,2023-11-16,1,,,,,ヒツキオフィス,0
2055,8190005011883,新規,0,2023-11-16,2023-11-16,桑名環境整備事業協同組合,,その他の設立登記法人,三重県,桑名市,大字上野９５７番地の３,,24,205,5110825,,,,,,,2023-11-16,1,,,,,クワナカンキョウセイビ,0
2063,8230003002112,新規,0,2023-11-16,2023-11-16,合同会社ＺＡＫＩ　ＴＲＡＤＥＲＳ,,合同会社,富山県,高岡市,姫野３７１番地１２,,16,202,9340093,,,,,,,2023-11-16,1,,,,,ザキトレーダーズ,0
2073,8270001008875,新規,0,2023-11-16,2023-11-16,株式会社コウカカク,,株式会社,鳥取県,鳥取市,立川町６丁目５０７番地,,31,201,6800061,,,,,,,2023-11-16,1,,,,,コウカカク,0
2076,8290003014614,新規,0,2023-11-16,2023-11-16,縦横合同会社,,合同会社,福岡県,福岡市東区,箱崎４丁目３８番１７号,,40,131,8120053,,,,,,,2023-11-16,1,,,,,ジュウコウ,0
2087,8360005006940,新規,0,2023-11-16,2023-11-16,一般社団法人沖縄道,,その他の設立登記法人,沖縄県,那覇市,奥武山町４４番地,,47,201,9000026,,,,,,,2023-11-16,1,,,,,オキナワドウ,0
2103,8430001090444,新規,0,2023-11-16,2023-11-16,株式会社Ｍ・コーポレーション,,株式会社,北海道,札幌市中央区,南十条西２１丁目２番８号エルグラン啓明１０２号,,01,101,0640810,,,,,,,2023-11-16,1,,,,,エムコーポレーション,0
2104,8430001090452,新規,0,2023-11-16,2023-11-16,株式会社ＷＥＳＴ,,株式会社,北海道,札幌市北区,新琴似四条１３丁目２番１７号,,01,102,0010904,,,,,,,2023-11-16,1,,,,,ウエスト,0
2110,8430003015639,新規,0,2023-11-16,2023-11-16,合同会社ヴィヴィステリア,,合同会社,北海道,札幌市白石区,栄通１丁目１４番２８－３０１号,,01,104,0030021,,,,,,,2023-11-16,1,,,,,ヴィビステリア,0
2115,8490005006911,新規,0,2023-11-16,2023-11-16,一般社団法人りぐる,,その他の設立登記法人,高知県,室戸市,佐喜浜町１０７番地５,,39,202,7817220,,,,,,,2023-11-16,1,,,,,リグル,0
2126,9010001240081,新規,0,2023-11-16,2023-11-16,株式会社ターゲット１,,株式会社,東京都,千代田区,九段南４丁目２番９－６０１号,,13,101,1020074,,,,,,,2023-11-16,1,,,,,ターゲットワン,0
2127,9010001240123,新規,0,2023-11-16,2023-11-16,株式会社ｄｅｓｉｇｎ　ｍｅ,,株式会社,東京都,千代田区,富士見２丁目３番１０号,,13,101,1020071,,,,,,,2023-11-16,1,,,,,デザインミー,0
2133,9010003042022,新規,0,2023-11-16,2023-11-16,合同会社Ｓｔａｐｌｅ　Ｐｅｏｐｌｅ’ｓ　ＣＯ‐ＯＰ,,合同会社,東京都,中央区,日本橋小舟町１４－７ＳＯＩＬＮｉｈｏｎｂａｓｈｉ２ＦＳｏｉｌｗｏｒｋ,,13,102,1030024,,,,,,,2023-11-16,1,,,,,ステイプルピープルズコープ,0
2134,9010003042212,新規,0,2023-11-16,2023-11-16,合同会社ＦＥＲＲＡＮ,,合同会社,東京都,中央区,銀座７丁目１３番２０号銀座ＴＨビル９階,,13,102,1040061,,,,,,,2023-11-16,1,,,,,フェラン,0
2136,9010005037516,新規,0,2023-11-16,2023-11-16,一般社団法人ＪＴ国際文化交流協会,,その他の設立登記法人,東京都,千代田区,一番町２番地２,,13,101,1020082,,,,,,,2023-11-16,1,,,,,ジェイティコクサイブンカコウリュウキョウカイ,0
2141,9010403031376,新規,0,2023-11-16,2023-11-16,合同会社ＭＳＫＩ,,合同会社,東京都,港区,白金台１丁目２番１６号ナリヅカビル６階,,13,103,1080071,,,,,,,2023-11-16,1,,,,,エムエスケーアイ,0
2142,9010403031384,新規,0,2023-11-16,2023-11-16,印西ＤＣ１合同会社,,合同会社,東京都,港区,虎ノ門５丁目１番４号,,13,103,1050001,,,,,,,2023-11-16,1,,,,,インザイディーシーワン,0
2143,9010403031392,新規,0,2023-11-16,2023-11-16,合同会社ＭＩＸ,,合同会社,東京都,港区,北青山１丁目３番１号アールキューブ青山３階,,13,103,1070061,,,,,,,2023-11-16,1,,,,,ミックス,0
2144,9010403031401,新規,0,2023-11-16,2023-11-16,合同会社グロリオサ,,合同会社,東京都,港区,元赤坂１丁目１番７号,,13,103,1070051,,,,,,,2023-11-16,1,,,,,グロリオサ,0
2146,9010405022712,新規,0,2023-11-16,2023-11-16,印西ＤＣ１一般社団法人,,その他の設立登記法人,東京都,港区,虎ノ門５丁目１番４号,,13,103,1050001,,,,,,,2023-11-16,1,,,,,インザイディーシーワン,0
2154,9010601064137,新規,0,2023-11-16,2023-11-16,新日勤利株式会社,,株式会社,東京都,江東区,東砂５丁目５番６号Ｋビル２１２,,13,108,1360074,,,,,,,2023-11-16,1,,,,,シンニチキンリ,0
2158,9010701045128,新規,0,2023-11-16,2023-11-16,株式会社ＴＲＹＤＥＮＴ,,株式会社,東京都,品川区,戸越２丁目７番１５号コーポＹ１０２,,13,109,1420041,,,,,,,2023-11-16,1,,,,,トライデント,0
2159,9010701045136,新規,0,2023-11-16,2023-11-16,ラシダス株式会社,,株式会社,東京都,品川区,南品川２丁目２番５号リードシー南品川ビル２Ｆ,,13,109,1400004,,,,,,,2023-11-16,1,,,,,ラシダス,0
2164,9010901054168,新規,0,2023-11-16,2023-11-16,ＭＩＬＥＳＥＵＭ株式会社,,株式会社,東京都,世田谷区,太子堂４丁目３０番２２号Ｋ’ｓアパートメント４０２号室,,13,112,1540004,,,,,,,2023-11-16,1,,,,,ミレセウム,0
2165,9010901054192,新規,0,2023-11-16,2023-11-16,ＡＡＳ株式会社,,株式会社,東京都,世田谷区,喜多見３丁目８番４号,,13,112,1570067,,,,,,,2023-11-16,1,,,,,エーエーエス,0
2171,9011001158223,新規,0,2023-11-16,2023-11-16,ＧＬＯＷ　ＰＲ株式会社,,株式会社,東京都,渋谷区,神宮前６丁目２３番４号桑野ビル２階,,13,113,1500001,,,,,,,2023-11-16,1,,,,,グロウピーアール,0
2173,9011003017955,新規,0,2023-11-16,2023-11-16,合同会社ｋｏｒｏｒｉｋｕ,,合同会社,東京都,渋谷区,神泉町１０番１５号アネックス神泉３０１,,13,113,1500045,,,,,,,2023-11-16,1,,,,,コロリク,0
2181,9011301029181,新規,0,2023-11-16,2023-11-16,株式会社ユースリー,,株式会社,東京都,杉並区,阿佐谷南３丁目２番５号,,13,115,1660004,,,,,,,2023-11-16,1,,,,,ユースリー,0
2192,9011801043351,新規,0,2023-11-16,2023-11-16,株式会社ＢＲＡＩＮ,,株式会社,東京都,足立区,綾瀬３丁目１９番１６号松代ビル２０２,,13,121,1200005,,,,,,,2023-11-16,1,,,,,ブレイン,0
2197,9012401041233,新規,0,2023-11-16,2023-11-16,株式会社エバーセンス,,株式会社,東京都,府中市,白糸台２丁目６４番地の１３河原スタジオ内,,13,206,1830011,,,,,,,2023-11-16,1,,,,,エバーセンス,0
2199,9012403006283,新規,0,2023-11-16,2023-11-16,エクシズ合同会社,,合同会社,東京都,府中市,緑町３丁目６番６号ワールド府中２０１,,13,206,1830006,,,,,,,2023-11-16,1,,,,,エクシズ,0
2200,9012701017949,新規,0,2023-11-16,2023-11-16,株式会社きみとなり,,株式会社,東京都,東久留米市,学園町１丁目８番１５号自由学園最高学部内,,13,222,2030021,,,,,,,2023-11-16,1,,,,,キミトナリ,0
2201,9013303006877,新規,0,2023-11-16,2023-11-16,Ｍｉｒａｉ‐ｗｏ合同会社,,合同会社,東京都,豊島区,東池袋１丁目３４番５号いちご東池袋ビル６階,,13,116,1700013,,,,,,,2023-11-16,1,,,,,ミライヲ,0
2223,9030001157101,新規,0,2023-11-16,2023-11-16,株式会社ＳＵＣ,,株式会社,埼玉県,さいたま市大宮区,宮町２丁目９３番地２（６Ｆ）Ｃ－５２,,11,103,3300802,,,,,,,2023-11-16,1,,,,,エスユーシー,0
2228,9030003022996,新規,0,2023-11-16,2023-11-16,ＨＡＲＥＹＥＬＬ合同会社,,合同会社,埼玉県,さいたま市大宮区,北袋町２丁目４８８番地７,,11,103,3300835,,,,,,,2023-11-16,1,,,,,ハレエール,0
2229,9030003023004,新規,0,2023-11-16,2023-11-16,合同会社ＧＬＩＭＴＲＥＮＤ,,合同会社,埼玉県,上尾市,宮本町５－１７－１３,,11,219,3620036,,,,,,,2023-11-16,1,,,,,グリムトレンド,0
2230,9030003023012,新規,0,2023-11-16,2023-11-16,合同会社フィットスマイル,,合同会社,埼玉県,さいたま市南区,沼影１丁目１１番２号Ｃ－２６０５,,11,108,3360027,,,,,,,2023-11-16,1,,,,,フィットスマイル,0
2231,9030003023020,新規,0,2023-11-16,2023-11-16,合同会社陽一商社,,合同会社,埼玉県,草加市,高砂２丁目１７番１２号カルム参番館草加２０３,,11,221,3400015,,,,,,,2023-11-16,1,,,,,ヨウイチショウシャ,0
2239,9040001130924,新規,0,2023-11-16,2023-11-16,ＭＹＨｉＮＴ株式会社,,株式会社,千葉県,千葉市中央区,中央港１丁目２４番１４号ＳＥＡＳＣＡＰＥ３Ｆ,,12,101,2600024,,,,,,,2023-11-16,1,,,,,マイヒント,0
2240,9040001130940,新規,0,2023-11-16,2023-11-16,株式会社みんぱーく,,株式会社,千葉県,山武郡横芝光町,木戸１０１１３番地１,,12,410,2891726,,,,,,,2023-11-16,1,,,,,ミンパーク,0
2241,9040001130949,新規,0,2023-11-16,2023-11-16,ＫＯＴＯＢＵＫＩ株式会社,,株式会社,千葉県,千葉市中央区,中央２丁目３番１６号千葉センタースクエアビル５階,,12,101,2600013,,,,,,,2023-11-16,1,,,,,コトブキ,0
2245,9050001053827,新規,0,2023-11-16,2023-11-16,株式会社ＲｉＲｉ,,株式会社,茨城県,神栖市,大野原１丁目８番３４号,,08,232,3140144,,,,,,,2023-11-16,1,,,,,リリ,0
2246,9050001053835,新規,0,2023-11-16,2023-11-16,株式会社リバティースタイル,,株式会社,茨城県,つくば市,みどりの中央４６番地２２,,08,220,3050882,,,,,,,2023-11-16,1,,,,,リバティースタイル,0
2255,9090001018413,新規,0,2023-11-16,2023-11-16,株式会社奏,,株式会社,山梨県,南都留郡富士河口湖町,船津４０５５番地,,19,430,4010301,,,,,,,2023-11-16,1,,,,,カナデ,0
2256,9090003002423,新規,0,2023-11-16,2023-11-16,合同会社ランニングマン,,合同会社,山梨県,甲府市,中小河原町５７４番地,,19,201,4000854,,,,,,,2023-11-16,1,,,,,ランニングマン,0
2258,9100001036974,新規,0,2023-11-16,2023-11-16,株式会社エイテック,,株式会社,長野県,下伊那郡松川町,元大島３９２０番地１,,20,402,3993303,,,,,,,2023-11-16,1,,,,,エイテック,0
2270,9120001259912,新規,0,2023-11-16,2023-11-16,株式会社ｎｅｏ　ｕｎｉｖｅｒｓｅ,,株式会社,大阪府,大阪市中央区,東心斎橋２丁目７番２０号三経４０ビル３階,,27,128,5420083,,,,,,,2023-11-16,1,,,,,ネオユニバース,0
2271,9120001259920,新規,0,2023-11-16,2023-11-16,ロクイチ株式会社,,株式会社,大阪府,大阪市淀川区,木川西２丁目９－１０,,27,123,5320013,,,,,,,2023-11-16,1,,,,,ロクイチ,0
2274,9120003025338,新規,0,2023-11-16,2023-11-16,合同会社ハートプラス,,合同会社,大阪府,大阪市西成区,花園北２丁目１３－２,,27,122,5570016,,,,,,,2023-11-16,1,,,,,ハートプラス,0
2278,9120101068536,新規,0,2023-11-16,2023-11-16,株式会社ＭＡＳＨ,,株式会社,大阪府,堺市中区,福田１７１番地１,,27,142,5998241,,,,,,,2023-11-16,1,,,,,マッシュ,0
2280,9120901048365,新規,0,2023-11-16,2023-11-16,株式会社ファミリープラン藪,,株式会社,大阪府,摂津市,鳥飼下２丁目３０番１８号,,27,224,5660071,,,,,,,2023-11-16,1,,,,,ファミリープランヤブ,0
2285,9130001075730,新規,0,2023-11-16,2023-11-16,京日青株式会社,,株式会社,京都府,京都市東山区,東大路古門前上る東入稲荷町南組５７７番地７,,26,105,6050067,,,,,,,2023-11-16,1,,,,,キョウニチセイ,0
2286,9130001075739,新規,0,2023-11-16,2023-11-16,亜金株式会社,,株式会社,京都府,京都市右京区,山ノ内北ノ口町１９番地１－４階,,26,108,6150094,,,,,,,2023-11-16,1,,,,,アキン,0
2287,9130001075747,新規,0,2023-11-16,2023-11-16,蛙子株式会社,,株式会社,京都府,京都市下京区,二人司町２５番地１１,,26,106,6008824,,,,,,,2023-11-16,1,,,,,カエルコ,0
2292,9140001132373,新規,0,2023-11-16,2023-11-16,廣田株式会社,,株式会社,兵庫県,神戸市中央区,磯辺通４丁目１番４８－５０８号,,28,110,6510084,,,,,,,2023-11-16,1,,,,,ヒロタ,0
2298,9150001026888,新規,0,2023-11-16,2023-11-16,ＴＨＥ　ＬＯＣＡＬ株式会社,,株式会社,奈良県,五條市,本町２丁目６－２４,,29,207,6370041,,,,,,,2023-11-16,1,,,,,ザローカル,0
2302,9180001158927,新規,0,2023-11-16,2023-11-16,ラシクフル株式会社,,株式会社,愛知県,名古屋市名東区,照が丘１７９番地の１グランドメゾン藤が丘ヒルズ４０１号,,23,115,4650042,,,,,,,2023-11-16,1,,,,,ラシクフル,0
2303,9180001158968,新規,0,2023-11-16,2023-11-16,株式会社輝建,,株式会社,愛知県,大府市,東新町２丁目１２８,,23,223,4740073,,,,,,,2023-11-16,1,,,,,テルケン,0
2309,9180003025992,新規,0,2023-11-16,2023-11-16,合同会社ＯＨＡＮＡ,,合同会社,愛知県,犬山市,大字五郎丸字下前田３２番地１,,23,215,4840066,,,,,,,2023-11-16,1,,,,,オハナ,0
2310,9180003026009,新規,0,2023-11-16,2023-11-16,ライフサポート合同会社,,合同会社,愛知県,名古屋市天白区,平針１丁目１１１１番地の６,,23,116,4680011,,,,,,,2023-11-16,1,,,,,ライフサポート,0
2313,9180301038028,新規,0,2023-11-16,2023-11-16,株式会社泰三,,株式会社,愛知県,岡崎市,大門１丁目１６番地６,,23,202,4442135,,,,,,,2023-11-16,1,,,,,タイゾウ,0
2316,9190001030894,新規,0,2023-11-16,2023-11-16,株式会社太平屋,,株式会社,三重県,北牟婁郡紀北町,相賀３４１番地,,24,543,5193406,,,,,,,2023-11-16,1,,,,,タヘヤ,0
2320,9200003006156,新規,0,2023-11-16,2023-11-16,合同会社アイキ工業,,合同会社,岐阜県,可児郡御嵩町,御嵩２１９２－４３６,,21,521,5050116,,,,,,,2023-11-16,1,,,,,アイキコウギョウ,0
2329,9240001062429,新規,0,2023-11-16,2023-11-16,ＬＥＴＧＲＯＵＰ株式会社,,株式会社,広島県,広島市中区,立町２番２３号,,34,101,7300032,,,,,,,2023-11-16,1,,,,,レットグループ,0
2338,9260001038492,新規,0,2023-11-16,2023-11-16,金源商事株式会社,,株式会社,岡山県,小田郡矢掛町,東川面９２０番地,,33,461,7141223,,,,,,,2023-11-16,1,,,,,カネゲンショウジ,0
2341,9270001008874,新規,0,2023-11-16,2023-11-16,株式会社しんせつ家具鳥取,,株式会社,鳥取県,鳥取市,浜坂８丁目１０番１４号,,31,201,6800001,,,,,,,2023-11-16,1,,,,,シンセツカグトットリ,0
2346,9290001103772,新規,0,2023-11-16,2023-11-16,株式会社サンフレンド,,株式会社,福岡県,糸島市,二丈武１７５番地３,,40,230,8191616,,,,,,,2023-11-16,1,,,,,サンフレンド,0
2353,9290801030051,新規,0,2023-11-16,2023-11-16,株式会社シークエル,,株式会社,福岡県,田川郡川崎町,大字田原１２１３番地の２,,40,605,8270004,,,,,,,2023-11-16,1,,,,,シークエル,0
2356,9310001018712,新規,0,2023-11-16,2023-11-16,株式会社針尾商事,,株式会社,長崎県,諫早市,多良見町中里１２９番地１３,,42,204,8590405,,,,,,,2023-11-16,1,,,,,ハリオショウジ,0
2359,9330001031473,新規,0,2023-11-16,2023-11-16,株式会社Ｐｒｅｖｅｎｔ　Ｓｏｌｕｔｉｏｎ,,株式会社,熊本県,合志市,幾久富１９０９番地１８４４,,43,216,8611112,,,,,,,2023-11-16,1,,,,,プリベントソリューション,0
2360,9330003010079,新規,0,2023-11-16,2023-11-16,合同会社ＴＵ不動産,,合同会社,熊本県,熊本市中央区,坪井４丁目２－３９,,43,101,8600863,,,,,,,2023-11-16,1,,,,,,0
2364,9360003013459,新規,0,2023-11-16,2023-11-16,合同会社松映,,合同会社,沖縄県,南城市,玉城字中山１２６－１,,47,215,9010605,,,,,,,2023-11-16,1,,,,,マツエイ,0
2378,9430001090443,新規,0,2023-11-16,2023-11-16,株式会社ｈａｃｈｉｃｏｍ,,株式会社,北海道,札幌市北区,北三十三条西２丁目１－７ＬＩＧＨＴＯＦＦＩＣＥ,,01,102,0010033,,,,,,,2023-11-16,1,,,,,ハチコム,0
2382,9430003015638,新規,0,2023-11-16,2023-11-16,合同会社友堅防災設備,,合同会社,北海道,札幌市手稲区,金山二条３丁目３番１５号,,01,109,0060042,,,,,,,2023-11-16,1,,,,,ユウケンボウサイセツビ,0
2383,9430003015646,新規,0,2023-11-16,2023-11-16,合同会社どさんこ,,合同会社,北海道,札幌市清田区,北野三条１丁目１１番３６号ルピナス北野１０３号,,01,110,0040863,,,,,,,2023-11-16,1,,,,,ドサンコ,0
2385,9430005014828,新規,0,2023-11-16,2023-11-16,税理士法人クロノス,,その他の設立登記法人,北海道,札幌市中央区,北三条東３丁目１番９－１５０８号,,01,101,0600033,,,,,,,2023-11-16,1,,,,,クロノス,0
2389,9490001010635,新規,0,2023-11-16,2023-11-16,株式会社Ｂｉｇ　Ｕｐ,,株式会社,高知県,高知市,中万々１５４番地４６中万々ハイツ１０２号室,,39,201,7800972,,,,,,,2023-11-16,1,,,,,ビゴップ,0
2390,9700150121302,新規,0,2023-11-16,2023-10-20,山陽工業持株会,,その他,広島県,尾道市,高須町９０４,,34,205,7290141,,,,,,,2023-10-20,1,,,,,サンヨウコウギヨウモチカブカイ,0
