sequenceNumber,corporateNumber,process,correct,updateDate,changeDate,name,nameImageId,kind,prefectureName,cityName,streetNumber,addressImageId,prefectureCode,cityCode,postCode,addressOutside,addressOutsideImageId,closeDate,closeCause,successorCorporateNumber,changeCause,assignmentDate,latest,enName,enPrefectureName,enCityName,enAddressOutside,furigana,hihyoji
14,1010001257414,新規,0,2025-08-05,2025-08-05,株式会社Ｓａｉｌ１号,,株式会社,東京都,千代田区,紀尾井町４番１号,,13,101,1020094,,,,,,,2025-08-05,1,,,,,セイルイチゴウ,0
15,1010001257422,新規,0,2025-08-05,2025-08-05,株式会社Ｃｏｕｒｏｎｎｅ,,株式会社,東京都,中央区,日本橋人形町２丁目１０番１１号ＫＹＯＥＰＬＡＺＡ２階,,13,102,1030013,,,,,,,2025-08-05,1,,,,,クーロンヌ,0
17,1010003048258,新規,0,2025-08-05,2025-08-05,合同会社ビーフォックス,,合同会社,東京都,中央区,日本橋富沢町４番１号ミズホビル１階,,13,102,1030006,,,,,,,2025-08-05,1,,,,,ビーフォックス,0
24,1010401192228,新規,0,2025-08-05,2025-08-05,株式会社ＬＩＬＩＹ,,株式会社,東京都,港区,南青山２丁目２番１５号ウィン青山９４２,,13,103,1070062,,,,,,,2025-08-05,1,,,,,リリー,0
25,1010401192236,新規,0,2025-08-05,2025-08-05,株式会社ＴＫＨＤ,,株式会社,東京都,港区,北青山１丁目３－３三橋ビル３階,,13,103,1070061,,,,,,,2025-08-05,1,,,,,ティーケイエイチディー,0
26,1010401192277,新規,0,2025-08-05,2025-08-05,株式会社オリガミ,,株式会社,東京都,港区,麻布十番２丁目５番１１号,,13,103,1060045,,,,,,,2025-08-05,1,,,,,オリガミ,0
30,1010403035756,新規,0,2025-08-05,2025-08-05,合同会社Ｏｒｅｔｕｓ,,合同会社,東京都,港区,南青山７丁目４番１７号南青山１３１ビル２０２,,13,103,1070062,,,,,,,2025-08-05,1,,,,,オレタス,0
31,1010405024567,新規,0,2025-08-05,2025-08-05,一般社団法人日本歌舞振興協会,,その他の設立登記法人,東京都,港区,南青山４丁目８番２４号Ｂ１Ｆ,,13,103,1070062,,,,,,,2025-08-05,1,,,,,ニホンウタマイシンコウキョウカイ,0
32,1010405024575,新規,0,2025-08-05,2025-08-05,一般社団法人日本美眉協会,,その他の設立登記法人,東京都,港区,高輪３丁目２３番１４号シャトー高輪３０７,,13,103,1080074,,,,,,,2025-08-05,1,,,,,ニホンビマユ,0
33,1010501054492,新規,0,2025-08-05,2025-08-05,Ｆ５株式会社,,株式会社,東京都,台東区,松が谷４丁目２５番８号,,13,106,1110036,,,,,,,2025-08-05,1,,,,,エフゴ,0
34,1010501054518,新規,0,2025-08-05,2025-08-05,天元株式会社,,株式会社,東京都,台東区,柳橋１丁目１６－３－４Ｆ０８,,13,106,1110052,,,,,,,2025-08-05,1,,,,,,0
36,1010601067709,新規,0,2025-08-05,2025-08-05,株式会社立岡水産,,株式会社,東京都,江東区,豊洲６丁目５番１号,,13,108,1350061,,,,,,,2025-08-05,1,,,,,タチオカスイサン,0
48,1011001171167,新規,0,2025-08-05,2025-08-05,株式会社ＭｉＫｉ　ＭｉＬＥ,,株式会社,東京都,渋谷区,恵比寿西２丁目４番８号ウィンド恵比寿ビル８Ｆ,,13,113,1500021,,,,,,,2025-08-05,1,,,,,ミキマイル,0
49,1011001171679,新規,0,2025-08-05,2025-08-05,アンカーホールディングス株式会社,,株式会社,東京都,渋谷区,渋谷１丁目１２番２号,,13,113,1500002,,,,,,,2025-08-05,1,,,,,アンカーホールディングス,0
50,1011001171687,新規,0,2025-08-05,2025-08-05,株式会社キュレア,,株式会社,東京都,渋谷区,神南１丁目１１‐４ＦＰＧリンクス神南５階,,13,113,1500041,,,,,,,2025-08-05,1,,,,,キュレア,0
51,1011101112509,新規,0,2025-08-05,2025-08-05,東京湾ヨットクラブ株式会社,,株式会社,東京都,新宿区,下落合３丁目１番１号,,13,104,1610033,,,,,,,2025-08-05,1,,,,,トウキョウワンヨットクラブ,0
52,1011101112541,新規,0,2025-08-05,2025-08-05,株式会社ｗｅｌｌ‐ｂｅｉｎｇ,,株式会社,東京都,新宿区,榎町７３番地１４プラウドフラット神楽坂ＩＩＩ２０２,00140158,13,104,1620806,,,,,,,2025-08-05,1,,,,,ウェルビーイング,0
53,1011101112665,新規,0,2025-08-05,2025-08-05,株式会社大翔,,株式会社,東京都,新宿区,富久町１１－５番地,,13,104,1620067,,,,,,,2025-08-05,1,,,,,ダイト,0
55,1011105011517,新規,0,2025-08-05,2025-08-05,一般社団法人ジャズ検定協会,,その他の設立登記法人,東京都,新宿区,西新宿３丁目３番１３号西新宿水間ビル２Ｆ,,13,104,1600023,,,,,,,2025-08-05,1,,,,,ジャズケンテイキョウカイ,0
56,1011203004769,新規,0,2025-08-05,2025-08-05,合同会社Ｇｌａｒ,,合同会社,東京都,中野区,沼袋１丁目５－８,,13,114,1650025,,,,,,,2025-08-05,1,,,,,グラー,0
57,1011301030782,新規,0,2025-08-05,2025-08-05,株式会社ＡＤＡＣＨＩ左官,,株式会社,東京都,杉並区,下井草２丁目１２番１９号,,13,115,1670022,,,,,,,2025-08-05,1,,,,,アダチサカン,0
58,1011401027299,新規,0,2025-08-05,2025-08-05,株式会社グレース,,株式会社,東京都,板橋区,熊野町１６番１０号,,13,119,1730025,,,,,,,2025-08-05,1,,,,,グレース,0
64,1011601028824,新規,0,2025-08-05,2025-08-05,株式会社Ｈｉｃｈａｉｎ　Ｔｅｃｈ,,株式会社,東京都,練馬区,石神井町３丁目６番４号プレール石神井公園１０５号室,,13,120,1770041,,,,,,,2025-08-05,1,,,,,ハイチャンテック,0
65,1011601028865,新規,0,2025-08-05,2025-08-05,株式会社エー・アイ・カンパニー,,株式会社,東京都,練馬区,南大泉４丁目４３番１２号,,13,120,1780064,,,,,,,2025-08-05,1,,,,,エーアイカンパニー,0
67,1011801046551,新規,0,2025-08-05,2025-08-05,ＳＩＬＫ株式会社,,株式会社,東京都,足立区,六木３丁目４８番３号,,13,121,1210052,,,,,,,2025-08-05,1,,,,,シルク,0
71,1011805003466,新規,0,2025-08-05,2025-08-05,ＴＹ税理士法人,,その他の設立登記法人,東京都,足立区,千住東２丁目２０番１２－４１６号,,13,121,1200025,,,,,,,2025-08-05,1,,,,,ティーワイ,0
73,1012401043410,新規,0,2025-08-05,2025-08-05,株式会社ＨＩＰＬＡ,,株式会社,東京都,三鷹市,上連雀１丁目１２－１７三鷹ビジネスパークＢ１Ｆ,,13,204,1810012,,,,,,,2025-08-05,1,,,,,ハイプラ,0
74,1012705002467,新規,0,2025-08-05,2025-08-05,特定非営利活動法人にんじん会,,その他の設立登記法人,東京都,西東京市,南町３丁目１９番１０号,,13,229,1880012,,,,,,,2025-08-05,1,,,,,ニンジンカイ,0
78,1013301054687,新規,0,2025-08-05,2025-08-05,株式会社ルネックス,,株式会社,東京都,豊島区,南大塚１丁目１８－２作田ビル３０２号室,,13,116,1700005,,,,,,,2025-08-05,1,,,,,ルネックス,0
89,1020001164064,新規,0,2025-08-05,2025-08-05,あじろ株式会社,,株式会社,神奈川県,横浜市中区,南仲通４丁目４３馬車道大津ビル３階,,14,104,2310006,,,,,,,2025-08-05,1,,,,,アジロ,0
96,1020003029050,新規,0,2025-08-05,2025-08-05,合同会社藍テック,,合同会社,神奈川県,横浜市都筑区,早渕３丁目４－１,,14,118,2240025,,,,,,,2025-08-05,1,,,,,アイテック,0
97,1020003029083,新規,0,2025-08-05,2025-08-05,ＣｏｄｅＮｏｖａ合同会社,,合同会社,神奈川県,横浜市中区,不老町３丁目１４番地４フェニックス横浜関内ＢＡＹＭＡＲＫＳ１１０１,,14,104,2310032,,,,,,,2025-08-05,1,,,,,コードノヴァ,0
104,1040001139667,新規,0,2025-08-05,2025-08-05,アーリーラボ株式会社,,株式会社,千葉県,浦安市,今川４丁目１２番５－１,,12,227,2790022,,,,,,,2025-08-05,1,,,,,アーリーラボ,0
105,1040001139857,新規,0,2025-08-05,2025-08-05,株式会社ＫＡＰＩＬＩＮＡ,,株式会社,千葉県,柏市,布施新町３丁目１番２４号,,12,217,2770823,,,,,,,2025-08-05,1,,,,,カピリナ,0
107,1040003028158,新規,0,2025-08-05,2025-08-05,合同会社ＨＵＳＡＩＮ＆ＣＯ,,合同会社,千葉県,東金市,堀上２４９番地４,,12,213,2830063,,,,,,,2025-08-05,1,,,,,フサインアンドカンパニー,0
108,1050001057026,新規,0,2025-08-05,2025-08-05,株式会社ＦＯＣ,,株式会社,茨城県,つくば市,吾妻１丁目１番地１・１１０９号,,08,220,3050031,,,,,,,2025-08-05,1,,,,,エフオーシー,0
113,1060001038462,新規,0,2025-08-05,2025-08-05,株式会社ＫＯ‐１,,株式会社,栃木県,宇都宮市,富士見が丘１丁目１３番１８号,,09,201,3200011,,,,,,,2025-08-05,1,,,,,ケーオーワン,0
120,1070003006037,新規,0,2025-08-05,2025-08-05,Ｂｒｉｌｌａｒ合同会社,,合同会社,群馬県,桐生市,相生町５丁目７０５番地の５,,10,203,3760011,,,,,,,2025-08-05,1,,,,,ブリジャール,0
122,1080101025697,新規,0,2025-08-05,2025-08-05,株式会社兵藤設備,,株式会社,静岡県,富士市,石坂３４９番地の４７,,22,210,4170862,,,,,,,2025-08-05,1,,,,,ヒョウドウセツビ,0
124,1080401028078,新規,0,2025-08-05,2025-08-05,株式会社ムラマツ設備,,株式会社,静岡県,袋井市,川井９５９番地の１１,,22,216,4370064,,,,,,,2025-08-05,1,,,,,ムラマツセツビ,0
125,1080403005323,新規,0,2025-08-05,2025-08-05,みらいげんき合同会社,,合同会社,静岡県,浜松市中央区,上浅田１丁目１３番３号,,22,138,4328042,,,,,,,2025-08-05,1,,,,,ミライゲンキ,0
136,1120001277574,新規,0,2025-08-05,2025-08-05,株式会社ＲＡＳＳＴＹ,,株式会社,大阪府,大阪市住之江区,柴谷２丁目５番７８号,,27,125,5590021,,,,,,,2025-08-05,1,,,,,ラスティー,0
137,1120001278317,新規,0,2025-08-05,2025-08-05,株式会社Ｂｌｕｅ　Ｏｃｅａｎ,,株式会社,大阪府,大阪市西成区,梅南２丁目１番２５号グランドメゾンテル１階Ｂ号室,,27,122,5570033,,,,,,,2025-08-05,1,,,,,ブルーオーシャン,0
138,1120001278440,新規,0,2025-08-05,2025-08-05,Ｙ２Ｐｌｕｓ株式会社,,株式会社,大阪府,大阪市中央区,南本町１丁目３番９,,27,128,5410054,,,,,,,2025-08-05,1,,,,,ワイツープラス,0
139,1120001278465,新規,0,2025-08-05,2025-08-05,株式会社Ａｉｄｅｘ,,株式会社,大阪府,大阪市北区,梅田１丁目２番２号大阪駅前第２ビル１２－１２,,27,127,5300001,,,,,,,2025-08-05,1,,,,,エイデックス,0
140,1120001278523,新規,0,2025-08-05,2025-08-05,株式会社ＣＨＩＫＡＳＯ,,株式会社,大阪府,大阪市阿倍野区,北畠２丁目１０番１２号グランドメゾン帝塚山２０２号,,27,119,5450035,,,,,,,2025-08-05,1,,,,,チカソ,0
141,1120001278572,新規,0,2025-08-05,2025-08-05,株式会社Ａｓｔｅｃｉａ,,株式会社,大阪府,大阪市東淀川区,東中島１丁目１７番５号ステュディオ新大阪５２３号室,,27,114,5330033,,,,,,,2025-08-05,1,,,,,アステシア,0
142,1120001278606,新規,0,2025-08-05,2025-08-05,株式会社Ｅｎｌｉｔ,,株式会社,大阪府,大阪市中央区,安土町２丁目４番１１－１３１５号,,27,128,5410052,,,,,,,2025-08-05,1,,,,,エンリット,0
145,1120003030196,新規,0,2025-08-05,2025-08-05,合同会社東村,,合同会社,大阪府,大阪市西区,本田２丁目１番３－２０３号,,27,106,5500022,,,,,,,2025-08-05,1,,,,,ヒガシムラ,0
150,1120103006609,新規,0,2025-08-05,2025-08-05,合同会社梵,,合同会社,大阪府,松原市,阿保４丁目１３番４号,,27,217,5800043,,,,,,,2025-08-05,1,,,,,ソヨギ,0
156,1122001039483,新規,0,2025-08-05,2025-08-05,株式会社金聖,,株式会社,大阪府,八尾市,曙川東２丁目３６－１クレイノマルイチ曙川２０１号,00140157,27,212,5810020,,,,,,,2025-08-05,1,,,,,キンセイ,0
157,1122001039525,新規,0,2025-08-05,2025-08-05,株式会社Ｍｅｔａｌ　Ｅｆｆｏｒｔ,,株式会社,大阪府,東大阪市,水走３丁目１０－１５,,27,227,5780921,,,,,,,2025-08-05,1,,,,,メタルエフォート,0
162,1130003010643,新規,0,2025-08-05,2025-08-05,合同会社Ａｃｔｕｅｌ,,合同会社,京都府,京都市下京区,土手町通七条上る納屋町４０６番地フェリーチェ京都５０５,,26,106,6008142,,,,,,,2025-08-05,1,,,,,アクチュエル,0
167,1140001139566,新規,0,2025-08-05,2025-08-05,株式会社石松石材,,株式会社,兵庫県,神戸市長田区,鶯町４丁目６番３号,,28,106,6530871,,,,,,,2025-08-05,1,,,,,イシマツセキザイ,0
170,1140003022381,新規,0,2025-08-05,2025-08-05,合同会社オールブルー,,合同会社,兵庫県,芦屋市,山芦屋町２６番１０号,00140165,28,206,6590082,,,,,,,2025-08-05,1,,,,,オールブルー,0
175,1150001028306,新規,0,2025-08-05,2025-08-05,ネクストラ株式会社,,株式会社,奈良県,天理市,平等坊町９５番地,,29,204,6320077,,,,,,,2025-08-05,1,,,,,ネクストラ,0
186,1180001168082,新規,0,2025-08-05,2025-08-05,株式会社英幸ホールディングス,,株式会社,愛知県,名古屋市西区,上名古屋４丁目１３番２７号,,23,104,4510025,,,,,,,2025-08-05,1,,,,,エイコウホールディングス,0
190,1200001044099,新規,0,2025-08-05,2025-08-05,株式会社ビビッドクラフト,,株式会社,岐阜県,岐阜市,長良２０７４番地１の１（ステップ１長良１０１号室）,,21,201,5020071,,,,,,,2025-08-05,1,,,,,ビビッドクラフト,0
193,1210001020264,新規,0,2025-08-05,2025-08-05,株式会社ＦＯＯＴ　ＰＩＰＥ,,株式会社,福井県,越前市,池泉町第１６号３７番地,,18,209,9150023,,,,,,,2025-08-05,1,,,,,フットパイプ,0
194,1220001026847,新規,0,2025-08-05,2025-08-05,株式会社ＫＩＲＥＩＮＡＲＵ,,株式会社,石川県,金沢市,新保本３丁目４０番地,,17,201,9218062,,,,,,,2025-08-05,1,,,,,キレイナル,0
196,1230001021021,新規,0,2025-08-05,2025-08-05,株式会社ニッポン・ホリデイ,,株式会社,富山県,南砺市,岩武新３６７番地１,,16,210,9391503,,,,,,,2025-08-05,1,,,,,ニッポンホリデイ,0
198,1240001065307,新規,0,2025-08-05,2025-08-05,株式会社ＳＩＧＮＡＬ,,株式会社,広島県,広島市佐伯区,八幡東２丁目２８番４１号,,34,108,7315115,,,,,,,2025-08-05,1,,,,,シグナル,0
199,1240001065315,新規,0,2025-08-05,2025-08-05,株式会社流田工業,,株式会社,広島県,呉市,広吉松２丁目９番１６号,,34,202,7370121,,,,,,,2025-08-05,1,,,,,ナガレダコウギョウ,0
223,1290801031750,新規,0,2025-08-05,2025-08-05,株式会社八幡塗建,,株式会社,福岡県,北九州市戸畑区,東大谷１丁目１３番３１号,,40,105,8040031,,,,,,,2025-08-05,1,,,,,ヤハタトケン,0
224,1290801031759,新規,0,2025-08-05,2025-08-05,信陽パートナーズ株式会社,,株式会社,福岡県,北九州市門司区,東港町２－２３,,40,101,8010853,,,,,,,2025-08-05,1,,,,,シンヨウパートナーズ,0
225,1290803005125,新規,0,2025-08-05,2025-08-05,ＳＡＫＵＲＡ　ＬＩＮＥ合同会社,,合同会社,福岡県,北九州市八幡西区,東王子町１２番２３－３１０号,,40,109,8060037,,,,,,,2025-08-05,1,,,,,サクラライン,0
227,1310001019726,新規,0,2025-08-05,2025-08-05,株式会社時鳥,,株式会社,長崎県,長崎市,平山台１丁目３番１９号,,42,201,8500996,,,,,,,2025-08-05,1,,,,,ホトトギス,0
228,1310003005055,新規,0,2025-08-05,2025-08-05,合同会社ダンデライオン,,合同会社,長崎県,佐世保市,横尾町２３８３番地１８,,42,202,8570018,,,,,,,2025-08-05,1,,,,,ダンデライオン,0
230,1350005006320,新規,0,2025-08-05,2025-08-05,司法書士法人とどろき綜合法務事務所,,その他の設立登記法人,宮崎県,宮崎市,松橋２丁目５番８号グリーンコーポ松橋１０２号,,45,201,8800013,,,,,,,2025-08-05,1,,,,,トドロキソウゴウホウムジムショ,0
247,1470001020833,新規,0,2025-08-05,2025-08-05,株式会社Ｔｏｍｏ,,株式会社,香川県,高松市,伏石町２１４８番地１１,,37,201,7618071,,,,,,,2025-08-05,1,,,,,トモ,0
248,1470003002945,新規,0,2025-08-05,2025-08-05,ほのか工房合同会社,,合同会社,香川県,丸亀市,垂水町１８２２番地１,,37,202,7630095,,,,,,,2025-08-05,1,,,,,ホノカコウボウ,0
249,1480001012912,新規,0,2025-08-05,2025-08-05,株式会社Ｈｉｌｌ　Ｆｉｅｌｄ,,株式会社,徳島県,板野郡上板町,神宅字新宮北３番地６,,36,405,7711320,,,,,,,2025-08-05,1,,,,,ヒルフィールド,0
251,1490001011129,新規,0,2025-08-05,2025-08-05,ＳＫＹＬＯＧ株式会社,,株式会社,高知県,高知市,南久保１６番２１号,,39,201,7810087,,,,,,,2025-08-05,1,,,,,スカイログ,0
255,1500001026447,新規,0,2025-08-05,2025-08-05,ノーテッジ株式会社,,株式会社,愛媛県,西条市,船屋甲６９２番地１０,,38,206,7930004,,,,,,,2025-08-05,1,,,,,ノーテッジ,0
256,1500001026455,新規,0,2025-08-05,2025-08-05,株式会社頂,,株式会社,愛媛県,松山市,桑原１丁目１番３１号,,38,201,7900911,,,,,,,2025-08-05,1,,,,,イタダキ,0
267,2010005040468,新規,0,2025-08-05,2025-08-05,一般社団法人ＣＨ不動産,,その他の設立登記法人,東京都,中央区,新川１丁目１７番１８号,,13,102,1040033,,,,,,,2025-08-05,1,,,,,シーエイチフドウサン,0
273,2010401192160,新規,0,2025-08-05,2025-08-05,株式会社ＲＢＬ　Ｇｌｏｂａｌ,,株式会社,東京都,港区,麻布十番２丁目２０番７号麻布十番高木ビル,00140162,13,103,1060045,,,,,,,2025-08-05,1,,,,,アールビーエルグローバル,0
274,2010401192177,新規,0,2025-08-05,2025-08-05,ＭＷ株式会社,,株式会社,東京都,港区,芝浦２丁目１４番１８号サカイビル５階１９号室,,13,103,1080023,,,,,,,2025-08-05,1,,,,,エムダブリュ,0
275,2010401192251,新規,0,2025-08-05,2025-08-05,ＡＩＬＯＧＹ株式会社,,株式会社,東京都,港区,元赤坂１丁目１－７オリエント赤坂モートサイド７階,,13,103,1070051,,,,,,,2025-08-05,1,,,,,エーアイロジー,0
276,2010401192268,新規,0,2025-08-05,2025-08-05,ＳＬＢＳ　ＪＡＰＡＮ株式会社,,株式会社,東京都,港区,新橋６丁目１４番５号ＳＷ新橋ビル４階,,13,103,1050004,,,,,,,2025-08-05,1,,,,,エスエルビーエスジャパン,0
279,2010405024566,新規,0,2025-08-05,2025-08-05,一般社団法人共の環,,その他の設立登記法人,東京都,港区,新橋２丁目２－５パイオニアビル３４階,,13,103,1050004,,,,,,,2025-08-05,1,,,,,トモノワ,0
284,2010501054434,新規,0,2025-08-05,2025-08-05,株式会社Ｍｅｒｉｄｉａｎ　Ｃｏｎｓｔｒｕｃｔｉｏｎ　Ｇｒｏｕｐ,,株式会社,東京都,台東区,東上野３丁目１３番５号,,13,106,1100015,,,,,,,2025-08-05,1,,,,,メリディアンコンストラクショングループ,0
285,2010501054517,新規,0,2025-08-05,2025-08-05,華商株式会社,,株式会社,東京都,台東区,浅草３丁目４２－４－５Ｆ,,13,106,1110032,,,,,,,2025-08-05,1,,,,,,0
290,2010701048079,新規,0,2025-08-05,2025-08-05,株式会社ＣＡＲＥ　ＨＡＰＰＩＬＹ,,株式会社,東京都,品川区,北品川３丁目７－１１,,13,109,1400001,,,,,,,2025-08-05,1,,,,,ケアハッピリー,0
291,2010701048104,新規,0,2025-08-05,2025-08-05,小田不動産株式会社,,株式会社,東京都,品川区,東大井５丁目２５番１－３０９号,,13,109,1400011,,,,,,,2025-08-05,1,,,,,オダフドウサン,0
292,2010701048112,新規,0,2025-08-05,2025-08-05,株式会社ＮＲ,,株式会社,東京都,品川区,大井１丁目３１番１－１５０９号,,13,109,1400014,,,,,,,2025-08-05,1,,,,,エヌアール,0
293,2010701048120,新規,0,2025-08-05,2025-08-05,株式会社Ｓｏｌｖｅｒｅ,,株式会社,東京都,品川区,東五反田５丁目２２―３３ＴＫ池田山ビル２Ｆ,,13,109,1410022,,,,,,,2025-08-05,1,,,,,ソルウェレ,0
306,2011001171158,新規,0,2025-08-05,2025-08-05,株式会社ＭＩＣＨＩ,,株式会社,東京都,渋谷区,神宮前５丁目２番１８号,,13,113,1500001,,,,,,,2025-08-05,1,,,,,ミチ,0
307,2011001171174,新規,0,2025-08-05,2025-08-05,株式会社カネフサ,,株式会社,東京都,目黒区,東が丘２丁目１３番２０号,,13,110,1520021,,,,,,,2025-08-05,1,,,,,カネフサ,0
314,2011203004768,新規,0,2025-08-05,2025-08-05,ＦＩＴ　ＴＨＥ　ＲＯＬＥ合同会社,,合同会社,東京都,中野区,東中野１丁目１２番９－３０４号,,13,114,1640003,,,,,,,2025-08-05,1,,,,,フィットザロール,0
316,2011303005658,新規,0,2025-08-05,2025-08-05,ＲＰｏｓｔジャパン合同会社,,合同会社,東京都,杉並区,和泉４丁目１５番１８号,,13,115,1680063,,,,,,,2025-08-05,1,,,,,アールポスト,0
322,2011601028864,新規,0,2025-08-05,2025-08-05,株式会社いながき,,株式会社,東京都,練馬区,南大泉４丁目４３番１２号,,13,120,1780064,,,,,,,2025-08-05,1,,,,,イナガキ,0
327,2012401043418,新規,0,2025-08-05,2025-08-05,ハピたび東京株式会社,,株式会社,東京都,府中市,押立町５丁目１７番地の３９,,13,206,1830012,,,,,,,2025-08-05,1,,,,,ハピタビトウキョウ,0
328,2012401043450,新規,0,2025-08-05,2025-08-05,株式会社レフコースＢＭ,,株式会社,東京都,多摩市,豊ヶ丘２丁目３１番地の１－２０１,,13,224,2060031,,,,,,,2025-08-05,1,,,,,レフコースビーエム,0
329,2012403007263,新規,0,2025-08-05,2025-08-05,合同会社ＳＵＮ　ＫＲＡＦＴ,,合同会社,東京都,府中市,住吉町１丁目８０－５,,13,206,1830034,,,,,,,2025-08-05,1,,,,,サンクラフト,0
332,2013301054703,新規,0,2025-08-05,2025-08-05,ＴＫ株式会社,,株式会社,東京都,豊島区,東池袋１丁目３４番５号いちご東池袋ビル６階,,13,116,1700013,,,,,,,2025-08-05,1,,,,,ティーケー,0
333,2013301054711,新規,0,2025-08-05,2025-08-05,株式会社エスアイ企画,,株式会社,東京都,豊島区,上池袋４丁目３１番２８号プラウドシティー上池袋１１５号,,13,116,1700012,,,,,,,2025-08-05,1,,,,,エスアイキカク,0
342,2020001164014,新規,0,2025-08-05,2025-08-05,株式会社サニーハート,,株式会社,神奈川県,川崎市高津区,梶ケ谷４丁目１１番地２ユニテ梶ヶ谷グランディ２０３,,14,134,2130015,,,,,,,2025-08-05,1,,,,,サニーハート,0
343,2020001164212,新規,0,2025-08-05,2025-08-05,株式会社Ｐｉｅｒ’ｓ,,株式会社,神奈川県,横浜市中区,北仲通５丁目５７番地２ザ・タワー横浜北仲２１２４号室,,14,104,2310003,,,,,,,2025-08-05,1,,,,,ピアーズ,0
344,2020001164220,新規,0,2025-08-05,2025-08-05,Ｂ‐Ｐｌａｃｅ株式会社,,株式会社,神奈川県,川崎市多摩区,生田４丁目２４番１－４０７号,,14,135,2140038,,,,,,,2025-08-05,1,,,,,ビープレイス,0
347,2020003029082,新規,0,2025-08-05,2025-08-05,合同会社創研物流,,合同会社,神奈川県,横浜市南区,六ツ川１丁目１６７番地１１ユーフォリア弘明寺２０１,,14,105,2320066,,,,,,,2025-08-05,1,,,,,ソウケンブツリュウ,0
348,2020003029099,新規,0,2025-08-05,2025-08-05,合同会社みんなのＣＲＭ,,合同会社,神奈川県,横浜市戸塚区,前田町２１９番地８,,14,110,2440804,,,,,,,2025-08-05,1,,,,,ミンナノシーアールエム,0
364,2040001139914,新規,0,2025-08-05,2025-08-05,株式会社かいけつ君,,株式会社,千葉県,千葉市稲毛区,六方町２１５－９,,12,103,2630004,,,,,,,2025-08-05,1,,,,,カイケツクン,0
365,2040003028181,新規,0,2025-08-05,2025-08-05,合同会社ｇｏｏｄｇｏ３,,合同会社,千葉県,成田市,新妻７８１番地２,,12,211,2860837,,,,,,,2025-08-05,1,,,,,グッドゴースリー,0
372,2050001057017,新規,0,2025-08-05,2025-08-05,Ｍｉｎｅｒａｌ　ｓｐａ株式会社,,株式会社,茨城県,牛久市,ひたち野西３丁目３７番１,,08,219,3001206,,,,,,,2025-08-05,1,,,,,ミネラルスパ,0
383,2080101025696,新規,0,2025-08-05,2025-08-05,株式会社光創,,株式会社,静岡県,富士宮市,淀川町８番２３号,,22,207,4180041,,,,,,,2025-08-05,1,,,,,コウソウ,0
385,2080401028077,新規,0,2025-08-05,2025-08-05,株式会社ウチヤマ企画,,株式会社,静岡県,浜松市浜名区,細江町気賀１０３番地の２,,22,139,4311305,,,,,,,2025-08-05,1,,,,,ウチヤマキカク,0
386,2080401028085,新規,0,2025-08-05,2025-08-05,ルーバーテック株式会社,,株式会社,静岡県,浜松市中央区,松城町２１４番地の１０ＰＬＡＺＡ出世城２－１,,22,138,4300947,,,,,,,2025-08-05,1,,,,,ルーバーテック,0
387,2090001019434,新規,0,2025-08-05,2025-08-05,株式会社ＳＴＡＮＤＡＲＤ工務店,,株式会社,山梨県,甲府市,七沢町３５７番地２,,19,201,4000825,,,,,,,2025-08-05,1,,,,,スタンダードコウムテン,0
388,2090003002867,新規,0,2025-08-05,2025-08-05,合同会社ツパイ工房,,合同会社,山梨県,北杜市,高根町村山北割５３番地,,19,209,4080002,,,,,,,2025-08-05,1,,,,,ツパイコウボウ,0
391,2100001038829,新規,0,2025-08-05,2025-08-05,株式会社ＴＡＬ,,株式会社,長野県,松本市,波田３７７番地,,20,202,3901401,,,,,,,2025-08-05,1,,,,,ティーアセットリンクス,0
394,2110003005850,新規,0,2025-08-05,2025-08-05,ＥＬＦＡＢＯＳ合同会社,,合同会社,新潟県,三条市,中浦８５１,,15,204,9550113,,,,,,,2025-08-05,1,,,,,エルファボス,0
404,2120001277986,新規,0,2025-08-05,2025-08-05,だるま商事株式会社,,株式会社,大阪府,大阪市東成区,大今里南６丁目２３番２号,,27,115,5370013,,,,,,,2025-08-05,1,,,,,ダルマショウジ,0
405,2120001278448,新規,0,2025-08-05,2025-08-05,瑞亭株式会社,,株式会社,大阪府,大阪市阿倍野区,昭和町５丁目１０番２４－３０４号,,27,119,5450011,,,,,,,2025-08-05,1,,,,,ズイテイ,0
406,2120001278456,新規,0,2025-08-05,2025-08-05,Ｓｈａｌｏｍ株式会社,,株式会社,大阪府,大阪市大正区,小林東３丁目１番１５号２０３号室,,27,108,5510011,,,,,,,2025-08-05,1,,,,,サロン,0
407,2120001278472,新規,0,2025-08-05,2025-08-05,ＴＭ電設株式会社,,株式会社,大阪府,大阪市西淀川区,姫島３丁目１１番４７－５０２号,,27,113,5550033,,,,,,,2025-08-05,1,,,,,ティーエムデンセツ,0
408,2120001278539,新規,0,2025-08-05,2025-08-05,株式会社ＴＳＫ,,株式会社,大阪府,大阪市生野区,田島４丁目１９番２号,,27,116,5440011,,,,,,,2025-08-05,1,,,,,ティーエスケー,0
412,2120003030195,新規,0,2025-08-05,2025-08-05,合同会社鷹ノ家プロジェクト,,合同会社,大阪府,大阪市平野区,喜連西３丁目１３番２３号,,27,126,5470026,,,,,,,2025-08-05,1,,,,,タカノヤプロジェクト,0
413,2120003030212,新規,0,2025-08-05,2025-08-05,合同会社Ａｃｔａ,,合同会社,大阪府,大阪市東住吉区,駒川１丁目１０番１７号,,27,121,5460043,,,,,,,2025-08-05,1,,,,,アクタ,0
414,2120003030237,新規,0,2025-08-05,2025-08-05,合同会社プロセス研究所,,合同会社,大阪府,大阪市北区,与力町７番９号－６０１,,27,127,5300036,,,,,,,2025-08-05,1,,,,,プロセスケンキュウショ,0
415,2120103006608,新規,0,2025-08-05,2025-08-05,合同会社ＡＫプランニング,,合同会社,大阪府,和泉市,寺門町１丁目２番１号,,27,219,5940064,,,,,,,2025-08-05,1,,,,,エーケープランニング,0
420,2120901051292,新規,0,2025-08-05,2025-08-05,株式会社共進でんき,,株式会社,大阪府,高槻市,大冠町２丁目７番２１号,,27,207,5690031,,,,,,,2025-08-05,1,,,,,キョウシンデンキ,0
424,2130003010642,新規,0,2025-08-05,2025-08-05,合同会社チーム竹本,,合同会社,京都府,京都市中京区,新椹木町通二条上る角倉町２２７番地竹本ビル,,26,104,6040913,,,,,,,2025-08-05,1,,,,,チームタケモト,0
428,2140001139482,新規,0,2025-08-05,2025-08-05,株式会社ＭＡＭＭＬＥ,,株式会社,兵庫県,神戸市東灘区,岡本８丁目１０番３３－３１１号,,28,101,6580072,,,,,,,2025-08-05,1,,,,,マムル,0
429,2140001139516,新規,0,2025-08-05,2025-08-05,株式会社Ｒ＆Ｃｏ．,,株式会社,兵庫県,姫路市,西中島２８０番地５光晴ビル３階,,28,201,6700805,,,,,,,2025-08-05,1,,,,,アールアンドコ,0
430,2140001139573,新規,0,2025-08-05,2025-08-05,株式会社長谷川商店,,株式会社,兵庫県,神戸市長田区,駒ケ林町１丁目１０番２０号,,28,106,6530043,,,,,,,2025-08-05,1,,,,,ハセガワショウテン,0
431,2140003022364,新規,0,2025-08-05,2025-08-05,Ｙｏｕ＆Ｍｅ合同会社,,合同会社,兵庫県,姫路市,南畝町２丁目３２番地リベールグラン姫路８０２,,28,201,6700961,,,,,,,2025-08-05,1,,,,,,0
432,2140003022380,新規,0,2025-08-05,2025-08-05,合同会社ジフレド,,合同会社,兵庫県,芦屋市,山芦屋町２６番１０号,00140164,28,206,6590082,,,,,,,2025-08-05,1,,,,,ジフレド,0
433,2150001028305,新規,0,2025-08-05,2025-08-05,株式会社フロレレ,,株式会社,奈良県,葛城市,北花内２７２番地１,,29,211,6392113,,,,,,,2025-08-05,1,,,,,フロレレ,0
434,2150005009714,新規,0,2025-08-05,2025-08-05,一般社団法人中川留学生大学進学支援サービス,,その他の設立登記法人,奈良県,御所市,大字名柄１０５番地,,29,208,6392321,,,,,,,2025-08-05,1,,,,,ナカガワリュウガクセイダイガクシンガクシエンサービス,0
437,2170001018741,新規,0,2025-08-05,2025-08-05,株式会社カラット,,株式会社,和歌山県,有田郡有田川町,大字小島４４９番地１,,30,366,6430034,,,,,,,2025-08-05,1,,,,,カラット,0
443,2180001168081,新規,0,2025-08-05,2025-08-05,株式会社ＴＡＣ,,株式会社,愛知県,日進市,竹の山３丁目４１１番地,,23,230,4700136,,,,,,,2025-08-05,1,,,,,ティーエーシー,0
446,2190001032435,新規,0,2025-08-05,2025-08-05,株式会社高磊商事,,株式会社,三重県,度会郡大紀町,滝原１２１番地,,24,471,5192703,,,,,,,2025-08-05,1,,,,,,0
452,2200001044098,新規,0,2025-08-05,2025-08-05,メタインク株式会社,,株式会社,岐阜県,岐阜市,正木１４２５番地１,,21,201,5020857,,,,,,,2025-08-05,1,,,,,メタインク,0
456,2220001026846,新規,0,2025-08-05,2025-08-05,ＴＡＣＨＩＢＡＮＡ　Ｔｏｔａｌ　Ｓｕｐｐｏｒｔ株式会社,,株式会社,石川県,金沢市,窪７丁目２７３番地,,17,201,9218151,,,,,,,2025-08-05,1,,,,,タチバナトータルサポート,0
460,2230001021020,新規,0,2025-08-05,2025-08-05,株式会社ＫＵＲＯＢＥアクアフェアリーズ富山,,株式会社,富山県,黒部市,三日市４０１６番地１パッシブタウン１街区Ａ棟南,,16,207,9380031,,,,,,,2025-08-05,1,,,,,クロベアクアフェアリーズトヤマ,0
462,2240001065330,新規,0,2025-08-05,2025-08-05,株式会社ＱＳＣｅｒｔ　Ｊａｐａｎ,,株式会社,広島県,廿日市市,吉和９８１番地４６,,34,213,7380301,,,,,,,2025-08-05,1,,,,,キューエスサートジャパン,0
464,2240003007339,新規,0,2025-08-05,2025-08-05,合同会社Ｃａｒｐｅ　Ｄｉｅｍ,,合同会社,広島県,広島市安佐南区,緑井２丁目１４番５号,,34,105,7310103,,,,,,,2025-08-05,1,,,,,カルペディエム,0
468,2260003005282,新規,0,2025-08-05,2025-08-05,ライフリッチ合同会社,,合同会社,岡山県,倉敷市,福田町古新田１３４番地２１,,33,202,7128046,,,,,,,2025-08-05,1,,,,,ライフリッチ,0
474,2290003017226,新規,0,2025-08-05,2025-08-05,合同会社フィールドオブオーシャン,,合同会社,福岡県,福岡市東区,土井１丁目１４番６号,,40,131,8130032,,,,,,,2025-08-05,1,,,,,フィールドオブオーシャン,0
477,2290803005124,新規,0,2025-08-05,2025-08-05,合同会社ＧＴＤ,,合同会社,福岡県,鞍手郡鞍手町,大字新北字新町１２５６番１,,40,402,8071313,,,,,,,2025-08-05,1,,,,,ジーティーディ,0
482,2320001021250,新規,0,2025-08-05,2025-08-05,株式会社フェスタブル,,株式会社,大分県,大分市,府内町２丁目４番５号若竹ビル２Ｆ,,44,201,8700021,,,,,,,2025-08-05,1,,,,,フェスタブル,0
499,2360005007259,新規,0,2025-08-05,2025-08-05,一般社団法人沖縄県ピックルボール協会,,その他の設立登記法人,沖縄県,糸満市,字大里６１１番地の１,,47,210,9010325,,,,,,,2025-08-05,1,,,,,オキナワケンピックルボールキョウカイ,0
509,2400001017125,新規,0,2025-08-05,2025-08-05,株式会社ｕｌｕ,,株式会社,岩手県,奥州市,水沢字西町二丁目３４番地２,,03,215,0230816,,,,,,,2025-08-05,1,,,,,ウル,0
512,2410001014245,新規,0,2025-08-05,2025-08-05,エノングループ株式会社,,株式会社,秋田県,由利本荘市,中梵天９０番地４,,05,210,0150851,,,,,,,2025-08-05,1,,,,,エノングループ,0
514,2440001009663,新規,0,2025-08-05,2025-08-05,株式会社ＤＲＭ,,株式会社,北海道,函館市,杉並町６番６号,,01,202,0400004,,,,,,,2025-08-05,1,,,,,ディーアールエム,0
516,2460101007739,新規,0,2025-08-05,2025-08-05,株式会社とかち有機サポート,,株式会社,北海道,河東郡士幌町,字上音更３０２番地,,01,632,0801249,,,,,,,2025-08-05,1,,,,,トカチユウキサポート,0
517,2460103001731,新規,0,2025-08-05,2025-08-05,合同会社とかち百笑ｆａｒｍ,,合同会社,北海道,河西郡芽室町,坂の上９線６７番地１,,01,637,0820075,,,,,,,2025-08-05,1,,,,,トカチヒャクショウファーム,0
518,2470001020840,新規,0,2025-08-05,2025-08-05,Ｂ．ＲＩＤＧＥ株式会社,,株式会社,香川県,高松市,天神前１０番５号高松セントラルスカイビルディング３Ｆ　ｓｏｕｔｈ,,37,201,7600018,,,,,,,2025-08-05,1,,,,,ビーリッジ,0
519,2470003002944,新規,0,2025-08-05,2025-08-05,合同会社アンクール,,合同会社,香川県,丸亀市,飯山町西坂元７３６番地１,,37,202,7620087,,,,,,,2025-08-05,1,,,,,アンクール,0
527,2500001026454,新規,0,2025-08-05,2025-08-05,株式会社西岡電工,,株式会社,愛媛県,松山市,府中５９２番地５,,38,201,7992435,,,,,,,2025-08-05,1,,,,,ニシオカデンコウ,0
535,2700150062511,新規,0,2025-08-05,2015-10-09,熊本市地域みどり推進協議会,,その他,熊本県,熊本市中央区,手取本町１番１号熊本市役所　花とみどり協働課内,,43,101,8600808,,,,,,,2015-10-09,1,,,,,クマモトシチイキミドリスイシンキヨウギカイ,0
542,3010001257156,新規,0,2025-08-05,2025-08-05,株式会社プルミエール,,株式会社,東京都,中央区,日本橋本町３丁目３－６ワカ末ビル７Ｆ,,13,102,1030023,,,,,,,2025-08-05,1,,,,,プルミエール,0
543,3010003048248,新規,0,2025-08-05,2025-08-05,Ｋｙｌｉｎ高田馬場合同会社,,合同会社,東京都,中央区,日本橋中洲４番１３－３０７号,,13,102,1030008,,,,,,,2025-08-05,1,,,,,キリンタカダノババ,0
544,3010003048256,新規,0,2025-08-05,2025-08-05,ＥＭＭＡ合同会社,,合同会社,東京都,中央区,日本橋浜町２丁目１６番６号ハウスジェントウル３０２,,13,102,1030007,,,,,,,2025-08-05,1,,,,,イーエムエムエー,0
546,3010005040434,新規,0,2025-08-05,2025-08-05,一般社団法人日本ラグジュアリー・アカデミー,,その他の設立登記法人,東京都,中央区,銀座６丁目１３番１６号銀座ＷａｌｌビルＵＣＦ５階,,13,102,1040061,,,,,,,2025-08-05,1,,,,,ニホンラグジュアリーアカデミー,0
547,3010005040475,新規,0,2025-08-05,2025-08-05,一般社団法人フォレスト,,その他の設立登記法人,東京都,千代田区,霞が関３丁目２番５号,,13,101,1000013,,,,,,,2025-08-05,1,,,,,フォレスト,0
553,3010401192201,新規,0,2025-08-05,2025-08-05,８０１Ｃ株式会社,,株式会社,東京都,港区,南青山６丁目１番６号パレス青山５１０,,13,103,1070062,,,,,,,2025-08-05,1,,,,,エイトオーワンシー,0
554,3010401192267,新規,0,2025-08-05,2025-08-05,Ｚｉｍｍｅｒｍａｎｎ　Ｊａｐａｎ株式会社,,株式会社,東京都,港区,六本木１丁目９番１０号アークヒルズ仙石山森タワー２８階ベーカー＆マッケンジー法律事務所（外国法共同事業）内,,13,103,1060032,,,,,,,2025-08-05,1,,,,,ジマーマンジャパン,0
555,3010403035738,新規,0,2025-08-05,2025-08-05,オススメ合同会社,,合同会社,東京都,港区,東麻布１丁目２３番５号ＰＭＣビル２Ｆ,,13,103,1060044,,,,,,,2025-08-05,1,,,,,オススメ,0
557,3010501054482,新規,0,2025-08-05,2025-08-05,株式会社森の縁,,株式会社,東京都,台東区,竜泉２丁目１２番１０－１１０４号,,13,106,1100012,,,,,,,2025-08-05,1,,,,,モリノエン,0
564,3010601067723,新規,0,2025-08-05,2025-08-05,株式会社ＦＴＭ,,株式会社,東京都,墨田区,亀沢４丁目１６番１７－８０５号,,13,107,1300014,,,,,,,2025-08-05,1,,,,,エフティーエム,0
570,3010903010158,新規,0,2025-08-05,2025-08-05,Ｔ＆Ｃｏ．合同会社,,合同会社,東京都,世田谷区,代沢４丁目３３番３号,,13,112,1550032,,,,,,,2025-08-05,1,,,,,ティーアンドシーオー,0
575,3011001171157,新規,0,2025-08-05,2025-08-05,株式会社Ｅ‐ｐｌａｎ,,株式会社,東京都,渋谷区,代官山町８－７Ｄａｉｗａ代官山ビル１階－６階,,13,113,1500034,,,,,,,2025-08-05,1,,,,,イープラン,0
576,3011001171173,新規,0,2025-08-05,2025-08-05,株式会社ＳＯＬＩＯＮ,,株式会社,東京都,渋谷区,渋谷２丁目１９番１９号ワコー宮益坂ビル５階,,13,113,1500002,,,,,,,2025-08-05,1,,,,,ソリオン,0
583,3011103016094,新規,0,2025-08-05,2025-08-05,合同会社ＴＡＳＱＯＬ,,合同会社,東京都,新宿区,西新宿３丁目３番１３号西新宿水間ビル２Ｆ,,13,104,1600023,,,,,,,2025-08-05,1,,,,,タスコル,0
584,3011201026549,新規,0,2025-08-05,2025-08-05,株式会社ＯＲＩＴＡＬ,,株式会社,東京都,中野区,中野５丁目６７番７号プラザ中野８０１,,13,114,1640001,,,,,,,2025-08-05,1,,,,,オリタル,0
585,3011303005649,新規,0,2025-08-05,2025-08-05,合同会社Ｐｌｕｓ　Ａｌｐｈａｒｍ,,合同会社,東京都,杉並区,高井戸東４丁目１１―２９,,13,115,1680072,,,,,,,2025-08-05,1,,,,,プラスアルファーム,0
587,3011501032346,新規,0,2025-08-05,2025-08-05,株式会社オリパ大吉,,株式会社,東京都,北区,東十条１丁目１９－１０－３０４,,13,117,1140001,,,,,,,2025-08-05,1,,,,,オリパダイキチ,0
589,3011601028863,新規,0,2025-08-05,2025-08-05,株式会社ハートフルコミュニケーション,,株式会社,東京都,練馬区,富士見台２丁目１８番２１号,,13,120,1770034,,,,,,,2025-08-05,1,,,,,ハートフルコミュニケーション,0
604,3013301054710,新規,0,2025-08-05,2025-08-05,株式会社東京ファシリティーズ,,株式会社,東京都,豊島区,南大塚３丁目１１番９号増原ビル３階,,13,116,1700005,,,,,,,2025-08-05,1,,,,,トウキョウファシリティーズ,0
605,3013303007798,新規,0,2025-08-05,2025-08-05,合同会社ＴＯＭＩ,,合同会社,東京都,豊島区,駒込６丁目３４番１６号,,13,116,1700003,,,,,,,2025-08-05,1,,,,,トミ,0
611,3020001164013,新規,0,2025-08-05,2025-08-05,株式会社ＳｈｉｎｅＬｉｎｋ　Ｇｌｏｂａｌ,,株式会社,神奈川県,川崎市多摩区,長尾６丁目１番１－２２０７号,,14,135,2140023,,,,,,,2025-08-05,1,,,,,シャインリンクグローバル,0
612,3020001164178,新規,0,2025-08-05,2025-08-05,株式会社Ｒｅｅｆ,,株式会社,神奈川県,横浜市戸塚区,平戸４丁目１番５１号,,14,110,2440802,,,,,,,2025-08-05,1,,,,,リーフ,0
618,3020003029008,新規,0,2025-08-05,2025-08-05,合同会社ＲＡＶＥＮ,,合同会社,神奈川県,横浜市港北区,綱島台２３番８号フルール１０５,,14,109,2230054,,,,,,,2025-08-05,1,,,,,レイヴン,0
625,3021001085959,新規,0,2025-08-05,2025-08-05,株式会社コア,,株式会社,神奈川県,横須賀市,小原台７番１１号,,14,201,2390812,,,,,,,2025-08-05,1,,,,,コア,0
641,3040001139888,新規,0,2025-08-05,2025-08-05,株式会社ＯＳＡＮＰＯ,,株式会社,千葉県,千葉市中央区,宮崎２丁目６番１号,,12,101,2600806,,,,,,,2025-08-05,1,,,,,オサンポ,0
642,3040001139938,新規,0,2025-08-05,2025-08-05,株式会社アーチ,,株式会社,千葉県,千葉市中央区,星久喜町１１５７－４８－２０４,,12,101,2600808,,,,,,,2025-08-05,1,,,,,アーチ,0
646,3040003028180,新規,0,2025-08-05,2025-08-05,合同会社ＴＡＲＯＵ,,合同会社,千葉県,鎌ケ谷市,中央２丁目１４番１３－１号,,12,224,2730124,,,,,,,2025-08-05,1,,,,,タロウ,0
648,3050001057024,新規,0,2025-08-05,2025-08-05,株式会社オンコファーマプロ,,株式会社,茨城県,水戸市,城東１丁目３番８号イソラヴェラ１階Ｂ,,08,201,3100012,,,,,,,2025-08-05,1,,,,,オンコファーマプロ,0
653,3060001038452,新規,0,2025-08-05,2025-08-05,株式会社ベーシックホールディングス,,株式会社,栃木県,宇都宮市,宮みらい１番１号ウツノミヤテラス３階,,09,201,3210969,,,,,,,2025-08-05,1,,,,,ベーシックホールディングス,0
654,3060001038460,新規,0,2025-08-05,2025-08-05,株式会社オフィスモリタ,,株式会社,栃木県,宇都宮市,細谷町２５３番地１１,,09,201,3200074,,,,,,,2025-08-05,1,,,,,オフィスモリタ,0
655,3060001038469,新規,0,2025-08-05,2025-08-05,株式会社ＹＡＳＵＫＥＮ,,株式会社,栃木県,宇都宮市,石井町２９６０番地１,,09,201,3210912,,,,,,,2025-08-05,1,,,,,ヤスケン,0
656,3060003005665,新規,0,2025-08-05,2025-08-05,ひとクル合同会社,,合同会社,栃木県,芳賀郡益子町,大字益子３７７８番地,,09,342,3214217,,,,,,,2025-08-05,1,,,,,ヒトクル,0
659,3080001027065,新規,0,2025-08-05,2025-08-05,株式会社ＷＡＮＳ企画,,株式会社,静岡県,静岡市葵区,南沼上９７５番地の２８,,22,101,4200905,,,,,,,2025-08-05,1,,,,,ワンズキカク,0
660,3080001027073,新規,0,2025-08-05,2025-08-05,株式会社コギン,,株式会社,静岡県,静岡市葵区,城内町６番６号,,22,101,4200854,,,,,,,2025-08-05,1,,,,,コギン,0
665,3080401028076,新規,0,2025-08-05,2025-08-05,株式会社ＳＦｓｅｃｕｒｉｔｙ,,株式会社,静岡県,浜松市中央区,高丘東３丁目３１番２５号,,22,138,4338117,,,,,,,2025-08-05,1,,,,,エスエフセキュリティ,0
666,3080401028084,新規,0,2025-08-05,2025-08-05,株式会社アオシマ美構,,株式会社,静岡県,磐田市,匂坂中１０１９番地２,,22,211,4380004,,,,,,,2025-08-05,1,,,,,アオシマビコウ,0
667,3090001019433,新規,0,2025-08-05,2025-08-05,株式会社丸啓,,株式会社,山梨県,富士吉田市,新倉２６０９番地の１,,19,202,4030011,,,,,,,2025-08-05,1,,,,,,0
684,3120001278414,新規,0,2025-08-05,2025-08-05,慶和国際株式会社,,株式会社,大阪府,大阪市東住吉区,今川４丁目２１番１５号（３０２号室）,,27,121,5460003,,,,,,,2025-08-05,1,,,,,ケイワコクサイ,0
685,3120001278439,新規,0,2025-08-05,2025-08-05,ＺＹ株式会社,,株式会社,大阪府,大阪市生野区,巽南１丁目４番９号,00140156,27,116,5440015,,,,,,,2025-08-05,1,,,,,ゼットワイ,0
686,3120001278447,新規,0,2025-08-05,2025-08-05,ＫＩＺＡＳＵ株式会社,,株式会社,大阪府,大阪市中央区,内本町１丁目３番５号,,27,128,5400026,,,,,,,2025-08-05,1,,,,,キザス,0
687,3120001278455,新規,0,2025-08-05,2025-08-05,株式会社阿興社,,株式会社,大阪府,大阪市此花区,春日出北３丁目１３番３７－４０３号,,27,104,5540021,,,,,,,2025-08-05,1,,,,,アキョウシャ,0
688,3120001278463,新規,0,2025-08-05,2025-08-05,株式会社大輝理工,,株式会社,大阪府,大阪市城東区,蒲生１丁目３番２４号,,27,118,5360016,,,,,,,2025-08-05,1,,,,,ダイキリコウ,0
689,3120001278505,新規,0,2025-08-05,2025-08-05,石力株式会社,,株式会社,大阪府,大阪市西成区,千本南１丁目４番１１－３０８号,,27,122,5570055,,,,,,,2025-08-05,1,,,,,セキリキ,0
690,3120001278521,新規,0,2025-08-05,2025-08-05,株式会社無量生境,,株式会社,大阪府,大阪市中央区,北久宝寺町３丁目６番１号本町南ガーデンシティ７階,,27,128,5410057,,,,,,,2025-08-05,1,,,,,グランゾーン,0
694,3120003030236,新規,0,2025-08-05,2025-08-05,合同会社ＶＦｌｏｗ,,合同会社,大阪府,大阪市東淀川区,豊里２丁目２－１７コーポ新豊里２０１,,27,114,5330013,,,,,,,2025-08-05,1,,,,,ブイフロー,0
696,3120103006607,新規,0,2025-08-05,2025-08-05,合同会社こころ,,合同会社,大阪府,堺市東区,高松１９１番地２９,,27,143,5998121,,,,,,,2025-08-05,1,,,,,ココロ,0
701,3122001039481,新規,0,2025-08-05,2025-08-05,明朗株式会社,,株式会社,大阪府,八尾市,東山本新町８丁目５番３号（１Ｆ）,,27,212,5810866,,,,,,,2025-08-05,1,,,,,メイロウ,0
707,3130001080190,新規,0,2025-08-05,2025-08-05,株式会社ムーブトラスト,,株式会社,京都府,京都市山科区,勧修寺東金ケ崎町８９,,26,110,6078213,,,,,,,2025-08-05,1,,,,,ムーブトラスト,0
708,3130001080240,新規,0,2025-08-05,2025-08-05,株式会社Ｃ‐ＲＯＡＤ,,株式会社,京都府,宇治市,小倉町南浦３５番地の１２新小倉ビル３階Ｂ,,26,204,6110042,,,,,,,2025-08-05,1,,,,,シーロード,0
709,3130001080281,新規,0,2025-08-05,2025-08-05,ソシィソリューションズコンサルティング株式会社,,株式会社,京都府,京都市下京区,七条通油小路東入大黒町２２７番地第２キョートビル４０２,,26,106,6008223,,,,,,,2025-08-05,1,,,,,ソシィソリューションズコンサルティング,0
711,3130005017420,新規,0,2025-08-05,2025-08-05,特定非営利活動法人京都社会人大学校,,その他の設立登記法人,京都府,京都市上京区,河原町広小路上ル九軒町４２７番地,,26,102,6020000,,,,,,,2025-08-05,1,,,,,キョウトシャカイジンダイガクコウ,0
716,3140001139515,新規,0,2025-08-05,2025-08-05,株式会社ＭＥＩＪＩ,,株式会社,兵庫県,西宮市,一ケ谷町１番７０－１０３号,,28,204,6620873,,,,,,,2025-08-05,1,,,,,メイジ,0
717,3140001139523,新規,0,2025-08-05,2025-08-05,ＧＡＵＤＩＳＫＩＮ株式会社,,株式会社,兵庫県,神戸市北区,藤原台中町１丁目２番１号北神中央ビル３０３,,28,109,6511302,,,,,,,2025-08-05,1,,,,,ガウディスキン,0
721,3140003022388,新規,0,2025-08-05,2025-08-05,ＮＴＨＤ合同会社,,合同会社,兵庫県,神戸市長田区,大谷町３丁目７－１２－１Ｆ,,28,106,6530838,,,,,,,2025-08-05,1,,,,,エヌティーエイチディー,0
722,3140005027575,新規,0,2025-08-05,2025-08-05,労働者協同組合ｈａｔａ,,その他の設立登記法人,兵庫県,神戸市須磨区,多井畑字山神６,,28,107,6540133,,,,,,,2025-08-05,1,,,,,ハタ,0
723,3140005027583,新規,0,2025-08-05,2025-08-05,特定非営利活動法人聴覚障害者と聴者の会すばる,,その他の設立登記法人,兵庫県,尼崎市,東難波町２丁目１６番１－８１７号,,28,202,6600892,,,,,,,2025-08-05,1,,,,,チョウカクショウガイシャトチョウシャノカイスバル,0
730,3180001168007,新規,0,2025-08-05,2025-08-05,城滄錦運株式会社,,株式会社,愛知県,名古屋市中区,新栄１丁目２８番２３号,,23,106,4600007,,,,,,,2025-08-05,1,,,,,ジョウソウキンウン,0
731,3180001168031,新規,0,2025-08-05,2025-08-05,株式会社アイウェイレンタカー,,株式会社,愛知県,名古屋市西区,稲生町３丁目３６番地カーサエテルナ３ｄ,,23,104,4510012,,,,,,,2025-08-05,1,,,,,アイウェイレンタカー,0
732,3180001168114,新規,0,2025-08-05,2025-08-05,Ｔ‐ＣＲＡＦＴ株式会社,,株式会社,愛知県,名古屋市緑区,小坂２丁目１３１３番地の６,,23,114,4580022,,,,,,,2025-08-05,1,,,,,ティークラフト,0
737,3180301040071,新規,0,2025-08-05,2025-08-05,株式会社Ｔフロンティア,,株式会社,愛知県,碧南市,浅間町５丁目４６番地ラフィーネ新川３０２号,,23,209,4470865,,,,,,,2025-08-05,1,,,,,ティーフロンティア,0
738,3180303006681,新規,0,2025-08-05,2025-08-05,ライフサービスパートナー合同会社,,合同会社,愛知県,岡崎市,井内町字上河原３４番地１,,23,202,4440203,,,,,,,2025-08-05,1,,,,,セカンドライフパートナー,0
739,3200001044097,新規,0,2025-08-05,2025-08-05,株式会社さこう農園,,株式会社,岐阜県,美濃加茂市,山之上町１９４番地,,21,211,5050003,,,,,,,2025-08-05,1,,,,,サコウノウエン,0
741,3200003006946,新規,0,2025-08-05,2025-08-05,モリタビ合同会社,,合同会社,岐阜県,岐阜市,岩崎４４５番地３,,21,201,5020005,,,,,,,2025-08-05,1,,,,,モリタビ,0
745,3220001026837,新規,0,2025-08-05,2025-08-05,株式会社Ｐｉｌｉｎａｃｒｅａ,,株式会社,石川県,金沢市,南新保町ハ３６番地３,,17,201,9200064,,,,,,,2025-08-05,1,,,,,ピリナクレア,0
746,3230001021028,新規,0,2025-08-05,2025-08-05,株式会社Ｌｉｅｎ,,株式会社,富山県,富山市,掛尾町２８４番地３,,16,201,9398212,,,,,,,2025-08-05,1,,,,,リアン,0
750,3240001065313,新規,0,2025-08-05,2025-08-05,ＮＫサービス株式会社,,株式会社,広島県,安芸郡府中町,本町１丁目１２番２１号,,34,302,7350006,,,,,,,2025-08-05,1,,,,,エヌケイサービス,0
754,3260003005281,新規,0,2025-08-05,2025-08-05,ＥＳ‐２合同会社,,合同会社,岡山県,岡山市北区,今４丁目１５番３３号,,33,101,7000975,,,,,,,2025-08-05,1,,,,,イーエスツー,0
756,3280001009480,新規,0,2025-08-05,2025-08-05,株式会社Ｎプランニング,,株式会社,島根県,松江市,黒田町４６５番地１,,32,201,6900876,,,,,,,2025-08-05,1,,,,,エヌプランニング,0
757,3280003001980,新規,0,2025-08-05,2025-08-05,マノ不動産合同会社,,合同会社,島根県,益田市,三宅町２番３２号,,32,204,6980006,,,,,,,2025-08-05,1,,,,,マノフドウサン,0
759,3290001110865,新規,0,2025-08-05,2025-08-05,Ｍｕｋｕ株式会社,,株式会社,福岡県,福岡市中央区,清川３丁目１６番２１号,,40,133,8100005,,,,,,,2025-08-05,1,,,,,ムク,0
763,3290801031757,新規,0,2025-08-05,2025-08-05,株式会社エヌ・ファースト,,株式会社,福岡県,北九州市小倉北区,大田町２番５－７０６号,,40,106,8020015,,,,,,,2025-08-05,1,,,,,エヌファースト,0
766,3290803005123,新規,0,2025-08-05,2025-08-05,河合電設合同会社,,合同会社,福岡県,北九州市門司区,風師２丁目２番３０号,,40,101,8010801,,,,,,,2025-08-05,1,,,,,カワイデンセツ,0
773,3310003005053,新規,0,2025-08-05,2025-08-05,合同会社ストロベリービーイング,,合同会社,長崎県,長崎市,小瀬戸町８４８番地,,42,201,8500077,,,,,,,2025-08-05,1,,,,,ストロベリービーイング,0
775,3320001021274,新規,0,2025-08-05,2025-08-05,株式会社中津学校給食サービス,,株式会社,大分県,中津市,大字万田６４８番地１,,44,203,8710025,,,,,,,2025-08-05,1,,,,,ナカツガッコウキュウショクサービス,0
776,3330001033450,新規,0,2025-08-05,2025-08-05,ＩＺＵＭＯ株式会社,,株式会社,熊本県,熊本市東区,尾ノ上１丁目８番２７号,,43,102,8620913,,,,,,,2025-08-05,1,,,,,イズモ,0
787,3360001035601,新規,0,2025-08-05,2025-08-05,株式会社Ｌｉｅｎｄａｙｓ,,株式会社,沖縄県,那覇市,高良１丁目９番２６号,,47,201,9010145,,,,,,,2025-08-05,1,,,,,リアンデイズ,0
789,3360005007258,新規,0,2025-08-05,2025-08-05,特定非営利活動法人ＣＴＦ,,その他の設立登記法人,沖縄県,糸満市,字阿波根１４０６番地の２４８,,47,210,9010301,,,,,,,2025-08-05,1,,,,,シーティーエフ,0
799,3450001014694,新規,0,2025-08-05,2025-08-05,株式会社ワンエイト,,株式会社,北海道,旭川市,西神楽北一条４丁目２３４番地１２０,,01,204,0710173,,,,,,,2025-08-05,1,,,,,ワンエイト,0
801,3470003002943,新規,0,2025-08-05,2025-08-05,合同会社Ｒｅｖｅｓｔｉｒｅ．Ｃｏ．,,合同会社,香川県,三豊市,高瀬町上麻乙１１１番地４１,,37,208,7670014,,,,,,,2025-08-05,1,,,,,リベスティーレカンパニー,0
802,3470005006637,新規,0,2025-08-05,2025-08-05,一般社団法人酒立日本酒大学,,その他の設立登記法人,香川県,高松市,古馬場町９番地１０リオンビル３階,,37,201,7600045,,,,,,,2025-08-05,1,,,,,シュリツニホンシュダイガク,0
805,3500001026453,新規,0,2025-08-05,2025-08-05,株式会社Ｔｈｒｉｖｅ,,株式会社,愛媛県,今治市,東村２丁目６番３号,,38,202,7991506,,,,,,,2025-08-05,1,,,,,スライブ,0
818,4010001257329,新規,0,2025-08-05,2025-08-05,株式会社ｂｒｉｇｈｔｂａｓｅ,,株式会社,東京都,文京区,本郷３丁目３２番５号第２ＫＳビル７Ｆ,,13,105,1130033,,,,,,,2025-08-05,1,,,,,ブライトベース,0
819,4010001257378,新規,0,2025-08-05,2025-08-05,株式会社プライズリンク,,株式会社,東京都,千代田区,有楽町１丁目５番２号東宝日比谷プロムナードビルディング１１階,,13,101,1000006,,,,,,,2025-08-05,1,,,,,プライズリンク,0
821,4010003048263,新規,0,2025-08-05,2025-08-05,Ｌｉｇｈｔｎｏｔｅ　Ｗｏｒｋｓ合同会社,,合同会社,東京都,中央区,日本橋小伝馬町１７番５号７ビル２階,,13,102,1030001,,,,,,,2025-08-05,1,,,,,ライトノートワークス,0
824,4010005040466,新規,0,2025-08-05,2025-08-05,一般社団法人資産運用フォーラム,,その他の設立登記法人,東京都,中央区,日本橋茅場町１丁目８番１号茅場町一丁目平和ビル９階,,13,102,1030025,,,,,,,2025-08-05,1,,,,,シサンウンヨウフォーラム,0
825,4010005040474,新規,0,2025-08-05,2025-08-05,フォレスト特定目的会社,,その他の設立登記法人,東京都,千代田区,霞が関３丁目２番５号,,13,101,1000013,,,,,,,2025-08-05,1,,,,,フォレスト,0
826,4010005040482,新規,0,2025-08-05,2025-08-05,新栄レジデンシャル一般社団法人,,その他の設立登記法人,東京都,千代田区,丸の内１丁目４番１号東京共同会計事務所内,,13,101,1000005,,,,,,,2025-08-05,1,,,,,シンサカエレジデンシャル,0
839,4010401192200,新規,0,2025-08-05,2025-08-05,ＴｅｒｒａＣｏｒｄ株式会社,,株式会社,東京都,港区,六本木３丁目１６番１２号六本木ＫＳビル５Ｆ,,13,103,1060032,,,,,,,2025-08-05,1,,,,,テラコード,0
840,4010401192225,新規,0,2025-08-05,2025-08-05,株式会社テンダーレイン,,株式会社,東京都,港区,芝浦４丁目７番５－２０４号,,13,103,1080023,,,,,,,2025-08-05,1,,,,,テンダーレイン,0
841,4010403035753,新規,0,2025-08-05,2025-08-05,合同会社青龍マネジメント,,合同会社,東京都,港区,南青山７丁目１２番１６－６０４号,,13,103,1070062,,,,,,,2025-08-05,1,,,,,セイリュウマネジメント,0
842,4010405024606,新規,0,2025-08-05,2025-08-05,松濤ホールディング２一般社団法人,,その他の設立登記法人,東京都,港区,虎ノ門３丁目２２番１０－２０１号,,13,103,1050001,,,,,,,2025-08-05,1,,,,,ショウトウホールディングツー,0
844,4010501054440,新規,0,2025-08-05,2025-08-05,株式会社ＴＥＮＵＴＯ,,株式会社,東京都,台東区,西浅草２丁目２０番６号Ｊ１６１９－７０２号室,,13,106,1110035,,,,,,,2025-08-05,1,,,,,テヌート,0
846,4010503007941,新規,0,2025-08-05,2025-08-05,Ｅｎｄｏｒｐｈｉｎｓ　ＦＣ合同会社,,合同会社,東京都,台東区,下谷１丁目１１－１５ソレイユ入谷２Ｆ,,13,106,1100004,,,,,,,2025-08-05,1,,,,,エンドルフィンズエフシー,0
847,4010505003625,新規,0,2025-08-05,2025-08-05,一般社団法人浅草エリアマネジメント協会,,その他の設立登記法人,東京都,台東区,浅草２丁目５番５号,,13,106,1110032,,,,,,,2025-08-05,1,,,,,,0
851,4010601067697,新規,0,2025-08-05,2025-08-05,株式会社マルダイ長沼ホールディングス,,株式会社,東京都,江東区,越中島１丁目２番１３号６階,,13,108,1350044,,,,,,,2025-08-05,1,,,,,マルダイナガヌマホールディングス,0
853,4010703007840,新規,0,2025-08-05,2025-08-05,Ｗ＆Ｘ　Ｉｎｔｅｒｎａｔｉｏｎａｌ　Ｉｎｖｅｓｔｍｅｎｔ，ＬＬＣ合同会社,,合同会社,東京都,品川区,東品川４丁目１１－３６、１１１９号,,13,109,1400002,,,,,,,2025-08-05,1,,,,,ダブリューアンドエックスインターナショナルインベストメントエルエルシー,0
861,4011001171172,新規,0,2025-08-05,2025-08-05,株式会社Ｎｙａｍａｎ,,株式会社,東京都,渋谷区,広尾５丁目１４番２号,,13,113,1500012,,,,,,,2025-08-05,1,,,,,,0
862,4011001171180,新規,0,2025-08-05,2025-08-05,Ｓｔａｒｒｙ　Ｔｅｃｈｎｏｌｏｇｙ株式会社,,株式会社,東京都,渋谷区,道玄坂１丁目１０番８号渋谷道玄坂東急ビル２Ｆ－Ｃ,,13,113,1500043,,,,,,,2025-08-05,1,,,,,スターリーテクノロジー,0
863,4011001171189,新規,0,2025-08-05,2025-08-05,株式会社インサイトラボ,,株式会社,東京都,渋谷区,渋谷２丁目１９－１９,,13,113,1500002,,,,,,,2025-08-05,1,,,,,インサイトラボ,0
864,4011001171676,新規,0,2025-08-05,2025-08-05,ＳＡＫＵＲＡ　ＣＡＰＩＴＡＬ株式会社,,株式会社,東京都,渋谷区,桜丘町１１番９号桜丘セントラルハイツ５０１,,13,113,1500031,,,,,,,2025-08-05,1,,,,,サクラキャピタル,0
872,4011101112638,新規,0,2025-08-05,2025-08-05,日本バイオ株式会社,,株式会社,東京都,新宿区,西新宿１丁目６番１号新宿エルタワー１５階,,13,104,1600023,,,,,,,2025-08-05,1,,,,,ニホンバイオ,0
877,4011601028846,新規,0,2025-08-05,2025-08-05,株式会社Ｐｌａｔｉｎｕｍ,,株式会社,東京都,練馬区,早宮４丁目３４番１４号,,13,120,1790085,,,,,,,2025-08-05,1,,,,,プラチナ,0
887,4013301054726,新規,0,2025-08-05,2025-08-05,Ｆｕｎｑｕｂｅ株式会社,,株式会社,東京都,豊島区,池袋３丁目３４―７ビジネスパーク池袋２階,,13,116,1710014,,,,,,,2025-08-05,1,,,,,ファンキューブ,0
888,4013303007797,新規,0,2025-08-05,2025-08-05,Ｉｎｎｎｏ合同会社,,合同会社,東京都,豊島区,北大塚１丁目１９番１２号コルティス大塚６Ｆ－３０号室,,13,116,1700004,,,,,,,2025-08-05,1,,,,,イイノ,0
897,4020001164078,新規,0,2025-08-05,2025-08-05,株式会社Ｎ‐ＷＯＲＫＳ,,株式会社,神奈川県,川崎市幸区,小倉４丁目１１番８－２０９号,,14,132,2120054,,,,,,,2025-08-05,1,,,,,エヌワークス,0
904,4020003029080,新規,0,2025-08-05,2025-08-05,合同会社辻電工,,合同会社,神奈川県,川崎市川崎区,観音１丁目１９番５－３０２号ツインパル,,14,131,2100831,,,,,,,2025-08-05,1,,,,,ツジデンコウ,0
906,4021001085958,新規,0,2025-08-05,2025-08-05,株式会社Ｎｏｒｄａｌ　Ｐｏｉｎｔ,,株式会社,神奈川県,茅ヶ崎市,矢畑７８２番地３－２－９１５号ライオンズ茅ヶ崎ザ・アイランズ,,14,207,2530085,,,,,,,2025-08-05,1,,,,,ノーダルポイント,0
913,4030001167930,新規,0,2025-08-05,2025-08-05,株式会社Ｌｕａｎａ,,株式会社,埼玉県,草加市,氷川町９１９番地１１－１Ｆ,,11,221,3400034,,,,,,,2025-08-05,1,,,,,ルアナ,0
914,4030001167955,新規,0,2025-08-05,2025-08-05,株式会社テクノアミカ,,株式会社,埼玉県,桶川市,大字上日出谷１０３３番地４２,,11,231,3630026,,,,,,,2025-08-05,1,,,,,テクノアミカ,0
920,4040001139862,新規,0,2025-08-05,2025-08-05,株式会社トンデレーヴ,,株式会社,千葉県,松戸市,常盤平５丁目１８番地の５大村ビル２Ｆ,,12,207,2702261,,,,,,,2025-08-05,1,,,,,トンデレーヴ,0
921,4040001139929,新規,0,2025-08-05,2025-08-05,株式会社ＩＰストラテジー,,株式会社,千葉県,柏市,柏２丁目７番１８－７０１号,,12,217,2770005,,,,,,,2025-08-05,1,,,,,アイピーストラテジー,0
942,4080401028067,新規,0,2025-08-05,2025-08-05,株式会社輝正興業,,株式会社,静岡県,浜松市中央区,三方原町１１９８番地の８,,22,138,4338105,,,,,,,2025-08-05,1,,,,,コウセイコウギョウ,0
943,4080401028075,新規,0,2025-08-05,2025-08-05,株式会社坐廊,,株式会社,静岡県,浜松市中央区,砂山町３２３番地１０,,22,138,4300926,,,,,,,2025-08-05,1,,,,,ザロウ,0
944,4080401028083,新規,0,2025-08-05,2025-08-05,エメルディ株式会社,,株式会社,静岡県,浜松市中央区,三方原町１９１５番地の１,,22,138,4338105,,,,,,,2025-08-05,1,,,,,エメルディ,0
960,4120001278438,新規,0,2025-08-05,2025-08-05,株式会社カーリード,,株式会社,大阪府,大阪市城東区,鴫野西３丁目５番３６号,,27,118,5360014,,,,,,,2025-08-05,1,,,,,カーリード,0
961,4120001278446,新規,0,2025-08-05,2025-08-05,裕森株式会社,,株式会社,大阪府,大阪市住吉区,遠里小野５丁目１４－２０－２０３,,27,120,5580032,,,,,,,2025-08-05,1,,,,,ユウモリ,0
962,4120001278454,新規,0,2025-08-05,2025-08-05,朗一株式会社,,株式会社,大阪府,大阪市港区,八幡屋３丁目５－１－３０６,,27,107,5520014,,,,,,,2025-08-05,1,,,,,ロウイチ,0
963,4120001278537,新規,0,2025-08-05,2025-08-05,株式会社ＨＩＲＯコーポレーション,,株式会社,大阪府,大阪市淀川区,宮原４丁目５番３６号,,27,123,5320003,,,,,,,2025-08-05,1,,,,,ヒロコーポレーション,0
964,4120001278561,新規,0,2025-08-05,2025-08-05,株式会社ステアー,,株式会社,大阪府,大阪市中央区,南本町３丁目２番２号,,27,128,5410054,,,,,,,2025-08-05,1,,,,,ステアー,0
965,4120001278603,新規,0,2025-08-05,2025-08-05,Ｘ＆Ｃｏｍｐａｎｙ株式会社,,株式会社,大阪府,大阪市北区,堂島２丁目１番２７号１０階,,27,127,5300003,,,,,,,2025-08-05,1,,,,,エックスアンドカンパニー,0
970,4120101072146,新規,0,2025-08-05,2025-08-05,株式会社ＴＤＷｏｒｋｓ,,株式会社,大阪府,堺市堺区,三国ヶ丘御幸通５９番地南海堺東ビル８階,,27,141,5900028,,,,,,,2025-08-05,1,,,,,ティーディーワークス,0
975,4120901051299,新規,0,2025-08-05,2025-08-05,クレセール設備株式会社,,株式会社,大阪府,豊中市,豊南町西３丁目１２番１６号,,27,203,5610816,,,,,,,2025-08-05,1,,,,,クレセールセツビ,0
987,4130001080280,新規,0,2025-08-05,2025-08-05,ＦＵＫＹＵ株式会社,,株式会社,京都府,京都市右京区,西院久保田町１１番地１階,,26,108,6150053,,,,,,,2025-08-05,1,,,,,フキュウ,0
997,4140001139514,新規,0,2025-08-05,2025-08-05,株式会社ＲｅＣＯＯＬ,,株式会社,兵庫県,三木市,志染町中自由が丘２丁目６７９,,28,215,6730552,,,,,,,2025-08-05,1,,,,,リクール,0
998,4140001139522,新規,0,2025-08-05,2025-08-05,株式会社レガシー,,株式会社,兵庫県,豊岡市,出石町町分３９１番地の８,,28,209,6680221,,,,,,,2025-08-05,1,,,,,レガシー,0
999,4140001139530,新規,0,2025-08-05,2025-08-05,エルバ株式会社,,株式会社,兵庫県,姫路市,北条永良町２９９番地,,28,201,6700946,,,,,,,2025-08-05,1,,,,,エルバ,0
1007,4170001018748,新規,0,2025-08-05,2025-08-05,株式会社ＴＯＰ‐ＲＡＮＫ,,株式会社,和歌山県,西牟婁郡上富田町,朝来２４３５番地の８,,30,404,6492105,,,,,,,2025-08-05,1,,,,,,0
1017,4180001167973,新規,0,2025-08-05,2025-08-05,株式会社ラプシ,,株式会社,愛知県,名古屋市千種区,新池町１丁目６番地の２,,23,101,4640027,,,,,,,2025-08-05,1,,,,,ラプシ,0
1018,4180001168014,新規,0,2025-08-05,2025-08-05,株式会社アウラホーム,,株式会社,愛知県,名古屋市瑞穂区,雁道町１丁目１６番地,,23,108,4670877,,,,,,,2025-08-05,1,,,,,アウラホーム,0
1027,4220001026844,新規,0,2025-08-05,2025-08-05,株式会社トネリコ,,株式会社,石川県,金沢市,寺町１丁目１３番１２号,,17,201,9218033,,,,,,,2025-08-05,1,,,,,トネリコ,0
1028,4220001026852,新規,0,2025-08-05,2025-08-05,株式会社ＢＡＲＣＨＥＴＴＡ,,株式会社,石川県,金沢市,福久東１丁目１４番地１,,17,201,9203123,,,,,,,2025-08-05,1,,,,,バルケッタ,0
1031,4230001021027,新規,0,2025-08-05,2025-08-05,株式会社Ｎｏｂｌｅ,,株式会社,富山県,富山市,新根塚町２丁目１０番地１２,,16,201,9398205,,,,,,,2025-08-05,1,,,,,ノーブル,0
1034,4240001065304,新規,0,2025-08-05,2025-08-05,ＯＺＵ　ＧＬＯＢＡ株式会社,,株式会社,広島県,福山市,引野町５丁目１５番２１号,,34,207,7210942,,,,,,,2025-08-05,1,,,,,オズグローバ,0
1035,4240001065312,新規,0,2025-08-05,2025-08-05,Ｎｏｍａ株式会社,,株式会社,広島県,東広島市,八本松飯田７丁目１９番８号ＰＥＡＣＥＲＯＡＤ２０５号,,34,212,7390146,,,,,,,2025-08-05,1,,,,,ノーマ,0
1036,4240001065320,新規,0,2025-08-05,2025-08-05,ユイニティ株式会社,,株式会社,広島県,三原市,中之町２丁目１番２３号,,34,204,7230003,,,,,,,2025-08-05,1,,,,,ユイニティ,0
1037,4240001065329,新規,0,2025-08-05,2025-08-05,株式会社ヴィクスト,,株式会社,広島県,広島市安佐北区,亀山西１丁目３番１０号,,34,106,7310233,,,,,,,2025-08-05,1,,,,,ヴィクスト,0
1041,4250001021280,新規,0,2025-08-05,2025-08-05,株式会社カントリーハウス,,株式会社,山口県,山口市,穂積町５番２２号セージュ１０１号,,35,203,7530824,,,,,,,2025-08-05,1,,,,,カントリーハウス,0
1045,4260003005280,新規,0,2025-08-05,2025-08-05,合同会社Ｔｒｅｃｉｃａ　Ｓｃｈｏｏｌｉｎｇ,,合同会社,岡山県,倉敷市,日ノ出町１丁目９‐５グランデ倉敷駅前１０１,,33,202,7100063,,,,,,,2025-08-05,1,,,,,トレチカスクーリング,0
1051,4290001110906,新規,0,2025-08-05,2025-08-05,株式会社ＤＯＭＩＳＯＬ,,株式会社,福岡県,福岡市東区,多の津１丁目２－５－３Ｆ,,40,131,8130034,,,,,,,2025-08-05,1,,,,,,0
1052,4290003017117,新規,0,2025-08-05,2025-08-05,合同会社ＺＦｒｏｎｔ,,合同会社,福岡県,福岡市中央区,今泉２丁目３－３０メゾンド天神５０６号室,,40,133,8100021,,,,,,,2025-08-05,1,,,,,ゼットフロント,0
1059,4320001021265,新規,0,2025-08-05,2025-08-05,昇福建設株式会社,,株式会社,大分県,別府市,大字鉄輪８７番地の１２,,44,202,8740000,,,,,,,2025-08-05,1,,,,,ショウフクケンセツ,0
1062,4330001033458,新規,0,2025-08-05,2025-08-05,雪祷花造園株式会社,,株式会社,熊本県,熊本市東区,画図町大字下無田２２４番地３,,43,102,8620945,,,,,,,2025-08-05,1,,,,,セツトウカゾウエン,0
1064,4330003011148,新規,0,2025-08-05,2025-08-05,合同会社ａｉｍｕ．ｃ,,合同会社,熊本県,阿蘇郡南小国町,大字赤馬場３２３１－１,,43,423,8692401,,,,,,,2025-08-05,1,,,,,アイムシー,0
1065,4330003011156,新規,0,2025-08-05,2025-08-05,ＪＫＭＮ合同会社,,合同会社,熊本県,熊本市中央区,千葉城町５－５０熊本メディアビル４Ｆ,,43,101,8600001,,,,,,,2025-08-05,1,,,,,ジェイケイエムエヌ,0
1067,4340001027541,新規,0,2025-08-05,2025-08-05,株式会社ウエストファーム,,株式会社,鹿児島県,大島郡伊仙町,大字検福２５８番地３,,46,532,8918116,,,,,,,2025-08-05,1,,,,,ウエストファーム,0
1070,4360001035575,新規,0,2025-08-05,2025-08-05,株式会社ＨＡＳＡＢＡ　ＣＯＦＦＥＥ　ＲＯＡＳＴＥＲＳ,,株式会社,沖縄県,宮古島市,平良字西里１８８６－１,,47,214,9060012,,,,,,,2025-08-05,1,,,,,ハサバコーヒーロースターズ,0
1071,4360001035583,新規,0,2025-08-05,2025-08-05,ＨＥＫＩ株式会社,,株式会社,沖縄県,那覇市,古波蔵３丁目２番１２号,,47,201,9000024,,,,,,,2025-08-05,1,,,,,ヘキ,0
1075,4370005010994,新規,0,2025-08-05,2025-08-05,一般社団法人動物ケアパートナー協会しっぽ結び,,その他の設立登記法人,宮城県,仙台市青葉区,川平４丁目３－２５,,04,101,9810954,,,,,,,2025-08-05,1,,,,,ドウブツケアパートナーキョウカイシッポムスビ,0
1077,4410001014243,新規,0,2025-08-05,2025-08-05,ほたるの光株式会社,,株式会社,秋田県,能代市,字大森山１番地３０,,05,202,0160807,,,,,,,2025-08-05,1,,,,,ホタルノヒカリ,0
1083,4450001014693,新規,0,2025-08-05,2025-08-05,阿部機工サービス株式会社,,株式会社,北海道,旭川市,新富二条２丁目１２番１０号,,01,204,0700002,,,,,,,2025-08-05,1,,,,,アベキコウサービス,0
1085,4470001020839,新規,0,2025-08-05,2025-08-05,株式会社Ｇ‐１・Ｓｐｅｅｄ,,株式会社,香川県,高松市,牟礼町大町２３４６番地９３,,37,201,7610122,,,,,,,2025-08-05,1,,,,,ジーワンスピード,0
1091,4700150062328,新規,0,2025-08-05,2015-10-09,熊本市消防職員福利厚生会,,その他,熊本県,熊本市中央区,大江３丁目１－３,,43,101,8620971,,,,,,,2015-10-09,1,,,,,クマモトシシヨウボウシヨクインフクリコウセイカイ,0
1101,5010003048254,新規,0,2025-08-05,2025-08-05,新栄レジデンシャル合同会社,,合同会社,東京都,千代田区,丸の内１丁目４番１号東京共同会計事務所内,,13,101,1000005,,,,,,,2025-08-05,1,,,,,シンサカエレジデンシャル,0
1112,5010401192199,新規,0,2025-08-05,2025-08-05,カーコンレンタカー株式会社,,株式会社,東京都,港区,港南２丁目１１番１９号,,13,103,1080075,,,,,,,2025-08-05,1,,,,,カーコンレンタカー,0
1113,5010401192257,新規,0,2025-08-05,2025-08-05,株式会社Ｔ‐ｂａｓｅ,,株式会社,東京都,港区,北青山１丁目３番１号アールキューブ青山３階,,13,103,1070061,,,,,,,2025-08-05,1,,,,,ティーベース,0
1114,5010401192265,新規,0,2025-08-05,2025-08-05,株式会社ＦＥＲＮＡ,,株式会社,東京都,港区,北青山１丁目３－１アールキューブ青山３階,,13,103,1070061,,,,,,,2025-08-05,1,,,,,フェルナ,0
1116,5010403035769,新規,0,2025-08-05,2025-08-05,合同会社ＯＧＳ,,合同会社,東京都,港区,麻布十番２丁目５番１１号,,13,103,1060045,,,,,,,2025-08-05,1,,,,,オージーエス,0
1117,5010405024605,新規,0,2025-08-05,2025-08-05,松濤ホールディング１一般社団法人,,その他の設立登記法人,東京都,港区,虎ノ門３丁目２２番１０－２０１号,,13,103,1050001,,,,,,,2025-08-05,1,,,,,ショウトウホールディングワン,0
1123,5010701048084,新規,0,2025-08-05,2025-08-05,株式会社ＨＡＫＯＢＵＮＥ,,株式会社,東京都,品川区,西品川１丁目１番１号住友不動産大崎ガーデンタワー９階ＴＵＮＮＥＬＴＯＫＹＯ,,13,109,1410033,,,,,,,2025-08-05,1,,,,,ハコブネ,0
1129,5011001171171,新規,0,2025-08-05,2025-08-05,株式会社ＢＵＤＤＹ　ＣＡＰＩＴＡＬ,,株式会社,東京都,渋谷区,広尾５丁目１４番２号,,13,113,1500012,,,,,,,2025-08-05,1,,,,,バディーキャピタル,0
1130,5011001171584,新規,0,2025-08-05,2025-08-05,株式会社Ｌｅｏ　Ｇｌｏｂａｌ　Ｗｏｒｋｓ,,株式会社,東京都,目黒区,下目黒１丁目８番１号,,13,110,1530064,,,,,,,2025-08-05,1,,,,,レオグローバルワークス,0
1134,5011101112629,新規,0,2025-08-05,2025-08-05,ＢＵＢＵ　ＤＵＤＵ　ＥＮＴＥＲＰＲＩＳＥＳ株式会社,,株式会社,東京都,新宿区,富久町１５－１富久クロスコンフォートタワー２２０２,,13,104,1620067,,,,,,,2025-08-05,1,,,,,ブブドゥドゥエンタープライゼス,0
1135,5011101112760,新規,0,2025-08-05,2025-08-05,株式会社ＨＲＤホールディングス,,株式会社,東京都,新宿区,西新宿８丁目１７番１号住友不動産新宿グランドタワー３８Ｆ,,13,104,1600023,,,,,,,2025-08-05,1,,,,,エイチアールディーホールディングス,0
1137,5011201026547,新規,0,2025-08-05,2025-08-05,株式会社ＭＡＮ‐ＮＥＮ,,株式会社,東京都,中野区,東中野３丁目１４番１５号,,13,114,1640003,,,,,,,2025-08-05,1,,,,,マンネン,0
1143,5011803006987,新規,0,2025-08-05,2025-08-05,合同会社ふわり舎,,合同会社,東京都,葛飾区,高砂５丁目１３番７号,,13,122,1250054,,,,,,,2025-08-05,1,,,,,フワリシャ,0
1145,5012401043423,新規,0,2025-08-05,2025-08-05,株式会社Ｆｌｏｗｉｎ,,株式会社,東京都,武蔵野市,吉祥寺本町２丁目８番４号ｉ－ｏｆｆｉｃｅ吉祥寺,,13,203,1800004,,,,,,,2025-08-05,1,,,,,フローウィン,0
1146,5012401043431,新規,0,2025-08-05,2025-08-05,株式会社ドープネス,,株式会社,東京都,狛江市,東和泉４丁目３番７－３０２号,,13,219,2010014,,,,,,,2025-08-05,1,,,,,ドープネス,0
1149,5013101009763,新規,0,2025-08-05,2025-08-05,ＥＩＧＨＴ　ＨＯＬＤＩＮＧＳ株式会社,,株式会社,東京都,羽村市,栄町１丁目３番地４７,,13,227,2050002,,,,,,,2025-08-05,1,,,,,エイトホールディングス,0
1159,5013301054700,新規,0,2025-08-05,2025-08-05,日コン連企画株式会社,,株式会社,東京都,豊島区,西池袋５丁目５番２１－２７０５号,,13,116,1710021,,,,,,,2025-08-05,1,,,,,ニチコンレンキカク,0
1170,5020001163995,新規,0,2025-08-05,2025-08-05,Ｍａｉｓｏｎ　ｄｅ　Ｃａｎｄｙ株式会社,,株式会社,神奈川県,横浜市港北区,綱島西３丁目２１－２０－２,,14,109,2230053,,,,,,,2025-08-05,1,,,,,メゾンドキャンディ,0
1171,5020001164093,新規,0,2025-08-05,2025-08-05,株式会社ＳＧＹ,,株式会社,神奈川県,横浜市南区,井土ケ谷中町１５８番地アクロスキューブ井土ヶ谷２０３,,14,105,2320052,,,,,,,2025-08-05,1,,,,,エスジーワイ,0
1172,5020001164184,新規,0,2025-08-05,2025-08-05,株式会社Ｔ＆Ｋエステート,,株式会社,神奈川県,横浜市中区,山手町３番地１６,,14,104,2310862,,,,,,,2025-08-05,1,,,,,ティーアンドケーエステート,0
1176,5020003028775,新規,0,2025-08-05,2025-08-05,合同会社みやび,,合同会社,神奈川県,川崎市麻生区,万福寺５丁目２０－１０－７０２,,14,137,2150004,,,,,,,2025-08-05,1,,,,,ミヤビ,0
1180,5021003016365,新規,0,2025-08-05,2025-08-05,ビズスコープ合同会社,,合同会社,神奈川県,茅ヶ崎市,浜竹４丁目１番２２号,,14,207,2530021,,,,,,,2025-08-05,1,,,,,ビズスコープ,0
1182,5030001167863,新規,0,2025-08-05,2025-08-05,株式会社リフォームことぶき,,株式会社,埼玉県,越谷市,大字大泊５９０番地３３,,11,222,3430044,,,,,,,2025-08-05,1,,,,,リフォームコトブキ,0
1185,5030003027347,新規,0,2025-08-05,2025-08-05,合同会社Ｒｅｂｉｒｔｈ　Ｆｉｎｅ,,合同会社,埼玉県,新座市,栄３丁目７番２９号,,11,230,3520014,,,,,,,2025-08-05,1,,,,,リバースファイン,0
1194,5040001139861,新規,0,2025-08-05,2025-08-05,株式会社ｓｕｒ　ｕｎ　ｎｕａｇｅ,,株式会社,千葉県,市川市,行徳駅前１丁目１７番９号ステップワンビル１Ｆ,,12,203,2720133,,,,,,,2025-08-05,1,,,,,スュールアンニュアージュ,0
1197,5040003028162,新規,0,2025-08-05,2025-08-05,ＦＰ石毛合同会社,,合同会社,千葉県,千葉市稲毛区,稲毛東１丁目７番６号山田ビル１階２号室,,12,103,2630031,,,,,,,2025-08-05,1,,,,,エフピーイシゲ,0
1203,5050001057039,新規,0,2025-08-05,2025-08-05,株式会社ＯＷＬ,,株式会社,茨城県,稲敷郡美浦村,大字土屋１９７２－６５７,,08,442,3000426,,,,,,,2025-08-05,1,,,,,アウル,0
1205,5060001038475,新規,0,2025-08-05,2025-08-05,株式会社柳田米園,,株式会社,栃木県,矢板市,木幡１１７０番地,,09,211,3292142,,,,,,,2025-08-05,1,,,,,ヤナギダコメエン,0
1206,5060003005663,新規,0,2025-08-05,2025-08-05,合同会社共健リアンアピオ,,合同会社,栃木県,鹿沼市,上野町字下上野３５２－１,,09,205,3220021,,,,,,,2025-08-05,1,,,,,キョウケンリアンアピオ,0
1212,5080101025685,新規,0,2025-08-05,2025-08-05,ゴールデンパーク土肥株式会社,,株式会社,静岡県,伊豆市,土肥２７２６番地,,22,222,4103302,,,,,,,2025-08-05,1,,,,,ゴールデンパークトイ,0
1214,5080401028082,新規,0,2025-08-05,2025-08-05,株式会社とらのあきんど,,株式会社,静岡県,掛川市,高田１２９３番地の１,,22,213,4360114,,,,,,,2025-08-05,1,,,,,トラノアキンド,0
1215,5090003002864,新規,0,2025-08-05,2025-08-05,おはたね合同会社,,合同会社,山梨県,南巨摩郡富士川町,天神中條２９３－１,,19,368,4000503,,,,,,,2025-08-05,1,,,,,オハタネ,0
1220,5100005013370,新規,0,2025-08-05,2025-08-05,一般社団法人ことほぐ杜,,その他の設立登記法人,長野県,上田市,常磐城５丁目７番３４号エンドレスライフ常磐城２０４号,,20,203,3860027,,,,,,,2025-08-05,1,,,,,コトホグモリ,0
1232,5120001278081,新規,0,2025-08-05,2025-08-05,一木株式会社,,株式会社,大阪府,大阪市浪速区,恵美須西２丁目１４番１２－４０６室,,27,111,5560003,,,,,,,2025-08-05,1,,,,,イチキ,0
1233,5120001278263,新規,0,2025-08-05,2025-08-05,本元医道株式会社,,株式会社,大阪府,大阪市西成区,松３丁目１１番２２－２０６号,,27,122,5570034,,,,,,,2025-08-05,1,,,,,ホンゲンイドウ,0
1234,5120001278313,新規,0,2025-08-05,2025-08-05,株式会社ＴＯＰ建設,,株式会社,大阪府,大阪市浪速区,稲荷１丁目１０－１９－１４０５,,27,111,5560023,,,,,,,2025-08-05,1,,,,,トップケンセツ,0
1235,5120001278429,新規,0,2025-08-05,2025-08-05,乾富風服飾株式会社,,株式会社,大阪府,大阪市生野区,田島６丁目２番２８号３０２号室,,27,116,5440011,,,,,,,2025-08-05,1,,,,,カンフウフウフクショク,0
1236,5120001278445,新規,0,2025-08-05,2025-08-05,ｍｏｍｏｃｏ株式会社,,株式会社,大阪府,大阪市北区,梅田２丁目５番１３号桜橋第一ビル３０４号,,27,127,5300001,,,,,,,2025-08-05,1,,,,,モモコ,0
1237,5120001278536,新規,0,2025-08-05,2025-08-05,ワイズグローアップ株式会社,,株式会社,大阪府,大阪市大正区,小林東２丁目８番１６号,,27,108,5510011,,,,,,,2025-08-05,1,,,,,ワイズグローアップ,0
1238,5120001278569,新規,0,2025-08-05,2025-08-05,蜂花株式会社,,株式会社,大阪府,大阪市生野区,桃谷３丁目２０番２５号桃谷ハイツ２０１号室,,27,116,5440034,,,,,,,2025-08-05,1,,,,,ハチハナ,0
1239,5120001278577,新規,0,2025-08-05,2025-08-05,キャピタルラボ株式会社,,株式会社,大阪府,大阪市住之江区,粉浜西１丁目１番４号トモエビル３階,,27,125,5590007,,,,,,,2025-08-05,1,,,,,キャピタルラボ,0
1240,5120001278610,新規,0,2025-08-05,2025-08-05,株式会社アミューズコーポレーション,,株式会社,大阪府,大阪市平野区,長吉六反１丁目７番２－Ｄ号,,27,126,5470012,,,,,,,2025-08-05,1,,,,,アミューズコーポレーション,0
1241,5120003030192,新規,0,2025-08-05,2025-08-05,合同会社ＴＫ,,合同会社,大阪府,寝屋川市,高宮新町２４番６号（２０６号）,,27,215,5720847,,,,,,,2025-08-05,1,,,,,ティーケー,0
1247,5120901051265,新規,0,2025-08-05,2025-08-05,株式会社梶谷ホールディングス,,株式会社,大阪府,豊中市,西緑丘３丁目２１番１５号,,27,203,5600005,,,,,,,2025-08-05,1,,,,,カジタニホールディングス,0
1257,5130001080288,新規,0,2025-08-05,2025-08-05,株式会社ＭＣＳ,,株式会社,京都府,久世郡久御山町,島田江ノ口３２－１,,26,322,6130043,,,,,,,2025-08-05,1,,,,,エムシーエス,0
1258,5130003010664,新規,0,2025-08-05,2025-08-05,イノベーティブ・ヘルス・パートナーズ合同会社,,合同会社,京都府,京都市下京区,七条通油小路東入大黒町２２７番地第２キョートビル４０２,,26,106,6008223,,,,,,,2025-08-05,1,,,,,イノベーティブヘルスパートナーズ,0
1259,5130003010689,新規,0,2025-08-05,2025-08-05,合同会社タックルハウジング,,合同会社,京都府,宇治市,宇治弐番８２,,26,204,6110021,,,,,,,2025-08-05,1,,,,,タックルハウジング,0
1267,5140001139496,新規,0,2025-08-05,2025-08-05,精工株式会社,,株式会社,兵庫県,伊丹市,西台１丁目１－１,,28,207,6640858,,,,,,,2025-08-05,1,,,,,セイコウ,0
1268,5140001139521,新規,0,2025-08-05,2025-08-05,株式会社伊賀屋ホールディングス,,株式会社,兵庫県,豊岡市,城崎町湯島５２９番地,,28,209,6696101,,,,,,,2025-08-05,1,,,,,イガヤホールディングス,0
1269,5140001139587,新規,0,2025-08-05,2025-08-05,株式会社智剣,,株式会社,兵庫県,丹波篠山市,黒岡３１６番地１０,,28,221,6692321,,,,,,,2025-08-05,1,,,,,チケン,0
1274,5140003022378,新規,0,2025-08-05,2025-08-05,合同会社ＭＹＳＥＡ,,合同会社,兵庫県,神戸市長田区,本庄町６丁目２番２号,,28,106,6530053,,,,,,,2025-08-05,1,,,,,マイシー,0
1275,5140003022386,新規,0,2025-08-05,2025-08-05,クイックパック合同会社,,合同会社,兵庫県,姫路市,野里２０４番地１サンビレッヂ野里１０１号室,,28,201,6700811,,,,,,,2025-08-05,1,,,,,クイックパック,0
1283,5180001168013,新規,0,2025-08-05,2025-08-05,株式会社トコス,,株式会社,愛知県,犬山市,大字羽黒字摺墨５８番地１,,23,215,4840894,,,,,,,2025-08-05,1,,,,,トコス,0
1284,5180001168054,新規,0,2025-08-05,2025-08-05,株式会社ＬＩＣＳ,,株式会社,愛知県,一宮市,伝法寺２丁目８番地２１,,23,203,4910828,,,,,,,2025-08-05,1,,,,,リックス,0
1285,5180001168062,新規,0,2025-08-05,2025-08-05,株式会社ナインアンドフォー,,株式会社,愛知県,名古屋市天白区,古川町７９番地,,23,116,4680046,,,,,,,2025-08-05,1,,,,,ナインアンドフォー,0
1295,5220001026835,新規,0,2025-08-05,2025-08-05,株式会社ひろ建設,,株式会社,石川県,白山市,宮保新町１０３番地２,,17,210,9240068,,,,,,,2025-08-05,1,,,,,ヒロケンセツ,0
1296,5220001026843,新規,0,2025-08-05,2025-08-05,株式会社アクア住設,,株式会社,石川県,金沢市,上荒屋１丁目２４７番地,,17,201,9218065,,,,,,,2025-08-05,1,,,,,アクアジュウセツ,0
1297,5220001026851,新規,0,2025-08-05,2025-08-05,株式会社Ｌｉｑｕｅｓｓ,,株式会社,石川県,金沢市,寺町２丁目４番３号,,17,201,9218033,,,,,,,2025-08-05,1,,,,,リクエス,0
1301,5230001021026,新規,0,2025-08-05,2025-08-05,株式会社いやさか,,株式会社,富山県,射水市,中太閤山１６丁目１５番地,,16,211,9390363,,,,,,,2025-08-05,1,,,,,イヤサカ,0
1304,5240001065311,新規,0,2025-08-05,2025-08-05,株式会社アースネットホールディングス,,株式会社,広島県,安芸郡海田町,南大正町４番２０号,,34,304,7360042,,,,,,,2025-08-05,1,,,,,アースネットホールディングス,0
1309,5270001009257,新規,0,2025-08-05,2025-08-05,株式会社Ｃｒｕ’ｓ,,株式会社,鳥取県,境港市,蓮池町８９番１号,,31,204,6840062,,,,,,,2025-08-05,1,,,,,クルーズ,0
1312,5280003001979,新規,0,2025-08-05,2025-08-05,合同会社ｔｗｉｎｋｌｅ,,合同会社,島根県,益田市,遠田町３２０２番地１１,,32,204,6993676,,,,,,,2025-08-05,1,,,,,ツインクル,0
1316,5290005019795,新規,0,2025-08-05,2025-08-05,一般社団法人国際桜医療会,,その他の設立登記法人,福岡県,福岡市中央区,高砂１丁目８番８号サンクス渡辺通２Ｆ,,40,133,8100011,,,,,,,2025-08-05,1,,,,,コクサイサクライリョウカイ,0
1323,5330001033457,新規,0,2025-08-05,2025-08-05,株式会社コクリエイト,,株式会社,熊本県,菊池郡菊陽町,大字津久礼１５４番地１７,,43,404,8691101,,,,,,,2025-08-05,1,,,,,コクリエイト,0
1327,5330003011163,新規,0,2025-08-05,2025-08-05,合同会社夏休み,,合同会社,熊本県,熊本市南区,馬渡２丁目４番１号,,43,104,8620968,,,,,,,2025-08-05,1,,,,,ナツヤスミ,0
1333,5360003015112,新規,0,2025-08-05,2025-08-05,合同会社Ｗ．Ｗ．Ｗ,,合同会社,沖縄県,石垣市,字平得１２７３番地１８５,,47,207,9070003,,,,,,,2025-08-05,1,,,,,ダブルダブルダブル,0
1334,5360003015137,新規,0,2025-08-05,2025-08-05,合同会社プラスワン,,合同会社,沖縄県,島尻郡南風原町,字津嘉山１３１６－５,,47,350,9011117,,,,,,,2025-08-05,1,,,,,プラスワン,0
1342,5390001018072,新規,0,2025-08-05,2025-08-05,株式会社ＴＹ,,株式会社,山形県,山形市,飯田西１丁目２番３０号,,06,201,9902331,,,,,,,2025-08-05,1,,,,,ティーワイ,0
1353,5430003017984,新規,0,2025-08-05,2025-08-05,合同会社ホロムイワークス,,合同会社,北海道,岩見沢市,幌向北二条１丁目５９５番地１７,,01,210,0690382,,,,,,,2025-08-05,1,,,,,ホロムイワークス,0
1356,5480001012909,新規,0,2025-08-05,2025-08-05,株式会社ジョーカー,,株式会社,徳島県,徳島市,城東町２丁目７番２０号,,36,201,7700862,,,,,,,2025-08-05,1,,,,,ジョーカー,0
1366,5700150131643,新規,0,2025-08-05,2025-08-05,Ｇｕａｎｇｚｈｏｕ　Ｌｉｘｉａｎｇｇｏｎｇｙｉｎｇｌｉａｎ　Ｙｏｕｘｉａｎｇｏｎｇｓｉ,,外国会社等,,,,,,,,Ｇｕａｎｇｚｈｏｕｓｈｉ　Ｔｉａｎｈｅｑｕ　Ｆａｎｗｕｊｉｅ　４２ｈａｏｚｈｉｙｉ　５０２ｐｕ，　Ｃｈｉｎａ,,,,,,2025-08-05,1,,,,,グゥアンゾウリシャンゴンインレンユウゲンコウシ,0
1376,6010001257450,新規,0,2025-08-05,2025-08-05,ＡＩＤ　Ａｃｃｏｕｎｔｉｎｇ株式会社,,株式会社,東京都,文京区,白山１丁目２０番６号,,13,105,1130001,,,,,,,2025-08-05,1,,,,,エーアイディーアカウンティング,0
1377,6010001257459,新規,0,2025-08-05,2025-08-05,株式会社大成リンク,,株式会社,東京都,千代田区,神田錦町３丁目１９番地４ＡＣＮ神田錦町ビル１０Ｆ,,13,101,1010054,,,,,,,2025-08-05,1,,,,,タイセイリンク,0
1378,6010001257467,新規,0,2025-08-05,2025-08-05,Ｃｌｅｖｅｒ‐Ａｃｃｅｓｓ　Ｊａｐａｎ株式会社,,株式会社,東京都,中央区,日本橋室町３丁目２番１号,,13,102,1030022,,,,,,,2025-08-05,1,,,,,クレバーアクセスジャパン,0
1380,6010005040464,新規,0,2025-08-05,2025-08-05,一般社団法人Ｒｏｏｔｉｎｇ　Ｏｕｒ　Ｏｗｎ　Ｔｏｍｏｒｒｏｗｓ,,その他の設立登記法人,東京都,中央区,日本橋室町１丁目１１番１２号日本橋水野ビル７階,,13,102,1030022,,,,,,,2025-08-05,1,,,,,ルーティングアワオウントゥモローズ,0
1386,6010103002622,新規,0,2025-08-05,2025-08-05,合同会社ビスミラー,,合同会社,東京都,八王子市,東町１２－８長澤ビル５Ｆ－０４,,13,201,1920082,,,,,,,2025-08-05,1,,,,,ビスミラー,0
1394,6010401192215,新規,0,2025-08-05,2025-08-05,株式会社ＢＳＴ,,株式会社,東京都,港区,北青山１丁目３番３号三橋ビル３階,,13,103,1070061,,,,,,,2025-08-05,1,,,,,ビーエスティー,0
1395,6010401192314,新規,0,2025-08-05,2025-08-05,株式会社ＩＤＩ　Ｓｔｒａｔｅｇｙ,,株式会社,東京都,港区,白金４丁目２番８－７０２号,,13,103,1080072,,,,,,,2025-08-05,1,,,,,アイディーアイストラテジー,0
1396,6010405024570,新規,0,2025-08-05,2025-08-05,一般社団法人日本未来協会,,その他の設立登記法人,東京都,港区,新橋３丁目４番１１号ＭＧビル２階,,13,103,1050004,,,,,,,2025-08-05,1,,,,,ニホンミライキョウカイ,0
1397,6010501054496,新規,0,2025-08-05,2025-08-05,株式会社友金商事,,株式会社,東京都,台東区,東上野５丁目４番１９号第一佐藤ビル４階,,13,106,1100015,,,,,,,2025-08-05,1,,,,,トモカネ,0
1399,6010503007931,新規,0,2025-08-05,2025-08-05,合同会社Ｃ‐ｄｒｉｖｅ,,合同会社,東京都,台東区,駒形１丁目６番１０－９０５号ミリアレジデンス浅草駒形,,13,106,1110043,,,,,,,2025-08-05,1,,,,,シードライブ,0
1406,6010803005494,新規,0,2025-08-05,2025-08-05,合同会社Ｃチーム輝,,合同会社,東京都,大田区,西嶺町１２番１１号,,13,111,1450075,,,,,,,2025-08-05,1,,,,,シーチームカガヤキ,0
1409,6010903010163,新規,0,2025-08-05,2025-08-05,合同会社アステラ,,合同会社,東京都,世田谷区,成城１丁目２４番２１号,,13,112,1570066,,,,,,,2025-08-05,1,,,,,アステラ,0
1425,6011001171138,新規,0,2025-08-05,2025-08-05,株式会社なないろプレミア,,株式会社,東京都,渋谷区,道玄坂２丁目１８番１１号サンモール道玄坂,,13,113,1500043,,,,,,,2025-08-05,1,,,,,ナナイロプレミア,0
1428,6011101112041,新規,0,2025-08-05,2025-08-05,株式会社ＮＯＶＡ　ｍａｒｋｅｔｉｎｇ,,株式会社,東京都,新宿区,新宿６丁目２７‐２９‐１９１９,,13,104,1600022,,,,,,,2025-08-05,1,,,,,ノヴァマーケティング,0
1429,6011105011512,新規,0,2025-08-05,2025-08-05,一般社団法人まなざしのアーカイブ,,その他の設立登記法人,東京都,新宿区,西新宿３丁目３番１３号西新宿水間ビル６階,,13,104,1600023,,,,,,,2025-08-05,1,,,,,マナザシノアーカイブ,0
1431,6011401027294,新規,0,2025-08-05,2025-08-05,ＩＮＧ株式会社,,株式会社,東京都,板橋区,蓮根２丁目２９番９－７０６号,,13,119,1740046,,,,,,,2025-08-05,1,,,,,イング,0
1433,6011403004779,新規,0,2025-08-05,2025-08-05,合同会社Ｔ＆Ｍ,,合同会社,東京都,板橋区,中台３丁目４番８－５０９号,,13,119,1740064,,,,,,,2025-08-05,1,,,,,ティーアンドエム,0
1436,6011601028869,新規,0,2025-08-05,2025-08-05,株式会社ＥＳＧＳ,,株式会社,東京都,練馬区,下石神井３丁目９番１３号,,13,120,1770042,,,,,,,2025-08-05,1,,,,,イーエスジーエス,0
1439,6012401043389,新規,0,2025-08-05,2025-08-05,株式会社オフィスエンタ,,株式会社,東京都,府中市,府中町２丁目１３番地の９,,13,206,1830055,,,,,,,2025-08-05,1,,,,,オフィスエンタ,0
1440,6012401043406,新規,0,2025-08-05,2025-08-05,株式会社８Ｄｅｌｉｃｉｏｕｓ,,株式会社,東京都,武蔵野市,吉祥寺本町１丁目２３番７号沢村ビル地下一階,,13,203,1800004,,,,,,,2025-08-05,1,,,,,エイトデリシャス,0
1441,6012401043414,新規,0,2025-08-05,2025-08-05,サンライン・リアルエステート株式会社,,株式会社,東京都,三鷹市,下連雀１丁目１４－１２,,13,204,1810013,,,,,,,2025-08-05,1,,,,,サンラインリアルエステート,0
1450,6013303007804,新規,0,2025-08-05,2025-08-05,Ｆｉｎａｎｃｅ　Ａｃｅ．合同会社,,合同会社,東京都,豊島区,東池袋２丁目６２番８号ＢＩＧオフィスプラザ池袋１２０６,,13,116,1700013,,,,,,,2025-08-05,1,,,,,ファイナンスエース,0
1460,6020001164076,新規,0,2025-08-05,2025-08-05,株式会社このみち,,株式会社,神奈川県,川崎市幸区,古市場２丁目１２８番地２,,14,132,2120052,,,,,,,2025-08-05,1,,,,,コノミチ,0
1461,6020001164134,新規,0,2025-08-05,2025-08-05,株式会社フォーブス,,株式会社,神奈川県,横浜市中区,簑沢７７番地,,14,104,2310856,,,,,,,2025-08-05,1,,,,,フォーブス,0
1462,6020001164183,新規,0,2025-08-05,2025-08-05,株式会社ＳＫＹＷＩＮＧ,,株式会社,神奈川県,横浜市南区,井土ケ谷中町５５番地７,,14,105,2320052,,,,,,,2025-08-05,1,,,,,スカイウィング,0
1463,6020001164200,新規,0,2025-08-05,2025-08-05,侘寂株式会社,,株式会社,神奈川県,横浜市神奈川区,金港町５－１４クアドリフォリオ８階,,14,102,2210056,,,,,,,2025-08-05,1,,,,,ワビサビ,0
1465,6020003029013,新規,0,2025-08-05,2025-08-05,合同会社Ｃａｓａ　Ａｍｅｒｉ,,合同会社,神奈川県,川崎市川崎区,駅前本町１１番地２川崎フロンティアビル４階,,14,131,2100007,,,,,,,2025-08-05,1,,,,,カーサアメリ,0
1466,6020003029038,新規,0,2025-08-05,2025-08-05,合同会社たまご屋さん,,合同会社,神奈川県,横浜市中区,末吉町３丁目５１メゾンイセザキ８０４号室,,14,104,2310055,,,,,,,2025-08-05,1,,,,,タマゴヤサン,0
1476,6040001139761,新規,0,2025-08-05,2025-08-05,株式会社信安綜合保険サービス,,株式会社,千葉県,千葉市若葉区,中田町２４３５番地,,12,104,2650043,,,,,,,2025-08-05,1,,,,,シンアンソウゴウホケンサービス,0
1477,6040001139869,新規,0,2025-08-05,2025-08-05,株式会社ＡＥＬＬ,,株式会社,千葉県,佐倉市,稲荷台２丁目１番１号アースライト臼井１Ｆ,,12,212,2850864,,,,,,,2025-08-05,1,,,,,アエル,0
1480,6040003028079,新規,0,2025-08-05,2025-08-05,清慧合同会社,,合同会社,千葉県,松戸市,新松戸１丁目１１０－３,,12,207,2700034,,,,,,,2025-08-05,1,,,,,セイケイ,0
1482,6050001057021,新規,0,2025-08-05,2025-08-05,株式会社中村板金,,株式会社,茨城県,坂東市,勘助新田４２２１番地２,,08,228,3060603,,,,,,,2025-08-05,1,,,,,ナカムラバンキン,0
1483,6060001038474,新規,0,2025-08-05,2025-08-05,株式会社ファームりん道,,株式会社,栃木県,矢板市,下太田４８４番地,,09,211,3292124,,,,,,,2025-08-05,1,,,,,ファームリンドウ,0
1484,6060005010363,新規,0,2025-08-05,2025-08-05,一般社団法人カンバス・アートまちづくり協会,,その他の設立登記法人,栃木県,那須塩原市,本町三丁目５番ＳＴＵＤＩＯＩＮＫ,,09,213,3250056,,,,,,,2025-08-05,1,,,,,カンバスアートマチヅクリキョウカイ,0
1489,6080005007713,新規,0,2025-08-05,2025-08-05,ＮＰＯ法人てとてとてと,,その他の設立登記法人,静岡県,牧之原市,大江７２１番地２,,22,226,4210512,,,,,,,2025-08-05,1,,,,,テトテトテト,0
1491,6080103003390,新規,0,2025-08-05,2025-08-05,ジンテック合同会社,,合同会社,静岡県,伊豆の国市,大仁６８５－２,,22,225,4102323,,,,,,,2025-08-05,1,,,,,ジンテック,0
1493,6080401028073,新規,0,2025-08-05,2025-08-05,株式会社トーヨー,,株式会社,静岡県,浜松市中央区,石原町７０１番地の１,,22,138,4350033,,,,,,,2025-08-05,1,,,,,トーヨー,0
1496,6090001019430,新規,0,2025-08-05,2025-08-05,トーエー住建株式会社,,株式会社,山梨県,甲府市,国母２丁目９番５号,,19,201,4000043,,,,,,,2025-08-05,1,,,,,トーエージュウケン,0
1497,6090001019439,新規,0,2025-08-05,2025-08-05,株式会社河塗装,,株式会社,山梨県,都留市,古川渡３９９番地エボルシオン２０５,,19,204,4020004,,,,,,,2025-08-05,1,,,,,カワトソウ,0
1500,6100001038825,新規,0,2025-08-05,2025-08-05,株式会社チエトクフウ,,株式会社,長野県,長野市,平林２丁目１番４０号,,20,201,3810036,,,,,,,2025-08-05,1,,,,,チエトクフウ,0
1520,6120001278337,新規,0,2025-08-05,2025-08-05,アルオシジャパン株式会社,,株式会社,大阪府,大阪市大正区,平尾４丁目１１－７－Ａ３,,27,108,5510012,,,,,,,2025-08-05,1,,,,,アルオシジャパン,0
1521,6120001278444,新規,0,2025-08-05,2025-08-05,株式会社ダイスプラス,,株式会社,大阪府,大阪市中央区,南船場２丁目１２番１０号,,27,128,5420081,,,,,,,2025-08-05,1,,,,,ダイスプラス,0
1522,6120001278519,新規,0,2025-08-05,2025-08-05,Ｐｕｌｓｅ　Ｅｄｇｅ株式会社,,株式会社,大阪府,大阪市中央区,城見１丁目２番２７号,,27,128,5400001,,,,,,,2025-08-05,1,,,,,パルスエッジ,0
1527,6120005025074,新規,0,2025-08-05,2025-08-05,一般社団法人宇宙甲子園実行委員会,,その他の設立登記法人,大阪府,大阪市浪速区,湊町２丁目２番４０－１１１５号,,27,111,5560017,,,,,,,2025-08-05,1,,,,,ウチュウコウシエンジッコウイインカイ,0
1532,6120901051289,新規,0,2025-08-05,2025-08-05,株式会社ＭｔｏＡ,,株式会社,大阪府,吹田市,片山町３丁目１番８号野崎ビル,,27,205,5640082,,,,,,,2025-08-05,1,,,,,エムトゥエイ,0
1544,6140001139512,新規,0,2025-08-05,2025-08-05,株式会社ネクサスファイブ,,株式会社,兵庫県,尼崎市,長洲中通２丁目３－７,,28,202,6600802,,,,,,,2025-08-05,1,,,,,ネクサスファイブ,0
1545,6140001139520,新規,0,2025-08-05,2025-08-05,株式会社ＹＴＪ,,株式会社,兵庫県,西宮市,羽衣町３番１２号,,28,204,6620051,,,,,,,2025-08-05,1,,,,,ワイティージェイ,0
1546,6140003022344,新規,0,2025-08-05,2025-08-05,合同会社伸和,,合同会社,兵庫県,西宮市,小松西町１丁目４番２１－３０２号,,28,204,6638125,,,,,,,2025-08-05,1,,,,,シンワ,0
1547,6140003022385,新規,0,2025-08-05,2025-08-05,合同会社ラーナス・オーロ,,合同会社,兵庫県,洲本市,大野６２２番地,,28,205,6560055,,,,,,,2025-08-05,1,,,,,ラーナスオーロ,0
1555,6170003002260,新規,0,2025-08-05,2025-08-05,ＡＹＵＢ　ＴＲＡＤＩＮＧ合同会社,,合同会社,和歌山県,岩出市,清水１２７番３号グリーンハイツ６－１号室,,30,209,6496227,,,,,,,2025-08-05,1,,,,,アユブトレーディング,0
1563,6180001168012,新規,0,2025-08-05,2025-08-05,東明ホールディングス株式会社,,株式会社,愛知県,名古屋市中川区,東中島町３丁目１番４号,,23,110,4540866,,,,,,,2025-08-05,1,,,,,トウメイホールディングス,0
1568,6190001032448,新規,0,2025-08-05,2025-08-05,株式会社どっとぬる,,株式会社,三重県,津市,芸濃町中縄４３７番地１,,24,201,5142203,,,,,,,2025-08-05,1,,,,,ドットヌル,0
1576,6220001026842,新規,0,2025-08-05,2025-08-05,株式会社ＫＩＮＯＳ,,株式会社,石川県,輪島市,河井町５字２４０番地,,17,204,9280001,,,,,,,2025-08-05,1,,,,,キノス,0
1580,6230001021025,新規,0,2025-08-05,2025-08-05,株式会社ＷＯＯＤＹ　ＢＥＬＬ,,株式会社,富山県,砺波市,寿町６番４４号,,16,208,9391377,,,,,,,2025-08-05,1,,,,,ウッディベル,0
1583,6240001065319,新規,0,2025-08-05,2025-08-05,株式会社リプルケアスペース,,株式会社,広島県,広島市安佐南区,安東４丁目４１番４号,,34,105,7310153,,,,,,,2025-08-05,1,,,,,リプルケアスペース,0
1584,6240001065327,新規,0,2025-08-05,2025-08-05,株式会社トクト,,株式会社,広島県,広島市西区,観音町８番１７号ウィンディア観音３０１号室,,34,104,7330031,,,,,,,2025-08-05,1,,,,,トクト,0
1586,6240003007343,新規,0,2025-08-05,2025-08-05,ＢＪ　ＮＥＸＵＳ合同会社,,合同会社,広島県,東広島市,西条町田口２７８６番地１広島イスラム文化センター１０２,,34,212,7390036,,,,,,,2025-08-05,1,,,,,ビージェイネクサス,0
1591,6270001009256,新規,0,2025-08-05,2025-08-05,株式会社ｅｔｔｏ,,株式会社,鳥取県,米子市,米原５丁目２番２５号,,31,202,6830804,,,,,,,2025-08-05,1,,,,,エット,0
1594,6280001009478,新規,0,2025-08-05,2025-08-05,株式会社カイシン設備,,株式会社,島根県,益田市,須子町３２番１９号,,32,204,6980036,,,,,,,2025-08-05,1,,,,,カイシンセツビ,0
1607,6290803005129,新規,0,2025-08-05,2025-08-05,合同会社榎本電機,,合同会社,福岡県,北九州市八幡西区,鷹の巣２丁目１４番１１号,,40,109,8060047,,,,,,,2025-08-05,1,,,,,エノモトデンキ,0
1609,6300001014302,新規,0,2025-08-05,2025-08-05,ルミナス・セキュリティー株式会社,,株式会社,佐賀県,鳥栖市,江島町３１８９番地５,,41,203,8410073,,,,,,,2025-08-05,1,,,,,ルミナスセキュリティー,0
1614,6330001033448,新規,0,2025-08-05,2025-08-05,株式会社ＲＥＡＤ,,株式会社,熊本県,玉名市,石貫３６４８番地２,,43,206,8650008,,,,,,,2025-08-05,1,,,,,リード,0
1617,6350001019684,新規,0,2025-08-05,2025-08-05,株式会社裕優,,株式会社,宮崎県,日向市,大字富高７１５７番地１１６,,45,206,8830034,,,,,,,2025-08-05,1,,,,,ユウユウ,0
1620,6370001052923,新規,0,2025-08-05,2025-08-05,スマイルデザイン株式会社,,株式会社,宮城県,名取市,美田園５丁目３番地の２アリア１０２号室,,04,207,9811217,,,,,,,2025-08-05,1,,,,,スマイルデザイン,0
1622,6370003007231,新規,0,2025-08-05,2025-08-05,合同会社松ノ実ケアタクシー,,合同会社,宮城県,仙台市太白区,八木山香澄町３３番１０－２０３号,,04,104,9820831,,,,,,,2025-08-05,1,,,,,マツノミケアタクシー,0
1631,6400005008505,新規,0,2025-08-05,2025-08-05,一般社団法人ぽっぽｐｒｏｊｅｃｔ,,その他の設立登記法人,岩手県,花巻市,仲町５番３１号,,03,205,0250077,,,,,,,2025-08-05,1,,,,,ポッポプロジェクト,0
1647,6470001020837,新規,0,2025-08-05,2025-08-05,株式会社ラブベア,,株式会社,香川県,高松市,片原町１０番地１８－２Ｆ,,37,201,7600040,,,,,,,2025-08-05,1,,,,,ラブベア,0
1648,6470003002949,新規,0,2025-08-05,2025-08-05,合同会社大当たり,,合同会社,香川県,高松市,瓦町２丁目１１番地４,,37,201,7600052,,,,,,,2025-08-05,1,,,,,オオアタリ,0
1652,6500003003555,新規,0,2025-08-05,2025-08-05,ジェイプラス合同会社,,合同会社,愛媛県,越智郡上島町,弓削久司浦９７１番地,,38,356,7942501,,,,,,,2025-08-05,1,,,,,ジェイプラス,0
1655,6700150131642,新規,0,2025-08-05,2025-08-05,ＳｈｅｎＺｈｅｎＳｈｉ　ＪｉｎｇＴａｉＫｅ　ＤｉａｎＺｉＳｈａｎｇＷｕ　ＹｏｕＸｉａｎＧｏｎｇＳｉ,,外国会社等,,,,,,,,ｂａｏａｎｑｕｘｉｘｉａｎｇｊｉｅｄａｏｇｕｓｈｕｓｈｅｑｕｇｕｓｈｕｅｒｌｕｈｕａｆｅｎｇｚｈｉｈｕｉｃｈｕａｎｇｘｉｎｇａｎｇＡｚｕｏ３１０　ｓｈｅｎｚｈｅｎｓｈｉ　ＣＮ,,,,,,2025-08-05,1,,,,,シンセンシジンタイカデンシショウムユウゲンコウシ,0
1665,7010003048269,新規,0,2025-08-05,2025-08-05,合同会社Ｃｏｎｎｏｖａ,,合同会社,東京都,文京区,小日向２丁目２８―１８,,13,105,1120006,,,,,,,2025-08-05,1,,,,,コノヴァ,0
1675,7010401192197,新規,0,2025-08-05,2025-08-05,株式会社三津原,,株式会社,東京都,港区,西麻布４丁目１９番６号,,13,103,1060031,,,,,,,2025-08-05,1,,,,,ミツハラ,0
1676,7010401192222,新規,0,2025-08-05,2025-08-05,株式会社ＲＢＬホールディングス,,株式会社,東京都,港区,麻布十番２丁目２０番７号麻布十番高木ビル,00140161,13,103,1060045,,,,,,,2025-08-05,1,,,,,アールビーエルホールディングス,0
1677,7010401192230,新規,0,2025-08-05,2025-08-05,Ｗホールディングス株式会社,,株式会社,東京都,港区,白金台５丁目１８番９号ＶＯＲＴ白金台４階,,13,103,1080071,,,,,,,2025-08-05,1,,,,,ダブリューホールディングス,0
1678,7010401192247,新規,0,2025-08-05,2025-08-05,ＪＡＢＲＯ株式会社,,株式会社,東京都,港区,虎ノ門４丁目３番２０号,,13,103,1050001,,,,,,,2025-08-05,1,,,,,ジャブロ,0
1679,7010401192271,新規,0,2025-08-05,2025-08-05,株式会社Ｃｈａｐｔｅｒ‐Ｉ,,株式会社,東京都,港区,赤坂５丁目３番１号,,13,103,1070052,,,,,,,2025-08-05,1,,,,,チャプターアイ,0
1684,7010403035742,新規,0,2025-08-05,2025-08-05,合同会社邑田屋,,合同会社,東京都,港区,六本木３丁目１６番１２号六本木ＫＳビル５Ｆ,,13,103,1060032,,,,,,,2025-08-05,1,,,,,ムラタヤ,0
1685,7010501054479,新規,0,2025-08-05,2025-08-05,Ｌｉｎｋａｂｌｅ株式会社,,株式会社,東京都,台東区,柳橋１丁目２３番４号,,13,106,1110052,,,,,,,2025-08-05,1,,,,,リンカブル,0
1686,7010501054487,新規,0,2025-08-05,2025-08-05,メドサイヘルス国際株式会社,,株式会社,東京都,台東区,蔵前４丁目１６－６ストーク蔵前Ｍ＆Ｋ４階４１４,,13,106,1110051,,,,,,,2025-08-05,1,,,,,メドサイヘルスコクサイ,0
1687,7010501054504,新規,0,2025-08-05,2025-08-05,エスホームズ株式会社,,株式会社,東京都,台東区,台東１丁目４－１０秋葉原ＲＳビル４Ｆ,,13,106,1100016,,,,,,,2025-08-05,1,,,,,エスホームズ,0
1689,7010601067728,新規,0,2025-08-05,2025-08-05,ＴＯＹＯＳＵ　ＢＡＳＥ株式会社,,株式会社,東京都,江東区,豊洲４丁目２番３号ミライエ豊洲,,13,108,1350061,,,,,,,2025-08-05,1,,,,,トヨスベース,0
1692,7010701048099,新規,0,2025-08-05,2025-08-05,日創不動産株式会社,,株式会社,東京都,品川区,西中延１丁目５番２２－２０２号,,13,109,1420054,,,,,,,2025-08-05,1,,,,,ニッソウフドウサン,0
1696,7010705003785,新規,0,2025-08-05,2025-08-05,一般社団法人翡翠倶楽部,,その他の設立登記法人,東京都,品川区,上大崎３丁目１番２－１４０３号,,13,109,1410021,,,,,,,2025-08-05,1,,,,,ヒスイクラブ,0
1698,7010801036458,新規,0,2025-08-05,2025-08-05,株式会社ミルフィーユコーポレーション,,株式会社,東京都,大田区,田園調布本町２４番１８号,,13,111,1450072,,,,,,,2025-08-05,1,,,,,ミルフィーユコーポレーション,0
1703,7010903010146,新規,0,2025-08-05,2025-08-05,合同会社Ｓ＆Ｍ,,合同会社,東京都,世田谷区,上馬２丁目２５－６ステージファースト三軒茶屋１０１,,13,112,1540011,,,,,,,2025-08-05,1,,,,,エスアンドエム,0
1707,7011001171137,新規,0,2025-08-05,2025-08-05,福鈴株式会社,,株式会社,東京都,目黒区,東山３丁目１８番９号地下一階,,13,110,1530043,,,,,,,2025-08-05,1,,,,,フクリン,0
1708,7011001171194,新規,0,2025-08-05,2025-08-05,ＭＢＴリンクプラス株式会社,,株式会社,東京都,渋谷区,代々木１丁目３１番１５号,,13,113,1510053,,,,,,,2025-08-05,1,,,,,エムビーティーリンクプラス,0
1714,7011103016025,新規,0,2025-08-05,2025-08-05,合同会社ビーンズアシスト,,合同会社,東京都,新宿区,西新宿３丁目３番１３号西新宿水間ビル６階,,13,104,1600023,,,,,,,2025-08-05,1,,,,,ビーンズアシスト,0
1715,7011103016157,新規,0,2025-08-05,2025-08-05,合同会社収納代行１,,合同会社,東京都,新宿区,西新宿３丁目３－１３,,13,104,1600023,,,,,,,2025-08-05,1,,,,,シュウノウダイコウイチ,0
1721,7011401027302,新規,0,2025-08-05,2025-08-05,株式会社ＬＴ,,株式会社,東京都,板橋区,大門９番７号,,13,119,1750085,,,,,,,2025-08-05,1,,,,,エルティー,0
1723,7011601028868,新規,0,2025-08-05,2025-08-05,株式会社ＭＥＳ,,株式会社,東京都,練馬区,東大泉７丁目１８番１７号,,13,120,1780063,,,,,,,2025-08-05,1,,,,,エムイーエス,0
1730,7012701019006,新規,0,2025-08-05,2025-08-05,株式会社フルプッシュ,,株式会社,東京都,西東京市,保谷町５丁目１８番９－１０２号,,13,229,2020015,,,,,,,2025-08-05,1,,,,,フルプッシュ,0
1731,7013101009761,新規,0,2025-08-05,2025-08-05,株式会社Ｈａｌａｗ,,株式会社,東京都,羽村市,富士見平１丁目１２番地４４,,13,227,2050013,,,,,,,2025-08-05,1,,,,,ハロー,0
1735,7013301054707,新規,0,2025-08-05,2025-08-05,Ｉｎｏｃｈｉ　Ｈａｔａｋｅ　Ｌａｂｏ株式会社,,株式会社,東京都,豊島区,東池袋３丁目１３番１２－４１２号,,13,116,1700013,,,,,,,2025-08-05,1,,,,,イノチハタケラボ,0
1743,7020001163820,新規,0,2025-08-05,2025-08-05,株式会社るきら,,株式会社,神奈川県,横浜市保土ケ谷区,西谷４丁目８番２４号斎藤ビル１Ｆ,,14,106,2400054,,,,,,,2025-08-05,1,,,,,ルキラ,0
1744,7020001164100,新規,0,2025-08-05,2025-08-05,株式会社暁,,株式会社,神奈川県,横浜市都筑区,東方町２９３番地１－２０３号室,,14,118,2240045,,,,,,,2025-08-05,1,,,,,アカツキ,0
1745,7020001164190,新規,0,2025-08-05,2025-08-05,株式会社Ｆ‐Ｒｏｏｔｓ,,株式会社,神奈川県,川崎市高津区,子母口９６３番地２,,14,134,2130023,,,,,,,2025-08-05,1,,,,,エフールーツ,0
1746,7020001164199,新規,0,2025-08-05,2025-08-05,株式会社ＴＫ電設,,株式会社,神奈川県,横浜市鶴見区,栄町通１丁目７番地１５,,14,101,2300038,,,,,,,2025-08-05,1,,,,,ティーケーデンセツ,0
1747,7020001164208,新規,0,2025-08-05,2025-08-05,株式会社ネクスメモリ,,株式会社,神奈川県,横浜市保土ケ谷区,岡沢町２９番地３,,14,106,2400062,,,,,,,2025-08-05,1,,,,,ネクスメモリ,0
1753,7020003029078,新規,0,2025-08-05,2025-08-05,Ｎｅｘｔ　Ｐａｓｓ合同会社,,合同会社,神奈川県,横浜市旭区,今宿西町３４６番地２,,14,112,2410031,,,,,,,2025-08-05,1,,,,,ネクストパス,0
1761,7021003016355,新規,0,2025-08-05,2025-08-05,ＨｉＢＯＲＮ合同会社,,合同会社,神奈川県,茅ヶ崎市,若松町１４－５３,,14,207,2530051,,,,,,,2025-08-05,1,,,,,ハイボーン,0
1775,7040001139934,新規,0,2025-08-05,2025-08-05,株式会社ＮＡＮＡＮＩＣＯ,,株式会社,千葉県,柏市,南柏１丁目４－３Ｔ’ｓＧａｒｄｅｎ南柏７０１,,12,217,2770855,,,,,,,2025-08-05,1,,,,,ナナニコ,0
1776,7040001139942,新規,0,2025-08-05,2025-08-05,株式会社ＯｖｅｒＲＩＤＥ,,株式会社,千葉県,木更津市,新宿１－１８,,12,206,2920066,,,,,,,2025-08-05,1,,,,,オーバーライド,0
1782,7040003028177,新規,0,2025-08-05,2025-08-05,Ｈ．Ａ　ＴＲＡＤＩＮＧ合同会社,,合同会社,千葉県,八街市,用草１７４番地２，２階２０２号,,12,230,2891138,,,,,,,2025-08-05,1,,,,,エイチドットエートレーディング,0
1788,7050001057020,新規,0,2025-08-05,2025-08-05,株式会社Ｓｔｅｎｋｅｓ,,株式会社,茨城県,筑西市,舟生２７７番地４,,08,227,3080111,,,,,,,2025-08-05,1,,,,,ステンクス,0
1789,7050001057029,新規,0,2025-08-05,2025-08-05,宏瑞株式会社,,株式会社,茨城県,行方市,玉造甲２６４５番地４,,08,233,3113512,,,,,,,2025-08-05,1,,,,,コウズイ,0
1790,7050001057037,新規,0,2025-08-05,2025-08-05,株式会社オハナタウン２・境,,株式会社,茨城県,猿島郡境町,大字長井戸１６８３番地,,08,546,3060404,,,,,,,2025-08-05,1,,,,,オハナタウンツーサカイ,0
1792,7050003009449,新規,0,2025-08-05,2025-08-05,Ｈｕｊｗｅｒｙ　Ｔｒａｄｉｎｇ合同会社,,合同会社,茨城県,坂東市,長須１４００番地２ヤマザキコーポ平屋Ａ室,,08,228,3060645,,,,,,,2025-08-05,1,,,,,ヒュージュエリートレーディング,0
1793,7050003009481,新規,0,2025-08-05,2025-08-05,合同会社ＳＯＵＳＥＩ,,合同会社,茨城県,神栖市,平泉２番地１７,,08,232,3140146,,,,,,,2025-08-05,1,,,,,ソウセイ,0
1794,7060001038473,新規,0,2025-08-05,2025-08-05,株式会社小野商事,,株式会社,栃木県,栃木市,吹上町１７６番地,,09,203,3280125,,,,,,,2025-08-05,1,,,,,オノショウジ,0
1805,7080401028072,新規,0,2025-08-05,2025-08-05,株式会社あららんど,,株式会社,静岡県,浜松市中央区,和合町２４番地の２０,,22,138,4338125,,,,,,,2025-08-05,1,,,,,アラランド,0
1806,7080401028080,新規,0,2025-08-05,2025-08-05,株式会社エーネクスト,,株式会社,静岡県,浜松市中央区,西町８３１番地,,22,138,4300821,,,,,,,2025-08-05,1,,,,,エーネクスト,0
1808,7090001019421,新規,0,2025-08-05,2025-08-05,富士和嘉国際株式会社,,株式会社,山梨県,南都留郡山中湖村,平野４８０番１－１０１号,,19,425,4010502,,,,,,,2025-08-05,1,,,,,フジワカコクサイ,0
1809,7090001019438,新規,0,2025-08-05,2025-08-05,株式会社ふたたび,,株式会社,山梨県,甲府市,中村町８－６－１階,,19,201,4000069,,,,,,,2025-08-05,1,,,,,フタタビ,0
1811,7100001038840,新規,0,2025-08-05,2025-08-05,株式会社エクステリア美樹,,株式会社,長野県,長野市,桐原１丁目２５番２５－２号,,20,201,3810045,,,,,,,2025-08-05,1,,,,,エクステリアビジュ,0
1815,7100005013377,新規,0,2025-08-05,2025-08-05,弁護士法人ＯＡＫＲＹＳ,,その他の設立登記法人,長野県,長野市,大字鶴賀２１４１番地３,,20,201,3800907,,,,,,,2025-08-05,1,,,,,オークリーズ,0
1819,7120001278328,新規,0,2025-08-05,2025-08-05,株式会社ＣＯＭＡ,,株式会社,大阪府,大阪市中央区,瓦屋町１丁目９－１８アメニティ心斎橋ＥＡＳＴ－８０１,,27,128,5420066,,,,,,,2025-08-05,1,,,,,コマ,0
1820,7120001278336,新規,0,2025-08-05,2025-08-05,株式会社Ｆｉｄｕｃｉａ　Ｐａｒｔｎｅｒｓ,,株式会社,大阪府,大阪市北区,大深町６番３８号グラングリーン大阪北館ＪＡＭＢＡＳＥ６階ＪＡＭ－ＤＥＳＫ,,27,127,5300011,,,,,,,2025-08-05,1,,,,,フィドゥーチアパートナーズ,0
1821,7120001278427,新規,0,2025-08-05,2025-08-05,雲之岫日本投資株式会社,,株式会社,大阪府,大阪市住吉区,東粉浜１丁目１２番１２号みどりビル２０２号,,27,120,5580051,,,,,,,2025-08-05,1,,,,,クモノクキニホントウシ,0
1822,7120001278575,新規,0,2025-08-05,2025-08-05,正寶升株式会社,,株式会社,大阪府,大阪市東淀川区,南江口３丁目１３番８号,,27,114,5330003,,,,,,,2025-08-05,1,,,,,セイホウショウ,0
1826,7120003030100,新規,0,2025-08-05,2025-08-05,合同会社エスジーアイ,,合同会社,大阪府,大阪市淀川区,西宮原２丁目６番１６－７０９号,,27,123,5320004,,,,,,,2025-08-05,1,,,,,エスジーアイ,0
1827,7120003030216,新規,0,2025-08-05,2025-08-05,合同会社Ｏｒｃｏ,,合同会社,大阪府,大阪市中央区,釣鐘町１丁目１番１号大宗ビル８０２号,,27,128,5400035,,,,,,,2025-08-05,1,,,,,オルコ,0
1832,7120905006767,新規,0,2025-08-05,2025-08-05,医療法人ＩＧＴいなだこころクリニック,,その他の設立登記法人,大阪府,吹田市,豊津町９番１号ＥＤＧＥ江坂３階,,27,205,5640051,,,,,,,2025-08-05,1,,,,,アイジーティーイナダココロクリニック,0
1844,7140003022384,新規,0,2025-08-05,2025-08-05,合同会社ＯＢＳ,,合同会社,兵庫県,神戸市灘区,桜口町５丁目１番８号ウェルブ六甲道５番街２番館１０２，１０３,,28,102,6570036,,,,,,,2025-08-05,1,,,,,オービーエス,0
1846,7140005027588,新規,0,2025-08-05,2025-08-05,一般社団法人ＴＥＡＭ　ＶＡＭＯＳ,,その他の設立登記法人,兵庫県,神戸市灘区,篠原台１０番３号,,28,102,6570016,,,,,,,2025-08-05,1,,,,,チームバモス,0
1853,7170001018745,新規,0,2025-08-05,2025-08-05,株式会社友喜設備,,株式会社,和歌山県,岩出市,中島９０１－１４,,30,209,6496245,,,,,,,2025-08-05,1,,,,,ユウキセツビ,0
1860,7180001168011,新規,0,2025-08-05,2025-08-05,株式会社マルヒサ,,株式会社,愛知県,名古屋市中川区,供米田３丁目７０５番地の１,,23,110,4540984,,,,,,,2025-08-05,1,,,,,マルヒサ,0
1861,7180001168085,新規,0,2025-08-05,2025-08-05,株式会社ＣＯパートナーズ,,株式会社,愛知県,名古屋市中川区,山王１丁目２番２０号,,23,110,4540011,,,,,,,2025-08-05,1,,,,,シーオーパートナーズ,0
1867,7180301040084,新規,0,2025-08-05,2025-08-05,株式会社ｏｎｅ　ｏｆｆｉｃｅ,,株式会社,愛知県,岡崎市,井田南町８番地３,,23,202,4440068,,,,,,,2025-08-05,1,,,,,ワンオフィス,0
1870,7190001032447,新規,0,2025-08-05,2025-08-05,株式会社ＹＯＫＯＹＯＵ,,株式会社,三重県,松阪市,茅原町２３０６番地３,,24,204,5151202,,,,,,,2025-08-05,1,,,,,ヨコヨウ,0
1878,7200001044102,新規,0,2025-08-05,2025-08-05,株式会社Ｚｅｎｉｔｈ,,株式会社,岐阜県,本巣市,屋井４４９番地４,,21,218,5010417,,,,,,,2025-08-05,1,,,,,ゼニス,0
1885,7240001065318,新規,0,2025-08-05,2025-08-05,株式会社ＫＡＩＴＯ,,株式会社,広島県,広島市佐伯区,八幡東２丁目１３番１１号,,34,108,7315115,,,,,,,2025-08-05,1,,,,,カイト,0
1886,7240001065326,新規,0,2025-08-05,2025-08-05,株式会社Ｈａｐｐｙｄａｙｓ,,株式会社,広島県,広島市南区,向洋新町２丁目１１番１号,,34,103,7340055,,,,,,,2025-08-05,1,,,,,ハッピーデイズ,0
1887,7240001065334,新規,0,2025-08-05,2025-08-05,クリアライズ株式会社,,株式会社,広島県,広島市安佐南区,長束４丁目１８番２０－３０２号,,34,105,7310135,,,,,,,2025-08-05,1,,,,,クリアライズ,0
1888,7240003007342,新規,0,2025-08-05,2025-08-05,合同会社ＮＬ運送,,合同会社,広島県,広島市西区,横川新町３番２７－１５０２号,,34,104,7330013,,,,,,,2025-08-05,1,,,,,エヌエルウンソウ,0
1894,7250003003786,新規,0,2025-08-05,2025-08-05,合同会社ＧＲＥＥＮ　ＦＡＣＴＯＲＹ,,合同会社,山口県,宇部市,野中１丁目１０－１７,,35,202,7550025,,,,,,,2025-08-05,1,,,,,グリーンファクトリー,0
1897,7260001040401,新規,0,2025-08-05,2025-08-05,株式会社ＴＣＳ,,株式会社,岡山県,岡山市南区,築港栄町５－４７,,33,104,7028053,,,,,,,2025-08-05,1,,,,,ティーシーエス,0
1898,7280001009485,新規,0,2025-08-05,2025-08-05,株式会社フェニックス・マネジメント,,株式会社,島根県,安来市,安来町１１８１番地４メルグラン２０５,,32,206,6920011,,,,,,,2025-08-05,1,,,,,フェニックスマネジメント,0
1906,7290001110845,新規,0,2025-08-05,2025-08-05,全天候メディア株式会社,,株式会社,福岡県,福岡市博多区,東那珂２丁目１０－５５－３０２,,40,132,8120892,,,,,,,2025-08-05,1,,,,,ゼンテンコウメディア,0
1907,7290001110993,新規,0,2025-08-05,2025-08-05,株式会社Ａｅｇｉｓ．ＡＩ,,株式会社,福岡県,福岡市博多区,博多駅前２丁目１７－１博多プレステージ本館１Ｆ・２Ｆ,,40,132,8120011,,,,,,,2025-08-05,1,,,,,イージスエーアイ,0
1912,7290801031753,新規,0,2025-08-05,2025-08-05,株式会社つくるケア,,株式会社,福岡県,北九州市八幡西区,船越１丁目４番３４号,,40,109,8071111,,,,,,,2025-08-05,1,,,,,ツクルケア,0
1913,7290801031761,新規,0,2025-08-05,2025-08-05,株式会社鉄なべ,,株式会社,福岡県,北九州市八幡西区,黒崎１丁目９－１３宮本ビル１階,,40,109,8060021,,,,,,,2025-08-05,1,,,,,テツナベ,0
1915,7310001019737,新規,0,2025-08-05,2025-08-05,株式会社荒木工業,,株式会社,長崎県,大村市,桜馬場２丁目６０６番地３６ＡＣＥホームＡ棟,,42,205,8560812,,,,,,,2025-08-05,1,,,,,アラキコウギョウ,0
1920,7330001033455,新規,0,2025-08-05,2025-08-05,株式会社海翔金属,,株式会社,熊本県,熊本市南区,城南町阿高２６４,,43,104,8614224,,,,,,,2025-08-05,1,,,,,カイショウキンゾク,0
1921,7330003011161,新規,0,2025-08-05,2025-08-05,合同会社Ｈａｉｓａｉ,,合同会社,熊本県,上益城郡甲佐町,大字豊内４６５番地,,43,444,8614607,,,,,,,2025-08-05,1,,,,,ハイサイ,0
1922,7340001027555,新規,0,2025-08-05,2025-08-05,株式会社福永工業,,株式会社,鹿児島県,鹿児島市,西谷山３丁目１９番５号,,46,201,8910117,,,,,,,2025-08-05,1,,,,,フクナガコウギョウ,0
1923,7350001019683,新規,0,2025-08-05,2025-08-05,株式会社サク木材,,株式会社,宮崎県,宮崎市,高岡町浦之名４４２４番地,,45,201,8802323,,,,,,,2025-08-05,1,,,,,サクモクザイ,0
1930,7360001035589,新規,0,2025-08-05,2025-08-05,株式会社佐渡山塗装,,株式会社,沖縄県,うるま市,勝連南風原４０９７番地,,47,213,9042311,,,,,,,2025-08-05,1,,,,,サドヤマトソウ,0
1932,7360003015143,新規,0,2025-08-05,2025-08-05,Ｗｅ・ｉｎｔｅｒｎａｔｉｏｎａｌ合同会社,,合同会社,沖縄県,宮古島市,伊良部字国仲６２１－８,,47,214,9060505,,,,,,,2025-08-05,1,,,,,ウィーインターナショナル,0
1947,7470001020836,新規,0,2025-08-05,2025-08-05,株式会社高野塾,00140154,株式会社,香川県,坂出市,京町３丁目６番２７号,,37,203,7620001,,,,,,,2025-08-05,1,,,,,タカノジュク,0
1950,7480001012907,新規,0,2025-08-05,2025-08-05,株式会社クイーングループ,,株式会社,徳島県,徳島市,川内町平石住吉２２５番地の１３,,36,201,7710134,,,,,,,2025-08-05,1,,,,,クイーングループ,0
1952,7480003002303,新規,0,2025-08-05,2025-08-05,ＣＯＺＹ　ＳＰＡＣＥ合同会社,,合同会社,徳島県,徳島市,八万町川南１４６番地１,,36,201,7708082,,,,,,,2025-08-05,1,,,,,コージースペース,0
1955,7700150011884,新規,0,2025-08-05,2015-10-09,府中市遺跡調査会,,その他,東京都,府中市,宮町３丁目１ふるさと府中歴史館３Ｆ,,13,206,1830023,,,,,,,2015-10-09,1,,,,,フチユウシイセキチヨウサカイ,0
1959,7700150131641,新規,0,2025-08-05,2025-08-05,ｍａｎｑｉａｏｓｈａｎｇｈａｉｓｈｉｚｈｕａｎｇｙｏｕｘｉａｎｇｏｎｇｓｉ,,外国会社等,,,,,,,,ｓｈａｎｇｈａｉｓｈｉｑｉｎｇｐｕｑｕｓｈｕａｎｇｌｉａｎｌｕ１５８ｈａｏ１ｚｈｕａｎｇ１１ｃｅｎｇＲｑｕ１１４１ｓｈｉ，Ｃｈｉｎａ,,,,,,2025-08-05,1,,,,,マンチャオシャンハイシズゥアンユウゲンコウシ,0
1971,8010001257424,新規,0,2025-08-05,2025-08-05,日本閃魔株式会社,,株式会社,東京都,文京区,千石４丁目１４番９号１階アルファ内,,13,105,1120011,,,,,,,2025-08-05,1,,,,,ニホンデジモテクノロジー,0
1978,8010005040479,新規,0,2025-08-05,2025-08-05,一般社団法人ＡＩマネジメントスキル協会,,その他の設立登記法人,東京都,千代田区,二番町９番３号ＴＨＥＢＡＳＥ麹町ＴＨＥＨＵＢ麹町Ｗ３０７号室,,13,101,1020084,,,,,,,2025-08-05,1,,,,,エーアイマネジメントスキルキョウカイ,0
1991,8010501054494,新規,0,2025-08-05,2025-08-05,日本センロセ株式会社,,株式会社,東京都,台東区,浅草橋５丁目３番９号秋光ビル１０６,,13,106,1110053,,,,,,,2025-08-05,1,,,,,ニホンセンロセ,0
1994,8010601067727,新規,0,2025-08-05,2025-08-05,株式会社テックプレート,,株式会社,東京都,墨田区,江東橋５丁目１６番１２号,,13,107,1300022,,,,,,,2025-08-05,1,,,,,テックプレート,0
1998,8010703007845,新規,0,2025-08-05,2025-08-05,合同会社ミゾカラ,,合同会社,東京都,品川区,東品川３丁目２３－２２ドミール東品川２０４,,13,109,1400002,,,,,,,2025-08-05,1,,,,,ミゾカラ,0
2009,8011003022106,新規,0,2025-08-05,2025-08-05,ＡｇｅｎｔＢａｓｅ合同会社,,合同会社,東京都,渋谷区,神宮前６丁目２３番４号桑野ビル２階,,13,113,1500001,,,,,,,2025-08-05,1,,,,,エージェントベース,0
2010,8011005011131,新規,0,2025-08-05,2025-08-05,一般社団法人ルネサンス・フィランソロピー・ジャパン,,その他の設立登記法人,東京都,渋谷区,円山町５番３号ＭＩＥＵＸ渋谷ビル８階,,13,113,1500044,,,,,,,2025-08-05,1,,,,,ルネサンスフィランソロピージャパン,0
2018,8011103016222,新規,0,2025-08-05,2025-08-05,ナガモリ合同会社,,合同会社,東京都,新宿区,矢来町２７ＢｉｅｎＫａｇｕｒａｚａｋａＡ,,13,104,1620805,,,,,,,2025-08-05,1,,,,,ナガモリ,0
2021,8011301030776,新規,0,2025-08-05,2025-08-05,株式会社Ｖｉｒ,,株式会社,東京都,杉並区,高井戸東３丁目２６番８号西野ビル３０２,,13,115,1680072,,,,,,,2025-08-05,1,,,,,ヴィレ,0
2022,8011601028818,新規,0,2025-08-05,2025-08-05,ＴＩＣＯニューエネルギー株式会社,,株式会社,東京都,練馬区,関町北５丁目１３番２５号練馬区関町北五丁目ビル２階２－Ｅ号室,,13,120,1770051,,,,,,,2025-08-05,1,,,,,ティコニューエネルギー,0
2023,8011601028867,新規,0,2025-08-05,2025-08-05,株式会社関口電気,,株式会社,東京都,練馬区,東大泉７丁目１８番１７号,,13,120,1780063,,,,,,,2025-08-05,1,,,,,セキグチデンキ,0
2026,8011703004337,新規,0,2025-08-05,2025-08-05,合同会社ＳＯＤＡｋｉｋａｋｕ,,合同会社,東京都,江戸川区,南葛西３丁目１８番５－２０２号,,13,123,1340085,,,,,,,2025-08-05,1,,,,,ソーダキカク,0
2035,8013301054714,新規,0,2025-08-05,2025-08-05,株式会社Ｍ,,株式会社,東京都,豊島区,目白２丁目１６番１５号ストーク目白ウェステリア１０５号,,13,116,1710031,,,,,,,2025-08-05,1,,,,,エム,0
2036,8013303007793,新規,0,2025-08-05,2025-08-05,合同会社Ｊ‐ＨＹＰＥＮ,,合同会社,東京都,豊島区,南長崎４丁目４３－３ソサエティオーパスワン３０１,,13,116,1710052,,,,,,,2025-08-05,1,,,,,ジェーハイフン,0
2037,8013303007802,新規,0,2025-08-05,2025-08-05,合同会社ＭＳラボ,,合同会社,東京都,豊島区,東池袋２丁目６２番８号ＢＩＧオフィスプラザ池袋１２０６,,13,116,1700013,,,,,,,2025-08-05,1,,,,,エムエスラボ,0
2041,8020001164025,新規,0,2025-08-05,2025-08-05,株式会社松宮ホールディングス,,株式会社,神奈川県,横浜市中区,曙町２丁目１９番１号曙町新井ビル１３階,,14,104,2310057,,,,,,,2025-08-05,1,,,,,マツミヤホールディングス,0
2042,8020001164074,新規,0,2025-08-05,2025-08-05,雪丸株式会社,,株式会社,神奈川県,横浜市西区,高島２丁目１１番２号スカイメナー横浜５１９,,14,103,2200011,,,,,,,2025-08-05,1,,,,,ユキマル,0
2043,8020001164090,新規,0,2025-08-05,2025-08-05,株式会社ＳｏｌＰｌｕｓ,,株式会社,神奈川県,横浜市磯子区,汐見台３丁目７－１－Ａ１０５,,14,107,2350022,,,,,,,2025-08-05,1,,,,,ソルプラス,0
2044,8020001164223,新規,0,2025-08-05,2025-08-05,ＭＩＲＥＡ株式会社,,株式会社,神奈川県,横浜市神奈川区,平川町２５番地１２－３０４号,,14,102,2210812,,,,,,,2025-08-05,1,,,,,ミレア,0
2053,8021003016362,新規,0,2025-08-05,2025-08-05,Ｗｉｌｌ　Ｔｉｅｓ合同会社,,合同会社,神奈川県,大和市,中央林間２丁目２１番１２号,,14,213,2420007,,,,,,,2025-08-05,1,,,,,ウィルタイズ,0
2061,8040001139941,新規,0,2025-08-05,2025-08-05,株式会社Ｐｈｙｓｉｅ,,株式会社,千葉県,松戸市,八ケ崎８丁目１８番地の４１ブライトカーサ１０２号,,12,207,2700023,,,,,,,2025-08-05,1,,,,,フィジー,0
2066,8050003009456,新規,0,2025-08-05,2025-08-05,ＹＵＩＮＡ　ＥＮＴＥＲＰＲＩＳＥＳ合同会社,,合同会社,茨城県,鉾田市,阿玉１１３５－６１,,08,234,3112118,,,,,,,2025-08-05,1,,,,,ユイナエンタープライゼス,0
2068,8060001038456,新規,0,2025-08-05,2025-08-05,株式会社プラットホームとちぎ,,株式会社,栃木県,栃木市,樋ノ口町９５番地４,,09,203,3280024,,,,,,,2025-08-05,1,,,,,プラットホームトチギ,0
2069,8060001038464,新規,0,2025-08-05,2025-08-05,グリーンベース株式会社,,株式会社,栃木県,宇都宮市,清原工業団地１８番地１,,09,201,3213231,,,,,,,2025-08-05,1,,,,,グリーンベース,0
2080,8080001027077,新規,0,2025-08-05,2025-08-05,株式会社名波防水,,株式会社,静岡県,牧之原市,須々木４２６番地,,22,226,4210524,,,,,,,2025-08-05,1,,,,,ナナミボウスイ,0
2082,8080005007711,新規,0,2025-08-05,2025-08-05,一般社団法人お茶のみらいラボ一煎,,その他の設立登記法人,静岡県,静岡市駿河区,小鹿９８１セイワコーポ２０３,,22,102,4228021,,,,,,,2025-08-05,1,,,,,オチャノミライラボイッセン,0
2083,8080101025699,新規,0,2025-08-05,2025-08-05,伊豆プライムエステート株式会社,,株式会社,静岡県,伊豆の国市,長岡２４０番地の１、２Ｆ,,22,225,4102211,,,,,,,2025-08-05,1,,,,,イズプライムエステート,0
2085,8080403005325,新規,0,2025-08-05,2025-08-05,ＨＡＮ合同会社,,合同会社,静岡県,磐田市,十郎島２３番地４,,22,211,4380236,,,,,,,2025-08-05,1,,,,,ハン,0
2088,8100005013376,新規,0,2025-08-05,2025-08-05,特定非営利活動法人歩,,その他の設立登記法人,長野県,長野市,大字安茂里５２６番地２２１,,20,201,3800941,,,,,,,2025-08-05,1,,,,,アユム,0
2106,8120001278269,新規,0,2025-08-05,2025-08-05,株式会社中村シャッター,,株式会社,大阪府,寝屋川市,下神田町１３番１０号,,27,215,5720054,,,,,,,2025-08-05,1,,,,,ナカムラシャッター,0
2107,8120001278343,新規,0,2025-08-05,2025-08-05,株式会社９ｍｉｅｕｘ,,株式会社,大阪府,大阪市中央区,博労町３丁目４番１３号マルイチビル,,27,128,5410059,,,,,,,2025-08-05,1,,,,,ナインミュー,0
2108,8120001278475,新規,0,2025-08-05,2025-08-05,株式会社コルネット,,株式会社,大阪府,大阪市鶴見区,鶴見３丁目１２番５４－１００３号,,27,124,5380053,,,,,,,2025-08-05,1,,,,,コルネット,0
2109,8120001278624,新規,0,2025-08-05,2025-08-05,Ｙ’ｓコーポレーション株式会社,,株式会社,大阪府,大阪市中央区,上町１丁目１１番３号,,27,128,5400005,,,,,,,2025-08-05,1,,,,,ワイズコーポレーション,0
2111,8120003030157,新規,0,2025-08-05,2025-08-05,ＳＳＹ合同会社,,合同会社,大阪府,大阪市浪速区,日本橋東３丁目１５番５号－１１０７,,27,111,5560006,,,,,,,2025-08-05,1,,,,,エスエスワイ,0
2112,8120003030173,新規,0,2025-08-05,2025-08-05,合同会社あざらし,,合同会社,大阪府,大阪市西成区,萩之茶屋１丁目７番１１号,,27,122,5570004,,,,,,,2025-08-05,1,,,,,アザラシ,0
2113,8120005025080,新規,0,2025-08-05,2025-08-05,司法書士法人中央綜合事務所,,その他の設立登記法人,大阪府,大阪市中央区,南船場１丁目１１番９－８階,,27,128,5420081,,,,,,,2025-08-05,1,,,,,チュウオウソウゴウジムショ,0
2114,8120005025089,新規,0,2025-08-05,2025-08-05,一般社団法人アジア太平洋国際仲裁院日本委員会,,その他の設立登記法人,大阪府,大阪市浪速区,日本橋東２丁目２番１４－６０１号,,27,111,5560006,,,,,,,2025-08-05,1,,,,,アジアタイヘイヨウコクサイチュウサイインニホンイインカイ,0
2117,8120103006610,新規,0,2025-08-05,2025-08-05,合同会社ＬＴ,,合同会社,大阪府,堺市西区,鳳西町２丁２９９番地の３－１階Ｂ,,27,144,5938326,,,,,,,2025-08-05,1,,,,,エルティー,0
2118,8120901051295,新規,0,2025-08-05,2025-08-05,株式会社Ｔｒｉｃｋ　Ｂｏｘ,,株式会社,大阪府,池田市,五月丘４丁目５－８,,27,204,5630029,,,,,,,2025-08-05,1,,,,,トリックボックス,0
2125,8130001080252,新規,0,2025-08-05,2025-08-05,華明センシングテクノロジージャパン株式会社,,株式会社,京都府,京都市下京区,小稲荷町８５番２－２０１号,,26,106,6008208,,,,,,,2025-08-05,1,,,,,フアミンセンシングテクノロジージャパン,0
2126,8130005017416,新規,0,2025-08-05,2025-08-05,一般社団法人京都保護猫会,,その他の設立登記法人,京都府,京都市東山区,西之門町５５８－１,,26,105,6050947,,,,,,,2025-08-05,1,,,,,キョウトホゴネコカイ,0
2132,8140001139428,新規,0,2025-08-05,2025-08-05,北神ホールディングス株式会社,,株式会社,兵庫県,三田市,対中町２番１０号,,28,219,6691525,,,,,,,2025-08-05,1,,,,,ホクシンホールディングス,0
2133,8140001139493,新規,0,2025-08-05,2025-08-05,株式会社リゼル,,株式会社,兵庫県,西宮市,中島町１６番２３－３号,,28,204,6638105,,,,,,,2025-08-05,1,,,,,リゼル,0
2134,8140001139576,新規,0,2025-08-05,2025-08-05,株式会社Ｐｒｏｊｅｃｔ　Ｅ,,株式会社,兵庫県,神戸市東灘区,深江北町１丁目１１番７－１０２号,,28,101,6580013,,,,,,,2025-08-05,1,,,,,プロジェクトイー,0
2137,8150001028308,新規,0,2025-08-05,2025-08-05,株式会社ＫＯＴＡＢＡＫＯ,,株式会社,奈良県,橿原市,今井町４丁目３番２２号,,29,205,6340812,,,,,,,2025-08-05,1,,,,,コタバコ,0
2140,8170001018744,新規,0,2025-08-05,2025-08-05,京阪国際事務所株式会社,,株式会社,和歌山県,和歌山市,湊本町３丁目４番地２－９０６,,30,201,6408222,,,,,,,2025-08-05,1,,,,,ケイハンコクサイジムショ,0
2148,8180001167838,新規,0,2025-08-05,2025-08-05,株式会社ポケット,,株式会社,愛知県,名古屋市昭和区,滝川町２６番地の４,,23,107,4660826,,,,,,,2025-08-05,1,,,,,ポケット,0
2149,8180001168051,新規,0,2025-08-05,2025-08-05,株式会社アイショウ,,株式会社,愛知県,名古屋市中川区,東起町３丁目１７番地ラ・メゾンエスポワール３０７号,,23,110,4540935,,,,,,,2025-08-05,1,,,,,アイショウ,0
2158,8190001032446,新規,0,2025-08-05,2025-08-05,株式会社白子不動産管理,,株式会社,三重県,鈴鹿市,江島町１６４２番地,,24,207,5100237,,,,,,,2025-08-05,1,,,,,シロコフドウサンカンリ,0
2161,8210001020266,新規,0,2025-08-05,2025-08-05,株式会社アニマートカーメンテナンス,,株式会社,福井県,福井市,開発１丁目２１番地８,,18,201,9100842,,,,,,,2025-08-05,1,,,,,アニマートカーメンテナンス,0
2164,8220001026849,新規,0,2025-08-05,2025-08-05,ＫＩＴホールディングス株式会社,,株式会社,石川県,金沢市,幸町２３番１号アルプ友好ビル６０２,,17,201,9200968,,,,,,,2025-08-05,1,,,,,キットホールディングス,0
2167,8220003004092,新規,0,2025-08-05,2025-08-05,天の小石合同会社,,合同会社,石川県,羽咋市,千里浜町ヌ３０９番地２,,17,207,9250054,,,,,,,2025-08-05,1,,,,,テンノコイシ,0
2170,8230001021031,新規,0,2025-08-05,2025-08-05,株式会社華心,,株式会社,富山県,射水市,広上８０６番地１６,,16,211,9390256,,,,,,,2025-08-05,1,,,,,ハナココロ,0
2171,8230003002475,新規,0,2025-08-05,2025-08-05,合同会社Ｐｌａｉｎ,,合同会社,富山県,射水市,戸破４９５４番地,,16,211,9390351,,,,,,,2025-08-05,1,,,,,プレイン,0
2173,8240001065325,新規,0,2025-08-05,2025-08-05,藤典株式会社,,株式会社,広島県,福山市,新市町大字宮内１５１９番地,,34,207,7293104,,,,,,,2025-08-05,1,,,,,フジテン,0
2174,8240003007341,新規,0,2025-08-05,2025-08-05,合同会社カネコ企画,,合同会社,広島県,広島市西区,三篠町３丁目２３番５－６０１号,,34,104,7330003,,,,,,,2025-08-05,1,,,,,カネコキカク,0
2179,8280001009484,新規,0,2025-08-05,2025-08-05,株式会社ＩＳＴ工業,,株式会社,島根県,松江市,黒田町８番地１,,32,201,6900876,,,,,,,2025-08-05,1,,,,,アイエスティーコウギョウ,0
2181,8290003017170,新規,0,2025-08-05,2025-08-05,合同会社河内屋,,合同会社,福岡県,朝倉郡筑前町,下高場６２６番地５,00140163,40,447,8380211,,,,,,,2025-08-05,1,,,,,カワチヤ,0
2183,8290801031744,新規,0,2025-08-05,2025-08-05,株式会社ソラノキ,,株式会社,福岡県,田川郡大任町,大字大行事４３２０番地,,40,608,8240512,,,,,,,2025-08-05,1,,,,,ソラノキ,0
2184,8290801031760,新規,0,2025-08-05,2025-08-05,株式会社Ｓｐｏｏｏｎ．,,株式会社,福岡県,北九州市八幡西区,熊手１丁目３番２０号,,40,109,8060028,,,,,,,2025-08-05,1,,,,,スプーン,0
2186,8290803005127,新規,0,2025-08-05,2025-08-05,合同会社ＫｉｔａＱ,,合同会社,福岡県,北九州市小倉北区,篠崎２丁目４６番６－８０５号,,40,106,8030861,,,,,,,2025-08-05,1,,,,,キタキュウ,0
2189,8310001019728,新規,0,2025-08-05,2025-08-05,株式会社ＮＥＸＴ,,株式会社,長崎県,佐世保市,大塔町８番地６５エステラス５５－０７１号,,42,202,8571161,,,,,,,2025-08-05,1,,,,,ネクスト,0
2190,8310003005057,新規,0,2025-08-05,2025-08-05,合同会社エフジェイ長崎,,合同会社,長崎県,大村市,松原１丁目５３０番地,,42,205,8560008,,,,,,,2025-08-05,1,,,,,エフジェイナガサキ,0
2191,8320001021253,新規,0,2025-08-05,2025-08-05,株式会社三笠工業,,株式会社,大分県,中津市,大字湯屋３９０番地３,,44,203,8710023,,,,,,,2025-08-05,1,,,,,ミカサコウギョウ,0
2196,8330001033454,新規,0,2025-08-05,2025-08-05,株式会社サンマルクファーム,,株式会社,熊本県,宇城市,松橋町南豊崎６１９番地６,,43,213,8690543,,,,,,,2025-08-05,1,,,,,サンマルクファーム,0
2197,8330001033462,新規,0,2025-08-05,2025-08-05,株式会社原商店,,株式会社,熊本県,合志市,豊岡２３６４番地２の２１,,43,216,8611115,,,,,,,2025-08-05,1,,,,,ハラショウテン,0
2201,8350001019682,新規,0,2025-08-05,2025-08-05,ＪＦＰ　ＴＡＣＯＪＩＭＡ　ＦＡＲＭ株式会社,,株式会社,宮崎県,宮崎市,大字大瀬町３９番地,,45,201,8800045,,,,,,,2025-08-05,1,,,,,ジェイエフピータコジマファーム,0
2205,8360001035563,新規,0,2025-08-05,2025-08-05,株式会社Ｂｌｏｏｍｉｎｇ　Ｗｉｓｄｏｍ,,株式会社,沖縄県,うるま市,字具志川３８３番地カステロ２０１号室,,47,213,9042223,,,,,,,2025-08-05,1,,,,,ブルーミングウィズダム,0
2206,8360001035605,新規,0,2025-08-05,2025-08-05,株式会社グスク,,株式会社,沖縄県,那覇市,具志１丁目２３－１４,,47,201,9010146,,,,,,,2025-08-05,1,,,,,グスク,0
2207,8360003015134,新規,0,2025-08-05,2025-08-05,ＴＳＫＣ合同会社,,合同会社,沖縄県,うるま市,勝連津堅１５６０番地,,47,213,9042317,,,,,,,2025-08-05,1,,,,,ティーエスケーシー,0
2208,8360003015150,新規,0,2025-08-05,2025-08-05,合同会社ＲＩＴＺ,,合同会社,沖縄県,中頭郡北谷町,字浜川１５２番地５,,47,326,9040112,,,,,,,2025-08-05,1,,,,,リッツ,0
2209,8370001052905,新規,0,2025-08-05,2025-08-05,株式会社プローバー,,株式会社,宮城県,仙台市青葉区,花京院１丁目４番４７号ＡＬＬＥＬＬ花京院ビル７Ｆ,,04,101,9800013,,,,,,,2025-08-05,1,,,,,プローバー,0
2220,8460001006026,新規,0,2025-08-05,2025-08-05,ＫＯＢＡＹＡＳＨＩ不動産株式会社,,株式会社,北海道,釧路市,新橋大通２丁目２番８号,,01,206,0850046,,,,,,,2025-08-05,1,,,,,コバヤシフドウサン,0
2221,8460003001066,新規,0,2025-08-05,2025-08-05,合同会社マサワン,,合同会社,北海道,釧路郡釧路町,昆布森１丁目１１４番地,,01,661,0852272,,,,,,,2025-08-05,1,,,,,マサワン,0
2223,8470001020819,新規,0,2025-08-05,2025-08-05,株式会社保佳,,株式会社,香川県,小豆郡小豆島町,吉田甲４２２番地１１,,37,324,7614401,,,,,,,2025-08-05,1,,,,,ヤスヨシ,0
2224,8470001020835,新規,0,2025-08-05,2025-08-05,株式会社山海福通,,株式会社,香川県,高松市,室新町１０３２番地６,,37,201,7618062,,,,,,,2025-08-05,1,,,,,サンカイフクツウ,0
2227,8480003002302,新規,0,2025-08-05,2025-08-05,合同会社トラストネスト,,合同会社,徳島県,板野郡藍住町,矢上字江ノ口１１０番地１ピースドエルＡ２０５号,,36,403,7711253,,,,,,,2025-08-05,1,,,,,トラストネスト,0
2230,8500003003561,新規,0,2025-08-05,2025-08-05,合同会社舞夢,,合同会社,愛媛県,西条市,神拝甲７２番地９,,38,206,7930041,,,,,,,2025-08-05,1,,,,,マイム,0
2233,8700150131640,新規,0,2025-08-05,2025-08-05,ＳｈｅｎＺｈｅｎ　Ｂｏｄｕｎｂａｉｌｉ　Ｅｌｅｃｔｒｏｎｉｃ　Ｃｏ　Ｌｔｄ,,外国会社等,,,,,,,,２０５，　Ａｎ　Ｔｉａｎ　Ｂｕｉｌｄｉｎｇ，　Ｋａｉｔｉａｎ　Ｓｃｉｅｎｃｅ　Ｐａｒｋ，　Ｆｕｍｉｎ　Ｉｎｄｕｓｔｒｉａ　Ｐｉｎｇｈｕ　Ｃｏｍｍｕｎｉｔｙ，　Ｐｉｎｇｈｕ　Ｓｔｒｅｅｔ，　Ｌｏｎｇｇａｎｇ　Ｄｉｓｔｒｉｃｔ　ＳＨＥＮ　ＺＨＥＮ，　Ｃｈｉｎａ,,,,,,2025-08-05,1,,,,,シンセンボドウンバイリイレクトゥロニックカンパニーリミテッド,0
2243,9010001257118,新規,0,2025-08-05,2025-08-05,Ｒｅｉ　Ｍｕｓｉｃ　Ｇｅｍ株式会社,,株式会社,東京都,文京区,音羽２丁目４番２号,,13,105,1120013,,,,,,,2025-08-05,1,,,,,レイミュージックジェム,0
2244,9010001257423,新規,0,2025-08-05,2025-08-05,株式会社ＡＣ‐９,,株式会社,東京都,千代田区,麹町３丁目５番地２,,13,101,1020083,,,,,,,2025-08-05,1,,,,,エーシーナイン,0
2245,9010003048226,新規,0,2025-08-05,2025-08-05,合同会社オルタナ２９,,合同会社,東京都,千代田区,霞が関３丁目２番５号,,13,101,1000013,,,,,,,2025-08-05,1,,,,,オルタナトゥエティナイン,0
2250,9010101016803,新規,0,2025-08-05,2025-08-05,株式会社ＰＩＡＺＺＡ,,株式会社,東京都,八王子市,下柚木２丁目１８番地１６,,13,201,1920372,,,,,,,2025-08-05,1,,,,,ピアッツァ,0
2253,9010401192229,新規,0,2025-08-05,2025-08-05,株式会社ＡＩＮＥＹ,,株式会社,東京都,港区,南青山２丁目２番１５号ウィン青山９４２,,13,103,1070062,,,,,,,2025-08-05,1,,,,,アイニー,0
2255,9010403035633,新規,0,2025-08-05,2025-08-05,ＵＭＩｔｏＳＯＲＡ合同会社,,合同会社,東京都,港区,芝浦１丁目１０番１－４０３号,,13,103,1050023,,,,,,,2025-08-05,1,,,,,ウミトソラ,0
2259,9010601067726,新規,0,2025-08-05,2025-08-05,株式会社ＴＹコマース,,株式会社,東京都,江東区,東砂３丁目３０番８号明友ビル５０１,,13,108,1360074,,,,,,,2025-08-05,1,,,,,ティワイコマース,0
2267,9010903010160,新規,0,2025-08-05,2025-08-05,合同会社金井商店,,合同会社,東京都,世田谷区,赤堤４丁目４０番７号,,13,112,1560044,,,,,,,2025-08-05,1,,,,,カナイショウテン,0
2278,9011003022113,新規,0,2025-08-05,2025-08-05,合同会社ｂｌｕｅ　ｓｃｅｎｅ,,合同会社,東京都,渋谷区,恵比寿西２丁目８番４号ＥＸ恵比寿西ビル５階,,13,113,1500021,,,,,,,2025-08-05,1,,,,,ブルーシーン,0
2284,9011105011518,新規,0,2025-08-05,2025-08-05,ＳＵＭＩＲＥ協同組合,,その他の設立登記法人,東京都,新宿区,西新宿２丁目１番１号新宿三井ビルディング３７階,,13,104,1600023,,,,,,,2025-08-05,1,,,,,スミレ,0
2285,9011401027300,新規,0,2025-08-05,2025-08-05,ＭＲＣ株式会社,,株式会社,東京都,板橋区,徳丸６丁目１１番８号,,13,119,1750083,,,,,,,2025-08-05,1,,,,,エムアールシー,0
2287,9011501032373,新規,0,2025-08-05,2025-08-05,Ｈｏｒｉｚｏｎ　ｈｙｇｉｅｎｅ株式会社,,株式会社,東京都,荒川区,南千住３丁目２７－２浅草ビル５０８,,13,118,1160003,,,,,,,2025-08-05,1,,,,,ホライズンハイジーン,0
2289,9011601028866,新規,0,2025-08-05,2025-08-05,株式会社ケイ・アイ・カンパニー,,株式会社,東京都,練馬区,南大泉４丁目４３番１２号,,13,120,1780064,,,,,,,2025-08-05,1,,,,,ケイアイカンパニー,0
2293,9012401043452,新規,0,2025-08-05,2025-08-05,株式会社ＲＥＡＬ,,株式会社,東京都,三鷹市,下連雀３丁目２３番１０号,,13,204,1810013,,,,,,,2025-08-05,1,,,,,リアル,0
2307,9020003029068,新規,0,2025-08-05,2025-08-05,合同会社ＩＭＰ,,合同会社,神奈川県,横浜市金沢区,西柴４丁目１３番２６号ラ・フィオーレコート１０１,,14,108,2360017,,,,,,,2025-08-05,1,,,,,アイエムピー,0
2313,9021003016386,新規,0,2025-08-05,2025-08-05,Ｃｏｎｎｏｖａ合同会社,,合同会社,神奈川県,藤沢市,弥勒寺１丁目６－６－４,,14,205,2510016,,,,,,,2025-08-05,1,,,,,コノヴァ,0
2318,9040001139916,新規,0,2025-08-05,2025-08-05,株式会社茉莉花,,株式会社,千葉県,千葉市中央区,中央２丁目６番３号ＦＣビル４階,,12,101,2600013,,,,,,,2025-08-05,1,,,,,マツリカ,0
2319,9040001139924,新規,0,2025-08-05,2025-08-05,エスアセット株式会社,,株式会社,千葉県,市原市,姉崎１６５５番地１,,12,219,2990111,,,,,,,2025-08-05,1,,,,,エスアセット,0
2320,9040003028167,新規,0,2025-08-05,2025-08-05,Ｂｌｉｖｏｒ合同会社,,合同会社,千葉県,富津市,大堀９７２－２０,,12,226,2930001,,,,,,,2025-08-05,1,,,,,バリバー,0
2321,9040003028175,新規,0,2025-08-05,2025-08-05,合同会社ＨＴＩ,,合同会社,千葉県,柏市,若柴２２７番地６・柏の葉キャンパス１４７街区・Ａ－１００９号,,12,217,2770871,,,,,,,2025-08-05,1,,,,,エイチティーアイ,0
2324,9050001057027,新規,0,2025-08-05,2025-08-05,株式会社ＯＨＯ,,株式会社,茨城県,つくば市,吾妻１丁目１３番地４サーパス吾妻学園都市９０２号,,08,220,3050031,,,,,,,2025-08-05,1,,,,,オーホー,0
2325,9050001057035,新規,0,2025-08-05,2025-08-05,も株式会社,,株式会社,茨城県,守谷市,立沢１０５７番地の２,,08,224,3020118,,,,,,,2025-08-05,1,,,,,モ,0
2329,9060001038447,新規,0,2025-08-05,2025-08-05,株式会社アウトオブバウンズ,,株式会社,栃木県,宇都宮市,伝馬町３－１９野口ビル,,09,201,3200035,,,,,,,2025-08-05,1,,,,,アウトオブバウンズ,0
2330,9060001038455,新規,0,2025-08-05,2025-08-05,株式会社ＧＭＷ,,株式会社,栃木県,小山市,城東１丁目１８番２９号,,09,208,3230807,,,,,,,2025-08-05,1,,,,,ジーエムダブリュー,0
2331,9060001038471,新規,0,2025-08-05,2025-08-05,株式会社螺良工業,,株式会社,栃木県,宇都宮市,細谷町５６９番地４０,,09,201,3200074,,,,,,,2025-08-05,1,,,,,ツブラコウギョウ,0
2335,9080001027068,新規,0,2025-08-05,2025-08-05,株式会社ＧＡＭＩ　ＨＯＵＳＥ,,株式会社,静岡県,榛原郡吉田町,住吉３５０４番地の１,,22,424,4210301,,,,,,,2025-08-05,1,,,,,ガミハウス,0
2336,9080005007710,新規,0,2025-08-05,2025-08-05,弁護士法人新静岡駅前法律事務所,,その他の設立登記法人,静岡県,静岡市葵区,御幸町３番地の２１ペガサート３階Ｎｏ．３０４,,22,101,4200857,,,,,,,2025-08-05,1,,,,,シンシズオカエキマエホウリツジムショ,0
2337,9080101025681,新規,0,2025-08-05,2025-08-05,株式会社マーケットスポット,,株式会社,静岡県,熱海市,熱海１７３９番地３４－１３０６,,22,205,4130033,,,,,,,2025-08-05,1,,,,,マーケットスポット,0
2343,9120001278391,新規,0,2025-08-05,2025-08-05,株式会社ＡＫＡ,,株式会社,大阪府,大阪市浪速区,日本橋東１丁目１番５号２階,,27,111,5560006,,,,,,,2025-08-05,1,,,,,アカ,0
2344,9120001278425,新規,0,2025-08-05,2025-08-05,シンミライ株式会社,,株式会社,大阪府,大阪市生野区,田島６丁目２番２８－２０２号,,27,116,5440011,,,,,,,2025-08-05,1,,,,,シンミライ,0
2349,9120003030206,新規,0,2025-08-05,2025-08-05,合同会社Ｇｅｍｉｎｏ,,合同会社,大阪府,大阪市北区,梅田１丁目２番２号大阪駅前第２ビル１２‐１２,,27,127,5300001,,,,,,,2025-08-05,1,,,,,ジェミノ,0
2350,9120003030222,新規,0,2025-08-05,2025-08-05,Ｌｉｇａｒｅ合同会社,,合同会社,大阪府,大阪市西成区,山王３丁目１３番１４号,,27,122,5570001,,,,,,,2025-08-05,1,,,,,リガーレ,0
2351,9120003030230,新規,0,2025-08-05,2025-08-05,Ｐａｒｒｏｔ合同会社,,合同会社,大阪府,大阪市北区,梅田１丁目２番２号大阪駅前第２ビル１２‐１２,,27,127,5300001,,,,,,,2025-08-05,1,,,,,パロット,0
2356,9120901051294,新規,0,2025-08-05,2025-08-05,株式会社Ｋアドバイザリー,,株式会社,大阪府,吹田市,千里山西１丁目４１－２３,,27,205,5650851,,,,,,,2025-08-05,1,,,,,ケイアドバイザリー,0
2363,9130003010669,新規,0,2025-08-05,2025-08-05,合同会社ＦＵＫＵＲＵ,,合同会社,京都府,京都市北区,等持院中町３４番地６,,26,101,6038347,,,,,,,2025-08-05,1,,,,,フクル,0
2367,9140001139575,新規,0,2025-08-05,2025-08-05,足立農産株式会社,,株式会社,兵庫県,多可郡多可町,加美区西脇３７２番地１,,28,365,6791212,,,,,,,2025-08-05,1,,,,,アダチノウサン,0
2372,9150001028307,新規,0,2025-08-05,2025-08-05,株式会社Ｃｌｏｖｅｒ,,株式会社,奈良県,生駒市,上町４２２１番地,,29,209,6300131,,,,,,,2025-08-05,1,,,,,クローバー,0
2373,9150001028315,新規,0,2025-08-05,2025-08-05,株式会社ｎａｇｏｍｉ,,株式会社,奈良県,奈良市,若葉台１丁目２番２号,,29,201,6310837,,,,,,,2025-08-05,1,,,,,ナゴミ,0
2381,9170005007164,新規,0,2025-08-05,2025-08-05,医療法人三明会,,その他の設立登記法人,和歌山県,岩出市,中迫５５３番地１,,30,209,6496215,,,,,,,2025-08-05,1,,,,,サンメイカイ,0
2382,9180001167969,新規,0,2025-08-05,2025-08-05,株式会社ネクストロジリンク,,株式会社,愛知県,名古屋市中区,丸の内２丁目１８番２２号三博ビル,,23,106,4600002,,,,,,,2025-08-05,1,,,,,ネクストロジリンク,0
2383,9180003028839,新規,0,2025-08-05,2025-08-05,合同会社ホワイトスター,,合同会社,愛知県,名古屋市瑞穂区,弥富通一丁目３７番地ル・ポン新瑞１Ｂ,,23,108,4670000,,,,,,,2025-08-05,1,,,,,ホワイトスター,0
2385,9180301040074,新規,0,2025-08-05,2025-08-05,株式会社さくらデータソリューションズ,,株式会社,愛知県,豊川市,本野ケ原１丁目１３２番地の５,,23,207,4420005,,,,,,,2025-08-05,1,,,,,サクラデータソリューションズ,0
2388,9190003005135,新規,0,2025-08-05,2025-08-05,ＰｉｘｅｌＣｒａｆｔ合同会社,,合同会社,三重県,志摩市,志摩町片田３５５０番地,,24,215,5170701,,,,,,,2025-08-05,1,,,,,ピクセルクラフト,0
2391,9220001026848,新規,0,2025-08-05,2025-08-05,ＡＸＯＲＡ株式会社,,株式会社,石川県,金沢市,彦三町１丁目２－１アソルティ金沢彦三１Ｆ,,17,201,9200901,,,,,,,2025-08-05,1,,,,,アクソラ,0
2393,9220003004091,新規,0,2025-08-05,2025-08-05,シンクアップ合同会社,,合同会社,石川県,小松市,中海町ロ１２１番地１,,17,203,9230071,,,,,,,2025-08-05,1,,,,,シンクアップ,0
2396,9240001065316,新規,0,2025-08-05,2025-08-05,株式会社雲海セレモニー,,株式会社,広島県,広島市安佐南区,長束１丁目２１番３２号,,34,105,7310135,,,,,,,2025-08-05,1,,,,,ウンカイセレモニー,0
2397,9240001065324,新規,0,2025-08-05,2025-08-05,ａｎｌｉｆｅ株式会社,,株式会社,広島県,福山市,沖野上町２丁目１番１４号,,34,207,7200825,,,,,,,2025-08-05,1,,,,,アンライフ,0
2398,9240003007340,新規,0,2025-08-05,2025-08-05,合同会社亀田電気管理事務所,,合同会社,広島県,呉市,安浦町中央北１丁目３番１０号,,34,202,7372515,,,,,,,2025-08-05,1,,,,,カメダデンキカンリジムショ,0
2408,9280001009483,新規,0,2025-08-05,2025-08-05,株式会社レオリベル,,株式会社,島根県,松江市,西津田３丁目１番５‐１２０１号,,32,201,6900017,,,,,,,2025-08-05,1,,,,,レオリベル,0
2412,9290001110868,新規,0,2025-08-05,2025-08-05,ＦＲＥＳＨ　ＧＯＴＯ株式会社,,株式会社,福岡県,久留米市,東和町３番地６,,40,203,8300035,,,,,,,2025-08-05,1,,,,,フレッシュゴトウ,0
2413,9290001110884,新規,0,2025-08-05,2025-08-05,株式会社杉本情報システム,,株式会社,福岡県,福岡市中央区,天神２丁目３番１０号天神パインクレスト７１９号,,40,133,8100001,,,,,,,2025-08-05,1,,,,,スギモトジョウホウシステム,0
2414,9290003017178,新規,0,2025-08-05,2025-08-05,合同会社ウシオテラス,,合同会社,福岡県,福岡市中央区,清川１丁目１－２４,,40,133,8100005,,,,,,,2025-08-05,1,,,,,ウシオテラス,0
2415,9290003017203,新規,0,2025-08-05,2025-08-05,レジリエンスリサーチ合同会社,,合同会社,福岡県,福岡市博多区,博多駅前１丁目２３番２号ＰａｒｋＦｒｏｎｔ５Ｆ－Ｂ,,40,132,8120011,,,,,,,2025-08-05,1,,,,,レジリエンスリサーチ,0
2416,9290005019800,新規,0,2025-08-05,2025-08-05,一般社団法人福岡スポーツアカデミー,,その他の設立登記法人,福岡県,筑後市,大字長浜２０９０番地７,,40,211,8330005,,,,,,,2025-08-05,1,,,,,フクオカスポーツアカデミー,0
2427,9360003015141,新規,0,2025-08-05,2025-08-05,合同会社沖縄ファームランド,,合同会社,沖縄県,中頭郡北谷町,字玉上２７０番１号,,47,326,9040106,,,,,,,2025-08-05,1,,,,,オキナワファームランド,0
2436,9430001095021,新規,0,2025-08-05,2025-08-05,第２期札幌山口斎場運営株式会社,,株式会社,北海道,札幌市手稲区,手稲山口３０８番地２,,01,109,0060860,,,,,,,2025-08-05,1,,,,,ダイニキサッポロヤマグチサイジョウウンエイ,0
2438,9430003017915,新規,0,2025-08-05,2025-08-05,合同会社Ｅ．Ｒ．Ｎ,,合同会社,北海道,札幌市豊平区,美園二条２丁目３番２３号ハイセレール美園１０２号,,01,105,0620002,,,,,,,2025-08-05,1,,,,,イーアールエヌ,0
2440,9460001006025,新規,0,2025-08-05,2025-08-05,株式会社井端板金,,株式会社,北海道,白糠郡白糠町,西一条北３丁目３番地３,,01,668,0880321,,,,,,,2025-08-05,1,,,,,イバタバンキン,0
2442,9470001020834,新規,0,2025-08-05,2025-08-05,株式会社カセイ,,株式会社,香川県,丸亀市,原田町２２５５番地１,,37,202,7630074,,,,,,,2025-08-05,1,,,,,カセイ,0
2445,9490005007000,新規,0,2025-08-05,2025-08-05,一般社団法人ＳＡＩ　ＵＮＩＴＹ　ＪＡＰＡＮ,,その他の設立登記法人,高知県,高知市,若松町１１番２４号,,39,201,7810812,,,,,,,2025-08-05,1,,,,,サイユニティジャパン,0
