sequenceNumber,corporateNumber,process,correct,updateDate,changeDate,name,nameImageId,kind,prefectureName,cityName,streetNumber,addressImageId,prefectureCode,cityCode,postCode,addressOutside,addressOutsideImageId,closeDate,closeCause,successorCorporateNumber,changeCause,assignmentDate,latest,enName,enPrefectureName,enCityName,enAddressOutside,furigana,hihyoji
12,1010001242135,新規,0,2024-02-07,2024-02-07,株式会社Ｋｚグループ,,株式会社,東京都,千代田区,飯田橋３丁目１１番１５号,,13,101,1020072,,,,,,,2024-02-07,1,,,,,ケイズグループ,0
13,1010001242151,新規,0,2024-02-07,2024-02-07,ＤＥ　ＢＬＡＮＫＫ株式会社,,株式会社,東京都,中央区,銀座６丁目１４－８銀座石井ビル４Ｆ,,13,102,1040061,,,,,,,2024-02-07,1,,,,,ドゥブラン,0
14,1010001242184,新規,0,2024-02-07,2024-02-07,株式会社ＣＬＩＰ第２３８号,,株式会社,東京都,千代田区,丸の内２丁目７番２号,,13,101,1000005,,,,,,,2024-02-07,1,,,,,シーエルアイピーダイニヒャクサンジュウハチゴウ,0
17,1010003042847,新規,0,2024-02-07,2024-02-07,西東京アセット合同会社,,合同会社,東京都,千代田区,内幸町２丁目１番６号,,13,101,1000011,,,,,,,2024-02-07,1,,,,,ニシトウキョウアセット,0
18,1010005037861,新規,0,2024-02-07,2024-02-07,一般社団法人ＮＰＡ,,その他の設立登記法人,東京都,千代田区,五番町６番地２ＯＡＧ税理士法人内,,13,101,1020076,,,,,,,2024-02-07,1,,,,,エヌピーエー,0
20,1010101015993,新規,0,2024-02-07,2024-02-07,株式会社ＡＩＭ　ＷＩＮ,,株式会社,東京都,八王子市,みつい台２丁目３４番１３号,,13,201,1920014,,,,,,,2024-02-07,1,,,,,エイムウィン,0
32,1010401180182,新規,0,2024-02-07,2024-02-07,Ｃｏｖｅ　Ｊａｐａｎ株式会社,,株式会社,東京都,港区,元麻布３丁目１番６号,,13,103,1060046,,,,,,,2024-02-07,1,,,,,,0
33,1010401180232,新規,0,2024-02-07,2024-02-07,株式会社ＢＲＩＣＫ,,株式会社,東京都,港区,西麻布２丁目２５番９号ディアエクラス１０１,,13,103,1060031,,,,,,,2024-02-07,1,,,,,ブリック,0
36,1010403031895,新規,0,2024-02-07,2024-02-07,合同会社ラビストラ,,合同会社,東京都,港区,南青山３丁目１番３６号青山丸竹ビル６Ｆ,,13,103,1070062,,,,,,,2024-02-07,1,,,,,ラビストラ,0
37,1010403031912,新規,0,2024-02-07,2024-02-07,ＳＵＫＩＹＡＢＡＳＨＩ合同会社,,合同会社,東京都,港区,芝２丁目１０番６号ＥＡＲＴＨＳＨＩＢＡＢＬＤ．３Ｆイントリム内,,13,103,1050014,,,,,,,2024-02-07,1,,,,,スキヤバシ,0
38,1010403031937,新規,0,2024-02-07,2024-02-07,ＹＦ　ＪＲＥ　Ａ合同会社,,合同会社,東京都,港区,赤坂２丁目１２番８号,,13,103,1070052,,,,,,,2024-02-07,1,,,,,ワイエフジェーアールイーエー,0
42,1010501051738,新規,0,2024-02-07,2024-02-07,ＳＯＺＡ株式会社,,株式会社,東京都,台東区,上野３丁目１１番５号,,13,106,1100005,,,,,,,2024-02-07,1,,,,,ソザ,0
43,1010501051754,新規,0,2024-02-07,2024-02-07,星野ＩＮＴＥＲＮＡＴＩＯＮＡＬ株式会社,,株式会社,東京都,台東区,松が谷２丁目３１－１０,,13,106,1110036,,,,,,,2024-02-07,1,,,,,ホシノインターナショナル,0
48,1010601064607,新規,0,2024-02-07,2024-02-07,グリーンワールド株式会社,,株式会社,東京都,江東区,住吉１丁目１５番１２号,,13,108,1350002,,,,,,,2024-02-07,1,,,,,グリーンワールド,0
57,1010901054654,新規,0,2024-02-07,2024-02-07,株式会社ＵＮＩＴ　ＯＮＥ,,株式会社,東京都,世田谷区,大蔵６丁目１１番２号,,13,112,1570074,,,,,,,2024-02-07,1,,,,,ユニットワン,0
58,1010901054662,新規,0,2024-02-07,2024-02-07,＿獅株式会社,00133661,株式会社,東京都,世田谷区,中町３丁目１５－１２,,13,112,1580091,,,,,,,2024-02-07,1,,,,,エイシ,0
59,1010901054670,新規,0,2024-02-07,2024-02-07,株式会社リス,,株式会社,東京都,世田谷区,中町５丁目２４番２６号,,13,112,1580091,,,,,,,2024-02-07,1,,,,,リス,0
60,1010901054679,新規,0,2024-02-07,2024-02-07,株式会社岸本工業,,株式会社,東京都,世田谷区,三軒茶屋１丁目１２番１１号１０２,,13,112,1540024,,,,,,,2024-02-07,1,,,,,キシモトコウギョウ,0
61,1010901054687,新規,0,2024-02-07,2024-02-07,株式会社ｌａｕｎｃｈＬａｂ,,株式会社,東京都,世田谷区,太子堂２丁目１７－５佐藤ビル３Ｆ,,13,112,1540004,,,,,,,2024-02-07,1,,,,,ローンチラボ,0
63,1011001159716,新規,0,2024-02-07,2024-02-07,株式会社ｅｓ,,株式会社,東京都,目黒区,上目黒１丁目２６番１号,,13,110,1530051,,,,,,,2024-02-07,1,,,,,エス,0
64,1011001159831,新規,0,2024-02-07,2024-02-07,卓＿株式会社,00133652,株式会社,東京都,渋谷区,宇田川町２－１渋谷ホームズ３１３－Ｂ号室,,13,113,1500042,,,,,,,2024-02-07,1,,,,,タクキン,0
65,1011001159872,新規,0,2024-02-07,2024-02-07,株式会社ＳＨＡＲＯＮ,,株式会社,東京都,渋谷区,神宮前３丁目２７番１４号Ｋｈａｒａｊｕｋｕ３,,13,113,1500001,,,,,,,2024-02-07,1,,,,,シャロン,0
66,1011001159880,新規,0,2024-02-07,2024-02-07,株式会社ＭＫ　ＣＯＳ,,株式会社,東京都,渋谷区,渋谷２丁目１９番１５号宮益坂ビルディング６０９,,13,113,1500002,,,,,,,2024-02-07,1,,,,,エムケイコス,0
67,1011001159914,新規,0,2024-02-07,2024-02-07,株式会社モリンガルウィン,,株式会社,東京都,渋谷区,円山町１５番３号グランエストビル３Ｆ,,13,113,1500044,,,,,,,2024-02-07,1,,,,,モリンガルウィン,0
69,1011003018449,新規,0,2024-02-07,2024-02-07,狭山柏原蓄電所合同会社,,合同会社,東京都,渋谷区,渋谷２丁目１５番１号渋谷クロスタワー１３階ＰＨＯＴＯＮＪＡＰＡＮ内,,13,113,1500002,,,,,,,2024-02-07,1,,,,,サヤマカシワバラチクデンショ,0
70,1011003018457,新規,0,2024-02-07,2024-02-07,合同会社アイトワール,,合同会社,東京都,渋谷区,笹塚２丁目４１番２号コーポ・マルジュ３０１,,13,113,1510073,,,,,,,2024-02-07,1,,,,,アイトワール,0
78,1011101106097,新規,0,2024-02-07,2024-02-07,株式会社ぼうや,,株式会社,東京都,新宿区,高田馬場４丁目３８番１５号,,13,104,1690075,,,,,,,2024-02-07,1,,,,,ボウヤ,0
79,1011101106106,新規,0,2024-02-07,2024-02-07,株式会社Ｈａｎｎａｈ＆,,株式会社,東京都,新宿区,新宿３丁目３６番１８号国土三協ビル５Ｆ,,13,104,1600022,,,,,,,2024-02-07,1,,,,,ハンナアンド,0
80,1011101106114,新規,0,2024-02-07,2024-02-07,株式会社トキノブレーン,,株式会社,東京都,新宿区,西新宿３丁目３番１３号西新宿水間ビル２Ｆ,,13,104,1600023,,,,,,,2024-02-07,1,,,,,トキノブレーン,0
81,1011101106122,新規,0,2024-02-07,2024-02-07,永富商務諮問株式会社,,株式会社,東京都,新宿区,高田馬場３丁目２１－９緒方荘１－１号室,,13,104,1690075,,,,,,,2024-02-07,1,,,,,エイフショウムシモン,0
82,1011103014067,新規,0,2024-02-07,2024-02-07,合同会社ｎｏｗ２４六本木,,合同会社,東京都,新宿区,西新宿８丁目１３番１０号,,13,104,1600023,,,,,,,2024-02-07,1,,,,,ナウトゥエンティーフォーロッポンギ,0
85,1011301029379,新規,0,2024-02-07,2024-02-07,株式会社シム,,株式会社,東京都,杉並区,下高井戸３丁目２７番９号,,13,115,1680073,,,,,,,2024-02-07,1,,,,,シム,0
86,1011301029387,新規,0,2024-02-07,2024-02-07,株式会社ベネトリー,,株式会社,東京都,杉並区,和泉２丁目２４番３号,,13,115,1680063,,,,,,,2024-02-07,1,,,,,ベネトリー,0
89,1011501030277,新規,0,2024-02-07,2024-02-07,株式会社ＨＥＡＲＴ,,株式会社,東京都,荒川区,町屋１丁目５番１４号,,13,118,1160001,,,,,,,2024-02-07,1,,,,,ハート,0
92,1011503005946,新規,0,2024-02-07,2024-02-07,合同会社ＳＴ,,合同会社,東京都,荒川区,東日暮里６丁目５３番４－２０１号,,13,118,1160014,,,,,,,2024-02-07,1,,,,,エスティー,0
95,1011603004237,新規,0,2024-02-07,2024-02-07,ＦＲＯＸ合同会社,,合同会社,東京都,練馬区,関町北２丁目３３番１２号関町フラッツ３０３,,13,120,1770051,,,,,,,2024-02-07,1,,,,,フロックス,0
97,1011703003741,新規,0,2024-02-07,2024-02-07,合同会社ＳＡＺＡ,,合同会社,東京都,江戸川区,西葛西３丁目１０番２９－１０４号,,13,123,1340088,,,,,,,2024-02-07,1,,,,,サザ,0
99,1011801043739,新規,0,2024-02-07,2024-02-07,株式会社小杉断熱,,株式会社,東京都,足立区,舎人６丁目２番６号ＮｏｒｔｈＦｉｓｈＧａｒｄｅｎＢ２０５,,13,121,1210831,,,,,,,2024-02-07,1,,,,,コスギダンネツ,0
100,1011803006074,新規,0,2024-02-07,2024-02-07,ＳＰメンテナンス合同会社,,合同会社,東京都,足立区,谷中１丁目２１番８－３０６号,,13,121,1200006,,,,,,,2024-02-07,1,,,,,エスピーメンテナンス,0
103,1012401041488,新規,0,2024-02-07,2024-02-07,株式会社Ｎｅｒｏ,,株式会社,東京都,武蔵野市,吉祥寺本町１丁目７番３号横田ビルＢ１,,13,203,1800004,,,,,,,2024-02-07,1,,,,,ネロ,0
108,1012803003301,新規,0,2024-02-07,2024-02-07,美行合同会社,,合同会社,東京都,立川市,富士見町１丁目３０－１５ニュースハイツ１０２室,,13,202,1900013,,,,,,,2024-02-07,1,,,,,ヨシユキ,0
116,1013303006991,新規,0,2024-02-07,2024-02-07,海創貿易合同会社,,合同会社,東京都,豊島区,千早４丁目２１番１１号,,13,116,1710044,,,,,,,2024-02-07,1,,,,,カイソウボウエキ,0
121,1020001155575,新規,0,2024-02-07,2024-02-07,株式会社ｍａｃｏ,,株式会社,神奈川県,横浜市青葉区,荏田西２丁目３７番地２７,,14,117,2250014,,,,,,,2024-02-07,1,,,,,マコ,0
123,1021001081415,新規,0,2024-02-07,2024-02-07,株式会社フォックスグローブ・コンサルティング,,株式会社,神奈川県,逗子市,小坪５丁目２３番４－４１０７号,,14,208,2490008,,,,,,,2024-02-07,1,,,,,フォックスグローブコンサルティング,0
127,1021005013018,新規,0,2024-02-07,2024-02-07,一般社団法人日本ハトメリングネクタイ協会,,その他の設立登記法人,神奈川県,秦野市,本町２丁目１番地２１号ヴィラ・リバレット３０２号,,14,211,2570035,,,,,,,2024-02-07,1,,,,,ニホンハトメリングネクタイキョウカイ,0
131,1030001158511,新規,0,2024-02-07,2024-02-07,株式会社セントラルホーム,,株式会社,埼玉県,川口市,鳩ヶ谷本町２丁目１０番７号,,11,203,3340002,,,,,,,2024-02-07,1,,,,,セントラルホーム,0
132,1030001158569,新規,0,2024-02-07,2024-02-07,ＣＷＣ株式会社,,株式会社,埼玉県,川口市,芝３丁目１番２４－３０１号,,11,203,3330866,,,,,,,2024-02-07,1,,,,,シーダブルシー,0
136,1030003023548,新規,0,2024-02-07,2024-02-07,合同会社リトラ,,合同会社,埼玉県,朝霞市,溝沼４丁目６番１７号アンシェルＦ,,11,227,3510023,,,,,,,2024-02-07,1,,,,,リトラ,0
137,1030003023572,新規,0,2024-02-07,2024-02-07,合同会社ＨＣ　ｈｏｍｅ,,合同会社,埼玉県,春日部市,増富４３７番地９,,11,214,3440041,,,,,,,2024-02-07,1,,,,,エイチシーホーム,0
138,1030003023580,新規,0,2024-02-07,2024-02-07,合同会社ＥＸ　ＣＯＡＴＩＮＧ,,合同会社,埼玉県,富士見市,関沢２丁目６－１５サンモール鶴瀬ＩＩ２０８,00133650,11,235,3540025,,,,,,,2024-02-07,1,,,,,エクスコーティング,0
139,1030003023589,新規,0,2024-02-07,2024-02-07,合同会社Ｎ‐Ｒｉｓｅ,,合同会社,埼玉県,志木市,柏町５丁目１１－２８－５０２,,11,228,3530007,,,,,,,2024-02-07,1,,,,,エヌライズ,0
149,1040001132028,新規,0,2024-02-07,2024-02-07,株式会社ＡＳＡＮＯ,,株式会社,千葉県,鎌ケ谷市,東道野辺４丁目９番７３号サジタリアＣ２０５,,12,224,2730115,,,,,,,2024-02-07,1,,,,,アサノ,0
150,1040001132060,新規,0,2024-02-07,2024-02-07,Ｎ＆Ａｓｓｏｃｉａｔｅｓ株式会社,,株式会社,千葉県,流山市,市野谷５２２番地,,12,220,2700137,,,,,,,2024-02-07,1,,,,,エヌアンドアソシエイツ,0
151,1040001132119,新規,0,2024-02-07,2024-02-07,株式会社ワビジュウ,,株式会社,千葉県,流山市,駒木台４７０番地の１２,,12,220,2700113,,,,,,,2024-02-07,1,,,,,ワビジュウ,0
154,1040003024272,新規,0,2024-02-07,2024-02-07,Ｎｏｒｔｈ　Ｓｔａｒ合同会社,,合同会社,千葉県,野田市,山崎２６３９番地の２２,,12,208,2780022,,,,,,,2024-02-07,1,,,,,ノーススター,0
157,1060003004891,新規,0,2024-02-07,2024-02-07,合同会社ぽかぽか,,合同会社,栃木県,那須塩原市,湯宮６３０番地,,09,213,3250117,,,,,,,2024-02-07,1,,,,,ポカポカ,0
160,1070001041358,新規,0,2024-02-07,2024-02-07,Ｓ＆Ｈ株式会社,,株式会社,群馬県,太田市,鳥山下町４８５番地７,,10,205,3730063,,,,,,,2024-02-07,1,,,,,エスアンドエイチ,0
165,1090001018528,新規,0,2024-02-07,2024-02-07,フジオートリサイクル株式会社,,株式会社,山梨県,甲府市,白井町５３０番地１,,19,201,4001502,,,,,,,2024-02-07,1,,,,,フジオートリサイクル,0
166,1090003002488,新規,0,2024-02-07,2024-02-07,ＳＮフロンティア合同会社,,合同会社,山梨県,甲府市,下石田２丁目１５番７号ラ・ナチュール３０３,,19,201,4000046,,,,,,,2024-02-07,1,,,,,エスエヌフロンティア,0
182,1120001262048,新規,0,2024-02-07,2024-02-07,株式会社ＣｌａｓｓＯｎｅ,,株式会社,大阪府,大阪市阿倍野区,天王寺町北３丁目６番１－２０２号,,27,119,5450001,,,,,,,2024-02-07,1,,,,,クラスワン,0
183,1120001262056,新規,0,2024-02-07,2024-02-07,ＥｖｏｌｕｔｉｏｎＳ株式会社,,株式会社,大阪府,大阪市北区,梅田１丁目２－２－１２１２,,27,127,5300001,,,,,,,2024-02-07,1,,,,,エボリューションズ,0
184,1120101069005,新規,0,2024-02-07,2024-02-07,株式会社信和都市開発,,株式会社,大阪府,堺市堺区,寺地町西２丁２番２２号,,27,141,5900961,,,,,,,2024-02-07,1,,,,,シンワトシカイハツ,0
185,1120101069013,新規,0,2024-02-07,2024-02-07,株式会社ユニカル,,株式会社,大阪府,泉大津市,なぎさ町２番７－２０３号,,27,206,5950055,,,,,,,2024-02-07,1,,,,,ユニカル,0
186,1120101069021,新規,0,2024-02-07,2024-02-07,株式会社Ｔｒｙ‐Ｂｅａｔ,,株式会社,大阪府,和泉市,のぞみ野１丁目１３－２６,,27,219,5941105,,,,,,,2024-02-07,1,,,,,トライビート,0
190,1120901048711,新規,0,2024-02-07,2024-02-07,株式会社中下浦工務店,,株式会社,大阪府,池田市,神田２丁目７番１７号,,27,204,5630043,,,,,,,2024-02-07,1,,,,,ナカシモウラコウムテン,0
196,1130001076273,新規,0,2024-02-07,2024-02-07,株式会社エス・キューサービス,,株式会社,京都府,京都市南区,唐橋琵琶町２４－４ＳＱビル４Ｆ,,26,107,6018457,,,,,,,2024-02-07,1,,,,,エスキューサービス,0
197,1130001076315,新規,0,2024-02-07,2024-02-07,藤広株式会社,,株式会社,京都府,城陽市,平川古宮２１番地の６,,26,207,6100101,,,,,,,2024-02-07,1,,,,,フジヒロ,0
200,1130005017001,新規,0,2024-02-07,2024-02-07,一般社団法人日本ニアピンゴルフ協会,,その他の設立登記法人,京都府,京都市中京区,西ノ京原町２１番地,,26,104,6048431,,,,,,,2024-02-07,1,,,,,ニホンニアピンゴルフキョウカイ,0
209,1140001133214,新規,0,2024-02-07,2024-02-07,株式会社ｆｕｋｕｊｙｕ,,株式会社,兵庫県,川西市,丸山台２丁目２－６２,,28,217,6660152,,,,,,,2024-02-07,1,,,,,フクジュ,0
210,1140001133271,新規,0,2024-02-07,2024-02-07,平田重量株式会社,,株式会社,兵庫県,尼崎市,西難波町２丁目２９番１３号,,28,202,6600893,,,,,,,2024-02-07,1,,,,,ヒラタジュウリョウ,0
211,1140003020146,新規,0,2024-02-07,2024-02-07,ＬＯＴ合同会社,,合同会社,兵庫県,神戸市兵庫区,七宮町２丁目２番２２－１００１号,,28,105,6520831,,,,,,,2024-02-07,1,,,,,ロット,0
213,1160001025673,新規,0,2024-02-07,2024-02-07,株式会社Ｆ‐ｓｔｙｌｅ,,株式会社,滋賀県,近江八幡市,友定町３９３番地１,,25,204,5230011,,,,,,,2024-02-07,1,,,,,エフスタイル,0
214,1160001025681,新規,0,2024-02-07,2024-02-07,株式会社カジタコーポレーション,,株式会社,滋賀県,栗東市,六地蔵４６０－４６,,25,208,5203017,,,,,,,2024-02-07,1,,,,,カジタコーポレーション,0
225,1180001160031,新規,0,2024-02-07,2024-02-07,株式会社Ｓｔｏｒｉｅｓ,,株式会社,愛知県,名古屋市中村区,名駅１丁目１番１号ＪＰタワー名古屋２１階,,23,105,4500002,,,,,,,2024-02-07,1,,,,,ストーリーズ,0
226,1180001160056,新規,0,2024-02-07,2024-02-07,株式会社タリーテーブル,,株式会社,愛知県,名古屋市昭和区,戸田町４丁目１３番地,,23,107,4660846,,,,,,,2024-02-07,1,,,,,タリーテーブル,0
227,1180001160089,新規,0,2024-02-07,2024-02-07,株式会社Ａｕｇｕｓｔ,,株式会社,愛知県,名古屋市中村区,名駅３丁目４－１０アルティメイト名駅１ｓｔ２階,,23,105,4500002,,,,,,,2024-02-07,1,,,,,オーガスト,0
228,1180001160106,新規,0,2024-02-07,2024-02-07,ＴＯＵＨＯＵ株式会社,,株式会社,愛知県,名古屋市北区,中丸町２丁目６６番地アーバニア志賀公園２号棟２号室,,23,103,4620056,,,,,,,2024-02-07,1,,,,,トウホウ,0
229,1180003026313,新規,0,2024-02-07,2024-02-07,合同会社心,,合同会社,愛知県,名古屋市名東区,八前１丁目２１０－４,,23,115,4650018,,,,,,,2024-02-07,1,,,,,シン,0
236,1180303005999,新規,0,2024-02-07,2024-02-07,２Ｂ合同会社,,合同会社,愛知県,豊橋市,東田中郷町１１３番地１コーポ丸地２０５号,,23,201,4400063,,,,,,,2024-02-07,1,,,,,トゥービー,0
240,1190001031090,新規,0,2024-02-07,2024-02-07,株式会社要,,株式会社,三重県,津市,羽所町６１８番地,,24,201,5140009,,,,,,,2024-02-07,1,,,,,カナメ,0
243,1200005013570,新規,0,2024-02-07,2024-02-07,一般社団法人Ｓｕｂａｋｏ,,その他の設立登記法人,岐阜県,山県市,平井７９１番地８,,21,215,5012131,,,,,,,2024-02-07,1,,,,,スバコ,0
259,1260003004558,新規,0,2024-02-07,2024-02-07,弘盛原合同会社,,合同会社,岡山県,高梁市,川上町仁賀５５８番地の２,,33,209,7160207,,,,,,,2024-02-07,1,,,,,コウセイゲン,0
260,1290001104621,新規,0,2024-02-07,2024-02-07,株式会社ＴＯＴＯＮＯＵ,,株式会社,福岡県,福岡市博多区,千代２丁目２２番８号一豊ビル２０２,,40,132,8120044,,,,,,,2024-02-07,1,,,,,トトノウ,0
261,1290001104638,新規,0,2024-02-07,2024-02-07,株式会社アプロ,,株式会社,福岡県,久留米市,合川町４２２番地１８,,40,203,8390861,,,,,,,2024-02-07,1,,,,,アプロ,0
265,1290003014950,新規,0,2024-02-07,2024-02-07,合同会社ホヌ,,合同会社,福岡県,糟屋郡新宮町,大字上府７１８番地,,40,345,8110117,,,,,,,2024-02-07,1,,,,,ホヌ,0
293,1370003006477,新規,0,2024-02-07,2024-02-07,Ｓｃｈｗａｎ　Ｂｒｏｓ．ＬＬＣ合同会社,,合同会社,宮城県,仙台市泉区,七北田字大沢柏５６番地の３,,04,105,9813131,,,,,,,2024-02-07,1,,,,,シュヴァンブロスエルエルシー,0
298,1400001016540,新規,0,2024-02-07,2024-02-07,株式会社ＩＧＬＯＢＡＬ,,株式会社,岩手県,西磐井郡平泉町,平泉字鈴沢６１番地,,03,402,0294102,,,,,,,2024-02-07,1,,,,,アイグローバル,0
299,1400005008393,新規,0,2024-02-07,2024-02-07,医療法人サンフラワー,,その他の設立登記法人,岩手県,奥州市,水沢字川口町２７番地３,,03,215,0230034,,,,,,,2024-02-07,1,,,,,サンフラワー,0
308,1430003015934,新規,0,2024-02-07,2024-02-07,合同会社ＭＮＭ,,合同会社,北海道,札幌市中央区,南八条西７丁目１７８２番地２３ケーズコート３０３号室,,01,101,0640808,,,,,,,2024-02-07,1,,,,,エムエヌエム,0
314,1700150123850,新規,0,2024-02-07,2024-02-07,Ｗｅｓｔｅｒｎ　Ｐｅａｋ　Ｃｏｒｐｏｒａｔｉｏｎ,,外国会社等,,,,,,,,英領ヴァージン諸島トルトラロードタウンサーフランシスドレイクハイウェイ３０７６　エレンスケルトンビルディング４階,,,,,,2024-02-07,1,,,,,ウエスタンピークコーポレーシヨン,0
331,2010001241994,新規,0,2024-02-07,2024-02-07,株式会社ディープラネットパーキング,,株式会社,東京都,中央区,銀座１丁目１５番４号銀座１丁目ビル７Ｆ,,13,102,1040061,,,,,,,2024-02-07,1,,,,,ディープラネットパーキング,0
332,2010001242126,新規,0,2024-02-07,2024-02-07,株式会社ＥＰＩＣ,,株式会社,東京都,中央区,勝どき１丁目３－１－１７０５,,13,102,1040054,,,,,,,2024-02-07,1,,,,,エピック,0
333,2010001242150,新規,0,2024-02-07,2024-02-07,ｚｅｉｋａｎ未来ワールドコンサルティング株式会社,,株式会社,東京都,中央区,銀座６丁目６番地１銀座風月堂ビル５Ｆ,,13,102,1040061,,,,,,,2024-02-07,1,,,,,ゼイカンミライワールドコンサルティング,0
334,2010001242183,新規,0,2024-02-07,2024-02-07,株式会社ＣＬＩＰ第２３７号,,株式会社,東京都,千代田区,丸の内２丁目７番２号,,13,101,1000005,,,,,,,2024-02-07,1,,,,,シーエルアイピーダイニヒャクサンジュウナナゴウ,0
335,2010001242191,新規,0,2024-02-07,2024-02-07,株式会社ＣＬＩＰ第２４５号,,株式会社,東京都,千代田区,丸の内２丁目７番２号,,13,101,1000005,,,,,,,2024-02-07,1,,,,,シーエルアイピーダイニヒャクヨンジュウゴゴウ,0
341,2010003042879,新規,0,2024-02-07,2024-02-07,ソーラーシモン合同会社,,合同会社,東京都,中央区,八丁堀４丁目２番１０号ＡＯＪ税理士法人内,,13,102,1040032,,,,,,,2024-02-07,1,,,,,ソーラーシモン,0
342,2010003042887,新規,0,2024-02-07,2024-02-07,ＢＨＡＮＵＢＨＡＫＴＡ合同会社,,合同会社,東京都,文京区,本駒込５丁目４８番３号,,13,105,1130021,,,,,,,2024-02-07,1,,,,,バヌバクタ,0
345,2010005037852,新規,0,2024-02-07,2024-02-07,Ａ４ＪＰ　Ｈｉｄａｋａ　Ｌｏｇｉｓｔｉｃｓ一般社団法人,,その他の設立登記法人,東京都,中央区,日本橋３丁目９番１号日本橋三丁目スクエア１１階,,13,102,1030027,,,,,,,2024-02-07,1,,,,,エーフォージェイピーヒダカロジスティックス,0
352,2010401180264,新規,0,2024-02-07,2024-02-07,株式会社ＭＵＫＵ,,株式会社,東京都,港区,南青山３丁目１番３６号青山丸竹ビル６Ｆ,,13,103,1070062,,,,,,,2024-02-07,1,,,,,ムク,0
353,2010403031936,新規,0,2024-02-07,2024-02-07,ジャパンロジスティクス３合同会社,,合同会社,東京都,港区,六本木１丁目９番１０号アークヒルズ仙石山森タワー４０階,,13,103,1060032,,,,,,,2024-02-07,1,,,,,ジャパンロジスティクススリー,0
354,2010501051729,新規,0,2024-02-07,2024-02-07,株式会社ｍｆ’ｌｏｇｉ,,株式会社,東京都,台東区,上野１丁目１７番６号広小路ビル５Ｆ,,13,106,1100005,,,,,,,2024-02-07,1,,,,,エムエフロジ,0
365,2010901054678,新規,0,2024-02-07,2024-02-07,株式会社Ｓコンサル・パートナー,,株式会社,東京都,世田谷区,祖師谷１丁目３１番９号,,13,112,1570072,,,,,,,2024-02-07,1,,,,,エスコンサルパートナー,0
373,2011001159789,新規,0,2024-02-07,2024-02-07,ＯＮＮ株式会社,,株式会社,東京都,渋谷区,渋谷１丁目１７番６－１５０１号,,13,113,1500002,,,,,,,2024-02-07,1,,,,,オン,0
374,2011001159855,新規,0,2024-02-07,2024-02-07,株式会社ＴＡＳｋｌｅｉｎ,,株式会社,東京都,渋谷区,渋谷３丁目１３番５号ＢＰＲレジデンス１２０１,,13,113,1500002,,,,,,,2024-02-07,1,,,,,タスクレイン,0
375,2011001159871,新規,0,2024-02-07,2024-02-07,株式会社ｏｎｏｏｎｏ,,株式会社,東京都,渋谷区,道玄坂１丁目１０番８号渋谷道玄坂東急ビル２Ｆ－Ｃ,,13,113,1500043,,,,,,,2024-02-07,1,,,,,オノオノ,0
376,2011001159896,新規,0,2024-02-07,2024-02-07,株式会社ＢＥＩＮＧ,,株式会社,東京都,目黒区,自由が丘１丁目２６番５号,,13,110,1520035,,,,,,,2024-02-07,1,,,,,,0
377,2011003018456,新規,0,2024-02-07,2024-02-07,合同会社ＹＵＩ,,合同会社,東京都,目黒区,鷹番２丁目２０－１９ＲＣ学芸大学地下１階,,13,110,1520004,,,,,,,2024-02-07,1,,,,,ユイ,0
386,2011101106071,新規,0,2024-02-07,2024-02-07,株式会社東京ドライビングサポート,,株式会社,東京都,新宿区,西新宿３丁目３番１３号西新宿水間ビル２Ｆ,,13,104,1600023,,,,,,,2024-02-07,1,,,,,トウキョウドライビングサポート,0
389,2011103014066,新規,0,2024-02-07,2024-02-07,合同会社ｎｏｗ２４新宿,,合同会社,東京都,新宿区,若松町３６番１３号２０２号室,,13,104,1620056,,,,,,,2024-02-07,1,,,,,ナウトゥエンティーフォーシンジュク,0
393,2011403004270,新規,0,2024-02-07,2024-02-07,合同会社ＫＡＺ,,合同会社,東京都,板橋区,坂下１丁目３８番２５号,,13,119,1740043,,,,,,,2024-02-07,1,,,,,カズ,0
395,2011501030301,新規,0,2024-02-07,2024-02-07,株式会社ＫＩＭＯＫＹＵＮ,,株式会社,東京都,荒川区,荒川６丁目４７番９－１０４号,,13,118,1160002,,,,,,,2024-02-07,1,,,,,キモキョン,0
396,2011701026990,新規,0,2024-02-07,2024-02-07,株式会社奈児,,株式会社,東京都,江戸川区,上一色２丁目９番１１号,,13,123,1330041,,,,,,,2024-02-07,1,,,,,ナコ,0
400,2011803006081,新規,0,2024-02-07,2024-02-07,Ｓｉｎｇｕｌａｒｉｔｙ　Ｐａｒｔｎｅｒｓ合同会社,,合同会社,東京都,葛飾区,亀有１丁目１０番１１―２０１号,,13,122,1250061,,,,,,,2024-02-07,1,,,,,シンギュラリティパートナーズ,0
401,2012401041487,新規,0,2024-02-07,2024-02-07,株式会社ｌｕａ,,株式会社,東京都,小金井市,中町２丁目８番１１号,,13,210,1840012,,,,,,,2024-02-07,1,,,,,ルア,0
416,2020003025486,新規,0,2024-02-07,2024-02-07,Ｆｏｒｗａｒｄ合同会社,,合同会社,神奈川県,横浜市戸塚区,前田町２３８番地１サンリヤン東戸塚１０２号,,14,110,2440804,,,,,,,2024-02-07,1,,,,,フォワード,0
417,2020003025511,新規,0,2024-02-07,2024-02-07,ＡＤＩＴＨＹＡ　ＭＬ　ＩＮＴＥＲＮＡＴＩＯＮＡＬ合同会社,,合同会社,神奈川県,川崎市麻生区,王禅寺西６丁目２１２８番１５－１０１号,,14,137,2150017,,,,,,,2024-02-07,1,,,,,アディトヤエムエルインターナショナル,0
418,2021001081397,新規,0,2024-02-07,2024-02-07,株式会社Ｔｈｅ　Ｐｒｏｐｅｒｔｙ　Ｊ１００,,株式会社,神奈川県,鎌倉市,鎌倉山１丁目１１番７号,,14,204,2480031,,,,,,,2024-02-07,1,,,,,ザプロパティジェイワンハンドレッド,0
419,2021001081414,新規,0,2024-02-07,2024-02-07,株式会社ｆａｓｔｃｏｓｍｅ,,株式会社,神奈川県,藤沢市,辻堂２丁目１２－１７－１０５,,14,205,2510047,,,,,,,2024-02-07,1,,,,,ファストコスメ,0
420,2021001081422,新規,0,2024-02-07,2024-02-07,ＲＯＹＡＬ　ＣＯＲＰＯＲＡＴＩＯＮ株式会社,,株式会社,神奈川県,相模原市中央区,田名９３０６番地２,,14,152,2520244,,,,,,,2024-02-07,1,,,,,ロイヤルコーポレイション,0
422,2021005013017,新規,0,2024-02-07,2024-02-07,一般社団法人三淵邸・甘柑荘保存会,,その他の設立登記法人,神奈川県,小田原市,板橋８２２,,14,206,2500034,,,,,,,2024-02-07,1,,,,,ミブチテイカンカンソウホゾンカイ,0
430,2030001158543,新規,0,2024-02-07,2024-02-07,株式会社Ｍ,,株式会社,埼玉県,三郷市,彦野１丁目９０番地２,,11,237,3410052,,,,,,,2024-02-07,1,,,,,エム,0
431,2030001158568,新規,0,2024-02-07,2024-02-07,開進興業株式会社,,株式会社,埼玉県,朝霞市,膝折町４丁目１１番２６号,,11,227,3510014,,,,,,,2024-02-07,1,,,,,カイシンコウギョウ,0
432,2030001158576,新規,0,2024-02-07,2024-02-07,株式会社Ｄｅａｒ　Ｙｏｕ,,株式会社,埼玉県,川口市,大字安行吉岡１３８３番地の１８,,11,203,3340072,,,,,,,2024-02-07,1,,,,,ディアユー,0
435,2030003023539,新規,0,2024-02-07,2024-02-07,合同会社はなゆき,,合同会社,埼玉県,比企郡嵐山町,むさし台１丁目２２－１７,,11,342,3550216,,,,,,,2024-02-07,1,,,,,ハナユキ,0
436,2030003023571,新規,0,2024-02-07,2024-02-07,ＴＨＡＩ　ＦＥＳＴＩＶＡＬ　ＪＡＰＡＮ合同会社,,合同会社,埼玉県,川口市,西川口６丁目８－４飯島第三コーポ１階,,11,203,3320021,,,,,,,2024-02-07,1,,,,,タイフェスティバルジャパン,0
441,2040001132027,新規,0,2024-02-07,2024-02-07,ガイア・インターナショナル・ジャパン株式会社,,株式会社,千葉県,富里市,日吉倉２８番地７,,12,233,2860202,,,,,,,2024-02-07,1,,,,,ガイアインターナショナルジャパン,0
442,2040001132068,新規,0,2024-02-07,2024-02-07,株式会社スリーエスファーマシー,,株式会社,千葉県,千葉市美浜区,中瀬２丁目６番地１ワールドビジネスガーデンマリブウエスト２４階,,12,106,2610023,,,,,,,2024-02-07,1,,,,,スリーエスファーマシー,0
443,2040001132126,新規,0,2024-02-07,2024-02-07,株式会社ＦＲＥＥＤＯＭ,,株式会社,千葉県,市川市,大和田３丁目２０－４,,12,203,2720025,,,,,,,2024-02-07,1,,,,,フリーダム,0
447,2040003024271,新規,0,2024-02-07,2024-02-07,Ｕｌｕ　Ｈｕａｌｉ．合同会社,,合同会社,千葉県,野田市,尾崎台３４番地の１９,,12,208,2700238,,,,,,,2024-02-07,1,,,,,ウルフワリ,0
448,2040005022281,新規,0,2024-02-07,2024-02-07,一般社団法人ＫＵＣ,,その他の設立登記法人,千葉県,君津市,杢師１丁目１４番１８号,,12,225,2991163,,,,,,,2024-02-07,1,,,,,ケーユーシー,0
464,2080403004943,新規,0,2024-02-07,2024-02-07,ＮＶＭジャパン合同会社,,合同会社,静岡県,磐田市,岩井１９０７番地１９５９マンションカトレアＩ－３０１号,00133645,22,211,4380016,,,,,,,2024-02-07,1,,,,,エヌヴィエムジャパン,0
476,2100003007385,新規,0,2024-02-07,2024-02-07,合同会社菅平高原薬用植物栽培局,,合同会社,長野県,上田市,菅平高原字菅平１２７８番地１３１１,,20,203,3862204,,,,,,,2024-02-07,1,,,,,スガダイラコウゲンヤクヨウショクブツサイバイキョク,0
479,2110005017051,新規,0,2024-02-07,2024-02-07,一般社団法人Ｊ‐ＳＭＩＬＥ　ＢＥＡＵＴＹ,,その他の設立登記法人,新潟県,長岡市,千秋１丁目１７０７番地８,,15,202,9402108,,,,,,,2024-02-07,1,,,,,ジェイスマイルビューティー,0
481,2120001093319,新規,0,2024-02-07,2024-02-07,日本電気ホームエレクトロニクス株式会社,,株式会社,大阪府,大阪市中央区,城見１丁目４番２４号,,27,128,5400001,,,,,,,2024-02-07,1,,,,,ニホンデンキホームエレクトロニクス,0
489,2120001261800,新規,0,2024-02-07,2024-02-07,オストレム日本株式会社,,株式会社,大阪府,大阪市北区,東天満１丁目１０－１４ＭＦ南森町２ビル５Ｆ,,27,127,5300044,,,,,,,2024-02-07,1,,,,,オストレムニホン,0
490,2120001261825,新規,0,2024-02-07,2024-02-07,株式会社Ｈｉｍｅ　ＣＨＡＲＭＡＮＴ,,株式会社,大阪府,大阪市東淀川区,豊里６丁目２１番２１号,,27,114,5330013,,,,,,,2024-02-07,1,,,,,ヒメシャルマン,0
491,2120001262039,新規,0,2024-02-07,2024-02-07,株式会社成に佳工房,,株式会社,大阪府,大阪市生野区,巽南２丁目１１番１５号,,27,116,5440015,,,,,,,2024-02-07,1,,,,,ナニカコウボウ,0
492,2120001262047,新規,0,2024-02-07,2024-02-07,株式会社ＴＤＳ,,株式会社,大阪府,大阪市北区,梅田１丁目２番２号大阪駅前第２ビル１２－１２,,27,127,5300001,,,,,,,2024-02-07,1,,,,,ティーディーエス,0
493,2120001262146,新規,0,2024-02-07,2024-02-07,株式会社ＬＤプランニング,,株式会社,大阪府,大阪市中央区,松屋町住吉３番１６号,,27,128,5400017,,,,,,,2024-02-07,1,,,,,エルディープランニング,0
494,2120003025872,新規,0,2024-02-07,2024-02-07,予安合同会社,,合同会社,大阪府,大阪市東成区,東中本３丁目２０番２２号関西マンション１０６号室,,27,115,5370021,,,,,,,2024-02-07,1,,,,,ヨアン,0
511,2130001076297,新規,0,2024-02-07,2024-02-07,株式会社平川マネジメント,,株式会社,京都府,京都市南区,東九条西山町１９番地１０５号,,26,107,6018046,,,,,,,2024-02-07,1,,,,,ヒラカワマネジメント,0
512,2130001076322,新規,0,2024-02-07,2024-02-07,ＵＳＸ株式会社,,株式会社,京都府,京都市下京区,大黒町２２７番地第二キョートビル４０２,,26,106,6008043,,,,,,,2024-02-07,1,,,,,ユーエスエックス,0
514,2130003009271,新規,0,2024-02-07,2024-02-07,合同会社ＡＬＳケア京都上賀茂,,合同会社,京都府,京都市北区,上賀茂桜井町２番地ＷＡＶＥＧＡＲＤＥＮＫｉｔａｙａｍａ１０２,,26,101,6038054,,,,,,,2024-02-07,1,,,,,エーエルエスケアキョウトカミガモ,0
522,2140001133254,新規,0,2024-02-07,2024-02-07,株式会社ＶＥＲＳＥ　ＤＥＳＩＧＮ,,株式会社,兵庫県,姫路市,城東町野田二丁目２番地,,28,201,6700844,,,,,,,2024-02-07,1,,,,,ヴァースデザイン,0
523,2140001133262,新規,0,2024-02-07,2024-02-07,株式会社Ｋｉｔａｋｙｕ,,株式会社,兵庫県,加古郡稲美町,下草谷３７８番地の１２０,,28,381,6751101,,,,,,,2024-02-07,1,,,,,キタキュー,0
524,2140001133270,新規,0,2024-02-07,2024-02-07,株式会社ＭＤ＆Ｍ　Ｇｒｏｕｐ,,株式会社,兵庫県,姫路市,庄田９４－５,,28,201,6700951,,,,,,,2024-02-07,1,,,,,エムディーアンドエムグループ,0
527,2140003020145,新規,0,2024-02-07,2024-02-07,合同会社ＯＨＡＲＡ,,合同会社,兵庫県,神戸市長田区,細田町２丁目２番７号,,28,106,6530835,,,,,,,2024-02-07,1,,,,,オオハラ,0
530,2150001027050,新規,0,2024-02-07,2024-02-07,元和織繍株式会社,,株式会社,奈良県,奈良市,肘塚町１６番５号,,29,201,6308142,,,,,,,2024-02-07,1,,,,,ゲンワショクシュウ,0
531,2160001025680,新規,0,2024-02-07,2024-02-07,株式会社ＲＩＰ,,株式会社,滋賀県,高島市,マキノ町大沼８８９番地,,25,212,5201824,,,,,,,2024-02-07,1,,,,,リップ,0
543,2180001160071,新規,0,2024-02-07,2024-02-07,株式会社ｅａｒｔｈ　ｔｒｅｅ,,株式会社,愛知県,一宮市,定水寺字神明社裏５番地１,,23,203,4910004,,,,,,,2024-02-07,1,,,,,アースツリー,0
544,2180001160096,新規,0,2024-02-07,2024-02-07,株式会社はなまるトータルサービス,,株式会社,愛知県,名古屋市北区,清水４丁目１５番１号,,23,103,4620844,,,,,,,2024-02-07,1,,,,,ハナマルトータルサービス,0
549,2180005020511,新規,0,2024-02-07,2024-02-07,社会保険労務士法人南愛知,,その他の設立登記法人,愛知県,知多市,新舞子字明知山１０２番地の８新舞子ビル２０１,,23,224,4780036,,,,,,,2024-02-07,1,,,,,ミナミアイチ,0
551,2180303005998,新規,0,2024-02-07,2024-02-07,合同会社さくら,,合同会社,愛知県,安城市,安城町照路２４番地,,23,212,4460026,,,,,,,2024-02-07,1,,,,,サクラ,0
556,2200001042135,新規,0,2024-02-07,2024-02-07,三上株式会社,,株式会社,岐阜県,各務原市,鵜沼宝積寺町３丁目６２番１,,21,213,5090123,,,,,,,2024-02-07,1,,,,,ミカミ,0
557,2200003006229,新規,0,2024-02-07,2024-02-07,合同会社スリーピークス,,合同会社,岐阜県,岐阜市,敷島町５丁目１番地,,21,201,5008369,,,,,,,2024-02-07,1,,,,,スリーピークス,0
561,2230003002150,新規,0,2024-02-07,2024-02-07,合同会社ＳＴクリーン,,合同会社,富山県,高岡市,佐野１１６９,,16,202,9330826,,,,,,,2024-02-07,1,,,,,エスティクリーン,0
563,2240001062765,新規,0,2024-02-07,2024-02-07,ＡＲＡＴＡ株式会社,,株式会社,広島県,広島市東区,光町１丁目１１番５号,,34,102,7320052,,,,,,,2024-02-07,1,,,,,アラタ,0
573,2290001104620,新規,0,2024-02-07,2024-02-07,株式会社まるたつ,,株式会社,福岡県,糟屋郡新宮町,新宮東２丁目３７２番地４,,40,345,8110124,,,,,,,2024-02-07,1,,,,,マルタツ,0
574,2290003014900,新規,0,2024-02-07,2024-02-07,ＦＡＳ合同会社,,合同会社,福岡県,福岡市南区,大橋３丁目１６番５－３０３号,,40,134,8150033,,,,,,,2024-02-07,1,,,,,ファス,0
575,2290003014933,新規,0,2024-02-07,2024-02-07,合同会社Ｒｉｎ,,合同会社,福岡県,福岡市東区,馬出２丁目５番９号,,40,131,8120054,,,,,,,2024-02-07,1,,,,,リン,0
579,2290801030289,新規,0,2024-02-07,2024-02-07,偉山株式会社,,株式会社,福岡県,北九州市八幡西区,藤原２丁目２番１２号,,40,109,8070873,,,,,,,2024-02-07,1,,,,,ウィヤマ,0
580,2290801030297,新規,0,2024-02-07,2024-02-07,株式会社ＭＫ６,,株式会社,福岡県,北九州市八幡西区,馬場山東１丁目１９番２１号,,40,109,8071131,,,,,,,2024-02-07,1,,,,,エムケーシックス,0
596,2340001026272,新規,0,2024-02-07,2024-02-07,株式会社ココシアホーム,,株式会社,鹿児島県,鹿児島市,下荒田１丁目４３番３４号,,46,201,8900056,,,,,,,2024-02-07,1,,,,,ココシアホーム,0
598,2370001050922,新規,0,2024-02-07,2024-02-07,ヤマトモ水産株式会社,,株式会社,宮城県,牡鹿郡女川町,鷲神１丁目１５番地２,,04,581,9862247,,,,,,,2024-02-07,1,,,,,ヤマトモスイサン,0
602,2400005008392,新規,0,2024-02-07,2024-02-07,医療法人社団けんじん,,その他の設立登記法人,岩手県,北上市,大通り１丁目１１番２３号,,03,206,0240061,,,,,,,2024-02-07,1,,,,,ケンジン,0
605,2420001018583,新規,0,2024-02-07,2024-02-07,株式会社ひらだて設計,,株式会社,青森県,十和田市,大字三本木字下平１５２番地８,,02,206,0340001,,,,,,,2024-02-07,1,,,,,ヒラダテセッケイ,0
607,2420003002874,新規,0,2024-02-07,2024-02-07,合同会社ＰＵＰＵ,,合同会社,青森県,つがる市,木造蓮花田村上２番地,,02,209,0383274,,,,,,,2024-02-07,1,,,,,ププ,0
608,2430001091027,新規,0,2024-02-07,2024-02-07,株式会社Ｈｏ‐ＫＩＮＧ,,株式会社,北海道,札幌市白石区,北郷二条１丁目６番１８号,,01,104,0030832,,,,,,,2024-02-07,1,,,,,ホーキング,0
612,2480001012382,新規,0,2024-02-07,2024-02-07,株式会社樽屋,00133642,株式会社,徳島県,徳島市,論田町本浦中１３１番地１４,,36,201,7708011,,,,,,,2024-02-07,1,,,,,タルヤ,0
615,2490001010690,新規,0,2024-02-07,2024-02-07,ＩＭＩ株式会社,,株式会社,高知県,高知市,宮前町８２－１ヒルサイド小高坂１０１,,39,201,7800924,,,,,,,2024-02-07,1,,,,,,0
618,2500001025456,新規,0,2024-02-07,2024-02-07,株式会社ＵＣＨＩＫＯ,,株式会社,愛媛県,喜多郡内子町,内子２４２５番地,,38,422,7913301,,,,,,,2024-02-07,1,,,,,ウチコ,0
633,3010001242117,新規,0,2024-02-07,2024-02-07,東旭株式会社,,株式会社,東京都,文京区,水道１丁目１１番８－５０１号,,13,105,1120005,,,,,,,2024-02-07,1,,,,,ヒガシアサヒ,0
634,3010001242158,新規,0,2024-02-07,2024-02-07,株式会社ｇｏｇｈ　Ｊａｐａｎ,,株式会社,東京都,文京区,小石川１丁目２８－１小石川桜ビル５Ｆ,,13,105,1120002,,,,,,,2024-02-07,1,,,,,ゴッホジャパン,0
635,3010001242182,新規,0,2024-02-07,2024-02-07,株式会社ＣＬＩＰ第２３６号,,株式会社,東京都,千代田区,丸の内２丁目７番２号,,13,101,1000005,,,,,,,2024-02-07,1,,,,,シーエルアイピーダイニヒャクサンジュウロクゴウ,0
636,3010001242190,新規,0,2024-02-07,2024-02-07,株式会社ＣＬＩＰ第２４４号,,株式会社,東京都,千代田区,丸の内２丁目７番２号,,13,101,1000005,,,,,,,2024-02-07,1,,,,,シーエルアイピーダイニヒャクヨンジュウヨンゴウ,0
647,3010005037851,新規,0,2024-02-07,2024-02-07,司法書士法人ユア・エース,,その他の設立登記法人,東京都,中央区,日本橋堀留町２丁目３番１４号堀留ＴＨビル２階,,13,102,1030012,,,,,,,2024-02-07,1,,,,,ユアエース,0
650,3010101015991,新規,0,2024-02-07,2024-02-07,株式会社ＫＩＲ,,株式会社,東京都,八王子市,三崎町３番４号ＲＪスクエアビル３階Ｂ号室,,13,201,1920084,,,,,,,2024-02-07,1,,,,,ケーアイアール,0
654,3010401180148,新規,0,2024-02-07,2024-02-07,株式会社Ｇｒｉｚｚｌｙ,,株式会社,東京都,港区,虎ノ門１丁目１６番４号アーバン虎ノ門ビル８階,,13,103,1050001,,,,,,,2024-02-07,1,,,,,グリズリー,0
655,3010401180180,新規,0,2024-02-07,2024-02-07,株式会社Ｃｏｐｉａ,,株式会社,東京都,港区,芝浦３丁目９番１号芝浦ルネサイトタワー２Ｆ,,13,103,1080023,,,,,,,2024-02-07,1,,,,,コピア,0
656,3010401180239,新規,0,2024-02-07,2024-02-07,株式会社Ｖｅｈｉｃｌｅｓ,,株式会社,東京都,港区,南青山３丁目１４番１１－９号,,13,103,1070062,,,,,,,2024-02-07,1,,,,,ビークルズ,0
657,3010401180247,新規,0,2024-02-07,2024-02-07,東京銀騰株式会社,,株式会社,東京都,港区,虎ノ門４丁目１番１号神谷町トラストタワー２３階,,13,103,1050001,,,,,,,2024-02-07,1,,,,,トウキョウギントウ,0
663,3010501051736,新規,0,2024-02-07,2024-02-07,日本健康産業株式会社,,株式会社,東京都,台東区,今戸１丁目２２番７号１階,,13,106,1110024,,,,,,,2024-02-07,1,,,,,ニホンケンコウサンギョウ,0
670,3010901054677,新規,0,2024-02-07,2024-02-07,Ａｒｔｉｓａｎ　Ｓａｋｅ　Ｇｒｏｕｐ株式会社,,株式会社,東京都,世田谷区,太子堂１丁目１５番１２号セントラルビル１階１０１号,,13,112,1540004,,,,,,,2024-02-07,1,,,,,アーティザンサケグループ,0
671,3010901054685,新規,0,2024-02-07,2024-02-07,株式会社オフィス・ウエノ,,株式会社,東京都,世田谷区,桜３丁目１２番６号,,13,112,1560053,,,,,,,2024-02-07,1,,,,,オフィスウエノ,0
676,3011001159755,新規,0,2024-02-07,2024-02-07,アセアングループ株式会社,,株式会社,東京都,渋谷区,東３丁目１１番１０号,,13,113,1500011,,,,,,,2024-02-07,1,,,,,アセアングループ,0
677,3011001159846,新規,0,2024-02-07,2024-02-07,Ｗ＆Ｙ株式会社,,株式会社,東京都,渋谷区,渋谷２丁目１９番１５号宮益坂ビルディング６０９,,13,113,1500002,,,,,,,2024-02-07,1,,,,,ダブリューアンドワイ,0
678,3011001159862,新規,0,2024-02-07,2024-02-07,株式会社あわい,,株式会社,東京都,渋谷区,神宮前２丁目１９番１０号,,13,113,1500001,,,,,,,2024-02-07,1,,,,,アワイ,0
679,3011001159870,新規,0,2024-02-07,2024-02-07,コハコ株式会社,,株式会社,東京都,渋谷区,渋谷２丁目１９番１５号宮益坂ビルディング６０９,,13,113,1500002,,,,,,,2024-02-07,1,,,,,コハコ,0
680,3011001159879,新規,0,2024-02-07,2024-02-07,株式会社結,,株式会社,東京都,渋谷区,恵比寿西２丁目４番８号ウィンド恵比寿ビル８Ｆ,,13,113,1500021,,,,,,,2024-02-07,1,,,,,,0
683,3011003018455,新規,0,2024-02-07,2024-02-07,Ｄｏｏｄｌｅ　Ｊｕｍｐ　Ｓｔｕｄｉｏｓ合同会社,,合同会社,東京都,渋谷区,道玄坂１丁目１２番１号,,13,113,1500043,,,,,,,2024-02-07,1,,,,,ドゥードゥルジャンプスタジオ,0
684,3011003018463,新規,0,2024-02-07,2024-02-07,合同会社ＥＶＥＮ　ＢＥＴＴＥＲ,,合同会社,東京都,渋谷区,恵比寿南１丁目１８－１ＴＯＰ恵比寿３０８,,13,113,1500022,,,,,,,2024-02-07,1,,,,,イーブンベター,0
686,3011101106087,新規,0,2024-02-07,2024-02-07,株式会社ＲＥＶＡＭＰ,,株式会社,東京都,新宿区,高田馬場１丁目３番地１３号第二天台ビル４０２号,,13,104,1690075,,,,,,,2024-02-07,1,,,,,リヴァンプ,0
687,3011101106120,新規,0,2024-02-07,2024-02-07,株式会社サードスクール,,株式会社,東京都,新宿区,歌舞伎町２丁目９－１８ライオンズ新宿１２０２,,13,104,1600021,,,,,,,2024-02-07,1,,,,,サードスクール,0
693,3011103014073,新規,0,2024-02-07,2024-02-07,合同会社ファインド,,合同会社,東京都,新宿区,西新宿３丁目３番１３号西新宿水間ビル６階,,13,104,1600023,,,,,,,2024-02-07,1,,,,,,0
694,3011103014081,新規,0,2024-02-07,2024-02-07,合同会社バンブー,,合同会社,東京都,新宿区,西新宿３丁目３番１３号西新宿水間ビル６階,,13,104,1600023,,,,,,,2024-02-07,1,,,,,バンブー,0
697,3011301029385,新規,0,2024-02-07,2024-02-07,キャピタルアセットプラス株式会社,,株式会社,東京都,杉並区,清水３丁目１６番１０号,,13,115,1670033,,,,,,,2024-02-07,1,,,,,キャピタルアセットプラス,0
704,3012803003308,新規,0,2024-02-07,2024-02-07,Ｒ．合同会社,,合同会社,東京都,立川市,曙町１丁目２２番２７号グランツ立川昭和記念公園１３０１号,,13,202,1900012,,,,,,,2024-02-07,1,,,,,アールドット,0
705,3013101009336,新規,0,2024-02-07,2024-02-07,株式会社神谷,,株式会社,東京都,西多摩郡瑞穂町,大字武蔵４２２番地１,,13,303,1901213,,,,,,,2024-02-07,1,,,,,,0
706,3013101009344,新規,0,2024-02-07,2024-02-07,株式会社ＴＹＣ,,株式会社,東京都,あきる野市,秋川３丁目７－２,,13,228,1970804,,,,,,,2024-02-07,1,,,,,,0
712,3013301052029,新規,0,2024-02-07,2024-02-07,株式会社アマテラス,,株式会社,東京都,豊島区,池袋２丁目５６番８号ホワイトＢＬ地下Ｄ号室,,13,116,1710014,,,,,,,2024-02-07,1,,,,,アマテラス,0
713,3013301052037,新規,0,2024-02-07,2024-02-07,ＳＨＷＥ　ＰＡＮ　ＰＡＮ株式会社,,株式会社,東京都,豊島区,北大塚２丁目１２番３号ドルミ大塚６０１,,13,116,1700004,,,,,,,2024-02-07,1,,,,,シュエパンパン,0
718,3020001155680,新規,0,2024-02-07,2024-02-07,株式会社ＢＩＲＴＨ,,株式会社,神奈川県,横浜市西区,北幸１丁目１１番１号水信ビル７階,,14,103,2200004,,,,,,,2024-02-07,1,,,,,バース,0
719,3020001155689,新規,0,2024-02-07,2024-02-07,株式会社Ｇｒｅｅｎ　Ｐｌｕｓ,,株式会社,神奈川県,横浜市金沢区,能見台通３４番１０号能見台若葉ビル４階,,14,108,2360053,,,,,,,2024-02-07,1,,,,,グリーンプラス,0
723,3020003025502,新規,0,2024-02-07,2024-02-07,合同会社Ｌｕｋｅ　Ｓｈｅｅｔ　Ｍｕｓｉｃ,,合同会社,神奈川県,川崎市川崎区,京町１丁目３番２４－１号,,14,131,2100848,,,,,,,2024-02-07,1,,,,,ルークシートミュージック,0
724,3020003025510,新規,0,2024-02-07,2024-02-07,ディープピーク合同会社,,合同会社,神奈川県,横浜市神奈川区,金港町５番地１４クアドリフォリオ８階,,14,102,2210056,,,,,,,2024-02-07,1,,,,,ディープピーク,0
727,3021001081405,新規,0,2024-02-07,2024-02-07,株式会社ＣＯＬＯＲＦＵＬ,,株式会社,神奈川県,鎌倉市,極楽寺４丁目３番２８号,,14,204,2480023,,,,,,,2024-02-07,1,,,,,カラフル,0
730,3021003014131,新規,0,2024-02-07,2024-02-07,合同会社ＴＥＤ,,合同会社,神奈川県,逗子市,桜山６丁目１３２６－１０５,,14,208,2490005,,,,,,,2024-02-07,1,,,,,テッド,0
736,3030001158484,新規,0,2024-02-07,2024-02-07,株式会社仁平工務店,,株式会社,埼玉県,川口市,大字木曽呂２５２番地の１,,11,203,3330831,,,,,,,2024-02-07,1,,,,,ニヘイコウムテン,0
737,3030001158550,新規,0,2024-02-07,2024-02-07,ＳＥＩＫＯ株式会社,,株式会社,埼玉県,さいたま市浦和区,北浦和５丁目１１番２１－１０７号,,11,107,3300074,,,,,,,2024-02-07,1,,,,,セイコー,0
738,3030001158559,新規,0,2024-02-07,2024-02-07,株式会社三和商事,,株式会社,埼玉県,川口市,並木元町２番７－６１０号川口並木町ビル,,11,203,3320033,,,,,,,2024-02-07,1,,,,,サンワショウジ,0
739,3030001158567,新規,0,2024-02-07,2024-02-07,株式会社ＴＦＳ,,株式会社,埼玉県,越谷市,南越谷４丁目８番地６キャピタル新越谷５０４,,11,222,3430845,,,,,,,2024-02-07,1,,,,,ティーエフエス,0
740,3030001158575,新規,0,2024-02-07,2024-02-07,ナポレオン株式会社,,株式会社,埼玉県,さいたま市大宮区,大成町１丁目８６番地,,11,103,3300852,,,,,,,2024-02-07,1,,,,,ナポレオン,0
744,3030003023579,新規,0,2024-02-07,2024-02-07,合同会社ＬＡＢＯＬＧ　ＩＮＴＥＲＩＯＲ,,合同会社,埼玉県,富士見市,関沢２丁目６－１５サンモール鶴瀬ＩＩ２０８,00133649,11,235,3540025,,,,,,,2024-02-07,1,,,,,ラボルグインテリア,0
745,3030003023595,新規,0,2024-02-07,2024-02-07,合同会社マリアン,,合同会社,埼玉県,さいたま市大宮区,桜木町２丁目３番地大宮マルイ７階,,11,103,3300854,,,,,,,2024-02-07,1,,,,,マリアン,0
751,3040001132059,新規,0,2024-02-07,2024-02-07,株式会社ホウコ,,株式会社,千葉県,千葉市美浜区,高洲３丁目１５番１棟４０２号,,12,106,2610004,,,,,,,2024-02-07,1,,,,,ホウコ,0
752,3040001132075,新規,0,2024-02-07,2024-02-07,株式会社ＥｌＶａｌｌｅＷｅｂ,,株式会社,千葉県,千葉市美浜区,打瀬１丁目７番地１パティオス・グランアクシブ３番館１００５号,,12,106,2610013,,,,,,,2024-02-07,1,,,,,エルバジェウェブ,0
757,3040003024221,新規,0,2024-02-07,2024-02-07,合同会社Ｂ‐ｃｌｅ,,合同会社,千葉県,松戸市,幸谷３３２－５,,12,207,2700017,,,,,,,2024-02-07,1,,,,,ビークル,0
763,3060005010168,新規,0,2024-02-07,2024-02-07,社会保険労務士法人ワイズコンサルタント,,その他の設立登記法人,栃木県,宇都宮市,不動前１丁目３番４３号,,09,201,3200833,,,,,,,2024-02-07,1,,,,,ワイズコンサルタント,0
790,3120001261824,新規,0,2024-02-07,2024-02-07,株式会社ソルエユニーク,,株式会社,大阪府,大阪市北区,中津３丁目２４番３－５０７号,,27,127,5310071,,,,,,,2024-02-07,1,,,,,ソルエユニーク,0
791,3120001262070,新規,0,2024-02-07,2024-02-07,株式会社エイチフードサービス,,株式会社,大阪府,大阪市西区,新町１丁目２４番８－２０３号,,27,106,5500013,,,,,,,2024-02-07,1,,,,,エイチフードサービス,0
792,3120001262095,新規,0,2024-02-07,2024-02-07,株式会社ＭＭＭＭＭＭ,,株式会社,大阪府,大阪市淀川区,新北野３丁目１２番５－４０１号,,27,123,5320025,,,,,,,2024-02-07,1,,,,,ムームー,0
793,3120001262112,新規,0,2024-02-07,2024-02-07,株式会社ツーエムオーエンタテインメント,,株式会社,大阪府,大阪市港区,南市岡３丁目１０番９号,,27,107,5520011,,,,,,,2024-02-07,1,,,,,ツーエムオーエンターテイメント,0
794,3120001262129,新規,0,2024-02-07,2024-02-07,家源株式会社,,株式会社,大阪府,大阪市淀川区,西宮原２丁目６－１６新大阪コーポビアネーズ４３０号室,,27,123,5320004,,,,,,,2024-02-07,1,,,,,カゲン,0
795,3120003025830,新規,0,2024-02-07,2024-02-07,合同会社環境創造企画,,合同会社,大阪府,大阪市西区,立売堀６丁目６番６－２０２号,,27,106,5500012,,,,,,,2024-02-07,1,,,,,カンキョウソウゾウキカク,0
796,3120003025855,新規,0,2024-02-07,2024-02-07,ＷＩＳＥ合同会社,,合同会社,大阪府,大阪市北区,梅田１丁目２番２号,,27,127,5300001,,,,,,,2024-02-07,1,,,,,ワイズ,0
800,3120901048734,新規,0,2024-02-07,2024-02-07,Ｙ’ｓ株式会社,,株式会社,大阪府,茨木市,庄１丁目１９番６号,,27,211,5670806,,,,,,,2024-02-07,1,,,,,ワイズ,0
807,3122001037816,新規,0,2024-02-07,2024-02-07,株式会社ＭＫプランニング,,株式会社,大阪府,八尾市,相生町３丁目２番３号,,27,212,5810082,,,,,,,2024-02-07,1,,,,,エムケープランニング,0
809,3130001021418,新規,0,2024-02-07,2024-02-07,大清株式会社,,株式会社,京都府,京都市中京区,西ノ京大炊御門町１５番地の１０,,26,104,6048467,,,,,,,2024-02-07,1,,,,,ダイセイ,0
811,3130001076288,新規,0,2024-02-07,2024-02-07,株式会社秀栄,,株式会社,京都府,京都市西京区,大原野小塩町３４２番地,,26,111,6101133,,,,,,,2024-02-07,1,,,,,シュウエイ,0
812,3130001076321,新規,0,2024-02-07,2024-02-07,株式会社ｒｉｋｕｎｏ　ｗａ,,株式会社,京都府,京都市伏見区,深草藪之内町２４番地２,,26,109,6120882,,,,,,,2024-02-07,1,,,,,リクノワ,0
814,3130003009287,新規,0,2024-02-07,2024-02-07,合同会社ＭＯＲ,,合同会社,京都府,京都市下京区,七条通油小路東入大黒町２２７番地第２キョートビル４０２,,26,106,6008223,,,,,,,2024-02-07,1,,,,,モア,0
819,3140001133261,新規,0,2024-02-07,2024-02-07,株式会社Ｓａｍｍｋｅｙ,,株式会社,兵庫県,宝塚市,中山寺２丁目８番１５－２０２号,,28,214,6650861,,,,,,,2024-02-07,1,,,,,サムキー,0
833,3160003003114,新規,0,2024-02-07,2024-02-07,合同会社アプロディーテ,,合同会社,滋賀県,湖南市,菩提寺７６０－１,,25,211,5203242,,,,,,,2024-02-07,1,,,,,アプロディーテ,0
844,3180001160046,新規,0,2024-02-07,2024-02-07,株式会社エムアンドエス,,株式会社,愛知県,名古屋市名東区,一社４丁目４７番地の３,,23,115,4650093,,,,,,,2024-02-07,1,,,,,エムアンドエス,0
845,3180001160062,新規,0,2024-02-07,2024-02-07,株式会社ＫＳテクノ,,株式会社,愛知県,春日井市,中切町３丁目１番地１６,,23,206,4860925,,,,,,,2024-02-07,1,,,,,ケイエステクノ,0
846,3180001160079,新規,0,2024-02-07,2024-02-07,株式会社優希,,株式会社,愛知県,稲沢市,正明寺２丁目２３－２ホリデーハウス１０２号,,23,220,4928145,,,,,,,2024-02-07,1,,,,,ユウキ,0
847,3180001160112,新規,0,2024-02-07,2024-02-07,株式会社ＭＯＮＴＡ,,株式会社,愛知県,名古屋市天白区,表山３丁目２４４３,,23,116,4680069,,,,,,,2024-02-07,1,,,,,モンタ,0
852,3180003026303,新規,0,2024-02-07,2024-02-07,ＭＶＬ合同会社,,合同会社,愛知県,名古屋市中区,千代田１丁目４番２２号（プラセシオン久屋大通公園５０１号）,,23,106,4600012,,,,,,,2024-02-07,1,,,,,エムブイエル,0
854,3180005020510,新規,0,2024-02-07,2024-02-07,特定非営利活動法人Ｒｅｓｉｌｉｅｎｃｅ,,その他の設立登記法人,愛知県,名古屋市熱田区,白鳥３丁目１０番１９号ＢＬＧ白鳥８Ｆ,,23,109,4560035,,,,,,,2024-02-07,1,,,,,レジリエンス,0
858,3180301038306,新規,0,2024-02-07,2024-02-07,株式会社アレス,,株式会社,愛知県,新城市,字二本松３４番地１,,23,221,4411325,,,,,,,2024-02-07,1,,,,,アレス,0
859,3180301038314,新規,0,2024-02-07,2024-02-07,株式会社アダージョ,,株式会社,愛知県,岡崎市,須淵町字寺地５０番地,,23,202,4443341,,,,,,,2024-02-07,1,,,,,アダージョ,0
863,3190001031089,新規,0,2024-02-07,2024-02-07,よつば株式会社,,株式会社,三重県,四日市市,寺方町２９０７番地,,24,202,5120924,,,,,,,2024-02-07,1,,,,,ヨツバ,0
867,3200001042134,新規,0,2024-02-07,2024-02-07,株式会社ココプラム,,株式会社,岐阜県,関市,一本木町４番地３,,21,205,5013979,,,,,,,2024-02-07,1,,,,,ココプラム,0
868,3200003006228,新規,0,2024-02-07,2024-02-07,合同会社ＥＧＲ,,合同会社,岐阜県,可児市,下恵土３４２１番地６２号,,21,214,5090203,,,,,,,2024-02-07,1,,,,,イージーアール,0
871,3220003003669,新規,0,2024-02-07,2024-02-07,合同会社秋元雄史事務所,,合同会社,石川県,金沢市,並木町２番１３号（４０２）,,17,201,9200928,,,,,,,2024-02-07,1,,,,,アキモトユウジジムショ,0
877,3240001062764,新規,0,2024-02-07,2024-02-07,株式会社Ｌｉｆｅ　ｐｌｕｓ,,株式会社,広島県,広島市中区,上幟町１１番９－４０３号,,34,101,7300014,,,,,,,2024-02-07,1,,,,,ライフプラス,0
889,3290001104594,新規,0,2024-02-07,2024-02-07,株式会社ＦＡＮＴＥＸＴ,,株式会社,福岡県,福岡市博多区,祗園町８番１３号,,40,132,8120000,,,,,,,2024-02-07,1,,,,,ファンテキスト,0
890,3290001104636,新規,0,2024-02-07,2024-02-07,株式会社ＡＸ　Ｃｏｎｓｕｌｔｉｎｇ,,株式会社,福岡県,福岡市中央区,天神２丁目２番１２号Ｔ＆Ｊビルディング７Ｆ,,40,133,8100001,,,,,,,2024-02-07,1,,,,,エーエックスコンサルティング,0
891,3290003014940,新規,0,2024-02-07,2024-02-07,合同会社夢ファクトリー,,合同会社,福岡県,久留米市,北野町高良２３６０－２,,40,203,8301114,,,,,,,2024-02-07,1,,,,,ユメファクトリー,0
892,3290003014949,新規,0,2024-02-07,2024-02-07,九州ノアズアーク合同会社,,合同会社,福岡県,福岡市博多区,月隈３丁目３７番２７号,,40,132,8120858,,,,,,,2024-02-07,1,,,,,キュウシュウノアズワーク,0
893,3290005019285,新規,0,2024-02-07,2024-02-07,一般社団法人家・町守り防災コネクト,,その他の設立登記法人,福岡県,福岡市博多区,博多駅前２丁目１９番１７－９０２号,,40,132,8120011,,,,,,,2024-02-07,1,,,,,イエマチマモリボウサイコネクト,0
895,3290801030288,新規,0,2024-02-07,2024-02-07,ＨＩＲＯＫＥＮ株式会社,,株式会社,福岡県,北九州市小倉北区,萩崎町８番１９号,,40,106,8020066,,,,,,,2024-02-07,1,,,,,ヒロケン,0
896,3290801030296,新規,0,2024-02-07,2024-02-07,株式会社ニジノハネ,,株式会社,福岡県,北九州市門司区,大字畑８２３番地２,,40,101,8000112,,,,,,,2024-02-07,1,,,,,ニジノハネ,0
899,3320001020276,新規,0,2024-02-07,2024-02-07,株式会社リードグリーン,,株式会社,大分県,大分市,府内町２丁目２番１５号ｓｕｎｒｉｓｅ－ｍ,,44,201,8700021,,,,,,,2024-02-07,1,,,,,リードグリーン,0
903,3330003010200,新規,0,2024-02-07,2024-02-07,合同会社ウェルビーイングひばり,,合同会社,熊本県,八代市,松崎町７６６番地２,,43,202,8660884,,,,,,,2024-02-07,1,,,,,ウェルビーイングヒバリ,0
909,3360001033150,新規,0,2024-02-07,2024-02-07,ＨＩＫＡＲＩ　ＴＳＵＳＨＩＮ　ＩＮＶＥＳＴＭＥＮＴＳ　ＯＫＩＮＡＷＡ株式会社,,株式会社,沖縄県,名護市,宮里１丁目２８番８号,,47,209,9050011,,,,,,,2024-02-07,1,,,,,ヒカリツウシンインベストメンツオキナワ,0
910,3360003013654,新規,0,2024-02-07,2024-02-07,合同会社Ｆｉｒｓｔ,,合同会社,沖縄県,沖縄市,比屋根６丁目２０番サンライズビュー２０５号,,47,211,9042173,,,,,,,2024-02-07,1,,,,,ファースト,0
916,3370001050913,新規,0,2024-02-07,2024-02-07,株式会社ユニゾンウェーブ,,株式会社,宮城県,仙台市青葉区,北根黒松１７番３７－２号,,04,101,9810901,,,,,,,2024-02-07,1,,,,,ユニゾンウェーブ,0
917,3370001050921,新規,0,2024-02-07,2024-02-07,Ｓｕｅｔｔ株式会社,,株式会社,宮城県,仙台市若林区,西新丁１番地の１ソレア西新丁Ｂ棟,,04,103,9840045,,,,,,,2024-02-07,1,,,,,スエット,0
922,3380003005674,新規,0,2024-02-07,2024-02-07,ビジネスエージェント合同会社,,合同会社,福島県,福島市,土湯温泉町字坂ノ上２番地,,07,201,9602157,,,,,,,2024-02-07,1,,,,,ビジネスエージェント,0
925,3400001016547,新規,0,2024-02-07,2024-02-07,株式会社オクサス,,株式会社,岩手県,盛岡市,加賀野２丁目７－２９－２０５,,03,201,0200807,,,,,,,2024-02-07,1,,,,,オクサス,0
928,3420003002873,新規,0,2024-02-07,2024-02-07,ＳｃａｍｐｅＲ合同会社,,合同会社,青森県,八戸市,大字新井田字石動木２３番地５２,,02,203,0310813,,,,,,,2024-02-07,1,,,,,スキャンパー,0
929,3430001091042,新規,0,2024-02-07,2024-02-07,株式会社ｓｉｃａ,,株式会社,北海道,札幌市中央区,南二条西５丁目６番地１,,01,101,0600062,,,,,,,2024-02-07,1,,,,,シカ,0
930,3430003015940,新規,0,2024-02-07,2024-02-07,ナーウィスアクア合同会社,,合同会社,北海道,札幌市中央区,宮の森二条３丁目２番１７－４０５号,,01,101,0640952,,,,,,,2024-02-07,1,,,,,ナーウィスアクア,0
940,3700150123849,新規,0,2024-02-07,2024-02-07,Ｔｈｅ　Ｌｉｎｕｘ　Ｆｏｕｎｄａｔｉｏｎ，ＬＬＣ,,外国会社等,,,,,,,,５４８　Ｍａｒｋｅｔ　Ｓｔｒｅｅｔ　ＰＭＢ　５７２７４　Ｓａｎ　Ｆｒａｎｃｉｓｃｏ　ＣＡ　９４１０４　ＵＳＡ,,,,,,2024-02-07,1,,,,,ザリナツクスフアウンデーシヨンエルエルシー,0
954,4010001242157,新規,0,2024-02-07,2024-02-07,上京国際株式会社,,株式会社,東京都,中央区,銀座１丁目１２番４号Ｎ＆Ｅ・ＢＬＤ．６Ｆ,,13,102,1040061,,,,,,,2024-02-07,1,,,,,ジョウキョウコクサイ,0
955,4010001242181,新規,0,2024-02-07,2024-02-07,株式会社ＣＬＩＰ第２３５号,,株式会社,東京都,千代田区,丸の内２丁目７番２号,,13,101,1000005,,,,,,,2024-02-07,1,,,,,シーエルアイピーダイニヒャクサンジュウゴゴウ,0
959,4010005037842,新規,0,2024-02-07,2024-02-07,一般社団法人ＬＥＶＥＣＨＹ１５号,,その他の設立登記法人,東京都,千代田区,紀尾井町３－８第２紀尾井町ビル９０１アクシス綜合会計事務所内,,13,101,1020094,,,,,,,2024-02-07,1,,,,,レベチージュウゴゴウ,0
960,4010005037850,新規,0,2024-02-07,2024-02-07,一般社団法人転生,,その他の設立登記法人,東京都,中央区,銀座５丁目１２番６号ＣＵＲＡＧＩＮＺＡ４階,,13,102,1040061,,,,,,,2024-02-07,1,,,,,テンセイ,0
968,4010401180246,新規,0,2024-02-07,2024-02-07,株式会社スターダストトレイン,,株式会社,東京都,港区,麻布十番２丁目２０－７麻布十番高木ビル,,13,103,1060045,,,,,,,2024-02-07,1,,,,,スターダストトレイン,0
972,4010403031827,新規,0,2024-02-07,2024-02-07,合同会社Ｋ＆Ｒ,,合同会社,東京都,港区,六本木４丁目２－２０－５０６,,13,103,1060032,,,,,,,2024-02-07,1,,,,,ケーアンドアール,0
983,4010901054668,新規,0,2024-02-07,2024-02-07,株式会社ＡＸＩＳ,,株式会社,東京都,世田谷区,北沢２丁目６番８号,,13,112,1550031,,,,,,,2024-02-07,1,,,,,アクシス,0
988,4011001159845,新規,0,2024-02-07,2024-02-07,株式会社Ｐｕｋｔｏｗａ,,株式会社,東京都,渋谷区,神宮前６丁目２３番４号桑野ビル２階,,13,113,1500001,,,,,,,2024-02-07,1,,,,,プクトワ,0
989,4011001159853,新規,0,2024-02-07,2024-02-07,株式会社Ａｒｉ．Ａｎｔｓ,,株式会社,東京都,渋谷区,道玄坂１丁目１０番８号渋谷道玄坂東急ビル２Ｆ－Ｃ,,13,113,1500043,,,,,,,2024-02-07,1,,,,,アリアンツ,0
990,4011001159894,新規,0,2024-02-07,2024-02-07,株式会社祐天寺コミュニティセンター,,株式会社,東京都,目黒区,五本木２丁目１５番１２号ウオツネビル１階,,13,110,1530053,,,,,,,2024-02-07,1,,,,,ユウテンジコミュニティセンター,0
993,4011003018446,新規,0,2024-02-07,2024-02-07,合同会社ゴウ,,合同会社,東京都,渋谷区,道玄坂１丁目１０番８号,,13,113,1500043,,,,,,,2024-02-07,1,,,,,ゴウ,0
998,4011103014072,新規,0,2024-02-07,2024-02-07,合同会社ＧＵＳＳＡ,,合同会社,東京都,新宿区,歌舞伎町１丁目１６番７号,,13,104,1600021,,,,,,,2024-02-07,1,,,,,グッサ,0
1007,4011701026997,新規,0,2024-02-07,2024-02-07,トーヨーブレスト株式会社,,株式会社,東京都,江戸川区,鹿骨２丁目２８番２号,,13,123,1330073,,,,,,,2024-02-07,1,,,,,トーヨーブレスト,0
1009,4011703003739,新規,0,2024-02-07,2024-02-07,合同会社ゼロ,,合同会社,東京都,江戸川区,北小岩６丁目１５番８号,,13,123,1330051,,,,,,,2024-02-07,1,,,,,ゼロ,0
1015,4011801043736,新規,0,2024-02-07,2024-02-07,ライム株式会社,,株式会社,東京都,葛飾区,四つ木１丁目２１番３－１０３号,,13,122,1240011,,,,,,,2024-02-07,1,,,,,ライム,0
1018,4012401041493,新規,0,2024-02-07,2024-02-07,大鵬株式会社,,株式会社,東京都,府中市,四谷１丁目７番地の１４,,13,206,1830035,,,,,,,2024-02-07,1,,,,,タイホウ,0
1019,4012401041510,新規,0,2024-02-07,2024-02-07,株式会社ｉｎｚｅｒｏ,,株式会社,東京都,狛江市,中和泉５丁目２９番５号,,13,219,2010012,,,,,,,2024-02-07,1,,,,,インゼロ,0
1023,4013101009343,新規,0,2024-02-07,2024-02-07,株式会社寿,,株式会社,東京都,青梅市,梅郷４丁目６９３番地の３,,13,205,1980063,,,,,,,2024-02-07,1,,,,,コトブキ,0
1035,4020001155647,新規,0,2024-02-07,2024-02-07,株式会社倉持設備,,株式会社,神奈川県,横浜市青葉区,梅が丘１２番地１５,,14,117,2270052,,,,,,,2024-02-07,1,,,,,クラモチセツビ,0
1036,4020001155688,新規,0,2024-02-07,2024-02-07,株式会社ＣＯＡ　ＮＥＸＵＳ,,株式会社,神奈川県,横浜市金沢区,能見台通３４番１０号能見台若葉ビル４階,,14,108,2360053,,,,,,,2024-02-07,1,,,,,コアネクサス,0
1037,4020001155705,新規,0,2024-02-07,2024-02-07,株式会社七星電設,,株式会社,神奈川県,川崎市幸区,南加瀬２丁目３７番１５－２号,,14,132,2120055,,,,,,,2024-02-07,1,,,,,ナナホシデンセツ,0
1038,4020001155721,新規,0,2024-02-07,2024-02-07,ｆｏｒｓｐｒｏｕｔ株式会社,,株式会社,神奈川県,横浜市神奈川区,金港町５－１４クアドリフォリオ８階,,14,102,2210056,,,,,,,2024-02-07,1,,,,,フォアスプラウト,0
1040,4020003025492,新規,0,2024-02-07,2024-02-07,合同会社ＳＡＷＡＣＯ,,合同会社,神奈川県,横浜市都筑区,茅ケ崎南１丁目１番１－２０９号,,14,118,2240037,,,,,,,2024-02-07,1,,,,,サワコ,0
1044,4021001081412,新規,0,2024-02-07,2024-02-07,株式会社ＮＷＣ,,株式会社,神奈川県,相模原市南区,東橋本四丁目２番３５－１０号,,14,153,2520300,,,,,,,2024-02-07,1,,,,,エヌダブリューシー,0
1046,4021003014139,新規,0,2024-02-07,2024-02-07,合同会社パメラ社,,合同会社,神奈川県,茅ヶ崎市,柳島１８７１番地ブリアンジェルメ１０１,,14,207,2530064,,,,,,,2024-02-07,1,,,,,,0
1051,4030001158500,新規,0,2024-02-07,2024-02-07,株式会社スカイド,,株式会社,埼玉県,入間市,大字仏子３３８番地,,11,225,3580053,,,,,,,2024-02-07,1,,,,,スカイド,0
1052,4030001158525,新規,0,2024-02-07,2024-02-07,株式会社グリーンベスト,,株式会社,埼玉県,草加市,旭町５丁目３番３号３階,,11,221,3400053,,,,,,,2024-02-07,1,,,,,グリーンベスト,0
1053,4030001158558,新規,0,2024-02-07,2024-02-07,株式会社空彩不動産,,株式会社,埼玉県,さいたま市大宮区,桜木町３丁目１３６番地,,11,103,3300854,,,,,,,2024-02-07,1,,,,,ソライロフドウサン,0
1061,4040001131927,新規,0,2024-02-07,2024-02-07,株式会社Ｂｌｅｓｓｉｎｇｓ,,株式会社,千葉県,船橋市,三咲２丁目１７番２５－６０６号,,12,204,2740812,,,,,,,2024-02-07,1,,,,,ブレッシングス,0
1062,4040001132009,新規,0,2024-02-07,2024-02-07,株式会社千寿,,株式会社,千葉県,流山市,南流山８丁目１８番地の１,,12,220,2700163,,,,,,,2024-02-07,1,,,,,センジュ,0
1063,4040001132082,新規,0,2024-02-07,2024-02-07,株式会社肉のイズミヤ,,株式会社,千葉県,市川市,宮久保１丁目１０番１３号,,12,203,2720822,,,,,,,2024-02-07,1,,,,,ニクノイズミヤ,0
1064,4040001132116,新規,0,2024-02-07,2024-02-07,株式会社Ｄｅｓｉｇｎ,,株式会社,千葉県,大網白里市,季美の森南３丁目１３－３,,12,239,2993241,,,,,,,2024-02-07,1,,,,,デザイン,0
1073,4060003004897,新規,0,2024-02-07,2024-02-07,Ｃｒｙｐｔｏ　Ｇａｔｅｗａｙ合同会社,,合同会社,栃木県,下野市,駅東７丁目１０番地２１号,,09,216,3290413,,,,,,,2024-02-07,1,,,,,クリプトゲートウェイ,0
1077,4070005010224,新規,0,2024-02-07,2024-02-07,一般社団法人北関東まちづくり協会,,その他の設立登記法人,群馬県,みどり市,大間々町桐原１２６１番地１ＷａｔａｒａｓｅＤａｎｃｈｉ２－１０８号,,10,212,3760102,,,,,,,2024-02-07,1,,,,,,0
1078,4080101024523,新規,0,2024-02-07,2024-02-07,株式会社Ｔｏｐ　Ｐｒｉｏｒｉｔｙ,,株式会社,静岡県,富士宮市,黒田４１番地１０,,22,207,4180034,,,,,,,2024-02-07,1,,,,,トッププライオリティ,0
1079,4080401026995,新規,0,2024-02-07,2024-02-07,ＷＥＦＡＭ　Ｄｅｓｉｇｎ株式会社,,株式会社,静岡県,浜松市中央区,鍛冶町１００－１ザザシティ浜松中央館Ｂ１Ｆ－ＦＵＳＥ,,22,138,4300933,,,,,,,2024-02-07,1,,,,,ウィーファムデザイン,0
1081,4090003002485,新規,0,2024-02-07,2024-02-07,Ｃ，Ｈ，Ｔ土地管理合同会社,,合同会社,山梨県,韮崎市,龍岡町下條南割１１６７,,19,207,4070033,,,,,,,2024-02-07,1,,,,,シーエイチティートチカンリ,0
1085,4100001037201,新規,0,2024-02-07,2024-02-07,株式会社ＺＵＶＺＵＶ,,株式会社,長野県,長野市,吉田４丁目３番２２号１Ｆ,,20,201,3810043,,,,,,,2024-02-07,1,,,,,ゼットユブイゼットユブイ,0
1093,4120001261988,新規,0,2024-02-07,2024-02-07,株式会社ＡＢＣＲＥＡＴＥ,,株式会社,大阪府,大阪市北区,梅田１丁目２番２号大阪駅前第２ビル１２－１２,,27,127,5300001,,,,,,,2024-02-07,1,,,,,エービークリエイト,0
1094,4120001262061,新規,0,2024-02-07,2024-02-07,株式会社ＳｉｍｐｌｙＣｏｍｐｌｉｃａｔｅｄ,,株式会社,大阪府,大阪市中央区,南船場４丁目９－５村上ビル３０３,,27,128,5420081,,,,,,,2024-02-07,1,,,,,シンプリィコンプリケイテッド,0
1096,4120003025879,新規,0,2024-02-07,2024-02-07,商聚グローバルコンサルタント合同会社,,合同会社,大阪府,大阪市西淀川区,花川２丁目２１番３号エル２０１号室,,27,113,5550023,,,,,,,2024-02-07,1,,,,,ショウシュウグローバルコンサルタント,0
1099,4120101069010,新規,0,2024-02-07,2024-02-07,株式会社ＫＴＣ　ＪＡＰＡＮ,,株式会社,大阪府,泉佐野市,高松北１丁目９番３２号,,27,213,5980011,,,,,,,2024-02-07,1,,,,,ケイティシージャパン,0
1109,4130001076304,新規,0,2024-02-07,2024-02-07,株式会社翔游国際,,株式会社,京都府,京都市左京区,高野清水町１２９番地３７,,26,103,6068102,,,,,,,2024-02-07,1,,,,,ショウユウコクサイ,0
1116,4140001133228,新規,0,2024-02-07,2024-02-07,株式会社新柿原鉄工,,株式会社,兵庫県,南あわじ市,広田広田１２２３番地,,28,224,6560122,,,,,,,2024-02-07,1,,,,,シンカキハラテッコウ,0
1117,4140001133269,新規,0,2024-02-07,2024-02-07,株式会社ＳＨＩＡＳ,,株式会社,兵庫県,川西市,西多田１丁目１－３,,28,217,6660138,,,,,,,2024-02-07,1,,,,,シアス,0
1118,4140003020135,新規,0,2024-02-07,2024-02-07,合同会社ＬＭＧ虎次郎,,合同会社,兵庫県,伊丹市,千僧３丁目１４０番地ヴィラメープル１０２,,28,207,6640898,,,,,,,2024-02-07,1,,,,,エルエムジートラジロウ,0
1119,4150001012868,新規,0,2024-02-07,2024-02-07,株式会社七福産業,,株式会社,奈良県,香芝市,穴虫８５番地の８,,29,210,6390252,,,,,,,2024-02-07,1,,,,,シチフク,0
1129,4180001159987,新規,0,2024-02-07,2024-02-07,株式会社ｉＤｅＣｏ・ＤＣサポートセンター,,株式会社,愛知県,名古屋市中村区,名駅３丁目４－１０アルティメイト名駅１ｓｔ２階,,23,105,4500002,,,,,,,2024-02-07,1,,,,,イデコディーシーサポートセンター,0
1130,4180001160045,新規,0,2024-02-07,2024-02-07,株式会社コンパス,,株式会社,愛知県,大府市,森岡町５丁目１９番地,,23,223,4740038,,,,,,,2024-02-07,1,,,,,コンパス,0
1133,4180003026310,新規,0,2024-02-07,2024-02-07,ＰＰＡ１号合同会社,,合同会社,愛知県,名古屋市名東区,小井堀町４０５番地の１,,23,115,4650044,,,,,,,2024-02-07,1,,,,,ピーピーエーイチゴウ,0
1134,4180005020501,新規,0,2024-02-07,2024-02-07,全日検労働組合名古屋,,その他の設立登記法人,愛知県,名古屋市港区,浜２丁目１３－１３ラフィネ浜５Ａ,,23,111,4550036,,,,,,,2024-02-07,1,,,,,ゼンニッケンナゴヤ,0
1137,4180301038296,新規,0,2024-02-07,2024-02-07,株式会社ジェイポート,,株式会社,愛知県,豊橋市,神野新田町字ヲノ割１６番地５,,23,201,4418077,,,,,,,2024-02-07,1,,,,,ジェイポート,0
1144,4190001031088,新規,0,2024-02-07,2024-02-07,株式会社つじのや,,株式会社,三重県,松阪市,西黒部町９１０番地,,24,204,5150103,,,,,,,2024-02-07,1,,,,,ツジノヤ,0
1148,4200003006227,新規,0,2024-02-07,2024-02-07,合同会社仲佐,,合同会社,岐阜県,下呂市,森９１８番地４７,,21,220,5092202,,,,,,,2024-02-07,1,,,,,ナカサ,0
1153,4240001062763,新規,0,2024-02-07,2024-02-07,株式会社チャムネット,,株式会社,広島県,広島市西区,東観音町２８番３号,,34,104,7330032,,,,,,,2024-02-07,1,,,,,チャムネット,0
1162,4250003003434,新規,0,2024-02-07,2024-02-07,合同会社ドリット,,合同会社,山口県,下関市,川中本町３番７号,,35,201,7510859,,,,,,,2024-02-07,1,,,,,ドリット,0
1165,4260001038745,新規,0,2024-02-07,2024-02-07,株式会社ベルフレア,,株式会社,岡山県,岡山市北区,駅前町１丁目８番１号岡山新光ビル５Ｆ,,33,101,7000023,,,,,,,2024-02-07,1,,,,,ベルフレア,0
1166,4260003004555,新規,0,2024-02-07,2024-02-07,合同会社スイーツクエスト,,合同会社,岡山県,備前市,浦伊部９４４番地,,33,211,7050002,,,,,,,2024-02-07,1,,,,,スイーツクエスト,0
1176,4290001104486,新規,0,2024-02-07,2024-02-07,菱和ソリューション株式会社,,株式会社,福岡県,福岡市博多区,博多駅前１丁目１５番２０号,,40,132,8120011,,,,,,,2024-02-07,1,,,,,リョウワソリューション,0
1177,4290001104602,新規,0,2024-02-07,2024-02-07,株式会社Ｍａｚａｒ　Ｃｏｒｐｏｒａｔｉｏｎ,,株式会社,福岡県,宗像市,自由ヶ丘７丁目２１番地１７－１０３号,,40,220,8114163,,,,,,,2024-02-07,1,,,,,マザーコーポレーション,0
1186,4310003004723,新規,0,2024-02-07,2024-02-07,ＳｔｕｄｉｏＨｉｚｅｎ合同会社,,合同会社,長崎県,長崎市,浜町２－２５－２Ｆ,,42,201,8500853,,,,,,,2024-02-07,1,,,,,スタジオヒゼン,0
1188,4330001031734,新規,0,2024-02-07,2024-02-07,株式会社ＳＩＭＰＬＩＦＹ,,株式会社,熊本県,熊本市北区,飛田４丁目６－１３２,,43,105,8615514,,,,,,,2024-02-07,1,,,,,シンプリファイ,0
1190,4340001026270,新規,0,2024-02-07,2024-02-07,株式会社青い鳥,,株式会社,鹿児島県,鹿児島市,小野３丁目１４番１１－１０２号,,46,201,8900021,,,,,,,2024-02-07,1,,,,,アオイトリ,0
1198,4370001050895,新規,0,2024-02-07,2024-02-07,Ｎ’ｓ株式会社,,株式会社,宮城県,仙台市青葉区,本町１丁目５番２８号カーニープレイス仙台駅前通６０３号室,,04,101,9800014,,,,,,,2024-02-07,1,,,,,エヌズ,0
1202,4380001034286,新規,0,2024-02-07,2024-02-07,株式会社南相馬シティパワー,,株式会社,福島県,南相馬市,原町区大町３丁目３０番地,,07,212,9750001,,,,,,,2024-02-07,1,,,,,ミナミソウマシティパワー,0
1205,4400001016546,新規,0,2024-02-07,2024-02-07,株式会社和苑,,株式会社,岩手県,滝沢市,大釜大畑７８番地８,,03,216,0200763,,,,,,,2024-02-07,1,,,,,ワエン,0
1217,4500001025462,新規,0,2024-02-07,2024-02-07,株式会社マネーシード,,株式会社,愛媛県,松山市,本町６丁目２番地５ｏｒｉｇｉｎａｌｂｏｘ２８－６Ｂ,,38,201,7900811,,,,,,,2024-02-07,1,,,,,マネーシード,0
1228,5010001242024,新規,0,2024-02-07,2024-02-07,日本行研株式会社,,株式会社,東京都,中央区,銀座１丁目１２番４号Ｎ＆ＥＢＬＤ．７階,,13,102,1040061,,,,,,,2024-02-07,1,,,,,ニホンギョウケン,0
1229,5010001242180,新規,0,2024-02-07,2024-02-07,株式会社ＣＬＩＰ第２３４号,,株式会社,東京都,千代田区,丸の内２丁目７番２号,,13,101,1000005,,,,,,,2024-02-07,1,,,,,シーエルアイピーダイニヒャクサンジュウヨンゴウ,0
1230,5010001242189,新規,0,2024-02-07,2024-02-07,株式会社ＣＬＩＰ第２４３号,,株式会社,東京都,千代田区,丸の内２丁目７番２号,,13,101,1000005,,,,,,,2024-02-07,1,,,,,シーエルアイピーダイニヒャクヨンジュウサンゴウ,0
1232,5010003042868,新規,0,2024-02-07,2024-02-07,合同会社グリーンハーバー,,合同会社,東京都,千代田区,神田和泉町６番地１６ヤマトビル４０５,,13,101,1010024,,,,,,,2024-02-07,1,,,,,グリーンハーバー,0
1233,5010003042884,新規,0,2024-02-07,2024-02-07,Ｒｏｃｋ　Ｆｉｅｌｄ　Ｔｅｃｈｎｏｌｏｇｙ合同会社,,合同会社,東京都,千代田区,神田和泉町１番地６－１６ヤマトビル４０５,,13,101,1010024,,,,,,,2024-02-07,1,,,,,ロックフィールドテクノロジー,0
1236,5010005037858,新規,0,2024-02-07,2024-02-07,一般社団法人ＰＦリアルティ,,その他の設立登記法人,東京都,中央区,八丁堀４丁目２番１０号ＡＯＪ税理士法人内,,13,102,1040032,,,,,,,2024-02-07,1,,,,,ピーエフリアルティ,0
1237,5010005037866,新規,0,2024-02-07,2024-02-07,Ｂｌｕｅ　Ｍａｐ一般社団法人,,その他の設立登記法人,東京都,千代田区,霞が関３丁目２番５号,,13,101,1000013,,,,,,,2024-02-07,1,,,,,ブルーマップ,0
1244,5010401180212,新規,0,2024-02-07,2024-02-07,株式会社フソウ新未来テック,,株式会社,東京都,港区,新橋１丁目７番１号,,13,103,1050004,,,,,,,2024-02-07,1,,,,,フソウシンミライテック,0
1245,5010401180229,新規,0,2024-02-07,2024-02-07,株式会社Ｃｙｐｈｅｒ,,株式会社,東京都,港区,六本木５丁目１２番２１号,,13,103,1060032,,,,,,,2024-02-07,1,,,,,サイファー,0
1246,5010401180245,新規,0,2024-02-07,2024-02-07,エルアール株式会社,,株式会社,東京都,港区,虎ノ門５丁目１２番１３号,,13,103,1050001,,,,,,,2024-02-07,1,,,,,エルアール,0
1247,5010401180261,新規,0,2024-02-07,2024-02-07,株式会社ＨｙｄｒａＶｉｓｉｏｎ,,株式会社,東京都,港区,三田３丁目３－８ＴａｍａＷｏｏｄｙＧａｔｅ三田ビル４Ｆ,,13,103,1080073,,,,,,,2024-02-07,1,,,,,ハイドラビジョン,0
1251,5010403031909,新規,0,2024-02-07,2024-02-07,合同会社Ｒｅｎａｔａ,,合同会社,東京都,港区,芝浦４丁目２１番１－２４１３号,,13,103,1080023,,,,,,,2024-02-07,1,,,,,レナータ,0
1252,5010405022939,新規,0,2024-02-07,2024-02-07,一般社団法人ＳＵＫＩＹＡＢＡＳＨＩ,,その他の設立登記法人,東京都,港区,芝２丁目１０番６号ＥＡＲＴＨＳＨＩＢＡＢＬＤ．３Ｆイントリム内,,13,103,1050014,,,,,,,2024-02-07,1,,,,,スキヤバシ,0
1253,5010405022947,新規,0,2024-02-07,2024-02-07,ジャパンロジスティクス３特定目的会社,,その他の設立登記法人,東京都,港区,六本木１丁目９番１０号アークヒルズ仙石山森タワー４０階,,13,103,1060032,,,,,,,2024-02-07,1,,,,,ジャパンロジスティクススリー,0
1255,5010501051750,新規,0,2024-02-07,2024-02-07,株式会社ミヤケン,,株式会社,東京都,台東区,西浅草３丁目２番７－Ｂ１０１,,13,106,1110035,,,,,,,2024-02-07,1,,,,,ミヤケン,0
1256,5010505003491,新規,0,2024-02-07,2024-02-07,一般社団法人相続サポートセンター,,その他の設立登記法人,東京都,台東区,東上野３丁目１８番１号ＴＨＥＢＬＯＯＭＵＥＮＯ２０７号室,,13,106,1100015,,,,,,,2024-02-07,1,,,,,ソウゾクサポートセンター,0
1269,5010701045461,新規,0,2024-02-07,2024-02-07,株式会社小池,,株式会社,東京都,品川区,東五反田２丁目２１番１１－３２７号,,13,109,1410022,,,,,,,2024-02-07,1,,,,,コイケ,0
1270,5010701045511,新規,0,2024-02-07,2024-02-07,Ｗｏｎｄｅｒｌａｂｏ　Ｈｏｌｄｉｎｇｓ株式会社,,株式会社,東京都,品川区,西五反田１丁目２６番２号五反田サンハイツビル２Ｆ,,13,109,1410031,,,,,,,2024-02-07,1,,,,,ワンダーラボホールディングス,0
1277,5010901054642,新規,0,2024-02-07,2024-02-07,新時代株式会社,,株式会社,東京都,世田谷区,玉川１丁目２番８号３階,,13,112,1580094,,,,,,,2024-02-07,1,,,,,シンジダイ,0
1278,5010903008803,新規,0,2024-02-07,2024-02-07,Ｔ合同会社,,合同会社,東京都,世田谷区,世田谷１丁目２５番１１－６０４号,,13,112,1540017,,,,,,,2024-02-07,1,,,,,ティー,0
1289,5011101106110,新規,0,2024-02-07,2024-02-07,株式会社アモンド,,株式会社,東京都,新宿区,西新宿３丁目３番１３号西新宿水間ビル２Ｆ,,13,104,1600023,,,,,,,2024-02-07,1,,,,,アモンド,0
1290,5011101106119,新規,0,2024-02-07,2024-02-07,株式会社ユピテル,,株式会社,東京都,新宿区,新宿３丁目３４番３号,,13,104,1600022,,,,,,,2024-02-07,1,,,,,ユピテル,0
1292,5011103014063,新規,0,2024-02-07,2024-02-07,イカズデザイン合同会社,,合同会社,東京都,新宿区,西新宿３丁目３番１３号西新宿水間ビル６階,,13,104,1600023,,,,,,,2024-02-07,1,,,,,イカズデザイン,0
1293,5011103014071,新規,0,2024-02-07,2024-02-07,合同会社美ｋｏｉ,,合同会社,東京都,新宿区,歌舞伎町２丁目２０番９号三経７５ビル５ＦＡ,,13,104,1600021,,,,,,,2024-02-07,1,,,,,ビコイ,0
1295,5011401025844,新規,0,2024-02-07,2024-02-07,株式会社ＦＦＵ,,株式会社,東京都,板橋区,南常盤台１丁目３４番２－３０４号ウィスティリアときわ台,,13,119,1740072,,,,,,,2024-02-07,1,,,,,エフエフユー,0
1296,5011403004268,新規,0,2024-02-07,2024-02-07,合同会社ストーリーテラー,,合同会社,東京都,板橋区,中板橋１番１７号,,13,119,1730016,,,,,,,2024-02-07,1,,,,,ストーリーテラー,0
1301,5011701026996,新規,0,2024-02-07,2024-02-07,豊栄リアルエステート株式会社,,株式会社,東京都,江戸川区,西葛西６丁目１７番５号,,13,123,1340088,,,,,,,2024-02-07,1,,,,,ホウエイリアルエステート,0
1310,5013303006996,新規,0,2024-02-07,2024-02-07,合同会社ＲＩＶＡＬ,,合同会社,東京都,豊島区,池袋１丁目１番２号サンハイツときわ５０４,,13,116,1700014,,,,,,,2024-02-07,1,,,,,ライバル,0
1315,5020001155621,新規,0,2024-02-07,2024-02-07,株式会社ミツハ,,株式会社,神奈川県,川崎市川崎区,浅田４丁目１番９号,,14,131,2100847,,,,,,,2024-02-07,1,,,,,ミツハ,0
1316,5020001155695,新規,0,2024-02-07,2024-02-07,株式会社トライアンフ,,株式会社,神奈川県,川崎市川崎区,中瀬３丁目２０番１５－９２１号,,14,131,2100818,,,,,,,2024-02-07,1,,,,,トライアンフ,0
1317,5020001155712,新規,0,2024-02-07,2024-02-07,アサッテ・クリエイション株式会社,,株式会社,神奈川県,横浜市西区,北幸２丁目１０番４８号むつみビル３階,,14,103,2200004,,,,,,,2024-02-07,1,,,,,アサッテクリエイション,0
1318,5020001155720,新規,0,2024-02-07,2024-02-07,株式会社ＮＡＧＩ,,株式会社,神奈川県,横浜市栄区,犬山町６５番８号,,14,115,2470026,,,,,,,2024-02-07,1,,,,,ナギ,0
1319,5020001155737,新規,0,2024-02-07,2024-02-07,株式会社ｋｏｋｏａｋａｒｉ,,株式会社,神奈川県,横浜市神奈川区,金港町５－１４クアドリフォリオ８階,,14,102,2210056,,,,,,,2024-02-07,1,,,,,ココアカリ,0
1321,5020003025500,新規,0,2024-02-07,2024-02-07,合同会社サンクス,,合同会社,神奈川県,横浜市鶴見区,東寺尾東台１８－８－３,,14,101,2300018,,,,,,,2024-02-07,1,,,,,サンクス,0
1324,5020005016274,新規,0,2024-02-07,2024-02-07,一般社団法人ａｓｓｏｃｉａｔｉｏｎｓ,,その他の設立登記法人,神奈川県,横浜市西区,北幸１丁目１１番１５号横浜ＳＴビル地下１階,,14,103,2200004,,,,,,,2024-02-07,1,,,,,アソシエーションズ,0
1329,5021001081361,新規,0,2024-02-07,2024-02-07,ＩＩＩｒｉｓ株式会社,,株式会社,神奈川県,相模原市中央区,相模原４丁目５－１－４０１,,14,152,2520231,,,,,,,2024-02-07,1,,,,,アイリス,0
1331,5021003014105,新規,0,2024-02-07,2024-02-07,合同会社ＤｏｕｂｌｅＭａｓａＢｒｏｔｈｅｒｓ,,合同会社,神奈川県,藤沢市,鵠沼松が岡４丁目６－９,00133646,14,205,2510038,,,,,,,2024-02-07,1,,,,,ダブルマサブラザーズ,0
1335,5030001158499,新規,0,2024-02-07,2024-02-07,ＡＤＲＩＡ株式会社,,株式会社,埼玉県,志木市,本町５丁目２４番２１号ＳＨＩＫＩＳＭ４Ｆ,,11,228,3530004,,,,,,,2024-02-07,1,,,,,アドリア,0
1336,5030001158508,新規,0,2024-02-07,2024-02-07,株式会社ニコラコンサルティング,,株式会社,埼玉県,戸田市,上戸田３丁目６番２５－１０２号,,11,224,3350022,,,,,,,2024-02-07,1,,,,,ニコラコンサルティング,0
1337,5030001158540,新規,0,2024-02-07,2024-02-07,株式会社吉田住設,,株式会社,埼玉県,所沢市,上新井５丁目８０番地の３８,,11,208,3591142,,,,,,,2024-02-07,1,,,,,ヨシダジュウセツ,0
1338,5030001158565,新規,0,2024-02-07,2024-02-07,吉岡精機株式会社,,株式会社,埼玉県,川越市,砂新田３丁目１１番地２２,,11,201,3501137,,,,,,,2024-02-07,1,,,,,ヨシオカセイキ,0
1340,5030003023569,新規,0,2024-02-07,2024-02-07,合同会社国見屋,,合同会社,埼玉県,さいたま市南区,辻１丁目５番１３－３０７号,00133651,11,108,3360026,,,,,,,2024-02-07,1,,,,,クニミヤ,0
1345,5040001132024,新規,0,2024-02-07,2024-02-07,東昇貿易株式会社,,株式会社,千葉県,松戸市,西馬橋蔵元町５５番地２Ｆ,,12,207,2710046,,,,,,,2024-02-07,1,,,,,トウショウボウエキ,0
1346,5040001132057,新規,0,2024-02-07,2024-02-07,Ｍｏｌｉｎｏ　Ｃａｍｐｏ　Ｎｏｂｌｅ株式会社,,株式会社,千葉県,柏市,布施新町２丁目８番１４号,,12,217,2770823,,,,,,,2024-02-07,1,,,,,モリーノカンポノブレ,0
1351,5040003024293,新規,0,2024-02-07,2024-02-07,進誠テクノ防災設備合同会社,,合同会社,千葉県,松戸市,八ケ崎３丁目３７番地の４４,,12,207,2700023,,,,,,,2024-02-07,1,,,,,シンセイテクノボウサイセツビ,0
1357,5050003008122,新規,0,2024-02-07,2024-02-07,億生完美合同会社,,合同会社,茨城県,取手市,戸頭７３５番地５,,08,217,3020034,,,,,,,2024-02-07,1,,,,,オクセイカンビ,0
1361,5080003003129,新規,0,2024-02-07,2024-02-07,ｕｓｅｄ‐ＯＡ合同会社,,合同会社,静岡県,静岡市清水区,山切１０２番地５６号,,22,103,4240105,,,,,,,2024-02-07,1,,,,,ユーズドオーエー,0
1365,5080401026994,新規,0,2024-02-07,2024-02-07,株式会社木中産業,,株式会社,静岡県,浜松市中央区,上島６丁目１番３０号,,22,138,4338122,,,,,,,2024-02-07,1,,,,,キナカサンギョウ,0
1366,5080402007952,新規,0,2024-02-07,2024-02-07,有限会社三方原電気工事,,有限会社,静岡県,浜松市中央区,三方原町２８２番地の２,,22,138,4338105,,,,,,,2024-02-07,1,,,,,ミカタバラデンキコウジ,0
1375,5090005007606,新規,0,2024-02-07,2024-02-07,ヒューマンリソース協同組合,,その他の設立登記法人,山梨県,中央市,一町畑９１２番地１,,19,214,4093813,,,,,,,2024-02-07,1,,,,,ヒューマンリソース,0
1383,5110003005278,新規,0,2024-02-07,2024-02-07,合同会社スーマック,,合同会社,新潟県,村上市,松原町１丁目４番７号,,15,212,9580032,,,,,,,2024-02-07,1,,,,,スーマック,0
1398,5120001261913,新規,0,2024-02-07,2024-02-07,龍＿美術品株式会社,00133644,株式会社,大阪府,大阪市西淀川区,柏里２丁目７番２６号ラ・ピース塚本１０１号室,,27,113,5550022,,,,,,,2024-02-07,1,,,,,リュウコウビジュツヒン,0
1399,5120001262028,新規,0,2024-02-07,2024-02-07,プログレスコンサルティング株式会社,,株式会社,大阪府,大阪市西区,北堀江１丁目５番２号四ツ橋新興産ビル３階１０号室,,27,106,5500014,,,,,,,2024-02-07,1,,,,,プログレスコンサルティング,0
1400,5120001262036,新規,0,2024-02-07,2024-02-07,株式会社禄壱,,株式会社,大阪府,大阪市中央区,本町４丁目８番１号ＳＤ本町ビル７０２号,,27,128,5410053,,,,,,,2024-02-07,1,,,,,ロクイチ,0
1401,5120001262044,新規,0,2024-02-07,2024-02-07,ＥｃｏＷａｓｈ　Ｔｅｃｈ　ＪＰ株式会社,,株式会社,大阪府,大阪市東成区,深江北３丁目４番２１号エクラ深江橋２０２Ａ,,27,115,5370001,,,,,,,2024-02-07,1,,,,,エコウオッシュテックジェイピー,0
1402,5120001262052,新規,0,2024-02-07,2024-02-07,株式会社豊島基礎,,株式会社,大阪府,大阪市城東区,新喜多東１丁目９番７号,,27,118,5360017,,,,,,,2024-02-07,1,,,,,トヨシマキソ,0
1403,5120001262060,新規,0,2024-02-07,2024-02-07,株式会社エンプティサーチ,,株式会社,大阪府,大阪市北区,堂島１丁目１番５号,,27,127,5300003,,,,,,,2024-02-07,1,,,,,エンプティサーチ,0
1404,5120001262069,新規,0,2024-02-07,2024-02-07,株式会社ａｌｕｍｏｎｅ,,株式会社,大阪府,大阪市西区,北堀江１丁目６番１２－四ツ橋中央ビル３０３,,27,106,5500014,,,,,,,2024-02-07,1,,,,,アルモネ,0
1405,5120001262085,新規,0,2024-02-07,2024-02-07,株式会社メディライズ,,株式会社,大阪府,大阪市中央区,谷町４丁目６番３号シーダプレイスＩＩ４０２号,00133643,27,128,5400012,,,,,,,2024-02-07,1,,,,,メディライズ,0
1411,5120005024143,新規,0,2024-02-07,2024-02-07,なにわ警備業協同組合,,その他の設立登記法人,大阪府,大阪市西区,北堀江１丁目５番２号７階８号室,,27,106,5500014,,,,,,,2024-02-07,1,,,,,ナニワケイビギョウ,0
1425,5130001076294,新規,0,2024-02-07,2024-02-07,株式会社優,,株式会社,京都府,亀岡市,篠町夕日ケ丘３丁目１５番地５,,26,206,6210829,,,,,,,2024-02-07,1,,,,,ユウ,0
1426,5130001076303,新規,0,2024-02-07,2024-02-07,ＣＯＭＭＯＮ株式会社,,株式会社,京都府,京都市下京区,花屋町通櫛笥西入薬園町１７０番地２,,26,106,6008823,,,,,,,2024-02-07,1,,,,,コモン,0
1428,5130003009293,新規,0,2024-02-07,2024-02-07,Ｒｅｔｒｏ　Ｍｏｄｅｒｎ　ＫＹＯＴＯ合同会社,,合同会社,京都府,京都市伏見区,深草勧進橋町６２番地,,26,109,6128405,,,,,,,2024-02-07,1,,,,,レトロモダンキョウト,0
1436,5140001133202,新規,0,2024-02-07,2024-02-07,株式会社ビューテック・アイ,,株式会社,兵庫県,尼崎市,栗山町２丁目１６番１０号パティオベル２０２,,28,202,6610013,,,,,,,2024-02-07,1,,,,,ビューテックアイ,0
1437,5140001133268,新規,0,2024-02-07,2024-02-07,株式会社ダイヤエナジー,,株式会社,兵庫県,高砂市,伊保３丁目５番４号,,28,216,6760078,,,,,,,2024-02-07,1,,,,,ダイヤエナジー,0
1441,5140003020126,新規,0,2024-02-07,2024-02-07,合同会社シゲテック,,合同会社,兵庫県,加西市,鍛治屋町６８８番地の５,,28,220,6752412,,,,,,,2024-02-07,1,,,,,シゲテック,0
1442,5140003020134,新規,0,2024-02-07,2024-02-07,合同会社Ｈ．Ｕ．Ｇ,,合同会社,兵庫県,伊丹市,昆陽３丁目５４番地,,28,207,6640881,,,,,,,2024-02-07,1,,,,,エイチユージー,0
1443,5150001027064,新規,0,2024-02-07,2024-02-07,Ａ’ｓｕ株式会社,,株式会社,奈良県,奈良市,今辻子町４５番地の２,00133659,29,201,6308243,,,,,,,2024-02-07,1,,,,,アッス,0
1451,5180001160060,新規,0,2024-02-07,2024-02-07,株式会社ワンデー,,株式会社,愛知県,名古屋市東区,泉１丁目４番６号グリーンハイツ外堀通り３０５号室,,23,102,4610001,,,,,,,2024-02-07,1,,,,,ワンデー,0
1452,5180001160069,新規,0,2024-02-07,2024-02-07,株式会社ＰＲＯＮ,,株式会社,愛知県,名古屋市西区,玉池町１２３番地,,23,104,4520812,,,,,,,2024-02-07,1,,,,,プロン,0
1453,5180001160093,新規,0,2024-02-07,2024-02-07,株式会社リライト,,株式会社,愛知県,名古屋市港区,小碓３丁目２４０番地の２,,23,111,4550801,,,,,,,2024-02-07,1,,,,,リライト,0
1454,5180002021724,新規,0,2024-02-07,2024-02-07,有限会社大藤工業,,有限会社,愛知県,名古屋市天白区,元八事５丁目１４８番地,,23,116,4680066,,,,,,,2024-02-07,1,,,,,ダイトウコウギョウ,0
1458,5180003026326,新規,0,2024-02-07,2024-02-07,合同会社Ｍ’ｓ　ＯＨＡＮＡ,,合同会社,愛知県,名古屋市天白区,天白町大字平針字黒石２８７８番地の３６３３,,23,116,4680021,,,,,,,2024-02-07,1,,,,,エムズオハナ,0
1461,5190001031087,新規,0,2024-02-07,2024-02-07,株式会社矢野運送,,株式会社,三重県,三重郡朝日町,大字柿１３６１番地３,,24,343,5108103,,,,,,,2024-02-07,1,,,,,ヤノウンソウ,0
1463,5200001042132,新規,0,2024-02-07,2024-02-07,澤制作株式会社,,株式会社,岐阜県,加茂郡川辺町,中川辺３９０番地１,,21,503,5090304,,,,,,,2024-02-07,1,,,,,サワセイサク,0
1467,5210001019625,新規,0,2024-02-07,2024-02-07,株式会社明商事,,株式会社,福井県,坂井市,丸岡町下安田第１４号１番地２９,,18,210,9100363,,,,,,,2024-02-07,1,,,,,ミンショウジ,0
1475,5240001062762,新規,0,2024-02-07,2024-02-07,株式会社ＥＬＦ,,株式会社,広島県,広島市中区,西川口町６番１―７０４号,,34,101,7300846,,,,,,,2024-02-07,1,,,,,イーエルエフ,0
1479,5250001020505,新規,0,2024-02-07,2024-02-07,株式会社イム,,株式会社,山口県,岩国市,岩国１丁目２０番４６号,,35,208,7410062,,,,,,,2024-02-07,1,,,,,イム,0
1482,5280001009116,新規,0,2024-02-07,2024-02-07,月明株式会社,,株式会社,島根県,松江市,伊勢宮町５０６番地,,32,201,6900006,,,,,,,2024-02-07,1,,,,,,0
1485,5290001104634,新規,0,2024-02-07,2024-02-07,株式会社ＷＡＫＡＳＵ,,株式会社,福岡県,福岡市博多区,春町１丁目７番１１号,,40,132,8120872,,,,,,,2024-02-07,1,,,,,ワカス,0
1487,5290003014939,新規,0,2024-02-07,2024-02-07,ＳＡＭＷＯＯ　ＣＯＭＰＡＮＹ合同会社,,合同会社,福岡県,福岡市博多区,祇園町８番１３号,,40,132,8120038,,,,,,,2024-02-07,1,,,,,サムカンパニー,0
1490,5290801030286,新規,0,2024-02-07,2024-02-07,株式会社ＳＡＤＡＣＫ,,株式会社,福岡県,北九州市門司区,田野浦海岸５番１号,,40,101,8010804,,,,,,,2024-02-07,1,,,,,サダック,0
1494,5290803004610,新規,0,2024-02-07,2024-02-07,合同会社Ｏｆｆｉｃｅ　Ｔｒｕｅ,,合同会社,福岡県,宮若市,鶴田２０３４番地１０,,40,226,8230002,,,,,,,2024-02-07,1,,,,,オフィストゥルー,0
1495,5310001018848,新規,0,2024-02-07,2024-02-07,株式会社颯樹工業,,株式会社,長崎県,長崎市,戸石町６８１番地６,,42,201,8510113,,,,,,,2024-02-07,1,,,,,サツキコウギョウ,0
1501,5320001020282,新規,0,2024-02-07,2024-02-07,株式会社明日佳,,株式会社,大分県,大分市,大字金谷迫１２７６番地の４２,,44,201,8700879,,,,,,,2024-02-07,1,,,,,アスカ,0
1508,5360001033165,新規,0,2024-02-07,2024-02-07,株式会社ＬＩＭｐｒｏｊｅｃｔｓ,,株式会社,沖縄県,中頭郡北中城村,字ライカム５５４番地ベアーズコートライカムグランデ６０１,,47,327,9012306,,,,,,,2024-02-07,1,,,,,リムプロジェクツ,0
1509,5360003013685,新規,0,2024-02-07,2024-02-07,合同会社信栄,,合同会社,沖縄県,うるま市,字川崎４１０番地２,,47,213,9042203,,,,,,,2024-02-07,1,,,,,シンエイ,0
1522,5440005002769,新規,0,2024-02-07,2024-02-07,一般社団法人みなみ北海道地域づくりサポートセンター,,その他の設立登記法人,北海道,函館市,美原４丁目２６番１７号,,01,202,0410806,,,,,,,2024-02-07,1,,,,,ミナミホッカイドウチイキヅクリサポートセンター,0
1531,5480002016272,新規,0,2024-02-07,2024-02-07,有限会社淡水荘,,有限会社,徳島県,那賀郡那賀町,竹ヶ谷字長門１４７番地,,36,368,7715329,,,,,,,2024-02-07,1,,,,,,0
1548,6010001242089,新規,0,2024-02-07,2024-02-07,株式会社ＲａｉｚＦｕｔｕｒｅ,,株式会社,東京都,中央区,勝どき３丁目１３番２―９０１号,,13,102,1040054,,,,,,,2024-02-07,1,,,,,ライズフューチャー,0
1549,6010001242122,新規,0,2024-02-07,2024-02-07,株式会社タイガーアカデミア,,株式会社,東京都,中央区,銀座１丁目１２番４号Ｎ＆ＥＢＬＤ．６階,,13,102,1040061,,,,,,,2024-02-07,1,,,,,タイガーアカデミア,0
1550,6010001242163,新規,0,2024-02-07,2024-02-07,ゴーウェルキャリア株式会社,,株式会社,東京都,中央区,銀座３丁目８番１３号,,13,102,1040061,,,,,,,2024-02-07,1,,,,,ゴーウェルキャリア,0
1551,6010001242188,新規,0,2024-02-07,2024-02-07,株式会社ＣＬＩＰ第２４２号,,株式会社,東京都,千代田区,丸の内２丁目７番２号,,13,101,1000005,,,,,,,2024-02-07,1,,,,,シーエルアイピーダイニヒャクヨンジュウニゴウ,0
1555,6010003042850,新規,0,2024-02-07,2024-02-07,合同会社アルモワール,,合同会社,東京都,中央区,銀座３丁目１３番４号銀座スカイビル２０１号,,13,102,1040061,,,,,,,2024-02-07,1,,,,,アルモワール,0
1556,6010003042867,新規,0,2024-02-07,2024-02-07,合同会社Ｎａｎｋａ,,合同会社,東京都,文京区,根津１丁目２１－１１,,13,105,1130031,,,,,,,2024-02-07,1,,,,,ナンカ,0
1557,6010003042883,新規,0,2024-02-07,2024-02-07,合同会社ＰＦリアルティ,,合同会社,東京都,中央区,八丁堀４丁目２番１０号ＡＯＪ税理士法人内,,13,102,1040032,,,,,,,2024-02-07,1,,,,,ピーエフリアルティ,0
1558,6010003042891,新規,0,2024-02-07,2024-02-07,合同会社Ｆｕｎ　Ｉｎｎｏｖａｔｉｏｎ,,合同会社,東京都,中央区,銀座１丁目２２番１１号銀座大竹ビジデンス２Ｆ,,13,102,1040061,,,,,,,2024-02-07,1,,,,,ファンイノベーション,0
1559,6010005037840,新規,0,2024-02-07,2024-02-07,一般社団法人ＬＥＶＥＣＨＹ１３号,,その他の設立登記法人,東京都,千代田区,紀尾井町３－８第２紀尾井町ビル９０１アクシス綜合会計事務所内,,13,101,1020094,,,,,,,2024-02-07,1,,,,,レベチージュウサンゴウ,0
1560,6010005037857,新規,0,2024-02-07,2024-02-07,ソーラーヨハネホールディングス一般社団法人,,その他の設立登記法人,東京都,中央区,八丁堀４丁目２番１０号ＡＯＪ税理士法人内,,13,102,1040032,,,,,,,2024-02-07,1,,,,,ソーラーヨハネホールディングス,0
1561,6010101015989,新規,0,2024-02-07,2024-02-07,株式会社ＡＣＴ,,株式会社,東京都,八王子市,長房町３０３－４,,13,201,1930824,,,,,,,2024-02-07,1,,,,,エーシーティー,0
1579,6010401180228,新規,0,2024-02-07,2024-02-07,ＡｍｅｒｉｃａｎＣｌｉｎｉｃＭａｎａｇｅｍｅｎｔ株式会社,,株式会社,東京都,港区,赤坂１丁目７－４ＮＯ．１ニイクラビル３階,,13,103,1070052,,,,,,,2024-02-07,1,,,,,アメリカンクリニックマネジメント,0
1580,6010401180244,新規,0,2024-02-07,2024-02-07,株式会社イシザカビル,,株式会社,東京都,港区,芝浦３丁目１２番５号石阪ビル８Ｆ,,13,103,1080023,,,,,,,2024-02-07,1,,,,,イシザカビル,0
1584,6010403031908,新規,0,2024-02-07,2024-02-07,サステイナブルエネルギー２合同会社,,合同会社,東京都,港区,芝公園２丁目２番１０号中和ビル３階,,13,103,1050011,,,,,,,2024-02-07,1,,,,,サステイナブルエネルギーツー,0
1585,6010405022946,新規,0,2024-02-07,2024-02-07,ジャパンロジスティクス３一般社団法人,,その他の設立登記法人,東京都,港区,六本木１丁目９番１０号アークヒルズ仙石山森タワー４０階,,13,103,1060032,,,,,,,2024-02-07,1,,,,,ジャパンロジスティクススリー,0
1590,6010601064569,新規,0,2024-02-07,2024-02-07,Ｒ＆Ｔ株式会社,,株式会社,東京都,墨田区,江東橋３丁目２－２－３０６号,,13,107,1300022,,,,,,,2024-02-07,1,,,,,アールアンドティー,0
1593,6010603010620,新規,0,2024-02-07,2024-02-07,合同会社昇,,合同会社,東京都,江東区,東雲１丁目９番４－２１１４号,,13,108,1350062,,,,,,,2024-02-07,1,,,,,ノボル,0
1604,6010901054682,新規,0,2024-02-07,2024-02-07,株式会社ＣｅｌｌＥＡＲＴＨ,,株式会社,東京都,世田谷区,祖師谷３丁目８番１１号１階,,13,112,1570072,,,,,,,2024-02-07,1,,,,,セルアース,0
1606,6010903008802,新規,0,2024-02-07,2024-02-07,Ｄｉｉｖａ合同会社,,合同会社,東京都,世田谷区,北沢３丁目２７－４立木ビル２Ｆ,,13,112,1550031,,,,,,,2024-02-07,1,,,,,ディーバ,0
1614,6011001159728,新規,0,2024-02-07,2024-02-07,ＬＩＤＤＴＨＲＯＵＧＨＳ株式会社,,株式会社,東京都,渋谷区,道玄坂１丁目１０番８号渋谷道玄坂東急ビル２Ｆ－Ｃ,,13,113,1500043,,,,,,,2024-02-07,1,,,,,リッドスルーズ,0
1615,6011001159851,新規,0,2024-02-07,2024-02-07,株式会社Ｙａｋｕｓｈｉｎ,,株式会社,東京都,渋谷区,渋谷３丁目６－２０第５矢木ビル５Ｆ,,13,113,1500002,,,,,,,2024-02-07,1,,,,,,0
1618,6011101106134,新規,0,2024-02-07,2024-02-07,農業化学株式会社,,株式会社,東京都,新宿区,西新宿３丁目３番１３号西新宿水間ビル６階,,13,104,1600023,,,,,,,2024-02-07,1,,,,,ノウギョウカガク,0
1621,6011103014070,新規,0,2024-02-07,2024-02-07,合同会社ウィンター,,合同会社,東京都,新宿区,大久保１丁目１番１５号ベルバウム１００２号室,,13,104,1690072,,,,,,,2024-02-07,1,,,,,ウィンター,0
1627,6011301029390,新規,0,2024-02-07,2024-02-07,Ｉｎｆｉｎｉｔｅ　Ｏｐｕｓ株式会社,,株式会社,東京都,杉並区,和泉２丁目６番７－３１３号グローリオ明大前,,13,115,1680063,,,,,,,2024-02-07,1,,,,,インフィニットオーパス,0
1628,6011303005051,新規,0,2024-02-07,2024-02-07,Ｌ＆Ｊ合同会社,,合同会社,東京都,杉並区,善福寺４丁目１２番１５号,,13,115,1670041,,,,,,,2024-02-07,1,,,,,エルアンドジェー,0
1636,6011801043742,新規,0,2024-02-07,2024-02-07,金倉貿易株式会社,,株式会社,東京都,足立区,西新井本町５丁目２番４－２０３号,,13,121,1230845,,,,,,,2024-02-07,1,,,,,カネクラボウエキ,0
1637,6011801043759,新規,0,2024-02-07,2024-02-07,優可株式会社,,株式会社,東京都,葛飾区,西新小岩５丁目２８番２０号,,13,122,1240025,,,,,,,2024-02-07,1,,,,,ユウカ,0
1641,6012401041483,新規,0,2024-02-07,2024-02-07,株式会社ＮＥＷ,,株式会社,東京都,多摩市,和田６７４番地の１０,,13,224,2060001,,,,,,,2024-02-07,1,,,,,ニュー,0
1642,6013301052034,新規,0,2024-02-07,2024-02-07,株式会社アンブロシア,,株式会社,東京都,豊島区,南大塚２丁目２５番１３号,,13,116,1700005,,,,,,,2024-02-07,1,,,,,アンブロシア,0
1652,6020001155661,新規,0,2024-02-07,2024-02-07,株式会社ＫＳメンテナンス,,株式会社,神奈川県,横浜市南区,通町２丁目４１番地１ポートハイム弘明寺第三４０７,,14,105,2320056,,,,,,,2024-02-07,1,,,,,ケーエスメンテナンス,0
1653,6020001155678,新規,0,2024-02-07,2024-02-07,リスコンサルティング株式会社,,株式会社,神奈川県,川崎市麻生区,上麻生１丁目１０－５渡辺ビル２０３,,14,137,2150021,,,,,,,2024-02-07,1,,,,,リスコンサルティング,0
1654,6020001155686,新規,0,2024-02-07,2024-02-07,株式会社Ｒｕｎｄｏｔｓ,,株式会社,神奈川県,川崎市幸区,柳町３５‐１‐１０３,,14,132,2120015,,,,,,,2024-02-07,1,,,,,ランドッツ,0
1655,6020001155711,新規,0,2024-02-07,2024-02-07,株式会社ＮＥＫＯＮＯＴＥ,,株式会社,神奈川県,横浜市中区,初音町３丁目５９番地１フェニックスヨコハマスクエア６０２,,14,104,2310053,,,,,,,2024-02-07,1,,,,,ネコノテ,0
1656,6020001155736,新規,0,2024-02-07,2024-02-07,株式会社アール,,株式会社,神奈川県,横浜市神奈川区,菅田町１６０２番地サンモール富士塚Ｉ－６０１号,00133660,14,102,2210864,,,,,,,2024-02-07,1,,,,,,0
1660,6020003025474,新規,0,2024-02-07,2024-02-07,合同会社雷電,,合同会社,神奈川県,川崎市高津区,諏訪３丁目１３番２１－１号,,14,134,2130004,,,,,,,2024-02-07,1,,,,,,0
1661,6020003025499,新規,0,2024-02-07,2024-02-07,合同会社Ｒｏｄ　Ｍａｎ,,合同会社,神奈川県,横浜市緑区,鴨居４丁目１番９号鴨居もぐら横丁,,14,113,2260003,,,,,,,2024-02-07,1,,,,,ロッドマン,0
1662,6020003025516,新規,0,2024-02-07,2024-02-07,クリエーターＸ合同会社,,合同会社,神奈川県,川崎市川崎区,渡田１丁目１７番１―６０２号,,14,131,2100837,,,,,,,2024-02-07,1,,,,,クリエーターエックス,0
1665,6021001081393,新規,0,2024-02-07,2024-02-07,株式会社協和リアルティー,,株式会社,神奈川県,藤沢市,辻堂１丁目１２番５１号,,14,205,2510047,,,,,,,2024-02-07,1,,,,,キョウワリアルティー,0
1666,6021001081419,新規,0,2024-02-07,2024-02-07,株式会社飯島電気工事,,株式会社,神奈川県,三浦市,南下浦町金田９９１,,14,210,2380103,,,,,,,2024-02-07,1,,,,,イイジマデンキコウジ,0
1667,6021003014137,新規,0,2024-02-07,2024-02-07,Ｓｗｅｅｔｉｎｇ合同会社,,合同会社,神奈川県,平塚市,千石河岸４－１４,,14,203,2540803,,,,,,,2024-02-07,1,,,,,スウィーティング,0
1669,6030001158481,新規,0,2024-02-07,2024-02-07,株式会社レイズプロジェクト,,株式会社,埼玉県,朝霞市,三原３丁目３１番９－２０５号,,11,227,3510025,,,,,,,2024-02-07,1,,,,,レイズプロジェクト,0
1670,6030001158498,新規,0,2024-02-07,2024-02-07,株式会社ホットスタッフ白岡,,株式会社,埼玉県,白岡市,新白岡７丁目１０番地１１サンガーデン１階,,11,246,3490212,,,,,,,2024-02-07,1,,,,,ホットスタッフシラオカ,0
1676,6030003023592,新規,0,2024-02-07,2024-02-07,合同会社セプテンバームーン,,合同会社,埼玉県,さいたま市大宮区,上小町６６５番地５,,11,103,3300855,,,,,,,2024-02-07,1,,,,,セプテンバームーン,0
1680,6040001132023,新規,0,2024-02-07,2024-02-07,株式会社ＭＯＯＮ　ＨＥＡＲＴ,,株式会社,千葉県,市川市,市川３丁目２９－７ＫＳビル１階,,12,203,2720034,,,,,,,2024-02-07,1,,,,,ムーンハート,0
1681,6040001132056,新規,0,2024-02-07,2024-02-07,ＴＳカンパニー株式会社,,株式会社,千葉県,柏市,藤心７６番地５,,12,217,2770034,,,,,,,2024-02-07,1,,,,,ティーエスカンパニー,0
1682,6040003024243,新規,0,2024-02-07,2024-02-07,合同会社レント５１,,合同会社,千葉県,市川市,高石神３１番１７号,,12,203,2720814,,,,,,,2024-02-07,1,,,,,レントゴジュウイチ,0
1683,6040003024268,新規,0,2024-02-07,2024-02-07,スターブリッジ合同会社,,合同会社,千葉県,柏市,ひばりが丘８－１５－３Ｆ,,12,217,2770088,,,,,,,2024-02-07,1,,,,,スターブリッジ,0
1684,6040005022278,新規,0,2024-02-07,2024-02-07,一般社団法人ＪＰＭＵタトゥーアーティスト協会,,その他の設立登記法人,千葉県,船橋市,本町７丁目４番１５号３Ｆ,,12,204,2730005,,,,,,,2024-02-07,1,,,,,ジェイピーエムユータトゥーアーティストキョウカイ,0
1685,6050001054217,新規,0,2024-02-07,2024-02-07,株式会社ホンマ,,株式会社,茨城県,日立市,東多賀町２丁目１６番１９号,,08,202,3160004,,,,,,,2024-02-07,1,,,,,ホンマ,0
1687,6050003008113,新規,0,2024-02-07,2024-02-07,合同会社ｒｅｖｅ,,合同会社,茨城県,猿島郡境町,２２８８－６,,08,546,3060433,,,,,,,2024-02-07,1,,,,,レーヴ,0
1694,6080001026122,新規,0,2024-02-07,2024-02-07,株式会社エヌケーシー,,株式会社,静岡県,静岡市葵区,新富町２丁目２６－１９ＯＳビル１Ｆ,,22,101,4200061,,,,,,,2024-02-07,1,,,,,エヌケーシー,0
1695,6080101024521,新規,0,2024-02-07,2024-02-07,外岡興業株式会社,,株式会社,静岡県,下田市,白浜１２４７番地の１,,22,219,4150012,,,,,,,2024-02-07,1,,,,,トノオカコウギョウ,0
1698,6080103002979,新規,0,2024-02-07,2024-02-07,Ｙｏｃｈｉ合同会社,,合同会社,静岡県,富士市,森下４５番地の１２,,22,210,4160949,,,,,,,2024-02-07,1,,,,,ヨチ,0
1709,6090003002491,新規,0,2024-02-07,2024-02-07,合同会社ゆう,,合同会社,山梨県,甲府市,塩部３丁目３番８号,,19,201,4000026,,,,,,,2024-02-07,1,,,,,ユウ,0
1712,6100005013114,新規,0,2024-02-07,2024-02-07,一般社団法人北信無人航空機プロジェクト,,その他の設立登記法人,長野県,上水内郡飯綱町,大字普光寺１１００番２,,20,590,3891206,,,,,,,2024-02-07,1,,,,,ホクシンムジンコウクウキプロジェクト,0
1713,6110001038163,新規,0,2024-02-07,2024-02-07,株式会社とかいなか,,株式会社,新潟県,燕市,穀町４－１７,,15,213,9591256,,,,,,,2024-02-07,1,,,,,トカイナカ,0
1724,6120001261937,新規,0,2024-02-07,2024-02-07,ＡＡＬコンサルティング株式会社,,株式会社,大阪府,守口市,金下町１丁目８番９－３０４号,,27,209,5700079,,,,,,,2024-02-07,1,,,,,アールコンサルティング,0
1725,6120001261994,新規,0,2024-02-07,2024-02-07,株式会社三星ドレス,,株式会社,大阪府,大阪市東成区,東小橋２丁目１０番２７号,,27,115,5370024,,,,,,,2024-02-07,1,,,,,ミツボシドレス,0
1726,6120001262126,新規,0,2024-02-07,2024-02-07,ＹＬＦ株式会社,,株式会社,大阪府,大阪市都島区,中野町２丁目４番１９－４０３号,,27,102,5340027,,,,,,,2024-02-07,1,,,,,ワイエルエフ,0
1727,6120001262142,新規,0,2024-02-07,2024-02-07,株式会社楽居,,株式会社,大阪府,大阪市中央区,日本橋２丁目１６番１０－７０４号,,27,128,5420073,,,,,,,2024-02-07,1,,,,,ラクイ,0
1729,6120003025877,新規,0,2024-02-07,2024-02-07,合同会社プルラ,,合同会社,大阪府,大阪市西区,北堀江４丁目１４番１号旭ビル４０１,,27,106,5500014,,,,,,,2024-02-07,1,,,,,プルラ,0
1731,6120101069009,新規,0,2024-02-07,2024-02-07,ＪＫ　ＳＫＹ株式会社,,株式会社,大阪府,泉佐野市,高松北１丁目９番３２号,,27,213,5980011,,,,,,,2024-02-07,1,,,,,ジェイケイスカイ,0
1732,6120101069017,新規,0,2024-02-07,2024-02-07,株式会社Ａｌｌａｕｇｈ,,株式会社,大阪府,和泉市,青葉台１丁目７－１,,27,219,5941153,,,,,,,2024-02-07,1,,,,,オラフ,0
1734,6120901048748,新規,0,2024-02-07,2024-02-07,ＦＬＰ株式会社,,株式会社,大阪府,吹田市,千里山西５丁目４６番１３号,,27,205,5650851,,,,,,,2024-02-07,1,,,,,エフエルピー,0
1735,6120903005045,新規,0,2024-02-07,2024-02-07,合同会社ＢＭＯ商店,,合同会社,大阪府,箕面市,粟生間谷東５丁目３４番６号（２０１号）,,27,220,5620022,,,,,,,2024-02-07,1,,,,,ビーエムオーショウテン,0
1744,6130001076302,新規,0,2024-02-07,2024-02-07,辻本建設株式会社,00133647,株式会社,京都府,木津川市,加茂町大野西丑谷５１番地,00133648,26,214,6191142,,,,,,,2024-02-07,1,,,,,ツジモトケンセツ,0
1746,6130003009284,新規,0,2024-02-07,2024-02-07,合同会社Ｋ＆Ａ,,合同会社,京都府,京都市右京区,西京極浜ノ本町４６番地６,,26,108,6150873,,,,,,,2024-02-07,1,,,,,ケーアンドエー,0
1752,6140001133201,新規,0,2024-02-07,2024-02-07,株式会社Ｖｉｃｔｏｒ,,株式会社,兵庫県,淡路市,志筑新島１０－４６アストラ淡路ビル３０３号,,28,226,6562132,,,,,,,2024-02-07,1,,,,,ヴィクター,0
1753,6140001133234,新規,0,2024-02-07,2024-02-07,株式会社Ｂｅａｕｔｙ　ＣＡＳＡ,,株式会社,兵庫県,神戸市中央区,磯辺通１丁目１番１８号カサベラ国際プラザビル７０７号室,,28,110,6510084,,,,,,,2024-02-07,1,,,,,ビューティカサ,0
1754,6140001133267,新規,0,2024-02-07,2024-02-07,株式会社Ｊ＆Ｋ,,株式会社,兵庫県,神戸市中央区,熊内町５丁目２番３５－２０７号,,28,110,6510056,,,,,,,2024-02-07,1,,,,,ジェイアンドケイ,0
1755,6140001133275,新規,0,2024-02-07,2024-02-07,エスリンク株式会社,,株式会社,兵庫県,明石市,田町１丁目１０番４５号フルール田町１階,,28,203,6730025,,,,,,,2024-02-07,1,,,,,エスリンク,0
1758,6140003020141,新規,0,2024-02-07,2024-02-07,ＮＥＸＴＥＰ合同会社,,合同会社,兵庫県,神戸市長田区,雲雀ヶ丘３丁目６－４ヴィラナリー雲雀ヶ丘４号棟２０８号室,,28,106,6530879,,,,,,,2024-02-07,1,,,,,ネクステップ,0
1764,6180001160027,新規,0,2024-02-07,2024-02-07,株式会社ｖｅｎｔｅｓ,,株式会社,愛知県,瀬戸市,古瀬戸町２番地の１６,,23,204,4890032,,,,,,,2024-02-07,1,,,,,ベンテス,0
1765,6180001160035,新規,0,2024-02-07,2024-02-07,株式会社Ｋ２‐Ｗｏｒｋｓ,,株式会社,愛知県,長久手市,市が洞２丁目１１１０番地,,23,238,4801147,,,,,,,2024-02-07,1,,,,,ケーツーワークス,0
1766,6180001160068,新規,0,2024-02-07,2024-02-07,株式会社ＴＯＫＹ　ＪＡＰＡＮ,,株式会社,愛知県,あま市,本郷花ノ木１０４番地１,,23,237,4901116,,,,,,,2024-02-07,1,,,,,トーキージャパン,0
1767,6180001160076,新規,0,2024-02-07,2024-02-07,株式会社Ｂ　ｅｉｇｈｔ,,株式会社,愛知県,尾張旭市,旭前町１丁目７番地１旭前ハイツＥ－２０２,,23,226,4880855,,,,,,,2024-02-07,1,,,,,ビーエイト,0
1771,6180003026325,新規,0,2024-02-07,2024-02-07,合同会社ＧａＮＶａＬ,,合同会社,愛知県,名古屋市西区,那古二丁目１４の１,,23,104,4510000,,,,,,,2024-02-07,1,,,,,ガンバル,0
1772,6180301038303,新規,0,2024-02-07,2024-02-07,株式会社ＶＩＤＥＯ　ＬＵＣＫ,,株式会社,愛知県,岡崎市,明大寺町字東長峰３９番地,,23,202,4440864,,,,,,,2024-02-07,1,,,,,ビデオラック,0
1778,6190001031078,新規,0,2024-02-07,2024-02-07,株式会社盆栽ライフ,,株式会社,三重県,伊賀市,丸柱１５６０－１,,24,216,5181325,,,,,,,2024-02-07,1,,,,,ボンサイライフ,0
1780,6190003004577,新規,0,2024-02-07,2024-02-07,合同会社ＩＲＩＧＵＣＨＩ,,合同会社,三重県,四日市市,羽津中３丁目４‐１６,,24,202,5100002,,,,,,,2024-02-07,1,,,,,イリグチ,0
1784,6230003002139,新規,0,2024-02-07,2024-02-07,合同会社サンレイ,,合同会社,富山県,高岡市,明園町８番３３－１０１号ロイヤルコート壱番館,,16,202,9330015,,,,,,,2024-02-07,1,,,,,サンレイ,0
1785,6230005009363,新規,0,2024-02-07,2024-02-07,一般社団法人テラまちコネクト,,その他の設立登記法人,富山県,南砺市,井波３０５０番地,,16,210,9320211,,,,,,,2024-02-07,1,,,,,イテラマチコネクト,0
1794,6260001038719,新規,0,2024-02-07,2024-02-07,株式会社協和タンス店,,株式会社,岡山県,備前市,伊部字向１４１０番地の１,,33,211,7050001,,,,,,,2024-02-07,1,,,,,キョウワタンステン,0
1795,6270001008919,新規,0,2024-02-07,2024-02-07,株式会社Ｍａｒｋｅｎ,,株式会社,鳥取県,境港市,上道町４６３番地１,,31,204,6840033,,,,,,,2024-02-07,1,,,,,マーケン,0
1800,6290001104625,新規,0,2024-02-07,2024-02-07,ガネーシャ株式会社,,株式会社,福岡県,福岡市中央区,天神４丁目６番２８号７階,,40,133,8100001,,,,,,,2024-02-07,1,,,,,ガネーシャ,0
1801,6290001104633,新規,0,2024-02-07,2024-02-07,株式会社ＳｏｍｕｒｉＸ,,株式会社,福岡県,福岡市博多区,祇園町８－１３第一プリンスビル１Ｆ,,40,132,8120038,,,,,,,2024-02-07,1,,,,,ソムリエックス,0
1802,6290801030293,新規,0,2024-02-07,2024-02-07,株式会社Ｒ．Ｆａｉｓ,,株式会社,福岡県,北九州市八幡西区,引野１丁目２６番１８号,,40,109,8060067,,,,,,,2024-02-07,1,,,,,リファイズ,0
1804,6300003002073,新規,0,2024-02-07,2024-02-07,合同会社ＬＩＦＡＣＴ,,合同会社,佐賀県,伊万里市,立花町３０番地１７,,41,205,8480027,,,,,,,2024-02-07,1,,,,,リフアクト,0
1805,6310003004721,新規,0,2024-02-07,2024-02-07,合同会社グラッドコンフォート,,合同会社,長崎県,長崎市,大浦東町４番２５号２号室,,42,201,8500916,,,,,,,2024-02-07,1,,,,,グラッドコンフォート,0
1807,6320001020281,新規,0,2024-02-07,2024-02-07,株式会社エビスホーム,,株式会社,大分県,大分市,萩原４丁目１５番２１号,,44,201,8700921,,,,,,,2024-02-07,1,,,,,,0
1813,6340001026260,新規,0,2024-02-07,2024-02-07,株式会社ｔａｇｏｏｄ,,株式会社,鹿児島県,奄美市,名瀬幸町１２番２２号もとじビル２階,,46,222,8940025,,,,,,,2024-02-07,1,,,,,タッグッド,0
1819,6360001033115,新規,0,2024-02-07,2024-02-07,株式会社シンフォニーラボ,,株式会社,沖縄県,豊見城市,宜保１丁目３番地１１,,47,212,9010244,,,,,,,2024-02-07,1,,,,,シンフォニーラボ,0
1822,6370001050910,新規,0,2024-02-07,2024-02-07,株式会社マルギン通商,,株式会社,宮城県,宮城郡七ヶ浜町,東宮浜字笠岩１６番地の４５,,04,404,9850804,,,,,,,2024-02-07,1,,,,,マルギンツウショウ,0
1835,6430001091015,新規,0,2024-02-07,2024-02-07,株式会社佐藤ケミカル北海道,,株式会社,北海道,札幌市東区,東苗穂五条３丁目４番地,,01,103,0070805,,,,,,,2024-02-07,1,,,,,サトウケミカルホッカイドウ,0
1836,6430001091031,新規,0,2024-02-07,2024-02-07,山田ファーム株式会社,,株式会社,北海道,虻田郡豊浦町,字山梨２３４番地１８３,,01,571,0495401,,,,,,,2024-02-07,1,,,,,ヤマダファーム,0
1852,7010001242088,新規,0,2024-02-07,2024-02-07,株式会社日本創業融資センター,,株式会社,東京都,千代田区,丸の内３丁目２番２号丸の内二重橋ビル２階,,13,101,1000005,,,,,,,2024-02-07,1,,,,,ニホンソウギョウユウシセンター,0
1853,7010001242113,新規,0,2024-02-07,2024-02-07,フェアバリュー研究所株式会社,,株式会社,東京都,千代田区,丸の内１丁目１－３日本生命丸の内ガーデンタワー３Ｆ,,13,101,1000005,,,,,,,2024-02-07,1,,,,,フェアバリューケンキュウショ,0
1854,7010001242121,新規,0,2024-02-07,2024-02-07,株式会社ＧＡＺＡＩ,,株式会社,東京都,中央区,日本橋茅場町１丁目８番１号,,13,102,1030025,,,,,,,2024-02-07,1,,,,,ガザイ,0
1855,7010001242138,新規,0,2024-02-07,2024-02-07,Ｗｓｋｆ銀座株式会社,,株式会社,東京都,中央区,銀座６丁目６番１号銀座風月堂ビル５Ｆ,,13,102,1040061,,,,,,,2024-02-07,1,,,,,ダブルエスケイエフギンザ,0
1856,7010001242162,新規,0,2024-02-07,2024-02-07,株式会社ＴＩＫソリューション,,株式会社,東京都,中央区,日本橋２丁目２番３号ＲＩＳＨＥビルＵＣＦ４階,,13,102,1030027,,,,,,,2024-02-07,1,,,,,ティックソリューション,0
1857,7010001242179,新規,0,2024-02-07,2024-02-07,株式会社ＣＬＩＰ第２３３号,,株式会社,東京都,千代田区,丸の内２丁目７番２号,,13,101,1000005,,,,,,,2024-02-07,1,,,,,シーエルアイピーダイニヒャクサンジュウサンゴウ,0
1858,7010001242187,新規,0,2024-02-07,2024-02-07,株式会社ＣＬＩＰ第２４１号,,株式会社,東京都,千代田区,丸の内２丁目７番２号,,13,101,1000005,,,,,,,2024-02-07,1,,,,,シーエルアイピーダイニヒャクヨンジュウイチゴウ,0
1861,7010003042882,新規,0,2024-02-07,2024-02-07,ソーラーヨハネ合同会社,,合同会社,東京都,中央区,八丁堀４丁目２番１０号ＡＯＪ税理士法人内,,13,102,1040032,,,,,,,2024-02-07,1,,,,,ソーラーヨハネ,0
1864,7010005037856,新規,0,2024-02-07,2024-02-07,ソーラーマタイホールディングス一般社団法人,,その他の設立登記法人,東京都,中央区,八丁堀４丁目２番１０号ＡＯＪ税理士法人内,,13,102,1040032,,,,,,,2024-02-07,1,,,,,ソーラーマタイホールディングス,0
1869,7010401180251,新規,0,2024-02-07,2024-02-07,株式会社インタキャンバス,,株式会社,東京都,港区,赤坂２丁目２１番４号天翔赤坂ＡＮＮＥＸビル２０１号,,13,103,1070052,,,,,,,2024-02-07,1,,,,,インタキャンバス,0
1875,7010501051740,新規,0,2024-02-07,2024-02-07,株式会社ＭＲＤ,,株式会社,東京都,台東区,鳥越１丁目３２番６号,,13,106,1110054,,,,,,,2024-02-07,1,,,,,エムアールディー,0
1876,7010501051749,新規,0,2024-02-07,2024-02-07,白田オーソ株式会社,,株式会社,東京都,台東区,浅草橋４丁目２０－６－６０１,,13,106,1110053,,,,,,,2024-02-07,1,,,,,シロタオーソ,0
1886,7010901054665,新規,0,2024-02-07,2024-02-07,株式会社ＫｅｅｐＷｅｌｌ,,株式会社,東京都,世田谷区,上馬３丁目３番１３号,,13,112,1540011,,,,,,,2024-02-07,1,,,,,キイプウェル,0
1887,7010901054681,新規,0,2024-02-07,2024-02-07,株式会社海景社,,株式会社,東京都,世田谷区,北沢２丁目２７番９号,,13,112,1550031,,,,,,,2024-02-07,1,,,,,カイケイシャ,0
1889,7011001159834,新規,0,2024-02-07,2024-02-07,株式会社アントレッド・コンサルティング,,株式会社,東京都,渋谷区,渋谷１丁目２０番１号,,13,113,1500002,,,,,,,2024-02-07,1,,,,,アントレッドコンサルティング,0
1890,7011001159850,新規,0,2024-02-07,2024-02-07,株式会社ＳＯＨ　ｃｏｍｐａｎｙ,,株式会社,東京都,渋谷区,広尾５丁目２５番６号シャトー広尾中井ビル５０３号,,13,113,1500012,,,,,,,2024-02-07,1,,,,,エスオーエイチカンパニー,0
1891,7011001159859,新規,0,2024-02-07,2024-02-07,株式会社ＴＲコーポレーション,,株式会社,東京都,目黒区,上目黒１丁目２６－１中目黒アトラスタワー４３０６号,,13,110,1530051,,,,,,,2024-02-07,1,,,,,ティーアールコーポレーション,0
1892,7011001159883,新規,0,2024-02-07,2024-02-07,Ｅｎｇｉｎｅ分割準備株式会社,,株式会社,東京都,渋谷区,桜丘町９番１８－４０３号,,13,113,1500031,,,,,,,2024-02-07,1,,,,,エンジンブンカツジュンビ,0
1893,7011003018427,新規,0,2024-02-07,2024-02-07,合同会社ＴＩＡＧ,,合同会社,東京都,渋谷区,道玄坂１丁目１０番８号渋谷道玄坂東急ビル２Ｆ－Ｃ,,13,113,1500043,,,,,,,2024-02-07,1,,,,,ティーアイエイジー,0
1894,7011005010365,新規,0,2024-02-07,2024-02-07,一般社団法人日本薬系学会連合,,その他の設立登記法人,東京都,渋谷区,渋谷２丁目１２番１５号,,13,113,1500002,,,,,,,2024-02-07,1,,,,,ニホンヤッケイガッカイレンゴウ,0
1897,7011201025233,新規,0,2024-02-07,2024-02-07,株式会社ｕｌｔ,,株式会社,東京都,中野区,若宮１丁目３４番４号,,13,114,1650033,,,,,,,2024-02-07,1,,,,,ウルト,0
1899,7011301029381,新規,0,2024-02-07,2024-02-07,株式会社西荻コンタクトレンズセンター,,株式会社,東京都,杉並区,西荻北３丁目１９番２号,,13,115,1670042,,,,,,,2024-02-07,1,,,,,ニシオギコンタクトレンズセンター,0
1903,7011501030288,新規,0,2024-02-07,2024-02-07,ＧＥ　Ｉｎｔｅｒｎａｔｉｏｎａｌ株式会社,,株式会社,東京都,北区,浮間１丁目１番１４号リムジンビル３１０,,13,117,1150051,,,,,,,2024-02-07,1,,,,,ジーイーインターナショナル,0
1908,7011703003744,新規,0,2024-02-07,2024-02-07,コミティア合同会社,,合同会社,東京都,江戸川区,東小松川１丁目３－１４,,13,123,1320033,,,,,,,2024-02-07,1,,,,,コミティア,0
1910,7011801043733,新規,0,2024-02-07,2024-02-07,Ｆ．Ｊ．Ｃ株式会社,,株式会社,東京都,葛飾区,東立石４丁目３４番２号,,13,122,1240013,,,,,,,2024-02-07,1,,,,,エフジェーシー,0
1911,7011801043741,新規,0,2024-02-07,2024-02-07,株式会社ステラベース,,株式会社,東京都,足立区,西新井４丁目４番２号,,13,121,1230841,,,,,,,2024-02-07,1,,,,,ステラベース,0
1916,7013303006994,新規,0,2024-02-07,2024-02-07,ｓｕｐｅｒｎｏｖａ合同会社,,合同会社,東京都,豊島区,高田１丁目３８番１２号目白ガーデンハイツ１０７,,13,116,1710033,,,,,,,2024-02-07,1,,,,,スーパーノヴァ,0
1925,7020001155628,新規,0,2024-02-07,2024-02-07,極東工業株式会社,,株式会社,神奈川県,横浜市鶴見区,安善町１丁目２番５号,,14,101,2300035,,,,,,,2024-02-07,1,,,,,キョクトウコウギョウ,0
1926,7020001155685,新規,0,2024-02-07,2024-02-07,株式会社Ｃｒｅａｔｉｏｎ　Ｎｅｔｗｏｒｋ,,株式会社,神奈川県,横浜市青葉区,青葉台１丁目１４－１第二青葉台ビル４０３,,14,117,2270062,,,,,,,2024-02-07,1,,,,,クリエーションネットワーク,0
1927,7020001155702,新規,0,2024-02-07,2024-02-07,株式会社ＮＯＤＥＳ,,株式会社,神奈川県,川崎市宮前区,南野川３丁目２１番４号,,14,136,2160042,,,,,,,2024-02-07,1,,,,,ノーズ,0
1928,7020001155735,新規,0,2024-02-07,2024-02-07,株式会社ＬｕｘｅＷｏｒｌｄ,,株式会社,神奈川県,横浜市神奈川区,西神奈川１丁目１９－１０西神奈川ビル１階,,14,102,2210822,,,,,,,2024-02-07,1,,,,,リュックスワールド,0
1935,7020003025515,新規,0,2024-02-07,2024-02-07,合同会社プログレス神奈川,,合同会社,神奈川県,横浜市磯子区,上中里町５９０番地,,14,107,2350042,,,,,,,2024-02-07,1,,,,,プログレスカナガワ,0
1937,7021001081426,新規,0,2024-02-07,2024-02-07,株式会社せがさき薬局,,株式会社,神奈川県,横須賀市,池田町１丁目１６番１４号,,14,201,2390806,,,,,,,2024-02-07,1,,,,,セガサキヤッキョク,0
1943,7030001158514,新規,0,2024-02-07,2024-02-07,明哲建設株式会社,,株式会社,埼玉県,さいたま市緑区,大字中尾３１９８番地２０３号,,11,109,3360932,,,,,,,2024-02-07,1,,,,,メイテツケンセツ,0
1944,7030001158522,新規,0,2024-02-07,2024-02-07,株式会社ツーコネクト,,株式会社,埼玉県,狭山市,大字南入曽６１７番地の１４宮岡コーポ１０５,,11,215,3501316,,,,,,,2024-02-07,1,,,,,ツーコネクト,0
1945,7030001158539,新規,0,2024-02-07,2024-02-07,株式会社ｅｃｌａ,,株式会社,埼玉県,ふじみ野市,旭１丁目１４番１１号２,,11,245,3560055,,,,,,,2024-02-07,1,,,,,エクラ,0
1946,7030001158571,新規,0,2024-02-07,2024-02-07,株式会社ＮＡＫＡＮＯ．ｉｓｍ,,株式会社,埼玉県,ふじみ野市,大井１０８４番地,,11,245,3560053,,,,,,,2024-02-07,1,,,,,ナカノイズム,0
1952,7030003023567,新規,0,2024-02-07,2024-02-07,合同会社ハートリンク,,合同会社,埼玉県,志木市,本町５丁目２３番２４号第３本吉ビル４階４１９号室,,11,228,3530004,,,,,,,2024-02-07,1,,,,,ハートリンク,0
1953,7030003023575,新規,0,2024-02-07,2024-02-07,合同会社スリールサポート,,合同会社,埼玉県,蓮田市,大字閏戸３５８番地３号,,11,238,3490133,,,,,,,2024-02-07,1,,,,,スリールサポート,0
1954,7030003023583,新規,0,2024-02-07,2024-02-07,合同会社ＥＶＥＲＢＬＩＳＳ,,合同会社,埼玉県,富士見市,関沢２丁目６－１５サンモール鶴瀬ＩＩ２０８,00133657,11,235,3540025,,,,,,,2024-02-07,1,,,,,エバーブリス,0
1955,7030005021552,新規,0,2024-02-07,2024-02-07,一般社団法人熊谷こどもまんなかネットワーク,,その他の設立登記法人,埼玉県,熊谷市,手島２１５,,11,202,3600121,,,,,,,2024-02-07,1,,,,,クマガヤコドモマンナカネットワーク,0
1961,7040001132047,新規,0,2024-02-07,2024-02-07,株式会社ウィステリア,,株式会社,千葉県,八千代市,勝田８３２番地５,,12,221,2760024,,,,,,,2024-02-07,1,,,,,ウィステリア,0
1962,7040001132088,新規,0,2024-02-07,2024-02-07,友真総建株式会社,,株式会社,千葉県,市原市,五井２５１９番地２プロムナード２０３,,12,219,2900056,,,,,,,2024-02-07,1,,,,,ユウシンソウケン,0
1965,7040003024300,新規,0,2024-02-07,2024-02-07,合同会社ファミリー,,合同会社,千葉県,千葉市緑区,高田町１０２０番地２１,,12,105,2660003,,,,,,,2024-02-07,1,,,,,ファミリー,0
1966,7050001054216,新規,0,2024-02-07,2024-02-07,株式会社Ｌｉｖｏｐｔ,,株式会社,茨城県,つくばみらい市,紫峰ヶ丘３丁目２８番地４,,08,235,3002359,,,,,,,2024-02-07,1,,,,,リヴオプト,0
1967,7050001054232,新規,0,2024-02-07,2024-02-07,株式会社殿岡工業,,株式会社,茨城県,神栖市,息栖３９４５番地８,,08,232,3140133,,,,,,,2024-02-07,1,,,,,トノオカコウギョウ,0
1968,7050003008120,新規,0,2024-02-07,2024-02-07,合同会社ＭＩコーポレーション,,合同会社,茨城県,坂東市,弓田４０４４番地,,08,228,3060607,,,,,,,2024-02-07,1,,,,,エムアイコーポレーション,0
1970,7060003004894,新規,0,2024-02-07,2024-02-07,エターナルプラン合同会社,,合同会社,栃木県,那須塩原市,一区町２８１,,09,213,3292732,,,,,,,2024-02-07,1,,,,,エターナルプラン,0
1977,7080401026992,新規,0,2024-02-07,2024-02-07,株式会社静南園芸,,株式会社,静岡県,掛川市,千浜６８５１番地の１,,22,213,4371412,,,,,,,2024-02-07,1,,,,,シズナンエンゲイ,0
1991,7120001261985,新規,0,2024-02-07,2024-02-07,株式会社ＴＥＲＡＤＡ,,株式会社,大阪府,大阪市淀川区,西中島３丁目２０番８号新和ビル３０５,,27,123,5320011,,,,,,,2024-02-07,1,,,,,テラダ,0
1992,7120001262042,新規,0,2024-02-07,2024-02-07,株式会社ＮＬＤ,,株式会社,大阪府,大阪市城東区,今福東２丁目７番１５号第二泰平ビル５０１,,27,118,5360002,,,,,,,2024-02-07,1,,,,,エヌエルディー,0
1993,7120001262050,新規,0,2024-02-07,2024-02-07,株式会社２Ｋ,,株式会社,大阪府,大阪市中央区,谷町６丁目１１番２８号,,27,128,5420012,,,,,,,2024-02-07,1,,,,,ツーケー,0
1994,7120001262083,新規,0,2024-02-07,2024-02-07,株式会社エムエスコーポレーション,,株式会社,大阪府,寝屋川市,河北西町３１番２７－２０３号,,27,215,5720817,,,,,,,2024-02-07,1,,,,,エムエスコーポレーション,0
1998,7122001037804,新規,0,2024-02-07,2024-02-07,株式会社大田工務店,,株式会社,大阪府,大東市,緑が丘１丁目１５番２号,,27,218,5740073,,,,,,,2024-02-07,1,,,,,オオタコウムテン,0
1999,7122003002789,新規,0,2024-02-07,2024-02-07,ＡＩＫＯ貿易合同会社,,合同会社,大阪府,柏原市,国分東条町３番１５号,,27,221,5820023,,,,,,,2024-02-07,1,,,,,アイコボウエキ,0
2009,7130001076284,新規,0,2024-02-07,2024-02-07,ワシグローバル株式会社,,株式会社,京都府,八幡市,八幡軸７１－４,,26,210,6148073,,,,,,,2024-02-07,1,,,,,ワシグローバル,0
2010,7130001076301,新規,0,2024-02-07,2024-02-07,ＫｙｏｔｏＣｒｅａｔｉｖｅＵｎｃｏｍｍｏｎ株式会社,,株式会社,京都府,京都市南区,東九条中御霊町５２－３,,26,107,6018027,,,,,,,2024-02-07,1,,,,,キョウトクリエイティブアンコモン,0
2011,7130003009275,新規,0,2024-02-07,2024-02-07,合同会社ｐｒｕｎｅｌｌｅ,,合同会社,京都府,京田辺市,田辺平田１番地４２,,26,211,6100331,,,,,,,2024-02-07,1,,,,,プリュネル,0
2015,7140001133241,新規,0,2024-02-07,2024-02-07,株式会社プレアデスオークション,,株式会社,兵庫県,姫路市,本町２０２番地,,28,201,6700012,,,,,,,2024-02-07,1,,,,,プレアデスオークション,0
2016,7140001133290,新規,0,2024-02-07,2024-02-07,ＳＩＯＮ株式会社,,株式会社,兵庫県,尼崎市,塚口町１丁目３２番地の９塚口コーポラス５０４,,28,202,6610002,,,,,,,2024-02-07,1,,,,,シオン,0
2022,7140003020124,新規,0,2024-02-07,2024-02-07,合同会社いのうえ商会,,合同会社,兵庫県,姫路市,下寺町２２番地,,28,201,6700932,,,,,,,2024-02-07,1,,,,,イノウエショウカイ,0
2024,7150003003177,新規,0,2024-02-07,2024-02-07,合同会社ｓａｇｅｓｓｅ,,合同会社,奈良県,吉野郡大淀町,大字越部１３７３番地の２６,,29,442,6380803,,,,,,,2024-02-07,1,,,,,サジェス,0
2042,7180001160026,新規,0,2024-02-07,2024-02-07,ＧｒｏｗＤｅｃｏ株式会社,,株式会社,愛知県,あま市,篠田八反田７番地スペリア美和７０１号,,23,237,4901211,,,,,,,2024-02-07,1,,,,,グローデコ,0
2043,7180001160042,新規,0,2024-02-07,2024-02-07,晃伸ホールディングス株式会社,,株式会社,愛知県,あま市,七宝町徳実辻切１番地１,00133655,23,237,4970016,,,,,,,2024-02-07,1,,,,,コウシンホールディングス,0
2044,7180001160059,新規,0,2024-02-07,2024-02-07,日本自家発負荷試験センター株式会社,,株式会社,愛知県,名古屋市西区,名駅２丁目３４番１７号セントラル名古屋１１０１号,,23,104,4510045,,,,,,,2024-02-07,1,,,,,ニホンジカハツフカシケンセンター,0
2045,7180001160067,新規,0,2024-02-07,2024-02-07,株式会社エスプラス,,株式会社,愛知県,半田市,乙川向田町１丁目１４番地の３,,23,205,4750042,,,,,,,2024-02-07,1,,,,,エスプラス,0
2046,7180001160083,新規,0,2024-02-07,2024-02-07,株式会社ＳＬＡ,,株式会社,愛知県,名古屋市港区,港明２丁目４番２号,,23,111,4550018,,,,,,,2024-02-07,1,,,,,エスエルエー,0
2048,7180003026316,新規,0,2024-02-07,2024-02-07,合同会社ＬＴＢ,,合同会社,愛知県,名古屋市港区,藤前５丁目１０４１番地,,23,111,4550855,,,,,,,2024-02-07,1,,,,,エルティビー,0
2056,7200001042139,新規,0,2024-02-07,2024-02-07,庭吉ランドスケープ株式会社,,株式会社,岐阜県,不破郡垂井町,表佐３１８３番地,,21,361,5032122,,,,,,,2024-02-07,1,,,,,ニワキチランドスケープ,0
2080,7290003014953,新規,0,2024-02-07,2024-02-07,合同会社Ｓｈｉｒｕｂｅ,,合同会社,福岡県,福岡市博多区,金の隈１丁目２８番１３‐３０４号三愛シティライフ空港南,,40,132,8120863,,,,,,,2024-02-07,1,,,,,シルベ,0
2083,7290803004609,新規,0,2024-02-07,2024-02-07,合同会社未来と夢,,合同会社,福岡県,行橋市,北泉３丁目４番３号,,40,213,8240033,,,,,,,2024-02-07,1,,,,,ミライトユメ,0
2088,7310001018846,新規,0,2024-02-07,2024-02-07,藤木不動産株式会社,,株式会社,長崎県,諫早市,高来町大戸２０５番地１,,42,204,8590101,,,,,,,2024-02-07,1,,,,,フジキフドウサン,0
2099,7340003004362,新規,0,2024-02-07,2024-02-07,神脇工務店合同会社,,合同会社,鹿児島県,鹿児島市,宇宿７丁目２２番１５号,,46,201,8900073,,,,,,,2024-02-07,1,,,,,ジンワキコウムテン,0
2100,7340005009698,新規,0,2024-02-07,2024-02-07,特定非営利活動法人さくらじま苦楽院,,その他の設立登記法人,鹿児島県,鹿児島市,甲突町２６番２４号,,46,201,8920837,,,,,,,2024-02-07,1,,,,,サクラジマクラクイン,0
2101,7350001018784,新規,0,2024-02-07,2024-02-07,株式会社Ｓｍｉｌｅ　ＵＰ,,株式会社,宮崎県,宮崎市,田野町あけぼの４丁目３８番地,,45,201,8891703,,,,,,,2024-02-07,1,,,,,スマイルアップ,0
2104,7360001033155,新規,0,2024-02-07,2024-02-07,株式会社金城冷凍食品,,株式会社,沖縄県,石垣市,美崎町１３番地２,,47,207,9070012,,,,,,,2024-02-07,1,,,,,キンジョウレイトウショクヒン,0
2105,7360003013683,新規,0,2024-02-07,2024-02-07,合同会社ＣＲＵＣＩＡＬ,,合同会社,沖縄県,沖縄市,泡瀬５丁目３３番１９号,,47,211,9042172,,,,,,,2024-02-07,1,,,,,クルーシャル,0
2106,7360005006982,新規,0,2024-02-07,2024-02-07,一般社団法人福増門中会,,その他の設立登記法人,沖縄県,南城市,佐敷字津波古７７番地,,47,215,9011414,,,,,,,2024-02-07,1,,,,,フクマスモンチュウカイ,0
2108,7370001050918,新規,0,2024-02-07,2024-02-07,株式会社ほのか,,株式会社,宮城県,仙台市若林区,新寺１丁目７－１－１８０７,,04,103,9840051,,,,,,,2024-02-07,1,,,,,ホノカ,0
2118,7430003015937,新規,0,2024-02-07,2024-02-07,合同会社ＹＣＳ,,合同会社,北海道,石狩郡当別町,元町１７６７番地２０,,01,303,0610222,,,,,,,2024-02-07,1,,,,,ワイシーエス,0
2130,8010001242120,新規,0,2024-02-07,2024-02-07,エムキャップ十一号株式会社,,株式会社,東京都,千代田区,丸の内３丁目１番１号,,13,101,1000005,,,,,,,2024-02-07,1,,,,,エムキャップジュウイチゴウ,0
2131,8010001242129,新規,0,2024-02-07,2024-02-07,株式会社ＩＰテクノロジー,,株式会社,東京都,文京区,小石川１丁目５番１－３６１１号,,13,105,1120002,,,,,,,2024-02-07,1,,,,,アイピーテクノロジー,0
2132,8010001242153,新規,0,2024-02-07,2024-02-07,株式会社Ｋｕｋｕｌｃａｎ,,株式会社,東京都,中央区,日本橋茅場町１丁目８－１ＦｉｎＧＡＴＥＫＡＹＡＢＡ３Ｆ,,13,102,1030025,,,,,,,2024-02-07,1,,,,,ククルカン,0
2133,8010001242161,新規,0,2024-02-07,2024-02-07,株式会社Ｒｅ．Ｌｉｆｅ,,株式会社,東京都,文京区,千石４丁目２４番１０号クアドリフォリオ千石２０３,,13,105,1120011,,,,,,,2024-02-07,1,,,,,リライフ,0
2134,8010001242178,新規,0,2024-02-07,2024-02-07,株式会社ＣＬＩＰ第２３２号,,株式会社,東京都,千代田区,丸の内２丁目７番２号,,13,101,1000005,,,,,,,2024-02-07,1,,,,,シーエルアイピーダイニヒャクサンジュウニゴウ,0
2135,8010001242186,新規,0,2024-02-07,2024-02-07,株式会社ＣＬＩＰ第２４０号,,株式会社,東京都,千代田区,丸の内２丁目７番２号,,13,101,1000005,,,,,,,2024-02-07,1,,,,,シーエルアイピーダイニヒャクヨンジュウゴウ,0
2139,8010003042782,新規,0,2024-02-07,2024-02-07,ＢＯＭＬ合同会社,,合同会社,東京都,中央区,銀座１丁目１２－４Ｎ＆ＥＢＬＤ．７Ｆ,,13,102,1040061,,,,,,,2024-02-07,1,,,,,ボムル,0
2140,8010003042881,新規,0,2024-02-07,2024-02-07,ソーラーマタイ合同会社,,合同会社,東京都,中央区,八丁堀４丁目２番１０号ＡＯＪ税理士法人内,,13,102,1040032,,,,,,,2024-02-07,1,,,,,ソーラーマタイ,0
2147,8010005037847,新規,0,2024-02-07,2024-02-07,一般社団法人フォーオール,,その他の設立登記法人,東京都,中央区,日本橋本町１丁目６番３号８０５,,13,102,1030023,,,,,,,2024-02-07,1,,,,,フォーオール,0
2148,8010005037855,新規,0,2024-02-07,2024-02-07,ソーラーペテロホールディングス一般社団法人,,その他の設立登記法人,東京都,中央区,八丁堀４丁目２番１０号ＡＯＪ税理士法人内,,13,102,1040032,,,,,,,2024-02-07,1,,,,,ソーラーペテロホールディングス,0
2150,8010101015987,新規,0,2024-02-07,2024-02-07,株式会社栄成設備,,株式会社,東京都,八王子市,長房町１３１５番地９,,13,201,1930824,,,,,,,2024-02-07,1,,,,,エイセイセツビ,0
2159,8010401180184,新規,0,2024-02-07,2024-02-07,株式会社ＲＩＭＩＸ,,株式会社,東京都,港区,新橋１丁目１５番５号ペルサ１１５－５階,,13,103,1050004,,,,,,,2024-02-07,1,,,,,リミックス,0
2160,8010401180259,新規,0,2024-02-07,2024-02-07,ピクセルエックス株式会社,,株式会社,東京都,港区,北青山１丁目６－４－７０５,,13,103,1070061,,,,,,,2024-02-07,1,,,,,ピクセルエックス,0
2164,8010403031906,新規,0,2024-02-07,2024-02-07,東京Ｔｅｓｌａ　ｃｒｕｉｓｅ合同会社,,合同会社,東京都,港区,六本木６丁目１０－１六本木ヒルズ森タワー１６階,,13,103,1060032,,,,,,,2024-02-07,1,,,,,トウキョウテスラクルーズ,0
2165,8010403031930,新規,0,2024-02-07,2024-02-07,合同会社ＴＥＮｓ,,合同会社,東京都,港区,浜松町２丁目２番１５号浜松町ダイヤビル２Ｆ,,13,103,1050013,,,,,,,2024-02-07,1,,,,,テンズ,0
2166,8010501051731,新規,0,2024-02-07,2024-02-07,スカイコンシェルジュ株式会社,,株式会社,東京都,台東区,上野６丁目１６番１９号新丸屋ビル３階,,13,106,1100005,,,,,,,2024-02-07,1,,,,,スカイコンシェルジュ,0
2167,8010501051748,新規,0,2024-02-07,2024-02-07,株式会社ＲＩＳＩＮＧ　ＤＩＡＭＯＮＤ,,株式会社,東京都,台東区,台東４丁目３１番１号,,13,106,1100016,,,,,,,2024-02-07,1,,,,,ライジングダイヤモンド,0
2170,8010601064600,新規,0,2024-02-07,2024-02-07,ＫＩＥホールディングス株式会社,,株式会社,東京都,江東区,青海２丁目７－４ｔｈｅＳＯＨＯＯｄａｉｂａ６３６,,13,108,1350064,,,,,,,2024-02-07,1,,,,,キエンホールディングス,0
2180,8010901054680,新規,0,2024-02-07,2024-02-07,株式会社ｆｏｏｔｂｅｚｚｉｅｓ,,株式会社,東京都,世田谷区,経堂１丁目３６番６－１０５号,,13,112,1560052,,,,,,,2024-02-07,1,,,,,フットベジーズ,0
2181,8010905004574,新規,0,2024-02-07,2024-02-07,一般社団法人ＯＰＨＩＳ,,その他の設立登記法人,東京都,世田谷区,松原３丁目２７番１０号,,13,112,1560043,,,,,,,2024-02-07,1,,,,,オピス,0
2187,8011001159874,新規,0,2024-02-07,2024-02-07,グレイン株式会社,,株式会社,東京都,目黒区,下目黒１丁目１番１４号コノトラビル７Ｆ,,13,110,1530064,,,,,,,2024-02-07,1,,,,,グレイン,0
2192,8011301029380,新規,0,2024-02-07,2024-02-07,株式会社オプティミスト,,株式会社,東京都,杉並区,下高井戸３丁目２７番９号,,13,115,1680073,,,,,,,2024-02-07,1,,,,,オプティミスト,0
2193,8011301029389,新規,0,2024-02-07,2024-02-07,株式会社ＢＲＯＷＮＳ,,株式会社,東京都,杉並区,西荻北３丁目２１番１６号サンヴェール西荻窪１０３号,,13,115,1670042,,,,,,,2024-02-07,1,,,,,ブラウンズ,0
2194,8011401025841,新規,0,2024-02-07,2024-02-07,株式会社ハッピーヒーロー,,株式会社,東京都,板橋区,徳丸６丁目２８番５－２０３号,,13,119,1750083,,,,,,,2024-02-07,1,,,,,ハッピーヒーロー,0
2198,8011603004239,新規,0,2024-02-07,2024-02-07,合同会社ＣＡＮＯＲＡ　ＰＬＵＳ,,合同会社,東京都,練馬区,北町２丁目１７番２１－６０４号,,13,120,1790081,,,,,,,2024-02-07,1,,,,,カノラプラス,0
2200,8011703003735,新規,0,2024-02-07,2024-02-07,合同会社ＩＮＴＥＧＲＩＴＹ,,合同会社,東京都,江戸川区,船堀４丁目１７番４－２０６号,,13,123,1340091,,,,,,,2024-02-07,1,,,,,インテグリティ,0
2202,8011801043732,新規,0,2024-02-07,2024-02-07,新境株式会社,,株式会社,東京都,葛飾区,東金町３丁目１７番１０号ＫＢＳ・Ａ－３号,,13,122,1250041,,,,,,,2024-02-07,1,,,,,シンキョウ,0
2203,8012403006400,新規,0,2024-02-07,2024-02-07,合同会社ウェルス・マネジメント,,合同会社,東京都,三鷹市,下連雀４丁目１６番３－７０６号,,13,204,1810013,,,,,,,2024-02-07,1,,,,,ウェルスマネジメント,0
2204,8012801022957,新規,0,2024-02-07,2024-02-07,株式会社東海林ファジィロボット研究所,,株式会社,東京都,日野市,多摩平１丁目２番地の１多摩平第１ビル４０２号室,,13,212,1910062,,,,,,,2024-02-07,1,,,,,トウカイリンファジィロボットケンキュウジョ,0
2206,8013301052032,新規,0,2024-02-07,2024-02-07,ＩＣＴパートナー株式会社,,株式会社,東京都,豊島区,南池袋１丁目１６番１５号ダイヤゲート池袋５Ｆ,,13,116,1710022,,,,,,,2024-02-07,1,,,,,アイシーティー,0
2225,8020001155692,新規,0,2024-02-07,2024-02-07,一縷香文化メディア株式会社,,株式会社,神奈川県,川崎市川崎区,東田町１０番地１０東田ビル４０１,,14,131,2100005,,,,,,,2024-02-07,1,,,,,イルイシャンブンカメディア,0
2226,8020001155701,新規,0,2024-02-07,2024-02-07,株式会社柳美,,株式会社,神奈川県,横浜市保土ケ谷区,今井町４１２番地１３ニューライフガーデン保土ケ谷４０２号,,14,106,2400035,,,,,,,2024-02-07,1,,,,,リュウビ,0
2227,8020001155726,新規,0,2024-02-07,2024-02-07,株式会社小倉建築計画工房,,株式会社,神奈川県,横浜市瀬谷区,二ツ橋町５０番地５,,14,114,2460021,,,,,,,2024-02-07,1,,,,,オグラケンチクケイカクコウボウ,0
2232,8020003025497,新規,0,2024-02-07,2024-02-07,合同会社ＮＹＴ,,合同会社,神奈川県,横浜市保土ケ谷区,天王町１丁目３０番地１８ＫＤＸレジデンス天王町４０２号,,14,106,2400003,,,,,,,2024-02-07,1,,,,,エヌワイティー,0
2233,8020003025506,新規,0,2024-02-07,2024-02-07,合同会社オリーブ,,合同会社,神奈川県,川崎市麻生区,王禅寺東４丁目８番８号,,14,137,2150018,,,,,,,2024-02-07,1,,,,,オリーブ,0
2239,8021003014127,新規,0,2024-02-07,2024-02-07,合同会社Ｒｏｕｎｄ‐２,,合同会社,神奈川県,藤沢市,鵠沼藤が谷２丁目３番１８号,,14,205,2510031,,,,,,,2024-02-07,1,,,,,ラウンドツー,0
2247,8030001158513,新規,0,2024-02-07,2024-02-07,株式会社Ａｓｐｉｒｅ　Ｄｉｇｉｔａｌ　Ｖｉｓｉｏｎ,,株式会社,埼玉県,入間市,東町１丁目１番２５号,,11,225,3580002,,,,,,,2024-02-07,1,,,,,アスパイアデジタルビジョン,0
2248,8030001158554,新規,0,2024-02-07,2024-02-07,ＭＡＬＩＫＡ株式会社,,株式会社,埼玉県,越谷市,北越谷４丁目３－１アデ川ビル１Ｆ,,11,222,3430026,,,,,,,2024-02-07,1,,,,,マリカ,0
2249,8030001158579,新規,0,2024-02-07,2024-02-07,株式会社メンズコンサルテーション・ジャパン,,株式会社,埼玉県,蓮田市,御前橋１丁目６番５号,,11,238,3490125,,,,,,,2024-02-07,1,,,,,メンズコンサルテーションジャパン,0
2254,8030003023582,新規,0,2024-02-07,2024-02-07,ＪＯＹＦＯＯＤＳ合同会社,,合同会社,埼玉県,富士見市,関沢２丁目６－１５サンモール鶴瀬ＩＩ２０８,00133654,11,235,3540025,,,,,,,2024-02-07,1,,,,,ジョイフード,0
2255,8030003023590,新規,0,2024-02-07,2024-02-07,合同会社ＴＳホールディングス,,合同会社,埼玉県,新座市,北野２丁目１２番４０号,,11,230,3520003,,,,,,,2024-02-07,1,,,,,ティーエスホールディングス,0
2265,8040001132095,新規,0,2024-02-07,2024-02-07,株式会社コムレイド,,株式会社,千葉県,流山市,鰭ケ崎１１番地の１２,,12,220,2700161,,,,,,,2024-02-07,1,,,,,コムレイド,0
2266,8040001132112,新規,0,2024-02-07,2024-02-07,株式会社藤田総研,,株式会社,千葉県,船橋市,習志野台８丁目２４番２１号,,12,204,2740063,,,,,,,2024-02-07,1,,,,,フジタソウケン,0
2272,8050001054215,新規,0,2024-02-07,2024-02-07,株式会社取手プラント,,株式会社,茨城県,つくばみらい市,谷井田１２０４番地５５,,08,235,3002337,,,,,,,2024-02-07,1,,,,,トリデプラント,0
2279,8070001041351,新規,0,2024-02-07,2024-02-07,株式会社新井板金,,株式会社,群馬県,邑楽郡大泉町,朝日３丁目２８番１２号,,10,524,3700514,,,,,,,2024-02-07,1,,,,,アライバンキン,0
2286,8080003003126,新規,0,2024-02-07,2024-02-07,合同会社にこ,,合同会社,静岡県,静岡市駿河区,石田３丁目１４番２４号,,22,102,4228042,,,,,,,2024-02-07,1,,,,,ニコ,0
2290,8080103002969,新規,0,2024-02-07,2024-02-07,合同会社服部,,合同会社,静岡県,裾野市,富沢６９番地の２,,22,220,4101125,,,,,,,2024-02-07,1,,,,,ハットリ,0
2294,8100001037197,新規,0,2024-02-07,2024-02-07,錦夢株式会社,,株式会社,長野県,北佐久郡軽井沢町,大字軽井沢１０２０番１１,,20,321,3890102,,,,,,,2024-02-07,1,,,,,キンム,0
2304,8120001262009,新規,0,2024-02-07,2024-02-07,株式会社ＭＣ　ＪＡＰＡＮ,,株式会社,大阪府,大阪市阿倍野区,西田辺町１丁目８番１３号,,27,119,5450014,,,,,,,2024-02-07,1,,,,,エムシージャパン,0
2305,8120001262025,新規,0,2024-02-07,2024-02-07,株式会社Ｚｅｎｅｒ,,株式会社,大阪府,大阪市中央区,北久宝寺町３丁目６－１本町南ガーデンシティ７階,,27,128,5410057,,,,,,,2024-02-07,1,,,,,ゼナー,0
2306,8120001262058,新規,0,2024-02-07,2024-02-07,株式会社ＷＡＬＫ　ＬＩＮＫ,,株式会社,大阪府,大阪市淀川区,十三本町１丁目８番８号大幸ロイヤルＡ３－９０１号,,27,123,5320024,,,,,,,2024-02-07,1,,,,,ウォークリンク,0
2307,8120001262116,新規,0,2024-02-07,2024-02-07,智華株式会社,,株式会社,大阪府,大阪市大正区,小林東２丁目９－５－５０３,,27,108,5510011,,,,,,,2024-02-07,1,,,,,チカ,0
2312,8120003025891,新規,0,2024-02-07,2024-02-07,合同会社Ｓｉｅｎサービス,,合同会社,大阪府,大阪市中央区,南船場３丁目２番２２号おおきに南船場ビル２０５,,27,128,5420081,,,,,,,2024-02-07,1,,,,,シエンサービス,0
2318,8122001037811,新規,0,2024-02-07,2024-02-07,株式会社ワコーグロース,,株式会社,大阪府,東大阪市,足代南１丁目１１番１７号,,27,227,5770842,,,,,,,2024-02-07,1,,,,,ワコーグロース,0
2319,8122003002788,新規,0,2024-02-07,2024-02-07,合同会社歓,,合同会社,大阪府,八尾市,植松町６丁目６番２６号,,27,212,5810084,,,,,,,2024-02-07,1,,,,,ヨロコビ,0
2320,8130001076267,新規,0,2024-02-07,2024-02-07,京翠株式会社,,株式会社,京都府,京都市伏見区,深草西浦町４番地５６第一ビル４０２,,26,109,,,,,,,,2024-02-07,1,,,,,キョウスイ,0
2321,8130001076309,新規,0,2024-02-07,2024-02-07,株式会社フォーエイト,,株式会社,京都府,宇治市,小倉町神楽田３３番地の８千歳ビル３０４号,,26,204,6110042,,,,,,,2024-02-07,1,,,,,フォーエイト,0
2330,8140001133208,新規,0,2024-02-07,2024-02-07,ブイ．エル株式会社,,株式会社,兵庫県,たつの市,揖保町松原１１５番地２,,28,229,6794142,,,,,,,2024-02-07,1,,,,,ブイエル,0
2331,8140001133240,新規,0,2024-02-07,2024-02-07,株式会社ミライトピア,,株式会社,兵庫県,明石市,本町１丁目２番３３号興生ビル４Ｆ,,28,203,6730892,,,,,,,2024-02-07,1,,,,,,0
2332,8140001133257,新規,0,2024-02-07,2024-02-07,株式会社Ｍ‐ｓｔｙｌｅ．,,株式会社,兵庫県,三木市,加佐１０１５番地の１０,,28,215,6730402,,,,,,,2024-02-07,1,,,,,エムスタイル,0
2338,8140005026936,新規,0,2024-02-07,2024-02-07,一般社団法人Ｊａｐａｎｅｓｅ　Ｏｐｈｔｈａｌｍｉｃ　Ｒｅｇｅｎｅｒａｔｉｖｅ　Ｍｅｄｉｃｉｎｅ　Ｄａｔａｂａｓｅ,,その他の設立登記法人,兵庫県,神戸市中央区,港島南町２丁目１番地の８神戸市立神戸アイセンター病院内,,28,110,6500047,,,,,,,2024-02-07,1,,,,,ジャパニーズオフサルミックレジェネレイティブメディシンデータベース,0
2339,8140005026944,新規,0,2024-02-07,2024-02-07,一般社団法人十三夜の月,,その他の設立登記法人,兵庫県,尼崎市,長洲西通１丁目３番１４－６０３号,,28,202,6600807,,,,,,,2024-02-07,1,,,,,ジュウサンヤノツキ,0
2344,8160001025675,新規,0,2024-02-07,2024-02-07,株式会社Ｓｏｎｉｄｏ,,株式会社,滋賀県,彦根市,高宮町１０７９,,25,202,5220201,,,,,,,2024-02-07,1,,,,,ソニド,0
2346,8160003003101,新規,0,2024-02-07,2024-02-07,合同会社Ｔ＆Ｎ　ｘｉｎ　ｃｈａｏ,,合同会社,滋賀県,守山市,吉身４丁目４番１０号,,25,207,5240021,,,,,,,2024-02-07,1,,,,,ティーアンドエヌシンチャオ,0
2350,8160005011267,新規,0,2024-02-07,2024-02-07,南善坊,,その他の設立登記法人,滋賀県,大津市,坂本本町４２４４番地２号,,25,201,5200116,,,,,,,2024-02-07,1,,,,,ナンゼンボウ,0
2351,8170001018001,新規,0,2024-02-07,2024-02-07,株式会社ＢＲＯＷ　ＪＡＰＡＮ,,株式会社,和歌山県,和歌山市,太田４丁目２－７,,30,201,6408323,,,,,,,2024-02-07,1,,,,,ブロージャパン,0
2360,8180001160058,新規,0,2024-02-07,2024-02-07,株式会社ウッドコンストラクション,,株式会社,愛知県,名古屋市中区,栄４丁目５番３号,,23,106,4600008,,,,,,,2024-02-07,1,,,,,ウッドコンストラクション,0
2361,8180001160066,新規,0,2024-02-07,2024-02-07,株式会社ＡＲＩＣＯ　ＡＲＣＨＥＲＹ,,株式会社,愛知県,名古屋市南区,桜台２丁目１２番２６号,,23,112,4570005,,,,,,,2024-02-07,1,,,,,アリコアーチェリー,0
2362,8180001160090,新規,0,2024-02-07,2024-02-07,Ｊａｐａｎ　Ｔｒｅａｓｕｒｅｓ株式会社,,株式会社,愛知県,豊明市,間米町森前９３－４,,23,229,4701132,,,,,,,2024-02-07,1,,,,,ジャパントレジャーズ,0
2366,8180003026315,新規,0,2024-02-07,2024-02-07,合同会社アイズプロパティ,,合同会社,愛知県,名古屋市南区,岩戸町１８番２３号,,23,112,4570015,,,,,,,2024-02-07,1,,,,,アイズプロパティ,0
2367,8180003026323,新規,0,2024-02-07,2024-02-07,ＨＢＴ合同会社,,合同会社,愛知県,名古屋市東区,泉２丁目１８番２４号Ｄアパートメント泉８０１,,23,102,4610001,,,,,,,2024-02-07,1,,,,,エッチビーティー,0
2368,8180005020506,新規,0,2024-02-07,2024-02-07,ＫＯＴＯＨＡ協同組合,,その他の設立登記法人,愛知県,名古屋市熱田区,幡野町１８番８号,,23,109,4560077,,,,,,,2024-02-07,1,,,,,コトハ,0
2371,8180301038301,新規,0,2024-02-07,2024-02-07,株式会社Ｄｏｓｓｈｕ,,株式会社,愛知県,岡崎市,戸崎町字牛転１０番地１６,,23,202,4440840,,,,,,,2024-02-07,1,,,,,ドッシュ,0
2374,8180303006000,新規,0,2024-02-07,2024-02-07,合同会社Ｃｏｉｌ,,合同会社,愛知県,豊橋市,天伯町字豊２１７番地の１,,23,201,4418122,,,,,,,2024-02-07,1,,,,,コイル,0
2375,8190001031092,新規,0,2024-02-07,2024-02-07,株式会社環境衛生,,株式会社,三重県,北牟婁郡紀北町,相賀１４３番地３８,,24,543,5193406,,,,,,,2024-02-07,1,,,,,カンキョウエイセイ,0
2387,8230001020207,新規,0,2024-02-07,2024-02-07,レテック株式会社,,株式会社,富山県,中新川郡上市町,森尻３８８,,16,322,9300304,,,,,,,2024-02-07,1,,,,,レテック,0
2390,8230003002153,新規,0,2024-02-07,2024-02-07,ＡＴＡＲＩ合同会社,,合同会社,富山県,滑川市,大浦５３番地,,16,206,9360811,,,,,,,2024-02-07,1,,,,,アタリ,0
2398,8240005015714,新規,0,2024-02-07,2024-02-07,一般社団法人ふくやまシュタイナー学園,,その他の設立登記法人,広島県,福山市,郷分町５１２番地,,34,207,7200093,,,,,,,2024-02-07,1,,,,,フクヤマシュタイナーガクエン,0
2399,8250003003430,新規,0,2024-02-07,2024-02-07,合同会社ＡＢＣｒｅａｔｅ,,合同会社,山口県,山口市,小郡新町２丁目３―５,,35,203,7540031,,,,,,,2024-02-07,1,,,,,エービークリエイト,0
2403,8270003001597,新規,0,2024-02-07,2024-02-07,ＭＫＨ合同会社,,合同会社,鳥取県,日野郡日南町,生山６７６番地２,,31,401,6895211,,,,,,,2024-02-07,1,,,,,エムケーエイチ,0
2412,8290801030300,新規,0,2024-02-07,2024-02-07,ＩＫメディカル株式会社,,株式会社,福岡県,北九州市小倉北区,古船場町７－８－６０２,,40,106,8020082,,,,,,,2024-02-07,1,,,,,アイケーメディカル,0
2426,8350001018783,新規,0,2024-02-07,2024-02-07,株式会社ガットショット,,株式会社,宮崎県,宮崎市,大工１丁目１１番１４号アクアマリンコーポ２０１,,45,201,8800015,,,,,,,2024-02-07,1,,,,,ガットショット,0
2428,8360001033162,新規,0,2024-02-07,2024-02-07,株式会社ぺいんと２４,,株式会社,沖縄県,宜野湾市,真栄原２丁目２８番２号,,47,205,9012215,,,,,,,2024-02-07,1,,,,,ペイントニシ,0
2430,8360003013682,新規,0,2024-02-07,2024-02-07,合同会社メイン,,合同会社,沖縄県,那覇市,松尾１丁目２－７,,47,201,9000014,,,,,,,2024-02-07,1,,,,,メイン,0
2434,8380001034274,新規,0,2024-02-07,2024-02-07,株式会社Ｈ．Ｃ．Ｃワークス,,株式会社,福島県,東白川郡矢祭町,大字下石井字若宮２３番地１５,,07,482,9635202,,,,,,,2024-02-07,1,,,,,エイチシーシーワークス,0
2441,8410003003884,新規,0,2024-02-07,2024-02-07,ピルツウエルネス合同会社,,合同会社,秋田県,横手市,平鹿町醍醐字南下村２７番地１,,05,203,0130102,,,,,,,2024-02-07,1,,,,,ピルツウエルネス,0
2444,8430001091038,新規,0,2024-02-07,2024-02-07,株式会社ｏｎｅｓｅｌｆ,,株式会社,北海道,札幌市中央区,南二条西１０丁目１番地１ブランズタワー札幌大通公園２５０５号,,01,101,0600062,,,,,,,2024-02-07,1,,,,,ワンセルフ,0
2472,9010001242020,新規,0,2024-02-07,2024-02-07,株式会社アーニー,,株式会社,東京都,中央区,日本橋人形町２丁目２１番９－８０２号,,13,102,1030013,,,,,,,2024-02-07,1,,,,,アーニー,0
2473,9010001242029,新規,0,2024-02-07,2024-02-07,株式会社大津建装,,株式会社,東京都,中央区,銀座１丁目２２番１１号銀座大竹ビジデンス２Ｆ,,13,102,1040061,,,,,,,2024-02-07,1,,,,,オオツケンソウ,0
2474,9010001242078,新規,0,2024-02-07,2024-02-07,株式会社Ｋｉｒｏ,,株式会社,東京都,中央区,銀座７丁目１２番１８号,,13,102,1040061,,,,,,,2024-02-07,1,,,,,キロ,0
2475,9010001242177,新規,0,2024-02-07,2024-02-07,株式会社ＣＬＩＰ第２３１号,,株式会社,東京都,千代田区,丸の内２丁目７番２号,,13,101,1000005,,,,,,,2024-02-07,1,,,,,シーエルアイピーダイニヒャクサンジュウイチゴウ,0
2476,9010001242185,新規,0,2024-02-07,2024-02-07,株式会社ＣＬＩＰ第２３９号,,株式会社,東京都,千代田区,丸の内２丁目７番２号,,13,101,1000005,,,,,,,2024-02-07,1,,,,,シーエルアイピーダイニヒャクサンジュウキュウゴウ,0
2482,9010003042872,新規,0,2024-02-07,2024-02-07,ＪＳＡ合同会社,,合同会社,東京都,千代田区,霞が関３丁目２番５号霞が関ビル２３１０Ａ,,13,101,1000013,,,,,,,2024-02-07,1,,,,,ジェイエスエー,0
2483,9010003042880,新規,0,2024-02-07,2024-02-07,ソーラーペテロ合同会社,,合同会社,東京都,中央区,八丁堀４丁目２番１０号ＡＯＪ税理士法人内,,13,102,1040032,,,,,,,2024-02-07,1,,,,,ソーラーペテロ,0
2484,9010003042889,新規,0,2024-02-07,2024-02-07,合同会社ＣＯＡＮＧＥＬ,,合同会社,東京都,中央区,日本橋浜町２丁目３５番７号島鶴ビル４０５,,13,102,1030007,,,,,,,2024-02-07,1,,,,,シーオーエンジェエル,0
2486,9010005037854,新規,0,2024-02-07,2024-02-07,ソーラーシモンホールディングス一般社団法人,,その他の設立登記法人,東京都,中央区,八丁堀４丁目２番１０号ＡＯＪ税理士法人内,,13,102,1040032,,,,,,,2024-02-07,1,,,,,ソーラーシモンホールディングス,0
2489,9010101015994,新規,0,2024-02-07,2024-02-07,株式会社ＡＵＲＯＲＡ,,株式会社,東京都,八王子市,泉町６８８番地八王子泉町住宅４－２０５号,,13,201,1930814,,,,,,,2024-02-07,1,,,,,アウローラ,0
2491,9010103002306,新規,0,2024-02-07,2024-02-07,エヌビーケイ合同会社,,合同会社,東京都,八王子市,大谷町１０４３番地４３,,13,201,1920034,,,,,,,2024-02-07,1,,,,,エヌビーケイ,0
2496,9010401180225,新規,0,2024-02-07,2024-02-07,株式会社ベクタービジョンファンド,,株式会社,東京都,港区,芝公園３丁目４番３０号,,13,103,1050011,,,,,,,2024-02-07,1,,,,,ベクタービジョンファンド,0
2497,9010401180233,新規,0,2024-02-07,2024-02-07,株式会社Ｆｕｎｔａｓｉｓｔａ,,株式会社,東京都,港区,北青山３丁目１４番４号,,13,103,1070061,,,,,,,2024-02-07,1,,,,,ファンタジスタ,0
2498,9010401180241,新規,0,2024-02-07,2024-02-07,Ｃｏｍｐａｓｓ　Ｏｆｆｉｃｅｓ　ＷＴＣ　Ａｎｎｅｘ株式会社,,株式会社,東京都,港区,虎ノ門５丁目１３番１号虎ノ門４０ＭＴビル,,13,103,1050001,,,,,,,2024-02-07,1,,,,,コンパスオフィシズダブリュティーシーアネックス,0
2499,9010401180258,新規,0,2024-02-07,2024-02-07,株式会社ＢＲＡＶＥＡＩＤ,,株式会社,東京都,港区,芝浦１丁目１５－７－８１９,,13,103,1050023,,,,,,,2024-02-07,1,,,,,ブレイブエイド,0
2507,9010501051739,新規,0,2024-02-07,2024-02-07,株式会社藤本不動産,,株式会社,東京都,台東区,浅草５丁目６０番６号,,13,106,1110032,,,,,,,2024-02-07,1,,,,,フジモトフドウサン,0
2517,9010903008808,新規,0,2024-02-07,2024-02-07,合同会社ＳＥＮＡＫＡ,,合同会社,東京都,世田谷区,桜新町１丁目２６番２号,,13,112,1540015,,,,,,,2024-02-07,1,,,,,セナカ,0
2520,9011001159717,新規,0,2024-02-07,2024-02-07,Ｍｅｔａｎｏｍａｌｙ株式会社,,株式会社,東京都,渋谷区,東１丁目２９－１渋谷ブリッジＢ５,,13,113,1500011,,,,,,,2024-02-07,1,,,,,メタノマリー,0
2521,9011001159873,新規,0,2024-02-07,2024-02-07,ＬＰ株式会社,,株式会社,東京都,渋谷区,松濤１丁目５番１号,,13,113,1500046,,,,,,,2024-02-07,1,,,,,エルピー,0
2522,9011001159881,新規,0,2024-02-07,2024-02-07,株式会社ＢＡＭＢＩ,,株式会社,東京都,渋谷区,渋谷４丁目５－６トキワビル６０２号室,,13,113,1500002,,,,,,,2024-02-07,1,,,,,バンビ,0
2524,9011003018458,新規,0,2024-02-07,2024-02-07,合同会社みんみん,,合同会社,東京都,渋谷区,神泉町１０番１５号アネックス神泉３０１,,13,113,1500045,,,,,,,2024-02-07,1,,,,,ミンミン,0
2533,9011101106098,新規,0,2024-02-07,2024-02-07,株式会社ラフトＨＲ,,株式会社,東京都,新宿区,西新宿６丁目１８－１住友不動産新宿セントラルパークタワー１９Ｆ,,13,104,1600023,,,,,,,2024-02-07,1,,,,,ラフトエイチアール,0
2548,9012803003310,新規,0,2024-02-07,2024-02-07,ＣＨＰ合同会社,,合同会社,東京都,日野市,程久保３丁目２０番７号,,13,212,1910042,,,,,,,2024-02-07,1,,,,,シーエイチピー,0
2554,9020001155659,新規,0,2024-02-07,2024-02-07,株式会社冨壱,,株式会社,神奈川県,横浜市鶴見区,矢向３丁目３１番１７号,,14,101,2300001,,,,,,,2024-02-07,1,,,,,トミイチ,0
2555,9020001155675,新規,0,2024-02-07,2024-02-07,ｖｃｏｎｎｅｃｔ株式会社,,株式会社,神奈川県,川崎市川崎区,駅前本町１１番地２川崎フロンティアビル４階,,14,131,2100007,,,,,,,2024-02-07,1,,,,,ブイコネクト,0
2556,9020001155691,新規,0,2024-02-07,2024-02-07,ＤＥＵＣＥ　Ｅｎｔｅｒｔａｉｎｍｅｎｔ株式会社,,株式会社,神奈川県,横浜市港南区,上永谷３丁目１３番１７号,,14,111,2330012,,,,,,,2024-02-07,1,,,,,デュースエンターテインメント,0
2557,9020001155717,新規,0,2024-02-07,2024-02-07,株式会社インスピリッツ,,株式会社,神奈川県,横浜市南区,永田台４４番１８号,,14,105,2320076,,,,,,,2024-02-07,1,,,,,インスピリッツ,0
2558,9020001155733,新規,0,2024-02-07,2024-02-07,株式会社横浜ベイドローンクラブ,,株式会社,神奈川県,横浜市中区,山下町７４番地１,,14,104,2310023,,,,,,,2024-02-07,1,,,,,ヨコハマベイドローンクラブ,0
2562,9021001081399,新規,0,2024-02-07,2024-02-07,株式会社ディールスター,,株式会社,神奈川県,南足柄市,塚原６３２－３,,14,217,2500117,,,,,,,2024-02-07,1,,,,,ディールスター,0
2564,9021003014126,新規,0,2024-02-07,2024-02-07,井上葬儀店合同会社,,合同会社,神奈川県,平塚市,夕陽ケ丘５８番５号,,14,203,2540806,,,,,,,2024-02-07,1,,,,,イノウエソウギテン,0
2565,9021003014134,新規,0,2024-02-07,2024-02-07,Ｐｉｘｙ　Ｄｕｓｔ　Ｃａｒｐｅｎｔｅｒｓ合同会社,,合同会社,神奈川県,鎌倉市,山ノ内１１１８－７,,14,204,2470062,,,,,,,2024-02-07,1,,,,,ピクシーダストカーペンターズ,0
2571,9030001158504,新規,0,2024-02-07,2024-02-07,株式会社庄司電気,,株式会社,埼玉県,蓮田市,大字井沼１１２６番地６,,11,238,3490135,,,,,,,2024-02-07,1,,,,,ショウジデンキ,0
2572,9030001158512,新規,0,2024-02-07,2024-02-07,株式会社全力アトック,,株式会社,埼玉県,さいたま市見沼区,大字東新井７１０番３１号,,11,104,3370032,,,,,,,2024-02-07,1,,,,,ゼンリョクアトック,0
2573,9030001158520,新規,0,2024-02-07,2024-02-07,株式会社焔商会,,株式会社,埼玉県,さいたま市緑区,大字大間木５５７番地グリーンハイツ岡村１０５,,11,109,3360923,,,,,,,2024-02-07,1,,,,,ホムラショウカイ,0
2574,9030001158529,新規,0,2024-02-07,2024-02-07,株式会社はな犬猫病院,,株式会社,埼玉県,越谷市,東越谷１丁目１番地１４,,11,222,3430023,,,,,,,2024-02-07,1,,,,,ハナイヌネコビョウイン,0
2575,9030001158545,新規,0,2024-02-07,2024-02-07,株式会社櫻和,,株式会社,埼玉県,八潮市,中央２丁目２番地２５,,11,234,3400816,,,,,,,2024-02-07,1,,,,,オウワ,0
2576,9030001158553,新規,0,2024-02-07,2024-02-07,株式会社ワンオアエイト,,株式会社,埼玉県,さいたま市南区,白幡４丁目１２番２４－３０４号,,11,108,3360022,,,,,,,2024-02-07,1,,,,,ワンオアエイト,0
2579,9030003023565,新規,0,2024-02-07,2024-02-07,ＤＳ　ＴＲＡＤＩＮＧ合同会社,,合同会社,埼玉県,越谷市,神明町３丁目２２４番地１－（３）,,11,222,3430805,,,,,,,2024-02-07,1,,,,,ディーエストレーディング,0
2580,9030003023573,新規,0,2024-02-07,2024-02-07,合同会社ポジティブアドバンス,,合同会社,埼玉県,川口市,幸町２丁目８番３３号－６０１号川口パークホームズプライムコート,,11,203,3320016,,,,,,,2024-02-07,1,,,,,ポジティブアドバンス,0
2581,9030003023581,新規,0,2024-02-07,2024-02-07,ＮＥＸＡＲＴＳ合同会社,,合同会社,埼玉県,富士見市,関沢２丁目６番１５号サンモール鶴瀬ＩＩ２０８,00133653,11,235,3540025,,,,,,,2024-02-07,1,,,,,ネクスアーツ,0
2584,9040001131955,新規,0,2024-02-07,2024-02-07,株式会社ＪＩＴ,,株式会社,千葉県,香取市,観音１０２３番地２,,12,236,2870036,,,,,,,2024-02-07,1,,,,,ジェイアイティー,0
2585,9040001132053,新規,0,2024-02-07,2024-02-07,株式会社希望,,株式会社,千葉県,松戸市,幸田５丁目７００番地,,12,207,2700001,,,,,,,2024-02-07,1,,,,,ノゾミ,0
2586,9040001132061,新規,0,2024-02-07,2024-02-07,株式会社Ｃａｌｍ,,株式会社,千葉県,八千代市,緑が丘５丁目１４番地１１,,12,221,2760049,,,,,,,2024-02-07,1,,,,,カーム,0
2594,9070003005262,新規,0,2024-02-07,2024-02-07,合同会社みんなの太助さん,,合同会社,群馬県,利根郡みなかみ町,布施７１番地２,,10,449,3791414,,,,,,,2024-02-07,1,,,,,ミンナノタスケサン,0
2604,9100001037188,新規,0,2024-02-07,2024-02-07,株式会社ＳＡ工務店,,株式会社,長野県,上田市,上丸子１１１１番地１,,20,203,3860404,,,,,,,2024-02-07,1,,,,,エスエイコウムテン,0
2605,9100001037196,新規,0,2024-02-07,2024-02-07,株式会社ＪＫＦ,,株式会社,長野県,南佐久郡南相木村,２３０５番地１,,20,306,3841211,,,,,,,2024-02-07,1,,,,,ジェイケイエフ,0
2615,9120001261991,新規,0,2024-02-07,2024-02-07,株式会社サンタナ,,株式会社,大阪府,枚方市,岡南町４－６,,27,210,5730033,,,,,,,2024-02-07,1,,,,,サンタナ,0
2616,9120001262032,新規,0,2024-02-07,2024-02-07,森川株式会社,,株式会社,大阪府,大阪市中央区,東心斎橋１丁目３番３－１９０４号,,27,128,5420083,,,,,,,2024-02-07,1,,,,,モリカワ,0
2617,9120001262057,新規,0,2024-02-07,2024-02-07,株式会社ＫＡＩＳＥＲ　ＣＡＰＩＴＡＬ,,株式会社,大阪府,大阪市中央区,久太郎町４丁目２番１５号－５Ｆ,,27,128,5410056,,,,,,,2024-02-07,1,,,,,カイザーキャピタル,0
2618,9120001262065,新規,0,2024-02-07,2024-02-07,株式会社Ｋｅｎｃｈａｎａ,,株式会社,大阪府,大阪市西区,南堀江１丁目５番１０号２０３,,27,106,5500015,,,,,,,2024-02-07,1,,,,,ケンチャナ,0
2619,9120001262098,新規,0,2024-02-07,2024-02-07,株式会社ＴＡＩ,,株式会社,大阪府,大阪市都島区,内代町１丁目３番１０号,,27,102,5340013,,,,,,,2024-02-07,1,,,,,ティーエーアイ,0
2620,9120001262107,新規,0,2024-02-07,2024-02-07,株式会社Ｒｅｓｉｌｉｅｎｔ,,株式会社,大阪府,大阪市西区,靱本町２丁目５番１７－９０２号,,27,106,5500004,,,,,,,2024-02-07,1,,,,,レジリエント,0
2623,9120003025890,新規,0,2024-02-07,2024-02-07,ＡＮＨ　ＡＱＵＡ合同会社,,合同会社,大阪府,大阪市阿倍野区,阪南町３丁目３５番２６号,,27,119,5450021,,,,,,,2024-02-07,1,,,,,アンアクア,0
2628,9120901048737,新規,0,2024-02-07,2024-02-07,株式会社ＡＲＴ,,株式会社,大阪府,摂津市,千里丘東４丁目９番１３号,,27,224,5660011,,,,,,,2024-02-07,1,,,,,アート,0
2639,9130001076299,新規,0,2024-02-07,2024-02-07,株式会社ハルノヒ,,株式会社,京都府,京都市西京区,桂清水町２３番地,,26,111,6158013,,,,,,,2024-02-07,1,,,,,ハルノヒ,0
2642,9130003009273,新規,0,2024-02-07,2024-02-07,合同会社佑真コーポレーション,,合同会社,京都府,亀岡市,篠町森下宮ノ谷６－２５,,26,206,6210831,,,,,,,2024-02-07,1,,,,,ユウマコーポレーション,0
2643,9130003009281,新規,0,2024-02-07,2024-02-07,合同会社Ｈ．Ｋ．Ｙ,,合同会社,京都府,京都市山科区,東野北井ノ上町２－８,,26,110,6078141,,,,,,,2024-02-07,1,,,,,エイチケイワイ,0
2647,9140001133157,新規,0,2024-02-07,2024-02-07,株式会社字北山商事,,株式会社,兵庫県,小野市,市場町字北山１０８５番地の２９,,28,218,6751327,,,,,,,2024-02-07,1,,,,,アザキタヤマショウジ,0
2648,9140001133198,新規,0,2024-02-07,2024-02-07,株式会社Ｍｅｔｙｌｉａ,,株式会社,兵庫県,神戸市中央区,旭通４丁目１番３－３６１０号,,28,110,6510095,,,,,,,2024-02-07,1,,,,,メティリア,0
2649,9140001133264,新規,0,2024-02-07,2024-02-07,株式会社ｉｎａ　ｉｎａ,,株式会社,兵庫県,西宮市,羽衣町７番３８号,,28,204,6620051,,,,,,,2024-02-07,1,,,,,イーナイーナ,0
2650,9140001133289,新規,0,2024-02-07,2024-02-07,株式会社ビーテクノロジー,,株式会社,兵庫県,神戸市中央区,生田町２丁目２番３号４０２,,28,110,6510092,,,,,,,2024-02-07,1,,,,,ビーテクノロジー,0
2654,9140005026943,新規,0,2024-02-07,2024-02-07,医療法人社団蒼真会,,その他の設立登記法人,兵庫県,明石市,西明石南町２丁目１３番１８－１０１号,,28,203,6730041,,,,,,,2024-02-07,1,,,,,ソウシンカイ,0
2656,9160001025682,新規,0,2024-02-07,2024-02-07,リユサーズ株式会社,,株式会社,滋賀県,湖南市,菩提寺東３丁目２番２３号,,25,211,5203247,,,,,,,2024-02-07,1,,,,,リユサーズ,0
2662,9170001018000,新規,0,2024-02-07,2024-02-07,株式会社クロノナイツ,,株式会社,和歌山県,橋本市,東家５丁目４－１６,,30,203,6480072,,,,,,,2024-02-07,1,,,,,クロノナイツ,0
2666,9180001160057,新規,0,2024-02-07,2024-02-07,株式会社ＦＢ‐ＦＡＣＴＯＲＹ,,株式会社,愛知県,一宮市,西大海道字中寺６７番地２,,23,203,4910005,,,,,,,2024-02-07,1,,,,,エフビーファクトリー,0
2667,9180001160065,新規,0,2024-02-07,2024-02-07,リンゴボーイアセットマネジメント株式会社,,株式会社,愛知県,名古屋市守山区,守山１丁目１番１８号ＣＯＮＮＥＣＴ３Ｆ,,23,113,4630067,,,,,,,2024-02-07,1,,,,,リンゴボーイアセットマネジメント,0
2668,9180001160073,新規,0,2024-02-07,2024-02-07,株式会社和創,,株式会社,愛知県,名古屋市中川区,下之一色町字宮分１５６番地の８,,23,110,4540945,,,,,,,2024-02-07,1,,,,,ワソウ,0
2669,9180001160098,新規,0,2024-02-07,2024-02-07,株式会社ＹＫＹ,,株式会社,愛知県,名古屋市中村区,名駅３丁目４番１０号,,23,105,4500002,,,,,,,2024-02-07,1,,,,,ワイケーワイ,0
2673,9180003026330,新規,0,2024-02-07,2024-02-07,合同会社ウルレア,,合同会社,愛知県,名古屋市東区,橦木町３丁目４８Ｐ－ＳＱＵＡＲＥＳｈｕｍｏｋｕＩＩＩ６０１号,00133656,23,102,4610014,,,,,,,2024-02-07,1,,,,,ウルレア,0
2683,9200003006230,新規,0,2024-02-07,2024-02-07,バンクシアエ合同会社,,合同会社,岐阜県,山県市,高富５９８番地２,,21,215,5012105,,,,,,,2024-02-07,1,,,,,バンクシアエ,0
2686,9220001025817,新規,0,2024-02-07,2024-02-07,株式会社スリーシーコレクト,,株式会社,石川県,金沢市,藤江南２丁目７１番地オクムラビル２Ｆ,,17,201,9200346,,,,,,,2024-02-07,1,,,,,スリーシーコレクト,0
2705,9290801030274,新規,0,2024-02-07,2024-02-07,株式会社ＡＮＯＴＥ,,株式会社,福岡県,北九州市小倉北区,弁天町５番２－１２０１号,,40,106,8030856,,,,,,,2024-02-07,1,,,,,アノテ,0
2714,9320001020279,新規,0,2024-02-07,2024-02-07,株式会社コネクト,,株式会社,大分県,別府市,大字鶴見４０４１番地の２３,,44,202,8740840,,,,,,,2024-02-07,1,,,,,コネクト,0
2719,9360001033161,新規,0,2024-02-07,2024-02-07,株式会社ＲＴ,,株式会社,沖縄県,豊見城市,宜保２丁目１番地６福マンション３０３号,,47,212,9010244,,,,,,,2024-02-07,1,,,,,アールティー,0
2723,9370001050908,新規,0,2024-02-07,2024-02-07,株式会社ＮＴＭ,,株式会社,宮城県,黒川郡大和町,宮床字下小路３８番地の９,,04,421,9813624,,,,,,,2024-02-07,1,,,,,エヌティエム,0
2724,9370001050916,新規,0,2024-02-07,2024-02-07,株式会社大家,,株式会社,宮城県,仙台市青葉区,旭ケ丘４丁目２７番２５－２号,,04,101,9810904,,,,,,,2024-02-07,1,,,,,オオヤ,0
2733,9420001018585,新規,0,2024-02-07,2024-02-07,豊山工業株式会社,,株式会社,青森県,上北郡横浜町,字豊栄平３２１番地１,,02,406,0394155,,,,,,,2024-02-07,1,,,,,トヨヤマコウギョウ,0
2738,9430001091012,新規,0,2024-02-07,2024-02-07,株式会社Ｌｕｓｈｉｋｕ　Ｃｏｒｐ．,,株式会社,北海道,札幌市中央区,北五条西１１丁目１４番地,,01,101,0600005,,,,,,,2024-02-07,1,,,,,ルシクコープ,0
2739,9430001091045,新規,0,2024-02-07,2024-02-07,ｆａｃｅｔ　ｅｄｇｅ株式会社,,株式会社,北海道,札幌市中央区,南二条西１０丁目１番地,,01,101,0600062,,,,,,,2024-02-07,1,,,,,ファセットエッジ,0
2740,9430003015935,新規,0,2024-02-07,2024-02-07,合同会社わかさ不動産サービス,,合同会社,北海道,伊達市,向有珠町３番地５,,01,233,0590157,,,,,,,2024-02-07,1,,,,,ワカサフドウサンサービス,0
