sequenceNumber,corporateNumber,process,correct,updateDate,changeDate,name,nameImageId,kind,prefectureName,cityName,streetNumber,addressImageId,prefectureCode,cityCode,postCode,addressOutside,addressOutsideImageId,closeDate,closeCause,successorCorporateNumber,changeCause,assignmentDate,latest,enName,enPrefectureName,enCityName,enAddressOutside,furigana,hihyoji
6,1010001241599,新規,0,2024-01-18,2024-01-18,トリシューラ株式会社,,株式会社,東京都,千代田区,神田三崎町２丁目１０－１１ｐｅｇビル２Ａ－１号室,,13,101,1010061,,,,,,,2024-01-18,1,,,,,トリシューラ,0
10,1010003042649,新規,0,2024-01-18,2024-01-18,グロース合同会社,,合同会社,東京都,中央区,銀座７丁目１３番６号サガミビル２階,,13,102,1040061,,,,,,,2024-01-18,1,,,,,グロース,0
11,1010003042681,新規,0,2024-01-18,2024-01-18,ＥＮ２合同会社,,合同会社,東京都,千代田区,丸の内３丁目２番２号丸の内二重橋ビル２階,,13,101,1000005,,,,,,,2024-01-18,1,,,,,イーエヌツー,0
14,1010101015969,新規,0,2024-01-18,2024-01-18,竹未株式会社,,株式会社,東京都,八王子市,散田町２丁目９番１５号,,13,201,1930832,,,,,,,2024-01-18,1,,,,,タケミ,0
26,1010403031755,新規,0,2024-01-18,2024-01-18,合同会社カレンシー,,合同会社,東京都,港区,新橋２丁目１６番１号,,13,103,1050004,,,,,,,2024-01-18,1,,,,,カレンシー,0
29,1010503007309,新規,0,2024-01-18,2024-01-18,ドリームエコーズ合同会社,,合同会社,東京都,台東区,柳橋１丁目１２番１０－２０１号セレナハイム浅草橋アプレ,,13,106,1110052,,,,,,,2024-01-18,1,,,,,ドリームエコーズ,0
32,1010701045416,新規,0,2024-01-18,2024-01-18,株式会社ＥＳＯＲＡ,,株式会社,東京都,品川区,二葉１丁目７番２５号スカイ大井町１０３,,13,109,1420043,,,,,,,2024-01-18,1,,,,,エソラ,0
35,1010803004815,新規,0,2024-01-18,2024-01-18,合同会社太平,,合同会社,東京都,大田区,田園調布４丁目４７番２号,,13,111,1450071,,,,,,,2024-01-18,1,,,,,タイヘイ,0
46,1011001159303,新規,0,2024-01-18,2024-01-18,株式会社ＯＮ　ＳＴＡＧＥ,,株式会社,東京都,渋谷区,大山町４番１,,13,113,1510065,,,,,,,2024-01-18,1,,,,,オンステージ,0
47,1011001159419,新規,0,2024-01-18,2024-01-18,株式会社ｇｇ,,株式会社,東京都,目黒区,大橋２丁目４番１６－６１１号プライムアーバン目黒大橋ヒルズ,,13,110,1530044,,,,,,,2024-01-18,1,,,,,ジージー,0
48,1011001159443,新規,0,2024-01-18,2024-01-18,株式会社ｃ．ｔルリアン,,株式会社,東京都,渋谷区,渋谷２丁目１９番１５号宮益坂ビルディング６０９,,13,113,1500002,,,,,,,2024-01-18,1,,,,,シーティールリアン,0
49,1011001159476,新規,0,2024-01-18,2024-01-18,レモノア株式会社,,株式会社,東京都,渋谷区,神宮前３丁目２７番１４号,,13,113,1500001,,,,,,,2024-01-18,1,,,,,レモノア,0
55,1011003018267,新規,0,2024-01-18,2024-01-18,合同会社Ｄ‐ｒｏｏｍ,,合同会社,東京都,渋谷区,道玄坂１丁目１０番８号渋谷道玄坂東急ビル２Ｆ－Ｃ,,13,113,1500043,,,,,,,2024-01-18,1,,,,,ディールーム,0
56,1011003018300,新規,0,2024-01-18,2024-01-18,合同会社Ｓｉｉ　ＴＥＲＲＡＣＥ,,合同会社,東京都,渋谷区,神山町１６番４号ヴィラメトロポリス５Ａ,,13,113,1500047,,,,,,,2024-01-18,1,,,,,シーテラス,0
59,1011101105792,新規,0,2024-01-18,2024-01-18,株式会社ＮＩＪＩＩＲＯ,,株式会社,東京都,新宿区,新宿６丁目２４番２０号,,13,104,1600022,,,,,,,2024-01-18,1,,,,,ニジイロ,0
62,1011201025180,新規,0,2024-01-18,2024-01-18,株式会社Ｅａｇｌｅ　Ｃｏｎｓｕｌｔｉｎｇ,,株式会社,東京都,中野区,上鷺宮１丁目２４番１号,,13,114,1650031,,,,,,,2024-01-18,1,,,,,イーグルコンサルティング,0
64,1011301029338,新規,0,2024-01-18,2024-01-18,株式会社オフィスたかとも,,株式会社,東京都,杉並区,高円寺南１丁目４番２０号,,13,115,1660003,,,,,,,2024-01-18,1,,,,,オフィスタカトモ,0
68,1011503005913,新規,0,2024-01-18,2024-01-18,Ｔｏｋｙｏ　Ａｍｉｒａ合同会社,,合同会社,東京都,北区,浮間１丁目６番１９号,,13,117,1150051,,,,,,,2024-01-18,1,,,,,トウキョウアミラ,0
69,1011505002603,新規,0,2024-01-18,2024-01-18,土地家屋調査士法人坂田測量設計事務所,,その他の設立登記法人,東京都,北区,赤羽南１丁目４番１２号,,13,117,1150044,,,,,,,2024-01-18,1,,,,,,0
72,1011701026934,新規,0,2024-01-18,2024-01-18,正美国際株式会社,,株式会社,東京都,江戸川区,西葛西５丁目７番６号ＤＡＯＳＰＡＣＥ西葛西４階４０７号,,13,123,1340088,,,,,,,2024-01-18,1,,,,,セイビコクサイ,0
77,1012301013744,新規,0,2024-01-18,2024-01-18,株式会社Ｐｅｊｉｔｅｘ,,株式会社,東京都,町田市,金井８丁目１５番１２号,,13,209,1950072,,,,,,,2024-01-18,1,,,,,ペジテックス,0
88,1020001155352,新規,0,2024-01-18,2024-01-18,株式会社ＰＪＸコンサルタント,,株式会社,神奈川県,横浜市神奈川区,子安台１丁目１番３号,,14,102,2210012,,,,,,,2024-01-18,1,,,,,ピージェイエックスコンサルタント,0
91,1020003025280,新規,0,2024-01-18,2024-01-18,合同会社Ｖｅｓｐｅｒ,,合同会社,神奈川県,川崎市川崎区,本町２丁目１―９―８０２,,14,131,2100001,,,,,,,2024-01-18,1,,,,,ヴェスパー,0
92,1020003025330,新規,0,2024-01-18,2024-01-18,合同会社湘南ウィッチーズ,,合同会社,神奈川県,横浜市戸塚区,戸塚町８ラピス戸塚ＩＩ１Ｆ,00133398,14,110,2440003,,,,,,,2024-01-18,1,,,,,ショウナンウィッチーズ,0
93,1020003025363,新規,0,2024-01-18,2024-01-18,ＲＥＦＩＮＥ合同会社,,合同会社,神奈川県,横浜市都筑区,佐江戸町３４７番地１バルコレアーレ２０７,,14,118,2240054,,,,,,,2024-01-18,1,,,,,リファイン,0
94,1020003025371,新規,0,2024-01-18,2024-01-18,合同会社Ｄ‐ＳＴＡＧＥ,,合同会社,神奈川県,川崎市多摩区,菅馬場３丁目２０番４号,,14,135,2140004,,,,,,,2024-01-18,1,,,,,ディーステージ,0
97,1021001081150,新規,0,2024-01-18,2024-01-18,株式会社松井,,株式会社,神奈川県,逗子市,逗子１丁目１０番１５号アルカディア逗子４０１,,14,208,2490006,,,,,,,2024-01-18,1,,,,,マツイ,0
98,1021001081241,新規,0,2024-01-18,2024-01-18,株式会社ｙｏｎ,,株式会社,神奈川県,藤沢市,辻堂東海岸２丁目１番３２～７号,,14,205,2510045,,,,,,,2024-01-18,1,,,,,ヨン,0
107,1030001158197,新規,0,2024-01-18,2024-01-18,株式会社ＩＰＰＯ,,株式会社,埼玉県,三郷市,中央２丁目２番地１０ＢＬＡＺＥＣＵＢＥ１階,,11,237,3410038,,,,,,,2024-01-18,1,,,,,イッポ,0
108,1030001158214,新規,0,2024-01-18,2024-01-18,株式会社矢野塗装,,株式会社,埼玉県,川越市,大字笠幡１７３６番地２１２,,11,201,3501175,,,,,,,2024-01-18,1,,,,,ヤノトソウ,0
109,1030001158222,新規,0,2024-01-18,2024-01-18,熊谷ＲＳマネジメント株式会社,,株式会社,埼玉県,熊谷市,太井１８２７番地,,11,202,3600025,,,,,,,2024-01-18,1,,,,,クマガヤアールエスマネジメント,0
124,1040001131797,新規,0,2024-01-18,2024-01-18,株式会社ＷＨＩＴＥ,,株式会社,千葉県,千葉市中央区,富士見２丁目９番１７号長谷川ビル３階,,12,101,2600015,,,,,,,2024-01-18,1,,,,,ホワイト,0
125,1040001131839,新規,0,2024-01-18,2024-01-18,株式会社和田蔵,,株式会社,千葉県,千葉市中央区,千葉寺町１０４番地,,12,101,2600844,,,,,,,2024-01-18,1,,,,,ワダクラ,0
135,1080003003116,新規,0,2024-01-18,2024-01-18,ＷＫプリント合同会社,,合同会社,静岡県,静岡市駿河区,下川原６丁目２５番３３号,,22,102,4210113,,,,,,,2024-01-18,1,,,,,ダブルケイプリント,0
139,1090001018503,新規,0,2024-01-18,2024-01-18,株式会社有井,,株式会社,山梨県,南アルプス市,小笠原１５８９番地１,,19,208,4000306,,,,,,,2024-01-18,1,,,,,アリイ,0
141,1110001038119,新規,0,2024-01-18,2024-01-18,株式会社ＡｅＳＰ,,株式会社,新潟県,長岡市,大手通２丁目２番地６,,15,202,9400062,,,,,,,2024-01-18,1,,,,,エーエスピー,0
142,1110003005265,新規,0,2024-01-18,2024-01-18,セレネ合同会社,,合同会社,新潟県,新潟市西区,五十嵐２の町８３１４番地３０,,15,107,9502102,,,,,,,2024-01-18,1,,,,,セレネ,0
155,1120001261413,新規,0,2024-01-18,2024-01-18,株式会社ｖｅｒｔｅｘ　ｓｏｌｕｔｉｏｎ,,株式会社,大阪府,大阪市淀川区,西中島３丁目１１番２４号新大阪第１１山よしビル３Ｆ,,27,123,5320011,,,,,,,2024-01-18,1,,,,,ヴァーテックスソリューション,0
156,1120001261470,新規,0,2024-01-18,2024-01-18,株式会社サンリッチ,,株式会社,大阪府,大阪市中央区,久太郎町１丁目６番２７号,,27,128,5410056,,,,,,,2024-01-18,1,,,,,サンリッチ,0
157,1120001261520,新規,0,2024-01-18,2024-01-18,株式会社濱崎建設,,株式会社,大阪府,門真市,江端町１番１２号,,27,223,5710012,,,,,,,2024-01-18,1,,,,,ハマサキケンセツ,0
177,1120101068898,新規,0,2024-01-18,2024-01-18,株式会社葵,,株式会社,大阪府,貝塚市,加神２丁目１２番２６号,,27,208,5970071,,,,,,,2024-01-18,1,,,,,アオイ,0
186,1120105009808,新規,0,2024-01-18,2024-01-18,医療法人桃柚会,,その他の設立登記法人,大阪府,河内長野市,本町１５番５号本町山本ビル１階,,27,216,5860015,,,,,,,2024-01-18,1,,,,,トウユウカイ,0
187,1120105009816,新規,0,2024-01-18,2024-01-18,医療法人堺豊紀会,,その他の設立登記法人,大阪府,堺市堺区,戎島町１丁５５番地８アークリムＩＩＩ２０３号室,00133397,27,141,5900985,,,,,,,2024-01-18,1,,,,,サカイホウキカイ,0
192,1120901048653,新規,0,2024-01-18,2024-01-18,株式会社Ｓｔａｔｉｓｔｉｃａｌ　Ｓｏｌｕｔｉｏｎｓ,,株式会社,大阪府,茨木市,沢良宜浜１丁目１６－３１－２１５,,27,211,5670864,,,,,,,2024-01-18,1,,,,,スタティスティカルソリューションズ,0
218,1140003020047,新規,0,2024-01-18,2024-01-18,エレシィ合同会社,,合同会社,兵庫県,芦屋市,公光町８番１１－４０５号,,28,206,6590065,,,,,,,2024-01-18,1,,,,,エレシィ,0
219,1140003020063,新規,0,2024-01-18,2024-01-18,Ｈ＆Ｔ合同会社,,合同会社,兵庫県,神戸市中央区,多聞通１丁目３番１１号ハイツ神戸２０１号室,,28,110,6500015,,,,,,,2024-01-18,1,,,,,エイチアンドティ,0
220,1150001027019,新規,0,2024-01-18,2024-01-18,株式会社バーティカルＨＲテック,,株式会社,奈良県,吉野郡下市町,大字新住１１１８番地,,29,443,6380045,,,,,,,2024-01-18,1,,,,,バーティカルエイチアールテック,0
246,1180001159775,新規,0,2024-01-18,2024-01-18,株式会社丸山綾子事務所,,株式会社,愛知県,名古屋市中区,千代田２丁目１９番２０号トーカンマンション鶴舞３０７号,,23,106,4600012,,,,,,,2024-01-18,1,,,,,マルヤマリョウコジムショ,0
247,1180001159783,新規,0,2024-01-18,2024-01-18,株式会社樹コンサルタント,,株式会社,愛知県,一宮市,奥町字土桶８番地,,23,203,4910201,,,,,,,2024-01-18,1,,,,,イツキコンサルタント,0
248,1180001159791,新規,0,2024-01-18,2024-01-18,株式会社ＲＡＤＢＯＸ,,株式会社,愛知県,名古屋市守山区,大字上志段味字稲堀田新田１９４３番地,,23,113,4630001,,,,,,,2024-01-18,1,,,,,ラッドボックス,0
249,1180001159800,新規,0,2024-01-18,2024-01-18,株式会社シスクラッチョ,,株式会社,愛知県,名古屋市中村区,名駅４丁目２４番５号第２森ビル４０１,,23,105,4500002,,,,,,,2024-01-18,1,,,,,シスクラッチョ,0
250,1180001159809,新規,0,2024-01-18,2024-01-18,株式会社ＡＩＭＳ,,株式会社,愛知県,名古屋市中区,新栄３丁目３番８号三正ビル３階,,23,106,4600007,,,,,,,2024-01-18,1,,,,,エイムス,0
256,1200001042078,新規,0,2024-01-18,2024-01-18,株式会社ヤオゲン,,株式会社,岐阜県,瑞浪市,釜戸町３４７７番地の６,,21,208,5096472,,,,,,,2024-01-18,1,,,,,ヤオゲン,0
257,1200001042086,新規,0,2024-01-18,2024-01-18,株式会社大伸,,株式会社,岐阜県,中津川市,落合３１４１番地の１,,21,206,5080006,,,,,,,2024-01-18,1,,,,,ダイシン,0
260,1210003001741,新規,0,2024-01-18,2024-01-18,合同会社ｍｉｒｉｓｅ,,合同会社,福井県,福井市,米松２丁目８番６号,,18,201,9100851,,,,,,,2024-01-18,1,,,,,ミライズ,0
267,1240001062675,新規,0,2024-01-18,2024-01-18,やくしん株式会社,,株式会社,広島県,広島市南区,宇品海岸１丁目１０番２０号臨港ビル１Ｆ,,34,103,7340011,,,,,,,2024-01-18,1,,,,,ヤクシン,0
284,1280001009103,新規,0,2024-01-18,2024-01-18,株式会社Ｇｒａｎｄ　Ｂｕｉｌｉｔｙ,,株式会社,島根県,江津市,桜江町谷住郷２４７１番地,,32,207,6994111,,,,,,,2024-01-18,1,,,,,グランドビリティ,0
291,1290001104407,新規,0,2024-01-18,2024-01-18,株式会社ＥＮＥＬ,,株式会社,福岡県,筑紫野市,大字筑紫９３８－３,,40,217,8180025,,,,,,,2024-01-18,1,,,,,エネル,0
294,1290003014843,新規,0,2024-01-18,2024-01-18,合同会社テンセンメン,,合同会社,福岡県,久留米市,東合川町５５４番地２東合川ヒルズ２０１,,40,203,8390807,,,,,,,2024-01-18,1,,,,,テンセンメン,0
295,1290003014868,新規,0,2024-01-18,2024-01-18,合同会社鶴田工業,,合同会社,福岡県,福岡市南区,多賀２丁目３番５２６号多賀野間台,,40,134,8150072,,,,,,,2024-01-18,1,,,,,ツルタコウギョウ,0
296,1290005019262,新規,0,2024-01-18,2024-01-18,医療法人みはらクリニック,,その他の設立登記法人,福岡県,太宰府市,五条２丁目９番３７号,,40,221,8180125,,,,,,,2024-01-18,1,,,,,ミハラクリニック,0
297,1290005019270,新規,0,2024-01-18,2024-01-18,医療法人一会,,その他の設立登記法人,福岡県,福岡市南区,大橋１丁目９番１６号Ｌｅｎｔｅ　ＦＵＫＵＯＫＡ２階,,40,134,8150033,,,,,,,2024-01-18,1,,,,,ハジメカイ,0
299,1290801030232,新規,0,2024-01-18,2024-01-18,株式会社ウィルコネクト,,株式会社,福岡県,北九州市小倉南区,湯川新町１丁目５番３１号,,40,107,8000256,,,,,,,2024-01-18,1,,,,,ウィルコネクト,0
305,1310001018802,新規,0,2024-01-18,2024-01-18,ハタダセルフカー株式会社,,株式会社,長崎県,南島原市,口之津町丙３８１０番地１,,42,214,8592504,,,,,,,2024-01-18,1,,,,,ハタダセルフカー,0
306,1310001018810,新規,0,2024-01-18,2024-01-18,株式会社ＮＦＡ,,株式会社,長崎県,長崎市,上小島２丁目９番２５－２０３号,,42,201,8500834,,,,,,,2024-01-18,1,,,,,エヌエフエー,0
313,1360001033078,新規,0,2024-01-18,2024-01-18,株式会社Ｍａｌｏｎｕｓ,,株式会社,沖縄県,浦添市,伊祖５丁目９番１－１４０２号リゾートテラス伊祖,,47,208,9012132,,,,,,,2024-01-18,1,,,,,マロナス,0
314,1360001033086,新規,0,2024-01-18,2024-01-18,株式会社うつわ,,株式会社,沖縄県,宮古島市,平良字下里４０１番地３,,47,214,9060013,,,,,,,2024-01-18,1,,,,,ウツワ,0
317,1370001050824,新規,0,2024-01-18,2024-01-18,株式会社ＲＹＵＳＯ,,株式会社,宮城県,仙台市若林区,沖野字高野１３番地の９,,04,103,9840831,,,,,,,2024-01-18,1,,,,,リュウソウ,0
318,1370001050832,新規,0,2024-01-18,2024-01-18,株式会社メディカリンクス,,株式会社,宮城県,仙台市若林区,木ノ下４丁目３番１２－５号,,04,103,9840047,,,,,,,2024-01-18,1,,,,,メディカリンクス,0
319,1370001050840,新規,0,2024-01-18,2024-01-18,創世建設株式会社,,株式会社,宮城県,仙台市若林区,卸町１丁目５番地の５,,04,103,9840015,,,,,,,2024-01-18,1,,,,,ソウセイケンセツ,0
320,1390001017482,新規,0,2024-01-18,2024-01-18,だだちゃ喜左衛門株式会社,,株式会社,山形県,鶴岡市,寺田乙１４７番地,,06,203,9970836,,,,,,,2024-01-18,1,,,,,ダダチャキザエモン,0
321,1410001013702,新規,0,2024-01-18,2024-01-18,株式会社おやつ堂,,株式会社,秋田県,秋田市,高陽幸町２－４３－４０１,,05,201,0100967,,,,,,,2024-01-18,1,,,,,オヤツドウ,0
326,1430001090822,新規,0,2024-01-18,2024-01-18,株式会社正栄プロジェクト・ＨＤ,,株式会社,北海道,札幌市中央区,南二条西４丁目７番地１フェアリースクエア,,01,101,0600062,,,,,,,2024-01-18,1,,,,,ショウエイプロジェクトホールディングス,0
327,1430001090855,新規,0,2024-01-18,2024-01-18,株式会社アーリーグロウ,,株式会社,北海道,札幌市豊平区,水車町７丁目５番１７号,,01,105,0620912,,,,,,,2024-01-18,1,,,,,アーリーグロウ,0
328,1430001090863,新規,0,2024-01-18,2024-01-18,株式会社ＭＳ技工舎,,株式会社,北海道,札幌市東区,北三十四条東９丁目１番２６号,,01,103,0070834,,,,,,,2024-01-18,1,,,,,エムエスギコウシャ,0
330,1430005014876,新規,0,2024-01-18,2024-01-18,一般社団法人きずなグループ,,その他の設立登記法人,北海道,札幌市中央区,大通西１８丁目１－１４－３階,,01,101,0600042,,,,,,,2024-01-18,1,,,,,キズナグループ,0
338,1460101007483,新規,0,2024-01-18,2024-01-18,株式会社ルーミー,,株式会社,北海道,帯広市,西四条南９丁目７番地ＴＨＥＴＯＷＥＲＯＢＩＨＩＲＯ１６０６号,,01,207,0800014,,,,,,,2024-01-18,1,,,,,ルーミー,0
339,1470003002557,新規,0,2024-01-18,2024-01-18,合同会社マーニ,,合同会社,香川県,高松市,十川西町２６０番地４,,37,201,7610433,,,,,,,2024-01-18,1,,,,,マーニ,0
340,1480001012359,新規,0,2024-01-18,2024-01-18,株式会社飯田塗装,,株式会社,徳島県,板野郡上板町,下六條字中西１４２－１,,36,405,7711344,,,,,,,2024-01-18,1,,,,,イイダトソウ,0
359,2010001241458,新規,0,2024-01-18,2024-01-18,次世代支援機構株式会社,,株式会社,東京都,千代田区,麹町４丁目３番地紅谷ビル５階,,13,101,1020083,,,,,,,2024-01-18,1,,,,,ジセダイシエンキコウ,0
360,2010001241549,新規,0,2024-01-18,2024-01-18,株式会社ＭＳＣソリューションズ,,株式会社,東京都,中央区,日本橋小伝馬町１７－１５－３階,,13,102,1030001,,,,,,,2024-01-18,1,,,,,エムエスシーソリューションズ,0
365,2010003042623,新規,0,2024-01-18,2024-01-18,ＯｏＨｉ合同会社,,合同会社,東京都,中央区,日本橋箱崎町１７番８号,,13,102,1030015,,,,,,,2024-01-18,1,,,,,オハイ,0
366,2010103002295,新規,0,2024-01-18,2024-01-18,合同会社Ｍ,,合同会社,東京都,八王子市,犬目町３７５番地６,,13,201,1930802,,,,,,,2024-01-18,1,,,,,エム,0
374,2010401179802,新規,0,2024-01-18,2024-01-18,株式会社ｆｒｅｅ　ｓｔｕｄｉｏ,,株式会社,東京都,港区,南青山３丁目１－３６青山丸竹ビル６Ｆ,,13,103,1070062,,,,,,,2024-01-18,1,,,,,フリースタジオ,0
387,2010803004814,新規,0,2024-01-18,2024-01-18,合同会社豊,,合同会社,東京都,大田区,上池台１丁目１番６号,,13,111,1450064,,,,,,,2024-01-18,1,,,,,ユタカ,0
388,2010803004822,新規,0,2024-01-18,2024-01-18,合同会社星のキャラバン,,合同会社,東京都,大田区,南蒲田３丁目１６番２７号,,13,111,1440035,,,,,,,2024-01-18,1,,,,,ホシノキャラバン,0
391,2010901054554,新規,0,2024-01-18,2024-01-18,株式会社アセンド,,株式会社,東京都,世田谷区,岡本２丁目３３番９号,,13,112,1570076,,,,,,,2024-01-18,1,,,,,アセンド,0
395,2011001159434,新規,0,2024-01-18,2024-01-18,株式会社ＰＧインベスターズ,,株式会社,東京都,渋谷区,富ヶ谷１丁目１４番１４号４階,,13,113,1510063,,,,,,,2024-01-18,1,,,,,ピージーインベスターズ,0
396,2011001159442,新規,0,2024-01-18,2024-01-18,株式会社ゼネラルリンクキャリア,,株式会社,東京都,渋谷区,渋谷２丁目６番１４号,,13,113,1500002,,,,,,,2024-01-18,1,,,,,ゼネラルリンクキャリア,0
397,2011001159450,新規,0,2024-01-18,2024-01-18,ＰＡＳＵＲ株式会社,,株式会社,東京都,渋谷区,神宮前６丁目２９－４原宿ｋｏｍｉｙａビル６階,,13,113,1500001,,,,,,,2024-01-18,1,,,,,パサー,0
400,2011003018290,新規,0,2024-01-18,2024-01-18,合同会社Ｎ．Ｒ．ＫＯＴＯＢＵＫＩ,,合同会社,東京都,渋谷区,道玄坂１丁目１０番８号渋谷道玄坂東急ビル２Ｆ－Ｃ,,13,113,1500043,,,,,,,2024-01-18,1,,,,,エヌアールコトブキ,0
401,2011003018308,新規,0,2024-01-18,2024-01-18,マレーシア植毛合同会社,,合同会社,東京都,渋谷区,道玄坂１丁目１０番８号渋谷道玄坂東急ビル２Ｆ－Ｃ,,13,113,1500043,,,,,,,2024-01-18,1,,,,,マレーシアショクモウ,0
405,2011401025657,新規,0,2024-01-18,2024-01-18,株式会社ＯＫＯＬＯＧＩＥ　ＬＥＢＥＮ,,株式会社,東京都,板橋区,中丸町１１番２ワコーレ要町ビル７階,,13,119,1730026,,,,,,,2024-01-18,1,,,,,エコロギーレーベン,0
406,2011401025772,新規,0,2024-01-18,2024-01-18,恒岳株式会社,,株式会社,東京都,板橋区,小茂根１丁目２５番１６号,,13,119,1730037,,,,,,,2024-01-18,1,,,,,コウガク,0
407,2011401025780,新規,0,2024-01-18,2024-01-18,株式会社ＨＩＤＡＭＡＲＩ,,株式会社,東京都,板橋区,常盤台２丁目５番４号Ｖａｌｉａｎｔビル２階,,13,119,1740071,,,,,,,2024-01-18,1,,,,,ヒダマリ,0
415,2012301013743,新規,0,2024-01-18,2024-01-18,株式会社ＤＯＵＢＬＥ　ＥＩＧＨＴ,,株式会社,東京都,町田市,相原町９２７番地１００,,13,209,1940211,,,,,,,2024-01-18,1,,,,,ダブルエイト,0
417,2012701018037,新規,0,2024-01-18,2024-01-18,株式会社３プラスイチ,,株式会社,東京都,西東京市,北町２丁目１２番６号,,13,229,2020003,,,,,,,2024-01-18,1,,,,,サンプラスイチ,0
418,2012801022913,新規,0,2024-01-18,2024-01-18,ＹＤ国際株式会社,,株式会社,東京都,日野市,西平山５丁目２４－２６,,13,212,1910055,,,,,,,2024-01-18,1,,,,,ワイディーコクサイ,0
419,2012803003291,新規,0,2024-01-18,2024-01-18,Ｓａｋｕｍａｓｕ合同会社,,合同会社,東京都,武蔵村山市,大南２丁目１０９番地の８,,13,223,2080013,,,,,,,2024-01-18,1,,,,,サクマス,0
427,2020001155310,新規,0,2024-01-18,2024-01-18,株式会社ＫＪＭイノベーション,,株式会社,神奈川県,川崎市川崎区,南町８番地２メゾンドティーニュ５０５,,14,131,2100015,,,,,,,2024-01-18,1,,,,,ケージェーエムイノベーション,0
428,2020001155327,新規,0,2024-01-18,2024-01-18,株式会社坂本架設,,株式会社,神奈川県,横浜市南区,永田北３丁目３番１７号第１上星谷ハイツ３０５号,,14,105,2320071,,,,,,,2024-01-18,1,,,,,サカモトカセツ,0
429,2020001155335,新規,0,2024-01-18,2024-01-18,ティアンドエス分割準備株式会社,,株式会社,神奈川県,横浜市西区,みなとみらい３丁目６番３号,,14,103,2200012,,,,,,,2024-01-18,1,,,,,ティアンドエスブンカツジュンビ,0
430,2020001155343,新規,0,2024-01-18,2024-01-18,株式会社オルタナジャパン,,株式会社,神奈川県,横浜市西区,平沼１丁目１３－１４パークノヴァ横浜壱番館４０５,,14,103,2200023,,,,,,,2024-01-18,1,,,,,オルタナジャパン,0
436,2020003025370,新規,0,2024-01-18,2024-01-18,合同会社椋,,合同会社,神奈川県,横浜市港北区,綱島西１丁目４番７号,,14,109,2230053,,,,,,,2024-01-18,1,,,,,ムク,0
445,2021003014041,新規,0,2024-01-18,2024-01-18,合同会社Ａｍｕｌｅｔ,,合同会社,神奈川県,藤沢市,南藤沢４番８～５０１号,,14,205,2510055,,,,,,,2024-01-18,1,,,,,アミュレット,0
450,2030001158163,新規,0,2024-01-18,2024-01-18,株式会社マジプロ,,株式会社,埼玉県,東松山市,大字柏崎６４４番地６,,11,212,3550034,,,,,,,2024-01-18,1,,,,,マジプロ,0
451,2030001158196,新規,0,2024-01-18,2024-01-18,株式会社フォーライド,,株式会社,埼玉県,深谷市,田中２１９６番地,,11,218,3691108,,,,,,,2024-01-18,1,,,,,フォーライド,0
455,2040001131788,新規,0,2024-01-18,2024-01-18,エコサービスいんざい株式会社,,株式会社,千葉県,印西市,大森３２２６番地１,,12,231,2701327,,,,,,,2024-01-18,1,,,,,エコサービスインザイ,0
456,2040001131838,新規,0,2024-01-18,2024-01-18,株式会社Ｔｈｅ　Ｆｏｕｎｄｒｙ,,株式会社,千葉県,千葉市美浜区,打瀬２丁目１－１，３－１０１,,12,106,2610013,,,,,,,2024-01-18,1,,,,,ファウンドリー,0
462,2040005022249,新規,0,2024-01-18,2024-01-18,医療法人社団ハレノヒ,,その他の設立登記法人,千葉県,柏市,松葉町３丁目２番地５－１階２階,,12,217,2770827,,,,,,,2024-01-18,1,,,,,ハレノヒ,0
466,2050001054088,新規,0,2024-01-18,2024-01-18,株式会社松辰,,株式会社,茨城県,つくば市,上郷１４３５番地２,,08,220,3002645,,,,,,,2024-01-18,1,,,,,マツシン,0
476,2080401026956,新規,0,2024-01-18,2024-01-18,オガサパック株式会社,,株式会社,静岡県,御前崎市,比木５５３４番地,,22,223,4371602,,,,,,,2024-01-18,1,,,,,オガサパック,0
481,2090001018502,新規,0,2024-01-18,2024-01-18,鳥澤灯房株式会社,,株式会社,山梨県,大月市,富浜町鳥沢７０６番地２,,19,206,4090502,,,,,,,2024-01-18,1,,,,,トリサワトウボウ,0
484,2100001037129,新規,0,2024-01-18,2024-01-18,株式会社ネクストフロンティア,,株式会社,長野県,松本市,大字笹賀３３４３番地３,,20,202,3990033,,,,,,,2024-01-18,1,,,,,ネクストフロンティア,0
485,2100003007352,新規,0,2024-01-18,2024-01-18,合同会社ＴＲＥＥ　ＤＥＳＩＧＮ,,合同会社,長野県,諏訪郡原村,４８７５番地９,,20,363,3910100,,,,,,,2024-01-18,1,,,,,ツリーデザイン,0
492,2120001261379,新規,0,2024-01-18,2024-01-18,Ｈａｋａｎ貿易株式会社,,株式会社,大阪府,大阪市東住吉区,杭全１丁目１７－１７－２０３号室,,27,121,5460002,,,,,,,2024-01-18,1,,,,,ハカンボウエキ,0
493,2120001261420,新規,0,2024-01-18,2024-01-18,株式会社Ａ．Ｃ．Ｅ．ｓｔｙｌｅ,,株式会社,大阪府,大阪市東住吉区,南田辺１丁目２番１１号,,27,121,5460033,,,,,,,2024-01-18,1,,,,,エーシーイースタイル,0
494,2120001261429,新規,0,2024-01-18,2024-01-18,株式会社あらし,,株式会社,大阪府,大阪市北区,太融寺町２番２１－３０４号,,27,127,5300051,,,,,,,2024-01-18,1,,,,,アラシ,0
495,2120001261486,新規,0,2024-01-18,2024-01-18,銘凱株式会社,,株式会社,大阪府,大阪市港区,南市岡３丁目１０番２号グリシーヌ弁天町５０３室,,27,107,5520011,,,,,,,2024-01-18,1,,,,,メイガイ,0
500,2120003025716,新規,0,2024-01-18,2024-01-18,ＭＩＮＨ　ＫＨＯＩ合同会社,,合同会社,大阪府,枚方市,津出西町三丁目１７番２－２０３号,,27,210,5730000,,,,,,,2024-01-18,1,,,,,ミンコイ,0
510,2120101068889,新規,0,2024-01-18,2024-01-18,マツシタ建装株式会社,,株式会社,大阪府,岸和田市,小松里町２３８２番地,,27,202,5960821,,,,,,,2024-01-18,1,,,,,マツシタケンソウ,0
511,2120101068914,新規,0,2024-01-18,2024-01-18,株式会社ＭＡＹＵＫＯ　Ｊｅｗｅｌｌｅｒｙ,,株式会社,大阪府,堺市中区,八田南之町４３５番地,,27,142,5998263,,,,,,,2024-01-18,1,,,,,マユコジュエリー,0
514,2120103005626,新規,0,2024-01-18,2024-01-18,合同会社Ｈｕｄｄｌｅ　Ｂｒｅａｋ,,合同会社,大阪府,藤井寺市,西古室２丁目４番１８号,,27,226,5830018,,,,,,,2024-01-18,1,,,,,ハドルブレイク,0
527,2122001037742,新規,0,2024-01-18,2024-01-18,株式会社Ｄａｎｋｅ,,株式会社,大阪府,八尾市,本町２丁目３番６－７０１号,,27,212,5810003,,,,,,,2024-01-18,1,,,,,ダンク,0
544,2140001133056,新規,0,2024-01-18,2024-01-18,株式会社メディアノート,,株式会社,兵庫県,三田市,加茂２１７番地,,28,219,6691311,,,,,,,2024-01-18,1,,,,,メディアノート,0
554,2150001027018,新規,0,2024-01-18,2024-01-18,株式会社ＢＵＣＫＳＬＡＳＨ,,株式会社,奈良県,橿原市,白橿町２丁目２６番４－２０６号,,29,205,6340051,,,,,,,2024-01-18,1,,,,,バックスラッシュ,0
574,2180001159774,新規,0,2024-01-18,2024-01-18,善株式会社,,株式会社,愛知県,名古屋市守山区,下志段味５丁目３９０８番地,,23,113,4630003,,,,,,,2024-01-18,1,,,,,ゼン,0
575,2180001159824,新規,0,2024-01-18,2024-01-18,ＦＡ株式会社,,株式会社,愛知県,津島市,下切町字大矢１５番地２,,23,208,4960029,,,,,,,2024-01-18,1,,,,,エフエー,0
576,2180001159840,新規,0,2024-01-18,2024-01-18,株式会社ＳＯＲＡＮ,,株式会社,愛知県,小牧市,岩崎５丁目２１２番地プチドリーム２０３号,,23,219,4850011,,,,,,,2024-01-18,1,,,,,ソラン,0
579,2180301038249,新規,0,2024-01-18,2024-01-18,ＨＩＫＥ株式会社,,株式会社,愛知県,蒲郡市,一色町東峰２７－３,,23,214,4430101,,,,,,,2024-01-18,1,,,,,ハイク,0
581,2200001042093,新規,0,2024-01-18,2024-01-18,株式会社太田基工,,株式会社,岐阜県,各務原市,三井東町４丁目７７番地,,21,213,5040914,,,,,,,2024-01-18,1,,,,,オオタキコウ,0
583,2210001019611,新規,0,2024-01-18,2024-01-18,ランクアップ株式会社,,株式会社,福井県,鯖江市,下河端町６０１番地３,,18,207,9160038,,,,,,,2024-01-18,1,,,,,ランクアップ,0
585,2210005010129,新規,0,2024-01-18,2024-01-18,医療法人島崎歯科医院,,その他の設立登記法人,福井県,坂井市,春江町西長田第４０号４５番地３,,18,210,9190404,,,,,,,2024-01-18,1,,,,,シマザキシカイイン,0
589,2230001020179,新規,0,2024-01-18,2024-01-18,株式会社チームタカ,,株式会社,富山県,富山市,柳町１丁目２番５－１０２号,,16,201,9300016,,,,,,,2024-01-18,1,,,,,チームタカ,0
595,2240001062658,新規,0,2024-01-18,2024-01-18,大喜プラント株式会社,,株式会社,広島県,福山市,箕島町５２６８番地２２,,34,207,7210957,,,,,,,2024-01-18,1,,,,,ダイキプラント,0
601,2250001020482,新規,0,2024-01-18,2024-01-18,ワイズ不動産株式会社,,株式会社,山口県,宇部市,中村１丁目６番２９－２０１号,,35,202,7550072,,,,,,,2024-01-18,1,,,,,ワイズフドウサン,0
606,2260001038672,新規,0,2024-01-18,2024-01-18,株式会社Ｐｌａｃｅ　Ｔｏ　Ｒｅｔｕｒｎ,,株式会社,岡山県,岡山市北区,三門東町３番１３号,,33,101,7000042,,,,,,,2024-01-18,1,,,,,プレイストゥリターン,0
607,2260003004549,新規,0,2024-01-18,2024-01-18,合同会社ｋｏｔｏ　ａｒｃｈｉｔｅｃｔｕｒｅ　ｌａｂ,,合同会社,岡山県,倉敷市,新田２３１３－５スターマンション１Ｆ,,33,202,7100038,,,,,,,2024-01-18,1,,,,,コトアーキテクチャーラボ,0
609,2280001009102,新規,0,2024-01-18,2024-01-18,株式会社ｓｕｒｐｒｉｓｅ,,株式会社,島根県,出雲市,大津町２５５６番地８,,32,203,6930011,,,,,,,2024-01-18,1,,,,,サプライズ,0
615,2290003014859,新規,0,2024-01-18,2024-01-18,合同会社ＳＴ,,合同会社,福岡県,福岡市東区,千早５丁目２１番１８号,,40,131,8130044,,,,,,,2024-01-18,1,,,,,エスティー,0
616,2290801030231,新規,0,2024-01-18,2024-01-18,株式会社Ｌｉｍｉｔ　Ｂｒｅａｋ,,株式会社,福岡県,北九州市小倉南区,湯川４丁目１７番１号,,40,107,8000257,,,,,,,2024-01-18,1,,,,,リミットブレイク,0
629,2330001031661,新規,0,2024-01-18,2024-01-18,株式会社ＫＴＭＭ,,株式会社,熊本県,熊本市中央区,出水４丁目３６番６号（５０１）,,43,101,8620941,,,,,,,2024-01-18,1,,,,,ケーティエムエム,0
632,2330003010168,新規,0,2024-01-18,2024-01-18,合同会社倉生,,合同会社,熊本県,上益城郡益城町,大字惣領９２４,,43,443,8612233,,,,,,,2024-01-18,1,,,,,ソウセイ,0
638,2360001033085,新規,0,2024-01-18,2024-01-18,株式会社ＢＲＡＶＥ,,株式会社,沖縄県,那覇市,字与儀１８２番地１－５０３号,,47,201,9020076,,,,,,,2024-01-18,1,,,,,ブレイブ,0
648,2390001017481,新規,0,2024-01-18,2024-01-18,株式会社エターナルメモリーズ,,株式会社,山形県,鶴岡市,切添町６番５号,,06,203,9970022,,,,,,,2024-01-18,1,,,,,エターナルメモリーズ,0
652,2430001090771,新規,0,2024-01-18,2024-01-18,株式会社アリババ,,株式会社,北海道,小樽市,銭函３丁目２３番地１９９,,01,203,0470261,,,,,,,2024-01-18,1,,,,,アリババ,0
653,2430001090887,新規,0,2024-01-18,2024-01-18,株式会社ｓａｉｗａｉ．ｎｅｘｔ,,株式会社,北海道,北広島市,大曲幸町４丁目４番地２,,01,234,0611278,,,,,,,2024-01-18,1,,,,,サイワイネクスト,0
676,2470003002556,新規,0,2024-01-18,2024-01-18,光翔合同会社,,合同会社,香川県,木田郡三木町,大字氷上９９１番地１,,37,341,7610612,,,,,,,2024-01-18,1,,,,,ミナト,0
679,2500001025415,新規,0,2024-01-18,2024-01-18,光永ホールディングス株式会社,,株式会社,愛媛県,伊予市,宮下９６番地１,,38,210,7993102,,,,,,,2024-01-18,1,,,,,コウエイホールディングス,0
682,2700150123379,新規,0,2024-01-18,2024-01-18,株式会社テソンエスエンアイ,,外国会社等,東京都,中央区,日本橋２丁目１－３アーバンネット日本橋二丁目ビル１０階エキスパートオフィス東京１００１号,,13,102,1030027,韓国ソウル特別市江南区駅三路８キル１５、７階（駅三洞、ホンウビル）,,,,,,2024-01-18,1,,,,,カブシキガイシヤテソンエスエンアイ,0
683,2700150123412,新規,0,2024-01-18,2024-01-18,ライアー響会・Ｔｈｅ　Ｌｙｒｅ　Ａｓｓｏｃｉａｔｉｏｎ　ｏｆ　Ｊａｐａｎ,,その他,東京都,西東京市,富士町４丁目２５－７,,13,229,2020014,,,,,,,2024-01-18,1,,,,,ライアーキョウカイザライアーアソシエイションオブジャパン,0
696,3010001241523,新規,0,2024-01-18,2024-01-18,ＰＦＳ商事株式会社,,株式会社,東京都,中央区,日本橋箱崎町１８番１１号ＣＯＳＭＯ８－４階,,13,102,1030015,,,,,,,2024-01-18,1,,,,,ピーエフエスショウジ,0
698,3010003042671,新規,0,2024-01-18,2024-01-18,合同会社ｋｕｍａａａ,,合同会社,東京都,中央区,銀座１丁目１２番４号Ｎ＆ＥＢＬＤ．６Ｆ,,13,102,1040061,,,,,,,2024-01-18,1,,,,,クマー,0
699,3010003042713,新規,0,2024-01-18,2024-01-18,合同会社ＬＥ３,,合同会社,東京都,千代田区,丸の内３丁目１番１号東京共同会計事務所内,,13,101,1000005,,,,,,,2024-01-18,1,,,,,エルイースリー,0
707,3010401179792,新規,0,2024-01-18,2024-01-18,株式会社ＫＩＫＯＨＡＴＡ,,株式会社,東京都,港区,東麻布１丁目２９番１５号東麻布２９６ビル２階,,13,103,1060044,,,,,,,2024-01-18,1,,,,,キコハタ,0
709,3010403031720,新規,0,2024-01-18,2024-01-18,合同会社Ｔａｌｅｓ　ｔｏ　Ｃｏｎｎｅｃｔ,,合同会社,東京都,港区,北青山１丁目３番１号アールキューブ青山３階,,13,103,1070061,,,,,,,2024-01-18,1,,,,,テールズトゥコネクト,0
714,3010801034713,新規,0,2024-01-18,2024-01-18,株式会社プランニングエラ,,株式会社,東京都,大田区,久が原３丁目２４番１０号,,13,111,1460085,,,,,,,2024-01-18,1,,,,,プランニングエラ,0
715,3010803004813,新規,0,2024-01-18,2024-01-18,合同会社快,,合同会社,東京都,大田区,上池台１丁目１番６号,,13,111,1450064,,,,,,,2024-01-18,1,,,,,カイ,0
722,3011001159441,新規,0,2024-01-18,2024-01-18,株式会社ＶＩＴＡＢＯＮ　ＪＡＰＡＮ,,株式会社,東京都,渋谷区,神宮前４丁目１４番１３号ハイシティ表参道１１５号,,13,113,1500001,,,,,,,2024-01-18,1,,,,,ヴィタボンジャパン,0
728,3011105010913,新規,0,2024-01-18,2024-01-18,一般財団法人日本文化スポーツ振興,,その他の設立登記法人,東京都,新宿区,歌舞伎町１丁目１番１６号,,13,104,1600021,,,,,,,2024-01-18,1,,,,,ニホンブンカスポーツシンコウ,0
731,3011301029328,新規,0,2024-01-18,2024-01-18,秋実通商株式会社,,株式会社,東京都,杉並区,成田西３丁目８番１５号,,13,115,1660016,,,,,,,2024-01-18,1,,,,,アキミツウショウ,0
732,3011401025771,新規,0,2024-01-18,2024-01-18,恒宇株式会社,,株式会社,東京都,板橋区,若木１丁目２６番１号,,13,119,1740065,,,,,,,2024-01-18,1,,,,,コウウ,0
733,3011403004237,新規,0,2024-01-18,2024-01-18,合同会社レゾン,,合同会社,東京都,板橋区,常盤台１丁目２５番１４号,,13,119,1740071,,,,,,,2024-01-18,1,,,,,レゾン,0
734,3011503005911,新規,0,2024-01-18,2024-01-18,合同会社マリーネ,,合同会社,東京都,荒川区,東尾久１丁目１番８号,,13,118,1160012,,,,,,,2024-01-18,1,,,,,マリーネ,0
738,3011601027477,新規,0,2024-01-18,2024-01-18,株式会社ｉ．ｓｃｈｏｏｌ　Ｔｅｃｈｎｏｌｏｇｉｅｓ,,株式会社,東京都,練馬区,桜台１丁目１８番３号,,13,120,1760002,,,,,,,2024-01-18,1,,,,,アイスクールテクノロジーズ,0
747,3012401041429,新規,0,2024-01-18,2024-01-18,株式会社ＡＳＫ,,株式会社,東京都,多摩市,貝取１４６３番地ランプリール永山３０４,,13,224,2060012,,,,,,,2024-01-18,1,,,,,エーエスケー,0
748,3012701018036,新規,0,2024-01-18,2024-01-18,株式会社エムケーアーキテクツ,,株式会社,東京都,東村山市,廻田町１丁目１番地４１,,13,213,1890025,,,,,,,2024-01-18,1,,,,,エムケーアーキテクツ,0
749,3012803003290,新規,0,2024-01-18,2024-01-18,合同会社セクストレイス,,合同会社,東京都,昭島市,東町４丁目８－４、１階３号室,,13,207,1960033,,,,,,,2024-01-18,1,,,,,セクストレイス,0
755,3013301051922,新規,0,2024-01-18,2024-01-18,クラウド株式会社,,株式会社,東京都,豊島区,池袋２丁目４８番９号恩京アムールビル４０２号,,13,116,1710014,,,,,,,2024-01-18,1,,,,,クラウド,0
758,3020001155334,新規,0,2024-01-18,2024-01-18,株式会社ミスリウム,,株式会社,神奈川県,川崎市中原区,木月１丁目３２番３号内田マンション２Ｆ,,14,133,2110025,,,,,,,2024-01-18,1,,,,,ミスリウム,0
759,3020001155342,新規,0,2024-01-18,2024-01-18,ＳＰＡＲＫＬＥ　ＤＥＳＩＧＮ株式会社,,株式会社,神奈川県,川崎市宮前区,有馬１丁目１０番１９ファミネス鷺沼１０２号,,14,136,2160003,,,,,,,2024-01-18,1,,,,,スパークルデザイン,0
760,3020001155350,新規,0,2024-01-18,2024-01-18,株式会社モリテック,,株式会社,神奈川県,横浜市西区,みなとみらい４丁目７番１－２５０５号,,14,103,2200012,,,,,,,2024-01-18,1,,,,,モリテック,0
765,3020003025378,新規,0,2024-01-18,2024-01-18,合同会社ＨＲＰ,,合同会社,神奈川県,横浜市都筑区,川和町６２２番地４Ｎ－Ａｍ－Ｂ号室,,14,118,2240057,,,,,,,2024-01-18,1,,,,,エイチアールピー,0
775,3030001158162,新規,0,2024-01-18,2024-01-18,ボヌールボーテ株式会社,,株式会社,埼玉県,草加市,花栗４丁目２５番１８号,,11,221,3400044,,,,,,,2024-01-18,1,,,,,ボヌールボーテ,0
776,3030001158229,新規,0,2024-01-18,2024-01-18,株式会社永旺,,株式会社,埼玉県,春日部市,本田町１丁目７９番地３,,11,214,3440016,,,,,,,2024-01-18,1,,,,,イオン,0
777,3030001158237,新規,0,2024-01-18,2024-01-18,株式会社毛束,,株式会社,埼玉県,新座市,野火止５丁目２番１－５０５号,,11,230,3520011,,,,,,,2024-01-18,1,,,,,ケヅカ,0
778,3030001158245,新規,0,2024-01-18,2024-01-18,株式会社ＨＩＧＨ‐ＬＩＮＥ,,株式会社,埼玉県,桶川市,朝日２丁目１４番１３－２０１号,,11,231,3630023,,,,,,,2024-01-18,1,,,,,ハイライン,0
779,3030001158253,新規,0,2024-01-18,2024-01-18,株式会社ＨＲＥ,,株式会社,埼玉県,白岡市,西４丁目１３番６グリ－ン・フィールド１０２,,11,246,3490205,,,,,,,2024-01-18,1,,,,,エイチアールイー,0
785,3040001131762,新規,0,2024-01-18,2024-01-18,スカイプロジェクト株式会社,,株式会社,千葉県,船橋市,馬込西２丁目１３番３９号,,12,204,2730855,,,,,,,2024-01-18,1,,,,,スカイプロジェクト,0
789,3050001054104,新規,0,2024-01-18,2024-01-18,株式会社一豊商事,,株式会社,茨城県,稲敷市,脇川７７２番地,,08,229,3000606,,,,,,,2024-01-18,1,,,,,カズトヨショウジ,0
801,3070003005235,新規,0,2024-01-18,2024-01-18,合同会社ＭＩＺＵＮＯ　ＴＲＡＤＩＮＧ,,合同会社,群馬県,館林市,苗木町２６３９番地の２,,10,207,3740043,,,,,,,2024-01-18,1,,,,,ミズノトレーディング,0
804,3080101024482,新規,0,2024-01-18,2024-01-18,株式会社アースビルド,,株式会社,静岡県,富士宮市,下条３９８番地の２,,22,207,4180114,,,,,,,2024-01-18,1,,,,,アースビルド,0
810,3100001037136,新規,0,2024-01-18,2024-01-18,ウエストファーム株式会社,,株式会社,長野県,中野市,大字小田中７６３番地,,20,211,3830037,,,,,,,2024-01-18,1,,,,,ウエストファーム,0
812,3110001038117,新規,0,2024-01-18,2024-01-18,株式会社ホープ・エンターテインメント,,株式会社,新潟県,新潟市中央区,弁天３丁目２番３１号牡丹第３ビル４Ｆ,,15,103,9500901,,,,,,,2024-01-18,1,,,,,ホープエンターテインメント,0
824,3120001261171,新規,0,2024-01-18,2024-01-18,株式会社ＳＳ,,株式会社,大阪府,大阪市浪速区,難波中３丁目９番３号ＲＥ－０２０,,27,111,5560011,,,,,,,2024-01-18,1,,,,,エスエス,0
825,3120001261262,新規,0,2024-01-18,2024-01-18,ＬＩＷＯＬ株式会社,,株式会社,大阪府,大阪市北区,梅田１丁目２番２号,,27,127,5300001,,,,,,,2024-01-18,1,,,,,リオル,0
826,3120001261394,新規,0,2024-01-18,2024-01-18,王様株式会社,,株式会社,大阪府,大阪市中央区,松屋町９番２０号ローレルステート松屋町６０７Ｂ,,27,128,5420067,,,,,,,2024-01-18,1,,,,,オウサマ,0
827,3120001261403,新規,0,2024-01-18,2024-01-18,谷口株式会社,,株式会社,大阪府,大阪市北区,梅田１丁目２番２号大阪駅前第２ビル１２－１２,,27,127,5300001,,,,,,,2024-01-18,1,,,,,タニグチ,0
828,3120001261411,新規,0,2024-01-18,2024-01-18,株式会社ＧＯＫＡＮケア,,株式会社,大阪府,大阪市東住吉区,今川３丁目８番１４号,,27,121,5460003,,,,,,,2024-01-18,1,,,,,ゴカンケア,0
829,3120001261428,新規,0,2024-01-18,2024-01-18,株式会社スマコン,,株式会社,大阪府,大阪市中央区,谷町５丁目２番４－１２０２号,,27,128,5400012,,,,,,,2024-01-18,1,,,,,スマコン,0
830,3120001261493,新規,0,2024-01-18,2024-01-18,株式会社＿栄,00133395,株式会社,大阪府,大阪市北区,長柄中２丁目５番３０号,,27,127,5310062,,,,,,,2024-01-18,1,,,,,キンエイ,0
831,3120001261502,新規,0,2024-01-18,2024-01-18,嘉奕株式会社,,株式会社,大阪府,大阪市西成区,南津守６丁目３番７３－１０１号室,,27,122,5570063,,,,,,,2024-01-18,1,,,,,カエキ,0
837,3120003025707,新規,0,2024-01-18,2024-01-18,合同会社ランベージ,,合同会社,大阪府,大阪市北区,梅田１丁目２番２号大阪駅前第２ビル１２－１２,,27,127,5300001,,,,,,,2024-01-18,1,,,,,ランベージ,0
848,3120105009814,新規,0,2024-01-18,2024-01-18,一般社団法人つばさクリニック,,その他の設立登記法人,大阪府,堺市堺区,市之町東５丁２番１４－３０１号,,27,141,5900952,,,,,,,2024-01-18,1,,,,,ツバサクリニック,0
854,3120901048635,新規,0,2024-01-18,2024-01-18,株式会社Ｐｒｉｍａｒｙ,,株式会社,大阪府,高槻市,氷室町２丁目１７番１９号,,27,207,5691141,,,,,,,2024-01-18,1,,,,,プライマリー,0
865,3122001037733,新規,0,2024-01-18,2024-01-18,株式会社Ｔ’ｓ建装,,株式会社,大阪府,八尾市,東老原１丁目４２番地１０５号,,27,212,5810093,,,,,,,2024-01-18,1,,,,,ティーズケンソウ,0
866,3122001037741,新規,0,2024-01-18,2024-01-18,株式会社Ｎｅｘｓｉｏ,,株式会社,大阪府,東大阪市,西石切町３丁目８番４０号,,27,227,5798013,,,,,,,2024-01-18,1,,,,,ネクシオ,0
872,3130001076148,新規,0,2024-01-18,2024-01-18,ゴキンジョ株式会社,,株式会社,京都府,京都市左京区,高野東開町８－５,,26,103,6068107,,,,,,,2024-01-18,1,,,,,ゴキンジョ,0
882,3140001133030,新規,0,2024-01-18,2024-01-18,株式会社中筋地所,,株式会社,兵庫県,宝塚市,中筋１丁目７番７号,,28,214,6650874,,,,,,,2024-01-18,1,,,,,ナカスジジショ,0
883,3140001133055,新規,0,2024-01-18,2024-01-18,ミノトレーディング株式会社,,株式会社,兵庫県,神戸市中央区,浜辺通５丁目１－１４神戸商工貿易センタービル,,28,110,6510083,,,,,,,2024-01-18,1,,,,,ミノトレーディング,0
885,3140003020045,新規,0,2024-01-18,2024-01-18,合同会社ＹＲＣ,,合同会社,兵庫県,尼崎市,東園田町４丁目２６－２８,,28,202,6610953,,,,,,,2024-01-18,1,,,,,ワイアールシー,0
886,3140005026908,新規,0,2024-01-18,2024-01-18,弁護士法人中原綜合法律事務所,,その他の設立登記法人,兵庫県,神戸市中央区,楠町６丁目２番４号ハーバースカイビル７階７０１号,,28,110,6500017,,,,,,,2024-01-18,1,,,,,ナカハラソウゴウホウリツジムショ,0
888,3160001025639,新規,0,2024-01-18,2024-01-18,株式会社ＧＲＩＮＤ,,株式会社,滋賀県,草津市,野路東６丁目３番１５号,,25,206,5250058,,,,,,,2024-01-18,1,,,,,グラインド,0
893,3160005011263,新規,0,2024-01-18,2024-01-18,一般社団法人ＰＵＮＴＯ　Ａ　ＣＡＰＯ,,その他の設立登記法人,滋賀県,大津市,秋葉台２３番４６号,,25,201,5200822,,,,,,,2024-01-18,1,,,,,プンタカーポ,0
912,3180001159600,新規,0,2024-01-18,2024-01-18,株式会社Ｙｏｌｏ,,株式会社,愛知県,名古屋市中区,千代田１丁目１５番１４号,,23,106,4600012,,,,,,,2024-01-18,1,,,,,ヨロ,0
913,3180001159781,新規,0,2024-01-18,2024-01-18,公陽株式会社,,株式会社,愛知県,日進市,米野木町南山９７３番地１０１,,23,230,4700111,,,,,,,2024-01-18,1,,,,,コウヨウ,0
914,3180001159798,新規,0,2024-01-18,2024-01-18,株式会社ｔａｓｙ倶楽部,,株式会社,愛知県,名古屋市千種区,大島町１丁目８０番地,,23,101,4640833,,,,,,,2024-01-18,1,,,,,テイジークラブ,0
915,3180001159823,新規,0,2024-01-18,2024-01-18,株式会社アイ・ライブラリ,,株式会社,愛知県,名古屋市北区,水草町２丁目６０番地の２水草団地５号棟１０３号,,23,103,4620042,,,,,,,2024-01-18,1,,,,,アイライブラリ,0
917,3180003026229,新規,0,2024-01-18,2024-01-18,合同会社マールック,,合同会社,愛知県,あま市,木田小塚１番地２,00133390,23,237,4901222,,,,,,,2024-01-18,1,,,,,マールック,0
918,3180003026237,新規,0,2024-01-18,2024-01-18,名桜アドバイザリー合同会社,,合同会社,愛知県,名古屋市南区,芝町１１２番地の７,,23,112,4570023,,,,,,,2024-01-18,1,,,,,メイオウアドバイザリー,0
922,3200001042076,新規,0,2024-01-18,2024-01-18,ｍｈ．ｍｏｔｏｒｉｎｇ＆ｃｏ．株式会社,,株式会社,岐阜県,安八郡神戸町,大字下宮１８３２番地の２,,21,381,5032312,,,,,,,2024-01-18,1,,,,,エムエイチモータリングアンドコー,0
923,3200001042084,新規,0,2024-01-18,2024-01-18,株式会社Ｌｉｎｃ,,株式会社,岐阜県,高山市,三福寺町４５４９番地１ラガールマンション２１０,,21,203,5060807,,,,,,,2024-01-18,1,,,,,リンク,0
925,3200005013552,新規,0,2024-01-18,2024-01-18,保証責任椋實第一負債整理組合,,その他の設立登記法人,岐阜県,恵那市,三郷町椋実,,21,210,5097125,,,,,,,2024-01-18,1,,,,,ホショウセキニンムクノミダイイチ,0
927,3210001019610,新規,0,2024-01-18,2024-01-18,株式会社Ｎコーポレーション,,株式会社,福井県,福井市,栗森２丁目１７０４番地,,18,201,9100137,,,,,,,2024-01-18,1,,,,,エヌコーポレーション,0
932,3220001025780,新規,0,2024-01-18,2024-01-18,株式会社北陸シーグレイス,,株式会社,石川県,白山市,相川町９９４番地２５,,17,210,9240027,,,,,,,2024-01-18,1,,,,,ホクリクシーグレイス,0
946,3240001062657,新規,0,2024-01-18,2024-01-18,株式会社大栄,,株式会社,広島県,広島市安佐北区,三入６丁目２８番２１号,,34,106,7310211,,,,,,,2024-01-18,1,,,,,ダイエイ,0
949,3260001038663,新規,0,2024-01-18,2024-01-18,株式会社タウン企画商事,,株式会社,岡山県,倉敷市,西岡１０４４番地１,,33,202,7100005,,,,,,,2024-01-18,1,,,,,タウンキカクショウジ,0
950,3260001038671,新規,0,2024-01-18,2024-01-18,株式会社ユニバレス,,株式会社,岡山県,岡山市北区,大元２丁目２－２,,33,101,7000924,,,,,,,2024-01-18,1,,,,,ユニバレス,0
961,3290001104438,新規,0,2024-01-18,2024-01-18,株式会社公共メディアプロダクションズ,,株式会社,福岡県,福岡市中央区,天神４丁目６番２８号天神ファーストビル７階,,40,133,8100001,,,,,,,2024-01-18,1,,,,,コウキョウメディアプロダクションズ,0
966,3290005019260,新規,0,2024-01-18,2024-01-18,医療法人ちくご糖尿病・内分泌クリニック,,その他の設立登記法人,福岡県,筑後市,大字前津４番地１,,40,211,8330002,,,,,,,2024-01-18,1,,,,,チクゴトウニョウビョウナイブンピクリニック,0
967,3290005019269,新規,0,2024-01-18,2024-01-18,一般社団法人柳川ＡＣＡＤＥＭＹ,,その他の設立登記法人,福岡県,柳川市,本城町１２５番地,,40,207,8320061,,,,,,,2024-01-18,1,,,,,ヤナガワアカデミー,0
968,3290801030230,新規,0,2024-01-18,2024-01-18,ケンコーミライ株式会社,,株式会社,福岡県,北九州市小倉北区,浅野３丁目８番１号ＡＩＭビル６階,,40,106,8020001,,,,,,,2024-01-18,1,,,,,ケンコーミライ,0
981,3330001031660,新規,0,2024-01-18,2024-01-18,丘の上工務店株式会社,,株式会社,熊本県,山鹿市,山鹿１７０４番地１,,43,208,8610501,,,,,,,2024-01-18,1,,,,,オカノウエコウムテン,0
983,3330003010175,新規,0,2024-01-18,2024-01-18,合同会社ミンテグレード,,合同会社,熊本県,熊本市中央区,水道町１５番２０－４０８号,,43,101,8600844,,,,,,,2024-01-18,1,,,,,ミンテグレード,0
987,3350001018755,新規,0,2024-01-18,2024-01-18,株式会社ＥＳＴＥＭ　Ｈｏｕｓｅ,,株式会社,宮崎県,都城市,年見町２４号７番地２,,45,202,8850017,,,,,,,2024-01-18,1,,,,,エステムハウス,0
993,3370001050830,新規,0,2024-01-18,2024-01-18,ホープウエル株式会社,,株式会社,宮城県,仙台市青葉区,木町通２丁目６－５３－７０６,,04,101,9800801,,,,,,,2024-01-18,1,,,,,ホープウエル,0
1001,3430001090853,新規,0,2024-01-18,2024-01-18,株式会社オフィス・ユニオン,,株式会社,北海道,岩見沢市,栗沢町越前６９９番地,,01,210,0680106,,,,,,,2024-01-18,1,,,,,オフィスユニオン,0
1002,3430001090894,新規,0,2024-01-18,2024-01-18,ハッチ株式会社,,株式会社,北海道,札幌市中央区,南九条西１０丁目１番２３号,,01,101,0640809,,,,,,,2024-01-18,1,,,,,ハッチ,0
1006,3430003015825,新規,0,2024-01-18,2024-01-18,合同会社山本工業,,合同会社,北海道,登別市,中央町２丁目１４番地１,,01,230,0590012,,,,,,,2024-01-18,1,,,,,ヤマモトコウギョウ,0
1007,3430003015858,新規,0,2024-01-18,2024-01-18,Ｃａｒｍｉｎｅ　Ｄｅｓｉｇｎｓ合同会社,,合同会社,北海道,札幌市中央区,北五条西１１丁目１５番４号,,01,101,0600005,,,,,,,2024-01-18,1,,,,,カルミンデザイン,0
1015,3450003002433,新規,0,2024-01-18,2024-01-18,合同会社匠味屋,,合同会社,北海道,上川郡美瑛町,南町３丁目４番５号,,01,459,0710202,,,,,,,2024-01-18,1,,,,,,0
1018,3460001005858,新規,0,2024-01-18,2024-01-18,株式会社月暈,,株式会社,北海道,釧路市,錦町２丁目４番地フィッシャーマンズワーフ３Ｆ,,01,206,0850016,,,,,,,2024-01-18,1,,,,,,0
1023,3460301005194,新規,0,2024-01-18,2024-01-18,株式会社冨樫農場,,株式会社,北海道,網走市,字音根内１４７番地,,01,211,0993501,,,,,,,2024-01-18,1,,,,,トガシノウジョウ,0
1025,3462503000213,新規,0,2024-01-18,2024-01-18,合同会社道東モータース,,合同会社,北海道,標津郡中標津町,南中８番地３４,,01,692,0861150,,,,,,,2024-01-18,1,,,,,ドウトウモータース,0
1029,3470001019989,新規,0,2024-01-18,2024-01-18,株式会社正弘,,株式会社,香川県,高松市,香川町川東上１２８７番地１,,37,201,7611706,,,,,,,2024-01-18,1,,,,,セイコウ,0
1031,3470003002555,新規,0,2024-01-18,2024-01-18,合同会社インディゴアップル,,合同会社,香川県,高松市,松縄町３０番地１７,,37,201,7600079,,,,,,,2024-01-18,1,,,,,インディゴアップル,0
1032,3480001012357,新規,0,2024-01-18,2024-01-18,株式会社いえにわ,,株式会社,徳島県,徳島市,応神町東貞方字貞光１２０番地１,,36,201,7711154,,,,,,,2024-01-18,1,,,,,イエニワ,0
1034,3500001025414,新規,0,2024-01-18,2024-01-18,株式会社Ｏｙｓｔａｒｔ,,株式会社,愛媛県,今治市,吉海町仁江２１８０番地,,38,202,7942104,,,,,,,2024-01-18,1,,,,,オイスタート,0
1035,3500001025422,新規,0,2024-01-18,2024-01-18,株式会社浅井建工,,株式会社,愛媛県,松山市,福角町甲１５７４番地１,,38,201,7992652,,,,,,,2024-01-18,1,,,,,アサイケンコウ,0
1040,3700150123345,新規,0,2024-01-18,2024-01-16,中部個人タクシー協会,,その他,愛知県,名古屋市中川区,東中島町２丁目１市営中島荘２－４０３号,,23,110,4540866,,,,,,,2024-01-16,1,,,,,チユウブコジンタクシーキヨウカイ,0
1041,3700150123378,新規,0,2024-01-18,2024-01-18,ＧＵＬＲＡＩＺ　ＩＮＤＵＳＴＲＹ,,外国会社等,栃木県,栃木市,岩舟町新里１３０４番地５６号室,,09,203,3294316,パキスタン・イスラム共和国、パンジャブ、グジュランワラ、チュグタイ通り、ザヒドコロニー,,,,,,2024-01-18,1,,,,,ガルライズインダストリー,0
1042,3700150123411,新規,0,2024-01-18,2024-01-18,山口県立下関工科高等学校ＰＴＡ,,その他,山口県,下関市,富任町４丁目１番１号,,35,201,7596613,,,,,,,2024-01-18,1,,,,,ヤマグチケンリツシモノセキコウカコウトウガッコウピーティーエー,0
1049,4010001241530,新規,0,2024-01-18,2024-01-18,株式会社ＨＡＩＶＥ,,株式会社,東京都,文京区,本郷６丁目２５番１４号,,13,105,1130033,,,,,,,2024-01-18,1,,,,,ハイブ,0
1050,4010001241571,新規,0,2024-01-18,2024-01-18,ｍｉｎｔ株式会社,,株式会社,東京都,千代田区,外神田４丁目１４番１号,,13,101,1010021,,,,,,,2024-01-18,1,,,,,ミント,0
1051,4010003042695,新規,0,2024-01-18,2024-01-18,合同会社きーやん,,合同会社,東京都,千代田区,四番町４番地６,,13,101,1020081,,,,,,,2024-01-18,1,,,,,キーヤン,0
1062,4010401179791,新規,0,2024-01-18,2024-01-18,ＮａｋａＴａｋｕ株式会社,,株式会社,東京都,港区,六本木４丁目２－４５高會堂ビル２Ｆ,,13,103,1060032,,,,,,,2024-01-18,1,,,,,ナカタク,0
1064,4010403031736,新規,0,2024-01-18,2024-01-18,合同会社あざみ,,合同会社,東京都,港区,北青山１丁目３番１号アールキューブ青山３Ｆ,,13,103,1070061,,,,,,,2024-01-18,1,,,,,アザミ,0
1069,4010601064496,新規,0,2024-01-18,2024-01-18,ウインデイ株式会社,,株式会社,東京都,江東区,大島３丁目８番７－６０６号,,13,108,1360072,,,,,,,2024-01-18,1,,,,,ウインデイ,0
1070,4010603010564,新規,0,2024-01-18,2024-01-18,合同会社ＳＮＫ,,合同会社,東京都,江東区,塩浜２丁目１４番１４号竹島ビル,,13,108,1350043,,,,,,,2024-01-18,1,,,,,エスエヌケー,0
1071,4010703007023,新規,0,2024-01-18,2024-01-18,合同会社ふすま,,合同会社,東京都,品川区,上大崎２丁目７番１６－３０２号,,13,109,1410021,,,,,,,2024-01-18,1,,,,,フスマ,0
1076,4010901054536,新規,0,2024-01-18,2024-01-18,株式会社コーナーアンドコー,,株式会社,東京都,世田谷区,奥沢５丁目１番１１号メゾンドジョワ２０２,,13,112,1580083,,,,,,,2024-01-18,1,,,,,コーナーアンドコー,0
1083,4011103013982,新規,0,2024-01-18,2024-01-18,合同会社大森カンパニー,,合同会社,東京都,新宿区,高田馬場４丁目２４番５号星あかりビル,,13,104,1690075,,,,,,,2024-01-18,1,,,,,オオモリカンパニー,0
1092,4011501030200,新規,0,2024-01-18,2024-01-18,株式会社ハイブリッジ,,株式会社,東京都,北区,中十条３丁目３３番９号８０２,,13,117,1140032,,,,,,,2024-01-18,1,,,,,ハイブリッジ,0
1100,4012301013733,新規,0,2024-01-18,2024-01-18,株式会社マザープラント,,株式会社,東京都,町田市,南町田１丁目２番４９号,,13,209,1940005,,,,,,,2024-01-18,1,,,,,マザープラント,0
1108,4013103001298,新規,0,2024-01-18,2024-01-18,合同会社エム・グリーン,,合同会社,東京都,西多摩郡瑞穂町,箱根ケ崎東松原２番地２８,,13,303,1901222,,,,,,,2024-01-18,1,,,,,エムグリーン,0
1109,4013301051921,新規,0,2024-01-18,2024-01-18,株式会社ＣＡＰＡ　ＪＡＰＡＮ,,株式会社,東京都,豊島区,西池袋５丁目１４番３号シーアイマンション立教前１１０４号,,13,116,1710021,,,,,,,2024-01-18,1,,,,,シーエイピーエイジャパン,0
1111,4013305003563,新規,0,2024-01-18,2024-01-18,税理士法人ロータリー,,その他の設立登記法人,東京都,豊島区,東池袋１丁目３２番６号河合ビル９階,,13,116,1700013,,,,,,,2024-01-18,1,,,,,ロータリー,0
1116,4020001155333,新規,0,2024-01-18,2024-01-18,ネクスト株式会社,,株式会社,神奈川県,横浜市青葉区,美しが丘１丁目１３番地１０吉村ビル１０７号,,14,117,2250002,,,,,,,2024-01-18,1,,,,,ネクスト,0
1119,4021001081247,新規,0,2024-01-18,2024-01-18,株式会社こちや造園,,株式会社,神奈川県,茅ヶ崎市,赤羽根１４００番地８,,14,207,2530001,,,,,,,2024-01-18,1,,,,,コチヤゾウエン,0
1122,4021003014031,新規,0,2024-01-18,2024-01-18,合同会社鴻誠,,合同会社,神奈川県,鎌倉市,大船１丁目１３－８クレール壱番館３０１号室,,14,204,2470056,,,,,,,2024-01-18,1,,,,,コウセイ,0
1128,4030001158137,新規,0,2024-01-18,2024-01-18,Ｓａｙａ株式会社,,株式会社,埼玉県,さいたま市中央区,大戸４丁目２６番６－１号,,11,105,3380012,,,,,,,2024-01-18,1,,,,,サヤ,0
1129,4030001158178,新規,0,2024-01-18,2024-01-18,株式会社ＡＴＧ,,株式会社,埼玉県,越谷市,大沢５４８番地１９,,11,222,3430025,,,,,,,2024-01-18,1,,,,,エーティージー,0
1134,4030003023355,新規,0,2024-01-18,2024-01-18,合同会社エイチフィールド,,合同会社,埼玉県,朝霞市,三原５丁目１３番５号,,11,227,3510025,,,,,,,2024-01-18,1,,,,,エイチフィールド,0
1139,4040001131786,新規,0,2024-01-18,2024-01-18,株式会社青木工業,,株式会社,千葉県,千葉市緑区,中西町６０３番地２３スカイタウン中西１０１,,12,105,2660024,,,,,,,2024-01-18,1,,,,,アオキコウギョウ,0
1140,4040001131836,新規,0,2024-01-18,2024-01-18,株式会社竹之内工業,,株式会社,千葉県,千葉市花見川区,幕張町４丁目２１２１番地７,,12,102,2620032,,,,,,,2024-01-18,1,,,,,タケノウチコウギョウ,0
1147,4040003024138,新規,0,2024-01-18,2024-01-18,合同会社ｅｔｈｉｃａｌｓｔｙｌｅ,,合同会社,千葉県,鴨川市,横渚１１０５番地１マリンコート鴨川２０５,,12,223,2960001,,,,,,,2024-01-18,1,,,,,エシカルスタイル,0
1148,4040005022230,新規,0,2024-01-18,2024-01-18,イエス・キリストファミリー教会,,その他の設立登記法人,千葉県,四街道市,大日２１０６番地１３,,12,228,2840001,,,,,,,2024-01-18,1,,,,,,0
1153,4050001054144,新規,0,2024-01-18,2024-01-18,株式会社豊島,,株式会社,茨城県,水戸市,元吉田町１３６３番地の６,,08,201,3100836,,,,,,,2024-01-18,1,,,,,トヨシマ,0
1157,4050003008073,新規,0,2024-01-18,2024-01-18,合同会社リノバランス,,合同会社,茨城県,守谷市,薬師台７丁目５番地１,,08,224,3020105,,,,,,,2024-01-18,1,,,,,リノバランス,0
1158,4050005013377,新規,0,2024-01-18,2024-01-18,特定非営利活動法人Ｓｏｗｅｌｕ,,その他の設立登記法人,茨城県,土浦市,中央１丁目１０番８号,,08,203,3000043,,,,,,,2024-01-18,1,,,,,ソエル,0
1167,4080101024481,新規,0,2024-01-18,2024-01-18,Ａｋａｌａ株式会社,,株式会社,静岡県,裾野市,下和田２４９番地の１２,,22,220,4101105,,,,,,,2024-01-18,1,,,,,アカラ,0
1168,4080401026962,新規,0,2024-01-18,2024-01-18,株式会社イープレンティフル,,株式会社,静岡県,浜松市中央区,有玉南町５１５－７,,22,138,4313122,,,,,,,2024-01-18,1,,,,,イープレンティフル,0
1169,4090003002469,新規,0,2024-01-18,2024-01-18,合同会社Ｂｌｕｅ　ｂｅ,,合同会社,山梨県,南アルプス市,小笠原６８０－１クレールヒロＡ２,,19,208,4000306,,,,,,,2024-01-18,1,,,,,ブルービー,0
1176,4110001038108,新規,0,2024-01-18,2024-01-18,ＲＩホールディングス株式会社,,株式会社,新潟県,南魚沼市,石打８３４番地１６,,15,226,9496372,,,,,,,2024-01-18,1,,,,,アールアイホールディングス,0
1177,4110003005262,新規,0,2024-01-18,2024-01-18,合同会社ＮＥＡＲ,,合同会社,新潟県,新潟市東区,本所１丁目９－６２,,15,102,9500804,,,,,,,2024-01-18,1,,,,,ニア,0
1186,4120001261410,新規,0,2024-01-18,2024-01-18,株式会社栄虎,,株式会社,大阪府,大阪市浪速区,難波中３丁目１６－１１ニューナンバビル新館５５４号室,,27,111,5560011,,,,,,,2024-01-18,1,,,,,エイト,0
1187,4120001261451,新規,0,2024-01-18,2024-01-18,永正株式会社,,株式会社,大阪府,大阪市住吉区,長居２丁目１０番３－１０６号,,27,120,5580003,,,,,,,2024-01-18,1,,,,,ナガマサ,0
1188,4120001261468,新規,0,2024-01-18,2024-01-18,株式会社ＴＭ医薬,,株式会社,大阪府,大阪市西淀川区,御幣島５丁目８番２８号,,27,113,5550012,,,,,,,2024-01-18,1,,,,,ティーエムイヤク,0
1190,4120003025648,新規,0,2024-01-18,2024-01-18,合同会社ＭＯＮＯＣＯＬＯ,,合同会社,大阪府,大阪市東淀川区,東中島１丁目１７番５－３０２号,,27,114,5330033,,,,,,,2024-01-18,1,,,,,モノコロ,0
1197,4120101068895,新規,0,2024-01-18,2024-01-18,株式会社村上電気商会,,株式会社,大阪府,堺市西区,浜寺南町３丁８番地１９,,27,144,5928344,,,,,,,2024-01-18,1,,,,,ムラカミデンキショウカイ,0
1198,4120101068904,新規,0,2024-01-18,2024-01-18,株式会社幸朋,,株式会社,大阪府,堺市西区,浜寺石津町西４丁１番３０号,,27,144,5928333,,,,,,,2024-01-18,1,,,,,コウホウ,0
1210,4120901048634,新規,0,2024-01-18,2024-01-18,クリエイティブキャンバス株式会社,,株式会社,大阪府,豊中市,東豊中六丁目３番１０号福山ハウス１０１,,27,203,5600000,,,,,,,2024-01-18,1,,,,,クリエイティブキャンバス,0
1214,4120903004998,新規,0,2024-01-18,2024-01-18,合同会社トイトイトイ,,合同会社,大阪府,吹田市,寿町２丁目２番１－４０４号,,27,205,5640036,,,,,,,2024-01-18,1,,,,,トイトイトイ,0
1221,4122001037740,新規,0,2024-01-18,2024-01-18,ＨＯＺＵ株式会社,,株式会社,大阪府,東大阪市,日下町７丁目７番３３号,,27,227,5798003,,,,,,,2024-01-18,1,,,,,ホズ,0
1227,4122005003730,新規,0,2024-01-18,2024-01-18,医療法人なかまの会,,その他の設立登記法人,大阪府,東大阪市,菱屋西１丁目１７番２２号プレミアム菱屋西１階,,27,227,5770807,,,,,,,2024-01-18,1,,,,,ナカマノカイ,0
1230,4130001076139,新規,0,2024-01-18,2024-01-18,株式会社ＴＡＫＥＯＮＥ　ＥＸＰＲＥＳＳ,,株式会社,京都府,京都市南区,東九条南山王町９３,,26,107,6018011,,,,,,,2024-01-18,1,,,,,テイクワンエクスプレス,0
1231,4130001076155,新規,0,2024-01-18,2024-01-18,株式会社ＳＴＣ,,株式会社,京都府,京都市下京区,新町通松原下る富永町１０７－１－５Ｆ,,26,106,6008449,,,,,,,2024-01-18,1,,,,,エスティシー,0
1232,4130001076163,新規,0,2024-01-18,2024-01-18,株式会社ｓｏｙ,,株式会社,京都府,京都市上京区,堀川通今出川上る実相院町１３９番地３,,26,102,6020059,,,,,,,2024-01-18,1,,,,,ソイ,0
1239,4140001132989,新規,0,2024-01-18,2024-01-18,株式会社ＡＤＣ,,株式会社,兵庫県,神戸市東灘区,本山北町３丁目１３番２０－２０５号,,28,101,6580003,,,,,,,2024-01-18,1,,,,,エーディーシー,0
1240,4140001133021,新規,0,2024-01-18,2024-01-18,株式会社カラカラベース,,株式会社,兵庫県,宝塚市,山手台西４丁目２３番１１号,,28,214,6650886,,,,,,,2024-01-18,1,,,,,カラカラベース,0
1241,4140001133046,新規,0,2024-01-18,2024-01-18,株式会社マツヤ,,株式会社,兵庫県,加古川市,加古川町友沢３２８番地,,28,210,6750035,,,,,,,2024-01-18,1,,,,,,0
1243,4140003020060,新規,0,2024-01-18,2024-01-18,合同会社Ｒｉｃｈ‐ｉ,,合同会社,兵庫県,神戸市垂水区,小束山手１丁目１２番５号,,28,108,6550009,,,,,,,2024-01-18,1,,,,,リッチアイ,0
1244,4140003020069,新規,0,2024-01-18,2024-01-18,合同会社クレッシェンド,,合同会社,兵庫県,宝塚市,野上４丁目１１番３号メゾン野上２０２,,28,214,6650022,,,,,,,2024-01-18,1,,,,,クレッシェンド,0
1254,4160005011262,新規,0,2024-01-18,2024-01-18,特定非営利活動法人ジェネレーション・ケア,,その他の設立登記法人,滋賀県,草津市,青地町２１３－１ディアコート青地ＩＩ６０９号室,00133391,25,206,5250041,,,,,,,2024-01-18,1,,,,,ジェネレーションケア,0
1257,4170001017972,新規,0,2024-01-18,2024-01-18,株式会社高野山植物園,,株式会社,和歌山県,伊都郡高野町,大字高野山４６番地の５６,,30,344,6480211,,,,,,,2024-01-18,1,,,,,コウヤサンショクブツエン,0
1263,4180001159756,新規,0,2024-01-18,2024-01-18,ＳＨＯ‐ＴＩＭＥ株式会社,,株式会社,愛知県,名古屋市天白区,島田黒石６１１番地,,23,116,4680028,,,,,,,2024-01-18,1,,,,,ショータイム,0
1264,4180001159764,新規,0,2024-01-18,2024-01-18,株式会社グリシュン,,株式会社,愛知県,春日井市,大和通１丁目４８番地１,,23,206,4860944,,,,,,,2024-01-18,1,,,,,グリシュン,0
1265,4180001159772,新規,0,2024-01-18,2024-01-18,株式会社いつき,,株式会社,愛知県,名古屋市中区,錦３丁目１２番１５号,,23,106,4600003,,,,,,,2024-01-18,1,,,,,イツキ,0
1266,4180001159780,新規,0,2024-01-18,2024-01-18,株式会社Ｌｅａｆ＆Ｒｏｏｔ,,株式会社,愛知県,名古屋市天白区,元植田３丁目３０１番地,,23,116,4680009,,,,,,,2024-01-18,1,,,,,リーフアンドルート,0
1267,4180001159822,新規,0,2024-01-18,2024-01-18,レンギ株式会社,,株式会社,愛知県,名古屋市中区,錦１丁目７番１５号,,23,106,4600003,,,,,,,2024-01-18,1,,,,,レンギ,0
1268,4180001159839,新規,0,2024-01-18,2024-01-18,株式会社ハウジング牧島,,株式会社,愛知県,名古屋市熱田区,西野町１丁目８１番地の２,,23,109,4560063,,,,,,,2024-01-18,1,,,,,ハウジングマキシマ,0
1272,4180003026244,新規,0,2024-01-18,2024-01-18,合同会社冨田経営コンサルティング,,合同会社,愛知県,清須市,上条１丁目２番地１０,,23,233,4520944,,,,,,,2024-01-18,1,,,,,トミタケイエイコンサルティング,0
1273,4180301038247,新規,0,2024-01-18,2024-01-18,株式会社ＳＥＥＫ,,株式会社,愛知県,岡崎市,上地６丁目１８番地中央マンション上地５０１,,23,202,4440823,,,,,,,2024-01-18,1,,,,,シーク,0
1275,4190001031039,新規,0,2024-01-18,2024-01-18,株式会社いずみ設備,,株式会社,三重県,三重郡菰野町,大字竹成４１２６番地６,,24,341,5101312,,,,,,,2024-01-18,1,,,,,イズミセツビ,0
1279,4200001042091,新規,0,2024-01-18,2024-01-18,株式会社Ａ．Ｓ　ＥＸＴＥＮＳＩＯＮ　ＪＡＰＡＮ,,株式会社,岐阜県,関市,上之保１４０１番地,,21,205,5013601,,,,,,,2024-01-18,1,,,,,エーエスエクステンションジャパン,0
1284,4230001020177,新規,0,2024-01-18,2024-01-18,株式会社７２ｗｏｒｋｓ,,株式会社,富山県,富山市,星井町２丁目４番５号,,16,201,9300065,,,,,,,2024-01-18,1,,,,,セブンツーワークス,0
1294,4250001020480,新規,0,2024-01-18,2024-01-18,株式会社山口商会,,株式会社,山口県,下関市,菊川町大字上田部字道別１３－２,,35,201,7500314,,,,,,,2024-01-18,1,,,,,ヤマグチショウカイ,0
1296,4260001038662,新規,0,2024-01-18,2024-01-18,久竹ホールディングス株式会社,,株式会社,岡山県,岡山市北区,平野１７０番地,,33,101,7010151,,,,,,,2024-01-18,1,,,,,キュウタケホールディングス,0
1298,4260003004547,新規,0,2024-01-18,2024-01-18,合同会社Ｍｉｒａｇｅ,,合同会社,岡山県,岡山市北区,野田４丁目８番９号,,33,101,7000971,,,,,,,2024-01-18,1,,,,,ミラージュ,0
1300,4270003001592,新規,0,2024-01-18,2024-01-18,合同会社ＣＡＬＭＥ,,合同会社,鳥取県,倉吉市,清谷町２丁目５番地,,31,203,6820017,,,,,,,2024-01-18,1,,,,,カルム,0
1311,4290001104404,新規,0,2024-01-18,2024-01-18,株式会社ｓｈｉｎｅ‐ｙ,,株式会社,福岡県,太宰府市,水城４丁目２番７号,,40,221,8180131,,,,,,,2024-01-18,1,,,,,シャイニー,0
1316,4290005019268,新規,0,2024-01-18,2024-01-18,医療法人前田眼科クリニック,,その他の設立登記法人,福岡県,飯塚市,枝国６６６番地４８,,40,205,8200081,,,,,,,2024-01-18,1,,,,,マエダガンカクリニック,0
1319,4290803004594,新規,0,2024-01-18,2024-01-18,合同会社解体ＪＡＰＡＮ,,合同会社,福岡県,北九州市小倉南区,北方３丁目３５番１７－１３号,,40,107,8020841,,,,,,,2024-01-18,1,,,,,カイタイジャパン,0
1323,4320003004276,新規,0,2024-01-18,2024-01-18,合同会社ＲＯＯＭ,,合同会社,大分県,別府市,駅前本町９番２０号オフィスＨＯＯＤ,,44,202,8740934,,,,,,,2024-01-18,1,,,,,ルーム,0
1325,4330001031668,新規,0,2024-01-18,2024-01-18,株式会社ハマダヤフーズ,,株式会社,熊本県,熊本市中央区,練兵町１３番地７シティライフ練兵町２０２号,,43,101,8600017,,,,,,,2024-01-18,1,,,,,ハマダヤフーズ,0
1326,4330003010174,新規,0,2024-01-18,2024-01-18,合同会社ウェルポンプ,,合同会社,熊本県,熊本市北区,弓削４丁目４番４９号,,43,105,8618002,,,,,,,2024-01-18,1,,,,,ウェルポンプ,0
1331,4360001033075,新規,0,2024-01-18,2024-01-18,株式会社オフィス結心,,株式会社,沖縄県,沖縄市,照屋４丁目８番２１号,,47,211,9040011,,,,,,,2024-01-18,1,,,,,オフィスユイシン,0
1332,4360001033091,新規,0,2024-01-18,2024-01-18,ＭＫサポート株式会社,,株式会社,沖縄県,沖縄市,美里仲原町３番１５号,,47,211,9042156,,,,,,,2024-01-18,1,,,,,エムケイサポート,0
1333,4360001033100,新規,0,2024-01-18,2024-01-18,ＧＴＢ株式会社,,株式会社,沖縄県,国頭郡東村,字慶佐次３８２番地,,47,303,9051205,,,,,,,2024-01-18,1,,,,,ジーティービー,0
1336,4370001050838,新規,0,2024-01-18,2024-01-18,株式会社センスクリエイション,,株式会社,宮城県,富谷市,明石台６丁目８番地１２,,04,216,9813332,,,,,,,2024-01-18,1,,,,,センスクリエイション,0
1340,4380001034245,新規,0,2024-01-18,2024-01-18,桜川建設株式会社,,株式会社,福島県,須賀川市,越久字桜川１９９番地３,,07,207,9620051,,,,,,,2024-01-18,1,,,,,サクラガワケンセツ,0
1341,4390001017488,新規,0,2024-01-18,2024-01-18,株式会社Ｃｉｅｌ,,株式会社,山形県,新庄市,沖の町７‐２４,,06,205,9960023,,,,,,,2024-01-18,1,,,,,シエル,0
1342,4410001013708,新規,0,2024-01-18,2024-01-18,Ｐｒｉｍｅｓ株式会社,,株式会社,秋田県,にかほ市,前川字久根添２５番地,,05,214,0180321,,,,,,,2024-01-18,1,,,,,プライムズ,0
1347,4430001090877,新規,0,2024-01-18,2024-01-18,Ｔ．Ｒ株式会社,,株式会社,北海道,札幌市白石区,北郷九条９丁目１番２５号,,01,104,0030839,,,,,,,2024-01-18,1,,,,,ティーアール,0
1348,4430001090885,新規,0,2024-01-18,2024-01-18,ヨツバタテモノ株式会社,,株式会社,北海道,札幌市東区,伏古二条５丁目１番２７号,,01,103,0070862,,,,,,,2024-01-18,1,,,,,ヨツバタテモノ,0
1352,4430003015865,新規,0,2024-01-18,2024-01-18,合同会社トライブレインワークス,,合同会社,北海道,札幌市中央区,南四条西１５丁目１‐２５木村ビル３階フロア,,01,101,0640804,,,,,,,2024-01-18,1,,,,,トライブレインワークス,0
1362,4470001019988,新規,0,2024-01-18,2024-01-18,株式会社Ｂｌｕｅｅｅｅｅ,,株式会社,香川県,さぬき市,志度４１８番地５,,37,206,7692101,,,,,,,2024-01-18,1,,,,,ブルー,0
1366,4470005006545,新規,0,2024-01-18,2024-01-18,一般社団法人Ｕｌｕ　ｍｅａ,,その他の設立登記法人,香川県,高松市,木太町６２８番地１４,,37,201,7600080,,,,,,,2024-01-18,1,,,,,ウルメア,0
1369,4500001025413,新規,0,2024-01-18,2024-01-18,ハレナス株式会社,,株式会社,愛媛県,四国中央市,川之江町４０８４番地２,,38,213,7990101,,,,,,,2024-01-18,1,,,,,ハレナス,0
1370,4500001025421,新規,0,2024-01-18,2024-01-18,株式会社ＦａＴＥ,,株式会社,愛媛県,松山市,小坂５丁目４－１６第８中村ビル４０３,,38,201,7900963,,,,,,,2024-01-18,1,,,,,フェイト,0
1371,4700150123377,新規,0,2024-01-18,2024-01-18,Ｃａｂｏｔ　Ｐａｒｔｎｅｒｓ　Ｊａｐａｎ．ＬＬＣ,,外国会社等,東京都,千代田区,丸の内３丁目２番２号丸の内二重橋ビル２階,,13,101,1000005,アメリカ合衆国デラウェア州１９８０１、ニューキャッスル郡、ウィルミントン、オレンジ・ストリート１２０９、コーポレーション・トラスト・カンパニー内,,,,,,2024-01-18,1,,,,,キヤボツトパートナーズジヤパンエルエルシー,0
1382,5010001241488,新規,0,2024-01-18,2024-01-18,株式会社クルーズ,,株式会社,東京都,千代田区,神田和泉町１番地６の１６ヤマトビル４０５,,13,101,1010024,,,,,,,2024-01-18,1,,,,,クルーズ,0
1387,5010003042678,新規,0,2024-01-18,2024-01-18,合同会社京都悠洛,,合同会社,東京都,千代田区,丸の内３丁目１番１号東京共同会計事務所内,,13,101,1000005,,,,,,,2024-01-18,1,,,,,キョウトユラ,0
1390,5010005037759,新規,0,2024-01-18,2024-01-18,一般社団法人シグナムホールディングス,,その他の設立登記法人,東京都,千代田区,丸の内３丁目１番１号東京共同会計事務所内,,13,101,1000005,,,,,,,2024-01-18,1,,,,,シグナムホールディングス,0
1396,5010401179725,新規,0,2024-01-18,2024-01-18,株式会社Ｌｅａｄ　ａｎｄ　ｓｕｎ,,株式会社,東京都,港区,芝１丁目２番１－１５０１号,,13,103,1050014,,,,,,,2024-01-18,1,,,,,リードアンドサン,0
1397,5010401179790,新規,0,2024-01-18,2024-01-18,株式会社ＩＬＦ,,株式会社,東京都,港区,海岸１丁目２－３汐留芝離宮ビルディング２１階,,13,103,1050022,,,,,,,2024-01-18,1,,,,,アイエルエフ,0
1403,5010405022848,新規,0,2024-01-18,2024-01-18,一般社団法人ＰＡＬ,,その他の設立登記法人,東京都,港区,麻布十番１丁目６番６号,,13,103,1060045,,,,,,,2024-01-18,1,,,,,パル,0
1404,5010405022856,新規,0,2024-01-18,2024-01-18,一般社団法人唄結び,,その他の設立登記法人,東京都,港区,芝浦２丁目１４－７,,13,103,1080023,,,,,,,2024-01-18,1,,,,,ウタムスビ,0
1406,5010601064487,新規,0,2024-01-18,2024-01-18,株式会社レディマドンナ,,株式会社,東京都,墨田区,両国３丁目２３番１０号,,13,107,1300026,,,,,,,2024-01-18,1,,,,,レディマドンナ,0
1411,5010801034703,新規,0,2024-01-18,2024-01-18,株式会社クロワール,,株式会社,東京都,大田区,大森北６丁目２４番１号ＴｈｅＬａｇｕｎａ３０１,,13,111,1430016,,,,,,,2024-01-18,1,,,,,クロワール,0
1416,5010901054543,新規,0,2024-01-18,2024-01-18,株式会社ＫＵＦＵ,,株式会社,東京都,世田谷区,下馬１丁目４０番２２号ラコート１０２,,13,112,1540002,,,,,,,2024-01-18,1,,,,,クフウ,0
1417,5011001159431,新規,0,2024-01-18,2024-01-18,やわらかオールスターズ株式会社,,株式会社,東京都,渋谷区,恵比寿３丁目７番１７号Ｂ１０１,,13,113,1500013,,,,,,,2024-01-18,1,,,,,ヤワラカオールスターズ,0
1418,5011003018288,新規,0,2024-01-18,2024-01-18,合同会社マティルダドットワイン,,合同会社,東京都,渋谷区,上原１丁目３番９号１階,,13,113,1510064,,,,,,,2024-01-18,1,,,,,マティルダドットワイン,0
1419,5011003018296,新規,0,2024-01-18,2024-01-18,Ｍｉ‐デザイン合同会社,,合同会社,東京都,渋谷区,広尾１丁目１１番４号共立ビル８０３,,13,113,1500012,,,,,,,2024-01-18,1,,,,,ミーデザイン,0
1421,5011101105814,新規,0,2024-01-18,2024-01-18,京文株式会社,,株式会社,東京都,新宿区,西落合１丁目２１番８号,,13,104,1610031,,,,,,,2024-01-18,1,,,,,キョウブン,0
1422,5011103013981,新規,0,2024-01-18,2024-01-18,Ｎｅｘｔ　Ｓｔａｒ　ＬＡＢ合同会社,,合同会社,東京都,新宿区,西新宿３丁目３番１３号西新宿水間ビル６階,,13,104,1600023,,,,,,,2024-01-18,1,,,,,ネクストスターラボ,0
1423,5011201025185,新規,0,2024-01-18,2024-01-18,株式会社ＧＲＯＷ　ＵＰ　ＳＹＳＴＥＭＳ,,株式会社,東京都,中野区,野方３丁目２６番６号,,13,114,1650027,,,,,,,2024-01-18,1,,,,,グローアップシステムズ,0
1430,5011603004209,新規,0,2024-01-18,2024-01-18,合同会社ＹＡＯ,,合同会社,東京都,練馬区,豊玉北５丁目２３番３－３０３号,,13,120,1760012,,,,,,,2024-01-18,1,,,,,ヨウ,0
1434,5012301013740,新規,0,2024-01-18,2024-01-18,日本体験の旅株式会社,,株式会社,東京都,町田市,根岸２丁目１－２８－４Ｆ,,13,209,1940038,,,,,,,2024-01-18,1,,,,,ニホンタイケンノタビ,0
1435,5012801022910,新規,0,2024-01-18,2024-01-18,Ｂｒｅａｋ　ｉｎ　ｌｉｆｅ株式会社,,株式会社,東京都,国分寺市,西元町１丁目１番２０号国分寺パークハウス２０１,,13,214,1850023,,,,,,,2024-01-18,1,,,,,ブレークインライフ,0
1446,5020001155324,新規,0,2024-01-18,2024-01-18,株式会社サクシア,,株式会社,神奈川県,横浜市鶴見区,馬場３丁目２６番４,,14,101,2300076,,,,,,,2024-01-18,1,,,,,サクシア,0
1447,5020001155332,新規,0,2024-01-18,2024-01-18,プロファスジャパン株式会社,,株式会社,神奈川県,横浜市港北区,新横浜１丁目１３番６号,,14,109,2220033,,,,,,,2024-01-18,1,,,,,プロファスジャパン,0
1448,5020001155340,新規,0,2024-01-18,2024-01-18,株式会社Ｇｉｂｒｉｄｇｅ,,株式会社,神奈川県,横浜市神奈川区,鶴屋町３丁目３５－１第２米林ビル３Ｆ,,14,102,2210835,,,,,,,2024-01-18,1,,,,,ギブリッジ,0
1449,5020001155349,新規,0,2024-01-18,2024-01-18,レガシア株式会社,,株式会社,神奈川県,横浜市神奈川区,台町１３番地１１,,14,102,2210834,,,,,,,2024-01-18,1,,,,,レガシア,0
1456,5021001081246,新規,0,2024-01-18,2024-01-18,株式会社旭ＯＫステップ,,株式会社,神奈川県,平塚市,山下１丁目２６番２９号,,14,203,2540911,,,,,,,2024-01-18,1,,,,,アサヒオーケーステップ,0
1460,5021003014039,新規,0,2024-01-18,2024-01-18,合同会社Ｒ　Ｌｏｖｅ　Ｃ,,合同会社,神奈川県,小田原市,中村原９９４番地の２３カピターノ１０３,,14,206,2560803,,,,,,,2024-01-18,1,,,,,アールラブシー,0
1465,5030001158169,新規,0,2024-01-18,2024-01-18,泓昇株式会社,,株式会社,埼玉県,川口市,中青木４丁目６番１６－２号棟３Ｆ,,11,203,3320032,,,,,,,2024-01-18,1,,,,,オウショウ,0
1466,5030001158235,新規,0,2024-01-18,2024-01-18,ＳＭＫＭ株式会社,,株式会社,埼玉県,越谷市,レイクタウン２丁目２７－１５,,11,222,3430828,,,,,,,2024-01-18,1,,,,,エスエムケイエム,0
1467,5030001158268,新規,0,2024-01-18,2024-01-18,株式会社ハンチス,,株式会社,埼玉県,行田市,大字持田２４９３－８,,11,206,3610056,,,,,,,2024-01-18,1,,,,,ハンチス,0
1474,5040001131785,新規,0,2024-01-18,2024-01-18,株式会社テンス,,株式会社,千葉県,千葉市中央区,千葉港７番２号ライオンズマンション千葉グランドタワー１０２号,,12,101,2600026,,,,,,,2024-01-18,1,,,,,テンス,0
1477,5040005022246,新規,0,2024-01-18,2024-01-18,社会保険労務士法人京葉事務所,,その他の設立登記法人,千葉県,市原市,五井中央西１丁目３３番１５号６階,,12,219,2900081,,,,,,,2024-01-18,1,,,,,ケイヨウジムショ,0
1479,5050001054119,新規,0,2024-01-18,2024-01-18,ＡＢＢＡＳ　ＴＲＡＤＩＮＧ株式会社,,株式会社,茨城県,坂東市,辺田２４５番地４,,08,228,3060632,,,,,,,2024-01-18,1,,,,,アバストレーディング,0
1481,5060001036743,新規,0,2024-01-18,2024-01-18,株式会社Ｆｏｎｔｉａｎｇｅ,,株式会社,栃木県,宇都宮市,西川田町７２９番地２,,09,201,3210151,,,,,,,2024-01-18,1,,,,,フォンティアンジュ,0
1485,5070003005233,新規,0,2024-01-18,2024-01-18,サイバリティ合同会社,,合同会社,群馬県,前橋市,総社町総社１８８３番地１,,10,201,3710852,,,,,,,2024-01-18,1,,,,,サイバリティ,0
1487,5080101024480,新規,0,2024-01-18,2024-01-18,ＨｏｌｉＣ株式会社,,株式会社,静岡県,富士市,本町７番１３号アローズビル５階,,22,210,4160914,,,,,,,2024-01-18,1,,,,,ホリック,0
1489,5080401026953,新規,0,2024-01-18,2024-01-18,株式会社ＭｏｎＬｅｎｏ,,株式会社,静岡県,浜松市中央区,砂山町３５５番地の４ハマキョウレックス浜松駅南ビル４階,,22,138,4300926,,,,,,,2024-01-18,1,,,,,モンレノ,0
1490,5080401026961,新規,0,2024-01-18,2024-01-18,株式会社遠州不動産,,株式会社,静岡県,浜松市浜名区,引佐町狩宿８８１番地の１３,,22,139,4312225,,,,,,,2024-01-18,1,,,,,エンシュウフドウサン,0
1493,5100001037134,新規,0,2024-01-18,2024-01-18,株式会社アンバーロジックス,,株式会社,長野県,茅野市,本町東１２番６号,,20,214,3910003,,,,,,,2024-01-18,1,,,,,アンバーロジックス,0
1494,5100001037142,新規,0,2024-01-18,2024-01-18,株式会社ルーフ・ロック,,株式会社,長野県,南佐久郡川上村,大字大深山１１８６番地,,20,304,3841405,,,,,,,2024-01-18,1,,,,,ルーフロック,0
1496,5110001038107,新規,0,2024-01-18,2024-01-18,株式会社いち電工,,株式会社,新潟県,新潟市東区,中山８丁目２５番８号,,15,102,9500861,,,,,,,2024-01-18,1,,,,,イチデンコウ,0
1501,5120001261228,新規,0,2024-01-18,2024-01-18,株式会社日本コスモトピア,,株式会社,大阪府,大阪市淀川区,西中島４丁目９番２８号,,27,123,5320011,,,,,,,2024-01-18,1,,,,,ニホンコスモトピア,0
1502,5120001261426,新規,0,2024-01-18,2024-01-18,アンティークコインジャパン株式会社,,株式会社,大阪府,大阪市中央区,南船場３丁目２－２２－２０５,,27,128,5420081,,,,,,,2024-01-18,1,,,,,アンティークコインジャパン,0
1503,5120001261491,新規,0,2024-01-18,2024-01-18,株式会社ｃｕｒａ企画,,株式会社,大阪府,大阪市西区,江戸堀３丁目２番２５－１５０４号,,27,106,5500002,,,,,,,2024-01-18,1,,,,,クーラキカク,0
1505,5120003025688,新規,0,2024-01-18,2024-01-18,合同会社ＷＯＲＬＤ　ＤＯＯＲ,,合同会社,大阪府,大阪市西区,西本町３丁目１番１９－７０１号,,27,106,5500005,,,,,,,2024-01-18,1,,,,,ワールドドア,0
1506,5120005024102,新規,0,2024-01-18,2024-01-18,医療法人希,,その他の設立登記法人,大阪府,枚方市,岡東町１８番２０号枚方中央ビル３階,,27,210,5730032,,,,,,,2024-01-18,1,,,,,ノゾミ,0
1515,5120101068894,新規,0,2024-01-18,2024-01-18,株式会社ケアルｋａｎｓａｉ,,株式会社,大阪府,堺市南区,竹城台１丁１番２号－２Ｆ,,27,145,5900105,,,,,,,2024-01-18,1,,,,,ケアルカンサイ,0
1516,5120101068903,新規,0,2024-01-18,2024-01-18,株式会社博美,,株式会社,大阪府,堺市西区,浜寺石津町西２丁１番１６号,,27,144,5928333,,,,,,,2024-01-18,1,,,,,ハクビ,0
1517,5120101068911,新規,0,2024-01-18,2024-01-18,株式会社エイチピー,,株式会社,大阪府,泉大津市,虫取町２丁目６番１０号,,27,206,5950037,,,,,,,2024-01-18,1,,,,,エイチピー,0
1528,5120105009812,新規,0,2024-01-18,2024-01-18,医療法人修真会,,その他の設立登記法人,大阪府,泉佐野市,日根野４２９９番地の４ＯＳマンションＩＩ１階,00133396,27,213,5980021,,,,,,,2024-01-18,1,,,,,シュウシンカイ,0
1545,5122003002774,新規,0,2024-01-18,2024-01-18,合同会社Ｇｅｒｂｅｒａ,,合同会社,大阪府,八尾市,高美町５丁目１－３４,,27,212,5810017,,,,,,,2024-01-18,1,,,,,ガーベラ,0
1549,5130001076096,新規,0,2024-01-18,2024-01-18,株式会社ＨＩＮＯメディカル,,株式会社,京都府,京都市上京区,室町通一条上る小島町５４２番地,,26,102,6020904,,,,,,,2024-01-18,1,,,,,ヒノメディカル,0
1550,5130001076146,新規,0,2024-01-18,2024-01-18,株式会社ＷｅｌｌＴｅｃｈ,,株式会社,京都府,京都市下京区,中堂寺粟田町９３番地ＫＲＰ４号館３階ＫＲＰＢＩＺＮＥＸＴ,,26,106,6008815,,,,,,,2024-01-18,1,,,,,ウェルテック,0
1556,5140001133045,新規,0,2024-01-18,2024-01-18,株式会社島津建設,,株式会社,兵庫県,尼崎市,西立花町３丁目１０－３３エステート上山２０１号,,28,202,6600054,,,,,,,2024-01-18,1,,,,,,0
1557,5140001133053,新規,0,2024-01-18,2024-01-18,株式会社喜友名,,株式会社,兵庫県,赤穂郡上郡町,船坂４１７番地１,,28,481,6781252,,,,,,,2024-01-18,1,,,,,キユナ,0
1560,5140005026914,新規,0,2024-01-18,2024-01-18,医療法人社団脩良会,,その他の設立登記法人,兵庫県,加古川市,加古川町篠原町５０,,28,210,6750065,,,,,,,2024-01-18,1,,,,,シュウヨカイ,0
1561,5150001027015,新規,0,2024-01-18,2024-01-18,株式会社越智,,株式会社,奈良県,香芝市,五位堂１丁目３１８番地,,29,210,6390226,,,,,,,2024-01-18,1,,,,,オチ,0
1582,5180001159771,新規,0,2024-01-18,2024-01-18,株式会社ＪＨ,,株式会社,愛知県,名古屋市東区,東桜１丁目４番３２号（ダイアパレス栄公園マンション９０５号）,,23,102,4610005,,,,,,,2024-01-18,1,,,,,ジェイエイチ,0
1583,5180001159796,新規,0,2024-01-18,2024-01-18,株式会社セリアントゴールド,,株式会社,愛知県,半田市,東浜町２丁目７２番地の１,,23,205,4750813,,,,,,,2024-01-18,1,,,,,セリアントゴールド,0
1584,5180001159813,新規,0,2024-01-18,2024-01-18,株式会社ＳＢ,,株式会社,愛知県,春日井市,岩成台２丁目１番地１０,,23,206,4870033,,,,,,,2024-01-18,1,,,,,エスビー,0
1588,5180003026227,新規,0,2024-01-18,2024-01-18,合同会社Ｂｅｅｈａｐｐｙ,,合同会社,愛知県,長久手市,根の神２１１ヴィラグリーン３Ｃ,,23,238,4801141,,,,,,,2024-01-18,1,,,,,ビーハッピー,0
1589,5180003026235,新規,0,2024-01-18,2024-01-18,ＡＡＦ　ＪＡＰＡＮ合同会社,,合同会社,愛知県,海部郡飛島村,大字梅之郷字北梅２７番,,23,427,4901435,,,,,,,2024-01-18,1,,,,,アーフジャパン,0
1590,5180003026243,新規,0,2024-01-18,2024-01-18,合同会社ｅｌ　ｖｉｅｎｔｏ,,合同会社,愛知県,名古屋市千種区,東明町３丁目１５番地（プレミスト東山東明町３０６号）,,23,101,4640028,,,,,,,2024-01-18,1,,,,,エルビエント,0
1595,5180303005979,新規,0,2024-01-18,2024-01-18,合同会社青空グリーンアップ,,合同会社,愛知県,碧南市,六軒町２丁目３２番地,,23,209,4470861,,,,,,,2024-01-18,1,,,,,アオゾラグリーンアップ,0
1598,5200001042082,新規,0,2024-01-18,2024-01-18,株式会社ＡＷ工房,,株式会社,岐阜県,加茂郡川辺町,上川辺９５６番地９,,21,503,5090302,,,,,,,2024-01-18,1,,,,,エイダブルコウボウ,0
1601,5210001019609,新規,0,2024-01-18,2024-01-18,株式会社スリーピースタイル,,株式会社,福井県,福井市,高柳３丁目２８０１番地,,18,201,9100837,,,,,,,2024-01-18,1,,,,,スリーピースタイル,0
1612,5280005007586,新規,0,2024-01-18,2024-01-18,医療法人おおた皮膚科クリニック,,その他の設立登記法人,島根県,出雲市,斐川町直江４９２５番地１,,32,203,6990631,,,,,,,2024-01-18,1,,,,,オオタヒフカクリニック,0
1616,5290803004593,新規,0,2024-01-18,2024-01-18,合同会社ＭＵＲＡＴＡ,,合同会社,福岡県,北九州市小倉北区,香春口１丁目１３番１－１４０４号,,40,106,8020084,,,,,,,2024-01-18,1,,,,,ムラタ,0
1617,5300001013593,新規,0,2024-01-18,2024-01-18,株式会社トゥープラス,,株式会社,佐賀県,佐賀市,若楠３丁目１３番１５号,,41,201,8490928,,,,,,,2024-01-18,1,,,,,トゥープラス,0
1619,5300003002066,新規,0,2024-01-18,2024-01-18,合同会社ＭＫカンパニー,,合同会社,佐賀県,唐津市,鏡１８１１番地１,,41,202,8470022,,,,,,,2024-01-18,1,,,,,エムケーカンパニー,0
1622,5310001018807,新規,0,2024-01-18,2024-01-18,株式会社松枝,,株式会社,長崎県,佐世保市,須田尾町３１０番地４,,42,202,8570831,,,,,,,2024-01-18,1,,,,,マツエダ,0
1625,5330001031659,新規,0,2024-01-18,2024-01-18,株式会社ＯＮ　ＴＨＥ　ＧＯ,,株式会社,熊本県,熊本市中央区,下通１丁目３番８号下通ＮＳビル６階,,43,101,8600807,,,,,,,2024-01-18,1,,,,,オンザゴー,0
1629,5340001026229,新規,0,2024-01-18,2024-01-18,株式会社レオ,,株式会社,鹿児島県,枕崎市,新町１０８番地,,46,204,8980007,,,,,,,2024-01-18,1,,,,,レオ,0
1634,5360001033090,新規,0,2024-01-18,2024-01-18,株式会社ポケシスタ,,株式会社,沖縄県,沖縄市,比屋根６丁目３３番２６号,,47,211,9042173,,,,,,,2024-01-18,1,,,,,ポケシスタ,0
1639,5370003006449,新規,0,2024-01-18,2024-01-18,合同会社Ａｐｐ　Ｓｔｕｄｉｏ,,合同会社,宮城県,仙台市太白区,長町南４丁目２３－６,,04,104,9820012,,,,,,,2024-01-18,1,,,,,アップスタディオ,0
1642,5390001017487,新規,0,2024-01-18,2024-01-18,株式会社大野農園,,株式会社,山形県,東置賜郡高畠町,大字高畠１０７７番地の２５,,06,381,9920351,,,,,,,2024-01-18,1,,,,,オオノノウエン,0
1649,5430001090876,新規,0,2024-01-18,2024-01-18,株式会社ＲＤＭ,,株式会社,北海道,札幌市清田区,北野七条５丁目１７番２４号,,01,110,0040867,,,,,,,2024-01-18,1,,,,,アールディーエム,0
1650,5430001090892,新規,0,2024-01-18,2024-01-18,連龍株式会社,,株式会社,北海道,札幌市中央区,南二十一条西６丁目１番１１号,,01,101,0640921,,,,,,,2024-01-18,1,,,,,レンリュウ,0
1662,5500001025412,新規,0,2024-01-18,2024-01-18,株式会社リチノキ,,株式会社,愛媛県,松山市,西石井５丁目９番５号,,38,201,7900931,,,,,,,2024-01-18,1,,,,,リチノキ,0
1663,5500001025420,新規,0,2024-01-18,2024-01-18,岬丸株式会社,,株式会社,愛媛県,新居浜市,多喜浜３丁目６番４４号,,38,205,7920893,,,,,,,2024-01-18,1,,,,,ミサキマル,0
1672,6010001241330,新規,0,2024-01-18,2024-01-18,ＰＲＩＶＡＴＥ　ＧＲＯＵＮＤ株式会社,,株式会社,東京都,中央区,銀座４丁目１３番８号岩藤ビル５階,,13,102,1040061,,,,,,,2024-01-18,1,,,,,プライベートグランド,0
1673,6010001241495,新規,0,2024-01-18,2024-01-18,株式会社ＮｅｘｕｓＣｌｏｕｄ　Ｓｙｓｔｅｍｓ,,株式会社,東京都,中央区,京橋１丁目２－５京橋ＴＤビル７階,,13,102,1040031,,,,,,,2024-01-18,1,,,,,ネクサスクラウドシステムズ,0
1674,6010001241594,新規,0,2024-01-18,2024-01-18,株式会社ランサイド,,株式会社,東京都,千代田区,有楽町２丁目７番１号有楽町イトシア１２階,,13,101,1000006,,,,,,,2024-01-18,1,,,,,ランサイド,0
1690,6010401179732,新規,0,2024-01-18,2024-01-18,株式会社Ｙｏｕ,,株式会社,東京都,港区,高輪３丁目１０番２号グラスプラス高輪,,13,103,1080074,,,,,,,2024-01-18,1,,,,,ユー,0
1695,6010503007312,新規,0,2024-01-18,2024-01-18,三安商事合同会社,,合同会社,東京都,台東区,蔵前３丁目１３－１２蔵前ハイム２０４－１,,13,106,1110051,,,,,,,2024-01-18,1,,,,,サンアンショウジ,0
1696,6010601064486,新規,0,2024-01-18,2024-01-18,株式会社サンキング,,株式会社,東京都,墨田区,両国３丁目２３番１０号,,13,107,1300026,,,,,,,2024-01-18,1,,,,,サンキング,0
1697,6010701045411,新規,0,2024-01-18,2024-01-18,株式会社ｍｏｒｅｏｖｅｒ,,株式会社,東京都,品川区,南品川５丁目１１番１７－１０２号,,13,109,1400004,,,,,,,2024-01-18,1,,,,,モアオーバー,0
1705,6010901054534,新規,0,2024-01-18,2024-01-18,株式会社ＳｉｍｐＣｏ,,株式会社,東京都,世田谷区,太子堂２丁目１７－５佐藤ビル３階,,13,112,1540004,,,,,,,2024-01-18,1,,,,,シンプコ,0
1712,6011001159406,新規,0,2024-01-18,2024-01-18,株式会社ぱんけーき,,株式会社,東京都,目黒区,大橋２丁目４番２４－３０４号,,13,110,1530044,,,,,,,2024-01-18,1,,,,,パンケーキ,0
1713,6011001159463,新規,0,2024-01-18,2024-01-18,株式会社ｃｏｃｏｔｉｅｒｅ,,株式会社,東京都,渋谷区,桜丘町２２番６号７０４,,13,113,1500031,,,,,,,2024-01-18,1,,,,,ココティエール,0
1715,6011003018221,新規,0,2024-01-18,2024-01-18,合同会社Ｌｏｔｕｓ,,合同会社,東京都,渋谷区,神泉町８－１０メゾン神泉３１１,,13,113,1500045,,,,,,,2024-01-18,1,,,,,ロタース,0
1716,6011003018287,新規,0,2024-01-18,2024-01-18,ＢＥＹＯＷＡ合同会社,,合同会社,東京都,渋谷区,恵比寿１丁目１５－９日宝恵比寿ビル４０３,,13,113,1500013,,,,,,,2024-01-18,1,,,,,ベヨワ,0
1723,6011103013980,新規,0,2024-01-18,2024-01-18,ＳＵＭＦＯＯＮＩＡ　ＳＥＫＩ合資会社,,合資会社,東京都,新宿区,北新宿１丁目１８番２号,,13,104,1690074,,,,,,,2024-01-18,1,,,,,サンフォニアセキ,0
1747,6013301051903,新規,0,2024-01-18,2024-01-18,龍慶設計株式会社,,株式会社,東京都,豊島区,西池袋２丁目５－９デュオ・スカーラ目白１０２号室,,13,116,1710021,,,,,,,2024-01-18,1,,,,,リュウケイセッケイ,0
1750,6020001155249,新規,0,2024-01-18,2024-01-18,株式会社Ａｄｏｎ’ｎｅｔ,,株式会社,神奈川県,横浜市西区,北幸２丁目１０番地４８むつみビル３Ｆ,,14,103,2200004,,,,,,,2024-01-18,1,,,,,アドオンネット,0
1751,6020001155331,新規,0,2024-01-18,2024-01-18,コプラス株式会社,,株式会社,神奈川県,横浜市中区,元浜町３丁目２１－２ヘリオス関内ビル,,14,104,2310004,,,,,,,2024-01-18,1,,,,,コプラス,0
1755,6020003025375,新規,0,2024-01-18,2024-01-18,光星システム合同会社,,合同会社,神奈川県,川崎市川崎区,駅前本町１１番地２川崎フロンティアビル４階,,14,131,2100007,,,,,,,2024-01-18,1,,,,,コウセイシステム,0
1760,6021001081245,新規,0,2024-01-18,2024-01-18,株式会社エムズＳＧ,,株式会社,神奈川県,秦野市,柳町１丁目２番１２号アールビル２階Ａ号室,,14,211,2591315,,,,,,,2024-01-18,1,,,,,エムズエスジー,0
1768,6030001158168,新規,0,2024-01-18,2024-01-18,株式会社グリス,,株式会社,埼玉県,八潮市,大字木曽根７５１－１－２０３,,11,234,3400813,,,,,,,2024-01-18,1,,,,,グリス,0
1769,6030001158201,新規,0,2024-01-18,2024-01-18,株式会社トリアテクト,,株式会社,埼玉県,白岡市,新白岡６丁目１番地６,,11,246,3490212,,,,,,,2024-01-18,1,,,,,トリアテクト,0
1774,6040001131784,新規,0,2024-01-18,2024-01-18,株式会社ＢＡＮＧＬＡＤＥＳＨＩ侍,,株式会社,千葉県,柏市,高田１０２４番地４エクセレントハイム１０１号,,12,217,2770861,,,,,,,2024-01-18,1,,,,,バングラデシサムライ,0
1775,6040001131826,新規,0,2024-01-18,2024-01-18,株式会社Ｈａｎａコネクト,,株式会社,千葉県,柏市,松ケ崎１１７６番地６３,,12,217,2770835,,,,,,,2024-01-18,1,,,,,ハナコネクト,0
1776,6040001131850,新規,0,2024-01-18,2024-01-18,株式会社ＴＥＡ　ＲＯＯＭ,,株式会社,千葉県,千葉市中央区,新田町１１番地９結城野ベース４０１号,,12,101,2600027,,,,,,,2024-01-18,1,,,,,ティールーム,0
1783,6050001054126,新規,0,2024-01-18,2024-01-18,株式会社水越写真館,,株式会社,茨城県,取手市,戸頭８丁目３番２７号,,08,217,3020034,,,,,,,2024-01-18,1,,,,,ミズコシシャシンカン,0
1795,6080401026960,新規,0,2024-01-18,2024-01-18,宇宙利活用研究株式会社,,株式会社,静岡県,浜松市中央区,鍛冶町１００－１ザザシティ浜松中央館Ｂ１Ｆ,,22,138,4300933,,,,,,,2024-01-18,1,,,,,ウチュウリカツヨウケンキュウ,0
1799,6090001018507,新規,0,2024-01-18,2024-01-18,株式会社ウスイ＿工,00133400,株式会社,山梨県,都留市,小野４２１番地１,,19,204,4020024,,,,,,,2024-01-18,1,,,,,ウスイテッコウ,0
1800,6100001037133,新規,0,2024-01-18,2024-01-18,株式会社ＳＯＲＥＣＯＣＯ,,株式会社,長野県,長野市,松岡２丁目２１番４４号,,20,201,3810026,,,,,,,2024-01-18,1,,,,,ソレココ,0
1805,6110001038106,新規,0,2024-01-18,2024-01-18,株式会社リットオフ,,株式会社,新潟県,妙高市,大字関川６５８－１,,15,217,9492112,,,,,,,2024-01-18,1,,,,,リットオフ,0
1821,6120001261417,新規,0,2024-01-18,2024-01-18,株式会社Ｔ‐ＷＯＲＬＤ,,株式会社,大阪府,守口市,寺方本通２丁目１１番６号,,27,209,5700048,,,,,,,2024-01-18,1,,,,,ティーワールド,0
1822,6120001261441,新規,0,2024-01-18,2024-01-18,尊鋒株式会社,,株式会社,大阪府,大阪市淀川区,東三国４丁目２１番９号みかげマンション１２号室,,27,123,5320002,,,,,,,2024-01-18,1,,,,,ソンホウ,0
1823,6120001261458,新規,0,2024-01-18,2024-01-18,ＪＹリゾート株式会社,,株式会社,大阪府,大阪市西区,南堀江３丁目１１－４南堀江ＳＫビル３０１,,27,106,5500015,,,,,,,2024-01-18,1,,,,,ジェイワイリゾート,0
1824,6120001261466,新規,0,2024-01-18,2024-01-18,株式会社友誠,,株式会社,大阪府,大阪市大正区,北村１丁目１５番１号,,27,108,5510032,,,,,,,2024-01-18,1,,,,,ユウセイ,0
1825,6120001261474,新規,0,2024-01-18,2024-01-18,縁信貿易株式会社,,株式会社,大阪府,大阪市西区,阿波座１丁目１１番１９号新興ビル３階Ｃ－４室,,27,106,5500011,,,,,,,2024-01-18,1,,,,,エンシンボウエキ,0
1826,6120001261508,新規,0,2024-01-18,2024-01-18,株式会社ＨＡＰＰＹ　ＦＲＯＮＴＩＥＲ,,株式会社,大阪府,大阪市西成区,玉出西２丁目７番１１号溝口ビル３Ｆ,,27,122,5570045,,,,,,,2024-01-18,1,,,,,ハッピーフロンティア,0
1827,6120001261532,新規,0,2024-01-18,2024-01-18,株式会社浦野商店,,株式会社,大阪府,大阪市東淀川区,西淡路３丁目１９番１０号,,27,114,5330031,,,,,,,2024-01-18,1,,,,,ウラノショウテン,0
1828,6120003025695,新規,0,2024-01-18,2024-01-18,日誠合同会社,,合同会社,大阪府,大阪市淀川区,宮原２丁目７番２９号朝日プラザ新大阪アネックス６０４号室,,27,123,5320003,,,,,,,2024-01-18,1,,,,,ニッセイ,0
1844,6120101068893,新規,0,2024-01-18,2024-01-18,株式会社ＡＯＩＥ,,株式会社,大阪府,泉佐野市,笠松１丁目２番２３号,,27,213,5980044,,,,,,,2024-01-18,1,,,,,アオイエ,0
1845,6120101068910,新規,0,2024-01-18,2024-01-18,株式会社ＴＫＳ,,株式会社,大阪府,岸和田市,土生町６丁目４番１２号東岸和田ライゼホビー３号,,27,202,5960825,,,,,,,2024-01-18,1,,,,,ティーケーエス,0
1851,6120103005639,新規,0,2024-01-18,2024-01-18,合同会社コルサー,,合同会社,大阪府,堺市西区,浜寺石津町東３丁１番１５－２０５号,,27,144,5928335,,,,,,,2024-01-18,1,,,,,コルサー,0
1853,6120105009811,新規,0,2024-01-18,2024-01-18,医療法人紀泉会,,その他の設立登記法人,大阪府,泉南郡熊取町,大久保西８番６２号,,27,361,5900404,,,,,,,2024-01-18,1,,,,,キセンカイ,0
1865,6122001037739,新規,0,2024-01-18,2024-01-18,株式会社香月,,株式会社,大阪府,東大阪市,今米１丁目５番３５号,,27,227,5780903,,,,,,,2024-01-18,1,,,,,コウゲツ,0
1866,6122001037747,新規,0,2024-01-18,2024-01-18,株式会社ＬＡＨｕｂ,,株式会社,大阪府,東大阪市,花園本町２丁目４－１８,,27,227,5780937,,,,,,,2024-01-18,1,,,,,エルエーハブ,0
1873,6122005003729,新規,0,2024-01-18,2024-01-18,医療法人長嶋整形外科,,その他の設立登記法人,大阪府,大東市,新田東本町１番２７号,,27,218,5740054,,,,,,,2024-01-18,1,,,,,ナガシマセイケイゲカ,0
1877,6130001076145,新規,0,2024-01-18,2024-01-18,都開発株式会社,,株式会社,京都府,八幡市,下奈良蜻蛉尻筋１１番地の８,,26,210,6148135,,,,,,,2024-01-18,1,,,,,ミヤコカイハツ,0
1878,6130001076161,新規,0,2024-01-18,2024-01-18,株式会社Ｈａｍｍｅｒｈｏｕｓｅ,,株式会社,京都府,京都市上京区,下立売通室町西入東立売町２０６番地３ブリリア御所西１０１号,,26,102,6028027,,,,,,,2024-01-18,1,,,,,ハンマーハウス,0
1895,6140001133036,新規,0,2024-01-18,2024-01-18,株式会社Ｎ＆Ｄ,,株式会社,兵庫県,芦屋市,涼風町７－４,,28,206,6590036,,,,,,,2024-01-18,1,,,,,エヌアンドデー,0
1896,6140001133052,新規,0,2024-01-18,2024-01-18,株式会社ＥＭＭ　Ｌａｂｏ,,株式会社,兵庫県,神戸市中央区,海岸通２丁目１番１－７０３号,,28,110,6500024,,,,,,,2024-01-18,1,,,,,エムラボ,0
1902,6140005026913,新規,0,2024-01-18,2024-01-18,医療法人社団平生会,,その他の設立登記法人,兵庫県,伊丹市,梅ノ木６丁目３番８号,,28,207,6640856,,,,,,,2024-01-18,1,,,,,ヘイセイカイ,0
1909,6160003003094,新規,0,2024-01-18,2024-01-18,合同会社グリーンＴＡＮＡＧＯ,,合同会社,滋賀県,近江八幡市,鷹飼町１１７０番地５,,25,204,5230891,,,,,,,2024-01-18,1,,,,,グリーンタナゴ,0
1913,6170001017970,新規,0,2024-01-18,2024-01-18,株式会社ＣａＮｏｗ,,株式会社,和歌山県,田辺市,新庄町２４９２番地の１,,30,206,6460011,,,,,,,2024-01-18,1,,,,,カナウ,0
1921,6180001159812,新規,0,2024-01-18,2024-01-18,都サービス株式会社,,株式会社,愛知県,稲沢市,小沢２丁目１８番１３号,,23,220,4928212,,,,,,,2024-01-18,1,,,,,ミヤコサービス,0
1922,6180001159829,新規,0,2024-01-18,2024-01-18,株式会社タケ,,株式会社,愛知県,稲沢市,祖父江町三丸渕七裏１０番地１,,23,220,4950021,,,,,,,2024-01-18,1,,,,,タケ,0
1923,6180001159845,新規,0,2024-01-18,2024-01-18,株式会社Ｒ＆Ｈ,,株式会社,愛知県,半田市,宮本町４丁目１０２番地の３,,23,205,4750925,,,,,,,2024-01-18,1,,,,,アールアンドエイチ,0
1928,6180301038245,新規,0,2024-01-18,2024-01-18,宅重株式会社,,株式会社,愛知県,豊田市,平芝町３丁目１４番地２,,23,211,4710065,,,,,,,2024-01-18,1,,,,,タクジュウ,0
1930,6180303005978,新規,0,2024-01-18,2024-01-18,はっぴーらいふ合同会社,,合同会社,愛知県,豊橋市,牛川町字乗小路３２番地４１０,,23,201,4400006,,,,,,,2024-01-18,1,,,,,ハッピーライフ,0
1933,6200001042081,新規,0,2024-01-18,2024-01-18,株式会社ｕｎｉｔｅ,,株式会社,岐阜県,各務原市,鵜沼三ツ池町５丁目６３番地７フレシール・ソフィア２０３,,21,213,5090146,,,,,,,2024-01-18,1,,,,,ユナイト,0
1937,6210001019608,新規,0,2024-01-18,2024-01-18,株式会社アンサンブル,,株式会社,福井県,福井市,中央３丁目５番１５号フロンティア福井２Ｆ－Ａ,,18,201,9100006,,,,,,,2024-01-18,1,,,,,アンサンブル,0
1946,6240001062679,新規,0,2024-01-18,2024-01-18,株式会社Ｒ’ｓブレイン,,株式会社,広島県,広島市中区,中町７番１６号,,34,101,7300037,,,,,,,2024-01-18,1,,,,,アールズブレイン,0
1951,6260001038669,新規,0,2024-01-18,2024-01-18,株式会社Ｇｒｏｗ,,株式会社,岡山県,岡山市南区,西市６６５番地９エレガンス西市Ｃ－２０２号室,,33,104,7000953,,,,,,,2024-01-18,1,,,,,グロウ,0
1955,6280005007585,新規,0,2024-01-18,2024-01-18,医療法人Ｙ２Ｔ２Ｅ,,その他の設立登記法人,島根県,出雲市,斐川町上直江３５３６番地,,32,203,6990624,,,,,,,2024-01-18,1,,,,,,0
1961,6290001104393,新規,0,2024-01-18,2024-01-18,株式会社ＬＡＵＮＣＨ,,株式会社,福岡県,春日市,ちくし台３丁目８３－１,,40,218,8160822,,,,,,,2024-01-18,1,,,,,ランチ,0
1962,6290001104402,新規,0,2024-01-18,2024-01-18,株式会社オネストワン,,株式会社,福岡県,福岡市博多区,大博町７－５ＰＬＥＡＳＴ大博通り７０３号室,,40,132,8120033,,,,,,,2024-01-18,1,,,,,オネストワン,0
1963,6290001104427,新規,0,2024-01-18,2024-01-18,浪漫飛行株式会社,,株式会社,福岡県,福岡市中央区,大濠２丁目１３番２８号５０１,,40,133,8100052,,,,,,,2024-01-18,1,,,,,ロマンヒコウ,0
1964,6290001104443,新規,0,2024-01-18,2024-01-18,株式会社匠トランスポート,,株式会社,福岡県,那珂川市,大字成竹９３５－１,,40,231,8111235,,,,,,,2024-01-18,1,,,,,タクミトランスポート,0
1967,6290003014871,新規,0,2024-01-18,2024-01-18,合同会社サーチライト,,合同会社,福岡県,福岡市博多区,三筑２丁目２番３７号－３０７号,,40,132,8120887,,,,,,,2024-01-18,1,,,,,サーチライト,0
1970,6290803004592,新規,0,2024-01-18,2024-01-18,合同会社とも,,合同会社,福岡県,北九州市小倉南区,城野４丁目１番２６号,,40,107,8020802,,,,,,,2024-01-18,1,,,,,トモ,0
1971,6290805009706,新規,0,2024-01-18,2024-01-18,医療法人喜之道クリニック,,その他の設立登記法人,福岡県,築上郡吉富町,大字広津２９１番地１,,40,642,8710811,,,,,,,2024-01-18,1,,,,,キノミチクリニック,0
1974,6300003002057,新規,0,2024-01-18,2024-01-18,合同会社ラ・メール,,合同会社,佐賀県,唐津市,鏡２６２７番地９,,41,202,8470022,,,,,,,2024-01-18,1,,,,,ラメール,0
1983,6330001031666,新規,0,2024-01-18,2024-01-18,株式会社ＧＲＩＴ,,株式会社,熊本県,熊本市西区,横手４丁目１３番１４号ローレルマンション３０２号室,,43,103,8600046,,,,,,,2024-01-18,1,,,,,グリット,0
1984,6340001026228,新規,0,2024-01-18,2024-01-18,株式会社ドージン図書,,株式会社,鹿児島県,鹿児島市,小野２丁目２９番１８号,,46,201,8900021,,,,,,,2024-01-18,1,,,,,ドージントショ,0
1986,6360001033073,新規,0,2024-01-18,2024-01-18,株式会社インフルエンシャル沖縄,,株式会社,沖縄県,那覇市,首里寒川町１丁目５番地２－４号棟３０３,,47,201,9030826,,,,,,,2024-01-18,1,,,,,インフルエンシャルオキナワ,0
1989,6370001050836,新規,0,2024-01-18,2024-01-18,株式会社ＳＥＣＡ‐ＣＯＳ,,株式会社,宮城県,仙台市青葉区,川平３丁目１９番３３号,,04,101,9810954,,,,,,,2024-01-18,1,,,,,セカコス,0
1990,6370001050844,新規,0,2024-01-18,2024-01-18,株式会社トウセイインクルーシブ,,株式会社,宮城県,仙台市若林区,卸町１丁目５番地の５ルアーナ・エール・レジデンス卸町１階３号室,,04,103,9840015,,,,,,,2024-01-18,1,,,,,トウセイインクルーシブ,0
1992,6380001034251,新規,0,2024-01-18,2024-01-18,株式会社ＺＥＲＯシステム,,株式会社,福島県,伊達市,霊山町掛田字中町２番地１,,07,213,9600801,,,,,,,2024-01-18,1,,,,,ゼロシステム,0
1994,6380003005663,新規,0,2024-01-18,2024-01-18,合同会社エアーランドＨＫ,,合同会社,福島県,いわき市,金山町朝日台６９番地,,07,204,9748211,,,,,,,2024-01-18,1,,,,,エアーランドエイチケイ,0
1995,6390005009050,新規,0,2024-01-18,2024-01-18,協同組合ボーナブル,,その他の設立登記法人,山形県,山形市,大字成安１６７５番地,,06,201,9900891,,,,,,,2024-01-18,1,,,,,ボーナブル,0
2000,6430001090875,新規,0,2024-01-18,2024-01-18,株式会社ＲＤＩ,,株式会社,北海道,札幌市北区,屯田七条１０丁目７番２１号,,01,102,0020857,,,,,,,2024-01-18,1,,,,,アールディーアイ,0
2001,6430001090891,新規,0,2024-01-18,2024-01-18,株式会社ユニティブサウンド,,株式会社,北海道,岩見沢市,三条東１丁目４番１号,,01,210,0680003,,,,,,,2024-01-18,1,,,,,ユニティブサウンド,0
2005,6430003015863,新規,0,2024-01-18,2024-01-18,合同会社ランタンビレッジ,,合同会社,北海道,石狩郡当別町,字金沢１４６番地,,01,303,0610212,,,,,,,2024-01-18,1,,,,,ランタンビレッジ,0
2025,6470001019986,新規,0,2024-01-18,2024-01-18,株式会社京和,,株式会社,香川県,木田郡三木町,大字上高岡２５１６番地,,37,341,7610613,,,,,,,2024-01-18,1,,,,,キョウワ,0
2027,6470003002560,新規,0,2024-01-18,2024-01-18,Ｔｈｅ　ｉｅ合同会社,,合同会社,香川県,丸亀市,新田町７７番地１７,,37,202,7630055,,,,,,,2024-01-18,1,,,,,ジイエ,0
2028,6470005006543,新規,0,2024-01-18,2024-01-18,一般社団法人ＧＲＡＮＤＩＲ,,その他の設立登記法人,香川県,高松市,木太町３２３９番地１０・３階,,37,201,7600080,,,,,,,2024-01-18,1,,,,,グランディール,0
2030,6490001010679,新規,0,2024-01-18,2024-01-18,ライズホーム株式会社,,株式会社,高知県,高知市,一宮東町１丁目３番４２号,,39,201,7818132,,,,,,,2024-01-18,1,,,,,ライズホーム,0
2037,7010001241354,新規,0,2024-01-18,2024-01-18,株式会社フュージョンバリュー,,株式会社,東京都,中央区,銀座１丁目１２番４号Ｎ＆ＥＢＬＤ．６Ｆ,,13,102,1040061,,,,,,,2024-01-18,1,,,,,フュージョンバリュー,0
2038,7010001241528,新規,0,2024-01-18,2024-01-18,シングナリオ株式会社,,株式会社,東京都,千代田区,大手町１丁目７番２号東京サンケイビル２７階,,13,101,1000004,,,,,,,2024-01-18,1,,,,,シングナリオ,0
2039,7010001241593,新規,0,2024-01-18,2024-01-18,株式会社Ｃｉｔｒｕｔｈ,,株式会社,東京都,中央区,銀座１丁目１２－４Ｎ＆ＥＢＬＤ．７階,,13,102,1040061,,,,,,,2024-01-18,1,,,,,シトラス,0
2043,7010005037749,新規,0,2024-01-18,2024-01-18,一般社団法人国際タット＆フィンガーダンス協会,,その他の設立登記法人,東京都,千代田区,外神田３丁目１１番１１号ＣＩＲＣＬＥＳ秋葉原８Ｆ,,13,101,1010021,,,,,,,2024-01-18,1,,,,,コクサイタットアンドフィンガーダンスキョウカイ,0
2050,7010401179723,新規,0,2024-01-18,2024-01-18,株式会社Ｓ．Ｔ．Ｌ,,株式会社,東京都,港区,南麻布３丁目２０番１号Ｄａｉｗａ麻布テラス５Ｆ,,13,103,1060047,,,,,,,2024-01-18,1,,,,,エスティーエル,0
2051,7010401179797,新規,0,2024-01-18,2024-01-18,ＧＣＪＧ３５株式会社,,株式会社,東京都,港区,元赤坂１丁目１番８号株式会社赤坂国際会計内,,13,103,1070051,,,,,,,2024-01-18,1,,,,,ジーシージェイジーサーティファイブ,0
2052,7010401179806,新規,0,2024-01-18,2024-01-18,株式会社あしたの,,株式会社,東京都,港区,北青山１丁目３番１号アールキューブ青山３階,,13,103,1070061,,,,,,,2024-01-18,1,,,,,アシタノ,0
2056,7010501051641,新規,0,2024-01-18,2024-01-18,株式会社ＭＩＲＡＩ　ＶＩＳＩＯＮ,,株式会社,東京都,台東区,元浅草３丁目２０番１号,,13,106,1110041,,,,,,,2024-01-18,1,,,,,ミライビジョン,0
2057,7010503007303,新規,0,2024-01-18,2024-01-18,合同会社ＦｏｕｒＴｗｅｎｔｙ,,合同会社,東京都,台東区,千束１丁目２番９－２０６号ＭＡＩＮＧＲＡＮＤＩＡＡＳＡＫＵＳＡ,,13,106,1110031,,,,,,,2024-01-18,1,,,,,フォートゥエンティ,0
2062,7010601064485,新規,0,2024-01-18,2024-01-18,株式会社ゲットバック,,株式会社,東京都,墨田区,両国３丁目２３番１０号,,13,107,1300026,,,,,,,2024-01-18,1,,,,,ゲットバック,0
2063,7010603010578,新規,0,2024-01-18,2024-01-18,ＳＣＦコミュニティ合同会社,,合同会社,東京都,江東区,豊洲４丁目９番１３－１０３０号,,13,108,1350061,,,,,,,2024-01-18,1,,,,,エスシーエフコミュニティ,0
2066,7010701045419,新規,0,2024-01-18,2024-01-18,株式会社ザニーレン・コンサルティング,,株式会社,東京都,品川区,西中延２丁目１７－２－１０１,,13,109,1420054,,,,,,,2024-01-18,1,,,,,ザニーレンコンサルティング,0
2069,7010903008735,新規,0,2024-01-18,2024-01-18,Ｓｌｙｍｏｏｎ合同会社,,合同会社,東京都,世田谷区,北沢１丁目３８－１４しょうわ下北ビル２階,,13,112,1550031,,,,,,,2024-01-18,1,,,,,スライムーン,0
2074,7011001159462,新規,0,2024-01-18,2024-01-18,Ｂｅｙｏｎｄｏ株式会社,,株式会社,東京都,渋谷区,道玄坂１丁目２１番１号ＳＨＩＢＵＹＡＳＯＬＡＳＴＡ３Ｆ,,13,113,1500043,,,,,,,2024-01-18,1,,,,,ビヨンド,0
2075,7011003018294,新規,0,2024-01-18,2024-01-18,ｘｃｐａ合同会社,,合同会社,東京都,渋谷区,渋谷２丁目１９番１５号宮益坂ビルディング６０９,,13,113,1500002,,,,,,,2024-01-18,1,,,,,エックスシーピーエー,0
2078,7011101105845,新規,0,2024-01-18,2024-01-18,パワーズビューティ株式会社,,株式会社,東京都,新宿区,舟町５番地２６、７階,,13,104,1600006,,,,,,,2024-01-18,1,,,,,パワーズビューティ,0
2079,7011201025183,新規,0,2024-01-18,2024-01-18,株式会社イーシーエルティー,,株式会社,東京都,中野区,鷺宮５丁目２３番３号,,13,114,1650032,,,,,,,2024-01-18,1,,,,,イーシーエルティー,0
2083,7011503005916,新規,0,2024-01-18,2024-01-18,白松合同会社,,合同会社,東京都,荒川区,町屋３丁目１８番１２号ＮＤビル２０１,,13,118,1160001,,,,,,,2024-01-18,1,,,,,シラマツ,0
2093,7011803006028,新規,0,2024-01-18,2024-01-18,バイタリティ合同会社,,合同会社,東京都,足立区,千住緑町１丁目２１番１０号ジャパンステイ千住４０３号室,,13,121,1200044,,,,,,,2024-01-18,1,,,,,バイタリティ,0
2094,7011803006044,新規,0,2024-01-18,2024-01-18,リオベロス合同会社,,合同会社,東京都,足立区,東伊興３丁目４‐１６嶋村コーポ２０５,,13,121,1210801,,,,,,,2024-01-18,1,,,,,リオベロス,0
2097,7012401041433,新規,0,2024-01-18,2024-01-18,株式会社ＳＨＩＮＩＮＧ,,株式会社,東京都,三鷹市,下連雀３丁目４－２４－３０２,,13,204,1810013,,,,,,,2024-01-18,1,,,,,シャイニング,0
2104,7013103001295,新規,0,2024-01-18,2024-01-18,合同会社Ｇｒａｚｉｅ,,合同会社,東京都,青梅市,谷野１１７番地の１プラシード・アルバＶＩＩ２０１,00133393,13,205,1980012,,,,,,,2024-01-18,1,,,,,,0
2109,7013303006937,新規,0,2024-01-18,2024-01-18,ＫＧ　ｓｔａｃｋ合同会社,,合同会社,東京都,豊島区,西巣鴨１丁目２９番１４号ゾンネハイム１０２号,,13,116,1700001,,,,,,,2024-01-18,1,,,,,ケージースタック,0
2110,7013303006961,新規,0,2024-01-18,2024-01-18,フレーム・オブ・リファレンス合同会社,,合同会社,東京都,豊島区,西池袋３丁目８番１４－４０１号,,13,116,1710021,,,,,,,2024-01-18,1,,,,,フレームオブリファレンス,0
2115,7020001155330,新規,0,2024-01-18,2024-01-18,株式会社吉祥天女,,株式会社,神奈川県,横浜市中区,不老町１丁目２番地１,,14,104,2310032,,,,,,,2024-01-18,1,,,,,キッショウテンニョ,0
2116,7020001155339,新規,0,2024-01-18,2024-01-18,ＹＵＳＶＯＸ株式会社,,株式会社,神奈川県,横浜市瀬谷区,瀬谷４丁目１３－３８,,14,114,2460031,,,,,,,2024-01-18,1,,,,,ユースヴォックス,0
2117,7020001155347,新規,0,2024-01-18,2024-01-18,株式会社ユーカリ,,株式会社,神奈川県,横浜市都筑区,牛久保西３丁目８番１９号,,14,118,2240015,,,,,,,2024-01-18,1,,,,,ユーカリ,0
2118,7020001155355,新規,0,2024-01-18,2024-01-18,株式会社ＦＩＥＮＡＡ,,株式会社,神奈川県,横浜市都筑区,仲町台１丁目７番１８号ビュロー仲町台３０４,,14,118,2240041,,,,,,,2024-01-18,1,,,,,フィエナ,0
2119,7020001155363,新規,0,2024-01-18,2024-01-18,ＳＴＭエンジニアリング株式会社,,株式会社,神奈川県,横浜市中区,花咲町１丁目２番地,,14,104,2310063,,,,,,,2024-01-18,1,,,,,エスティーエムエンジニアリング,0
2121,7020003025366,新規,0,2024-01-18,2024-01-18,合同会社ＯＳＫ,,合同会社,神奈川県,横浜市戸塚区,深谷町５８５－６,,14,110,2450067,,,,,,,2024-01-18,1,,,,,オーエスケー,0
2122,7020003025374,新規,0,2024-01-18,2024-01-18,合同会社ＰＯＭ,,合同会社,神奈川県,横浜市磯子区,久木町１０－１６,,14,107,2350015,,,,,,,2024-01-18,1,,,,,ピーオーエム,0
2123,7021001081244,新規,0,2024-01-18,2024-01-18,エー・エックス・カーボン株式会社,,株式会社,神奈川県,茅ヶ崎市,本村３丁目２番６２号,,14,207,2530042,,,,,,,2024-01-18,1,,,,,エーエックスカーボン,0
2124,7021001081260,新規,0,2024-01-18,2024-01-18,株式会社Ｍ７５,,株式会社,神奈川県,茅ヶ崎市,東海岸南５丁目３番６１－８－２茅ヶ崎タウンハウス,,14,207,2530054,,,,,,,2024-01-18,1,,,,,エムナナジュウゴ,0
2135,7030001158183,新規,0,2024-01-18,2024-01-18,株式会社ぎふと,,株式会社,埼玉県,さいたま市浦和区,高砂２丁目１０－１グローバル高砂４０１,,11,107,3300063,,,,,,,2024-01-18,1,,,,,ギフト,0
2136,7030001158233,新規,0,2024-01-18,2024-01-18,フルブライト株式会社,,株式会社,埼玉県,さいたま市北区,日進町３丁目８１４番地１‐１階,,11,102,3310823,,,,,,,2024-01-18,1,,,,,フルブライト,0
2142,7030005021528,新規,0,2024-01-18,2024-01-18,一般社団法人屋根を守る会,,その他の設立登記法人,埼玉県,八潮市,八潮５丁目１６－８,,11,234,3400815,,,,,,,2024-01-18,1,,,,,ヤネヲマモルカイ,0
2148,7040001131750,新規,0,2024-01-18,2024-01-18,いちずリフォーム株式会社,,株式会社,千葉県,千葉市緑区,大木戸町２１２番地２０６,,12,105,2670057,,,,,,,2024-01-18,1,,,,,イチズリフォーム,0
2149,7040001131833,新規,0,2024-01-18,2024-01-18,株式会社ＦｌｙＣｏｎｎｅｃｔ,,株式会社,千葉県,千葉市美浜区,高浜１丁目１３－６レックス稲毛海岸１００４,,12,106,2610003,,,,,,,2024-01-18,1,,,,,フライコネクト,0
2152,7040003024127,新規,0,2024-01-18,2024-01-18,合同会社無有,,合同会社,千葉県,白井市,桜台１丁目８番１２号,,12,232,2701412,,,,,,,2024-01-18,1,,,,,ムウ,0
2153,7040005022244,新規,0,2024-01-18,2024-01-18,医療法人社団Ａ＆Ｓ,,その他の設立登記法人,千葉県,鎌ケ谷市,鎌ケ谷３丁目７番３２号エスポワール１階,,12,224,2730105,,,,,,,2024-01-18,1,,,,,エーアンドエス,0
2160,7050001054141,新規,0,2024-01-18,2024-01-18,株式会社Ｋ２,,株式会社,茨城県,ひたちなか市,牛久保１丁目３番９号,,08,221,3111213,,,,,,,2024-01-18,1,,,,,ケーツー,0
2168,7060003004878,新規,0,2024-01-18,2024-01-18,合同会社大嶋商会,,合同会社,栃木県,日光市,今市１２５７番地８,,09,206,3211261,,,,,,,2024-01-18,1,,,,,オオシマショウカイ,0
2171,7080101024479,新規,0,2024-01-18,2024-01-18,株式会社バスコネクト,,株式会社,静岡県,富士市,久沢２丁目９番３４号,,22,210,4190202,,,,,,,2024-01-18,1,,,,,バスコネクト,0
2177,7090001018506,新規,0,2024-01-18,2024-01-18,株式会社イケダフルーツ,,株式会社,山梨県,甲州市,塩山上於曽１９５９番地,,19,213,4040042,,,,,,,2024-01-18,1,,,,,イケダフルーツ,0
2180,7100001037132,新規,0,2024-01-18,2024-01-18,株式会社ＴＷＩＮＳ,,株式会社,長野県,松本市,中条１２番２号,,20,202,3900816,,,,,,,2024-01-18,1,,,,,ツインズ,0
2193,7120001261390,新規,0,2024-01-18,2024-01-18,株式会社ＷＫＵホールディングス,,株式会社,大阪府,大阪市中央区,今橋１丁目７番１９号北浜ビルディング４０１号,,27,128,5410042,,,,,,,2024-01-18,1,,,,,ダブリューケーユーホールディングス,0
2194,7120001261416,新規,0,2024-01-18,2024-01-18,株式会社アサモチコスメ,,株式会社,大阪府,大阪市福島区,吉野２丁目１５番１７号阪神野田駅前第二ビル５０１号,,27,103,5530006,,,,,,,2024-01-18,1,,,,,アサモチコスメ,0
2195,7120003025711,新規,0,2024-01-18,2024-01-18,合同会社サンフラワー,,合同会社,大阪府,大阪市浪速区,日本橋３丁目３番３－２０２号,,27,111,5560005,,,,,,,2024-01-18,1,,,,,サンフラワー,0
2197,7120005024067,新規,0,2024-01-18,2024-01-18,特定非営利活動法人Ｑ‐Ｌｏｓｉｋ,,その他の設立登記法人,大阪府,大阪市北区,豊崎２丁目１１－３豊崎成弘ビル３Ｂ号室,,27,127,5310072,,,,,,,2024-01-18,1,,,,,キューロジック,0
2198,7120005024100,新規,0,2024-01-18,2024-01-18,医療法人香里ケ丘ほりのうち整形外科・リウマチ科,,その他の設立登記法人,大阪府,枚方市,香里ケ丘６丁目８番地,,27,210,5730084,,,,,,,2024-01-18,1,,,,,コウリガオカホリノウチセイケイゲカリウマチカ,0
2207,7120101068892,新規,0,2024-01-18,2024-01-18,株式会社ｍｉｔａｔａ,,株式会社,大阪府,泉南郡熊取町,つばさが丘北２丁目１８番１５号,,27,361,5900444,,,,,,,2024-01-18,1,,,,,ミタタ,0
2244,7130001076160,新規,0,2024-01-18,2024-01-18,株式会社Ｅ‐ＯＭＡＩＡ,,株式会社,京都府,京都市中京区,八町目５４１番地,,26,104,6040074,,,,,,,2024-01-18,1,,,,,エオマイア,0
2251,7140005026912,新規,0,2024-01-18,2024-01-18,医療法人旺友会,,その他の設立登記法人,兵庫県,西宮市,荒木町１５番２２号,,28,204,6638025,,,,,,,2024-01-18,1,,,,,オウユウカイ,0
2255,7160001025643,新規,0,2024-01-18,2024-01-18,株式会社Ｅａｓｔヴィレッジ,,株式会社,滋賀県,長浜市,八幡東町３５６番地,,25,203,5260031,,,,,,,2024-01-18,1,,,,,イーストヴィレッジ,0
2268,7180001159786,新規,0,2024-01-18,2024-01-18,株式会社宗舜工業,,株式会社,愛知県,瀬戸市,見付町５５番地の１,,23,204,4890808,,,,,,,2024-01-18,1,,,,,ソウシュンコウギョウ,0
2269,7180001159803,新規,0,2024-01-18,2024-01-18,株式会社Ｍ‐Ｇｌａｎｚ,,株式会社,愛知県,西春日井郡豊山町,大字豊場字下戸１０３番地ｒｏｂｌｅｇｌａｎｄＢ１,,23,342,4800202,,,,,,,2024-01-18,1,,,,,エムグランツ,0
2270,7180001159811,新規,0,2024-01-18,2024-01-18,株式会社ムライ,,株式会社,愛知県,名古屋市南区,白雲町６５番地,,23,112,4570025,,,,,,,2024-01-18,1,,,,,ムライ,0
2272,7180003026183,新規,0,2024-01-18,2024-01-18,合同会社ＯＣＥＡＮ,,合同会社,愛知県,名古屋市中川区,西日置１丁目８番２８号ＫＣＯＵＲＴ３０２,,23,110,4540004,,,,,,,2024-01-18,1,,,,,オーシャン,0
2274,7180301038252,新規,0,2024-01-18,2024-01-18,株式会社ＫＨ工業,,株式会社,愛知県,知立市,内幸町平田１０４,,23,225,4720042,,,,,,,2024-01-18,1,,,,,ケイエイチコウギョウ,0
2278,7200001042089,新規,0,2024-01-18,2024-01-18,株式会社郡上エネルギーソリューション,,株式会社,岐阜県,郡上市,八幡町小野９１番地１ＨＵＢＧＵＪＯ,,21,219,5014221,,,,,,,2024-01-18,1,,,,,グジョウエネルギーソリューション,0
2280,7210001019607,新規,0,2024-01-18,2024-01-18,西野マーク株式会社,,株式会社,福井県,越前市,芝原５丁目１３番８号,,18,209,9150805,,,,,,,2024-01-18,1,,,,,ニシノマーク,0
2281,7220001025777,新規,0,2024-01-18,2024-01-18,株式会社カタチアーキテクツ,,株式会社,石川県,金沢市,寺町５丁目２番４７号,,17,201,9218033,,,,,,,2024-01-18,1,,,,,カタチアーキテクツ,0
2288,7240001062678,新規,0,2024-01-18,2024-01-18,株式会社せとうち山荘,,株式会社,広島県,広島市中区,基町１０番３号,,34,101,7300011,,,,,,,2024-01-18,1,,,,,セトウチサンソウ,0
2293,7260001038668,新規,0,2024-01-18,2024-01-18,株式会社ハンノキ舎,,株式会社,岡山県,岡山市北区,奉還町２丁目１９番２号,,33,101,7000026,,,,,,,2024-01-18,1,,,,,ハンノキシャ,0
2299,7290001104392,新規,0,2024-01-18,2024-01-18,株式会社松福,,株式会社,福岡県,福岡市南区,大橋１丁目２１番１２号,,40,134,8150033,,,,,,,2024-01-18,1,,,,,ショウフク,0
2300,7290001104434,新規,0,2024-01-18,2024-01-18,株式会社ふるた第一企画,,株式会社,福岡県,福岡市東区,郷口町５番１２号,,40,131,8120069,,,,,,,2024-01-18,1,,,,,フルタダイイチキカク,0
2302,7290005019265,新規,0,2024-01-18,2024-01-18,医療法人ＧＮＷ,,その他の設立登記法人,福岡県,福岡市西区,今宿３丁目４番３７号今宿メディカルビル１Ｆ,,40,135,8190167,,,,,,,2024-01-18,1,,,,,ジーエヌダブリュー,0
2305,7290801030210,新規,0,2024-01-18,2024-01-18,株式会社岩本住建,,株式会社,福岡県,中間市,深坂２丁目１番１９号,,40,215,8090025,,,,,,,2024-01-18,1,,,,,イワモトジュウケン,0
2308,7290805009705,新規,0,2024-01-18,2024-01-18,一般社団法人マネジメントクロス絵本,,その他の設立登記法人,福岡県,北九州市八幡西区,陣原３丁目１０番１号,,40,109,8070821,,,,,,,2024-01-18,1,,,,,マネジメントクロスエホン,0
2310,7310001018813,新規,0,2024-01-18,2024-01-18,株式会社マール,,株式会社,長崎県,長崎市,川平町３８３番地１３,,42,201,8528143,,,,,,,2024-01-18,1,,,,,マール,0
2317,7340001026227,新規,0,2024-01-18,2024-01-18,株式会社エコ・ミライ,,株式会社,鹿児島県,鹿児島市,宮之浦町９１６番地７,,46,201,8911305,,,,,,,2024-01-18,1,,,,,エコミライ,0
2321,7360001033089,新規,0,2024-01-18,2024-01-18,株式会社門・ＮｅｘｔＬｉｆｅ,,株式会社,沖縄県,島尻郡南風原町,字津嘉山７５０番地１,,47,350,9011117,,,,,,,2024-01-18,1,,,,,ジョウネクストライフ,0
2325,7370001050835,新規,0,2024-01-18,2024-01-18,株式会社ＡＲＤ,,株式会社,宮城県,仙台市宮城野区,高砂１丁目１４番地の４グランドールミウラＥ棟１０１,,04,102,9830014,,,,,,,2024-01-18,1,,,,,エーアールディー,0
2326,7380003005662,新規,0,2024-01-18,2024-01-18,合同会社田島陣屋,,合同会社,福島県,南会津郡南会津町,田島字中町甲３９４２番地１,,07,368,9670004,,,,,,,2024-01-18,1,,,,,タジマジンヤ,0
2327,7390001017485,新規,0,2024-01-18,2024-01-18,株式会社新山形学校給食サービス,,株式会社,山形県,山形市,清住町１丁目２番１８号,,06,201,9900834,,,,,,,2024-01-18,1,,,,,シンヤマガタガッコウキュウショクサービス,0
2330,7430001090866,新規,0,2024-01-18,2024-01-18,付き添いのシエル株式会社,,株式会社,北海道,札幌市東区,北二十六条東１７丁目２番２号,,01,103,0650026,,,,,,,2024-01-18,1,,,,,ツキソイノシエル,0
2331,7430001090882,新規,0,2024-01-18,2024-01-18,株式会社モンキースパナ,,株式会社,北海道,石狩郡当別町,獅子内２１１８番地４,,01,303,0613772,,,,,,,2024-01-18,1,,,,,モンキースパナ,0
2332,7430001090890,新規,0,2024-01-18,2024-01-18,株式会社システムサービスタニモト,,株式会社,北海道,登別市,桜木町５丁目２１番地６,,01,230,0590023,,,,,,,2024-01-18,1,,,,,システムサービスタニモト,0
2342,7460005001577,新規,0,2024-01-18,2024-01-18,一般社団法人あおばみより,,その他の設立登記法人,北海道,釧路市,柳町６番２１号,,01,206,0850037,,,,,,,2024-01-18,1,,,,,アオバミヨリ,0
2352,7470001019985,新規,0,2024-01-18,2024-01-18,株式会社リベルタ,,株式会社,香川県,高松市,古馬場町１４番地３古馬場ロイヤルビル１Ｆ,,37,201,7600045,,,,,,,2024-01-18,1,,,,,リベルタ,0
2357,7500001025419,新規,0,2024-01-18,2024-01-18,ちぐさホールディングス株式会社,,株式会社,愛媛県,東温市,牛渕１９９番地５６,,38,215,7910213,,,,,,,2024-01-18,1,,,,,チグサホールディングス,0
2367,8010001241452,新規,0,2024-01-18,2024-01-18,株式会社Ｕｎｉｔｉｅｓ,,株式会社,東京都,千代田区,九段南１丁目５番６号りそな九段ビル５Ｆ－ＫＳフロア,,13,101,1020074,,,,,,,2024-01-18,1,,,,,ユニティーズ,0
2371,8010003042667,新規,0,2024-01-18,2024-01-18,神保町インベストメント合同会社,,合同会社,東京都,千代田区,霞が関３丁目２番５号,,13,101,1000013,,,,,,,2024-01-18,1,,,,,ジンボウチョウインベストメント,0
2372,8010003042691,新規,0,2024-01-18,2024-01-18,合同会社ａｎｄ　Ｐａｓｓｉｏｎ,,合同会社,東京都,千代田区,九段北１丁目４番１号,,13,101,1020073,,,,,,,2024-01-18,1,,,,,アンドパッション,0
2373,8010003042709,新規,0,2024-01-18,2024-01-18,ＴＥＮＳＯＲＶＥＲＳＥ合同会社,,合同会社,東京都,中央区,日本橋室町１丁目１１番１２号日本橋水野ビル７階,,13,102,1030022,,,,,,,2024-01-18,1,,,,,テンソルヴァース,0
2378,8010005037756,新規,0,2024-01-18,2024-01-18,一般社団法人Ｓａｐｐｈｉｒｅ２,,その他の設立登記法人,東京都,中央区,八丁堀４丁目２番１０号ＡＯＪ税理士法人内,,13,102,1040032,,,,,,,2024-01-18,1,,,,,サファイアツー,0
2385,8010401179796,新規,0,2024-01-18,2024-01-18,ＧＣＪＧ３４株式会社,,株式会社,東京都,港区,元赤坂１丁目１番８号株式会社赤坂国際会計内,,13,103,1070051,,,,,,,2024-01-18,1,,,,,ジーシージェイジーサーティーフォー,0
2386,8010401179805,新規,0,2024-01-18,2024-01-18,株式会社ＨＯＲＩＺＯＮ　ＪＰ,,株式会社,東京都,港区,南青山３丁目３番３号、１階,,13,103,1070062,,,,,,,2024-01-18,1,,,,,ホライズンジェーピー,0
2388,8010403031740,新規,0,2024-01-18,2024-01-18,ＬＣＮ合同会社,,合同会社,東京都,港区,南青山４丁目１１番２号２Ｂ,,13,103,1070062,,,,,,,2024-01-18,1,,,,,エルシーエヌ,0
2391,8010501051640,新規,0,2024-01-18,2024-01-18,株式会社ゴサクアセットマネジメント,,株式会社,東京都,台東区,三筋１丁目４番１７号蔵前ＫＳビル２Ｆ,,13,106,1110055,,,,,,,2024-01-18,1,,,,,ゴサクアセットマネジメント,0
2392,8010503007310,新規,0,2024-01-18,2024-01-18,東海龍合同会社,,合同会社,東京都,台東区,東上野６丁目１番１７－３０１号,,13,106,1100015,,,,,,,2024-01-18,1,,,,,トウカイリュウ,0
2398,8010803004817,新規,0,2024-01-18,2024-01-18,セカンドキャリア合同会社,,合同会社,東京都,大田区,東矢口３丁目８番８号,,13,111,1460094,,,,,,,2024-01-18,1,,,,,セカンドキャリア,0
2399,8010901054557,新規,0,2024-01-18,2024-01-18,株式会社ＩＩＹＯ,,株式会社,東京都,世田谷区,奥沢３丁目２４番６号,,13,112,1580083,,,,,,,2024-01-18,1,,,,,アイアイワイオー,0
2401,8010903008734,新規,0,2024-01-18,2024-01-18,合同会社ＴＥＲＲＡ,,合同会社,東京都,世田谷区,代田５丁目３４－１５－４０４,,13,112,1550033,,,,,,,2024-01-18,1,,,,,テラ,0
2405,8011001159437,新規,0,2024-01-18,2024-01-18,Ｉｎｃｏｍｅ株式会社,,株式会社,東京都,渋谷区,広尾１丁目６－８第２三輪ビル４０１,,13,113,1500012,,,,,,,2024-01-18,1,,,,,インカム,0
2407,8011003018236,新規,0,2024-01-18,2024-01-18,合同会社Ｈｏｊｏｎｏ‐ｗａ,,合同会社,東京都,渋谷区,円山町５番５号Ｎａｖｉ渋谷Ｖ３階,,13,113,1500044,,,,,,,2024-01-18,1,,,,,ホジョノワ,0
2408,8011003018302,新規,0,2024-01-18,2024-01-18,合同会社ポノ,,合同会社,東京都,渋谷区,初台２丁目２７番１２－６０２号,,13,113,1510061,,,,,,,2024-01-18,1,,,,,ポノ,0
2411,8011201025182,新規,0,2024-01-18,2024-01-18,株式会社ＨＡＴＹ,,株式会社,東京都,中野区,弥生町５丁目２３番８号,,13,114,1640013,,,,,,,2024-01-18,1,,,,,ハティ,0
2413,8011401025783,新規,0,2024-01-18,2024-01-18,株式会社山門,,株式会社,東京都,板橋区,西台３丁目３６番６号,,13,119,1750045,,,,,,,2024-01-18,1,,,,,ヤマモン,0
2417,8011601027464,新規,0,2024-01-18,2024-01-18,株式会社コモン堂,,株式会社,東京都,練馬区,旭町３丁目２２番１９号,,13,120,1790071,,,,,,,2024-01-18,1,,,,,コモンドウ,0
2420,8011803006027,新規,0,2024-01-18,2024-01-18,卓越合同会社,,合同会社,東京都,足立区,千住緑町１丁目２１番１０号ジャパンステイ千住３０３号室,,13,121,1200044,,,,,,,2024-01-18,1,,,,,タクエツ,0
2425,8012703002891,新規,0,2024-01-18,2024-01-18,合同会社Ｈａｒｍｏｎｉａ,,合同会社,東京都,西東京市,中町４丁目９番２８号,,13,229,2020013,,,,,,,2024-01-18,1,,,,,ハルモニア,0
2431,8020001155338,新規,0,2024-01-18,2024-01-18,点てる株式会社,,株式会社,神奈川県,横浜市中区,長者町５丁目５１番地１ライオンズプラザ横浜大通り公園７０６号,,14,104,2310033,,,,,,,2024-01-18,1,,,,,タテル,0
2432,8020001155346,新規,0,2024-01-18,2024-01-18,株式会社Ｂｌｉｓｓ８,,株式会社,神奈川県,横浜市栄区,若竹町１３番２３号,,14,115,2470012,,,,,,,2024-01-18,1,,,,,ブリスエイト,0
2433,8020001155354,新規,0,2024-01-18,2024-01-18,株式会社三六九,,株式会社,神奈川県,横浜市港北区,箕輪町１丁目２５番１５号,,14,109,2230051,,,,,,,2024-01-18,1,,,,,ミロク,0
2435,8020003025373,新規,0,2024-01-18,2024-01-18,ＴＫＣ‐ＢＬＵＥＯＣＥＡＮ　Ｔｅｃｈｎｏｌｏｇｉｅｓ合同会社,,合同会社,神奈川県,川崎市高津区,坂戸１丁目１５番１３－３０１号ＮＡＲＵＴＯＢＡＹ,,14,134,2130012,,,,,,,2024-01-18,1,,,,,ティケェイシー,0
2438,8021001081251,新規,0,2024-01-18,2024-01-18,株式会社ＷＩＴＨ　ＤＥＳＩＧＮ,,株式会社,神奈川県,茅ヶ崎市,小和田１丁目９番６－７号,,14,207,2530012,,,,,,,2024-01-18,1,,,,,ウィズデザイン,0
2442,8021003014036,新規,0,2024-01-18,2024-01-18,憩いのレジデンス合同会社,,合同会社,神奈川県,藤沢市,弥勒寺３丁目１９番７号,,14,205,2510016,,,,,,,2024-01-18,1,,,,,イコイノレジデンス,0
2444,8021005013003,新規,0,2024-01-18,2024-01-18,ＮＰＯ法人シュピーレン,,その他の設立登記法人,神奈川県,鎌倉市,雪ノ下２丁目１番２４号,,14,204,2480005,,,,,,,2024-01-18,1,,,,,シュピーレン,0
2451,8030001158232,新規,0,2024-01-18,2024-01-18,株式会社ＬＩＦＦ,,株式会社,埼玉県,川口市,大字石神１９１番地の２、２－１０３号,,11,203,3330823,,,,,,,2024-01-18,1,,,,,リフ,0
2455,8040001131790,新規,0,2024-01-18,2024-01-18,株式会社ｇ・ｏ・ｍ,,株式会社,千葉県,松戸市,根本２６８番地,,12,207,2710077,,,,,,,2024-01-18,1,,,,,ジーオーエム,0
2456,8040001131799,新規,0,2024-01-18,2024-01-18,株式会社アドバンストヒューマンバリュエーション,,株式会社,千葉県,市川市,堀之内３丁目１９番１５－３０３号,,12,203,2720837,,,,,,,2024-01-18,1,,,,,アドバンストヒューマンバリュエーション,0
2459,8040003024134,新規,0,2024-01-18,2024-01-18,合同会社Ｉｓ企画,,合同会社,千葉県,東金市,関下３６９番地４６,,12,213,2830038,,,,,,,2024-01-18,1,,,,,アイエスキカク,0
2473,8080101024478,新規,0,2024-01-18,2024-01-18,広優電設株式会社,,株式会社,静岡県,富士宮市,万野原新田３２９１番地の３９,,22,207,4180001,,,,,,,2024-01-18,1,,,,,コウユウデンセツ,0
2479,8100003007355,新規,0,2024-01-18,2024-01-18,アグリエイト合同会社,,合同会社,長野県,南佐久郡小海町,大字豊里１１７０番地１,,20,303,3841103,,,,,,,2024-01-18,1,,,,,アグリエイト,0
2480,8110001038112,新規,0,2024-01-18,2024-01-18,株式会社カラーアップ,,株式会社,新潟県,魚沼市,堀之内６４０番地６７,,15,225,9497413,,,,,,,2024-01-18,1,,,,,カラーアップ,0
2490,8120001261308,新規,0,2024-01-18,2024-01-18,小川株式会社,,株式会社,大阪府,大阪市東淀川区,西淡路２丁目１３番３号,,27,114,5330031,,,,,,,2024-01-18,1,,,,,オガワ,0
2491,8120001261398,新規,0,2024-01-18,2024-01-18,唐氏株式会社,,株式会社,大阪府,大阪市中央区,日本橋１丁目２５－１６黒門グローリーハイツ７０３号,,27,128,5420073,,,,,,,2024-01-18,1,,,,,トウシ,0
2496,8120003025702,新規,0,2024-01-18,2024-01-18,合同会社八段マサヨシ,,合同会社,大阪府,大阪市阿倍野区,西田辺町２丁目２番２３号エクラ阿倍野４Ｃ号室,,27,119,5450014,,,,,,,2024-01-18,1,,,,,ハチダンマサヨシ,0
2497,8120005024108,新規,0,2024-01-18,2024-01-18,医療法人瑞星会,,その他の設立登記法人,大阪府,大阪市中央区,島之内２丁目１７番１３号ＬＩＦＩＸビル５階,,27,128,5420082,,,,,,,2024-01-18,1,,,,,ズイセイカイ,0
2509,8120101068900,新規,0,2024-01-18,2024-01-18,株式会社西山建設,,株式会社,大阪府,河内長野市,上原町７１８番地の１９,,27,216,5860037,,,,,,,2024-01-18,1,,,,,ニシヤマケンセツ,0
2538,8122001037745,新規,0,2024-01-18,2024-01-18,株式会社サンコー建設,,株式会社,大阪府,八尾市,竹渕２丁目１４７番地の２,,27,212,5810052,,,,,,,2024-01-18,1,,,,,サンコーケンセツ,0
2555,8140003020057,新規,0,2024-01-18,2024-01-18,合同会社まあや,,合同会社,兵庫県,西宮市,泉町４８番２号,,28,204,6620932,,,,,,,2024-01-18,1,,,,,マアヤ,0
2556,8140005026911,新規,0,2024-01-18,2024-01-18,医療法人勝本芦屋セントマリアクリニック,,その他の設立登記法人,兵庫県,芦屋市,大原町５番２０号,,28,206,6590092,,,,,,,2024-01-18,1,,,,,カツモトアシヤセントマリアクリニック,0
2571,8170001017969,新規,0,2024-01-18,2024-01-18,株式会社ＧＨＭ　ＧＲＯＵＰ,,株式会社,和歌山県,和歌山市,北ノ新地１丁目３１番地,,30,201,6408355,,,,,,,2024-01-18,1,,,,,ジーエイチエムグループ,0
2583,8180001159785,新規,0,2024-01-18,2024-01-18,株式会社ネクニア,,株式会社,愛知県,名古屋市中区,栄３丁目３５番３４号栄タワーヒルズ１００８号,,23,106,4600008,,,,,,,2024-01-18,1,,,,,ネクニア,0
2584,8180001159802,新規,0,2024-01-18,2024-01-18,株式会社クルーズ,,株式会社,愛知県,名古屋市昭和区,鶴舞３丁目１２番２号,,23,107,4660064,,,,,,,2024-01-18,1,,,,,クルーズ,0
2585,8180001159810,新規,0,2024-01-18,2024-01-18,株式会社ＳＩＮＣＥＲＯ,,株式会社,愛知県,名古屋市中区,錦３丁目１５－１ユース栄宮地ビル４Ｆ,,23,106,4600003,,,,,,,2024-01-18,1,,,,,シンセロ,0
2586,8180001159819,新規,0,2024-01-18,2024-01-18,株式会社宙Ｌｉｂ,,株式会社,愛知県,名古屋市名東区,社が丘１丁目１０２番地,,23,115,4650051,,,,,,,2024-01-18,1,,,,,ソラリブ,0
2587,8180001159835,新規,0,2024-01-18,2024-01-18,ＭＴＪインターナショナル株式会社,,株式会社,愛知県,名古屋市中区,丸の内３丁目５番１０号名古屋丸の内ビル６Ｆ,,23,106,4600002,,,,,,,2024-01-18,1,,,,,エムティジェイインターナショナル,0
2588,8180001159843,新規,0,2024-01-18,2024-01-18,株式会社ｔｉｅｓ,,株式会社,愛知県,名古屋市千種区,内山３丁目２５番６号,,23,101,4640075,,,,,,,2024-01-18,1,,,,,タイズ,0
2592,8180003026224,新規,0,2024-01-18,2024-01-18,合同会社サワガニデザインワークス,,合同会社,愛知県,名古屋市中村区,名駅３丁目４―１０アルティメイト名駅１ｓｔ２階,,23,105,4500002,,,,,,,2024-01-18,1,,,,,サワガニデザインワークス,0
2594,8190001031043,新規,0,2024-01-18,2024-01-18,株式会社エコライズ,,株式会社,三重県,津市,島崎町１７４番地７,,24,201,5140002,,,,,,,2024-01-18,1,,,,,エコライズ,0
2601,8210001019606,新規,0,2024-01-18,2024-01-18,株式会社むらみや,,株式会社,福井県,大飯郡高浜町,和田第１２１号１０番地,,18,481,9192201,,,,,,,2024-01-18,1,,,,,ムラミヤ,0
2610,8240005015697,新規,0,2024-01-18,2024-01-18,ＮＰＯ法人でこぼこみち,,その他の設立登記法人,広島県,広島市安佐南区,緑井３丁目２９番４４－２０７号,,34,105,7310103,,,,,,,2024-01-18,1,,,,,デコボコミチ,0
2612,8250001020469,新規,0,2024-01-18,2024-01-18,株式会社松陰電工,,株式会社,山口県,長門市,三隅中１８８１番地１,,35,211,7593802,,,,,,,2024-01-18,1,,,,,ショウインデンコウ,0
2615,8260001038659,新規,0,2024-01-18,2024-01-18,株式会社難波,00133392,株式会社,岡山県,玉野市,東紅陽台２丁目１９番地２１５,,33,204,7060131,,,,,,,2024-01-18,1,,,,,ナンバ,0
2617,8280005007583,新規,0,2024-01-18,2024-01-18,ＮＰＯ法人あにまるサポート隠岐,,その他の設立登記法人,島根県,隠岐郡隠岐の島町,栄町８７３－１,,32,528,6850011,,,,,,,2024-01-18,1,,,,,アニマルサポートオキ,0
2619,8290001104400,新規,0,2024-01-18,2024-01-18,株式会社アルカス,,株式会社,福岡県,うきは市,吉井町若宮５９番地９,,40,225,8391311,,,,,,,2024-01-18,1,,,,,アルカス,0
2622,8290005019264,新規,0,2024-01-18,2024-01-18,医療法人社団祐美会,,その他の設立登記法人,福岡県,福岡市中央区,渡辺通１丁目８号６番地４階,,40,133,8100004,,,,,,,2024-01-18,1,,,,,ユウビカイ,0
2626,8330001031664,新規,0,2024-01-18,2024-01-18,株式会社鶴屋ウェルネスサポート,,株式会社,熊本県,熊本市中央区,安政町３番３５号,,43,101,8600801,,,,,,,2024-01-18,1,,,,,ツルヤウェルネスサポート,0
2627,8330003010179,新規,0,2024-01-18,2024-01-18,合同会社Ｔｈｅ　ＧＯＤチャンネル,,合同会社,熊本県,熊本市東区,長嶺西３丁目２番９７号,,43,102,8618037,,,,,,,2024-01-18,1,,,,,ザゴッドチャンネル,0
2629,8330005010739,新規,0,2024-01-18,2024-01-18,一般社団法人学校法人くまもと創栄学園設立準備団,,その他の設立登記法人,熊本県,菊池郡大津町,大字大津２１９番９号,,43,403,8691233,,,,,,,2024-01-18,1,,,,,ガッコウホウジンクマモトソウエイガクエンセツリツジュンビダン,0
2630,8350001018759,新規,0,2024-01-18,2024-01-18,オールスクール株式会社,,株式会社,宮崎県,日南市,吾田西１丁目１２番３３号,,45,204,8892536,,,,,,,2024-01-18,1,,,,,オールスクール,0
2636,8360003013625,新規,0,2024-01-18,2024-01-18,合同会社ケアプランえみま,,合同会社,沖縄県,島尻郡与那原町,字与那原３０８３番地１－１階,,47,348,9011303,,,,,,,2024-01-18,1,,,,,ケアプランエミマ,0
2638,8370001050834,新規,0,2024-01-18,2024-01-18,家楽株式会社,,株式会社,宮城県,仙台市青葉区,中山３丁目５番５号,,04,101,9810952,,,,,,,2024-01-18,1,,,,,カラク,0
2639,8370001050850,新規,0,2024-01-18,2024-01-18,株式会社ｉｔｏ,,株式会社,宮城県,栗原市,一迫字三嶋１７－１,,04,213,9872324,,,,,,,2024-01-18,1,,,,,イト,0
2645,8390001017484,新規,0,2024-01-18,2024-01-18,株式会社ＴＦＣ,,株式会社,山形県,米沢市,東大通１丁目１番１３８号,,06,202,9920024,,,,,,,2024-01-18,1,,,,,ティーエフシー,0
2649,8430001090898,新規,0,2024-01-18,2024-01-18,Ｆ　ＳＴＹＬＥ株式会社,,株式会社,北海道,札幌市中央区,大通東３丁目１－２２インボイス札幌レジデンス９０８,,01,101,0600041,,,,,,,2024-01-18,1,,,,,エフスタイル,0
2652,8430003015861,新規,0,2024-01-18,2024-01-18,合同会社蘭越プロパティーズ１,,合同会社,北海道,磯谷郡蘭越町,蘭越町１９３番地,,01,394,0481301,,,,,,,2024-01-18,1,,,,,ランコシプロパティーズワン,0
2667,8470003002559,新規,0,2024-01-18,2024-01-18,ＮＫＫ　ＷＥＬＤ合同会社,,合同会社,香川県,仲多度郡多度津町,東新町１－２０,,37,404,7640001,,,,,,,2024-01-18,1,,,,,エヌケイケイウェルド,0
2668,8500001025418,新規,0,2024-01-18,2024-01-18,株式会社ベルズ,,株式会社,愛媛県,新居浜市,高木町２番６号,,38,205,7920031,,,,,,,2024-01-18,1,,,,,ベルズ,0
2669,8500003003173,新規,0,2024-01-18,2024-01-18,合同会社Ｔｒｕｓｔ．Ｇｏ,,合同会社,愛媛県,新居浜市,王子町５番１号,,38,205,7920008,,,,,,,2024-01-18,1,,,,,トラストゴー,0
2673,9010001241451,新規,0,2024-01-18,2024-01-18,株式会社加賀屋,,株式会社,東京都,中央区,銀座７丁目１３番６号,,13,102,1040061,,,,,,,2024-01-18,1,,,,,カガヤ,0
2674,9010001241534,新規,0,2024-01-18,2024-01-18,ＳＸカタパルト株式会社,,株式会社,東京都,中央区,銀座１丁目１２－４Ｎ＆ＥＢＬＤ．７階,,13,102,1040061,,,,,,,2024-01-18,1,,,,,エスエックスカタパルト,0
2678,9010003042682,新規,0,2024-01-18,2024-01-18,合同会社グリーンビルＰＪ２,,合同会社,東京都,中央区,日本橋１丁目４番１号,,13,102,1030027,,,,,,,2024-01-18,1,,,,,グリーンビルピージェイツー,0
2679,9010003042708,新規,0,2024-01-18,2024-01-18,ＳＩＺ合同会社,,合同会社,東京都,中央区,銀座１丁目１２番４号Ｎ＆Ｅ　ＢＬＤ．６Ｆ,,13,102,1040061,,,,,,,2024-01-18,1,,,,,サイズ,0
2680,9010005037747,新規,0,2024-01-18,2024-01-18,一般社団法人日本健康開発機構,,その他の設立登記法人,東京都,中央区,東日本橋３丁目１２番１１号アヅマビル９Ｆ,,13,102,1030004,,,,,,,2024-01-18,1,,,,,ニホンケンコウカイハツキコウ,0
2681,9010005037755,新規,0,2024-01-18,2024-01-18,一般社団法人Ｓａｐｐｈｉｒｅ１,,その他の設立登記法人,東京都,中央区,八丁堀４丁目２番１０号ＡＯＪ税理士法人内,,13,102,1040032,,,,,,,2024-01-18,1,,,,,サファイアワン,0
2682,9010105002246,新規,0,2024-01-18,2024-01-18,一般財団法人外山アカデミー記念財団,,その他の設立登記法人,東京都,八王子市,中野上町１丁目２１番４号学校法人国際経営学園学生会館内,,13,201,1920041,,,,,,,2024-01-18,1,,,,,トヤマアカデミーキネンザイダン,0
2692,9010501051648,新規,0,2024-01-18,2024-01-18,株式会社エクスバリュー,,株式会社,東京都,台東区,雷門２丁目１８－１６ザ・シティ浅草雷門７階,,13,106,1110034,,,,,,,2024-01-18,1,,,,,エクスバリュー,0
2698,9010603010592,新規,0,2024-01-18,2024-01-18,合同会社ＧｙｍＦｉｔ,,合同会社,東京都,墨田区,文花１丁目１８－１３,,13,107,1310044,,,,,,,2024-01-18,1,,,,,ジムフィット,0
2701,9010701045417,新規,0,2024-01-18,2024-01-18,株式会社ライジング・コスメティックス,,株式会社,東京都,品川区,上大崎３丁目２番１号,,13,109,1410021,,,,,,,2024-01-18,1,,,,,ライジングコスメティックス,0
2703,9010803004816,新規,0,2024-01-18,2024-01-18,ＨＴＳパートナーズ合同会社,,合同会社,東京都,大田区,西嶺町２１番１９号,,13,111,1450075,,,,,,,2024-01-18,1,,,,,エイチティーエスパートナーズ,0
2707,9010903008733,新規,0,2024-01-18,2024-01-18,合同会社ＩＣＥ,,合同会社,東京都,世田谷区,松原１丁目５０番１３号ウィンヒル松原１０３号室,,13,112,1560043,,,,,,,2024-01-18,1,,,,,アイス,0
2723,9011003018284,新規,0,2024-01-18,2024-01-18,Ｖｏｌｔａ　ｄｅ　Ｚｅｎ合同会社,,合同会社,東京都,目黒区,洗足２丁目１８番３号３０８,,13,110,1520012,,,,,,,2024-01-18,1,,,,,ヴォルタデゼン,0
2730,9011303005032,新規,0,2024-01-18,2024-01-18,合同会社富山,,合同会社,東京都,杉並区,宮前２丁目１８番１号,,13,115,1680081,,,,,,,2024-01-18,1,,,,,トミヤマ,0
2733,9011401025774,新規,0,2024-01-18,2024-01-18,株式会社ＨＥＡＴ　Ｅｎｔｅｒｔａｉｎｍｅｎｔ,,株式会社,東京都,板橋区,板橋３丁目３２－９ＮＹビル３Ｆ,,13,119,1730004,,,,,,,2024-01-18,1,,,,,ヒートエンターテインメント,0
2735,9011503005914,新規,0,2024-01-18,2024-01-18,箱守製作所合同会社,,合同会社,東京都,荒川区,東日暮里６丁目３１番１０号,,13,118,1160014,,,,,,,2024-01-18,1,,,,,ハコモリセイサクショ,0
2736,9011601027471,新規,0,2024-01-18,2024-01-18,株式会社リベロブ,,株式会社,東京都,練馬区,東大泉２丁目１５－１１,,13,120,1780063,,,,,,,2024-01-18,1,,,,,リベロブ,0
2741,9011701026935,新規,0,2024-01-18,2024-01-18,ＥＧＣ株式会社,,株式会社,東京都,江戸川区,西小岩３丁目３３番１０号,,13,123,1330057,,,,,,,2024-01-18,1,,,,,イージーシー,0
2745,9011803006034,新規,0,2024-01-18,2024-01-18,合同会社ＹＰＬ,,合同会社,東京都,足立区,花畑５丁目１０番３６ー１０２号,,13,121,1210061,,,,,,,2024-01-18,1,,,,,ワイピーエル,0
2747,9012401041423,新規,0,2024-01-18,2024-01-18,株式会社データセキュア,,株式会社,東京都,稲城市,大丸６６７番地の１ビューバレー彩２０１,,13,225,2060801,,,,,,,2024-01-18,1,,,,,データセキュア,0
2748,9012401041431,新規,0,2024-01-18,2024-01-18,株式会社原フーズ,,株式会社,東京都,調布市,多摩川３丁目１３番地２７,,13,208,1820025,,,,,,,2024-01-18,1,,,,,ハラフーズ,0
2750,9012703002890,新規,0,2024-01-18,2024-01-18,合同会社ネコノヒゲ,,合同会社,東京都,東村山市,栄町１丁目２９番地３４,,13,213,1890013,,,,,,,2024-01-18,1,,,,,ネコノヒゲ,0
2766,9020001155337,新規,0,2024-01-18,2024-01-18,ソフトライト株式会社,,株式会社,神奈川県,横浜市港北区,新横浜２丁目５－１４ＷＩＳＥＮＥＸＴ新横浜３階,,14,109,2220033,,,,,,,2024-01-18,1,,,,,ソフトライト,0
2767,9020001155353,新規,0,2024-01-18,2024-01-18,Ｉｘｏｎｅ株式会社,,株式会社,神奈川県,川崎市中原区,市ノ坪４４９番地３,,14,133,2110016,,,,,,,2024-01-18,1,,,,,イゾン,0
2771,9020003025372,新規,0,2024-01-18,2024-01-18,Ｇａｒｄｅｎ　Ｃｉｔｙ　Ｅｎｔｅｒｔａｉｎｍｅｎｔ合同会社,,合同会社,神奈川県,川崎市宮前区,有馬７丁目１番１－１０２号第二鷺沼レジデンス,,14,136,2160003,,,,,,,2024-01-18,1,,,,,ガーデンシティエンタテインメント,0
2773,9021001081259,新規,0,2024-01-18,2024-01-18,株式会社ゼロエス,,株式会社,神奈川県,相模原市中央区,下九沢９６３番地２,,14,152,2520254,,,,,,,2024-01-18,1,,,,,ゼロエス,0
2784,9030001158223,新規,0,2024-01-18,2024-01-18,ケイルートＴＲサービス株式会社,,株式会社,埼玉県,さいたま市桜区,大字下大久保１２５６番地,,11,106,3380825,,,,,,,2024-01-18,1,,,,,ケイルートティーアールサービス,0
2786,9030003023417,新規,0,2024-01-18,2024-01-18,ＤＩＥＮ　ＴＲＡＮ合同会社,,合同会社,埼玉県,鶴ヶ島市,大字五味ヶ谷４番地２９,,11,241,3502202,,,,,,,2024-01-18,1,,,,,デイエンチャン,0
2800,9060001036748,新規,0,2024-01-18,2024-01-18,ＳＨＯ　ＦＡＣＴＯＲＹ株式会社,,株式会社,栃木県,矢板市,泉５７３番地５,,09,211,3292504,,,,,,,2024-01-18,1,,,,,ショーファクトリー,0
2801,9070001041292,新規,0,2024-01-18,2024-01-18,株式会社ダイユウインターナショナル,,株式会社,群馬県,太田市,南矢島町４４８番地１,,10,205,3730861,,,,,,,2024-01-18,1,,,,,ダイユウインターナショナル,0
2802,9080001026086,新規,0,2024-01-18,2024-01-18,株式会社ｕｎｉｔｙ,,株式会社,静岡県,静岡市葵区,紺屋町１７番地の１,,22,101,4200852,,,,,,,2024-01-18,1,,,,,ユニティー,0
2806,9080003003117,新規,0,2024-01-18,2024-01-18,Ｍ．Ａ．合同会社,,合同会社,静岡県,静岡市葵区,鷹匠２丁目４番８号,,22,101,4200839,,,,,,,2024-01-18,1,,,,,エムエー,0
2809,9080101024485,新規,0,2024-01-18,2024-01-18,株式会社Ｐａｗ　Ｐａｄｓ,,株式会社,静岡県,沼津市,杉崎町７番９号,,22,203,4100033,,,,,,,2024-01-18,1,,,,,ポーパッズ,0
2811,9080401026958,新規,0,2024-01-18,2024-01-18,株式会社ＯＳＫユニバース,,株式会社,静岡県,浜松市中央区,坪井町５４５番地の２,,22,138,4310202,,,,,,,2024-01-18,1,,,,,オーエスケーユニバース,0
2812,9090001018504,新規,0,2024-01-18,2024-01-18,鹿ソニック株式会社,,株式会社,山梨県,南都留郡富士河口湖町,船津４６１３番地,,19,430,4010301,,,,,,,2024-01-18,1,,,,,シカソニック,0
2813,9090005007602,新規,0,2024-01-18,2024-01-18,医療法人甲府昭和腎クリニック,,その他の設立登記法人,山梨県,中巨摩郡昭和町,押越７８９番地,,19,384,4093864,,,,,,,2024-01-18,1,,,,,コウフショウワジンクリニック,0
2816,9100001037130,新規,0,2024-01-18,2024-01-18,株式会社トキタ商事,,株式会社,長野県,長野市,青木島町大塚１１７番地４,,20,201,3812205,,,,,,,2024-01-18,1,,,,,トキタショウジ,0
2819,9110001038111,新規,0,2024-01-18,2024-01-18,株式会社首藤農園,,株式会社,新潟県,新潟市北区,平林１４７５番地,,15,101,9503357,,,,,,,2024-01-18,1,,,,,スドウノウエン,0
2828,9120001261315,新規,0,2024-01-18,2024-01-18,成銘貿易株式会社,,株式会社,大阪府,大阪市東成区,深江北３丁目４番２１号エクラ深江橋５１１Ｂ,,27,115,5370001,,,,,,,2024-01-18,1,,,,,セイメイボウエキ,0
2829,9120001261430,新規,0,2024-01-18,2024-01-18,株式会社Ａｓｓｅｍｂｌｅ　Ｃ．Ｂ,,株式会社,大阪府,大阪市北区,西天満３丁目１番１０－１１０２号,,27,127,5300047,,,,,,,2024-01-18,1,,,,,アッセンブルシービー,0
2840,9120101068899,新規,0,2024-01-18,2024-01-18,ＳＴトレーディング株式会社,,株式会社,大阪府,富田林市,南旭ケ丘町９番２４号,,27,214,5840007,,,,,,,2024-01-18,1,,,,,エスティトレーディング,0
2859,9120905006550,新規,0,2024-01-18,2024-01-18,一般社団法人ラズライト身元保証協会,,その他の設立登記法人,大阪府,豊中市,利倉２丁目４番１６号,,27,203,5610845,,,,,,,2024-01-18,1,,,,,ラズライトミモトホショウキョウカイ,0
2864,9122001037744,新規,0,2024-01-18,2024-01-18,ＫＲ株式会社,,株式会社,大阪府,東大阪市,日下町３丁目２番２３号,,27,227,5798003,,,,,,,2024-01-18,1,,,,,ケーアール,0
2881,9140005026910,新規,0,2024-01-18,2024-01-18,医療法人社団デンタルオフィス北野歯科・矯正歯科,,その他の設立登記法人,兵庫県,明石市,東仲ノ町１０番１８号,,28,203,6730886,,,,,,,2024-01-18,1,,,,,デンタルオフィスキタノシカキョウセイシカ,0
2913,9180001159545,新規,0,2024-01-18,2024-01-18,株式会社ＡＯテック,,株式会社,愛知県,稲沢市,西町３丁目３番２９号,,23,220,4928218,,,,,,,2024-01-18,1,,,,,エーオーテック,0
2914,9180001159768,新規,0,2024-01-18,2024-01-18,株式会社中村鉄工所,,株式会社,愛知県,名古屋市港区,小碓１丁目２０５番地,,23,111,4550801,,,,,,,2024-01-18,1,,,,,ナカムラテッコウショ,0
2915,9180001159776,新規,0,2024-01-18,2024-01-18,株式会社藤原伝次郎商店,,株式会社,愛知県,名古屋市千種区,園山町１丁目３６番地の１,,23,101,4640812,,,,,,,2024-01-18,1,,,,,フジワラデンジロウショウテン,0
2916,9180001159792,新規,0,2024-01-18,2024-01-18,株式会社ｃｕｅｂｉｃｏ,,株式会社,愛知県,名古屋市中村区,名駅４丁目２４番５号第２森ビル４０１,,23,105,4500002,,,,,,,2024-01-18,1,,,,,クエビコ,0
2917,9180001159801,新規,0,2024-01-18,2024-01-18,茶屋ヶ坂動物病院グループ株式会社,,株式会社,愛知県,名古屋市千種区,新西１丁目１番５号,,23,101,4640003,,,,,,,2024-01-18,1,,,,,チャヤガサカドウブツビョウイングループ,0
2924,9190003004558,新規,0,2024-01-18,2024-01-18,丸の内２丁目合同会社,,合同会社,三重県,津市,白山町二本木１００１番地４９６,,24,201,5152602,,,,,,,2024-01-18,1,,,,,マルノウチニチョウメ,0
2928,9200003006214,新規,0,2024-01-18,2024-01-18,ＴＨＥ　ＢＥＳＴ合同会社,,合同会社,岐阜県,岐阜市,鏡島西２丁目１４番１－１０７号鏡島ハイツ,,21,201,5010123,,,,,,,2024-01-18,1,,,,,ザベスト,0
2930,9210003001742,新規,0,2024-01-18,2024-01-18,Ｔｕｍｂｌｉｎｇ　ｄｏｌｌ合同会社,,合同会社,福井県,敦賀市,蓬莱町９番３４－２０１号ＡＰＡガーデンコート蓬莱町,00133401,18,202,9140061,,,,,,,2024-01-18,1,,,,,タンブリングドール,0
2931,9210005010130,新規,0,2024-01-18,2024-01-18,医療法人社団つかさ会,,その他の設立登記法人,福井県,福井市,高木中央２丁目２５１５番地,,18,201,9100804,,,,,,,2024-01-18,1,,,,,ツカサカイ,0
2932,9220001025783,新規,0,2024-01-18,2024-01-18,株式会社ホクリクルーフ,,株式会社,石川県,金沢市,畝田西１丁目５２番地２,,17,201,9200342,,,,,,,2024-01-18,1,,,,,ホクリクルーフ,0
2951,9260001038666,新規,0,2024-01-18,2024-01-18,株式会社カークロック,,株式会社,岡山県,倉敷市,浜町１丁目４番３３－５号,,33,202,7100062,,,,,,,2024-01-18,1,,,,,カークロック,0
2961,9290001104399,新規,0,2024-01-18,2024-01-18,株式会社ＦＩＦＴＹ２ｎｄ,,株式会社,福岡県,柳川市,三橋町蒲船津３８７番地６,,40,207,8320827,,,,,,,2024-01-18,1,,,,,フィフティーセカンド,0
2967,9290005019263,新規,0,2024-01-18,2024-01-18,医療法人やまもと皮ふ科,,その他の設立登記法人,福岡県,福岡市博多区,千代１丁目２番１号ＢＲＡＮＣＨ博多パピヨンガーデン,,40,132,8120044,,,,,,,2024-01-18,1,,,,,ヤマモトヒフカ,0
2968,9290801030225,新規,0,2024-01-18,2024-01-18,株式会社奥田機工,,株式会社,福岡県,北九州市小倉南区,下城野３丁目５番２４号,,40,107,8020804,,,,,,,2024-01-18,1,,,,,オクダキコウ,0
2969,9290801030233,新規,0,2024-01-18,2024-01-18,株式会社ＩＣＨＩＺＥＮ,,株式会社,福岡県,北九州市八幡東区,高見２丁目８－１０グランリビオ桜の杜１３０９,,40,108,8050016,,,,,,,2024-01-18,1,,,,,イチゼン,0
2976,9310001018811,新規,0,2024-01-18,2024-01-18,株式会社モンナンジュ,,株式会社,長崎県,佐世保市,指方町５８３番地４,,42,202,8593242,,,,,,,2024-01-18,1,,,,,モンナンジュ,0
2978,9320001020238,新規,0,2024-01-18,2024-01-18,株式会社宗方倶樂部,,株式会社,大分県,大分市,大字上宗方１１４９番地の１,,44,201,8701152,,,,,,,2024-01-18,1,,,,,ムナカタクラブ,0
2979,9320005010128,新規,0,2024-01-18,2024-01-18,医療法人輝彩,,その他の設立登記法人,大分県,大分市,大字寒田９４４番地３芝崎ビル１階１０１号,,44,201,8701123,,,,,,,2024-01-18,1,,,,,ヒカリ,0
2983,9330001031663,新規,0,2024-01-18,2024-01-18,とくながファーム株式会社,,株式会社,熊本県,宇城市,小川町中小野６３１番地,,43,213,8690602,,,,,,,2024-01-18,1,,,,,トクナガファーム,0
2986,9340003004352,新規,0,2024-01-18,2024-01-18,合同会社ライストップ,,合同会社,鹿児島県,薩摩川内市,入来町副田６０７１番地１,,46,215,8951401,,,,,,,2024-01-18,1,,,,,ライストップ,0
2988,9360001033087,新規,0,2024-01-18,2024-01-18,株式会社ワクカ,,株式会社,沖縄県,那覇市,久茂地２丁目１４－１２,,47,201,9000015,,,,,,,2024-01-18,1,,,,,ワクカ,0
2989,9360001033095,新規,0,2024-01-18,2024-01-18,株式会社ＫＡＩＳＥＩ,,株式会社,沖縄県,浦添市,仲間３丁目２２番１６号,,47,208,9012103,,,,,,,2024-01-18,1,,,,,カイセイ,0
2994,9370001050841,新規,0,2024-01-18,2024-01-18,株式会社フリースタイル,,株式会社,宮城県,黒川郡大郷町,粕川字後沢田２番地の５,,04,422,9813502,,,,,,,2024-01-18,1,,,,,フリースタイル,0
2996,9390001017483,新規,0,2024-01-18,2024-01-18,株式会社アグリテック佐藤,,株式会社,山形県,新庄市,大字本合海１７４１番地,,06,205,9960112,,,,,,,2024-01-18,1,,,,,アグリテックサトウ,0
2999,9410001013703,新規,0,2024-01-18,2024-01-18,株式会社ＡＫＩＴＡ　Ｇｅｏ　Ｔｏｕｒ,,株式会社,秋田県,湯沢市,北荒町３番５号,,05,207,0120825,,,,,,,2024-01-18,1,,,,,アキタジオツアー,0
3004,9430001090823,新規,0,2024-01-18,2024-01-18,株式会社Ｏｐｅｎ　Ｓｅｓａｍｅ,,株式会社,北海道,札幌市厚別区,大谷地東３丁目１番１号シンエー大谷地ビル２Ｆ,,01,108,0040041,,,,,,,2024-01-18,1,,,,,オープンセサミ,0
3005,9430001090897,新規,0,2024-01-18,2024-01-18,株式会社アール,,株式会社,北海道,札幌市中央区,南七条西４丁目４２４番地１２すすきのプラザビル８０９号,,01,101,0640807,,,,,,,2024-01-18,1,,,,,アール,0
3008,9430003015745,新規,0,2024-01-18,2024-01-18,合同会社ＬＩＴＲＡ,,合同会社,北海道,札幌市厚別区,厚別南１丁目６番地２０,,01,108,0040022,,,,,,,2024-01-18,1,,,,,リトラ,0
3025,9470003002558,新規,0,2024-01-18,2024-01-18,合同会社ワイズ・プランニング,,合同会社,香川県,高松市,十川東町６６２番地１３,,37,201,7610434,,,,,,,2024-01-18,1,,,,,ワイズプランニング,0
