sequenceNumber,corporateNumber,process,correct,updateDate,changeDate,name,nameImageId,kind,prefectureName,cityName,streetNumber,addressImageId,prefectureCode,cityCode,postCode,addressOutside,addressOutsideImageId,closeDate,closeCause,successorCorporateNumber,changeCause,assignmentDate,latest,enName,enPrefectureName,enCityName,enAddressOutside,furigana,hihyoji
9,1010001232466,新規,0,2023-01-26,2023-01-26,ＮＥＷ　ＳＨＩＮＩＮＧ　ＴＯＫＹＯ株式会社,,株式会社,東京都,中央区,日本橋箱崎町２７番５号ニューシティハイツ日本橋６０２号室,,13,102,1030015,,,,,,,2023-01-26,1,,,,,ニューシャイントウキョウ,0
10,1010001232490,新規,0,2023-01-26,2023-01-26,株式会社ストラクト,,株式会社,東京都,千代田区,霞が関３丁目２番５号,,13,101,1000013,,,,,,,2023-01-26,1,,,,,ストラクト,0
21,1010403029361,新規,0,2023-01-26,2023-01-26,ＳＢＩＦＳ合同会社,,合同会社,東京都,港区,六本木１丁目６番１号,,13,103,1060032,,,,,,,2023-01-26,1,,,,,エスビーアイエフエス,0
22,1010403029378,新規,0,2023-01-26,2023-01-26,合同会社Ｌｕｓｉｔａｎｏ,,合同会社,東京都,港区,浜松町１丁目１８番１３号高桑ビル３階,,13,103,1050013,,,,,,,2023-01-26,1,,,,,ルシタノ,0
23,1010501049906,新規,0,2023-01-26,2023-01-26,株式会社クオリティ・アイ,,株式会社,東京都,台東区,根岸５丁目１７番６号,,13,106,1100003,,,,,,,2023-01-26,1,,,,,クオリティアイ,0
24,1010501049914,新規,0,2023-01-26,2023-01-26,Ｒｏｂｏｓｅｎ　Ｊａｐａｎ株式会社,,株式会社,東京都,台東区,上野３丁目１１番５号,,13,106,1100005,,,,,,,2023-01-26,1,,,,,ロボセンジャパン,0
26,1010601062494,新規,0,2023-01-26,2023-01-26,株式会社ラフテル,,株式会社,東京都,墨田区,太平３丁目１０番１０－１４０１号,,13,107,1300012,,,,,,,2023-01-26,1,,,,,ラフテル,0
27,1010603009964,新規,0,2023-01-26,2023-01-26,合同会社シッタとマッチ,,合同会社,東京都,江東区,住吉２丁目６番５号インテグレート村上２０１,,13,108,1350002,,,,,,,2023-01-26,1,,,,,シッタトマッチ,0
34,1011001152126,新規,0,2023-01-26,2023-01-26,株式会社Ｄ‐ＣＲＥＯ,,株式会社,東京都,渋谷区,道玄坂１丁目１０番８号渋谷道玄坂東急ビル２Ｆ－Ｃ,,13,113,1500043,,,,,,,2023-01-26,1,,,,,ディークレオ,0
35,1011001152134,新規,0,2023-01-26,2023-01-26,ＴＯＫＹＯ　ＡＲＴ　ＷＯＲＫＳ株式会社,,株式会社,東京都,渋谷区,神宮前６丁目２３番４号桑野ビル２階,,13,113,1500001,,,,,,,2023-01-26,1,,,,,トウキョウアートワークス,0
36,1011001152167,新規,0,2023-01-26,2023-01-26,株式会社ＫＩＴ,,株式会社,東京都,渋谷区,猿楽町５番２１－５０７号代官山ＢＬＥＳＳ,,13,113,1500033,,,,,,,2023-01-26,1,,,,,ケイアイティー,0
37,1011001152200,新規,0,2023-01-26,2023-01-26,株式会社ドロップ,,株式会社,東京都,渋谷区,神宮前６丁目２３番４号桑野ビル２階,,13,113,1500001,,,,,,,2023-01-26,1,,,,,ドロップ,0
38,1011001152225,新規,0,2023-01-26,2023-01-26,株式会社アートリム,,株式会社,東京都,渋谷区,上原１丁目１７番１４号ＬＡビル４Ｆ,,13,113,1510064,,,,,,,2023-01-26,1,,,,,アートリム,0
40,1011003016147,新規,0,2023-01-26,2023-01-26,Ｌａｎｐ　Ｃｒｅａｔｅ合同会社,,合同会社,東京都,渋谷区,神泉町１０番１５号,,13,113,1500045,,,,,,,2023-01-26,1,,,,,ランプクリエイト,0
41,1011003016155,新規,0,2023-01-26,2023-01-26,合同会社ＤＤＸ,,合同会社,東京都,目黒区,鷹番３丁目１９－２第八エスペランス２０２,,13,110,1520004,,,,,,,2023-01-26,1,,,,,ディディエックス,0
49,1011301028414,新規,0,2023-01-26,2023-01-26,クリパー株式会社,,株式会社,東京都,杉並区,西荻北２丁目２５番４号レオン西荻３０６,,13,115,1670042,,,,,,,2023-01-26,1,,,,,クリパー,0
51,1011503005442,新規,0,2023-01-26,2023-01-26,ジャパンホイールズ合同会社,,合同会社,東京都,荒川区,荒川３丁目６－４,,13,118,1160002,,,,,,,2023-01-26,1,,,,,ジャパンホイールズ,0
59,1012403005796,新規,0,2023-01-26,2023-01-26,合同会社りあんじゅ,,合同会社,東京都,多摩市,連光寺３丁目３３番地の６,,13,224,2060021,,,,,,,2023-01-26,1,,,,,リアンジュ,0
62,1013301050232,新規,0,2023-01-26,2023-01-26,株式会社ＥＩＳＨＩＮ,,株式会社,東京都,豊島区,東池袋２丁目６２－９サンハイツ東池袋５０１号室,,13,116,1700013,,,,,,,2023-01-26,1,,,,,エイシン,0
67,1020001149651,新規,0,2023-01-26,2023-01-26,アイズコーポレーション株式会社,,株式会社,神奈川県,横浜市神奈川区,鶴屋町３丁目３２番１４号エクレール横浜西口６０５号,,14,102,2210835,,,,,,,2023-01-26,1,,,,,アイズコーポレーション,0
68,1020001150007,新規,0,2023-01-26,2023-01-26,株式会社ｃｈｅｅｒ　ｉｔ,,株式会社,神奈川県,横浜市中区,西竹之丸８５－１横浜山手パークホームズ１０８,,14,104,2310852,,,,,,,2023-01-26,1,,,,,チアーイット,0
90,1030001152101,新規,0,2023-01-26,2023-01-26,株式会社ＳＩＭＢＡ,,株式会社,埼玉県,川口市,大字木曽呂７９１番地の１リバーヒルズ２０１号室,,11,203,3330831,,,,,,,2023-01-26,1,,,,,シンバ,0
91,1030001152126,新規,0,2023-01-26,2023-01-26,株式会社輝,,株式会社,埼玉県,川口市,栄町１丁目１９番１１－７０７号,,11,203,3320017,,,,,,,2023-01-26,1,,,,,カガヤキ,0
139,1040001126764,新規,0,2023-01-26,2023-01-26,ジェーシー通商株式会社,,株式会社,千葉県,千葉市中央区,千葉港７番２号ライオンズマンション千葉グランドタワー１９０９号,,12,101,2600026,,,,,,,2023-01-26,1,,,,,ジェーシーツウショウ,0
140,1040001126797,新規,0,2023-01-26,2023-01-26,株式会社東葛,,株式会社,千葉県,白井市,神々廻１３９６番地１,,12,232,2701416,,,,,,,2023-01-26,1,,,,,トウカツ,0
143,1040003021757,新規,0,2023-01-26,2023-01-26,合同会社ＡＩＯＵ,,合同会社,千葉県,柏市,松葉町４丁目１番地３（３棟９０２号）,,12,217,2770827,,,,,,,2023-01-26,1,,,,,アイオウ,0
147,1050001052299,新規,0,2023-01-26,2023-01-26,株式会社新栄工業,,株式会社,茨城県,常陸太田市,薬谷町１４０番地９,,08,212,3130126,,,,,,,2023-01-26,1,,,,,シンエイコウギョウ,0
148,1050003007185,新規,0,2023-01-26,2023-01-26,ＹＧホールディングス合同会社,,合同会社,茨城県,日立市,桜川町４丁目１７番１号,,08,202,3160002,,,,,,,2023-01-26,1,,,,,ワイジーホールディングス,0
151,1080001025426,新規,0,2023-01-26,2023-01-26,株式会社ｒｅｆｉｎｅ,,株式会社,静岡県,焼津市,田尻北１２３９番地の２７,,22,212,4250051,,,,,,,2023-01-26,1,,,,,リファイン,0
197,1120001251959,新規,0,2023-01-26,2023-01-26,ＨＡＭＡＲＩ　ｈｏｌｄｉｎｇｓ株式会社,,株式会社,大阪府,大阪市東淀川区,柴島１丁目４番２９号,,27,114,5330024,,,,,,,2023-01-26,1,,,,,ハマリホールディングス,0
198,1120001251975,新規,0,2023-01-26,2023-01-26,信世商事株式会社,,株式会社,大阪府,大阪市浪速区,日本橋５丁目７番１０号山田ビル４０２号,,27,111,5560005,,,,,,,2023-01-26,1,,,,,シンセイショウジ,0
199,1120001251983,新規,0,2023-01-26,2023-01-26,浮日株式会社,,株式会社,大阪府,大阪市淀川区,田川北２丁目５－３４・Ｂ棟１０２号室,,27,123,5320021,,,,,,,2023-01-26,1,,,,,ウキヒ,0
200,1120001252024,新規,0,2023-01-26,2023-01-26,株式会社ＡｋｉＴｏ７グループ,,株式会社,大阪府,大阪市北区,梅田１丁目２番２号,,27,127,5300001,,,,,,,2023-01-26,1,,,,,アキトセブングループ,0
217,1120003023324,新規,0,2023-01-26,2023-01-26,アフィニティ合同会社,,合同会社,大阪府,枚方市,杉山手２丁目１４番８号,,27,210,5730118,,,,,,,2023-01-26,1,,,,,アフィニティ,0
218,1120003023332,新規,0,2023-01-26,2023-01-26,ＡＵＴＯ　ＨＡＬＬ合同会社,,合同会社,大阪府,大阪市西区,江戸堀２丁目１番１号江戸堀センタービル９階,,27,106,5500002,,,,,,,2023-01-26,1,,,,,オートホール,0
258,1130001073527,新規,0,2023-01-26,2023-01-26,株式会社キーファー,,株式会社,京都府,宇治市,槇島町千足２番地の１,,26,204,6110041,,,,,,,2023-01-26,1,,,,,キーファー,0
259,1130001073551,新規,0,2023-01-26,2023-01-26,株式会社鴨川ライン,,株式会社,京都府,京都市伏見区,中島河原田町３１番地１グランデュール鴨川２番館８０２,,26,109,6128469,,,,,,,2023-01-26,1,,,,,カモガワライン,0
268,1140001128874,新規,0,2023-01-26,2023-01-26,株式会社ラフテリア,,株式会社,兵庫県,神戸市垂水区,舞多聞西６丁目３番１４号,,28,108,6550051,,,,,,,2023-01-26,1,,,,,ラフテリア,0
269,1140001128882,新規,0,2023-01-26,2023-01-26,株式会社スリーフィールドカンパニー,,株式会社,兵庫県,神戸市中央区,下山手通７丁目１０番１３号１Ｆ,,28,110,6500011,,,,,,,2023-01-26,1,,,,,スリーフィールドカンパニー,0
273,1140003018644,新規,0,2023-01-26,2023-01-26,合同会社７５４,,合同会社,兵庫県,姫路市,大塩町４４８番地１,,28,201,6710101,,,,,,,2023-01-26,1,,,,,ナナゴヨン,0
274,1140005026463,新規,0,2023-01-26,2023-01-26,一般社団法人ＷＲ,,その他の設立登記法人,兵庫県,明石市,宮の上１番１７－５０２号,,28,203,6730031,,,,,,,2023-01-26,1,,,,,ダブルアール,0
298,1180001154644,新規,0,2023-01-26,2023-01-26,株式会社ステラ不動産,,株式会社,愛知県,名古屋市守山区,新守山３０１４番地,,23,113,4630070,,,,,,,2023-01-26,1,,,,,ステラフドウサン,0
299,1180001154710,新規,0,2023-01-26,2023-01-26,株式会社ＫＯＤＯ,,株式会社,愛知県,半田市,春日町３丁目７４番地の５,,23,205,4750923,,,,,,,2023-01-26,1,,,,,コドウ,0
300,1180001154727,新規,0,2023-01-26,2023-01-26,千松株式会社,,株式会社,愛知県,名古屋市東区,砂田橋４丁目１番５７号メガシティテラス３棟４１５号,,23,102,4610045,,,,,,,2023-01-26,1,,,,,センショウ,0
304,1180003024762,新規,0,2023-01-26,2023-01-26,合同会社ＣＲ‐０１,,合同会社,愛知県,名古屋市東区,東新町１番地,,23,102,4610006,,,,,,,2023-01-26,1,,,,,シーアールゼロイチ,0
306,1180005020090,新規,0,2023-01-26,2023-01-26,特定非営利活動法人ＭｅＲｉｓｅ,,その他の設立登記法人,愛知県,名古屋市名東区,山の手１丁目６０１番地コーポ花屋敷３０２号室,,23,115,4650011,,,,,,,2023-01-26,1,,,,,ミライズ,0
312,1200005013439,新規,0,2023-01-26,2023-01-26,建設アシスト協同組合,,その他の設立登記法人,岐阜県,岐阜市,正木１１０７番１,,21,201,5020857,,,,,,,2023-01-26,1,,,,,ケンセツアシスト,0
324,1280001008872,新規,0,2023-01-26,2023-01-26,株式会社ＴＡＮＡＢＥ　ＰＫＧ,,株式会社,島根県,雲南市,吉田町吉田２４０７番地,,32,209,6902801,,,,,,,2023-01-26,1,,,,,タナベピーケージー,0
334,1290803004317,新規,0,2023-01-26,2023-01-26,合同会社ニコイチ,,合同会社,福岡県,遠賀郡岡垣町,大字手野４５８‐２,,40,383,8114204,,,,,,,2023-01-26,1,,,,,ニコイチ,0
341,1330001030532,新規,0,2023-01-26,2023-01-26,株式会社ｒａｉｎｂｏｗ　ｃｉｒｃｌｅ,,株式会社,熊本県,八代市,高下西町１３７９番地１,,43,202,8660072,,,,,,,2023-01-26,1,,,,,レインボーサークル,0
342,1330005010613,新規,0,2023-01-26,2023-01-26,特定非営利活動法人笑顔の森,,その他の設立登記法人,熊本県,熊本市北区,梶尾町１７９０番地６,,43,105,8615512,,,,,,,2023-01-26,1,,,,,エガオノモリ,0
349,1360003012658,新規,0,2023-01-26,2023-01-26,Ａｓｓｉｓｔ‐Ａ合同会社,,合同会社,沖縄県,中頭郡北中城村,字島袋５４９番２２号,,47,327,9012301,,,,,,,2023-01-26,1,,,,,アシストエー,0
358,1400003003025,新規,0,2023-01-26,2023-01-26,合同会社山藤農園,,合同会社,岩手県,盛岡市,下田字船綱８９番地３,,03,201,0284134,,,,,,,2023-01-26,1,,,,,ヤマフジノウエン,0
379,1430001088288,新規,0,2023-01-26,2023-01-26,株式会社石塚工業,,株式会社,北海道,札幌市東区,中沼西三条１丁目４番１５号,,01,103,0070893,,,,,,,2023-01-26,1,,,,,イシヅカコウギョウ,0
406,1470003002334,新規,0,2023-01-26,2023-01-26,合同会社ＢＩＥＮＥ,,合同会社,香川県,丸亀市,浜町２９番地,,37,202,7630022,,,,,,,2023-01-26,1,,,,,ビーネ,0
409,1500005008557,新規,0,2023-01-26,2023-01-26,行政書士法人エンリード,,その他の設立登記法人,愛媛県,松山市,道後今市１０番２７号,,38,201,7900845,,,,,,,2023-01-26,1,,,,,エンリード,0
416,2010001232457,新規,0,2023-01-26,2023-01-26,株式会社Ｃ＆Ｔ,,株式会社,東京都,中央区,新富２丁目１４番５号ＡＣＮ銀座イーストビル１０Ｆ,,13,102,1040041,,,,,,,2023-01-26,1,,,,,シーアンドティー,0
417,2010001232465,新規,0,2023-01-26,2023-01-26,株式会社Ａｓｓｉｓｔ,,株式会社,東京都,中央区,日本橋２丁目２番３号ＲＩＳＨＥビルＵＣＦ４階,,13,102,1030027,,,,,,,2023-01-26,1,,,,,アシスト,0
420,2010005036169,新規,0,2023-01-26,2023-01-26,一般社団法人日中花道会,,その他の設立登記法人,東京都,千代田区,富士見２丁目１２－１６フラワーハイホーム４０２,,13,101,1020071,,,,,,,2023-01-26,1,,,,,ニッチュウカドウカイ,0
430,2010405021737,新規,0,2023-01-26,2023-01-26,新橋社会保険労務士法人,,その他の設立登記法人,東京都,港区,新橋４丁目２１番３号新橋東急ビル３Ｆ,,13,103,1050004,,,,,,,2023-01-26,1,,,,,シンバシ,0
433,2010501049921,新規,0,2023-01-26,2023-01-26,株式会社大橋通商,,株式会社,東京都,台東区,元浅草２丁目７－５モダンビル１Ｆ,,13,106,1110041,,,,,,,2023-01-26,1,,,,,オオハシツウショウ,0
437,2010503006854,新規,0,2023-01-26,2023-01-26,ＨＵＯＮＧ　ＮＧＵＹＥＮ合同会社,,合同会社,東京都,台東区,駒形１丁目１番１０号,,13,106,1110043,,,,,,,2023-01-26,1,,,,,フォングエン,0
441,2010601062493,新規,0,2023-01-26,2023-01-26,株式会社エムケーアール,,株式会社,東京都,江東区,辰巳１丁目５番６－１０７号,,13,108,1350053,,,,,,,2023-01-26,1,,,,,エムケーアール,0
442,2010601062510,新規,0,2023-01-26,2023-01-26,キキリエクセルシア株式会社,,株式会社,東京都,墨田区,京島３丁目４９番５号ウィンベルソロ曳舟２・４０７,,13,107,1310046,,,,,,,2023-01-26,1,,,,,キキリエクセルシア,0
447,2010701043749,新規,0,2023-01-26,2023-01-26,株式会社ＧＬＡＮＤ,,株式会社,東京都,品川区,西品川１丁目２番１－８１３号,,13,109,1410033,,,,,,,2023-01-26,1,,,,,グラン,0
456,2010903007931,新規,0,2023-01-26,2023-01-26,合同会社フク,,合同会社,東京都,世田谷区,駒沢２丁目２５番５号ハイアット駒沢Ｃ,,13,112,1540012,,,,,,,2023-01-26,1,,,,,フク,0
457,2011001152158,新規,0,2023-01-26,2023-01-26,株式会社１６３,,株式会社,東京都,渋谷区,渋谷２丁目１９－１５宮益坂ビルディング６０９,,13,113,1500002,,,,,,,2023-01-26,1,,,,,イチロクサン,0
458,2011001152174,新規,0,2023-01-26,2023-01-26,ＫｉｓｈｉＮ株式会社,,株式会社,東京都,目黒区,駒場１丁目３３番８号,,13,110,1530041,,,,,,,2023-01-26,1,,,,,キシン,0
467,2011103012623,新規,0,2023-01-26,2023-01-26,Ｃａｐ合同会社,,合同会社,東京都,新宿区,西新宿３丁目３番１３号西新宿水間ビル２Ｆ,,13,104,1600023,,,,,,,2023-01-26,1,,,,,キャップ,0
471,2011401024857,新規,0,2023-01-26,2023-01-26,株式会社フォーヘッズエンタテインメント,,株式会社,東京都,板橋区,中台３丁目２７番Ｊ－１３０１号,,13,119,1740064,,,,,,,2023-01-26,1,,,,,フォーヘッズエンタテインメント,0
492,2011801041824,新規,0,2023-01-26,2023-01-26,株式会社高信土木建設工業,,株式会社,東京都,足立区,鹿浜２丁目２５番１８,,13,121,1230864,,,,,,,2023-01-26,1,,,,,コウシンドボクケンセツコウギョウ,0
507,2020001149980,新規,0,2023-01-26,2023-01-26,株式会社切立,,株式会社,神奈川県,横浜市瀬谷区,阿久和東１丁目１４－１１,,14,114,2460023,,,,,,,2023-01-26,1,,,,,キリタチ,0
508,2020001150006,新規,0,2023-01-26,2023-01-26,株式会社ｂｉｌｌｉｏｎ,,株式会社,神奈川県,横浜市緑区,中山１丁目８番５－５号,,14,113,2260019,,,,,,,2023-01-26,1,,,,,ビリオン,0
515,2021001078039,新規,0,2023-01-26,2023-01-26,株式会社トーラスブレイン,,株式会社,神奈川県,中郡二宮町,緑が丘２丁目１４番地の１０,,14,342,2590132,,,,,,,2023-01-26,1,,,,,トーラスブレイン,0
516,2021001078055,新規,0,2023-01-26,2023-01-26,株式会社賑和興業,,株式会社,神奈川県,藤沢市,辻堂元町１丁目２番１０号,,14,205,2510043,,,,,,,2023-01-26,1,,,,,シンワコウギョウ,0
520,2021003012664,新規,0,2023-01-26,2023-01-26,合同会社條ラボ,,合同会社,神奈川県,藤沢市,片瀬２丁目２１番７号,,14,205,2510032,,,,,,,2023-01-26,1,,,,,エダラボ,0
542,2030001152109,新規,0,2023-01-26,2023-01-26,ＳＵＮＤＥＮ株式会社,,株式会社,埼玉県,入間市,久保稲荷２丁目１番地２０,,11,225,3580024,,,,,,,2023-01-26,1,,,,,サンデン,0
582,2030003021022,新規,0,2023-01-26,2023-01-26,合同会社ｃｈａｒｍｅ,,合同会社,埼玉県,さいたま市中央区,本町東４丁目２２番８号,,11,105,3380003,,,,,,,2023-01-26,1,,,,,シャルム,0
590,2030005021128,新規,0,2023-01-26,2023-01-26,一般社団法人こどもと未来を描く,,その他の設立登記法人,埼玉県,蕨市,中央２丁目１４番２６号アルファステージＩ１０１号,00129222,11,223,3350004,,,,,,,2023-01-26,1,,,,,コドモトミライヲエガク,0
597,2040001126788,新規,0,2023-01-26,2023-01-26,創意株式会社,,株式会社,千葉県,市川市,宮久保１丁目７番１８号,,12,203,2720822,,,,,,,2023-01-26,1,,,,,ソウイ,0
606,2070003004799,新規,0,2023-01-26,2023-01-26,ＨＮＣ　ＩＮ　ＪＡＰＡＮ合同会社,,合同会社,群馬県,高崎市,倉賀野町４６２５－２,,10,202,3701201,,,,,,,2023-01-26,1,,,,,エイチエヌシーインジャパン,0
670,2120001251974,新規,0,2023-01-26,2023-01-26,株式会社ライフライン,,株式会社,大阪府,大阪市中央区,本町橋２－１６ＡＸＩＳ本町橋ＹＫビル４０２号室,,27,128,5400029,,,,,,,2023-01-26,1,,,,,ライフライン,0
671,2120001251990,新規,0,2023-01-26,2023-01-26,株式会社Ｒ＆Ｋ,,株式会社,大阪府,大阪市中央区,東心斎橋１丁目６番１号,,27,128,5420083,,,,,,,2023-01-26,1,,,,,アールアンドケー,0
672,2120001252007,新規,0,2023-01-26,2023-01-26,株式会社ガーベラ,,株式会社,大阪府,大阪市天王寺区,玉造本町１３番１３－８０４号,,27,109,5430013,,,,,,,2023-01-26,1,,,,,ガーベラ,0
673,2120001252015,新規,0,2023-01-26,2023-01-26,Ｃｒａｐｓ株式会社,,株式会社,大阪府,大阪市港区,築港３丁目５番３０－２０１号,,27,107,5520021,,,,,,,2023-01-26,1,,,,,クラップス,0
699,2120005023429,新規,0,2023-01-26,2023-01-26,一般社団法人森美会,,その他の設立登記法人,大阪府,大阪市中央区,心斎橋筋２丁目６番１３号アクロスビル８階,,27,128,5420085,,,,,,,2023-01-26,1,,,,,モリビカイ,0
759,2140001128881,新規,0,2023-01-26,2023-01-26,株式会社アスレチックラボ,,株式会社,兵庫県,神戸市須磨区,平田町２丁目３番９号,,28,107,6540021,,,,,,,2023-01-26,1,,,,,アスレチックラボ,0
787,2180001154692,新規,0,2023-01-26,2023-01-26,株式会社ＯＣＥＡＮ,,株式会社,愛知県,名古屋市中区,栄４丁目９番２６号,,23,106,4600008,,,,,,,2023-01-26,1,,,,,オーシャン,0
788,2180001154701,新規,0,2023-01-26,2023-01-26,グラビティコーポレーション株式会社,,株式会社,愛知県,名古屋市港区,大西３丁目１１番地１,,23,111,4550861,,,,,,,2023-01-26,1,,,,,グラビティコーポレーション,0
789,2180003024761,新規,0,2023-01-26,2023-01-26,Ｓｈｉｎ合同会社,,合同会社,愛知県,岩倉市,下本町下市場１９６－２,,23,228,4820005,,,,,,,2023-01-26,1,,,,,シン,0
793,2180005020081,新規,0,2023-01-26,2023-01-26,特定非営利活動法人アルフィン,,その他の設立登記法人,愛知県,半田市,柊町１丁目７２番地の１,,23,205,4750916,,,,,,,2023-01-26,1,,,,,アルフィン,0
813,2270003001479,新規,0,2023-01-26,2023-01-26,ＯＫＡＭＯＮ合同会社,,合同会社,鳥取県,鳥取市,国府町分上２丁目２４１番地,,31,201,6808064,,,,,,,2023-01-26,1,,,,,オカモン,0
817,2290001100347,新規,0,2023-01-26,2023-01-26,株式会社ウイリン風船,,株式会社,福岡県,福岡市中央区,港２丁目１番３０－１００１号ベイベリー西公園,,40,133,8100075,,,,,,,2023-01-26,1,,,,,ウイリンフウセン,0
819,2290005018932,新規,0,2023-01-26,2023-01-26,一般社団法人Ｇｌｏｂａｌ　Ｇｅｎｅｒａｔｉｏｎ推進機構,,その他の設立登記法人,福岡県,福岡市中央区,警固１丁目６番５６－３０７号,,40,133,8100023,,,,,,,2023-01-26,1,,,,,グローバルジェネレーションスイシンキコウ,0
841,2360001031493,新規,0,2023-01-26,2023-01-26,株式会社輝大,,株式会社,沖縄県,那覇市,久茂地２丁目１２番１３号,,47,201,9000015,,,,,,,2023-01-26,1,,,,,コウダイ,0
842,2360003012665,新規,0,2023-01-26,2023-01-26,合同会社ＫＡＮＮＡ商事,,合同会社,沖縄県,那覇市,古波蔵１丁目２０番４０号,,47,201,9000024,,,,,,,2023-01-26,1,,,,,カンナショウジ,0
848,2400001016135,新規,0,2023-01-26,2023-01-26,株式会社Ｈｕｎｇｒｙ,,株式会社,岩手県,一関市,大東町沖田字赤菅９,,03,209,0290603,,,,,,,2023-01-26,1,,,,,ハングリー,0
869,2430001088295,新規,0,2023-01-26,2023-01-26,株式会社ＴＯＴＡＬ　ＳＵＰＰＯＲＴ,,株式会社,北海道,札幌市南区,川沿十五条２丁目１０番２５－８０４号,,01,106,0050815,,,,,,,2023-01-26,1,,,,,トータルサポート,0
881,2430003014687,新規,0,2023-01-26,2023-01-26,合同会社光彩ビルサービス,,合同会社,北海道,札幌市北区,麻生町２丁目５番４－４０１号,,01,102,0010045,,,,,,,2023-01-26,1,,,,,コウサイビルサービス,0
885,2700150112274,新規,0,2023-01-26,2022-10-26,ｏｆｆｉｃｅ：Ｆｅｓｔｉｖａｌ　ＧＩＧＡ,,その他,山口県,山口市,大内御堀３１１８,,35,203,7530214,,,,,,,2022-10-26,1,,,,,オフイスフエステイバルギガ,0
892,3010001232522,新規,0,2023-01-26,2023-01-26,株式会社ｔｈ４ｗｏｒｋｓ,,株式会社,東京都,中央区,銀座６丁目１３番１６号銀座ＷａｌｌビルＵＣＦ５階,,13,102,1040061,,,,,,,2023-01-26,1,,,,,ティーエイチフォーワークス,0
895,3010003039619,新規,0,2023-01-26,2023-01-26,合同会社ＬＵＸ,,合同会社,東京都,千代田区,岩本町２丁目１－１１トーシンフェニックス神田岩本町壱番館４０１号室,,13,101,1010032,,,,,,,2023-01-26,1,,,,,ルクス,0
896,3010003039643,新規,0,2023-01-26,2023-01-26,合同会社ＯＣＨＯ,,合同会社,東京都,中央区,銀座７丁目６－１９－８階,,13,102,1040061,,,,,,,2023-01-26,1,,,,,オチョ,0
897,3010003039668,新規,0,2023-01-26,2023-01-26,合同会社ＣＵＢＥ,,合同会社,東京都,千代田区,神田和泉町１番地６の１６ヤマトビル４０５,,13,101,1010024,,,,,,,2023-01-26,1,,,,,キューブ,0
898,3010003039676,新規,0,2023-01-26,2023-01-26,合同会社ｍｏｎｏｐｏｃｋｅｔ,,合同会社,東京都,中央区,銀座１丁目１２番４号Ｎ＆Ｅ－ＢＬＤ．６Ｆ,,13,102,1040061,,,,,,,2023-01-26,1,,,,,モノポケット,0
907,3010401172087,新規,0,2023-01-26,2023-01-26,ｐｈｏｔｏ’ｎ株式会社,,株式会社,東京都,港区,南青山４丁目１８番３－３０６号,,13,103,1070062,,,,,,,2023-01-26,1,,,,,フォトン,0
908,3010401172104,新規,0,2023-01-26,2023-01-26,株式会社レッドスターグローバル,,株式会社,東京都,港区,北青山２丁目１２番８号,,13,103,1070061,,,,,,,2023-01-26,1,,,,,レッドスターグローバル,0
909,3010403029401,新規,0,2023-01-26,2023-01-26,合同会社シピーエンター,,合同会社,東京都,港区,芝５丁目１４番５－９０２号,,13,103,1080014,,,,,,,2023-01-26,1,,,,,シピーエンター,0
915,3010405021736,新規,0,2023-01-26,2023-01-26,一般社団法人データマネジメント協会日本支部,,その他の設立登記法人,東京都,港区,港南４丁目１番８号リバージュ品川５階,,13,103,1080075,,,,,,,2023-01-26,1,,,,,データマネジメントキョウカイニホンシブ,0
917,3010503006861,新規,0,2023-01-26,2023-01-26,合同会社Ｖｉｎｃｅｎｔ　Ｐｅｎ,,合同会社,東京都,台東区,入谷１丁目６－６－１１１０,,13,106,1100013,,,,,,,2023-01-26,1,,,,,ヴィンセントペン,0
920,3010601062492,新規,0,2023-01-26,2023-01-26,株式会社ライトネス,,株式会社,東京都,墨田区,墨田２丁目１６番６号,,13,107,1310031,,,,,,,2023-01-26,1,,,,,ライトネス,0
923,3010603009962,新規,0,2023-01-26,2023-01-26,合同会社ＳＴＳ,,合同会社,東京都,墨田区,江東橋１丁目１６番１－５０３号,,13,107,1300022,,,,,,,2023-01-26,1,,,,,エスティエス,0
924,3010603009970,新規,0,2023-01-26,2023-01-26,合同会社みんなのためー,,合同会社,東京都,江東区,東雲１丁目１０－１４－５２６,,13,108,1350062,,,,,,,2023-01-26,1,,,,,ミンナノタメー,0
926,3010801033616,新規,0,2023-01-26,2023-01-26,株式会社Ａｓｅｎｄ‐ｓ,,株式会社,東京都,大田区,下丸子３丁目７番１２－２０２号,,13,111,1460092,,,,,,,2023-01-26,1,,,,,アセンドエス,0
936,3011001152157,新規,0,2023-01-26,2023-01-26,株式会社ＷＡＴＡＮＡＢＥ,,株式会社,東京都,渋谷区,本町２丁目３６番２号本町コーポ１０１,,13,113,1510071,,,,,,,2023-01-26,1,,,,,ワタナベ,0
937,3011001152248,新規,0,2023-01-26,2023-01-26,株式会社柴王,,株式会社,東京都,渋谷区,神宮前６丁目２３番４号桑野ビル２Ｆ,,13,113,1500001,,,,,,,2023-01-26,1,,,,,シバオウ,0
938,3011003016137,新規,0,2023-01-26,2023-01-26,Ｄ＆Ｉインベストメント合同会社,,合同会社,東京都,渋谷区,千駄ヶ谷３丁目２０番６号北参道９６ビルＡＮＮＥＸ,,13,113,1510051,,,,,,,2023-01-26,1,,,,,ディーアンドアイインベストメント,0
939,3011003016153,新規,0,2023-01-26,2023-01-26,テクノコネクト合同会社,,合同会社,東京都,目黒区,碑文谷１丁目１１番１３号,,13,110,1520003,,,,,,,2023-01-26,1,,,,,テクノコネクト,0
940,3011003016161,新規,0,2023-01-26,2023-01-26,合同会社ＴＡＴＯＲＯ,,合同会社,東京都,渋谷区,東４丁目４番３３号,,13,113,1500011,,,,,,,2023-01-26,1,,,,,タトロ,0
948,3011203003991,新規,0,2023-01-26,2023-01-26,合同会社ＹＫ,,合同会社,東京都,中野区,中野５丁目５２番１５,,13,114,1640001,,,,,,,2023-01-26,1,,,,,ワイケー,0
949,3011401024856,新規,0,2023-01-26,2023-01-26,株式会社Ｃｏｙｕ．Ｌｉｖｅ,,株式会社,東京都,板橋区,南常盤台１丁目１１番６号,,13,119,1740072,,,,,,,2023-01-26,1,,,,,コーユードットライブ,0
954,3011501028906,新規,0,2023-01-26,2023-01-26,株式会社てびき,,株式会社,東京都,北区,神谷２丁目２０番６号,,13,117,1150043,,,,,,,2023-01-26,1,,,,,テビキ,0
971,3012701017450,新規,0,2023-01-26,2023-01-26,株式会社番頭さん,,株式会社,東京都,東久留米市,八幡町３丁目１１番１５号,,13,222,2030042,,,,,,,2023-01-26,1,,,,,バントウサン,0
983,3020001149864,新規,0,2023-01-26,2023-01-26,株式会社グッドループ,,株式会社,神奈川県,横浜市泉区,上飯田町８６８番地６,,14,116,2450018,,,,,,,2023-01-26,1,,,,,グッドループ,0
984,3020001149963,新規,0,2023-01-26,2023-01-26,株式会社ぐっぴー,,株式会社,神奈川県,横浜市西区,みなとみらい３丁目７番２号,,14,103,2200012,,,,,,,2023-01-26,1,,,,,グッピー,0
985,3020001149996,新規,0,2023-01-26,2023-01-26,株式会社ＹＳＫ,,株式会社,神奈川県,川崎市宮前区,平２丁目１２番２－５０５号,,14,136,2160022,,,,,,,2023-01-26,1,,,,,ワイエスケイ,0
986,3020001150005,新規,0,2023-01-26,2023-01-26,株式会社レイズホーム,,株式会社,神奈川県,横浜市旭区,鶴ケ峰２丁目９番１１ビッグフィールド３号,,14,112,2410022,,,,,,,2023-01-26,1,,,,,レイズホーム,0
990,3020005015831,新規,0,2023-01-26,2023-01-26,行政書士法人まつばら事務所,,その他の設立登記法人,神奈川県,川崎市川崎区,砂子１丁目１０番地２号,,14,131,2100006,,,,,,,2023-01-26,1,,,,,マツバラジムショ,0
994,3021001078038,新規,0,2023-01-26,2023-01-26,株式会社Ｋ‐ｓｔｙｌｅ,,株式会社,神奈川県,小田原市,板橋７１８番地,,14,206,2500034,,,,,,,2023-01-26,1,,,,,ケースタイル,0
995,3021001078054,新規,0,2023-01-26,2023-01-26,株式会社ストアグラム,,株式会社,神奈川県,鎌倉市,今泉台７丁目１４番９号,,14,204,2470053,,,,,,,2023-01-26,1,,,,,ストアグラム,0
1011,3030001152099,新規,0,2023-01-26,2023-01-26,株式会社ＮＫ法務測量,,株式会社,埼玉県,朝霞市,田島１丁目１２番１０号,,11,227,3510032,,,,,,,2023-01-26,1,,,,,エヌケーホウムソクリョウ,0
1012,3030001152108,新規,0,2023-01-26,2023-01-26,株式会社Ｄａｉ‐ｚ,,株式会社,埼玉県,川口市,上青木１丁目１４－３９ウインザーハイム西川口１１０号,,11,203,3330844,,,,,,,2023-01-26,1,,,,,ダイズ,0
1013,3030001152116,新規,0,2023-01-26,2023-01-26,株式会社堀内機工,,株式会社,埼玉県,入間市,牛沢町１３番１１号４,,11,225,3580051,,,,,,,2023-01-26,1,,,,,ホリウチキコウ,0
1053,3030003021046,新規,0,2023-01-26,2023-01-26,合同会社ＰＡＳＳ,,合同会社,埼玉県,さいたま市浦和区,上木崎８丁目１６番８号,,11,107,3300071,,,,,,,2023-01-26,1,,,,,パス,0
1057,3040001126795,新規,0,2023-01-26,2023-01-26,株式会社ＤＣサポート,,株式会社,千葉県,千葉市中央区,宮崎町７２７番地１１,,12,101,2600805,,,,,,,2023-01-26,1,,,,,ディーシーサポート,0
1058,3040001126812,新規,0,2023-01-26,2023-01-26,株式会社香取農園,,株式会社,千葉県,香取市,多田１７８３番地１,,12,236,2870014,,,,,,,2023-01-26,1,,,,,カトリノウエン,0
1060,3040003021730,新規,0,2023-01-26,2023-01-26,合同会社ＴＫＹサービス,,合同会社,千葉県,山武市,成東１９９番地７号,,12,237,2891326,,,,,,,2023-01-26,1,,,,,ティケイワイサービス,0
1061,3040003021771,新規,0,2023-01-26,2023-01-26,Ｐ３Ｐ’ｓ合同会社,,合同会社,千葉県,八千代市,大和田新田７８５番地５,,12,221,2760046,,,,,,,2023-01-26,1,,,,,ピースリーピース,0
1063,3050001052297,新規,0,2023-01-26,2023-01-26,株式会社ベース,,株式会社,茨城県,取手市,青柳１丁目７－９,,08,217,3020006,,,,,,,2023-01-26,1,,,,,ベース,0
1068,3070001040060,新規,0,2023-01-26,2023-01-26,株式会社シナジー,,株式会社,群馬県,桐生市,本町６丁目２７番１号プライマリービル４Ｆ４号室,,10,203,3760031,,,,,,,2023-01-26,1,,,,,シナジー,0
1069,3070005010076,新規,0,2023-01-26,2023-01-26,特定非営利活動法人ＩＣＣＣ,,その他の設立登記法人,群馬県,太田市,成塚町１５０番地３８３,,10,205,3730006,,,,,,,2023-01-26,1,,,,,アイシーシーシー,0
1127,3120001251916,新規,0,2023-01-26,2023-01-26,新権商事株式会社,,株式会社,大阪府,大阪市福島区,福島６丁目１１番１－９０８号,,27,103,5530003,,,,,,,2023-01-26,1,,,,,シンケンショウジ,0
1128,3120001251981,新規,0,2023-01-26,2023-01-26,縵客株式会社,,株式会社,大阪府,大阪市淀川区,田川北２丁目５－３４・Ｂ棟１０１号室,,27,123,5320021,,,,,,,2023-01-26,1,,,,,マンキャク,0
1129,3120001251998,新規,0,2023-01-26,2023-01-26,株式会社ＩＮＡＲＩｂｉ,,株式会社,大阪府,大阪市北区,堂島１丁目１番５号,,27,127,5300003,,,,,,,2023-01-26,1,,,,,イナリビ,0
1130,3120001252014,新規,0,2023-01-26,2023-01-26,ＺＥＲＯＧＥＬ形状記憶ジェルチップＬａｂｏ株式会社,,株式会社,大阪府,大阪市東住吉区,山坂４丁目４－３ブランズ山坂７０４,,27,121,5460035,,,,,,,2023-01-26,1,,,,,ゼロジェルケイジョウキオクジェルチップラボ,0
1131,3120001252022,新規,0,2023-01-26,2023-01-26,株式会社ＭＩＮＥＲＶＡ,,株式会社,大阪府,大阪市西成区,花園北２丁目７番７号,,27,122,5570016,,,,,,,2023-01-26,1,,,,,ミネルバ,0
1132,3120001252030,新規,0,2023-01-26,2023-01-26,株式会社Ｔ＆Ｗ,,株式会社,大阪府,大阪市東住吉区,矢田１丁目２０番１７号ハイツワールド２Ｊ,,27,121,5460023,,,,,,,2023-01-26,1,,,,,ティーアンドダブリュー,0
1156,3120003023330,新規,0,2023-01-26,2023-01-26,合同会社ＧＡＴＥＮ,,合同会社,大阪府,大阪市生野区,巽西４丁目６番４３号,00129212,27,116,5440012,,,,,,,2023-01-26,1,,,,,ガテン,0
1165,3120005023428,新規,0,2023-01-26,2023-01-26,一般社団法人関西コンバーティングものづくり研究会,,その他の設立登記法人,大阪府,大阪市淀川区,西中島４丁目３－２１ＮＬＣセントラルビル６０３,,27,123,5320011,,,,,,,2023-01-26,1,,,,,カンサイコンバーティングモノヅクリケンキュウカイ,0
1183,3120903004462,新規,0,2023-01-26,2023-01-26,合同会社常木,,合同会社,大阪府,箕面市,森町北１丁目６番９号,,27,220,5630256,,,,,,,2023-01-26,1,,,,,ツネキ,0
1184,3120905006416,新規,0,2023-01-26,2023-01-26,医療法人一山会,,その他の設立登記法人,大阪府,池田市,呉服町一丁目１番サンシティ池田西館３階３０６号,,27,204,5630048,,,,,,,2023-01-26,1,,,,,イチヤマカイ,0
1193,3122001036636,新規,0,2023-01-26,2023-01-26,ＩＭ株式会社,,株式会社,大阪府,四條畷市,中野３丁目１番５号,,27,229,5750052,,,,,,,2023-01-26,1,,,,,アイエム,0
1201,3130003008462,新規,0,2023-01-26,2023-01-26,Ｉｃｃｈａ合同会社,,合同会社,京都府,京都市中京区,松下町１２９,,26,104,6048093,,,,,,,2023-01-26,1,,,,,イッチャ,0
1204,3140001128889,新規,0,2023-01-26,2023-01-26,株式会社アネサポート,,株式会社,兵庫県,姫路市,二階町８０,,28,201,6700922,,,,,,,2023-01-26,1,,,,,アネサポート,0
1209,3160001024789,新規,0,2023-01-26,2023-01-26,株式会社フルレバレッジ,,株式会社,滋賀県,近江八幡市,西本郷町東６番地５,,25,204,5230818,,,,,,,2023-01-26,1,,,,,フルレバレッジ,0
1213,3170001017445,新規,0,2023-01-26,2023-01-26,ＮＯ．６株式会社,,株式会社,和歌山県,橋本市,高野口町名倉１３６８－４,,30,203,6497205,,,,,,,2023-01-26,1,,,,,ナンバーシックス,0
1223,3180001154667,新規,0,2023-01-26,2023-01-26,株式会社フジコーポレーション,,株式会社,愛知県,江南市,草井町宮西１８１番地,,23,217,4838005,,,,,,,2023-01-26,1,,,,,フジコーポレーション,0
1224,3180001154691,新規,0,2023-01-26,2023-01-26,株式会社ＥＮＶＥＤＥＴＴＥ,,株式会社,愛知県,名古屋市守山区,新城４番１１号,,23,113,4630056,,,,,,,2023-01-26,1,,,,,アンヴデット,0
1230,3180003024760,新規,0,2023-01-26,2023-01-26,合同会社八月,,合同会社,愛知県,一宮市,上祖父江字南川原４番地２,,23,203,4940014,,,,,,,2023-01-26,1,,,,,ハチガツ,0
1231,3180005020089,新規,0,2023-01-26,2023-01-26,特定非営利活動法人アイビー,,その他の設立登記法人,愛知県,名古屋市守山区,森孝東２丁目８１４番地森孝西住宅１棟１００２号,,23,113,4630033,,,,,,,2023-01-26,1,,,,,アイビー,0
1232,3180301037043,新規,0,2023-01-26,2023-01-26,ＶＥＮＴＥＣ株式会社,,株式会社,愛知県,額田郡幸田町,大字大草字北川後９８番地３,,23,501,4440103,,,,,,,2023-01-26,1,,,,,ヴァンテック,0
1233,3200001040889,新規,0,2023-01-26,2023-01-26,株式会社ＡＫＦ,,株式会社,岐阜県,本巣市,文殊１９３８番地１,,21,218,5011203,,,,,,,2023-01-26,1,,,,,エーケーエフ,0
1238,3240003005993,新規,0,2023-01-26,2023-01-26,合同会社ＳＯＵＳＥＩ,,合同会社,広島県,東広島市,八本松町宗吉８９番地２０,,34,212,7390145,,,,,,,2023-01-26,1,,,,,ソウセイ,0
1254,3270003001478,新規,0,2023-01-26,2023-01-26,合同会社プレミアムカーファンド１号,,合同会社,鳥取県,米子市,加茂町２丁目１８０番地国際ファミリープラザ７１０号,,31,202,6830823,,,,,,,2023-01-26,1,,,,,プレミアムカーファンドイチゴウ,0
1263,3290001100362,新規,0,2023-01-26,2023-01-26,株式会社フラム,,株式会社,福岡県,福岡市東区,和白５丁目３２－４,,40,131,8110202,,,,,,,2023-01-26,1,,,,,フラム,0
1280,3360001031484,新規,0,2023-01-26,2023-01-26,株式会社Ｃｒｅｅｒｅｖｅ,,株式会社,沖縄県,浦添市,西洲３丁目１－１浦添パルコシティ２階ＡＶＯ．ＨＡＮＤＭＡＤＥ,,47,208,9012123,,,,,,,2023-01-26,1,,,,,クレーヴ,0
1283,3370003005964,新規,0,2023-01-26,2023-01-26,合同会社ジビエの郷おおさき,,合同会社,宮城県,大崎市,岩出山字上真山日向要害２番地,,04,215,9896401,,,,,,,2023-01-26,1,,,,,ジビエノサトオオサキ,0
1285,3380001033421,新規,0,2023-01-26,2023-01-26,株式会社サムライフォワード,,株式会社,福島県,南相馬市,小高区本町１番地の８７,,07,212,9750000,,,,,,,2023-01-26,1,,,,,サムライフォワード,0
1292,3400001016142,新規,0,2023-01-26,2023-01-26,株式会社ＡｃｔＬｕｘｓ,,株式会社,岩手県,盛岡市,湯沢２地割５２番地２,,03,201,0200842,,,,,,,2023-01-26,1,,,,,アクトラス,0
1313,3430001088286,新規,0,2023-01-26,2023-01-26,株式会社ＯＮＣ,,株式会社,北海道,岩見沢市,三条西２丁目１０番地２,,01,210,0680023,,,,,,,2023-01-26,1,,,,,オーエヌシー,0
1314,3430001088294,新規,0,2023-01-26,2023-01-26,株式会社ＰＡＮ,,株式会社,北海道,札幌市豊平区,中の島二条１丁目２－１ハウスオブリザ中の島ＩＤ,00129218,01,105,0620922,,,,,,,2023-01-26,1,,,,,ピーエーエヌ,0
1315,3430001088303,新規,0,2023-01-26,2023-01-26,株式会社ＩＣパートナー,,株式会社,北海道,札幌市中央区,北四条東２丁目８番地２マルイト北４条ビル１階,,01,101,0600034,,,,,,,2023-01-26,1,,,,,アイシーパートナー,0
1335,3440003001510,新規,0,2023-01-26,2023-01-26,合同会社ユーライン,,合同会社,北海道,函館市,美原４丁目８番１１号,,01,202,0410806,,,,,,,2023-01-26,1,,,,,ユーライン,0
1339,3700150006814,新規,0,2023-01-26,2015-10-09,国際医療リスクマネ－ジメント学会,,その他,東京都,文京区,本郷４丁目７－１２－１０２,,13,105,1130033,,,,,,,2015-10-09,1,,,,,コクサイイリヨウリスクマネージメントガツカイ,0
1340,3700150113569,新規,0,2023-01-26,2023-01-11,ケンケンクリエイト,,その他,東京都,町田市,木曽東２丁目８番１３－４０３,,13,209,1940036,,,,,,,2023-01-11,1,,,,,ケンケンクリエイト,0
1354,4010001232397,新規,0,2023-01-26,2023-01-26,株式会社ラブ京海,,株式会社,東京都,千代田区,神田小川町３丁目１１番地,,13,101,1010052,,,,,,,2023-01-26,1,,,,,ラブキョウカイ,0
1355,4010001232455,新規,0,2023-01-26,2023-01-26,株式会社Ｍｙｌｉｓｈ,,株式会社,東京都,中央区,銀座１丁目１２番４号Ｎ＆Ｅ－ＢＬＤ．６Ｆ,,13,102,1040061,,,,,,,2023-01-26,1,,,,,マイリッシュ,0
1356,4010001232521,新規,0,2023-01-26,2023-01-26,株式会社木人拳,,株式会社,東京都,文京区,白山５丁目１７－１８・２Ｆ,,13,105,1120001,,,,,,,2023-01-26,1,,,,,モクジンケン,0
1357,4010003039667,新規,0,2023-01-26,2023-01-26,まませ商事合同会社,,合同会社,東京都,中央区,晴海２丁目３番２－１９１４号,,13,102,1040053,,,,,,,2023-01-26,1,,,,,ママセショウジ,0
1358,4010003039683,新規,0,2023-01-26,2023-01-26,Ｍａｓ　Ｑｕｅ　Ｂｒｉｌｌｉａｄｅ合同会社,,合同会社,東京都,中央区,銀座１丁目１２－４Ｎ＆Ｅ－ＢＬＤ．７階,,13,102,1040061,,,,,,,2023-01-26,1,,,,,マシュケブレリエイド,0
1363,4010401172103,新規,0,2023-01-26,2023-01-26,株式会社チームむかご,,株式会社,東京都,港区,三田２丁目１番１号,,13,103,1080073,,,,,,,2023-01-26,1,,,,,チームムカゴ,0
1365,4010405021727,新規,0,2023-01-26,2023-01-26,特定非営利活動法人茜共創プロジェクト,,その他の設立登記法人,東京都,港区,赤坂２丁目１５番１２号,,13,103,1070052,,,,,,,2023-01-26,1,,,,,アカネキョウソウプロジェクト,0
1371,4010601062500,新規,0,2023-01-26,2023-01-26,株式会社十兵衛,,株式会社,東京都,墨田区,緑２丁目７番２－８０３号アーバイル両国,,13,107,1300021,,,,,,,2023-01-26,1,,,,,ジュウベエ,0
1377,4010703006561,新規,0,2023-01-26,2023-01-26,ヘリテージツリー合同会社,,合同会社,東京都,品川区,東五反田４丁目１０番２２号,,13,109,1410022,,,,,,,2023-01-26,1,,,,,ヘリテージツリー,0
1378,4010801033623,新規,0,2023-01-26,2023-01-26,株式会社イプリザ,,株式会社,東京都,大田区,蒲田２丁目１２－２－２０１号,,13,111,1440052,,,,,,,2023-01-26,1,,,,,イプリザ,0
1385,4011001152156,新規,0,2023-01-26,2023-01-26,株式会社ＣＵＰＬＥＳ,,株式会社,東京都,目黒区,八雲４丁目１０番２０号,,13,110,1520023,,,,,,,2023-01-26,1,,,,,カプレス,0
1387,4011103012638,新規,0,2023-01-26,2023-01-26,合同会社ファーストチャレンジ,,合同会社,東京都,新宿区,大久保２丁目１８番１７号豊コーポラス２０２,,13,104,1690072,,,,,,,2023-01-26,1,,,,,ファーストチャレンジ,0
1391,4011301028411,新規,0,2023-01-26,2023-01-26,株式会社サンキューナス,,株式会社,東京都,杉並区,清水１丁目２３番２２号,,13,115,1670033,,,,,,,2023-01-26,1,,,,,サンキューナス,0
1393,4011401024855,新規,0,2023-01-26,2023-01-26,株式会社ＤＡＪ,,株式会社,東京都,板橋区,赤塚２丁目１－１２,,13,119,1750092,,,,,,,2023-01-26,1,,,,,ディーエージェー,0
1394,4011503005448,新規,0,2023-01-26,2023-01-26,合同会社Ｋａｎａｔａ,,合同会社,東京都,荒川区,南千住２丁目１０－８－２０３,,13,118,1160003,,,,,,,2023-01-26,1,,,,,カナタ,0
1402,4012401040116,新規,0,2023-01-26,2023-01-26,株式会社Ｃｅｌｔｉｃ,,株式会社,東京都,武蔵野市,吉祥寺南町１丁目５番５号第６３東京ビル３階,,13,203,1800003,,,,,,,2023-01-26,1,,,,,セルティック,0
1410,4020001149987,新規,0,2023-01-26,2023-01-26,株式会社進成工業,,株式会社,神奈川県,横浜市旭区,上白根町９４５番地５,,14,112,2410001,,,,,,,2023-01-26,1,,,,,シンセイコウギョウ,0
1411,4020001149995,新規,0,2023-01-26,2023-01-26,株式会社ＤＸ　ＬＯＮＧ　ＲＡＮＧＥ,,株式会社,神奈川県,川崎市中原区,木月３丁目１５番１０－２号,,14,133,2110025,,,,,,,2023-01-26,1,,,,,ディーエックスロングレンジ,0
1412,4020001150004,新規,0,2023-01-26,2023-01-26,株式会社Ｍｅｔｅｏｒ,,株式会社,神奈川県,横浜市南区,南吉田町４丁目３７番地,,14,105,2320012,,,,,,,2023-01-26,1,,,,,ミーティア,0
1416,4020005015830,新規,0,2023-01-26,2023-01-26,社会保険労務士法人まつばら事務所,,その他の設立登記法人,神奈川県,川崎市川崎区,砂子１丁目１０番地２号,,14,131,2100006,,,,,,,2023-01-26,1,,,,,マツバラジムショ,0
1417,4021001078037,新規,0,2023-01-26,2023-01-26,ウェブメイク株式会社,,株式会社,神奈川県,藤沢市,大庭５５２６番地の２０ＭＩＮＡＳＩＡ湘南ライフタウンＳ１００４号,,14,205,2510861,,,,,,,2023-01-26,1,,,,,ウェブメイク,0
1418,4021001078045,新規,0,2023-01-26,2023-01-26,株式会社アトリエＥＫ,,株式会社,神奈川県,茅ヶ崎市,甘沼７５６番地１,,14,207,2530004,,,,,,,2023-01-26,1,,,,,アトリエイーケー,0
1419,4021001078061,新規,0,2023-01-26,2023-01-26,ＺＥＡＬ株式会社,,株式会社,神奈川県,藤沢市,辻堂太平台１丁目１３番１５－４号,,14,205,2510044,,,,,,,2023-01-26,1,,,,,ジール,0
1421,4021003012662,新規,0,2023-01-26,2023-01-26,合同会社ＴＯＭＩＮＡＧＡ,,合同会社,神奈川県,藤沢市,鵠沼石上２丁目５番１号カサハラビル３階,,14,205,2510025,,,,,,,2023-01-26,1,,,,,トミナガ,0
1441,4030001152107,新規,0,2023-01-26,2023-01-26,大山建設株式会社,,株式会社,埼玉県,熊谷市,江南中央２丁目９番地２１,,11,202,3600114,,,,,,,2023-01-26,1,,,,,ダイセンケンセツ,0
1468,4030003021037,新規,0,2023-01-26,2023-01-26,合同会社Ａ‐ＲＩＳＥ,,合同会社,埼玉県,さいたま市見沼区,大字蓮沼６４１番地９,,11,104,3370015,,,,,,,2023-01-26,1,,,,,アライズ,0
1493,4100001036087,新規,0,2023-01-26,2023-01-26,株式会社旬樹庵マネジメント,,株式会社,長野県,千曲市,上山田温泉２丁目３２番１１,,20,218,3890821,,,,,,,2023-01-26,1,,,,,シュンジュアンマネジメント,0
1546,4120001251948,新規,0,2023-01-26,2023-01-26,百信株式会社,,株式会社,大阪府,大阪市北区,天満２丁目１－１２天満橋ＳＥビル４階,,27,127,5300043,,,,,,,2023-01-26,1,,,,,ヒャクシン,0
1547,4120001251997,新規,0,2023-01-26,2023-01-26,株式会社池田総合企画,,株式会社,大阪府,大阪市中央区,南船場４丁目１０番１５号,,27,128,5420081,,,,,,,2023-01-26,1,,,,,イケダソウゴウキカク,0
1548,4120001252021,新規,0,2023-01-26,2023-01-26,ＣＷＰ株式会社,,株式会社,大阪府,大阪市西成区,花園北２丁目７番７号,,27,122,5570016,,,,,,,2023-01-26,1,,,,,シーダブリューピー,0
1561,4120003023313,新規,0,2023-01-26,2023-01-26,合同会社ＨａｒｉＢｅａｒ,,合同会社,大阪府,守口市,梶町４丁目７８番１号,,27,209,5700015,,,,,,,2023-01-26,1,,,,,ハリベアー,0
1571,4120005023427,新規,0,2023-01-26,2023-01-26,社会保険労務士法人ＣＯＳＭＯ‐ＩＭＡＧＩＮＥ,,その他の設立登記法人,大阪府,大阪市中央区,久太郎町２丁目５番３１号本町寺田ビルディング１０階,,27,128,5410056,,,,,,,2023-01-26,1,,,,,コスモイマジン,0
1578,4120101066890,新規,0,2023-01-26,2023-01-26,株式会社黎建装,,株式会社,大阪府,堺市中区,大野芝町１６７,,27,142,5998233,,,,,,,2023-01-26,1,,,,,レイケンソウ,0
1588,4120901047033,新規,0,2023-01-26,2023-01-26,三合商事株式会社,,株式会社,大阪府,吹田市,江の木町１６番３３号ハイツ丸利１０３号室,,27,205,5640053,,,,,,,2023-01-26,1,,,,,サンゴウショウジ,0
1595,4120905006415,新規,0,2023-01-26,2023-01-26,医療法人花桜会,,その他の設立登記法人,大阪府,豊中市,新千里東町３丁目３番１２０号パークホームズ千里中央ザレジデンスパークサイド１Ｆ,,27,203,5600082,,,,,,,2023-01-26,1,,,,,カオウカイ,0
1614,4140001128871,新規,0,2023-01-26,2023-01-26,株式会社フォース,,株式会社,兵庫県,尼崎市,神田中通４丁目１１６番地,,28,202,6600884,,,,,,,2023-01-26,1,,,,,フォース,0
1617,4140003018583,新規,0,2023-01-26,2023-01-26,芦屋イノベーティブコンサルティング合同会社,00129221,合同会社,兵庫県,芦屋市,岩園町１番２４号,,28,206,6590013,,,,,,,2023-01-26,1,,,,,アシヤイノベーティブコンサルティング,0
1618,4140003018641,新規,0,2023-01-26,2023-01-26,合同会社Ｍａｃｈｉｋａｒａ,,合同会社,兵庫県,加古郡稲美町,国安２丁目３４番地,,28,381,6751114,,,,,,,2023-01-26,1,,,,,マチカラ,0
1634,4180001154690,新規,0,2023-01-26,2023-01-26,株式会社リノベ工務店,,株式会社,愛知県,小牧市,小牧５丁目１７番地,,23,219,4850041,,,,,,,2023-01-26,1,,,,,リノベコウムテン,0
1635,4180001154716,新規,0,2023-01-26,2023-01-26,株式会社ｔｉｔｉｔａｔａＬＡＢＯ,,株式会社,愛知県,名古屋市西区,名駅２丁目２９番２号プリマヴェール名駅ノルテ５０５号,,23,104,4510045,,,,,,,2023-01-26,1,,,,,チチタタラボ,0
1641,4180003024768,新規,0,2023-01-26,2023-01-26,合同会社ｃｒｅｇｉｎａｔｅ,,合同会社,愛知県,春日井市,不二ガ丘１丁目５７,,23,206,4870023,,,,,,,2023-01-26,1,,,,,クリジネイト,0
1642,4180005020088,新規,0,2023-01-26,2023-01-26,アメニティ工房労働者協同組合,,その他の設立登記法人,愛知県,知多郡阿久比町,大字福住字松本１０８番地２,,23,441,4702202,,,,,,,2023-01-26,1,,,,,アメニティコウボウ,0
1643,4180301037042,新規,0,2023-01-26,2023-01-26,株式会社樹,,株式会社,愛知県,西尾市,丁田町前通１５番地１,,23,213,4450062,,,,,,,2023-01-26,1,,,,,イツキ,0
1644,4180303005583,新規,0,2023-01-26,2023-01-26,合同会社ＧＫＹ,,合同会社,愛知県,刈谷市,板倉町２丁目１２－１リバティ板倉２０３,,23,210,4480801,,,,,,,2023-01-26,1,,,,,ジーケーワイ,0
1654,4240005015503,新規,0,2023-01-26,2023-01-26,一般社団法人ＳＰＯＴ,,その他の設立登記法人,広島県,福山市,南蔵王町６丁目２６番２６号,,34,207,7210973,,,,,,,2023-01-26,1,,,,,スポット,0
1666,4290001100329,新規,0,2023-01-26,2023-01-26,株式会社イズム,,株式会社,福岡県,久留米市,大橋町常持９８－１,,40,203,8390833,,,,,,,2023-01-26,1,,,,,イズム,0
1667,4290001100337,新規,0,2023-01-26,2023-01-26,株式会社ＴＯＰ　ＥＭＢＯＤＹ,,株式会社,福岡県,福岡市中央区,今泉１丁目１２番８号天神ＱＲビル,,40,133,8100021,,,,,,,2023-01-26,1,,,,,トップエンバディ,0
1668,4290001100345,新規,0,2023-01-26,2023-01-26,株式会社リバティ,,株式会社,福岡県,糟屋郡粕屋町,長者原東１丁目１番１３号,,40,349,8112317,,,,,,,2023-01-26,1,,,,,リバティ,0
1673,4310001018238,新規,0,2023-01-26,2023-01-26,株式会社メトリー,,株式会社,長崎県,長崎市,野母町２３１０,,42,201,8510505,,,,,,,2023-01-26,1,,,,,,0
1678,4360003012663,新規,0,2023-01-26,2023-01-26,ブルービー合同会社,,合同会社,沖縄県,那覇市,若狭１丁目１８番１号１０１,,47,201,9000031,,,,,,,2023-01-26,1,,,,,ブルービー,0
1679,4370001049533,新規,0,2023-01-26,2023-01-26,大和開発株式会社,,株式会社,宮城県,仙台市太白区,鈎取本町１丁目１６番２５号,,04,104,9820805,,,,,,,2023-01-26,1,,,,,ダイワカイハツ,0
1683,4380001033420,新規,0,2023-01-26,2023-01-26,ディーヴァハーモニークリエイション株式会社,,株式会社,福島県,郡山市,富田町字下西田２２番地の７,,07,203,9638041,,,,,,,2023-01-26,1,,,,,ディーヴァハーモニークリエイション,0
1684,4380003005368,新規,0,2023-01-26,2023-01-26,合同会社あんさー,,合同会社,福島県,いわき市,郷ケ丘２丁目１１番地の３,,07,204,9708045,,,,,,,2023-01-26,1,,,,,アンサー,0
1700,4430001088277,新規,0,2023-01-26,2023-01-26,株式会社Ｋｔｒａｖｅｌ,,株式会社,北海道,札幌市西区,福井４丁目２番３０号,,01,107,0630012,,,,,,,2023-01-26,1,,,,,ケイトラベル,0
1701,4430001088293,新規,0,2023-01-26,2023-01-26,株式会社ＧＯＴＴＯＮ,,株式会社,北海道,札幌市中央区,円山西町４丁目５番１号,,01,101,0640944,,,,,,,2023-01-26,1,,,,,ゴットン,0
1716,4430003014685,新規,0,2023-01-26,2023-01-26,合同会社ｅｔｏｉｌｅ,,合同会社,北海道,札幌市中央区,南八条西１丁目１３－１３９Ｓ－ＦＯＲＴ中島公園１００２号室,,01,101,0640808,,,,,,,2023-01-26,1,,,,,エトワール,0
1720,4480003001927,新規,0,2023-01-26,2023-01-26,合同会社ＦＥＲＮＡＸ,,合同会社,徳島県,小松島市,大林町字戸井ノ内２４－４,,36,203,7730022,,,,,,,2023-01-26,1,,,,,,0
1728,4700150034319,新規,0,2023-01-26,2015-10-09,稚内日ロ経済交流協会,,その他,北海道,稚内市,末広３丁目４－１,,01,214,0970001,,,,,,,2015-10-09,1,,,,,ワツカナイニチロケイザイコウリユウキヨウカイ,0
1729,4700150113543,新規,0,2023-01-26,2023-01-10,日本遺産「銀の馬車道・鉱石の道」推進協議会,,その他,兵庫県,豊岡市,幸町７－１１,,28,209,6680025,,,,,,,2023-01-10,1,,,,,ニホンイサンギンノバシヤミチコウセキノミチスイシンキヨウギカイ,0
1747,5010001232487,新規,0,2023-01-26,2023-01-26,ケーエムエヌ開発株式会社,,株式会社,東京都,中央区,日本橋浜町２丁目５２番６号,,13,102,1030007,,,,,,,2023-01-26,1,,,,,ケーエムエヌカイハツ,0
1750,5010003039666,新規,0,2023-01-26,2023-01-26,ＬＤＦ１合同会社,,合同会社,東京都,千代田区,丸の内３丁目１番１号東京共同会計事務所内,,13,101,1000005,,,,,,,2023-01-26,1,,,,,エルディーエフワン,0
1757,5010401172060,新規,0,2023-01-26,2023-01-26,株式会社Ａｎｓｋｉ,,株式会社,東京都,港区,浜松町１丁目３－２－２２１２,,13,103,1050013,,,,,,,2023-01-26,1,,,,,アンスキー,0
1758,5010401172102,新規,0,2023-01-26,2023-01-26,Ａｌｅｋ　Ｃｏｎｓｕｌｔ株式会社,,株式会社,東京都,港区,虎ノ門３丁目１８番６号朝日虎ノ門マンション６１４号室,,13,103,1050001,,,,,,,2023-01-26,1,,,,,アレックコンサルト,0
1762,5010601062482,新規,0,2023-01-26,2023-01-26,山由日本株式会社,,株式会社,東京都,江東区,豊洲６丁目２番３１－１９１７号,,13,108,1350061,,,,,,,2023-01-26,1,,,,,サンユウニッポン,0
1763,5010601062490,新規,0,2023-01-26,2023-01-26,株式会社ＶＯＹＡＧＥ,,株式会社,東京都,江東区,豊洲１丁目３－２６－４０１,,13,108,1350061,,,,,,,2023-01-26,1,,,,,ボヤージ,0
1764,5010601062508,新規,0,2023-01-26,2023-01-26,紅林株式会社,,株式会社,東京都,墨田区,墨田４丁目８番４号,,13,107,1310031,,,,,,,2023-01-26,1,,,,,コウリン,0
1766,5010903007929,新規,0,2023-01-26,2023-01-26,合同会社マルメ,,合同会社,東京都,世田谷区,奥沢５丁目２７番５号魚菜エステートビル６０８号,,13,112,1580083,,,,,,,2023-01-26,1,,,,,マルメ,0
1771,5011001152139,新規,0,2023-01-26,2023-01-26,株式会社ＨＯＰＰＥ,,株式会社,東京都,渋谷区,神宮前６丁目２３番４号桑野ビル２階,,13,113,1500001,,,,,,,2023-01-26,1,,,,,ホッペ,0
1772,5011001152147,新規,0,2023-01-26,2023-01-26,株式会社パチャパパ,,株式会社,東京都,渋谷区,神宮前２丁目３３番２１―２０２号,,13,113,1500001,,,,,,,2023-01-26,1,,,,,パチャパパ,0
1773,5011001152171,新規,0,2023-01-26,2023-01-26,株式会社Ｍｕｓｕｂｉｔｏ,,株式会社,東京都,渋谷区,広尾３丁目１０－１－Ａ１０２,,13,113,1500012,,,,,,,2023-01-26,1,,,,,ムスビト,0
1777,5011101101623,新規,0,2023-01-26,2023-01-26,Ｒｅｇｉｆｏｏｄ株式会社,,株式会社,東京都,新宿区,西新宿３丁目３番１３号西新宿水間ビル２Ｆ,,13,104,1600023,,,,,,,2023-01-26,1,,,,,レジフード,0
1780,5011103012645,新規,0,2023-01-26,2023-01-26,合同会社Ｇ＆Ｊ,,合同会社,東京都,新宿区,新宿１丁目３６－２新宿第七葉山ビル３Ｆ,,13,104,1600022,,,,,,,2023-01-26,1,,,,,ジーアンドジェー,0
1783,5011105010531,新規,0,2023-01-26,2023-01-26,一般社団法人ＣＯＡｓ,,その他の設立登記法人,東京都,新宿区,西早稲田２丁目４－７,,13,104,1690051,,,,,,,2023-01-26,1,,,,,コアズ,0
1785,5011201024377,新規,0,2023-01-26,2023-01-26,株式会社Ｋｅｗｌ,,株式会社,東京都,中野区,野方１丁目４６番２２号,,13,114,1650027,,,,,,,2023-01-26,1,,,,,クール,0
1796,5012401040115,新規,0,2023-01-26,2023-01-26,株式会社Ａｒｃａｇｒａｍ,,株式会社,東京都,三鷹市,下連雀６丁目１１番５号三鷹グリーンハイツ２０４,,13,204,1810013,,,,,,,2023-01-26,1,,,,,アルカグラム,0
1804,5013301050245,新規,0,2023-01-26,2023-01-26,キングガーデン株式会社,,株式会社,東京都,豊島区,東池袋５丁目１番３号６０１号室,,13,116,1700013,,,,,,,2023-01-26,1,,,,,キングガーデン,0
1810,5020001149961,新規,0,2023-01-26,2023-01-26,株式会社ＲＥＶＯＰＳ,,株式会社,神奈川県,横浜市神奈川区,栄町５番地１横浜クリエーションスクエア１４階,,14,102,2210052,,,,,,,2023-01-26,1,,,,,レブオプス,0
1811,5020001149986,新規,0,2023-01-26,2023-01-26,株式会社ＣＳＧ,,株式会社,神奈川県,横浜市港北区,高田西１丁目７番１０－１０３号,,14,109,2230066,,,,,,,2023-01-26,1,,,,,シーエスジー,0
1812,5020001150011,新規,0,2023-01-26,2023-01-26,株式会社Ｐｒｏｆｉｃ,,株式会社,神奈川県,川崎市高津区,溝口６丁目８－７－４０５,,14,134,2130001,,,,,,,2023-01-26,1,,,,,プロフィック,0
1818,5020003023181,新規,0,2023-01-26,2023-01-26,合同会社いちとぜん,,合同会社,神奈川県,川崎市高津区,溝口２丁目１３－２３－８０４,,14,134,2130001,,,,,,,2023-01-26,1,,,,,イチトゼン,0
1821,5021001078028,新規,0,2023-01-26,2023-01-26,Ｃ‐ｆｒｏｎｔｉｅｒ株式会社,,株式会社,神奈川県,藤沢市,獺郷１２２６番地２階,,14,205,2520825,,,,,,,2023-01-26,1,,,,,シーフロンティア,0
1877,5040001126785,新規,0,2023-01-26,2023-01-26,ハウスプランニング株式会社,,株式会社,千葉県,習志野市,本大久保３丁目９－１６,,12,216,2750012,,,,,,,2023-01-26,1,,,,,ハウスプランニング,0
1881,5050001052295,新規,0,2023-01-26,2023-01-26,株式会社ＨＡＹＡＴ,,株式会社,茨城県,筑西市,丙１０２番地６、２階,,08,227,3080031,,,,,,,2023-01-26,1,,,,,ハヤト,0
1886,5080401026276,新規,0,2023-01-26,2023-01-26,株式会社ＴＭＣ,,株式会社,静岡県,浜松市西区,大平台３丁目２７番６号,,22,133,4328068,,,,,,,2023-01-26,1,,,,,ティーエムシー,0
1954,5120001252029,新規,0,2023-01-26,2023-01-26,Ｌｅｇａｃｙ　Ｌｉｎｋ株式会社,,株式会社,大阪府,大阪市阿倍野区,阿倍野筋１丁目１番４３号３１階,,27,119,5450052,,,,,,,2023-01-26,1,,,,,レガシーリンク,0
1955,5120001252037,新規,0,2023-01-26,2023-01-26,日東産業株式会社,,株式会社,大阪府,寝屋川市,楠根北町６番１７号,,27,215,5720845,,,,,,,2023-01-26,1,,,,,ニットウサンギョウ,0
2002,5120903004469,新規,0,2023-01-26,2023-01-26,合同会社ＭＨ,,合同会社,大阪府,三島郡島本町,水無瀬２丁目１番１９－６号,,27,301,6180014,,,,,,,2023-01-26,1,,,,,エムエイチ,0
2011,5122003002502,新規,0,2023-01-26,2023-01-26,クライム合同会社,,合同会社,大阪府,四條畷市,田原台８丁目５番１１号,,27,229,5750013,,,,,,,2023-01-26,1,,,,,クライム,0
2017,5130003008477,新規,0,2023-01-26,2023-01-26,ＫＲＮ　Ｉｎｔｅｒｎａｔｉｏｎａｌ合同会社,,合同会社,京都府,綴喜郡宇治田原町,大字郷之口小字田中２４番地,,26,344,6100255,,,,,,,2023-01-26,1,,,,,ケーアールエヌインターナショナル,0
2021,5140001128854,新規,0,2023-01-26,2023-01-26,洪泰貿易株式会社,,株式会社,兵庫県,姫路市,花田町高木６０－１,,28,201,6710256,,,,,,,2023-01-26,1,,,,,コウタイボウエキ,0
2022,5140001128862,新規,0,2023-01-26,2023-01-26,株式会社Ｋ‐Ｓ,,株式会社,兵庫県,尼崎市,猪名寺２丁目２１番１８号１号３階,,28,202,6610981,,,,,,,2023-01-26,1,,,,,ケーズ,0
2023,5140001128870,新規,0,2023-01-26,2023-01-26,前田土木株式会社,,株式会社,兵庫県,加西市,山枝町２３８番地の３,,28,220,6790108,,,,,,,2023-01-26,1,,,,,マエダドボク,0
2024,5140001128879,新規,0,2023-01-26,2023-01-26,株式会社カワレ,,株式会社,兵庫県,三木市,志染町青山５丁目１８番地の２０,,28,215,6730521,,,,,,,2023-01-26,1,,,,,カワレ,0
2026,5140003018582,新規,0,2023-01-26,2023-01-26,合同会社ＤＣＴ,,合同会社,兵庫県,神戸市中央区,中山手通２丁目１－２６、５０１,,28,110,6500004,,,,,,,2023-01-26,1,,,,,ディーシーティ,0
2027,5140003018640,新規,0,2023-01-26,2023-01-26,合同会社ＣＡＲＲＯＴ　ＷＯＲＫＳ,,合同会社,兵庫県,芦屋市,業平町６－４プティヴィラ４０１,,28,206,6590068,,,,,,,2023-01-26,1,,,,,キャロットワークス,0
2036,5180001154698,新規,0,2023-01-26,2023-01-26,株式会社Ｃｒｅａｒｅ,,株式会社,愛知県,知多市,大草字西畑９０番地の１,,23,224,4780035,,,,,,,2023-01-26,1,,,,,クレアール,0
2037,5180001154715,新規,0,2023-01-26,2023-01-26,株式会社ＶＥＣ,,株式会社,愛知県,名古屋市守山区,大字上志段味字中屋敷１５５１番地の１,,23,113,4630001,,,,,,,2023-01-26,1,,,,,ヴェック,0
2046,5180003024767,新規,0,2023-01-26,2023-01-26,合同会社メディチーノ,,合同会社,愛知県,大府市,長根町２丁目１７８番地の２４,,23,223,4740021,,,,,,,2023-01-26,1,,,,,メディチーノ,0
2055,5220001025242,新規,0,2023-01-26,2023-01-26,ウィズコンサルティング株式会社,,株式会社,石川県,加賀市,桑原町イ３６番地１,,17,206,9220326,,,,,,,2023-01-26,1,,,,,ウィズコンサルティング,0
2058,5230001019689,新規,0,2023-01-26,2023-01-26,株式会社小矢部デリカ,,株式会社,富山県,小矢部市,蓮沼５３４番地２,,16,209,9320834,,,,,,,2023-01-26,1,,,,,オヤベデリカ,0
2062,5240003005991,新規,0,2023-01-26,2023-01-26,ＭＩＺ合同会社,,合同会社,広島県,広島市中区,薬研堀５番１７号マスターズ館２０５号室,,34,101,7300027,,,,,,,2023-01-26,1,,,,,エムアイズィ,0
2072,5290001100336,新規,0,2023-01-26,2023-01-26,株式会社Ｍ‐ａＱＵＡ,,株式会社,福岡県,福岡市西区,周船寺３丁目２番３４－１号,,40,135,8190373,,,,,,,2023-01-26,1,,,,,エムエクア,0
2073,5290001100344,新規,0,2023-01-26,2023-01-26,株式会社ＳＢＫ,,株式会社,福岡県,福岡市中央区,荒戸２丁目１番１号,,40,133,8100062,,,,,,,2023-01-26,1,,,,,エスビーケー,0
2074,5290003013461,新規,0,2023-01-26,2023-01-26,Ｇｌｏｂａｌ　Ｎｅｔｗｏｒｋ　Ｏｒｇ合同会社,,合同会社,福岡県,糸島市,前原西２丁目１－１７－２０１号,,40,230,8191117,,,,,,,2023-01-26,1,,,,,グローバルネットワークオーグ,0
2079,5320005010049,新規,0,2023-01-26,2023-01-26,特定非営利活動法人インクル,,その他の設立登記法人,大分県,中津市,大字牛神４０７番地の１,,44,203,8710015,,,,,,,2023-01-26,1,,,,,インクル,0
2081,5340001025313,新規,0,2023-01-26,2023-01-26,株式会社ナムラＫＦ＆Ｓ,,株式会社,鹿児島県,大島郡喜界町,大字志戸桶４５２８番地１,,46,529,8916143,,,,,,,2023-01-26,1,,,,,ナムラケイエフアンドエス,0
2087,5360001031482,新規,0,2023-01-26,2023-01-26,株式会社ユースフル,,株式会社,沖縄県,中頭郡北谷町,字吉原３７５番地４比嘉アパート１０１,,47,326,9040105,,,,,,,2023-01-26,1,,,,,ユースフル,0
2091,5370001049532,新規,0,2023-01-26,2023-01-26,株式会社ＥＡＲＸ,,株式会社,宮城県,名取市,美田園３丁目２３番地の１３プロヌーブ瑛＆美氏館,,04,207,9811217,,,,,,,2023-01-26,1,,,,,アークス,0
2092,5380001033428,新規,0,2023-01-26,2023-01-26,株式会社東日本サンウェーブ,,株式会社,福島県,田村市,大越町上大越字古内５９番地,,07,211,9634111,,,,,,,2023-01-26,1,,,,,ヒガシニホンサンウェーブ,0
2094,5380003005367,新規,0,2023-01-26,2023-01-26,合同会社ゆうゆうファーム,,合同会社,福島県,いわき市,小川町塩田字堀口１０番地の１,,07,204,9793123,,,,,,,2023-01-26,1,,,,,ユウユウファーム,0
2131,5430001088276,新規,0,2023-01-26,2023-01-26,株式会社笠松商店,,株式会社,北海道,札幌市東区,北四十条東４丁目１番２５号メゾンラフレーズ１０１号,,01,103,0070840,,,,,,,2023-01-26,1,,,,,カサマツショウテン,0
2132,5430001088284,新規,0,2023-01-26,2023-01-26,株式会社ソレイユ,,株式会社,北海道,札幌市東区,北十五条東６丁目４番６５号,,01,103,0650015,,,,,,,2023-01-26,1,,,,,ソレイユ,0
2133,5430001088301,新規,0,2023-01-26,2023-01-26,株式会社ノワルージュ,,株式会社,北海道,小樽市,稲穂３丁目１４番８号,,01,203,0470032,,,,,,,2023-01-26,1,,,,,ノワルージュ,0
2145,5430003014684,新規,0,2023-01-26,2023-01-26,合同会社ネクタイ,,合同会社,北海道,夕張郡長沼町,東５線北６番地,,01,428,0691317,,,,,,,2023-01-26,1,,,,,ネクタイ,0
2154,5480003001926,新規,0,2023-01-26,2023-01-26,合同会社キャリアライフパートナーズ,,合同会社,徳島県,徳島市,川内町大松３１５－１－Ａ２０３,,36,201,7710131,,,,,,,2023-01-26,1,,,,,キャリアライフパートナーズ,0
2157,5700150092943,新規,0,2023-01-26,2019-02-15,五木村山村活性化協議会,,その他,熊本県,球磨郡五木村,甲２６７２－３３,,43,511,8680201,,,,,,,2019-02-15,1,,,,,イツキムラサンソンカツセイカキヨウギカイ,0
2177,6010001232461,新規,0,2023-01-26,2023-01-26,株式会社Ｄａｙ　ｏｎｅ　ｐａｒｔｎｅｒｓ,,株式会社,東京都,千代田区,神田和泉町１－６－１６ヤマトビル４０５,,13,101,1010024,,,,,,,2023-01-26,1,,,,,デイワンパートナーズ,0
2178,6010001232486,新規,0,2023-01-26,2023-01-26,株式会社Ｐｒｏｍｌｉｋｉｔ,,株式会社,東京都,中央区,日本橋３丁目６番２号,,13,102,1030027,,,,,,,2023-01-26,1,,,,,プロムリキット,0
2183,6010003039657,新規,0,2023-01-26,2023-01-26,合同会社エフジェイシー,,合同会社,東京都,中央区,勝どき２丁目１４番２－４０４号,,13,102,1040054,,,,,,,2023-01-26,1,,,,,エフジェイシー,0
2192,6010401171904,新規,0,2023-01-26,2023-01-26,株式会社東京電子出版,,株式会社,東京都,港区,台場２丁目２番２－２９０６号,,13,103,1350091,,,,,,,2023-01-26,1,,,,,トウキョウデンシシュッパン,0
2193,6010401172092,新規,0,2023-01-26,2023-01-26,株式会社ｆａｍｉｌｉａｒ,,株式会社,東京都,港区,西新橋１丁目６－１２,,13,103,1050003,,,,,,,2023-01-26,1,,,,,ファミリア,0
2194,6010401172101,新規,0,2023-01-26,2023-01-26,株式会社ｒｅＢｏｈＲ,,株式会社,東京都,港区,南青山３丁目１番３６号青山丸竹ビル６Ｆ,,13,103,1070062,,,,,,,2023-01-26,1,,,,,リボーア,0
2195,6010401172142,新規,0,2023-01-26,2023-01-26,日本緑安能源株式会社,,株式会社,東京都,港区,六本木３丁目４番３５号六本木三幸ビル９階,,13,103,1060032,,,,,,,2023-01-26,1,,,,,ニホンリョクアンノウゲン,0
2203,6010601062481,新規,0,2023-01-26,2023-01-26,絆株式会社,,株式会社,東京都,墨田区,江東橋４丁目２９番１６号プラザ錦糸町ビル３Ｎ,,13,107,1300022,,,,,,,2023-01-26,1,,,,,キズナ,0
2204,6010601062498,新規,0,2023-01-26,2023-01-26,サカエ商事株式会社,,株式会社,東京都,江東区,東雲１丁目６番３１号イワタビル１階,,13,108,1350062,,,,,,,2023-01-26,1,,,,,サカエショウジ,0
2205,6010601062507,新規,0,2023-01-26,2023-01-26,株式会社ＦＯＲ　ＬＩＦＥ,,株式会社,東京都,江東区,平野１丁目２番１０号清澄サニーハイツ３０４,,13,108,1350023,,,,,,,2023-01-26,1,,,,,フォーライフ,0
2210,6010901052406,新規,0,2023-01-26,2023-01-26,株式会社８８,,株式会社,東京都,世田谷区,上馬３丁目１４－５ベルエスコート駒沢大学２０２号,,13,112,1540011,,,,,,,2023-01-26,1,,,,,ハチハチ,0
2214,6011001152121,新規,0,2023-01-26,2023-01-26,株式会社Ｔｈｅ　Ｎｉｇｈｔ’ｓ　Ｙｏｕｎｇ,,株式会社,東京都,渋谷区,本町５丁目１３－５,,13,113,1510071,,,,,,,2023-01-26,1,,,,,ザナイツヤング,0
2215,6011001152146,新規,0,2023-01-26,2023-01-26,株式会社Ｗａｎｄｅｒｌｕｓｔ,,株式会社,東京都,渋谷区,道玄坂１丁目１０番８号渋谷道玄坂東急ビル２Ｆ－Ｃ,,13,113,1500043,,,,,,,2023-01-26,1,,,,,ワンダーラスト,0
2216,6011001152195,新規,0,2023-01-26,2023-01-26,株式会社ＥｄｇｅＤｉｆｆｕｓｉｏｎ,,株式会社,東京都,渋谷区,道玄坂１丁目１０番８号渋谷道玄坂東急ビル２Ｆ－Ｃ,,13,113,1500043,,,,,,,2023-01-26,1,,,,,エッジデフュージョン,0
2217,6011003016150,新規,0,2023-01-26,2023-01-26,ｕｄａｋｕｒｏｃａｔ合同会社,,合同会社,東京都,目黒区,中央町２丁目２８番１５－７０７号マンション学芸大,,13,110,1520001,,,,,,,2023-01-26,1,,,,,ウダクロキャット,0
2219,6011101101630,新規,0,2023-01-26,2023-01-26,株式会社ＣｏｎｎｅｃＴＡ,,株式会社,東京都,新宿区,新宿１丁目１６番１０号コスモス御苑ビル７０２号室,,13,104,1600022,,,,,,,2023-01-26,1,,,,,コネクタ,0
2220,6011101101647,新規,0,2023-01-26,2023-01-26,株式会社インプレス,,株式会社,東京都,新宿区,西新宿３丁目３番１３号西新宿水間ビル６階,,13,104,1600023,,,,,,,2023-01-26,1,,,,,インプレス,0
2222,6011105010530,新規,0,2023-01-26,2023-01-26,あいゆう社会保険労務士法人,,その他の設立登記法人,東京都,新宿区,新宿２丁目８番８号アイ・アンド・イー新宿ビル３階,,13,104,1600022,,,,,,,2023-01-26,1,,,,,アイユウ,0
2244,6012701017448,新規,0,2023-01-26,2023-01-26,株式会社Ｓ‐ＴＨ,,株式会社,東京都,西東京市,南町３丁目２０－１２,,13,229,1880012,,,,,,,2023-01-26,1,,,,,エスティーエイチ,0
2256,6020001149936,新規,0,2023-01-26,2023-01-26,株式会社ＭＲＳ,,株式会社,神奈川県,横浜市旭区,白根６丁目１２番４号,,14,112,2410005,,,,,,,2023-01-26,1,,,,,エムアールエス,0
2257,6020001149993,新規,0,2023-01-26,2023-01-26,菊原会計事務所株式会社,,株式会社,神奈川県,横浜市神奈川区,平川町１番地２３,,14,102,2210812,,,,,,,2023-01-26,1,,,,,キクハラカイケイジムショ,0
2260,6020003023131,新規,0,2023-01-26,2023-01-26,合同会社丸竹書房,,合同会社,神奈川県,横浜市西区,北幸２丁目１０番地２８むつみビル３Ｆ,,14,103,2200004,,,,,,,2023-01-26,1,,,,,マルタケショボウ,0
2261,6020003023172,新規,0,2023-01-26,2023-01-26,ナチュラルホーム合同会社,,合同会社,神奈川県,川崎市中原区,田尻町１３番１サンライズＫＡＴＯ１０１号,,14,133,2110014,,,,,,,2023-01-26,1,,,,,ナチュラルホーム,0
2262,6020003023180,新規,0,2023-01-26,2023-01-26,ＲＥ１００エナジー合同会社,,合同会社,神奈川県,川崎市中原区,今井南町２０番９号,,14,133,2110064,,,,,,,2023-01-26,1,,,,,アールイーワンハンドレッドエナジー,0
2263,6020003023189,新規,0,2023-01-26,2023-01-26,合同会社ＣＩＲＲＵＳ　ＩＮＴＥＲＮＡＴＩＯＮＡＬ　ＪＡＰＡＮ,,合同会社,神奈川県,横浜市中区,海岸通３丁目１２番地１,,14,104,2310002,,,,,,,2023-01-26,1,,,,,サーラスインターナショナルジャパン,0
2264,6020005015829,新規,0,2023-01-26,2023-01-26,特定非営利活動法人ありんこ,,その他の設立登記法人,神奈川県,横浜市戸塚区,戸塚町４１１７番地４,,14,110,2440003,,,,,,,2023-01-26,1,,,,,アリンコ,0
2267,6021001078043,新規,0,2023-01-26,2023-01-26,株式会社ＫＧＹ,,株式会社,神奈川県,秦野市,本町２丁目７番２９号,,14,211,2570035,,,,,,,2023-01-26,1,,,,,ケイジーワイ,0
2302,6030001152105,新規,0,2023-01-26,2023-01-26,株式会社Ｃ．Ｆ．Ｇａｒａｇｅ,,株式会社,埼玉県,三郷市,戸ケ崎１丁目２３７番地８,,11,237,3410044,,,,,,,2023-01-26,1,,,,,シーエフガレージ,0
2354,6050001052294,新規,0,2023-01-26,2023-01-26,株式会社ＥｍｚｅＱ,,株式会社,茨城県,高萩市,大字高萩８０６番地の１,,08,214,3180034,,,,,,,2023-01-26,1,,,,,エムゼック,0
2364,6080401026275,新規,0,2023-01-26,2023-01-26,株式会社ＪＡＣＫホールディングス,,株式会社,静岡県,浜松市中区,曳馬２丁目１６番１６号,,22,131,4300901,,,,,,,2023-01-26,1,,,,,ジャックホールディングス,0
2370,6100005012966,新規,0,2023-01-26,2023-01-26,一般社団法人並柳池管理組合,,その他の設立登記法人,長野県,松本市,並柳３丁目７番４号並柳公民館,,20,202,3900825,,,,,,,2023-01-26,1,,,,,ナミヤナギイケカンリクミアイ,0
2420,6120001251979,新規,0,2023-01-26,2023-01-26,里仁商事株式会社,,株式会社,大阪府,大阪市生野区,巽北１丁目１番１号１Ｆ－Ｆ,,27,116,5440004,,,,,,,2023-01-26,1,,,,,リジンショウジ,0
2421,6120001252011,新規,0,2023-01-26,2023-01-26,株式会社木戸,,株式会社,大阪府,大阪市住吉区,苅田１丁目５－２５,,27,120,5580011,,,,,,,2023-01-26,1,,,,,キド,0
2440,6120003023328,新規,0,2023-01-26,2023-01-26,合同会社イロドリ,,合同会社,大阪府,大阪市此花区,西九条３丁目１４番１５号,,27,104,5540012,,,,,,,2023-01-26,1,,,,,イロドリ,0
2484,6130001073539,新規,0,2023-01-26,2023-01-26,株式会社Ｚｅｎ,,株式会社,京都府,京都市上京区,堀川通寺之内上る寺之内竪町７００番地ＳＩＬＫＨＯＵＳＥとなみ２号館７０５,,26,102,6020073,,,,,,,2023-01-26,1,,,,,ゼン,0
2494,6140001128878,新規,0,2023-01-26,2023-01-26,株式会社グリーン・シンフォニー,,株式会社,兵庫県,西宮市,上大市５丁目８番２０号,,28,204,6638003,,,,,,,2023-01-26,1,,,,,グリーンシンフォニー,0
2495,6140003018631,新規,0,2023-01-26,2023-01-26,木下会計合同会社,,合同会社,兵庫県,神戸市兵庫区,駅南通５丁目２－３－４０７,,28,105,6520897,,,,,,,2023-01-26,1,,,,,,0
2506,6180001154689,新規,0,2023-01-26,2023-01-26,サンエイト株式会社,,株式会社,愛知県,名古屋市千種区,城山町１丁目２７番地,,23,101,4640045,,,,,,,2023-01-26,1,,,,,サンエイト,0
2507,6180001154722,新規,0,2023-01-26,2023-01-26,ＡＭＡＴＡＭＡ株式会社,,株式会社,愛知県,名古屋市西区,那古野２丁目１４番１号なごのキャンパス,,23,104,4510042,,,,,,,2023-01-26,1,,,,,アマタマ,0
2512,6180003024758,新規,0,2023-01-26,2023-01-26,Ｓ＆Ｈ合同会社,,合同会社,愛知県,名古屋市東区,泉１丁目１５番２３号チサンマンション栄リバーパーク３０６号,,23,102,4610001,,,,,,,2023-01-26,1,,,,,エスアンドエイチ,0
2513,6180003024766,新規,0,2023-01-26,2023-01-26,合同会社ＴＫＴ,,合同会社,愛知県,一宮市,浅井町西海戸字西屋敷３３８番地ロワイヤルＳ弐番館２０４号室,,23,203,4910115,,,,,,,2023-01-26,1,,,,,ティーケーティー,0
2515,6180305009440,新規,0,2023-01-26,2023-01-26,コープグローバル協同組合,,その他の設立登記法人,愛知県,豊橋市,大岩町字北山１０番地１１,,23,201,4413141,,,,,,,2023-01-26,1,,,,,コープグローバル,0
2517,6190005011786,新規,0,2023-01-26,2023-01-26,農事組合法人サステナブルファーム,,その他の設立登記法人,三重県,津市,榊原町１０３２０番地,,24,201,5141251,,,,,,,2023-01-26,1,,,,,サステナブルファーム,0
2520,6220001025241,新規,0,2023-01-26,2023-01-26,ＡＬＬＥＹ株式会社,,株式会社,石川県,金沢市,角間町ヌ７番地金沢大学ベンチャー・ビジネス・ラボラトリー,,17,201,9201164,,,,,,,2023-01-26,1,,,,,アレー,0
2533,6290001100310,新規,0,2023-01-26,2023-01-26,株式会社ＴＡＴＥＩＳＨＩ,,株式会社,福岡県,福岡市博多区,大博町４番３２号,,40,132,8120033,,,,,,,2023-01-26,1,,,,,タテイシ,0
2534,6290001100327,新規,0,2023-01-26,2023-01-26,株式会社デリス,,株式会社,福岡県,福岡市中央区,天神４丁目６番２８号天神ファ－ストビル７階,,40,133,8100001,,,,,,,2023-01-26,1,,,,,デリス,0
2535,6290001100335,新規,0,2023-01-26,2023-01-26,株式会社Ｐｒｉｍａｌ　ｌｕｘｕｒｙ　ｅｎｔｅｒｐｒｉｓｅ,,株式会社,福岡県,福岡市博多区,博多駅前４丁目２０番１７－８０２号フォンターナガーデン博多駅前,,40,132,8120011,,,,,,,2023-01-26,1,,,,,プライマルラグジュアリーエンタープライズ,0
2536,6290001100343,新規,0,2023-01-26,2023-01-26,株式会社きずな,,株式会社,福岡県,飯塚市,鶴三緒１５４６番地３,,40,205,8200014,,,,,,,2023-01-26,1,,,,,キズナ,0
2537,6290003013460,新規,0,2023-01-26,2023-01-26,合同会社ＳＹマッチ,,合同会社,福岡県,福岡市城南区,松山２丁目１番２７号,,40,136,8140131,,,,,,,2023-01-26,1,,,,,エスワイマッチ,0
2539,6290801029237,新規,0,2023-01-26,2023-01-26,株式会社大東電設,,株式会社,福岡県,北九州市小倉北区,皿山町２４番３号,,40,106,8030854,,,,,,,2023-01-26,1,,,,,オオヒガシデンセツ,0
2541,6290803004320,新規,0,2023-01-26,2023-01-26,ＭＯＶＥ合同会社,,合同会社,福岡県,北九州市小倉南区,横代北町１丁目１８番２４号,,40,107,8020821,,,,,,,2023-01-26,1,,,,,ムーブ,0
2544,6310001018236,新規,0,2023-01-26,2023-01-26,株式会社アムザ,,株式会社,長崎県,雲仙市,吾妻町牛口名６４５番地６,,42,213,8591107,,,,,,,2023-01-26,1,,,,,アムザ,0
2547,6320001019539,新規,0,2023-01-26,2023-01-26,しろくろ株式会社,,株式会社,大分県,大分市,六坊北町６番５３号,,44,201,8700841,,,,,,,2023-01-26,1,,,,,シロクロ,0
2548,6330001030528,新規,0,2023-01-26,2023-01-26,株式会社Ｈ＆Ｍ,,株式会社,熊本県,熊本市南区,出仲間１丁目３番１２号,,43,104,8620963,,,,,,,2023-01-26,1,,,,,エイチアンドエム,0
2549,6340005009550,新規,0,2023-01-26,2023-01-26,一般社団法人Ｍ　ａｎｄ　ｇｏｌｆ,,その他の設立登記法人,鹿児島県,鹿児島市,吉野町１３１９番地２,,46,201,8920871,,,,,,,2023-01-26,1,,,,,エムアンドゴルフ,0
2552,6360005006777,新規,0,2023-01-26,2023-01-26,一般社団法人名護スマートシティ推進協議会,,その他の設立登記法人,沖縄県,名護市,大中１丁目１９番２４号,,47,209,9050017,,,,,,,2023-01-26,1,,,,,ナゴスマートシティスイシンキョウギカイ,0
2555,6370003005961,新規,0,2023-01-26,2023-01-26,ＳｏｍｅＳｐｉｃｅ合同会社,,合同会社,宮城県,大崎市,鳴子温泉字築沢２８番地１加賀屋アパート１号,,04,215,9896711,,,,,,,2023-01-26,1,,,,,サムスパイス,0
2560,6380001033419,新規,0,2023-01-26,2023-01-26,福島環境機材株式会社,,株式会社,福島県,福島市,新町６番３３号,,07,201,9608036,,,,,,,2023-01-26,1,,,,,フクシマカンキョウキザイ,0
2564,6390003002040,新規,0,2023-01-26,2023-01-26,合同会社アンサーズ,,合同会社,山形県,酒田市,北新橋１丁目１２番１３号,,06,204,9980865,,,,,,,2023-01-26,1,,,,,アンサーズ,0
2569,6420001018134,新規,0,2023-01-26,2023-01-26,ひふみ不動産株式会社,,株式会社,青森県,青森市,浪館前田１丁目１４番２５号,,02,201,0380024,,,,,,,2023-01-26,1,,,,,ヒフミフドウサン,0
2586,6430001088283,新規,0,2023-01-26,2023-01-26,株式会社Ｇｕｆｆ,,株式会社,北海道,札幌市中央区,南三条西３丁目３番２号,,01,101,0600063,,,,,,,2023-01-26,1,,,,,ガフ,0
2587,6430001088291,新規,0,2023-01-26,2023-01-26,株式会社Ｙ,,株式会社,北海道,札幌市中央区,南二条西２７丁目２番１７－６０３号,,01,101,0640802,,,,,,,2023-01-26,1,,,,,ワイ,0
2609,6430003014683,新規,0,2023-01-26,2023-01-26,いしざきファーム合同会社,,合同会社,北海道,虻田郡留寿都村,字三豊１２１番地３８,,01,397,0481724,,,,,,,2023-01-26,1,,,,,イシザキファーム,0
2624,6490003001734,新規,0,2023-01-26,2023-01-26,合同会社Ｌ．ｚｅｒｏ‐ｏｎｅ,,合同会社,高知県,高知市,福井東町２９－１３－１,,39,201,7800967,,,,,,,2023-01-26,1,,,,,エルゼロワン,0
2636,7010001232353,新規,0,2023-01-26,2023-01-26,株式会社ＭＡＮＡＴＥＥ,,株式会社,東京都,中央区,勝どき５丁目３番１－４３１０号,,13,102,1040054,,,,,,,2023-01-26,1,,,,,マナティー,0
2637,7010001232485,新規,0,2023-01-26,2023-01-26,株式会社Ｒｅｇｅｎｅ,,株式会社,東京都,中央区,月島１丁目８番１－３００２号,,13,102,1040052,,,,,,,2023-01-26,1,,,,,リジン,0
2638,7010001232535,新規,0,2023-01-26,2023-01-26,マーベリックメディカル株式会社,,株式会社,東京都,千代田区,丸の内１丁目１１番１号,,13,101,1000005,,,,,,,2023-01-26,1,,,,,マーベリックメディカル,0
2641,7010003039680,新規,0,2023-01-26,2023-01-26,オルタナティブ合同会社,,合同会社,東京都,千代田区,二番町９番地３ＴＨＥ・ＢＡＳＥ麹町,,13,101,1020084,,,,,,,2023-01-26,1,,,,,オルタナティブ,0
2642,7010003039697,新規,0,2023-01-26,2023-01-26,合同会社ぴの,,合同会社,東京都,中央区,銀座１丁目１２番４号Ｎ＆ＥＢＬＤ．６Ｆ,,13,102,1040061,,,,,,,2023-01-26,1,,,,,ピノ,0
2657,7010401172100,新規,0,2023-01-26,2023-01-26,株式会社高樹町地所,,株式会社,東京都,港区,南青山６丁目３番１３－９０４号,,13,103,1070062,,,,,,,2023-01-26,1,,,,,タカギチョウジショ,0
2659,7010403029372,新規,0,2023-01-26,2023-01-26,合同会社ＹＲＸリアルエステート,,合同会社,東京都,港区,赤坂７丁目６番６５号,,13,103,1070052,,,,,,,2023-01-26,1,,,,,ワイアールエックスリアルエステート,0
2660,7010403029380,新規,0,2023-01-26,2023-01-26,Ｌｉ＆ｆ合同会社,,合同会社,東京都,港区,虎ノ門１丁目２３－１虎ノ門ヒルズビジネスタワー１５Ｆ,,13,103,1050001,,,,,,,2023-01-26,1,,,,,リアンドエフ,0
2669,7010601062489,新規,0,2023-01-26,2023-01-26,株式会社サンダークリエイト,,株式会社,東京都,江東区,東雲１丁目１０番１４－２０３号,,13,108,1350062,,,,,,,2023-01-26,1,,,,,サンダークリエイト,0
2670,7010601062506,新規,0,2023-01-26,2023-01-26,ＴＯＫＹＯ　ＳＴＡＲ株式会社,,株式会社,東京都,江東区,亀戸７丁目３５番６号,,13,108,1360071,,,,,,,2023-01-26,1,,,,,トウキョウスター,0
2671,7010603009967,新規,0,2023-01-26,2023-01-26,合同会社ＭＴＭ,,合同会社,東京都,江東区,大島８丁目３８番１５号,,13,108,1360072,,,,,,,2023-01-26,1,,,,,エムティエム,0
2672,7010701043736,新規,0,2023-01-26,2023-01-26,株式会社ｓｔａｒｂａｓｋｅｔ,,株式会社,東京都,品川区,西五反田５丁目１－３ヘリオスビル８階,,13,109,1410031,,,,,,,2023-01-26,1,,,,,スターバスケット,0
2673,7010801033629,新規,0,2023-01-26,2023-01-26,株式会社ＫＯＵＨＯＵ,,株式会社,東京都,大田区,久が原５丁目１５番１－１３０３号,,13,111,1460085,,,,,,,2023-01-26,1,,,,,コウホウ,0
2676,7010901052405,新規,0,2023-01-26,2023-01-26,株式会社ｕｎｓｕｎｇ,,株式会社,東京都,世田谷区,代田３丁目５番２０号フェリックス花見堂１０１,,13,112,1550033,,,,,,,2023-01-26,1,,,,,アンサング,0
2679,7011001152129,新規,0,2023-01-26,2023-01-26,株式会社美食道,,株式会社,東京都,目黒区,上目黒３丁目８番１号Ｍ．Ｇ．ＭＡＲＫ中目黒３０１,,13,110,1530051,,,,,,,2023-01-26,1,,,,,,0
2680,7011001152145,新規,0,2023-01-26,2023-01-26,株式会社ツギステ,,株式会社,東京都,渋谷区,笹塚２丁目１６－４アンディーラニ笹塚８０１,,13,113,1510073,,,,,,,2023-01-26,1,,,,,ツギステ,0
2681,7011001152194,新規,0,2023-01-26,2023-01-26,株式会社ＳｍａｒｔＡｐｐｒｏａｃｈ,,株式会社,東京都,渋谷区,円山町２８番１号渋谷道玄坂スカイビル１１Ｆ,,13,113,1500044,,,,,,,2023-01-26,1,,,,,スマートアプローチ,0
2687,7011005009894,新規,0,2023-01-26,2023-01-26,一般財団法人東京ジャーミイ文書館,,その他の設立登記法人,東京都,渋谷区,大山町１－１９,,13,113,1510065,,,,,,,2023-01-26,1,,,,,トウキョウジャーミイブンショカン,0
2692,7011101101646,新規,0,2023-01-26,2023-01-26,株式会社ワークル,,株式会社,東京都,新宿区,西新宿８丁目１１番１０号星野ビル３階,,13,104,1600023,,,,,,,2023-01-26,1,,,,,ワークル,0
2693,7011101101654,新規,0,2023-01-26,2023-01-26,株式会社結,,株式会社,東京都,新宿区,西新宿３丁目３番１３号西新宿水間ビル２Ｆ,,13,104,1600023,,,,,,,2023-01-26,1,,,,,ムスビ,0
2697,7011201024375,新規,0,2023-01-26,2023-01-26,株式会社リーフ,,株式会社,東京都,中野区,中央１丁目３８番１－２４０３号,,13,114,1640011,,,,,,,2023-01-26,1,,,,,リーフ,0
2700,7011401024860,新規,0,2023-01-26,2023-01-26,株式会社ＣＨＩＣ,,株式会社,東京都,板橋区,小豆沢２丁目３１番１号,,13,119,1740051,,,,,,,2023-01-26,1,,,,,チック,0
2704,7011601026533,新規,0,2023-01-26,2023-01-26,株式会社ゆきち,,株式会社,東京都,練馬区,西大泉６丁目１９番２９号,,13,120,1780065,,,,,,,2023-01-26,1,,,,,ユキチ,0
2713,7011801041836,新規,0,2023-01-26,2023-01-26,株式会社ＭａｖｅＬＩＴ,,株式会社,東京都,足立区,千住曙町４１－１－８０２,,13,121,1200023,,,,,,,2023-01-26,1,,,,,マーヴェリット,0
2717,7012403005799,新規,0,2023-01-26,2023-01-26,合同会社ＬＣＶ,,合同会社,東京都,多摩市,鶴牧１丁目３番８号オークハイツ多摩１０１,,13,224,2060034,,,,,,,2023-01-26,1,,,,,エルシーブイ,0
2723,7020001149992,新規,0,2023-01-26,2023-01-26,株式会社タートル,,株式会社,神奈川県,横浜市保土ケ谷区,法泉２丁目１８番１２号,,14,106,2400032,,,,,,,2023-01-26,1,,,,,タートル,0
2724,7020001150001,新規,0,2023-01-26,2023-01-26,千若町不動産株式会社,,株式会社,神奈川県,横浜市神奈川区,千若町２丁目１番地５０,,14,102,2210036,,,,,,,2023-01-26,1,,,,,チワカチョウフドウサン,0
2734,7021001078026,新規,0,2023-01-26,2023-01-26,ＨＵＭＡ株式会社,,株式会社,神奈川県,相模原市中央区,鹿沼台２丁目１０番１６号,,14,152,2520233,,,,,,,2023-01-26,1,,,,,フマ,0
2735,7021001078050,新規,0,2023-01-26,2023-01-26,株式会社Ｐｒｏｐｅｒｔｙ　Ｌａｂｏ,,株式会社,神奈川県,茅ヶ崎市,若松町４番１６号,,14,207,2530051,,,,,,,2023-01-26,1,,,,,プロパティラボ,0
2754,7030001152046,新規,0,2023-01-26,2023-01-26,ＫＤＡプリント株式会社,,株式会社,埼玉県,さいたま市桜区,大字上大久保８４０番地６,,11,106,3380824,,,,,,,2023-01-26,1,,,,,ケイデイエイプリント,0
2755,7030001152062,新規,0,2023-01-26,2023-01-26,株式会社スピリッツ,,株式会社,埼玉県,狭山市,入間川４丁目２３番１６号稲荷山パークハイツ１０１,,11,215,3501305,,,,,,,2023-01-26,1,,,,,スピリッツ,0
2756,7030001152112,新規,0,2023-01-26,2023-01-26,株式会社コベネフィット,,株式会社,埼玉県,草加市,苗塚町９７番地９コーポサンライズ１０２号室,00129219,11,221,3400036,,,,,,,2023-01-26,1,,,,,コベネフィット,0
2790,7030003021034,新規,0,2023-01-26,2023-01-26,合同会社ルートフォー,,合同会社,埼玉県,所沢市,上新井１丁目３５番地１５,,11,208,3591142,,,,,,,2023-01-26,1,,,,,ルートフォー,0
2799,7040001126643,新規,0,2023-01-26,2023-01-26,天国島株式会社,,株式会社,千葉県,富里市,久能２９２番地３６,,12,233,2860203,,,,,,,2023-01-26,1,,,,,テンゴクシマ,0
2803,7040003021751,新規,0,2023-01-26,2023-01-26,合同会社Ｈ＆Ｄ,,合同会社,千葉県,千葉市花見川区,作新台２丁目１番６７号,,12,102,2620045,,,,,,,2023-01-26,1,,,,,エイチアンドディー,0
2805,7050003007171,新規,0,2023-01-26,2023-01-26,合同会社ワニナルプロジェクト,,合同会社,茨城県,つくば市,上郷２２２３番地１,,08,220,3002645,,,,,,,2023-01-26,1,,,,,ワニナルプロジェクト,0
2812,7080101023761,新規,0,2023-01-26,2023-01-26,株式会社ビューコン,,株式会社,静岡県,御殿場市,東田中１０１６番地１０,,22,215,4120026,,,,,,,2023-01-26,1,,,,,ビューコン,0
2815,7100003006861,新規,0,2023-01-26,2023-01-26,合同会社城町文庫・空き家活用研究会,,合同会社,長野県,松本市,蟻ケ崎２丁目４番１３－２号,,20,202,3900861,,,,,,,2023-01-26,1,,,,,シロマチブンコアキヤカツヨウケンキュウカイ,0
2863,7120001251994,新規,0,2023-01-26,2023-01-26,株式会社ＬＵＭＥ,,株式会社,大阪府,大阪市北区,大淀南２丁目２番９－９２１号,,27,127,5310075,,,,,,,2023-01-26,1,,,,,ルーメ,0
2884,7120003023335,新規,0,2023-01-26,2023-01-26,ＭＩＮＨ　ＴＡＭ合同会社,,合同会社,大阪府,大阪市生野区,新今里３丁目５－８,,27,116,5440001,,,,,,,2023-01-26,1,,,,,ミンタム,0
2886,7120005023424,新規,0,2023-01-26,2023-01-26,行政書士法人清水国際法務事務所,,その他の設立登記法人,大阪府,大阪市北区,大淀南２丁目６番１６号ＮＩＳＨＩＫＥＮビル３Ｆ,,27,127,5310075,,,,,,,2023-01-26,1,,,,,シミズコクサイホウムジムショ,0
2892,7120101066896,新規,0,2023-01-26,2023-01-26,株式会社ｓｔｕｄｙビルドオン,,株式会社,大阪府,泉佐野市,日根野２８０４番地の３,,27,213,5980021,,,,,,,2023-01-26,1,,,,,スタディビルドオン,0
2929,7140001128852,新規,0,2023-01-26,2023-01-26,丸通株式会社,,株式会社,兵庫県,神戸市中央区,磯辺通１丁目１番２０号ＫＯＷＡ　ＢＬＤＧ３Ｆ－Ｓ－０７,,28,110,6510084,,,,,,,2023-01-26,1,,,,,マルツウ,0
2930,7140001128869,新規,0,2023-01-26,2023-01-26,株式会社八大,,株式会社,兵庫県,姫路市,上大野１丁目５番１５号,,28,201,6700896,,,,,,,2023-01-26,1,,,,,ハチダイ,0
2931,7140001128877,新規,0,2023-01-26,2023-01-26,株式会社未采,,株式会社,兵庫県,姫路市,北原５０４番５０,,28,201,6728002,,,,,,,2023-01-26,1,,,,,イロドリ,0
2932,7140001128893,新規,0,2023-01-26,2023-01-26,Ｔｅｃｈｎｏｌａｍｐｓ株式会社,,株式会社,兵庫県,西宮市,中屋町１１番１０－２０１号,,28,204,6620868,,,,,,,2023-01-26,1,,,,,テクノランプス,0
2953,7180001154688,新規,0,2023-01-26,2023-01-26,コサエル株式会社,,株式会社,愛知県,名古屋市中区,栄３丁目２－３名古屋日興證券ビル４階,,23,106,4600008,,,,,,,2023-01-26,1,,,,,コサエル,0
2954,7180001154696,新規,0,2023-01-26,2023-01-26,株式会社つばきビルドサービス,,株式会社,愛知県,名古屋市中区,錦３丁目２２番２４号,,23,106,4600003,,,,,,,2023-01-26,1,,,,,ツバキビルドサービス,0
2955,7180001154721,新規,0,2023-01-26,2023-01-26,株式会社ｐｅｒｐｅｔｕａｌ　ｂｒｉｄｇｅ,,株式会社,愛知県,名古屋市緑区,鳴子町５丁目１番地の２４,,23,114,4580041,,,,,,,2023-01-26,1,,,,,パーペチュアルブリッジ,0
2958,7180003024757,新規,0,2023-01-26,2023-01-26,ワンホーム合同会社,,合同会社,愛知県,名古屋市中区,丸の内３丁目１０番２９号４階,,23,106,4600002,,,,,,,2023-01-26,1,,,,,ワンホーム,0
2959,7180003024765,新規,0,2023-01-26,2023-01-26,合同会社ＫＯＩＢＩＴＯ,,合同会社,愛知県,名古屋市中村区,名駅５丁目４番１４号花車ビル北館１Ｆ,,23,105,4500002,,,,,,,2023-01-26,1,,,,,コイビト,0
2961,7180005020085,新規,0,2023-01-26,2023-01-26,特定非営利活動法人キッチンキング子ども食堂,,その他の設立登記法人,愛知県,名古屋市東区,筒井２丁目１１番２４号葵ビル１階,,23,102,4610003,,,,,,,2023-01-26,1,,,,,キッチンキングコドモショクドウ,0
2965,7180303005580,新規,0,2023-01-26,2023-01-26,合同会社エクラン,,合同会社,愛知県,安城市,高棚町土井ノ内８８―３,,23,212,4460053,,,,,,,2023-01-26,1,,,,,エクラン,0
2967,7190003004205,新規,0,2023-01-26,2023-01-26,合同会社ＹＵＩＭＡＲ,,合同会社,三重県,四日市市,別山４丁目５０３番地,,24,202,5120936,,,,,,,2023-01-26,1,,,,,ユイマール,0
2969,7200001040893,新規,0,2023-01-26,2023-01-26,株式会社ブルマン,,株式会社,岐阜県,大垣市,万石１丁目６０番地,,21,202,5030812,,,,,,,2023-01-26,1,,,,,ブルマン,0
2980,7260003004172,新規,0,2023-01-26,2023-01-26,ＴＲＥＥＤ合同会社,,合同会社,岡山県,倉敷市,真備町箭田４１４０－８,,33,202,7101301,,,,,,,2023-01-26,1,,,,,トレッド,0
2990,7290001100350,新規,0,2023-01-26,2023-01-26,株式会社Ｋａｌａｈａｒｉ,,株式会社,福岡県,福岡市中央区,天神４丁目６－２８天神ファーストビル７階,,40,133,8100001,,,,,,,2023-01-26,1,,,,,カラハリ,0
3003,7360001031489,新規,0,2023-01-26,2023-01-26,株式会社新崎建装,00129220,株式会社,沖縄県,石垣市,字新川１０５番地１、１Ｆ,,47,207,9070024,,,,,,,2023-01-26,1,,,,,アラサキケンソウ,0
3043,7490003001733,新規,0,2023-01-26,2023-01-26,合同会社さかわ運転代行,,合同会社,高知県,高岡郡佐川町,乙２１５８番地４８,,39,402,7891202,,,,,,,2023-01-26,1,,,,,サカワウンテンダイコウ,0
3045,7700150113037,新規,0,2023-01-26,2022-11-29,水谷八重子観劇会,,その他,東京都,港区,六本木５丁目１５－２１－２０１,,13,103,1060032,,,,,,,2022-11-29,1,,,,,ミズタニヤエコカンゲキカイ,0
3046,7700150113532,新規,0,2023-01-26,2023-01-05,金沢市ＰＴＡ協議会,,その他,石川県,金沢市,此花町２の７此花会館内,,17,201,9200852,,,,,,,2023-01-05,1,,,,,カナザワシピーテイーエーキヨウギカイ,0
3047,7700150113821,新規,0,2023-01-26,2023-01-19,ムジークホフ,,その他,大阪府,吹田市,江坂町２丁目１１番２６－１号,,27,205,5640063,,,,,,,2023-01-19,1,,,,,ムジークホフ,0
3061,8010101015500,新規,0,2023-01-26,2023-01-26,株式会社アート・リコルド,,株式会社,東京都,八王子市,南大沢２丁目２１７－７ジュネス南大沢４０２号,,13,201,1920364,,,,,,,2023-01-26,1,,,,,アートリコルド,0
3068,8010401172066,新規,0,2023-01-26,2023-01-26,株式会社アマラオーランティアムシトラス,,株式会社,東京都,港区,白金１丁目１７番２号,,13,103,1080072,,,,,,,2023-01-26,1,,,,,アマラオーランティアムシトラス,0
3072,8010405021756,新規,0,2023-01-26,2023-01-26,一般社団法人ＭＡＰ,,その他の設立登記法人,東京都,港区,元赤坂１丁目１番８号赤坂コミュニティビル４階,,13,103,1070051,,,,,,,2023-01-26,1,,,,,マップ,0
3073,8010501049916,新規,0,2023-01-26,2023-01-26,Ｊ．Ｄ．Ｏｒｉｇｉｎａｌ株式会社,,株式会社,東京都,台東区,上野３丁目４番６号タウンハイツ上野２０４号室,,13,106,1100005,,,,,,,2023-01-26,1,,,,,ジェイディーオリジナル,0
3078,8010601062496,新規,0,2023-01-26,2023-01-26,株式会社攪拌,,株式会社,東京都,江東区,南砂１丁目９番２１号М２,,13,108,1360076,,,,,,,2023-01-26,1,,,,,カクハン,0
3079,8010701043768,新規,0,2023-01-26,2023-01-26,株式会社Ｌｉｌｙ,,株式会社,東京都,品川区,西品川１丁目２番１大崎ガーデンレジデンス９０３,,13,109,1410033,,,,,,,2023-01-26,1,,,,,リリー,0
3087,8011001152160,新規,0,2023-01-26,2023-01-26,株式会社ミタス,,株式会社,東京都,渋谷区,神宮前６丁目２３番４号桑野ビル２階,,13,113,1500001,,,,,,,2023-01-26,1,,,,,ミタス,0
3088,8011001152185,新規,0,2023-01-26,2023-01-26,株式会社ロングスロープ,,株式会社,東京都,渋谷区,道玄坂１丁目１０番８号渋谷道玄坂東急ビル２Ｆ－Ｃ,,13,113,1500043,,,,,,,2023-01-26,1,,,,,ロングスロープ,0
3089,8011001152193,新規,0,2023-01-26,2023-01-26,株式会社キルレ,,株式会社,東京都,渋谷区,道玄坂１丁目１０番８号渋谷道玄坂東急ビル２Ｆ－Ｃ,,13,113,1500043,,,,,,,2023-01-26,1,,,,,キルレ,0
3090,8011001152202,新規,0,2023-01-26,2023-01-26,シナジー・マリン・ジャパン株式会社,,株式会社,東京都,渋谷区,恵比寿西１丁目１７番１２号東冷恵比寿ビル２階,,13,113,1500021,,,,,,,2023-01-26,1,,,,,シナジーマリンジャパン,0
3091,8011001152227,新規,0,2023-01-26,2023-01-26,ｐａｒｋ１３株式会社,,株式会社,東京都,目黒区,東山１丁目６番５－８０３号,,13,110,1530043,,,,,,,2023-01-26,1,,,,,パークサーティーン,0
3100,8011101101653,新規,0,2023-01-26,2023-01-26,株式会社ビルドアップ,,株式会社,東京都,新宿区,下宮比町２番１８－２０２号クランメゾン飯田橋,,13,104,1620822,,,,,,,2023-01-26,1,,,,,ビルドアップ,0
3103,8011105010529,新規,0,2023-01-26,2023-01-26,一般社団法人コア・スリー,,その他の設立登記法人,東京都,新宿区,西新宿８丁目５番１号,,13,104,1600023,,,,,,,2023-01-26,1,,,,,コアスリー,0
3124,8011803005474,新規,0,2023-01-26,2023-01-26,フォーシス合同会社,,合同会社,東京都,葛飾区,白鳥２丁目１６－２２,,13,122,1250063,,,,,,,2023-01-26,1,,,,,フォーシス,0
3125,8012301013291,新規,0,2023-01-26,2023-01-26,Ｄｉｍｅ　Ａｓｓｏｃｉａｔｉｏｎ株式会社,,株式会社,東京都,町田市,南成瀬１丁目１８番地８,,13,209,1940045,,,,,,,2023-01-26,1,,,,,ダイムアソシエーション,0
3127,8012701017446,新規,0,2023-01-26,2023-01-26,株式会社Ｋ‐ｍｏｄｅｌ,,株式会社,東京都,西東京市,田無町５丁目７番４３号アピアナカノ１０１号,,13,229,1880011,,,,,,,2023-01-26,1,,,,,ケイモデル,0
3129,8013301050234,新規,0,2023-01-26,2023-01-26,ＡＫ　ＨＯＬＤＩＮＧＳ　ＪＡＰＡＮ株式会社,,株式会社,東京都,豊島区,巣鴨２丁目９番２８号,,13,116,1700002,,,,,,,2023-01-26,1,,,,,エーケーホールディングスジャパン,0
3143,8020001149983,新規,0,2023-01-26,2023-01-26,グローバルカラー株式会社,,株式会社,神奈川県,横浜市西区,西戸部町３丁目２５６－１３,,14,103,2200046,,,,,,,2023-01-26,1,,,,,グローバルカラー,0
3172,8030001152053,新規,0,2023-01-26,2023-01-26,株式会社ＴＯＭＯＮＩ,,株式会社,埼玉県,新座市,東北２丁目１３番２１号,,11,230,3520001,,,,,,,2023-01-26,1,,,,,トモニ,0
3173,8030001152103,新規,0,2023-01-26,2023-01-26,Ｇａｒｄｅｎ　Ｐｌａｃｅ株式会社,,株式会社,埼玉県,熊谷市,佐谷田１１４,,11,202,3600023,,,,,,,2023-01-26,1,,,,,ガーデンプレイス,0
3206,8030003021033,新規,0,2023-01-26,2023-01-26,合同会社縁貴建築,,合同会社,埼玉県,さいたま市大宮区,桜木町２丁目３大宮マルイ７階,,11,103,3300854,,,,,,,2023-01-26,1,,,,,エンキケンチク,0
3215,8040003021759,新規,0,2023-01-26,2023-01-26,合同会社ｆｒｅｅｌｙ,,合同会社,千葉県,船橋市,藤原１丁目２３－１３－２０２,,12,204,2730047,,,,,,,2023-01-26,1,,,,,フリーリィ,0
3222,8050003007179,新規,0,2023-01-26,2023-01-26,合同会社Ｓ．Ａ．Ｍ　ＣＯＲＰＯＲＡＴＩＯＮ,,合同会社,茨城県,石岡市,若松２丁目１３番２２号ヨシコアパート１階Ｂ号室,,08,205,3150018,,,,,,,2023-01-26,1,,,,,サムコーポレーション,0
3233,8100005012964,新規,0,2023-01-26,2023-01-26,一般社団法人縁,,その他の設立登記法人,長野県,上田市,真田町傍陽５６２番地２,,20,203,3862203,,,,,,,2023-01-26,1,,,,,エン,0
3278,8120001251960,新規,0,2023-01-26,2023-01-26,株式会社ｉＰＲＥＸ,,株式会社,大阪府,大阪市北区,梅田１丁目１－３大阪駅前第３ビル２９階１－１－１号室,,27,127,5300001,,,,,,,2023-01-26,1,,,,,アイプレックス,0
3279,8120001251977,新規,0,2023-01-26,2023-01-26,Ｃｈａｍｂｅｒｙ株式会社,,株式会社,大阪府,大阪市生野区,巽北１丁目１番１号３Ｆ－Ａ,,27,116,5440004,,,,,,,2023-01-26,1,,,,,シャンベリ,0
3288,8120003023334,新規,0,2023-01-26,2023-01-26,フローレンス合同会社,,合同会社,大阪府,大阪市東住吉区,住道矢田７丁目９－８,,27,121,5460022,,,,,,,2023-01-26,1,,,,,フローレンス,0
3292,8120005023423,新規,0,2023-01-26,2023-01-26,ＮＰＯ法人カルチャーアートシェア,,その他の設立登記法人,大阪府,大阪市淀川区,木川西１丁目１１番２０号,,27,123,5320013,,,,,,,2023-01-26,1,,,,,カルチャーアートシェア,0
3305,8120101066887,新規,0,2023-01-26,2023-01-26,株式会社Ｒｅｈｅａｒｔ,,株式会社,大阪府,和泉市,はつが野５丁目２４番２５号,,27,219,5941106,,,,,,,2023-01-26,1,,,,,リハート,0
3316,8120103005050,新規,0,2023-01-26,2023-01-26,合同会社ＤＡ‐ＳＴＯＮＥ,,合同会社,大阪府,高石市,千代田３丁目１８番８号,,27,225,5920005,,,,,,,2023-01-26,1,,,,,ディーエーストーン,0
3319,8120105009677,新規,0,2023-01-26,2023-01-26,医療法人ＴＨＭ,,その他の設立登記法人,大阪府,堺市堺区,榎元町６丁５番１２号,,27,141,5900027,,,,,,,2023-01-26,1,,,,,ティーエイチエム,0
3338,8122003002499,新規,0,2023-01-26,2023-01-26,ＯＮＥ　ＢＹ　ＯＮＥ合同会社,,合同会社,大阪府,八尾市,本町５丁目７番２２号,,27,212,5810003,,,,,,,2023-01-26,1,,,,,ワンバイワン,0
3346,8140005026465,新規,0,2023-01-26,2023-01-26,ＮＰＯ法人ベースボールクオーレ,,その他の設立登記法人,兵庫県,西宮市,柏堂西町１２番２号,,28,204,6620098,,,,,,,2023-01-26,1,,,,,ベースボールクオーレ,0
3362,8180001154662,新規,0,2023-01-26,2023-01-26,カークレ株式会社,,株式会社,愛知県,名古屋市西区,名駅２丁目３４番２０号,,23,104,4510045,,,,,,,2023-01-26,1,,,,,カークレ,0
3363,8180001154679,新規,0,2023-01-26,2023-01-26,いろは株式会社,,株式会社,愛知県,名古屋市港区,いろは町１丁目２３番地,,23,111,4550052,,,,,,,2023-01-26,1,,,,,イロハ,0
3364,8180001154687,新規,0,2023-01-26,2023-01-26,株式会社ＬＩＧ,,株式会社,愛知県,尾張旭市,西山町１丁目４－３,,23,226,4880824,,,,,,,2023-01-26,1,,,,,リグ,0
3365,8180001154704,新規,0,2023-01-26,2023-01-26,株式会社ＲＩＣＯＴＡ,,株式会社,愛知県,春日井市,小野町２丁目１番地２,,23,206,4860926,,,,,,,2023-01-26,1,,,,,リコタ,0
3367,8180003024756,新規,0,2023-01-26,2023-01-26,合同会社スパイラルアップ,,合同会社,愛知県,名古屋市名東区,社口２丁目１０２番地の１エスポア社口２０８号,,23,115,4650013,,,,,,,2023-01-26,1,,,,,スパイラルアップ,0
3368,8180003024764,新規,0,2023-01-26,2023-01-26,Ｐａｐｙｒｕｓ合同会社,,合同会社,愛知県,名古屋市南区,駈上２丁目８番１０号,,23,112,4570007,,,,,,,2023-01-26,1,,,,,パピルス,0
3370,8180005020092,新規,0,2023-01-26,2023-01-26,一般財団法人Ｋ,,その他の設立登記法人,愛知県,名古屋市南区,岩戸町１８番２３号,,23,112,4570015,,,,,,,2023-01-26,1,,,,,ケー,0
3372,8190005011784,新規,0,2023-01-26,2023-01-26,ドリームライン協同組合,,その他の設立登記法人,三重県,桑名市,長島町押付５３０番地３,,24,205,5111113,,,,,,,2023-01-26,1,,,,,ドリームライン,0
3396,8290001100325,新規,0,2023-01-26,2023-01-26,株式会社オーナーズ,,株式会社,福岡県,大牟田市,大字田隈８４４番地１,,40,202,8370916,,,,,,,2023-01-26,1,,,,,オーナーズ,0
3397,8290001100333,新規,0,2023-01-26,2023-01-26,株式会社ＳＭＡＲＫ,,株式会社,福岡県,福岡市南区,西長住１丁目７番１４号,,40,134,8111361,,,,,,,2023-01-26,1,,,,,スマーク,0
3401,8290003013459,新規,0,2023-01-26,2023-01-26,合同会社ＫＧ,,合同会社,福岡県,福岡市博多区,博多駅前１丁目２３番１号ＰａｒｋＦｒｏｎｔ博多駅前一丁目５Ｆ－Ｂ,,40,132,8120011,,,,,,,2023-01-26,1,,,,,ケージー,0
3403,8290005018927,新規,0,2023-01-26,2023-01-26,医療法人愛蓮会,,その他の設立登記法人,福岡県,糸島市,志摩津和崎６７志摩クリニックビル１階,,40,230,8191311,,,,,,,2023-01-26,1,,,,,アイレンカイ,0
3410,8320001019537,新規,0,2023-01-26,2023-01-26,株式会社吉川園芸,,株式会社,大分県,宇佐市,大字吉松１９番地の１ブリーズベイヒルズ宇佐Ａ２０５号,,44,211,8790441,,,,,,,2023-01-26,1,,,,,ヨシカワエンゲイ,0
3414,8330003009691,新規,0,2023-01-26,2023-01-26,合同会社石坂商店,,合同会社,熊本県,阿蘇郡高森町,大字高森１２９３番地,,43,428,8691602,,,,,,,2023-01-26,1,,,,,イシザカショウテン,0
3416,8340001025319,新規,0,2023-01-26,2023-01-26,株式会社モノベスト,,株式会社,鹿児島県,いちき串木野市,大里２５１番地１,,46,219,8992103,,,,,,,2023-01-26,1,,,,,モノベスト,0
3419,8340003004031,新規,0,2023-01-26,2023-01-26,合同会社ビーズニーズ,,合同会社,鹿児島県,鹿児島市,桜ヶ丘８丁目４１番１２号,,46,201,8900075,,,,,,,2023-01-26,1,,,,,ビーズニーズ,0
3422,8360001031488,新規,0,2023-01-26,2023-01-26,株式会社ＲＥＡＬ,,株式会社,沖縄県,うるま市,字喜屋武６５４番地２シティパレス２０１,,47,213,9042225,,,,,,,2023-01-26,1,,,,,リアル,0
3431,8420003002654,新規,0,2023-01-26,2023-01-26,合同会社ＭＩＬ,,合同会社,青森県,つがる市,柏玉水末吉３６番地１,,02,209,0383106,,,,,,,2023-01-26,1,,,,,エムアイエル,0
3448,8430001088273,新規,0,2023-01-26,2023-01-26,三陽ホールディングス株式会社,,株式会社,北海道,札幌市厚別区,厚別中央五条１丁目４番３１号,,01,108,0040055,,,,,,,2023-01-26,1,,,,,サンヨウホールディングス,0
3469,8450003002288,新規,0,2023-01-26,2023-01-26,合同会社ｏｒｉｇｉｎａｌ　ｓｔｒａｉｎ,,合同会社,北海道,稚内市,恵比須１丁目２番１５号,,01,214,0970025,,,,,,,2023-01-26,1,,,,,オリジナルストレイン,0
3489,9010001232541,新規,0,2023-01-26,2023-01-26,スマートストア株式会社,,株式会社,東京都,文京区,本郷３丁目４３番１６号４階Ｂ室,,13,105,1130033,,,,,,,2023-01-26,1,,,,,スマートストア,0
3493,9010005036146,新規,0,2023-01-26,2023-01-26,一般社団法人相続終活テラス,,その他の設立登記法人,東京都,中央区,日本橋小舟町８番１３号天翔オフィス日本橋６階,,13,102,1030024,,,,,,,2023-01-26,1,,,,,ソウゾクシュウカツテラス,0
3503,9010401172073,新規,0,2023-01-26,2023-01-26,ハッピー株式会社,,株式会社,東京都,港区,赤坂８丁目４番１４号,,13,103,1070052,,,,,,,2023-01-26,1,,,,,ハッピー,0
3505,9010403029379,新規,0,2023-01-26,2023-01-26,合同会社ＢＯＢＯ,,合同会社,東京都,港区,高輪２丁目１番１５号,,13,103,1080074,,,,,,,2023-01-26,1,,,,,ボボ,0
3507,9010501049923,新規,0,2023-01-26,2023-01-26,ＳＣａｓｈ　Ｃｌｏｕｄ株式会社,,株式会社,東京都,台東区,上野１丁目７番３号フクモトビル３階,,13,106,1100005,,,,,,,2023-01-26,1,,,,,スカッシュクラウド,0
3508,9010601062487,新規,0,2023-01-26,2023-01-26,株式会社スパーブ,,株式会社,東京都,江東区,豊洲３丁目５番３－６３６号,,13,108,1350061,,,,,,,2023-01-26,1,,,,,スパーブ,0
3509,9010603009965,新規,0,2023-01-26,2023-01-26,合同会社ミアコレオ,,合同会社,東京都,江東区,豊洲１丁目３－２６－６０２,,13,108,1350061,,,,,,,2023-01-26,1,,,,,ミアコレオ,0
3511,9010701043767,新規,0,2023-01-26,2023-01-26,エトリグ株式会社,,株式会社,東京都,品川区,東大井５丁目２３－１３－４０１,,13,109,1400011,,,,,,,2023-01-26,1,,,,,エトリグ,0
3517,9011001152135,新規,0,2023-01-26,2023-01-26,株式会社ノベルタスク,,株式会社,東京都,渋谷区,宇田川町３６－６ワールド宇田川ビル３Ｆ,,13,113,1500042,,,,,,,2023-01-26,1,,,,,ノベルタスク,0
3518,9011001152143,新規,0,2023-01-26,2023-01-26,株式会社ＳＳＩＸ,,株式会社,東京都,渋谷区,道玄坂１丁目１０番８号渋谷道玄坂東急ビル２Ｆ－Ｃ,,13,113,1500043,,,,,,,2023-01-26,1,,,,,エスエスシックス,0
3519,9011001152168,新規,0,2023-01-26,2023-01-26,株式会社オーケーイング,,株式会社,東京都,目黒区,鷹番２丁目１０番９－１０３号ジェイパーク学芸大学,,13,110,1520004,,,,,,,2023-01-26,1,,,,,オーケーイング,0
3520,9011001152192,新規,0,2023-01-26,2023-01-26,株式会社ＦＯＯＤＸ,,株式会社,東京都,渋谷区,神宮前５丁目４２番１７号,,13,113,1500001,,,,,,,2023-01-26,1,,,,,フードエックス,0
3522,9011005009918,新規,0,2023-01-26,2023-01-26,一般社団法人賃貸住宅入居者支援機構,,その他の設立登記法人,東京都,渋谷区,円山町５番５号Ｎａｖｉ渋谷Ｖ３階,,13,113,1500044,,,,,,,2023-01-26,1,,,,,チンタイジュウタクニュウキョシャシエンキコウ,0
3527,9011201024381,新規,0,2023-01-26,2023-01-26,株式会社スポーツフットケア,,株式会社,東京都,中野区,東中野１丁目５４番３号ＯＳ－ＦＬＡＴＳ１０１,,13,114,1640003,,,,,,,2023-01-26,1,,,,,スポーツフットケア,0
3535,9011503005451,新規,0,2023-01-26,2023-01-26,合同会社ストライブスター,,合同会社,東京都,北区,浮間３丁目６番１３号,,13,117,1150051,,,,,,,2023-01-26,1,,,,,ストライブスター,0
3541,9011801041834,新規,0,2023-01-26,2023-01-26,株式会社レガーロ,,株式会社,東京都,葛飾区,金町５丁目３１番８号,,13,122,1250042,,,,,,,2023-01-26,1,,,,,レガーロ,0
3543,9012403005797,新規,0,2023-01-26,2023-01-26,合同会社周防屋藤右衛門,,合同会社,東京都,府中市,幸町３丁目１番地の１ヴェラクシスガーデン府中１１４,,13,206,1830054,,,,,,,2023-01-26,1,,,,,スオウヤトウエモン,0
3553,9020001150008,新規,0,2023-01-26,2023-01-26,カリコ株式会社,,株式会社,神奈川県,川崎市高津区,二子１丁目１０番６－３０８号,,14,134,2130002,,,,,,,2023-01-26,1,,,,,カリコ,0
3555,9020003023194,新規,0,2023-01-26,2023-01-26,合同会社ＰＵＦＦ,,合同会社,神奈川県,横浜市中区,海岸通３丁目１３番１号グランドステージ海岸通り３０３号室,,14,104,2310002,,,,,,,2023-01-26,1,,,,,パフ,0
3626,9050003007178,新規,0,2023-01-26,2023-01-26,ＨＩＲＵ　ＩＮＴＥＲＮＡＴＩＯＮＡＬ合同会社,,合同会社,茨城県,下妻市,高道祖４２７０番地４,,08,210,3040031,,,,,,,2023-01-26,1,,,,,ヒルインターナショナル,0
3682,9120001251836,新規,0,2023-01-26,2023-01-26,不動モンハ株式会社,,株式会社,大阪府,大阪市淀川区,田川北２丁目５－３４・Ａ棟１０１号室,,27,123,5320021,,,,,,,2023-01-26,1,,,,,フドウモンハ,0
3683,9120001252017,新規,0,2023-01-26,2023-01-26,株式会社Ｄｉｓｃｏｖｅｒ　Ｊａｐａｎ,,株式会社,大阪府,大阪市阿倍野区,丸山通１丁目５番１号,,27,119,5450042,,,,,,,2023-01-26,1,,,,,ディスカバージャパン,0
3684,9120001252025,新規,0,2023-01-26,2023-01-26,株式会社たぶん日本一ホールディングス,,株式会社,大阪府,大阪市北区,天神橋４丁目１２－４天満シミズビル２、３、４階,,27,127,5300041,,,,,,,2023-01-26,1,,,,,タブンニホンイチホールディングス,0
3701,9120003023283,新規,0,2023-01-26,2023-01-26,ワークゼン合同会社,,合同会社,大阪府,大阪市中央区,南船場４丁目１０番５号南船場ＳＯＨＯビル７０２,,27,128,5420081,,,,,,,2023-01-26,1,,,,,ワークゼン,0
3724,9120105009676,新規,0,2023-01-26,2023-01-26,医療法人陸樹会,,その他の設立登記法人,大阪府,高石市,綾園１丁目４番３号,,27,225,5920014,,,,,,,2023-01-26,1,,,,,リクジュカイ,0
3745,9122001036630,新規,0,2023-01-26,2023-01-26,株式会社ＳＥＩＮＡ,,株式会社,大阪府,東大阪市,新池島町３丁目１番４号パールアベニュー５０２号,,27,227,5798065,,,,,,,2023-01-26,1,,,,,セイナ,0
3755,9140001128859,新規,0,2023-01-26,2023-01-26,株式会社Ｍ．Ｋ　Ｒｅｌａｔｉｏｎｓ,,株式会社,兵庫県,姫路市,十二所前町５番地クリスタルビル６０１,,28,201,6700911,,,,,,,2023-01-26,1,,,,,,0
3758,9140003018637,新規,0,2023-01-26,2023-01-26,Ａｍｃｈｏｕｌａｎｄ合同会社,,合同会社,兵庫県,加古郡稲美町,国岡４丁目１０６番地ラメゾンドゥアミーＢ２０３号,,28,381,6751115,,,,,,,2023-01-26,1,,,,,アンシュランド,0
3759,9140005026464,新規,0,2023-01-26,2023-01-26,一般社団法人福祉乗馬の会,,その他の設立登記法人,兵庫県,洲本市,五色町鮎原三野畑５９７番地,,28,205,6561324,,,,,,,2023-01-26,1,,,,,フクシジョウバノカイ,0
3761,9160001024791,新規,0,2023-01-26,2023-01-26,Ｈａｎａｍｉ国際株式会社,,株式会社,滋賀県,東近江市,猪子町３９番地４,,25,213,5211223,,,,,,,2023-01-26,1,,,,,ハナミコクサイ,0
3781,9180001154678,新規,0,2023-01-26,2023-01-26,株式会社ＩＫＩＧＡＩ　ＴＥＣ,,株式会社,愛知県,名古屋市守山区,森孝東２丁目７０３－４－５０１,,23,113,4630033,,,,,,,2023-01-26,1,,,,,イキガイテック,0
3782,9180001154694,新規,0,2023-01-26,2023-01-26,株式会社ユウリ,,株式会社,愛知県,名古屋市中村区,東宿町１丁目１０７番地の１,,23,105,4530063,,,,,,,2023-01-26,1,,,,,ユウリ,0
3783,9180001154703,新規,0,2023-01-26,2023-01-26,株式会社ＭＦフーズ,,株式会社,愛知県,あま市,七宝町伊福壱町畑１７２番地２,,23,237,4970005,,,,,,,2023-01-26,1,,,,,エムエフフーズ,0
3784,9180001154711,新規,0,2023-01-26,2023-01-26,株式会社ＴＡＫ‐ＭＩ,,株式会社,愛知県,小牧市,大字横内字割子２２５番１,,23,219,4850081,,,,,,,2023-01-26,1,,,,,タクミ,0
3785,9180003024755,新規,0,2023-01-26,2023-01-26,合同会社ＳＭＩＬＥ　ＫＩＤＳ,,合同会社,愛知県,小牧市,大字小牧原新田字樋下１７０３番地１,,23,219,4850012,,,,,,,2023-01-26,1,,,,,スマイルキッズ,0
3790,9200003005819,新規,0,2023-01-26,2023-01-26,合同会社ａｎｎ,,合同会社,岐阜県,岐阜市,木ノ本町２丁目７番地５,,21,201,5008867,,,,,,,2023-01-26,1,,,,,アン,0
3794,9240001060985,新規,0,2023-01-26,2023-01-26,株式会社ワイエー,,株式会社,広島県,広島市中区,田中町１番１号,,34,101,7300026,,,,,,,2023-01-26,1,,,,,ワイエー,0
3808,9290001100340,新規,0,2023-01-26,2023-01-26,株式会社ショウエイ環境,,株式会社,福岡県,筑後市,大字西牟田６３５２番地１,,40,211,8330053,,,,,,,2023-01-26,1,,,,,ショウエイカンキョウ,0
3811,9290003013458,新規,0,2023-01-26,2023-01-26,ＨＮ合同会社,,合同会社,福岡県,福岡市博多区,博多駅東２丁目１８番２０－６０５号,,40,132,8120013,,,,,,,2023-01-26,1,,,,,エイチエヌ,0
3821,9370003005959,新規,0,2023-01-26,2023-01-26,合同会社カベハトビラ,,合同会社,宮城県,刈田郡蔵王町,遠刈田温泉字小妻坂７５番地１１６,,04,301,9890916,,,,,,,2023-01-26,1,,,,,カベハトビラ,0
3855,9450003002287,新規,0,2023-01-26,2023-01-26,合同会社ＴＡＪＩ,,合同会社,北海道,旭川市,東光六条８丁目１番１３号,,01,204,0788346,,,,,,,2023-01-26,1,,,,,タージ,0
3856,9460301005123,新規,0,2023-01-26,2023-01-26,コスミックホールディングス株式会社,,株式会社,北海道,北見市,寿町１丁目１番５号,,01,208,0900065,,,,,,,2023-01-26,1,,,,,コスミックホールディングス,0
