sequenceNumber,corporateNumber,process,correct,updateDate,changeDate,name,nameImageId,kind,prefectureName,cityName,streetNumber,addressImageId,prefectureCode,cityCode,postCode,addressOutside,addressOutsideImageId,closeDate,closeCause,successorCorporateNumber,changeCause,assignmentDate,latest,enName,enPrefectureName,enCityName,enAddressOutside,furigana,hihyoji
8,1010001224224,新規,0,2022-02-01,2022-02-01,株式会社ＧＰＦ,,株式会社,東京都,文京区,本郷３丁目３２番７号東京ビル６階,,13,105,1130033,,,,,,,2022-02-01,1,,,,,ジーピーエフ,0
9,1010001224240,新規,0,2022-02-01,2022-02-01,株式会社たく,,株式会社,東京都,千代田区,二番町８番地３二番町大沼ビル３階,,13,101,1020084,,,,,,,2022-02-01,1,,,,,タク,0
11,1010005034545,新規,0,2022-02-01,2022-02-01,ＡＬＪ　Ｏｆｆｉｃｅ　Ｋｏｄｅｎｍａ一般社団法人,,その他の設立登記法人,東京都,千代田区,神田神保町１丁目１１番地さくら綜合事務所内,,13,101,1010051,,,,,,,2022-02-01,1,,,,,エーエルジェーオフィスコデンマ,0
18,1010403026994,新規,0,2022-02-01,2022-02-01,チェカフーズインターナショナル合同会社,,合同会社,東京都,港区,六本木７丁目７番７号Ｔｒｉ－ＳｅｖｅｎＲｏｐｐｏｎｇｉ８階,,13,103,1060032,,,,,,,2022-02-01,1,,,,,チェカフーズインターナショナル,0
19,1010501048387,新規,0,2022-02-01,2022-02-01,株式会社ａｌｌ　ｉｎ,,株式会社,東京都,台東区,北上野２丁目６－１３ダイアパレス上野３０１,,13,106,1100014,,,,,,,2022-02-01,1,,,,,オールイン,0
21,1010601060589,新規,0,2022-02-01,2022-02-01,ＨＹソフト株式会社,,株式会社,東京都,江東区,北砂５丁目２０番１８－２０８号,,13,108,1360073,,,,,,,2022-02-01,1,,,,,エイチワイソフト,0
22,1010601060597,新規,0,2022-02-01,2022-02-01,Ｔ＆Ｍ　ＴＥＣＨ株式会社,,株式会社,東京都,江東区,豊洲４丁目１０番６－５０１号,,13,108,1350061,,,,,,,2022-02-01,1,,,,,ティーアンドエムテック,0
24,1010701042149,新規,0,2022-02-01,2022-02-01,株式会社Ａｋａｔｓｕｋｉ　Ｖｅｎｔｕｒｅｓ,,株式会社,東京都,品川区,上大崎２丁目１３番３０号ｏａｋｍｅｇｕｒｏ８階,,13,109,1410021,,,,,,,2022-02-01,1,,,,,アカツキベンチャーズ,0
25,1010801032693,新規,0,2022-02-01,2022-02-01,株式会社ゼロイチマーケティングサービス,,株式会社,東京都,大田区,鵜の木２丁目１３－１２,,13,111,1460091,,,,,,,2022-02-01,1,,,,,ゼロイチマーケティングサービス,0
27,1010901050281,新規,0,2022-02-01,2022-02-01,株式会社ＣｈｉｌｌｉｎＨｙｐｅ,,株式会社,東京都,世田谷区,野毛３丁目１３－１ドムス世田谷４０３,,13,112,1580092,,,,,,,2022-02-01,1,,,,,チリンハイプ,0
28,1010903007115,新規,0,2022-02-01,2022-02-01,合同会社文京システムラボ,,合同会社,東京都,世田谷区,下馬６丁目３７番１６号－３,,13,112,1540002,,,,,,,2022-02-01,1,,,,,ブンキョウシステムラボ,0
36,1011001145369,新規,0,2022-02-01,2022-02-01,株式会社ナインバーズ,,株式会社,東京都,渋谷区,渋谷３丁目２５番２１号,,13,113,1500002,,,,,,,2022-02-01,1,,,,,ナインバーズ,0
40,1011003014084,新規,0,2022-02-01,2022-02-01,ＲＲカンパニー合同会社,,合同会社,東京都,渋谷区,渋谷２丁目１９－１５宮益坂ビルディング６０９,,13,113,1500002,,,,,,,2022-02-01,1,,,,,アールアールカンパニー,0
41,1011005009396,新規,0,2022-02-01,2022-02-01,一般社団法人日本学生卓球連盟,,その他の設立登記法人,東京都,渋谷区,神南１丁目４番２号,,13,113,1500041,,,,,,,2022-02-01,1,,,,,ニホンガクセイタッキュウレンメイ,0
55,1011101097634,新規,0,2022-02-01,2022-02-01,株式会社Ｍａｓｔｅｒｋｅｙｓ,,株式会社,東京都,新宿区,西早稲田１丁目２２番３号,,13,104,1690051,,,,,,,2022-02-01,1,,,,,マスターキーズ,0
56,1011101097642,新規,0,2022-02-01,2022-02-01,株式会社ネットワークプラス,,株式会社,東京都,新宿区,新宿２丁目１番１４号,,13,104,1600022,,,,,,,2022-02-01,1,,,,,ネットワークプラス,0
57,1011101097650,新規,0,2022-02-01,2022-02-01,株式会社カレラ,,株式会社,東京都,新宿区,北新宿１丁目２０番４－１３０３号,,13,104,1690074,,,,,,,2022-02-01,1,,,,,カレラ,0
58,1011101097659,新規,0,2022-02-01,2022-02-01,株式会社サクセス,,株式会社,東京都,新宿区,西新宿７丁目６番９－５０２号,,13,104,1600023,,,,,,,2022-02-01,1,,,,,サクセス,0
59,1011101097683,新規,0,2022-02-01,2022-02-01,株式会社ＡＫコミュニケーションズ,,株式会社,東京都,新宿区,四谷２丁目１１番１１号アシストビル６階,,13,104,1600004,,,,,,,2022-02-01,1,,,,,エーケーコミュニケーションズ,0
62,1011201023597,新規,0,2022-02-01,2022-02-01,株式会社アールエム,,株式会社,東京都,中野区,本町２丁目４９－８,,13,114,1640012,,,,,,,2022-02-01,1,,,,,アールエム,0
65,1011301027523,新規,0,2022-02-01,2022-02-01,ＭＡＬＩＫＡ株式会社,,株式会社,東京都,杉並区,高円寺北１丁目１０番１３号,,13,115,1660002,,,,,,,2022-02-01,1,,,,,マリカ,0
76,1011701025011,新規,0,2022-02-01,2022-02-01,株式会社豊穣グループ,,株式会社,東京都,江戸川区,鹿骨１丁目６番８号,,13,123,1330073,,,,,,,2022-02-01,1,,,,,ホウジョウグループ,0
80,1011803004953,新規,0,2022-02-01,2022-02-01,合同会社徒より,,合同会社,東京都,足立区,東和２丁目１３番１４号,,13,121,1200003,,,,,,,2022-02-01,1,,,,,カチヨリ,0
90,1020001145031,新規,0,2022-02-01,2022-02-01,株式会社リメイクプラン,,株式会社,神奈川県,横浜市緑区,台村町４７７番地４,,14,113,2260014,,,,,,,2022-02-01,1,,,,,リメイクプラン,0
95,1021005012432,新規,0,2022-02-01,2022-02-01,一般社団法人海老名市農業支援センター,,その他の設立登記法人,神奈川県,海老名市,勝瀬１７５番地の１海老名市役所,,14,215,2430404,,,,,,,2022-02-01,1,,,,,エビナシノウギョウシエンセンター,0
103,1030001146565,新規,0,2022-02-01,2022-02-01,Ｌｉｆｅｅ株式会社,,株式会社,埼玉県,さいたま市緑区,大字中尾２９９番地１,,11,109,3360932,,,,,,,2022-02-01,1,,,,,ライフィー,0
110,1040001121988,新規,0,2022-02-01,2022-02-01,株式会社ＮＲ,,株式会社,千葉県,船橋市,海神３丁目１８番３号,,12,204,2730021,,,,,,,2022-02-01,1,,,,,エヌアール,0
111,1040001121996,新規,0,2022-02-01,2022-02-01,ＭＦ株式会社,,株式会社,千葉県,柏市,根戸４７０番地５８,,12,217,2770831,,,,,,,2022-02-01,1,,,,,エムエフ,0
112,1040001122004,新規,0,2022-02-01,2022-02-01,株式会社岡澤薬局,,株式会社,千葉県,白井市,堀込１丁目１番２７号,,12,232,2701424,,,,,,,2022-02-01,1,,,,,オカザワヤッキョク,0
113,1040001122029,新規,0,2022-02-01,2022-02-01,タキタ工業株式会社,,株式会社,千葉県,千葉市緑区,土気町１３８２番地８,,12,105,2670061,,,,,,,2022-02-01,1,,,,,タキタコウギョウ,0
114,1050001050542,新規,0,2022-02-01,2022-02-01,株式会社ＢＥＥＩＮＧ,,株式会社,茨城県,水戸市,酒門町１１７６番地,,08,201,3100841,,,,,,,2022-02-01,1,,,,,ビーイング,0
116,1050003006344,新規,0,2022-02-01,2022-02-01,合同会社イシュキオートディーラーズ,,合同会社,茨城県,小美玉市,小岩戸１９５３番地２,,08,236,3190107,,,,,,,2022-02-01,1,,,,,,0
121,1070001038890,新規,0,2022-02-01,2022-02-01,株式会社リアライズ・シード,,株式会社,群馬県,伊勢崎市,連取町１２０５番地３連取ガーデンヒルズＥ１０２,,10,204,3720812,,,,,,,2022-02-01,1,,,,,リアライズシード,0
122,1070003004370,新規,0,2022-02-01,2022-02-01,合同会社ＭＡＨＩＲ　ＴＲＡＤＩＮＧ,,合同会社,群馬県,伊勢崎市,境百々東１５番地７松和ハイツＫ１０２,,10,204,3700116,,,,,,,2022-02-01,1,,,,,マヒルトレーディング,0
123,1080403004457,新規,0,2022-02-01,2022-02-01,セカイトレーディング合同会社,,合同会社,静岡県,浜松市東区,積志町９１７番地の２積志ハイツ２０２号室,,22,132,4313114,,,,,,,2022-02-01,1,,,,,セカイトレーディング,0
134,1120001243535,新規,0,2022-02-01,2022-02-01,ＪＡＰＡＮ　ＳＥＬＥＣＴ株式会社,,株式会社,大阪府,大阪市北区,末広町２－３２－８０１,,27,127,5300053,,,,,,,2022-02-01,1,,,,,ジャパンセレクト,0
135,1120001243543,新規,0,2022-02-01,2022-02-01,株式会社フェザーリバティ,,株式会社,大阪府,大阪市西淀川区,姫里１丁目１１番１７号,,27,113,5550025,,,,,,,2022-02-01,1,,,,,フェザーリバティ,0
136,1120001243568,新規,0,2022-02-01,2022-02-01,株式会社トラストオール,,株式会社,大阪府,大阪市淀川区,宮原２丁目１２番１４号ＬＭ新大阪５－７２５,,27,123,5320003,,,,,,,2022-02-01,1,,,,,トラストオール,0
140,1120003021047,新規,0,2022-02-01,2022-02-01,合同会社Ｔｏｔａｌ　Ｌｉｆｅ．,,合同会社,大阪府,大阪市淀川区,木川西１丁目８番２３－５０２号,,27,123,5320013,,,,,,,2022-02-01,1,,,,,トータルライフ,0
141,1120005022753,新規,0,2022-02-01,2022-02-01,監査法人アクアマリン,,その他の設立登記法人,大阪府,大阪市天王寺区,東高津町３番２０号エフズビル３階,,27,109,5430021,,,,,,,2022-02-01,1,,,,,アクアマリン,0
142,1120005022761,新規,0,2022-02-01,2022-02-01,特定非営利活動法人みんなのカラダＬａｂｏ,,その他の設立登記法人,大阪府,大阪市鶴見区,浜３丁目１１番２８号,,27,124,5380035,,,,,,,2022-02-01,1,,,,,ミンナノカラダラボ,0
143,1120101065012,新規,0,2022-02-01,2022-02-01,株式会社ゆうき興業,,株式会社,大阪府,貝塚市,森５１３番地８,,27,208,5970044,,,,,,,2022-02-01,1,,,,,ユウキコウギョウ,0
144,1120101065020,新規,0,2022-02-01,2022-02-01,株式会社ＫＯＥＩ　ＨＯＭＥ,,株式会社,大阪府,堺市西区,浜寺諏訪森町西３丁２７２－１０３号,,27,144,5928347,,,,,,,2022-02-01,1,,,,,コウエイホーム,0
145,1120103004554,新規,0,2022-02-01,2022-02-01,合同会社ファニーファニー,,合同会社,大阪府,堺市北区,新金岡町５丁５番１１１号２Ｆ,,27,146,5918021,,,,,,,2022-02-01,1,,,,,ファニーファニー,0
146,1120901045543,新規,0,2022-02-01,2022-02-01,合善商事株式会社,,株式会社,大阪府,吹田市,山手町３丁目１２番２－４０５号,,27,205,5640073,,,,,,,2022-02-01,1,,,,,ゴウゼンショウジ,0
151,1130005016374,新規,0,2022-02-01,2022-02-01,一般社団法人ワールドファイナンスアドバイザー協会,,その他の設立登記法人,京都府,京都市下京区,西洞院通四条下る妙伝寺町７２０番地光悦ビル６Ｆ,,26,106,6008472,,,,,,,2022-02-01,1,,,,,ワールドファイナンスアドバイザーキョウカイ,0
156,1150001025294,新規,0,2022-02-01,2022-02-01,株式会社ａｐｒｅｎｄｅｒ,,株式会社,奈良県,奈良市,神殿町１７５番地の２０,,29,201,6308441,,,,,,,2022-02-01,1,,,,,アプレンデール,0
162,1180001149776,新規,0,2022-02-01,2022-02-01,並日株式会社,,株式会社,愛知県,名古屋市中村区,名駅南１丁目１２番１７号１００４号室,,23,105,4500003,,,,,,,2022-02-01,1,,,,,ナミニチ,0
179,1200001039710,新規,0,2022-02-01,2022-02-01,株式会社Ｃｈｉｔｏｓｅ,,株式会社,岐阜県,岐阜市,神田町４丁目９番地１バンベール岐阜ザ・タワー５０４号室,,21,201,5008833,,,,,,,2022-02-01,1,,,,,チトセ,0
186,1240001059259,新規,0,2022-02-01,2022-02-01,株式会社青松,,株式会社,広島県,広島市中区,上八丁堀８番２８－２５０３号,,34,101,7300012,,,,,,,2022-02-01,1,,,,,アオマツ,0
196,1290001096272,新規,0,2022-02-01,2022-02-01,ＡＤジャパン株式会社,,株式会社,福岡県,福岡市東区,多の津１丁目１６番４号,,40,131,8130034,,,,,,,2022-02-01,1,,,,,エーディージャパン,0
197,1290001096289,新規,0,2022-02-01,2022-02-01,株式会社ＯＮ・ＫＡ・ＮＡ,,株式会社,福岡県,福岡市中央区,薬院１丁目１６番１５号,,40,133,8100022,,,,,,,2022-02-01,1,,,,,オンカナ,0
198,1290001096297,新規,0,2022-02-01,2022-02-01,株式会社ＧＬＵＯＮ,,株式会社,福岡県,福岡市南区,大橋２丁目２番１１号,,40,134,8150033,,,,,,,2022-02-01,1,,,,,グルーオン,0
229,1400001015765,新規,0,2022-02-01,2022-02-01,株式会社トータルホーム,,株式会社,岩手県,盛岡市,神子田町１４番２４号,,03,201,0200826,,,,,,,2022-02-01,1,,,,,トータルホーム,0
231,1420001017727,新規,0,2022-02-01,2022-02-01,株式会社Ｅ－ｔｒｕｓｔ,,株式会社,青森県,八戸市,大字新井田字八森平１番地６,,02,203,0310813,,,,,,,2022-02-01,1,,,,,イートラスト,0
237,1430001085905,新規,0,2022-02-01,2022-02-01,株式会社ＮｉＳ,,株式会社,北海道,札幌市豊平区,月寒中央通７丁目６番２０号ＪＡ月寒中央ビル２Ｆ,,01,105,0620020,,,,,,,2022-02-01,1,,,,,ニス,0
238,1430003013590,新規,0,2022-02-01,2022-02-01,わくわくらぼ合同会社,,合同会社,北海道,札幌市西区,山の手四条１１丁目２番１０号,,01,107,0630004,,,,,,,2022-02-01,1,,,,,ワクワクラボ,0
240,1450001013608,新規,0,2022-02-01,2022-02-01,株式会社しまねずみファーム,,株式会社,北海道,空知郡上富良野町,北町２丁目２－８７,,01,460,0710549,,,,,,,2022-02-01,1,,,,,シマネズミファーム,0
245,1490001010106,新規,0,2022-02-01,2022-02-01,株式会社ＳＫ環境,,株式会社,高知県,高知市,長浜４０６２番地１,,39,201,7810270,,,,,,,2022-02-01,1,,,,,エスケーカンキョウ,0
253,2010001224215,新規,0,2022-02-01,2022-02-01,株式会社Ａｌｉｓ,,株式会社,東京都,千代田区,神田練塀町７３番地,,13,101,1010022,,,,,,,2022-02-01,1,,,,,アリス,0
254,2010005034528,新規,0,2022-02-01,2022-02-01,一般社団法人中国語コーチング普及協会,,その他の設立登記法人,東京都,文京区,白山１丁目１９番１２号ベルメゾン白山４０１,,13,105,1130001,,,,,,,2022-02-01,1,,,,,チュウゴクゴコーチングフキュウキョウカイ,0
263,2010401165240,新規,0,2022-02-01,2022-02-01,株式会社Ｂｌａｃｋ　Ｃａｔ,,株式会社,東京都,港区,麻布十番２丁目１４番３号ＬＡＰＩＳ４０１,,13,103,1060045,,,,,,,2022-02-01,1,,,,,ブラックキャット,0
269,2010601060588,新規,0,2022-02-01,2022-02-01,株式会社ガーデンアクア,,株式会社,東京都,江東区,深川２丁目８番１６号,,13,108,1350033,,,,,,,2022-02-01,1,,,,,ガーデンアクア,0
270,2010601060596,新規,0,2022-02-01,2022-02-01,Ｕｌｏｏ株式会社,,株式会社,東京都,江東区,東雲１丁目９－４パークタワー東雲１３１４,,13,108,1350062,,,,,,,2022-02-01,1,,,,,ウールー,0
282,2011001145343,新規,0,2022-02-01,2022-02-01,シノシスデザイン株式会社,,株式会社,東京都,目黒区,下目黒２丁目２－８メディアビル２Ｆ,,13,110,1530064,,,,,,,2022-02-01,1,,,,,シノシスデザイン,0
284,2011003014034,新規,0,2022-02-01,2022-02-01,合同会社ｏｍｏｃｈｉ,,合同会社,東京都,渋谷区,神宮前６丁目２３番４号桑野ビル２階,,13,113,1500001,,,,,,,2022-02-01,1,,,,,オモチ,0
285,2011003014100,新規,0,2022-02-01,2022-02-01,合同会社オフィスまつだ,,合同会社,東京都,渋谷区,恵比寿４丁目２０番３号恵比寿ガーデンプレイスタワー１８階,,13,113,1500013,,,,,,,2022-02-01,1,,,,,オフィスマツダ,0
291,2011101097658,新規,0,2022-02-01,2022-02-01,株式会社サーブ,,株式会社,東京都,新宿区,西新宿７丁目６番９－５０２号,,13,104,1600023,,,,,,,2022-02-01,1,,,,,サーブ,0
292,2011101097666,新規,0,2022-02-01,2022-02-01,株式会社ヘリオス,,株式会社,東京都,新宿区,西落合２丁目２１番８号,,13,104,1610031,,,,,,,2022-02-01,1,,,,,ヘリオス,0
295,2011103011419,新規,0,2022-02-01,2022-02-01,合同会社ｓｙｍｐａｔｈｙ,,合同会社,東京都,新宿区,新宿５丁目１８番１６号,,13,104,1600022,,,,,,,2022-02-01,1,,,,,シンパシー,0
301,2011303004296,新規,0,2022-02-01,2022-02-01,合同会社エムプラン,,合同会社,東京都,杉並区,高井戸東３丁目１５番１３号,,13,115,1680072,,,,,,,2022-02-01,1,,,,,エムプラン,0
311,2012403005226,新規,0,2022-02-01,2022-02-01,合同会社アイチーム＆カンパニー,,合同会社,東京都,武蔵野市,吉祥寺北町４丁目２番７号,,13,203,1800001,,,,,,,2022-02-01,1,,,,,アイチームアンドカンパニー,0
312,2012701016908,新規,0,2022-02-01,2022-02-01,株式会社ＥｅＮＡ,,株式会社,東京都,東村山市,久米川町２丁目３６番地５８,,13,213,1890003,,,,,,,2022-02-01,1,,,,,イーナ,0
324,2020001145047,新規,0,2022-02-01,2022-02-01,株式会社横浜トーイング,,株式会社,神奈川県,横浜市泉区,和泉町７５１２番地２,,14,116,2450016,,,,,,,2022-02-01,1,,,,,ヨコハマトーイング,0
329,2021001075069,新規,0,2022-02-01,2022-02-01,株式会社ＭＩＲＡＩＺ,,株式会社,神奈川県,厚木市,水引２丁目７番３８号３階,,14,212,2430004,,,,,,,2022-02-01,1,,,,,ミライズ,0
335,2030001146507,新規,0,2022-02-01,2022-02-01,株式会社新洋,,株式会社,埼玉県,志木市,上宗岡３丁目９－４４ワイエム倉庫２０２,,11,228,3530001,,,,,,,2022-02-01,1,,,,,シンヨウ,0
336,2030001146589,新規,0,2022-02-01,2022-02-01,昌隆株式会社,,株式会社,埼玉県,川口市,芝富士１丁目２番７号,,11,203,3330854,,,,,,,2022-02-01,1,,,,,ショウリュウ,0
341,2040001121987,新規,0,2022-02-01,2022-02-01,株式会社ＡＮＨ　ＴＨＵ,,株式会社,千葉県,船橋市,金杉台１丁目２番６棟３０２号,,12,204,2730852,,,,,,,2022-02-01,1,,,,,アントゥ,0
342,2040001121995,新規,0,2022-02-01,2022-02-01,株式会社冨澤機械店,,株式会社,千葉県,香取市,佐原イ４２番地,,12,236,2870003,,,,,,,2022-02-01,1,,,,,トミザワキカイテン,0
352,2050001050558,新規,0,2022-02-01,2022-02-01,越洋商信株式会社,,株式会社,茨城県,行方市,南高岡２１８番地,,08,233,3111714,,,,,,,2022-02-01,1,,,,,エツヨウショウシン,0
360,2060003003934,新規,0,2022-02-01,2022-02-01,合同会社ＳＥＩＲＩＮ,,合同会社,栃木県,宇都宮市,松原３丁目９番１３号５０１号室,,09,201,3200041,,,,,,,2022-02-01,1,,,,,セイリン,0
364,2080001024724,新規,0,2022-02-01,2022-02-01,株式会社ハンエアーシステム,,株式会社,静岡県,静岡市清水区,折戸５２１番地,,22,103,4240902,,,,,,,2022-02-01,1,,,,,ハンエアーシステム,0
380,2120001243534,新規,0,2022-02-01,2022-02-01,株式会社カイセイソリューション,,株式会社,大阪府,大阪市北区,西天満６丁目２－１１ＴＡＴＳＵＭＩ梅ヶ枝町ビル５０６,,27,127,5300047,,,,,,,2022-02-01,1,,,,,カイセイソリューション,0
381,2120001243550,新規,0,2022-02-01,2022-02-01,株式会社Ｋ＆Ｔコーポレーション,,株式会社,大阪府,大阪市浪速区,恵美須西１丁目４番１３－３０４号,,27,111,5560003,,,,,,,2022-02-01,1,,,,,ケイアンドティーコーポレーション,0
385,2120101065011,新規,0,2022-02-01,2022-02-01,株式会社Ｚｅｎｎ,,株式会社,大阪府,堺市中区,深井沢町３３０９番地１グレイスコート善１００１号,,27,142,5998236,,,,,,,2022-02-01,1,,,,,ゼン,0
396,2140001124749,新規,0,2022-02-01,2022-02-01,株式会社狗ノ國,,株式会社,兵庫県,宝塚市,宝梅２丁目６番５８－１０６号,,28,214,6650013,,,,,,,2022-02-01,1,,,,,クノクニ,0
397,2140003017298,新規,0,2022-02-01,2022-02-01,合同会社高山産業,,合同会社,兵庫県,伊丹市,緑ケ丘２丁目２２番地カサベルデ２０１,,28,207,6640012,,,,,,,2022-02-01,1,,,,,タカヤマサンギョウ,0
399,2140005026017,新規,0,2022-02-01,2022-02-01,淡路市清掃事業協同組合,,その他の設立登記法人,兵庫県,淡路市,久留麻２６番地の３,,28,226,6562311,,,,,,,2022-02-01,1,,,,,アワジシセイソウ,0
400,2150005009367,新規,0,2022-02-01,2022-02-01,特定非営利活動法人ココロとカラダ祐気堂,,その他の設立登記法人,奈良県,生駒郡斑鳩町,興留７丁目２番１４号ピアッツァコート法隆寺駅前２０２号,,29,344,6360123,,,,,,,2022-02-01,1,,,,,ココロトカラダユウキドウ,0
414,2180001149742,新規,0,2022-02-01,2022-02-01,株式会社Ｂ－ＳＴ・Ｅｎｔｅｒｔａｉｎｍｅｎｔ,,株式会社,愛知県,名古屋市天白区,植田西２丁目２０８,,23,116,4680058,,,,,,,2022-02-01,1,,,,,ビーストエンターテイメント,0
415,2180001149759,新規,0,2022-02-01,2022-02-01,株式会社ＨＤ愛知商事,,株式会社,愛知県,名古屋市千種区,内山３丁目１９番５号内山ハイツ３０２号,,23,101,4640075,,,,,,,2022-02-01,1,,,,,エイチディアイチショウジ,0
426,2210001018803,新規,0,2022-02-01,2022-02-01,株式会社福井アカデミー,,株式会社,福井県,福井市,大宮２丁目９番２０号,,18,201,9100016,,,,,,,2022-02-01,1,,,,,フクイアカデミー,0
434,2230003001796,新規,0,2022-02-01,2022-02-01,合同会社ＩＺＥＮ,,合同会社,富山県,下新川郡入善町,新屋４６９,,16,342,9390637,,,,,,,2022-02-01,1,,,,,アイゼン,0
444,2250001019376,新規,0,2022-02-01,2022-02-01,株式会社十時屋,,株式会社,山口県,山陽小野田市,青葉台７番３号,,35,216,7560030,,,,,,,2022-02-01,1,,,,,トトキヤ,0
456,2290801028218,新規,0,2022-02-01,2022-02-01,三気産業株式会社,,株式会社,福岡県,北九州市若松区,白山１丁目１８番６号,,40,103,8080035,,,,,,,2022-02-01,1,,,,,サンキサンギョウ,0
466,2340003003699,新規,0,2022-02-01,2022-02-01,合同会社Ｌｉｆｅ　ｅｎｒｉｃｈ,,合同会社,鹿児島県,鹿児島市,南林寺町９－７エクールタケハラ６０１,,46,201,8920834,,,,,,,2022-02-01,1,,,,,ライフエンリッチ,0
480,2370005010435,新規,0,2022-02-01,2022-02-01,一般社団法人日本腸活協会,,その他の設立登記法人,宮城県,名取市,手倉田字八幡４９５番地の３ロイヤルシャトー名取駅西２０１号,,04,207,9811231,,,,,,,2022-02-01,1,,,,,ニホンチョウカツキョウカイ,0
488,2390001016780,新規,0,2022-02-01,2022-02-01,ユメデンコウ株式会社,,株式会社,山形県,山形市,小白川町１丁目５番１４号,,06,201,9900021,,,,,,,2022-02-01,1,,,,,ユメデンコウ,0
504,2470001018950,新規,0,2022-02-01,2022-02-01,株式会社ことひら未来,,株式会社,香川県,仲多度郡琴平町,８１４番地,,37,403,7660001,,,,,,,2022-02-01,1,,,,,コトヒラミライ,0
505,2480001011632,新規,0,2022-02-01,2022-02-01,株式会社結の郷,,株式会社,徳島県,徳島市,国府町西高輪１２９－２,,36,201,7793104,,,,,,,2022-02-01,1,,,,,ムスビノサト,0
517,3010001224230,新規,0,2022-02-01,2022-02-01,株式会社ガンコ,,株式会社,東京都,中央区,銀座１丁目１２番４号Ｎ＆ＥＢＬＤ．７階,,13,102,1040061,,,,,,,2022-02-01,1,,,,,ガンコ,0
518,3010001224239,新規,0,2022-02-01,2022-02-01,株式会社ワンプレート,,株式会社,東京都,千代田区,平河町２丁目５番３号ＮａｇａｔａｃｈｏＧＲｉＤ３Ｆ,00125580,13,101,1020093,,,,,,,2022-02-01,1,,,,,ワンプレート,0
521,3010003036905,新規,0,2022-02-01,2022-02-01,合同会社彩,,合同会社,東京都,中央区,銀座７丁目１３番６号サガミビル２階,,13,102,1040061,,,,,,,2022-02-01,1,,,,,イロドリ,0
522,3010105002144,新規,0,2022-02-01,2022-02-01,一般社団法人ＳＡＬＭＯ,,その他の設立登記法人,東京都,八王子市,狭間町１４６２番地５タウンズ八王子Ｆ１３２７号,,13,201,1930941,,,,,,,2022-02-01,1,,,,,サルモ,0
526,3010403027000,新規,0,2022-02-01,2022-02-01,合同会社パレス,,合同会社,東京都,港区,虎ノ門３丁目２２番１０－２０１号,,13,103,1050001,,,,,,,2022-02-01,1,,,,,パレス,0
538,3010601060595,新規,0,2022-02-01,2022-02-01,新国際ビルディング株式会社,,株式会社,東京都,江東区,北砂１丁目１１番１２号,,13,108,1360073,,,,,,,2022-02-01,1,,,,,,0
539,3010605004037,新規,0,2022-02-01,2022-02-01,ＮＰＯ法人ＷＯＲＬＤ　ＣＬＥＡＮＵＰ　ＤＡＹ　ＪＡＰＡＮ,,その他の設立登記法人,東京都,江東区,塩浜１丁目６番８－１３０９号,,13,108,1350043,,,,,,,2022-02-01,1,,,,,ワールドクリーンアップデージャパン,0
548,3011001145359,新規,0,2022-02-01,2022-02-01,キャリア教育マネジメント株式会社,,株式会社,東京都,渋谷区,広尾５丁目４－１２大成鋼機ビル４階,,13,113,1500012,,,,,,,2022-02-01,1,,,,,キャリアキョウイクマネジメント,0
549,3011001145375,新規,0,2022-02-01,2022-02-01,ＩＪＯＯＺ株式会社,,株式会社,東京都,渋谷区,恵比寿４丁目１１番７号,,13,113,1500013,,,,,,,2022-02-01,1,,,,,アイジュース,0
550,3011001145383,新規,0,2022-02-01,2022-02-01,株式会社ＨａＬｉＬｙ,,株式会社,東京都,目黒区,東が丘１丁目３５番１５号,,13,110,1520021,,,,,,,2022-02-01,1,,,,,ハリリ,0
556,3011003014082,新規,0,2022-02-01,2022-02-01,合同会社ＬＩＶＥＳＴ,,合同会社,東京都,渋谷区,代々木１丁目６０番１１号,,13,113,1510053,,,,,,,2022-02-01,1,,,,,リーベスト,0
562,3011101097582,新規,0,2022-02-01,2022-02-01,ネオディット株式会社,,株式会社,東京都,新宿区,歌舞伎町２丁目２５番８号,,13,104,1600021,,,,,,,2022-02-01,1,,,,,ネオディット,0
563,3011101097649,新規,0,2022-02-01,2022-02-01,株式会社ウルス,,株式会社,東京都,新宿区,北新宿１丁目２０番４－１３０３号,,13,104,1690074,,,,,,,2022-02-01,1,,,,,ウルス,0
564,3011101097657,新規,0,2022-02-01,2022-02-01,株式会社リライト,,株式会社,東京都,新宿区,西新宿７丁目６番９－５０２号,,13,104,1600023,,,,,,,2022-02-01,1,,,,,リライト,0
565,3011101097665,新規,0,2022-02-01,2022-02-01,株式会社クロノス,,株式会社,東京都,新宿区,西落合２丁目２１番８号,,13,104,1610031,,,,,,,2022-02-01,1,,,,,クロノス,0
566,3011101097707,新規,0,2022-02-01,2022-02-01,株式会社ＲＩＶＥＲＳＥ,,株式会社,東京都,新宿区,歌舞伎町２丁目４１番１２号岡埜ビル７０２,,13,104,1600021,,,,,,,2022-02-01,1,,,,,リバース,0
569,3011103011418,新規,0,2022-02-01,2022-02-01,ＤＵＹ　ＫＨＡＮＧ合同会社,,合同会社,東京都,新宿区,百人町２丁目１６番５号,,13,104,1690073,,,,,,,2022-02-01,1,,,,,,0
571,3011403003552,新規,0,2022-02-01,2022-02-01,サザンプランニング合同会社,,合同会社,東京都,板橋区,大山金井町３６番１２号,,13,119,1730024,,,,,,,2022-02-01,1,,,,,サザンプランニング,0
573,3011601025704,新規,0,2022-02-01,2022-02-01,株式会社ワークスホールディングス,,株式会社,東京都,練馬区,西大泉１丁目１１番４０号,,13,120,1780065,,,,,,,2022-02-01,1,,,,,ワークスホールディングス,0
576,3011801040271,新規,0,2022-02-01,2022-02-01,株式会社ポコ,,株式会社,東京都,足立区,加賀２丁目２１番１号Ａ３,,13,121,1230861,,,,,,,2022-02-01,1,,,,,ポコ,0
590,3020003021229,新規,0,2022-02-01,2022-02-01,合同会社ステラエステイト,,合同会社,神奈川県,横浜市神奈川区,台町７番地１４横浜テラス５０４号,,14,102,2210834,,,,,,,2022-02-01,1,,,,,ステラエステイト,0
594,3021001075084,新規,0,2022-02-01,2022-02-01,株式会社リベロルミ,,株式会社,神奈川県,小田原市,国府津２丁目４－４,,14,206,2560812,,,,,,,2022-02-01,1,,,,,リベロルミ,0
608,3030001146571,新規,0,2022-02-01,2022-02-01,井多商事株式会社,,株式会社,埼玉県,さいたま市南区,辻５丁目６番１２号２０４,,11,108,3360026,,,,,,,2022-02-01,1,,,,,イタショウジ,0
612,3030003018752,新規,0,2022-02-01,2022-02-01,合同会社Ｚ地質分析研究所,,合同会社,埼玉県,三郷市,寄巻９５８番地８,,11,237,3410045,,,,,,,2022-02-01,1,,,,,ゼットチシツブンセキケンキュウジョ,0
622,3040001121994,新規,0,2022-02-01,2022-02-01,リブリッヂ株式会社,,株式会社,千葉県,佐倉市,下根７４番地,,12,212,2850006,,,,,,,2022-02-01,1,,,,,リブリッヂ,0
623,3040001122019,新規,0,2022-02-01,2022-02-01,株式会社シテイ・アンド・ライフ,,株式会社,千葉県,千葉市若葉区,中田町２３５７番地９４,,12,104,2650043,,,,,,,2022-02-01,1,,,,,シテイアンドライフ,0
626,3040003019403,新規,0,2022-02-01,2022-02-01,ＴＷＥＬＶＥ合同会社,,合同会社,千葉県,千葉市中央区,葛城２丁目１２－４４,,12,101,2600853,,,,,,,2022-02-01,1,,,,,トゥエルブ,0
634,3050005013007,新規,0,2022-02-01,2022-02-01,特定非営利活動法人そらのした,,その他の設立登記法人,茨城県,小美玉市,栗又四ケ１３７１番地８,,08,236,3113434,,,,,,,2022-02-01,1,,,,,ソラノシタ,0
649,3080103002503,新規,0,2022-02-01,2022-02-01,愛静エクスプレス合同会社,,合同会社,静岡県,沼津市,根古屋１６２番号７,,22,203,4100309,,,,,,,2022-02-01,1,,,,,アイセイエクスプレス,0
653,3100003006394,新規,0,2022-02-01,2022-02-01,合同会社つながり,,合同会社,長野県,長野市,大字稲葉２４６２－２ハイツ小島１０６号,,20,201,3800911,,,,,,,2022-02-01,1,,,,,ツナガリ,0
663,3120001243459,新規,0,2022-02-01,2022-02-01,エイチブリッジ株式会社,,株式会社,大阪府,守口市,京阪本通２丁目１６番２３号,,27,209,5700083,,,,,,,2022-02-01,1,,,,,エイチブリッジ,0
669,3120103004552,新規,0,2022-02-01,2022-02-01,合同会社カラメルマネージ,,合同会社,大阪府,松原市,天美南６丁目８番２３号,,27,217,5800033,,,,,,,2022-02-01,1,,,,,カラメルマネージ,0
670,3120105009517,新規,0,2022-02-01,2022-02-01,医療法人藤美会,,その他の設立登記法人,大阪府,藤井寺市,小山藤の里町１番４７号,,27,226,5830034,,,,,,,2022-02-01,1,,,,,フジミカイ,0
678,3140001124748,新規,0,2022-02-01,2022-02-01,アトラス興業株式会社,,株式会社,兵庫県,赤穂市,高野１１８６番地５３,,28,212,6780171,,,,,,,2022-02-01,1,,,,,アトラスコウギョウ,0
679,3140001124756,新規,0,2022-02-01,2022-02-01,株式会社ＳＴＣ,,株式会社,兵庫県,神戸市中央区,坂口通７丁目２番２５号,,28,110,6510062,,,,,,,2022-02-01,1,,,,,エスティーシー,0
694,3180001149782,新規,0,2022-02-01,2022-02-01,株式会社ワークナビ名駅西,,株式会社,愛知県,名古屋市中村区,豊国通１丁目２３番３号ポニーランドビル４階,,23,105,4530834,,,,,,,2022-02-01,1,,,,,ワークナビメイエキニシ,0
695,3180001149799,新規,0,2022-02-01,2022-02-01,株式会社レフティワークス,,株式会社,愛知県,大府市,神田町３丁目３２４番地の１,,23,223,4740003,,,,,,,2022-02-01,1,,,,,レフティワークス,0
696,3180001149808,新規,0,2022-02-01,2022-02-01,株式会社ＧＹ,,株式会社,愛知県,名古屋市中村区,日吉町２５番地ロイジェント日吉１０４号,,23,105,4530029,,,,,,,2022-02-01,1,,,,,ジーワイ,0
703,3180003023457,新規,0,2022-02-01,2022-02-01,トムス・ジャパン合同会社,,合同会社,愛知県,北名古屋市,能田引免地２９番地,,23,234,4810003,,,,,,,2022-02-01,1,,,,,トムスジャパン,0
711,3200001039709,新規,0,2022-02-01,2022-02-01,株式会社リアバンス,,株式会社,岐阜県,岐阜市,若宮町５丁目１２番地若宮ビル１Ｆ・ＸＭＡＲＫＥＴ内,,21,201,5008828,,,,,,,2022-02-01,1,,,,,リアバンス,0
714,3210001018802,新規,0,2022-02-01,2022-02-01,株式会社東洋商社,,株式会社,福井県,南条郡南越前町,湯尾第１７号２２番地,,18,404,9190101,,,,,,,2022-02-01,1,,,,,トウヨウショウシャ,0
722,3250001019383,新規,0,2022-02-01,2022-02-01,Ｒｅｇｉｏｎａｌ　Ｉｎｎｏｖａｔｉｏｎｓ株式会社,,株式会社,山口県,宇部市,中央町２丁目５番１７号中央町ビル３階,,35,202,7550045,,,,,,,2022-02-01,1,,,,,リージョナルイノベーション,0
727,3260003003789,新規,0,2022-02-01,2022-02-01,合同会社ｏｆＦ,,合同会社,岡山県,岡山市北区,中山下１丁目９番２０号,,33,101,7000821,,,,,,,2022-02-01,1,,,,,オフ,0
738,3290001096262,新規,0,2022-02-01,2022-02-01,株式会社メガフラ,,株式会社,福岡県,福岡市博多区,中呉服町５番２２－２０１号,,40,132,8120035,,,,,,,2022-02-01,1,,,,,メガフラ,0
739,3290001096279,新規,0,2022-02-01,2022-02-01,株式会社アイビー,,株式会社,福岡県,福岡市中央区,渡辺通５丁目１４番１２号南天神ビル３Ｆ,,40,133,8100004,,,,,,,2022-02-01,1,,,,,アイビー,0
740,3290001096287,新規,0,2022-02-01,2022-02-01,株式会社Ｔライト,,株式会社,福岡県,筑紫野市,二日市中央４丁目６番１－４０２号,,40,217,8180072,,,,,,,2022-02-01,1,,,,,ティーライト,0
741,3290001096295,新規,0,2022-02-01,2022-02-01,コウザン株式会社,,株式会社,福岡県,福岡市博多区,住吉２丁目１５番１０‐１１１４号カーサ博多,,40,132,8120018,,,,,,,2022-02-01,1,,,,,コウザン,0
742,3290003012102,新規,0,2022-02-01,2022-02-01,ＴＮ合同会社,,合同会社,福岡県,福岡市南区,向野１丁目１２番１０,,40,134,8150035,,,,,,,2022-02-01,1,,,,,ティーエヌ,0
750,3320003003717,新規,0,2022-02-01,2022-02-01,補聴器サロンニシジマ合同会社,,合同会社,大分県,佐伯市,大手町３丁目３番３号,,44,205,8760831,,,,,,,2022-02-01,1,,,,,ホチョウキサロンニシジマ,0
759,3370001048148,新規,0,2022-02-01,2022-02-01,藤工業株式会社,,株式会社,宮城県,岩沼市,早股字小林３６４番地の１４,,04,211,9892424,,,,,,,2022-02-01,1,,,,,フジコウギョウ,0
778,3400001015763,新規,0,2022-02-01,2022-02-01,ＴＡＫＥメンテナンス株式会社,,株式会社,岩手県,大船渡市,末崎町字大豆沢１６９番地１,,03,203,0220001,,,,,,,2022-02-01,1,,,,,タケメンテナンス,0
785,3430005014370,新規,0,2022-02-01,2022-02-01,社会保険労務士法人ＡＺＡＬＥＡ,,その他の設立登記法人,北海道,札幌市中央区,南九条西６丁目１番１号６階,,01,101,0640809,,,,,,,2022-02-01,1,,,,,アザレア,0
787,3450001013606,新規,0,2022-02-01,2022-02-01,株式会社Ｋｙｏｅｉ．Ｅｎｔｅｒｐｒｉｓｅ,,株式会社,北海道,上川郡和寒町,字中和１１８９番地,,01,464,0980122,,,,,,,2022-02-01,1,,,,,キョーエイエンタープライズ,0
802,3700150106671,新規,0,2022-02-01,2022-01-17,大道理をよくする会,,その他,山口県,周南市,大字大道理１３３２,,35,215,7450242,,,,,,,2022-01-17,1,,,,,オオドウリヲヨクスルカイ,0
811,4010001224262,新規,0,2022-02-01,2022-02-01,株式会社ｅ－Ｃｏｎｎｅｃｔ,,株式会社,東京都,中央区,銀座１丁目２２番１１号銀座大竹ビジデンス２階,,13,102,1040061,,,,,,,2022-02-01,1,,,,,イーコネクト,0
812,4010001224270,新規,0,2022-02-01,2022-02-01,七十マイル株式会社,,株式会社,東京都,中央区,勝どき５丁目１２番４－１２０３号,,13,102,1040054,,,,,,,2022-02-01,1,,,,,シチジュウマイル,0
814,4010005034526,新規,0,2022-02-01,2022-02-01,一般社団法人日本マナーマイスター学会,,その他の設立登記法人,東京都,中央区,佃２丁目１番２－３３０３号,,13,102,1040051,,,,,,,2022-02-01,1,,,,,ニホンマナーマイスターガッカイ,0
816,4010103001857,新規,0,2022-02-01,2022-02-01,合同会社Ｅ－ＳＴＹＬＥ,,合同会社,東京都,八王子市,中町４番１２号デジールビル２階,,13,201,1920085,,,,,,,2022-02-01,1,,,,,イースタイル,0
821,4010401165263,新規,0,2022-02-01,2022-02-01,株式会社ｋｏｎ,,株式会社,東京都,港区,高輪３丁目１１番１－１９０４号,,13,103,1080074,,,,,,,2022-02-01,1,,,,,コン,0
829,4010601060586,新規,0,2022-02-01,2022-02-01,フェイス株式会社,,株式会社,東京都,江東区,豊洲３丁目５番３号,,13,108,1350061,,,,,,,2022-02-01,1,,,,,フェイス,0
832,4010701042146,新規,0,2022-02-01,2022-02-01,ＴＳＭ総合ファーム株式会社,,株式会社,東京都,品川区,東五反田２丁目８番８号ＦＬＥＺＩＯ五反田ビル３階,,13,109,1410022,,,,,,,2022-02-01,1,,,,,ティーエスエムソウゴウファーム,0
849,4011001145358,新規,0,2022-02-01,2022-02-01,ｍｅｌａ株式会社,,株式会社,東京都,渋谷区,神宮前６丁目２３－４桑野ビル２Ｆ,,13,113,1500001,,,,,,,2022-02-01,1,,,,,メラ,0
853,4011003014081,新規,0,2022-02-01,2022-02-01,合同会社３３,,合同会社,東京都,渋谷区,神宮前６丁目１７－１５,,13,113,1500001,,,,,,,2022-02-01,1,,,,,サンサン,0
855,4011005009402,新規,0,2022-02-01,2022-02-01,一般財団法人神保教育文化財団,,その他の設立登記法人,東京都,渋谷区,渋谷４丁目５番６号,,13,113,1500002,,,,,,,2022-02-01,1,,,,,ジンボキョウイクブンカザイダン,0
857,4011101097648,新規,0,2022-02-01,2022-02-01,株式会社レヴァンテ,,株式会社,東京都,新宿区,北新宿１丁目２０番４－１３０３号,,13,104,1690074,,,,,,,2022-02-01,1,,,,,レヴァンテ,0
858,4011101097664,新規,0,2022-02-01,2022-02-01,株式会社カイロス,,株式会社,東京都,新宿区,西落合２丁目２１番８号,,13,104,1610031,,,,,,,2022-02-01,1,,,,,カイロス,0
859,4011101097672,新規,0,2022-02-01,2022-02-01,Ｔｅｒａｓｕ株式会社,,株式会社,東京都,新宿区,高田馬場２丁目１４番５号,,13,104,1690075,,,,,,,2022-02-01,1,,,,,テラス,0
860,4011101097680,新規,0,2022-02-01,2022-02-01,株式会社りぼん,,株式会社,東京都,新宿区,新宿１丁目２番８号国久ビル９Ａ,,13,104,1600022,,,,,,,2022-02-01,1,,,,,リボン,0
869,4011701025017,新規,0,2022-02-01,2022-02-01,株式会社ユアーズ,,株式会社,東京都,江戸川区,中葛西７丁目１６番２号,,13,123,1340083,,,,,,,2022-02-01,1,,,,,ユアーズ,0
887,4020001144996,新規,0,2022-02-01,2022-02-01,株式会社Ｆｏｒｃｅ　ｆｏｒ　Ｇｌｏｂａｌ　Ｈｅａｌｔｈ,,株式会社,神奈川県,川崎市多摩区,枡形３丁目２番１７号２０５,,14,135,2140032,,,,,,,2022-02-01,1,,,,,フォースフォーグローバルヘルス,0
888,4020001145004,新規,0,2022-02-01,2022-02-01,株式会社谷戸,,株式会社,神奈川県,横浜市戸塚区,平戸町７６３番地,,14,110,2440803,,,,,,,2022-02-01,1,,,,,ヤト,0
889,4020001145053,新規,0,2022-02-01,2022-02-01,株式会社アリババ,,株式会社,神奈川県,横浜市西区,中央２丁目５３番１２号ノーテアンビエンタリヨコハマ２０３,,14,103,2200051,,,,,,,2022-02-01,1,,,,,アリババ,0
891,4020003021228,新規,0,2022-02-01,2022-02-01,合同会社ＯＲＫＡ,,合同会社,神奈川県,横浜市都筑区,大丸７－２９,,14,118,2240061,,,,,,,2022-02-01,1,,,,,オルカ,0
894,4021001075075,新規,0,2022-02-01,2022-02-01,株式会社ＨＤＡ,,株式会社,神奈川県,藤沢市,辻堂元町６丁目２２番４７号,,14,205,2510043,,,,,,,2022-02-01,1,,,,,エイチディーエー,0
895,4021003011350,新規,0,2022-02-01,2022-02-01,合同会社カレント,,合同会社,神奈川県,逗子市,新宿３丁目８番１９号,,14,208,2490007,,,,,,,2022-02-01,1,,,,,カレント,0
910,4030001146570,新規,0,2022-02-01,2022-02-01,ＥＸＨＡＵＴＥＣＨ　ＪＡＰＡＮ株式会社,,株式会社,埼玉県,比企郡鳩山町,大字大橋２６６番地１,,11,348,3500302,,,,,,,2022-02-01,1,,,,,エキゾテックジャパン,0
911,4030001146587,新規,0,2022-02-01,2022-02-01,株式会社ＲＫ,,株式会社,埼玉県,熊谷市,円光１丁目１６番１９号,,11,202,3600813,,,,,,,2022-02-01,1,,,,,アールケイ,0
912,4030001146595,新規,0,2022-02-01,2022-02-01,株式会社相続ネットブレイン,,株式会社,埼玉県,さいたま市浦和区,常盤２丁目１７－１１,,11,107,3300061,,,,,,,2022-02-01,1,,,,,ソウゾクネットブレイン,0
956,4120001243458,新規,0,2022-02-01,2022-02-01,新宿ファルマシア株式会社,,株式会社,大阪府,大阪市北区,太融寺町８番地２号エーワンビル６階,,27,127,5300051,,,,,,,2022-02-01,1,,,,,シンジュクファルマシア,0
957,4120001243499,新規,0,2022-02-01,2022-02-01,株式会社Ｈ２ＩＰ,,株式会社,大阪府,大阪市平野区,平野元町４－７－４０４,,27,126,5470047,,,,,,,2022-02-01,1,,,,,エイチトゥーアイピー,0
964,4120101065018,新規,0,2022-02-01,2022-02-01,松井金網ホールディングス株式会社,,株式会社,大阪府,高石市,高砂２丁目７番４号,,27,225,5920001,,,,,,,2022-02-01,1,,,,,マツイカナアミホールディングス,0
966,4120105009516,新規,0,2022-02-01,2022-02-01,医療法人徳糸会,,その他の設立登記法人,大阪府,堺市西区,鳳東町１丁７番３０号平兵衛ビル１階,,27,144,5938324,,,,,,,2022-02-01,1,,,,,トクシカイ,0
969,4130001071016,新規,0,2022-02-01,2022-02-01,株式会社健康ＣＬＵＢ,,株式会社,京都府,京丹後市,峰山町荒山１２９３番地の１,,26,212,6270004,,,,,,,2022-02-01,1,,,,,ケンコウクラブ,0
970,4130001071024,新規,0,2022-02-01,2022-02-01,株式会社ゲートホールディングス,,株式会社,京都府,京都市伏見区,竹田向代町９番地,,26,109,6128418,,,,,,,2022-02-01,1,,,,,ゲートホールディングス,0
976,4140001124714,新規,0,2022-02-01,2022-02-01,太田工業株式会社,,株式会社,兵庫県,神戸市東灘区,御影本町３丁目３番１号,,28,101,6580046,,,,,,,2022-02-01,1,,,,,オオタコウギョウ,0
982,4140005026015,新規,0,2022-02-01,2022-02-01,一般社団法人ひとはな,,その他の設立登記法人,兵庫県,神戸市中央区,加納町４丁目８番１７号,,28,110,6500001,,,,,,,2022-02-01,1,,,,,ヒトハナ,0
995,4180001149749,新規,0,2022-02-01,2022-02-01,株式会社エステＢＩＺＩＮ,,株式会社,愛知県,名古屋市東区,東片端町４８番地,,23,102,4610015,,,,,,,2022-02-01,1,,,,,エステビジン,0
996,4180001149765,新規,0,2022-02-01,2022-02-01,株式会社Ｊ　ａｎｄ　Ｓ,,株式会社,愛知県,大府市,共和町末広３番地１９,,23,223,4740057,,,,,,,2022-02-01,1,,,,,ジェイアンドエス,0
1013,4250001019382,新規,0,2022-02-01,2022-02-01,株式会社ＬＩＦＥＥＤ,,株式会社,山口県,下関市,熊野西町７番６号ウエスト熊野Ａ棟２号,,35,201,7510851,,,,,,,2022-02-01,1,,,,,ライフィード,0
1016,4260001036476,新規,0,2022-02-01,2022-02-01,株式会社美宝工業,,株式会社,岡山県,津山市,院庄１０５８番地１,,33,203,7080014,,,,,,,2022-02-01,1,,,,,ミホウコウギョウ,0
1022,4280003001575,新規,0,2022-02-01,2022-02-01,合同会社キュリアスリンク,,合同会社,島根県,出雲市,斐川町直江１５５５番地６８,,32,203,6990631,,,,,,,2022-02-01,1,,,,,,0
1031,4300003001787,新規,0,2022-02-01,2022-02-01,Ｎｕｅｖｏ　Ｐｕｅｎｔｅ合同会社,,合同会社,佐賀県,鹿島市,大字高津原３３８２番地１ルーミング高島Ｂ２０１,,41,207,8491311,,,,,,,2022-02-01,1,,,,,ヌエボプエンテ,0
1039,4330005010461,新規,0,2022-02-01,2022-02-01,一般社団法人ｋｉｔｅ,,その他の設立登記法人,熊本県,宇城市,小川町小川８５番地,,43,213,8690621,,,,,,,2022-02-01,1,,,,,カイト,0
1072,4430001085893,新規,0,2022-02-01,2022-02-01,株式会社ジイツウ,,株式会社,北海道,札幌市中央区,北一条西３丁目３ばらと北一条ビル９Ｆ－９,,01,101,0600001,,,,,,,2022-02-01,1,,,,,ジイツウ,0
1074,4460101007134,新規,0,2022-02-01,2022-02-01,株式会社ＴＥＣＯ’Ｓ,,株式会社,北海道,帯広市,緑ケ丘７丁目２番地グリーン７ビル４０１,,01,207,0800846,,,,,,,2022-02-01,1,,,,,テコズ,0
1078,4500005008455,新規,0,2022-02-01,2022-02-01,特定非営利活動法人ゆめさき,,その他の設立登記法人,愛媛県,松山市,余戸南２丁目２５番３０号飛鳥ビル２階,,38,201,7900047,,,,,,,2022-02-01,1,,,,,ユメサキ,0
1079,4700150105400,新規,0,2022-02-01,2021-10-20,Ｒｉｎｇｅ３８℃実行委員会,,その他,宮城県,仙台市宮城野区,五輪２丁目１－８　１Ｆ,,04,102,9830842,,,,,,,2021-10-20,1,,,,,リンゲサンジユウハチドジツコウイインカイ,0
1080,4700150106646,新規,0,2022-02-01,2022-01-14,白石区成人の日行事実施委員会,,その他,北海道,札幌市白石区,南郷通１丁目南８－１（白石区市民部地域振興課内）,,01,104,0030022,,,,,,,2022-01-14,1,,,,,シロイシクセイジンノヒギヨウジジツシイインカイ,0
1088,5010001224204,新規,0,2022-02-01,2022-02-01,株式会社エイトクリエイション,,株式会社,東京都,千代田区,外神田３丁目８番６号,,13,101,1010021,,,,,,,2022-02-01,1,,,,,エイトクリエイション,0
1089,5010001224229,新規,0,2022-02-01,2022-02-01,ＷＯフードサービス株式会社,,株式会社,東京都,中央区,銀座７丁目１３番１号,,13,102,1040061,,,,,,,2022-02-01,1,,,,,ダブルオーフードサービス,0
1090,5010001224253,新規,0,2022-02-01,2022-02-01,株式会社Ｂｌｏｏｍｉｎｇ　Ｓｔａｂｌｅｓ,,株式会社,東京都,中央区,日本橋人形町１丁目１２番１１号,,13,102,1030013,,,,,,,2022-02-01,1,,,,,ブルーミングステーブル,0
1091,5010001224261,新規,0,2022-02-01,2022-02-01,株式会社Ｐｉｋｏ,,株式会社,東京都,文京区,大塚４丁目２０番３号,00125581,13,105,1120012,,,,,,,2022-02-01,1,,,,,ピコ,0
1093,5010003036845,新規,0,2022-02-01,2022-02-01,アクティブリーシング１４号合同会社,,合同会社,東京都,千代田区,麹町４丁目７番２号Ｄａｉｗａ麹町４丁目ビル８階,,13,101,1020083,,,,,,,2022-02-01,1,,,,,アクティブリーシングジュウヨンゴウ,0
1094,5010003036878,新規,0,2022-02-01,2022-02-01,合同会社Ｔｏｇｅｔｈｅｒ．Ｆｏｒｅｖｅｒ,,合同会社,東京都,文京区,本郷１丁目３５番２８－１１０２号,,13,105,1130033,,,,,,,2022-02-01,1,,,,,トゥギャザーフォーエヴァー,0
1095,5010005034541,新規,0,2022-02-01,2022-02-01,税理士法人ひまわり総研,,その他の設立登記法人,東京都,千代田区,丸の内１丁目１１番１号,,13,101,1000005,,,,,,,2022-02-01,1,,,,,ヒマワリソウケン,0
1101,5010401165238,新規,0,2022-02-01,2022-02-01,株式会社ＭＵＲＡＳＡＫＩ,,株式会社,東京都,港区,海岸３丁目２０番２０号ヨコソーレインボータワーハイツ１６１０,,13,103,1080022,,,,,,,2022-02-01,1,,,,,ムラサキ,0
1102,5010401165246,新規,0,2022-02-01,2022-02-01,株式会社ＤＳＰ,,株式会社,東京都,港区,海岸１丁目１番１－８１２号,,13,103,1050022,,,,,,,2022-02-01,1,,,,,ディーエスピー,0
1103,5010401165254,新規,0,2022-02-01,2022-02-01,カルチャーラボ株式会社,,株式会社,東京都,港区,高輪２丁目１－１３,,13,103,1080074,,,,,,,2022-02-01,1,,,,,カルチャーラボ,0
1104,5010401165262,新規,0,2022-02-01,2022-02-01,株式会社ＨＡＲＩＳ,,株式会社,東京都,港区,南青山２丁目２番１５号ウィン青山９４２号室,,13,103,1070062,,,,,,,2022-02-01,1,,,,,ハリス,0
1105,5010403026834,新規,0,2022-02-01,2022-02-01,アゾットコンサルティング合同会社,,合同会社,東京都,港区,浜松町１丁目３－２－２６０３,,13,103,1050013,,,,,,,2022-02-01,1,,,,,アゾットコンサルティング,0
1110,5010501048391,新規,0,2022-02-01,2022-02-01,株式会社ワイズ,,株式会社,東京都,台東区,日本堤２丁目１７番３－１００１号ＡＥＷ．ＨＩＬＬＴＯＰ,,13,106,1110021,,,,,,,2022-02-01,1,,,,,ワイズ,0
1114,5010601060585,新規,0,2022-02-01,2022-02-01,株式会社Ｈａｎｇ・Ｌｏｏｓｅ,,株式会社,東京都,江東区,東雲１丁目９番４２－１５１０号,,13,108,1350062,,,,,,,2022-02-01,1,,,,,ハングルース,0
1115,5010601060593,新規,0,2022-02-01,2022-02-01,株式会社ＹＧＰ,,株式会社,東京都,墨田区,江東橋２丁目１１番１３号２階,,13,107,1300022,,,,,,,2022-02-01,1,,,,,ワイジーピー,0
1116,5010701042153,新規,0,2022-02-01,2022-02-01,アイス株式会社,,株式会社,東京都,品川区,大井６丁目１０番９号Ｃ－ｆｒａｔ１０１,,13,109,1400014,,,,,,,2022-02-01,1,,,,,アイス,0
1118,5010901050253,新規,0,2022-02-01,2022-02-01,株式会社イデオプランニング,,株式会社,東京都,世田谷区,南烏山５丁目２４番１０－４０８号,,13,112,1570062,,,,,,,2022-02-01,1,,,,,イデオプランニング,0
1119,5010901050261,新規,0,2022-02-01,2022-02-01,株式会社Ｇｕｅｒｏ,,株式会社,東京都,世田谷区,駒沢１丁目１５番９号,,13,112,1540012,,,,,,,2022-02-01,1,,,,,グエロ,0
1122,5010903007111,新規,0,2022-02-01,2022-02-01,合同会社都市創造プラットフォーム研究所,,合同会社,東京都,世田谷区,砧８丁目２６番２９号,,13,112,1570073,,,,,,,2022-02-01,1,,,,,トシソウゾウプラットフォームケンキュウジョ,0
1127,5011001145332,新規,0,2022-02-01,2022-02-01,株式会社一度,,株式会社,東京都,渋谷区,広尾５丁目１４番２号,,13,113,1500012,,,,,,,2022-02-01,1,,,,,イチド,0
1128,5011001145340,新規,0,2022-02-01,2022-02-01,株式会社アカデミクス,,株式会社,東京都,渋谷区,道玄坂１丁目１０番８号渋谷道玄坂東急ビル２Ｆ－Ｃ,,13,113,1500043,,,,,,,2022-02-01,1,,,,,アカデミクス,0
1129,5011001145349,新規,0,2022-02-01,2022-02-01,株式会社ＴＰＹ,,株式会社,東京都,渋谷区,渋谷２丁目１９－１５宮益坂ビルディング６０９,,13,113,1500002,,,,,,,2022-02-01,1,,,,,ティーピーワイ,0
1130,5011001145365,新規,0,2022-02-01,2022-02-01,株式会社エンタＢｉｚ,,株式会社,東京都,渋谷区,千駄ヶ谷３丁目２番８－６０２号,,13,113,1510051,,,,,,,2022-02-01,1,,,,,エンタビズ,0
1131,5011001145398,新規,0,2022-02-01,2022-02-01,株式会社オフィス牧田,,株式会社,東京都,渋谷区,道玄坂１丁目１０番８号渋谷道玄坂東急ビル２Ｆ－Ｃ,,13,113,1500043,,,,,,,2022-02-01,1,,,,,オフィスマキタ,0
1143,5011101097564,新規,0,2022-02-01,2022-02-01,情報技術コミュニケーションズ株式会社,,株式会社,東京都,新宿区,新宿１丁目３６番２号新宿第七葉山ビル,,13,104,1600022,,,,,,,2022-02-01,1,,,,,ジョウホウギジュツコミュニケーションズ,0
1144,5011101097639,新規,0,2022-02-01,2022-02-01,株式会社千代,,株式会社,東京都,新宿区,新宿６丁目２９番７号ウィステリアウッズ５０１号,,13,104,1600022,,,,,,,2022-02-01,1,,,,,チヨ,0
1145,5011101097663,新規,0,2022-02-01,2022-02-01,株式会社エルピス,,株式会社,東京都,新宿区,西落合２丁目２１番８号,,13,104,1610031,,,,,,,2022-02-01,1,,,,,エルピス,0
1146,5011101097671,新規,0,2022-02-01,2022-02-01,株式会社ＷＹＮＳ,,株式会社,東京都,新宿区,西新宿３丁目７番１号新宿パークタワー３０Ｆ,,13,104,1600023,,,,,,,2022-02-01,1,,,,,ワインズ,0
1148,5011301027528,新規,0,2022-02-01,2022-02-01,株式会社ａｎｓｏｌ,,株式会社,東京都,杉並区,西荻北２丁目３番９号コメットビル６階,,13,115,1670042,,,,,,,2022-02-01,1,,,,,アンソル,0
1156,5012403005223,新規,0,2022-02-01,2022-02-01,合同会社みらい想造,,合同会社,東京都,多摩市,豊ヶ丘２丁目６番地７－３０６,,13,224,2060031,,,,,,,2022-02-01,1,,,,,ミライソウゾウ,0
1179,5021001075090,新規,0,2022-02-01,2022-02-01,株式会社ＳＡＫＡＥ,,株式会社,神奈川県,座間市,南栗原３丁目２０番４１号,,14,216,2520015,,,,,,,2022-02-01,1,,,,,サカエ,0
1184,5021003011358,新規,0,2022-02-01,2022-02-01,リトルウィングス合同会社,,合同会社,神奈川県,秦野市,今泉９８６,,14,211,2570014,,,,,,,2022-02-01,1,,,,,リトルウィングス,0
1186,5030001146495,新規,0,2022-02-01,2022-02-01,福華国際株式会社,,株式会社,埼玉県,川越市,仙波町３丁目３３番地９グロリアスマンション・ミフジ３号館１０５号室,,11,201,3500034,,,,,,,2022-02-01,1,,,,,フクカコクサイ,0
1187,5030001146537,新規,0,2022-02-01,2022-02-01,株式会社エムパッケージ,,株式会社,埼玉県,川口市,末広２丁目７番１５号,,11,203,3320006,,,,,,,2022-02-01,1,,,,,エムパッケージ,0
1189,5030003018759,新規,0,2022-02-01,2022-02-01,レイマン合同会社,,合同会社,埼玉県,入間市,大字野田８６７番地１,,11,225,3580054,,,,,,,2022-02-01,1,,,,,レイマン,0
1194,5040001121992,新規,0,2022-02-01,2022-02-01,三共エンジ株式会社,,株式会社,千葉県,市原市,飯沼８３１番地,,12,219,2900037,,,,,,,2022-02-01,1,,,,,サンキョウエンジ,0
1195,5040001122009,新規,0,2022-02-01,2022-02-01,株式会社開拓運輸,,株式会社,千葉県,八街市,八街ろ３１番地１５４,,12,230,2891144,,,,,,,2022-02-01,1,,,,,カイタクウンユ,0
1196,5040003019392,新規,0,2022-02-01,2022-02-01,合同会社Ｅｌｕｒａ,,合同会社,千葉県,習志野市,実籾２丁目４０番１－９０９号,00125583,12,216,2750002,,,,,,,2022-02-01,1,,,,,エルーラ,0
1197,5040005021504,新規,0,2022-02-01,2022-02-01,一般社団法人バイオミミクリー・ジャパン,,その他の設立登記法人,千葉県,柏市,若柴１７８番地４柏の葉キャンパス１４８街区２オフィス棟６階,,12,217,2770871,,,,,,,2022-02-01,1,,,,,バイオミミクリージャパン,0
1198,5050001050555,新規,0,2022-02-01,2022-02-01,ＯＢＡＩＤ　ＴＲＡＤＩＮＧ株式会社,,株式会社,茨城県,古河市,東山田２９４４番１１２,,08,204,3060112,,,,,,,2022-02-01,1,,,,,オバイドトレーディング,0
1202,5050005013005,新規,0,2022-02-01,2022-02-01,特定非営利活動法人はーとふる,,その他の設立登記法人,茨城県,鹿嶋市,大字宮中５２７９番地１９,,08,222,3140031,,,,,,,2022-02-01,1,,,,,ハートフル,0
1204,5060005009943,新規,0,2022-02-01,2022-02-01,一般社団法人あい育英会,,その他の設立登記法人,栃木県,小山市,西城南６丁目８番地２０,,09,208,3230820,,,,,,,2022-02-01,1,,,,,アイイクエイカイ,0
1206,5070001038895,新規,0,2022-02-01,2022-02-01,株式会社ハウスサービス,,株式会社,群馬県,伊勢崎市,曲沢町６９番地,,10,204,3792203,,,,,,,2022-02-01,1,,,,,ハウスサービス,0
1213,5080003002725,新規,0,2022-02-01,2022-02-01,合同会社ＰＮＫ,,合同会社,静岡県,焼津市,石津４８８－１,,22,212,4250041,,,,,,,2022-02-01,1,,,,,ピーエヌケー,0
1214,5080005007425,新規,0,2022-02-01,2022-02-01,特定非営利活動法人Ｎｅｗ　Ｕｎｉｖｅｒｓａｌ　Ａｃｔ,,その他の設立登記法人,静岡県,静岡市駿河区,有東３丁目４番１７号,,22,102,4228032,,,,,,,2022-02-01,1,,,,,ニューユニバーサルアクト,0
1232,5120001243399,新規,0,2022-02-01,2022-02-01,株式会社ナカサヤ,,株式会社,大阪府,大阪市鶴見区,今津北４丁目１２番７号,,27,124,5380041,,,,,,,2022-02-01,1,,,,,ナカサヤ,0
1233,5120001243432,新規,0,2022-02-01,2022-02-01,株式会社ＦＩＢＥ,,株式会社,大阪府,大阪市西淀川区,花川１丁目１４番２８号,,27,113,5550023,,,,,,,2022-02-01,1,,,,,ファイブ,0
1234,5120001243457,新規,0,2022-02-01,2022-02-01,豊収株式会社,,株式会社,大阪府,大阪市東成区,東小橋１丁目１７－３１グランドハイツ東小橋３０７号室,,27,115,5370024,,,,,,,2022-02-01,1,,,,,ホウシュウ,0
1235,5120001243465,新規,0,2022-02-01,2022-02-01,ＡＵＧＲＥＥＮ株式会社,,株式会社,大阪府,大阪市北区,豊崎３丁目１５番５号ＴＫビル２Ｆ,,27,127,5310072,,,,,,,2022-02-01,1,,,,,オーグリーン,0
1236,5120001243548,新規,0,2022-02-01,2022-02-01,株式会社Ｊ．Ｍ　ＴＲＡＤＥ,,株式会社,大阪府,大阪市生野区,新今里７丁目３番２１号,,27,116,5440001,,,,,,,2022-02-01,1,,,,,ジェイエムトレード,0
1237,5120001243556,新規,0,2022-02-01,2022-02-01,Ｊ＆Ｙ　Ｍｅｄｉｃａｌ株式会社,,株式会社,大阪府,大阪市住吉区,清水丘３丁目１３番１２－１２０２号,,27,120,5580033,,,,,,,2022-02-01,1,,,,,ジェイアンドワイメディカル,0
1238,5120001243564,新規,0,2022-02-01,2022-02-01,株式会社ＯｎｅＧａｔｅ,,株式会社,大阪府,大阪市東成区,深江南２丁目１３番２３号２０３ハイム４０１号,,27,115,5370002,,,,,,,2022-02-01,1,,,,,ワンゲート,0
1241,5120005022766,新規,0,2022-02-01,2022-02-01,医療法人聡仁会,,その他の設立登記法人,大阪府,大阪市平野区,背戸口５丁目５番１６号,,27,126,5470034,,,,,,,2022-02-01,1,,,,,ソウジンカイ,0
1242,5120103004550,新規,0,2022-02-01,2022-02-01,ラフテル合同会社,,合同会社,大阪府,堺市堺区,築港八幡町１－１,,27,141,5900901,,,,,,,2022-02-01,1,,,,,ラフテル,0
1243,5120105009515,新規,0,2022-02-01,2022-02-01,一般社団法人ファクター,,その他の設立登記法人,大阪府,泉佐野市,市場東２丁目１３番１８号４階,,27,213,5980005,,,,,,,2022-02-01,1,,,,,ファクター,0
1246,5120905006273,新規,0,2022-02-01,2022-02-01,医療法人蒼隆会,,その他の設立登記法人,大阪府,箕面市,船場西３丁目８番１０号,,27,220,5620036,,,,,,,2022-02-01,1,,,,,ソウリュウカイ,0
1247,5122003002262,新規,0,2022-02-01,2022-02-01,合同会社恵,,合同会社,大阪府,大東市,北条１丁目１番１２号,,27,218,5740011,,,,,,,2022-02-01,1,,,,,メグミ,0
1248,5130003007727,新規,0,2022-02-01,2022-02-01,ＰＡＲＣ合同会社,,合同会社,京都府,京都市下京区,五条通新町西入西錺屋町２５番地つくるビル４階,,26,106,6008108,,,,,,,2022-02-01,1,,,,,パーク,0
1259,5140003017287,新規,0,2022-02-01,2022-02-01,合同会社エコ・アセットマネジメント,,合同会社,兵庫県,芦屋市,伊勢町５番７号,,28,206,6590052,,,,,,,2022-02-01,1,,,,,エコアセットマネジメント,0
1282,5180001149772,新規,0,2022-02-01,2022-02-01,愛華学園株式会社,,株式会社,愛知県,北名古屋市,鹿田永塚１１番地３,,23,234,4810004,,,,,,,2022-02-01,1,,,,,アイカガクエン,0
1283,5180001149789,新規,0,2022-02-01,2022-02-01,株式会社アオナツ,,株式会社,愛知県,名古屋市瑞穂区,瑞穂通８丁目２５番地（ｍａｉｓｏｎｓｐａｄｅ５０４号）,,23,108,4670806,,,,,,,2022-02-01,1,,,,,アオナツ,0
1284,5180001149797,新規,0,2022-02-01,2022-02-01,軽貨物コーチ株式会社,,株式会社,愛知県,名古屋市天白区,植田３丁目１７０１番地ワイズビル６０１号,,23,116,4680051,,,,,,,2022-02-01,1,,,,,ケイカモツコーチ,0
1286,5190001029065,新規,0,2022-02-01,2022-02-01,株式会社ＨＡＬ,,株式会社,三重県,四日市市,山城町３８８番地２,,24,202,5128048,,,,,,,2022-02-01,1,,,,,ハル,0
1287,5190001029073,新規,0,2022-02-01,2022-02-01,株式会社花椿,,株式会社,三重県,鳥羽市,相差町１１８９番地,,24,211,5170032,,,,,,,2022-02-01,1,,,,,ハナツバキ,0
1292,5220001024673,新規,0,2022-02-01,2022-02-01,株式会社ＣＲＥＸ,,株式会社,石川県,小松市,串町セ１００番地１１,,17,203,9230965,,,,,,,2022-02-01,1,,,,,クレックス,0
1303,5260003003779,新規,0,2022-02-01,2022-02-01,合同会社ＯＮ,,合同会社,岡山県,総社市,清音上中島１６３番１３,,33,208,7191175,,,,,,,2022-02-01,1,,,,,オン,0
1312,5290001096293,新規,0,2022-02-01,2022-02-01,株式会社シュテルン,,株式会社,福岡県,福岡市博多区,吉塚５丁目２番１０号アルファディオ吉塚１Ａ,,40,132,8120041,,,,,,,2022-02-01,1,,,,,シュテルン,0
1318,5320001018871,新規,0,2022-02-01,2022-02-01,株式会社ＷＩＮＮＥＲＳ,,株式会社,大分県,大分市,大字中戸次４３２９番地の２８,,44,201,8797761,,,,,,,2022-02-01,1,,,,,ウイナーズ,0
1323,5350003004017,新規,0,2022-02-01,2022-02-01,合同会社ＮＥＸＵＳ,,合同会社,宮崎県,延岡市,夏田町２２９－５,,45,203,8820005,,,,,,,2022-02-01,1,,,,,ネクサス,0
1326,5360001029964,新規,0,2022-02-01,2022-02-01,株式会社ＲＭ・おきなわ,,株式会社,沖縄県,那覇市,天久２丁目１９番８号サンパティーク３階,,47,201,9000005,,,,,,,2022-02-01,1,,,,,アールエムオキナワ,0
1327,5360003011771,新規,0,2022-02-01,2022-02-01,合同会社広進,,合同会社,沖縄県,那覇市,首里久場川町１丁目６６番地,,47,201,9030807,,,,,,,2022-02-01,1,,,,,コウシン,0
1350,5420003002442,新規,0,2022-02-01,2022-02-01,合同会社リアン,,合同会社,青森県,青森市,大字大野字前田６６番地２４五番館Ｆ１０５号,,02,201,0300852,,,,,,,2022-02-01,1,,,,,リアン,0
1353,5430003013587,新規,0,2022-02-01,2022-02-01,合同会社Ｎｏｒｔｈ　Ｕｎｉｏｎ,,合同会社,北海道,北広島市,大曲柏葉４丁目７番地１３,,01,234,0611273,,,,,,,2022-02-01,1,,,,,ノースユニオン,0
1365,5700150106876,新規,0,2022-02-01,2022-02-01,白鷹北部地区棚田地域振興協議会,,その他,山形県,西置賜郡白鷹町,大字荒砥甲８３３番地,,06,402,9920831,,,,,,,2022-02-01,1,,,,,シラタカホクブチクタナダチイキシンコウキョウギカイ,0
1377,6010001224203,新規,0,2022-02-01,2022-02-01,東京ナノ株式会社,,株式会社,東京都,千代田区,岩本町３丁目８番８号中和秋葉原ビル,,13,101,1010032,,,,,,,2022-02-01,1,,,,,トウキョウナノ,0
1378,6010001224211,新規,0,2022-02-01,2022-02-01,ＯＬＡ　ＰＡＲＴＹ　ＪＡＰＡＮ株式会社,,株式会社,東京都,千代田区,内幸町２丁目２番２号富国生命ビル渥美坂井法律事務所・外国法共同事業所内,,13,101,1000011,,,,,,,2022-02-01,1,,,,,オラパーティージャパン,0
1379,6010001224228,新規,0,2022-02-01,2022-02-01,株式会社チーフゲームズ,,株式会社,東京都,中央区,東日本橋２丁目２７番３－１１０１号,,13,102,1030004,,,,,,,2022-02-01,1,,,,,チーフゲームズ,0
1380,6010001224260,新規,0,2022-02-01,2022-02-01,株式会社ＤＥＮ,,株式会社,東京都,中央区,銀座７丁目３番１４号,,13,102,1040061,,,,,,,2022-02-01,1,,,,,デン,0
1383,6010003036869,新規,0,2022-02-01,2022-02-01,橘霞合同会社,,合同会社,東京都,文京区,関口２丁目５番１４号７０９,,13,105,1120014,,,,,,,2022-02-01,1,,,,,キッカ,0
1384,6010005034524,新規,0,2022-02-01,2022-02-01,ステラリンクス行政書士法人,,その他の設立登記法人,東京都,千代田区,内神田３丁目１１番１号菊原ビル３Ｆ,,13,101,1010047,,,,,,,2022-02-01,1,,,,,ステラリンクス,0
1385,6010005034532,新規,0,2022-02-01,2022-02-01,一般社団法人ＡＬＰＨＡ,,その他の設立登記法人,東京都,中央区,日本橋兜町５番１号兜町第１平和ビル７階,,13,102,1030026,,,,,,,2022-02-01,1,,,,,アルファ,0
1395,6010401165253,新規,0,2022-02-01,2022-02-01,株式会社Ａｓｔａｔｅ,,株式会社,東京都,港区,新橋５丁目３１番８号ル・グラシエルＢＬＤＧ．３２－３階,,13,103,1050004,,,,,,,2022-02-01,1,,,,,エステート,0
1396,6010401165261,新規,0,2022-02-01,2022-02-01,株式会社ＶＩＶＡＣａｒｅｅｒアカデミー,,株式会社,東京都,港区,港南１丁目９番３６号,,13,103,1080075,,,,,,,2022-02-01,1,,,,,ビバキャリアアカデミー,0
1406,6010601060592,新規,0,2022-02-01,2022-02-01,株式会社ｅｆｆ,,株式会社,東京都,墨田区,緑４丁目２９番７号,,13,107,1300021,,,,,,,2022-02-01,1,,,,,エフ,0
1408,6010603009365,新規,0,2022-02-01,2022-02-01,合同会社ソサエティ・アンド・ミー,,合同会社,東京都,墨田区,京島２丁目１５番８号,,13,107,1310046,,,,,,,2022-02-01,1,,,,,ソサエティアンドミー,0
1411,6010901050260,新規,0,2022-02-01,2022-02-01,株式会社Ｈ＆Ｚ,,株式会社,東京都,世田谷区,上馬２丁目２２番６号９０２号室,,13,112,1540011,,,,,,,2022-02-01,1,,,,,エイチアンドズィー,0
1412,6010901050269,新規,0,2022-02-01,2022-02-01,株式会社森撰堂,,株式会社,東京都,世田谷区,北沢３丁目２番１１号,,13,112,1550031,,,,,,,2022-02-01,1,,,,,モリセンドウ,0
1415,6011001145331,新規,0,2022-02-01,2022-02-01,株式会社エクサプローズＰｒｏ．,,株式会社,東京都,渋谷区,神南１丁目４番１３号プラウドジェム渋谷神南２０３,,13,113,1500041,,,,,,,2022-02-01,1,,,,,エクサプローズプロモーション,0
1416,6011001145372,新規,0,2022-02-01,2022-02-01,株式会社パウ,,株式会社,東京都,渋谷区,広尾５丁目１４番２号,,13,113,1500012,,,,,,,2022-02-01,1,,,,,パウ,0
1417,6011001145397,新規,0,2022-02-01,2022-02-01,株式会社サンライズ,,株式会社,東京都,渋谷区,恵比寿西２丁目１２番９号コーポエビス２０４号室,,13,113,1500021,,,,,,,2022-02-01,1,,,,,サンライズ,0
1419,6011003014096,新規,0,2022-02-01,2022-02-01,合同会社ポルト,,合同会社,東京都,目黒区,上目黒３丁目４４番２６号,,13,110,1530051,,,,,,,2022-02-01,1,,,,,ポルト,0
1424,6011101097621,新規,0,2022-02-01,2022-02-01,ＴＳＳＬ株式会社,,株式会社,東京都,新宿区,高田馬場１丁目３１番８号,,13,104,1690075,,,,,,,2022-02-01,1,,,,,ティーエスエスエル,0
1425,6011101097646,新規,0,2022-02-01,2022-02-01,株式会社はづきカンパニー,,株式会社,東京都,新宿区,神楽坂５丁目２０番地５,,13,104,1620825,,,,,,,2022-02-01,1,,,,,ハヅキカンパニー,0
1426,6011101097662,新規,0,2022-02-01,2022-02-01,株式会社アネモイ,,株式会社,東京都,新宿区,西落合２丁目２１番８号,,13,104,1610031,,,,,,,2022-02-01,1,,,,,アネモイ,0
1427,6011101097687,新規,0,2022-02-01,2022-02-01,おおみ株式会社,,株式会社,東京都,新宿区,新宿５丁目１１番１３号,,13,104,1600022,,,,,,,2022-02-01,1,,,,,オオミ,0
1436,6011801040277,新規,0,2022-02-01,2022-02-01,株式会社マイドラ,,株式会社,東京都,足立区,千住河原町２７－３竹林ビル１０１号,,13,121,1200037,,,,,,,2022-02-01,1,,,,,マイドラ,0
1444,6012705002289,新規,0,2022-02-01,2022-02-01,一般社団法人喜風采栄養管理健康サポート協会,,その他の設立登記法人,東京都,東村山市,秋津町５丁目３０番地１－８０４号,,13,213,1890001,,,,,,,2022-02-01,1,,,,,キフネエイヨウカンリケンコウサポートキョウカイ,0
1460,6020001144986,新規,0,2022-02-01,2022-02-01,株式会社エムティー,,株式会社,神奈川県,川崎市川崎区,渡田４丁目８番２８号２Ｆ,,14,131,2100837,,,,,,,2022-02-01,1,,,,,エムティー,0
1461,6020001145027,新規,0,2022-02-01,2022-02-01,株式会社ＡＲＸ,,株式会社,神奈川県,横浜市保土ケ谷区,常盤台３２番１８－２号,,14,106,2400067,,,,,,,2022-02-01,1,,,,,アークス,0
1467,6021003011357,新規,0,2022-02-01,2022-02-01,キスアンドライドシステム合同会社,,合同会社,神奈川県,中郡二宮町,二宮９７番地の５０,,14,342,2590123,,,,,,,2022-02-01,1,,,,,キスアンドライドシステム,0
1487,6040001121991,新規,0,2022-02-01,2022-02-01,株式会社オートペイントワークス,,株式会社,千葉県,浦安市,富士見２丁目３番２６－１０７号,,12,227,2790043,,,,,,,2022-02-01,1,,,,,オートペイントワークス,0
1488,6040001122024,新規,0,2022-02-01,2022-02-01,株式会社レイズコーポレーション,,株式会社,千葉県,市川市,南行徳１丁目２２番９号スターハイツ１０５号,,12,203,2720138,,,,,,,2022-02-01,1,,,,,レイズコーポレーション,0
1495,6040005021503,新規,0,2022-02-01,2022-02-01,行政書士法人ＪＭＴｚ,,その他の設立登記法人,千葉県,千葉市中央区,弁天１丁目３１番１号ファミール千葉弁天町２０２号,,12,101,2600045,,,,,,,2022-02-01,1,,,,,ジェイエムティーゼット,0
1509,6080405007420,新規,0,2022-02-01,2022-02-01,一般社団法人Ｐａｙ　Ｆｏｒｗａｒｄ　Ｓｈｉｚｕｏｋａ,,その他の設立登記法人,静岡県,袋井市,山名町三丁目８番地,,22,216,4370042,,,,,,,2022-02-01,1,,,,,ペイフォワードシズオカ,0
1521,6120001243571,新規,0,2022-02-01,2022-02-01,城東不動産流通株式会社,,株式会社,大阪府,大阪市城東区,今福西３丁目１番１０号,,27,118,5360004,,,,,,,2022-02-01,1,,,,,ジョウトウフドウサンリュウツウ,0
1526,6120003021042,新規,0,2022-02-01,2022-02-01,合同会社ＥＸＡ　ＰＩＥＣＯ,,合同会社,大阪府,大阪市都島区,都島中通２丁目９－４１,,27,102,5340022,,,,,,,2022-02-01,1,,,,,エクサピーコ,0
1537,6120901045539,新規,0,2022-02-01,2022-02-01,株式会社Ｓｈｉｅｌｄｐｌｕｓ,,株式会社,大阪府,池田市,石橋１丁目８－１１－２Ｆ,,27,204,5630032,,,,,,,2022-02-01,1,,,,,シールドプラス,0
1549,6150001025298,新規,0,2022-02-01,2022-02-01,株式会社ライフコンサルティング,,株式会社,奈良県,大和郡山市,高田町２７０番地３,,29,203,6391132,,,,,,,2022-02-01,1,,,,,ライフコンサルティング,0
1551,6180003023438,新規,0,2022-02-01,2022-02-01,こころ結ぶ福祉合同会社,,合同会社,愛知県,知多郡武豊町,字長尾山７６番地第二福屋ビル３０１号室,,23,447,4702346,,,,,,,2022-02-01,1,,,,,ココロムスブフクシ,0
1554,6190001029072,新規,0,2022-02-01,2022-02-01,日本ＣＢＤ株式会社,,株式会社,三重県,四日市市,北浜町２番１７号,,24,202,5100091,,,,,,,2022-02-01,1,,,,,ニホンシービーディ,0
1558,6200003005441,新規,0,2022-02-01,2022-02-01,合同会社ライズ,,合同会社,岐阜県,羽島市,竹鼻町狐穴３２４５番地１,,21,209,5016232,,,,,,,2022-02-01,1,,,,,ライズ,0
1562,6240001059254,新規,0,2022-02-01,2022-02-01,株式会社シゲヤマホールディングス,,株式会社,広島県,福山市,千田町３丁目４８番１３号,,34,207,7200017,,,,,,,2022-02-01,1,,,,,シゲヤマホールディングス,0
1589,6310003004267,新規,0,2022-02-01,2022-02-01,合同会社美咲,,合同会社,長崎県,壱岐市,芦辺町国分川迎触２５４番地,00125579,42,210,8115733,,,,,,,2022-02-01,1,,,,,ミサキ,0
1590,6320001018870,新規,0,2022-02-01,2022-02-01,株式会社ラグジュアリー興産,,株式会社,大分県,大分市,三川上１丁目７番５号,,44,201,8700143,,,,,,,2022-02-01,1,,,,,ラグジュアリーコウサン,0
1597,6360001029955,新規,0,2022-02-01,2022-02-01,株式会社スタジオレゾナンス,,株式会社,沖縄県,那覇市,首里汀良町２丁目７番地２０あしゃぎガーデン１０２,,47,201,9030806,,,,,,,2022-02-01,1,,,,,スタジオレゾナンス,0
1598,6360003011762,新規,0,2022-02-01,2022-02-01,合同会社ＭｉｔａＴｅｃｈ,,合同会社,沖縄県,那覇市,松山１丁目２４－１,,47,201,9000032,,,,,,,2022-02-01,1,,,,,,0
1608,6370001048137,新規,0,2022-02-01,2022-02-01,株式会社エフビーエス,,株式会社,宮城県,仙台市泉区,上谷刈２丁目６番３号,,04,105,9813121,,,,,,,2022-02-01,1,,,,,エフビーエス,0
1609,6370001048153,新規,0,2022-02-01,2022-02-01,株式会社ＡＫＣ,,株式会社,宮城県,仙台市青葉区,国見５丁目４番１５号,,04,101,9810943,,,,,,,2022-02-01,1,,,,,エーケーシー,0
1618,6380001032536,新規,0,2022-02-01,2022-02-01,コトブキ設備株式会社,,株式会社,福島県,相馬郡新地町,駒ケ嶺字山中１８番地の５,,07,561,9792611,,,,,,,2022-02-01,1,,,,,コトブキセツビ,0
1628,6430003013586,新規,0,2022-02-01,2022-02-01,合同会社エムエス・プロパティ,,合同会社,北海道,札幌市豊平区,西岡五条１丁目１６番１７号,,01,105,0620035,,,,,,,2022-02-01,1,,,,,エムエスプロパティ,0
1630,6470001018947,新規,0,2022-02-01,2022-02-01,株式会社アグリクラブ西日本,,株式会社,香川県,観音寺市,大野原町大野原２７９２番地,,37,205,7691611,,,,,,,2022-02-01,1,,,,,アグリクラブニシニホン,0
1633,6470005006411,新規,0,2022-02-01,2022-02-01,一般社団法人せとうち四国観光地域創生研究所,,その他の設立登記法人,香川県,高松市,鍛冶屋町７番地１２,,37,201,7600028,,,,,,,2022-02-01,1,,,,,セトウチシコクカンコウチイキソウセイケンキュウショ,0
1634,6500001023976,新規,0,2022-02-01,2022-02-01,株式会社エーワン工業,,株式会社,愛媛県,松山市,下伊台町乙７３番地９,,38,201,7910112,,,,,,,2022-02-01,1,,,,,エーワンコウギョウ,0
1636,6700150010045,新規,0,2022-02-01,2015-10-09,妙證寺,,その他,東京都,北区,滝野川２丁目３１－８,,13,117,1140023,,,,,,,2015-10-09,1,,,,,ミヨウシヨウジ,0
1637,6700150063299,新規,0,2022-02-01,2015-10-09,大分県立大分雄城台高等学校ＰＴＡ,,その他,大分県,大分市,大字玉沢１２５０,,44,201,8701155,,,,,,,2015-10-09,1,,,,,オオイタケンリツオオイタオギノダイコウトウガツコウピーテイエイ,0
1638,6700150073141,新規,0,2022-02-01,2016-05-09,新小山市民病院労働組合,,その他,栃木県,小山市,大字神鳥谷２２５１－１,,09,208,3230827,,,,,,,2016-05-09,1,,,,,シンオヤマシミンビヨウインロウドウクミアイ,0
1639,6700150106891,新規,0,2022-02-01,2022-02-01,高尾町会,,その他,石川県,金沢市,高尾町ル４２,,17,201,9218153,,,,,,,2022-02-01,1,,,,,タカオチヨウカイ,0
1644,7010001224202,新規,0,2022-02-01,2022-02-01,ｌｉｎｅｎ株式会社,,株式会社,東京都,千代田区,麹町１丁目４番地４－２階ＬＩＦＵＬＬＨＵＢ,,13,101,1020083,,,,,,,2022-02-01,1,,,,,リネン,0
1645,7010001224210,新規,0,2022-02-01,2022-02-01,株式会社プエンテイノベーション,,株式会社,東京都,中央区,新富１丁目９番２－６０１号,,13,102,1040041,,,,,,,2022-02-01,1,,,,,プエンテイノベーション,0
1646,7010001224284,新規,0,2022-02-01,2022-02-01,株式会社ＣＦＰ,,株式会社,東京都,千代田区,九段南１丁目５番６号りそな九段ビル５階ＫＳフロア,,13,101,1020074,,,,,,,2022-02-01,1,,,,,シーエフピー,0
1652,7010005034523,新規,0,2022-02-01,2022-02-01,一般社団法人Ｒ－ｂｏｄｙ総研,,その他の設立登記法人,東京都,千代田区,大手町１丁目１番２号大手門タワーＢ１Ｆ,,13,101,1000004,,,,,,,2022-02-01,1,,,,,アールボディソウケン,0
1662,7010401165244,新規,0,2022-02-01,2022-02-01,ストーンブラザーズ株式会社,,株式会社,東京都,港区,六本木７丁目１７番３６号,,13,103,1060032,,,,,,,2022-02-01,1,,,,,ストーンブラザーズ,0
1663,7010401165269,新規,0,2022-02-01,2022-02-01,株式会社ＩＮＦＲＡＳ　ｋｉｔｃｈｅｎｓ,,株式会社,東京都,港区,三田３丁目７番１８号株式会社ＩＮＦＲＡＳ内,,13,103,1080073,,,,,,,2022-02-01,1,,,,,インフラスキッチンズ,0
1666,7010405020635,新規,0,2022-02-01,2022-02-01,一般社団法人パレス,,その他の設立登記法人,東京都,港区,虎ノ門３丁目２２番１０－２０１号,,13,103,1050001,,,,,,,2022-02-01,1,,,,,パレス,0
1668,7010601060600,新規,0,2022-02-01,2022-02-01,ＫＬＣホールディングス株式会社,,株式会社,東京都,江東区,木場１丁目５番６５号,,13,108,1350042,,,,,,,2022-02-01,1,,,,,ケイエルシーホールディングス,0
1675,7010701042151,新規,0,2022-02-01,2022-02-01,株式会社東京ホームテック,,株式会社,東京都,品川区,小山５丁目１番９－１０３号,,13,109,1420062,,,,,,,2022-02-01,1,,,,,トウキョウホームテック,0
1682,7010901050268,新規,0,2022-02-01,2022-02-01,株式会社ＥＶＩＤＥＮＴＬＹ,,株式会社,東京都,世田谷区,下馬３丁目１２番４－１０１号,,13,112,1540002,,,,,,,2022-02-01,1,,,,,エビデントリー,0
1690,7011001145371,新規,0,2022-02-01,2022-02-01,株式会社ゴーサイン,,株式会社,東京都,渋谷区,神宮前６丁目２３番４号桑野ビル２階,,13,113,1500001,,,,,,,2022-02-01,1,,,,,ゴーサイン,0
1691,7011003014079,新規,0,2022-02-01,2022-02-01,合同会社伸,,合同会社,東京都,渋谷区,幡ヶ谷３丁目７５番１２号,,13,113,1510072,,,,,,,2022-02-01,1,,,,,シン,0
1696,7011101097661,新規,0,2022-02-01,2022-02-01,株式会社コンサイス,,株式会社,東京都,新宿区,西新宿７丁目６番９－５０２号,,13,104,1600023,,,,,,,2022-02-01,1,,,,,コンサイス,0
1697,7011105010125,新規,0,2022-02-01,2022-02-01,一般社団法人ＴＲＩＢＥ,,その他の設立登記法人,東京都,新宿区,若宮町２１番地,,13,104,1620827,,,,,,,2022-02-01,1,,,,,トライブ,0
1701,7011401023994,新規,0,2022-02-01,2022-02-01,株式会社Ｒｅ　Ｒｅｓｔａｕｒａｎｔ,,株式会社,東京都,板橋区,大山金井町５２－４ＴＯＳＣＡ大山１階,,13,119,1730024,,,,,,,2022-02-01,1,,,,,リレストラン,0
1706,7011701025014,新規,0,2022-02-01,2022-02-01,株式会社マルワ,,株式会社,東京都,江戸川区,中央１丁目２１番３－２０７号,,13,123,1320021,,,,,,,2022-02-01,1,,,,,マルワ,0
1710,7012401038818,新規,0,2022-02-01,2022-02-01,ＴＨＥＲＭ株式会社,,株式会社,東京都,稲城市,坂浜３９３－１センチュリー坂浜１０９,,13,225,2060822,,,,,,,2022-02-01,1,,,,,サーム,0
1712,7012403005221,新規,0,2022-02-01,2022-02-01,合同会社ＣＴＳ,,合同会社,東京都,三鷹市,上連雀４丁目２６－３３,,13,204,1810012,,,,,,,2022-02-01,1,,,,,シーティーエス,0
1716,7020001145042,新規,0,2022-02-01,2022-02-01,ｆｏｌｋｌｏｒｅ株式会社,,株式会社,神奈川県,川崎市中原区,木月１丁目３２番３号内田マンション２階,,14,133,2110025,,,,,,,2022-02-01,1,,,,,フォークロア,0
1718,7021001075031,新規,0,2022-02-01,2022-02-01,株式会社モデルコア研究所,,株式会社,神奈川県,相模原市中央区,東淵野辺２丁目６番２０号,,14,152,2520203,,,,,,,2022-02-01,1,,,,,モデルコアケンキュウジョ,0
1743,7040001121990,新規,0,2022-02-01,2022-02-01,株式会社三信,,株式会社,千葉県,市原市,馬立８１３番地,,12,219,2900221,,,,,,,2022-02-01,1,,,,,サンシン,0
1746,7040003019382,新規,0,2022-02-01,2022-02-01,ＮＰＩ合同会社,,合同会社,千葉県,印西市,牧の原５丁目９番地３,,12,231,2701331,,,,,,,2022-02-01,1,,,,,エヌピーアイ,0
1749,7050003006347,新規,0,2022-02-01,2022-02-01,合同会社鮨小野,,合同会社,茨城県,稲敷市,江戸崎甲４５５番地２,,08,229,3000504,,,,,,,2022-02-01,1,,,,,スシオノ,0
1771,7120001243455,新規,0,2022-02-01,2022-02-01,建＿株式会社,00125582,株式会社,大阪府,大阪市東成区,東小橋１丁目１７－３１グランドハイツ東小橋３１２号室,,27,115,5370024,,,,,,,2022-02-01,1,,,,,ケンシン,0
1772,7120001243521,新規,0,2022-02-01,2022-02-01,ＴＨＥ　ＧＡＭＥＳ株式会社,,株式会社,大阪府,大阪市西区,江戸堀１丁目２２番１５－４０１号,,27,106,5500002,,,,,,,2022-02-01,1,,,,,ザゲームス,0
1773,7120001243546,新規,0,2022-02-01,2022-02-01,永輝商事株式会社,,株式会社,大阪府,大阪市中央区,久太郎町１丁目５－３１－６０２,,27,128,5410056,,,,,,,2022-02-01,1,,,,,エイキショウジ,0
1775,7120003021058,新規,0,2022-02-01,2022-02-01,合同会社ペットフル,,合同会社,大阪府,大阪市北区,神山町９－５,,27,127,5300026,,,,,,,2022-02-01,1,,,,,ペットフル,0
1776,7120005022756,新規,0,2022-02-01,2022-02-01,一般社団法人地域人づくり,,その他の設立登記法人,大阪府,大阪市住吉区,東粉浜３丁目３１番１５－１２０５号,,27,120,5580051,,,,,,,2022-02-01,1,,,,,チイキヒトヅクリ,0
1777,7120005022764,新規,0,2022-02-01,2022-02-01,医療法人ニューロワイズ,,その他の設立登記法人,大阪府,大阪市北区,太融寺町３番２４号日本生命梅田第二ビル１階,,27,127,5300051,,,,,,,2022-02-01,1,,,,,ニューロワイズ,0
1778,7120101065023,新規,0,2022-02-01,2022-02-01,前村圧送株式会社,,株式会社,大阪府,岸和田市,南町２４番２３号,,27,202,5960067,,,,,,,2022-02-01,1,,,,,マエムラアッソウ,0
1793,7140003017285,新規,0,2022-02-01,2022-02-01,合同会社マツモト,,合同会社,兵庫県,揖保郡太子町,東保２０－１,,28,464,6711524,,,,,,,2022-02-01,1,,,,,マツモト,0
1795,7140005026020,新規,0,2022-02-01,2022-02-01,医療法人翔孝会,,その他の設立登記法人,兵庫県,伊丹市,西台２丁目７番１８号エスポワールコナカビル１階,,28,207,6640858,,,,,,,2022-02-01,1,,,,,ショウコウカイ,0
1803,7180001149762,新規,0,2022-02-01,2022-02-01,株式会社一之葉,,株式会社,愛知県,一宮市,浅野字内浦５９番地６,,23,203,4910871,,,,,,,2022-02-01,1,,,,,イチノハ,0
1806,7180003023445,新規,0,2022-02-01,2022-02-01,合同会社つながる,,合同会社,愛知県,知多市,にしの台４丁目１５－４－２０６,,23,224,4780055,,,,,,,2022-02-01,1,,,,,ツナガル,0
1807,7180005019623,新規,0,2022-02-01,2022-02-01,社会保険労務士法人葵パートナーズ,,その他の設立登記法人,愛知県,名古屋市中区,正木３丁目１３番１７号ＢＰＲレジデンス金山１Ｆ,,23,106,4600024,,,,,,,2022-02-01,1,,,,,アオイパートナーズ,0
1820,7230001019217,新規,0,2022-02-01,2022-02-01,株式会社鴻源物産,,株式会社,富山県,富山市,水橋専光寺２０７番地,,16,201,9390554,,,,,,,2022-02-01,1,,,,,コウゲンブッサン,0
1823,7240001059245,新規,0,2022-02-01,2022-02-01,株式会社ＯＮｅ　Ｅａｓｅ,,株式会社,広島県,福山市,瀬戸町大字地頭分９番地１４,,34,207,7200837,,,,,,,2022-02-01,1,,,,,ワンイーズ,0
1829,7260001036481,新規,0,2022-02-01,2022-02-01,株式会社アウルセキュリティ,,株式会社,岡山県,岡山市北区,大元２丁目７番１０号,,33,101,7000924,,,,,,,2022-02-01,1,,,,,アウルセキュリティ,0
1831,7270001008447,新規,0,2022-02-01,2022-02-01,株式会社Ｒｈｉｎｏ,,株式会社,鳥取県,倉吉市,山根６３５番地３ポールポジションビル２階,,31,203,6820023,,,,,,,2022-02-01,1,,,,,ライノ,0
1840,7290001096267,新規,0,2022-02-01,2022-02-01,株式会社ＣＯＭＥ　ＣＯＭＥ　ＢＵＲＧＥＲ,,株式会社,福岡県,福岡市中央区,赤坂１丁目４番２７号ＫＩ赤坂ビル４階,,40,133,8100042,,,,,,,2022-02-01,1,,,,,コメコメバーガー,0
1841,7290001096291,新規,0,2022-02-01,2022-02-01,ＰＬＡＣＥＲ株式会社,,株式会社,福岡県,朝倉市,頓田４２４番地１ＭＯＮＴＲＥ・ＨＡＲＵ２０２号室,,40,228,8380064,,,,,,,2022-02-01,1,,,,,プラセル,0
1844,7300001012791,新規,0,2022-02-01,2022-02-01,株式会社Ｂｉｔ‐Ｃｕｒｒｅｎｃｙ’ｓ,,株式会社,佐賀県,嬉野市,塩田町大字谷所乙２２２３番地,,41,209,8491423,,,,,,,2022-02-01,1,,,,,ビットカレンシーズ,0
1849,7330003009222,新規,0,2022-02-01,2022-02-01,合同会社百式,,合同会社,熊本県,熊本市東区,昭和町１７番２８号,,43,102,8612108,,,,,,,2022-02-01,1,,,,,ヒャクシキ,0
1851,7340001024461,新規,0,2022-02-01,2022-02-01,株式会社マツイ自動車,,株式会社,鹿児島県,奄美市,名瀬浦上字川内１２２４番地１,,46,222,8940000,,,,,,,2022-02-01,1,,,,,マツイジドウシャ,0
1860,7370001048152,新規,0,2022-02-01,2022-02-01,株式会社Ｕｍぷらす,,株式会社,宮城県,仙台市太白区,大野田２丁目８番－２６－１０３号,,04,104,9820014,,,,,,,2022-02-01,1,,,,,ユーエムプラス,0
1879,7400005008207,新規,0,2022-02-01,2022-02-01,一般社団法人陸前高田グリーンスローモビリティ,,その他の設立登記法人,岩手県,陸前高田市,竹駒町字相川１５８番地５,,03,210,0292203,,,,,,,2022-02-01,1,,,,,リクゼンタカタグリーンスローモビリティ,0
1885,7470003002122,新規,0,2022-02-01,2022-02-01,合同会社えむすてーじ,,合同会社,香川県,丸亀市,綾歌町富熊３２１６番地３,,37,202,7612407,,,,,,,2022-02-01,1,,,,,エムステージ,0
1887,7480001011636,新規,0,2022-02-01,2022-02-01,株式会社田村建設工業,,株式会社,徳島県,板野郡上板町,西分字キ々木９番地１,,36,405,7711330,,,,,,,2022-02-01,1,,,,,タムラケンセツコウギョウ,0
1888,7490001010109,新規,0,2022-02-01,2022-02-01,株式会社浜田テクニカルサービス,,株式会社,高知県,土佐市,高岡町丙５９５番地３,,39,205,7811103,,,,,,,2022-02-01,1,,,,,ハマダテクニカルサービス,0
1894,7700150106890,新規,0,2022-02-01,2022-02-01,徳田町土地改良区,,その他,三重県,鈴鹿市,徳田町１００６－１,,24,207,5100251,,,,,,,2022-02-01,1,,,,,トクダチヨウトチカイリヨウク,0
1898,8010001224201,新規,0,2022-02-01,2022-02-01,株式会社松崎商事,00125576,株式会社,東京都,千代田区,東神田１丁目６番４号ロイジェント東神田１００１号室,,13,101,1010031,,,,,,,2022-02-01,1,,,,,マツザキショウジ,0
1899,8010001224242,新規,0,2022-02-01,2022-02-01,株式会社ＯＮＯＤＥＲＡナーシングホーム,,株式会社,東京都,千代田区,大手町１丁目１番３号,,13,101,1000004,,,,,,,2022-02-01,1,,,,,オノデラナーシングホーム,0
1901,8010003036883,新規,0,2022-02-01,2022-02-01,合同会社尾張２,,合同会社,東京都,中央区,日本橋１丁目４番１号日本橋一丁目ビルディング,,13,102,1030027,,,,,,,2022-02-01,1,,,,,オワリニ,0
1902,8010005034530,新規,0,2022-02-01,2022-02-01,一般社団法人才幹書院,,その他の設立登記法人,東京都,中央区,銀座６丁目１３番５号銀座ＮＨビル８Ｆ,,13,102,1040061,,,,,,,2022-02-01,1,,,,,サイカンショイン,0
1903,8010005034539,新規,0,2022-02-01,2022-02-01,ジェイコアレジ５一般社団法人,,その他の設立登記法人,東京都,千代田区,丸の内３丁目１番１号東京共同会計事務所内,,13,101,1000005,,,,,,,2022-02-01,1,,,,,ジェイコアレジファイブ,0
1904,8010005034547,新規,0,2022-02-01,2022-02-01,エコグリーン八戸ホールディングス一般社団法人,,その他の設立登記法人,東京都,千代田区,麹町２丁目８番地ＭＬＣ麹町ビル４階フィンポート税理士法人内,,13,101,1020083,,,,,,,2022-02-01,1,,,,,エコグリーンハチノヘホールディングス,0
1913,8010401165243,新規,0,2022-02-01,2022-02-01,株式会社Ａｋｋａｌｉｎａ,,株式会社,東京都,港区,芝５丁目１７番１－１３０３号,,13,103,1080014,,,,,,,2022-02-01,1,,,,,アッカリーナ,0
1914,8010401165251,新規,0,2022-02-01,2022-02-01,株式会社ビズビー,,株式会社,東京都,港区,虎ノ門１丁目８番１０号８Ｆ,,13,103,1050001,,,,,,,2022-02-01,1,,,,,ビズビー,0
1927,8010601060590,新規,0,2022-02-01,2022-02-01,株式会社ＳＥＲＥＮＥ＆Ｃｏ．,,株式会社,東京都,江東区,豊洲３丁目４番２,,13,108,1350061,,,,,,,2022-02-01,1,,,,,セレネアンドコー,0
1928,8010603009371,新規,0,2022-02-01,2022-02-01,合同会社ＴＭＲエナジー,,合同会社,東京都,江東区,常盤２丁目４番３号,,13,108,1350006,,,,,,,2022-02-01,1,,,,,ティーエムアールエナジー,0
1932,8010901050267,新規,0,2022-02-01,2022-02-01,株式会社リキプロ,,株式会社,東京都,世田谷区,鎌田３丁目３３番２－４０２号,,13,112,1570077,,,,,,,2022-02-01,1,,,,,リキプロ,0
1933,8010903007117,新規,0,2022-02-01,2022-02-01,合同会社スリーブレインズ,,合同会社,東京都,世田谷区,北沢１丁目２３番１２号マウントビル４Ｆ,,13,112,1550031,,,,,,,2022-02-01,1,,,,,スリーブレインズ,0
1939,8011003014078,新規,0,2022-02-01,2022-02-01,合同会社水天幸,,合同会社,東京都,渋谷区,西原３丁目４６番２号グランドメゾン西原三丁目３０２,,13,113,1510066,,,,,,,2022-02-01,1,,,,,スイテンコウ,0
1941,8011101097636,新規,0,2022-02-01,2022-02-01,普順＿株式会社,00125577,株式会社,東京都,新宿区,榎町３４－３榎町ビル５階,,13,104,1620806,,,,,,,2022-02-01,1,,,,,フジュンキン,0
1942,8011101097652,新規,0,2022-02-01,2022-02-01,株式会社アールエス,,株式会社,東京都,新宿区,北新宿１丁目２０番４－１３０３号,,13,104,1690074,,,,,,,2022-02-01,1,,,,,アールエス,0
1943,8011101097660,新規,0,2022-02-01,2022-02-01,株式会社スプレッド,,株式会社,東京都,新宿区,西新宿７丁目６番９－５０２号,,13,104,1600023,,,,,,,2022-02-01,1,,,,,スプレッド,0
1945,8011103011405,新規,0,2022-02-01,2022-02-01,合同会社グロースクリエイト,,合同会社,東京都,新宿区,西新宿１丁目５番１２号,,13,104,1600023,,,,,,,2022-02-01,1,,,,,グロースクリエイト,0
1946,8011103011413,新規,0,2022-02-01,2022-02-01,合同会社五千,,合同会社,東京都,新宿区,新宿１丁目３２番１１号アール新宿御苑１０１,,13,104,1600022,,,,,,,2022-02-01,1,,,,,ゴセン,0
1947,8011103011421,新規,0,2022-02-01,2022-02-01,Ｅｖｅｒｇｒｅｅｎ　Ｔｗｏ合同会社,,合同会社,東京都,新宿区,四谷４丁目３２番８号ＹＫＢサニービル６階,,13,104,1600004,,,,,,,2022-02-01,1,,,,,エヴァーグリーンツー,0
1950,8011601025716,新規,0,2022-02-01,2022-02-01,ミライノシステム株式会社,,株式会社,東京都,練馬区,東大泉７丁目２４番１０号,,13,120,1780063,,,,,,,2022-02-01,1,,,,,ミライノシステム,0
1951,8011603003513,新規,0,2022-02-01,2022-02-01,合同会社ａｒｉｍａ,,合同会社,東京都,練馬区,南大泉４丁目３０番９号サンピアス南大泉１０２,,13,120,1780064,,,,,,,2022-02-01,1,,,,,アリマ,0
1952,8011701025013,新規,0,2022-02-01,2022-02-01,北明情報システム株式会社,,株式会社,東京都,江戸川区,西葛西３丁目８番３５－８１６号,,13,123,1340088,,,,,,,2022-02-01,1,,,,,ホクメイジョウホウシステム,0
1957,8012401038817,新規,0,2022-02-01,2022-02-01,ＫＩＴＴＹｍｏｓ株式会社,,株式会社,東京都,武蔵野市,境５丁目１３番２－Ｂ－４０２号デライトシティ,,13,203,1800022,,,,,,,2022-02-01,1,,,,,キティーモス,0
1958,8012701016910,新規,0,2022-02-01,2022-02-01,株式会社港友,,株式会社,東京都,清瀬市,下宿１丁目１９９番地１７,,13,221,2040001,,,,,,,2022-02-01,1,,,,,ミナトトモ,0
1959,8012801021372,新規,0,2022-02-01,2022-02-01,株式会社沢木屋,,株式会社,東京都,国立市,西３丁目２番地の１１,,13,215,1860005,,,,,,,2022-02-01,1,,,,,サワキヤ,0
1972,8020005015372,新規,0,2022-02-01,2022-02-01,一般社団法人ａｓｏｂｉ基地ユニバーシティ,,その他の設立登記法人,神奈川県,横浜市南区,大岡４丁目２６番１９号,,14,105,2320061,,,,,,,2022-02-01,1,,,,,アソビキチユニバーシティ,0
1976,8021001075063,新規,0,2022-02-01,2022-02-01,株式会社ａｃｍｅ　ｂ．,,株式会社,神奈川県,大和市,上草柳８丁目６番７‐２号,,14,213,2420029,,,,,,,2022-02-01,1,,,,,アクメビー,0
1977,8021001075088,新規,0,2022-02-01,2022-02-01,こぶし株式会社,,株式会社,神奈川県,鎌倉市,御成町３番１０号鎌万ビル,,14,204,2480012,,,,,,,2022-02-01,1,,,,,コブシ,0
1989,8030003018698,新規,0,2022-02-01,2022-02-01,合同会社ＥＭＯ,,合同会社,埼玉県,幸手市,南１丁目１１―１２,,11,240,3400156,,,,,,,2022-02-01,1,,,,,イーエムオー,0
1998,8040001121998,新規,0,2022-02-01,2022-02-01,株式会社ＡＬＴＥＲＮＡ,,株式会社,千葉県,千葉市中央区,松波１丁目４１番１２号,,12,101,2600044,,,,,,,2022-02-01,1,,,,,オルタナ,0
1999,8040003019258,新規,0,2022-02-01,2022-02-01,ＡＯＩ合同会社,,合同会社,千葉県,市原市,光風台５丁目４１１番,,12,219,2900255,,,,,,,2022-02-01,1,,,,,アオイ,0
2010,8070003004372,新規,0,2022-02-01,2022-02-01,合同会社ＪＪ＆Ｃｏ．,,合同会社,群馬県,太田市,藤久良町６４番地９ドリームハウスＡ－１０１号,,10,205,3730035,,,,,,,2022-02-01,1,,,,,ジェイジェイアンドカンパニー,0
2014,8080403004459,新規,0,2022-02-01,2022-02-01,ワケアリ合同会社,,合同会社,静岡県,浜松市中区,海老塚１丁目１０番２０－７０１号,,22,131,4328033,,,,,,,2022-02-01,1,,,,,ワケアリ,0
2032,8120001243529,新規,0,2022-02-01,2022-02-01,株式会社ＣＸコーポレーション,,株式会社,大阪府,大阪市中央区,常盤町２丁目２番１７号ミストラル本町ウェスト６０１,,27,128,5400028,,,,,,,2022-02-01,1,,,,,シーエックスコーポレーション,0
2036,8120003021049,新規,0,2022-02-01,2022-02-01,合同会社オドクラ,,合同会社,大阪府,大阪市淀川区,西宮原１丁目４－２３パークヒルズ新大阪Ｏａｓｉｓ６０２,,27,123,5320004,,,,,,,2022-02-01,1,,,,,オドクラ,0
2039,8120101065014,新規,0,2022-02-01,2022-02-01,株式会社ＬＥＳ　ＬＩＥＮＳ,,株式会社,大阪府,貝塚市,海塚１丁目１－２３,,27,208,5970083,,,,,,,2022-02-01,1,,,,,レリアン,0
2040,8120101065022,新規,0,2022-02-01,2022-02-01,株式会社Ｂｒａｎｄ　Ｎｅｗ　Ｈｏｍｅ,,株式会社,大阪府,堺市北区,北長尾町２丁４番８号,,27,146,5918043,,,,,,,2022-02-01,1,,,,,ブランドニューホーム,0
2054,8140001124751,新規,0,2022-02-01,2022-02-01,株式会社まあるコンサルティング,,株式会社,兵庫県,神戸市中央区,多聞通３丁目３番１６号甲南第一ビル８０３,,28,110,6500015,,,,,,,2022-02-01,1,,,,,マアルコンサルティング,0
2057,8140003017301,新規,0,2022-02-01,2022-02-01,ｎｅｏ合同会社,,合同会社,兵庫県,神戸市東灘区,深江浜町７６－２００,,28,101,6580023,,,,,,,2022-02-01,1,,,,,ネオ,0
2059,8140005026011,新規,0,2022-02-01,2022-02-01,農事組合法人大河営農,,その他の設立登記法人,兵庫県,神崎郡神河町,大河４３３番地の２,,28,446,6793111,,,,,,,2022-02-01,1,,,,,オオカワエイノウ,0
2069,8180001149803,新規,0,2022-02-01,2022-02-01,山口建設工業株式会社,,株式会社,愛知県,一宮市,時之島字下途５１番地１,,23,203,4910002,,,,,,,2022-02-01,1,,,,,ヤマグチケンセツコウギョウ,0
2072,8190001029079,新規,0,2022-02-01,2022-02-01,株式会社グラシアス,,株式会社,三重県,津市,緑が丘１丁目１８番地６,,24,201,5140825,,,,,,,2022-02-01,1,,,,,グラシアス,0
2104,8290003012106,新規,0,2022-02-01,2022-02-01,合同会社ピアソン,,合同会社,福岡県,福岡市博多区,堅粕４丁目１４番２２号スペーステック博多Ｉ４０６号,00125587,40,132,8120043,,,,,,,2022-02-01,1,,,,,ピアソン,0
2105,8290801028212,新規,0,2022-02-01,2022-02-01,株式会社Ｓ‐ＢＩＲＲ,,株式会社,福岡県,北九州市門司区,上馬寄１丁目６－１６,,40,101,8000042,,,,,,,2022-02-01,1,,,,,エスビル,0
2112,8360003011769,新規,0,2022-02-01,2022-02-01,合同会社匠,,合同会社,沖縄県,那覇市,字小禄６９８番地スゥイートライム３０２,,47,201,9010152,,,,,,,2022-02-01,1,,,,,タクミ,0
2133,8420001017729,新規,0,2022-02-01,2022-02-01,株式会社ＴＡＲＯ,,株式会社,青森県,青森市,造道２丁目１番３７号,,02,201,0300911,,,,,,,2022-02-01,1,,,,,タロウ,0
2145,8470001018953,新規,0,2022-02-01,2022-02-01,ＴＨエンジニアリング株式会社,,株式会社,香川県,さぬき市,志度２３７６番地１０,,37,206,7692101,,,,,,,2022-02-01,1,,,,,ティエイチエンジニアリング,0
2146,8470003002121,新規,0,2022-02-01,2022-02-01,合同会社ことり放課後クラブ,,合同会社,香川県,高松市,多肥上町３３９番地１６,,37,201,7618076,,,,,,,2022-02-01,1,,,,,コトリホウカゴクラブ,0
2151,8500001023974,新規,0,2022-02-01,2022-02-01,株式会社大西重機,,株式会社,愛媛県,四国中央市,具定町３０４番地の１,,38,213,7990423,,,,,,,2022-02-01,1,,,,,オオニシジュウキ,0
2155,8700150106725,新規,0,2022-02-01,2022-01-19,Ｔａｎｇｏ　Ｑｕｅｒｉｄｏ,,その他,東京都,練馬区,富士見台３丁目２２－１９,,13,120,1770034,,,,,,,2022-01-19,1,,,,,タンゴケリード,0
2161,9010001224274,新規,0,2022-02-01,2022-02-01,株式会社コンストラクタル・アーキテクツ,,株式会社,東京都,中央区,日本橋馬喰町１丁目７番１６号,,13,102,1030002,,,,,,,2022-02-01,1,,,,,コンストラクタルアーキテクツ,0
2165,9010003036924,新規,0,2022-02-01,2022-02-01,合同会社Ｈｉｄａｍａｒｉ,,合同会社,東京都,中央区,銀座１丁目２２番１１号銀座大竹ビジデンス２階,,13,102,1040061,,,,,,,2022-02-01,1,,,,,ヒダマリ,0
2166,9010005034538,新規,0,2022-02-01,2022-02-01,一般社団法人ＣＲＥＦＦ１,,その他の設立登記法人,東京都,千代田区,丸の内３丁目１番１号東京共同会計事務所内,,13,101,1000005,,,,,,,2022-02-01,1,,,,,シーアールイーエフエフワン,0
2175,9010401165242,新規,0,2022-02-01,2022-02-01,株式会社レ・リアン,,株式会社,東京都,港区,北青山２丁目１２番８号２２０,,13,103,1070061,,,,,,,2022-02-01,1,,,,,レリアン,0
2176,9010401165259,新規,0,2022-02-01,2022-02-01,株式会社ｅｎｎ,,株式会社,東京都,港区,南青山５丁目１７番２号,,13,103,1070062,,,,,,,2022-02-01,1,,,,,エン,0
2181,9010603009370,新規,0,2022-02-01,2022-02-01,合同会社ＯｆｆｉｃｅＤ,,合同会社,東京都,江東区,辰巳１丁目５－６クレヴィア辰巳６０３号室,,13,108,1350053,,,,,,,2022-02-01,1,,,,,オフィスディー,0
2185,9010901050266,新規,0,2022-02-01,2022-02-01,株式会社ＫＡＫＫＡ,,株式会社,東京都,世田谷区,三軒茶屋１丁目１番８号,,13,112,1540024,,,,,,,2022-02-01,1,,,,,カッカ,0
2195,9011003014077,新規,0,2022-02-01,2022-02-01,合同会社ＬＩＰＲＯ,,合同会社,東京都,渋谷区,富ヶ谷２丁目１４番４号１Ｆ,,13,113,1510063,,,,,,,2022-02-01,1,,,,,ライプロ,0
2196,9011003014085,新規,0,2022-02-01,2022-02-01,レスペレラポー合同会社,,合同会社,東京都,渋谷区,円山町５番５号Ｎａｖｉ渋谷Ｖ３階,,13,113,1500044,,,,,,,2022-02-01,1,,,,,レスペレラポー,0
2198,9011101097627,新規,0,2022-02-01,2022-02-01,株式会社イズボウ,,株式会社,東京都,新宿区,西新宿３丁目３番１３号西新宿水間ビル６階,,13,104,1600023,,,,,,,2022-02-01,1,,,,,イズボウ,0
2199,9011101097635,新規,0,2022-02-01,2022-02-01,株式会社Ｔｉｅｒ　Ｏｎｅ,,株式会社,東京都,新宿区,上落合１丁目２５－１４ＳＨＩＹＯ３０２号室,,13,104,1610034,,,,,,,2022-02-01,1,,,,,ティアワン,0
2200,9011101097651,新規,0,2022-02-01,2022-02-01,株式会社ゲレンデ,,株式会社,東京都,新宿区,北新宿１丁目２０番４－１３０３号,,13,104,1690074,,,,,,,2022-02-01,1,,,,,ゲレンデ,0
2202,9011103011412,新規,0,2022-02-01,2022-02-01,合同会社ケーエス,,合同会社,東京都,新宿区,西新宿３丁目３番１３号西新宿水間ビル６階,,13,104,1600023,,,,,,,2022-02-01,1,,,,,ケーエス,0
2208,9011503005063,新規,0,2022-02-01,2022-02-01,合同会社ロック・ストリーム,,合同会社,東京都,北区,赤羽１丁目７番９号赤羽第一葉山ビル４階,,13,117,1150045,,,,,,,2022-02-01,1,,,,,,0
2211,9011701025012,新規,0,2022-02-01,2022-02-01,株式会社ＭＭＪ　Ａｒｃｈｉｔｅｃｔｕｒｅ,,株式会社,東京都,江戸川区,南葛西５丁目１７番４－１２０９号,,13,123,1340085,,,,,,,2022-02-01,1,,,,,エムエムジェイアーキテクチャー,0
2213,9011801040274,新規,0,2022-02-01,2022-02-01,株式会社Ｂｅｅ　Ｃｏｎｓｕｌｔｉｎｇ,,株式会社,東京都,足立区,梅島２丁目２６番４－１０１号,,13,121,1210816,,,,,,,2022-02-01,1,,,,,ビーコンサルティング,0
2230,9020001145049,新規,0,2022-02-01,2022-02-01,Ｌａｋｅ　Ｈｅａｖｅｎ株式会社,,株式会社,神奈川県,横浜市青葉区,大場町３９５－５７,,14,117,2250023,,,,,,,2022-02-01,1,,,,,レイクヘヴン,0
2250,9030001146566,新規,0,2022-02-01,2022-02-01,株式会社ＮＡ,,株式会社,埼玉県,さいたま市南区,松本３丁目５番１６号,,11,108,3360035,,,,,,,2022-02-01,1,,,,,エヌエー,0
2251,9030001146590,新規,0,2022-02-01,2022-02-01,株式会社ＳＩＮＥＩ,,株式会社,埼玉県,川口市,弥平４丁目４番１０号,,11,203,3320002,,,,,,,2022-02-01,1,,,,,シンエイ,0
2256,9030003018763,新規,0,2022-02-01,2022-02-01,合同会社ライフライン,,合同会社,埼玉県,さいたま市中央区,新中里１丁目１１番１８号３０２,,11,105,3380011,,,,,,,2022-02-01,1,,,,,ライフライン,0
2261,9040001121923,新規,0,2022-02-01,2022-02-01,株式会社トキワＨＤ,,株式会社,千葉県,松戸市,小山４８０番地の２,,12,207,2710093,,,,,,,2022-02-01,1,,,,,トキワホールディングス,0
2262,9040001121989,新規,0,2022-02-01,2022-02-01,株式会社ＭＴＦ,,株式会社,千葉県,千葉市中央区,都町３丁目７番３号,,12,101,2600001,,,,,,,2022-02-01,1,,,,,エムティエフ,0
2263,9040001121997,新規,0,2022-02-01,2022-02-01,株式会社ゴリラエマジネーション,,株式会社,千葉県,浦安市,堀江６丁目１２番２４－２０１号,,12,227,2790041,,,,,,,2022-02-01,1,,,,,ゴリラエマジネーション,0
2264,9040001122005,新規,0,2022-02-01,2022-02-01,株式会社ワールドクオリトル,,株式会社,千葉県,富里市,七栄１８６番地６,,12,233,2860221,,,,,,,2022-02-01,1,,,,,ワールドクオリトル,0
2275,9070003004371,新規,0,2022-02-01,2022-02-01,ＬＡＮＫＡ　ＬＩＯＮ合同会社,,合同会社,群馬県,前橋市,元総社町１４３番地上信コーポ９０３号,,10,201,3710846,,,,,,,2022-02-01,1,,,,,ランカラヤン,0
2277,9080001024726,新規,0,2022-02-01,2022-02-01,株式会社Ｎｕｅｖｏ　ｌａｂ,,株式会社,静岡県,静岡市駿河区,中田１丁目４－５－６０５,,22,102,4228041,,,,,,,2022-02-01,1,,,,,ヌエボラボ,0
2279,9080103002506,新規,0,2022-02-01,2022-02-01,合同会社Ｂｌｕｅ　Ｓｔａｒ,,合同会社,静岡県,富士市,中央町２丁目９‐１５,,22,210,4170052,,,,,,,2022-02-01,1,,,,,ブルースター,0
2285,9110001036404,新規,0,2022-02-01,2022-02-01,ＨＡＰＰＹ　ＣＯＭＰＡＮＹ株式会社,,株式会社,新潟県,十日町市,芋沢丙６９４,,15,210,9498405,,,,,,,2022-02-01,1,,,,,ハッピーカンパニー,0
2308,9120001243552,新規,0,2022-02-01,2022-02-01,株式会社リベラーラ,,株式会社,大阪府,大阪市中央区,谷町３丁目１番９号ＭＧ大手前ビル２階,,27,128,5400012,,,,,,,2022-02-01,1,,,,,リベラーラ,0
2309,9120001243560,新規,0,2022-02-01,2022-02-01,株式会社Ｌｉｂｅｒｔｙ,,株式会社,大阪府,大阪市城東区,鴫野西１丁目２－３３－１０１３,,27,118,5360014,,,,,,,2022-02-01,1,,,,,リバティ,0
2311,9120005022762,新規,0,2022-02-01,2022-02-01,医療法人笠井医院,,その他の設立登記法人,大阪府,大阪市大正区,北村２丁目５番１０号,,27,108,5510032,,,,,,,2022-02-01,1,,,,,カサイイイン,0
2314,9120101065021,新規,0,2022-02-01,2022-02-01,株式会社ＳＡＮＹ,,株式会社,大阪府,岸和田市,下松町９１１番地の９,,27,202,5960823,,,,,,,2022-02-01,1,,,,,サニー,0
2323,9140001124750,新規,0,2022-02-01,2022-02-01,株式会社ふくろう企画,,株式会社,兵庫県,尼崎市,立花町３丁目３０番１２－２号,,28,202,6610025,,,,,,,2022-02-01,1,,,,,フクロウキカク,0
2324,9140003017300,新規,0,2022-02-01,2022-02-01,合同会社ＲＡＳＨ,,合同会社,兵庫県,尼崎市,御園３丁目９番１２号グランデール塚口２０１号,,28,202,6610984,,,,,,,2022-02-01,1,,,,,ラッシュ,0
2325,9140005026010,新規,0,2022-02-01,2022-02-01,一般社団法人エア寺,,その他の設立登記法人,兵庫県,丹波市,氷上町香良３２３番地,,28,223,6693642,,,,,,,2022-02-01,1,,,,,エアデラ,0
2326,9140005026019,新規,0,2022-02-01,2022-02-01,一般社団法人体育心理指導研究会,,その他の設立登記法人,兵庫県,神戸市垂水区,西舞子８丁目７番１号,,28,108,6550048,,,,,,,2022-02-01,1,,,,,タイイクシンリシドウケンキュウカイ,0
2335,9180001149802,新規,0,2022-02-01,2022-02-01,株式会社グリーンテクノ東海,,株式会社,愛知県,名古屋市中区,新栄１丁目３１番２４号,,23,106,4600007,,,,,,,2022-02-01,1,,,,,グリーンテクノトウカイ,0
2339,9180005019621,新規,0,2022-02-01,2022-02-01,特定非営利活動法人そも,,その他の設立登記法人,愛知県,名古屋市南区,松下町１丁目１１番地の１パークシティ松下北棟Ｂ－２０２号,,23,112,4570808,,,,,,,2022-02-01,1,,,,,ソモ,0
2356,9250001019378,新規,0,2022-02-01,2022-02-01,株式会社新周南クリエイティブワークス,,株式会社,山口県,周南市,大字栗屋１０３５番地の１８,,35,215,7450802,,,,,,,2022-02-01,1,,,,,シンシュウナンクリエイティブワークス,0
2366,9270001008445,新規,0,2022-02-01,2022-02-01,株式会社加納建設,,株式会社,鳥取県,境港市,誠道町８番地県営余子団地２７０３棟１１７号室,,31,204,6840063,,,,,,,2022-02-01,1,,,,,カノウケンセツ,0
2371,9290003012096,新規,0,2022-02-01,2022-02-01,ＳＥＢＭ　Ｌｉｍｉｔｅｄ合同会社,,合同会社,福岡県,福岡市早良区,百道浜２丁目４番２７号ＡＩビル６Ｆ,,40,137,8140001,,,,,,,2022-02-01,1,,,,,エスイービーエムリミテッド,0
2372,9290003012105,新規,0,2022-02-01,2022-02-01,合同会社伊藤,,合同会社,福岡県,福岡市博多区,美野島１丁目１０番１２号第５川崎ビル５０２号,,40,132,8120017,,,,,,,2022-02-01,1,,,,,イトウ,0
2382,9320001018868,新規,0,2022-02-01,2022-02-01,株式会社ＳＡＳＵＫＥ・スタイル,,株式会社,大分県,杵築市,大字杵築３８８番地,,44,210,8730001,,,,,,,2022-02-01,1,,,,,サスケスタイル,0
2388,9370001048150,新規,0,2022-02-01,2022-02-01,株式会社エピデミア,,株式会社,宮城県,仙台市青葉区,滝道２５番１７号,,04,101,9810951,,,,,,,2022-02-01,1,,,,,エピデミア,0
2406,9410001013091,新規,0,2022-02-01,2022-02-01,株式会社ｋｉｂｉｄａｎｇｏ秋田,,株式会社,秋田県,横手市,平和町１２番１２号,,05,203,0130035,,,,,,,2022-02-01,1,,,,,キビダンゴアキタ,0
2415,9430001085897,新規,0,2022-02-01,2022-02-01,株式会社ツバキ不動産,,株式会社,北海道,札幌市中央区,南三条西１２丁目３２５－９ＳＡＫＵＲＡ－Ｗ１２　２Ｆ,,01,101,0600063,,,,,,,2022-02-01,1,,,,,ツバキフドウサン,0
2417,9440001009021,新規,0,2022-02-01,2022-02-01,株式会社コジテック,,株式会社,北海道,函館市,美原３丁目５３番４７号,,01,202,0410806,,,,,,,2022-02-01,1,,,,,コジテック,0
2427,9490003001624,新規,0,2022-02-01,2022-02-01,合同会社ｔｉｐｔｏｐ,,合同会社,高知県,高知市,福井町２２５２番地４０,,39,201,7800965,,,,,,,2022-02-01,1,,,,,ティップトップ,0
2432,9700150106278,新規,0,2022-02-01,2021-12-15,Ｌｉｆｅ　ｉｓ　Ｌｉｖｅ,,その他,神奈川県,川崎市多摩区,生田８丁目８－６－３０５,,14,135,2140038,,,,,,,2021-12-15,1,,,,,ライフイズライブ,0
2433,9700150106716,新規,0,2022-02-01,2022-01-19,映日果人,,その他,東京都,杉並区,阿佐谷北２丁目７－１９第２サイトウハウス２０２,,13,115,1660001,,,,,,,2022-01-19,1,,,,,エイジツカジン,0
