sequenceNumber,corporateNumber,process,correct,updateDate,changeDate,name,nameImageId,kind,prefectureName,cityName,streetNumber,addressImageId,prefectureCode,cityCode,postCode,addressOutside,addressOutsideImageId,closeDate,closeCause,successorCorporateNumber,changeCause,assignmentDate,latest,enName,enPrefectureName,enCityName,enAddressOutside,furigana,hihyoji
8,1010001229405,新規,0,2022-09-14,2022-09-14,株式会社大地堂ラボ,,株式会社,東京都,文京区,水道２丁目１２番１３号,,13,105,1120005,,,,,,,2022-09-14,1,,,,,ダイチドウラボ,0
9,1010001229446,新規,0,2022-09-14,2022-09-14,株式会社ＡＹＵＭＩ　ＢＩＯＮＩＣＳ,,株式会社,東京都,中央区,日本橋２丁目２－３ＲＩＳＨＥビルＵＣＦ４０２,,13,102,1030027,,,,,,,2022-09-14,1,,,,,アユミバイオニクス,0
10,1010001229495,新規,0,2022-09-14,2022-09-14,株式会社サーフゴルファーズ,,株式会社,東京都,中央区,築地６丁目５番４号,,13,102,1040045,,,,,,,2022-09-14,1,,,,,サーフゴルファーズ,0
11,1010001229520,新規,0,2022-09-14,2022-09-14,株式会社Ｄａｚｙ,,株式会社,東京都,千代田区,内神田１丁目１１番１０号,,13,101,1010047,,,,,,,2022-09-14,1,,,,,デイジー,0
12,1010001229545,新規,0,2022-09-14,2022-09-14,株式会社マルハンデベロップメントパートナーズ,,株式会社,東京都,千代田区,丸の内１丁目１１番１号,,13,101,1000005,,,,,,,2022-09-14,1,,,,,マルハンデベロップメントパートナーズ,0
15,1010003038655,新規,0,2022-09-14,2022-09-14,ドゥロワー合同会社,,合同会社,東京都,中央区,銀座７丁目１３番２１号銀座ｓｉｎｒｏｋｕｓｙｕビル２階,,13,102,1040061,,,,,,,2022-09-14,1,,,,,ドゥロワー,0
17,1010005035551,新規,0,2022-09-14,2022-09-14,医療法人社団真田会,,その他の設立登記法人,東京都,中央区,日本橋蛎殻町１丁目２９番６号水天宮前東急ビル９階,,13,102,1030014,,,,,,,2022-09-14,1,,,,,サナダカイ,0
27,1010401169556,新規,0,2022-09-14,2022-09-14,株式会社ＧＮＡＲＬＹ,,株式会社,東京都,港区,六本木４丁目１１－１１ＧＭビル５階,,13,103,1060032,,,,,,,2022-09-14,1,,,,,ナーリー,0
31,1010405021366,新規,0,2022-09-14,2022-09-14,一般社団法人ＮＥＸＴ　ＧＥＮＥＲＡＴＩＯＮ,,その他の設立登記法人,東京都,港区,高輪４丁目１８番３号,,13,103,1080074,,,,,,,2022-09-14,1,,,,,ネクストジェネレーション,0
32,1010501001726,新規,0,2022-09-14,2022-09-14,株式会社エイ・シー・シー・ジャパン,,株式会社,東京都,台東区,寿１丁目１７番１２号,,13,106,1110042,,,,,,,2022-09-14,1,,,,,エイシーシージャパン,0
35,1010501049369,新規,0,2022-09-14,2022-09-14,澤如国際株式会社,,株式会社,東京都,台東区,松が谷２丁目１５番８号浅草Ｋ２ビル４１２号室,,13,106,1110036,,,,,,,2022-09-14,1,,,,,サワジョコクサイ,0
50,1011001007635,新規,0,2022-09-14,2022-09-14,株式会社興建,,株式会社,東京都,渋谷区,桜丘町３０番４－４０１号,,13,113,1500031,,,,,,,2022-09-14,1,,,,,コウケン,0
61,1011001149758,新規,0,2022-09-14,2022-09-14,株式会社ＹＡＭＡＭＯＴＯ,,株式会社,東京都,渋谷区,本町６丁目３７－２－５号室,,13,113,1510071,,,,,,,2022-09-14,1,,,,,ヤマモト,0
64,1011005009719,新規,0,2022-09-14,2022-09-14,特定非営利活動法人オトブミ集絆,,その他の設立登記法人,東京都,渋谷区,千駄ヶ谷４丁目２３番５号ＪＰＲ千駄ヶ谷ビル３階,,13,113,1510051,,,,,,,2022-09-14,1,,,,,オトブミシュウキズナ,0
73,1011303004520,新規,0,2022-09-14,2022-09-14,ＮＥＸＴ　ＤＯＯＲ合同会社,,合同会社,東京都,杉並区,高井戸西１丁目５番４３号,,13,115,1680071,,,,,,,2022-09-14,1,,,,,ネクストドア,0
74,1011305002860,新規,0,2022-09-14,2022-09-14,行政書士法人みなくち事務所,,その他の設立登記法人,東京都,杉並区,阿佐谷南３丁目１番３３－２０２号,,13,115,1660004,,,,,,,2022-09-14,1,,,,,ミナクチジムショ,0
76,1011503005285,新規,0,2022-09-14,2022-09-14,東陽合同会社,,合同会社,東京都,北区,浮間１丁目１番１４号リムジンビル２２６,,13,117,1150051,,,,,,,2022-09-14,1,,,,,トウヨウ,0
77,1011505002495,新規,0,2022-09-14,2022-09-14,一般社団法人芸術環境共創基盤,,その他の設立登記法人,東京都,北区,田端５丁目１２番４号,,13,117,1140014,,,,,,,2022-09-14,1,,,,,ゲイジュツカンキョウキョウソウキバン,0
81,1011701025614,新規,0,2022-09-14,2022-09-14,株式会社エスケー流通,,株式会社,東京都,江戸川区,瑞江２丁目３３番１５号,,13,123,1320011,,,,,,,2022-09-14,1,,,,,エスケーリュウツウ,0
82,1012303001722,新規,0,2022-09-14,2022-09-14,合同会社ＡＳＡＮＴＥ　ＳＡＮＡ,,合同会社,東京都,町田市,森野２丁目１９番８号東栄森野ハイツ１０１,,13,209,1940022,,,,,,,2022-09-14,1,,,,,アサンテサーナ,0
88,1013301049654,新規,0,2022-09-14,2022-09-14,スタジオマエストロ株式会社,,株式会社,東京都,豊島区,南池袋２丁目４５番２号,,13,116,1710022,,,,,,,2022-09-14,1,,,,,スタジオマエストロ,0
94,1020001148174,新規,0,2022-09-14,2022-09-14,株式会社Ｈａｍｐｔｏｎ　Ｈｏｍｅ＆Ｄ,,株式会社,神奈川県,川崎市宮前区,宮崎６丁目１４番１６号,,14,136,2160033,,,,,,,2022-09-14,1,,,,,,0
95,1020001148208,新規,0,2022-09-14,2022-09-14,株式会社アシスト,,株式会社,神奈川県,横浜市青葉区,すみよし台一丁目８番グリーンヒル四番館１０３号室,,14,117,2270035,,,,,,,2022-09-14,1,,,,,アシスト,0
96,1020003022393,新規,0,2022-09-14,2022-09-14,Ｒｅ‐Ｖｉｓｉｏｎ合同会社,,合同会社,神奈川県,横浜市中区,桜木町１丁目１０１番地１クロスゲート７階,,14,104,2310062,,,,,,,2022-09-14,1,,,,,リヴィジョン,0
116,1030005020989,新規,0,2022-09-14,2022-09-14,一般社団法人ＭＫトラスト,,その他の設立登記法人,埼玉県,さいたま市中央区,上落合７丁目７番２－３３０３号,,11,105,3380001,,,,,,,2022-09-14,1,,,,,エムケートラスト,0
122,1040001124941,新規,0,2022-09-14,2022-09-14,株式会社ＵＮＤＥＲ,,株式会社,千葉県,柏市,柏４丁目１０番１－１０８号,,12,217,2770005,,,,,,,2022-09-14,1,,,,,アンダー,0
123,1040001125064,新規,0,2022-09-14,2022-09-14,株式会社大谷,,株式会社,千葉県,柏市,大津ケ丘３丁目２５番地１８,,12,217,2770921,,,,,,,2022-09-14,1,,,,,オオタニ,0
149,1080403004614,新規,0,2022-09-14,2022-09-14,ＵＺマネージメント合同会社,,合同会社,静岡県,袋井市,砂本町４番地の１,,22,216,4370035,,,,,,,2022-09-14,1,,,,,ユーゼットマネージメント,0
167,1120001248765,新規,0,2022-09-14,2022-09-14,株式会社Ｉｎｄｉｖｉｄｕａｌ　Ｉｎｎｏｖａｔｉｏｎ,,株式会社,大阪府,大阪市東住吉区,照ケ丘矢田３丁目１８－１６－１０３,,27,121,5460021,,,,,,,2022-09-14,1,,,,,インディヴィジュアルイノヴェーション,0
169,1120003022441,新規,0,2022-09-14,2022-09-14,合同会社ミク,,合同会社,大阪府,大阪市西成区,潮路１丁目３－１８（ＯＡＳＩＳ・ＮＡＮＩＷＡ－３Ａ）,,27,122,5570052,,,,,,,2022-09-14,1,,,,,ミク,0
172,1120101066225,新規,0,2022-09-14,2022-09-14,株式会社半熟思想,,株式会社,大阪府,南河内郡河南町,大字東山３番地の１の２－２０３号,,27,382,5850001,,,,,,,2022-09-14,1,,,,,ハンジュクシソウ,0
182,1122001036233,新規,0,2022-09-14,2022-09-14,株式会社オフィストリプルワン,,株式会社,大阪府,八尾市,福万寺町１丁目７８番地,,27,212,5810842,,,,,,,2022-09-14,1,,,,,オフィストリプルワン,0
187,1130001072611,新規,0,2022-09-14,2022-09-14,鏡石株式会社,,株式会社,京都府,京都市中京区,西ノ京右馬寮町１－２７,,26,104,6048492,,,,,,,2022-09-14,1,,,,,キョウセキ,0
190,1140001127380,新規,0,2022-09-14,2022-09-14,株式会社Ｋ‐Ｌｉｎｋ,,株式会社,兵庫県,尼崎市,西難波町１丁目１番２－５０８号,,28,202,6600893,,,,,,,2022-09-14,1,,,,,ケーリンク,0
198,1160001024510,新規,0,2022-09-14,2022-09-14,株式会社ｏｋｕｉエージェンシー,,株式会社,滋賀県,近江八幡市,島町２２９８番地,,25,204,5230804,,,,,,,2022-09-14,1,,,,,オクイエージェンシー,0
206,1180001153027,新規,0,2022-09-14,2022-09-14,株式会社高柳組ホールディングス,,株式会社,愛知県,春日井市,鳥居松町５丁目７５番地,,23,206,4860844,,,,,,,2022-09-14,1,,,,,タカヤナギグミホールディングス,0
211,1180005019934,新規,0,2022-09-14,2022-09-14,医療法人社団ＭＩＤＣ,,その他の設立登記法人,愛知県,名古屋市瑞穂区,妙音通３丁目２２番１号,,23,108,4670842,,,,,,,2022-09-14,1,,,,,エムアイディーシー,0
214,1180301036633,新規,0,2022-09-14,2022-09-14,株式会社ボヌール,,株式会社,愛知県,岡崎市,岩津町２丁目３番地１,,23,202,4442144,,,,,,,2022-09-14,1,,,,,ボヌール,0
219,1180305009387,新規,0,2022-09-14,2022-09-14,医療法人川原歯科医院,00127844,その他の設立登記法人,愛知県,豊田市,美里２丁目３番地１２,,23,211,4710805,,,,,,,2022-09-14,1,,,,,カワハラシカイイン,0
233,1210005010055,新規,0,2022-09-14,2022-09-14,キリスト改革派福井恵泉教会,,その他の設立登記法人,福井県,吉田郡永平寺町,松岡兼定島２４字村下２８番,,18,322,9101142,,,,,,,2022-09-14,1,,,,,キリストカイカクハフクイケイセンキョウカイ,0
236,1220001025031,新規,0,2022-09-14,2022-09-14,株式会社小川軒,,株式会社,石川県,金沢市,大桑１丁目４８番地２,,17,201,9218045,,,,,,,2022-09-14,1,,,,,オガワケン,0
249,1240003005789,新規,0,2022-09-14,2022-09-14,ＭＣ合同会社,,合同会社,広島県,廿日市市,八坂２丁目５－１７,,34,213,7390455,,,,,,,2022-09-14,1,,,,,マイクロカーゴ,0
261,1290001098921,新規,0,2022-09-14,2022-09-14,株式会社ＦＲＥＥ‐Ｂ,,株式会社,福岡県,那珂川市,大字安徳８１３番地,,40,231,8111224,,,,,,,2022-09-14,1,,,,,フリービー,0
270,1330001030111,新規,0,2022-09-14,2022-09-14,株式会社Ｔ・Ｔ・ＨＯＭＥ,,株式会社,熊本県,玉名郡南関町,大字関東７７１番地,,43,367,8610802,,,,,,,2022-09-14,1,,,,,ティーティーホーム,0
271,1350001017957,新規,0,2022-09-14,2022-09-14,株式会社Ｙｏｕ,,株式会社,宮崎県,日向市,大字財光寺１７６８番地３,,45,206,8830021,,,,,,,2022-09-14,1,,,,,ユウ,0
281,1400001016004,新規,0,2022-09-14,2022-09-14,株式会社ＫＤＯ新建築,,株式会社,岩手県,滝沢市,篠木待場３番地２,,03,216,0200733,,,,,,,2022-09-14,1,,,,,ケーディーオーシンケンチク,0
282,1420001018007,新規,0,2022-09-14,2022-09-14,北村技術ホールディングス株式会社,,株式会社,青森県,弘前市,大字神田４丁目１番地２１,,02,202,0368061,,,,,,,2022-09-14,1,,,,,キタムラギジュツホールディングス,0
287,1470001019256,新規,0,2022-09-14,2022-09-14,株式会社ＷＡＭ香川,,株式会社,香川県,高松市,多肥上町４２８番地３,,37,201,7618076,,,,,,,2022-09-14,1,,,,,ワムカガワ,0
306,2010001229429,新規,0,2022-09-14,2022-09-14,興和ＡＧファーマ株式会社,,株式会社,東京都,中央区,日本橋本町３丁目４番１４号,,13,102,1030023,,,,,,,2022-09-14,1,,,,,コウワエージーファーマ,0
307,2010001229503,新規,0,2022-09-14,2022-09-14,ＦＵＮＤＬ　ＶＥＮＴＵＲＥＳ株式会社,,株式会社,東京都,千代田区,霞が関１丁目４番１号日土地ビル２Ｆ,,13,101,1000013,,,,,,,2022-09-14,1,,,,,ファンドルベンチャーズ,0
310,2010003038654,新規,0,2022-09-14,2022-09-14,合同会社ビーエヌシー,,合同会社,東京都,中央区,湊２丁目１２‐１６,,13,102,1040043,,,,,,,2022-09-14,1,,,,,ビーエヌシー,0
311,2010103001990,新規,0,2022-09-14,2022-09-14,華雅合同会社,,合同会社,東京都,八王子市,大塚６４３番地１４,,13,201,1920352,,,,,,,2022-09-14,1,,,,,カガ,0
320,2010401169349,新規,0,2022-09-14,2022-09-14,株式会社ＲＥ‐ＯＮＥ,,株式会社,東京都,港区,浜松町２丁目２番１５号浜松町ダイヤビル２Ｆ,,13,103,1050013,,,,,,,2022-09-14,1,,,,,リワン,0
328,2010701043212,新規,0,2022-09-14,2022-09-14,株式会社ｍ＆ｙ　ｓｔｙｌｅｓ,,株式会社,東京都,品川区,西大井１丁目４－２９,,13,109,1400015,,,,,,,2022-09-14,1,,,,,マイスタイルズ,0
341,2011001149765,新規,0,2022-09-14,2022-09-14,ＳＳＬホールディングス株式会社,,株式会社,東京都,渋谷区,神宮前３丁目２７番１５号ＦＬＡＧ３Ｆ,,13,113,1500001,,,,,,,2022-09-14,1,,,,,エスエスエルホールディングス,0
343,2011003015346,新規,0,2022-09-14,2022-09-14,合同会社Ｋ＆Ｋ　Ｔｅｃｈｎｏｌｏｇｙ,,合同会社,東京都,渋谷区,神宮前６丁目２３－４桑野ビル２Ｆ,,13,113,1500001,,,,,,,2022-09-14,1,,,,,ケーアンドケーテクノロジー,0
344,2011003015379,新規,0,2022-09-14,2022-09-14,Ｓｔｅａｍ合同会社,,合同会社,東京都,渋谷区,恵比寿３丁目７番１４号,,13,113,1500013,,,,,,,2022-09-14,1,,,,,スチーム,0
347,2011005009726,新規,0,2022-09-14,2022-09-14,一般社団法人日本野菜テロワール協会,,その他の設立登記法人,東京都,渋谷区,円山町５番５号Ｎａｖｉ渋谷Ｖ３階,,13,113,1500044,,,,,,,2022-09-14,1,,,,,ニッポンヤサイテロワールキョウカイ,0
351,2011101100181,新規,0,2022-09-14,2022-09-14,株式会社Ｋｓｔ,,株式会社,東京都,新宿区,天神町４１番三益ビル４階,,13,104,1620808,,,,,,,2022-09-14,1,,,,,ケーエスティ,0
355,2011203003910,新規,0,2022-09-14,2022-09-14,合同会社ＲＥＡＣＨ,,合同会社,東京都,中野区,中野４丁目１１番５－６０３号,,13,114,1640001,,,,,,,2022-09-14,1,,,,,リーチ,0
357,2011601026249,新規,0,2022-09-14,2022-09-14,ＹＮＧ管財株式会社,,株式会社,東京都,練馬区,下石神井６丁目４１番１４号,,13,120,1770042,,,,,,,2022-09-14,1,,,,,ワイエヌジーカンザイ,0
360,2011803005257,新規,0,2022-09-14,2022-09-14,セツリインターナショナル合同会社,,合同会社,東京都,葛飾区,亀有５丁目４８番１５号,,13,122,1250061,,,,,,,2022-09-14,1,,,,,セツリインターナショナル,0
361,2011803005265,新規,0,2022-09-14,2022-09-14,合同会社パンディング,,合同会社,東京都,葛飾区,東金町１丁目２２－１１ＡＣＴビル金町４Ｆ,,13,122,1250041,,,,,,,2022-09-14,1,,,,,パンディング,0
367,2013301049653,新規,0,2022-09-14,2022-09-14,株式会社ノース技建,,株式会社,東京都,豊島区,南池袋２丁目４５番２号,,13,116,1710022,,,,,,,2022-09-14,1,,,,,ノースギケン,0
377,2020001148198,新規,0,2022-09-14,2022-09-14,富万株式会社,,株式会社,神奈川県,横浜市青葉区,松風台１番地１,,14,117,2270067,,,,,,,2022-09-14,1,,,,,トミマン,0
378,2020001148223,新規,0,2022-09-14,2022-09-14,株式会社ＤＡＭ’Ｓ,,株式会社,神奈川県,横浜市鶴見区,栄町通１丁目９－１０,,14,101,2300038,,,,,,,2022-09-14,1,,,,,ダムズ,0
381,2020003022392,新規,0,2022-09-14,2022-09-14,合同会社アリビオ,,合同会社,神奈川県,川崎市川崎区,小田５丁目２番８号,,14,131,2100846,,,,,,,2022-09-14,1,,,,,アリビオ,0
386,2021001076975,新規,0,2022-09-14,2022-09-14,株式会社アドバンス,,株式会社,神奈川県,足柄下郡箱根町,宮城野８２０番地３９,,14,382,2500401,,,,,,,2022-09-14,1,,,,,アドバンス,0
393,2030001150112,新規,0,2022-09-14,2022-09-14,エグチホールディングス株式会社,,株式会社,埼玉県,さいたま市大宮区,高鼻町１丁目４７番地,,11,103,3300803,,,,,,,2022-09-14,1,,,,,エグチホールディングス,0
394,2030001150120,新規,0,2022-09-14,2022-09-14,優森株式会社,,株式会社,埼玉県,川口市,芝下２丁目２３番２６号,,11,203,3330848,,,,,,,2022-09-14,1,,,,,ユーセン,0
405,2030003020189,新規,0,2022-09-14,2022-09-14,合同会社トライリンクル,,合同会社,埼玉県,さいたま市北区,宮原町３丁目２３１番地３コーポひではる１０２,,11,102,3310812,,,,,,,2022-09-14,1,,,,,トライリンクル,0
416,2050003006855,新規,0,2022-09-14,2022-09-14,合同会社ＧＳＮ　ＩＮＴＥＲＮＡＴＩＯＮＡＬ,,合同会社,茨城県,龍ケ崎市,出し山町１１６番地２ロイヤルコート出し山第１０４号室,,08,208,3010839,,,,,,,2022-09-14,1,,,,,ジーエスエヌインターナショナル,0
431,2100003006692,新規,0,2022-09-14,2022-09-14,合同会社Ｌｉｎｋ,,合同会社,長野県,小県郡長和町,大門２６２２番地２,,20,350,3860601,,,,,,,2022-09-14,1,,,,,リンク,0
444,2120001248822,新規,0,2022-09-14,2022-09-14,株式会社アドバンス,,株式会社,大阪府,大阪市大正区,三軒家東５丁目６番７－２０５号,,27,108,5510002,,,,,,,2022-09-14,1,,,,,アドバンス,0
445,2120001248888,新規,0,2022-09-14,2022-09-14,株式会社Ｍ＆ＬＯＴＵＳ,,株式会社,大阪府,寝屋川市,池田１丁目７－６シャンドフルール１番館１０２号,,27,215,5720039,,,,,,,2022-09-14,1,,,,,エムアンドロータス,0
446,2120001248905,新規,0,2022-09-14,2022-09-14,株式会社河上技研,,株式会社,大阪府,寝屋川市,明和１丁目２５番２０号,,27,215,5720863,,,,,,,2022-09-14,1,,,,,カワカミギケン,0
453,2120003022440,新規,0,2022-09-14,2022-09-14,ＮＩＳＨＩＧＵＣＨＩマネジメント合同会社,,合同会社,大阪府,大阪市阿倍野区,松崎町２丁目３番３７－２０２号,,27,119,5450053,,,,,,,2022-09-14,1,,,,,ニシグチマネジメント,0
454,2120003022457,新規,0,2022-09-14,2022-09-14,合同会社フルフィル,,合同会社,大阪府,寝屋川市,成田東が丘１番１号,,27,215,5720002,,,,,,,2022-09-14,1,,,,,フルフィル,0
456,2120005023189,新規,0,2022-09-14,2022-09-14,ＫＥＹ弁理士法人,,その他の設立登記法人,大阪府,大阪市浪速区,難波中３丁目６番８号難波シーサータワービル,,27,111,5560011,,,,,,,2022-09-14,1,,,,,キー,0
458,2120101066232,新規,0,2022-09-14,2022-09-14,株式会社メークイット,,株式会社,大阪府,岸和田市,新港町１３番地の４,,27,202,5960012,,,,,,,2022-09-14,1,,,,,メークイット,0
466,2130001072577,新規,0,2022-09-14,2022-09-14,安井建創株式会社,,株式会社,京都府,与謝郡与謝野町,字石川４６２番地,,26,465,6292303,,,,,,,2022-09-14,1,,,,,ヤスイケンソウ,0
467,2130001072619,新規,0,2022-09-14,2022-09-14,株式会社Ｎｉｓｈｉｄａ,,株式会社,京都府,京都市伏見区,醍醐西大路町２８番地１０,,26,109,6011374,,,,,,,2022-09-14,1,,,,,ニシダ,0
470,2140001127371,新規,0,2022-09-14,2022-09-14,株式会社Ｃｏｌｏｒｉｓ,,株式会社,兵庫県,加古川市,東神吉町神吉５２０番地の６,,28,210,6750057,,,,,,,2022-09-14,1,,,,,クロリ,0
471,2140001127396,新規,0,2022-09-14,2022-09-14,株式会社ＴＨＥ　ＦＡＣＴＯＲＹ,,株式会社,兵庫県,神戸市灘区,森後町３丁目２番２号,,28,102,6570028,,,,,,,2022-09-14,1,,,,,ザファクトリー,0
475,2140003018131,新規,0,2022-09-14,2022-09-14,合同会社昌達,,合同会社,兵庫県,神戸市中央区,海岸通４丁目３番１５号３Ｆ,,28,110,6500024,,,,,,,2022-09-14,1,,,,,ショウタツ,0
496,2180305009386,新規,0,2022-09-14,2022-09-14,医療法人久保田クリニック,,その他の設立登記法人,愛知県,豊田市,柿本町６丁目２１番地,,23,211,4710855,,,,,,,2022-09-14,1,,,,,クボタクリニック,0
516,2260005011139,新規,0,2022-09-14,2022-09-14,Ｇｌｏｂａｌ　Ｅｒｅｃｔｉｏｎ協同組合,,その他の設立登記法人,岡山県,倉敷市,児島下の町９丁目１５番２号,,33,202,7110906,,,,,,,2022-09-14,1,,,,,グローバルエレクション,0
527,2290001098920,新規,0,2022-09-14,2022-09-14,株式会社ＬＯＯＰ　ＤＲＵＮＫ,,株式会社,福岡県,那珂川市,片縄西５丁目１３番６号,,40,231,8111202,,,,,,,2022-09-14,1,,,,,ループドランク,0
530,2290003012945,新規,0,2022-09-14,2022-09-14,合同会社ＬＩＳＳ,,合同会社,福岡県,福岡市中央区,天神４丁目６番２８号天神ファーストビル７Ｆ,,40,133,8100001,,,,,,,2022-09-14,1,,,,,リス,0
531,2290003012953,新規,0,2022-09-14,2022-09-14,合同会社ＩＲＥＸソリューション,,合同会社,福岡県,大野城市,東大利３丁目４番６号サークコート下大利６０２号,,40,219,8160941,,,,,,,2022-09-14,1,,,,,アイレックスソリューション,0
533,2290801028894,新規,0,2022-09-14,2022-09-14,株式会社レンビ,,株式会社,福岡県,行橋市,中央１丁目８番２,,40,213,8240005,,,,,,,2022-09-14,1,,,,,レシピ,0
534,2290803004200,新規,0,2022-09-14,2022-09-14,令和ドローンイノベーション合同会社,,合同会社,福岡県,直方市,溝堀２丁目３番４７号,,40,204,8220013,,,,,,,2022-09-14,1,,,,,レイワドローンイノベーション,0
540,2310003004444,新規,0,2022-09-14,2022-09-14,クリア・サーキット合同会社,,合同会社,長崎県,長崎市,上小島５丁目１１番４９号,,42,201,8500834,,,,,,,2022-09-14,1,,,,,クリアサーキット,0
547,2340001025035,新規,0,2022-09-14,2022-09-14,株式会社ヘラカブコネクション,,株式会社,鹿児島県,鹿児島市,上谷口町４６１６番地１,,46,201,8992703,,,,,,,2022-09-14,1,,,,,ヘラカブコネクション,0
551,2340005009505,新規,0,2022-09-14,2022-09-14,医療法人アンジェリ,,その他の設立登記法人,鹿児島県,鹿児島市,東千石町１番地１第８川北ビル３階,,46,201,8920842,,,,,,,2022-09-14,1,,,,,アンジェリ,0
554,2370001049048,新規,0,2022-09-14,2022-09-14,株式会社ＴＧコープサポート,,株式会社,宮城県,仙台市青葉区,土樋１丁目３－１,,04,101,9800065,,,,,,,2022-09-14,1,,,,,ティージーコープサポート,0
557,2370003005833,新規,0,2022-09-14,2022-09-14,ＮＫＰ合同会社,,合同会社,宮城県,黒川郡大和町,もみじケ丘３丁目５番地の１７,,04,421,9813622,,,,,,,2022-09-14,1,,,,,エヌケーピー,0
565,2430001087487,新規,0,2022-09-14,2022-09-14,株式会社ＮＵＴ’Ｓ,,株式会社,北海道,千歳市,花園５丁目７番３－４０１号,,01,224,0660028,,,,,,,2022-09-14,1,,,,,ナッツ,0
567,2430003014266,新規,0,2022-09-14,2022-09-14,合同会社アミュゾント,,合同会社,北海道,札幌市中央区,南三条西３丁目９番地２ピクシスビル７階,,01,101,0600063,,,,,,,2022-09-14,1,,,,,アミュゾント,0
580,2700150109915,新規,0,2022-09-14,2022-06-16,わよう書道会,,その他,東京都,文京区,湯島２丁目１４－１２,,13,105,1130034,,,,,,,2022-06-16,1,,,,,ワヨウシヨドウカイ,0
593,3010001229519,新規,0,2022-09-14,2022-09-14,Ｌａｋｅｔｒｉｃｉｔｙ　Ｊａｐａｎ株式会社,,株式会社,東京都,中央区,京橋３丁目１２－７京橋山本ビル３階ＣｉｅｌＴｅｒｒｅＪａｐａｎ内,,13,102,1040031,,,,,,,2022-09-14,1,,,,,レケトリシティジャパン,0
597,3010005035566,新規,0,2022-09-14,2022-09-14,一般社団法人サーキュラーグリーンエナジー,,その他の設立登記法人,東京都,中央区,八丁堀４丁目２番１０号ＡＯＪ税理士法人内,,13,102,1040032,,,,,,,2022-09-14,1,,,,,サーキュラーグリーンエナジー,0
599,3010401169752,新規,0,2022-09-14,2022-09-14,アイエムアイ保険サービス株式会社,,株式会社,東京都,港区,西麻布１丁目１１番６号ホテル＆レジデンス六本木７１０号,,13,103,1060031,,,,,,,2022-09-14,1,,,,,アイエムアイホケンサービス,0
604,3010403028485,新規,0,2022-09-14,2022-09-14,合同会社Ｌｉｎａ　Ｓｙｓｔｅｍｚ,,合同会社,東京都,港区,新橋５丁目５番７号ニュー星野ビル,,13,103,1050004,,,,,,,2022-09-14,1,,,,,リナシステムズ,0
605,3010501049367,新規,0,2022-09-14,2022-09-14,株式会社又一,,株式会社,東京都,台東区,上野３丁目１６番２号天翔上野末広町ビル９０８,,13,106,1100005,,,,,,,2022-09-14,1,,,,,マタイチ,0
611,3010901051633,新規,0,2022-09-14,2022-09-14,Ａｌｌｅｇｒｏ株式会社,,株式会社,東京都,世田谷区,弦巻２丁目３０－１３ブランズ弦巻２丁目２０１号室,,13,112,1540016,,,,,,,2022-09-14,1,,,,,アレグロ,0
619,3011001149715,新規,0,2022-09-14,2022-09-14,株式会社ＰＡＮ　ＦＯＣＵＳ,,株式会社,東京都,渋谷区,道玄坂１丁目１０番８号渋谷道玄坂東急ビル２Ｆ－Ｃ,,13,113,1500043,,,,,,,2022-09-14,1,,,,,パンフォーカス,0
620,3011001149731,新規,0,2022-09-14,2022-09-14,株式会社ＲＥ,,株式会社,東京都,渋谷区,神宮前４丁目１５－１６ジートルンク原宿２０６,,13,113,1500001,,,,,,,2022-09-14,1,,,,,アールイー,0
632,3011601026248,新規,0,2022-09-14,2022-09-14,ＡＥＣ株式会社,,株式会社,東京都,練馬区,桜台１丁目７番７号４Ｆ４２１号室,,13,120,1760002,,,,,,,2022-09-14,1,,,,,エース,0
637,3011805003209,新規,0,2022-09-14,2022-09-14,医療法人社団匡佑会,,その他の設立登記法人,東京都,足立区,扇３丁目１３番１２号プルミエールＩ１階,00127841,13,121,1230873,,,,,,,2022-09-14,1,,,,,キョウユウカイ,0
641,3012401039638,新規,0,2022-09-14,2022-09-14,株式会社みがく,,株式会社,東京都,武蔵野市,西久保３丁目１８番４－２０２号,,13,203,1800013,,,,,,,2022-09-14,1,,,,,ミガク,0
643,3012701017252,新規,0,2022-09-14,2022-09-14,株式会社シバモリ,,株式会社,東京都,小平市,花小金井５丁目５８番１３号,,13,211,1870002,,,,,,,2022-09-14,1,,,,,シバモリ,0
644,3013301049652,新規,0,2022-09-14,2022-09-14,株式会社ブロスシステム,,株式会社,東京都,豊島区,南池袋２丁目４５番２号,,13,116,1710022,,,,,,,2022-09-14,1,,,,,ブロスシステム,0
647,3020003022383,新規,0,2022-09-14,2022-09-14,ノース・スター・ピクチャーズ合同会社,,合同会社,神奈川県,川崎市麻生区,白山４丁目１－３新ゆりグリーンプラザ南棟１Ｆ２１号,,14,137,2150014,,,,,,,2022-09-14,1,,,,,ノーススターピクチャーズ,0
660,3030001150111,新規,0,2022-09-14,2022-09-14,株式会社結,,株式会社,埼玉県,鴻巣市,箕田字二本木３７９９番地８,,11,217,3650062,,,,,,,2022-09-14,1,,,,,ユイ,0
663,3030003020205,新規,0,2022-09-14,2022-09-14,ペンギングループ合同会社,,合同会社,埼玉県,ふじみ野市,亀久保１１５４番２６号１０２大井ガーデンビル,,11,245,3560051,,,,,,,2022-09-14,1,,,,,ペンギングループ,0
679,3050003006854,新規,0,2022-09-14,2022-09-14,合同会社ＣＰＳＹ　ＩＮＴＥＲＮＡＴＩＯＮＡＬ,,合同会社,茨城県,石岡市,大砂１４２９２,,08,205,3150009,,,,,,,2022-09-14,1,,,,,シーピーエスワイインターナショナル,0
681,3060005010011,新規,0,2022-09-14,2022-09-14,社会保険労務士法人ＨＡＶＥＬ,,その他の設立登記法人,栃木県,宇都宮市,駒生町１２９６番地３５,,09,201,3200065,,,,,,,2022-09-14,1,,,,,ハーベル,0
706,3120001248821,新規,0,2022-09-14,2022-09-14,株式会社サンライズジャパン,,株式会社,大阪府,枚方市,村野東町６８番２号,,27,210,5730015,,,,,,,2022-09-14,1,,,,,サンライズジャパン,0
707,3120001248838,新規,0,2022-09-14,2022-09-14,株式会社石田オフィス,,株式会社,大阪府,守口市,豊秀町２丁目７番４－９０４号,,27,209,5700082,,,,,,,2022-09-14,1,,,,,イシダオフィス,0
708,3120001248846,新規,0,2022-09-14,2022-09-14,株式会社ＩＮＧ,,株式会社,大阪府,大阪市西区,北堀江２丁目４番１１号サンライズビル１０－２８,,27,106,5500014,,,,,,,2022-09-14,1,,,,,アイエヌジー,0
720,3120105009624,新規,0,2022-09-14,2022-09-14,一般社団法人ハッピーライフ,,その他の設立登記法人,大阪府,堺市南区,高倉台２丁８番３２号,,27,145,5900117,,,,,,,2022-09-14,1,,,,,ハッピーライフ,0
723,3122003002421,新規,0,2022-09-14,2022-09-14,合同会社ＧＬＡＮＺ,,合同会社,大阪府,東大阪市,加納３丁目３－３４,,27,227,5780901,,,,,,,2022-09-14,1,,,,,グランツ,0
727,3130001072601,新規,0,2022-09-14,2022-09-14,株式会社西村測量,,株式会社,京都府,京丹後市,大宮町善王寺６１０番地の２,,26,212,6292504,,,,,,,2022-09-14,1,,,,,ニシムラソクリョウ,0
748,3180001152984,新規,0,2022-09-14,2022-09-14,株式会社菱屋,,株式会社,愛知県,名古屋市東区,東桜１丁目１０番３４号,,23,102,4610005,,,,,,,2022-09-14,1,,,,,ヒシヤ,0
749,3180001153017,新規,0,2022-09-14,2022-09-14,株式会社丸越,,株式会社,愛知県,名古屋市西区,枇杷島３丁目２８番２３号,,23,104,4510053,,,,,,,2022-09-14,1,,,,,マルコシ,0
750,3180003024240,新規,0,2022-09-14,2022-09-14,合同会社ＡＹＬＡ,,合同会社,愛知県,海部郡蟹江町,今西２丁目２９２番地Ｙ’ｓ蟹江２０２号,,23,425,4970037,,,,,,,2022-09-14,1,,,,,アイラ,0
752,3180305009385,新規,0,2022-09-14,2022-09-14,医療法人イマイズミ,,その他の設立登記法人,愛知県,岡崎市,羽根町字小豆坂１３２番地,,23,202,4440814,,,,,,,2022-09-14,1,,,,,イマイズミ,0
757,3200003005650,新規,0,2022-09-14,2022-09-14,合同会社Ｂｅｙｏｎｄ　Ｔｈｅ　Ｇｉｆｔｅｄ,,合同会社,岐阜県,岐阜市,茜部菱野３丁目２６番地,,21,201,5008268,,,,,,,2022-09-14,1,,,,,ビヨンドザギフテッド,0
769,3260003004036,新規,0,2022-09-14,2022-09-14,合同会社Ｍ’ｓ,,合同会社,岡山県,岡山市南区,西紅陽台３丁目１番地１４５,,33,104,7091203,,,,,,,2022-09-14,1,,,,,エムズ,0
774,3290001098894,新規,0,2022-09-14,2022-09-14,株式会社ＭＩＥＵＸ,,株式会社,福岡県,筑紫野市,二日市中央１丁目６番１３号,,40,217,8180072,,,,,,,2022-09-14,1,,,,,ミュー,0
775,3290001098928,新規,0,2022-09-14,2022-09-14,株式会社スロウ,,株式会社,福岡県,八女郡広川町,大字新代１３８９番地３１６,,40,544,8340115,,,,,,,2022-09-14,1,,,,,スロウ,0
776,3290001098936,新規,0,2022-09-14,2022-09-14,双楽産業株式会社,,株式会社,福岡県,福岡市東区,箱崎１丁目１５番２３号,,40,131,8120053,,,,,,,2022-09-14,1,,,,,ソウラクサンギョウ,0
785,3290003012936,新規,0,2022-09-14,2022-09-14,合同会社ＯＺＥＫＩ　ＧＲＯＵＰ,,合同会社,福岡県,筑紫野市,針摺中央２丁目１３番１９号,00127852,40,217,8180083,,,,,,,2022-09-14,1,,,,,,0
786,3290003012952,新規,0,2022-09-14,2022-09-14,合同会社らびっと,,合同会社,福岡県,八女郡広川町,大字久泉５７６番地８,,40,544,8340112,,,,,,,2022-09-14,1,,,,,ラビット,0
789,3290005018808,新規,0,2022-09-14,2022-09-14,一般社団法人寺子屋,,その他の設立登記法人,福岡県,小郡市,上西鰺坂２４０番地,,40,216,8380100,,,,,,,2022-09-14,1,,,,,テラコヤ,0
792,3290803004199,新規,0,2022-09-14,2022-09-14,合同会社ＫＯＵＭＥ,,合同会社,福岡県,中間市,中尾１丁目５番３２号,,40,215,8090032,,,,,,,2022-09-14,1,,,,,コウメ,0
804,3340001025034,新規,0,2022-09-14,2022-09-14,株式会社鹿児島サブレ,,株式会社,鹿児島県,鹿児島市,谷山港１丁目３番２３,,46,201,8910131,,,,,,,2022-09-14,1,,,,,カゴシマサブレ,0
812,3370001049047,新規,0,2022-09-14,2022-09-14,アンド・イーツ株式会社,,株式会社,宮城県,仙台市青葉区,花京院１丁目２番１５号,,04,101,9800013,,,,,,,2022-09-14,1,,,,,アンドイーツ,0
815,3370003005832,新規,0,2022-09-14,2022-09-14,グリーンアロー合同会社,,合同会社,宮城県,多賀城市,高崎３丁目２１番１－１０２号,,04,209,9850862,,,,,,,2022-09-14,1,,,,,グリーンアロー,0
818,3400001016002,新規,0,2022-09-14,2022-09-14,株式会社ＴＮ通信,,株式会社,岩手県,盛岡市,西青山３丁目１０番１３号,,03,201,0200132,,,,,,,2022-09-14,1,,,,,ティーエヌツウシン,0
819,3400005008268,新規,0,2022-09-14,2022-09-14,一般社団法人岩手県中央古民家再生協会,,その他の設立登記法人,岩手県,盛岡市,中央通２丁目１０番２０号,,03,201,0200021,,,,,,,2022-09-14,1,,,,,イワテケンチュウオウコミンカサイセイキョウカイ,0
822,3420003002576,新規,0,2022-09-14,2022-09-14,合同会社オフィス八百門,,合同会社,青森県,八戸市,大字尻内町字家口田４番地１,,02,203,0391101,,,,,,,2022-09-14,1,,,,,オフィスヤオト,0
829,3700150111696,新規,0,2022-09-14,2022-09-14,センター・フォー・インターナショナル・ジャーナリズム・エデュケーション,,その他,神奈川県,川崎市麻生区,細山５丁目１２－７,,14,137,2150001,,,,,,,2022-09-14,1,,,,,センターフォーインターナショナルジャーナリズムエデュケーション,0
838,4010001229451,新規,0,2022-09-14,2022-09-14,株式会社Ｌ＆Ａ,,株式会社,東京都,文京区,千石４丁目３３番８‐５０３号,,13,105,1120011,,,,,,,2022-09-14,1,,,,,エルアンドエイ,0
839,4010001229468,新規,0,2022-09-14,2022-09-14,Ｒｅｈｍａｎ　Ｉｎｄｕｓｔｒｉｅｓ株式会社,,株式会社,東京都,千代田区,丸の内１丁目８番３号,,13,101,1000005,,,,,,,2022-09-14,1,,,,,レーマンインダストリーズ,0
840,4010001229526,新規,0,2022-09-14,2022-09-14,株式会社ホワイトミラー,,株式会社,東京都,中央区,佃２丁目１番１号センチュリーパークタワー４９Ｆ,,13,102,1040051,,,,,,,2022-09-14,1,,,,,ホワイトミラー,0
845,4010101015330,新規,0,2022-09-14,2022-09-14,株式会社アゼリアトータルサービス,,株式会社,東京都,八王子市,南新町４番地１２ベルヴ八王子１０１号,,13,201,1920075,,,,,,,2022-09-14,1,,,,,アゼリアトータルサービス,0
854,4010405021355,新規,0,2022-09-14,2022-09-14,医療法人社団インターナショナルヘルスケアクリニック,,その他の設立登記法人,東京都,港区,新橋２丁目１０番５号末吉ビル３Ｆ,,13,103,1050004,,,,,,,2022-09-14,1,,,,,インターナショナルヘルスケアクリニック,0
859,4010701043210,新規,0,2022-09-14,2022-09-14,株式会社Ｈａｖｅｆｕｎ,,株式会社,東京都,品川区,東大井２丁目１４番１－５０４号,,13,109,1400011,,,,,,,2022-09-14,1,,,,,ハブファン,0
865,4010803004283,新規,0,2022-09-14,2022-09-14,ＳＡＫＵＲＡ合同会社,,合同会社,東京都,大田区,南六郷２丁目３５番３－４１０号,,13,111,1440045,,,,,,,2022-09-14,1,,,,,サクラ,0
875,4011001149722,新規,0,2022-09-14,2022-09-14,株式会社井上屋,,株式会社,東京都,渋谷区,松濤２丁目１４番１２－２０８号,,13,113,1500046,,,,,,,2022-09-14,1,,,,,イノウエヤ,0
876,4011001149771,新規,0,2022-09-14,2022-09-14,株式会社ＯＯＡＫ,,株式会社,東京都,渋谷区,南平台町４番１１号南平台ツイン１階,,13,113,1500036,,,,,,,2022-09-14,1,,,,,オーク,0
878,4011201024089,新規,0,2022-09-14,2022-09-14,ＪＤ　ＪＡＰＡＮ株式会社,,株式会社,東京都,中野区,本町４丁目４４番１３号西京城西ビル２Ｆ－２５,,13,114,1640012,,,,,,,2022-09-14,1,,,,,ジェイディージャパン,0
890,4011601026230,新規,0,2022-09-14,2022-09-14,株式会社エアーライズ,,株式会社,東京都,練馬区,西大泉５丁目７番２号,,13,120,1780065,,,,,,,2022-09-14,1,,,,,エアーライズ,0
900,4012301013130,新規,0,2022-09-14,2022-09-14,ＯＮＭ総研株式会社,,株式会社,東京都,町田市,成瀬２丁目７番地２,,13,209,1940044,,,,,,,2022-09-14,1,,,,,オーエヌエムソウケン,0
907,4013301049651,新規,0,2022-09-14,2022-09-14,株式会社暁積算,,株式会社,東京都,豊島区,南池袋２丁目４５番２号,,13,116,1710022,,,,,,,2022-09-14,1,,,,,アカツキセキサン,0
910,4020001148188,新規,0,2022-09-14,2022-09-14,ｗａｖｅｓ　ｃｏｎｓｕｌｔｉｎｇ＆ｔｒａｄｉｎｇ株式会社,,株式会社,神奈川県,川崎市高津区,下野毛３丁目６番２２号Ｂ号棟,,14,134,2130006,,,,,,,2022-09-14,1,,,,,ウェーブズコンサルティングアンドトレーディング,0
911,4020001148205,新規,0,2022-09-14,2022-09-14,株式会社ｎｉｎｅ,,株式会社,神奈川県,川崎市中原区,小杉町２丁目２２８番地１,,14,133,2110063,,,,,,,2022-09-14,1,,,,,ナイン,0
919,4020003022399,新規,0,2022-09-14,2022-09-14,合同会社山川ブロック,,合同会社,神奈川県,川崎市多摩区,菅北浦２丁目２４番４３号,,14,135,2140008,,,,,,,2022-09-14,1,,,,,ヤマカワブロック,0
920,4020005015657,新規,0,2022-09-14,2022-09-14,一般社団法人日本未来黒板研究所,,その他の設立登記法人,神奈川県,横浜市中区,根岸旭台３５番地６,,14,104,2310854,,,,,,,2022-09-14,1,,,,,ニホンミライコクバンケンキュウジョ,0
927,4021001076981,新規,0,2022-09-14,2022-09-14,株式会社アイテックホーム,,株式会社,神奈川県,相模原市中央区,上溝１９１８番地１－３０１号,,14,152,2520243,,,,,,,2022-09-14,1,,,,,アイテックホーム,0
938,4030001150093,新規,0,2022-09-14,2022-09-14,協和企画株式会社,,株式会社,埼玉県,朝霞市,本町２丁目１５番７号,,11,227,3510011,,,,,,,2022-09-14,1,,,,,キョウワキカク,0
947,4030003020204,新規,0,2022-09-14,2022-09-14,ＺＳ　ＩＮＴＥＲＮＡＴＩＯＮＡＬ合同会社,,合同会社,埼玉県,幸手市,大字神明内１１６０番地１９,,11,240,3400122,,,,,,,2022-09-14,1,,,,,ゼットエスインターナショナル,0
953,4040001125061,新規,0,2022-09-14,2022-09-14,ＧＯＯＤ　ＬＵＣＫ　ＰＡＰＡ株式会社,,株式会社,千葉県,流山市,西平井１丁目１３番地の８,,12,220,2700156,,,,,,,2022-09-14,1,,,,,グッドラックパパ,0
961,4050003006853,新規,0,2022-09-14,2022-09-14,合同会社ＢＥＳＴ　ＷＡＹ,,合同会社,茨城県,猿島郡境町,大字百戸字中坪１９６番地１,,08,546,3060423,,,,,,,2022-09-14,1,,,,,ベストウェイ,0
964,4060003004212,新規,0,2022-09-14,2022-09-14,合同会社Ｊ‐Ｃｒａｆｔ,,合同会社,栃木県,宇都宮市,氷室町１７２８－４７,,09,201,3213232,,,,,,,2022-09-14,1,,,,,ジェイクラフト,0
967,4070001039639,新規,0,2022-09-14,2022-09-14,ＡＬ‐ＭＩＡＮ　ＭＯＴＯＲＳ株式会社,,株式会社,群馬県,伊勢崎市,北千木町８３３番地１,,10,204,3720032,,,,,,,2022-09-14,1,,,,,アルミアモーターズ,0
970,4080001025191,新規,0,2022-09-14,2022-09-14,株式会社シミズトライムプレシジョン,,株式会社,静岡県,静岡市清水区,長崎新田４２８番地の１,,22,103,4240064,,,,,,,2022-09-14,1,,,,,シミズトライムプレシジョン,0
990,4120001248804,新規,0,2022-09-14,2022-09-14,株式会社Ｄ‐ＮＥＯ,,株式会社,大阪府,門真市,城垣町１７番１４－５号,,27,223,5710072,,,,,,,2022-09-14,1,,,,,ディーネオ,0
991,4120001248845,新規,0,2022-09-14,2022-09-14,株式会社ｇｌａｂ,,株式会社,大阪府,大阪市淀川区,西宮原２丁目５番４６－２１１,,27,123,5320004,,,,,,,2022-09-14,1,,,,,グラブ,0
1004,4120005023187,新規,0,2022-09-14,2022-09-14,一般社団法人西大阪ＳＤＮ,,その他の設立登記法人,大阪府,大阪市住之江区,東加賀屋２丁目７番２０号,,27,125,5590012,,,,,,,2022-09-14,1,,,,,ニシオオサカエスディーエヌ,0
1008,4120101066222,新規,0,2022-09-14,2022-09-14,株式会社ｒｅ,,株式会社,大阪府,岸和田市,上野町東１３番７号,,27,202,5960047,,,,,,,2022-09-14,1,,,,,アールイー,0
1009,4120101066230,新規,0,2022-09-14,2022-09-14,株式会社松井設備工業,,株式会社,大阪府,堺市堺区,出島海岸通１丁１１番３０号,,27,141,5900833,,,,,,,2022-09-14,1,,,,,マツイセツビコウギョウ,0
1013,4120103004849,新規,0,2022-09-14,2022-09-14,合同会社ＱＵＩＥＴＰＬＵＳ,,合同会社,大阪府,和泉市,伯太町１丁目８－１９６－１,,27,219,5940023,,,,,,,2022-09-14,1,,,,,クワイエットプラス,0
1014,4120105009623,新規,0,2022-09-14,2022-09-14,一般社団法人ハンナンテ,,その他の設立登記法人,大阪府,泉南市,男里６丁目１５番地１号サザンコーストＢ－１１０４,,27,228,5900526,,,,,,,2022-09-14,1,,,,,ハンナンテ,0
1026,4130001072583,新規,0,2022-09-14,2022-09-14,株式会社ルシェルアイズ,,株式会社,京都府,京都市下京区,東塩小路町５５７番地１ユーアイビル８Ｆ,,26,106,6000000,,,,,,,2022-09-14,1,,,,,ルシェルアイズ,0
1035,4140001127329,新規,0,2022-09-14,2022-09-14,株式会社平野溶工,,株式会社,兵庫県,尼崎市,南武庫之荘１２丁目２０番４０号,,28,202,6610033,,,,,,,2022-09-14,1,,,,,ヒラノヨウコウ,0
1036,4140001127386,新規,0,2022-09-14,2022-09-14,アローズ神戸国際人事労務コンサルティングＡＳＩＡ　ＰＡＣＩＦＩＣ株式会社,,株式会社,兵庫県,神戸市中央区,御幸通８丁目１番６号神戸国際会館２２階,,28,110,6510087,,,,,,,2022-09-14,1,,,,,アローズコウベコクサイジンジロウムコンサルティングアジアパシフィック,0
1059,4220001025029,新規,0,2022-09-14,2022-09-14,株式会社ＳＩＮＮ,,株式会社,石川県,白山市,三浦町５８８番地１,,17,210,9240815,,,,,,,2022-09-14,1,,,,,シン,0
1063,4240001060370,新規,0,2022-09-14,2022-09-14,ツリー株式会社,,株式会社,広島県,広島市中区,基町５番４４号広島商工会議所ビル８階,,34,101,7300011,,,,,,,2022-09-14,1,,,,,ツリー,0
1066,4240005015445,新規,0,2022-09-14,2022-09-14,ＨＲＤ協同組合,,その他の設立登記法人,広島県,広島市東区,温品３丁目２３番７－１２号,,34,102,7320033,,,,,,,2022-09-14,1,,,,,エイチアールディー,0
1072,4260001037251,新規,0,2022-09-14,2022-09-14,株式会社ぼっちり,,株式会社,岡山県,岡山市北区,弓之町５番２１号,,33,101,7000817,,,,,,,2022-09-14,1,,,,,ボッチリ,0
1084,4290001098910,新規,0,2022-09-14,2022-09-14,株式会社シマケン,,株式会社,福岡県,福津市,星ヶ丘４番１号,,40,224,8113308,,,,,,,2022-09-14,1,,,,,シマケン,0
1085,4290001098927,新規,0,2022-09-14,2022-09-14,メガインターナショナル株式会社,,株式会社,福岡県,久留米市,日吉町１３番地３９丸一ビル１階,,40,203,8300017,,,,,,,2022-09-14,1,,,,,メガインターナショナル,0
1086,4290001098935,新規,0,2022-09-14,2022-09-14,ココテラス株式会社,,株式会社,福岡県,福岡市博多区,博多駅前２丁目１９番１７号,,40,132,8120011,,,,,,,2022-09-14,1,,,,,ココテラス,0
1088,4290003012951,新規,0,2022-09-14,2022-09-14,合同会社カーズ,,合同会社,福岡県,筑紫野市,大字永岡１３０８－１,,40,217,8180066,,,,,,,2022-09-14,1,,,,,カーズ,0
1099,4320003003906,新規,0,2022-09-14,2022-09-14,合同会社ウミ,,合同会社,大分県,大分市,長浜町１丁目２番５－５０８リビングハイツ長浜Ａ,,44,201,8700023,,,,,,,2022-09-14,1,,,,,ウミ,0
1104,4340001025033,新規,0,2022-09-14,2022-09-14,株式会社フレッシュレイ,,株式会社,鹿児島県,鹿児島市,谷山港１丁目３番２３,,46,201,8910131,,,,,,,2022-09-14,1,,,,,フレッシュレイ,0
1106,4340003003904,新規,0,2022-09-14,2022-09-14,ｕｎｄｅｒｄｏｇ合同会社,,合同会社,鹿児島県,鹿児島市,春日町１２番２１－９０４号,,46,201,8920804,,,,,,,2022-09-14,1,,,,,アンダードッグ,0
1108,4360001030972,新規,0,2022-09-14,2022-09-14,株式会社Ｔｉｐ,,株式会社,沖縄県,那覇市,小禄１丁目１－４０コーポ上原２０１,,47,201,9010152,,,,,,,2022-09-14,1,,,,,チップ,0
1110,4370001049046,新規,0,2022-09-14,2022-09-14,エー・ワークス株式会社,,株式会社,宮城県,仙台市若林区,なないろの里２丁目２５番地の１,,04,103,9840017,,,,,,,2022-09-14,1,,,,,エーワークス,0
1113,4370003005831,新規,0,2022-09-14,2022-09-14,ＨＦＨ合同会社,,合同会社,宮城県,仙台市青葉区,高松１丁目１６番１０号コーポ高松１０３号室,,04,101,9810907,,,,,,,2022-09-14,1,,,,,エイチエフエイチ,0
1132,4430003014264,新規,0,2022-09-14,2022-09-14,合同会社ＢＡＣＨ,,合同会社,北海道,札幌市東区,北二十六条東２２丁目１番２１号,,01,103,0650026,,,,,,,2022-09-14,1,,,,,バッハ,0
1142,4500001024464,新規,0,2022-09-14,2022-09-14,株式会社エムステップ,,株式会社,愛媛県,松山市,和泉北１丁目１番１４号,,38,201,7900038,,,,,,,2022-09-14,1,,,,,エムステップ,0
1153,5010001229517,新規,0,2022-09-14,2022-09-14,株式会社エレガンティア,,株式会社,東京都,千代田区,丸の内２丁目３番２号,,13,101,1000005,,,,,,,2022-09-14,1,,,,,,0
1154,5010001229525,新規,0,2022-09-14,2022-09-14,ＬＰＰプロパティマネジメント株式会社,,株式会社,東京都,千代田区,神田須田町１丁目２４番地６ＡＣＮ神田須田町ビル３Ｆ,,13,101,1010041,,,,,,,2022-09-14,1,,,,,エルピーピープロパティマネジメント,0
1174,5010401169684,新規,0,2022-09-14,2022-09-14,株式会社川島町計画１号,,株式会社,東京都,港区,北青山２丁目７番１３号プラセオ青山ビル３Ｆ,,13,103,1070061,,,,,,,2022-09-14,1,,,,,カワジママチケイカクイチゴウ,0
1197,5011001149655,新規,0,2022-09-14,2022-09-14,株式会社ＩＮＳＨＩ,,株式会社,東京都,渋谷区,恵比寿西１丁目３３番６号ＪＰｎｏｉｅ恵比寿西,,13,113,1500021,,,,,,,2022-09-14,1,,,,,インシ,0
1198,5011001149754,新規,0,2022-09-14,2022-09-14,ＭＦＡＳ株式会社,,株式会社,東京都,渋谷区,広尾１丁目７番２０号,,13,113,1500012,,,,,,,2022-09-14,1,,,,,エムファス,0
1199,5011001149770,新規,0,2022-09-14,2022-09-14,株式会社ＣＲＡＺＹ４ＹＯＵ,,株式会社,東京都,目黒区,青葉台３丁目６番１６号,,13,110,1530042,,,,,,,2022-09-14,1,,,,,クレイジーフォーユー,0
1201,5011003015376,新規,0,2022-09-14,2022-09-14,合同会社ＴＯＣ,,合同会社,東京都,渋谷区,渋谷２丁目１９番１５号宮益坂ビルディング６０９,,13,113,1500002,,,,,,,2022-09-14,1,,,,,ティーオーシー,0
1209,5011101100179,新規,0,2022-09-14,2022-09-14,株式会社Ｌｉｂｒａ,,株式会社,東京都,新宿区,四谷坂町１番１１号四谷クリエイトビル３Ｆ,,13,104,1600002,,,,,,,2022-09-14,1,,,,,リーブラ,0
1220,5011801041284,新規,0,2022-09-14,2022-09-14,株式会社敏,,株式会社,東京都,足立区,東伊興２丁目１番２２号,,13,121,1210801,,,,,,,2022-09-14,1,,,,,トシ,0
1222,5012403005578,新規,0,2022-09-14,2022-09-14,合同会社観月,,合同会社,東京都,武蔵野市,吉祥寺本町１丁目１番１３号,,13,203,1800004,,,,,,,2022-09-14,1,,,,,カンゲツ,0
1228,5013301049650,新規,0,2022-09-14,2022-09-14,株式会社響設計,,株式会社,東京都,豊島区,南池袋２丁目４５番２号,,13,116,1710022,,,,,,,2022-09-14,1,,,,,ヒビキセッケイ,0
1229,5013301049667,新規,0,2022-09-14,2022-09-14,徳合株式会社,00127851,株式会社,東京都,豊島区,池袋３丁目３８番２号,,13,116,1710014,,,,,,,2022-09-14,1,,,,,トクアイ,0
1233,5020001148154,新規,0,2022-09-14,2022-09-14,十方株式会社,,株式会社,神奈川県,横浜市南区,万世町２丁目２８－１階,,14,105,2320032,,,,,,,2022-09-14,1,,,,,ジッポウ,0
1234,5020001148187,新規,0,2022-09-14,2022-09-14,株式会社佐藤建築所,,株式会社,神奈川県,横浜市保土ケ谷区,星川３丁目２１番２０号,,14,106,2400006,,,,,,,2022-09-14,1,,,,,サトウケンチクジョ,0
1235,5020001148220,新規,0,2022-09-14,2022-09-14,株式会社ＡＬＬ　ＴＨＩＮＧＳ,,株式会社,神奈川県,横浜市神奈川区,上反町１丁目５番地１９,,14,102,2210831,,,,,,,2022-09-14,1,,,,,オールシングス,0
1236,5020003022398,新規,0,2022-09-14,2022-09-14,合同会社勝よし,,合同会社,神奈川県,横浜市戸塚区,平戸２丁目３４番４６－Ｂ号,,14,110,2440802,,,,,,,2022-09-14,1,,,,,カツヨシ,0
1252,5030001150076,新規,0,2022-09-14,2022-09-14,株式会社ミライスト,,株式会社,埼玉県,春日部市,八丁目１８００番地１,,11,214,3440006,,,,,,,2022-09-14,1,,,,,ミライスト,0
1253,5030001150118,新規,0,2022-09-14,2022-09-14,株式会社サルト,,株式会社,埼玉県,川口市,北原台３丁目１６番４５号,,11,203,3330815,,,,,,,2022-09-14,1,,,,,サルト,0
1254,5030001150126,新規,0,2022-09-14,2022-09-14,株式会社もやい,,株式会社,埼玉県,さいたま市南区,南浦和２丁目１２番７－３号,,11,108,3360017,,,,,,,2022-09-14,1,,,,,モヤイ,0
1255,5030001150134,新規,0,2022-09-14,2022-09-14,株式会社オフィス・ラ・ルミエール,,株式会社,埼玉県,さいたま市大宮区,吉敷町３丁目１４９番地,,11,103,3300843,,,,,,,2022-09-14,1,,,,,オフィスラルミエール,0
1268,5050003006836,新規,0,2022-09-14,2022-09-14,ディープインパクト合同会社,,合同会社,茨城県,稲敷郡阿見町,大字若栗１３７６－６,,08,443,3000333,,,,,,,2022-09-14,1,,,,,ディープインパクト,0
1274,5080001025190,新規,0,2022-09-14,2022-09-14,株式会社近藤工設,,株式会社,静岡県,静岡市駿河区,手越原９１番地の４,,22,102,4210131,,,,,,,2022-09-14,1,,,,,コンドウコウセツ,0
1281,5100001035699,新規,0,2022-09-14,2022-09-14,株式会社ネメシス,,株式会社,長野県,松本市,中央１丁目７番１３号,,20,202,3900811,,,,,,,2022-09-14,1,,,,,ネメシス,0
1283,5110001036969,新規,0,2022-09-14,2022-09-14,株式会社ゼウス,,株式会社,新潟県,村上市,山居町１丁目１５番１４号,,15,212,9580853,,,,,,,2022-09-14,1,,,,,ゼウス,0
1298,5120001248729,新規,0,2022-09-14,2022-09-14,株式会社夢,,株式会社,大阪府,大阪市浪速区,日本橋西１丁目２番２－８０１号,,27,111,5560004,,,,,,,2022-09-14,1,,,,,ユメ,0
1300,5120003022462,新規,0,2022-09-14,2022-09-14,合同会社ＮＫＴ,,合同会社,大阪府,大阪市阿倍野区,丸山通１丁目６番１６号,,27,119,5450042,,,,,,,2022-09-14,1,,,,,エヌケーティー,0
1305,5122005003639,新規,0,2022-09-14,2022-09-14,一般社団法人わたしの生き様トリセツ,,その他の設立登記法人,大阪府,八尾市,天王寺屋７丁目５０番地ＯＫＩビル２Ｆ,,27,212,5810025,,,,,,,2022-09-14,1,,,,,ワタシノイキザマトリセツ,0
1309,5130001072608,新規,0,2022-09-14,2022-09-14,ネクストコアテクノロジーズ株式会社,,株式会社,京都府,宇治市,大久保町成手１番地３０,,26,204,6110033,,,,,,,2022-09-14,1,,,,,ネクストコアテクノロジーズ,0
1310,5130001072657,新規,0,2022-09-14,2022-09-14,株式会社京都マニピュレーション研究所,,株式会社,京都府,京都市下京区,朱雀宝蔵町７３－１,,26,106,6008846,,,,,,,2022-09-14,1,,,,,キョウトマニピュレーションケンキュウジョ,0
1319,5140001127360,新規,0,2022-09-14,2022-09-14,ＢｌｕｅＯｃｅａｎＣｒｅａｔｉｖｅＰａｒｔｎｅｒｓ株式会社,,株式会社,兵庫県,神戸市西区,井吹台東町３丁目２番地１３－２０３号,,28,111,6512242,,,,,,,2022-09-14,1,,,,,ブルーオーシャンクリエイティブパートナーズ,0
1320,5140001127377,新規,0,2022-09-14,2022-09-14,島やん再生向上株式会社,,株式会社,兵庫県,西宮市,北六甲台１丁目７－１５,,28,204,6511413,,,,,,,2022-09-14,1,,,,,シマヤンサイセイコウジョウ,0
1322,5140003018129,新規,0,2022-09-14,2022-09-14,合同会社働知恵付,,合同会社,兵庫県,加古郡播磨町,北野添２丁目６番７２－２０１号,,28,382,6750158,,,,,,,2022-09-14,1,,,,,ドウチエツク,0
1329,5160003002667,新規,0,2022-09-14,2022-09-14,合同会社ＯＭ’ｓ,,合同会社,滋賀県,甲賀市,水口町新城５０１番地,,25,209,5280007,,,,,,,2022-09-14,1,,,,,オムズ,0
1332,5180001153023,新規,0,2022-09-14,2022-09-14,株式会社梅崎興業,00127845,株式会社,愛知県,半田市,君ケ橋町３丁目１５番地の１,,23,205,4750938,,,,,,,2022-09-14,1,,,,,ウメザキコウギョウ,0
1333,5180001153031,新規,0,2022-09-14,2022-09-14,株式会社ＭＰＣ,,株式会社,愛知県,春日井市,東野町４丁目５番地５,,23,206,4860817,,,,,,,2022-09-14,1,,,,,エムピーシー,0
1334,5180003024255,新規,0,2022-09-14,2022-09-14,Ｍｕｕ合資会社,,合資会社,愛知県,一宮市,浜町４丁目１３番地,,23,203,4910034,,,,,,,2022-09-14,1,,,,,ムー,0
1338,5180305009391,新規,0,2022-09-14,2022-09-14,一般社団法人高齢者等支援機構,,その他の設立登記法人,愛知県,豊橋市,岩屋町字岩屋西３４番地の１,,23,201,4400842,,,,,,,2022-09-14,1,,,,,コウレイシャトウシエンキコウ,0
1354,5290001098918,新規,0,2022-09-14,2022-09-14,アイランドテクノロジー株式会社,,株式会社,福岡県,福岡市博多区,吉塚３丁目２７番３０－３０３号,,40,132,8120041,,,,,,,2022-09-14,1,,,,,アイランドテクノロジー,0
1355,5290001098926,新規,0,2022-09-14,2022-09-14,ＨＡＫＵ株式会社,,株式会社,福岡県,福岡市博多区,博多駅南６丁目１０－２１－４０１号室（ＲＥＩＫＡ　ＪＡＰＡＮＩＩ）,00127846,40,132,8120016,,,,,,,2022-09-14,1,,,,,ハク,0
1360,5290801028891,新規,0,2022-09-14,2022-09-14,株式会社ＹＵＳＥＩ,,株式会社,福岡県,北九州市若松区,ひびきの北２番２９号,,40,103,8080138,,,,,,,2022-09-14,1,,,,,ユウセイ,0
1372,5340003003903,新規,0,2022-09-14,2022-09-14,合同会社ＲＩＯ　ＮＥＸＴ,,合同会社,鹿児島県,鹿児島市,上之園町４番地１０エイルマンション上之園１１０８号,,46,201,8900052,,,,,,,2022-09-14,1,,,,,リオネクスト,0
1390,5430003014271,新規,0,2022-09-14,2022-09-14,合同会社ネクストアグリ,,合同会社,北海道,室蘭市,増市町１丁目１４番１２号,,01,205,0510034,,,,,,,2022-09-14,1,,,,,ネクストアグリ,0
1401,5500001024463,新規,0,2022-09-14,2022-09-14,ＳＴＩ株式会社,,株式会社,愛媛県,松山市,井門町３９２番地３,,38,201,7911114,,,,,,,2022-09-14,1,,,,,エスティーアイ,0
1422,6010001229499,新規,0,2022-09-14,2022-09-14,株式会社サカキ,,株式会社,東京都,千代田区,永田町２丁目１０番１号,,13,101,1000014,,,,,,,2022-09-14,1,,,,,サカキ,0
1423,6010001229524,新規,0,2022-09-14,2022-09-14,都川総合開発株式会社,,株式会社,東京都,中央区,銀座１丁目１４番７号銀座吉澤ビル３階,,13,102,1040061,,,,,,,2022-09-14,1,,,,,ツガワソウゴウカイハツ,0
1424,6010001229549,新規,0,2022-09-14,2022-09-14,弁得商務株式会社,,株式会社,東京都,中央区,日本橋馬喰町１丁目１２番１１－２０１,,13,102,1030002,,,,,,,2022-09-14,1,,,,,ベントクショウム,0
1429,6010003038675,新規,0,2022-09-14,2022-09-14,合同会社一,,合同会社,東京都,中央区,銀座１丁目１２番４号Ｎ＆Ｅ・ＢＬＤ．６Ｆ,,13,102,1040061,,,,,,,2022-09-14,1,,,,,ハジメ,0
1431,6010005035555,新規,0,2022-09-14,2022-09-14,一般社団法人ＪＰＳ,,その他の設立登記法人,東京都,千代田区,丸の内３丁目１番１号東京共同会計事務所内,,13,101,1000005,,,,,,,2022-09-14,1,,,,,ジェイピーエス,0
1445,6010401169576,新規,0,2022-09-14,2022-09-14,Ｐｅｒｃｉｆｙ株式会社,,株式会社,東京都,港区,浜松町２丁目２番１５号浜松町ダイヤビル２Ｆ,,13,103,1050013,,,,,,,2022-09-14,1,,,,,パーシファイ,0
1446,6010401169626,新規,0,2022-09-14,2022-09-14,株式会社いこう,,株式会社,東京都,港区,南麻布１丁目８－１６パークコート南麻布１２０７号,,13,103,1060047,,,,,,,2022-09-14,1,,,,,イコウ,0
1460,6010801033266,新規,0,2022-09-14,2022-09-14,株式会社プレジャフル,,株式会社,東京都,大田区,山王３丁目３１番３号,,13,111,1430023,,,,,,,2022-09-14,1,,,,,プレジャフル,0
1481,6011001149679,新規,0,2022-09-14,2022-09-14,株式会社ＲＡＩＳＥ,,株式会社,東京都,渋谷区,南平台町１６番－２８Ｄａｉｗａ渋谷スクエア６階,,13,113,1500036,,,,,,,2022-09-14,1,,,,,レイズ,0
1482,6011001149729,新規,0,2022-09-14,2022-09-14,株式会社ＳＭＣ,,株式会社,東京都,目黒区,下目黒１丁目８番３１号,,13,110,1530064,,,,,,,2022-09-14,1,,,,,エスエムシー,0
1483,6011001149745,新規,0,2022-09-14,2022-09-14,株式会社知花,,株式会社,東京都,目黒区,目黒本町５丁目３番２クレッセント武蔵小山ＩＩＩ３０２号,00127847,13,110,1520002,,,,,,,2022-09-14,1,,,,,チハナ,0
1484,6011001149761,新規,0,2022-09-14,2022-09-14,株式会社Ｍｉｃｅｌｌｅ,,株式会社,東京都,目黒区,中目黒３丁目６番２号中目黒Ｆ．Ｓビル５階,,13,110,1530061,,,,,,,2022-09-14,1,,,,,ミシェル,0
1485,6011003015383,新規,0,2022-09-14,2022-09-14,合同会社ＴＮ　Ｐａｒｔｎｅｒｓ,,合同会社,東京都,渋谷区,神泉町１０番１５号,,13,113,1500045,,,,,,,2022-09-14,1,,,,,ティーエヌパートナーズ,0
1488,6011101100178,新規,0,2022-09-14,2022-09-14,株式会社ＯＣ　Ｃｏｍｐａｎｙ,,株式会社,東京都,新宿区,四谷坂町１番１１号四谷クリエイトビル３Ｆ,,13,104,1600002,,,,,,,2022-09-14,1,,,,,オーシーカンパニー,0
1490,6011105010398,新規,0,2022-09-14,2022-09-14,一般社団法人よりそうデザイン研究所,,その他の設立登記法人,東京都,新宿区,西新宿３丁目１５番５号,,13,104,1600023,,,,,,,2022-09-14,1,,,,,ヨリソウデザインケンキュウジョ,0
1510,6012403005585,新規,0,2022-09-14,2022-09-14,合同会社サクラコープ,,合同会社,東京都,武蔵野市,中町１丁目３番１号,,13,203,1800006,,,,,,,2022-09-14,1,,,,,サクラコープ,0
1517,6020001148186,新規,0,2022-09-14,2022-09-14,ＥＮＥＭＯ株式会社,,株式会社,神奈川県,横浜市神奈川区,西寺尾３丁目９番１－Ｅ８３１号,,14,102,2210001,,,,,,,2022-09-14,1,,,,,エネモ,0
1518,6020001148203,新規,0,2022-09-14,2022-09-14,株式会社ＳＫ商事,,株式会社,神奈川県,横浜市中区,常盤町３丁目２１－３０３号室,,14,104,2310014,,,,,,,2022-09-14,1,,,,,エスケイショウジ,0
1532,6030001150091,新規,0,2022-09-14,2022-09-14,株式会社ネオトラストパートナーズ,,株式会社,埼玉県,草加市,原町２丁目５番１８号,,11,221,3400048,,,,,,,2022-09-14,1,,,,,ネオトラストパートナーズ,0
1533,6030001150109,新規,0,2022-09-14,2022-09-14,株式会社石川工業,,株式会社,埼玉県,さいたま市見沼区,春岡３丁目５番地１,,11,104,3370008,,,,,,,2022-09-14,1,,,,,イシカワコウギョウ,0
1549,6050003006851,新規,0,2022-09-14,2022-09-14,合同会社衛,,合同会社,茨城県,土浦市,真鍋６丁目２番２４号,,08,203,3000051,,,,,,,2022-09-14,1,,,,,マモリ,0
1551,6070001039637,新規,0,2022-09-14,2022-09-14,株式会社Ｃｏｃｏｃａｒａ,,株式会社,群馬県,前橋市,千代田町２丁目１番１５－１７０３,,10,201,3710022,,,,,,,2022-09-14,1,,,,,ココカラ,0
1567,6100001035698,新規,0,2022-09-14,2022-09-14,ｙｅｌｌｏｗ　ｄｏｏｒ株式会社,,株式会社,長野県,佐久市,小田井１５４－２,,20,217,3850009,,,,,,,2022-09-14,1,,,,,イエロードア,0
1586,6120001248802,新規,0,2022-09-14,2022-09-14,株式会社ＧＰ　Ｉｎｎｏｖａｔｉｏｎ,,株式会社,大阪府,大阪市西区,北堀江１丁目５番２－８０３号,,27,106,5500014,,,,,,,2022-09-14,1,,,,,ジーピーイノベーション,0
1587,6120001248819,新規,0,2022-09-14,2022-09-14,株式会社すずしろ,,株式会社,大阪府,大阪市中央区,上本町西３丁目２番８号ｂ．ＵＥＭＡＣＨＩＤＡＩ５０２,,27,128,5420062,,,,,,,2022-09-14,1,,,,,スズシロ,0
1588,6120001248835,新規,0,2022-09-14,2022-09-14,Ｆ＆Ｔ株式会社,,株式会社,大阪府,門真市,三ツ島５丁目２１番５号,,27,223,5710015,,,,,,,2022-09-14,1,,,,,エフアンドティ,0
1591,6120003022453,新規,0,2022-09-14,2022-09-14,合同会社カンガルーのポッケ,,合同会社,大阪府,大阪市西淀川区,福町１丁目２番１３号,,27,113,5550034,,,,,,,2022-09-14,1,,,,,カンガルーノポッケ,0
1592,6120005023193,新規,0,2022-09-14,2022-09-14,一般社団法人うめきた未来イノベーション機構,,その他の設立登記法人,大阪府,大阪市北区,大深町３番１号,,27,127,5300011,,,,,,,2022-09-14,1,,,,,ウメキタミライイノベーションキコウ,0
1596,6120101066220,新規,0,2022-09-14,2022-09-14,パートナーズ株式会社,,株式会社,大阪府,和泉市,和気町３丁目１７番１０号,,27,219,5940073,,,,,,,2022-09-14,1,,,,,パートナーズ,0
1597,6120101066229,新規,0,2022-09-14,2022-09-14,株式会社シェルマン,,株式会社,大阪府,堺市堺区,並松町３８番地２,,27,141,5900912,,,,,,,2022-09-14,1,,,,,シェルマン,0
1598,6120901046504,新規,0,2022-09-14,2022-09-14,株式会社まれかＧ３８,,株式会社,大阪府,吹田市,桃山台５丁目４番３－１００４号,,27,205,5650854,,,,,,,2022-09-14,1,,,,,マレカジーサンジュウハチ,0
1600,6130001072648,新規,0,2022-09-14,2022-09-14,株式会社Ｏｋｕｎｏ,,株式会社,京都府,京都市上京区,今出川通寺町西入大原口町２０８番地,,26,102,6020832,,,,,,,2022-09-14,1,,,,,オクノ,0
1604,6140001127376,新規,0,2022-09-14,2022-09-14,株式会社光海,,株式会社,兵庫県,宝塚市,山本南１丁目３３番３－２０４号,,28,214,6650882,,,,,,,2022-09-14,1,,,,,,0
1605,6140001127384,新規,0,2022-09-14,2022-09-14,ＳＯＬＥＩＬ　ＨＯＭＥ株式会社,,株式会社,兵庫県,西宮市,甲子園浦風町１番２３号光南荘マンション１１６号,,28,204,6638165,,,,,,,2022-09-14,1,,,,,ソレイユホーム,0
1606,6140001127392,新規,0,2022-09-14,2022-09-14,株式会社Ｌｏｇｉｃ,,株式会社,兵庫県,小野市,黒川町４６２－１パルネット１０２,,28,218,6751371,,,,,,,2022-09-14,1,,,,,ロジック,0
1611,6160001024506,新規,0,2022-09-14,2022-09-14,株式会社樂伸賃貸管理,,株式会社,滋賀県,甲賀市,甲南町希望ケ丘３丁目２１番地４,,25,209,5203333,,,,,,,2022-09-14,1,,,,,ラクシンチンタイカンリ,0
1627,6180305009390,新規,0,2022-09-14,2022-09-14,医療法人Ｐｌｕｍ　Ｈｅａｒｔ,,その他の設立登記法人,愛知県,豊田市,田中町５丁目３８番地９,,23,211,4710845,,,,,,,2022-09-14,1,,,,,プラムハート,0
1635,6210001019087,新規,0,2022-09-14,2022-09-14,株式会社ビジョンズ,,株式会社,福井県,福井市,城東２丁目２番９号城東エンビィハイツ４０７号,,18,201,9100853,,,,,,,2022-09-14,1,,,,,ビジョンズ,0
1639,6240001060369,新規,0,2022-09-14,2022-09-14,株式会社Ｌｅｄ,,株式会社,広島県,広島市中区,大手町４丁目２番２８－４０１号,,34,101,7300051,,,,,,,2022-09-14,1,,,,,レッド,0
1641,6240005015451,新規,0,2022-09-14,2022-09-14,医療法人鎌田歯科・矯正歯科,,その他の設立登記法人,広島県,広島市南区,翠３丁目３番１６号,,34,103,7340005,,,,,,,2022-09-14,1,,,,,カマダシカキョウセイシカ,0
1651,6290001098917,新規,0,2022-09-14,2022-09-14,株式会社ＮＥＯＭ,,株式会社,福岡県,福岡市城南区,七隈２丁目５番１号,,40,136,8140133,,,,,,,2022-09-14,1,,,,,ネオム,0
1652,6290001098941,新規,0,2022-09-14,2022-09-14,株式会社エイディーピー,,株式会社,福岡県,福岡市南区,花畑１丁目１番５号,,40,134,8111356,,,,,,,2022-09-14,1,,,,,エイディーピー,0
1658,6290801028890,新規,0,2022-09-14,2022-09-14,株式会社ＲＩＴ,,株式会社,福岡県,田川郡福智町,金田８３９番地１,,40,610,8221201,,,,,,,2022-09-14,1,,,,,アールアイティー,0
1669,6330003009520,新規,0,2022-09-14,2022-09-14,合同会社プラスプラン,,合同会社,熊本県,熊本市南区,島町２丁目２番６号,,43,104,8614133,,,,,,,2022-09-14,1,,,,,プラスプラン,0
1677,6360001030970,新規,0,2022-09-14,2022-09-14,比嘉ペイント株式会社,,株式会社,沖縄県,宜野湾市,上原１丁目８－２ＯＳビル３０１号,,47,205,9012204,,,,,,,2022-09-14,1,,,,,ヒガペイント,0
1693,6430003014270,新規,0,2022-09-14,2022-09-14,合同会社ＦＣＳＰ２４,,合同会社,北海道,札幌市中央区,南十六条西１９丁目１番４１号３０２,,01,101,0640916,,,,,,,2022-09-14,1,,,,,エフシーエスピーニジュウヨン,0
1709,7010001229498,新規,0,2022-09-14,2022-09-14,麹町ラボラトリーズ株式会社,,株式会社,東京都,千代田区,麹町４丁目５番地２０ＫＳビル８階,,13,101,1020083,,,,,,,2022-09-14,1,,,,,コウジマチラボラトリーズ,0
1710,7010001229507,新規,0,2022-09-14,2022-09-14,株式会社ＢＴＮコンサルティング,,株式会社,東京都,中央区,新川１丁目３－２１,,13,102,1040033,,,,,,,2022-09-14,1,,,,,ビーティーエヌコンサルティング,0
1711,7010001229523,新規,0,2022-09-14,2022-09-14,株式会社ありがとうアメリカ株式,,株式会社,東京都,千代田区,内幸町１丁目１番１号,,13,101,1000011,,,,,,,2022-09-14,1,,,,,アリガトウアメリカカブシキ,0
1716,7010003038534,新規,0,2022-09-14,2022-09-14,東京八重洲ヘルシーサポート合同会社,,合同会社,東京都,中央区,日本橋３丁目２‐１４新槇町ビル別館第一２Ｆ,,13,102,1030027,,,,,,,2022-09-14,1,,,,,トウキョウヤエスヘルシーサポート,0
1723,7010005035570,新規,0,2022-09-14,2022-09-14,一般社団法人オルタナ１６,,その他の設立登記法人,東京都,千代田区,丸の内３丁目１番１号東京共同会計事務所内,,13,101,1000005,,,,,,,2022-09-14,1,,,,,オルタナシックスティーン,0
1726,7010401169699,新規,0,2022-09-14,2022-09-14,Ｍｏｄｅｒｎ‐ｉ　Ｉｎｔｅｒｎａｔｉｏｎａｌ株式会社,,株式会社,東京都,港区,六本木７丁目７番７号Ｔｒｉ－ＳｅｖｅｎＲｏｐｐｏｎｇｉ８階,,13,103,1060032,,,,,,,2022-09-14,1,,,,,モダンアイインターナショナル,0
1736,7010603009728,新規,0,2022-09-14,2022-09-14,合同会社Ｊｕｍｐ　Ｏｖｅｒ　Ｔｈｅ　Ｍｏｏｎ,,合同会社,東京都,江東区,佐賀１丁目６番２－７０２号,,13,108,1350031,,,,,,,2022-09-14,1,,,,,ジャンプオーバーザムーン,0
1740,7010901051613,新規,0,2022-09-14,2022-09-14,ｇａｌａ　ｉｎｔｅｒｎａｔｉｏｎａｌ株式会社,,株式会社,東京都,世田谷区,玉川台２丁目２２番２０号,,13,112,1580096,,,,,,,2022-09-14,1,,,,,ガラインターナショナル,0
1741,7010901051621,新規,0,2022-09-14,2022-09-14,株式会社ＮａＮａｉｒｏ,,株式会社,東京都,世田谷区,世田谷３丁目１６番１３号,,13,112,1540017,,,,,,,2022-09-14,1,,,,,ナナイロ,0
1746,7011001149728,新規,0,2022-09-14,2022-09-14,ＨＦＴ株式会社,,株式会社,東京都,渋谷区,恵比寿南１丁目２０－２シェモア恵比寿４Ｆ,,13,113,1500022,,,,,,,2022-09-14,1,,,,,エイチエフティー,0
1747,7011001149752,新規,0,2022-09-14,2022-09-14,株式会社つりチョク,,株式会社,東京都,渋谷区,神宮前６丁目２３番４号桑野ビル２階,,13,113,1500001,,,,,,,2022-09-14,1,,,,,ツリチョク,0
1748,7011001149769,新規,0,2022-09-14,2022-09-14,ＯＮ　ＣＯＬＯＲ株式会社,,株式会社,東京都,渋谷区,南平台町１３－４南平台セントラルハイツ３０７,,13,113,1500036,,,,,,,2022-09-14,1,,,,,オンカラー,0
1749,7011001149777,新規,0,2022-09-14,2022-09-14,株式会社はなまる,,株式会社,東京都,渋谷区,神宮前６丁目１０番１２号,,13,113,1500001,,,,,,,2022-09-14,1,,,,,ハナマル,0
1752,7011003015374,新規,0,2022-09-14,2022-09-14,合同会社イホリシステム,,合同会社,東京都,渋谷区,渋谷２丁目１９－１５宮益坂ビルディング６０９,,13,113,1500002,,,,,,,2022-09-14,1,,,,,イホリシステム,0
1753,7011003015382,新規,0,2022-09-14,2022-09-14,Ｐｉｘｅｌ　Ｔｏｋｙｏ合同会社,,合同会社,東京都,渋谷区,神宮前６丁目２３番４号桑野ビル２階,,13,113,1500001,,,,,,,2022-09-14,1,,,,,ピクセルトーキョー,0
1754,7011005009746,新規,0,2022-09-14,2022-09-14,一般社団法人ＣＮ太陽光,,その他の設立登記法人,東京都,渋谷区,千駄ヶ谷３丁目１１番８号,,13,113,1510051,,,,,,,2022-09-14,1,,,,,シーエヌタイヨウコウ,0
1766,7011605002472,新規,0,2022-09-14,2022-09-14,医療法人社団良青会,,その他の設立登記法人,東京都,練馬区,豊玉北５丁目３番１０号一信堂ビル１階,,13,120,1760012,,,,,,,2022-09-14,1,,,,,リョウセイカイ,0
1774,7012403005584,新規,0,2022-09-14,2022-09-14,合同会社ゆらり,,合同会社,東京都,小金井市,前原町１丁目１２番２７号,,13,210,1840013,,,,,,,2022-09-14,1,,,,,ユラリ,0
1775,7012803002883,新規,0,2022-09-14,2022-09-14,合同会社ソコヂカラ,,合同会社,東京都,国分寺市,本町３丁目６－１０，２０１,,13,214,1850012,,,,,,,2022-09-14,1,,,,,ソコヂカラ,0
1777,7013301049649,新規,0,2022-09-14,2022-09-14,株式会社庵電設,,株式会社,東京都,豊島区,南池袋２丁目４５番２号,,13,116,1710022,,,,,,,2022-09-14,1,,,,,イオリデンセツ,0
1778,7013301049665,新規,0,2022-09-14,2022-09-14,株式会社ナイン,,株式会社,東京都,豊島区,巣鴨３丁目４番６号,,13,116,1700002,,,,,,,2022-09-14,1,,,,,ナイン,0
1782,7020001148160,新規,0,2022-09-14,2022-09-14,霜月貿易株式会社,,株式会社,神奈川県,横浜市南区,共進町１丁目２７番地,,14,105,2320015,,,,,,,2022-09-14,1,,,,,,0
1783,7020001148185,新規,0,2022-09-14,2022-09-14,株式会社プラネットウェーブ,,株式会社,神奈川県,横浜市中区,長者町９丁目１７０－８０１,,14,104,2310033,,,,,,,2022-09-14,1,,,,,プラネットウェーブ,0
1784,7020003022405,新規,0,2022-09-14,2022-09-14,合同会社夢詩歌,,合同会社,神奈川県,横浜市港南区,日限山１丁目６８番２９－１０４号,,14,111,2330015,,,,,,,2022-09-14,1,,,,,ムジカ,0
1808,7040001124779,新規,0,2022-09-14,2022-09-14,株式会社カガミ測技,,株式会社,千葉県,山武市,横田５６７－２７,,12,237,2891226,,,,,,,2022-09-14,1,,,,,カガミソクギ,0
1809,7040001125034,新規,0,2022-09-14,2022-09-14,株式会社ベイライフ,,株式会社,千葉県,浦安市,舞浜３丁目３１番１８号,,12,227,2790031,,,,,,,2022-09-14,1,,,,,ベイライフ,0
1810,7040001125050,新規,0,2022-09-14,2022-09-14,Ｒａｎｄｏｍ　Ｗａｌｋ株式会社,,株式会社,千葉県,松戸市,新松戸東１４番地１－１階,,12,207,2700033,,,,,,,2022-09-14,1,,,,,ランドムウォーク,0
1823,7070001039636,新規,0,2022-09-14,2022-09-14,吉田総業株式会社,,株式会社,群馬県,太田市,台之郷町８８９番地４,,10,205,3730801,,,,,,,2022-09-14,1,,,,,ヨシダソウギョウ,0
1832,7100003006688,新規,0,2022-09-14,2022-09-14,ＳＰアセット合同会社,,合同会社,長野県,佐久市,野沢１８番地,,20,217,3850053,,,,,,,2022-09-14,1,,,,,エスピーアセット,0
1842,7120001248751,新規,0,2022-09-14,2022-09-14,大椿株式会社,,株式会社,大阪府,大阪市中央区,松屋町９番２０号ローレルステート松屋町１２０２Ｂ,,27,128,5420067,,,,,,,2022-09-14,1,,,,,オオツバキ,0
1843,7120001248818,新規,0,2022-09-14,2022-09-14,株式会社能美,,株式会社,大阪府,大阪市鶴見区,横堤５丁目２番２号,,27,124,5380052,,,,,,,2022-09-14,1,,,,,ノウミ,0
1848,7120005023192,新規,0,2022-09-14,2022-09-14,一般社団法人Ｒ・ＡＳＫ６,,その他の設立登記法人,大阪府,大阪市中央区,南船場１丁目１３番２０号,,27,128,5420081,,,,,,,2022-09-14,1,,,,,アールエーエスケーシックス,0
1850,7120101066228,新規,0,2022-09-14,2022-09-14,７９ＰＨＵＯＮＧＤＯＮＧ株式会社,,株式会社,大阪府,堺市堺区,大浜北町２丁２－８,,27,141,5900974,,,,,,,2022-09-14,1,,,,,ナナジュウキュウフォンドン,0
1856,7122001036236,新規,0,2022-09-14,2022-09-14,株式会社ＺＯＮＯ,,株式会社,大阪府,八尾市,堤町２丁目１番地の５８,,27,212,5810832,,,,,,,2022-09-14,1,,,,,ゾノ,0
1860,7130001072564,新規,0,2022-09-14,2022-09-14,株式会社レガーメ,,株式会社,京都府,京都市山科区,西野広見町６－２,,26,110,6078348,,,,,,,2022-09-14,1,,,,,レガーメ,0
1861,7130001072614,新規,0,2022-09-14,2022-09-14,株式会社つばさ測量,,株式会社,京都府,京都市中京区,西ノ京月輪町１１番地３１,,26,104,6048444,,,,,,,2022-09-14,1,,,,,ツバサソクリョウ,0
1869,7140001127367,新規,0,2022-09-14,2022-09-14,株式会社ｔｏｓｉｔｅ,,株式会社,兵庫県,神戸市中央区,北長狭通８丁目１番６号２階,,28,110,6500012,,,,,,,2022-09-14,1,,,,,トシテ,0
1870,7140001127391,新規,0,2022-09-14,2022-09-14,株式会社なりた屋,,株式会社,兵庫県,姫路市,保城１１５１番地８,,28,201,6700804,,,,,,,2022-09-14,1,,,,,ナリタヤ,0
1886,7180001153021,新規,0,2022-09-14,2022-09-14,ＡＵＴＯＬＥＴＳ株式会社,,株式会社,愛知県,名古屋市中区,丸の内１丁目１５番２８号ナビシティ丸の内５階,,23,106,4600002,,,,,,,2022-09-14,1,,,,,オートレッツ,0
1893,7180301036636,新規,0,2022-09-14,2022-09-14,株式会社ジェイダイバーズ,,株式会社,愛知県,北設楽郡設楽町,清崎字山本９番地,,23,561,4412302,,,,,,,2022-09-14,1,,,,,ジェイダイバーズ,0
1896,7190001029765,新規,0,2022-09-14,2022-09-14,株式会社Ｇａｔｅ,,株式会社,三重県,鈴鹿市,北江島町２８番１８号,,24,207,5100232,,,,,,,2022-09-14,1,,,,,ゲイト,0
1899,7200003005671,新規,0,2022-09-14,2022-09-14,楽オンライフ合同会社,,合同会社,岐阜県,各務原市,那加前洞新町２丁目２５番地,,21,213,5040021,,,,,,,2022-09-14,1,,,,,ラクオンライフ,0
1914,7260001037249,新規,0,2022-09-14,2022-09-14,株式会社ＭＫホーム,,株式会社,岡山県,岡山市中区,桑野７１３番地１０,,33,102,7028002,,,,,,,2022-09-14,1,,,,,エムケーホーム,0
1921,7290001098866,新規,0,2022-09-14,2022-09-14,株式会社Ｕｐ　Ｖｉｌｌａｇｅ,,株式会社,福岡県,福岡市博多区,金の隈３丁目２番３－６１０号グランデスカイ空港南,,40,132,8120863,,,,,,,2022-09-14,1,,,,,アップヴィレッジ,0
1922,7290001098908,新規,0,2022-09-14,2022-09-14,株式会社ソルテラ,,株式会社,福岡県,福岡市博多区,博多駅前１丁目４番４号,,40,132,8120011,,,,,,,2022-09-14,1,,,,,ソルテラ,0
1930,7320003003903,新規,0,2022-09-14,2022-09-14,合同会社森山半八郎商店,,合同会社,大分県,宇佐市,大字森山９４７番地,,44,211,8790311,,,,,,,2022-09-14,1,,,,,モリヤマハンハチロウショウテン,0
1932,7340001025022,新規,0,2022-09-14,2022-09-14,株式会社綜合冷凍食品,,株式会社,鹿児島県,鹿屋市,串良町岡崎２１００番地４,,46,203,8931603,,,,,,,2022-09-14,1,,,,,ソウゴウレイトウショクヒン,0
1939,7360001030986,新規,0,2022-09-14,2022-09-14,株式会社ｏｃｔａ,,株式会社,沖縄県,那覇市,西２丁目２１番１－３０５号,,47,201,9000036,,,,,,,2022-09-14,1,,,,,オクタ,0
1947,7380003005274,新規,0,2022-09-14,2022-09-14,合同会社ＨＩ‐ＬＩＮＥ,,合同会社,福島県,郡山市,田村町徳定字下河原１９７番地４－２－４１７,,07,203,9631165,,,,,,,2022-09-14,1,,,,,ハイライン,0
1948,7400001015999,新規,0,2022-09-14,2022-09-14,株式会社カワグチ,,株式会社,岩手県,北上市,若宮町１丁目２番１号２Ｆ,,03,206,0240064,,,,,,,2022-09-14,1,,,,,カワグチ,0
1951,7430001087490,新規,0,2022-09-14,2022-09-14,株式会社ワイズセブンティー,,株式会社,北海道,石狩市,生振５５４番１２７,,01,235,0613245,,,,,,,2022-09-14,1,,,,,ワイズセブンティー,0
1954,7480002016130,新規,0,2022-09-14,2022-09-14,有限会社梶本商店,,有限会社,徳島県,阿南市,那賀川町西原４番地,,36,204,7791232,,,,,,,2022-09-14,1,,,,,カジモトショウテン,0
1955,7480003001874,新規,0,2022-09-14,2022-09-14,Ｈａｒｔａ　ＬＬＣ合同会社,,合同会社,徳島県,勝浦郡勝浦町,大字棚野字仮家６１－２,,36,301,7714306,,,,,,,2022-09-14,1,,,,,ハルタエルエルシー,0
1968,8010001229183,新規,0,2022-09-14,2022-09-14,株式会社Ｔ２,,株式会社,東京都,中央区,銀座６丁目１０番１号,,13,102,1040061,,,,,,,2022-09-14,1,,,,,ティーツー,0
1969,8010001229497,新規,0,2022-09-14,2022-09-14,株式会社情報サービス,,株式会社,東京都,中央区,築地７丁目１０－８ＳＥＡビル２０１,,13,102,1040045,,,,,,,2022-09-14,1,,,,,ジョウホウサービス,0
1974,8010003038665,新規,0,2022-09-14,2022-09-14,合同会社ユニバーサル・ブレイン,,合同会社,東京都,文京区,本郷５丁目２５番１８号,,13,105,1130033,,,,,,,2022-09-14,1,,,,,ユニバーサルブレイン,0
1975,8010003038673,新規,0,2022-09-14,2022-09-14,サーキュラーグリーンエナジー合同会社,,合同会社,東京都,中央区,八丁堀４丁目２番１０号ＡＯＪ税理士法人内,,13,102,1040032,,,,,,,2022-09-14,1,,,,,サーキュラーグリーンエナジー,0
1976,8010003038681,新規,0,2022-09-14,2022-09-14,合同会社オルタナ１６,,合同会社,東京都,千代田区,丸の内３丁目１番１号東京共同会計事務所内,,13,101,1000005,,,,,,,2022-09-14,1,,,,,オルタナシックスティーン,0
1981,8010401169707,新規,0,2022-09-14,2022-09-14,ＯＫＢＬジャパン株式会社,,株式会社,東京都,港区,虎ノ門１丁目２番１０号虎ノ門桜田通ビル５階,,13,103,1050001,,,,,,,2022-09-14,1,,,,,オーケービーエルジャパン,0
1982,8010401169715,新規,0,2022-09-14,2022-09-14,株式会社ＢＲＩＬＬＡＲ,,株式会社,東京都,港区,六本木５丁目１３番１２号,,13,103,1060032,,,,,,,2022-09-14,1,,,,,ブリジャール,0
1983,8010401169756,新規,0,2022-09-14,2022-09-14,Ｉｗａｍｏｔｏ　Ｂｅｓｐｏｋｅ　Ｊｅｗｅｌ株式会社,,株式会社,東京都,港区,三田５丁目２番２２号ザ・パークハウス三田ガーデン２２０８,,13,103,1080073,,,,,,,2022-09-14,1,,,,,イワモトビスポークジュエル,0
1986,8010403028489,新規,0,2022-09-14,2022-09-14,合同会社よろず,,合同会社,東京都,港区,芝浦２丁目９－１,,13,103,1080023,,,,,,,2022-09-14,1,,,,,ヨロズ,0
1993,8010601061853,新規,0,2022-09-14,2022-09-14,フクザワ株式会社,,株式会社,東京都,江東区,豊洲５丁目１番１３－４７１７号,,13,108,1350061,,,,,,,2022-09-14,1,,,,,フクザワ,0
1994,8010601061861,新規,0,2022-09-14,2022-09-14,株式会社ＴＥＡＭ　ＡＬＬ,,株式会社,東京都,江東区,亀戸９丁目１０番１－１４１８号,,13,108,1360071,,,,,,,2022-09-14,1,,,,,チームオール,0
2012,8011001149768,新規,0,2022-09-14,2022-09-14,株式会社ＨＥＲＢＩＯ,,株式会社,東京都,渋谷区,東１丁目１０番６号ＫＳビル１階,,13,113,1500011,,,,,,,2022-09-14,1,,,,,ハービオ,0
2013,8011003015373,新規,0,2022-09-14,2022-09-14,合同会社ＳＳ,,合同会社,東京都,目黒区,碑文谷４丁目２０－１２Ａｎｌｏｒｄ碑文谷１０３,,13,110,1520003,,,,,,,2022-09-14,1,,,,,エスエス,0
2014,8011005009745,新規,0,2022-09-14,2022-09-14,一般社団法人日本メンズコスメ協会,,その他の設立登記法人,東京都,渋谷区,千駄ヶ谷４丁目２６番１２号玉造ビル７０１,,13,113,1510051,,,,,,,2022-09-14,1,,,,,ニホンメンズコスメキョウカイ,0
2023,8011305002854,新規,0,2022-09-14,2022-09-14,一般社団法人ワイワイネットワーク,,その他の設立登記法人,東京都,杉並区,方南１丁目１２番５号,,13,115,1680062,,,,,,,2022-09-14,1,,,,,ワイワイネットワーク,0
2028,8011701025608,新規,0,2022-09-14,2022-09-14,シオユメソウケン株式会社,,株式会社,東京都,江戸川区,南篠崎町２丁目１０－１,,13,123,1330065,,,,,,,2022-09-14,1,,,,,シオユメソウケン,0
2029,8011703003256,新規,0,2022-09-14,2022-09-14,ＶＵＣＡ　Ｍｅｄｉｃａｌ合同会社,,合同会社,東京都,江戸川区,松島４丁目３８番８号,,13,123,1320031,,,,,,,2022-09-14,1,,,,,ブーカメディカル,0
2032,8011801041281,新規,0,2022-09-14,2022-09-14,玉丸株式会社,,株式会社,東京都,足立区,弘道１丁目３５－９,,13,121,1200013,,,,,,,2022-09-14,1,,,,,タママル,0
2037,8012701017248,新規,0,2022-09-14,2022-09-14,株式会社Ｓｙ‐ＬＩＮＥ,,株式会社,東京都,小平市,小川東町５丁目５番１３－２０５号,,13,211,1870031,,,,,,,2022-09-14,1,,,,,エスワイライン,0
2038,8012803002882,新規,0,2022-09-14,2022-09-14,佐藤不動産管理合同会社,,合同会社,東京都,国立市,谷保５８３８番地,,13,215,1860011,,,,,,,2022-09-14,1,,,,,サトウフドウサンカンリ,0
2051,8021001076986,新規,0,2022-09-14,2022-09-14,株式会社Ｒｕｎｗａｙ　ｌａｂｏ．,,株式会社,神奈川県,藤沢市,羽鳥１丁目１－１－９５７,,14,205,2510056,,,,,,,2022-09-14,1,,,,,ランウェイラボ,0
2058,8030001149933,新規,0,2022-09-14,2022-09-14,株式会社ピックルスホールディングス,,株式会社,埼玉県,所沢市,東住吉７番８号,,11,208,3591124,,,,,,,2022-09-14,1,,,,,ピックルスホールディングス,0
2059,8030001150107,新規,0,2022-09-14,2022-09-14,株式会社イノ塗装,,株式会社,埼玉県,本庄市,小島３丁目１２番１６号,,11,211,3670061,,,,,,,2022-09-14,1,,,,,イノトソウ,0
2060,8030001150123,新規,0,2022-09-14,2022-09-14,株式会社Ｖｒａｖｅｒｙ,,株式会社,埼玉県,鴻巣市,小松３丁目１３番２５号,,11,217,3650041,,,,,,,2022-09-14,1,,,,,ブレイバリィ,0
2064,8030003020200,新規,0,2022-09-14,2022-09-14,ハレクラニ合同会社,,合同会社,埼玉県,川口市,領家２丁目２３番３号,,11,203,3320004,,,,,,,2022-09-14,1,,,,,ハレクラニ,0
2072,8060001035271,新規,0,2022-09-14,2022-09-14,ＣＡＲ　ＣＬＵＢ　ＩＮＴＥＲＮＡＴＩＯＮＡＬ株式会社,,株式会社,栃木県,栃木市,大平町富田３９２番地１１セゾン・ド・クープ２０２号室,,09,203,3294404,,,,,,,2022-09-14,1,,,,,カークラブインターナショナル,0
2073,8070003004620,新規,0,2022-09-14,2022-09-14,合同会社ＷＡＳＴＥ,,合同会社,群馬県,高崎市,栄町２５番１７－１号,,10,202,3700841,,,,,,,2022-09-14,1,,,,,ウェイスト,0
2085,8110003004863,新規,0,2022-09-14,2022-09-14,合同会社ペプタイド,,合同会社,新潟県,新潟市中央区,山二ツ５丁目６番２４号５,,15,103,9500922,,,,,,,2022-09-14,1,,,,,ペプタイド,0
2098,8120001248750,新規,0,2022-09-14,2022-09-14,日華商社株式会社,,株式会社,大阪府,大阪市中央区,松屋町９番２０号ローレルステート松屋町６０９Ｂ,,27,128,5420067,,,,,,,2022-09-14,1,,,,,ニッカショウシャ,0
2099,8120001248775,新規,0,2022-09-14,2022-09-14,株式会社ＦｉｍＳｔａＬａｂｏ,,株式会社,大阪府,大阪市北区,東天満２丁目４番５号,,27,127,5300044,,,,,,,2022-09-14,1,,,,,フィムスタラボ,0
2100,8120001248817,新規,0,2022-09-14,2022-09-14,株式会社Ｚ．Ｚ．Ｚ,,株式会社,大阪府,大阪市中央区,鎗屋町２丁目２番９号,,27,128,5400027,,,,,,,2022-09-14,1,,,,,ネム,0
2101,8120001248825,新規,0,2022-09-14,2022-09-14,株式会社ｂｌｕｅｄｒｅａｍプランニング,,株式会社,大阪府,大阪市都島区,友渕町１丁目５番６１号,,27,102,5340016,,,,,,,2022-09-14,1,,,,,ブルードリームプランニング,0
2102,8120001248866,新規,0,2022-09-14,2022-09-14,株式会社エスジージャパン,,株式会社,大阪府,大阪市中央区,南船場１丁目１６番１０号大阪岡本ビル５階,,27,128,5420081,,,,,,,2022-09-14,1,,,,,エスジージャパン,0
2107,8120003022443,新規,0,2022-09-14,2022-09-14,大阪美術設計印刷合同会社,,合同会社,大阪府,大阪市東成区,神路４丁目１２番２８－４０７号,,27,115,5370003,,,,,,,2022-09-14,1,,,,,オオサカビジュツセッケイインサツ,0
2113,8120101066227,新規,0,2022-09-14,2022-09-14,株式会社ひまわり,,株式会社,大阪府,堺市中区,土師町４丁７番１６号,,27,142,5998238,,,,,,,2022-09-14,1,,,,,ヒマワリ,0
2114,8120103004853,新規,0,2022-09-14,2022-09-14,ＩＭＡＮＯ　ＴＲＡＤＩＮＧ合同会社,,合同会社,大阪府,和泉市,国分町１５８５,,27,219,5941114,,,,,,,2022-09-14,1,,,,,イマノトレーディング,0
2118,8122001036227,新規,0,2022-09-14,2022-09-14,株式会社誠涛,,株式会社,大阪府,八尾市,服部川８丁目１９,,27,212,5810865,,,,,,,2022-09-14,1,,,,,セイトウ,0
2119,8122001036243,新規,0,2022-09-14,2022-09-14,株式会社ユーサポート,,株式会社,大阪府,八尾市,八尾木４丁目２３番地の３８,,27,212,5810027,,,,,,,2022-09-14,1,,,,,ユーサポート,0
2129,8130001072605,新規,0,2022-09-14,2022-09-14,株式会社ＦＥＡＲＬＥＳＳ,,株式会社,京都府,京都市中京区,西ノ京御輿岡町１２番地,,26,104,6048451,,,,,,,2022-09-14,1,,,,,フィアレス,0
2137,8140001127374,新規,0,2022-09-14,2022-09-14,株式会社ＡｗａｊｉＭＳ,,株式会社,兵庫県,洲本市,金屋３２０番地２,,28,205,6560046,,,,,,,2022-09-14,1,,,,,アワジエムエス,0
2138,8140001127390,新規,0,2022-09-14,2022-09-14,株式会社サンセール不動産,,株式会社,兵庫県,明石市,松の内１丁目１３番地の１９,,28,203,6730016,,,,,,,2022-09-14,1,,,,,サンセールフドウサン,0
2140,8140003018126,新規,0,2022-09-14,2022-09-14,ＨＲＴパートナーズ合同会社,,合同会社,兵庫県,川西市,向陽台３丁目６番地の１５,,28,217,6660115,,,,,,,2022-09-14,1,,,,,エイチアールティーパートナーズ,0
2157,8180001152971,新規,0,2022-09-14,2022-09-14,株式会社番がしら,,株式会社,愛知県,一宮市,天王４丁目３番３７－１号,,23,203,4910046,,,,,,,2022-09-14,1,,,,,バンガシラ,0
2162,8180003024252,新規,0,2022-09-14,2022-09-14,ＮＧＯ　ＴＲＡＤＩＮＧ合同会社,,合同会社,愛知県,名古屋市港区,小碓４丁目５１７番クインテットハーモニー１０２号,,23,111,4550801,,,,,,,2022-09-14,1,,,,,エヌジーオートレーディング,0
2163,8180003024269,新規,0,2022-09-14,2022-09-14,ＤｒｅａｍＳｔａｒ合同会社,,合同会社,愛知県,犬山市,大字犬山字大門先１２番地１,,23,215,4840081,,,,,,,2022-09-14,1,,,,,ドリームスター,0
2166,8180301036635,新規,0,2022-09-14,2022-09-14,株式会社稲垣総合事務所,,株式会社,愛知県,刈谷市,半城土町西裏７１番地１５,,23,210,4480804,,,,,,,2022-09-14,1,,,,,イナガキソウゴウジムショ,0
2172,8180305009389,新規,0,2022-09-14,2022-09-14,ＮＰＯ法人ＡＬＬＩＡＮＣＥ　ＥＶＡＮＧＥＬＩＣＡＬ　ＩＮＴＥＲＮＡＴＩＯＮＡＬ,,その他の設立登記法人,愛知県,岡崎市,江口３丁目７番地９,,23,202,4440843,,,,,,,2022-09-14,1,,,,,アリアンスエヴァンジェリカルインターナショナル,0
2177,8200003005670,新規,0,2022-09-14,2022-09-14,合同会社ｔｒｅ,,合同会社,岐阜県,関市,武芸川町小知野７４３番地２,,21,205,5012602,,,,,,,2022-09-14,1,,,,,トゥレ,0
2185,8220003003359,新規,0,2022-09-14,2022-09-14,合同会社ナンバーズ,,合同会社,石川県,金沢市,堀川新町５－１,,17,201,9200849,,,,,,,2022-09-14,1,,,,,ナンバーズ,0
2193,8260001037248,新規,0,2022-09-14,2022-09-14,株式会社ｋｏｎｏｈａ,,株式会社,岡山県,岡山市東区,松新町６５番地の４,,33,103,7048174,,,,,,,2022-09-14,1,,,,,コノハ,0
2201,8290001098915,新規,0,2022-09-14,2022-09-14,株式会社アークス設備設計,,株式会社,福岡県,福岡市中央区,天神２丁目３番１０号天神パインクレスト７１６,,40,133,8100001,,,,,,,2022-09-14,1,,,,,アークスセツビセッケイ,0
2203,8290803004203,新規,0,2022-09-14,2022-09-14,合同会社ランパンテ,,合同会社,福岡県,北九州市八幡西区,熊手１丁目１番３０号,,40,109,8060028,,,,,,,2022-09-14,1,,,,,ランパンテ,0
2212,8330003009519,新規,0,2022-09-14,2022-09-14,合同会社明柏商事,,合同会社,熊本県,熊本市中央区,妙体寺町１番３－１００３号,,43,101,8600856,,,,,,,2022-09-14,1,,,,,メイハクショウジ,0
2215,8360001030969,新規,0,2022-09-14,2022-09-14,Ａｗａｋｅｎｉｎｇ　Ｃｈａｍｐｌｏｏ株式会社,,株式会社,沖縄県,うるま市,字江洲２１４９番地３ドミールＮ２０５号室,,47,213,9042244,,,,,,,2022-09-14,1,,,,,アウェイクニングチャンプルー,0
2219,8370001049050,新規,0,2022-09-14,2022-09-14,株式会社ＭＩＹＡＢＩ,,株式会社,宮城県,仙台市青葉区,新川字佐手山５番地の６３４,,04,101,9893434,,,,,,,2022-09-14,1,,,,,ミヤビ,0
2228,8430001087481,新規,0,2022-09-14,2022-09-14,株式会社リライアブルパートナーズ,,株式会社,北海道,札幌市中央区,南十一条西１３丁目１番３号ヴォーネン山鼻１０３号,,01,101,0640811,,,,,,,2022-09-14,1,,,,,リライアブルパートナーズ,0
2229,8430003014269,新規,0,2022-09-14,2022-09-14,合同会社Ｈｏｌｏ　Ｐｏｎｏ,,合同会社,北海道,札幌市手稲区,富丘二条５丁目１番６１号,,01,109,0060012,,,,,,,2022-09-14,1,,,,,ホロポノ,0
2230,8430003014293,新規,0,2022-09-14,2022-09-14,合同会社ｋａｍｏ,,合同会社,北海道,札幌市中央区,南五条西４丁目一番地,,01,101,0640805,,,,,,,2022-09-14,1,,,,,カモ,0
2232,8430005014548,新規,0,2022-09-14,2022-09-14,医療法人ミライエ,,その他の設立登記法人,北海道,千歳市,緑町１丁目３番３０号めでるちとせ,,01,224,0660074,,,,,,,2022-09-14,1,,,,,ミライエ,0
2234,8470001019258,新規,0,2022-09-14,2022-09-14,株式会社ジョーシスクリエイト,,株式会社,香川県,高松市,鍛冶屋町６番地１１,,37,201,7600028,,,,,,,2022-09-14,1,,,,,ジョーシスクリエイト,0
2235,8480003001873,新規,0,2022-09-14,2022-09-14,オークリーフ合同会社,,合同会社,徳島県,徳島市,国府町日開８５－１１,,36,201,7793117,,,,,,,2022-09-14,1,,,,,オークリーフ,0
2236,8700150109612,新規,0,2022-09-14,2022-06-14,ほんわか村事務局,,その他,東京都,練馬区,東大泉６丁目１９－２０森山ビル２０１,,13,120,1780063,,,,,,,2022-06-14,1,,,,,ホンワカムラジムキヨク,0
2237,8700150111576,新規,0,2022-09-14,2022-09-02,あづま企画,,その他,東京都,板橋区,大山西町３２－７,,13,119,1730033,,,,,,,2022-09-02,1,,,,,アヅマキカク,0
2247,9010001229397,新規,0,2022-09-14,2022-09-14,株式会社カカクナラ,,株式会社,東京都,中央区,銀座１丁目１２番４号Ｎ＆ＥＢＬＤ．６Ｆ,,13,102,1040061,,,,,,,2022-09-14,1,,,,,カカクナラ,0
2248,9010001229447,新規,0,2022-09-14,2022-09-14,株式会社スケールバイト,,株式会社,東京都,中央区,銀座１丁目１５－４銀座一丁目ビル７階,,13,102,1040061,,,,,,,2022-09-14,1,,,,,スケールバイト,0
2249,9010001229546,新規,0,2022-09-14,2022-09-14,イミー商事株式会社,,株式会社,東京都,中央区,日本橋小舟町１４番１１号ホンセイビル,,13,102,1030024,,,,,,,2022-09-14,1,,,,,,0
2251,9010003038648,新規,0,2022-09-14,2022-09-14,Ｔｏｔｓｕ　Ｒｅｓｉｄｅｎｃｅ合同会社,,合同会社,東京都,中央区,新川１丁目１７番１８号,,13,102,1040033,,,,,,,2022-09-14,1,,,,,トウツウレジデンス,0
2252,9010005035511,新規,0,2022-09-14,2022-09-14,特定非営利活動法人アミーゴス・デ・メヒコ,,その他の設立登記法人,東京都,千代田区,永田町２丁目１５番１号,,13,101,1000014,,,,,,,2022-09-14,1,,,,,アミーゴスデメヒコ,0
2253,9010005035544,新規,0,2022-09-14,2022-09-14,社会保険労務士法人ＩＳＳ,,その他の設立登記法人,東京都,千代田区,岩本町３丁目３番１４号ステラ岩本町４Ｆ,,13,101,1010032,,,,,,,2022-09-14,1,,,,,アイエスエス,0
2254,9010101015326,新規,0,2022-09-14,2022-09-14,八王子滝山ＹＭキッチン食品株式会社,,株式会社,東京都,八王子市,梅坪町１４９番地２,,13,201,1920013,,,,,,,2022-09-14,1,,,,,ハチオウジタキヤマワイエムキッチンショクヒン,0
2265,9010705003420,新規,0,2022-09-14,2022-09-14,一般社団法人国際和合医療学会,,その他の設立登記法人,東京都,品川区,北品川１丁目２２番１７号ニックハイム北品川１０１,,13,109,1400001,,,,,,,2022-09-14,1,,,,,コクサイワゴウイリョウガッカイ,0
2266,9010901051628,新規,0,2022-09-14,2022-09-14,クロモス株式会社,,株式会社,東京都,世田谷区,大原１丁目２２番２号,,13,112,1560041,,,,,,,2022-09-14,1,,,,,クロモス,0
2274,9011001149759,新規,0,2022-09-14,2022-09-14,Ｌａｕｌｅ’ａ株式会社,,株式会社,東京都,渋谷区,桜丘町３０－１５－４０４,,13,113,1500031,,,,,,,2022-09-14,1,,,,,ラウレア,0
2275,9011001149775,新規,0,2022-09-14,2022-09-14,株式会社アロポリプロイド,,株式会社,東京都,渋谷区,初台１丁目４８番６号,,13,113,1510061,,,,,,,2022-09-14,1,,,,,アロポリプロイド,0
2279,9011003015380,新規,0,2022-09-14,2022-09-14,合同会社ＣＮ太陽光,,合同会社,東京都,渋谷区,千駄ヶ谷３丁目１１番８号,,13,113,1510051,,,,,,,2022-09-14,1,,,,,シーエヌタイヨウコウ,0
2286,9011201024101,新規,0,2022-09-14,2022-09-14,ＪＡＭｏｓ株式会社,,株式会社,東京都,中野区,野方１丁目３８番１５号６号室,,13,114,1650027,,,,,,,2022-09-14,1,,,,,ジャムオーエス,0
2291,9011501028470,新規,0,2022-09-14,2022-09-14,株式会社Ｖｉｙａｇｅ,,株式会社,東京都,北区,滝野川６丁目８６番６号,,13,117,1140023,,,,,,,2022-09-14,1,,,,,ヴィヤージュ,0
2298,9012703002536,新規,0,2022-09-14,2022-09-14,Ｈｕｇｏ＆Ｃｈｒｉｓｔｉｎｅ合同会社,,合同会社,東京都,小平市,上水南町３丁目４番４４号,,13,211,1870021,,,,,,,2022-09-14,1,,,,,ヒューゴアンドクリスティーン,0
2303,9013301049647,新規,0,2022-09-14,2022-09-14,株式会社結ぶ,,株式会社,東京都,豊島区,南大塚２丁目３８番１号,,13,116,1700005,,,,,,,2022-09-14,1,,,,,ムスブ,0
2304,9013301049655,新規,0,2022-09-14,2022-09-14,ステラカンパニー株式会社,,株式会社,東京都,豊島区,南池袋２丁目４５番２号,,13,116,1710022,,,,,,,2022-09-14,1,,,,,ステラカンパニー,0
2314,9020001148134,新規,0,2022-09-14,2022-09-14,株式会社ＩＧ　ｒｅｆｏｒｍ,,株式会社,神奈川県,川崎市川崎区,小田３丁目１７番９－４号,,14,131,2100846,,,,,,,2022-09-14,1,,,,,アイジーリフォーム,0
2315,9020001148217,新規,0,2022-09-14,2022-09-14,株式会社グラフィス,,株式会社,神奈川県,横浜市青葉区,青葉台２丁目３５番地４２,,14,117,2270062,,,,,,,2022-09-14,1,,,,,グラフィス,0
2320,9020003022411,新規,0,2022-09-14,2022-09-14,ＴＡＹＭ合同会社,,合同会社,神奈川県,横浜市鶴見区,鶴見中央３丁目１４番１５－３０４号,,14,101,2300051,,,,,,,2022-09-14,1,,,,,タイム,0
2321,9020005015636,新規,0,2022-09-14,2022-09-14,一般社団法人未病予防システム研究所,,その他の設立登記法人,神奈川県,横浜市中区,桜木町１丁目１０１番地１クロスゲート７階,,14,104,2310062,,,,,,,2022-09-14,1,,,,,ミビョウヨボウシステムケンキュウジョ,0
2323,9021001076993,新規,0,2022-09-14,2022-09-14,Ｉｑｉｌｕ株式会社,,株式会社,神奈川県,小田原市,千代３９７番地の９,,14,206,2500215,,,,,,,2022-09-14,1,,,,,イキル,0
2336,9030001150080,新規,0,2022-09-14,2022-09-14,Ｃｒｅａ　Ｊａｐａｎ株式会社,,株式会社,埼玉県,蕨市,中央２丁目１１番２５号,,11,223,3350004,,,,,,,2022-09-14,1,,,,,クリアジャパン,0
2341,9030003020208,新規,0,2022-09-14,2022-09-14,ＯＲＡＣＩＯＮ合同会社,,合同会社,埼玉県,秩父市,道生町４－１６,,11,207,3680045,,,,,,,2022-09-14,1,,,,,オラシオン,0
2347,9040001125049,新規,0,2022-09-14,2022-09-14,ＨＩＪＫ株式会社,,株式会社,千葉県,印旛郡酒々井町,東酒々井１丁目１番５０パピヨンハウス２０１室,,12,322,2850923,,,,,,,2022-09-14,1,,,,,エイチアイジェイケイ,0
2348,9040001125065,新規,0,2022-09-14,2022-09-14,株式会社匠電気興業,,株式会社,千葉県,香取市,野田３５１番地１,,12,236,2890314,,,,,,,2022-09-14,1,,,,,タクミデンキコウギョウ,0
2354,9050003006849,新規,0,2022-09-14,2022-09-14,合同会社ＹＯＲＩＳＯＵ福祉会,,合同会社,茨城県,水戸市,城南２丁目８－３８－１０５,,08,201,3100803,,,,,,,2022-09-14,1,,,,,ヨリソウフクシカイ,0
2357,9060001035270,新規,0,2022-09-14,2022-09-14,株式会社ＬＩＭＥ　ＬＩＧＨＴ,,株式会社,栃木県,下都賀郡野木町,大字佐川野４７２番地３,,09,364,3290104,,,,,,,2022-09-14,1,,,,,ライムライト,0
2366,9110003004862,新規,0,2022-09-14,2022-09-14,古川産業合同会社,,合同会社,新潟県,柏崎市,大字枇杷島６０３８－１,,15,205,9450824,,,,,,,2022-09-14,1,,,,,フルカワサンギョウ,0
2373,9120001248832,新規,0,2022-09-14,2022-09-14,株式会社七福,,株式会社,大阪府,大阪市北区,兎我野町１１－１９浪速ビル５０１Ａ,,27,127,5300056,,,,,,,2022-09-14,1,,,,,シチフク,0
2374,9120001248840,新規,0,2022-09-14,2022-09-14,正清株式会社,,株式会社,大阪府,大阪市淀川区,西宮原２丁目７－２８－２０７室,,27,123,5320004,,,,,,,2022-09-14,1,,,,,マサキヨ,0
2378,9120003022426,新規,0,2022-09-14,2022-09-14,合同会社キャンフォート,,合同会社,大阪府,大阪市西成区,聖天下１丁目７番１７号,,27,122,5570012,,,,,,,2022-09-14,1,,,,,キャンフォート,0
2379,9120003022442,新規,0,2022-09-14,2022-09-14,合同会社アヌエヌエ,,合同会社,大阪府,大阪市西淀川区,中島１丁目３５番７２－６号,,27,113,5550041,,,,,,,2022-09-14,1,,,,,アヌエヌエ,0
2380,9120003022459,新規,0,2022-09-14,2022-09-14,合同会社栄幸,,合同会社,大阪府,大阪市北区,西天満３丁目４番２８－９０３号,,27,127,5300047,,,,,,,2022-09-14,1,,,,,エイコウ,0
2384,9120101066234,新規,0,2022-09-14,2022-09-14,株式会社百,,株式会社,大阪府,河内長野市,大矢船中町３５番５号,,27,216,5860075,,,,,,,2022-09-14,1,,,,,ヒャク,0
2401,9140001127373,新規,0,2022-09-14,2022-09-14,株式会社三喜広,,株式会社,兵庫県,尼崎市,東園田町８丁目１０７番地の１３,,28,202,6610953,,,,,,,2022-09-14,1,,,,,ミキヒロ,0
2402,9140001127381,新規,0,2022-09-14,2022-09-14,株式会社ＺＥＲＯ,,株式会社,兵庫県,姫路市,市川橋通１丁目１番地,,28,201,6700825,,,,,,,2022-09-14,1,,,,,ゼロ,0
2403,9140001127407,新規,0,2022-09-14,2022-09-14,株式会社新神戸建設,,株式会社,兵庫県,神戸市中央区,神仙寺通１丁目９番１２号,,28,110,6510051,,,,,,,2022-09-14,1,,,,,シンコウベケンセツ,0
2410,9140005026316,新規,0,2022-09-14,2022-09-14,一般社団法人新しいひろば,,その他の設立登記法人,兵庫県,豊岡市,日高町日置３８番１号,,28,209,6695311,,,,,,,2022-09-14,1,,,,,アタラシイヒロバ,0
2412,9160001024511,新規,0,2022-09-14,2022-09-14,株式会社ＡＭＳＫ,,株式会社,滋賀県,近江八幡市,北之庄町１４０４－１（１０１号室）,,25,204,5230806,,,,,,,2022-09-14,1,,,,,エーエムエスケー,0
2423,9180001152995,新規,0,2022-09-14,2022-09-14,株式会社あざらし食堂,,株式会社,愛知県,名古屋市中区,大須４丁目２番２１号グリーンハイツ南久屋１１０１号室,,23,106,4600011,,,,,,,2022-09-14,1,,,,,アザラシショクドウ,0
2431,9180305009388,新規,0,2022-09-14,2022-09-14,医療法人ＵＮＩＴＥ,,その他の設立登記法人,愛知県,西尾市,一色町開正出口１３番地４,,23,213,4440421,,,,,,,2022-09-14,1,,,,,ユナイト,0
2432,9190001029763,新規,0,2022-09-14,2022-09-14,株式会社中部農産,,株式会社,三重県,松阪市,保津町７９４番地２,,24,204,5150124,,,,,,,2022-09-14,1,,,,,チュウブノウサン,0
2438,9220001025032,新規,0,2022-09-14,2022-09-14,株式会社エキスパート,,株式会社,石川県,羽咋郡宝達志水町,柳瀬タ４７番地９,,17,386,9291411,,,,,,,2022-09-14,1,,,,,エキスパート,0
2440,9220003003358,新規,0,2022-09-14,2022-09-14,合同会社Ｎａｍｅ,,合同会社,石川県,金沢市,横川２丁目１２３番地（ルポゼ・Ｉ号）,00127842,17,201,9218163,,,,,,,2022-09-14,1,,,,,ネーム,0
2449,9260001037255,新規,0,2022-09-14,2022-09-14,株式会社Ｗｅｌｉｅ,,株式会社,岡山県,岡山市北区,津島南２丁目２番９号（２０１号室）,,33,101,7000085,,,,,,,2022-09-14,1,,,,,ウェリエ,0
2458,9290001098930,新規,0,2022-09-14,2022-09-14,株式会社Ｋ２ＳＮ,,株式会社,福岡県,朝倉郡筑前町,新町２４０番地１ピアソレイユ２０５号,,40,447,8380816,,,,,,,2022-09-14,1,,,,,ケーツーエスエヌ,0
2462,9290003012897,新規,0,2022-09-14,2022-09-14,ＬＰＴ合同会社,,合同会社,福岡県,福岡市東区,箱崎４丁目３８番２３－３０２号サンケイハイツ九大前,,40,131,8120053,,,,,,,2022-09-14,1,,,,,エルピーティ,0
2465,9290801028888,新規,0,2022-09-14,2022-09-14,株式会社ＨＪＣ,,株式会社,福岡県,北九州市小倉北区,浅野２丁目１５番１５号,,40,106,8020001,,,,,,,2022-09-14,1,,,,,エイチジェイシー,0
2466,9300001013061,新規,0,2022-09-14,2022-09-14,サガノアソビ株式会社,,株式会社,佐賀県,唐津市,原１０００番地,,41,202,8470031,,,,,,,2022-09-14,1,,,,,サガノアソビ,0
2467,9330003009518,新規,0,2022-09-14,2022-09-14,合同会社ＦＡＳＴ　ＬＩＮＫ,,合同会社,熊本県,熊本市南区,良町２丁目１１番２０号,,43,104,8620969,,,,,,,2022-09-14,1,,,,,ファストリンク,0
2469,9340001025037,新規,0,2022-09-14,2022-09-14,南日本ステイト株式会社,,株式会社,鹿児島県,いちき串木野市,栄町１２４番地,,46,219,8960013,,,,,,,2022-09-14,1,,,,,ミナミニホンステイト,0
2478,9360003012304,新規,0,2022-09-14,2022-09-14,合同会社Ｎｅｘｔ　Ｇｒｏｕｐ,,合同会社,沖縄県,糸満市,西崎２丁目２８番１３－５号,,47,210,9010305,,,,,,,2022-09-14,1,,,,,ネクストグループ,0
2483,9370001049058,新規,0,2022-09-14,2022-09-14,株式会社女性が働きやすい会社,,株式会社,宮城県,気仙沼市,唐桑町鮪立１０９－３,,04,205,9880571,,,,,,,2022-09-14,1,,,,,ジョセイガハタラキヤスイカイシャ,0
2497,9430003014268,新規,0,2022-09-14,2022-09-14,イチタス合同会社,,合同会社,北海道,札幌市東区,北三十八条東１０丁目２番１９号,,01,103,0070838,,,,,,,2022-09-14,1,,,,,イチタス,0
2501,9470003002252,新規,0,2022-09-14,2022-09-14,グランディ合同会社,,合同会社,香川県,高松市,天神前１０番５号高松セントラルスカイビル３Ｆｓｏｕｔｈ,,37,201,7600018,,,,,,,2022-09-14,1,,,,,グランディ,0
2503,9480001011857,新規,0,2022-09-14,2022-09-14,すだＤＯＧファーム株式会社,,株式会社,徳島県,阿南市,那賀川町黒地２９５,,36,204,7791121,,,,,,,2022-09-14,1,,,,,スダドッグファーム,0
2504,9500003002892,新規,0,2022-09-14,2022-09-14,Ｔａｋｕｍｉ　Ｉｎｔｅｒｎａｔｉｏｎａｌ合同会社,,合同会社,愛媛県,松山市,三番町３丁目６番地６クレアホームズ松山三番町６０１号,,38,201,7900003,,,,,,,2022-09-14,1,,,,,タクミインターナショナル,0
