sequenceNumber,corporateNumber,process,correct,updateDate,changeDate,name,nameImageId,kind,prefectureName,cityName,streetNumber,addressImageId,prefectureCode,cityCode,postCode,addressOutside,addressOutsideImageId,closeDate,closeCause,successorCorporateNumber,changeCause,assignmentDate,latest,enName,enPrefectureName,enCityName,enAddressOutside,furigana,hihyoji
9,1010001231344,新規,0,2022-12-09,2022-12-09,エコエナジー株式会社,,株式会社,東京都,中央区,銀座１丁目２２－１１銀座大竹ビジデンス２階,,13,102,1040061,,,,,,,2022-12-09,1,,,,,エコエナジー,0
10,1010001231435,新規,0,2022-12-09,2022-12-09,株式会社マデレイト,,株式会社,東京都,中央区,日本橋３丁目２番１４号新槇町ビル別館第一１階,,13,102,1030027,,,,,,,2022-12-09,1,,,,,マデレイト,0
21,1010401170919,新規,0,2022-12-09,2022-12-09,株式会社ＥＬＩＣ　Ｌｉｎｋ,,株式会社,東京都,港区,芝３丁目１番１４号芝公園阪神ビル５階,,13,103,1050014,,,,,,,2022-12-09,1,,,,,エリックリンク,0
27,1010403029122,新規,0,2022-12-09,2022-12-09,ＳＡＫＩＹＡ合同会社,,合同会社,東京都,港区,南青山２丁目２番１５号,,13,103,1070062,,,,,,,2022-12-09,1,,,,,サキヤ,0
28,1010405021639,新規,0,2022-12-09,2022-12-09,ＳＨＫホテルズ特定目的会社,,その他の設立登記法人,東京都,港区,元赤坂１丁目１番７号,,13,103,1070051,,,,,,,2022-12-09,1,,,,,エスエイチケイホテルズ,0
29,1010405021647,新規,0,2022-12-09,2022-12-09,一般社団法人セルフ・コンパッション・サークル,,その他の設立登記法人,東京都,港区,芝公園２丁目６番８号日本女子会館ＯＷＬ,,13,103,1050011,,,,,,,2022-12-09,1,,,,,セルフコンパッションサークル,0
41,1010701043592,新規,0,2022-12-09,2022-12-09,高輪アンブロークン株式会社,,株式会社,東京都,品川区,北品川５丁目１１番１号,,13,109,1410001,,,,,,,2022-12-09,1,,,,,タカナワアンブロークン,0
42,1010801033502,新規,0,2022-12-09,2022-12-09,株式会社剛,,株式会社,東京都,大田区,西蒲田７丁目４８番１４号蒲田センタービル７階Ｅ号室,,13,111,1440051,,,,,,,2022-12-09,1,,,,,ゴウ,0
50,1011001151342,新規,0,2022-12-09,2022-12-09,株式会社Ｃａｒｄｉｏ‐ｃｏｎｃｉｅｒｇｅ,,株式会社,東京都,渋谷区,広尾５丁目１４番２号,,13,113,1500012,,,,,,,2022-12-09,1,,,,,カルディオコンシェルジュ,0
51,1011001151359,新規,0,2022-12-09,2022-12-09,株式会社Ａｒｇｏｓ,,株式会社,東京都,渋谷区,神宮前１丁目１０－３７ＣＡＳＣＡＤＥＨＡＲＡＪＵＫＵ１－１,,13,113,1500001,,,,,,,2022-12-09,1,,,,,アルゴス,0
52,1011001151375,新規,0,2022-12-09,2022-12-09,株式会社ｍｉｌｏｋｕｌｕ,,株式会社,東京都,渋谷区,渋谷２丁目６番１２号ベルデ青山ビル６階,,13,113,1500002,,,,,,,2022-12-09,1,,,,,ミロクル,0
54,1011003015850,新規,0,2022-12-09,2022-12-09,合同会社Ｍａｉｌｅ,,合同会社,東京都,渋谷区,笹塚１丁目６１番１７号エスティメゾン笹塚５０４,,13,113,1510073,,,,,,,2022-12-09,1,,,,,マイレ,0
55,1011003015859,新規,0,2022-12-09,2022-12-09,エスオンジャパン合同会社,,合同会社,東京都,渋谷区,道玄坂１丁目１０番８号渋谷道玄坂東急ビル２Ｆ－Ｃ,,13,113,1500043,,,,,,,2022-12-09,1,,,,,エスオンジャパン,0
56,1011003015875,新規,0,2022-12-09,2022-12-09,合同会社ＡＰＣＴ,,合同会社,東京都,渋谷区,恵比寿西１丁目３３番６号,,13,113,1500021,,,,,,,2022-12-09,1,,,,,アプクト,0
61,1011101101123,新規,0,2022-12-09,2022-12-09,ＨＤＭＱ株式会社,,株式会社,東京都,新宿区,若松町９番１４－８０４号,,13,104,1620056,,,,,,,2022-12-09,1,,,,,エイチディーエムキュー,0
64,1011103012475,新規,0,2022-12-09,2022-12-09,合同会社Ｂｅｇｉｎｎｉｎｇ,,合同会社,東京都,新宿区,新宿４丁目１－６－１８階,,13,104,1600022,,,,,,,2022-12-09,1,,,,,ビギニング,0
65,1011303004603,新規,0,2022-12-09,2022-12-09,合同会社ＳｔｕｄｉｏＴＡＧＡＮ,,合同会社,東京都,杉並区,阿佐谷北１丁目３７－３中杉ビル３Ｆ,,13,115,1660001,,,,,,,2022-12-09,1,,,,,スタジオタガン,0
66,1011501028726,新規,0,2022-12-09,2022-12-09,株式会社ポシュユ,,株式会社,東京都,荒川区,西日暮里１丁目４２番９号,,13,118,1160013,,,,,,,2022-12-09,1,,,,,ポシュユ,0
67,1011501028742,新規,0,2022-12-09,2022-12-09,太成グループ株式会社,,株式会社,東京都,荒川区,西日暮里１丁目７番３号２Ｆ,,13,118,1160013,,,,,,,2022-12-09,1,,,,,タイセイグループ,0
68,1011601026423,新規,0,2022-12-09,2022-12-09,株式会社ＴＲＩＢＥ,,株式会社,東京都,練馬区,石神井台６丁目１７番２号,,13,120,1770045,,,,,,,2022-12-09,1,,,,,トライブ,0
73,1011803005423,新規,0,2022-12-09,2022-12-09,合同会社サステナファーム,,合同会社,東京都,足立区,関原１丁目１２番１６－７０１号,,13,121,1230852,,,,,,,2022-12-09,1,,,,,,0
74,1012303001755,新規,0,2022-12-09,2022-12-09,グルービー合同会社,,合同会社,東京都,町田市,森野３丁目１２番１５号,,13,209,1940022,,,,,,,2022-12-09,1,,,,,グルービー,0
80,1012403005722,新規,0,2022-12-09,2022-12-09,合同会社Ｔｏｔａｌ　Ｃａｒｅ　Ｍａｎａｇｅｍｅｎｔ,,合同会社,東京都,多摩市,中沢２丁目２４番地の１０アステールＩＩ－３Ｅ,00128732,13,224,2060036,,,,,,,2022-12-09,1,,,,,トータルケアマネジメント,0
94,1020003022856,新規,0,2022-12-09,2022-12-09,合同会社ＭＨＣ,,合同会社,神奈川県,横浜市南区,六ツ川１丁目８１番地ファミリーヘルスケアビル２Ｆ,,14,105,2320066,,,,,,,2022-12-09,1,,,,,エムエイチシー,0
95,1020003022880,新規,0,2022-12-09,2022-12-09,しなの合同会社,,合同会社,神奈川県,横浜市泉区,和泉中央南４丁目１番１号ストリームプラザ６０３号,,14,116,2450023,,,,,,,2022-12-09,1,,,,,シナノ,0
100,1021001077669,新規,0,2022-12-09,2022-12-09,株式会社Ｒｅｇａｌｅｚ‐Ｖｏｕｓ,,株式会社,神奈川県,鎌倉市,御成町１０番４号,,14,204,2480012,,,,,,,2022-12-09,1,,,,,レガレヴ,0
101,1021001077677,新規,0,2022-12-09,2022-12-09,株式会社トシミ技建,,株式会社,神奈川県,大和市,渋谷８丁目１７番地１,,14,213,2420023,,,,,,,2022-12-09,1,,,,,トシミギケン,0
102,1021003012491,新規,0,2022-12-09,2022-12-09,ＺＲ商会合同会社,,合同会社,神奈川県,愛甲郡愛川町,田代９７３－１,,14,401,2430306,,,,,,,2022-12-09,1,,,,,ゼットアルショカイ,0
106,1030001050750,新規,0,2022-12-09,2022-12-09,株式会社アライ興産,,株式会社,埼玉県,春日部市,豊町４丁目１番地１０,,11,214,3440066,,,,,,,2022-12-09,1,,,,,アライコウサン,0
120,1040001126161,新規,0,2022-12-09,2022-12-09,株式会社Ｒｏａｒｋ,,株式会社,千葉県,野田市,木間ケ瀬３１１１番地の２,,12,208,2700222,,,,,,,2022-12-09,1,,,,,ロアーク,0
121,1040001126178,新規,0,2022-12-09,2022-12-09,株式会社東洋,,株式会社,千葉県,千葉市花見川区,犢橋町６６番地１８,,12,102,2620013,,,,,,,2022-12-09,1,,,,,トウヨウ,0
124,1040003021443,新規,0,2022-12-09,2022-12-09,合同会社Ｋ．ｏａｓｔ,,合同会社,千葉県,南房総市,白浜町乙浜１２９１―６,,12,234,2950101,,,,,,,2022-12-09,1,,,,,コースト,0
142,1100001035950,新規,0,2022-12-09,2022-12-09,株式会社Ｆｒａｉｓｉｅｒ,,株式会社,長野県,茅野市,玉川４３１７番地５,,20,214,3910011,,,,,,,2022-12-09,1,,,,,フレジエ,0
155,1120001250903,新規,0,2022-12-09,2022-12-09,ＴＨ　Ｙｅａａａａｈ株式会社,,株式会社,大阪府,枚方市,南中振１丁目２１番２１号,,27,210,5730094,,,,,,,2022-12-09,1,,,,,ティーエイチイェー,0
156,1120001250911,新規,0,2022-12-09,2022-12-09,ＩＶＷ株式会社,,株式会社,大阪府,大阪市平野区,長吉出戸７丁目３番１２号,,27,126,5470011,,,,,,,2022-12-09,1,,,,,アイブイダブリュー,0
157,1120001250960,新規,0,2022-12-09,2022-12-09,株式会社ＥＧＯ,,株式会社,大阪府,大阪市淀川区,野中南１丁目５－３,,27,123,5320022,,,,,,,2022-12-09,1,,,,,イージーオー,0
158,1120001250969,新規,0,2022-12-09,2022-12-09,株式会社ライフサービス＆サポート,,株式会社,大阪府,大阪市城東区,鴫野西２丁目１番２－１０４号,,27,118,5360014,,,,,,,2022-12-09,1,,,,,ライフサービスアンドサポート,0
162,1120003023043,新規,0,2022-12-09,2022-12-09,合同会社大野,,合同会社,大阪府,大阪市中央区,心斎橋筋２丁目２番１０号,,27,128,5420085,,,,,,,2022-12-09,1,,,,,オオノ,0
163,1120005023330,新規,0,2022-12-09,2022-12-09,一般財団法人松井財団,,その他の設立登記法人,大阪府,大阪市西淀川区,大和田５丁目４番１４号,,27,113,5550032,,,,,,,2022-12-09,1,,,,,マツイザイダン,0
169,1120103004959,新規,0,2022-12-09,2022-12-09,ＲＮＩ合同会社,,合同会社,大阪府,泉南郡岬町,淡輪４８８７番地２シーサイドヴィラ淡輪１１０６号室,,27,366,5990301,,,,,,,2022-12-09,1,,,,,アールエヌアイ,0
181,1140001128313,新規,0,2022-12-09,2022-12-09,株式会社矢野,,株式会社,兵庫県,宝塚市,小浜３丁目６番８－２０４号,,28,214,6650827,,,,,,,2022-12-09,1,,,,,ヤノ,0
182,1140001128338,新規,0,2022-12-09,2022-12-09,株式会社氷上興油,,株式会社,兵庫県,丹波市,青垣町佐治１８８番地４,,28,223,6693811,,,,,,,2022-12-09,1,,,,,ヒカミコウユ,0
183,1150001026004,新規,0,2022-12-09,2022-12-09,ユニバース光株式会社,,株式会社,奈良県,北葛城郡河合町,大字穴闇５０３番地６,,29,427,6360054,,,,,,,2022-12-09,1,,,,,ユニバースヒカリ,0
184,1160003002753,新規,0,2022-12-09,2022-12-09,Ｂｉｚ‐ＴＥＬＬＵＳ合同会社,,合同会社,滋賀県,野洲市,市三宅１０４１番地,,25,210,5202362,,,,,,,2022-12-09,1,,,,,ビズテラス,0
194,1180001153992,新規,0,2022-12-09,2022-12-09,株式会社Ｃａｎｎａｔｒｕｓｔ,,株式会社,愛知県,名古屋市中区,新栄１丁目１１番１５号,,23,106,4600007,,,,,,,2022-12-09,1,,,,,カナトラスト,0
195,1180001154140,新規,0,2022-12-09,2022-12-09,株式会社まるはファーム,,株式会社,愛知県,知多郡南知多町,大字豊浜字豊浦１番地の１３,,23,445,4703412,,,,,,,2022-12-09,1,,,,,マルハファーム,0
201,1190001030002,新規,0,2022-12-09,2022-12-09,株式会社寅電,,株式会社,三重県,四日市市,平津町３９８番地５,,24,202,5128042,,,,,,,2022-12-09,1,,,,,トラデン,0
203,1200001040718,新規,0,2022-12-09,2022-12-09,株式会社Ｆｌｙｔｏｐ,,株式会社,岐阜県,高山市,奥飛騨温泉郷平湯５２８番地１,,21,203,5061433,,,,,,,2022-12-09,1,,,,,フライトップ,0
222,1290001099845,新規,0,2022-12-09,2022-12-09,株式会社Ｐ．Ｓ　ｍｏｂｉｌｅ,,株式会社,福岡県,福岡市早良区,干隈４丁目１８番３号,,40,137,8140163,,,,,,,2022-12-09,1,,,,,ピーエスモバイル,0
230,1320001019460,新規,0,2022-12-09,2022-12-09,株式会社三光アシスト,,株式会社,大分県,別府市,光町１５番２号,,44,202,8740930,,,,,,,2022-12-09,1,,,,,サンコウアシスト,0
239,1350001018071,新規,0,2022-12-09,2022-12-09,株式会社Ｋ２ＰｅｒｓｏｎａｌＧｙｍ,,株式会社,宮崎県,都城市,祝吉町５００７番地１,,45,202,8850014,,,,,,,2022-12-09,1,,,,,ケーツーパーソナルジム,0
252,1430001088016,新規,0,2022-12-09,2022-12-09,株式会社ＮＭＯエステート,,株式会社,北海道,札幌市中央区,宮の森四条６丁目２番１５号,,01,101,0640954,,,,,,,2022-12-09,1,,,,,エヌエムオーエステート,0
256,1430003014523,新規,0,2022-12-09,2022-12-09,美的生活ヘルシーライフ合同会社,,合同会社,北海道,札幌市北区,あいの里二条２丁目２－１１,,01,102,0028072,,,,,,,2022-12-09,1,,,,,ビテキセイカツヘルシーライフ,0
274,1700150113331,新規,0,2022-12-09,2022-12-09,Ｈｏｌｙｈｉ　Ｉｎｔｅｒｎａｔｉｏｎａｌ　Ｉｎｃ．,,外国会社等,北海道,虻田郡倶知安町,ニセコひらふ一条３丁目１－１９－５８８,,01,400,0440080,Ｓｅａ　Ｍｅａｄｏｗ　Ｈｏｕｓｅ，Ｒｏａｄ　Ｔｏｗｎ，Ｔｏｒｔｏｌａ　Ｂ．Ｖ．Ｉ,,,,,,2022-12-09,1,,,,,ホリヒインターナシヨナルインク,0
284,2010001231401,新規,0,2022-12-09,2022-12-09,株式会社ＫＳＴ２,,株式会社,東京都,千代田区,内幸町２丁目１番６号,,13,101,1000011,,,,,,,2022-12-09,1,,,,,ケイエスティーツー,0
285,2010001231442,新規,0,2022-12-09,2022-12-09,株式会社リベルファイ,,株式会社,東京都,中央区,勝どき２丁目１５番１号７Ｆ,,13,102,1040054,,,,,,,2022-12-09,1,,,,,リベルファイ,0
286,2010001231467,新規,0,2022-12-09,2022-12-09,晉生株式会社,,株式会社,東京都,千代田区,岩本町１丁目１２番１１号トーア岩本町マンション２０５号室,,13,101,1010032,,,,,,,2022-12-09,1,,,,,シンセイ,0
290,2010005035889,新規,0,2022-12-09,2022-12-09,一般社団法人京都八幡ホールディングス,,その他の設立登記法人,東京都,千代田区,丸の内３丁目１番１号東京共同会計事務所内,,13,101,1000005,,,,,,,2022-12-09,1,,,,,キョウトヤワタホールディングス,0
292,2010101015448,新規,0,2022-12-09,2022-12-09,株式会社Ｂｅｒｒｙ　Ｈｏｍｅ,,株式会社,東京都,八王子市,小門町６番地１０ＫＫビルＢ１０１,,13,201,1920054,,,,,,,2022-12-09,1,,,,,ベリーホーム,0
298,2010401171239,新規,0,2022-12-09,2022-12-09,株式会社周郷,,株式会社,東京都,港区,新橋４丁目１９番１号,,13,103,1050004,,,,,,,2022-12-09,1,,,,,スゴウ,0
299,2010403029113,新規,0,2022-12-09,2022-12-09,ＩＰ　Ｉｎｎｏｖａｔｉｏｎ合同会社,,合同会社,東京都,港区,西新橋３丁目５番２号,,13,103,1050003,,,,,,,2022-12-09,1,,,,,アイピーイノベーション,0
303,2010601062270,新規,0,2022-12-09,2022-12-09,株式会社延成,,株式会社,東京都,墨田区,江東橋４丁目２５番１５号第３東永ビル１Ｆ,,13,107,1300022,,,,,,,2022-12-09,1,,,,,ヨンソン,0
307,2010901052120,新規,0,2022-12-09,2022-12-09,ＥＱ株式会社,,株式会社,東京都,世田谷区,代沢３丁目２６番９号,,13,112,1550032,,,,,,,2022-12-09,1,,,,,イーキュー,0
308,2010903007832,新規,0,2022-12-09,2022-12-09,合同会社８３,,合同会社,東京都,世田谷区,代田４丁目１３番１号,,13,112,1550033,,,,,,,2022-12-09,1,,,,,エイティースリー,0
311,2011001151341,新規,0,2022-12-09,2022-12-09,株式会社ｂｅ４,,株式会社,東京都,目黒区,碑文谷５丁目２番５号Ｔ＆Ａビル５階,,13,110,1520003,,,,,,,2022-12-09,1,,,,,ビイフォー,0
312,2011001151366,新規,0,2022-12-09,2022-12-09,株式会社ＷｉｚＡｃｔ,,株式会社,東京都,渋谷区,上原１丁目３番９号,,13,113,1510064,,,,,,,2022-12-09,1,,,,,ウィザクト,0
314,2011003015841,新規,0,2022-12-09,2022-12-09,合同会社小西コンサルティングオフィス,,合同会社,東京都,渋谷区,円山町５番５号Ｎａｖｉ渋谷Ｖ３階,,13,113,1500044,,,,,,,2022-12-09,1,,,,,コニシコンサルティングオフィス,0
315,2011003015882,新規,0,2022-12-09,2022-12-09,合同会社Ｉｄｅａ　Ｈｕｂ,,合同会社,東京都,渋谷区,道玄坂１丁目１０番８号渋谷道玄坂東急ビル２Ｆ－Ｃ,,13,113,1500043,,,,,,,2022-12-09,1,,,,,アイデアハブ,0
320,2011101101106,新規,0,2022-12-09,2022-12-09,株式会社ヨダツ太郎,,株式会社,東京都,新宿区,西新宿１丁目２６番２号新宿野村ビル３２階,,13,104,1600023,,,,,,,2022-12-09,1,,,,,ヨダツタロウ,0
321,2011103012474,新規,0,2022-12-09,2022-12-09,合同会社ＳＳ,,合同会社,東京都,新宿区,西新宿３丁目３番１３号西新宿水間ビル６階,,13,104,1600023,,,,,,,2022-12-09,1,,,,,エスエス,0
331,2012401039952,新規,0,2022-12-09,2022-12-09,株式会社グロウクラフト,,株式会社,東京都,狛江市,岩戸北３丁目２３番７号,,13,219,2010004,,,,,,,2022-12-09,1,,,,,グロウクラフト,0
346,2020001149329,新規,0,2022-12-09,2022-12-09,株式会社板橋商店,,株式会社,神奈川県,川崎市幸区,下平間４０番地４２,,14,132,2120053,,,,,,,2022-12-09,1,,,,,イタバシショウテン,0
347,2020001149353,新規,0,2022-12-09,2022-12-09,ライトニング株式会社,,株式会社,神奈川県,横浜市鶴見区,馬場１丁目２１番８号ハイムトルース５－２Ｄ,,14,101,2300076,,,,,,,2022-12-09,1,,,,,ライトニング,0
348,2020001149361,新規,0,2022-12-09,2022-12-09,株式会社Ｍｏｖ,,株式会社,神奈川県,横浜市西区,北幸２丁目１０番地２８むつみビル３Ｆ,,14,103,2200004,,,,,,,2022-12-09,1,,,,,モヴ,0
350,2020003022839,新規,0,2022-12-09,2022-12-09,合同会社ｔＡＭＯ,,合同会社,神奈川県,横浜市港北区,樽町１丁目３０番１２号,,14,109,2220001,,,,,,,2022-12-09,1,,,,,タモ,0
351,2020003022855,新規,0,2022-12-09,2022-12-09,合同会社Ｒ＆Ｉ　Ｌａｂｓ,,合同会社,神奈川県,横浜市西区,中央２丁目４４番８号アルムＥ・Ｔ,,14,103,2200051,,,,,,,2022-12-09,1,,,,,アールアンドアイラブズ,0
352,2020003022863,新規,0,2022-12-09,2022-12-09,合同会社オフィス・コトノハ,,合同会社,神奈川県,川崎市高津区,久本３丁目４番７－４０７号,,14,134,2130011,,,,,,,2022-12-09,1,,,,,オフィスコトノハ,0
354,2020005015766,新規,0,2022-12-09,2022-12-09,特定非営利活動法人さくらみらい横浜,,その他の設立登記法人,神奈川県,横浜市南区,唐沢４１,,14,105,2320034,,,,,,,2022-12-09,1,,,,,サクラミライヨコハマ,0
359,2021001077651,新規,0,2022-12-09,2022-12-09,株式会社まる,,株式会社,神奈川県,平塚市,桃浜町３１番４号レジデンス平塚１Ｆ－Ｄ,,14,203,2540815,,,,,,,2022-12-09,1,,,,,マル,0
360,2021001077668,新規,0,2022-12-09,2022-12-09,株式会社森電設,,株式会社,神奈川県,横須賀市,平作２丁目１９番２９号,,14,201,2380032,,,,,,,2022-12-09,1,,,,,,0
361,2021001077676,新規,0,2022-12-09,2022-12-09,株式会社紅谷町,,株式会社,神奈川県,平塚市,紅谷町１７番２２号,,14,203,2540043,,,,,,,2022-12-09,1,,,,,ベニヤチョウ,0
364,2021003012490,新規,0,2022-12-09,2022-12-09,合同会社Ｚｉｐｐｅｒ,,合同会社,神奈川県,座間市,ひばりが丘３丁目５０番１３号,,14,216,2520003,,,,,,,2022-12-09,1,,,,,ジッパー,0
369,2030001151366,新規,0,2022-12-09,2022-12-09,株式会社加納事務所,,株式会社,埼玉県,さいたま市西区,大字土屋３２番地１６,,11,101,3310062,,,,,,,2022-12-09,1,,,,,カノウジムショ,0
370,2030001151382,新規,0,2022-12-09,2022-12-09,桜サポート株式会社,,株式会社,埼玉県,戸田市,新曽南３丁目１２番１８号,,11,224,3350026,,,,,,,2022-12-09,1,,,,,サクラサポート,0
371,2030001151399,新規,0,2022-12-09,2022-12-09,株式会社ＥＬＥＸ,,株式会社,埼玉県,鴻巣市,原馬室６６１番地１４,,11,217,3650043,,,,,,,2022-12-09,1,,,,,エレックス,0
379,2040001126152,新規,0,2022-12-09,2022-12-09,ＳＴＮ株式会社,,株式会社,千葉県,野田市,東金野井１２０４番地,,12,208,2700236,,,,,,,2022-12-09,1,,,,,エスティエヌ,0
401,2110003004935,新規,0,2022-12-09,2022-12-09,合同会社イモタケ,,合同会社,新潟県,新潟市東区,月見町１番８１号,,15,102,9500061,,,,,,,2022-12-09,1,,,,,イモタケ,0
415,2120001250753,新規,0,2022-12-09,2022-12-09,仁山株式会社,,株式会社,大阪府,大阪市東成区,東小橋１丁目１７－３１グランドハイツ東小橋６１０号室,,27,115,5370024,,,,,,,2022-12-09,1,,,,,ジンザン,0
416,2120001250778,新規,0,2022-12-09,2022-12-09,株式会社ミアリーア,,株式会社,大阪府,大阪市中央区,久太郎町４丁目１番３号,,27,128,5410056,,,,,,,2022-12-09,1,,,,,ミアリーア,0
417,2120001250902,新規,0,2022-12-09,2022-12-09,株式会社ＪＡＰＡＮ　ＢＥＡＵＴＹ　ＬＡＢ,,株式会社,大阪府,大阪市平野区,瓜破１丁目５番２６－６０２号,,27,126,5470024,,,,,,,2022-12-09,1,,,,,ジャパンビューティーラボ,0
418,2120001250919,新規,0,2022-12-09,2022-12-09,株式会社本永建築,,株式会社,大阪府,大阪市天王寺区,南河堀町３番７号中西ビル４階,,27,109,5430054,,,,,,,2022-12-09,1,,,,,モトナガケンチク,0
419,2120001250927,新規,0,2022-12-09,2022-12-09,共栄産業株式会社,,株式会社,大阪府,大阪市西区,南堀江３丁目１１番４号７０３,,27,106,5500015,,,,,,,2022-12-09,1,,,,,キョウエイサンギョウ,0
420,2120001250951,新規,0,2022-12-09,2022-12-09,株式会社ＢＩＬＬＩＯＮ,,株式会社,大阪府,大阪市中央区,高津２丁目４番６－３２３号,,27,128,5420072,,,,,,,2022-12-09,1,,,,,ビリオン,0
421,2120001250992,新規,0,2022-12-09,2022-12-09,株式会社サービスステーション絆,,株式会社,大阪府,大阪市住吉区,東粉浜２丁目９番１９号オーナーズマンション帝塚山ＩＩ１０２号室,00128742,27,120,5580051,,,,,,,2022-12-09,1,,,,,サービスステーションキズナ,0
422,2120003023042,新規,0,2022-12-09,2022-12-09,合同会社ＧＡＬＬＥＹ‐ＬＡ　ＣＯＭＰＡＮＹ,,合同会社,大阪府,大阪市東淀川区,小松４丁目１２番３号ＲＩＺＥＯＮＥ上新庄５０２号,,27,114,5330004,,,,,,,2022-12-09,1,,,,,ガレーラカンパニー,0
423,2120003023050,新規,0,2022-12-09,2022-12-09,ＥＴＬ‐ＬＡＢ合同会社,,合同会社,大阪府,大阪市中央区,伏見町２丁目２番６号青山ビル３０６号室,,27,128,5410044,,,,,,,2022-12-09,1,,,,,イーティーエルラボ,0
426,2130001073261,新規,0,2022-12-09,2022-12-09,株式会社京都建築工務ネットワーク,,株式会社,京都府,京都市右京区,西京極北大入町１３３番地２階,,26,108,6150881,,,,,,,2022-12-09,1,,,,,キョウトケンチクコウムネットワーク,0
428,2140001128329,新規,0,2022-12-09,2022-12-09,株式会社Ｋ’ｚ,,株式会社,兵庫県,神戸市西区,玉津町居住２７１番地の１－３０６,,28,111,6512145,,,,,,,2022-12-09,1,,,,,カーズ,0
429,2140001128345,新規,0,2022-12-09,2022-12-09,株式会社アマテラス,,株式会社,兵庫県,尼崎市,武庫之荘１丁目７番２号,,28,202,6610035,,,,,,,2022-12-09,1,,,,,アマテラス,0
434,2150001026003,新規,0,2022-12-09,2022-12-09,株式会社Ｒ＆Ｍ,,株式会社,奈良県,奈良市,法蓮町４７１番地の１,,29,201,6308113,,,,,,,2022-12-09,1,,,,,アールアンドエム,0
438,2170003001803,新規,0,2022-12-09,2022-12-09,書き方サポート合同会社,,合同会社,和歌山県,海南市,日方２１４－１,,30,202,6420002,,,,,,,2022-12-09,1,,,,,カキカタサポート,0
443,2180001154156,新規,0,2022-12-09,2022-12-09,Ｓ‐ＴＥＣ防災株式会社,,株式会社,愛知県,一宮市,冨田字立石８１９番地,,23,203,4940018,,,,,,,2022-12-09,1,,,,,エステックボウサイ,0
446,2190001029992,新規,0,2022-12-09,2022-12-09,ＤＤ株式会社,,株式会社,三重県,鈴鹿市,寺家３丁目１８８６番４号,,24,207,5100254,,,,,,,2022-12-09,1,,,,,ディーディー,0
468,2290801029109,新規,0,2022-12-09,2022-12-09,株式会社ｎａｒｒａｔｉｖｅ　ｓｉｔｅ,,株式会社,福岡県,北九州市小倉北区,京町１丁目３番５号４Ｆ,,40,106,8020002,,,,,,,2022-12-09,1,,,,,ナラティブサイト,0
469,2290803004282,新規,0,2022-12-09,2022-12-09,合同会社グッドライフ,,合同会社,福岡県,宮若市,龍徳７番地１５０,,40,226,8230001,,,,,,,2022-12-09,1,,,,,グッドライフ,0
473,2310001018157,新規,0,2022-12-09,2022-12-09,株式会社リバー,,株式会社,長崎県,佐世保市,矢峰町９３０番地,,42,202,8570133,,,,,,,2022-12-09,1,,,,,リバー,0
507,2430001088007,新規,0,2022-12-09,2022-12-09,株式会社タンドレス,,株式会社,北海道,札幌市東区,丘珠町９３番地,,01,103,0070880,,,,,,,2022-12-09,1,,,,,タンドレス,0
516,2700150066611,新規,0,2022-12-09,2015-10-09,大西区,,その他,沖縄県,名護市,大西３丁目８－１２,,47,209,9050018,,,,,,,2015-10-09,1,,,,,オオニシク,0
518,2700150113330,新規,0,2022-12-09,2022-12-09,Ｊｉ　ｌｉｎ　ｓｈｅｎｇ　ｈｏｎｇ　ｌｉａｎ　ｄｉａｎ　ｚｉ　ｓｈａｎｇ　ｗｕ　ｙｏｕ　ｘｉａｎ　ｇｏｎｇ　ｓｉ,,外国会社等,,,,,,,,Ｊｉ　ｌｉｎ　ｓｈｅｎｇ　ｃｈａｎｇ　ｃｈｕｎ　ｓｈｉ　ｋｕａｎ　ｃｈｅｎｇ　ｑｕ　ｌｉａｏ　ｎｉｎｇ　ｌｕ　ｆｕ　１８　ｈａｏ　８　ｄａｎ　ｙｕａｎ　３６１９　ｈａｏ　ｆａｎｇ,,,,,,2022-12-09,1,,,,,キチリンシヨウホンレンデンシシヨウムユウゲンコウシ,0
533,3010001231350,新規,0,2022-12-09,2022-12-09,株式会社ｉＩＩＩ,,株式会社,東京都,中央区,月島３丁目１４番２号２Ｆ,,13,102,1040052,,,,,,,2022-12-09,1,,,,,アイスリー,0
534,3010001231425,新規,0,2022-12-09,2022-12-09,株式会社Ｈ‐ｓｔｙｌｅ,,株式会社,東京都,文京区,音羽１丁目２２番１９－７０４号,,13,105,1120013,,,,,,,2022-12-09,1,,,,,エイチスタイル,0
535,3010001231433,新規,0,2022-12-09,2022-12-09,ｆｏｒｍ株式会社,,株式会社,東京都,中央区,日本橋２丁目１番１７号丹生ビル２階,,13,102,1030027,,,,,,,2022-12-09,1,,,,,フォーム,0
536,3010001231441,新規,0,2022-12-09,2022-12-09,株式会社カンブジャパン,,株式会社,東京都,千代田区,内幸町２丁目２番３号,,13,101,1000011,,,,,,,2022-12-09,1,,,,,カンブジャパン,0
540,3010005035888,新規,0,2022-12-09,2022-12-09,京都八幡特定目的会社,,その他の設立登記法人,東京都,千代田区,丸の内３丁目１番１号東京共同会計事務所内,,13,101,1000005,,,,,,,2022-12-09,1,,,,,キョウトヤワタ,0
547,3010401171205,新規,0,2022-12-09,2022-12-09,株式会社片岡リアルティ,,株式会社,東京都,港区,赤坂６丁目７番１４－３０６号,,13,103,1070052,,,,,,,2022-12-09,1,,,,,カタオカリアルティ,0
548,3010401171279,新規,0,2022-12-09,2022-12-09,ワンナイズ株式会社,,株式会社,東京都,港区,南青山２丁目２番１５号,,13,103,1070062,,,,,,,2022-12-09,1,,,,,ワンナイズ,0
549,3010401171295,新規,0,2022-12-09,2022-12-09,株式会社ＳＥＶＥＮ　ＤＡＹＳ　ＨＯＬＤＩＮＧＳ,,株式会社,東京都,港区,南青山３丁目１７番１４号,,13,103,1070062,,,,,,,2022-12-09,1,,,,,セブンデイズホールディングス,0
550,3010405021661,新規,0,2022-12-09,2022-12-09,一般社団法人ＩＰ　Ｉｎｎｏｖａｔｉｏｎ,,その他の設立登記法人,東京都,港区,西新橋３丁目５番２号,,13,103,1050003,,,,,,,2022-12-09,1,,,,,アイピーイノベーション,0
565,3011001151332,新規,0,2022-12-09,2022-12-09,株式会社Ｐａｔｈｏｓｉｏｎ,,株式会社,東京都,渋谷区,松濤１丁目２８－２,,13,113,1500046,,,,,,,2022-12-09,1,,,,,パトシオン,0
566,3011001151365,新規,0,2022-12-09,2022-12-09,フルヤホールディングス株式会社,,株式会社,東京都,目黒区,青葉台３丁目１番６号藤和青葉台コープ４０１,,13,110,1530042,,,,,,,2022-12-09,1,,,,,フルヤホールディングス,0
567,3011001151373,新規,0,2022-12-09,2022-12-09,株式会社ＦＵＲＳＴＩＮ,,株式会社,東京都,渋谷区,神宮前４丁目１７番１６号エリキサ表参道３０２,,13,113,1500001,,,,,,,2022-12-09,1,,,,,フュルスティン,0
568,3011003015849,新規,0,2022-12-09,2022-12-09,合同会社タイニールーム,,合同会社,東京都,渋谷区,道玄坂１丁目１０番８号渋谷道玄坂東急ビル２Ｆ－Ｃ,,13,113,1500043,,,,,,,2022-12-09,1,,,,,タイニールーム,0
574,3011101101105,新規,0,2022-12-09,2022-12-09,株式会社殿厨,,株式会社,東京都,新宿区,西新宿１丁目２６番２号新宿野村ビル３２階,,13,104,1600023,,,,,,,2022-12-09,1,,,,,トノチュウ,0
581,3011201024288,新規,0,2022-12-09,2022-12-09,ＷｉｌｌＣａｔｓ株式会社,,株式会社,東京都,中野区,江古田４丁目２５－３－１０２室,,13,114,1650022,,,,,,,2022-12-09,1,,,,,ウィルキャット,0
589,3011701025851,新規,0,2022-12-09,2022-12-09,ＹＭ株式会社,,株式会社,東京都,江戸川区,西葛西３丁目１５番７号,,13,123,1340088,,,,,,,2022-12-09,1,,,,,ワイエム,0
595,3012803002945,新規,0,2022-12-09,2022-12-09,合同会社ａｓ‐ｍｋ,,合同会社,東京都,東大和市,狭山４丁目１４１８番地の２２,,13,220,2070003,,,,,,,2022-12-09,1,,,,,エーエスエムケイ,0
604,3020001149328,新規,0,2022-12-09,2022-12-09,Ｆ２テクノ株式会社,,株式会社,神奈川県,横浜市神奈川区,三ツ沢上町３０番１８号,,14,102,2210856,,,,,,,2022-12-09,1,,,,,エフツーテクノ,0
611,3020003022870,新規,0,2022-12-09,2022-12-09,ＭｅｌｌｏｗＯｖｅｒ合同会社,,合同会社,神奈川県,川崎市中原区,今井南町７番４４号１Ｆ,,14,133,2110064,,,,,,,2022-12-09,1,,,,,メロウオーバー,0
614,3021001077667,新規,0,2022-12-09,2022-12-09,株式会社木龍左官,,株式会社,神奈川県,足柄上郡大井町,上大井６７２番地７,,14,362,2580016,,,,,,,2022-12-09,1,,,,,キリュウサカン,0
617,3021003012481,新規,0,2022-12-09,2022-12-09,ベイビッツ合同会社,,合同会社,神奈川県,藤沢市,柄沢１丁目１８番地２１号,,14,205,2510003,,,,,,,2022-12-09,1,,,,,ベイビッツ,0
627,3030005021077,新規,0,2022-12-09,2022-12-09,社会保険労務士法人コーエー,,その他の設立登記法人,埼玉県,川口市,大字芝６９９０－１０,,11,203,3330866,,,,,,,2022-12-09,1,,,,,コーエー,0
633,3040001126151,新規,0,2022-12-09,2022-12-09,株式会社りこう,,株式会社,千葉県,茂原市,萱場２４６９番地,,12,210,2994111,,,,,,,2022-12-09,1,,,,,リコウ,0
634,3040001126168,新規,0,2022-12-09,2022-12-09,株式会社エヌプラス,,株式会社,千葉県,いすみ市,岬町椎木４６５番地１,,12,238,2994501,,,,,,,2022-12-09,1,,,,,エヌプラス,0
635,3040001126176,新規,0,2022-12-09,2022-12-09,株式会社Ｋ＆Ｖ,,株式会社,千葉県,船橋市,小室町３３０９番地１階Ａ号室,,12,204,2701471,,,,,,,2022-12-09,1,,,,,ケイアンドブイ,0
642,3060001035516,新規,0,2022-12-09,2022-12-09,ＤｒｉｖｅＸ株式会社,,株式会社,栃木県,足利市,鹿島町３２９番地２,,09,202,3260844,,,,,,,2022-12-09,1,,,,,ドライブエックス,0
650,3080003002909,新規,0,2022-12-09,2022-12-09,ＳＤＸ合同会社,,合同会社,静岡県,静岡市清水区,西久保１丁目１２－６,,22,103,4240038,,,,,,,2022-12-09,1,,,,,エスデーエックス,0
652,3080401026195,新規,0,2022-12-09,2022-12-09,株式会社アイノテドットリンク,,株式会社,静岡県,浜松市中区,中央１丁目１８‐２０‐２３０１,,22,131,4300929,,,,,,,2022-12-09,1,,,,,アイノテドットリンク,0
657,3090001017882,新規,0,2022-12-09,2022-12-09,株式会社ＮＥＸＴ　ＩＮＮＯＶＡＴＩＯＮ,,株式会社,山梨県,笛吹市,石和町市部１０２９番地,,19,211,4060031,,,,,,,2022-12-09,1,,,,,ネクストイノベーション,0
658,3100001035949,新規,0,2022-12-09,2022-12-09,株式会社ｓｉｍｐｌｅ,,株式会社,長野県,松本市,井川城２丁目１３番３３号,,20,202,3900831,,,,,,,2022-12-09,1,,,,,シンプル,0
670,3120001250629,新規,0,2022-12-09,2022-12-09,株式会社ｋａｅｒｕ,,株式会社,大阪府,大阪市福島区,鷺洲２丁目６番１９号,,27,103,5530002,,,,,,,2022-12-09,1,,,,,カエル,0
671,3120001250868,新規,0,2022-12-09,2022-12-09,広越株式会社,,株式会社,大阪府,大阪市中央区,松屋町９番２０号ローレルステート松屋町１１０５Ｂ,,27,128,5420067,,,,,,,2022-12-09,1,,,,,コウエツ,0
672,3120001250884,新規,0,2022-12-09,2022-12-09,株式会社フォトユニット,,株式会社,大阪府,大阪市北区,梅田１丁目２番２号大阪駅前第２ビル１２－１２,,27,127,5300001,,,,,,,2022-12-09,1,,,,,フォトユニット,0
673,3120001250901,新規,0,2022-12-09,2022-12-09,大阪テント看板株式会社,,株式会社,大阪府,大阪市平野区,長吉六反４丁目３番５８号,,27,126,5470012,,,,,,,2022-12-09,1,,,,,オオサカテントカンバン,0
674,3120001250918,新規,0,2022-12-09,2022-12-09,株式会社メディカビヨンド,,株式会社,大阪府,大阪市淀川区,宮原１丁目１６番１８号サンヴェルデ新大阪３０２,,27,123,5320003,,,,,,,2022-12-09,1,,,,,メディカビヨンド,0
675,3120001250926,新規,0,2022-12-09,2022-12-09,株式会社山瀬電機,,株式会社,大阪府,大阪市東淀川区,北江口４丁目４番４１号,,27,114,5330002,,,,,,,2022-12-09,1,,,,,ヤマセデンキ,0
676,3120001250942,新規,0,2022-12-09,2022-12-09,株式会社ドリームウィーバー,,株式会社,大阪府,大阪市城東区,関目２丁目１２番３７－６０２号,,27,118,5360008,,,,,,,2022-12-09,1,,,,,ドリームウィーバー,0
677,3120001250950,新規,0,2022-12-09,2022-12-09,株式会社ライジング,,株式会社,大阪府,大阪市住吉区,遠里小野２丁目１番２６号,,27,120,5580032,,,,,,,2022-12-09,1,,,,,ライジング,0
680,3120003023000,新規,0,2022-12-09,2022-12-09,合同会社Ａｐｅｉｒｏｓ　Ｃａｐｉｔａｌ　Ｊａｐａｎ,,合同会社,大阪府,大阪市西淀川区,野里１丁目６番９号,,27,113,5550024,,,,,,,2022-12-09,1,,,,,アプロスキャピタルジャパン,0
681,3120003023058,新規,0,2022-12-09,2022-12-09,Ｌｏｕｉｓ　Ｔｒｅａｄｉｎｇ合同会社,,合同会社,大阪府,枚方市,出口３丁目１番３３－４０１号,,27,210,5730065,,,,,,,2022-12-09,1,,,,,ルイトレーディング,0
685,3120101066636,新規,0,2022-12-09,2022-12-09,株式会社ＥＬ,,株式会社,大阪府,岸和田市,岡山町５２４番地の１２,,27,202,5960814,,,,,,,2022-12-09,1,,,,,エル,0
686,3120103004957,新規,0,2022-12-09,2022-12-09,合同会社彩虹,,合同会社,大阪府,岸和田市,岸野町５番１４号,,27,202,5960051,,,,,,,2022-12-09,1,,,,,サイコウ,0
694,3140001128328,新規,0,2022-12-09,2022-12-09,株式会社ＬＧ　ＰＲＯＪＥＣＴ,,株式会社,兵庫県,芦屋市,松ノ内町７番１３－１号,,28,206,6590094,,,,,,,2022-12-09,1,,,,,エルジープロジェクト,0
698,3140005026404,新規,0,2022-12-09,2022-12-09,特定非営利活動法人Ｐｒｏｊｅｃｔ　Ｏｆ　Ｍｅｄｉｃａｌ　Ｄａｎｃｅ,,その他の設立登記法人,兵庫県,姫路市,飾磨区今在家６丁目１８８番地１コスモス２０２,,28,201,6728079,,,,,,,2022-12-09,1,,,,,プロジェクトオブメディカルダンス,0
713,3180001154147,新規,0,2022-12-09,2022-12-09,涼太郎株式会社,,株式会社,愛知県,名古屋市瑞穂区,彌富町字茨山２１番地の１,,23,108,4670039,,,,,,,2022-12-09,1,,,,,リョウタロウ,0
714,3180001154163,新規,0,2022-12-09,2022-12-09,株式会社ＣＥＮＶＩ,,株式会社,愛知県,名古屋市瑞穂区,明前町６番２０号,,23,108,4670852,,,,,,,2022-12-09,1,,,,,センビ,0
718,3180003024587,新規,0,2022-12-09,2022-12-09,合同会社ＣｏｃｏｏｎＴｉｍｅ,,合同会社,愛知県,小牧市,小牧４丁目２２５番地２,,23,219,4850041,,,,,,,2022-12-09,1,,,,,コクーンタイム,0
719,3180301036895,新規,0,2022-12-09,2022-12-09,寿化成株式会社,,株式会社,愛知県,岡崎市,竜泉寺町字塘ケ入４１,,23,202,4443524,,,,,,,2022-12-09,1,,,,,コトブキカセイ,0
729,3200005013420,新規,0,2022-12-09,2022-12-09,医療法人永賀会,,その他の設立登記法人,岐阜県,関市,笠屋１丁目８０番地,,21,205,5013910,,,,,,,2022-12-09,1,,,,,エイガカイ,0
749,3290001099703,新規,0,2022-12-09,2022-12-09,株式会社ミチオコーポレーション,,株式会社,福岡県,飯塚市,赤坂８５３番地６３,,40,205,8200106,,,,,,,2022-12-09,1,,,,,ミチオコーポレーション,0
750,3290001099835,新規,0,2022-12-09,2022-12-09,株式会社福間会計事務所,,株式会社,福岡県,福岡市中央区,天神３丁目６番３６号第一黒田ビル５階,,40,133,8100001,,,,,,,2022-12-09,1,,,,,フクマカイケイジムショ,0
751,3290001099851,新規,0,2022-12-09,2022-12-09,株式会社拓海,,株式会社,福岡県,福岡市中央区,赤坂２丁目２番９号,,40,133,8100042,,,,,,,2022-12-09,1,,,,,タクミ,0
755,3310001018156,新規,0,2022-12-09,2022-12-09,もみじ不動産株式会社,,株式会社,長崎県,佐世保市,日宇町２９０９番地１,,42,202,8571151,,,,,,,2022-12-09,1,,,,,モミジフドウサン,0
756,3320001019459,新規,0,2022-12-09,2022-12-09,株式会社ホーム設備サービス,,株式会社,大分県,大分市,新栄町８番２４号,,44,201,8700919,,,,,,,2022-12-09,1,,,,,ホームセツビサービス,0
764,3360001031294,新規,0,2022-12-09,2022-12-09,ＳＬＫ　Ｊａｐａｎ株式会社,,株式会社,沖縄県,浦添市,牧港４丁目６番１号,,47,208,9012131,,,,,,,2022-12-09,1,,,,,エスエルケージャパン,0
767,3370005010574,新規,0,2022-12-09,2022-12-09,医療法人美里クリニック,,その他の設立登記法人,宮城県,遠田郡美里町,関根字道明４３番地,,04,505,9870006,,,,,,,2022-12-09,1,,,,,ミサトクリニック,0
783,3430001088022,新規,0,2022-12-09,2022-12-09,株式会社匠栄,,株式会社,北海道,苫小牧市,元中野町２丁目１６番２０号,,01,213,0530005,,,,,,,2022-12-09,1,,,,,ショウエイ,0
786,3430003014538,新規,0,2022-12-09,2022-12-09,合同会社丸越家具リペア,,合同会社,北海道,札幌市厚別区,厚別中央三条２丁目１６番３５号,,01,108,0040053,,,,,,,2022-12-09,1,,,,,マルコシカグリペア,0
788,3460101007291,新規,0,2022-12-09,2022-12-09,株式会社ＴＫオクト,,株式会社,北海道,中川郡幕別町,札内新北町１９７番地の３２,,01,643,0890533,,,,,,,2022-12-09,1,,,,,ティーケイオクト,0
799,3700150112851,新規,0,2022-12-09,2022-11-14,ＮＯＷプロジェクト,,その他,福岡県,三井郡大刀洗町,大字鵜木６７－３,,40,503,8301224,,,,,,,2022-11-14,1,,,,,ナウプロジエクト,0
800,3700150113338,新規,0,2022-12-09,2022-12-09,ＳＨＥＮＺＨＥＮ　ＥＶＯ　ＮＥＷＥＮＥＲＧＹ　ＴＥＣＨＮＯＬＯＧＹ　ＣＯ．，ＬＴＤ,,外国会社等,,,,,,,,３１０，Ｓｕｉｔｅ　Ａ，Ｘｉｎｍｕ　Ｂａｎｌｉ　Ｂｕｉｌｄｉｎｇ，Ｐｉｎｇｈｕ　Ｓｕｂ－Ｄｉｓｔｒｉｃｔ，Ｌｏｎｇｇａｎｇ　Ｄｉｓｔｒｉｃｔ　Ｓｈｅｎｚｈｅｎ,,,,,,2022-12-09,1,,,,,シエンチエンエボニユーエナジーテクノロジーカンパニーリミテツド,0
813,4010001231408,新規,0,2022-12-09,2022-12-09,フェローテックシリコンジャパン株式会社,,株式会社,東京都,中央区,日本橋２丁目３番４号,,13,102,1030027,,,,,,,2022-12-09,1,,,,,フェローテックシリコンジャパン,0
814,4010001231424,新規,0,2022-12-09,2022-12-09,株式会社ＴＢＨ,,株式会社,東京都,千代田区,外神田３丁目６番４号,,13,101,1010021,,,,,,,2022-12-09,1,,,,,ティービーエイチ,0
815,4010001231465,新規,0,2022-12-09,2022-12-09,Ｒ，Ｇ，Ｂエンタープライズ株式会社,,株式会社,東京都,千代田区,神田平河町１番第３東ビル５階,,13,101,1010027,,,,,,,2022-12-09,1,,,,,アールジービーエンタープライズ,0
817,4010003039279,新規,0,2022-12-09,2022-12-09,合同会社コア・コンピタンス,,合同会社,東京都,千代田区,外神田３丁目５－５末広町ハイム５０３,,13,101,1010021,,,,,,,2022-12-09,1,,,,,コアコンピタンス,0
819,4010005035887,新規,0,2022-12-09,2022-12-09,一般社団法人Ｊａｐａｎ　ＰＤＰ,,その他の設立登記法人,東京都,中央区,銀座３丁目９番１９号吉澤ビル８階東京２１法律事務所内,,13,102,1040061,,,,,,,2022-12-09,1,,,,,ジャパンピーディーピー,0
820,4010005035895,新規,0,2022-12-09,2022-12-09,一般社団法人Ｙｏｔｅｉ　Ｏｎｅ,,その他の設立登記法人,東京都,千代田区,霞が関３丁目２番５号,,13,101,1000013,,,,,,,2022-12-09,1,,,,,ヨテイワン,0
822,4010103002038,新規,0,2022-12-09,2022-12-09,クラウドオンザヒル合同会社,,合同会社,東京都,八王子市,絹ケ丘１丁目５３番１０号,,13,201,1920912,,,,,,,2022-12-09,1,,,,,クラウドオンザヒル,0
825,4010401170973,新規,0,2022-12-09,2022-12-09,株式会社ＩＭＡＤＯＫＩ,,株式会社,東京都,港区,赤坂９丁目６番３９号,,13,103,1070052,,,,,,,2022-12-09,1,,,,,イマドキ,0
826,4010401171261,新規,0,2022-12-09,2022-12-09,アネラ株式会社,,株式会社,東京都,港区,三田１丁目７番１－３１０５号,,13,103,1080073,,,,,,,2022-12-09,1,,,,,アネラ,0
827,4010401171278,新規,0,2022-12-09,2022-12-09,理草株式会社,,株式会社,東京都,港区,芝３丁目１７番１５－１４０４号,,13,103,1050014,,,,,,,2022-12-09,1,,,,,リソウ,0
828,4010401171294,新規,0,2022-12-09,2022-12-09,株式会社ＬｕＭｅ,,株式会社,東京都,港区,南青山１丁目１０番１０号Ｉ＆Ｔｍｉｎａｍｉａｏｙａｍａ４Ｆ,,13,103,1070062,,,,,,,2022-12-09,1,,,,,ルーミー,0
833,4010601062269,新規,0,2022-12-09,2022-12-09,株式会社ＡｇＧｒａｐｈ．,,株式会社,東京都,墨田区,石原１丁目３８番８号高橋ビル１Ｆ,,13,107,1300011,,,,,,,2022-12-09,1,,,,,エージーグラフ,0
836,4010701043573,新規,0,2022-12-09,2022-12-09,株式会社ｇｅｎｉｕｓ‐ｔｏｋｙｏ,,株式会社,東京都,品川区,東五反田１丁目１９番４号レオ五反田辻ビル７０２,,13,109,1410022,,,,,,,2022-12-09,1,,,,,ジーニアストウキョウ,0
841,4010803004382,新規,0,2022-12-09,2022-12-09,ＳＴＡＴ合同会社,,合同会社,東京都,大田区,上池台４丁目３番９号,,13,111,1450064,,,,,,,2022-12-09,1,,,,,エスティエーティ,0
856,4011101101104,新規,0,2022-12-09,2022-12-09,株式会社蓮花,,株式会社,東京都,新宿区,大久保１丁目２番１号天翔オフィス８１２,,13,104,1690072,,,,,,,2022-12-09,1,,,,,レンカ,0
857,4011101101129,新規,0,2022-12-09,2022-12-09,森縁家株式会社,,株式会社,東京都,新宿区,百人町２丁目１番４５号赤煉瓦２３１,,13,104,1690073,,,,,,,2022-12-09,1,,,,,シンエンカ,0
859,4011201024287,新規,0,2022-12-09,2022-12-09,株式会社パーシモンズマネジメント,,株式会社,東京都,中野区,松が丘２丁目１５番５号,,13,114,1650024,,,,,,,2022-12-09,1,,,,,パーシモンズマネジメント,0
868,4011801041657,新規,0,2022-12-09,2022-12-09,日徽国際株式会社,,株式会社,東京都,足立区,鹿浜２丁目９番２号,,13,121,1230864,,,,,,,2022-12-09,1,,,,,ニッキコクサイ,0
869,4011805003232,新規,0,2022-12-09,2022-12-09,マスト協同組合,,その他の設立登記法人,東京都,葛飾区,青戸３丁目３２番３号,,13,122,1250062,,,,,,,2022-12-09,1,,,,,マスト,0
877,4012801022011,新規,0,2022-12-09,2022-12-09,株式会社ボヤージュ・コンサルティング,,株式会社,東京都,国分寺市,東元町１丁目２３－２４,,13,214,1850022,,,,,,,2022-12-09,1,,,,,ボヤージュコンサルティング,0
893,4020001149319,新規,0,2022-12-09,2022-12-09,株式会社水源工業,,株式会社,神奈川県,横浜市南区,六ツ川２丁目８６番３８号,,14,105,2320066,,,,,,,2022-12-09,1,,,,,ミズモトコウギョウ,0
894,4020001149351,新規,0,2022-12-09,2022-12-09,株式会社鳶正建設,,株式会社,神奈川県,横浜市都筑区,加賀原１丁目３２番１９号,,14,118,2240055,,,,,,,2022-12-09,1,,,,,トビマサケンセツ,0
898,4020005015756,新規,0,2022-12-09,2022-12-09,医療法人智乃会,,その他の設立登記法人,神奈川県,横浜市金沢区,富岡西７丁目１９番１１号,,14,108,2360052,,,,,,,2022-12-09,1,,,,,トモノカイ,0
899,4020005015764,新規,0,2022-12-09,2022-12-09,医療法人社団吉誠会,,その他の設立登記法人,神奈川県,横浜市戸塚区,品濃町５４９番地２三宅ビル３０１－２,,14,110,2440801,,,,,,,2022-12-09,1,,,,,キッセイカイ,0
903,4021001077575,新規,0,2022-12-09,2022-12-09,株式会社ａｌｌｅｓ　ｌｉｅｂｅ,,株式会社,神奈川県,相模原市緑区,橋本３丁目２７－６Ｓ＆Ｙビル,,14,151,2520143,,,,,,,2022-12-09,1,,,,,アレスリーベ,0
933,4030003020716,新規,0,2022-12-09,2022-12-09,合同会社新素材研究所,,合同会社,埼玉県,さいたま市浦和区,領家３丁目２２番２５号,,11,107,3300072,,,,,,,2022-12-09,1,,,,,シンソザイケンキュウジョ,0
949,4040001126159,新規,0,2022-12-09,2022-12-09,株式会社善建設,,株式会社,千葉県,市原市,八幡２１１８番地３,,12,219,2900062,,,,,,,2022-12-09,1,,,,,ヨシケンセツ,0
950,4040001126175,新規,0,2022-12-09,2022-12-09,株式会社ｕｓ,,株式会社,千葉県,柏市,今谷上町５３番地８,,12,217,2770074,,,,,,,2022-12-09,1,,,,,アス,0
965,4090005007532,新規,0,2022-12-09,2022-12-09,一般社団法人ＲＩＳ,,その他の設立登記法人,山梨県,上野原市,コモアしおつ１丁目４番４号,,19,212,4090126,,,,,,,2022-12-09,1,,,,,アールアイエス,0
972,4110001037167,新規,0,2022-12-09,2022-12-09,株式会社Ｅｔ　ｃｏｕｌｅｕｒ,,株式会社,新潟県,新潟市江南区,横越中央６丁目４番５３号,,15,104,9500208,,,,,,,2022-12-09,1,,,,,エクレール,0
983,4120001250917,新規,0,2022-12-09,2022-12-09,株式会社美徳,,株式会社,大阪府,大阪市中央区,瓦町１丁目６番１－４０６号,,27,128,5410048,,,,,,,2022-12-09,1,,,,,ビトク,0
984,4120001250925,新規,0,2022-12-09,2022-12-09,空ＳＥＥＤＯ株式会社,,株式会社,大阪府,大阪市浪速区,芦原２丁目６番９号２階,,27,111,5560029,,,,,,,2022-12-09,1,,,,,ソラシド,0
987,4120005023336,新規,0,2022-12-09,2022-12-09,一般社団法人日本拳法西日本連盟,,その他の設立登記法人,大阪府,大阪市中央区,大手前１丁目６番８号,,27,128,5400008,,,,,,,2022-12-09,1,,,,,ニッポンケンポウニシニホンレンメイ,0
993,4120901046844,新規,0,2022-12-09,2022-12-09,株式会社Ｓｕｎ　Ｍ　Ｌｕｎａ,,株式会社,大阪府,茨木市,東太田４丁目４番９号アレーズ１階,,27,211,5670012,,,,,,,2022-12-09,1,,,,,サンルーナ,0
995,4120903004370,新規,0,2022-12-09,2022-12-09,合同会社Ｐｌａｎｎｉｎｇ　ＯＮ,,合同会社,大阪府,高槻市,大手町４番４号メゾン大手４０１号,,27,207,5690078,,,,,,,2022-12-09,1,,,,,プランニングオン,0
1000,4122001036486,新規,0,2022-12-09,2022-12-09,株式会社ＴＳトレーディング,,株式会社,大阪府,東大阪市,衣摺５丁目４番３６号ペンサミエント１－２０１号,,27,227,5770827,,,,,,,2022-12-09,1,,,,,ティーエストレーディング,0
1002,4130003008370,新規,0,2022-12-09,2022-12-09,合同会社コントラスト,,合同会社,京都府,京都市左京区,一乗寺梅ノ木町５１番地,,26,103,6068173,,,,,,,2022-12-09,1,,,,,コントラスト,0
1003,4130005016644,新規,0,2022-12-09,2022-12-09,一般社団法人Ｃｏｓｙ,,その他の設立登記法人,京都府,亀岡市,横町１２－１メゾンソレイユ２０１,,26,206,6210812,,,,,,,2022-12-09,1,,,,,コージー,0
1008,4140001128327,新規,0,2022-12-09,2022-12-09,株式会社かなう,,株式会社,兵庫県,神戸市中央区,脇浜町１丁目４番８－７０１号,,28,110,6510072,,,,,,,2022-12-09,1,,,,,カナウ,0
1009,4140001128343,新規,0,2022-12-09,2022-12-09,ツカレナオス株式会社,,株式会社,兵庫県,南あわじ市,福良甲１５３０番地１１ジャヴァビル６０６号,,28,224,6560501,,,,,,,2022-12-09,1,,,,,ツカレナオス,0
1022,4180001154055,新規,0,2022-12-09,2022-12-09,株式会社ＭＥＩＺ,,株式会社,愛知県,名古屋市名東区,引山１丁目１５０６番地,,23,115,4650002,,,,,,,2022-12-09,1,,,,,メイズ,0
1023,4180001154162,新規,0,2022-12-09,2022-12-09,株式会社東海設備プラス,,株式会社,愛知県,長久手市,岩作下島９９番地１,,23,238,4801103,,,,,,,2022-12-09,1,,,,,トウカイセツビプラス,0
1029,4180301036886,新規,0,2022-12-09,2022-12-09,株式会社ＨＲＭソリューション,,株式会社,愛知県,岡崎市,美合町字南屋敷２３番地,,23,202,4440802,,,,,,,2022-12-09,1,,,,,エイチアールエムソリューション,0
1031,4180305009418,新規,0,2022-12-09,2022-12-09,ＮＰＯ法人Ｊｏｙｂｏｙ,,その他の設立登記法人,愛知県,西尾市,寄住町若宮２５番２号,,23,213,4450073,,,,,,,2022-12-09,1,,,,,ジョイボーイ,0
1032,4190001029999,新規,0,2022-12-09,2022-12-09,一慶工業株式会社,,株式会社,三重県,鈴鹿市,三日市南２丁目５番５号,,24,207,5130804,,,,,,,2022-12-09,1,,,,,イッケイコウギョウ,0
1047,4240003005919,新規,0,2022-12-09,2022-12-09,ＪＥＸトレード合同会社,,合同会社,広島県,呉市,天応大浜２丁目３番２６－２０２号,,34,202,7370875,,,,,,,2022-12-09,1,,,,,ジェイイーエックストレード,0
1048,4240005015494,新規,0,2022-12-09,2022-12-09,一般社団法人竹原観光まちづくり機構,,その他の設立登記法人,広島県,竹原市,中央５丁目１番３５号,,34,203,7250026,,,,,,,2022-12-09,1,,,,,タケハラカンコウマチヅクリキコウ,0
1054,4280001008837,新規,0,2022-12-09,2022-12-09,株式会社Ａｍｂｉｔｉｏｎ,,株式会社,島根県,松江市,伊勢宮町５２６－３エレガントビル１Ｆ,,32,201,6900006,,,,,,,2022-12-09,1,,,,,,0
1059,4290001099826,新規,0,2022-12-09,2022-12-09,株式会社ＮＷＤ,,株式会社,福岡県,福岡市西区,姪浜駅南２丁目１９番２２,,40,135,8190006,,,,,,,2022-12-09,1,,,,,エヌダブリューディ,0
1060,4290001099842,新規,0,2022-12-09,2022-12-09,株式会社ＷＩＮＳ,,株式会社,福岡県,糸島市,高田５丁目５番１５号,,40,230,8191102,,,,,,,2022-12-09,1,,,,,ウインズ,0
1061,4290001099850,新規,0,2022-12-09,2022-12-09,株式会社ルート,,株式会社,福岡県,飯塚市,横田７５３－４スリム九工大,,40,205,8200044,,,,,,,2022-12-09,1,,,,,ルート,0
1063,4290003013297,新規,0,2022-12-09,2022-12-09,晴レ時々ハレ合同会社,,合同会社,福岡県,福岡市中央区,六本松１丁目３番１３号,,40,133,8100044,,,,,,,2022-12-09,1,,,,,ハレトキドキハレ,0
1065,4290801029115,新規,0,2022-12-09,2022-12-09,株式会社友志建材リース,,株式会社,福岡県,中間市,扇ヶ浦２丁目４番３６号,,40,215,8090023,,,,,,,2022-12-09,1,,,,,ユウシケンザイリース,0
1090,4430001088021,新規,0,2022-12-09,2022-12-09,株式会社ＢＴＥＥエンタープライズ,,株式会社,北海道,苫小牧市,啓北町２丁目１０番２４号,,01,213,0530854,,,,,,,2022-12-09,1,,,,,ベティエンタープライズ,0
1094,4430003014512,新規,0,2022-12-09,2022-12-09,合同会社寅,,合同会社,北海道,札幌市北区,北二十七条西９丁目５番２３号ドミホワイト１０３号,,01,102,0010027,,,,,,,2022-12-09,1,,,,,トラ,0
1095,4430003014537,新規,0,2022-12-09,2022-12-09,ＹＳアグリイノベーション合同会社,,合同会社,北海道,磯谷郡蘭越町,字御成４０１番地２,,01,394,0481314,,,,,,,2022-12-09,1,,,,,ワイエスアグリイノベーション,0
1101,4460101007290,新規,0,2022-12-09,2022-12-09,株式会社高森商店,,株式会社,北海道,帯広市,東一条南８丁目５番地,,01,207,0800801,,,,,,,2022-12-09,1,,,,,タカモリショウテン,0
1110,4700150112719,新規,0,2022-12-09,2022-11-10,ＧＯＳＴＡ,,その他,神奈川県,川崎市川崎区,京町１丁目２－５マ・メゾン１０１,,14,131,2100848,,,,,,,2022-11-10,1,,,,,ゴスタ,0
1111,4700150113337,新規,0,2022-12-09,2022-12-09,ＴＵＯＺＨＵ　ＴＥＣＨＮＯＬＯＧＹ　ＬＩＭＩＴＥＤ,,外国会社等,,,,,,,,１９Ｈ　Ｍａｘｇｒａｎｄ　ｐｌａｚａ，Ｎｏ．３　Ｔａｉ　Ｙａｕ　Ｓｔｒｅｅｔ，Ｓａｎ　Ｐｏ　Ｋｏｎｇ，Ｋｏｗｌｏｏｎ　Ｈｏｎｇ　Ｋｏｎｇ,,,,,,2022-12-09,1,,,,,タクタケテクノロジーリミテツド,0
1129,5010001231274,新規,0,2022-12-09,2022-12-09,ＷＩＮ　Ｓｔｒａｔｅｇｉｃ　Ｐａｒｔｎｅｒｓ株式会社,,株式会社,東京都,千代田区,大手町１丁目６番１号,,13,101,1000004,,,,,,,2022-12-09,1,,,,,ウィンストラテジックパートナーズ,0
1130,5010001231407,新規,0,2022-12-09,2022-12-09,株式会社リレーライフ,,株式会社,東京都,千代田区,丸の内１丁目１１番１号,,13,101,1000005,,,,,,,2022-12-09,1,,,,,リレーライフ,0
1131,5010001231423,新規,0,2022-12-09,2022-12-09,株式会社ザテラ,,株式会社,東京都,中央区,勝どき１丁目８番１－４１１２号,,13,102,1040054,,,,,,,2022-12-09,1,,,,,ザテラ,0
1132,5010001231431,新規,0,2022-12-09,2022-12-09,株式会社ＩｎｆｒａｓｔＧａｋｔｕｒｅ,,株式会社,東京都,中央区,銀座１丁目１２－４Ｎ＆ＥＢＬＤ．７階,,13,102,1040061,,,,,,,2022-12-09,1,,,,,インフラストガクチャー,0
1133,5010001231448,新規,0,2022-12-09,2022-12-09,株式会社ＡＣＥ　Ｇｌｏｂａｌ,,株式会社,東京都,文京区,湯島２丁目１番１４－９０３号,,13,105,1130034,,,,,,,2022-12-09,1,,,,,エイスグローバル,0
1134,5010001231464,新規,0,2022-12-09,2022-12-09,株式会社Ｍ＆Ｒ,,株式会社,東京都,中央区,銀座７丁目７番１５号銀座スキャンテックビル５階Ｂ室,,13,102,1040061,,,,,,,2022-12-09,1,,,,,エムアンドアール,0
1139,5010005035886,新規,0,2022-12-09,2022-12-09,一般社団法人ＦＳＳ工法協会,,その他の設立登記法人,東京都,中央区,日本橋室町１丁目１３番７号,,13,102,1030022,,,,,,,2022-12-09,1,,,,,エフエスエスコウホウキョウカイ,0
1145,5010401171244,新規,0,2022-12-09,2022-12-09,ＭＩＳＯＲＡ’Ｓ株式会社,,株式会社,東京都,港区,南青山２丁目２番１５号ＷｉｎＡｏｙａｍａビルＵＣＦ６階,,13,103,1070062,,,,,,,2022-12-09,1,,,,,ミソラズ,0
1148,5010503006810,新規,0,2022-12-09,2022-12-09,自由不動産合同会社,,合同会社,東京都,台東区,柳橋１丁目１１番５号柳橋ビル３０５号室,,13,106,1110052,,,,,,,2022-12-09,1,,,,,ジユウフドウサン,0
1154,5010701043589,新規,0,2022-12-09,2022-12-09,株式会社ノーサイド,,株式会社,東京都,品川区,東五反田３丁目１０番２１号,,13,109,1410022,,,,,,,2022-12-09,1,,,,,ノーサイド,0
1160,5011001151330,新規,0,2022-12-09,2022-12-09,株式会社ＣＡＰＥＲ,,株式会社,東京都,渋谷区,神山町２５－１６トーシンフェニックス松濤６０２,,13,113,1500047,,,,,,,2022-12-09,1,,,,,ケイパー,0
1161,5011001151347,新規,0,2022-12-09,2022-12-09,株式会社リブトゥリーフ,,株式会社,東京都,渋谷区,西原１丁目３５－１４ルセージュ初台６０１号室,,13,113,1510066,,,,,,,2022-12-09,1,,,,,リブトゥリーフ,0
1162,5011001151396,新規,0,2022-12-09,2022-12-09,株式会社ホームツリー,,株式会社,東京都,渋谷区,富ヶ谷１丁目１０番２号,,13,113,1510063,,,,,,,2022-12-09,1,,,,,ホームツリー,0
1166,5011101101128,新規,0,2022-12-09,2022-12-09,株式会社Ｎｅｗ　Ｙ’ｓ,,株式会社,東京都,新宿区,新宿７丁目２６番３８－１５０２号,,13,104,1600022,,,,,,,2022-12-09,1,,,,,ニューワイズ,0
1167,5011201024278,新規,0,2022-12-09,2022-12-09,株式会社ＯＴＩ,,株式会社,東京都,中野区,中野４丁目１－１中野サンプラザ９Ｆ,,13,114,1640001,,,,,,,2022-12-09,1,,,,,オーティーアイ,0
1170,5011203003957,新規,0,2022-12-09,2022-12-09,合同会社城西会計,,合同会社,東京都,中野区,南台５丁目９番１６号,,13,114,1640014,,,,,,,2022-12-09,1,,,,,ジョウサイカイケイ,0
1192,5013301050030,新規,0,2022-12-09,2022-12-09,ファイブユウ株式会社,,株式会社,東京都,豊島区,東池袋１丁目１８番１号ハレザタワー２５Ｆ,,13,116,1700013,,,,,,,2022-12-09,1,,,,,ファイブユウ,0
1195,5020001149334,新規,0,2022-12-09,2022-12-09,株式会社ＣＥＤＡＲ　ｂｒａｖｅ,,株式会社,神奈川県,川崎市宮前区,南野川３丁目３０番４号,,14,136,2160042,,,,,,,2022-12-09,1,,,,,セダーブレイブ,0
1196,5020001149342,新規,0,2022-12-09,2022-12-09,株式会社飛栄建設,,株式会社,神奈川県,川崎市川崎区,本町２丁目９番地１マイキャッスル２０７,,14,131,2100001,,,,,,,2022-12-09,1,,,,,ヒエイケンセツ,0
1197,5020001149350,新規,0,2022-12-09,2022-12-09,株式会社ＦＵＬＬ　ＭＯＯＮ,,株式会社,神奈川県,横浜市港北区,綱島西１丁目９番７号ヒカリヤビル１Ｆ,,14,109,2230053,,,,,,,2022-12-09,1,,,,,フルムーン,0
1201,5020003022860,新規,0,2022-12-09,2022-12-09,合同会社ＬｉＳ,,合同会社,神奈川県,横浜市都筑区,牛久保東２丁目７番１６号ウインドコート４０２号室,,14,118,2240014,,,,,,,2022-12-09,1,,,,,リス,0
1202,5020003022877,新規,0,2022-12-09,2022-12-09,レジッド合同会社,,合同会社,神奈川県,川崎市中原区,市ノ坪２９８番地２,,14,133,2110016,,,,,,,2022-12-09,1,,,,,レジッド,0
1206,5020005015763,新規,0,2022-12-09,2022-12-09,医療法人社団真美会,,その他の設立登記法人,神奈川県,川崎市宮前区,宮崎１丁目８番地２１宮崎台南シティハウス１０１号室Ｂ区,,14,136,2160033,,,,,,,2022-12-09,1,,,,,シンビカイ,0
1209,5021001077640,新規,0,2022-12-09,2022-12-09,株式会社Ｓｔｕｄｉｏ　ｂｅａｄ,,株式会社,神奈川県,高座郡寒川町,大曲３丁目１４番１１号,,14,321,2530113,,,,,,,2022-12-09,1,,,,,スタジオビード,0
1210,5021001077657,新規,0,2022-12-09,2022-12-09,株式会社フラット,,株式会社,神奈川県,厚木市,妻田南１丁目８番１０号ウィスタリア２０２,,14,212,2430814,,,,,,,2022-12-09,1,,,,,フラット,0
1211,5021001077665,新規,0,2022-12-09,2022-12-09,ＳＨＩＮ４ＮＹ株式会社,,株式会社,神奈川県,小田原市,本町１丁目５番４号,,14,206,2500012,,,,,,,2022-12-09,1,,,,,シンフォニー,0
1214,5021003012488,新規,0,2022-12-09,2022-12-09,合同会社Ｓ＆Ｓサポート,,合同会社,神奈川県,相模原市中央区,中央１丁目１番地１６号コスモセントラル４０３,,14,152,2520239,,,,,,,2022-12-09,1,,,,,エスアンドエスサポート,0
1221,5030001151388,新規,0,2022-12-09,2022-12-09,株式会社ホームライフ,,株式会社,埼玉県,所沢市,大字下安松５８６番地の３,,11,208,3590024,,,,,,,2022-12-09,1,,,,,ホームライフ,0
1222,5030001151396,新規,0,2022-12-09,2022-12-09,株式会社フライングＢ,,株式会社,埼玉県,蕨市,中央１丁目３４番９号スカイコート蕨３０３号室,,11,223,3350004,,,,,,,2022-12-09,1,,,,,フライングビー,0
1226,5030003020715,新規,0,2022-12-09,2022-12-09,合同会社鶴森,,合同会社,埼玉県,春日部市,六軒町４６１番地,,11,214,3440012,,,,,,,2022-12-09,1,,,,,カクシン,0
1241,5040001126174,新規,0,2022-12-09,2022-12-09,ＡＤＤＯＮ株式会社,,株式会社,千葉県,銚子市,長塚町３丁目２２８番地の２,,12,202,2880837,,,,,,,2022-12-09,1,,,,,アドオン,0
1245,5040003021407,新規,0,2022-12-09,2022-12-09,合同会社ＫＤＳ,,合同会社,千葉県,柏市,亀甲台町２丁目１０番２０‐１号,,12,217,2770031,,,,,,,2022-12-09,1,,,,,ケーディーエス,0
1246,5040003021423,新規,0,2022-12-09,2022-12-09,合同会社Ｂｅｙｏｎｄ　Ｂｅｌｉｅｆ　Ｐａｒｔｎｅｒｓ　Ｃｈｉｂａ　Ｊａｐａｎ,,合同会社,千葉県,船橋市,三咲２丁目１５－１１－２０６,,12,204,2740812,,,,,,,2022-12-09,1,,,,,ビヨンドビリーフパートナーズチバジャパン,0
1248,5050001052072,新規,0,2022-12-09,2022-12-09,株式会社Ｋ‐ｔｅｃｈ,,株式会社,茨城県,水戸市,新原１丁目１８番２５号,,08,201,3100045,,,,,,,2022-12-09,1,,,,,ケーテック,0
1264,5120001250874,新規,0,2022-12-09,2022-12-09,Ｇ＆Ｗ株式会社,,株式会社,大阪府,大阪市生野区,小路東６丁目８番１７号昭和エクセルビュー東大阪１０３－Ｇ０２,,27,116,5440003,,,,,,,2022-12-09,1,,,,,ジーアンドダブリュー,0
1265,5120001250899,新規,0,2022-12-09,2022-12-09,株式会社ＮＵＮＡＶＩＫ,,株式会社,大阪府,大阪市東住吉区,桑津１丁目２２番１７号,,27,121,5460041,,,,,,,2022-12-09,1,,,,,ヌナビク,0
1266,5120001250908,新規,0,2022-12-09,2022-12-09,株式会社リブパートナー,,株式会社,大阪府,交野市,星田５丁目１３－３富尾ビル星田３０１号室,,27,230,5760016,,,,,,,2022-12-09,1,,,,,リブパートナー,0
1269,5120003023048,新規,0,2022-12-09,2022-12-09,合同会社信陽,,合同会社,大阪府,大阪市西成区,天下茶屋１丁目１番１６号天下茶屋ビル３０２号室,,27,122,5570014,,,,,,,2022-12-09,1,,,,,シンヨウ,0
1290,5140003018450,新規,0,2022-12-09,2022-12-09,合同会社ＳＫ,,合同会社,兵庫県,伊丹市,昆陽７丁目３－１－４０６,,28,207,6640881,,,,,,,2022-12-09,1,,,,,エスケー,0
1304,5180001154129,新規,0,2022-12-09,2022-12-09,株式会社くくり,,株式会社,愛知県,春日井市,朝宮町１丁目１８番地１３,,23,206,4860846,,,,,,,2022-12-09,1,,,,,ククリ,0
1306,5180303005533,新規,0,2022-12-09,2022-12-09,Ａｍｅｒｉ合同会社,,合同会社,愛知県,安城市,明治本町１７番１９号,,23,212,4460062,,,,,,,2022-12-09,1,,,,,アメリ,0
1308,5190001029998,新規,0,2022-12-09,2022-12-09,株式会社キナリ,,株式会社,三重県,亀山市,羽若町８２４番地２５,,24,210,5190164,,,,,,,2022-12-09,1,,,,,キナリ,0
1317,5240003005918,新規,0,2022-12-09,2022-12-09,合同会社Ｌｕｃｋｏ,,合同会社,広島県,広島市中区,大手町５丁目６番１４,,34,101,7300051,,,,,,,2022-12-09,1,,,,,ラッコ,0
1328,5290001099841,新規,0,2022-12-09,2022-12-09,株式会社ＹＹＣ,,株式会社,福岡県,筑紫野市,大字筑紫７０８－７－９０２,,40,217,8180025,,,,,,,2022-12-09,1,,,,,ワイワイシー,0
1330,5320001019465,新規,0,2022-12-09,2022-12-09,株式会社ＧＲＵＳ,,株式会社,大分県,大分市,大字羽田４５１番地の６,,44,201,8700942,,,,,,,2022-12-09,1,,,,,グルース,0
1332,5330001030371,新規,0,2022-12-09,2022-12-09,株式会社ＮＯＤＯＫＡ,,株式会社,熊本県,熊本市西区,春日１丁目１４－１９－１春日ビル２Ｆ,,43,103,8600047,,,,,,,2022-12-09,1,,,,,ノドカ,0
1342,5370001049359,新規,0,2022-12-09,2022-12-09,株式会社築・ＫＩＺＵＫＩ,,株式会社,宮城県,仙台市泉区,七北田字白水沢１０６番地の３,,04,105,9813131,,,,,,,2022-12-09,1,,,,,キズキキズキ,0
1359,5430001088012,新規,0,2022-12-09,2022-12-09,ＧＢＭ株式会社,,株式会社,北海道,札幌市中央区,北三条東１０丁目１２１,,01,101,0600033,,,,,,,2022-12-09,1,,,,,ジービーエム,0
1360,5430001088029,新規,0,2022-12-09,2022-12-09,株式会社星音,,株式会社,北海道,夕張郡長沼町,東町北１丁目１番３６号,,01,428,0691342,,,,,,,2022-12-09,1,,,,,シオン,0
1363,5430003014536,新規,0,2022-12-09,2022-12-09,ＰＯＴＨＯＬＥ　ＤＥＳＩＧＮ合同会社,,合同会社,北海道,虻田郡ニセコ町,字ニセコ４１３番地２８,,01,395,0481511,,,,,,,2022-12-09,1,,,,,ポソロデザイン,0
1366,5430005014609,新規,0,2022-12-09,2022-12-09,一般社団法人はるやまチェーン持株会,,その他の設立登記法人,北海道,札幌市豊平区,平岸二条９丁目３番１５号,,01,105,0620932,,,,,,,2022-12-09,1,,,,,ハルヤマチェーンモチカブカイ,0
1380,5700150113336,新規,0,2022-12-09,2022-12-09,Ｇｕａｎｇｚｈｏｕ　Ｆｕｚｈｉ　ｔｒａｄｉｎｇ　ｃｏ．，ｌｔｄ,,外国会社等,,,,,,,,Ｎｏ．９　Ｄｅｘｉｎｇ　ｌｕ　ｅｒ　ｌｏｕＤｑｕ４８，Ｌｉｗａｎ　ｄｉｓｔｒｉｃｔ，Ｇｕａｎｇｚｈｏｕ,,,,,,2022-12-09,1,,,,,グアンゾウフウズトレーデイングカンパニーリミテツド,0
1388,6010001231414,新規,0,2022-12-09,2022-12-09,株式会社共済産業ロジスティックス,,株式会社,東京都,文京区,後楽２丁目２番１５号早川ビル３０１号,,13,105,1120004,,,,,,,2022-12-09,1,,,,,キョウサイサンギョウロジスティックス,0
1389,6010001231422,新規,0,2022-12-09,2022-12-09,株式会社ＡＣＡＬＡＨ,,株式会社,東京都,千代田区,丸の内３丁目２番２号丸の内二重橋ビル２階,,13,101,1000005,,,,,,,2022-12-09,1,,,,,アカーラ,0
1391,6010003039293,新規,0,2022-12-09,2022-12-09,合同会社ピジョン,,合同会社,東京都,文京区,本駒込５丁目２１番５－１２０５号,,13,105,1130021,,,,,,,2022-12-09,1,,,,,ピジョン,0
1409,6010401171235,新規,0,2022-12-09,2022-12-09,株式会社ｓｔｕｄｉｏ　ｎｏ．２,,株式会社,東京都,港区,南麻布４丁目１５番１１号,,13,103,1060047,,,,,,,2022-12-09,1,,,,,スタジオナンバーツー,0
1410,6010401171251,新規,0,2022-12-09,2022-12-09,株式会社ＭＩＳＵＪＩ,,株式会社,東京都,港区,赤坂３丁目１３番４号,,13,103,1070052,,,,,,,2022-12-09,1,,,,,ミスジ,0
1422,6010601062267,新規,0,2022-12-09,2022-12-09,株式会社ｆｏｓｃｈｉａ,,株式会社,東京都,墨田区,千歳３丁目３番３－７０１号,,13,107,1300025,,,,,,,2022-12-09,1,,,,,フォスキーア,0
1424,6010603009885,新規,0,2022-12-09,2022-12-09,Ｓｅｖｅｎｔｙ８Ｄｅｌｉｇｈｔｓ合同会社,,合同会社,東京都,江東区,有明１丁目４番１１－６０１号,,13,108,1350063,,,,,,,2022-12-09,1,,,,,セブンティーエイトデライツ,0
1425,6010701043596,新規,0,2022-12-09,2022-12-09,株式会社ウィット２,,株式会社,東京都,品川区,東五反田１丁目６番３号いちご東五反田ビル３階,,13,109,1410022,,,,,,,2022-12-09,1,,,,,ウィットツー,0
1448,6011001151313,新規,0,2022-12-09,2022-12-09,株式会社ｇｅｇｅｎｐｒｅｓｓ,,株式会社,東京都,渋谷区,元代々木町１７－１３－２０４,,13,113,1510062,,,,,,,2022-12-09,1,,,,,ゲーゲンプレス,0
1449,6011001151346,新規,0,2022-12-09,2022-12-09,株式会社ｉＢＩＳ　ＸＰＯＲＴ,,株式会社,東京都,渋谷区,千駄ヶ谷３丁目４１番７－６０３号,,13,113,1510051,,,,,,,2022-12-09,1,,,,,アイビスエクスポート,0
1450,6011001151362,新規,0,2022-12-09,2022-12-09,株式会社Ｖｉｒｔｕａｎ,,株式会社,東京都,目黒区,下目黒２丁目１０－１６プラチナフォルム目黒１階,,13,110,1530064,,,,,,,2022-12-09,1,,,,,バーチュアン,0
1451,6011001151395,新規,0,2022-12-09,2022-12-09,ビックウェーブ株式会社,,株式会社,東京都,渋谷区,本町３丁目１３番３号,,13,113,1510071,,,,,,,2022-12-09,1,,,,,ビックウェーブ,0
1458,6011101101093,新規,0,2022-12-09,2022-12-09,ＷＥＩＤＯ株式会社,,株式会社,東京都,新宿区,西新宿３丁目３番１３号西新宿水間ビル６階,,13,104,1600023,,,,,,,2022-12-09,1,,,,,ウェイド,0
1459,6011101101127,新規,0,2022-12-09,2022-12-09,日本京阪生物医学研究院株式会社,,株式会社,東京都,新宿区,百人町２丁目１番４５号赤煉瓦２３０,,13,104,1690073,,,,,,,2022-12-09,1,,,,,ニホンケイハンセイブツイガクケンキュウイン,0
1460,6011103012470,新規,0,2022-12-09,2022-12-09,合同会社ＴＮＭ,,合同会社,東京都,新宿区,北新宿１丁目１７番２０号,,13,104,1690074,,,,,,,2022-12-09,1,,,,,ティーエヌエム,0
1462,6011301028293,新規,0,2022-12-09,2022-12-09,Ｗｅｌｔｒｅｉｓｅ株式会社,,株式会社,東京都,杉並区,下高井戸５丁目２番２０号カーサトレス２０６,,13,115,1680073,,,,,,,2022-12-09,1,,,,,ヴェルトライゼ,0
1463,6011601026427,新規,0,2022-12-09,2022-12-09,株式会社ワークコスモ,,株式会社,東京都,練馬区,土支田４丁目７番２号,,13,120,1790076,,,,,,,2022-12-09,1,,,,,ワークコスモ,0
1466,6011801041655,新規,0,2022-12-09,2022-12-09,株式会社インテック,,株式会社,東京都,足立区,谷在家２丁目８番３号１Ｆ,,13,121,1230863,,,,,,,2022-12-09,1,,,,,インテック,0
1482,6020001149317,新規,0,2022-12-09,2022-12-09,株式会社エス・エントロピー,,株式会社,神奈川県,横浜市旭区,四季美台８１番地８５,,14,112,2410025,,,,,,,2022-12-09,1,,,,,エスエントロピー,0
1483,6020001149325,新規,0,2022-12-09,2022-12-09,株式会社焼き魚と味噌汁,,株式会社,神奈川県,横浜市青葉区,榎が丘１４番地４サンクレスト青葉台４０３,,14,117,2270063,,,,,,,2022-12-09,1,,,,,ヤキザカナトミソシル,0
1487,6020003022868,新規,0,2022-12-09,2022-12-09,合同会社ちろころ,,合同会社,神奈川県,横浜市西区,浅間町１丁目４番３号ウィザードビル４０２,,14,103,2200072,,,,,,,2022-12-09,1,,,,,チロコロ,0
1488,6020005015762,新規,0,2022-12-09,2022-12-09,医療法人社団結心会,,その他の設立登記法人,神奈川県,横浜市西区,北幸１丁目１番２号ＩＮＢ横浜西口ビル２階,,14,103,2200004,,,,,,,2022-12-09,1,,,,,ユウシンカイ,0
1493,6021001077664,新規,0,2022-12-09,2022-12-09,株式会社ラビットアート,,株式会社,神奈川県,大和市,中央林間８丁目２５番４０－８０１号,,14,213,2420007,,,,,,,2022-12-09,1,,,,,ラビットアート,0
1500,6030001151387,新規,0,2022-12-09,2022-12-09,株式会社ホーム・デポ,,株式会社,埼玉県,朝霞市,溝沼４丁目１番３１号,,11,227,3510023,,,,,,,2022-12-09,1,,,,,ホームデポ,0
1516,6040001126157,新規,0,2022-12-09,2022-12-09,株式会社司穏,,株式会社,千葉県,千葉市稲毛区,六方町２８番地９,,12,103,2630004,,,,,,,2022-12-09,1,,,,,シオン,0
1517,6040001126165,新規,0,2022-12-09,2022-12-09,株式会社多田架設,,株式会社,千葉県,木更津市,高柳８８１番地４メゾンモナリザ１０１,,12,206,2920014,,,,,,,2022-12-09,1,,,,,タダカセツ,0
1518,6040001126173,新規,0,2022-12-09,2022-12-09,株式会社ワンクエスト,,株式会社,千葉県,柏市,旭町８丁目４番４号,,12,217,2770852,,,,,,,2022-12-09,1,,,,,ワンクエスト,0
1523,6040003021439,新規,0,2022-12-09,2022-12-09,ＦＩＸ合同会社,,合同会社,千葉県,長生郡一宮町,一宮８７３１番地２２,,12,421,2994301,,,,,,,2022-12-09,1,,,,,フィックス,0
1527,6070003004746,新規,0,2022-12-09,2022-12-09,合同会社ｅｖｅｒ,,合同会社,群馬県,安中市,鷺宮９２４番地９,,10,211,3790124,,,,,,,2022-12-09,1,,,,,,0
1537,6090003002211,新規,0,2022-12-09,2022-12-09,合同会社井上養蜂,,合同会社,山梨県,北杜市,高根町上黒澤９０５番地１,,19,209,4080016,,,,,,,2022-12-09,1,,,,,イノウエヨウホウ,0
1539,6100001035954,新規,0,2022-12-09,2022-12-09,株式会社ベルエイト,,株式会社,長野県,長野市,大字鶴賀権堂町１４３７番地５山京長野パレス２０８,,20,201,3800833,,,,,,,2022-12-09,1,,,,,ベルエイト,0
1550,6120001250790,新規,0,2022-12-09,2022-12-09,株式会社三八,,株式会社,大阪府,大阪市北区,東天満１丁目９番３－９０３号,,27,127,5300044,,,,,,,2022-12-09,1,,,,,サンパチ,0
1551,6120001250816,新規,0,2022-12-09,2022-12-09,株式会社千賀屋,,株式会社,大阪府,大阪市浪速区,稲荷２丁目２番８号,,27,111,5560023,,,,,,,2022-12-09,1,,,,,センガヤ,0
1552,6120001250824,新規,0,2022-12-09,2022-12-09,株式会社トリプルバレル,,株式会社,大阪府,大阪市中央区,東心斎橋１丁目１９番１０号岩伸心斎橋ビル４階,,27,128,5420083,,,,,,,2022-12-09,1,,,,,トリプルバレル,0
1553,6120001250898,新規,0,2022-12-09,2022-12-09,株式会社ＡＬＴＲＵ,,株式会社,大阪府,大阪市北区,国分寺１丁目２番３１－９１１号,,27,127,5310064,,,,,,,2022-12-09,1,,,,,アルトゥル,0
1554,6120001250923,新規,0,2022-12-09,2022-12-09,株式会社ＤＣ,,株式会社,大阪府,守口市,南寺方中通３丁目５番５号,,27,209,5700045,,,,,,,2022-12-09,1,,,,,ディーシー,0
1555,6120001250948,新規,0,2022-12-09,2022-12-09,雅商事株式会社,,株式会社,大阪府,大阪市東住吉区,矢田４丁目９番１５－２Ｆ,,27,121,5460023,,,,,,,2022-12-09,1,,,,,ミヤビショウジ,0
1556,6120003023039,新規,0,2022-12-09,2022-12-09,ＴＤ合同会社,,合同会社,大阪府,大阪市西成区,梅南１丁目１３番１５号梅ＢＡＩＮＡＮＢＬＤ．１Ｆ,,27,122,5570033,,,,,,,2022-12-09,1,,,,,ティーディー,0
1563,6120901046842,新規,0,2022-12-09,2022-12-09,株式会社ＳＡＮＥＦ建築設計事務所,,株式会社,大阪府,箕面市,粟生間谷東６丁目２番１０号,,27,220,5620022,,,,,,,2022-12-09,1,,,,,サンエフケンチクセッケイジムショ,0
1565,6122001036476,新規,0,2022-12-09,2022-12-09,株式会社三栄商事,,株式会社,大阪府,八尾市,青山町５丁目７番２２号,,27,212,5810018,,,,,,,2022-12-09,1,,,,,サンエイショウジ,0
1569,6130001073258,新規,0,2022-12-09,2022-12-09,株式会社サン・フィールド,,株式会社,京都府,京都市伏見区,日野馬場出町４番地,,26,109,6011421,,,,,,,2022-12-09,1,,,,,サンフィールド,0
1578,6140001128325,新規,0,2022-12-09,2022-12-09,株式会社ＮＳＴ,,株式会社,兵庫県,神戸市西区,玉津町今津５９６番地,,28,111,6512128,,,,,,,2022-12-09,1,,,,,エヌエスティ,0
1579,6140001128333,新規,0,2022-12-09,2022-12-09,株式会社ｐｌａｎ．ｄｏ．ｄｏ,,株式会社,兵庫県,宝塚市,山手台東５丁目２１番５号,,28,214,6650887,,,,,,,2022-12-09,1,,,,,プランドゥードゥー,0
1582,6150003002824,新規,0,2022-12-09,2022-12-09,ＮＡＬｉＡ合同会社,,合同会社,奈良県,生駒市,西旭ケ丘１２番７２号,,29,209,6300261,,,,,,,2022-12-09,1,,,,,ナリア,0
1597,6180001154061,新規,0,2022-12-09,2022-12-09,株式会社ｍｙｓｉｇ,,株式会社,愛知県,稲沢市,下津片町８２番地,,23,220,4928054,,,,,,,2022-12-09,1,,,,,ミューシグ,0
1601,6180003024584,新規,0,2022-12-09,2022-12-09,合同会社リライク,,合同会社,愛知県,名古屋市瑞穂区,高田町２丁目７番地の２,,23,108,4670808,,,,,,,2022-12-09,1,,,,,リライク,0
1614,6200005013418,新規,0,2022-12-09,2022-12-09,医療法人誠礼会,,その他の設立登記法人,岐阜県,岐阜市,黒野南１丁目１４番地,,21,201,5011136,,,,,,,2022-12-09,1,,,,,セイレイカイ,0
1617,6230001019614,新規,0,2022-12-09,2022-12-09,株式会社スパークルホールディングス,,株式会社,富山県,富山市,堀川町３７４番地２,,16,201,9398072,,,,,,,2022-12-09,1,,,,,スパークルホールディングス,0
1619,6240001060765,新規,0,2022-12-09,2022-12-09,株式会社イーブン,,株式会社,広島県,広島市安佐北区,狩留家町２３１３番地３,,34,106,7391753,,,,,,,2022-12-09,1,,,,,イーブン,0
1620,6240001060773,新規,0,2022-12-09,2022-12-09,株式会社さくらさく,,株式会社,広島県,広島市東区,中山北町１－３０コモド中山２０２,,34,102,7320028,,,,,,,2022-12-09,1,,,,,サクラサク,0
1629,6270003001467,新規,0,2022-12-09,2022-12-09,合同会社きずな,,合同会社,鳥取県,鳥取市,湖山町西１丁目１０５－９,,31,201,6800947,,,,,,,2022-12-09,1,,,,,キズナ,0
1635,6290001099832,新規,0,2022-12-09,2022-12-09,株式会社ＡＲＯＭ’ｓ,,株式会社,福岡県,福岡市博多区,博多駅前１丁目２３番１号ＰａｒｋＦｒｏｎｔ博多駅前一丁目５Ｆ－Ｂ,,40,132,8120011,,,,,,,2022-12-09,1,,,,,アローム,0
1639,6290005018870,新規,0,2022-12-09,2022-12-09,特定非営利活動法人宗像市の歴史文化遺産を守る会,,その他の設立登記法人,福岡県,宗像市,自由ヶ丘南２丁目２番地３,,40,220,8114156,,,,,,,2022-12-09,1,,,,,ムナカタシノレキシブンカイサンヲマモルカイ,0
1640,6290801029113,新規,0,2022-12-09,2022-12-09,海煌商事株式会社,,株式会社,福岡県,北九州市小倉南区,朽網西５丁目３９番２０号,,40,107,8000233,,,,,,,2022-12-09,1,,,,,カイコウショウジ,0
1654,6370001049358,新規,0,2022-12-09,2022-12-09,株式会社Ｇ４０,,株式会社,宮城県,仙台市宮城野区,小田原１丁目５番３－７０８号,,04,102,9830803,,,,,,,2022-12-09,1,,,,,ジーフォーティ,0
1655,6370005010571,新規,0,2022-12-09,2022-12-09,医療法人葵阪会,,その他の設立登記法人,宮城県,黒川郡大和町,吉岡まほろば１丁目７番地の９,,04,421,9813632,,,,,,,2022-12-09,1,,,,,キハンカイ,0
1658,6380001033303,新規,0,2022-12-09,2022-12-09,株式会社さゆり調剤薬局,,株式会社,福島県,耶麻郡西会津町,登世島字田畑乙２０４２番地６５,,07,405,9694401,,,,,,,2022-12-09,1,,,,,サユリチョウザイヤッキョク,0
1661,6400001016081,新規,0,2022-12-09,2022-12-09,ＹＵＭＯＮ株式会社,,株式会社,岩手県,北上市,川岸４丁目２番３０号,,03,206,0240032,,,,,,,2022-12-09,1,,,,,ユウモン,0
1665,6430003014535,新規,0,2022-12-09,2022-12-09,合同会社ファーストクリエイト,,合同会社,北海道,札幌市中央区,南七条西５丁目２８９番５４号,,01,101,0640807,,,,,,,2022-12-09,1,,,,,ファーストクリエイト,0
1679,6700150113335,新規,0,2022-12-09,2022-12-09,Ｓｈｅｎｚｈｅｎ　Ｙｉｚｅ　Ｅｌｅｃｔｒｏｎｉｃｓ　Ｃｏ．，Ｌｔｄ,,外国会社等,,,,,,,,３１０３－１Ａ，Ｂｕｉｌｄｉｎｇ　１１，Ｔｉａｎ’ａｎ　Ｙｕｎｇｕ　Ｉｎｄｕｓｔｒｉａｌ　Ｐａｒｋ　Ｐｈａｓｅ　ＩＩ（Ｐｌｏｔ　０２－０８），Ｇａｎｇｔｏｕ　Ｃｏｍｍｕｎｉｔｙ，Ｂａｎｔｉａｎ　Ｓｔｒｅｅｔ，Ｌｏｎｇｇａｎｇ　Ｄｉｓｔｒｉｃｔ，Ｓｈｅｎｚｈｅｎ,00128740,,,,,2022-12-09,1,,,,,シエンチエンイゼエレクトロニクスカンパニーリミテツド,0
1692,7010001231413,新規,0,2022-12-09,2022-12-09,株式会社共済産業クレーン,,株式会社,東京都,文京区,後楽２丁目２番１５号早川ビル３０１号,,13,105,1120004,,,,,,,2022-12-09,1,,,,,キョウサイサンギョウクレーン,0
1693,7010001231462,新規,0,2022-12-09,2022-12-09,株式会社ブラックＵＧＡ,,株式会社,東京都,千代田区,内神田１丁目１８番１１号５階５０４号,,13,101,1010047,,,,,,,2022-12-09,1,,,,,ブラックウガ,0
1696,7010003039227,新規,0,2022-12-09,2022-12-09,合同会社アイ・アール・アイ,,合同会社,東京都,中央区,銀座１丁目２２番１１号銀座大竹ビジデンス２階,,13,102,1040061,,,,,,,2022-12-09,1,,,,,アイアールアイ,0
1697,7010003039276,新規,0,2022-12-09,2022-12-09,ブルー・バイオマスフューエル合同会社,,合同会社,東京都,千代田区,大手町１丁目１番１号大手町パークビルディング７１２区,,13,101,1000004,,,,,,,2022-12-09,1,,,,,ブルーバイオマスフューエル,0
1698,7010003039292,新規,0,2022-12-09,2022-12-09,合同会社ｏｖｅｒ　ｄｒｉｖｅ,,合同会社,東京都,中央区,銀座１丁目２２番１１号銀座大竹ビジデンス２階,,13,102,1040061,,,,,,,2022-12-09,1,,,,,オーバードライブ,0
1700,7010005035884,新規,0,2022-12-09,2022-12-09,一般社団法人デジタル・インソール普及協議会,,その他の設立登記法人,東京都,千代田区,西神田２丁目５－８共和１５番館７階,,13,101,1010065,,,,,,,2022-12-09,1,,,,,デジタルインソールフキュウキョウギカイ,0
1709,7010401171151,新規,0,2022-12-09,2022-12-09,２０２２１１１１不動産株式会社,,株式会社,東京都,港区,赤坂８丁目１２－４８,,13,103,1070052,,,,,,,2022-12-09,1,,,,,ニゼロニニイチイチイチイチフドウサン,0
1710,7010401171226,新規,0,2022-12-09,2022-12-09,株式会社博報堂キースリー,,株式会社,東京都,港区,赤坂５丁目３番１号,,13,103,1070052,,,,,,,2022-12-09,1,,,,,ハクホウドウキースリー,0
1711,7010401171234,新規,0,2022-12-09,2022-12-09,株式会社ＵＮＯ,,株式会社,東京都,港区,白金１丁目１１番６号,,13,103,1080072,,,,,,,2022-12-09,1,,,,,ウノ,0
1712,7010401171250,新規,0,2022-12-09,2022-12-09,株式会社レヴェリー,,株式会社,東京都,港区,六本木３丁目１８番２－１５０５号,,13,103,1060032,,,,,,,2022-12-09,1,,,,,レヴェリー,0
1713,7010401171259,新規,0,2022-12-09,2022-12-09,株式会社ＩＣＨＩＪＯ,,株式会社,東京都,港区,芝３丁目４２番１号,,13,103,1050014,,,,,,,2022-12-09,1,,,,,イチジョウ,0
1718,7010403029125,新規,0,2022-12-09,2022-12-09,パンダ・サンパワーエステート合同会社,,合同会社,東京都,港区,浜松町２丁目２番１５号浜松町ダイヤビル２Ｆ,,13,103,1050013,,,,,,,2022-12-09,1,,,,,パンダサンパワーエステート,0
1724,7010603009892,新規,0,2022-12-09,2022-12-09,１１０スタッツ合同会社,,合同会社,東京都,江東区,有明３丁目７番２６号有明フロンティアビルＢ棟９階,,13,108,1350063,,,,,,,2022-12-09,1,,,,,ヒャクトウスタッツ,0
1726,7010801033496,新規,0,2022-12-09,2022-12-09,株式会社クレアトル,,株式会社,東京都,大田区,山王２丁目１番８－５０５号,,13,111,1430023,,,,,,,2022-12-09,1,,,,,,0
1728,7010901052116,新規,0,2022-12-09,2022-12-09,株式会社ｅｃｈｏ,,株式会社,東京都,世田谷区,砧１丁目１７番２０－１０８号,,13,112,1570073,,,,,,,2022-12-09,1,,,,,エコ,0
1738,7011003015845,新規,0,2022-12-09,2022-12-09,合同会社はじめ,,合同会社,東京都,目黒区,上目黒２丁目１５番８,,13,110,1530051,,,,,,,2022-12-09,1,,,,,ハジメ,0
1743,7011101101092,新規,0,2022-12-09,2022-12-09,株式会社ＡｇｅＭａｔｃｈ,,株式会社,東京都,新宿区,西新宿３丁目７番２６号ハイネスロワイヤル６０５,,13,104,1600023,,,,,,,2022-12-09,1,,,,,エイジマッチ,0
1744,7011101101118,新規,0,2022-12-09,2022-12-09,株式会社プライマルワーク,,株式会社,東京都,新宿区,新宿４丁目１番６号ＪＲ新宿ミライナタワー１８階,,13,104,1600022,,,,,,,2022-12-09,1,,,,,プライマルワーク,0
1755,7011801041638,新規,0,2022-12-09,2022-12-09,株式会社ａｒｃａ,,株式会社,東京都,足立区,足立４丁目３７－１２,,13,121,1200015,,,,,,,2022-12-09,1,,,,,アーカ,0
1756,7011801041654,新規,0,2022-12-09,2022-12-09,株式会社永発,,株式会社,東京都,足立区,新田１丁目１８番１１号,,13,121,1230865,,,,,,,2022-12-09,1,,,,,エイハツ,0
1758,7012301013243,新規,0,2022-12-09,2022-12-09,サンジェイ株式会社,,株式会社,東京都,町田市,本町田２４４－４３,,13,209,1940032,,,,,,,2022-12-09,1,,,,,サンジェイ,0
1760,7012401039948,新規,0,2022-12-09,2022-12-09,株式会社カプリス,,株式会社,東京都,狛江市,東和泉１丁目１６番８号,,13,219,2010014,,,,,,,2022-12-09,1,,,,,カプリス,0
1761,7012401039956,新規,0,2022-12-09,2022-12-09,ＫＡＩ　ＧＲＯＵＰ株式会社,,株式会社,東京都,府中市,府中町１丁目３２－５シャルマン府中３０７,,13,206,1830055,,,,,,,2022-12-09,1,,,,,カイグループ,0
1779,7020001149316,新規,0,2022-12-09,2022-12-09,株式会社ＹＣ,,株式会社,神奈川県,横浜市神奈川区,西寺尾３丁目１９番５号,,14,102,2210001,,,,,,,2022-12-09,1,,,,,ワイシー,0
1780,7020001149349,新規,0,2022-12-09,2022-12-09,Ｍ・Ｙ商事株式会社,,株式会社,神奈川県,横浜市都筑区,池辺町４５６４番地,,14,118,2240053,,,,,,,2022-12-09,1,,,,,エムワイショウジ,0
1785,7021001077655,新規,0,2022-12-09,2022-12-09,水とおだわら株式会社,,株式会社,神奈川県,小田原市,鬼柳１７２番地９,,14,206,2500211,,,,,,,2022-12-09,1,,,,,ミズトオダワラ,0
1787,7021003012478,新規,0,2022-12-09,2022-12-09,ＩＭＡＲＡ　ＡＵＴＯ合同会社,,合同会社,神奈川県,座間市,立野台２丁目１６番２７号２－Ｄ号,,14,216,2520023,,,,,,,2022-12-09,1,,,,,イマラオート,0
1790,7030001151386,新規,0,2022-12-09,2022-12-09,株式会社らしく,,株式会社,埼玉県,比企郡吉見町,大字和名６５番地１４,,11,347,3550152,,,,,,,2022-12-09,1,,,,,ラシク,0
1795,7030003020671,新規,0,2022-12-09,2022-12-09,合同会社ＲＳＡ,,合同会社,埼玉県,朝霞市,田島１丁目１３番１４号リベール田島ＩＩ２０７号室,00128733,11,227,3510032,,,,,,,2022-12-09,1,,,,,アールエスエー,0
1804,7040003021454,新規,0,2022-12-09,2022-12-09,合同会社やまぼう,,合同会社,千葉県,野田市,岩名２丁目６２番１号,,12,208,2780055,,,,,,,2022-12-09,1,,,,,ヤマボウ,0
1807,7060001035520,新規,0,2022-12-09,2022-12-09,ＹＯＩＫＵホールディングス株式会社,,株式会社,栃木県,宇都宮市,兵庫塚３丁目４５番１６号,,09,201,3210138,,,,,,,2022-12-09,1,,,,,ヨイクホールディングス,0
1812,7080001025338,新規,0,2022-12-09,2022-12-09,株式会社ディーユー,,株式会社,静岡県,静岡市葵区,七間町１４番地の１ザ・エンブル七間町１８０３号,,22,101,4200035,,,,,,,2022-12-09,1,,,,,ディーユー,0
1814,7080401026191,新規,0,2022-12-09,2022-12-09,株式会社レリココ,,株式会社,静岡県,浜松市中区,田町２２３番地の２１ビオラ田町３Ｆ,,22,131,4300944,,,,,,,2022-12-09,1,,,,,レリココ,0
1816,7090001017879,新規,0,2022-12-09,2022-12-09,株式会社ＹＮ,,株式会社,山梨県,韮崎市,若宮１丁目８番１３号メルベーユ甲斐メゾンＦ２０２,,19,207,4070015,,,,,,,2022-12-09,1,,,,,ワイエヌ,0
1817,7090003002210,新規,0,2022-12-09,2022-12-09,大吉合同会社,,合同会社,山梨県,甲斐市,竜王新町７４８番地１ペニーレインＩ－２０２,00128741,19,210,4000111,,,,,,,2022-12-09,1,,,,,ダイキチ,0
1820,7100001035953,新規,0,2022-12-09,2022-12-09,株式会社スカイホーム宮坂,,株式会社,長野県,諏訪市,大字四賀６６８番地２,,20,206,3920012,,,,,,,2022-12-09,1,,,,,スカイホームミヤサカ,0
1821,7100003006812,新規,0,2022-12-09,2022-12-09,合同会社ＨＴＭ,,合同会社,長野県,長野市,大字鶴賀緑町１６２９番地１,,20,201,3800813,,,,,,,2022-12-09,1,,,,,エイチティーエム,0
1822,7110001037172,新規,0,2022-12-09,2022-12-09,株式会社ラヴズオンリーユー,,株式会社,新潟県,新潟市江南区,城所２丁目１番４５号,,15,104,9500136,,,,,,,2022-12-09,1,,,,,ラヴズオンリーユー,0
1834,7120001250831,新規,0,2022-12-09,2022-12-09,株式会社アスリンク,,株式会社,大阪府,大阪市平野区,加美正覚寺３丁目１番８号,,27,126,5470006,,,,,,,2022-12-09,1,,,,,アスリンク,0
1835,7120001250856,新規,0,2022-12-09,2022-12-09,株式会社タナカ,,株式会社,大阪府,交野市,私市４丁目４５番６号,,27,230,5760033,,,,,,,2022-12-09,1,,,,,タナカ,0
1836,7120001250880,新規,0,2022-12-09,2022-12-09,株式会社キーポイント,,株式会社,大阪府,大阪市中央区,内本町１丁目１番１０号リンサンビル５階,,27,128,5400026,,,,,,,2022-12-09,1,,,,,キーポイント,0
1837,7120001250889,新規,0,2022-12-09,2022-12-09,株式会社リベ大アニマル,,株式会社,大阪府,大阪市福島区,福島３丁目１番１７－８０４号,,27,103,5530003,,,,,,,2022-12-09,1,,,,,リベダイアニマル,0
1838,7120001250906,新規,0,2022-12-09,2022-12-09,株式会社レイン,,株式会社,大阪府,大阪市生野区,小路東１丁目８番１８号,,27,116,5440003,,,,,,,2022-12-09,1,,,,,レイン,0
1839,7120001250922,新規,0,2022-12-09,2022-12-09,株式会社ＢＩＯＲＡ,,株式会社,大阪府,大阪市西区,川口３丁目４番２６－５０８号,,27,106,5500021,,,,,,,2022-12-09,1,,,,,ビオラ,0
1840,7120001250939,新規,0,2022-12-09,2022-12-09,株式会社ＩＥＣ,,株式会社,大阪府,門真市,島頭４丁目１８番１０号,,27,223,5710016,,,,,,,2022-12-09,1,,,,,アイイーシー,0
1841,7120001250947,新規,0,2022-12-09,2022-12-09,株式会社ＳＯＬ,,株式会社,大阪府,大阪市東成区,東中本２丁目４番４号ニコルビル２階,,27,115,5370021,,,,,,,2022-12-09,1,,,,,ソル,0
1842,7120001250963,新規,0,2022-12-09,2022-12-09,諾亜方舟株式会社,,株式会社,大阪府,大阪市城東区,中浜１丁目１７－１４センチュリー中浜７Ｃ,,27,118,5360024,,,,,,,2022-12-09,1,,,,,ノアーズアーク,0
1843,7120001250971,新規,0,2022-12-09,2022-12-09,株式会社Ｆａｍｉｌｉａ,,株式会社,大阪府,大阪市中央区,西心斎橋２丁目６番６号２Ｆ,,27,128,5420086,,,,,,,2022-12-09,1,,,,,ファミリア,0
1846,7120003023038,新規,0,2022-12-09,2022-12-09,ＨＵＮＧ　ＴＨＩＮＨ合同会社,,合同会社,大阪府,大阪市西成区,鶴見橋２丁目１１番１号西内マンション３０１号室,,27,122,5570031,,,,,,,2022-12-09,1,,,,,フンティン,0
1850,7120101066632,新規,0,2022-12-09,2022-12-09,株式会社ＡＰＥＸ,,株式会社,大阪府,堺市東区,北野田４７５番地９ロイヤルハイツ北野田３０５号室,,27,143,5998123,,,,,,,2022-12-09,1,,,,,エーペックス,0
1854,7120901046841,新規,0,2022-12-09,2022-12-09,Ｔ　ｃｏｒｐｏｒａｔｉｏｎ株式会社,,株式会社,大阪府,箕面市,小野原西６丁目１６番３２号,,27,220,5620032,,,,,,,2022-12-09,1,,,,,ティーコーポレーション,0
1856,7122001036483,新規,0,2022-12-09,2022-12-09,株式会社源豊,,株式会社,大阪府,東大阪市,御厨東２丁目５番２７号,,27,227,5770033,,,,,,,2022-12-09,1,,,,,ゲンホウ,0
1858,7130001073257,新規,0,2022-12-09,2022-12-09,株式会社Ｇｏｌｄ＆Ｐｌａｔｉｎｕｍ　ＩＮＯＵＥ,,株式会社,京都府,京都市右京区,西院清水町３４番地８,,26,108,6150052,,,,,,,2022-12-09,1,,,,,ゴールドアンドプラチナイノウエ,0
1864,7140001128324,新規,0,2022-12-09,2022-12-09,株式会社あさひグループ,,株式会社,兵庫県,神戸市中央区,江戸町９５番地井門神戸ビル５階,,28,110,6500033,,,,,,,2022-12-09,1,,,,,アサヒグループ,0
1870,7150001026007,新規,0,2022-12-09,2022-12-09,株式会社ｍａｈａｌｏ,,株式会社,奈良県,奈良市,白毫寺町５７２番地の７,,29,201,6308302,,,,,,,2022-12-09,1,,,,,マハロ,0
1888,7180301036891,新規,0,2022-12-09,2022-12-09,木村工業株式会社,,株式会社,愛知県,知立市,上重原６丁目１２７番地,,23,225,4720058,,,,,,,2022-12-09,1,,,,,キムラコウギョウ,0
1891,7190001029988,新規,0,2022-12-09,2022-12-09,株式会社オフィス平田,,株式会社,三重県,四日市市,住吉町１５番１５号,,24,202,5108003,,,,,,,2022-12-09,1,,,,,オフィスヒラタ,0
1896,7200003005754,新規,0,2022-12-09,2022-12-09,合同会社ＢＲＯＴＨＥＲ,,合同会社,岐阜県,多治見市,高田町６丁目１０９番地,,21,204,5070018,,,,,,,2022-12-09,1,,,,,ブラザー,0
1897,7200005013417,新規,0,2022-12-09,2022-12-09,医療法人洪仁会,,その他の設立登記法人,岐阜県,岐阜市,太郎丸新屋敷２０５番地２,,21,201,5012576,,,,,,,2022-12-09,1,,,,,コウジンカイ,0
1905,7240001060772,新規,0,2022-12-09,2022-12-09,株式会社キャプス請求代行システムズ,,株式会社,広島県,広島市中区,舟入川口町４番２号,,34,101,7300845,,,,,,,2022-12-09,1,,,,,キャプスセイキュウダイコウシステムズ,0
1920,7290001099831,新規,0,2022-12-09,2022-12-09,すぎる本舗株式会社,,株式会社,福岡県,太宰府市,宰府３丁目１番１９号,,40,221,8180117,,,,,,,2022-12-09,1,,,,,スギルホンポ,0
1922,7290003013237,新規,0,2022-12-09,2022-12-09,合同会社実結,,合同会社,福岡県,福岡市東区,西戸崎２丁目１－３０－１２１４,,40,131,8110321,,,,,,,2022-12-09,1,,,,,ミウ,0
1928,7330002031598,新規,0,2022-12-09,2022-12-09,有限会社堀崎播種機製作所,,有限会社,熊本県,人吉市,蓑野町２８８番地,,43,203,8680061,,,,,,,2022-12-09,1,,,,,ホリサキハシュキセイサクショ,0
1930,7350001018074,新規,0,2022-12-09,2022-12-09,株式会社ＫＵＲＯＫＩ商事,,株式会社,宮崎県,都城市,郡元町３２６０－５６,,45,202,8850013,,,,,,,2022-12-09,1,,,,,クロキショウジ,0
1931,7350005006117,新規,0,2022-12-09,2022-12-09,行政書士法人ＴＭｓｕｐｐｏｒｔ,,その他の設立登記法人,宮崎県,宮崎市,吉村町曽師中甲３０９８番地１０矢野コーポ１０５号,,45,201,8800841,,,,,,,2022-12-09,1,,,,,,0
1937,7360001031282,新規,0,2022-12-09,2022-12-09,株式会社５ｈｅａｒｔ,,株式会社,沖縄県,那覇市,銘苅１丁目１１番８－５０１号レーヴグランディ銘苅新都心,,47,201,9000004,,,,,,,2022-12-09,1,,,,,ファイブハート,0
1960,7420001018091,新規,0,2022-12-09,2022-12-09,株式会社ＭＺ,,株式会社,青森県,弘前市,大字境関字亥ノ宮５３番地３,,02,202,0368076,,,,,,,2022-12-09,1,,,,,エムジー,0
1966,7430001088019,新規,0,2022-12-09,2022-12-09,株式会社Ｌｉｎｅｎ,,株式会社,北海道,札幌市中央区,南一条西１４丁目１－２１９北海ＴＭビル３Ｆ,,01,101,0600061,,,,,,,2022-12-09,1,,,,,リネン,0
1967,7430001088027,新規,0,2022-12-09,2022-12-09,株式会社北本製作所,,株式会社,北海道,札幌市北区,新琴似二条９丁目３番３号,,01,102,0010902,,,,,,,2022-12-09,1,,,,,キタモトセイサクジョ,0
1971,7430003014526,新規,0,2022-12-09,2022-12-09,合同会社ＥＡＳＴ　ＰＯＩＮＴ,,合同会社,北海道,札幌市東区,東雁来十三条２丁目１９番３号,,01,103,0070033,,,,,,,2022-12-09,1,,,,,イーストポイント,0
1972,7430003014534,新規,0,2022-12-09,2022-12-09,合同会社Ｂｕｄｄｙ,,合同会社,北海道,札幌市豊平区,月寒東四条１９丁目９－７,,01,105,0620054,,,,,,,2022-12-09,1,,,,,バディー,0
1987,7700150113334,新規,0,2022-12-09,2022-12-09,ｔａｉ　ｓｈａｎ　ｓｈｉ　ｍａ　ｙｉ　ｊｉａ　ｊｕ　ｍａｏ　ｙｉ　ｙｏｕ　ｘｉａｎ　ｇｏｎｇ　ｓｉ,,外国会社等,,,,,,,,ｔａｉ　ｓｈａｎ　ｓｈｉ　ｔａｉ　ｃｈｅｎｇ　ｇａｏ　ｘｉｎ　ｌｕ　１６　ｈａｏ　ｚｈｉ　ｅｒ,,,,,,2022-12-09,1,,,,,タイサンシマーイージヤジユウボウエキユウゲンコウシ,0
1997,8010001231404,新規,0,2022-12-09,2022-12-09,株式会社ＹＩＧ,,株式会社,東京都,中央区,銀座４丁目２番２号,,13,102,1040061,,,,,,,2022-12-09,1,,,,,ワイアイジー,0
2002,8010003039250,新規,0,2022-12-09,2022-12-09,合同会社ピオニエ,,合同会社,東京都,中央区,銀座１丁目１２－４Ｎ＆ＥＢＬＤ．７Ｆ,,13,102,1040061,,,,,,,2022-12-09,1,,,,,ピオニエ,0
2003,8010003039267,新規,0,2022-12-09,2022-12-09,ヴィタピュアジャパン合同会社,,合同会社,東京都,中央区,銀座７丁目１５番８号タウンハイツ４０６号,,13,102,1040061,,,,,,,2022-12-09,1,,,,,ヴィタピュアジャパン,0
2004,8010003039300,新規,0,2022-12-09,2022-12-09,合同会社Ｙｏｔｅｉ　Ｏｎｅ,,合同会社,東京都,千代田区,霞が関３丁目２番５号,,13,101,1000013,,,,,,,2022-12-09,1,,,,,ヨテイワン,0
2005,8010005035891,新規,0,2022-12-09,2022-12-09,一般社団法人羽田人形町,,その他の設立登記法人,東京都,千代田区,霞が関３丁目２番５号,,13,101,1000013,,,,,,,2022-12-09,1,,,,,ハネダニンギョウチョウ,0
2007,8010101015450,新規,0,2022-12-09,2022-12-09,株式会社ＡｄｏＦｏｕｒ,,株式会社,東京都,八王子市,松木１３－４エクステ京王堀之内４０５号室,,13,201,1920362,,,,,,,2022-12-09,1,,,,,アドフォア,0
2013,8010401171233,新規,0,2022-12-09,2022-12-09,株式会社大和エージェンシー,,株式会社,東京都,港区,台場１丁目５番４－１３０６号,,13,103,1350091,,,,,,,2022-12-09,1,,,,,ヤマトエージェンシー,0
2014,8010401171266,新規,0,2022-12-09,2022-12-09,株式会社アルクロマ,,株式会社,東京都,港区,三田５丁目４番３号,,13,103,1080073,,,,,,,2022-12-09,1,,,,,アルクロマ,0
2020,8010601062265,新規,0,2022-12-09,2022-12-09,株式会社おおじま動物クリニック,,株式会社,東京都,江東区,大島１丁目２９番７号,,13,108,1360072,,,,,,,2022-12-09,1,,,,,オオジマドウブツクリニック,0
2022,8010603009891,新規,0,2022-12-09,2022-12-09,合同会社ｅｃｏｌｅｗａ,,合同会社,東京都,江東区,豊洲１丁目２番８－５１５号,,13,108,1350061,,,,,,,2022-12-09,1,,,,,エコルワ,0
2027,8010801033504,新規,0,2022-12-09,2022-12-09,株式会社ＰＲＯＤＵＳ,,株式会社,東京都,大田区,東糀谷１丁目２０－１６,,13,111,1440033,,,,,,,2022-12-09,1,,,,,プロダス,0
2031,8010901052123,新規,0,2022-12-09,2022-12-09,株式会社ワイズ,,株式会社,東京都,世田谷区,北烏山６丁目３２番１０－１０８号,,13,112,1570061,,,,,,,2022-12-09,1,,,,,ワイズ,0
2039,8011001151311,新規,0,2022-12-09,2022-12-09,株式会社リトルハイア,,株式会社,東京都,渋谷区,道玄坂１丁目１０番８号渋谷道玄坂東急ビル２Ｆ－Ｃ,,13,113,1500043,,,,,,,2022-12-09,1,,,,,リトルハイア,0
2040,8011001151328,新規,0,2022-12-09,2022-12-09,株式会社Ｙｅｌｌｏｗｓｔｏｎｅ,,株式会社,東京都,渋谷区,恵比寿南３丁目１－１１クレール恵比寿１０２,,13,113,1500022,,,,,,,2022-12-09,1,,,,,イエローストーン,0
2041,8011001151377,新規,0,2022-12-09,2022-12-09,Ｂｉ‐Ｔｓｕ　Ｅｖａｎｔ株式会社,,株式会社,東京都,目黒区,柿の木坂２丁目２１－２,,13,110,1520022,,,,,,,2022-12-09,1,,,,,ビーツーエーバント,0
2043,8011003015844,新規,0,2022-12-09,2022-12-09,要コンサルティング合同会社,,合同会社,東京都,目黒区,鷹番１丁目１番１号,,13,110,1520004,,,,,,,2022-12-09,1,,,,,カナメコンサルティング,0
2044,8011003015852,新規,0,2022-12-09,2022-12-09,合同会社エフエヌディ,,合同会社,東京都,渋谷区,道玄坂１丁目１０番８号渋谷道玄坂東急ビル２Ｆ－Ｃ,,13,113,1500043,,,,,,,2022-12-09,1,,,,,エフエヌディ,0
2045,8011003015877,新規,0,2022-12-09,2022-12-09,合同会社ＨＥＲＯ,,合同会社,東京都,渋谷区,道玄坂２丁目２７番２号トーワ道玄坂ビル地下１階,,13,113,1500043,,,,,,,2022-12-09,1,,,,,ヒーロー,0
2046,8011003015885,新規,0,2022-12-09,2022-12-09,合同会社ＭＫＹ,,合同会社,東京都,渋谷区,笹塚３丁目５９番７号,,13,113,1510073,,,,,,,2022-12-09,1,,,,,エムケーワイ,0
2049,8011101101117,新規,0,2022-12-09,2022-12-09,株式会社サクラマネジメント,,株式会社,東京都,新宿区,西新宿４丁目１４番７号,,13,104,1600023,,,,,,,2022-12-09,1,,,,,サクラマネジメント,0
2054,8011201024283,新規,0,2022-12-09,2022-12-09,株式会社ＺＥＶ＆ＮＥＶインターナショナル,,株式会社,東京都,中野区,江原町３丁目３５番３号,,13,114,1650023,,,,,,,2022-12-09,1,,,,,ゼブアンドネブインターナショナル,0
2068,8011801041653,新規,0,2022-12-09,2022-12-09,株式会社白鳥堂,,株式会社,東京都,足立区,東和４丁目５番８号,,13,121,1200003,,,,,,,2022-12-09,1,,,,,シラトリドウ,0
2073,8012403005716,新規,0,2022-12-09,2022-12-09,合同会社フォール,,合同会社,東京都,調布市,調布ケ丘４丁目１１番地１４ＥｌＢｌａｎｃｏ１０３,,13,208,1820021,,,,,,,2022-12-09,1,,,,,フォール,0
2074,8012701017388,新規,0,2022-12-09,2022-12-09,報徳ビルメンテナンス株式会社,,株式会社,東京都,東村山市,本町２丁目１２番地１サンライトビル３０１,,13,213,1890014,,,,,,,2022-12-09,1,,,,,ホウトクビルメンテナンス,0
2087,8020001149348,新規,0,2022-12-09,2022-12-09,株式会社ピオン薬局,,株式会社,神奈川県,横浜市旭区,二俣川２丁目１３番地１ソレイユ二俣川１０１,,14,112,2410821,,,,,,,2022-12-09,1,,,,,ピオンヤッキョク,0
2091,8020003022858,新規,0,2022-12-09,2022-12-09,高山商事合同会社,,合同会社,神奈川県,横浜市中区,本郷町３丁目１３３番地,,14,104,2310843,,,,,,,2022-12-09,1,,,,,タカヤマショウジ,0
2092,8020005015760,新規,0,2022-12-09,2022-12-09,医療法人社団秋嶺会,,その他の設立登記法人,神奈川県,横浜市神奈川区,六角橋１丁目６番１４号白楽メディカルセンター５階,,14,102,2210802,,,,,,,2022-12-09,1,,,,,シャダンシュウレイカイ,0
2096,8021001077662,新規,0,2022-12-09,2022-12-09,株式会社アイロジ,,株式会社,神奈川県,愛甲郡愛川町,角田７２９番地の１,,14,401,2430301,,,,,,,2022-12-09,1,,,,,アイロジ,0
2100,8021003012452,新規,0,2022-12-09,2022-12-09,合同会社平野商店,,合同会社,神奈川県,中郡大磯町,高麗２丁目２番１２号,,14,341,2550001,,,,,,,2022-12-09,1,,,,,ヒラノショウテン,0
2101,8021003012485,新規,0,2022-12-09,2022-12-09,合同会社相模みらい想研,,合同会社,神奈川県,相模原市中央区,上溝６丁目３番６号,,14,152,2520243,,,,,,,2022-12-09,1,,,,,サガミミライソウケン,0
2109,8030001151385,新規,0,2022-12-09,2022-12-09,株式会社三喜,,株式会社,埼玉県,深谷市,本田７０５７番地,,11,218,3691105,,,,,,,2022-12-09,1,,,,,ミキ,0
2110,8030001151393,新規,0,2022-12-09,2022-12-09,株式会社グローバルビジョン,,株式会社,埼玉県,富士見市,鶴瀬西２丁目９番３５号,,11,235,3540026,,,,,,,2022-12-09,1,,,,,グローバルビジョン,0
2112,8030003020712,新規,0,2022-12-09,2022-12-09,エム・デザイン合同会社,,合同会社,埼玉県,さいたま市大宮区,櫛引町１丁目３８４番地,,11,103,3300851,,,,,,,2022-12-09,1,,,,,エムデザイン,0
2113,8030005021080,新規,0,2022-12-09,2022-12-09,一般社団法人日本産前産後ケアーセラピスト協会,,その他の設立登記法人,埼玉県,草加市,氷川町２１５５番地２１,,11,221,3400034,,,,,,,2022-12-09,1,,,,,ニホンサンゼンサンゴケアーセラピストキョウカイ,0
2123,8040001126155,新規,0,2022-12-09,2022-12-09,株式会社ランドバリュー,,株式会社,千葉県,柏市,大青田１０８９番地,,12,217,2770805,,,,,,,2022-12-09,1,,,,,ランドバリュー,0
2124,8040001126163,新規,0,2022-12-09,2022-12-09,株式会社両国青果,,株式会社,千葉県,市川市,南八幡５丁目２番４号,,12,203,2720023,,,,,,,2022-12-09,1,,,,,リョウゴクセイカ,0
2126,8040002034720,新規,0,2022-12-09,2022-12-09,有限会社鈴木商行,,有限会社,千葉県,市川市,市川南１丁目１０番２０号,,12,203,2720033,,,,,,,2022-12-09,1,,,,,スズキショウコウ,0
2129,8040003021437,新規,0,2022-12-09,2022-12-09,合同会社紺屋,,合同会社,千葉県,市川市,下貝塚２丁目１６番２号,,12,203,2720821,,,,,,,2022-12-09,1,,,,,コウヤ,0
2130,8040003021445,新規,0,2022-12-09,2022-12-09,ＡＣ‐ｂｒａｖｅ合同会社,,合同会社,千葉県,船橋市,本町４丁目３２番２号スクエア２Ｆ,,12,204,2730005,,,,,,,2022-12-09,1,,,,,エーシーブレイブ,0
2131,8040003021453,新規,0,2022-12-09,2022-12-09,プリヤンガモータース合同会社,,合同会社,千葉県,八街市,東吉田６１７番地１,,12,230,2891114,,,,,,,2022-12-09,1,,,,,プリヤンガモータース,0
2153,8100003006811,新規,0,2022-12-09,2022-12-09,合同会社信州伊那宙,,合同会社,長野県,伊那市,手良野口１５９７番地,,20,209,3960003,,,,,,,2022-12-09,1,,,,,シンシュウイナソラ,0
2155,8110001037171,新規,0,2022-12-09,2022-12-09,株式会社クオーラ,,株式会社,新潟県,新潟市東区,東明７丁目５番１号,,15,102,9500853,,,,,,,2022-12-09,1,,,,,クオーラ,0
2169,8120001250871,新規,0,2022-12-09,2022-12-09,辰南株式会社,,株式会社,大阪府,大阪市東成区,深江北３丁目４番２１号エクラ深江橋１０２Ｂ,,27,115,5370001,,,,,,,2022-12-09,1,,,,,シンナン,0
2170,8120001250888,新規,0,2022-12-09,2022-12-09,株式会社ラルカ,,株式会社,大阪府,大阪市中央区,南久宝寺町２丁目４番７－９０４号,,27,128,5410058,,,,,,,2022-12-09,1,,,,,ラルカ,0
2171,8120001250921,新規,0,2022-12-09,2022-12-09,株式会社Ｙｏｓｈｉｄａ　Ｔｒａｄｉｎｇ　Ｊａｐａｎ,,株式会社,大阪府,大阪市天王寺区,勝山３丁目５番１７号,,27,109,5430043,,,,,,,2022-12-09,1,,,,,ヨシダトレーディングジャパン,0
2172,8120001250938,新規,0,2022-12-09,2022-12-09,株式会社ＷＡＬＬ’ＴＩＮＣＴ,,株式会社,大阪府,大阪市北区,同心２丁目１３番１８号,,27,127,5300035,,,,,,,2022-12-09,1,,,,,ウォールティンクト,0
2173,8120001250946,新規,0,2022-12-09,2022-12-09,ｌｅｓ　ｐｅｔｉｔｅｓ　ａｍｉｅｓ株式会社,,株式会社,大阪府,大阪市中央区,平野町３丁目３－７ニュースライフ平野町１１０８号室,,27,128,5410046,,,,,,,2022-12-09,1,,,,,レスペティッツエイミス,0
2182,8130001073256,新規,0,2022-12-09,2022-12-09,株式会社れんちゃりん,,株式会社,京都府,京都市中京区,裏寺町通四条上る中之町５７２番地,,26,104,6048042,,,,,,,2022-12-09,1,,,,,レンチャリン,0
2188,8150001026006,新規,0,2022-12-09,2022-12-09,鐘田造園株式会社,,株式会社,奈良県,宇陀市,菟田野松井７６番地の１,,29,212,6332221,,,,,,,2022-12-09,1,,,,,カナダゾウエン,0
2189,8150003002830,新規,0,2022-12-09,2022-12-09,合同会社梅本商事,,合同会社,奈良県,橿原市,川西町２８７番地,,29,205,6340826,,,,,,,2022-12-09,1,,,,,ウメモトショウジ,0
2192,8160001024693,新規,0,2022-12-09,2022-12-09,株式会社風,,株式会社,滋賀県,大津市,木下町１８番２３号,,25,201,5200812,,,,,,,2022-12-09,1,,,,,フウ,0
2201,8180001154134,新規,0,2022-12-09,2022-12-09,株式会社ココカラテラス,,株式会社,愛知県,あま市,本郷花ノ木６８番地ラフィネＧ１０１,,23,237,4901116,,,,,,,2022-12-09,1,,,,,ココカラテラス,0
2202,8180001154150,新規,0,2022-12-09,2022-12-09,株式会社スターワーク,,株式会社,愛知県,瀬戸市,八王子町３２番地,,23,204,4890024,,,,,,,2022-12-09,1,,,,,スターワーク,0
2206,8180301036882,新規,0,2022-12-09,2022-12-09,株式会社香嵐亭,,株式会社,愛知県,豊田市,足助町宮平１番地,,23,211,4442424,,,,,,,2022-12-09,1,,,,,コウランテイ,0
2213,8190001029970,新規,0,2022-12-09,2022-12-09,ＸＹＺ　ＷＥＳＴ株式会社,,株式会社,三重県,四日市市,西日野町４５番地９―２０１,,24,202,5100943,,,,,,,2022-12-09,1,,,,,エックスワイゼットウエスト,0
2223,8220003003409,新規,0,2022-12-09,2022-12-09,合同会社ウィル,,合同会社,石川県,加賀市,山代温泉桜町１丁目９９番地,,17,206,9220250,,,,,,,2022-12-09,1,,,,,ウィル,0
2225,8230001019629,新規,0,2022-12-09,2022-12-09,三栄グラベル株式会社,,株式会社,富山県,黒部市,荒俣字東清水田４４８番地１,,16,207,9380001,,,,,,,2022-12-09,1,,,,,サンエイグラベル,0
2230,8240001060771,新規,0,2022-12-09,2022-12-09,株式会社Ｐｅｒｆｅｔｔａ,,株式会社,広島県,江田島市,江田島町江南１丁目１７番１４号,,34,215,7372132,,,,,,,2022-12-09,1,,,,,ペルフェッタ,0
2242,8290001099822,新規,0,2022-12-09,2022-12-09,株式会社７ＴＥＥＮ　Ｃｒｅａｔｉｖｅ,,株式会社,福岡県,福岡市博多区,博多駅前２丁目１９番１７号トーカン博多第５ビル３１２号,,40,132,8120011,,,,,,,2022-12-09,1,,,,,セブンティーンクリエイティブ,0
2243,8290001099839,新規,0,2022-12-09,2022-12-09,木楽創庫株式会社,,株式会社,福岡県,三潴郡大木町,大字上八院８６８番地,,40,522,8300417,,,,,,,2022-12-09,1,,,,,キラクソウコ,0
2245,8290003013293,新規,0,2022-12-09,2022-12-09,合同会社くま,,合同会社,福岡県,福岡市西区,小戸４丁目１４－１７Ｓハウス小戸２０４,,40,135,8190001,,,,,,,2022-12-09,1,,,,,クマ,0
2253,8330001030377,新規,0,2022-12-09,2022-12-09,株式会社おのうえ青果,,株式会社,熊本県,荒尾市,金山１７３４－１１,,43,204,8640162,,,,,,,2022-12-09,1,,,,,オノウエセイカ,0
2254,8330003009618,新規,0,2022-12-09,2022-12-09,合同会社ＲＥＡＬＩＺＥ,,合同会社,熊本県,宇城市,小川町北新田１４３番地１０,,43,213,8690631,,,,,,,2022-12-09,1,,,,,リアライズ,0
2258,8340003003990,新規,0,2022-12-09,2022-12-09,合同会社オダテ商会,,合同会社,鹿児島県,指宿市,山川大山６０３番地２,,46,210,8910514,,,,,,,2022-12-09,1,,,,,,0
2260,8350001018073,新規,0,2022-12-09,2022-12-09,株式会社ＥＬＣＡＨＯＵＳＥ,,株式会社,宮崎県,宮崎市,橘通東３丁目４－９,,45,201,8800805,,,,,,,2022-12-09,1,,,,,エルカハウス,0
2261,8350003004237,新規,0,2022-12-09,2022-12-09,合同会社未来アクセラレート,,合同会社,宮崎県,宮崎市,中西町３４番地４,,45,201,8800853,,,,,,,2022-12-09,1,,,,,ミライアクセラレート,0
2274,8430001088026,新規,0,2022-12-09,2022-12-09,株式会社Ｔ．Ｉ．Ｓ,,株式会社,北海道,札幌市北区,屯田六条６丁目４番３３－１０４号,,01,102,0020856,,,,,,,2022-12-09,1,,,,,ティーアイエス,0
2286,8700150113333,新規,0,2022-12-09,2022-12-09,Ｒｅｏｌｉｎｋ　Ｉｎｎｏｖａｔｉｏｎ　Ｌｉｍｉｔｅｄ,,外国会社等,,,,,,,,ＦＬＡＴ／ＲＭ　７０５　７／Ｆ　ＦＡ　ＹＵＥＮ　ＣＯＭＭＥＲＣＩＡＬ　ＢＵＩＬＤＩＮＧ　７５－７７　ＦＡ　ＹＵＥＮ　ＳＴＲＥＥＴ　ＭＯＮＧ　ＫＯＫ　ＫＬ　ＨＯＮＧ　ＫＯＮＧ,,,,,,2022-12-09,1,,,,,レオリンクイノベーシヨンリミテツド,0
2295,9010001231337,新規,0,2022-12-09,2022-12-09,株式会社ＳＥｃｏｎｄ,,株式会社,東京都,中央区,銀座１丁目１２－４Ｎ＆Ｅ＿ＢＬＤ．７階,,13,102,1040061,,,,,,,2022-12-09,1,,,,,セコンド,0
2296,9010001231345,新規,0,2022-12-09,2022-12-09,株式会社Ｑｕａｎｔｕｍ　Ｚｅｒｏ,,株式会社,東京都,文京区,本郷６丁目２５番１４号,,13,105,1130033,,,,,,,2022-12-09,1,,,,,クォンタムゼロ,0
2297,9010001231403,新規,0,2022-12-09,2022-12-09,ｘａｌｕｅ株式会社,,株式会社,東京都,中央区,銀座１丁目１２－４Ｎ＆ＥＢＬＤ．７階,,13,102,1040061,,,,,,,2022-12-09,1,,,,,ザリュー,0
2298,9010001231428,新規,0,2022-12-09,2022-12-09,株式会社イノセンスベル,,株式会社,東京都,千代田区,神田和泉町一丁目６番１６号ヤマトビル４０５,,13,101,1010024,,,,,,,2022-12-09,1,,,,,イノセンスベル,0
2299,9010001231436,新規,0,2022-12-09,2022-12-09,株式会社ＳＷＡＴ,,株式会社,東京都,中央区,佃１丁目５番７号,,13,102,1040051,,,,,,,2022-12-09,1,,,,,スワット,0
2304,9010003039266,新規,0,2022-12-09,2022-12-09,ポメシス合同会社,,合同会社,東京都,中央区,銀座１丁目１２－４Ｎ＆ＥＢＬＤ．７階,,13,102,1040061,,,,,,,2022-12-09,1,,,,,ポメシス,0
2305,9010003039290,新規,0,2022-12-09,2022-12-09,合同会社Ｓｏｌｅｔ　Ｌｕｎａ,,合同会社,東京都,千代田区,神田錦町１丁目１５番地５ブランズ大手町７０１号,,13,101,1010054,,,,,,,2022-12-09,1,,,,,ソレットルナ,0
2313,9010401171240,新規,0,2022-12-09,2022-12-09,株式会社六本木電機,,株式会社,東京都,港区,六本木４丁目３番１１号,,13,103,1060032,,,,,,,2022-12-09,1,,,,,ロッポンギデンキ,0
2314,9010401171257,新規,0,2022-12-09,2022-12-09,ＴａｋｅＩＴジャパン株式会社,,株式会社,東京都,港区,港南２丁目１６番１号品川イーストワンタワー４Ｆ,,13,103,1080075,,,,,,,2022-12-09,1,,,,,タケアイティージャパン,0
2315,9010403029115,新規,0,2022-12-09,2022-12-09,合同会社ＩＫＯＵ,,合同会社,東京都,港区,南青山３丁目１番３６号青山丸竹ビル６Ｆ,,13,103,1070062,,,,,,,2022-12-09,1,,,,,イコウ,0
2316,9010403029131,新規,0,2022-12-09,2022-12-09,合同会社友キャピタル,,合同会社,東京都,港区,芝浦２丁目９番１－１９１１号,,13,103,1080023,,,,,,,2022-12-09,1,,,,,ユウキャピタル,0
2318,9010601062264,新規,0,2022-12-09,2022-12-09,株式会社サンタルス・ジャパン,,株式会社,東京都,江東区,東砂５丁目５番６－２１０号,,13,108,1360074,,,,,,,2022-12-09,1,,,,,サンタルスジャパン,0
2320,9010603009890,新規,0,2022-12-09,2022-12-09,合同会社Ｗｅｌｌｎｅｓｓ,,合同会社,東京都,墨田区,江東橋２丁目１２番８－６０１号ＣＡＳＳＩＡ錦糸町レジデンス,,13,107,1300022,,,,,,,2022-12-09,1,,,,,ウェルネス,0
2324,9010801033494,新規,0,2022-12-09,2022-12-09,株式会社プロッツ,,株式会社,東京都,大田区,鵜の木２丁目４１番６号,,13,111,1460091,,,,,,,2022-12-09,1,,,,,プロッツ,0
2325,9010801033503,新規,0,2022-12-09,2022-12-09,ＴＰＳ‐ＦＡＣＴＯＲＹ株式会社,,株式会社,東京都,大田区,池上６丁目４－１８,,13,111,1460082,,,,,,,2022-12-09,1,,,,,ティーピーエスファクトリー,0
2329,9010903007834,新規,0,2022-12-09,2022-12-09,ミーメ合同会社,,合同会社,東京都,世田谷区,北沢２丁目１６－２グリーンロード北沢２Ｆ,,13,112,1550031,,,,,,,2022-12-09,1,,,,,ミーメ,0
2336,9011001151310,新規,0,2022-12-09,2022-12-09,株式会社タックスパートナーズ,,株式会社,東京都,目黒区,三田１丁目３番２１－８０５号パルテール恵比寿,,13,110,1530062,,,,,,,2022-12-09,1,,,,,タックスパートナーズ,0
2337,9011001151343,新規,0,2022-12-09,2022-12-09,株式会社ＶｉｄｅｏＲｉｓｅ,,株式会社,東京都,渋谷区,道玄坂１丁目１６－６二葉ビル８ｂ,,13,113,1500043,,,,,,,2022-12-09,1,,,,,ビデオライズ,0
2338,9011001151376,新規,0,2022-12-09,2022-12-09,株式会社フォロー,,株式会社,東京都,渋谷区,道玄坂１丁目１０番８号渋谷道玄坂東急ビル２Ｆ－Ｃ,,13,113,1500043,,,,,,,2022-12-09,1,,,,,フォロー,0
2339,9011003015711,新規,0,2022-12-09,2022-12-09,合同会社レジナルド,,合同会社,東京都,渋谷区,道玄坂１丁目１０番８号渋谷道玄坂東急ビル２Ｆ―Ｃ,,13,113,1500043,,,,,,,2022-12-09,1,,,,,レジナルド,0
2340,9011003015835,新規,0,2022-12-09,2022-12-09,合同会社ｃｏｔｏｗａ,,合同会社,東京都,渋谷区,渋谷２丁目１９－１５宮益坂ビルディング６０９,,13,113,1500002,,,,,,,2022-12-09,1,,,,,コトワ,0
2342,9011101101058,新規,0,2022-12-09,2022-12-09,株式会社ＩＭＳ　Ｇｒｏｕｐ,,株式会社,東京都,新宿区,北新宿３丁目１０番１０－７１１号,,13,104,1690074,,,,,,,2022-12-09,1,,,,,アイエムエスグループ,0
2343,9011101101116,新規,0,2022-12-09,2022-12-09,エムネクスト株式会社,,株式会社,東京都,新宿区,新宿１丁目２番１号,,13,104,1600022,,,,,,,2022-12-09,1,,,,,エムネクスト,0
2348,9011103012476,新規,0,2022-12-09,2022-12-09,合同会社ＪＡＭ,,合同会社,東京都,新宿区,西新宿３丁目３番１３号西新宿水間ビル６階,,13,104,1600023,,,,,,,2022-12-09,1,,,,,ジェイアム,0
2349,9011303004604,新規,0,2022-12-09,2022-12-09,ＧＵＲＵＤＯＭＯ合同会社,,合同会社,東京都,杉並区,成田西１丁目２４番５号,,13,115,1660016,,,,,,,2022-12-09,1,,,,,グルドモ,0
2355,9012403005723,新規,0,2022-12-09,2022-12-09,合同会社Ｍｉｉ＆Ｃｏｍｐａｎｙ,,合同会社,東京都,三鷹市,大沢６丁目３番５２号,,13,204,1810015,,,,,,,2022-12-09,1,,,,,ミーアンドカンパニー,0
2367,9020001149272,新規,0,2022-12-09,2022-12-09,株式会社鳶晃,,株式会社,神奈川県,横浜市都筑区,荏田南３丁目１－４－４０２,,14,118,2240007,,,,,,,2022-12-09,1,,,,,トビコウ,0
2368,9020001149339,新規,0,2022-12-09,2022-12-09,光元宇宙株式会社,,株式会社,神奈川県,川崎市麻生区,上麻生５丁目２８番２号,,14,137,2150021,,,,,,,2022-12-09,1,,,,,ヒカリゲンウチュウ,0
2369,9020001149363,新規,0,2022-12-09,2022-12-09,株式会社リーラール,,株式会社,神奈川県,横浜市磯子区,磯子台２７番Ｈ－３０７号,,14,107,2350019,,,,,,,2022-12-09,1,,,,,リーラール,0
2374,9020003022849,新規,0,2022-12-09,2022-12-09,ＡＫＩＭＡＤＯ合同会社,,合同会社,神奈川県,横浜市中区,小港町１丁目１－２ビューコート小港５号棟１２０４,,14,104,2310802,,,,,,,2022-12-09,1,,,,,アキマド,0
2381,9021001077554,新規,0,2022-12-09,2022-12-09,株式会社グレイフ,,株式会社,神奈川県,平塚市,纒１０６番地の９,,14,203,2540901,,,,,,,2022-12-09,1,,,,,グレイフ,0
2382,9021001077661,新規,0,2022-12-09,2022-12-09,株式会社ｔｅｒｃｅｒ　ｐｉｓｏ,,株式会社,神奈川県,三浦郡葉山町,長柄１６４２番地の２５３,,14,301,2400113,,,,,,,2022-12-09,1,,,,,テルセルピーソ,0
2384,9021003012484,新規,0,2022-12-09,2022-12-09,合同会社インフィニティ８８８コレクション,,合同会社,神奈川県,横須賀市,上町４丁目９６番地,,14,201,2380017,,,,,,,2022-12-09,1,,,,,インフィニティトリプルエイトコレクション,0
2388,9030001151384,新規,0,2022-12-09,2022-12-09,株式会社ＳＯＭＵＲＡ　ＤＥＳＩＧＮ,,株式会社,埼玉県,白岡市,新白岡３丁目１番地２６,,11,246,3490212,,,,,,,2022-12-09,1,,,,,ソムラデザイン,0
2393,9030005021088,新規,0,2022-12-09,2022-12-09,一般社団法人都市戦略機構,,その他の設立登記法人,埼玉県,さいたま市見沼区,大和田町２丁目８９７－３階,,11,104,3370053,,,,,,,2022-12-09,1,,,,,トシセンリャクキコウ,0
2401,9040001126113,新規,0,2022-12-09,2022-12-09,株式会社ＳＥＡ　ＳＩＤＥ建設,,株式会社,千葉県,松戸市,西馬橋１丁目２７番地の２７,,12,207,2710044,,,,,,,2022-12-09,1,,,,,シーサイドケンセツ,0
2409,9050003007079,新規,0,2022-12-09,2022-12-09,合同会社アクトフォーム,,合同会社,茨城県,つくば市,みどりの南９２番地１０,,08,220,3050884,,,,,,,2022-12-09,1,,,,,アクトフォーム,0
2418,9100001035951,新規,0,2022-12-09,2022-12-09,株式会社ＳＫＭ,,株式会社,長野県,塩尻市,大字広丘吉田５１８番地クレールスクエア１０２,,20,215,3990701,,,,,,,2022-12-09,1,,,,,エスケーエム,0
2433,9120001250912,新規,0,2022-12-09,2022-12-09,株式会社ＢＯＳＣＯ,,株式会社,大阪府,守口市,高瀬町１丁目１０番１５号,,27,209,5700053,,,,,,,2022-12-09,1,,,,,ボスコ,0
2434,9120001250920,新規,0,2022-12-09,2022-12-09,松果株式会社,,株式会社,大阪府,大阪市浪速区,恵比須西一丁目４－２３住吉ビル,,27,111,5560000,,,,,,,2022-12-09,1,,,,,パインナッツ,0
2435,9120001250945,新規,0,2022-12-09,2022-12-09,余錦株式会社,,株式会社,大阪府,大阪市浪速区,桜川２丁目３－１３プレサンス難波ＷＥＳＴ６０３号室,,27,111,5560022,,,,,,,2022-12-09,1,,,,,ヨキン,0
2436,9120001250961,新規,0,2022-12-09,2022-12-09,株式会社Ｂ　ｐｌａｔｅ,,株式会社,大阪府,大阪市中央区,平野町３丁目１番６－１０１号,,27,128,5410046,,,,,,,2022-12-09,1,,,,,ビープレート,0
2441,9120003023044,新規,0,2022-12-09,2022-12-09,龍翔合同会社,,合同会社,大阪府,大阪市淀川区,十八条３丁目１４番１５－１００８号,,27,123,5320001,,,,,,,2022-12-09,1,,,,,リュウショウ,0
2442,9120003023052,新規,0,2022-12-09,2022-12-09,合同会社令和もりぐちサポート,,合同会社,大阪府,守口市,日吉町１丁目１０番７号,,27,209,5700081,,,,,,,2022-12-09,1,,,,,レイワモリグチサポート,0
2449,9120101066639,新規,0,2022-12-09,2022-12-09,株式会社三枝建設,,株式会社,大阪府,貝塚市,東山１丁目８番４号,,27,208,5970046,,,,,,,2022-12-09,1,,,,,サンシケンセツ,0
2453,9130001073255,新規,0,2022-12-09,2022-12-09,ランドサット株式会社,,株式会社,京都府,京都市中京区,西ノ京西中合町５５番地２,,26,104,6048441,,,,,,,2022-12-09,1,,,,,ランドサット,0
2457,9140003018447,新規,0,2022-12-09,2022-12-09,合同会社みらいクリエイト,,合同会社,兵庫県,小野市,本町６０７－７,,28,218,6751372,,,,,,,2022-12-09,1,,,,,ミライクリエイト,0
2468,9180001154133,新規,0,2022-12-09,2022-12-09,株式会社愛車のある暮らし,,株式会社,愛知県,名古屋市西区,名塚町１丁目７７－１,,23,104,4510081,,,,,,,2022-12-09,1,,,,,アイシャノアルクラシ,0
2477,9190001030003,新規,0,2022-12-09,2022-12-09,株式会社ｕｋ,,株式会社,三重県,松阪市,宝塚町１５６５番地,,24,204,5150056,,,,,,,2022-12-09,1,,,,,ユーケー,0
2478,9200003005760,新規,0,2022-12-09,2022-12-09,ＮＡＳＨＦＡ　ＴＲＡＤＩＮＧ合同会社,,合同会社,岐阜県,土岐市,肥田浅野朝日町１丁目１７番地フォーブル浅野Ａ,,21,212,5095117,,,,,,,2022-12-09,1,,,,,ナスファトレーディング,0
2492,9270001008684,新規,0,2022-12-09,2022-12-09,株式会社カーＹスタイル,,株式会社,鳥取県,鳥取市,船木５２番地,,31,201,6891122,,,,,,,2022-12-09,1,,,,,カーワイスタイル,0
2494,9290001099846,新規,0,2022-12-09,2022-12-09,株式会社匠,,株式会社,福岡県,福岡市博多区,博多駅東１丁目１３番１７号松岡ビル６階,,40,132,8120013,,,,,,,2022-12-09,1,,,,,タクミ,0
2499,9320001019461,新規,0,2022-12-09,2022-12-09,株式会社ｌａ　ｎｅｉｇｅ,,株式会社,大分県,大分市,生石港町２丁目１２番１５－１１０１号グリーンヒル生石港,,44,201,8700001,,,,,,,2022-12-09,1,,,,,ラネージュ,0
2501,9330003009617,新規,0,2022-12-09,2022-12-09,合同会社ゆう不動産,,合同会社,熊本県,熊本市東区,画図町大字重富５１４番地１１,,43,102,8620947,,,,,,,2022-12-09,1,,,,,ユウフドウサン,0
2510,9360001031289,新規,0,2022-12-09,2022-12-09,株式会社琉球エアコン,,株式会社,沖縄県,宜野湾市,野嵩４丁目２０番１号レオマコーポ１Ｆ,,47,205,9012203,,,,,,,2022-12-09,1,,,,,リュウキュウエアコン,0
2530,9390001017095,新規,0,2022-12-09,2022-12-09,株式会社二〇加屋大衆,,株式会社,山形県,山形市,香澄町２丁目２－４０第二柿崎ビル１Ｆ,,06,201,9900039,,,,,,,2022-12-09,1,,,,,ニワカヤタイシュウ,0
2538,9430001088017,新規,0,2022-12-09,2022-12-09,慶正産業株式会社,,株式会社,北海道,札幌市手稲区,前田八条１８丁目９番１５－１０１号,,01,109,0060818,,,,,,,2022-12-09,1,,,,,ケイセイサンギョウ,0
2540,9430003014524,新規,0,2022-12-09,2022-12-09,合同会社スクエアグラフ,,合同会社,北海道,札幌市南区,澄川五条１１丁目８－１０,,01,106,0050005,,,,,,,2022-12-09,1,,,,,スクエアグラフ,0
2556,9500005008541,新規,0,2022-12-09,2022-12-09,医療法人ことり歯科クリニック,,その他の設立登記法人,愛媛県,八幡浜市,昭和通１５１０－１１３,,38,204,7960037,,,,,,,2022-12-09,1,,,,,コトリシカクリニック,0
2563,9700150113332,新規,0,2022-12-09,2022-12-09,オーガニックビジネス研究所,,外国会社等,,,,,,,,Ｅｉｃｈｗａｌｄ　１９，８７５０９　Ｉｍｍｅｎｓｔａｄｔ　Ｇｅｒｍａｎｙ,,,,,,2022-12-09,1,,,,,オーガニツクビジネスケンキユウジヨ,0
