sequenceNumber,corporateNumber,process,correct,updateDate,changeDate,name,nameImageId,kind,prefectureName,cityName,streetNumber,addressImageId,prefectureCode,cityCode,postCode,addressOutside,addressOutsideImageId,closeDate,closeCause,successorCorporateNumber,changeCause,assignmentDate,latest,enName,enPrefectureName,enCityName,enAddressOutside,furigana,hihyoji
1,1010001061634,登記記録の閉鎖等,0,2026-01-07,2026-01-05,シヤチハタテクノ株式会社,,株式会社,愛知県,名古屋市西区,天塚町４丁目６９番地,,23,104,4510021,,,2026-01-05,合併による解散等,4180001025735,令和８年１月１日名古屋市西区天塚町四丁目６９番地シヤチハタ株式会社（4180001025735）に合併し解散,2015-10-05,1,,,,,シヤチハタテクノ,0
9,1010003045263,登記記録の閉鎖等,0,2026-01-07,2025-12-12,アイオンエックス合同会社,,合同会社,東京都,千代田区,神田須田町１丁目７番８号ＶＯＲＴ秋葉原ＩＶ２Ｆ,00136709,13,101,1010041,,,2025-12-12,清算の結了等,,,2024-10-22,1,,,,,アイオンエックス,0
26,1010403024734,登記記録の閉鎖等,0,2026-01-07,2026-01-05,ＡＳＨコンサルティング株式会社,,株式会社,東京都,世田谷区,宮坂３丁目２０番１６号,,13,112,1560051,,,2026-01-05,清算の結了等,,,2021-02-24,1,,,,,エーエスエイチコンサルティング,0
32,1010603008330,登記記録の閉鎖等,0,2026-01-07,2025-12-22,合同会社せんり,,合同会社,東京都,江東区,千石１丁目１４番３４号,,13,108,1350015,,,2025-12-22,清算の結了等,,,2020-05-18,1,,,,,センリ,0
42,1010901014781,登記記録の閉鎖等,0,2026-01-07,2025-12-23,株式会社東通クリエイティブ・ビジョン,,株式会社,東京都,大田区,平和島４丁目１番２３号,,13,111,1430006,,,2025-12-23,清算の結了等,,,2015-10-05,1,,,,,トウツウクリエイティブビジョン,0
47,1011001062259,登記記録の閉鎖等,0,2026-01-07,2025-12-09,株式会社センス,,株式会社,東京都,渋谷区,元代々木町１７番１３－４０１号,,13,113,1510062,,,2025-12-09,清算の結了等,,,2015-10-05,1,,,,,センス,0
54,1011001120405,登記記録の閉鎖等,0,2026-01-07,2025-12-09,株式会社ＧＡ－ＹＡ－ＣＨＡ,,株式会社,東京都,渋谷区,東３丁目１６番１号ベルザ恵比寿ビル６Ｆ,,13,113,1500011,,,2025-12-09,清算の結了等,,,2018-01-31,1,,,,,ガヤチャ,0
68,1011701016150,登記記録の閉鎖等,0,2026-01-07,2025-12-12,株式会社ドリフトエンタープライズ,,株式会社,東京都,江戸川区,中央２丁目３５番３号,,13,123,1320021,,,2025-12-12,清算の結了等,,,2015-10-05,1,,,,,ドリフトエンタープライズ,0
91,1020002047895,登記記録の閉鎖等,0,2026-01-07,2025-12-25,有限会社パルネット,,有限会社,神奈川県,横浜市青葉区,榎が丘５３番地３１,,14,117,2270063,,,2025-12-25,清算の結了等,,,2015-10-05,1,,,,,パルネット,0
96,1020005012252,登記記録の閉鎖等,0,2026-01-07,2025-12-26,一般社団法人神奈川県相続相談協会,,その他の設立登記法人,神奈川県,横浜市神奈川区,鶴屋町２丁目１０番１号ＭＩＮＤＡＮビル５階,,14,102,2210835,,,2025-12-26,清算の結了等,,,2015-10-05,1,,,,,カナガワケンソウゾクソウダンキョウカイ,0
99,1021001066639,登記記録の閉鎖等,0,2026-01-07,2025-12-12,株式会社デジサーフＲ＆Ｌ,,株式会社,神奈川県,藤沢市,辻堂神台２丁目２番１号アイクロス湘南８Ｆ,,14,205,2510041,,,2025-12-12,清算の結了等,,,2019-02-14,1,,,,,デジサーフアールアンドエル,0
111,1050001027937,登記記録の閉鎖等,0,2026-01-07,2025-12-12,株式会社のぼる,,株式会社,神奈川県,相模原市中央区,星が丘３丁目８番１６号,,14,152,2520238,,,2025-12-12,清算の結了等,,,2015-10-05,1,,,,,ノボル,0
115,1070001011352,登記記録の閉鎖等,0,2026-01-07,2025-12-26,株式会社シュクラン,,株式会社,群馬県,高崎市,八島町２９番地１１,,10,202,3700849,,,2025-12-26,清算の結了等,,,2015-10-05,1,,,,,シュクラン,0
116,1070002019320,登記記録の閉鎖等,0,2026-01-07,2026-01-05,有限会社多賀谷板金,,有限会社,群馬県,伊勢崎市,連取町１６０５番地,,10,204,3720812,,,2026-01-05,清算の結了等,,,2015-10-05,1,,,,,タガヤバンキン,0
117,1070003005146,登記記録の閉鎖等,0,2026-01-07,2025-12-26,すまいる合同会社,,合同会社,群馬県,高崎市,吉井町南陽台２丁目１３番地９,,10,202,3702101,,,2025-12-26,清算の結了等,,,2023-10-25,1,,,,,スマイル,0
118,1080001009940,登記記録の閉鎖等,0,2026-01-07,2025-12-25,株式会社アプレコ,,株式会社,静岡県,静岡市駿河区,南町１１番１号,,22,102,4228067,,,2025-12-25,清算の結了等,,,2015-10-05,1,,,,,アプレコ,0
124,1100001034465,登記記録の閉鎖等,0,2026-01-07,2025-12-26,Ｒｕｓｈｆｉｌｅｓ　Ｊａｐａｎ株式会社,,株式会社,長野県,長野市,南県町１０８２番地,,20,201,3810000,,,2025-12-26,清算の結了等,,,2021-07-27,1,,,,,ラッシュファイルズジャパン,0
130,1120001140344,登記記録の閉鎖等,0,2026-01-07,2025-12-26,株式会社凡,,株式会社,大阪府,大阪市中央区,北浜３丁目２番２５号,,27,128,5410041,,,2025-12-26,清算の結了等,,,2015-10-05,1,,,,,ボン,0
137,1120001260951,登記記録の閉鎖等,0,2026-01-07,2025-12-26,株式会社親和建設,,株式会社,大阪府,大阪市淀川区,西中島７丁目１番１号９階,,27,123,5320011,,,2025-12-26,清算の結了等,,,2023-12-27,1,,,,,シンワケンセツ,0
150,1120901051401,登記記録の閉鎖等,0,2026-01-07,2025-12-26,株式会社クリプトーチ,,株式会社,大阪府,吹田市,広芝町８－１６ミラクルセブン江坂５０７,,27,205,5640052,,,2025-12-26,清算の結了等,,,2025-08-28,1,,,,,クリプトーチ,0
179,1160001010007,登記記録の閉鎖等,0,2026-01-07,2025-12-22,メープル・プランニング株式会社,,株式会社,滋賀県,東近江市,栄町６番２５号,,25,213,5270027,,,2025-12-22,清算の結了等,,,2015-10-05,1,,,,,メープルプランニング,0
187,1180001130793,登記記録の閉鎖等,0,2026-01-07,2025-12-26,株式会社Ｉ－ｓｈａｒｅ,,株式会社,愛知県,名古屋市守山区,太田井４番１６号,,23,113,4630044,,,2025-12-26,清算の結了等,,,2018-01-16,1,,,,,アイシェア,0
188,1180001133128,登記記録の閉鎖等,0,2026-01-07,2026-01-05,株式会社ＴＡＫＵＭＩ－ＢＡＳＥ,,株式会社,愛知県,一宮市,北園通３丁目２番地,,23,203,4910854,,,2026-01-05,合併による解散等,4180001060121,令和８年１月１日名古屋市中区栄三丁目１８番１号株式会社ＩＴＡＧＥ　ＧＬＯＢＡＬ（4180001060121）に合併し解散,2018-07-23,1,,,,,タクミベース,0
195,1180001156087,登記記録の閉鎖等,0,2026-01-07,2025-12-26,シースリームーヴ株式会社,,株式会社,愛知県,名古屋市中区,大須３丁目３０番４０号,,23,106,4600011,,,2025-12-26,清算の結了等,,,2023-05-02,1,,,,,シースリームーヴ,0
212,1220001005727,登記記録の閉鎖等,0,2026-01-07,2026-01-05,株式会社ジャストロジスティクス,,株式会社,石川県,金沢市,福増町南１１４番地１３,,17,201,9200376,,,2026-01-05,合併による解散等,6220001007611,令和８年１月１日石川県金沢市福増町北８５５番地若松梱包運輸倉庫株式会社（6220001007611）に合併し解散,2015-10-05,1,,,,,ジャストロジスティクス,0
220,1240001063764,登記記録の閉鎖等,0,2026-01-07,2026-01-05,ミカドテラス株式会社,,株式会社,広島県,呉市,仁方本町３丁目７番１２号,,34,202,7370152,,,2026-01-05,清算の結了等,,,2024-09-03,1,,,,,ミカドテラス,0
234,1290002013722,登記記録の閉鎖等,0,2026-01-07,2025-12-16,有限会社ラプンツエル,,有限会社,福岡県,福岡市中央区,舞鶴３丁目３番１３－６０４号,,40,133,8100073,,,2025-12-16,清算の結了等,,,2015-10-05,1,,,,,ラプンツエエル,0
245,1310002004108,登記記録の閉鎖等,0,2026-01-07,2026-01-05,有限会社肉の松万,,有限会社,長崎県,長崎市,万屋町５番３３号,,42,201,8500852,,,2026-01-05,清算の結了等,,,2015-10-05,1,,,,,ニクノマツマン,0
252,1330001031282,登記記録の閉鎖等,0,2026-01-07,2025-12-25,熊本システムメンテナンス株式会社,,株式会社,熊本県,上益城郡甲佐町,大字府領２１８２番地４２,,43,444,8614615,,,2025-12-25,清算の結了等,,,2023-09-27,1,,,,,クマモトシステムメンテナンス,0
256,1370001001744,登記記録の閉鎖等,0,2026-01-07,2025-12-26,株式会社三和,,株式会社,宮城県,仙台市太白区,八木山本町２丁目３３番地の１７,,04,104,9820801,,,2025-12-26,清算の結了等,,,2015-10-05,1,,,,,サンワ,0
264,1390001008614,登記記録の閉鎖等,0,2026-01-07,2026-01-05,東北鉄筋興業株式会社,,株式会社,山形県,新庄市,大字萩野字横根山１００番地,,06,205,9995102,,,2026-01-05,合併による解散等,5390001008627,令和８年１月１日山形県新庄市大字鳥越１７８０番地１沼田建設株式会社（5390001008627）に合併し解散,2015-10-05,1,,,,,トウホクテッキンコウギョウ,0
266,1390002005684,登記記録の閉鎖等,0,2026-01-07,2025-12-25,有限會社蜂谷鉄工所,,有限会社,山形県,天童市,大字山口７４番地,,06,210,9940101,,,2025-12-25,清算の結了等,,,2015-10-05,1,,,,,ハチヤテッコウジョ,0
270,1410002010335,登記記録の閉鎖等,0,2026-01-07,2026-01-05,有限会社測地技術,,有限会社,秋田県,能代市,字町後１９番地４,,05,202,0160132,,,2026-01-05,清算の結了等,,,2015-10-05,1,,,,,ソクチギジュツ,0
272,1420002007396,登記記録の閉鎖等,0,2026-01-07,2025-12-24,有限会社松浦工業所,,有限会社,青森県,八戸市,小中野４丁目１番３８号,,02,203,0310802,,,2025-12-24,清算の結了等,,,2015-10-05,1,,,,,マツウラコウギョウショ,0
276,1430002027352,登記記録の閉鎖等,0,2026-01-07,2026-01-05,有限会社山口建築リフォーム,,有限会社,北海道,札幌市南区,南沢三条３丁目２番６号,,01,106,0050823,,,2026-01-05,清算の結了等,,,2015-10-05,1,,,,,ヤマグチケンチクリフォーム,0
283,1490001004677,登記記録の閉鎖等,0,2026-01-07,2026-01-05,株式会社秀コーポレーション,,株式会社,高知県,高知市,比島町３丁目１８番２１号,,39,201,7800066,,,2026-01-05,清算の結了等,,,2015-10-05,1,,,,,シュウコーポレーション,0
284,1490003001409,登記記録の閉鎖等,0,2026-01-07,2026-01-05,合同会社笑福,,合同会社,高知県,高知市,長尾山町３６番地,,39,201,7800953,,,2026-01-05,清算の結了等,,,2020-02-28,1,,,,,,0
303,2010002053381,登記記録の閉鎖等,0,2026-01-07,2025-12-25,有限会社ホリサン・インコーポレーション,,有限会社,東京都,狛江市,岩戸南３丁目１７番６号,,13,219,2010005,,,2025-12-25,清算の結了等,,,2015-10-05,1,,,,,ホリサンインコーポレーション,0
304,2010003037029,登記記録の閉鎖等,0,2026-01-07,2025-12-12,合同会社福島トランジション,,合同会社,東京都,千代田区,丸の内１丁目４番１号東京共同会計事務所内,,13,101,1000005,,,2025-12-12,清算の結了等,,,2022-02-17,1,,,,,フクシマトランジション,0
308,2010005025592,登記記録の閉鎖等,0,2026-01-07,2025-12-26,一般社団法人日本花火推進協力会,,その他の設立登記法人,東京都,中央区,日本橋本町４丁目５番１２号,,13,102,1030023,,,2025-12-26,清算の結了等,,,2016-07-27,1,,,,,ニホンハナビスイシンキョウリョクカイ,0
319,2010503005724,登記記録の閉鎖等,0,2026-01-07,2025-12-23,合同会社ハレもち,,合同会社,東京都,台東区,根岸３丁目７番１８号,,13,106,1100003,,,2025-12-23,清算の結了等,,,2019-10-08,1,,,,,ハレモチ,0
323,2010601052783,登記記録の閉鎖等,0,2026-01-07,2025-12-22,太田クリエーション株式会社,,株式会社,東京都,江東区,石島１１番１３号,,13,108,1350014,,,2025-12-22,清算の結了等,,,2018-01-24,1,,,,,オオタクリエーション,0
334,2011001016346,登記記録の閉鎖等,0,2026-01-07,2025-12-08,東京自動車工業株式会社,,株式会社,東京都,渋谷区,千駄ヶ谷３丁目１３番地１４号清和ビル７０１号室,,13,113,1510051,,,2025-12-08,清算の結了等,,,2015-10-05,1,,,,,トウキョウジドウシャコウギョウ,0
367,2020005014256,登記記録の閉鎖等,0,2026-01-07,2025-12-26,ＮＰＯ法人南の和,,その他の設立登記法人,神奈川県,横浜市旭区,善部町５番地３２,,14,112,2410823,,,2025-12-26,清算の結了等,,,2019-08-02,1,,,,,ミナミノワ,0
370,2021003005478,登記記録の閉鎖等,0,2026-01-07,2025-12-12,合同会社鎌倉カルツォーネ,,合同会社,神奈川県,鎌倉市,手広３丁目１３番１号,,14,204,2480036,,,2025-12-12,清算の結了等,,,2015-10-05,1,,,,,カマクラカルツォーネ,0
384,2040002034197,登記記録の閉鎖等,0,2026-01-07,2025-12-09,有限会社サンセイキ,,有限会社,千葉県,市川市,宮久保１丁目２５番５号,,12,203,2720822,,,2025-12-09,清算の結了等,,,2015-10-05,1,,,,,サンセイキ,0
392,2070001027050,登記記録の閉鎖等,0,2026-01-07,2026-01-05,株式会社高美装,,株式会社,群馬県,伊勢崎市,赤堀鹿島町６８９番地６,,10,204,3792202,,,2026-01-05,清算の結了等,,,2015-10-05,1,,,,,タカビソウ,0
393,2070001030772,登記記録の閉鎖等,0,2026-01-07,2025-12-24,エース株式会社,,株式会社,群馬県,太田市,内ケ島町１５６７番地５,,10,205,3730813,,,2025-12-24,清算の結了等,,,2015-10-05,1,,,,,エース,0
403,2100002003724,登記記録の閉鎖等,0,2026-01-07,2025-12-26,有限会社長野ロック,,有限会社,長野県,長野市,大字若槻団地１番地２９０,,20,201,3810051,,,2025-12-26,清算の結了等,,,2015-10-05,1,,,,,ナガノロック,0
413,2120001126672,登記記録の閉鎖等,0,2026-01-07,2026-01-05,株式会社ＯＫＡ,,株式会社,大阪府,大阪市都島区,善源寺町２丁目２番８－３８０４号,,27,102,5340015,,,2026-01-05,清算の結了等,,,2015-10-05,1,,,,,オカ,0
414,2120001173657,登記記録の閉鎖等,0,2026-01-07,2026-01-05,久門設備株式会社,,株式会社,大阪府,守口市,菊水通１丁目９番９号,,27,209,5700032,,,2026-01-05,清算の結了等,,,2015-10-05,1,,,,,ヒサカドセツビ,0
417,2120001227751,登記記録の閉鎖等,0,2026-01-07,2026-01-05,株式会社ＳＴＯＬＡＳＨ,,株式会社,大阪府,大阪市阿倍野区,王子町１丁目５番１１号ルビナス阿倍野１階,,27,119,5450023,,,2026-01-05,清算の結了等,,,2020-03-11,1,,,,,ストラッシュ,0
429,2120003011864,登記記録の閉鎖等,0,2026-01-07,2025-12-26,クオンヒール合同会社,,合同会社,大阪府,大阪市中央区,内本町１丁目４番１５号クリスタルブライト本町東２階,,27,128,5400026,,,2025-12-26,合併による解散等,6120001214416,令和７年１２月２６日大阪市中央区本町橋８番１７号ａｒｃａｍｉ株式会社（6120001214416）に合併し解散,2016-08-01,1,,,,,クオンヒール,0
433,2120105008569,登記記録の閉鎖等,0,2026-01-07,2025-12-25,特定非営利活動法人ニード・ユー,,その他の設立登記法人,大阪府,羽曳野市,西浦１２０６番地の１,,27,222,5830861,,,2025-12-25,清算の結了等,,,2016-09-27,1,,,,,ニードユー,0
438,2130001029552,登記記録の閉鎖等,0,2026-01-07,2026-01-05,株式会社イーステージ,,株式会社,京都府,京都市山科区,栗栖野打越町４８番４,,26,110,6078203,,,2026-01-05,清算の結了等,,,2015-10-05,1,,,,,イーステージ,0
442,2130002007581,登記記録の閉鎖等,0,2026-01-07,2025-12-23,有限会社長砂ビル,,有限会社,京都府,京都市下京区,東洞院通四条下る元悪王子町４６番地４やさか長砂ビル４階,,26,106,6008091,,,2025-12-23,清算の結了等,,,2015-10-05,1,,,,,ナガスナビル,0
445,2140001105526,登記記録の閉鎖等,0,2026-01-07,2025-12-26,株式会社わさら,,株式会社,兵庫県,神戸市中央区,小野柄通５丁目１－１３－１０１,,28,110,6510088,,,2025-12-26,清算の結了等,,,2017-03-23,1,,,,,ワサラ,0
468,2180301017434,登記記録の閉鎖等,0,2026-01-07,2025-12-18,株式会社ＴＲＴ,,株式会社,愛知県,碧南市,山神町３丁目１８番地４,,23,209,4470869,,,2025-12-18,清算の結了等,,,2015-10-05,1,,,,,ティアールティ,0
478,2220001009529,登記記録の閉鎖等,0,2026-01-07,2026-01-05,若松運輸株式会社,,株式会社,石川県,白山市,宮永町２８４８番地,,17,210,9240017,,,2026-01-05,合併による解散等,6220001007611,令和８年１月１日石川県金沢市福増町北８５５番地若松梱包運輸倉庫株式会社（6220001007611）に合併し解散,2015-10-05,1,,,,,ワカマツウンユ,0
479,2220001014891,登記記録の閉鎖等,0,2026-01-07,2026-01-05,日本物流マネジメント株式会社,,株式会社,石川県,金沢市,福増町南１１４番地１３,,17,201,9200376,,,2026-01-05,合併による解散等,6220001007611,令和８年１月１日石川県金沢市福増町北８５５番地若松梱包運輸倉庫株式会社（6220001007611）に合併し解散,2015-10-05,1,,,,,ニッポンブツリュウマネジメント,0
486,2240002013536,登記記録の閉鎖等,0,2026-01-07,2025-12-26,有限会社ハマイ,,有限会社,広島県,広島市中区,大手町３丁目３番６－３０１号,,34,101,7300051,,,2025-12-26,清算の結了等,,,2015-10-05,1,,,,,ハマイ,0
501,2290002037233,登記記録の閉鎖等,0,2026-01-07,2025-12-16,有限会社ユニテック造型,,有限会社,福岡県,糟屋郡須惠町,大字植木１２６５番地,,40,344,8112112,,,2025-12-16,清算の結了等,,,2015-10-05,1,,,,,ユニテックゾウケイ,0
505,2300002002359,登記記録の閉鎖等,0,2026-01-07,2026-01-05,有限会社ピーアール佐賀,,有限会社,佐賀県,佐賀市,神野東３丁目１番３７号,,41,201,8400804,,,2026-01-05,清算の結了等,,,2015-10-05,1,,,,,,0
515,2340002010688,登記記録の閉鎖等,0,2026-01-07,2025-12-26,有限会社加治木サッシ,,有限会社,鹿児島県,日置市,伊集院町徳重１０３２番地１１,,46,216,8992502,,,2025-12-26,清算の結了等,,,2015-10-05,1,,,,,カジキサッシ,0
521,2370001046689,登記記録の閉鎖等,0,2026-01-07,2025-12-25,株式会社うみねこカンパニー,,株式会社,宮城県,石巻市,桃浦字蛤浜９番地,,04,202,9862354,,,2025-12-25,清算の結了等,,,2021-02-10,1,,,,,ウミネコカンパニー,0
529,2400002001400,登記記録の閉鎖等,0,2026-01-07,2025-12-25,有限会社佐々木自転車商会,,有限会社,岩手県,盛岡市,北天昌寺町１６番４８号,,03,201,0200136,,,2025-12-25,清算の結了等,,,2015-10-05,1,,,,,ササキジテンシャショウカイ,0
533,2420002001506,登記記録の閉鎖等,0,2026-01-07,2025-12-26,有限会社左古右,,有限会社,青森県,青森市,中央１丁目２１番２１号,,02,201,0300822,,,2025-12-26,清算の結了等,,,2015-10-05,1,,,,,サコウ,0
536,2430001065328,登記記録の閉鎖等,0,2026-01-07,2026-01-05,Ｈｏｕｓｅ　ｐｌａｎｎｅｒ　ＨＪＳ株式会社,,株式会社,北海道,札幌市北区,北二十四条西１６丁目１番３号,,01,102,0010024,,,2026-01-05,清算の結了等,,,2015-10-05,1,,,,,ハウスプランナーエイチジェーエス,0
542,2460002000306,登記記録の閉鎖等,0,2026-01-07,2026-01-05,有限会社うちや美容室,,有限会社,北海道,札幌市中央区,南三条西１０丁目１００２番地１,,01,101,0600063,,,2026-01-05,清算の結了等,,,2015-10-05,1,,,,,ウチヤビヨウシツ,0
545,2460301000683,登記記録の閉鎖等,0,2026-01-07,2026-01-05,株式会社ときわスポーツ,,株式会社,北海道,北見市,光西町２０８番地,,01,208,0900835,,,2026-01-05,清算の結了等,,,2015-10-05,1,,,,,トキワスポーツ,0
548,2480002015260,登記記録の閉鎖等,0,2026-01-07,2026-01-05,有限会社枝川新聞舗,,有限会社,徳島県,美馬市,脇町大字脇町１２９８番地１,,36,207,7793610,,,2026-01-05,清算の結了等,,,2015-10-05,1,,,,,エダガワシンブンホ,0
551,2490001007159,登記記録の閉鎖等,0,2026-01-07,2026-01-05,株式会社優輝,,株式会社,高知県,高知市,青柳町５０番地６,,39,201,7810813,,,2026-01-05,清算の結了等,,,2015-10-05,1,,,,,ユウキ,0
572,3010401126118,登記記録の閉鎖等,0,2026-01-07,2025-12-09,御海東京株式会社,,株式会社,東京都,港区,麻布十番２丁目６番３号,,13,103,1060045,,,2025-12-09,清算の結了等,,,2016-07-28,1,,,,,ミウミトウキョウ,0
579,3010403028576,登記記録の閉鎖等,0,2026-01-07,2025-12-09,ミティアンファンド１号合同会社,,合同会社,東京都,港区,虎ノ門１丁目１番１１号マスダビル５階Ａ号室,,13,103,1050001,,,2025-12-09,清算の結了等,,,2022-10-17,1,,,,,ミティアンファンドイチゴウ,0
590,3010801018583,登記記録の閉鎖等,0,2026-01-07,2025-12-26,中藤工業設計株式会社,,株式会社,神奈川県,横浜市南区,六ッ川二丁目３番地の１４７,,14,105,2320000,,,2025-12-26,清算の結了等,,,2015-10-05,1,,,,,ナカフジコウギョウセッケイ,0
594,3010901004723,登記記録の閉鎖等,0,2026-01-07,2025-12-24,佐々木建設工業株式会社,,株式会社,東京都,調布市,入間町１丁目１２番地１５,,13,208,1820004,,,2025-12-24,清算の結了等,,,2015-10-05,1,,,,,ササキケンセツコウギョウ,0
617,3011302001970,登記記録の閉鎖等,0,2026-01-07,2025-12-17,有限会社押阪企画,,有限会社,東京都,杉並区,高井戸東３丁目９番２号,,13,115,1680072,,,2025-12-17,清算の結了等,,,2015-10-05,1,,,,,オシザカキカク,0
619,3011401024947,登記記録の閉鎖等,0,2026-01-07,2026-01-05,株式会社ＴＩプランニング,,株式会社,東京都,板橋区,徳丸６丁目１１番１０号,,13,119,1750083,,,2026-01-05,清算の結了等,,,2023-03-06,1,,,,,ティーアイプランニング,0
621,3011501000369,登記記録の閉鎖等,0,2026-01-07,2025-12-26,株式会社イ鈴,,株式会社,東京都,北区,神谷３丁目４８番７号,,13,117,1150043,,,2025-12-26,清算の結了等,,,2015-10-05,1,,,,,,0
633,3020001026915,登記記録の閉鎖等,0,2026-01-07,2025-12-23,株式会社シーメンズ・ソフト,,株式会社,東京都,練馬区,北町２丁目３１番７号ドエルシマ３０１号,,13,120,1790081,,,2025-12-23,清算の結了等,,,2015-10-05,1,,,,,シーメンズソフト,0
644,3020005006079,登記記録の閉鎖等,0,2026-01-07,2025-12-25,特定非営利活動法人ヒューマンフェローシップ,,その他の設立登記法人,神奈川県,横浜市磯子区,東町９番９号,,14,107,2350005,,,2025-12-25,清算の結了等,,,2015-10-05,1,,,,,ヒューマンフェローシップ,0
646,3021001024603,登記記録の閉鎖等,0,2026-01-07,2025-12-12,株式会社フロンティア,,株式会社,神奈川県,厚木市,三田３丁目１７番３０号,,14,212,2430211,,,2025-12-12,清算の結了等,,,2015-10-05,1,,,,,フロンティア,0
649,3030001076109,登記記録の閉鎖等,0,2026-01-07,2025-12-24,株式会社ティーピーエス,,株式会社,埼玉県,川口市,江戸３丁目３３番１６号,,11,203,3340074,,,2025-12-24,清算の結了等,,,2015-10-05,1,,,,,ティーピーエス,0
656,3030002075596,登記記録の閉鎖等,0,2026-01-07,2025-12-24,有限会社ライヴ,,有限会社,埼玉県,川越市,宮元町１３番地１５,,11,201,3500838,,,2025-12-24,清算の結了等,,,2015-10-05,1,,,,,ライブ,0
667,3050005002166,登記記録の閉鎖等,0,2026-01-07,2025-12-23,特定非営利活動法人茨城県地域密着型介護サービス協議会,00023567,その他の設立登記法人,茨城県,水戸市,平須町９５５番地１,,08,201,3100853,,,2025-12-23,清算の結了等,,,2015-10-05,1,,,,,イバラキケンチイキミッチャクガタカイゴサービスキョウギカイ,0
673,3080001016943,登記記録の閉鎖等,0,2026-01-07,2025-12-26,株式会社薮崎サプライ,00067368,株式会社,静岡県,藤枝市,岡部町桂島１１３１番地,,22,214,4211113,,,2025-12-26,清算の結了等,,,2015-10-05,1,,,,,ヤブザキサプライ,0
681,3110002023019,登記記録の閉鎖等,0,2026-01-07,2025-12-25,有限会社ダイワ技建,,有限会社,新潟県,上越市,南本町２丁目１４番１１号,,15,222,9430841,,,2025-12-25,清算の結了等,,,2015-10-05,1,,,,,ダイワギケン,0
682,3110002026814,登記記録の閉鎖等,0,2026-01-07,2025-12-25,有限会社伊藤電機,,有限会社,新潟県,長岡市,下柳２丁目５番１０号,,15,202,9402013,,,2025-12-25,清算の結了等,,,2015-10-05,1,,,,,イトウデンキ,0
693,3120001251321,登記記録の閉鎖等,0,2026-01-07,2026-01-05,黒石株式会社,,株式会社,大阪府,大阪市浪速区,浪速東１丁目２番３号３０２号室,,27,111,5560025,,,2026-01-05,清算の結了等,,,2022-12-26,1,,,,,ブラックストーン,0
700,3120002008324,登記記録の閉鎖等,0,2026-01-07,2026-01-05,有限会社竹内商会,,有限会社,大阪府,大阪市城東区,東中浜９丁目４番５号,,27,118,5360023,,,2026-01-05,清算の結了等,,,2015-10-05,1,,,,,タケウチショウカイ,0
713,3130001036515,登記記録の閉鎖等,0,2026-01-07,2026-01-05,株式会社和勝,,株式会社,京都府,京都市南区,上鳥羽鍋ケ淵町５９７番地,,26,107,6018172,,,2026-01-05,清算の結了等,,,2015-10-05,1,,,,,,0
727,3140002060521,登記記録の閉鎖等,0,2026-01-07,2025-12-25,有限会社小河乃菊,,有限会社,兵庫県,西宮市,松園町１３番３号,,28,204,6620053,,,2025-12-25,清算の結了等,,,2015-10-05,1,,,,,オガワノキク,0
744,3180003022194,登記記録の閉鎖等,0,2026-01-07,2025-12-26,合同会社ＫＳペイント,,合同会社,愛知県,名古屋市中村区,権現通１丁目３５番地,,23,105,4530807,,,2025-12-26,清算の結了等,,,2021-02-26,1,,,,,ケーエスペイント,0
747,3190001022591,登記記録の閉鎖等,0,2026-01-07,2025-12-25,株式会社ニコちゃん,,株式会社,三重県,南牟婁郡紀宝町,井田１２９０番地９,,24,562,5195711,,,2025-12-25,清算の結了等,,,2015-10-05,1,,,,,ニコチャン,0
748,3190001028663,登記記録の閉鎖等,0,2026-01-07,2026-01-06,株式会社Ｌｕｚ,,株式会社,三重県,四日市市,高角町１０４５－４,,24,202,5120923,,,2026-01-06,清算の結了等,,,2021-09-03,1,,,,,ルース,0
752,3190005007267,登記記録の閉鎖等,0,2026-01-07,2025-12-26,双葉漁業生産組合,,その他の設立登記法人,三重県,度会郡大紀町,錦８７６番地の５,,24,471,5192911,,,2025-12-26,清算の結了等,,,2015-10-05,1,,,,,フタバ,0
753,3190005007746,登記記録の閉鎖等,0,2026-01-07,2025-12-26,医療法人社団水谷歯科クリニック,,その他の設立登記法人,三重県,桑名市,大字芳ケ崎１２５８番地の１,,24,205,5110944,,,2025-12-26,清算の結了等,,,2015-10-05,1,,,,,ミズタニシカクリニック,0
764,3220002013289,登記記録の閉鎖等,0,2026-01-07,2026-01-05,有限会社ヒライ・テック,,有限会社,石川県,小松市,西軽海町３丁目１３番地,,17,203,9230825,,,2026-01-05,清算の結了等,,,2015-10-05,1,,,,,ヒライテック,0
767,3230002011440,登記記録の閉鎖等,0,2026-01-07,2025-12-26,有限会社竹内商店,,有限会社,富山県,高岡市,羽広５１０番地,,16,202,9330844,,,2025-12-26,清算の結了等,,,2015-10-05,1,,,,,タケウチショウテン,0
768,3230003002315,登記記録の閉鎖等,0,2026-01-07,2026-01-05,Ｉｎｓｐｉｒｅ　Ｖｏｌｔ合同会社,,合同会社,富山県,射水市,戸破１１５８番地５,,16,211,9390351,,,2026-01-05,清算の結了等,,,2024-10-15,1,,,,,インスパイアヴォルト,0
784,3290001079176,登記記録の閉鎖等,0,2026-01-07,2025-12-18,株式会社カルナ,,株式会社,福岡県,春日市,天神山３丁目７８番地,,40,218,8160855,,,2025-12-18,清算の結了等,,,2017-09-27,1,,,,,カルナ,0
786,3290001093053,登記記録の閉鎖等,0,2026-01-07,2025-12-17,株式会社Ｎｅｗ　Ｒｕｌｅｓ　Ｉｎｎｏｖａｔｉｏｎ,,株式会社,福岡県,福岡市南区,老司５丁目４２番１０号,,40,134,8111346,,,2025-12-17,清算の結了等,,,2021-05-10,1,,,,,ニュールールズイノベーション,0
794,3310001009824,登記記録の閉鎖等,0,2026-01-07,2026-01-05,株式会社松本,,株式会社,長崎県,南島原市,西有家町須川３４７番地,,42,214,8592212,,,2026-01-05,清算の結了等,,,2015-10-05,1,,,,,,0
799,3340001016529,登記記録の閉鎖等,0,2026-01-07,2025-12-25,甫与志岳粗飼料生産株式会社,,株式会社,鹿児島県,肝属郡肝付町,前田３５５９番地２,,46,492,8931206,,,2025-12-25,清算の結了等,,,2015-10-05,1,,,,,ホヨシダケソシリョウセイサン,0
809,3370002013919,登記記録の閉鎖等,0,2026-01-07,2025-12-26,有限会社山口商店,,有限会社,宮城県,仙台市青葉区,中央２丁目６番１号,,04,101,9800021,,,2025-12-26,清算の結了等,,,2015-10-05,1,,,,,ヤマグチショウテン,0
810,3370202003075,登記記録の閉鎖等,0,2026-01-07,2025-12-25,有限会社綜合衣料秋田屋,,有限会社,宮城県,大崎市,鳴子温泉字新屋敷８０番地の２,,04,215,9896822,,,2025-12-25,清算の結了等,,,2015-10-05,1,,,,,ソウゴウイリョウアキタヤ,0
822,3460101005774,登記記録の閉鎖等,0,2026-01-07,2025-12-25,株式会社幸寄,,株式会社,北海道,河東郡音更町,新通５丁目２番地３,,01,631,0800104,,,2025-12-25,清算の結了等,,,2015-10-05,1,,,,,コヨリ,0
824,3490002004187,登記記録の閉鎖等,0,2026-01-07,2026-01-05,有限会社浜口保険事務所,,有限会社,高知県,高知市,種崎１２７番地４,,39,201,7810113,,,2026-01-05,清算の結了等,,,2015-10-05,1,,,,,ハマグチホケンジムショ,0
829,3500001023418,登記記録の閉鎖等,0,2026-01-07,2026-01-05,株式会社エシカル,,株式会社,愛媛県,松山市,久万ノ台７０６番地３,,38,201,7918016,,,2026-01-05,清算の結了等,,,2021-05-12,1,,,,,エシカル,0
833,4010001080367,登記記録の閉鎖等,0,2026-01-07,2025-12-12,メディカルドメイン株式会社,,株式会社,東京都,千代田区,内神田１丁目１３番１号,,13,101,1010047,,,2025-12-12,清算の結了等,,,2015-10-05,1,,,,,メディカルドメイン,0
852,4010402003397,登記記録の閉鎖等,0,2026-01-07,2025-12-10,有限会社元祖札幌や,,有限会社,東京都,港区,西新橋１丁目１９番６号,,13,103,1050003,,,2025-12-10,清算の結了等,,,2015-10-05,1,,,,,,0
873,4011001137140,登記記録の閉鎖等,0,2026-01-07,2025-12-09,アーリーミュージックカンパニー・ジャパン株式会社,,株式会社,東京都,渋谷区,渋谷３丁目１番９号Ｙａｚａｗａビル４階,,13,113,1500002,,,2025-12-09,清算の結了等,,,2020-11-25,1,,,,,アーリーミュージックカンパニージャパン,0
875,4011001165711,登記記録の閉鎖等,0,2026-01-07,2025-11-12,株式会社自游自在,,株式会社,東京都,渋谷区,道玄坂１丁目１６－６二葉ビル８ｂ,,13,113,1500043,,,2025-11-12,清算の結了等,,,2024-11-18,1,,,,,ジユウジザイ,0
899,4011805000717,登記記録の閉鎖等,0,2026-01-07,2025-12-25,医療法人社団安心会,,その他の設立登記法人,東京都,葛飾区,柴又５丁目８番３号グランコート１階,,13,122,1250052,,,2025-12-25,清算の結了等,,,2015-10-05,1,,,,,アンシンカイ,0
903,4013301014300,登記記録の閉鎖等,0,2026-01-07,2025-12-22,大塚メンテナンス株式会社,,株式会社,東京都,豊島区,北大塚２丁目２０番４号,,13,116,1700004,,,2025-12-22,合併による解散等,4013301002296,令和７年１２月２２日東京都豊島区北大塚二丁目２０番４号大塚ビル株式会社（4013301002296）に合併し解散,2015-10-05,1,,,,,オオツカメンテナンス,0
912,4021001035351,登記記録の閉鎖等,0,2026-01-07,2025-12-15,株式会社アッドプラン,,株式会社,神奈川県,足柄上郡松田町,松田惣領１３６７番地１,,14,363,2580003,,,2025-12-15,清算の結了等,,,2015-10-05,1,,,,,アッドプラン,0
914,4021002024642,登記記録の閉鎖等,0,2026-01-07,2025-12-12,有限会社美藤塗装工業所,,有限会社,神奈川県,相模原市中央区,宮下２丁目１１番１４号,,14,152,2520212,,,2025-12-12,清算の結了等,,,2015-10-05,1,,,,,ミフジトソウコウギョウショ,0
915,4021002052503,登記記録の閉鎖等,0,2026-01-07,2025-12-12,有限会社塚本建築設計事務所,,有限会社,神奈川県,小田原市,寿町４丁目８番３９号,,14,206,2500002,,,2025-12-12,清算の結了等,,,2015-10-05,1,,,,,ツカモトケンチクセッケイジムショ,0
926,4030003025459,登記記録の閉鎖等,0,2026-01-07,2025-12-24,合同会社Ｓｐｏｒｔｅｍ,,合同会社,埼玉県,川口市,前川２丁目３０－８,,11,203,3330842,,,2025-12-24,清算の結了等,,,2024-11-12,1,,,,,スポーテム,0
929,4040001122777,登記記録の閉鎖等,0,2026-01-07,2025-11-20,株式会社まじ門,,株式会社,千葉県,市原市,東国吉９０４番地２,,12,219,2900163,,,2025-11-20,清算の結了等,,,2022-03-30,1,,,,,マジモン,0
931,4040002095972,登記記録の閉鎖等,0,2026-01-07,2025-12-09,有限会社二石,,有限会社,千葉県,柏市,根戸１０３番地１０パークレジナス１１１３号,,12,217,2770831,,,2025-12-09,清算の結了等,,,2015-10-05,1,,,,,ニセキ,0
952,4100001031765,登記記録の閉鎖等,0,2026-01-07,2026-01-05,ＮＶ　ＮＥＴ株式会社,,株式会社,長野県,長野市,川中島町原１３１６番地５,,20,201,3812224,,,2026-01-05,清算の結了等,,,2018-11-19,1,,,,,エヌブイネット,0
956,4100005008000,登記記録の閉鎖等,0,2026-01-07,2025-12-26,医療法人アンファン,,その他の設立登記法人,長野県,諏訪市,上川３丁目２５０６番地２,,20,206,3920021,,,2025-12-26,清算の結了等,,,2015-10-05,1,,,,,アンファン,0
980,4130001075990,登記記録の閉鎖等,0,2026-01-07,2025-12-25,株式会社ＰＥＡＣＥ１,,株式会社,京都府,京都市南区,西九条南田町１－４東寺ハイム１０３,,26,107,6018441,,,2025-12-25,清算の結了等,,,2023-12-26,1,,,,,ピースワン,0
1007,4180002071448,登記記録の閉鎖等,0,2026-01-07,2025-12-18,有限会社アイクムニイー,,有限会社,愛知県,瀬戸市,陶原町２丁目１４番地,,23,204,4890805,,,2025-12-18,清算の結了等,,,2015-10-05,1,,,,,アイクムニイー,0
1024,4250001000458,登記記録の閉鎖等,0,2026-01-07,2026-01-06,株式会社東亜,,株式会社,山口県,山口市,吉敷赤田４丁目３番３０号,,35,203,7530817,,,2026-01-06,清算の結了等,,,2015-10-05,1,,,,,トウア,0
1031,4290001041390,登記記録の閉鎖等,0,2026-01-07,2025-12-16,株式会社カネヒロ,,株式会社,福岡県,春日市,白水ヶ丘３丁目１６番地,,40,218,8160845,,,2025-12-16,清算の結了等,,,2015-10-05,1,,,,,カネヒロ,0
1039,4290002036349,登記記録の閉鎖等,0,2026-01-07,2025-12-19,有限会社五徳商会,,有限会社,福岡県,糟屋郡篠栗町,大字乙犬７７９番地の８,,40,342,8112412,,,2025-12-19,清算の結了等,,,2015-10-05,1,,,,,ゴトクショウカイ,0
1040,4290005013436,登記記録の閉鎖等,0,2026-01-07,2025-12-25,一般社団法人空,,その他の設立登記法人,福岡県,筑紫野市,大字永岡１４５３番地２,,40,217,8180066,,,2025-12-25,清算の結了等,,,2015-10-05,1,,,,,ソラ,0
1052,4320002019762,登記記録の閉鎖等,0,2026-01-07,2025-12-24,有限会社トリート,,有限会社,大分県,日田市,川原町２番１０号,,44,204,8770043,,,2025-12-24,清算の結了等,,,2015-10-05,1,,,,,トリート,0
1061,4350002000934,登記記録の閉鎖等,0,2026-01-07,2025-12-25,有限会社オサダ総業,,有限会社,宮崎県,宮崎市,霧島４丁目３１－２,,45,201,8800032,,,2025-12-25,清算の結了等,,,2015-10-05,1,,,,,オサダソウギョウ,0
1062,4350002013746,登記記録の閉鎖等,0,2026-01-07,2025-12-26,有限会社石黒測量設計,,有限会社,宮崎県,都城市,一万城町５２号２番地６,,45,202,8850041,,,2025-12-26,清算の結了等,,,2015-10-05,1,,,,,イシグロソクリョウセッケイ,0
1071,4410002013310,登記記録の閉鎖等,0,2026-01-07,2026-01-05,有限会社砂子田養豚場,,有限会社,秋田県,横手市,平鹿町樽見内字砂子田３１番地の３,00086910,05,203,0130104,,,2026-01-05,清算の結了等,,,2015-10-05,1,,,,,,0
1081,4440002001056,登記記録の閉鎖等,0,2026-01-07,2025-12-26,有限会社カノメ,,有限会社,北海道,函館市,谷地頭町２７番１７号,,01,202,0400046,,,2025-12-26,清算の結了等,,,2015-10-05,1,,,,,カノメ,0
1083,4460301004781,登記記録の閉鎖等,0,2026-01-07,2026-01-05,株式会社エヌカンパニー,,株式会社,北海道,北見市,春光町３丁目１１番２９号,,01,208,0900801,,,2026-01-05,清算の結了等,,,2019-04-04,1,,,,,エヌカンパニー,0
1104,5010001233584,登記記録の閉鎖等,0,2026-01-07,2025-12-12,株式会社トールハンマー,,株式会社,東京都,文京区,湯島３丁目２７－１４－４０１,,13,105,1130034,,,2025-12-12,清算の結了等,,,2023-03-14,1,,,,,トールハンマー,0
1105,5010003034824,登記記録の閉鎖等,0,2026-01-07,2025-12-12,合同会社ヘリオスプロパティ,,合同会社,東京都,千代田区,丸の内１丁目４番１号東京共同会計事務所内,,13,101,1000005,,,2025-12-12,清算の結了等,,,2021-05-11,1,,,,,ヘリオスプロパティ,0
1106,5010005034962,登記記録の閉鎖等,0,2026-01-07,2025-12-26,ＥＳＲ２５・２一般社団法人,,その他の設立登記法人,東京都,中央区,日本橋１丁目４番１号日本橋一丁目ビルディング,,13,102,1030027,,,2025-12-26,清算の結了等,,,2022-05-09,1,,,,,イーエスアールニジュウゴニ,0
1109,5010401134077,登記記録の閉鎖等,0,2026-01-07,2025-12-04,株式会社Ｓｈａｎｔｉ,,株式会社,東京都,渋谷区,代々木５丁目６７番８号ＭＡＫＩＴＡＫＩビル３階,,13,113,1510053,,,2025-12-04,合併による解散等,6011001144309,令和７年１１月８日東京都渋谷区代々木五丁目６７番８号ＭＡＫＩＴＡＫＩビル３階ＥＬＤｏｒａｄｏ株式会社（6011001144309）に合併し解散,2017-10-05,1,,,,,シャンティ,0
1120,5010601027386,登記記録の閉鎖等,0,2026-01-07,2025-12-10,株式会社アイエスピー,,株式会社,千葉県,千葉市若葉区,加曽利町９７５番地の３０,,12,104,2640017,,,2025-12-10,清算の結了等,,,2015-10-05,1,,,,,アイエスピー,0
1124,5010803005446,登記記録の閉鎖等,0,2026-01-07,2025-12-08,金泉合同会社,,合同会社,東京都,大田区,大森本町２丁目３０番２－３０２号,,13,111,1430011,,,2025-12-08,清算の結了等,,,2025-06-26,1,,,,,キンセン,0
1126,5010901053132,登記記録の閉鎖等,0,2026-01-07,2025-12-23,共栄託産株式会社,,株式会社,東京都,世田谷区,太子堂２丁目１４番２２号,,13,112,1540004,,,2025-12-23,清算の結了等,,,2023-06-01,1,,,,,キョウエイタクサン,0
1142,5012401038373,登記記録の閉鎖等,0,2026-01-07,2026-01-05,株式会社ｂｌｕｅ　ｂｌｕｅ,,株式会社,東京都,多摩市,関戸４丁目７３番地,,13,224,2060011,,,2026-01-05,清算の結了等,,,2021-10-07,1,,,,,ブルーブルー,0
1147,5013301054758,登記記録の閉鎖等,0,2026-01-07,2025-12-25,リーブルプランタン株式会社,,株式会社,東京都,豊島区,東池袋３丁目１番１号サンシャイン６０、１２階,,13,116,1700013,,,2025-12-25,清算の結了等,,,2025-08-19,1,,,,,リーブルプランタン,0
1163,5030001132000,登記記録の閉鎖等,0,2026-01-07,2025-12-24,株式会社Ｃｌｉｍｂ　ｕｐ,,株式会社,熊本県,熊本市中央区,黒髪２丁目４番５号ルクスエテルナ黒髪４０６,,43,101,8600862,,,2025-12-24,清算の結了等,,,2019-07-17,1,,,,,クライムアップ,0
1164,5030001159919,登記記録の閉鎖等,0,2026-01-07,2025-12-24,株式会社ターフラボ,,株式会社,埼玉県,川口市,南鳩ヶ谷６丁目１５－５,,11,203,3340013,,,2025-12-24,清算の結了等,,,2024-04-19,1,,,,,ターフラボ,0
1177,5040002022496,登記記録の閉鎖等,0,2026-01-07,2025-12-26,有限会社サリー,,有限会社,神奈川県,川崎市中原区,中丸子１３番地１０,,14,133,2110012,,,2025-12-26,清算の結了等,,,2015-10-05,1,,,,,サリー,0
1178,5040003021654,登記記録の閉鎖等,0,2026-01-07,2026-01-05,合同会社エスアンドエス,,合同会社,東京都,江戸川区,中葛西６丁目５－１０アルトジャルダンＩＩ４０３,00133037,13,123,1340083,,,2026-01-05,合併による解散等,6040001137600,令和７年１１月１３日千葉県我孫子市新木野三丁目３０番７号株式会社Ｋサービス（6040001137600）に合併し解散,2023-01-11,1,,,,,エスアンドエス,0
1179,5050001036496,登記記録の閉鎖等,0,2026-01-07,2025-12-24,Ａｎｔｉ　Ｏｒｄｉｎａｒｙ株式会社,,株式会社,茨城県,牛久市,ひたち野西２丁目１３番地１,,08,219,3001206,,,2025-12-24,清算の結了等,,,2015-10-05,1,,,,,アンチオーディナリー,0
1202,5120001019907,登記記録の閉鎖等,0,2026-01-07,2026-01-05,株式会社ウェル,,株式会社,大阪府,大阪市平野区,喜連東２丁目３番６０号,,27,126,5470021,,,2026-01-05,清算の結了等,,,2015-10-05,1,,,,,ウェル,0
1203,5120001105260,登記記録の閉鎖等,0,2026-01-07,2026-01-05,フレートマンイーシー株式会社,,株式会社,大阪府,大阪市中央区,久太郎町２丁目４番１１号クラボウアネックスビル,,27,128,5410056,,,2026-01-05,清算の結了等,,,2015-10-05,1,,,,,フレートマンイーシー,0
1214,5120001274155,登記記録の閉鎖等,0,2026-01-07,2025-12-04,東方天成株式会社,,株式会社,大阪府,大阪市淀川区,東三国２丁目１８－３０ストロング第３新大阪１０２室,,27,123,5320002,,,2025-12-04,清算の結了等,,,2025-04-10,1,,,,,トウホウテンセイ,0
1228,5122002005068,登記記録の閉鎖等,0,2026-01-07,2025-12-18,有限会社ヤマトラ産業,,有限会社,大阪府,東大阪市,稲田本町１丁目２９番７号,,27,227,5770007,,,2025-12-18,清算の結了等,,,2015-10-05,1,,,,,ヤマトラサンギョウ,0
1229,5130001016705,登記記録の閉鎖等,0,2026-01-07,2026-01-05,株式会社エスト出版,,株式会社,京都府,京都市下京区,中堂寺櫛笥町１８番地１２,,26,106,6008802,,,2026-01-05,合併による解散等,8130001011348,令和８年１月１日京都市南区上鳥羽藁田町５５番地中村印刷株式会社（8130001011348）に合併し解散,2015-10-05,1,,,,,エストシュッパン,0
1239,5140001056683,登記記録の閉鎖等,0,2026-01-07,2025-12-25,株式会社岡坂組,,株式会社,兵庫県,美方郡新温泉町,福富３８０番地の１,,28,586,6696732,,,2025-12-25,清算の結了等,,,2015-10-05,1,,,,,オカサカグミ,0
1240,5140001129927,登記記録の閉鎖等,0,2026-01-07,2025-12-26,株式会社天咲ソリューション,,株式会社,兵庫県,尼崎市,神田中通２丁目２７番地の１９,,28,202,6600884,,,2025-12-26,清算の結了等,,,2023-04-21,1,,,,,アマサキソリューション,0
1252,5150001023410,登記記録の閉鎖等,0,2026-01-07,2025-12-26,株式会社旭光,,株式会社,奈良県,大和高田市,内本町８番２０号,,29,202,6350087,,,2025-12-26,合併による解散等,1150001013547,令和７年１２月２６日奈良県大和高田市内本町８番２０号株式会社森川商店（1150001013547）に合併し解散,2019-11-28,1,,,,,キョッコウ,0
1256,5180001120551,登記記録の閉鎖等,0,2026-01-07,2026-01-05,シヤチハタビジネスアンドカスタマーサポート株式会社,,株式会社,愛知県,名古屋市西区,天塚町４丁目６９番地,,23,104,4510021,,,2026-01-05,合併による解散等,4180001025735,令和８年１月１日名古屋市西区天塚町四丁目６９番地シヤチハタ株式会社（4180001025735）に合併し解散,2015-10-05,1,,,,,シヤチハタビジネスアンドカスタマーサポート,0
1258,5180001132142,登記記録の閉鎖等,0,2026-01-07,2026-01-05,Ｎｅｘｔ　Ｉｎｎｏｖａｔｉｏｎ株式会社,,株式会社,愛知県,名古屋市緑区,桶狭間上の山１００１番地,,23,114,4580926,,,2026-01-05,合併による解散等,1180001118673,令和７年１２月３１日名古屋市港区明正一丁目２５１番地株式会社大和設備（1180001118673）に合併し解散,2018-05-08,1,,,,,ネクストイノベーション,0
1265,5180002091189,登記記録の閉鎖等,0,2026-01-07,2025-12-26,有限会社Ｙ．Ｒ．Ｄ．,,有限会社,愛知県,弥富市,荷之上町川田７番地,,23,235,4980011,,,2025-12-26,合併による解散等,5180001096981,令和７年１２月１５日愛知県弥富市五之三町福島２０番地株式会社鈴鋼製作所（5180001096981）に合併し解散,2015-10-05,1,,,,,ワイアールディー,0
1269,5190005009402,登記記録の閉鎖等,0,2026-01-07,2025-12-25,特定非営利活動法人シルバーくす,,その他の設立登記法人,三重県,四日市市,楠町南五味塚７７９番地１,,24,202,5100104,,,2025-12-25,清算の結了等,,,2015-10-05,1,,,,,シルバークス,0
1270,5200001009916,登記記録の閉鎖等,0,2026-01-07,2026-01-05,後藤電機株式会社,,株式会社,岐阜県,瑞穂市,生津天王町２丁目６３番地,,21,216,5010216,,,2026-01-05,清算の結了等,,,2015-10-05,1,,,,,ゴトウデンキ,0
1276,5240001049462,登記記録の閉鎖等,0,2026-01-07,2026-01-05,株式会社ルシア,,株式会社,広島県,福山市,川口町３丁目１４番２１－４号,,34,207,7200822,,,2026-01-05,清算の結了等,,,2016-06-06,1,,,,,ルシア,0
1286,5280001000289,登記記録の閉鎖等,0,2026-01-07,2026-01-05,サイアムジャパン株式会社,,株式会社,島根県,松江市,古志原６丁目２番３１号,,32,201,6900012,,,2026-01-05,清算の結了等,,,2015-10-05,1,,,,,サイアムジャパン,0
1288,5290001054573,登記記録の閉鎖等,0,2026-01-07,2025-12-16,株式会社フーガ,,株式会社,福岡県,柳川市,西蒲池６４５番地３,,40,207,8320005,,,2025-12-16,清算の結了等,,,2015-10-05,1,,,,,フーガ,0
1308,5330001026295,登記記録の閉鎖等,0,2026-01-07,2025-12-19,あろーむ企画株式会社,,株式会社,熊本県,葦北郡芦北町,大字女島１７２９番地,,43,482,8695564,,,2025-12-19,清算の結了等,,,2019-04-16,1,,,,,アロームキカク,0
1312,5340001020594,登記記録の閉鎖等,0,2026-01-07,2025-12-26,株式会社八起屋,,株式会社,鹿児島県,出水市,福ノ江町６６７,,46,208,8990133,,,2025-12-26,清算の結了等,,,2017-09-05,1,,,,,ヤオキヤ,0
1313,5340002028224,登記記録の閉鎖等,0,2026-01-07,2025-12-25,財部造林有限会社,,有限会社,鹿児島県,曽於市,財部町北俣８９０１番地,,46,217,8994102,,,2025-12-25,清算の結了等,,,2015-10-05,1,,,,,タカラベゾウリン,0
1315,5370001022101,登記記録の閉鎖等,0,2026-01-07,2025-12-25,ヤマダイ仙台株式会社,,株式会社,宮城県,仙台市太白区,鈎取３丁目２番１１号,,04,104,9820804,,,2025-12-25,清算の結了等,,,2015-10-05,1,,,,,ヤマダイセンダイ,0
1316,5370001023727,登記記録の閉鎖等,0,2026-01-07,2025-12-26,株式会社こども応援団,,株式会社,宮城県,仙台市宮城野区,東仙台３丁目１３－４１Ｅ・シュマン１階,,04,102,9830833,,,2025-12-26,清算の結了等,,,2015-10-05,1,,,,,,0
1317,5370001047809,登記記録の閉鎖等,0,2026-01-07,2025-12-25,株式会社３ＲＩＳＥ,,株式会社,宮城県,仙台市若林区,文化町１４番１－３号,,04,103,9840815,,,2025-12-25,清算の結了等,,,2021-11-08,1,,,,,サンライズ,0
1319,5370002015657,登記記録の閉鎖等,0,2026-01-07,2025-12-26,有限会社健,,有限会社,宮城県,仙台市青葉区,八幡３丁目１４番１１－５０２号,,04,101,9800871,,,2025-12-26,清算の結了等,,,2015-10-05,1,,,,,ケン,0
1330,5420002009562,登記記録の閉鎖等,0,2026-01-07,2025-12-24,有限会社奥山,,有限会社,青森県,三戸郡五戸町,字中道９番地１１,,02,442,0391542,,,2025-12-24,清算の結了等,,,2015-10-05,1,,,,,オクヤマ,0
1337,5430002036473,登記記録の閉鎖等,0,2026-01-07,2025-12-25,有限会社とも,,有限会社,北海道,札幌市豊平区,平岸二条１１丁目３番１４号,,01,105,0620932,,,2025-12-25,清算の結了等,,,2015-10-05,1,,,,,トモ,0
1339,5470005000778,登記記録の閉鎖等,0,2026-01-07,2025-12-26,香川県建築設計協同組合,,その他の設立登記法人,香川県,高松市,天神前５番１８号,,37,201,7600018,,,2025-12-26,清算の結了等,,,2015-10-05,1,,,,,カガワケンケンチクセッケイ,0
1343,5500002013226,登記記録の閉鎖等,0,2026-01-07,2025-12-26,株式会社佐々木酸素店,,株式会社,愛媛県,八幡浜市,郷４番耕地３６２番地１,,38,204,7968020,,,2025-12-26,清算の結了等,,,2015-10-05,1,,,,,ササキサンソテン,0
1346,6010001027044,登記記録の閉鎖等,0,2026-01-07,2025-12-05,株式会社美行企画,,株式会社,東京都,新宿区,住吉町１番４号,,13,104,1620065,,,2025-12-05,清算の結了等,,,2015-10-05,1,,,,,ビコウキカク,0
1347,6010003041233,登記記録の閉鎖等,0,2026-01-07,2025-12-12,ワンビーク合同会社,,合同会社,東京都,中央区,日本橋室町１丁目１１番１２号日本橋水野ビル７階,,13,102,1030022,,,2025-12-12,清算の結了等,,,2023-07-28,1,,,,,ワンビーク,0
1349,6010005034961,登記記録の閉鎖等,0,2026-01-07,2025-12-26,ＥＳＲ２５・１一般社団法人,,その他の設立登記法人,東京都,中央区,日本橋１丁目４番１号日本橋一丁目ビルディング,,13,102,1030027,,,2025-12-26,清算の結了等,,,2022-05-09,1,,,,,イーエスアールニジュウゴイチ,0
1357,6010401124721,登記記録の閉鎖等,0,2026-01-07,2025-12-17,インターネットデザイン株式会社,,株式会社,愛知県,名古屋市北区,萩野通１丁目８番地１,,23,103,4620026,,,2025-12-17,合併による解散等,7180001091196,令和７年１２月１日名古屋市北区萩野通一丁目８番地１セントラルデザイン株式会社（7180001091196）に合併し解散,2016-05-13,1,,,,,インターネットデザイン,0
1359,6010401188510,登記記録の閉鎖等,0,2026-01-07,2025-12-11,秀彩商事株式会社,,株式会社,東京都,港区,六本木７丁目１４番２３号ラウンドクロス六本木５Ｆ,,13,103,1060032,,,2025-12-11,清算の結了等,,,2025-02-28,1,,,,,シュウサイショウジ,0
1374,6010801002329,登記記録の閉鎖等,0,2026-01-07,2025-12-22,株式会社オフイス・ケイ,,株式会社,東京都,大田区,山王２丁目２８番９号,,13,111,1430023,,,2025-12-22,清算の結了等,,,2015-10-05,1,,,,,オフイスケイ,0
1375,6010801024918,登記記録の閉鎖等,0,2026-01-07,2025-12-22,株式会社ＭＡＣ設計事務所,,株式会社,東京都,大田区,西蒲田４丁目２６番１１号,,13,111,1440051,,,2025-12-22,清算の結了等,,,2015-10-05,1,,,,,マックセッケイジムショ,0
1418,6013301033827,登記記録の閉鎖等,0,2026-01-07,2025-12-23,日本駐車場工学開発株式会社,,株式会社,東京都,豊島区,巣鴨３丁目１０番４号,,13,116,1700002,,,2025-12-23,清算の結了等,,,2015-10-05,1,,,,,,0
1422,6013301049352,登記記録の閉鎖等,0,2026-01-07,2025-12-23,ＥＳＳ株式会社,,株式会社,東京都,豊島区,南池袋２丁目２８番１４号大和証券池袋ビル８階,,13,116,1710022,,,2025-12-23,清算の結了等,,,2022-07-07,1,,,,,エーエスエス,0
1433,6020002061017,登記記録の閉鎖等,0,2026-01-07,2025-12-26,有限会社喜望峰トレイディング,,有限会社,神奈川県,横浜市港北区,新吉田東５丁目６２番３６号,,14,109,2230058,,,2025-12-26,清算の結了等,,,2015-10-05,1,,,,,キボウホウトレイディング,0
1437,6021001017711,登記記録の閉鎖等,0,2026-01-07,2025-12-12,株式会社カシマ,,株式会社,神奈川県,相模原市中央区,星が丘３丁目８番１６号,,14,152,2520238,,,2025-12-12,清算の結了等,,,2015-10-05,1,,,,,カシマ,0
1440,6021003008378,登記記録の閉鎖等,0,2026-01-07,2025-12-09,ＤＥＳＴＩＮＡＴＩＯＮ合同会社,,合同会社,神奈川県,大和市,下鶴間６番地１,,14,213,2420001,,,2025-12-09,清算の結了等,,,2019-05-10,1,,,,,デスティネーション,0
1452,6030001147402,登記記録の閉鎖等,0,2026-01-07,2025-12-24,株式会社ベジグリーンネット,,株式会社,埼玉県,川越市,熊野町３番地１,,11,201,3501146,,,2025-12-24,清算の結了等,,,2022-03-24,1,,,,,ベジグリーンネット,0
1461,6050001024104,登記記録の閉鎖等,0,2026-01-07,2025-12-22,茨城住宅工業株式会社,,株式会社,茨城県,北茨城市,磯原町大塚字内久保１０７８番地,,08,215,3191546,,,2025-12-22,合併による解散等,1050001024125,令和７年１２月２０日茨城県北茨城市中郷町松井１８８８番地大北産業株式会社（1050001024125）に合併し解散,2015-10-05,1,,,,,イバラキジュウタクコウギョウ,0
1467,6070002006223,登記記録の閉鎖等,0,2026-01-07,2025-12-26,有限会社ランドコンフォート,,有限会社,群馬県,前橋市,南町４丁目２９番地１,,10,201,3710805,,,2025-12-26,清算の結了等,,,2015-10-05,1,,,,,ランドコンフォート,0
1468,6070003002642,登記記録の閉鎖等,0,2026-01-07,2025-12-25,合同会社ＡＮＧＥＬ　ＲＩＯＭＡ,,合同会社,群馬県,邑楽郡邑楽町,大字鶉１３７番地,,10,525,3700601,,,2025-12-25,清算の結了等,,,2016-05-17,1,,,,,エンジェルリオマ,0
1484,6120001266291,登記記録の閉鎖等,0,2026-01-07,2025-12-26,株式会社大一建設,,株式会社,大阪府,大阪市淀川区,西中島７丁目１番１号９階,,27,123,5320011,,,2025-12-26,清算の結了等,,,2024-06-28,1,,,,,ダイイチケンセツ,0
1491,6120002024062,登記記録の閉鎖等,0,2026-01-07,2025-12-26,有限会社佃波技研,,有限会社,兵庫県,西宮市,上鳴尾町１３番２８－２０１号,,28,204,6638186,,,2025-12-26,清算の結了等,,,2015-10-05,1,,,,,ツクナミギケン,0
1499,6130001005401,登記記録の閉鎖等,0,2026-01-07,2026-01-05,株式会社プリベイル喜久,,株式会社,京都府,京都市北区,衣笠北荒見町５番地の１,,26,101,6038316,,,2026-01-05,清算の結了等,,,2015-10-05,1,,,,,,0
1502,6130001055066,登記記録の閉鎖等,0,2026-01-07,2025-12-26,株式会社百合屋,,株式会社,京都府,京都市下京区,西七条南中野町４５番地１,,26,106,6008876,,,2025-12-26,清算の結了等,,,2015-10-05,1,,,,,,0
1505,6130002000368,登記記録の閉鎖等,0,2026-01-07,2026-01-05,有限会社小澤春日堂,,有限会社,京都府,京都市右京区,西院春日町２７番地,,26,108,6150015,,,2026-01-05,清算の結了等,,,2015-10-05,1,,,,,オザワカスガドウ,0
1522,6160001023342,登記記録の閉鎖等,0,2026-01-07,2025-12-25,株式会社ｍｙｎｏｒｍａｌ,,株式会社,滋賀県,草津市,野路東１丁目１番１号立命館大学ＢＫＣインキュベータ１０８,,25,206,5250058,,,2025-12-25,清算の結了等,,,2021-05-20,1,,,,,マイノーマル,0
1541,6190001018538,登記記録の閉鎖等,0,2026-01-07,2026-01-06,株式会社高栄工業,,株式会社,三重県,四日市市,智積町６６９４番地,,24,202,5121212,,,2026-01-06,清算の結了等,,,2015-10-05,1,,,,,コウエイコウギョウ,0
1559,6260001020008,登記記録の閉鎖等,0,2026-01-07,2025-12-25,津山明治乳販株式会社,,株式会社,岡山県,津山市,二宮２２３３番地の２,,33,203,7080013,,,2025-12-25,清算の結了等,,,2015-10-05,1,,,,,ツヤマメイジニュウハン,0
1568,6280003001689,登記記録の閉鎖等,0,2026-01-07,2026-01-05,合同会社笑瑠,,合同会社,島根県,松江市,東朝日町１１１番地（１階）,,32,201,6900001,,,2026-01-05,清算の結了等,,,2023-01-30,1,,,,,,0
1570,6290001057666,登記記録の閉鎖等,0,2026-01-07,2025-12-19,株式会社環境サポート,,株式会社,福岡県,小郡市,上岩田７６９番地,,40,216,8380121,,,2025-12-19,清算の結了等,,,2015-10-05,1,,,,,カンキョウサポート,0
1581,6290002053012,登記記録の閉鎖等,0,2026-01-07,2025-12-16,有限会社梅勝建設,,有限会社,福岡県,大川市,大字大野島２２９９番地の１,,40,212,8310045,,,2025-12-16,清算の結了等,,,2015-10-05,1,,,,,ウメマサケンセツ,0
1591,6330005009353,登記記録の閉鎖等,0,2026-01-07,2025-12-24,一般社団法人日本スクリーニング研究所,,その他の設立登記法人,熊本県,熊本市中央区,出水７丁目５８番１８号,,43,101,8620941,,,2025-12-24,清算の結了等,,,2015-11-12,1,,,,,ニホンスクリーニングケンキュウショ,0
1604,6420001007731,登記記録の閉鎖等,0,2026-01-07,2025-12-25,株式会社オフィースサポート,,株式会社,青森県,八戸市,新湊２丁目１５番５号,,02,203,0310811,,,2025-12-25,清算の結了等,,,2015-10-05,1,,,,,オフィースサポート,0
1607,6430001069399,登記記録の閉鎖等,0,2026-01-07,2026-01-05,株式会社オフィス小野,,株式会社,北海道,小樽市,長橋３丁目２２番２号,,01,203,0470036,,,2026-01-05,清算の結了等,,,2015-10-05,1,,,,,オフィスオノ,0
1615,6460102003361,登記記録の閉鎖等,0,2026-01-07,2025-12-24,有限会社マリアン,,有限会社,北海道,帯広市,西十八条南５丁目３６番地１３,,01,207,0800028,,,2025-12-24,清算の結了等,,,2015-10-05,1,,,,,マリアン,0
1621,6500001008481,登記記録の閉鎖等,0,2026-01-07,2025-12-26,八幡浜米穀株式会社,,株式会社,愛媛県,八幡浜市,昭和通１４６０番地の８８,,38,204,7960037,,,2025-12-26,清算の結了等,,,2015-10-05,1,,,,,ヤワタハマベイコク,0
1623,6500002022234,登記記録の閉鎖等,0,2026-01-07,2025-12-26,有限会社うま不動産情報センター,,有限会社,愛媛県,四国中央市,中曽根町１７２０番地１,,38,213,7990413,,,2025-12-26,清算の結了等,,,2015-10-05,1,,,,,ウマフドウサンジョウホウセンター,0
1683,7012401002880,登記記録の閉鎖等,0,2026-01-07,2025-12-23,株式会社協栄設備工業所,,株式会社,東京都,小金井市,前原町５丁目１６番３２号,,13,210,1840013,,,2025-12-23,清算の結了等,,,2015-10-05,1,,,,,キョウエイセツビコウギョウショ,0
1694,7020001131991,登記記録の閉鎖等,0,2026-01-07,2025-12-09,ＭａｌＴ株式会社,,株式会社,東京都,渋谷区,渋谷２丁目１９番１５号宮益坂ビルディング６０９,,13,113,1500002,,,2025-12-09,清算の結了等,,,2019-07-18,1,,,,,モルト,0
1708,7030001026761,登記記録の閉鎖等,0,2026-01-07,2026-01-05,入間ガスサービス株式会社,,株式会社,埼玉県,入間市,扇台１丁目５番２５号,,11,225,3580023,,,2026-01-05,合併による解散等,5030001026755,令和８年１月１日埼玉県入間市扇台一丁目５番２５号入間ガス株式会社（5030001026755）に合併し解散,2015-10-05,1,,,,,イルマガスサービス,0
1743,7100001013249,登記記録の閉鎖等,0,2026-01-07,2026-01-05,長野保険サービス株式会社,,株式会社,長野県,松本市,大手２丁目２番１６号,,20,202,3900874,,,2026-01-05,合併による解散等,4100001001512,令和８年１月１日長野市大字中御所１７８番地２昭和保険サービス株式会社（4100001001512）に合併し解散,2015-10-05,1,,,,,ナガノホケンサービス,0
1778,7140002048967,登記記録の閉鎖等,0,2026-01-07,2025-12-25,有限会社シビルテック,,有限会社,兵庫県,姫路市,玉手１丁目１９６番地,,28,201,6700985,,,2025-12-25,清算の結了等,,,2015-10-05,1,,,,,シビルテック,0
1789,7180001075224,登記記録の閉鎖等,0,2026-01-07,2025-12-25,ウェル電子株式会社,,株式会社,愛知県,春日井市,大手町４丁目３番地の４,,23,206,4860807,,,2025-12-25,清算の結了等,,,2015-10-05,1,,,,,ウェルデンシ,0
1797,7180002086757,登記記録の閉鎖等,0,2026-01-07,2025-12-26,有限会社アート電子,,有限会社,愛知県,知多郡武豊町,字迎戸１１１番地１,,23,447,4702352,,,2025-12-26,清算の結了等,,,2015-10-05,1,,,,,アートデンシ,0
1812,7220002011132,登記記録の閉鎖等,0,2026-01-07,2026-01-05,有限会社平和自動車,,有限会社,石川県,小松市,梯町ヘ４５番地,,17,203,9230028,,,2026-01-05,清算の結了等,,,2015-10-05,1,,,,,ヘイワジドウシャ,0
1813,7220003001504,登記記録の閉鎖等,0,2026-01-07,2026-01-05,ＴＤＨ合同会社,,合同会社,石川県,金沢市,御所町１丁目２１９,,17,201,9200813,,,2026-01-05,清算の結了等,,,2015-10-05,1,,,,,ティディエイチ,0
1818,7240005010609,登記記録の閉鎖等,0,2026-01-07,2026-01-05,広島県東部食糧株式会社,,株式会社,広島県,尾道市,向島町１６０６０番地７９,,34,205,7220073,,,2026-01-05,清算の結了等,,,2015-10-05,1,,,,,ヒロシマケントウブショクリョウ,0
1825,7260002007399,登記記録の閉鎖等,0,2026-01-07,2025-12-26,有限会社ニコニコ土地,,有限会社,岡山県,岡山市南区,福富西２丁目５番５号,,33,104,7028031,,,2025-12-26,清算の結了等,,,2015-10-05,1,,,,,ニコニコトチ,0
1836,7300002008228,登記記録の閉鎖等,0,2026-01-07,2025-12-26,有限会社有田モータース,,有限会社,佐賀県,西松浦郡有田町,本町丙８４３番地６,,41,401,8440018,,,2025-12-26,合併による解散等,3300002006623,令和７年１２月２６日佐賀県武雄市山内町大字宮野２３５６２番地１株式会社Ｈセレクション（3300002006623）に合併し解散,2015-10-05,1,,,,,アリタモータース,0
1849,7320002016690,登記記録の閉鎖等,0,2026-01-07,2025-12-24,有限会社佐伯二十八萬石,,有限会社,大分県,佐伯市,大手町３丁目４番２１号,,44,205,8760831,,,2025-12-24,清算の結了等,,,2015-10-05,1,,,,,ニジュウハチマンゴク,0
1854,7330002029337,登記記録の閉鎖等,0,2026-01-07,2025-12-23,霊柩天草有限会社,,有限会社,熊本県,天草市,有明町大島子２６９３番地の４,,43,215,8617314,,,2025-12-23,清算の結了等,,,2015-10-05,1,,,,,レイキュウアマクサ,0
1874,7430002056503,登記記録の閉鎖等,0,2026-01-07,2026-01-05,有限会社仁木ファーム,,有限会社,北海道,余市郡仁木町,北町１丁目８７番地,,01,407,0482405,,,2026-01-05,清算の結了等,,,2015-10-05,1,,,,,ニキファーム,0
1880,7500001020320,登記記録の閉鎖等,0,2026-01-07,2026-01-05,株式会社ＦＵＫＵＭＯＴＯ,,株式会社,愛媛県,伊予郡砥部町,川井２１４番地８,,38,402,7912123,,,2026-01-05,清算の結了等,,,2017-01-06,1,,,,,,0
1894,8010005033433,登記記録の閉鎖等,0,2026-01-07,2025-12-26,ＥＳＲ２５特定目的会社,,その他の設立登記法人,東京都,中央区,日本橋１丁目４番１号日本橋一丁目ビルディング,,13,102,1030027,,,2025-12-26,清算の結了等,,,2021-06-01,1,,,,,イーエスアールニジュウゴ,0
1898,8010101014535,登記記録の閉鎖等,0,2026-01-07,2026-01-05,周都技研工業株式会社,,株式会社,東京都,八王子市,南大沢４丁目４７番地５,,13,201,1920364,,,2026-01-05,清算の結了等,,,2021-02-12,1,,,,,シュウトギケンコウギョウ,0
1908,8010401167256,登記記録の閉鎖等,0,2026-01-07,2025-12-09,株式会社ヴァリエ,,株式会社,東京都,港区,赤坂３丁目２番１２号,,13,103,1070052,,,2025-12-09,清算の結了等,,,2022-05-10,1,,,,,ヴァリエ,0
1921,8010405009264,登記記録の閉鎖等,0,2026-01-07,2025-12-05,特定非営利活動法人ＮＯＲＳ,,その他の設立登記法人,東京都,新宿区,西新宿６丁目２２番１号新宿スクエアタワー２階,,13,104,1600023,,,2025-12-05,清算の結了等,,,2015-10-05,1,,,,,ノース,0
1930,8010601032573,登記記録の閉鎖等,0,2026-01-07,2025-12-22,株式会社ＫＩＷＡＭＩ,,株式会社,東京都,江東区,東陽３丁目２７番２９号,,13,108,1350016,,,2025-12-22,清算の結了等,,,2015-10-05,1,,,,,,0
1934,8010602000117,登記記録の閉鎖等,0,2026-01-07,2025-12-22,有限会社天野ラヂエーター工業所,,有限会社,東京都,江東区,南砂４丁目１５番２０号,,13,108,1360076,,,2025-12-22,清算の結了等,,,2015-10-05,1,,,,,,0
1935,8010603005486,登記記録の閉鎖等,0,2026-01-07,2025-12-22,ミタニライフマネージメント合同会社,,合同会社,東京都,江東区,永代２丁目２８番６号,,13,108,1350034,,,2025-12-22,清算の結了等,,,2015-10-05,1,,,,,,0
1938,8010801029931,登記記録の閉鎖等,0,2026-01-07,2025-12-22,株式会社ＰＳＦＳ,,株式会社,東京都,大田区,東海１丁目３番６号プロロジスパーク東京大田６階,,13,111,1430001,,,2025-12-22,清算の結了等,,,2019-06-06,1,,,,,ピーエスエフエス,0
1941,8010803004825,登記記録の閉鎖等,0,2026-01-07,2025-12-22,合同会社Ｐ２,,合同会社,東京都,大田区,蒲田５丁目１８番１４号蒲田東口通ビル地下１階,,13,111,1440052,,,2025-12-22,清算の結了等,,,2024-01-25,1,,,,,ピーツー,0
1949,8011401005521,登記記録の閉鎖等,0,2026-01-07,2026-01-05,株式会社フクイチ,,株式会社,東京都,板橋区,徳丸１丁目８番５号,,13,119,1750083,,,2026-01-05,清算の結了等,,,2015-10-05,1,,,,,フクイチ,0
1964,8013301027991,登記記録の閉鎖等,0,2026-01-07,2026-01-05,チェック・アンド・クリア株式会社,,株式会社,東京都,板橋区,南常盤台１丁目７番１４号,,13,119,1740072,,,2026-01-05,清算の結了等,,,2015-10-05,1,,,,,チェックアンドクリア,0
1967,8020001055604,登記記録の閉鎖等,0,2026-01-07,2025-12-26,株式会社インシュアランス港南,,株式会社,神奈川県,横浜市港南区,大久保１丁目１１番６－２０５号,,14,111,2330007,,,2025-12-26,清算の結了等,,,2015-10-05,1,,,,,インシュアランスコウナン,0
1970,8020001115572,登記記録の閉鎖等,0,2026-01-07,2025-12-26,ＥＬＥＫＴＲＡ株式会社,,株式会社,和歌山県,日高郡日高川町,大字船津１７８番地,,30,392,6441111,,,2025-12-26,清算の結了等,,,2016-04-06,1,,,,,エレクトラ,0
1974,8021001012198,登記記録の閉鎖等,0,2026-01-07,2025-12-12,相模食品産業株式会社,,株式会社,神奈川県,相模原市中央区,星が丘３丁目８番１６号,,14,152,2520238,,,2025-12-12,清算の結了等,,,2015-10-05,1,,,,,,0
1979,8030001041867,登記記録の閉鎖等,0,2026-01-07,2025-12-24,株式会社徳田ネジ工業,,株式会社,埼玉県,上尾市,浅間台３丁目２６番１３,,11,219,3620073,,,2025-12-24,清算の結了等,,,2015-10-05,1,,,,,トクダネジコウギョウ,0
1989,8050001034976,登記記録の閉鎖等,0,2026-01-07,2025-12-25,株式会社パブリオ,,株式会社,茨城県,稲敷郡阿見町,南平台３丁目３５番地３,,08,443,3000312,,,2025-12-25,清算の結了等,,,2015-10-05,1,,,,,パブリオ,0
1993,8050005013274,登記記録の閉鎖等,0,2026-01-07,2025-12-11,一般社団法人Ｗｉｔｈ　Ｌｅａｆ,,その他の設立登記法人,茨城県,北茨城市,中郷町松井１１３番地の５３,,08,215,3191557,,,2025-12-11,清算の結了等,,,2023-06-02,1,,,,,ウィズリーフ,0
2003,8080401027395,登記記録の閉鎖等,0,2026-01-07,2025-12-24,株式会社Ｏｆｆｉｃｅハカマタ,,株式会社,静岡県,浜松市中央区,大瀬町２６５６番地,,22,138,4313113,,,2025-12-24,清算の結了等,,,2024-08-23,1,,,,,オフィスハカマタ,0
2014,8120001198046,登記記録の閉鎖等,0,2026-01-07,2026-01-05,エスクリエイト株式会社,,株式会社,大阪府,寝屋川市,寝屋南１丁目１番１号,,27,215,5720855,,,2026-01-05,清算の結了等,,,2016-05-10,1,,,,,エスクリエイト,0
2016,8120001264847,登記記録の閉鎖等,0,2026-01-07,2026-01-05,株式会社幸久,,株式会社,大阪府,大阪市中央区,久太郎町２丁目１番４－３６０４号,,27,128,5410056,,,2026-01-05,合併による解散等,9120902017922,令和８年１月１日大阪市中央区久太郎町二丁目１番４－３６０４号株式会社岡部（9120902017922）に合併し解散,2024-05-14,1,,,,,コウキュウ,0
2031,8120105003515,登記記録の閉鎖等,0,2026-01-07,2026-01-06,特定非営利活動法人フィフティ・フィフティ,,その他の設立登記法人,大阪府,茨木市,大正町２番１５－３０６号,,27,211,5670867,,,2026-01-06,清算の結了等,,,2015-10-05,1,,,,,フィフティフィフティ,0
2037,8130001032410,登記記録の閉鎖等,0,2026-01-07,2026-01-05,岡見化学工業株式会社,,株式会社,京都府,宇治市,槇島町薗場７８番地,,26,204,6110041,,,2026-01-05,清算の結了等,,,2015-10-05,1,,,,,オカミカガクコウギョウ,0
2038,8130001050156,登記記録の閉鎖等,0,2026-01-07,2026-01-05,株式会社ナレッジラボ,,株式会社,大阪府,大阪市中央区,今橋２丁目５番８号トレードピア淀屋橋９階,,27,128,5410042,,,2026-01-05,合併による解散等,8010401183427,令和７年１２月１日東京都港区芝浦三丁目１番２１号マネーフォワードコンサルティング株式会社（8010401183427）に合併し解散,2015-10-05,1,,,,,ナレッジラボ,0
2039,8130001057960,登記記録の閉鎖等,0,2026-01-07,2026-01-05,コウラ工務店株式会社,,株式会社,京都府,京都市伏見区,納所星柳６番地の３３,,26,109,6128274,,,2026-01-05,清算の結了等,,,2016-07-27,1,,,,,,0
2040,8130001061038,登記記録の閉鎖等,0,2026-01-07,2025-12-26,京阪ステイズ株式会社,,株式会社,京都府,京都市下京区,東洞院通七条下る東塩小路町６８０番地,,26,106,6008216,,,2025-12-26,清算の結了等,,,2017-12-06,1,,,,,ケイハンステイズ,0
2041,8130001067472,登記記録の閉鎖等,0,2026-01-07,2026-01-05,株式会社谷口建設,,株式会社,京都府,宇治市,木幡陣ノ内３８番地の１５,,26,204,6110002,,,2026-01-05,清算の結了等,,,2020-08-19,1,,,,,タニグチケンセツ,0
2055,8160002006245,登記記録の閉鎖等,0,2026-01-07,2026-01-05,伊藤鈑金有限会社,,有限会社,滋賀県,長浜市,曽根町１９３１番地の２,,25,203,5260103,,,2026-01-05,清算の結了等,,,2015-10-05,1,,,,,イトウバンキン,0
2058,8170002008810,登記記録の閉鎖等,0,2026-01-07,2026-01-06,株式会社エスティー,,株式会社,和歌山県,田辺市,稲成町７２０番地の９,,30,206,6460051,,,2026-01-06,清算の結了等,,,2015-10-05,1,,,,,エスティー,0
2059,8180001004396,登記記録の閉鎖等,0,2026-01-07,2026-01-05,株式会社セノオ,,株式会社,愛知県,名古屋市千種区,今池４丁目４番１５号,,23,101,4640850,,,2026-01-05,合併による解散等,2180001061113,令和７年１２月２９日名古屋市千種区今池四丁目４番１５号株式会社妹尾商店（2180001061113）に合併し解散,2015-10-05,1,,,,,セノオ,0
2065,8180002063045,登記記録の閉鎖等,0,2026-01-07,2025-12-26,有限会社ＫＡＭ,,有限会社,愛知県,愛知郡東郷町,大字諸輪字観音７１番地の１,,23,302,4700151,,,2025-12-26,清算の結了等,,,2015-10-05,1,,,,,ケイエイエム,0
2077,8200002018921,登記記録の閉鎖等,0,2026-01-07,2025-12-26,有限会社塚原産業,,有限会社,岐阜県,関市,池尻９０３番地１,,21,205,5013264,,,2025-12-26,清算の結了等,,,2015-10-05,1,,,,,ツカハラサンギョウ,0
2078,8200003001265,登記記録の閉鎖等,0,2026-01-07,2025-12-26,合同会社オフィス・Ｙ,,合同会社,岐阜県,岐阜市,北山２丁目１番１６号,,21,201,5013113,,,2025-12-26,清算の結了等,,,2015-10-05,1,,,,,オフィスワイ,0
2082,8220005003910,登記記録の閉鎖等,0,2026-01-07,2025-12-26,特定非営利活動法人老人介護マトリックスとまり木,,その他の設立登記法人,石川県,能美市,福島町ツ３４番地１,,17,211,9290112,,,2025-12-26,清算の結了等,,,2015-10-05,1,,,,,ロウジンカイゴマトリックストマリギ,0
2097,8270001002878,登記記録の閉鎖等,0,2026-01-07,2026-01-05,株式会社ＭＴＹマネッジ,,株式会社,鳥取県,鳥取市,的場３丁目９７番地１,,31,201,6800873,,,2026-01-05,合併による解散等,6270001002517,令和８年１月１日鳥取市南吉方一丁目８６番地アルビオ・ガーデン南吉方９０６号株式会社ジャパン・サポートシステム（6270001002517）に合併し解散,2015-10-05,1,,,,,エムティーワイマネッジ,0
2107,8300002002386,登記記録の閉鎖等,0,2026-01-07,2026-01-05,有限会社コンパス,,有限会社,佐賀県,佐賀市,神野西３丁目２番３１号,,41,201,8400805,,,2026-01-05,清算の結了等,,,2015-10-05,1,,,,,コンパス,0
2115,8340002020566,登記記録の閉鎖等,0,2026-01-07,2025-12-26,株式会社名瀬管理,,株式会社,鹿児島県,奄美市,名瀬大字浦上１２８８番地１３３,,46,222,8940008,,,2025-12-26,清算の結了等,,,2015-10-05,1,,,,,ナゼカンリ,0
2120,8370002012429,登記記録の閉鎖等,0,2026-01-07,2025-12-25,有限会社東京洋傘,,有限会社,宮城県,仙台市青葉区,一番町４丁目５番２２号,,04,101,9800811,,,2025-12-25,清算の結了等,,,2015-10-05,1,,,,,トウキョウヨウガサ,0
2122,8370003006339,登記記録の閉鎖等,0,2026-01-07,2025-12-26,合同会社成田保険事務所,,合同会社,宮城県,仙台市青葉区,中江２丁目１０－６,,04,101,9800001,,,2025-12-26,清算の結了等,,,2023-10-31,1,,,,,,0
2143,8470001010514,登記記録の閉鎖等,0,2026-01-07,2025-12-26,旭興産株式会社,,株式会社,香川県,三豊市,詫間町詫間６４３番地,,37,208,7691101,,,2025-12-26,清算の結了等,,,2015-10-05,1,,,,,アサヒコウサン,0
2147,8490001008597,登記記録の閉鎖等,0,2026-01-07,2026-01-05,朝日土地株式会社,,株式会社,高知県,高知市,介良甲１１０８番地,,39,201,7815105,,,2026-01-05,合併による解散等,2490002007934,令和８年１月１日高知市介良甲１１０８番地株式会社東邦興産（2490002007934）に合併し解散,2017-02-21,1,,,,,アサヒトチ,0
2189,9010905003484,登記記録の閉鎖等,0,2026-01-07,2026-01-05,一般社団法人ＰＬＡＹＥＲＳ,,その他の設立登記法人,東京都,世田谷区,上馬２丁目３３番１４－１０１号,,13,112,1540011,,,2026-01-05,清算の結了等,,,2017-11-07,1,,,,,プレイヤーズ,0
2193,9011003020018,登記記録の閉鎖等,0,2026-01-07,2025-12-08,生活保護ドットコム合同会社,,合同会社,東京都,渋谷区,渋谷２丁目１９‐１５宮益坂ビルディング,,13,113,1500002,,,2025-12-08,清算の結了等,,,2024-09-11,1,,,,,セイカツホゴドットコム,0
2230,9020003018599,登記記録の閉鎖等,0,2026-01-07,2025-12-16,合同会社ＳＡＴＯＲＩ,,合同会社,神奈川県,横浜市金沢区,釜利谷東７丁目３－９－１０３,,14,108,2360042,,,2025-12-16,清算の結了等,,,2020-10-06,1,,,,,サトリ,0
2234,9021001054454,登記記録の閉鎖等,0,2026-01-07,2025-12-02,エス・エフ・ワイ株式会社,,株式会社,神奈川県,平塚市,纒６７０番地の２,,14,203,2540901,,,2025-12-02,合併による解散等,5021001047908,令和７年１１月３０日神奈川県平塚市纒６７０番地の２株式会社福田ロジテック（5021001047908）に合併し解散,2015-10-05,1,,,,,エスエフワイ,0
2235,9021003007880,登記記録の閉鎖等,0,2026-01-07,2025-12-12,合同会社三和,,合同会社,神奈川県,鎌倉市,稲村ガ崎５丁目１６番２４号,,14,204,2480024,,,2025-12-12,清算の結了等,,,2018-10-30,1,,,,,サンワ,0
2245,9030005019108,登記記録の閉鎖等,0,2026-01-07,2025-11-04,特定非営利活動法人国際障がい者活躍社会創造協会,,その他の設立登記法人,埼玉県,春日部市,上蛭田５７２番地１コージーハウス関根１０４,,11,214,3440046,,,2025-11-04,清算の結了等,,,2018-08-09,1,,,,,コクサイショウガイシャカツヤクシャカイソウゾウキョウカイ,0
2248,9040001116287,登記記録の閉鎖等,0,2026-01-07,2025-12-24,あそしな牧場株式会社,,株式会社,茨城県,かすみがうら市,三ツ木３５番地３３,,08,230,3000125,,,2025-12-24,清算の結了等,,,2020-12-17,1,,,,,アソシナボクジョウ,0
2250,9040003015776,登記記録の閉鎖等,0,2026-01-07,2025-12-10,カムイ・キャピタル合同会社,,合同会社,千葉県,市川市,菅野２丁目４番１２号,,12,203,2720824,,,2025-12-10,清算の結了等,,,2020-07-21,1,,,,,カムイキャピタル,0
2258,9060001009638,登記記録の閉鎖等,0,2026-01-07,2026-01-05,株式会社島崎泉治商店,00024020,株式会社,栃木県,芳賀郡茂木町,大字茂木１７１０番地,,09,343,3213531,,,2026-01-05,清算の結了等,,,2015-10-05,1,,,,,シマザキセンジショウテン,0
2271,9120001087181,登記記録の閉鎖等,0,2026-01-07,2026-01-05,長谷川株式会社,,株式会社,大阪府,大阪市中央区,（大阪市東区玉造一丁目２１番９号）,,27,128,5390000,,,2026-01-05,清算の結了等,,,2015-10-05,1,,,,,ハセガワ,1
2273,9120001183542,登記記録の閉鎖等,0,2026-01-07,2025-12-26,株式会社ロータス,,株式会社,大阪府,守口市,八雲東町２丁目７４番２２号,,27,209,5700021,,,2025-12-26,合併による解散等,6120001214416,令和７年１２月２６日大阪市中央区本町橋８番１７号ａｒｃａｍｉ株式会社（6120001214416）に合併し解散,2015-10-05,1,,,,,ロータス,0
2275,9120001183708,登記記録の閉鎖等,0,2026-01-07,2025-12-26,株式会社エクラ,,株式会社,大阪府,大阪市西区,土佐堀１丁目５番２０号,,27,106,5500001,,,2025-12-26,合併による解散等,6120001214416,令和７年１２月２６日大阪市中央区本町橋８番１７号ａｒｃａｍｉ株式会社（6120001214416）に合併し解散,2015-10-05,1,,,,,エクラ,0
2288,9120005007284,登記記録の閉鎖等,0,2026-01-07,2025-12-26,大阪府種鶏農業協同組合,,その他の設立登記法人,大阪府,大阪市東住吉区,杭全２丁目１１番１号,,27,121,5460002,,,2025-12-26,清算の結了等,,,2015-10-05,1,,,,,オオサカフシュケイ,0
2296,9130001001273,登記記録の閉鎖等,0,2026-01-07,2026-01-05,株式会社武弘産業,,株式会社,京都府,京都市右京区,宇多野長尾町８番地１３,,26,108,6168207,,,2026-01-05,清算の結了等,,,2015-10-05,1,,,,,,0
2299,9130002019141,登記記録の閉鎖等,0,2026-01-07,2025-12-26,有限会社加藤絞り工芸,,有限会社,京都府,京都市下京区,新町通四条下る四条町３７０番地の１,,26,106,6008441,,,2025-12-26,清算の結了等,,,2015-10-05,1,,,,,カトウシボリコウゲイ,0
2313,9140005003199,登記記録の閉鎖等,0,2026-01-07,2025-12-25,協同組合東亜外業協力会,,その他の設立登記法人,兵庫県,神戸市中央区,海岸通６番地建隆ビルＩＩ９階,00122284,28,110,6500024,,,2025-12-25,清算の結了等,,,2015-10-05,1,,,,,トウアガイギョウキョウリョクカイ,0
2319,9160002007985,登記記録の閉鎖等,0,2026-01-07,2026-01-05,有限会社オーラ,,有限会社,滋賀県,彦根市,高宮町２５７２番地の２,,25,202,5220201,,,2026-01-05,清算の結了等,,,2015-10-05,1,,,,,オーラ,0
2322,9170001002367,登記記録の閉鎖等,0,2026-01-07,2025-12-25,株式会社中嶋ビル,,株式会社,和歌山県,和歌山市,黒田１６１番地８,,30,201,6408341,,,2025-12-25,清算の結了等,,,2015-10-05,1,,,,,ナカジマビル,0
2328,9180001098297,登記記録の閉鎖等,0,2026-01-07,2026-01-05,スドー工業株式会社,,株式会社,愛知県,名古屋市中川区,赤星３丁目１５１７番地,,23,110,4540978,,,2026-01-05,清算の結了等,,,2015-10-05,1,,,,,スドーコウギョウ,0
2331,9180001141833,登記記録の閉鎖等,0,2026-01-07,2025-12-25,株式会社マトイセラピューテクス,,株式会社,愛知県,名古屋市天白区,表山２丁目３１３番地１,,23,116,4680069,,,2025-12-25,清算の結了等,,,2020-07-06,1,,,,,マトイセラピューテクス,0
2332,9180001153580,登記記録の閉鎖等,0,2026-01-07,2025-12-25,株式会社ＴＭＡＹＫＥＲ,,株式会社,愛知県,名古屋市昭和区,松風町２丁目１番地の１,,23,107,4660035,,,2025-12-25,合併による解散等,6180001137891,令和７年１２月２５日名古屋市昭和区松風町二丁目１番地タジマコーポレーション株式会社（6180001137891）に合併し解散,2022-10-31,1,,,,,ティーメイカー,0
2343,9190001019228,登記記録の閉鎖等,0,2026-01-07,2025-12-23,株式会社シーランド,,株式会社,三重県,度会郡大紀町,阿曽５５６番地５,,24,471,5192704,,,2025-12-23,清算の結了等,,,2015-10-05,1,,,,,シーランド,0
2344,9190003003849,登記記録の閉鎖等,0,2026-01-07,2025-12-26,合同会社ＹＳＣ,,合同会社,三重県,津市,観音寺町６０４番地５８,,24,201,5140062,,,2025-12-26,清算の結了等,,,2021-12-20,1,,,,,ワイエスシー,0
2353,9240002014387,登記記録の閉鎖等,0,2026-01-07,2026-01-05,有限会社文教総合印刷,,有限会社,広島県,広島市西区,小河内町２丁目２７番２１号,,34,104,7330025,,,2026-01-05,清算の結了等,,,2015-10-05,1,,,,,,0
2362,9270002005706,登記記録の閉鎖等,0,2026-01-07,2026-01-05,有限会社錦海工務店,,有限会社,鳥取県,米子市,上後藤２丁目５番９号,,31,202,6830841,,,2026-01-05,清算の結了等,,,2015-10-05,1,,,,,キンカイコウムテン,0
2365,9290001046501,登記記録の閉鎖等,0,2026-01-07,2026-01-05,Ｒａｋｕｔｅｎ　Ｄｉｒｅｃｔ　Ｌｏｇｉｓｔｉｃｓ株式会社,,株式会社,東京都,世田谷区,玉川１丁目１４番１号,,13,112,1580094,,,2026-01-05,清算の結了等,,,2015-10-05,1,,,,,ラクテンダイレクトロジスティクス,0
2381,9320003002671,登記記録の閉鎖等,0,2026-01-07,2025-12-24,合同会社ＢＥＡＮ,,合同会社,大分県,別府市,大字内竈１８３７番地の３,,44,202,8740011,,,2025-12-24,清算の結了等,,,2017-09-05,1,,,,,ベアン,0
2390,9370001050271,登記記録の閉鎖等,0,2026-01-07,2025-12-19,株式会社ｓｏｕｆｆｌｅ,,株式会社,宮城県,大崎市,古川福浦１丁目１９番３３号,,04,215,9896101,,,2025-12-19,清算の結了等,,,2023-08-09,1,,,,,スフレ,0
2395,9380002015628,登記記録の閉鎖等,0,2026-01-07,2025-12-25,有限会社若松屋,,有限会社,福島県,田村郡三春町,字尼ケ谷１２７番地,,07,521,9637745,,,2025-12-25,清算の結了等,,,2015-10-05,1,,,,,ワカマツヤ,0
2398,9420002005979,登記記録の閉鎖等,0,2026-01-07,2025-12-26,有限会社アルク設計,,有限会社,青森県,八戸市,大字市川町字桔梗野３５番地３０２,,02,203,0392241,,,2025-12-26,清算の結了等,,,2015-10-05,1,,,,,アルクセッケイ,0
2408,9440005000950,登記記録の閉鎖等,0,2026-01-07,2025-12-26,医療法人社団鹿目内科医院,,その他の設立登記法人,北海道,函館市,谷地頭町２７番１８号,,01,202,0400046,,,2025-12-26,清算の結了等,,,2015-10-05,1,,,,,カノメナイカイイン,0
2412,9460101007146,登記記録の閉鎖等,0,2026-01-07,2025-12-26,株式会社Ｓｑｕａｌｌ,,株式会社,北海道,帯広市,自由が丘４丁目７番地１２,,01,207,0802476,,,2025-12-26,清算の結了等,,,2022-02-25,1,,,,,スコール,0
2417,9490001010544,登記記録の閉鎖等,0,2026-01-07,2025-12-26,株式会社さとわ,,株式会社,高知県,高知市,中宝永町５番６号,,39,201,7800817,,,2025-12-26,清算の結了等,,,2023-08-03,1,,,,,サトワ,0
2419,9500002001929,登記記録の閉鎖等,0,2026-01-07,2026-01-05,有限会社カーショップコヤマ,,有限会社,愛媛県,松山市,北土居３丁目５番１５号,,38,201,7911104,,,2026-01-05,清算の結了等,,,2015-10-05,1,,,,,カーショップコヤマ,0
