sequenceNumber,corporateNumber,process,correct,updateDate,changeDate,name,nameImageId,kind,prefectureName,cityName,streetNumber,addressImageId,prefectureCode,cityCode,postCode,addressOutside,addressOutsideImageId,closeDate,closeCause,successorCorporateNumber,changeCause,assignmentDate,latest,enName,enPrefectureName,enCityName,enAddressOutside,furigana,hihyoji
7,1010003022279,登記記録の閉鎖等,0,2022-10-27,2022-10-25,合同会社ＺＥＲＯ,,合同会社,東京都,品川区,東五反田５丁目１番１１号ニューフジマンション４０２,,13,109,1410022,,,2022-10-25,合併による解散等,5011803002747,令和４年１０月１日東京都羽村市栄町一丁目１４番地１３サンモールＩＩ２０５合同会社ＢＯＡＲＤ（5011803002747）に合併し解散,2015-10-05,1,,,,,ゼロ,0
31,1011001073578,登記記録の閉鎖等,0,2022-10-27,2022-10-25,株式会社青山トラスト,,株式会社,東京都,新宿区,新宿１丁目３６番５号,,13,104,1600022,,,2022-10-25,清算の結了等,,,2015-10-05,1,,,,,アオヤマトラスト,0
55,1011702007355,登記記録の閉鎖等,0,2022-10-27,2022-10-24,有限会社谷口電設,,有限会社,東京都,江戸川区,北葛西４丁目２番３４－１０１号,,13,123,1340081,,,2022-10-24,清算の結了等,,,2015-10-05,1,,,,,タニグチデンセツ,0
59,1012401001442,登記記録の閉鎖等,0,2022-10-27,2022-10-20,株式会社藤商事,,株式会社,東京都,府中市,多磨町１丁目５番地の９,,13,206,1830002,,,2022-10-20,清算の結了等,,,2015-10-05,1,,,,,フジショウジ,0
78,1020005010289,登記記録の閉鎖等,0,2022-10-27,2022-10-21,公益財団法人神奈川婦人会館,,その他の設立登記法人,神奈川県,横浜市西区,紅葉ケ丘２番地,,14,103,2200044,,,2022-10-21,清算の結了等,,,2015-10-05,1,,,,,カナガワフジンカイカン,0
90,1030001028160,登記記録の閉鎖等,0,2022-10-27,2022-10-17,株式会社モアクリエイティブ,,株式会社,埼玉県,入間市,久保稲荷４丁目１３－１２,,11,225,3580024,,,2022-10-17,清算の結了等,,,2015-10-05,1,,,,,モアクリエイティブ,0
109,1040002045071,登記記録の閉鎖等,0,2022-10-27,2022-10-20,有限会社ガッツ美容室,,有限会社,千葉県,松戸市,根本２番地１７,,12,207,2710077,,,2022-10-20,清算の結了等,,,2015-10-05,1,,,,,ガッツビヨウシツ,0
130,1080002001764,登記記録の閉鎖等,0,2022-10-27,2022-10-26,有限会社フジサワグループ,,有限会社,静岡県,静岡市葵区,川合３丁目１番５６号,,22,101,4200923,,,2022-10-26,清算の結了等,,,2015-10-05,1,,,,,フジサワグループ,0
134,1110002015109,登記記録の閉鎖等,0,2022-10-27,2022-10-26,有限会社サンユオート,,有限会社,新潟県,新発田市,真野原８６１番地３,,15,206,9570233,,,2022-10-26,清算の結了等,,,2015-10-05,1,,,,,サンユオート,0
165,1140002017531,登記記録の閉鎖等,0,2022-10-27,2022-10-26,有限会社ウェル・コーポレーション,,有限会社,兵庫県,神戸市灘区,城内通２丁目１番６－８０４号,,28,102,6570836,,,2022-10-26,清算の結了等,,,2015-10-05,1,,,,,ウェルコーポレーション,0
170,1140005024632,登記記録の閉鎖等,0,2022-10-27,2022-10-26,特定非営利活動法人ＦＡＮ　Ｌａｂ,,その他の設立登記法人,兵庫県,神崎郡神河町,福本６９７番地の３,,28,446,6792415,,,2022-10-26,清算の結了等,,,2019-05-20,1,,,,,ファンラボ,0
172,1150005004732,登記記録の閉鎖等,0,2022-10-27,2022-10-20,一般社団法人奈良県母子福祉連合会,,その他の設立登記法人,奈良県,橿原市,大久保町３２０番地の１１奈良県社会福祉総合センター内,,29,205,6340061,,,2022-10-20,清算の結了等,,,2015-10-05,1,,,,,ナラケンボシフクシレンゴウカイ,0
177,1180001102215,登記記録の閉鎖等,0,2022-10-27,2022-10-19,テラテクノ株式会社,,株式会社,愛知県,春日井市,玉野台２丁目２番地６,,23,206,4870007,,,2022-10-19,清算の結了等,,,2015-10-05,1,,,,,テラテクノ,0
178,1180001150684,登記記録の閉鎖等,0,2022-10-27,2022-10-24,ガーデンホーム株式会社,,株式会社,愛知県,清須市,西枇杷島町地領１丁目３番地４,,23,233,4520008,,,2022-10-24,清算の結了等,,,2022-04-08,1,,,,,ガーデンホーム,0
188,1180303003581,登記記録の閉鎖等,0,2022-10-27,2022-10-20,紅緒合同会社,,合同会社,愛知県,西尾市,上町西二ツ堀１７番地３,,23,213,4450894,,,2022-10-20,清算の結了等,,,2016-03-04,1,,,,,ベニオ,0
195,1240002018718,登記記録の閉鎖等,0,2022-10-27,2022-10-25,有限会社中国ガス圧接,,有限会社,広島県,広島市安佐南区,上安３丁目１６番１７号,,34,105,7310154,,,2022-10-25,清算の結了等,,,2015-10-05,1,,,,,チュウゴクガスアッセツ,0
226,1360003009539,登記記録の閉鎖等,0,2022-10-27,2022-10-20,ＨＯＰＥ合同会社,,合同会社,沖縄県,うるま市,字赤野１７０番地２,,47,213,9042212,,,2022-10-20,清算の結了等,,,2019-05-22,1,,,,,ホープ,0
237,1450002011635,登記記録の閉鎖等,0,2022-10-27,2022-10-26,有限会社須田商店,,有限会社,北海道,利尻郡利尻富士町,鬼脇字鬼脇１０９番地４,,01,519,0970211,,,2022-10-26,清算の結了等,,,2015-10-05,1,,,,,スダショウテン,0
241,1470003000692,登記記録の閉鎖等,0,2022-10-27,2022-10-26,合同会社ニュートラル,,合同会社,香川県,高松市,円座町１１２４番地２０,,37,201,7618044,,,2022-10-26,清算の結了等,,,2015-10-05,1,,,,,ニュートラル,0
243,1490001006252,登記記録の閉鎖等,0,2022-10-27,2022-10-18,株式会社同理電設,,株式会社,高知県,南国市,久礼田１４６４番地,,39,204,7830062,,,2022-10-18,清算の結了等,,,2015-10-05,1,,,,,ドウリデンセツ,0
255,2010401137702,登記記録の閉鎖等,0,2022-10-27,2022-10-17,ブレイクスルー株式会社,,株式会社,東京都,渋谷区,恵比寿４丁目３番１４号恵比寿ＳＳビル,,13,113,1500013,,,2022-10-17,清算の結了等,,,2018-04-12,1,,,,,ブレイクスルー,0
297,2011403001251,登記記録の閉鎖等,0,2022-10-27,2022-10-25,合同会社エム・エー・ケイ,,合同会社,東京都,板橋区,前野町３丁目２３番５号,,13,119,1740063,,,2022-10-25,清算の結了等,,,2015-10-05,1,,,,,エムエーケイ,0
300,2012402005359,登記記録の閉鎖等,0,2022-10-27,2022-10-25,ネットコム株式会社,,株式会社,東京都,小金井市,関野町１丁目８番４号,,13,210,1840001,,,2022-10-25,清算の結了等,,,2015-10-05,1,,,,,,0
316,2021002031847,登記記録の閉鎖等,0,2022-10-27,2022-10-26,有限会社三陽化成,,有限会社,神奈川県,厚木市,林４丁目２６番５１号,,14,212,2430816,,,2022-10-26,清算の結了等,,,2015-10-05,1,,,,,,0
322,2030001058173,登記記録の閉鎖等,0,2022-10-27,2022-10-17,株式会社吉野精機,,株式会社,埼玉県,川越市,脇田本町１０番地１４（アクエス川越イストワール１１０５号室）,,11,201,3501123,,,2022-10-17,清算の結了等,,,2015-10-05,1,,,,,ヨシノセイキ,0
327,2030001111205,登記記録の閉鎖等,0,2022-10-27,2022-10-14,ＴＫＷＯＯＤ株式会社,,株式会社,埼玉県,川口市,東川口３丁目５番４号,,11,203,3330801,,,2022-10-14,合併による解散等,5030001076057,令和４年１０月１日埼玉県川口市東川口三丁目５番４号株式会社ツーケン工業（5030001076057）に合併し解散,2015-11-09,1,,,,,ティーケーウッド,0
330,2030002021171,登記記録の閉鎖等,0,2022-10-27,2022-10-17,有限会社昭光商事,,有限会社,埼玉県,さいたま市岩槻区,大字飯塚３２５番地１,,11,110,3390031,,,2022-10-17,清算の結了等,,,2015-10-05,1,,,,,ショウコウショウジ,0
338,2040001094399,登記記録の閉鎖等,0,2022-10-27,2022-10-19,株式会社瓜生造園土木,,株式会社,千葉県,香取郡多古町,一鍬田５９番地１０,,12,347,2892236,,,2022-10-19,清算の結了等,,,2016-03-11,1,,,,,ウリュウゾウエンドボク,0
380,2120003013316,登記記録の閉鎖等,0,2022-10-27,2022-10-24,ワールドパケット合同会社,,合同会社,大阪府,大阪市中央区,伏見町４丁目４番９号,,27,128,5410044,,,2022-10-24,清算の結了等,,,2017-09-21,1,,,,,ワールドパケット,0
385,2120901029702,登記記録の閉鎖等,0,2022-10-27,2022-10-26,株式会社ヒュギエイアバイオサイエンス,,株式会社,大阪府,箕面市,稲４丁目１番７号,,27,220,5620015,,,2022-10-26,清算の結了等,,,2015-10-05,1,,,,,ヒュギエイアバイオサイエンス,0
417,2200001012286,登記記録の閉鎖等,0,2022-10-27,2022-10-26,株式会社メディアマップ,,株式会社,岐阜県,羽島郡岐南町,平成１丁目３番地商工会館７Ｆ,,21,302,5016013,,,2022-10-26,清算の結了等,,,2015-10-05,1,,,,,,0
438,2320002013263,登記記録の閉鎖等,0,2022-10-27,2022-10-20,有限会社ロインズ上田,,有限会社,大分県,別府市,大字南石垣１５１８番地の１８４,,44,202,8740000,,,2022-10-20,清算の結了等,,,2015-10-05,1,,,,,,0
441,2330001028014,登記記録の閉鎖等,0,2022-10-27,2022-10-21,株式会社ＲＥＧＡＬＩＣＥ,,株式会社,熊本県,熊本市中央区,下通２丁目１番２１号ホンダビル４０１,,43,101,8600807,,,2022-10-21,清算の結了等,,,2020-11-24,1,,,,,レガリス,0
446,2330003008484,登記記録の閉鎖等,0,2022-10-27,2022-10-24,株式会社Ｋ－１５,,株式会社,熊本県,熊本市中央区,九品寺３丁目１５番４号,,43,101,8620976,,,2022-10-24,合併による解散等,6330001014885,令和４年１０月２３日熊本市中央区九品寺二丁目６番５７号九州アセットマネジメント株式会社（6330001014885）に合併し解散,2020-07-14,1,,,,,ケイジュウゴ,0
447,2330005006684,登記記録の閉鎖等,0,2022-10-27,2022-10-24,一般社団法人寺子屋やまが村,,その他の設立登記法人,熊本県,山鹿市,山鹿１５０９番地４,,43,208,8610501,,,2022-10-24,清算の結了等,,,2015-10-05,1,,,,,テラコヤヤマガムラ,0
452,2360002005439,登記記録の閉鎖等,0,2022-10-27,2022-10-21,有限会社シポテックス沖縄,,有限会社,沖縄県,中頭郡西原町,字小那覇２１８番地,,47,329,9030103,,,2022-10-21,清算の結了等,,,2015-10-05,1,,,,,シポテックスオキナワ,0
467,2430003003475,登記記録の閉鎖等,0,2022-10-27,2022-10-17,株式会社佐司建設工業,,株式会社,北海道,札幌市東区,伏古八条２丁目８番１５号,,01,103,0070868,,,2022-10-17,清算の結了等,,,2015-10-05,1,,,,,サジケンセツコウギョウ,0
474,2430005011757,登記記録の閉鎖等,0,2022-10-27,2022-10-17,税理士法人マイタックス・パートナーズ,,その他の設立登記法人,北海道,札幌市東区,北十四条東１５丁目３番５号ＳＴビル３階Ｃ号室,,01,103,0650014,,,2022-10-17,清算の結了等,,,2015-10-05,1,,,,,マイタックスパートナーズ,0
520,3011001135533,登記記録の閉鎖等,0,2022-10-27,2022-10-25,株式会社Ｎａｐｏｌｅｏｎ,,株式会社,東京都,品川区,東五反田２丁目９－５サウスウィング東五反田ビル,,13,109,1410022,,,2022-10-25,合併による解散等,5010401143020,令和４年１０月１日東京都港区南青山一丁目１５番５号パーソルイノベーション株式会社（5010401143020）に合併し解散,2020-09-01,1,,,,,ナポレオン,0
545,3012401021059,登記記録の閉鎖等,0,2022-10-27,2022-10-25,株式会社秀新ゼミナール,,株式会社,東京都,府中市,美好町２丁目８番地の８,,13,206,1830045,,,2022-10-25,清算の結了等,,,2015-10-05,1,,,,,,0
553,3020001115123,登記記録の閉鎖等,0,2022-10-27,2022-10-21,株式会社ラッキーテック,,株式会社,神奈川県,川崎市川崎区,小川町１１番１０号第１０平沼ビル,,14,131,2100023,,,2022-10-21,清算の結了等,,,2016-03-03,1,,,,,ラッキーテック,0
557,3020002037060,登記記録の閉鎖等,0,2022-10-27,2022-10-21,有限会社井元製作所,,有限会社,神奈川県,横浜市鶴見区,矢向３丁目１０番１１号,,14,101,2300001,,,2022-10-21,清算の結了等,,,2015-10-05,1,,,,,,0
578,3030002013960,登記記録の閉鎖等,0,2022-10-27,2022-10-18,有限会社安岡建装工業,,有限会社,埼玉県,さいたま市見沼区,大字御蔵１３２９番地７,,11,104,3370033,,,2022-10-18,清算の結了等,,,2015-10-05,1,,,,,ヤスオカケンソウコウギョウ,0
587,3040002031037,登記記録の閉鎖等,0,2022-10-27,2022-10-14,有限会社エルプラス,,有限会社,東京都,渋谷区,恵比寿南２丁目１番１０号,,13,113,1500022,,,2022-10-14,清算の結了等,,,2015-10-05,1,,,,,エルプラス,0
606,3120001242279,登記記録の閉鎖等,0,2022-10-27,2022-10-25,株式会社ログシェア,,株式会社,大阪府,大阪市中央区,南本町２丁目２番３号本町ＵＮＩＣＯビル４階,,27,128,5410054,,,2022-10-25,合併による解散等,2120001243963,令和４年１０月１８日大阪市中央区南本町二丁目２番３号本町ＵＮＩＣＯビル２階株式会社Ｐｅｒｓｏｎａｌ　Ｈｅａｌｔｈ　Ｔｅｃｈ（2120001243963）に合併し解散,2021-12-03,1,,,,,ログシェア,0
611,3120005014096,登記記録の閉鎖等,0,2022-10-27,2022-10-26,特定非営利活動法人イーエルエス翔,,その他の設立登記法人,大阪府,守口市,藤田町３丁目４５番６号,,27,209,5700014,,,2022-10-26,清算の結了等,,,2015-10-05,1,,,,,イーエルエスショウ,0
613,3120101027646,登記記録の閉鎖等,0,2022-10-27,2022-10-25,株式会社三和コーポレーション,,株式会社,大阪府,堺市堺区,向陵中町４丁７番１５号コーポラス平１０３号,,27,141,5900024,,,2022-10-25,清算の結了等,,,2015-10-05,1,,,,,サンワコーポレーション,0
622,3130001047157,登記記録の閉鎖等,0,2022-10-27,2022-10-20,株式会社ＬＣＲ,,株式会社,京都府,京都市右京区,西院平町７番地,,26,108,6150022,,,2022-10-20,清算の結了等,,,2015-10-05,1,,,,,,0
626,3140001025483,登記記録の閉鎖等,0,2022-10-27,2022-10-24,株式会社スマート粒子創造工房,,株式会社,兵庫県,神戸市東灘区,向洋町中２丁目１番地２１４号棟１２２号室,,28,101,6580032,,,2022-10-24,清算の結了等,,,2015-10-05,1,,,,,スマートリュウシソウゾウコウボウ,0
636,3180001094913,登記記録の閉鎖等,0,2022-10-27,2022-10-24,岩崎真空技術株式会社,00072481,株式会社,愛知県,東海市,名和町後酉３２番地,,23,222,4760002,,,2022-10-24,清算の結了等,,,2015-10-05,1,,,,,イワサキシンクウギジュツ,0
637,3180001102304,登記記録の閉鎖等,0,2022-10-27,2022-10-24,株式会社ＲＥＬＡＴＩＯＮ,,株式会社,愛知県,名古屋市西区,牛島町６番１号名古屋ルーセントタワー４０階,,23,104,4510046,,,2022-10-24,合併による解散等,7011301016479,令和４年１０月１６日東京都渋谷区笹塚一丁目４８番３号笹塚太陽ビル４階Ｎｅｎｔｒｙｓ株式会社（7011301016479）に合併し解散,2015-10-05,1,,,,,リレーション,0
639,3180001120842,登記記録の閉鎖等,0,2022-10-27,2022-10-20,株式会社リンク工業,,株式会社,愛知県,名古屋市守山区,喜多山２丁目６番３号,,23,113,4630017,,,2022-10-20,清算の結了等,,,2015-11-09,1,,,,,リンクコウギョウ,0
652,3180302016483,登記記録の閉鎖等,0,2022-10-27,2022-10-21,有限会社オーケーサービス,,有限会社,愛知県,安城市,桜井町城向３５番地,,23,212,4441154,,,2022-10-21,清算の結了等,,,2015-10-05,1,,,,,オーケーサービス,0
667,3240002047269,登記記録の閉鎖等,0,2022-10-27,2022-10-24,有限会社しげとく木工,,有限会社,広島県,府中市,上下町深江７１２番地の５,,34,208,7293421,,,2022-10-24,清算の結了等,,,2015-10-05,1,,,,,シゲトクモッコウ,0
696,3360005003315,登記記録の閉鎖等,0,2022-10-27,2022-10-21,農事組合法人グリーンステーション東,,その他の設立登記法人,沖縄県,国頭郡東村,字平良２１３番地,,47,303,9051204,,,2022-10-21,清算の結了等,,,2015-10-05,1,,,,,グリーンステーションヒガシ,0
700,3370301003125,登記記録の閉鎖等,0,2022-10-27,2022-10-19,株式会社ダブルリーフ,,株式会社,宮城県,石巻市,須江字しらさぎ台２丁目２番地１５,,04,202,9871221,,,2022-10-19,清算の結了等,,,2015-10-05,1,,,,,ダブルリーフ,0
741,4010501012530,登記記録の閉鎖等,0,2022-10-27,2022-10-26,株式会社アプローチジャパン,,株式会社,東京都,台東区,浅草橋４丁目１１番１号モンシェルビル,,13,106,1110053,,,2022-10-26,清算の結了等,,,2015-10-05,1,,,,,,0
756,4010903002550,登記記録の閉鎖等,0,2022-10-27,2022-10-25,合同会社ＢＯＡＲＤ,,合同会社,東京都,品川区,東五反田５丁目１－１１,,13,109,1410022,,,2022-10-25,合併による解散等,5011803002747,令和４年１０月１日東京都羽村市栄町一丁目１４番地１３サンモールＩＩ２０５合同会社ＢＯＡＲＤ（5011803002747）に合併し解散,2015-10-05,1,,,,,ボード,0
764,4011105009137,登記記録の閉鎖等,0,2022-10-27,2022-10-21,一般社団法人札幌ホテル不販,,その他の設立登記法人,東京都,新宿区,四谷２丁目９番地１５東京ユナイテッド綜合事務所内,,13,104,1600004,,,2022-10-21,清算の結了等,,,2019-10-28,1,,,,,サッポロホテルフハン,0
815,4030001060540,登記記録の閉鎖等,0,2022-10-27,2022-10-18,藤田工業株式会社,,株式会社,埼玉県,児玉郡上里町,大字神保原町１４１６番地,,11,385,3690305,,,2022-10-18,清算の結了等,,,2015-10-05,1,,,,,フジタコウギョウ,0
837,4060002012455,登記記録の閉鎖等,0,2022-10-27,2022-10-24,有限会社Ｉ・Ｋ産業,,有限会社,栃木県,さくら市,狹間田１４９２番地１２,,09,214,3291305,,,2022-10-24,清算の結了等,,,2015-10-05,1,,,,,アイケーサンギョウ,0
846,4110001015164,登記記録の閉鎖等,0,2022-10-27,2022-10-25,小田島建材株式会社,,株式会社,新潟県,加茂市,神明町２丁目３番２０号,,15,209,9591325,,,2022-10-25,清算の結了等,,,2015-10-05,1,,,,,オダジマケンザイ,0
888,4140002039498,登記記録の閉鎖等,0,2022-10-27,2022-10-17,有限会社ニュー旅路,,有限会社,宮城県,仙台市泉区,黒松２丁目２４番５２号,,04,105,9818006,,,2022-10-17,清算の結了等,,,2015-10-05,1,,,,,ニュータビジ,0
903,4180003019280,登記記録の閉鎖等,0,2022-10-27,2022-10-19,合同会社ピーチワン,,合同会社,愛知県,名古屋市昭和区,山花町３４番地の２,,23,107,4660807,,,2022-10-19,清算の結了等,,,2018-09-20,1,,,,,ピーチワン,0
906,4180301015056,登記記録の閉鎖等,0,2022-10-27,2022-10-20,株式会社いしはら,,株式会社,愛知県,碧南市,山神町１丁目７０番地,,23,209,4470869,,,2022-10-20,清算の結了等,,,2015-10-05,1,,,,,イシハラ,0
924,4280002000974,登記記録の閉鎖等,0,2022-10-27,2022-10-26,有限会社佐々木万三郎商店,,有限会社,島根県,松江市,西津田７丁目２番１７号,,32,201,6900017,,,2022-10-26,清算の結了等,,,2015-10-05,1,,,,,ササキマンザブロウショウテン,0
932,4290002028718,登記記録の閉鎖等,0,2022-10-27,2022-10-21,株式会社Ｈ＆Ｂ．ＷＥＳＴ,,株式会社,兵庫県,神戸市中央区,坂口通７丁目２番１７号,,28,110,6510062,,,2022-10-21,合併による解散等,8140001022195,令和４年１０月２１日神戸市中央区坂口通七丁目２番１７号株式会社バリューヒューマンワーク（8140001022195）に合併し解散,2015-10-05,1,,,,,エイチアンドビーウエスト,0
934,4290003012563,登記記録の閉鎖等,0,2022-10-27,2022-10-25,合同会社Ｆｌａｔ,,合同会社,福岡県,春日市,平田台２丁目６８番地４,,40,218,8160812,,,2022-10-25,清算の結了等,,,2022-05-30,1,,,,,フラット,0
943,4370002014239,登記記録の閉鎖等,0,2022-10-27,2022-10-19,有限会社ワーク,,有限会社,宮城県,仙台市青葉区,中央４丁目９番７号（阿部ビル３階）,,04,101,9800021,,,2022-10-19,清算の結了等,,,2015-10-05,1,,,,,ワーク,0
946,4380002030045,登記記録の閉鎖等,0,2022-10-27,2022-10-24,有限会社サンエーテクノ,,有限会社,福島県,双葉郡大熊町,大字熊字新町７７８番地の５,,07,545,9791305,,,2022-10-24,清算の結了等,,,2015-10-05,1,,,,,サンエーテクノ,0
954,4430002059582,登記記録の閉鎖等,0,2022-10-27,2022-10-14,有限会社野本水産,,有限会社,北海道,白老郡白老町,日の出町３丁目１０番５号青葉団地Ｅ棟２０４号,,01,578,0590903,,,2022-10-14,清算の結了等,,,2015-10-05,1,,,,,ノモトスイサン,0
957,4450001001262,登記記録の閉鎖等,0,2022-10-27,2022-10-27,株式会社こざき,,株式会社,北海道,旭川市,春光一条７丁目４番４号,,01,204,0700871,,,2022-10-27,清算の結了等,,,2015-10-05,1,,,,,コザキ,0
966,5010001141325,登記記録の閉鎖等,0,2022-10-27,2022-10-25,株式会社ＥＰＡＲＫメディアパートナーズ,,株式会社,東京都,豊島区,西池袋２丁目２９番１９号,,13,116,1710021,,,2022-10-25,合併による解散等,5013301046862,令和４年１０月１日東京都港区芝公園二丁目４番１号株式会社アイフラッグ（5013301046862）に合併し解散,2015-10-05,1,,,,,イーパークメディアパートナーズ,0
1048,5021005009268,登記記録の閉鎖等,0,2022-10-27,2022-10-24,ＮＰＯ法人文法器普及会,,その他の設立登記法人,神奈川県,小田原市,中村原７２０番地の４,,14,206,2560803,,,2022-10-24,清算の結了等,,,2015-10-05,1,,,,,ブンポウキフキュウカイ,0
1056,5030001136141,登記記録の閉鎖等,0,2022-10-27,2022-10-17,株式会社ＫＩＺＵＮＡコーポレーション,,株式会社,埼玉県,入間市,久保稲荷２丁目１－１７セレクトハウス１０３,,11,225,3580024,,,2022-10-17,清算の結了等,,,2020-04-17,1,,,,,キズナコーポレーション,0
1060,5030002057551,登記記録の閉鎖等,0,2022-10-27,2022-10-18,有限会社大口ウッドワーキング,,有限会社,埼玉県,桶川市,上日出谷南１丁目５０番地の７,,11,231,3630020,,,2022-10-18,清算の結了等,,,2015-10-05,1,,,,,オオグチウッドワーキング,0
1070,5040002010575,登記記録の閉鎖等,0,2022-10-27,2022-10-19,有限会社本塚,00019777,有限会社,千葉県,千葉市若葉区,桜木６丁目１９番７６号,,12,104,2640028,,,2022-10-19,清算の結了等,,,2015-10-05,1,,,,,モトツカ,0
1074,5050001001995,登記記録の閉鎖等,0,2022-10-27,2022-10-19,株式会社沼田緑化園,,株式会社,茨城県,水戸市,笠原町１６９１番地の２,,08,201,3100852,,,2022-10-19,清算の結了等,,,2015-10-05,1,,,,,ヌマタリョッカエン,0
1079,5050005002544,登記記録の閉鎖等,0,2022-10-27,2022-10-20,笠間稲荷門前通り商店街協同組合,,その他の設立登記法人,茨城県,笠間市,笠間１２７３番地,,08,216,3091611,,,2022-10-20,清算の結了等,,,2015-10-05,1,,,,,カサマイナリモンゼンドオリショウテンガイ,0
1081,5060002029762,登記記録の閉鎖等,0,2022-10-27,2022-10-21,有限会社嶋田電気工事,,有限会社,栃木県,下都賀郡野木町,大字丸林６１０番地２,,09,364,3290111,,,2022-10-21,清算の結了等,,,2015-10-05,1,,,,,シマダデンキコウジ,0
1082,5070001010078,登記記録の閉鎖等,0,2022-10-27,2022-10-20,豊洋ベントナイト鉱業株式会社,,株式会社,群馬県,安中市,松井田町五料甲２５０９番地,,10,211,3790302,,,2022-10-20,清算の結了等,,,2015-10-05,1,,,,,ホウヨウベントナイトコウギョウ,0
1092,5110001008002,登記記録の閉鎖等,0,2022-10-27,2022-10-24,西蒲開発株式会社,,株式会社,新潟県,新潟市西蒲区,矢島１２９番地,,15,108,9590426,,,2022-10-24,清算の結了等,,,2015-10-05,1,,,,,ニシカンカイハツ,0
1094,5110005016538,登記記録の閉鎖等,0,2022-10-27,2022-10-25,一般社団法人新潟県リフォーム協会,,その他の設立登記法人,新潟県,三条市,東光寺３６８９番地１,,15,204,9591104,,,2022-10-25,清算の結了等,,,2020-04-20,1,,,,,ニイガタケンリホォームキョウカイ,0
1097,5120001026795,登記記録の閉鎖等,0,2022-10-27,2022-10-26,藤岡工業株式会社,,株式会社,大阪府,大阪市此花区,桜島３丁目７番１号,,27,104,5540031,,,2022-10-26,清算の結了等,,,2015-10-05,1,,,,,フジオカコウギョウ,0
1106,5120002065925,登記記録の閉鎖等,0,2022-10-27,2022-10-26,有限会社Ｔ．Ｆ．Ｂ,,有限会社,大阪府,大阪市淀川区,三国本町３丁目２６番１４号,,27,123,5320005,,,2022-10-26,清算の結了等,,,2015-10-05,1,,,,,ティエフビー,0
1107,5120003016019,登記記録の閉鎖等,0,2022-10-27,2022-10-20,ＭｏｒｅＢｅ合同会社,,合同会社,大阪府,大阪市東淀川区,小松２丁目１２番４号みつもとＡＲＲＡＹ６０２号,,27,114,5330004,,,2022-10-20,清算の結了等,,,2019-07-23,1,,,,,モアビ,0
1113,5120901006178,登記記録の閉鎖等,0,2022-10-27,2022-10-21,西日本資材デックス株式会社,,株式会社,大阪府,吹田市,南金田２丁目１３番３３号,,27,205,5640044,,,2022-10-21,合併による解散等,3010401007482,令和４年１０月１日東京都品川区西五反田二丁目２７番３号資材リンコム株式会社（3010401007482）に合併し解散,2015-10-05,1,,,,,ニシニホンシザイデックス,0
1126,5140001043087,登記記録の閉鎖等,0,2022-10-27,2022-10-25,第一住販株式会社,,株式会社,兵庫県,加古川市,西神吉町中西１５５番地の６,,28,210,6750043,,,2022-10-25,清算の結了等,,,2015-10-05,1,,,,,,0
1127,5140001048128,登記記録の閉鎖等,0,2022-10-27,2022-10-21,株式会社オザキ薬局,,株式会社,兵庫県,尼崎市,神田中通４丁目１０５番地,,28,202,6600884,,,2022-10-21,清算の結了等,,,2015-10-05,1,,,,,オザキヤッキョク,0
1171,5240002025347,登記記録の閉鎖等,0,2022-10-27,2022-10-24,有限会社山根建築設計事務所,,有限会社,広島県,広島市西区,中広町３丁目１４番１５－１０４号,,34,104,7330012,,,2022-10-24,清算の結了等,,,2015-10-05,1,,,,,ヤマネケンチクセッケイジムショ,0
1174,5260001013607,登記記録の閉鎖等,0,2022-10-27,2022-10-26,伸和工業株式会社,,株式会社,岡山県,倉敷市,玉島道越４１２番地の２,,33,202,7138114,,,2022-10-26,清算の結了等,,,2015-10-05,1,,,,,シンワコウギョウ,0
1190,5310001007520,登記記録の閉鎖等,0,2022-10-27,2022-10-26,株式会社北辰カーズ,,株式会社,長崎県,佐世保市,卸本町２８番１号,,42,202,8571162,,,2022-10-26,清算の結了等,,,2015-10-05,1,,,,,ホクシンカーズ,0
1191,5310002012445,登記記録の閉鎖等,0,2022-10-27,2022-10-20,有限会社中尾陶土,,有限会社,長崎県,東彼杵郡波佐見町,井石郷１１１３番地,,42,323,8593711,,,2022-10-20,清算の結了等,,,2015-10-05,1,,,,,ナカオトウド,0
1192,5310002019564,登記記録の閉鎖等,0,2022-10-27,2022-10-26,有限会社永田工務店,,有限会社,長崎県,平戸市,下中野町７５４番地１,,42,207,8595144,,,2022-10-26,清算の結了等,,,2015-10-05,1,,,,,ナガタコウムテン,0
1203,5370001044178,登記記録の閉鎖等,0,2022-10-27,2022-10-20,株式会社ラグジエイト,,株式会社,宮城県,石巻市,新成１丁目１４番１４号フォレストメゾン新成Ｅ棟,,04,202,9862105,,,2022-10-20,清算の結了等,,,2019-03-27,1,,,,,ラグジエイト,0
1205,5380001026547,登記記録の閉鎖等,0,2022-10-27,2022-10-21,株式会社鈴和商建,,株式会社,福島県,白河市,新白河１丁目２０１番地,,07,205,9610856,,,2022-10-21,清算の結了等,,,2016-03-03,1,,,,,スズワショウケン,0
1207,5380002025829,登記記録の閉鎖等,0,2022-10-27,2022-10-21,有限会社フューチャーガード,,有限会社,福島県,いわき市,内郷御台境町前田２３番地の６,,07,204,9738409,,,2022-10-21,清算の結了等,,,2015-10-05,1,,,,,フューチャーガード,0
1228,6010001148170,登記記録の閉鎖等,0,2022-10-27,2022-10-21,株式会社フェイバリットスペース,,株式会社,栃木県,宇都宮市,材木町４番２１号ＯＡＰエスペランサ１０３号室,,09,201,3200042,,,2022-10-21,清算の結了等,,,2015-10-05,1,,,,,,0
1259,6011105009110,登記記録の閉鎖等,0,2022-10-27,2022-10-21,ＯＮＥホールディングスＮ一般社団法人,,その他の設立登記法人,東京都,新宿区,四谷２丁目９番地１５東京ユナイテッド綜合事務所内,,13,104,1600004,,,2022-10-21,清算の結了等,,,2019-10-18,1,,,,,ワンホールディングスエヌ,0
1260,6011105009523,登記記録の閉鎖等,0,2022-10-27,2022-10-21,ＯＮＥホールディングスＳ一般社団法人,,その他の設立登記法人,東京都,新宿区,四谷２丁目９番地１５東京ユナイテッド綜合事務所内,,13,104,1600004,,,2022-10-21,清算の結了等,,,2020-09-24,1,,,,,ワンホールディングスエス,0
1270,6011801001956,登記記録の閉鎖等,0,2022-10-27,2022-10-25,株式会社昭和工営舎,,株式会社,東京都,葛飾区,奥戸８丁目２１番３号,,13,122,1240022,,,2022-10-25,清算の結了等,,,2015-10-05,1,,,,,ショウワコウエイシャ,0
1274,6012401036871,登記記録の閉鎖等,0,2022-10-27,2022-10-25,Ｍ８　Ａｓｓｏｃｉａｔｅｓ株式会社,,株式会社,東京都,狛江市,東和泉１丁目２３番４号２階,,13,219,2010014,,,2022-10-25,清算の結了等,,,2020-08-19,1,,,,,エムエイトアソシエイツ,0
1278,6020001053114,登記記録の閉鎖等,0,2022-10-27,2022-10-21,株式会社白石塗装,,株式会社,神奈川県,横浜市鶴見区,下野谷町１丁目３５番地８,,14,101,2300047,,,2022-10-21,清算の結了等,,,2015-10-05,1,,,,,,0
1298,6021002065461,登記記録の閉鎖等,0,2022-10-27,2022-10-21,有限会社竹山工業,,有限会社,神奈川県,横須賀市,内川１丁目５番１９号,,14,201,2390836,,,2022-10-21,清算の結了等,,,2015-10-05,1,,,,,,0
1302,6030001127701,登記記録の閉鎖等,0,2022-10-27,2022-10-24,株式会社ＡＤＣ,,株式会社,東京都,品川区,東品川３丁目８番８－３１４号,,13,109,1400002,,,2022-10-24,清算の結了等,,,2018-10-04,1,,,,,エーディーシー,0
1303,6030002038930,登記記録の閉鎖等,0,2022-10-27,2022-10-07,有限会社榊原塗装,,有限会社,埼玉県,久喜市,菖蒲町菖蒲４７３番地１９,,11,232,3460106,,,2022-10-07,清算の結了等,,,2015-10-05,1,,,,,サカキバラトソウ,0
1324,6050001016043,登記記録の閉鎖等,0,2022-10-27,2022-10-17,株式会社根本サービス,,株式会社,茨城県,つくば市,高田５番地,,08,220,3002652,,,2022-10-17,清算の結了等,,,2015-10-05,1,,,,,ネモトサービス,0
1332,6070005008704,登記記録の閉鎖等,0,2022-10-27,2022-10-17,特定非営利活動法人市民活動を支援する会,,その他の設立登記法人,群馬県,前橋市,日吉町４丁目３８番地１７,,10,201,3710017,,,2022-10-17,清算の結了等,,,2015-10-05,1,,,,,シミンカツドウヲシエンスルカイ,0
1337,6080401004297,登記記録の閉鎖等,0,2022-10-27,2022-10-25,万晶工具株式会社,,株式会社,静岡県,浜松市中区,早出町４１１番地の１,,22,131,4350054,,,2022-10-25,清算の結了等,,,2015-10-05,1,,,,,バンショウコウグ,0
1352,6120102028104,登記記録の閉鎖等,0,2022-10-27,2022-10-24,有限会社みなみ速記,,有限会社,大阪府,大阪市天王寺区,寺田町１丁目７番７－７０４号,,27,109,5430045,,,2022-10-24,清算の結了等,,,2015-10-05,1,,,,,ミナミソッキ,0
1359,6130002002356,登記記録の閉鎖等,0,2022-10-27,2022-10-20,有限会社小林ドライブシヨツプ,,有限会社,京都府,京都市上京区,河原町通丸太町上る２丁目出水町２６２番地,,26,102,6020862,,,2022-10-20,清算の結了等,,,2015-10-05,1,,,,,コバヤシドライブショップ,0
1367,6140003014052,登記記録の閉鎖等,0,2022-10-27,2022-10-26,合同会社ｎａｔｕｒａ,,合同会社,兵庫県,三田市,ゆりのき台５丁目８番地８５,,28,219,6691324,,,2022-10-26,清算の結了等,,,2019-06-26,1,,,,,ナチュラ,0
1373,6180001086065,登記記録の閉鎖等,0,2022-10-27,2022-10-19,富士化成株式会社,,株式会社,愛知県,稲沢市,大矢町大矢田１１番地,,23,220,4928412,,,2022-10-19,清算の結了等,,,2015-10-05,1,,,,,フジカセイ,0
1378,6180001141076,登記記録の閉鎖等,0,2022-10-27,2022-10-20,山岡クリエイト株式会社,,株式会社,愛知県,春日井市,東山町４丁目８番１３号,,23,206,4860811,,,2022-10-20,清算の結了等,,,2020-05-11,1,,,,,ヤマオカクリエイト,0
1398,6220001022437,登記記録の閉鎖等,0,2022-10-27,2022-10-24,かがａｐｐｌｅ株式会社,,株式会社,石川県,加賀市,作見町ワ６番地１,,17,206,9220423,,,2022-10-24,清算の結了等,,,2018-08-09,1,,,,,カガアップル,0
1401,6240001012709,登記記録の閉鎖等,0,2022-10-27,2022-10-26,株式会社ロジテツクベベ,,株式会社,広島県,広島市中区,東白島町１９番７３－２０１号,,34,101,7300004,,,2022-10-26,清算の結了等,,,2015-10-05,1,,,,,ロジテックベベ,0
1405,6260001009950,登記記録の閉鎖等,0,2022-10-27,2022-10-26,株式会社アルファ,,株式会社,岡山県,赤磐市,沢原１５４９番地,,33,213,7090704,,,2022-10-26,清算の結了等,,,2015-10-05,1,,,,,アルファ,0
1416,6290005005200,登記記録の閉鎖等,0,2022-10-27,2022-10-12,特定非営利活動法人いとひとねっと,,その他の設立登記法人,福岡県,糸島市,前原東１丁目８番４０－８０２,,40,230,8191119,,,2022-10-12,清算の結了等,,,2015-10-05,1,,,,,イトヒトネット,0
1430,6430001018117,登記記録の閉鎖等,0,2022-10-27,2022-10-17,ライラック観光株式会社,,株式会社,北海道,札幌市中央区,南五条西４丁目９番,,01,101,0640805,,,2022-10-17,清算の結了等,,,2015-10-05,1,,,,,ライラックカンコウ,0
1433,6430001082468,登記記録の閉鎖等,0,2022-10-27,2022-10-11,株式会社種まき気楽塾,,株式会社,北海道,札幌市南区,川沿五条４丁目４番１３号,,01,106,0050805,,,2022-10-11,清算の結了等,,,2020-10-06,1,,,,,タネマキキラクジュク,0
1462,7010401149065,登記記録の閉鎖等,0,2022-10-27,2022-10-07,株式会社ＦＡＣＥＬＥＳＳ　ＭＡＮ,,株式会社,東京都,港区,六本木７丁目１４番１号東李閣ビル６階,,13,103,1060032,,,2022-10-07,清算の結了等,,,2019-11-08,1,,,,,フェスレスマン,0
1480,7011101011960,登記記録の閉鎖等,0,2022-10-27,2022-10-25,大正モダンはいから屋株式会社,,株式会社,東京都,新宿区,中落合４丁目８番１６号スリーズ棟１Ｆ,,13,104,1610032,,,2022-10-25,清算の結了等,,,2015-10-05,1,,,,,タイショウモダンハイカラヤ,0
1486,7011103010110,登記記録の閉鎖等,0,2022-10-27,2022-10-21,ＯＮＥブリッジキャピタルＳ合同会社,,合同会社,東京都,新宿区,四谷２丁目９番地１５東京ユナイテッド綜合事務所内,,13,104,1600004,,,2022-10-21,清算の結了等,,,2020-10-14,1,,,,,ワンブリッジキャピタルエス,0
1488,7011205000199,登記記録の閉鎖等,0,2022-10-27,2022-10-18,医療法人社団萌生会,,その他の設立登記法人,東京都,中野区,中野３丁目３６番１０号中野ヒルサイドビル３階,,13,114,1640001,,,2022-10-18,清算の結了等,,,2015-10-05,1,,,,,ボウセイカイ,0
1506,7013301038701,登記記録の閉鎖等,0,2022-10-27,2022-10-07,Ｆａｎｃｙ　Ｆｕｔｕｒｅ株式会社,,株式会社,東京都,港区,南青山２丁目２２番１４号フォンテ青山５１０,,13,103,1070062,,,2022-10-07,清算の結了等,,,2016-04-19,1,,,,,ファンシーフューチャー,0
1527,7030001014683,登記記録の閉鎖等,0,2022-10-27,2022-10-18,株式会社Ｉ・Ｕエンジニアリング,,株式会社,埼玉県,さいたま市南区,南浦和２丁目３９番２号,,11,108,3360017,,,2022-10-18,清算の結了等,,,2015-10-05,1,,,,,アイユーエンジニアリング,0
1530,7030002025390,登記記録の閉鎖等,0,2022-10-27,2022-10-11,有限会社メンテック,,有限会社,埼玉県,戸田市,喜沢１丁目２番地の１２号１０１,,11,224,3350013,,,2022-10-11,清算の結了等,,,2015-10-05,1,,,,,メンテック,0
1547,7040003019614,登記記録の閉鎖等,0,2022-10-27,2022-10-19,合同会社黒龍,,合同会社,千葉県,長生郡長生村,金田２２６１番地７,,12,423,2994332,,,2022-10-19,清算の結了等,,,2022-03-09,1,,,,,クロリュウ,0
1604,7140001003510,登記記録の閉鎖等,0,2022-10-27,2022-10-24,株式会社ジョイン,,株式会社,兵庫県,神戸市灘区,灘北通３丁目１番２１号,,28,102,6570835,,,2022-10-24,清算の結了等,,,2015-10-05,1,,,,,ジョイン,0
1609,7140001055147,登記記録の閉鎖等,0,2022-10-27,2022-10-25,株式会社ＳＡＺＵ,,株式会社,兵庫県,尼崎市,武庫之荘１丁目３０番１２,,28,202,6610035,,,2022-10-25,清算の結了等,,,2015-10-05,1,,,,,サズ,0
1622,7160001016808,登記記録の閉鎖等,0,2022-10-27,2022-10-25,株式会社薬香草研究所,,株式会社,滋賀県,高島市,野田１１番地２８,,25,212,5201102,,,2022-10-25,清算の結了等,,,2015-10-05,1,,,,,ヤッコウソウケンキュウショ,0
1639,7190002007290,登記記録の閉鎖等,0,2022-10-27,2022-10-21,有限会社吉澤組,,有限会社,三重県,鈴鹿市,南玉垣町７１６０番地の２,,24,207,5130816,,,2022-10-21,清算の結了等,,,2015-10-05,1,,,,,ヨシザワグミ,0
1653,7240005007159,登記記録の閉鎖等,0,2022-10-27,2022-10-24,特定非営利活動法人おおのの風,,その他の設立登記法人,広島県,廿日市市,深江２丁目９番３号,,34,213,7390421,,,2022-10-24,清算の結了等,,,2015-10-05,1,,,,,,0
1660,7290001071096,登記記録の閉鎖等,0,2022-10-27,2022-10-21,さくら株式会社,,株式会社,福岡県,福岡市東区,千早５丁目２１番８号鶴石ビル６階,,40,131,8130044,,,2022-10-21,清算の結了等,,,2015-10-05,1,,,,,サクラ,0
1666,7290002010664,登記記録の閉鎖等,0,2022-10-27,2022-10-24,有限会社ゲットデザインワークス,,有限会社,福岡県,福岡市早良区,城西３丁目１３番３号,,40,137,8140003,,,2022-10-24,清算の結了等,,,2015-10-05,1,,,,,ゲットデザインワークス,0
1672,7290801018429,登記記録の閉鎖等,0,2022-10-27,2022-10-26,山城建設株式会社,,株式会社,福岡県,北九州市小倉南区,上葛原２丁目１１番８号,,40,107,8000255,,,2022-10-26,清算の結了等,,,2015-10-05,1,,,,,ヤマシロケンセツ,0
1686,7410002000751,登記記録の閉鎖等,0,2022-10-27,2022-10-24,有限会社運久企画,,有限会社,秋田県,秋田市,新屋表町１１番２０号,,05,201,0101638,,,2022-10-24,清算の結了等,,,2015-10-05,1,,,,,ウンキュウキカク,0
1699,7470002005506,登記記録の閉鎖等,0,2022-10-27,2022-10-26,有限会社パピルス,,有限会社,香川県,高松市,木太町２５６２番地１２,,37,201,7600080,,,2022-10-26,清算の結了等,,,2015-10-05,1,,,,,パピルス,0
1741,8011002025621,登記記録の閉鎖等,0,2022-10-27,2022-10-17,有限会社レゾンダトレ,,有限会社,東京都,渋谷区,神宮前２丁目２３番地３号第二岩崎ビル３階,,13,113,1500001,,,2022-10-17,清算の結了等,,,2015-10-05,1,,,,,レゾンダトレ,0
1757,8011802020945,登記記録の閉鎖等,0,2022-10-27,2022-10-17,有限会社清水工業,,有限会社,埼玉県,草加市,西町１３５７番地５,,11,221,3400035,,,2022-10-17,清算の結了等,,,2015-10-05,1,,,,,,0
1762,8013202000313,登記記録の閉鎖等,0,2022-10-27,2022-10-17,有限会社浅倉商事,,有限会社,東京都,目黒区,原町１丁目８番５号,,13,110,1520011,,,2022-10-17,清算の結了等,,,2015-10-05,1,,,,,アサクラショウジ,0
1768,8020001045324,登記記録の閉鎖等,0,2022-10-27,2022-10-21,テクノリノベーション株式会社,,株式会社,神奈川県,横浜市南区,六ツ川３丁目７３番地１,,14,105,2320066,,,2022-10-21,清算の結了等,,,2015-10-05,1,,,,,テクノリノベーション,0
1770,8020001109632,登記記録の閉鎖等,0,2022-10-27,2022-10-21,株式会社ムガ電,,株式会社,神奈川県,川崎市川崎区,池上新町２丁目２４－１１,,14,131,2100832,,,2022-10-21,清算の結了等,,,2015-10-05,1,,,,,ムガデン,0
1776,8020002002753,登記記録の閉鎖等,0,2022-10-27,2022-10-20,有限会社サインプロジエクト,,有限会社,神奈川県,横浜市都筑区,東山田４丁目３０番１号,,14,118,2240023,,,2022-10-20,清算の結了等,,,2015-10-05,1,,,,,サインプロジエクト,0
1790,8030001041529,登記記録の閉鎖等,0,2022-10-27,2022-10-17,株式会社中岡,,株式会社,埼玉県,上尾市,大字大谷本郷１０９番地３,,11,219,3620044,,,2022-10-17,清算の結了等,,,2015-10-05,1,,,,,ナカオカ,0
1800,8030002050306,登記記録の閉鎖等,0,2022-10-27,2022-10-12,有限会社ツルタ商工,,有限会社,埼玉県,草加市,柳島町５７番地８,,11,221,3400033,,,2022-10-12,清算の結了等,,,2015-10-05,1,,,,,ツルタショウコウ,0
1801,8030002053432,登記記録の閉鎖等,0,2022-10-27,2022-10-20,有限会社小野寺板金,,有限会社,埼玉県,北足立郡伊奈町,西小針５丁目６８番地,,11,301,3620811,,,2022-10-20,清算の結了等,,,2015-10-05,1,,,,,オノデラバンキン,0
1809,8040001086325,登記記録の閉鎖等,0,2022-10-27,2022-10-13,株式会社キョウイチエステート,,株式会社,千葉県,香取市,佐原イ１０２７番地２,,12,236,2870003,,,2022-10-13,清算の結了等,,,2015-10-05,1,,,,,キョウイチエステート,0
1816,8060001023755,登記記録の閉鎖等,0,2022-10-27,2022-10-24,株式会社ホームエンジニア,,株式会社,栃木県,宇都宮市,北一の沢町１４番１３号,,09,201,3200048,,,2022-10-24,清算の結了等,,,2015-10-05,1,,,,,ホームエンジニア,0
1820,8070002022838,登記記録の閉鎖等,0,2022-10-27,2022-10-18,有限会社エムアンドエム,,有限会社,群馬県,みどり市,笠懸町阿左美１９３４番地の５,,10,212,3792311,,,2022-10-18,清算の結了等,,,2015-10-05,1,,,,,エムアンドエム,0
1827,8110002027592,登記記録の閉鎖等,0,2022-10-27,2022-10-24,有限会社小林工業所,,有限会社,新潟県,長岡市,蓮潟２丁目９番２２号,00071011,15,202,9402023,,,2022-10-24,清算の結了等,,,2015-10-05,1,,,,,コバヤシコウギョウショ,0
1829,8120001018237,登記記録の閉鎖等,0,2022-10-27,2022-10-25,富永紙業印刷株式会社,,株式会社,大阪府,大阪市生野区,桃谷４丁目１５番１１号,,27,116,5440034,,,2022-10-25,清算の結了等,,,2015-10-05,1,,,,,トミナガシギョウインサツ,0
1844,8140001012378,登記記録の閉鎖等,0,2022-10-27,2022-10-21,株式会社アイビーエス,,株式会社,兵庫県,神戸市兵庫区,和田宮通５丁目１－１４,,28,105,6520863,,,2022-10-21,清算の結了等,,,2015-10-05,1,,,,,アイビーエス,0
1847,8140001052069,登記記録の閉鎖等,0,2022-10-27,2022-10-26,株式会社ダイニングクリエイツ,,株式会社,兵庫県,尼崎市,神田北通６丁目１７５番地,,28,202,6600883,,,2022-10-26,清算の結了等,,,2015-10-05,1,,,,,ダイニングクリエイツ,0
1873,8180305006394,登記記録の閉鎖等,0,2022-10-27,2022-10-24,特定非営利活動法人スポーツクラブ豊田,,その他の設立登記法人,愛知県,豊田市,古瀬間町鳥ケ峯３７１番地３５,,23,211,4710801,,,2022-10-24,清算の結了等,,,2015-10-05,1,,,,,スポーツクラブトヨタ,0
1888,8250001011055,登記記録の閉鎖等,0,2022-10-27,2022-10-24,株式会社ＭＴＳ,,株式会社,山口県,周南市,大字須々万本郷１３５１番地の７,,35,215,7450122,,,2022-10-24,清算の結了等,,,2015-10-05,1,,,,,エムティーエス,0
1901,8290002035041,登記記録の閉鎖等,0,2022-10-27,2022-10-25,有限会社エイ・アイ・ティー,,有限会社,福岡県,宗像市,大谷４番地５,,40,220,8114141,,,2022-10-25,清算の結了等,,,2015-10-05,1,,,,,エイアイティー,0
1907,8290005002113,登記記録の閉鎖等,0,2022-10-27,2022-10-25,福岡鮮魚共栄協同組合,,その他の設立登記法人,福岡県,福岡市中央区,長浜３丁目１４番１号,,40,133,8100072,,,2022-10-25,清算の結了等,,,2015-10-05,1,,,,,フクオカセンギョキョウエイ,0
1943,8470001009234,登記記録の閉鎖等,0,2022-10-27,2022-10-25,吉本産業株式会社,00005113,株式会社,香川県,坂出市,横津町３丁目１番９号,,37,203,7620005,,,2022-10-25,清算の結了等,,,2015-10-05,1,,,,,ヨシモトサンギョウ,0
1945,8470002011932,登記記録の閉鎖等,0,2022-10-27,2022-10-25,有限会社大徳精肉店,00005400,有限会社,香川県,丸亀市,本町４０番地,,37,202,7630023,,,2022-10-25,清算の結了等,,,2015-10-05,1,,,,,ダイトクセイニクテン,0
1959,9010401019695,登記記録の閉鎖等,0,2022-10-27,2022-10-07,株式会社トツカクリエーション,,株式会社,東京都,港区,三田２丁目１４番４号,,13,103,1080073,,,2022-10-07,清算の結了等,,,2015-10-05,1,,,,,トツカクリエーション,0
1991,9011105006468,登記記録の閉鎖等,0,2022-10-27,2022-10-21,ＮＰＯ法人日本電子メールコンプライアンス協会,,その他の設立登記法人,東京都,新宿区,歌舞伎町２丁目２番１４号新宿ＫＳビル７階,,13,104,1600021,,,2022-10-21,清算の結了等,,,2015-10-05,1,,,,,ニホンデンシメールコンプライアンスキョウカイ,0
2018,9020001097892,登記記録の閉鎖等,0,2022-10-27,2022-10-21,岡本産業株式会社,,株式会社,神奈川県,横浜市南区,白妙町３丁目３４番地,,14,105,2320023,,,2022-10-21,清算の結了等,,,2015-10-05,1,,,,,オカモトサンギョウ,0
2020,9020001123236,登記記録の閉鎖等,0,2022-10-27,2022-10-21,株式会社ＡＬＬ　ＬＩＦＥ,,株式会社,神奈川県,横浜市港北区,新吉田町３５７７番地,,14,109,2230056,,,2022-10-21,清算の結了等,,,2017-10-04,1,,,,,オールライフ,0
2022,9020002019400,登記記録の閉鎖等,0,2022-10-27,2022-10-20,有限会社長尾塗装店,,有限会社,神奈川県,横浜市港南区,芹が谷１丁目９番３５号,,14,111,2330006,,,2022-10-20,清算の結了等,,,2015-10-05,1,,,,,ナガオトソウテン,0
2040,9030001029787,登記記録の閉鎖等,0,2022-10-27,2022-10-18,株式会社ネクスト,,株式会社,埼玉県,所沢市,上新井４丁目７０番地の７,,11,208,3591142,,,2022-10-18,清算の結了等,,,2015-10-05,1,,,,,ネクスト,0
2049,9030005018530,登記記録の閉鎖等,0,2022-10-27,2022-10-11,特定非営利活動法人ＬＥＸ,,その他の設立登記法人,埼玉県,所沢市,大字北秋津７２７－２イーストフェイス所沢２Ｆ,,11,208,3590038,,,2022-10-11,清算の結了等,,,2017-05-29,1,,,,,レックス,0
2057,9050002009290,登記記録の閉鎖等,0,2022-10-27,2022-10-21,東光建設有限会社,,有限会社,茨城県,東茨城郡大洗町,五反田３２９番地,,08,309,3111306,,,2022-10-21,清算の結了等,,,2015-10-05,1,,,,,トウコウケンセツ,0
2058,9050002044866,登記記録の閉鎖等,0,2022-10-27,2022-10-21,有限会社ヌマデン,,有限会社,茨城県,結城市,大字結城９９１１番地の５,,08,207,3070001,,,2022-10-21,清算の結了等,,,2015-10-05,1,,,,,ヌマデン,0
2059,9050005009759,登記記録の閉鎖等,0,2022-10-27,2022-10-19,農事組合法人関東エコ・ファーム,,その他の設立登記法人,茨城県,つくばみらい市,小張３２９９番地１,,08,235,3002353,,,2022-10-19,清算の結了等,,,2015-10-05,1,,,,,カントウエコファーム,0
2060,9070001019784,登記記録の閉鎖等,0,2022-10-27,2022-10-19,株式会社東毛グリーン,,株式会社,群馬県,太田市,藪塚町１１０４番地,00026720,10,205,3792301,,,2022-10-19,清算の結了等,,,2015-10-05,1,,,,,トウモウグリーン,0
2067,9080002006112,登記記録の閉鎖等,0,2022-10-27,2022-10-26,有限会社山長,,有限会社,静岡県,静岡市葵区,羽鳥２丁目１２番３号,,22,101,4211215,,,2022-10-26,清算の結了等,,,2015-10-05,1,,,,,ヤマチョウ,0
2077,9120001071367,登記記録の閉鎖等,0,2022-10-27,2022-10-26,八木紙器工業株式会社,,株式会社,大阪府,大阪市北区,豊崎１丁目５番１０号,,27,127,5310072,,,2022-10-26,清算の結了等,,,2015-10-05,1,,,,,ヤギシキコウギョウ,0
2089,9120102001215,登記記録の閉鎖等,0,2022-10-27,2022-10-25,有限会社関西宅配センター,,有限会社,大阪府,堺市堺区,戎之町東５丁４番１６号,,27,141,5900945,,,2022-10-25,清算の結了等,,,2015-10-05,1,,,,,カンサイタクハイセンター,0
2093,9130001025207,登記記録の閉鎖等,0,2022-10-27,2022-10-20,株式会社ＫＨ管財,,株式会社,京都府,京都市中京区,錦小路通室町西入天神山町２８２番地アウスハイレン栗田３０３,,26,104,6048221,,,2022-10-20,清算の結了等,,,2015-10-05,1,,,,,ケイエイチカンザイ,0
2102,9140001015727,登記記録の閉鎖等,0,2022-10-27,2022-10-25,伊丹食品株式会社,,株式会社,兵庫県,神戸市長田区,若松町５丁目２番１－１２３号,,28,106,6530038,,,2022-10-25,清算の結了等,,,2015-10-05,1,,,,,イタミショクヒン,0
2117,9140002028422,登記記録の閉鎖等,0,2022-10-27,2022-10-24,有限会社魚為,,有限会社,兵庫県,明石市,藤江２０２９番地の１,,28,203,6730044,,,2022-10-24,清算の結了等,,,2015-10-05,1,,,,,,0
2123,9180001119862,登記記録の閉鎖等,0,2022-10-27,2022-10-12,株式会社Ａｔｅｌｉｅｒ　Ｙｕｋｏ,,株式会社,愛知県,名古屋市中区,古渡町１４番１３号サンシャイン金山３０５号,,23,106,4600025,,,2022-10-12,清算の結了等,,,2015-10-05,1,,,,,アトリエユウコ,0
2129,9180002029177,登記記録の閉鎖等,0,2022-10-27,2022-10-18,有限会社三井紙工,,有限会社,愛知県,名古屋市中村区,藤江町３丁目６番地の１,,23,105,4530045,,,2022-10-18,清算の結了等,,,2015-10-05,1,,,,,ミツイシコウ,0
2139,9190002004682,登記記録の閉鎖等,0,2022-10-27,2022-10-19,有限会社サンクス,,有限会社,三重県,亀山市,太岡寺町１４６番地,,24,210,5190168,,,2022-10-19,清算の結了等,,,2015-10-05,1,,,,,サンクス,0
2144,9220001018829,登記記録の閉鎖等,0,2022-10-27,2022-10-25,株式会社福井建設,,株式会社,石川県,金沢市,北安江１丁目９番１３号,,17,201,9200022,,,2022-10-25,清算の結了等,,,2015-10-05,1,,,,,フクイケンセツ,0
2152,9260002024483,登記記録の閉鎖等,0,2022-10-27,2022-10-25,有限会社さわやか,,有限会社,岡山県,倉敷市,玉島長尾５５０番地６,,33,202,7100251,,,2022-10-25,清算の結了等,,,2015-10-05,1,,,,,サワヤカ,0
2175,9360001026545,登記記録の閉鎖等,0,2022-10-27,2022-10-20,株式会社丸岩総業,,株式会社,沖縄県,浦添市,牧港２丁目４３番１号,,47,208,9012131,,,2022-10-20,清算の結了等,,,2019-12-03,1,,,,,マルイワソウギョウ,0
2176,9360001029770,登記記録の閉鎖等,0,2022-10-27,2022-10-21,株式会社Ｇ　Ｓｍｉｌｅ,,株式会社,沖縄県,那覇市,銘苅２丁目９番２５号エレガンテためみ２０４,,47,201,9000004,,,2022-10-21,清算の結了等,,,2021-12-15,1,,,,,ジースマイル,0
2179,9370001040173,登記記録の閉鎖等,0,2022-10-27,2022-10-19,ソーシャル・インクルージョン・ジャパン株式会社,,株式会社,宮城県,石巻市,のぞみ野３丁目１番地１,,04,202,9860860,,,2022-10-19,清算の結了等,,,2016-09-06,1,,,,,ソーシャルインクルージョンジャパン,0
2196,9430002000070,登記記録の閉鎖等,0,2022-10-27,2022-10-26,有限会社アイ・エム・アイ,,有限会社,北海道,札幌市豊平区,平岸四条１４丁目５番３－３１４号,,01,105,0620934,,,2022-10-26,清算の結了等,,,2015-10-05,1,,,,,アイエムアイ,0
