sequenceNumber,corporateNumber,process,correct,updateDate,changeDate,name,nameImageId,kind,prefectureName,cityName,streetNumber,addressImageId,prefectureCode,cityCode,postCode,addressOutside,addressOutsideImageId,closeDate,closeCause,successorCorporateNumber,changeCause,assignmentDate,latest,enName,enPrefectureName,enCityName,enAddressOutside,furigana,hihyoji
12,1010001239164,新規,0,2023-10-12,2023-10-12,株式会社Ｎｏ．,,株式会社,東京都,中央区,銀座１丁目１６番１号,,13,102,1040061,,,,,,,2023-10-12,1,,,,,ナンバー,0
13,1010001239172,新規,0,2023-10-12,2023-10-12,株式会社ウチダ商事,,株式会社,東京都,文京区,目白台３丁目２０番２２号,,13,105,1120015,,,,,,,2023-10-12,1,,,,,ウチダショウジ,0
14,1010001239180,新規,0,2023-10-12,2023-10-12,ハーンウェイ株式会社,,株式会社,東京都,千代田区,四番町４番地９新東京国際リーガル内,,13,101,1020081,,,,,,,2023-10-12,1,,,,,ハーンウェイ,0
19,1010101015845,新規,0,2023-10-12,2023-10-12,株式会社ＮＤＫ,,株式会社,東京都,八王子市,横川町３４番地１,,13,201,1930823,,,,,,,2023-10-12,1,,,,,エヌディーケー,0
28,1010401177749,新規,0,2023-10-12,2023-10-12,喜盈株式会社,,株式会社,東京都,港区,新橋５丁目１６番１号,,13,103,1050004,,,,,,,2023-10-12,1,,,,,キエイ,0
31,1010403031144,新規,0,2023-10-12,2023-10-12,ピース合同会社,,合同会社,東京都,港区,芝４丁目１６番１－２３０２号,,13,103,1080014,,,,,,,2023-10-12,1,,,,,,0
32,1010405022579,新規,0,2023-10-12,2023-10-12,一般社団法人ｒｅｎｇａプロ第２号,,その他の設立登記法人,東京都,港区,赤坂４丁目１５番１号赤坂ガーデンシティ３階,,13,103,1070052,,,,,,,2023-10-12,1,,,,,レンガプロダイニゴウ,0
34,1010503007184,新規,0,2023-10-12,2023-10-12,いーえぬじぇいぴー合同会社,,合同会社,東京都,台東区,浅草３丁目２１番９号トーラス浅草２１３,,13,106,1110032,,,,,,,2023-10-12,1,,,,,イーエヌジェイピー,0
37,1010601063906,新規,0,2023-10-12,2023-10-12,株式会社ｃｏｚｍｉｃ,,株式会社,東京都,江東区,青海２丁目７－４ｔｈｅＳＯＨＯ９３１,,13,108,1350064,,,,,,,2023-10-12,1,,,,,コズミック,0
38,1010601063914,新規,0,2023-10-12,2023-10-12,パークキャピタル株式会社,,株式会社,東京都,墨田区,本所３丁目１６番９－４０２号ダイアパレス本所,,13,107,1300004,,,,,,,2023-10-12,1,,,,,パークキャピタル,0
39,1010601063939,新規,0,2023-10-12,2023-10-12,株式会社Ａｌｐｈａ　Ｖｉｓｉｏｎ,,株式会社,東京都,墨田区,江東橋４丁目２４番３号Ｃｒｏｂｉｓ錦糸町７階,,13,107,1300022,,,,,,,2023-10-12,1,,,,,アルファビジョン,0
43,1010803004716,新規,0,2023-10-12,2023-10-12,合同会社サスコン,,合同会社,東京都,大田区,鵜の木３丁目８番６号,,13,111,1460091,,,,,,,2023-10-12,1,,,,,サスコン,0
54,1011001157281,新規,0,2023-10-12,2023-10-12,イオリア株式会社,,株式会社,東京都,渋谷区,渋谷２丁目１９－１５宮益坂ビルディング６０９,,13,113,1500002,,,,,,,2023-10-12,1,,,,,イオリア,0
55,1011001157521,新規,0,2023-10-12,2023-10-12,ＢＳＰ１株式会社,,株式会社,東京都,目黒区,八雲４丁目１番１２号,,13,110,1520023,,,,,,,2023-10-12,1,,,,,ビーエスピーワン,0
56,1011001157579,新規,0,2023-10-12,2023-10-12,株式会社ジェジル,,株式会社,東京都,渋谷区,神宮前６丁目８番４号,,13,113,1500001,,,,,,,2023-10-12,1,,,,,ジェジル,0
61,1011301029065,新規,0,2023-10-12,2023-10-12,ＤＡＩＬＹ株式会社,,株式会社,東京都,杉並区,和泉２丁目３０番５号,,13,115,1680063,,,,,,,2023-10-12,1,,,,,ダイリー,0
63,1011401025526,新規,0,2023-10-12,2023-10-12,株式会社アクセス,,株式会社,東京都,板橋区,徳丸３丁目２８番１５号,,13,119,1750083,,,,,,,2023-10-12,1,,,,,アクセス,0
71,1011801043160,新規,0,2023-10-12,2023-10-12,株式会社ＳＫＫＯ,,株式会社,東京都,足立区,関原１丁目１４番５号,,13,121,1230852,,,,,,,2023-10-12,1,,,,,エスケーケーオー,0
74,1012303001887,新規,0,2023-10-12,2023-10-12,ＣＯＭＭＵＮＩＴＹ　ＬＩＮＥ合同会社,,合同会社,東京都,町田市,本町田４３６７番地８,,13,209,1940032,,,,,,,2023-10-12,1,,,,,コミュニティライン,0
84,1020001153901,新規,0,2023-10-12,2023-10-12,ＭＳプラス技研株式会社,,株式会社,神奈川県,横浜市西区,北幸２丁目１０番４８号むつみビル３Ｆ,,14,103,2200004,,,,,,,2023-10-12,1,,,,,エムエスプラスギケン,0
85,1020001153934,新規,0,2023-10-12,2023-10-12,ＲａａＳ＆ＡＩ株式会社,,株式会社,神奈川県,川崎市幸区,中幸町３丁目３１番地２,,14,132,2120012,,,,,,,2023-10-12,1,,,,,ラースアンドエーアイ,0
86,1020003024729,新規,0,2023-10-12,2023-10-12,合同会社ＮＩＣＯ,,合同会社,神奈川県,横浜市南区,大岡１丁目４番１７－４０１号,,14,105,2320061,,,,,,,2023-10-12,1,,,,,ニコ,0
87,1020003024753,新規,0,2023-10-12,2023-10-12,合同会社リファイングループ,,合同会社,神奈川県,横浜市青葉区,藤が丘１丁目１５番８パストラル藤が丘３０１,,14,117,2270043,,,,,,,2023-10-12,1,,,,,リファイングループ,0
91,1021001080400,新規,0,2023-10-12,2023-10-12,株式会社Ｂｌｕｅ　Ｌｉｆｅ,,株式会社,神奈川県,大和市,草柳２丁目２０－１７,,14,213,2420026,,,,,,,2023-10-12,1,,,,,ブルーライフ,0
92,1021001080425,新規,0,2023-10-12,2023-10-12,株式会社Ｎｅｘｔ　Ｓｔａｎｄａｒｄ,,株式会社,神奈川県,茅ヶ崎市,共恵１丁目３番１４－１００８号,,14,207,2530056,,,,,,,2023-10-12,1,,,,,,0
93,1021001080433,新規,0,2023-10-12,2023-10-12,株式会社デストロイ興業,,株式会社,神奈川県,茅ヶ崎市,萩園２２２０番地４,,14,207,2530071,,,,,,,2023-10-12,1,,,,,デストロイコウギョウ,0
94,1021001080441,新規,0,2023-10-12,2023-10-12,キセキマネジメント株式会社,,株式会社,神奈川県,三浦市,南下浦町上宮田３１００番地シーアイ三浦海岸１－１０８,,14,210,2380101,,,,,,,2023-10-12,1,,,,,キセキマネジメント,0
107,1030001156457,新規,0,2023-10-12,2023-10-12,株式会社望,,株式会社,埼玉県,白岡市,爪田ケ谷１００１番地１８,,11,246,3490222,,,,,,,2023-10-12,1,,,,,ノゾミ,0
108,1030001156465,新規,0,2023-10-12,2023-10-12,株式会社アリマ,,株式会社,埼玉県,行田市,大字持田２２３６番地５,,11,206,3610056,,,,,,,2023-10-12,1,,,,,アリマ,0
109,1030001156523,新規,0,2023-10-12,2023-10-12,株式会社ＢＥＬＬＥ　ＳＴＡＲ,,株式会社,埼玉県,さいたま市浦和区,北浦和４丁目７－１中央コーポ２０１,,11,107,3300074,,,,,,,2023-10-12,1,,,,,ベルスター,0
110,1030001156606,新規,0,2023-10-12,2023-10-12,株式会社ｍａｎｊｕ,,株式会社,埼玉県,さいたま市見沼区,大字中川１０７番地４－３０２号,,11,104,3370043,,,,,,,2023-10-12,1,,,,,マンジュ,0
111,1030001156622,新規,0,2023-10-12,2023-10-12,株式会社Ｎｅｕｒａ　Ｓｙｓｔｅｍｓ,,株式会社,埼玉県,川口市,鳩ヶ谷本町３丁目２９番１７号,,11,203,3340002,,,,,,,2023-10-12,1,,,,,ニューラシステムズ,0
122,1040001130477,新規,0,2023-10-12,2023-10-12,株式会社Ｂ＆Ｇ,,株式会社,千葉県,八千代市,勝田台４丁目１７－１グレイス勝田台西棟２０３,,12,221,2760023,,,,,,,2023-10-12,1,,,,,ビーアンドジー,0
127,1050005013339,新規,0,2023-10-12,2023-10-12,カルゲン会さしま事業協同組合,,その他の設立登記法人,茨城県,坂東市,菅谷１３８８番地１,,08,228,3060505,,,,,,,2023-10-12,1,,,,,カルゲンカイサシマ,0
129,1060001036425,新規,0,2023-10-12,2023-10-12,株式会社ウェリノ,,株式会社,栃木県,宇都宮市,桜２丁目６－１,,09,201,3200043,,,,,,,2023-10-12,1,,,,,ウェリノ,0
133,1070001040962,新規,0,2023-10-12,2023-10-12,株式会社Ｔａｋｋ,,株式会社,群馬県,伊勢崎市,田中島町１４４７番地１３,,10,204,3720802,,,,,,,2023-10-12,1,,,,,,0
140,1080001025913,新規,0,2023-10-12,2023-10-12,株式会社ＴＫＤ,,株式会社,静岡県,静岡市清水区,木の下町１３９番地の１アーバンコートＩＩ１０２,00132213,22,103,4240846,,,,,,,2023-10-12,1,,,,,ティーケーディー,0
142,1080101024261,新規,0,2023-10-12,2023-10-12,株式会社トーホークリエイト,,株式会社,静岡県,富士宮市,大中里７５８番地の１,,22,207,4180044,,,,,,,2023-10-12,1,,,,,トーホークリエイト,0
150,1100003007213,新規,0,2023-10-12,2023-10-12,合同会社ＳＡＣ,,合同会社,長野県,松本市,大手１丁目９番６,,20,202,3900874,,,,,,,2023-10-12,1,,,,,サック,0
154,1110001037905,新規,0,2023-10-12,2023-10-12,株式会社ＡＩＫＯＵ設備,,株式会社,新潟県,新潟市中央区,沼垂東４丁目１２番２号２,,15,103,9500075,,,,,,,2023-10-12,1,,,,,アイコウセツビ,0
162,1120001258574,新規,0,2023-10-12,2023-10-12,百玉株式会社,,株式会社,大阪府,大阪市生野区,生野西２丁目５番１４号田中ビル３Ｆ－１１号,,27,116,5440024,,,,,,,2023-10-12,1,,,,,ヒャクダマ,0
163,1120001258665,新規,0,2023-10-12,2023-10-12,株式会社源氏,,株式会社,大阪府,枚方市,伊加賀寿町１６番２１号,,27,210,5730061,,,,,,,2023-10-12,1,,,,,ゲンジ,0
164,1120001258698,新規,0,2023-10-12,2023-10-12,株式会社メイクハピネス,,株式会社,大阪府,大阪市天王寺区,清水谷町１３番５－７０２号,,27,109,5430011,,,,,,,2023-10-12,1,,,,,メイクハピネス,0
165,1120001258715,新規,0,2023-10-12,2023-10-12,株式会社ＨＩ‐ＬＩＮＫ,,株式会社,大阪府,寝屋川市,点野３丁目１７番７号,,27,215,5720077,,,,,,,2023-10-12,1,,,,,ハイリンク,0
166,1120001258731,新規,0,2023-10-12,2023-10-12,メガス株式会社,,株式会社,大阪府,大阪市西淀川区,姫島２丁目４番１０号,,27,113,5550033,,,,,,,2023-10-12,1,,,,,メガス,0
167,1120001258756,新規,0,2023-10-12,2023-10-12,秋波金株式会社,,株式会社,大阪府,大阪市旭区,清水１丁目１５番７号,,27,117,5350021,,,,,,,2023-10-12,1,,,,,シュウハキン,0
168,1120001258764,新規,0,2023-10-12,2023-10-12,株式会社虎大重量,,株式会社,大阪府,大阪市西成区,中開３丁目３番３－４０４号,,27,122,5570022,,,,,,,2023-10-12,1,,,,,コウダイジュウリョウ,0
171,1120003025064,新規,0,2023-10-12,2023-10-12,熊野合同会社,,合同会社,大阪府,大阪市城東区,鴫野西３丁目４番３－５０８号,,27,118,5360014,,,,,,,2023-10-12,1,,,,,クマノ,0
172,1120005023925,新規,0,2023-10-12,2023-10-12,税理士法人淀川パートナーズ,,その他の設立登記法人,大阪府,大阪市淀川区,木川東３丁目４番１１号,,27,123,5320012,,,,,,,2023-10-12,1,,,,,ヨドガワパートナーズ,0
174,1120101068353,新規,0,2023-10-12,2023-10-12,株式会社アマ生活サービス,,株式会社,大阪府,堺市堺区,北三国ヶ丘町８丁３番２号,,27,141,5900021,,,,,,,2023-10-12,1,,,,,アマセイカツサービス,0
175,1120101068361,新規,0,2023-10-12,2023-10-12,株式会社ｔｅｎ,,株式会社,大阪府,堺市堺区,三国ヶ丘御幸通１５４番地（１１０８号）,,27,141,5900028,,,,,,,2023-10-12,1,,,,,テン,0
181,1122001037462,新規,0,2023-10-12,2023-10-12,株式会社ＲＥＣＩＣＬＡＪＥ,,株式会社,大阪府,大東市,三箇６丁目２３－２０,,27,218,5740077,,,,,,,2023-10-12,1,,,,,リサイクルージェ,0
189,1130005016903,新規,0,2023-10-12,2023-10-12,医療法人ひらうち会,,その他の設立登記法人,京都府,京都市伏見区,観音寺町２１０－１プリシード桃山御陵ビル２Ｆ,,26,109,6128101,,,,,,,2023-10-12,1,,,,,ヒラウチカイ,0
198,1160001025401,新規,0,2023-10-12,2023-10-12,株式会社小野興業,,株式会社,滋賀県,大津市,雄琴４丁目３番２０号,,25,201,5200101,,,,,,,2023-10-12,1,,,,,オノコウギョウ,0
200,1160003003009,新規,0,2023-10-12,2023-10-12,合同会社ｍａｌ．,,合同会社,滋賀県,長浜市,月ヶ瀬町２７９番地,,25,203,5290102,,,,,,,2023-10-12,1,,,,,マルドット,0
201,1170001017819,新規,0,2023-10-12,2023-10-12,株式会社夢高野,,株式会社,和歌山県,伊都郡高野町,大字高野山２９３,,30,344,6480211,,,,,,,2023-10-12,1,,,,,ユメコウヤ,0
207,1180001158397,新規,0,2023-10-12,2023-10-12,ＦＦＳ株式会社,,株式会社,愛知県,名古屋市千種区,堀割町２丁目１番地の１,,23,101,4640065,,,,,,,2023-10-12,1,,,,,エフエフエス,0
210,1180301037904,新規,0,2023-10-12,2023-10-12,株式会社ＦＵＪＩＫＯＵホールディングス,,株式会社,愛知県,豊川市,御津町御馬梅田１２番地５２,,23,207,4410311,,,,,,,2023-10-12,1,,,,,フジコウホールディングス,0
214,1190003004474,新規,0,2023-10-12,2023-10-12,倖田組合同会社,,合同会社,三重県,津市,安濃町内多２９３７番地,,24,201,5142303,,,,,,,2023-10-12,1,,,,,コウダグミ,0
217,1200001041807,新規,0,2023-10-12,2023-10-12,ともしびマルシェ株式会社,,株式会社,岐阜県,岐阜市,薮田南３丁目７番２０号,,21,201,5008384,,,,,,,2023-10-12,1,,,,,トモシビマルシェ,0
218,1200001041815,新規,0,2023-10-12,2023-10-12,ＪＡＬＡＴ　ＴＲＡＤＩＮＧ株式会社,,株式会社,岐阜県,各務原市,鵜沼山崎町５丁目８０番地１小川ハイツ２０７,,21,213,5090124,,,,,,,2023-10-12,1,,,,,ジャラトトレーディング,0
222,1220001025634,新規,0,2023-10-12,2023-10-12,株式会社農葉,,株式会社,石川県,野々市市,上林２丁目１６２番地１,,17,212,9218835,,,,,,,2023-10-12,1,,,,,ノウバ,0
224,1230001020048,新規,0,2023-10-12,2023-10-12,株式会社Ｏｎ　ｐｏｉｎＴ,,株式会社,富山県,富山市,中川原２６番地の１ステラ１０２,,16,201,9398015,,,,,,,2023-10-12,1,,,,,オンポイント,0
226,1240001062246,新規,0,2023-10-12,2023-10-12,株式会社東洋商会,,株式会社,広島県,広島市安芸区,上瀬野１丁目５番１０号,,34,107,7390301,,,,,,,2023-10-12,1,,,,,トウヨウショウカイ,0
227,1240001062254,新規,0,2023-10-12,2023-10-12,株式会社Ｌｉｆｅ　Ｃｒｅａｔｅ,,株式会社,広島県,東広島市,西条中央３丁目２６番５号,,34,212,7390025,,,,,,,2023-10-12,1,,,,,ライフクリエイト,0
228,1240003006366,新規,0,2023-10-12,2023-10-12,合同会社Ｍｅｒｃｉ,,合同会社,広島県,広島市佐伯区,坪井２丁目１１１９番地３－Ａ２０３,,34,108,7315142,,,,,,,2023-10-12,1,,,,,メルスィ,0
235,1270001008857,新規,0,2023-10-12,2023-10-12,株式会社米原,,株式会社,鳥取県,倉吉市,東巌城町１８１番地,,31,203,6820802,,,,,,,2023-10-12,1,,,,,ヨネハラ,0
240,1290001103251,新規,0,2023-10-12,2023-10-12,株式会社ＥＢＩＳＵ,,株式会社,福岡県,福岡市博多区,中洲３丁目２番１２号Ｂ１階７号室,,40,132,8100801,,,,,,,2023-10-12,1,,,,,エビス,0
241,1290001103334,新規,0,2023-10-12,2023-10-12,株式会社セイリバー,,株式会社,福岡県,福岡市南区,若久６丁目７番４号ジュネス清永１階Ｂ,,40,134,8150042,,,,,,,2023-10-12,1,,,,,セイリバー,0
242,1290001103367,新規,0,2023-10-12,2023-10-12,プラムグレス株式会社,,株式会社,福岡県,福岡市西区,内浜２丁目７番１２－５０１号,,40,135,8190005,,,,,,,2023-10-12,1,,,,,プラムグレス,0
243,1290001103383,新規,0,2023-10-12,2023-10-12,株式会社共立美装,,株式会社,福岡県,福岡市東区,箱崎５丁目１１番２－８０２号,,40,131,8120053,,,,,,,2023-10-12,1,,,,,キョウリツビソウ,0
244,1290005019171,新規,0,2023-10-12,2023-10-12,一般社団法人日本スポーツアミューズメント協会,,その他の設立登記法人,福岡県,糟屋郡新宮町,三代西２丁目１番１号,,40,345,8110125,,,,,,,2023-10-12,1,,,,,ニホンスポーツアミューズメントキョウカイ,0
251,1330001031332,新規,0,2023-10-12,2023-10-12,株式会社あまみ,,株式会社,熊本県,八代市,豊原中町２４７７番地１,,43,202,8660062,,,,,,,2023-10-12,1,,,,,アマミ,0
255,1340001025960,新規,0,2023-10-12,2023-10-12,株式会社Ｙａｍａｔｏ　Ｉｎｔｅｒｎａｔｉｏｎａｌ　Ｊａｐａｎ,,株式会社,鹿児島県,鹿児島市,光山２丁目１番７２号坂之上ハイツ３１０号,,46,201,8910151,,,,,,,2023-10-12,1,,,,,ヤマトインターナショナルジャパン,0
256,1340001025977,新規,0,2023-10-12,2023-10-12,株式会社美咲,,株式会社,鹿児島県,鹿児島市,錦江台１丁目５０番１０号,,46,201,8910145,,,,,,,2023-10-12,1,,,,,ミサキ,0
262,1360001032666,新規,0,2023-10-12,2023-10-12,株式会社棚原架設工業,,株式会社,沖縄県,浦添市,西原４丁目３０番７号,,47,208,9012101,,,,,,,2023-10-12,1,,,,,タナハラカセツコウギョウ,0
264,1360005006914,新規,0,2023-10-12,2023-10-12,医療法人寛誠会,,その他の設立登記法人,沖縄県,糸満市,西崎町５丁目８番１０,,47,210,9010306,,,,,,,2023-10-12,1,,,,,カンセイカイ,0
267,1370003006320,新規,0,2023-10-12,2023-10-12,合同会社Ｋｅｅｐ　Ｇｏｏｄ　Ｃｏｍｐａｎｙ,,合同会社,宮城県,仙台市若林区,蒲町１９－８,,04,103,9840037,,,,,,,2023-10-12,1,,,,,キープグッドカンパニー,0
278,1420001018436,新規,0,2023-10-12,2023-10-12,Ａｃｃｅｓｓ　Ｐｌａｎ株式会社,,株式会社,青森県,八戸市,大字中居林字蓋名池２８－２１,,02,203,0310002,,,,,,,2023-10-12,1,,,,,アクセスプラン,0
279,1420001018444,新規,0,2023-10-12,2023-10-12,株式会社Ｓａｔｏｍｕｒａ　Ｆａｒｍ,,株式会社,青森県,十和田市,東十三番町３１番２５号,,02,206,0340023,,,,,,,2023-10-12,1,,,,,サトムラファーム,0
292,1700150121193,新規,0,2023-10-12,2023-10-12,ＳｈｅｎＺｈｅｎ　ＺｅＹｉｎｇＴｏｎｇＤａ　Ｔｅｃｈｎｏｌｏｇｙ　Ｃｏ．，Ｌｔｄ．,,外国会社等,,,,,,,,ＦｕｈａｉＳｔｒｅｅｔ　ＢａｏａｎＤｉｓｔｒｉｃｔ　Ｄ１２０６　Ｎｏ．３１３　ＱｉａｏｈｅＲｏａｄ　ＺｈａｎｃｈｅｎｇＣｏｍｍｕｎｉｔｙ　ＳｈｅｎＺｈｅｎＣｉｔｙ　Ｃｈｉｎａ,,,,,,2023-10-12,1,,,,,シンセンゼイントンダテクノロジーカンパニーリミテッド,0
301,2010001238999,新規,0,2023-10-12,2023-10-12,株式会社Ｍ・Ａ・Ｐ　ＴＯＫＹＯ,,株式会社,東京都,中央区,日本橋浜町３丁目３５番５号オフィス３０－６０３号,,13,102,1030007,,,,,,,2023-10-12,1,,,,,エムエーピートウキョウ,0
302,2010001239147,新規,0,2023-10-12,2023-10-12,ダイナーフードサプライ株式会社,,株式会社,東京都,中央区,銀座７丁目１３番２１号銀座ｓｉｎｒｏｋｕｓｙｕビル２階,,13,102,1040061,,,,,,,2023-10-12,1,,,,,ダイナーフードサプライ,0
303,2010001239155,新規,0,2023-10-12,2023-10-12,株式会社Ｒａｓａ,,株式会社,東京都,中央区,銀座１丁目１２番４号Ｎ＆Ｅ、ＢＬＤ６Ｆ,,13,102,1040061,,,,,,,2023-10-12,1,,,,,ラサ,0
304,2010001239171,新規,0,2023-10-12,2023-10-12,株式会社壹其,,株式会社,東京都,文京区,目白台２丁目９番１５－８０３号,,13,105,1120015,,,,,,,2023-10-12,1,,,,,イッキ,0
309,2010003041872,新規,0,2023-10-12,2023-10-12,合同会社プロダクション基考社,,合同会社,東京都,中央区,銀座１丁目１２－４Ｎ＆ＥＢＬＤ．７階,,13,102,1040061,,,,,,,2023-10-12,1,,,,,プロダクションキコウシャ,0
310,2010003041906,新規,0,2023-10-12,2023-10-12,合同会社エムジーホールディングス,,合同会社,東京都,中央区,日本橋蛎殻町２丁目５番３号,,13,102,1030014,,,,,,,2023-10-12,1,,,,,エムジーホールディングス,0
311,2010005037365,新規,0,2023-10-12,2023-10-12,イーリス１号一般社団法人,,その他の設立登記法人,東京都,千代田区,霞が関３丁目２番５号,,13,101,1000013,,,,,,,2023-10-12,1,,,,,イーリスイチゴウ,0
324,2010403031110,新規,0,2023-10-12,2023-10-12,合同会社Ｔｂｒａｎｄ,,合同会社,東京都,港区,白金６丁目１６番２０－１００２号,,13,103,1080072,,,,,,,2023-10-12,1,,,,,ティーブランド,0
325,2010501051183,新規,0,2023-10-12,2023-10-12,株式会社ＤＫ　Ｎｅｔｗｏｒｋ,,株式会社,東京都,台東区,元浅草１丁目６番１２号ＧＯＧＯオフィス御徒町４１９号室,,13,106,1110041,,,,,,,2023-10-12,1,,,,,ディケイネットワーク,0
330,2010603010418,新規,0,2023-10-12,2023-10-12,合同会社ＪＥＫ,,合同会社,東京都,江東区,東陽２丁目２番１０－２１４号,,13,108,1350016,,,,,,,2023-10-12,1,,,,,ジェイイーケー,0
334,2010701044961,新規,0,2023-10-12,2023-10-12,株式会社ヘルスケアビジョン,,株式会社,東京都,品川区,東五反田１丁目７番１１号３０４号室,,13,109,1410022,,,,,,,2023-10-12,1,,,,,ヘルスケアビジョン,0
337,2010703006902,新規,0,2023-10-12,2023-10-12,合同会社オク,,合同会社,東京都,品川区,上大崎３丁目１番２－１４１１号,,13,109,1410021,,,,,,,2023-10-12,1,,,,,オク,0
339,2010801034417,新規,0,2023-10-12,2023-10-12,株式会社エンパスト,,株式会社,東京都,大田区,大森西２丁目７番５－２０３号,,13,111,1430015,,,,,,,2023-10-12,1,,,,,エンパスト,0
340,2010803004715,新規,0,2023-10-12,2023-10-12,大成インテリジェンス合同会社,,合同会社,東京都,大田区,東糀谷３丁目１番１３号アネックス東伸２階,,13,111,1440033,,,,,,,2023-10-12,1,,,,,タイセイインテリジェンス,0
342,2010901053993,新規,0,2023-10-12,2023-10-12,みらいウェーブ株式会社,,株式会社,東京都,世田谷区,用賀１丁目１９番２０号,,13,112,1580097,,,,,,,2023-10-12,1,,,,,ミライウェーブ,0
350,2011001157504,新規,0,2023-10-12,2023-10-12,ＭＡＣＨＩＮＯ株式会社,,株式会社,東京都,渋谷区,桜丘町２３番１７号シティコート桜丘４０８,,13,113,1500031,,,,,,,2023-10-12,1,,,,,マチノ,0
351,2011001157520,新規,0,2023-10-12,2023-10-12,Ｍｅｉｓｏｎ株式会社,,株式会社,東京都,渋谷区,道玄坂１丁目１０番８号渋谷道玄坂東急ビル２Ｆ－Ｃ,,13,113,1500043,,,,,,,2023-10-12,1,,,,,メイソン,0
352,2011001157545,新規,0,2023-10-12,2023-10-12,Ｄｉ　Ｍａｒｃｏ　Ｊａｐａｎ株式会社,,株式会社,東京都,渋谷区,猿楽町１２番３５号ｔプラスＤａｉｋａｎｙａｍａ１Ｆ,,13,113,1500033,,,,,,,2023-10-12,1,,,,,ディマルコジャパン,0
354,2011101104678,新規,0,2023-10-12,2023-10-12,ＷＯＰ株式会社,,株式会社,東京都,新宿区,市谷田町３丁目２５パームハウスＢ２号室,,13,104,1620843,,,,,,,2023-10-12,1,,,,,ダブリューオーピー,0
356,2011105010815,新規,0,2023-10-12,2023-10-12,一般社団法人日本舞台医学会,,その他の設立登記法人,東京都,新宿区,西新宿６丁目７番１号,,13,104,1600023,,,,,,,2023-10-12,1,,,,,ニホンブタイイガクカイ,0
357,2011401025517,新規,0,2023-10-12,2023-10-12,今雪株式会社,,株式会社,東京都,板橋区,蓮根３丁目２３－４－１０３,,13,119,1740046,,,,,,,2023-10-12,1,,,,,イマユキ,0
361,2011405002264,新規,0,2023-10-12,2023-10-12,一般社団法人豊かな海の森創り,,その他の設立登記法人,東京都,板橋区,高島平１丁目７９番３号,,13,119,1750082,,,,,,,2023-10-12,1,,,,,ユタカナウミノモリヅクリ,0
366,2012303001886,新規,0,2023-10-12,2023-10-12,合同会社ゼロハチ,,合同会社,東京都,町田市,本町田２１４１番地２３,,13,209,1940032,,,,,,,2023-10-12,1,,,,,ゼロハチ,0
367,2012403006224,新規,0,2023-10-12,2023-10-12,合同会社栗電,,合同会社,東京都,多摩市,愛宕４丁目２８番地１－４０４,,13,224,2060041,,,,,,,2023-10-12,1,,,,,クリデン,0
368,2012701017880,新規,0,2023-10-12,2023-10-12,株式会社Ｎｕｋｕｉ,,株式会社,東京都,東久留米市,東本町１４番６号,,13,222,2030014,,,,,,,2023-10-12,1,,,,,ヌクイ,0
371,2012703002815,新規,0,2023-10-12,2023-10-12,合同会社キロロマート,,合同会社,東京都,西東京市,中町６丁目８－１８,,13,229,2020013,,,,,,,2023-10-12,1,,,,,キロロマート,0
372,2012705002367,新規,0,2023-10-12,2023-10-12,特定非営利活動法人現代人形文化研究会,,その他の設立登記法人,東京都,東村山市,久米川町３丁目２７番地５７,,13,213,1890003,,,,,,,2023-10-12,1,,,,,ゲンダイニンギョウブンカケンキュウカイ,0
373,2013101009262,新規,0,2023-10-12,2023-10-12,株式会社比留間工業,,株式会社,東京都,あきる野市,雨間１９３５番地５１,,13,228,1970825,,,,,,,2023-10-12,1,,,,,,0
376,2013301051460,新規,0,2023-10-12,2023-10-12,株式会社ボトムアップ,,株式会社,東京都,豊島区,要町１丁目４５－８,,13,116,1710043,,,,,,,2023-10-12,1,,,,,ボトムアップ,0
377,2013303006818,新規,0,2023-10-12,2023-10-12,合同会社ＶｉｖｉｄＢｌｕｅ,,合同会社,東京都,豊島区,西巣鴨２丁目３４－１９サンレジア巣鴨１０３,,13,116,1700001,,,,,,,2023-10-12,1,,,,,ビビッドブルー,0
383,2020001153834,新規,0,2023-10-12,2023-10-12,株式会社バンポロ,,株式会社,神奈川県,横浜市神奈川区,鶴屋町２丁目９－７グローリア初穂２０２号室,,14,102,2210835,,,,,,,2023-10-12,1,,,,,バンポロ,0
384,2020001153859,新規,0,2023-10-12,2023-10-12,株式会社ＳＵＮ,,株式会社,神奈川県,川崎市高津区,下野毛３丁目９番２－１０１号,,14,134,2130006,,,,,,,2023-10-12,1,,,,,サン,0
385,2020001153900,新規,0,2023-10-12,2023-10-12,株式会社一陶,,株式会社,神奈川県,横浜市港南区,日野９丁目３７番７号,,14,111,2340051,,,,,,,2023-10-12,1,,,,,イットウ,0
387,2020003024752,新規,0,2023-10-12,2023-10-12,ＭＵＴＵＮＡＧＵ合同会社,,合同会社,神奈川県,横浜市瀬谷区,北新１番地１５,,14,114,2460036,,,,,,,2023-10-12,1,,,,,ムツナグ,0
391,2021001080432,新規,0,2023-10-12,2023-10-12,株式会社湘南ジョイテック,,株式会社,神奈川県,秦野市,堀西９６２番地の１９,,14,211,2591331,,,,,,,2023-10-12,1,,,,,ショウナンジョイテック,0
392,2021001080449,新規,0,2023-10-12,2023-10-12,株式会社ビッグ・ツリー,,株式会社,神奈川県,相模原市緑区,橋本３丁目５番７号フォロロマーノ３０１,,14,151,2520143,,,,,,,2023-10-12,1,,,,,,0
393,2021003013670,新規,0,2023-10-12,2023-10-12,合同会社フィデスコ東京,,合同会社,神奈川県,鎌倉市,津西２丁目２番３０号,,14,204,2480034,,,,,,,2023-10-12,1,,,,,フィデスコトウキョウ,0
400,2030001156555,新規,0,2023-10-12,2023-10-12,株式会社ラフテル,,株式会社,埼玉県,さいたま市岩槻区,美幸町１番１９号アウローラ・エム２０１号室,,11,110,3390063,,,,,,,2023-10-12,1,,,,,ラフテル,0
401,2030001156621,新規,0,2023-10-12,2023-10-12,株式会社曙会,,株式会社,埼玉県,所沢市,三ケ島３丁目１０８２番地,,11,208,3591164,,,,,,,2023-10-12,1,,,,,アケボノカイ,0
409,2030005021409,新規,0,2023-10-12,2023-10-12,荒薙山王教神社,,その他の設立登記法人,埼玉県,日高市,高萩東３丁目１３４番５４,,11,242,3501215,,,,,,,2023-10-12,1,,,,,アラナギサンノウキョウジンジャ,0
410,2030005021441,新規,0,2023-10-12,2023-10-12,一般社団法人ＭＡＭＡＬＡＢＯ,,その他の設立登記法人,埼玉県,さいたま市緑区,美園４丁目１番地３－１０１２号室,,11,109,3360967,,,,,,,2023-10-12,1,,,,,ママラボ,0
415,2040001130451,新規,0,2023-10-12,2023-10-12,ＸＩＮＹＵ株式会社,,株式会社,千葉県,千葉市美浜区,幸町１丁目１４－７,,12,106,2610001,,,,,,,2023-10-12,1,,,,,シンユ,0
422,2040003023521,新規,0,2023-10-12,2023-10-12,合同会社凱,,合同会社,千葉県,船橋市,八木が谷１丁目６番７号,,12,204,2740802,,,,,,,2023-10-12,1,,,,,カチドキ,0
427,2060005010136,新規,0,2023-10-12,2023-10-12,一般社団法人黎明会,,その他の設立登記法人,栃木県,下野市,大光寺２丁目１９番７号ユーミーレインボー２０１号室,,09,216,3290516,,,,,,,2023-10-12,1,,,,,レイメイカイ,0
428,2070001040953,新規,0,2023-10-12,2023-10-12,株式会社Ｓｈｉｎ’ｓ＆Ｃｏ．,,株式会社,群馬県,高崎市,飯塚町１１３０ハイム問屋町前３０１,,10,202,3700069,,,,,,,2023-10-12,1,,,,,,0
429,2070001040961,新規,0,2023-10-12,2023-10-12,株式会社カッコウクロック,,株式会社,群馬県,高崎市,北双葉町６番１０号,,10,202,3700842,,,,,,,2023-10-12,1,,,,,,0
434,2080001025912,新規,0,2023-10-12,2023-10-12,株式会社ベアーズ,,株式会社,静岡県,静岡市葵区,鷹匠３丁目１２番３号スリホークマンション２Ａ,,22,101,4200839,,,,,,,2023-10-12,1,,,,,ベアーズ,0
446,2120001258672,新規,0,2023-10-12,2023-10-12,株式会社ＳＬＪＡＰＡＮ,,株式会社,大阪府,大阪市中央区,久太郎町２丁目３番８号ハイム船場５１０号,,27,128,5410056,,,,,,,2023-10-12,1,,,,,エスエルジャパン,0
447,2120001258730,新規,0,2023-10-12,2023-10-12,株式会社フジモト工芸,,株式会社,大阪府,大阪市天王寺区,烏ケ辻１丁目８番９号烏ケ辻コーポ７０２,,27,109,5430042,,,,,,,2023-10-12,1,,,,,フジモトコウゲイ,0
448,2120001258763,新規,0,2023-10-12,2023-10-12,和峰株式会社,,株式会社,大阪府,大阪市西区,本田３丁目１番１９－６０５号室,,27,106,5500022,,,,,,,2023-10-12,1,,,,,カズミネ,0
450,2120003025063,新規,0,2023-10-12,2023-10-12,合同会社Ｍ　Ｓｔｙｌｅ,,合同会社,大阪府,大阪市都島区,都島本通４丁目１４番１１－２０５号,,27,102,5340021,,,,,,,2023-10-12,1,,,,,エムスタイル,0
452,2120101068352,新規,0,2023-10-12,2023-10-12,シンセリティー株式会社,,株式会社,大阪府,岸和田市,大工町１番２２号,,27,202,5960066,,,,,,,2023-10-12,1,,,,,シンセリティー,0
453,2120101068360,新規,0,2023-10-12,2023-10-12,株式会社総建,,株式会社,大阪府,堺市中区,深阪４丁５番４１号,,27,142,5998253,,,,,,,2023-10-12,1,,,,,ソウケン,0
457,2120901048149,新規,0,2023-10-12,2023-10-12,株式会社結心,,株式会社,大阪府,池田市,石橋４丁目２２番１－２０２号,,27,204,5630032,,,,,,,2023-10-12,1,,,,,ユウシン,0
458,2120901048165,新規,0,2023-10-12,2023-10-12,株式会社Ｄｏｉ,,株式会社,大阪府,豊中市,桜の町６丁目１番６－１０３号,,27,203,5600054,,,,,,,2023-10-12,1,,,,,ドイ,0
462,2122001037461,新規,0,2023-10-12,2023-10-12,株式会社ＭＥＲＲＹ,,株式会社,大阪府,八尾市,竹渕西５丁目２２番地の８,,27,212,5810051,,,,,,,2023-10-12,1,,,,,メリー,0
469,2140003019591,新規,0,2023-10-12,2023-10-12,合同会社Ｃｏｌｏｒｓ,,合同会社,兵庫県,西宮市,若草町１丁目５番１４号,,28,204,6638181,,,,,,,2023-10-12,1,,,,,カラーズ,0
484,2190001030793,新規,0,2023-10-12,2023-10-12,株式会社晴屋,,株式会社,三重県,松阪市,鎌田町８０８番地１７,,24,204,5150005,,,,,,,2023-10-12,1,,,,,ハルヤ,0
485,2190003004473,新規,0,2023-10-12,2023-10-12,合同会社アンバー,,合同会社,三重県,いなべ市,大安町梅戸１９９２番地３,,24,214,5110284,,,,,,,2023-10-12,1,,,,,アンバー,0
486,2190005011872,新規,0,2023-10-12,2023-10-12,一般社団法人金融教育コーディネーター協会,,その他の設立登記法人,三重県,伊勢市,下野町４９８番地,,24,203,5160003,,,,,,,2023-10-12,1,,,,,キンユウキョウイクコーディネーターキョウカイ,0
489,2210001019487,新規,0,2023-10-12,2023-10-12,株式会社フジケン,,株式会社,福井県,大飯郡高浜町,鐘寄１２字上ノ畠１番地の２,,18,481,9192212,,,,,,,2023-10-12,1,,,,,フジケン,0
497,2240005015661,新規,0,2023-10-12,2023-10-12,社会保険労務士法人中野事務所,,その他の設立登記法人,広島県,広島市東区,二葉の里１丁目１番２３号,,34,102,7320057,,,,,,,2023-10-12,1,,,,,ナカノジムショ,0
498,2250001020334,新規,0,2023-10-12,2023-10-12,株式会社濱口総建,,株式会社,山口県,下関市,川中本町１丁目４番１２号,,35,201,7510859,,,,,,,2023-10-12,1,,,,,ハマグチソウケン,0
500,2250005008870,新規,0,2023-10-12,2023-10-12,一般社団法人ＢＱＳ建築品質検査機構,,その他の設立登記法人,山口県,周南市,有楽町４０番地,,35,215,7450035,,,,,,,2023-10-12,1,,,,,ビーキューエスケンチクヒンシツケンサキコウ,0
505,2260003004466,新規,0,2023-10-12,2023-10-12,合同会社ティーコンサル,,合同会社,岡山県,倉敷市,松江２丁目１４－１０,,33,202,7128052,,,,,,,2023-10-12,1,,,,,ティーコンサル,0
508,2290001103341,新規,0,2023-10-12,2023-10-12,株式会社ＷＡＴＡＲＩ,,株式会社,福岡県,福岡市博多区,博多駅前３丁目７番３号,,40,132,8120011,,,,,,,2023-10-12,1,,,,,ワタリ,0
509,2290001103358,新規,0,2023-10-12,2023-10-12,株式会社ＹＡＭＡＴＯ,,株式会社,福岡県,朝倉市,堤１１６４番地１,,40,228,8380062,,,,,,,2023-10-12,1,,,,,ヤマト,0
510,2290001103374,新規,0,2023-10-12,2023-10-12,株式会社コネクト総建,,株式会社,福岡県,古賀市,川原１１３２番地１０２,,40,223,8113132,,,,,,,2023-10-12,1,,,,,コネクトソウケン,0
526,2330003010011,新規,0,2023-10-12,2023-10-12,レーヌ合同会社,,合同会社,熊本県,熊本市中央区,下通１丁目７－７,,43,101,8600807,,,,,,,2023-10-12,1,,,,,レーヌ,0
527,2340003004284,新規,0,2023-10-12,2023-10-12,ＶｉｓｉＳｔｅｌｌａ合同会社,,合同会社,鹿児島県,鹿児島市,吉野町３３２２番地４９,,46,201,8920871,,,,,,,2023-10-12,1,,,,,ヴィジステラ,0
541,2380003005584,新規,0,2023-10-12,2023-10-12,合同会社そめや,,合同会社,福島県,須賀川市,北横田字杉之内１１５番地,,07,207,9620313,,,,,,,2023-10-12,1,,,,,ソメヤ,0
555,2500001025241,新規,0,2023-10-12,2023-10-12,株式会社Ｒｅｌｅｖａｎｓｏｌ,,株式会社,愛媛県,今治市,黄金町２丁目５－３４,,38,202,7940037,,,,,,,2023-10-12,1,,,,,レレバンソル,0
558,2700150115450,新規,0,2023-10-12,2023-10-12,Ｓｈｅｎｚｈｅｎ　Ｌｏｃｏｃｏ　Ｅ－ｃｏｍｍｅｒｃｅ　Ｃｏ．，Ｌｔｄ,,外国会社等,,,,,,,,ｓｈｅｎｚｈｅｎｓｈｉ　ｂａｏａｎｑｕ　ｘｉｘｉａｎｇ　ｊｉｅｄａｏ　ｙｕｙｅ　ｓｈｅｑｕ　ｍｉｎｇｙｏｕ　ｃａｉｇｏｕ　ｚｈｏｎｇｘｉｎ　Ａ　ｚｕｏ　Ａ６０２,,,,,,2023-10-12,1,,,,,シェンチェンロココイーコマース,0
559,2700150118577,新規,0,2023-10-12,2023-10-12,ＳｈａｎｇＨａｉＪｉａＢｉｎＤｉａｎＺｉＳｈａｎｇＷｕＹｏｕＸｉａｎＧｏｎｇＳｉ,,外国会社等,,,,,,,,ＭｉｎｇＣｈｅｎｇＬｕ１０８８Ｎｏｎｇ７Ｈａｏ１－２Ｃｅｎｇ　ＦｅｎｇＸｉａｎＱｕ　ＳｈａｎｇＨａｉＳｈｉ　２０１４１９　ＣＮ,,,,,,2023-10-12,1,,,,,シャンハイジアビンディアンジシャンウヨウシャンゴンシ,0
560,2700150121192,新規,0,2023-10-12,2023-10-12,Ｗｉｔｈ　Ｒｅａｃｈ（ＵＫ）Ｌｔｄ．,,外国会社等,,,,,,,,３　Ｌｌｏｙｄ’ｓ　Ａｖｅ，Ｌｏｎｄｏｎ　ＥＣ３Ｎ　３ＤＳ，Ｕｎｉｔｅｄ　Ｋｉｎｇｄｏｍ,,,,,,2023-10-12,1,,,,,ウィズリーチユーケーリミテッド,0
561,2700150121201,新規,0,2023-10-12,2023-10-12,上海楽漾貿易有限公司,00132196,外国会社等,,,,,,,,中国上海市奉賢区聯合北路２１５号第１幢４４４５室,00132197,,,,,2023-10-12,1,,,,,シャンハイラクヨウボウエキユウゲンコウシ,0
570,3010001238627,新規,0,2023-10-12,2023-10-12,国際美容研究所株式会社,,株式会社,東京都,中央区,八丁堀４丁目１４番７号,,13,102,1040032,,,,,,,2023-10-12,1,,,,,コクサイビヨウケンキュウジョ,0
571,3010001239154,新規,0,2023-10-12,2023-10-12,株式会社三幸,,株式会社,東京都,三宅島三宅村,伊豆１０８８番地,,13,381,1001102,,,,,,,2023-10-12,1,,,,,サンコウ,0
572,3010001239170,新規,0,2023-10-12,2023-10-12,株式会社ＦＬＯ　ＦＩＬＭ,,株式会社,東京都,文京区,湯島４丁目６番１１号,,13,105,1130034,,,,,,,2023-10-12,1,,,,,フローフィルム,0
573,3010001239179,新規,0,2023-10-12,2023-10-12,海麗国際株式会社,,株式会社,東京都,千代田区,神田佐久間町２丁目１８－１,,13,101,1010025,,,,,,,2023-10-12,1,,,,,ハイリコクサイ,0
575,3010003041888,新規,0,2023-10-12,2023-10-12,合同会社ソラユリ,,合同会社,東京都,千代田区,神田佐久間町４丁目９番地,,13,101,1010025,,,,,,,2023-10-12,1,,,,,ソラユリ,0
576,3010003041905,新規,0,2023-10-12,2023-10-12,合同会社Ｇｌｏｒｙ,,合同会社,東京都,千代田区,有楽町１丁目６番１０号,,13,101,1000006,,,,,,,2023-10-12,1,,,,,グローリー,0
577,3010003041921,新規,0,2023-10-12,2023-10-12,室蘭ＨＰＣデータセンター合同会社,,合同会社,東京都,中央区,銀座６丁目６番１号銀座風月堂ビル５Ｆ,,13,102,1040061,,,,,,,2023-10-12,1,,,,,ムロランエイチピーシーデータセンター,0
579,3010005037364,新規,0,2023-10-12,2023-10-12,池田坂ホールディングス一般社団法人,,その他の設立登記法人,東京都,千代田区,九段南３丁目７番７号成和綜合会計事務所内,,13,101,1020074,,,,,,,2023-10-12,1,,,,,イケダザカホールディングス,0
592,3010401177689,新規,0,2023-10-12,2023-10-12,Ｐｌｕｓｎａ株式会社,,株式会社,東京都,港区,浜松町１丁目３番２号,,13,103,1050013,,,,,,,2023-10-12,1,,,,,プラスナ,0
593,3010401177714,新規,0,2023-10-12,2023-10-12,株式会社プリスター,,株式会社,東京都,港区,南青山３丁目１番３６号青山丸竹ビル６Ｆ,,13,103,1070062,,,,,,,2023-10-12,1,,,,,プリスター,0
594,3010401177771,新規,0,2023-10-12,2023-10-12,ベリア株式会社,,株式会社,東京都,港区,南青山３丁目１番３６号青山丸竹ビル６Ｆ,,13,103,1070062,,,,,,,2023-10-12,1,,,,,ベリア,0
600,3010501051174,新規,0,2023-10-12,2023-10-12,Ｇａｌａｘｙ株式会社,,株式会社,東京都,台東区,東上野５丁目１０番１０号安達ビル２０１,,13,106,1100015,,,,,,,2023-10-12,1,,,,,ギャラクシー,0
601,3010501051182,新規,0,2023-10-12,2023-10-12,株式会社ｇｏｂｂ．ｌｉｎ,,株式会社,東京都,台東区,清川１丁目２２番９－３０１号,,13,106,1110022,,,,,,,2023-10-12,1,,,,,ゴブリン,0
604,3010603010417,新規,0,2023-10-12,2023-10-12,合同会社ＢＲＩＤＧＥ,,合同会社,東京都,墨田区,堤通１丁目１９－８－３２０７,,13,107,1310034,,,,,,,2023-10-12,1,,,,,ブリッジ,0
608,3010803004714,新規,0,2023-10-12,2023-10-12,合名会社ＣＨＩ,,合名会社,東京都,大田区,中央１丁目１７番１号,,13,111,1430024,,,,,,,2023-10-12,1,,,,,シーエイチアイ,0
619,3011001157503,新規,0,2023-10-12,2023-10-12,株式会社ＤｉＦｕｎ,,株式会社,東京都,渋谷区,道玄坂１丁目１０番８号渋谷道玄坂東急ビル２Ｆ－Ｃ,,13,113,1500043,,,,,,,2023-10-12,1,,,,,ディファン,0
623,3011101104685,新規,0,2023-10-12,2023-10-12,株式会社ＧＡＭ,,株式会社,東京都,新宿区,四谷三栄町４番１０号税研ビル２階,,13,104,1600008,,,,,,,2023-10-12,1,,,,,ガム,0
624,3011101104710,新規,0,2023-10-12,2023-10-12,ハーグシュトライトジャパン株式会社,,株式会社,東京都,新宿区,西新宿１丁目２０番３号西新宿高木ビル８階,00132218,13,104,1600023,,,,,,,2023-10-12,1,,,,,ハーグシュトライトジャパン,0
625,3011105010814,新規,0,2023-10-12,2023-10-12,一般社団法人日本ほたて貝輸出振興協会,,その他の設立登記法人,東京都,新宿区,西新宿３丁目３番１３号西新宿水間ビル６階,,13,104,1600023,,,,,,,2023-10-12,1,,,,,ニホンホタテガイユシュツシンコウキョウカイ,0
626,3011201024973,新規,0,2023-10-12,2023-10-12,株式会社フューチャーセンスコンサルティング,,株式会社,東京都,中野区,中野４丁目１０番２号,,13,114,1640001,,,,,,,2023-10-12,1,,,,,フューチャーセンスコンサルティング,0
638,3011801043150,新規,0,2023-10-12,2023-10-12,株式会社アンナ,,株式会社,東京都,足立区,舎人５丁目５番５号,,13,121,1210831,,,,,,,2023-10-12,1,,,,,アンナ,0
639,3011801043159,新規,0,2023-10-12,2023-10-12,株式会社蔵乃屋東京,,株式会社,東京都,足立区,北加平町９番６－２０２号,,13,121,1210056,,,,,,,2023-10-12,1,,,,,クラノヤトウキョウ,0
641,3011803005826,新規,0,2023-10-12,2023-10-12,叶子合同会社,,合同会社,東京都,足立区,梅田６丁目３３番５号６０３,,13,121,1230851,,,,,,,2023-10-12,1,,,,,カナコ,0
644,3012703002822,新規,0,2023-10-12,2023-10-12,合同会社ニーパン,,合同会社,東京都,西東京市,西原町１丁目９番１４－６０２号,,13,229,1880004,,,,,,,2023-10-12,1,,,,,ニーパン,0
645,3012801022689,新規,0,2023-10-12,2023-10-12,株式会社ＡＲＫ,,株式会社,東京都,武蔵村山市,大南１丁目６１－１,,13,223,2080013,,,,,,,2023-10-12,1,,,,,アーク,0
651,3013301051451,新規,0,2023-10-12,2023-10-12,株式会社ＳＰＡＣＥ　ＯＮＥ,,株式会社,東京都,豊島区,東池袋３丁目１５－２－２１０,,13,116,1700013,,,,,,,2023-10-12,1,,,,,スペースワン,0
652,3013301051468,新規,0,2023-10-12,2023-10-12,ＨＣソリューション株式会社,,株式会社,東京都,豊島区,池袋１丁目１５－１５,,13,116,1700014,,,,,,,2023-10-12,1,,,,,エイチシーソリューション,0
656,3020001153841,新規,0,2023-10-12,2023-10-12,株式会社石原珈琲店,,株式会社,神奈川県,横浜市西区,岡野１丁目１９番２１号,,14,103,2200073,,,,,,,2023-10-12,1,,,,,,0
657,3020001153866,新規,0,2023-10-12,2023-10-12,ホリデイ株式会社,,株式会社,神奈川県,横浜市緑区,台村町１８６番地カワグチビル,,14,113,2260014,,,,,,,2023-10-12,1,,,,,ホリデイ,0
658,3020001153874,新規,0,2023-10-12,2023-10-12,株式会社スマイルケア,,株式会社,神奈川県,川崎市川崎区,池上町５番３号,,14,131,2100864,,,,,,,2023-10-12,1,,,,,スマイルケア,0
663,3020003024719,新規,0,2023-10-12,2023-10-12,焼き芋倶楽部合同会社,,合同会社,神奈川県,川崎市多摩区,三田２丁目３２９７番地１３－３０２,,14,135,2140034,,,,,,,2023-10-12,1,,,,,ヤキイモクラブ,0
664,3020003024727,新規,0,2023-10-12,2023-10-12,合同会社Ｎｏｖａｎｅｘｕｓ,,合同会社,神奈川県,横浜市保土ケ谷区,鎌谷町１２４番地グリーンライベックス峯岡１０２号,,14,106,2400063,,,,,,,2023-10-12,1,,,,,ノーヴァネクサス,0
665,3020003024751,新規,0,2023-10-12,2023-10-12,合同会社パスリブラ,,合同会社,神奈川県,横浜市青葉区,荏田町３３６番地１クレッセントあざみ野コート６０４号,,14,117,2250013,,,,,,,2023-10-12,1,,,,,パスリブラ,0
669,3021001080431,新規,0,2023-10-12,2023-10-12,株式会社ＳＴＭＳ,,株式会社,神奈川県,厚木市,林１丁目３番１１号,,14,212,2430816,,,,,,,2023-10-12,1,,,,,エスティーエムエス,0
675,3030001156331,新規,0,2023-10-12,2023-10-12,株式会社武蔵野経営アシスト,,株式会社,埼玉県,富士見市,上沢１丁目９番３３号,,11,235,3540034,,,,,,,2023-10-12,1,,,,,ムサシノケイエイアシスト,0
676,3030001156579,新規,0,2023-10-12,2023-10-12,一貴工業株式会社,,株式会社,埼玉県,狭山市,柏原３４８４番地の２１３,,11,215,3501335,,,,,,,2023-10-12,1,,,,,イチキコウギョウ,0
677,3030001156587,新規,0,2023-10-12,2023-10-12,株式会社ギガファーマー,,株式会社,埼玉県,さいたま市大宮区,吉敷町１丁目１３５番地Ａｒａｉビル９階,,11,103,3300843,,,,,,,2023-10-12,1,,,,,ギガファーマー,0
689,3040001130442,新規,0,2023-10-12,2023-10-12,株式会社レイワホームサービス,,株式会社,千葉県,松戸市,松戸新田１２０－２－５１５,,12,207,2702241,,,,,,,2023-10-12,1,,,,,レイワホームサービス,0
690,3040001130450,新規,0,2023-10-12,2023-10-12,株式会社ＫＡＹＡＣＫ,,株式会社,千葉県,市原市,ちはら台東６丁目２番地４７５,,12,219,2900141,,,,,,,2023-10-12,1,,,,,カヤック,0
691,3040001130475,新規,0,2023-10-12,2023-10-12,まるか商事株式会社,,株式会社,千葉県,千葉市花見川区,花園町２４４２番地１４,,12,102,2620021,,,,,,,2023-10-12,1,,,,,マルカショウジ,0
695,3040003023504,新規,0,2023-10-12,2023-10-12,ＫＧＳＶリニューアブルエナジー合同会社,,合同会社,千葉県,市川市,市川南２丁目８番８号,,12,203,2720033,,,,,,,2023-10-12,1,,,,,ケージーエスブイリニューアブルエナジー,0
696,3050003007828,新規,0,2023-10-12,2023-10-12,合同会社Ｒｏｃｋ　Ｓｔｅａｄｙ,,合同会社,茨城県,坂東市,辺田９５１番地３,,08,228,3060632,,,,,,,2023-10-12,1,,,,,ロックステディ,0
698,3060001036415,新規,0,2023-10-12,2023-10-12,株式会社栃木金属,,株式会社,栃木県,栃木市,岩舟町静戸１１９１番地１,,09,203,3294305,,,,,,,2023-10-12,1,,,,,トチギキンゾク,0
699,3060001036431,新規,0,2023-10-12,2023-10-12,株式会社クラシク,,株式会社,栃木県,宇都宮市,台新田１丁目１番３７号,,09,201,3210104,,,,,,,2023-10-12,1,,,,,クラシク,0
702,3070001040952,新規,0,2023-10-12,2023-10-12,株式会社イルファントレーディング,,株式会社,群馬県,邑楽郡明和町,中谷３３８番地２,,10,522,3700713,,,,,,,2023-10-12,1,,,,,イルファントレーディング,0
709,3100001036872,新規,0,2023-10-12,2023-10-12,株式会社ライズ,,株式会社,長野県,上田市,中之条５６６番地２０,,20,203,3860034,,,,,,,2023-10-12,1,,,,,ライズ,0
727,3120001258647,新規,0,2023-10-12,2023-10-12,株式会社はるプラス,,株式会社,大阪府,大阪市中央区,島之内１丁目１９番３号クレディ長堀橋ビル９０１号,,27,128,5420082,,,,,,,2023-10-12,1,,,,,ハルプラス,0
728,3120001258688,新規,0,2023-10-12,2023-10-12,株式会社Ｙ＆Ｎホールディングス,,株式会社,大阪府,大阪市西区,西本町１丁目４番１号オリックス本町ビル４階,,27,106,5500005,,,,,,,2023-10-12,1,,,,,ワイアンドエヌホールディングス,0
729,3120001258705,新規,0,2023-10-12,2023-10-12,株式会社ブレストテック,,株式会社,大阪府,大阪市東住吉区,鷹合４丁目１７番１１号,,27,121,5460014,,,,,,,2023-10-12,1,,,,,ブレストテック,0
730,3120001258762,新規,0,2023-10-12,2023-10-12,幸蓮株式会社,,株式会社,大阪府,大阪市淀川区,西三国１丁目１１番２－３０３Ａ号,,27,123,5320006,,,,,,,2023-10-12,1,,,,,コウレン,0
732,3120003025062,新規,0,2023-10-12,2023-10-12,合同会社ＭＴＣ,,合同会社,大阪府,大阪市天王寺区,烏ケ辻１丁目３番４－１２０１号,00132221,27,109,5430042,,,,,,,2023-10-12,1,,,,,エムティーシー,0
736,3120101068368,新規,0,2023-10-12,2023-10-12,株式会社アットプラン,,株式会社,大阪府,堺市中区,東山８０２番地１,,27,142,5998247,,,,,,,2023-10-12,1,,,,,アットプラン,0
739,3120901048131,新規,0,2023-10-12,2023-10-12,ＴａＳ不動産株式会社,,株式会社,大阪府,摂津市,東一津屋４－１０ルッツ南摂津２Ｆ,,27,224,5660074,,,,,,,2023-10-12,1,,,,,タスフドウサン,0
740,3120901048156,新規,0,2023-10-12,2023-10-12,株式会社奄美,,株式会社,大阪府,豊中市,服部元町１丁目９番１号,,27,203,5610851,,,,,,,2023-10-12,1,,,,,アマミ,0
741,3120901048164,新規,0,2023-10-12,2023-10-12,株式会社３１０,,株式会社,大阪府,吹田市,江の木町２番３２号,,27,205,5640053,,,,,,,2023-10-12,1,,,,,サンイチゼロ,0
743,3120903004859,新規,0,2023-10-12,2023-10-12,合同会社ルースデエスペランサ,,合同会社,大阪府,高槻市,城南町１丁目４番６号,,27,207,5690056,,,,,,,2023-10-12,1,,,,,ルースデエスペランサ,0
746,3122001037460,新規,0,2023-10-12,2023-10-12,ニッショー株式会社,,株式会社,大阪府,柏原市,大正３丁目１－１２,,27,221,5820009,,,,,,,2023-10-12,1,,,,,ニッショー,0
751,3140001131810,新規,0,2023-10-12,2023-10-12,コムネットホールディングス株式会社,,株式会社,兵庫県,神戸市中央区,港島南町７丁目２番地の１０,,28,110,6500047,,,,,,,2023-10-12,1,,,,,コムネットホールディングス,0
752,3140001131967,新規,0,2023-10-12,2023-10-12,ステイフォート株式会社,,株式会社,兵庫県,神戸市西区,持子３丁目１６番地１,,28,111,6512131,,,,,,,2023-10-12,1,,,,,ステイフォート,0
756,3140003019525,新規,0,2023-10-12,2023-10-12,合同会社ｂｌｏｓｓｏｍ,,合同会社,兵庫県,加古川市,平岡町土山１１９－１,,28,210,6750104,,,,,,,2023-10-12,1,,,,,ブロッサム,0
760,3150001026778,新規,0,2023-10-12,2023-10-12,株式会社みのり,,株式会社,奈良県,奈良市,鶴舞東町１番１２－３１６号,,29,201,6310021,,,,,,,2023-10-12,1,,,,,ミノリ,0
770,3180001158404,新規,0,2023-10-12,2023-10-12,株式会社デンタルエージェント,,株式会社,愛知県,名古屋市千種区,東山通１丁目３３番地エイブル本山２Ｂ号室,,23,101,4640807,,,,,,,2023-10-12,1,,,,,デンタルエージェント,0
771,3180001158461,新規,0,2023-10-12,2023-10-12,株式会社ココロ,,株式会社,愛知県,春日井市,高蔵寺町５丁目１４番地１,,23,206,4870013,,,,,,,2023-10-12,1,,,,,ココロ,0
774,3180005020386,新規,0,2023-10-12,2023-10-12,一般社団法人大人の変身学校,,その他の設立登記法人,愛知県,名古屋市中区,錦１丁目１７番１３号－２Ｆ,,23,106,4600003,,,,,,,2023-10-12,1,,,,,オトナノヘンシンガッコウ,0
778,3180303005865,新規,0,2023-10-12,2023-10-12,合同会社エステ・フルール,,合同会社,愛知県,碧南市,伏見町３丁目４１番地２,,23,209,4470807,,,,,,,2023-10-12,1,,,,,エステフルール,0
784,3190005011871,新規,0,2023-10-12,2023-10-12,一般社団法人ヘルサ,,その他の設立登記法人,三重県,津市,久居野村町５１６番地６,,24,201,5141113,,,,,,,2023-10-12,1,,,,,ヘルサ,0
793,3200001041813,新規,0,2023-10-12,2023-10-12,株式会社新生,,株式会社,岐阜県,各務原市,テクノプラザ３丁目５番,,21,213,5090109,,,,,,,2023-10-12,1,,,,,シンセイ,0
794,3230001020046,新規,0,2023-10-12,2023-10-12,株式会社水島設備,,株式会社,富山県,下新川郡朝日町,沼保１０３７番地４,,16,343,9390742,,,,,,,2023-10-12,1,,,,,ミズシマセツビ,0
800,3250001020341,新規,0,2023-10-12,2023-10-12,株式会社ＢＥＡＣＨＦＡＭＩＬＹ,,株式会社,山口県,大島郡周防大島町,大字油宇２２８３番地３,,35,305,7422602,,,,,,,2023-10-12,1,,,,,ビーチファミリー,0
805,3260001038390,新規,0,2023-10-12,2023-10-12,株式会社ＲａｃｅＵｐ,,株式会社,岡山県,加賀郡吉備中央町,湯山１２８０番地１６２,,33,681,7161112,,,,,,,2023-10-12,1,,,,,レースアップ,0
807,3260003004465,新規,0,2023-10-12,2023-10-12,Ｇｒａｃｅ　ｏｆ　ｅａｒｔｈ合同会社,,合同会社,岡山県,笠岡市,緑町６番地４７,,33,205,7140048,,,,,,,2023-10-12,1,,,,,グレースオブアース,0
808,3290001103332,新規,0,2023-10-12,2023-10-12,株式会社ＦＯＲＴＹ　ＦＯＵＲ,,株式会社,福岡県,宗像市,稲元７丁目１３番７号,,40,220,8113406,,,,,,,2023-10-12,1,,,,,フォーティーフォー,0
809,3290001103349,新規,0,2023-10-12,2023-10-12,株式会社福岡マネジメントサポート,,株式会社,福岡県,福岡市博多区,博多駅東１丁目１番３３号はかた近代ビル７階,,40,132,8120013,,,,,,,2023-10-12,1,,,,,フクオカマネジメントサポート,0
810,3290001103373,新規,0,2023-10-12,2023-10-12,ＵＦ株式会社,,株式会社,福岡県,福岡市東区,香椎６丁目１番９号,,40,131,8130011,,,,,,,2023-10-12,1,,,,,ユーエフ,0
823,3350005006186,新規,0,2023-10-12,2023-10-12,一般社団法人宮崎ｆｒｏｇｓ,,その他の設立登記法人,宮崎県,日南市,岩崎３丁目７－２８,,45,204,8870014,,,,,,,2023-10-12,1,,,,,ミヤザキフロッグス,0
824,3360001032664,新規,0,2023-10-12,2023-10-12,株式会社サステインハピネス,,株式会社,沖縄県,那覇市,銘苅２丁目３番１号なは産業支援センター４階４１１号室,,47,201,9000004,,,,,,,2023-10-12,1,,,,,サステインハピネス,0
832,3370003006319,新規,0,2023-10-12,2023-10-12,ＣＴＭ合同会社,,合同会社,宮城県,仙台市青葉区,本町１丁目１２番３１号,,04,101,9800014,,,,,,,2023-10-12,1,,,,,シーティーエム,0
842,3400001016415,新規,0,2023-10-12,2023-10-12,株式会社シーエフプランニング,,株式会社,岩手県,岩手郡雫石町,南畑第４地割３７番地２,,03,301,0200573,,,,,,,2023-10-12,1,,,,,シーエフプランニング,0
844,3410005006543,新規,0,2023-10-12,2023-10-12,さわき社会保険労務士法人,,その他の設立登記法人,秋田県,秋田市,土崎港東２丁目１番４号,,05,201,0110942,,,,,,,2023-10-12,1,,,,,サワキ,0
848,3430001090119,新規,0,2023-10-12,2023-10-12,株式会社ｉｎｏｇｕｃｈｉ,,株式会社,北海道,滝川市,泉町２丁目１３番３９号,,01,225,0730042,,,,,,,2023-10-12,1,,,,,イノグチ,0
861,3500001025240,新規,0,2023-10-12,2023-10-12,株式会社ヘルスケアリンクス伊方,,株式会社,愛媛県,西宇和郡伊方町,川永田甲１５３４番地１,,38,442,7960312,,,,,,,2023-10-12,1,,,,,ヘルスケアリンクスイカタ,0
864,3700150121200,新規,0,2023-10-12,2023-10-12,杭州厚諾科技有限公司,,外国会社等,,,,,,,,中国浙江省杭州市拱墅区万広匯商務中心２幢１７０６室－１,,,,,,2023-10-12,1,,,,,コウシュウコウダクカギユウゲンコウシ,0
872,4010001239137,新規,0,2023-10-12,2023-10-12,株式会社藏,00132216,株式会社,東京都,文京区,音羽２丁目１番１０号,,13,105,1120013,,,,,,,2023-10-12,1,,,,,クラ,0
873,4010001239153,新規,0,2023-10-12,2023-10-12,株式会社ＴＣＮプライム,,株式会社,東京都,文京区,本郷１丁目２８番１０号,,13,105,1130033,,,,,,,2023-10-12,1,,,,,ティーシーエヌプライム,0
874,4010001239178,新規,0,2023-10-12,2023-10-12,ミニコンオートメーション株式会社,,株式会社,東京都,千代田区,九段北１丁目１３番５号,,13,101,1020073,,,,,,,2023-10-12,1,,,,,ミニコンオートメーション,0
876,4010003041895,新規,0,2023-10-12,2023-10-12,杵築１太陽光発電所合同会社,,合同会社,東京都,千代田区,丸の内１丁目８番２号鉄鋼ビルディング４階,,13,101,1000005,,,,,,,2023-10-12,1,,,,,キツキワンタイヨウコウハツデンショ,0
879,4010005037355,新規,0,2023-10-12,2023-10-12,一般社団法人ＡＳＩＡ再生医療学会,,その他の設立登記法人,東京都,千代田区,丸の内１丁目８番３号丸の内トラストタワー本館２０階,,13,101,1000005,,,,,,,2023-10-12,1,,,,,アジアサイセイイリョウガッカイ,0
880,4010005037371,新規,0,2023-10-12,2023-10-12,パライバ一般社団法人,,その他の設立登記法人,東京都,千代田区,丸の内３丁目１番１号東京共同会計事務所内,,13,101,1000005,,,,,,,2023-10-12,1,,,,,パライバ,0
884,4010101015850,新規,0,2023-10-12,2023-10-12,株式会社エイト,,株式会社,東京都,八王子市,中町９番１号,,13,201,1920085,,,,,,,2023-10-12,1,,,,,エイト,0
895,4010401177548,新規,0,2023-10-12,2023-10-12,株式会社二月花壇,,株式会社,東京都,港区,赤坂２丁目１７番６２号ＶＯＲＴ赤坂ＩＩＩ,00132229,13,103,1070052,,,,,,,2023-10-12,1,,,,,ニガツカダン,0
896,4010401177705,新規,0,2023-10-12,2023-10-12,株式会社ｍｅｄｏ,,株式会社,東京都,港区,高輪２丁目１３番１６－５０１号,,13,103,1080074,,,,,,,2023-10-12,1,,,,,メド,0
897,4010401177804,新規,0,2023-10-12,2023-10-12,ラッドステイト株式会社,,株式会社,東京都,港区,港南２丁目１６番１号品川イーストワンタワー７階,,13,103,1080075,,,,,,,2023-10-12,1,,,,,ラッドステイト,0
902,4010403031133,新規,0,2023-10-12,2023-10-12,合同会社アルル,,合同会社,東京都,港区,三田１丁目６番３－１４０３号,,13,103,1080073,,,,,,,2023-10-12,1,,,,,アルル,0
903,4010403031141,新規,0,2023-10-12,2023-10-12,合同会社ＪＡＨ　Ｏｎｅ,,合同会社,東京都,港区,元赤坂１丁目１番８号赤坂コミュニティビル４階,,13,103,1070051,,,,,,,2023-10-12,1,,,,,ジェイエイエイチワン,0
907,4010405022543,新規,0,2023-10-12,2023-10-12,一般社団法人映像技術者電波協会,,その他の設立登記法人,東京都,港区,芝浦１丁目１３番１０号第３東運ビル,,13,103,1050023,,,,,,,2023-10-12,1,,,,,エイゾウギジュツシャデンパキョウカイ,0
912,4010601063936,新規,0,2023-10-12,2023-10-12,ＴＯＲＡＫＵ株式会社,,株式会社,東京都,江東区,大島４丁目１－３－５４３号,,13,108,1360072,,,,,,,2023-10-12,1,,,,,トラク,0
913,4010603010408,新規,0,2023-10-12,2023-10-12,ａｕｒｉｎｋｏ合同会社,,合同会社,東京都,江東区,南砂２丁目５番１４号,,13,108,1360076,,,,,,,2023-10-12,1,,,,,アウリンコ,0
918,4010705003549,新規,0,2023-10-12,2023-10-12,一般社団法人日本下水汚泥資源化協会,,その他の設立登記法人,東京都,品川区,西五反田７丁目２５番１９号,,13,109,1410031,,,,,,,2023-10-12,1,,,,,ニホンゲスイオデイシゲンカキョウカイ,0
919,4010801034415,新規,0,2023-10-12,2023-10-12,ナインジーワークス株式会社,,株式会社,東京都,大田区,大森北５丁目５番６号,,13,111,1430016,,,,,,,2023-10-12,1,,,,,ナインジーワークス,0
921,4010901053991,新規,0,2023-10-12,2023-10-12,株式会社ａｉｔｏｓ,,株式会社,東京都,世田谷区,代田５丁目９番,,13,112,1550033,,,,,,,2023-10-12,1,,,,,エイトス,0
925,4011001157502,新規,0,2023-10-12,2023-10-12,株式会社ＮｅｘＰｕｌｓｅ,,株式会社,東京都,渋谷区,道玄坂１丁目１０番８号渋谷道玄坂東急ビル２Ｆ－Ｃ,,13,113,1500043,,,,,,,2023-10-12,1,,,,,ネクスパルス,0
926,4011001157527,新規,0,2023-10-12,2023-10-12,株式会社ＴＫヒューマンサポート,,株式会社,東京都,渋谷区,松濤１丁目７番４号松濤フラッツ２０２,,13,113,1500046,,,,,,,2023-10-12,1,,,,,ティーケーヒューマンサポート,0
929,4011003017646,新規,0,2023-10-12,2023-10-12,合同会社ＸＴｅｃｈ,,合同会社,東京都,渋谷区,道玄坂１丁目１６－６二葉ビル８ｂ,,13,113,1500043,,,,,,,2023-10-12,1,,,,,エクステック,0
930,4011003017662,新規,0,2023-10-12,2023-10-12,合同会社マイスターサービス,,合同会社,東京都,目黒区,南２丁目１３番５号,,13,110,1520013,,,,,,,2023-10-12,1,,,,,マイスターサービス,0
931,4011003017695,新規,0,2023-10-12,2023-10-12,ＥＭＭ合同会社,,合同会社,東京都,渋谷区,渋谷３丁目２６－１６第五叶ビル５Ｆ,,13,113,1500002,,,,,,,2023-10-12,1,,,,,イーエムエム,0
941,4011201024972,新規,0,2023-10-12,2023-10-12,株式会社フルパワープロダクション,,株式会社,東京都,中野区,東中野３丁目２番４号ハイツたちばな１０２,,13,114,1640003,,,,,,,2023-10-12,1,,,,,フルパワープロダクション,0
943,4011203004196,新規,0,2023-10-12,2023-10-12,合同会社アートレイエナジー,,合同会社,東京都,中野区,大和町１丁目１－２３－７０２,,13,114,1650034,,,,,,,2023-10-12,1,,,,,アートレイエナジー,0
945,4011301029070,新規,0,2023-10-12,2023-10-12,株式会社中屋商事,,株式会社,東京都,杉並区,高円寺南２丁目２４番１５号,,13,115,1660003,,,,,,,2023-10-12,1,,,,,ナカヤショウジ,0
947,4011401025523,新規,0,2023-10-12,2023-10-12,Ｌ．Ｅ．Ｔ株式会社,,株式会社,東京都,板橋区,上板橋２丁目４８番２－８１３号,,13,119,1740076,,,,,,,2023-10-12,1,,,,,エルイーティー,0
948,4011403004145,新規,0,2023-10-12,2023-10-12,合同会社ｍｏｍｏ,,合同会社,東京都,板橋区,栄町１９番５－５０４号,,13,119,1730015,,,,,,,2023-10-12,1,,,,,モモ,0
954,4011801043158,新規,0,2023-10-12,2023-10-12,スタージョンバイオ・ジャパン株式会社,,株式会社,東京都,足立区,佐野２丁目４２番６号,,13,121,1210053,,,,,,,2023-10-12,1,,,,,スタージョンバイオジャパン,0
955,4011803005882,新規,0,2023-10-12,2023-10-12,合同会社フローレス,,合同会社,東京都,足立区,扇２丁目１０番１２号,,13,121,1230873,,,,,,,2023-10-12,1,,,,,フローレス,0
956,4012301013626,新規,0,2023-10-12,2023-10-12,株式会社ジフデリ,,株式会社,東京都,町田市,金井４丁目１１番１７号ランパルヴィラ１０２,,13,209,1950072,,,,,,,2023-10-12,1,,,,,ジフデリ,0
959,4012703002821,新規,0,2023-10-12,2023-10-12,合同会社バレエスタジオクロレ,,合同会社,東京都,小平市,花小金井１丁目７番１３号サンビル花小金井１Ｆ,,13,211,1870002,,,,,,,2023-10-12,1,,,,,バレエスタジオクロレ,0
960,4012803003208,新規,0,2023-10-12,2023-10-12,合同会社ＣＡＮＯＳＳ,,合同会社,東京都,東大和市,中央２丁目８２７－２０セントラルコート１０１,,13,220,2070015,,,,,,,2023-10-12,1,,,,,ケイノス,0
965,4020001153758,新規,0,2023-10-12,2023-10-12,Ｅｍｐｉｒｅ　Ｓｔａｔｅ株式会社,,株式会社,神奈川県,横浜市西区,北幸２丁目１０番地２８むつみビル３Ｆ,,14,103,2200004,,,,,,,2023-10-12,1,,,,,エンパイアステート,0
966,4020001153857,新規,0,2023-10-12,2023-10-12,マリブ株式会社,,株式会社,神奈川県,横浜市青葉区,新石川４丁目２９番地４Ｃ－６０４,,14,117,2250003,,,,,,,2023-10-12,1,,,,,マリブ,0
967,4020001153907,新規,0,2023-10-12,2023-10-12,株式会社花伝舎,,株式会社,神奈川県,川崎市高津区,下作延３丁目１９番２５－４２１号,,14,134,2130033,,,,,,,2023-10-12,1,,,,,カデンシャ,0
971,4020003024726,新規,0,2023-10-12,2023-10-12,合同会社サーフコンサルティング,,合同会社,神奈川県,横浜市神奈川区,鶴屋町３丁目３０番地１,,14,102,2210835,,,,,,,2023-10-12,1,,,,,サーフコンサルティング,0
973,4021001080430,新規,0,2023-10-12,2023-10-12,株式会社鈴清,,株式会社,神奈川県,座間市,入谷西４丁目１８番３８号,,14,216,2520029,,,,,,,2023-10-12,1,,,,,スズショウ,0
974,4021001080439,新規,0,2023-10-12,2023-10-12,株式会社ワンダー,,株式会社,神奈川県,愛甲郡愛川町,中津２１２３番地の２０,,14,401,2430303,,,,,,,2023-10-12,1,,,,,ワンダー,0
975,4021001080447,新規,0,2023-10-12,2023-10-12,株式会社ＧＭリテールソリューション,,株式会社,神奈川県,小田原市,南鴨宮３丁目４９－１南鴨宮駅前ビル１０１,,14,206,2500875,,,,,,,2023-10-12,1,,,,,ジーエムリテールソリューション,0
982,4030001156504,新規,0,2023-10-12,2023-10-12,レッツ株式会社,,株式会社,埼玉県,川越市,大字古谷上４９６３番地６,,11,201,3500001,,,,,,,2023-10-12,1,,,,,レッツ,0
983,4030001156537,新規,0,2023-10-12,2023-10-12,株式会社千萬,,株式会社,埼玉県,志木市,下宗岡４丁目１６番５６－４号,,11,228,3530003,,,,,,,2023-10-12,1,,,,,センマン,0
984,4030001156578,新規,0,2023-10-12,2023-10-12,株式会社ナチュラル本舗,,株式会社,埼玉県,飯能市,大字双柳１２４６番地２５,,11,209,3570021,,,,,,,2023-10-12,1,,,,,ナチュラルホンポ,0
989,4030003022761,新規,0,2023-10-12,2023-10-12,ｂｏｒｄｅｒｌｅｓｓ　ａｉｓａ合同会社,,合同会社,埼玉県,富士見市,東みずほ台２丁目８－９,,11,235,3540015,,,,,,,2023-10-12,1,,,,,ボーダーレスアジア,0
995,4040001130441,新規,0,2023-10-12,2023-10-12,株式会社くまかわ一大商事くま天グループ,,株式会社,千葉県,浦安市,北栄１丁目１５番２７号熊川ビル１８（１階）,,12,227,2790002,,,,,,,2023-10-12,1,,,,,クマカワイチダイショウジクマテングループ,0
996,4040001130490,新規,0,2023-10-12,2023-10-12,ジオサーマル株式会社,,株式会社,千葉県,市川市,市川南１丁目５番２０－７０４号,,12,203,2720033,,,,,,,2023-10-12,1,,,,,ジオサーマル,0
998,4040003023511,新規,0,2023-10-12,2023-10-12,ＢＡＧＬＵＮＧ　ＫＡＬＩＫＡ合同会社,,合同会社,千葉県,船橋市,宮本１丁目５番８号昼間マンション２０１号,,12,204,2730003,,,,,,,2023-10-12,1,,,,,バグルンカリカ,0
1002,4060001036422,新規,0,2023-10-12,2023-10-12,株式会社ファーストジャパン,,株式会社,栃木県,佐野市,植野町１８９１番地１旭ビル１０１,,09,204,3270837,,,,,,,2023-10-12,1,,,,,ファーストジャパン,0
1003,4060003004757,新規,0,2023-10-12,2023-10-12,合同会社イチムラ総建,,合同会社,栃木県,真岡市,鶴田９番地８,,09,209,3214302,,,,,,,2023-10-12,1,,,,,イチムラソウケン,0
1005,4070001040951,新規,0,2023-10-12,2023-10-12,株式会社いのち,,株式会社,群馬県,太田市,矢田堀町３８８番地,,10,205,3730016,,,,,,,2023-10-12,1,,,,,イノチ,0
1013,4080403004891,新規,0,2023-10-12,2023-10-12,ＡＤＺＡＮ合同会社,,合同会社,静岡県,浜松市南区,白羽町４４番地の３,,22,134,4300846,,,,,,,2023-10-12,1,,,,,アザーン,0
1014,4080405007587,新規,0,2023-10-12,2023-10-12,医療法人たけのこ会,,その他の設立登記法人,静岡県,浜松市中区,天神町９番２号,,22,131,4300808,,,,,,,2023-10-12,1,,,,,タケノコカイ,0
1017,4100001036830,新規,0,2023-10-12,2023-10-12,株式会社笠井,,株式会社,長野県,千曲市,大字森２１３８番１の１,,20,218,3870005,,,,,,,2023-10-12,1,,,,,カサイ,0
1019,4100003007219,新規,0,2023-10-12,2023-10-12,合同会社ＳＣＩＥＮＴＩＡ,,合同会社,長野県,北佐久郡軽井沢町,大字発地１１８８－１０,,20,321,3890113,,,,,,,2023-10-12,1,,,,,シエンティア,0
1028,4120001258596,新規,0,2023-10-12,2023-10-12,Ｕｌｔｉｍａ　ＭｅｄＰｒｏ　ＪＰ株式会社,,株式会社,大阪府,大阪市大正区,三軒家西３丁目４番１６号中山ビル１０３７,,27,108,5510001,,,,,,,2023-10-12,1,,,,,ウルティマメドプロジェイピー,0
1029,4120001258729,新規,0,2023-10-12,2023-10-12,株式会社ＲＡＭＯ,,株式会社,大阪府,大阪市北区,梅田１丁目２番２号大阪駅前第２ビル１２－１２,,27,127,5300001,,,,,,,2023-10-12,1,,,,,ラモ,0
1030,4120001258745,新規,0,2023-10-12,2023-10-12,株式会社メディビューティー,,株式会社,大阪府,大阪市旭区,中宮５丁目８番１３号プレステージ中宮１階,,27,117,5350003,,,,,,,2023-10-12,1,,,,,メディビューティー,0
1031,4120001258761,新規,0,2023-10-12,2023-10-12,株式会社天恒,,株式会社,大阪府,大阪市北区,本庄東２丁目２番２４号キリン梅田ビル２０１号室,,27,127,5310074,,,,,,,2023-10-12,1,,,,,テンコウ,0
1033,4120003025078,新規,0,2023-10-12,2023-10-12,合同会社虎の巻,,合同会社,大阪府,大阪市中央区,上汐２丁目３番６号上汐中央ビル,,27,128,5420064,,,,,,,2023-10-12,1,,,,,トラノマキ,0
1036,4120101068350,新規,0,2023-10-12,2023-10-12,株式会社ｔｒｉｎｉｔｙ,,株式会社,大阪府,和泉市,唐国町１丁目７番１８号,,27,219,5941151,,,,,,,2023-10-12,1,,,,,トリニティ,0
1037,4120101068359,新規,0,2023-10-12,2023-10-12,株式会社Ｒｉｋｕｔｅｃ,,株式会社,大阪府,堺市堺区,翁橋町１丁６番１６－４０３号,,27,141,5900061,,,,,,,2023-10-12,1,,,,,リクテック,0
1041,4120901048147,新規,0,2023-10-12,2023-10-12,ＹＭ情報クリエイト株式会社,,株式会社,大阪府,茨木市,橋の内２丁目７番３－４０６号,,27,211,5670805,,,,,,,2023-10-12,1,,,,,ワイエムジョウホウクリエイト,0
1042,4120901048155,新規,0,2023-10-12,2023-10-12,マツテック株式会社,,株式会社,大阪府,高槻市,城南町１丁目６番２１号,,27,207,5690056,,,,,,,2023-10-12,1,,,,,マツテック,0
1046,4122001037468,新規,0,2023-10-12,2023-10-12,株式会社シティアセット,,株式会社,大阪府,八尾市,光南町１丁目２番８号,,27,212,5810007,,,,,,,2023-10-12,1,,,,,シティアセット,0
1048,4130001075371,新規,0,2023-10-12,2023-10-12,株式会社即索,,株式会社,京都府,長岡京市,久貝３丁目１番５号２０３,,26,209,6170837,,,,,,,2023-10-12,1,,,,,ソクサク,0
1055,4140001131941,新規,0,2023-10-12,2023-10-12,株式会社幸栄電業,,株式会社,兵庫県,尼崎市,南塚口町３丁目１番３０号,,28,202,6610012,,,,,,,2023-10-12,1,,,,,,0
1057,4140003019623,新規,0,2023-10-12,2023-10-12,ＲＨ合同会社,,合同会社,兵庫県,尼崎市,長洲西通１丁目１０番１－１００１号,,28,202,6600807,,,,,,,2023-10-12,1,,,,,アールエイチ,0
1058,4140003019664,新規,0,2023-10-12,2023-10-12,合同会社えん,,合同会社,兵庫県,神戸市灘区,森後町１丁目３－１９リトルブラザーズ六甲ビル４Ｄ－２４,,28,102,6570028,,,,,,,2023-10-12,1,,,,,エン,0
1059,4150001026793,新規,0,2023-10-12,2023-10-12,株式会社Ａｉｄ＆Ａｉｄｅ,,株式会社,奈良県,大和高田市,大字池田５５２－１５,,29,202,6350077,,,,,,,2023-10-12,1,,,,,エイドアンドエイド,0
1073,4180303005864,新規,0,2023-10-12,2023-10-12,合同会社ｐｒｅｃｉｏｕｓ,,合同会社,愛知県,碧南市,城山町３丁目１１番地５,,23,209,4470037,,,,,,,2023-10-12,1,,,,,プレシャス,0
1079,4200001041812,新規,0,2023-10-12,2023-10-12,株式会社まるき,,株式会社,岐阜県,羽島郡岐南町,平成５丁目９１番地サンツイン１２１号室,,21,302,5016013,,,,,,,2023-10-12,1,,,,,マルキ,0
1080,4200003006103,新規,0,2023-10-12,2023-10-12,ＰＥＡＣＯＣＫ　ＬＡＮＫＡ合同会社,,合同会社,岐阜県,美濃加茂市,加茂野町加茂野２６５－２サンヒルズ弓場２０２,,21,211,5050054,,,,,,,2023-10-12,1,,,,,ピーコックランカ,0
1085,4220005008789,新規,0,2023-10-12,2023-10-12,一般社団法人日本語まなびサポート北陸,,その他の設立登記法人,石川県,金沢市,伏見台３丁目３番２９号,,17,201,9218177,,,,,,,2023-10-12,1,,,,,ニホンゴマナビサポートホクリク,0
1093,4250005008869,新規,0,2023-10-12,2023-10-12,一般社団法人ＳＣＲＴ社会危機即応事業団,,その他の設立登記法人,山口県,周南市,有楽町４０番地,,35,215,7450035,,,,,,,2023-10-12,1,,,,,エスシーアールティーシャカイキキソクオウジギョウダン,0
1100,4260003004464,新規,0,2023-10-12,2023-10-12,合同会社ＧＲＥ備北２,,合同会社,岡山県,新見市,足見１６６４番地,,33,210,7192642,,,,,,,2023-10-12,1,,,,,ジーアールイービホクツー,0
1101,4270003001568,新規,0,2023-10-12,2023-10-12,合同会社日南電創,,合同会社,鳥取県,日野郡日南町,佐木谷６０５番地２,,31,401,6895541,,,,,,,2023-10-12,1,,,,,ニチナンデンソウ,0
1106,4290001103356,新規,0,2023-10-12,2023-10-12,株式会社コレクトリンク,,株式会社,福岡県,福岡市博多区,東月隈３丁目２２番８号,,40,132,8120854,,,,,,,2023-10-12,1,,,,,コレクトリンク,0
1107,4290001103364,新規,0,2023-10-12,2023-10-12,株式会社縁,,株式会社,福岡県,福岡市東区,名子３丁目１２番２７－Ｂ棟１０５号,,40,131,8130024,,,,,,,2023-10-12,1,,,,,エン,0
1108,4290005019169,新規,0,2023-10-12,2023-10-12,社会保険労務士法人トータルパートナーズ,,その他の設立登記法人,福岡県,福岡市城南区,樋井川３丁目１７番３２号,,40,136,8140153,,,,,,,2023-10-12,1,,,,,トータルパートナーズ,0
1121,4350001018606,新規,0,2023-10-12,2023-10-12,株式会社ＷＩＳＣＲＥＡ,,株式会社,宮崎県,宮崎市,橘通東４丁目１－４河北ビル１階,,45,201,8800805,,,,,,,2023-10-12,1,,,,,ウィスクリア,0
1122,4350003004455,新規,0,2023-10-12,2023-10-12,合同会社ＢＩＫＥ　ＳＨＯＰ太郎,,合同会社,宮崎県,宮崎市,大塚町窪田３３１５番地１,,45,201,8800951,,,,,,,2023-10-12,1,,,,,バイクショップタロウ,0
1123,4360001032663,新規,0,2023-10-12,2023-10-12,株式会社大湾家,,株式会社,沖縄県,中頭郡読谷村,字楚辺１９２５番地,,47,324,9040304,,,,,,,2023-10-12,1,,,,,オオワンケ,0
1126,4380001034022,新規,0,2023-10-12,2023-10-12,若竹林業株式会社,,株式会社,福島県,耶麻郡猪苗代町,大字若宮字横道下乙１４７番地２,,07,408,9692751,,,,,,,2023-10-12,1,,,,,ワカタケリンギョウ,0
1127,4380001034055,新規,0,2023-10-12,2023-10-12,株式会社エムエッジ,,株式会社,福島県,郡山市,富田町字北向１番地の２,,07,203,9638041,,,,,,,2023-10-12,1,,,,,エムエッジ,0
1131,4380003005590,新規,0,2023-10-12,2023-10-12,合同会社石川,,合同会社,福島県,本宮市,白岩字宮ノ下３９８番地,,07,214,9691203,,,,,,,2023-10-12,1,,,,,イシカワ,0
1133,4390001017397,新規,0,2023-10-12,2023-10-12,株式会社藤秀工業,,株式会社,山形県,酒田市,駅東２丁目１７番地の２,,06,204,9980022,,,,,,,2023-10-12,1,,,,,フジヒデコウギョウ,0
1137,4420001018441,新規,0,2023-10-12,2023-10-12,デルタプラン株式会社,,株式会社,青森県,つがる市,豊富町屏風山１番地７３０,,02,209,0383302,,,,,,,2023-10-12,1,,,,,デルタプラン,0
1140,4430001090118,新規,0,2023-10-12,2023-10-12,想運株式会社,,株式会社,北海道,滝川市,黄金町東３丁目１１番１１号,,01,225,0730012,,,,,,,2023-10-12,1,,,,,ソウウン,0
1141,4430003015477,新規,0,2023-10-12,2023-10-12,合同会社Ｅｎ‐ｒａｉｓｅ,,合同会社,北海道,札幌市中央区,南七条西７丁目４番地５ラフィリア札幌１００１号室,,01,101,0640807,,,,,,,2023-10-12,1,,,,,エンライズ,0
1150,4480003002033,新規,0,2023-10-12,2023-10-12,Ｃｒａｆｔ　Ｍｏｎｓｔｅｒ合同会社,,合同会社,徳島県,徳島市,川内町４１０番地,,36,201,7700000,,,,,,,2023-10-12,1,,,,,クラフトモンスター,0
1156,4700150121199,新規,0,2023-10-12,2023-10-12,ｌｕｏｙａｎｇｋａｗｅｉｊｉｎｃｈｕｋｏｕｙｏｕｘｉａｎｇｏｎｇｓｉ,,外国会社等,,,,,,,,ｊｉｕｄｕｘｉｌｕ　ｚｈｏｎｇｈｏｎｇｚｈｏｎｇｙａｎｇｇｕａｎｇｃｈａｎｇｅｒｈａｏｌｏｕｅｒｄａｎｙｕａｎｙｉｃｅｎｇ　ｌｕｏｙａｎｇｓｈｉ　ｊｉａｎｘｉｑｕ　ｈｅｎａｎｓｈｅｎｇ　４７１００３　ＣＮ,,,,,,2023-10-12,1,,,,,ルオヤンカーウェイジンチュウコウヨウシェンゴンスー,0
1176,5010001239136,新規,0,2023-10-12,2023-10-12,株式会社ＥＮＮ,,株式会社,東京都,千代田区,神田岩本町１番地１４ＫＤＸ秋葉原ビル９階,,13,101,1010033,,,,,,,2023-10-12,1,,,,,エン,0
1177,5010001239169,新規,0,2023-10-12,2023-10-12,株式会社ｄｏｔＮｄ,,株式会社,東京都,中央区,銀座１丁目１２－４Ｎ＆ＥＢＬＤ．７階,,13,102,1040061,,,,,,,2023-10-12,1,,,,,ドットエヌディ,0
1178,5010001239177,新規,0,2023-10-12,2023-10-12,株式会社ＡＶ　ｍｏｄｅ　Ｊａｐａｎ,,株式会社,東京都,中央区,日本橋横山町６番６号日本橋７７ビル,,13,102,1030003,,,,,,,2023-10-12,1,,,,,エーヴィモードジャパン,0
1179,5010001239185,新規,0,2023-10-12,2023-10-12,ｉＦＲＥＥ　ＧＲＯＵＰ　ＪＡＰＡＮ株式会社,,株式会社,東京都,千代田区,丸の内３丁目２番２号,,13,101,1000005,,,,,,,2023-10-12,1,,,,,アイフリーグループジャパン,0
1182,5010003041886,新規,0,2023-10-12,2023-10-12,ＭｏＳ　Ａｒｔ合同会社,,合同会社,東京都,中央区,銀座１丁目２２番１１号銀座大竹ビジデンス２Ｆ,,13,102,1040061,,,,,,,2023-10-12,1,,,,,モスアート,0
1183,5010003041894,新規,0,2023-10-12,2023-10-12,山梨甲斐Ｂ太陽光発電所合同会社,,合同会社,東京都,千代田区,丸の内１丁目８番２号鉄鋼ビルディング４階,,13,101,1000005,,,,,,,2023-10-12,1,,,,,ヤマナシカイビータイヨウコウハツデンショ,0
1184,5010003041911,新規,0,2023-10-12,2023-10-12,Ｋ合同会社,,合同会社,東京都,中央区,勝どき６丁目３番２号,,13,102,1040054,,,,,,,2023-10-12,1,,,,,ケイ,0
1185,5010005037370,新規,0,2023-10-12,2023-10-12,一般社団法人ＫＯＦ２,,その他の設立登記法人,東京都,千代田区,丸の内３丁目１番１号東京共同会計事務所内,,13,101,1000005,,,,,,,2023-10-12,1,,,,,ケイオーエフツー,0
1190,5010401177670,新規,0,2023-10-12,2023-10-12,株式会社ＭＫキャピタル,,株式会社,東京都,港区,白金２丁目５番２０号ザ・パークハウス白金二丁目タワー５０６,,13,103,1080072,,,,,,,2023-10-12,1,,,,,エムケイキャピタル,0
1191,5010401177687,新規,0,2023-10-12,2023-10-12,株式会社ＧＲＥＥＮＳＨＩＰ,,株式会社,東京都,港区,南麻布４丁目５番６号,,13,103,1060047,,,,,,,2023-10-12,1,,,,,グリーンシップ,0
1192,5010401177712,新規,0,2023-10-12,2023-10-12,株式会社トップマネジメント,,株式会社,東京都,港区,麻布台３丁目１番６号５階,,13,103,1060041,,,,,,,2023-10-12,1,,,,,トップマネジメント,0
1193,5010401177720,新規,0,2023-10-12,2023-10-12,セイシン株式会社,,株式会社,東京都,港区,南麻布２丁目７－３０リバーサイド麻布３階３０４号,,13,103,1060047,,,,,,,2023-10-12,1,,,,,セイシン,0
1194,5010401177745,新規,0,2023-10-12,2023-10-12,株式会社インスパーク,,株式会社,東京都,港区,六本木３丁目２番２号,,13,103,1060032,,,,,,,2023-10-12,1,,,,,インスパーク,0
1200,5010403031140,新規,0,2023-10-12,2023-10-12,ｒｅｎｇａプロ第２号合同会社,,合同会社,東京都,港区,赤坂４丁目１５番１号赤坂ガーデンシティ３階,,13,103,1070052,,,,,,,2023-10-12,1,,,,,レンガプロダイニゴウ,0
1202,5010601063910,新規,0,2023-10-12,2023-10-12,株式会社ホットキール,,株式会社,東京都,江東区,亀戸２丁目３３番１０号ＳＴプラザ亀戸５０１,,13,108,1360071,,,,,,,2023-10-12,1,,,,,ホットキール,0
1203,5010601063927,新規,0,2023-10-12,2023-10-12,株式会社ＲＭＴ,,株式会社,東京都,江東区,塩浜１丁目１－１３－７２０,,13,108,1350043,,,,,,,2023-10-12,1,,,,,アールエムティー,0
1204,5010601063943,新規,0,2023-10-12,2023-10-12,ロンデマンド株式会社,,株式会社,東京都,江東区,富岡１丁目１３番２号２０１,,13,108,1350047,,,,,,,2023-10-12,1,,,,,ロンデマンド,0
1205,5010601063951,新規,0,2023-10-12,2023-10-12,株式会社匠フーズ,,株式会社,東京都,墨田区,太平３丁目１４番２－４０１号,,13,107,1300012,,,,,,,2023-10-12,1,,,,,タクミフーズ,0
1209,5010603010415,新規,0,2023-10-12,2023-10-12,合同会社アウル,,合同会社,東京都,江東区,森下３丁目５番１４号７０１,,13,108,1350004,,,,,,,2023-10-12,1,,,,,アウル,0
1217,5010701044959,新規,0,2023-10-12,2023-10-12,株式会社ＩＷＡＴＳＵＫＩ,,株式会社,東京都,品川区,南品川５丁目１４番２０号,,13,109,1400004,,,,,,,2023-10-12,1,,,,,イワツキ,0
1218,5010701044975,新規,0,2023-10-12,2023-10-12,株式会社ＬＩＫＫＡ,,株式会社,東京都,品川区,東五反田５丁目２番１３号,,13,109,1410022,,,,,,,2023-10-12,1,,,,,リッカ,0
1219,5010703006882,新規,0,2023-10-12,2023-10-12,合同会社フィティス,,合同会社,東京都,品川区,西品川２丁目１１－１１－１０２,,13,109,1410033,,,,,,,2023-10-12,1,,,,,フィティス,0
1221,5010801034414,新規,0,2023-10-12,2023-10-12,株式会社Ｅ＆Ｌコーポレーション,,株式会社,東京都,大田区,中央６丁目１番４号,,13,111,1430024,,,,,,,2023-10-12,1,,,,,イーアンドエルコーポレーション,0
1222,5011001157286,新規,0,2023-10-12,2023-10-12,ＩＮＡＲＩ　ＴＥＡ　ＣＯＭＰＡＮＹ株式会社,,株式会社,東京都,渋谷区,恵比寿１丁目５番２号こうげつビル１０１,,13,113,1500013,,,,,,,2023-10-12,1,,,,,イナリティーカンパニー,0
1223,5011001157435,新規,0,2023-10-12,2023-10-12,株式会社リリー不動産,,株式会社,東京都,目黒区,上目黒４丁目３３番１５号,,13,110,1530051,,,,,,,2023-10-12,1,,,,,リリーフドウサン,0
1224,5011001157443,新規,0,2023-10-12,2023-10-12,株式会社ａｍｐｅｒｓａｎｄ,,株式会社,東京都,渋谷区,渋谷２丁目１９－１５宮益坂ビルディング６０９,,13,113,1500002,,,,,,,2023-10-12,1,,,,,アンパサンド,0
1225,5011001157501,新規,0,2023-10-12,2023-10-12,株式会社ＬＩＭＢＯ,,株式会社,東京都,渋谷区,千駄ヶ谷３丁目１３番２２－２０１号室,,13,113,1510051,,,,,,,2023-10-12,1,,,,,リンボ,0
1226,5011001157567,新規,0,2023-10-12,2023-10-12,株式会社ＪＨトラスト,,株式会社,東京都,渋谷区,広尾４丁目１番３０－２０１号,,13,113,1500012,,,,,,,2023-10-12,1,,,,,ジェイエイチトラスト,0
1230,5011101104683,新規,0,2023-10-12,2023-10-12,ＬａｓｅｒＷｉｎ株式会社,,株式会社,東京都,新宿区,西新宿８丁目１１番１０号,,13,104,1600023,,,,,,,2023-10-12,1,,,,,レーザーウィン,0
1231,5011101104700,新規,0,2023-10-12,2023-10-12,株式会社ＭＩＫＡＴＡＳ,,株式会社,東京都,新宿区,大久保３丁目１０番１号,,13,104,1690072,,,,,,,2023-10-12,1,,,,,ミカタス,0
1232,5011101104717,新規,0,2023-10-12,2023-10-12,雲輝国際株式会社,,株式会社,東京都,新宿区,大久保１丁目２－１－６０５号室,,13,104,1690072,,,,,,,2023-10-12,1,,,,,ウンキコクサイ,0
1237,5011103013602,新規,0,2023-10-12,2023-10-12,エルツ合同会社,,合同会社,東京都,新宿区,西新宿３丁目３番１３号,,13,104,1600023,,,,,,,2023-10-12,1,,,,,エルツ,0
1246,5011403004144,新規,0,2023-10-12,2023-10-12,合同会社ｙｏｉｓｈｏ,,合同会社,東京都,板橋区,稲荷台２番１号,,13,119,1730002,,,,,,,2023-10-12,1,,,,,ヨイショ,0
1248,5011801043149,新規,0,2023-10-12,2023-10-12,株式会社ＮＯＶＡプロジェクト,,株式会社,東京都,葛飾区,西亀有２丁目５５番１－２０１号,,13,122,1240002,,,,,,,2023-10-12,1,,,,,ノバプロジェクト,0
1249,5011803005881,新規,0,2023-10-12,2023-10-12,ｎｅｗｗｅｌｌ合同会社,,合同会社,東京都,足立区,大谷田１丁目８番１号,,13,121,1200001,,,,,,,2023-10-12,1,,,,,ニューウェル,0
1251,5012301013625,新規,0,2023-10-12,2023-10-12,ＹＴＳ株式会社,,株式会社,東京都,町田市,下小山田町１１１７番地１０,,13,209,1940202,,,,,,,2023-10-12,1,,,,,ワイティエス,0
1253,5012701017878,新規,0,2023-10-12,2023-10-12,株式会社インターナショナルアプリケーションズ,,株式会社,東京都,西東京市,保谷町５丁目１７番６号,,13,229,2020015,,,,,,,2023-10-12,1,,,,,インターナショナルアプリケーションズ,0
1254,5012703002820,新規,0,2023-10-12,2023-10-12,合同会社アークピット,,合同会社,東京都,西東京市,新町６丁目１１－１８メゾンクレールＡ１０１,,13,229,2020023,,,,,,,2023-10-12,1,,,,,アークピット,0
1271,5021001080438,新規,0,2023-10-12,2023-10-12,ニーケー麺職人株式会社,,株式会社,神奈川県,秦野市,南矢名１丁目１４番１０号,,14,211,2570003,,,,,,,2023-10-12,1,,,,,ニーケーメンショクニン,0
1272,5021001080446,新規,0,2023-10-12,2023-10-12,株式会社けやきライフ湘南,,株式会社,神奈川県,伊勢原市,東大竹９３９番地の１,,14,214,2591133,,,,,,,2023-10-12,1,,,,,ケヤキライフショウナン,0
1274,5021003013676,新規,0,2023-10-12,2023-10-12,合同会社ふぁらおカンパニー,,合同会社,神奈川県,座間市,相模が丘１丁目２７番２２‐５０８号ルネ小田急相模原モア・ステージ,,14,216,2520001,,,,,,,2023-10-12,1,,,,,ファラオカンパニー,0
1290,5030001156528,新規,0,2023-10-12,2023-10-12,プロスパー株式会社,,株式会社,埼玉県,川口市,大字道合１３２４－５,,11,203,3330835,,,,,,,2023-10-12,1,,,,,プロスパー,0
1291,5030001156602,新規,0,2023-10-12,2023-10-12,ＴＯＨＯライフ株式会社,,株式会社,埼玉県,川口市,上青木５丁目１３番２６号,,11,203,3330844,,,,,,,2023-10-12,1,,,,,トーホーライフ,0
1292,5030001156610,新規,0,2023-10-12,2023-10-12,エイト・ディー株式会社,,株式会社,埼玉県,加須市,上崎２６２５番地４,,11,210,3470125,,,,,,,2023-10-12,1,,,,,エイトディー,0
1293,5030003022736,新規,0,2023-10-12,2023-10-12,Ｌｉｎｋｓ合同会社,,合同会社,埼玉県,川口市,戸塚２丁目１８番２３号,,11,203,3330811,,,,,,,2023-10-12,1,,,,,リンクス,0
1294,5030003022760,新規,0,2023-10-12,2023-10-12,合同会社むとと,,合同会社,埼玉県,朝霞市,幸町２丁目３－３０,,11,227,3510015,,,,,,,2023-10-12,1,,,,,ムトト,0
1295,5030003022769,新規,0,2023-10-12,2023-10-12,合同会社楓,,合同会社,埼玉県,川越市,菅原町２番地６ライオンズシティ川越８０２号室,,11,201,3500046,,,,,,,2023-10-12,1,,,,,カエデ,0
1296,5030005021414,新規,0,2023-10-12,2023-10-12,一般社団法人ＬＩＺＡＲＤ,,その他の設立登記法人,埼玉県,さいたま市緑区,大字中尾７０３番地６,,11,109,3360932,,,,,,,2023-10-12,1,,,,,リザード,0
1301,5040001130374,新規,0,2023-10-12,2023-10-12,株式会社Ａｍｅｌｉｏ,,株式会社,千葉県,習志野市,大久保２丁目４番１４－２０３号,,12,216,2750011,,,,,,,2023-10-12,1,,,,,アメリオ,0
1302,5040001130449,新規,0,2023-10-12,2023-10-12,農輪ジャパン株式会社,,株式会社,千葉県,山武郡芝山町,大里１８－３４,,12,409,2891603,,,,,,,2023-10-12,1,,,,,ノウリンジャパン,0
1305,5040003023510,新規,0,2023-10-12,2023-10-12,合同会社Ｌｕｎａ,,合同会社,千葉県,印西市,武西学園台１丁目３番１号ガーデンゲート千葉ＮＴ２３１号,,12,231,2701355,,,,,,,2023-10-12,1,,,,,ルナ,0
1310,5060001036421,新規,0,2023-10-12,2023-10-12,株式会社Ｍｏｂｉｌｉｔｙ　Ｆｏｏｄ　Ｊａｐａｎ,,株式会社,栃木県,宇都宮市,石井町８５－１,,09,201,3210912,,,,,,,2023-10-12,1,,,,,モビリティーフードジャパン,0
1320,5080401026788,新規,0,2023-10-12,2023-10-12,株式会社せいな,,株式会社,静岡県,袋井市,浅羽２４７８－７,,22,216,4371101,,,,,,,2023-10-12,1,,,,,セイナ,0
1323,5080405007586,新規,0,2023-10-12,2023-10-12,医療法人社団和睦会,,その他の設立登記法人,静岡県,浜松市北区,細江町中川７１７２番地８６,,22,135,4311304,,,,,,,2023-10-12,1,,,,,ワボクカイ,0
1331,5110005017008,新規,0,2023-10-12,2023-10-12,社会保険労務士法人大橋事務所,,その他の設立登記法人,新潟県,新潟市東区,松園１丁目１番１０号,,15,102,9500023,,,,,,,2023-10-12,1,,,,,オオハシジムショ,0
1336,5120001258728,新規,0,2023-10-12,2023-10-12,株式会社Ｌｕｚｉｒ,,株式会社,大阪府,大阪市住吉区,苅田７丁目１２番１９号北野マンション東館２１６,,27,120,5580011,,,,,,,2023-10-12,1,,,,,ルズィール,0
1337,5120001258760,新規,0,2023-10-12,2023-10-12,株式会社ｍａｒｖｉｅ,,株式会社,大阪府,大阪市平野区,加美正覚寺４丁目７番５９号,,27,126,5470006,,,,,,,2023-10-12,1,,,,,メルヴィ,0
1338,5120001258769,新規,0,2023-10-12,2023-10-12,サプライズ株式会社,,株式会社,大阪府,大阪市東成区,大今里南１丁目２番１８号イニジオ大今里３０５号室,,27,115,5370013,,,,,,,2023-10-12,1,,,,,サプライズ,0
1341,5120003024995,新規,0,2023-10-12,2023-10-12,合同会社ｕｐｒｏａｄ,,合同会社,大阪府,大阪市西区,九条２丁目３番３－１４０２号,,27,106,5500027,,,,,,,2023-10-12,1,,,,,アップロード,0
1342,5120003025077,新規,0,2023-10-12,2023-10-12,合同会社ＩＬＫトレーディング,,合同会社,大阪府,大阪市平野区,流町１丁目２番１１号メゾンドオール１０６,,27,126,5470032,,,,,,,2023-10-12,1,,,,,,0
1345,5120101068341,新規,0,2023-10-12,2023-10-12,株式会社アイ・イメージ,,株式会社,大阪府,和泉市,万町１０７番地の６,,27,219,5941104,,,,,,,2023-10-12,1,,,,,アイイメージ,0
1349,5120901048146,新規,0,2023-10-12,2023-10-12,株式会社ＮＫプランニング,,株式会社,大阪府,茨木市,上泉町１３番２９－３０２号,,27,211,5670811,,,,,,,2023-10-12,1,,,,,エヌケイプランニング,0
1350,5120901048154,新規,0,2023-10-12,2023-10-12,株式会社ＰＡＴＣＨＷＯＲＫＳ,,株式会社,大阪府,豊中市,東豊中町６丁目８番５４号,,27,203,5600003,,,,,,,2023-10-12,1,,,,,パッチワークス,0
1351,5120903004865,新規,0,2023-10-12,2023-10-12,オルソシード合同会社,,合同会社,大阪府,吹田市,古江台４丁目２－４３－９０４号,,27,205,5650874,,,,,,,2023-10-12,1,,,,,オルソシード,0
1357,5130001075387,新規,0,2023-10-12,2023-10-12,株式会社頼電設備,,株式会社,京都府,京都市南区,東九条南河辺町１６番地３,,26,107,6018034,,,,,,,2023-10-12,1,,,,,ライデンセツビ,0
1363,5140001131932,新規,0,2023-10-12,2023-10-12,株式会社Ｙｕｊｉｎ,,株式会社,兵庫県,揖保郡太子町,矢田部９０番地１,,28,464,6711522,,,,,,,2023-10-12,1,,,,,ユウジン,0
1364,5140001131940,新規,0,2023-10-12,2023-10-12,株式会社ＫＡＴＯエンジニア,,株式会社,兵庫県,神戸市垂水区,青山台８丁目１７７６－１,,28,108,6550873,,,,,,,2023-10-12,1,,,,,,0
1366,5140003019647,新規,0,2023-10-12,2023-10-12,Ｓｉｍｐｌｅ　Ｍａｎｙ　ｐｌｕｓ合同会社,,合同会社,兵庫県,神戸市兵庫区,駅前通２丁目１番８－５１０号,,28,105,6520898,,,,,,,2023-10-12,1,,,,,シンプルメニープラス,0
1367,5140003019663,新規,0,2023-10-12,2023-10-12,合同会社ＢＵＳＨＩ,,合同会社,兵庫県,加古川市,加古川町粟津７４９番地の２３,,28,210,6750039,,,,,,,2023-10-12,1,,,,,,0
1371,5180001158451,新規,0,2023-10-12,2023-10-12,株式会社プジェ・ミミズク,,株式会社,愛知県,名古屋市名東区,社台１丁目１３９番地,,23,115,4650092,,,,,,,2023-10-12,1,,,,,プジェミミズク,0
1382,5190003004470,新規,0,2023-10-12,2023-10-12,合同会社プレジオ・リラ,,合同会社,三重県,四日市市,垂坂町９３３番地４プレジオリラ７０３,,24,202,5108037,,,,,,,2023-10-12,1,,,,,プレジオリラ,0
1400,5250005008868,新規,0,2023-10-12,2023-10-12,一般社団法人ＢＣＭ建設施工管理技術教育協会,,その他の設立登記法人,山口県,周南市,有楽町４０番地,,35,215,7450035,,,,,,,2023-10-12,1,,,,,ビーシーエムケンセツセコウカンリギジュツキョウイクキョウカイ,0
1403,5260005011284,新規,0,2023-10-12,2023-10-12,一般社団法人ｇｅｒｄｅｎ,,その他の設立登記法人,岡山県,倉敷市,連島町鶴新田８９０番地７,,33,202,7128006,,,,,,,2023-10-12,1,,,,,ガーデン,0
1409,5290001103371,新規,0,2023-10-12,2023-10-12,株式会社オカリュウ,,株式会社,福岡県,福岡市早良区,原４丁目１番１８－１０２号,,40,137,8140022,,,,,,,2023-10-12,1,,,,,オカリュウ,0
1411,5290003014476,新規,0,2023-10-12,2023-10-12,ＬＯＨＡスマイル合同会社,,合同会社,福岡県,福岡市南区,老司５丁目４２－８,,40,134,8111346,,,,,,,2023-10-12,1,,,,,ロハスマイル,0
1416,5320003004201,新規,0,2023-10-12,2023-10-12,ＴＵＲＢＯ合同会社,,合同会社,大分県,日田市,大字東有田１１２５番地１,,44,204,8770000,,,,,,,2023-10-12,1,,,,,ターボ,0
1417,5330003010009,新規,0,2023-10-12,2023-10-12,合同会社ハナダミート,,合同会社,熊本県,八代市,大手町２丁目１３番１２号Ｉ・ＶＩＬＬＡＧＥ大手町Ｂ２０１号,,43,202,8660852,,,,,,,2023-10-12,1,,,,,ハナダミート,0
1425,5360001032662,新規,0,2023-10-12,2023-10-12,株式会社カンバープロダクツ,,株式会社,沖縄県,豊見城市,字与根１９７番地１階,,47,212,9010224,,,,,,,2023-10-12,1,,,,,カンバープロダクツ,0
1428,5370001050498,新規,0,2023-10-12,2023-10-12,株式会社幸むすび,,株式会社,宮城県,仙台市宮城野区,中野字神明５１番地の６,,04,102,9830013,,,,,,,2023-10-12,1,,,,,サチムスビ,0
1429,5370001050507,新規,0,2023-10-12,2023-10-12,Ｂｕｄｄｙ株式会社,,株式会社,宮城県,仙台市若林区,上飯田３丁目１５番１９号,,04,103,9840838,,,,,,,2023-10-12,1,,,,,バディ,0
1430,5370003006317,新規,0,2023-10-12,2023-10-12,合同会社ＦＲ,,合同会社,宮城県,仙台市青葉区,一番町４丁目５番２号第二ムサシビル３Ｆ,,04,101,9800811,,,,,,,2023-10-12,1,,,,,エフアール,0
1431,5380001034054,新規,0,2023-10-12,2023-10-12,ブライト株式会社,,株式会社,福島県,郡山市,久留米２丁目１６３番地の４９,,07,203,9638846,,,,,,,2023-10-12,1,,,,,ブライト,0
1435,5390001017396,新規,0,2023-10-12,2023-10-12,株式会社エクシード,,株式会社,山形県,鶴岡市,大部町２９番地２１大部ハイツ１０１号室,,06,203,9970049,,,,,,,2023-10-12,1,,,,,エクシード,0
1442,5420001018440,新規,0,2023-10-12,2023-10-12,株式会社Ｋ‐ＯＦＦＩＣＥ,,株式会社,青森県,三戸郡南部町,大字福田字町中１０番地,,02,445,0390815,,,,,,,2023-10-12,1,,,,,ケーオフィス,0
1445,5430005014807,新規,0,2023-10-12,2023-10-12,一般社団法人塩崎トラスト,,その他の設立登記法人,北海道,札幌市豊平区,豊平三条１３丁目２番２０号,,01,105,0620903,,,,,,,2023-10-12,1,,,,,シオザキトラスト,0
1446,5462503000211,新規,0,2023-10-12,2023-10-12,合同会社ブリッジ,,合同会社,北海道,標津郡標津町,字川北６０番地３２,,01,693,0861451,,,,,,,2023-10-12,1,,,,,ブリッジ,0
1451,5500001025239,新規,0,2023-10-12,2023-10-12,株式会社奥川不動産,,株式会社,愛媛県,松山市,三番町４丁目８番地７第５越智会計ビル１Ｆ,,38,201,7900003,,,,,,,2023-10-12,1,,,,,オクガワフドウサン,0
1454,5500003003119,新規,0,2023-10-12,2023-10-12,合同会社クライム,,合同会社,愛媛県,松山市,永木町１丁目７番地１３クリエイションビル永木１Ｆ,,38,201,7900866,,,,,,,2023-10-12,1,,,,,クライム,0
1456,5700150121198,新規,0,2023-10-12,2023-10-12,Ｗｕｈａｎ　Ｒｕｉｓｈｕ　Ｉｎｆｏｒｍａｔｉｏｎ　Ｔｅｃｈｎｏｌｏｇｙ　Ｃｏ．，Ｌｔｄ．,,外国会社等,,,,,,,,Ｎｏ．４０１　ＢｕｉｌｄｉｎｇＢ　ＯｐｔｉｃｓＶａｌｌｅｙＳｅｉｋｏＴｅｃｈｎｏｌｏｇｙＰａｒｋ　Ｎｏ．８ＣｈａｎｇｃｈｅｎｇｙｕａｎＲｏａｄ　ＥａｓｔＬａｋｅＮｅｗＴｅｃｈｎｏｌｏｇｙＤｅｖｅｌｏｐｍｅｎｔＺｏｎｅ　Ｗｕｈａｎ　４３００７０　ＣＮ,,,,,,2023-10-12,1,,,,,ブカンルイスインフォメイションテクノロジーカンパニーリミテッド,0
1458,6010001239135,新規,0,2023-10-12,2023-10-12,株式会社エイペックスパワーソリューションズ,,株式会社,東京都,千代田区,神田佐久間町１丁目１４番地第２東ビル４１０,,13,101,1010025,,,,,,,2023-10-12,1,,,,,エイペックスパワーソリューションズ,0
1459,6010001239151,新規,0,2023-10-12,2023-10-12,Ｇｅｍｓ株式会社,,株式会社,東京都,中央区,銀座１丁目１２番４号Ｎ＆ＥＢＬＤ．６Ｆ,,13,102,1040061,,,,,,,2023-10-12,1,,,,,ジェムズ,0
1460,6010001239168,新規,0,2023-10-12,2023-10-12,株式会社ＦｌｏｗＲａｃｅ,,株式会社,東京都,千代田区,内神田２丁目６番２号２Ｆ,,13,101,1010047,,,,,,,2023-10-12,1,,,,,フローレース,0
1461,6010001239218,新規,0,2023-10-12,2023-10-12,株式会社ＫＩＤ,,株式会社,東京都,中央区,銀座７丁目１３番２０号銀座ＴＨビル９階,,13,102,1040061,,,,,,,2023-10-12,1,,,,,キッド,0
1463,6010003041893,新規,0,2023-10-12,2023-10-12,山梨甲斐Ａ太陽光発電所合同会社,,合同会社,東京都,千代田区,丸の内１丁目８番２号鉄鋼ビルディング４階,,13,101,1000005,,,,,,,2023-10-12,1,,,,,ヤマナシカイエータイヨウコウハツデンショ,0
1473,6010401177546,新規,0,2023-10-12,2023-10-12,株式会社Ｍａｋｅｏｖｅｒ,,株式会社,東京都,港区,麻布十番４丁目１番８－１４０３号,,13,103,1060045,,,,,,,2023-10-12,1,,,,,メイクオーバー,0
1474,6010401177629,新規,0,2023-10-12,2023-10-12,株式会社コンシューマーリサーチ・アンド・レーティングス,,株式会社,東京都,港区,北青山１丁目３番１号アールキューブ青山３階,,13,103,1070061,,,,,,,2023-10-12,1,,,,,コンシューマーリサーチアンドレーティングス,0
1475,6010401177686,新規,0,2023-10-12,2023-10-12,ナインボール株式会社,,株式会社,東京都,港区,西新橋２丁目４－３プロス西新橋ビル６Ｆ,,13,103,1050003,,,,,,,2023-10-12,1,,,,,ナインボール,0
1476,6010401177752,新規,0,2023-10-12,2023-10-12,株式会社リネオス,,株式会社,東京都,港区,浜松町２丁目２番１５号浜松町ダイヤビル２Ｆ,,13,103,1050013,,,,,,,2023-10-12,1,,,,,リネオス,0
1481,6010403031115,新規,0,2023-10-12,2023-10-12,合同会社ＴＦＴＫ,,合同会社,東京都,港区,北青山１丁目３番１号アールキューブ青山３階,,13,103,1070061,,,,,,,2023-10-12,1,,,,,ティーエフティーケー,0
1482,6010403031148,新規,0,2023-10-12,2023-10-12,ＧＡＲＮＥＴ春日合同会社,,合同会社,東京都,港区,六本木１丁目６番１号泉ガーデンタワー１２階,,13,103,1060032,,,,,,,2023-10-12,1,,,,,ガーネットカスガ,0
1484,6010601063926,新規,0,2023-10-12,2023-10-12,株式会社イフェメル,,株式会社,東京都,江東区,富岡２丁目５番５号,,13,108,1350047,,,,,,,2023-10-12,1,,,,,イフェメル,0
1485,6010601063942,新規,0,2023-10-12,2023-10-12,株式会社ＲＯＫＵＳＨＯ,,株式会社,東京都,江東区,平野３丁目２－１２－９０５,,13,108,1350023,,,,,,,2023-10-12,1,,,,,ロクショウ,0
1490,6010603010414,新規,0,2023-10-12,2023-10-12,合同会社風の歌を聴け,,合同会社,東京都,江東区,豊洲１丁目２番３９－１３０６号,,13,108,1350061,,,,,,,2023-10-12,1,,,,,カゼノウタヲキケ,0
1500,6010901053981,新規,0,2023-10-12,2023-10-12,ＢＥＹＯＮＤ　Ｈｏｌｄｉｎｇｓ株式会社,,株式会社,東京都,世田谷区,尾山台２丁目３２番地１０号ＡｒｃＶ尾山台５Ｆ,,13,112,1580086,,,,,,,2023-10-12,1,,,,,,0
1508,6011001157509,新規,0,2023-10-12,2023-10-12,株式会社Ａｄｄ１１ｔｈ,,株式会社,東京都,渋谷区,道玄坂１丁目１０番８号渋谷道玄坂東急ビル２Ｆ－Ｃ,,13,113,1500043,,,,,,,2023-10-12,1,,,,,アドイレブンス,0
1509,6011001157517,新規,0,2023-10-12,2023-10-12,株式会社Ｏｄｉｉ,,株式会社,東京都,渋谷区,宇田川町２番１号,,13,113,1500042,,,,,,,2023-10-12,1,,,,,オディー,0
1510,6011001157533,新規,0,2023-10-12,2023-10-12,株式会社ダルマワークス,,株式会社,東京都,渋谷区,神泉町２０番２５号神泉ＱＳビル７Ｆ,,13,113,1500045,,,,,,,2023-10-12,1,,,,,ダルマワークス,0
1511,6011001157566,新規,0,2023-10-12,2023-10-12,株式会社ＹＨトラスト,,株式会社,東京都,渋谷区,広尾４丁目１番３０－２０１号,,13,113,1500012,,,,,,,2023-10-12,1,,,,,ワイエイチトラスト,0
1513,6011003017677,新規,0,2023-10-12,2023-10-12,Ｏｌｉｖｅ合同会社,,合同会社,東京都,渋谷区,広尾４丁目１番２７－６０４号,,13,113,1500012,,,,,,,2023-10-12,1,,,,,オリーブ,0
1515,6011005010234,新規,0,2023-10-12,2023-10-12,ＮＰＯ法人ハワイアン・ヴィレッジ,,その他の設立登記法人,東京都,渋谷区,代々木５丁目４２番１０号,,13,113,1510053,,,,,,,2023-10-12,1,,,,,ハワイアンヴィレッジ,0
1520,6011301029077,新規,0,2023-10-12,2023-10-12,Ｐｌａｎ　Ｆｉｔ株式会社,,株式会社,東京都,杉並区,下高井戸３丁目１番１８－２０３号キャニオングランデ桜上水,,13,115,1680073,,,,,,,2023-10-12,1,,,,,プランフィット,0
1525,6011803005872,新規,0,2023-10-12,2023-10-12,合同会社ＹｏｕＴｏ,,合同会社,東京都,葛飾区,高砂２丁目１０－９,,13,122,1250054,,,,,,,2023-10-12,1,,,,,ユゥトゥ,0
1526,6011803005880,新規,0,2023-10-12,2023-10-12,合同会社ｇｒａｎｄｅｕｒ,,合同会社,東京都,葛飾区,東立石２丁目６番２号,,13,122,1240013,,,,,,,2023-10-12,1,,,,,グランジャー,0
1527,6012301013624,新規,0,2023-10-12,2023-10-12,株式会社アイグリット,,株式会社,東京都,町田市,玉川学園２丁目２１番４号,,13,209,1940041,,,,,,,2023-10-12,1,,,,,アイグリット,0
1529,6012401041104,新規,0,2023-10-12,2023-10-12,株式会社Ｎｅｘｔ,,株式会社,東京都,多摩市,百草１０８３番地の６,,13,224,2060004,,,,,,,2023-10-12,1,,,,,ネクスト,0
1531,6012403006220,新規,0,2023-10-12,2023-10-12,野村メディカルサービス合同会社,,合同会社,東京都,多摩市,落合１丁目３５番地４０６,,13,224,2060033,,,,,,,2023-10-12,1,,,,,ノムラメディカルサービス,0
1532,6012405004908,新規,0,2023-10-12,2023-10-12,特定非営利活動法人セットベースデザイン研究会,,その他の設立登記法人,東京都,調布市,調布ケ丘１丁目５番地１国立大学法人電気通信大学内インキュベーションセンター（西１１号館４１１室）,,13,208,1820021,,,,,,,2023-10-12,1,,,,,セットベースデザインケンキュウカイ,0
1533,6012701017877,新規,0,2023-10-12,2023-10-12,株式会社ジーエス,,株式会社,東京都,西東京市,保谷町５丁目６番２２号,,13,229,2020015,,,,,,,2023-10-12,1,,,,,ジーエス,0
1539,6013301051457,新規,0,2023-10-12,2023-10-12,マイクロスクリーンテック株式会社,,株式会社,東京都,豊島区,西池袋２丁目２５番５号ＧＨハウス目白１０３号室,,13,116,1710021,,,,,,,2023-10-12,1,,,,,マイクロスクリーンテック,0
1540,6013301051473,新規,0,2023-10-12,2023-10-12,ＳＭＪ株式会社,,株式会社,東京都,豊島区,池袋２丁目３０番１５号三田池袋西コーポ２０３,,13,116,1710014,,,,,,,2023-10-12,1,,,,,エスエムジェー,0
1541,6013303006830,新規,0,2023-10-12,2023-10-12,合同会社ＫＹＭ,,合同会社,東京都,豊島区,巣鴨３丁目２２番２号２０１号室,,13,116,1700002,,,,,,,2023-10-12,1,,,,,ケイワイエム,0
1545,6020003024749,新規,0,2023-10-12,2023-10-12,合同会社パルメディア,,合同会社,神奈川県,横浜市戸塚区,下倉田町１８番地１ブロードスクエア戸塚６３２号,,14,110,2440815,,,,,,,2023-10-12,1,,,,,パルメディア,0
1546,6020003024781,新規,0,2023-10-12,2023-10-12,合同会社ｆａｖｏｒｉ,,合同会社,神奈川県,横浜市神奈川区,松見町４丁目９４４‐１‐１００１,,14,102,2210005,,,,,,,2023-10-12,1,,,,,ファボリ,0
1550,6021001080437,新規,0,2023-10-12,2023-10-12,株式会社Ｐｏｎｏｆａｒｍ,,株式会社,神奈川県,大和市,中央林間６丁目５番４－１００４号,,14,213,2420007,,,,,,,2023-10-12,1,,,,,ポノファーム,0
1551,6021001080445,新規,0,2023-10-12,2023-10-12,株式会社優とん,,株式会社,神奈川県,厚木市,戸室３丁目７番８号,,14,212,2430031,,,,,,,2023-10-12,1,,,,,ユウトン,0
1552,6021003013675,新規,0,2023-10-12,2023-10-12,Ｍ．Ｅ．Ｌ合同会社,,合同会社,神奈川県,鎌倉市,大船４丁目１５番１２号,,14,204,2470056,,,,,,,2023-10-12,1,,,,,エムイーエル,0
1563,6030001156626,新規,0,2023-10-12,2023-10-12,株式会社サンジェム,,株式会社,埼玉県,川口市,並木２丁目３９番２０号,,11,203,3320034,,,,,,,2023-10-12,1,,,,,サンジェム,0
1564,6030001156634,新規,0,2023-10-12,2023-10-12,ＤＩＭプロモーション株式会社,,株式会社,埼玉県,さいたま市岩槻区,東岩槻４丁目２番地４,,11,110,3390005,,,,,,,2023-10-12,1,,,,,ディーアイエムプロモーション,0
1570,6030005021413,新規,0,2023-10-12,2023-10-12,特定非営利活動法人猫の里なごの家,,その他の設立登記法人,埼玉県,北足立郡伊奈町,栄４丁目１８２番地１,,11,301,3620805,,,,,,,2023-10-12,1,,,,,,0
1579,6040001130423,新規,0,2023-10-12,2023-10-12,株式会社天友,,株式会社,千葉県,市原市,辰巳台東４丁目４番地４７,,12,219,2900003,,,,,,,2023-10-12,1,,,,,テンユウ,0
1580,6040001130472,新規,0,2023-10-12,2023-10-12,株式会社マエストロ,,株式会社,千葉県,木更津市,東中央１丁目３番９号,,12,206,2920057,,,,,,,2023-10-12,1,,,,,マエストロ,0
1586,6050001053615,新規,0,2023-10-12,2023-10-12,株式会社ＣＥＥＫＯ　ＨＯＬＤＩＮＧ,,株式会社,茨城県,筑西市,藤ケ谷２３９５番地,,08,227,3080112,,,,,,,2023-10-12,1,,,,,シーコホールディング,0
1588,6060001036429,新規,0,2023-10-12,2023-10-12,株式会社秋野製作所,,株式会社,栃木県,佐野市,堀米町３０２番地３,,09,204,3270843,,,,,,,2023-10-12,1,,,,,アキノセイサクショ,0
1592,6070001040958,新規,0,2023-10-12,2023-10-12,株式会社ＭＪ,,株式会社,群馬県,高崎市,中居町２丁目５番地１６,,10,202,3700852,,,,,,,2023-10-12,1,,,,,エムジェイ,0
1594,6080101024257,新規,0,2023-10-12,2023-10-12,ダイテック株式会社,,株式会社,静岡県,富士市,比奈２３４８－１２,,22,210,4170847,,,,,,,2023-10-12,1,,,,,ダイテック,0
1597,6080405007585,新規,0,2023-10-12,2023-10-12,医療法人社団とりかい整形外科リウマチ科,,その他の設立登記法人,静岡県,磐田市,二之宮４０６番地１,,22,211,4380074,,,,,,,2023-10-12,1,,,,,トリカイセイケイゲカリウマチカ,0
1600,6100003007217,新規,0,2023-10-12,2023-10-12,合同会社大黒屋商事,,合同会社,長野県,長野市,松代町清野４６４番地,,20,201,3811233,,,,,,,2023-10-12,1,,,,,ダイコクヤショウジ,0
1606,6110005017007,新規,0,2023-10-12,2023-10-12,医療法人彩佑会,,その他の設立登記法人,新潟県,新潟市中央区,近江３丁目１番４５号,,15,103,9500971,,,,,,,2023-10-12,1,,,,,サイユウカイ,0
1613,6120001258669,新規,0,2023-10-12,2023-10-12,株式会社サンケン,,株式会社,大阪府,大阪市城東区,諏訪２丁目４番２５号,,27,118,5360021,,,,,,,2023-10-12,1,,,,,サンケン,0
1614,6120001258727,新規,0,2023-10-12,2023-10-12,株式会社ＣＨＩＧＡＩ,,株式会社,大阪府,大阪市西区,西本町２丁目１－２１レバンガ西本町ＡＰ５０２号室,,27,106,5500005,,,,,,,2023-10-12,1,,,,,チガイ,0
1615,6120001258768,新規,0,2023-10-12,2023-10-12,ＡＮＤ　ＣＬＯＴＨＩＮＧ株式会社,,株式会社,大阪府,大阪市中央区,道修町１丁目１番７号,,27,128,5410045,,,,,,,2023-10-12,1,,,,,アンドクロージング,0
1617,6120003025051,新規,0,2023-10-12,2023-10-12,Ｍプロジェクト合同会社,,合同会社,大阪府,大阪市阿倍野区,帝塚山１丁目２番４号,,27,119,5450037,,,,,,,2023-10-12,1,,,,,エムプロジェクト,0
1621,6120101068349,新規,0,2023-10-12,2023-10-12,高島興産株式会社,,株式会社,大阪府,堺市堺区,三条通１番２号,,27,141,5900046,,,,,,,2023-10-12,1,,,,,タカシマコウサン,0
1622,6120101068357,新規,0,2023-10-12,2023-10-12,株式会社源通商事,,株式会社,大阪府,松原市,新堂２丁目３２６－７,,27,217,5800015,,,,,,,2023-10-12,1,,,,,ミナモトショウジ,0
1623,6120101068365,新規,0,2023-10-12,2023-10-12,株式会社ＯＷＬ　ＩＮＦＩＮＩＴＹ,,株式会社,大阪府,堺市北区,北花田町３丁３７－８ステージ村田３１０,,27,146,5918002,,,,,,,2023-10-12,1,,,,,アウルインフィニティ,0
1624,6120101068373,新規,0,2023-10-12,2023-10-12,株式会社ＥＩＷＡ　ＩＮＴＥＲＩＯＲ　ＷＯＲＫ,,株式会社,大阪府,富田林市,金剛伏山台１４番３号,,27,214,5840065,,,,,,,2023-10-12,1,,,,,エイワインテリアワーク,0
1628,6120103005481,新規,0,2023-10-12,2023-10-12,合同会社善良,,合同会社,大阪府,堺市西区,浜寺船尾町西２丁３６０番地２,,27,144,5928342,,,,,,,2023-10-12,1,,,,,ゼンリョウ,0
1631,6120901048153,新規,0,2023-10-12,2023-10-12,Ｃｏ．ＴＡＭＯＮ株式会社,,株式会社,大阪府,摂津市,鳥飼本町５丁目１２番１５号,,27,224,5660052,,,,,,,2023-10-12,1,,,,,コタモン,0
1632,6120901048161,新規,0,2023-10-12,2023-10-12,株式会社Ｓａｋｕ　ｇｅｎｅｒａｌ,,株式会社,大阪府,池田市,緑丘２丁目８－１６池田みどり丘クリニックビル１Ｆ,,27,204,5630026,,,,,,,2023-10-12,1,,,,,サクジェネラル,0
1642,6140001131948,新規,0,2023-10-12,2023-10-12,伯虎株式会社,,株式会社,兵庫県,姫路市,花田町上原田２番地１－２Ｆ,,28,201,6710251,,,,,,,2023-10-12,1,,,,,ハクコ,0
1643,6140001131972,新規,0,2023-10-12,2023-10-12,株式会社稜旺,,株式会社,兵庫県,芦屋市,東芦屋町６－２４－５０１,00132219,28,206,6590095,,,,,,,2023-10-12,1,,,,,リオ,0
1645,6140003019670,新規,0,2023-10-12,2023-10-12,ガス革命合同会社,,合同会社,兵庫県,神戸市兵庫区,兵庫町１丁目１番３号,,28,105,6520813,,,,,,,2023-10-12,1,,,,,ガスカクメイ,0
1646,6150001026791,新規,0,2023-10-12,2023-10-12,株式会社ＱＵＯＫＫＡ,,株式会社,奈良県,桜井市,大字川合２６５番地,,29,206,6330063,,,,,,,2023-10-12,1,,,,,クオッカ,0
1660,6180301037899,新規,0,2023-10-12,2023-10-12,株式会社庭友,,株式会社,愛知県,安城市,川島町太田屋敷４８番地,,23,212,4441152,,,,,,,2023-10-12,1,,,,,ニワトモ,0
1664,6200001041810,新規,0,2023-10-12,2023-10-12,株式会社一,,株式会社,岐阜県,加茂郡八百津町,八百津３１０１番地１,,21,505,5050301,,,,,,,2023-10-12,1,,,,,イチ,0
1667,6220005008787,新規,0,2023-10-12,2023-10-12,ＶＡＮＳＯＬＥ税理士法人,,その他の設立登記法人,石川県,小松市,三日市町１８番地きまっしプラザ１階,,17,203,9230924,,,,,,,2023-10-12,1,,,,,ヴァンソール,0
1669,6230001020043,新規,0,2023-10-12,2023-10-12,株式会社ＣＲＩ,,株式会社,富山県,富山市,八尾町福島字上野４７８番,,16,201,9392376,,,,,,,2023-10-12,1,,,,,シーアールアイ,0
1679,6260001038396,新規,0,2023-10-12,2023-10-12,株式会社Ｍｅ　ｃｏｒｐｏｒａｔｉｏｎ,,株式会社,岡山県,倉敷市,老松町２丁目３番１４－１３０３号,,33,202,7100826,,,,,,,2023-10-12,1,,,,,ミーコーポレーション,0
1691,6290001103338,新規,0,2023-10-12,2023-10-12,株式会社ｔｓｕｎａｇｕｔｏ,,株式会社,福岡県,福岡市中央区,高砂１丁目１番２５－１１０５号,,40,133,8100011,,,,,,,2023-10-12,1,,,,,ツナグト,0
1692,6290001103346,新規,0,2023-10-12,2023-10-12,ＭＲホールディングス株式会社,,株式会社,福岡県,久留米市,新合川１丁目６番３０号,,40,203,8390865,,,,,,,2023-10-12,1,,,,,エムアールホールディングス,0
1693,6290001103354,新規,0,2023-10-12,2023-10-12,株式会社スロウ,,株式会社,福岡県,朝倉市,甘木１１２番地,,40,228,8380068,,,,,,,2023-10-12,1,,,,,スロウ,0
1694,6290001103370,新規,0,2023-10-12,2023-10-12,株式会社Ａｉｒ　Ｌｉｎｅ　Ｓｙｓｔｅｍ,,株式会社,福岡県,福岡市東区,名島５丁目７番１８号,,40,131,8130043,,,,,,,2023-10-12,1,,,,,エアーラインシステム,0
1695,6290003014475,新規,0,2023-10-12,2023-10-12,合同会社諌竜組,,合同会社,福岡県,福岡市博多区,那珂１丁目４３番２１－２０２号,,40,132,8120893,,,,,,,2023-10-12,1,,,,,,0
1697,6290801029947,新規,0,2023-10-12,2023-10-12,株式会社ＣｒａｆｔＸ,,株式会社,福岡県,北九州市門司区,大里東４丁目１３番５号,,40,101,8000022,,,,,,,2023-10-12,1,,,,,クラフトエックス,0
1698,6320001020059,新規,0,2023-10-12,2023-10-12,株式会社相広,,株式会社,大分県,大分市,金池町５丁目３番３号,,44,201,8700026,,,,,,,2023-10-12,1,,,,,ソウコウ,0
1702,6330005010708,新規,0,2023-10-12,2023-10-12,農事組合法人吉松グリーンファーム,,その他の設立登記法人,熊本県,熊本市北区,植木町平井５９７番地,,43,105,8610121,,,,,,,2023-10-12,1,,,,,ヨシマツグリーンファーム,0
1715,6370001050497,新規,0,2023-10-12,2023-10-12,株式会社トメセー,,株式会社,宮城県,登米市,迫町佐沼字中江５丁目８番地９,,04,212,9870511,,,,,,,2023-10-12,1,,,,,トメセー,0
1716,6370001050506,新規,0,2023-10-12,2023-10-12,株式会社ラミュエール,,株式会社,宮城県,仙台市若林区,なないろの里１丁目１９番地の３,,04,103,9840017,,,,,,,2023-10-12,1,,,,,ラミュエール,0
1719,6370003006316,新規,0,2023-10-12,2023-10-12,合同会社ＳＥ,,合同会社,宮城県,仙台市宮城野区,宮千代２丁目１７－８ベレオ宮千代アトリエール２０３,,04,102,9830044,,,,,,,2023-10-12,1,,,,,エスイー,0
1722,6380001034053,新規,0,2023-10-12,2023-10-12,株式会社あきつ,,株式会社,福島県,本宮市,荒井字関畑４５番地,,07,214,9691104,,,,,,,2023-10-12,1,,,,,アキツ,0
1725,6390001017395,新規,0,2023-10-12,2023-10-12,株式会社陸翔,,株式会社,山形県,長井市,勧進代１２４２番地の１,,06,209,9930064,,,,,,,2023-10-12,1,,,,,リクショウ,0
1727,6390005009034,新規,0,2023-10-12,2023-10-12,一般社団法人こねる,,その他の設立登記法人,山形県,天童市,泉町１丁目３－５,,06,210,9940015,,,,,,,2023-10-12,1,,,,,コネル,0
1729,6400001016412,新規,0,2023-10-12,2023-10-12,羽沢測量株式会社,,株式会社,岩手県,盛岡市,みたけ２丁目５番７号,,03,201,0200122,,,,,,,2023-10-12,1,,,,,ハザワソクリョウ,0
1736,6430001090124,新規,0,2023-10-12,2023-10-12,株式会社サージアルファ,,株式会社,北海道,登別市,中央町７丁目２７番地４,,01,230,0590012,,,,,,,2023-10-12,1,,,,,サージアルファ,0
1748,6700150121197,新規,0,2023-10-12,2023-10-12,ｓｈｅｎｚｈｅｎｓｈｉｚｈｏｎｇｄａｓｈｅｎｇｋｅｊｉ　ｙｏｕｘｉａｎｇｏｎｇｓｉ,,外国会社等,,,,,,,,ｆｕｔｉａｎｊｉｅｄａｏ　ｇａｎｇｘｉａｓｈｅｑｕ　ｃａｉｔｉａｎｌｕ３０６９ｈａｏ　ｘｉｎｇｈｅｓｈｉｊｉＡｄｏｎｇ３６１５Ｋ１１，ｓｈｅｎｚｈｅｎｓｈｉｆｕｔｉａｎｑｕ　Ｃｈｉｎａ,,,,,,2023-10-12,1,,,,,シンセンシゾンダシェンカギユウゲンコウシ,0
1760,7010001238895,新規,0,2023-10-12,2023-10-12,株式会社Ｓｔｒｉｖｅ　Ｓａｌｉｔｏ　Ｐａｒｔｎｅｒｓ,,株式会社,東京都,千代田区,九段南１丁目５番６号りそな九段ビル５Ｆ・ＫＳフロア,,13,101,1020074,,,,,,,2023-10-12,1,,,,,ストライブサリートパートナーズ,0
1761,7010001238994,新規,0,2023-10-12,2023-10-12,アトツギサポート株式会社,,株式会社,東京都,中央区,銀座１丁目２２番１１号銀座大竹ビジデンス２Ｆ,,13,102,1040061,,,,,,,2023-10-12,1,,,,,アトツギサポート,0
1762,7010001239076,新規,0,2023-10-12,2023-10-12,アルファクエスト株式会社,,株式会社,東京都,千代田区,丸の内１丁目１１番１号１３階,,13,101,1000005,,,,,,,2023-10-12,1,,,,,アルファクエスト,0
1763,7010001239142,新規,0,2023-10-12,2023-10-12,株式会社コクチョウ,,株式会社,東京都,千代田区,神田和泉町１番地６－１６ヤマトビル４０５,,13,101,1010024,,,,,,,2023-10-12,1,,,,,コクチョウ,0
1764,7010001239150,新規,0,2023-10-12,2023-10-12,株式会社ＴＡＡＳ,,株式会社,東京都,千代田区,九段南１丁目５番６号りそな九段ビル５Ｆ・ＫＳフロア,,13,101,1020074,,,,,,,2023-10-12,1,,,,,タース,0
1765,7010001239159,新規,0,2023-10-12,2023-10-12,株式会社サイテンジ,,株式会社,東京都,中央区,日本橋室町１丁目１１番１２号日本橋水野ビル７階,,13,102,1030022,,,,,,,2023-10-12,1,,,,,サイテンジ,0
1766,7010001239167,新規,0,2023-10-12,2023-10-12,株式会社ＤＳＳ,,株式会社,東京都,中央区,東日本橋２丁目１０番３号－７０１,,13,102,1030004,,,,,,,2023-10-12,1,,,,,ディーエスエス,0
1767,7010001239175,新規,0,2023-10-12,2023-10-12,株式会社Ｅ‐ｐｉｃｓ,,株式会社,東京都,中央区,日本橋室町１丁目１１番１２号日本橋水野ビル７階,,13,102,1030022,,,,,,,2023-10-12,1,,,,,イーピックス,0
1768,7010001239191,新規,0,2023-10-12,2023-10-12,日本フランチャイズグループ株式会社,,株式会社,東京都,中央区,銀座１丁目１２－４Ｎ＆ＥＢＬＤ．７階,,13,102,1040061,,,,,,,2023-10-12,1,,,,,ニホンフランチャイルズグループ,0
1774,7010003041892,新規,0,2023-10-12,2023-10-12,志生木太陽光発電所合同会社,,合同会社,東京都,千代田区,丸の内１丁目８番２号鉄鋼ビルディング４階,,13,101,1000005,,,,,,,2023-10-12,1,,,,,シュウキタイヨウコウハツデンショ,0
1792,7010401177743,新規,0,2023-10-12,2023-10-12,株式会社ＴＦＲＯＮＴ,,株式会社,東京都,港区,南青山６丁目２番１３号ファイン青山９０１,,13,103,1070062,,,,,,,2023-10-12,1,,,,,ティーフロント,0
1798,7010403031147,新規,0,2023-10-12,2023-10-12,合同会社エム,,合同会社,東京都,港区,高輪３丁目４番１０号１０３,,13,103,1080074,,,,,,,2023-10-12,1,,,,,エム,0
1807,7010701044957,新規,0,2023-10-12,2023-10-12,株式会社滝川インバウンド研究所,,株式会社,東京都,品川区,西五反田１丁目１４番１号シンセービル５Ｆ,,13,109,1410031,,,,,,,2023-10-12,1,,,,,タキガワインバウンドケンキュウジョ,0
1808,7010701044965,新規,0,2023-10-12,2023-10-12,株式会社アンドマッチ,,株式会社,東京都,品川区,西五反田１丁目２６番２号五反田サンハイツ９１１,,13,109,1410031,,,,,,,2023-10-12,1,,,,,アンドマッチ,0
1823,7011001157499,新規,0,2023-10-12,2023-10-12,未晃株式会社,,株式会社,東京都,渋谷区,恵比寿３丁目２番５－７０３号,,13,113,1500013,,,,,,,2023-10-12,1,,,,,ミコウ,0
1824,7011001157508,新規,0,2023-10-12,2023-10-12,株式会社ビオリレーション,,株式会社,東京都,渋谷区,恵比寿１丁目２２番８号ＥＢＩＳＵＦＩＲＳＴＰＬＡＣＥ２階,,13,113,1500013,,,,,,,2023-10-12,1,,,,,ビオリレーション,0
1830,7011101104698,新規,0,2023-10-12,2023-10-12,株式会社ＲＩＳＥ,,株式会社,東京都,新宿区,新宿５丁目１０番１０号海老沢ビル２０２,,13,104,1600022,,,,,,,2023-10-12,1,,,,,ライズ,0
1831,7011101104715,新規,0,2023-10-12,2023-10-12,株式会社ｂｌｅｎｄｓｈｅｅｐ,,株式会社,東京都,新宿区,袋町５番地１ＦＡＲＯ神楽坂,,13,104,1620828,,,,,,,2023-10-12,1,,,,,ブレンドシープ,0
1834,7011103013583,新規,0,2023-10-12,2023-10-12,Ｄ＆Ｄ合同会社,,合同会社,東京都,新宿区,百人町１丁目１１番３１号,,13,104,1690073,,,,,,,2023-10-12,1,,,,,ディーアンドディー,0
1835,7011401025520,新規,0,2023-10-12,2023-10-12,株式会社ＴＫＡＣ,,株式会社,東京都,板橋区,赤塚１丁目９番１３号１０１,,13,119,1750092,,,,,,,2023-10-12,1,,,,,ティーケーエーシー,0
1841,7011503005775,新規,0,2023-10-12,2023-10-12,ｕｎｆｉｎｉｓｈｅｄ合同会社,,合同会社,東京都,荒川区,荒川３丁目３７番２号レルフ荒川２０２,,13,118,1160002,,,,,,,2023-10-12,1,,,,,アンフィニッシュド,0
1846,7011801043163,新規,0,2023-10-12,2023-10-12,株式会社アタック,,株式会社,東京都,足立区,一ツ家１丁目２４番１０号,,13,121,1210075,,,,,,,2023-10-12,1,,,,,アタック,0
1850,7012405004907,新規,0,2023-10-12,2023-10-12,一般社団法人森田,,その他の設立登記法人,東京都,小金井市,本町５丁目１７番１８－３０４号ブラディア武蔵小金井,,13,210,1840004,,,,,,,2023-10-12,1,,,,,モリタ,0
1851,7012703002810,新規,0,2023-10-12,2023-10-12,合同会社ＬａｓｔＲｉｚｅ,,合同会社,東京都,東村山市,多摩湖町３丁目１－７５,,13,213,1890026,,,,,,,2023-10-12,1,,,,,ラストライズ,0
1853,7012801022693,新規,0,2023-10-12,2023-10-12,ｓｐａｒｋｌｉｎｇ株式会社,,株式会社,東京都,立川市,錦町１丁目４－４サニービル２階ＣＳ－８５,,13,202,1900022,,,,,,,2023-10-12,1,,,,,スパークリング,0
1859,7020001153870,新規,0,2023-10-12,2023-10-12,衆力株式会社,,株式会社,神奈川県,横浜市港北区,日吉本町１丁目１９番１２号,,14,109,2230062,,,,,,,2023-10-12,1,,,,,シュウリキ,0
1860,7020001153895,新規,0,2023-10-12,2023-10-12,ＢＲＡＮＣＯ　ＣＡＰＩＴＡＬ株式会社,,株式会社,神奈川県,横浜市都筑区,東山田町１２４,,14,118,2240024,,,,,,,2023-10-12,1,,,,,ブランコキャピタル,0
1863,7020003024731,新規,0,2023-10-12,2023-10-12,合同会社ＲＴＦ,,合同会社,神奈川県,横浜市西区,北幸２丁目１０番地４８むつみビル３Ｆ,,14,103,2200004,,,,,,,2023-10-12,1,,,,,アールティーエフ,0
1864,7020003024748,新規,0,2023-10-12,2023-10-12,合同会社ＲＥＰＡＩＲ,,合同会社,神奈川県,横浜市青葉区,田奈町４６番地６,,14,117,2270064,,,,,,,2023-10-12,1,,,,,リペア,0
1865,7020003024756,新規,0,2023-10-12,2023-10-12,合同会社Ａ　ＳＭＩＬＥ,,合同会社,神奈川県,横浜市神奈川区,金港町２番地１パークタワー横濱ポートサイド２８０２号,,14,102,2210056,,,,,,,2023-10-12,1,,,,,エースマイル,0
1870,7021001080436,新規,0,2023-10-12,2023-10-12,株式会社ママモ,,株式会社,神奈川県,相模原市緑区,向原３丁目６番地１１,,14,151,2520104,,,,,,,2023-10-12,1,,,,,ママモ,0
1877,7030001156245,新規,0,2023-10-12,2023-10-12,株式会社Ｂｒｉｌｌｅｒ,,株式会社,埼玉県,入間市,大字小谷田１９番地３,,11,225,3580026,,,,,,,2023-10-12,1,,,,,ブリエ,0
1878,7030001156641,新規,0,2023-10-12,2023-10-12,つばめ株式会社,,株式会社,埼玉県,所沢市,東所沢５丁目１４番地の２７,,11,208,3590021,,,,,,,2023-10-12,1,,,,,ツバメ,0
1885,7030005021429,新規,0,2023-10-12,2023-10-12,一般社団法人ＡＣＴＯ武蔵浦和,,その他の設立登記法人,埼玉県,さいたま市浦和区,岸町７丁目１番６号,,11,107,3300064,,,,,,,2023-10-12,1,,,,,アクトムサシウラワ,0
1895,7040005022161,新規,0,2023-10-12,2023-10-12,一般社団法人Ｍｅｄｉｃａｌ　Ｌａｂｏ．,,その他の設立登記法人,千葉県,富津市,大堀９１１番地１１,,12,226,2930001,,,,,,,2023-10-12,1,,,,,メディカルラボ,0
1897,7060003004762,新規,0,2023-10-12,2023-10-12,和牛ダイニング参番館合同会社,,合同会社,栃木県,さくら市,氏家１８５１番地１ｅプラザ参番館,,09,214,3291311,,,,,,,2023-10-12,1,,,,,ワギュウダイニングサンバンカン,0
1899,7070001040949,新規,0,2023-10-12,2023-10-12,加蔵砕石工業株式会社,,株式会社,群馬県,沼田市,榛名町４２７６番地１,,10,206,3780041,,,,,,,2023-10-12,1,,,,,カクラサイセキコウギョウ,0
1910,7080405007584,新規,0,2023-10-12,2023-10-12,医療法人社団のずえ内科・呼吸器クリニック,,その他の設立登記法人,静岡県,浜松市東区,上西町３番地の８,,22,132,4350048,,,,,,,2023-10-12,1,,,,,ノズエナイカコキュウキクリニック,0
1911,7090001018365,新規,0,2023-10-12,2023-10-12,株式会社フルーツハウスヤノ,,株式会社,山梨県,笛吹市,御坂町井之上８１１番地,,19,211,4060803,,,,,,,2023-10-12,1,,,,,フルーツハウスヤノ,0
1912,7100001036877,新規,0,2023-10-12,2023-10-12,株式会社Ａｎｏｔｈｅｒ　Ｍ＆Ｄ,,株式会社,長野県,長野市,若穂綿内６８９６番地１,,20,201,3810101,,,,,,,2023-10-12,1,,,,,アナザーエムアンドディ,0
1920,7110005017006,新規,0,2023-10-12,2023-10-12,医療法人社団好生堂ポートクリニック,,その他の設立登記法人,新潟県,新潟市北区,松浜本町４丁目１番１２号,,15,101,9503125,,,,,,,2023-10-12,1,,,,,コウセイドウポートクリニック,0
1927,7120001258734,新規,0,2023-10-12,2023-10-12,株式会社謙子閣,,株式会社,大阪府,大阪市西成区,山王２丁目５番１８号ＲＴｉ天王寺１０５号室,,27,122,5570001,,,,,,,2023-10-12,1,,,,,ケンシカク,0
1928,7120001258742,新規,0,2023-10-12,2023-10-12,ＧＲ株式会社,,株式会社,大阪府,大阪市生野区,桃谷１丁目１１番２２号１Ｆ,,27,116,5440034,,,,,,,2023-10-12,1,,,,,ジーアール,0
1932,7120003025141,新規,0,2023-10-12,2023-10-12,合同会社浩総建,,合同会社,大阪府,大阪市西区,南堀江２丁目１‐３‐２１０,,27,106,5500015,,,,,,,2023-10-12,1,,,,,ヒロソウケン,0
1939,7120101068364,新規,0,2023-10-12,2023-10-12,株式会社東海,,株式会社,大阪府,泉佐野市,湊４丁目１番５号,,27,213,5980063,,,,,,,2023-10-12,1,,,,,トウカイ,0
1942,7120103005480,新規,0,2023-10-12,2023-10-12,合同会社Ｓｔａｒｔｉｎｇ　Ｏｖｅｒ,,合同会社,大阪府,堺市中区,堀上町２７２－２２,,27,142,5998261,,,,,,,2023-10-12,1,,,,,スターティングオーバー,0
1944,7120901048152,新規,0,2023-10-12,2023-10-12,株式会社シンパシー,,株式会社,大阪府,吹田市,豊津町９番１５号,,27,205,5640051,,,,,,,2023-10-12,1,,,,,シンパシー,0
1945,7120901048160,新規,0,2023-10-12,2023-10-12,株式会社オズエクスプレス,,株式会社,大阪府,摂津市,新在家１丁目２０号１０号,,27,224,5660055,,,,,,,2023-10-12,1,,,,,オズエクスプレス,0
1948,7130001075468,新規,0,2023-10-12,2023-10-12,株式会社フェイス,,株式会社,京都府,宇治市,広野町尖山２番地の１４１,,26,204,6110031,,,,,,,2023-10-12,1,,,,,フェイス,0
1949,7130001075476,新規,0,2023-10-12,2023-10-12,株式会社Ｓ＆Ｂ,,株式会社,京都府,長岡京市,柴の里１－２３,,26,209,6170818,,,,,,,2023-10-12,1,,,,,エスアンドビー,0
1953,7140001131955,新規,0,2023-10-12,2023-10-12,株式会社ミサコネイル,,株式会社,兵庫県,神戸市東灘区,本山北町６丁目６番１号,,28,101,6580003,,,,,,,2023-10-12,1,,,,,ミサコネイル,0
1959,7150001026774,新規,0,2023-10-12,2023-10-12,株式会社ラプソディ,,株式会社,奈良県,北葛城郡広陵町,大字的場１５３番地１０,,29,426,6350802,,,,,,,2023-10-12,1,,,,,ラプソディ,0
1960,7150001026790,新規,0,2023-10-12,2023-10-12,株式会社Ｔｒｉｐｌｅ　ｄｏｕｂｌｅ,,株式会社,奈良県,奈良市,小西町９番地川村ビル３Ｆ,,29,201,6308226,,,,,,,2023-10-12,1,,,,,トリプルダブル,0
1964,7180001158474,新規,0,2023-10-12,2023-10-12,Ｅｓｔａｔｅ　Ｗｏｒｋｓ株式会社,,株式会社,愛知県,名古屋市千種区,内山３丁目１８番５号,,23,101,4640075,,,,,,,2023-10-12,1,,,,,エステートワークス,0
1968,7190003004469,新規,0,2023-10-12,2023-10-12,ＣＡＲＯＣＨＥ　ＭＯＴＯＲＳ合同会社,,合同会社,三重県,亀山市,能褒野町６４－３亀山ハイツ２０３,,24,210,5190212,,,,,,,2023-10-12,1,,,,,カロシュモータース,0
1970,7200001041801,新規,0,2023-10-12,2023-10-12,株式会社ｏｔｔｏ,,株式会社,岐阜県,本巣市,宗慶３２番地８,,21,218,5010462,,,,,,,2023-10-12,1,,,,,オット,0
1975,7230001020050,新規,0,2023-10-12,2023-10-12,株式会社Ｄ　ｅｓｔａｔｅ,,株式会社,富山県,中新川郡上市町,大岩７６番地１,,16,322,9300463,,,,,,,2023-10-12,1,,,,,ディーエステイト,0
1977,7240001062249,新規,0,2023-10-12,2023-10-12,株式会社ＯＭホールディングス,,株式会社,広島県,広島市安佐北区,深川２丁目４７番２２号,,34,106,7391751,,,,,,,2023-10-12,1,,,,,オーエムホールディングス,0
1978,7240001062257,新規,0,2023-10-12,2023-10-12,株式会社ＫＯＨａＫＵ,,株式会社,広島県,東広島市,八本松町米満２５番地１３,,34,212,7390133,,,,,,,2023-10-12,1,,,,,コハク,0
1982,7260001038387,新規,0,2023-10-12,2023-10-12,株式会社操南オートサービス,,株式会社,岡山県,岡山市中区,桑野４３５番地９,,33,102,7028002,,,,,,,2023-10-12,1,,,,,ソウナンオートサービス,0
1983,7260001038395,新規,0,2023-10-12,2023-10-12,株式会社塗り替えＰＲＯ,,株式会社,岡山県,倉敷市,連島町連島１８８１番地１２,,33,202,7128011,,,,,,,2023-10-12,1,,,,,ヌリカエプロ,0
1986,7280001009048,新規,0,2023-10-12,2023-10-12,株式会社ととうま水産,,株式会社,島根県,松江市,西尾町１０８６番地１,,32,201,6900835,,,,,,,2023-10-12,1,,,,,トトウマスイサン,0
1987,7280003001779,新規,0,2023-10-12,2023-10-12,合同会社日御碕デザイン,,合同会社,島根県,出雲市,大社町日御碕１０８９－４０,,32,203,6990763,,,,,,,2023-10-12,1,,,,,ヒノミサキデザイン,0
1990,7290001103329,新規,0,2023-10-12,2023-10-12,株式会社ダブルスマイル,,株式会社,福岡県,福岡市博多区,博多駅南２丁目３番１２－１３０５号,,40,132,8120016,,,,,,,2023-10-12,1,,,,,ダブルスマイル,0
1991,7290001103337,新規,0,2023-10-12,2023-10-12,株式会社西日本ハウスパートナーズ,,株式会社,福岡県,八女郡広川町,大字久泉７７７番地１リバーグランデＩ２０２号,00132215,40,544,8340112,,,,,,,2023-10-12,1,,,,,ニシニホンハウスパートナーズ,0
1992,7290001103353,新規,0,2023-10-12,2023-10-12,株式会社シエル,,株式会社,福岡県,福津市,西福間３丁目４４番１８号,,40,224,8113219,,,,,,,2023-10-12,1,,,,,シエル,0
1995,7290005019141,新規,0,2023-10-12,2023-10-12,特定非営利活動法人仁心,,その他の設立登記法人,福岡県,福岡市南区,大楠３丁目８番１６－１０４号,,40,134,8150082,,,,,,,2023-10-12,1,,,,,ジンシン,0
1998,7290801029938,新規,0,2023-10-12,2023-10-12,株式会社ＤＡＩＦＵＫＵ,,株式会社,福岡県,北九州市八幡西区,岩崎２丁目６番３４号,,40,109,8071153,,,,,,,2023-10-12,1,,,,,ダイフク,0
2001,7310001018656,新規,0,2023-10-12,2023-10-12,株式会社稜友鳶,,株式会社,長崎県,佐世保市,吉岡町８０６番地１,,42,202,8570143,,,,,,,2023-10-12,1,,,,,リョウユウトビ,0
2004,7320003004199,新規,0,2023-10-12,2023-10-12,合同会社Ｍａｎａｌｙ．Ｐｒｏ．,,合同会社,大分県,日田市,大字北豆田１０６３番地７,,44,204,8770000,,,,,,,2023-10-12,1,,,,,マナリィプロ,0
2006,7330001031335,新規,0,2023-10-12,2023-10-12,株式会社Ｉｎｎｏｖａｔｉｏｎ　Ｌａｂ,,株式会社,熊本県,山鹿市,鹿央町合里３１８３番地,,43,208,8610565,,,,,,,2023-10-12,1,,,,,イノベーションラボ,0
2010,7330003010015,新規,0,2023-10-12,2023-10-12,ＭＭ　ＴＲＡＤＩＮＧ合同会社,,合同会社,熊本県,八代郡氷川町,吉本６９番地,,43,468,8694803,,,,,,,2023-10-12,1,,,,,,0
2015,7360003013361,新規,0,2023-10-12,2023-10-12,合同会社協英,,合同会社,沖縄県,うるま市,石川赤崎１丁目２番４３号,,47,213,9041103,,,,,,,2023-10-12,1,,,,,キョウエイ,0
2017,7370001050496,新規,0,2023-10-12,2023-10-12,株式会社村上自動車工業,,株式会社,宮城県,柴田郡村田町,大字小泉字鼓崎１２４番地２,,04,322,9891302,,,,,,,2023-10-12,1,,,,,ムラカミジドウシャコウギョウ,0
2018,7370001050505,新規,0,2023-10-12,2023-10-12,株式会社ＳＥＮＤＡＩ　ＦＡＲＭ,,株式会社,宮城県,仙台市若林区,沖野７丁目４１番２５号,,04,103,9840831,,,,,,,2023-10-12,1,,,,,センダイファーム,0
2022,7380001034044,新規,0,2023-10-12,2023-10-12,株式会社マルクレセール,,株式会社,福島県,岩瀬郡鏡石町,東町７５７番地１１,,07,342,9690404,,,,,,,2023-10-12,1,,,,,マルクレセール,0
2023,7380001034052,新規,0,2023-10-12,2023-10-12,アルマティエ株式会社,,株式会社,福島県,田村市,船引町石森字舘１０８番地,,07,211,9634313,,,,,,,2023-10-12,1,,,,,アルマティエ,0
2024,7390001017394,新規,0,2023-10-12,2023-10-12,ソラノテック株式会社,,株式会社,山形県,西村山郡河北町,谷地荒町東２丁目２０－１４,,06,321,9993515,,,,,,,2023-10-12,1,,,,,ソラノテック,0
2029,7450001014113,新規,0,2023-10-12,2023-10-12,株式会社旭川青果物加工所,,株式会社,北海道,旭川市,西神楽三線二十四号５３６番５,,01,204,0788383,,,,,,,2023-10-12,1,,,,,,0
2034,7700150121196,新規,0,2023-10-12,2023-10-12,ＣＨＡＯＺＨＯＵＳＨＩＺＩＴＥＮＧＳＨＡＮＧＭＡＯ　ＹＯＵＸＩＡＮＧＯＮＧＳＩ,,外国会社等,,,,,,,,Ｃｈｅｎｇｘｉ　Ｓｔｒｅｅｔ，Ｘｉａｎｇｑｉａｏ　Ｄｉｓｔｒｉｃｔ　Ｒｏｏｍ　６０２，Ｂｕｉｌｄｉｎｇ　９，Ｘｉｎｊｕｌｅ　Ｇａｒｄｅｎ，Ｆｕ’ａｎ　Ｒｏａｄ　Ｃｈａｏｚｈｏｕ　Ｃｉｔｙ　Ｃｈｉｎａ,,,,,,2023-10-12,1,,,,,チョウシュウシズテンシャンマオユウゲンコウシ,0
2041,8010001239091,新規,0,2023-10-12,2023-10-12,キャロット・ジャパン株式会社,,株式会社,東京都,千代田区,内幸町２丁目２番２号富国生命ビル渥美坂井法律事務所・外国法共同事業所内,,13,101,1000011,,,,,,,2023-10-12,1,,,,,キャロットジャパン,0
2042,8010001239109,新規,0,2023-10-12,2023-10-12,ＵＬトータルコンサルティング株式会社,,株式会社,東京都,千代田区,内神田２丁目５番６号亀田ビル９階,,13,101,1010047,,,,,,,2023-10-12,1,,,,,ユーエルトータルコンサルティング,0
2043,8010001239141,新規,0,2023-10-12,2023-10-12,株式会社アルプリール,,株式会社,東京都,文京区,本郷４丁目１６番６号天翔オフィス後楽園１３０１号室,,13,105,1130033,,,,,,,2023-10-12,1,,,,,アルプリール,0
2044,8010001239158,新規,0,2023-10-12,2023-10-12,ｈｉｓａｓｈ株式会社,,株式会社,東京都,中央区,勝どき６丁目３－１－５３０３,,13,102,1040054,,,,,,,2023-10-12,1,,,,,ヒサシ,0
2045,8010001239166,新規,0,2023-10-12,2023-10-12,バーゼル株式会社,,株式会社,東京都,千代田区,内幸町１丁目３番３号,,13,101,1000011,,,,,,,2023-10-12,1,,,,,バーゼル,0
2046,8010001239182,新規,0,2023-10-12,2023-10-12,株式会社カーチスロジテック,,株式会社,東京都,千代田区,紀尾井町４番１号新紀尾井町ビル２Ｆ,,13,101,1020094,,,,,,,2023-10-12,1,,,,,カーチスロジテック,0
2048,8010003041891,新規,0,2023-10-12,2023-10-12,アナログ参謀合同会社,,合同会社,東京都,中央区,銀座８丁目５番１０号並木ビル４階,,13,102,1040061,,,,,,,2023-10-12,1,,,,,アナログサンボウ,0
2052,8010005037368,新規,0,2023-10-12,2023-10-12,再エネレンディングファンドホールディングス１号一般社団法人,,その他の設立登記法人,東京都,中央区,八丁堀４丁目２番１０号ＡＯＪ税理士法人内,,13,102,1040032,,,,,,,2023-10-12,1,,,,,サイエネレンディングファンドホールディングスイチゴウ,0
2059,8010401177692,新規,0,2023-10-12,2023-10-12,株式会社ＡＬＣＨＥＲＡＳ,,株式会社,東京都,港区,芝浦４丁目１９番１－３８０３号,,13,103,1080023,,,,,,,2023-10-12,1,,,,,アルケラス,0
2060,8010401177718,新規,0,2023-10-12,2023-10-12,株式会社すが辰ホールディングス,,株式会社,東京都,港区,浜松町２丁目５－５－５,,13,103,1050013,,,,,,,2023-10-12,1,,,,,スガタツホールディングス,0
2065,8010403031105,新規,0,2023-10-12,2023-10-12,合同会社Ｒｅｌｍｅ,,合同会社,東京都,港区,南青山３丁目１番３６号青山丸竹ビル６Ｆ,,13,103,1070062,,,,,,,2023-10-12,1,,,,,レルミ,0
2068,8010503007186,新規,0,2023-10-12,2023-10-12,大澤トレードシステム合同会社,,合同会社,東京都,台東区,清川１丁目７番４－６０４号クリオ東浅草,,13,106,1110022,,,,,,,2023-10-12,1,,,,,オオサワトレードシステム,0
2072,8010601063932,新規,0,2023-10-12,2023-10-12,株式会社ＡＭＮＩ　Ｃｅｎｔｅｒ　Ｓｔｕｄｉｏ,,株式会社,東京都,江東区,常盤２丁目２－１２－５階,,13,108,1350006,,,,,,,2023-10-12,1,,,,,アムニセンタースタジオ,0
2079,8010701044956,新規,0,2023-10-12,2023-10-12,ファステストシステムズ株式会社,,株式会社,東京都,品川区,西五反田１丁目２６番２－９１１号五反田サンハイツ,,13,109,1410031,,,,,,,2023-10-12,1,,,,,ファステストシステムズ,0
2080,8010701044964,新規,0,2023-10-12,2023-10-12,さくらホーム株式会社,,株式会社,東京都,品川区,西五反田８丁目１番１号,,13,109,1410031,,,,,,,2023-10-12,1,,,,,サクラホーム,0
2081,8010701044972,新規,0,2023-10-12,2023-10-12,株式会社ＤｒｅａｍＢａｎｋ,,株式会社,東京都,品川区,北品川４丁目３番１６号,,13,109,1400001,,,,,,,2023-10-12,1,,,,,ドリームバンク,0
2087,8011001157523,新規,0,2023-10-12,2023-10-12,ワイズマザー株式会社,,株式会社,東京都,渋谷区,道玄坂１丁目１０番８号渋谷道玄坂東急ビル２Ｆ－Ｃ,,13,113,1500043,,,,,,,2023-10-12,1,,,,,ワイズマザー,0
2090,8011003017700,新規,0,2023-10-12,2023-10-12,Ｗｅｌｌｓ合同会社,,合同会社,東京都,渋谷区,道玄坂１丁目１０番８号渋谷道玄坂東急ビル２Ｆ－Ｃ,,13,113,1500043,,,,,,,2023-10-12,1,,,,,ウェルズ,0
2096,8011101104706,新規,0,2023-10-12,2023-10-12,Ｂｒａｉｎ　Ｐｏｗｅｒ　Ｓｏｌｕｔｉｏｎｓ株式会社,,株式会社,東京都,新宿区,新宿５丁目１４－１２,,13,104,1600022,,,,,,,2023-10-12,1,,,,,ブレインパワーソリューションズ,0
2098,8011201024977,新規,0,2023-10-12,2023-10-12,株式会社連創プランニング,,株式会社,東京都,中野区,上高田４丁目３７番３号,,13,114,1640002,,,,,,,2023-10-12,1,,,,,レンソウプランニング,0
2099,8011301029075,新規,0,2023-10-12,2023-10-12,株式会社凪,,株式会社,東京都,杉並区,西荻南２丁目１９番７号土屋ビル１階,,13,115,1670053,,,,,,,2023-10-12,1,,,,,ナギ,0
2100,8011401025528,新規,0,2023-10-12,2023-10-12,株式会社トータルプランニング杉田,,株式会社,東京都,板橋区,赤塚１丁目２５番１５号,,13,119,1750092,,,,,,,2023-10-12,1,,,,,トータルプランニングスギタ,0
2103,8011501029866,新規,0,2023-10-12,2023-10-12,ＡＲＥＯ　ＪＡＰＡＮ株式会社,,株式会社,東京都,北区,昭和町２丁目１番６号中久喜ビル３Ｆ,,13,117,1140011,,,,,,,2023-10-12,1,,,,,アレオジャパン,0
2108,8011801043154,新規,0,2023-10-12,2023-10-12,株式会社ＺＥＲＯ　ＳＴＹＬＥ,,株式会社,東京都,足立区,皿沼２丁目１８番１４号,,13,121,1230862,,,,,,,2023-10-12,1,,,,,ゼロスタイル,0
2109,8011801043162,新規,0,2023-10-12,2023-10-12,株式会社インフィニット,,株式会社,東京都,足立区,扇２丁目７番２３号２０２号室,,13,121,1230873,,,,,,,2023-10-12,1,,,,,,0
2114,8012401041102,新規,0,2023-10-12,2023-10-12,株式会社Ｗｏｎｄｅｒ　Ｓｕｒｖｉｖｅ,,株式会社,東京都,調布市,下石原３丁目１３番地１ラパス・ルミエール２０３,,13,208,1820034,,,,,,,2023-10-12,1,,,,,ワンダーサバイブ,0
2124,8013301051463,新規,0,2023-10-12,2023-10-12,株式会社Ｋｕｒａｂｉ,,株式会社,東京都,豊島区,池袋３丁目１２番６号１Ｆ,,13,116,1710014,,,,,,,2023-10-12,1,,,,,クラビ,0
2134,8020001153886,新規,0,2023-10-12,2023-10-12,株式会社ｎｕｒ,,株式会社,神奈川県,横浜市都筑区,茅ケ崎中央８番７－１００９号,,14,118,2240032,,,,,,,2023-10-12,1,,,,,ニュル,0
2135,8020001153903,新規,0,2023-10-12,2023-10-12,株式会社エムズアローズ,,株式会社,神奈川県,川崎市高津区,二子３丁目２７－１－６０２,,14,134,2130002,,,,,,,2023-10-12,1,,,,,エムズアローズ,0
2137,8020003024664,新規,0,2023-10-12,2023-10-12,合同会社ＲＵＳＰ,,合同会社,神奈川県,横浜市西区,二丁目１０番地４８むつみビル３Ｆ,,14,103,2200000,,,,,,,2023-10-12,1,,,,,ラスプ,0
2142,8021001080435,新規,0,2023-10-12,2023-10-12,ＡＴワークス株式会社,,株式会社,神奈川県,南足柄市,三竹１３０番地７,,14,217,2500116,,,,,,,2023-10-12,1,,,,,エイティーワークス,0
2143,8021001080443,新規,0,2023-10-12,2023-10-12,株式会社シーサイド,,株式会社,神奈川県,相模原市南区,相南４丁目２４番５４号,,14,153,2520312,,,,,,,2023-10-12,1,,,,,シーサイド,0
2146,8021003013657,新規,0,2023-10-12,2023-10-12,合同会社ＨＥＬＰ　ＭＥ,,合同会社,神奈川県,相模原市緑区,千木良８４４番地１,,14,151,2520174,,,,,,,2023-10-12,1,,,,,ヘルプミー,0
2147,8021003013673,新規,0,2023-10-12,2023-10-12,合同会社宝漁丸,,合同会社,神奈川県,足柄下郡湯河原町,吉浜１９９２番地１２,,14,384,2590312,,,,,,,2023-10-12,1,,,,,ホウリョウマル,0
2162,8030001156582,新規,0,2023-10-12,2023-10-12,株式会社ＳＨＩＮＥ　ＪＡＰＡＮ,,株式会社,埼玉県,さいたま市大宮区,仲町１丁目２９番地柴田第一ビル２階西側,,11,103,3300845,,,,,,,2023-10-12,1,,,,,シャインジャパン,0
2163,8030001156624,新規,0,2023-10-12,2023-10-12,和興工業株式会社,,株式会社,埼玉県,川口市,仲町２番８－２０２号サンライフ碧雲,,11,203,3320022,,,,,,,2023-10-12,1,,,,,ワコウコウギョウ,0
2185,8040003023144,新規,0,2023-10-12,2023-10-12,合同会社ＡＳＡＥｍｐｏｗｅｒｍｅｎｔＣｏｎｓｕｌｔｉｎｇ,,合同会社,千葉県,船橋市,藤原７丁目１－７－２０３コーポ馬込沢,,12,204,2730047,,,,,,,2023-10-12,1,,,,,アサエンパワメントコンサルティング,0
2186,8040003023433,新規,0,2023-10-12,2023-10-12,Ｏ．Ｓ造園合同会社,,合同会社,千葉県,佐倉市,西志津５丁目１１－２８,,12,212,2850845,,,,,,,2023-10-12,1,,,,,オーエスゾウエン,0
2187,8040003023441,新規,0,2023-10-12,2023-10-12,んだはんで合同会社,,合同会社,千葉県,松戸市,新松戸５丁目１７８番参番街Ａ１０４,,12,207,2700034,,,,,,,2023-10-12,1,,,,,ンダハンデ,0
2190,8060003004761,新規,0,2023-10-12,2023-10-12,四季香珈琲合同会社,,合同会社,栃木県,栃木市,日ノ出町１１番１３号,,09,203,3280031,,,,,,,2023-10-12,1,,,,,シキコウコーヒー,0
2191,8070001040956,新規,0,2023-10-12,2023-10-12,株式会社明治デリカ高崎北,,株式会社,群馬県,北群馬郡榛東村,大字新井３３３４番地６,,10,344,3703503,,,,,,,2023-10-12,1,,,,,メイジデリカタカサキキタ,0
2197,8080401026785,新規,0,2023-10-12,2023-10-12,株式会社ザム,,株式会社,静岡県,浜松市中区,和合町１１３５番地の３,,22,131,4338125,,,,,,,2023-10-12,1,,,,,ザム,0
2200,8080405007583,新規,0,2023-10-12,2023-10-12,医療法人社団和泉会,,その他の設立登記法人,静岡県,浜松市浜北区,西美薗４５番地の３,,22,136,4340033,,,,,,,2023-10-12,1,,,,,イズミカイ,0
2206,8110005017005,新規,0,2023-10-12,2023-10-12,農事組合法人松浜営農組合,,その他の設立登記法人,新潟県,佐渡市,多田９８８番地２,,15,224,9520822,,,,,,,2023-10-12,1,,,,,マツハマエイノウクミアイ,0
2221,8120001258675,新規,0,2023-10-12,2023-10-12,株式会社ライフアシスト,,株式会社,大阪府,大阪市西成区,萩之茶屋２丁目５番９号,,27,122,5570004,,,,,,,2023-10-12,1,,,,,ライフアシスト,0
2222,8120001258725,新規,0,2023-10-12,2023-10-12,株式会社Ｒｕｈｅ,,株式会社,大阪府,大阪市北区,堂島浜２丁目１－１３日宝堂島浜ビル３Ｆ,,27,127,5300004,,,,,,,2023-10-12,1,,,,,ルーエ,0
2223,8120001258741,新規,0,2023-10-12,2023-10-12,株式会社ステイト,,株式会社,大阪府,交野市,天野が原町２丁目２９－４－１０１,,27,230,5760034,,,,,,,2023-10-12,1,,,,,ステイト,0
2224,8120001258849,新規,0,2023-10-12,2023-10-12,株式会社Ｃｒｅａｔｉｖｅ　ＴＥＮＹＵ,,株式会社,大阪府,守口市,神木町６－２５－１０１,,27,209,5700024,,,,,,,2023-10-12,1,,,,,クリエイティブテンユウ,0
2225,8120003025074,新規,0,2023-10-12,2023-10-12,合同会社Ｐｉ,,合同会社,大阪府,大阪市北区,梅田１丁目２番２号大阪駅前第２ビル１２－１２,,27,127,5300001,,,,,,,2023-10-12,1,,,,,パイ,0
2226,8120003025140,新規,0,2023-10-12,2023-10-12,コネクトコスモス合同会社,,合同会社,大阪府,大阪市東成区,大今里３丁目１番６号,,27,115,5370012,,,,,,,2023-10-12,1,,,,,コネクトコスモス,0
2229,8120101068347,新規,0,2023-10-12,2023-10-12,西宮商会株式会社,,株式会社,大阪府,堺市北区,南花田町５２７番地,,27,146,5918011,,,,,,,2023-10-12,1,,,,,ニシミヤショウカイ,0
2230,8120101068355,新規,0,2023-10-12,2023-10-12,株式会社Ｒｏｌｌ　ｕｐ　Ｒｏｌｌｉｎ,,株式会社,大阪府,堺市堺区,南三国ヶ丘町３丁２番１９－２０３号,,27,141,5900023,,,,,,,2023-10-12,1,,,,,ロールアップローリン,0
2231,8120101068363,新規,0,2023-10-12,2023-10-12,フナトミ工業株式会社,,株式会社,大阪府,和泉市,阪本町３７３番地の１（２０５）,,27,219,5940052,,,,,,,2023-10-12,1,,,,,フナトミコウギョウ,0
2232,8120101068371,新規,0,2023-10-12,2023-10-12,株式会社弁当専科まるにし,,株式会社,大阪府,泉大津市,板原町１丁目６番４０号,,27,206,5950033,,,,,,,2023-10-12,1,,,,,ベントウセンカマルニシ,0
2237,8120901048168,新規,0,2023-10-12,2023-10-12,株式会社Ｓ,,株式会社,大阪府,高槻市,三島江２丁目８番３０－２０１号,,27,207,5690835,,,,,,,2023-10-12,1,,,,,エス,0
2250,8140003019652,新規,0,2023-10-12,2023-10-12,合同会社マーチアンドコー,,合同会社,兵庫県,三木市,志染町青山６丁目１９番地の１８,,28,215,6730521,,,,,,,2023-10-12,1,,,,,マーチアンドコー,0
2257,8180301037897,新規,0,2023-10-12,2023-10-12,株式会社旭屋,,株式会社,愛知県,安城市,住吉町３丁目７番３９号,,23,212,4460072,,,,,,,2023-10-12,1,,,,,アサヒヤ,0
2260,8190003004468,新規,0,2023-10-12,2023-10-12,コーレレ合同会社,,合同会社,三重県,いなべ市,北勢町阿下喜１４３８番地１,,24,214,5110428,,,,,,,2023-10-12,1,,,,,コーレレ,0
2273,8240001062256,新規,0,2023-10-12,2023-10-12,株式会社ＨＡＮ,,株式会社,広島県,広島市南区,松原町３番２－４２０７号,,34,103,7320822,,,,,,,2023-10-12,1,,,,,ハン,0
2276,8250001020337,新規,0,2023-10-12,2023-10-12,株式会社ＵＶラボ,,株式会社,山口県,周南市,大字須々万本郷１７０３番地の７,,35,215,7450122,,,,,,,2023-10-12,1,,,,,ユーブイラボ,0
2277,8260001038386,新規,0,2023-10-12,2023-10-12,株式会社いと警備,,株式会社,岡山県,津山市,坪井町２０番地,,33,203,7080075,,,,,,,2023-10-12,1,,,,,イトケイビ,0
2278,8260001038394,新規,0,2023-10-12,2023-10-12,株式会社嘉和実業,,株式会社,岡山県,岡山市北区,南方２丁目１２番１３号タカ南方ビル３０１,,33,101,7000807,,,,,,,2023-10-12,1,,,,,カオジツギョウ,0
2285,8290001103245,新規,0,2023-10-12,2023-10-12,株式会社ＧａｒａｇｅＡ,,株式会社,福岡県,糟屋郡粕屋町,大字大隈１２１８番地３,,40,349,8112302,,,,,,,2023-10-12,1,,,,,ガレージエー,0
2286,8290001103328,新規,0,2023-10-12,2023-10-12,ＭＯＥホールディングス株式会社,,株式会社,福岡県,福岡市中央区,清川２丁目５番３３－１１０２号,,40,133,8100005,,,,,,,2023-10-12,1,,,,,モエホールディングス,0
2287,8290001103336,新規,0,2023-10-12,2023-10-12,トヨタ企画株式会社,,株式会社,福岡県,福岡市博多区,博多駅南３丁目１５番３０－３０２号ローズマンション第２博多,,40,132,8120016,,,,,,,2023-10-12,1,,,,,トヨタキカク,0
2288,8290001103360,新規,0,2023-10-12,2023-10-12,株式会社ジラソール,,株式会社,福岡県,福岡市城南区,七隈１丁目７－１５グリンヒルズ城南ＩＩ,00132214,40,136,8140133,,,,,,,2023-10-12,1,,,,,ジラソール,0
2289,8290001103369,新規,0,2023-10-12,2023-10-12,株式会社ＩＲＩＥＲ,,株式会社,福岡県,福岡市中央区,大名１丁目１３番２０号松島ビル１Ｆ,,40,133,8100041,,,,,,,2023-10-12,1,,,,,アイラー,0
2291,8290003014465,新規,0,2023-10-12,2023-10-12,合同会社Ｄｉｃｅ,,合同会社,福岡県,福岡市東区,香椎浜３丁目３番５－１１０８号,,40,131,8130016,,,,,,,2023-10-12,1,,,,,ダイス,0
2298,8290801029937,新規,0,2023-10-12,2023-10-12,株式会社ＭＨＳ,,株式会社,福岡県,北九州市小倉北区,木町３丁目１３番７号,,40,106,8030851,,,,,,,2023-10-12,1,,,,,エムエイチエス,0
2300,8320001020065,新規,0,2023-10-12,2023-10-12,株式会社ＨＡＲＥ,,株式会社,大分県,大分市,横尾東町１丁目１番７号,,44,201,8700130,,,,,,,2023-10-12,1,,,,,ハレ,0
2305,8350001018610,新規,0,2023-10-12,2023-10-12,株式会社ポスティングサービス宮崎,,株式会社,宮崎県,宮崎市,中村東２丁目３－１１村上屋ビル１Ｆ,,45,201,8800904,,,,,,,2023-10-12,1,,,,,ポスティングサービスミヤザキ,0
2307,8380001034051,新規,0,2023-10-12,2023-10-12,株式会社ペイフォワード,,株式会社,福島県,白河市,大鹿島前２１番地１,,07,205,9610051,,,,,,,2023-10-12,1,,,,,ペイフォワード,0
2308,8380003005587,新規,0,2023-10-12,2023-10-12,合同会社武田物産,,合同会社,福島県,安達郡大玉村,玉井字久保山３４番地２,,07,322,9691302,,,,,,,2023-10-12,1,,,,,タケダブッサン,0
2311,8390003002146,新規,0,2023-10-12,2023-10-12,ながめ山春秋合同会社,,合同会社,山形県,西置賜郡飯豊町,大字萩生８６９番地１,,06,403,9990602,,,,,,,2023-10-12,1,,,,,ナガメヤマシュンジュウ,0
2324,8430003015498,新規,0,2023-10-12,2023-10-12,Ｌｕｌａ合同会社,,合同会社,北海道,札幌市白石区,本通１１丁目北１番２８号,,01,104,0030027,,,,,,,2023-10-12,1,,,,,ルーラ,0
2326,8440001009336,新規,0,2023-10-12,2023-10-12,株式会社プロキュア,,株式会社,北海道,函館市,的場町２４番２１号,,01,202,0400021,,,,,,,2023-10-12,1,,,,,プロキュア,0
2328,8450001014104,新規,0,2023-10-12,2023-10-12,清水物産北海道丸恩株式会社,,株式会社,北海道,深川市,音江町字広里１０５番地１２,,01,228,0741271,,,,,,,2023-10-12,1,,,,,シミズブッサンホッカイドウマルオン,0
2335,8700150121195,新規,0,2023-10-12,2023-10-12,Ｓｈｅｎｚｈｅｎ　Ｐｕｔｉａｎｄｉａｎｚｉｓｈａｎｇｗｕ　ｙｏｕｘｉａｎｇｏｎｇｓｉ,,外国会社等,,,,,,,,ｌｏｎｇｇａｎｇｑｕｂａｎｔｉａｎｊｉｅｄａｏｗａｎｋｅｃｈｅｎｇｓｈｅｑｕ　ｘｉｎｔｉａｎｘｉａｂａｉｒｕｉｄａｄａｓｈａＡｚｕｏ１３Ｆ－Ｆ１４　ｓｈｅｎｚｈｅｎｓｈｉ　Ｃｈｉｎａ,,,,,,2023-10-12,1,,,,,シンセンプテンデンシショウムユウゲンコウシ,0
2347,9010001239132,新規,0,2023-10-12,2023-10-12,ＡＩＣＥ株式会社,,株式会社,東京都,文京区,本郷６丁目２５番１４号,,13,105,1130033,,,,,,,2023-10-12,1,,,,,アイス,0
2348,9010001239140,新規,0,2023-10-12,2023-10-12,ＬＳＩホールディングス株式会社,,株式会社,東京都,千代田区,岩本町２丁目３番３号,,13,101,1010032,,,,,,,2023-10-12,1,,,,,エルエスアイホールディングス,0
2349,9010001239149,新規,0,2023-10-12,2023-10-12,８ｎ株式会社,,株式会社,東京都,中央区,銀座１丁目２２番１１号銀座大竹ビジデンス２階,,13,102,1040061,,,,,,,2023-10-12,1,,,,,エイト,0
2350,9010001239165,新規,0,2023-10-12,2023-10-12,株式会社アルファ,,株式会社,東京都,中央区,八丁堀２丁目１１番１－４０１号,,13,102,1040032,,,,,,,2023-10-12,1,,,,,アルファ,0
2355,9010003041858,新規,0,2023-10-12,2023-10-12,ＨＩＮＡ合同会社,,合同会社,東京都,中央区,銀座１丁目１２番４号Ｎ＆ＥＢＬＤ．６Ｆ,,13,102,1040061,,,,,,,2023-10-12,1,,,,,ヒナ,0
2356,9010003041890,新規,0,2023-10-12,2023-10-12,がん検診サポート合同会社,,合同会社,東京都,文京区,本郷５丁目１番１１号ＫＩＩＨＯＵＳＥ２０２,,13,105,1130033,,,,,,,2023-10-12,1,,,,,ガンケンシンサポート,0
2361,9010005037359,新規,0,2023-10-12,2023-10-12,税理士法人Ａｇｕａ,,その他の設立登記法人,東京都,文京区,本郷４丁目１６番６号,,13,105,1130033,,,,,,,2023-10-12,1,,,,,アグア,0
2362,9010005037367,新規,0,2023-10-12,2023-10-12,一般社団法人経済安全保障経営センター,,その他の設立登記法人,東京都,千代田区,外神田３丁目６番４号第一勧業信用組合秋葉原ビル５階,,13,101,1010021,,,,,,,2023-10-12,1,,,,,ケイザイアンゼンホショウケイエイセンター,0
2363,9010101015846,新規,0,2023-10-12,2023-10-12,株式会社ＳＨＩＭＯＲＵＺ,,株式会社,東京都,八王子市,千人町４丁目９番４号３,,13,201,1930835,,,,,,,2023-10-12,1,,,,,シモルズ,0
2373,9010401177592,新規,0,2023-10-12,2023-10-12,株式会社Ｓｏｌｏｎ,,株式会社,東京都,港区,赤坂１丁目１２番３２号,,13,103,1070052,,,,,,,2023-10-12,1,,,,,サロン,0
2374,9010401177683,新規,0,2023-10-12,2023-10-12,株式会社ＪＴＴ　ＣＡＦＥ,,株式会社,東京都,港区,赤坂２丁目１２番１７号ＭａｒｔｉａｌＡｒｔｓタワー,,13,103,1070052,,,,,,,2023-10-12,1,,,,,ジャパントップチームカフェ,0
2375,9010401177741,新規,0,2023-10-12,2023-10-12,株式会社ＳＯＬ,,株式会社,東京都,港区,北青山１丁目３番１号,,13,103,1070061,,,,,,,2023-10-12,1,,,,,ソル,0
2380,9010403031095,新規,0,2023-10-12,2023-10-12,合同会社ＣＨＡＴ,,合同会社,東京都,港区,南青山３丁目１番３６号青山丸竹ビル６Ｆ,,13,103,1070062,,,,,,,2023-10-12,1,,,,,チャット,0
2381,9010403031129,新規,0,2023-10-12,2023-10-12,和潤運通日本航空服務合同会社,,合同会社,東京都,港区,赤坂２丁目２３番１号アークヒルズ・フロントタワーＩｎＣｏｎｔｒｏｌ内,,13,103,1070052,,,,,,,2023-10-12,1,,,,,ワジュンウンツウニホンコウクウフクム,0
2382,9010403031137,新規,0,2023-10-12,2023-10-12,トレンドリンク合同会社,,合同会社,東京都,港区,浜松町２丁目２番１５号浜松町ダイヤビル２Ｆ,,13,103,1050013,,,,,,,2023-10-12,1,,,,,トレンドリンク,0
2383,9010503007185,新規,0,2023-10-12,2023-10-12,武一企画合同会社,,合同会社,東京都,台東区,東上野６丁目５番地１号グレイス東上野７０１,,13,106,1100015,,,,,,,2023-10-12,1,,,,,タケイチキカク,0
2385,9010601063923,新規,0,2023-10-12,2023-10-12,紫楓株式会社,,株式会社,東京都,江東区,佐賀１丁目１６番３号２０１－Ｂ,,13,108,1350031,,,,,,,2023-10-12,1,,,,,シホウ,0
2386,9010605004246,新規,0,2023-10-12,2023-10-12,一般社団法人ムスリムフレンドリー国際協会,,その他の設立登記法人,東京都,江東区,青海２丁目５番１０号テレコムセンタービル東棟１４階,,13,108,1350064,,,,,,,2023-10-12,1,,,,,ムスリムフレンドリーコクサイキョウカイ,0
2390,9010701044955,新規,0,2023-10-12,2023-10-12,株式会社ＭＡＩＳＯＮ　ＩＴ,,株式会社,東京都,品川区,小山４丁目９番１２号,,13,109,1420062,,,,,,,2023-10-12,1,,,,,メゾンアイティ,0
2393,9010803004717,新規,0,2023-10-12,2023-10-12,ＡＡＨＡＮＡ合同会社,,合同会社,東京都,大田区,蒲田５丁目１８番３号Ｎｏ．１太陽ビル１Ｆ,,13,111,1440052,,,,,,,2023-10-12,1,,,,,アハナ,0
2394,9010901053995,新規,0,2023-10-12,2023-10-12,株式会社ＰｔｏＰ,,株式会社,東京都,世田谷区,用賀１丁目１番８号,,13,112,1580097,,,,,,,2023-10-12,1,,,,,ピートゥピー,0
2399,9011001157522,新規,0,2023-10-12,2023-10-12,Ｒｅｆｅｌ株式会社,,株式会社,東京都,渋谷区,道玄坂１丁目１０番８号渋谷道玄坂東急ビル２Ｆ－Ｃ,,13,113,1500043,,,,,,,2023-10-12,1,,,,,リファル,0
2400,9011001157530,新規,0,2023-10-12,2023-10-12,株式会社マモリビト,,株式会社,東京都,目黒区,三田１丁目５番１３号,,13,110,1530062,,,,,,,2023-10-12,1,,,,,マモリビト,0
2402,9011003017633,新規,0,2023-10-12,2023-10-12,合同会社ＷＡｔｓｏｎ,,合同会社,東京都,渋谷区,渋谷２丁目１９－１５宮益坂ビルディング６０９,,13,113,1500002,,,,,,,2023-10-12,1,,,,,ワトソン,0
2403,9011101104382,新規,0,2023-10-12,2023-10-12,ＰＲＥＦＬＯＰ株式会社,,株式会社,東京都,新宿区,西新宿６丁目５番１号新宿アイランドタワー２階,,13,104,1600023,,,,,,,2023-10-12,1,,,,,プリフロップ,0
2404,9011101104639,新規,0,2023-10-12,2023-10-12,株式会社ＡＵＤＩＴソリューションズ,,株式会社,東京都,新宿区,西新宿３丁目３番１３号西新宿水間ビル６階,,13,104,1600023,,,,,,,2023-10-12,1,,,,,オーディトソリューションズ,0
2405,9011101104696,新規,0,2023-10-12,2023-10-12,株式会社ＰＬＡＳＭＩＤ　ＣＯＮＳＵＬＴＩＮＧ,,株式会社,東京都,新宿区,西新宿３丁目７番１号新宿パークタワーＮ３０階,,13,104,1600023,,,,,,,2023-10-12,1,,,,,プラスミドコンサルティング,0
2406,9011101104721,新規,0,2023-10-12,2023-10-12,グラフェン・ジャパン株式会社,,株式会社,東京都,新宿区,西新宿３丁目７番１号新宿パークタワーＮ３０Ｆ,,13,104,1600023,,,,,,,2023-10-12,1,,,,,グラフェンジャパン,0
2407,9011103013598,新規,0,2023-10-12,2023-10-12,合同会社ティーレックス,,合同会社,東京都,新宿区,西新宿３丁目３番１３号西新宿水間ビル２Ｆ,,13,104,1600023,,,,,,,2023-10-12,1,,,,,ティーレックス,0
2418,9011503005798,新規,0,2023-10-12,2023-10-12,合同会社めぐる,,合同会社,東京都,荒川区,南千住８丁目４番５号けやき通り北参番館１０５,,13,118,1160003,,,,,,,2023-10-12,1,,,,,メグル,0
2419,9011701026662,新規,0,2023-10-12,2023-10-12,ＴＡＨ　ＧＲＯＵＰ株式会社,,株式会社,東京都,江戸川区,平井６丁目１２－２１スワンハイツ１０３,,13,123,1320035,,,,,,,2023-10-12,1,,,,,テエエチグループ,0
2422,9011801043153,新規,0,2023-10-12,2023-10-12,株式会社エス・ティー,,株式会社,東京都,足立区,千住仲町２７番１６－２０１号,,13,121,1200036,,,,,,,2023-10-12,1,,,,,エスティー,0
2424,9012401041092,新規,0,2023-10-12,2023-10-12,株式会社アクア,,株式会社,東京都,多摩市,和田５３１－５,,13,224,2060001,,,,,,,2023-10-12,1,,,,,アクア,0
2428,9013101009264,新規,0,2023-10-12,2023-10-12,株式会社ランド,,株式会社,東京都,青梅市,師岡町１丁目１４８番地の１０,,13,205,1980031,,,,,,,2023-10-12,1,,,,,ランド,0
2431,9013301051470,新規,0,2023-10-12,2023-10-12,スマートケア株式会社,,株式会社,東京都,豊島区,東池袋１丁目３４番５号,,13,116,1700013,,,,,,,2023-10-12,1,,,,,スマートケア,0
2438,9020001153571,新規,0,2023-10-12,2023-10-12,元吉商事株式会社,,株式会社,神奈川県,横浜市中区,元町４丁目１７２番地クリオ横濱元町通り６０３号室,,14,104,2310861,,,,,,,2023-10-12,1,,,,,モトヨシショウジ,0
2439,9020001153811,新規,0,2023-10-12,2023-10-12,株式会社Ｔ‐アシスト,,株式会社,神奈川県,横浜市泉区,白百合３丁目１－１６,,14,116,2450005,,,,,,,2023-10-12,1,,,,,ティーアシスト,0
2440,9020001153852,新規,0,2023-10-12,2023-10-12,株式会社ウィステリアシーズ,,株式会社,神奈川県,横浜市中区,尾上町５丁目８０,,14,104,2310015,,,,,,,2023-10-12,1,,,,,ウィステリアシーズ,0
2441,9020001153902,新規,0,2023-10-12,2023-10-12,株式会社エムズスクエア,,株式会社,神奈川県,横浜市栄区,田谷町１６２０番地,,14,115,2440844,,,,,,,2023-10-12,1,,,,,エムズスクエア,0
2444,9021001080434,新規,0,2023-10-12,2023-10-12,ＳＵＺＵＺＥＮ株式会社,,株式会社,神奈川県,藤沢市,藤沢９７１番地の３パール湘南５Ｆ,,14,205,2510052,,,,,,,2023-10-12,1,,,,,スズゼン,0
2445,9021001080442,新規,0,2023-10-12,2023-10-12,株式会社大樹,,株式会社,神奈川県,大和市,中央５丁目７番２３号,,14,213,2420021,,,,,,,2023-10-12,1,,,,,タイジュ,0
2446,9021001080450,新規,0,2023-10-12,2023-10-12,株式会社荘和工業,,株式会社,神奈川県,厚木市,中依知５８２番地２,,14,212,2430805,,,,,,,2023-10-12,1,,,,,ソウワコウギョウ,0
2450,9021003013672,新規,0,2023-10-12,2023-10-12,合同会社ＡＺＡ,,合同会社,神奈川県,小田原市,荻窪７３１－１,,14,206,2500042,,,,,,,2023-10-12,1,,,,,アザ,0
2461,9030001156508,新規,0,2023-10-12,2023-10-12,株式会社Ａｘｅ,,株式会社,埼玉県,川口市,芝中田２丁目４０－１８,,11,203,3330847,,,,,,,2023-10-12,1,,,,,アックス,0
2462,9030001156607,新規,0,2023-10-12,2023-10-12,町田商会株式会社,,株式会社,埼玉県,深谷市,宿根５０６番地５,,11,218,3660810,,,,,,,2023-10-12,1,,,,,マチダショウカイ,0
2463,9030001156623,新規,0,2023-10-12,2023-10-12,ミライ株式会社,,株式会社,埼玉県,三郷市,彦野１丁目５２番地２セイバリーＩ１０４,00132217,11,237,3410052,,,,,,,2023-10-12,1,,,,,ミライ,0
2465,9030003022690,新規,0,2023-10-12,2023-10-12,合同会社みらい,,合同会社,埼玉県,上尾市,大字上８０番地５,,11,219,3620001,,,,,,,2023-10-12,1,,,,,ミライ,0
2466,9030003022732,新規,0,2023-10-12,2023-10-12,合同会社エスラビー,,合同会社,埼玉県,川越市,大字山田１６２１－１モンドビル１Ｆ,,11,201,3500822,,,,,,,2023-10-12,1,,,,,エスラビー,0
2467,9030003022749,新規,0,2023-10-12,2023-10-12,ヘブン合同会社,,合同会社,埼玉県,戸田市,喜沢２丁目１１－５,,11,224,3350013,,,,,,,2023-10-12,1,,,,,ヘブン,0
2481,9040001130437,新規,0,2023-10-12,2023-10-12,株式会社錦潤,,株式会社,千葉県,松戸市,古ケ崎３丁目３２７１番４－１階Ａ号,,12,207,2710068,,,,,,,2023-10-12,1,,,,,キンジュン,0
2489,9070001040963,新規,0,2023-10-12,2023-10-12,株式会社エヌケーダイニング,,株式会社,群馬県,高崎市,上中居町１８３２番地１,,10,202,3700851,,,,,,,2023-10-12,1,,,,,エヌケーダイニング,0
2494,9080101024262,新規,0,2023-10-12,2023-10-12,株式会社ＫＪ,,株式会社,静岡県,田方郡函南町,塚本１２９番地の５,,22,325,4190124,,,,,,,2023-10-12,1,,,,,ケージェイ,0
2497,9080405007582,新規,0,2023-10-12,2023-10-12,医療法人社団さわ消化器内視鏡クリニック,,その他の設立登記法人,静岡県,浜松市浜北区,小林１２５３番地,,22,136,4340031,,,,,,,2023-10-12,1,,,,,サワショウカキナイシキョウクリニック,0
2506,9120001258666,新規,0,2023-10-12,2023-10-12,株式会社シーエスアドバンス,,株式会社,大阪府,大阪市北区,天神橋２丁目４番１７号千代田第一ビル４階,,27,127,5300041,,,,,,,2023-10-12,1,,,,,シーエスアドバンス,0
2507,9120001258708,新規,0,2023-10-12,2023-10-12,株式会社Ｋ７,,株式会社,大阪府,寝屋川市,高柳２丁目５３－４,,27,215,5720051,,,,,,,2023-10-12,1,,,,,ケーセブン,0
2508,9120001258724,新規,0,2023-10-12,2023-10-12,株式会社ＢＩＧ　ＵＰ,,株式会社,大阪府,寝屋川市,高柳栄町１－１０ハイコート高柳１０１,,27,215,5720062,,,,,,,2023-10-12,1,,,,,ビガップ,0
2509,9120001258732,新規,0,2023-10-12,2023-10-12,北珠特殊鋼株式会社,,株式会社,大阪府,大阪市西淀川区,姫島２丁目４番１０号,,27,113,5550033,,,,,,,2023-10-12,1,,,,,ホクシュトクシュコウ,0
2514,9120101068346,新規,0,2023-10-12,2023-10-12,ＴＯＭＯＮＩ　ＨＤ株式会社,,株式会社,大阪府,泉南郡岬町,淡輪６０９２番地の７,,27,366,5990301,,,,,,,2023-10-12,1,,,,,トモニホールディング,0
2515,9120901048167,新規,0,2023-10-12,2023-10-12,ＣＮＰ株式会社,,株式会社,大阪府,吹田市,江坂町４丁目２３番７号,,27,205,5640063,,,,,,,2023-10-12,1,,,,,シーエヌピー,0
2519,9122001037463,新規,0,2023-10-12,2023-10-12,株式会社河内緑化,,株式会社,大阪府,柏原市,大字高井田１５８２番地の６,,27,221,5820015,,,,,,,2023-10-12,1,,,,,カワチリョッカ,0
2521,9130001075400,新規,0,2023-10-12,2023-10-12,株式会社クライフ,,株式会社,京都府,城陽市,寺田深谷８６番地の５４,,26,207,6100121,,,,,,,2023-10-12,1,,,,,クライフ,0
2526,9140003019651,新規,0,2023-10-12,2023-10-12,ＤＥＳＩＧＮＷＯＲＫＳ合同会社,,合同会社,兵庫県,神戸市東灘区,鴨子ヶ原２丁目３番１４－４０３号,,28,101,6580064,,,,,,,2023-10-12,1,,,,,デザインワークス,0
2529,9150003003092,新規,0,2023-10-12,2023-10-12,合同会社リサクル,,合同会社,奈良県,磯城郡田原本町,大字黒田３３８番地の３,,29,363,6360301,,,,,,,2023-10-12,1,,,,,リサクル,0
2550,9250001020336,新規,0,2023-10-12,2023-10-12,株式会社ＳＡ‐ＨＯＳＥ,,株式会社,山口県,周南市,大字久米４０９番地の３１,,35,215,7450801,,,,,,,2023-10-12,1,,,,,エスエーホース,0
2560,9290001103236,新規,0,2023-10-12,2023-10-12,ＥＳＰ　ＪＡＰＡＮ株式会社,,株式会社,福岡県,福岡市博多区,祇園町８番１２号ロータリー大和ビル４２０号,,40,132,8120038,,,,,,,2023-10-12,1,,,,,イーエスピージャパン,0
2561,9290001103327,新規,0,2023-10-12,2023-10-12,株式会社Ａｍｏ・Ｌｉｎｏ,,株式会社,福岡県,大牟田市,大字新町９０番,,40,202,8370923,,,,,,,2023-10-12,1,,,,,アモリノ,0
2562,9290001103335,新規,0,2023-10-12,2023-10-12,株式会社灯輝設計,,株式会社,福岡県,福岡市中央区,清川２丁目３番１６号,,40,133,8100005,,,,,,,2023-10-12,1,,,,,トウキセッケイ,0
2563,9290001103351,新規,0,2023-10-12,2023-10-12,福山商事株式会社,,株式会社,福岡県,宗像市,日の里１丁目１１番１０号,,40,220,8113425,,,,,,,2023-10-12,1,,,,,フクヤマショウジ,0
2564,9290001103376,新規,0,2023-10-12,2023-10-12,株式会社ＭＥＩＡＬＵＡ,,株式会社,福岡県,福岡市中央区,天神４丁目６番２８号天神ファーストビル７Ｆ,,40,133,8100001,,,,,,,2023-10-12,1,,,,,メイアルア,0
2566,9290003014464,新規,0,2023-10-12,2023-10-12,グッドニュースジャパン合同会社,,合同会社,福岡県,福岡市博多区,博多駅前３丁目４－２５アクロスキューブ博多駅前,,40,132,8120011,,,,,,,2023-10-12,1,,,,,グッドニュースジャパン,0
2567,9290003014480,新規,0,2023-10-12,2023-10-12,合同会社ファーストペンギン,,合同会社,福岡県,福岡市中央区,天神４丁目６－２８天神ファーストビル７階,,40,133,8100001,,,,,,,2023-10-12,1,,,,,ファーストペンギン,0
2570,9320001020048,新規,0,2023-10-12,2023-10-12,株式会社愛華ホーム,,株式会社,大分県,中津市,大字大貞３８３番地,,44,203,8710153,,,,,,,2023-10-12,1,,,,,アイカホーム,0
2571,9320001020056,新規,0,2023-10-12,2023-10-12,株式会社人材バンクＤＭＧ,,株式会社,大分県,大分市,横塚２丁目１４番４３号,,44,201,8700254,,,,,,,2023-10-12,1,,,,,ジンザイバンクディーエムジー,0
2572,9320001020064,新規,0,2023-10-12,2023-10-12,株式会社エネルジーア,,株式会社,大分県,宇佐市,安心院町龍王１５７番地の３,,44,211,8720513,,,,,,,2023-10-12,1,,,,,エネルジーア,0
2587,9380001034034,新規,0,2023-10-12,2023-10-12,株式会社Ｂｌｕｅ　Ｂｅｅ　Ｐｏｗｅｒ,,株式会社,福島県,郡山市,逢瀬町多田野字本郷１３５番地,,07,203,9630213,,,,,,,2023-10-12,1,,,,,ブルービーパワー,0
2593,9420001018445,新規,0,2023-10-12,2023-10-12,株式会社ＳＴ２,,株式会社,青森県,十和田市,東十三番町３１番２５号,,02,206,0340023,,,,,,,2023-10-12,1,,,,,エスティーツー,0
2595,9430001090121,新規,0,2023-10-12,2023-10-12,株式会社トータル・ワン,,株式会社,北海道,石狩市,花川南三条１丁目６－１,,01,235,0613203,,,,,,,2023-10-12,1,,,,,トータルワン,0
2596,9430001090170,新規,0,2023-10-12,2023-10-12,Ｍｅｔａ　Ｃｌｏｕｄ株式会社,,株式会社,北海道,札幌市東区,北丘珠四条３丁目７番１０号,,01,103,0070884,,,,,,,2023-10-12,1,,,,,メタクラウド,0
2597,9440001009335,新規,0,2023-10-12,2023-10-12,株式会社ＳＨＩＮＩＮＧ　ＬＩＦＥ,,株式会社,北海道,函館市,富岡町１丁目３４番１号－２０６,,01,202,0410811,,,,,,,2023-10-12,1,,,,,シャイニングライフ,0
2598,9450003002394,新規,0,2023-10-12,2023-10-12,Ｎｏｒｔｈｅｒｎ　Ｒｅｓｅａｒｃｈ合同会社,,合同会社,北海道,旭川市,台場東２丁目３９８番地の７７,,01,204,0708027,,,,,,,2023-10-12,1,,,,,ノーザンリサーチ,0
2604,9700150121194,新規,0,2023-10-12,2023-10-12,ｆｏｓｈａｎｃｈｅｎｆａｎｙｉｙｅｄｉａｎｚｉｓｈａｎｇｗｕ　ｙｏｕｘｉａｎｇｏｎｇｓｉ,,外国会社等,,,,,,,,Ｓｈｏｐ３　Ｂｕｉｌｄｉｎｇ１９　ＮａｎｙｕｅＣｏｍｐｒｅｈｅｎｓｉｖｅＷｈｏｌｅｓａｌｅＭａｒｋｅｔ　ＸｉａｘｉＳｅｃｔｉｏｎ　ＦｏｐｉｎｇＮｅｗＲｏａｄ　ＧｕｉｃｈｅｎｇＳｔｒｅｅｔ　ＮａｎｈａｉＤｉｓｔｒｉｃｔ　ＦｏｓｈａｎＣｉｔｙ　Ｃｈｉｎａ,,,,,,2023-10-12,1,,,,,フォサンチェンファンイイエデンシショウムユウゲンコウシ,0
