sequenceNumber,corporateNumber,process,correct,updateDate,changeDate,name,nameImageId,kind,prefectureName,cityName,streetNumber,addressImageId,prefectureCode,cityCode,postCode,addressOutside,addressOutsideImageId,closeDate,closeCause,successorCorporateNumber,changeCause,assignmentDate,latest,enName,enPrefectureName,enCityName,enAddressOutside,furigana,hihyoji
16,1010005006833,登記記録の閉鎖等,0,2022-04-25,2022-04-18,特定非営利活動法人ＢＭネット,,その他の設立登記法人,東京都,中央区,日本橋本町４丁目３番１０号日本橋銀三ビル７階,,13,102,1030023,,,2022-04-18,清算の結了等,,,2015-10-05,1,,,,,ビーエムネット,0
20,1010401111030,登記記録の閉鎖等,0,2022-04-25,2022-04-07,全日空商事クラックスリーシング株式会社,,株式会社,東京都,港区,東新橋１丁目５番２号,,13,103,1050021,,,2022-04-07,清算の結了等,,,2015-10-05,1,,,,,ゼンニックウショウジクラックスリーシング,0
26,1010402030072,登記記録の閉鎖等,0,2022-04-25,2022-04-07,全日空商事メヌエットリーシング有限会社,,有限会社,東京都,港区,東新橋１丁目５番２号,,13,103,1050021,,,2022-04-07,清算の結了等,,,2015-10-05,1,,,,,ゼンニックウショウジメヌエットリーシング,0
53,1011105001781,登記記録の閉鎖等,0,2022-04-25,2022-04-21,特定非営利活動法人日本パテントリサーチアソシエイツ,,その他の設立登記法人,東京都,新宿区,新宿１丁目２５番１１号,,13,104,1600022,,,2022-04-21,清算の結了等,,,2015-10-05,1,,,,,ニホンパテントリサーチアソシエイツ,0
64,1011502011623,登記記録の閉鎖等,0,2022-04-25,2022-04-18,有限会社山崎屋油店,,有限会社,東京都,荒川区,東尾久２丁目１８番７号,,13,118,1160012,,,2022-04-18,清算の結了等,,,2015-10-05,1,,,,,ヤマザキヤアブラテン,0
73,1013301013899,登記記録の閉鎖等,0,2022-04-25,2022-04-19,株式会社ブロス,,株式会社,東京都,豊島区,千早１丁目１５番２０号,,13,116,1710044,,,2022-04-19,清算の結了等,,,2015-10-05,1,,,,,ブロス,0
82,1021001014374,登記記録の閉鎖等,0,2022-04-25,2022-04-18,株式会社和晃,,株式会社,神奈川県,相模原市中央区,淵野辺４丁目３８番２２号,,14,152,2520206,,,2022-04-18,清算の結了等,,,2015-10-05,1,,,,,ワコウ,0
121,1060002005049,登記記録の閉鎖等,0,2022-04-25,2022-04-19,有限会社スズオート宇都宮販売,,有限会社,栃木県,宇都宮市,錦２丁目９番１５号,,09,201,3210967,,,2022-04-19,清算の結了等,,,2015-10-05,1,,,,,スズオートウツノミヤハンバイ,0
124,1070001006708,登記記録の閉鎖等,0,2022-04-25,2022-04-12,株式会社群馬日新,,株式会社,群馬県,高崎市,藤塚町４１６番地,,10,202,3700875,,,2022-04-12,合併による解散等,3020001023607,令和４年４月１日横浜市鶴見区寛政町２６－１株式会社エヌ・ディ・ティ（3020001023607）に合併し解散,2015-10-05,1,,,,,グンマニッシン,0
128,1070002010428,登記記録の閉鎖等,0,2022-04-25,2022-04-13,有限会社ジュネス,,有限会社,群馬県,高崎市,八幡町９５３番地１,,10,202,3700884,,,2022-04-13,清算の結了等,,,2015-10-05,1,,,,,ジュネス,0
129,1070002013307,登記記録の閉鎖等,0,2022-04-25,2022-04-13,ルーフマテリアル有限会社,,有限会社,群馬県,高崎市,飯塚町６９番地,,10,202,3700069,,,2022-04-13,清算の結了等,,,2015-10-05,1,,,,,ルーフマテリアル,0
141,1110002006990,登記記録の閉鎖等,0,2022-04-25,2022-04-21,有限会社よし乃壽司,,有限会社,新潟県,新潟市中央区,西堀通８番町１５７６番地,,15,103,9518061,,,2022-04-21,清算の結了等,,,2015-10-05,1,,,,,ヨシノズシ,0
153,1120002048586,登記記録の閉鎖等,0,2022-04-25,2022-04-19,有限会社大阪銀河,,有限会社,大阪府,大阪市中央区,難波２丁目３番１１号,,27,128,5420076,,,2022-04-19,清算の結了等,,,2015-10-05,1,,,,,オオサカギンガ,0
161,1120901041030,登記記録の閉鎖等,0,2022-04-25,2022-04-21,株式会社マルク,,株式会社,大阪府,豊中市,曽根西町３丁目５番３４号,,27,203,5610801,,,2022-04-21,清算の結了等,,,2019-03-06,1,,,,,マルク,0
167,1130001037317,登記記録の閉鎖等,0,2022-04-25,2022-04-18,株式会社アイエスプランニング,,株式会社,大阪府,東大阪市,中野１丁目１３番１５号,,27,227,5780913,,,2022-04-18,清算の結了等,,,2015-10-05,1,,,,,アイエスプランニング,0
187,1140002033181,登記記録の閉鎖等,0,2022-04-25,2022-04-19,有限会社ジー・エス・エー関西,,有限会社,兵庫県,たつの市,新宮町新宮１８０番地の１,,28,229,6794313,,,2022-04-19,清算の結了等,,,2015-10-05,1,,,,,ジーエスエーカンサイ,0
189,1150001013530,登記記録の閉鎖等,0,2022-04-25,2022-04-20,村野株式会社,,株式会社,奈良県,大和高田市,大字出１２６番地,,29,202,6350043,,,2022-04-20,清算の結了等,,,2015-10-05,1,,,,,ムラノ,0
192,1180001067499,登記記録の閉鎖等,0,2022-04-25,2022-04-14,株式会社ホットラインサポート,,株式会社,愛知県,名古屋市天白区,福池１丁目８番地,,23,116,4680049,,,2022-04-14,清算の結了等,,,2015-10-05,1,,,,,ホットラインサポート,0
193,1180001088850,登記記録の閉鎖等,0,2022-04-25,2022-04-14,株式会社グリックス,,株式会社,愛知県,大府市,柊山町２丁目４５８番地,,23,223,4740053,,,2022-04-14,清算の結了等,,,2015-10-05,1,,,,,グリックス,0
202,1180001142005,登記記録の閉鎖等,0,2022-04-25,2022-04-18,株式会社ビーエスティー,,株式会社,愛知県,名古屋市熱田区,六野１丁目２番２１号,,23,109,4560023,,,2022-04-18,清算の結了等,,,2020-07-14,1,,,,,ビーエスティー,0
205,1180002048176,登記記録の閉鎖等,0,2022-04-25,2022-04-11,有限会社新和サービス,,有限会社,愛知県,名古屋市中川区,野田２丁目４２７番地,,23,110,4540912,,,2022-04-11,清算の結了等,,,2015-10-05,1,,,,,シンワサービス,0
220,1200005004207,登記記録の閉鎖等,0,2022-04-25,2022-04-22,医療法人竹田整形外科,,その他の設立登記法人,岐阜県,安八郡神戸町,大字北一色８２５番地,,21,381,5032306,,,2022-04-22,清算の結了等,,,2015-10-05,1,,,,,タケダセイケイゲカ,0
231,1240002032685,登記記録の閉鎖等,0,2022-04-25,2022-04-19,有限会社庄司運輸,,有限会社,広島県,呉市,広白岳３丁目３番２８号,,34,202,7370144,,,2022-04-19,清算の結了等,,,2015-10-05,1,,,,,ショウジウンユ,0
241,1290001038134,登記記録の閉鎖等,0,2022-04-25,2022-04-18,株式会社ＮＧＭコーポレーション,,株式会社,福岡県,糟屋郡志免町,別府北１丁目５番１号,,40,343,8112233,,,2022-04-18,清算の結了等,,,2015-10-05,1,,,,,エヌジーエムコーポレーション,0
243,1290002041921,登記記録の閉鎖等,0,2022-04-25,2022-04-15,有限会社大輝工業,,有限会社,福岡県,大野城市,乙金東１丁目１０８９番２４１,,40,219,8160901,,,2022-04-15,清算の結了等,,,2015-10-05,1,,,,,ダイキコウギョウ,0
250,1300001003796,登記記録の閉鎖等,0,2022-04-25,2022-04-21,中村建設株式会社,,株式会社,佐賀県,佐賀市,富士町大字古湯２６５５番地,,41,201,8400501,,,2022-04-21,清算の結了等,,,2015-10-05,1,,,,,ナカムラケンセツ,0
254,1330005006388,登記記録の閉鎖等,0,2022-04-25,2022-04-13,医療法人六華会,,その他の設立登記法人,熊本県,八代市,鏡町下有佐１０４番地,,43,202,8694212,,,2022-04-13,清算の結了等,,,2015-10-05,1,,,,,,0
268,1380005012118,登記記録の閉鎖等,0,2022-04-25,2022-04-20,農事組合法人泉ファーム,,その他の設立登記法人,福島県,会津若松市,北会津町和泉５３２番地,,07,202,9650107,,,2022-04-20,清算の結了等,,,2019-02-20,1,,,,,イズミファーム,0
270,1390002005271,登記記録の閉鎖等,0,2022-04-25,2022-04-18,有限会社蔵王クリーンサービス,,有限会社,山形県,山形市,蔵王上野１０５２番地,,06,201,9902303,,,2022-04-18,清算の結了等,,,2015-10-05,1,,,,,ザオウクリーンサービス,0
290,1470002013480,登記記録の閉鎖等,0,2022-04-25,2022-04-20,有限会社ホリタ,,有限会社,香川県,仲多度郡まんのう町,四條６１４番地第８,,37,406,7660021,,,2022-04-20,清算の結了等,,,2015-10-05,1,,,,,ホリタ,0
306,2010001024739,登記記録の閉鎖等,0,2022-04-25,2022-04-07,株式会社トラベル日本,,株式会社,東京都,中央区,京橋２丁目４番１２号,,13,102,1040031,,,2022-04-07,清算の結了等,,,2015-10-05,1,,,,,トラベルニッポン,0
326,2011001103160,登記記録の閉鎖等,0,2022-04-25,2022-04-11,株式会社アクセストップ,,株式会社,東京都,中野区,鷺宮３丁目３番６号２Ａ,,13,114,1650032,,,2022-04-11,清算の結了等,,,2015-10-05,1,,,,,アクセストップ,0
332,2011101059807,登記記録の閉鎖等,0,2022-04-25,2022-04-21,株式会社リトバ,,株式会社,東京都,新宿区,新宿１丁目３１番３号,,13,104,1600022,,,2022-04-21,清算の結了等,,,2015-10-05,1,,,,,リトバ,0
366,2021001042523,登記記録の閉鎖等,0,2022-04-25,2022-04-18,株式会社ＬＡＵＭＡＵＮＡ,,株式会社,神奈川県,三浦郡葉山町,堀内１７３５番８６号,,14,301,2400112,,,2022-04-18,清算の結了等,,,2015-10-05,1,,,,,,0
367,2021001046978,登記記録の閉鎖等,0,2022-04-25,2022-04-18,株式会社則武地所,,株式会社,神奈川県,相模原市中央区,相模原２丁目１１番２７号,,14,152,2520231,,,2022-04-18,清算の結了等,,,2015-10-05,1,,,,,ノリタケジショ,0
371,2021002071439,登記記録の閉鎖等,0,2022-04-25,2022-04-15,有限会社きくや,,有限会社,神奈川県,三浦市,初声町下宮田６４番地７,,14,210,2380111,,,2022-04-15,清算の結了等,,,2015-10-05,1,,,,,キクヤ,0
373,2030001014507,登記記録の閉鎖等,0,2022-04-25,2022-04-15,株式会社カイコーエンジニアリング,,株式会社,茨城県,稲敷郡阿見町,住吉１丁目１４番地１,,08,443,3001158,,,2022-04-15,清算の結了等,,,2015-10-05,1,,,,,カイコーエンジニアリング,0
379,2030002079771,登記記録の閉鎖等,0,2022-04-25,2022-04-15,有限会社ＬＳＴ川越,,有限会社,埼玉県,川越市,上戸新町２７番地２,,11,201,3500817,,,2022-04-15,清算の結了等,,,2015-10-05,1,,,,,エルエスティーカワゴエ,0
386,2030005014445,登記記録の閉鎖等,0,2022-04-25,2022-03-31,ワールドフェア協同組合,,その他の設立登記法人,埼玉県,久喜市,栗橋中央１丁目１６番１号,,11,232,3491102,,,2022-03-31,清算の結了等,,,2015-10-05,1,,,,,ワールドフェア,0
396,2050001029180,登記記録の閉鎖等,0,2022-04-25,2022-04-18,株式会社さくらんぼカンパニー,,株式会社,茨城県,守谷市,松ケ丘６丁目１７番地１９,,08,224,3020127,,,2022-04-18,清算の結了等,,,2015-10-05,1,,,,,サクランボカンパニー,0
399,2050002022630,登記記録の閉鎖等,0,2022-04-25,2022-04-07,有限会社エーティーアイ,,有限会社,茨城県,つくば市,春日４丁目１６番地５,,08,220,3050821,,,2022-04-07,清算の結了等,,,2015-10-05,1,,,,,エーティーアイ,0
411,2070002018164,登記記録の閉鎖等,0,2022-04-25,2022-04-15,有限会社ケアネット藤岡,,有限会社,群馬県,藤岡市,神田２８２番地１,,10,209,3750032,,,2022-04-15,清算の結了等,,,2015-10-05,1,,,,,ケアネットフジオカ,0
412,2070002034995,登記記録の閉鎖等,0,2022-04-25,2022-04-18,有限会社トライアンフ,,有限会社,群馬県,沼田市,薄根町３３１８番地８,,10,206,3780031,,,2022-04-18,清算の結了等,,,2015-10-05,1,,,,,,0
418,2110001029521,登記記録の閉鎖等,0,2022-04-25,2022-04-15,中越商事株式会社,,株式会社,新潟県,新潟市東区,寺山２５５番地４,,15,102,9500892,,,2022-04-15,合併による解散等,7110001022975,令和４年４月１日新潟県長岡市摂田屋四丁目８番１２号中越酒類販売株式会社（7110001022975）に合併し解散,2015-10-05,1,,,,,チュウエツショウジ,0
423,2120001022517,登記記録の閉鎖等,0,2022-04-25,2022-04-19,株式会社ヤスココーポレーション,,株式会社,大阪府,大阪市天王寺区,味原本町５番３号,,27,109,5430022,,,2022-04-19,清算の結了等,,,2015-10-05,1,,,,,ヤスココーポレーション,0
440,2120001231349,登記記録の閉鎖等,0,2022-04-25,2022-04-19,株式会社ＳＩサポート,,株式会社,大阪府,大阪市淀川区,十三東３丁目２３番１１－１００４号,,27,123,5320023,,,2022-04-19,清算の結了等,,,2020-08-28,1,,,,,エスアイサポート,0
454,2120101030907,登記記録の閉鎖等,0,2022-04-25,2022-04-21,三響楽器株式会社,,株式会社,大阪府,富田林市,若松町２丁目３番１５号,,27,214,5840024,,,2022-04-21,清算の結了等,,,2015-10-05,1,,,,,,0
459,2122001001748,登記記録の閉鎖等,0,2022-04-25,2022-04-20,キングプラスチツクス工業株式会社,,株式会社,大阪府,東大阪市,大蓮東１丁目１２番８号,,27,227,5770824,,,2022-04-20,清算の結了等,,,2015-10-05,1,,,,,キングプラスチツクスコウギョウ,0
474,2180001013527,登記記録の閉鎖等,0,2022-04-25,2022-04-18,丸福運輸株式会社,,株式会社,愛知県,名古屋市北区,楠１丁目９０５番地,,23,103,4620012,,,2022-04-18,清算の結了等,,,2015-10-05,1,,,,,マルフクウンユ,0
475,2180001029333,登記記録の閉鎖等,0,2022-04-25,2022-04-13,株式会社天野,,株式会社,愛知県,名古屋市中村区,中島町２丁目１８番地,,23,105,4530022,,,2022-04-13,清算の結了等,,,2015-10-05,1,,,,,アマノ,0
476,2180001069552,登記記録の閉鎖等,0,2022-04-25,2022-04-14,ライアス株式会社,,株式会社,愛知県,大府市,柊山町２丁目４５８番地,,23,223,4740053,,,2022-04-14,清算の結了等,,,2015-10-05,1,,,,,ライアス,0
491,2180003020827,登記記録の閉鎖等,0,2022-04-25,2022-04-18,合同会社８Ｐａｌｍｓ,,合同会社,愛知県,一宮市,丹陽町外崎字郷裏４１８番地３メゾン・ド・ソレイユ４０２号,,23,203,4910825,,,2022-04-18,清算の結了等,,,2020-02-07,1,,,,,エイトパームス,0
494,2180005004142,登記記録の閉鎖等,0,2022-04-25,2022-04-13,愛知県集成材工業協同組合,,その他の設立登記法人,愛知県,名古屋市中区,松原２丁目１８番１０号,,23,106,4600017,,,2022-04-13,清算の結了等,,,2015-10-05,1,,,,,アイチケンシュウセイザイコウギョウ,0
520,2250002018063,登記記録の閉鎖等,0,2022-04-25,2022-04-18,有限会社崎永商店,,有限会社,山口県,岩国市,三笠町２丁目３番１６号,,35,208,7400016,,,2022-04-18,清算の結了等,,,2015-10-05,1,,,,,,0
540,2340001004212,登記記録の閉鎖等,0,2022-04-25,2022-04-22,株式会社宮秀建設,,株式会社,鹿児島県,鹿児島市,自由ヶ丘２丁目１１番１０号,,46,201,8910106,,,2022-04-22,清算の結了等,,,2015-10-05,1,,,,,ミヤヒデケンセツ,0
544,2370001031385,登記記録の閉鎖等,0,2022-04-25,2022-04-12,おら酒株式会社,,株式会社,宮城県,本吉郡南三陸町,志津川字天王山１３２番地４,,04,606,9860728,,,2022-04-12,清算の結了等,,,2015-10-05,1,,,,,オラサケ,0
559,2430005001725,登記記録の閉鎖等,0,2022-04-25,2022-04-15,医療法人社団こまつ歯科診療室,,その他の設立登記法人,北海道,札幌市西区,琴似三条１丁目１番２０号コトニ３・１ビル,,01,107,0630813,,,2022-04-15,清算の結了等,,,2015-10-05,1,,,,,コマツシカシンリョウシツ,0
563,2490005004722,登記記録の閉鎖等,0,2022-04-25,2022-04-14,日章第二生産森林組合,,その他の設立登記法人,高知県,南国市,田村乙１４８４番地,,39,204,7830092,,,2022-04-14,清算の結了等,,,2015-10-05,1,,,,,ニッショウダイニセイサン,0
566,2500001004187,登記記録の閉鎖等,0,2022-04-25,2022-04-20,八束縫製株式会社,,株式会社,愛媛県,松山市,保免西１丁目８番４０号－５０１,,38,201,7900043,,,2022-04-20,清算の結了等,,,2015-10-05,1,,,,,ヤツヅカホウセイ,0
575,3010001174426,登記記録の閉鎖等,0,2022-04-25,2022-04-14,株式会社プラチナ・ラビット,,株式会社,神奈川県,横浜市中区,弥生町４丁目３９番１号３０７,,14,104,2310058,,,2022-04-14,清算の結了等,,,2016-03-24,1,,,,,プラチナラビット,0
588,3010401111029,登記記録の閉鎖等,0,2022-04-25,2022-04-07,全日空商事ペガサスリーシング株式会社,,株式会社,東京都,港区,東新橋１丁目５番２号,,13,103,1050021,,,2022-04-07,清算の結了等,,,2015-10-05,1,,,,,ゼンニックウショウジペガサスリーシング,0
606,3011001054048,登記記録の閉鎖等,0,2022-04-25,2022-04-21,アトミズ・アジア株式会社,,株式会社,東京都,八王子市,めじろ台３丁目１１番１０号,,13,201,1930833,,,2022-04-21,清算の結了等,,,2015-10-05,1,,,,,,0
616,3011005001129,登記記録の閉鎖等,0,2022-04-25,2022-04-11,特定非営利活動法人セイラビリティジャパン,,その他の設立登記法人,東京都,渋谷区,元代々木町３０番８－４０８号,,13,113,1510062,,,2022-04-11,清算の結了等,,,2015-10-05,1,,,,,,0
660,3013102006761,登記記録の閉鎖等,0,2022-04-25,2022-04-22,有限会社＿ち＿,00059778,有限会社,東京都,青梅市,西分町３丁目１０７番地,,13,205,1980044,,,2022-04-22,清算の結了等,,,2015-10-05,1,,,,,マチダ,0
663,3013301009788,登記記録の閉鎖等,0,2022-04-25,2022-04-18,株式会社初澤工務店,,株式会社,東京都,豊島区,長崎２丁目３番２１号,,13,116,1710051,,,2022-04-18,清算の結了等,,,2015-10-05,1,,,,,ハツザワコウムテン,0
668,3020001041930,登記記録の閉鎖等,0,2022-04-25,2022-04-15,ユナイト株式会社,,株式会社,神奈川県,横浜市西区,南幸２丁目１６番２０号,,14,103,2200005,,,2022-04-15,清算の結了等,,,2015-10-05,1,,,,,ユナイト,0
684,3030001144773,登記記録の閉鎖等,0,2022-04-25,2022-04-18,株式会社ＴＫＦ,,株式会社,埼玉県,さいたま市南区,辻３丁目９－２２－１,00124579,11,108,3360026,,,2022-04-18,清算の結了等,,,2021-10-15,1,,,,,ティーケーエフ,0
709,3050002018446,登記記録の閉鎖等,0,2022-04-25,2022-04-15,有限会社坂田製作所,,有限会社,茨城県,猿島郡境町,大字長井戸１６７番地の５,,08,546,3060404,,,2022-04-15,清算の結了等,,,2015-10-05,1,,,,,サカタセイサクジョ,0
718,3070001007514,登記記録の閉鎖等,0,2022-04-25,2022-04-12,ＪＡ高崎ハム株式会社,,株式会社,群馬県,高崎市,八幡原町７２２番地５,,10,202,3700024,,,2022-04-12,合併による解散等,7010401062128,令和４年４月１日東京都港区港南二丁目１２番３３号ＪＡ全農ミートフーズ株式会社（7010401062128）に合併し解散,2015-10-05,1,,,,,ジェイエイタカサキハム,0
719,3070001026992,登記記録の閉鎖等,0,2022-04-25,2022-04-14,アール・ワイ・システム株式会社,,株式会社,神奈川県,横浜市金沢区,鳥浜町４番地３,,14,108,2360002,,,2022-04-14,合併による解散等,6020001075125,令和４年４月１日横浜市金沢区鳥浜町４番地３ユー・エム・システム株式会社（6020001075125）に合併し解散,2015-10-05,1,,,,,アールワイシステム,0
764,3122001001061,登記記録の閉鎖等,0,2022-04-25,2022-04-18,エイト株式会社,,株式会社,大阪府,東大阪市,小阪３丁目５番８－７０３号,,27,227,5770801,,,2022-04-18,清算の結了等,,,2015-10-05,1,,,,,エイト,0
773,3140001079884,登記記録の閉鎖等,0,2022-04-25,2022-04-20,ルネス・ユニテック株式会社,,株式会社,兵庫県,川西市,水明台３丁目５番地の６８,,28,217,6660116,,,2022-04-20,清算の結了等,,,2015-10-05,1,,,,,ルネスユニテック,0
791,3180001103450,登記記録の閉鎖等,0,2022-04-25,2022-04-18,システムエムズ株式会社,,株式会社,愛知県,尾張旭市,平子町東１７５番地１,,23,226,4880871,,,2022-04-18,清算の結了等,,,2015-10-05,1,,,,,システムエムズ,0
799,3180002050238,登記記録の閉鎖等,0,2022-04-25,2022-04-14,有限会社スパロッソ,,有限会社,愛知県,名古屋市瑞穂区,高田町１丁目１１番地,,23,108,4670808,,,2022-04-14,清算の結了等,,,2015-10-05,1,,,,,スパロッソ,0
806,3180303004529,登記記録の閉鎖等,0,2022-04-25,2022-04-15,合同会社すみれ,,合同会社,愛知県,新城市,一鍬田字清水野１０番地３８,,23,221,4411338,,,2022-04-15,清算の結了等,,,2020-01-24,1,,,,,スミレ,0
826,3250005005181,登記記録の閉鎖等,0,2022-04-25,2022-04-15,医療法人浅見内科クリニック,,その他の設立登記法人,山口県,周南市,大字徳山４１３３番地,,35,215,7450851,,,2022-04-15,清算の結了等,,,2015-10-05,1,,,,,アサミナイカクリニック,0
833,3290001068410,登記記録の閉鎖等,0,2022-04-25,2022-04-18,株式会社ボンサンテ,,株式会社,福岡県,福岡市早良区,高取１丁目２６番１１－２０２号,,40,137,8140011,,,2022-04-18,清算の結了等,,,2015-10-05,1,,,,,ボンサンテ,0
842,3290802000190,登記記録の閉鎖等,0,2022-04-25,2022-04-21,有限会社アイエムアイ会計センター,,有限会社,福岡県,北九州市小倉北区,大手町１０番５０号,,40,106,8030814,,,2022-04-21,清算の結了等,,,2015-10-05,1,,,,,アイエムアイカイケイセンター,0
845,3300002007150,登記記録の閉鎖等,0,2022-04-25,2022-04-20,有限会社栄進堂薬局,,有限会社,佐賀県,杵島郡白石町,大字遠江１８７番地１７,,41,425,8491105,,,2022-04-20,清算の結了等,,,2015-10-05,1,,,,,エイシンドウヤッキョク,0
854,3340002025685,登記記録の閉鎖等,0,2022-04-25,2022-04-21,有限会社松福,,有限会社,鹿児島県,肝属郡東串良町,池之原９７４番地,,46,482,8931612,,,2022-04-21,清算の結了等,,,2015-10-05,1,,,,,ショウフク,0
860,3360002010396,登記記録の閉鎖等,0,2022-04-25,2022-04-11,有限会社アズ企画,,有限会社,沖縄県,島尻郡八重瀬町,字宜次２３１番地９１,,47,362,9010416,,,2022-04-11,清算の結了等,,,2015-10-05,1,,,,,アズキカク,0
865,3370805000262,登記記録の閉鎖等,0,2022-04-25,2022-04-13,医療法人社団恒榮会中川医院,,その他の設立登記法人,宮城県,岩沼市,桜４丁目１番３号,,04,211,9892433,,,2022-04-13,清算の結了等,,,2015-10-05,1,,,,,コウエイカイナカガワイイン,0
904,4010003025188,登記記録の閉鎖等,0,2022-04-25,2022-04-07,合同会社ＮＫマネジメント,,合同会社,東京都,千代田区,丸の内３丁目１番１号東京共同会計事務所内,,13,101,1000005,,,2022-04-07,清算の結了等,,,2017-04-19,1,,,,,エヌケーマネジメント,0
909,4010401019254,登記記録の閉鎖等,0,2022-04-25,2022-04-21,野村不動産ビルディング株式会社,,株式会社,東京都,港区,芝浦１丁目１番１号,,13,103,1050023,,,2022-04-21,合併による解散等,9011101017056,令和４年４月１日東京都新宿区西新宿一丁目２６番２号野村不動産株式会社（9011101017056）に合併し解散,2015-10-05,1,,,,,ノムラフドウサンビルディング,0
911,4010401051868,登記記録の閉鎖等,0,2022-04-25,2022-04-08,株式会社ファーストイレブン,,株式会社,東京都,港区,白金２丁目５番１２号,,13,103,1080072,,,2022-04-08,清算の結了等,,,2015-10-05,1,,,,,ファーストイレブン,0
935,4010501033584,登記記録の閉鎖等,0,2022-04-25,2022-04-21,株式会社宏屋,,株式会社,東京都,台東区,浅草橋１丁目３４番３号,,13,106,1110053,,,2022-04-21,合併による解散等,5011001120392,令和４年３月３１日東京都渋谷区神宮前五丁目２３番３号株式会社Ｋ＆Ｍ（5011001120392）に合併し解散,2015-10-05,1,,,,,ヒロヤ,0
936,4010503003809,登記記録の閉鎖等,0,2022-04-25,2022-04-07,ＡＮＣＨＯＲ合同会社,,合同会社,東京都,千代田区,岩本町３丁目９番１５号,,13,101,1010032,,,2022-04-07,清算の結了等,,,2015-10-05,1,,,,,アンカー,0
947,4010801018269,登記記録の閉鎖等,0,2022-04-25,2022-04-18,東洋技建株式会社,,株式会社,東京都,大田区,羽田２丁目２１番１０号,,13,111,1440043,,,2022-04-18,清算の結了等,,,2015-10-05,1,,,,,トウヨウギケン,0
957,4011101007193,登記記録の閉鎖等,0,2022-04-25,2022-04-20,株式会社コレクトルームカトウ,,株式会社,東京都,新宿区,西新宿４丁目２５番６号,,13,104,1600023,,,2022-04-20,清算の結了等,,,2015-10-05,1,,,,,コレクトルームカトウ,0
958,4011101058880,登記記録の閉鎖等,0,2022-04-25,2022-04-21,株式会社コミック物流,,株式会社,東京都,新宿区,新宿１丁目３１番３号,,13,104,1600022,,,2022-04-21,清算の結了等,,,2015-10-05,1,,,,,,0
963,4011301014675,登記記録の閉鎖等,0,2022-04-25,2022-04-15,株式会社都市設計研究所,,株式会社,東京都,杉並区,上荻２丁目３３番１３号,,13,115,1670043,,,2022-04-15,清算の結了等,,,2015-10-05,1,,,,,トシセッケイケンキュウジョ,0
970,4011801027433,登記記録の閉鎖等,0,2022-04-25,2022-04-18,中央水産貿易株式会社,,株式会社,東京都,葛飾区,立石１丁目８番３号,,13,122,1240012,,,2022-04-18,清算の結了等,,,2015-10-05,1,,,,,チュウオウスイサンボウエキ,0
995,4021002033809,登記記録の閉鎖等,0,2022-04-25,2022-04-18,有限会社愛川新企画,,有限会社,神奈川県,愛甲郡愛川町,中津２７６９番地の１,,14,401,2430303,,,2022-04-18,清算の結了等,,,2015-10-05,1,,,,,,0
1001,4030002040293,登記記録の閉鎖等,0,2022-04-25,2022-04-18,有限会社中林塗工,,有限会社,埼玉県,幸手市,大字千塚９９６番地８,,11,240,3400161,,,2022-04-18,清算の結了等,,,2015-10-05,1,,,,,ナカバヤシトコウ,0
1011,4040001080075,登記記録の閉鎖等,0,2022-04-25,2022-04-21,株式会社鈴木,,株式会社,鹿児島県,霧島市,国分中央３丁目３９番４３号プランドール６０２,,46,218,8994332,,,2022-04-21,清算の結了等,,,2015-10-05,1,,,,,スズキ,0
1031,4070002023030,登記記録の閉鎖等,0,2022-04-25,2022-04-14,有限会社柿田ゴム,,有限会社,群馬県,桐生市,広沢町２丁目２９６５番地,,10,203,3760013,,,2022-04-14,清算の結了等,,,2015-10-05,1,,,,,カキタゴム,0
1033,4080101015919,登記記録の閉鎖等,0,2022-04-25,2022-04-21,株式会社だるま,,株式会社,静岡県,富士市,大渕２４１０番地の１,,22,210,4170000,,,2022-04-21,清算の結了等,,,2015-10-05,1,,,,,ダルマ,0
1052,4120001234779,登記記録の閉鎖等,0,2022-04-25,2022-04-19,順一堂株式会社,,株式会社,大阪府,大阪市平野区,平野元町５－５Ｋ２ビル２０２室,,27,126,5470047,,,2022-04-19,清算の結了等,,,2021-01-26,1,,,,,ジュンイチドウ,0
1057,4120002060860,登記記録の閉鎖等,0,2022-04-25,2022-04-18,有限会社ジップアンドカンパニー,,有限会社,大阪府,東大阪市,水走３丁目３番４０号,,27,227,5780921,,,2022-04-18,清算の結了等,,,2015-10-05,1,,,,,ジップアンドカンパニー,0
1063,4120102005583,登記記録の閉鎖等,0,2022-04-25,2022-04-20,有限会社デンタル堂,,有限会社,大阪府,高石市,羽衣４丁目７番５号,,27,225,5920002,,,2022-04-20,清算の結了等,,,2015-10-05,1,,,,,デンタルドウ,0
1077,4130001049284,登記記録の閉鎖等,0,2022-04-25,2022-04-18,弘和土木株式会社,,株式会社,京都府,京都市南区,上鳥羽清井町７８番,,26,107,6018174,,,2022-04-18,清算の結了等,,,2015-10-05,1,,,,,コウワドボク,0
1116,4230001011358,登記記録の閉鎖等,0,2022-04-25,2022-04-20,株式会社ジョブネット,,株式会社,富山県,高岡市,オフィスパーク５番地富山県産業高度化センター,,16,202,9391119,,,2022-04-20,清算の結了等,,,2015-10-05,1,,,,,ジョブネット,0
1128,4240002047895,登記記録の閉鎖等,0,2022-04-25,2022-04-20,有限会社梶谷工業,,有限会社,広島県,安芸郡坂町,植田２丁目１３番４号,,34,309,7314321,,,2022-04-20,清算の結了等,,,2015-10-05,1,,,,,,0
1150,4290802009198,登記記録の閉鎖等,0,2022-04-25,2022-04-21,有限会社エムアール,,有限会社,福岡県,北九州市門司区,小松町２番４２号,,40,101,8000034,,,2022-04-21,清算の結了等,,,2015-10-05,1,,,,,エムアール,0
1156,4330002016899,登記記録の閉鎖等,0,2022-04-25,2022-04-21,有限会社アメックス,,有限会社,熊本県,合志市,幾久富１７５８番地の２７５,,43,216,8611112,,,2022-04-21,清算の結了等,,,2015-10-05,1,,,,,アメックス,0
1178,4390005001117,登記記録の閉鎖等,0,2022-04-25,2022-04-15,特定非営利活動法人高齢者の心身を支える会,,その他の設立登記法人,山形県,山形市,鉄砲町２丁目８番２９号,,06,201,9902492,,,2022-04-15,清算の結了等,,,2015-10-05,1,,,,,コウレイシャノシンシンヲササエルカイ,0
1185,4430001030932,登記記録の閉鎖等,0,2022-04-25,2022-04-13,株式会社手稲住宅リフォームセンター,,株式会社,北海道,札幌市手稲区,星置二条１丁目７番１３号,,01,109,0060852,,,2022-04-13,清算の結了等,,,2015-10-05,1,,,,,テイネジュウタクリフォームセンター,0
1209,5010401032537,登記記録の閉鎖等,0,2022-04-25,2022-04-20,株式会社アドミックス,,株式会社,東京都,新宿区,四谷４丁目２１番地,,13,104,1600004,,,2022-04-20,清算の結了等,,,2015-10-05,1,,,,,アドミックス,0
1216,5010401155354,登記記録の閉鎖等,0,2022-04-25,2022-04-07,株式会社ワークブース,,株式会社,東京都,千代田区,九段南１丁目５番６号,,13,101,1020074,,,2022-04-07,清算の結了等,,,2020-09-30,1,,,,,ワークブース,0
1226,5010502018575,登記記録の閉鎖等,0,2022-04-25,2022-04-22,有限会社レザーボックス,,有限会社,東京都,台東区,浅草５丁目２１番２号,,13,106,1110032,,,2022-04-22,清算の結了等,,,2015-10-05,1,,,,,,0
1240,5011001110113,登記記録の閉鎖等,0,2022-04-25,2022-04-15,ＣＣＣＡＩＲ株式会社,,株式会社,東京都,目黒区,青葉台１丁目３０－１１,,13,110,1530042,,,2022-04-15,合併による解散等,2120001077107,令和４年４月１日大阪府枚方市岡東町１２番２号カルチュア・コンビニエンス・クラブ株式会社（2120001077107）に合併し解散,2016-03-25,1,,,,,シーシーシーエアー,0
1258,5011503003459,登記記録の閉鎖等,0,2022-04-25,2022-04-19,ウィング建物管理合同会社,,合同会社,東京都,荒川区,東尾久１丁目２６番５号,,13,118,1160012,,,2022-04-19,清算の結了等,,,2017-11-30,1,,,,,ウィングタテモノカンリ,0
1260,5011801000827,登記記録の閉鎖等,0,2022-04-25,2022-04-19,株式会社奥戸モータース,,株式会社,東京都,葛飾区,奥戸２丁目６番１４号,,13,122,1240022,,,2022-04-19,清算の結了等,,,2015-10-05,1,,,,,オクドモータース,0
1263,5011802026920,登記記録の閉鎖等,0,2022-04-25,2022-04-18,有限会社レオプランニング,,有限会社,東京都,葛飾区,堀切６丁目７番７号,,13,122,1240006,,,2022-04-18,清算の結了等,,,2015-10-05,1,,,,,,0
1290,5030001007648,登記記録の閉鎖等,0,2022-04-25,2022-04-18,星野ビジネスフオーム株式会社,,株式会社,埼玉県,さいたま市緑区,大字間宮８６９番地１,,11,109,3360965,,,2022-04-18,清算の結了等,,,2015-10-05,1,,,,,ホシノビジネスフォーム,0
1311,5060005007344,登記記録の閉鎖等,0,2022-04-25,2022-04-11,一般社団法人日本オンライン教育振興協会,,その他の設立登記法人,宮城県,仙台市青葉区,赤坂３丁目１番地の１２,,04,101,9893211,,,2022-04-11,清算の結了等,,,2015-10-05,1,,,,,ニホンオンラインキョウイクシンコウキョウカイ,0
1314,5070002032427,登記記録の閉鎖等,0,2022-04-25,2022-04-13,有限会社ワークスプラン,,有限会社,群馬県,太田市,下田島町１２４３番地１０,,10,205,3730844,,,2022-04-13,清算の結了等,,,2015-10-05,1,,,,,,0
1316,5070002035140,登記記録の閉鎖等,0,2022-04-25,2022-04-18,有限会社ボディーショップトヨノ,,有限会社,群馬県,沼田市,薄根町３３２９番地２,,10,206,3780031,,,2022-04-18,清算の結了等,,,2015-10-05,1,,,,,ボディーショップトヨノ,0
1326,5100001008523,登記記録の閉鎖等,0,2022-04-25,2022-04-20,株式会社西友興産,,株式会社,長野県,小諸市,三和２丁目１番４号,,20,208,3840017,,,2022-04-20,清算の結了等,,,2015-10-05,1,,,,,セイユウコウサン,0
1327,5100001034404,登記記録の閉鎖等,0,2022-04-25,2022-04-20,富士あずみ産業株式会社,,株式会社,長野県,安曇野市,豊科１９４６番地２,,20,220,3998205,,,2022-04-20,清算の結了等,,,2021-07-06,1,,,,,フジアズミサンギョウ,0
1358,5120901019155,登記記録の閉鎖等,0,2022-04-25,2022-04-22,ＨＩＫＡＲＩ株式会社,,株式会社,大阪府,高槻市,高槻町１９番３号,,27,207,5690803,,,2022-04-22,清算の結了等,,,2015-10-05,1,,,,,ヒカリ,0
1375,5140002004880,登記記録の閉鎖等,0,2022-04-25,2022-04-20,有限会社田村直次郎商店,,有限会社,兵庫県,神戸市西区,平野町宮前１５７番地の１,,28,111,6512265,,,2022-04-20,清算の結了等,,,2015-10-05,1,,,,,タムラナオジロウショウテン,0
1380,5150001016785,登記記録の閉鎖等,0,2022-04-25,2022-04-20,株式会社餐,,株式会社,奈良県,香芝市,関屋北５丁目６番１５号,,29,210,6390254,,,2022-04-20,清算の結了等,,,2015-10-05,1,,,,,サン,0
1385,5180001029669,登記記録の閉鎖等,0,2022-04-25,2022-04-15,株式会社エルデレンタリース,,株式会社,愛知県,名古屋市中区,栄３丁目１１番５号栄マンションＮ棟２０２号,,23,106,4600008,,,2022-04-15,清算の結了等,,,2015-10-05,1,,,,,エルデレンタリース,0
1397,5180003012409,登記記録の閉鎖等,0,2022-04-25,2022-04-18,岩倉綿布合資会社,,合資会社,愛知県,岩倉市,本町畑中２８番地,,23,228,4820043,,,2022-04-18,清算の結了等,,,2015-10-05,1,,,,,イワクラメンプ,0
1402,5180005016168,登記記録の閉鎖等,0,2022-04-25,2022-04-19,一般社団法人柏樹会,,その他の設立登記法人,愛知県,一宮市,下川田町５丁目２４番地１,,23,203,4910845,,,2022-04-19,清算の結了等,,,2015-10-05,1,,,,,ハクジュカイ,0
1410,5200003005343,登記記録の閉鎖等,0,2022-04-25,2022-04-21,セルフ商事合同会社,,合同会社,岐阜県,大垣市,熊野町１１８１番地,,21,202,5030032,,,2022-04-21,清算の結了等,,,2021-10-08,1,,,,,セルフショウジ,0
1418,5230002001316,登記記録の閉鎖等,0,2022-04-25,2022-04-19,有限会社堺谷鉄工所,,有限会社,富山県,富山市,上赤江町２丁目７番１２号,,16,201,9300816,,,2022-04-19,清算の結了等,,,2015-10-05,1,,,,,サカイダニテッコウショ,0
1425,5240003002857,登記記録の閉鎖等,0,2022-04-25,2022-04-18,合同会社ヨウザン,,合同会社,広島県,広島市安芸区,中野２丁目２４番１４号,,34,107,7390321,,,2022-04-18,清算の結了等,,,2015-10-05,1,,,,,ヨウザン,0
1477,5470002015275,登記記録の閉鎖等,0,2022-04-25,2022-04-20,有限会社平田表具店,,有限会社,香川県,坂出市,寿町２丁目３番１号,,37,203,7620043,,,2022-04-20,清算の結了等,,,2015-10-05,1,,,,,ヒラタヒョウグテン,0
1498,6010003030533,登記記録の閉鎖等,0,2022-04-25,2022-04-08,合同会社ＮＲＴグロース１６,,合同会社,東京都,中央区,日本橋２丁目７番１号,,13,102,1030027,,,2022-04-08,清算の結了等,,,2019-09-06,1,,,,,エヌアールティグロースシックスティーン,0
1509,6010401108410,登記記録の閉鎖等,0,2022-04-25,2022-04-07,全日空商事マリンノートリーシング株式会社,,株式会社,東京都,港区,東新橋１丁目５番２号,,13,103,1050021,,,2022-04-07,清算の結了等,,,2015-10-05,1,,,,,ゼンニックウショウジマリンノートリーシング,0
1513,6010501011464,登記記録の閉鎖等,0,2022-04-25,2022-04-20,株式会社肥田野四郎商店,,株式会社,東京都,台東区,竜泉１丁目２０番１８号,,13,106,1100012,,,2022-04-20,清算の結了等,,,2015-10-05,1,,,,,ヒダノシロウショウテン,0
1528,6011001098934,登記記録の閉鎖等,0,2022-04-25,2022-04-11,株式会社ｗａｒｍｔｈ,,株式会社,東京都,渋谷区,桜丘町２３番１７号,,13,113,1500031,,,2022-04-11,清算の結了等,,,2015-10-05,1,,,,,ウォームス,0
1546,6011402017352,登記記録の閉鎖等,0,2022-04-25,2022-04-20,有限会社サントオ通信,,有限会社,東京都,板橋区,大谷口北町４９番７－４０３号,,13,119,1730031,,,2022-04-20,清算の結了等,,,2015-10-05,1,,,,,サントオツウシン,0
1557,6012402000653,登記記録の閉鎖等,0,2022-04-25,2022-04-19,有限会社オリエント建機サービス,,有限会社,東京都,府中市,西原町３丁目６番地の２０,,13,206,1830046,,,2022-04-19,清算の結了等,,,2015-10-05,1,,,,,オリエントケンキサービス,0
1580,6021003007017,登記記録の閉鎖等,0,2022-04-25,2022-04-18,合同会社Ｃｏｎｎｅｃｔｉｏｎ,,合同会社,神奈川県,相模原市南区,上鶴間本町７丁目３５番１１－０１０５号,,14,153,2520318,,,2022-04-18,清算の結了等,,,2017-10-19,1,,,,,,0
1591,6030002105136,登記記録の閉鎖等,0,2022-04-25,2022-04-18,有限会社東京商事,,有限会社,埼玉県,川口市,大字源左衛門新田６１番地の４５,,11,203,3330822,,,2022-04-18,清算の結了等,,,2015-10-05,1,,,,,トウキョウショウジ,0
1610,6050001028179,登記記録の閉鎖等,0,2022-04-25,2022-04-18,株式会社三越ハウジング,,株式会社,茨城県,牛久市,南３丁目１番地６,,08,219,3001222,,,2022-04-18,清算の結了等,,,2015-10-05,1,,,,,,0
1615,6050002022668,登記記録の閉鎖等,0,2022-04-25,2022-04-07,有限会社シーティーアイ,,有限会社,茨城県,つくば市,春日４丁目１６番地５,,08,220,3050821,,,2022-04-07,清算の結了等,,,2015-10-05,1,,,,,シーティーアイ,0
1617,6050002041354,登記記録の閉鎖等,0,2022-04-25,2022-04-15,有限会社寺田織物工場,,有限会社,茨城県,常総市,本石下３５番地,,08,211,3002707,,,2022-04-15,清算の結了等,,,2015-10-05,1,,,,,テラダオリモノコウジョウ,0
1620,6060001013353,登記記録の閉鎖等,0,2022-04-25,2022-04-18,株式会社小林設計,,株式会社,栃木県,矢板市,富田１４７番地１,,09,211,3292145,,,2022-04-18,清算の結了等,,,2015-10-05,1,,,,,コバヤシセッケイ,0
1639,6080402000477,登記記録の閉鎖等,0,2022-04-25,2022-04-20,有限会社アピオ,,有限会社,静岡県,浜松市南区,鶴見町２７３１番地の５,,22,134,4350022,,,2022-04-20,清算の結了等,,,2015-10-05,1,,,,,アピオ,0
1647,6110002006202,登記記録の閉鎖等,0,2022-04-25,2022-04-21,有限会社繭,00070677,有限会社,新潟県,新潟市中央区,船場町１丁目２５１０番地１４,,15,103,9518035,,,2022-04-21,清算の結了等,,,2015-10-05,1,,,,,マユ,0
1657,6120001229307,登記記録の閉鎖等,0,2022-04-25,2022-04-19,株式会社忍,,株式会社,大阪府,大阪市西区,南堀江１丁目２５番１２－４０１号,,27,106,5500015,,,2022-04-19,清算の結了等,,,2020-05-28,1,,,,,ニン,0
1658,6120001231808,登記記録の閉鎖等,0,2022-04-25,2022-04-19,株式会社ライフマネージメント,,株式会社,大阪府,大阪市淀川区,西中島４丁目４番２５号－３１３,,27,123,5320011,,,2022-04-19,清算の結了等,,,2020-09-16,1,,,,,ライフマネージメント,0
1676,6120901022851,登記記録の閉鎖等,0,2022-04-25,2022-04-22,株式会社稲澤組,,株式会社,大阪府,豊中市,小曽根５丁目８番２９号,,27,203,5610813,,,2022-04-22,清算の結了等,,,2015-10-05,1,,,,,,0
1696,6180001058312,登記記録の閉鎖等,0,2022-04-25,2022-04-14,株式会社ＭＰＳ,,株式会社,愛知県,名古屋市中区,錦２丁目４番１１号日新火災名古屋ビル,,23,106,4600003,,,2022-04-14,清算の結了等,,,2015-10-05,1,,,,,エムピーエス,0
1697,6180001069821,登記記録の閉鎖等,0,2022-04-25,2022-04-15,株式会社私学受験研究社,,株式会社,愛知県,日進市,米野木町奥畑９２番地３,,23,230,4700111,,,2022-04-15,清算の結了等,,,2015-10-05,1,,,,,シガクジュケンケンキュウシャ,0
1702,6180001131234,登記記録の閉鎖等,0,2022-04-25,2022-04-15,空圧電動工具修理サービスセンター株式会社,,株式会社,愛知県,名古屋市南区,泉楽通２丁目２４番地,,23,112,4570852,,,2022-04-15,清算の結了等,,,2018-02-20,1,,,,,クウアツデンドウコウグシュウリサービスセンター,0
1708,6180002063030,登記記録の閉鎖等,0,2022-04-25,2022-04-15,有限会社清水,,有限会社,愛知県,日進市,岩崎台１丁目２２２０番地２０,,23,230,4700135,,,2022-04-15,清算の結了等,,,2015-10-05,1,,,,,シミズ,0
1731,6240002008136,登記記録の閉鎖等,0,2022-04-25,2022-04-20,有限会社シヤルマン,,有限会社,広島県,広島市中区,堀川町３番１７号,,34,101,7300033,,,2022-04-20,清算の結了等,,,2015-10-05,1,,,,,シヤルマン,0
1732,6240002015891,登記記録の閉鎖等,0,2022-04-25,2022-04-19,有限会社マルフク中町,,有限会社,広島県,広島市中区,中町５番４号,,34,101,7300037,,,2022-04-19,清算の結了等,,,2015-10-05,1,,,,,マルフクナカマチ,0
1758,6310002016115,登記記録の閉鎖等,0,2022-04-25,2022-04-22,有限会社松新,,有限会社,長崎県,諫早市,多良見町市布１５５６番地１,,42,204,8590403,,,2022-04-22,清算の結了等,,,2015-10-05,1,,,,,マツシン,0
1770,6370001024484,登記記録の閉鎖等,0,2022-04-25,2022-04-13,株式会社ラダー,,株式会社,宮城県,仙台市青葉区,木町６番５号,,04,101,9810932,,,2022-04-13,清算の結了等,,,2015-10-05,1,,,,,ラダー,0
1773,6370203000201,登記記録の閉鎖等,0,2022-04-25,2022-04-14,合名会社池月バイトウ商会,,合名会社,宮城県,大崎市,岩出山池月字下宮道下４番地の１,,04,215,9896405,,,2022-04-14,清算の結了等,,,2015-10-05,1,,,,,イケツキバイトウショウカイ,0
1777,6390001001102,登記記録の閉鎖等,0,2022-04-25,2022-04-15,田村設備工業株式会社,,株式会社,山形県,山形市,幸町１２番４９号,,06,201,9900038,,,2022-04-15,清算の結了等,,,2015-10-05,1,,,,,タムラセツビコウギョウ,0
1782,6420002018356,登記記録の閉鎖等,0,2022-04-25,2022-04-21,有限会社マルスエ,,有限会社,青森県,上北郡七戸町,字立野頭３番地１,,02,402,0392505,,,2022-04-21,清算の結了等,,,2015-10-05,1,,,,,マルスエ,0
1783,6420005004320,登記記録の閉鎖等,0,2022-04-25,2022-04-20,医療法人アウゲン,,その他の設立登記法人,青森県,弘前市,大字代官町１０８番地,,02,202,0368001,,,2022-04-20,清算の結了等,,,2015-10-05,1,,,,,アウゲン,0
1789,6440002008628,登記記録の閉鎖等,0,2022-04-25,2022-04-15,有限会社丸池池口商店,,有限会社,北海道,二海郡八雲町,東町５２番地,,01,346,0493102,,,2022-04-15,清算の結了等,,,2015-10-05,1,,,,,マルイケイケグチショウテン,0
1796,6500002001956,登記記録の閉鎖等,0,2022-04-25,2022-04-21,有限会社景浦商会,,有限会社,愛媛県,松山市,鷹子町３４番地２,,38,201,7900925,,,2022-04-21,清算の結了等,,,2015-10-05,1,,,,,カゲウラショウカイ,0
1824,7010403018937,登記記録の閉鎖等,0,2022-04-25,2022-04-08,ブルーエナジーブリッジファンドＫ合同会社,,合同会社,東京都,港区,元赤坂１丁目１番７号,,13,103,1070051,,,2022-04-08,清算の結了等,,,2018-07-10,1,,,,,ブルーエナジーブリッジファンドケー,0
1826,7010501002751,登記記録の閉鎖等,0,2022-04-25,2022-04-22,株式会社カラコ,,株式会社,東京都,台東区,上野３丁目１９番４号,,13,106,1100005,,,2022-04-22,清算の結了等,,,2022-01-27,1,,,,,カラコ,0
1832,7010601054560,登記記録の閉鎖等,0,2022-04-25,2022-04-08,レポ株式会社,,株式会社,東京都,港区,南青山２丁目２番１５号ウィン青山９４２,,13,103,1070062,,,2022-04-08,清算の結了等,,,2018-11-06,1,,,,,レポ,0
1834,7010702014554,登記記録の閉鎖等,0,2022-04-25,2022-04-13,有限会社幸永ビズ,,有限会社,愛知県,名古屋市昭和区,滝川町１０２番地パストラルハイム滝川５０２号,,23,107,4660826,,,2022-04-13,清算の結了等,,,2015-10-05,1,,,,,コウエイビズ,0
1848,7011003009013,登記記録の閉鎖等,0,2022-04-25,2022-04-11,ワイズウッズ・イレブン合同会社,,合同会社,東京都,渋谷区,代官山町２０番９号,,13,113,1500034,,,2022-04-11,清算の結了等,,,2018-07-25,1,,,,,ワイズウッズイレブン,0
1854,7011302001265,登記記録の閉鎖等,0,2022-04-25,2022-04-11,木造舎有限会社,,有限会社,東京都,渋谷区,上原２丁目１６番９号ボアセイズ３０２号,,13,113,1510064,,,2022-04-11,清算の結了等,,,2015-10-05,1,,,,,モクゾウシャ,0
1907,7040001005450,登記記録の閉鎖等,0,2022-04-25,2022-04-18,株式会社土気エンタープライズ,,株式会社,千葉県,千葉市緑区,あすみが丘２丁目４番地８,,12,105,2670066,,,2022-04-18,清算の結了等,,,2015-10-05,1,,,,,トケエンタープライズ,0
1917,7050002000425,登記記録の閉鎖等,0,2022-04-25,2022-04-15,有限会社岩崎薬局,,有限会社,茨城県,水戸市,泉町１丁目３番１８号,,08,201,3100026,,,2022-04-15,清算の結了等,,,2015-10-05,1,,,,,イワサキヤッキョク,0
1927,7070001030149,登記記録の閉鎖等,0,2022-04-25,2022-04-19,株式会社ＤＨＦ,,株式会社,栃木県,足利市,借宿町８７番地１,,09,202,3260826,,,2022-04-19,清算の結了等,,,2015-10-05,1,,,,,ディーエイチエフ,0
1945,7110001020293,登記記録の閉鎖等,0,2022-04-25,2022-04-18,株式会社宮沢材木店,,株式会社,新潟県,妙高市,関川町１丁目１１番８号,,15,217,9440014,,,2022-04-18,清算の結了等,,,2015-10-05,1,,,,,ミヤザワザイモクテン,0
1950,7120001034788,登記記録の閉鎖等,0,2022-04-25,2022-04-15,協和工業株式会社,,株式会社,大阪府,大阪市福島区,福島８丁目１６番１１号,,27,103,5530003,,,2022-04-15,清算の結了等,,,2015-10-05,1,,,,,キョウワコウギョウ,0
1990,7140001046625,登記記録の閉鎖等,0,2022-04-25,2022-04-20,ＹＯ株式会社,,株式会社,兵庫県,養父市,上野２９９番地,,28,222,6670131,,,2022-04-20,清算の結了等,,,2015-10-05,1,,,,,,0
1991,7140001049603,登記記録の閉鎖等,0,2022-04-25,2022-04-19,大貴工業株式会社,,株式会社,兵庫県,尼崎市,塚口本町５丁目４番３６号,,28,202,6610001,,,2022-04-19,清算の結了等,,,2015-10-05,1,,,,,ダイキコウギョウ,0
2012,7180001078813,登記記録の閉鎖等,0,2022-04-25,2022-04-15,株式会社工研,,株式会社,愛知県,尾張旭市,北原山町平池浦１９３６番地,,23,226,4880062,,,2022-04-15,清算の結了等,,,2015-10-05,1,,,,,コウケン,0
2016,7180002065406,登記記録の閉鎖等,0,2022-04-25,2022-04-15,オオタ住宅サービス有限会社,,有限会社,愛知県,春日井市,東神明町２丁目９番地の２,,23,206,4870021,,,2022-04-15,清算の結了等,,,2015-10-05,1,,,,,オオタジュウタクサービス,0
2031,7230001014531,登記記録の閉鎖等,0,2022-04-25,2022-04-20,株式会社タクト,,株式会社,富山県,富山市,針原中町９６３番地１,,16,201,9318431,,,2022-04-20,清算の結了等,,,2015-10-05,1,,,,,タクト,0
2065,7290802009641,登記記録の閉鎖等,0,2022-04-25,2022-04-22,有限会社ＴＫＣマネージメントサービス,,有限会社,福岡県,北九州市門司区,藤松３丁目７番３号,,40,101,8000047,,,2022-04-22,清算の結了等,,,2015-10-05,1,,,,,ティーケーシーマネージメントサービス,0
2067,7300002007865,登記記録の閉鎖等,0,2022-04-25,2022-04-20,有限会社スタイルの店,,有限会社,佐賀県,伊万里市,二里町八谷搦１１４３番地,,41,205,8480031,,,2022-04-20,清算の結了等,,,2015-10-05,1,,,,,スタイルノミセ,0
2106,7420002019758,登記記録の閉鎖等,0,2022-04-25,2022-04-20,有限会社野口水産,,有限会社,青森県,むつ市,大字中野沢字中田道５４番地２７４,,02,208,0350012,,,2022-04-20,清算の結了等,,,2015-10-05,1,,,,,ノグチスイサン,0
2117,7450001001235,登記記録の閉鎖等,0,2022-04-25,2022-04-22,紅葉ビル管理株式会社,,株式会社,北海道,旭川市,春光二条９丁目４番３号,,01,204,0700872,,,2022-04-22,清算の結了等,,,2015-10-05,1,,,,,コウヨウビルカンリ,0
2153,8010602016303,登記記録の閉鎖等,0,2022-04-25,2022-04-06,有限会社渡辺抜型製作所,,有限会社,東京都,墨田区,横網２丁目８番９号,,13,107,1300015,,,2022-04-06,清算の結了等,,,2015-10-05,1,,,,,ワタナベヌキガタセイサクショ,0
2162,8011001070073,登記記録の閉鎖等,0,2022-04-25,2022-04-18,株式会社ツダプラス,,株式会社,埼玉県,東松山市,大字新郷８８番地２４,,11,212,3550071,,,2022-04-18,清算の結了等,,,2015-10-05,1,,,,,ツダプラス,0
2170,8011002019961,登記記録の閉鎖等,0,2022-04-25,2022-04-11,有限会社モガインターナショナル,,有限会社,東京都,渋谷区,神宮前４丁目４番１２号,,13,113,1500001,,,2022-04-11,清算の結了等,,,2015-10-05,1,,,,,モガインターナショナル,0
2200,8020001060034,登記記録の閉鎖等,0,2022-04-25,2022-04-15,株式会社ハンド・ワインド,,株式会社,神奈川県,横浜市戸塚区,上倉田町２２２番地１横浜サウス３１０号,,14,110,2440816,,,2022-04-15,清算の結了等,,,2015-10-05,1,,,,,ハンドワインド,0
2212,8021001073876,登記記録の閉鎖等,0,2022-04-25,2022-04-18,株式会社自然食品ＹＡＭＡ,,株式会社,神奈川県,横須賀市,久里浜８丁目１９番２号,,14,201,2390831,,,2022-04-18,清算の結了等,,,2021-09-08,1,,,,,シゼンショクヒンヤマ,0
2217,8021002053935,登記記録の閉鎖等,0,2022-04-25,2022-04-18,有限会社玖弦舎,,有限会社,神奈川県,小田原市,浜町３丁目１１番２７号,,14,206,2500004,,,2022-04-18,清算の結了等,,,2015-10-05,1,,,,,,0
2229,8030002101471,登記記録の閉鎖等,0,2022-04-25,2022-04-18,有限会社川口建築構造設計室,,有限会社,埼玉県,川口市,中青木４丁目２０番５号,,11,203,3320032,,,2022-04-18,清算の結了等,,,2015-10-05,1,,,,,カワグチケンチクコウゾウセッケイシツ,0
2254,8080101001576,登記記録の閉鎖等,0,2022-04-25,2022-04-22,原町印刷株式会社,,株式会社,静岡県,沼津市,大塚５２番地の１,,22,203,4100306,,,2022-04-22,清算の結了等,,,2015-10-05,1,,,,,ハラマチインサツ,0
2267,8110002034977,登記記録の閉鎖等,0,2022-04-25,2022-04-20,有限会社わたべ商事,,有限会社,新潟県,佐渡市,両津福浦１丁目５番地１８,,15,224,9520013,,,2022-04-20,清算の結了等,,,2015-10-05,1,,,,,ワタベショウジ,0
2286,8120101030612,登記記録の閉鎖等,0,2022-04-25,2022-04-20,高栄産業株式会社,,株式会社,大阪府,松原市,一津屋６丁目３番１号,,27,217,5800003,,,2022-04-20,清算の結了等,,,2015-10-05,1,,,,,コウエイサンギョウ,0
2326,8180002072112,登記記録の閉鎖等,0,2022-04-25,2022-04-18,波多野碍子有限会社,,有限会社,愛知県,瀬戸市,萩殿町３丁目６９番地,,23,204,4890885,,,2022-04-18,清算の結了等,,,2015-10-05,1,,,,,ハタノガイシ,0
2328,8180005018434,登記記録の閉鎖等,0,2022-04-25,2022-04-07,一般社団法人レインボースカイ,,その他の設立登記法人,愛知県,名古屋市緑区,鳴海町字母呂後７５番地,,23,114,4580801,,,2022-04-07,清算の結了等,,,2019-09-18,1,,,,,レインボースカイ,0
2338,8200002008930,登記記録の閉鎖等,0,2022-04-25,2022-04-21,有限会社中日新聞古田,,有限会社,岐阜県,岐阜市,柳津町東塚５丁目２２６番地,,21,201,5016102,,,2022-04-21,清算の結了等,,,2015-10-05,1,,,,,チュウニチシンブンフルタ,0
2377,8430001075387,登記記録の閉鎖等,0,2022-04-25,2022-04-12,株式会社輝幸,,株式会社,北海道,石狩市,花川南二条１丁目２２番地９,,01,235,0613202,,,2022-04-12,清算の結了等,,,2017-11-28,1,,,,,キコウ,0
2406,9010101002282,登記記録の閉鎖等,0,2022-04-25,2022-04-21,株式会社瀧川電工社,,株式会社,東京都,八王子市,美山町２４８０番地５,,13,201,1920152,,,2022-04-21,清算の結了等,,,2015-10-05,1,,,,,タキガワデンコウシャ,0
2409,9010102010838,登記記録の閉鎖等,0,2022-04-25,2022-04-19,有限会社システムデザイン,,有限会社,東京都,八王子市,鑓水２丁目８３番地２－１００８,00050510,13,201,1920375,,,2022-04-19,清算の結了等,,,2015-10-05,1,,,,,システムデザイン,0
2411,9010401129164,登記記録の閉鎖等,0,2022-04-25,2022-04-21,株式会社ＬｉＨ,,株式会社,東京都,港区,三田３丁目２番８号,,13,103,1080073,,,2022-04-21,合併による解散等,1180001134373,令和４年４月１日東京都世田谷区池尻三丁目１９番１号ＩＯビル２階株式会社ドラゴンエンピツ（1180001134373）に合併し解散,2017-01-23,1,,,,,エルアイエイチ,0
2412,9010401156571,登記記録の閉鎖等,0,2022-04-25,2022-04-11,株式会社施設開発,,株式会社,東京都,中野区,東中野４丁目４番５号４１７号室,,13,114,1640003,,,2022-04-11,合併による解散等,8010501045964,令和４年３月３１日東京都中野区東中野四丁目４番５号４１７号室株式会社リプラン（8010501045964）に合併し解散,2020-11-20,1,,,,,シセツカイハツ,0
2417,9010402029198,登記記録の閉鎖等,0,2022-04-25,2022-04-07,有限会社Ｋ．ＩＴＯＨプランニング,,有限会社,東京都,港区,南青山４丁目２番４－６０５号,,13,103,1070062,,,2022-04-07,清算の結了等,,,2015-10-05,1,,,,,ケイイトウプランニング,0
2418,9010403020585,登記記録の閉鎖等,0,2022-04-25,2022-04-05,合同会社ＨＳ－ＡＳＳＥＴ,,合同会社,東京都,中央区,京橋２丁目５番２号Ａ・Ｍ京橋ビル８０１,,13,102,1040031,,,2022-04-05,合併による解散等,7013201007871,令和４年４月５日東京都中央区京橋二丁目５番２号Ａ・Ｍ京橋ビル８０１株式会社アップウェル（7013201007871）に合併し解散,2019-04-19,1,,,,,エイチエスアセット,0
2422,9010503005775,登記記録の閉鎖等,0,2022-04-25,2022-04-22,ロウタイド合同会社,,合同会社,東京都,台東区,上野７丁目４番９号,,13,106,1100005,,,2022-04-22,清算の結了等,,,2019-12-19,1,,,,,ロウタイド,0
2427,9010701000727,登記記録の閉鎖等,0,2022-04-25,2022-04-18,アルフ・ソフトウエア株式会社,,株式会社,東京都,品川区,東大井６丁目４番６号古谷ビル８０２号,,13,109,1400011,,,2022-04-18,清算の結了等,,,2015-10-05,1,,,,,アルフソフトウエア,0
2434,9010901046792,登記記録の閉鎖等,0,2022-04-25,2022-04-20,ＣＡＲＲＯＴ株式会社,,株式会社,東京都,世田谷区,若林３丁目１番１８号,,13,112,1540023,,,2022-04-20,合併による解散等,4010401097861,令和４年４月２０日東京都世田谷区若林三丁目１番１８号ココネ株式会社（4010401097861）に合併し解散,2020-08-17,1,,,,,キャロット,0
2460,9011201004193,登記記録の閉鎖等,0,2022-04-25,2022-04-18,西島測量株式会社,,株式会社,東京都,中野区,沼袋２丁目５番１０－２０２号,,13,114,1650025,,,2022-04-18,清算の結了等,,,2015-10-05,1,,,,,ニシジマソクリョウ,0
2466,9011601004909,登記記録の閉鎖等,0,2022-04-25,2022-04-21,豊玉リース株式会社,,株式会社,東京都,練馬区,中村南３丁目１６番１０号,,13,120,1760025,,,2022-04-21,清算の結了等,,,2015-10-05,1,,,,,トヨタマリース,0
2469,9011701009147,登記記録の閉鎖等,0,2022-04-25,2022-04-21,株式会社ユウトク,,株式会社,東京都,江戸川区,平井４丁目１０番１０号,,13,123,1320035,,,2022-04-21,清算の結了等,,,2015-10-05,1,,,,,ユウトク,0
2478,9011801035893,登記記録の閉鎖等,0,2022-04-25,2022-04-20,株式会社Ｍ．Ａコンサル,,株式会社,東京都,足立区,梅田８丁目１４番２号リライズガーデン西新井スカイレジデンス１３３３号室,,13,121,1230851,,,2022-04-20,清算の結了等,,,2019-03-20,1,,,,,エムエーコンサル,0
2514,9021001008732,登記記録の閉鎖等,0,2022-04-25,2022-04-18,フリーウェイ株式会社,,株式会社,神奈川県,茅ヶ崎市,矢畑７３３番地２－５０２号,,14,207,2530085,,,2022-04-18,清算の結了等,,,2015-10-05,1,,,,,フリーウェイ,0
2519,9030001036965,登記記録の閉鎖等,0,2022-04-25,2022-04-19,藤松運輸倉庫株式会社,,株式会社,埼玉県,三郷市,栄４丁目１８０番地,,11,237,3410043,,,2022-04-19,合併による解散等,8120001148694,令和４年４月１日大阪府東大阪市長田三丁目６番１０号丸協運輸株式会社（8120001148694）に合併し解散,2015-10-05,1,,,,,フジマツウンユソウコ,0
2522,9030001087406,登記記録の閉鎖等,0,2022-04-25,2022-04-14,株式会社ソリンク,,株式会社,埼玉県,行田市,大字荒木２１０１番地１,,11,206,3610011,,,2022-04-14,清算の結了等,,,2015-10-05,1,,,,,ソリンク,0
2543,9070001002922,登記記録の閉鎖等,0,2022-04-25,2022-04-15,株式会社星野設計,,株式会社,群馬県,前橋市,西片貝町１丁目２９８番地の１,,10,201,3710013,,,2022-04-15,清算の結了等,,,2015-10-05,1,,,,,ホシノセッケイ,0
2600,9180001018263,登記記録の閉鎖等,0,2022-04-25,2022-04-18,株式会社松浦設計,,株式会社,愛知県,名古屋市東区,徳川町２４０９番地,,23,102,4610023,,,2022-04-18,清算の結了等,,,2015-10-05,1,,,,,マツウラセッケイ,0
2637,9210002013747,登記記録の閉鎖等,0,2022-04-25,2022-04-13,有限会社小矢製作所,,有限会社,福井県,小浜市,和久里第１４号３０番地,,18,204,9170024,,,2022-04-13,清算の結了等,,,2015-10-05,1,,,,,コヤセイサクショ,0
2639,9220002005297,登記記録の閉鎖等,0,2022-04-25,2022-04-14,有限会社堀建築設計事務所,,有限会社,石川県,金沢市,松寺町丑４４番地１,,17,201,9200011,,,2022-04-14,清算の結了等,,,2015-10-05,1,,,,,ホリケンチクセッケイジムショ,0
2647,9240001050061,登記記録の閉鎖等,0,2022-04-25,2022-04-19,株式会社せんざい本舗,,株式会社,広島県,東広島市,八本松町正力１２７６番地５,,34,212,7390132,,,2022-04-19,清算の結了等,,,2016-10-18,1,,,,,センザイホンポ,0
2649,9250001007738,登記記録の閉鎖等,0,2022-04-25,2022-04-18,株式会社ヒカリコム,,株式会社,山口県,下関市,大字内日下３７９番地１,,35,201,7500253,,,2022-04-18,清算の結了等,,,2015-10-05,1,,,,,ヒカリコム,0
2656,9270002002182,登記記録の閉鎖等,0,2022-04-25,2022-04-13,有限会社丸亀や,,有限会社,鳥取県,鳥取市,吉方温泉１丁目１２４番地,,31,201,6800841,,,2022-04-13,清算の結了等,,,2015-10-05,1,,,,,,0
2660,9290001007387,登記記録の閉鎖等,0,2022-04-25,2022-04-19,株式会社玄南荘,,株式会社,福岡県,福岡市中央区,荒戸２丁目３番４１号,,40,133,8100062,,,2022-04-19,合併による解散等,1010001014427,令和４年４月１日東京都千代田区外神田二丁目１８番８号株式会社共立メンテナンス（1010001014427）に合併し解散,2015-10-05,1,,,,,ゲンナンソウ,0
2669,9290801007149,登記記録の閉鎖等,0,2022-04-25,2022-04-22,株式会社九建エムデザイン,,株式会社,福岡県,行橋市,行事５丁目３番２０－２０１号,,40,213,8240001,,,2022-04-22,清算の結了等,,,2015-10-05,1,,,,,,0
2710,9490002002284,登記記録の閉鎖等,0,2022-04-25,2022-04-18,有限会社サニー住宅,,有限会社,高知県,高知市,中宝永町４番１３号,,39,201,7800817,,,2022-04-18,清算の結了等,,,2015-10-05,1,,,,,サニージュウタク,0
