sequenceNumber,corporateNumber,process,correct,updateDate,changeDate,name,nameImageId,kind,prefectureName,cityName,streetNumber,addressImageId,prefectureCode,cityCode,postCode,addressOutside,addressOutsideImageId,closeDate,closeCause,successorCorporateNumber,changeCause,assignmentDate,latest,enName,enPrefectureName,enCityName,enAddressOutside,furigana,hihyoji
9,1010001238166,新規,0,2023-09-20,2023-09-20,ダイバーシティイノベーション株式会社,,株式会社,東京都,中央区,銀座１丁目２２－１１銀座大竹ビジデンス２Ｆ,,13,102,1040061,,,,,,,2023-09-20,1,,,,,ダイバーシティイノベーション,0
10,1010001238570,新規,0,2023-09-20,2023-09-20,ＮＩＣＥ　ＢＯＸ株式会社,,株式会社,東京都,千代田区,神田佐久間町４丁目６番地,,13,101,1010025,,,,,,,2023-09-20,1,,,,,ナイスボックス,0
11,1010001238579,新規,0,2023-09-20,2023-09-20,株式会社ＪＫ　ＣＯＲＰ　ＴＯＫＹＯ,,株式会社,東京都,千代田区,麹町１丁目６番１６号半蔵門海和ビル９階（Ｃ／ＯＪｏｏ－ｒｅａｌｅｓｔａｔｅ－ｏｆｆｉｃｅ）,,13,101,1020083,,,,,,,2023-09-20,1,,,,,ジェイケーコープトウキョウ,0
12,1010001238604,新規,0,2023-09-20,2023-09-20,Ｋ２コンサルティング株式会社,,株式会社,東京都,中央区,日本橋本町４丁目１３－６－１２０１,,13,102,1030023,,,,,,,2023-09-20,1,,,,,ケーツーコンサルティング,0
13,1010001238661,新規,0,2023-09-20,2023-09-20,株式会社ＨＹＳＯＮＩＣ　ＪＡＰＡＮ,,株式会社,東京都,千代田区,内神田１丁目３番８号,,13,101,1010047,,,,,,,2023-09-20,1,,,,,ハイソニックジャパン,0
17,1010101015820,新規,0,2023-09-20,2023-09-20,株式会社ＤＡＩＭＯＮサービス,,株式会社,東京都,八王子市,下柚木３丁目３番地５－１２０２,,13,201,1920372,,,,,,,2023-09-20,1,,,,,ダイモンサービス,0
31,1010901053846,新規,0,2023-09-20,2023-09-20,株式会社ＡＭＭ,,株式会社,東京都,世田谷区,三軒茶屋２丁目４９番６号フドウ三軒茶屋ハイツ１０５,,13,112,1540024,,,,,,,2023-09-20,1,,,,,アム,0
37,1011003017525,新規,0,2023-09-20,2023-09-20,合同会社ＮＥＸＴ　ＤＯＯＲＳ,,合同会社,東京都,渋谷区,渋谷２丁目１９－１５宮益坂ビルディング６０９,,13,113,1500002,,,,,,,2023-09-20,1,,,,,ネクストドア,0
42,1011101104423,新規,0,2023-09-20,2023-09-20,株式会社ＡＬＩＣＥ,,株式会社,東京都,新宿区,西新宿６丁目５－１新宿アイランドタワー２階,,13,104,1600023,,,,,,,2023-09-20,1,,,,,アリス,0
49,1011503005764,新規,0,2023-09-20,2023-09-20,合同会社リバイタムコンサルティング,,合同会社,東京都,荒川区,東尾久１丁目２１番３２号,,13,118,1160012,,,,,,,2023-09-20,1,,,,,リバイタムコンサルティング,0
50,1011801043061,新規,0,2023-09-20,2023-09-20,株式会社好佳,,株式会社,東京都,足立区,東伊興３丁目５番３５号,,13,121,1210801,,,,,,,2023-09-20,1,,,,,コウカ,0
52,1012401041018,新規,0,2023-09-20,2023-09-20,株式会社睦,,株式会社,東京都,武蔵野市,中町１丁目２２－４ベルジュール武蔵野中町５０１,,13,203,1800006,,,,,,,2023-09-20,1,,,,,ムツミ,0
63,1020001153546,新規,0,2023-09-20,2023-09-20,アフィアビジョン株式会社,,株式会社,神奈川県,川崎市高津区,末長１丁目３７番２３号,,14,134,2130013,,,,,,,2023-09-20,1,,,,,アフィアビジョン,0
72,1021001080193,新規,0,2023-09-20,2023-09-20,彩株式会社,,株式会社,神奈川県,相模原市中央区,水郷田名１丁目１１番１５号,,14,152,2520246,,,,,,,2023-09-20,1,,,,,イロドリ,0
73,1021001080227,新規,0,2023-09-20,2023-09-20,株式会社タナベ,,株式会社,神奈川県,平塚市,四之宮５丁目１３番２５号,,14,203,2540014,,,,,,,2023-09-20,1,,,,,タナベ,0
79,1021003013580,新規,0,2023-09-20,2023-09-20,Ｒ・Ｕ　ＩＮＴＥＲＮＡＴＩＯＮＡＬ合同会社,,合同会社,神奈川県,綾瀬市,大上３丁目６番１号サニーハイツ２０３,,14,218,2521104,,,,,,,2023-09-20,1,,,,,アールユーインターナショナル,0
88,1030001155780,新規,0,2023-09-20,2023-09-20,株式会社ディーモーション,,株式会社,埼玉県,さいたま市大宮区,桜木町４丁目２９５番地２ガーラ１４１－２０４号室,,11,103,3300854,,,,,,,2023-09-20,1,,,,,ディーモーション,0
89,1030001155905,新規,0,2023-09-20,2023-09-20,株式会社木づくり不動産,,株式会社,埼玉県,春日部市,粕壁東６丁目１９番５０号１Ｆ,,11,214,3440062,,,,,,,2023-09-20,1,,,,,キヅクリフドウサン,0
90,1030001155921,新規,0,2023-09-20,2023-09-20,株式会社シェノン,,株式会社,埼玉県,熊谷市,石原１３４４番地,,11,202,3600816,,,,,,,2023-09-20,1,,,,,シェノン,0
91,1030001155946,新規,0,2023-09-20,2023-09-20,株式会社ラ・ブーシェ,,株式会社,埼玉県,北本市,本宿１丁目１４番地２レーベンハイム北本１０７,,11,233,3640005,,,,,,,2023-09-20,1,,,,,ラブーシェ,0
92,1030001155979,新規,0,2023-09-20,2023-09-20,株式会社ｃａｌｍ,,株式会社,埼玉県,上尾市,春日２丁目２７番地４７,,11,219,3620074,,,,,,,2023-09-20,1,,,,,カーム,0
93,1030001155987,新規,0,2023-09-20,2023-09-20,ｉＲａ株式会社,,株式会社,埼玉県,越谷市,南町１丁目１７番３８号,,11,222,3430832,,,,,,,2023-09-20,1,,,,,アイラ,0
94,1030001155995,新規,0,2023-09-20,2023-09-20,株式会社ＳｋｙＨｉＲ,,株式会社,埼玉県,草加市,金明町４８７番地グランディール横山３０２号,,11,221,3400052,,,,,,,2023-09-20,1,,,,,スカイヒル,0
96,1030003022467,新規,0,2023-09-20,2023-09-20,わがはらまちづくり合同会社,,合同会社,埼玉県,所沢市,和ケ原１丁目３０３１番地の２３,,11,208,3591162,,,,,,,2023-09-20,1,,,,,ワガハラマチヅクリ,0
97,1030003022517,新規,0,2023-09-20,2023-09-20,ＴＡＭＡ合同会社,,合同会社,埼玉県,鶴ヶ島市,大字下新田６２１番地２０５ＫＩＶオフィス下新田Ｉ－Ａ号室,00131973,11,241,3502222,,,,,,,2023-09-20,1,,,,,タマ,0
102,1040001130139,新規,0,2023-09-20,2023-09-20,株式会社Ａｒｔ‐ｙｕｈａ,,株式会社,千葉県,市川市,国分１丁目８番７－２０２号（メゾン・ビー市川）,,12,203,2720834,,,,,,,2023-09-20,1,,,,,アートユハ,0
103,1040001130147,新規,0,2023-09-20,2023-09-20,株式会社ＮｏｖａＬｅａｆ,,株式会社,千葉県,四街道市,千代田５丁目８番３号,,12,228,2840015,,,,,,,2023-09-20,1,,,,,ノヴァリーフ,0
120,1100001036791,新規,0,2023-09-20,2023-09-20,株式会社エール,,株式会社,長野県,佐久市,内山２５２８番地２,,20,217,3850031,,,,,,,2023-09-20,1,,,,,エール,0
132,1120001258046,新規,0,2023-09-20,2023-09-20,吉正株式会社,,株式会社,大阪府,大阪市東成区,深江北３丁目４番２１号エクラ深江橋７０２Ａ,,27,115,5370001,,,,,,,2023-09-20,1,,,,,キチセイ,0
133,1120001258153,新規,0,2023-09-20,2023-09-20,株式会社Ｎｅｕｔｒａｌ,,株式会社,大阪府,守口市,文園町３番１７号,,27,209,5700074,,,,,,,2023-09-20,1,,,,,ニュートラル,0
137,1120003024958,新規,0,2023-09-20,2023-09-20,合同会社バクエキＳ＆Ｋ,,合同会社,大阪府,大阪市北区,梅田１丁目２番２号大阪駅前第２ビル１２－１２,,27,127,5300001,,,,,,,2023-09-20,1,,,,,バクエキエスアンドケー,0
145,1120901048083,新規,0,2023-09-20,2023-09-20,株式会社ヒグチコーポレーション,,株式会社,大阪府,吹田市,豊津町１７番５号,,27,205,5640051,,,,,,,2023-09-20,1,,,,,ヒグチコーポレーション,0
151,1130001075317,新規,0,2023-09-20,2023-09-20,三美三株式会社,,株式会社,京都府,京都市東山区,正面通本町東入茶屋町５２０番地,,26,105,6050931,,,,,,,2023-09-20,1,,,,,サンビサン,0
155,1130003008992,新規,0,2023-09-20,2023-09-20,合同会社ルモ・ラボラトリー,,合同会社,京都府,京都市中京区,西ノ京永本町１４番地５９イーグルコート二条駅フロント７０２号,,26,104,6048421,,,,,,,2023-09-20,1,,,,,ルモラボラトリー,0
160,1140001131663,新規,0,2023-09-20,2023-09-20,株式会社オートライフ上山,,株式会社,兵庫県,丹波市,春日町黒井３３８番地１,,28,223,6694141,,,,,,,2023-09-20,1,,,,,オートライフウエヤマ,0
162,1140003019568,新規,0,2023-09-20,2023-09-20,合同会社こころ,,合同会社,兵庫県,加東市,南山４丁目３番地１,,28,228,6731341,,,,,,,2023-09-20,1,,,,,ココロ,0
165,1160001025351,新規,0,2023-09-20,2023-09-20,株式会社南商事,,株式会社,滋賀県,大津市,石居３丁目４番７号,,25,201,5202272,,,,,,,2023-09-20,1,,,,,ミナミショウジ,0
178,1180003025760,新規,0,2023-09-20,2023-09-20,合同会社ＥＮＤＥＶＯＲ,,合同会社,愛知県,名古屋市熱田区,六番２丁目１－２５,,23,109,4560058,,,,,,,2023-09-20,1,,,,,エンデバー,0
184,1180301037813,新規,0,2023-09-20,2023-09-20,ケツメン株式会社,,株式会社,愛知県,豊田市,山之手４丁目３９番地－６０５,,23,211,4710833,,,,,,,2023-09-20,1,,,,,ケツメン,0
188,1200001041740,新規,0,2023-09-20,2023-09-20,Ｓｈｉｍｉｚｕ　ＨＤ株式会社,,株式会社,岐阜県,岐阜市,天池２丁目１０番１号,,21,201,5008221,,,,,,,2023-09-20,1,,,,,シミズホールディングス,0
189,1210001019471,新規,0,2023-09-20,2023-09-20,株式会社ＶＯＩＣＥ,,株式会社,福井県,福井市,西谷２丁目２８２８番地レインボーハウス１０２,,18,201,9188023,,,,,,,2023-09-20,1,,,,,ボイス,0
191,1230001020023,新規,0,2023-09-20,2023-09-20,神噐寶株式会社,,株式会社,富山県,氷見市,朝日本町１２番７号,,16,205,9350022,,,,,,,2023-09-20,1,,,,,シンキタカラ,0
194,1240001062147,新規,0,2023-09-20,2023-09-20,株式会社エンコネクト不動産,,株式会社,広島県,広島市安芸区,矢野東６丁目３０番１号,,34,107,7360083,,,,,,,2023-09-20,1,,,,,エンコネクトフドウサン,0
196,1240003006317,新規,0,2023-09-20,2023-09-20,合同会社ＵＫマネジメント,,合同会社,広島県,広島市中区,南竹屋町２番１８－３０１号,,34,101,7300049,,,,,,,2023-09-20,1,,,,,ユーケイマネジメント,0
197,1240005015654,新規,0,2023-09-20,2023-09-20,医療法人しんどう皮ふ科アレルギー科,,その他の設立登記法人,広島県,広島市南区,段原日出１丁目１５番１３号４Ｆ,,34,103,7320818,,,,,,,2023-09-20,1,,,,,シンドウヒフカアレルギーカ,0
210,1290001102930,新規,0,2023-09-20,2023-09-20,Ｂａｒｉｙｏｋａ　Ｅｎｔｅｒｔａｉｎｍｅｎｔ株式会社,,株式会社,福岡県,福岡市博多区,博多駅前４丁目１３番１８号,,40,132,8120011,,,,,,,2023-09-20,1,,,,,バリヨカエンターテイメント,0
211,1290001103078,新規,0,2023-09-20,2023-09-20,株式会社頤合,,株式会社,福岡県,福岡市博多区,東月隈４丁目１番７－５号,,40,132,8120854,,,,,,,2023-09-20,1,,,,,イワ,0
215,1320001020006,新規,0,2023-09-20,2023-09-20,Ｓ＆Ｅ株式会社,,株式会社,大分県,臼杵市,野津町大字宮原３４１５番地,,44,206,8750233,,,,,,,2023-09-20,1,,,,,エスアンドイー,0
216,1330001031274,新規,0,2023-09-20,2023-09-20,株式会社小粋,,株式会社,熊本県,熊本市北区,飛田４丁目６番９２－２０５号,,43,105,8615514,,,,,,,2023-09-20,1,,,,,コイキ,0
219,1340001025911,新規,0,2023-09-20,2023-09-20,株式会社Ｓａｎｇｏ,,株式会社,鹿児島県,鹿児島市,下荒田３丁目２７番２１号,,46,201,8900056,,,,,,,2023-09-20,1,,,,,サンゴ,0
223,1350001018567,新規,0,2023-09-20,2023-09-20,昭和商事株式会社,,株式会社,宮崎県,都城市,大字川東４５５２番地の５,,45,202,8850000,,,,,,,2023-09-20,1,,,,,ショウワショウジ,0
226,1360001032559,新規,0,2023-09-20,2023-09-20,株式会社ライトシー,,株式会社,沖縄県,沖縄市,知花６丁目２３番２２号マンション誠Ａ号,,47,211,9042143,,,,,,,2023-09-20,1,,,,,ライトシー,0
227,1360001032567,新規,0,2023-09-20,2023-09-20,Ｄｒｅａｍ　ｏｈａｎａ　ＦＡＲＭ株式会社,,株式会社,沖縄県,国頭郡東村,字有銘１１１５－３２,,47,303,9051206,,,,,,,2023-09-20,1,,,,,ドリームオハナファーム,0
228,1360001032575,新規,0,2023-09-20,2023-09-20,株式会社引越屋おくちゃん,,株式会社,沖縄県,石垣市,字真栄里３４１－８,,47,207,9070002,,,,,,,2023-09-20,1,,,,,ヒッコシヤオクチャン,0
229,1360003013301,新規,0,2023-09-20,2023-09-20,Ｋａｎａｌｏａ合同会社,,合同会社,沖縄県,浦添市,仲西３丁目１４番１３－４０６号フラッツ浦添,,47,208,9012125,,,,,,,2023-09-20,1,,,,,カナロア,0
235,1400001016383,新規,0,2023-09-20,2023-09-20,株式会社せいのＦＰ事務所,,株式会社,岩手県,盛岡市,上田字東黒石野５５番地６８,,03,201,0200102,,,,,,,2023-09-20,1,,,,,セイノエフピージムショ,0
239,1430001054356,新規,0,2023-09-20,2023-09-20,道南三菱自動車販売株式会社,,株式会社,北海道,苫小牧市,柳町４丁目６番４１号,,01,213,0530053,,,,,,,2023-09-20,1,,,,,,0
243,1430001090013,新規,0,2023-09-20,2023-09-20,株式会社ホーム・セントラル,,株式会社,北海道,札幌市東区,北二十八条東１８丁目６番１－２０４号,,01,103,0650028,,,,,,,2023-09-20,1,,,,,ホームセントラル,0
244,1430003015439,新規,0,2023-09-20,2023-09-20,合同会社ＮＥＷＳ,,合同会社,北海道,札幌市中央区,北五条西１５丁目１番５０号,,01,101,0600005,,,,,,,2023-09-20,1,,,,,ニュース,0
256,1700150117695,新規,0,2023-09-20,2023-09-20,Ｇｕａｎｇｚｈｏｕ　Ｊｕｎｔｕ　Ａｕｔｏ　Ａｃｃｅｓｓｏｒｉｅｓ　Ｃｏ．，Ｌｔｄ,,外国会社等,,,,,,,,Ｒｏｏｍ　５３０２，Ｎｏ．６３　Ｈｕａｎｇｂｉａｎ　Ｎｏｒｔｈ　Ｒｏａｄ，Ｂａｉｙｕｎ　Ｄｉｓｒｉｃｔ　Ｇｕａｎｇｚｈｏｕ　Ｇｕａｎｇｄｏｎｇ　５１０４４０　ＣＮ,,,,,,2023-09-20,1,,,,,グアンゾウジユントウオートアクセサリーズカンパニーリミテツド,0
257,1700150120245,新規,0,2023-09-20,2023-09-20,ｚｈｏｎｇｓｈａｎ　ｃａｎｘｉａｎｇ　ｄｉａｎｚｉｓｈａｎｇｗｕ　ｙｏｕｘｉａｎｇｏｎｇｓｉ,,外国会社等,,,,,,,,Ｚｈｏｎｇｘｉｎｌｕｚｈｅｎｈｕｉｋｅｊｉｙｕａｎｆｕｚｈｕａｎｇｊｉｄｉ３ｄｏｎｇ６ｌｏｕｚｈｉｓｈｉｓａｎ，Ｄａｙｏｎｇｚｈｅｎ，Ｚｈｏｎｇｓｈａｎｓｈｉ,,,,,,2023-09-20,1,,,,,ジョンシャンツァンシァンディエンズーシャンウヨウシェンゴンス,0
258,1700150120484,新規,0,2023-09-20,2023-09-20,安芸高田市甲田町火の谷土地改良区,,その他,広島県,安芸高田市,高宮町佐々部９８３番地２,,34,214,7391802,,,,,,,2023-09-20,1,,,,,アキタカタシコウダチョウヒノタニトチカイリョウク,0
259,1700150120492,新規,0,2023-09-20,2023-09-20,Ｄｏｎｇｇｕａｎｓｈｉｗｅｉｗｏｒｉｙｏｎｇｐｉｎ　ｙｏｕｘｉａｎｇｏｎｇｓｉ,,外国会社等,,,,,,,,ｔａｎｇｘｉａｚｈｅｎｓｈｉｔａｎｐｕｓｈｅｑｕｊｉａｎｇｙｕａｎｌｕ２ｘｉａｎｇ２４ｈａｏ　ｄｏｎｇｇｕａｎｓｈｉ,,,,,,2023-09-20,1,,,,,トウカンシウェイオルイヨンピンユウゲンコウシ,0
260,1700150120501,新規,0,2023-09-20,2023-09-20,ＺＨＥＪＩＡＮＧ　ＳＵＮＣＬＯＳＥ　ＴＥＣＨＮＯＬＯＧＹ　ＣＯ．，ＬＴＤ．,,外国会社等,,,,,,,,５Ｆ，Ｂｕｉｌｄｉｎｇ　６，Ｎｏ．１０，Ｇａｏｘｉｎ　Ｒｏａｄ，Ｃｈｏｕｊｉａｎｇ　Ｓｔｒｅｅｔ，Ｙｉｗｕ，Ｚｈｅｊｉａｎｇ,,,,,,2023-09-20,1,,,,,セッコウサンクロウズテクノロジーカンパニーリミテッド,0
263,2010001238578,新規,0,2023-09-20,2023-09-20,株式会社グランシェフ,,株式会社,東京都,千代田区,神田須田町１丁目２４番地２２,,13,101,1010041,,,,,,,2023-09-20,1,,,,,グランシェフ,0
264,2010001238603,新規,0,2023-09-20,2023-09-20,むちのち株式会社,,株式会社,東京都,千代田区,神田猿楽町２丁目８番１１号,,13,101,1010064,,,,,,,2023-09-20,1,,,,,ムチノチ,0
265,2010001238611,新規,0,2023-09-20,2023-09-20,株式会社ベジョータ,,株式会社,東京都,中央区,日本橋人形町２丁目１０番地１１号Ｂ１,,13,102,1030013,,,,,,,2023-09-20,1,,,,,ベジョータ,0
277,2010401177079,新規,0,2023-09-20,2023-09-20,Ｂｒｉｄａｌ　Ｓｎａｐ株式会社,,株式会社,東京都,港区,赤坂８丁目８－７アルボレスビル３Ｆ,,13,103,1070052,,,,,,,2023-09-20,1,,,,,ブライダルスナップ,0
278,2010401177104,新規,0,2023-09-20,2023-09-20,株式会社Ｑｕｉｍｉｃａ,,株式会社,東京都,港区,北青山１丁目３番１号アールキューブ青山３階,,13,103,1070061,,,,,,,2023-09-20,1,,,,,ケミカ,0
279,2010401177260,新規,0,2023-09-20,2023-09-20,エムケイドットエックス株式会社,,株式会社,東京都,港区,東新橋１丁目２番５号,,13,103,1050021,,,,,,,2023-09-20,1,,,,,エムケイドットエックス,0
280,2010401177269,新規,0,2023-09-20,2023-09-20,ＲＱＲジャポン株式会社,,株式会社,東京都,港区,港南２丁目１６番１号品川イーストワンタワー４階,,13,103,1080075,,,,,,,2023-09-20,1,,,,,アールキューアールジャポン,0
281,2010403030839,新規,0,2023-09-20,2023-09-20,合同会社植原スタジオ,,合同会社,東京都,港区,北青山１丁目３番１号アールキューブ青山３階,,13,103,1070061,,,,,,,2023-09-20,1,,,,,ウエハラスタジオ,0
282,2010403030913,新規,0,2023-09-20,2023-09-20,合同会社Ｏｒｏ　Ｂｕｌｌ,,合同会社,東京都,港区,南青山２丁目２－１５,,13,103,1070062,,,,,,,2023-09-20,1,,,,,オーロブル,0
283,2010403030921,新規,0,2023-09-20,2023-09-20,合同会社ａｆｔｅｒＦＩＴ０５,,合同会社,東京都,港区,芝大門２丁目４番６号豊国ビル,,13,103,1050012,,,,,,,2023-09-20,1,,,,,アフターフィットゼロゴ,0
285,2010405022470,新規,0,2023-09-20,2023-09-20,一般財団法人Ｆｕｔｕｒｅ　Ｆｏｕｎｄａｔｉｏｎ,,その他の設立登記法人,東京都,港区,南青山５丁目１７番２号,,13,103,1070062,,,,,,,2023-09-20,1,,,,,フューチャーファンデーション,0
289,2010601063806,新規,0,2023-09-20,2023-09-20,株式会社ＳＤＬ,,株式会社,東京都,江東区,扇橋２丁目１７番５号秋元ビル３階,,13,108,1350011,,,,,,,2023-09-20,1,,,,,エスディーエル,0
293,2010701044870,新規,0,2023-09-20,2023-09-20,真田株式会社,,株式会社,東京都,品川区,南大井６丁目２７番２０号,,13,109,1400013,,,,,,,2023-09-20,1,,,,,サナダ,0
294,2010801034350,新規,0,2023-09-20,2023-09-20,株式会社ＪＥＴ,,株式会社,東京都,大田区,南雪谷２丁目９番８号カーサコルテ２０１,,13,111,1450066,,,,,,,2023-09-20,1,,,,,ジェット,0
301,2011001156968,新規,0,2023-09-20,2023-09-20,株式会社ＰｅｏｐｌｅＸ,,株式会社,東京都,渋谷区,恵比寿南３丁目１２番８－１０６号,,13,113,1500022,,,,,,,2023-09-20,1,,,,,ピープルエックス,0
302,2011001157000,新規,0,2023-09-20,2023-09-20,株式会社サイドクレジット,,株式会社,東京都,渋谷区,渋谷１丁目３番９号７階,,13,113,1500002,,,,,,,2023-09-20,1,,,,,サイドクレジット,0
303,2011001157017,新規,0,2023-09-20,2023-09-20,株式会社ビューティーエレガンス,,株式会社,東京都,渋谷区,広尾１丁目１３番５号東急セットアップレジデンス恵比寿８０６,,13,113,1500012,,,,,,,2023-09-20,1,,,,,ビューティーエレガンス,0
304,2011001157090,新規,0,2023-09-20,2023-09-20,株式会社Ｆｏｏｐｐｙ,,株式会社,東京都,渋谷区,南平台町４番８号南平台アジアマンション２０２,,13,113,1500036,,,,,,,2023-09-20,1,,,,,フーピー,0
310,2011501029789,新規,0,2023-09-20,2023-09-20,東京バルジョッティ株式会社,,株式会社,東京都,荒川区,荒川１丁目５１番６号,,13,118,1160002,,,,,,,2023-09-20,1,,,,,トウキョウバルジョッティ,0
315,2012403006182,新規,0,2023-09-20,2023-09-20,コウセイ合同会社,,合同会社,東京都,武蔵野市,緑町１丁目４番１０号－４０１室,,13,203,1800012,,,,,,,2023-09-20,1,,,,,コウセイ,0
316,2013101003901,新規,0,2023-09-20,2023-09-20,株式会社スリーエスファクトリー,,株式会社,東京都,青梅市,根ヶ布２丁目１３７０番地２７,,13,205,1980004,,,,,,,2023-09-20,1,,,,,スリーエスファクトリー,0
321,2013305003516,新規,0,2023-09-20,2023-09-20,行政書士法人久代事務所,,その他の設立登記法人,東京都,豊島区,目白２丁目２番１号,,13,116,1710031,,,,,,,2023-09-20,1,,,,,キュウダイジムショ,0
330,2020003024579,新規,0,2023-09-20,2023-09-20,Ｄ＆Ｄ合同会社,,合同会社,神奈川県,横浜市港北区,日吉７丁目１２番３号サンラックマンション２０３,,14,109,2230061,,,,,,,2023-09-20,1,,,,,ディーアンドディー,0
336,2021001080218,新規,0,2023-09-20,2023-09-20,株式会社デジタル旅館計画,,株式会社,神奈川県,秦野市,下大槻７２８番地の６コーポ関口２０１号,,14,211,2570004,,,,,,,2023-09-20,1,,,,,デジタルリョカンケイカク,0
346,2030001155920,新規,0,2023-09-20,2023-09-20,株式会社ＨＲＤソリューション,,株式会社,埼玉県,さいたま市南区,四谷１丁目６番１９号,,11,108,3360032,,,,,,,2023-09-20,1,,,,,エイチアールディーソリューション,0
347,2030001155961,新規,0,2023-09-20,2023-09-20,株式会社サック,,株式会社,埼玉県,三郷市,戸ケ崎４丁目１７０番地プティヴィラージュＩＶ－１０１,00131970,11,237,3410044,,,,,,,2023-09-20,1,,,,,サック,0
348,2030001155978,新規,0,2023-09-20,2023-09-20,株式会社ソーラーリンクネット,,株式会社,埼玉県,新座市,野火止８丁目１５番１７号,,11,230,3520011,,,,,,,2023-09-20,1,,,,,ソーラーリンクネット,0
354,2030003022458,新規,0,2023-09-20,2023-09-20,山口のホライズン合同会社,,合同会社,埼玉県,朝霞市,宮戸２丁目１－２１カローレ３０１,,11,227,3510031,,,,,,,2023-09-20,1,,,,,ヤマグチノホライズン,0
355,2030003022516,新規,0,2023-09-20,2023-09-20,合同会社あらい屋,,合同会社,埼玉県,児玉郡上里町,大字神保原町８４４番地１,,11,385,3690305,,,,,,,2023-09-20,1,,,,,アライヤ,0
365,2040001130146,新規,0,2023-09-20,2023-09-20,株式会社丸仲急送,,株式会社,千葉県,市川市,北方町４丁目１７０６番地１６,,12,203,2720811,,,,,,,2023-09-20,1,,,,,マルナカキュウソウ,0
371,2040005022117,新規,0,2023-09-20,2023-09-20,土地家屋調査士法人森東,,その他の設立登記法人,千葉県,船橋市,西船４丁目１８番１号４０１,,12,204,2730031,,,,,,,2023-09-20,1,,,,,モリヒガシ,0
374,2050001053503,新規,0,2023-09-20,2023-09-20,中溶プラント株式会社,,株式会社,茨城県,那珂市,菅谷２４５３番地２１,,08,226,3110105,,,,,,,2023-09-20,1,,,,,チュウヨウプラント,0
379,2070001040887,新規,0,2023-09-20,2023-09-20,株式会社Ｏ　ＳＴＲＡＴＥＧＩＥＳ,,株式会社,群馬県,高崎市,石原町３４９３番地１６,,10,202,3700864,,,,,,,2023-09-20,1,,,,,オーストラテジーズ,0
392,2100001036790,新規,0,2023-09-20,2023-09-20,株式会社ランドプランニング,,株式会社,長野県,長野市,大字南長野南石堂町１９７１番地Ａワンシティ１００７,,20,201,3800824,,,,,,,2023-09-20,1,,,,,ランドプランニング,0
410,2120001258144,新規,0,2023-09-20,2023-09-20,株式会社ｎａｇｕ,,株式会社,大阪府,枚方市,東香里南町４６番１０号,,27,210,5730074,,,,,,,2023-09-20,1,,,,,ナグ,0
420,2120101068229,新規,0,2023-09-20,2023-09-20,株式会社改生,,株式会社,大阪府,堺市堺区,車之町西３丁１－７,,27,141,5900940,,,,,,,2023-09-20,1,,,,,カイセイ,0
434,2130001075233,新規,0,2023-09-20,2023-09-20,株式会社三共システム,,株式会社,京都府,京都市西京区,大枝西新林町５丁目２２番１０号,,26,111,6101141,,,,,,,2023-09-20,1,,,,,サンキョウシステム,0
443,2140001131670,新規,0,2023-09-20,2023-09-20,猫目商事株式会社,,株式会社,兵庫県,神戸市長田区,丸山町４丁目８番９号,,28,106,6530875,,,,,,,2023-09-20,1,,,,,ネコメショウジ,0
446,2150003003066,新規,0,2023-09-20,2023-09-20,合同会社池技研,,合同会社,奈良県,北葛城郡王寺町,藤井３丁目３４８番地の１,,29,425,6360014,,,,,,,2023-09-20,1,,,,,イケギケン,0
454,2180001158074,新規,0,2023-09-20,2023-09-20,株式会社ｖｅｒｄａｎｔ　ｐｉｎｅ　ｐａｒｋ,,株式会社,愛知県,尾張旭市,印場元町５丁目３番地１５,,23,226,4880840,,,,,,,2023-09-20,1,,,,,ヴァーダントパインパーク,0
455,2180001158082,新規,0,2023-09-20,2023-09-20,株式会社黎明,,株式会社,愛知県,一宮市,千秋町加茂字上向３番地,,23,203,4910801,,,,,,,2023-09-20,1,,,,,レイメイ,0
465,2190001030744,新規,0,2023-09-20,2023-09-20,株式会社ストリームプラス,,株式会社,三重県,津市,河芸町高佐１０４７番地,,24,201,5100315,,,,,,,2023-09-20,1,,,,,ストリームプラス,0
485,2290001103052,新規,0,2023-09-20,2023-09-20,株式会社天神,,株式会社,福岡県,福岡市中央区,大手門３丁目７番１１号,,40,133,8100074,,,,,,,2023-09-20,1,,,,,テンジン,0
486,2290001103093,新規,0,2023-09-20,2023-09-20,あっちゃんの里株式会社,,株式会社,福岡県,福岡市西区,福重３丁目３６番３５号,,40,135,8190022,,,,,,,2023-09-20,1,,,,,アッチャンノサト,0
492,2290803004506,新規,0,2023-09-20,2023-09-20,ＡＰＣ合同会社,,合同会社,福岡県,北九州市小倉北区,三郎丸２丁目２番１５号,,40,106,8020061,,,,,,,2023-09-20,1,,,,,エーピーシー,0
497,2330003009978,新規,0,2023-09-20,2023-09-20,合同会社喜多いきいき,,合同会社,熊本県,阿蘇郡南阿蘇村,大字河陽３４２７番地,,43,433,8691404,,,,,,,2023-09-20,1,,,,,キタイキイキ,0
498,2340001025902,新規,0,2023-09-20,2023-09-20,なんさつ環境テクノロジー株式会社,,株式会社,鹿児島県,南さつま市,加世田武田１４８９２番地,,46,220,8970002,,,,,,,2023-09-20,1,,,,,ナンサツカンキョウテクノロジー,0
500,2350001018574,新規,0,2023-09-20,2023-09-20,株式会社Ｗｈｉｔｅ　ｌａｂｅｌ,,株式会社,宮崎県,児湯郡川南町,大字川南２２９７９番地２,,45,405,8891301,,,,,,,2023-09-20,1,,,,,ホワイトレーベル,0
501,2360001032558,新規,0,2023-09-20,2023-09-20,株式会社Ｂａｚａａｒ　Ｂｌｕｅ　Ｉｓｌａｎｄ,,株式会社,沖縄県,那覇市,字小禄１３６番地,,47,201,9010152,,,,,,,2023-09-20,1,,,,,バザールブルーアイランド,0
502,2360001032566,新規,0,2023-09-20,2023-09-20,ＳＳＩＦ沖縄株式会社,,株式会社,沖縄県,国頭郡東村,字有銘１１１５－３２,,47,303,9051206,,,,,,,2023-09-20,1,,,,,エスエスアイエフオキナワ,0
503,2360001032574,新規,0,2023-09-20,2023-09-20,マイナスシコーズ株式会社,,株式会社,沖縄県,沖縄市,安慶田１丁目２４番１２号,,47,211,9040012,,,,,,,2023-09-20,1,,,,,マイナスシコーズ,0
509,2370001050427,新規,0,2023-09-20,2023-09-20,株式会社杏心建設,,株式会社,宮城県,仙台市宮城野区,鶴ケ谷２丁目５番地－１０号棟１０３,,04,102,9830824,,,,,,,2023-09-20,1,,,,,キョウシンケンセツ,0
510,2370005010690,新規,0,2023-09-20,2023-09-20,一般社団法人女川フィルムコミッション,,その他の設立登記法人,宮城県,牡鹿郡女川町,黄金３番地１２,,04,581,9862246,,,,,,,2023-09-20,1,,,,,オナガワフィルムコミッション,0
513,2390001017374,新規,0,2023-09-20,2023-09-20,株式会社アイデアル,,株式会社,山形県,南陽市,若狭郷屋５２９－１,,06,213,9992262,,,,,,,2023-09-20,1,,,,,アイデアル,0
516,2430001089995,新規,0,2023-09-20,2023-09-20,株式会社ＭＩＬＫ　ＤＯ　ｄｏｒｅ　ｉｋｕ,,株式会社,北海道,札幌市中央区,南五条西９丁目１０１６－２３ＳＡビル,,01,101,0640805,,,,,,,2023-09-20,1,,,,,ミルクドドレイク,0
520,2430003015454,新規,0,2023-09-20,2023-09-20,合同会社ディーエイト,,合同会社,北海道,札幌市東区,東苗穂十三条２丁目４番１５号,,01,103,0070813,,,,,,,2023-09-20,1,,,,,ディーエイト,0
521,2440005002763,新規,0,2023-09-20,2023-09-20,医療法人社団Ｂｒｉｇｈｔ　Ｓｍｉｌｅ,,その他の設立登記法人,北海道,函館市,昭和１丁目２９番７号昭和タウンプラザＢ棟２Ｆ,,01,202,0410812,,,,,,,2023-09-20,1,,,,,ブライトスマイル,0
527,2470005006530,新規,0,2023-09-20,2023-09-20,一般財団法人たかまつ讃岐てらす財団,,その他の設立登記法人,香川県,高松市,勅使町２１２番地１,,37,201,7618058,,,,,,,2023-09-20,1,,,,,タカマツサヌキテラスザイダン,0
530,2700150118552,新規,0,2023-09-20,2023-09-20,Ｄａｖａｌｉ　Ｌｅａｓｉｎｇ　Ａ　Ｌｉｍｉｔｅｄ,,外国会社等,,,,,,,,５ｔｈ　Ｆｌｏｏｒ，Ｔｈｅ　Ｅｘｃｈａｎｇｅ，Ｇｅｏｒｇｅ’ｓ　Ｄｏｃｋ，ＩＦＳＣ，Ｄｕｂｌｉｎ１，Ｉｒｅｌａｎｄ,,,,,,2023-09-20,1,,,,,ダバリリーシングエーリミテツド,0
531,2700150120483,新規,0,2023-09-20,2023-09-20,安芸高田市高宮町すだれ土地改良区,,その他,広島県,安芸高田市,高宮町佐々部９８３番地２,,34,214,7391802,,,,,,,2023-09-20,1,,,,,アキタカタシタカミヤチョウスダレトチカイリョウク,0
532,2700150120491,新規,0,2023-09-20,2023-09-20,ｓｈｅｎｚｈｅｎｓｈｉｂｅｉｋｕｅｒｋｅｊｉ　ｙｏｕｘｉａｎｇｏｎｇｓｉ,,外国会社等,,,,,,,,２８０６Ｄ４８　Ｆｏｒｅｉｇｎ　Ｔｒａｄｅ　Ｇｒｏｕｐ　Ｂｕｉｌｄｉｎｇ　Ｎｏ．２３９　Ｚｈｏｎｇｘｉｎｇ　Ｒｏａｄ　Ｃｈｅｎｇｄｏｎｇ　Ｃｏｍｍｕｎｉｔｙ　Ｄｏｎｇｍｅｎ　Ｓｔｒｅｅｔ　Ｌｕｏｈｕ　Ｄｉｓｔｒｉｃｔ　Ｓｈｅｎｚｈｅｎ,,,,,,2023-09-20,1,,,,,シンセンシベイクエカギユウゲンコウシ,0
533,2700150120500,新規,0,2023-09-20,2023-09-20,Ｓｈｅｎｚｈｅｎ　Ｏｓｔｅｎｔ　Ｔｅｃｈｎｏｌｏｇｙ　Ｃｏ．，Ｌｔｄ．,,外国会社等,,,,,,,,Ｒｏｏｍ４０１　Ｂｕｉｌｄｉｎｇ５４３　Ｂａｇｕａｌｉｎｇ　Ｉｎｄｕｓｔｒｉａｌ　Ｚｏｎｅ　Ｂａｇｕａ　Ｎｏ．２　Ｒｏａｄ　ｙｕａｎｌｉｎｇｊｉｅｄａｏ　ｈｕａｌｉｎｓｈｅｑｕ　Ｆｕｔｉａｎ　Ｄｉｓｔｒｉｃｔ　Ｓｈｅｎｚｈｅｎ,,,,,,2023-09-20,1,,,,,シンセンオステンテクノロジーカンパニーリミテッド,0
534,2700150120509,新規,0,2023-09-20,2023-09-20,ＺＡＩＤ　ＭＯＴＯＲＳ,,外国会社等,千葉県,長生郡長生村,水口１２４２番地６オフィス１号,,12,423,2994335,スリランカ民主社会主義共和国、キャンディ、バトゥゴダ、カサワッタ、４２０－２,,,,,,2023-09-20,1,,,,,ザイドモータース,0
542,3010001238544,新規,0,2023-09-20,2023-09-20,株式会社グローバルスマートファシリティーズ,,株式会社,東京都,中央区,日本橋浜町３丁目１６番７号,,13,102,1030007,,,,,,,2023-09-20,1,,,,,グローバルスマートファシリティーズ,0
543,3010001238602,新規,0,2023-09-20,2023-09-20,株式会社天花,,株式会社,東京都,中央区,築地３丁目１２－９ドルフ２１スミカ２０２,,13,102,1040045,,,,,,,2023-09-20,1,,,,,アマミ,0
545,3010003041698,新規,0,2023-09-20,2023-09-20,合同会社アンテヴァシン,,合同会社,東京都,中央区,銀座１丁目２２番１１号２階,,13,102,1040061,,,,,,,2023-09-20,1,,,,,アンテヴァシン,0
546,3010003041707,新規,0,2023-09-20,2023-09-20,合同会社サバティカルファーム,,合同会社,東京都,文京区,千駄木４丁目７番１５－８０６号,,13,105,1130022,,,,,,,2023-09-20,1,,,,,サバティカルファーム,0
551,3010101015819,新規,0,2023-09-20,2023-09-20,株式会社Ｅｎｒｉｃｈ　Ｇａｒｄｅｎ,,株式会社,東京都,八王子市,楢原町２６７番地４,,13,201,1930803,,,,,,,2023-09-20,1,,,,,エンリッチガーデン,0
552,3010103002204,新規,0,2023-09-20,2023-09-20,合同会社はぴねすの丘,,合同会社,東京都,八王子市,堀之内４６９番地２グランレグナス７０７号,,13,201,1920355,,,,,,,2023-09-20,1,,,,,ハピネスノオカ,0
559,3010503007166,新規,0,2023-09-20,2023-09-20,合同会社若狭企画,,合同会社,東京都,台東区,浅草橋１丁目１２番地４号東履東峰会館１階,,13,106,1110053,,,,,,,2023-09-20,1,,,,,ワカサキカク,0
560,3010701044861,新規,0,2023-09-20,2023-09-20,株式会社ｉｄｅａｔ　ｒｅａｌ　ｅｓｔａｔｅ,,株式会社,東京都,品川区,東品川４丁目１２番６号,,13,109,1400002,,,,,,,2023-09-20,1,,,,,アイディートリアルエステート,0
566,3010901053828,新規,0,2023-09-20,2023-09-20,株式会社フローカンパニー,,株式会社,東京都,世田谷区,深沢２丁目１４番３号,,13,112,1580081,,,,,,,2023-09-20,1,,,,,フローカンパニー,0
567,3010901053860,新規,0,2023-09-20,2023-09-20,ＡＩ株式会社,,株式会社,東京都,世田谷区,桜新町２丁目２５番１２－７０２号,,13,112,1540015,,,,,,,2023-09-20,1,,,,,エーアイ,0
576,3011001156983,新規,0,2023-09-20,2023-09-20,日本セラノスティクス株式会社,,株式会社,東京都,渋谷区,富ヶ谷１丁目１４番１４号３階,,13,113,1510063,,,,,,,2023-09-20,1,,,,,ニホンセラノスティクス,0
577,3011001157040,新規,0,2023-09-20,2023-09-20,株式会社レフロジック,,株式会社,東京都,目黒区,下目黒６丁目３番５号,,13,110,1530064,,,,,,,2023-09-20,1,,,,,レフロジック,0
580,3011101104438,新規,0,2023-09-20,2023-09-20,Ｏｌｅｃ　Ｓｏｌｕｔｉｏｎｓ株式会社,,株式会社,東京都,新宿区,東榎町１０－３市川製本所ビル６階,,13,104,1620807,,,,,,,2023-09-20,1,,,,,オーレックソリューションズ,0
585,3011301028998,新規,0,2023-09-20,2023-09-20,株式会社ＴＥＮＴＳＥＮＴ,,株式会社,東京都,杉並区,南荻窪３丁目３０番１３号パーク・ハイム南荻窪三丁目２０３,,13,115,1670052,,,,,,,2023-09-20,1,,,,,テントセント,0
587,3011501029788,新規,0,2023-09-20,2023-09-20,株式会社Ｒ‐ＯＮＥモータース,,株式会社,東京都,北区,豊島３丁目１７－１６－５０１,,13,117,1140003,,,,,,,2023-09-20,1,,,,,アールワンモータース,0
588,3011501029796,新規,0,2023-09-20,2023-09-20,株式会社ＴＲＮＯＶＲ,,株式会社,東京都,北区,赤羽１丁目７番９号赤羽第一葉山ビル４Ｆ,,13,117,1150045,,,,,,,2023-09-20,1,,,,,ターンオーバー,0
590,3011603004061,新規,0,2023-09-20,2023-09-20,最高祝福ＪＡＰＡＮ　ＧＲＯＵＰ合同会社,,合同会社,東京都,練馬区,富士見台２丁目１７番１５号富士ビル２Ｆ,,13,120,1770034,,,,,,,2023-09-20,1,,,,,サイコウシュクフクジャパングループ,0
593,3011705001799,新規,0,2023-09-20,2023-09-20,一般社団法人メディカルケアコネクト,,その他の設立登記法人,東京都,江戸川区,松島３丁目４５－９大栄ビル１Ｆ,,13,123,1320031,,,,,,,2023-09-20,1,,,,,メディカルケアコネクト,0
600,3012703002797,新規,0,2023-09-20,2023-09-20,合同会社トップフィールド,,合同会社,東京都,東村山市,栄町２丁目６番地６Ｎ－ｓｔａｇｅＫｕｍｅｇａｗａ１３０６,,13,213,1890013,,,,,,,2023-09-20,1,,,,,トップフィールド,0
611,3020001153569,新規,0,2023-09-20,2023-09-20,株式会社岩本商事,,株式会社,神奈川県,横浜市鶴見区,北寺尾５丁目５番９－２０１号,,14,101,2300074,,,,,,,2023-09-20,1,,,,,イワモトショウジ,0
614,3020003024603,新規,0,2023-09-20,2023-09-20,合同会社ｃｏｌｏｒ,,合同会社,神奈川県,横浜市港北区,下田町６丁目３０番１０－１号,,14,109,2230064,,,,,,,2023-09-20,1,,,,,カラー,0
615,3020003024628,新規,0,2023-09-20,2023-09-20,合同会社優,,合同会社,神奈川県,横浜市旭区,市沢町６５６番地５,,14,112,2410014,,,,,,,2023-09-20,1,,,,,ユウ,0
619,3021001080150,新規,0,2023-09-20,2023-09-20,株式会社ｕｎｋｎｏｗｎ,,株式会社,神奈川県,鎌倉市,大船１丁目２３番６号,,14,204,2470056,,,,,,,2023-09-20,1,,,,,アンノーン,0
620,3021001080217,新規,0,2023-09-20,2023-09-20,株式会社ＬＩＢＥＲＯ‐Ｓ,,株式会社,神奈川県,藤沢市,善行坂２丁目１１番５７号,,14,205,2510876,,,,,,,2023-09-20,1,,,,,リベロエス,0
621,3021001080225,新規,0,2023-09-20,2023-09-20,株式会社ユウキ,,株式会社,神奈川県,横須賀市,武２丁目２番１１－３０２号,,14,201,2380313,,,,,,,2023-09-20,1,,,,,ユウキ,0
625,3030001155779,新規,0,2023-09-20,2023-09-20,株式会社ホビット,,株式会社,埼玉県,川越市,東田町９番地２２プラザ・アンシャンテ３Ｄ号室,,11,201,3501114,,,,,,,2023-09-20,1,,,,,ホビット,0
626,3030001155911,新規,0,2023-09-20,2023-09-20,株式会社ムクライフ,,株式会社,埼玉県,さいたま市西区,大字佐知川８８３番地８,,11,101,3310064,,,,,,,2023-09-20,1,,,,,ムクライフ,0
627,3030001155969,新規,0,2023-09-20,2023-09-20,株式会社ＤｏＮ,,株式会社,埼玉県,坂戸市,大字新堀３１５番地１,,11,239,3500262,,,,,,,2023-09-20,1,,,,,ドン,0
628,3030001155977,新規,0,2023-09-20,2023-09-20,株式会社関東建設ホールディングス,,株式会社,埼玉県,川越市,大字上寺山１７１番地１,,11,201,3500826,,,,,,,2023-09-20,1,,,,,カントウケンセツホールディングス,0
629,3030001156109,新規,0,2023-09-20,2023-09-20,株式会社宝眞興業,,株式会社,埼玉県,上尾市,大字小泉３７８番地３９,,11,219,3620063,,,,,,,2023-09-20,1,,,,,ホウシンコウギョウ,0
633,3030003022465,新規,0,2023-09-20,2023-09-20,合同会社インフィレージ,,合同会社,埼玉県,蕨市,塚越４丁目３番７号,,11,223,3350002,,,,,,,2023-09-20,1,,,,,インフィレージ,0
634,3030003022507,新規,0,2023-09-20,2023-09-20,合同会社Ｌｉｇｈｔ　Ｓｅｅｋ,,合同会社,埼玉県,越谷市,レイクタウン８丁目１番地Ｇ－１０２,,11,222,3430828,,,,,,,2023-09-20,1,,,,,ライトシーク,0
635,3030005021399,新規,0,2023-09-20,2023-09-20,一般社団法人警備カレッジスクール,,その他の設立登記法人,埼玉県,川口市,西青木２丁目３番１１号,,11,203,3320035,,,,,,,2023-09-20,1,,,,,ケイビカレッジスクール,0
648,3040005022124,新規,0,2023-09-20,2023-09-20,一般社団法人成田イスラーム文化センター,,その他の設立登記法人,千葉県,香取郡多古町,南並木６７１番地,,12,347,2892255,,,,,,,2023-09-20,1,,,,,ナリタイスラームブンカセンター,0
650,3050001053436,新規,0,2023-09-20,2023-09-20,株式会社プラス,,株式会社,茨城県,つくばみらい市,富士見ヶ丘１丁目１６番地４,,08,235,3002417,,,,,,,2023-09-20,1,,,,,プラス,0
654,3060001036365,新規,0,2023-09-20,2023-09-20,株式会社０１,,株式会社,栃木県,芳賀郡芳賀町,大字西高橋１４４０,,09,345,3213315,,,,,,,2023-09-20,1,,,,,ゼロワン,0
657,3070001006862,新規,0,2023-09-20,2023-09-20,株式会社幸信ビル,,株式会社,群馬県,高崎市,通町５９番地の１,,10,202,3700053,,,,,,,2023-09-20,1,,,,,コウシンビル,0
659,3070005010175,新規,0,2023-09-20,2023-09-20,一般社団法人ＮＯＡＨ’ｓ　Ａｒｋ,,その他の設立登記法人,群馬県,高崎市,双葉町９番９号,,10,202,3700843,,,,,,,2023-09-20,1,,,,,ノアズアーク,0
660,3080001025861,新規,0,2023-09-20,2023-09-20,株式会社ＰＰＯ,,株式会社,静岡県,静岡市駿河区,中島４６番地の９８,,22,102,4228046,,,,,,,2023-09-20,1,,,,,ピーピーオー,0
665,3080101024185,新規,0,2023-09-20,2023-09-20,株式会社ｉｚｕＲｏｃｋＦａｒｍｅｒ,,株式会社,静岡県,伊豆市,菅引２９番地,,22,222,4102513,,,,,,,2023-09-20,1,,,,,イズロックファーマー,0
666,3080101024219,新規,0,2023-09-20,2023-09-20,株式会社やましち,,株式会社,静岡県,富士宮市,西町１１番２号,,22,207,4180056,,,,,,,2023-09-20,1,,,,,ヤマシチ,0
678,3120001257905,新規,0,2023-09-20,2023-09-20,株式会社誠華,,株式会社,大阪府,大阪市浪速区,敷津西２丁目１３番２号,,27,111,5560015,,,,,,,2023-09-20,1,,,,,セイカ,0
683,3120101068203,新規,0,2023-09-20,2023-09-20,株式会社ＧＰＫＨ,,株式会社,大阪府,南河内郡河南町,大字一須賀１５３番地の２,,27,382,5850002,,,,,,,2023-09-20,1,,,,,ジーピーケーエイチ,0
686,3120903004834,新規,0,2023-09-20,2023-09-20,サンウェル合同会社,,合同会社,大阪府,吹田市,山田北１５番１―１１０号,,27,205,5650825,,,,,,,2023-09-20,1,,,,,サンウェル,0
698,3130001075216,新規,0,2023-09-20,2023-09-20,株式会社ユーデンズ,,株式会社,京都府,宇治市,小倉町蓮池１６５－３１,,26,204,6110042,,,,,,,2023-09-20,1,,,,,ユーデンズ,0
702,3140001131678,新規,0,2023-09-20,2023-09-20,株式会社３６,,株式会社,兵庫県,神戸市中央区,山本通３丁目１９番１－２０２号,,28,110,6500003,,,,,,,2023-09-20,1,,,,,サンロク,0
705,3140003019541,新規,0,2023-09-20,2023-09-20,合同会社スリーライク福祉会,,合同会社,兵庫県,明石市,沢野南町３丁目９番地の９,,28,203,6730019,,,,,,,2023-09-20,1,,,,,スリーライクフクシカイ,0
706,3140003019566,新規,0,2023-09-20,2023-09-20,合同会社ＧＭアカウンティングアドバイザリー,,合同会社,兵庫県,神戸市灘区,赤松町３丁目３番１１－１０７号,,28,102,6570061,,,,,,,2023-09-20,1,,,,,ジーエムアカウンティングアドバイザリー,0
707,3140003019574,新規,0,2023-09-20,2023-09-20,合同会社らくらす,,合同会社,兵庫県,明石市,大道町１丁目１５番２１号,,28,203,6730029,,,,,,,2023-09-20,1,,,,,ラクラス,0
710,3170001017783,新規,0,2023-09-20,2023-09-20,デザインシロップ株式会社,,株式会社,和歌山県,和歌山市,植松丁３３番地,,30,201,6408298,,,,,,,2023-09-20,1,,,,,デザインシロップ,0
712,3180001158065,新規,0,2023-09-20,2023-09-20,ＣＨＡＩＮ株式会社,,株式会社,愛知県,名古屋市中区,栄５丁目２番３９号,,23,106,4600008,,,,,,,2023-09-20,1,,,,,チェイン,0
716,3180003025750,新規,0,2023-09-20,2023-09-20,５４ｍｅｄｉａ合同会社,,合同会社,愛知県,名古屋市瑞穂区,神前町２丁目６番地の２,,23,108,4670832,,,,,,,2023-09-20,1,,,,,フィフティフォーメディア,0
717,3180003025759,新規,0,2023-09-20,2023-09-20,合同会社富,,合同会社,愛知県,大府市,共栄町８丁目１１番地の６,,23,223,4740074,,,,,,,2023-09-20,1,,,,,トミ,0
724,3200001041739,新規,0,2023-09-20,2023-09-20,株式会社ｄｉｃｅｃａｓｔ,,株式会社,岐阜県,美濃加茂市,牧野２１８８番地２,,21,211,5050016,,,,,,,2023-09-20,1,,,,,ダイスキャスト,0
726,3200003006087,新規,0,2023-09-20,2023-09-20,フォレストファーム合同会社,,合同会社,岐阜県,多治見市,明和町５丁目１１番地の１,,21,204,5070072,,,,,,,2023-09-20,1,,,,,フォレストファーム,0
733,3240001062129,新規,0,2023-09-20,2023-09-20,株式会社ｋｏｖ,,株式会社,広島県,広島市西区,中広町３丁目２４番１８－１２０１号,,34,104,7330012,,,,,,,2023-09-20,1,,,,,コフ,0
734,3240001062145,新規,0,2023-09-20,2023-09-20,株式会社デジティブ,,株式会社,広島県,広島市中区,千田町３丁目４－２５,,34,101,7300052,,,,,,,2023-09-20,1,,,,,デジティブ,0
735,3240001062153,新規,0,2023-09-20,2023-09-20,株式会社コムレイドバージ,,株式会社,広島県,安芸郡府中町,みくまり１丁目７番１号,,34,302,7350003,,,,,,,2023-09-20,1,,,,,コムレイドバージ,0
737,3240003006307,新規,0,2023-09-20,2023-09-20,渡し場通りテラス合同会社,,合同会社,広島県,尾道市,土堂２丁目７－１,,34,205,7220035,,,,,,,2023-09-20,1,,,,,ワタシバドオリテラス,0
738,3240003006315,新規,0,2023-09-20,2023-09-20,合同会社ＴＵＲＴＬＥ　ＷＡＬＫ,,合同会社,広島県,三原市,久井町和草１０２４２－７,,34,204,7221412,,,,,,,2023-09-20,1,,,,,タートルウォーク,0
745,3260005011278,新規,0,2023-09-20,2023-09-20,一般社団法人思援,,その他の設立登記法人,岡山県,瀬戸内市,邑久町豊安２８５番地,,33,212,7014222,,,,,,,2023-09-20,1,,,,,シエン,0
746,3270001008839,新規,0,2023-09-20,2023-09-20,奥井商店株式会社,,株式会社,鳥取県,境港市,昭和町１３番地１４,,31,204,6840034,,,,,,,2023-09-20,1,,,,,オクイショウテン,0
752,3290001103002,新規,0,2023-09-20,2023-09-20,株式会社上巳,,株式会社,福岡県,福岡市博多区,吉塚６丁目５番２－４０５号,,40,132,8120041,,,,,,,2023-09-20,1,,,,,ジョウミ,0
753,3290001103043,新規,0,2023-09-20,2023-09-20,トゥルーバコンストラクションアンドエンジニアリング株式会社,,株式会社,福岡県,久留米市,山川安居野３丁目９番１号,,40,203,8390812,,,,,,,2023-09-20,1,,,,,トゥルーバコンストラクションアンドエンジニアリング,0
754,3290001103051,新規,0,2023-09-20,2023-09-20,株式会社ＴＮＫ,,株式会社,福岡県,福岡市東区,香椎駅東４丁目４４番３号,,40,131,8130012,,,,,,,2023-09-20,1,,,,,ティーエヌケー,0
755,3290001103076,新規,0,2023-09-20,2023-09-20,東安株式会社,,株式会社,福岡県,福岡市博多区,住吉３丁目１４－２－２０６,,40,132,8120018,,,,,,,2023-09-20,1,,,,,トウアン,0
766,3290803004505,新規,0,2023-09-20,2023-09-20,合同会社ＧＶＣ,,合同会社,福岡県,北九州市小倉北区,明和町８番２９号,,40,106,8020017,,,,,,,2023-09-20,1,,,,,ジーブイシー,0
768,3310003004641,新規,0,2023-09-20,2023-09-20,北原火薬合同会社,,合同会社,長崎県,対馬市,厳原町田渕１０１９番地,,42,209,8170023,,,,,,,2023-09-20,1,,,,,キタハラカヤク,0
770,3320001020012,新規,0,2023-09-20,2023-09-20,株式会社柚香,,株式会社,大分県,大分市,大字片島１０４４番地,,44,201,8700943,,,,,,,2023-09-20,1,,,,,ユズカ,0
774,3330003009977,新規,0,2023-09-20,2023-09-20,クレオ合同会社,,合同会社,熊本県,熊本市中央区,慶徳堀町１番地１（４０１号）,,43,101,8600014,,,,,,,2023-09-20,1,,,,,クレオ,0
779,3350001018573,新規,0,2023-09-20,2023-09-20,株式会社リベルタ,,株式会社,宮崎県,児湯郡川南町,大字川南２２９７９番地２,,45,405,8891301,,,,,,,2023-09-20,1,,,,,リベルタ,0
780,3360001032557,新規,0,2023-09-20,2023-09-20,勝樹ＦＩＮＡＬＰＬＡＮ株式会社,,株式会社,沖縄県,中頭郡読谷村,字宇座２４１番地,,47,324,9040328,,,,,,,2023-09-20,1,,,,,ショウキファイナルプラン,0
781,3360001032573,新規,0,2023-09-20,2023-09-20,株式会社Ｂ‐ＤＡＳＨ,,株式会社,沖縄県,南城市,佐敷字佐敷１０３番地,,47,215,9011403,,,,,,,2023-09-20,1,,,,,ビーダッシュ,0
783,3360003013299,新規,0,2023-09-20,2023-09-20,合同会社陸運前事務所,,合同会社,沖縄県,浦添市,字港川５００番地２０,,47,208,9012134,,,,,,,2023-09-20,1,,,,,リクウンマエジムショ,0
790,3390001017373,新規,0,2023-09-20,2023-09-20,株式会社門沢,,株式会社,山形県,鶴岡市,青柳町５－１８,,06,203,9970832,,,,,,,2023-09-20,1,,,,,カドサワ,0
796,3430001090011,新規,0,2023-09-20,2023-09-20,株式会社ＯＮ,,株式会社,北海道,札幌市中央区,南八条西６丁目７番地１１－９１２号,,01,101,0640808,,,,,,,2023-09-20,1,,,,,オン,0
798,3430005014783,新規,0,2023-09-20,2023-09-20,医療法人千山会,,その他の設立登記法人,北海道,札幌市北区,北四十条西４丁目１番１号ＡＳＡＢＵＬＡＮＤ１階,,01,102,0010040,,,,,,,2023-09-20,1,,,,,センザンカイ,0
803,3470001019824,新規,0,2023-09-20,2023-09-20,株式会社賢友,,株式会社,香川県,仲多度郡まんのう町,羽間２５１６番地２３,,37,406,7660014,,,,,,,2023-09-20,1,,,,,ケンユウ,0
804,3500003003104,新規,0,2023-09-20,2023-09-20,Ｕｐｇｒａｄｅ合同会社,,合同会社,愛媛県,松山市,北梅本町３９４,,38,201,7910242,,,,,,,2023-09-20,1,,,,,,0
806,3700150116605,新規,0,2023-09-20,2023-09-20,ｘｉａｍｅｎｘｉｎｇｌｏｎｇｄｅｘｉｎｘｉｆｕｗｕｙｏｕｘｉａｎｇｏｎｇｓｉ,,外国会社等,,,,,,,,ｓｉｍｉｎｇｑｕｌｉｎｇｄｏｕｙｉｌｉ１６１ｈａｏ８０４　ｘｉａｍｅｎ　ｆｕｊｉａｎ　３６１００１　ＣＮ,,,,,,2023-09-20,1,,,,,シヤーメンシンロンデシンシフーウーヨウシアンゴンス,0
807,3700150116613,新規,0,2023-09-20,2023-09-20,Ｔｉａｎｊｉｎｂｅｉｃａｉｋｅｊｉｙｏｕｘｉａｎｇｏｎｇｓｉ,,外国会社等,,,,,,,,ＤＯＮＧ　ＬＩ　ＱＵ　ＰＩＮＧ　ＹＩＮＧ　ＬＵ　８　ＨＡＯ　ＦＵ　ＷＵ　ＢＩＮ　ＨＡＩ　ＷＥＩ　３９１６　ＳＨＩ　ＴＩＡＮ　ＪＩＮ　ＳＨＩ　ＴＩＡＮ　ＪＩＮ　ＳＨＩ　３００３００　ＣＮ,,,,,,2023-09-20,1,,,,,テイアンジンベイカイケジヨウシアンゴンス,0
808,3700150117693,新規,0,2023-09-20,2023-09-20,Ｓｈｅｎｚｈｅｎｓｈｉ　ｗａｎｔａｉｋｅ　ｋｅｊｉ　ｙｏｕｘｉａｎｇｏｎｇｓｉ,,外国会社等,,,,,,,,７０２ｓｈｉ　１０ｄｏｎｇ　ｈｅｎｇｌｉｎｇ　ｅｒｑｕ　ｍｉｎｚｈｉｊｉｅｄａｏ，ｌｏｎｇｈｕａ　ｘｉｎｑｕ　Ｓｈｅｎｚｈｅｎ　Ｇｕａｎｇｄｏｎｇ　５１８１３１　ＣＮ,,,,,,2023-09-20,1,,,,,シエンチエンシワンタイケケジヨウシアンゴンス,0
809,3700150120243,新規,0,2023-09-20,2023-09-20,Ｓｈｅｎｚｈｅｎ　Ｚｈｏｎｇ　Ｍｉｎ　Ｔｅｃｈｎｏｌｏｇｙ　Ｃｏ．Ｌｔｄ．,,外国会社等,,,,,,,,ＬｏｎｇＧａｎｇ　Ｓｔｒｅｅｔ，Ｎａｎｌｉａｎ　ＸｉｎＣｕｎ，８ｔｈ　Ｂｕｉｌｄｉｎｇ　９０１　ＬｏｎｇＧａｎｇ　Ｄｉｓｔｒｉｃｔ　ＧｕａｎｇＤｏｎｇ，ＳｈｅｎＺｈｅｎ　５１８１００　ＣＮ,,,,,,2023-09-20,1,,,,,シェンジェンジョンミンテクノロジーシーオーエルティディー,0
810,3700150120490,新規,0,2023-09-20,2023-09-20,ｗｕｈａｎ　ｈｕ　ｌａｎｇ　ｋｅ　ｊｉ　ｃｏ．ｌｔｄ,,外国会社等,,,,,,,,Ｗｕｈａｎ　ｓｈｉ　ｊｉａｎｇｈａｎ　ｑｕ　ｔａｎｇｊｉａｄｕｎ　ｌｕ　７，９，１１　ｈａｏ　ｗｕｈａｎ　ｌｉｎｇ　ｊｉａｏ　ｈｕ　ｗａｎｄａ　ｇｕａｎｇｃｈａｎｇ　Ａ．Ｄｏｎｇ　Ａ２　ｄａｎｙｕａｎ　２０　ｃｅｎｇ　１７－２３　ｓｈｉ（ｃｈｕ　ｒｏｎｇ　ｈｕｉ　ｚｈｏｎｇ　ｃｈｕａｎｇ　ｋｏｎｇｊｉａｎ－Ｅ２）,,,,,,2023-09-20,1,,,,,ブカンフランカギカンパニーリミテッド,0
811,3700150120499,新規,0,2023-09-20,2023-09-20,ｆｏｓｈａｎｗｅｉｅｎｄｉａｎｚｉｓｈａｎｇｗｕ　ｙｏｕｘｉａｎｇｏｎｇｓｉ,,外国会社等,,,,,,,,Ｚｕｍｉａｏ　Ｓｔｒｅｅｔ，Ｃｈａｎｃｈｅｎｇ　Ｄｉｓｔｒｉｃｔ　Ｏｎｅ　ｏｆ　Ｒｏｏｍ　２２０２，Ｂｌｏｃｋ　Ａ，Ｔｏｎｇｊｉ　Ｐｌａｚａ，Ｎｏ．６６　Ｔｏｎｇｊｉ　Ｒｏａｄ　Ｆｏｓｈａｎ,,,,,,2023-09-20,1,,,,,ブツザンウェイエンデンシショウムユウゲンコウシ,0
819,4010003041706,新規,0,2023-09-20,2023-09-20,合同会社ノイン,,合同会社,東京都,中央区,勝どき６丁目３番１－２９０９号,,13,102,1040054,,,,,,,2023-09-20,1,,,,,ノイン,0
820,4010003041714,新規,0,2023-09-20,2023-09-20,合同会社フォレストハウジング,,合同会社,東京都,千代田区,神田須田町１丁目１０－４－７１０,,13,101,1010041,,,,,,,2023-09-20,1,,,,,フォレストハウジング,0
827,4010401177044,新規,0,2023-09-20,2023-09-20,株式会社Ｇｒｏｗｎｆｏｌｄ,,株式会社,東京都,港区,三田３丁目２番８号Ｎｅｔ２三田ビル４階,,13,103,1080073,,,,,,,2023-09-20,1,,,,,グローンフォールド,0
831,4010505003451,新規,0,2023-09-20,2023-09-20,一般社団法人サポニン研究協会,,その他の設立登記法人,東京都,台東区,台東４丁目５番５－３０１号,,13,106,1100016,,,,,,,2023-09-20,1,,,,,サポニンケンキュウキョウカイ,0
834,4010701044860,新規,0,2023-09-20,2023-09-20,株式会社グランクレア,,株式会社,東京都,品川区,東品川４丁目１１番３６－２７１６号,,13,109,1400002,,,,,,,2023-09-20,1,,,,,グランクレア,0
835,4010801034340,新規,0,2023-09-20,2023-09-20,株式会社ＩＫＥＲＵ,,株式会社,東京都,大田区,田園調布本町４６－２６,,13,111,1450072,,,,,,,2023-09-20,1,,,,,イケル,0
840,4011001156925,新規,0,2023-09-20,2023-09-20,株式会社ＡｓｔｒａＭａｚｅ,,株式会社,東京都,目黒区,目黒１丁目４－１６目黒Ｇビル７Ｆ,,13,110,1530063,,,,,,,2023-09-20,1,,,,,アストラメイズ,0
841,4011003017472,新規,0,2023-09-20,2023-09-20,Ｏｐｏｒｔｏ　Ｊａｐａｎ合同会社,,合同会社,東京都,渋谷区,恵比寿南２丁目２８－８－６０５,,13,113,1500022,,,,,,,2023-09-20,1,,,,,オポルトジャパン,0
842,4011101104429,新規,0,2023-09-20,2023-09-20,株式会社喜舎,,株式会社,東京都,新宿区,高田馬場３丁目２１－９緒方荘１－２号室,,13,104,1690075,,,,,,,2023-09-20,1,,,,,キシャ,0
843,4011101104437,新規,0,2023-09-20,2023-09-20,ＮＹＫ株式会社,,株式会社,東京都,新宿区,南元町４－２０－２３,,13,104,1600012,,,,,,,2023-09-20,1,,,,,エヌワイケー,0
845,4011201024923,新規,0,2023-09-20,2023-09-20,株式会社てるてる,,株式会社,東京都,中野区,中野３丁目２３番２６号サンクタス中野３０４,,13,114,1640001,,,,,,,2023-09-20,1,,,,,テルテル,0
849,4011501029779,新規,0,2023-09-20,2023-09-20,科立徳株式会社,,株式会社,東京都,荒川区,南千住２丁目１６番９－３０３号,,13,118,1160003,,,,,,,2023-09-20,1,,,,,カリツトク,0
851,4011605002541,新規,0,2023-09-20,2023-09-20,医療法人社団Ｌｉｆｅ　Ｄｅｓｉｇｎ,,その他の設立登記法人,東京都,練馬区,豊玉北５丁目４番３号サンオーザ豊玉１０１,,13,120,1760012,,,,,,,2023-09-20,1,,,,,ライフデザイン,0
854,4011803005841,新規,0,2023-09-20,2023-09-20,合同会社ＢＡコンサルティング,,合同会社,東京都,足立区,千住宮元町１２―１２,,13,121,1200043,,,,,,,2023-09-20,1,,,,,ビーエーコンサルティング,0
862,4013303006799,新規,0,2023-09-20,2023-09-20,合同会社原田,,合同会社,東京都,豊島区,池袋本町３丁目３１番２１号ハイムかしわ１０２号,,13,116,1700011,,,,,,,2023-09-20,1,,,,,ハラダ,0
872,4020003024627,新規,0,2023-09-20,2023-09-20,合同会社カナロア,,合同会社,神奈川県,横浜市中区,福富町仲通３４番７ラ・フェスタビル地下１階,,14,104,2310043,,,,,,,2023-09-20,1,,,,,カナロア,0
876,4021001080199,新規,0,2023-09-20,2023-09-20,株式会社ＫＪ,,株式会社,神奈川県,秦野市,鶴巻北３丁目５番１７－１号,,14,211,2570001,,,,,,,2023-09-20,1,,,,,ケイジェイ,0
877,4021001080224,新規,0,2023-09-20,2023-09-20,株式会社タツヒト,,株式会社,神奈川県,相模原市南区,古淵１丁目２３番６号,,14,153,2520344,,,,,,,2023-09-20,1,,,,,タツヒト,0
879,4021003013561,新規,0,2023-09-20,2023-09-20,合同会社Ｒｅ・Ｒａｉｓｅ,,合同会社,神奈川県,厚木市,戸室４丁目２２番４６号,,14,212,2430031,,,,,,,2023-09-20,1,,,,,リレイズ,0
883,4030001155695,新規,0,2023-09-20,2023-09-20,フラワーズ株式会社,,株式会社,埼玉県,上尾市,仲町２丁目３番１１号,,11,219,3620035,,,,,,,2023-09-20,1,,,,,フラワーズ,0
884,4030001155778,新規,0,2023-09-20,2023-09-20,株式会社ｓｏｅｒｔｅ,,株式会社,埼玉県,鶴ヶ島市,大字藤金８５２番地１６ステーションテラス若葉８０９号,,11,241,3502206,,,,,,,2023-09-20,1,,,,,ソエルテ,0
885,4030001155786,新規,0,2023-09-20,2023-09-20,株式会社ＬｉＶＶＶｉｎｇ,,株式会社,埼玉県,富士見市,鶴馬２丁目２１番３０号,,11,235,3540021,,,,,,,2023-09-20,1,,,,,リビング,0
886,4030001155902,新規,0,2023-09-20,2023-09-20,株式会社Ｍ’ｓプラン,,株式会社,埼玉県,草加市,松江１丁目２４番３－１０１号,,11,221,3400013,,,,,,,2023-09-20,1,,,,,エムズプラン,0
887,4030001155919,新規,0,2023-09-20,2023-09-20,株式会社マエダ工業,,株式会社,埼玉県,八潮市,大字木曽根４８４番地５,,11,234,3400813,,,,,,,2023-09-20,1,,,,,マエダコウギョウ,0
888,4030001155976,新規,0,2023-09-20,2023-09-20,株式会社ｔｅｒｍａｓ,,株式会社,埼玉県,さいたま市緑区,大字三室２２３番地３５,,11,109,3360911,,,,,,,2023-09-20,1,,,,,テルマス,0
889,4030001156025,新規,0,2023-09-20,2023-09-20,ＲＩＳＥ株式会社,,株式会社,埼玉県,さいたま市中央区,大戸５丁目１４番２１号,,11,105,3380012,,,,,,,2023-09-20,1,,,,,ライズ,0
898,4040001130152,新規,0,2023-09-20,2023-09-20,ＴＫサルス株式会社,,株式会社,千葉県,八千代市,八千代台西３丁目２－４,,12,221,2760034,,,,,,,2023-09-20,1,,,,,ティーケーサルス,0
900,4040003023354,新規,0,2023-09-20,2023-09-20,合同会社Ｗｈｉｔｅ　Ｄｒａｇｏｎ,,合同会社,千葉県,千葉市若葉区,高根町９１４番地１９,,12,104,2650061,,,,,,,2023-09-20,1,,,,,ホワイトドラゴン,0
907,4060001036364,新規,0,2023-09-20,2023-09-20,株式会社ＳＴＥＬＬＡ,,株式会社,栃木県,那須塩原市,石林３１７番地１１－５０２,,09,213,3292711,,,,,,,2023-09-20,1,,,,,ステラ,0
917,4080001025852,新規,0,2023-09-20,2023-09-20,株式会社アウンしみず,,株式会社,静岡県,静岡市清水区,真砂町６番２５号,,22,103,4240816,,,,,,,2023-09-20,1,,,,,アウンシミズ,0
930,4100001036797,新規,0,2023-09-20,2023-09-20,株式会社ＳｔｕｄｉｏＦＲＡＭＥ,,株式会社,長野県,長野市,稲里町中氷鉋４９０番地４アルファスマート稲里２０８号,,20,201,3812215,,,,,,,2023-09-20,1,,,,,スタジオフレーム,0
940,4120001257854,新規,0,2023-09-20,2023-09-20,株式会社あれんじマーケット,,株式会社,大阪府,大阪市中央区,龍造寺町４番３号,,27,128,5400014,,,,,,,2023-09-20,1,,,,,アレンジマーケット,0
941,4120001258159,新規,0,2023-09-20,2023-09-20,嘉園テクノロジー株式会社,,株式会社,大阪府,大阪市住吉区,遠里小野３丁目２０－９ロイヤル遠里小野４０１号,,27,120,5580032,,,,,,,2023-09-20,1,,,,,カエンテクノロジー,0
943,4120003024955,新規,0,2023-09-20,2023-09-20,オルカステイ合同会社,,合同会社,大阪府,大阪市西成区,梅南３丁目５番１７号,,27,122,5570033,,,,,,,2023-09-20,1,,,,,オルカステイ,0
944,4120101068210,新規,0,2023-09-20,2023-09-20,株式会社アジャスト,,株式会社,大阪府,堺市堺区,少林寺町東４丁１番地２０,,27,141,5900963,,,,,,,2023-09-20,1,,,,,アジャスト,0
945,4120101068227,新規,0,2023-09-20,2023-09-20,株式会社カジノ,,株式会社,大阪府,岸和田市,並松町４番８号,,27,202,5960052,,,,,,,2023-09-20,1,,,,,カジノ,0
946,4120901048064,新規,0,2023-09-20,2023-09-20,株式会社ＳＵ住建,,株式会社,大阪府,池田市,鉢塚２丁目５番２６－２０８号,,27,204,5630024,,,,,,,2023-09-20,1,,,,,エスユージュウケン,0
956,4130001075231,新規,0,2023-09-20,2023-09-20,株式会社クローバー,,株式会社,京都府,京都市中京区,室町通二条上る冷泉町５５番地,,26,104,6040011,,,,,,,2023-09-20,1,,,,,クローバー,0
961,4140001131652,新規,0,2023-09-20,2023-09-20,株式会社クバル,,株式会社,兵庫県,神戸市長田区,細田町４丁目１－７－１Ｆ,,28,106,6530835,,,,,,,2023-09-20,1,,,,,クバル,0
962,4140001131660,新規,0,2023-09-20,2023-09-20,株式会社てぃーぐるぅぷ,,株式会社,兵庫県,尼崎市,戸ノ内町３丁目６番１８号,,28,202,6610961,,,,,,,2023-09-20,1,,,,,ティーグループ,0
965,4140003019573,新規,0,2023-09-20,2023-09-20,ＥｖｏＳｙｎｃ合同会社,,合同会社,兵庫県,神戸市中央区,脇浜町３丁目２番３号,,28,110,6510072,,,,,,,2023-09-20,1,,,,,エボシンク,0
969,4170001017782,新規,0,2023-09-20,2023-09-20,株式会社特洋Ｔａｙａｎｇ,,株式会社,和歌山県,和歌山市,畑屋敷端ノ丁２１番地グリーンヒルトマト３０１,,30,201,6408393,,,,,,,2023-09-20,1,,,,,トクヨウテイヤン,0
975,4180001158072,新規,0,2023-09-20,2023-09-20,株式会社ミナムス,,株式会社,愛知県,名古屋市昭和区,滝川町１２８番地の８,,23,107,4660826,,,,,,,2023-09-20,1,,,,,ミナムス,0
976,4180001158080,新規,0,2023-09-20,2023-09-20,株式会社河頭,,株式会社,愛知県,名古屋市西区,見寄町１７３番地第二中沼ビル２０１,,23,104,4520839,,,,,,,2023-09-20,1,,,,,カワズ,0
986,4200003006086,新規,0,2023-09-20,2023-09-20,合同会社一二三,,合同会社,岐阜県,岐阜市,早田本町２丁目１６番地２,,21,201,5020848,,,,,,,2023-09-20,1,,,,,ヒフミ,0
992,4240001062152,新規,0,2023-09-20,2023-09-20,株式会社ナミキ,,株式会社,広島県,広島市中区,袋町９番１号正岡ビル２Ｆ,,34,101,7300036,,,,,,,2023-09-20,1,,,,,ナミキ,0
996,4260005011277,新規,0,2023-09-20,2023-09-20,一般社団法人居住支援ぷらす,,その他の設立登記法人,岡山県,岡山市北区,中山下１丁目９－１２－６０１,,33,101,7000821,,,,,,,2023-09-20,1,,,,,キョジュウシエンプラス,0
998,4290001103075,新規,0,2023-09-20,2023-09-20,株式会社グリッター,,株式会社,福岡県,福岡市中央区,大手門１丁目２番２３－７０５号,,40,133,8100074,,,,,,,2023-09-20,1,,,,,グリッター,0
999,4290001103091,新規,0,2023-09-20,2023-09-20,株式会社キューエイＨＤ,,株式会社,福岡県,筑紫野市,天拝坂１丁目９番１号,,40,217,8180053,,,,,,,2023-09-20,1,,,,,キューエイホールディングス,0
1008,4330003009976,新規,0,2023-09-20,2023-09-20,合同会社グロー,,合同会社,熊本県,熊本市中央区,鍛冶屋町６番地（９０８号）朝日プラザ鍛冶屋町,,43,101,8600026,,,,,,,2023-09-20,1,,,,,,0
1011,4350003004439,新規,0,2023-09-20,2023-09-20,合同会社Ｏｎ　Ｒｏｏｔｓ,,合同会社,宮崎県,宮崎市,大島町山田ケ窪１９４８番地３,,45,201,8800824,,,,,,,2023-09-20,1,,,,,オンルーツ,0
1017,4360001032556,新規,0,2023-09-20,2023-09-20,株式会社具志堅商事,,株式会社,沖縄県,国頭郡宜野座村,字松田５７４番地１,,47,313,9041301,,,,,,,2023-09-20,1,,,,,グシケンショウジ,0
1018,4360001032572,新規,0,2023-09-20,2023-09-20,株式会社Ｒｅ美ら丸,,株式会社,沖縄県,沖縄市,山内２丁目１３－２５オリーブ２０１,,47,211,9040034,,,,,,,2023-09-20,1,,,,,リチュラマル,0
1019,4360003013298,新規,0,2023-09-20,2023-09-20,合同会社ＥＬＥＭＥＮＴ,,合同会社,沖縄県,那覇市,上間１丁目９－３,,47,201,9020073,,,,,,,2023-09-20,1,,,,,エレメント,0
1029,4430001090010,新規,0,2023-09-20,2023-09-20,株式会社ＳＥＥＤ,,株式会社,北海道,札幌市豊平区,中の島一条６丁目６番１４号アールフィーノ中の島５Ｄ号室,,01,105,0620921,,,,,,,2023-09-20,1,,,,,シード,0
1030,4430005014782,新規,0,2023-09-20,2023-09-20,医療法人社団夕凪会,,その他の設立登記法人,北海道,札幌市東区,北十二条東１５丁目３番１０号法邑ビル２階,,01,103,0650012,,,,,,,2023-09-20,1,,,,,ユウナギカイ,0
1031,4430005014790,新規,0,2023-09-20,2023-09-20,一般社団法人民泊向上委員会,,その他の設立登記法人,北海道,札幌市中央区,南八条西１１丁目３－１,,01,101,0640808,,,,,,,2023-09-20,1,,,,,ミンパクコウジョウイインカイ,0
1035,4470001019815,新規,0,2023-09-20,2023-09-20,ＭＳＯホールディングス株式会社,,株式会社,香川県,高松市,香川町浅野７７５番地１０,,37,201,7611703,,,,,,,2023-09-20,1,,,,,エムエスオーホールディングス,0
1040,4500001025207,新規,0,2023-09-20,2023-09-20,株式会社いっしき不動産,,株式会社,愛媛県,松山市,南斎院町２３８コーポ研２０２号,,38,201,7918032,,,,,,,2023-09-20,1,,,,,,0
1046,4700150116505,新規,0,2023-09-20,2023-09-20,ｙｉｊｉａｎｚｈｏｎｇｑｉｎｇｇｏｎｇｙｉｐｉｎｚｈｉｚａｏｙｏｕｘｉａｎｇｏｎｇｓｉ,,外国会社等,,,,,,,,ｌｏｎｇｇａｎｇｑｕｂａｎｔｉａｎｊｉｅｄａｏｓｈｉｅｒｘｉａｎｇｓｈｕｚｈｕａｎｇｙｕａｎ　Ｌ３ｄｏｎｇ３Ａ　ｓｈｅｎｚｈｅｎ　ｇｕａｎｇｄｏｎｇ　５１８０００　ＣＮ,,,,,,2023-09-20,1,,,,,イジアンチヨンチンコンイーピンチーザオヨウシアンゴンス,0
1047,4700150117701,新規,0,2023-09-20,2023-09-20,ｚｈｅｎｇｚｈｏｕｙｉｃｈｕａｎｗａｎｇｌｕｏｋｅｊｉｙｏｕｘｉａｎｇｏｎｇｓｉ,,外国会社等,,,,,,,,ｈｕｉｊｉｑｕｌｏｎｇｙｕａｎｊｉｅｂｅｉｘｉｎｇｈｕａｊｉｅｘｉ　ｍｅｉｊｉｎｇｌｉｎｑｉｃｈｅｎｇ１ｈａｏｙｕａｎ１ｈａｏｌｏｕ１ｄａｎｙｕａｎ２３０８　ｚｈｅｎｇｚｈｏｕｓｈｉ　ｈｅｎａｎｓｈｅｎｇ　４５００００　ＣＮ,,,,,,2023-09-20,1,,,,,チエンチヨウイチユアンワンルオケジヨウシアンゴンス,0
1049,4700150120242,新規,0,2023-09-20,2023-09-20,ＸＩＡＭＥＮ　ＴＯＷＩＮ　ＴＲＡＤＥ　ＣＯ．，ＬＴＤ．,,外国会社等,,,,,,,,ＷＵ　ＸＩＡＮ　ＺＨＥＮ，ＭＩＮＧ　ＸＩ　ＣＵＮ，ＨＯＵ　ＳＨＡＯ　ＸＩ　ＬＩ　３９　ＨＡＯ　ＸＩＡＭＥＮ　ＳＨＩ　ＴＯＮＧＡＮ　ＱＵ　ＦＵＪＩＡＮ　ＳＨＥＮＧ　３６１１００　ＣＮ,,,,,,2023-09-20,1,,,,,シァアメントウィントレードシーオーエルティディ,0
1050,4700150120498,新規,0,2023-09-20,2023-09-20,ＳｈｅｎＺｈｅｎＳｈｉＸｉｎｇＸｕａｎＭａｏＹｉ　ＹｏｕＸｉａｎＧｏｎｇＳｉ,,外国会社等,,,,,,,,ＦｕＴｉａｎＱｕＨｕａＱｉａｎｇＢｅｉＪｉｅＤａｏＦｕＱｉａｎｇＳｈｅＱｕ　ＨｕａＱｉａｎｇＢｅｉＬｕ１０７８ＨａｏＸｉａｎＤａｉＺｈｉＣｈｕａｎｇＡＺｕｏＢＺｕｏＡｚｕｏ１３Ｊ　ＳｈｅｎＺｈｅｎ,,,,,,2023-09-20,1,,,,,シンセンシシンゥエンマオイユウゲンコウシ,0
1057,5010001238559,新規,0,2023-09-20,2023-09-20,株式会社オピニオンプラス,,株式会社,東京都,千代田区,内幸町１丁目３番１号幸ビルディング,,13,101,1000011,,,,,,,2023-09-20,1,,,,,オピニオンプラス,0
1058,5010003041713,新規,0,2023-09-20,2023-09-20,合同会社カエルム,,合同会社,東京都,文京区,大塚５丁目１６－４,,13,105,1120012,,,,,,,2023-09-20,1,,,,,カエルム,0
1063,5010401177101,新規,0,2023-09-20,2023-09-20,株式会社コルモアナ,,株式会社,東京都,港区,南青山３丁目１番３６号青山丸竹ビル６Ｆ,,13,103,1070062,,,,,,,2023-09-20,1,,,,,コルモアナ,0
1064,5010405022476,新規,0,2023-09-20,2023-09-20,一般社団法人不動産クラウドファンディング協会,,その他の設立登記法人,東京都,港区,新橋２丁目１２番１１号,,13,103,1050004,,,,,,,2023-09-20,1,,,,,フドウサンクラウドファンディングキョウカイ,0
1065,5010501051057,新規,0,2023-09-20,2023-09-20,株式会社ジェイエスオフィス,,株式会社,東京都,台東区,上野５丁目８番５号,,13,106,1100005,,,,,,,2023-09-20,1,,,,,ジェイエスオフィス,0
1067,5010503007164,新規,0,2023-09-20,2023-09-20,合同会社Ｌｉｃｏ,,合同会社,東京都,台東区,上野７丁目３番９－７１９号アルベルゴ上野,,13,106,1100005,,,,,,,2023-09-20,1,,,,,リコ,0
1069,5010601063811,新規,0,2023-09-20,2023-09-20,株式会社リスペクトワン,,株式会社,東京都,墨田区,東駒形３丁目２５番５号,,13,107,1300005,,,,,,,2023-09-20,1,,,,,リスペクトワン,0
1074,5010801034348,新規,0,2023-09-20,2023-09-20,株式会社山興,,株式会社,東京都,大田区,池上７丁目２５－１４,,13,111,1460082,,,,,,,2023-09-20,1,,,,,ヤマコウ,0
1079,5011001156973,新規,0,2023-09-20,2023-09-20,株式会社フェテカフェ,,株式会社,東京都,渋谷区,道玄坂１丁目１０番８号渋谷道玄坂東急ビル２Ｆ－Ｃ,,13,113,1500043,,,,,,,2023-09-20,1,,,,,フェテカフェ,0
1080,5011001157014,新規,0,2023-09-20,2023-09-20,生物多様性体験保全センター株式会社,,株式会社,東京都,渋谷区,松濤２丁目１５番５号,,13,113,1500046,,,,,,,2023-09-20,1,,,,,セイブツタヨウセイタイケンホゼンセンター,0
1081,5011003017546,新規,0,2023-09-20,2023-09-20,ＯＨＣ合同会社,,合同会社,東京都,渋谷区,本町２丁目６番７号,,13,113,1510071,,,,,,,2023-09-20,1,,,,,オーエイチシー,0
1084,5011101104428,新規,0,2023-09-20,2023-09-20,株式会社ＯＺ,,株式会社,東京都,新宿区,西新宿３丁目３番１３号西新宿水間ビル６階,,13,104,1600023,,,,,,,2023-09-20,1,,,,,オズ,0
1090,5011501029794,新規,0,2023-09-20,2023-09-20,ＢＢＮ株式会社,,株式会社,東京都,北区,神谷２丁目７番１１号ＫＳカーサＡ号,,13,117,1150043,,,,,,,2023-09-20,1,,,,,ビービーエヌ,0
1110,5020001153591,新規,0,2023-09-20,2023-09-20,建設ツール株式会社,,株式会社,神奈川県,横浜市緑区,鴨居３丁目１２番１２号,,14,113,2260003,,,,,,,2023-09-20,1,,,,,ケンセツツール,0
1114,5030001155769,新規,0,2023-09-20,2023-09-20,株式会社ｉｋｅｋａ,,株式会社,埼玉県,川口市,大字東内野５４０番地の７,,11,203,3330821,,,,,,,2023-09-20,1,,,,,イケカ,0
1115,5030001155901,新規,0,2023-09-20,2023-09-20,株式会社むちゃうまエステート,,株式会社,埼玉県,東松山市,元宿１丁目２９番地１７－３階,,11,212,3550063,,,,,,,2023-09-20,1,,,,,ムチャウマエステート,0
1116,5030001155918,新規,0,2023-09-20,2023-09-20,株式会社縁,,株式会社,埼玉県,所沢市,けやき台１丁目１５番地の３,,11,208,3591118,,,,,,,2023-09-20,1,,,,,エン,0
1117,5030001155975,新規,0,2023-09-20,2023-09-20,ルミノスタジオ株式会社,,株式会社,埼玉県,富士見市,ふじみ野西１丁目１８番１号斉藤ビル３Ｆ,,11,235,3540035,,,,,,,2023-09-20,1,,,,,ルミノスタジオ,0
1118,5030001155983,新規,0,2023-09-20,2023-09-20,株式会社ＧＭｗｏｒｋｓ,,株式会社,埼玉県,草加市,谷塚町９８６番地,,11,221,3400023,,,,,,,2023-09-20,1,,,,,ジーエムワークス,0
1119,5030001155991,新規,0,2023-09-20,2023-09-20,株式会社Ｉｍｐｒｏｖｅ,,株式会社,埼玉県,富士見市,水谷東２丁目３６番７号,,11,235,3540013,,,,,,,2023-09-20,1,,,,,インプローブ,0
1120,5030001156008,新規,0,2023-09-20,2023-09-20,ＲＩＥ‐ＳＵ　ＪＡＰＡＮ株式会社,,株式会社,埼玉県,戸田市,南町８番２２号,,11,224,3350025,,,,,,,2023-09-20,1,,,,,リエスジャパン,0
1123,5030003022538,新規,0,2023-09-20,2023-09-20,合同会社みはる,,合同会社,埼玉県,入間市,下藤沢１丁目１１－４ブリエスクエア武蔵藤沢５０３,,11,225,3580011,,,,,,,2023-09-20,1,,,,,ミハル,0
1124,5030003022620,新規,0,2023-09-20,2023-09-20,ＫＹＰ合同会社,,合同会社,埼玉県,さいたま市緑区,美園４丁目１番地１ウエリス浦和美園サウステラス８０７号室,,11,109,3360967,,,,,,,2023-09-20,1,,,,,ケイワイピー,0
1131,5040001130151,新規,0,2023-09-20,2023-09-20,株式会社ＡｉｓｏＴｏｐｅ,,株式会社,千葉県,船橋市,本町６丁目１８番１９第３山中ビル４０１号室,,12,204,2730005,,,,,,,2023-09-20,1,,,,,アイソトープ,0
1135,5040003023221,新規,0,2023-09-20,2023-09-20,合同会社ＡＲＣＡＲＴ,,合同会社,千葉県,印西市,若萩１丁目３－２２３,,12,231,2701609,,,,,,,2023-09-20,1,,,,,アークアート,0
1141,5070001040892,新規,0,2023-09-20,2023-09-20,四六八消毒株式会社,,株式会社,群馬県,高崎市,片岡町２丁目１２番８号,,10,202,3700862,,,,,,,2023-09-20,1,,,,,シロハチショウドク,0
1158,5120001257762,新規,0,2023-09-20,2023-09-20,兆昌株式会社,,株式会社,大阪府,大阪市西成区,玉出中２丁目１２番１４－４０７号室,,27,122,5570044,,,,,,,2023-09-20,1,,,,,チョウチョウ,0
1159,5120001258067,新規,0,2023-09-20,2023-09-20,ＭＤムートン株式会社,,株式会社,大阪府,大阪市港区,弁天１丁目３番３号クロスシティ弁天町２階,,27,107,5520007,,,,,,,2023-09-20,1,,,,,エムディームートン,0
1160,5120001258083,新規,0,2023-09-20,2023-09-20,株式会社ＬＩＮＸＳ,,株式会社,大阪府,大阪市西区,江之子島１丁目６番２号奥内第八ビル２Ｆ,,27,106,5500006,,,,,,,2023-09-20,1,,,,,リンクス,0
1161,5120003024905,新規,0,2023-09-20,2023-09-20,合同会社モーブ,,合同会社,大阪府,大阪市城東区,鴫野西２丁目９番２号,,27,118,5360014,,,,,,,2023-09-20,1,,,,,モーブ,0
1162,5120101068218,新規,0,2023-09-20,2023-09-20,株式会社ヴィヴァーチェ,,株式会社,大阪府,泉佐野市,葵町４丁目５番７号,,27,213,5980014,,,,,,,2023-09-20,1,,,,,ヴィヴァーチェ,0
1164,5120901048063,新規,0,2023-09-20,2023-09-20,株式会社Ｎ　ｐｌａｎｔ,,株式会社,大阪府,池田市,鉢塚２丁目５番２６－２０８号,,27,204,5630024,,,,,,,2023-09-20,1,,,,,エヌプラント,0
1170,5130003008997,新規,0,2023-09-20,2023-09-20,合同会社皐月クリエイティブ,,合同会社,京都府,京都市中京区,御池通東洞院東入笹屋町４３６番地永和御池ビル６０６号,,26,104,6048187,,,,,,,2023-09-20,1,,,,,サツキクリエイティブ,0
1173,5140001131668,新規,0,2023-09-20,2023-09-20,株式会社フレイケア,,株式会社,兵庫県,明石市,沢野２丁目１６番３４号,,28,203,6730008,,,,,,,2023-09-20,1,,,,,フレイケア,0
1176,5150001026727,新規,0,2023-09-20,2023-09-20,株式会社Ｏｎｅｊｅｌ,,株式会社,奈良県,天理市,東井戸堂町４２４番地１６,,29,204,6320074,,,,,,,2023-09-20,1,,,,,ワンジェル,0
1177,5150003003063,新規,0,2023-09-20,2023-09-20,合同会社ＴＯＭＩＺＯ,,合同会社,奈良県,奈良市,鶴舞東町１－２１－１０３,,29,201,6310021,,,,,,,2023-09-20,1,,,,,トミゾー,0
1180,5160001025348,新規,0,2023-09-20,2023-09-20,株式会社山下,,株式会社,滋賀県,長浜市,余呉町東野３１８番地１,,25,203,5290527,,,,,,,2023-09-20,1,,,,,ヤマシタ,0
1182,5160005011229,新規,0,2023-09-20,2023-09-20,医療法人平和の森,,その他の設立登記法人,滋賀県,大津市,追分町１６－２１,,25,201,5200064,,,,,,,2023-09-20,1,,,,,ヘイワノモリ,0
1189,5180001158022,新規,0,2023-09-20,2023-09-20,株式会社耕寿園,,株式会社,愛知県,稲沢市,一色上方町１１７番地４,,23,220,4928371,,,,,,,2023-09-20,1,,,,,コウジュエン,0
1190,5180001158105,新規,0,2023-09-20,2023-09-20,Ｔｈｒｅｅ　ＯＫａＹ株式会社,,株式会社,愛知県,長久手市,市が洞２丁目７１６番地,,23,238,4801147,,,,,,,2023-09-20,1,,,,,スリーオーケー,0
1194,5180003025749,新規,0,2023-09-20,2023-09-20,合同会社２‐Ｂｌｅｓｓ,,合同会社,愛知県,名古屋市千種区,千種３丁目２０番地５号Ｈａｒｖｅｙ　Ｒｅｓｉｄｅｎｃｅ１０１,,23,101,4640858,,,,,,,2023-09-20,1,,,,,ツーブレス,0
1202,5200001041745,新規,0,2023-09-20,2023-09-20,株式会社Ｓｐｉｒｉｔｕａｌ,,株式会社,岐阜県,羽島市,竹鼻町丸の内４丁目１１１番２号,,21,209,5016244,,,,,,,2023-09-20,1,,,,,スピリチュアル,0
1203,5200003006085,新規,0,2023-09-20,2023-09-20,合同会社山命,,合同会社,岐阜県,下呂市,萩原町跡津５７２番地１,,21,220,5092504,,,,,,,2023-09-20,1,,,,,サンメイ,0
1209,5240001062151,新規,0,2023-09-20,2023-09-20,株式会社惟吹,,株式会社,広島県,福山市,神辺町字上御領８２７番地１,,34,207,7202111,,,,,,,2023-09-20,1,,,,,,0
1218,5290001103074,新規,0,2023-09-20,2023-09-20,駿泰国際株式会社,,株式会社,福岡県,福岡市東区,香住ヶ丘６丁目２３番１号,,40,131,8130003,,,,,,,2023-09-20,1,,,,,シュンタイコクサイ,0
1219,5290001103082,新規,0,2023-09-20,2023-09-20,ＦＯＲ　ＳＯＭＥＯＮＥ株式会社,,株式会社,福岡県,福岡市南区,大楠３丁目９番２９－３０４号,,40,134,8150082,,,,,,,2023-09-20,1,,,,,フォーサムワン,0
1220,5290003014336,新規,0,2023-09-20,2023-09-20,九電エナジーインベストメント合同会社,,合同会社,福岡県,福岡市中央区,渡辺通２丁目１番８２号,,40,133,8100004,,,,,,,2023-09-20,1,,,,,キュウデンエナジーインベストメント,0
1222,5330001031270,新規,0,2023-09-20,2023-09-20,集企業株式会社,,株式会社,熊本県,熊本市東区,健軍１丁目２７番１号,,43,102,8620911,,,,,,,2023-09-20,1,,,,,シュウキギョウ,0
1226,5360001032563,新規,0,2023-09-20,2023-09-20,くだか企画株式会社,,株式会社,沖縄県,那覇市,若狭２丁目５－１６,,47,201,9000031,,,,,,,2023-09-20,1,,,,,クダカキカク,0
1227,5360001032571,新規,0,2023-09-20,2023-09-20,株式会社スターチス,,株式会社,沖縄県,中頭郡読谷村,字古堅５５１番地２ＮＯ．５０２,,47,324,9040314,,,,,,,2023-09-20,1,,,,,スターチス,0
1230,5370003006291,新規,0,2023-09-20,2023-09-20,合同会社ｉｎ　ｄｅｍａｎｄ,,合同会社,宮城県,仙台市若林区,南小泉２丁目１４番１９―１２号,,04,103,9840827,,,,,,,2023-09-20,1,,,,,インデマンド,0
1234,5420003002797,新規,0,2023-09-20,2023-09-20,クリエイティブビジョン合同会社,,合同会社,青森県,青森市,大字油川字大浜１８０番地９４,,02,201,0380059,,,,,,,2023-09-20,1,,,,,クリエイティブビジョン,0
1236,5430001090026,新規,0,2023-09-20,2023-09-20,アリアドネＧＲホールディングス株式会社,,株式会社,北海道,札幌市東区,東苗穂十条２丁目１９番２０号,,01,103,0070810,,,,,,,2023-09-20,1,,,,,アリアドネグループホールディングス,0
1238,5460101007439,新規,0,2023-09-20,2023-09-20,株式会社ＮＰＲ,,株式会社,北海道,帯広市,西三条南９丁目２番地セントラル十勝ビル１Ｆ,,01,207,0800013,,,,,,,2023-09-20,1,,,,,エヌピーアール,0
1245,5700150012224,新規,0,2023-09-20,2015-10-09,神奈川県宅建政治連盟,,その他,神奈川県,横浜市中区,住吉町６丁目７６－３,,14,104,2310013,,,,,,,2015-10-09,1,,,,,カナガワケンタツケンセイジレンメイ,0
1248,5700150117709,新規,0,2023-09-20,2023-09-20,ｇｕａｎｇｚｈｏｕｓｈｉａｉｗｅｉｐｉｊｕｙｏｕｘｉａｎｇｏｎｇｓｉ,,外国会社等,,,,,,,,５Ｅ０２　Ｂｌｏｃｋ　４　Ｎｏ．３２　Ｈｅｌｏｎｇ　１ｓｔ　Ｒｏａｄ　Ｂａｉｙｕｎ　Ｄｉｓｔｒｉｃ　Ｇｕａｎｇｚｈｏｕ　Ｇｕａｎｇｄｏｎｇ　５１００００　ＣＮ,,,,,,2023-09-20,1,,,,,グアンチヨウシアイウエイビジユヨウシアンゴンス,0
1249,5700150120241,新規,0,2023-09-20,2023-09-20,ｚｈｏｎｇｓｈａｎ　ｃｏｎｇｘｉａｎｇ　ｄｉａｎｚｉｓｈａｎｇｗｕ　ｙｏｕｘｉａｎｇｏｎｇｓｉ,,外国会社等,,,,,,,,Ｚｈｏｎｇｘｉｎｌｕｚｈｅｎｈｕｉｋｅｊｉｙｕａｎｆｕｚｈｕａｎｇｊｉｄｉ３ｄｏｎｇ６ｌｏｕｚｈｉｓｈｉｅｒ，Ｄａｙｏｎｇｚｈｅｎ，ｚｈｏｎｇｓｈａｎｓｈｉ,,,,,,2023-09-20,1,,,,,ジョンシャンツォンシァンディエンズーシャンウヨウシエンゴンス,0
1250,5700150120489,新規,0,2023-09-20,2023-09-20,ｇｕａｎｇｚｈｏｕｂａｏｋｅｄｉａｎｚｉ　ｙｏｕｘｉａｎｇｏｎｇｓｉ,,外国会社等,,,,,,,,Ｎｏ．１５７　Ｌｉｘｉｎｇ　Ａｖｅｎｕｅ　Ｌｉｃｈｅｎｇ　Ｓｔｒｅｅｔ　Ｚｅｎｇｃｈｅｎｇ　Ｄｉｓｔｒｉｃｔ　Ｇｕａｎｇｚｈｏｕ,,,,,,2023-09-20,1,,,,,コウシュウバオケデンシユウゲンコウシ,0
1251,5700150120497,新規,0,2023-09-20,2023-09-20,Ｎｉｎｇｂｏｑｉｙｉｇｕａｎｇｄｉａｎｋｅｊｉ　ｙｏｕｘｉａｎｇｏｎｇｓｉ,,外国会社等,,,,,,,,ＸｉｎｇｙｅＤａＤａｏ８ｈａｏ１ｈａｏｌｏｕ１５２Ｓｈｉ　ＮｉｎｇｂｏＢａｏｓｈｕｉＱｕ　ＺｈｅＪｉａｎｇＳｈｅｎｇ,,,,,,2023-09-20,1,,,,,ネイハチイコウデンカギユウゲンコウシ,0
1252,5700150120506,新規,0,2023-09-20,2023-09-20,Ｄｏｎｇｇｕａｎｓｈｉ　ＳｈｉＺｈｏｎｇｗａｎｇｌｕｏｋｅｊｉ　ｙｏｕｘｉａｎｇｏｎｇｓｉ,,外国会社等,,,,,,,,ｓｏｎｇｓｈａｎｈｕｙｕａｎｑｕｘｕｅｆｕｌｕｌｈａｏｌｌｄｏｎｇ３０３ｓｈｉ，Ｄｏｎｇｇｕａｎ，Ｇｕａｎｇｄｏｎｇ,,,,,,2023-09-20,1,,,,,ドングウアンシシゾンワンロケジユウゲンコウシ,0
1260,6010001238285,新規,0,2023-09-20,2023-09-20,スタンダードソフトウェア株式会社,,株式会社,東京都,文京区,本郷３丁目３８－１０さかえビル２Ｆ,,13,105,1130033,,,,,,,2023-09-20,1,,,,,スタンダードソフトウェア,0
1261,6010001238509,新規,0,2023-09-20,2023-09-20,株式会社リーガルエクスプローラー,,株式会社,東京都,千代田区,神田三崎町３丁目５番９号,,13,101,1010061,,,,,,,2023-09-20,1,,,,,リーガルエクスプローラー,0
1262,6010001238558,新規,0,2023-09-20,2023-09-20,ＪＰ３株式会社,,株式会社,東京都,中央区,銀座３丁目１３番１１号銀座芦澤ビル３階,,13,102,1040061,,,,,,,2023-09-20,1,,,,,ジェイピースリー,0
1263,6010001238608,新規,0,2023-09-20,2023-09-20,株式会社Ｒａｙｍｙ,,株式会社,東京都,文京区,千石３丁目１番１－３０３号,,13,105,1120011,,,,,,,2023-09-20,1,,,,,レイミー,0
1266,6010003041704,新規,0,2023-09-20,2023-09-20,合同会社Ｆｅｌｉｔｏ,,合同会社,東京都,中央区,銀座７丁目１３番２０号ＴＨビル９階３号館,,13,102,1040061,,,,,,,2023-09-20,1,,,,,フェリト,0
1267,6010003041712,新規,0,2023-09-20,2023-09-20,絆ホールディングス合同会社,,合同会社,東京都,千代田区,六番町６番地２０－２０６,,13,101,1020085,,,,,,,2023-09-20,1,,,,,キズナホールディングス,0
1269,6010005037287,新規,0,2023-09-20,2023-09-20,一般社団法人Ｅｎｉｓｈｉ　Ａｓａｋｕｓａ,,その他の設立登記法人,東京都,中央区,銀座２丁目１０番８号マニエラ銀座ビル４階,,13,102,1040061,,,,,,,2023-09-20,1,,,,,エニシアサクサ,0
1276,6010401177208,新規,0,2023-09-20,2023-09-20,株式会社ＳＵＮＤＯＲＦ,,株式会社,東京都,港区,北青山１丁目３－１アールキューブ青山３階,,13,103,1070061,,,,,,,2023-09-20,1,,,,,サンドルフ,0
1283,6010703006873,新規,0,2023-09-20,2023-09-20,合同会社ｋｓｓｒ,,合同会社,東京都,品川区,北品川５丁目８番１５－１１０７号,,13,109,1410001,,,,,,,2023-09-20,1,,,,,ケイエスエスアール,0
1286,6010803004686,新規,0,2023-09-20,2023-09-20,渡合同会社,,合同会社,東京都,大田区,矢口２丁目４番２５号マルシュクガーデンハウス１０５,,13,111,1460093,,,,,,,2023-09-20,1,,,,,ワタリ,0
1288,6010903008455,新規,0,2023-09-20,2023-09-20,合同会社ＧＹプラニング,,合同会社,東京都,世田谷区,千歳台４丁目３０番６－１０４,,13,112,1570071,,,,,,,2023-09-20,1,,,,,ジーワイプラニング,0
1293,6011003017553,新規,0,2023-09-20,2023-09-20,合同会社ＴＨ,,合同会社,東京都,渋谷区,千駄ヶ谷５丁目１番１０－２０２号,,13,113,1510051,,,,,,,2023-09-20,1,,,,,ティーエイチ,0
1300,6011101104435,新規,0,2023-09-20,2023-09-20,株式会社金魚,,株式会社,東京都,新宿区,歌舞伎町２丁目２番２１号,,13,104,1600021,,,,,,,2023-09-20,1,,,,,キンギョ,0
1305,6011603004059,新規,0,2023-09-20,2023-09-20,Ｇｌｕｅｐ合同会社,,合同会社,東京都,練馬区,南田中５丁目１７－１０,,13,120,1770035,,,,,,,2023-09-20,1,,,,,グループ,0
1306,6011703003596,新規,0,2023-09-20,2023-09-20,Ｇａｍａ　Ｄｉｇｉｔａｌ　Ｔｅｃｈ合同会社,,合同会社,東京都,江戸川区,本一色２丁目１８－２,,13,123,1330044,,,,,,,2023-09-20,1,,,,,ガマデジタルテック,0
1308,6011803005815,新規,0,2023-09-20,2023-09-20,ＳｐｏｒｔｓＣｏｎｎｅｃｔ合同会社,,合同会社,東京都,足立区,新田３丁目３７番１２－７０８号,,13,121,1230865,,,,,,,2023-09-20,1,,,,,スポーツコネクト,0
1310,6012805003229,新規,0,2023-09-20,2023-09-20,医療法人社団紘朋会,,その他の設立登記法人,東京都,国分寺市,本町２丁目２番１号ｃｏｃｏｂｕｎｊｉＥＡＳＴ２階２０２、２０３,,13,214,1850012,,,,,,,2023-09-20,1,,,,,コウホウカイ,0
1311,6013301051366,新規,0,2023-09-20,2023-09-20,ＫＡＮＥＤＡ　ＧＲＯＵＰ株式会社,,株式会社,東京都,豊島区,池袋４丁目３６番１７－３０２号,,13,116,1710014,,,,,,,2023-09-20,1,,,,,カネダグループ,0
1321,6020001153491,新規,0,2023-09-20,2023-09-20,ＳＨＲＥＥＲＡＭ株式会社,,株式会社,神奈川県,川崎市多摩区,生田５丁目８番２０号司ハイツ２０２,,14,135,2140038,,,,,,,2023-09-20,1,,,,,シュリーラム,0
1322,6020001153558,新規,0,2023-09-20,2023-09-20,桂技建株式会社,,株式会社,神奈川県,横浜市金沢区,並木１丁目２０番５－４０１号,,14,108,2360005,,,,,,,2023-09-20,1,,,,,カツラギケン,0
1325,6020003024625,新規,0,2023-09-20,2023-09-20,ｅビジネスサポート合同会社,,合同会社,神奈川県,横浜市中区,真砂町３丁目３３番地,,14,104,2310016,,,,,,,2023-09-20,1,,,,,イービジネスサポート,0
1326,6020003024633,新規,0,2023-09-20,2023-09-20,クラッチラ合同会社,,合同会社,神奈川県,川崎市幸区,古市場２丁目７３,,14,132,2120052,,,,,,,2023-09-20,1,,,,,クラッチラ,0
1343,6030001155883,新規,0,2023-09-20,2023-09-20,板垣プランニング株式会社,,株式会社,埼玉県,さいたま市緑区,東浦和３丁目２６番地８（３０５）,,11,109,3360926,,,,,,,2023-09-20,1,,,,,イタガキプランニング,0
1344,6030001155990,新規,0,2023-09-20,2023-09-20,Ｓ‐ｗｅｓｔ株式会社,,株式会社,埼玉県,久喜市,菖蒲町菖蒲１２３番地ガーデンハウスＢ棟１０２号,,11,232,3460106,,,,,,,2023-09-20,1,,,,,エスウエスト,0
1345,6030001156007,新規,0,2023-09-20,2023-09-20,株式会社ゴールドグリーン,,株式会社,埼玉県,草加市,氷川町３１０番地－２０２号,,11,221,3400034,,,,,,,2023-09-20,1,,,,,ゴールドグリーン,0
1350,6030003022512,新規,0,2023-09-20,2023-09-20,合同会社ブシテック,,合同会社,埼玉県,久喜市,南栗橋６丁目２０番地１９,,11,232,3491117,,,,,,,2023-09-20,1,,,,,ブシテック,0
1351,6030003022537,新規,0,2023-09-20,2023-09-20,合同会社クランクス,,合同会社,埼玉県,さいたま市浦和区,高砂３丁目７番８－１２０６号,,11,107,3300063,,,,,,,2023-09-20,1,,,,,クランクス,0
1360,6040001130150,新規,0,2023-09-20,2023-09-20,三亀リフォーム株式会社,,株式会社,千葉県,千葉市稲毛区,小深町１５番地４稲毛ウェルズ２１－Ｄ号室,,12,103,2630003,,,,,,,2023-09-20,1,,,,,ミツガメリフォーム,0
1369,6050001053508,新規,0,2023-09-20,2023-09-20,株式会社ｔｒｕｓｔ,,株式会社,茨城県,鹿嶋市,大字荒井３２６３番地１,,08,222,3112204,,,,,,,2023-09-20,1,,,,,,0
1376,6050005013334,新規,0,2023-09-20,2023-09-20,医療法人アルプス,,その他の設立登記法人,茨城県,神栖市,波崎７４９９,,08,232,3140408,,,,,,,2023-09-20,1,,,,,アルプス,0
1379,6060001036362,新規,0,2023-09-20,2023-09-20,株式会社江戸草葉,,株式会社,栃木県,真岡市,荒町１０７８番地１花華ビル３Ｆ,,09,209,3214305,,,,,,,2023-09-20,1,,,,,エドソウヨウ,0
1388,6080103002888,新規,0,2023-09-20,2023-09-20,ＴＳ商会合同会社,,合同会社,静岡県,沼津市,大岡２２２１番地の７,,22,203,4100022,,,,,,,2023-09-20,1,,,,,ティーエスショウカイ,0
1391,6100003007191,新規,0,2023-09-20,2023-09-20,合同会社パイプ１１０番,,合同会社,長野県,松本市,渚２丁目８番１８号ＭＡＣコート渚６１１,,20,202,3900841,,,,,,,2023-09-20,1,,,,,パイプヒャクトウバン,0
1392,6110001037850,新規,0,2023-09-20,2023-09-20,株式会社ＡＢＣ整体スタジオ新潟,,株式会社,新潟県,新潟市中央区,東中通１番町１８８番地ホポロ東中通１Ｆ,,15,103,9518116,,,,,,,2023-09-20,1,,,,,エービーシーセイタイスタジオニイガタ,0
1400,6120001258140,新規,0,2023-09-20,2023-09-20,株式会社エフネイト,,株式会社,大阪府,大阪市天王寺区,勝山１丁目９番１６号,,27,109,5430043,,,,,,,2023-09-20,1,,,,,エフネイト,0
1401,6120001258157,新規,0,2023-09-20,2023-09-20,株式会社Ｔｈｉｒｄ　Ｂｏｘ,,株式会社,大阪府,大阪市北区,大淀中４丁目１３－１３－３０３,,27,127,5310076,,,,,,,2023-09-20,1,,,,,サードボックス,0
1406,6120101068209,新規,0,2023-09-20,2023-09-20,株式会社ＥＸコンサルティング,,株式会社,大阪府,河内長野市,昭栄町２番１－２０１号,,27,216,5860025,,,,,,,2023-09-20,1,,,,,イーエックスコンサルティング,0
1413,6130001075213,新規,0,2023-09-20,2023-09-20,株式会社ＥｌｄｅｎＬｉｅｂｅ,,株式会社,京都府,京都市山科区,東野狐藪町２０－３４,,26,110,6078155,,,,,,,2023-09-20,1,,,,,エルデンリーベ,0
1415,6130003008988,新規,0,2023-09-20,2023-09-20,合同会社３６６,,合同会社,京都府,京都市上京区,尼ケ崎横町３５１番３号,,26,102,6028165,,,,,,,2023-09-20,1,,,,,サンロクロク,0
1416,6130003008996,新規,0,2023-09-20,2023-09-20,合同会社ｓｍｉｌｅｙ,,合同会社,京都府,福知山市,字土４番地の１４２,,26,201,6200808,,,,,,,2023-09-20,1,,,,,スマイリー,0
1420,6140001131642,新規,0,2023-09-20,2023-09-20,Ｒｕｌｅｒ株式会社,,株式会社,兵庫県,神戸市中央区,八幡通４丁目２番１２号カサベラＦＲＩＩビル１０階,00131966,28,110,6510085,,,,,,,2023-09-20,1,,,,,ルーラー,0
1421,6140001131675,新規,0,2023-09-20,2023-09-20,株式会社ＵＭＢＥＬＬＡＴＡ,,株式会社,兵庫県,神戸市灘区,篠原本町３丁目２番２１号,,28,102,6570067,,,,,,,2023-09-20,1,,,,,ウンベラータ,0
1423,6140003019563,新規,0,2023-09-20,2023-09-20,モダンライフ合同会社,,合同会社,兵庫県,姫路市,西今宿５丁目５－８,,28,201,6700061,,,,,,,2023-09-20,1,,,,,モダンライフ,0
1424,6140003019571,新規,0,2023-09-20,2023-09-20,合同会社Ｏｆｆｉｃｅ　Ｍａｒｃｈｉｎ,,合同会社,兵庫県,宝塚市,雲雀丘３丁目１番５１号,,28,214,6650805,,,,,,,2023-09-20,1,,,,,オフィスマーチン,0
1427,6140005026748,新規,0,2023-09-20,2023-09-20,一般社団法人ＴＩＬホールディングス,,その他の設立登記法人,兵庫県,芦屋市,東芦屋町９番１１号,00131974,28,206,6590095,,,,,,,2023-09-20,1,,,,,ティーアイエルホールディングス,0
1428,6150001026726,新規,0,2023-09-20,2023-09-20,ＴＡＭＡＲＩＸ株式会社,,株式会社,奈良県,大和郡山市,高田口町４８番地,,29,203,6391133,,,,,,,2023-09-20,1,,,,,タマリクス,0
1437,6160005011228,新規,0,2023-09-20,2023-09-20,医療法人ろこファミリー歯科,,その他の設立登記法人,滋賀県,大津市,中庄１丁目６番１５号,,25,201,5200837,,,,,,,2023-09-20,1,,,,,ロコファミリーシカ,0
1440,6170003001923,新規,0,2023-09-20,2023-09-20,合同会社ポーラ,,合同会社,和歌山県,和歌山市,雑賀町２２番地３０４,,30,201,6408108,,,,,,,2023-09-20,1,,,,,ポーラ,0
1446,6180001158038,新規,0,2023-09-20,2023-09-20,おそうじまま株式会社,,株式会社,愛知県,名古屋市中区,千代田２丁目１０番５号,,23,106,4600012,,,,,,,2023-09-20,1,,,,,オソウジママ,0
1447,6180001158070,新規,0,2023-09-20,2023-09-20,株式会社東栄,,株式会社,愛知県,名古屋市北区,五反田町１４１番地－２０１号,,23,103,4620011,,,,,,,2023-09-20,1,,,,,トウエイ,0
1448,6180001158087,新規,0,2023-09-20,2023-09-20,株式会社ハナマルキ,,株式会社,愛知県,名古屋市緑区,大清水１丁目５０７番地の２,,23,114,4580805,,,,,,,2023-09-20,1,,,,,ハナマルキ,0
1464,6200001041744,新規,0,2023-09-20,2023-09-20,日本河山競売株式会社,,株式会社,岐阜県,岐阜市,東島２丁目１－５,,21,201,5020913,,,,,,,2023-09-20,1,,,,,ニホンカザンキョウバイ,0
1472,6230005009339,新規,0,2023-09-20,2023-09-20,中部医療協同組合連合会,,その他の設立登記法人,富山県,富山市,黒崎３３番地,,16,201,9398214,,,,,,,2023-09-20,1,,,,,チュウブイリョウ,0
1479,6260003004438,新規,0,2023-09-20,2023-09-20,まるな会計合同会社,,合同会社,岡山県,岡山市北区,蕃山町４番５号,,33,101,7000818,,,,,,,2023-09-20,1,,,,,マルナカイケイ,0
1483,6290001103065,新規,0,2023-09-20,2023-09-20,株式会社イトケン,,株式会社,福岡県,福岡市東区,多の津１丁目８－３,,40,131,8130034,,,,,,,2023-09-20,1,,,,,イトケン,0
1486,6290005019150,新規,0,2023-09-20,2023-09-20,特定非営利活動法人日本剱武道中道流武門会,,その他の設立登記法人,福岡県,福岡市博多区,上牟田１丁目１１番１６号サンライズイケダビル３階,,40,132,8120006,,,,,,,2023-09-20,1,,,,,ニッポンケンブドウチュウドウリュウブモンカイ,0
1492,6330003009974,新規,0,2023-09-20,2023-09-20,合同会社コネクト,,合同会社,熊本県,熊本市西区,上熊本３丁目１６番１７号,,43,103,8600079,,,,,,,2023-09-20,1,,,,,コネクト,0
1494,6340003004256,新規,0,2023-09-20,2023-09-20,合同会社Ｒｉｎｋ　Ｓｅｒｖｉｃｅ,,合同会社,鹿児島県,枕崎市,恵比須町４２番地,,46,204,8980009,,,,,,,2023-09-20,1,,,,,リンクサービス,0
1496,6360001032562,新規,0,2023-09-20,2023-09-20,株式会社カナデル,,株式会社,沖縄県,中頭郡北谷町,伊平１丁目４番２５号ベアーズコート桑江ＩＩＩ６０８,00131965,47,326,9040102,,,,,,,2023-09-20,1,,,,,カナデル,0
1497,6360001032570,新規,0,2023-09-20,2023-09-20,オキナナ株式会社,,株式会社,沖縄県,那覇市,松川３丁目１８－３５ＦＬＡＴＳ松川４０５室,,47,201,9020062,,,,,,,2023-09-20,1,,,,,オキナナ,0
1498,6360001032579,新規,0,2023-09-20,2023-09-20,株式会社ＥＧＭ,,株式会社,沖縄県,浦添市,牧港５丁目３番２号,,47,208,9012131,,,,,,,2023-09-20,1,,,,,イージーエム,0
1499,6360003013296,新規,0,2023-09-20,2023-09-20,合同会社にじおと,,合同会社,沖縄県,宜野湾市,神山１丁目３番４０号パークビューニライ３０３号室,,47,205,9012207,,,,,,,2023-09-20,1,,,,,ニジオト,0
1504,6370005010687,新規,0,2023-09-20,2023-09-20,一般社団法人リュミエール仙台,,その他の設立登記法人,宮城県,仙台市青葉区,旭ケ丘１丁目４２－５５－１０５,,04,101,9810904,,,,,,,2023-09-20,1,,,,,リュミエールセンダイ,0
1510,6400001016379,新規,0,2023-09-20,2023-09-20,スターツアーズ株式会社,,株式会社,岩手県,盛岡市,東松園１丁目２４番３号,,03,201,0200106,,,,,,,2023-09-20,1,,,,,スターツアーズ,0
1515,6470001019821,新規,0,2023-09-20,2023-09-20,クローバーズ株式会社,,株式会社,香川県,丸亀市,津森町１０９９番地１,,37,202,7630052,,,,,,,2023-09-20,1,,,,,クローバーズ,0
1516,6480001012214,新規,0,2023-09-20,2023-09-20,株式会社グレースガーデン,,株式会社,徳島県,徳島市,丈六町森ノ木４３－５,,36,201,7714261,,,,,,,2023-09-20,1,,,,,グレースガーデン,0
1519,6500001025205,新規,0,2023-09-20,2023-09-20,株式会社ｍａｄｅ　Ｉｎ,,株式会社,愛媛県,松山市,土手内１８４番地１１,,38,201,7992432,,,,,,,2023-09-20,1,,,,,,0
1523,6700150116610,新規,0,2023-09-20,2023-09-20,ＨＯＮＧＫＯＮＧ　ＢＯＹＵＥ　ＥＬＥＣＴＲＯＮＩＣＳ　ＣＯ．，ＬＩＭＩＴＥＤ,,外国会社等,,,,,,,,ＲＭ　０２　２１／Ｆ　ＨＩＰ　ＫＷＡＮ　ＣＯＭＭ　ＢＬＤＧ　３８　ＰＩＴＴ　ＳＴＲＥＥＴ　ＹＡＵ　ＭＡ　ＴＥＩ　ＫＬ　ＨＯＮＧＫＯＮＧ　９９９０７７　ＨＫ,,,,,,2023-09-20,1,,,,,ホンコンボユエエレクトロニクスカンパニーリミテツド,0
1524,6700150118573,新規,0,2023-09-20,2023-09-20,Ｇｌｅｎｗｏｏｄ　ＧｍｂＨ,,外国会社等,,,,,,,,Ａｒａｂｅｌｌａｓｔｒａｓｓｅ　１７，８１９２５　Ｍｕｎｉｃｈ，Ｇｅｒｍａｎｙ,,,,,,2023-09-20,1,,,,,グレンウツトゲーエムベーハー,0
1525,6700150119885,新規,0,2023-09-20,2023-09-06,労働保険事務組合　黎明会,,その他,静岡県,浜松市中区,城北２丁目４番７号,,22,131,4328011,,,,,,,2023-09-06,1,,,,,ロウドウホケンジムクミアイレイメイカイ,0
1527,6700150120488,新規,0,2023-09-20,2023-09-20,ｆｕｊｉａｎｌｉａｎｄｏｎｇｃｈａｏｎｅｎｇｄｉａｎｚｉｓｈａｎｇｗｕ　ｙｏｕｘｉａｎｇｏｎｇｓｉ,,外国会社等,,,,,,,,ｆｌｏｏｒ　２，１０＃，Ｃｏｍｐｌｅｘ　ｂｕｉｌｄｉｎｇ，Ｇａｏｑｉ　Ｖｉｌｌａｇｅ　ａｎｄ　Ｘｉａｏｑｉ　Ｖｉｌｌａｇｅ，Ｎａｎｙｕ　Ｔｏｗｎ，Ｍｉｎｈｏｕ　Ｃｏｕｎｔｙ，Ｆｕｚｈｏｕ,,,,,,2023-09-20,1,,,,,フッケンリャンドンチャオネンデンシショウムユウゲンコウシ,0
1528,6700150120496,新規,0,2023-09-20,2023-09-20,Ｓｕｚｈｏｕ　Ｋａｓｕｇｉ　Ｉｎｔｅｒｎａｔｉｏｎａｌ　Ｔｒａｄｅ　Ｃｏ．，Ｌｔｄ．,,外国会社等,,,,,,,,Ｒｏｏｍ　３５２７　Ｈｏｎｇｈａｉ　Ｂｕｉｌｄｉｎｇ１　Ｎｏ．７２　Ｘｉｎｇｄｕ　Ｓｔｒｅｅｔ　Ｓｕｚｈｏｕ　Ｉｎｄｕｓｔｒｉａｌ　Ｐａｒｋ　Ｓｕｚｈｏｕ　Ａｒｅａ　Ｃｈｉｎａ（Ｊｉａｎｇｓｕ）Ｐｉｌｏｔ　Ｆｒｅｅ　Ｔｒａｄｅ　Ｚｏｎｅ,,,,,,2023-09-20,1,,,,,スゾォウカスギインターナショナルトレードカンパニーリミテッド,0
1529,6700150120505,新規,0,2023-09-20,2023-09-20,Ｌｕｏｈｅ　Ｒｕｉｑｉ　Ｅ－Ｃｏｍｍｅｒｃｅ　Ｃｏ．，Ｌｔｄ,,外国会社等,,,,,,,,７０６－２－３３，Ｊｉａｎｙｅｙｉｈａｏｃｈｅｎｇｂａｎｇ　４　Ｑｉ，Ｗｅｓｔｅｒｎ　ｏｆ　Ｓｏｎｇｓｈａｎ　Ｅａｓｔ　Ｂｒａｎｃｈ　Ｒｏａｄ　Ｌｕｏｈｅ　Ｈｅｎａｎ　ＣＮ,,,,,,2023-09-20,1,,,,,ロヘルイチイーコマースカンパニーリミテツド,0
1535,7010001238573,新規,0,2023-09-20,2023-09-20,株式会社Ｎ‐ｐａｉｌ,,株式会社,東京都,文京区,湯島３丁目３９番９号３Ｆ,,13,105,1130034,,,,,,,2023-09-20,1,,,,,エヌペイル,0
1537,7010003041711,新規,0,2023-09-20,2023-09-20,合同会社沼津エステート,,合同会社,東京都,千代田区,二番町１番地２,,13,101,1020084,,,,,,,2023-09-20,1,,,,,ヌマヅエステート,0
1544,7010401177248,新規,0,2023-09-20,2023-09-20,株式会社ＤＳ‐Ｃｏｍｐａｎｙ,,株式会社,東京都,港区,六本木４丁目２番４１－３０１号,,13,103,1060032,,,,,,,2023-09-20,1,,,,,ディーエスカンパニー,0
1545,7010401177280,新規,0,2023-09-20,2023-09-20,サザ・アンド・カンパニー株式会社,,株式会社,東京都,港区,南青山２丁目２番１５号,,13,103,1070062,,,,,,,2023-09-20,1,,,,,サザアンドカンパニー,0
1549,7010403030966,新規,0,2023-09-20,2023-09-20,合同会社リトルウッズ,,合同会社,東京都,港区,高輪２丁目１４番１８－４０３号,,13,103,1080074,,,,,,,2023-09-20,1,,,,,リトルウッズ,0
1550,7010405022466,新規,0,2023-09-20,2023-09-20,医療法人社団ＳＫＳ,,その他の設立登記法人,東京都,港区,港南２丁目５番１１号大三洋行品川ビル４階,,13,103,1080075,,,,,,,2023-09-20,1,,,,,エスケーエス,0
1551,7010405022474,新規,0,2023-09-20,2023-09-20,一般社団法人みどりの会,,その他の設立登記法人,東京都,港区,虎ノ門１丁目１７番１号虎ノ門ヒルズビジネスタワー１５階,,13,103,1050001,,,,,,,2023-09-20,1,,,,,ミドリノカイ,0
1554,7010701044866,新規,0,2023-09-20,2023-09-20,株式会社ドット,,株式会社,東京都,品川区,西品川１丁目１番１号住友不動産大崎ガーデンタワー９階トンネル東京,,13,109,1410033,,,,,,,2023-09-20,1,,,,,ドット,0
1555,7010703006872,新規,0,2023-09-20,2023-09-20,インダイレクト合同会社,,合同会社,東京都,品川区,東品川３丁目１０－１－９０９,,13,109,1400002,,,,,,,2023-09-20,1,,,,,インダイレクト,0
1557,7010801034338,新規,0,2023-09-20,2023-09-20,株式会社アラテイク,,株式会社,東京都,大田区,池上７丁目９番８号ガーデンホーム池上３０４,,13,111,1460082,,,,,,,2023-09-20,1,,,,,アラテイク,0
1559,7010803004685,新規,0,2023-09-20,2023-09-20,合同会社ビックジュン,,合同会社,東京都,大田区,西蒲田８丁目２３番１－２１３号,,13,111,1440051,,,,,,,2023-09-20,1,,,,,ビックジュン,0
1561,7010901053849,新規,0,2023-09-20,2023-09-20,株式会社ＴＶＥＣ,,株式会社,東京都,世田谷区,玉川１丁目１７番２１号,,13,112,1580094,,,,,,,2023-09-20,1,,,,,ティーベック,0
1565,7010903008454,新規,0,2023-09-20,2023-09-20,Ｊ．Ｍ．Ｃ合同会社,,合同会社,東京都,世田谷区,経堂２丁目２７番２１号,,13,112,1560052,,,,,,,2023-09-20,1,,,,,ジェイエムシー,0
1574,7011001156856,新規,0,2023-09-20,2023-09-20,ＤＡ　ＶＩＤＡ　ＪＡＰＡＮ株式会社,,株式会社,東京都,渋谷区,渋谷２丁目１０番１５号,,13,113,1500002,,,,,,,2023-09-20,1,,,,,ダビダジャパン,0
1575,7011101104434,新規,0,2023-09-20,2023-09-20,株式会社ユーロイノベーションズ,,株式会社,東京都,新宿区,四谷４丁目２番地１ミッドタウンコンド四谷５０３,,13,104,1600004,,,,,,,2023-09-20,1,,,,,ユーロイノベーションズ,0
1578,7011103013501,新規,0,2023-09-20,2023-09-20,合同会社マルス,,合同会社,東京都,新宿区,歌舞伎町２丁目１９－５デュオスカーラ新宿ツー９０４,,13,104,1600021,,,,,,,2023-09-20,1,,,,,マルス,0
1579,7011201024920,新規,0,2023-09-20,2023-09-20,Ｆｉｌａｔｏ株式会社,,株式会社,東京都,中野区,中央５丁目４８番２エスティメゾン中野５０５号,,13,114,1640011,,,,,,,2023-09-20,1,,,,,フィラートー,0
1581,7011203004177,新規,0,2023-09-20,2023-09-20,合同会社オフィス・カンナナ,,合同会社,東京都,中野区,野方４丁目１５－１０,,13,114,1650027,,,,,,,2023-09-20,1,,,,,オフィスカンナナ,0
1586,7012403006186,新規,0,2023-09-20,2023-09-20,ブラックウェル合同会社,,合同会社,東京都,武蔵野市,吉祥寺本町３丁目３番１０号,,13,203,1800004,,,,,,,2023-09-20,1,,,,,ブラックウェル,0
1589,7012801022636,新規,0,2023-09-20,2023-09-20,株式会社京南エステート,,株式会社,東京都,昭島市,拝島町３丁目３番３７号,,13,207,1960002,,,,,,,2023-09-20,1,,,,,キョウナンエステート,0
1590,7012805003228,新規,0,2023-09-20,2023-09-20,医療法人社団いぶき,,その他の設立登記法人,東京都,武蔵村山市,大南５丁目７２番地４,,13,223,2080013,,,,,,,2023-09-20,1,,,,,イブキ,0
1593,7013301051357,新規,0,2023-09-20,2023-09-20,株式会社四萬堂,,株式会社,東京都,豊島区,西池袋５丁目２７番７号シティハウス西池袋１３０８,,13,116,1710021,,,,,,,2023-09-20,1,,,,,ヨンマンドウ,0
1601,7020001153540,新規,0,2023-09-20,2023-09-20,株式会社ｓａｆｒａ,,株式会社,神奈川県,横浜市西区,みなとみらい４丁目９番２－Ｃ２２０９号,,14,103,2200012,,,,,,,2023-09-20,1,,,,,サフラ,0
1602,7020001153581,新規,0,2023-09-20,2023-09-20,株式会社導き,,株式会社,神奈川県,横浜市青葉区,しらとり台３５番地７－３０４号,,14,117,2270054,,,,,,,2023-09-20,1,,,,,ミチビキ,0
1609,7020003024599,新規,0,2023-09-20,2023-09-20,ＳＨＲＩＮＥＳ　ＧＡＴＥ合同会社,,合同会社,神奈川県,横浜市中区,桜木町１丁目１－７ヒューリックみなとみらい１０階,,14,104,2310062,,,,,,,2023-09-20,1,,,,,シュラインズゲート,0
1611,7021001080196,新規,0,2023-09-20,2023-09-20,日本来威株式会社,00131964,株式会社,神奈川県,海老名市,上郷１丁目１番１号海老名マンション２０１,,14,215,2430434,,,,,,,2023-09-20,1,,,,,ニホンライイ,0
1612,7021001080213,新規,0,2023-09-20,2023-09-20,グリーンサワ株式会社,,株式会社,神奈川県,伊勢原市,沼目３丁目１番５１号,,14,214,2591126,,,,,,,2023-09-20,1,,,,,グリーンサワ,0
1623,7030001155932,新規,0,2023-09-20,2023-09-20,株式会社ワンデイトゥーゴー,,株式会社,埼玉県,さいたま市桜区,西堀７丁目１９番６号,,11,106,3380832,,,,,,,2023-09-20,1,,,,,ワンデイトゥーゴー,0
1624,7030001155965,新規,0,2023-09-20,2023-09-20,株式会社ゲットクリーンエナジー,,株式会社,埼玉県,北足立郡伊奈町,西小針３丁目２８１番地３,,11,301,3620811,,,,,,,2023-09-20,1,,,,,ゲットクリーンエナジー,0
1625,7030001155998,新規,0,2023-09-20,2023-09-20,株式会社彩翔,,株式会社,埼玉県,上尾市,大字原市２０６６番地１,,11,219,3620021,,,,,,,2023-09-20,1,,,,,サイショウ,0
1627,7030003022602,新規,0,2023-09-20,2023-09-20,ＤＤＰ合同会社,,合同会社,埼玉県,本庄市,小島南２丁目３番３０号ハイツもみじ１０５号,,11,211,3670062,,,,,,,2023-09-20,1,,,,,デデペ,0
1637,7040001130141,新規,0,2023-09-20,2023-09-20,株式会社ＩＷ．ＣＯＭＰＡＮＹ,,株式会社,千葉県,市川市,稲越１丁目２９番３９号,,12,203,2720831,,,,,,,2023-09-20,1,,,,,アイダブリューカンパニー,0
1638,7040001130158,新規,0,2023-09-20,2023-09-20,株式会社トリニティ,,株式会社,千葉県,松戸市,六実３丁目１２番地の３コーポラスフジシロ２０１号,,12,207,2702204,,,,,,,2023-09-20,1,,,,,トリニティ,0
1642,7050003007799,新規,0,2023-09-20,2023-09-20,合同会社福祉未来ラボ,,合同会社,茨城県,水戸市,元吉田町８１７－８,,08,201,3100836,,,,,,,2023-09-20,1,,,,,フクシミライラボ,0
1649,7060003004721,新規,0,2023-09-20,2023-09-20,合同会社エテ・ネートル,,合同会社,栃木県,小山市,大字大行寺９７０番地ウイングハイツ小山２１０号,,09,208,3230041,,,,,,,2023-09-20,1,,,,,エテネートル,0
1653,7080101024207,新規,0,2023-09-20,2023-09-20,株式会社サンビエン,,株式会社,静岡県,富士市,原田３２９番地の１４,,22,210,4170852,,,,,,,2023-09-20,1,,,,,サンビエン,0
1658,7100003007190,新規,0,2023-09-20,2023-09-20,合同会社お助け村松,,合同会社,長野県,下伊那郡天龍村,平岡１３３４番地１１,,20,413,3991201,,,,,,,2023-09-20,1,,,,,オタスケムラマツ,0
1665,7120001258049,新規,0,2023-09-20,2023-09-20,孝莱商事株式会社,,株式会社,大阪府,大阪市中央区,松屋町９番２０号ローレルステート松屋町５０７Ａ,,27,128,5420067,,,,,,,2023-09-20,1,,,,,コウライショウジ,0
1666,7120001258098,新規,0,2023-09-20,2023-09-20,株式会社Ａｎｙｏｎｅ,,株式会社,大阪府,大阪市城東区,諏訪３丁目６番２２号,,27,118,5360021,,,,,,,2023-09-20,1,,,,,エニワン,0
1668,7120003024886,新規,0,2023-09-20,2023-09-20,Ｐｒｉｍｅ　ｏｎｅ　Ｎｅｘｔ合同会社,,合同会社,大阪府,大阪市都島区,友渕町２丁目９番２３－５０５号,,27,102,5340016,,,,,,,2023-09-20,1,,,,,プライムワンネクスト,0
1673,7122001037390,新規,0,2023-09-20,2023-09-20,株式会社Ｙ．Ｗｏｒｋｓ,,株式会社,大阪府,東大阪市,森河内西１丁目１２番１１号,,27,227,5770061,,,,,,,2023-09-20,1,,,,,ワイワークス,0
1680,7130001075303,新規,0,2023-09-20,2023-09-20,株式会社ＬＩＮＫＵ,,株式会社,京都府,京都市中京区,三条通新町西入釜座町２２番地,,26,104,6048241,,,,,,,2023-09-20,1,,,,,リンク,0
1686,7130003008979,新規,0,2023-09-20,2023-09-20,合同会社ダイヤモンド,,合同会社,京都府,京都市右京区,西院平町５番地アルバドール山双４０２号室,,26,108,6160000,,,,,,,2023-09-20,1,,,,,ダイヤモンド,0
1687,7130003008995,新規,0,2023-09-20,2023-09-20,合同会社デザイン・プラス,,合同会社,京都府,京都市下京区,朱雀宝蔵町４４番地協栄ビル２階京都朱雀スタジオ,,26,106,6008846,,,,,,,2023-09-20,1,,,,,デザインプラス,0
1695,7140001131682,新規,0,2023-09-20,2023-09-20,株式会社Ｍ’ｓ　Ｃｏｍｐａｎｙ,,株式会社,兵庫県,尼崎市,塚口町１丁目２５番地の１３クレオ塚口２０２号,,28,202,6610002,,,,,,,2023-09-20,1,,,,,エムズカンパニー,0
1698,7140003019554,新規,0,2023-09-20,2023-09-20,合同会社ＡＣＴ,,合同会社,兵庫県,神戸市中央区,生田町４丁目３－１－１０１,,28,110,6510092,,,,,,,2023-09-20,1,,,,,アクト,0
1699,7140003019562,新規,0,2023-09-20,2023-09-20,ひよどり台歯科クリニック合同会社,,合同会社,兵庫県,神戸市北区,ひよどり台南町１丁目１５番地の１４７,,28,109,6511125,,,,,,,2023-09-20,1,,,,,ヒヨドリダイシカクリニック,0
1700,7140003019570,新規,0,2023-09-20,2023-09-20,小跡合同会社,,合同会社,兵庫県,西宮市,門戸荘１８－７５,,28,204,6620825,,,,,,,2023-09-20,1,,,,,コセキ,0
1702,7140005026747,新規,0,2023-09-20,2023-09-20,一般社団法人み・ら・い,,その他の設立登記法人,兵庫県,淡路市,岩屋４２２番地４,,28,226,6562401,,,,,,,2023-09-20,1,,,,,ミライ,0
1705,7170003001922,新規,0,2023-09-20,2023-09-20,ノビー・アンド・カンパニー合同会社,,合同会社,和歌山県,岩出市,西安上３１１番地の１３５,,30,209,6496255,,,,,,,2023-09-20,1,,,,,ノビーアンドカンパニー,0
1708,7180001158078,新規,0,2023-09-20,2023-09-20,株式会社鈴建,,株式会社,愛知県,一宮市,小信中島字仁井西３３番地,,23,203,4940007,,,,,,,2023-09-20,1,,,,,スズケン,0
1712,7180003025755,新規,0,2023-09-20,2023-09-20,合同会社安寧組,,合同会社,愛知県,名古屋市守山区,深沢２丁目１２７番地,,23,113,4630811,,,,,,,2023-09-20,1,,,,,アンネイグミ,0
1713,7180003025763,新規,0,2023-09-20,2023-09-20,合同会社ＵＲＵ,,合同会社,愛知県,名古屋市中村区,太閤１丁目２０番１０号名古屋プレミアム医療モール太閤４階,,23,105,4530801,,,,,,,2023-09-20,1,,,,,ウル,0
1721,7200001041743,新規,0,2023-09-20,2023-09-20,Ｔｏ　ｂｅ　ｃｏｎｎｅｃｔｅｄ株式会社,,株式会社,岐阜県,岐阜市,東鶉２丁目６番地８,,21,201,5008281,,,,,,,2023-09-20,1,,,,,トゥービーコネクテェド,0
1722,7200003006091,新規,0,2023-09-20,2023-09-20,ＮＵＲ　ＡＴＨＩＹＡ　ＴＲＡＤＩＮＧ合同会社,,合同会社,岐阜県,土岐市,泉町久尻３０番地の７の１,,21,212,5095142,,,,,,,2023-09-20,1,,,,,ヌルアティヤトレーディング,0
1731,7240003006294,新規,0,2023-09-20,2023-09-20,合同会社ママコミュ,,合同会社,広島県,広島市佐伯区,石内東２丁目８－８,,34,108,7315162,,,,,,,2023-09-20,1,,,,,ママコミュ,0
1735,7260003004437,新規,0,2023-09-20,2023-09-20,合同会社サプリメン,,合同会社,岡山県,倉敷市,吉岡４３２番地１,,33,202,7100842,,,,,,,2023-09-20,1,,,,,サプリメン,0
1740,7290001103072,新規,0,2023-09-20,2023-09-20,カプセルコーポレーション株式会社,,株式会社,福岡県,春日市,千歳町１丁目３４番１号,,40,218,8160805,,,,,,,2023-09-20,1,,,,,カプセルコーポレーション,0
1743,7290801029888,新規,0,2023-09-20,2023-09-20,株式会社未来シナジー,,株式会社,福岡県,北九州市小倉北区,篠崎４丁目８番３１－２０２号,,40,106,8030861,,,,,,,2023-09-20,1,,,,,ミライシナジー,0
1748,7320001020009,新規,0,2023-09-20,2023-09-20,株式会社Ａｃｔ住宅設備,,株式会社,大分県,玖珠郡玖珠町,大字岩室７５０番地,,44,462,8794405,,,,,,,2023-09-20,1,,,,,アクトジュウタクセツビ,0
1753,7340003004255,新規,0,2023-09-20,2023-09-20,合同会社ＭＯＴＯＹＯＳＨＩ,,合同会社,鹿児島県,鹿児島市,上荒田町３５－５みずほ福永ビル１Ｆ１０２,,46,201,8900055,,,,,,,2023-09-20,1,,,,,モトヨシ,0
1755,7350003004436,新規,0,2023-09-20,2023-09-20,合同会社ラフテル,,合同会社,宮崎県,宮崎市,清武町加納甲２２５４番地１サニーコート平野３０８号,,45,201,8891605,,,,,,,2023-09-20,1,,,,,ラフテル,0
1757,7360001032561,新規,0,2023-09-20,2023-09-20,株式会社ローズ,,株式会社,沖縄県,宮古島市,平良字東仲宗根添２４９１番地１,,47,214,9060011,,,,,,,2023-09-20,1,,,,,ローズ,0
1758,7360003013287,新規,0,2023-09-20,2023-09-20,合同会社藤川商事,,合同会社,沖縄県,宜野湾市,上原１丁目１２番１０号,,47,205,9012204,,,,,,,2023-09-20,1,,,,,フジカワショウジ,0
1759,7360003013295,新規,0,2023-09-20,2023-09-20,合同会社美らＰｅａｃｈ．,,合同会社,沖縄県,石垣市,字新川１０９番地２,,47,207,9070024,,,,,,,2023-09-20,1,,,,,チュラピーチ,0
1765,7380001033987,新規,0,2023-09-20,2023-09-20,株式会社ＯＺ,,株式会社,福島県,郡山市,字道場４０３番地,,07,203,9638824,,,,,,,2023-09-20,1,,,,,オズ,0
1779,7500001025204,新規,0,2023-09-20,2023-09-20,株式会社Ｄｒ．ＥＳＴＲＡ,,株式会社,愛媛県,松山市,此花町７番３３号,,38,201,7900863,,,,,,,2023-09-20,1,,,,,ドクターエストラ,0
1780,7700150117698,新規,0,2023-09-20,2023-09-20,Ｓｈｅｎｚｈｅｎ　６ａｍ　ｌｉｆｅｓｔｙｌｅ　Ｔｅｃｈｎｏｌｏｇｙ　Ｃｏ．，Ｌｔｄ,,外国会社等,,,,,,,,ＤｏｎｇＨａｉＷａｎｇ　ＧｏｎｇＹｅＱｕ　Ａ　Ｄｏｎｇ　Ａ２０１Ａ，ＬｏｎｇＧａｎｇＱｕ，ＢａｎＴｉａｎＪｉｅＤａｏ　ＭａＡｎＴａｎｇＳｈｅＱｕ　ＢｕＬｏｎｇＬｕ　３６９，Ｇｕａｎｇｄｏｎｇ　Ｓｈｅｎｚｈｅｎ，ＣＮ　Ｓｈｅｎｚｈｅｎ　５１８０００　ＣＮ,,,,,,2023-09-20,1,,,,,シエンチエンシツクスエーエムライフスタイルテクノロジーカンパニーリミテツド,0
1781,7700150117707,新規,0,2023-09-20,2023-09-20,Ｓｈｅｎｚｈｅｎｓｈｉ　Ｆａｎｘｉｎｇｓｈｕｏ　Ｔｅｃｈｎｏｌｏｇｙ　Ｃｏ．，Ｌｔｄ,,外国会社等,,,,,,,,ｌｏｎｇｈｕａｑｕｍｉｎｚｈｉｊｉｅｄａｏｍｉｎｔａｉｓｈｅｑｕ　ｘｉｎｇｈｅｓｈｅｎｇｓｈｉＡ１－Ａ６ｄｏｎｇＡ１ｄａｎｙｕａｎ１２０１－１２０２　ｓｈｅｎｚｈｅｎｓｈｉ　ｇｕａｎｇｄｏｎｇ　５１８０００　ＣＮ,,,,,,2023-09-20,1,,,,,シエンチエンシフアンシンシユオテクノロジーカンパニーリミテツド,0
1782,7700150120487,新規,0,2023-09-20,2023-09-20,ｈｕｚｈｏｕｓｈｉｙｉｎｇｂａｎｇｓｈａｎｇｍａｏ　ｙｏｕｘｉａｎｇｏｎｇｓｉ,,外国会社等,,,,,,,,ｗｕｘｉｎｇｑｕｈｕａｎｚｈｕｊｉｅｄａｏｈｕａｎｚｈｕｇｏｎｇｙｅｙｕａｎｑｕｊｉｒｓｕｏｌｕ１８８ｈａｏ９ｚｈｕａｎｇ４３９ｓｈｉ　ｈｕｚｈｏｕｓｈｉ　ｚｈｅｊｉａｎｇｓｈｅｎｇ,,,,,,2023-09-20,1,,,,,フゾォウシインバンシャンマオユウゲンコウシ,0
1783,7700150120495,新規,0,2023-09-20,2023-09-20,Ｓｈｅｎｚｈｅｎ　Ｔａｎｇ　Ｐｕ　Ｓｅｎ　Ｅ－Ｃｏｍｍｅｒｃｅ　Ｃｏ．，Ｌｔｄ,,外国会社等,,,,,,,,５Ｆ　Ｂｌｏｃｋ　Ｅ，Ｘｉｎｘｉｏｎｇ　Ｉｎｄｕｓｔｒｉａｌ　Ｚｏｎｅ，Ｇｕｓｈｕ　１ｓｔ　Ｒｏａｄ，Ｘｉｘｉａｎｇ　Ｓｔｒｅｅｔ，Ｂａｏ’ａｎ　Ｄｉｓｔｒｉｃｔ，Ｓｈｅｎｚｈｅｎ,,,,,,2023-09-20,1,,,,,シンセンタンプセンイーコマースカンパニーリミテッド,0
1784,7700150120504,新規,0,2023-09-20,2023-09-20,Ｓｈｅｎｚｈｅｎ　Ｚｈｕｏｙｉｚｈｕａｎｇｓｈｉｐｉｎｇ　ｙｏｕｘｉａｎｇｏｎｇｓｉ,,外国会社等,,,,,,,,Ｆｕｈａｉｊｉｅｄａｏ　Ｘｉｎｈｅ　３－５－５　１０２＃　Ｓｈｅｎｚｈｅｎ　Ｇｕａｎｇｄｏｎｇ,,,,,,2023-09-20,1,,,,,シンセンゾウオイズウアンシピンユウゲンコウシ,0
1790,8010001238556,新規,0,2023-09-20,2023-09-20,株式会社アシスト,,株式会社,東京都,中央区,日本橋兜町１７番１号日本橋ロイヤルプラザ７０６,,13,102,1030026,,,,,,,2023-09-20,1,,,,,アシスト,0
1791,8010001238589,新規,0,2023-09-20,2023-09-20,ＣｏＣｏ株式会社,,株式会社,東京都,千代田区,神田三崎町２丁目１０番１１号Ｐｅｇビル４Ａ－２号室,,13,101,1010061,,,,,,,2023-09-20,1,,,,,ココ,0
1792,8010003041710,新規,0,2023-09-20,2023-09-20,合同会社清水エステート,,合同会社,東京都,千代田区,二番町１番地２,,13,101,1020084,,,,,,,2023-09-20,1,,,,,シミズエステート,0
1797,8010005037285,新規,0,2023-09-20,2023-09-20,ジェイ・シー・エイチ・ワン特定目的会社,,その他の設立登記法人,東京都,千代田区,丸の内３丁目１番１号東京共同会計事務所内,,13,101,1000005,,,,,,,2023-09-20,1,,,,,ジェイシーエイチワン,0
1798,8010005037293,新規,0,2023-09-20,2023-09-20,一般社団法人江戸町人文化芸術研究所,,その他の設立登記法人,東京都,中央区,日本橋堀留町２丁目３番８号,,13,102,1030012,,,,,,,2023-09-20,1,,,,,エドチョウニンブンカゲイジュツケンキュウジョ,0
1799,8010101015822,新規,0,2023-09-20,2023-09-20,日吉緑化株式会社,,株式会社,東京都,八王子市,大船町４０６番地５,,13,201,1930935,,,,,,,2023-09-20,1,,,,,ヒヨシリョクカ,0
1800,8010103002208,新規,0,2023-09-20,2023-09-20,合同会社福と,,合同会社,東京都,八王子市,堀之内３丁目３２番地６ハイホーム京王堀之内４０６号,,13,201,1920355,,,,,,,2023-09-20,1,,,,,フクト,0
1809,8010401177206,新規,0,2023-09-20,2023-09-20,株式会社Ｌｕｚ,,株式会社,東京都,港区,北青山１丁目３番１号アールキューブ青山３階,,13,103,1070061,,,,,,,2023-09-20,1,,,,,ルース,0
1810,8010401177247,新規,0,2023-09-20,2023-09-20,株式会社８１Ｌａｂ,,株式会社,東京都,港区,南青山３丁目１番３６号青山丸竹ビル６Ｆ,,13,103,1070062,,,,,,,2023-09-20,1,,,,,ハイラボ,0
1812,8010403030973,新規,0,2023-09-20,2023-09-20,合同会社大阪本町アドバイザーズワン,,合同会社,東京都,港区,虎ノ門３丁目１８番１２－５０２号株式会社虎ノ門会計神谷町分室内,,13,103,1050001,,,,,,,2023-09-20,1,,,,,オオサカホンマチアドバイザーズワン,0
1814,8010405022473,新規,0,2023-09-20,2023-09-20,医療法人社団爽醒会,,その他の設立登記法人,東京都,港区,新橋１丁目１５番７号新橋ＮＦビル３階,,13,103,1050004,,,,,,,2023-09-20,1,,,,,ソウセイカイ,0
1817,8010603010362,新規,0,2023-09-20,2023-09-20,東裕合同会社,,合同会社,東京都,江東区,東陽４丁目６－３東陽ビル４Ｆ,,13,108,1350016,,,,,,,2023-09-20,1,,,,,トウユウ,0
1818,8010701044865,新規,0,2023-09-20,2023-09-20,東京八達商事株式会社,,株式会社,東京都,品川区,東五反田３丁目１０番２０号,,13,109,1410022,,,,,,,2023-09-20,1,,,,,トウキョウハッタツショウジ,0
1819,8010703006871,新規,0,2023-09-20,2023-09-20,ＴＳＣＡ合同会社,,合同会社,東京都,品川区,東品川１丁目３３－１０,,13,109,1400002,,,,,,,2023-09-20,1,,,,,タスカ,0
1824,8010803004684,新規,0,2023-09-20,2023-09-20,合同会社ｉｎｎｅｒ　ｐｅａｃｅ,,合同会社,東京都,大田区,大森北１丁目３０番５－５０２号,,13,111,1430016,,,,,,,2023-09-20,1,,,,,インナーピース,0
1826,8010901053848,新規,0,2023-09-20,2023-09-20,株式会社Ｔｓｕｋｉ　Ｉｍａｇｉｎｇ,,株式会社,東京都,世田谷区,南烏山１丁目１０番２５号グランディオール芦花４０８,,13,112,1570062,,,,,,,2023-09-20,1,,,,,ツキイメージング,0
1830,8011001156979,新規,0,2023-09-20,2023-09-20,ＹｏＨｏ株式会社,,株式会社,東京都,渋谷区,神宮前４丁目３－１５東京セントラル表参道１２０号室,,13,113,1500001,,,,,,,2023-09-20,1,,,,,ヨーホー,0
1831,8011001156995,新規,0,2023-09-20,2023-09-20,株式会社ＢＡＫＥＡＴ,,株式会社,東京都,目黒区,駒場２丁目９－９,,13,110,1530041,,,,,,,2023-09-20,1,,,,,ベイキート,0
1834,8011005010216,新規,0,2023-09-20,2023-09-20,医療法人社団Ｇ．Ｙ．Ａ．ｄｅｎｔａｌ,,その他の設立登記法人,東京都,渋谷区,西原３丁目２番４号丸幸ビル１階,,13,113,1510066,,,,,,,2023-09-20,1,,,,,ジーワイエーデンタル,0
1835,8011101104417,新規,0,2023-09-20,2023-09-20,株式会社Ａｒｅｔｅ‐３１５,,株式会社,東京都,新宿区,新宿１丁目３１番７号新宿御苑ダイカンプラザ６０１,,13,104,1600022,,,,,,,2023-09-20,1,,,,,アレテスリーワンファイブ,0
1841,8011501029791,新規,0,2023-09-20,2023-09-20,株式会社ワルツ,,株式会社,東京都,荒川区,荒川６丁目４６番１２号,,13,118,1160002,,,,,,,2023-09-20,1,,,,,ワルツ,0
1846,8012801022635,新規,0,2023-09-20,2023-09-20,株式会社丸正商事,,株式会社,東京都,武蔵村山市,学園１丁目５９番地の１キタミマンション１０３号,,13,223,2080011,,,,,,,2023-09-20,1,,,,,マルマサショウジ,0
1847,8013301051356,新規,0,2023-09-20,2023-09-20,株式会社トライアドバンス,,株式会社,東京都,豊島区,南池袋４丁目２３－９－７０１,,13,116,1710022,,,,,,,2023-09-20,1,,,,,トライアドバンス,0
1850,8020001153556,新規,0,2023-09-20,2023-09-20,株式会社宮塾,,株式会社,神奈川県,横浜市鶴見区,矢向２丁目１５番１０号３０２,,14,101,2300001,,,,,,,2023-09-20,1,,,,,ミヤジュク,0
1857,8021001080212,新規,0,2023-09-20,2023-09-20,株式会社Ｌｉｆｅ　ｉｓ,,株式会社,神奈川県,愛甲郡愛川町,中津７４１７番地,,14,401,2430303,,,,,,,2023-09-20,1,,,,,ライフイズ,0
1858,8021001080220,新規,0,2023-09-20,2023-09-20,Ｔ‐ｐｒｏｊｅｃｔ株式会社,,株式会社,神奈川県,藤沢市,遠藤６２８番地の１コアロード湘南Ａ２０３,,14,205,2520816,,,,,,,2023-09-20,1,,,,,ティープロジェクト,0
1859,8021001080237,新規,0,2023-09-20,2023-09-20,株式会社ジョルジュ,,株式会社,神奈川県,鎌倉市,長谷２丁目８番５号鎌倉コートハウス１１２,,14,204,2480016,,,,,,,2023-09-20,1,,,,,ジョルジュ,0
1866,8030001155873,新規,0,2023-09-20,2023-09-20,株式会社油化サービス,,株式会社,埼玉県,戸田市,大字新曽１１８０番地エレガンス松原１０１,,11,224,3350021,,,,,,,2023-09-20,1,,,,,ユカサービス,0
1867,8030001155964,新規,0,2023-09-20,2023-09-20,株式会社アルファダイレクト,,株式会社,埼玉県,川口市,朝日３丁目１６番４－１０７号,,11,203,3320001,,,,,,,2023-09-20,1,,,,,アルファダイレクト,0
1868,8030001155980,新規,0,2023-09-20,2023-09-20,株式会社ライズ,,株式会社,埼玉県,川口市,西川口４丁目１９番２３－１２０１号,,11,203,3320021,,,,,,,2023-09-20,1,,,,,ライズ,0
1869,8030001155989,新規,0,2023-09-20,2023-09-20,カワグチ防災株式会社,,株式会社,埼玉県,志木市,柏町２丁目８番２５号,,11,228,3530007,,,,,,,2023-09-20,1,,,,,カワグチボウサイ,0
1870,8030001156013,新規,0,2023-09-20,2023-09-20,株式会社モノゴコロ,,株式会社,埼玉県,川口市,大字赤井６０４番地の８,,11,203,3340073,,,,,,,2023-09-20,1,,,,,モノゴコロ,0
1873,8030003022510,新規,0,2023-09-20,2023-09-20,ＭＵＳＵＢＩ合同会社,,合同会社,埼玉県,川越市,霞ケ関東４丁目５番地３,,11,201,3501103,,,,,,,2023-09-20,1,,,,,ムスビ,0
1874,8030003022519,新規,0,2023-09-20,2023-09-20,久鋭産業合同会社,,合同会社,埼玉県,ふじみ野市,鶴ケ岡４丁目１番３４号,,11,245,3560045,,,,,,,2023-09-20,1,,,,,キュウエイサンギョウ,0
1877,8040001130132,新規,0,2023-09-20,2023-09-20,株式会社Ｎｅｘｔ　Ｇｅｎｅｒａｔｉｏｎｓ,,株式会社,千葉県,佐倉市,岩富町４１０番地,,12,212,2850072,,,,,,,2023-09-20,1,,,,,ネクストジェネレーションズ,0
1881,8040003023359,新規,0,2023-09-20,2023-09-20,ｆｅａｔ．Ｅｎｔｅｒｔａｉｎｍｅｎｔ合同会社,,合同会社,千葉県,白井市,中２０５,,12,232,2701406,,,,,,,2023-09-20,1,,,,,フューチャリングエンターテイメント,0
1885,8040005022111,新規,0,2023-09-20,2023-09-20,特定非営利活動法人ほしのかけはし,,その他の設立登記法人,千葉県,柏市,東中新宿４丁目６番２７号,,12,217,2770061,,,,,,,2023-09-20,1,,,,,ホシノカケハシ,0
1887,8050001053497,新規,0,2023-09-20,2023-09-20,株式会社ＩＫｉ,,株式会社,茨城県,筑西市,横塚９００番地１,,08,227,3091116,,,,,,,2023-09-20,1,,,,,イキ,0
1896,8080101024222,新規,0,2023-09-20,2023-09-20,株式会社Ｃｌｅａｎ　ｏｆ　Ｈｅａｒｔｓ,,株式会社,静岡県,田方郡函南町,大土肥５９番地の１エスポール函南４０３,,22,325,4190113,,,,,,,2023-09-20,1,,,,,クリーンオブハーツ,0
1898,8080403004871,新規,0,2023-09-20,2023-09-20,合同会社杏樹,,合同会社,静岡県,浜松市中区,船越町一丁目－１０,,22,131,4300913,,,,,,,2023-09-20,1,,,,,アンジュ,0
1904,8110001037849,新規,0,2023-09-20,2023-09-20,株式会社ＫＳ,,株式会社,新潟県,南魚沼郡湯沢町,大字三国字下ヨリヘ１８１番地１,,15,461,9496212,,,,,,,2023-09-20,1,,,,,ケーエス,0
1908,8120001258048,新規,0,2023-09-20,2023-09-20,株式会社ステープルドン,,株式会社,大阪府,大阪市中央区,松屋町９番２０号ローレルステート松屋町７０９Ａ,,27,128,5420067,,,,,,,2023-09-20,1,,,,,ステープルドン,0
1911,8120901048077,新規,0,2023-09-20,2023-09-20,ａｎｄ　Ｎ株式会社,,株式会社,大阪府,豊中市,岡町２番１６－Ａ２０２号,,27,203,5610885,,,,,,,2023-09-20,1,,,,,アンドエヌ,0
1917,8130001075228,新規,0,2023-09-20,2023-09-20,アルパカ不動産株式会社,,株式会社,京都府,京都市上京区,西丸太町１８５京都二条ハイツ３０２,,26,102,6028148,,,,,,,2023-09-20,1,,,,,アルパカフドウサン,0
1920,8130003008994,新規,0,2023-09-20,2023-09-20,ベリー合同会社,,合同会社,京都府,京田辺市,田辺深田１２番地８,,26,211,6100331,,,,,,,2023-09-20,1,,,,,,0
1924,8140001131665,新規,0,2023-09-20,2023-09-20,株式会社Ｂｒｅａｋ,,株式会社,兵庫県,神戸市中央区,下山手通４丁目１番１７号丸中ビル４０７,,28,110,6500011,,,,,,,2023-09-20,1,,,,,ブレイク,0
1925,8140001131673,新規,0,2023-09-20,2023-09-20,株式会社モルゲンレーテ,,株式会社,兵庫県,神戸市中央区,磯上通８丁目１番２９号カサベラビルＣ＆Ｍ４０３号室,,28,110,6510086,,,,,,,2023-09-20,1,,,,,モルゲンレーテ,0
1928,8140003019561,新規,0,2023-09-20,2023-09-20,合同会社リオ,,合同会社,兵庫県,神戸市兵庫区,羽坂通１丁目１番１４号サンハイツ羽坂２０３号,,28,105,6520805,,,,,,,2023-09-20,1,,,,,リオ,0
1929,8140005026746,新規,0,2023-09-20,2023-09-20,税理士法人プレシャスパートナーズ,,その他の設立登記法人,兵庫県,丹波市,柏原町柏原１１１６番地１,,28,223,6693309,,,,,,,2023-09-20,1,,,,,プレシャスパートナーズ,0
1939,8180001158069,新規,0,2023-09-20,2023-09-20,ＨＩＲＡ　ＴＥＣ株式会社,,株式会社,愛知県,江南市,高屋町清水６番地４,,23,217,4838061,,,,,,,2023-09-20,1,,,,,ヒラテック,0
1940,8180001158077,新規,0,2023-09-20,2023-09-20,ＨＵＲＢ株式会社,,株式会社,愛知県,海部郡大治町,大字砂子字犬飼１８００番地,,23,424,4901143,,,,,,,2023-09-20,1,,,,,ハーブ,0
1941,8180001158093,新規,0,2023-09-20,2023-09-20,株式会社Ｓｋｙ　Ｗａｌｋ,,株式会社,愛知県,名古屋市西区,上小田井１丁目３１７番地,,23,104,4520821,,,,,,,2023-09-20,1,,,,,スカイウォーク,0
1944,8180003025754,新規,0,2023-09-20,2023-09-20,合同会社ファブライフ,,合同会社,愛知県,一宮市,祐久字八間城１１４,,23,203,4940017,,,,,,,2023-09-20,1,,,,,ファブライフ,0
1954,8200001041742,新規,0,2023-09-20,2023-09-20,株式会社古川設備,,株式会社,岐阜県,各務原市,那加西市場町３丁目９９番地,,21,213,5040018,,,,,,,2023-09-20,1,,,,,フルカワセツビ,0
1967,8290001103088,新規,0,2023-09-20,2023-09-20,株式会社ＧＬＡＮＺ,,株式会社,福岡県,福岡市中央区,赤坂１丁目１１番１号４Ｆ,,40,133,8100042,,,,,,,2023-09-20,1,,,,,グランツ,0
1978,8320001020008,新規,0,2023-09-20,2023-09-20,株式会社ＬＩＮＫ,,株式会社,大分県,佐伯市,中村南町２番５号,,44,205,8760854,,,,,,,2023-09-20,1,,,,,リンク,0
1979,8320003004181,新規,0,2023-09-20,2023-09-20,合同会社チェアックス,,合同会社,大分県,別府市,大字鶴見３０４６番地の４,,44,202,8740840,,,,,,,2023-09-20,1,,,,,チェアックス,0
1980,8330003009980,新規,0,2023-09-20,2023-09-20,合同会社Ｃｈｅｅｒｙ,,合同会社,熊本県,熊本市中央区,水前寺６丁目４１番５号,,43,101,8620950,,,,,,,2023-09-20,1,,,,,チアリー,0
1983,8340001025905,新規,0,2023-09-20,2023-09-20,株式会社ココロサス,,株式会社,鹿児島県,志布志市,志布志町志布志２丁目８番４５号,,46,221,8997103,,,,,,,2023-09-20,1,,,,,ココロサス,0
1985,8340003004254,新規,0,2023-09-20,2023-09-20,合同会社至誠工,,合同会社,鹿児島県,鹿屋市,大手町６番１７号９０１号,,46,203,8930009,,,,,,,2023-09-20,1,,,,,シセイコウ,0
1986,8350001018569,新規,0,2023-09-20,2023-09-20,株式会社三笠,,株式会社,宮崎県,宮崎市,橘通西３丁目１０－２６リバティスクエアビル３階,,45,201,8800001,,,,,,,2023-09-20,1,,,,,ミカサ,0
1987,8360001032560,新規,0,2023-09-20,2023-09-20,株式会社Ｈｕｍａｎ　Ｃｒｅａｔｉｏｎ,,株式会社,沖縄県,那覇市,天久２丁目３１番１６サンセットパレス新都心４０２号,,47,201,9000005,,,,,,,2023-09-20,1,,,,,ヒューマンクリエイション,0
1988,8360001032569,新規,0,2023-09-20,2023-09-20,株式会社ネクストジェネ,,株式会社,沖縄県,国頭郡東村,字有銘１１１５－３２－２,,47,303,9051206,,,,,,,2023-09-20,1,,,,,ネクストジェネ,0
1990,8360003013294,新規,0,2023-09-20,2023-09-20,合同会社ＭＫ,,合同会社,沖縄県,うるま市,字喜屋武１１５番地、久高アパート２０２号室,,47,213,9042225,,,,,,,2023-09-20,1,,,,,エムケイ,0
2002,8430003015457,新規,0,2023-09-20,2023-09-20,合同会社ＲａｉｎｂｏｗＢｅａｒ,,合同会社,北海道,札幌市南区,真駒内２０６番地８８,,01,106,0050861,,,,,,,2023-09-20,1,,,,,レインボーベアー,0
2003,8450001014095,新規,0,2023-09-20,2023-09-20,株式会社ノースキューブ,,株式会社,北海道,旭川市,神楽岡七条５丁目３番１５号,,01,204,0788317,,,,,,,2023-09-20,1,,,,,ノースキューブ,0
2004,8460005001576,新規,0,2023-09-20,2023-09-20,一般社団法人きずな,,その他の設立登記法人,北海道,釧路市,若草町１４番１４号,,01,206,0850042,,,,,,,2023-09-20,1,,,,,キズナ,0
2005,8460305002002,新規,0,2023-09-20,2023-09-20,医療法人社団源静会,,その他の設立登記法人,北海道,北見市,東三輪３丁目２１番５１号,,01,208,0900836,,,,,,,2023-09-20,1,,,,,ゲンセイカイ,0
2006,8470003002492,新規,0,2023-09-20,2023-09-20,合同会社ワイ・コムズ,,合同会社,香川県,高松市,花園町３丁目６番２号,,37,201,7600072,,,,,,,2023-09-20,1,,,,,ワイコムズ,0
2007,8480001012212,新規,0,2023-09-20,2023-09-20,アイワホールディングス株式会社,,株式会社,徳島県,徳島市,国府町日開字南６７番地,,36,201,7793117,,,,,,,2023-09-20,1,,,,,アイワホールディングス,0
2008,8480005006986,新規,0,2023-09-20,2023-09-20,医療法人ｏｈａｎａ,,その他の設立登記法人,徳島県,徳島市,佐古一番町５号２３番地,,36,201,7700021,,,,,,,2023-09-20,1,,,,,オハナ,0
2009,8490001010594,新規,0,2023-09-20,2023-09-20,株式会社ハウスクリーニングネコノテ,,株式会社,高知県,高知市,西秦泉寺３００番地８カーサブライト西秦泉寺１０３,,39,201,7800033,,,,,,,2023-09-20,1,,,,,ハウスクリーニングネコノテ,0
2016,8700150116609,新規,0,2023-09-20,2023-09-20,Ｈｅｆｅｉ　Ｕ　Ｃｏｒｅ　Ｄｉｇｉｔａｌ　Ｔｅｃｈｎｏｌｏｇｙ　Ｃｏ．，Ｌｔｄ,,外国会社等,,,,,,,,ｓｈｕｓｈａｎｑｕｗａｎｇｊｉａｎｇｘｉｌｕｙｉｎｘｉａｎｇｘｉｈｕｈｕａｙｕａｎ　ｄｏｎｇｚｕｔｕａｎ３（ｃ）ｄｏｎｇ１６１ｏｕ１６０４ｓｈｉ　ｈｅｆｅｉｓｈｉ　ａｎｈｕｉｓｈｅｎｇ　２３００００　ＣＮ,,,,,,2023-09-20,1,,,,,ヘフエイユーコアデジタルテクノロジーカンパニーリミテツド,0
2017,8700150117689,新規,0,2023-09-20,2023-09-20,ＺＨＥＪＩＡＮＧ　ＢＥＩＬＯＮＧ　ＴＯＯＬ　ＣＯ．，ＬＴＤ,,外国会社等,,,,,,,,ＹＩＧＡＯＳＨＵＭＡＤＡＳＨＡ１－２ＺＨＵＡＮＧ　１－１２０６ＨＡＯ　ＪＩＮＧＪＩＪＩＳＨＵＫＡＩＦＡＱＵ　ＪＩＡＸＩＮＧＳＨＩ　ＺＨＥＪＩＡＮＧＳＨＥＮＧ　３２５６０４　ＣＮ,,,,,,2023-09-20,1,,,,,チエジアンベイロンツールカンパニーリミテツド,0
2018,8700150117697,新規,0,2023-09-20,2023-09-20,Ｔａｉａｎ　ｓｅｎｌａｎｄｅ　ｓｈａｎｇｍａｏ　ｙｏｕｘｉａｎ　ｇｏｎｇｓｉ,,外国会社等,,,,,,,,ｆｅｉｃｈｅｎｇｓｈｉ　ｘｉｎｃｈｅｎｇｊｉｅｄａｏｂａｎｓｈｉｃｈｕ　ｘｉｎｃｈｅｎｇｌｕ１３６ｈａｏ　ｓｈａｎｇｃｈｅｎｇｇｕｏｊｉ４ｚｈｕａｎｇ１５ｃｅｎｇ１５０１ｈａｏ　ｔａｉａｎｓｈｉ　ｓｈａｎｄｏｎｇｓｈｅｎｇ　２７１６００　ＣＮ,,,,,,2023-09-20,1,,,,,タイアンセンランデシヤンマオヨウシアンゴンス,0
2019,8700150118514,新規,0,2023-09-20,2023-09-20,ＫＩＮＧＴＯＰ　ＩＮＴＥＲＮＡＴＩＯＮＡＬ　ＴＥＣＨＮＯＬＯＧＹ　ＣＯＭＰＡＮＹ　ＬＩＭＩＴＥＤ,,外国会社等,,,,,,,,ＦＬＡＴ　ＲＭ　６０３Ｅ，６　Ｆ，ＨＡＮＧ　ＰＯＮＴ　ＣＯＭＭＥＲＣＩＡＬ　ＢＵＩＬＤＩＮＧ，３１　ＴＯＮＫＩＮ　ＳＴＲＥＥＴ，ＣＨＥＵＮＧ　ＳＨＡ　ＷＡＮ，ＫＬ，Ｈｏｎｇｋｏｎｇ．Ｃｈｉｎａ,,,,,,2023-09-20,1,,,,,キングトップインターナショナルテクノロジーカンパニーリミテッド,0
2020,8700150120486,新規,0,2023-09-20,2023-09-20,Ｓｈｅｎｚｈｅｎｓｈｉｘｉａｏｃｈｅｎｙｉｃｈｕａｎｇｋｅｊｉ　ｙｏｕｘｉａｎｇｏｎｇｓｉ,,外国会社等,,,,,,,,Ｌｏｎｇｈｕａｑｕ　Ｄａｌａｎｇｊｉｅｄａｏ，Ｔｏｎｇｓｈｅｎｇｓｈｅｑｕ，Ｓｈａｎｇｘｉａｈｅｎｇｌａｎｇｘｉｎｇｏｎｇｙｅｑｕ１Ｄｏｎｇ２１０－１　Ｓｈｅｎｚｈｅｎ,,,,,,2023-09-20,1,,,,,シンセンシシャオチェンイチワンカギユウゲンコウシ,0
2021,8700150120494,新規,0,2023-09-20,2023-09-20,Ｓｈｅｎｚｈｅｎｓｈｉ　Ｔｕｍｅｉ　Ｄｉａｎｚｉｊｉｓｈｕ　Ｙｏｕｘｉａｎｇｏｎｇｓｉ,,外国会社等,,,,,,,,ｑｉｎｇｃｈｕａｎｇｃｈｅｎｇ　ｚｈａｎｇｋｅｎｇｓｈｅｑｕ　ｍｉｎｚｈｉｊｉｅｄａｏ　２Ａ２　Ａ　ｄｏｎｇ　Ｌｏｎｇ　Ｈｕａ　Ｄｉｓｔｒｉｃｔ　Ｓｈｅｎｚｈｅｎ　Ｃｉｔｙ,,,,,,2023-09-20,1,,,,,シンセンシトメイデンシジシュユウゲンコウシ,0
2022,8700150120503,新規,0,2023-09-20,2023-09-20,ａｎｈｕｉ　ｘｉａｏｐａｉｄｉａｎｚｉｓｈａｎｇｗｕ　ｙｏｕｘｉａｎｇｏｎｇｓｉ,,外国会社等,,,,,,,,Ｒｏｏｍ　２－１９２２，Ｂｕｉｌｄｉｎｇ　１，Ｈｅｆｅｉ　ｂａｏｈｅｑｕ　ｗａｎｄａｗｅｎｌｖｘｉｎｃｈｅｎｇ，Ｎｏ．１２５５　Ｙｕｎｇｕ　Ｒｏａｄ，Ｂａｏｈｅ　Ｄｉｓｔｒｉｃｔ，Ｈｅｆｅｉ　Ｃｉｔｙ　ＣＮ,,,,,,2023-09-20,1,,,,,アンホウイシヤオパイデンシシヤンウユウゲンコウシ,0
2024,9010001238514,新規,0,2023-09-20,2023-09-20,株式会社Ｔｉａｒａ　Ａ,,株式会社,東京都,中央区,銀座５丁目１０番地１０号銀座ビル１階,,13,102,1040061,,,,,,,2023-09-20,1,,,,,ティアラアルファ,0
2025,9010001238596,新規,0,2023-09-20,2023-09-20,株式会社リーガルドクター,,株式会社,東京都,中央区,銀座１丁目２２番１１号銀座大竹ビジデンス２階,,13,102,1040061,,,,,,,2023-09-20,1,,,,,リーガルドクター,0
2029,9010003041701,新規,0,2023-09-20,2023-09-20,合同会社ＡＳＰ,,合同会社,東京都,中央区,銀座１丁目１２番４号Ｎ＆Ｅ・ＢＬＤ．６階,,13,102,1040061,,,,,,,2023-09-20,1,,,,,エーエスピー,0
2033,9010401177196,新規,0,2023-09-20,2023-09-20,トップオーク株式会社,,株式会社,東京都,港区,芝２丁目３番２２号内村芝ビル６階,,13,103,1050014,,,,,,,2023-09-20,1,,,,,トップオーク,0
2034,9010401177205,新規,0,2023-09-20,2023-09-20,ＳＢＣＮベンチャーズ株式会社,,株式会社,東京都,港区,虎ノ門１丁目１６番６号虎ノ門ＲＡＰＯ－ＴＯビルＵＣＦ７階,,13,103,1050001,,,,,,,2023-09-20,1,,,,,エスビーシーエヌベンチャーズ,0
2035,9010403030931,新規,0,2023-09-20,2023-09-20,ナチュラリッチ合同会社,,合同会社,東京都,港区,北青山１丁目３番１号アールキューブ青山３階,,13,103,1070061,,,,,,,2023-09-20,1,,,,,ナチュラリッチ,0
2036,9010403030964,新規,0,2023-09-20,2023-09-20,ＮＩＫＫＯ　ＳＯＬＡＲ　ＰＬＡＮＴ２合同会社,,合同会社,東京都,港区,愛宕１丁目６番８号,,13,103,1050002,,,,,,,2023-09-20,1,,,,,ニッコーソーラープラントニ,0
2040,9010601063808,新規,0,2023-09-20,2023-09-20,株式会社ＩＳＭ,,株式会社,東京都,墨田区,八広２丁目１４－２,,13,107,1310041,,,,,,,2023-09-20,1,,,,,アイエスエム,0
2042,9010701044864,新規,0,2023-09-20,2023-09-20,株式会社ＡＯＬ,,株式会社,東京都,品川区,西五反田２丁目３０番１０－５０５号,,13,109,1410031,,,,,,,2023-09-20,1,,,,,エーオーエル,0
2043,9010701044872,新規,0,2023-09-20,2023-09-20,株式会社ＫＵＲＡＫＡＲＡ,,株式会社,東京都,品川区,西品川２丁目１７－２リヴゴーシュ１０２,,13,109,1410033,,,,,,,2023-09-20,1,,,,,クラカラ,0
2045,9010705003536,新規,0,2023-09-20,2023-09-20,一般社団法人日本保険代理業認定協会,,その他の設立登記法人,東京都,品川区,北品川１丁目１２番９号テラス品川２０１,,13,109,1400001,,,,,,,2023-09-20,1,,,,,ニッポンホケンダイリギョウニンテイキョウカイ,0
2046,9010901053822,新規,0,2023-09-20,2023-09-20,田園コンタクト株式会社,,株式会社,東京都,世田谷区,奥沢８丁目５番１５号,,13,112,1580083,,,,,,,2023-09-20,1,,,,,デンエンコンタクト,0
2047,9010901053830,新規,0,2023-09-20,2023-09-20,株式会社Ｒｅｒａ,,株式会社,東京都,世田谷区,北沢２丁目２７－９－１Ｆ,,13,112,1550031,,,,,,,2023-09-20,1,,,,,レラ,0
2048,9010903008452,新規,0,2023-09-20,2023-09-20,グランシティ合同会社,,合同会社,東京都,世田谷区,駒沢４丁目１８番１７号,,13,112,1540012,,,,,,,2023-09-20,1,,,,,グランシティ,0
2059,9011001156739,新規,0,2023-09-20,2023-09-20,ＴＡＮＩＦＩＴ株式会社,,株式会社,東京都,渋谷区,東１丁目２６－３１大島ビル２階,,13,113,1500011,,,,,,,2023-09-20,1,,,,,タニフィット,0
2060,9011001156978,新規,0,2023-09-20,2023-09-20,株式会社Ａｓｅｌｅｘ　Ｐａｒｔｎｅｒｓ,,株式会社,東京都,渋谷区,道玄坂１丁目１６－６二葉ビル８ｂ,,13,113,1500043,,,,,,,2023-09-20,1,,,,,アセレクスパートナーズ,0
2061,9011003017559,新規,0,2023-09-20,2023-09-20,コスモＪＰ合同会社,,合同会社,東京都,目黒区,下目黒１丁目２番２２－４１１号,,13,110,1530064,,,,,,,2023-09-20,1,,,,,コスモジェイピー,0
2063,9011005010215,新規,0,2023-09-20,2023-09-20,ＮＰＯ法人Ｆｉｎｄ　ａ　Ｄｏｃ，Ｊａｐａｎ,,その他の設立登記法人,東京都,渋谷区,渋谷２丁目１９番１５号宮益坂ビルディング６０９号室,,13,113,1500002,,,,,,,2023-09-20,1,,,,,ファインドアドックジャパン,0
2066,9011101104424,新規,0,2023-09-20,2023-09-20,株式会社ＥＸ　ｐａｒｔｎｅｒｓ,,株式会社,東京都,新宿区,新宿１丁目１９番７号新花ビル５階,,13,104,1600022,,,,,,,2023-09-20,1,,,,,エクスパートナーズ,0
2067,9011103013490,新規,0,2023-09-20,2023-09-20,ＬＨＭ合同会社,,合同会社,東京都,新宿区,新宿４丁目１－１９,,13,104,1600022,,,,,,,2023-09-20,1,,,,,エルエイチエム,0
2068,9011103013499,新規,0,2023-09-20,2023-09-20,合同会社Ｇｌｉｎｔｓ　Ｊａｐａｎ,,合同会社,東京都,新宿区,西新宿３丁目３番１３号西新宿水間ビル２階,,13,104,1600023,,,,,,,2023-09-20,1,,,,,グリンツジャパン,0
2069,9011201024919,新規,0,2023-09-20,2023-09-20,株式会社ＳＥＩＺＡ,,株式会社,東京都,中野区,本町３丁目２９番１５－５０２号,,13,114,1640012,,,,,,,2023-09-20,1,,,,,セイザ,0
2070,9011301029009,新規,0,2023-09-20,2023-09-20,株式会社ＤＥＥＰ　ＦＬＯＷ　ＦＩＬＭ,,株式会社,東京都,杉並区,浜田山１丁目７－１４Ｙ＆Ｙ浜田山２,,13,115,1680065,,,,,,,2023-09-20,1,,,,,ディープフローフィルム,0
2074,9011403004116,新規,0,2023-09-20,2023-09-20,ＭＩＰ合同会社,,合同会社,東京都,板橋区,向原３丁目７番Ａ－１１１号,,13,119,1730036,,,,,,,2023-09-20,1,,,,,ミップ,0
2076,9011501029790,新規,0,2023-09-20,2023-09-20,株式会社イルクオーレ,,株式会社,東京都,荒川区,西日暮里６丁目６７番３号,,13,118,1160013,,,,,,,2023-09-20,1,,,,,イルクオーレ,0
2077,9011503005765,新規,0,2023-09-20,2023-09-20,光合同会社,,合同会社,東京都,北区,滝野川６丁目５１－３恵パート２－２０１号,,13,117,1140023,,,,,,,2023-09-20,1,,,,,ヒカリ,0
2082,9012401041019,新規,0,2023-09-20,2023-09-20,株式会社Ｍｅｌｌｏｗ,,株式会社,東京都,武蔵野市,緑町２丁目３番Ｂ９－４０４号,,13,203,1800012,,,,,,,2023-09-20,1,,,,,メロー,0
2084,9012805003226,新規,0,2023-09-20,2023-09-20,特定非営利活動法人フードバンクくにたち,,その他の設立登記法人,東京都,国立市,谷保６１７９番地,,13,215,1860011,,,,,,,2023-09-20,1,,,,,フードバンククニタチ,0
2088,9013305003518,新規,0,2023-09-20,2023-09-20,行政書士法人３５,,その他の設立登記法人,東京都,豊島区,東池袋３丁目１番４号メゾンサンシャイン１１３７号,,13,116,1700013,,,,,,,2023-09-20,1,,,,,サンゴ,0
2092,9020001153547,新規,0,2023-09-20,2023-09-20,アイ・アール・テック株式会社,,株式会社,神奈川県,横浜市金沢区,能見台５丁目２６番地２,,14,108,2360057,,,,,,,2023-09-20,1,,,,,アイアールテック,0
2093,9020001153563,新規,0,2023-09-20,2023-09-20,Ｄ＆Ｈ株式会社,,株式会社,神奈川県,横浜市中区,長者町９丁目１７２番地平和ビル３階,,14,104,2310033,,,,,,,2023-09-20,1,,,,,ディーアンドエイチ,0
2098,9021001080145,新規,0,2023-09-20,2023-09-20,株式会社塗王．ｃｏｍ,,株式会社,神奈川県,座間市,東原１丁目９番３２号らふれいず１０１号,,14,216,2520004,,,,,,,2023-09-20,1,,,,,ヌリオウドットコム,0
2099,9021001080203,新規,0,2023-09-20,2023-09-20,株式会社明水設備,,株式会社,神奈川県,南足柄市,飯沢４２３番地１４,,14,217,2500122,,,,,,,2023-09-20,1,,,,,,0
2104,9030001155773,新規,0,2023-09-20,2023-09-20,株式会社向日葵,,株式会社,埼玉県,草加市,瀬崎３丁目４０番２５号日東マンション７０６,,11,221,3400022,,,,,,,2023-09-20,1,,,,,ヒマワリ,0
2105,9030001155922,新規,0,2023-09-20,2023-09-20,株式会社ＬＢＨ,,株式会社,埼玉県,川口市,前川２丁目６番６号,,11,203,3330842,,,,,,,2023-09-20,1,,,,,エルビーエイチ,0
2106,9030001155930,新規,0,2023-09-20,2023-09-20,株式会社ワン・ステアス,,株式会社,埼玉県,さいたま市見沼区,春岡１丁目１３番地２７ヴィラデトール１０１,,11,104,3370008,,,,,,,2023-09-20,1,,,,,ワンステアス,0
2107,9030001155971,新規,0,2023-09-20,2023-09-20,興司株式会社,,株式会社,埼玉県,戸田市,本町１丁目１０番１４－７０２号（ラグゼナ戸田公園ＩＩ）,00131971,11,224,3350023,,,,,,,2023-09-20,1,,,,,コウジ,0
2108,9030001155988,新規,0,2023-09-20,2023-09-20,Ｒｏｏｔｓ十Ｏｎｅ株式会社,,株式会社,埼玉県,さいたま市岩槻区,大字表慈恩寺７１７番地３,,11,110,3390008,,,,,,,2023-09-20,1,,,,,ルーツプラスワン,0
2109,9030001155996,新規,0,2023-09-20,2023-09-20,株式会社トチノキ,,株式会社,埼玉県,川越市,仙波町３丁目１０番地１,,11,201,3500034,,,,,,,2023-09-20,1,,,,,トチノキ,0
2110,9030001156004,新規,0,2023-09-20,2023-09-20,株式会社晴レル矢,,株式会社,埼玉県,所沢市,和ケ原３丁目２９９番地,,11,208,3591162,,,,,,,2023-09-20,1,,,,,ハレルヤ,0
2118,9040001130148,新規,0,2023-09-20,2023-09-20,株式会社ティーマネジメント,,株式会社,千葉県,流山市,おおたかの森西４丁目２３番地の１,,12,220,2700128,,,,,,,2023-09-20,1,,,,,ティーマネジメント,0
2124,9040003023267,新規,0,2023-09-20,2023-09-20,合同会社ＹＴＫ,,合同会社,千葉県,柏市,大室２丁目１５－８,,12,217,2770813,,,,,,,2023-09-20,1,,,,,ワイティーケー,0
2125,9040003023358,新規,0,2023-09-20,2023-09-20,合同会社デジーノ,,合同会社,千葉県,千葉市若葉区,東寺山町４２３番地１エステ・スクエア千葉Ｂ－９０１号,,12,104,2640035,,,,,,,2023-09-20,1,,,,,デジーノ,0
2132,9050001053496,新規,0,2023-09-20,2023-09-20,株式会社カジマファーム,,株式会社,茨城県,鉾田市,沢尻２２番地,,08,234,3111404,,,,,,,2023-09-20,1,,,,,カジマファーム,0
2147,9100001036792,新規,0,2023-09-20,2023-09-20,株式会社ｍｏｖｅｓ．,,株式会社,長野県,北安曇郡白馬村,大字神城６６８５番地１,,20,485,3999211,,,,,,,2023-09-20,1,,,,,ムーヴス,0
2149,9110001037831,新規,0,2023-09-20,2023-09-20,株式会社ＢａｃｋＳｔａｇｅ,,株式会社,新潟県,新潟市中央区,天神１丁目１番地プラーカ３、２Ｆ,,15,103,9500917,,,,,,,2023-09-20,1,,,,,バックステージ,0
2150,9110003005167,新規,0,2023-09-20,2023-09-20,ＳＩＤＥ　ＷＡＹ合同会社,,合同会社,新潟県,新潟市北区,彩野４丁目６番地２,,15,101,9503377,,,,,,,2023-09-20,1,,,,,サイドウェイ,0
2157,9120001258047,新規,0,2023-09-20,2023-09-20,大隅株式会社,,株式会社,大阪府,大阪市大正区,三軒家西３丁目４番１６号中山ビル１０１７,,27,108,5510001,,,,,,,2023-09-20,1,,,,,オオスミ,0
2158,9120001258212,新規,0,2023-09-20,2023-09-20,ＮＩＫＳ株式会社,,株式会社,大阪府,大阪市北区,東天満１丁目１０番１２号,,27,127,5300044,,,,,,,2023-09-20,1,,,,,ニクス,0
2159,9120001258303,新規,0,2023-09-20,2023-09-20,ＳＩＭＰＬＥ　ＤＥＳＩＧＮ株式会社,,株式会社,大阪府,大阪市北区,梅田１丁目２番２号大阪駅前第２ビル２階５－６号室,,27,127,5300001,,,,,,,2023-09-20,1,,,,,シンプルデザイン,0
2161,9120003024892,新規,0,2023-09-20,2023-09-20,龍華合同会社,,合同会社,大阪府,大阪市生野区,新今里６丁目９－１７ロイヤルコート１０８室,,27,116,5440001,,,,,,,2023-09-20,1,,,,,リュウカ,0
2163,9120101068214,新規,0,2023-09-20,2023-09-20,株式会社奥村架装,,株式会社,大阪府,泉南市,信達市場３１番地の２８２,,27,228,5900504,,,,,,,2023-09-20,1,,,,,オクムラカソウ,0
2168,9130001075210,新規,0,2023-09-20,2023-09-20,拿裸株式会社,,株式会社,京都府,京都市東山区,今熊野南日吉町２番１０,,26,105,6050953,,,,,,,2023-09-20,1,,,,,ダハダカ,0
2175,9140001131664,新規,0,2023-09-20,2023-09-20,株式会社サーベイＦ,,株式会社,兵庫県,南あわじ市,市市２５４番地５,,28,224,6560474,,,,,,,2023-09-20,1,,,,,サーベイエフ,0
2176,9140001131680,新規,0,2023-09-20,2023-09-20,株式会社阪神メック,,株式会社,兵庫県,三木市,志染町中自由が丘２丁目６２９,,28,215,6730552,,,,,,,2023-09-20,1,,,,,ハンシンメック,0
2183,9150001026723,新規,0,2023-09-20,2023-09-20,株式会社はるこころ沖縄,,株式会社,奈良県,奈良市,三松ヶ丘１０番１３号,,29,201,6310075,,,,,,,2023-09-20,1,,,,,ハルココロオキナワ,0
2184,9150003003068,新規,0,2023-09-20,2023-09-20,合同会社ヒトノワ,,合同会社,奈良県,桜井市,大字外山９５５番地の２,,29,206,6330007,,,,,,,2023-09-20,1,,,,,ヒトノワ,0
2186,9160001025352,新規,0,2023-09-20,2023-09-20,ＮＡＫＡＯ株式会社,,株式会社,滋賀県,甲賀市,水口町山２００４番地,,25,209,5280067,,,,,,,2023-09-20,1,,,,,ナカオ,0
2191,9170005007040,新規,0,2023-09-20,2023-09-20,特定非営利活動法人生きがい自然塾高野山,,その他の設立登記法人,和歌山県,伊都郡高野町,大字高野山５１,,30,344,6480211,,,,,,,2023-09-20,1,,,,,イキガイシゼンジュクコウヤサン,0
2196,9180001158068,新規,0,2023-09-20,2023-09-20,株式会社トリニティー,,株式会社,愛知県,名古屋市緑区,武路町３００７番地,,23,114,4580917,,,,,,,2023-09-20,1,,,,,トリニティー,0
2202,9190001030746,新規,0,2023-09-20,2023-09-20,株式会社ウェアハウス,,株式会社,三重県,津市,一志町高野２２５番地１,,24,201,5152504,,,,,,,2023-09-20,1,,,,,ウェアハウス,0
2204,9190003004442,新規,0,2023-09-20,2023-09-20,合同会社ＮＯＲＭＡＬＬＩＦＥ,,合同会社,三重県,津市,白山町三ヶ野２２５４,,24,201,5152601,,,,,,,2023-09-20,1,,,,,ノーマルライフ,0
2205,9200001041741,新規,0,2023-09-20,2023-09-20,ＪＮＳ株式会社,,株式会社,岐阜県,関市,下有知４１７番地１ＳＴＹＳビル２Ｆ,,21,205,5013217,,,,,,,2023-09-20,1,,,,,ジェイエヌエス,0
2208,9230001020024,新規,0,2023-09-20,2023-09-20,株式会社一冨士・吉今日,,株式会社,富山県,黒部市,三日市３０１８番地,,16,207,9380031,,,,,,,2023-09-20,1,,,,,イチフジキッキョウ,0
2212,9240001062148,新規,0,2023-09-20,2023-09-20,株式会社協和設備,,株式会社,広島県,広島市安佐南区,安東６丁目７番１７号,,34,105,7310153,,,,,,,2023-09-20,1,,,,,キョウワセツビ,0
2218,9280003001769,新規,0,2023-09-20,2023-09-20,合同会社ねんりん,,合同会社,島根県,隠岐郡隠岐の島町,津戸１１２０番地２,,32,528,6850105,,,,,,,2023-09-20,1,,,,,ネンリン,0
2222,9290001103062,新規,0,2023-09-20,2023-09-20,株式会社ゴールデン・カムラック,,株式会社,福岡県,福岡市博多区,吉塚７丁目２－２４フェリシア吉塚ロジックスａ棟ａ５,,40,132,8120041,,,,,,,2023-09-20,1,,,,,ゴールデンカムラック,0
2223,9290003014373,新規,0,2023-09-20,2023-09-20,合同会社リブコネ,,合同会社,福岡県,福岡市博多区,博多駅南２丁目９番１５－７１６号,,40,132,8120016,,,,,,,2023-09-20,1,,,,,リブコネ,0
2226,9290801029886,新規,0,2023-09-20,2023-09-20,株式会社トラクション,,株式会社,福岡県,田川郡大任町,大字大行事３９５０番地１熊本団地１３号,,40,608,8240512,,,,,,,2023-09-20,1,,,,,トラクション,0
2228,9320001020007,新規,0,2023-09-20,2023-09-20,株式会社エイヨー,,株式会社,大分県,大分市,曙台２丁目８番１３号,,44,201,8700273,,,,,,,2023-09-20,1,,,,,エイヨー,0
2230,9320003004180,新規,0,2023-09-20,2023-09-20,合同会社ＳＨＡＲＥ　ＴＨＥ　ＣＡＲＥ,,合同会社,大分県,大分市,大字片島１４８０番地の６,,44,201,8700943,,,,,,,2023-09-20,1,,,,,シェアザケア,0
2234,9330001031275,新規,0,2023-09-20,2023-09-20,Ａｃｅ　Ｓｕｐｐｏｒｔ株式会社,,株式会社,熊本県,八代市,豊原中町４１９番地１,,43,202,8660062,,,,,,,2023-09-20,1,,,,,エースサポート,0
2239,9340001025912,新規,0,2023-09-20,2023-09-20,株式会社Ｗｉｔｈ　Ｙｏｕ,,株式会社,鹿児島県,大島郡徳之島町,亀津９８２番地,,46,530,8917101,,,,,,,2023-09-20,1,,,,,ウィズユー,0
2241,9350001018568,新規,0,2023-09-20,2023-09-20,株式会社園田林業,,株式会社,宮崎県,都城市,立野町３８４８番地２,,45,202,8850035,,,,,,,2023-09-20,1,,,,,ソノダリンギョウ,0
2242,9360001032568,新規,0,2023-09-20,2023-09-20,ココファーム株式会社,,株式会社,沖縄県,浦添市,牧港１丁目９－３,,47,208,9012131,,,,,,,2023-09-20,1,,,,,ココファーム,0
2243,9360001032576,新規,0,2023-09-20,2023-09-20,エムアンドエムレンタカー株式会社,,株式会社,沖縄県,那覇市,字安次嶺８番地３ダンデライオンヒルＩＩ４－Ｄ,00131967,47,201,9010143,,,,,,,2023-09-20,1,,,,,エムアンドエムレンタカー,0
2245,9360003013293,新規,0,2023-09-20,2023-09-20,合同会社ＭＭＡＫＫＡ,,合同会社,沖縄県,中頭郡北中城村,字瑞慶覧５８８番地,,47,327,9012317,,,,,,,2023-09-20,1,,,,,マッカ,0
2246,9360003013302,新規,0,2023-09-20,2023-09-20,ＫＳプロジェクト合同会社,,合同会社,沖縄県,糸満市,西崎１丁目２７番５号福島マンション１Ｆ,,47,210,9010305,,,,,,,2023-09-20,1,,,,,ケイエスプロジェクト,0
2252,9380001033977,新規,0,2023-09-20,2023-09-20,株式会社希望のカケラ,,株式会社,福島県,田村郡三春町,大字鷹巣字宮影１１９－１,,07,521,9637725,,,,,,,2023-09-20,1,,,,,キボウノカケラ,0
2257,9430001090014,新規,0,2023-09-20,2023-09-20,株式会社７ＨＥＡＶＥＮ,,株式会社,北海道,札幌市豊平区,平岸三条５丁目６番５－２０１号,,01,105,0620933,,,,,,,2023-09-20,1,,,,,セブンヘブン,0
2259,9460001005828,新規,0,2023-09-20,2023-09-20,株式会社シラリカ,,株式会社,北海道,白糠郡白糠町,庶路２丁目４番地３１,,01,668,0880567,,,,,,,2023-09-20,1,,,,,シラリカ,0
2261,9470001019819,新規,0,2023-09-20,2023-09-20,株式会社ＥＩＮＳ,,株式会社,香川県,高松市,一宮町２７７番地１,,37,201,7618084,,,,,,,2023-09-20,1,,,,,アインス,0
2264,9700150108456,新規,0,2023-09-20,2022-05-02,妖精工房第三分室,,その他,東京都,府中市,南町２丁目３１－１０,,13,206,1830026,,,,,,,2022-05-02,1,,,,,ヨウセイコウボウダイサンブンシツ,0
2265,9700150116608,新規,0,2023-09-20,2023-09-20,ＨＥＦＥＩＪＩＸＩＡＮＧＷＥＮＨＵＡＣＨＵＡＮＢＯＹＯＵＸＩＡＮＧＯＮＧＳＩ,,外国会社等,,,,,,,,ＳＨＵＳＨＡＮＱＵＷＡＮＧＪＩＡＮＧＸＩＬＵ６９ＨＡＯＹＩＮＸＩＡＮＧＸＩＨＵＨＵＡＹＵＡＮ　ＧＯＮＧＪＩＡＮＱＵＸＩＺＵＴＵＡＮ２－４０８　ＨＥＦＥＩＳＨＩ　ＡＮＨＵＩＳＨＥＮＧ,,,,,,2023-09-20,1,,,,,ヘフエイジシアンウエンフアチユアンボヨウシアンゴンス,0
2266,9700150118513,新規,0,2023-09-20,2023-09-20,Ｓｈｅｎｚｈｅｎ　Ｓｕｐｅｒｂａｔ　Ｅｌｅｃｔｒｏｎｉｃｓ　Ｃｏ．，Ｌｔｄ,,外国会社等,,,,,,,,５０１Ａ，ｗｏｒｋｓｈｏｐ　６，ＪｉａｎｇＨａｏ　Ｂａｎｔｉａｎ　ｉｎｄｕｓｔｒｉａｌ　ｐｌａｎｔ，Ｎｏ．４３０，Ｊｉｈｕａ　Ｒｏａｄ，Ｂａｎｔｉａｎ　ｃｏｍｍｕｎｉｔｙ，Ｂａｎｔｉａｎ　ｓｔｒｅｅｔ，Ｌｏｎｇｇａｎｇ　Ｄｉｓｔｒｉｃｔ，Ｓｈｅｎｚｈｅｎ　Ｃｉｔｙ,,,,,,2023-09-20,1,,,,,シェンジェンスーパーバットエレクトロニクスカンパニーリミテッド,0
2267,9700150120485,新規,0,2023-09-20,2023-09-20,Ｈｅｚｈｏｕｓｈｉ　ｆｅｎｇｈｅｈｕｗａｉｙｏｎｇｐｉｎ　ｙｏｕｘｉａｎｇｏｎｇｓｉ,,外国会社等,,,,,,,,ｈｅｚｈｏｕｓｈｉｐｉｎｇｇｕｉｑｕｅｔａｎｇｚｈｅｎｓｈａｄａｏｃｕｎｅｒｚｕ（ｂａｂｕｑｕｒｅｎｍｉｎｊｉａｎｃｈａｙｕａｎｍｅｎｋｏｕｄｕｉｍｉａｎ）,,,,,,2023-09-20,1,,,,,ヘゾォウシフェンヘフワイヨンピンユウゲンコウシ,0
2268,9700150120493,新規,0,2023-09-20,2023-09-20,ＳｈｅｎＺｈｅｎＳｈｉＲｏｎｇＱｉｎｇＫｅＪｉ　ＹｏｕＸｉａｎＧｏｎｇＳｉ,,外国会社等,,,,,,,,４１０　Ｌｉａｎｗｅｉ　Ｂｕｉｌｄｉｎｇ，Ｎｏ．６　Ｋａｎｇｌｅ　Ｒｏａｄ，Ｈｕａｌｅ　Ｃｏｍｍｕｎｉｔｙ，Ｈｅｎｇｇａｎｇ　Ｓｔｒｅｅｔ，Ｌｏｎｇｇａｎｇ　Ｄｉｓｔｒｉｃｔ，Ｓｈｅｎｚｈｅｎ,,,,,,2023-09-20,1,,,,,シンセンシロンチンカギユウゲンコウシ,0
2269,9700150120502,新規,0,2023-09-20,2023-09-20,ＳｈｅｎｚｈｅｎＹｏｕＺｈｉＸｕａｎＤｉａｎＺｉＳｈａｎｇＷｕ　ＹｏｕＸｉａｎＧｏｎｇＳｉ,,外国会社等,,,,,,,,Ｓｈｅｎｚｈｅｎ　ＬｏｎｇｈｕａＤｉｓｔｒｉｃｔ　ＬｏｎｇｈｕａＳｔｒｅｅｔＳｏｎｇｈｅＳｈｅｑｕＤｏｎｇｗｕＧｏｎｇｙｅＣｈａｎｇｑｕＣｈａｎｇｆａｎｇＢａＤｏｎｇ５Ｃｅｎｇ５０５,,,,,,2023-09-20,1,,,,,シンセンヨジシェンデンシショウムユウゲンコウシ,0
