sequenceNumber,corporateNumber,process,correct,updateDate,changeDate,name,nameImageId,kind,prefectureName,cityName,streetNumber,addressImageId,prefectureCode,cityCode,postCode,addressOutside,addressOutsideImageId,closeDate,closeCause,successorCorporateNumber,changeCause,assignmentDate,latest,enName,enPrefectureName,enCityName,enAddressOutside,furigana,hihyoji
1,1010001062459,登記記録の閉鎖等,0,2021-08-06,2021-07-21,株式会社日本不動産鑑定所,,株式会社,東京都,中央区,京橋３丁目９番５号,,13,102,1040031,,,2021-07-21,清算の結了等,,,2015-10-05,1,,,,,ニホンフドウサンカンテイショ,0
10,1010003029927,登記記録の閉鎖等,0,2021-08-06,2021-08-02,合同会社電氣製品安全センター,,合同会社,東京都,中央区,東日本橋１丁目３番６号小島ビル１階,,13,102,1030004,,,2021-08-02,清算の結了等,,,2019-05-29,1,,,,,デンキセイヒンアンゼンセンター,0
16,1010401097006,登記記録の閉鎖等,0,2021-08-06,2021-07-15,株式会社ブルウ,,株式会社,東京都,渋谷区,神宮前３丁目５番１０号,,13,113,1500001,,,2021-07-15,清算の結了等,,,2015-10-05,1,,,,,ブルウ,0
70,1013301020466,登記記録の閉鎖等,0,2021-08-06,2021-07-30,株式会社ウエスト,,株式会社,東京都,豊島区,西池袋２丁目３６番１０号,,13,116,1710021,,,2021-07-30,清算の結了等,,,2015-10-05,1,,,,,ウエスト,0
102,1030002007064,登記記録の閉鎖等,0,2021-08-06,2021-07-21,勝栄興産有限会社,,有限会社,埼玉県,さいたま市大宮区,吉敷町３丁目８５番地,,11,103,3300843,,,2021-07-21,清算の結了等,,,2015-10-05,1,,,,,ショウエイコウサン,0
105,1030002067397,登記記録の閉鎖等,0,2021-08-06,2021-07-26,有限会社ビーエムサービス,,有限会社,埼玉県,朝霞市,栄町１丁目４番２３号,,11,227,3510012,,,2021-07-26,清算の結了等,,,2015-10-05,1,,,,,ビーエムサービス,0
107,1030002098632,登記記録の閉鎖等,0,2021-08-06,2021-07-28,アニック有限会社,,有限会社,埼玉県,川口市,南鳩ヶ谷５丁目１９番２６号,,11,203,3340013,,,2021-07-28,清算の結了等,,,2015-10-05,1,,,,,アニック,0
139,1080001014973,登記記録の閉鎖等,0,2021-08-06,2021-08-03,株式会社大不盡,,株式会社,静岡県,焼津市,駅北４丁目１番１８号,,22,212,4250028,,,2021-08-03,清算の結了等,,,2015-10-05,1,,,,,ダイフジ,0
153,1100003004796,登記記録の閉鎖等,0,2021-08-06,2021-08-02,合同会社アスペルジュ,,合同会社,長野県,長野市,神楽橋１０番地１６２,,20,201,3810053,,,2021-08-02,合併による解散等,2100003005538,令和３年８月１日長野市神楽橋１０番地１６２合同会社リンゼイパーク（2100003005538）に合併し解散,2017-10-12,1,,,,,アスペルジュ,0
175,1120901037474,登記記録の閉鎖等,0,2021-08-06,2021-08-03,株式会社オーエヌエンジニア,,株式会社,大阪府,吹田市,五月が丘南２７番１３号,,27,205,5650832,,,2021-08-03,清算の結了等,,,2016-09-27,1,,,,,オーエヌエンジニア,0
185,1130003005288,登記記録の閉鎖等,0,2021-08-06,2021-08-02,合同会社ＴＣＫコーポレーション,,合同会社,京都府,京都市伏見区,深草大亀谷岩山町１６３番地,,26,109,6120833,,,2021-08-02,合併による解散等,8130003003979,令和３年８月１日京都市下京区烏丸通五条下る大坂町３９６番地第３キョートビル７階株式会社ＴＣＫ不動産（8130003003979）に合併し解散,2017-11-24,1,,,,,ティーシーケーコーポレーション,0
203,1180001007819,登記記録の閉鎖等,0,2021-08-06,2021-08-02,株式会社いずみ,,株式会社,愛知県,名古屋市千種区,本山町１丁目８番地の１,,23,101,4640036,,,2021-08-02,合併による解散等,3180001039851,令和３年８月１日名古屋市千種区本山町一丁目８番地の１株式会社いずみ（3180001039851）に合併し解散,2015-10-05,1,,,,,イズミ,0
204,1180001123211,登記記録の閉鎖等,0,2021-08-06,2021-08-02,株式会社メディカルドア,,株式会社,愛知県,名古屋市中区,金山１丁目１１番１０号,,23,106,4600022,,,2021-08-02,清算の結了等,,,2016-05-09,1,,,,,メディカルドア,0
225,1180302026550,登記記録の閉鎖等,0,2021-08-06,2021-08-03,有限会社ラ・フォンス,,有限会社,愛知県,西尾市,小島町本郷９番地,,23,213,4450006,,,2021-08-03,清算の結了等,,,2015-10-05,1,,,,,ラフォンス,0
260,1310002004685,登記記録の閉鎖等,0,2021-08-06,2021-08-02,有限会社ファミリー・デンタル・ラボラトリー,,有限会社,長崎県,長崎市,滑石３丁目４１番４号,,42,201,8528061,,,2021-08-02,清算の結了等,,,2015-10-05,1,,,,,ファミリーデンタルラボラトリー,0
273,1340001009947,登記記録の閉鎖等,0,2021-08-06,2021-07-27,株式会社種子島ファーム,,株式会社,鹿児島県,熊毛郡中種子町,野間５３４２番地１,,46,501,8913604,,,2021-07-27,清算の結了等,,,2015-10-05,1,,,,,タネガシマファーム,0
290,1390002016129,登記記録の閉鎖等,0,2021-08-06,2021-07-29,有限会社みやゆ工藤製麺所,00085055,有限会社,山形県,西村山郡大江町,大字左沢９９７番地,,06,324,9901101,,,2021-07-29,清算の結了等,,,2015-10-05,1,,,,,ミヤユクドウセイメンジョ,0
291,1400001003679,登記記録の閉鎖等,0,2021-08-06,2021-08-03,株式会社Ｉ・ＦＵＴＵＲＥ,,株式会社,岩手県,盛岡市,大沢川原３丁目５番１０号,,03,201,0200025,,,2021-08-03,清算の結了等,,,2015-10-05,1,,,,,アイフューチャー,0
308,1462502001032,登記記録の閉鎖等,0,2021-08-06,2021-08-02,有限会社丸北運送,,有限会社,北海道,標津郡中標津町,緑ケ丘８番地５２,,01,692,0861148,,,2021-08-02,清算の結了等,,,2015-10-05,1,,,,,,0
318,2010001152374,登記記録の閉鎖等,0,2021-08-06,2021-08-02,株式会社クロスランゲージアールアンドディ,,株式会社,東京都,千代田区,紀尾井町３番６号,,13,101,1020094,,,2021-08-02,合併による解散等,6010001128759,令和３年８月１日東京都千代田区紀尾井町３番６号株式会社クロスランゲージ（6010001128759）に合併し解散,2015-10-05,1,,,,,クロスランゲージアールアンドディ,0
348,2010601049441,登記記録の閉鎖等,0,2021-08-06,2021-07-19,株式会社水文計測,,株式会社,東京都,江東区,森下１丁目１３番９－１３０１号,,13,108,1350004,,,2021-07-19,清算の結了等,,,2016-03-28,1,,,,,スイモンケイソク,0
374,2011305002125,登記記録の閉鎖等,0,2021-08-06,2021-07-30,一般社団法人せたがや国語力研究所,,その他の設立登記法人,東京都,世田谷区,宮坂３丁目１０番７号ＹＭＴビル４０２号栄カンパニー内,,13,112,1560051,,,2021-07-30,清算の結了等,,,2015-10-05,1,,,,,セタガヤコクゴリョクケンキュウショ,0
377,2011602005210,登記記録の閉鎖等,0,2021-08-06,2021-08-04,有限会社酒宝,,有限会社,東京都,練馬区,北町３丁目１６番１７号,,13,120,1790081,,,2021-08-04,清算の結了等,,,2015-10-05,1,,,,,シュホウ,0
380,2011702011273,登記記録の閉鎖等,0,2021-08-06,2021-08-02,有限会社皆川酒店,,有限会社,東京都,江戸川区,松本２丁目５番９号,,13,123,1330043,,,2021-08-02,清算の結了等,,,2015-10-05,1,,,,,ミナガワサケテン,0
381,2011801026379,登記記録の閉鎖等,0,2021-08-06,2021-08-02,株式会社日本耐震建築工法協会,,株式会社,東京都,千代田区,内神田２丁目７番１１号,,13,101,1010047,,,2021-08-02,清算の結了等,,,2015-10-05,1,,,,,ニホンタイシンケンチクコウホウキョウカイ,0
390,2013105001380,登記記録の閉鎖等,0,2021-08-06,2021-08-02,特定非営利活動法人環境保全・健康推進ネットワーク,,その他の設立登記法人,東京都,あきる野市,二宮１５４８番地８,,13,228,1970814,,,2021-08-02,清算の結了等,,,2015-10-05,1,,,,,カンキョウホゼンケンコウスイシンネットワーク,0
434,2030003008705,登記記録の閉鎖等,0,2021-08-06,2021-07-28,合同会社寶山,,合同会社,埼玉県,所沢市,榎町５番６号,,11,208,3591104,,,2021-07-28,清算の結了等,,,2016-04-15,1,,,,,ホウザン,0
469,2080402003434,登記記録の閉鎖等,0,2021-08-06,2021-08-02,有限会社三立商事,,有限会社,静岡県,浜松市中区,中央１丁目１６番１１号,,22,131,4300929,,,2021-08-02,合併による解散等,8080401010525,令和３年８月１日静岡県浜松市浜北区永島７５５番地リンドマン株式会社（8080401010525）に合併し解散,2015-10-05,1,,,,,サンリツショウジ,0
477,2120001061515,登記記録の閉鎖等,0,2021-08-06,2021-07-28,株式会社扇屋,,株式会社,大阪府,大阪市北区,天神橋４丁目７番７号,,27,127,5300041,,,2021-07-28,清算の結了等,,,2015-10-05,1,,,,,,0
478,2120001064732,登記記録の閉鎖等,0,2021-08-06,2021-07-26,株式会社シェルター,,株式会社,大阪府,大阪市北区,紅梅町６番２５号,,27,127,5300038,,,2021-07-26,清算の結了等,,,2015-10-05,1,,,,,シェルター,0
494,2120005017505,登記記録の閉鎖等,0,2021-08-06,2021-08-03,一般社団法人青少年進路支援協会,,その他の設立登記法人,大阪府,大阪市生野区,巽南３丁目１８番２８－１２０８号,00032048,27,116,5440015,,,2021-08-03,清算の結了等,,,2015-10-05,1,,,,,セイショウネンシンロシエンキョウカイ,0
497,2120901021849,登記記録の閉鎖等,0,2021-08-06,2021-08-04,豊洋貿易株式会社,,株式会社,大阪府,池田市,石橋２丁目４番２号,,27,204,5630032,,,2021-08-04,合併による解散等,3470001012110,令和３年７月３１日香川県高松市塩上町一丁目６番１７号株式会社レッツ高松（3470001012110）に合併し解散,2015-10-05,1,,,,,ホウヨウボウエキ,0
511,2130001039691,登記記録の閉鎖等,0,2021-08-06,2021-08-04,告馬物流株式会社,,株式会社,京都府,綴喜郡宇治田原町,大字荒木小字東出１１番地の１,,26,344,6100252,,,2021-08-04,清算の結了等,,,2015-10-05,1,,,,,,0
536,2180001090649,登記記録の閉鎖等,0,2021-08-06,2021-08-02,株式会社モスト・モア,,株式会社,愛知県,名古屋市西区,大野木３丁目３番地１,,23,104,4520803,,,2021-08-02,合併による解散等,9180001090650,令和３年８月１日名古屋市北区黒川本通三丁目４０番地１株式会社ベスト・モア（9180001090650）に合併し解散,2015-10-05,1,,,,,モストモア,0
555,2200001028646,登記記録の閉鎖等,0,2021-08-06,2021-08-04,株式会社縁がわ,,株式会社,岐阜県,飛騨市,神岡町吉田２９８５番地,,21,217,5061144,,,2021-08-04,清算の結了等,,,2015-10-05,1,,,,,,0
605,2380002001683,登記記録の閉鎖等,0,2021-08-06,2021-07-30,有限会社新平屋酒舗,,有限会社,福島県,福島市,松川町浅川字水晶沢８番地の１,,07,201,9601245,,,2021-07-30,清算の結了等,,,2015-10-05,1,,,,,シンヒラヤシュホ,0
607,2380005005814,登記記録の閉鎖等,0,2021-08-06,2021-07-30,医療法人ながい小児科,,その他の設立登記法人,福島県,いわき市,平上荒川字長尾１６番地サカトミクリニックビル２Ｆ,,07,204,9708034,,,2021-07-30,清算の結了等,,,2015-10-05,1,,,,,ナガイショウニカ,0
629,3010001112138,登記記録の閉鎖等,0,2021-08-06,2021-08-02,東京機械株式会社,,株式会社,東京都,千代田区,神田多町２丁目９番６号,,13,101,1010046,,,2021-08-02,清算の結了等,,,2015-10-05,1,,,,,トウキョウキカイ,0
667,3010701040308,登記記録の閉鎖等,0,2021-08-06,2021-08-02,ウプシロン株式会社,,株式会社,東京都,品川区,西五反田４丁目３０番９号,,13,109,1410031,,,2021-08-02,清算の結了等,,,2020-12-28,1,,,,,ウプシロン,0
689,3011603002271,登記記録の閉鎖等,0,2021-08-06,2021-08-04,合同会社ＦＣＦＳ,,合同会社,東京都,練馬区,東大泉１丁目２８番２－１８０１号,,13,120,1780063,,,2021-08-04,清算の結了等,,,2018-02-23,1,,,,,エフシーエフエス,0
716,3020002031666,登記記録の閉鎖等,0,2021-08-06,2021-07-28,有限会社宮元商会,,有限会社,神奈川県,横浜市南区,宮元町１丁目４番地,,14,105,2320016,,,2021-07-28,清算の結了等,,,2015-10-05,1,,,,,ミヤモトショウカイ,0
728,3030001029388,登記記録の閉鎖等,0,2021-08-06,2021-07-27,株式会社ネイル・ドゥ,,株式会社,埼玉県,所沢市,大字山口１２７７番地の７,,11,208,3591145,,,2021-07-27,清算の結了等,,,2015-10-05,1,,,,,ネイルドゥ,0
741,3040001112770,登記記録の閉鎖等,0,2021-08-06,2021-07-29,株式会社アセルス,,株式会社,千葉県,千葉市中央区,葛城３丁目１０番２７号サンライズヴィレッジ１０２号,,12,101,2600853,,,2021-07-29,清算の結了等,,,2020-03-04,1,,,,,アセルス,0
742,3040002014396,登記記録の閉鎖等,0,2021-08-06,2021-07-27,有限会社エヌエヌサービス,,有限会社,千葉県,千葉市中央区,登戸１丁目１３番２１－２０３号,,12,101,2600032,,,2021-07-27,清算の結了等,,,2015-10-05,1,,,,,エヌエヌサービス,0
745,3040005004667,登記記録の閉鎖等,0,2021-08-06,2021-07-27,特定非営利活動法人ＮＰＯ支援の税理士ネットワーク,,その他の設立登記法人,千葉県,市川市,湊新田１丁目１４番２号,,12,203,2720132,,,2021-07-27,清算の結了等,,,2015-10-05,1,,,,,エヌピーオーシエンノゼイリシネットワーク,0
772,3100005007829,登記記録の閉鎖等,0,2021-08-06,2021-08-02,医療法人薄井内科医院,,その他の設立登記法人,長野県,諏訪市,大字豊田２６０番地１,,20,206,3920016,,,2021-08-02,清算の結了等,,,2015-10-05,1,,,,,ウスイナイカイイン,0
782,3120001082700,登記記録の閉鎖等,0,2021-08-06,2021-07-30,株式会社宣花社,,株式会社,大阪府,大阪市北区,与力町７番１１号,,27,127,5300036,,,2021-07-30,清算の結了等,,,2015-10-05,1,,,,,センカシャ,0
796,3120101034691,登記記録の閉鎖等,0,2021-08-06,2021-08-03,株式会社クラシエ,,株式会社,大阪府,富田林市,金剛伏山台２４番５号,,27,214,5840065,,,2021-08-03,清算の結了等,,,2015-10-05,1,,,,,クラシエ,0
797,3120101044625,登記記録の閉鎖等,0,2021-08-06,2021-08-03,株式会社シーマン,,株式会社,大阪府,阪南市,緑ヶ丘２丁目９番８号,,27,232,5990216,,,2021-08-03,清算の結了等,,,2015-10-05,1,,,,,シーマン,0
798,3120103003001,登記記録の閉鎖等,0,2021-08-06,2021-08-03,ハイマストトランスユニット合同会社,,合同会社,大阪府,南河内郡河南町,大字神山４９１－４７,,27,382,5850034,,,2021-08-03,清算の結了等,,,2018-04-13,1,,,,,ハイマストトランスユニット,0
808,3130001056645,登記記録の閉鎖等,0,2021-08-06,2021-08-02,株式会社クレイン三,,株式会社,京都府,京都市東山区,三条通白川橋東六丁目今道町２５０番地５,,26,105,6050000,,,2021-08-02,清算の結了等,,,2016-01-08,1,,,,,クレインスリー,0
810,3130001061026,登記記録の閉鎖等,0,2021-08-06,2021-08-04,株式会社ＭＣＲ,,株式会社,滋賀県,大津市,横木２丁目８番９号,,25,201,5200063,,,2021-08-04,清算の結了等,,,2017-12-05,1,,,,,エムシーアール,0
813,3130002018891,登記記録の閉鎖等,0,2021-08-06,2021-08-02,有限会社か波羅,,有限会社,京都府,京都市下京区,西石垣通四条下る斎藤町１２４番地アサヒ５号館４０１号,,26,106,6008012,,,2021-08-02,合併による解散等,3130001031656,令和３年７月３１日京都市左京区川端通三条上る法林寺門前町３７番地アバンエスパス鴨川３０５号株式会社か波羅（3130001031656）に合併し解散,2015-10-05,1,,,,,カハラ,0
816,3140001008752,登記記録の閉鎖等,0,2021-08-06,2021-08-02,西武リース株式会社,,株式会社,兵庫県,神戸市西区,糀台３丁目２７番地の５有限会社ケイワイ内,,28,111,6512273,,,2021-08-02,清算の結了等,,,2015-10-05,1,,,,,セイブリース,0
852,3180005016616,登記記録の閉鎖等,0,2021-08-06,2021-08-04,中部土砂処理事業協同組合,,その他の設立登記法人,愛知県,名古屋市南区,鳴浜町１丁目３６番地,,23,112,4570806,,,2021-08-04,清算の結了等,,,2016-01-26,1,,,,,チュウブドシャショリジギョウ,0
864,3200002016624,登記記録の閉鎖等,0,2021-08-06,2021-08-02,有限会社ファインメディカル,,有限会社,岐阜県,加茂郡川辺町,西栃井４２０番地の１,,21,503,5090305,,,2021-08-02,清算の結了等,,,2015-10-05,1,,,,,ファインメディカル,0
897,3300005002553,登記記録の閉鎖等,0,2021-08-06,2021-07-30,佐賀県イベントスタッフ事業協同組合,,その他の設立登記法人,佐賀県,佐賀市,駅南本町５番１号,,41,201,8400816,,,2021-07-30,清算の結了等,,,2015-10-05,1,,,,,サガケンイベントスタッフ,0
917,3350002002353,登記記録の閉鎖等,0,2021-08-06,2021-08-03,有限会社視力館,,有限会社,宮崎県,宮崎市,淀川２丁目４番２３号,,45,201,8800907,,,2021-08-03,清算の結了等,,,2015-10-05,1,,,,,シリョクカン,0
929,3380002030434,登記記録の閉鎖等,0,2021-08-06,2021-07-28,北海断熱工業有限会社,,有限会社,福島県,双葉郡楢葉町,大字井出字八石７２番地の１３,,07,542,9790603,,,2021-07-28,清算の結了等,,,2015-10-05,1,,,,,ホッカイダンネツコウギョウ,0
934,3390005006843,登記記録の閉鎖等,0,2021-08-06,2021-07-28,川西商業協同組合,,その他の設立登記法人,山形県,東置賜郡川西町,大字上小松３４８７番地,,06,382,9990121,,,2021-07-28,清算の結了等,,,2015-10-05,1,,,,,カワニシ,0
952,3480002003751,登記記録の閉鎖等,0,2021-08-06,2021-08-03,有限会社坂東住研,,有限会社,徳島県,徳島市,南島田町２丁目１７番地１,,36,201,7700053,,,2021-08-03,清算の結了等,,,2015-10-05,1,,,,,バンドウジュウケン,0
953,3480002007430,登記記録の閉鎖等,0,2021-08-06,2021-08-03,有限会社シイノ,,有限会社,徳島県,徳島市,渋野町西池２７番地１,,36,201,7714267,,,2021-08-03,清算の結了等,,,2015-10-05,1,,,,,シイノ,0
964,4010001031477,登記記録の閉鎖等,0,2021-08-06,2021-08-02,株式会社ユウビジネス,,株式会社,東京都,千代田区,岩本町２丁目１番１９号,,13,101,1010032,,,2021-08-02,清算の結了等,,,2015-10-05,1,,,,,ユウビジネス,0
969,4010001159723,登記記録の閉鎖等,0,2021-08-06,2021-07-21,ＭＧＣファーマ株式会社,,株式会社,東京都,千代田区,丸の内２丁目５番２号,,13,101,1000005,,,2021-07-21,清算の結了等,,,2015-10-05,1,,,,,エムジーシーファーマ,0
1010,4010905002037,登記記録の閉鎖等,0,2021-08-06,2021-08-02,一般社団法人トレジャーホールディング,,その他の設立登記法人,東京都,世田谷区,深沢３丁目２８番２５号,,13,112,1580081,,,2021-08-02,清算の結了等,,,2015-10-05,1,,,,,トレジャーホールディング,0
1016,4011002031490,登記記録の閉鎖等,0,2021-08-06,2021-08-02,有限会社近代トレーディング,,有限会社,新潟県,柏崎市,東長浜町３番２１号,,15,205,9450033,,,2021-08-02,清算の結了等,,,2015-10-05,1,,,,,,0
1036,4011403001844,登記記録の閉鎖等,0,2021-08-06,2021-08-03,合同会社あしか,,合同会社,東京都,板橋区,仲町３番６号ふじ荘２号,,13,119,1730022,,,2021-08-03,清算の結了等,,,2016-05-31,1,,,,,アシカ,0
1039,4011602004103,登記記録の閉鎖等,0,2021-08-06,2021-08-03,有限会社サンイエロー,,有限会社,東京都,練馬区,北町７丁目７番２８号,,13,120,1790081,,,2021-08-03,清算の結了等,,,2015-10-05,1,,,,,サンイエロー,0
1046,4011802023828,登記記録の閉鎖等,0,2021-08-06,2021-08-02,株式会社開祥,,株式会社,東京都,足立区,梅田５丁目２５番２３号,,13,121,1230851,,,2021-08-02,合併による解散等,8011802012505,令和３年８月１日東京都足立区西新井栄町二丁目７番２号株式会社興和商事（8011802012505）に合併し解散,2015-10-05,1,,,,,カイショウ,0
1108,4040001086915,登記記録の閉鎖等,0,2021-08-06,2021-07-29,株式会社エムシーホールディングス,,株式会社,千葉県,浦安市,北栄１丁目１６番３号,,12,227,2790002,,,2021-07-29,清算の結了等,,,2015-10-05,1,,,,,エムシーホールディングス,0
1130,4080101005325,登記記録の閉鎖等,0,2021-08-06,2021-08-03,株式会社インテリア山本,,株式会社,静岡県,駿東郡清水町,徳倉１６０５番地の１３,,22,341,4110917,,,2021-08-03,清算の結了等,,,2015-10-05,1,,,,,,0
1140,4100001006560,登記記録の閉鎖等,0,2021-08-06,2021-08-02,株式会社ＰＲＩＣＥ－ＬＥＳＳ－ＰＥＴ,,株式会社,長野県,長野市,吉田２丁目６番１７号,,20,201,3810043,,,2021-08-02,清算の結了等,,,2015-10-05,1,,,,,プライスレスペット,0
1143,4100002014744,登記記録の閉鎖等,0,2021-08-06,2021-08-02,有限会社ホーワ技研,,有限会社,長野県,上田市,八木沢１６６番地の８,,20,203,3861327,,,2021-08-02,清算の結了等,,,2015-10-05,1,,,,,ホーワギケン,0
1157,4120001206679,登記記録の閉鎖等,0,2021-08-06,2021-07-30,株式会社３Ｓ,,株式会社,大阪府,大阪市住之江区,浜口西３丁目１番１６号,,27,125,5590006,,,2021-07-30,清算の結了等,,,2017-07-05,1,,,,,スリーエス,0
1174,4120105008567,登記記録の閉鎖等,0,2021-08-06,2021-08-04,特定非営利活動法人Ｋｅｅｐ　ｓｍｉｌｅ,,その他の設立登記法人,大阪府,堺市中区,深井沢町３３１４－２－３０１号,,27,142,5998236,,,2021-08-04,清算の結了等,,,2016-09-20,1,,,,,キープスマイル,0
1180,4122001026520,登記記録の閉鎖等,0,2021-08-06,2021-08-02,株式会社エヌテック,,株式会社,大阪府,東大阪市,若江西新町４丁目９番１２号,,27,227,5780944,,,2021-08-02,清算の結了等,,,2015-10-05,1,,,,,エヌテック,0
1187,4130005011892,登記記録の閉鎖等,0,2021-08-06,2021-08-02,特定非営利活動法人赤煉瓦倶楽部舞鶴,00038878,その他の設立登記法人,京都府,舞鶴市,字浜２４７番地,,26,202,6250036,,,2021-08-02,清算の結了等,,,2015-10-05,1,,,,,アカレンガクラブマイヅル,0
1218,4180002067776,登記記録の閉鎖等,0,2021-08-06,2021-08-02,ヤナギ有限会社,,有限会社,愛知県,春日井市,東野町４丁目１番地の１４,,23,206,4860817,,,2021-08-02,清算の結了等,,,2015-10-05,1,,,,,ヤナギ,0
1223,4180302009866,登記記録の閉鎖等,0,2021-08-06,2021-08-03,有限会社丸謹工業,,有限会社,愛知県,豊橋市,船渡町字船渡１６１番地の２,,23,201,4418072,,,2021-08-03,清算の結了等,,,2015-10-05,1,,,,,マルキンコウギョウ,0
1233,4200001007680,登記記録の閉鎖等,0,2021-08-06,2021-08-04,株式会社ヴェルウッドコーポレーション,,株式会社,岐阜県,岐阜市,問屋町１丁目１３番地,,21,201,5008845,,,2021-08-04,清算の結了等,,,2015-10-05,1,,,,,ヴェルウッドコーポレーション,0
1234,4200001013605,登記記録の閉鎖等,0,2021-08-06,2021-08-02,株式会社小林食品,,株式会社,岐阜県,大垣市,三塚町４９８番地の２,,21,202,5030808,,,2021-08-02,清算の結了等,,,2015-10-05,1,,,,,コバヤシショクヒン,0
1237,4200002024023,登記記録の閉鎖等,0,2021-08-06,2021-08-02,有限会社ユーエイ,,有限会社,東京都,足立区,舎人６丁目５番１９号,,13,121,1210831,,,2021-08-02,合併による解散等,7011801024279,令和３年７月３１日東京都足立区舎人六丁目５番１９号株式会社大和（7011801024279）に合併し解散,2015-10-05,1,,,,,ユーエイ,0
1253,4260003001040,登記記録の閉鎖等,0,2021-08-06,2021-08-03,レイコ美容室合資会社,,合資会社,岡山県,美作市,明見３番地１２,,33,215,7070003,,,2021-08-03,清算の結了等,,,2015-10-05,1,,,,,レイコビヨウシツ,0
1276,4320003003501,登記記録の閉鎖等,0,2021-08-06,2021-08-05,合同会社ＡＮＤＣＡＲＥ,,合同会社,大分県,中津市,大字犬丸２４００,,44,203,8790105,,,2021-08-05,清算の結了等,,,2021-04-20,1,,,,,アンドケア,0
1282,4350001007798,登記記録の閉鎖等,0,2021-08-06,2021-08-04,株式会社キャッツ,,株式会社,宮崎県,西臼杵郡高千穂町,大字三田井８０６番地６,,45,441,8821101,,,2021-08-04,清算の結了等,,,2015-10-05,1,,,,,キャッツ,0
1283,4350002003375,登記記録の閉鎖等,0,2021-08-06,2021-08-02,有限会社南九電装,,有限会社,宮崎県,宮崎市,大島町笹原２０１５番地５,,45,201,8800824,,,2021-08-02,清算の結了等,,,2015-10-05,1,,,,,ナンキュウデンソウ,0
1284,4360002012284,登記記録の閉鎖等,0,2021-08-06,2021-07-30,有限会社ひさば,,有限会社,沖縄県,沖縄市,諸見里３丁目１番６号,,47,211,9040032,,,2021-07-30,清算の結了等,,,2015-10-05,1,,,,,,0
1362,5010401104699,登記記録の閉鎖等,0,2021-08-06,2021-07-21,株式会社ｓｏｗａ,,株式会社,東京都,中央区,銀座６丁目１３番１６号銀座ウォールレジデンス５０９号,,13,102,1040061,,,2021-07-21,清算の結了等,,,2015-10-05,1,,,,,ソウワ,0
1379,5010702008351,登記記録の閉鎖等,0,2021-08-06,2021-08-05,有限会社モリタ工業,,有限会社,東京都,品川区,中延２丁目４番４号,,13,109,1420053,,,2021-08-05,清算の結了等,,,2015-10-05,1,,,,,モリタコウギョウ,0
1388,5010902009744,登記記録の閉鎖等,0,2021-08-06,2021-08-02,有限会社ちとせらんち,,有限会社,東京都,世田谷区,岡本１丁目２９番３号,,13,112,1570076,,,2021-08-02,清算の結了等,,,2015-10-05,1,,,,,チトセランチ,0
1391,5011001069812,登記記録の閉鎖等,0,2021-08-06,2021-07-26,オフィス・ビー株式会社,,株式会社,東京都,世田谷区,砧８丁目１０番１号プラッツ砧７０４,,13,112,1570073,,,2021-07-26,清算の結了等,,,2015-10-05,1,,,,,オフィスビー,0
1401,5011501015704,登記記録の閉鎖等,0,2021-08-06,2021-08-02,ディーナネットワーク株式会社,,株式会社,東京都,北区,東田端２丁目１１番１号,,13,117,1140013,,,2021-08-02,清算の結了等,,,2015-10-05,1,,,,,ディーナネットワーク,0
1404,5011801000884,登記記録の閉鎖等,0,2021-08-06,2021-08-02,株式会社オリムピア,,株式会社,東京都,葛飾区,新小岩１丁目４３番６号,,13,122,1240024,,,2021-08-02,合併による解散等,7011801004495,令和３年８月１日東京都葛飾区新小岩一丁目４３番６号正富興業株式会社（7011801004495）に合併し解散,2015-10-05,1,,,,,オリムピア,0
1426,5020001136530,登記記録の閉鎖等,0,2021-08-06,2021-07-28,大賀製薬株式会社,,株式会社,神奈川県,横浜市中区,山下町１６２番,,14,104,2310023,,,2021-07-28,清算の結了等,,,2020-06-18,1,,,,,オオガセイヤク,0
1434,5020002095998,登記記録の閉鎖等,0,2021-08-06,2021-07-26,有限会社エーエス,,有限会社,神奈川県,川崎市川崎区,塩浜４丁目６番１９号,,14,131,2100826,,,2021-07-26,清算の結了等,,,2015-10-05,1,,,,,エーエス,0
1439,5021001010733,登記記録の閉鎖等,0,2021-08-06,2021-07-28,富士福祉経営マネジメント株式会社,,株式会社,神奈川県,鎌倉市,大船１丁目１５番１１号,,14,204,2470056,,,2021-07-28,清算の結了等,,,2015-10-05,1,,,,,フジフクシケイエイマネジメント,0
1444,5021002057906,登記記録の閉鎖等,0,2021-08-06,2021-07-28,有限会社山協ビーエムサービス,,有限会社,神奈川県,高座郡寒川町,小動９８６番地１,,14,321,2530102,,,2021-07-28,清算の結了等,,,2015-10-05,1,,,,,サンキョウビーエムサービス,0
1448,5030001074275,登記記録の閉鎖等,0,2021-08-06,2021-07-29,株式会社貝塚建築事務所,,株式会社,埼玉県,川口市,並木１丁目７番１１号,,11,203,3320034,,,2021-07-29,清算の結了等,,,2015-10-05,1,,,,,カイヅカケンチクジムショ,0
1457,5030002079967,登記記録の閉鎖等,0,2021-08-06,2021-07-29,有限会社良友,,有限会社,埼玉県,川越市,大字天沼新田２０４番地５,,11,201,3500806,,,2021-07-29,清算の結了等,,,2015-10-05,1,,,,,ヨシトモ,0
1458,5030003001789,登記記録の閉鎖等,0,2021-08-06,2021-07-26,合同会社長谷川商店,,合同会社,埼玉県,所沢市,大字中富１１６番地の５,,11,208,3590002,,,2021-07-26,清算の結了等,,,2015-10-05,1,,,,,ハセガワショウテン,0
1480,5060002039613,登記記録の閉鎖等,0,2021-08-06,2021-07-29,有限会社山本設備,,有限会社,栃木県,佐野市,天明町２２０９番地,,09,204,3270014,,,2021-07-29,清算の結了等,,,2015-10-05,1,,,,,ヤマモトセツビ,0
1503,5120001193082,登記記録の閉鎖等,0,2021-08-06,2021-07-30,株式会社やよいコーポレーション,,株式会社,大阪府,大阪市中央区,常盤町１丁目４番９－４０１号,,27,128,5400028,,,2021-07-30,清算の結了等,,,2015-10-05,1,,,,,ヤヨイコーポレーション,0
1521,5122001000854,登記記録の閉鎖等,0,2021-08-06,2021-08-02,井上製線株式会社,,株式会社,大阪府,東大阪市,豊浦町８番９号,,27,227,5798031,,,2021-08-02,清算の結了等,,,2015-10-05,1,,,,,イノウエセイセン,0
1524,5130001051925,登記記録の閉鎖等,0,2021-08-06,2021-08-03,株式会社ジャスト保険ネットワーク,,株式会社,京都府,京都市右京区,西京極畑田町４８番地の６,,26,108,6150824,,,2021-08-03,清算の結了等,,,2015-10-05,1,,,,,ジャストホケンネットワーク,0
1530,5140001095962,登記記録の閉鎖等,0,2021-08-06,2021-08-02,リョーメイ販売株式会社,,株式会社,兵庫県,神戸市兵庫区,東山町１丁目１２番１０号,,28,105,6520042,,,2021-08-02,清算の結了等,,,2015-10-05,1,,,,,リョーメイハンバイ,0
1554,5180002047686,登記記録の閉鎖等,0,2021-08-06,2021-08-02,有限会社榮晃,,有限会社,愛知県,名古屋市北区,大曽根４丁目６番４５号,,23,103,4620825,,,2021-08-02,清算の結了等,,,2015-10-05,1,,,,,エイコウ,0
1560,5180301024122,登記記録の閉鎖等,0,2021-08-06,2021-08-03,株式会社小野田設計事務所,,株式会社,愛知県,新城市,長篠字東野々５番地の４,,23,221,4411634,,,2021-08-03,清算の結了等,,,2015-10-05,1,,,,,オノダセッケイジムショ,0
1571,5210001002481,登記記録の閉鎖等,0,2021-08-06,2021-08-04,株式会社日本正則歯科医療学会,,株式会社,福井県,福井市,経田１丁目１６０５番地,,18,201,9100011,,,2021-08-04,清算の結了等,,,2015-10-05,1,,,,,ニホンセイソクシカイリョウガッカイ,0
1576,5230005008977,登記記録の閉鎖等,0,2021-08-06,2021-07-21,一般社団法人しんせと郷土料理研究所,,その他の設立登記法人,富山県,中新川郡立山町,上宮１９１番地,,16,323,9303254,,,2021-07-21,清算の結了等,,,2019-03-26,1,,,,,シンセトキョウドリョウリケンキュウジョ,0
1639,5430002056777,登記記録の閉鎖等,0,2021-08-06,2021-08-04,有限会社Ｎ．Ｔ．Ｓ．ニヘイ,,有限会社,北海道,小樽市,桜２丁目１９番２９号,,01,203,0470156,,,2021-08-04,清算の結了等,,,2015-10-05,1,,,,,,0
1640,5430002066438,登記記録の閉鎖等,0,2021-08-06,2021-07-27,有限会社ティー・エム,,有限会社,北海道,札幌市東区,東雁来十一条３丁目２番３５号,,01,103,0070031,,,2021-07-27,清算の結了等,,,2015-10-05,1,,,,,ティーエム,0
1658,6010001000760,登記記録の閉鎖等,0,2021-08-06,2021-07-29,株式会社犬塚デザイン事務所,,株式会社,千葉県,市川市,南大野２丁目３番Ｂ棟１０３号,,12,203,2720804,,,2021-07-29,清算の結了等,,,2015-10-05,1,,,,,イヌヅカデザインジムショ,0
1688,6010601007585,登記記録の閉鎖等,0,2021-08-06,2021-07-16,株式会社ピノワール,,株式会社,東京都,江東区,南砂２丁目２３番２号,,13,108,1360076,,,2021-07-16,清算の結了等,,,2015-10-05,1,,,,,ピノワール,0
1700,6010901003053,登記記録の閉鎖等,0,2021-08-06,2021-08-02,株式会社北一商店,,株式会社,東京都,世田谷区,北沢２丁目３８番１４号,,13,112,1550031,,,2021-08-02,清算の結了等,,,2015-10-05,1,,,,,キタイチショウテン,0
1733,6011702010395,登記記録の閉鎖等,0,2021-08-06,2021-08-02,有限会社ポケット,,有限会社,東京都,江戸川区,一之江４丁目９番１号,,13,123,1320024,,,2021-08-02,清算の結了等,,,2015-10-05,1,,,,,ポケット,0
1736,6011802022051,登記記録の閉鎖等,0,2021-08-06,2021-08-04,有限会社ガステック,,有限会社,東京都,足立区,保木間５丁目１９番５号,,13,121,1210064,,,2021-08-04,清算の結了等,,,2015-10-05,1,,,,,ガステック,0
1737,6012301010225,登記記録の閉鎖等,0,2021-08-06,2021-07-12,株式会社アドバンス,,株式会社,東京都,町田市,常盤町３３５７番地５,,13,209,1940213,,,2021-07-12,清算の結了等,,,2015-10-05,1,,,,,,0
1738,6012402023274,登記記録の閉鎖等,0,2021-08-06,2021-07-20,有限会社アレックエンジニアリング,,有限会社,東京都,国分寺市,泉町３丁目５－４－３０８,,13,214,1850024,,,2021-07-20,清算の結了等,,,2015-10-05,1,,,,,,0
1746,6020001011815,登記記録の閉鎖等,0,2021-08-06,2021-07-28,株式会社ナガナワ,,株式会社,神奈川県,横浜市青葉区,柿の木台３番地３,,14,117,2270048,,,2021-07-28,清算の結了等,,,2015-10-05,1,,,,,ナガナワ,0
1801,6040003001663,登記記録の閉鎖等,0,2021-08-06,2021-07-28,Ｍ’ｓスクエア株式会社,,株式会社,千葉県,市川市,八幡４丁目１７番３４号,,12,203,2720021,,,2021-07-28,清算の結了等,,,2015-10-05,1,,,,,エムズスクエア,0
1807,6050001045595,登記記録の閉鎖等,0,2021-08-06,2021-08-02,株式会社メディカル研究所,,株式会社,茨城県,結城郡八千代町,大字村貫４番地１,,08,521,3003563,,,2021-08-02,清算の結了等,,,2019-02-19,1,,,,,メディカルケンキュウジョ,0
1810,6060001005499,登記記録の閉鎖等,0,2021-08-06,2021-07-28,株式会社メッツ,,株式会社,栃木県,宇都宮市,インターパーク３丁目３番地３,,09,201,3210118,,,2021-07-28,清算の結了等,,,2015-10-05,1,,,,,メッツ,0
1821,6080102016641,登記記録の閉鎖等,0,2021-08-06,2021-07-30,有限会社ギャラリー和,,有限会社,静岡県,富士宮市,外神東町２２０番地の１,,22,207,4180007,,,2021-07-30,清算の結了等,,,2015-10-05,1,,,,,ギャラリーカズ,0
1822,6080102020073,登記記録の閉鎖等,0,2021-08-06,2021-08-04,有限会社大光建設,,有限会社,静岡県,伊東市,富戸１３１４番地の２８４,,22,208,4130231,,,2021-08-04,清算の結了等,,,2015-10-05,1,,,,,ダイコウケンセツ,0
1829,6090001013053,登記記録の閉鎖等,0,2021-08-06,2021-08-03,ＮＯＬＬプランニング株式会社,,株式会社,山梨県,甲府市,中央４丁目３番１４号,,19,201,4000032,,,2021-08-03,清算の結了等,,,2015-10-05,1,,,,,,0
1888,6140001090335,登記記録の閉鎖等,0,2021-08-06,2021-08-02,株式会社ソルボックス,,株式会社,兵庫県,神戸市灘区,摩耶海岸通１丁目３－５,,28,102,6570855,,,2021-08-02,清算の結了等,,,2015-10-05,1,,,,,ソルボックス,0
1891,6140001093602,登記記録の閉鎖等,0,2021-08-06,2021-07-28,株式会社ミユキ,,株式会社,大阪府,大阪市西区,西本町１丁目６番１７号,,27,106,5500005,,,2021-07-28,清算の結了等,,,2015-10-05,1,,,,,,0
1899,6140002005523,登記記録の閉鎖等,0,2021-08-06,2021-08-02,有限会社日本システム開発グループ,,有限会社,兵庫県,神戸市西区,中野２丁目１９番地の６,,28,111,6512136,,,2021-08-02,清算の結了等,,,2015-10-05,1,,,,,ニホンシステムカイハツグループ,0
1913,6180001136803,登記記録の閉鎖等,0,2021-08-06,2021-07-30,株式会社さくらやま,,株式会社,岐阜県,高山市,大新町１丁目４４番地１,,21,203,5060851,,,2021-07-30,清算の結了等,,,2019-06-07,1,,,,,サクラヤマ,0
1922,6180002093275,登記記録の閉鎖等,0,2021-08-06,2021-08-03,有限会社エナジー,,有限会社,岐阜県,多治見市,市之倉町１１丁目１９９番地の７１,,21,204,5070814,,,2021-08-03,合併による解散等,4010601051668,令和３年８月１日名古屋市港区油屋町三丁目５番地の１株式会社サン・ハート（4010601051668）に合併し解散,2015-10-05,1,,,,,,0
1926,6180305000630,登記記録の閉鎖等,0,2021-08-06,2021-08-04,岡崎石製品協同組合連合会,,その他の設立登記法人,愛知県,岡崎市,上佐々木町字梅ノ木４８番地,,23,202,4440936,,,2021-08-04,清算の結了等,,,2015-10-05,1,,,,,オカザキセキセイヒン,0
1928,6190002014197,登記記録の閉鎖等,0,2021-08-06,2021-08-04,ナポリ有限会社,,有限会社,三重県,松阪市,立田町２６３番地,,24,204,5150026,,,2021-08-04,清算の結了等,,,2015-10-05,1,,,,,ナポリ,0
1931,6200001022901,登記記録の閉鎖等,0,2021-08-06,2021-08-04,エーアイテック株式会社,,株式会社,愛知県,豊田市,大坂町御堂前１２８番地３,,23,211,4700532,,,2021-08-04,合併による解散等,3200003003670,令和３年８月１日岐阜県可児市広見四丁目３８番地１合同会社アールケイ・プラニング（3200003003670）に合併し解散,2015-10-05,1,,,,,エーアイテック,0
1933,6200002019995,登記記録の閉鎖等,0,2021-08-06,2021-08-02,エフエフティエンジニアリング有限会社,,有限会社,岐阜県,多治見市,明和町４丁目５番地の４９８,,21,204,5070072,,,2021-08-02,清算の結了等,,,2015-10-05,1,,,,,エフエフティエンジニアリング,0
1936,6230001003675,登記記録の閉鎖等,0,2021-08-06,2021-07-20,庭安株式会社,,株式会社,富山県,富山市,吉岡３７５番地,,16,201,9398153,,,2021-07-20,合併による解散等,9230001001370,令和３年７月２０日富山市問屋町三丁目３番２号株式会社精田建鉄（9230001001370）に合併し解散,2015-10-05,1,,,,,テイアン,0
1947,6240002045583,登記記録の閉鎖等,0,2021-08-06,2021-07-20,有限会社中国新聞戸手販売所,,有限会社,広島県,福山市,新市町大字戸手１０７５番地２,,34,207,7293101,,,2021-07-20,清算の結了等,,,2015-10-05,1,,,,,チュウゴクシンブントデハンバイショ,0
1951,6250002018489,登記記録の閉鎖等,0,2021-08-06,2021-08-03,有限会社フジイ電器,,有限会社,山口県,岩国市,室の木町５丁目６番８号,,35,208,7400021,,,2021-08-03,清算の結了等,,,2015-10-05,1,,,,,フジイデンキ,0
1968,6290005018004,登記記録の閉鎖等,0,2021-08-06,2021-07-28,一般社団法人きぎす会,,その他の設立登記法人,福岡県,古賀市,千鳥２丁目２７番７号,,40,223,8113113,,,2021-07-28,清算の結了等,,,2020-12-18,1,,,,,キギスカイ,0
1989,6370002003710,登記記録の閉鎖等,0,2021-08-06,2021-07-16,有限会社平間工業,,有限会社,宮城県,仙台市太白区,東中田３丁目９番５０号,,04,104,9811107,,,2021-07-16,清算の結了等,,,2015-10-05,1,,,,,ヒラマコウギョウ,0
1992,6380001006861,登記記録の閉鎖等,0,2021-08-06,2021-07-29,株式会社山田,,株式会社,福島県,郡山市,三穂田町大字山口字大窪１２番地,,07,203,9630000,,,2021-07-29,清算の結了等,,,2018-08-16,1,,,,,ヤマダ,0
2001,6430001018538,登記記録の閉鎖等,0,2021-08-06,2021-07-29,菱北倉庫株式会社,,株式会社,神奈川県,横浜市中区,滝之上１５１番地の３,,14,104,2310837,,,2021-07-29,清算の結了等,,,2015-10-05,1,,,,,リョウホクソウコ,0
2012,6470002002990,登記記録の閉鎖等,0,2021-08-06,2021-08-04,有限会社三光ギフト,,有限会社,香川県,高松市,勅使町１２１９番地１３,,37,201,7618058,,,2021-08-04,清算の結了等,,,2015-10-05,1,,,,,サンコウギフト,0
2015,6480005005263,登記記録の閉鎖等,0,2021-08-06,2021-08-04,農事組合法人岩倉八朔協業組合,,その他の設立登記法人,徳島県,美馬市,脇町田上５６９番地,,36,207,7793620,,,2021-08-04,清算の結了等,,,2015-10-05,1,,,,,イワクラハッサクキョウギョウクミアイ,0
2047,7010005026173,登記記録の閉鎖等,0,2021-08-06,2021-07-21,一般社団法人医学会総合研究機構,,その他の設立登記法人,東京都,中央区,京橋２丁目１１ー３,,13,102,1040031,,,2021-07-21,清算の結了等,,,2016-12-28,1,,,,,イガクカイソウゴウケンキュウキコウ,0
2103,7020001113057,登記記録の閉鎖等,0,2021-08-06,2021-07-27,株式会社カイリ,,株式会社,神奈川県,横浜市西区,北幸１丁目１１番１号水信ビル７階,,14,103,2200004,,,2021-07-27,清算の結了等,,,2015-10-05,1,,,,,カイリ,0
2119,7021002034374,登記記録の閉鎖等,0,2021-08-06,2021-07-28,有限会社三好鉄工,,有限会社,神奈川県,愛甲郡愛川町,角田３７４番地３,,14,401,2430301,,,2021-07-28,清算の結了等,,,2015-10-05,1,,,,,ミヨシテッコウ,0
2120,7021002060123,登記記録の閉鎖等,0,2021-08-06,2021-07-29,有限会社タナアミ設備,,有限会社,神奈川県,平塚市,岡崎５８４７番地の７,,14,203,2591212,,,2021-07-29,清算の結了等,,,2015-10-05,1,,,,,タナアミセツビ,0
2122,7030001006714,登記記録の閉鎖等,0,2021-08-06,2021-07-26,株式会社ニューバンケットコーポレーション,,株式会社,埼玉県,さいたま市大宮区,宮町２丁目６４番地星野ビル,,11,103,3300802,,,2021-07-26,清算の結了等,,,2015-10-05,1,,,,,ニューバンケットコーポレーション,0
2135,7030005012790,登記記録の閉鎖等,0,2021-08-06,2021-07-21,特定非営利活動法人ほっとすてーしょん,,その他の設立登記法人,埼玉県,川口市,八幡木１丁目１８番地の２０,,11,203,3340012,,,2021-07-21,清算の結了等,,,2015-10-05,1,,,,,ホットステーション,0
2150,7040002102791,登記記録の閉鎖等,0,2021-08-06,2021-07-29,有限会社新田,,有限会社,千葉県,いすみ市,苅谷１１５７番地の１,,12,238,2980123,,,2021-07-29,清算の結了等,,,2015-10-05,1,,,,,ニッタ,0
2153,7050002022601,登記記録の閉鎖等,0,2021-08-06,2021-07-30,有限会社イロカワ,,有限会社,茨城県,つくば市,栗原２７００番地２,,08,220,3050001,,,2021-07-30,清算の結了等,,,2015-10-05,1,,,,,イロカワ,0
2157,7060002026320,登記記録の閉鎖等,0,2021-08-06,2021-07-29,有限会社伊坂建塗工業,,有限会社,栃木県,大田原市,堀之内４５７番地５,,09,210,3240235,,,2021-07-29,清算の結了等,,,2015-10-05,1,,,,,イサカケントコウギョウ,0
2168,7080101007871,登記記録の閉鎖等,0,2021-08-06,2021-08-03,株式会社匠蔵想家,,株式会社,静岡県,御殿場市,北久原６０２番地の３,,22,215,4120004,,,2021-08-03,清算の結了等,,,2015-10-05,1,,,,,,0
2171,7080102014784,登記記録の閉鎖等,0,2021-08-06,2021-08-03,有限会社ビューティープロジェクト,,有限会社,静岡県,富士市,鷹岡本町６番２０号,,22,210,4190203,,,2021-08-03,清算の結了等,,,2015-10-05,1,,,,,ビューティープロジェクト,0
2178,7100001027744,登記記録の閉鎖等,0,2021-08-06,2021-08-02,株式会社サポートＳ,,株式会社,長野県,佐久市,野沢３２４番７号－１０２,,20,217,3850053,,,2021-08-02,清算の結了等,,,2015-10-05,1,,,,,サポートエス,0
2191,7120001196496,登記記録の閉鎖等,0,2021-08-06,2021-08-02,株式会社Ｄ　ＭＥＤＩＣＡＬ,,株式会社,大阪府,大阪市阿倍野区,北畠１丁目２５番１３－４０１号,,27,119,5450035,,,2021-08-02,清算の結了等,,,2016-02-25,1,,,,,ディーメディカル,0
2193,7120001231006,登記記録の閉鎖等,0,2021-08-06,2021-07-28,株式会社ハーツファミリー,,株式会社,大阪府,大阪市西区,新町１丁目３番１６号,,27,106,5500013,,,2021-07-28,合併による解散等,5120001064333,令和３年７月２７日大阪市西区新町一丁目３番１６号株式会社サンコー（5120001064333）に合併し解散,2020-08-12,1,,,,,ハーツファミリー,0
2198,7120002019730,登記記録の閉鎖等,0,2021-08-06,2021-07-27,有限会社かね一商店,,有限会社,大阪府,大阪市浪速区,日本橋４丁目１２番１８号,,27,111,5560005,,,2021-07-27,清算の結了等,,,2015-10-05,1,,,,,カネイチショウテン,0
2223,7130001024210,登記記録の閉鎖等,0,2021-08-06,2021-08-03,株式会社タック,,株式会社,京都府,京都市伏見区,深草稲荷中之町５８番地,,26,109,6120807,,,2021-08-03,清算の結了等,,,2015-10-05,1,,,,,タック,0
2226,7130002015076,登記記録の閉鎖等,0,2021-08-06,2021-08-04,ミンワ商事有限会社,,有限会社,京都府,京都市伏見区,深草砂子谷町１番地,,26,109,6120828,,,2021-08-04,清算の結了等,,,2015-10-05,1,,,,,ミンワショウジ,0
2240,7140002017716,登記記録の閉鎖等,0,2021-08-06,2021-08-02,有限会社氷上メディカルサービス,,有限会社,兵庫県,芦屋市,岩園町１０番１６－４１４号,,28,206,6590013,,,2021-08-02,清算の結了等,,,2015-10-05,1,,,,,ヒカミメディカルサービス,0
2242,7140002057150,登記記録の閉鎖等,0,2021-08-06,2021-08-02,有限会社ティーシーシー関西,,有限会社,兵庫県,神戸市東灘区,本庄町３丁目４番３－４０２号,,28,101,6580012,,,2021-08-02,清算の結了等,,,2015-10-05,1,,,,,ティーシーシーカンサイ,0
2247,7160001011932,登記記録の閉鎖等,0,2021-08-06,2021-08-02,株式会社寿光苑,,株式会社,滋賀県,高島市,安曇川町青柳古鳥居１４７２番地,,25,212,5201221,,,2021-08-02,合併による解散等,3160001011928,令和３年７月３１日滋賀県高島市勝野５７７番地清水興業株式会社（3160001011928）に合併し解散,2015-10-05,1,,,,,ジュコウエン,0
2249,7160001020677,登記記録の閉鎖等,0,2021-08-06,2021-08-04,イッペイガイドサービス株式会社,,株式会社,滋賀県,大津市,仰木の里東８丁目１１－３２,,25,201,5200248,,,2021-08-04,清算の結了等,,,2018-01-12,1,,,,,イッペイガイドサービス,0
2268,7180002051208,登記記録の閉鎖等,0,2021-08-06,2021-08-02,有限会社ファーストモア,,有限会社,愛知県,名古屋市名東区,猪子石原１丁目１３０３番地,,23,115,4650008,,,2021-08-02,合併による解散等,9180001090650,令和３年８月１日名古屋市北区黒川本通三丁目４０番地１株式会社ベスト・モア（9180001090650）に合併し解散,2015-10-05,1,,,,,,0
2278,7190003003140,登記記録の閉鎖等,0,2021-08-06,2021-08-04,合同会社ＳＰＥＮＥＤＵ一木,,合同会社,三重県,志摩市,磯部町上之郷３７６番地,,24,215,5170208,,,2021-08-04,清算の結了等,,,2019-06-14,1,,,,,スペネーデュイチギ,0
2281,7200001019302,登記記録の閉鎖等,0,2021-08-06,2021-08-03,株式会社太陽理化工業,,株式会社,岐阜県,関市,小屋名５６３番地の１,,21,205,5013941,,,2021-08-03,合併による解散等,9180001029475,令和３年７月１日名古屋市中村区名駅南二丁目１３番４号株式会社イノアックコーポレーション（9180001029475）に合併し解散,2015-10-05,1,,,,,,0
2287,7200002007974,登記記録の閉鎖等,0,2021-08-06,2021-08-04,有限会社ノダケン,,有限会社,岐阜県,各務原市,那加南栄町６１番地,,21,213,5040955,,,2021-08-04,清算の結了等,,,2015-10-05,1,,,,,ノダケン,0
2290,7210002014251,登記記録の閉鎖等,0,2021-08-06,2021-08-03,有限会社西村バルブ,,有限会社,福井県,大飯郡高浜町,青戸第１号１番地７０,,18,481,9192204,,,2021-08-03,清算の結了等,,,2015-10-05,1,,,,,ニシムラバルブ,0
2336,7340002019106,登記記録の閉鎖等,0,2021-08-06,2021-07-28,池田湖養魚有限会社,,有限会社,鹿児島県,指宿市,開聞仙田７８３番地５６,,46,210,8910604,,,2021-07-28,清算の結了等,,,2015-10-05,1,,,,,イケダコヨウギョ,0
2408,8010801012425,登記記録の閉鎖等,0,2021-08-06,2021-07-29,横山産業株式会社,00052199,株式会社,東京都,大田区,大森北２丁目１３番３１－１９１９号,,13,111,1430016,,,2021-07-29,清算の結了等,,,2015-10-05,1,,,,,ヨコヤマサンギョウ,0
2443,8013102006963,登記記録の閉鎖等,0,2021-08-06,2021-08-03,有限会社吉岡建材,,有限会社,東京都,青梅市,日向和田３丁目５８０番地の１０,,13,205,1980046,,,2021-08-03,清算の結了等,,,2015-10-05,1,,,,,ヨシオカケンザイ,0
2455,8020001108964,登記記録の閉鎖等,0,2021-08-06,2021-07-26,株式会社ヴォラーレ,,株式会社,東京都,港区,南青山２丁目２番１５号ＷｉｎＡｏｙａｍａビルＵＣＦ９階,,13,103,1070062,,,2021-07-26,清算の結了等,,,2015-10-05,1,,,,,ヴォラーレ,0
2480,8030001017082,登記記録の閉鎖等,0,2021-08-06,2021-07-27,株式会社石井美術,,株式会社,埼玉県,さいたま市南区,南浦和２丁目４１番２０号,,11,108,3360017,,,2021-07-27,清算の結了等,,,2015-10-05,1,,,,,イシイビジュツ,0
2491,8030002047095,登記記録の閉鎖等,0,2021-08-06,2021-07-26,有限会社進栄通信,,有限会社,埼玉県,八潮市,大字大曽根１０８７番地１,,11,234,3400834,,,2021-07-26,清算の結了等,,,2015-10-05,1,,,,,シンエイツウシン,0
2492,8030002086003,登記記録の閉鎖等,0,2021-08-06,2021-07-29,有限会社コスモコンサルタント,,有限会社,埼玉県,越谷市,大間野町４丁目３０２番地１,,11,222,3430844,,,2021-07-29,清算の結了等,,,2015-10-05,1,,,,,,0
2513,8060002028919,登記記録の閉鎖等,0,2021-08-06,2021-07-30,有限会社橋本保険サービス,,有限会社,栃木県,小山市,大字羽川６９６番地１,,09,208,3230012,,,2021-07-30,清算の結了等,,,2015-10-05,1,,,,,ハシモトホケンサービス,0
2534,8110001029219,登記記録の閉鎖等,0,2021-08-06,2021-08-02,株式会社新久機工,,株式会社,新潟県,新潟市北区,新崎３７２番地１７,,15,101,9503134,,,2021-08-02,合併による解散等,8110001001739,令和３年７月３１日新潟市北区新崎３７２番地１７株式会社久保田製作所（8110001001739）に合併し解散,2015-10-05,1,,,,,シンクキコウ,0
2542,8120001153117,登記記録の閉鎖等,0,2021-08-06,2021-07-27,株式会社エスアイ,,株式会社,大阪府,大阪市東成区,神路４丁目１０番１８号,,27,115,5370003,,,2021-07-27,清算の結了等,,,2015-10-05,1,,,,,エスアイ,0
2573,8130002015075,登記記録の閉鎖等,0,2021-08-06,2021-08-04,有限会社珉珉宝珠会,00037426,有限会社,京都府,京都市伏見区,深草砂子谷町１番地,,26,109,6120828,,,2021-08-04,清算の結了等,,,2015-10-05,1,,,,,ミンミンホウジュカイ,0
2581,8140001030958,登記記録の閉鎖等,0,2021-08-06,2021-08-02,株式会社ウエムラ,,株式会社,兵庫県,神戸市西区,学園東町７丁目３５番地の１,,28,111,6512102,,,2021-08-02,清算の結了等,,,2015-10-05,1,,,,,ウエムラ,0
2592,8140002047844,登記記録の閉鎖等,0,2021-08-06,2021-07-29,有限会社大手前パーキング,,有限会社,兵庫県,姫路市,白銀町６７番地,,28,201,6700902,,,2021-07-29,清算の結了等,,,2015-10-05,1,,,,,オオテマエパーキング,0
2607,8180003017371,登記記録の閉鎖等,0,2021-08-06,2021-07-26,合同会社くじら計画団,,合同会社,愛知県,津島市,天王通り６丁目３９番地,,23,208,4960807,,,2021-07-26,清算の結了等,,,2016-09-14,1,,,,,クジラケイカクダン,0
2610,8180302002462,登記記録の閉鎖等,0,2021-08-06,2021-08-04,ピピクリエイティブセンター有限会社,,有限会社,愛知県,岡崎市,六名３丁目４番地２１,,23,202,4440856,,,2021-08-04,清算の結了等,,,2015-10-05,1,,,,,ピピクリエイティブセンター,0
2611,8180302003667,登記記録の閉鎖等,0,2021-08-06,2021-08-04,嶺澤石材有限会社,,有限会社,愛知県,岡崎市,中伊西町字冷田２番地,,23,202,4443449,,,2021-08-04,清算の結了等,,,2015-10-05,1,,,,,ミネザワセキザイ,0
2615,8180302022139,登記記録の閉鎖等,0,2021-08-06,2021-08-04,有限会社さくら商事,,有限会社,愛知県,豊田市,永覚新町１丁目１９番地５,,23,211,4701206,,,2021-08-04,清算の結了等,,,2015-10-05,1,,,,,サクラショウジ,0
2658,8340001009742,登記記録の閉鎖等,0,2021-08-06,2021-07-27,株式会社大山組,,株式会社,鹿児島県,熊毛郡中種子町,野間３４０１番地２,,46,501,8913604,,,2021-07-27,清算の結了等,,,2015-10-05,1,,,,,,0
2689,8430001029070,登記記録の閉鎖等,0,2021-08-06,2021-08-02,株式会社エコス北栄,,株式会社,北海道,札幌市厚別区,厚別南３丁目４番１号,,01,108,0040022,,,2021-08-02,合併による解散等,2430001011570,令和３年８月１日札幌市豊平区平岸一条三丁目２番３３号エクシオ・エンジニアリング北海道株式会社（2430001011570）に合併し解散,2015-10-05,1,,,,,エコスホクエイ,0
2747,9010602001386,登記記録の閉鎖等,0,2021-08-06,2021-07-19,有限会社永代マネキン紹介所,,有限会社,東京都,江東区,千石２丁目４番１号ライオンズプラザ東陽町４０１号,,13,108,1350015,,,2021-07-19,清算の結了等,,,2015-10-05,1,,,,,エイダイマネキンショウカイショ,0
2754,9010901027454,登記記録の閉鎖等,0,2021-08-06,2021-07-21,株式会社フェニックス・クリエイティブ,,株式会社,東京都,渋谷区,恵比寿１丁目１５番９号シルク恵比寿４０３,,13,113,1500013,,,2021-07-21,清算の結了等,,,2015-10-05,1,,,,,フェニックスクリエイティブ,0
2758,9011001103328,登記記録の閉鎖等,0,2021-08-06,2021-08-02,株式会社クレストサポート,,株式会社,愛知県,名古屋市中区,金山１丁目１４番９号,,23,106,4600022,,,2021-08-02,合併による解散等,2180001039753,令和３年８月１日名古屋市中区金山一丁目１４番９号株式会社バイオテック（2180001039753）に合併し解散,2015-10-05,1,,,,,クレストサポート,0
2775,9011702006069,登記記録の閉鎖等,0,2021-08-06,2021-08-02,有限会社鈴木ボールト,,有限会社,東京都,江戸川区,船堀３丁目１１番１７号,,13,123,1340091,,,2021-08-02,清算の結了等,,,2015-10-05,1,,,,,スズキボールト,0
2812,9030002061310,登記記録の閉鎖等,0,2021-08-06,2021-07-19,埼南自動車工業有限会社,,有限会社,埼玉県,新座市,畑中３丁目８番３号,,11,230,3520012,,,2021-07-19,清算の結了等,,,2015-10-05,1,,,,,サイナンジドウシャコウギョウ,0
2813,9030002063430,登記記録の閉鎖等,0,2021-08-06,2021-07-26,有限会社富建工業,,有限会社,埼玉県,富士見市,渡戸１丁目１１番１７号,,11,235,3540032,,,2021-07-26,清算の結了等,,,2015-10-05,1,,,,,フケンコウギョウ,0
2814,9030002072266,登記記録の閉鎖等,0,2021-08-06,2021-07-26,有限会社石橋自動車工場,,有限会社,埼玉県,川越市,新宿町２丁目２番地９,,11,201,3501124,,,2021-07-26,清算の結了等,,,2015-10-05,1,,,,,イシバシジドウシャコウジョウ,0
2820,9030005018464,登記記録の閉鎖等,0,2021-08-06,2021-07-21,特定非営利活動法人さいたま被害者支援ネットＴ－ステーション,,その他の設立登記法人,埼玉県,さいたま市浦和区,東高砂町４－１４エソールビルⅢ,00114930,11,107,3300055,,,2021-07-21,清算の結了等,,,2017-04-24,1,,,,,サイタマヒガイシャシエンネットテーステーション,0
2824,9040003007848,登記記録の閉鎖等,0,2021-08-06,2021-07-28,合同会社サテライトジャパン,,合同会社,千葉県,千葉市花見川区,さつきが丘１丁目２９番６棟３０７号,,12,102,2620014,,,2021-07-28,清算の結了等,,,2015-10-27,1,,,,,サテライトジャパン,0
2832,9050002003723,登記記録の閉鎖等,0,2021-08-06,2021-08-02,有限会社昭栄電機小鶴店,,有限会社,茨城県,東茨城郡茨城町,大字小鶴１６６番地の１,,08,302,3113107,,,2021-08-02,清算の結了等,,,2015-10-05,1,,,,,ショウエイデンキコズルテン,0
2850,9080102006912,登記記録の閉鎖等,0,2021-08-06,2021-08-03,有限会社古菅運送,,有限会社,静岡県,御殿場市,駒門５２７番地の２１,,22,215,4120038,,,2021-08-03,清算の結了等,,,2015-10-05,1,,,,,コスゲウンソウ,0
2851,9080103002068,登記記録の閉鎖等,0,2021-08-06,2021-08-03,合同会社ＫＡＥＲＡ,,合同会社,静岡県,御殿場市,新橋１９７４番地高橋店舗２Ｆ東,00118193,22,215,4120043,,,2021-08-03,清算の結了等,,,2019-11-14,1,,,,,カエラ,0
2864,9110003002957,登記記録の閉鎖等,0,2021-08-06,2021-08-02,合同会社ユン工芸,,合同会社,新潟県,新潟市中央区,上所３丁目４番１０号ファミールハイツ鶴木１０６号,,15,103,9500994,,,2021-08-02,清算の結了等,,,2015-10-05,1,,,,,ユンコウゲイ,0
2867,9120001072381,登記記録の閉鎖等,0,2021-08-06,2021-07-28,ワタナベ株式会社,,株式会社,大阪府,大阪市北区,梅田１丁目２番２－１２００号,,27,127,5300001,,,2021-07-28,清算の結了等,,,2015-10-05,1,,,,,ワタナベ,0
2868,9120001086679,登記記録の閉鎖等,0,2021-08-06,2021-07-30,イーエムプラン株式会社,,株式会社,大阪府,大阪市中央区,大手前１丁目２番１５号,,27,128,5400008,,,2021-07-30,清算の結了等,,,2015-10-05,1,,,,,イーエムプラン,0
2889,9120901024317,登記記録の閉鎖等,0,2021-08-06,2021-08-02,株式会社センシトロン,,株式会社,大阪府,豊中市,東寺内町１２番１４－６０２号,,27,203,5610871,,,2021-08-02,清算の結了等,,,2015-10-05,1,,,,,センシトロン,0
2895,9120902016008,登記記録の閉鎖等,0,2021-08-06,2021-08-03,オルソメディカルサービス有限会社,,有限会社,大阪府,豊能郡豊能町,東ときわ台７丁目１番地の１０,,27,321,5630103,,,2021-08-03,清算の結了等,,,2015-10-05,1,,,,,オルソメディカルサービス,0
2920,9140002050921,登記記録の閉鎖等,0,2021-08-06,2021-07-27,有限会社松崎総業,,有限会社,兵庫県,姫路市,東今宿３丁目１２６７番５,,28,201,6700056,,,2021-07-27,清算の結了等,,,2015-10-05,1,,,,,,0
2944,9180005010200,登記記録の閉鎖等,0,2021-08-06,2021-07-30,御嶽教尾西教会,,その他の設立登記法人,愛知県,一宮市,小信中島字郷南３１６０番地,,23,203,4940007,,,2021-07-30,清算の結了等,,,2015-10-05,1,,,,,オンタケキョウビサイキョウカイ,0
2947,9180301018244,登記記録の閉鎖等,0,2021-08-06,2021-08-02,アート・スペース無限株式会社,,株式会社,愛知県,豊田市,豊栄町５丁目２１番地１,,23,211,4701201,,,2021-08-02,清算の結了等,,,2015-10-05,1,,,,,アートスペースムゲン,0
2953,9190002009772,登記記録の閉鎖等,0,2021-08-06,2021-08-03,三重環境管理有限会社,,有限会社,三重県,伊勢市,船江４丁目１４番６号,,24,203,5160008,,,2021-08-03,清算の結了等,,,2015-10-05,1,,,,,ミエカンキョウカンリ,0
2956,9200002002932,登記記録の閉鎖等,0,2021-08-06,2021-08-04,有限会社玉木米穀,,有限会社,岐阜県,岐阜市,長良宮口町１丁目１４番地,,21,201,5020027,,,2021-08-04,清算の結了等,,,2015-10-05,1,,,,,タマキベイコク,0
2962,9210001016049,登記記録の閉鎖等,0,2021-08-06,2021-08-03,株式会社山内実包店,,株式会社,福井県,勝山市,荒土町細野第１０７号４番地,,18,206,9110048,,,2021-08-03,清算の結了等,,,2015-10-05,1,,,,,ヤマウチジッポウテン,0
3005,9310003001443,登記記録の閉鎖等,0,2021-08-06,2021-08-02,國丸合資会社,,合資会社,長崎県,南松浦郡新上五島町,榎津郷１０９番地,,42,411,8574512,,,2021-08-02,清算の結了等,,,2015-10-05,1,,,,,クニマル,0
3045,9460301002153,登記記録の閉鎖等,0,2021-08-06,2021-08-02,三星アグリサポート株式会社,,株式会社,北海道,網走郡美幌町,字東二条北１丁目１２番地,,01,543,0920052,,,2021-08-02,清算の結了等,,,2015-10-05,1,,,,,サンセイアグリサポート,0
