sequenceNumber,corporateNumber,process,correct,updateDate,changeDate,name,nameImageId,kind,prefectureName,cityName,streetNumber,addressImageId,prefectureCode,cityCode,postCode,addressOutside,addressOutsideImageId,closeDate,closeCause,successorCorporateNumber,changeCause,assignmentDate,latest,enName,enPrefectureName,enCityName,enAddressOutside,furigana,hihyoji
1,1010001143721,登記記録の閉鎖等,0,2022-09-21,2022-09-13,株式会社ワーカーホリック,,株式会社,東京都,中央区,日本橋人形町２丁目２３番１－１００４号,,13,102,1030013,,,2022-09-13,清算の結了等,,,2015-10-05,1,,,,,ワーカーホリック,0
5,1010001210926,登記記録の閉鎖等,0,2022-09-21,2022-09-13,日本香川産業株式会社,,株式会社,東京都,千代田区,東神田２丁目６番７号６０８,,13,101,1010031,,,2022-09-13,清算の結了等,,,2020-07-10,1,,,,,ニホンカガワサンギョウ,0
6,1010001217896,登記記録の閉鎖等,0,2022-09-21,2022-09-01,未来仲通り株式会社,,株式会社,東京都,千代田区,有楽町１丁目９番４号,,13,101,1000006,,,2022-09-01,合併による解散等,2012301001723,令和４年９月１日東京都千代田区有楽町一丁目９番４号株式会富澤商店（2012301001723）に合併し解散,2021-05-06,1,,,,,ミライナカドオリ,0
15,1010401139328,登記記録の閉鎖等,0,2022-09-21,2022-09-02,株式会社ＨＱＣ　ＴＯＫＹＯ,,株式会社,東京都,渋谷区,渋谷３丁目６番２号,,13,113,1500002,,,2022-09-02,清算の結了等,,,2018-07-03,1,,,,,エイチキューシートーキョー,0
33,1010901050562,登記記録の閉鎖等,0,2022-09-21,2022-09-15,株式会社Ｐｉｅｎａ　ｄｉ　ｖｉｔａ,,株式会社,東京都,世田谷区,三軒茶屋１丁目３５番１７号ルーエプラッツ三軒茶屋３０１,,13,112,1540024,,,2022-09-15,清算の結了等,,,2022-03-25,1,,,,,ピエナディビータ,0
41,1011003008813,登記記録の閉鎖等,0,2022-09-21,2022-09-06,ワイズウッズ・セブン合同会社,,合同会社,東京都,渋谷区,代官山町２０番９号,,13,113,1500034,,,2022-09-06,清算の結了等,,,2018-05-22,1,,,,,ワイズウッズセブン,0
84,1030005007929,登記記録の閉鎖等,0,2022-09-21,2022-09-06,特定非営利活動法人子どもの郷,,その他の設立登記法人,埼玉県,春日部市,小渕１２２１番地１１,,11,214,3440007,,,2022-09-06,清算の結了等,,,2015-10-05,1,,,,,コドモノサト,0
92,1040002019331,登記記録の閉鎖等,0,2022-09-21,2022-09-12,有限会社セカイ工業,,有限会社,千葉県,習志野市,谷津３丁目１番３１－９１２号,,12,216,2750026,,,2022-09-12,清算の結了等,,,2015-10-05,1,,,,,セカイコウギョウ,0
100,1070001037067,登記記録の閉鎖等,0,2022-09-21,2022-09-15,ｆｒａｇｒａｎｃｅ株式会社,,株式会社,群馬県,高崎市,東町３２番地１ＢｒｉｌｌｉａＴｏｗｅｒ６０８号,,10,202,3700045,,,2022-09-15,清算の結了等,,,2020-07-30,1,,,,,フレグランス,0
114,1110002032244,登記記録の閉鎖等,0,2022-09-21,2022-09-15,有限会社田中造園,,有限会社,新潟県,小千谷市,大字時水１４８６番地,,15,208,9470033,,,2022-09-15,清算の結了等,,,2015-10-05,1,,,,,タナカゾウエン,0
121,1120002008672,登記記録の閉鎖等,0,2022-09-21,2022-09-15,有限会社フジワラ,,有限会社,大阪府,大阪市城東区,野江１丁目６番２号,,27,118,5360006,,,2022-09-15,清算の結了等,,,2015-10-05,1,,,,,フジワラ,0
126,1122001019956,登記記録の閉鎖等,0,2022-09-21,2022-09-16,株式会社福島工務店,,株式会社,大阪府,八尾市,天王寺屋７丁目５番地,,27,212,5810025,,,2022-09-16,清算の結了等,,,2015-10-05,1,,,,,フクシマコウムテン,0
136,1140002023389,登記記録の閉鎖等,0,2022-09-21,2022-09-13,一福有限会社,,有限会社,兵庫県,芦屋市,三条町２１番６号,,28,206,6590087,,,2022-09-13,清算の結了等,,,2015-10-05,1,,,,,イチフク,0
149,1180003000326,登記記録の閉鎖等,0,2022-09-21,2022-09-16,合資会社春洋社,,合資会社,愛知県,名古屋市千種区,神田町３０番１４号,,23,101,4640077,,,2022-09-16,清算の結了等,,,2015-10-05,1,,,,,シュンヨウシャ,0
156,1180305004611,登記記録の閉鎖等,0,2022-09-21,2022-09-01,花ノ木商店街振興組合,,その他の設立登記法人,愛知県,安城市,花ノ木町７番１７号,,23,212,4460039,,,2022-09-01,合併による解散等,7180305004614,愛知県安城市御幸本町８番５号安城市つながる商店街振興組合（7180305004614）に合併し解散,2015-10-05,1,,,,,ハナノキショウテンガイ,0
168,1260002015639,登記記録の閉鎖等,0,2022-09-21,2022-09-20,山佐ハイビスカス・リース有限会社,,有限会社,岡山県,岡山市南区,福富東２丁目２０番６号,,33,104,7028033,,,2022-09-20,清算の結了等,,,2015-10-05,1,,,,,,0
169,1280002003476,登記記録の閉鎖等,0,2022-09-21,2022-09-20,有限会社おくむら,,有限会社,島根県,松江市,朝日町５８９番地６,,32,201,6900003,,,2022-09-20,清算の結了等,,,2015-10-05,1,,,,,オクムラ,0
183,1290805000215,登記記録の閉鎖等,0,2022-09-21,2022-09-02,天理教東小倉分教会,,その他の設立登記法人,福岡県,北九州市小倉北区,下富野２丁目７番３２号,,40,106,8020023,,,2022-09-02,合併による解散等,8150005000510,令和４年８月３０日奈良市今市町２８５番地の１天理教治道大教会（8150005000510）に合併し解散,2015-10-05,1,,,,,テンリキョウヒガシコクラブンキョウカイ,0
193,1330003005441,登記記録の閉鎖等,0,2022-09-21,2022-09-14,合同会社アーク訪問マッサージ,,合同会社,熊本県,熊本市東区,小峯４丁目２番４３号,,43,102,8620933,,,2022-09-14,清算の結了等,,,2015-10-05,1,,,,,アークホウモンマッサージ,0
194,1330003007850,登記記録の閉鎖等,0,2022-09-21,2022-09-14,合同会社岩本総建,,合同会社,熊本県,荒尾市,四ツ山町１丁目２番１５号７あけぼのハイツ６号,,43,204,8640052,,,2022-09-14,清算の結了等,,,2019-03-26,1,,,,,イワモトソウケン,0
203,1380002014711,登記記録の閉鎖等,0,2022-09-21,2022-09-15,有限会社アグリネット,,有限会社,福島県,田村郡三春町,大字春沢字春沢１番地５,,07,521,9637721,,,2022-09-15,清算の結了等,,,2015-10-05,1,,,,,アグリネット,0
206,1400003002241,登記記録の閉鎖等,0,2022-09-21,2022-09-20,ミルヒささき合同会社,,合同会社,岩手県,奥州市,江刺伊手字上長前１４０番地,,03,215,0231761,,,2022-09-20,清算の結了等,,,2017-09-08,1,,,,,ミルヒササキ,0
213,1440003001090,登記記録の閉鎖等,0,2022-09-21,2022-09-15,合同会社銘水農園,,合同会社,北海道,寿都郡黒松内町,字豊幌２７９番地,,01,393,0480113,,,2022-09-15,清算の結了等,,,2016-05-02,1,,,,,メイスイノウエン,0
214,1460002004778,登記記録の閉鎖等,0,2022-09-21,2022-09-15,有限会社風曜日,,有限会社,北海道,川上郡弟子屈町,字弟子屈原野８８３番地,,01,665,0883222,,,2022-09-15,清算の結了等,,,2015-10-05,1,,,,,カゼヨウビ,0
234,2010003017534,登記記録の閉鎖等,0,2022-09-21,2022-09-12,リラ・プロパティー合同会社,,合同会社,東京都,千代田区,九段南３丁目７番７号,,13,101,1020074,,,2022-09-12,清算の結了等,,,2015-10-05,1,,,,,リラプロパティー,0
246,2010401048791,登記記録の閉鎖等,0,2022-09-21,2022-09-13,株式会社マジックファクトリー,,株式会社,東京都,中央区,日本橋兜町１６番１号第１１大協ビル,,13,102,1030026,,,2022-09-13,清算の結了等,,,2015-10-05,1,,,,,マジックファクトリー,0
300,2013305000249,登記記録の閉鎖等,0,2022-09-21,2022-09-02,天理教京神分教会,,その他の設立登記法人,東京都,豊島区,西池袋２丁目３番１２号,,13,116,1710021,,,2022-09-02,合併による解散等,8150005000510,令和４年８月３０日奈良市今市町２８５番地の１天理教治道大教会（8150005000510）に合併し解散,2015-10-05,1,,,,,,0
306,2020002051814,登記記録の閉鎖等,0,2022-09-21,2022-09-14,有限会社オウカ,,有限会社,神奈川県,横浜市保土ケ谷区,西谷１丁目１３番２５号,,14,106,2400054,,,2022-09-14,清算の結了等,,,2015-10-05,1,,,,,オウカ,0
310,2021002024974,登記記録の閉鎖等,0,2022-09-21,2022-09-16,安久商事有限会社,,有限会社,神奈川県,相模原市中央区,陽光台１丁目３番２５号,,14,152,2520226,,,2022-09-16,清算の結了等,,,2015-10-05,1,,,,,アンクショウジ,0
311,2021002061547,登記記録の閉鎖等,0,2022-09-21,2022-09-16,有限会社ライズ・エステート,,有限会社,神奈川県,平塚市,東中原２丁目１１番３８号,,14,203,2540077,,,2022-09-16,清算の結了等,,,2015-10-05,1,,,,,ライズエステート,0
322,2040001063354,登記記録の閉鎖等,0,2022-09-21,2022-09-13,株式会社アマギ,,株式会社,千葉県,山武郡芝山町,大里５７番地１８,,12,409,2891603,,,2022-09-13,清算の結了等,,,2015-10-05,1,,,,,アマギ,0
348,2090002007859,登記記録の閉鎖等,0,2022-09-21,2022-09-15,有限会社穂坂,,有限会社,山梨県,南アルプス市,大師７０３番地７,,19,208,4000416,,,2022-09-15,清算の結了等,,,2015-10-05,1,,,,,ホサカ,0
362,2120901019232,登記記録の閉鎖等,0,2022-09-21,2022-09-20,株式会社サプライ,,株式会社,大阪府,吹田市,元町２４番３０号,,27,205,5640031,,,2022-09-20,清算の結了等,,,2015-10-05,1,,,,,サプライ,0
363,2120902001701,登記記録の閉鎖等,0,2022-09-21,2022-09-16,有限会社ユウシン,,有限会社,大阪府,茨木市,三島丘２丁目２４番１８号,,27,211,5670021,,,2022-09-16,清算の結了等,,,2015-10-05,1,,,,,ユウシン,0
370,2140001082848,登記記録の閉鎖等,0,2022-09-21,2022-09-02,株式会社石原運送,,株式会社,兵庫県,宝塚市,旭町２丁目１４番８号,,28,214,6650835,,,2022-09-02,清算の結了等,,,2015-10-05,1,,,,,イシハラウンソウ,0
375,2140003004750,登記記録の閉鎖等,0,2022-09-21,2022-09-13,合資会社神戸通商,,合資会社,兵庫県,神戸市西区,春日台５丁目１４番地の１６,,28,111,6512276,,,2022-09-13,清算の結了等,,,2015-10-05,1,,,,,コウベツウショウ,0
378,2150002010674,登記記録の閉鎖等,0,2022-09-21,2022-09-16,有限会社ＮＡＳ,,有限会社,奈良県,奈良市,中登美ヶ丘６丁目１３番１－４１１号,,29,201,6310003,,,2022-09-16,清算の結了等,,,2015-10-05,1,,,,,エヌエーエス,0
388,2180001133952,登記記録の閉鎖等,0,2022-09-21,2022-09-16,三友中部株式会社,,株式会社,愛知県,名古屋市千種区,振甫町４丁目５番地の２,,23,101,4640072,,,2022-09-16,清算の結了等,,,2018-10-09,1,,,,,ミツトモチュウブ,0
393,2180302026005,登記記録の閉鎖等,0,2022-09-21,2022-09-06,有限会社リビング・クリエイト,,有限会社,愛知県,豊田市,中立町宮ノ沢２０番地,,23,211,4442517,,,2022-09-06,清算の結了等,,,2015-10-05,1,,,,,リビングクリエイト,0
394,2190001023517,登記記録の閉鎖等,0,2022-09-21,2022-09-01,株式会社Ｃ‐ｏｐｓｏｌ,,株式会社,三重県,伊勢市,小俣町元町６２３番１,,24,203,5190503,,,2022-09-01,合併による解散等,4190001024348,令和４年９月１日三重県伊勢市小俣町元町６２３番１ｏｐｓｏｌ株式会社（4190001024348）に合併し解散,2016-03-23,1,,,,,シーオプソル,0
395,2190001026651,登記記録の閉鎖等,0,2022-09-21,2022-09-21,ＷＰ総合医療株式会社,,株式会社,三重県,津市,久居北口町２７２７番地１,,24,201,5141105,,,2022-09-21,清算の結了等,,,2019-08-08,1,,,,,ダブルピーソウゴウイリョウ,0
400,2220001004785,登記記録の閉鎖等,0,2022-09-21,2022-09-15,中西金型工業株式会社,,株式会社,石川県,金沢市,北間町ホ１６０番地１,,17,201,9200212,,,2022-09-15,清算の結了等,,,2015-10-05,1,,,,,ナカニシカナガタコウギョウ,0
433,2430001063793,登記記録の閉鎖等,0,2022-09-21,2022-09-09,株式会社ハピネス,,株式会社,北海道,恵庭市,和光町４丁目８番２０号,,01,231,0611406,,,2022-09-09,清算の結了等,,,2015-10-05,1,,,,,ハピネス,0
442,3010001007593,登記記録の閉鎖等,0,2022-09-21,2022-09-12,株式会社三組工房,,株式会社,東京都,文京区,湯島２丁目９番７号,,13,105,1130034,,,2022-09-12,清算の結了等,,,2015-10-05,1,,,,,ミクミコウボウ,0
447,3010001207730,登記記録の閉鎖等,0,2022-09-21,2022-08-31,株式会社パレット,,株式会社,東京都,千代田区,神田須田町２丁目２５番地,,13,101,1010041,,,2022-08-31,清算の結了等,,,2020-02-26,1,,,,,パレット,0
462,3010401120665,登記記録の閉鎖等,0,2022-09-21,2022-09-02,ｕｍｌａｕｔ株式会社,,株式会社,東京都,港区,赤坂２丁目１４番５号Ｄａｉｗａ赤坂ビル４階,,13,103,1070052,,,2022-09-02,合併による解散等,7010401001556,令和４年９月１日東京都港区赤坂一丁目８番１号アクセンチュア株式会社（7010401001556）に合併し解散,2015-10-05,1,,,,,アムラウト,0
465,3010401144821,登記記録の閉鎖等,0,2022-09-21,2022-09-02,株式会社スワンキー溜池,,株式会社,東京都,港区,赤坂２丁目１０番１１号,,13,103,1070052,,,2022-09-02,清算の結了等,,,2019-04-05,1,,,,,スワンキータメイケ,0
487,3011001124726,登記記録の閉鎖等,0,2022-09-21,2022-09-06,株式会社Ａチーム,,株式会社,東京都,目黒区,上目黒４丁目１０番３号,,13,110,1530051,,,2022-09-06,清算の結了等,,,2018-10-16,1,,,,,エーチーム,0
515,3013201012396,登記記録の閉鎖等,0,2022-09-21,2022-09-09,株式会社打田アライズ,,株式会社,東京都,目黒区,鷹番３丁目２１番４号,,13,110,1520004,,,2022-09-09,清算の結了等,,,2015-10-05,1,,,,,ウチダアライズ,0
528,3021002063559,登記記録の閉鎖等,0,2022-09-21,2022-09-15,有限会社かつまた,,有限会社,神奈川県,横須賀市,富士見町２丁目１番地,,14,201,2380021,,,2022-09-15,清算の結了等,,,2015-10-05,1,,,,,カツマタ,0
535,3030002033835,登記記録の閉鎖等,0,2022-09-21,2022-09-06,有限会社神輿亭,,有限会社,埼玉県,所沢市,三ケ島５丁目２０６２番地２８,,11,208,3591164,,,2022-09-06,清算の結了等,,,2015-10-05,1,,,,,ミコシテイ,0
544,3040001119015,登記記録の閉鎖等,0,2022-09-21,2022-09-15,シルバースピリットジャパン株式会社,,株式会社,千葉県,君津市,坂田３５０番地３,,12,225,2991142,,,2022-09-15,清算の結了等,,,2021-06-18,1,,,,,シルバースピリットジャパン,0
560,3070001035317,登記記録の閉鎖等,0,2022-09-21,2022-09-15,株式会社ＬＡＵＲＥＮ,,株式会社,群馬県,高崎市,中居町２丁目２２番地３,,10,202,3700852,,,2022-09-15,清算の結了等,,,2018-12-11,1,,,,,ローレン,0
567,3100002012559,登記記録の閉鎖等,0,2022-09-21,2022-09-13,有限会社谷工業,,有限会社,長野県,小諸市,大字滋野甲７３６番地１９,,20,208,3840809,,,2022-09-13,清算の結了等,,,2022-04-28,1,,,,,タニコウギョウ,0
569,3100003005256,登記記録の閉鎖等,0,2022-09-21,2022-09-14,合同会社諏訪事務所,,合同会社,長野県,東御市,御牧原４７００番地２６,,20,219,3890403,,,2022-09-14,清算の結了等,,,2019-03-07,1,,,,,スワジムショ,0
575,3120001162584,登記記録の閉鎖等,0,2022-09-21,2022-09-14,サムシングフォー・ジャパン株式会社,,株式会社,大阪府,大阪市北区,大淀南１丁目１０番３号,,27,127,5310075,,,2022-09-14,清算の結了等,,,2015-10-05,1,,,,,,0
584,3120005007109,登記記録の閉鎖等,0,2022-09-21,2022-09-13,日本経済新聞大阪専売店協同組合,,その他の設立登記法人,大阪府,大阪市北区,中崎西２丁目３番８号,,27,127,5300015,,,2022-09-13,清算の結了等,,,2015-10-05,1,,,,,ニホンケイザイシンブンオオサカセンバイテン,0
590,3130001032142,登記記録の閉鎖等,0,2022-09-21,2022-09-08,株式会社京近江農産,,株式会社,京都府,京都市左京区,大原戸寺町９５番地,,26,103,6011245,,,2022-09-08,清算の結了等,,,2015-10-05,1,,,,,キョウオウミノウサン,0
592,3130001050433,登記記録の閉鎖等,0,2022-09-21,2022-09-09,株式会社オットコリーネ京都,,株式会社,京都府,京都市東山区,今熊野北日吉町５２番地４１,,26,105,6050926,,,2022-09-09,清算の結了等,,,2015-10-05,1,,,,,オットコリーネキョウト,0
598,3140001005964,登記記録の閉鎖等,0,2022-09-21,2022-09-07,株式会社アバン,,株式会社,東京都,目黒区,青葉台３丁目６番２８号住友不動産青葉台タワー２階,,13,110,1530042,,,2022-09-07,清算の結了等,,,2015-10-05,1,,,,,アバン,0
606,3140001123428,登記記録の閉鎖等,0,2022-09-21,2022-09-13,株式会社Ｓｑｕａｒｅ　Ｍ,,株式会社,兵庫県,洲本市,本町４丁目２番３２号,,28,205,6560025,,,2022-09-13,清算の結了等,,,2021-10-18,1,,,,,スクエアーエム,0
616,3170002011488,登記記録の閉鎖等,0,2022-09-21,2022-09-16,有限会社朝日建設,,有限会社,和歌山県,東牟婁郡那智勝浦町,大字朝日２丁目１６４番地,,30,421,6495332,,,2022-09-16,清算の結了等,,,2015-10-05,1,,,,,アサヒケンセツ,0
619,3180001010580,登記記録の閉鎖等,0,2022-09-21,2022-09-08,中部国土計画株式会社,,株式会社,愛知県,名古屋市瑞穂区,田辺通１丁目１７番地,,23,108,4670027,,,2022-09-08,清算の結了等,,,2022-03-22,1,,,,,チュウブコクドケイカク,0
631,3190002011651,登記記録の閉鎖等,0,2022-09-21,2022-09-14,有限会社ふじ,,有限会社,三重県,志摩市,志摩町片田７４８番地３,,24,215,5170701,,,2022-09-14,清算の結了等,,,2015-10-05,1,,,,,フジ,0
635,3230001017579,登記記録の閉鎖等,0,2022-09-21,2022-09-12,株式会社シダーズ,,株式会社,富山県,射水市,三ケ３２７１番地,,16,211,9390341,,,2022-09-12,合併による解散等,1230001012722,令和４年９月１日富山県射水市戸破６２４番地杉山製機株式会社（1230001012722）に合併し解散,2018-09-06,1,,,,,シダーズ,0
645,3280003000504,登記記録の閉鎖等,0,2022-09-21,2022-09-16,合資会社瀬尾商店,,合資会社,島根県,鹿足郡吉賀町,七日市５１２番地９,,32,505,6995522,,,2022-09-16,清算の結了等,,,2015-10-05,1,,,,,セオショウテン,0
661,3360001020470,登記記録の閉鎖等,0,2022-09-21,2022-08-31,株式会社なかよし給食センター那覇,,株式会社,沖縄県,那覇市,字小禄１４４３番地７ロマネスクＫ－Ｉ、２０１,,47,201,9010152,,,2022-08-31,合併による解散等,6360001017869,令和４年８月３１日沖縄県豊見城市字豊見城４９３－２株式会社なかよし給食センター（6360001017869）に合併し解散,2016-02-15,1,,,,,ナカヨシキュウショクセンターナハ,0
667,3400005007798,登記記録の閉鎖等,0,2022-09-21,2022-09-16,一般社団法人三陸沿岸の鉄路復興を求める会,,その他の設立登記法人,岩手県,大船渡市,盛町字木町５番地２０,,03,203,0220003,,,2022-09-16,清算の結了等,,,2017-06-12,1,,,,,サンリクエンガンノテツロフッコウヲモトメルカイ,0
671,3430002001009,登記記録の閉鎖等,0,2022-09-21,2022-09-06,有限会社東家佐藤食堂,,有限会社,北海道,札幌市中央区,南十九条西７丁目３番２０号,,01,101,0640919,,,2022-09-06,清算の結了等,,,2015-10-05,1,,,,,アズマヤサトウショクドウ,0
691,4010002035469,登記記録の閉鎖等,0,2022-09-21,2022-09-13,有限会社エメロテーカ,,有限会社,東京都,中央区,月島１丁目１１番９－７０３号,,13,102,1040052,,,2022-09-13,清算の結了等,,,2015-10-05,1,,,,,エメロテーカ,0
695,4010005033081,登記記録の閉鎖等,0,2022-09-21,2022-09-15,一般社団法人右京,,その他の設立登記法人,東京都,中央区,日本橋１丁目４番１号,,13,102,1030027,,,2022-09-15,清算の結了等,,,2021-03-15,1,,,,,ウキョウ,0
702,4010401117850,登記記録の閉鎖等,0,2022-09-21,2022-09-09,ＳＳＯ株式会社,,株式会社,東京都,千代田区,神田須田町２丁目５番地,,13,101,1010041,,,2022-09-09,清算の結了等,,,2015-10-05,1,,,,,,0
713,4010403013412,登記記録の閉鎖等,0,2022-09-21,2022-09-02,合同会社エクリ,,合同会社,東京都,港区,南青山２丁目２番１５号ウィン青山１４０３,,13,103,1070062,,,2022-09-02,清算の結了等,,,2015-10-05,1,,,,,エクリ,0
739,4011101083219,登記記録の閉鎖等,0,2022-09-21,2022-09-15,株式会社Ｍｙｔｈｏｌｏｇｙ,,株式会社,東京都,新宿区,歌舞伎町２丁目２７番１２号新宿ＬＥＥ２ビル地下１階Ｄ号室,,13,104,1600021,,,2022-09-15,清算の結了等,,,2018-02-22,1,,,,,マイソロジー,0
744,4011202004296,登記記録の閉鎖等,0,2022-09-21,2022-09-05,有限会社友田コーポレーション,,有限会社,東京都,中野区,大和町２丁目５番１１号,,13,114,1650034,,,2022-09-05,清算の結了等,,,2015-10-05,1,,,,,トモダコーポレーション,0
756,4012701007871,登記記録の閉鎖等,0,2022-09-21,2022-09-16,株式会社アルファテクニカル,,株式会社,東京都,小平市,学園西町１丁目１７番１－７１５号,,13,211,1870045,,,2022-09-16,清算の結了等,,,2015-10-05,1,,,,,アルファテクニカル,0
763,4020001072198,登記記録の閉鎖等,0,2022-09-21,2022-09-14,株式会社栄工社,,株式会社,神奈川県,横浜市神奈川区,松見町４丁目１１０１番地２０グランシティ菊名６０６号,,14,102,2210005,,,2022-09-14,清算の結了等,,,2015-10-05,1,,,,,エイコウシャ,0
766,4020002102004,登記記録の閉鎖等,0,2022-09-21,2022-09-14,有限会社エバーフォーミュージック,,有限会社,神奈川県,川崎市宮前区,南野川２丁目５０番１４号,,14,136,2160042,,,2022-09-14,清算の結了等,,,2015-10-05,1,,,,,エバーフォーミュージック,0
768,4020005009106,登記記録の閉鎖等,0,2022-09-21,2022-09-08,特定非営利活動法人緑園東はまっこスクール,,その他の設立登記法人,神奈川県,横浜市泉区,緑園５丁目２８番地,,14,116,2450002,,,2022-09-08,清算の結了等,,,2015-10-05,1,,,,,リョクエンヒガシハマッコスクール,0
779,4030002009553,登記記録の閉鎖等,0,2022-09-21,2022-09-06,有限会社土橋板金工業所,,有限会社,埼玉県,さいたま市南区,根岸４丁目１６番１３号,,11,108,3360024,,,2022-09-06,清算の結了等,,,2015-10-05,1,,,,,ドバシバンキンコウギョウショ,0
781,4030002105311,登記記録の閉鎖等,0,2022-09-21,2022-09-07,有限会社当山電気工業,,有限会社,埼玉県,川口市,西青木３丁目４番３０号,,11,203,3320035,,,2022-09-07,清算の結了等,,,2015-10-05,1,,,,,トウヤマデンキコウギョウ,0
794,4070001001152,登記記録の閉鎖等,0,2022-09-21,2022-09-12,株式会社鶏林堂,,株式会社,群馬県,前橋市,千代田町３丁目３番８号,,10,201,3710022,,,2022-09-12,清算の結了等,,,2015-10-05,1,,,,,ケイリンドウ,0
800,4080105002657,登記記録の閉鎖等,0,2022-09-21,2022-09-16,富士富士宮地区畳商工業協同組合,,その他の設立登記法人,静岡県,富士市,伝法３０１４番地の２,,22,210,4170061,,,2022-09-16,清算の結了等,,,2015-10-05,1,,,,,フジフジノミヤチクタタミ,0
805,4100002007962,登記記録の閉鎖等,0,2022-09-21,2022-09-14,有限会社ばーど,,有限会社,長野県,長野市,大字小島１番地１０,,20,201,3810017,,,2022-09-14,清算の結了等,,,2015-10-05,1,,,,,バード,0
808,4100005000659,登記記録の閉鎖等,0,2022-09-21,2022-08-29,天理教屋代分教会,,その他の設立登記法人,長野県,長野市,川中島町原字宮浦沖４８５番地の２,,20,201,3812224,,,2022-08-29,合併による解散等,4100005000675,令和４年８月２９日長野市大字富竹字山道西６８９番地の２天理教信州長野分教会（4100005000675）に合併し解散,2015-10-05,1,,,,,,0
813,4120001050796,登記記録の閉鎖等,0,2022-09-21,2022-09-14,株式会社モリカワ,,株式会社,大阪府,大阪市西淀川区,御幣島４丁目５番８号,,27,113,5550012,,,2022-09-14,清算の結了等,,,2015-10-05,1,,,,,モリカワ,0
839,4140001015905,登記記録の閉鎖等,0,2022-09-21,2022-09-08,加藤冷機工業株式会社,,株式会社,兵庫県,神戸市長田区,苅藻通６丁目１番１０号,,28,106,6530032,,,2022-09-08,清算の結了等,,,2015-10-05,1,,,,,カトウレイキコウギョウ,0
844,4140001074380,登記記録の閉鎖等,0,2022-09-21,2022-09-14,弥生建設株式会社,,株式会社,兵庫県,西宮市,名塩東久保５４３番地１,,28,204,6691148,,,2022-09-14,清算の結了等,,,2015-10-05,1,,,,,,0
864,4180002041450,登記記録の閉鎖等,0,2022-09-21,2022-09-16,有限会社イドタテック,,有限会社,愛知県,名古屋市瑞穂区,井戸田町２丁目３４番地,,23,108,4670835,,,2022-09-16,清算の結了等,,,2015-10-05,1,,,,,イドタテック,0
867,4180302000346,登記記録の閉鎖等,0,2022-09-21,2022-09-09,イトウ空調有限会社,,有限会社,愛知県,岡崎市,中島西町２丁目６番地４,,23,202,4440225,,,2022-09-09,清算の結了等,,,2015-10-05,1,,,,,イトウクウチョウ,0
872,4200001002211,登記記録の閉鎖等,0,2022-09-21,2022-09-20,桜不動産株式会社,,株式会社,岐阜県,岐阜市,金町８丁目２８番地,,21,201,5008842,,,2022-09-20,清算の結了等,,,2015-10-05,1,,,,,サクラフドウサン,0
886,4260002025750,登記記録の閉鎖等,0,2022-09-21,2022-09-20,株式会社高屋製作所,,株式会社,岡山県,井原市,高屋町２９８５番地の１,,33,207,7150024,,,2022-09-20,清算の結了等,,,2015-10-05,1,,,,,タカヤセイサクショ,0
899,4300001010559,登記記録の閉鎖等,0,2022-09-21,2022-09-13,株式会社なりどみ,,株式会社,佐賀県,佐賀市,諸富町大字大堂２２１４番地,,41,201,8402101,,,2022-09-13,清算の結了等,,,2016-11-17,1,,,,,ナリドミ,0
923,4420002005199,登記記録の閉鎖等,0,2022-09-21,2022-09-08,有限会社シルバーリード青森,,有限会社,埼玉県,久喜市,上内４７８番地わし宮団地２街区１９棟２０５号,,11,232,3400211,,,2022-09-08,清算の結了等,,,2015-10-05,1,,,,,シルバーリードアオモリ,0
928,4490001009913,登記記録の閉鎖等,0,2022-09-21,2022-09-20,庵積算株式会社,,株式会社,高知県,高知市,福井町１７１５番地２３,,39,201,7800965,,,2022-09-20,清算の結了等,,,2021-07-05,1,,,,,アンセキサン,0
931,4500002018548,登記記録の閉鎖等,0,2022-09-21,2022-09-16,ダイキ電業有限会社,,有限会社,愛媛県,今治市,神宮甲４１５番地の１,,38,202,7940074,,,2022-09-16,清算の結了等,,,2015-10-05,1,,,,,ダイキデンギョウ,0
933,5010001072306,登記記録の閉鎖等,0,2022-09-21,2022-09-07,株式会社ヤシカジェイプラス,,株式会社,埼玉県,北葛飾郡松伏町,大字松伏３４４８番地,,11,465,3430111,,,2022-09-07,清算の結了等,,,2015-10-05,1,,,,,ヤシカジェイプラス,0
937,5010001112152,登記記録の閉鎖等,0,2022-09-21,2022-09-12,ＤＩＣホールディングス株式会社,,株式会社,東京都,中央区,日本橋３丁目７番２０号,,13,102,1030027,,,2022-09-12,清算の結了等,,,2015-10-05,1,,,,,ディーアイシーホールディングス,0
938,5010001121888,登記記録の閉鎖等,0,2022-09-21,2022-09-12,ＤＩＣ　Ｈｏｌｄｉｎｇｓ株式会社,,株式会社,東京都,中央区,日本橋３丁目７番２０号,,13,102,1030027,,,2022-09-12,清算の結了等,,,2015-10-05,1,,,,,ディーアイシーホールディングス,0
967,5010601012900,登記記録の閉鎖等,0,2022-09-21,2022-09-09,株式会社タダシゴム商会,,株式会社,東京都,墨田区,亀沢４丁目７番１０－１０４号,,13,107,1300014,,,2022-09-09,清算の結了等,,,2015-10-05,1,,,,,タダシゴムショウカイ,0
976,5011001024239,登記記録の閉鎖等,0,2022-09-21,2022-09-07,株式会社ワイエイチツープロジェクト,,株式会社,東京都,渋谷区,神山町２２番１７号,,13,113,1500047,,,2022-09-07,清算の結了等,,,2015-10-05,1,,,,,ワイエイチツープロジェクト,0
988,5011002003877,登記記録の閉鎖等,0,2022-09-21,2022-09-06,有限会社ケイエヌシステム,,有限会社,東京都,渋谷区,笹塚３丁目５４番１２号,,13,113,1510073,,,2022-09-06,清算の結了等,,,2015-10-05,1,,,,,ケイエヌシステム,0
989,5011002029220,登記記録の閉鎖等,0,2022-09-21,2022-09-12,有限会社ＯＴＴＯ　ＣＯＲＰＯＲＡＴＩＯＮ,,有限会社,東京都,渋谷区,上原２丁目２４番１０号,,13,113,1510064,,,2022-09-12,清算の結了等,,,2015-10-05,1,,,,,オットーコーポレーション,0
998,5011102027454,登記記録の閉鎖等,0,2022-09-21,2022-09-15,Ｈｏｎｇｏ　Ｃｏｎｎｅｃｔ＆Ｃｏｎｓｕｌｔｉｎｇ株式会社,,株式会社,東京都,新宿区,西新宿１丁目２５番１号新宿センタービル３１Ｆ,,13,104,1600023,,,2022-09-15,清算の結了等,,,2015-10-05,1,,,,,ホンゴウコネクトアンドコンサルティング,0
999,5011103010137,登記記録の閉鎖等,0,2022-09-21,2022-09-16,横浜管財合同会社,,合同会社,東京都,新宿区,四谷１丁目２０番地玉川ビル６階,,13,104,1600004,,,2022-09-16,清算の結了等,,,2020-10-27,1,,,,,ヨコハマカンザイ,0
1003,5011701016444,登記記録の閉鎖等,0,2022-09-21,2022-09-05,株式会社ＣＸメディカルジャパン,,株式会社,東京都,渋谷区,神宮前１丁目５番８号,,13,113,1500001,,,2022-09-05,合併による解散等,6010401125991,令和４年９月１日東京都渋谷区神宮前一丁目５番８号メドペイス・ジャパン株式会社（6010401125991）に合併し解散,2015-10-05,1,,,,,シーエックスメディカルジャパン,0
1023,5030001019593,登記記録の閉鎖等,0,2022-09-21,2022-09-06,ダイケンインターナショナル株式会社,,株式会社,埼玉県,さいたま市岩槻区,西町５丁目２番２５号,,11,110,3390067,,,2022-09-06,清算の結了等,,,2015-10-05,1,,,,,ダイケンインターナショナル,0
1039,5050001013545,登記記録の閉鎖等,0,2022-09-21,2022-09-14,ヤマダイ運輸株式会社,,株式会社,茨城県,結城郡八千代町,大字平塚４８２８番地,,08,521,3003561,,,2022-09-14,清算の結了等,,,2015-10-05,1,,,,,ヤマダイウンユ,0
1060,5120001177218,登記記録の閉鎖等,0,2022-09-21,2022-09-15,森本商事株式会社,,株式会社,大阪府,大阪市東住吉区,桑津４丁目１１番２８号,,27,121,5460041,,,2022-09-15,清算の結了等,,,2015-10-05,1,,,,,モリモトショウジ,0
1073,5120902010451,登記記録の閉鎖等,0,2022-09-21,2022-09-14,有限会社ジークス,,有限会社,大阪府,高槻市,南芥川町１８番１６号,,27,207,5691124,,,2022-09-14,清算の結了等,,,2015-10-05,1,,,,,ジークス,0
1079,5130005002271,登記記録の閉鎖等,0,2022-09-21,2022-08-30,顯壽院,,その他の設立登記法人,京都府,京都市左京区,新高倉通孫橋上る法皇寺町４４８番地,,26,103,6068362,,,2022-08-30,合併による解散等,4130005002272,令和４年８月３０日京都市左京区新高倉通孫橋上る法皇寺町４４８番地本山要法寺（4130005002272）に合併し解散,2015-10-05,1,,,,,ケンジュイン,0
1121,5190002001576,登記記録の閉鎖等,0,2022-09-21,2022-09-20,有限会社三重セラミック,,有限会社,三重県,津市,半田１６４番地の１１,,24,201,5140823,,,2022-09-20,清算の結了等,,,2015-10-05,1,,,,,ミエセラミック,0
1130,5250001006751,登記記録の閉鎖等,0,2022-09-21,2022-09-14,株式会社ケイ・エヌ・ケイ・コーポレーション,,株式会社,山口県,下関市,新地西町１０番１７号,,35,201,7500062,,,2022-09-14,清算の結了等,,,2015-10-05,1,,,,,ケイエヌケイコーポレーション,0
1133,5260001001272,登記記録の閉鎖等,0,2022-09-21,2022-09-14,株式会社岡山フカガワ,,株式会社,岡山県,岡山市中区,江並８９番地３,,33,102,7028004,,,2022-09-14,合併による解散等,8030001076970,令和４年９月１日埼玉県川口市西青木二丁目９番５号株式会社フカガワ（8030001076970）に合併し解散,2015-10-05,1,,,,,オカヤマフカガワ,0
1135,5260001028786,登記記録の閉鎖等,0,2022-09-21,2022-09-16,株式会社友縁会,,株式会社,岡山県,赤磐市,桜が丘西４丁目１２－１０,,33,213,7090802,,,2022-09-16,清算の結了等,,,2015-10-05,1,,,,,ユウエンカイ,0
1172,5400005007854,登記記録の閉鎖等,0,2022-09-21,2022-09-16,一般社団法人気仙大工の復権と未来を考える会,,その他の設立登記法人,岩手県,大船渡市,赤崎町字石橋前６番地８,,03,203,0220007,,,2022-09-16,清算の結了等,,,2017-12-08,1,,,,,ケセンダイクノフッケントミライヲカンガエルカイ,0
1174,5410001008450,登記記録の閉鎖等,0,2022-09-21,2022-09-01,株式会社アロマ田沢湖,,株式会社,秋田県,仙北市,田沢湖田沢字潟前７８番地,,05,215,0141204,,,2022-09-01,合併による解散等,3410001013270,令和４年９月１日秋田県仙北市角館町西長野古米沢３０番地１９株式会社花葉館（5410001008483）と秋田県仙北市西木町門屋字屋敷田８３番地２株式会社西木村総合公社（6410001008607）と秋田県仙北市角館町田町上丁１１番地１株式会社西宮家（8410001008563）と合併して秋田県仙北市角館町西長野古米沢３０番地１９株式会社おもてなしせんぼく（3410001013270）を設立し解散,2015-10-05,1,,,,,アロマタザワコ,0
1175,5410001008483,登記記録の閉鎖等,0,2022-09-21,2022-09-01,株式会社花葉館,,株式会社,秋田県,仙北市,角館町西長野古米沢３０番地１９,,05,215,0140344,,,2022-09-01,合併による解散等,3410001013270,令和４年９月１日秋田県仙北市西木町門屋字屋敷田８３番地２株式会社西木村総合公社（6410001008607）と秋田県仙北市角館町田町上丁１１番地１株式会社西宮家（8410001008563）と秋田県仙北市田沢湖田沢字潟前７８番地株式会社アロマ田沢湖（5410001008450）と合併して秋田県仙北市角館町西長野古米沢３０番地１９株式会社おもてなしせんぼく（3410001013270）を設立し解散,2015-10-05,1,,,,,カヨウカン,0
1182,5430002015865,登記記録の閉鎖等,0,2022-09-21,2022-09-08,有限会社八軒モータース,,有限会社,北海道,札幌市西区,八軒十条西１０丁目１番９号,,01,107,0630850,,,2022-09-08,清算の結了等,,,2015-10-05,1,,,,,ハチケンモータース,0
1196,6010001020742,登記記録の閉鎖等,0,2022-09-21,2022-09-08,瀬田無線株式会社,,株式会社,東京都,千代田区,外神田１丁目１４番３号,,13,101,1010021,,,2022-09-08,清算の結了等,,,2015-10-05,1,,,,,セタムセン,0
1198,6010001112151,登記記録の閉鎖等,0,2022-09-21,2022-09-12,ＤＩＣ株式会社,,株式会社,東京都,中央区,日本橋３丁目７番２０号,,13,102,1030027,,,2022-09-12,清算の結了等,,,2015-10-05,1,,,,,ディーアイシー,0
1199,6010001144921,登記記録の閉鎖等,0,2022-09-21,2022-09-01,株式会社エム・ファースト,,株式会社,東京都,港区,虎ノ門５丁目１１番２号,,13,103,1050001,,,2022-09-01,清算の結了等,,,2015-10-05,1,,,,,エムファースト,0
1239,6011002025086,登記記録の閉鎖等,0,2022-09-21,2022-09-08,有限会社エム・エム・オー,,有限会社,東京都,渋谷区,初台２丁目２９番３号,,13,113,1510061,,,2022-09-08,清算の結了等,,,2015-10-05,1,,,,,エムエムオー,0
1240,6011003004766,登記記録の閉鎖等,0,2022-09-21,2022-09-06,ケイエヌ・リーシング合同会社,,合同会社,東京都,渋谷区,代官山町２０番９号,,13,113,1500034,,,2022-09-06,清算の結了等,,,2015-10-05,1,,,,,ケイエヌリーシング,0
1241,6011003005046,登記記録の閉鎖等,0,2022-09-21,2022-09-06,グリップ・ベーシス合同会社,,合同会社,東京都,渋谷区,代官山町２０番９号,,13,113,1500034,,,2022-09-06,清算の結了等,,,2015-10-05,1,,,,,グリップベーシス,0
1256,6012402011345,登記記録の閉鎖等,0,2022-09-21,2022-09-14,有限会社下石原酒店,,有限会社,東京都,調布市,下石原１丁目４４番地５,,13,208,1820034,,,2022-09-14,清算の結了等,,,2015-10-05,1,,,,,シモイシハラサケテン,0
1259,6012802007892,登記記録の閉鎖等,0,2022-09-21,2022-09-12,有限会社山小屋,,有限会社,東京都,昭島市,中神町１１８７番地ベルカーサ３０１号,,13,207,1960022,,,2022-09-12,清算の結了等,,,2015-10-05,1,,,,,ヤマゴヤ,0
1264,6013201018861,登記記録の閉鎖等,0,2022-09-21,2022-09-12,株式会社ファーストウェルネス,,株式会社,東京都,目黒区,自由が丘２丁目１１番９号,,13,110,1520035,,,2022-09-12,清算の結了等,,,2015-10-05,1,,,,,ファーストウェルネス,0
1266,6013301010388,登記記録の閉鎖等,0,2022-09-21,2022-09-16,株式会社聖,,株式会社,東京都,豊島区,東池袋１丁目２１番１６号,,13,116,1700013,,,2022-09-16,清算の結了等,,,2015-10-05,1,,,,,ヒジリ,0
1283,6030001077095,登記記録の閉鎖等,0,2022-09-21,2022-09-08,平和商事株式会社,,株式会社,埼玉県,川口市,末広１丁目１６番３２号,,11,203,3320006,,,2022-09-08,清算の結了等,,,2015-10-05,1,,,,,ヘイワショウジ,0
1307,6120001005402,登記記録の閉鎖等,0,2022-09-21,2022-09-14,サンプラニング工業株式会社,,株式会社,大阪府,大阪市阿倍野区,共立通２丁目４番１７号,,27,119,5450041,,,2022-09-14,清算の結了等,,,2015-10-05,1,,,,,サンプラニングコウギョウ,0
1308,6120001077078,登記記録の閉鎖等,0,2022-09-21,2022-09-15,株式会社唐物繊維会館,,株式会社,大阪府,大阪市中央区,船場中央３丁目２番８－Ｂ１１７号,,27,128,5410055,,,2022-09-15,清算の結了等,,,2015-10-05,1,,,,,カラモノセンイカイカン,0
1311,6120001131909,登記記録の閉鎖等,0,2022-09-21,2022-09-15,株式会社ＩＮ,,株式会社,大阪府,大阪市西区,江之子島１丁目７番３号,,27,106,5500006,,,2022-09-15,清算の結了等,,,2015-10-05,1,,,,,,0
1324,6120002027544,登記記録の閉鎖等,0,2022-09-21,2022-09-14,有限会社大研防水,,有限会社,大阪府,大阪市淀川区,木川西４丁目３番２７号,,27,123,5320013,,,2022-09-14,清算の結了等,,,2015-10-05,1,,,,,ダイケンボウスイ,0
1330,6120101033682,登記記録の閉鎖等,0,2022-09-21,2022-09-20,株式会社三京,,株式会社,大阪府,河内長野市,南花台１丁目６番５号,,27,216,5860077,,,2022-09-20,清算の結了等,,,2015-10-05,1,,,,,,0
1333,6120101051949,登記記録の閉鎖等,0,2022-09-21,2022-09-16,株式会社ヴェロクオーレ,,株式会社,大阪府,貝塚市,堤２２０番地１,,27,208,5970054,,,2022-09-16,清算の結了等,,,2015-10-05,1,,,,,ヴェロクオーレ,0
1334,6120901018825,登記記録の閉鎖等,0,2022-09-21,2022-09-20,株式会社馬道企画,,株式会社,大阪府,茨木市,竹橋町２番４号,,27,211,5670815,,,2022-09-20,清算の結了等,,,2015-10-05,1,,,,,ウマミチキカク,0
1345,6140001083867,登記記録の閉鎖等,0,2022-09-21,2022-09-13,株式会社エンターギミック,,株式会社,兵庫県,宝塚市,仁川月見ガ丘１５番２２号,,28,214,6650067,,,2022-09-13,清算の結了等,,,2015-10-05,1,,,,,エンターギミック,0
1347,6140001088123,登記記録の閉鎖等,0,2022-09-21,2022-09-12,株式会社日本メディスタッフ関西,,株式会社,兵庫県,神戸市中央区,御幸通８丁目１番６号,,28,110,6510087,,,2022-09-12,清算の結了等,,,2015-10-05,1,,,,,ニホンメディスタッフカンサイ,0
1352,6140002042541,登記記録の閉鎖等,0,2022-09-21,2022-09-05,有限会社ポポロ,,有限会社,兵庫県,尼崎市,富松町１丁目４１番１号,,28,202,6610003,,,2022-09-05,合併による解散等,3140002039788,令和４年９月１日兵庫県尼崎市富松町一丁目４１番３号株式会社アヴィオ（3140002039788）に合併し解散,2015-10-05,1,,,,,ポポロ,0
1356,6150001015019,登記記録の閉鎖等,0,2022-09-21,2022-09-15,アソシアードフィナンシャル株式会社,,株式会社,奈良県,香芝市,真美ヶ丘６丁目１０番地エコール・マミ南館２階,,29,210,6390223,,,2022-09-15,合併による解散等,2010901016595,令和４年９月１日神奈川県横浜市中区日本大通り６０朝日生命横浜ビル５階株式会社Ｆ．Ｌ．Ｐ（2010901016595）に合併し解散,2015-10-05,1,,,,,アソシアードフィナンシャル,0
1381,6260002002120,登記記録の閉鎖等,0,2022-09-21,2022-09-15,株式会社オカコー,,株式会社,岡山県,岡山市東区,金田５９０番地の１,,33,103,7048196,,,2022-09-15,合併による解散等,6030001056537,令和４年９月１日埼玉県比企郡川島町八幡六丁目１０番株式会社サンエイ（6030001056537）に合併し解散,2015-10-05,1,,,,,オカコー,0
1399,6350002008736,登記記録の閉鎖等,0,2022-09-21,2022-09-15,有限会社エネルギア島之内サービス,,有限会社,宮崎県,宮崎市,大字島之内字永池９２１７番地５８,,45,201,8800121,,,2022-09-15,清算の結了等,,,2015-10-05,1,,,,,エネルギアシマノウチサービス,0
1412,6410001008607,登記記録の閉鎖等,0,2022-09-21,2022-09-01,株式会社西木村総合公社,,株式会社,秋田県,仙北市,西木町門屋字屋敷田８３番地２,,05,215,0140515,,,2022-09-01,合併による解散等,3410001013270,令和４年９月１日秋田県仙北市角館町西長野古米沢３０番地１９株式会社花葉館（5410001008483）と秋田県仙北市角館町田町上丁１１番地１株式会社西宮家（8410001008563）と秋田県仙北市田沢湖田沢字潟前７８番地株式会社アロマ田沢湖（5410001008450）と合併して秋田県仙北市角館町西長野古米沢３０番地１９株式会社おもてなしせんぼく（3410001013270）を設立し解散,2015-10-05,1,,,,,ニシキムラソウゴウコウシャ,0
1416,6460001001086,登記記録の閉鎖等,0,2022-09-21,2022-09-16,株式会社チヤイニーズレストラン旭,,株式会社,北海道,釧路市,愛国東４丁目１２番１号,,01,206,0850058,,,2022-09-16,清算の結了等,,,2015-10-05,1,,,,,チヤイニーズレストランアサヒ,0
1421,6490002011395,登記記録の閉鎖等,0,2022-09-21,2022-09-16,有限会社むこせ薬局,,有限会社,高知県,香美市,土佐山田町東本町５丁目４番１３号,,39,212,7820031,,,2022-09-16,清算の結了等,,,2015-10-05,1,,,,,ムコセヤッキョク,0
1463,7010701002378,登記記録の閉鎖等,0,2022-09-21,2022-09-14,株式会社カネマスヤ本店,,株式会社,東京都,品川区,小山３丁目２２番３－４０９号,,13,109,1420062,,,2022-09-14,清算の結了等,,,2015-10-05,1,,,,,カネマスヤホンテン,0
1467,7010902014552,登記記録の閉鎖等,0,2022-09-21,2022-09-14,有限会社丸宏,,有限会社,沖縄県,那覇市,字小禄１２８４番地２,,47,201,9010152,,,2022-09-14,清算の結了等,,,2015-10-05,1,,,,,マルヒロ,0
1474,7011001133310,登記記録の閉鎖等,0,2022-09-21,2022-09-08,株式会社ｉ　Ｂｅｌｉｅｖｅ,,株式会社,東京都,渋谷区,神宮前６丁目１２番６号Ｊ－ｃｕｂｅＢ棟２Ｆ,,13,113,1500001,,,2022-09-08,清算の結了等,,,2020-04-09,1,,,,,アイビリーブ,0
1479,7011101019021,登記記録の閉鎖等,0,2022-09-21,2022-09-05,株式会社プリマビジュー,,株式会社,東京都,中野区,本町３丁目３０番４号,,13,114,1640012,,,2022-09-05,清算の結了等,,,2015-10-05,1,,,,,プリマビジュー,0
1504,7020002104740,登記記録の閉鎖等,0,2022-09-21,2022-09-14,有限会社林工業,,有限会社,神奈川県,川崎市川崎区,日進町１３番地１６エバーグリーン４０３,,14,131,2100024,,,2022-09-14,清算の結了等,,,2015-10-05,1,,,,,ハヤシコウギョウ,0
1514,7030001032834,登記記録の閉鎖等,0,2022-09-21,2022-09-06,株式会社秀和,,株式会社,埼玉県,羽生市,南５丁目２番地３５,,11,216,3480053,,,2022-09-06,清算の結了等,,,2015-10-05,1,,,,,シュウワ,0
1530,7030002115290,登記記録の閉鎖等,0,2022-09-21,2022-09-08,有限会社八木原牧場,,有限会社,埼玉県,熊谷市,上中条３１３番地１,,11,202,3600001,,,2022-09-08,清算の結了等,,,2015-10-05,1,,,,,ヤギハラボクジョウ,0
1539,7070001012270,登記記録の閉鎖等,0,2022-09-21,2022-08-26,株式会社サーチフーズ,,株式会社,群馬県,富岡市,内匠２１０番地１,,10,210,3702331,,,2022-08-26,合併による解散等,5070001012099,令和４年８月２６日群馬県富岡市内匠２１０番地１マップフ－ズ株式会社（5070001012099）に合併し解散,2015-10-05,1,,,,,サーチフーズ,0
1540,7070001032368,登記記録の閉鎖等,0,2022-09-21,2022-09-15,株式会社イーテクノロジー,,株式会社,群馬県,太田市,古戸町５１３番地１,,10,205,3730826,,,2022-09-15,清算の結了等,,,2016-07-05,1,,,,,イーテクノロジー,0
1544,7100001010436,登記記録の閉鎖等,0,2022-09-21,2022-09-14,株式会社関鉄工所,,株式会社,長野県,上田市,真田町長６９７９番地,,20,203,3862201,,,2022-09-14,清算の結了等,,,2015-10-05,1,,,,,セキテッコウショ,0
1546,7100003004122,登記記録の閉鎖等,0,2022-09-21,2022-09-14,合同会社プライマル・ビジョン,,合同会社,長野県,飯山市,大字野坂田４５６番地,,20,213,3892233,,,2022-09-14,清算の結了等,,,2015-10-05,1,,,,,プライマルビジョン,0
1552,7110002005863,登記記録の閉鎖等,0,2022-09-21,2022-09-16,有限会社ベネッセ駅南,,有限会社,新潟県,新潟市中央区,川端町２丁目１１番地２,,15,103,9518053,,,2022-09-16,清算の結了等,,,2015-10-05,1,,,,,ベネッセエキナン,0
1557,7120001040431,登記記録の閉鎖等,0,2022-09-21,2022-09-09,株式会社ビズサポート,,株式会社,沖縄県,糸満市,字武富７４３番地の５,,47,210,9010311,,,2022-09-09,清算の結了等,,,2015-10-05,1,,,,,ビズサポート,0
1558,7120001044606,登記記録の閉鎖等,0,2022-09-21,2022-09-16,株式会社聖和,,株式会社,大阪府,大阪市西区,新町１丁目２番１３号,,27,106,5500013,,,2022-09-16,清算の結了等,,,2015-10-05,1,,,,,セイワ,0
1562,7120001224406,登記記録の閉鎖等,0,2022-09-21,2022-09-13,株式会社ファミールキングス,,株式会社,大阪府,大阪市阿倍野区,阿倍野筋３丁目１０番１号,,27,119,5450052,,,2022-09-13,清算の結了等,,,2019-10-10,1,,,,,ファミールキングス,0
1566,7120002062755,登記記録の閉鎖等,0,2022-09-21,2022-09-13,有限会社暁星エンジニアリング,,有限会社,大阪府,枚方市,招堤元町三丁目３７番４０号,,27,210,5730000,,,2022-09-13,清算の結了等,,,2015-10-05,1,,,,,ギョウセイエンジニアリング,0
1567,7120003018905,登記記録の閉鎖等,0,2022-09-21,2022-09-14,合同会社ナレッジ,,合同会社,大阪府,大阪市北区,豊崎３丁目１５－５ＴＫビル２Ｆ,,27,127,5310072,,,2022-09-14,清算の結了等,,,2021-02-16,1,,,,,ナレッジ,0
1568,7120005022079,登記記録の閉鎖等,0,2022-09-21,2022-09-01,医療法人大桜会,,その他の設立登記法人,大阪府,大阪市浪速区,桜川２丁目２番３１号ザクロコーポレーション桜川ビル３階,,27,111,5560022,,,2022-09-01,合併による解散等,6120005016412,令和４年９月１日大阪市中央区日本橋一丁目１７番１７号ピカソ日本一ビル２階医療法人一尚会（6120005016412）に合併し解散,2021-01-22,1,,,,,ダイオウカイ,0
1570,7120101022387,登記記録の閉鎖等,0,2022-09-21,2022-09-15,株式会社ブローホーム,,株式会社,大阪府,大阪市浪速区,湊町２丁目２番５－１０２４号,,27,111,5560017,,,2022-09-15,清算の結了等,,,2015-10-05,1,,,,,ブローホーム,0
1577,7130001008799,登記記録の閉鎖等,0,2022-09-21,2022-09-09,株式会社やま昇,,株式会社,京都府,京都市西京区,御陵溝浦町５－１,,26,111,6158231,,,2022-09-09,清算の結了等,,,2015-10-05,1,,,,,ヤマショウ,0
1598,7140002052242,登記記録の閉鎖等,0,2022-09-21,2022-09-15,有限会社サクセス,,有限会社,兵庫県,姫路市,東延末２丁目２５番地,,28,201,6700965,,,2022-09-15,合併による解散等,1011001066945,令和４年９月１日東京都渋谷区道玄坂一丁目１５番３号プレイスキャピタル株式会社（1011001066945）に合併し解散,2015-10-05,1,,,,,サクセス,0
1600,7140003008648,登記記録の閉鎖等,0,2022-09-21,2022-09-12,八割二分合同会社,,合同会社,兵庫県,宝塚市,高司１丁目８番１４号１１４,,28,214,6650051,,,2022-09-12,清算の結了等,,,2015-10-05,1,,,,,,0
1606,7150001006933,登記記録の閉鎖等,0,2022-09-21,2022-09-16,株式会社エムピーコーポレーション,,株式会社,奈良県,生駒郡三郷町,美松ケ丘西２丁目２番６号,,29,343,6360804,,,2022-09-16,清算の結了等,,,2015-10-05,1,,,,,エムピーコーポレーション,0
1635,7220005005825,登記記録の閉鎖等,0,2022-09-21,2022-09-08,輪島川漁業協同組合,,その他の設立登記法人,石川県,輪島市,河井町１部２８番地,,17,204,9280001,,,2022-09-08,清算の結了等,,,2015-10-05,1,,,,,ワジマガワギョギョウ,0
1647,7290001006093,登記記録の閉鎖等,0,2022-09-21,2022-09-13,株式会社アディア,,株式会社,福岡県,福岡市中央区,舞鶴１丁目３番１９号,,40,133,8100073,,,2022-09-13,清算の結了等,,,2015-10-05,1,,,,,アディア,0
1666,7330001015263,登記記録の閉鎖等,0,2022-09-21,2022-09-13,株式会社にしき,,株式会社,熊本県,天草市,亀場町亀川１５２５番地１,,43,215,8630043,,,2022-09-13,清算の結了等,,,2015-10-05,1,,,,,ニシキ,0
1674,7340003001525,登記記録の閉鎖等,0,2022-09-21,2022-09-20,合同会社Ｎスタイル,,合同会社,鹿児島県,鹿児島市,武１丁目２７番２号,,46,201,8900045,,,2022-09-20,清算の結了等,,,2015-10-05,1,,,,,エヌスタイル,0
1678,7360001006078,登記記録の閉鎖等,0,2022-09-21,2022-09-02,株式会社タケジヒューマンマインド,,株式会社,沖縄県,那覇市,真嘉比１丁目１番１号レキオスおもろまち駅前ビル２Ｆ,,47,201,9020068,,,2022-09-02,合併による解散等,7340001002293,令和４年９月１日鹿児島市加治屋町９番１号株式会社昴（7340001002293）に合併し解散,2015-10-05,1,,,,,タケジヒューマンマインド,0
1680,7380002029951,登記記録の閉鎖等,0,2022-09-21,2022-09-08,有限会社木場魚店,,有限会社,福島県,双葉郡浪江町,大字権現堂字新町６８番地,,07,547,9791521,,,2022-09-08,清算の結了等,,,2015-10-05,1,,,,,,0
1705,8010003030432,登記記録の閉鎖等,0,2022-09-21,2022-09-12,オーパスファンディング３合同会社,,合同会社,東京都,千代田区,丸の内３丁目１番１号東京共同会計事務所内,,13,101,1000005,,,2022-09-12,清算の結了等,,,2019-08-16,1,,,,,オーパスファンディングスリー,0
1722,8010402002577,登記記録の閉鎖等,0,2022-09-21,2022-09-02,有限会社エル・テイー・テイー,,有限会社,東京都,港区,南青山２丁目２９番１３号,,13,103,1070062,,,2022-09-02,清算の結了等,,,2015-10-05,1,,,,,,0
1728,8010603006261,登記記録の閉鎖等,0,2022-09-21,2022-09-05,エッジハウス合同会社,,合同会社,秋田県,横手市,駅前町１３番２号,,05,203,0130036,,,2022-09-05,清算の結了等,,,2016-04-21,1,,,,,エッジハウス,0
1729,8010603007508,登記記録の閉鎖等,0,2022-09-21,2022-09-14,合同会社オルタナティブクラウド,,合同会社,東京都,江東区,猿江１丁目９番１０－１００１号,,13,108,1350003,,,2022-09-14,清算の結了等,,,2018-10-22,1,,,,,オルタナティブクラウド,0
1730,8010705002448,登記記録の閉鎖等,0,2022-09-21,2022-09-12,特定非営利活動法人ビーシーアンドミー,,その他の設立登記法人,東京都,新宿区,新宿７丁目２６－７ビクセル新宿１Ｆ,,13,104,1600022,,,2022-09-12,清算の結了等,,,2016-05-02,1,,,,,ビーシーアンドミー,0
1744,8011003005283,登記記録の閉鎖等,0,2022-09-21,2022-09-09,ファム・リーシング合同会社,,合同会社,東京都,渋谷区,代官山町２０番９号,,13,113,1500034,,,2022-09-09,清算の結了等,,,2015-10-05,1,,,,,ファムリーシング,0
1753,8011402008234,登記記録の閉鎖等,0,2022-09-21,2022-09-09,有限会社マテックス,,有限会社,東京都,目黒区,東が丘１丁目１９番８－４０９号クリオ駒沢公園,,13,110,1520021,,,2022-09-09,清算の結了等,,,2015-10-05,1,,,,,マテックス,0
1762,8011802009501,登記記録の閉鎖等,0,2022-09-21,2022-09-15,有限会社イグチ工業,,有限会社,東京都,足立区,一ツ家３丁目２６番１５号,,13,121,1210075,,,2022-09-15,清算の結了等,,,2015-10-05,1,,,,,イグチコウギョウ,0
1764,8012402016879,登記記録の閉鎖等,0,2022-09-21,2022-09-06,有限会社三陽フイルター製作所,,有限会社,埼玉県,川口市,江戸２丁目１番１６号,,11,203,3340074,,,2022-09-06,清算の結了等,,,2015-10-05,1,,,,,サンヨウフィルターセイサクショ,0
1783,8030001060512,登記記録の閉鎖等,0,2022-09-21,2022-09-07,株式会社上武鉄鋼販売,,株式会社,埼玉県,児玉郡上里町,大字七本木２７６６番地,,11,385,3690306,,,2022-09-07,清算の結了等,,,2015-10-05,1,,,,,ジョウブテッコウハンバイ,0
1791,8030002039811,登記記録の閉鎖等,0,2022-09-21,2022-09-08,有限会社マスヤマ,,有限会社,埼玉県,幸手市,北２丁目２０番６号,,11,240,3400111,,,2022-09-08,清算の結了等,,,2015-10-05,1,,,,,マスヤマ,0
1793,8030002053878,登記記録の閉鎖等,0,2022-09-21,2022-09-08,有限会社三楽観光,,有限会社,埼玉県,上尾市,五番町２番地の１９,,11,219,3620024,,,2022-09-08,清算の結了等,,,2015-10-05,1,,,,,,0
1822,8080101022036,登記記録の閉鎖等,0,2022-09-21,2022-09-20,株式会社ジャパンガン,,株式会社,静岡県,沼津市,大岡８２７番地の１,,22,203,4100022,,,2022-09-20,清算の結了等,,,2020-09-18,1,,,,,ジャパンガン,0
1869,8140001096512,登記記録の閉鎖等,0,2022-09-21,2022-09-12,株式会社小林健奨,,株式会社,兵庫県,宍粟市,山崎町三谷４１番地３,,28,227,6712524,,,2022-09-12,清算の結了等,,,2015-10-05,1,,,,,コバヤシケンショウ,0
1878,8140003014199,登記記録の閉鎖等,0,2022-09-21,2022-09-07,合同会社ＭＡＳＡＭＩ,,合同会社,兵庫県,加古川市,加古川町平野２４番地の１加古川グリーンシティＢ－１１０６号,,28,210,6750063,,,2022-09-07,清算の結了等,,,2019-08-15,1,,,,,マサミ,0
1888,8180001124847,登記記録の閉鎖等,0,2022-09-21,2022-09-14,株式会社健友,,株式会社,愛知県,名古屋市中区,富士見町１７番６号（メゾン福島４０５号）,,23,106,4600014,,,2022-09-14,清算の結了等,,,2016-09-15,1,,,,,ケンユウ,0
1892,8180002017983,登記記録の閉鎖等,0,2022-09-21,2022-09-15,有限会社近藤エンジニアリング,,有限会社,愛知県,名古屋市中川区,下之一色町字松蔭５丁目２３番地,,23,110,4540945,,,2022-09-15,清算の結了等,,,2015-10-05,1,,,,,コンドウエンジニアリング,0
1904,8220001000127,登記記録の閉鎖等,0,2022-09-21,2022-09-16,株式会社上源石油,,株式会社,石川県,白山市,白山町ヘ１５番地,,17,210,9202115,,,2022-09-16,清算の結了等,,,2015-10-05,1,,,,,ジョウゲンセキユ,0
1916,8260002015640,登記記録の閉鎖等,0,2022-09-21,2022-09-20,山佐ブンガ・ラーヤ・リース有限会社,,有限会社,岡山県,岡山市南区,福富東２丁目２０番６号,,33,104,7028033,,,2022-09-20,清算の結了等,,,2015-10-05,1,,,,,,0
1937,8380005005569,登記記録の閉鎖等,0,2022-09-21,2022-09-12,福島県勤労者住宅生活協同組合,,その他の設立登記法人,福島県,須賀川市,森宿字白石坂７番地１９６,,07,207,9620001,,,2022-09-12,清算の結了等,,,2019-06-04,1,,,,,フクシマケンキンロウシャジュウタク,0
1938,8410001008563,登記記録の閉鎖等,0,2022-09-21,2022-09-01,株式会社西宮家,,株式会社,秋田県,仙北市,角館町田町上丁１１番地１,,05,215,0140311,,,2022-09-01,合併による解散等,3410001013270,令和４年９月１日秋田県仙北市角館町西長野古米沢３０番地１９株式会社花葉館（5410001008483）と秋田県仙北市西木町門屋字屋敷田８３番地２株式会社西木村総合公社（6410001008607）と秋田県仙北市田沢湖田沢字潟前７８番地株式会社アロマ田沢湖（5410001008450）と合併して秋田県仙北市角館町西長野古米沢３０番地１９株式会社おもてなしせんぼく（3410001013270）を設立し解散,2015-10-05,1,,,,,ニシノミヤケ,0
1958,9010001031126,登記記録の閉鎖等,0,2022-09-21,2022-09-13,山本電機株式会社,,株式会社,東京都,千代田区,外神田１丁目１４番２号,,13,101,1010021,,,2022-09-13,清算の結了等,,,2015-10-05,1,,,,,ヤマモトデンキ,0
1969,9010005014317,登記記録の閉鎖等,0,2022-09-21,2022-09-16,一般社団法人ＣＲ＆Ｓ総合研究所,,その他の設立登記法人,東京都,千代田区,二番町５番地７,,13,101,1020084,,,2022-09-16,清算の結了等,,,2015-10-05,1,,,,,シーアールアンドエスソウゴウケンキュウジョ,0
1970,9010401002263,登記記録の閉鎖等,0,2022-09-21,2022-08-31,株式会社アルファ・アート,,株式会社,東京都,港区,赤坂３丁目１１番１４号,,13,103,1070052,,,2022-08-31,清算の結了等,,,2015-10-05,1,,,,,アルファアート,0
1973,9010401030685,登記記録の閉鎖等,0,2022-09-21,2022-09-01,株式会社蘭,,株式会社,東京都,港区,赤坂７丁目２番２１号,,13,103,1070052,,,2022-09-01,清算の結了等,,,2015-10-05,1,,,,,,0
1987,9010701022738,登記記録の閉鎖等,0,2022-09-21,2022-09-14,株式会社フロンティアエネルギー新潟,,株式会社,東京都,品川区,大崎１丁目５番１号,,13,109,1410032,,,2022-09-14,清算の結了等,,,2015-10-05,1,,,,,フロンティアエネルギーニイガタ,0
1998,9011001069379,登記記録の閉鎖等,0,2022-09-21,2022-09-15,株式会社アイ・システムズ,,株式会社,神奈川県,平塚市,代官町１１番４１号,,14,203,2540807,,,2022-09-15,清算の結了等,,,2015-10-05,1,,,,,アイシステムズ,0
2009,9011101000895,登記記録の閉鎖等,0,2022-09-21,2022-09-15,株式会社アド・キャリヴァ,,株式会社,東京都,八王子市,大和田町６丁目７番３３号,,13,201,1920045,,,2022-09-15,清算の結了等,,,2015-10-05,1,,,,,アドキャリヴァ,0
2045,9030002073974,登記記録の閉鎖等,0,2022-09-21,2022-09-06,有限会社総合繊維加工さいとう,,有限会社,埼玉県,川越市,南大塚２丁目１１番地６,,11,201,3501162,,,2022-09-06,清算の結了等,,,2015-10-05,1,,,,,ソウゴウセンイカコウサイトウ,0
2046,9030002091968,登記記録の閉鎖等,0,2022-09-21,2022-09-07,有限会社コンビネート,,有限会社,埼玉県,北葛飾郡松伏町,大字大川戸２１３１番地１,,11,465,3430106,,,2022-09-07,清算の結了等,,,2015-10-05,1,,,,,コンビネート,0
2047,9030002093659,登記記録の閉鎖等,0,2022-09-21,2022-09-07,有限会社ヤマモト理容室,,有限会社,埼玉県,鶴ヶ島市,富士見１丁目７番１４号,,11,241,3502201,,,2022-09-07,清算の結了等,,,2015-10-05,1,,,,,ヤマモトリヨウシツ,0
2061,9050005012606,登記記録の閉鎖等,0,2022-09-21,2022-09-08,特定非営利活動法人和い和いリハビリサポート,,その他の設立登記法人,茨城県,つくば市,花畑２丁目８番地１ガリレオプレイス９０６号,,08,220,3003261,,,2022-09-08,清算の結了等,,,2019-11-20,1,,,,,ワイワイリハビリサポート,0
2072,9110001031883,登記記録の閉鎖等,0,2022-09-21,2022-09-15,株式会社ネオプランナー,,株式会社,新潟県,新潟市西区,槇尾３７１番地３,,15,107,9502121,,,2022-09-15,清算の結了等,,,2016-10-25,1,,,,,ネオプランナー,0
2075,9110002025678,登記記録の閉鎖等,0,2022-09-21,2022-09-14,有限会社デンテック藤原,,有限会社,新潟県,十日町市,栄町３２１番地２９,,15,210,9480068,,,2022-09-14,清算の結了等,,,2015-10-05,1,,,,,デンテックフジワラ,0
2077,9120001051823,登記記録の閉鎖等,0,2022-09-21,2022-09-14,サンセイ食品株式会社,,株式会社,大阪府,大阪市東淀川区,下新庄１丁目７番４号,,27,114,5330021,,,2022-09-14,清算の結了等,,,2015-10-05,1,,,,,,0
2089,9120001219313,登記記録の閉鎖等,0,2022-09-21,2022-09-16,株式会社Ｋツインクル,,株式会社,大阪府,大阪市中央区,博労町４丁目７番５号,,27,128,5410059,,,2022-09-16,清算の結了等,,,2019-03-01,1,,,,,ケイツインクル,0
2094,9120003018309,登記記録の閉鎖等,0,2022-09-21,2022-09-14,ミミトコ合同会社,,合同会社,大阪府,大阪市北区,梅田１丁目１－３大阪駅前第３ビル２９階１－１－１号室,,27,127,5300001,,,2022-09-14,清算の結了等,,,2020-10-23,1,,,,,ミミトコ,0
2115,9140003014198,登記記録の閉鎖等,0,2022-09-21,2022-09-07,合同会社エイトビジネス,,合同会社,兵庫県,加古郡播磨町,北古田２丁目４番３２号,,28,382,6750148,,,2022-09-07,清算の結了等,,,2019-08-15,1,,,,,エイトビジネス,0
2123,9180001085576,登記記録の閉鎖等,0,2022-09-21,2022-09-16,株式会社アイサン,,株式会社,愛知県,稲沢市,北市場町西玄野５１５番地,,23,220,4928173,,,2022-09-16,清算の結了等,,,2015-10-05,1,,,,,アイサン,0
2125,9180002059991,登記記録の閉鎖等,0,2022-09-21,2022-09-15,有限会社カラシマ電機,,有限会社,愛知県,名古屋市港区,木場町２番地の５６,,23,111,4550021,,,2022-09-15,清算の結了等,,,2015-10-05,1,,,,,カラシマデンキ,0
2130,9180305004620,登記記録の閉鎖等,0,2022-09-21,2022-09-01,安城セントラル商店街振興組合,,その他の設立登記法人,愛知県,安城市,御幸本町１６番５号,,23,212,4460032,,,2022-09-01,合併による解散等,7180305004614,愛知県安城市御幸本町８番５号安城市つながる商店街振興組合（7180305004614）に合併し解散,2015-10-05,1,,,,,アンジョウセントラル,0
2157,9330002007943,登記記録の閉鎖等,0,2022-09-21,2022-09-15,有限会社日通プロパン熊本販売,,有限会社,熊本県,熊本市中央区,水前寺３丁目１番２４号,,43,101,8620950,,,2022-09-15,清算の結了等,,,2015-10-05,1,,,,,ニッツウプロパンクマモトハンバイ,0
2158,9330003007125,登記記録の閉鎖等,0,2022-09-21,2022-09-14,御領不動産合同会社,,合同会社,熊本県,宇城市,不知火町御領１４４－１２,,43,213,8690551,,,2022-09-14,清算の結了等,,,2017-06-30,1,,,,,ゴリョウフドウサン,0
