sequenceNumber,corporateNumber,process,correct,updateDate,changeDate,name,nameImageId,kind,prefectureName,cityName,streetNumber,addressImageId,prefectureCode,cityCode,postCode,addressOutside,addressOutsideImageId,closeDate,closeCause,successorCorporateNumber,changeCause,assignmentDate,latest,enName,enPrefectureName,enCityName,enAddressOutside,furigana,hihyoji
4,1010001208862,登記記録の閉鎖等,0,2025-04-11,2025-04-01,株式会社家庭画報ビジネスパートナーズ,,株式会社,東京都,千代田区,九段北４丁目２番２９号,,13,101,1020073,,,2025-04-01,合併による解散等,3010001208860,令和７年４月１日東京都千代田区九段北四丁目２番２９号株式会社世界文化社（3010001208860）に合併し解散,2020-04-08,1,,,,,カテイガホウビジネスパートナーズ,0
13,1010101008725,登記記録の閉鎖等,0,2025-04-11,2025-04-07,株式会社ソーケン,,株式会社,東京都,八王子市,散田町５丁目６番５号,,13,201,1930832,,,2025-04-07,清算の結了等,,,2015-10-05,1,,,,,,0
43,1011001050949,登記記録の閉鎖等,0,2025-04-11,2025-03-28,株式会社テレサポート,,株式会社,東京都,新宿区,住吉町５番７号,,13,104,1620065,,,2025-03-28,清算の結了等,,,2015-10-05,1,,,,,テレサポート,0
52,1011101020083,登記記録の閉鎖等,0,2025-04-11,2025-03-28,株式会社マックス・ジャパン,,株式会社,東京都,新宿区,西新宿３丁目１８番２号,,13,104,1600023,,,2025-03-28,清算の結了等,,,2015-10-05,1,,,,,マックスジャパン,0
63,1011501029724,登記記録の閉鎖等,0,2025-04-11,2025-04-01,株式会社ＣＯＳＭＯ　ＪＡＰＡＮ,,株式会社,東京都,足立区,入谷２丁目２４番１９号２Ｆ,,13,121,1210836,,,2025-04-01,清算の結了等,,,2023-09-05,1,,,,,コスモジャパン,0
64,1011503005946,登記記録の閉鎖等,0,2025-04-11,2025-03-27,合同会社ＳＴ,,合同会社,東京都,新宿区,下宮比町２番２８号飯田橋ハイタウン４０８号室,,13,104,1620822,,,2025-03-27,清算の結了等,,,2024-02-07,1,,,,,エスティー,0
96,1030001059379,登記記録の閉鎖等,0,2025-04-11,2025-04-03,株式会社ユニバース,,株式会社,埼玉県,川越市,南台３丁目１番５号,,11,201,3501165,,,2025-04-03,清算の結了等,,,2015-10-05,1,,,,,ユニバース,0
101,1030002114406,登記記録の閉鎖等,0,2025-04-11,2025-04-03,陽気通信システム有限会社,,有限会社,埼玉県,熊谷市,拾六間８４８番地２３,,11,202,3600846,,,2025-04-03,清算の結了等,,,2015-10-05,1,,,,,ヨウキツウシンシステム,0
107,1040002066506,登記記録の閉鎖等,0,2025-04-11,2025-03-31,有限会社喜久屋呉服店本店,,有限会社,千葉県,木更津市,大和２丁目１番２３号,,12,206,2920805,,,2025-03-31,清算の結了等,,,2015-10-05,1,,,,,キクヤゴフクテンホンテン,0
123,1080401014350,登記記録の閉鎖等,0,2025-04-11,2025-04-01,ジーネット株式会社,,株式会社,静岡県,掛川市,梅橋３５１番地の１,,22,213,4360034,,,2025-04-01,合併による解散等,1080401014499,令和７年４月１日静岡県掛川市梅橋３５１番地の１松浦梱包輸送株式会社（1080401014499）に合併し解散,2015-10-05,1,,,,,ジーネット,0
132,1120001032780,登記記録の閉鎖等,0,2025-04-11,2025-04-08,株式会社司苑,,株式会社,大阪府,大阪市住吉区,帝塚山中４丁目６番１０号,,27,120,5580053,,,2025-04-08,清算の結了等,,,2015-10-05,1,,,,,シエン,0
134,1120001074022,登記記録の閉鎖等,0,2025-04-11,2025-04-08,株式会社アミカア,,株式会社,大阪府,大阪市東住吉区,山坂２丁目９番４号,,27,121,5460035,,,2025-04-08,清算の結了等,,,2015-10-05,1,,,,,アミカア,0
142,1120002048231,登記記録の閉鎖等,0,2025-04-11,2025-04-10,有限会社芦原建築研究所,00031024,有限会社,大阪府,大阪市北区,東天満１丁目３番１５号インテリジェンスビル２４東天満３０２号室,,27,127,5300044,,,2025-04-10,清算の結了等,,,2015-10-05,1,,,,,アシハラケンチクケンキュウショ,0
165,1140001045054,登記記録の閉鎖等,0,2025-04-11,2025-04-01,株式会社川崎工務店,,株式会社,兵庫県,加古郡播磨町,宮北１丁目２番２７号,,28,382,6750143,,,2025-04-01,清算の結了等,,,2024-03-26,1,,,,,カワサキコウムテン,0
180,1180001039580,登記記録の閉鎖等,0,2025-04-11,2025-04-01,日建開発株式会社,,株式会社,愛知県,名古屋市中区,平和１丁目２３番１６号,,23,106,4600021,,,2025-04-01,合併による解散等,9180002049687,令和７年４月１日名古屋市中区錦三丁目９番２１号株式会社ニックプラス（9180002049687）に合併し解散,2015-10-05,1,,,,,ニッケンカイハツ,0
181,1180001053111,登記記録の閉鎖等,0,2025-04-11,2025-04-07,東海ヒノデサービス販売株式会社,,株式会社,愛知県,名古屋市名東区,上社１丁目６０３番地,,23,115,4650025,,,2025-04-07,合併による解散等,9040001000061,令和７年４月１日東京都日野市旭が丘六丁目１１番地の８ヒノデサービス販売株式会社（9040001000061）に合併し解散,2015-10-05,1,,,,,トウカイヒノデサービスハンバイ,0
188,1180002037749,登記記録の閉鎖等,0,2025-04-11,2025-01-21,有限会社アルプス土地,,有限会社,愛知県,名古屋市守山区,小幡南２丁目３番２５号,,23,113,4630048,,,2025-01-21,清算の結了等,,,2015-10-05,1,,,,,アルプストチ,0
218,1250002002373,登記記録の閉鎖等,0,2025-04-11,2025-04-07,有限会社山口創建,,有限会社,山口県,山口市,仁保下郷１１４１番地２,,35,203,7530303,,,2025-04-07,清算の結了等,,,2015-10-05,1,,,,,ヤマグチソウケン,0
226,1290002021733,登記記録の閉鎖等,0,2025-04-11,2025-03-28,ワイ・エス・ケイ西部開発有限会社,,有限会社,福岡県,福岡市早良区,西新３丁目２番１７号,,40,137,8140002,,,2025-03-28,清算の結了等,,,2015-10-05,1,,,,,ワイエスケイセイブカイハツ,0
232,1290801005597,登記記録の閉鎖等,0,2025-04-11,2025-04-01,日石商事株式会社,,株式会社,福岡県,北九州市門司区,松原２丁目３番８号,,40,101,8000064,,,2025-04-01,合併による解散等,8290801005574,令和７年４月１日北九州市門司区松原二丁目３番８号日石工業株式会社（8290801005574）に合併し解散,2015-10-05,1,,,,,ニッセキショウジ,0
240,1350005002880,登記記録の閉鎖等,0,2025-04-11,2025-04-01,社会福祉法人若草福祉会,,その他の設立登記法人,宮崎県,延岡市,南一ケ岡６丁目１番２号,,45,203,8890506,,,2025-04-01,合併による解散等,4350005002894,令和７年４月１日宮崎県延岡市大貫町四丁目２６６０番地２社会福祉法人ゆりかご福祉会（4350005002894）に合併し解散,2015-10-05,1,,,,,ワカクサフクシカイ,0
242,1360001012791,登記記録の閉鎖等,0,2025-04-11,2025-04-01,我那覇豚肉店．株式会社,,株式会社,沖縄県,名護市,字宮里１４１０番地１,,47,209,9050011,,,2025-04-01,合併による解散等,8360002019706,令和７年４月１日沖縄県名護市字宮里１４１０番地１株式会社フレッシュミートがなは（8360002019706）に合併し解散,2015-10-05,1,,,,,ガナハブタニクテン,0
251,1380002000711,登記記録の閉鎖等,0,2025-04-11,2025-03-28,有限会社桜和テクノ,,有限会社,福島県,福島市,南沢又字舘ノ内７８番地シャレ・ブルーノ１０２,,07,201,9608254,,,2025-03-28,清算の結了等,,,2015-10-05,1,,,,,オウワテクノ,0
256,1400002007225,登記記録の閉鎖等,0,2025-04-11,2025-03-28,有限会社設備設計,,有限会社,岩手県,紫波郡矢巾町,大字煙山第１３地割１７番地１,,03,322,0283623,,,2025-03-28,清算の結了等,,,2015-10-05,1,,,,,セツビセッケイ,0
266,1440002004763,登記記録の閉鎖等,0,2025-04-11,2025-04-04,有限会社見晴建設,,有限会社,北海道,函館市,川汲町７４７番地の２,00090412,01,202,0411611,,,2025-04-04,清算の結了等,,,2015-10-05,1,,,,,ミハラシケンセツ,0
273,1490001010048,登記記録の閉鎖等,0,2025-04-11,2025-04-07,株式会社徳吉,,株式会社,高知県,幡多郡黒潮町,佐賀７５９番地４,,39,428,7891720,,,2025-04-07,清算の結了等,,,2021-12-08,1,,,,,トクヨシ,0
276,1500002003057,登記記録の閉鎖等,0,2025-04-11,2025-04-03,有限会社サポート・ファミリー,,有限会社,愛媛県,松山市,天山１丁目１２番１２号キタムラビル１０２号,,38,201,7900951,,,2025-04-03,清算の結了等,,,2015-10-05,1,,,,,サポートファミリー,0
285,2010001208861,登記記録の閉鎖等,0,2025-04-11,2025-04-01,株式会社Ｂｅｇｉｎ,,株式会社,東京都,千代田区,九段北４丁目２番２９号,,13,101,1020073,,,2025-04-01,合併による解散等,3010001208860,令和７年４月１日東京都千代田区九段北四丁目２番２９号株式会社世界文化社（3010001208860）に合併し解散,2020-04-08,1,,,,,ビギン,0
299,2010401165364,登記記録の閉鎖等,0,2025-04-11,2025-04-07,株式会社ＮＳＪコーポレーション,,株式会社,東京都,港区,赤坂２丁目１６番６号,,13,103,1070052,,,2025-04-07,合併による解散等,4030002032497,令和７年４月１日埼玉県所沢市小手指町三丁目１０番地２２株式会社明正地所（4030002032497）に合併し解散,2022-02-03,1,,,,,エヌエスジェイコーポレーション,0
309,2010501024965,登記記録の閉鎖等,0,2025-04-11,2025-04-01,株式会社シリウス,,株式会社,東京都,千代田区,内神田３丁目２０番７号,,13,101,1010047,,,2025-04-01,合併による解散等,3011001037069,令和７年４月１日東京都千代田区永田町二丁目１３番５号株式会社スリーコーポレーション（3011001037069）に合併し解散,2015-10-05,1,,,,,シリウス,0
323,2011001103516,登記記録の閉鎖等,0,2025-04-11,2025-03-12,株式会社Ｕｎａｍ,,株式会社,東京都,目黒区,中央町１丁目１４番９－３０７号,,13,110,1520001,,,2025-03-12,清算の結了等,,,2015-10-05,1,,,,,ユーエヌエーエム,0
336,2011102007137,登記記録の閉鎖等,0,2025-04-11,2025-03-27,有限会社青年劇場,,有限会社,東京都,新宿区,新宿２丁目９番２０号,,13,104,1600022,,,2025-03-27,清算の結了等,,,2015-10-05,1,,,,,,0
355,2012801007410,登記記録の閉鎖等,0,2025-04-11,2025-03-31,株式会社プラムファーマシー,,株式会社,東京都,大田区,西蒲田７丁目２２番４号阿部ビル１Ｆ,,13,111,1440051,,,2025-03-31,清算の結了等,,,2015-10-05,1,,,,,プラムファーマシー,0
375,2021001035171,登記記録の閉鎖等,0,2025-04-11,2025-04-01,株式会社ＴＫホールディングス,,株式会社,鹿児島県,大島郡龍郷町,赤尾木１３４６番地１,,46,527,8940411,,,2025-04-01,合併による解散等,7340001012441,令和７年４月１日鹿児島県奄美市名瀬浦上町５３番地１０株式会社ソレイユスマイル（7340001012441）に合併し解散,2015-10-05,1,,,,,ティーケーホールディングス,0
381,2030001064205,登記記録の閉鎖等,0,2025-04-11,2025-04-02,株式会社セイケン,,株式会社,埼玉県,越谷市,赤山町４丁目１１番１２号,,11,222,3430807,,,2025-04-02,清算の結了等,,,2015-10-05,1,,,,,セイケン,0
435,2120002032201,登記記録の閉鎖等,0,2025-04-11,2025-04-08,有限会社白扇,,有限会社,大阪府,大阪市北区,南森町１丁目１番３号,,27,127,5300054,,,2025-04-08,清算の結了等,,,2015-10-05,1,,,,,ハクセン,0
450,2120902006394,登記記録の閉鎖等,0,2025-04-11,2025-04-04,有限会社ジグザグ,,有限会社,大阪府,吹田市,千里山松が丘１８番２７号,,27,205,5650843,,,2025-04-04,清算の結了等,,,2015-10-05,1,,,,,ジグザグ,0
468,2170001005830,登記記録の閉鎖等,0,2025-04-11,2025-04-09,ヤツイ株式会社,,株式会社,和歌山県,海南市,木津１１８番地１,,30,202,6401174,,,2025-04-09,清算の結了等,,,2015-10-05,1,,,,,ヤツイ,0
474,2180003026163,登記記録の閉鎖等,0,2025-04-11,2025-04-03,合同会社インフィールド,,合同会社,愛知県,名古屋市瑞穂区,洲雲町４丁目５４番地（ＣＡＳＳＩＡ桜山７０１号）,,23,108,4670804,,,2025-04-03,清算の結了等,,,2023-12-22,1,,,,,インフィールド,0
490,2240001005716,登記記録の閉鎖等,0,2025-04-11,2025-04-01,株式会社拓,,株式会社,広島県,広島市西区,南観音１丁目１１番３８号,,34,104,7330035,,,2025-04-01,合併による解散等,5240001010960,令和７年４月１日広島市西区南観音八丁目６番２号株式会社マサモト（5240001010960）に合併し解散,2015-10-05,1,,,,,タク,0
491,2240001025482,登記記録の閉鎖等,0,2025-04-11,2025-04-01,株式会社アクア,,株式会社,広島県,広島市東区,矢賀新町５丁目１番８号,,34,102,7320044,,,2025-04-01,合併による解散等,7240001003954,令和７年４月１日広島市東区矢賀新町五丁目１番８号三晃装美株式会社（7240001003954）に合併し解散,2015-10-05,1,,,,,アクア,0
494,2250001005459,登記記録の閉鎖等,0,2025-04-11,2025-04-01,三金彦島株式会社,,株式会社,山口県,下関市,彦島西山町１丁目１番１号,,35,201,7500093,,,2025-04-01,合併による解散等,8250001006204,令和７年４月１日山口県下関市彦島西山町一丁目１番１号彦島製錬株式会社（8250001006204）に合併し解散,2015-10-05,1,,,,,サンキンヒコシマ,0
500,2260002012131,登記記録の閉鎖等,0,2025-04-11,2025-04-01,有限会社内山下ガスセンター,,有限会社,岡山県,岡山市北区,丸の内２丁目９番２号,,33,101,7000823,,,2025-04-01,合併による解散等,3260001001522,令和７年４月１日岡山市中区桜橋一丁目１番１号岡ガスサービス株式会社（3260001001522）に合併し解散,2015-10-05,1,,,,,ウチサンゲガスセンター,0
508,2290802002535,登記記録の閉鎖等,0,2025-04-11,2025-04-07,有限会社小文字興産商事,,有限会社,福岡県,北九州市小倉北区,神幸町８番６号,,40,106,8020038,,,2025-04-07,清算の結了等,,,2015-10-05,1,,,,,コモンジコウサンショウジ,0
513,2300003001401,登記記録の閉鎖等,0,2025-04-11,2025-04-04,合同会社３太,,合同会社,佐賀県,神埼市,神埼町鶴３２５０番地１０,,41,210,8420007,,,2025-04-04,清算の結了等,,,2018-12-18,1,,,,,サンタ,0
515,2310001000981,登記記録の閉鎖等,0,2025-04-11,2025-04-07,第一産業株式会社,,株式会社,長崎県,長崎市,常盤町２番２４号,,42,201,8500843,,,2025-04-07,清算の結了等,,,2015-10-05,1,,,,,ダイイチサンギョウ,0
524,2350001009813,登記記録の閉鎖等,0,2025-04-11,2025-04-03,大谷開発株式会社,,株式会社,宮崎県,小林市,北西方９２８番地５,,45,205,8860006,,,2025-04-03,清算の結了等,,,2015-10-05,1,,,,,オオタニカイハツ,0
531,2370202000172,登記記録の閉鎖等,0,2025-04-11,2025-04-01,有限会社大崎農園,,有限会社,宮城県,大崎市,古川荒川小金町８番１７号,,04,215,9896164,,,2025-04-01,清算の結了等,,,2015-10-05,1,,,,,オオサキノウエン,0
557,2450002001602,登記記録の閉鎖等,0,2025-04-11,2025-04-10,有限会社旭広社,,有限会社,北海道,旭川市,永山七条４丁目１番６号,,01,204,0798417,,,2025-04-10,清算の結了等,,,2015-10-05,1,,,,,,0
562,2490001004131,登記記録の閉鎖等,0,2025-04-11,2025-04-07,株式会社竹中工業,,株式会社,高知県,高知市,朝倉己８０１番地１,,39,201,7808066,,,2025-04-07,清算の結了等,,,2015-10-05,1,,,,,タケナカコウギョウ,0
567,3010001000111,登記記録の閉鎖等,0,2025-04-11,2025-04-01,株式会社アイ・コーポレーション,,株式会社,東京都,文京区,関口１丁目４３番５号,,13,105,1120014,,,2025-04-01,合併による解散等,1010001000872,令和７年４月１日東京都文京区関口一丁目４３番５号株式会社ウエスト（1010001000872）に合併し解散,2015-10-05,1,,,,,アイコーポレーション,0
601,3010802014053,登記記録の閉鎖等,0,2025-04-11,2025-03-31,三石商事有限会社,,有限会社,東京都,大田区,大森北６丁目１０番１６号,,13,111,1430016,,,2025-03-31,清算の結了等,,,2015-10-05,1,,,,,,0
622,3011701023293,登記記録の閉鎖等,0,2025-04-11,2025-04-03,株式会社ゆたか,,株式会社,東京都,江戸川区,船堀３丁目５－７船堀駅前トキタワ－２３０５,,13,123,1340091,,,2025-04-03,清算の結了等,,,2020-02-06,1,,,,,ユタカ,0
654,3021001022697,登記記録の閉鎖等,0,2025-04-11,2025-04-09,株式会社トースレ,,株式会社,神奈川県,秦野市,堀山下６９６番地,,14,211,2591304,,,2025-04-09,清算の結了等,,,2015-10-05,1,,,,,トースレ,0
659,3030001028480,登記記録の閉鎖等,0,2025-04-11,2025-04-04,株式会社安心サポート,,株式会社,埼玉県,所沢市,狭山ケ丘１丁目２９８０番地の１５１,,11,208,3591161,,,2025-04-04,清算の結了等,,,2015-10-05,1,,,,,アンシンサポート,0
665,3030001125872,登記記録の閉鎖等,0,2025-04-11,2025-04-04,株式会社祥成工業,,株式会社,埼玉県,川口市,前川１丁目７番６号,,11,203,3330842,,,2025-04-04,清算の結了等,,,2018-05-29,1,,,,,ショウセイコウギョウ,0
678,3040001081792,登記記録の閉鎖等,0,2025-04-11,2025-03-31,株式会社三協技建,,株式会社,千葉県,館山市,高井２３０番地の１,,12,205,2940041,,,2025-03-31,清算の結了等,,,2015-10-05,1,,,,,サンキョウギケン,0
684,3040005018188,登記記録の閉鎖等,0,2025-04-11,2025-03-31,一般財団法人ちばの未来,,その他の設立登記法人,千葉県,千葉市美浜区,中瀬１丁目３番幕張テクノガーデンＤ棟１７階,,12,106,2610023,,,2025-03-31,合併による解散等,1040005011632,令和７年３月３１日千葉市美浜区高洲四丁目１番９号郁栄ビル７Ｆ一般社団法人政経倶楽部連合会（1040005011632）に合併し解散,2015-10-05,1,,,,,チバノミライ,0
695,3080001014451,登記記録の閉鎖等,0,2025-04-11,2025-04-03,株式会社アサノ建工,,株式会社,静岡県,島田市,川根町家山５９５番地の１,,22,209,4280104,,,2025-04-03,清算の結了等,,,2015-10-05,1,,,,,アサノケンコウ,0
696,3080001022479,登記記録の閉鎖等,0,2025-04-11,2025-04-03,Ｅｃｏ　Ｍｅｄｉｃ株式会社,,株式会社,静岡県,焼津市,大栄町２丁目３番２９号,,22,212,4250081,,,2025-04-03,清算の結了等,,,2018-10-04,1,,,,,エコメディック,0
697,3080002001829,登記記録の閉鎖等,0,2025-04-11,2025-04-03,有限会社栗山商店,,有限会社,静岡県,静岡市葵区,田町４丁目４５番地,,22,101,4200068,,,2025-04-03,清算の結了等,,,2015-10-05,1,,,,,クリヤマショウテン,0
707,3090001010904,登記記録の閉鎖等,0,2025-04-11,2025-04-01,株式会社アディア,,株式会社,山梨県,富士吉田市,大明見４丁目１０番２８号,,19,202,4030003,,,2025-04-01,合併による解散等,5090001009804,令和７年４月１日山梨県富士吉田市大明見四丁目１０番２８号株式会社朱輝（5090001009804）に合併し解散,2015-10-05,1,,,,,アディア,0
716,3100002024505,登記記録の閉鎖等,0,2025-04-11,2025-04-03,有限会社あづみヘルスケアコンサルティング,,有限会社,長野県,安曇野市,豊科光１０５５番地,,20,220,3998202,,,2025-04-03,清算の結了等,,,2015-10-05,1,,,,,アヅミヘルスケアコンサルティング,0
717,3100003004869,登記記録の閉鎖等,0,2025-04-11,2025-04-04,合同会社秋月堂,,合同会社,長野県,伊那市,西春近２３４５番地２,,20,209,3994431,,,2025-04-04,清算の結了等,,,2018-01-15,1,,,,,シュウゲツドウ,0
719,3110001005554,登記記録の閉鎖等,0,2025-04-11,2025-04-01,株式会社カタヤマエイト,,株式会社,新潟県,新潟市東区,卸新町３丁目１６番地３１,,15,102,9500863,,,2025-04-01,合併による解散等,8110001001508,令和７年４月１日新潟市東区紫竹卸新町１９２７番地２４片山商事株式会社（8110001001508）に合併し解散,2015-10-05,1,,,,,カタヤマエイト,0
720,3110002029817,登記記録の閉鎖等,0,2025-04-11,2025-03-28,有限会社小川パーツ,,有限会社,新潟県,長岡市,栃尾原町５丁目４番１２号,,15,202,9400134,,,2025-03-28,清算の結了等,,,2015-10-05,1,,,,,オガワパーツ,0
745,3120902022119,登記記録の閉鎖等,0,2025-04-11,2025-04-08,さくらコンサルティング有限会社,,有限会社,大阪府,大阪市中央区,大手前１丁目７番３１号,,27,128,5400008,,,2025-04-08,清算の結了等,,,2015-10-05,1,,,,,サクラコンサルティング,0
752,3140001094710,登記記録の閉鎖等,0,2025-04-11,2025-04-04,株式会社セイシン,,株式会社,兵庫県,神戸市須磨区,妙法寺字ぬめり石１番地２５,,28,107,6540121,,,2025-04-04,清算の結了等,,,2015-10-05,1,,,,,セイシン,0
765,3180001016909,登記記録の閉鎖等,0,2025-04-11,2025-04-01,株式会社丸栄フーズ,,株式会社,愛知県,名古屋市中区,錦３丁目２３番１８号,,23,106,4600003,,,2025-04-01,合併による解散等,3180001040644,令和７年４月１日名古屋市中区栄三丁目３番１号株式会社丸栄（3180001040644）に合併し解散,2015-10-05,1,,,,,マルエイフーズ,0
767,3180001082538,登記記録の閉鎖等,0,2025-04-11,2025-04-07,株式会社綿半フレッシュマーケット,,株式会社,愛知県,一宮市,千秋町佐野字郷前１１番地,,23,203,4910804,,,2025-04-07,合併による解散等,4100001003772,令和７年４月１日長野市南長池２０５番地株式会社綿半ホームエイド（4100001003772）に合併し解散,2015-10-05,1,,,,,ワタハンフレッシュマーケット,0
791,3220001002623,登記記録の閉鎖等,0,2025-04-11,2025-04-03,兼六青果株式会社,,株式会社,石川県,金沢市,西念４丁目７番１号,,17,201,9200024,,,2025-04-03,清算の結了等,,,2015-10-05,1,,,,,ケンロクセイカ,0
810,3290005018527,登記記録の閉鎖等,0,2025-04-11,2025-04-02,ＮＰＯ法人日本クリプトカレンシー相談窓口,,その他の設立登記法人,福岡県,福岡市中央区,春吉３丁目２４番１０－２０１号,,40,133,8100003,,,2025-04-02,清算の結了等,,,2022-01-14,1,,,,,ニホンクリプトカレンシーソウダンマドグチ,0
830,3370002000727,登記記録の閉鎖等,0,2025-04-11,2025-03-31,有限会社光永,,有限会社,宮城県,仙台市泉区,南光台２丁目１４番３７号,,04,105,9818003,,,2025-03-31,清算の結了等,,,2015-10-05,1,,,,,コウエイ,0
834,3380001006484,登記記録の閉鎖等,0,2025-04-11,2025-04-09,福島スバル自動車株式会社,,株式会社,福島県,郡山市,南１丁目７０番地,,07,203,9630115,,,2025-04-09,合併による解散等,3370001006543,令和７年４月１日仙台市宮城野区日の出町一丁目５番２６号スバル東北株式会社（3370001006543）に合併し解散,2015-10-05,1,,,,,フクシマスバルジドウシャ,0
840,3390002000072,登記記録の閉鎖等,0,2025-04-11,2025-04-02,有限会社阿部睦美商店,,有限会社,山形県,山形市,西田４丁目７番２１号,,06,201,9900831,,,2025-04-02,清算の結了等,,,2015-10-05,1,,,,,アベムツミショウテン,0
855,3480005002593,登記記録の閉鎖等,0,2025-04-11,2025-04-04,医療法人中井医院,,その他の設立登記法人,徳島県,徳島市,南二軒屋町１丁目２番８号,,36,201,7708063,,,2025-04-04,清算の結了等,,,2015-10-05,1,,,,,ナカイイイン,0
859,3500003001124,登記記録の閉鎖等,0,2025-04-11,2025-04-08,合同会社シアターねこ,,合同会社,愛媛県,松山市,緑町１丁目２番地２６,,38,201,7900806,,,2025-04-08,清算の結了等,,,2015-10-05,1,,,,,シアターネコ,0
863,4010001132102,登記記録の閉鎖等,0,2025-04-11,2025-04-08,株式会社ティーアールファーマ,,株式会社,東京都,中央区,日本橋本町１丁目１番８号,,13,102,1030023,,,2025-04-08,合併による解散等,8120001007891,令和７年４月１日大阪市都島区都島本通二丁目３番３号大衛株式会社（8120001007891）に合併し解散,2015-10-05,1,,,,,ティーアールファーマ,0
871,4010401106481,登記記録の閉鎖等,0,2025-04-11,2025-03-19,株式会社マンゴーファイナンス,,株式会社,東京都,港区,六本木１丁目６番１号,,13,103,1060032,,,2025-03-19,清算の結了等,,,2015-10-05,1,,,,,マンゴーファイナンス,0
884,4010405019548,登記記録の閉鎖等,0,2025-04-11,2025-03-26,一般社団法人全国道文化交流機構,,その他の設立登記法人,東京都,港区,赤坂２丁目１４番４号森崎ビル３階,,13,103,1070052,,,2025-03-26,清算の結了等,,,2021-03-10,1,,,,,ゼンコクミチブンカコウリュウキコウ,0
886,4010501032347,登記記録の閉鎖等,0,2025-04-11,2025-03-31,株式会社森下商店,,株式会社,東京都,中央区,日本橋馬喰町１丁目１０番２号森下ビル３Ｆ,,13,102,1030002,,,2025-03-31,清算の結了等,,,2015-10-05,1,,,,,モリシタショウテン,0
892,4010701009277,登記記録の閉鎖等,0,2025-04-11,2025-03-21,株式会社マルコー電器商会,,株式会社,東京都,品川区,豊町６丁目１９番１６号,,13,109,1420042,,,2025-03-21,清算の結了等,,,2015-10-05,1,,,,,マルコーデンキショウカイ,0
913,4011001097252,登記記録の閉鎖等,0,2025-04-11,2025-04-01,株式会社仲宗根ネイル研究所,,株式会社,東京都,世田谷区,梅丘３丁目１０番７号,,13,112,1540022,,,2025-04-01,合併による解散等,5011001027712,令和７年４月１日東京都世田谷区梅丘三丁目１０番７号ネイルズ仲宗根株式会社（5011001027712）に合併し解散,2015-10-05,1,,,,,ナカソネネイルケンキュウジョ,0
914,4011001098366,登記記録の閉鎖等,0,2025-04-11,2025-03-13,トレンドマーク株式会社,,株式会社,東京都,渋谷区,広尾５丁目２３番５号,,13,113,1500012,,,2025-03-13,清算の結了等,,,2015-10-05,1,,,,,トレンドマーク,0
916,4011001143270,登記記録の閉鎖等,0,2025-04-11,2025-03-28,ＭＥＤＩＨＥＡＬ　ＪＡＰＡＮ株式会社,,株式会社,東京都,新宿区,西新宿３丁目７番１号,,13,104,1600023,,,2025-03-28,清算の結了等,,,2021-10-11,1,,,,,メディヒールジャパン,0
939,4011402002678,登記記録の閉鎖等,0,2025-04-11,2025-04-04,有限会社木村屋,,有限会社,東京都,板橋区,宮本町１６番８号,,13,119,1740054,,,2025-04-04,清算の結了等,,,2015-10-05,1,,,,,キムラヤ,0
941,4011501007710,登記記録の閉鎖等,0,2025-04-11,2025-04-08,株式会社東京紙芸社,,株式会社,東京都,墨田区,堤通１丁目７番１８号,,13,107,1310034,,,2025-04-08,合併による解散等,3430001015439,令和７年４月１日札幌市中央区南十条西八丁目４番地１株式会社プリプレス・センター（3430001015439）に合併し解散,2015-10-05,1,,,,,トウキョウシゲイシャ,0
946,4011701003682,登記記録の閉鎖等,0,2025-04-11,2025-04-03,株式会社シー・エス・ピー,,株式会社,東京都,江戸川区,南篠崎町５丁目１０番１０号,,13,123,1330065,,,2025-04-03,清算の結了等,,,2015-10-05,1,,,,,,0
963,4020001080952,登記記録の閉鎖等,0,2025-04-11,2025-03-31,ビルコンサービス株式会社,,株式会社,神奈川県,川崎市高津区,久地２丁目５番２４号,,14,134,2130032,,,2025-03-31,合併による解散等,1020001082836,令和７年３月３１日川崎市高津区久地二丁目５番２４号ビルコン株式会社（1020001082836）に合併し解散,2015-10-05,1,,,,,ビルコンサービス,0
976,4021005008279,登記記録の閉鎖等,0,2025-04-11,2025-04-09,特定非営利活動法人いつでもここで,,その他の設立登記法人,神奈川県,三浦郡葉山町,上山口１８７８番地の９,,14,301,2400115,,,2025-04-09,清算の結了等,,,2015-10-05,1,,,,,イツデモココデ,0
981,4030001150110,登記記録の閉鎖等,0,2025-04-11,2025-04-03,株式会社福丸,,株式会社,埼玉県,上尾市,大字原市２６３番地２７,,11,219,3620021,,,2025-04-03,清算の結了等,,,2022-09-12,1,,,,,フクマル,0
999,4040001087252,登記記録の閉鎖等,0,2025-04-11,2025-04-07,株式会社フルール,,株式会社,千葉県,我孫子市,我孫子１丁目１１番２０号Ｔビル１階,,12,222,2701166,,,2025-04-07,合併による解散等,7011801034393,令和７年４月１日東京都葛飾区亀有三丁目３番７号株式会社Ｕｍｉ’ｔｓ（7011801034393）に合併し解散,2015-10-05,1,,,,,フルール,0
1018,4080401012178,登記記録の閉鎖等,0,2025-04-11,2025-04-10,株式会社ライフワーク,,株式会社,静岡県,浜松市中央区,砂山町３２３番地の１６,,22,138,4300926,,,2025-04-10,清算の結了等,,,2015-10-05,1,,,,,ライフワーク,0
1021,4080402010288,登記記録の閉鎖等,0,2025-04-11,2025-04-09,エムピーコーポレーション有限会社,,有限会社,静岡県,浜松市中央区,早出町１２４８番地の２４,,22,138,4350054,,,2025-04-09,清算の結了等,,,2015-10-05,1,,,,,,0
1029,4120001023265,登記記録の閉鎖等,0,2025-04-11,2025-04-07,コスモインターナショナル株式会社,,株式会社,大阪府,大阪市天王寺区,堀越町９番２０－２０２号,,27,109,5430056,,,2025-04-07,清算の結了等,,,2015-10-05,1,,,,,コスモインターナショナル,0
1034,4120001218344,登記記録の閉鎖等,0,2025-04-11,2025-04-09,株式会社オリエントホールディングス,,株式会社,大阪府,堺市堺区,南旅篭町東１丁１番３２号２０１,,27,141,5900965,,,2025-04-09,合併による解散等,8120001115554,令和７年４月１日大阪市浪速区浪速東三丁目７番１号株式会社オリエントホールディングス（8120001115554）に合併し解散,2019-01-17,1,,,,,オリエントホールディングス,0
1042,4120002046777,登記記録の閉鎖等,0,2025-04-11,2025-04-08,有限会社アキ工房,,有限会社,大阪府,大阪市旭区,新森５丁目１６番２１号,,27,117,5350022,,,2025-04-08,清算の結了等,,,2015-10-05,1,,,,,アキコウボウ,0
1052,4120901019115,登記記録の閉鎖等,0,2025-04-11,2025-04-07,近畿ヒノデサービス販売株式会社,,株式会社,大阪府,堺市西区,平岡町８７番地１,,27,144,5938307,,,2025-04-07,合併による解散等,9040001000061,令和７年４月１日東京都日野市旭が丘六丁目１１番地の８ヒノデサービス販売株式会社（9040001000061）に合併し解散,2015-10-05,1,,,,,キンキヒノデサービスハンバイ,0
1055,4130001009817,登記記録の閉鎖等,0,2025-04-11,2025-04-04,株式会社京都陶雅会,,株式会社,京都府,京都市東山区,五條橋東五丁目４６１番地,,26,105,6050000,,,2025-04-04,清算の結了等,,,2015-10-05,1,,,,,キョウトトウガカイ,0
1056,4130001035227,登記記録の閉鎖等,0,2025-04-11,2025-04-07,株式会社矢野組,,株式会社,京都府,南丹市,園部町木崎町下ヲサ５番地の４,,26,213,6220015,,,2025-04-07,清算の結了等,,,2015-10-05,1,,,,,ヤノグミ,0
1080,4180001041105,登記記録の閉鎖等,0,2025-04-11,2025-04-02,三田株式会社,,株式会社,愛知県,名古屋市中区,丸の内２丁目１５番１５号,,23,106,4600002,,,2025-04-02,清算の結了等,,,2015-10-05,1,,,,,サンデン,0
1093,4200001011526,登記記録の閉鎖等,0,2025-04-11,2025-04-07,株式会社丸真,,株式会社,岐阜県,羽島郡笠松町,北及字狐山１８９０番地の１,,21,303,5016064,,,2025-04-07,清算の結了等,,,2015-10-05,1,,,,,マルシン,0
1094,4210002001616,登記記録の閉鎖等,0,2025-04-11,2025-04-07,有限会社新宅ホーム,,有限会社,福井県,福井市,馬垣町下馬境２１５番地,,18,201,9188111,,,2025-04-07,清算の結了等,,,2015-10-05,1,,,,,シンタクホーム,0
1111,4270002006444,登記記録の閉鎖等,0,2025-04-11,2025-04-09,有限会社塚田建設,,有限会社,鳥取県,米子市,安倍６８０番地８,,31,202,6830846,,,2025-04-09,清算の結了等,,,2015-10-05,1,,,,,ツカダケンセツ,0
1130,4340001012519,登記記録の閉鎖等,0,2025-04-11,2025-04-07,サツマ化工株式会社,,株式会社,鹿児島県,南さつま市,加世田川畑１４５１番地,,46,220,8970003,,,2025-04-07,合併による解散等,8120901017453,令和７年４月１日大阪府吹田市芳野町１８番２３号昭和化工株式会社（8120901017453）に合併し解散,2015-10-05,1,,,,,サツマカコウ,0
1162,4480001006135,登記記録の閉鎖等,0,2025-04-11,2025-04-02,株式会社ホテルビー・エム,,株式会社,徳島県,鳴門市,撫養町小桑島字前浜１６８番地１,,36,202,7720012,,,2025-04-02,清算の結了等,,,2015-10-05,1,,,,,ホテルビーエム,0
1194,5010601064438,登記記録の閉鎖等,0,2025-04-11,2025-04-01,株式会社Ｍ　ｐｌｕｓ,,株式会社,東京都,江東区,大島３丁目８番７－７１５号,,13,108,1360072,,,2025-04-01,清算の結了等,,,2024-01-05,1,,,,,エムプラス,0
1212,5011001141752,登記記録の閉鎖等,0,2025-04-11,2025-03-12,株式会社丙菩,,株式会社,東京都,目黒区,目黒３丁目３番２６号,,13,110,1530063,,,2025-03-12,清算の結了等,,,2021-07-26,1,,,,,ヘイヴ,0
1218,5011002018751,登記記録の閉鎖等,0,2025-04-11,2025-04-01,ゴーアクティブ有限会社,,有限会社,東京都,渋谷区,恵比寿南２丁目６番７号,,13,113,1500022,,,2025-04-01,清算の結了等,,,2015-10-05,1,,,,,ゴーアクティブ,0
1227,5011501008674,登記記録の閉鎖等,0,2025-04-11,2025-04-01,北越紙源株式会社,,株式会社,東京都,荒川区,東日暮里１丁目４１番１３号大久保ビル,,13,118,1160014,,,2025-04-01,合併による解散等,5011501005787,令和７年４月１日東京都荒川区東日暮里一丁目４０番５号株式会社大久保（5011501005787）に合併し解散,2015-10-05,1,,,,,ホクエツシゲン,0
1234,5011601017393,登記記録の閉鎖等,0,2025-04-11,2025-03-31,株式会社クオリティオブライフ,,株式会社,東京都,練馬区,田柄５丁目２７番８号,,13,120,1790073,,,2025-03-31,清算の結了等,,,2015-10-05,1,,,,,クオリティオブライフ,0
1244,5012802011061,登記記録の閉鎖等,0,2025-04-11,2025-03-27,有限会社テーエス企画,,有限会社,東京都,昭島市,大神町３丁目８番１号,,13,207,1960013,,,2025-03-27,清算の結了等,,,2015-10-05,1,,,,,テーエスキカク,0
1248,5020001015998,登記記録の閉鎖等,0,2025-04-11,2025-04-01,株式会社ワイルコーポレーション,,株式会社,神奈川県,横浜市戸塚区,上矢部町１９６５番地４,,14,110,2450053,,,2025-04-01,合併による解散等,3020001159211,令和７年４月１日横浜市戸塚区上矢部町１９６５番地４株式会社エルピーホールディングス（3020001159211）に合併し解散,2015-10-05,1,,,,,ワイルコーポレーション,0
1249,5020001037225,登記記録の閉鎖等,0,2025-04-11,2025-04-07,ＱＳＯインダストリアル株式会社,,株式会社,神奈川県,横浜市港北区,綱島東５丁目８番３０号,,14,109,2230052,,,2025-04-07,合併による解散等,8013201005478,令和７年４月１日東京都目黒区鷹番二丁目１４番４号前澤給装工業株式会社（8013201005478）に合併し解散,2015-10-05,1,,,,,キューエスオーインダストリアル,0
1291,5040002066262,登記記録の閉鎖等,0,2025-04-11,2025-03-31,有限会社緒形商事,,有限会社,千葉県,木更津市,富士見１丁目１０番５号,,12,206,2920831,,,2025-03-31,清算の結了等,,,2015-10-05,1,,,,,オガタショウジ,0
1306,5080002011990,登記記録の閉鎖等,0,2025-04-11,2025-04-03,ＡＵＴＯ・ルブテック・ＪＡＰＡＮ有限会社,,有限会社,静岡県,静岡市葵区,南瀬名町５番２６号,,22,101,4200915,,,2025-04-03,清算の結了等,,,2015-10-05,1,,,,,オートルブテックジャパン,0
1308,5080102002353,登記記録の閉鎖等,0,2025-04-11,2025-04-01,有限会社つる喜,,有限会社,静岡県,沼津市,大岡３４５５番地の２４,,22,203,4100022,,,2025-04-01,清算の結了等,,,2015-10-05,1,,,,,,0
1312,5080402018768,登記記録の閉鎖等,0,2025-04-11,2025-04-02,株式会社満伸総業,,株式会社,静岡県,菊川市,中内田２９６５番地,,22,224,4390036,,,2025-04-02,清算の結了等,,,2015-10-05,1,,,,,マンシンソウギョウ,0
1316,5100001018828,登記記録の閉鎖等,0,2025-04-11,2025-04-04,株式会社伊藤建設石材,,株式会社,長野県,諏訪郡富士見町,境７２９７番地,,20,362,3990101,,,2025-04-04,清算の結了等,,,2015-10-05,1,,,,,イトウケンセツセキザイ,0
1324,5120001174223,登記記録の閉鎖等,0,2025-04-11,2025-04-02,都島舞台設備株式会社,,株式会社,大阪府,泉南市,信達大苗代２４０－２－２,,27,228,5900505,,,2025-04-02,清算の結了等,,,2015-10-05,1,,,,,ミヤコジマブタイセツビ,0
1327,5120001247631,登記記録の閉鎖等,0,2025-04-11,2025-04-01,松大株式会社,,株式会社,東京都,江戸川区,西葛西５丁目７－６ＤＡＯＳＰＡＣＥ西葛西３階５０７号室,,13,123,1340088,,,2025-04-01,清算の結了等,,,2022-08-01,1,,,,,マツダイ,0
1334,5120002067351,登記記録の閉鎖等,0,2025-04-11,2025-04-09,有限会社デルタフォース,,有限会社,兵庫県,尼崎市,常松２丁目１４番５１号,,28,202,6610046,,,2025-04-09,清算の結了等,,,2015-10-05,1,,,,,デルタフォース,0
1346,5140001004403,登記記録の閉鎖等,0,2025-04-11,2025-04-01,株式会社アスカ,,株式会社,兵庫県,明石市,朝霧南町３丁目８番８号,,28,203,6730870,,,2025-04-01,合併による解散等,3140001076700,令和７年３月３１日兵庫県小野市匠台１０番地神戸合成株式会社（3140001076700）に合併し解散,2015-10-05,1,,,,,アスカ,0
1361,5160002005778,登記記録の閉鎖等,0,2025-04-11,2025-04-01,有限会社東陽,,有限会社,滋賀県,甲賀市,信楽町下朝宮小字小畑垣内１０３５番地,,25,209,5291842,,,2025-04-01,清算の結了等,,,2015-10-05,1,,,,,トウヨウ,0
1381,5230001009442,登記記録の閉鎖等,0,2025-04-11,2025-04-07,株式会社ノーバス・ダイレクト－富山,,株式会社,富山県,砺波市,三郎丸１１０番地,,16,208,9391308,,,2025-04-07,清算の結了等,,,2015-10-05,1,,,,,ノーバスダイレクトトヤマ,0
1382,5230001009962,登記記録の閉鎖等,0,2025-04-11,2025-04-01,株式会社クリシマ,,株式会社,富山県,高岡市,向野町４丁目１２番地,,16,202,9330902,,,2025-04-01,合併による解散等,3230001002845,令和７年４月１日富山市中野新町一丁目２番１０号株式会社ホクタテ（3230001002845）に合併し解散,2015-10-05,1,,,,,クリシマ,0
1384,5240001008955,登記記録の閉鎖等,0,2025-04-11,2025-04-07,株式会社はとや商店,,株式会社,広島県,広島市南区,猿猴橋町４番６号,,34,103,7320823,,,2025-04-07,清算の結了等,,,2015-10-05,1,,,,,ハトヤショウテン,0
1409,5300003001398,登記記録の閉鎖等,0,2025-04-11,2025-04-04,合同会社３ＳＵＮ,,合同会社,佐賀県,佐賀市,兵庫南４丁目２２番６１－１号,,41,201,8490918,,,2025-04-04,清算の結了等,,,2018-12-06,1,,,,,サンサン,0
1414,5340001013870,登記記録の閉鎖等,0,2025-04-11,2025-04-07,九州化工株式会社,,株式会社,鹿児島県,鹿屋市,田崎町１１００番地,,46,203,8930037,,,2025-04-07,合併による解散等,8120901017453,令和７年４月１日大阪府吹田市芳野町１８番２３号昭和化工株式会社（8120901017453）に合併し解散,2015-10-05,1,,,,,キュウシュウカコウ,0
1439,5480001008873,登記記録の閉鎖等,0,2025-04-11,2025-04-07,株式会社フィルビルサービス,,株式会社,徳島県,板野郡北島町,鯛浜字大西１０７番地３,,36,402,7710204,,,2025-04-07,清算の結了等,,,2015-10-05,1,,,,,フィルビルサービス,0
1440,5480005006543,登記記録の閉鎖等,0,2025-04-11,2025-04-04,一般社団法人ええね美馬地域ビジネス推進協会,,その他の設立登記法人,徳島県,美馬市,穴吹町穴吹字柏８８－２－１,,36,207,7770005,,,2025-04-04,清算の結了等,,,2017-02-27,1,,,,,エエネミマチイキビジネススイシンキョウカイ,0
1446,6010001123644,登記記録の閉鎖等,0,2025-04-11,2025-03-28,光陽株式会社,,株式会社,東京都,中央区,東日本橋１丁目５番６号,,13,102,1030004,,,2025-03-28,清算の結了等,,,2015-10-05,1,,,,,コウヨウ,0
1447,6010001150341,登記記録の閉鎖等,0,2025-04-11,2025-04-07,株式会社リゾートアシスト,,株式会社,東京都,千代田区,外神田２丁目１９番２号,,13,101,1010021,,,2025-04-07,合併による解散等,1140001116994,令和７年４月１日兵庫県神崎郡神河町上小田８８１番地１４６株式会社ＭＥリゾート播磨（1140001116994）に合併し解散,2015-10-05,1,,,,,リゾートアシスト,0
1448,6010001204361,登記記録の閉鎖等,0,2025-04-11,2025-03-31,グローバルエーアイイノベーションズラボラトリー株式会社,,株式会社,東京都,千代田区,大手町１丁目２番１号,,13,101,1000004,,,2025-03-31,清算の結了等,,,2019-10-03,1,,,,,グローバルエーアイイノベーションズラボラトリー,0
1519,6011505000073,登記記録の閉鎖等,0,2025-04-11,2025-04-02,桐ケ丘商業協同組合,,その他の設立登記法人,東京都,北区,桐ケ丘１丁目９番３－１号,,13,117,1150054,,,2025-04-02,清算の結了等,,,2015-10-05,1,,,,,キリガオカショウギョウ,0
1542,6020002064291,登記記録の閉鎖等,0,2025-04-11,2025-03-31,有限会社友恵貿易,,有限会社,神奈川県,横浜市南区,榎町２丁目４１番,,14,105,2320044,,,2025-03-31,清算の結了等,,,2015-10-05,1,,,,,,0
1554,6030001152559,登記記録の閉鎖等,0,2025-04-11,2025-04-02,株式会社咲,,株式会社,埼玉県,さいたま市大宮区,櫛引町１丁目８２３番地,,11,103,3300851,,,2025-04-02,清算の結了等,,,2023-02-27,1,,,,,サク,0
1563,6030002094230,登記記録の閉鎖等,0,2025-04-11,2025-04-04,有限会社本間デンタル,,有限会社,埼玉県,入間郡毛呂山町,前久保南３丁目８番地２３,,11,326,3500463,,,2025-04-04,清算の結了等,,,2015-10-05,1,,,,,ホンマデンタル,0
1597,6100002020583,登記記録の閉鎖等,0,2025-04-11,2025-04-03,有限会社拓建,,有限会社,長野県,松本市,寿南１丁目３４番１２号,,20,202,3990027,,,2025-04-03,清算の結了等,,,2015-10-05,1,,,,,タクケン,0
1600,6100002029971,登記記録の閉鎖等,0,2025-04-11,2025-04-04,有限会社桜企画,,有限会社,長野県,茅野市,米沢３８７４番地１１,,20,214,3910216,,,2025-04-04,清算の結了等,,,2015-10-05,1,,,,,サクラキカク,0
1629,6130002024648,登記記録の閉鎖等,0,2025-04-11,2025-04-08,有限会社インテリヤムラカミ,,有限会社,京都府,長岡京市,馬場見場走り１番地の１５,,26,209,6170828,,,2025-04-08,清算の結了等,,,2015-10-05,1,,,,,インテリヤムラカミ,0
1633,6140001033483,登記記録の閉鎖等,0,2025-04-11,2025-04-07,株式会社グローバルエージェンシー,,株式会社,兵庫県,神戸市中央区,浜辺通５丁目１番１４号神戸商工貿易センタービル８Ｆ,,28,110,6510083,,,2025-04-07,清算の結了等,,,2015-10-05,1,,,,,グローバルエージェンシー,0
1639,6140002061434,登記記録の閉鎖等,0,2025-04-11,2025-04-01,有限会社テキスタイルミムラ,,有限会社,兵庫県,多可郡多可町,中区鍛冶屋４９６番地,,28,365,6791111,,,2025-04-01,清算の結了等,,,2015-10-05,1,,,,,テキスタイルミムラ,0
1656,6180301024955,登記記録の閉鎖等,0,2025-04-11,2025-04-02,株式会社高工,,株式会社,愛知県,岡崎市,若松町字東荒子６８番地８,,23,202,4440826,,,2025-04-02,清算の結了等,,,2015-10-05,1,,,,,タカコウ,0
1665,6220002012296,登記記録の閉鎖等,0,2025-04-11,2025-04-02,有限会社河瀬商店,,有限会社,石川県,加賀市,大聖寺弓町３２番地,,17,206,9220813,,,2025-04-02,清算の結了等,,,2015-10-05,1,,,,,カワセショウテン,0
1669,6240002007542,登記記録の閉鎖等,0,2025-04-11,2025-04-04,有限会社新生商事,,有限会社,広島県,広島市西区,草津東１丁目１１番４号,,34,104,7330861,,,2025-04-04,清算の結了等,,,2015-10-05,1,,,,,シンセイショウジ,0
1675,6260001036169,登記記録の閉鎖等,0,2025-04-11,2025-04-01,岡北ガスセンター株式会社,,株式会社,岡山県,岡山市北区,津島新野２丁目７番２３号,,33,101,7000083,,,2025-04-01,合併による解散等,3260001001522,令和７年４月１日岡山市中区桜橋一丁目１番１号岡ガスサービス株式会社（3260001001522）に合併し解散,2021-11-02,1,,,,,コウホクガスセンター,0
1676,6260002024775,登記記録の閉鎖等,0,2025-04-11,2025-04-02,有限会社相生商事,,有限会社,岡山県,笠岡市,吉浜２５５１番地の２,,33,205,7140074,,,2025-04-02,清算の結了等,,,2015-10-05,1,,,,,アイオイショウジ,0
1684,6290001020533,登記記録の閉鎖等,0,2025-04-11,2025-04-07,株式会社明広館,,株式会社,福岡県,福岡市博多区,博多駅前２丁目１７番２５号,,40,132,8120011,,,2025-04-07,清算の結了等,,,2015-10-05,1,,,,,メイコウカン,0
1686,6290001079801,登記記録の閉鎖等,0,2025-04-11,2025-04-07,株式会社ゆたかカレッジ,,株式会社,福岡県,福岡市博多区,博多駅東２丁目５番３７－２０４号,,40,132,8120013,,,2025-04-07,合併による解散等,8080401001549,令和７年４月１日静岡県浜松市中央区田町２３０番地の１５株式会社クラ・ゼミ（8080401001549）に合併し解散,2017-12-01,1,,,,,ユタカカレッジ,0
1697,6290005016445,登記記録の閉鎖等,0,2025-04-11,2025-04-03,一般社団法人全国実務管理協会,,その他の設立登記法人,福岡県,福岡市中央区,大名２丁目６番３１号,,40,133,8100041,,,2025-04-03,清算の結了等,,,2017-06-13,1,,,,,ゼンコクジツムカンリキョウカイ,0
1699,6300001011530,登記記録の閉鎖等,0,2025-04-11,2025-04-04,株式会社１２ＳＵＮ,,株式会社,佐賀県,神埼市,神埼町鶴３２５０番地１０,,41,210,8420007,,,2025-04-04,清算の結了等,,,2018-12-06,1,,,,,イチニサン,0
1704,6350001007887,登記記録の閉鎖等,0,2025-04-11,2025-04-03,株式会社イワミツ,,株式会社,宮崎県,都城市,志比田町５２７０番地,,45,202,8850093,,,2025-04-03,清算の結了等,,,2015-10-05,1,,,,,イワミツ,0
1706,6350001015551,登記記録の閉鎖等,0,2025-04-11,2025-04-01,シフトツノ株式会社,,株式会社,宮崎県,児湯郡都農町,大字川北４７６４番地３,,45,406,8891201,,,2025-04-01,合併による解散等,7120001119993,令和７年４月１日宮崎県都城市宮丸町３０７０番地１シフトプラス株式会社（7120001119993）に合併し解散,2018-11-30,1,,,,,シフトツノ,0
1712,6380002033979,登記記録の閉鎖等,0,2025-04-11,2025-04-07,有限会社ワイン工房あいづ,,有限会社,福島県,耶麻郡猪苗代町,大字千代田字千代田３番７,,07,408,9693133,,,2025-04-07,合併による解散等,8120901017453,令和７年４月１日大阪府吹田市芳野町１８番２３号昭和化工株式会社（8120901017453）に合併し解散,2015-10-05,1,,,,,ワインコウボウアイヅ,0
1715,6400001000127,登記記録の閉鎖等,0,2025-04-11,2025-03-31,株式会社岩手県建設会館,,株式会社,岩手県,盛岡市,松尾町１７番９号,,03,201,0200873,,,2025-03-31,清算の結了等,,,2015-10-05,1,,,,,イワテケンケンセツカイカン,0
1719,6410001004738,登記記録の閉鎖等,0,2025-04-11,2025-04-03,岩城タクシー株式会社,,株式会社,秋田県,由利本荘市,砂子下４８－１,,05,210,0150875,,,2025-04-03,清算の結了等,,,2015-10-05,1,,,,,イワキタクシー,0
1726,6440001001757,登記記録の閉鎖等,0,2025-04-11,2025-04-03,株式会社函館マツダ,,株式会社,北海道,函館市,宮前町３０番６号,,01,202,0400073,,,2025-04-03,合併による解散等,8430001022538,令和７年４月１日札幌市中央区北二条東一丁目１番地北海道マツダ販売株式会社（8430001022538）に合併し解散,2015-10-05,1,,,,,,0
1731,6490002012311,登記記録の閉鎖等,0,2025-04-11,2025-04-07,有限会社マットオフィス,,有限会社,高知県,香南市,野市町下井９３７番地５,,39,211,7815235,,,2025-04-07,清算の結了等,,,2015-10-05,1,,,,,,0
1734,6500002021087,登記記録の閉鎖等,0,2025-04-11,2025-04-07,有限会社光輝グループ,,有限会社,愛媛県,四国中央市,寒川町３２８２番地の１,,38,213,7990431,,,2025-04-07,清算の結了等,,,2015-10-05,1,,,,,コウキグループ,0
1753,7010401056930,登記記録の閉鎖等,0,2025-04-11,2025-03-31,株式会社ヤナセエキスパートサービス,,株式会社,東京都,港区,芝浦１丁目６番３８号,,13,103,1050023,,,2025-03-31,清算の結了等,,,2015-10-05,1,,,,,ヤナセエキスパートサービス,0
1773,7010802006162,登記記録の閉鎖等,0,2025-04-11,2025-03-31,有限会社サンストン,,有限会社,東京都,大田区,大森北６丁目８番１０号,,13,111,1430016,,,2025-03-31,清算の結了等,,,2015-10-05,1,,,,,,0
1796,7011102003098,登記記録の閉鎖等,0,2025-04-11,2025-03-27,有限会社鹿島通商,,有限会社,東京都,新宿区,早稲田鶴巻町１０９番地,,13,104,1620041,,,2025-03-27,清算の結了等,,,2015-10-05,1,,,,,カシマツウショウ,0
1807,7012301010034,登記記録の閉鎖等,0,2025-04-11,2025-04-01,株式会社大和ホールディングス,,株式会社,東京都,町田市,玉川学園４丁目２４番２４号,,13,209,1940041,,,2025-04-01,合併による解散等,2012301001459,令和７年４月１日東京都町田市玉川学園四丁目２４番２４号株式会社大和テクノシステムズ（2012301001459）に合併し解散,2015-10-05,1,,,,,ダイワホールディングス,0
1809,7012401001775,登記記録の閉鎖等,0,2025-04-11,2025-03-31,山本電子工業株式会社,,株式会社,東京都,府中市,押立町５丁目１６番地の１８,,13,206,1830012,,,2025-03-31,清算の結了等,,,2015-10-05,1,,,,,ヤマモトデンシコウギョウ,0
1812,7013102002311,登記記録の閉鎖等,0,2025-04-11,2025-04-09,有限会社橋本製作所,00059739,有限会社,東京都,あきる野市,小峰台３１番地,,13,228,1900153,,,2025-04-09,清算の結了等,,,2015-10-05,1,,,,,ハシモトセイサクショ,0
1814,7020001080289,登記記録の閉鎖等,0,2025-04-11,2025-03-31,株式会社若松商事,,株式会社,神奈川県,川崎市宮前区,白幡台１丁目７番地１５,,14,136,2160025,,,2025-03-31,清算の結了等,,,2015-10-05,1,,,,,ワカマツショウジ,0
1824,7030001021110,登記記録の閉鎖等,0,2025-04-11,2025-04-01,株式会社ＮＦ千代田エレクトロニクス,,株式会社,神奈川県,横浜市港北区,綱島東６丁目３番２０号,,14,109,2230052,,,2025-04-01,合併による解散等,3020001136004,令和７年４月１日横浜市港北区綱島東六丁目３番２０号株式会社エヌエフ回路設計ブロック（3020001136004）に合併し解散,2015-10-05,1,,,,,エヌエフチヨダエレクトロニクス,0
1857,7070002035015,登記記録の閉鎖等,0,2025-04-11,2025-04-02,有限会社永井酒販,,有限会社,群馬県,沼田市,東原新町１９３２番地２９,,10,206,3780053,,,2025-04-02,清算の結了等,,,2015-10-05,1,,,,,ナガイシュハン,0
1859,7080102002236,登記記録の閉鎖等,0,2025-04-11,2025-04-01,有限会社拓間重機,,有限会社,静岡県,沼津市,大塚４６９番地の２,,22,203,4100306,,,2025-04-01,清算の結了等,,,2015-10-05,1,,,,,,0
1862,7090001004332,登記記録の閉鎖等,0,2025-04-11,2025-04-01,株式会社Ｙ’Ｓ満足屋,,株式会社,山梨県,甲府市,中央４丁目４番３２号,,19,201,4000032,,,2025-04-01,清算の結了等,,,2015-10-05,1,,,,,ワイズマンゾクヤ,0
1863,7090003001204,登記記録の閉鎖等,0,2025-04-11,2025-03-28,合同会社むすぶ,,合同会社,山梨県,甲斐市,万才４４９番地５,,19,210,4000114,,,2025-03-28,清算の結了等,,,2016-07-22,1,,,,,ムスブ,0
1876,7120001086631,登記記録の閉鎖等,0,2025-04-11,2025-04-07,日経綜合警備株式会社,,株式会社,大阪府,大阪市中央区,南船場１丁目１７番１０号,,27,128,5420081,,,2025-04-07,清算の結了等,,,2015-10-05,1,,,,,ニッケイソウゴウケイビ,0
1877,7120001102074,登記記録の閉鎖等,0,2025-04-11,2025-04-07,株式会社アクセス,,株式会社,大阪府,大阪市天王寺区,堀越町９番２０－２０２号,,27,109,5430056,,,2025-04-07,清算の結了等,,,2015-10-05,1,,,,,アクセス,0
1898,7120101038268,登記記録の閉鎖等,0,2025-04-11,2025-04-09,株式会社田原商会,,株式会社,大阪府,貝塚市,二色中町１１番１,,27,208,5970093,,,2025-04-09,合併による解散等,9120001114233,令和７年４月１日大阪市天王寺区東高津町１１番９号サムティ上本町ビル１０階株式会社テザック（9120001114233）に合併し解散,2015-10-05,1,,,,,タハラショウカイ,0
1907,7130001044670,登記記録の閉鎖等,0,2025-04-11,2025-04-07,株式会社一花,,株式会社,京都府,京都市右京区,西院北矢掛町３９番地１２,,26,108,6150026,,,2025-04-07,清算の結了等,,,2015-10-05,1,,,,,イチカ,0
1912,7140001108755,登記記録の閉鎖等,0,2025-04-11,2025-04-07,株式会社Ｊ＆Ｙ,,株式会社,兵庫県,姫路市,塩町８７番地日経ビル５階,,28,201,6700904,,,2025-04-07,清算の結了等,,,2018-01-10,1,,,,,ジェイアンドワイ,0
1940,7220002002008,登記記録の閉鎖等,0,2025-04-11,2025-04-03,有限会社川村塗装,,有限会社,石川県,金沢市,松村２丁目５７番地,,17,201,9200348,,,2025-04-03,清算の結了等,,,2015-10-05,1,,,,,カワムラトソウ,0
1946,7240001062414,登記記録の閉鎖等,0,2025-04-11,2025-04-01,株式会社あおばメモリアル上安会館,,株式会社,広島県,広島市安佐南区,上安２丁目３３番５号,,34,105,7310154,,,2025-04-01,合併による解散等,3240001042527,令和７年４月１日広島市西区上天満町１０番２７号あおばビル４階株式会社あおばメモリアル（3240001042527）に合併し解散,2023-11-13,1,,,,,アオバメモリアルカミヤスカイカン,0
1947,7240002030816,登記記録の閉鎖等,0,2025-04-11,2025-04-04,有限会社三次電気管理事務所,,有限会社,広島県,三次市,十日市中１丁目９番５５号,,34,209,7280012,,,2025-04-04,清算の結了等,,,2015-10-05,1,,,,,ミヨシデンキカンリジムショ,0
1950,7250002015551,登記記録の閉鎖等,0,2025-04-11,2025-04-07,有限会社アペックスハウジングエージェンシー,,有限会社,山口県,下松市,東陽３丁目３番３号,,35,207,7440043,,,2025-04-07,清算の結了等,,,2015-10-05,1,,,,,アペックスハウジングエージェンシー,0
1964,7310001006512,登記記録の閉鎖等,0,2025-04-11,2025-04-01,株式会社大島商事,,株式会社,長崎県,西海市,大島町１８１３番地４２,,42,212,8572427,,,2025-04-01,合併による解散等,2310001003183,令和７年４月１日長崎市池島町７７６番地１三井松島リソーシス株式会社（2310001003183）に合併し解散,2015-10-05,1,,,,,オオシマショウジ,0
1965,7320001015090,登記記録の閉鎖等,0,2025-04-11,2025-03-24,株式会社ゆうしん工業,,株式会社,大分県,中津市,大字角木２３６番地１オ・ソレイユＢ棟１０５号室,,44,203,8710091,,,2025-03-24,清算の結了等,,,2016-08-05,1,,,,,,0
1974,7380001017602,登記記録の閉鎖等,0,2025-04-11,2025-03-26,株式会社長栄工業所,,株式会社,福島県,耶麻郡磐梯町,大字磐梯字東松山１２６５番地,,07,407,9693301,,,2025-03-26,清算の結了等,,,2015-10-05,1,,,,,チョウエイコウギョウショ,0
2003,7470001016792,登記記録の閉鎖等,0,2025-04-11,2025-03-31,株式会社ゆめみらい,,株式会社,香川県,観音寺市,植田町３４８番地６,,37,205,7680012,,,2025-03-31,合併による解散等,8470001012634,令和７年３月３１日香川県観音寺市植田町１４００番地株式会社Ｍｉｇ（8470001012634）に合併し解散,2018-03-28,1,,,,,ユメミライ,0
2005,7480001003922,登記記録の閉鎖等,0,2025-04-11,2025-04-02,株式会社藤本不動産,,株式会社,徳島県,徳島市,二軒屋町３丁目１８番地１,,36,201,7700928,,,2025-04-02,清算の結了等,,,2015-10-05,1,,,,,フジモトフドウサン,0
2006,7480001011660,登記記録の閉鎖等,0,2025-04-11,2025-04-07,株式会社Ｒｅａｌｉｚｅ,,株式会社,徳島県,徳島市,国府町早淵４２５番地１,,36,201,7793125,,,2025-04-07,清算の結了等,,,2022-02-28,1,,,,,,0
2010,7500001014413,登記記録の閉鎖等,0,2025-04-11,2025-04-07,仁野汽船株式会社,,株式会社,愛媛県,四国中央市,中之庄町４４２番地１,,38,213,7990422,,,2025-04-07,清算の結了等,,,2015-10-05,1,,,,,ニノキセン,0
2013,7500003001599,登記記録の閉鎖等,0,2025-04-11,2025-04-07,合同会社エムケーコーポレーション,,合同会社,愛媛県,西条市,大町３０３番地１,,38,206,7930030,,,2025-04-07,清算の結了等,,,2015-10-05,1,,,,,エムケーコーポレーション,0
2016,8010001159083,登記記録の閉鎖等,0,2025-04-11,2025-04-01,株式会社ランウェイ・ジャパン,,株式会社,東京都,千代田区,神田小川町１丁目１０番地２,,13,101,1010052,,,2025-04-01,清算の結了等,,,2015-10-05,1,,,,,ランウェイジャパン,0
2018,8010001208864,登記記録の閉鎖等,0,2025-04-11,2025-04-01,株式会社ワンダーネットワーク,,株式会社,東京都,千代田区,九段北４丁目２番２９号,,13,101,1020073,,,2025-04-01,合併による解散等,3010001233462,令和７年４月１日東京都千代田区九段北四丁目２番２９号株式会社世界文化ワンダーグループ（3010001233462）に合併し解散,2020-04-08,1,,,,,ワンダーネットワーク,0
2032,8010401009400,登記記録の閉鎖等,0,2025-04-11,2025-03-18,株式会社ケン・クリエーテイブ・スタジオ,,株式会社,東京都,港区,赤坂９丁目５番２９号良和ビル３０２号,,13,103,1070052,,,2025-03-18,清算の結了等,,,2015-10-05,1,,,,,ケンクリエーテイブスタジオ,0
2033,8010401096257,登記記録の閉鎖等,0,2025-04-11,2025-03-19,株式会社まめのき,,株式会社,東京都,港区,芝浦４丁目２１番１－４１１７号,,13,103,1080023,,,2025-03-19,清算の結了等,,,2015-10-05,1,,,,,,0
2038,8010403011164,登記記録の閉鎖等,0,2025-04-11,2025-03-21,ＡＭＩ合同会社,,合同会社,東京都,港区,元麻布３丁目１１番１０号,,13,103,1060046,,,2025-03-21,清算の結了等,,,2015-10-05,1,,,,,エイエムアイ,0
2053,8011001015037,登記記録の閉鎖等,0,2025-04-11,2025-03-12,天法建設株式会社,,株式会社,東京都,渋谷区,代々木１丁目４３番７号,,13,113,1510053,,,2025-03-12,清算の結了等,,,2015-10-05,1,,,,,テンポウケンセツ,0
2063,8011101056179,登記記録の閉鎖等,0,2025-04-11,2025-03-28,株式会社ひかりサービスセンター,,株式会社,東京都,新宿区,住吉町５番７号,,13,104,1620065,,,2025-03-28,清算の結了等,,,2015-10-05,1,,,,,ヒカリサービスセンター,0
2093,8013201011732,登記記録の閉鎖等,0,2025-04-11,2025-04-08,株式会社わかたけ,,株式会社,東京都,目黒区,中根２丁目１２番２号ＴＤＧビル,,13,110,1520031,,,2025-04-08,合併による解散等,1120001047184,令和７年４月１日大阪市西区立売堀一丁目４番１２号立売堀スクエア株式会社プレテリアテキスタイル（1120001047184）に合併し解散,2015-10-05,1,,,,,ワカタケ,0
2094,8013201018042,登記記録の閉鎖等,0,2025-04-11,2025-03-06,株式会社Ｎｉｐｐｏｐ,,株式会社,東京都,目黒区,五本木１丁目１７番５号,,13,110,1530053,,,2025-03-06,清算の結了等,,,2015-10-05,1,,,,,ニップポップ,0
2097,8020002028971,登記記録の閉鎖等,0,2025-04-11,2025-03-31,有限会社飯島商会不動産,,有限会社,神奈川県,横浜市南区,南吉田町３丁目３６番地,,14,105,2320012,,,2025-03-31,清算の結了等,,,2015-10-05,1,,,,,イイジマショウカイフドウサン,0
2107,8021002016272,登記記録の閉鎖等,0,2025-04-11,2025-04-01,有限会社ピノ,,有限会社,神奈川県,鎌倉市,西鎌倉２丁目２番９号,,14,204,2480035,,,2025-04-01,合併による解散等,9021001001737,令和７年４月１日神奈川県藤沢市片瀬二丁目２番２号株式会社パイニイ（9021001001737）に合併し解散,2015-10-05,1,,,,,ピノ,0
2122,8030002070849,登記記録の閉鎖等,0,2025-04-11,2025-04-03,有限会社公栄通商,,有限会社,埼玉県,南埼玉郡宮代町,字姫宮３０６番地４,,11,442,3450812,,,2025-04-03,清算の結了等,,,2015-10-05,1,,,,,コウエイツウショウ,0
2126,8030005000695,登記記録の閉鎖等,0,2025-04-11,2025-04-03,埼玉県総合建設業協同組合,,その他の設立登記法人,埼玉県,さいたま市南区,鹿手袋４丁目１番７号,,11,108,3360031,,,2025-04-03,清算の結了等,,,2015-10-05,1,,,,,サイタマケンソウゴウケンセツギョウ,0
2131,8040001032329,登記記録の閉鎖等,0,2025-04-11,2025-03-31,京葉航空株式会社,,株式会社,千葉県,鎌ケ谷市,中央１丁目１番３２号,,12,224,2730124,,,2025-03-31,清算の結了等,,,2015-10-05,1,,,,,ケイヨウコウクウ,0
2150,8080102001906,登記記録の閉鎖等,0,2025-04-11,2025-04-01,有限会社ステップ・ワン,,有限会社,静岡県,沼津市,日の出町２番１２号,,22,203,4100032,,,2025-04-01,清算の結了等,,,2015-10-05,1,,,,,ステップワン,0
2160,8100003002471,登記記録の閉鎖等,0,2025-04-11,2025-04-01,合同会社小口元五郎商店,,合同会社,長野県,岡谷市,天竜町３丁目１１番７号,,20,204,3940035,,,2025-04-01,合併による解散等,4100001014258,令和７年４月１日長野県松本市深志一丁目２番８号株式会社ミュージックプラザオグチ（4100001014258）に合併し解散,2015-10-05,1,,,,,オグチモトゴロウショウテン,0
2192,8120102013392,登記記録の閉鎖等,0,2025-04-11,2025-04-04,有限会社ＩＴクラフト,,有限会社,大阪府,堺市堺区,戎島町２丁６２番地１－９１２号,,27,141,5900985,,,2025-04-04,清算の結了等,,,2015-10-05,1,,,,,アイティークラフト,0
2237,8220001019951,登記記録の閉鎖等,0,2025-04-11,2025-04-02,株式会社かなや,,株式会社,石川県,金沢市,湯涌町イ５６番地,,17,201,9201123,,,2025-04-02,清算の結了等,,,2015-10-05,1,,,,,カナヤ,0
2241,8240001040476,登記記録の閉鎖等,0,2025-04-11,2025-04-01,株式会社クローバー葬祭,,株式会社,広島県,広島市中区,堺町１丁目３番１６号,,34,101,7300853,,,2025-04-01,合併による解散等,3240001042527,令和７年４月１日広島市西区上天満町１０番２７号あおばビル４階株式会社あおばメモリアル（3240001042527）に合併し解散,2015-10-05,1,,,,,クローバーソウサイ,0
2249,8260002012828,登記記録の閉鎖等,0,2025-04-11,2025-04-01,有限会社ガスセンター操南,,有限会社,岡山県,岡山市中区,海吉１８３３番地の７,,33,102,7038261,,,2025-04-01,合併による解散等,3260001001522,令和７年４月１日岡山市中区桜橋一丁目１番１号岡ガスサービス株式会社（3260001001522）に合併し解散,2015-10-05,1,,,,,ガスセンターソウナン,0
2265,8340001006467,登記記録の閉鎖等,0,2025-04-11,2025-04-09,イワタニ鹿児島株式会社,,株式会社,鹿児島県,鹿児島市,卸本町８番１３,,46,201,8910123,,,2025-04-09,合併による解散等,3330001004550,令和７年４月１日熊本市東区小山二丁目１６番５０号イワタニ南九州株式会社（3330001004550）に合併し解散,2015-10-05,1,,,,,イワタニカゴシマ,0
2271,8380001013245,登記記録の閉鎖等,0,2025-04-11,2025-03-27,大成保証株式会社,,株式会社,福島県,いわき市,平沼ノ内字町田２７９番地１,,07,204,9700222,,,2025-03-27,清算の結了等,,,2015-10-05,1,,,,,タイセイホショウ,0
2275,8390002010026,登記記録の閉鎖等,0,2025-04-11,2025-04-01,有限会社鈴庄,,有限会社,山形県,鶴岡市,小名部甲１３２番地,,06,203,9997125,,,2025-04-01,清算の結了等,,,2015-10-05,1,,,,,スズショウ,0
2279,8400002002640,登記記録の閉鎖等,0,2025-04-11,2025-03-28,有限会社東日本ライフサポート,,有限会社,岩手県,盛岡市,津志田西２丁目１２番４０号ＫブランシェＧ１０１,,03,201,0200836,,,2025-03-28,清算の結了等,,,2015-10-05,1,,,,,ヒガシニホンライフサポート,0
2314,9010001208863,登記記録の閉鎖等,0,2025-04-11,2025-04-01,株式会社ワンダーウェルネス,,株式会社,東京都,千代田区,九段北４丁目２番２９号,,13,101,1020073,,,2025-04-01,合併による解散等,3010001233462,令和７年４月１日東京都千代田区九段北四丁目２番２９号株式会社世界文化ワンダーグループ（3010001233462）に合併し解散,2020-04-08,1,,,,,ワンダーウェルネス,0
2327,9010401099119,登記記録の閉鎖等,0,2025-04-11,2025-04-08,パナソニックインダストリアルマーケティング＆セールス株式会社,,株式会社,東京都,港区,虎ノ門２丁目６番１号,,13,103,1050001,,,2025-04-08,合併による解散等,5120001235594,令和７年４月１日大阪府門真市大字門真１００６番地パナソニックインダストリー株式会社（5120001235594）に合併し解散,2015-10-05,1,,,,,パナソニックインダストリアルマーケティングアンドセールス,0
2346,9010803005153,登記記録の閉鎖等,0,2025-04-11,2025-03-31,キズナ・ジャパン合同会社,,合同会社,東京都,大田区,中央１丁目１２番２号,,13,111,1430024,,,2025-03-31,合併による解散等,9011002008732,令和７年３月３１日東京都大田区中央一丁目１２番２号キズナ・ジャパン株式会社（9011002008732）に合併し解散,2024-11-07,1,,,,,キズナジャパン,0
2367,9011101038218,登記記録の閉鎖等,0,2025-04-11,2025-04-01,株式会社東京ネバーランド,,株式会社,神奈川県,横浜市西区,南幸２丁目２０番５号,,14,103,2200005,,,2025-04-01,合併による解散等,9020001046627,令和７年４月１日神奈川県横浜市西区南幸二丁目２０番５号株式会社ウエルアップ（9020001046627）に合併し解散,2015-10-05,1,,,,,トウキョウネバーランド,0
2376,9011401006709,登記記録の閉鎖等,0,2025-04-11,2025-04-07,株式会社寄藤工務店,,株式会社,東京都,板橋区,板橋３丁目３９番２号,,13,119,1730004,,,2025-04-07,清算の結了等,,,2015-10-05,1,,,,,ヨリフジコウムテン,0
2384,9012401023082,登記記録の閉鎖等,0,2025-04-11,2025-04-03,株式会社エコパートナーズ,,株式会社,埼玉県,入間市,狭山台３丁目２番地１,,11,225,3580033,,,2025-04-03,清算の結了等,,,2015-10-05,1,,,,,エコパートナーズ,0
2389,9013101005354,登記記録の閉鎖等,0,2025-04-11,2025-04-10,トータル・ライフ・ヘア・サポート株式会社,,株式会社,東京都,青梅市,新町６丁目５番地の４９,,13,205,1980024,,,2025-04-10,清算の結了等,,,2015-10-05,1,,,,,トータルライフヘアサポート,0
2390,9013301043088,登記記録の閉鎖等,0,2025-04-11,2025-04-10,株式会社ファーマシィ・オレンジ,,株式会社,東京都,町田市,小山ヶ丘３丁目２８番地６０５,,13,209,1940215,,,2025-04-10,合併による解散等,2070001029807,令和７年４月１日東京都千代田区大手町一丁目３番１号さくら薬局株式会社（2070001029807）に合併し解散,2018-11-13,1,,,,,ファーマシィオレンジ,0
2409,9030001111702,登記記録の閉鎖等,0,2025-04-11,2025-04-03,株式会社タケグループ,,株式会社,埼玉県,上尾市,大字原市１９２番地４７,,11,219,3620021,,,2025-04-03,清算の結了等,,,2015-12-03,1,,,,,,0
2410,9030001154263,登記記録の閉鎖等,0,2025-04-11,2025-04-04,株式会社Ｊ・Ｋ,,株式会社,埼玉県,川口市,上青木西５丁目２３番１９号３Ｆ,,11,203,3330845,,,2025-04-04,清算の結了等,,,2023-06-09,1,,,,,ジェイケイ,0
2416,9030002116758,登記記録の閉鎖等,0,2025-04-11,2025-04-04,有限会社サンコー,,有限会社,埼玉県,深谷市,宿根５０８番地,,11,218,3660810,,,2025-04-04,清算の結了等,,,2015-10-05,1,,,,,サンコー,0
2418,9030005005438,登記記録の閉鎖等,0,2025-04-11,2025-04-04,特定非営利活動法人色えんぴつ,,その他の設立登記法人,埼玉県,羽生市,大字加羽ケ崎２８１番地２,,11,216,3480031,,,2025-04-04,清算の結了等,,,2015-10-05,1,,,,,イロエンピツ,0
2432,9050001026592,登記記録の閉鎖等,0,2025-04-11,2025-04-01,洋光産業株式会社,,株式会社,茨城県,常陸太田市,東二町２２５５番地の１,,08,212,3130052,,,2025-04-01,合併による解散等,5050001026489,令和７年４月１日茨城県常陸太田市東二町２２４９番地茨城リネンサプライ株式会社（5050001026489）に合併し解散,2015-10-05,1,,,,,ヨウコウサンギョウ,0
2448,9100002004468,登記記録の閉鎖等,0,2025-04-11,2025-04-01,有限会社プランニング・エメ,,有限会社,長野県,長野市,大字稲葉２０３８番地４,,20,201,3800911,,,2025-04-01,合併による解散等,3100001028738,令和７年４月１日長野市高田６７１番地１軽井沢トルタ株式会社（3100001028738）に合併し解散,2015-10-05,1,,,,,プランニングエメ,0
2452,9120001101009,登記記録の閉鎖等,0,2025-04-11,2025-04-07,朝日大阪販売事業株式会社,,株式会社,大阪府,大阪市北区,西天満１丁目１０番８号西天満第１１松屋ビル,,27,127,5300047,,,2025-04-07,合併による解散等,8120901022668,令和７年４月１日大阪府豊中市上新田三丁目１０番２１号朝日新聞大阪販売株式会社（8120901022668）に合併し解散,2015-10-05,1,,,,,アサヒオオサカハンバイジギョウ,0
2486,9140005004718,登記記録の閉鎖等,0,2025-04-11,2025-04-04,特定非営利活動法人ＫＯＢＥ鉄人ＰＲＯＪＥＣＴ,,その他の設立登記法人,兵庫県,神戸市長田区,久保町６丁目１番１－４０１号,,28,106,6530041,,,2025-04-04,清算の結了等,,,2015-10-05,1,,,,,コウベテツジンプロジェクト,0
2487,9140005022736,登記記録の閉鎖等,0,2025-04-11,2025-04-04,一般社団法人ＵＡＳ多用推進技術会,,その他の設立登記法人,兵庫県,豊岡市,江本１２４番１０,,28,209,6680852,,,2025-04-04,清算の結了等,,,2016-01-06,1,,,,,ユーエイエスタヨウスイシンギジュツカイ,0
2490,9170001000098,登記記録の閉鎖等,0,2025-04-11,2025-04-07,朝日新聞和歌山販売株式会社,,株式会社,和歌山県,和歌山市,西高松１丁目５番４５号,,30,201,6410051,,,2025-04-07,合併による解散等,3130001016384,令和７年４月１日京都市下京区寺町通綾小路下る中之町５５９番地朝日新聞京都販売株式会社（3130001016384）に合併し解散,2015-10-05,1,,,,,アサヒシンブンワカヤマハンバイ,0
2516,9210005002111,登記記録の閉鎖等,0,2025-04-11,2025-04-02,特定非営利活動法人日本糖尿病情報学会,,その他の設立登記法人,福井県,福井市,二の宮４丁目２３番１４号（方書）信開ドヌール二の宮４０１号,,18,201,9100015,,,2025-04-02,清算の結了等,,,2015-10-05,1,,,,,ニホントウニョウビョウジョウホウガッカイ,0
2519,9240001021681,登記記録の閉鎖等,0,2025-04-11,2025-04-01,あおばメモリアル株式会社,,株式会社,広島県,広島市中区,堺町１丁目３番１６号,,34,101,7300853,,,2025-04-01,合併による解散等,3240001042527,令和７年４月１日広島市西区上天満町１０番２７号あおばビル４階株式会社あおばメモリアル（3240001042527）に合併し解散,2015-10-05,1,,,,,アオバメモリアル,0
2528,9290001102279,登記記録の閉鎖等,0,2025-04-11,2025-03-28,株式会社実,,株式会社,福岡県,福岡市中央区,天神４丁目６番２８号天神ファーストビル７階,,40,133,8100001,,,2025-03-28,清算の結了等,,,2023-07-14,1,,,,,ミノレ,0
2555,9420001000147,登記記録の閉鎖等,0,2025-04-11,2025-04-09,青森スバル自動車株式会社,,株式会社,青森県,青森市,原別６丁目１０番１号,,02,201,0300921,,,2025-04-09,合併による解散等,3370001006543,令和７年４月１日仙台市宮城野区日の出町一丁目５番２６号スバル東北株式会社（3370001006543）に合併し解散,2015-10-05,1,,,,,アオモリスバルジドウシャ,0
2557,9430001021522,登記記録の閉鎖等,0,2025-04-11,2025-04-01,北海定温運輸株式会社,,株式会社,北海道,札幌市西区,発寒十四条１４丁目１番１９号,,01,107,0630834,,,2025-04-01,合併による解散等,1430001020077,令和７年４月１日札幌市西区発寒十四条十四丁目１番１７号札幌定温運輸株式会社（1430001020077）に合併し解散,2015-10-05,1,,,,,ホッカイテイオンウンユ,0
