sequenceNumber,corporateNumber,process,correct,updateDate,changeDate,name,nameImageId,kind,prefectureName,cityName,streetNumber,addressImageId,prefectureCode,cityCode,postCode,addressOutside,addressOutsideImageId,closeDate,closeCause,successorCorporateNumber,changeCause,assignmentDate,latest,enName,enPrefectureName,enCityName,enAddressOutside,furigana,hihyoji
32,1010903003601,登記記録の閉鎖等,0,2025-08-18,2025-07-31,和良地アソシエイツ合同会社,,合同会社,神奈川県,横浜市青葉区,藤が丘２丁目１番地３ソルジェガーデン７０７号,,14,117,2270043,,,2025-07-31,清算の結了等,,,2017-04-11,1,,,,,ワラチアソシエイツ,0
33,1011001155888,登記記録の閉鎖等,0,2025-08-18,2025-07-14,株式会社Ｙ＆Ｊクリエイト,,株式会社,東京都,渋谷区,神宮前６丁目２３番４号桑野ビル２階,,13,113,1500001,,,2025-07-14,清算の結了等,,,2023-07-27,1,,,,,ワイアンドジェイクリエイト,0
37,1011103012310,登記記録の閉鎖等,0,2025-08-18,2025-07-10,合同会社リンクス,,合同会社,東京都,新宿区,西新宿３丁目３番１３号西新宿水間ビル２Ｆ,,13,104,1600023,,,2025-07-10,清算の結了等,,,2022-10-28,1,,,,,リンクス,0
65,1020002044694,登記記録の閉鎖等,0,2025-08-18,2025-07-31,有限会社平本自転車店,,有限会社,神奈川県,横浜市中区,山下町１４５番地,,14,104,2310023,,,2025-07-31,清算の結了等,,,2015-10-05,1,,,,,ヒラモトジテンシャテン,0
72,1030001060675,登記記録の閉鎖等,0,2025-08-18,2025-08-07,富士機械株式会社,,株式会社,埼玉県,本庄市,児玉町共栄４１４番地,,11,211,3670206,,,2025-08-07,合併による解散等,2010001228348,令和７年８月１日埼玉県本庄市児玉町共栄４１４番地富士機械株式会社（2010001228348）に合併し解散,2015-10-05,1,,,,,フジキカイ,0
82,1040001018441,登記記録の閉鎖等,0,2025-08-18,2025-07-01,磐梯観光開発株式会社,,株式会社,千葉県,船橋市,習志野台６丁目２６番１号,,12,204,2740063,,,2025-07-01,清算の結了等,,,2015-10-05,1,,,,,,0
93,1040002036054,登記記録の閉鎖等,0,2025-08-18,2025-07-22,有限会社ビー・ティー・エス,,有限会社,千葉県,市川市,国府台４丁目７番４０号,,12,203,2720827,,,2025-07-22,清算の結了等,,,2015-10-05,1,,,,,ビーティーエス,0
96,1040002054007,登記記録の閉鎖等,0,2025-08-18,2025-07-23,有限会社蝦名工業,,有限会社,千葉県,流山市,駒木６３４番地の６,,12,220,2700132,,,2025-07-23,清算の結了等,,,2015-10-05,1,,,,,エビナコウギョウ,0
97,1040002077008,登記記録の閉鎖等,0,2025-08-18,2025-07-22,有限会社邦華園,,有限会社,千葉県,市原市,ちはら台東４丁目１７番地１０,,12,219,2900141,,,2025-07-22,清算の結了等,,,2015-10-05,1,,,,,ホウカエン,0
116,1080005007040,登記記録の閉鎖等,0,2025-08-18,2025-08-07,おじま企業組合,,その他の設立登記法人,静岡県,静岡市清水区,小河内２１２１番地,,22,103,4240302,,,2025-08-07,清算の結了等,,,2017-12-07,1,,,,,オジマ,0
122,1100002020456,登記記録の閉鎖等,0,2025-08-18,2025-08-12,有限会社千代,,有限会社,長野県,北安曇郡池田町,大字池田４３３８番地,,20,481,3998601,,,2025-08-12,清算の結了等,,,2015-10-05,1,,,,,センダイ,0
123,1110002027500,登記記録の閉鎖等,0,2025-08-18,2025-07-30,有限会社建友,,有限会社,新潟県,長岡市,新組町２１３２番地３９,,15,202,9400897,,,2025-07-30,清算の結了等,,,2015-10-05,1,,,,,ケンユウ,0
139,1120002048181,登記記録の閉鎖等,0,2025-08-18,2025-08-01,功起建設株式会社,,株式会社,京都府,京都市中京区,東洞院通御池下る笹屋町４４５,,26,104,6048187,,,2025-08-01,清算の結了等,,,2015-10-05,1,,,,,コウキケンセツ,0
147,1120103005172,登記記録の閉鎖等,0,2025-08-18,2025-08-06,合同会社ＳＢＹＳ,,合同会社,大阪府,藤井寺市,岡１丁目１５－６昌五ビル２０１,,27,226,5830027,,,2025-08-06,清算の結了等,,,2023-04-17,1,,,,,エスバイエス,0
154,1120903003656,登記記録の閉鎖等,0,2025-08-18,2025-07-28,ＬＩＢＲＯＣＡ　ＣＯＮＳＵＬＴ合同会社,,合同会社,大阪府,吹田市,山田西３丁目２２番９０号,,27,205,5650824,,,2025-07-28,清算の結了等,,,2021-05-27,1,,,,,リブロカコンサルト,0
162,1140001034858,登記記録の閉鎖等,0,2025-08-18,2025-08-07,ゴトウテキスタイル株式会社,,株式会社,兵庫県,明石市,川崎町２番１１－８１９号,,28,203,6730014,,,2025-08-07,清算の結了等,,,2015-10-05,1,,,,,ゴトウテキスタイル,0
170,1180001016480,登記記録の閉鎖等,0,2025-08-18,2025-07-24,株式会社木村商店,,株式会社,愛知県,名古屋市東区,筒井２丁目５番２２号－１６,,23,102,4610003,,,2025-07-24,清算の結了等,,,2015-10-05,1,,,,,キムラショウテン,0
171,1180001045892,登記記録の閉鎖等,0,2025-08-18,2025-07-25,株式会社鈴木建築事務所,,株式会社,愛知県,北名古屋市,徳重中道３６番地アートハイムＩＩ１０５,00072137,23,234,4810038,,,2025-07-25,清算の結了等,,,2015-10-05,1,,,,,スズキケンチクジムショ,0
173,1180001129480,登記記録の閉鎖等,0,2025-08-18,2025-07-22,株式会社ＨＯＮＭＡ,,株式会社,愛知県,名古屋市中川区,牛立町５丁目７１番地の３,,23,110,4540043,,,2025-07-22,清算の結了等,,,2017-09-22,1,,,,,ホンマ,0
187,1180003027146,登記記録の閉鎖等,0,2025-08-18,2025-07-24,合同会社ＷｅｂＴｅｃｈ,,合同会社,愛知県,一宮市,木曽川町玉ノ井字俣江田１９番地,,23,203,4930004,,,2025-07-24,清算の結了等,,,2024-08-02,1,,,,,ウェブテック,0
191,1180301021081,登記記録の閉鎖等,0,2025-08-18,2025-08-01,株式会社富士技研,,株式会社,愛知県,豊田市,御船町山ノ神４４番地１,,23,211,4700371,,,2025-08-01,清算の結了等,,,2015-10-05,1,,,,,フジギケン,0
192,1180301034100,登記記録の閉鎖等,0,2025-08-18,2025-08-04,株式会社ｐｒｏｓｐｅｃｔ,,株式会社,愛知県,豊橋市,松葉町１丁目２７番地１,,23,201,4400897,,,2025-08-04,清算の結了等,,,2020-09-16,1,,,,,プロスペクト,0
196,1190001020201,登記記録の閉鎖等,0,2025-08-18,2025-08-12,東海テクノ商事株式会社,,株式会社,三重県,多気郡明和町,大字竹川４５３番地９,,24,442,5150325,,,2025-08-12,清算の結了等,,,2015-10-05,1,,,,,トウカイテクノショウジ,0
208,1210002004794,登記記録の閉鎖等,0,2025-08-18,2025-08-12,株式会社システム・アドバンス・ネットワーク,,株式会社,福井県,坂井市,丸岡町新九頭竜２丁目３１番地,,18,210,9100369,,,2025-08-12,清算の結了等,,,2015-10-05,1,,,,,システムアドバンスネットワーク,0
209,1220001016971,登記記録の閉鎖等,0,2025-08-18,2025-08-14,見附ドーム株式会社,,株式会社,石川県,珠洲市,宝立町柏原９字１２番地２,,17,205,9271228,,,2025-08-14,清算の結了等,,,2015-10-05,1,,,,,ミツケドーム,0
211,1230002010221,登記記録の閉鎖等,0,2025-08-18,2025-08-14,有限会社北陸アーム・サービス,,有限会社,富山県,小矢部市,中央町８番１８号,,16,209,9320045,,,2025-08-14,清算の結了等,,,2015-10-05,1,,,,,ホクリクアームサービス,0
215,1240002044912,登記記録の閉鎖等,0,2025-08-18,2025-08-06,橋本興産有限会社,,有限会社,広島県,福山市,春日町浦上甲２２５９番地,,34,207,7210902,,,2025-08-06,清算の結了等,,,2015-10-05,1,,,,,ハシモトコウサン,0
216,1240002045646,登記記録の閉鎖等,0,2025-08-18,2025-08-08,有限会社山本アパレル,,有限会社,広島県,福山市,新市町大字宮内１７５番地の４,,34,207,7293104,,,2025-08-08,清算の結了等,,,2015-10-05,1,,,,,ヤマモトアパレル,0
217,1240003005327,登記記録の閉鎖等,0,2025-08-18,2025-08-07,合同会社ＮＣ,,合同会社,東京都,世田谷区,船橋６丁目４番５号５０３号室,,13,112,1560055,,,2025-08-07,清算の結了等,,,2021-10-18,1,,,,,エヌシー,0
220,1260001002563,登記記録の閉鎖等,0,2025-08-18,2025-08-08,小山鋼業株式会社,,株式会社,岡山県,岡山市北区,下伊福１丁目６番２０号桜第一コーポ,,33,101,7000052,,,2025-08-08,清算の結了等,,,2015-10-05,1,,,,,コヤマコウギョウ,0
235,1290002015784,登記記録の閉鎖等,0,2025-08-18,2025-07-22,有限会社十徳ホーム,,有限会社,福岡県,福岡市博多区,麦野２丁目１４番１－８０２号,,40,132,8120882,,,2025-07-22,清算の結了等,,,2015-10-05,1,,,,,ジュットクホーム,0
248,1310002000180,登記記録の閉鎖等,0,2025-08-18,2025-08-08,有限会社旭テント商事,,有限会社,長崎県,長崎市,江川町４４４番地４,,42,201,8500992,,,2025-08-08,清算の結了等,,,2015-10-05,1,,,,,アサヒテントショウジ,0
272,1390001009819,登記記録の閉鎖等,0,2025-08-18,2025-08-06,株式会社カミオサクセス,,株式会社,山形県,米沢市,大字川井１３６番地,,06,202,9920117,,,2025-08-06,清算の結了等,,,2015-10-05,1,,,,,カミオサクセス,0
284,1430001089526,登記記録の閉鎖等,0,2025-08-18,2025-07-16,株式会社Ｍグレイス,,株式会社,北海道,室蘭市,中央町２丁目８番１２号,,01,205,0510011,,,2025-07-16,清算の結了等,,,2023-07-26,1,,,,,エムグレイス,0
292,1500001013610,登記記録の閉鎖等,0,2025-08-18,2025-08-13,香川鑿泉株式会社,,株式会社,愛媛県,松山市,南堀端町４番地４号,,38,201,7900006,,,2025-08-13,清算の結了等,,,2015-10-05,1,,,,,カガワサクセン,0
294,2010001022437,登記記録の閉鎖等,0,2025-08-18,2025-07-16,株式会社ダイユー,,株式会社,東京都,千代田区,神田須田町２丁目１３番１号,,13,101,1010041,,,2025-07-16,清算の結了等,,,2015-10-05,1,,,,,ダイユー,0
335,2010602034104,登記記録の閉鎖等,0,2025-08-18,2025-07-25,有限会社アクティ,,有限会社,千葉県,佐倉市,宮前３丁目２３番地６号,,12,212,2850005,,,2025-07-25,清算の結了等,,,2015-10-05,1,,,,,アクティ,0
345,2010901052517,登記記録の閉鎖等,0,2025-08-18,2025-08-04,株式会社ＫＩＲＡ　ＫＩＲＡ,,株式会社,東京都,世田谷区,砧８丁目２９番６号,,13,112,1570073,,,2025-08-04,清算の結了等,,,2023-02-14,1,,,,,キラキラ,0
368,2012701001942,登記記録の閉鎖等,0,2025-08-18,2025-07-31,株式会社ヤマザキ,,株式会社,東京都,東村山市,久米川町５丁目３３番地２４,,13,213,1890003,,,2025-07-31,合併による解散等,8012701001945,令和７年７月３１日東京都東村山市久米川町五丁目３３番地２４山崎教育システム株式会社（8012701001945）に合併し解散,2015-10-05,1,,,,,ヤマザキ,0
369,2012702012451,登記記録の閉鎖等,0,2025-08-18,2025-07-17,有限会社テイク・アソシエ,,有限会社,東京都,千代田区,麹町２丁目１０番地３エキスパートオフィス麹町１階,00120638,13,101,1020083,,,2025-07-17,清算の結了等,,,2015-10-05,1,,,,,テイクアソシエ,0
376,2020002089821,登記記録の閉鎖等,0,2025-08-18,2025-07-31,有限会社トーイン商事,,有限会社,神奈川県,川崎市高津区,新作６丁目５番１０－５０４号,,14,134,2130014,,,2025-07-31,清算の結了等,,,2015-10-05,1,,,,,トーインショウジ,0
377,2020003022863,登記記録の閉鎖等,0,2025-08-18,2025-07-30,合同会社オフィス・コトノハ,,合同会社,神奈川県,川崎市高津区,久本３丁目４番７－４０７号,,14,134,2130011,,,2025-07-30,清算の結了等,,,2022-12-09,1,,,,,オフィスコトノハ,0
403,2040003017507,登記記録の閉鎖等,0,2025-08-18,2025-07-22,合同会社ＹｏｕＬｉｎｅ,,合同会社,千葉県,勝浦市,部原１９２８－５８ロイヤルヴァンベール勝浦ビーチ９０８,,12,218,2995223,,,2025-07-22,清算の結了等,,,2021-04-12,1,,,,,ユーリン,0
410,2070005000706,登記記録の閉鎖等,0,2025-08-18,2025-08-05,医療法人吉野医院,,その他の設立登記法人,群馬県,前橋市,三俣町２丁目１３番地の１０,,10,201,3710018,,,2025-08-05,清算の結了等,,,2015-10-05,1,,,,,ヨシノイイン,0
411,2080002011647,登記記録の閉鎖等,0,2025-08-18,2025-08-08,有限会社渡井鉄工所,,有限会社,静岡県,静岡市清水区,長崎２３６番地の３,,22,103,4240065,,,2025-08-08,清算の結了等,,,2015-10-05,1,,,,,ワタイテッコウショ,0
417,2110001009829,登記記録の閉鎖等,0,2025-08-18,2025-07-30,株式会社アイアン,,株式会社,新潟県,新潟市中央区,本町通１４番町３０６３番地１－７０４号,,15,103,9518067,,,2025-07-30,清算の結了等,,,2015-10-05,1,,,,,アイアン,0
418,2110001015389,登記記録の閉鎖等,0,2025-08-18,2025-07-30,武内木材株式会社,,株式会社,新潟県,南蒲原郡田上町,大字川船河甲９０５番地２１,,15,361,9591513,,,2025-07-30,清算の結了等,,,2015-10-05,1,,,,,タケウチモクザイ,0
419,2110001033201,登記記録の閉鎖等,0,2025-08-18,2025-07-30,株式会社クレオ,,株式会社,新潟県,上越市,加賀町４番３０号,,15,222,9420086,,,2025-07-30,清算の結了等,,,2018-04-24,1,,,,,クレオ,0
420,2120001004457,登記記録の閉鎖等,0,2025-08-18,2025-08-04,矢ヶ崎機工株式会社,,株式会社,大阪府,大阪市西成区,南津守５丁目８番２８号,,27,122,5570063,,,2025-08-04,清算の結了等,,,2015-10-05,1,,,,,ヤガサキキコウ,0
421,2120001087849,登記記録の閉鎖等,0,2025-08-18,2025-08-01,ビッグ株式会社,,株式会社,大阪府,大阪市北区,曾根崎２丁目８番５号,,27,127,5300057,,,2025-08-01,合併による解散等,3120001134419,令和７年８月１日大阪市中央区北久宝寺町一丁目９番１号優美社株式会社（3120001134419）に合併し解散,2015-10-05,1,,,,,ビッグ,0
432,2120005024154,登記記録の閉鎖等,0,2025-08-18,2025-08-15,一般社団法人ＥＶＥＲ　ＧＲＡＣＥ　ＮＩＰＰＯＮ,,その他の設立登記法人,大阪府,大阪市中央区,玉造２丁目２６番４７号,,27,128,5400004,,,2025-08-15,清算の結了等,,,2024-02-14,1,,,,,エバーグレイスニッポン,0
461,2180001074973,登記記録の閉鎖等,0,2025-08-18,2025-07-24,株式会社マツモリオート,,株式会社,愛知県,春日井市,西山町５８３番地,,23,206,4860803,,,2025-07-24,清算の結了等,,,2015-10-05,1,,,,,マツモリオート,0
481,2190001010829,登記記録の閉鎖等,0,2025-08-18,2025-08-13,五十鈴建築工業株式会社,,株式会社,三重県,多気郡明和町,大字蓑村１１３１番地,,24,442,5150315,,,2025-08-13,清算の結了等,,,2015-10-05,1,,,,,イスズケンチクコウギョウ,0
482,2190002022204,登記記録の閉鎖等,0,2025-08-18,2025-08-12,有限会社三重モデル製作所,,有限会社,三重県,四日市市,松本６丁目５番１号,,24,202,5100836,,,2025-08-12,清算の結了等,,,2015-10-05,1,,,,,ミエモデルセイサクショ,0
484,2200001009745,登記記録の閉鎖等,0,2025-08-18,2025-08-08,株式会社朝日サービス,,株式会社,岐阜県,瑞穂市,馬場上光町２丁目６０番地の２,,21,216,5010203,,,2025-08-08,清算の結了等,,,2015-10-05,1,,,,,アサヒサービス,0
486,2200001011825,登記記録の閉鎖等,0,2025-08-18,2025-08-12,株式会社渡辺,,株式会社,岐阜県,羽島市,福寿町平方７丁目３１番地,,21,209,5016257,,,2025-08-12,清算の結了等,,,2015-10-05,1,,,,,,0
487,2200001021106,登記記録の閉鎖等,0,2025-08-18,2025-08-08,ヤマ寛製陶株式会社,,株式会社,岐阜県,多治見市,滝呂町１丁目６８番地,,21,204,5070813,,,2025-08-08,清算の結了等,,,2015-10-05,1,,,,,ヤマカンセイトウ,0
490,2200002003490,登記記録の閉鎖等,0,2025-08-18,2025-08-01,有限会社ニシムラ,,有限会社,岐阜県,岐阜市,菅生２丁目６番１号,,21,201,5020914,,,2025-08-01,合併による解散等,4010001251471,令和７年８月１日岐阜県羽島郡笠松町田代９７８番地の１株式会社Ｑｕａｒｔｚ（4010001251471）に合併し解散,2015-10-05,1,,,,,ニシムラ,0
495,2240001030318,登記記録の閉鎖等,0,2025-08-18,2025-08-07,株式会社カンサイ,,株式会社,広島県,福山市,南手城町３丁目１０番１０号,,34,207,7210963,,,2025-08-07,清算の結了等,,,2015-10-05,1,,,,,カンサイ,0
496,2240001047997,登記記録の閉鎖等,0,2025-08-18,2025-08-01,株式会社テイルズケア山陰,,株式会社,広島県,広島市中区,八丁堀７－２－６Ｆ,,34,101,7300013,,,2025-08-01,合併による解散等,1240001018495,令和７年８月１日広島市中区八丁堀７－２－６Ｆ株式会社テイルズケア（1240001018495）に合併し解散,2015-10-05,1,,,,,テイルズケアサンイン,0
497,2240001052444,登記記録の閉鎖等,0,2025-08-18,2025-08-12,株式会社グリーンホーム,,株式会社,広島県,福山市,神辺町川南１３６４番地４,,34,207,7210000,,,2025-08-12,清算の結了等,,,2018-03-02,1,,,,,,0
498,2240002043244,登記記録の閉鎖等,0,2025-08-18,2025-08-08,有限会社ミッテ,,有限会社,広島県,福山市,本庄町中３丁目１３番２６号,,34,207,7200076,,,2025-08-08,清算の結了等,,,2015-10-05,1,,,,,ミッテ,0
499,2260001012413,登記記録の閉鎖等,0,2025-08-18,2025-07-22,旭給食株式会社,,株式会社,岡山県,倉敷市,玉島乙島７４００番地２,,33,202,7138103,,,2025-07-22,清算の結了等,,,2015-10-05,1,,,,,アサヒキュウショク,0
511,2290001093830,登記記録の閉鎖等,0,2025-08-18,2025-07-24,九州成長ラボ株式会社,,株式会社,福岡県,福岡市博多区,博多駅中央街８番１号ＪＲＪＰ博多ビル８階,,40,132,8120012,,,2025-07-24,清算の結了等,,,2021-07-12,1,,,,,キュウシュウセイチョウラボ,0
521,2290002032358,登記記録の閉鎖等,0,2025-08-18,2025-07-17,有限会社エムサポート,,有限会社,福岡県,朝倉郡筑前町,上高場２０７２番地１,,40,447,8380821,,,2025-07-17,清算の結了等,,,2015-10-05,1,,,,,エムサポート,0
542,2340002028326,登記記録の閉鎖等,0,2025-08-18,2025-07-31,有限会社宮原建設工業,,有限会社,鹿児島県,曽於市,末吉町諏訪方８６５３番地５,,46,217,8998604,,,2025-07-31,清算の結了等,,,2015-10-05,1,,,,,ミヤハラケンセツコウギョウ,0
574,2490001006607,登記記録の閉鎖等,0,2025-08-18,2025-08-14,ラポール株式会社,,株式会社,高知県,高知市,杉井流１６番３０号,,39,201,7800072,,,2025-08-14,清算の結了等,,,2015-10-05,1,,,,,ラポール,0
577,2500002021818,登記記録の閉鎖等,0,2025-08-18,2025-08-15,有限会社ひさご被服,,有限会社,愛媛県,四国中央市,金田町金川１０１番地の１,,38,213,7990123,,,2025-08-15,清算の結了等,,,2015-10-05,1,,,,,ヒサゴヒフク,0
583,3010003038835,登記記録の閉鎖等,0,2025-08-18,2025-07-17,ＴＡ千代田合同会社,,合同会社,東京都,中央区,日本橋１丁目４番１号日本橋一丁目ビルディング,,13,102,1030027,,,2025-07-17,清算の結了等,,,2022-10-07,1,,,,,ティーエーチヨダ,0
604,3010801005763,登記記録の閉鎖等,0,2025-08-18,2025-08-12,株式会社親和,,株式会社,東京都,大田区,蒲田５丁目４３番１０－１０１号,,13,111,1440052,,,2025-08-12,合併による解散等,6240002053132,令和７年８月１日広島県三原市木原町２５５７番地株式会社古浜鉄工所（6240002053132）に合併し解散,2015-10-05,1,,,,,シンワ,0
607,3010901049347,登記記録の閉鎖等,0,2025-08-18,2025-08-13,株式会社ＧＡＭＵＳＥ,,株式会社,東京都,世田谷区,用賀２丁目３１番６号イイダアネックスＸ１０６,,13,112,1580097,,,2025-08-13,清算の結了等,,,2021-08-31,1,,,,,ガミューズ,0
671,3040001013820,登記記録の閉鎖等,0,2025-08-18,2025-07-28,株式会社ダイコウ,,株式会社,千葉県,千葉市若葉区,大草町２８８番地の２,,12,104,2640011,,,2025-07-28,清算の結了等,,,2015-10-05,1,,,,,ダイコウ,0
686,3050001039889,登記記録の閉鎖等,0,2025-08-18,2025-08-04,株式会社あじさい,,株式会社,茨城県,水戸市,大町３丁目２番８－１５０２号レクセル水戸大町,,08,201,3100062,,,2025-08-04,清算の結了等,,,2015-10-05,1,,,,,アジサイ,0
687,3050002000692,登記記録の閉鎖等,0,2025-08-18,2025-08-01,有限会社小笠原ビル,,有限会社,茨城県,水戸市,三の丸１丁目４番７４号,,08,201,3100011,,,2025-08-01,清算の結了等,,,2015-10-05,1,,,,,オガサワラビル,0
693,3070001039739,登記記録の閉鎖等,0,2025-08-18,2025-08-08,株式会社Ｒｅ・Ｌｉｆｅ,,株式会社,群馬県,前橋市,日吉町３丁目３９－４杉本ハイツ１０１,,10,201,3710017,,,2025-08-08,合併による解散等,1500001021076,令和７年８月１日大阪府阪南市下出３７番地の５リクラス尾崎ビル２階株式会社ＭＥＤＩ‐ＦＵＬＬ（1500001021076）に合併し解散,2022-10-13,1,,,,,リライフ,0
696,3080005006057,登記記録の閉鎖等,0,2025-08-18,2025-08-08,特定非営利活動法人げんきっズクラブ,,その他の設立登記法人,静岡県,藤枝市,岡部町三輪１２３５番地の２９,,22,214,4211132,,,2025-08-08,清算の結了等,,,2015-10-05,1,,,,,ゲンキッズクラブ,0
697,3080402004480,登記記録の閉鎖等,0,2025-08-18,2025-08-06,創造科学有限会社,,有限会社,静岡県,浜松市中央区,天龍川町４３９番地１の９０４,,22,138,4350013,,,2025-08-06,清算の結了等,,,2015-10-05,1,,,,,ソウゾウカガク,0
703,3120001144574,登記記録の閉鎖等,0,2025-08-18,2025-08-01,ＵＲアクア株式会社,,株式会社,大阪府,大阪市中央区,久太郎町２丁目４番２７号,,27,128,5410056,,,2025-08-01,合併による解散等,1120001099630,令和７年８月１日大阪市中央区久太郎町二丁目４番２７号ウツミリサイクルシステムズ株式会社（1120001099630）に合併し解散,2015-10-05,1,,,,,ユーアールアクア,0
733,3140001109360,登記記録の閉鎖等,0,2025-08-18,2025-08-07,千礼株式会社,,株式会社,兵庫県,明石市,魚住町金ケ崎３７７番地の１,,28,203,6740071,,,2025-08-07,清算の結了等,,,2018-03-09,1,,,,,センレイ,0
741,3150001020888,登記記録の閉鎖等,0,2025-08-18,2025-08-13,株式会社吉野ナチュラルファーム大淀,,株式会社,奈良県,吉野郡大淀町,大字岩壺１６６番地の１,,29,442,6380851,,,2025-08-13,清算の結了等,,,2016-07-29,1,,,,,ヨシノナチュラルファームオオヨド,0
766,3200001036061,登記記録の閉鎖等,0,2025-08-18,2025-08-12,株式会社ＫＳ　ｔｅｃｈ,,株式会社,岐阜県,多治見市,脇之島町６丁目１０４番地の１４,,21,204,5070826,,,2025-08-12,清算の結了等,,,2019-04-02,1,,,,,,0
767,3200002010643,登記記録の閉鎖等,0,2025-08-18,2025-08-05,有限会社コヤス看板,,有限会社,岐阜県,羽島郡岐南町,上印食２丁目５１番地,,21,302,5016001,,,2025-08-05,清算の結了等,,,2015-10-05,1,,,,,コヤスカンバン,0
791,3290003006665,登記記録の閉鎖等,0,2025-08-18,2025-07-22,ファミーユ合同会社,,合同会社,福岡県,福岡市博多区,博多駅前３丁目７番３５号,,40,132,8120011,,,2025-07-22,合併による解散等,7290003008451,令和７年７月１日福岡市博多区博多駅前三丁目７番３５号クライズ合同会社（7290003008451）に合併し解散,2016-09-02,1,,,,,ファミーユ,0
796,3310001007290,登記記録の閉鎖等,0,2025-08-18,2025-08-08,アップルビーチ・カンパニー株式会社,,株式会社,長崎県,佐世保市,ハウステンボス町４番地３６ハウステンボスヒルズ１－１２０４,,42,202,8593243,,,2025-08-08,清算の結了等,,,2015-10-05,1,,,,,アップルビーチカンパニー,0
801,3350002000282,登記記録の閉鎖等,0,2025-08-18,2025-08-08,有限会社綾川商事,,有限会社,宮崎県,宮崎市,大字赤江字飛江田９７８番地１０,,45,201,8800912,,,2025-08-08,清算の結了等,,,2015-10-05,1,,,,,アヤカワショウジ,0
804,3360001022797,登記記録の閉鎖等,0,2025-08-18,2025-07-30,農業生産法人株式会社結の畑,,株式会社,沖縄県,島尻郡八重瀬町,字玻名城３７９番地１,,47,362,9010513,,,2025-07-30,清算の結了等,,,2017-08-21,1,,,,,ユイノハタケ,0
820,3430002018449,登記記録の閉鎖等,0,2025-08-18,2025-07-28,有限会社櫂,,有限会社,北海道,札幌市西区,八軒二条西２丁目６番１１号ハイムエイト２０３号,,01,107,0630842,,,2025-07-28,清算の結了等,,,2015-10-05,1,,,,,カイ,0
821,3430002023696,登記記録の閉鎖等,0,2025-08-18,2025-07-22,有限会社札幌ランドスケープエンジニアリング,,有限会社,北海道,札幌市手稲区,前田十条１１丁目３番２１号,,01,109,0060820,,,2025-07-22,清算の結了等,,,2015-10-05,1,,,,,サッポロランドスケープエンジニアリング,0
824,3430002060145,登記記録の閉鎖等,0,2025-08-18,2025-07-28,有限会社ミドリ工業,,有限会社,北海道,苫小牧市,住吉町１丁目３番２－２０３号,,01,213,0530046,,,2025-07-28,清算の結了等,,,2015-10-05,1,,,,,ミドリコウギョウ,0
828,3470001007093,登記記録の閉鎖等,0,2025-08-18,2025-08-07,株式会社プロス,,株式会社,香川県,高松市,太田下町２１６３番地１２,,37,201,7618073,,,2025-08-07,清算の結了等,,,2015-10-05,1,,,,,プロス,0
833,4010001151143,登記記録の閉鎖等,0,2025-08-18,2025-07-16,株式会社ＣＩＴ,,株式会社,東京都,千代田区,丸の内３丁目２番３号,,13,101,1000005,,,2025-07-16,清算の結了等,,,2015-10-05,1,,,,,シーアイティー,0
840,4010003042670,登記記録の閉鎖等,0,2025-08-18,2025-07-17,合同会社ＣＴＯ１,,合同会社,東京都,中央区,日本橋茅場町１丁目２番１２号,,13,102,1030025,,,2025-07-17,清算の結了等,,,2024-01-17,1,,,,,シーティーオーワン,0
869,4011001055656,登記記録の閉鎖等,0,2025-08-18,2025-07-15,３．１４ＣＲＥＡＴＩＶＥ株式会社,,株式会社,東京都,渋谷区,上原１丁目２５番７号,,13,113,1510064,,,2025-07-15,清算の結了等,,,2015-10-05,1,,,,,サンテンイチヨンクリエーティブ,0
879,4011101103067,登記記録の閉鎖等,0,2025-08-18,2025-07-10,株式会社ＵＣ,,株式会社,東京都,新宿区,北新宿３丁目５－１５ＰｏｎｔｄｕＧａｒｄ１０８,,13,104,1690074,,,2025-07-10,清算の結了等,,,2023-05-31,1,,,,,ユーシー,0
885,4011801006734,登記記録の閉鎖等,0,2025-08-18,2025-08-12,株式会社落合,,株式会社,東京都,足立区,千住３丁目６番地ツオード千住壱番館８０１,,13,121,1200034,,,2025-08-12,清算の結了等,,,2015-10-05,1,,,,,オチアイ,0
894,4013301039504,登記記録の閉鎖等,0,2025-08-18,2025-07-31,株式会社ＳＯＬ・コーポレーション,,株式会社,東京都,豊島区,西巣鴨１丁目１０番１５号,,13,116,1700001,,,2025-07-31,清算の結了等,,,2016-10-07,1,,,,,ソルコーポレーション,0
902,4020002031319,登記記録の閉鎖等,0,2025-08-18,2025-07-30,有限会社富士工務店,,有限会社,神奈川県,横浜市南区,六ツ川２丁目４０番地,,14,105,2320066,,,2025-07-30,清算の結了等,,,2015-10-05,1,,,,,フジコウムテン,0
905,4020003008142,登記記録の閉鎖等,0,2025-08-18,2025-08-13,合同会社ＫＳＫパソコンサポート,,合同会社,奈良県,奈良市,佐紀町２２２９番地,,29,201,6308003,,,2025-08-13,清算の結了等,,,2015-10-05,1,,,,,ケイエスケイパソコンサポート,0
914,4021002064754,登記記録の閉鎖等,0,2025-08-18,2025-08-04,有限会社渋谷商店,,有限会社,神奈川県,横須賀市,追浜町３丁目１番地,,14,201,2370064,,,2025-08-04,清算の結了等,,,2015-10-05,1,,,,,シブヤショウテン,0
934,4040002054499,登記記録の閉鎖等,0,2025-08-18,2025-07-18,エム・アイ・ジェイ有限会社,,有限会社,千葉県,松戸市,西馬橋１丁目１８－１０,,12,207,2710044,,,2025-07-18,清算の結了等,,,2015-10-05,1,,,,,エムアイジェイ,0
942,4080101015209,登記記録の閉鎖等,0,2025-08-18,2025-08-13,影山電子株式会社,,株式会社,静岡県,富士市,松岡８３５番地の３９,,22,210,4160909,,,2025-08-13,清算の結了等,,,2015-10-05,1,,,,,カゲヤマデンシ,0
943,4080102001991,登記記録の閉鎖等,0,2025-08-18,2025-08-12,有限会社清和木工業,,有限会社,静岡県,沼津市,西沢田５７番地の１,,22,203,4100007,,,2025-08-12,清算の結了等,,,2015-10-05,1,,,,,セイワモッコウギョウ,0
946,4100002015437,登記記録の閉鎖等,0,2025-08-18,2025-08-12,有限会社アイケイケイ工業,,有限会社,長野県,上田市,常磐城２２４５番地１,,20,203,3860027,,,2025-08-12,清算の結了等,,,2015-10-05,1,,,,,アイケイケイコウギョウ,0
949,4110001021880,登記記録の閉鎖等,0,2025-08-18,2025-07-22,株式会社オーミデンソー,,株式会社,新潟県,糸魚川市,大字田海１２番地３,,15,216,9490303,,,2025-07-22,清算の結了等,,,2015-10-05,1,,,,,オーミデンソー,0
951,4120001124848,登記記録の閉鎖等,0,2025-08-18,2025-08-05,株式会社ＭＳ設備企画,,株式会社,大阪府,堺市南区,新檜尾台２丁２番５－５１０号,,27,145,5900143,,,2025-08-05,清算の結了等,,,2015-10-05,1,,,,,エムエスセツビキカク,0
963,4120102013891,登記記録の閉鎖等,0,2025-08-18,2025-07-28,有限会社天美オートガス販売,,有限会社,大阪府,松原市,天美北７丁目１１番１３号,,27,217,5800031,,,2025-07-28,清算の結了等,,,2015-10-05,1,,,,,アマミオートガスハンバイ,0
974,4122001025068,登記記録の閉鎖等,0,2025-08-18,2025-07-31,株式会社ｉｍａｇｅ　ｆａｃｔｏｒｙ,,株式会社,大阪府,四條畷市,雁屋西町４番１３号,,27,229,5750045,,,2025-07-31,清算の結了等,,,2015-10-05,1,,,,,イメージファクトリー,0
1008,4180002067636,登記記録の閉鎖等,0,2025-08-18,2025-07-22,有限会社山下デザイン,,有限会社,愛知県,春日井市,石尾台１丁目２番地タウン石尾台１１１号棟９号室,,23,206,4870006,,,2025-07-22,清算の結了等,,,2015-10-05,1,,,,,ヤマシタデザイン,0
1009,4180003022516,登記記録の閉鎖等,0,2025-08-18,2025-07-23,合同会社リット,,合同会社,愛知県,名古屋市昭和区,御器所町字木市２９番,,23,107,4660061,,,2025-07-23,清算の結了等,,,2021-05-20,1,,,,,リット,0
1013,4180301020816,登記記録の閉鎖等,0,2025-08-18,2025-08-04,株式会社アイダビ,,株式会社,愛知県,豊田市,中垣内町元屋敷１９番地１５,,23,211,4442215,,,2025-08-04,清算の結了等,,,2015-10-05,1,,,,,アイダビ,0
1017,4180302015682,登記記録の閉鎖等,0,2025-08-18,2025-08-14,有限会社鳥居製綱所,,有限会社,愛知県,蒲郡市,金平町中内１１番地の１,,23,214,4430102,,,2025-08-14,清算の結了等,,,2015-10-05,1,,,,,トリイセイコウジョ,0
1028,4200003005708,登記記録の閉鎖等,0,2025-08-18,2025-08-04,合同会社柴田保険事務所,,合同会社,岐阜県,加茂郡坂祝町,黒岩１０８１番地,,21,501,5050071,,,2025-08-04,清算の結了等,,,2022-10-17,1,,,,,シバタホケンジムショ,0
1037,4260003003763,登記記録の閉鎖等,0,2025-08-18,2025-07-22,合同会社ｏｌｉ,,合同会社,岡山県,津山市,山北７９６番地１コーポ山北２Ｆ２０５号室,,33,203,7080004,,,2025-07-22,清算の結了等,,,2022-01-17,1,,,,,オリ,0
1047,4290002001930,登記記録の閉鎖等,0,2025-08-18,2025-08-05,有限会社工藤タイル工業,,有限会社,福岡県,福岡市南区,高木２丁目７番１５号,,40,134,8150004,,,2025-08-05,清算の結了等,,,2015-10-05,1,,,,,クドウタイルコウギョウ,0
1048,4290002026382,登記記録の閉鎖等,0,2025-08-18,2025-07-24,有限会社ギャルソンエフィーユエデュカシオン,,有限会社,福岡県,福岡市東区,千早１丁目２３番１０号,,40,131,8130044,,,2025-07-24,清算の結了等,,,2015-10-05,1,,,,,ギャルソンエフィーユエデュカシオン,0
1053,4290801026995,登記記録の閉鎖等,0,2025-08-18,2025-08-13,株式会社ＧＲＩＴ,,株式会社,福岡県,田川市,上本町１番４３号サンライズ恵比須２Ｆ,,40,206,8260023,,,2025-08-13,清算の結了等,,,2020-12-08,1,,,,,グリット,0
1057,4320001015119,登記記録の閉鎖等,0,2025-08-18,2025-08-01,株式会社丸山海産,,株式会社,大分県,大分市,弁天２丁目７番１５号,,44,201,8700017,,,2025-08-01,合併による解散等,5320001003700,令和７年８月１日大分市横田二丁目１０番２８号株式会社秀観（5320001003700）に合併し解散,2016-08-18,1,,,,,マルヤマカイサン,0
1063,4340002020941,登記記録の閉鎖等,0,2025-08-18,2025-08-01,有限会社鮨保,,有限会社,鹿児島県,奄美市,名瀬入舟町２番１号,,46,222,8940034,,,2025-08-01,清算の結了等,,,2015-10-05,1,,,,,スシヤス,0
1079,4370001012029,登記記録の閉鎖等,0,2025-08-18,2025-07-30,ネクストウェイ株式会社,,株式会社,宮城県,仙台市若林区,六丁の目中町２８番２０号,,04,103,9840012,,,2025-07-30,清算の結了等,,,2015-10-05,1,,,,,ネクストウェイ,0
1084,4420001004912,登記記録の閉鎖等,0,2025-08-18,2025-08-15,株式会社高坂,00087305,株式会社,秋田県,大館市,池内字中台１８３番地,,05,204,0170836,,,2025-08-15,清算の結了等,,,2015-10-05,1,,,,,,0
1102,4470002008750,登記記録の閉鎖等,0,2025-08-18,2025-08-14,有限会社石材本舗,,有限会社,香川県,高松市,木太町３３９６番地１０,,37,201,7600080,,,2025-08-14,清算の結了等,,,2015-10-05,1,,,,,,0
1104,5010001007815,登記記録の閉鎖等,0,2025-08-18,2025-07-17,明和工業株式会社,,株式会社,東京都,文京区,小石川４丁目１３番１５号,,13,105,1120002,,,2025-07-17,清算の結了等,,,2015-10-05,1,,,,,メイワコウギョウ,0
1112,5010002020998,登記記録の閉鎖等,0,2025-08-18,2025-07-16,有限会社四万十,,有限会社,東京都,中央区,新富１丁目３番７号ヨドコウビルＢ１Ｆ,,13,102,1040041,,,2025-07-16,清算の結了等,,,2015-10-05,1,,,,,シマント,0
1124,5010403026818,登記記録の閉鎖等,0,2025-08-18,2025-07-17,平野町オフィス合同会社,,合同会社,東京都,中央区,日本橋３丁目９番１号日本橋三丁目スクエア１１階,,13,102,1030027,,,2025-07-17,清算の結了等,,,2022-01-07,1,,,,,ヒラノマチオフィス,0
1139,5010901023300,登記記録の閉鎖等,0,2025-08-18,2025-08-01,Ｄｅｓｉｇｎｏｒｙ　Ｊａｐａｎ株式会社,,株式会社,東京都,港区,虎ノ門３丁目２番２号虎ノ門３０森ビル４階,,13,103,1050001,,,2025-08-01,合併による解散等,9012401015294,令和７年８月１日東京都港区虎ノ門三丁目２番２号Ｏｍｎｉｃｏｍ　Ｐｒｏｄｕｃｔｉｏｎ　Ｊａｐａｎ株式会社（9012401015294）に合併し解散,2015-10-05,1,,,,,デザイナリージャパン,0
1154,5011501029992,登記記録の閉鎖等,0,2025-08-18,2025-08-12,株式会社ＰＡＲｃ,,株式会社,東京都,荒川区,東日暮里５丁目５０番５号,,13,118,1160014,,,2025-08-12,清算の結了等,,,2023-11-16,1,,,,,パーク,0
1161,5012402006032,登記記録の閉鎖等,0,2025-08-18,2025-07-15,有限会社キョーワ薬局,,有限会社,東京都,国立市,富士見台２丁目１６番地の２,,13,215,1860003,,,2025-07-15,清算の結了等,,,2015-10-05,1,,,,,キョーワヤッキョク,0
1164,5013301043827,登記記録の閉鎖等,0,2025-08-18,2025-07-07,株式会社ビンデン,,株式会社,東京都,新宿区,若松町２５番１９号,,13,104,1620056,,,2025-07-07,清算の結了等,,,2019-05-29,1,,,,,ビンデン,0
1172,5020001161181,登記記録の閉鎖等,0,2025-08-18,2025-07-30,株式会社ＫＩＫＵＣＨＩエステート,,株式会社,神奈川県,横浜市南区,山王町１丁目８番地１,,14,105,2320013,,,2025-07-30,清算の結了等,,,2025-01-30,1,,,,,キクチエステート,0
1186,5030001023199,登記記録の閉鎖等,0,2025-08-18,2025-08-06,株式会社クリエイティブマネジメント研究所,,株式会社,東京都,杉並区,松庵３丁目１０番２号西荻サニーマンション２０１号,,13,115,1670054,,,2025-08-06,清算の結了等,,,2015-10-05,1,,,,,クリエイティブマネジメントケンキュウショ,0
1192,5030002058599,登記記録の閉鎖等,0,2025-08-18,2025-08-06,有限会社金寿し,,有限会社,埼玉県,朝霞市,三原１丁目４番３号,,11,227,3510025,,,2025-08-06,清算の結了等,,,2015-10-05,1,,,,,キンズシ,0
1197,5040001067261,登記記録の閉鎖等,0,2025-08-18,2025-07-22,株式会社山村工務店,,株式会社,千葉県,柏市,大島田１６２番地,,12,217,2770922,,,2025-07-22,清算の結了等,,,2015-10-05,1,,,,,ヤマムラコウムテン,0
1202,5040001096500,登記記録の閉鎖等,0,2025-08-18,2025-07-22,樹フードサービス株式会社,,株式会社,千葉県,松戸市,松戸１１６４番地７－１１０２号室,,12,207,2710092,,,2025-07-22,清算の結了等,,,2016-08-15,1,,,,,イツキフードサービス,0
1213,5070001042567,登記記録の閉鎖等,0,2025-08-18,2025-08-05,株式会社妙義工務店,,株式会社,群馬県,安中市,松井田町二軒在家１６８９番地１,,10,211,3790223,,,2025-08-05,清算の結了等,,,2025-01-22,1,,,,,ミョウギコウムテン,0
1215,5080002014606,登記記録の閉鎖等,0,2025-08-18,2025-08-07,有限会社伸紀測量設計事務所,,有限会社,静岡県,御前崎市,池新田５２０４番地の１,,22,223,4371612,,,2025-08-07,清算の結了等,,,2015-10-05,1,,,,,シンキソクリョウセッケイジムショ,0
1225,5110001001485,登記記録の閉鎖等,0,2025-08-18,2025-08-14,株式会社カトウ産業,,株式会社,新潟県,新潟市東区,紫竹卸新町１８０８番地３１,,15,102,9500868,,,2025-08-14,合併による解散等,5070001000822,令和７年８月１日群馬県前橋市中内町７８番地の１株式会社共進（5070001000822）に合併し解散,2015-10-05,1,,,,,カトウサンギョウ,0
1228,5110002003043,登記記録の閉鎖等,0,2025-08-18,2025-07-30,有限会社伸管工,,有限会社,新潟県,新潟市北区,島見町３２６８番地３０,,15,101,9503102,,,2025-07-30,清算の結了等,,,2015-10-05,1,,,,,シンカンコウ,0
1229,5120001002499,登記記録の閉鎖等,0,2025-08-18,2025-08-13,株式会社福井しすてむさーびす,,株式会社,兵庫県,尼崎市,潮江１丁目２０番１号３０２Ｃ,,28,202,6610976,,,2025-08-13,合併による解散等,8010001133856,令和７年７月３１日埼玉県川口市大字新堀６２９番地株式会社太陽技報堂（8010001133856）に合併し解散,2015-10-05,1,,,,,フクイシステムサービス,0
1231,5120001179552,登記記録の閉鎖等,0,2025-08-18,2025-07-29,株式会社フレンドリー,,株式会社,大阪府,大阪市西成区,松２丁目６番４０－６０２号,,27,122,5570034,,,2025-07-29,清算の結了等,,,2015-10-05,1,,,,,フレンドリー,0
1259,5130002002150,登記記録の閉鎖等,0,2025-08-18,2025-08-01,有限会社織匠神宮司,,有限会社,鹿児島県,肝属郡南大隅町,根占川北１９１２番地３,,46,491,8932501,,,2025-08-01,清算の結了等,,,2015-10-05,1,,,,,オリショウジングウジ,0
1277,5180001012336,登記記録の閉鎖等,0,2025-08-18,2025-07-24,株式会社神庄,,株式会社,愛知県,名古屋市北区,彩紅橋通２丁目１５番地,,23,103,4620818,,,2025-07-24,清算の結了等,,,2015-10-05,1,,,,,カミショウ,0
1280,5180001065053,登記記録の閉鎖等,0,2025-08-18,2025-07-25,株式会社東海硝工,,株式会社,愛知県,名古屋市中村区,宮塚町１２番地,,23,105,4530845,,,2025-07-25,清算の結了等,,,2015-10-05,1,,,,,トウカイショウコウ,0
1287,5180001124296,登記記録の閉鎖等,0,2025-08-18,2025-07-22,源商事株式会社,,株式会社,愛知県,名古屋市千種区,千種通７丁目１０１番地オオクラビル１Ｆ,,23,101,4640855,,,2025-07-22,清算の結了等,,,2016-08-01,1,,,,,ミナモトショウジ,0
1304,5190001013341,登記記録の閉鎖等,0,2025-08-18,2025-08-12,株式会社桑名三川総合開発,,株式会社,三重県,桑名市,大字今島１８１２番地,,24,205,5110801,,,2025-08-12,清算の結了等,,,2015-10-05,1,,,,,クワナサンセンソウゴウカイハツ,0
1306,5190002017977,登記記録の閉鎖等,0,2025-08-18,2025-08-12,有限会社ＫＯＢＡＹＡＳＨＩ,,有限会社,三重県,いなべ市,大安町石榑南２２３０番地,,24,214,5110266,,,2025-08-12,清算の結了等,,,2015-10-05,1,,,,,コバヤシ,0
1311,5210005001554,登記記録の閉鎖等,0,2025-08-18,2025-08-06,大山神詔会,,その他の設立登記法人,福井県,福井市,田尻町第１８号１番地,,18,201,9102225,,,2025-08-06,清算の結了等,,,2015-10-05,1,,,,,オオヤマシンショウカイ,0
1324,5240002031196,登記記録の閉鎖等,0,2025-08-18,2025-08-07,有限会社ミヤナカ,,有限会社,広島県,安芸高田市,八千代町上根９２９番地,,34,214,7310305,,,2025-08-07,清算の結了等,,,2015-10-05,1,,,,,ミヤナカ,0
1329,5260001039890,登記記録の閉鎖等,0,2025-08-18,2025-08-04,ＫＳＪ９株式会社,,株式会社,岡山県,岡山市北区,錦町１番１号岡山駅前ビル４階,,33,101,7000902,,,2025-08-04,合併による解散等,9010901005930,令和７年７月３１日東京都世田谷区北沢一丁目４５番２８号信和電設工業株式会社（9010901005930）に合併し解散,2025-02-06,1,,,,,ケイエスジェーナイン,0
1332,5260002008226,登記記録の閉鎖等,0,2025-08-18,2025-07-24,有限会社ひでかず商店,,有限会社,岡山県,岡山市北区,西辛川６６６番地,,33,101,7011213,,,2025-07-24,清算の結了等,,,2015-10-05,1,,,,,ヒデカズショウテン,0
1376,5370305000752,登記記録の閉鎖等,0,2025-08-18,2025-07-22,特定非営利活動法人障碍児と共に歩む会,,その他の設立登記法人,宮城県,石巻市,中里７丁目３番３５号,,04,202,9860815,,,2025-07-22,清算の結了等,,,2015-10-05,1,,,,,ショウガイジトトモニアユムカイ,0
1380,5410001012502,登記記録の閉鎖等,0,2025-08-18,2025-08-15,株式会社ｓｋｙｒｉｍ,,株式会社,秋田県,大館市,小館花字萩野台６－１,,05,204,0170835,,,2025-08-15,清算の結了等,,,2020-05-18,1,,,,,スカイリム,0
1406,6010001242956,登記記録の閉鎖等,0,2025-08-18,2025-07-17,株式会社ＡＩ　ＳＴＵＤＩＯ,,株式会社,東京都,中央区,銀座１丁目１２番４号Ｎ＆ＥＢＬＤ．６Ｆ,,13,102,1040061,,,2025-07-17,清算の結了等,,,2024-03-29,1,,,,,エーアイスタジオ,0
1437,6010902025377,登記記録の閉鎖等,0,2025-08-18,2025-07-31,有限会社ケイスピード,,有限会社,神奈川県,川崎市中原区,中丸子７６０番地１、２１６,,14,133,2110012,,,2025-07-31,清算の結了等,,,2015-10-05,1,,,,,ケイスピード,0
1447,6011101053442,登記記録の閉鎖等,0,2025-08-18,2025-08-01,株式会社ピー・エフ・エス,,株式会社,東京都,新宿区,新宿６丁目２９番３号,,13,104,1600022,,,2025-08-01,合併による解散等,3011102017176,令和７年８月１日東京都新宿区新宿五丁目１８番１６号新宿伊藤ビル８階株式会社北光情報システム（3011102017176）に合併し解散,2015-10-05,1,,,,,ピーエフエス,0
1458,6011602021633,登記記録の閉鎖等,0,2025-08-18,2025-07-30,有限会社ヤマコ,,有限会社,東京都,練馬区,高松３丁目１８番５号,,13,120,1790075,,,2025-07-30,清算の結了等,,,2015-10-05,1,,,,,ヤマコ,0
1466,6020001005759,登記記録の閉鎖等,0,2025-08-18,2025-07-31,横浜ビル管理株式会社,,株式会社,神奈川県,横浜市港北区,新横浜２丁目５番４号,,14,109,2220033,,,2025-07-31,清算の結了等,,,2015-10-05,1,,,,,ヨコハマビルカンリ,0
1468,6020002005394,登記記録の閉鎖等,0,2025-08-18,2025-07-31,有限会社アツミ製作所,,有限会社,神奈川県,横浜市都筑区,大熊町７９番地２,,14,118,2240042,,,2025-07-31,清算の結了等,,,2015-10-05,1,,,,,アツミセイサクショ,0
1472,6021001077755,登記記録の閉鎖等,0,2025-08-18,2025-07-09,株式会社ミル・サーブ・インターナショナル,,株式会社,神奈川県,厚木市,妻田東１丁目１６番４２号,,14,212,2430813,,,2025-07-09,清算の結了等,,,2022-12-20,1,,,,,ミルサーブインターナショナル,0
1477,6021002036909,登記記録の閉鎖等,0,2025-08-18,2025-07-30,有限会社厚木治療院,,有限会社,神奈川県,厚木市,栄町１丁目１１番２０号,,14,212,2430017,,,2025-07-30,清算の結了等,,,2015-10-05,1,,,,,アツギチリョウイン,0
1497,6040002050224,登記記録の閉鎖等,0,2025-08-18,2025-07-23,有限会社ワイエムコーポレーション,,有限会社,千葉県,流山市,大字木５１０番地,,12,220,2700162,,,2025-07-23,清算の結了等,,,2015-10-05,1,,,,,ワイエムコーポレーション,0
1500,6040002087191,登記記録の閉鎖等,0,2025-08-18,2025-07-24,有限会社宮澤新聞店,,有限会社,千葉県,香取市,北１丁目１１番地９,,12,236,2870002,,,2025-07-24,清算の結了等,,,2015-10-05,1,,,,,ミヤザワシンブンテン,0
1550,6120003027790,登記記録の閉鎖等,0,2025-08-18,2025-07-28,合同会社勝学,,合同会社,大阪府,大阪市北区,梅田１丁目２番２号大阪駅前第２ビル１２－１２,,27,127,5300001,,,2025-07-28,清算の結了等,,,2024-10-22,1,,,,,カチガク,0
1564,6122001024992,登記記録の閉鎖等,0,2025-08-18,2025-07-31,株式会社バウンス,,株式会社,大阪府,八尾市,安中町５丁目５番３号,,27,212,5810085,,,2025-07-31,清算の結了等,,,2015-10-05,1,,,,,バウンス,0
1586,6160001008104,登記記録の閉鎖等,0,2025-08-18,2025-08-12,近江株式会社,,株式会社,滋賀県,愛知郡愛荘町,愛知川１６０６番地,,25,425,5291331,,,2025-08-12,清算の結了等,,,2015-10-05,1,,,,,オウミ,0
1593,6180001117415,登記記録の閉鎖等,0,2025-08-18,2025-07-22,株式会社Ａｎｙｔｈｉｎｇ　Ｇｏｅｓ　Ｏｎｅ,,株式会社,愛知県,名古屋市中区,上前津２丁目８番１０号,,23,106,4600013,,,2025-07-22,清算の結了等,,,2015-10-05,1,,,,,エニシングゴーズワン,0
1611,6180302022768,登記記録の閉鎖等,0,2025-08-18,2025-08-04,有限会社テンダー,,有限会社,愛知県,豊田市,上郷町郷立８４番地５,,23,211,4701218,,,2025-08-04,清算の結了等,,,2015-10-05,1,,,,,テンダー,0
1616,6190002005584,登記記録の閉鎖等,0,2025-08-18,2025-08-04,有限会社五味製材所,,有限会社,三重県,北牟婁郡紀北町,船津８８３番地の８,,24,543,5193405,,,2025-08-04,清算の結了等,,,2015-10-05,1,,,,,ゴミセイザイ,0
1618,6210001019649,登記記録の閉鎖等,0,2025-08-18,2025-08-08,株式会社コネクトプレアー,,株式会社,福井県,福井市,下荒井町第１９号３２番地,,18,201,9188017,,,2025-08-08,清算の結了等,,,2024-02-29,1,,,,,コネクトプレアー,0
1619,6220001002975,登記記録の閉鎖等,0,2025-08-18,2025-08-14,サカ・テクノサイエンス株式会社,,株式会社,石川県,金沢市,北塚町西１０５番地１,,17,201,9200367,,,2025-08-14,清算の結了等,,,2015-10-05,1,,,,,サカテクノサイエンス,0
1626,6260001012475,登記記録の閉鎖等,0,2025-08-18,2025-07-22,株式会社旭メディカルフーズサプライ,,株式会社,岡山県,倉敷市,玉島乙島２９８番地の３,,33,202,7138103,,,2025-07-22,清算の結了等,,,2015-10-05,1,,,,,アサヒメディカルフーズサプライ,0
1641,6300005005784,登記記録の閉鎖等,0,2025-08-18,2025-08-12,法藏寺,,その他の設立登記法人,佐賀県,唐津市,北波多岸山１３０番地２,,41,202,8471211,,,2025-08-12,清算の結了等,,,2015-10-05,1,,,,,,0
1646,6310002016825,登記記録の閉鎖等,0,2025-08-18,2025-08-13,有限会社高木コンクリート工業所,,有限会社,長崎県,雲仙市,瑞穂町伊福甲５８番地２,,42,213,8591213,,,2025-08-13,清算の結了等,,,2015-10-05,1,,,,,タカギコンクリートコウギョウショ,0
1647,6320001012849,登記記録の閉鎖等,0,2025-08-18,2025-08-06,株式会社アイテール,,株式会社,大分県,大分市,大字八幡１９３３番地の４９,,44,201,8700100,,,2025-08-06,清算の結了等,,,2015-10-05,1,,,,,アイテール,0
1648,6330001000381,登記記録の閉鎖等,0,2025-08-18,2025-08-04,株式会社イワイホーム,,株式会社,熊本県,熊本市北区,清水東町７番５０号,,43,105,8618065,,,2025-08-04,清算の結了等,,,2015-10-05,1,,,,,イワイホーム,0
1670,6360003008288,登記記録の閉鎖等,0,2025-08-18,2025-07-31,合同会社ＹＳＯ,,合同会社,沖縄県,中頭郡北谷町,字伊平１７２番１号アイリスパレスＴ４０２,,47,326,9040102,,,2025-07-31,清算の結了等,,,2017-06-27,1,,,,,ワイエスオー,0
1696,7010003044532,登記記録の閉鎖等,0,2025-08-18,2025-07-17,合同会社ＩＲＳ５,,合同会社,東京都,千代田区,丸の内１丁目４番１号東京共同会計事務所内,,13,101,1000005,,,2025-07-17,清算の結了等,,,2024-08-09,1,,,,,アイアールエスファイブ,0
1708,7010501026271,登記記録の閉鎖等,0,2025-08-18,2025-07-17,株式会社データ・アナリシス・センター,,株式会社,東京都,千代田区,岩本町２丁目１３番６号,,13,101,1010032,,,2025-07-17,清算の結了等,,,2015-10-05,1,,,,,データアナリシスセンター,0
1725,7011101011993,登記記録の閉鎖等,0,2025-08-18,2025-07-09,株式会社大同精機製作所,,株式会社,東京都,新宿区,神楽坂６丁目８番地,,13,104,1620825,,,2025-07-09,清算の結了等,,,2015-10-05,1,,,,,ダイドウセイキセイサクショ,0
1727,7011101022289,登記記録の閉鎖等,0,2025-08-18,2025-07-04,株式会社プラドラーニングスタイル,,株式会社,東京都,新宿区,高田馬場１丁目２９番４号,,13,104,1690075,,,2025-07-04,合併による解散等,5011101022299,令和７年７月１日東京都新宿区高田馬場一丁目２９番４号株式会社リーダーズブレイン（5011101022299）に合併し解散,2015-10-05,1,,,,,プラドラーニングスタイル,0
1732,7011302015018,登記記録の閉鎖等,0,2025-08-18,2025-08-06,有限会社グッド・ボーイズ,,有限会社,東京都,杉並区,大宮２丁目１０番１６号,,13,115,1680061,,,2025-08-06,清算の結了等,,,2015-10-05,1,,,,,グッドボーイズ,0
1742,7020001020575,登記記録の閉鎖等,0,2025-08-18,2025-07-31,ジャパンリスクマネジメント横浜株式会社,,株式会社,神奈川県,横浜市緑区,十日市場町８６１番地６,,14,113,2260025,,,2025-07-31,清算の結了等,,,2015-10-05,1,,,,,ジャパンリスクマネジメントヨコハマ,0
1747,7020001099073,登記記録の閉鎖等,0,2025-08-18,2025-07-30,横浜歯科研究開発株式会社,,株式会社,神奈川県,横浜市金沢区,柳町８番地１５,,14,108,2360026,,,2025-07-30,清算の結了等,,,2015-10-05,1,,,,,,0
1769,7030005016370,登記記録の閉鎖等,0,2025-08-18,2025-08-07,一般社団法人地域公益推進機構,,その他の設立登記法人,埼玉県,和光市,本町３１番１２－４０５号ＣＩハイツ,,11,229,3510114,,,2025-08-07,清算の結了等,,,2015-10-05,1,,,,,チイキコウエキスイシンキコウ,0
1779,7040002098436,登記記録の閉鎖等,0,2025-08-18,2025-07-18,有限会社サポート,,有限会社,千葉県,野田市,山崎２１０１番地の２,,12,208,2780022,,,2025-07-18,清算の結了等,,,2015-10-05,1,,,,,サポート,0
1780,7040003010481,登記記録の閉鎖等,0,2025-08-18,2025-07-30,ＳＥＲＥＮ’Ｓ合同会社,,合同会社,千葉県,千葉市美浜区,打瀬３丁目５番地マリンフォート３－１８０１号,,12,106,2610013,,,2025-07-30,清算の結了等,,,2017-08-22,1,,,,,セレンズ,0
1786,7060002020050,登記記録の閉鎖等,0,2025-08-18,2025-08-04,有限会社ケイアンドアール,,有限会社,栃木県,鹿沼市,千渡１８４３－９,,09,205,3220002,,,2025-08-04,清算の結了等,,,2015-10-05,1,,,,,ケイアンドアール,0
1790,7080103002581,登記記録の閉鎖等,0,2025-08-18,2025-08-13,エイチジー設備企画合同会社,,合同会社,静岡県,伊豆の国市,南條８４４番地の１,,22,225,4102114,,,2025-08-13,清算の結了等,,,2022-05-06,1,,,,,エイチジーセツビキカク,0
1794,7080403004749,登記記録の閉鎖等,0,2025-08-18,2025-08-06,翔峰コーポレーション合同会社,,合同会社,静岡県,浜松市中央区,山手町３２番７－４０４号,,22,138,4328022,,,2025-08-06,清算の結了等,,,2023-03-09,1,,,,,ショウホウコーポレーション,0
1795,7080405004268,登記記録の閉鎖等,0,2025-08-18,2025-08-07,一般社団法人渋川元組,,その他の設立登記法人,静岡県,浜松市浜名区,引佐町渋川３４２４番地,,22,139,4312537,,,2025-08-07,清算の結了等,,,2015-10-05,1,,,,,シブカワモトグミ,0
1796,7100002001806,登記記録の閉鎖等,0,2025-08-18,2025-08-12,有限会社こめいち,,有限会社,長野県,長野市,大字中御所１２６番地,,20,201,3800935,,,2025-08-12,清算の結了等,,,2015-10-05,1,,,,,コメイチ,0
1797,7100002021928,登記記録の閉鎖等,0,2025-08-18,2025-08-12,有限会社矢崎松原店,,有限会社,長野県,松本市,大字松原２９番地５,,20,202,3990022,,,2025-08-12,清算の結了等,,,2015-10-05,1,,,,,ヤザキマツバラテン,0
1811,7120002018633,登記記録の閉鎖等,0,2025-08-18,2025-07-15,有限会社クリエイテイブアジャ,,有限会社,大阪府,大阪市北区,中之島３丁目５－１１－２３０３,,27,127,5300005,,,2025-07-15,清算の結了等,,,2015-10-05,1,,,,,クリエイテイブアジャ,0
1831,7122001019752,登記記録の閉鎖等,0,2025-08-18,2025-08-01,阪奈建設株式会社,,株式会社,大阪府,八尾市,南小阪合町１丁目１番１１号,,27,212,5810019,,,2025-08-01,清算の結了等,,,2015-10-05,1,,,,,ハンナケンセツ,0
1836,7140001065393,登記記録の閉鎖等,0,2025-08-18,2025-08-06,株式会社八千種営農,,株式会社,兵庫県,神崎郡福崎町,八千種４７４６番地,,28,443,6792202,,,2025-08-06,清算の結了等,,,2015-10-05,1,,,,,ヤチグサエイノウ,0
1844,7140002056846,登記記録の閉鎖等,0,2025-08-18,2025-08-07,有限会社白くまカンパニー,,有限会社,兵庫県,西宮市,高木東町３１番２０－７０９号,,28,204,6638033,,,2025-08-07,清算の結了等,,,2015-10-05,1,,,,,シロクマカンパニー,0
1849,7160003000818,登記記録の閉鎖等,0,2025-08-18,2025-08-12,合資会社魚和,,合資会社,滋賀県,守山市,守山１丁目１４番１１号,,25,207,5240022,,,2025-08-12,清算の結了等,,,2015-10-05,1,,,,,ウオワ,0
1852,7180001027695,登記記録の閉鎖等,0,2025-08-18,2025-07-25,株式会社ワシミ機工商會,,株式会社,愛知県,名古屋市西区,中小田井４丁目３２番地,,23,104,4520822,,,2025-07-25,清算の結了等,,,2015-10-05,1,,,,,ワシミキコウショウカイ,0
1855,7180001159522,登記記録の閉鎖等,0,2025-08-18,2025-07-24,ＮＵＡＣＥＬＬ　ＪＡＰＡＮ株式会社,,株式会社,愛知県,瀬戸市,鹿乗町３２３番地の２,,23,204,4890007,,,2025-07-24,清算の結了等,,,2023-12-26,1,,,,,ヌアセルジャパン,0
1862,7180302015804,登記記録の閉鎖等,0,2025-08-18,2025-08-05,有限会社フジベーカリー,,有限会社,愛知県,蒲郡市,中央本町２９番１０号,,23,214,4430057,,,2025-08-05,清算の結了等,,,2015-10-05,1,,,,,フジベーカリー,0
1878,7260002026960,登記記録の閉鎖等,0,2025-08-18,2025-07-23,有限会社住吉産興,,有限会社,岡山県,高梁市,成羽町成羽９２１番地の１,,33,209,7160121,,,2025-07-23,清算の結了等,,,2015-10-05,1,,,,,スミヨシサンコウ,0
1882,7290001018956,登記記録の閉鎖等,0,2025-08-18,2025-08-01,株式会社スリーエフコーポレーション,,株式会社,福岡県,福岡市博多区,博多駅前３丁目２５番２４号,,40,132,8120011,,,2025-08-01,合併による解散等,5290001012309,令和７年８月１日福岡市博多区中洲二丁目６番１０号株式会社かわとし（5290001012309）に合併し解散,2015-10-05,1,,,,,スリーエフコーポレーション,0
1907,7300002011272,登記記録の閉鎖等,0,2025-08-18,2025-08-13,有限会社ロックフーズ,,有限会社,佐賀県,唐津市,浜玉町横田下１１８番地１４,,41,202,8495122,,,2025-08-13,清算の結了等,,,2015-10-05,1,,,,,ロックフーズ,0
1910,7310002021007,登記記録の閉鎖等,0,2025-08-18,2025-08-06,有限会社江野建設工業,,有限会社,長崎県,長崎市,城山町２９番２５号,,42,201,8528021,,,2025-08-06,清算の結了等,,,2025-06-17,1,,,,,エノケンセツコウギョウ,0
1911,7320002018670,登記記録の閉鎖等,0,2025-08-18,2025-08-06,有限会社新唐津屋,,有限会社,大分県,豊後大野市,三重町市場１５９９番地２,,44,212,8797131,,,2025-08-06,清算の結了等,,,2015-10-05,1,,,,,シンカラツヤ,0
1923,7370005010455,登記記録の閉鎖等,0,2025-08-18,2025-07-10,特定非営利活動法人ＳＡＴＯＲＩ,,その他の設立登記法人,宮城県,仙台市太白区,ひより台３１－１,,04,104,9820811,,,2025-07-10,清算の結了等,,,2022-03-30,1,,,,,サトリ,0
1929,7390002000515,登記記録の閉鎖等,0,2025-08-18,2025-08-05,有限会社岡崎電化シヨツプ,,有限会社,山形県,山形市,上町３丁目３番７号,,06,201,9902483,,,2025-08-05,清算の結了等,,,2015-10-05,1,,,,,オカザキデンカシヨツプ,0
1930,7390002008525,登記記録の閉鎖等,0,2025-08-18,2025-08-05,有限会社南新産業,,有限会社,山形県,東田川郡庄内町,南野新田字前割６５番地,,06,428,9997732,,,2025-08-05,清算の結了等,,,2015-10-05,1,,,,,ナンシンサンギョウ,0
1931,7400002008498,登記記録の閉鎖等,0,2025-08-18,2025-06-17,有限会社丸新興業,,有限会社,岩手県,花巻市,南万丁目１４６２番地,,03,205,0250055,,,2025-06-17,清算の結了等,,,2015-10-05,1,,,,,マルシンコウギョウ,0
1933,7430001040400,登記記録の閉鎖等,0,2025-08-18,2025-07-25,株式会社襷,,株式会社,北海道,札幌市西区,二十四軒三条４丁目６番７号第三栄輪ビル２階,,01,107,0630803,,,2025-07-25,清算の結了等,,,2015-10-05,1,,,,,タスキ,0
1937,7430001075545,登記記録の閉鎖等,0,2025-08-18,2025-07-24,株式会社ＧＹプラス,,株式会社,北海道,札幌市東区,北二十二条東２０丁目５番１号,,01,103,0650022,,,2025-07-24,清算の結了等,,,2017-12-20,1,,,,,ジーワイプラス,0
1951,7500001001469,登記記録の閉鎖等,0,2025-08-18,2025-08-15,株式会社久米建設,,株式会社,愛媛県,松山市,上野町甲１５６２番地３,,38,201,7911136,,,2025-08-15,清算の結了等,,,2015-10-05,1,,,,,クメケンセツ,0
1952,7500001006294,登記記録の閉鎖等,0,2025-08-18,2025-08-12,株式会社ＭＨフーズ,,株式会社,愛媛県,伊予市,宮下７３７番地１,,38,210,7993102,,,2025-08-12,清算の結了等,,,2015-10-05,1,,,,,エムエイチフーズ,0
1970,8010005019952,登記記録の閉鎖等,0,2025-08-18,2025-08-12,一般社団法人イノラボ・インターナショナル,,その他の設立登記法人,長野県,北佐久郡軽井沢町,大字長倉７１７番地４５,,20,321,3890111,,,2025-08-12,清算の結了等,,,2015-10-05,1,,,,,イノラボインターナショナル,0
1983,8010403032697,登記記録の閉鎖等,0,2025-08-18,2025-07-22,エムスディ合同会社,,合同会社,東京都,港区,六本木１丁目４番５号アークヒルズサウスタワー３０３,,13,103,1060032,,,2025-07-22,清算の結了等,,,2024-05-28,1,,,,,エムスディ,0
2006,8011001097471,登記記録の閉鎖等,0,2025-08-18,2025-07-15,株式会社ミナミジムショ,,株式会社,東京都,渋谷区,神宮前６丁目２３－４－２Ｆ,,13,113,1500001,,,2025-07-15,清算の結了等,,,2015-10-05,1,,,,,ミナミジムショ,0
2015,8011102027732,登記記録の閉鎖等,0,2025-08-18,2025-07-10,プリメイラ・インテル有限会社,,有限会社,東京都,新宿区,四谷坂町６番２９号,,13,104,1600002,,,2025-07-10,清算の結了等,,,2015-10-05,1,,,,,プリメイラインテル,0
2020,8011801001590,登記記録の閉鎖等,0,2025-08-18,2025-08-12,小林包材株式会社,,株式会社,東京都,葛飾区,新小岩３丁目１８番８号,,13,122,1240024,,,2025-08-12,清算の結了等,,,2015-10-05,1,,,,,コバヤシホウザイ,0
2021,8011801013157,登記記録の閉鎖等,0,2025-08-18,2025-08-12,株式会社リブ・ウイズ,,株式会社,東京都,足立区,古千谷本町３丁目５番７号,,13,121,1210832,,,2025-08-12,清算の結了等,,,2015-10-05,1,,,,,リブウイズ,0
2029,8013102003507,登記記録の閉鎖等,0,2025-08-18,2025-08-14,有限会社東進運輸,,有限会社,東京都,あきる野市,草花３４９２番地１４９,,13,228,1970802,,,2025-08-14,清算の結了等,,,2015-10-05,1,,,,,トウシンウンユ,0
2031,8013302002011,登記記録の閉鎖等,0,2025-08-18,2025-07-29,有限会社梶原タイル,,有限会社,東京都,豊島区,上池袋２丁目４１番１号,,13,116,1700012,,,2025-07-29,清算の結了等,,,2015-10-05,1,,,,,,0
2033,8020001043526,登記記録の閉鎖等,0,2025-08-18,2025-08-04,ｅ‐ＭＡＲＫ株式会社,,株式会社,神奈川県,藤沢市,南藤沢１８番１号,,14,205,2510055,,,2025-08-04,清算の結了等,,,2015-10-05,1,,,,,イーマーク,0
2034,8020001102190,登記記録の閉鎖等,0,2025-08-18,2025-08-14,沢渡不動産株式会社,,株式会社,東京都,大田区,矢口２丁目３１番１１号ＢＡＣＥ矢口１０１,,13,111,1460093,,,2025-08-14,合併による解散等,4020001045740,令和７年７月３１日横浜市神奈川区沢渡一丁目２番地ファストハウス株式会社（4020001045740）に合併し解散,2015-10-05,1,,,,,サワタリフドウサン,0
2044,8021001065832,登記記録の閉鎖等,0,2025-08-18,2025-08-04,Ｔ＆Ｎ株式会社,,株式会社,神奈川県,秦野市,南矢名４丁目７番２８号,,14,211,2570003,,,2025-08-04,清算の結了等,,,2018-10-16,1,,,,,ティーアンドエヌ,0
2061,8040001088032,登記記録の閉鎖等,0,2025-08-18,2025-08-01,株式会社片岡工業,,株式会社,千葉県,いすみ市,岬町中滝９５５番地１２,,12,238,2994623,,,2025-08-01,清算の結了等,,,2015-10-05,1,,,,,カタオカコウギョウ,0
2068,8040002038317,登記記録の閉鎖等,0,2025-08-18,2025-07-28,有限会社ハウス消毒,,有限会社,千葉県,鎌ケ谷市,東道野辺５丁目１０番３１号,,12,224,2730115,,,2025-07-28,清算の結了等,,,2015-10-05,1,,,,,ハウスショウドク,0
2071,8040003005308,登記記録の閉鎖等,0,2025-08-18,2025-07-24,パソクリエイト合同会社,,合同会社,千葉県,船橋市,本町２丁目４番７号箕輪館１号,,12,204,2730005,,,2025-07-24,清算の結了等,,,2015-10-05,1,,,,,パソクリエイト,0
2080,8060002024364,登記記録の閉鎖等,0,2025-08-18,2025-08-01,有限会社大和商会,,有限会社,栃木県,那須塩原市,南郷屋５丁目１６３番地３００,,09,213,3292705,,,2025-08-01,清算の結了等,,,2015-10-05,1,,,,,ヤマトショウカイ,0
2083,8080001022986,登記記録の閉鎖等,0,2025-08-18,2025-08-08,株式会社ＰＴ,,株式会社,静岡県,静岡市葵区,常磐町２丁目４番地の１メゾンヴィクトリア３０２号,,22,101,4200034,,,2025-08-08,清算の結了等,,,2019-07-11,1,,,,,ピーティー,0
2091,8110005009712,登記記録の閉鎖等,0,2025-08-18,2025-07-24,農事組合法人アグリ五反田,,その他の設立登記法人,新潟県,上越市,中郷区片貝３５９番地,,15,222,9492312,,,2025-07-24,清算の結了等,,,2015-10-05,1,,,,,アグリゴタンダ,0
2105,8120102019423,登記記録の閉鎖等,0,2025-08-18,2025-08-01,有限会社ファーマツリー,,有限会社,大阪府,大東市,明美の里町１番７１号,,27,218,5740003,,,2025-08-01,合併による解散等,9122001015015,令和７年８月１日大阪府大東市明美の里町１番７１号株式会社アカカベ（9122001015015）に合併し解散,2015-10-05,1,,,,,ファーマツリー,0
2137,8180001108908,登記記録の閉鎖等,0,2025-08-18,2025-07-22,株式会社エフ・ジー,,株式会社,愛知県,名古屋市中区,上前津２丁目８番１０号,,23,106,4600013,,,2025-07-22,清算の結了等,,,2015-10-05,1,,,,,エフジー,0
2160,8240001031566,登記記録の閉鎖等,0,2025-08-18,2025-08-07,西尾包装株式会社,,株式会社,広島県,福山市,東手城町３丁目２０番８号,,34,207,7210962,,,2025-08-07,清算の結了等,,,2015-10-05,1,,,,,ニシオホウソウ,0
2161,8240001054773,登記記録の閉鎖等,0,2025-08-18,2025-08-01,株式会社テイルズケア東広島,,株式会社,広島県,広島市中区,八丁堀７－２－６Ｆ,,34,101,7300013,,,2025-08-01,合併による解散等,1240001018495,令和７年８月１日広島市中区八丁堀７－２－６Ｆ株式会社テイルズケア（1240001018495）に合併し解散,2019-08-05,1,,,,,テイルズケアヒガシヒロシマ,0
2174,8290002014912,登記記録の閉鎖等,0,2025-08-18,2025-07-22,有限会社菊地商事,,有限会社,福岡県,福岡市中央区,清川２丁目３番１６－６０８号,,40,133,8100005,,,2025-07-22,清算の結了等,,,2015-10-05,1,,,,,キクチショウジ,0
2175,8290002032880,登記記録の閉鎖等,0,2025-08-18,2025-07-22,有限会社ひとみ堂,,有限会社,福岡県,糸島市,前原中央２丁目７番５号,,40,230,8191116,,,2025-07-22,清算の結了等,,,2015-10-05,1,,,,,ヒトミドウ,0
2194,8360005005224,登記記録の閉鎖等,0,2025-08-18,2025-07-31,沖縄県空室対策事業協同組合,,その他の設立登記法人,沖縄県,那覇市,小禄５丁目１３番１号,,47,201,9010152,,,2025-07-31,清算の結了等,,,2015-11-06,1,,,,,オキナワケンアキシツタイサク,0
2207,8420001017984,登記記録の閉鎖等,0,2025-08-18,2025-08-01,株式会社栄研フードサービス,,株式会社,青森県,弘前市,大字藤野１丁目４番地１,,02,202,0368326,,,2025-08-01,清算の結了等,,,2022-08-30,1,,,,,エイケンフードサービス,0
2225,9010001147830,登記記録の閉鎖等,0,2025-08-18,2025-07-16,株式会社ジェイエスティソリューションズ,,株式会社,東京都,中央区,日本橋茅場町２丁目５－５ＳＫ茅場町ビル８階,,13,102,1030025,,,2025-07-16,清算の結了等,,,2015-10-05,1,,,,,ジェイエスティソリューションズ,0
2255,9010701017052,登記記録の閉鎖等,0,2025-08-18,2025-08-07,株式会社アクエス,,株式会社,東京都,品川区,西五反田７丁目１７番５号,,13,109,1410031,,,2025-08-07,清算の結了等,,,2015-10-05,1,,,,,アクエス,0
2262,9010903004385,登記記録の閉鎖等,0,2025-08-18,2025-08-13,合同会社神威,,合同会社,東京都,世田谷区,上馬１丁目５－１０－８０１,,13,112,1540011,,,2025-08-13,清算の結了等,,,2018-06-26,1,,,,,カムイ,0
2301,9020001150486,登記記録の閉鎖等,0,2025-08-18,2025-07-31,株式会社トラスリーブ,,株式会社,神奈川県,横浜市旭区,中希望が丘１０５番地１８太陽ビル３Ｆ,,14,112,2410825,,,2025-07-31,清算の結了等,,,2023-03-07,1,,,,,トラスリーブ,0
2334,9040003012550,登記記録の閉鎖等,0,2025-08-18,2025-07-29,合同会社アイズ＆アセンション,,合同会社,千葉県,市原市,東国吉９０４番地２,,12,219,2900163,,,2025-07-29,清算の結了等,,,2018-12-04,1,,,,,アイズアンドアセンション,0
2387,9140001078740,登記記録の閉鎖等,0,2025-08-18,2025-08-06,西脇ガス株式会社,,株式会社,兵庫県,伊丹市,中央５丁目５番１０号,,28,207,6640851,,,2025-08-06,合併による解散等,5140001077993,令和７年６月１日兵庫県伊丹市中央五丁目５番１０号伊丹産業株式会社（5140001077993）に合併し解散,2015-10-05,1,,,,,ニシワキガス,0
2417,9180302020884,登記記録の閉鎖等,0,2025-08-18,2025-08-14,株式会社ケイ・アイズコーポレーション,,株式会社,愛知県,安城市,高棚町郷６５番地,,23,212,4460053,,,2025-08-14,清算の結了等,,,2015-10-05,1,,,,,ケイアイズコーポレーション,0
2447,9310005007975,登記記録の閉鎖等,0,2025-08-18,2025-08-08,ながさき福祉事業協同組合,,その他の設立登記法人,長崎県,長崎市,本原町１番２７号井手口ビル２０２号,,42,201,8528133,,,2025-08-08,清算の結了等,,,2016-06-27,1,,,,,ナガサキフクシ,0
2464,9360003008087,登記記録の閉鎖等,0,2025-08-18,2025-07-31,アンダーズインベストメント合同会社,,合同会社,沖縄県,中頭郡北谷町,美浜２丁目５番地４ライオンズヴィラ美浜９０５,,47,326,9040115,,,2025-07-31,清算の結了等,,,2017-03-14,1,,,,,,0
2481,9500001003042,登記記録の閉鎖等,0,2025-08-18,2025-08-15,南洋深井藥品株式会社,,株式会社,愛媛県,松山市,土居町７６１番地２,,38,201,7911115,,,2025-08-15,清算の結了等,,,2015-10-05,1,,,,,ナンヨウフカイヤクヒン,0
