sequenceNumber,corporateNumber,process,correct,updateDate,changeDate,name,nameImageId,kind,prefectureName,cityName,streetNumber,addressImageId,prefectureCode,cityCode,postCode,addressOutside,addressOutsideImageId,closeDate,closeCause,successorCorporateNumber,changeCause,assignmentDate,latest,enName,enPrefectureName,enCityName,enAddressOutside,furigana,hihyoji
3,1010001225296,新規,0,2022-03-22,2022-03-22,Ｓａｎｔｅ株式会社,,株式会社,東京都,中央区,築地６丁目４番７号,,13,102,1040045,,,,,,,2022-03-22,1,,,,,サンテ,0
5,1010003037260,新規,0,2022-03-22,2022-03-22,合同会社リンク＆サポート,,合同会社,東京都,中央区,日本橋兜町５番１号,,13,102,1030026,,,,,,,2022-03-22,1,,,,,リンクアンドサポート,0
6,1010003037293,新規,0,2022-03-22,2022-03-22,合同会社マグノリア,,合同会社,東京都,千代田区,丸の内３丁目１番１号東京共同会計事務所内,,13,101,1000005,,,,,,,2022-03-22,1,,,,,マグノリア,0
7,1010105002154,新規,0,2022-03-22,2022-03-22,一般社団法人ＣＨＵＯ　ＳＯＣＣＥＲ　ＧＲＯＵＰ,,その他の設立登記法人,東京都,八王子市,別所１丁目６４番地９,,13,201,1920363,,,,,,,2022-03-22,1,,,,,チュウオウサッカーグループ,0
14,1010401166264,新規,0,2022-03-22,2022-03-22,キーストーンアジア株式会社,,株式会社,東京都,港区,西新橋１丁目２番９号日比谷セントラルビル１４Ｆ,,13,103,1050003,,,,,,,2022-03-22,1,,,,,キーストーンアジア,0
15,1010401166289,新規,0,2022-03-22,2022-03-22,株式会社Ｌｉｇｈｔ,,株式会社,東京都,港区,海岸２丁目２番６号ＤＳ海岸ビル１００４,,13,103,1050022,,,,,,,2022-03-22,1,,,,,ライト,0
21,1010403027308,新規,0,2022-03-22,2022-03-22,合同会社Ｍｕｓｉｃ　Ｆｉｔｓ　Ｊａｐａｎ,,合同会社,東京都,港区,南青山２丁目２番１５号ＷＩＮ青山５３１,,13,103,1070062,,,,,,,2022-03-22,1,,,,,ミュージックフィッツジャパン,0
22,1010405020822,新規,0,2022-03-22,2022-03-22,一般社団法人日本文化創造研究所,,その他の設立登記法人,東京都,港区,西麻布３丁目１３番３－６０２号,,13,103,1060031,,,,,,,2022-03-22,1,,,,,ニホンブンカソウゾウケンキュウジョ,0
26,1010503006533,新規,0,2022-03-22,2022-03-22,合同会社ｖｉｖｉ,,合同会社,東京都,台東区,台東３丁目１番４号ブレシア新御徒町６０４,,13,106,1100016,,,,,,,2022-03-22,1,,,,,ヴィヴィ,0
27,1010601060861,新規,0,2022-03-22,2022-03-22,ヘルスブリッジ株式会社,,株式会社,東京都,墨田区,千歳３丁目１６番２－５０２号,,13,107,1300025,,,,,,,2022-03-22,1,,,,,ヘルスブリッジ,0
32,1010901050546,新規,0,2022-03-22,2022-03-22,株式会社若井商会,,株式会社,東京都,世田谷区,池尻４丁目１１番１－５０４号,,13,112,1540001,,,,,,,2022-03-22,1,,,,,ワカイショウカイ,0
39,1011003014381,新規,0,2022-03-22,2022-03-22,ＺＥＲＯ‐ＯＮＥ　Ｃｏｍｍｕｎｉｃａｔｉｏｎｓ合同会社,,合同会社,東京都,渋谷区,神宮前６丁目２３番４号桑野ビル２階,,13,113,1500001,,,,,,,2022-03-22,1,,,,,ゼロワンコミュニケーションズ,0
41,1011101098236,新規,0,2022-03-22,2022-03-22,株式会社クワトロ・エンタテインメント,,株式会社,東京都,新宿区,新宿５丁目１８番２０号ルックハイツ新宿８０３号,,13,104,1600022,,,,,,,2022-03-22,1,,,,,クワトロエンタテインメント,0
42,1011303004355,新規,0,2022-03-22,2022-03-22,ことばし合同会社,,合同会社,東京都,杉並区,高井戸西１丁目２７－５,,13,115,1680071,,,,,,,2022-03-22,1,,,,,コトバシ,0
43,1011403003604,新規,0,2022-03-22,2022-03-22,合同会社ヤマサ不動産,,合同会社,東京都,板橋区,加賀１丁目２１番１号プラウドシティ加賀学園通り１５１２,,13,119,1730003,,,,,,,2022-03-22,1,,,,,ヤマサフドウサン,0
44,1011501027851,新規,0,2022-03-22,2022-03-22,株式会社ｓｅａ　ｃｈｅｓｔｎｕｔ,,株式会社,東京都,荒川区,東尾久２丁目２番９号三祥ビル２５０,,13,118,1160012,,,,,,,2022-03-22,1,,,,,シーチェスナット,0
45,1011501027868,新規,0,2022-03-22,2022-03-22,吉慰商事株式会社,,株式会社,東京都,荒川区,東日暮里１丁目１５番６号,,13,118,1160014,,,,,,,2022-03-22,1,,,,,ヨシイショウジ,0
57,1020001145733,新規,0,2022-03-22,2022-03-22,株式会社ｍａｖｓｈｉｎｅ,,株式会社,神奈川県,横浜市鶴見区,馬場３丁目１７番５－４号,,14,101,2300076,,,,,,,2022-03-22,1,,,,,マブシャイン,0
58,1020005015420,新規,0,2022-03-22,2022-03-22,コスモ富岡ベイステート管理組合法人,,その他の設立登記法人,神奈川県,横浜市金沢区,富岡東４丁目３番５７号,,14,108,2360051,,,,,,,2022-03-22,1,,,,,コスモトミオカベイステート,0
60,1021001075474,新規,0,2022-03-22,2022-03-22,株式会社ｓｈｉｇｕｓａ,,株式会社,神奈川県,相模原市南区,相模台１丁目２２番１６号メゾンドノア２０１,,14,153,2520321,,,,,,,2022-03-22,1,,,,,シグサ,0
65,1021003011485,新規,0,2022-03-22,2022-03-22,ＨＧ合同会社,,合同会社,神奈川県,相模原市緑区,橋本３丁目５番５号Ｋコート２０６,,14,151,2520143,,,,,,,2022-03-22,1,,,,,エイチジー,0
66,1021003011510,新規,0,2022-03-22,2022-03-22,合同会社ＳＨＯＫＩ,,合同会社,神奈川県,厚木市,上荻野関谷６８０－２,,14,212,2430201,,,,,,,2022-03-22,1,,,,,ショーキ,0
75,1030001147241,新規,0,2022-03-22,2022-03-22,株式会社ＡＬＬＪＯＩＮＴ,,株式会社,埼玉県,吉川市,中央１丁目１６番地１３,,11,243,3420061,,,,,,,2022-03-22,1,,,,,オールジョイント,0
76,1030001147365,新規,0,2022-03-22,2022-03-22,株式会社ネクストライン,,株式会社,埼玉県,越谷市,北越谷５丁目５番２５号,,11,222,3430026,,,,,,,2022-03-22,1,,,,,ネクストライン,0
81,1030005020758,新規,0,2022-03-22,2022-03-22,一般社団法人国際高齢者支援協会,,その他の設立登記法人,埼玉県,秩父市,野坂町２丁目２番地２号,,11,207,3680033,,,,,,,2022-03-22,1,,,,,コクサイコウレイシャシエンキョウカイ,0
90,1040001122664,新規,0,2022-03-22,2022-03-22,株式会社ＬＥＡＤ,,株式会社,千葉県,白井市,西白井２丁目１２番地３０,,12,232,2701408,,,,,,,2022-03-22,1,,,,,リード,0
92,1040003019652,新規,0,2022-03-22,2022-03-22,合同会社東海堂,,合同会社,千葉県,市原市,白金町１丁目２２－２－２０１室,,12,219,2900059,,,,,,,2022-03-22,1,,,,,トウカイドウ,0
97,1060003003984,新規,0,2022-03-22,2022-03-22,フルリール合同会社,,合同会社,栃木県,栃木市,大皆川町６６４番地,,09,203,3280068,,,,,,,2022-03-22,1,,,,,フルリール,0
98,1060003003992,新規,0,2022-03-22,2022-03-22,合同会社ＡＶＡ,,合同会社,栃木県,栃木市,大平町西野田６５２番地３０,,09,203,3294421,,,,,,,2022-03-22,1,,,,,アバ,0
100,1070001039071,新規,0,2022-03-22,2022-03-22,株式会社春楽,,株式会社,群馬県,太田市,亀岡町５６４番地１アルテハイツ尾島Ｂ１０３,,10,205,3700411,,,,,,,2022-03-22,1,,,,,シュンラク,0
101,1080001024816,新規,0,2022-03-22,2022-03-22,株式会社Ｌａｂｙ,,株式会社,静岡県,静岡市葵区,伝馬町９番地の４,,22,101,4200858,,,,,,,2022-03-22,1,,,,,レイヴィ,0
102,1080101023164,新規,0,2022-03-22,2022-03-22,ＩＮＦＩＮＩＴＹｅｖｏｌｕｔｉｏｎ株式会社,,株式会社,静岡県,沼津市,岡一色１００番地の２,,22,203,4100012,,,,,,,2022-03-22,1,,,,,インフィニティエボリューション,0
111,1100001035174,新規,0,2022-03-22,2022-03-22,株式会社塗輝匠,,株式会社,長野県,長野市,松岡１丁目２０番４９号,,20,201,3810026,,,,,,,2022-03-22,1,,,,,トキショウ,0
112,1110001036519,新規,0,2022-03-22,2022-03-22,株式会社Ａｌｉｖｅ,,株式会社,新潟県,長岡市,要町１丁目９番３２号,,15,202,9401153,,,,,,,2022-03-22,1,,,,,アライブ,0
123,1120005022852,新規,0,2022-03-22,2022-03-22,特定非営利活動法人Ｙ．ＵｐＳｔｅｐ,,その他の設立登記法人,大阪府,大阪市北区,同心２丁目３番１９－７０１号,,27,127,5300035,,,,,,,2022-03-22,1,,,,,ワイアップステップ,0
131,1122001035689,新規,0,2022-03-22,2022-03-22,株式会社幸樹,,株式会社,大阪府,東大阪市,瓜生堂２丁目１番３５号,,27,227,5780946,,,,,,,2022-03-22,1,,,,,ユキ,0
137,1130001071365,新規,0,2022-03-22,2022-03-22,株式会社七十二候,,株式会社,京都府,京都市中京区,河原町通御池下る下丸屋町３９０番地２,,26,104,6048006,,,,,,,2022-03-22,1,,,,,シチジュウニコウ,0
140,1140001125319,新規,0,2022-03-22,2022-03-22,株式会社Ｓａｋｕｒａ　Ｍｏｂｉｌｅｓ,,株式会社,兵庫県,神戸市兵庫区,水木通１丁目１番２号福田ビル３ＦＣ南,,28,105,6520802,,,,,,,2022-03-22,1,,,,,サクラモバイルズ,0
141,1140001125335,新規,0,2022-03-22,2022-03-22,エフコンテンツ株式会社,,株式会社,兵庫県,明石市,魚住町清水２３２８－１プルミエール明石ウエスト６１０号室,,28,203,6740074,,,,,,,2022-03-22,1,,,,,エフコンテンツ,0
143,1140003017472,新規,0,2022-03-22,2022-03-22,合同会社ルピナス,,合同会社,兵庫県,伊丹市,南鈴原３丁目１７７,,28,207,6640883,,,,,,,2022-03-22,1,,,,,ルピナス,0
144,1140003017480,新規,0,2022-03-22,2022-03-22,合同会社そらドットコム,,合同会社,兵庫県,姫路市,東延末３丁目５６番地ホテルクラウンヒルズ姫路２階テナント,,28,201,6700965,,,,,,,2022-03-22,1,,,,,ソラドットコム,0
147,1180001150453,新規,0,2022-03-22,2022-03-22,ＭＳ株式会社,,株式会社,愛知県,名古屋市中区,大須３丁目１番８号,,23,106,4600011,,,,,,,2022-03-22,1,,,,,エムエス,0
149,1180003023632,新規,0,2022-03-22,2022-03-22,合同会社フェアリー,,合同会社,愛知県,春日井市,角崎町８４－４－３０５,,23,206,4860943,,,,,,,2022-03-22,1,,,,,フェアリー,0
152,1190001029242,新規,0,2022-03-22,2022-03-22,株式会社ツツミウチ電設,,株式会社,三重県,四日市市,三ツ谷町１６番２５号ピアース三ツ谷町Ｂ棟１０８,,24,202,5100802,,,,,,,2022-03-22,1,,,,,ツツミウチデンセツ,0
154,1210005010014,新規,0,2022-03-22,2022-03-22,一般社団法人ラシーヌ,,その他の設立登記法人,福井県,福井市,春山１丁目７－８春山清水ビル２階,,18,201,9100019,,,,,,,2022-03-22,1,,,,,ラシーヌ,0
161,1220005008643,新規,0,2022-03-22,2022-03-22,一般社団法人能登スマート・ドライブ・プロジェクト協議会,,その他の設立登記法人,石川県,金沢市,鞍月１丁目１番地,,17,201,9208203,,,,,,,2022-03-22,1,,,,,ノトスマートドライブプロジェクトキョウギカイ,0
163,1230005009211,新規,0,2022-03-22,2022-03-22,特定非営利活動法人よってカフェ,,その他の設立登記法人,富山県,南砺市,飛騨屋２３番地,,16,210,9320204,,,,,,,2022-03-22,1,,,,,,0
170,1260001036660,新規,0,2022-03-22,2022-03-22,株式会社ワン・エイト,,株式会社,岡山県,倉敷市,新田２４２７番地１２,,33,202,7100038,,,,,,,2022-03-22,1,,,,,ワンエイト,0
179,1290801028342,新規,0,2022-03-22,2022-03-22,株式会社久保商店,,株式会社,福岡県,北九州市八幡西区,春日台１丁目２番８号,,40,109,8070844,,,,,,,2022-03-22,1,,,,,クボショウテン,0
180,1290801028350,新規,0,2022-03-22,2022-03-22,株式会社富士美装,,株式会社,福岡県,北九州市若松区,花野路２丁目８－３,,40,103,8080136,,,,,,,2022-03-22,1,,,,,フジビソウ,0
183,1290803004085,新規,0,2022-03-22,2022-03-22,合同会社ほでてんごう,,合同会社,福岡県,北九州市小倉北区,紺屋町８番１２号,,40,106,8020081,,,,,,,2022-03-22,1,,,,,ホデテンゴウ,0
190,1350003004045,新規,0,2022-03-22,2022-03-22,合同会社ＳＥＮＣＥ,,合同会社,宮崎県,都城市,上長飯町５２０６番地２,,45,202,8850042,,,,,,,2022-03-22,1,,,,,センス,0
191,1360001030158,新規,0,2022-03-22,2022-03-22,株式会社夢水産,,株式会社,沖縄県,宜野湾市,嘉数３丁目２０番６号,,47,205,9012226,,,,,,,2022-03-22,1,,,,,ユメスイサン,0
192,1360003011882,新規,0,2022-03-22,2022-03-22,合同会社ＯＣＰカンパニー,,合同会社,沖縄県,浦添市,内間４丁目５番３７号１Ｆ,,47,208,9012121,,,,,,,2022-03-22,1,,,,,オーシーピーカンパニー,0
198,1430001086226,新規,0,2022-03-22,2022-03-22,株式会社志和グループここわ,,株式会社,北海道,札幌市西区,平和二条９丁目１番１５号,,01,107,0630022,,,,,,,2022-03-22,1,,,,,シンワグループココワ,0
206,2010003037292,新規,0,2022-03-22,2022-03-22,合同会社アベリア,,合同会社,東京都,千代田区,丸の内３丁目１番１号東京共同会計事務所内,,13,101,1000005,,,,,,,2022-03-22,1,,,,,アベリア,0
208,2010005034750,新規,0,2022-03-22,2022-03-22,一般社団法人日本ＮＦＴ文化協会,,その他の設立登記法人,東京都,千代田区,麹町４丁目５番地２１紀尾井町ＰＲＥＸ１０階,,13,101,1020083,,,,,,,2022-03-22,1,,,,,ニホンエヌエフティブンカキョウカイ,0
213,2010401166288,新規,0,2022-03-22,2022-03-22,株式会社アマランス,,株式会社,東京都,港区,愛宕２丁目３番１－２１０１号,,13,103,1050002,,,,,,,2022-03-22,1,,,,,アマランス,0
219,2010603009451,新規,0,2022-03-22,2022-03-22,合同会社ＴＥＬＡ,,合同会社,東京都,江東区,有明１丁目４番１１－１２３４号,,13,108,1350063,,,,,,,2022-03-22,1,,,,,テラ,0
222,2010701042296,新規,0,2022-03-22,2022-03-22,株式会社ＰＡＣ,,株式会社,東京都,品川区,東五反田１丁目２－２６－３０１,,13,109,1410022,,,,,,,2022-03-22,1,,,,,ピーエーシー,0
223,2010701042404,新規,0,2022-03-22,2022-03-22,株式会社Ｔ’ｓ,,株式会社,東京都,品川区,東五反田１丁目１６－２－二階,,13,109,1410022,,,,,,,2022-03-22,1,,,,,ティーズ,0
233,2011001146358,新規,0,2022-03-22,2022-03-22,株式会社ＢＯＲＵＴＯ,,株式会社,東京都,渋谷区,渋谷２丁目２番４号３０３,,13,113,1500002,,,,,,,2022-03-22,1,,,,,ボルト,0
234,2011003014372,新規,0,2022-03-22,2022-03-22,ａｓｕｍｕｋｉ合同会社,,合同会社,東京都,渋谷区,神宮前６丁目２３番４号桑野ビル２Ｆ,,13,113,1500001,,,,,,,2022-03-22,1,,,,,アスムキ,0
241,2011501027850,新規,0,2022-03-22,2022-03-22,株式会社ニコニナ,,株式会社,東京都,北区,赤羽北２丁目８番１－１２０３号アクトピア北赤羽五番館,,13,117,1150052,,,,,,,2022-03-22,1,,,,,ニコニナ,0
242,2011503005111,新規,0,2022-03-22,2022-03-22,合同会社ＡＤＡＭＡＳ,,合同会社,東京都,荒川区,東尾久３丁目６番３号,,13,118,1160012,,,,,,,2022-03-22,1,,,,,アダマス,0
249,2013101008867,新規,0,2022-03-22,2022-03-22,株式会社ＯＮＥ,,株式会社,東京都,福生市,大字福生２１１９番地,,13,218,1970011,,,,,,,2022-03-22,1,,,,,ワン,0
258,2020001145724,新規,0,2022-03-22,2022-03-22,三洋水産株式会社,,株式会社,神奈川県,横浜市中区,山下町１２番地２－６０３号,,14,104,2310023,,,,,,,2022-03-22,1,,,,,,0
266,2021003011484,新規,0,2022-03-22,2022-03-22,かながわゼロ円ソーラー合同会社,,合同会社,神奈川県,小田原市,扇町１丁目３０番１３号,,14,206,2500001,,,,,,,2022-03-22,1,,,,,カナガワゼロエンソーラー,0
267,2021003011501,新規,0,2022-03-22,2022-03-22,合同会社生研,,合同会社,神奈川県,鎌倉市,笛田４丁目２７－２０,,14,204,2480027,,,,,,,2022-03-22,1,,,,,ナマケン,0
268,2030001147364,新規,0,2022-03-22,2022-03-22,株式会社ラービガータ,,株式会社,埼玉県,行田市,長野１丁目１１番２１号,,11,206,3610023,,,,,,,2022-03-22,1,,,,,ラービガータ,0
271,2030003019058,新規,0,2022-03-22,2022-03-22,合同会社勝恵舎,,合同会社,埼玉県,上尾市,大字平方４８０番地２,,11,219,3620059,,,,,,,2022-03-22,1,,,,,ショウケイシャ,0
272,2030005020765,新規,0,2022-03-22,2022-03-22,一般社団法人シーピーシー,,その他の設立登記法人,埼玉県,富士見市,羽沢２丁目５番４５号,,11,235,3540033,,,,,,,2022-03-22,1,,,,,シーピーシー,0
277,2040001122647,新規,0,2022-03-22,2022-03-22,株式会社バーベキュー,,株式会社,千葉県,館山市,正木字干潟１１５５番１,,12,205,2940051,,,,,,,2022-03-22,1,,,,,バーベキュー,0
278,2040001122663,新規,0,2022-03-22,2022-03-22,株式会社ＢＲＩＧＨＴＥＳＴ,,株式会社,千葉県,松戸市,松戸１３０７番地の１松戸ビル１３階,,12,207,2710092,,,,,,,2022-03-22,1,,,,,ブライテスト,0
279,2040001122671,新規,0,2022-03-22,2022-03-22,株式会社Ａｅｒｉａｌ,,株式会社,千葉県,浦安市,北栄３丁目７番８－１０３号,,12,227,2790002,,,,,,,2022-03-22,1,,,,,エリアル,0
280,2040001122696,新規,0,2022-03-22,2022-03-22,株式会社大元商建,,株式会社,千葉県,船橋市,本郷町６４９－１ＪＬＢグランエクリュ西船橋３０２号室,,12,204,2730033,,,,,,,2022-03-22,1,,,,,ダイゲンショウケン,0
284,2050001050814,新規,0,2022-03-22,2022-03-22,マル金サポート株式会社,,株式会社,茨城県,筑西市,中上野１７０４番地１７,,08,227,3004524,,,,,,,2022-03-22,1,,,,,マルキンサポート,0
285,2060001034675,新規,0,2022-03-22,2022-03-22,株式会社中山工務店,,株式会社,栃木県,栃木市,仲方町１４０番地,,09,203,3280132,,,,,,,2022-03-22,1,,,,,ナカヤマコウムテン,0
286,2060003003991,新規,0,2022-03-22,2022-03-22,合同会社クラウディアインターネットサービス,,合同会社,栃木県,佐野市,赤坂町９６４番地１５アヴァンセＣ１０１,,09,204,3270004,,,,,,,2022-03-22,1,,,,,クラウディアインターネットサービス,0
289,2070001039062,新規,0,2022-03-22,2022-03-22,株式会社しんこう電設,,株式会社,群馬県,みどり市,笠懸町久宮４９７番地１１,,10,212,3792312,,,,,,,2022-03-22,1,,,,,シンコウデンセツ,0
290,2070001039070,新規,0,2022-03-22,2022-03-22,株式会社あゆかわ,,株式会社,群馬県,藤岡市,上栗須６９番地２,,10,209,3750016,,,,,,,2022-03-22,1,,,,,アユカワ,0
312,2120001244581,新規,0,2022-03-22,2022-03-22,株式会社ａｍａｎａリレーションシップ,,株式会社,大阪府,大阪市北区,鶴野町４番１１号,,27,127,5300014,,,,,,,2022-03-22,1,,,,,アマナリレーションシップ,0
315,2120003021319,新規,0,2022-03-22,2022-03-22,合同会社ＤＶＯＲＡ　ＪＡＰＡＮ,,合同会社,大阪府,大阪市西区,江之子島１丁目７番３号,,27,106,5500006,,,,,,,2022-03-22,1,,,,,デゥボラジャパン,0
320,2130001071372,新規,0,2022-03-22,2022-03-22,株式会社一果,,株式会社,京都府,八幡市,岩田高木８０番地,,26,210,6148268,,,,,,,2022-03-22,1,,,,,イチカ,0
323,2130003007820,新規,0,2022-03-22,2022-03-22,合同会社京あんつ,,合同会社,京都府,京都市伏見区,石田森南町４６番地４２,,26,109,6011434,,,,,,,2022-03-22,1,,,,,キョウアンツ,0
328,2140003017455,新規,0,2022-03-22,2022-03-22,合同会社神戸市西区流通施設開発,,合同会社,兵庫県,三木市,志染町広野１丁目３８番地,,28,215,6730541,,,,,,,2022-03-22,1,,,,,コウベシニシクリュウツウシセツカイハツ,0
329,2140003017471,新規,0,2022-03-22,2022-03-22,合同会社斗五,,合同会社,兵庫県,西宮市,柏堂西町３番５号,,28,204,6620098,,,,,,,2022-03-22,1,,,,,トウゴ,0
332,2150003002646,新規,0,2022-03-22,2022-03-22,合同会社大黒プランニング,,合同会社,奈良県,生駒市,小瀬町７４９番地１ドムール南生駒１０８,,29,209,6300223,,,,,,,2022-03-22,1,,,,,ダイコクプランニング,0
333,2180001036726,新規,0,2022-03-22,2022-03-22,シンコー管理サービス株式会社,,株式会社,愛知県,名古屋市中区,新栄２丁目４番３号,,23,106,4600007,,,,,,,2022-03-22,1,,,,,シンコーカンリサービス,0
335,2180001150469,新規,0,2022-03-22,2022-03-22,株式会社ＴＳＲ,,株式会社,愛知県,名古屋市瑞穂区,中根町２丁目１３番地薬師ハイツ１０７号,,23,108,4670055,,,,,,,2022-03-22,1,,,,,ティーエスアール,0
336,2180301036038,新規,0,2022-03-22,2022-03-22,株式会社ｅ．Ｋ,,株式会社,愛知県,岡崎市,明大寺町字仲ケ入３８番地１ミッドシティガーデン東岡崎９０１,,23,202,4440866,,,,,,,2022-03-22,1,,,,,イードットケイ,0
337,2190001029233,新規,0,2022-03-22,2022-03-22,株式会社Ｓ,,株式会社,三重県,松阪市,泉町１３０２番地５,,24,204,5150066,,,,,,,2022-03-22,1,,,,,エス,0
339,2200001039874,新規,0,2022-03-22,2022-03-22,堀部造園株式会社,,株式会社,岐阜県,加茂郡富加町,羽生９１９番地１,,21,502,5013303,,,,,,,2022-03-22,1,,,,,ホリベゾウエン,0
342,2200003005503,新規,0,2022-03-22,2022-03-22,ビハプロ合同会社,,合同会社,岐阜県,恵那市,長島町中野３２８番地１６,,21,210,5097205,,,,,,,2022-03-22,1,,,,,ビハプロ,0
343,2220001024750,新規,0,2022-03-22,2022-03-22,株式会社畳のやまや,,株式会社,石川県,加賀市,山代温泉山背台２丁目１１番地１,,17,206,9220245,,,,,,,2022-03-22,1,,,,,タタミノヤマヤ,0
351,2260003003848,新規,0,2022-03-22,2022-03-22,あけみ合同会社,,合同会社,岡山県,備前市,東片上９２７－１,,33,211,7050022,,,,,,,2022-03-22,1,,,,,アケミ,0
358,2290001096874,新規,0,2022-03-22,2022-03-22,株式会社またたびや,,株式会社,福岡県,朝倉郡筑前町,原地蔵１８９７番地１,,40,447,8380824,,,,,,,2022-03-22,1,,,,,マタタビヤ,0
362,2290801028341,新規,0,2022-03-22,2022-03-22,株式会社ｍｉ’Ｌ,,株式会社,福岡県,北九州市戸畑区,東大谷１丁目２－３０,,40,105,8040031,,,,,,,2022-03-22,1,,,,,ミール,0
363,2290801028366,新規,0,2022-03-22,2022-03-22,株式会社ナカマグローバル,,株式会社,福岡県,北九州市若松区,大字払川３９番地３,,40,103,8080113,,,,,,,2022-03-22,1,,,,,ナカマグローバル,0
371,2330001029557,新規,0,2022-03-22,2022-03-22,株式会社ＲＯＭＡＮＴＩＣ,,株式会社,熊本県,菊池郡大津町,美咲野１丁目１３番４号,,43,403,8691237,,,,,,,2022-03-22,1,,,,,ロマンティック,0
381,2360001030157,新規,0,2022-03-22,2022-03-22,株式会社住まいドクタースマイル,,株式会社,沖縄県,島尻郡南風原町,字喜屋武２６１番地１,,47,350,9011113,,,,,,,2022-03-22,1,,,,,スマイドクタースマイル,0
386,2390005008948,新規,0,2022-03-22,2022-03-22,一般社団法人長井市スポーツ協会,,その他の設立登記法人,山形県,長井市,九野本１２３５番地の１,,06,209,9930041,,,,,,,2022-03-22,1,,,,,ナガイシスポーツキョウカイ,0
398,2470001019008,新規,0,2022-03-22,2022-03-22,池田漁協株式会社,,株式会社,香川県,小豆郡小豆島町,池田２２８番地３２,,37,324,7614301,,,,,,,2022-03-22,1,,,,,イケダギョキョウ,0
409,3010001225278,新規,0,2022-03-22,2022-03-22,株式会社鳳凰マネジメント,,株式会社,東京都,千代田区,六番町１５番地２,,13,101,1020085,,,,,,,2022-03-22,1,,,,,ホウオウマネジメント,0
415,3010003037267,新規,0,2022-03-22,2022-03-22,合同会社エフォートレス,,合同会社,東京都,文京区,千石３丁目３１番１３－５０４号,,13,105,1120011,,,,,,,2022-03-22,1,,,,,エフォートレス,0
418,3010401166196,新規,0,2022-03-22,2022-03-22,Ｍｅｔａｓｃａｌｅ　Ｊａｐａｎ株式会社,,株式会社,東京都,港区,六本木７丁目１２－２Ｒ７ビルディングＳＰＡＣＥＳ六本木,,13,103,1060032,,,,,,,2022-03-22,1,,,,,メタスケールジャパン,0
419,3010401166262,新規,0,2022-03-22,2022-03-22,株式会社ＰＵＭＰ　ＵＰ,,株式会社,東京都,港区,赤坂２丁目１６番６号,,13,103,1070052,,,,,,,2022-03-22,1,,,,,パンプアップ,0
420,3010401166270,新規,0,2022-03-22,2022-03-22,美ＪＯＩＮＴ株式会社,,株式会社,東京都,港区,六本木３丁目９番１１号メインステージ六本木１００４号室,,13,103,1060032,,,,,,,2022-03-22,1,,,,,ビジョイント,0
421,3010401166295,新規,0,2022-03-22,2022-03-22,株式会社ＲＩＺＥ,,株式会社,東京都,港区,東麻布２丁目２２番５号ＡｚａｂｕＥａｓｔＣｏｕｒｔ１Ｆ,,13,103,1060044,,,,,,,2022-03-22,1,,,,,ライズ,0
424,3010501048609,新規,0,2022-03-22,2022-03-22,ＮＥＳ　ＪＡＰＡＮ株式会社,,株式会社,東京都,台東区,鳥越１丁目２８番５号－１Ｆ,,13,106,1110054,,,,,,,2022-03-22,1,,,,,エヌイーエスジャパン,0
426,3010705003335,新規,0,2022-03-22,2022-03-22,一般社団法人３Ｄプリンタ自助具デザイン協会,,その他の設立登記法人,東京都,品川区,平塚１丁目１３番１０号クレストフォルム戸越６０５,,13,109,1420051,,,,,,,2022-03-22,1,,,,,スリーディプリンタジジョグデザインキョウカイ,0
436,3011001146357,新規,0,2022-03-22,2022-03-22,株式会社Ｌｉｂ＆Ｃａｌ,,株式会社,東京都,目黒区,自由が丘１丁目７番１３号クレオビル４０１,,13,110,1520035,,,,,,,2022-03-22,1,,,,,リブカル,0
437,3011001146407,新規,0,2022-03-22,2022-03-22,株式会社アークス,,株式会社,東京都,渋谷区,道玄坂１丁目１０番８号渋谷道玄坂東急ビル２Ｆ－Ｃ,,13,113,1500043,,,,,,,2022-03-22,1,,,,,アークス,0
442,3011101098218,新規,0,2022-03-22,2022-03-22,ｓｔｕｄｉｏ　ＸｘＸ株式会社,,株式会社,東京都,新宿区,新宿２丁目８番３号１０階,,13,104,1600022,,,,,,,2022-03-22,1,,,,,スタジオエックス,0
443,3011302017389,新規,0,2022-03-22,2022-03-22,有限会社東菊,,有限会社,東京都,杉並区,上荻１丁目４番１０号,,13,115,1670043,,,,,,,2022-03-22,1,,,,,アズマギク,0
446,3011401024105,新規,0,2022-03-22,2022-03-22,株式会社吉嶌工業,,株式会社,東京都,板橋区,板橋１丁目４１番１２号セントヒルズ３０１,,13,119,1730004,,,,,,,2022-03-22,1,,,,,ヨシジマコウギョウ,0
447,3011403003602,新規,0,2022-03-22,2022-03-22,ＨＲＳソラ合同会社,,合同会社,東京都,板橋区,前野町３丁目３７番地１コスモ東京ガーデンパークス７２２号,,13,119,1740063,,,,,,,2022-03-22,1,,,,,エイチアールエスソラ,0
448,3011605002435,新規,0,2022-03-22,2022-03-22,特定非営利活動法人日本空き家対策協創協会,,その他の設立登記法人,東京都,練馬区,豊玉上２丁目２７番１６号第２新建ビル２０３号,,13,120,1760011,,,,,,,2022-03-22,1,,,,,ニホンアキヤタイサクキョウソウキョウカイ,0
451,3011803005017,新規,0,2022-03-22,2022-03-22,合同会社マイアミ不動産,,合同会社,東京都,葛飾区,立石３丁目２６番１６－３０７号アーデル立石ワンズプレイス,,13,122,1240012,,,,,,,2022-03-22,1,,,,,マイアミフドウサン,0
456,3012403005290,新規,0,2022-03-22,2022-03-22,合同会社ＡＲＫ,,合同会社,東京都,調布市,西つつじケ丘４丁目１７番地２０,,13,208,1820006,,,,,,,2022-03-22,1,,,,,エーアールケー,0
458,3012701016989,新規,0,2022-03-22,2022-03-22,株式会社Ｆｕｓｉｏｎｃａｔ,,株式会社,東京都,東久留米市,本町４丁目１７－３,,13,222,2030053,,,,,,,2022-03-22,1,,,,,フュージョンキャット,0
462,3013102008205,新規,0,2022-03-22,2022-03-22,有限会社尾俣材木店,,有限会社,東京都,青梅市,青梅４９１番地,,13,205,1980045,,,,,,,2022-03-22,1,,,,,,0
463,3013301048836,新規,0,2022-03-22,2022-03-22,株式会社ＹＳコンサル,,株式会社,東京都,豊島区,池袋１丁目１６番１７号,,13,116,1700014,,,,,,,2022-03-22,1,,,,,ワイエスコンサル,0
464,3013301048844,新規,0,2022-03-22,2022-03-22,株式会社クレスト,,株式会社,東京都,豊島区,千早２丁目１７番１１－１０２号,,13,116,1710044,,,,,,,2022-03-22,1,,,,,クレスト,0
472,3030001147280,新規,0,2022-03-22,2022-03-22,株式会社ＧＬＯＢＡＬ　ＩＮＮＯＶＡＴＩＯＮ,,株式会社,埼玉県,上尾市,谷津２丁目１番５０－１４号コーヨービル４Ｆ,,11,219,3620042,,,,,,,2022-03-22,1,,,,,グローバルイノベーション,0
473,3030001147339,新規,0,2022-03-22,2022-03-22,株式会社アムワ,,株式会社,埼玉県,志木市,幸町１丁目４－１６第二アビタシオン浅倉２００１,,11,228,3530005,,,,,,,2022-03-22,1,,,,,アムワ,0
474,3030001147355,新規,0,2022-03-22,2022-03-22,株式会社アスカワン,,株式会社,埼玉県,さいたま市見沼区,東大宮１丁目３１－１鈴屋ビル１０２室,,11,104,3370051,,,,,,,2022-03-22,1,,,,,アスカワン,0
475,3030001147363,新規,0,2022-03-22,2022-03-22,株式会社アーバンライフリアルエステート熱海,,株式会社,埼玉県,川越市,菅原町１７番地１アーバンライフビルヂング３Ｆ,,11,201,3500046,,,,,,,2022-03-22,1,,,,,アーバンライフリアルエステートアタミ,0
476,3030003018934,新規,0,2022-03-22,2022-03-22,合同会社八百興,,合同会社,埼玉県,和光市,白子１丁目８番３ー２０２号ルクール,,11,229,3510101,,,,,,,2022-03-22,1,,,,,ヤオコウ,0
477,3030003019065,新規,0,2022-03-22,2022-03-22,ＡＳＡＰ合同会社,,合同会社,埼玉県,春日部市,大場８０６－９,,11,214,3440021,,,,,,,2022-03-22,1,,,,,エイサップ,0
478,3030003019073,新規,0,2022-03-22,2022-03-22,光輝商事合同会社,,合同会社,埼玉県,川口市,西川口１丁目３０番２０号,,11,203,3320021,,,,,,,2022-03-22,1,,,,,コウキショウジ,0
479,3030005020764,新規,0,2022-03-22,2022-03-22,青梅開発特定目的会社,,その他の設立登記法人,埼玉県,川越市,的場新町１４番地２,,11,201,3501107,,,,,,,2022-03-22,1,,,,,オウメカイハツ,0
483,3040001122638,新規,0,2022-03-22,2022-03-22,ＭＡＩＳＯＮ　ｄｅ　ＳＰＩＲＩＴ２６株式会社,,株式会社,千葉県,市川市,鬼高３丁目３２番２１－１５０１号（オアセス市川）,,12,203,2720015,,,,,,,2022-03-22,1,,,,,メゾンドスピリットトゥーシックス,0
486,3040003019700,新規,0,2022-03-22,2022-03-22,合同会社ｇｅｎｔｌｅ　ｇｒｅｅｎ,,合同会社,千葉県,柏市,手賀の杜５丁目６番地６,,12,217,2701447,,,,,,,2022-03-22,1,,,,,ジェントルグリーン,0
490,3060003003990,新規,0,2022-03-22,2022-03-22,合同会社ＰＡＴＨＵＭ　ＩＮＴＥＲＮＡＴＩＯＮＡＬ,,合同会社,栃木県,栃木市,岩舟町新里１３０４番地４,,09,203,3294316,,,,,,,2022-03-22,1,,,,,パトウンインターナショナル,0
494,3070001039061,新規,0,2022-03-22,2022-03-22,株式会社プロスペクト,,株式会社,群馬県,渋川市,渋川１６９６番地２,,10,208,3770008,,,,,,,2022-03-22,1,,,,,プロスペクト,0
496,3080101023170,新規,0,2022-03-22,2022-03-22,株式会社ＴＣＳ・ブーン,,株式会社,静岡県,三島市,竹倉１１１番地の６,,22,206,4110807,,,,,,,2022-03-22,1,,,,,ティーシーエスブーン,0
499,3090001017486,新規,0,2022-03-22,2022-03-22,株式会社田口工業,,株式会社,山梨県,中央市,成島１１９４番地２,,19,214,4093815,,,,,,,2022-03-22,1,,,,,タグチコウギョウ,0
501,3110001036517,新規,0,2022-03-22,2022-03-22,株式会社シーワークス,,株式会社,新潟県,新潟市北区,下大谷内３７８番地５５,,15,101,9503308,,,,,,,2022-03-22,1,,,,,シーワークス,0
521,3120001244498,新規,0,2022-03-22,2022-03-22,株式会社ＡＫプランニング,,株式会社,大阪府,大阪市住吉区,住吉２丁目１７番４号,,27,120,5580045,,,,,,,2022-03-22,1,,,,,エーケープランニング,0
522,3120001244531,新規,0,2022-03-22,2022-03-22,株式会社アメ村社員食堂,,株式会社,大阪府,大阪市中央区,西心斎橋２丁目３番１４号,,27,128,5420086,,,,,,,2022-03-22,1,,,,,アメムラシャインショクドウ,0
523,3120001244556,新規,0,2022-03-22,2022-03-22,株式会社ミライズ,,株式会社,大阪府,大阪市天王寺区,北河堀町７番２－２０４号,,27,109,5430053,,,,,,,2022-03-22,1,,,,,ミライズ,0
527,3120003021318,新規,0,2022-03-22,2022-03-22,華屋合同会社,,合同会社,大阪府,大阪市住之江区,粉浜３丁目８－２,,27,125,5590001,,,,,,,2022-03-22,1,,,,,ハナヤ,0
530,3122003002297,新規,0,2022-03-22,2022-03-22,合同会社心,,合同会社,大阪府,東大阪市,松原１丁目６番３号,,27,227,5780922,,,,,,,2022-03-22,1,,,,,ココロ,0
532,3130003007811,新規,0,2022-03-22,2022-03-22,合同会社ワイヤレスワールド,,合同会社,京都府,京都市中京区,御池通高倉西入ル高宮町２１９番地サニーフォレストビル４階,,26,104,6040000,,,,,,,2022-03-22,1,,,,,ワイヤレスワールド,0
535,3140001125317,新規,0,2022-03-22,2022-03-22,株式会社サナミチ,,株式会社,兵庫県,豊岡市,小島１番地の１１,,28,209,6696123,,,,,,,2022-03-22,1,,,,,サナミチ,0
536,3140001125333,新規,0,2022-03-22,2022-03-22,笹倉建築株式会社,,株式会社,兵庫県,明石市,大久保町大窪２１２６番地の６,,28,203,6740051,,,,,,,2022-03-22,1,,,,,ササクラケンチク,0
540,3180001010580,新規,0,2022-03-22,2022-03-22,中部国土計画株式会社,,株式会社,愛知県,名古屋市瑞穂区,田辺通１丁目１７番地,,23,108,4670027,,,,,,,2022-03-22,1,,,,,チュウブコクドケイカク,0
544,3180001150443,新規,0,2022-03-22,2022-03-22,株式会社Ｉ・Ｂｌｏｏｄ,,株式会社,愛知県,豊明市,前後町宮前１４９３番地４,,23,229,4701151,,,,,,,2022-03-22,1,,,,,アイブラッド,0
545,3180001150476,新規,0,2022-03-22,2022-03-22,ＩＭＡＩ塗防工業株式会社,,株式会社,愛知県,一宮市,木曽川町門間字郷前７１番地６,,23,203,4930002,,,,,,,2022-03-22,1,,,,,イマイトボウコウギョウ,0
546,3180001150484,新規,0,2022-03-22,2022-03-22,株式会社Ｕｔｉｌｉｔｙ,,株式会社,愛知県,名古屋市中村区,名駅１丁目１番１号ＪＰタワー名古屋２１階,,23,105,4500002,,,,,,,2022-03-22,1,,,,,ユーティリティー,0
548,3180005019684,新規,0,2022-03-22,2022-03-22,一般社団法人ｃｌｉｍｂ,,その他の設立登記法人,愛知県,名古屋市北区,如意４丁目１５０,,23,103,4620007,,,,,,,2022-03-22,1,,,,,クライム,0
554,3200003005493,新規,0,2022-03-22,2022-03-22,合同会社ＢｉｏｔｏｐｅＯｎｅ,,合同会社,岐阜県,大垣市,割田１丁目３３０－２－２０２号室,,21,202,5030953,,,,,,,2022-03-22,1,,,,,ビオトープワン,0
555,3210001018851,新規,0,2022-03-22,2022-03-22,株式会社メディアマネジメント,,株式会社,福井県,越前市,塚町２番５,,18,209,9150092,,,,,,,2022-03-22,1,,,,,メディアマネジメント,0
557,3220003003248,新規,0,2022-03-22,2022-03-22,合同会社ＴＡＫＥＹＡＭＡ,,合同会社,石川県,小松市,符津町イ１４８番地４,,17,203,9230302,,,,,,,2022-03-22,1,,,,,タケヤマ,0
559,3230001019278,新規,0,2022-03-22,2022-03-22,株式会社石井設備,,株式会社,富山県,富山市,石屋２９６番地２,,16,201,9398121,,,,,,,2022-03-22,1,,,,,イシイセツビ,0
563,3240001059488,新規,0,2022-03-22,2022-03-22,株式会社ＫａＮａＤｅ,,株式会社,広島県,広島市安佐南区,大町東３丁目１３番１６－２０４号,,34,105,7310124,,,,,,,2022-03-22,1,,,,,カナデ,0
565,3260001036659,新規,0,2022-03-22,2022-03-22,株式会社ＴＯＭＩＴＡ,,株式会社,岡山県,岡山市中区,国富２丁目２１番３０号,,33,102,7038236,,,,,,,2022-03-22,1,,,,,トミタ,0
574,3290001096808,新規,0,2022-03-22,2022-03-22,株式会社モトヨシ,,株式会社,福岡県,飯塚市,大分３６０番地２,,40,205,8200712,,,,,,,2022-03-22,1,,,,,モトヨシ,0
577,3290801028357,新規,0,2022-03-22,2022-03-22,アリス株式会社,,株式会社,福岡県,北九州市小倉北区,菜園場２丁目１番９号,,40,106,8030823,,,,,,,2022-03-22,1,,,,,アリス,0
578,3290801028365,新規,0,2022-03-22,2022-03-22,Ｉ・Ｗ・Ｍ開発株式会社,,株式会社,福岡県,北九州市小倉南区,湯川５丁目３番８号,,40,107,8000257,,,,,,,2022-03-22,1,,,,,アイダブルエムカイハツ,0
581,3290803004083,新規,0,2022-03-22,2022-03-22,合同会社ａｎｄ,,合同会社,福岡県,北九州市小倉南区,若園２丁目１９番５号,,40,107,8020816,,,,,,,2022-03-22,1,,,,,アンド,0
582,3310005008599,新規,0,2022-03-22,2022-03-22,一般社団法人長崎民芸協会,,その他の設立登記法人,長崎県,長崎市,新地町３番１７号,,42,201,8500842,,,,,,,2022-03-22,1,,,,,ナガサキミンゲイキョウカイ,0
586,3330001029556,新規,0,2022-03-22,2022-03-22,株式会社Ｏｃｅａｎ　Ｈｅａｒｔ,,株式会社,熊本県,熊本市東区,若葉４丁目１５番８号,,43,102,8612103,,,,,,,2022-03-22,1,,,,,オーシャンハート,0
588,3330003009300,新規,0,2022-03-22,2022-03-22,ゆうら合同会社,,合同会社,熊本県,熊本市北区,改寄町２３６０番地１・１階,,43,105,8615501,,,,,,,2022-03-22,1,,,,,ユウラ,0
597,3370001048338,新規,0,2022-03-22,2022-03-22,株式会社Ａ．Ｒ．Ｄ,,株式会社,宮城県,仙台市泉区,泉中央１丁目３４番地の６,,04,105,9813133,,,,,,,2022-03-22,1,,,,,エーアールディー,0
608,3420003002477,新規,0,2022-03-22,2022-03-22,ＥＥＬＹ　ＦＡＣＴＯＲＹ合同会社,,合同会社,青森県,三戸郡五戸町,字鍜冶屋窪４番地２,,02,442,0391511,,,,,,,2022-03-22,1,,,,,イーライファクトリー,0
611,3430001086232,新規,0,2022-03-22,2022-03-22,イースターブレイン株式会社,,株式会社,北海道,札幌市中央区,南一条西９丁目１番地１５,,01,101,0600061,,,,,,,2022-03-22,1,,,,,イースターブレイン,0
613,3480005006891,新規,0,2022-03-22,2022-03-22,一般社団法人とくしま伝統産業振興協会,,その他の設立登記法人,徳島県,徳島市,元町１丁目２４番地,,36,201,7700834,,,,,,,2022-03-22,1,,,,,トクシマデントウサンギョウシンコウキョウカイ,0
616,3500005008472,新規,0,2022-03-22,2022-03-22,弁護士法人桑森法律事務所,,その他の設立登記法人,愛媛県,今治市,常盤町４丁目４番地７,,38,202,7940015,,,,,,,2022-03-22,1,,,,,クワモリホウリツジムショ,0
617,3700150106993,新規,0,2022-03-22,2022-02-08,ＴｉｎＰａｎＦａｃｔｏｒｙ,,その他,埼玉県,新座市,大和田２丁目３番７号ブリエ・デュンヌ２０１号,,11,230,3520004,,,,,,,2022-02-08,1,,,,,テインパンフアクトリー,0
618,3700150107389,新規,0,2022-03-22,2022-03-14,幌加内町税経対策協議会,,その他,北海道,雨竜郡幌加内町,字幌加内,,01,472,0740411,,,,,,,2022-03-14,1,,,,,ホロカナイチヨウゼイケイタイサクキヨウギカイ,0
620,4010005034757,新規,0,2022-03-22,2022-03-22,一般社団法人ジャングル,,その他の設立登記法人,東京都,千代田区,丸の内３丁目１番１号東京共同会計事務所内,,13,101,1000005,,,,,,,2022-03-22,1,,,,,ジャングル,0
625,4010401166311,新規,0,2022-03-22,2022-03-22,華海国際株式会社,,株式会社,東京都,港区,六本木６丁目８番１５号,,13,103,1060032,,,,,,,2022-03-22,1,,,,,カカイコクサイ,0
627,4010501048608,新規,0,2022-03-22,2022-03-22,株式会社Ｂｌｕｅｆｅｅｄ　Ｊａｐａｎ,,株式会社,東京都,台東区,竜泉２丁目１３番３号坂上ビル３０２,,13,106,1100012,,,,,,,2022-03-22,1,,,,,ブルーフィードジャパン,0
634,4010801032815,新規,0,2022-03-22,2022-03-22,株式会社天六部屋,,株式会社,東京都,大田区,南馬込６丁目２９番９号,,13,111,1430025,,,,,,,2022-03-22,1,,,,,テンロクベヤ,0
639,4010903007244,新規,0,2022-03-22,2022-03-22,Ｂｅ　Ｐｉｎｅａｐｐｌｅ合同会社,,合同会社,東京都,世田谷区,代沢４丁目２７番８号,,13,112,1550032,,,,,,,2022-03-22,1,,,,,ビーパイナップル,0
646,4011001146430,新規,0,2022-03-22,2022-03-22,天恵株式会社,,株式会社,東京都,渋谷区,恵比寿１丁目４番１号恵比寿アーバンハウス４０６,,13,113,1500013,,,,,,,2022-03-22,1,,,,,テンエ,0
649,4011101098217,新規,0,2022-03-22,2022-03-22,Ｆ・ＴＥＣ株式会社,,株式会社,東京都,新宿区,岩戸町１４番地,,13,104,1620832,,,,,,,2022-03-22,1,,,,,,0
650,4011101098241,新規,0,2022-03-22,2022-03-22,株式会社Ｋａｚｅｎｏｊｉｄａｉ,,株式会社,東京都,新宿区,西新宿７丁目４番７号イマス浜田ビル５階,,13,104,1600023,,,,,,,2022-03-22,1,,,,,カゼノジダイ,0
651,4011103011581,新規,0,2022-03-22,2022-03-22,甲和管理合同会社,,合同会社,東京都,新宿区,西早稲田３丁目１７番１３号,,13,104,1690051,,,,,,,2022-03-22,1,,,,,コウワカンリ,0
654,4011403003601,新規,0,2022-03-22,2022-03-22,ｐｌａｔｉｎｕｍ　ｃｉｒｃｕｓ合同会社,,合同会社,東京都,板橋区,仲宿３番８号１１１号室,,13,119,1730005,,,,,,,2022-03-22,1,,,,,プラチナムサーカス,0
670,4020001145689,新規,0,2022-03-22,2022-03-22,株式会社イマジネーションホールディングス,,株式会社,神奈川県,横浜市中区,山下町２番地産業貿易センター２階,,14,104,2310023,,,,,,,2022-03-22,1,,,,,イマジネーションホールディングス,0
671,4020001145697,新規,0,2022-03-22,2022-03-22,株式会社ロイ,,株式会社,神奈川県,横浜市緑区,中山１丁目１４番１０号,,14,113,2260019,,,,,,,2022-03-22,1,,,,,ロイ,0
672,4020001145714,新規,0,2022-03-22,2022-03-22,株式会社レーベルトレーディング,,株式会社,神奈川県,横浜市西区,東久保町２１－１６ブリランテ西横浜２０５,,14,103,2200062,,,,,,,2022-03-22,1,,,,,レーベルトレーディング,0
673,4020001145730,新規,0,2022-03-22,2022-03-22,株式会社テクノフォルティス,,株式会社,神奈川県,横浜市青葉区,すみよし台３６番地２４アステリア青葉台１０２号,,14,117,2270035,,,,,,,2022-03-22,1,,,,,テクノフォルティス,0
674,4020001145747,新規,0,2022-03-22,2022-03-22,株式会社グリーンハウス,,株式会社,神奈川県,横浜市南区,中村町１丁目２３番地３,,14,105,2320033,,,,,,,2022-03-22,1,,,,,グリーンハウス,0
676,4020005015418,新規,0,2022-03-22,2022-03-22,ＮＰＯ法人Ｕｎｌｉｍｉｔｅｄ,,その他の設立登記法人,神奈川県,川崎市川崎区,駅前本町１１番地２川崎フロンティアビル４階,,14,131,2100007,,,,,,,2022-03-22,1,,,,,アンリミテッド,0
678,4021001075455,新規,0,2022-03-22,2022-03-22,エムエスケー株式会社,,株式会社,神奈川県,厚木市,温水西１丁目１１番６号,,14,212,2430039,,,,,,,2022-03-22,1,,,,,エムエスケー,0
679,4021001075471,新規,0,2022-03-22,2022-03-22,ＳＵＩＲＥＮ　ＪＡＰＡＮ株式会社,,株式会社,神奈川県,愛甲郡愛川町,角田字小沢城坂７７９番１１,,14,401,2430301,,,,,,,2022-03-22,1,,,,,スイレンジャパン,0
681,4021003011482,新規,0,2022-03-22,2022-03-22,合同会社Ａｍａｌ,,合同会社,神奈川県,相模原市中央区,横山１丁目７－３３,,14,152,2520242,,,,,,,2022-03-22,1,,,,,アマル,0
690,4030001147346,新規,0,2022-03-22,2022-03-22,株式会社Ｓ．Ｐ．Ｄ,,株式会社,埼玉県,朝霞市,膝折町１丁目４番１６号,,11,227,3510014,,,,,,,2022-03-22,1,,,,,エスピーディー,0
691,4030001147362,新規,0,2022-03-22,2022-03-22,株式会社財創カンパニー,,株式会社,埼玉県,川口市,大字新堀１７８番地の１２,,11,203,3340061,,,,,,,2022-03-22,1,,,,,ザイソウカンパニー,0
693,4030003019056,新規,0,2022-03-22,2022-03-22,ＯＺ合同会社,,合同会社,埼玉県,新座市,菅沢１丁目２番９号,,11,230,3520017,,,,,,,2022-03-22,1,,,,,オズ,0
694,4030005020763,新規,0,2022-03-22,2022-03-22,一般社団法人Ｋａｉｇｏ福祉Ｌａｂ,,その他の設立登記法人,埼玉県,入間郡三芳町,大字竹間沢７３５番地１,,11,324,3540043,,,,,,,2022-03-22,1,,,,,カイゴフクシラボ,0
698,4040001122637,新規,0,2022-03-22,2022-03-22,株式会社リベラリーテル,,株式会社,千葉県,船橋市,南本町１５番１０号サンファミール船橋９０３,,12,204,2730004,,,,,,,2022-03-22,1,,,,,リベラリーテル,0
699,4040001122653,新規,0,2022-03-22,2022-03-22,フリーモーション株式会社,,株式会社,千葉県,四街道市,和良比９３９番地７,,12,228,2840044,,,,,,,2022-03-22,1,,,,,フリーモーション,0
700,4040001122661,新規,0,2022-03-22,2022-03-22,金沐株式会社,,株式会社,千葉県,船橋市,湊町３丁目１６番１８－１号,,12,204,2730011,,,,,,,2022-03-22,1,,,,,キンモク,0
701,4040001122694,新規,0,2022-03-22,2022-03-22,株式会社ｈｕｅ,,株式会社,千葉県,浦安市,美浜１丁目１番１２０号,,12,227,2790011,,,,,,,2022-03-22,1,,,,,ヒュー,0
703,4040003019716,新規,0,2022-03-22,2022-03-22,合同会社八ヶ岳ソーラー,,合同会社,千葉県,流山市,大字東深井６６３番地の１６９,,12,220,2700101,,,,,,,2022-03-22,1,,,,,ヤツガタケソーラー,0
724,4120001244539,新規,0,2022-03-22,2022-03-22,株式会社アクミエステート,,株式会社,大阪府,大阪市西区,京町堀１丁目７番１２号,,27,106,5500003,,,,,,,2022-03-22,1,,,,,アクミエステート,0
725,4120001244555,新規,0,2022-03-22,2022-03-22,株式会社Ｉｎｎａｔｅ　Ｓｕｎｎｙ　Ｓｅａ,,株式会社,大阪府,大阪市中央区,安土町１丁目７番１３号トヤマ本館９階,,27,128,5410052,,,,,,,2022-03-22,1,,,,,イネイトサニーシー,0
728,4120101065265,新規,0,2022-03-22,2022-03-22,株式会社ウエストビレッジ,,株式会社,大阪府,羽曳野市,羽曳が丘３丁目１５番１号,,27,222,5830864,,,,,,,2022-03-22,1,,,,,ウエストビレッジ,0
729,4120901045747,新規,0,2022-03-22,2022-03-22,株式会社ＬＩＢＲＥ,,株式会社,大阪府,箕面市,箕面５丁目５番２４号,,27,220,5620001,,,,,,,2022-03-22,1,,,,,リブレ,0
748,4140001125274,新規,0,2022-03-22,2022-03-22,ひとよし株式会社,,株式会社,兵庫県,姫路市,西今宿３丁目１９番２８号,,28,201,6700061,,,,,,,2022-03-22,1,,,,,ヒトヨシ,0
752,4140003017478,新規,0,2022-03-22,2022-03-22,ＳＹＮＥＲＧＹ　ＨＯＰＥ合同会社,,合同会社,兵庫県,明石市,大久保町谷八木５０番地の７,,28,203,6740062,,,,,,,2022-03-22,1,,,,,シナジーホープ,0
754,4160001024061,新規,0,2022-03-22,2022-03-22,勇雅ロジ株式会社,,株式会社,滋賀県,近江八幡市,若宮町２５５番地,,25,204,5230034,,,,,,,2022-03-22,1,,,,,ユウガロジ,0
761,4180001150483,新規,0,2022-03-22,2022-03-22,株式会社ＫＵＯＮ,,株式会社,愛知県,名古屋市中村区,名駅１丁目１番１号ＪＰタワー名古屋２１階,,23,105,4500002,,,,,,,2022-03-22,1,,,,,クオン,0
762,4180001150491,新規,0,2022-03-22,2022-03-22,３９株式会社,,株式会社,愛知県,名古屋市中区,錦３丁目１９番３０号第三錦ビル４Ｆ－１,,23,106,4600003,,,,,,,2022-03-22,1,,,,,サンキュー,0
766,4180305009319,新規,0,2022-03-22,2022-03-22,一般社団法人スマイルビーチプロジェクト,,その他の設立登記法人,愛知県,田原市,高松町中瀬古５３番地２,,23,231,4413501,,,,,,,2022-03-22,1,,,,,スマイルビーチプロジェクト,0
768,4190003003928,新規,0,2022-03-22,2022-03-22,合同会社ＪＭ　ＧＬＯＢＡＬ　ＣＡＲ,,合同会社,三重県,桑名郡木曽岬町,大字西対海地３１１番地３,,24,303,4980807,,,,,,,2022-03-22,1,,,,,ジェーエムグローバルカー,0
771,4220001024749,新規,0,2022-03-22,2022-03-22,株式会社健誠,,株式会社,石川県,小松市,波佐谷町ナ１５７番地６,,17,203,9230182,,,,,,,2022-03-22,1,,,,,ケンセイ,0
772,4220003003247,新規,0,2022-03-22,2022-03-22,合同会社ＣＭコーポレーション,,合同会社,石川県,金沢市,糸田２丁目１５３番地（グランリーフ・２０１号）,,17,201,9218014,,,,,,,2022-03-22,1,,,,,シーエムコーポレーション,0
778,4240001059479,新規,0,2022-03-22,2022-03-22,株式会社上田商店,,株式会社,広島県,広島市安佐南区,伴東７丁目２４番３８号,,34,105,7313164,,,,,,,2022-03-22,1,,,,,ウエダショウテン,0
783,4280001008663,新規,0,2022-03-22,2022-03-22,海ひこ株式会社,,株式会社,島根県,大田市,大田町大田イ６１１－４－１０２,,32,205,6940064,,,,,,,2022-03-22,1,,,,,,0
786,4290001096864,新規,0,2022-03-22,2022-03-22,シー・ユー・プランニング株式会社,,株式会社,福岡県,糸島市,高祖１５５０番地,,40,230,8191571,,,,,,,2022-03-22,1,,,,,シーユープランニング,0
794,4330002012493,新規,0,2022-03-22,2022-03-22,有限会社ワイケイ企画産業,,有限会社,熊本県,熊本市北区,飛田町１３番地１２,,43,105,8610000,,,,,,,2022-03-22,1,,,,,,0
798,4330003009290,新規,0,2022-03-22,2022-03-22,合同会社Ｅｊａｚ　Ｔｒａｄｉｎｇ,,合同会社,熊本県,宇城市,豊野町大字山崎字堤ノ下２２００番地,,43,213,8690500,,,,,,,2022-03-22,1,,,,,イジェーズトレーディング,0
799,4330003009299,新規,0,2022-03-22,2022-03-22,Ｍ＆Ｈプロモーション合同会社,,合同会社,熊本県,熊本市中央区,下通１丁目９番２９号森天会館ビル４階１号室,,43,101,8600807,,,,,,,2022-03-22,1,,,,,エムアンドエイチプロモーション,0
803,4350005006053,新規,0,2022-03-22,2022-03-22,医療法人社団和美会,,その他の設立登記法人,宮崎県,宮崎市,清武町正手２丁目７８番１,,45,201,8891603,,,,,,,2022-03-22,1,,,,,ナゴミカイ,0
804,4390001016829,新規,0,2022-03-22,2022-03-22,同栄興産株式会社,,株式会社,山形県,米沢市,万世町片子字向川原５３７９番地２,,06,202,9921125,,,,,,,2022-03-22,1,,,,,ドウエイコウサン,0
806,4410002012709,新規,0,2022-03-22,2022-03-22,野村商事有限会社,,有限会社,秋田県,仙北市,角館町小館１３８番地の１,,05,215,0140372,,,,,,,2022-03-22,1,,,,,,0
809,4430003013729,新規,0,2022-03-22,2022-03-22,合同会社Ｎｏｒｔｈｅｒｎ　Ｇｒｏｕｎｄ,,合同会社,北海道,小樽市,桂岡町１５番６号,,01,203,0470264,,,,,,,2022-03-22,1,,,,,ノーザングラウンド,0
815,4460303000754,新規,0,2022-03-22,2022-03-22,合同会社栄林,,合同会社,北海道,北見市,端野町三区４７２番地６０,,01,208,0992103,,,,,,,2022-03-22,1,,,,,エイリン,0
816,4500001024076,新規,0,2022-03-22,2022-03-22,株式会社イルミファーム,,株式会社,愛媛県,今治市,菊間町浜２１４５番地,,38,202,7992303,,,,,,,2022-03-22,1,,,,,イルミファーム,0
820,5010005034756,新規,0,2022-03-22,2022-03-22,マグノリア一般社団法人,,その他の設立登記法人,東京都,千代田区,丸の内３丁目１番１号東京共同会計事務所内,,13,101,1000005,,,,,,,2022-03-22,1,,,,,マグノリア,0
828,5010401166293,新規,0,2022-03-22,2022-03-22,株式会社ＦＴＡアドバイザリー,,株式会社,東京都,港区,白金３丁目１番１３号日恵ビル２階,,13,103,1080072,,,,,,,2022-03-22,1,,,,,エフティーエーアドバイザリー,0
832,5010403027304,新規,0,2022-03-22,2022-03-22,ＣＡＮＢＵＬＬ合同会社,,合同会社,東京都,港区,南青山１丁目２４－１５－８０２,,13,103,1070062,,,,,,,2022-03-22,1,,,,,キャンブル,0
835,5010503006538,新規,0,2022-03-22,2022-03-22,合同会社ＥｘＡｄ,,合同会社,東京都,台東区,上野１丁目７番４－１００１号ライオンズタワー上野黒門町,,13,106,1100005,,,,,,,2022-03-22,1,,,,,イクサード,0
840,5010705003333,新規,0,2022-03-22,2022-03-22,医療法人社団泰安会大井町レディースクリニック,,その他の設立登記法人,東京都,品川区,大井２丁目１番１号大井２丁目メディカルセンター３階,,13,109,1400014,,,,,,,2022-03-22,1,,,,,タイアンカイオオイマチレディースクリニック,0
851,5011001146371,新規,0,2022-03-22,2022-03-22,株式会社Ｖａｉｌ,,株式会社,東京都,目黒区,青葉台１丁目２８番３号,,13,110,1530042,,,,,,,2022-03-22,1,,,,,ヴェール,0
852,5011001146438,新規,0,2022-03-22,2022-03-22,ＴＡＭＯＮ株式会社,,株式会社,東京都,目黒区,中根２丁目５番１３－２０３号,,13,110,1520031,,,,,,,2022-03-22,1,,,,,タモン,0
854,5011005009500,新規,0,2022-03-22,2022-03-22,医療法人社団涼優会,,その他の設立登記法人,東京都,渋谷区,神泉町１１番７号セロンビル３階,,13,113,1500045,,,,,,,2022-03-22,1,,,,,リョウユウカイ,0
857,5011101098224,新規,0,2022-03-22,2022-03-22,株式会社アザレア,,株式会社,東京都,新宿区,新宿７丁目１２番１号新宿平和ビル１階,,13,104,1600022,,,,,,,2022-03-22,1,,,,,アザレア,0
859,5011103011589,新規,0,2022-03-22,2022-03-22,合同会社信州郷土産業振興会,,合同会社,東京都,新宿区,新宿１丁目３６番２号新宿第七葉山ビル３階,,13,104,1600022,,,,,,,2022-03-22,1,,,,,シンシュウキョウドサンギョウシンコウカイ,0
866,5011801040476,新規,0,2022-03-22,2022-03-22,株式会社Ｓ‐ｅｍｉ,,株式会社,東京都,足立区,東和３丁目１０番地１０号６０３号室,,13,121,1200003,,,,,,,2022-03-22,1,,,,,エスエミ,0
874,5013301048818,新規,0,2022-03-22,2022-03-22,新瑞国際株式会社,,株式会社,東京都,豊島区,駒込４丁目１２番１０号ラ・ビスタ駒込１０３号,,13,116,1700003,,,,,,,2022-03-22,1,,,,,シンズイ,0
879,5020001145671,新規,0,2022-03-22,2022-03-22,株式会社英知,,株式会社,神奈川県,横浜市港北区,新横浜３丁目１３番６号,,14,109,2220033,,,,,,,2022-03-22,1,,,,,エイチ,0
880,5020001145738,新規,0,2022-03-22,2022-03-22,ＤｏｔＤｅｌｉ株式会社,,株式会社,神奈川県,横浜市神奈川区,片倉１丁目３０番５号サンハイツ１０１号,,14,102,2210865,,,,,,,2022-03-22,1,,,,,ドットデリ,0
882,5020003021482,新規,0,2022-03-22,2022-03-22,ＷＨＥＥＬＮＥＳＳ合同会社,,合同会社,神奈川県,横浜市南区,弘明寺町字北ノ前６３番地６,,14,105,2320067,,,,,,,2022-03-22,1,,,,,ウィールネス,0
888,5021001075363,新規,0,2022-03-22,2022-03-22,株式会社ＰＵＢＬＩＣＡ,,株式会社,神奈川県,横須賀市,久里浜７丁目１９－１１,,14,201,2390831,,,,,,,2022-03-22,1,,,,,パブリカ,0
890,5021003011507,新規,0,2022-03-22,2022-03-22,合同会社新倉,,合同会社,神奈川県,大和市,下鶴間２丁目１番１９－７０１号,,14,213,2420001,,,,,,,2022-03-22,1,,,,,ニイクラ,0
892,5030001147312,新規,0,2022-03-22,2022-03-22,株式会社ＭＩＫＩ,,株式会社,埼玉県,鴻巣市,本町２丁目１番７号,,11,217,3650038,,,,,,,2022-03-22,1,,,,,ミキ,0
895,5030003019063,新規,0,2022-03-22,2022-03-22,合同会社南洋商会,,合同会社,埼玉県,川口市,川口１丁目１番３－１４１３号オーベルタワー川口,,11,203,3320015,,,,,,,2022-03-22,1,,,,,ナンヨウショウカイ,0
900,5040001122677,新規,0,2022-03-22,2022-03-22,株式会社Ｋ．Ｓ美装,,株式会社,千葉県,印西市,小林北２丁目６番地２７,,12,231,2701313,,,,,,,2022-03-22,1,,,,,ケーエスビソウ,0
901,5040001122693,新規,0,2022-03-22,2022-03-22,株式会社ＬＩＧ,,株式会社,千葉県,千葉市緑区,古市場町７１５番地１,,12,105,2660026,,,,,,,2022-03-22,1,,,,,リグ,0
908,5060001034672,新規,0,2022-03-22,2022-03-22,昇躍金属株式会社,,株式会社,栃木県,大田原市,藤沢１２２－１５０,,09,210,3240031,,,,,,,2022-03-22,1,,,,,ショウヤクキンゾク,0
909,5060003003980,新規,0,2022-03-22,2022-03-22,合同会社ＫＲＳ工業,,合同会社,栃木県,小山市,大字小薬４２９番地２,,09,208,3230008,,,,,,,2022-03-22,1,,,,,ケーアールエスコウギョウ,0
912,5070001039068,新規,0,2022-03-22,2022-03-22,株式会社ＹＳダクト工業,,株式会社,群馬県,北群馬郡吉岡町,大字大久保３３４６番地１０,,10,345,3703602,,,,,,,2022-03-22,1,,,,,ワイエスダクトコウギョウ,0
916,5080101023169,新規,0,2022-03-22,2022-03-22,株式会社クーキーズ,,株式会社,静岡県,富士市,今泉１８７３番地の５,,22,210,4170001,,,,,,,2022-03-22,1,,,,,クーキーズ,0
927,5110005016769,新規,0,2022-03-22,2022-03-22,一般社団法人３Ｈ２Ｂ,,その他の設立登記法人,新潟県,長岡市,大手通２丁目２番地６,,15,202,9400062,,,,,,,2022-03-22,1,,,,,サンエイチトゥービー,0
936,5120001244546,新規,0,2022-03-22,2022-03-22,株式会社ＲＭＳ,,株式会社,大阪府,大阪市平野区,加美北６丁目３番１０号,,27,126,5470001,,,,,,,2022-03-22,1,,,,,アールエムエス,0
937,5120001244554,新規,0,2022-03-22,2022-03-22,株式会社成剛,,株式会社,大阪府,大阪市淀川区,塚本２丁目２３番１３号,,27,123,5320026,,,,,,,2022-03-22,1,,,,,セイゴウ,0
939,5120003021316,新規,0,2022-03-22,2022-03-22,合同会社ｓｏｃｉｏｂａｎｋ,,合同会社,大阪府,大阪市中央区,玉造１丁目２４番１８－３０３号,,27,128,5400004,,,,,,,2022-03-22,1,,,,,ソシオバンク,0
944,5120101065264,新規,0,2022-03-22,2022-03-22,株式会社アリエル,,株式会社,大阪府,松原市,河合３丁目４番２４号,,27,217,5800022,,,,,,,2022-03-22,1,,,,,アリエル,0
950,5130003007818,新規,0,2022-03-22,2022-03-22,合同会社やまうずら,,合同会社,京都府,京都市左京区,田中野神町１０－２８,,26,103,6068213,,,,,,,2022-03-22,1,,,,,ヤマウズラ,0
956,5140003017477,新規,0,2022-03-22,2022-03-22,レガーレ合同会社,,合同会社,兵庫県,神戸市須磨区,緑が丘２丁目８番１４号,,28,107,6540113,,,,,,,2022-03-22,1,,,,,レガーレ,0
963,5180001150474,新規,0,2022-03-22,2022-03-22,株式会社Ｒｅｆｉｎｅ,,株式会社,愛知県,名古屋市天白区,大根町１１４番地,,23,116,4680024,,,,,,,2022-03-22,1,,,,,リファイン,0
964,5180001150516,新規,0,2022-03-22,2022-03-22,株式会社タスカル,,株式会社,愛知県,名古屋市中区,栄１丁目２２番２号,,23,106,4600008,,,,,,,2022-03-22,1,,,,,タスカル,0
969,5190001029239,新規,0,2022-03-22,2022-03-22,株式会社オオヤマアーク,,株式会社,三重県,四日市市,大字塩浜４１４６番地１グレイスＫアネックスＢ－２０２,,24,202,5100863,,,,,,,2022-03-22,1,,,,,オオヤマアーク,0
970,5190003003927,新規,0,2022-03-22,2022-03-22,合同会社武蔵,,合同会社,三重県,津市,渋見町３３０番地１０４,,24,201,5140063,,,,,,,2022-03-22,1,,,,,ムサシ,0
971,5200001039855,新規,0,2022-03-22,2022-03-22,株式会社松阪,,株式会社,岐阜県,瑞穂市,十九条字石塚３７８番地の１,,21,216,5010235,,,,,,,2022-03-22,1,,,,,マツザカ,0
972,5200001039871,新規,0,2022-03-22,2022-03-22,株式会社希,,株式会社,岐阜県,岐阜市,河渡３丁目１４５番地（ディアスムトウＡ号棟１０２号室）,,21,201,5010105,,,,,,,2022-03-22,1,,,,,キボウ,0
975,5220001024748,新規,0,2022-03-22,2022-03-22,ＨＩＬＬ・ＴＩＰ株式会社,,株式会社,石川県,加賀市,山代温泉１８の５２番地,,17,206,9220242,,,,,,,2022-03-22,1,,,,,ヒルティップ,0
980,5240001059486,新規,0,2022-03-22,2022-03-22,株式会社ＡＩＣ浜学園,,株式会社,広島県,広島市中区,中町１番１号,,34,101,7300037,,,,,,,2022-03-22,1,,,,,エーアイシーハマガクエン,0
985,5260001036657,新規,0,2022-03-22,2022-03-22,株式会社もく,,株式会社,岡山県,岡山市中区,江並１６２番地２,,33,102,7028004,,,,,,,2022-03-22,1,,,,,モク,0
987,5270003001393,新規,0,2022-03-22,2022-03-22,合同会社ＧＤ田中薬局,,合同会社,鳥取県,米子市,観音寺新町４丁目６番１４号,,31,202,6830009,,,,,,,2022-03-22,1,,,,,ジーディタナカヤッキョク,0
988,5280001008662,新規,0,2022-03-22,2022-03-22,山下物産株式会社,,株式会社,島根県,飯石郡飯南町,上赤名１５１番地,,32,386,6903512,,,,,,,2022-03-22,1,,,,,ヤマシタブッサン,0
992,5290001096871,新規,0,2022-03-22,2022-03-22,Ｗａｌｋ　ｕｐ株式会社,,株式会社,福岡県,福岡市西区,内浜２丁目４番４３号,,40,135,8190005,,,,,,,2022-03-22,1,,,,,ウォークアップ,0
993,5290001096888,新規,0,2022-03-22,2022-03-22,株式会社Ｌｉｃｋｃａｒｓ,,株式会社,福岡県,福岡市博多区,美野島１丁目２０番１号,,40,132,8120017,,,,,,,2022-03-22,1,,,,,リックカーズ,0
998,5290003012298,新規,0,2022-03-22,2022-03-22,合同会社稲富建装,,合同会社,福岡県,福岡市南区,鶴田３丁目１０番２７－２０３号グラレオン鶴田,,40,134,8111352,,,,,,,2022-03-22,1,,,,,イナトミケンソウ,0
1004,5310001017775,新規,0,2022-03-22,2022-03-22,株式会社荒木電器,,株式会社,長崎県,南島原市,深江町乙９６５番地,,42,214,8591502,,,,,,,2022-03-22,1,,,,,アラキデンキ,0
1008,5330001029562,新規,0,2022-03-22,2022-03-22,和水ｖｅｇｅファーム株式会社,,株式会社,熊本県,熊本市中央区,草葉町２番３２－９０３号ウェルブライト上通り,,43,101,8600843,,,,,,,2022-03-22,1,,,,,ナゴミベジファーム,0
1014,5420001017772,新規,0,2022-03-22,2022-03-22,株式会社ヤマカ,,株式会社,青森県,北津軽郡中泊町,大字小泊字浜野２９番地６,,02,387,0370514,,,,,,,2022-03-22,1,,,,,ヤマカ,0
1022,5430003013728,新規,0,2022-03-22,2022-03-22,合同会社アフロディテ,,合同会社,北海道,札幌市厚別区,厚別南２丁目２番３０号,,01,108,0040022,,,,,,,2022-03-22,1,,,,,アフロディテ,0
1024,5430005014419,新規,0,2022-03-22,2022-03-22,一般社団法人ヘルスアンドビューティキャンプ協会,,その他の設立登記法人,北海道,札幌市豊平区,平岸三条１６丁目１番４５号,,01,105,0620933,,,,,,,2022-03-22,1,,,,,ヘルスアンドビューティキャンプキョウカイ,0
1029,5460303000753,新規,0,2022-03-22,2022-03-22,ＲＳＡ合同会社,,合同会社,北海道,網走郡美幌町,字東二条南１丁目３番地,,01,543,0920042,,,,,,,2022-03-22,1,,,,,アールエスエー,0
1037,6010001225267,新規,0,2022-03-22,2022-03-22,株式会社Ｓａａｙａ　Ｎａｔｕｒａｌ,,株式会社,東京都,中央区,日本橋小舟町１４番９－８０２号,,13,102,1030024,,,,,,,2022-03-22,1,,,,,サアヤナチュラル,0
1038,6010001225283,新規,0,2022-03-22,2022-03-22,エヌビービーマヨルカリース株式会社,,株式会社,東京都,中央区,日本橋浜町３丁目３番２号,,13,102,1030007,,,,,,,2022-03-22,1,,,,,エヌビービーマヨルカリース,0
1042,6010003037280,新規,0,2022-03-22,2022-03-22,ＫＩＤＡＲＮ合同会社,,合同会社,東京都,文京区,湯島３丁目４３番１１号ケイワンビルＩＩ３階,00126019,13,105,1130034,,,,,,,2022-03-22,1,,,,,キダーン,0
1043,6010005034755,新規,0,2022-03-22,2022-03-22,アベリア一般社団法人,,その他の設立登記法人,東京都,千代田区,丸の内３丁目１番１号東京共同会計事務所内,,13,101,1000005,,,,,,,2022-03-22,1,,,,,アベリア,0
1046,6010401166251,新規,0,2022-03-22,2022-03-22,株式会社マフィンホールディングス,,株式会社,東京都,港区,赤坂６丁目１５番１１号,,13,103,1070052,,,,,,,2022-03-22,1,,,,,マフィンホールディングス,0
1047,6010401166268,新規,0,2022-03-22,2022-03-22,株式会社２Ｕ,,株式会社,東京都,港区,六本木７丁目１５番７号,,13,103,1060032,,,,,,,2022-03-22,1,,,,,トゥーユー,0
1048,6010401166292,新規,0,2022-03-22,2022-03-22,Ｍａｒｋｅｔｉｎｇ＆Ｓａｌｅｓ　Ｉｎｎｏｖａｔｉｏｎ株式会社,,株式会社,東京都,港区,高輪２丁目１ー１３,,13,103,1080074,,,,,,,2022-03-22,1,,,,,マーケティングアンドセールスイノベーション,0
1049,6010403027303,新規,0,2022-03-22,2022-03-22,合同会社ＵＩＴＥＮＰＥＮ,,合同会社,東京都,港区,南青山２丁目２番１５号,,13,103,1070062,,,,,,,2022-03-22,1,,,,,ウイテンペン,0
1058,6010603009448,新規,0,2022-03-22,2022-03-22,ブライテック合同会社,,合同会社,東京都,墨田区,東墨田１丁目７番４号,,13,107,1310042,,,,,,,2022-03-22,1,,,,,ブライテック,0
1059,6010701042400,新規,0,2022-03-22,2022-03-22,株式会社猫又,,株式会社,東京都,品川区,東大井１丁目２４番１４号,,13,109,1400011,,,,,,,2022-03-22,1,,,,,ネコマタ,0
1060,6010703006163,新規,0,2022-03-22,2022-03-22,合同会社ａｅｒｕ　ａｗａｉ,,合同会社,東京都,品川区,上大崎３丁目１０番５０号,,13,109,1410021,,,,,,,2022-03-22,1,,,,,アエルアワイ,0
1077,6011001146354,新規,0,2022-03-22,2022-03-22,株式会社ビューティーエイジ,,株式会社,東京都,渋谷区,恵比寿南１丁目１６番１３号ＰｌａｎｅｘＷａｔｔ３階,,13,113,1500022,,,,,,,2022-03-22,1,,,,,ビューティーエイジ,0
1078,6011001146362,新規,0,2022-03-22,2022-03-22,株式会社ＡＮＤ　ｂｙ,,株式会社,東京都,渋谷区,恵比寿１丁目２４番２－３０２号,,13,113,1500013,,,,,,,2022-03-22,1,,,,,アンドバイ,0
1079,6011001146379,新規,0,2022-03-22,2022-03-22,株式会社ＤＯＯＰＯＰ,,株式会社,東京都,目黒区,青葉台３丁目６－１６ＨＦ青葉台ビル６階,,13,110,1530042,,,,,,,2022-03-22,1,,,,,ドゥーポップ,0
1080,6011001146420,新規,0,2022-03-22,2022-03-22,ｎｅｘｔｓｔｅｐ株式会社,,株式会社,東京都,目黒区,下目黒６丁目１６番１３－６０６号,,13,110,1530064,,,,,,,2022-03-22,1,,,,,ネクストステップ,0
1084,6011101098198,新規,0,2022-03-22,2022-03-22,株式会社クリエーション,,株式会社,東京都,新宿区,富久町８－２７ニューライフ新宿東６０２号室,,13,104,1620067,,,,,,,2022-03-22,1,,,,,クリエーション,0
1085,6011101098207,新規,0,2022-03-22,2022-03-22,Ｂｅｙｏｎｄ　Ｂｏｒｄｅｒ株式会社,,株式会社,東京都,新宿区,河田町３番５１号,,13,104,1620054,,,,,,,2022-03-22,1,,,,,ビヨンドボーダー,0
1086,6011101098215,新規,0,2022-03-22,2022-03-22,株式会社ＶＩＳＩＯＮＡＲＹ　ＪＡＰＡＮ,,株式会社,東京都,新宿区,水道町四丁目２５番宮川ビル３０３,,13,104,1620811,,,,,,,2022-03-22,1,,,,,,0
1087,6011101098223,新規,0,2022-03-22,2022-03-22,株式会社Ｒｅｄ　Ｌｕｃｋｙ３６９,,株式会社,東京都,新宿区,西早稲田１丁目２３番８号,,13,104,1690051,,,,,,,2022-03-22,1,,,,,レッドラッキースリーシックスナイン,0
1091,6011201023717,新規,0,2022-03-22,2022-03-22,株式会社ＳＷＯＯＳＨ,,株式会社,東京都,中野区,南台２丁目４０番１３号第２コーポ寺前１０２,,13,114,1640014,,,,,,,2022-03-22,1,,,,,スウッシュ,0
1103,6012401038983,新規,0,2022-03-22,2022-03-22,株式会社ＳｐＡｃＥ,,株式会社,東京都,武蔵野市,吉祥寺本町２丁目８番４号コスモス吉祥寺ビル２Ｆ,,13,203,1800004,,,,,,,2022-03-22,1,,,,,スペース,0
1105,6013301048833,新規,0,2022-03-22,2022-03-22,株式会社ＳＰＡＭ,,株式会社,東京都,豊島区,東池袋４丁目６番１０号ルナ大住ビル３Ｆ,,13,116,1700013,,,,,,,2022-03-22,1,,,,,スパム,0
1110,6020001145729,新規,0,2022-03-22,2022-03-22,フロラシオン株式会社,,株式会社,神奈川県,横浜市南区,中村町４丁目２８９番地５横浜阪東橋ガーデンハウス６０２号,,14,105,2320033,,,,,,,2022-03-22,1,,,,,フロラシオン,0
1116,6021001075453,新規,0,2022-03-22,2022-03-22,株式会社ＮＡＯ,,株式会社,神奈川県,逗子市,新宿２丁目２番５７号グリーンコアＢ－３,,14,208,2490007,,,,,,,2022-03-22,1,,,,,ナオ,0
1124,6030001147328,新規,0,2022-03-22,2022-03-22,株式会社ＵＳ,,株式会社,埼玉県,さいたま市浦和区,仲町２丁目６－２－１Ｆ,,11,107,3300062,,,,,,,2022-03-22,1,,,,,ユーエス,0
1125,6030001147336,新規,0,2022-03-22,2022-03-22,株式会社ＳＷＥＥＴ　ＨＯＭＥ,,株式会社,埼玉県,新座市,東２丁目８番１６号,,11,230,3520002,,,,,,,2022-03-22,1,,,,,スウィートホーム,0
1126,6030001147344,新規,0,2022-03-22,2022-03-22,株式会社イメージファクトリー,,株式会社,埼玉県,さいたま市南区,大字大谷口５０２７番地３,,11,108,3360042,,,,,,,2022-03-22,1,,,,,イメージファクトリー,0
1129,6040001122692,新規,0,2022-03-22,2022-03-22,株式会社ゼロトゥワン,,株式会社,千葉県,松戸市,小山３５番地の２松戸パレス８０２号,,12,207,2710093,,,,,,,2022-03-22,1,,,,,ゼロトゥワン,0
1132,6040003019689,新規,0,2022-03-22,2022-03-22,合同会社ｐｏｌｉｔｅ,,合同会社,千葉県,市川市,新田５丁目３番８－３０２号（太田ハウス）,,12,203,2720035,,,,,,,2022-03-22,1,,,,,ポライト,0
1133,6040003019706,新規,0,2022-03-22,2022-03-22,合同会社アドラ,,合同会社,千葉県,市川市,南行徳１丁目１６番２５号センチュリーヒルズ南行徳６階,,12,203,2720138,,,,,,,2022-03-22,1,,,,,アドラ,0
1137,6060001034671,新規,0,2022-03-22,2022-03-22,株式会社伊藤鉄工所,,株式会社,栃木県,足利市,福富新町７２６番地１１,,09,202,3260332,,,,,,,2022-03-22,1,,,,,イトウテッコウジョ,0
1141,6090005007472,新規,0,2022-03-22,2022-03-22,一般社団法人山梨県官公立病院等協議会,,その他の設立登記法人,山梨県,韮崎市,本町３丁目５番３号,,19,207,4070024,,,,,,,2022-03-22,1,,,,,,0
1148,6120001244529,新規,0,2022-03-22,2022-03-22,株式会社ＮｅｗＤｉｍｅｎｓｉｏｎ,,株式会社,大阪府,大阪市北区,天神橋２丁目５番１６号星合ビル２階,,27,127,5300041,,,,,,,2022-03-22,1,,,,,ニューディメンション,0
1149,6120001244586,新規,0,2022-03-22,2022-03-22,株式会社ＲＥＰ,,株式会社,大阪府,大阪市西区,北堀江３丁目１０番１７号ＴＨＥＨＩＧＨＨＯＲＩＥ（３０１号室）,,27,106,5500014,,,,,,,2022-03-22,1,,,,,レップ,0
1153,6120101065263,新規,0,2022-03-22,2022-03-22,株式会社ＳＦＧ,,株式会社,大阪府,高石市,東羽衣１丁目７番１－Ｂ１０１号,,27,225,5920003,,,,,,,2022-03-22,1,,,,,エスエフジー,0
1159,6122003002294,新規,0,2022-03-22,2022-03-22,ＥＡＳＥＬ　ＡＲＴ　ＳＴＵＤＩＯ合同会社,,合同会社,大阪府,柏原市,田辺２丁目４５３８番地の１,,27,221,5820024,,,,,,,2022-03-22,1,,,,,イーゼルアートスタジオ,0
1161,6130001071385,新規,0,2022-03-22,2022-03-22,株式会社えすえす,,株式会社,京都府,京都市左京区,浄土寺西田町２５番地２,,26,103,6068417,,,,,,,2022-03-22,1,,,,,エスエス,0
1164,6130003007817,新規,0,2022-03-22,2022-03-22,ＭＡＩＳＯＮ合同会社,,合同会社,京都府,京都市下京区,松原通堺町東入杉屋町２９５番地カーサデ河原町５０１号室,,26,106,6008078,,,,,,,2022-03-22,1,,,,,メゾン,0
1165,6130003007825,新規,0,2022-03-22,2022-03-22,合同会社ＲＩＮ,,合同会社,京都府,京都市伏見区,深草綿森町１７－９,,26,109,6120022,,,,,,,2022-03-22,1,,,,,リン,0
1170,6140001125322,新規,0,2022-03-22,2022-03-22,神戸カーテスター株式会社,,株式会社,兵庫県,神戸市東灘区,魚崎浜町２３番地１７,,28,101,6580024,,,,,,,2022-03-22,1,,,,,コウベカーテスター,0
1173,6140003017443,新規,0,2022-03-22,2022-03-22,合同会社Ａｌｂａ,,合同会社,兵庫県,神戸市長田区,神楽町２丁目３番３４号,,28,106,6530836,,,,,,,2022-03-22,1,,,,,アルバ,0
1174,6140003017476,新規,0,2022-03-22,2022-03-22,合同会社ＨＡＮＴ,,合同会社,兵庫県,洲本市,池田１７２番地１,,28,205,6560043,,,,,,,2022-03-22,1,,,,,ハント,0
1179,6180001150457,新規,0,2022-03-22,2022-03-22,株式会社ＦｕｋｕＰｕｋｕ,,株式会社,愛知県,名古屋市緑区,青山２丁目１７１番地,,23,114,4580833,,,,,,,2022-03-22,1,,,,,フクプク,0
1180,6180001150473,新規,0,2022-03-22,2022-03-22,株式会社ハピネスライフ,,株式会社,愛知県,名古屋市千種区,光が丘２丁目６番８号,,23,101,4640006,,,,,,,2022-03-22,1,,,,,ハピネスライフ,0
1181,6180001150507,新規,0,2022-03-22,2022-03-22,エモーショナルテクノ株式会社,,株式会社,愛知県,あま市,木田八反田２０番地１,,23,237,4901222,,,,,,,2022-03-22,1,,,,,エモーショナルテクノ,0
1183,6180003023628,新規,0,2022-03-22,2022-03-22,合同会社Ｃｏｎｎｅｃｔｉｏｎ,,合同会社,愛知県,小牧市,大字岩崎９７番地１,,23,219,4850011,,,,,,,2022-03-22,1,,,,,コネクション,0
1184,6180301036034,新規,0,2022-03-22,2022-03-22,株式会社宝夢,,株式会社,愛知県,豊橋市,岩崎町字長尾６５番地の８,,23,201,4400022,,,,,,,2022-03-22,1,,,,,ホーム,0
1185,6180301036042,新規,0,2022-03-22,2022-03-22,株式会社ＥＬＩＴＥ　ＳＥＲＶＩＣＥ,,株式会社,愛知県,西尾市,上道目記町上市場３２番地１,,23,213,4450882,,,,,,,2022-03-22,1,,,,,エリテサービス,0
1187,6190001029246,新規,0,2022-03-22,2022-03-22,Ｓｅａｂｒｅａｍ株式会社,,株式会社,三重県,度会郡南伊勢町,迫間浦１３９６番地９,,24,472,5160116,,,,,,,2022-03-22,1,,,,,シーブリーム,0
1189,6200001039879,新規,0,2022-03-22,2022-03-22,株式会社ＴＳプロ,,株式会社,岐阜県,羽島市,正木町大浦字中山５５８,,21,209,5016224,,,,,,,2022-03-22,1,,,,,ティーエスプロ,0
1191,6200003005499,新規,0,2022-03-22,2022-03-22,合同会社ビーチーム,,合同会社,岐阜県,土岐市,妻木町１８９４番地,,21,212,5095301,,,,,,,2022-03-22,1,,,,,ビーチーム,0
1192,6210001018849,新規,0,2022-03-22,2022-03-22,株式会社タルタ,,株式会社,福井県,鯖江市,旭町１丁目８－４,,18,207,9160025,,,,,,,2022-03-22,1,,,,,タルタ,0
1193,6220001024747,新規,0,2022-03-22,2022-03-22,亀井リーガルオフィス株式会社,,株式会社,石川県,金沢市,間明町１丁目２８番地,,17,201,9218005,,,,,,,2022-03-22,1,,,,,カメイリーガルオフィス,0
1200,6260001036656,新規,0,2022-03-22,2022-03-22,株式会社グリーンカンパニー,,株式会社,岡山県,岡山市北区,久米３３１番地５,,33,101,7010144,,,,,,,2022-03-22,1,,,,,グリーンカンパニー,0
1213,6290005018598,新規,0,2022-03-22,2022-03-22,一般社団法人ラックス,,その他の設立登記法人,福岡県,福岡市南区,老司１丁目３番４号,,40,134,8111346,,,,,,,2022-03-22,1,,,,,ラックス,0
1216,6290801028354,新規,0,2022-03-22,2022-03-22,株式会社ＭＢＣ商会,,株式会社,福岡県,行橋市,東大橋６丁目１２番２６号,,40,213,8240002,,,,,,,2022-03-22,1,,,,,エムビーシーショウカイ,0
1220,6310001017774,新規,0,2022-03-22,2022-03-22,イワテックアグリカルチャー株式会社,,株式会社,長崎県,長崎市,宝町７番５号,,42,201,8500045,,,,,,,2022-03-22,1,,,,,イワテックアグリカルチャー,0
1221,6310003004309,新規,0,2022-03-22,2022-03-22,合同会社インプット,,合同会社,長崎県,佐世保市,柚木元町２４０３番１号,,42,202,8570115,,,,,,,2022-03-22,1,,,,,インプット,0
1242,6400005008224,新規,0,2022-03-22,2022-03-22,医療法人貴宝選会,,その他の設立登記法人,岩手県,北上市,村崎野１５地割５３７番地５,,03,206,0240004,,,,,,,2022-03-22,1,,,,,キホウセンカイ,0
1246,6470001018988,新規,0,2022-03-22,2022-03-22,ＩＣＤ株式会社,,株式会社,香川県,高松市,仏生山町甲１９２番地３０,,37,201,7618078,,,,,,,2022-03-22,1,,,,,アイシーディー,0
1254,6700150022627,新規,0,2022-03-22,2015-10-09,越路琴製造組合,,その他,新潟県,長岡市,沢下条字諏訪平甲４８１－１５２,,15,202,9495413,,,,,,,2015-10-09,1,,,,,コシジコトセイゾウクミアイ,0
1255,6700150107460,新規,0,2022-03-22,2022-03-22,ＰＲＡＶＥＥＮ　ＡＵＴＯ　ＬＩＮＥ　ＰＲＩＶＡＴＥ　ＬＩＭＩＴＥＤ,,外国会社等,神奈川県,綾瀬市,深谷中７丁目１５番２号見上荘１０２,,14,218,2521107,スリランカ民主社会主義共和国、エイタナワッタ、フヌクンブラ、ディルルクシ、４４１,,,,,,2022-03-22,1,,,,,プラビーンオートラインプライベートリミテツド,0
1260,7010003037263,新規,0,2022-03-22,2022-03-22,合同会社Ｆｒｏｍ　ｎｏｗ,,合同会社,東京都,千代田区,二番町５番地２麹町駅プラザ９０１,,13,101,1020084,,,,,,,2022-03-22,1,,,,,フロムナウ,0
1261,7010103001879,新規,0,2022-03-22,2022-03-22,プラシア合同会社,,合同会社,東京都,八王子市,下柚木２丁目１１番地６,,13,201,1920372,,,,,,,2022-03-22,1,,,,,プラシア,0
1266,7010403027310,新規,0,2022-03-22,2022-03-22,合同会社ＳＴＧプラン,,合同会社,東京都,港区,西新橋３丁目６－４ルーブル新橋２０１,,13,103,1050003,,,,,,,2022-03-22,1,,,,,エスティージープラン,0
1268,7010405020817,新規,0,2022-03-22,2022-03-22,ソルガム高度利用技術研究組合,,その他の設立登記法人,東京都,港区,赤坂４丁目１番３０号,,13,103,1070052,,,,,,,2022-03-22,1,,,,,ソルガムコウドリヨウギジュツケンキュウ,0
1269,7010503006536,新規,0,2022-03-22,2022-03-22,合同会社フォレスト,,合同会社,東京都,台東区,根岸１丁目５番１３号南山ビル２階,,13,106,1100003,,,,,,,2022-03-22,1,,,,,フォレスト,0
1272,7010601060856,新規,0,2022-03-22,2022-03-22,東陽町株式会社,,株式会社,東京都,江東区,東陽３丁目２３番２６号,,13,108,1350016,,,,,,,2022-03-22,1,,,,,トウヨウチョウ,0
1274,7010701042399,新規,0,2022-03-22,2022-03-22,株式会社金剛石,,株式会社,東京都,品川区,北品川２丁目２０番２０号ＹＫマンション４０１,,13,109,1400001,,,,,,,2022-03-22,1,,,,,コンゴウセキ,0
1278,7010801032820,新規,0,2022-03-22,2022-03-22,株式会社Ａｇｅｎｔｓ,,株式会社,東京都,大田区,大森北２丁目５番７号,,13,111,1430016,,,,,,,2022-03-22,1,,,,,エージェンツ,0
1280,7010901050524,新規,0,2022-03-22,2022-03-22,株式会社ＰＬＡＮＥＴ．ＳＡＴ,,株式会社,東京都,世田谷区,三軒茶屋２丁目６－６井筒屋ビル,,13,112,1540024,,,,,,,2022-03-22,1,,,,,プラネットサット,0
1288,7011001146353,新規,0,2022-03-22,2022-03-22,株式会社ａｎｕｈｅａ,,株式会社,東京都,渋谷区,恵比寿南１丁目１６番１３号ＰｌａｎｅｘＷａｔｔ３階,,13,113,1500022,,,,,,,2022-03-22,1,,,,,アヌヘア,0
1289,7011001146361,新規,0,2022-03-22,2022-03-22,株式会社クリアネスコム,,株式会社,東京都,目黒区,中町１丁目２３番１号,,13,110,1530065,,,,,,,2022-03-22,1,,,,,クリアネスコム,0
1290,7011001146436,新規,0,2022-03-22,2022-03-22,株式会社ＡＷＡＷＡＷＡＷＡ,,株式会社,東京都,渋谷区,道玄坂１丁目１０番８号渋谷道玄坂東急ビル２Ｆ－Ｃ,,13,113,1500043,,,,,,,2022-03-22,1,,,,,アワワワワ,0
1292,7011003014376,新規,0,2022-03-22,2022-03-22,チトー合同会社,,合同会社,東京都,渋谷区,恵比寿１丁目２２番３号,,13,113,1500013,,,,,,,2022-03-22,1,,,,,チトー,0
1297,7011201023716,新規,0,2022-03-22,2022-03-22,ＣＭＯ株式会社,,株式会社,東京都,中野区,本町１丁目１１番１３号,,13,114,1640012,,,,,,,2022-03-22,1,,,,,シーエムオー,0
1302,7011801040474,新規,0,2022-03-22,2022-03-22,株式会社ＪＡＺＰ,,株式会社,東京都,葛飾区,細田４丁目４０番１０号,,13,122,1240021,,,,,,,2022-03-22,1,,,,,ジェーエイゼットピィー,0
1305,7012701016993,新規,0,2022-03-22,2022-03-22,慶章建設株式会社,,株式会社,東京都,小平市,鈴木町１丁目３６８番地の２３,,13,211,1870011,,,,,,,2022-03-22,1,,,,,ケイショウケンセツ,0
1306,7012803002735,新規,0,2022-03-22,2022-03-22,合同会社しらたま,,合同会社,東京都,国分寺市,南町２丁目１－３８ケロリンビル２階３階,,13,214,1850021,,,,,,,2022-03-22,1,,,,,シラタマ,0
1323,7020001145744,新規,0,2022-03-22,2022-03-22,株式会社マルキサービス,,株式会社,神奈川県,横浜市鶴見区,鶴見中央４丁目３８番３０－４０１号,,14,101,2300051,,,,,,,2022-03-22,1,,,,,マルキサービス,0
1325,7020003021480,新規,0,2022-03-22,2022-03-22,合同会社ＦＥＬＩＶＥ,,合同会社,神奈川県,横浜市港北区,下田町１丁目１－１－４１２,,14,109,2230064,,,,,,,2022-03-22,1,,,,,フェリベ,0
1329,7021001075469,新規,0,2022-03-22,2022-03-22,株式会社スポールト,,株式会社,神奈川県,伊勢原市,高森３丁目５番１号,,14,214,2591114,,,,,,,2022-03-22,1,,,,,スポールト,0
1339,7030003019061,新規,0,2022-03-22,2022-03-22,合同会社八彩,,合同会社,埼玉県,戸田市,喜沢１丁目１８－１１サンクレイドル西川口２・１０６号,,11,224,3350013,,,,,,,2022-03-22,1,,,,,ヤサイ,0
1343,7040001122667,新規,0,2022-03-22,2022-03-22,株式会社糸房登記測量事務所,,株式会社,千葉県,東金市,北之幸谷９番地６,,12,213,2830061,,,,,,,2022-03-22,1,,,,,イトフサトウキソクリョウジムショ,0
1346,7040003019688,新規,0,2022-03-22,2022-03-22,合同会社ＳＰＥＣ,,合同会社,千葉県,市川市,末広１丁目１８－１３－２０１,,12,203,2720121,,,,,,,2022-03-22,1,,,,,スペック,0
1347,7040005021551,新規,0,2022-03-22,2022-03-22,一般社団法人ＴＭＰプラス,,その他の設立登記法人,千葉県,千葉市中央区,中央４丁目１３番１２号ＴＭＰＢｕｉｌｄｉｎｇ,,12,101,2600013,,,,,,,2022-03-22,1,,,,,ティーエムピープラス,0
1352,7050005013036,新規,0,2022-03-22,2022-03-22,医療法人ＮＴ,,その他の設立登記法人,茨城県,水戸市,宮町１丁目２番４号ＭＹＭビル４階,,08,201,3100015,,,,,,,2022-03-22,1,,,,,エヌティ,0
1356,7070001039066,新規,0,2022-03-22,2022-03-22,あかぎ不動産株式会社,,株式会社,群馬県,桐生市,新里町新川３９８０番地６,,10,203,3760121,,,,,,,2022-03-22,1,,,,,アカギフドウサン,0
1359,7070003004431,新規,0,2022-03-22,2022-03-22,合同会社ピタゴライト,,合同会社,群馬県,前橋市,千代田町２丁目７－１０前橋市創業支援センター,,10,201,3710022,,,,,,,2022-03-22,1,,,,,ピタゴライト,0
1360,7080001024819,新規,0,2022-03-22,2022-03-22,株式会社ＬｉＡ,,株式会社,静岡県,静岡市清水区,島崎町１４９,,22,103,4240823,,,,,,,2022-03-22,1,,,,,リア,0
1369,7120001244453,新規,0,2022-03-22,2022-03-22,レイディアンス株式会社,,株式会社,大阪府,大阪市東淀川区,淡路３丁目３番７号淡路丸富マンション４０３号,,27,114,5330032,,,,,,,2022-03-22,1,,,,,レイディアンス,0
1370,7120001244560,新規,0,2022-03-22,2022-03-22,株式会社グッドランド,,株式会社,大阪府,大阪市北区,豊崎３丁目１６番１６－３２０１号,,27,127,5310072,,,,,,,2022-03-22,1,,,,,グッドランド,0
1373,7120101065262,新規,0,2022-03-22,2022-03-22,株式会社ヤマシチ,,株式会社,大阪府,泉佐野市,下瓦屋３丁目１０番１１号,,27,213,5980062,,,,,,,2022-03-22,1,,,,,ヤマシチ,0
1376,7120103004615,新規,0,2022-03-22,2022-03-22,合同会社ＳＩＳＵ,,合同会社,大阪府,和泉市,伯太町３丁目１１番２１号,,27,219,5940023,,,,,,,2022-03-22,1,,,,,シス,0
1378,7122005003612,新規,0,2022-03-22,2022-03-22,一般社団法人ペット歯周病協会,,その他の設立登記法人,大阪府,八尾市,安中町２丁目６－９清水ビル３Ｆ,,27,212,5810085,,,,,,,2022-03-22,1,,,,,ペットシシュウビョウキョウカイ,0
1391,7140001125305,新規,0,2022-03-22,2022-03-22,株式会社ＣＫウェルド,,株式会社,兵庫県,神戸市西区,丸塚２丁目１２－３８－１,,28,111,6512143,,,,,,,2022-03-22,1,,,,,シーケーウェルド,0
1394,7140003017475,新規,0,2022-03-22,2022-03-22,ディアログ合同会社,,合同会社,兵庫県,芦屋市,船戸町５番２６号マリアキャリーヌビル,,28,206,6590093,,,,,,,2022-03-22,1,,,,,ディアログ,0
1397,7150003002641,新規,0,2022-03-22,2022-03-22,ｅＡＲＴＨ　ＬＡＢ合同会社,,合同会社,奈良県,生駒郡斑鳩町,龍田南２丁目４番７号,00126020,29,344,6360153,,,,,,,2022-03-22,1,,,,,アースラボ,0
1404,7190001029237,新規,0,2022-03-22,2022-03-22,セブンワン株式会社,,株式会社,三重県,鈴鹿市,大池１丁目１７番１号,,24,207,5130827,,,,,,,2022-03-22,1,,,,,セブンワン,0
1406,7200001039878,新規,0,2022-03-22,2022-03-22,株式会社Ｇ‐ＣＲＡＦＴ,,株式会社,岐阜県,可児市,久々利１９５８－３－２,,21,214,5090224,,,,,,,2022-03-22,1,,,,,ジークラフト,0
1420,7260001036655,新規,0,2022-03-22,2022-03-22,株式会社ビーコン,,株式会社,岡山県,岡山市北区,芳賀５１１４番３５号,,33,101,7011221,,,,,,,2022-03-22,1,,,,,ビーコン,0
1426,7290001096878,新規,0,2022-03-22,2022-03-22,株式会社ＮＳ５‐２号,,株式会社,福岡県,福岡市博多区,上川端町１２番２０号,,40,132,8120026,,,,,,,2022-03-22,1,,,,,エヌエスファイブニゴウ,0
1428,7290005018597,新規,0,2022-03-22,2022-03-22,一般社団法人学びにＳＰＡＲＫを,,その他の設立登記法人,福岡県,福岡市南区,高宮１丁目１９番８号,,40,134,8150083,,,,,,,2022-03-22,1,,,,,マナビニスパークヲ,0
1429,7290801028353,新規,0,2022-03-22,2022-03-22,株式会社香取モーター,,株式会社,福岡県,北九州市八幡西区,穴生１丁目２０番９－１０１号,,40,109,8060049,,,,,,,2022-03-22,1,,,,,カトリモーター,0
1432,7310003004308,新規,0,2022-03-22,2022-03-22,合同会社Ｓｍｉｌｅ　ｓｐｏｔ,,合同会社,長崎県,長崎市,赤迫２丁目１９番３号,,42,201,8528156,,,,,,,2022-03-22,1,,,,,,0
1450,7430003013734,新規,0,2022-03-22,2022-03-22,合同会社大結,,合同会社,北海道,札幌市清田区,真栄五条１丁目２番１号,,01,110,0040835,,,,,,,2022-03-22,1,,,,,タイユウ,0
1452,7450001013643,新規,0,2022-03-22,2022-03-22,株式会社ＫＩＴＡＪＩＭＡ,,株式会社,北海道,増毛郡増毛町,畠中町２丁目５７番地,,01,481,0770214,,,,,,,2022-03-22,1,,,,,キタジマ,0
1454,7490001010141,新規,0,2022-03-22,2022-03-22,株式会社Ａｒａｔａ,,株式会社,高知県,高知市,長浜６５５７番地２９５,,39,201,7810270,,,,,,,2022-03-22,1,,,,,アラタ,0
1458,8010001225315,新規,0,2022-03-22,2022-03-22,株式会社バビロン,,株式会社,東京都,中央区,日本橋蛎殻町２丁目２番２号,,13,102,1030014,,,,,,,2022-03-22,1,,,,,バビロン,0
1463,8010005034761,新規,0,2022-03-22,2022-03-22,ＲＢソーラーシャインホールディングス一般社団法人,,その他の設立登記法人,東京都,千代田区,麹町２丁目８番地ＭＬＣ麹町ビル４階フィンポート税理士法人内,,13,101,1020083,,,,,,,2022-03-22,1,,,,,アールビーソーラーシャインホールディングス,0
1466,8010401166290,新規,0,2022-03-22,2022-03-22,Ｂｌｅｎｈｅｉｍ　Ｃａｐｉｔａｌ株式会社,,株式会社,東京都,港区,赤坂６丁目７番１４－２０２号,,13,103,1070052,,,,,,,2022-03-22,1,,,,,ブレンハイムキャピタル,0
1469,8010403027292,新規,0,2022-03-22,2022-03-22,Ｓｋｙｌｏｇ合同会社,,合同会社,東京都,港区,北青山２丁目７番２０号,,13,103,1070061,,,,,,,2022-03-22,1,,,,,スカイログ,0
1470,8010501048612,新規,0,2022-03-22,2022-03-22,株式会社Ｎａｇａｒｅ,,株式会社,東京都,台東区,台東３丁目１５番４号日神デュオステージ御徒町１００１,,13,106,1100016,,,,,,,2022-03-22,1,,,,,ナガレ,0
1475,8010701042398,新規,0,2022-03-22,2022-03-22,株式会社Ｔｒｉｐ７,,株式会社,東京都,品川区,南大井３丁目２０番５号,,13,109,1400013,,,,,,,2022-03-22,1,,,,,トリップセブン,0
1487,8011001146410,新規,0,2022-03-22,2022-03-22,株式会社ＰＬＡＮ　Ｂ,,株式会社,東京都,渋谷区,神宮前６丁目２３番４号桑野ビル２階,,13,113,1500001,,,,,,,2022-03-22,1,,,,,プランビー,0
1489,8011101098188,新規,0,2022-03-22,2022-03-22,株式会社ｔａｃｔａｃ,,株式会社,東京都,新宿区,西新宿４丁目２３番１１号アイキナモン２３－２０１号室,,13,104,1600023,,,,,,,2022-03-22,1,,,,,タクタク,0
1490,8011101098196,新規,0,2022-03-22,2022-03-22,小町谷株式会社,,株式会社,東京都,新宿区,北新宿３丁目２１番１０号,,13,104,1690074,,,,,,,2022-03-22,1,,,,,コマチバレー,0
1497,8011801040473,新規,0,2022-03-22,2022-03-22,日本ナトム株式会社,,株式会社,東京都,足立区,梅田５丁目２７番５－８０６号,,13,121,1230851,,,,,,,2022-03-22,1,,,,,ニホンナトム,0
1503,8012701016992,新規,0,2022-03-22,2022-03-22,株式会社Ｍ’ｓ　ＬＩＮＥ,,株式会社,東京都,東久留米市,南町４丁目８番３４号,,13,222,2030031,,,,,,,2022-03-22,1,,,,,エムズライン,0
1504,8012803002734,新規,0,2022-03-22,2022-03-22,合同会社雄総業,,合同会社,東京都,武蔵村山市,三ツ木２丁目３８番地の８ベルプレーヌ３０１号,,13,223,2080032,,,,,,,2022-03-22,1,,,,,ユウソウギョウ,0
1505,8013301048831,新規,0,2022-03-22,2022-03-22,株式会社ＯＡＫ,,株式会社,東京都,豊島区,東池袋１丁目３３番４号,,13,116,1700013,,,,,,,2022-03-22,1,,,,,オーク,0
1517,8020001145677,新規,0,2022-03-22,2022-03-22,株式会社リアン,,株式会社,神奈川県,川崎市川崎区,渡田３丁目１３番８号,,14,131,2100837,,,,,,,2022-03-22,1,,,,,リアン,0
1518,8020001145719,新規,0,2022-03-22,2022-03-22,株式会社Ｒ’ＯＳＥ,,株式会社,神奈川県,川崎市多摩区,布田１０－１ポルトボヌール中野島２０３,,14,135,2140011,,,,,,,2022-03-22,1,,,,,ローズ,0
1520,8021003011495,新規,0,2022-03-22,2022-03-22,合同会社Ｉｆａサービス,,合同会社,神奈川県,鎌倉市,小町２丁目２１－１２小町マンション１Ｂ,,14,204,2480006,,,,,,,2022-03-22,1,,,,,アイエフエーサービス,0
1521,8021003011504,新規,0,2022-03-22,2022-03-22,合同会社ＧＳＴ,,合同会社,神奈川県,相模原市中央区,清新５丁目２１番２２号,,14,152,2520216,,,,,,,2022-03-22,1,,,,,ジーエスティー,0
1532,8030003019060,新規,0,2022-03-22,2022-03-22,フサトミ合同会社,,合同会社,埼玉県,さいたま市大宮区,大成町２丁目４４３番地６,,11,103,3300852,,,,,,,2022-03-22,1,,,,,フサトミ,0
1540,8040001122666,新規,0,2022-03-22,2022-03-22,株式会社地域創造研究所,,株式会社,千葉県,柏市,若柴１７８番地４柏の葉キャンパス１４８街区ショップ＆オフィス棟６階,,12,217,2770871,,,,,,,2022-03-22,1,,,,,チイキソウゾウケンキュウジョ,0
1541,8040001122674,新規,0,2022-03-22,2022-03-22,株式会社エムズ,,株式会社,千葉県,船橋市,本中山７丁目８番３号,,12,204,2730035,,,,,,,2022-03-22,1,,,,,エムズ,0
1545,8040003019695,新規,0,2022-03-22,2022-03-22,合同会社デリバリーグループ,,合同会社,千葉県,木更津市,羽鳥野６丁目１２－１１,,12,206,2920819,,,,,,,2022-03-22,1,,,,,デリバリーグループ,0
1549,8060003003986,新規,0,2022-03-22,2022-03-22,ＹＡＭＡ　ＡＵＴＯ　ＴＲＡＤＩＮＧ合同会社,,合同会社,栃木県,足利市,大前町９５１番地レジデンス岡田１０７号室,,09,202,3260845,,,,,,,2022-03-22,1,,,,,ヤマオートトレーデイング,0
1561,8100003006472,新規,0,2022-03-22,2022-03-22,合同会社自然菜園スクール,,合同会社,長野県,長野市,信更町田野口２３１３番地,,20,201,3812353,,,,,,,2022-03-22,1,,,,,シゼンサイエンスクール,0
1576,8120001244584,新規,0,2022-03-22,2022-03-22,Ｓ．Ｌ．Ｇ．エビス株式会社,,株式会社,大阪府,大阪市此花区,伝法４丁目２番８号,,27,104,5540002,,,,,,,2022-03-22,1,,,,,エスエルジーエビス,0
1577,8120001244618,新規,0,2022-03-22,2022-03-22,みらいリーナルパートナーズ株式会社,,株式会社,大阪府,大阪市中央区,備後町２丁目２番１号,,27,128,5410051,,,,,,,2022-03-22,1,,,,,ミライリーナルパートナーズ,0
1579,8120101065261,新規,0,2022-03-22,2022-03-22,株式会社サイドゲレンデ,,株式会社,大阪府,堺市北区,金岡町１１６１番地８,,27,146,5918022,,,,,,,2022-03-22,1,,,,,サイドゲレンデ,0
1580,8120103004614,新規,0,2022-03-22,2022-03-22,合同会社コクア,,合同会社,大阪府,岸和田市,三田町１００２番地の５,,27,202,5960808,,,,,,,2022-03-22,1,,,,,コクア,0
1584,8120901045743,新規,0,2022-03-22,2022-03-22,株式会社ＦＩプロジェクト,,株式会社,大阪府,池田市,伏尾台１丁目１７番地の１１,,27,204,5630017,,,,,,,2022-03-22,1,,,,,エフアイプロジェクト,0
1585,8120901045751,新規,0,2022-03-22,2022-03-22,株式会社Ａｒｏｕｎｄ　ｔｈｅ　Ｃａｒｅ,,株式会社,大阪府,吹田市,千里山東１丁目２５－１２,,27,205,5650842,,,,,,,2022-03-22,1,,,,,アラウンドザケア,0
1591,8130002004045,新規,0,2022-03-22,2022-03-22,株式会社東洋開発,,株式会社,京都府,京都市北区,衣笠荒見町１番地の３,,26,101,6038315,,,,,,,2022-03-22,1,,,,,トウヨウカイハツ,0
1597,8140001125312,新規,0,2022-03-22,2022-03-22,株式会社Ｄｅｓｔｉｎｏ,,株式会社,兵庫県,神戸市中央区,北長狭通３丁目１２番３号,,28,110,6500012,,,,,,,2022-03-22,1,,,,,ディスティーノ,0
1598,8140001125329,新規,0,2022-03-22,2022-03-22,株式会社リベラーム,,株式会社,兵庫県,尼崎市,大物町１丁目３番１２号３Ｆ,,28,202,6600823,,,,,,,2022-03-22,1,,,,,リベラーム,0
1605,8180001150496,新規,0,2022-03-22,2022-03-22,株式会社グローバル人材サポート,,株式会社,愛知県,名古屋市熱田区,千代田町１３－４三木ビル５Ｆ,,23,109,4560073,,,,,,,2022-03-22,1,,,,,グローバルジンザイサポート,0
1608,8180003023634,新規,0,2022-03-22,2022-03-22,合同会社ＭＡＦ２,,合同会社,愛知県,稲沢市,祖父江町桜方上切６番地７,,23,220,4950015,,,,,,,2022-03-22,1,,,,,マフツー,0
1609,8180005019688,新規,0,2022-03-22,2022-03-22,司法書士法人ＳＴＲ,,その他の設立登記法人,愛知県,名古屋市中村区,那古野１丁目４７番１号名古屋国際センタービル１７Ｆ,,23,105,4500001,,,,,,,2022-03-22,1,,,,,エスティアール,0
1611,8180301036040,新規,0,2022-03-22,2022-03-22,株式会社七宝,,株式会社,愛知県,西尾市,鎌谷町北屋敷２７番地,,23,213,4450044,,,,,,,2022-03-22,1,,,,,シッポウ,0
1613,8190001029244,新規,0,2022-03-22,2022-03-22,株式会社まごころキッチン佳,,株式会社,三重県,四日市市,西富田２丁目６番１６号,,24,202,5108023,,,,,,,2022-03-22,1,,,,,マゴコロキッチンヨシ,0
1615,8200001039869,新規,0,2022-03-22,2022-03-22,株式会社青海,,株式会社,岐阜県,岐阜市,上川手２４８番地４１,,21,201,5008245,,,,,,,2022-03-22,1,,,,,スイミー,0
1617,8240001059483,新規,0,2022-03-22,2022-03-22,株式会社はれのちはれ,,株式会社,広島県,広島市中区,大手町１丁目５番１６号大海原ビル３０１,,34,101,7300051,,,,,,,2022-03-22,1,,,,,ハレノチハレ,0
1622,8260001036654,新規,0,2022-03-22,2022-03-22,株式会社トラスト・ワン,,株式会社,岡山県,倉敷市,玉島乙島７１３８番地１,,33,202,7138103,,,,,,,2022-03-22,1,,,,,トラストワン,0
1629,8290001096877,新規,0,2022-03-22,2022-03-22,株式会社アクアス,,株式会社,福岡県,福岡市中央区,長浜２丁目２番８－１５０４号ザ・パークハウス赤坂タワーレジデンス,,40,133,8100072,,,,,,,2022-03-22,1,,,,,アクアス,0
1630,8290001096893,新規,0,2022-03-22,2022-03-22,株式会社真輝,,株式会社,福岡県,那珂川市,大字南面里４０８番地５,,40,231,8111236,,,,,,,2022-03-22,1,,,,,マキ,0
1631,8290801028352,新規,0,2022-03-22,2022-03-22,ＹＥＳ株式会社,,株式会社,福岡県,北九州市八幡東区,祝町１丁目３番３号,,40,108,8050041,,,,,,,2022-03-22,1,,,,,ワイイーエス,0
1632,8290801028360,新規,0,2022-03-22,2022-03-22,株式会社ＹＡＮＡＧＩ,,株式会社,福岡県,北九州市小倉北区,船頭町３番３８号,,40,106,8020008,,,,,,,2022-03-22,1,,,,,ヤナギ,0
1635,8290803004087,新規,0,2022-03-22,2022-03-22,合同会社プリズム,,合同会社,福岡県,北九州市小倉南区,葛原東２丁目６番２２号,,40,107,8000206,,,,,,,2022-03-22,1,,,,,プリズム,0
1636,8320003003753,新規,0,2022-03-22,2022-03-22,合同会社のどか,,合同会社,大分県,佐伯市,大字青山１２５番地２,,44,205,8761513,,,,,,,2022-03-22,1,,,,,ノドカ,0
1642,8340001024584,新規,0,2022-03-22,2022-03-22,株式会社薩摩恵比寿堂,,株式会社,鹿児島県,鹿児島市,宇宿２丁目２３番３号,,46,201,8900073,,,,,,,2022-03-22,1,,,,,サツマエビスドウ,0
1647,8360001030143,新規,0,2022-03-22,2022-03-22,はあなマリン株式会社,,株式会社,沖縄県,那覇市,字天久８８９番地,,47,201,9000005,,,,,,,2022-03-22,1,,,,,ハアナマリン,0
1648,8360001030151,新規,0,2022-03-22,2022-03-22,山城環境株式会社,,株式会社,沖縄県,うるま市,石川伊波１５５３－３０未来ビジネス村Ｖ１,,47,213,9041115,,,,,,,2022-03-22,1,,,,,ヤマシロカンキョウ,0
1653,8370001048341,新規,0,2022-03-22,2022-03-22,株式会社Ｌｉｆｅ　Ｂａｓｅ,,株式会社,宮城県,仙台市太白区,四郎丸字昭和北２０６番地,,04,104,9811101,,,,,,,2022-03-22,1,,,,,ライフベース,0
1662,8410003003629,新規,0,2022-03-22,2022-03-22,合同会社創林,,合同会社,秋田県,湯沢市,皆瀬字上貝沼４５番地５,,05,207,0120183,,,,,,,2022-03-22,1,,,,,ソウリン,0
1670,8430003013725,新規,0,2022-03-22,2022-03-22,合同会社アパマンプロショップ,,合同会社,北海道,滝川市,江部乙町東１２丁目１４４６－６,,01,225,0790463,,,,,,,2022-03-22,1,,,,,アパマンプロショップ,0
1675,8490001010140,新規,0,2022-03-22,2022-03-22,株式会社ＫＭＴエンタープライズ,,株式会社,高知県,高知市,和泉町２番８号ＲＥＴＯＲＯＷＡ２０１号,,39,201,7800064,,,,,,,2022-03-22,1,,,,,ケーエムティーエンタープライズ,0
1676,8490003001641,新規,0,2022-03-22,2022-03-22,合同会社ハリー村,,合同会社,高知県,高岡郡日高村,鴨地１００１番地１,,39,410,7812167,,,,,,,2022-03-22,1,,,,,ハリームラ,0
1677,8700150107450,新規,0,2022-03-22,2022-03-22,ＯＰＲＡＤＡＲ　ＬＴＤ,,外国会社等,東京都,港区,港南２丁目１６番１号品川イーストワンタワー７階,,13,103,1080075,ナイジェリア連邦共和国ラゴス州ビクトリアアイランドアフマドゥベロウェイ１４１番地３階,,,,,,2022-03-22,1,,,,,オプレーダーエルテイデイ,0
1684,9010003037261,新規,0,2022-03-22,2022-03-22,合同会社ドリーム・ＵＳ・ＥＳＧファンド,,合同会社,東京都,千代田区,丸の内３丁目１番１号東京共同会計事務所内,,13,101,1000005,,,,,,,2022-03-22,1,,,,,ドリームユーエスイーエスジーファンド,0
1685,9010003037294,新規,0,2022-03-22,2022-03-22,合同会社オルタナ１２,,合同会社,東京都,千代田区,丸の内３丁目１番１号東京共同会計事務所内,,13,101,1000005,,,,,,,2022-03-22,1,,,,,オルタナトウェルブ,0
1686,9010005034760,新規,0,2022-03-22,2022-03-22,ＲＢソーラームーンホールディングス一般社団法人,,その他の設立登記法人,東京都,千代田区,麹町２丁目８番地ＭＬＣ麹町ビル４階フィンポート税理士法人内,,13,101,1020083,,,,,,,2022-03-22,1,,,,,アールビーソーラームーンホールディングス,0
1688,9010101015111,新規,0,2022-03-22,2022-03-22,株式会社ＷＩＧ,,株式会社,東京都,八王子市,大船町１５６－１０３,,13,201,1930935,,,,,,,2022-03-22,1,,,,,,0
1696,9010401166273,新規,0,2022-03-22,2022-03-22,株式会社プレミアジェイトラスト,,株式会社,東京都,港区,赤坂２丁目２１番４号,,13,103,1070052,,,,,,,2022-03-22,1,,,,,プレミアジェイトラスト,0
1701,9010403027325,新規,0,2022-03-22,2022-03-22,合同会社万寿堂,,合同会社,東京都,港区,赤坂４丁目４番１６号,,13,103,1070052,,,,,,,2022-03-22,1,,,,,マンジュドウ,0
1705,9010601060862,新規,0,2022-03-22,2022-03-22,株式会社バナナス,,株式会社,東京都,江東区,豊洲１丁目３番１－１７０７号,,13,108,1350061,,,,,,,2022-03-22,1,,,,,バナナス,0
1708,9010701042380,新規,0,2022-03-22,2022-03-22,株式会社Ｃａｂｉｎｅｔ　Ｃｌｕｂ．,,株式会社,東京都,品川区,西品川３丁目２０－２マンション大栄１０２,,13,109,1410033,,,,,,,2022-03-22,1,,,,,キャビネットクラブ,0
1710,9010903007248,新規,0,2022-03-22,2022-03-22,合同会社ＬＥＧＡＴＯ,,合同会社,東京都,世田谷区,深沢４丁目７－２５ルースマベーラ深沢１０３,,13,112,1580081,,,,,,,2022-03-22,1,,,,,レガート,0
1718,9011001146376,新規,0,2022-03-22,2022-03-22,株式会社ＩＲＯＤＯＲＩ,,株式会社,東京都,渋谷区,恵比寿３丁目３９番９号,,13,113,1500013,,,,,,,2022-03-22,1,,,,,イロドリ,0
1721,9011101098220,新規,0,2022-03-22,2022-03-22,株式会社グラエピ,,株式会社,東京都,新宿区,歌舞伎町１丁目３番１５号ザ・カテリーナビル１０階Ａ室,,13,104,1600021,,,,,,,2022-03-22,1,,,,,グラエピ,0
1722,9011101098261,新規,0,2022-03-22,2022-03-22,株式会社ＫＭコンサルティング,,株式会社,東京都,新宿区,百人町２丁目１番４２号シーズクロノス新宿戸山１１１号室,,13,104,1690073,,,,,,,2022-03-22,1,,,,,ケーエムコンサルティング,0
1727,9011103011585,新規,0,2022-03-22,2022-03-22,合同会社ミレクトオフィス,,合同会社,東京都,新宿区,市谷田町２丁目２０－１市谷田町ハイツ１０３,,13,104,1620843,,,,,,,2022-03-22,1,,,,,ミレクトオフィス,0
1729,9011201023680,新規,0,2022-03-22,2022-03-22,株式会社カナダピア,,株式会社,東京都,中野区,中野２丁目２９番１５号,,13,114,1640001,,,,,,,2022-03-22,1,,,,,カナダピア,0
1735,9012701016991,新規,0,2022-03-22,2022-03-22,株式会社ＧＳＳ,,株式会社,東京都,清瀬市,下清戸１丁目２６７番地９,,13,221,2040011,,,,,,,2022-03-22,1,,,,,ジーエスエス,0
1736,9013101008869,新規,0,2022-03-22,2022-03-22,株式会社漆色,,株式会社,東京都,羽村市,緑ヶ丘２丁目８番地６メゾンセレノ２０４,,13,227,2050003,,,,,,,2022-03-22,1,,,,,ナナイロ,0
1737,9013301048847,新規,0,2022-03-22,2022-03-22,株式会社ＡＤＶＡＮＣＥ　ＰＡＹＭＥＮＴ,,株式会社,東京都,豊島区,西池袋１丁目４番１０号,,13,116,1710021,,,,,,,2022-03-22,1,,,,,アドバンスペイメント,0
1738,9013303006092,新規,0,2022-03-22,2022-03-22,アップスター合同会社,,合同会社,東京都,豊島区,東池袋１丁目３１番１０号ドミール池袋４０３,,13,116,1700013,,,,,,,2022-03-22,1,,,,,アップスター,0
1741,9020001145734,新規,0,2022-03-22,2022-03-22,株式会社イレギュラー,,株式会社,神奈川県,横浜市西区,宮崎町４８番１号デザインコート紅葉坂Ｂ,,14,103,2200031,,,,,,,2022-03-22,1,,,,,イレギュラー,0
1747,9021001075459,新規,0,2022-03-22,2022-03-22,株式会社源ホールディングス,,株式会社,神奈川県,藤沢市,辻堂１丁目１４番１号,,14,205,2510047,,,,,,,2022-03-22,1,,,,,ゲンホールディングス,0
1748,9021001075475,新規,0,2022-03-22,2022-03-22,株式会社Ｒ,,株式会社,神奈川県,小田原市,小八幡１丁目１２番１３号１階,,14,206,2560815,,,,,,,2022-03-22,1,,,,,アール,0
1756,9030005020759,新規,0,2022-03-22,2022-03-22,一般社団法人ＳＣＲＡＰ＆ＢＵＩＬＤ,,その他の設立登記法人,埼玉県,川越市,大字山田１６２１－１モンドビル２階,,11,201,3500822,,,,,,,2022-03-22,1,,,,,スクラップアンドビルド,0
1767,9040003019678,新規,0,2022-03-22,2022-03-22,合同会社トラストエステート,,合同会社,千葉県,市川市,行徳駅前２丁目８番３号,,12,203,2720133,,,,,,,2022-03-22,1,,,,,トラストエステート,0
1771,9050001050808,新規,0,2022-03-22,2022-03-22,ＫＨ　ＴＲＡＤＩＮＧ株式会社,,株式会社,茨城県,筑西市,玉戸１３０９番地５５大吉亭１０４,,08,227,3080847,,,,,,,2022-03-22,1,,,,,ケーエイチトレーディング,0
1772,9050001050816,新規,0,2022-03-22,2022-03-22,株式会社ねこのて,,株式会社,茨城県,水戸市,宮町１丁目９番８－１５０４号,,08,201,3100015,,,,,,,2022-03-22,1,,,,,ネコノテ,0
1775,9080001024817,新規,0,2022-03-22,2022-03-22,株式会社森福,,株式会社,静岡県,静岡市駿河区,寺田２１８番地の１１,,22,102,4210137,,,,,,,2022-03-22,1,,,,,モリフク,0
1791,9120001244575,新規,0,2022-03-22,2022-03-22,株式会社ＤＬＩＧＨＴ,,株式会社,大阪府,大阪市住之江区,新北島５丁目１番１６号,,27,125,5590024,,,,,,,2022-03-22,1,,,,,ディライト,0
1795,9120101065269,新規,0,2022-03-22,2022-03-22,株式会社カイエン,,株式会社,大阪府,堺市西区,上野芝町５丁３－８－１０４,,27,144,5938301,,,,,,,2022-03-22,1,,,,,カイエン,0
1796,9120103004613,新規,0,2022-03-22,2022-03-22,合同会社Ｐａｓｓｉｏｎａｌｙ,,合同会社,大阪府,松原市,上田３丁目１－２３－１２０１,,27,217,5800016,,,,,,,2022-03-22,1,,,,,パッショナリー,0
1797,9120903004077,新規,0,2022-03-22,2022-03-22,合同会社サンヴェール,,合同会社,大阪府,高槻市,氷室町１丁目２番６号,,27,207,5691141,,,,,,,2022-03-22,1,,,,,サンヴェール,0
1800,9130001071366,新規,0,2022-03-22,2022-03-22,株式会社二十四節気,,株式会社,京都府,京都市中京区,河原町通御池下る下丸屋町３９０番地２,,26,104,6048006,,,,,,,2022-03-22,1,,,,,ニジュウシセッキ,0
1801,9130003007814,新規,0,2022-03-22,2022-03-22,合同会社Ｙ．Ｋ．オフィス,,合同会社,京都府,京都市左京区,下鴨森本町２５－１－２０７,,26,103,6060805,,,,,,,2022-03-22,1,,,,,ワイケーオフィス,0
1803,9140001125311,新規,0,2022-03-22,2022-03-22,株式会社エール関西,,株式会社,兵庫県,西宮市,川西町８番１６号,,28,204,6620951,,,,,,,2022-03-22,1,,,,,エールカンサイ,0
1804,9140003017473,新規,0,2022-03-22,2022-03-22,合同会社Ｓｅａ　Ｔｈｅ　Ｉｎｆｉｎｉｔｙ,,合同会社,兵庫県,加古郡播磨町,西野添５丁目２－１１エルパセオＩＩＩ２０３,00126021,28,382,6750160,,,,,,,2022-03-22,1,,,,,シーザインフィニティ,0
1805,9140005026084,新規,0,2022-03-22,2022-03-22,一般社団法人Ｆｒｅｅｌｙ,,その他の設立登記法人,兵庫県,神戸市北区,桂木２丁目３５番地Ｂ－２０９号,,28,109,6511223,,,,,,,2022-03-22,1,,,,,フリーリィー,0
1808,9180001150479,新規,0,2022-03-22,2022-03-22,株式会社オルソガーデンズ,,株式会社,愛知県,一宮市,萩原町高松字川田４番１,,23,203,4910373,,,,,,,2022-03-22,1,,,,,オルソガーデンズ,0
1814,9180303005281,新規,0,2022-03-22,2022-03-22,もも会計合同会社,,合同会社,愛知県,豊橋市,弥生町字西豊和５番地５（３０１）,,23,201,4418106,,,,,,,2022-03-22,1,,,,,モモカイケイ,0
1815,9190001029243,新規,0,2022-03-22,2022-03-22,朝日パシフィックコースト株式会社,,株式会社,三重県,志摩市,阿児町国府字下ノ東１番地１０,,24,215,5170506,,,,,,,2022-03-22,1,,,,,アサヒパシフィックコースト,0
1818,9200003005505,新規,0,2022-03-22,2022-03-22,合同会社Ｆｕｌｌｎｅｓｓ,,合同会社,岐阜県,岐阜市,松風町１丁目２番地２,,21,201,5020833,,,,,,,2022-03-22,1,,,,,フルネス,0
1819,9230003001823,新規,0,2022-03-22,2022-03-22,合同会社堀工業,,合同会社,富山県,富山市,金代８５番地２金代ロイヤルハイツ,,16,201,9300926,,,,,,,2022-03-22,1,,,,,ホリコウギョウ,0
1823,9240001059482,新規,0,2022-03-22,2022-03-22,株式会社したみ,,株式会社,広島県,東広島市,西条町寺家１３２７番地３,,34,212,7390041,,,,,,,2022-03-22,1,,,,,シタミ,0
1826,9290001096777,新規,0,2022-03-22,2022-03-22,九州東芝ハウジング株式会社,,株式会社,福岡県,福岡市中央区,長浜２丁目４番１号,,40,133,8100072,,,,,,,2022-03-22,1,,,,,キュウシュウトウシバハウジング,0
1827,9290001096802,新規,0,2022-03-22,2022-03-22,ＦＵＬＡＬＡＢＯ株式会社,,株式会社,福岡県,福岡市早良区,原４丁目７番３２－８０３号,,40,137,8140022,,,,,,,2022-03-22,1,,,,,フララボ,0
1830,9290003012286,新規,0,2022-03-22,2022-03-22,合同会社ミモ,,合同会社,福岡県,福岡市博多区,博多駅前３丁目１９－２２石蔵ビル３階,,40,132,8120011,,,,,,,2022-03-22,1,,,,,ミモ,0
1833,9290801028343,新規,0,2022-03-22,2022-03-22,株式会社トータル・リペア,,株式会社,福岡県,北九州市小倉南区,若園３丁目１０番１５号,,40,107,8020816,,,,,,,2022-03-22,1,,,,,トータルリペア,0
1834,9290801028351,新規,0,2022-03-22,2022-03-22,株式会社プレインフェイス,,株式会社,福岡県,北九州市門司区,大里本町３丁目７－４７－８０３,,40,101,8000063,,,,,,,2022-03-22,1,,,,,プレインフェイス,0
1835,9290803004086,新規,0,2022-03-22,2022-03-22,合同会社邂逅舎ミュージックパブ,,合同会社,福岡県,北九州市小倉北区,長浜町１番１４号,,40,106,8020013,,,,,,,2022-03-22,1,,,,,カイコウシャミュージックパブ,0
1839,9330001029559,新規,0,2022-03-22,2022-03-22,株式会社ワタナベクリーンワークス,,株式会社,熊本県,熊本市南区,城南町沈目１６８８番地１,,43,104,8614215,,,,,,,2022-03-22,1,,,,,ワタナベクリーンワークス,0
1855,9430001086235,新規,0,2022-03-22,2022-03-22,株式会社ＲＯＭＥＳ,,株式会社,北海道,札幌市中央区,南九条西４丁目３ー１　２Ｆ,,01,101,0640809,,,,,,,2022-03-22,1,,,,,ロメス,0
1861,9490003001640,新規,0,2022-03-22,2022-03-22,合同会社えくぼ,,合同会社,高知県,須崎市,安和６５０番地３,,39,206,7850024,,,,,,,2022-03-22,1,,,,,エクボ,0
1864,9700150022780,新規,0,2022-03-22,2015-10-09,舞子観光協会,,その他,新潟県,南魚沼市,姥島新田２３２－７１,,15,226,9496425,,,,,,,2015-10-09,1,,,,,マイコカンコウキヨウカイ,0
