sequenceNumber,corporateNumber,process,correct,updateDate,changeDate,name,nameImageId,kind,prefectureName,cityName,streetNumber,addressImageId,prefectureCode,cityCode,postCode,addressOutside,addressOutsideImageId,closeDate,closeCause,successorCorporateNumber,changeCause,assignmentDate,latest,enName,enPrefectureName,enCityName,enAddressOutside,furigana,hihyoji
18,1010001244809,新規,0,2024-05-28,2024-05-28,株式会社ＷＨ,,株式会社,東京都,中央区,銀座１丁目１２番４号Ｎ＆ＥＢＬＤ．６Ｆ,,13,102,1040061,,,,,,,2024-05-28,1,,,,,ダブルユーエイチ,0
22,1010003043861,新規,0,2024-05-28,2024-05-28,アトレイド合同会社,,合同会社,東京都,中央区,銀座１丁目１２番４号,,13,102,1040061,,,,,,,2024-05-28,1,,,,,アトレイド,0
23,1010103002362,新規,0,2024-05-28,2024-05-28,合同会社Ｓｗｅｅｐ,,合同会社,東京都,八王子市,松が谷１８番地３－４０５,,13,201,1920354,,,,,,,2024-05-28,1,,,,,,0
28,1010401182559,新規,0,2024-05-28,2024-05-28,日本えだもの株式会社,,株式会社,東京都,港区,三田３丁目２－４,,13,103,1080073,,,,,,,2024-05-28,1,,,,,ニホンエダモノ,0
29,1010401182699,新規,0,2024-05-28,2024-05-28,株式会社エアリク,,株式会社,東京都,港区,六本木３丁目７－１ザ・六本木東京クラブレジデンス３２０６,,13,103,1060032,,,,,,,2024-05-28,1,,,,,エアリク,0
32,1010403032704,新規,0,2024-05-28,2024-05-28,ＳＭＡＳＨ国際アドバイザリー合同会社,,合同会社,東京都,港区,高輪３丁目２３番１７号品川センタービルディング８０９号室,,13,103,1080074,,,,,,,2024-05-28,1,,,,,スマッシュコクサイアドバイザリー,0
34,1010501052348,新規,0,2024-05-28,2024-05-28,株式会社ＭＩＹＡＶＩ,,株式会社,東京都,台東区,三筋２丁目２０番７号,,13,106,1110055,,,,,,,2024-05-28,1,,,,,ミヤビ,0
35,1010601065290,新規,0,2024-05-28,2024-05-28,株式会社バイナリーアタリエ,,株式会社,東京都,江東区,豊洲５丁目１番１３－３００５号,,13,108,1350061,,,,,,,2024-05-28,1,,,,,バイナリーアタリエ,0
44,1010901055355,新規,0,2024-05-28,2024-05-28,株式会社ＳＴＵＤＩＯ８８,,株式会社,東京都,世田谷区,代田６丁目３０番１１号ラ・ポレール代田１０１,,13,112,1550033,,,,,,,2024-05-28,1,,,,,スタジオハチジュウハチ,0
48,1011001162281,新規,0,2024-05-28,2024-05-28,Ａｒｃ　Ｌａｂ株式会社,,株式会社,東京都,渋谷区,桜丘町２２番６号プライマル渋谷桜丘４０６,,13,113,1500031,,,,,,,2024-05-28,1,,,,,アークラボ,0
49,1011001162298,新規,0,2024-05-28,2024-05-28,株式会社植草葉月,,株式会社,東京都,渋谷区,渋谷２丁目１９－１５宮益坂ビルディング６０９,,13,113,1500002,,,,,,,2024-05-28,1,,,,,ウエクサハヅキ,0
51,1011003019273,新規,0,2024-05-28,2024-05-28,合同会社カゾシステム,,合同会社,東京都,渋谷区,渋谷２丁目１９‐１５宮益坂ビルディング６０９,,13,113,1500002,,,,,,,2024-05-28,1,,,,,カゾシステム,0
54,1011101107467,新規,0,2024-05-28,2024-05-28,株式会社リアレ,,株式会社,東京都,新宿区,新宿２丁目８番１号新宿セブンビル２０５,,13,104,1600022,,,,,,,2024-05-28,1,,,,,リアレ,0
55,1011103014331,新規,0,2024-05-28,2024-05-28,デジタルディレクト合同会社,,合同会社,東京都,新宿区,西新宿３丁目５－３ダイヤモンドパレス７０８,,13,104,1600023,,,,,,,2024-05-28,1,,,,,デジタルディレクト,0
57,1011301029701,新規,0,2024-05-28,2024-05-28,株式会社ＳＳＫ,,株式会社,東京都,杉並区,高円寺北３丁目２７番６号,,13,115,1660002,,,,,,,2024-05-28,1,,,,,エスエスケー,0
58,1011401026128,新規,0,2024-05-28,2024-05-28,株式会社ＲＩＮＮＥ,,株式会社,東京都,板橋区,高島平３丁目２－３Ｂ号,,13,119,1750082,,,,,,,2024-05-28,1,,,,,リニー,0
62,1011603004352,新規,0,2024-05-28,2024-05-28,合同会社リトー,,合同会社,東京都,練馬区,錦１丁目２５－２５ネコパレス２３５,,13,120,1790082,,,,,,,2024-05-28,1,,,,,リトー,0
66,1011703003840,新規,0,2024-05-28,2024-05-28,瑞遠合同会社,,合同会社,東京都,江戸川区,本一色２丁目１８－２,,13,123,1330044,,,,,,,2024-05-28,1,,,,,ズイエン,0
68,1011801044241,新規,0,2024-05-28,2024-05-28,谷商事株式会社,,株式会社,東京都,葛飾区,お花茶屋２丁目１７番７号,,13,122,1240003,,,,,,,2024-05-28,1,,,,,タニショウジ,0
69,1011801044290,新規,0,2024-05-28,2024-05-28,株式会社岩澤,,株式会社,東京都,葛飾区,立石３丁目１９番１２号,,13,122,1240012,,,,,,,2024-05-28,1,,,,,イワサワ,0
73,1012401041918,新規,0,2024-05-28,2024-05-28,株式会社ＳＵＤＡＣＨＩ,,株式会社,東京都,武蔵野市,吉祥寺東町１丁目２０番３号,,13,203,1800002,,,,,,,2024-05-28,1,,,,,スダチ,0
75,1012701018277,新規,0,2024-05-28,2024-05-28,株式会社エステートプラン,,株式会社,東京都,小平市,学園東町１丁目３番１４－８０２号,,13,211,1870043,,,,,,,2024-05-28,1,,,,,エステートプラン,0
92,1020001157407,新規,0,2024-05-28,2024-05-28,株式会社屋島運輸,,株式会社,神奈川県,横浜市鶴見区,駒岡５丁目２０番地８号,,14,101,2300071,,,,,,,2024-05-28,1,,,,,,0
101,1020005016427,新規,0,2024-05-28,2024-05-28,一般社団法人日本タイ人インフルエンサー協会,,その他の設立登記法人,神奈川県,横浜市西区,浅間町１丁目４番３号,,14,103,2200072,,,,,,,2024-05-28,1,,,,,ニホンタイジンインフルエンサーキョウカイ,0
103,1021001082289,新規,0,2024-05-28,2024-05-28,Ｅｌｉｔｅ　Ｓｏｌｕｔｉｏｎ株式会社,,株式会社,神奈川県,相模原市中央区,相模原５丁目１１‐１‐７０３,,14,152,2520231,,,,,,,2024-05-28,1,,,,,エリートソリューション,0
112,1030001160590,新規,0,2024-05-28,2024-05-28,株式会社ケープラス,,株式会社,埼玉県,川口市,朝日３丁目１３番４号,,11,203,3320001,,,,,,,2024-05-28,1,,,,,ケープラス,0
113,1030001160632,新規,0,2024-05-28,2024-05-28,株式会社持続可能計画研究所,,株式会社,埼玉県,蓮田市,藤ノ木４丁目９１番地１,,11,238,3490105,,,,,,,2024-05-28,1,,,,,ジゾクカノウケイカクケンキュウジョ,0
122,1040003025072,新規,0,2024-05-28,2024-05-28,合同会社ｗｉｔｈ　ａ　ＳＭＩＬＥ,,合同会社,千葉県,市川市,北方町４丁目２１５７番地,,12,203,2720811,,,,,,,2024-05-28,1,,,,,ウィズアスマイル,0
124,1060001037142,新規,0,2024-05-28,2024-05-28,山本ホールディングス株式会社,,株式会社,栃木県,宇都宮市,下戸祭１丁目９番５号,,09,201,3200055,,,,,,,2024-05-28,1,,,,,ヤマモトホールディングス,0
126,1080401027212,新規,0,2024-05-28,2024-05-28,クレステック株式会社,,株式会社,静岡県,浜松市中央区,下江町３４番地の３,,22,138,4300825,,,,,,,2024-05-28,1,,,,,クレステック,0
133,1100003007568,新規,0,2024-05-28,2024-05-28,合同会社群城,,合同会社,長野県,松本市,大字和田８０００番地４９３,,20,202,3901242,,,,,,,2024-05-28,1,,,,,グンジョウ,0
145,1120001265315,新規,0,2024-05-28,2024-05-28,株式会社ＦＤＳ,,株式会社,大阪府,大阪市東住吉区,住道矢田８丁目７－３－３０３,,27,121,5460022,,,,,,,2024-05-28,1,,,,,エフディーエス,0
146,1120001265331,新規,0,2024-05-28,2024-05-28,Ｃｒｅａｔｅｃｈ株式会社,,株式会社,大阪府,大阪市城東区,関目５丁目１９番９号関目花博公館５０８Ｂ,,27,118,5360008,,,,,,,2024-05-28,1,,,,,クレアテック,0
147,1120001265348,新規,0,2024-05-28,2024-05-28,株式会社辻井金属製作所,00134931,株式会社,大阪府,門真市,四宮３丁目３番４１号,,27,223,5710017,,,,,,,2024-05-28,1,,,,,ツジイキンゾクセイサクショ,0
150,1120003026681,新規,0,2024-05-28,2024-05-28,合同会社ＣＲＥＡＳ,,合同会社,大阪府,大阪市西区,川口３丁目１番２１号３０４号室,,27,106,5500021,,,,,,,2024-05-28,1,,,,,クレアス,0
151,1120003026698,新規,0,2024-05-28,2024-05-28,合同会社ハルキ,,合同会社,大阪府,大阪市東淀川区,豊新２丁目３－６－２階,,27,114,5330014,,,,,,,2024-05-28,1,,,,,ハルキ,0
152,1120005024345,新規,0,2024-05-28,2024-05-28,一般社団法人Ｊａｐａｎｅｓｅ　Ｗｈｉｓｋｙ　Ｉｎｔｅｒｎａｔｉｏｎａｌ　Ｃｏｕｎｃｉｌ,,その他の設立登記法人,大阪府,大阪市中央区,高麗橋４丁目８番１０号パークコート淀屋橋ビル３Ｆ,,27,128,5410043,,,,,,,2024-05-28,1,,,,,ジャパニーズウイスキーインターナショナルカウンシル,0
153,1120103005858,新規,0,2024-05-28,2024-05-28,合同会社Ｍ＆Ｋ,,合同会社,大阪府,松原市,天美東２丁目１３６番地の３（１３０９号）,,27,217,5800032,,,,,,,2024-05-28,1,,,,,エムアンドケー,0
155,1120901049230,新規,0,2024-05-28,2024-05-28,株式会社ＰＦ,,株式会社,大阪府,豊中市,新千里南町３丁目３４番５号,,27,203,5600084,,,,,,,2024-05-28,1,,,,,ピーエフ,0
159,1122001038130,新規,0,2024-05-28,2024-05-28,株式会社ＷＥＡＲ　ＣＯＭＰＡＮＹ　ＪＡＰＡＮ,,株式会社,大阪府,八尾市,高美町４丁目１３番２４号,,27,212,5810017,,,,,,,2024-05-28,1,,,,,ウェアカンパニージャパン,0
168,1160001025954,新規,0,2024-05-28,2024-05-28,株式会社鳶助興業,,株式会社,滋賀県,栗東市,下戸山１４７０番地１－２０５号,,25,208,5203011,,,,,,,2024-05-28,1,,,,,トビスケコウギョウ,0
183,1180001161649,新規,0,2024-05-28,2024-05-28,株式会社ユネクト,,株式会社,愛知県,名古屋市熱田区,二番１丁目９番５号,,23,109,4560052,,,,,,,2024-05-28,1,,,,,ユネクト,0
184,1180001161698,新規,0,2024-05-28,2024-05-28,株式会社ウォーク,,株式会社,愛知県,名古屋市瑞穂区,膳棚町１丁目４６番地,00134927,23,108,4670013,,,,,,,2024-05-28,1,,,,,ウォーク,0
192,1200003006361,新規,0,2024-05-28,2024-05-28,Ｆ＆Ｆ合同会社,,合同会社,岐阜県,羽島市,小熊町島２丁目１６番地,,21,209,5016264,,,,,,,2024-05-28,1,,,,,エフアンドエフ,0
193,1210001019744,新規,0,2024-05-28,2024-05-28,株式会社山口グループホールディングス,,株式会社,福井県,敦賀市,津内８５－５－１,,18,202,9140000,,,,,,,2024-05-28,1,,,,,ヤマグチグループホールディングス,0
201,1240003006688,新規,0,2024-05-28,2024-05-28,Ｙｕｍｉｒ合同会社,,合同会社,広島県,呉市,焼山北３丁目３４番１５－２０２号,,34,202,7370911,,,,,,,2024-05-28,1,,,,,ユミル,0
203,1250001020665,新規,0,2024-05-28,2024-05-28,株式会社ＣＬＳホールディングス,,株式会社,山口県,光市,光井１丁目２５番２０号,,35,210,7430011,,,,,,,2024-05-28,1,,,,,シーエルエスホールディングス,0
204,1250003003511,新規,0,2024-05-28,2024-05-28,合同会社チェドロ,,合同会社,山口県,山口市,富田原町３番２５号,,35,203,7530054,,,,,,,2024-05-28,1,,,,,チェドロ,0
209,1260001039110,新規,0,2024-05-28,2024-05-28,株式会社シャイン,,株式会社,岡山県,岡山市南区,福島４丁目１９番４号,,33,104,7028044,,,,,,,2024-05-28,1,,,,,シャイン,0
211,1260003004715,新規,0,2024-05-28,2024-05-28,合同会社ＨＵＧ,,合同会社,岡山県,岡山市中区,江並２０１番地２３,,33,102,7028004,,,,,,,2024-05-28,1,,,,,ハグ,0
221,1290001105941,新規,0,2024-05-28,2024-05-28,紀帆株式会社,,株式会社,福岡県,福岡市西区,今宿駅前１丁目９番５号,,40,135,8190168,,,,,,,2024-05-28,1,,,,,キホ,0
226,1290003015362,新規,0,2024-05-28,2024-05-28,合同会社ｉｅ．ｓ,,合同会社,福岡県,八女市,本村８１７番地１８,,40,210,8340063,,,,,,,2024-05-28,1,,,,,イエッス,0
231,1330001032099,新規,0,2024-05-28,2024-05-28,株式会社ｔｏ,,株式会社,熊本県,熊本市東区,湖東３丁目７番１７号,,43,102,8620909,,,,,,,2024-05-28,1,,,,,ティーオー,0
237,1340003004491,新規,0,2024-05-28,2024-05-28,合同会社ケータルビジネス鹿児島,,合同会社,鹿児島県,鹿児島市,武１丁目２番１０号ＪＲ鹿児島中央ビル４階,,46,201,8900045,,,,,,,2024-05-28,1,,,,,ケータルビジネスカゴシマ,0
239,1360001033722,新規,0,2024-05-28,2024-05-28,株式会社マルゼン,,株式会社,沖縄県,石垣市,字登野城６３０番地１９,,47,207,9070004,,,,,,,2024-05-28,1,,,,,マルゼン,0
261,1430001091894,新規,0,2024-05-28,2024-05-28,株式会社サクラの森,,株式会社,北海道,札幌市南区,澄川六条５丁目４番１７号１０５号室,,01,106,0050006,,,,,,,2024-05-28,1,,,,,サクラノモリ,0
277,1700150115749,新規,0,2024-05-28,2023-04-26,北海道技術・ビジネス交流会実行委員会,,その他,北海道,札幌市北区,北二十一条西１２丁目コラボほっかいどう　公益財団法人北海道科学技術総合振興センター内,,01,102,0010021,,,,,,,2023-04-26,1,,,,,ホツカイドウギジユツビジネスコウリユウカイジツコウイインカイ,0
278,1700150118883,新規,0,2024-05-28,2024-05-28,ＺＨＵＨＡＩＪＩＤＡＨＵＡＰＵＩＮＳＴＲＵＭＥＮＴ　ＣＯ．，ＬＴＤ．,,外国会社等,,,,,,,,ＲＯＯＭ　５０１，ＢＵＩＬＤ　１，ＮＯ．１９　ＹＯＮＧＴＩＡＮ　ＲＯＡＤ，ＺＨＵＨＡＩ，ＧＵＡＮＧＤＯＮＧ,,,,,,2024-05-28,1,,,,,ジュウハイシジダホワプゥイチイ,0
279,1700150123157,新規,0,2024-05-28,2024-05-28,ＳＰＲＩＮＧ　ＳＵＮＳＨＩＮＥ　ＴＥＣＨＮＯＬＯＧＹ　ＣＯ．，ＬＩＭＩＴＥＤ,,外国会社等,,,,,,,,ＦＬＡＴ／ＲＭ　０１－０４　２４／Ｆ　ＦＵ　ＦＡＩ　ＣＯＭＭＥＲＣＩＡＬ　ＣＥＮＴＲＥ　２７　ＨＩＬＬＩＥＲ　ＳＴＲＥＥＴ　ＳＨＥＵＮＧ　ＷＡＮ　ＨＫ,,,,,,2024-05-28,1,,,,,スプリングサンシャインテクノロジーカンパニーリミテッド,0
280,1700150125129,新規,0,2024-05-28,2024-04-25,美濃太田駅南地区市街地再開発準備組合,,その他,岐阜県,美濃加茂市,太田町１７５２－１,,21,211,5050041,,,,,,,2024-04-25,1,,,,,ミノオオタエキミナミチクシガイチサイカイハツジユンビクミアイ,0
281,1700150125599,新規,0,2024-05-28,2024-05-28,Ｎｉｎｇｂｏｒｏｕｚｈｉｋｅｊｉｙｏｕｘｉａｎｇｏｎｇｓｉ,,外国会社等,,,,,,,,Ｒｏｏｍ　５０４－３，Ｎｏ．１１０７，Ｔｉａｎｔｏｎｇ　Ｎｏｒｔｈ　Ｒｏａｄ，Ｚｈｏｎｇｈｅ　Ｓｔｒｅｅｔ，Ｙｉｎｚｈｏｕ　Ｄｉｓｔｒｉｃｔ，Ｎｉｎｇｂｏ　Ｃｉｔｙ，Ｚｈｅｊｉａｎｇ　Ｐｒｏｖｉｎｃｅ,,,,,,2024-05-28,1,,,,,ニンボーロウジーコージーヨウシエンゴンスー,0
289,2010001245046,新規,0,2024-05-28,2024-05-28,ＳＡＫＵＲＡＭＢＯ株式会社,,株式会社,東京都,千代田区,六番町１５番地２号,,13,101,1020085,,,,,,,2024-05-28,1,,,,,サクランボ,0
290,2010001245145,新規,0,2024-05-28,2024-05-28,株式会社ＴＫニューマテリアル,,株式会社,東京都,中央区,新川１丁目７番２号今井ビル４Ｆ,,13,102,1040033,,,,,,,2024-05-28,1,,,,,ティーケーニューマテリアル,0
294,2010101016165,新規,0,2024-05-28,2024-05-28,株式会社ＨＡＲＵＫＡ,,株式会社,東京都,八王子市,別所１丁目１６－４ヴィラ・エスポワール２０３,,13,201,1920363,,,,,,,2024-05-28,1,,,,,,0
295,2010103002361,新規,0,2024-05-28,2024-05-28,リーガルアプローチ合同会社,,合同会社,東京都,八王子市,狭間町１９５３番地４,,13,201,1930941,,,,,,,2024-05-28,1,,,,,リーガルアプローチ,0
301,2010405023270,新規,0,2024-05-28,2024-05-28,一般社団法人ジーシーピー２,,その他の設立登記法人,東京都,港区,元赤坂１丁目１番８号株式会社赤坂国際会計内,,13,103,1070051,,,,,,,2024-05-28,1,,,,,ジーシーピーツー,0
304,2010601065273,新規,0,2024-05-28,2024-05-28,龍運株式会社,,株式会社,東京都,墨田区,業平２丁目１２番３－４０５号,,13,107,1300002,,,,,,,2024-05-28,1,,,,,リュウウン,0
305,2010601065281,新規,0,2024-05-28,2024-05-28,株式会社ＳＥＡ,,株式会社,東京都,江東区,佐賀１丁目７番４号グランイーグル門前仲町９０２,,13,108,1350031,,,,,,,2024-05-28,1,,,,,シー,0
312,2011001162306,新規,0,2024-05-28,2024-05-28,Ｃｏｍｐａｓｓ　Ｈｏｌｄｉｎｇｓ株式会社,,株式会社,東京都,渋谷区,恵比寿４丁目２０番３号恵比寿ガーデンプレイスタワー１８階,,13,113,1500013,,,,,,,2024-05-28,1,,,,,コンパスホールディングス,0
313,2011003019223,新規,0,2024-05-28,2024-05-28,Ｅｎ　Ｐａｒａ合同会社,,合同会社,東京都,渋谷区,円山町５－５－３Ｆ,,13,113,1500044,,,,,,,2024-05-28,1,,,,,,0
314,2011005010493,新規,0,2024-05-28,2024-05-28,一般社団法人ｌｉｒｆａ,,その他の設立登記法人,東京都,渋谷区,道玄坂１丁目１０番８号渋谷道玄坂東急ビル２Ｆ－Ｃ,,13,113,1500043,,,,,,,2024-05-28,1,,,,,リーファ,0
316,2011101107458,新規,0,2024-05-28,2024-05-28,チャイルドブレイン株式会社,,株式会社,東京都,新宿区,西新宿３丁目３番１３号西新宿水間ビル２Ｆ,,13,104,1600023,,,,,,,2024-05-28,1,,,,,チャイルドブレイン,0
322,2011401026119,新規,0,2024-05-28,2024-05-28,株式会社ＶＩＭ,,株式会社,東京都,板橋区,高島平８丁目１５番１０号パレット高島平４２３,,13,119,1750082,,,,,,,2024-05-28,1,,,,,ヴィム,0
326,2011603004351,新規,0,2024-05-28,2024-05-28,合同会社忠恕,,合同会社,東京都,練馬区,旭丘１丁目７３番３号,,13,120,1760005,,,,,,,2024-05-28,1,,,,,チュウジョ,0
331,2012705002409,新規,0,2024-05-28,2024-05-28,一般社団法人日本プロアイスホッケー機構,,その他の設立登記法人,東京都,西東京市,富士町４丁目１３番２４号東伏見加藤ビル３階,,13,229,2020014,,,,,,,2024-05-28,1,,,,,ニホンプロアイスホッケーキコウ,0
340,2020001157430,新規,0,2024-05-28,2024-05-28,ＤＥＨＮ　ＪＡＰＡＮ株式会社,,株式会社,神奈川県,横浜市中区,桜木町１丁目１番７号ヒューリックみなとみらい１０階,,14,104,2310062,,,,,,,2024-05-28,1,,,,,デーンジャパン,0
348,2030001160425,新規,0,2024-05-28,2024-05-28,ＹＡＳ株式会社,,株式会社,埼玉県,川越市,大字今福８１５番地１５,,11,201,3501151,,,,,,,2024-05-28,1,,,,,ワイエーエス,0
349,2030001160532,新規,0,2024-05-28,2024-05-28,株式会社ワンハンドレッド,,株式会社,埼玉県,草加市,松原３丁目８番１－３１７号,,11,221,3400041,,,,,,,2024-05-28,1,,,,,ワンハンドレッド,0
350,2030001160565,新規,0,2024-05-28,2024-05-28,株式会社ＭＡＧＮＯＬＩＡ,,株式会社,埼玉県,川越市,新富町１丁目６番地１１ＴＤＵビル１０１号,,11,201,3500043,,,,,,,2024-05-28,1,,,,,マグノリア,0
351,2030001160581,新規,0,2024-05-28,2024-05-28,豊江通商株式会社,,株式会社,埼玉県,吉川市,吉川団地２番７号４０６,,11,243,3420054,,,,,,,2024-05-28,1,,,,,トヨコウツウショウ,0
356,2030005021680,新規,0,2024-05-28,2024-05-28,特定非営利活動法人国際人材共育サポート,,その他の設立登記法人,埼玉県,熊谷市,銀座２丁目３３番熊谷クレセントビル５階Ａ,,11,202,3600032,,,,,,,2024-05-28,1,,,,,コクサイジンザイキョウイクサポート,0
358,2040001133776,新規,0,2024-05-28,2024-05-28,株式会社アルカンシェルホーム,,株式会社,千葉県,松戸市,日暮２丁目６番地１清水ビル３０６号室,,12,207,2702253,,,,,,,2024-05-28,1,,,,,アルカンシェルホーム,0
359,2040001133784,新規,0,2024-05-28,2024-05-28,株式会社ちんたろう,,株式会社,千葉県,市川市,八幡３丁目３番２－３１０３号（グランドターミナルタワー本八幡）,,12,203,2720021,,,,,,,2024-05-28,1,,,,,チンタロウ,0
379,2100001037483,新規,0,2024-05-28,2024-05-28,株式会社Ｃｏｎｉ,,株式会社,長野県,松本市,深志２丁目２番６号加納ビル１Ｆ,,20,202,3900815,,,,,,,2024-05-28,1,,,,,コニ,0
384,2120001265330,新規,0,2024-05-28,2024-05-28,弘元泰株式会社,,株式会社,大阪府,大阪市東成区,深江北３丁目４番２１号エクラ深江橋７１２Ｃ,,27,115,5370001,,,,,,,2024-05-28,1,,,,,コウゲンタイ,0
385,2120001265347,新規,0,2024-05-28,2024-05-28,ＡＳＥＴ株式会社,,株式会社,大阪府,大阪市西区,南堀江３丁目９番２１－４０３号,,27,106,5500015,,,,,,,2024-05-28,1,,,,,エーセット,0
386,2120001265355,新規,0,2024-05-28,2024-05-28,株式会社ＫＧＡＩＲ,,株式会社,大阪府,寝屋川市,香里新町３番２２－２０６号,,27,215,5720085,,,,,,,2024-05-28,1,,,,,ケージーエアー,0
387,2120001265363,新規,0,2024-05-28,2024-05-28,株式会社ＲＭＳ,,株式会社,大阪府,枚方市,東香里１丁目１７番７号,,27,210,5730075,,,,,,,2024-05-28,1,,,,,アールエムエス,0
388,2120001265388,新規,0,2024-05-28,2024-05-28,株式会社ＢＬＭ,,株式会社,大阪府,大阪市天王寺区,東高津町５－１０－３０１,,27,109,5430021,,,,,,,2024-05-28,1,,,,,ビーエルエム,0
390,2120003026672,新規,0,2024-05-28,2024-05-28,合同会社アーバンカードスタジオ,,合同会社,大阪府,大阪市北区,梅田１丁目１－３大阪駅前第３ビル２９階１－１－１号室,,27,127,5300001,,,,,,,2024-05-28,1,,,,,アーバンカードスタジオ,0
391,2120003026680,新規,0,2024-05-28,2024-05-28,ＲＥＸ　ＪＡＰＡＮ貿易合同会社,,合同会社,大阪府,大阪市西区,南堀江２丁目１０番２６号５０１号室,,27,106,5500015,,,,,,,2024-05-28,1,,,,,レックスジャパンボウエキ,0
392,2120003026689,新規,0,2024-05-28,2024-05-28,合同会社カミライズ,,合同会社,大阪府,大阪市北区,梅田１丁目２番２号大阪駅前第２ビル１２－１２,,27,127,5300001,,,,,,,2024-05-28,1,,,,,カミライズ,0
401,2120901049221,新規,0,2024-05-28,2024-05-28,株式会社ＡＳ,,株式会社,大阪府,高槻市,奈佐原２丁目６番９－３０４号,,27,207,5691041,,,,,,,2024-05-28,1,,,,,エーエス,0
407,2130001077122,新規,0,2024-05-28,2024-05-28,馬周株式会社,,株式会社,京都府,京都市山科区,御陵原西町１０番地９－２０２号室,,26,110,6078424,,,,,,,2024-05-28,1,,,,,バシュウ,0
420,2140001134541,新規,0,2024-05-28,2024-05-28,株式会社プールトワ,,株式会社,兵庫県,芦屋市,楠町１５－７,,28,206,6590015,,,,,,,2024-05-28,1,,,,,プールトワ,0
421,2140001134574,新規,0,2024-05-28,2024-05-28,株式会社Ｌｉｎｏａｓ．,,株式会社,兵庫県,加東市,南山５丁目１８番地１５,,28,228,6731341,,,,,,,2024-05-28,1,,,,,リノアス,0
422,2140001134582,新規,0,2024-05-28,2024-05-28,株式会社Ｎｅｘｌｙ,,株式会社,兵庫県,伊丹市,野間８丁目４番１１－２号,,28,207,6640873,,,,,,,2024-05-28,1,,,,,ネクスリー,0
428,2140003020616,新規,0,2024-05-28,2024-05-28,合同会社スマイルサポート,,合同会社,兵庫県,尼崎市,西長洲町３丁目３番１０号,,28,202,6600805,,,,,,,2024-05-28,1,,,,,スマイルサポート,0
434,2180001161680,新規,0,2024-05-28,2024-05-28,スマイル介護福祉センター株式会社,,株式会社,愛知県,名古屋市千種区,松軒１丁目９番１０号,,23,101,4640084,,,,,,,2024-05-28,1,,,,,スマイルカイゴフクシセンター,0
436,2180003026774,新規,0,2024-05-28,2024-05-28,ＳＰ合同会社,,合同会社,愛知県,一宮市,花池３丁目１３番８号,,23,203,4910914,,,,,,,2024-05-28,1,,,,,エスピー,0
437,2180301038678,新規,0,2024-05-28,2024-05-28,株式会社ジェイブプラス,,株式会社,愛知県,額田郡幸田町,大字野場字上市場３３番地,,23,501,4440128,,,,,,,2024-05-28,1,,,,,ジェイブプラス,0
448,2240001063284,新規,0,2024-05-28,2024-05-28,株式会社ＲＥＰＯＳ,,株式会社,広島県,廿日市市,串戸５丁目５－６－４０３,,34,213,7380033,,,,,,,2024-05-28,1,,,,,ルポ,0
454,2270003001628,新規,0,2024-05-28,2024-05-28,アセント・テクノロジーズ合同会社,,合同会社,鳥取県,鳥取市,徳吉２６８番地４,,31,201,6800933,,,,,,,2024-05-28,1,,,,,アセントテクノロジーズ,0
459,2290003015353,新規,0,2024-05-28,2024-05-28,合同会社ＣＣＳ英会話スクール,,合同会社,福岡県,福岡市中央区,天神４丁目５番１０号チサンマンション天神ＩＩ６０３号,00134935,40,133,8100001,,,,,,,2024-05-28,1,,,,,シーシーエスエイカイワスクール,0
462,2300003002127,新規,0,2024-05-28,2024-05-28,ｍｏｍｏ合同会社,,合同会社,佐賀県,唐津市,和多田西山１２－６８,,41,202,8470084,,,,,,,2024-05-28,1,,,,,モモ,0
463,2310001019031,新規,0,2024-05-28,2024-05-28,王洋株式会社,,株式会社,長崎県,長崎市,愛宕２丁目１０番７号ホワイトパレスＡ－１,,42,201,8500822,,,,,,,2024-05-28,1,,,,,オウヨウ,0
465,2330001032098,新規,0,2024-05-28,2024-05-28,株式会社ＵＰＬＩＦＥ,,株式会社,熊本県,熊本市北区,龍田３丁目１９番４号,,43,105,8618006,,,,,,,2024-05-28,1,,,,,アップライフ,0
471,2340002028697,新規,0,2024-05-28,2024-05-28,有限会社正村ハイツ,,有限会社,鹿児島県,鹿児島市,日之出町４２番１４号,,46,201,8900086,,,,,,,2024-05-28,1,,,,,ショウムラハイツ,0
472,2340003004490,新規,0,2024-05-28,2024-05-28,合同会社今村ボーリング,,合同会社,鹿児島県,姶良市,蒲生町上久徳２７２５番地１－１０４号,,46,225,8995302,,,,,,,2024-05-28,1,,,,,イマムラボーリング,0
481,2400005008418,新規,0,2024-05-28,2024-05-28,一般社団法人花巻ヤングクラブ,,その他の設立登記法人,岩手県,花巻市,双葉町３番２号,,03,205,0250085,,,,,,,2024-05-28,1,,,,,ハナマキヤンググラブ,0
500,2700150119419,新規,0,2024-05-28,2024-05-28,Ｑｉｎｇｄａｏ　Ｄｏｎｇｙｕｅ　Ａｒｔｓ　＆　Ｃｒａｆｔｓ　Ｃｏ．，Ｌｔｄ,,外国会社等,,,,,,,,Ｒｏｏｍ　１００１，Ｂｕｉｌｄｉｎｇ　３，Ｖａｎｋｅ　Ｆｕｔｕｒｅ　Ｃｉｔｙ，Ｓｉｌｉｕｎａｎ　６６ｔｈ　Ｒｏａｄ，Ｓｈｉｂｅｉ　Ｄｉｓｔｒｉｃｔ，Ｑｉｎｇｄａｏ，Ｓｈａｎｄｏｎｇ,,,,,,2024-05-28,1,,,,,チンダオドンユエゴンイピンヨウシエンゴンス,0
501,2700150122587,新規,0,2024-05-28,2024-05-28,ＳＨＥＮＺＨＥＮ　ＨＯＮＧＪＩＡＮＴＯＵ　ＫＥＪＩ　ＹＯＵＸＩＡＮ　ＧＯＮＧＳＩ,,外国会社等,,,,,,,,Ｑｉａｎｈａｉ　Ｓｈｅｎｇａｎｇｈｅｚｕｏｑｕ　Ｎａｎｓｈａｎｊｉｅｄａｏ　Ｇｕｉｗａｎｓａｎｌｕ　９１ｈａｏ　Ｊｉｎｇｘｉｎｇｈａｉｓｈａｎｇｄａｓｈａ　１００３－１００５ｈａｏ　Ｓｈｅｎｚｈｅｎ　Ｇｕａｎｇｄｏｎｇ　５１８０００　ＣＮ,,,,,,2024-05-28,1,,,,,シェンジェンホンジエントウクージヨウシエンゴンス,0
502,2700150122604,新規,0,2024-05-28,2024-05-28,Ｐｉｎｔｏｏ　Ｃｏｒｐｏｒａｔｉｏｎ,,外国会社等,,,,,,,,６Ｆ　Ｎｏ．２１５　Ｂｅｉｘｉｎ　Ｒｄ．Ｓｅｃ．３，Ｘｉｎｄｉａｎ　Ｄｉｓｔｒｉｃｔ．,,,,,,2024-05-28,1,,,,,ピントオコーポレーション,0
503,2700150123148,新規,0,2024-05-28,2024-05-28,ＳＨＥＮＺＨＥＮＳＨＩ　ＨＵＡＹＵＡＮＴＯＮＧ　ＷＵＪＩＮＤＩＡＮＺＩ　ＹＯＵＸＩＡＮＧＯＮＧＳＩ,,外国会社等,,,,,,,,Ｌｏｎｇｇａｎｇｑｕ　Ｌｏｎｇｇａｎｇｊｉｅｄａｏ　Ｘｉｎｓｈｅｎｇｓｈｅｑｕ　ｄｉｓｈａｎｂｅｉｌｕ２ｈａｏ　ｑｉｄｏｎｇｙｉｌｏｕ　Ｓｈｅｎｚｈｅｎｓｈｉ　ｇｕａｎｇｄｏｎｇｓｈｅｎ　５１８１１６　ＣＮ,,,,,,2024-05-28,1,,,,,シェンジェンシフエイユアントンウージンディエンツヨウシエンゴンス,0
504,2700150124567,新規,0,2024-05-28,2024-03-26,日本理学書総目録刊行会,,その他,東京都,文京区,小日向４丁目６－１９,,13,105,1120006,,,,,,,2024-03-26,1,,,,,ニホンリガクシヨソウモクロクカンコウカイ,0
505,2700150125598,新規,0,2024-05-28,2024-05-28,Ｄｏｎｇｇｕａｎ　Ｍｉｎｇｓｈｕｎｔｏｎｇ　Ｔｒａｄｅ　Ｃｏ．，Ｌｔｄ．,,外国会社等,,,,,,,,Ｒｏｏｍ　１５０８，Ｎｏ．１２２　Ｗｅｓｔ　Ｈｏｕｊｉｅ　Ａｖｅｎｕｅ，Ｈｏｕｊｉｅ　Ｔｏｗｎ，Ｄｏｎｇｇｕａｎ　Ｃｉｔｙ，Ｇｕａｎｇｄｏｎｇ　Ｐｒｏｖｉｎｃｅ，Ｃｈｉｎａ,,,,,,2024-05-28,1,,,,,ドングワンシーミンシュントンマオイーヨウシエンゴンスー,0
512,3010001245094,新規,0,2024-05-28,2024-05-28,ＡＣＥ‐ＩＴＩ　ＪＡＰＡＮ株式会社,,株式会社,東京都,中央区,銀座６丁目１０番１号ＧＩＮＺＡＳＩＸ１３階,,13,102,1040061,,,,,,,2024-05-28,1,,,,,エースアイティーアイジャパン,0
515,3010003043604,新規,0,2024-05-28,2024-05-28,ＧＡＮ＆Ｃｏｍｐａｎｙ合同会社,,合同会社,東京都,中央区,日本橋室町１丁目１１番１２号７階,,13,102,1030022,,,,,,,2024-05-28,1,,,,,ガンアンドカンパニー,0
516,3010003043843,新規,0,2024-05-28,2024-05-28,合同会社発寒プロパティ,,合同会社,東京都,千代田区,内幸町２丁目１番６号,,13,101,1000011,,,,,,,2024-05-28,1,,,,,ハッサムプロパティ,0
517,3010005038354,新規,0,2024-05-28,2024-05-28,東京養蜂一般社団法人,,その他の設立登記法人,東京都,千代田区,神田和泉町１番地６－１６,,13,101,1010024,,,,,,,2024-05-28,1,,,,,トウキョウヨウホウ,0
518,3010101016164,新規,0,2024-05-28,2024-05-28,株式会社元八建装,,株式会社,東京都,八王子市,元八王子町３丁目２１５３番地３１２,,13,201,1930826,,,,,,,2024-05-28,1,,,,,モトハチケンソウ,0
542,3010601065280,新規,0,2024-05-28,2024-05-28,アクセルロッド株式会社,,株式会社,東京都,墨田区,江東橋３丁目３－８三信錦糸町ビル２Ｆ,,13,107,1300022,,,,,,,2024-05-28,1,,,,,アクセルロッド,0
559,3011001162321,新規,0,2024-05-28,2024-05-28,株式会社熊坂企画,,株式会社,東京都,渋谷区,代々木５丁目４２番８号,,13,113,1510053,,,,,,,2024-05-28,1,,,,,クマサカキカク,0
560,3011003019263,新規,0,2024-05-28,2024-05-28,合同会社雨後ノ筍,,合同会社,東京都,渋谷区,千駄ヶ谷２丁目９番１－３０６号,,13,113,1510051,,,,,,,2024-05-28,1,,,,,ウゴノタケノコ,0
561,3011003019271,新規,0,2024-05-28,2024-05-28,金美合同会社,,合同会社,東京都,渋谷区,渋谷２丁目１９番１７号,,13,113,1500002,,,,,,,2024-05-28,1,,,,,キンビ,0
568,3011103014437,新規,0,2024-05-28,2024-05-28,Ｍｙａｎｄｅｍｙ　Ｊａｐａｎ合同会社,,合同会社,東京都,新宿区,西新宿３丁目３番１３号西新宿水間ビル２Ｆ,,13,104,1600023,,,,,,,2024-05-28,1,,,,,ミャンデミージャパン,0
574,3011301029699,新規,0,2024-05-28,2024-05-28,株式会社ＭＯＲＥ,,株式会社,東京都,杉並区,今川１丁目１６番１８－２０２号,,13,115,1670035,,,,,,,2024-05-28,1,,,,,モア,0
577,3011401026118,新規,0,2024-05-28,2024-05-28,博贏株式会社,,株式会社,東京都,板橋区,高島平８丁目１５番１０号パレット高島平４２１,,13,119,1750082,,,,,,,2024-05-28,1,,,,,ハクエイ,0
579,3011701027328,新規,0,2024-05-28,2024-05-28,愛家株式会社,,株式会社,東京都,江戸川区,東小岩６丁目１７番３号３階,,13,123,1330052,,,,,,,2024-05-28,1,,,,,アイカ,0
581,3011703003839,新規,0,2024-05-28,2024-05-28,カラーサロン合同会社,,合同会社,東京都,江戸川区,篠崎町７丁目８番１３号,,13,123,1330061,,,,,,,2024-05-28,1,,,,,カラーサロン,0
582,3011705001832,新規,0,2024-05-28,2024-05-28,一般社団法人真善美ライフ協会,,その他の設立登記法人,東京都,江戸川区,清新町１丁目１番１２－７０２号,,13,123,1340087,,,,,,,2024-05-28,1,,,,,シンゼンビライフキョウカイ,0
588,3012401041916,新規,0,2024-05-28,2024-05-28,唐工株式会社,,株式会社,東京都,小金井市,東町２丁目２９－４－６棟,,13,210,1840011,,,,,,,2024-05-28,1,,,,,カコウ,0
594,3012703003003,新規,0,2024-05-28,2024-05-28,合同会社Ｇ．Ｅ,,合同会社,東京都,東村山市,久米川町３丁目６－４エルディア２２０１,,13,213,1890003,,,,,,,2024-05-28,1,,,,,ジーイー,0
596,3012801023191,新規,0,2024-05-28,2024-05-28,株式会社ムラキ,,株式会社,東京都,東大和市,立野２丁目７０８番地の２,,13,220,2070021,,,,,,,2024-05-28,1,,,,,ムラキ,0
609,3020001157413,新規,0,2024-05-28,2024-05-28,株式会社みやび,,株式会社,神奈川県,川崎市多摩区,生田５丁目２０番６号,,14,135,2140038,,,,,,,2024-05-28,1,,,,,ミヤビ,0
612,3020003026194,新規,0,2024-05-28,2024-05-28,合同会社エスアール,,合同会社,神奈川県,横浜市戸塚区,上矢部町１４８３番地６,,14,110,2450053,,,,,,,2024-05-28,1,,,,,エスアール,0
613,3020005016433,新規,0,2024-05-28,2024-05-28,一般財団法人サカタアグリ財団,,その他の設立登記法人,神奈川県,横浜市都筑区,仲町台２丁目７番１号,,14,118,2240041,,,,,,,2024-05-28,1,,,,,サカタアグリザイダン,0
617,3030001160424,新規,0,2024-05-28,2024-05-28,株式会社共栄リアライズ,,株式会社,埼玉県,八潮市,八潮２丁目４番地４５,,11,234,3400815,,,,,,,2024-05-28,1,,,,,キョウエイリアライズ,0
618,3030001160580,新規,0,2024-05-28,2024-05-28,株式会社ＶＩＶＩＤ,,株式会社,埼玉県,狭山市,新狭山３丁目５番地の６田園キャッスル新狭山２０５,,11,215,3501331,,,,,,,2024-05-28,1,,,,,ヴィヴィッド,0
619,3030001160589,新規,0,2024-05-28,2024-05-28,株式会社桃乃花,,株式会社,埼玉県,越谷市,大成町１丁目２３９６番地１,,11,222,3430825,,,,,,,2024-05-28,1,,,,,モモノカ,0
620,3030001160630,新規,0,2024-05-28,2024-05-28,株式会社風神,,株式会社,埼玉県,川口市,大字小谷場１０５０番地の１,,11,203,3330857,,,,,,,2024-05-28,1,,,,,フウジン,0
629,3040001133783,新規,0,2024-05-28,2024-05-28,Ｐｌａｙｆｉｒｓｔ株式会社,,株式会社,千葉県,習志野市,奏の杜２丁目３番１－１２０２号,,12,216,2750028,,,,,,,2024-05-28,1,,,,,プレイファースト,0
630,3040001133817,新規,0,2024-05-28,2024-05-28,株式会社ＰＳＢＦ,,株式会社,千葉県,八千代市,緑が丘西１丁目６番地３６,,12,221,2760040,,,,,,,2024-05-28,1,,,,,ピーエスビーエフ,0
632,3040003025070,新規,0,2024-05-28,2024-05-28,合同会社わんわんシャンプーｍｅｅｔｓ,,合同会社,千葉県,柏市,豊上町２２番地３２,,12,217,2770858,,,,,,,2024-05-28,1,,,,,ワンワンシャンプーミーツ,0
637,3050001054830,新規,0,2024-05-28,2024-05-28,ＳＡＯ　ＪＡＰＡＮ株式会社,,株式会社,茨城県,古河市,大山６３番地１,,08,204,3060052,,,,,,,2024-05-28,1,,,,,サーオジャパン,0
639,3060001037132,新規,0,2024-05-28,2024-05-28,株式会社正総合建設,,株式会社,栃木県,宇都宮市,屋板町４５０番地３,,09,201,3210112,,,,,,,2024-05-28,1,,,,,ショウソウゴウケンセツ,0
644,3080401027210,新規,0,2024-05-28,2024-05-28,株式会社仟,,株式会社,静岡県,掛川市,水垂９０９番地の１,,22,213,4360061,,,,,,,2024-05-28,1,,,,,セン,0
649,3090003002569,新規,0,2024-05-28,2024-05-28,合同会社しゃけのおひさま,,合同会社,山梨県,北杜市,高根町村山北割１９６２－１,,19,209,4080002,,,,,,,2024-05-28,1,,,,,シャケノオヒサマ,0
650,3090005007632,新規,0,2024-05-28,2024-05-28,特定非営利活動法人Ｔｅｌｅｓｃｏｐｅ,,その他の設立登記法人,山梨県,甲府市,山宮町３１８６番地１,,19,201,4000075,,,,,,,2024-05-28,1,,,,,テレスコープ,0
651,3100001037499,新規,0,2024-05-28,2024-05-28,イイダ塗装株式会社,,株式会社,長野県,上田市,小泉２６２５番地１,,20,203,3861106,,,,,,,2024-05-28,1,,,,,イイダトソウ,0
652,3100001037508,新規,0,2024-05-28,2024-05-28,Ａ＆Ｙ株式会社,,株式会社,長野県,北安曇郡池田町,大字会染７３５０番地３,,20,481,3998602,,,,,,,2024-05-28,1,,,,,エーアンドワイ,0
653,3100003007582,新規,0,2024-05-28,2024-05-28,福乃合同会社,,合同会社,長野県,北安曇郡白馬村,大字北城８２８番地４９,,20,485,3999301,,,,,,,2024-05-28,1,,,,,フクノ,0
665,3120001265346,新規,0,2024-05-28,2024-05-28,鳶飛株式会社,,株式会社,大阪府,大阪市阿倍野区,昭和町２丁目１０番６号ＥＳＴ－１・４０２号室,,27,119,5450011,,,,,,,2024-05-28,1,,,,,エンヒ,0
666,3120001265354,新規,0,2024-05-28,2024-05-28,株式会社ＬＥＡＦ,,株式会社,大阪府,大阪市北区,松ケ枝町１番３９号東天満エンビィビル３階,,27,127,5300037,,,,,,,2024-05-28,1,,,,,リーフ,0
667,3120001265370,新規,0,2024-05-28,2024-05-28,株式会社アールエス,,株式会社,大阪府,大阪市北区,梅田１丁目２番２号大阪駅前第２ビル１２－１２,,27,127,5300001,,,,,,,2024-05-28,1,,,,,アールエス,0
670,3120003026671,新規,0,2024-05-28,2024-05-28,順運合同会社,,合同会社,大阪府,枚方市,牧野阪２丁目７番３３号,,27,210,5731146,,,,,,,2024-05-28,1,,,,,ジュンウン,0
671,3120003026696,新規,0,2024-05-28,2024-05-28,合同会社ＭＩＧ,,合同会社,大阪府,大阪市西区,立売堀１丁目５－２立売堀ビルディング５Ｆ６４号,,27,106,5500012,,,,,,,2024-05-28,1,,,,,ミグ,0
678,3130001077121,新規,0,2024-05-28,2024-05-28,坤悦堂株式会社,,株式会社,京都府,京都市山科区,御陵原西町１０番地９－１０２号室,,26,110,6078424,,,,,,,2024-05-28,1,,,,,コンエツドウ,0
679,3130001077138,新規,0,2024-05-28,2024-05-28,株式会社印象京都,,株式会社,京都府,京都市上京区,葭屋町通出水上る亀屋町３２７番地シャトレーヌ葭屋２０５号室,,26,102,6028119,,,,,,,2024-05-28,1,,,,,インショウキョウト,0
685,3140001134573,新規,0,2024-05-28,2024-05-28,株式会社ＶａｎＬｕｇｎａ,,株式会社,兵庫県,神戸市兵庫区,中道通１丁目１番８号ＢＡＬＯＨ．ＢＬＤ７Ｆ,,28,105,6520801,,,,,,,2024-05-28,1,,,,,ヴァンルグナ,0
712,3200001042547,新規,0,2024-05-28,2024-05-28,株式会社Ｇ　ＳＴＥＬＬＡ　ＥＮＴＥＲＰＲＩＳＥ,,株式会社,岐阜県,大垣市,墨俣町墨俣７０番地,,21,202,5030102,,,,,,,2024-05-28,1,,,,,ジーステラエンタープライズ,0
718,3240001063283,新規,0,2024-05-28,2024-05-28,株式会社Ｃｏ．ａｉ,,株式会社,広島県,広島市中区,舟入幸町１番１９号リバーサイドネオ舟入１１０２号室,,34,101,7300844,,,,,,,2024-05-28,1,,,,,コーアイ,0
719,3240003006686,新規,0,2024-05-28,2024-05-28,Ａ‐ｓｔａｎｃｅ合同会社,,合同会社,広島県,広島市中区,小町９‐１３‐１Ｆ,,34,101,7300041,,,,,,,2024-05-28,1,,,,,エースタンス,0
726,3280005007613,新規,0,2024-05-28,2024-05-28,一般社団法人森森なコモンズ舎,,その他の設立登記法人,島根県,邑智郡邑南町,雪田３０８番地,,32,449,6960506,,,,,,,2024-05-28,1,,,,,モリモリナコモンズシャ,0
732,3290001105857,新規,0,2024-05-28,2024-05-28,ＢｌｏｏｍＢｏｘ株式会社,,株式会社,福岡県,福岡市中央区,舞鶴１丁目９－３朝日プラザ天神１１０４,,40,133,8100073,,,,,,,2024-05-28,1,,,,,ブルームボックス,0
733,3290001105865,新規,0,2024-05-28,2024-05-28,株式会社ＲＩＣＨ,,株式会社,福岡県,福岡市博多区,中洲５丁目６番２８号リバーフロント中洲川端５階,,40,132,8100801,,,,,,,2024-05-28,1,,,,,リッチ,0
734,3290001105907,新規,0,2024-05-28,2024-05-28,株式会社アスリートテック,,株式会社,福岡県,古賀市,今の庄３丁目８番１号,,40,223,8113117,,,,,,,2024-05-28,1,,,,,アスリートテック,0
735,3290003015294,新規,0,2024-05-28,2024-05-28,合同会社ＫＴＲ,,合同会社,福岡県,福岡市博多区,博多駅前２丁目１９番１７号トーカン博多第５ビル３１２号室,,40,132,8120011,,,,,,,2024-05-28,1,,,,,ケイテイアール,0
736,3290003015344,新規,0,2024-05-28,2024-05-28,縁ｊｏｙ合同会社,,合同会社,福岡県,久留米市,合川町３０５番地２,,40,203,8390861,,,,,,,2024-05-28,1,,,,,エンジョイ,0
737,3290003015369,新規,0,2024-05-28,2024-05-28,ＩＣＨＩＧＯ合同会社,,合同会社,福岡県,福岡市博多区,博多駅前３丁目２９番１１－２０１号,,40,132,8120011,,,,,,,2024-05-28,1,,,,,イチゴ,0
740,3310001019030,新規,0,2024-05-28,2024-05-28,ＨＴＡホールディングス株式会社,,株式会社,長崎県,北松浦郡佐々町,中川原免１３０番地１,,42,391,8570333,,,,,,,2024-05-28,1,,,,,エイチティエーホールディングス,0
749,3330001032097,新規,0,2024-05-28,2024-05-28,株式会社ランパス,,株式会社,熊本県,玉名市,亀甲５２番地１－２Ｆ,,43,206,8650015,,,,,,,2024-05-28,1,,,,,ランパス,0
752,3340001026536,新規,0,2024-05-28,2024-05-28,株式会社家健,,株式会社,鹿児島県,指宿市,東方３０４－８,,46,210,8910404,,,,,,,2024-05-28,1,,,,,イエケン,0
757,3360003014009,新規,0,2024-05-28,2024-05-28,合同会社ｅｎｄｅａｒ　ｒｅｓｏｒｔ,,合同会社,沖縄県,国頭郡本部町,字崎本部４７８４番地６,,47,308,9050225,,,,,,,2024-05-28,1,,,,,エンディアーリゾート,0
758,3360003014017,新規,0,2024-05-28,2024-05-28,合同会社ＳＡＩＲＩ,,合同会社,沖縄県,那覇市,具志３丁目２３番１０号,,47,201,9010146,,,,,,,2024-05-28,1,,,,,サイリ,0
760,3370001051341,新規,0,2024-05-28,2024-05-28,株式会社ゴッドワーク仙台,,株式会社,宮城県,名取市,那智が丘１丁目１２番地の１４,,04,207,9811244,,,,,,,2024-05-28,1,,,,,ゴッドワークセンダイ,0
767,3380003005773,新規,0,2024-05-28,2024-05-28,７８合同会社,,合同会社,福島県,会津若松市,町北町大字上荒久田字鈴木６０番地１,,07,202,9650053,,,,,,,2024-05-28,1,,,,,ナナハチ,0
780,3700150122033,新規,0,2024-05-28,2024-05-28,ＦＯＳＨＡＮＳＨＩＧＵＬＡＮＭＡＯＹＩＹＯＵＸＩＡＮＧＯＮＧＳＩ,,外国会社等,,,,,,,,Ｎａｎｈａｉｑｕ　ｓｈｉｓｈａｎｚｈｅｎ　ｌｕｏｃｕｎｈｅｇｕｉｌｕ　５ｈａｏ　ｂａｎｇｏｎｇｚｏｎｇｈｅｌｏｕ４ｌｏｕ　ｚｉｂｉａｎ　１２Ａ　Ｆｏｓｈａｎｓｈｉ　Ｇｕａｎｇｄｏｎｇｓｈｅｎｇ　５２８２００　ＣＮ,,,,,,2024-05-28,1,,,,,フォシャンシグランマオイヨウシエンゴンス,0
781,3700150122586,新規,0,2024-05-28,2024-05-28,ＭＥ　ＣＯ．，ＬＴＤ,,外国会社等,,,,,,,,１４，Ｗｕｃｈｕａｎ　６ｔｈ　Ｒｄ．Ｗｕｋｕ，Ｎｅｗ　Ｔａｉｐｅｉ　Ｃｉｔｙ，Ｔａｉｗａｎ,,,,,,2024-05-28,1,,,,,エムイーカンパニーリミテッド,0
782,3700150125283,新規,0,2024-05-28,2024-05-13,川西そば打ち倶楽部,,その他,島根県,仁多郡奥出雲町,下横田９５２－４,,32,343,6991822,,,,,,,2024-05-13,1,,,,,カワニシソバウチクラブ,0
783,3700150125597,新規,0,2024-05-28,2024-05-28,Ｓｈｅｎｚｈｅｎ　ＭＧＯＢ　Ｌｕｇｇａｇｅ　Ｃｏ．，Ｌｔｄ,,外国会社等,,,,,,,,ＷａｎＫｅＳｈｉＤａｉＧｕａｎｇＣｈａｎｇ３Ｂ２８０１，ＳｈｅｎＺｈｅｎ，Ｇｕａｎｇｄｏｎｇ，５１８１７２，ＣＮ,,,,,,2024-05-28,1,,,,,シェンジェンシーマングオニャオシャンバオヨウシエンゴンスー,0
797,4010003043842,新規,0,2024-05-28,2024-05-28,合同会社恩田原プロパティ,,合同会社,東京都,千代田区,内幸町２丁目１番６号,,13,101,1000011,,,,,,,2024-05-28,1,,,,,オンダバラプロパティ,0
806,4010403032651,新規,0,2024-05-28,2024-05-28,ｍａｒｅ合同会社,,合同会社,東京都,港区,麻布台３丁目１番６号,,13,103,1060041,,,,,,,2024-05-28,1,,,,,マーレ,0
807,4010403032676,新規,0,2024-05-28,2024-05-28,合同会社Ｔ＆Ｋ,,合同会社,東京都,港区,西麻布４丁目１１番１４号ＦＬＥＧ西麻布ｖｉｅｒｇｅ１０００,,13,103,1060031,,,,,,,2024-05-28,1,,,,,ティーアンドケイ,0
808,4010403032701,新規,0,2024-05-28,2024-05-28,コアシティ合同会社,,合同会社,東京都,港区,南青山２丁目２－１５ＷｉｎＡｏｙａｍａビルＵＣＦ６階,,13,103,1070062,,,,,,,2024-05-28,1,,,,,コアシティ,0
810,4010501052345,新規,0,2024-05-28,2024-05-28,邦楽株式会社,,株式会社,東京都,台東区,入谷１丁目３０番６号原田ビル４０１号室,,13,106,1100013,,,,,,,2024-05-28,1,,,,,ホウガク,0
811,4010503007462,新規,0,2024-05-28,2024-05-28,ＫＩＣＯＫＩＣＯ合同会社,,合同会社,東京都,台東区,台東４丁目１３番２１号Ｄ’ｓＶＡＲＩＥ御徒町ビル４０２,,13,106,1100016,,,,,,,2024-05-28,1,,,,,キコキコ,0
813,4010601065239,新規,0,2024-05-28,2024-05-28,株式会社０１．ｇｅｎｓ．,,株式会社,東京都,墨田区,亀沢１丁目５番１５号,,13,107,1300014,,,,,,,2024-05-28,1,,,,,ゼロワンジェンズ,0
814,4010601065271,新規,0,2024-05-28,2024-05-28,株式会社アキラ,,株式会社,東京都,墨田区,八広１丁目２６番１６－１３０１号サンクタス曳舟,,13,107,1310041,,,,,,,2024-05-28,1,,,,,アキラ,0
828,4010901055360,新規,0,2024-05-28,2024-05-28,株式会社長門＆カンパニー,,株式会社,東京都,世田谷区,等々力２丁目１０番１３号グリフィン・等々力１０６,,13,112,1580082,,,,,,,2024-05-28,1,,,,,ナガトアンドカンパニー,0
837,4011005010525,新規,0,2024-05-28,2024-05-28,一般社団法人ワンマイルレース協会,,その他の設立登記法人,東京都,渋谷区,代々木５丁目７－５,,13,113,1510053,,,,,,,2024-05-28,1,,,,,ワンマイルレースキョウカイ,0
844,4011701027319,新規,0,2024-05-28,2024-05-28,株式会社ディライト,,株式会社,東京都,江戸川区,南小岩６丁目２番１９号,,13,123,1330056,,,,,,,2024-05-28,1,,,,,ディライト,0
848,4011803006261,新規,0,2024-05-28,2024-05-28,合同会社ＭＡＴ,,合同会社,東京都,足立区,入谷９丁目３０番２７号パークヒルズ入谷４０２,,13,121,1210836,,,,,,,2024-05-28,1,,,,,エムエーティ,0
849,4012301013931,新規,0,2024-05-28,2024-05-28,株式会社ノチホド,,株式会社,東京都,町田市,相原町７９６－１８,,13,209,1940211,,,,,,,2024-05-28,1,,,,,ノチホド,0
865,4020003026202,新規,0,2024-05-28,2024-05-28,ライカコンサルティング合同会社,,合同会社,神奈川県,川崎市高津区,千年３０１番地１グランドコスモ千歳５０６,,14,134,2130022,,,,,,,2024-05-28,1,,,,,ライカコンサルティング,0
885,4050005013451,新規,0,2024-05-28,2024-05-28,農事組合法人サポート須田,,その他の設立登記法人,茨城県,つくば市,大形１３０３番地４,,08,220,3004221,,,,,,,2024-05-28,1,,,,,サポートスダ,0
888,4060003005094,新規,0,2024-05-28,2024-05-28,合同会社形,,合同会社,栃木県,那須塩原市,槻沢２３１番地,,09,213,3292703,,,,,,,2024-05-28,1,,,,,ナリ,0
897,4100001037507,新規,0,2024-05-28,2024-05-28,株式会社Ｓ‐ＳＴＥＰ,,株式会社,長野県,長野市,大字若槻東条１１９１－１,,20,201,3810084,,,,,,,2024-05-28,1,,,,,エスステップ,0
910,4120001265312,新規,0,2024-05-28,2024-05-28,株式会社ＳＴＥＬ,,株式会社,大阪府,大阪市中央区,日本橋２丁目７－１０日本橋エクシーリスビル,,27,128,5420073,,,,,,,2024-05-28,1,,,,,エステル,0
911,4120001265329,新規,0,2024-05-28,2024-05-28,ＹＩ　ＬＡＮ株式会社,,株式会社,大阪府,大阪市城東区,関目５丁目１９番９号関目花博公館５０８Ａ,,27,118,5360008,,,,,,,2024-05-28,1,,,,,イラン,0
912,4120001265345,新規,0,2024-05-28,2024-05-28,ＷｉｎＴｏｐ株式会社,,株式会社,大阪府,大阪市城東区,鴫野西５丁目２０番２５号ユーミーハイツ鴫野３Ｃ号室,,27,118,5360014,,,,,,,2024-05-28,1,,,,,ウィントップ,0
913,4120001265353,新規,0,2024-05-28,2024-05-28,Ａｉｏｏｎ株式会社,,株式会社,大阪府,大阪市北区,梅田１丁目２番２号大阪駅前第２ビル１２－１２,,27,127,5300001,,,,,,,2024-05-28,1,,,,,アイオーン,0
914,4120001265361,新規,0,2024-05-28,2024-05-28,ＦＪＤ株式会社,,株式会社,大阪府,大阪市浪速区,大国３丁目９番８号,,27,111,5560014,,,,,,,2024-05-28,1,,,,,エフジェーディー,0
921,4120005024326,新規,0,2024-05-28,2024-05-28,一般社団法人おもてなし・海外人材育成支援機構,,その他の設立登記法人,大阪府,大阪市東住吉区,桑津３丁目２６番２号,,27,121,5460041,,,,,,,2024-05-28,1,,,,,オモテナシカイガイジンザイイクセイシエンキコウ,0
922,4120101069662,新規,0,2024-05-28,2024-05-28,株式会社大桐貿易,,株式会社,大阪府,堺市南区,片蔵１５番,,27,145,5900121,,,,,,,2024-05-28,1,,,,,ダイドウボウエキ,0
925,4120105009862,新規,0,2024-05-28,2024-05-28,一般社団法人農福舎,,その他の設立登記法人,大阪府,堺市北区,船堂町２丁２４番５号,,27,146,5918003,,,,,,,2024-05-28,1,,,,,ノウフクシャ,0
931,4122001038136,新規,0,2024-05-28,2024-05-28,株式会社Ｐｌａｔｉｎｕｍ,,株式会社,大阪府,八尾市,山本町南１丁目２番１７号レグルスソフィア２０２,,27,212,5810013,,,,,,,2024-05-28,1,,,,,プラチナム,0
935,4130001077120,新規,0,2024-05-28,2024-05-28,株式会社ＡＲＥ,,株式会社,京都府,京都市東山区,宮川筋７丁目３９８Ｋａｍｏ－ｇｏｊｏ２０１号室,,26,105,6050801,,,,,,,2024-05-28,1,,,,,アレ,0
936,4130003009600,新規,0,2024-05-28,2024-05-28,Ａ‐ＳＰＡＣＥ合同会社,,合同会社,京都府,京都市東山区,本町新６丁目１９９番地２１０号,,26,105,6050989,,,,,,,2024-05-28,1,,,,,エースペース,0
945,4140001134580,新規,0,2024-05-28,2024-05-28,株式会社スポビュー,,株式会社,兵庫県,神戸市垂水区,歌敷山２丁目８番３７号パークサイド歌敷山１０１号,,28,108,6550037,,,,,,,2024-05-28,1,,,,,スポビュー,0
953,4150003003270,新規,0,2024-05-28,2024-05-28,合同会社ＭＧＣ,,合同会社,奈良県,奈良市,三条宮前町６番１４－５０１号,,29,201,6308121,,,,,,,2024-05-28,1,,,,,エムジーシー,0
961,4180001161679,新規,0,2024-05-28,2024-05-28,株式会社プレ君,,株式会社,愛知県,名古屋市中川区,吉津４丁目１７１９番地,,23,110,4540981,,,,,,,2024-05-28,1,,,,,プレクン,0
969,4210003001796,新規,0,2024-05-28,2024-05-28,吉祥合同会社,,合同会社,福井県,小浜市,駅前町７番２２号１階,,18,204,9170077,,,,,,,2024-05-28,1,,,,,キッショウ,0
995,4340001026535,新規,0,2024-05-28,2024-05-28,株式会社Ｒｅｆｒａｉｎ　Ｇｒｏｕｐ,,株式会社,鹿児島県,鹿屋市,吾平町上名５７５５番地１,,46,203,8931101,,,,,,,2024-05-28,1,,,,,リフレイングループ,0
996,4340003004489,新規,0,2024-05-28,2024-05-28,中央駅一番街相続贈与の窓口合同会社,,合同会社,鹿児島県,鹿児島市,中央町１９番地４０ライカビル１０４,,46,201,8900053,,,,,,,2024-05-28,1,,,,,チュウオウエキイチバンガイソウゾクゾウヨノマドグチ,0
998,4350001018977,新規,0,2024-05-28,2024-05-28,株式会社田代モータース,,株式会社,宮崎県,宮崎市,大字熊野５６７１番地３,,45,201,8892151,,,,,,,2024-05-28,1,,,,,タシロモータース,0
1017,4400003003278,新規,0,2024-05-28,2024-05-28,トータル保険合同会社,,合同会社,岩手県,滝沢市,野沢６２番地６５４,,03,216,0200622,,,,,,,2024-05-28,1,,,,,トータルホケン,0
1019,4430001091891,新規,0,2024-05-28,2024-05-28,株式会社３Ｒ’ｓ,,株式会社,北海道,札幌市豊平区,中の島一条１２丁目１１－１,,01,105,0620921,,,,,,,2024-05-28,1,,,,,スリーアルズ,0
1020,4430003016368,新規,0,2024-05-28,2024-05-28,合同会社Ｎａｔｕｒａｌ,,合同会社,北海道,札幌市中央区,南六条西３丁目６－３１,,01,101,0640806,,,,,,,2024-05-28,1,,,,,ナチュラル,0
1034,4700150122577,新規,0,2024-05-28,2024-05-28,Ｆｅｒｒａｒｉｓ　Ｇｒｏｕｐ　Ｓａｇｌ,,外国会社等,,,,,,,,ｃ／ｏ　Ａｖｖ．Ｔｈｅｏｂａｌｄ　ＢＲＵＮ，Ｖｉａ　Ａｒｉｏｓｔｏ　６，６９０１　Ｌｕｇａｎｏ，Ｓｗｉｔｚｅｒｌａｎｄ,,,,,,2024-05-28,1,,,,,フェラリスグループサグル,0
1035,4700150122585,新規,0,2024-05-28,2024-05-28,ＷＵＨＡＮ　ＦＡＮＱＩ　ＺＨＵＢＡＯ　ＳＨＩＰＩＮ　ＹＯＵＸＩＡＮ　ＧＯＮＧＳＩ,,外国会社等,,,,,,,,８－２３　Ｗｅｓｔ　ｏｆ　Ｐａｕｌｉ　Ｔｗｅｌｖｅ　Ｏａｋ　Ｍａｎｏｒ，Ｎｏ．５６０　Ｔａｎｇｘｕｎ　Ｈｕｂｅｉ　Ｒｏａｄ　Ｄｏｎｇｈｕ　Ｎｅｗ　Ｔｅｃｈｎｏｌｏｇｙ　Ｄｅｖｅｌｏｐｍｅｎｔ　Ｚｏｎｅ　ＷＵＨＡＮ　ＨＵＢＥＩ　４３００７４　ＣＮ,,,,,,2024-05-28,1,,,,,ウーハンファンチジュバオシピンヨウシエンゴンス,0
1036,4700150125233,新規,0,2024-05-28,2024-05-13,摂津市地域公共交通協議会,,その他,大阪府,摂津市,三島１丁目１番１号,,27,224,5660022,,,,,,,2024-05-13,1,,,,,セツツシチイキコウキヨウコウツウキヨウギカイ,0
1037,4700150125596,新規,0,2024-05-28,2024-05-28,ｓｈｅｎ　ｚｈｅｎ　ｓｈｉ　ｋａ　ｍｏ　ｗｅｎ　ｈｕａ　ｋｅ　ｊｉ　ｙｏｕ　ｘｉａｎ　ｇｏｎｇ　ｓｉ,,外国会社等,,,,,,,,ｇｕａｎｇ　ｍｉｎｇ　ｊｉｅ　ｄａｏ　ｇｕａｎ　ｇｕａｎｇ　ｌｕ　ｈｕａ　ｑｉａｎｇ　ｃｈｕａｎｇ　ｙｉ　ｃｈａｎ　ｙｅ　ｙｕａｎ　３ｄｏｎｇ　Ａｚｕｏ　１７０２ｄａｎ　ｗｅｉ　ｓｈｅｎ　ｚｈｅｎ　ｇｕａｎｇ　ｄｏｎｇ　ｓｈｅｎｇ,,,,,,2024-05-28,1,,,,,シェンジェンシーカーモーウェンフワーコージーヨウシエンゴンスー,0
1049,5010001244920,新規,0,2024-05-28,2024-05-28,株式会社ＲＥＰＴＩＬＥＳ　ＴＯＫＹＯ,,株式会社,東京都,千代田区,外神田５丁目４番１３号ＴＲＵＳＴＶＡＬＵＥ外神田１階,,13,101,1010021,,,,,,,2024-05-28,1,,,,,レプタイルトウキョウ,0
1053,5010003043676,新規,0,2024-05-28,2024-05-28,合同会社Ｍｏｘｘ,,合同会社,東京都,千代田区,神田和泉町１番地６－１６ヤマトビル４０５,,13,101,1010024,,,,,,,2024-05-28,1,,,,,モックス,0
1054,5010003043866,新規,0,2024-05-28,2024-05-28,コネクトウェイ合同会社,,合同会社,東京都,中央区,銀座７丁目１３番６号サガミビル２階,,13,102,1040061,,,,,,,2024-05-28,1,,,,,コネクトウェイ,0
1055,5010003043874,新規,0,2024-05-28,2024-05-28,合同会社ＣＳ　Ｔｓｕｋｉｊｉ,,合同会社,東京都,中央区,日本橋茅場町１丁目３番７号千代田ビル５階,,13,102,1030025,,,,,,,2024-05-28,1,,,,,シーエスツキジ,0
1062,5010401182687,新規,0,2024-05-28,2024-05-28,株式会社Ｃｉｎｑ　Ｓｅｎｓ　Ｌａａｂｂ,,株式会社,東京都,港区,三田３丁目９番１１号ＲａｎｄＬＴＡＫＡＮＡＷＡＧＡＴＥＷＡＹ,,13,103,1080073,,,,,,,2024-05-28,1,,,,,シーエスエル,0
1063,5010401182745,新規,0,2024-05-28,2024-05-28,マネックスライフセトルメント株式会社,,株式会社,東京都,港区,赤坂１丁目１２番３２号,,13,103,1070052,,,,,,,2024-05-28,1,,,,,マネックスライフセトルメント,0
1065,5010403032675,新規,0,2024-05-28,2024-05-28,ＨｏｍｅＨｏｏｋ合同会社,,合同会社,東京都,港区,白金１丁目１７－１－１４０２,,13,103,1080072,,,,,,,2024-05-28,1,,,,,ホームフック,0
1066,5010403032709,新規,0,2024-05-28,2024-05-28,合同会社ＳＵＣ目黒アセット１,,合同会社,東京都,港区,元赤坂１丁目１番８号赤坂コミュニティビル４階,,13,103,1070051,,,,,,,2024-05-28,1,,,,,エスユーシーメグロアセットワン,0
1068,5010501052336,新規,0,2024-05-28,2024-05-28,株式会社ＭＹ,,株式会社,東京都,台東区,上野５丁目２２番１２－２０１号,,13,106,1100005,,,,,,,2024-05-28,1,,,,,エムワイ,0
1069,5010501052344,新規,0,2024-05-28,2024-05-28,怡瑞株式会社,,株式会社,東京都,台東区,東上野４丁目６番７号,,13,106,1100015,,,,,,,2024-05-28,1,,,,,イーズイ,0
1073,5010601065262,新規,0,2024-05-28,2024-05-28,株式会社アベリア,,株式会社,東京都,江東区,佐賀２丁目８番６－１２０７号,,13,108,1350031,,,,,,,2024-05-28,1,,,,,アベリア,0
1074,5010601065279,新規,0,2024-05-28,2024-05-28,株式会社ＬＩＧＨＴＨＯＵＳＥ,,株式会社,東京都,江東区,豊洲５丁目１番１３号,,13,108,1350061,,,,,,,2024-05-28,1,,,,,ライトハウス,0
1075,5010601065287,新規,0,2024-05-28,2024-05-28,Ｄａｔａ　Ｉｎｓｉｇｈｔ株式会社,,株式会社,東京都,江東区,新大橋２丁目１７番１２―１００６号,,13,108,1350007,,,,,,,2024-05-28,1,,,,,データインサイト,0
1077,5010701046063,新規,0,2024-05-28,2024-05-28,株式会社３４コンソーシアム,,株式会社,東京都,品川区,上大崎１丁目１３－９ＭＤＭ白金台１０４,,13,109,1410021,,,,,,,2024-05-28,1,,,,,サンヨンコンソーシアム,0
1084,5011001162261,新規,0,2024-05-28,2024-05-28,株式会社ヴァンサンカン,,株式会社,東京都,渋谷区,道玄坂１丁目１０番８号渋谷道玄坂東急ビル２Ｆ‐Ｃ,,13,113,1500043,,,,,,,2024-05-28,1,,,,,ヴァンサンカン,0
1089,5011003019220,新規,0,2024-05-28,2024-05-28,Ｘクロストレーニング合同会社,,合同会社,東京都,渋谷区,渋谷２丁目１９－１５宮益坂ビルディング６０９,,13,113,1500002,,,,,,,2024-05-28,1,,,,,エックスクロストレーニング,0
1090,5011003019286,新規,0,2024-05-28,2024-05-28,ＴＡＡＭ‐ＪＡＩ合同会社,,合同会社,東京都,渋谷区,恵比寿４丁目１１番１４号,,13,113,1500013,,,,,,,2024-05-28,1,,,,,タームジャイ,0
1094,5011101107455,新規,0,2024-05-28,2024-05-28,成蹊不動産株式会社,,株式会社,東京都,新宿区,高田馬場２丁目８番２号コレタス高田馬場７Ｆ,,13,104,1690075,,,,,,,2024-05-28,1,,,,,セイケイフドウサン,0
1096,5011301029706,新規,0,2024-05-28,2024-05-28,株式会社ＴｏｕｃｈＰｏｉｎｔ,,株式会社,東京都,杉並区,方南１丁目２９－７ダイヤパレス方南町５０３,,13,115,1680062,,,,,,,2024-05-28,1,,,,,,0
1097,5011501030728,新規,0,2024-05-28,2024-05-28,呑吐株式会社,,株式会社,東京都,荒川区,町屋３丁目１８番１２号ＮＤビル２１６,,13,118,1160001,,,,,,,2024-05-28,1,,,,,ドント,0
1114,5020001157428,新規,0,2024-05-28,2024-05-28,クリアップ株式会社,,株式会社,神奈川県,横浜市港南区,港南台９丁目３２番２３－６０２号,,14,111,2340054,,,,,,,2024-05-28,1,,,,,クリアップ,0
1115,5020001157452,新規,0,2024-05-28,2024-05-28,メタテックゼレン株式会社,,株式会社,神奈川県,横浜市西区,北幸１丁目１１－１５,,14,103,2200004,,,,,,,2024-05-28,1,,,,,メタテックゼレン,0
1116,5020001157460,新規,0,2024-05-28,2024-05-28,株式会社ＨＯＹＯ,,株式会社,神奈川県,横浜市青葉区,青葉台１丁目１１番地４田園青葉台住宅団地１３号棟１０１号室,,14,117,2270062,,,,,,,2024-05-28,1,,,,,ホヨ,0
1123,5020003026226,新規,0,2024-05-28,2024-05-28,ブルーワールド合同会社,,合同会社,神奈川県,横浜市栄区,笠間５丁目３６番１－４０８号,,14,115,2470006,,,,,,,2024-05-28,1,,,,,ブルーワールド,0
1128,5021003014559,新規,0,2024-05-28,2024-05-28,合同会社慧,,合同会社,神奈川県,秦野市,西大竹２４―１５,,14,211,2570012,,,,,,,2024-05-28,1,,,,,ケイ,0
1129,5021003014567,新規,0,2024-05-28,2024-05-28,ＫＯＡ合同会社,,合同会社,神奈川県,茅ヶ崎市,香川１丁目２６－７,,14,207,2530082,,,,,,,2024-05-28,1,,,,,コア,0
1130,5021005013121,新規,0,2024-05-28,2024-05-28,ＮＰＯ法人あかり,,その他の設立登記法人,神奈川県,横須賀市,汐入町２丁目４０番１号青柳ビル３階,,14,201,2380042,,,,,,,2024-05-28,1,,,,,アカリ,0
1135,5030001160595,新規,0,2024-05-28,2024-05-28,株式会社ＣＴＤ,,株式会社,埼玉県,さいたま市南区,大字大谷口１６５０番地１プラントワール向原１０５,,11,108,3360042,,,,,,,2024-05-28,1,,,,,シーティーディー,0
1139,5030003024377,新規,0,2024-05-28,2024-05-28,合同会社ＯＫＴ,,合同会社,埼玉県,上尾市,本町４丁目６番２０号,,11,219,3620014,,,,,,,2024-05-28,1,,,,,オーケーティー,0
1140,5030003024385,新規,0,2024-05-28,2024-05-28,合同会社ＫＩＶ　Ｗｅｌｆａｒｅ会館飯能,,合同会社,埼玉県,飯能市,本町１９番２号,,11,209,3570032,,,,,,,2024-05-28,1,,,,,ケーアイブイウェルフェアカイカンハンノウ,0
1141,5030005021711,新規,0,2024-05-28,2024-05-28,一般社団法人ＡＳＣ,,その他の設立登記法人,埼玉県,所沢市,くすのき台１丁目１３番地の２ガーデンシティ所沢２Ｆ,,11,208,3590037,,,,,,,2024-05-28,1,,,,,エーエスシ,0
1150,5050003008403,新規,0,2024-05-28,2024-05-28,合同会社Ｈ・Ｒ・Ｒ．インターナショナル,,合同会社,茨城県,つくば市,今鹿島４０２９番地,,08,220,3002641,,,,,,,2024-05-28,1,,,,,エイチエイチアールインターナショナル,0
1151,5050005013450,新規,0,2024-05-28,2024-05-28,農事組合法人須田ファーム,,その他の設立登記法人,茨城県,つくば市,大形１３０３番地４,,08,220,3004221,,,,,,,2024-05-28,1,,,,,スダファーム,0
1152,5060001037139,新規,0,2024-05-28,2024-05-28,株式会社エニシックス,,株式会社,栃木県,小山市,城山町１丁目２番５号,,09,208,3230025,,,,,,,2024-05-28,1,,,,,エニシックス,0
1160,5100001037489,新規,0,2024-05-28,2024-05-28,株式会社優樹,,株式会社,長野県,大町市,平８０００番地５５６,,20,212,3980001,,,,,,,2024-05-28,1,,,,,ユウキ,0
1164,5100003007572,新規,0,2024-05-28,2024-05-28,ＳＮ合同会社,,合同会社,長野県,諏訪市,大字湖南１０５７番地７,,20,206,3920131,,,,,,,2024-05-28,1,,,,,エスエヌ,0
1172,5120001265278,新規,0,2024-05-28,2024-05-28,ＬＨ商事株式会社,,株式会社,大阪府,大阪市阿倍野区,阪南町３丁目３３番３号,,27,119,5450021,,,,,,,2024-05-28,1,,,,,エルエイチショウジ,0
1173,5120001265328,新規,0,2024-05-28,2024-05-28,聖立株式会社,,株式会社,大阪府,大阪市東成区,深江北３丁目４番２１号エクラ深江橋７１２Ｄ,,27,115,5370001,,,,,,,2024-05-28,1,,,,,セイリツ,0
1174,5120001265336,新規,0,2024-05-28,2024-05-28,株式会社オリーブ,,株式会社,大阪府,大阪市中央区,南船場２丁目１０－２２－６０１,,27,128,5420081,,,,,,,2024-05-28,1,,,,,オリーブ,0
1175,5120001265344,新規,0,2024-05-28,2024-05-28,株式会社ｄｉｍｐｌｅ,,株式会社,大阪府,大阪市中央区,久太郎町１丁目９番２６号,,27,128,5410056,,,,,,,2024-05-28,1,,,,,ディンプル,0
1176,5120001265352,新規,0,2024-05-28,2024-05-28,ＤＯＵＢＬＥ　Ｍ株式会社,,株式会社,大阪府,大阪市中央区,南久宝寺町１丁目９番１－６０２号,,27,128,5410058,,,,,,,2024-05-28,1,,,,,ダブルエム,0
1177,5120003026694,新規,0,2024-05-28,2024-05-28,合同会社ＴＡＳＵＫＵ,,合同会社,大阪府,大阪市旭区,高殿２丁目１１番２０号,,27,117,5350031,,,,,,,2024-05-28,1,,,,,タスク,0
1178,5120003026703,新規,0,2024-05-28,2024-05-28,合同会社ＳＣＳ,,合同会社,大阪府,枚方市,山田池東町１８番３５号,,27,210,5730165,,,,,,,2024-05-28,1,,,,,エスシーエス,0
1185,5130001077136,新規,0,2024-05-28,2024-05-28,株式会社Ｌｉｎｋｉｎｇ　Ｂｒｉｄｇｅ,,株式会社,京都府,京都市西京区,大原野上里北ノ町１３２８番地３３,,26,111,6101121,,,,,,,2024-05-28,1,,,,,リンキングブリッジ,0
1186,5130003009599,新規,0,2024-05-28,2024-05-28,合同会社豊茶,,合同会社,京都府,京都市右京区,太秦朱雀町１番地１５４,,26,108,6168137,,,,,,,2024-05-28,1,,,,,ユタカチャ,0
1193,5160001025950,新規,0,2024-05-28,2024-05-28,株式会社共闘ラボ,,株式会社,滋賀県,大津市,本堅田３丁目２－４８,,25,201,5200242,,,,,,,2024-05-28,1,,,,,キョウトウラボ,0
1196,5180001161686,新規,0,2024-05-28,2024-05-28,株式会社エルムンド,,株式会社,愛知県,名古屋市東区,泉１丁目２番１７号レジデンス泉１１０３号,,23,102,4610001,,,,,,,2024-05-28,1,,,,,エルムンド,0
1197,5180001161711,新規,0,2024-05-28,2024-05-28,株式会社ＴＳＵＢＡＫＩ,,株式会社,愛知県,名古屋市港区,宝神２丁目３１６番地,,23,111,4550832,,,,,,,2024-05-28,1,,,,,ツバキ,0
1200,5180003026838,新規,0,2024-05-28,2024-05-28,合同会社オフィス．ケイ,,合同会社,愛知県,名古屋市名東区,藤森１丁目８８番地８,,23,115,4650026,,,,,,,2024-05-28,1,,,,,オフィスケイ,0
1203,5190001031376,新規,0,2024-05-28,2024-05-28,株式会社中竹林業,,株式会社,三重県,松阪市,嬉野天花寺町９２７番地７１,,24,204,5152302,,,,,,,2024-05-28,1,,,,,ナカタケリンギョウ,0
1205,5200001042545,新規,0,2024-05-28,2024-05-28,Ｎ・ＦＩＲＳＴ株式会社,,株式会社,岐阜県,岐阜市,長森本町２丁目１０番１３号,,21,201,5008228,,,,,,,2024-05-28,1,,,,,エヌファースト,0
1207,5200005013625,新規,0,2024-05-28,2024-05-28,一般社団法人ＣｈｅｅｒＵｐ東濃,,その他の設立登記法人,岐阜県,中津川市,駒場１１７６番地の１,,21,206,5080011,,,,,,,2024-05-28,1,,,,,チアアップトウノウ,0
1212,5250005008918,新規,0,2024-05-28,2024-05-28,一般社団法人維新バレーボールクラブ,,その他の設立登記法人,山口県,防府市,大字下右田６１９番地の３,,35,206,7470063,,,,,,,2024-05-28,1,,,,,イシンバレーボールクラブ,0
1213,5260001039107,新規,0,2024-05-28,2024-05-28,遊心株式会社,,株式会社,岡山県,倉敷市,連島中央３丁目１１番２５号,,33,202,7128014,,,,,,,2024-05-28,1,,,,,ユウシン,0
1224,5290001105789,新規,0,2024-05-28,2024-05-28,株式会社吉末工業,,株式会社,福岡県,福岡市東区,香椎浜４丁目８番１,,40,131,8130016,,,,,,,2024-05-28,1,,,,,ヨシズエコウギョウ,0
1229,5330001032104,新規,0,2024-05-28,2024-05-28,株式会社Ｖｅｎｕｓ　Ｓｈｉｎｅ,,株式会社,熊本県,熊本市東区,健軍本町１７番２５号,,43,102,8620910,,,,,,,2024-05-28,1,,,,,ビーナスシャイン,0
1230,5340001026534,新規,0,2024-05-28,2024-05-28,ｆｕｌｃｒｕｍ株式会社,,株式会社,鹿児島県,鹿児島市,上荒田町５６番１－１１３１号,,46,201,8900055,,,,,,,2024-05-28,1,,,,,フルクラム,0
1232,5350001018976,新規,0,2024-05-28,2024-05-28,株式会社勝樹,,株式会社,宮崎県,児湯郡新富町,大字新田８２１０番地１７,,45,402,8891406,,,,,,,2024-05-28,1,,,,,カツキ,0
1236,5360001033727,新規,0,2024-05-28,2024-05-28,株式会社琉球シビリティコンサルタンツ,,株式会社,沖縄県,那覇市,久茂地２丁目２番２号タイムスビル２階,,47,201,9000015,,,,,,,2024-05-28,1,,,,,リュウキュウシビリティコンサルタンツ,0
1247,5380003005771,新規,0,2024-05-28,2024-05-28,合同会社鈴木建設,,合同会社,福島県,いわき市,勿来町関田須賀１番地８７ブライト２０１,,07,204,9790146,,,,,,,2024-05-28,1,,,,,スズキケンセツ,0
1259,5430003016383,新規,0,2024-05-28,2024-05-28,合同会社彩高之光,,合同会社,北海道,沙流郡平取町,字荷菜１５－１０,,01,602,0550106,,,,,,,2024-05-28,1,,,,,サイコウノヒカリ,0
1262,5460001005906,新規,0,2024-05-28,2024-05-28,株式会社エナガ電工,,株式会社,北海道,釧路郡釧路町,柏西１丁目６,,01,661,0882155,,,,,,,2024-05-28,1,,,,,エナガデンコウ,0
1269,5490001010779,新規,0,2024-05-28,2024-05-28,株式会社さとから,,株式会社,高知県,高知市,本町２丁目２－３１,,39,201,7800870,,,,,,,2024-05-28,1,,,,,サトカラ,0
1277,5700150122378,新規,0,2024-05-28,2024-05-28,Ｑｉｎｇｄａｏ　Ｐｅａｋ　Ｔｉｍｅ　Ｉｍｐｏｒｔ　＆　Ｅｘｐｏｒｔ　Ｃｏ．，Ｌｔｄ．,,外国会社等,,,,,,,,ＲＭ１０６　ＮＯ．３０３　ＨｅＹａｎｇ　Ｒｏａｄ　Ｃｈｅｎｇｙａｎｇ　Ｑｉｎｇｄａｏ　Ｓｈａｎｄｏｎｇ,,,,,,2024-05-28,1,,,,,チンダオピコァタジンチュウコウヨウシエンゴンス,0
1287,6010001244944,新規,0,2024-05-28,2024-05-28,ＫＭＴホールディングス株式会社,,株式会社,東京都,千代田区,有楽町１丁目２番２号東宝日比谷ビル９Ｆ,,13,101,1000006,,,,,,,2024-05-28,1,,,,,ケーエムティーホールディングス,0
1288,6010001245216,新規,0,2024-05-28,2024-05-28,瑞福株式会社,,株式会社,東京都,中央区,銀座３丁目１３番１９号,,13,102,1040061,,,,,,,2024-05-28,1,,,,,ズイフク,0
1289,6010001245265,新規,0,2024-05-28,2024-05-28,ＡＴＴＯホールディングス株式会社,,株式会社,東京都,中央区,日本橋室町４丁目５番１号,,13,102,1030022,,,,,,,2024-05-28,1,,,,,エイティーティーオーホールディングス,0
1291,6010003043741,新規,0,2024-05-28,2024-05-28,東進合同会社,,合同会社,東京都,中央区,日本橋２丁目１０番１２号プレリー日本橋ビル９Ｆ,,13,102,1030027,,,,,,,2024-05-28,1,,,,,トウシン,0
1292,6010003043857,新規,0,2024-05-28,2024-05-28,ＫＭキャピタルジャパン合同会社,,合同会社,東京都,中央区,銀座６丁目１３番１６号銀座ＷａｌｌビルＵＣＦ５階,,13,102,1040061,,,,,,,2024-05-28,1,,,,,ケーエムキャピタルジャパン,0
1294,6010005038351,新規,0,2024-05-28,2024-05-28,一般社団法人ＮＮプロパティ・スリー,,その他の設立登記法人,東京都,千代田区,丸の内３丁目１番１号東京共同会計事務所内,,13,101,1000005,,,,,,,2024-05-28,1,,,,,エヌエヌプロパティスリー,0
1298,6010401182562,新規,0,2024-05-28,2024-05-28,株式会社Ｔｏ　Ｂｅ８,,株式会社,東京都,港区,高輪２丁目１６番５２－７０１号,,13,103,1080074,,,,,,,2024-05-28,1,,,,,トゥービーエイト,0
1299,6010401182744,新規,0,2024-05-28,2024-05-28,サカエホールディングス株式会社,,株式会社,東京都,港区,元麻布３丁目１番２２－２０１号,,13,103,1060046,,,,,,,2024-05-28,1,,,,,サカエホールディングス,0
1302,6010403032699,新規,0,2024-05-28,2024-05-28,Ｃｏｎｎｅｃｔｅｒ合同会社,,合同会社,東京都,港区,西麻布４丁目１８番１３－２０１号,,13,103,1060031,,,,,,,2024-05-28,1,,,,,コネクテ,0
1303,6010403032724,新規,0,2024-05-28,2024-05-28,ブランエノワール合同会社,,合同会社,東京都,港区,三田４丁目１９番２５－６０８号,,13,103,1080073,,,,,,,2024-05-28,1,,,,,ブランエノワール,0
1305,6010503007460,新規,0,2024-05-28,2024-05-28,合同会社ショップワン,,合同会社,東京都,台東区,台東２丁目６－８－４０２,,13,106,1100016,,,,,,,2024-05-28,1,,,,,ショップワン,0
1307,6010701046062,新規,0,2024-05-28,2024-05-28,株式会社ＡＮＤｍ,,株式会社,東京都,品川区,東品川１丁目３２番８号,,13,109,1400002,,,,,,,2024-05-28,1,,,,,アンドエム,0
1311,6010703007194,新規,0,2024-05-28,2024-05-28,合同会社ＱＵＩＺ,,合同会社,東京都,品川区,西五反田８丁目２－６クリオ五反田７０７,,13,109,1410031,,,,,,,2024-05-28,1,,,,,クイズ,0
1316,6010901055359,新規,0,2024-05-28,2024-05-28,株式会社ＮＯＶＡ　ＳＯＬＵＴＩＯＮ,,株式会社,東京都,世田谷区,南烏山５丁目２２番５号,,13,112,1570062,,,,,,,2024-05-28,1,,,,,ノヴァソリューション,0
1323,6010903009098,新規,0,2024-05-28,2024-05-28,合同会社ＭＩＲＡＩ,,合同会社,東京都,世田谷区,奥沢５丁目１番１１号メゾンドジョワ２０２,,13,112,1580083,,,,,,,2024-05-28,1,,,,,ミライ,0
1327,6011001162145,新規,0,2024-05-28,2024-05-28,株式会社Ｚ,,株式会社,東京都,渋谷区,恵比寿西２丁目４番８号ウィンド恵比寿ビル８Ｆ,,13,113,1500021,,,,,,,2024-05-28,1,,,,,ゼット,0
1328,6011001162285,新規,0,2024-05-28,2024-05-28,株式会社ストレート．Ｋ２,,株式会社,東京都,渋谷区,円山町５番５号ＮＡＶＩ渋谷Ｖ３階,,13,113,1500044,,,,,,,2024-05-28,1,,,,,ストレートドットケイトゥー,0
1331,6011003019211,新規,0,2024-05-28,2024-05-28,合同会社Ｏｐｔ．ｄｅｖ,,合同会社,東京都,渋谷区,道玄坂１丁目１０番８号渋谷道玄坂東急ビル２Ｆ－Ｃ,,13,113,1500043,,,,,,,2024-05-28,1,,,,,オプトドットデヴ,0
1338,6011303005175,新規,0,2024-05-28,2024-05-28,合同会社ラビットキッチン,,合同会社,東京都,杉並区,上高井戸１丁目２１－２第二ラサハウス２０１,,13,115,1680074,,,,,,,2024-05-28,1,,,,,ラビットキッチン,0
1340,6011401026123,新規,0,2024-05-28,2024-05-28,株式会社明日葉通商,,株式会社,東京都,板橋区,上板橋２丁目３８番１０号タカラベビル１階,,13,119,1740076,,,,,,,2024-05-28,1,,,,,アシタバツウショウ,0
1343,6011601027788,新規,0,2024-05-28,2024-05-28,グレーシャス日本株式会社,,株式会社,東京都,練馬区,北町５丁目５－７かぼちゃの馬車平和台Ｖ２０１号室,00134936,13,120,1790081,,,,,,,2024-05-28,1,,,,,グレーシャスニホン,0
1352,6012403006583,新規,0,2024-05-28,2024-05-28,ＢＡＡＬ合同会社,,合同会社,東京都,武蔵野市,西久保１丁目４４番１２号グランドハイツ２０１,,13,203,1800013,,,,,,,2024-05-28,1,,,,,バール,0
1370,6020001157410,新規,0,2024-05-28,2024-05-28,株式会社フリークス,,株式会社,神奈川県,横浜市港北区,新横浜１丁目１番地１５－８０３,,14,109,2220033,,,,,,,2024-05-28,1,,,,,フリークス,0
1371,6020001157451,新規,0,2024-05-28,2024-05-28,飛鳥国際株式会社,,株式会社,神奈川県,横浜市中区,末吉町３丁目４７番地１トーカン伊勢佐木町キャステール６０７号,,14,104,2310055,,,,,,,2024-05-28,1,,,,,アスカコクサイ,0
1385,6030001160561,新規,0,2024-05-28,2024-05-28,八方貿易株式会社,,株式会社,埼玉県,上尾市,藤波２丁目３６５番地１,,11,219,3620061,,,,,,,2024-05-28,1,,,,,ハッポウボウエキ,0
1386,6030001160586,新規,0,2024-05-28,2024-05-28,株式会社ＲＩＳＥ,,株式会社,埼玉県,桶川市,大字加納１８０９番地の１,,11,231,3630001,,,,,,,2024-05-28,1,,,,,ライズ,0
1387,6030001160594,新規,0,2024-05-28,2024-05-28,株式会社ＩＡＳ,,株式会社,埼玉県,桶川市,坂田西２丁目４８番地の１エスポワールＩＩ－１０３号,00134925,11,231,3630018,,,,,,,2024-05-28,1,,,,,イアス,0
1391,6030003024376,新規,0,2024-05-28,2024-05-28,ケーアンドエヌ合同会社,,合同会社,埼玉県,さいたま市中央区,本町西４丁目１６番２－２号,,11,105,3380004,,,,,,,2024-05-28,1,,,,,ケーアンドエヌ,0
1392,6030003024384,新規,0,2024-05-28,2024-05-28,ＭＩＳＫＡ合同会社,,合同会社,埼玉県,志木市,本町５丁目２３番９号２０１,,11,228,3530004,,,,,,,2024-05-28,1,,,,,ミスカ,0
1394,6040001133797,新規,0,2024-05-28,2024-05-28,京葉ハウスサービス株式会社,,株式会社,千葉県,船橋市,西船３丁目３番１９号,,12,204,2730031,,,,,,,2024-05-28,1,,,,,ケイヨウハウスサービス,0
1411,6100001037505,新規,0,2024-05-28,2024-05-28,ｅプロテック株式会社,,株式会社,長野県,上田市,古里６９４番地１サンエスビル１０３号,,20,203,3860005,,,,,,,2024-05-28,1,,,,,イープロテック,0
1423,6120001265293,新規,0,2024-05-28,2024-05-28,株式会社ＡＩＳ,,株式会社,大阪府,大阪市北区,豊崎３丁目１５－５ＴＫビル２Ｆ,,27,127,5310072,,,,,,,2024-05-28,1,,,,,エーアイエス,0
1424,6120001265310,新規,0,2024-05-28,2024-05-28,スミヨシ研究所株式会社,,株式会社,大阪府,大阪市生野区,巽南２丁目９番９号,00134928,27,116,5440015,,,,,,,2024-05-28,1,,,,,スミヨシケンキュウジョ,0
1425,6120001265335,新規,0,2024-05-28,2024-05-28,株式会社ｔｋｏ,,株式会社,大阪府,大阪市鶴見区,今津南１丁目２番３７号２０６Ａ,,27,124,5380043,,,,,,,2024-05-28,1,,,,,ティーケーオー,0
1426,6120003026685,新規,0,2024-05-28,2024-05-28,クニエ合同会社,,合同会社,大阪府,大阪市中央区,東心斎橋１丁目１７番５号,,27,128,5420083,,,,,,,2024-05-28,1,,,,,クニエ,0
1427,6120003026693,新規,0,2024-05-28,2024-05-28,ＭＡＣ‐Ｄ．ＴＲＵＳＴ合同会社,,合同会社,大阪府,大阪市中央区,東心斎橋１丁目７番３０号２１心斎橋ビル３Ｆ,,27,128,5420083,,,,,,,2024-05-28,1,,,,,マックディトラスト,0
1428,6120003026702,新規,0,2024-05-28,2024-05-28,ｓｕｋｕｎａＲＫ合同会社,,合同会社,大阪府,大阪市阿倍野区,昭和町１丁目７番２８号,,27,119,5450011,,,,,,,2024-05-28,1,,,,,スクナアールケー,0
1431,6120101069660,新規,0,2024-05-28,2024-05-28,株式会社ＫＡＩＳＩ　ＩＮＶＥＳＴＭＥＮＴＳ,,株式会社,大阪府,堺市西区,上野芝町４丁１４番５１号,,27,144,5938301,,,,,,,2024-05-28,1,,,,,カイシインベストメンツ,0
1434,6120901049226,新規,0,2024-05-28,2024-05-28,株式会社ＯＧＡＷＡ設備,,株式会社,大阪府,茨木市,真砂２丁目１１番９号,,27,211,5670851,,,,,,,2024-05-28,1,,,,,オガワセツビ,0
1440,6140001134538,新規,0,2024-05-28,2024-05-28,山一建設株式会社,,株式会社,兵庫県,西宮市,上甲子園４丁目８番１３号,,28,204,6638114,,,,,,,2024-05-28,1,,,,,ヤマイチケンセツ,0
1446,6160003003202,新規,0,2024-05-28,2024-05-28,合同会社菊地事務所,,合同会社,滋賀県,大津市,皇子が丘２丁目９番１５－１２０８号,,25,201,5200025,,,,,,,2024-05-28,1,,,,,,0
1449,6170001018151,新規,0,2024-05-28,2024-05-28,株式会社和顔久,,株式会社,和歌山県,和歌山市,栄谷５８番地２８,,30,201,6408441,,,,,,,2024-05-28,1,,,,,ワガンキュウ,0
1452,6180001161660,新規,0,2024-05-28,2024-05-28,株式会社タケコシホールディングス,,株式会社,愛知県,名古屋市千種区,新西２丁目８番５号,,23,101,4640003,,,,,,,2024-05-28,1,,,,,タケコシホールディングス,0
1453,6180001161677,新規,0,2024-05-28,2024-05-28,株式会社アヴァンティスタ,,株式会社,愛知県,江南市,飛高町門野１２６番地２,,23,217,4838332,,,,,,,2024-05-28,1,,,,,アヴァンティスタ,0
1462,6200001042544,新規,0,2024-05-28,2024-05-28,ライク創建株式会社,,株式会社,岐阜県,岐阜市,下奈良４丁目６番４０,,21,201,5008385,,,,,,,2024-05-28,1,,,,,ライクソウケン,0
1474,6260001039106,新規,0,2024-05-28,2024-05-28,株式会社ブルースプリング,,株式会社,岡山県,岡山市北区,磨屋町７－２,,33,101,7000826,,,,,,,2024-05-28,1,,,,,ブルースプリング,0
1475,6280001009189,新規,0,2024-05-28,2024-05-28,株式会社ＮＳＫ,,株式会社,島根県,松江市,東出雲町下意東１７２５番地６,,32,201,6990102,,,,,,,2024-05-28,1,,,,,エヌエスケイ,0
1481,6290001105937,新規,0,2024-05-28,2024-05-28,株式会社ＯＦＦＩＣＥ　ＭＵＲＡＩ,,株式会社,福岡県,福岡市中央区,大濠１丁目６番８号,,40,133,8100052,,,,,,,2024-05-28,1,,,,,オフィスムライ,0
1482,6290003015341,新規,0,2024-05-28,2024-05-28,日越ブリッジ合同会社,,合同会社,福岡県,福岡市博多区,吉塚１丁目３０番１４－１号,,40,132,8120041,,,,,,,2024-05-28,1,,,,,ニチエツブリッジ,0
1486,6300001013741,新規,0,2024-05-28,2024-05-28,ＷＡＡ　ＰＬＵＳ株式会社,,株式会社,佐賀県,佐賀市,兵庫北１丁目７番１２号,,41,201,8490919,,,,,,,2024-05-28,1,,,,,ワープラス,0
1490,6330003010395,新規,0,2024-05-28,2024-05-28,合同会社ＳＤＲ,,合同会社,熊本県,熊本市東区,小山３丁目８番６２－３号,,43,102,8618045,,,,,,,2024-05-28,1,,,,,エスディーアール,0
1493,6360003014014,新規,0,2024-05-28,2024-05-28,八重山発酵ガス合同会社,,合同会社,沖縄県,石垣市,字伊原間キンブ山２番６５０,,47,207,9070332,,,,,,,2024-05-28,1,,,,,ヤエヤマハッコウガス,0
1508,6430003016374,新規,0,2024-05-28,2024-05-28,コーチング普及舎Ｕ‐Ｅｄｅｎ合同会社,,合同会社,北海道,札幌市西区,発寒四条４丁目３－２３,,01,107,0630824,,,,,,,2024-05-28,1,,,,,コーチングフキュウシャウエデン,0
1516,6490003001890,新規,0,2024-05-28,2024-05-28,Ａｓｉａｎ　Ｇｏｏｄ　Ｃｏｍｐａｎｙ合同会社,,合同会社,高知県,高知市,仁井田１６３１番地１舟倉３－４０３号室,,39,201,7810112,,,,,,,2024-05-28,1,,,,,アジアングッドカンパニー,0
1520,6700150125215,新規,0,2024-05-28,2024-05-10,足利花火大会実行委員会,,その他,栃木県,足利市,通３丁目２７５７－１,,09,202,3260814,,,,,,,2024-05-10,1,,,,,アシカガハナビタイカイジツコウイインカイ,0
1521,6700150125322,新規,0,2024-05-28,2024-05-14,たちはたコミュニティ協議会,,その他,石川県,白山市,日向町イ１９,,17,210,9202146,,,,,,,2024-05-14,1,,,,,タチハタコミユニテイキヨウギカイ,0
1529,7010001245116,新規,0,2024-05-28,2024-05-28,ナノイズムジャパン株式会社,,株式会社,東京都,中央区,日本橋室町４丁目４番３号５階,,13,102,1030022,,,,,,,2024-05-28,1,,,,,ナノイズムジャパン,0
1530,7010001245198,新規,0,2024-05-28,2024-05-28,株式会社明治メディカル,,株式会社,東京都,中央区,銀座１丁目１２番４号Ｎ＆ＥＢＬＤ．６Ｆ,,13,102,1040061,,,,,,,2024-05-28,1,,,,,メイジメディカル,0
1531,7010001245207,新規,0,2024-05-28,2024-05-28,ライフキャリアビジョン株式会社,,株式会社,東京都,中央区,佃２丁目１番２号,,13,102,1040051,,,,,,,2024-05-28,1,,,,,ライフキャリアビジョン,0
1534,7010003043740,新規,0,2024-05-28,2024-05-28,星川合同会社,,合同会社,東京都,中央区,日本橋２丁目１０番１２号プレリー日本橋ビル９Ｆ,,13,102,1030027,,,,,,,2024-05-28,1,,,,,ホシカワ,0
1535,7010005038342,新規,0,2024-05-28,2024-05-28,一般社団法人Ｌｉｖｉｎｇ　Ｌａｎｄｓｃａｐｅ　Ｌａｂ,,その他の設立登記法人,東京都,千代田区,九段北１丁目１５番９号,,13,101,1020073,,,,,,,2024-05-28,1,,,,,リビングランドスケープラボ,0
1545,7010401182743,新規,0,2024-05-28,2024-05-28,株式会社Ｌｉｆｅ　ｏｆ　Ｐｉ,,株式会社,東京都,港区,虎ノ門１丁目１７番１号虎ノ門ヒルズビジネスタワー１５階,,13,103,1050001,,,,,,,2024-05-28,1,,,,,ライフオブパイ,0
1548,7010501052318,新規,0,2024-05-28,2024-05-28,株式会社ＫＥ‐ＦＡＮＳ,,株式会社,東京都,台東区,下谷３丁目１番２４号,,13,106,1100004,,,,,,,2024-05-28,1,,,,,ケーイーファンズ,0
1552,7010603010834,新規,0,2024-05-28,2024-05-28,合同会社ｍｅｒｅｎｄｏ,,合同会社,東京都,江東区,東雲２丁目１－１７,,13,108,1350062,,,,,,,2024-05-28,1,,,,,メレンド,0
1553,7010603010859,新規,0,2024-05-28,2024-05-28,合同会社Ｍｅｄｉｃａｌ　ｂｏｏｓｔ,,合同会社,東京都,墨田区,東向島１丁目１０－１８シュシュ向島３０１,,13,107,1310032,,,,,,,2024-05-28,1,,,,,メディカルブースト,0
1554,7010603010867,新規,0,2024-05-28,2024-05-28,合同会社ＮＫ,,合同会社,東京都,墨田区,両国１丁目８番６－５０４号,,13,107,1300026,,,,,,,2024-05-28,1,,,,,エヌケー,0
1557,7010803004966,新規,0,2024-05-28,2024-05-28,パシフィックマネジメント合同会社,,合同会社,東京都,大田区,蒲田本町２丁目２番２０号,,13,111,1440053,,,,,,,2024-05-28,1,,,,,パシフィックマネジメント,0
1562,7011001162243,新規,0,2024-05-28,2024-05-28,株式会社ＯＳＣペットプロダクツ,,株式会社,東京都,渋谷区,千駄ヶ谷３丁目６０番５号,,13,113,1510051,,,,,,,2024-05-28,1,,,,,オーエスシーペットプロダクツ,0
1563,7011001162276,新規,0,2024-05-28,2024-05-28,株式会社ＭＦＳＡ,,株式会社,東京都,渋谷区,神泉町２０番２１号,,13,113,1500045,,,,,,,2024-05-28,1,,,,,エムエフエスエー,0
1564,7011003019219,新規,0,2024-05-28,2024-05-28,合同会社Ｂｌｕｅ　Ｄｅｅｒ　Ｐａｒｔｎｅｒｓ,,合同会社,東京都,渋谷区,道玄坂１丁目１０番８号渋谷道玄坂東急ビル２Ｆ－Ｃ,,13,113,1500043,,,,,,,2024-05-28,1,,,,,ブルーディアーパートナーズ,0
1567,7011103014466,新規,0,2024-05-28,2024-05-28,合同会社シバスプリングエステート,,合同会社,東京都,新宿区,北新宿３丁目２－１－８０４,,13,104,1690074,,,,,,,2024-05-28,1,,,,,シバスプリングエステート,0
1568,7011301029704,新規,0,2024-05-28,2024-05-28,株式会社大川薬局,,株式会社,東京都,杉並区,井草２丁目２６―２０,,13,115,1670021,,,,,,,2024-05-28,1,,,,,オオカワヤッキョク,0
1570,7011501030726,新規,0,2024-05-28,2024-05-28,株式会社キムプロ,,株式会社,東京都,荒川区,町屋１丁目３０番６号,,13,118,1160001,,,,,,,2024-05-28,1,,,,,キムプロ,0
1572,7011603004347,新規,0,2024-05-28,2024-05-28,合同会社じもる,,合同会社,東京都,練馬区,春日町６丁目３番３号,,13,120,1790074,,,,,,,2024-05-28,1,,,,,ジモル,0
1577,7011801044285,新規,0,2024-05-28,2024-05-28,株式会社Ｒａｍｐｅｒ,,株式会社,東京都,葛飾区,細田３丁目５番２号,,13,122,1240021,,,,,,,2024-05-28,1,,,,,ランパー,0
1580,7012403006582,新規,0,2024-05-28,2024-05-28,合同会社ＫＰＰ,,合同会社,東京都,武蔵野市,吉祥寺本町１丁目２４番５号吉祥寺ライトビル６階Ａ,,13,203,1800004,,,,,,,2024-05-28,1,,,,,ケーピーピー,0
1585,7012801023205,新規,0,2024-05-28,2024-05-28,株式会社テクノット,,株式会社,東京都,日野市,万願寺３丁目４８番地の７西武マンション４０５,,13,212,1910024,,,,,,,2024-05-28,1,,,,,テクノット,0
1603,7021003014565,新規,0,2024-05-28,2024-05-28,ｅｉｇｈｔ合同会社,,合同会社,神奈川県,相模原市中央区,田名５３１７－１－２Ｆ,,14,152,2520244,,,,,,,2024-05-28,1,,,,,エイト,0
1608,7030001160552,新規,0,2024-05-28,2024-05-28,フォースワン株式会社,,株式会社,埼玉県,川口市,本蓮１丁目２３番１６号,,11,203,3340076,,,,,,,2024-05-28,1,,,,,フォースワン,0
1609,7030001160560,新規,0,2024-05-28,2024-05-28,ＳＨＡＭＲＯＣＫ　ＪＡＰＡＮ株式会社,,株式会社,埼玉県,熊谷市,久下４８３１番地,,11,202,3600026,,,,,,,2024-05-28,1,,,,,シャムロックジャパン,0
1610,7030001160577,新規,0,2024-05-28,2024-05-28,株式会社ＢＡＯ　ＮＧＯＣ,,株式会社,埼玉県,川口市,芝新町２番１１号２階,,11,203,3330851,,,,,,,2024-05-28,1,,,,,バオゴック,0
1611,7030001160593,新規,0,2024-05-28,2024-05-28,八幡源国際貿易株式会社,,株式会社,埼玉県,さいたま市大宮区,三橋２丁目１０７番地５,,11,103,3300856,,,,,,,2024-05-28,1,,,,,ハチマンゲンコクサイボウエキ,0
1615,7030003024367,新規,0,2024-05-28,2024-05-28,やる気あり合同会社,,合同会社,埼玉県,朝霞市,膝折町１丁目１番６号１Ｆ,,11,227,3510014,,,,,,,2024-05-28,1,,,,,ヤルキアリ,0
1616,7030003024383,新規,0,2024-05-28,2024-05-28,雨君合同会社,,合同会社,埼玉県,狭山市,入間川２丁目３２番１０号ウインベルソロ狭山第四２０７号室,,11,215,3501305,,,,,,,2024-05-28,1,,,,,ウクン,0
1620,7040001133755,新規,0,2024-05-28,2024-05-28,株式会社慧和宜家,,株式会社,千葉県,安房郡鋸南町,下佐久間３５５０番地１,,12,463,2992115,,,,,,,2024-05-28,1,,,,,エワギカ,0
1621,7040001133763,新規,0,2024-05-28,2024-05-28,株式会社ミラクル,,株式会社,千葉県,八千代市,村上１９４１番地１４－５３０号,,12,221,2760028,,,,,,,2024-05-28,1,,,,,ミラクル,0
1622,7040001133796,新規,0,2024-05-28,2024-05-28,株式会社Ｓｕｎｓｅｄｙ,,株式会社,千葉県,市川市,曽谷５丁目１０番７号,,12,203,2720832,,,,,,,2024-05-28,1,,,,,サンセディ,0
1623,7040001133813,新規,0,2024-05-28,2024-05-28,株式会社リ・ハウスオオノ,,株式会社,千葉県,東金市,東金５８８番地１１,,12,213,2830802,,,,,,,2024-05-28,1,,,,,リハウスオオノ,0
1631,7070001041781,新規,0,2024-05-28,2024-05-28,ＣＷＰ株式会社,,株式会社,群馬県,前橋市,元総社町２４３２番地,,10,201,3710846,,,,,,,2024-05-28,1,,,,,シーダブリューピー,0
1632,7080005007613,新規,0,2024-05-28,2024-05-28,一般社団法人ガイヤのえがお,,その他の設立登記法人,静岡県,榛原郡川根本町,徳山１４４６番地の１,,22,429,4280301,,,,,,,2024-05-28,1,,,,,ガイヤノエガオ,0
1634,7080401027198,新規,0,2024-05-28,2024-05-28,株式会社ＵＮＩＴＥ,,株式会社,静岡県,磐田市,見付２２７番地２４,,22,211,4380086,,,,,,,2024-05-28,1,,,,,ユナイト,0
1639,7100003007570,新規,0,2024-05-28,2024-05-28,奥山合同会社,,合同会社,長野県,上伊那郡中川村,大草４７３１番地３,,20,386,3993801,,,,,,,2024-05-28,1,,,,,オクヤマ,0
1642,7120001264880,新規,0,2024-05-28,2024-05-28,株式会社パイオーシップシステム,,株式会社,大阪府,大阪市中央区,常磐町二丁目１番８号ＦＧビル大阪６０１室,,27,128,5390000,,,,,,,2024-05-28,1,,,,,パイオーシップシステム,0
1643,7120001265235,新規,0,2024-05-28,2024-05-28,株式会社ＷＡＭＥＬＬ,,株式会社,大阪府,大阪市住吉区,東粉浜１丁目１２－１２みどりビル１Ｆ,,27,120,5580051,,,,,,,2024-05-28,1,,,,,ワーメル,0
1644,7120001265251,新規,0,2024-05-28,2024-05-28,渓久株式会社,,株式会社,大阪府,大阪市住吉区,我孫子５丁目９番１７－２０３号,,27,120,5580014,,,,,,,2024-05-28,1,,,,,ケイク,0
1645,7120001265334,新規,0,2024-05-28,2024-05-28,株式会社バサースト,,株式会社,大阪府,寝屋川市,池田旭町１６番２号,,27,215,5720035,,,,,,,2024-05-28,1,,,,,バサースト,0
1646,7120001265359,新規,0,2024-05-28,2024-05-28,株式会社ＳＡＭＯ・ＷＡＶＥ,,株式会社,大阪府,大阪市東淀川区,柴島３丁目９番２２号,,27,114,5330024,,,,,,,2024-05-28,1,,,,,サーモウェイブ,0
1647,7120001265367,新規,0,2024-05-28,2024-05-28,新福盛ホールディングス株式会社,,株式会社,大阪府,大阪市北区,東天満１丁目１０番１２号,,27,127,5300044,,,,,,,2024-05-28,1,,,,,シンフクモリホールディングス,0
1651,7120003026692,新規,0,2024-05-28,2024-05-28,サクセス合同会社,,合同会社,大阪府,大阪市北区,梅田１丁目２番２号大阪駅前第２ビル１２－１２,,27,127,5300001,,,,,,,2024-05-28,1,,,,,サクセス,0
1652,7120003026701,新規,0,2024-05-28,2024-05-28,合同会社ｍａｎｅｍａｒｕ,,合同会社,大阪府,大阪市西区,北堀江２丁目１６－１９－４０２,,27,106,5500014,,,,,,,2024-05-28,1,,,,,マネマル,0
1656,7120901049233,新規,0,2024-05-28,2024-05-28,株式会社ＳｍａｒＴ,,株式会社,大阪府,豊中市,東豊中町６丁目１７－６－３０３,,27,203,5600003,,,,,,,2024-05-28,1,,,,,スマート,0
1661,7122003002896,新規,0,2024-05-28,2024-05-28,乾の合同会社,,合同会社,大阪府,柏原市,国分東条町９番３号,,27,221,5820023,,,,,,,2024-05-28,1,,,,,イヌイノ,0
1664,7130001077142,新規,0,2024-05-28,2024-05-28,株式会社Ｒｏｗａｎ,,株式会社,京都府,京都市南区,東九条西明田町４８番地２プレサンス京都東寺５０９号室,,26,107,6018045,,,,,,,2024-05-28,1,,,,,ローワン,0
1668,7140001134537,新規,0,2024-05-28,2024-05-28,株式会社Ａ＆Ｇ,,株式会社,兵庫県,尼崎市,南初島町８－７３ＡＩＩＹ’ｓコーポ３０５号室,,28,202,6600833,,,,,,,2024-05-28,1,,,,,エーアンドジー,0
1669,7140001134561,新規,0,2024-05-28,2024-05-28,株式会社ＥＳＪ,,株式会社,兵庫県,姫路市,福中町８６番地２階Ａ号室,,28,201,6700017,,,,,,,2024-05-28,1,,,,,イーエスジェイ,0
1670,7140003020603,新規,0,2024-05-28,2024-05-28,Ｃｒｅａｔｉｖｅ　Ｋｏｂｅ合同会社,,合同会社,兵庫県,神戸市中央区,生田町２丁目２番７号,,28,110,6510092,,,,,,,2024-05-28,1,,,,,クリエイティブコウベ,0
1672,7140005027092,新規,0,2024-05-28,2024-05-28,特定非営利活動法人神戸ボーイズ,,その他の設立登記法人,兵庫県,神戸市兵庫区,上沢通５丁目１番２０号,,28,105,6520046,,,,,,,2024-05-28,1,,,,,コウベボーイズ,0
1676,7160003003201,新規,0,2024-05-28,2024-05-28,合同会社Ｒ機械設計ｏｆｆｉｃｅ,,合同会社,滋賀県,大津市,千町１丁目１１番３２号,,25,201,5200863,,,,,,,2024-05-28,1,,,,,アールキカイセッケイオフィス,0
1680,7180001161718,新規,0,2024-05-28,2024-05-28,株式会社ユアライフ,,株式会社,愛知県,名古屋市西区,花の木３丁目１番７号,,23,104,4510062,,,,,,,2024-05-28,1,,,,,ユアライフ,0
1687,7180005020639,新規,0,2024-05-28,2024-05-28,ＮＰＯ法人あまつしまロータスの会,,その他の設立登記法人,愛知県,津島市,藤浪町４丁目６６番地３,,23,208,4960801,,,,,,,2024-05-28,1,,,,,アマツシマロータスノカイ,0
1699,7220001026024,新規,0,2024-05-28,2024-05-28,株式会社ＨＩＧＨ　ＲＥＰＡＩＮ,,株式会社,石川県,能美市,緑が丘８丁目１４３番地１,,17,211,9231226,,,,,,,2024-05-28,1,,,,,ハイリペイン,0
1714,7290001105531,新規,0,2024-05-28,2024-05-28,一瑞株式会社,,株式会社,福岡県,福岡市博多区,博多駅東１丁目１番３３－７ＩＧ１号室,,40,132,8120013,,,,,,,2024-05-28,1,,,,,イッスイ,0
1715,7290001105655,新規,0,2024-05-28,2024-05-28,株式会社エーススタジオ,,株式会社,福岡県,福岡市中央区,天神４丁目６－２８天神ファーストビル７階,,40,133,8100001,,,,,,,2024-05-28,1,,,,,エーススタジオ,0
1716,7290001105911,新規,0,2024-05-28,2024-05-28,株式会社ミモザ,,株式会社,福岡県,福岡市中央区,唐人町１丁目４番３号,,40,133,8100063,,,,,,,2024-05-28,1,,,,,ミモザ,0
1717,7290001105928,新規,0,2024-05-28,2024-05-28,木工百科ぶんぶく堂株式会社,,株式会社,福岡県,福岡市東区,名子３丁目２３番４６号,,40,131,8130024,,,,,,,2024-05-28,1,,,,,モッコウヒャッカブンブクドウ,0
1723,7320001020495,新規,0,2024-05-28,2024-05-28,株式会社Ｌａｂ．,,株式会社,大分県,大分市,大字丹川８１番地の２,,44,201,8700317,,,,,,,2024-05-28,1,,,,,ラブ,0
1724,7330001032102,新規,0,2024-05-28,2024-05-28,侑佳商店株式会社,,株式会社,熊本県,玉名市,立願寺１２８番地５,,43,206,8650061,,,,,,,2024-05-28,1,,,,,ユウケイショウテン,0
1737,7360003014013,新規,0,2024-05-28,2024-05-28,合同会社ＴＹＩＤＡ,,合同会社,沖縄県,島尻郡南風原町,字津嘉山１７６５番地セレクション津嘉山１００２,,47,350,9011117,,,,,,,2024-05-28,1,,,,,ティーダ,0
1745,7410003003935,新規,0,2024-05-28,2024-05-28,合同会社ＤＥＳＩＲＥ,,合同会社,秋田県,大仙市,高梨字於園８３番地,,05,212,0140805,,,,,,,2024-05-28,1,,,,,デザイア,0
1748,7430001091889,新規,0,2024-05-28,2024-05-28,株式会社三河遊グループ,,株式会社,北海道,滝川市,朝日町西４丁目１番３１号,,01,225,0730018,,,,,,,2024-05-28,1,,,,,ミカワユグループ,0
1754,7440001009444,新規,0,2024-05-28,2024-05-28,株式会社Ｊ．Ｂａｌｌｏｎ,,株式会社,北海道,山越郡長万部町,字長万部４１１番地４１０,,01,347,0493521,,,,,,,2024-05-28,1,,,,,ジェイバロン,0
1756,7470001020225,新規,0,2024-05-28,2024-05-28,株式会社パワー産業,,株式会社,香川県,高松市,香南町西庄７１９番地１,,37,201,7611406,,,,,,,2024-05-28,1,,,,,パワーサンギョウ,0
1762,7700150121709,新規,0,2024-05-28,2024-05-28,ＳＨＥＮＺＨＥＮ　ＨＯＮＧＹＵ　ＭＡＯＹＩＹＯＵＸＩＡＮＧＯＮＧＳＩ,,外国会社等,,,,,,,,ｌｏｎｇｈｕａｊｉｅｄａｏｆｕｋａｎｇｓｈｅｑｕｆｕｋａｎｇｓｈａｎｇｙｅｇｕａｎｇｃｈａｎｇ８ｄｏｎｇ　ｆｕｋａｎｇｋｅｊｉｄａｓｈａ２ｃｅｎｇＡｑｕ１　ｓｈｅｎｚｈｅｎｓｈｉ　ｌｏｎｇｈｕａｑｕ　ｇｕａｎｇｄｏｎｇｓｈｅｎｇ　５１８１１０　ＣＮ,,,,,,2024-05-28,1,,,,,シェンジェンホンユマオイヨウシエンゴンス,0
1763,7700150123135,新規,0,2024-05-28,2024-05-28,ＧＵＡＮＧＤＯＮＧＪＵＮＸＩＡＯＴＯＮＧＸＵＮＫＥＪＩＹＯＵＸＩＡＮＧＯＮＧＳＩ,,外国会社等,,,,,,,,ｈａｎｇｃｈｅｎｇｊｉｅｄａｏｓａｎｗｅｉｓｈｅｑｕ　ｔａｉｈｕａｗｕｔｏｎｇｇｏｎｇｙｅｙｕａｎｃｈｕｓｈｕ（９Ａ）ｄｏｎｇ４ｃｅｎｇ　ｓｈｅｎｚｈｅｎｓｈｉ　ｂａｏａｎｑｕ　ｇｕａｎｇｚｈｏｕｓｈｅｎｇ　５１８１２８　ＣＮ,,,,,,2024-05-28,1,,,,,グアンドンジュンシャオトンシュンクージヨウシエンゴンス,0
1764,7700150125263,新規,0,2024-05-28,2024-05-13,林地区コミュニティ協議会,,その他,石川県,白山市,道法寺町へ２４,,17,210,9202162,,,,,,,2024-05-13,1,,,,,ハヤシチクコミユニテイキヨウギカイ,0
1769,8010001244612,新規,0,2024-05-28,2024-05-28,Ｑ　Ｆａｔｂａｃｋ　Ｈｕｂ株式会社,,株式会社,東京都,千代田区,神田駿河台２丁目３番１１号,,13,101,1010062,,,,,,,2024-05-28,1,,,,,キューファットバックハブ,0
1770,8010001245016,新規,0,2024-05-28,2024-05-28,株式会社ＳｃｒｅｗＫｉｃｋ,,株式会社,東京都,中央区,月島３丁目３番１３－４０４号,,13,102,1040052,,,,,,,2024-05-28,1,,,,,スクリューキック,0
1771,8010001245115,新規,0,2024-05-28,2024-05-28,株式会社ＬＩＡＮ探偵社,,株式会社,東京都,千代田区,麹町４丁目３番地紅谷ビル５階,,13,101,1020083,,,,,,,2024-05-28,1,,,,,リアンタンテイシャ,0
1781,8010401182585,新規,0,2024-05-28,2024-05-28,株式会社ＰＰ　Ｖｅｎｔｕｒｅ　Ｓｔｕｄｉｏ,,株式会社,東京都,港区,虎ノ門１丁目１７番１号,,13,103,1050001,,,,,,,2024-05-28,1,,,,,ピーピーベンチャースタジオ,0
1782,8010401182701,新規,0,2024-05-28,2024-05-28,株式会社ユニブランディング,,株式会社,東京都,港区,六本木３丁目７－１ザ・六本木東京クラブレジデンス３２０６,,13,103,1060032,,,,,,,2024-05-28,1,,,,,ユニブランディング,0
1783,8010403032697,新規,0,2024-05-28,2024-05-28,エムスディ合同会社,,合同会社,東京都,港区,六本木１丁目４番５号アークヒルズサウスタワー３０３,,13,103,1060032,,,,,,,2024-05-28,1,,,,,エムスディ,0
1784,8010405023249,新規,0,2024-05-28,2024-05-28,多摩城西管工事業協同組合,,その他の設立登記法人,東京都,港区,芝公園２丁目４番１号,,13,103,1050011,,,,,,,2024-05-28,1,,,,,タマジョウサイカンコウジギョウ,0
1786,8010501052358,新規,0,2024-05-28,2024-05-28,Ｉｎｎ　Ｉｎｎ株式会社,,株式会社,東京都,台東区,上野２丁目１４番地３０,,13,106,1100005,,,,,,,2024-05-28,1,,,,,インイン,0
1788,8010601065202,新規,0,2024-05-28,2024-05-28,株式会社起業家フリースクールＴＯＫＹＯ,,株式会社,東京都,江東区,常盤２丁目１３－１１－１０１号,,13,108,1350006,,,,,,,2024-05-28,1,,,,,キギョウカフリースクールトウキョウ,0
1800,8011001162275,新規,0,2024-05-28,2024-05-28,株式会社ＤＡＲＥ,,株式会社,東京都,渋谷区,桜丘町３番１－１８０８号,,13,113,1500031,,,,,,,2024-05-28,1,,,,,ダーレ,0
1804,8011103014465,新規,0,2024-05-28,2024-05-28,合同会社ＡＩＭ,,合同会社,東京都,新宿区,大久保２丁目１７番３６号,,13,104,1690072,,,,,,,2024-05-28,1,,,,,エーアイエム,0
1807,8011301029703,新規,0,2024-05-28,2024-05-28,株式会社共栄テクノ,,株式会社,東京都,杉並区,高井戸東４丁目１３番１７号,,13,115,1680072,,,,,,,2024-05-28,1,,,,,キョウエイテクノ,0
1808,8011303005173,新規,0,2024-05-28,2024-05-28,合同会社オレンジＭＥＮ,,合同会社,東京都,杉並区,和田３丁目２３番１３号エスポワール東高円寺１０１,,13,115,1660012,,,,,,,2024-05-28,1,,,,,オレンジメン,0
1810,8011401026121,新規,0,2024-05-28,2024-05-28,株式会社京和,,株式会社,東京都,板橋区,大山東町３２番１８号ルイ・ステージ大山４０１,,13,119,1730014,,,,,,,2024-05-28,1,,,,,キョウワ,0
1817,8011801044292,新規,0,2024-05-28,2024-05-28,株式会社ＭＤ,,株式会社,東京都,葛飾区,東新小岩５丁目１０番２－２０６号レクセルガーデン新小岩第２,,13,122,1240023,,,,,,,2024-05-28,1,,,,,エムディー,0
1818,8012301013928,新規,0,2024-05-28,2024-05-28,株式会社サンブリエ,,株式会社,東京都,町田市,中町３丁目１０番６,,13,209,1940021,,,,,,,2024-05-28,1,,,,,サンブリエ,0
1831,8020001157417,新規,0,2024-05-28,2024-05-28,株式会社リライブ,,株式会社,神奈川県,横浜市港南区,港南台７丁目４８番３号サンライト港南台４０２号,,14,111,2340054,,,,,,,2024-05-28,1,,,,,リライブ,0
1832,8020001157441,新規,0,2024-05-28,2024-05-28,株式会社ブローディア,,株式会社,神奈川県,横浜市瀬谷区,中央１番地７プランドール横濱,,14,114,2460014,,,,,,,2024-05-28,1,,,,,ブローディア,0
1836,8020003026223,新規,0,2024-05-28,2024-05-28,ヨコハマ森ビル合同会社,,合同会社,神奈川県,横浜市旭区,笹野台１丁目１－３０,,14,112,2410816,,,,,,,2024-05-28,1,,,,,ヨコハマモリビル,0
1840,8020005016437,新規,0,2024-05-28,2024-05-28,一般財団法人ＴＮ中村記念財団,,その他の設立登記法人,神奈川県,横浜市神奈川区,栄町２番地の９,,14,102,2210052,,,,,,,2024-05-28,1,,,,,ティーエヌナカムラキネンザイダン,0
1842,8021001082282,新規,0,2024-05-28,2024-05-28,株式会社積水ホーム,,株式会社,神奈川県,座間市,南栗原３丁目２－３－５１２,,14,216,2520015,,,,,,,2024-05-28,1,,,,,セキスイホーム,0
1843,8021003014531,新規,0,2024-05-28,2024-05-28,合同会社Ｒｏｏｆｉｎｇ　Ｃａｒｅ,,合同会社,神奈川県,横須賀市,汐入町４丁目４７番地５コートドール汐入１０４,,14,201,2380042,,,,,,,2024-05-28,1,,,,,ルーフィングケア,0
1844,8021003014548,新規,0,2024-05-28,2024-05-28,合同会社ＳＮＧ　Ｊａｐａｎ,,合同会社,神奈川県,相模原市中央区,東淵野辺１丁目１８番２１号ライフアップ古淵１０１,,14,152,2520203,,,,,,,2024-05-28,1,,,,,エスエヌジージャパン,0
1845,8021005013119,新規,0,2024-05-28,2024-05-28,特定非営利活動法人三徳,,その他の設立登記法人,神奈川県,座間市,相模が丘６丁目３０番２号,,14,216,2520001,,,,,,,2024-05-28,1,,,,,サントク,0
1850,8030001160584,新規,0,2024-05-28,2024-05-28,株式会社パリー,,株式会社,埼玉県,秩父市,番場町１９番８号,,11,207,3680041,,,,,,,2024-05-28,1,,,,,パリー,0
1851,8030001160592,新規,0,2024-05-28,2024-05-28,栄元株式会社,,株式会社,埼玉県,戸田市,喜沢１丁目１８－１１サンクレイドル西川口ＩＩ７０３室,00134929,11,224,3350013,,,,,,,2024-05-28,1,,,,,エイゲン,0
1862,8040001133770,新規,0,2024-05-28,2024-05-28,ＹＯＩファーマシー株式会社,,株式会社,千葉県,船橋市,本町３丁目８番２７－１号,,12,204,2730005,,,,,,,2024-05-28,1,,,,,ヨイファーマシー,0
1866,8040003025074,新規,0,2024-05-28,2024-05-28,Ａ２Ｚ　ＩＮＴＥＲＮＡＴＩＯＮＡＬ合同会社,,合同会社,千葉県,袖ケ浦市,横田２２０８番地５,,12,229,2990236,,,,,,,2024-05-28,1,,,,,エートゥーゼットインターナショナル,0
1872,8080101024734,新規,0,2024-05-28,2024-05-28,株式会社不動産のまえじま,,株式会社,静岡県,富士市,宮島９５０番地の８,,22,210,4160945,,,,,,,2024-05-28,1,,,,,フドウサンノマエジマ,0
1880,8100001037503,新規,0,2024-05-28,2024-05-28,株式会社Ｇ‐ｃｌｏｕｄ,,株式会社,長野県,飯田市,大瀬木１３０７番地５,,20,205,3950157,,,,,,,2024-05-28,1,,,,,ジークラウド,0
1882,8100003007578,新規,0,2024-05-28,2024-05-28,合同会社コーネル,,合同会社,長野県,小諸市,大手１丁目２－２,,20,208,3840031,,,,,,,2024-05-28,1,,,,,コーネル,0
1892,8120001265309,新規,0,2024-05-28,2024-05-28,ＬＩＡＮＧＡＮ　ＡＩテクノロジー株式会社,,株式会社,大阪府,大阪市生野区,鶴橋２丁目９－２０,,27,116,5440031,,,,,,,2024-05-28,1,,,,,リアンガンエーアイテクノロジー,0
1893,8120001265366,新規,0,2024-05-28,2024-05-28,新橋株式会社,,株式会社,大阪府,大阪市生野区,新今里５丁目７番６－４０３号,,27,116,5440001,,,,,,,2024-05-28,1,,,,,シンキョウ,0
1897,8120003026700,新規,0,2024-05-28,2024-05-28,合同会社リアン,,合同会社,大阪府,大阪市此花区,四貫島２丁目２０番１３号１０１,,27,104,5540014,,,,,,,2024-05-28,1,,,,,リアン,0
1899,8120101069675,新規,0,2024-05-28,2024-05-28,株式会社ＲｅＴａｂｙ,,株式会社,大阪府,高石市,東羽衣４丁目５番２３号,,27,225,5920003,,,,,,,2024-05-28,1,,,,,リタビー,0
1910,8140001134560,新規,0,2024-05-28,2024-05-28,ｙ・ｋ・上田株式会社,,株式会社,兵庫県,神戸市西区,井吹台西町６丁目１４番地の１０,,28,111,6512243,,,,,,,2024-05-28,1,,,,,ワイケイウエダ,0
1912,8140003020627,新規,0,2024-05-28,2024-05-28,合同会社ＦＩＲＳＴ　ＣＯＭＰＡＮＹ,,合同会社,兵庫県,神戸市西区,平野町印路３４８番地の４,,28,111,6512266,,,,,,,2024-05-28,1,,,,,ファーストカンパニー,0
1920,8180001161650,新規,0,2024-05-28,2024-05-28,株式会社トラステラ,,株式会社,愛知県,名古屋市港区,十一屋１丁目４７番地の１,,23,111,4550831,,,,,,,2024-05-28,1,,,,,トラステラ,0
1930,8180003026827,新規,0,2024-05-28,2024-05-28,合同会社美化名古屋,,合同会社,愛知県,名古屋市東区,泉３丁目７－１０泉ビル３Ｆ,,23,102,4610001,,,,,,,2024-05-28,1,,,,,ビカナゴヤ,0
1931,8180003026843,新規,0,2024-05-28,2024-05-28,合同会社クラセバ,,合同会社,愛知県,名古屋市西区,児玉３丁目３６番３４号,,23,104,4510066,,,,,,,2024-05-28,1,,,,,クラセバ,0
1936,8190003004690,新規,0,2024-05-28,2024-05-28,ＧＵＵＤＥＳＩＧＮ合同会社,,合同会社,三重県,伊賀市,西明寺２８７４番地の１レオパレス２１西明寺１０８,,24,216,5180809,,,,,,,2024-05-28,1,,,,,グーデザイン,0
1938,8190005011958,新規,0,2024-05-28,2024-05-28,一般社団法人シスチノーシス患者と家族の会,,その他の設立登記法人,三重県,津市,久居新町７２７番地６,,24,201,5141118,,,,,,,2024-05-28,1,,,,,シスチノーシスカンジャトカゾクノカイ,0
1946,8260003004717,新規,0,2024-05-28,2024-05-28,合同会社クリスタルエース,,合同会社,岡山県,津山市,押入２７２―５,,33,203,7081126,,,,,,,2024-05-28,1,,,,,クリスタルエース,0
1957,8290001105902,新規,0,2024-05-28,2024-05-28,株式会社悠久,,株式会社,福岡県,福岡市博多区,榎田１丁目２番１８号,,40,132,8120004,,,,,,,2024-05-28,1,,,,,ユウキュウ,0
1958,8290003015356,新規,0,2024-05-28,2024-05-28,Ｔｉｇｅｒ　Ｅｎｔｅｒｐｒｉｓｅｓ合同会社,,合同会社,福岡県,福岡市博多区,冷泉町２番９号クレアランドマーク３０５,,40,132,8120039,,,,,,,2024-05-28,1,,,,,タイガーエンタープライゼズ,0
1963,8330001032101,新規,0,2024-05-28,2024-05-28,アワシティブランディング株式会社,,株式会社,熊本県,合志市,須屋２５０番地１,,43,216,8611102,,,,,,,2024-05-28,1,,,,,アワシティブランディング,0
1966,8360003014012,新規,0,2024-05-28,2024-05-28,合同会社新,,合同会社,沖縄県,島尻郡与那原町,字与那原３５４３番地の５,,47,348,9011303,,,,,,,2024-05-28,1,,,,,シン,0
1979,8430005014993,新規,0,2024-05-28,2024-05-28,一般社団法人こじま,,その他の設立登記法人,北海道,札幌市白石区,東札幌一条３丁目２番１－２５０１号,,01,104,0030001,,,,,,,2024-05-28,1,,,,,コジマ,0
1992,8500003003256,新規,0,2024-05-28,2024-05-28,合同会社ジェネラス,,合同会社,愛媛県,今治市,旭町３丁目２番地１０ルミウス旭町３０１号室,,38,202,7940042,,,,,,,2024-05-28,1,,,,,ジェネラス,0
1993,8700150122037,新規,0,2024-05-28,2024-05-28,ＨＯＮＨＡＮ　ＩＮＤＵＳＴＲＹ　ＣＯ．，ＬＴＤ,,外国会社等,,,,,,,,１２ｇ－２６，Ｗａｎｔｅ　３ｒｄ，Ｇａｏｘｉｎ　Ｚｏｎｅ　Ｎｉｎｇｂｏ　Ｚｈｅｊｉａｎｇ　３１５０４０　ＣＮ,,,,,,2024-05-28,1,,,,,ホンハンインダストリアルカンパニーリミテッド,0
1994,8700150122598,新規,0,2024-05-28,2024-05-28,ＺＨＯＮＧＳＨＡＮ　ＡＮＮＡＩＸＩＮ　ＪＩＮＳＨＵ　ＺＨＩ　ＰＩＮ　ＹＯＵ　ＸＩＡＮ　ＧＯＮＧ　ＳＩ,,外国会社等,,,,,,,,ｓａｎｘｉａｎｇｚｈｅｎｗａｎｌｉｌｕ５ｈａｏＣｄｏｎｇｃｈａｎｇｆａｎｇｙｉｌｏｕ，ＢｄｏｎｇｃｈａｎｇｆａｎｇｙｉｌｏｕＢ　ｚｈｏｎｇｓｈａｎｓｈｉ　ｇｕａｎｇｄｏｎｇｓｈｅｎｇ　５２８４６３　ＣＮ,,,,,,2024-05-28,1,,,,,チョンシャンアンナイシンジンシュウジーピンヨウシエンゴンス,0
1995,8700150123068,新規,0,2024-05-28,2024-05-28,ＳＨＥＮＺＨＥＮＳＨＩＹＵＣＨＥＮＧＫＥＪＩＹＯＵＸＩＡＮＧＯＮＧＳＩ,,外国会社等,,,,,,,,ｌｏｎｇｇａｎｇｑｕｌｏｎｇｃｈｅｎｇｊｉｅｄａｏａｉｌｉａｎｓｈｅｑｕ　ｂｉｎｆｅｎｓｈｉｊｉｇｏｎｇｙｕＢｚｕｏ３０Ｅ　ｓｈｅｎｚｈｅｎｓｈｉ　５１８０００　ＣＮ,,,,,,2024-05-28,1,,,,,シェンジェンシユウチェンクージヨウシエンゴンス,0
1996,8700150124578,新規,0,2024-05-28,2024-03-27,白浜町遊休農地対策組織等検討協議会,,その他,和歌山県,西牟婁郡白浜町,栄７３１番地の５,,30,401,6492332,,,,,,,2024-03-27,1,,,,,シラハマチヨウユウキユウノウチタイサクソシキトウケントウキヨウギカイ,0
1997,8700150125056,新規,0,2024-05-28,2024-04-23,大阪府立桜和高等学校ＰＴＡ,,その他,大阪府,大阪市北区,松ケ枝町１－３８,,27,127,5300037,,,,,,,2024-04-23,1,,,,,オオサカフリツオウワコウトウガツコウピーテイーエー,0
2016,9010003043862,新規,0,2024-05-28,2024-05-28,合同会社ＡＶＡＴＡＲ　ＥＤＧＥ,,合同会社,東京都,千代田区,神田猿楽町２丁目８－１１ＶＯＲＴ水道橋ＩＩＩ,00134923,13,101,1010064,,,,,,,2024-05-28,1,,,,,アバターエッジ,0
2017,9010003043870,新規,0,2024-05-28,2024-05-28,Ｍｉｒｉ　Ｃａｐｉｔａｌ　Ｍａｎａｇｅｍｅｎｔ　Ｊａｐａｎ合同会社,,合同会社,東京都,中央区,日本橋３丁目９番１号日本橋三丁目スクエア１１階,,13,102,1030027,,,,,,,2024-05-28,1,,,,,ミリキャピタルマネジメントジャパン,0
2018,9010003043879,新規,0,2024-05-28,2024-05-28,ＮＮプロパティ・スリー合同会社,,合同会社,東京都,千代田区,大手町２丁目２番２号アーバンネット大手町ビル,,13,101,1000004,,,,,,,2024-05-28,1,,,,,エヌエヌプロパティスリー,0
2034,9010401182527,新規,0,2024-05-28,2024-05-28,株式会社丹渓,,株式会社,東京都,港区,新橋１丁目１８－２明宏ビル別館７階,,13,103,1050004,,,,,,,2024-05-28,1,,,,,タンケイ,0
2035,9010401182700,新規,0,2024-05-28,2024-05-28,株式会社ＫＲＩＴ,,株式会社,東京都,港区,六本木３丁目７－１ザ・六本木東京クラブレジデンス３２０６,,13,103,1060032,,,,,,,2024-05-28,1,,,,,ケイアールアイティー,0
2036,9010401182709,新規,0,2024-05-28,2024-05-28,株式会社ミウラエンパシー,,株式会社,東京都,港区,高輪２丁目１５番３５号,,13,103,1080074,,,,,,,2024-05-28,1,,,,,ミウラエンパシー,0
2037,9010401182733,新規,0,2024-05-28,2024-05-28,エイチスリーアール株式会社,,株式会社,東京都,港区,港南２丁目１６番７号,,13,103,1080075,,,,,,,2024-05-28,1,,,,,エイチスリーアール,0
2038,9010401182741,新規,0,2024-05-28,2024-05-28,株式会社ノン,,株式会社,東京都,港区,海岸１丁目１番１号,,13,103,1050022,,,,,,,2024-05-28,1,,,,,ノン,0
2042,9010501052340,新規,0,2024-05-28,2024-05-28,株式会社ジェーワン,,株式会社,東京都,台東区,東上野１丁目９番７号ＹＴＳビル６階,,13,106,1100015,,,,,,,2024-05-28,1,,,,,ジェーワン,0
2056,9011001161945,新規,0,2024-05-28,2024-05-28,株式会社３６エージェンシー,,株式会社,東京都,渋谷区,渋谷２丁目１１番５号クロスオフィス渋谷メディオ９－Ｄ号室,,13,113,1500002,,,,,,,2024-05-28,1,,,,,サンロクエージェンシー,0
2057,9011001162200,新規,0,2024-05-28,2024-05-28,シフト株式会社,,株式会社,東京都,渋谷区,神南１丁目１２番１６号,,13,113,1500041,,,,,,,2024-05-28,1,,,,,シフト,0
2058,9011001162241,新規,0,2024-05-28,2024-05-28,株式会社ファイナンスラボ,,株式会社,東京都,渋谷区,円山町５番５号Ｎａｖｉ渋谷Ｖ３階,,13,113,1500044,,,,,,,2024-05-28,1,,,,,ファイナンスラボ,0
2059,9011001162282,新規,0,2024-05-28,2024-05-28,株式会社ＥｖｅｒＢｌｏｏｍ,,株式会社,東京都,目黒区,鷹番３丁目８番１７号５Ｆ,,13,110,1520004,,,,,,,2024-05-28,1,,,,,エヴァーブルーム,0
2064,9011101107468,新規,0,2024-05-28,2024-05-28,鋒行芸術株式会社,,株式会社,東京都,新宿区,高田馬場４丁目４番８号コーポアルプ４０７,,13,104,1690075,,,,,,,2024-05-28,1,,,,,ホウコウゲイジュツ,0
2071,9011303005172,新規,0,2024-05-28,2024-05-28,合同会社パークシティ,,合同会社,東京都,杉並区,大宮２丁目１４－３－２０２,,13,115,1680061,,,,,,,2024-05-28,1,,,,,,0
2075,9011401026120,新規,0,2024-05-28,2024-05-28,Ｒｅｅｖｅｓ株式会社,,株式会社,東京都,板橋区,高島平８丁目１５番１０号パレット高島平４２４,,13,119,1750082,,,,,,,2024-05-28,1,,,,,リーブス,0
2076,9011401026129,新規,0,2024-05-28,2024-05-28,株式会社カネハル,,株式会社,東京都,板橋区,東新町２丁目３８－１２,,13,119,1740074,,,,,,,2024-05-28,1,,,,,カネハル,0
2080,9011703003841,新規,0,2024-05-28,2024-05-28,Ｐｒｏｖｉｄｅ　Ｐｌａｃｅ合同会社,,合同会社,東京都,江戸川区,南小岩８丁目１０－１８,,13,123,1330056,,,,,,,2024-05-28,1,,,,,プロバイドプレイス,0
2084,9012301013927,新規,0,2024-05-28,2024-05-28,株式会社ＥＴＥＬＮＯ,,株式会社,東京都,町田市,木曽西１丁目２８番５号,,13,209,1940037,,,,,,,2024-05-28,1,,,,,エテルノ,0
2087,9012401041877,新規,0,2024-05-28,2024-05-28,峰華株式会社,,株式会社,東京都,狛江市,中和泉２丁目１０番１４－２０１号,,13,219,2010012,,,,,,,2024-05-28,1,,,,,ホウカ,0
2103,9020001157416,新規,0,2024-05-28,2024-05-28,株式会社ＹＣＩ,,株式会社,神奈川県,横浜市南区,高根町１丁目３番地１ラティエラ横濱大通り公園８０９,,14,105,2320022,,,,,,,2024-05-28,1,,,,,ワイシーアイ,0
2105,9020002005268,新規,0,2024-05-28,2024-05-28,有限会社アーバングリーン,,有限会社,神奈川県,横浜市都筑区,折本町１７８８番地６,,14,118,2240043,,,,,,,2024-05-28,1,,,,,アーバングリーン,0
2113,9021001082315,新規,0,2024-05-28,2024-05-28,株式会社想楽‐ＳＯＲＡ,,株式会社,神奈川県,鎌倉市,津西１丁目２４番２０－１号,,14,204,2480034,,,,,,,2024-05-28,1,,,,,ソラ,0
2118,9030001160567,新規,0,2024-05-28,2024-05-28,株式会社栄和,,株式会社,埼玉県,川口市,東領家３丁目９番２号東領家コーポ３０２,,11,203,3320003,,,,,,,2024-05-28,1,,,,,エイワ,0
2119,9030001160583,新規,0,2024-05-28,2024-05-28,株式会社ＤＩＶＯＯＭ,,株式会社,埼玉県,朝霞市,溝沼６丁目２２番４１号,,11,227,3510023,,,,,,,2024-05-28,1,,,,,ディヴォーム,0
2127,9040001133761,新規,0,2024-05-28,2024-05-28,株式会社ＮＥＯ,,株式会社,千葉県,千葉市若葉区,若松町５３７番地５１,,12,104,2640021,,,,,,,2024-05-28,1,,,,,ネオ,0
2128,9040001133778,新規,0,2024-05-28,2024-05-28,株式会社Ｈｉｔ　Ｃｏｌｌｅｃｔｉｏｎ,,株式会社,千葉県,船橋市,本町７丁目１５番１９－４０３号,,12,204,2730005,,,,,,,2024-05-28,1,,,,,ヒットコレクション,0
2129,9040001133794,新規,0,2024-05-28,2024-05-28,ＣＯＲＥ　ＦＡＲＭ株式会社,,株式会社,千葉県,船橋市,夏見１丁目６番２０号,,12,204,2730865,,,,,,,2024-05-28,1,,,,,コアファーム,0
2133,9040003025073,新規,0,2024-05-28,2024-05-28,エクラアドバイザーズ合同会社,,合同会社,千葉県,浦安市,日の出１丁目４番Ｃ－１４０２号,,12,227,2790013,,,,,,,2024-05-28,1,,,,,エクラアドバイザーズ,0
2140,9080401027205,新規,0,2024-05-28,2024-05-28,株式会社ＫＳＫ,,株式会社,静岡県,湖西市,梅田９３７番地の７アヴァンセＩ－１０２,,22,221,4310425,,,,,,,2024-05-28,1,,,,,ケーエスケー,0
2144,9100001037493,新規,0,2024-05-28,2024-05-28,株式会社キャンピングカー長野パーツ,,株式会社,長野県,中野市,大字吉田２６番地１,,20,211,3830015,,,,,,,2024-05-28,1,,,,,キャンピングカーナガノパーツ,0
2145,9100001037502,新規,0,2024-05-28,2024-05-28,ＳＥＥＤ株式会社,,株式会社,長野県,北佐久郡軽井沢町,大字発地３４８番地１６,,20,321,3890113,,,,,,,2024-05-28,1,,,,,シード,0
2146,9100003007569,新規,0,2024-05-28,2024-05-28,合同会社暁,,合同会社,長野県,佐久市,猿久保７０６番地２,,20,217,3850011,,,,,,,2024-05-28,1,,,,,アカツキ,0
2153,9120001265290,新規,0,2024-05-28,2024-05-28,株式会社サクラ自動車商会,,株式会社,大阪府,大阪市港区,田中１丁目３番２４号,,27,107,5520005,,,,,,,2024-05-28,1,,,,,サクラジドウシャショウカイ,0
2154,9120001265349,新規,0,2024-05-28,2024-05-28,ＣＦ株式会社,,株式会社,大阪府,大阪市淀川区,三津屋北１丁目７番１４号,,27,123,5320032,,,,,,,2024-05-28,1,,,,,シーエフ,0
2155,9120001265365,新規,0,2024-05-28,2024-05-28,株式会社英明電気,,株式会社,大阪府,大阪市生野区,勝山北４丁目１４番２３号,,27,116,5440033,,,,,,,2024-05-28,1,,,,,エイメイデンキ,0
2156,9120003026690,新規,0,2024-05-28,2024-05-28,合同会社カセダ,,合同会社,大阪府,大阪市生野区,巽中２丁目５番３３号エムオービル２Ｆ,00134934,27,116,5440013,,,,,,,2024-05-28,1,,,,,カセダ,0
2157,9120003026699,新規,0,2024-05-28,2024-05-28,合同会社大森クリエイティブ,,合同会社,大阪府,大阪市住吉区,万代６丁目２０－２３,,27,120,5580055,,,,,,,2024-05-28,1,,,,,オオモリクリエイティブ,0
2158,9120103005859,新規,0,2024-05-28,2024-05-28,合同会社ＴＡＴＳＵＯ,,合同会社,大阪府,堺市北区,北長尾町１丁５番２５号,,27,146,5918043,,,,,,,2024-05-28,1,,,,,タツオ,0
2163,9122001038131,新規,0,2024-05-28,2024-05-28,株式会社ＮＥＸＴ　ＥＬＥＶＡＴＯＲ,,株式会社,大阪府,大東市,諸福１丁目１０番１６号,,27,218,5740044,,,,,,,2024-05-28,1,,,,,ネクストエレベーター,0
2168,9130001077099,新規,0,2024-05-28,2024-05-28,株式会社ＱＵＥＥＮｓ,,株式会社,京都府,京都市北区,大宮西野山町２１－５９－１０２,,26,101,6038444,,,,,,,2024-05-28,1,,,,,クイーンズ,0
2169,9130001077140,新規,0,2024-05-28,2024-05-28,株式会社川見工業,,株式会社,京都府,南丹市,八木町氷所丞殿垣内１１番地,,26,213,6290121,,,,,,,2024-05-28,1,,,,,カワミコウギョウ,0
2176,9140003020618,新規,0,2024-05-28,2024-05-28,ｏｒａ’９３合同会社,,合同会社,兵庫県,神戸市東灘区,住吉本町２丁目１４番１９号山口ビル２Ｆ西,,28,101,6580051,,,,,,,2024-05-28,1,,,,,オーラキュウサン,0
2180,9160001025955,新規,0,2024-05-28,2024-05-28,松月株式会社,,株式会社,滋賀県,大津市,和邇今宿７７０番地３,,25,201,5200524,,,,,,,2024-05-28,1,,,,,ショウゲツ,0
2192,9180003026801,新規,0,2024-05-28,2024-05-28,ラビスタ合同会社,,合同会社,愛知県,日進市,岩崎町元井ゲ１７番地４４,,23,230,4700131,,,,,,,2024-05-28,1,,,,,ラビスタ,0
2193,9180003026826,新規,0,2024-05-28,2024-05-28,合同会社シイユウ,,合同会社,愛知県,名古屋市港区,春田野２丁目１６０４番地エターナルＩＩ３０２号,00134926,23,111,4550873,,,,,,,2024-05-28,1,,,,,シイユウ,0
2194,9180301038606,新規,0,2024-05-28,2024-05-28,株式会社宇騰商事,,株式会社,愛知県,豊田市,高上２丁目６番地８,,23,211,4710013,,,,,,,2024-05-28,1,,,,,ウトウショウジ,0
2204,9200003006362,新規,0,2024-05-28,2024-05-28,合同会社ＢＬＩＳＳ,,合同会社,岐阜県,岐阜市,竜田町４丁目１１番地プレサンスロジェ岐阜ザ・クラス１１０３,,21,201,5008402,,,,,,,2024-05-28,1,,,,,ブリス,0
2210,9240003006689,新規,0,2024-05-28,2024-05-28,合同会社Ｔｈｉｒｄ　Ｗａｙ,,合同会社,広島県,広島市中区,舟入中町３－３１ダイアパレス舟入中４０４,,34,101,7300842,,,,,,,2024-05-28,1,,,,,サードウェイ,0
2213,9260001039111,新規,0,2024-05-28,2024-05-28,ＬＩＦＥ　ＳＨＩＦＴ株式会社,,株式会社,岡山県,瀬戸内市,長船町土師５１２番地,,33,212,7014264,,,,,,,2024-05-28,1,,,,,ライフシフト,0
2215,9260005011363,新規,0,2024-05-28,2024-05-28,一般社団法人晴れの国お産所,,その他の設立登記法人,岡山県,笠岡市,新賀３２５０番地１,,33,205,7140005,,,,,,,2024-05-28,1,,,,,ハレノクニオサンジョ,0
2239,9360001033723,新規,0,2024-05-28,2024-05-28,石垣島物産センター株式会社,,株式会社,沖縄県,石垣市,字登野城６３５番地,,47,207,9070004,,,,,,,2024-05-28,1,,,,,イシガキジマブッサンセンター,0
2246,9380003005768,新規,0,2024-05-28,2024-05-28,ＧＲＥＥＮ　ＦＩＥＬＤ合同会社,,合同会社,福島県,いわき市,草木台２丁目１５番地の４,,07,204,9728301,,,,,,,2024-05-28,1,,,,,グリーンフィールド,0
2248,9390001017616,新規,0,2024-05-28,2024-05-28,株式会社ＦｕｔｕｒｅＨｏｐｅＣｒｅａｔｅ,,株式会社,山形県,東田川郡庄内町,余目字滑石１２－８,,06,428,9997781,,,,,,,2024-05-28,1,,,,,フューチャーホープクリエイト,0
2253,9420001018742,新規,0,2024-05-28,2024-05-28,株式会社富達貿易,,株式会社,青森県,平川市,碇ヶ関西碇ヶ関山１番２５９,,02,210,0380101,,,,,,,2024-05-28,1,,,,,トミタチボウエキ,0
2259,9440003001595,新規,0,2024-05-28,2024-05-28,合同会社函館源兵衛,,合同会社,北海道,函館市,松風町１番２０号,,01,202,0400035,,,,,,,2024-05-28,1,,,,,ハコダテゲンベエ,0
2268,9490005006943,新規,0,2024-05-28,2024-05-28,農事組合法人ＨＫ集落営農,,その他の設立登記法人,高知県,幡多郡三原村,大字宮ノ川１２７１番地９９,,39,427,7870802,,,,,,,2024-05-28,1,,,,,エイチケイシュウラクエイノウ,0
2270,9500003003255,新規,0,2024-05-28,2024-05-28,のぐちグリーン合同会社,,合同会社,愛媛県,東温市,北野田１５３番地１,,38,215,7910215,,,,,,,2024-05-28,1,,,,,ノグチグリーン,0
2271,9700150121731,新規,0,2024-05-28,2024-05-28,ＳＨＥＮ　ＺＨＥＮ　ＳＨＩ　ＹＯＵ　ＹＩ　ＢＡＩ　ＫＥ　ＪＩ　ＹＯＵ　ＸＩＡＮ　ＧＯＮＧ　ＳＩ,,外国会社等,,,,,,,,Ｓｈｅｎ　Ｚｈｅｎ　Ｓｈｉ　Ｆｕ　Ｔｉａｎ　Ｑｕ　Ｌｉａｎ　Ｈｕａ　Ｊｉｅ　Ｄａｏ　Ｌｉａｎ　Ｈｕａ　Ｘｉ　Ｌｕ　Ｄｉ　Ｍｅｎｇ　Ｙｕａｎ　３　Ｑｉ　Ａ　Ｚｕｏ　２４０８　Ｓｈｅｎｚｈｅｎ　Ｇｕａｎｇｄｏｎｇ　５１８０００　ＣＮ,,,,,,2024-05-28,1,,,,,シェンジェンシヨウイーバイクージヨウシネンゴンス,0
2272,9700150122597,新規,0,2024-05-28,2024-05-28,ＳＴＲＥＥＴ　ＣＡＴ,,外国会社等,,,,,,,,１　Ｆｌｏｏｒ，３８　Ｂｌｏｃｋ，Ｘｉｎｍｕｙｉｎｙｕａｎ　Ｉｎｄｕｓｔｒｉａｌ　Ｐａｒｋ，Ｐｉｎｇｈｕ　Ｓｔ　ｓｈｅｎｚｈｅｎ　ｇｕａｎｇｄｏｎｇ　５１８１１１　ＣＮ,,,,,,2024-05-28,1,,,,,ストリートキャット,0
