sequenceNumber,corporateNumber,process,correct,updateDate,changeDate,name,nameImageId,kind,prefectureName,cityName,streetNumber,addressImageId,prefectureCode,cityCode,postCode,addressOutside,addressOutsideImageId,closeDate,closeCause,successorCorporateNumber,changeCause,assignmentDate,latest,enName,enPrefectureName,enCityName,enAddressOutside,furigana,hihyoji
11,1010001253396,新規,0,2025-03-25,2025-03-25,ＳＥＩＹＯ株式会社,,株式会社,東京都,千代田区,外神田２丁目１－８スクエア秋葉原１１７号室,,13,101,1010021,,,,,,,2025-03-25,1,,,,,セイヨウ,0
12,1010001253405,新規,0,2025-03-25,2025-03-25,株式会社ライフケア,,株式会社,東京都,中央区,晴海１丁目６番１－１５０４号,,13,102,1040053,,,,,,,2025-03-25,1,,,,,ライフケア,0
13,1010001253421,新規,0,2025-03-25,2025-03-25,株式会社Ｒｕｔｈ　Ｃｌｅａｎｉｎｇ　Ｔｅｃｈｎｏｌｏｇｙ,,株式会社,東京都,中央区,銀座１丁目１９番１４号銀座ＯＮＥビル６階,,13,102,1040061,,,,,,,2025-03-25,1,,,,,ルースクリーニングテクノロジー,0
14,1010001253495,新規,0,2025-03-25,2025-03-25,株式会社ＬｕＴｈｉｒｄ,,株式会社,東京都,中央区,銀座７丁目３－７ブランエスパ銀座１１階Ｂ区画,,13,102,1040061,,,,,,,2025-03-25,1,,,,,ラサード,0
17,1010003046856,新規,0,2025-03-25,2025-03-25,Ｓｏｌｔａ　Ｍｅｄｉｃａｌ　Ｊａｐａｎ合同会社,,合同会社,東京都,中央区,日本橋３丁目９番１号日本橋三丁目スクエア１１階,,13,102,1030027,,,,,,,2025-03-25,1,,,,,ソルタメディカルジャパン,0
18,1010003046864,新規,0,2025-03-25,2025-03-25,合同会社ＥＦ‐ＢＥＳＳ５号,,合同会社,東京都,千代田区,丸の内２丁目２番１号岸本ビルヂング１０階株式会社レイズ内,,13,101,1000005,,,,,,,2025-03-25,1,,,,,イーエフベスゴゴウ,0
19,1010005039791,新規,0,2025-03-25,2025-03-25,一般社団法人ＡＴＪ９,,その他の設立登記法人,東京都,千代田区,丸の内１丁目４番１号東京共同会計事務所内,,13,101,1000005,,,,,,,2025-03-25,1,,,,,エーティージェイナイン,0
20,1010005039800,新規,0,2025-03-25,2025-03-25,ベゴニア一般社団法人,,その他の設立登記法人,東京都,中央区,日本橋１丁目４番１号日本橋一丁目ビルディング,,13,102,1030027,,,,,,,2025-03-25,1,,,,,ベゴニア,0
21,1010101016579,新規,0,2025-03-25,2025-03-25,Ａｉｒ＆ＭｏｔｏＣｒａｆｔ株式会社,,株式会社,東京都,八王子市,追分町６－１１,,13,201,1920056,,,,,,,2025-03-25,1,,,,,エアーアンドモトクラフト,0
25,1010601067015,新規,0,2025-03-25,2025-03-25,株式会社シェルターワン,,株式会社,東京都,江東区,潮見２丁目８番１３号,,13,108,1350052,,,,,,,2025-03-25,1,,,,,シェルターワン,0
26,1010603011458,新規,0,2025-03-25,2025-03-25,サクラチャーム合同会社,,合同会社,東京都,墨田区,立花１丁目２８－３立花一丁目団地３棟９１２号室,,13,107,1310043,,,,,,,2025-03-25,1,,,,,サクラチャーム,0
30,1010903009796,新規,0,2025-03-25,2025-03-25,合同会社ｐｒｏｐ,,合同会社,東京都,世田谷区,太子堂４丁目１８番１５号マガザン三軒茶屋２―３Ｆ―３,,13,112,1540004,,,,,,,2025-03-25,1,,,,,プロップ,0
35,1011001168287,新規,0,2025-03-25,2025-03-25,ＳＴ‐ＭＩＲＡＩ株式会社,,株式会社,東京都,渋谷区,道玄坂２丁目１５－１－２０６,,13,113,1500043,,,,,,,2025-03-25,1,,,,,エスティーミライ,0
36,1011001168378,新規,0,2025-03-25,2025-03-25,株式会社デアイ,,株式会社,東京都,渋谷区,道玄坂１丁目１６－６二葉ビル８ｂ,,13,113,1500043,,,,,,,2025-03-25,1,,,,,デアイ,0
37,1011001168460,新規,0,2025-03-25,2025-03-25,株式会社ＬＥＯ,,株式会社,東京都,渋谷区,富ヶ谷１丁目４４番２号Ａ－ＦＬＡＴ４０１,,13,113,1510063,,,,,,,2025-03-25,1,,,,,レオ,0
39,1011003021254,新規,0,2025-03-25,2025-03-25,合同会社インディゴ,,合同会社,東京都,渋谷区,渋谷２丁目１９‐１５宮益坂ビルディング６０９,,13,113,1500002,,,,,,,2025-03-25,1,,,,,インディゴ,0
45,1011103015676,新規,0,2025-03-25,2025-03-25,ツリーネーム合同会社,,合同会社,東京都,新宿区,西新宿３丁目３－１３西新宿水間ビル６階,,13,104,1600023,,,,,,,2025-03-25,1,,,,,ツリーネーム,0
48,1011501031853,新規,0,2025-03-25,2025-03-25,株式会社ライト,,株式会社,東京都,北区,赤羽北２丁目１５番１－８０８号,,13,117,1150052,,,,,,,2025-03-25,1,,,,,ライト,0
51,1011701028162,新規,0,2025-03-25,2025-03-25,リンクバディ株式会社,,株式会社,東京都,江戸川区,東葛西８丁目３－１－６０１,,13,123,1340084,,,,,,,2025-03-25,1,,,,,リンクバディ,0
52,1011701028187,新規,0,2025-03-25,2025-03-25,株式会社ＭＡＹＡ,,株式会社,東京都,江戸川区,西小岩２丁目１６番５号コーポ初音１０１,,13,123,1330057,,,,,,,2025-03-25,1,,,,,マヤ,0
54,1011801045850,新規,0,2025-03-25,2025-03-25,ＣＰテクノロジーズ株式会社,,株式会社,東京都,足立区,千住寿町３９－８,,13,121,1200033,,,,,,,2025-03-25,1,,,,,シーピーテクノロジーズ,0
64,1013301054002,新規,0,2025-03-25,2025-03-25,ゴーゴージャパン株式会社,,株式会社,東京都,豊島区,東池袋１丁目３３番４－６０３号,,13,116,1700013,,,,,,,2025-03-25,1,,,,,ゴーゴージャパン,0
67,1020001161912,新規,0,2025-03-25,2025-03-25,ラフト株式会社,,株式会社,神奈川県,横浜市港北区,新横浜３丁目１７番１２号アルファスペース新横浜ビステーション新横浜内,,14,109,2220033,,,,,,,2025-03-25,1,,,,,ラフト,0
73,1021001084789,新規,0,2025-03-25,2025-03-25,株式会社光南警備保障,,株式会社,神奈川県,茅ヶ崎市,東海岸南１丁目１８番４号,,14,207,2530054,,,,,,,2025-03-25,1,,,,,コウナンケイビホショウ,0
82,1040001137968,新規,0,2025-03-25,2025-03-25,Ｆｅｌｉｚａ株式会社,,株式会社,千葉県,山武市,椎崎３６番地２,,12,237,2891205,,,,,,,2025-03-25,1,,,,,フェリザ,0
86,1040003027184,新規,0,2025-03-25,2025-03-25,合同会社ダブルレインボー,,合同会社,千葉県,船橋市,三山４丁目１３番１号,,12,204,2740072,,,,,,,2025-03-25,1,,,,,ダブルレインボー,0
90,1060003005485,新規,0,2025-03-25,2025-03-25,合同会社トリル,,合同会社,栃木県,宇都宮市,西川田本町２丁目６－１８,,09,201,3210158,,,,,,,2025-03-25,1,,,,,トリル,0
91,1070003005831,新規,0,2025-03-25,2025-03-25,合同会社Ｅｑｕａｌｉｔｙ　ＰＬＵＳ,,合同会社,群馬県,伊勢崎市,今泉町１丁目１２４１番地,,10,204,3720031,,,,,,,2025-03-25,1,,,,,イクオリティプラス,0
96,1100005013309,新規,0,2025-03-25,2025-03-25,農事組合法人部奈の風,,その他の設立登記法人,長野県,下伊那郡松川町,生田２６２２－３,,20,402,3993302,,,,,,,2025-03-25,1,,,,,ベナノカゼ,0
97,1110001039133,新規,0,2025-03-25,2025-03-25,株式会社ｃｌｉｃｋｓｙ,,株式会社,新潟県,新潟市中央区,新和１丁目６番２０号アーク笹出,,15,103,9500972,,,,,,,2025-03-25,1,,,,,クリクシー,0
99,1110005017201,新規,0,2025-03-25,2025-03-25,特定非営利活動法人新潟県北サイクルツーリズム,,その他の設立登記法人,新潟県,村上市,瀬波温泉２丁目４番２９号,,15,212,9580037,,,,,,,2025-03-25,1,,,,,ニイガタケンホクサイクルツーリズム,0
107,1120001273854,新規,0,2025-03-25,2025-03-25,株式会社セリーナ,,株式会社,大阪府,大阪市港区,市岡元町２丁目６番１１－３０６号,,27,107,5520002,,,,,,,2025-03-25,1,,,,,セリーナ,0
108,1120001273870,新規,0,2025-03-25,2025-03-25,株式会社ジラフ,,株式会社,大阪府,大阪市住吉区,山之内１丁目１０番２８－１２０１号,,27,120,5580023,,,,,,,2025-03-25,1,,,,,ジラフ,0
109,1120001273895,新規,0,2025-03-25,2025-03-25,株式会社ＫＳＣ,,株式会社,大阪府,大阪市住之江区,御崎５丁目８番１９号メゾネット御崎２０５,,27,125,5590013,,,,,,,2025-03-25,1,,,,,ケーエスシー,0
110,1120001273929,新規,0,2025-03-25,2025-03-25,秋源株式会社,,株式会社,大阪府,大阪市西成区,橘１丁目１１－２８オフィスポート橘５１１号室,,27,122,5570051,,,,,,,2025-03-25,1,,,,,シュウゲン,0
111,1120001273978,新規,0,2025-03-25,2025-03-25,株式会社プロスコーポレーション,,株式会社,大阪府,大阪市中央区,南船場１丁目３番１６号,,27,128,5420081,,,,,,,2025-03-25,1,,,,,プロスコーポレーション,0
112,1120003028918,新規,0,2025-03-25,2025-03-25,合同会社Ｏｆｆｉｃｅ　ＨＯＮＤＡ,,合同会社,大阪府,大阪市福島区,福島３丁目１－５５ユニハイム中之島７０３,,27,103,5530003,,,,,,,2025-03-25,1,,,,,オフィスホンダ,0
117,1120101071316,新規,0,2025-03-25,2025-03-25,株式会社カナメ,,株式会社,大阪府,堺市中区,宮園町９番３－８０９号,,27,142,5998274,,,,,,,2025-03-25,1,,,,,カナメ,0
118,1120101071324,新規,0,2025-03-25,2025-03-25,啓川株式会社,,株式会社,大阪府,阪南市,貝掛６３番３号シーサイド貝掛Ｂ棟４０６号室,,27,232,5990231,,,,,,,2025-03-25,1,,,,,ケイカワ,0
123,1122005003816,新規,0,2025-03-25,2025-03-25,一般社団法人Ａｌｌｏｕｔ,,その他の設立登記法人,大阪府,東大阪市,菱屋西５丁目６番１０号,,27,227,5770807,,,,,,,2025-03-25,1,,,,,オールアウト,0
126,1130001079251,新規,0,2025-03-25,2025-03-25,Ｆａｉｒｗａｙ　Ｒｉｄｅ株式会社,,株式会社,京都府,京都市南区,西九条開ケ町４１番地１,,26,107,6018439,,,,,,,2025-03-25,1,,,,,フェアウェイライド,0
128,1140001137702,新規,0,2025-03-25,2025-03-25,株式会社阪神内装,,株式会社,兵庫県,神戸市兵庫区,下三条町４番３号,,28,105,6520014,,,,,,,2025-03-25,1,,,,,ハンシンナイソウ,0
129,1140001137850,新規,0,2025-03-25,2025-03-25,ＳＵＶＩＡ株式会社,,株式会社,兵庫県,神戸市中央区,二宮町４丁目２－３、６０５号室,,28,110,6510093,,,,,,,2025-03-25,1,,,,,スヴィア,0
130,1140001137909,新規,0,2025-03-25,2025-03-25,株式会社Ｄｅｅｐｎｏａ,,株式会社,兵庫県,芦屋市,船戸町５番２６号,,28,206,6590093,,,,,,,2025-03-25,1,,,,,ディープノア,0
136,1140003021821,新規,0,2025-03-25,2025-03-25,ＳＲＴ合同会社,,合同会社,兵庫県,姫路市,豊富町御蔭１２９５－１,,28,201,6792122,,,,,,,2025-03-25,1,,,,,エスアールティ,0
138,1140005027412,新規,0,2025-03-25,2025-03-25,医療法人社団若林医院,,その他の設立登記法人,兵庫県,姫路市,御立東１丁目２８５番２,,28,201,6700072,,,,,,,2025-03-25,1,,,,,ワカバヤシイイン,0
139,1150001027976,新規,0,2025-03-25,2025-03-25,株式会社カトウ,,株式会社,奈良県,葛城市,北花内９２７番地,,29,211,6392113,,,,,,,2025-03-25,1,,,,,カトウ,0
140,1160001026630,新規,0,2025-03-25,2025-03-25,株式会社でらはちホールディングス,,株式会社,滋賀県,米原市,顔戸４５４番地,,25,214,5210072,,,,,,,2025-03-25,1,,,,,デラハチホールディングス,0
156,1220005008924,新規,0,2025-03-25,2025-03-25,ＵＡゼンセンイオングループ労働組合連合会マックスバリュ北陸ワーカーズユニオン,,その他の設立登記法人,石川県,金沢市,鞍月４丁目１３３番地,,17,201,9208203,,,,,,,2025-03-25,1,,,,,ユーエーゼンセンイオングループレンゴウカイマックスバリュホクリクワーカーズユニオン,0
160,1240001064688,新規,0,2025-03-25,2025-03-25,ＩＳＳＩＮ株式会社,,株式会社,広島県,尾道市,久保町２２３１番地,,34,205,7220042,,,,,,,2025-03-25,1,,,,,イッシン,0
163,1250001021060,新規,0,2025-03-25,2025-03-25,株式会社さくらだシステム開発,,株式会社,山口県,周南市,大字戸田２３９０番地の３,,35,215,7451131,,,,,,,2025-03-25,1,,,,,サクラダシステムカイハツ,0
164,1250003003676,新規,0,2025-03-25,2025-03-25,合同会社Ｂｌｏｓｓｏｍ,,合同会社,山口県,宇部市,今村北５丁目２番１１－２０３号,,35,202,7550155,,,,,,,2025-03-25,1,,,,,ブラッサム,0
165,1260001040035,新規,0,2025-03-25,2025-03-25,株式会社エイト総業,,株式会社,岡山県,岡山市南区,福成１丁目１７８番地１０,,33,104,7028022,,,,,,,2025-03-25,1,,,,,エイトソウギョウ,0
167,1280003001933,新規,0,2025-03-25,2025-03-25,合同会社ＯＩＡＬＴ,,合同会社,島根県,松江市,西嫁島３丁目５番１１号,,32,201,6900048,,,,,,,2025-03-25,1,,,,,オイアルト,0
171,1290001109430,新規,0,2025-03-25,2025-03-25,株式会社ＴＨＲＥＥ　ＧＡＲＤＥＮ,,株式会社,福岡県,福岡市中央区,赤坂１丁目１１－２０,,40,133,8100042,,,,,,,2025-03-25,1,,,,,スリーガーデン,0
174,1290003016583,新規,0,2025-03-25,2025-03-25,ショウエイ合同会社,,合同会社,福岡県,糟屋郡宇美町,ゆりが丘１丁目７番１号,,40,341,8112108,,,,,,,2025-03-25,1,,,,,ショウエイ,0
176,1290801031379,新規,0,2025-03-25,2025-03-25,株式会社ＭＯＣＨＩパッケージ,,株式会社,福岡県,直方市,大字下境２４００番地,,40,204,8220007,,,,,,,2025-03-25,1,,,,,モチパッケージ,0
178,1300003002251,新規,0,2025-03-25,2025-03-25,合同会社串良ソーラーファーム,,合同会社,佐賀県,武雄市,山内町大字宮野字松ノ木原２２６４６番地,,41,206,8492305,,,,,,,2025-03-25,1,,,,,クシラソーラーファーム,0
183,1360003014786,新規,0,2025-03-25,2025-03-25,合同会社ＦＣ軽天内装,,合同会社,沖縄県,浦添市,伊祖２丁目４番１２号,,47,208,9012132,,,,,,,2025-03-25,1,,,,,エフシーケイテンナイソウ,0
204,1430001093981,新規,0,2025-03-25,2025-03-25,株式会社ＭａｒｋｅＡＩ,,株式会社,北海道,江別市,野幌屯田町３３番地の１７,,01,217,0690803,,,,,,,2025-03-25,1,,,,,マーケアイ,0
205,1430001093998,新規,0,2025-03-25,2025-03-25,株式会社ロックフォール,,株式会社,北海道,札幌市中央区,北一条西３丁目３－３１古久根ビル２Ｆ,,01,101,0600001,,,,,,,2025-03-25,1,,,,,ロックフォール,0
210,1430003017435,新規,0,2025-03-25,2025-03-25,合同会社ハラダ,,合同会社,北海道,札幌市豊平区,西岡二条１２丁目２番４７号,,01,105,0620032,,,,,,,2025-03-25,1,,,,,ハラダ,0
211,1430005015189,新規,0,2025-03-25,2025-03-25,医療法人社団春空会マリン歯科,,その他の設立登記法人,北海道,小樽市,稲穂３丁目１番１９号,,01,203,0470032,,,,,,,2025-03-25,1,,,,,シュンクウカイマリンシカ,0
214,1480001012788,新規,0,2025-03-25,2025-03-25,ＩＲＯＨＡ株式会社,,株式会社,徳島県,鳴門市,瀬戸町明神字越浦２００明神ショッピングセンター２号,,36,202,7710360,,,,,,,2025-03-25,1,,,,,イロハ,0
215,1490001010997,新規,0,2025-03-25,2025-03-25,株式会社セリーズ,,株式会社,高知県,高知市,高須砂地１５５番地,,39,201,7818101,,,,,,,2025-03-25,1,,,,,セリーズ,0
220,2010001253032,新規,0,2025-03-25,2025-03-25,株式会社Ｓｍａｒｔ　Ｔｉｍｅ,,株式会社,東京都,千代田区,平河町１丁目６－４,,13,101,1020093,,,,,,,2025-03-25,1,,,,,スマートタイム,0
221,2010001253189,新規,0,2025-03-25,2025-03-25,株式会社ほぐしやす,,株式会社,東京都,千代田区,四番町２番地１ＭＩＤＰＯＩＮＴ市ヶ谷,,13,101,1020081,,,,,,,2025-03-25,1,,,,,ホグシヤス,0
222,2010001253197,新規,0,2025-03-25,2025-03-25,ＦＰポノポノ株式会社,,株式会社,東京都,中央区,八重洲２丁目１番１号ＹＡＮＭＡＲＴＯＫＹＯ１２階,,13,102,1040028,,,,,,,2025-03-25,1,,,,,エフピーポノポノ,0
223,2010001253214,新規,0,2025-03-25,2025-03-25,株式会社桜田商事,,株式会社,東京都,千代田区,神田須田町１丁目１８番６第一谷ビル２０１,,13,101,1010041,,,,,,,2025-03-25,1,,,,,サクラダショウジ,0
224,2010001253437,新規,0,2025-03-25,2025-03-25,ＳＥＭＯ　ＡＩ株式会社,,株式会社,東京都,中央区,銀座７丁目１３番２１号銀座ｓｉｎｒｏｋｕｓｙｕビル２階,,13,102,1040061,,,,,,,2025-03-25,1,,,,,セモエーアイ,0
228,2010003046277,新規,0,2025-03-25,2025-03-25,合同会社ＩＷＡＴＡ　ＯＣＥＡＮ,,合同会社,東京都,中央区,新川２丁目６－１２,,13,102,1040033,,,,,,,2025-03-25,1,,,,,イワタオーシャン,0
229,2010003046863,新規,0,2025-03-25,2025-03-25,合同会社ＥＦ　Ｂｉｏｍａｓｓ１号,,合同会社,東京都,千代田区,丸の内２丁目２番１号岸本ビルヂング１０階株式会社レイズ内,,13,101,1000005,,,,,,,2025-03-25,1,,,,,イーエフバイオマスイチゴウ,0
230,2010005039790,新規,0,2025-03-25,2025-03-25,一般社団法人ＡＴＪ８,,その他の設立登記法人,東京都,千代田区,丸の内１丁目４番１号東京共同会計事務所内,,13,101,1000005,,,,,,,2025-03-25,1,,,,,エーティージェイエイト,0
232,2010101016578,新規,0,2025-03-25,2025-03-25,株式会社井上,,株式会社,東京都,八王子市,犬目町１０９９番地,,13,201,1930802,,,,,,,2025-03-25,1,,,,,イノウエ,0
238,2010903009770,新規,0,2025-03-25,2025-03-25,Ｋ’ｓ　ＡＩ　Ｌａｂｏ合同会社,,合同会社,東京都,世田谷区,深沢６丁目１４番２０号６１４プロス１０１,,13,112,1580081,,,,,,,2025-03-25,1,,,,,ケーズエーアイラボ,0
251,2011001168600,新規,0,2025-03-25,2025-03-25,株式会社ＨＩＲＡＧＡＮＡ,,株式会社,東京都,渋谷区,道玄坂１丁目１０番８号渋谷道玄坂東急ビル２Ｆ‐Ｃ,,13,113,1500043,,,,,,,2025-03-25,1,,,,,ヒラガナ,0
253,2011003021220,新規,0,2025-03-25,2025-03-25,合同会社Ｇｌｉｓｓ．,,合同会社,東京都,渋谷区,恵比寿４丁目７番８号アーバンヒル恵比寿２０１,,13,113,1500013,,,,,,,2025-03-25,1,,,,,グリス,0
254,2011003021229,新規,0,2025-03-25,2025-03-25,ＭｏｘｙＣｏｎｓｕｌｔｉｎｇ合同会社,,合同会社,東京都,渋谷区,恵比寿２丁目２１‐６,,13,113,1500013,,,,,,,2025-03-25,1,,,,,モクシーコンサルティング,0
255,2011003021261,新規,0,2025-03-25,2025-03-25,合同会社アイビースクエア,,合同会社,東京都,渋谷区,神宮前１丁目１０番３４－４１０号,,13,113,1500001,,,,,,,2025-03-25,1,,,,,アイビースクエア,0
259,2011401026944,新規,0,2025-03-25,2025-03-25,株式会社ＹＵＩＴＡＫＥアセット,,株式会社,東京都,板橋区,徳丸３丁目２２番１８－５０７号,,13,119,1750083,,,,,,,2025-03-25,1,,,,,ユイタケアセット,0
261,2011601028518,新規,0,2025-03-25,2025-03-25,株式会社富士見サイエンスオフィス,,株式会社,東京都,練馬区,貫井３丁目２９番２４号,,13,120,1760021,,,,,,,2025-03-25,1,,,,,フジミサイエンスオフィス,0
264,2011801045833,新規,0,2025-03-25,2025-03-25,レゲン・テクノロジー株式会社,,株式会社,東京都,足立区,足立４丁目３３番１号ＺＫＹビル２０３号室,,13,121,1200015,,,,,,,2025-03-25,1,,,,,レゲンテクノロジー,0
266,2012403007016,新規,0,2025-03-25,2025-03-25,合同会社ＨＡｉ,,合同会社,東京都,小金井市,貫井南町５丁目８－２６,,13,210,1840014,,,,,,,2025-03-25,1,,,,,ハイ,0
268,2012805003323,新規,0,2025-03-25,2025-03-25,一般社団法人ブルーメディカル搬送協会,,その他の設立登記法人,東京都,日野市,新町１丁目１３番１１－３０２号,,13,212,1910002,,,,,,,2025-03-25,1,,,,,ブルーメディカルハンソウキョウカイ,0
274,2013301053960,新規,0,2025-03-25,2025-03-25,ミロク株式会社,,株式会社,東京都,豊島区,南池袋２丁目４９－７池袋パークビル１Ｆ,,13,116,1710022,,,,,,,2025-03-25,1,,,,,ミロク,0
275,2013301053985,新規,0,2025-03-25,2025-03-25,冨士アセットマネジメント株式会社,,株式会社,東京都,豊島区,駒込６丁目２５番１５号,,13,116,1700003,,,,,,,2025-03-25,1,,,,,フジアセットマネジメント,0
276,2020001161861,新規,0,2025-03-25,2025-03-25,株式会社ハルノヒ,,株式会社,神奈川県,横浜市青葉区,荏田西２丁目３４番地４２,,14,117,2250014,,,,,,,2025-03-25,1,,,,,ハルノヒ,0
277,2020001161928,新規,0,2025-03-25,2025-03-25,株式会社川村商店,,株式会社,神奈川県,川崎市川崎区,日進町１番地サンスクエア川崎４－６０１,,14,131,2100024,,,,,,,2025-03-25,1,,,,,カワムラショウテン,0
279,2020003028092,新規,0,2025-03-25,2025-03-25,合同会社大福,,合同会社,神奈川県,川崎市高津区,新作６丁目４－３２リヴェールたちばな１０３号室,,14,134,2130014,,,,,,,2025-03-25,1,,,,,ダイフク,0
285,2030001165589,新規,0,2025-03-25,2025-03-25,株式会社Ｍグレース,,株式会社,埼玉県,所沢市,大字下富１０４７番地の４３,,11,208,3590001,,,,,,,2025-03-25,1,,,,,エムグレース,0
292,2040001137959,新規,0,2025-03-25,2025-03-25,株式会社大光,,株式会社,千葉県,勝浦市,墨名８１７番地２０,,12,218,2995225,,,,,,,2025-03-25,1,,,,,ダイコウ,0
293,2040001137983,新規,0,2025-03-25,2025-03-25,栄泰株式会社,,株式会社,千葉県,松戸市,西馬橋蔵元町５５番地２０７号室,,12,207,2710046,,,,,,,2025-03-25,1,,,,,エイタイ,0
295,2040003027076,新規,0,2025-03-25,2025-03-25,合同会社Ｅｎｚｏｒａ,,合同会社,千葉県,船橋市,本町１丁目１３－３２ＭＨビル３０２,,12,204,2730005,,,,,,,2025-03-25,1,,,,,エンゾラ,0
296,2040003027134,新規,0,2025-03-25,2025-03-25,合同会社インフィニティ,,合同会社,千葉県,松戸市,六高台８丁目１２６番地,,12,207,2702203,,,,,,,2025-03-25,1,,,,,インフィニティ,0
297,2040003027150,新規,0,2025-03-25,2025-03-25,盛裕合同会社,,合同会社,千葉県,印西市,草深１６７１番地３０,,12,231,2701337,,,,,,,2025-03-25,1,,,,,モリヒロ,0
298,2040005022686,新規,0,2025-03-25,2025-03-25,一般社団法人全国フットケアー協会,,その他の設立登記法人,千葉県,市川市,南八幡４丁目１４－５Ａ室,,12,203,2720023,,,,,,,2025-03-25,1,,,,,ゼンコクフットケアーキョウカイ,0
300,2060001038040,新規,0,2025-03-25,2025-03-25,株式会社ＵＮＧＬＥ,,株式会社,栃木県,小山市,大字犬塚５１番地１７６,,09,208,3230811,,,,,,,2025-03-25,1,,,,,アングル,0
302,2070001042751,新規,0,2025-03-25,2025-03-25,大友不動産株式会社,,株式会社,群馬県,桐生市,小曽根町８－２５,,10,203,3760000,,,,,,,2025-03-25,1,,,,,オオトモフドウサン,0
303,2070003005830,新規,0,2025-03-25,2025-03-25,合同会社Ｂ‐ＷＥＬＬ,,合同会社,群馬県,高崎市,旭町４７番地レーベン高崎フレシア１３０３号,,10,202,3700052,,,,,,,2025-03-25,1,,,,,ビーウェル,0
309,2110001039132,新規,0,2025-03-25,2025-03-25,株式会社サンアシストプラス,,株式会社,新潟県,新潟市南区,西白根６０番１,,15,106,9501262,,,,,,,2025-03-25,1,,,,,サンアシストプラス,0
316,2120001273952,新規,0,2025-03-25,2025-03-25,ビジアーク株式会社,,株式会社,大阪府,大阪市西成区,南津守５丁目９番２３号２Ｆ,,27,122,5570063,,,,,,,2025-03-25,1,,,,,ビジアーク,0
317,2120001273960,新規,0,2025-03-25,2025-03-25,株式会社国際ウナギヴィエン,,株式会社,大阪府,大阪市生野区,新今里３丁目２番１９－５０５号,,27,116,5440001,,,,,,,2025-03-25,1,,,,,コクサイウナギヴィエン,0
318,2120003028900,新規,0,2025-03-25,2025-03-25,Ａｐｌａｓｈ合同会社,,合同会社,大阪府,大阪市北区,堂島浜２丁目２番２８号,,27,127,5300004,,,,,,,2025-03-25,1,,,,,アプラッシュ,0
320,2120101071315,新規,0,2025-03-25,2025-03-25,未来研究所株式会社,,株式会社,大阪府,岸和田市,別所町３丁目１番８号,,27,202,5960045,,,,,,,2025-03-25,1,,,,,ミライケンキュウショ,0
321,2120101071323,新規,0,2025-03-25,2025-03-25,ツーエイキャピタル株式会社,,株式会社,大阪府,和泉市,上町４３３番地の１コーポラス杉,,27,219,5940002,,,,,,,2025-03-25,1,,,,,ツーエイキャピタル,0
322,2120103006343,新規,0,2025-03-25,2025-03-25,合同会社ＴＩＦＦＡＮＹ　ＣＯＵＲＴ,,合同会社,大阪府,堺市美原区,今井１１３番地,,27,147,5870061,,,,,,,2025-03-25,1,,,,,ティファニーコート,0
337,2140001137800,新規,0,2025-03-25,2025-03-25,株式会社知多,,株式会社,兵庫県,姫路市,的形町的形１７５８番地１,,28,201,6710111,,,,,,,2025-03-25,1,,,,,チタ,0
338,2140001137866,新規,0,2025-03-25,2025-03-25,株式会社紡希,,株式会社,兵庫県,伊丹市,西台１丁目１番１号伊丹阪急ビル５階,,28,207,6640858,,,,,,,2025-03-25,1,,,,,ツムギ,0
339,2140001137874,新規,0,2025-03-25,2025-03-25,株式会社ダピ,,株式会社,兵庫県,神戸市中央区,磯辺通１丁目１番１８号カサベラ国際プラザビル７０７号室,,28,110,6510084,,,,,,,2025-03-25,1,,,,,ダピ,0
343,2140003021820,新規,0,2025-03-25,2025-03-25,ＤｉｓｃｏｖｅｒｙＪａｐａｎ合同会社,,合同会社,兵庫県,神戸市中央区,古湊通２丁目２番２２号,,28,110,6500026,,,,,,,2025-03-25,1,,,,,ディスカバリージャパン,0
345,2140005027411,新規,0,2025-03-25,2025-03-25,特定非営利活動法人ダウン症サポートセンター,,その他の設立登記法人,兵庫県,芦屋市,岩園町４番２号,,28,206,6590013,,,,,,,2025-03-25,1,,,,,ダウンショウサポートセンター,0
350,2170001018543,新規,0,2025-03-25,2025-03-25,株式会社ロータス,,株式会社,和歌山県,和歌山市,田尻８１５番地５,,30,201,6410005,,,,,,,2025-03-25,1,,,,,ロータス,0
356,2180003028184,新規,0,2025-03-25,2025-03-25,合同会社ＣＲＯＳＳ　ＲＯＡＤ・コンサルティング,,合同会社,愛知県,名古屋市中区,金山１丁目９番１９号ミズノビル５階,,23,106,4600022,,,,,,,2025-03-25,1,,,,,クロスロードコンサルティング,0
359,2190005012029,新規,0,2025-03-25,2025-03-25,一般社団法人アートスペース美園,,その他の設立登記法人,三重県,桑名市,大字東方字寺屋敷１４１２番地１,,24,205,5110811,,,,,,,2025-03-25,1,,,,,アートスペースミソノ,0
361,2200001043562,新規,0,2025-03-25,2025-03-25,今井農建株式会社,,株式会社,岐阜県,高山市,丹生川町新張６０６番地１,,21,203,5062124,,,,,,,2025-03-25,1,,,,,イマイノウケン,0
367,2240003007124,新規,0,2025-03-25,2025-03-25,合同会社いけだ管財,,合同会社,広島県,東広島市,西条町下見４００番地１－１１１号,,34,212,7390044,,,,,,,2025-03-25,1,,,,,イケダカンザイ,0
370,2260001040034,新規,0,2025-03-25,2025-03-25,株式会社にこ,,株式会社,岡山県,総社市,小寺４０６番地１３,,33,208,7191155,,,,,,,2025-03-25,1,,,,,ニコ,0
373,2270001009169,新規,0,2025-03-25,2025-03-25,株式会社ＨＳＣ,,株式会社,鳥取県,鳥取市,湖山町北１丁目４５４番地５,,31,201,6800941,,,,,,,2025-03-25,1,,,,,エイチエスシー,0
385,2290801031378,新規,0,2025-03-25,2025-03-25,株式会社優光,,株式会社,福岡県,行橋市,大橋３丁目３番１９号２Ｆ,,40,213,8240003,,,,,,,2025-03-25,1,,,,,ユウコウ,0
387,2310001019510,新規,0,2025-03-25,2025-03-25,株式会社龍希建設,,株式会社,長崎県,佐世保市,早苗町６６７番地２２,,42,202,8593211,,,,,,,2025-03-25,1,,,,,タツキケンセツ,0
393,2350003004837,新規,0,2025-03-25,2025-03-25,合同会社サンテラス,,合同会社,宮崎県,日向市,大字日知屋５９４―１,,45,206,8830062,,,,,,,2025-03-25,1,,,,,サンテラス,0
399,2360001034950,新規,0,2025-03-25,2025-03-25,株式会社サンライズ,,株式会社,沖縄県,国頭郡金武町,字金武４８３番地の１,,47,314,9041201,,,,,,,2025-03-25,1,,,,,サンライズ,0
400,2360001034959,新規,0,2025-03-25,2025-03-25,株式会社ＢｔｏＣ,,株式会社,沖縄県,豊見城市,字豊崎１番地３７２,,47,212,9010225,,,,,,,2025-03-25,1,,,,,ビートシー,0
401,2360003014785,新規,0,2025-03-25,2025-03-25,合同会社良左官工業,,合同会社,沖縄県,中頭郡中城村,字泊３９５番地２,,47,328,9012402,,,,,,,2025-03-25,1,,,,,リョウサカンコウギョウ,0
402,2360003014793,新規,0,2025-03-25,2025-03-25,合同会社ＳＨＯＷ,,合同会社,沖縄県,那覇市,銘苅１丁目１２－１８ココヴィヴァーチェ５－Ｄ,,47,201,9000004,,,,,,,2025-03-25,1,,,,,ショー,0
403,2370001052381,新規,0,2025-03-25,2025-03-25,ケーディーズ宅建株式会社,,株式会社,宮城県,仙台市青葉区,北根４丁目２番１４号,,04,101,9810902,,,,,,,2025-03-25,1,,,,,ケーディーズタッケン,0
411,2390001017928,新規,0,2025-03-25,2025-03-25,株式会社Ｓｍｉｌｅｓバンケット,,株式会社,山形県,山形市,七日町１丁目２番５３号七日町メゾンドール３０１,,06,201,9900042,,,,,,,2025-03-25,1,,,,,スマイルズバンケット,0
415,2420003003088,新規,0,2025-03-25,2025-03-25,合同会社エイコーンズ,,合同会社,青森県,青森市,大字左堰字野田６１番地１,,02,201,0301273,,,,,,,2025-03-25,1,,,,,エイコーンズ,0
418,2430001093989,新規,0,2025-03-25,2025-03-25,株式会社五大,,株式会社,北海道,石狩郡新篠津村,第４４線北６５番地,,01,304,0681100,,,,,,,2025-03-25,1,,,,,ゴダイ,0
423,2450005004445,新規,0,2025-03-25,2025-03-25,医療法人社団桜道会,,その他の設立登記法人,北海道,旭川市,一条通６丁目７８番地１クリスタルビル５階,,01,204,0700031,,,,,,,2025-03-25,1,,,,,サクラミチカイ,0
425,2480001012787,新規,0,2025-03-25,2025-03-25,株式会社アクア管理サービス,,株式会社,徳島県,阿南市,那賀川町中島１９５番地１５,,36,204,7791245,,,,,,,2025-03-25,1,,,,,アクアカンリサービス,0
435,3010001253428,新規,0,2025-03-25,2025-03-25,株式会社ハートフルタイヨー,,株式会社,東京都,中央区,銀座８丁目１８番２号カスタリア銀座ＩＩＩ３０４,00138428,13,102,1040061,,,,,,,2025-03-25,1,,,,,ハートフルタイヨー,0
436,3010001253460,新規,0,2025-03-25,2025-03-25,株式会社ｅｌｌｉｅ,,株式会社,東京都,中央区,銀座１丁目１２番４号Ｎ＆ＥＢＬＤ．６Ｆ,,13,102,1040061,,,,,,,2025-03-25,1,,,,,エリー,0
437,3010003046854,新規,0,2025-03-25,2025-03-25,ＭＩＴＳＵＫＩ合同会社,,合同会社,東京都,文京区,本郷４丁目１６番６－１００５Ａ号,,13,105,1130033,,,,,,,2025-03-25,1,,,,,ミツキ,0
439,3010005039807,新規,0,2025-03-25,2025-03-25,ＥｄｇｅＣｏｎｎｅＸ　Ｊａｐａｎ４特定目的会社,,その他の設立登記法人,東京都,千代田区,霞が関３丁目２番６号東京倶楽部ビルディング１１階,,13,101,1000013,,,,,,,2025-03-25,1,,,,,エッジコネックスジャパンフォー,0
453,3010901056954,新規,0,2025-03-25,2025-03-25,株式会社ＲｙｕＷｏｒｋｓ,,株式会社,東京都,世田谷区,池尻２丁目３１番７－５０４号,,13,112,1540001,,,,,,,2025-03-25,1,,,,,,0
454,3010903009786,新規,0,2025-03-25,2025-03-25,ライフロカール合同会社,,合同会社,東京都,世田谷区,北沢４丁目２９番１３号,,13,112,1550031,,,,,,,2025-03-25,1,,,,,ライフロカール,0
458,3011001168376,新規,0,2025-03-25,2025-03-25,Ｃａｓｔｅｌｌａ　Ｎｏｖａ　Ｊａｐａｎ株式会社,,株式会社,東京都,渋谷区,広尾５丁目４番１２号,,13,113,1500012,,,,,,,2025-03-25,1,,,,,カステラノバジャパン,0
459,3011001168450,新規,0,2025-03-25,2025-03-25,株式会社ＩＤＥＡＬ‐ＬＯＧ,,株式会社,東京都,目黒区,下目黒１丁目１番１４号コノトラビル７Ｆ,,13,110,1530064,,,,,,,2025-03-25,1,,,,,アイデアルログ,0
460,3011001168467,新規,0,2025-03-25,2025-03-25,株式会社ＫＩＳ　ＤＥＳＩＧＮ,,株式会社,東京都,渋谷区,猿楽町３０番８号ツインビル代官山Ｂ－５０１,,13,113,1500033,,,,,,,2025-03-25,1,,,,,キッツデザイン,0
461,3011001168582,新規,0,2025-03-25,2025-03-25,ネクストペイメント株式会社,,株式会社,東京都,渋谷区,広尾１丁目６番１０号Ｇｉｒａｆｆａ１１階,,13,113,1500012,,,,,,,2025-03-25,1,,,,,ネクストペイメント,0
462,3011001168624,新規,0,2025-03-25,2025-03-25,株式会社キルマ,,株式会社,東京都,渋谷区,渋谷２丁目１９番１５号宮益坂ビルディング４１０,,13,113,1500002,,,,,,,2025-03-25,1,,,,,キルマ,0
463,3011003021203,新規,0,2025-03-25,2025-03-25,Ｓｐｒｉｎｇｂｏａｒｄ　Ｊａｐａｎ合同会社,,合同会社,東京都,渋谷区,恵比寿西２丁目８番４号,,13,113,1500021,,,,,,,2025-03-25,1,,,,,スプリングボードジャパン,0
480,3011801045840,新規,0,2025-03-25,2025-03-25,光月株式会社,,株式会社,東京都,足立区,関原三丁日１５番８号メゾン大和２０３号室,,13,121,1200000,,,,,,,2025-03-25,1,,,,,コウゲツ,0
481,3011801045849,新規,0,2025-03-25,2025-03-25,博丹株式会社,,株式会社,東京都,葛飾区,柴又３丁目１１番１１号カエデ柴又１０６号室,,13,122,1250052,,,,,,,2025-03-25,1,,,,,ハクタン,0
487,3013301054000,新規,0,2025-03-25,2025-03-25,株式会社日本エーコン．Ｅ,,株式会社,東京都,豊島区,西池袋１丁目１１番１号メトロポリタンプラザビル２０階,,13,116,1710021,,,,,,,2025-03-25,1,,,,,ニホンエーコンドットイー,0
488,3013301054009,新規,0,2025-03-25,2025-03-25,株式会社キープ,,株式会社,東京都,豊島区,東池袋１丁目１７番１１号パークハイツ池袋１１０５,,13,116,1700013,,,,,,,2025-03-25,1,,,,,キープ,0
489,3013301054017,新規,0,2025-03-25,2025-03-25,株式会社日本メディカル情報サポート,,株式会社,東京都,豊島区,要町１丁目１３－９メゾンデュセーヌ２０６,,13,116,1710043,,,,,,,2025-03-25,1,,,,,ニホンメディカルジョウホウサポート,0
495,3020001161927,新規,0,2025-03-25,2025-03-25,株式会社ＡＩ,,株式会社,神奈川県,川崎市中原区,井田３丁目２０－２０オレンジヒルズ１０１,,14,133,2110035,,,,,,,2025-03-25,1,,,,,アイ,0
499,3021003015773,新規,0,2025-03-25,2025-03-25,栃の木グローイング合同会社,,合同会社,神奈川県,中郡二宮町,二宮２１５６番地１０,,14,342,2590123,,,,,,,2025-03-25,1,,,,,トチノキグローイング,0
506,3030001165299,新規,0,2025-03-25,2025-03-25,ＬＵＸＩＡ　Ｔｅｃｈ株式会社,,株式会社,埼玉県,さいたま市大宮区,三橋２丁目５３９番地３,,11,103,3300856,,,,,,,2025-03-25,1,,,,,ルクシアテック,0
507,3030001165539,新規,0,2025-03-25,2025-03-25,株式会社ＹＳＫ‐Ｍｅｔａｌ,,株式会社,埼玉県,さいたま市西区,大字飯田３７番地７,,11,101,3310058,,,,,,,2025-03-25,1,,,,,ワイエスケーメタル,0
508,3030001165547,新規,0,2025-03-25,2025-03-25,雅ハウジング株式会社,,株式会社,埼玉県,さいたま市緑区,大字南部領辻３２０４番地１ＰＲＯＳＰＥＲ・ＯＮＥ・Ｗ．Ｏ１０２,00138425,11,109,3360973,,,,,,,2025-03-25,1,,,,,ミヤビハウジング,0
509,3030001165563,新規,0,2025-03-25,2025-03-25,株式会社Ｌｕｍｙｓ,,株式会社,埼玉県,三郷市,ピアラシティ２丁目１５番２０－Ｅ号,,11,237,3410050,,,,,,,2025-03-25,1,,,,,ルミス,0
516,3040001137958,新規,0,2025-03-25,2025-03-25,旺盛不動産開発株式会社,,株式会社,千葉県,浦安市,日の出６丁目１５番９号,,12,227,2790013,,,,,,,2025-03-25,1,,,,,オウセイフドウサンカイハツ,0
517,3040001137974,新規,0,2025-03-25,2025-03-25,株式会社ＳＳＳ,,株式会社,千葉県,野田市,木間ケ瀬３７８１番地６,,12,208,2700222,,,,,,,2025-03-25,1,,,,,スリーエス,0
518,3040001137982,新規,0,2025-03-25,2025-03-25,ルナヴァス株式会社,,株式会社,千葉県,市川市,曽谷５丁目９番４号,,12,203,2720832,,,,,,,2025-03-25,1,,,,,ルナヴァス,0
520,3040003027100,新規,0,2025-03-25,2025-03-25,ＴＫ合同会社,,合同会社,千葉県,松戸市,六実４丁目９番５号太田ビル３階,,12,207,2702204,,,,,,,2025-03-25,1,,,,,ティーケー,0
522,3060003005483,新規,0,2025-03-25,2025-03-25,合同会社ひまら,,合同会社,栃木県,宇都宮市,泉が丘４丁目４番５号今泉Ｃ市営住宅５号棟３４号室,,09,201,3210952,,,,,,,2025-03-25,1,,,,,ヒマラ,0
523,3070001042734,新規,0,2025-03-25,2025-03-25,株式会社ｅｃｌａｔ,,株式会社,群馬県,前橋市,総社町総社１１１６番地１タヅノビル２０１,,10,201,3710852,,,,,,,2025-03-25,1,,,,,エクラ,0
524,3070001042750,新規,0,2025-03-25,2025-03-25,アルアミン株式会社,,株式会社,群馬県,館林市,日向町８４８番地の３,,10,207,3740076,,,,,,,2025-03-25,1,,,,,アルアミン,0
527,3080101025398,新規,0,2025-03-25,2025-03-25,株式会社イエタ,,株式会社,静岡県,沼津市,井田１２７番地,,22,203,4103401,,,,,,,2025-03-25,1,,,,,イエタ,0
529,3100001038423,新規,0,2025-03-25,2025-03-25,Ａｕｇｕｓｔ　Ｖｅｎｔｕｒｅｓ　Ｊａｐａｎ株式会社,,株式会社,長野県,北佐久郡軽井沢町,大字長倉４５２４番地１,,20,321,3890111,,,,,,,2025-03-25,1,,,,,オーガストベンチャーズジャパン,0
530,3100003008052,新規,0,2025-03-25,2025-03-25,Ｈｏｐｅ合同会社,,合同会社,長野県,長野市,大字西尾張部１０２２－１３Ｅ２０２,,20,201,3810031,,,,,,,2025-03-25,1,,,,,ホープ,0
531,3110001039131,新規,0,2025-03-25,2025-03-25,株式会社燈,,株式会社,新潟県,新潟市中央区,南笹口１丁目１番３８号コープオリンピア８０８,,15,103,9500912,,,,,,,2025-03-25,1,,,,,アカリ,0
547,3120001273860,新規,0,2025-03-25,2025-03-25,株式会社吉泰,,株式会社,大阪府,大阪市東住吉区,照ケ丘矢田４丁目８番１１号,,27,121,5460021,,,,,,,2025-03-25,1,,,,,ヨシヤス,0
548,3120001273927,新規,0,2025-03-25,2025-03-25,ＺＤ株式会社,,株式会社,大阪府,大阪市淀川区,十三本町１丁目１８－７－７０４号室,,27,123,5320024,,,,,,,2025-03-25,1,,,,,ゼットディー,0
549,3120001273935,新規,0,2025-03-25,2025-03-25,Ｂｅｌｉｅｆ株式会社,,株式会社,大阪府,大阪市西区,土佐堀３丁目２－９－３０２号室,,27,106,5500001,,,,,,,2025-03-25,1,,,,,ビリーフ,0
554,3120101071314,新規,0,2025-03-25,2025-03-25,エンハンステクノ株式会社,,株式会社,大阪府,河内長野市,中片添町３６番２９号,,27,216,5860046,,,,,,,2025-03-25,1,,,,,エンハンステクノ,0
557,3120103006342,新規,0,2025-03-25,2025-03-25,Ｎ＆Ｋ　ＧＲＯＵＰ合同会社,,合同会社,大阪府,岸和田市,春木若松町１０番２６号,,27,202,5960006,,,,,,,2025-03-25,1,,,,,エヌアンドケーグループ,0
570,3140001137832,新規,0,2025-03-25,2025-03-25,株式会社ｔａｋｅ　ｔｗｏ,,株式会社,兵庫県,神戸市中央区,旭通３丁目２番１号,,28,110,6510095,,,,,,,2025-03-25,1,,,,,テイクツー,0
575,3150001027974,新規,0,2025-03-25,2025-03-25,株式会社プロステラヒライ,,株式会社,奈良県,香芝市,高山台３丁目２４番地１,,29,210,6390256,,,,,,,2025-03-25,1,,,,,プロステラヒライ,0
584,3170003002180,新規,0,2025-03-25,2025-03-25,合同会社ジンギＦｏｏｄ　Ｊａｐａｎ,,合同会社,和歌山県,和歌山市,神波３０番地８４,,30,201,6496315,,,,,,,2025-03-25,1,,,,,ジンギフードジャパン,0
591,3180001165986,新規,0,2025-03-25,2025-03-25,株式会社ＢｅＣｒｅａｔｅ,,株式会社,愛知県,名古屋市中区,栄３丁目３１番８号モリダイヤハイツ栄１００３,,23,106,4600008,,,,,,,2025-03-25,1,,,,,ビークリエイト,0
592,3180001166043,新規,0,2025-03-25,2025-03-25,株式会社キッズエールコンサルティング,,株式会社,愛知県,名古屋市東区,相生町７８番地主税ビル３Ｄ,,23,102,4610012,,,,,,,2025-03-25,1,,,,,キッズエールコンサルティング,0
597,3180003028159,新規,0,2025-03-25,2025-03-25,ｕｍｉ．ｄｅｓｉｇｎ合同会社,,合同会社,愛知県,名古屋市中村区,名駅３丁目４－１０アルティメイト名駅１ｓｔ２階,,23,105,4500002,,,,,,,2025-03-25,1,,,,,ウミデザイン,0
602,3190001032095,新規,0,2025-03-25,2025-03-25,株式会社Ｓｔｙｌｅ．,,株式会社,三重県,四日市市,桜町８５４８番地,,24,202,5121211,,,,,,,2025-03-25,1,,,,,スタイル,0
603,3190005012028,新規,0,2025-03-25,2025-03-25,事業協同組合緑風,,その他の設立登記法人,三重県,津市,大門１番２７号川井ビル２Ｂ,,24,201,5140027,,,,,,,2025-03-25,1,,,,,ミドリカゼ,0
611,3240001064694,新規,0,2025-03-25,2025-03-25,ＬａｎｄＴｈｅＣｏｎｔｒａｃｔ株式会社,,株式会社,広島県,呉市,仁方西神町１３番１６号,,34,202,7370145,,,,,,,2025-03-25,1,,,,,ランドザコントラクト,0
615,3250001021059,新規,0,2025-03-25,2025-03-25,株式会社ヨシモト設備工業,,株式会社,山口県,下松市,潮音町１丁目５番３０号,,35,207,7440074,,,,,,,2025-03-25,1,,,,,ヨシモトセツビコウギョウ,0
616,3250005008993,新規,0,2025-03-25,2025-03-25,協同組合ＴＳＵＮＯＳＨＩＭＡＤＯ,,その他の設立登記法人,山口県,下関市,豊北町大字神田３５８７番地２,,35,201,7595331,,,,,,,2025-03-25,1,,,,,ツノシマド,0
622,3290001109412,新規,0,2025-03-25,2025-03-25,潤発株式会社,,株式会社,福岡県,福岡市南区,多賀１丁目４番２５号多賀荘１０３号,,40,134,8150072,,,,,,,2025-03-25,1,,,,,ルゥンファー,0
623,3290001109429,新規,0,2025-03-25,2025-03-25,株式会社コノミ技術士事務所,,株式会社,福岡県,福岡市中央区,舞鶴３丁目８番１－６０４号,,40,133,8100073,,,,,,,2025-03-25,1,,,,,コノミギジュツシジムショ,0
625,3290003016573,新規,0,2025-03-25,2025-03-25,合同会社ワンダーランド,,合同会社,福岡県,久留米市,国分町１０６０番地１ハイカムール国分ＩＩ２０１,00138423,40,203,8390863,,,,,,,2025-03-25,1,,,,,ワンダーランド,0
628,3290801031377,新規,0,2025-03-25,2025-03-25,株式会社オフィスＬａｌａ,,株式会社,福岡県,北九州市八幡西区,春日台１丁目１２番１号,,40,109,8070844,,,,,,,2025-03-25,1,,,,,オフィスララ,0
638,3360001034958,新規,0,2025-03-25,2025-03-25,株式会社ＢＡＮＮＡＩソリューション,,株式会社,沖縄県,浦添市,宮城４丁目１８番２４－５０１号フリーベル浦添宮城,,47,208,9012126,,,,,,,2025-03-25,1,,,,,バンナイソリューション,0
639,3360003014792,新規,0,2025-03-25,2025-03-25,Ｐａｒａｄｉｓｅ　Ｔａｔｔｏｏ合同会社,,合同会社,沖縄県,中頭郡北谷町,字港１５番地６１パラダイスビル２０１,,47,326,9040114,,,,,,,2025-03-25,1,,,,,パラダイスタトゥー,0
642,3380003005996,新規,0,2025-03-25,2025-03-25,イキヌクヒト合同会社,,合同会社,福島県,郡山市,富久山町久保田字下河原１９１―１,,07,203,9638071,,,,,,,2025-03-25,1,,,,,イキヌクヒト,0
646,3420001019060,新規,0,2025-03-25,2025-03-25,株式会社ＮＲＴコーポレーション,,株式会社,青森県,青森市,松森３丁目１６番３２号ライフインメイトピアＣ－２０２,,02,201,0300965,,,,,,,2025-03-25,1,,,,,エヌアールティーコーポレーション,0
653,3430001093988,新規,0,2025-03-25,2025-03-25,株式会社Ｐｒｏｊｅｃｔ．Ｄ,,株式会社,北海道,札幌市豊平区,西岡五条１３丁目２１番６号Ｅｔｅｒｎａｌ－Ｃ号,,01,105,0620035,,,,,,,2025-03-25,1,,,,,プロジェクトディー,0
654,3430001093996,新規,0,2025-03-25,2025-03-25,株式会社コエクト,,株式会社,北海道,札幌市中央区,南一条西１６丁目１番地３２３　春野ビル３Ｆ,,01,101,0600061,,,,,,,2025-03-25,1,,,,,コエクト,0
656,3430005015187,新規,0,2025-03-25,2025-03-25,労働者協同組合放課後児童クラブふわっと,,その他の設立登記法人,北海道,江別市,新栄台４６－１２ケアハウスゆうあい内,,01,217,0690806,,,,,,,2025-03-25,1,,,,,ホウカゴジドウクラブフワット,0
658,3470003002844,新規,0,2025-03-25,2025-03-25,合同会社佐藤物流,,合同会社,香川県,さぬき市,長尾西２６５６番地２,,37,206,7692302,,,,,,,2025-03-25,1,,,,,サトウブツリュウ,0
659,3480001012786,新規,0,2025-03-25,2025-03-25,株式会社誠ホールディングス,,株式会社,徳島県,吉野川市,鴨島町山路字神ノ木７４０番地５,,36,205,7760036,,,,,,,2025-03-25,1,,,,,マコトホールデイングス,0
661,3490001010995,新規,0,2025-03-25,2025-03-25,株式会社ＳＡＴＯＹＡ,,株式会社,高知県,高知市,梅ノ辻１３番地３,,39,201,7808011,,,,,,,2025-03-25,1,,,,,,0
674,4010001253294,新規,0,2025-03-25,2025-03-25,ＣＲＩＳＰＹ　ＧＲＩＮＤＺ　ＩＮＴＥＲＮＡＴＩＯＮＡＬ株式会社,,株式会社,東京都,中央区,築地４丁目１２番２号ライオンズマンション東銀座１００５,,13,102,1040045,,,,,,,2025-03-25,1,,,,,クリスピーグラインズインターナショナル,0
675,4010001253419,新規,0,2025-03-25,2025-03-25,株式会社アウターク,,株式会社,東京都,千代田区,神田須田町１丁目７番８号ＶＯＲＴ秋葉原ＩＶ２Ｆ,00138427,13,101,1010041,,,,,,,2025-03-25,1,,,,,アウターク,0
679,4010003046845,新規,0,2025-03-25,2025-03-25,オーシャン・ラスター合同会社,,合同会社,東京都,千代田区,丸の内２丁目７番２号,,13,101,1000005,,,,,,,2025-03-25,1,,,,,オーシャンラスター,0
680,4010005039772,新規,0,2025-03-25,2025-03-25,一般社団法人ユニセック・グローバル,,その他の設立登記法人,東京都,文京区,弥生２丁目３番２号,,13,105,1130032,,,,,,,2025-03-25,1,,,,,ユニセックグローバル,0
681,4010103002533,新規,0,2025-03-25,2025-03-25,ＡＢＪＵ販売合同会社,,合同会社,東京都,八王子市,久保山町２丁目６－２,,13,201,1920023,,,,,,,2025-03-25,1,,,,,アブジュウハンバイ,0
682,4010103002541,新規,0,2025-03-25,2025-03-25,ＴｏｋｙｏＬｉｎｇｏ合同会社,,合同会社,東京都,八王子市,堀之内２５６番地２１０,,13,201,1920355,,,,,,,2025-03-25,1,,,,,トウキョウリンゴ,0
691,4010401188792,新規,0,2025-03-25,2025-03-25,プレジデンツ株式会社,,株式会社,東京都,港区,赤坂９丁目４－１,,13,103,1070052,,,,,,,2025-03-25,1,,,,,,0
692,4010401189056,新規,0,2025-03-25,2025-03-25,Ｐａｒｋｗｏｏｄ　Ｈｏｔｅｌｓ　Ｍａｎａｇｅｍｅｎｔ株式会社,,株式会社,東京都,港区,六本木７丁目１４番２３号ラウンドクロス六本木４－５Ｆ,,13,103,1060032,,,,,,,2025-03-25,1,,,,,パークウッドホテルズマネジメント,0
698,4010601066971,新規,0,2025-03-25,2025-03-25,株式会社ＬＩＢＨ,,株式会社,東京都,江東区,豊洲３丁目６―８―１８０５,,13,108,1350061,,,,,,,2025-03-25,1,,,,,エルアイビーエイチ,0
699,4010601067004,新規,0,2025-03-25,2025-03-25,株式会社ＶＡＬＴＩＡ,,株式会社,東京都,墨田区,両国２丁目１１番１号,,13,107,1300026,,,,,,,2025-03-25,1,,,,,ヴァルティア,0
700,4010601067012,新規,0,2025-03-25,2025-03-25,株式会社サプライズ,,株式会社,東京都,墨田区,太平４丁目１番１－２０１３号,,13,107,1300012,,,,,,,2025-03-25,1,,,,,サプライズ,0
707,4010901057068,新規,0,2025-03-25,2025-03-25,株式会社ｋｉｍｌｙｅ,,株式会社,東京都,世田谷区,梅丘１丁目３３番８－５０１号,,13,112,1540022,,,,,,,2025-03-25,1,,,,,キムリー,0
716,4011001168375,新規,0,2025-03-25,2025-03-25,株式会社ＢＡＺＵＫＵＲＩ,,株式会社,東京都,渋谷区,神宮前６丁目２３番４号桑野ビル２階,,13,113,1500001,,,,,,,2025-03-25,1,,,,,バズクリ,0
717,4011001168383,新規,0,2025-03-25,2025-03-25,株式会社Ｍ’ｒｅ,,株式会社,東京都,渋谷区,円山町５番１８号,,13,113,1500044,,,,,,,2025-03-25,1,,,,,エムアールイー,0
718,4011001168664,新規,0,2025-03-25,2025-03-25,株式会社ＣＥＴｏｋｙｏ,,株式会社,東京都,渋谷区,猿楽町２９番１８号ヒルサイドテラスＡ－３,,13,113,1500033,,,,,,,2025-03-25,1,,,,,シーイートーキョー,0
722,4011003021202,新規,0,2025-03-25,2025-03-25,合同会社ＨＡＫ,,合同会社,東京都,渋谷区,本町３丁目４１－１４ディームス渋谷本町５０２,,13,113,1510071,,,,,,,2025-03-25,1,,,,,ハク,0
728,4011503006462,新規,0,2025-03-25,2025-03-25,Ｓｕｍｍｉｔ　Ｒｉｃｈｅｓ合同会社,,合同会社,東京都,北区,豊島２丁目１０番６号１０９室,,13,117,1140003,,,,,,,2025-03-25,1,,,,,サミットリッチ,0
736,4012303002131,新規,0,2025-03-25,2025-03-25,合同会社Ｓａｖａ,,合同会社,東京都,町田市,南町田２丁目８－２１,,13,209,1940005,,,,,,,2025-03-25,1,,,,,サバ,0
738,4012403007030,新規,0,2025-03-25,2025-03-25,ＨＵマネジメント合同会社,,合同会社,東京都,調布市,調布ケ丘１丁目１１番地３４,,13,208,1820021,,,,,,,2025-03-25,1,,,,,エイチユーマネジメント,0
741,4013301053991,新規,0,2025-03-25,2025-03-25,文信株式会社,,株式会社,東京都,豊島区,西池袋２丁目４７－６第２オンダビル８階,,13,116,1710021,,,,,,,2025-03-25,1,,,,,ブンシン,0
742,4013303007590,新規,0,2025-03-25,2025-03-25,ＲＯ合同会社,,合同会社,東京都,豊島区,池袋２丁目５１番９号東建シティハイツ池袋,,13,116,1710014,,,,,,,2025-03-25,1,,,,,アールオー,0
744,4020001161901,新規,0,2025-03-25,2025-03-25,株式会社ポントム,,株式会社,神奈川県,横浜市中区,桜木町１丁目１０１番地１クロスゲート７階,,14,104,2310062,,,,,,,2025-03-25,1,,,,,ポントム,0
745,4020003027836,新規,0,2025-03-25,2025-03-25,合同会社ＧＥＮＴＥ,,合同会社,神奈川県,横浜市青葉区,しらとり台４－１－６０６,,14,117,2270054,,,,,,,2025-03-25,1,,,,,ジェンテ,0
746,4020003028058,新規,0,2025-03-25,2025-03-25,インターユナイト合同会社,,合同会社,神奈川県,横浜市都筑区,東山田２丁目１５番１１号,,14,118,2240023,,,,,,,2025-03-25,1,,,,,インターユナイト,0
747,4021001084794,新規,0,2025-03-25,2025-03-25,ＣＴＯワークス株式会社,,株式会社,神奈川県,伊勢原市,板戸８５７番地の１４,,14,214,2591145,,,,,,,2025-03-25,1,,,,,シーティーオーワークス,0
757,4030001165562,新規,0,2025-03-25,2025-03-25,株式会社ケアリアリティ,,株式会社,埼玉県,さいたま市見沼区,大字東新井３３１番地,,11,104,3370032,,,,,,,2025-03-25,1,,,,,ケアリアリティ,0
758,4030001165579,新規,0,2025-03-25,2025-03-25,株式会社Ｐｏｓｔ,,株式会社,埼玉県,加須市,騎西５１番地１,,11,210,3470105,,,,,,,2025-03-25,1,,,,,ポスト,0
759,4030003026390,新規,0,2025-03-25,2025-03-25,合同会社ＵＲＡＷＡのワイン館,,合同会社,埼玉県,さいたま市南区,別所３丁目４―１ＫＥＳＳＨＯＢＬＤＧ．１０３,,11,108,3360021,,,,,,,2025-03-25,1,,,,,ウラワノワインカン,0
767,4040001137965,新規,0,2025-03-25,2025-03-25,株式会社Ｇｏ‐ｎｅｘｔ,,株式会社,千葉県,市川市,行徳駅前２丁目２０番地１号ＴＳＫアベニュー２階,,12,203,2720133,,,,,,,2025-03-25,1,,,,,ゴーネクスト,0
771,4040003027149,新規,0,2025-03-25,2025-03-25,合同会社ＺＡ,,合同会社,千葉県,佐倉市,六崎１０２９番地１８,,12,212,2850812,,,,,,,2025-03-25,1,,,,,ゼットエー,0
772,4040003027173,新規,0,2025-03-25,2025-03-25,スノーホワイトインテリジェンス合同会社,,合同会社,千葉県,浦安市,高洲４丁目３番１－１３９号,,12,227,2790023,,,,,,,2025-03-25,1,,,,,スノーホワイトインテリジェンス,0
775,4060005010316,新規,0,2025-03-25,2025-03-25,特定非営利活動法人Ｈａｎｄｓ‐ｏｎ‐Ｈａｎｄｓ,,その他の設立登記法人,栃木県,宇都宮市,砥上町３３１番地１９,,09,201,3200856,,,,,,,2025-03-25,1,,,,,ハンズオンハンズ,0
776,4070001042725,新規,0,2025-03-25,2025-03-25,株式会社ヤナセルーフ,,株式会社,群馬県,藤岡市,中栗須６９－１２,,10,209,3750015,,,,,,,2025-03-25,1,,,,,ヤナセルーフ,0
777,4080101025397,新規,0,2025-03-25,2025-03-25,株式会社ＮＡＫＡＭＵＲＡ　ＡＩ,,株式会社,静岡県,富士市,今泉２４４５番地の１３,,22,210,4170001,,,,,,,2025-03-25,1,,,,,ナカムラエーアイ,0
778,4080105006492,新規,0,2025-03-25,2025-03-25,特定非営利活動法人谷戸山倶楽部,,その他の設立登記法人,静岡県,駿東郡小山町,菅沼２７６番地,,22,344,4101312,,,,,,,2025-03-25,1,,,,,ヤトヤマクラブ,0
780,4080401027812,新規,0,2025-03-25,2025-03-25,株式会社ｅシェルパ,,株式会社,静岡県,浜松市中央区,佐藤２丁目２４番１号,,22,138,4300807,,,,,,,2025-03-25,1,,,,,イーシェルパ,0
794,4120001273851,新規,0,2025-03-25,2025-03-25,ＡＩ　Ｆｕｔｕｒｅ株式会社,,株式会社,大阪府,大阪市西成区,橘１丁目１１番２８号オフィスポート橘３０９号室,,27,122,5570051,,,,,,,2025-03-25,1,,,,,エーアイフューチャー,0
795,4120001273926,新規,0,2025-03-25,2025-03-25,株式会社幻影旅団,,株式会社,大阪府,大阪市北区,梅田１丁目２番２号大阪駅前第２ビル１２－１２,,27,127,5300001,,,,,,,2025-03-25,1,,,,,ゲンエイリョダン,0
797,4120101071313,新規,0,2025-03-25,2025-03-25,株式会社福元商店,,株式会社,大阪府,堺市北区,北花田町４丁１０４番地２７,,27,146,5918002,,,,,,,2025-03-25,1,,,,,フクモトショウテン,0
798,4120103006341,新規,0,2025-03-25,2025-03-25,合同会社Ｙ’ｓ　ＨＯＵＳＥ,,合同会社,大阪府,岸和田市,山直中町６６６,,27,202,5960102,,,,,,,2025-03-25,1,,,,,ワイズハウス,0
806,4130003010310,新規,0,2025-03-25,2025-03-25,ＫＡＭＡＬＡ　ＧＲＯＵＰ合同会社,,合同会社,京都府,京都市左京区,下鴨松ノ木町４９番８号,,26,103,6060816,,,,,,,2025-03-25,1,,,,,カマラグループ,0
811,4140001137823,新規,0,2025-03-25,2025-03-25,株式会社クボテック,,株式会社,兵庫県,川西市,萩原台東１丁目７番地,,28,217,6660005,,,,,,,2025-03-25,1,,,,,クボテック,0
812,4140001137856,新規,0,2025-03-25,2025-03-25,株式会社ＷＩＬＬＫＮＯＴ,,株式会社,兵庫県,芦屋市,山芦屋町１４番１６号山芦屋テラスハウス４号,00138431,28,206,6590082,,,,,,,2025-03-25,1,,,,,ウィルノット,0
813,4140003021777,新規,0,2025-03-25,2025-03-25,Ｆａｉｔｈ合同会社,,合同会社,兵庫県,神戸市西区,樫野台２丁目１８－２３,,28,111,6512275,,,,,,,2025-03-25,1,,,,,フェイス,0
816,4150001027973,新規,0,2025-03-25,2025-03-25,株式会社観古,,株式会社,奈良県,橿原市,五井町２２３番地１０,,29,205,6340832,,,,,,,2025-03-25,1,,,,,カンコ,0
817,4150003003535,新規,0,2025-03-25,2025-03-25,ＹＳＮ合同会社,,合同会社,奈良県,磯城郡田原本町,大字宮古３２９番地の６,,29,363,6360302,,,,,,,2025-03-25,1,,,,,ワイエスエヌ,0
818,4160001026628,新規,0,2025-03-25,2025-03-25,資産管理ソリューションズ株式会社,,株式会社,滋賀県,大津市,粟津町４番７号石山駅前近江鉄道ビル５階ｂｉｌｌａｇｅＯＴＳＵ１１６,,25,201,5200832,,,,,,,2025-03-25,1,,,,,シサンカンリソリューションズ,0
828,4180001165985,新規,0,2025-03-25,2025-03-25,株式会社月花,,株式会社,愛知県,名古屋市中区,金山３丁目１番２号（スリーアイランドタワー金山７０２号）,,23,106,4600022,,,,,,,2025-03-25,1,,,,,ゲッカ,0
829,4180001166034,新規,0,2025-03-25,2025-03-25,静山株式会社,,株式会社,愛知県,名古屋市中区,栄５丁目１０番１４号ルイ栄４０１,,23,106,4600008,,,,,,,2025-03-25,1,,,,,セイザン,0
834,4180301039641,新規,0,2025-03-25,2025-03-25,株式会社ＴＲＩＬＬＩＯＮ,,株式会社,愛知県,岡崎市,美合町字生田２２５パラシオ美合４０５,,23,202,4440804,,,,,,,2025-03-25,1,,,,,トリリオン,0
835,4180303006499,新規,0,2025-03-25,2025-03-25,合同会社アモレ,,合同会社,愛知県,豊田市,喜多町１丁目９９番地,,23,211,4710027,,,,,,,2025-03-25,1,,,,,アモレ,0
836,4190001032094,新規,0,2025-03-25,2025-03-25,アンペア株式会社,,株式会社,三重県,員弁郡東員町,大字六把野新田１９４番地１７,,24,324,5110242,,,,,,,2025-03-25,1,,,,,アンペア,0
843,4230003002396,新規,0,2025-03-25,2025-03-25,合同会社Ｃａｒｏｎｏ,,合同会社,富山県,小矢部市,西福町１１番２７号,,16,209,9320042,,,,,,,2025-03-25,1,,,,,カロノ,0
844,4240001064702,新規,0,2025-03-25,2025-03-25,株式会社Ｔｉａｒａ,,株式会社,広島県,広島市中区,江波南２丁目１－３０,,34,101,7300835,,,,,,,2025-03-25,1,,,,,ティアラ,0
846,4240003007122,新規,0,2025-03-25,2025-03-25,ＴＯＨＯｒａｃｉｎｇ合同会社,,合同会社,広島県,東広島市,八本松東２丁目８番１７号宮億ビル３Ｆ,,34,212,7390142,,,,,,,2025-03-25,1,,,,,トウホウレーシング,0
851,4260001040032,新規,0,2025-03-25,2025-03-25,ウエタ製パン株式会社,,株式会社,岡山県,岡山市南区,大福３１４,,33,104,7010204,,,,,,,2025-03-25,1,,,,,ウエタセイパン,0
855,4290001109428,新規,0,2025-03-25,2025-03-25,株式会社ワンポリッシュデザインスタジオ,,株式会社,福岡県,福岡市中央区,春吉２丁目５番１－１００７号,,40,133,8100003,,,,,,,2025-03-25,1,,,,,ワンポリッシュデザインスタジオ,0
856,4290001109436,新規,0,2025-03-25,2025-03-25,株式会社ＳＵＮＩＺＭ,,株式会社,福岡県,福岡市西区,大字西浦２８５－Ｂ,,40,135,8190202,,,,,,,2025-03-25,1,,,,,サニズム,0
857,4290003016531,新規,0,2025-03-25,2025-03-25,合同会社ＴＡＹＫ,,合同会社,福岡県,福岡市博多区,博多駅南５丁目１２番２７－９０２号,,40,132,8120016,,,,,,,2025-03-25,1,,,,,ティーエーワイケー,0
872,4340001027203,新規,0,2025-03-25,2025-03-25,株式会社美浩,,株式会社,鹿児島県,鹿児島市,郡元１丁目７番２７号,,46,201,8900065,,,,,,,2025-03-25,1,,,,,ミヒロ,0
874,4350001019447,新規,0,2025-03-25,2025-03-25,株式会社縁,,株式会社,宮崎県,宮崎市,中央通７番２５号第１０吉野ビル２Ｆ,,45,201,8800002,,,,,,,2025-03-25,1,,,,,エニシ,0
882,4430001093987,新規,0,2025-03-25,2025-03-25,株式会社Ａｉｒ　Ｇｒｏｏｖｅ,,株式会社,北海道,札幌市中央区,北二条西２丁目１番地５リージェントビル４階,,01,101,0600002,,,,,,,2025-03-25,1,,,,,エアグルーヴ,0
887,4480001012785,新規,0,2025-03-25,2025-03-25,株式会社ｉ．ｍ．ｏ彩,,株式会社,徳島県,鳴門市,大津町徳長字榎ケ江ノ越８７番地１,,36,202,7720034,,,,,,,2025-03-25,1,,,,,アイエムオーイロドリ,0
888,4490005006980,新規,0,2025-03-25,2025-03-25,一般社団法人岸本地区集落活動センター,,その他の設立登記法人,高知県,香南市,香我美町岸本４７６番地２,,39,211,7815331,,,,,,,2025-03-25,1,,,,,キシモトチクシュウラクカツドウセンター,0
891,4700150019889,新規,0,2025-03-25,2015-10-09,群馬労務経営センター,,その他,群馬県,前橋市,南町２丁目４２－６ＭＲ前橋南町ビル３Ｆ　３０３,,10,201,3710805,,,,,,,2015-10-09,1,,,,,グンマロウムケイエイセンター,0
892,4700150129597,新規,0,2025-03-25,2025-03-17,大分県畜産技術連盟,,その他,大分県,大分市,大手町３丁目１番１号,,44,201,8700022,,,,,,,2025-03-17,1,,,,,オオイタケンチクサンギジユツレンメイ,0
895,5010001252948,新規,0,2025-03-25,2025-03-25,株式会社アーティザンメディカルジャパン,,株式会社,東京都,中央区,入船１丁目９番８号ピエノアーク入船１階,,13,102,1040042,,,,,,,2025-03-25,1,,,,,アーティザンメディカルジャパン,0
896,5010001253500,新規,0,2025-03-25,2025-03-25,資産運用技研株式会社,,株式会社,東京都,千代田区,大手町１丁目５－１大手町ファーストスクエアイーストタワー４階,,13,101,1000004,,,,,,,2025-03-25,1,,,,,シサンウンヨウギケン,0
898,5010003046844,新規,0,2025-03-25,2025-03-25,富士通環球貿易合同会社,,合同会社,東京都,千代田区,神田須田町２丁目１９番地１２、１９番地１１ＡＣＮ秋葉原スクエア９階,,13,101,1010041,,,,,,,2025-03-25,1,,,,,フジツウカンキュウボウエキ,0
899,5010003046860,新規,0,2025-03-25,2025-03-25,ＥｄｇｅＣｏｎｎｅＸ　Ｊａｐａｎ６合同会社,,合同会社,東京都,千代田区,霞が関３丁目２番６号東京倶楽部ビルディング１１階,,13,101,1000013,,,,,,,2025-03-25,1,,,,,エッジコネックスジャパンシックス,0
900,5010005039796,新規,0,2025-03-25,2025-03-25,一般社団法人スプリング５,,その他の設立登記法人,東京都,千代田区,丸の内１丁目４番１号東京共同会計事務所内,,13,101,1000005,,,,,,,2025-03-25,1,,,,,スプリングファイブ,0
903,5010401189063,新規,0,2025-03-25,2025-03-25,株式会社ＭａｇｉｃＳｕｃｃｅｓｓ,,株式会社,東京都,港区,北青山２丁目７番２０号第２猪瀬ビル２Ｆ,,13,103,1070061,,,,,,,2025-03-25,1,,,,,マジックサクセス,0
910,5010601067003,新規,0,2025-03-25,2025-03-25,ペルインク株式会社,,株式会社,東京都,江東区,有明３丁目７番２６号有明フロンティアビルＢ棟９階,,13,108,1350063,,,,,,,2025-03-25,1,,,,,ペルインク,0
913,5010703007625,新規,0,2025-03-25,2025-03-25,Ｈｕ‐Ｒｅａｃｈ合同会社,,合同会社,東京都,品川区,東大井２丁目１１－５－１０２,,13,109,1400011,,,,,,,2025-03-25,1,,,,,ヒューリーチ,0
918,5010903009792,新規,0,2025-03-25,2025-03-25,合同会社ファンワーク,,合同会社,東京都,世田谷区,奥沢５丁目２８ー１ｆｉｎｏＪＩＹＵＧＡＯＫＡ３０２,,13,112,1580083,,,,,,,2025-03-25,1,,,,,ファンワーク,0
933,5011001168440,新規,0,2025-03-25,2025-03-25,株式会社Ｍｉｎｄｆｕｌ　Ｋｉｃｋｓ,,株式会社,東京都,渋谷区,広尾５丁目４番１２号大成鋼機ビルＳ－０５室,,13,113,1500012,,,,,,,2025-03-25,1,,,,,マインドフルキックス,0
934,5011001168473,新規,0,2025-03-25,2025-03-25,株式会社Ｎｅｇｏ　Ｓｅｃｏｎｄ,,株式会社,東京都,渋谷区,恵比寿西１丁目３３番１８号コート代官山４０２,,13,113,1500021,,,,,,,2025-03-25,1,,,,,ネゴセカンド,0
935,5011001168515,新規,0,2025-03-25,2025-03-25,株式会社オムライスランド,,株式会社,東京都,渋谷区,笹塚１丁目５７－１０笹塚駅前ビル２階ＭＡＮＩＭＡＬ内,00138432,13,113,1510073,,,,,,,2025-03-25,1,,,,,,0
936,5011001168572,新規,0,2025-03-25,2025-03-25,ＦｉｔＸ株式会社,,株式会社,東京都,渋谷区,２－１９－１５宮益坂ビルディング６０９,,13,113,1500000,,,,,,,2025-03-25,1,,,,,フィットエックス,0
938,5011003021250,新規,0,2025-03-25,2025-03-25,ＡＸＩＳ　ＪＡＰＡＮ合同会社,,合同会社,東京都,渋谷区,道玄坂１丁目１０番８号渋谷道玄坂東急ビル２Ｆ‐Ｃ,,13,113,1500043,,,,,,,2025-03-25,1,,,,,アクシスジャパン,0
944,5011101111085,新規,0,2025-03-25,2025-03-25,株式会社Ｃａｒａｔ,,株式会社,東京都,新宿区,西新宿７丁目７番地３３号新銘ビル４階,,13,104,1600023,,,,,,,2025-03-25,1,,,,,カラット,0
945,5011101111110,新規,0,2025-03-25,2025-03-25,株式会社アンソラ,,株式会社,東京都,新宿区,西新宿３丁目３番１３号西新宿水間ビル２Ｆ,,13,104,1600023,,,,,,,2025-03-25,1,,,,,アンソラ,0
948,5011103015697,新規,0,2025-03-25,2025-03-25,合同会社ＲＥＶ’ＩＴ,,合同会社,東京都,新宿区,西新宿３丁目３番１３号西新宿水間ビル６階,,13,104,1600023,,,,,,,2025-03-25,1,,,,,レヴイット,0
953,5011701028183,新規,0,2025-03-25,2025-03-25,徳赫生物技術東京株式会社,,株式会社,東京都,江戸川区,東小岩４丁目９－１１,,13,123,1330052,,,,,,,2025-03-25,1,,,,,トクガクセイブツギジュツトウキョウ,0
955,5011801045847,新規,0,2025-03-25,2025-03-25,セキュリティ新日本株式会社,,株式会社,東京都,足立区,綾瀬５丁目７番１１号１０１サンメール,,13,121,1200005,,,,,,,2025-03-25,1,,,,,セキュリティシンニホン,0
962,5012401042912,新規,0,2025-03-25,2025-03-25,ＧＲＥＥＮＭＯＳＳ株式会社,,株式会社,東京都,武蔵野市,御殿山１丁目２番１号,,13,203,1800005,,,,,,,2025-03-25,1,,,,,グリーンモス,0
965,5012801023834,新規,0,2025-03-25,2025-03-25,株式会社ＦＩＴＩＱＵＥ,,株式会社,東京都,立川市,錦町１丁目４－４サニービル２Ｆ・ＣＳ－２３４,,13,202,1900022,,,,,,,2025-03-25,1,,,,,フィティック,0
966,5013101009656,新規,0,2025-03-25,2025-03-25,ＴＩＹ株式会社,,株式会社,東京都,あきる野市,草花１０８１番地１,,13,228,1970802,,,,,,,2025-03-25,1,,,,,ティーアイワイ,0
971,5013301053982,新規,0,2025-03-25,2025-03-25,株式会社フィックスパワー,,株式会社,東京都,豊島区,西池袋１丁目４番１０号,,13,116,1710021,,,,,,,2025-03-25,1,,,,,フィックスパワー,0
977,5020001161900,新規,0,2025-03-25,2025-03-25,株式会社ブロッサム・ポート,,株式会社,神奈川県,横浜市中区,桜木町１丁目１０１番地１クロスゲート７階,,14,104,2310062,,,,,,,2025-03-25,1,,,,,ブロッサムポート,0
978,5020003028057,新規,0,2025-03-25,2025-03-25,ＴｒｅｅＴｒｕｎｋ合同会社,,合同会社,神奈川県,横浜市港北区,富士塚１丁目１７－７,,14,109,2220012,,,,,,,2025-03-25,1,,,,,トリートランク,0
979,5020003028065,新規,0,2025-03-25,2025-03-25,合同会社日本歯科鑑定研究所,,合同会社,神奈川県,横浜市中区,元町４丁目１６８ＢＩＺｃｏｍｆｏｒｔ元町ビル３階３８,,14,104,2310861,,,,,,,2025-03-25,1,,,,,ニホンシカカンテイケンキュウジョ,0
980,5020003028073,新規,0,2025-03-25,2025-03-25,合同会社ＡＭＯ,,合同会社,神奈川県,横浜市南区,白妙町４丁目４２－１ヴァンテアン横濱１７０７,,14,105,2320023,,,,,,,2025-03-25,1,,,,,,0
981,5020003028081,新規,0,2025-03-25,2025-03-25,ＫＵＲＩ　Ｃａｐｉｔａｌ合同会社,,合同会社,神奈川県,横浜市鶴見区,馬場４丁目１６番２０号,,14,101,2300076,,,,,,,2025-03-25,1,,,,,クリキャピタル,0
982,5020003028098,新規,0,2025-03-25,2025-03-25,合同会社Ｍｅｒ,,合同会社,神奈川県,横浜市金沢区,六浦南４丁目２０番４－５１０号,,14,108,2360038,,,,,,,2025-03-25,1,,,,,メール,0
983,5020003028123,新規,0,2025-03-25,2025-03-25,ＲＯＵＴＥ３３Ｂｕｓｉｎｅｓｓ　Ｐａｒｔｎｅｒｓ合同会社,,合同会社,神奈川県,川崎市中原区,井田三舞町１５番１－３４６号,,14,133,2110037,,,,,,,2025-03-25,1,,,,,ルートサーティースリービジネスパートナーズ,0
984,5021001084777,新規,0,2025-03-25,2025-03-25,株式会社まなりの,,株式会社,神奈川県,相模原市南区,東大沼３丁目２６番２３号,,14,153,2520333,,,,,,,2025-03-25,1,,,,,マナリノ,0
985,5021001084785,新規,0,2025-03-25,2025-03-25,安家株式会社,,株式会社,神奈川県,秦野市,南矢名２２２３番地の４東海ビル２０５Ｂ,,14,211,2570003,,,,,,,2025-03-25,1,,,,,アンカ,0
988,5021005013311,新規,0,2025-03-25,2025-03-25,医療法人桜美会,,その他の設立登記法人,神奈川県,相模原市南区,相模大野８丁目６番６号ラ‐コルヌイエ相模大野２階部分Ｄ区画,,14,153,2520303,,,,,,,2025-03-25,1,,,,,オウビカイ,0
1001,5040001137948,新規,0,2025-03-25,2025-03-25,インテリアＤ＆Ａ株式会社,,株式会社,千葉県,船橋市,宮本９丁目６番１－５０４号,,12,204,2730003,,,,,,,2025-03-25,1,,,,,インテリアディーアンドエー,0
1003,5040003027081,新規,0,2025-03-25,2025-03-25,合同会社ＳＨＯＧＵＮ　ＮＥＷＰＯＲＴ　ＪＰＮ,,合同会社,千葉県,旭市,三川５３２１－１０,,12,215,2892714,,,,,,,2025-03-25,1,,,,,ショウグンニューポートジャパン,0
1004,5040003027131,新規,0,2025-03-25,2025-03-25,合同会社ＣＯＭ．Ｈ,,合同会社,千葉県,船橋市,前原西２丁目２２－１７津田沼スクエアビル３０２,,12,204,2740825,,,,,,,2025-03-25,1,,,,,カムエイチ,0
1005,5040003027156,新規,0,2025-03-25,2025-03-25,合同会社クルウル,,合同会社,千葉県,市川市,福栄１丁目３番２０号,,12,203,2720137,,,,,,,2025-03-25,1,,,,,クルウル,0
1006,5040003027164,新規,0,2025-03-25,2025-03-25,キッシュ合同会社,,合同会社,千葉県,成田市,三里塚光ケ丘１番地１１６６（中野アパートＤ棟）,,12,211,2860117,,,,,,,2025-03-25,1,,,,,キッシュ,0
1011,5060001038046,新規,0,2025-03-25,2025-03-25,ニュージョイ不動産株式会社,,株式会社,栃木県,小山市,駅東通り２丁目５番２３号スキャットハイツ,,09,208,3230022,,,,,,,2025-03-25,1,,,,,ニュージョイフドウサン,0
1014,5070001042757,新規,0,2025-03-25,2025-03-25,株式会社有米家,,株式会社,群馬県,佐波郡玉村町,大字上茂木７７１番地１,,10,464,3701122,,,,,,,2025-03-25,1,,,,,ユミヤ,0
1017,5080101025396,新規,0,2025-03-25,2025-03-25,タムラファーム株式会社,,株式会社,静岡県,沼津市,市場町２１番１号,,22,203,4100831,,,,,,,2025-03-25,1,,,,,タムラファーム,0
1018,5080105006491,新規,0,2025-03-25,2025-03-25,一般社団法人つむぎて,,その他の設立登記法人,静岡県,御殿場市,新橋１６１１番地の３栄ビル１Ｆ－２,,22,215,4120043,,,,,,,2025-03-25,1,,,,,ツムギテ,0
1024,5100003008050,新規,0,2025-03-25,2025-03-25,合同会社ＬＯＳＫＡ,,合同会社,長野県,駒ヶ根市,赤穂１４２８番地１メゾンド・サンＤ号,,20,210,3994117,,,,,,,2025-03-25,1,,,,,ロスカ,0
1026,5110003005708,新規,0,2025-03-25,2025-03-25,合同会社礼,,合同会社,新潟県,新潟市北区,白新町２丁目２－１５,,15,101,9503325,,,,,,,2025-03-25,1,,,,,レイ,0
1036,5120001273801,新規,0,2025-03-25,2025-03-25,Ｋｕｒａｍａｄｏホールディングス株式会社,,株式会社,大阪府,大阪市中央区,内本町２丁目４－１６オフィスポート内本町５０６,,27,128,5400026,,,,,,,2025-03-25,1,,,,,クラマドホールディングス,0
1037,5120001273850,新規,0,2025-03-25,2025-03-25,浙派琴箏株式会社,,株式会社,大阪府,大阪市西成区,萩之茶屋１丁目１２番７号万葉ビル３８号室,,27,122,5570004,,,,,,,2025-03-25,1,,,,,セハキンソウ,0
1038,5120001273941,新規,0,2025-03-25,2025-03-25,呈昆貿易株式会社,,株式会社,大阪府,大阪市平野区,加美鞍作１丁目３番３３号,,27,126,5470004,,,,,,,2025-03-25,1,,,,,テイコンボウエキ,0
1042,5120003028848,新規,0,2025-03-25,2025-03-25,合同会社ＹＵＫＩＫＯ　ｃｏｌｌｅｃｔｉｏｎ,,合同会社,大阪府,大阪市都島区,都島中通３丁目５－１０第２宮田ビル２０２号,,27,102,5340022,,,,,,,2025-03-25,1,,,,,ユキココレクション,0
1043,5120003028922,新規,0,2025-03-25,2025-03-25,合同会社Ｍｅｏｗ　Ｌｉｎｋ,,合同会社,大阪府,大阪市北区,梅田１丁目２番２号大阪駅前第２ビル１２－１２,,27,127,5300001,,,,,,,2025-03-25,1,,,,,ミャオリンク,0
1048,5120101071320,新規,0,2025-03-25,2025-03-25,ＳＡＮＴＡ空調設備株式会社,,株式会社,大阪府,岸和田市,三田町１０５４番地の２,,27,202,5960808,,,,,,,2025-03-25,1,,,,,サンタクウチョウセツビ,0
1049,5120101071329,新規,0,2025-03-25,2025-03-25,株式会社西桜,,株式会社,大阪府,堺市中区,深阪２丁１６番６５号,,27,142,5998253,,,,,,,2025-03-25,1,,,,,セイオウ,0
1063,5140001137863,新規,0,2025-03-25,2025-03-25,株式会社３Ｓｐｏｏｎ,,株式会社,兵庫県,神戸市須磨区,東白川台１丁目３番８号,,28,107,6540102,,,,,,,2025-03-25,1,,,,,スリースプーン,0
1064,5140001137871,新規,0,2025-03-25,2025-03-25,株式会社ＬＯＲＥＡ,,株式会社,兵庫県,三木市,緑が丘町東２丁目４番地１５号２階,,28,215,6730533,,,,,,,2025-03-25,1,,,,,ロレア,0
1068,5150001027980,新規,0,2025-03-25,2025-03-25,株式会社ヒューマンブルーム,,株式会社,奈良県,大和郡山市,箕山町８番３８号,,29,203,6391015,,,,,,,2025-03-25,1,,,,,ヒューマンブルーム,0
1069,5150003003534,新規,0,2025-03-25,2025-03-25,ドリーム合同会社,,合同会社,奈良県,大和郡山市,高田町３４５－１,,29,203,6391132,,,,,,,2025-03-25,1,,,,,ドリーム,0
1071,5160001026627,新規,0,2025-03-25,2025-03-25,株式会社インハンド,,株式会社,滋賀県,長浜市,桜町２２６番地４２,,25,203,5290121,,,,,,,2025-03-25,1,,,,,インハンド,0
1072,5160005011385,新規,0,2025-03-25,2025-03-25,一般社団法人Ｃｏ‐ｃｒｅａｔｉｏｎ,,その他の設立登記法人,滋賀県,愛知郡愛荘町,愛知川１６０１番地,,25,425,5291331,,,,,,,2025-03-25,1,,,,,コクリエーション,0
1079,5180001166000,新規,0,2025-03-25,2025-03-25,株式会社今井,,株式会社,愛知県,名古屋市東区,泉３丁目２８番１号,,23,102,4610001,,,,,,,2025-03-25,1,,,,,イマイ,0
1083,5180003028173,新規,0,2025-03-25,2025-03-25,合同会社ブランドアップ,,合同会社,愛知県,名古屋市中川区,清船町３丁目１番地の１（県営清船南住宅２棟４０２号）,,23,110,4540832,,,,,,,2025-03-25,1,,,,,ブランドアップ,0
1086,5180301039640,新規,0,2025-03-25,2025-03-25,株式会社アドバンス,,株式会社,愛知県,知立市,牛田町中流１番地８,,23,225,4720007,,,,,,,2025-03-25,1,,,,,アドバンス,0
1094,5240001064692,新規,0,2025-03-25,2025-03-25,株式会社ＳＨＡＲＥＭ,,株式会社,広島県,尾道市,美ノ郷町三成１１６７番地１,,34,205,7220215,,,,,,,2025-03-25,1,,,,,シャレム,0
1096,5240003007121,新規,0,2025-03-25,2025-03-25,Ｍ＆Ｈ合同会社,,合同会社,広島県,福山市,神辺町字道上１７番地３,,34,207,7202104,,,,,,,2025-03-25,1,,,,,エムアンドエイチ,0
1100,5260005011458,新規,0,2025-03-25,2025-03-25,医療法人社団岡進会,,その他の設立登記法人,岡山県,岡山市中区,関５３６番１,,33,102,7038232,,,,,,,2025-03-25,1,,,,,コウシンカイ,0
1106,5290003016571,新規,0,2025-03-25,2025-03-25,合同会社マインドチェンジパートナーズ,,合同会社,福岡県,福岡市中央区,天神１丁目１番１号アクロス福岡１Ｆ－ｆａｂｂｉｔ内,,40,133,8100001,,,,,,,2025-03-25,1,,,,,マインドチェンジパートナーズ,0
1107,5290003016588,新規,0,2025-03-25,2025-03-25,アンヴィ合同会社,,合同会社,福岡県,八女市,黒木町田代２６８,,40,210,8341205,,,,,,,2025-03-25,1,,,,,アンヴィ,0
1112,5340005009832,新規,0,2025-03-25,2025-03-25,一般社団法人ＡｍｉＧ,,その他の設立登記法人,鹿児島県,奄美市,笠利町大字喜瀬２４５６番地,,46,222,8940507,,,,,,,2025-03-25,1,,,,,アミジ,0
1113,5350001019446,新規,0,2025-03-25,2025-03-25,株式会社Ｂａｎｓｅｉ‐Ｔｅｃｈｎｏｓ,,株式会社,宮崎県,延岡市,桜ケ丘３丁目７００６番地４,,45,203,8820007,,,,,,,2025-03-25,1,,,,,バンセイテクノス,0
1116,5350003004883,新規,0,2025-03-25,2025-03-25,合同会社澤輝,,合同会社,宮崎県,宮崎市,佐土原町東上那珂１５８４０番地２,,45,201,8800303,,,,,,,2025-03-25,1,,,,,サワキ,0
1119,5360001034948,新規,0,2025-03-25,2025-03-25,株式会社ベジ・ドリーム,,株式会社,沖縄県,島尻郡久米島町,字仲泊１０４４番地１コーポ久米１０５号室,,47,361,9013124,,,,,,,2025-03-25,1,,,,,ベジドリーム,0
1120,5360001034956,新規,0,2025-03-25,2025-03-25,株式会社ＲＩＲＹ　ＳＴＡＲ,,株式会社,沖縄県,沖縄市,泡瀬２丁目２８番１７号１－Ｃ,,47,211,9042172,,,,,,,2025-03-25,1,,,,,リリースター,0
1121,5360003014774,新規,0,2025-03-25,2025-03-25,うりずん合同会社,,合同会社,沖縄県,豊見城市,字伊良波５１５番地９,,47,212,9010232,,,,,,,2025-03-25,1,,,,,ウリズン,0
1122,5360003014790,新規,0,2025-03-25,2025-03-25,合同会社みゃーく筋トレ塾,,合同会社,沖縄県,宮古島市,平良字松原６３７番地１サンセットサザンリッチ７０７,,47,214,9060014,,,,,,,2025-03-25,1,,,,,ミャークキントレジュク,0
1124,5370001052379,新規,0,2025-03-25,2025-03-25,Ｍ’ｓ　ＥＸＴＥＲＩＯＲ株式会社,,株式会社,宮城県,仙台市太白区,八本松２丁目４－３アスコットあすと長町５０３,,04,104,9820001,,,,,,,2025-03-25,1,,,,,エムズエクステリア,0
1131,5430001093945,新規,0,2025-03-25,2025-03-25,株式会社サンワールド,,株式会社,北海道,三笠市,岡山４４０番地１６,,01,222,0682165,,,,,,,2025-03-25,1,,,,,サンワールド,0
1132,5430001093986,新規,0,2025-03-25,2025-03-25,サニーホームクリエイト株式会社,,株式会社,北海道,札幌市中央区,南十三条西８丁目１番３５－２０２号,,01,101,0640913,,,,,,,2025-03-25,1,,,,,サニーホームクリエイト,0
1133,5430001094002,新規,0,2025-03-25,2025-03-25,株式会社ＡＩＭＡ,,株式会社,北海道,札幌市豊平区,平岸四条３丁目１番１０－１０６号,,01,105,0620934,,,,,,,2025-03-25,1,,,,,アイマ,0
1135,5440005002793,新規,0,2025-03-25,2025-03-25,一般社団法人サラダボウル,,その他の設立登記法人,北海道,函館市,末広町１８番２５号函館大三坂オフィス内,,01,202,0400053,,,,,,,2025-03-25,1,,,,,サラダボウル,0
1137,5470003002842,新規,0,2025-03-25,2025-03-25,合同会社Ｌｉｎｏａ,,合同会社,香川県,丸亀市,綾歌町岡田下８３番地２,,37,202,7612402,,,,,,,2025-03-25,1,,,,,リノア,0
1150,5700150129695,新規,0,2025-03-25,2025-03-25,Ｚｅｓｐｒｉ　Ｉｎｔｅｒｎａｔｉｏｎａｌ　Ｔｒａｄｉｎｇ　Ｌｉｍｉｔｅｄ,,外国会社等,,,,,,,,４００　Ｍａｕｎｇａｎｕｉ　Ｒｏａｄ　Ｍｏｕｎｔ　Ｍａｕｎｇａｎｕｉ　３１１６　ＢＯＰ，ＮｅｗＺｅａｌａｎｄ,,,,,,2025-03-25,1,,,,,ゼスプリインターナシヨナルトレーデイングリミテツド,0
1152,6010001253375,新規,0,2025-03-25,2025-03-25,チッピング株式会社,,株式会社,東京都,中央区,日本橋小伝馬町２番４号三報ビルディング５階,,13,102,1030001,,,,,,,2025-03-25,1,,,,,チッピング,0
1153,6010001253409,新規,0,2025-03-25,2025-03-25,株式会社優成,,株式会社,東京都,中央区,銀座１丁目１２番４号Ｎ＆ＥＢＬＤ．６Ｆ,,13,102,1040061,,,,,,,2025-03-25,1,,,,,ユウセイ,0
1154,6010001253433,新規,0,2025-03-25,2025-03-25,株式会社古川測量,,株式会社,東京都,文京区,本郷６丁目２番６号１Ｆ,,13,105,1130033,,,,,,,2025-03-25,1,,,,,フルカワソクリョウ,0
1157,6010003046851,新規,0,2025-03-25,2025-03-25,合同会社アグリフードテックコンサルティング,,合同会社,東京都,文京区,関口１丁目１０番１５号,,13,105,1120014,,,,,,,2025-03-25,1,,,,,アグリフードテックコンサルティング,0
1159,6010005039746,新規,0,2025-03-25,2025-03-25,一般財団法人脱プラスチック新素材開発機構,,その他の設立登記法人,東京都,千代田区,岩本町３丁目１番５号,,13,101,1010032,,,,,,,2025-03-25,1,,,,,ダツプラスチックシンソザイカイハツキコウ,0
1160,6010005039795,新規,0,2025-03-25,2025-03-25,一般社団法人となみＸ,,その他の設立登記法人,東京都,千代田区,丸の内１丁目４番１号東京共同会計事務所内,,13,101,1000005,,,,,,,2025-03-25,1,,,,,トナミエックス,0
1169,6010401189079,新規,0,2025-03-25,2025-03-25,フラクトコントールジャパン株式会社,,株式会社,東京都,港区,芝大門１丁目１６番３号芝大門１１６ビル５階,,13,103,1050012,,,,,,,2025-03-25,1,,,,,フラクトコントールジャパン,0
1170,6010403034687,新規,0,2025-03-25,2025-03-25,合同会社富士運営,,合同会社,東京都,港区,虎ノ門５丁目１番４号,,13,103,1050001,,,,,,,2025-03-25,1,,,,,フジウンエイ,0
1173,6010503007774,新規,0,2025-03-25,2025-03-25,合同会社電脳アトリエ,,合同会社,東京都,台東区,下谷３丁目１７番８号４階,,13,106,1100004,,,,,,,2025-03-25,1,,,,,デンノウアトリエ,0
1179,6010901057058,新規,0,2025-03-25,2025-03-25,株式会社グリーンパピー,,株式会社,東京都,世田谷区,松原４丁目２－１９,,13,112,1560043,,,,,,,2025-03-25,1,,,,,グリーンパピー,0
1184,6011001168398,新規,0,2025-03-25,2025-03-25,株式会社ｇｏｏｄｎｅｓｓ,,株式会社,東京都,目黒区,中町２丁目５０番１３号,,13,110,1530065,,,,,,,2025-03-25,1,,,,,グッドネス,0
1185,6011001168407,新規,0,2025-03-25,2025-03-25,株式会社トリニティスタジオ,,株式会社,東京都,目黒区,目黒２丁目１１番８号地下１階,,13,110,1530063,,,,,,,2025-03-25,1,,,,,トリニティスタジオ,0
1186,6011001168472,新規,0,2025-03-25,2025-03-25,株式会社Ｒ４８,,株式会社,東京都,目黒区,青葉台４丁目７番４号Ｉ．Ｗ．プレイス青葉台２Ｆ,,13,110,1530042,,,,,,,2025-03-25,1,,,,,アールフォーティエイト,0
1187,6011001168497,新規,0,2025-03-25,2025-03-25,株式会社安芸の宮島,,株式会社,東京都,渋谷区,道玄坂２丁目１６番１号都路ビル地上４階４０４室,,13,113,1500043,,,,,,,2025-03-25,1,,,,,アキノミヤジマ,0
1188,6011003021217,新規,0,2025-03-25,2025-03-25,パーシモンエンタープライズ合同会社,,合同会社,東京都,目黒区,柿の木坂２丁目１２番４号,,13,110,1520022,,,,,,,2025-03-25,1,,,,,パーシモンエンタープライズ,0
1192,6011101111084,新規,0,2025-03-25,2025-03-25,ＭＰＣ株式会社,,株式会社,東京都,新宿区,若葉１丁目２２－３ローヤル若葉６０６,,13,104,1600011,,,,,,,2025-03-25,1,,,,,エムピーシー,0
1199,6011801045838,新規,0,2025-03-25,2025-03-25,株式会社３ｄａｙｓ,,株式会社,東京都,足立区,竹の塚２丁目２１番２号,,13,121,1210813,,,,,,,2025-03-25,1,,,,,スリーデイズ,0
1203,6013301053998,新規,0,2025-03-25,2025-03-25,株式会社Ｃ９,,株式会社,東京都,豊島区,南池袋２丁目２９番１０号金井ビル９Ｆ,,13,116,1710022,,,,,,,2025-03-25,1,,,,,シーナイン,0
1204,6013303007589,新規,0,2025-03-25,2025-03-25,合同会社ネクストステージ,,合同会社,東京都,豊島区,南大塚２丁目１１番１０号ミモザビル３階,,13,116,1700005,,,,,,,2025-03-25,1,,,,,ネクストステージ,0
1208,6020001161924,新規,0,2025-03-25,2025-03-25,Ｃｏｕｒａｇｅ　Ｐａｔｈ株式会社,,株式会社,神奈川県,横浜市西区,楠町４番地７横浜楠町ビル６階,,14,103,2200003,,,,,,,2025-03-25,1,,,,,カレッジパス,0
1210,6020003028072,新規,0,2025-03-25,2025-03-25,合同会社諸橋インターナショナル,,合同会社,神奈川県,横浜市中区,山手町６１番地４,,14,104,2310862,,,,,,,2025-03-25,1,,,,,モロハシインターナショナル,0
1214,6021001084776,新規,0,2025-03-25,2025-03-25,Ｓｈｉｚａ株式会社,,株式会社,神奈川県,海老名市,東柏ケ谷１丁目２４番地１２号３０１号室,,14,215,2430401,,,,,,,2025-03-25,1,,,,,シーザ,0
1215,6021001084784,新規,0,2025-03-25,2025-03-25,株式会社街の不動産相談所,,株式会社,神奈川県,伊勢原市,桜台１丁目９番７号堀井ビル２０１号,,14,214,2591132,,,,,,,2025-03-25,1,,,,,マチノフドウサンソウダンジョ,0
1216,6021001084801,新規,0,2025-03-25,2025-03-25,株式会社Ｐｌｅａｃｅ,,株式会社,神奈川県,大和市,南林間８丁目８番１号,,14,213,2420006,,,,,,,2025-03-25,1,,,,,プリース,0
1219,6021003015779,新規,0,2025-03-25,2025-03-25,合同会社健調堂,,合同会社,神奈川県,横須賀市,根岸町１丁目４番１４号３０３号室,,14,201,2390807,,,,,,,2025-03-25,1,,,,,ケンチョウドウ,0
1226,6040001137971,新規,0,2025-03-25,2025-03-25,株式会社ＫＩＮＴＡＲＯ,,株式会社,千葉県,鎌ケ谷市,東中沢３丁目１５番１８号,,12,224,2730112,,,,,,,2025-03-25,1,,,,,キンタロウ,0
1229,6040003027147,新規,0,2025-03-25,2025-03-25,合同会社Ｌｕｘｕｒｙ　Ｄｒｉｖｅ　Ｔｏｋｙｏ,,合同会社,千葉県,富里市,七栄字南内野１９９番地１８１,,12,233,2860221,,,,,,,2025-03-25,1,,,,,ラグジュアリードライブトウキョウ,0
1230,6040003027155,新規,0,2025-03-25,2025-03-25,合同会社楽生誠工建,,合同会社,千葉県,旭市,東足洗２０７２番地３,,12,215,2892512,,,,,,,2025-03-25,1,,,,,ラクセイコウケン,0
1234,6050001056378,新規,0,2025-03-25,2025-03-25,株式会社いばジョブ,,株式会社,茨城県,つくば市,吾妻２丁目５番地１つくば市産業振興センター１Ｆ,,08,220,3050031,,,,,,,2025-03-25,1,,,,,イバジョブ,0
1240,6070003005835,新規,0,2025-03-25,2025-03-25,合同会社結いの杜,,合同会社,群馬県,高崎市,下佐野町２９１番地１１,,10,202,3700855,,,,,,,2025-03-25,1,,,,,ユイノモリ,0
1241,6080001026824,新規,0,2025-03-25,2025-03-25,株式会社Ｋｈｒａｉｎ,,株式会社,静岡県,静岡市葵区,長沼２丁目９－５,,22,101,4200813,,,,,,,2025-03-25,1,,,,,クレイン,0
1243,6080101025395,新規,0,2025-03-25,2025-03-25,株式会社ＪｎＬ,,株式会社,静岡県,富士市,今泉４丁目９番２７号,,22,210,4170001,,,,,,,2025-03-25,1,,,,,ジェーエンエル,0
1252,6110001039129,新規,0,2025-03-25,2025-03-25,Ｐａｉｎｔ１株式会社,,株式会社,新潟県,三条市,月岡１丁目３７番２１号,,15,204,9550803,,,,,,,2025-03-25,1,,,,,ペイントワン,0
1254,6110003005707,新規,0,2025-03-25,2025-03-25,合同会社ｔｏｉｔｏｉｔｏｉ,,合同会社,新潟県,上越市,北本町１丁目２番２号,,15,222,9430828,,,,,,,2025-03-25,1,,,,,トイトイトイ,0
1270,6122001039017,新規,0,2025-03-25,2025-03-25,株式会社ツーアンドフォーパワー,,株式会社,大阪府,東大阪市,西堤１丁目９番５号,,27,227,5770042,,,,,,,2025-03-25,1,,,,,ツーアンドフォーパワー,0
1275,6130001079222,新規,0,2025-03-25,2025-03-25,ＡＬ‐ＡＨＭＥＤ　ＭＯＴＯＲＳ株式会社,,株式会社,京都府,木津川市,加茂町西島口７７番地リブレハイツ東棟１階１０３号室,,26,214,6191105,,,,,,,2025-03-25,1,,,,,アルアフメッドモーターズ,0
1276,6130001079255,新規,0,2025-03-25,2025-03-25,株式会社ＫＫＲ会計センター,,株式会社,京都府,京都市西京区,大枝北沓掛町５丁目３１番地３,,26,111,6101101,,,,,,,2025-03-25,1,,,,,ケイケイアールカイケイセンター,0
1279,6130003010226,新規,0,2025-03-25,2025-03-25,合同会社インターフェース心理オフィス,,合同会社,京都府,京都市下京区,富永町１０７番地１,,26,106,6008023,,,,,,,2025-03-25,1,,,,,インターフェースシンリオフィス,0
1280,6140001137879,新規,0,2025-03-25,2025-03-25,株式会社Ｖｅｎｔｏ,,株式会社,兵庫県,神戸市須磨区,須磨浦通６丁目２番６号Ｅ１,,28,107,6540055,,,,,,,2025-03-25,1,,,,,ベント,0
1281,6140001137887,新規,0,2025-03-25,2025-03-25,株式会社ＴＡＲＫＵＳ,,株式会社,兵庫県,神戸市須磨区,行幸町１丁目１番３７－１００２号,,28,107,6540052,,,,,,,2025-03-25,1,,,,,タルカス,0
1283,6140003021692,新規,0,2025-03-25,2025-03-25,合同会社Ａｌｐｅｎ,,合同会社,兵庫県,姫路市,勝原区熊見１４０－１,,28,201,6711211,,,,,,,2025-03-25,1,,,,,アルペン,0
1284,6140003021800,新規,0,2025-03-25,2025-03-25,匠クラフト合同会社,,合同会社,兵庫県,神戸市西区,櫨谷町栃木１３８番１,,28,111,6512236,,,,,,,2025-03-25,1,,,,,タクミクラフト,0
1285,6140003021825,新規,0,2025-03-25,2025-03-25,合同会社Ｍｅｒｉｄｉａｎ　Ｐａｒｔｎｅｒｓ,,合同会社,兵庫県,明石市,大蔵中町６番３号,,28,203,6730873,,,,,,,2025-03-25,1,,,,,メリディアンパートナーズ,0
1286,6140003021841,新規,0,2025-03-25,2025-03-25,ワイルドクリスタル合同会社,,合同会社,兵庫県,西宮市,羽衣町７－３０夙川グリーンタウン３Ｆ,,28,204,6620051,,,,,,,2025-03-25,1,,,,,ワイルドクリスタル,0
1287,6160001026626,新規,0,2025-03-25,2025-03-25,株式会社ＦＦカンパニー,,株式会社,滋賀県,守山市,川田町１７９２番地１,,25,207,5240001,,,,,,,2025-03-25,1,,,,,エフエフカンパニー,0
1288,6160005011384,新規,0,2025-03-25,2025-03-25,医療法人栗東内科・内視鏡クリニック,,その他の設立登記法人,滋賀県,栗東市,小野１７８番地,,25,208,5203016,,,,,,,2025-03-25,1,,,,,リットウナイカナイシキョウクリニック,0
1291,6180001166016,新規,0,2025-03-25,2025-03-25,株式会社ＨＹ,,株式会社,愛知県,名古屋市中村区,名駅４丁目２４番５号第２森ビル４０１,,23,105,4500002,,,,,,,2025-03-25,1,,,,,エイチワイ,0
1310,6280005007651,新規,0,2025-03-25,2025-03-25,農事組合法人西長江ファーム,,その他の設立登記法人,島根県,松江市,西長江町５０６番地１,,32,201,6900132,,,,,,,2025-03-25,1,,,,,ニシナガエファーム,0
1312,6290001109392,新規,0,2025-03-25,2025-03-25,株式会社蔚藍之森スタジオ,,株式会社,福岡県,福岡市東区,千早２丁目３８－８イマージュ千早２０３号室,,40,131,8130044,,,,,,,2025-03-25,1,,,,,ウツランノモリスタジオ,0
1316,6290005019679,新規,0,2025-03-25,2025-03-25,一般社団法人Ｈａｐｉｐｌｕｓ,,その他の設立登記法人,福岡県,福岡市南区,曰佐４丁目２９番４号,,40,134,8111313,,,,,,,2025-03-25,1,,,,,ハピプラ,0
1320,6310003004969,新規,0,2025-03-25,2025-03-25,合同会社尾上エンタープライズ,,合同会社,長崎県,大村市,宮小路３丁目１９５０番地２１,,42,205,8560807,,,,,,,2025-03-25,1,,,,,オノウエエンタープライズ,0
1332,6360001034947,新規,0,2025-03-25,2025-03-25,株式会社ＭｉｒａＫｕｒｏ,,株式会社,沖縄県,浦添市,宮城６丁目２０番１８号１Ｆ,,47,208,9012126,,,,,,,2025-03-25,1,,,,,ミラクロ,0
1333,6360001034963,新規,0,2025-03-25,2025-03-25,株式会社ＭＭＫ,,株式会社,沖縄県,那覇市,寄宮２丁目２４－６,,47,201,9020064,,,,,,,2025-03-25,1,,,,,エムエムケー,0
1336,6430001093993,新規,0,2025-03-25,2025-03-25,サニーカーズ株式会社,,株式会社,北海道,札幌市清田区,美しが丘三条３丁目７番１２号２階,,01,110,0040813,,,,,,,2025-03-25,1,,,,,サニーカーズ,0
1338,6430003017430,新規,0,2025-03-25,2025-03-25,合同会社ＡＲＣＨＩＢＬＥＵ,,合同会社,北海道,札幌市中央区,北八条西２０丁目２番２０号,,01,101,0600008,,,,,,,2025-03-25,1,,,,,アルシーブル,0
1340,6460001005987,新規,0,2025-03-25,2025-03-25,株式会社ライカム不動産,,株式会社,北海道,川上郡標茶町,旭２丁目８番２３号,,01,664,0882301,,,,,,,2025-03-25,1,,,,,ライカムフドウサン,0
1341,6460103001694,新規,0,2025-03-25,2025-03-25,合同会社ふたば,,合同会社,北海道,帯広市,西十八条南５丁目５２番地５,,01,207,0800028,,,,,,,2025-03-25,1,,,,,フタバ,0
1346,6470001020639,新規,0,2025-03-25,2025-03-25,株式会社未来工業,,株式会社,香川県,高松市,中間町４９５番地１０,,37,201,7618043,,,,,,,2025-03-25,1,,,,,ミライコウギョウ,0
1350,6490001011000,新規,0,2025-03-25,2025-03-25,土佐開発株式会社,,株式会社,高知県,高知市,梅ノ辻１７番１６号,00138429,39,201,7808011,,,,,,,2025-03-25,1,,,,,トサカイハツ,0
1360,7010001253432,新規,0,2025-03-25,2025-03-25,株式会社会沢事務所,,株式会社,東京都,文京区,本郷６丁目２番６号１Ｆ,,13,105,1130033,,,,,,,2025-03-25,1,,,,,アイザワジムショ,0
1364,7010003046669,新規,0,2025-03-25,2025-03-25,ミツバコネクト合同会社,,合同会社,東京都,中央区,銀座７丁目１３番２０号銀座ＴＨビル９階,,13,102,1040061,,,,,,,2025-03-25,1,,,,,ミツバコネクト,0
1365,7010003046842,新規,0,2025-03-25,2025-03-25,名古屋ファルコン合同会社,,合同会社,東京都,千代田区,霞が関３丁目２番５号,,13,101,1000013,,,,,,,2025-03-25,1,,,,,ナゴヤファルコン,0
1366,7010005039794,新規,0,2025-03-25,2025-03-25,一般社団法人ＡＴＪ１２,,その他の設立登記法人,東京都,千代田区,丸の内１丁目４番１号東京共同会計事務所内,,13,101,1000005,,,,,,,2025-03-25,1,,,,,エーティージェイトゥエルブ,0
1368,7010101016581,新規,0,2025-03-25,2025-03-25,株式会社Ｅａｓｔｅｒｎ　Ｌｉｇｈｔ　Ｗｏｒｋｓ,,株式会社,東京都,八王子市,千人町１丁目２番１５号ケイズ八王子３０２,,13,201,1930835,,,,,,,2025-03-25,1,,,,,イースタンライトワークス,0
1369,7010103002539,新規,0,2025-03-25,2025-03-25,合同会社ＴＫＧ企画,,合同会社,東京都,八王子市,明神町４丁目７番１５号落合ビル８Ｆ,,13,201,1920046,,,,,,,2025-03-25,1,,,,,ティーケージーキカク,0
1376,7010601067001,新規,0,2025-03-25,2025-03-25,株式会社ミルクカップ,,株式会社,東京都,墨田区,緑１丁目２２番１６―７０２号,,13,107,1300021,,,,,,,2025-03-25,1,,,,,ミルクカップ,0
1385,7010901057057,新規,0,2025-03-25,2025-03-25,Ｌｏｌｏ株式会社,,株式会社,東京都,世田谷区,大蔵３丁目１番７－６０７号,,13,112,1570074,,,,,,,2025-03-25,1,,,,,ロロ,0
1386,7010901057065,新規,0,2025-03-25,2025-03-25,三工株式会社,,株式会社,東京都,世田谷区,喜多見３丁目２４番４号,,13,112,1570067,,,,,,,2025-03-25,1,,,,,サンコウ,0
1392,7011001168356,新規,0,2025-03-25,2025-03-25,株式会社ステージライト,,株式会社,東京都,渋谷区,渋谷２丁目１９－１５宮益坂ビルディング６０９,,13,113,1500002,,,,,,,2025-03-25,1,,,,,ステージライト,0
1393,7011001168439,新規,0,2025-03-25,2025-03-25,Ｕｎｉｔｅ＆Ｇｌｏｗ株式会社,,株式会社,東京都,渋谷区,代々木１丁目４４番４号,,13,113,1510053,,,,,,,2025-03-25,1,,,,,ユナイトアンドグロウ,0
1394,7011001168471,新規,0,2025-03-25,2025-03-25,株式会社ｅｌｕ,,株式会社,東京都,渋谷区,恵比寿１丁目２２番１９－１２０７号,,13,113,1500013,,,,,,,2025-03-25,1,,,,,エリュー,0
1395,7011003021281,新規,0,2025-03-25,2025-03-25,Ｓｋｙｌｉｔ　Ｔｒａｄｅ合同会社,,合同会社,東京都,渋谷区,道玄坂１丁目１６‐６二葉ビル８ｂ,,13,113,1500043,,,,,,,2025-03-25,1,,,,,スカイリットトレード,0
1396,7011005010943,新規,0,2025-03-25,2025-03-25,一般社団法人日本ソシオニクス協会,,その他の設立登記法人,東京都,渋谷区,渋谷２丁目１９－１５宮益坂ビルディング６０９,,13,113,1500002,,,,,,,2025-03-25,1,,,,,ニホンソシオニクスキョウカイ,0
1400,7011103015687,新規,0,2025-03-25,2025-03-25,合同会社ＥｖｅｒＨｏｐｅ,,合同会社,東京都,新宿区,左門町１８番地３－５０２,,13,104,1600017,,,,,,,2025-03-25,1,,,,,エバーホープ,0
1401,7011201026215,新規,0,2025-03-25,2025-03-25,株式会社ＴｒｙＺａ,,株式会社,東京都,中野区,中野５丁目３番３３－４０２号,,13,114,1640001,,,,,,,2025-03-25,1,,,,,トライザ,0
1407,7011803006754,新規,0,2025-03-25,2025-03-25,合同会社クリスタル商事,,合同会社,東京都,葛飾区,亀有１丁目２２－１７内田ビル１Ｆ,,13,122,1250061,,,,,,,2025-03-25,1,,,,,クリスタルショウジ,0
1411,7013301053989,新規,0,2025-03-25,2025-03-25,三豊株式会社,,株式会社,東京都,豊島区,池袋本町２丁目３２番３号－Ａ１０２,,13,116,1700011,,,,,,,2025-03-25,1,,,,,サンホウ,0
1412,7013301053997,新規,0,2025-03-25,2025-03-25,Ｄ＆Ｙ株式会社,,株式会社,東京都,豊島区,南長崎４丁目７番１１号,,13,116,1710052,,,,,,,2025-03-25,1,,,,,ディアンドワイ,0
1413,7013303007588,新規,0,2025-03-25,2025-03-25,ＪＡＹＡ合同会社,,合同会社,東京都,豊島区,池袋３丁目２０番４号,,13,116,1710014,,,,,,,2025-03-25,1,,,,,ジャヤ,0
1415,7020001161898,新規,0,2025-03-25,2025-03-25,株式会社Ａｍｂｉａｔｅ,,株式会社,神奈川県,横浜市西区,みなとみらい３丁目７番１号オーシャンゲートみなとみらい８Ｆ,,14,103,2200012,,,,,,,2025-03-25,1,,,,,アンビエイト,0
1418,7020003028105,新規,0,2025-03-25,2025-03-25,ＭＯＷＤＯＷ合同会社,,合同会社,神奈川県,横浜市西区,北幸２丁目１０番４８号むつみビル３階,,14,103,2200004,,,,,,,2025-03-25,1,,,,,モウドウ,0
1420,7021001084775,新規,0,2025-03-25,2025-03-25,株式会社Ｒドライブ,,株式会社,神奈川県,横須賀市,秋谷４４０４番地６,,14,201,2400105,,,,,,,2025-03-25,1,,,,,アールドライブ,0
1421,7021001084791,新規,0,2025-03-25,2025-03-25,株式会社一世,,株式会社,神奈川県,足柄上郡松田町,寄６３２８番地,,14,363,2580001,,,,,,,2025-03-25,1,,,,,イッセイ,0
1433,7040001137954,新規,0,2025-03-25,2025-03-25,株式会社宝輝コーポレーション,,株式会社,千葉県,習志野市,花咲１丁目３番２４号,,12,216,2750013,,,,,,,2025-03-25,1,,,,,ホウキコーポレーション,0
1435,7040003027146,新規,0,2025-03-25,2025-03-25,合同会社ハピプレ,,合同会社,千葉県,松戸市,常盤平西窪町１７番地の１７,,12,207,2702266,,,,,,,2025-03-25,1,,,,,ハピプレ,0
1436,7040003027187,新規,0,2025-03-25,2025-03-25,オフィスエムケー合同会社,,合同会社,千葉県,夷隅郡大多喜町,小沢又３６８－１,,12,441,2980278,,,,,,,2025-03-25,1,,,,,オフィスエムケー,0
1442,7070001042747,新規,0,2025-03-25,2025-03-25,ＧＲＲＡＳＡＫ株式会社,,株式会社,群馬県,太田市,新田溜池町１番地１,,10,205,3700354,,,,,,,2025-03-25,1,,,,,グラーサク,0
1443,7070001042755,新規,0,2025-03-25,2025-03-25,株式会社Ｂｒｉｄｇｅｐｉｎ,,株式会社,群馬県,前橋市,大胡町１０５番地４,,10,201,3710223,,,,,,,2025-03-25,1,,,,,ブリッジピン,0
1446,7080001026823,新規,0,2025-03-25,2025-03-25,株式会社一二三林業,,株式会社,静岡県,静岡市葵区,羽鳥１丁目３番２号,,22,101,4211215,,,,,,,2025-03-25,1,,,,,ヒフミリンギョウ,0
1448,7080101025394,新規,0,2025-03-25,2025-03-25,株式会社サンエス,,株式会社,静岡県,裾野市,佐野９１番地の１ビューコート久保壱番館５０６,,22,220,4101118,,,,,,,2025-03-25,1,,,,,サンエス,0
1449,7080103003282,新規,0,2025-03-25,2025-03-25,サニーサイドアップ合同会社,,合同会社,静岡県,御殿場市,萩原７３番地の１,,22,215,4120042,,,,,,,2025-03-25,1,,,,,サニーサイドアップ,0
1452,7100001038386,新規,0,2025-03-25,2025-03-25,株式会社ユニブリッジメディア,,株式会社,長野県,長野市,南千歳１丁目３－７、アイビースクエア,,20,201,3800823,,,,,,,2025-03-25,1,,,,,ユニブリッジメディア,0
1455,7110003005706,新規,0,2025-03-25,2025-03-25,合同会社ＰＰＰ,,合同会社,新潟県,燕市,道金５８６,,15,213,9591265,,,,,,,2025-03-25,1,,,,,ピイピイピイ,0
1460,7120001273857,新規,0,2025-03-25,2025-03-25,株式会社クエストラボ,,株式会社,大阪府,大阪市北区,芝田２丁目８番１１号共栄ビル３階,,27,127,5300012,,,,,,,2025-03-25,1,,,,,クエストラボ,0
1461,7120001273898,新規,0,2025-03-25,2025-03-25,ザイゲ株式会社,,株式会社,大阪府,大阪市大正区,千島１丁目２３番１５８号,,27,108,5510003,,,,,,,2025-03-25,1,,,,,ザイゲ,0
1462,7120001273931,新規,0,2025-03-25,2025-03-25,ＵＭＩ株式会社,,株式会社,大阪府,大阪市淀川区,十三本町１丁目１８－７－７０１号室,,27,123,5320024,,,,,,,2025-03-25,1,,,,,ユミ,0
1463,7120003028870,新規,0,2025-03-25,2025-03-25,合同会社ベルクムジーク,,合同会社,大阪府,枚方市,南中振２丁目９番３号１階,,27,210,5730094,,,,,,,2025-03-25,1,,,,,ベルクムジーク,0
1466,7120101071310,新規,0,2025-03-25,2025-03-25,株式会社ＧＲＩＴ,,株式会社,大阪府,和泉市,伯太町４丁目２番３３号,,27,219,5940023,,,,,,,2025-03-25,1,,,,,グリット,0
1467,7120101071319,新規,0,2025-03-25,2025-03-25,麒麟株式会社,,株式会社,大阪府,泉大津市,条南町３番２６号松ノ浜マンション１０１号室,,27,206,5950016,,,,,,,2025-03-25,1,,,,,キリン,0
1468,7120101071327,新規,0,2025-03-25,2025-03-25,株式会社和嘉,,株式会社,大阪府,堺市南区,美木多上９８２番地２３,,27,145,5900136,,,,,,,2025-03-25,1,,,,,ワカ,0
1469,7120101071343,新規,0,2025-03-25,2025-03-25,株式会社ＧＴＭＴｅｃｈ,,株式会社,大阪府,泉佐野市,高松北２丁目３番４５号,,27,213,5980011,,,,,,,2025-03-25,1,,,,,ジーティーエムテック,0
1471,7120103006347,新規,0,2025-03-25,2025-03-25,合同会社フェニンファ興業,,合同会社,大阪府,堺市西区,津久野町３丁３３番１３－４０８,,27,144,5938322,,,,,,,2025-03-25,1,,,,,フェニンファコウギョウ,0
1477,7120903005597,新規,0,2025-03-25,2025-03-25,合同会社ｎｉｋｏｌａ,,合同会社,大阪府,豊中市,曽根西町４丁目１６番２６号,,27,203,5610801,,,,,,,2025-03-25,1,,,,,ニコラ,0
1479,7130001079246,新規,0,2025-03-25,2025-03-25,株式会社ｍｏｎｉｃｏ,,株式会社,京都府,亀岡市,余部町大塚２１番地１－３Ｆ,,26,206,6210806,,,,,,,2025-03-25,1,,,,,モニコ,0
1480,7130001079262,新規,0,2025-03-25,2025-03-25,八雲株式会社,,株式会社,京都府,京都市上京区,七本松通仁和寺街道上る一番町１０７北野レジデンス３０２,,26,102,6028345,,,,,,,2025-03-25,1,,,,,ヤクモ,0
1487,7140001137820,新規,0,2025-03-25,2025-03-25,株式会社メイシン,,株式会社,兵庫県,神戸市灘区,大石南町１丁目８番１３号,,28,102,6570852,,,,,,,2025-03-25,1,,,,,メイシン,0
1489,7140003021790,新規,0,2025-03-25,2025-03-25,ＤＫ合同会社,,合同会社,兵庫県,神戸市中央区,加納町４丁目１０ロイヤル神戸三宮９０４,,28,110,6500001,,,,,,,2025-03-25,1,,,,,,0
1490,7140003021816,新規,0,2025-03-25,2025-03-25,合同会社フラワー,,合同会社,兵庫県,高砂市,伊保崎５丁目１番６号,,28,216,6760076,,,,,,,2025-03-25,1,,,,,フラワー,0
1491,7140003021824,新規,0,2025-03-25,2025-03-25,合同会社新光,,合同会社,兵庫県,宝塚市,安倉南４丁目３２番１６号,,28,214,6650823,,,,,,,2025-03-25,1,,,,,シンコウ,0
1494,7150001027979,新規,0,2025-03-25,2025-03-25,ＡＮＤ　ＨＯＵＳＥ株式会社,,株式会社,奈良県,香芝市,北今市５丁目６２０－４,,29,210,6390242,,,,,,,2025-03-25,1,,,,,アンドハウス,0
1495,7150003003532,新規,0,2025-03-25,2025-03-25,合同会社しるし,,合同会社,奈良県,御所市,大字三室１０４－１－３０４,,29,208,6392306,,,,,,,2025-03-25,1,,,,,シルシ,0
1498,7160001026625,新規,0,2025-03-25,2025-03-25,株式会社ヘッジホッグ,,株式会社,滋賀県,大津市,松が丘２丁目１０番４号,,25,201,5202102,,,,,,,2025-03-25,1,,,,,ヘッジホッグ,0
1504,7180001166015,新規,0,2025-03-25,2025-03-25,株式会社植田建設,,株式会社,愛知県,一宮市,丹陽町九日市場字六反農４５９番地２,,23,203,4910824,,,,,,,2025-03-25,1,,,,,ウエダケンセツ,0
1512,7180303006496,新規,0,2025-03-25,2025-03-25,合同会社エトワール,,合同会社,愛知県,西尾市,和気町横３８－２２,,23,213,4450025,,,,,,,2025-03-25,1,,,,,エトワール,0
1514,7200001043566,新規,0,2025-03-25,2025-03-25,ケーディーアール株式会社,,株式会社,岐阜県,可児市,柿下５９８番地２,,21,214,5090233,,,,,,,2025-03-25,1,,,,,ケーディーアール,0
1515,7200003006744,新規,0,2025-03-25,2025-03-25,合同会社アーヤ,,合同会社,岐阜県,本巣市,上真桑１８４９番地１,,21,218,5010461,,,,,,,2025-03-25,1,,,,,アーヤ,0
1517,7220001026560,新規,0,2025-03-25,2025-03-25,株式会社カリス,,株式会社,石川県,金沢市,西泉６丁目１９３番地８,,17,201,9218043,,,,,,,2025-03-25,1,,,,,カリス,0
1523,7240001064699,新規,0,2025-03-25,2025-03-25,Ｍｉｔｔ　Ｈｏｍｅ株式会社,,株式会社,広島県,広島市中区,竹屋町７番１０‐１０２号,,34,101,7300048,,,,,,,2025-03-25,1,,,,,ミットホーム,0
1524,7240003007128,新規,0,2025-03-25,2025-03-25,よつ葉合同会社,,合同会社,広島県,広島市安佐北区,深川５丁目４４番１２号,,34,106,7391751,,,,,,,2025-03-25,1,,,,,ヨツバ,0
1535,7290001109359,新規,0,2025-03-25,2025-03-25,ＴＳ株式会社,,株式会社,福岡県,久留米市,国分町１５３６－１６９,,40,203,8390863,,,,,,,2025-03-25,1,,,,,ティーエス,0
1536,7290001109409,新規,0,2025-03-25,2025-03-25,領先国際株式会社,,株式会社,福岡県,福岡市博多区,博多駅前４丁目３３番７号ロマネスク博多駅前１３０６号,,40,132,8120011,,,,,,,2025-03-25,1,,,,,リョウセンコクサイ,0
1537,7290001109417,新規,0,2025-03-25,2025-03-25,株式会社ＭＡＲＳ,,株式会社,福岡県,古賀市,青柳１１８４番地１,,40,223,8113134,,,,,,,2025-03-25,1,,,,,マルス,0
1538,7290001109425,新規,0,2025-03-25,2025-03-25,盛満都株式会社,,株式会社,福岡県,福岡市中央区,六本松３丁目１０番８サンシャイン六本松１０７号,,40,133,8100044,,,,,,,2025-03-25,1,,,,,セイマント,0
1551,7340001027209,新規,0,2025-03-25,2025-03-25,株式会社きもつき未来商社そらまち,,株式会社,鹿児島県,肝属郡肝付町,南方２６４３番地,,46,492,8931402,,,,,,,2025-03-25,1,,,,,キモツキミライショウシャソラマチ,0
1555,7360001034938,新規,0,2025-03-25,2025-03-25,株式会社ＬＯＣＡＬＰＬＡＹ,,株式会社,沖縄県,沖縄市,中央１丁目７－８,,47,211,9040004,,,,,,,2025-03-25,1,,,,,ローカルプレイ,0
1556,7360001034946,新規,0,2025-03-25,2025-03-25,セキュアアセット株式会社,,株式会社,沖縄県,島尻郡南風原町,字宮城３４２番地３,,47,350,9011102,,,,,,,2025-03-25,1,,,,,セキュアアセット,0
1557,7360001034954,新規,0,2025-03-25,2025-03-25,Ｔｉｄａ　Ａｇｅｎｔｅｃ株式会社,,株式会社,沖縄県,那覇市,字安里３８１番地１,,47,201,9020067,,,,,,,2025-03-25,1,,,,,ティーダエージェンテック,0
1558,7360003014764,新規,0,2025-03-25,2025-03-25,合同会社レイアイ,,合同会社,沖縄県,国頭郡宜野座村,字惣慶７２番地,,47,313,9041303,,,,,,,2025-03-25,1,,,,,レイアイ,0
1559,7360003014789,新規,0,2025-03-25,2025-03-25,ＣＯＮＮＥＣＴＵＳ合同会社,,合同会社,沖縄県,うるま市,字宇堅７６３－９シャロムＭ３階,,47,213,9042211,,,,,,,2025-03-25,1,,,,,コネクタス,0
1560,7370001052377,新規,0,2025-03-25,2025-03-25,株式会社リアルト,,株式会社,宮城県,仙台市若林区,新寺１丁目７番２１号,,04,103,9840051,,,,,,,2025-03-25,1,,,,,リアルト,0
1562,7370005010926,新規,0,2025-03-25,2025-03-25,一般社団法人臨床倫理研究所,,その他の設立登記法人,宮城県,仙台市泉区,南中山１丁目１１番地の１３,,04,105,9813213,,,,,,,2025-03-25,1,,,,,リンショウリンリケンキュウジョ,0
1569,7390005009108,新規,0,2025-03-25,2025-03-25,一般社団法人山形蔵王育英会,,その他の設立登記法人,山形県,山形市,六日町６番４０号スペースＹＯＵ１Ｆ,,06,201,9900054,,,,,,,2025-03-25,1,,,,,ヤマガタザオウイクエイカイ,0
1572,7430001093992,新規,0,2025-03-25,2025-03-25,株式会社トライン,,株式会社,北海道,札幌市中央区,北一条西３丁目３番３３号,,01,101,0600001,,,,,,,2025-03-25,1,,,,,トライン,0
1573,7430001094000,新規,0,2025-03-25,2025-03-25,ＨＲＭコンサルティング株式会社,,株式会社,北海道,札幌市東区,北十五条東７丁目１番２０号,,01,103,0650015,,,,,,,2025-03-25,1,,,,,エイチアールエムコンサルティング,0
1581,7470001020638,新規,0,2025-03-25,2025-03-25,株式会社Ｒｅ．Ｌｉｆｅ,,株式会社,香川県,高松市,由良町６７３番地２３,,37,201,7610441,,,,,,,2025-03-25,1,,,,,リライフ,0
1587,7500003003463,新規,0,2025-03-25,2025-03-25,合同会社きむら工房,,合同会社,愛媛県,松山市,和気町１丁目４５２番地,,38,201,7992656,,,,,,,2025-03-25,1,,,,,キムラコウボウ,0
1588,7700150056979,新規,0,2025-03-25,2015-10-09,愛媛県教育研究協議会,,その他,愛媛県,松山市,祝谷町１丁目５番３３号エスポワ－ル愛媛文教会館内,,38,201,7900834,,,,,,,2015-10-09,1,,,,,エヒメケンキヨウイクケンキユウキヨウギカイ,0
1603,8010001253407,新規,0,2025-03-25,2025-03-25,ＹＡＮＳＵＮ株式会社,,株式会社,東京都,中央区,日本橋茅場町２丁目５番６号,,13,102,1030025,,,,,,,2025-03-25,1,,,,,ヤンサン,0
1604,8010001253415,新規,0,2025-03-25,2025-03-25,ＫｕｒｏＴｅｃｈｎｏｌｏｇｙ　Ｊａｐａｎ株式会社,,株式会社,東京都,千代田区,内幸町２丁目２番２号富国生命ビル１６階,,13,101,1000011,,,,,,,2025-03-25,1,,,,,クロテクノロジージャパン,0
1605,8010001253423,新規,0,2025-03-25,2025-03-25,宏源株式会社,,株式会社,東京都,中央区,日本橋兜町１７番１の３０２号室,,13,102,1030026,,,,,,,2025-03-25,1,,,,,コウゲン,0
1608,8010003046858,新規,0,2025-03-25,2025-03-25,ヒューマンリンク合同会社,,合同会社,東京都,千代田区,神田和泉町１番地５の６,,13,101,1010024,,,,,,,2025-03-25,1,,,,,ヒューマンリンク,0
1609,8010005039793,新規,0,2025-03-25,2025-03-25,一般社団法人ＡＴＪ１１,,その他の設立登記法人,東京都,千代田区,丸の内１丁目４番１号東京共同会計事務所内,,13,101,1000005,,,,,,,2025-03-25,1,,,,,エーティージェイイレブン,0
1610,8010005039802,新規,0,2025-03-25,2025-03-25,一般社団法人Ｑｓｔ,,その他の設立登記法人,東京都,中央区,銀座７丁目１３番２０号銀座ＴＨビル９階,,13,102,1040061,,,,,,,2025-03-25,1,,,,,クエスト,0
1611,8010101016580,新規,0,2025-03-25,2025-03-25,株式会社すえひろ不動産,,株式会社,東京都,八王子市,北野５１９－２８北野ヒルズ３階,,13,201,1920000,,,,,,,2025-03-25,1,,,,,スエヒロフドウサン,0
1612,8010103002538,新規,0,2025-03-25,2025-03-25,合同会社Ｐｅｎ,,合同会社,東京都,八王子市,天神町２番地１０パレ・ドール八王子４０５号,,13,201,1920074,,,,,,,2025-03-25,1,,,,,ペン,0
1616,8010501053835,新規,0,2025-03-25,2025-03-25,株式会社伽藍工作室,,株式会社,東京都,台東区,東上野１丁目８番６号妙高酒造ビル２Ｆ,,13,106,1100015,,,,,,,2025-03-25,1,,,,,ガランコウサクシツ,0
1621,8010601067000,新規,0,2025-03-25,2025-03-25,ＹＷＢ国際医療・総合コンサルティング株式会社,,株式会社,東京都,江東区,門前仲町１丁目１５番３号,,13,108,1350048,,,,,,,2025-03-25,1,,,,,ワイダブリュビコクサイイリョウソウゴウコンサルティング,0
1626,8010901057080,新規,0,2025-03-25,2025-03-25,株式会社ＭＡＫＥ,,株式会社,東京都,世田谷区,奥沢１丁目２５番４号アークハウス自由が丘１０３,,13,112,1580083,,,,,,,2025-03-25,1,,,,,メイク,0
1627,8010903009757,新規,0,2025-03-25,2025-03-25,合同会社ａｚｕデザイン,,合同会社,東京都,世田谷区,祖師谷１丁目２２‐２０,,13,112,1570072,,,,,,,2025-03-25,1,,,,,アズデザイン,0
1631,8011001168396,新規,0,2025-03-25,2025-03-25,株式会社ＲｅｃｏｒＣ,,株式会社,東京都,渋谷区,神宮前６丁目２３番４号桑野ビル２階,,13,113,1500001,,,,,,,2025-03-25,1,,,,,リコルク,0
1632,8011001168462,新規,0,2025-03-25,2025-03-25,ＬＵＭＩＯ株式会社,,株式会社,東京都,渋谷区,道玄坂１丁目２１番１号渋谷マークシティ２２Ｆ,,13,113,1500043,,,,,,,2025-03-25,1,,,,,ルミオ,0
1633,8011001168470,新規,0,2025-03-25,2025-03-25,株式会社ａｒａｒｅ,,株式会社,東京都,目黒区,中目黒２丁目１番２１号ワールドネイバーズ恵比寿３０１,,13,110,1530061,,,,,,,2025-03-25,1,,,,,アラレ,0
1634,8011001168479,新規,0,2025-03-25,2025-03-25,株式会社Ｄｉｐａ　Ｆｉｌｍｓ,,株式会社,東京都,渋谷区,渋谷２丁目１９‐１５宮益坂ビルディング６０９,,13,113,1500002,,,,,,,2025-03-25,1,,,,,ディーパフィルムス,0
1635,8011001168545,新規,0,2025-03-25,2025-03-25,ＮＯＷＡＹ株式会社,,株式会社,東京都,渋谷区,渋谷２丁目１９‐１５宮益坂ビルディング６０９,,13,113,1500002,,,,,,,2025-03-25,1,,,,,ノーウェイ,0
1636,8011001168594,新規,0,2025-03-25,2025-03-25,株式会社Ｓａｚａｒｅ,,株式会社,東京都,渋谷区,桜丘町１８－４二宮ビル１Ｆ－７５,,13,113,1500031,,,,,,,2025-03-25,1,,,,,サザレ,0
1638,8011003021173,新規,0,2025-03-25,2025-03-25,合同会社あさや,,合同会社,東京都,渋谷区,代々木４丁目６－５ＡａｎｄＵビル１Ｆ,,13,113,1510053,,,,,,,2025-03-25,1,,,,,アサヤ,0
1639,8011005010918,新規,0,2025-03-25,2025-03-25,一般社団法人アース・シェルパ,,その他の設立登記法人,東京都,渋谷区,代々木２丁目２２番５号カテリーナ代々木７０１,,13,113,1510053,,,,,,,2025-03-25,1,,,,,アースシェルパ,0
1644,8011101111116,新規,0,2025-03-25,2025-03-25,株式会社ドライバーズラボ,,株式会社,東京都,新宿区,西新宿３丁目３－１３西新宿水間ビル２Ｆ,,13,104,1600023,,,,,,,2025-03-25,1,,,,,ドライバーズラボ,0
1646,8011105011378,新規,0,2025-03-25,2025-03-25,一般社団法人全国青少年犯罪防止スクール,,その他の設立登記法人,東京都,新宿区,高田馬場２丁目１７番３号東京三協信用金庫本店ビル８０４,,13,104,1690075,,,,,,,2025-03-25,1,,,,,ゼンコクセイショウネンハンザイボウシスクール,0
1647,8011203004647,新規,0,2025-03-25,2025-03-25,合同会社クアドロフェニア,,合同会社,東京都,中野区,中野１丁目４９番８号,,13,114,1640001,,,,,,,2025-03-25,1,,,,,クアドロフェニア,0
1652,8011401026939,新規,0,2025-03-25,2025-03-25,株式会社久保田型枠,,株式会社,東京都,板橋区,大谷口上町８３番７－３０１号,,13,119,1730032,,,,,,,2025-03-25,1,,,,,クボタカタワク,0
1659,8011803006753,新規,0,2025-03-25,2025-03-25,合同会社Ｂｅａｕｔｙ　Ｔｉｅｓ　Ｊａｐａｎ協会,,合同会社,東京都,足立区,南花畑２丁目１４番１４号,,13,121,1210062,,,,,,,2025-03-25,1,,,,,ビューティータイズジャパンキョウカイ,0
1660,8012305002126,新規,0,2025-03-25,2025-03-25,医療法人社団健桜会,,その他の設立登記法人,東京都,町田市,原町田４丁目６番８号スペランツァ町田２階,,13,209,1940013,,,,,,,2025-03-25,1,,,,,ケンオウカイ,0
1661,8012403007035,新規,0,2025-03-25,2025-03-25,ホームライフ合同会社,,合同会社,東京都,府中市,武蔵台３丁目４７番地の２１,,13,206,1830042,,,,,,,2025-03-25,1,,,,,ホームライフ,0
1663,8013301053988,新規,0,2025-03-25,2025-03-25,宝栄投資株式会社,,株式会社,東京都,豊島区,西池袋５丁目８－９藤和池袋コープ３０２,,13,116,1710021,,,,,,,2025-03-25,1,,,,,ホウエイトウシ,0
1665,8020001161922,新規,0,2025-03-25,2025-03-25,ａｉｒｌａｂｏ株式会社,,株式会社,神奈川県,横浜市金沢区,大川７－８,,14,108,2360043,,,,,,,2025-03-25,1,,,,,エアラボ,0
1667,8020003028079,新規,0,2025-03-25,2025-03-25,合同会社コーケン,,合同会社,神奈川県,横浜市西区,浅間町１丁目４番３号ウィザードビル４０２,,14,103,2200072,,,,,,,2025-03-25,1,,,,,コーケン,0
1669,8021001084766,新規,0,2025-03-25,2025-03-25,株式会社ステムアップ・コンサルティング,,株式会社,神奈川県,鎌倉市,御成町１１－２ヤノヤビル２Ｆ,,14,204,2480012,,,,,,,2025-03-25,1,,,,,ステムアップコンサルティング,0
1670,8021001084774,新規,0,2025-03-25,2025-03-25,株式会社Ｍｏｈａｍｅｄ　Ｔｒａｄｅｒｓ,,株式会社,神奈川県,相模原市南区,相武台１丁目１２番１８号スカイピア相武台Ｂ２０２,,14,153,2520324,,,,,,,2025-03-25,1,,,,,モハメドトレーダーズ,0
1671,8021003015777,新規,0,2025-03-25,2025-03-25,アヤケン合同会社,,合同会社,神奈川県,大和市,福田１６００－２,,14,213,2420024,,,,,,,2025-03-25,1,,,,,アヤケン,0
1672,8021005013309,新規,0,2025-03-25,2025-03-25,医療法人清翔会,,その他の設立登記法人,神奈川県,横須賀市,根岸町４丁目１番地３１,,14,201,2390807,,,,,,,2025-03-25,1,,,,,セイショウカイ,0
1674,8030001165518,新規,0,2025-03-25,2025-03-25,株式会社ＲＥｘＳＴ,,株式会社,埼玉県,吉川市,きよみ野２丁目２８－１－２０５,,11,243,3420058,,,,,,,2025-03-25,1,,,,,リクスト,0
1675,8030001165591,新規,0,2025-03-25,2025-03-25,ウム・ヴェルトホールディングス株式会社,,株式会社,埼玉県,加須市,栄３６８番地１,,11,210,3491213,,,,,,,2025-03-25,1,,,,,ウムヴェルトホールディングス,0
1679,8030005022087,新規,0,2025-03-25,2025-03-25,医療法人公歯会,,その他の設立登記法人,埼玉県,大里郡寄居町,大字桜沢５５１番地１,,11,408,3691202,,,,,,,2025-03-25,1,,,,,コウシカイ,0
1681,8040001137937,新規,0,2025-03-25,2025-03-25,カエルハポン株式会社,,株式会社,千葉県,八千代市,八千代台南１丁目２－１八千代台南一丁目ビル２Ｆ,,12,221,2760033,,,,,,,2025-03-25,1,,,,,カエルハポン,0
1682,8040001137953,新規,0,2025-03-25,2025-03-25,株式会社王琴コーポレーション,,株式会社,千葉県,八千代市,八千代台南１丁目７番４号貝塚ビル１Ｆ,,12,221,2760033,,,,,,,2025-03-25,1,,,,,オウコトコーポレーション,0
1683,8040001137994,新規,0,2025-03-25,2025-03-25,株式会社８２,,株式会社,千葉県,柏市,酒井根３丁目２０番９号,,12,217,2770053,,,,,,,2025-03-25,1,,,,,ハツ,0
1687,8040003027161,新規,0,2025-03-25,2025-03-25,合同会社海雲台,,合同会社,千葉県,松戸市,新松戸１丁目２２９－３,,12,207,2700034,,,,,,,2025-03-25,1,,,,,,0
1693,8070003005833,新規,0,2025-03-25,2025-03-25,ぼくとＷｏｒｋｓ合同会社,,合同会社,群馬県,前橋市,総社町２丁目１０－２２,,10,201,3710853,,,,,,,2025-03-25,1,,,,,ボクトワークス,0
1695,8080001026822,新規,0,2025-03-25,2025-03-25,株式会社うちっち,,株式会社,静岡県,島田市,道悦３丁目１５番２４号,,22,209,4270019,,,,,,,2025-03-25,1,,,,,ウチッチ,0
1698,8080103003281,新規,0,2025-03-25,2025-03-25,ＴＨ　ＧＲＯＵＰ合同会社,,合同会社,静岡県,沼津市,吉田町３１番１１号マルツ吉田ビル３０２号室,,22,203,4100836,,,,,,,2025-03-25,1,,,,,ティーエイチグループ,0
1700,8080401027817,新規,0,2025-03-25,2025-03-25,ＦＤＳ株式会社,,株式会社,静岡県,浜松市中央区,貴平町８９番地,,22,138,4313104,,,,,,,2025-03-25,1,,,,,エフディーエス,0
1702,8100001038393,新規,0,2025-03-25,2025-03-25,株式会社アール・アール・アイ,,株式会社,長野県,松本市,女鳥羽１丁目６番１８号,,20,202,3900806,,,,,,,2025-03-25,1,,,,,アールアールアイ,0
1704,8110001039135,新規,0,2025-03-25,2025-03-25,ニモウサク株式会社,,株式会社,新潟県,新潟市中央区,花町２０６５,,15,103,9518056,,,,,,,2025-03-25,1,,,,,ニモウサク,0
1715,8120001273740,新規,0,2025-03-25,2025-03-25,株式会社あぐりケア,,株式会社,大阪府,大阪市阿倍野区,松虫通３丁目１番２４号朝日プラザ聖天山公園１０２号室,,27,119,5450043,,,,,,,2025-03-25,1,,,,,アグリケア,0
1716,8120001273848,新規,0,2025-03-25,2025-03-25,Ｒｏｎｇｓｈａｎ　Ｓｏｆｔｗａｒｅ株式会社,,株式会社,大阪府,大阪市西成区,橘１丁目１１番２８号オフィスポート橘４１４号室,,27,122,5570051,,,,,,,2025-03-25,1,,,,,ロンサンソフトウェア,0
1717,8120001273897,新規,0,2025-03-25,2025-03-25,好喜科技株式会社,,株式会社,大阪府,大阪市城東区,関目５丁目１９番９号関目花博公館４０２Ａ,,27,118,5360008,,,,,,,2025-03-25,1,,,,,コウキカギ,0
1718,8120001273930,新規,0,2025-03-25,2025-03-25,智株式会社,,株式会社,大阪府,大阪市西成区,橘１丁目１１－２８オフィスポート橘４０９号室,,27,122,5570051,,,,,,,2025-03-25,1,,,,,サトシ,0
1720,8120003028829,新規,0,2025-03-25,2025-03-25,合同会社ＳＬＡＮＧ,,合同会社,大阪府,大阪市西区,北堀江３丁目１１－７,,27,106,5500014,,,,,,,2025-03-25,1,,,,,スラング,0
1723,8120101071326,新規,0,2025-03-25,2025-03-25,株式会社丸越,,株式会社,大阪府,富田林市,新家２丁目１番８号,,27,214,5840085,,,,,,,2025-03-25,1,,,,,マルコシ,0
1724,8120903005596,新規,0,2025-03-25,2025-03-25,合同会社ｋｉｋｉｈｏｕｓｅ,,合同会社,大阪府,高槻市,津之江町１丁目１１番２２号,,27,207,5690822,,,,,,,2025-03-25,1,,,,,キキハウス,0
1733,8140001137885,新規,0,2025-03-25,2025-03-25,株式会社松本商店,,株式会社,兵庫県,伊丹市,緑ケ丘１丁目３１番地１,,28,207,6640012,,,,,,,2025-03-25,1,,,,,マツモトショウテン,0
1736,8140003021823,新規,0,2025-03-25,2025-03-25,合同会社ねじっこ倶楽部,,合同会社,兵庫県,三木市,自由が丘本町３丁目２８８,,28,215,6730424,,,,,,,2025-03-25,1,,,,,ネジッコクラブ,0
1737,8140003021831,新規,0,2025-03-25,2025-03-25,合同会社サンリンク,,合同会社,兵庫県,神戸市須磨区,高倉台６丁目２２番１１号,,28,107,6540081,,,,,,,2025-03-25,1,,,,,サンリンク,0
1740,8150001027978,新規,0,2025-03-25,2025-03-25,株式会社ＷＡｋｅ,,株式会社,奈良県,生駒郡斑鳩町,法隆寺１丁目４番１１号,,29,344,6360116,,,,,,,2025-03-25,1,,,,,ウェイク,0
1744,8160001026624,新規,0,2025-03-25,2025-03-25,株式会社蓮千,,株式会社,滋賀県,彦根市,中藪町６８７番地２０,,25,202,5220051,,,,,,,2025-03-25,1,,,,,ハスユキ,0
1745,8160001026632,新規,0,2025-03-25,2025-03-25,株式会社アガベ,,株式会社,滋賀県,守山市,今宿１丁目９番３－１号,,25,207,5240046,,,,,,,2025-03-25,1,,,,,アガベ,0
1753,8180001165957,新規,0,2025-03-25,2025-03-25,株式会社にぼしと,,株式会社,愛知県,名古屋市瑞穂区,荒崎町４番５号,,23,108,4670846,,,,,,,2025-03-25,1,,,,,ニボシト,0
1755,8180005021000,新規,0,2025-03-25,2025-03-25,一般社団法人いきいきライフ協会名北,,その他の設立登記法人,愛知県,名古屋市中区,丸の内３丁目１８番１号三晃丸の内ビル３階,,23,106,4600002,,,,,,,2025-03-25,1,,,,,イキイキライフキョウカイメイホク,0
1758,8190001032099,新規,0,2025-03-25,2025-03-25,盆栽はニわ株式会社,,株式会社,三重県,津市,木造町１０４７番地１,,24,201,5141115,,,,,,,2025-03-25,1,,,,,ボンサイハニワ,0
1762,8200001043565,新規,0,2025-03-25,2025-03-25,株式会社ひなた不動産,,株式会社,岐阜県,高山市,下切町４４４番地２,,21,203,5060041,,,,,,,2025-03-25,1,,,,,ヒナタフドウサン,0
1763,8200003006743,新規,0,2025-03-25,2025-03-25,合同会社ＴＯＷ,,合同会社,岐阜県,関市,下有知４０６２番地,,21,205,5013217,,,,,,,2025-03-25,1,,,,,トウ,0
1765,8220003003978,新規,0,2025-03-25,2025-03-25,合同会社Ｃａｒ　ｆｉｘ,,合同会社,石川県,七尾市,藤橋町未部２９番地,,17,202,9260816,,,,,,,2025-03-25,1,,,,,カーフィックス,0
1768,8260003005104,新規,0,2025-03-25,2025-03-25,合同会社一心,,合同会社,岡山県,岡山市北区,丸の内１丁目１４番１０号,,33,101,7000823,,,,,,,2025-03-25,1,,,,,イッシン,0
1770,8280001009377,新規,0,2025-03-25,2025-03-25,株式会社森の環,,株式会社,島根県,鹿足郡吉賀町,柿木村柿木５００番地１,,32,505,6995301,,,,,,,2025-03-25,1,,,,,モリノワ,0
1776,8290001109424,新規,0,2025-03-25,2025-03-25,株式会社Ｎｏｖａ　Ｎｅｘｕｓ,,株式会社,福岡県,福岡市博多区,吉塚８丁目１番６５‐１００３号アルファライフ吉塚駅東ＩＩ,00138430,40,132,8120041,,,,,,,2025-03-25,1,,,,,ノヴァネクサス,0
1777,8290001109432,新規,0,2025-03-25,2025-03-25,株式会社ＭＯＮＬＥＮＯ,,株式会社,福岡県,福岡市東区,松崎２丁目１４番４号,,40,131,8130035,,,,,,,2025-03-25,1,,,,,モンレノ,0
1780,8290801031380,新規,0,2025-03-25,2025-03-25,株式会社シック,,株式会社,福岡県,田川市,丸山町１７１８番５,,40,206,8260033,,,,,,,2025-03-25,1,,,,,シック,0
1781,8310001019513,新規,0,2025-03-25,2025-03-25,株式会社ロングエッジアイランド,,株式会社,長崎県,長崎市,出島町２番１３号,,42,201,8500862,,,,,,,2025-03-25,1,,,,,ロングエッジアイランド,0
1786,8340001027208,新規,0,2025-03-25,2025-03-25,風船サーカス株式会社,,株式会社,鹿児島県,鹿児島市,西千石町１１－２１鹿児島ＭＳビル５階・６階,,46,201,8920847,,,,,,,2025-03-25,1,,,,,フウセンサーカス,0
1789,8350001019451,新規,0,2025-03-25,2025-03-25,大海ガス設備株式会社,,株式会社,宮崎県,宮崎市,一の宮町８７番地１０２サンコーポＩＩ,00138422,45,201,8800854,,,,,,,2025-03-25,1,,,,,ヒロミガスセツビ,0
1791,8350003004880,新規,0,2025-03-25,2025-03-25,ＲＡＣ合同会社,,合同会社,宮崎県,延岡市,川島町３７１９番地４,,45,203,8820017,,,,,,,2025-03-25,1,,,,,ラック,0
1793,8360001034953,新規,0,2025-03-25,2025-03-25,株式会社Ｓｅａオネスト,,株式会社,沖縄県,中頭郡読谷村,字楚辺１６７６番地２,,47,324,9040304,,,,,,,2025-03-25,1,,,,,シーオネスト,0
1799,8420003003090,新規,0,2025-03-25,2025-03-25,ＳＮＥ合同会社,,合同会社,青森県,青森市,大字西田沢字浜田７番地１０,,02,201,0380057,,,,,,,2025-03-25,1,,,,,エスエヌイー,0
1809,8490003001996,新規,0,2025-03-25,2025-03-25,合同会社Ｍｉｌｅｓ,,合同会社,高知県,高知市,比島町３丁目１１番２２号,,39,201,7800066,,,,,,,2025-03-25,1,,,,,マイルズ,0
1825,9010001253397,新規,0,2025-03-25,2025-03-25,興順株式会社,,株式会社,東京都,中央区,八丁堀２丁目１６番３号ＩＣＭ中央ビル１階,,13,102,1040032,,,,,,,2025-03-25,1,,,,,コウジュン,0
1826,9010001253422,新規,0,2025-03-25,2025-03-25,出光サラワク資源開発株式会社,,株式会社,東京都,千代田区,大手町１丁目２番１号,,13,101,1000004,,,,,,,2025-03-25,1,,,,,イデミツサラワクシゲンカイハツ,0
1827,9010001253505,新規,0,2025-03-25,2025-03-25,株式会社大和管工,,株式会社,東京都,中央区,晴海２丁目２－４２－２２１９,,13,102,1040053,,,,,,,2025-03-25,1,,,,,ヤマトカンコウ,0
1830,9010003046865,新規,0,2025-03-25,2025-03-25,合同会社ＥＦ‐ＢＥＳＳ６号,,合同会社,東京都,千代田区,丸の内２丁目２番１号岸本ビルヂング１０階株式会社レイズ内,,13,101,1000005,,,,,,,2025-03-25,1,,,,,イーエフベスロクゴウ,0
1831,9010003046873,新規,0,2025-03-25,2025-03-25,合同会社ＭＯＮＳＴＡＲＳ　ＲＯＯＭ,,合同会社,東京都,文京区,本駒込５丁目３８番８号カツロビル９Ｆ,,13,105,1130021,,,,,,,2025-03-25,1,,,,,モンスターズルーム,0
1832,9010005039792,新規,0,2025-03-25,2025-03-25,一般社団法人ＡＴＪ１０,,その他の設立登記法人,東京都,千代田区,丸の内１丁目４番１号東京共同会計事務所内,,13,101,1000005,,,,,,,2025-03-25,1,,,,,エーティージェイテン,0
1841,9010401189010,新規,0,2025-03-25,2025-03-25,株式会社黒ＰＤＳ,,株式会社,東京都,港区,芝公園１丁目７番８号,,13,103,1050011,,,,,,,2025-03-25,1,,,,,クロピーディーエス,0
1842,9010401189076,新規,0,2025-03-25,2025-03-25,株式会社星野,,株式会社,東京都,港区,六本木７丁目９番１０号ＣＲＥＳＴ六本木２ビル２階,,13,103,1060032,,,,,,,2025-03-25,1,,,,,ホシノ,0
1843,9010405024163,新規,0,2025-03-25,2025-03-25,医療法人社団一医,,その他の設立登記法人,東京都,港区,芝５丁目１番１３号ＭＡビル三田ＩＩ１階,00138421,13,103,1080014,,,,,,,2025-03-25,1,,,,,イチイ,0
1851,9010703007621,新規,0,2025-03-25,2025-03-25,合同会社ｒｕｋａ,,合同会社,東京都,品川区,小山台１丁目１３－８ＥＤＩＡＮ武蔵小山２０６,,13,109,1420061,,,,,,,2025-03-25,1,,,,,ルカ,0
1852,9010903009789,新規,0,2025-03-25,2025-03-25,合同会社ドリームハード,,合同会社,東京都,世田谷区,太子堂３丁目３１番６号－４０４号,,13,112,1540004,,,,,,,2025-03-25,1,,,,,ドリームハード,0
1856,9011001168453,新規,0,2025-03-25,2025-03-25,ＦｉＬＬ’ｓエンターテインメント株式会社,,株式会社,東京都,渋谷区,宇田川町３１番３第３田中ビル５階Ａ室,,13,113,1500042,,,,,,,2025-03-25,1,,,,,フィルズエンターテインメント,0
1862,9011105011377,新規,0,2025-03-25,2025-03-25,行政書士法人聖法務事務所,,その他の設立登記法人,東京都,新宿区,新宿１丁目２４番７－１３１３号,,13,104,1600022,,,,,,,2025-03-25,1,,,,,セイホウムジムショ,0
1865,9011503006466,新規,0,2025-03-25,2025-03-25,合同会社ブルーケア,,合同会社,東京都,荒川区,西日暮里２丁目２１番６号８０１号室,,13,118,1160013,,,,,,,2025-03-25,1,,,,,ブルーケア,0
1867,9011801045843,新規,0,2025-03-25,2025-03-25,株式会社ｆＡＩ,,株式会社,東京都,葛飾区,小菅４丁目１２番３号第二鳥塚ビル３０５,,13,122,1240001,,,,,,,2025-03-25,1,,,,,エフエーアイ,0
1869,9012401042850,新規,0,2025-03-25,2025-03-25,株式会社エターナル,,株式会社,東京都,三鷹市,井の頭１丁目１３番１０号,,13,204,1810001,,,,,,,2025-03-25,1,,,,,エターナル,0
1870,9012401042917,新規,0,2025-03-25,2025-03-25,株式会社ＫＴＮ,,株式会社,東京都,府中市,四谷５丁目２５番地の１３,,13,206,1830035,,,,,,,2025-03-25,1,,,,,ケーティーエヌ,0
1871,9012403007034,新規,0,2025-03-25,2025-03-25,合同会社ダイヤモンド,,合同会社,東京都,稲城市,大丸１３９６－７,,13,225,2060801,,,,,,,2025-03-25,1,,,,,ダイヤモンド,0
1872,9012701018765,新規,0,2025-03-25,2025-03-25,先徳株式会社,,株式会社,東京都,小平市,上水南町３丁目３番１４－２号,,13,211,1870021,,,,,,,2025-03-25,1,,,,,セントク,0
1873,9012805003325,新規,0,2025-03-25,2025-03-25,医療法人社団クラリス,,その他の設立登記法人,東京都,国分寺市,泉町２丁目９番１号西国分寺ライフタワー１階１Ｂ号室,,13,214,1850024,,,,,,,2025-03-25,1,,,,,クラリス,0
1875,9013301053995,新規,0,2025-03-25,2025-03-25,株式会社ＮＥＳＴ,,株式会社,東京都,豊島区,東池袋３丁目１２番１２号正和ビル６階－Ｂ,,13,116,1700013,,,,,,,2025-03-25,1,,,,,ネスト,0
1880,9020001161896,新規,0,2025-03-25,2025-03-25,株式会社Ｓ．Ｔ．Ｒ,,株式会社,神奈川県,横浜市青葉区,市ケ尾町１０７１番地２２,,14,117,2250024,,,,,,,2025-03-25,1,,,,,エスティーアール,0
1881,9020001161913,新規,0,2025-03-25,2025-03-25,株式会社ＷｏｎｄｅｒＰａｔｈ,,株式会社,神奈川県,横浜市都筑区,北山田６丁目３８－８,,14,118,2240021,,,,,,,2025-03-25,1,,,,,ワンダーパス,0
1883,9020003028029,新規,0,2025-03-25,2025-03-25,合同会社レコジャパン,,合同会社,神奈川県,横浜市戸塚区,小雀町２１４８－３,,14,110,2440004,,,,,,,2025-03-25,1,,,,,レコジャパン,0
1884,9021001084798,新規,0,2025-03-25,2025-03-25,ＢＳ　ＣＯＲＰＯＲＡＴＩＯＮ株式会社,,株式会社,神奈川県,相模原市南区,下溝１６６１番地１,,14,153,2520335,,,,,,,2025-03-25,1,,,,,ビーエスコーポレーション,0
1886,9021003015768,新規,0,2025-03-25,2025-03-25,合同会社宅配バイク,,合同会社,神奈川県,平塚市,諏訪町１３番２２号,,14,203,2540063,,,,,,,2025-03-25,1,,,,,タクハイバイク,0
1890,9030001165475,新規,0,2025-03-25,2025-03-25,Ｆｌａｓｈ　ａ　ｔｅ株式会社,,株式会社,埼玉県,八潮市,大字古新田１２９番地,,11,234,3400823,,,,,,,2025-03-25,1,,,,,フラッシュエイト,0
1891,9030001165509,新規,0,2025-03-25,2025-03-25,ＡＭＫＴジャパン株式会社,,株式会社,埼玉県,川口市,東本郷２丁目７番１７－３号,,11,203,3340063,,,,,,,2025-03-25,1,,,,,エーエムケーティージャパン,0
1892,9030001165558,新規,0,2025-03-25,2025-03-25,株式会社Ｓａｊｉｒｉ,,株式会社,埼玉県,日高市,大字下大谷沢４９９番地６,,11,242,3501221,,,,,,,2025-03-25,1,,,,,サジリ,0
1895,9030003026386,新規,0,2025-03-25,2025-03-25,合同会社Ｅａｒｅｎｄｅｌ　Ｔｒａｄｉｎｇ,,合同会社,埼玉県,川口市,西川口１丁目３０番２０号Ｔ・Ｂ・Ｓ企画ビル３１５,,11,203,3320021,,,,,,,2025-03-25,1,,,,,エアレンデルトレーディング,0
1896,9030005022086,新規,0,2025-03-25,2025-03-25,一般社団法人マスタードシードクリスチャン教会‐埼玉,,その他の設立登記法人,埼玉県,新座市,野火止６丁目１４番１７号,,11,230,3520011,,,,,,,2025-03-25,1,,,,,マスタードシードクリスチャンキョウカイサイタマ,0
1898,9040001137886,新規,0,2025-03-25,2025-03-25,ｏｏｏ．ｅｎｇｉｎｅｅｒｉｎｇ株式会社,,株式会社,千葉県,千葉市稲毛区,小仲台６丁目３－２０,,12,103,2630043,,,,,,,2025-03-25,1,,,,,スリーオーエンジニアリング,0
1899,9040001137952,新規,0,2025-03-25,2025-03-25,株式会社満足コーポレーション,,株式会社,千葉県,千葉市花見川区,南花園２丁目９番２０号,,12,102,2620022,,,,,,,2025-03-25,1,,,,,マンゾクコーポレーション,0
1900,9040001137985,新規,0,2025-03-25,2025-03-25,株式会社ＭＫ,,株式会社,千葉県,銚子市,清川町２丁目４－５,,12,202,2880817,,,,,,,2025-03-25,1,,,,,エムケイ,0
1901,9040001137993,新規,0,2025-03-25,2025-03-25,株式会社ｆｒｅｅ‐ｓｔｙｌｅ,,株式会社,千葉県,柏市,鷲野谷１０３５番地３,,12,217,2701443,,,,,,,2025-03-25,1,,,,,フリースタイル,0
1904,9040003027169,新規,0,2025-03-25,2025-03-25,合同会社ＧＣＳ,,合同会社,千葉県,千葉市中央区,富士見２丁目８－９バーニングプラザ５Ｂ,,12,101,2600015,,,,,,,2025-03-25,1,,,,,ジーシーエス,0
1910,9080001026821,新規,0,2025-03-25,2025-03-25,株式会社魚善,,株式会社,静岡県,静岡市清水区,銀座８番１６号,,22,103,4240817,,,,,,,2025-03-25,1,,,,,ウオヨシ,0
1911,9080101025392,新規,0,2025-03-25,2025-03-25,惠美株式会社,,株式会社,静岡県,三島市,緑町４－７,,22,206,4110848,,,,,,,2025-03-25,1,,,,,ケイミ,0
1919,9100001038426,新規,0,2025-03-25,2025-03-25,株式会社２４４,,株式会社,長野県,長野市,大字鶴賀上千歳町１１３７番地２３,,20,201,3800821,,,,,,,2025-03-25,1,,,,,,0
1922,9110001039134,新規,0,2025-03-25,2025-03-25,グッドハビット株式会社,,株式会社,新潟県,新潟市中央区,鐙西１丁目１－２１,,15,103,9500915,,,,,,,2025-03-25,1,,,,,グッドハビット,0
1928,9120001273830,新規,0,2025-03-25,2025-03-25,クリアウォーターリバイバル株式会社,,株式会社,大阪府,枚方市,養父丘２丁目２２番４１－２０１号,,27,210,5731134,,,,,,,2025-03-25,1,,,,,クリアウォーターリバイバル,0
1929,9120001273839,新規,0,2025-03-25,2025-03-25,株式会社ＲｅＥｒａ,,株式会社,大阪府,大阪市北区,天満４丁目５番３号,,27,127,5300043,,,,,,,2025-03-25,1,,,,,リエラ,0
1930,9120001273871,新規,0,2025-03-25,2025-03-25,Ｌ２コンサルティング株式会社,,株式会社,大阪府,大阪市北区,曾根崎２丁目２６番１９号メッセージ梅田ビル１Ｆ,,27,127,5300057,,,,,,,2025-03-25,1,,,,,エルツーコンサルティング,0
1939,9120901050610,新規,0,2025-03-25,2025-03-25,株式会社ＧＲＹＴ,,株式会社,大阪府,高槻市,富田町５丁目７番１３号メゾン向陽２０２号,,27,207,5690814,,,,,,,2025-03-25,1,,,,,グリト,0
1945,9130001079236,新規,0,2025-03-25,2025-03-25,プランニングオフィス堀田株式会社,,株式会社,京都府,京都市北区,紫竹上芝本町４１番地,,26,101,6038423,,,,,,,2025-03-25,1,,,,,プランニングオフィスホッタ,0
1946,9130001079260,新規,0,2025-03-25,2025-03-25,株式会社アールディー,,株式会社,京都府,久世郡久御山町,佐山北代２２番地６,,26,322,6130034,,,,,,,2025-03-25,1,,,,,アールディー,0
1948,9130005017316,新規,0,2025-03-25,2025-03-25,一般社団法人京博協会,,その他の設立登記法人,京都府,京都市左京区,田中門前町１０２番地,,26,103,6068225,,,,,,,2025-03-25,1,,,,,キョウハクキョウカイ,0
1952,9140001137843,新規,0,2025-03-25,2025-03-25,株式会社ａｓｏｂｉｂａ,,株式会社,兵庫県,神戸市灘区,六甲台町６番２８－４０１号,,28,102,6570013,,,,,,,2025-03-25,1,,,,,アソビバ,0
1953,9140003021797,新規,0,2025-03-25,2025-03-25,ＮＡＭ　ＰＨＵＯＮＧ合同会社,,合同会社,兵庫県,神戸市兵庫区,西橘通２丁目１番４号鈴木ハイツ２Ｆ,,28,105,6520034,,,,,,,2025-03-25,1,,,,,ナムフォン,0
1955,9140005027413,新規,0,2025-03-25,2025-03-25,医療法人いつき,,その他の設立登記法人,兵庫県,川西市,栄町１１番１号ラソラ川西２Ｆ,,28,217,6660033,,,,,,,2025-03-25,1,,,,,イツキ,0
1958,9160001026623,新規,0,2025-03-25,2025-03-25,ＳＢ株式会社,,株式会社,滋賀県,東近江市,永源寺高野町１２０６番地３,,25,213,5270212,,,,,,,2025-03-25,1,,,,,エスビー,0
1959,9160001026631,新規,0,2025-03-25,2025-03-25,株式会社カラオリ,,株式会社,滋賀県,大津市,国分１丁目１６－３８,,25,201,5200844,,,,,,,2025-03-25,1,,,,,カラオリ,0
1965,9180001166038,新規,0,2025-03-25,2025-03-25,株式会社あん,,株式会社,愛知県,名古屋市昭和区,東郊通９丁目９番地５高辻荘１４０３号,,23,107,4660056,,,,,,,2025-03-25,1,,,,,アン,0
1966,9180001166046,新規,0,2025-03-25,2025-03-25,株式会社アヴァンセ,,株式会社,愛知県,名古屋市東区,白壁３丁目１番２８号,,23,102,4610011,,,,,,,2025-03-25,1,,,,,アヴァンセ,0
1976,9200001043564,新規,0,2025-03-25,2025-03-25,株式会社山岩,,株式会社,岐阜県,可児郡御嵩町,顔戸３６８番地１１,,21,521,5050122,,,,,,,2025-03-25,1,,,,,ヤマイワ,0
1981,9220001026559,新規,0,2025-03-25,2025-03-25,株式会社てんぼう,,株式会社,石川県,金沢市,諸江町下丁８８番地１,,17,201,9200017,,,,,,,2025-03-25,1,,,,,テンボウ,0
1988,9260001040036,新規,0,2025-03-25,2025-03-25,Ｃｏｒｅ　Ｂｒｉｄｇｅ株式会社,,株式会社,岡山県,岡山市中区,四御神７００番地７２,,33,102,7038201,,,,,,,2025-03-25,1,,,,,コアブリッジ,0
1992,9270001009170,新規,0,2025-03-25,2025-03-25,株式会社ＮＳ　ＣＡＲＥ,,株式会社,鳥取県,境港市,上道町３２８２番地,,31,204,6840033,,,,,,,2025-03-25,1,,,,,エヌエスケア,0
2002,9290001109423,新規,0,2025-03-25,2025-03-25,ｋｗ‐Ｄｅｓｉｇｎ株式会社,,株式会社,福岡県,福岡市東区,千早２丁目４１番１０号,,40,131,8130044,,,,,,,2025-03-25,1,,,,,ケイダブリューデザイン,0
2005,9290003016576,新規,0,2025-03-25,2025-03-25,合同会社Ｒｉｖｅｒｗａｌｋ,,合同会社,福岡県,福岡市中央区,谷２丁目１１番８－２２０５号,,40,133,8100031,,,,,,,2025-03-25,1,,,,,リバーウォーク,0
2006,9290003016584,新規,0,2025-03-25,2025-03-25,ＴＮ　ＷＯＲＫＳ合同会社,,合同会社,福岡県,福岡市博多区,博多駅前１丁目２３番２号ＰａｒｋＦｒｏｎｔ博多駅前１丁目５Ｆ－Ｂ,,40,132,8120011,,,,,,,2025-03-25,1,,,,,ティーエヌワークス,0
2007,9300003002252,新規,0,2025-03-25,2025-03-25,フィーゴ合同会社,,合同会社,佐賀県,神埼市,神埼町神埼２２８番地３,,41,210,8420001,,,,,,,2025-03-25,1,,,,,フィーゴ,0
2009,9320003004610,新規,0,2025-03-25,2025-03-25,エムツーエンジニアリング合同会社,,合同会社,大分県,由布市,湯布院町川上２９１５番地１３,,44,213,8795102,,,,,,,2025-03-25,1,,,,,エムツーエンジニアリング,0
2012,9340001027207,新規,0,2025-03-25,2025-03-25,株式会社ケイシン,,株式会社,鹿児島県,薩摩川内市,東大小路町１８番２０号,,46,215,8950075,,,,,,,2025-03-25,1,,,,,ケイシン,0
2024,9400005008477,新規,0,2025-03-25,2025-03-25,特定非営利活動法人漆文化遺産,,その他の設立登記法人,岩手県,盛岡市,津志田西１丁目４番４３号,,03,201,0200836,,,,,,,2025-03-25,1,,,,,ウルシブンカイサン,0
2030,9430001093974,新規,0,2025-03-25,2025-03-25,秋井建装工業株式会社,,株式会社,北海道,札幌市北区,新琴似七条１１丁目３番１６－２号フローリド７１１Ａ号,,01,102,0010907,,,,,,,2025-03-25,1,,,,,アキイケンソウコウギョウ,0
2033,9430003017428,新規,0,2025-03-25,2025-03-25,合同会社寿麻,,合同会社,北海道,札幌市豊平区,西岡三条１丁目５番７－１０４号,,01,105,0620033,,,,,,,2025-03-25,1,,,,,コトブキアサ,0
2042,9490003001995,新規,0,2025-03-25,2025-03-25,合同会社あらし,,合同会社,高知県,高知市,新屋敷２丁目２５番２－２号,,39,201,7800911,,,,,,,2025-03-25,1,,,,,,0
2043,9700150129592,新規,0,2025-03-25,2025-03-17,浜松市ビーチバレーボール連盟,,その他,静岡県,浜松市中央区,子安町３０６－８　カルムシャンブル２０２,,22,138,4350015,,,,,,,2025-03-17,1,,,,,ハママツシビーチバレーボールレンメイ,0
