sequenceNumber,corporateNumber,process,correct,updateDate,changeDate,name,nameImageId,kind,prefectureName,cityName,streetNumber,addressImageId,prefectureCode,cityCode,postCode,addressOutside,addressOutsideImageId,closeDate,closeCause,successorCorporateNumber,changeCause,assignmentDate,latest,enName,enPrefectureName,enCityName,enAddressOutside,furigana,hihyoji
6,1010001250138,新規,0,2024-11-20,2024-11-20,株式会社Ｅｕｘｉｒ,,株式会社,東京都,文京区,本郷６丁目２５番１４号,,13,105,1130033,,,,,,,2024-11-20,1,,,,,ユクシア,0
21,1010003045503,新規,0,2024-11-20,2024-11-20,合同会社ＯＴＳ　Ｏｎｅ,,合同会社,東京都,千代田区,丸の内１丁目４番１号東京共同会計事務所内,,13,101,1000005,,,,,,,2024-11-20,1,,,,,オーティーエスワン,0
22,1010003045536,新規,0,2024-11-20,2024-11-20,合同会社童子瀟,,合同会社,東京都,千代田区,東神田２丁目１０－１５－８０３,,13,101,1010031,,,,,,,2024-11-20,1,,,,,,0
26,1010401186535,新規,0,2024-11-20,2024-11-20,ＴＦＷ株式会社,,株式会社,東京都,港区,芝浦４丁目２番２２－６１９号,,13,103,1080023,,,,,,,2024-11-20,1,,,,,ティーエフダブリュー,0
32,1010403033818,新規,0,2024-11-20,2024-11-20,ソーラーツグミ合同会社,,合同会社,東京都,港区,南青山２丁目１３番２号サンライズ青山２Ｆ青山国際税理士法人内,,13,103,1070062,,,,,,,2024-11-20,1,,,,,ソーラーツグミ,0
33,1010403033826,新規,0,2024-11-20,2024-11-20,合同会社Ｅｌｗｏｏｄ,,合同会社,東京都,港区,虎ノ門１丁目１番１８号ヒューリック虎ノ門ビル９階Ｌ＆Ｐ司法書士法人内,,13,103,1050001,,,,,,,2024-11-20,1,,,,,エルウッド,0
34,1010405023759,新規,0,2024-11-20,2024-11-20,特定非営利活動法人女性ウェルネス食推進機構,,その他の設立登記法人,東京都,港区,芝５丁目３６番４号札の辻スクエア９階,,13,103,1080014,,,,,,,2024-11-20,1,,,,,ジョセイウェルネスショクスイシンキコウ,0
35,1010405023800,新規,0,2024-11-20,2024-11-20,ソーラーキジ一般社団法人,,その他の設立登記法人,東京都,港区,南青山２丁目１３番２号サンライズ青山２Ｆ青山国際税理士法人内,,13,103,1070062,,,,,,,2024-11-20,1,,,,,ソーラーキジ,0
36,1010405023809,新規,0,2024-11-20,2024-11-20,一般社団法人Ｐｕｌａｓａｎ,,その他の設立登記法人,東京都,港区,虎ノ門１丁目１番１８号ヒューリック虎ノ門ビル９階Ｌ＆Ｐ司法書士法人内,,13,103,1050001,,,,,,,2024-11-20,1,,,,,プラサン,0
44,1010701046827,新規,0,2024-11-20,2024-11-20,株式会社テュケー,,株式会社,東京都,品川区,大井４丁目１３番１２号,,13,109,1400014,,,,,,,2024-11-20,1,,,,,テュケー,0
45,1010701046843,新規,0,2024-11-20,2024-11-20,株式会社マゼランメディカル,,株式会社,東京都,品川区,西五反田８丁目１番３号,,13,109,1410031,,,,,,,2024-11-20,1,,,,,マゼランメディカル,0
49,1010901056361,新規,0,2024-11-20,2024-11-20,神崎工業株式会社,,株式会社,東京都,世田谷区,世田谷１丁目４１番２号,,13,112,1540017,,,,,,,2024-11-20,1,,,,,カンザキコウギョウ,0
66,1011105011228,新規,0,2024-11-20,2024-11-20,一般社団法人ＳＰＯＲＴＳ　ＯＮＥ,,その他の設立登記法人,東京都,新宿区,西新宿４丁目８－１６－１４０２,,13,104,1600023,,,,,,,2024-11-20,1,,,,,スポーツワン,0
74,1011401026598,新規,0,2024-11-20,2024-11-20,株式会社システムテックプロ,,株式会社,東京都,板橋区,中台１丁目７番１０号,,13,119,1740064,,,,,,,2024-11-20,1,,,,,システムテックプロ,0
75,1011405002364,新規,0,2024-11-20,2024-11-20,特定非営利活動法人小豆沢・志村フードバンクの会,,その他の設立登記法人,東京都,板橋区,志村１丁目２７番２１－７０８号,,13,119,1740056,,,,,,,2024-11-20,1,,,,,アズサワシムラフードバンクノカイ,0
77,1011501031374,新規,0,2024-11-20,2024-11-20,株式会社Ｓｉｌｖｅｒ　Ａｃｅ,,株式会社,東京都,荒川区,東日暮里６丁目３６番１０－２０２号,,13,118,1160014,,,,,,,2024-11-20,1,,,,,シルバーエース,0
79,1011601028196,新規,0,2024-11-20,2024-11-20,株式会社ＰＯＭ,,株式会社,東京都,練馬区,桜台１丁目４７－８－２０７,,13,120,1760002,,,,,,,2024-11-20,1,,,,,ポム,0
80,1011601028213,新規,0,2024-11-20,2024-11-20,株式会社藤江教材社,,株式会社,東京都,練馬区,春日町６丁目２番１１号,,13,120,1790074,,,,,,,2024-11-20,1,,,,,フジエキョウザイシャ,0
100,1020001160187,新規,0,2024-11-20,2024-11-20,株式会社ＮＥＰＰＡ,,株式会社,神奈川県,横浜市港北区,日吉２丁目１１－１６,,14,109,2230061,,,,,,,2024-11-20,1,,,,,ネッパ,0
101,1020001160204,新規,0,2024-11-20,2024-11-20,株式会社あめだま画報,,株式会社,神奈川県,川崎市多摩区,栗谷３丁目１２番１８－２号,,14,135,2140039,,,,,,,2024-11-20,1,,,,,アメダマガホウ,0
106,1020003027285,新規,0,2024-11-20,2024-11-20,合同会社ライオン,,合同会社,神奈川県,川崎市高津区,向ケ丘６７番地１モルト・フェリーチェ２０７,,14,134,2130035,,,,,,,2024-11-20,1,,,,,ライオン,0
111,1021001083782,新規,0,2024-11-20,2024-11-20,千が漆株式会社,,株式会社,神奈川県,小田原市,浜町３丁目１番３９号,,14,206,2500004,,,,,,,2024-11-20,1,,,,,センガウルシ,0
112,1021003015214,新規,0,2024-11-20,2024-11-20,Ｒｅｆｏｒｍ　Ｓｈｏｎａｎ合同会社,,合同会社,神奈川県,藤沢市,鵠沼石上１丁目５―９メガサンエスビル６階,,14,205,2510025,,,,,,,2024-11-20,1,,,,,リフォームショウナン,0
117,1030001163503,新規,0,2024-11-20,2024-11-20,株式会社ＴＳＱＵＡＲＥ,,株式会社,埼玉県,さいたま市浦和区,北浦和５丁目１１番２１－７０１号,,11,107,3300074,,,,,,,2024-11-20,1,,,,,ティースクエア,0
118,1030001163536,新規,0,2024-11-20,2024-11-20,株式会社Ｈｏｍｅｂａｎｋ,,株式会社,埼玉県,川越市,大字笠幡８７２番地２,,11,201,3501175,,,,,,,2024-11-20,1,,,,,ホームバンク,0
119,1030001163560,新規,0,2024-11-20,2024-11-20,株式会社竜胆,,株式会社,埼玉県,さいたま市桜区,大字白鍬２５０－７,,11,106,3380811,,,,,,,2024-11-20,1,,,,,リンドウ,0
124,1030003025528,新規,0,2024-11-20,2024-11-20,祥盈合同会社,,合同会社,埼玉県,越谷市,大成町１丁目２１５５番地１,,11,222,3430825,,,,,,,2024-11-20,1,,,,,ショウエイ,0
125,1030003025536,新規,0,2024-11-20,2024-11-20,合同会社ビアンカ,,合同会社,埼玉県,さいたま市南区,根岸５丁目２－１９－２０２号,,11,108,3360024,,,,,,,2024-11-20,1,,,,,ビアンカ,0
126,1030005021946,新規,0,2024-11-20,2024-11-20,一般社団法人おともさぽーと,,その他の設立登記法人,埼玉県,坂戸市,西坂戸１丁目１６番２５号,,11,239,3500247,,,,,,,2024-11-20,1,,,,,オトモサポート,0
139,1060003005337,新規,0,2024-11-20,2024-11-20,はな合同会社,,合同会社,栃木県,宇都宮市,鶴田町３６２４－８サントラップ鶴田１０７号室,,09,201,3200851,,,,,,,2024-11-20,1,,,,,ハナ,0
143,1090001019014,新規,0,2024-11-20,2024-11-20,アイランド株式会社,,株式会社,山梨県,笛吹市,八代町南１１７６番地１,,19,211,4060822,,,,,,,2024-11-20,1,,,,,アイランド,0
157,1120001270406,新規,0,2024-11-20,2024-11-20,ＬＩＮＧＤＡ　ＯＳＡＫＡ株式会社,,株式会社,大阪府,大阪市平野区,加美東１丁目９番１７号,,27,126,5470002,,,,,,,2024-11-20,1,,,,,リンダオオサカ,0
158,1120001270430,新規,0,2024-11-20,2024-11-20,株式会社ＯＮＬＹ,,株式会社,大阪府,大阪市東住吉区,湯里２丁目１７－４ヴィルブーケ１階,,27,121,5460013,,,,,,,2024-11-20,1,,,,,オンリー,0
159,1120001270439,新規,0,2024-11-20,2024-11-20,株式会社ＩＳサポート,,株式会社,大阪府,大阪市西成区,玉出西２丁目２０－６１－２０１,,27,122,5570045,,,,,,,2024-11-20,1,,,,,アイエスサポート,0
160,1120001270463,新規,0,2024-11-20,2024-11-20,株式会社古田メタルワーク,,株式会社,大阪府,大阪市平野区,瓜破７丁目１番１３号,,27,126,5470024,,,,,,,2024-11-20,1,,,,,フルタメタルワーク,0
163,1120003027985,新規,0,2024-11-20,2024-11-20,合同会社ＹＵＫＩＤＡＲＵＭＡ,,合同会社,大阪府,大阪市福島区,鷺洲５丁目１番４－９０６号,,27,103,5530002,,,,,,,2024-11-20,1,,,,,ユキダルマ,0
164,1120003028001,新規,0,2024-11-20,2024-11-20,Ｋ１０合同会社,,合同会社,大阪府,大阪市中央区,北浜２丁目１番１７号,,27,128,5410041,,,,,,,2024-11-20,1,,,,,ケイジュウ,0
167,1120101070615,新規,0,2024-11-20,2024-11-20,子どもの未来株式会社,,株式会社,大阪府,堺市西区,山田１丁１０８６－８,,27,144,5938316,,,,,,,2024-11-20,1,,,,,コドモノミライ,0
168,1120101070631,新規,0,2024-11-20,2024-11-20,東旭株式会社,,株式会社,大阪府,堺市堺区,竜神橋町２丁３番１号,,27,141,5900972,,,,,,,2024-11-20,1,,,,,トウキョク,0
177,1122001038667,新規,0,2024-11-20,2024-11-20,東大阪建物管理株式会社,,株式会社,大阪府,東大阪市,下小阪１丁目７番４－１０１号,,27,227,5770803,,,,,,,2024-11-20,1,,,,,ヒガシオオサカタテモノカンリ,0
180,1130001078369,新規,0,2024-11-20,2024-11-20,株式会社京都西大路七条コンタクトレンズ,,株式会社,京都府,京都市下京区,西七条北衣田町３７番地１－３２２,,26,106,6008883,,,,,,,2024-11-20,1,,,,,キョウトニシオオジシチジョウコンタクトレンズ,0
191,1170003002125,新規,0,2024-11-20,2024-11-20,合同会社ベルリアン,,合同会社,和歌山県,岩出市,山４９２－１３,,30,209,6496258,,,,,,,2024-11-20,1,,,,,ベルリアン,0
197,1180001164189,新規,0,2024-11-20,2024-11-20,和光通信技術株式会社,,株式会社,愛知県,名古屋市中区,錦１丁目７番４２号リアライズ錦２０３号,,23,106,4600003,,,,,,,2024-11-20,1,,,,,ワコウツウシンギジュツ,0
198,1180001164206,新規,0,2024-11-20,2024-11-20,株式会社エスペランザ,,株式会社,愛知県,一宮市,馬見塚字郷内６７３番地ヒルズ馬見塚２０１号,,23,203,4910874,,,,,,,2024-11-20,1,,,,,エスペランザ,0
199,1180001164222,新規,0,2024-11-20,2024-11-20,株式会社エムケイル,,株式会社,愛知県,名古屋市西区,天塚町３丁目３２番地の１,,23,104,4510021,,,,,,,2024-11-20,1,,,,,エムケイル,0
200,1180001164230,新規,0,2024-11-20,2024-11-20,株式会社ｆｉｒｓｔ’ｄｅａ,,株式会社,愛知県,大府市,江端町４丁目１３４番地,,23,223,4740035,,,,,,,2024-11-20,1,,,,,ファーストディア,0
201,1180001164239,新規,0,2024-11-20,2024-11-20,Ａｕｔｏ　Ｇｌｏｂｅ　Ｔｒａｄｉｎｇｓ株式会社,,株式会社,愛知県,名古屋市中区,大須２丁目１８番５５号ダイアパレス大須第二２０６号,,23,106,4600011,,,,,,,2024-11-20,1,,,,,オートグローブトレイディングス,0
202,1180001164247,新規,0,2024-11-20,2024-11-20,株式会社Ｕｎｏ　Ｐｅｒｔ,,株式会社,愛知県,犬山市,大字羽黒字高橋郷１９０番地１,,23,215,4840894,,,,,,,2024-11-20,1,,,,,ウンペルト,0
208,1200001043150,新規,0,2024-11-20,2024-11-20,株式会社ＳＯＳ,,株式会社,岐阜県,岐阜市,柳津町下佐波６丁目８４番地,,21,201,5016121,,,,,,,2024-11-20,1,,,,,エスオーエス,0
210,1210001019975,新規,0,2024-11-20,2024-11-20,イヤックル株式会社,,株式会社,福井県,福井市,風巻町１３－４１,,18,201,9103622,,,,,,,2024-11-20,1,,,,,イヤックル,0
219,1240001064135,新規,0,2024-11-20,2024-11-20,Ｂｅ‐ＺＥＲＯ株式会社,,株式会社,広島県,三次市,十日市中１丁目４番１号,,34,209,7280012,,,,,,,2024-11-20,1,,,,,ビーゼロ,0
222,1250005008962,新規,0,2024-11-20,2024-11-20,特定非営利活動法人ｎｅｗ　ｃｈａｐｔｅｒ,,その他の設立登記法人,山口県,長門市,三隅下１９８８番地９,,35,211,7593803,,,,,,,2024-11-20,1,,,,,ニューチャプター,0
226,1280001009292,新規,0,2024-11-20,2024-11-20,ゆのまち水道設備株式会社,,株式会社,島根県,大田市,温泉津町福光イ１３０番地１,,32,205,6992514,,,,,,,2024-11-20,1,,,,,ユノマチスイドウセツビ,0
236,1290001107979,新規,0,2024-11-20,2024-11-20,株式会社ふくおか福産海,,株式会社,福岡県,福岡市中央区,福浜１丁目２７－３,,40,133,8100066,,,,,,,2024-11-20,1,,,,,,0
237,1290001107987,新規,0,2024-11-20,2024-11-20,株式会社山一不動産,,株式会社,福岡県,筑後市,大字熊野７１番地１８,,40,211,8330055,,,,,,,2024-11-20,1,,,,,ヤマイチフドウサン,0
242,1290003016088,新規,0,2024-11-20,2024-11-20,合同会社リブｏｆｆｉｃｅ,,合同会社,福岡県,福岡市城南区,別府１丁目１６－１０－１０３,,40,136,8140104,,,,,,,2024-11-20,1,,,,,リブオフィス,0
245,1330001032660,新規,0,2024-11-20,2024-11-20,株式会社後藤総業,,株式会社,熊本県,熊本市東区,鹿帰瀬町３１０番地２,,43,102,8618011,,,,,,,2024-11-20,1,,,,,ゴトウソウギョウ,0
255,1380001034933,新規,0,2024-11-20,2024-11-20,株式会社伊達総建,,株式会社,福島県,伊達市,保原町字旭町８７番地１,,07,213,9600687,,,,,,,2024-11-20,1,,,,,ダテソウケン,0
263,1430001093057,新規,0,2024-11-20,2024-11-20,株式会社びりじあん・ファミリー,,株式会社,北海道,札幌市西区,琴似二条４丁目１番２４号ヤマチビル２Ｆ,,01,107,0630812,,,,,,,2024-11-20,1,,,,,ビリジアンファミリー,0
264,1430003017006,新規,0,2024-11-20,2024-11-20,合同会社外国人支援センター,,合同会社,北海道,札幌市西区,宮の沢三条５丁目１８番２３号,,01,107,0630053,,,,,,,2024-11-20,1,,,,,ガイコクジンシエンセンター,0
267,1460001005950,新規,0,2024-11-20,2024-11-20,Ｌａ　ＬＵＰＡ株式会社,,株式会社,北海道,釧路市,昭和南５丁目１８番６号,,01,206,0840909,,,,,,,2024-11-20,1,,,,,ラルパ,0
281,2010001249864,新規,0,2024-11-20,2024-11-20,株式会社森乃園ホールディングス,,株式会社,東京都,中央区,日本橋人形町２丁目４番９号,,13,102,1030013,,,,,,,2024-11-20,1,,,,,モリノエンホールディングス,0
303,2010003045519,新規,0,2024-11-20,2024-11-20,ＧＭ赤塚合同会社,,合同会社,東京都,千代田区,丸の内１丁目４番１号東京共同会計事務所内,,13,101,1000005,,,,,,,2024-11-20,1,,,,,ジーエムアカツカ,0
308,2010005039139,新規,0,2024-11-20,2024-11-20,一般社団法人ｒｅｎｇａプロ第４号,,その他の設立登記法人,東京都,千代田区,丸の内１丁目４番１号東京共同会計事務所内,,13,101,1000005,,,,,,,2024-11-20,1,,,,,レンガプロダイヨンゴウ,0
315,2010401186501,新規,0,2024-11-20,2024-11-20,Ｍ　Ｌｉｎｋ株式会社,,株式会社,東京都,港区,浜松町１丁目２番１９号７０７,,13,103,1050013,,,,,,,2024-11-20,1,,,,,エムリンク,0
316,2010401186518,新規,0,2024-11-20,2024-11-20,リッツエージェント株式会社,,株式会社,東京都,港区,白金１丁目２７番６号白金高輪ステーションビル６Ｆ,,13,103,1080072,,,,,,,2024-11-20,1,,,,,リッツエージェント,0
317,2010401186534,新規,0,2024-11-20,2024-11-20,株式会社ＸＥＮＩＳ,,株式会社,東京都,港区,白金１丁目２番１－Ｅ１１１３号,,13,103,1080072,,,,,,,2024-11-20,1,,,,,ゼニス,0
318,2010401186542,新規,0,2024-11-20,2024-11-20,株式会社ロジリーク,,株式会社,東京都,港区,南青山７丁目２番１０－４０５号,,13,103,1070062,,,,,,,2024-11-20,1,,,,,ロジリーク,0
319,2010401186550,新規,0,2024-11-20,2024-11-20,株式会社インファンシー,,株式会社,東京都,港区,虎ノ門３丁目２５番５－９０４号,,13,103,1050001,,,,,,,2024-11-20,1,,,,,インファンシー,0
320,2010401186567,新規,0,2024-11-20,2024-11-20,日本ＡＩセンターホールディングス株式会社,,株式会社,東京都,港区,南青山２丁目２－１５ウィン青山９４２,,13,103,1070062,,,,,,,2024-11-20,1,,,,,ニホンエーアイセンターホールディングス,0
326,2010403033817,新規,0,2024-11-20,2024-11-20,ソーラーモズ合同会社,,合同会社,東京都,港区,南青山２丁目１３番２号サンライズ青山２Ｆ青山国際税理士法人内,,13,103,1070062,,,,,,,2024-11-20,1,,,,,ソーラーモズ,0
328,2010405023799,新規,0,2024-11-20,2024-11-20,ソーラーホオジロ一般社団法人,,その他の設立登記法人,東京都,港区,南青山２丁目１３番２号サンライズ青山２Ｆ青山国際税理士法人内,,13,103,1070062,,,,,,,2024-11-20,1,,,,,ソーラーホオジロ,0
333,2010603011226,新規,0,2024-11-20,2024-11-20,合同会社ペルネティア,,合同会社,東京都,墨田区,八広２丁目１６番３号,,13,107,1310041,,,,,,,2024-11-20,1,,,,,ペルネティア,0
337,2010801035588,新規,0,2024-11-20,2024-11-20,ふるもと運送株式会社,,株式会社,東京都,大田区,久が原５丁目３番８号,,13,111,1460085,,,,,,,2024-11-20,1,,,,,フルモトウンソウ,0
340,2010901056352,新規,0,2024-11-20,2024-11-20,株式会社ＴＣ‐Ｈ,,株式会社,東京都,世田谷区,奥沢２丁目３３番１号,,13,112,1580083,,,,,,,2024-11-20,1,,,,,ティーシーエイチ,0
341,2010901056360,新規,0,2024-11-20,2024-11-20,株式会社Ｋｅｙｓ,,株式会社,東京都,世田谷区,三宿２丁目３番１３－２０１号,,13,112,1540005,,,,,,,2024-11-20,1,,,,,キーズ,0
348,2011001166067,新規,0,2024-11-20,2024-11-20,株式会社ブライト,,株式会社,東京都,渋谷区,恵比寿１丁目２２番３－６０３号,,13,113,1500013,,,,,,,2024-11-20,1,,,,,ブライト,0
353,2011101109660,新規,0,2024-11-20,2024-11-20,株式会社テクノマ,,株式会社,東京都,新宿区,西新宿３丁目３番１３号西新宿水間ビル６階,,13,104,1600023,,,,,,,2024-11-20,1,,,,,テクノマ,0
365,2011501031381,新規,0,2024-11-20,2024-11-20,ヒロセクオリティーズ株式会社,,株式会社,東京都,荒川区,東日暮里５丁目４０番９号２０２,,13,118,1160014,,,,,,,2024-11-20,1,,,,,ヒロセクオリティーズ,0
367,2011601028154,新規,0,2024-11-20,2024-11-20,株式会社ＡＲＴＩＳＴ’ＬＡＢＯ,,株式会社,東京都,練馬区,貫井３丁目３番９－２０５号,,13,120,1760021,,,,,,,2024-11-20,1,,,,,アーティストラボ,0
368,2011601028212,新規,0,2024-11-20,2024-11-20,エルテコワ株式会社,,株式会社,東京都,練馬区,北町３丁目１１番３号,,13,120,1790081,,,,,,,2024-11-20,1,,,,,エルテコワ,0
369,2011703004037,新規,0,2024-11-20,2024-11-20,合同会社ジャパン企画,,合同会社,東京都,江戸川区,東葛西６丁目２番６号第二須三ビル４階,,13,123,1340084,,,,,,,2024-11-20,1,,,,,ジャパンキカク,0
375,2012803003548,新規,0,2024-11-20,2024-11-20,合同会社ホームベース,,合同会社,東京都,日野市,万願寺６丁目２１番地の２,,13,212,1910024,,,,,,,2024-11-20,1,,,,,ホームベース,0
381,2013301053408,新規,0,2024-11-20,2024-11-20,株式会社守栄商会,,株式会社,東京都,豊島区,南池袋２丁目３０－１２ＢＩＴビル７Ｆ,,13,116,1710022,,,,,,,2024-11-20,1,,,,,モリエイショウカイ,0
393,2020001160120,新規,0,2024-11-20,2024-11-20,株式会社ＤＩＡＮＮＡ,,株式会社,神奈川県,横浜市西区,浅間町１丁目４番３号ウィザードビル４０２,,14,103,2200072,,,,,,,2024-11-20,1,,,,,ディアナ,0
394,2020001160178,新規,0,2024-11-20,2024-11-20,株式会社Ｅｎｔａ,,株式会社,神奈川県,川崎市川崎区,砂子１丁目４番地１０,,14,131,2100006,,,,,,,2024-11-20,1,,,,,エンタ,0
395,2020001160203,新規,0,2024-11-20,2024-11-20,株式会社ＭＯＲＯ　ＧＲＯＵＰ,,株式会社,神奈川県,横浜市瀬谷区,橋戸３丁目２３番地３０グランシャリオＣ２０１,,14,114,2460037,,,,,,,2024-11-20,1,,,,,モログループ,0
401,2020005016599,新規,0,2024-11-20,2024-11-20,一般社団法人鶴見交通安全協会,,その他の設立登記法人,神奈川県,横浜市鶴見区,鶴見中央４丁目３３番９号,,14,101,2300051,,,,,,,2024-11-20,1,,,,,ツルミコウツウアンゼンキョウカイ,0
405,2021001083798,新規,0,2024-11-20,2024-11-20,株式会社ウインズエージェント,,株式会社,神奈川県,平塚市,万田３丁目７番６号,,14,203,2540913,,,,,,,2024-11-20,1,,,,,ウインズエージェント,0
406,2021001083815,新規,0,2024-11-20,2024-11-20,株式会社風雅,,株式会社,神奈川県,鎌倉市,長谷２丁目５－３９,,14,204,2480016,,,,,,,2024-11-20,1,,,,,フウガ,0
414,2030001163436,新規,0,2024-11-20,2024-11-20,ロッカーシステム株式会社,,株式会社,埼玉県,川口市,大字安行慈林３７９,,11,203,3340071,,,,,,,2024-11-20,1,,,,,ロッカーシステム,0
415,2030001163485,新規,0,2024-11-20,2024-11-20,Ｌａｎｄ株式会社,,株式会社,埼玉県,和光市,白子１丁目２７番６号,,11,229,3510101,,,,,,,2024-11-20,1,,,,,ランド,0
416,2030001163519,新規,0,2024-11-20,2024-11-20,株式会社ジャパン流通サービス,,株式会社,埼玉県,八潮市,八潮４丁目５番地１グリーンパーク第１０八潮６０７号室,,11,234,3400815,,,,,,,2024-11-20,1,,,,,ジャパンリュウツウサービス,0
421,2030005021945,新規,0,2024-11-20,2024-11-20,一般社団法人彩り,,その他の設立登記法人,埼玉県,東松山市,大字上唐子１４９６番地１２１,,11,212,3550077,,,,,,,2024-11-20,1,,,,,イロドリ,0
425,2040001136201,新規,0,2024-11-20,2024-11-20,江戸ＷＯＲＬＤ　ＣＡＢＩＮ株式会社,,株式会社,千葉県,松戸市,高塚新田１７７番地の５６,,12,207,2702222,,,,,,,2024-11-20,1,,,,,エドワールドキャビン,0
433,2060003005336,新規,0,2024-11-20,2024-11-20,ＣＡＲＥ　ＳＴＡＧＥ合同会社,,合同会社,栃木県,塩谷郡高根沢町,大字宝積寺１２１４番地１１,,09,386,3291233,,,,,,,2024-11-20,1,,,,,ケアステージ,0
434,2070001042347,新規,0,2024-11-20,2024-11-20,三笠商事株式会社,,株式会社,群馬県,高崎市,上中居町３９８番地８,,10,202,3700851,,,,,,,2024-11-20,1,,,,,ミカサショウジ,0
440,2100001038044,新規,0,2024-11-20,2024-11-20,株式会社ＳＯＬＡＲ　ＳＨＩＰ,,株式会社,長野県,千曲市,大字桜堂４３６－１５,,20,218,3870012,,,,,,,2024-11-20,1,,,,,ソーラーシップ,0
443,2110001038852,新規,0,2024-11-20,2024-11-20,株式会社ＡＩＨＡＶＥ,,株式会社,新潟県,新潟市中央区,関屋大川前１丁目３－４９,,15,103,9518142,,,,,,,2024-11-20,1,,,,,,0
455,2120001270272,新規,0,2024-11-20,2024-11-20,株式会社ＮｅｗＬｉｆｅ,,株式会社,大阪府,大阪市大正区,三軒家東１丁目６番１４－１２０１号,,27,108,5510002,,,,,,,2024-11-20,1,,,,,ニューライフ,0
456,2120001270405,新規,0,2024-11-20,2024-11-20,株式会社宿り,,株式会社,大阪府,大阪市北区,西天満３丁目１３番２０号ＡＳビル６階,,27,127,5300047,,,,,,,2024-11-20,1,,,,,ヤドリ,0
457,2120001270446,新規,0,2024-11-20,2024-11-20,株式会社ＳｔａｒｔＰａｇｅ,,株式会社,大阪府,大阪市浪速区,幸町２丁目５‐１０ストークマンション桜川６０１,,27,111,5560021,,,,,,,2024-11-20,1,,,,,スタートページ,0
458,2120003028000,新規,0,2024-11-20,2024-11-20,Ｋ９合同会社,,合同会社,大阪府,大阪市中央区,北浜２丁目１番１７号,,27,128,5410041,,,,,,,2024-11-20,1,,,,,ケイキュウ,0
460,2120005024625,新規,0,2024-11-20,2024-11-20,特定非営利活動法人日本芸術表現者協会,,その他の設立登記法人,大阪府,大阪市港区,市岡元町２丁目３番２６号,,27,107,5520002,,,,,,,2024-11-20,1,,,,,ニホンゲイジュツヒョウゲンシャキョウカイ,0
466,2120103006137,新規,0,2024-11-20,2024-11-20,ＭＩＣＨＩＫＯ　ＬＡＵＲＥＮ合同会社,,合同会社,大阪府,堺市堺区,栄橋町２－１－１０,,27,141,5900000,,,,,,,2024-11-20,1,,,,,ミチコローレン,0
467,2120901050055,新規,0,2024-11-20,2024-11-20,株式会社よつばプラス,,株式会社,大阪府,豊中市,新千里北町３丁目５番３号,,27,203,5600081,,,,,,,2024-11-20,1,,,,,ヨツバプラス,0
475,2130003010015,新規,0,2024-11-20,2024-11-20,悦和合同会社,,合同会社,京都府,京都市右京区,西京極南方町２６－２５－２０２,,26,108,6150827,,,,,,,2024-11-20,1,,,,,エツワ,0
484,2140001136471,新規,0,2024-11-20,2024-11-20,株式会社Ｆｉｔ　Ｐｌａｎ,,株式会社,兵庫県,宝塚市,逆瀬台１丁目１１番４－５１０号,,28,214,6650024,,,,,,,2024-11-20,1,,,,,フィットプラン,0
496,2180001164238,新規,0,2024-11-20,2024-11-20,燕株式会社,,株式会社,愛知県,名古屋市西区,那古野１丁目３６－５２,,23,104,4510042,,,,,,,2024-11-20,1,,,,,ツバメ,0
497,2180001164246,新規,0,2024-11-20,2024-11-20,ワールドアセット２株式会社,,株式会社,愛知県,名古屋市中区,栄１丁目６番１５号,,23,106,4600008,,,,,,,2024-11-20,1,,,,,ワールドアセットツー,0
502,2180005020833,新規,0,2024-11-20,2024-11-20,一般社団法人未来経営倍増ネットワーク,,その他の設立登記法人,愛知県,名古屋市中区,錦１丁目６－１７オリジン錦２Ｆ,,23,106,4600003,,,,,,,2024-11-20,1,,,,,ミライケイエイバイゾウネットワーク,0
512,2200003006591,新規,0,2024-11-20,2024-11-20,合同会社ＫＴＳ,,合同会社,岐阜県,各務原市,前渡東町５丁目２２番地１,,21,213,5040922,,,,,,,2024-11-20,1,,,,,ケーティーエス,0
514,2210002014454,新規,0,2024-11-20,2024-11-20,有限会社大浦ニット,,有限会社,福井県,越前市,東千福町６番９号,,18,209,9150847,,,,,,,2024-11-20,1,,,,,オオウラニット,0
534,2290001107994,新規,0,2024-11-20,2024-11-20,福岡千早フォレスト株式会社,,株式会社,福岡県,福岡市中央区,舞鶴３丁目２番１号,,40,133,8100073,,,,,,,2024-11-20,1,,,,,フクオカチハヤフォレスト,0
537,2290003016079,新規,0,2024-11-20,2024-11-20,合同会社ＳｔｕｄｉｏＢｌｏｏｍ,,合同会社,福岡県,古賀市,舞の里４丁目２４番１７号,,40,223,8113114,,,,,,,2024-11-20,1,,,,,スタジオブルーム,0
538,2290003016095,新規,0,2024-11-20,2024-11-20,合同会社初花,,合同会社,福岡県,福岡市城南区,田島５丁目１７番３８－５号,,40,136,8140113,,,,,,,2024-11-20,1,,,,,ハツハナ,0
544,2290805009783,新規,0,2024-11-20,2024-11-20,ＮＰＯ法人ＯＮＥ　ＴＥＡＭ　ＷＡＫＡＺＯＮＯ,,その他の設立登記法人,福岡県,北九州市小倉南区,若園２丁目１番２０号,,40,107,8020816,,,,,,,2024-11-20,1,,,,,ワンチームワカゾノ,0
547,2320001020814,新規,0,2024-11-20,2024-11-20,株式会社ＭＩＮＯＲＵ,,株式会社,大分県,宇佐市,大字四日市１５３３番地の１ロフティ宇佐１　１００７号,,44,211,8790471,,,,,,,2024-11-20,1,,,,,ミノル,0
549,2330001032668,新規,0,2024-11-20,2024-11-20,株式会社もとこども,,株式会社,熊本県,天草市,浜崎町１８－１７ヴィラローザ２０７,,43,215,8630018,,,,,,,2024-11-20,1,,,,,モトコドモ,0
552,2340001026941,新規,0,2024-11-20,2024-11-20,株式会社グラニット,,株式会社,鹿児島県,大島郡瀬戸内町,大字阿木名１６５番地,,46,525,8941511,,,,,,,2024-11-20,1,,,,,グラニット,0
562,2380001034932,新規,0,2024-11-20,2024-11-20,株式会社スリー,,株式会社,福島県,福島市,岡部字内川原６７番地の８,,07,201,9608204,,,,,,,2024-11-20,1,,,,,スリー,0
565,2400001016861,新規,0,2024-11-20,2024-11-20,株式会社ケイアイトラベル,,株式会社,岩手県,盛岡市,三ツ割３丁目１７番３０号,,03,201,0200011,,,,,,,2024-11-20,1,,,,,ケイアイトラベル,0
572,2430003017005,新規,0,2024-11-20,2024-11-20,合同会社ＧＲＩＴ,,合同会社,北海道,札幌市豊平区,平岸五条１０丁目７番３－１００２号,,01,105,0620935,,,,,,,2024-11-20,1,,,,,グリット,0
573,2440003001643,新規,0,2024-11-20,2024-11-20,合同会社トライブ,,合同会社,北海道,函館市,美原１丁目１７番１６－１０４号ラ・ベル,,01,202,0410806,,,,,,,2024-11-20,1,,,,,トライブ,0
582,2700150127909,新規,0,2024-11-20,2024-11-20,上海山崎電路板有限公司,,外国会社等,岡山県,岡山市北区,本町６－３６　第一セントラルビル４階,,33,101,7000901,中華人民共和国上海市青浦区華新鎮華蔡路３８８号,,,,,,2024-11-20,1,,,,,シヤンハイヤマザキデンロバンユウゲンコウシ,0
621,3010003045518,新規,0,2024-11-20,2024-11-20,ｒｅｎｇａプロ第３号合同会社,,合同会社,東京都,千代田区,丸の内１丁目４番１号東京共同会計事務所内,,13,101,1000005,,,,,,,2024-11-20,1,,,,,レンガプロダイサンゴウ,0
632,3010401186475,新規,0,2024-11-20,2024-11-20,Ｃｏｎｆｌｕｘ　Ｔｅｃｈｎｏｌｏｇｙ　Ｊａｐａｎ株式会社,,株式会社,東京都,港区,元麻布３丁目１番６号,,13,103,1060046,,,,,,,2024-11-20,1,,,,,コンフラックステクノロジージャパン,0
633,3010401186517,新規,0,2024-11-20,2024-11-20,株式会社グローバルＶＣ,,株式会社,東京都,港区,虎ノ門５丁目１３番１号虎ノ門４０ＭＴビル７Ｆ,,13,103,1050001,,,,,,,2024-11-20,1,,,,,グローバルブイシー,0
634,3010401186533,新規,0,2024-11-20,2024-11-20,Ｃａｐｅ　Ｊａｐａｎ株式会社,,株式会社,東京都,港区,新橋５丁目１２番１１号,,13,103,1050004,,,,,,,2024-11-20,1,,,,,ケープジャパン,0
642,3010403033733,新規,0,2024-11-20,2024-11-20,合同会社ＴＳＭ１６７,,合同会社,東京都,港区,元赤坂１丁目１番７号,,13,103,1070051,,,,,,,2024-11-20,1,,,,,ティーエスエムヒャクロクジュウナナ,0
643,3010403033816,新規,0,2024-11-20,2024-11-20,ソーラーキジ合同会社,,合同会社,東京都,港区,南青山２丁目１３番２号サンライズ青山２Ｆ青山国際税理士法人内,,13,103,1070062,,,,,,,2024-11-20,1,,,,,ソーラーキジ,0
644,3010403033824,新規,0,2024-11-20,2024-11-20,合同会社インパクト,,合同会社,東京都,港区,南青山５丁目４番１１－４１１号,,13,103,1070062,,,,,,,2024-11-20,1,,,,,インパクト,0
650,3010801035570,新規,0,2024-11-20,2024-11-20,株式会社ｖｉｂａＬｏ,,株式会社,東京都,大田区,東雪谷４丁目２３番１７号,,13,111,1450065,,,,,,,2024-11-20,1,,,,,ビバロ,0
651,3010801035587,新規,0,2024-11-20,2024-11-20,株式会社巴,,株式会社,東京都,大田区,久が原３丁目３９－３オーバルＫ－１１０,,13,111,1460085,,,,,,,2024-11-20,1,,,,,トモエ,0
655,3010901056351,新規,0,2024-11-20,2024-11-20,株式会社ＮＡＧＥ,,株式会社,東京都,世田谷区,深沢７丁目７番１２－１０９号,,13,112,1580081,,,,,,,2024-11-20,1,,,,,ネイジ,0
659,3011001165786,新規,0,2024-11-20,2024-11-20,株式会社Ｌｅｍｏｎ,,株式会社,東京都,渋谷区,神南１丁目１１－４ＦＰＧリンクス神南５階,,13,113,1500041,,,,,,,2024-11-20,1,,,,,レモン,0
660,3011001165811,新規,0,2024-11-20,2024-11-20,株式会社ｐｏｍｐｏｎｅ,,株式会社,東京都,渋谷区,渋谷２丁目１９－１５宮益坂ビルディング６０９,,13,113,1500002,,,,,,,2024-11-20,1,,,,,ポンポネ,0
665,3011101109651,新規,0,2024-11-20,2024-11-20,株式会社三方,,株式会社,東京都,新宿区,歌舞伎町２丁目４２番１３号アゼリア東広ビル７１１号室,,13,104,1600021,,,,,,,2024-11-20,1,,,,,サンポウ,0
667,3011103015187,新規,0,2024-11-20,2024-11-20,合同会社ａｃｃｓｖ,,合同会社,東京都,新宿区,西新宿３丁目３－１３西新宿水間ビル６階,,13,104,1600023,,,,,,,2024-11-20,1,,,,,エーシーシーエスブイ,0
670,3011203004536,新規,0,2024-11-20,2024-11-20,合同会社ワイズヘルスケア,,合同会社,東京都,中野区,本町４丁目３６番５－６０２号,,13,114,1640012,,,,,,,2024-11-20,1,,,,,ワイズヘルスケア,0
677,3011601028203,新規,0,2024-11-20,2024-11-20,書誠株式会社,,株式会社,東京都,練馬区,春日町３丁目１０番２号－１０３,,13,120,1790074,,,,,,,2024-11-20,1,,,,,ショセイ,0
680,3011701027815,新規,0,2024-11-20,2024-11-20,株式会社Ｎ‐ＬＩＮＥ,,株式会社,東京都,江戸川区,篠崎町４丁目１２番２５号,,13,123,1330061,,,,,,,2024-11-20,1,,,,,エヌライン,0
681,3011701027831,新規,0,2024-11-20,2024-11-20,Ｂｌｏｏｍ株式会社,,株式会社,東京都,江戸川区,松島１丁目４１－２２,,13,123,1320031,,,,,,,2024-11-20,1,,,,,ブルーム,0
684,3011703004036,新規,0,2024-11-20,2024-11-20,ジヌマン合同会社,,合同会社,東京都,江戸川区,船堀２丁目３番１６号,,13,123,1340091,,,,,,,2024-11-20,1,,,,,ジヌマン,0
687,3012303002074,新規,0,2024-11-20,2024-11-20,らーめんやっとこ合同会社,,合同会社,東京都,町田市,木曽西４丁目３６番４号,,13,209,1940037,,,,,,,2024-11-20,1,,,,,ラーメンヤットコ,0
688,3012401042476,新規,0,2024-11-20,2024-11-20,新東株式会社,,株式会社,東京都,府中市,日鋼町１番地の３日鋼団地１７－５０６,,13,206,1830044,,,,,,,2024-11-20,1,,,,,シントウ,0
689,3012401042501,新規,0,2024-11-20,2024-11-20,株式会社オフィス大沢,,株式会社,東京都,小金井市,本町１丁目１３番５号,,13,210,1840004,,,,,,,2024-11-20,1,,,,,オフィスオオサワ,0
692,3012701018572,新規,0,2024-11-20,2024-11-20,株式会社ドライス,,株式会社,東京都,小平市,鈴木町２丁目２０４番地,,13,211,1870011,,,,,,,2024-11-20,1,,,,,ドライス,0
697,3013301053398,新規,0,2024-11-20,2024-11-20,株式会社アップセント,,株式会社,東京都,豊島区,東池袋２丁目５５－３横谷ビル１０１号室,,13,116,1700013,,,,,,,2024-11-20,1,,,,,アップセント,0
705,3020001160193,新規,0,2024-11-20,2024-11-20,株式会社ＭｉｙｏｓｈＩ,,株式会社,神奈川県,横浜市神奈川区,西寺尾１丁目２７番２号,,14,102,2210001,,,,,,,2024-11-20,1,,,,,ミヨシ,0
706,3020001160210,新規,0,2024-11-20,2024-11-20,株式会社フローラ,,株式会社,神奈川県,横浜市港南区,東永谷１丁目１４番５号,,14,111,2330011,,,,,,,2024-11-20,1,,,,,フローラ,0
711,3020003027275,新規,0,2024-11-20,2024-11-20,Ｔｈｅ　Ｔｅｃｈｎｉｃａｌ　Ｉｎｉｔｉａｔｉｖｅ合同会社,,合同会社,神奈川県,横浜市中区,尾上町４丁目５７番地横浜尾上町ビルディング８階８６３号室,,14,104,2310015,,,,,,,2024-11-20,1,,,,,,0
716,3021001083814,新規,0,2024-11-20,2024-11-20,ＩＥ　Ｌｅａｐ株式会社,,株式会社,神奈川県,大和市,草柳１丁目１９番地９田園リビングマート４号室,,14,213,2420026,,,,,,,2024-11-20,1,,,,,アイイーリープ,0
727,3030003025518,新規,0,2024-11-20,2024-11-20,合同会社エムケーコーポレーション,,合同会社,埼玉県,入間市,東町４丁目３番５号,,11,225,3580002,,,,,,,2024-11-20,1,,,,,エムケーコーポレーション,0
736,3040001136191,新規,0,2024-11-20,2024-11-20,トランスフォース株式会社,,株式会社,千葉県,千葉市美浜区,高洲１丁目６‐２,,12,106,2610004,,,,,,,2024-11-20,1,,,,,トランスフォース,0
737,3040001136217,新規,0,2024-11-20,2024-11-20,株式会社ＡＧＥＨＡ　ＪＡＰＡＮ,,株式会社,千葉県,市原市,権現堂４０４番地７,,12,219,2900209,,,,,,,2024-11-20,1,,,,,アゲハジャパン,0
738,3040001136225,新規,0,2024-11-20,2024-11-20,ＨＡＭＭＥＲ株式会社,,株式会社,千葉県,松戸市,古ケ崎１７１番地の４,,12,207,2710068,,,,,,,2024-11-20,1,,,,,ハンマー,0
739,3040001136241,新規,0,2024-11-20,2024-11-20,株式会社ＭＡＲＵＩ観光,,株式会社,千葉県,市川市,国分６丁目１８番１１号,,12,203,2720834,,,,,,,2024-11-20,1,,,,,,0
754,3060003005335,新規,0,2024-11-20,2024-11-20,合同会社村上さくら農園,,合同会社,栃木県,さくら市,松島３４４番地１,,09,214,3291331,,,,,,,2024-11-20,1,,,,,ムラカミサクラノウエン,0
755,3070003005664,新規,0,2024-11-20,2024-11-20,合同会社上州エコデンセンター,,合同会社,群馬県,安中市,原市６０５番地寺田ビル３０２,,10,211,3790133,,,,,,,2024-11-20,1,,,,,ジョウシュウエコデンセンター,0
762,3100003007855,新規,0,2024-11-20,2024-11-20,合同会社ヨゴダ,,合同会社,長野県,伊那市,長谷黒河内２８５番地４,,20,209,3960403,,,,,,,2024-11-20,1,,,,,ヨゴダ,0
770,3120001270429,新規,0,2024-11-20,2024-11-20,株式会社ａｎｄ．ｈｅｒｅ,,株式会社,大阪府,大阪市中央区,平野町４丁目６番１１号ＣｏＬａＢｏ本町３階,,27,128,5410046,,,,,,,2024-11-20,1,,,,,アンドヒア,0
776,3120905006655,新規,0,2024-11-20,2024-11-20,一般社団法人ムジカ工房,,その他の設立登記法人,大阪府,高槻市,松が丘２丁目７番２２号,,27,207,5691031,,,,,,,2024-11-20,1,,,,,ムジカコウボウ,0
779,3122001038624,新規,0,2024-11-20,2024-11-20,株式会社三安,,株式会社,大阪府,東大阪市,南荘町３番１０号,,27,227,5798024,,,,,,,2024-11-20,1,,,,,ミツヤス,0
780,3122001038657,新規,0,2024-11-20,2024-11-20,金鱗株式会社,,株式会社,大阪府,東大阪市,源氏ケ丘１番１３号プレアール源氏ケ丘３０４号,,27,227,5770822,,,,,,,2024-11-20,1,,,,,キンリン,0
784,3130001078375,新規,0,2024-11-20,2024-11-20,株式会社Ｓ‐ＣＡＲＥ,,株式会社,京都府,京都市上京区,東堀川通リ一条上ル竪富田町４３６番地の２,,26,102,6020000,,,,,,,2024-11-20,1,,,,,エスケア,0
789,3140001136479,新規,0,2024-11-20,2024-11-20,株式会社ひととき,,株式会社,兵庫県,淡路市,志筑１７７４番地６,,28,226,6562131,,,,,,,2024-11-20,1,,,,,ヒトトキ,0
793,3150001027693,新規,0,2024-11-20,2024-11-20,株式会社ＷＩＴＨ,,株式会社,奈良県,生駒市,高山町６４８４,,29,209,6300101,,,,,,,2024-11-20,1,,,,,ウィズ,0
800,3180001164195,新規,0,2024-11-20,2024-11-20,株式会社ＴＲＯＢＺ,,株式会社,愛知県,北名古屋市,鹿田坂巻３５番地ＹＭＤ徳重３０３号室,,23,234,4810004,,,,,,,2024-11-20,1,,,,,トロブズ,0
801,3180001164229,新規,0,2024-11-20,2024-11-20,株式会社さくらふぁーむ,,株式会社,愛知県,名古屋市北区,西味鋺２丁目５１２番地の１,,23,103,4620016,,,,,,,2024-11-20,1,,,,,サクラファーム,0
802,3180001164245,新規,0,2024-11-20,2024-11-20,Ｋアセット２株式会社,,株式会社,愛知県,名古屋市中区,錦１丁目２番２５号,,23,106,4600003,,,,,,,2024-11-20,1,,,,,ケイアセットツー,0
803,3180001164253,新規,0,2024-11-20,2024-11-20,株式会社ＳＨＩＮＹ,,株式会社,愛知県,東海市,加木屋町高見１２４番地,,23,222,4770032,,,,,,,2024-11-20,1,,,,,シャイニー,0
808,3180005020832,新規,0,2024-11-20,2024-11-20,一般社団法人泰照医療会,,その他の設立登記法人,愛知県,稲沢市,祖父江町二俣下瀬古９４７番地,,23,220,4950013,,,,,,,2024-11-20,1,,,,,タイショウイリョウカイ,0
823,3240001064125,新規,0,2024-11-20,2024-11-20,株式会社ツナデ,,株式会社,広島県,広島市安佐南区,毘沙門台東１丁目２８番６号,,34,105,7310151,,,,,,,2024-11-20,1,,,,,ツナデ,0
824,3240001064133,新規,0,2024-11-20,2024-11-20,Ｐｕｐｐｙホールディングス株式会社,,株式会社,広島県,広島市東区,戸坂くるめ木２丁目１９番１０号,,34,102,7320008,,,,,,,2024-11-20,1,,,,,パピィホールディングス,0
830,3280003001898,新規,0,2024-11-20,2024-11-20,合同会社二升五合,,合同会社,島根県,大田市,温泉津町小浜ロ１０１,,32,205,6992511,,,,,,,2024-11-20,1,,,,,フタマスゴゴウ,0
835,3290001108034,新規,0,2024-11-20,2024-11-20,サニーゲート株式会社,,株式会社,福岡県,春日市,岡本１丁目５番,,40,218,8160861,,,,,,,2024-11-20,1,,,,,サニーゲート,0
837,3290003016078,新規,0,2024-11-20,2024-11-20,ｊｏｉｅａｎｇｅ合同会社,,合同会社,福岡県,福岡市博多区,井相田３丁目５番３１－８０３号,,40,132,8120881,,,,,,,2024-11-20,1,,,,,ジョワアンジュ,0
850,3340001026940,新規,0,2024-11-20,2024-11-20,株式会社Ｒ‐ｔｅｃ　Ｊａｐａｎ,,株式会社,鹿児島県,鹿児島市,城山町２２－１３－３Ｆ,,46,201,8920853,,,,,,,2024-11-20,1,,,,,アールテックジャパン,0
854,3340003004663,新規,0,2024-11-20,2024-11-20,合同会社はくし,,合同会社,鹿児島県,鹿児島市,鴨池新町３番６－１２０２号,,46,201,8900064,,,,,,,2024-11-20,1,,,,,ハクシ,0
860,3370001051952,新規,0,2024-11-20,2024-11-20,株式会社Ｃａｚａｄｅｍｉｅｌ,,株式会社,宮城県,仙台市泉区,加茂５丁目１９番地の６,,04,105,9813122,,,,,,,2024-11-20,1,,,,,カザデミール,0
863,3380001034931,新規,0,2024-11-20,2024-11-20,株式会社金太郎製麺所,,株式会社,福島県,福島市,南矢野目字道上３０番地の１,,07,201,9600112,,,,,,,2024-11-20,1,,,,,キンタロウセイメンジョ,0
877,3430001093105,新規,0,2024-11-20,2024-11-20,株式会社ビリーフ,,株式会社,北海道,札幌市西区,宮の沢二条２丁目２－１１,,01,107,0630052,,,,,,,2024-11-20,1,,,,,ビリーフ,0
878,3430001093113,新規,0,2024-11-20,2024-11-20,株式会社Ｙコーポレーション,,株式会社,北海道,札幌市白石区,北郷六条４丁目１番２７号,,01,104,0030836,,,,,,,2024-11-20,1,,,,,ワイコーポレーション,0
880,3460001005949,新規,0,2024-11-20,2024-11-20,株式会社隆肥堂,,株式会社,北海道,釧路市,堀川町６番３１号,,01,206,0850007,,,,,,,2024-11-20,1,,,,,リュウヒドウ,0
896,4010001250143,新規,0,2024-11-20,2024-11-20,Ｍ‐Ｃｒｏｓｓ　Ｅｎｇｉｎｅｅｒｉｎｇ株式会社,,株式会社,東京都,千代田区,丸の内１丁目６番５号,,13,101,1000005,,,,,,,2024-11-20,1,,,,,エムクロスエンジニアリング,0
920,4010003045509,新規,0,2024-11-20,2024-11-20,自然エネルギーＳＩＰＰ１６合同会社,,合同会社,東京都,中央区,日本橋本町２丁目４番７号,,13,102,1030023,,,,,,,2024-11-20,1,,,,,シゼンエネルギーエスアイピーピージュウロク,0
923,4010005039129,新規,0,2024-11-20,2024-11-20,一般社団法人ＳＴＡＹ７,,その他の設立登記法人,東京都,中央区,京橋２丁目１２番６号ＡＯＪ税理士法人内,,13,102,1040031,,,,,,,2024-11-20,1,,,,,ステイセブン,0
930,4010401186350,新規,0,2024-11-20,2024-11-20,株式会社Ｂｒｉｄｇｅ　Ｒｉｎｇ　Ｊａｐａｎ,,株式会社,東京都,港区,浜松町２丁目２番１５号,,13,103,1050013,,,,,,,2024-11-20,1,,,,,ブリッジリングジャパン,0
931,4010401186474,新規,0,2024-11-20,2024-11-20,竹紅株式会社,,株式会社,東京都,港区,赤坂２丁目８番１４－４０７号,,13,103,1070052,,,,,,,2024-11-20,1,,,,,チクベニ,0
932,4010401186499,新規,0,2024-11-20,2024-11-20,株式会社ＳＵＮ　ＢＬＵＥ　ＢＩＡＮＣＡ,,株式会社,東京都,港区,南青山３丁目１番３６号青山丸竹ビル６Ｆ,,13,103,1070062,,,,,,,2024-11-20,1,,,,,サンブルービアンカ,0
933,4010401186532,新規,0,2024-11-20,2024-11-20,ＩＳＡＣ不動産投資株式会社,,株式会社,東京都,港区,元赤坂１丁目２番７号赤坂Ｋタワー４Ｆ,,13,103,1070051,,,,,,,2024-11-20,1,,,,,イサクフドウサントウシ,0
934,4010401186540,新規,0,2024-11-20,2024-11-20,株式会社ＸＭｕｓｉｃ,,株式会社,東京都,港区,西麻布２丁目１９番５－２０４号,,13,103,1060031,,,,,,,2024-11-20,1,,,,,エックスミュージック,0
935,4010401186557,新規,0,2024-11-20,2024-11-20,株式会社ダイヤモンドビジネスアカデミー,,株式会社,東京都,港区,北青山１丁目３番１号アールキューブ青山３階,,13,103,1070061,,,,,,,2024-11-20,1,,,,,ダイヤモンドビジネスアカデミー,0
945,4010403033815,新規,0,2024-11-20,2024-11-20,ソーラーホオジロ合同会社,,合同会社,東京都,港区,南青山２丁目１３番２号サンライズ青山２Ｆ青山国際税理士法人内,,13,103,1070062,,,,,,,2024-11-20,1,,,,,ソーラーホオジロ,0
946,4010403033856,新規,0,2024-11-20,2024-11-20,合同会社マインドアップ,,合同会社,東京都,港区,三田５丁目１１番１０－４０２号,,13,103,1080073,,,,,,,2024-11-20,1,,,,,マインドアップ,0
950,4010701046824,新規,0,2024-11-20,2024-11-20,株式会社ＭＫ　ＧＲＯＵＰ,,株式会社,東京都,品川区,東五反田１丁目１９番４号,,13,109,1410022,,,,,,,2024-11-20,1,,,,,エムケーグループ,0
952,4010705003697,新規,0,2024-11-20,2024-11-20,一般社団法人Ｂｅ,,その他の設立登記法人,東京都,品川区,東五反田５丁目１４番１９号,,13,109,1410022,,,,,,,2024-11-20,1,,,,,ビー,0
953,4010801035586,新規,0,2024-11-20,2024-11-20,株式会社ＹＵＭＩＮ,,株式会社,東京都,大田区,中央８丁目７番５号,,13,111,1430024,,,,,,,2024-11-20,1,,,,,ユーミン,0
954,4010801035594,新規,0,2024-11-20,2024-11-20,株式会社ｍｏｎｏｎ,,株式会社,東京都,大田区,西糀谷３丁目１２－６プラハフィラーレ西糀谷１０２,,13,111,1440034,,,,,,,2024-11-20,1,,,,,モノン,0
955,4010901056350,新規,0,2024-11-20,2024-11-20,株式会社ＴＯＳＨＩＫＵＮＩ　Ｏｆｆｉｃｅ,,株式会社,東京都,世田谷区,経堂１丁目１２番６号サザンヒルズ経堂３Ｆ,,13,112,1560052,,,,,,,2024-11-20,1,,,,,トシクニオフィス,0
956,4010901056367,新規,0,2024-11-20,2024-11-20,ＲＥＳＯＷ株式会社,,株式会社,東京都,世田谷区,北沢４丁目１９番７号ハイツ創１０３号室,,13,112,1550031,,,,,,,2024-11-20,1,,,,,リソウ,0
967,4011001165892,新規,0,2024-11-20,2024-11-20,株式会社ｃｏｎｄｕｃｔｏｒｓ,,株式会社,東京都,渋谷区,神宮前６丁目３５番３号コープオリンピア７１６号,,13,113,1500001,,,,,,,2024-11-20,1,,,,,コンダクターズ,0
975,4011101109667,新規,0,2024-11-20,2024-11-20,株式会社Ｂｅｅｌｏｎｇ,,株式会社,東京都,新宿区,西新宿６丁目５番１号新宿アイランドタワー２階,,13,104,1600023,,,,,,,2024-11-20,1,,,,,ビーロング,0
976,4011103015203,新規,0,2024-11-20,2024-11-20,Ａｔ　Ｆｉｒｓｔコンサルティング合同会社,,合同会社,東京都,新宿区,西新宿３丁目３番１３号西新宿水間ビル６階,,13,104,1600023,,,,,,,2024-11-20,1,,,,,アットファーストコンサルティング,0
977,4011105011233,新規,0,2024-11-20,2024-11-20,一般社団法人細胞治療研究会,,その他の設立登記法人,東京都,新宿区,左門町２番地６ワコービル５階,,13,104,1600017,,,,,,,2024-11-20,1,,,,,サイボウチリョウケンキュウカイ,0
985,4011703004035,新規,0,2024-11-20,2024-11-20,合同会社ＤＳ,,合同会社,東京都,江戸川区,南小岩３丁目１番１４号プランドールＭ１２７室,,13,123,1330056,,,,,,,2024-11-20,1,,,,,ディエス,0
994,4013301053397,新規,0,2024-11-20,2024-11-20,株式会社Ｙａｈｏｗ,,株式会社,東京都,豊島区,東池袋１丁目３４番５号いちご東池袋ビル６階,,13,116,1700013,,,,,,,2024-11-20,1,,,,,ヤホー,0
1002,4020001160135,新規,0,2024-11-20,2024-11-20,株式会社ＭｉＲＩＳＥ,,株式会社,神奈川県,横浜市瀬谷区,中屋敷２丁目２６番地９,,14,114,2460004,,,,,,,2024-11-20,1,,,,,ミライズ,0
1003,4020001160192,新規,0,2024-11-20,2024-11-20,協立ホールディングス株式会社,,株式会社,神奈川県,川崎市川崎区,砂子１丁目７番地１,,14,131,2100006,,,,,,,2024-11-20,1,,,,,キョウリツホールディングス,0
1004,4020001160234,新規,0,2024-11-20,2024-11-20,萌可株式会社,,株式会社,神奈川県,横浜市神奈川区,神大寺４丁目１４番２１号３ユナイト片倉アデリーナ１０５室,,14,102,2210801,,,,,,,2024-11-20,1,,,,,モエカ,0
1016,4020003027258,新規,0,2024-11-20,2024-11-20,合同会社Ｓ＆Ｌ,,合同会社,神奈川県,川崎市麻生区,下麻生３丁目４０－１０,,14,137,2150022,,,,,,,2024-11-20,1,,,,,エスアンドエル,0
1017,4020003027274,新規,0,2024-11-20,2024-11-20,天神ミライ合同会社,,合同会社,神奈川県,横浜市都筑区,荏田東１丁目１２番１３号,,14,118,2240006,,,,,,,2024-11-20,1,,,,,テンジンミライ,0
1021,4021001083813,新規,0,2024-11-20,2024-11-20,株式会社くくり８９３,,株式会社,神奈川県,鎌倉市,今泉３丁目１７番地,,14,204,2470052,,,,,,,2024-11-20,1,,,,,ククリハクサン,0
1042,4040001136117,新規,0,2024-11-20,2024-11-20,株式会社ＣＯＯＬＥＸ　ＬＩＮＫＳ,,株式会社,千葉県,市川市,南行徳１丁目１番１２－３０６号,,12,203,2720138,,,,,,,2024-11-20,1,,,,,コーレックスリンクス,0
1043,4040001136208,新規,0,2024-11-20,2024-11-20,株式会社ｕｎｉｔｙ,,株式会社,千葉県,柏市,若柴１７８番地４柏の葉キャンパス１４８街区１パークシティ柏の葉キャンパス・ザ・ゲートタワーウェスト３階Ｖ１２９,,12,217,2770871,,,,,,,2024-11-20,1,,,,,ユニティー,0
1044,4040001136232,新規,0,2024-11-20,2024-11-20,株式会社ＮＡＴＨＡＲＩ　ＩＮＴＥＲＮＡＴＩＯＮＡＬ,,株式会社,千葉県,白井市,中７４番地の５,,12,232,2701406,,,,,,,2024-11-20,1,,,,,ナタリインターナショナル,0
1050,4040003026150,新規,0,2024-11-20,2024-11-20,合同会社ＡＶＥＮＩＲ,,合同会社,千葉県,八街市,八街ほ５５５－４３エイド２１－２０１号室,,12,230,2891115,,,,,,,2024-11-20,1,,,,,アベニア,0
1051,4040005022569,新規,0,2024-11-20,2024-11-20,一般社団法人誠敬漢学研究院,,その他の設立登記法人,千葉県,茂原市,小林２５８０－１Ａ,,12,210,2970074,,,,,,,2024-11-20,1,,,,,セイケイカンガクケンキュウイン,0
1065,4070003005663,新規,0,2024-11-20,2024-11-20,合同会社小寺総研,,合同会社,群馬県,館林市,花山町２８番地の１２ヴィラ・モントレー－２０６,,10,207,3740005,,,,,,,2024-11-20,1,,,,,オデラソウケン,0
1066,4080001026611,新規,0,2024-11-20,2024-11-20,駿河ＧＸテクノロジー株式会社,,株式会社,静岡県,静岡市葵区,両替町２丁目４番１５号,,22,101,4200032,,,,,,,2024-11-20,1,,,,,スルガジーエックステクノロジー,0
1071,4080401027580,新規,0,2024-11-20,2024-11-20,ウィンテル株式会社,,株式会社,静岡県,菊川市,加茂５０６８,,22,224,4390031,,,,,,,2024-11-20,1,,,,,ウィンテル,0
1075,4090001019011,新規,0,2024-11-20,2024-11-20,株式会社ＭｅｄｉＬａｂｓ,,株式会社,山梨県,甲府市,丸の内２丁目１６番５号,,19,201,4000031,,,,,,,2024-11-20,1,,,,,メディラボ,0
1096,4120001270287,新規,0,2024-11-20,2024-11-20,宇輝商貿株式会社,,株式会社,大阪府,大阪市生野区,新今里３丁目４番１７号ＯＧビル３０６Ｂ,,27,116,5440001,,,,,,,2024-11-20,1,,,,,ウキショウボウ,0
1097,4120001270394,新規,0,2024-11-20,2024-11-20,ワンヒストリー株式会社,,株式会社,大阪府,大阪市住之江区,西住之江３丁目１３番２０－１０５号,,27,125,5590005,,,,,,,2024-11-20,1,,,,,ワンヒストリー,0
1098,4120001270411,新規,0,2024-11-20,2024-11-20,泳呈コンサルティング株式会社,,株式会社,大阪府,大阪市生野区,田島４丁目１５－７－１０１,,27,116,5440011,,,,,,,2024-11-20,1,,,,,エイテイコンサルティング,0
1099,4120001270444,新規,0,2024-11-20,2024-11-20,ＪＡＶ株式会社,,株式会社,大阪府,大阪市平野区,加美南４丁目４番２２号,,27,126,5470003,,,,,,,2024-11-20,1,,,,,ジェイエイブイ,0
1100,4120001270452,新規,0,2024-11-20,2024-11-20,味楽株式会社,,株式会社,大阪府,大阪市中央区,島之内１丁目２２番２２－６０１号,,27,128,5420082,,,,,,,2024-11-20,1,,,,,ミラク,0
1103,4120003027999,新規,0,2024-11-20,2024-11-20,Ｋ７合同会社,,合同会社,大阪府,大阪市中央区,北浜２丁目１番１７号,,27,128,5410041,,,,,,,2024-11-20,1,,,,,ケイナナ,0
1111,4122001038664,新規,0,2024-11-20,2024-11-20,株式会社ＭＫフーズ,,株式会社,大阪府,柏原市,法善寺４丁目１番１１号,,27,221,5820005,,,,,,,2024-11-20,1,,,,,エムケイフーズ,0
1127,4170001018392,新規,0,2024-11-20,2024-11-20,株式会社ユニフォームセンターワカヤマ,,株式会社,和歌山県,和歌山市,満屋１７８番地１０,,30,201,6496271,,,,,,,2024-11-20,1,,,,,ユニフォームセンターワカヤマ,0
1133,4180001164005,新規,0,2024-11-20,2024-11-20,株式会社ソル,,株式会社,愛知県,名古屋市東区,泉１丁目１７番１０号（第一オレンジ久屋８Ｃ号）,,23,102,4610001,,,,,,,2024-11-20,1,,,,,ソル,0
1134,4180001164178,新規,0,2024-11-20,2024-11-20,株式会社雅,,株式会社,愛知県,名古屋市東区,徳川２丁目１４番１７号,,23,102,4610025,,,,,,,2024-11-20,1,,,,,ミヤビ,0
1135,4180001164203,新規,0,2024-11-20,2024-11-20,ビリオンＪａｐａｎ株式会社,,株式会社,愛知県,名古屋市中川区,かの里１丁目３４０１番地（１０３号）,,23,110,4540957,,,,,,,2024-11-20,1,,,,,ビリオンジャパン,0
1136,4180001164211,新規,0,2024-11-20,2024-11-20,株式会社ＴＡＩＲＡ,,株式会社,愛知県,名古屋市港区,小碓１丁目２５８番地,,23,111,4550801,,,,,,,2024-11-20,1,,,,,タイラ,0
1137,4180001164236,新規,0,2024-11-20,2024-11-20,株式会社ジョブサガス,,株式会社,愛知県,名古屋市中区,錦１丁目１７－１３名興ビルディング２Ｆ,,23,106,4600003,,,,,,,2024-11-20,1,,,,,ジョブサガス,0
1138,4180001164244,新規,0,2024-11-20,2024-11-20,Ｔアセット２株式会社,,株式会社,愛知県,一宮市,長島町５丁目１番地,,23,203,4910071,,,,,,,2024-11-20,1,,,,,ティアセットツー,0
1141,4180003027630,新規,0,2024-11-20,2024-11-20,Ｔｒｙ　Ｆｕｔｕｒｅ　Ｋ＆Ｋ合同会社,,合同会社,愛知県,一宮市,今伊勢町馬寄字桑屋敷４４番地７,,23,203,4910051,,,,,,,2024-11-20,1,,,,,トライフューチャーケーアンドケー,0
1142,4180003027639,新規,0,2024-11-20,2024-11-20,合同会社Ｙ’ｓ・ｐｒｏｊｅｃｔ,,合同会社,愛知県,名古屋市中村区,大宮町２丁目３６－２エムズ大宮町２Ｆ,,23,105,4530821,,,,,,,2024-11-20,1,,,,,ワイズプロジェクト,0
1143,4180003027647,新規,0,2024-11-20,2024-11-20,ＲＡＳＨＩ合同会社,,合同会社,愛知県,名古屋市緑区,潮見が丘２丁目２８８番地ユニーブル第２潮見が丘マンション１０２,,23,114,4580037,,,,,,,2024-11-20,1,,,,,ラシー,0
1154,4230005009423,新規,0,2024-11-20,2024-11-20,一般社団法人舟橋村シルバー人材センター,,その他の設立登記法人,富山県,中新川郡舟橋村,海老江１４７番地,,16,321,9300283,,,,,,,2024-11-20,1,,,,,フナハシムラシルバージンザイセンター,0
1171,4290001108017,新規,0,2024-11-20,2024-11-20,株式会社Ｖｉｒａｌ,,株式会社,福岡県,福岡市南区,井尻５丁目２５番６号,,40,134,8111302,,,,,,,2024-11-20,1,,,,,バイラル,0
1176,4290003016093,新規,0,2024-11-20,2024-11-20,合同会社タイニーシーカー,,合同会社,福岡県,福岡市早良区,飯倉３丁目４３番地２６号,,40,137,8140161,,,,,,,2024-11-20,1,,,,,タイニーシーカー,0
1189,4330001032666,新規,0,2024-11-20,2024-11-20,株式会社祥太,,株式会社,熊本県,菊池郡大津町,大字大津２１０番地７０４,,43,403,8691233,,,,,,,2024-11-20,1,,,,,ショウタ,0
1195,4370001051951,新規,0,2024-11-20,2024-11-20,株式会社みんなの右腕,,株式会社,宮城県,仙台市青葉区,花京院２丁目１番６１号オークツリー仙台２Ｆ,,04,101,9800013,,,,,,,2024-11-20,1,,,,,ミンナノミギウデ,0
1198,4380003005896,新規,0,2024-11-20,2024-11-20,合同会社マルト,,合同会社,福島県,西白河郡矢吹町,松倉３４７番地,,07,466,9690268,,,,,,,2024-11-20,1,,,,,マルト,0
1206,4430001093087,新規,0,2024-11-20,2024-11-20,メトロテレコム株式会社,,株式会社,北海道,登別市,富岸町３丁目１８番地５４,,01,230,0590028,,,,,,,2024-11-20,1,,,,,メトロテレコム,0
1207,4430001093120,新規,0,2024-11-20,2024-11-20,株式会社ばるなケミカル,,株式会社,北海道,札幌市白石区,川北三条２丁目７番１号,,01,104,0030853,,,,,,,2024-11-20,1,,,,,バルナケミカル,0
1218,4700150127915,新規,0,2024-11-20,2024-11-20,ＳＷ　ＭＡＲＫＥＴＩＮＧ　ＰＴＥ．ＬＴＤ．,,外国会社等,東京都,板橋区,中丸町１１番２号ワコーレ要町ビル７階,,13,119,1730026,シンガポール共和国ブーン・レイ・ウェイ１８番地トレードハブ２１＃０６－１０７,,,,,,2024-11-20,1,,,,,エスダブリユーマーケテイングピーテイーイーリミテツド,0
1224,5010001250035,新規,0,2024-11-20,2024-11-20,株式会社ＤＧＴ,,株式会社,東京都,中央区,新川１丁目２６番９号新川イワデビル４Ｆ,,13,102,1040033,,,,,,,2024-11-20,1,,,,,デジット,0
1225,5010001250092,新規,0,2024-11-20,2024-11-20,株式会社マインドクライン,,株式会社,東京都,中央区,新川１丁目５番１９号,,13,102,1040033,,,,,,,2024-11-20,1,,,,,マインドクライン,0
1255,5010003045508,新規,0,2024-11-20,2024-11-20,自然エネルギーＳＩＰＰ１５合同会社,,合同会社,東京都,中央区,日本橋本町２丁目４番７号,,13,102,1030023,,,,,,,2024-11-20,1,,,,,シゼンエネルギーエスアイピーピージュウゴ,0
1256,5010003045565,新規,0,2024-11-20,2024-11-20,ＢｌｕｅＳｋｙ合同会社,,合同会社,東京都,中央区,銀座１丁目１２番４号Ｎ＆ＥＢＬＤ．６Ｆ,,13,102,1040061,,,,,,,2024-11-20,1,,,,,ブルースカイ,0
1257,5010005039160,新規,0,2024-11-20,2024-11-20,トーキョー・ネスト一般社団法人,,その他の設立登記法人,東京都,千代田区,丸の内１丁目４番１号東京共同会計事務所内,,13,101,1000005,,,,,,,2024-11-20,1,,,,,トーキョーネスト,0
1264,5010401186572,新規,0,2024-11-20,2024-11-20,株式会社那由他保険テクノロジーズ設立準備,,株式会社,東京都,港区,南青山３丁目１番３６号青山丸竹ビル６Ｆ,,13,103,1070062,,,,,,,2024-11-20,1,,,,,ナユタホケンテクノロジーズセツリツジュンビ,0
1265,5010401186580,新規,0,2024-11-20,2024-11-20,株式会社Ｘｉｏｎｉｓ　Ｃａｐｉｔａｌ,,株式会社,東京都,港区,東麻布３丁目５－７ー７０２,,13,103,1060044,,,,,,,2024-11-20,1,,,,,シオニスキャピタル,0
1268,5010403033814,新規,0,2024-11-20,2024-11-20,合同会社ａｆｔｅｒｗａｒｄ,,合同会社,東京都,港区,南青山３丁目１番３６号青山丸竹ビル６Ｆ,,13,103,1070062,,,,,,,2024-11-20,1,,,,,アフターワード,0
1269,5010403033830,新規,0,2024-11-20,2024-11-20,合同会社Ａ２Ｚ,,合同会社,東京都,港区,南青山３丁目１番３６号,,13,103,1070062,,,,,,,2024-11-20,1,,,,,エーツーゼット,0
1270,5010403033855,新規,0,2024-11-20,2024-11-20,合同会社エクリプス,,合同会社,東京都,港区,赤坂４丁目８番７号ＭＦＰＲコート赤坂見附８０５号,,13,103,1070052,,,,,,,2024-11-20,1,,,,,エクリプス,0
1272,5010405023805,新規,0,2024-11-20,2024-11-20,ソーラーボタン一般社団法人,,その他の設立登記法人,東京都,港区,南青山２丁目１３番２号サンライズ青山２Ｆ青山国際税理士法人内,,13,103,1070062,,,,,,,2024-11-20,1,,,,,ソーラーボタン,0
1274,5010505003566,新規,0,2024-11-20,2024-11-20,一般社団法人中日整形美容交流協会,,その他の設立登記法人,東京都,台東区,清川１丁目２１－５ＷＡＬＬａｐａｒｔｍｅｎｔ５階大区画号室,,13,106,1110022,,,,,,,2024-11-20,1,,,,,チュウニチセイケイビヨウコウリュウキョウカイ,0
1279,5010901056358,新規,0,2024-11-20,2024-11-20,株式会社菓音,,株式会社,東京都,世田谷区,南烏山５丁目１７番８号,,13,112,1570062,,,,,,,2024-11-20,1,,,,,カノン,0
1281,5010903009512,新規,0,2024-11-20,2024-11-20,アケト合同会社,,合同会社,東京都,世田谷区,等々力８丁目２６番１０号,,13,112,1580082,,,,,,,2024-11-20,1,,,,,アケト,0
1287,5011001166064,新規,0,2024-11-20,2024-11-20,ｉｚｕｍｉｉ株式会社,,株式会社,東京都,渋谷区,道玄坂１丁目１０‐８,,13,113,1500043,,,,,,,2024-11-20,1,,,,,イズミー,0
1296,5011101109666,新規,0,2024-11-20,2024-11-20,株式会社ＤｉｇｉｔａｌＣｒｅａｔｉｖｅＳｔｙｌｅ,,株式会社,東京都,新宿区,西新宿３丁目３番１３号西新宿水間ビル２Ｆ,,13,104,1600023,,,,,,,2024-11-20,1,,,,,デジタルクリエーティブスタイル,0
1298,5011103015210,新規,0,2024-11-20,2024-11-20,合同会社心晴商事,,合同会社,東京都,新宿区,中落合４丁目１３番１号中井マーサ１０６,,13,104,1610032,,,,,,,2024-11-20,1,,,,,シンセイショウジ,0
1304,5011601028218,新規,0,2024-11-20,2024-11-20,ＳＵＩ株式会社,,株式会社,東京都,練馬区,土支田３丁目３５番１１号ドゥ・グランデＩＩ３０７,00137078,13,120,1790076,,,,,,,2024-11-20,1,,,,,スイ,0
1314,5013301053396,新規,0,2024-11-20,2024-11-20,ＹＺＹ株式会社,,株式会社,東京都,豊島区,巣鴨４丁目２４番２号巣鴨スタービル３０１,,13,116,1700002,,,,,,,2024-11-20,1,,,,,ワイゼットワイ,0
1315,5013301053405,新規,0,2024-11-20,2024-11-20,株式会社エッセンシャルキャリア,,株式会社,東京都,豊島区,南大塚２丁目２５番１７－１３０１号,,13,116,1700005,,,,,,,2024-11-20,1,,,,,エッセンシャルキャリア,0
1316,5013303007400,新規,0,2024-11-20,2024-11-20,ＴＣ　ＧＲＯＵＰ合同会社,,合同会社,東京都,豊島区,北大塚３丁目２０番１８号ユースフ大塚４０５号,,13,116,1700004,,,,,,,2024-11-20,1,,,,,テイーシーグループ,0
1326,5020001160175,新規,0,2024-11-20,2024-11-20,株式会社弦,,株式会社,神奈川県,横浜市南区,白金町１丁目２０番地２,,14,105,2320005,,,,,,,2024-11-20,1,,,,,ゲン,0
1327,5020001160183,新規,0,2024-11-20,2024-11-20,株式会社リンクスターズ,,株式会社,神奈川県,横浜市保土ケ谷区,藤塚町２５番１３－２０１号,,14,106,2400031,,,,,,,2024-11-20,1,,,,,リンクスターズ,0
1328,5020001160191,新規,0,2024-11-20,2024-11-20,株式会社オークヴィレッジ,,株式会社,神奈川県,川崎市麻生区,高石１丁目２２番１３－２０１号,,14,137,2150003,,,,,,,2024-11-20,1,,,,,オークヴィレッジ,0
1329,5020001160200,新規,0,2024-11-20,2024-11-20,株式会社ｒｅｖｉｖａｌ,,株式会社,神奈川県,川崎市麻生区,万福寺１丁目１５番１－５０６号,,14,137,2150004,,,,,,,2024-11-20,1,,,,,リバイバル,0
1345,5030001163532,新規,0,2024-11-20,2024-11-20,株式会社オフィス信,,株式会社,埼玉県,さいたま市桜区,大字大久保領家１５８番地４コスモ浦和埼大通り弐番館５０２,,11,106,3380826,,,,,,,2024-11-20,1,,,,,オフィスシン,0
1346,5030001163557,新規,0,2024-11-20,2024-11-20,光誠精密工業株式会社,,株式会社,埼玉県,ふじみ野市,亀久保１６３０番地８,,11,245,3560051,,,,,,,2024-11-20,1,,,,,コウセイセイミツコウギョウ,0
1347,5030001163565,新規,0,2024-11-20,2024-11-20,株式会社Ｔｈｉｓ　ｉｓ　Ｍｅ,,株式会社,埼玉県,志木市,本町１丁目２番３３号,,11,228,3530004,,,,,,,2024-11-20,1,,,,,ディスイズミー,0
1352,5030003025508,新規,0,2024-11-20,2024-11-20,ＹＨ合同会社,,合同会社,埼玉県,本庄市,見福３丁目１３番３号,,11,211,3670044,,,,,,,2024-11-20,1,,,,,ワイエイチ,0
1353,5030003025516,新規,0,2024-11-20,2024-11-20,ｃｏｎｃｅｐｔ‐Ｕ３合同会社,,合同会社,埼玉県,さいたま市北区,宮原町１丁目１８４番地２７コアロードＤ１０６,,11,102,3310812,,,,,,,2024-11-20,1,,,,,コンセプトユースリー,0
1367,5040003026208,新規,0,2024-11-20,2024-11-20,ＨＨ合同会社,,合同会社,千葉県,八千代市,勝田台１丁目５－１１,,12,221,2760023,,,,,,,2024-11-20,1,,,,,エイチエイチ,0
1368,5040003026216,新規,0,2024-11-20,2024-11-20,ＧＤＣ合同会社,,合同会社,千葉県,柏市,正連寺１３３番地１,,12,217,2770814,,,,,,,2024-11-20,1,,,,,ジーディーシー,0
1377,5070001042385,新規,0,2024-11-20,2024-11-20,株式会社ＣＯＮＳＥＲＢＡＳＥ,,株式会社,群馬県,沼田市,沼須町６７７番地５,,10,206,3780012,,,,,,,2024-11-20,1,,,,,コンサベイス,0
1388,5110003005583,新規,0,2024-11-20,2024-11-20,ＡＬＩＶＥ合同会社,,合同会社,新潟県,燕市,松橋８６５,,15,213,9591202,,,,,,,2024-11-20,1,,,,,アライブ,0
1397,5120001270402,新規,0,2024-11-20,2024-11-20,カナン株式会社,,株式会社,大阪府,大阪市中央区,西心斎橋１丁目９番１５号大京心斎橋ビル３Ｆ,,27,128,5420086,,,,,,,2024-11-20,1,,,,,カナン,0
1398,5120001270410,新規,0,2024-11-20,2024-11-20,株式会社桑村電気,,株式会社,大阪府,大阪市平野区,流町１丁目１番１９号６０５,,27,126,5470032,,,,,,,2024-11-20,1,,,,,クワムラデンキ,0
1411,5122001038671,新規,0,2024-11-20,2024-11-20,株式会社アイアップ,,株式会社,大阪府,東大阪市,島之内２丁目７番３６号,,27,227,5780981,,,,,,,2024-11-20,1,,,,,アイアップ,0
1412,5122003003046,新規,0,2024-11-20,2024-11-20,長風合同会社,,合同会社,大阪府,東大阪市,三ノ瀬１丁目９番１７号ハイツ富士パートＩＩ３０３号室,00137073,27,227,5770849,,,,,,,2024-11-20,1,,,,,チョウフウ,0
1414,5130001078373,新規,0,2024-11-20,2024-11-20,株式会社ベルナ,,株式会社,京都府,京都市南区,久世大藪町２０８番地１,,26,107,6010000,,,,,,,2024-11-20,1,,,,,ベルナ,0
1416,5130003010012,新規,0,2024-11-20,2024-11-20,合同会社リフレアーク,,合同会社,京都府,京都市下京区,朱雀宝蔵町４４番地協栄ビル２階京都朱雀スタジオ,,26,106,6008846,,,,,,,2024-11-20,1,,,,,リフレアーク,0
1427,5150001027691,新規,0,2024-11-20,2024-11-20,株式会社紫苑,,株式会社,奈良県,橿原市,石原田町７８－１リッツハウス２０３,,29,205,6340014,,,,,,,2024-11-20,1,,,,,シオン,0
1443,5180001164227,新規,0,2024-11-20,2024-11-20,株式会社ＦＹＫ,,株式会社,愛知県,長久手市,市が洞１丁目１０５番地,,23,238,4801147,,,,,,,2024-11-20,1,,,,,エフワイケイ,0
1444,5180001164235,新規,0,2024-11-20,2024-11-20,株式会社ポケットナース,,株式会社,愛知県,知多郡東浦町,大字緒川字相生の丘８番地の１７,,23,442,4702102,,,,,,,2024-11-20,1,,,,,ポケットナース,0
1445,5180001164243,新規,0,2024-11-20,2024-11-20,株式会社ＡＥＬＬ,,株式会社,愛知県,半田市,桐ケ丘１丁目３７－３,,23,205,4750928,,,,,,,2024-11-20,1,,,,,アエル,0
1446,5180001164251,新規,0,2024-11-20,2024-11-20,株式会社ハイテクノロジーオガワ,,株式会社,愛知県,海部郡大治町,大字三本木字前深田５２番地の３,,23,424,4901142,,,,,,,2024-11-20,1,,,,,ハイテクノロジーオガワ,0
1448,5180003027646,新規,0,2024-11-20,2024-11-20,合同会社ＯＤロジスティック,,合同会社,愛知県,半田市,中町３丁目１６番地の１,,23,205,4750855,,,,,,,2024-11-20,1,,,,,オーディーロジスティック,0
1449,5180005020839,新規,0,2024-11-20,2024-11-20,一般社団法人いきいきライフ協会一宮,,その他の設立登記法人,愛知県,一宮市,今伊勢町本神戸字無量寺東１５－１,,23,203,4910053,,,,,,,2024-11-20,1,,,,,イキイキライフキョウカイイチノミヤ,0
1457,5190001031814,新規,0,2024-11-20,2024-11-20,株式会社來武,,株式会社,三重県,度会郡玉城町,上田辺２６０５番地１７,,24,461,5190417,,,,,,,2024-11-20,1,,,,,ライム,0
1458,5190003004859,新規,0,2024-11-20,2024-11-20,合同会社Ｇｌｏｗ　Ｋｉｄｓ,,合同会社,三重県,四日市市,新正４丁目１７番１８号,,24,202,5100064,,,,,,,2024-11-20,1,,,,,グローキッズ,0
1459,5200003006589,新規,0,2024-11-20,2024-11-20,合同会社ＡＯＺＩＩ,,合同会社,岐阜県,可児市,室原８１９番地１,,21,214,5090253,,,,,,,2024-11-20,1,,,,,アオジイ,0
1460,5210005010167,新規,0,2024-11-20,2024-11-20,一般社団法人忠志,,その他の設立登記法人,福井県,あわら市,伊井１１字１番地１,,18,208,9190614,,,,,,,2024-11-20,1,,,,,タダシ,0
1465,5220005008904,新規,0,2024-11-20,2024-11-20,一般財団法人里山里海未来財団,,その他の設立登記法人,石川県,七尾市,生駒町３番地３,,17,202,9260804,,,,,,,2024-11-20,1,,,,,サトヤマサトウミミライザイダン,0
1470,5240005015857,新規,0,2024-11-20,2024-11-20,秋盛神社,,その他の設立登記法人,広島県,福山市,新市町大字相方２１１５番地,,34,207,7293102,,,,,,,2024-11-20,1,,,,,アキモリジンジャ,0
1480,5290001108024,新規,0,2024-11-20,2024-11-20,株式会社ＭＢ,,株式会社,福岡県,福岡市東区,筥松１丁目５－１６児嶋荘１６号,,40,131,8120061,,,,,,,2024-11-20,1,,,,,エムビー,0
1508,5380003005895,新規,0,2024-11-20,2024-11-20,合同会社凪,,合同会社,福島県,郡山市,堤２丁目１９８番地の３,,07,203,9630205,,,,,,,2024-11-20,1,,,,,ナギ,0
1521,5430001093078,新規,0,2024-11-20,2024-11-20,株式会社Ｓｎｏｗ　Ｆｏｘ　Ｓｐａ　Ｃｅｎｔｅｒ,,株式会社,北海道,虻田郡倶知安町,南八条東１丁目１番地５,,01,400,0440022,,,,,,,2024-11-20,1,,,,,スノーフォックススパセンター,0
1522,5430001093086,新規,0,2024-11-20,2024-11-20,株式会社Ｆｏｌｄ．Ｍ,,株式会社,北海道,札幌市中央区,北四条東２丁目８番地６札幌ユニオンハイツ９０５号,,01,101,0600034,,,,,,,2024-11-20,1,,,,,フォールドエム,0
1523,5430001093103,新規,0,2024-11-20,2024-11-20,ｓｈｉｎｋｏ株式会社,,株式会社,北海道,恵庭市,島松本町２丁目１番６号,,01,231,0611353,,,,,,,2024-11-20,1,,,,,シンコー,0
1524,5430001093111,新規,0,2024-11-20,2024-11-20,株式会社ＳＴＡＴＳ,,株式会社,北海道,千歳市,あずさ５丁目９番４号,,01,224,0660076,,,,,,,2024-11-20,1,,,,,スタッツ,0
1529,5430003017002,新規,0,2024-11-20,2024-11-20,合同会社ＴｉｇｅｒＣａｎｖａｓ,,合同会社,北海道,札幌市中央区,南四条西１５丁目２番１７－３０２号,,01,101,0640804,,,,,,,2024-11-20,1,,,,,タイガーキャンバス,0
1538,5700150127914,新規,0,2024-11-20,2024-11-20,Ｔｈｅ　Ｍｏｎｋｅｙｓ　ＡＩ，Ｉｎｃ．,,外国会社等,広島県,広島市中区,鶴見町５番１０号３０１,,34,101,7300045,アメリカ合衆国デラウェア州ドーバー市サウスガバナーズアベニュー１１１１ｂ,,,,,,2024-11-20,1,,,,,ザモンキーズエーアイ,0
1541,6010001249992,新規,0,2024-11-20,2024-11-20,時空トランス株式会社,,株式会社,東京都,千代田区,神田和泉町１番地１の７和泉ビル３Ｆ,,13,101,1010024,,,,,,,2024-11-20,1,,,,,ジクウトランス,0
1542,6010001250034,新規,0,2024-11-20,2024-11-20,株式会社沖栄フーズホールディングス,,株式会社,東京都,千代田区,有楽町１丁目１３番２号第一生命日比谷ファースト１８階,,13,101,1000006,,,,,,,2024-11-20,1,,,,,オキエイフーズホールディングス,0
1543,6010001250091,新規,0,2024-11-20,2024-11-20,Ｌｉｑｕｉ　Ｍｏｌｙ　Ａｓｉａ　Ｐａｃｉｆｉｃ株式会社,,株式会社,東京都,中央区,日本橋２丁目２番３号ＲＩＳＨＥビルＵＣＦ４階,,13,102,1030027,,,,,,,2024-11-20,1,,,,,リキモリアジアパシフィック,0
1572,6010003045507,新規,0,2024-11-20,2024-11-20,自然エネルギーＳＩＰＰ１７合同会社,,合同会社,東京都,中央区,日本橋本町２丁目４番７号,,13,102,1030023,,,,,,,2024-11-20,1,,,,,シゼンエネルギーエスアイピーピージュウナナ,0
1573,6010003045572,新規,0,2024-11-20,2024-11-20,トーキョー・ネスト合同会社,,合同会社,東京都,千代田区,丸の内１丁目４番１号東京共同会計事務所内,,13,101,1000005,,,,,,,2024-11-20,1,,,,,トーキョーネスト,0
1579,6010401186209,新規,0,2024-11-20,2024-11-20,株式会社ＣＩＮＣ　Ｃａｐｉｔａｌ,,株式会社,東京都,港区,虎ノ門１丁目２１－１９,,13,103,1050001,,,,,,,2024-11-20,1,,,,,シンクキャピタル,0
1580,6010401186506,新規,0,2024-11-20,2024-11-20,クレッシェンドグループ株式会社,,株式会社,東京都,港区,芝３丁目２２番８号ベルファース芝公園１３０７,,13,103,1050014,,,,,,,2024-11-20,1,,,,,クレッシェンドグループ,0
1581,6010401186547,新規,0,2024-11-20,2024-11-20,株式会社ＴＥＡＭ　ＯＮＥ　ＤＡＹ,,株式会社,東京都,港区,南青山２丁目２番１５号,,13,103,1070062,,,,,,,2024-11-20,1,,,,,チームワンデー,0
1587,6010403033813,新規,0,2024-11-20,2024-11-20,順能電力Ｓ１合同会社,,合同会社,東京都,港区,新橋１丁目５番６号銀座第三誠和ビル７階,,13,103,1050004,,,,,,,2024-11-20,1,,,,,ジュンノウデンリョクエスワン,0
1588,6010403033821,新規,0,2024-11-20,2024-11-20,ソーラーボタン合同会社,,合同会社,東京都,港区,南青山２丁目１３番２号サンライズ青山２Ｆ青山国際税理士法人内,,13,103,1070062,,,,,,,2024-11-20,1,,,,,ソーラーボタン,0
1592,6010405023713,新規,0,2024-11-20,2024-11-20,一般社団法人全国高齢者支援協会,,その他の設立登記法人,東京都,港区,虎ノ門４丁目３番１号城山トラストタワー１５階,,13,103,1050001,,,,,,,2024-11-20,1,,,,,ゼンコクコウレイシャシエンキョウカイ,0
1593,6010405023787,新規,0,2024-11-20,2024-11-20,Ｄｉｇｉｔａｌ　Ｉｒｏｎ特定目的会社,,その他の設立登記法人,東京都,港区,六本木１丁目９番１０号アークヒルズ仙石山森タワー２６０３,,13,103,1060032,,,,,,,2024-11-20,1,,,,,デジタルアイアン,0
1594,6010405023804,新規,0,2024-11-20,2024-11-20,ソーラーモミジ一般社団法人,,その他の設立登記法人,東京都,港区,南青山２丁目１３番２号サンライズ青山２Ｆ青山国際税理士法人内,,13,103,1070062,,,,,,,2024-11-20,1,,,,,ソーラーモミジ,0
1599,6010802021518,新規,0,2024-11-20,2024-11-20,有限会社大武運送店,,有限会社,東京都,大田区,西糀谷１丁目１９番５号,,13,111,1440034,,,,,,,2024-11-20,1,,,,,,0
1604,6010901056349,新規,0,2024-11-20,2024-11-20,株式会社Ｅ＆Ｈ　Ｃｏｍｐａｎｙ,,株式会社,東京都,世田谷区,赤堤３丁目３０番６号,,13,112,1560044,,,,,,,2024-11-20,1,,,,,イーアンドエイチカンパニー,0
1614,6011101109657,新規,0,2024-11-20,2024-11-20,株式会社旭晟,,株式会社,東京都,新宿区,東五軒町１番９号ＳＢＳ－Ｃ－６,,13,104,1620813,,,,,,,2024-11-20,1,,,,,キョクセイ,0
1617,6011103015201,新規,0,2024-11-20,2024-11-20,合同会社Ｍｕｓｅ,,合同会社,東京都,新宿区,西新宿６丁目１５番１－３９１５号,,13,104,1600023,,,,,,,2024-11-20,1,,,,,ミューズ,0
1624,6011401026552,新規,0,2024-11-20,2024-11-20,株式会社ＭＥＧ,,株式会社,東京都,板橋区,大山町２４番１６号大矢ビル３０１,,13,119,1730023,,,,,,,2024-11-20,1,,,,,メグ,0
1626,6011601028225,新規,0,2024-11-20,2024-11-20,株式会社Ｊ・マネジメント,,株式会社,東京都,練馬区,中村１丁目６番２３号,,13,120,1760024,,,,,,,2024-11-20,1,,,,,ジェイマネジメント,0
1635,6013303007399,新規,0,2024-11-20,2024-11-20,合同会社ＳＨＥＥＮ,,合同会社,東京都,豊島区,高松３丁目１１－５－２０５,,13,116,1710042,,,,,,,2024-11-20,1,,,,,シーン,0
1641,6020001160133,新規,0,2024-11-20,2024-11-20,ＨＴ株式会社,,株式会社,神奈川県,横浜市旭区,今宿町２６６０番地１,,14,112,2410813,,,,,,,2024-11-20,1,,,,,エイチティー,0
1642,6020001160166,新規,0,2024-11-20,2024-11-20,らいおんワークス株式会社,,株式会社,神奈川県,川崎市高津区,坂戸３丁目２０番１号倉光ハイム１０１,,14,134,2130012,,,,,,,2024-11-20,1,,,,,ライオンワークス,0
1643,6020001160182,新規,0,2024-11-20,2024-11-20,株式会社フラットポジション,,株式会社,神奈川県,横浜市瀬谷区,瀬谷２丁目２７番地４,,14,114,2460031,,,,,,,2024-11-20,1,,,,,フラットポジション,0
1644,6020001160208,新規,0,2024-11-20,2024-11-20,株式会社ＭＩＰ,,株式会社,神奈川県,横浜市青葉区,美しが丘５丁目２２番地９,,14,117,2250002,,,,,,,2024-11-20,1,,,,,エムアイピー,0
1650,6020005016595,新規,0,2024-11-20,2024-11-20,社会保険労務士法人シオンシーワークデザイン,,その他の設立登記法人,神奈川県,横浜市港北区,日吉４丁目３番１７号,,14,109,2230061,,,,,,,2024-11-20,1,,,,,シオンシーワークデザイン,0
1657,6021003015250,新規,0,2024-11-20,2024-11-20,合同会社ａｒｂａｒｉｓｅ,,合同会社,神奈川県,相模原市緑区,橋本台１丁目５－１９－１０１,,14,151,2520132,,,,,,,2024-11-20,1,,,,,アルバライズ,0
1664,6030001163548,新規,0,2024-11-20,2024-11-20,株式会社プレジール,,株式会社,埼玉県,所沢市,大字山口２６５４－３フィオーレ１０５,,11,208,3591145,,,,,,,2024-11-20,1,,,,,プレジール,0
1665,6030001163564,新規,0,2024-11-20,2024-11-20,吉澤商事株式会社,,株式会社,埼玉県,富士見市,鶴瀬西３丁目２０－２,,11,235,3540026,,,,,,,2024-11-20,1,,,,,ヨシザワショウジ,0
1666,6030001163572,新規,0,2024-11-20,2024-11-20,株式会社ＷＬＤ,,株式会社,埼玉県,富士見市,針ケ谷１丁目１９番地２９,,11,235,3540017,,,,,,,2024-11-20,1,,,,,ワールド,0
1669,6030003025507,新規,0,2024-11-20,2024-11-20,ＲＨ合同会社,,合同会社,埼玉県,本庄市,見福３丁目１３番３号,,11,211,3670044,,,,,,,2024-11-20,1,,,,,アールエイチ,0
1670,6030003025523,新規,0,2024-11-20,2024-11-20,合同会社アネモネ,,合同会社,埼玉県,吉川市,大字半割５０番地１４,,11,243,3420024,,,,,,,2024-11-20,1,,,,,アネモネ,0
1678,6040001136222,新規,0,2024-11-20,2024-11-20,株式会社井桁貿商,,株式会社,千葉県,柏市,手賀の杜５丁目１６番地１,,12,217,2701447,,,,,,,2024-11-20,1,,,,,イゲタボウショウ,0
1679,6040001136230,新規,0,2024-11-20,2024-11-20,株式会社ダイコウ,,株式会社,千葉県,市原市,大厩１８１０番地１,,12,219,2900002,,,,,,,2024-11-20,1,,,,,ダイコウ,0
1713,6120001270260,新規,0,2024-11-20,2024-11-20,株式会社ナガツキ商事,,株式会社,大阪府,大阪市東住吉区,今川８丁目８番９号３階,,27,121,5460003,,,,,,,2024-11-20,1,,,,,ナガツキショウジ,0
1714,6120001270319,新規,0,2024-11-20,2024-11-20,株式会社ＣＲＯＳＳＣＵＩＬＤ,,株式会社,大阪府,大阪市北区,浪花町３－２４ヒシヤビル３階,,27,127,5300022,,,,,,,2024-11-20,1,,,,,クロスギルド,0
1715,6120001270384,新規,0,2024-11-20,2024-11-20,株式会社萬石＿,00137077,株式会社,大阪府,大阪市東淀川区,淡路４丁目８番２８号ＫＥＩＧＯＲＩＮ５０１号,,27,114,5330032,,,,,,,2024-11-20,1,,,,,マンゴクケイ,0
1716,6120001270392,新規,0,2024-11-20,2024-11-20,ＣＯＭＥ　ＰＲＯＭＩＳＥＤ株式会社,,株式会社,大阪府,大阪市西成区,萩之茶屋１丁目１２番７号万葉ビル１２０号室,,27,122,5570004,,,,,,,2024-11-20,1,,,,,カムプロミスト,0
1717,6120001270426,新規,0,2024-11-20,2024-11-20,株式会社テソロ,,株式会社,大阪府,大阪市鶴見区,鶴見４丁目１番２号Ｒｅ：ＺＯＮＥ今福鶴見０１・２１６,,27,124,5380053,,,,,,,2024-11-20,1,,,,,テソロ,0
1718,6120001270434,新規,0,2024-11-20,2024-11-20,株式会社ＧＥＮＥＳＩＳ,,株式会社,大阪府,大阪市浪速区,桜川２丁目５番２９－２０１号,,27,111,5560022,,,,,,,2024-11-20,1,,,,,ジェネシス,0
1719,6120001270450,新規,0,2024-11-20,2024-11-20,株式会社ＭＯＭ,,株式会社,大阪府,大阪市城東区,今福西３丁目１番１０号,,27,118,5360004,,,,,,,2024-11-20,1,,,,,エムーオーエム,0
1722,6120003028005,新規,0,2024-11-20,2024-11-20,Ｊテック合同会社,,合同会社,大阪府,大阪市城東区,放出西２丁目１６－２３,,27,118,5360011,,,,,,,2024-11-20,1,,,,,ジェイテック,0
1723,6120003028013,新規,0,2024-11-20,2024-11-20,ＫＮＯＴ　ＭＡＲＫＥＴＴＡ合同会社,,合同会社,大阪府,大阪市北区,中崎西１丁目６‐３ラ・メゾンさくら２‐１階,,27,127,5300015,,,,,,,2024-11-20,1,,,,,ノットマーケッタ,0
1729,6122003003045,新規,0,2024-11-20,2024-11-20,合同会社ぷれじゃー,,合同会社,大阪府,四條畷市,南野５丁目３番４号,,27,229,5750021,,,,,,,2024-11-20,1,,,,,プレジャー,0
1735,6130001078380,新規,0,2024-11-20,2024-11-20,株式会社ハイペリオン,,株式会社,京都府,京都市下京区,室町通四条下る鶏鉾町４８０番地オフィスワン四条烏丸３Ｆ,,26,106,6008491,,,,,,,2024-11-20,1,,,,,ハイペリオン,0
1736,6130001078389,新規,0,2024-11-20,2024-11-20,株式会社あっと,,株式会社,京都府,京都市中京区,烏丸通錦小路上る手洗水町６７０番地,,26,104,6048152,,,,,,,2024-11-20,1,,,,,アット,0
1742,6140001136476,新規,0,2024-11-20,2024-11-20,株式会社ベル不動産,,株式会社,兵庫県,小野市,王子町６０６番４,,28,218,6751378,,,,,,,2024-11-20,1,,,,,ベルフドウサン,0
1743,6140001136484,新規,0,2024-11-20,2024-11-20,株式会社ｅｎ,,株式会社,兵庫県,尼崎市,潮江２丁目２９番４号,,28,202,6610976,,,,,,,2024-11-20,1,,,,,エン,0
1746,6140005027275,新規,0,2024-11-20,2024-11-20,一般社団法人日本ＰＬＵＳ　ｈａｎｄ協会,,その他の設立登記法人,兵庫県,加古川市,加古川町稲屋７９０番地の１ＳＯＬＯＴＡＳＵ１Ｆ－１,,28,210,6750034,,,,,,,2024-11-20,1,,,,,ニホンプラスハンドキョウカイ,0
1749,6150001027690,新規,0,2024-11-20,2024-11-20,株式会社Ｔｈｅｒａｐｙｎｉａ,,株式会社,奈良県,宇陀市,大宇陀拾生１８７４番地の１,,29,212,6332164,,,,,,,2024-11-20,1,,,,,セラピニア,0
1751,6160003003334,新規,0,2024-11-20,2024-11-20,合同会社ＹＤＳ,,合同会社,滋賀県,蒲生郡日野町,松尾２丁目６９番地アンドロメダ２０１号,,25,383,5291601,,,,,,,2024-11-20,1,,,,,ワイディーエス,0
1752,6180001006650,新規,0,2024-11-20,2024-11-20,株式会社関谷本店,,株式会社,愛知県,名古屋市港区,船見町２８番地の１,,23,111,4550027,,,,,,,2024-11-20,1,,,,,セキタニホンテン,0
1758,6180001164234,新規,0,2024-11-20,2024-11-20,最上株式会社,,株式会社,愛知県,一宮市,西大海道字柏木１０３番地１,,23,203,4910005,,,,,,,2024-11-20,1,,,,,モガミ,0
1759,6180001164242,新規,0,2024-11-20,2024-11-20,株式会社あうん,,株式会社,愛知県,名古屋市北区,丸新町２５３番地,,23,103,4620063,,,,,,,2024-11-20,1,,,,,アウン,0
1760,6180001164250,新規,0,2024-11-20,2024-11-20,株式会社エースボーテ,,株式会社,愛知県,名古屋市千種区,東山通２丁目１４－１エクセレント本山２０２,,23,101,4640807,,,,,,,2024-11-20,1,,,,,エースボーテ,0
1763,6180003027620,新規,0,2024-11-20,2024-11-20,合同会社かとう,,合同会社,愛知県,清須市,春日県１０５番地,,23,233,4520962,,,,,,,2024-11-20,1,,,,,カトウ,0
1764,6180003027645,新規,0,2024-11-20,2024-11-20,ＨＴＭ合同会社,,合同会社,愛知県,春日井市,西本町１丁目９番地２,,23,206,4860958,,,,,,,2024-11-20,1,,,,,エイチテーエム,0
1768,6180303006349,新規,0,2024-11-20,2024-11-20,合同会社Ｉｒｉｅ,,合同会社,愛知県,豊田市,元宮町５丁目５６番地１,,23,211,4710871,,,,,,,2024-11-20,1,,,,,アイリー,0
1774,6200001043105,新規,0,2024-11-20,2024-11-20,株式会社シティ三優ホールディングス,,株式会社,岐阜県,可児市,土田２５４８－３,,21,214,5090206,,,,,,,2024-11-20,1,,,,,シティサンユウホールディングス,0
1778,6230003002337,新規,0,2024-11-20,2024-11-20,合同会社ＫＨｉＴ,,合同会社,富山県,高岡市,泉町４番３５号,,16,202,9330858,,,,,,,2024-11-20,1,,,,,ケイエイチアイティー,0
1780,6240001064122,新規,0,2024-11-20,2024-11-20,豊島商事株式会社,,株式会社,広島県,福山市,新市町大字宮内３１０６番地２１,,34,207,7293104,,,,,,,2024-11-20,1,,,,,トヨシマショウジ,0
1797,6340001026946,新規,0,2024-11-20,2024-11-20,株式会社ウェルスライズ,,株式会社,鹿児島県,鹿児島市,玉里町５番１３号,,46,201,8900012,,,,,,,2024-11-20,1,,,,,ウェルスライズ,0
1803,6360003014468,新規,0,2024-11-20,2024-11-20,合同会社相和,,合同会社,沖縄県,那覇市,若狭１丁目１３番１４号２０１号室,,47,201,9000031,,,,,,,2024-11-20,1,,,,,ソウワ,0
1805,6370003006828,新規,0,2024-11-20,2024-11-20,合同会社Ｌｉｆｅ　Ｌａｂｏｒａｔｏｒｉｅｓ,,合同会社,宮城県,仙台市青葉区,通町２丁目６－２１－１号,,04,101,9810915,,,,,,,2024-11-20,1,,,,,ライフラボラトリーズ,0
1810,6380001034929,新規,0,2024-11-20,2024-11-20,株式会社シーアイ,,株式会社,福島県,郡山市,新屋敷２丁目１１０番地ノーブルハイツＩＩＡ棟１０２,00137074,07,203,9638045,,,,,,,2024-11-20,1,,,,,シーアイ,0
1811,6380003005894,新規,0,2024-11-20,2024-11-20,合同会社ＳＴＯＮＥ,,合同会社,福島県,大沼郡会津美里町,佐賀瀬川字東屋敷９８４番地,,07,447,9696406,,,,,,,2024-11-20,1,,,,,ストーン,0
1814,6430001093110,新規,0,2024-11-20,2024-11-20,株式会社ＭＩＫＵＭＯ,,株式会社,北海道,札幌市中央区,南五条西１５丁目２番３号リズム医大前５０３号室,,01,101,0640805,,,,,,,2024-11-20,1,,,,,ミクモ,0
1815,6430001093119,新規,0,2024-11-20,2024-11-20,ｍｏｒｎ株式会社,,株式会社,北海道,札幌市中央区,北三条東５丁目５番地,,01,101,0600033,,,,,,,2024-11-20,1,,,,,モルン,0
1824,6700150127913,新規,0,2024-11-20,2024-11-20,Ｒ．Ａ．ＧＬＯＢＡＬ　ＥＮＴＥＲＰＲＳＩＳＥＳ　ＰＶＴ　ＬＴＤ,,外国会社等,埼玉県,羽生市,大字今泉５４４,,11,216,3480017,スリランカ民主社会主義共和国、バトゥゴダ、バムヌポラ、１９３番,,,,,,2024-11-20,1,,,,,アルエグロバルエンタープライセスピウイテイエルテイデイ,0
1841,7010001250099,新規,0,2024-11-20,2024-11-20,こはくエンタープライズ株式会社,,株式会社,東京都,中央区,新富１丁目１５番３号新富ミハマビル４階ジパングアウトソーシングサービス株式会社内,,13,102,1040041,,,,,,,2024-11-20,1,,,,,コハクエンタープライズ,0
1869,7010003045506,新規,0,2024-11-20,2024-11-20,自然エネルギーＳＩＰＰ１８合同会社,,合同会社,東京都,中央区,日本橋本町２丁目４番７号,,13,102,1030023,,,,,,,2024-11-20,1,,,,,シゼンエネルギーエスアイピーピージュウハチ,0
1870,7010003045530,新規,0,2024-11-20,2024-11-20,ｄｅ　ｎｏｖｏ合同会社,,合同会社,東京都,中央区,銀座１丁目１２－４Ｎ＆ＥＢＬＤ．７階,,13,102,1040061,,,,,,,2024-11-20,1,,,,,デノボ,0
1871,7010003045547,新規,0,2024-11-20,2024-11-20,ＬＵＣＡ　ＧＰ２合同会社,,合同会社,東京都,千代田区,大手町１丁目６－１大手町ビル４階ＦＩＮＯＬＡＢ,,13,101,1000004,,,,,,,2024-11-20,1,,,,,ルカジーピーツー,0
1872,7010003045555,新規,0,2024-11-20,2024-11-20,合同会社イチタス,,合同会社,東京都,中央区,銀座１丁目１２－４Ｎ＆ＥＢＬＤ．７階,,13,102,1040061,,,,,,,2024-11-20,1,,,,,イチタス,0
1874,7010005039126,新規,0,2024-11-20,2024-11-20,特定非営利活動法人おもいでぼっくす,,その他の設立登記法人,東京都,中央区,東日本橋３丁目７番３号川名ビル４階,,13,102,1030004,,,,,,,2024-11-20,1,,,,,オモイデボックス,0
1875,7010005039134,新規,0,2024-11-20,2024-11-20,さくら・ホールディング特定目的会社,,その他の設立登記法人,東京都,千代田区,丸の内１丁目４番１号東京共同会計事務所内,,13,101,1000005,,,,,,,2024-11-20,1,,,,,サクラホールディング,0
1880,7010401186513,新規,0,2024-11-20,2024-11-20,株式会社Ｌｕｍｉｅｒｅ　ｄｏｒｅｅ　Ｓｈｉｒａｉｓｈｉ,,株式会社,東京都,港区,赤坂９丁目２番６－２０４号カルム第二赤坂,,13,103,1070052,,,,,,,2024-11-20,1,,,,,リュミエールドレシライシ,0
1882,7010403033820,新規,0,2024-11-20,2024-11-20,ソーラーモミジ合同会社,,合同会社,東京都,港区,南青山２丁目１３番２号サンライズ青山２Ｆ青山国際税理士法人内,,13,103,1070062,,,,,,,2024-11-20,1,,,,,ソーラーモミジ,0
1883,7010403033829,新規,0,2024-11-20,2024-11-20,合同会社Ｐｉｎｋ　Ｓｔａｒ,,合同会社,東京都,港区,虎ノ門１丁目１番１８号ヒューリック虎ノ門ビル９階Ｌ＆Ｐ司法書士法人内,,13,103,1050001,,,,,,,2024-11-20,1,,,,,ピンクスター,0
1888,7010405023803,新規,0,2024-11-20,2024-11-20,ソーラーケヤキ一般社団法人,,その他の設立登記法人,東京都,港区,南青山２丁目１３番２号サンライズ青山２Ｆ青山国際税理士法人内,,13,103,1070062,,,,,,,2024-11-20,1,,,,,ソーラーケヤキ,0
1889,7010405023811,新規,0,2024-11-20,2024-11-20,一般社団法人Ｃｉｍａｒｏｎ,,その他の設立登記法人,東京都,港区,虎ノ門１丁目１番１８号ヒューリック虎ノ門ビル９階Ｌ＆Ｐ司法書士法人内,,13,103,1050001,,,,,,,2024-11-20,1,,,,,シマロン,0
1891,7010601066309,新規,0,2024-11-20,2024-11-20,株式会社光喜,,株式会社,東京都,江東区,住吉１丁目１３番６号,,13,108,1350002,,,,,,,2024-11-20,1,,,,,ミツキ,0
1893,7010705003703,新規,0,2024-11-20,2024-11-20,特定非営利活動法人おひとりさま安心の会,,その他の設立登記法人,東京都,品川区,大井４丁目４番２－１１０５号オフィスビル大井ＭＡＸ－１,,13,109,1400014,,,,,,,2024-11-20,1,,,,,オヒトリサマアンシンノカイ,0
1897,7010901056356,新規,0,2024-11-20,2024-11-20,株式会社堀川,,株式会社,東京都,世田谷区,瀬田３丁目６番６－１００１号,,13,112,1580095,,,,,,,2024-11-20,1,,,,,ホリカワ,0
1898,7010901056372,新規,0,2024-11-20,2024-11-20,株式会社ＴＣＣ,,株式会社,東京都,世田谷区,瀬田１丁目１３番１５号ベータ・スタジオーネ１０１,,13,112,1580095,,,,,,,2024-11-20,1,,,,,ティーシーシー,0
1900,7010903009510,新規,0,2024-11-20,2024-11-20,合同会社Ｈ‐Ｎｅｘｕｓ,,合同会社,東京都,世田谷区,北沢３丁目９－４,,13,112,1550031,,,,,,,2024-11-20,1,,,,,エイチネクサス,0
1909,7011003020424,新規,0,2024-11-20,2024-11-20,合同会社ＥＩＣ,,合同会社,東京都,渋谷区,代々木５丁目７番９‐７０４,,13,113,1510053,,,,,,,2024-11-20,1,,,,,イーアイシー,0
1912,7011101109648,新規,0,2024-11-20,2024-11-20,株式会社ｆｏｒｔｙ‐ｆｉｖｅ,,株式会社,東京都,新宿区,西新宿６丁目１５番１号セントラルパークタワーラ・トゥール新宿５０５,,13,104,1600023,,,,,,,2024-11-20,1,,,,,フォーティファイブ,0
1916,7011501031352,新規,0,2024-11-20,2024-11-20,水分子株式会社,,株式会社,東京都,北区,岩淵町１番１２号,,13,117,1150041,,,,,,,2024-11-20,1,,,,,スイブンシ,0
1920,7011603004520,新規,0,2024-11-20,2024-11-20,ＳＯＤ合同会社,,合同会社,東京都,練馬区,南大泉３丁目３０番２０号トーキョーベータ保谷６－２０４,,13,120,1780064,,,,,,,2024-11-20,1,,,,,ソド,0
1921,7011703004032,新規,0,2024-11-20,2024-11-20,朝陽合同会社,,合同会社,東京都,江戸川区,東小岩３丁目１９番６号,,13,123,1330052,,,,,,,2024-11-20,1,,,,,アサヒ,0
1926,7012803003551,新規,0,2024-11-20,2024-11-20,合同会社エイティ,,合同会社,東京都,国分寺市,南町２丁目１７番９号第２０松崎ビル２Ｆ,00137079,13,214,1850021,,,,,,,2024-11-20,1,,,,,エイティ,0
1928,7013301053403,新規,0,2024-11-20,2024-11-20,株式会社うちだ薬局,,株式会社,東京都,豊島区,東池袋１丁目３４番５号いちご東池袋ビル６階,,13,116,1700013,,,,,,,2024-11-20,1,,,,,ウチダヤッキョク,0
1929,7013301053411,新規,0,2024-11-20,2024-11-20,株式会社ｔｅｃｃａ,,株式会社,東京都,豊島区,南大塚３丁目４２番１０－７０５号,,13,116,1700005,,,,,,,2024-11-20,1,,,,,テッカ,0
1940,7020001160198,新規,0,2024-11-20,2024-11-20,ａｍａｚｉｎｇ株式会社,,株式会社,神奈川県,川崎市高津区,新作６丁目２番６７号,,14,134,2130014,,,,,,,2024-11-20,1,,,,,アメイジング,0
1942,7020003027222,新規,0,2024-11-20,2024-11-20,合同会社Ｍ＆Ｅ,,合同会社,神奈川県,川崎市高津区,新作５丁目１１番１－４２７号,,14,134,2130014,,,,,,,2024-11-20,1,,,,,エムアンドイー,0
1958,7030001163522,新規,0,2024-11-20,2024-11-20,株式会社ＫＡＦＵＮＡ,,株式会社,埼玉県,飯能市,大字双柳５９５番地２,,11,209,3570021,,,,,,,2024-11-20,1,,,,,カフナ,0
1959,7030001163563,新規,0,2024-11-20,2024-11-20,株式会社ミライリア,,株式会社,埼玉県,越谷市,越ヶ谷３丁目３番１６号２階,,11,222,3430813,,,,,,,2024-11-20,1,,,,,ミライリア,0
1973,7040003026214,新規,0,2024-11-20,2024-11-20,ロドリゲス・ブラザー合同会社,,合同会社,千葉県,市原市,君塚３丁目６番８号,,12,219,2900051,,,,,,,2024-11-20,1,,,,,ロドリゲスブラザー,0
1996,7110001038856,新規,0,2024-11-20,2024-11-20,株式会社ＳＵＮ,,株式会社,新潟県,魚沼市,小出島１２２１番地１,,15,225,9460011,,,,,,,2024-11-20,1,,,,,サン,0
2007,7120001270342,新規,0,2024-11-20,2024-11-20,株式会社日栄,,株式会社,大阪府,守口市,金田町１丁目７－１６－０８号室,,27,209,5700011,,,,,,,2024-11-20,1,,,,,ニチエイ,0
2008,7120001270441,新規,0,2024-11-20,2024-11-20,株式会社ＤＯＣＴＯＲＳ　ＨＥＡＬＴＨ　ＮＡＶＩ,,株式会社,大阪府,大阪市東淀川区,東中島１丁目１７－５,,27,114,5330033,,,,,,,2024-11-20,1,,,,,ドクターズヘルスナビ,0
2010,7120003027996,新規,0,2024-11-20,2024-11-20,合同会社サンサン,,合同会社,大阪府,大阪市西区,立売堀５丁目１番１１号プライムハイツ阿波座２０１,,27,106,5500012,,,,,,,2024-11-20,1,,,,,サンサン,0
2013,7122001038661,新規,0,2024-11-20,2024-11-20,株式会社ＦｏｏＤｏｇ,,株式会社,大阪府,東大阪市,東鴻池町５丁目６番６３号,,27,227,5780973,,,,,,,2024-11-20,1,,,,,フードッグ,0
2017,7130001078388,新規,0,2024-11-20,2024-11-20,株式会社希ホールディングス,,株式会社,京都府,京都市中京区,烏丸通錦小路上る手洗水町６７０番地,,26,104,6048152,,,,,,,2024-11-20,1,,,,,ノゾミホールディングス,0
2027,7140003021329,新規,0,2024-11-20,2024-11-20,合同会社ＧＥＲＢＥＲＡ,,合同会社,兵庫県,芦屋市,大東町１２番２３－４１７号,,28,206,6590023,,,,,,,2024-11-20,1,,,,,ガーベラ,0
2028,7140005027274,新規,0,2024-11-20,2024-11-20,関西国際交流協同組合,,その他の設立登記法人,兵庫県,高砂市,阿弥陀町魚橋７１４－９,,28,216,6760822,,,,,,,2024-11-20,1,,,,,カンサイコクサイコウリュウ,0
2030,7150005009643,新規,0,2024-11-20,2024-11-20,特定非営利活動法人ＭＢＴ奈良画像診断・ＩＶＲ支援ネットワーク,,その他の設立登記法人,奈良県,橿原市,四条町８４０番地,,29,205,6340813,,,,,,,2024-11-20,1,,,,,エムビーティナラガゾウシンダンアイブイアールシエンネットワーク,0
2039,7180001164233,新規,0,2024-11-20,2024-11-20,株式会社スマイルファースト,,株式会社,愛知県,尾張旭市,東大久手町２丁目１番地６,,23,226,4880003,,,,,,,2024-11-20,1,,,,,スマイルファースト,0
2040,7180001164241,新規,0,2024-11-20,2024-11-20,株式会社Ｍ．ｓカンパニー,,株式会社,愛知県,名古屋市東区,東桜２丁目２１番５号第６５プロスパービル３０２号,,23,102,4610005,,,,,,,2024-11-20,1,,,,,エムズカンパニー,0
2044,7180003027636,新規,0,2024-11-20,2024-11-20,合同会社マルヨン企画,,合同会社,愛知県,名古屋市中区,新栄１丁目３４番３号,,23,106,4600007,,,,,,,2024-11-20,1,,,,,マルヨンキカク,0
2047,7180303006348,新規,0,2024-11-20,2024-11-20,合同会社てきとう,,合同会社,愛知県,蒲郡市,金平町岩上９－８,,23,214,4430102,,,,,,,2024-11-20,1,,,,,テキトウ,0
2058,7230003002336,新規,0,2024-11-20,2024-11-20,合同会社Ｐ＆Ｄ,,合同会社,富山県,富山市,蛯町１番４舟崎ビル２階,,16,201,9300027,,,,,,,2024-11-20,1,,,,,ピーアンドディー,0
2070,7290001108022,新規,0,2024-11-20,2024-11-20,株式会社インリット,,株式会社,福岡県,糟屋郡須惠町,大字旅石１６４番地１１９,,40,344,8112221,,,,,,,2024-11-20,1,,,,,インリット,0
2076,7290801031051,新規,0,2024-11-20,2024-11-20,株式会社Ｒｅｙ,,株式会社,福岡県,北九州市八幡西区,本城４丁目３番１１号,,40,109,8070801,,,,,,,2024-11-20,1,,,,,レイ,0
2087,7340001026945,新規,0,2024-11-20,2024-11-20,株式会社豊畜産,,株式会社,鹿児島県,大島郡天城町,大字平土野４８番地５,,46,531,8917612,,,,,,,2024-11-20,1,,,,,トヨチクサン,0
2092,7370001051957,新規,0,2024-11-20,2024-11-20,株式会社マチエールフードワークス,,株式会社,宮城県,仙台市青葉区,本町２丁目６番１６号,,04,101,9800014,,,,,,,2024-11-20,1,,,,,マチエールフードワークス,0
2098,7380003005893,新規,0,2024-11-20,2024-11-20,Ｌｉｇｈｔ　Ｓｔｙｌｅ合同会社,,合同会社,福島県,福島市,渡利字番匠町１０５－２タイムＡ２０１,,07,201,9608141,,,,,,,2024-11-20,1,,,,,ライトスタイル,0
2102,7410001013993,新規,0,2024-11-20,2024-11-20,株式会社ユアナス,,株式会社,秋田県,横手市,朝日が丘４丁目９番５号,,05,203,0130055,,,,,,,2024-11-20,1,,,,,ユアナス,0
2105,7430001093043,新規,0,2024-11-20,2024-11-20,株式会社ＨＯＫＫＡＩＤＯ　ＲＥＡＬ　ＥＳＴＡＴＥ,,株式会社,北海道,札幌市白石区,本通１７丁目南７番１２－４０５号,,01,104,0030026,,,,,,,2024-11-20,1,,,,,ホッカイドウリアルエステート,0
2106,7430001093118,新規,0,2024-11-20,2024-11-20,株式会社清真内装,,株式会社,北海道,札幌市南区,真駒内本町７丁目１－３－１１０５,,01,106,0050021,,,,,,,2024-11-20,1,,,,,セイシンナイソウ,0
2109,7430003017000,新規,0,2024-11-20,2024-11-20,合同会社北の大地,,合同会社,北海道,室蘭市,八丁平４丁目３３番３号,,01,205,0500061,,,,,,,2024-11-20,1,,,,,キタノダイチ,0
2116,7700150127912,新規,0,2024-11-20,2024-11-20,ＵＮＩＴＥＤ　ＡＵＴＯ,,外国会社等,茨城県,稲敷郡阿見町,中央５丁目３４－１８　しらさぎ台コーポ１０６,,08,443,3000332,スリランカ民主社会主義共和国、アンゴダ、コティカワッタロード、ＣＭ／０１,,,,,,2024-11-20,1,,,,,ユナイテツドオート,0
2123,8010001250032,新規,0,2024-11-20,2024-11-20,株式会社Ｙｏｒｏｋｏｂｉ,,株式会社,東京都,中央区,日本橋室町１丁目１１番１２号日本橋水野ビル７階,,13,102,1030022,,,,,,,2024-11-20,1,,,,,ヨロコビ,0
2124,8010001250040,新規,0,2024-11-20,2024-11-20,株式会社Ｔｏｍｏｒｒｏｗ’ｓ　Ｌｉｆｅ,,株式会社,東京都,中央区,築地７丁目１０番地８号ＳＥＡビル３０１号室,,13,102,1040045,,,,,,,2024-11-20,1,,,,,トゥモローズライフ,0
2150,8010003045488,新規,0,2024-11-20,2024-11-20,ＲＥＮＡＴＵＳ　ＥＮＧＩＮＥＥＲＩＮＧ合同会社,,合同会社,東京都,文京区,本郷４丁目１－３明和本郷ビル７Ｆ,,13,105,1130033,,,,,,,2024-11-20,1,,,,,レナトスエンジニアリング,0
2151,8010003045505,新規,0,2024-11-20,2024-11-20,自然エネルギーＳＩＰＰ１９合同会社,,合同会社,東京都,中央区,日本橋本町２丁目４番７号,,13,102,1030023,,,,,,,2024-11-20,1,,,,,シゼンエネルギーエスアイピーピージュウク,0
2154,8010101016408,新規,0,2024-11-20,2024-11-20,株式会社Ｒｅｂｏｒｎ,,株式会社,東京都,八王子市,東町四丁目１１番地八王子光ビルＡ棟３階シェアサロンＪＡＭ内,,13,201,1920082,,,,,,,2024-11-20,1,,,,,リボーン,0
2162,8010401186297,新規,0,2024-11-20,2024-11-20,ロジスティクスオン株式会社,,株式会社,東京都,港区,芝浦１丁目１３番１０号,,13,103,1050023,,,,,,,2024-11-20,1,,,,,ロジスティクスオン,0
2167,8010403033828,新規,0,2024-11-20,2024-11-20,合同会社Ｓｉｒ　Ｈｕｏｎ,,合同会社,東京都,港区,虎ノ門１丁目１番１８号ヒューリック虎ノ門ビル９階Ｌ＆Ｐ司法書士法人内,,13,103,1050001,,,,,,,2024-11-20,1,,,,,サーヒューン,0
2168,8010405023802,新規,0,2024-11-20,2024-11-20,ソーラーツグミ一般社団法人,,その他の設立登記法人,東京都,港区,南青山２丁目１３番２号サンライズ青山２Ｆ青山国際税理士法人内,,13,103,1070062,,,,,,,2024-11-20,1,,,,,ソーラーツグミ,0
2169,8010405023810,新規,0,2024-11-20,2024-11-20,一般社団法人Ｓｏｕｌｉｋ,,その他の設立登記法人,東京都,港区,虎ノ門１丁目１番１８号ヒューリック虎ノ門ビル９階Ｌ＆Ｐ司法書士法人内,,13,103,1050001,,,,,,,2024-11-20,1,,,,,ソーリック,0
2174,8010801035582,新規,0,2024-11-20,2024-11-20,株式会社ダブルアールプランニング,,株式会社,東京都,大田区,西六郷３丁目２番１４－１０７号,,13,111,1440056,,,,,,,2024-11-20,1,,,,,ダブルアールプランニング,0
2177,8010803005170,新規,0,2024-11-20,2024-11-20,ｓｈｒｔｓ合同会社,,合同会社,東京都,大田区,仲六郷１丁目２８－７,,13,111,1440055,,,,,,,2024-11-20,1,,,,,イヤーツ,0
2178,8010901056355,新規,0,2024-11-20,2024-11-20,株式会社Ｔｒｉｆｅｃｔａ,,株式会社,東京都,世田谷区,太子堂４丁目４番１５号セザール三軒茶屋４０２,,13,112,1540004,,,,,,,2024-11-20,1,,,,,トライフェクタ,0
2186,8011101109647,新規,0,2024-11-20,2024-11-20,株式会社ＤＩＳ,,株式会社,東京都,新宿区,大久保２丁目６番１０号新宿第二アルプスマンション２０５号,,13,104,1690072,,,,,,,2024-11-20,1,,,,,ディアイエス,0
2187,8011103015199,新規,0,2024-11-20,2024-11-20,ネオスタイル合同会社,,合同会社,東京都,新宿区,西新宿３丁目３番１３号西新宿水間ビル２階,,13,104,1600023,,,,,,,2024-11-20,1,,,,,ネオスタイル,0
2188,8011103015208,新規,0,2024-11-20,2024-11-20,合同会社馥郁倶楽部,,合同会社,東京都,新宿区,西新宿７丁目４番７号イマス浜田ビル５階,,13,104,1600023,,,,,,,2024-11-20,1,,,,,フクイククラブ,0
2203,8012401042496,新規,0,2024-11-20,2024-11-20,Ｂｏｎｄｙ株式会社,,株式会社,東京都,稲城市,大丸９８１番地の１,,13,225,2060801,,,,,,,2024-11-20,1,,,,,ボンディ,0
2207,8012403006846,新規,0,2024-11-20,2024-11-20,合同会社ＴＥＭＭ,,合同会社,東京都,狛江市,和泉本町１丁目３６‐２‐１２０１,,13,219,2010003,,,,,,,2024-11-20,1,,,,,ティーイーエムエム,0
2209,8012803003550,新規,0,2024-11-20,2024-11-20,合同会社ＳＡＳＡ,,合同会社,東京都,昭島市,緑町５丁目１－９－２Ｆ,,13,207,1960004,,,,,,,2024-11-20,1,,,,,ササ,0
2211,8013301053402,新規,0,2024-11-20,2024-11-20,旅家株式会社,,株式会社,東京都,豊島区,池袋２丁目６９番１０高原ビル２０２号,,13,116,1710014,,,,,,,2024-11-20,1,,,,,タビヤ,0
2212,8013303007397,新規,0,2024-11-20,2024-11-20,合同会社ｍｉｌｅｓｔｏｎｅ,,合同会社,東京都,豊島区,東池袋３丁目１１番９号三島ビル４０２,,13,116,1700013,,,,,,,2024-11-20,1,,,,,,0
2223,8020001160197,新規,0,2024-11-20,2024-11-20,ＲＡＫＳＨＹＡ株式会社,,株式会社,神奈川県,横浜市都筑区,仲町台１丁目３３番２３号パークサイドヒルズ１Ｆ,,14,118,2240041,,,,,,,2024-11-20,1,,,,,ラクシャ,0
2224,8020003027279,新規,0,2024-11-20,2024-11-20,ラストホープ合同会社,,合同会社,神奈川県,横浜市旭区,二俣川１丁目７４番地１１,,14,112,2410821,,,,,,,2024-11-20,1,,,,,ラストホープ,0
2226,8021001083792,新規,0,2024-11-20,2024-11-20,株式会社星野興産,,株式会社,神奈川県,座間市,ひばりが丘３丁目４９番６号,,14,216,2520003,,,,,,,2024-11-20,1,,,,,ホシノコウサン,0
2245,8040001136195,新規,0,2024-11-20,2024-11-20,株式会社リプロテクノ,,株式会社,千葉県,松戸市,緑ケ丘１丁目１６７番地の１,,12,207,2710074,,,,,,,2024-11-20,1,,,,,リプロテクノ,0
2246,8040001136220,新規,0,2024-11-20,2024-11-20,日本興隆株式会社,00137075,株式会社,千葉県,千葉市若葉区,中田町２４３５番地,,12,104,2650043,,,,,,,2024-11-20,1,,,,,ニホンコウリュウ,0
2247,8040001136229,新規,0,2024-11-20,2024-11-20,株式会社ＭＫ,,株式会社,千葉県,千葉市中央区,富士見２丁目７番９号富士見ビル６０９号,,12,101,2600015,,,,,,,2024-11-20,1,,,,,エムケー,0
2250,8040003026213,新規,0,2024-11-20,2024-11-20,オフィス戸田しんうら合同会社,,合同会社,千葉県,浦安市,今川４丁目３番７号,,12,227,2790022,,,,,,,2024-11-20,1,,,,,オフィストダシンウラ,0
2251,8040003026221,新規,0,2024-11-20,2024-11-20,合同会社新妻アンドグローブ,,合同会社,千葉県,富里市,日吉倉７０３－２２,,12,233,2860202,,,,,,,2024-11-20,1,,,,,ニッツマアンドグローブ,0
2258,8070003005668,新規,0,2024-11-20,2024-11-20,ＳＰＥＥＤ　ＣＡＲＳ合同会社,,合同会社,群馬県,邑楽郡大泉町,坂田５丁目２４番４号森ホーム第２Ｄ－７号,,10,524,3700532,,,,,,,2024-11-20,1,,,,,スピードカーズ,0
2279,8120001270358,新規,0,2024-11-20,2024-11-20,ぽたん株式会社,,株式会社,大阪府,大阪市福島区,福島２丁目７番２４号４階,,27,103,5530003,,,,,,,2024-11-20,1,,,,,ポタン,0
2280,8120001270424,新規,0,2024-11-20,2024-11-20,株式会社ベストパートナー,,株式会社,大阪府,大阪市東住吉区,照ケ丘矢田１丁目１１番３０号エレガンス８８－１階,,27,121,5460021,,,,,,,2024-11-20,1,,,,,ベストパートナー,0
2281,8120001270432,新規,0,2024-11-20,2024-11-20,株式会社アンポンタン,,株式会社,大阪府,大阪市北区,西天満１丁目７番４号協和中之島ビル１階,,27,127,5300047,,,,,,,2024-11-20,1,,,,,アンポンタン,0
2282,8120001270440,新規,0,2024-11-20,2024-11-20,株式会社ＢＥＧＩＮ,,株式会社,大阪府,大阪市北区,天神橋４丁目６番１８－２０２号,,27,127,5300041,,,,,,,2024-11-20,1,,,,,ビギン,0
2284,8120003028003,新規,0,2024-11-20,2024-11-20,合同会社松本組,,合同会社,大阪府,寝屋川市,上神田２丁目３２－４,,27,215,5720052,,,,,,,2024-11-20,1,,,,,マツモトグミ,0
2304,8140001136482,新規,0,2024-11-20,2024-11-20,株式会社リバック,,株式会社,兵庫県,淡路市,斗ノ内７０番地１,,28,226,6561743,,,,,,,2024-11-20,1,,,,,リバック,0
2307,8150001027689,新規,0,2024-11-20,2024-11-20,株式会社ナラティブアプローチ,,株式会社,奈良県,生駒市,東松ケ丘４番１－５０３号,,29,209,6300244,,,,,,,2024-11-20,1,,,,,ナラティブアプローチ,0
2317,8180001164208,新規,0,2024-11-20,2024-11-20,株式会社ミスター,,株式会社,愛知県,北名古屋市,鹿田天王山３番地３クリエイティブハウス２０１号室,,23,234,4810004,,,,,,,2024-11-20,1,,,,,ミスター,0
2318,8180001164216,新規,0,2024-11-20,2024-11-20,株式会社Ａｄｏｒｅｒ,,株式会社,愛知県,名古屋市中区,大須２丁目１０番４５号,,23,106,4600011,,,,,,,2024-11-20,1,,,,,アドレ,0
2319,8180001164240,新規,0,2024-11-20,2024-11-20,株式会社イーグルクレスト,,株式会社,愛知県,名古屋市南区,北内町５丁目４８－６,,23,112,4570049,,,,,,,2024-11-20,1,,,,,イーグルクレスト,0
2320,8180001164249,新規,0,2024-11-20,2024-11-20,株式会社みむろ不動産コンサルタント,,株式会社,愛知県,岩倉市,西市町無量寺４２－２－５０２,,23,228,4820036,,,,,,,2024-11-20,1,,,,,ミムロフドウサンコンサルタント,0
2325,8180005020836,新規,0,2024-11-20,2024-11-20,特定非営利活動法人精神障害者の孤独をなくすお茶会,,その他の設立登記法人,愛知県,名古屋市昭和区,長池町２丁目２０番地の２美山コーポ２０３号,,23,107,4660847,,,,,,,2024-11-20,1,,,,,セイシンショウガイシャノコドクヲナクスオチャカイ,0
2329,8180303006347,新規,0,2024-11-20,2024-11-20,合同会社リフェロ,,合同会社,愛知県,豊橋市,町畑町字森田３８－７０,,23,201,4418108,,,,,,,2024-11-20,1,,,,,リフェロ,0
2340,8270001009089,新規,0,2024-11-20,2024-11-20,株式会社Ｌ＆Ｈ,,株式会社,鳥取県,米子市,日原６１番地２,,31,202,6830015,,,,,,,2024-11-20,1,,,,,エルアンドエイチ,0
2350,8290001107766,新規,0,2024-11-20,2024-11-20,九州プレハブダクト工業株株式会社,,株式会社,福岡県,福岡市南区,三宅３丁目２８番２４号,,40,134,8111344,,,,,,,2024-11-20,1,,,,,キュウシュウプレハブダクトコウギョウ,0
2351,8290001108046,新規,0,2024-11-20,2024-11-20,株式会社森田建設,,株式会社,福岡県,古賀市,小竹８９３番地３,,40,223,8113135,,,,,,,2024-11-20,1,,,,,モリタケンセツ,0
2356,8290003016065,新規,0,2024-11-20,2024-11-20,ＰｏｗｅｒＮｅｘｔ合同会社,,合同会社,福岡県,福岡市中央区,天神２丁目２番１２号Ｔ＆Ｊビルディング７Ｆ,,40,133,8100001,,,,,,,2024-11-20,1,,,,,パワーネクスト,0
2357,8290003016081,新規,0,2024-11-20,2024-11-20,合同会社ｃｈａｍｅｌｅｏｎ,,合同会社,福岡県,福岡市西区,泉１丁目１２番８号,,40,135,8190381,,,,,,,2024-11-20,1,,,,,カメレオン,0
2359,8290803004896,新規,0,2024-11-20,2024-11-20,合同会社ＺＥＲＯ　ＳＹＳＴＥＭ,,合同会社,福岡県,直方市,新知町６－４０グランシャトー玉川５０３号室,,40,204,8220021,,,,,,,2024-11-20,1,,,,,ゼロシステム,0
2360,8300003002204,新規,0,2024-11-20,2024-11-20,Ｔ　ｌｉｖｅｓ合同会社,,合同会社,佐賀県,武雄市,橘町大日３９１０番地２,,41,206,8430000,,,,,,,2024-11-20,1,,,,,ティーライブズ,0
2365,8340003004667,新規,0,2024-11-20,2024-11-20,合同会社リンク,,合同会社,鹿児島県,姶良市,平松５３８５－１,,46,225,8995652,,,,,,,2024-11-20,1,,,,,リンク,0
2367,8360003014466,新規,0,2024-11-20,2024-11-20,合同会社渡部創舎,,合同会社,沖縄県,国頭郡大宜味村,字津波１５４４番地,,47,302,9051318,,,,,,,2024-11-20,1,,,,,ワタベソウシャ,0
2368,8370001051948,新規,0,2024-11-20,2024-11-20,株式会社ＩＯ　ＰＡＲＴＮＥＲＳ,,株式会社,宮城県,仙台市青葉区,中央３丁目８－５新仙台駅前ビル２Ｆ－３,,04,101,9800021,,,,,,,2024-11-20,1,,,,,アイオーパートナーズ,0
2386,8430003017008,新規,0,2024-11-20,2024-11-20,合同会社沼倉,,合同会社,北海道,札幌市南区,南沢二条４丁目１７－１４,,01,106,0050822,,,,,,,2024-11-20,1,,,,,ヌマクラ,0
2391,8470003002757,新規,0,2024-11-20,2024-11-20,合同会社ＡＣＴ,,合同会社,香川県,高松市,古馬場町８番地３０松本ビル４階,,37,201,7600045,,,,,,,2024-11-20,1,,,,,アクト,0
2397,8700150127911,新規,0,2024-11-20,2024-11-20,ＴＯＹＯ　ＬＡＮＫＡ　ＥＮＴＥＲＰＲＩＳＥＳ,,外国会社等,千葉県,山武郡横芝光町,新島５２１４番地３オフィス－Ｄ,,12,410,2891736,スリランカ民主社会主義共和国、サンタマルトゥ、メインストリート、Ｎｏ．２９,,,,,,2024-11-20,1,,,,,トーヨーランカエンタープライズ,0
2404,9010001249899,新規,0,2024-11-20,2024-11-20,株式会社インフィニ・キャピタル・マネジメント日本,,株式会社,東京都,千代田区,六番町１５番２号,,13,101,1020085,,,,,,,2024-11-20,1,,,,,インフィニキャピタルマネジメントニホン,0
2426,9010003045495,新規,0,2024-11-20,2024-11-20,合同会社ＭＲＦ１号,,合同会社,東京都,千代田区,丸の内１丁目４番１号東京共同会計事務所内,,13,101,1000005,,,,,,,2024-11-20,1,,,,,エムアールエフイチゴウ,0
2427,9010003045529,新規,0,2024-11-20,2024-11-20,エクイスバッテリー・ジャパン合同会社,,合同会社,東京都,中央区,京橋２丁目２番１号京橋エドグラン,,13,102,1040031,,,,,,,2024-11-20,1,,,,,エクイスバッテリージャパン,0
2429,9010005039140,新規,0,2024-11-20,2024-11-20,一般社団法人エマープ,,その他の設立登記法人,東京都,千代田区,丸の内１丁目４番１号東京共同会計事務所内,,13,101,1000005,,,,,,,2024-11-20,1,,,,,エマープ,0
2430,9010005039165,新規,0,2024-11-20,2024-11-20,一般社団法人ホテル天王洲・ＳＰＣ,,その他の設立登記法人,東京都,中央区,京橋２丁目１２番６号ＡＯＪ税理士法人内,,13,102,1040031,,,,,,,2024-11-20,1,,,,,ホテルテンノウズエスピーシー,0
2437,9010401185711,新規,0,2024-11-20,2024-11-20,株式会社ＳＥＡＭＳ,,株式会社,東京都,港区,高輪２丁目１４－９三愛ビル梅館５０３,,13,103,1080074,,,,,,,2024-11-20,1,,,,,シームズ,0
2454,9010403033819,新規,0,2024-11-20,2024-11-20,ソーラーケヤキ合同会社,,合同会社,東京都,港区,南青山２丁目１３番２号サンライズ青山２Ｆ青山国際税理士法人内,,13,103,1070062,,,,,,,2024-11-20,1,,,,,ソーラーケヤキ,0
2455,9010403033827,新規,0,2024-11-20,2024-11-20,合同会社Ａｇｉｌｅ,,合同会社,東京都,港区,虎ノ門１丁目１番１８号ヒューリック虎ノ門ビル９階Ｌ＆Ｐ司法書士法人内,,13,103,1050001,,,,,,,2024-11-20,1,,,,,アジャイル,0
2457,9010405023801,新規,0,2024-11-20,2024-11-20,ソーラーモズ一般社団法人,,その他の設立登記法人,東京都,港区,南青山２丁目１３番２号サンライズ青山２Ｆ青山国際税理士法人内,,13,103,1070062,,,,,,,2024-11-20,1,,,,,ソーラーモズ,0
2461,9010603011228,新規,0,2024-11-20,2024-11-20,合同会社Ｓｈａｒｅ．Ｌ,,合同会社,東京都,江東区,大島６丁目１０－１７ハイツ野原２０１,,13,108,1360072,,,,,,,2024-11-20,1,,,,,シェアル,0
2464,9010701046828,新規,0,2024-11-20,2024-11-20,鏡界科技株式会社,,株式会社,東京都,品川区,東五反田５丁目２２番５－２１０Ｄ号,,13,109,1410022,,,,,,,2024-11-20,1,,,,,キョウカイカギ,0
2465,9010701046844,新規,0,2024-11-20,2024-11-20,株式会社ＢＩＺＭ,,株式会社,東京都,品川区,上大崎３丁目１２番７号,,13,109,1410021,,,,,,,2024-11-20,1,,,,,ビズム,0
2466,9010703007448,新規,0,2024-11-20,2024-11-20,Ｔｏ　Ｅｔｅｒｎｉｔｙ合同会社,,合同会社,東京都,品川区,西五反田４丁目９－１４ＰｏｒｔｏＧｒａｎｄｅかむろ坂６号室,,13,109,1410031,,,,,,,2024-11-20,1,,,,,トゥエターニティー,0
2470,9010901056346,新規,0,2024-11-20,2024-11-20,ＭＥＭＥＸ株式会社,,株式会社,東京都,世田谷区,砧７丁目１番７号,,13,112,1570073,,,,,,,2024-11-20,1,,,,,メメックス,0
2471,9010901056362,新規,0,2024-11-20,2024-11-20,ＮＡＨＩＤ株式会社,,株式会社,東京都,世田谷区,用賀４丁目２５番１３号,,13,112,1580097,,,,,,,2024-11-20,1,,,,,ナヒード,0
2472,9010901056370,新規,0,2024-11-20,2024-11-20,用賀倶楽部株式会社,,株式会社,東京都,世田谷区,玉川台２丁目１７番１６号,,13,112,1580096,,,,,,,2024-11-20,1,,,,,ヨウガクラブ,0
2474,9010903009509,新規,0,2024-11-20,2024-11-20,ｍｕｒａｓａｋｉ合同会社,,合同会社,東京都,世田谷区,玉堤１丁目５番２２号,,13,112,1580087,,,,,,,2024-11-20,1,,,,,ムラサキ,0
2479,9011001165905,新規,0,2024-11-20,2024-11-20,株式会社ＫＡＩＯＨ,,株式会社,東京都,渋谷区,道玄坂１丁目１０番８号渋谷道玄坂東急ビル２Ｆ－Ｃ,,13,113,1500043,,,,,,,2024-11-20,1,,,,,カイオウ,0
2486,9011601028214,新規,0,2024-11-20,2024-11-20,株式会社古月苑,,株式会社,東京都,練馬区,東大泉４丁目１８番１５号,,13,120,1780063,,,,,,,2024-11-20,1,,,,,コゲツエン,0
2487,9011701027818,新規,0,2024-11-20,2024-11-20,株式会社ロマネスジャパン,,株式会社,東京都,江戸川区,中葛西５丁目４１－１０ＢＰＲプレイス葛西６階・７階,,13,123,1340083,,,,,,,2024-11-20,1,,,,,ロマネスジャパン,0
2506,9020001160188,新規,0,2024-11-20,2024-11-20,株式会社オブジェクトワークス,,株式会社,神奈川県,川崎市高津区,子母口４３９番地１０,,14,134,2130023,,,,,,,2024-11-20,1,,,,,オブジェクトワークス,0
2507,9020001160196,新規,0,2024-11-20,2024-11-20,株式会社マオ工業,,株式会社,神奈川県,横浜市鶴見区,尻手１丁目９番２１－８号,,14,101,2300003,,,,,,,2024-11-20,1,,,,,マオコウギョウ,0
2508,9020001160254,新規,0,2024-11-20,2024-11-20,ハッピーパピー株式会社,,株式会社,神奈川県,横浜市緑区,白山１丁目１番２０－１０５号,,14,113,2260006,,,,,,,2024-11-20,1,,,,,ハッピーパピー,0
2509,9020001160262,新規,0,2024-11-20,2024-11-20,ＪＲＴ株式会社,,株式会社,神奈川県,横浜市中区,本町４丁目４１番１５０１号,,14,104,2310005,,,,,,,2024-11-20,1,,,,,ジェーアールティー,0
2515,9020003027261,新規,0,2024-11-20,2024-11-20,合同会社優,,合同会社,神奈川県,横浜市港南区,上大岡西２丁目９番２８号上大岡スカイマンション２１０,,14,111,2330002,,,,,,,2024-11-20,1,,,,,ユウ,0
2521,9021001083809,新規,0,2024-11-20,2024-11-20,株式会社ルーナドッグ,,株式会社,神奈川県,小田原市,成田５４番地の３,,14,206,2500862,,,,,,,2024-11-20,1,,,,,ルーナドッグ,0
2522,9021001083817,新規,0,2024-11-20,2024-11-20,株式会社ＩＲＨ,,株式会社,神奈川県,相模原市南区,西大沼２丁目１９番地２１号,,14,153,2520332,,,,,,,2024-11-20,1,,,,,アイアールエイチ,0
2525,9021005013225,新規,0,2024-11-20,2024-11-20,特定非営利活動法人とどまる会,,その他の設立登記法人,神奈川県,中郡二宮町,二宮１１２６番地の２,,14,342,2590123,,,,,,,2024-11-20,1,,,,,トドマルカイ,0
2530,9030001163578,新規,0,2024-11-20,2024-11-20,株式会社ムーンショット,,株式会社,埼玉県,さいたま市中央区,新都心４番地４（１６０６号）,,11,105,3300081,,,,,,,2024-11-20,1,,,,,ムーンショット,0
2543,9040001136228,新規,0,2024-11-20,2024-11-20,株式会社いこいの住処,,株式会社,千葉県,市川市,南大野３丁目１５番３号,,12,203,2720804,,,,,,,2024-11-20,1,,,,,イコイノスミカ,0
2554,9070001042381,新規,0,2024-11-20,2024-11-20,ＳＫｗｏｒｋｓ株式会社,,株式会社,群馬県,伊勢崎市,境伊与久１６７７番地１２,,10,204,3700105,,,,,,,2024-11-20,1,,,,,エスケーワークス,0
2559,9100005013251,新規,0,2024-11-20,2024-11-20,一般社団法人Ｎａｔｉｏｎａｌ　Ｗｏｒｋ　Ｐｒｏｔｅｃｔｉｏｎ,,その他の設立登記法人,長野県,松本市,大字里山辺５１６番地５,,20,202,3900221,,,,,,,2024-11-20,1,,,,,ナショナルワークプロテクション,0
2565,9120001270423,新規,0,2024-11-20,2024-11-20,株式会社ｓｉｄｅ　Ｃ,,株式会社,大阪府,大阪市淀川区,木川東４丁目１７番９－７０１号,,27,123,5320012,,,,,,,2024-11-20,1,,,,,サイドシー,0
2566,9120001270431,新規,0,2024-11-20,2024-11-20,株式会社ナミノオト,,株式会社,大阪府,枚方市,堂山２丁目３５番８号,,27,210,5730007,,,,,,,2024-11-20,1,,,,,ナミノオト,0
2569,9120003027994,新規,0,2024-11-20,2024-11-20,合同会社ｍｅｒｃｉ,,合同会社,大阪府,大阪市住吉区,帝塚山東１丁目３番３４－１０１号,,27,120,5580054,,,,,,,2024-11-20,1,,,,,メルシー,0
2570,9120003028002,新規,0,2024-11-20,2024-11-20,合同会社Ｍ＆Ｎ,,合同会社,大阪府,大阪市西成区,萩之茶屋３丁目２－３アパートポンヘイ１００号室,,27,122,5570004,,,,,,,2024-11-20,1,,,,,エムアンドエヌ,0
2571,9120003028019,新規,0,2024-11-20,2024-11-20,ヒメルト合同会社,,合同会社,大阪府,大阪市鶴見区,横堤４丁目２７番１５－２０７,,27,124,5380052,,,,,,,2024-11-20,1,,,,,ヒメルト,0
2573,9120101070599,新規,0,2024-11-20,2024-11-20,浅美株式会社,,株式会社,大阪府,羽曳野市,はびきの４丁目１７番６号,,27,222,5830872,,,,,,,2024-11-20,1,,,,,アサミ,0
2581,9130001078378,新規,0,2024-11-20,2024-11-20,仁讓株式会社,,株式会社,京都府,京都市伏見区,醍醐勝口町３番地７８,,26,109,6011334,,,,,,,2024-11-20,1,,,,,ジンジョウ,0
2582,9130003010017,新規,0,2024-11-20,2024-11-20,合同会社Ｏｔｏ,,合同会社,京都府,京都市伏見区,横大路貴船５４番地,,26,109,6128297,,,,,,,2024-11-20,1,,,,,オト,0
2590,9140001136481,新規,0,2024-11-20,2024-11-20,株式会社ビロー,,株式会社,兵庫県,神戸市西区,北別府４丁目２０９８番地の１,,28,111,6512117,,,,,,,2024-11-20,1,,,,,ビロー,0
2595,9150001027688,新規,0,2024-11-20,2024-11-20,株式会社匠叶ＧＲＯＵＰ,,株式会社,奈良県,磯城郡川西町,大字保田２８９番地,,29,361,6360205,,,,,,,2024-11-20,1,,,,,タクトグループ,0
2597,9160001026367,新規,0,2024-11-20,2024-11-20,株式会社サンフィールズ,,株式会社,滋賀県,栗東市,安養寺６丁目６番２８号,,25,208,5203015,,,,,,,2024-11-20,1,,,,,サンフィールズ,0
2609,9180001164198,新規,0,2024-11-20,2024-11-20,株式会社愛知建,,株式会社,愛知県,名古屋市港区,宝神町字西屋敷１１１３番地,,23,111,4550833,,,,,,,2024-11-20,1,,,,,アイチケン,0
2610,9180001164207,新規,0,2024-11-20,2024-11-20,清水開発株式会社,,株式会社,愛知県,春日井市,東野新町２丁目１４番地２０,,23,206,4860816,,,,,,,2024-11-20,1,,,,,シミズカイハツ,0
2611,9180001164256,新規,0,2024-11-20,2024-11-20,株式会社Ｕｌｉｓｙｔｈ,,株式会社,愛知県,名古屋市瑞穂区,彌富町字円山５３番地の３４,,23,108,4670033,,,,,,,2024-11-20,1,,,,,ユリシス,0
2614,9180003027642,新規,0,2024-11-20,2024-11-20,合同会社ＣａｒｅＪａｐａｎ２０２１,,合同会社,愛知県,名古屋市緑区,鳴子町１丁目４番地鳴子団地９０棟３０２号,,23,114,4580041,,,,,,,2024-11-20,1,,,,,ケアジャパンニイゼロニイイチ,0
2615,9180005020827,新規,0,2024-11-20,2024-11-20,特定非営利活動法人あさがお,,その他の設立登記法人,愛知県,名古屋市北区,生駒町６丁目１３０番地,,23,103,4620832,,,,,,,2024-11-20,1,,,,,アサガオ,0
2616,9180005020835,新規,0,2024-11-20,2024-11-20,特定非営利活動法人ＳＯＬＯＡＩＤ,,その他の設立登記法人,愛知県,名古屋市中区,大須４丁目１１－５０,,23,106,4600011,,,,,,,2024-11-20,1,,,,,ソロエイド,0
2619,9190001031819,新規,0,2024-11-20,2024-11-20,前田ホールディングス株式会社,,株式会社,三重県,桑名市,大字福岡町２４３番地１,,24,205,5110844,,,,,,,2024-11-20,1,,,,,マエダホールディングス,0
2626,9220003003886,新規,0,2024-11-20,2024-11-20,合同会社糸,,合同会社,石川県,金沢市,橋場町１番１８号,,17,201,9200911,,,,,,,2024-11-20,1,,,,,イト,0
2629,9240001064136,新規,0,2024-11-20,2024-11-20,ＹＨ株式会社,,株式会社,広島県,広島市佐伯区,八幡東２丁目２８番３２‐１４０１号,,34,108,7315115,,,,,,,2024-11-20,1,,,,,ワイエイチ,0
2631,9250003003594,新規,0,2024-11-20,2024-11-20,合同会社ＴＥＣＴ,,合同会社,山口県,防府市,南松崎町１２番１８号,,35,206,7470027,,,,,,,2024-11-20,1,,,,,テクト,0
2632,9250005008963,新規,0,2024-11-20,2024-11-20,医療法人至誠会,,その他の設立登記法人,山口県,宇部市,大字東須恵１９６３番地,,35,202,7590206,,,,,,,2024-11-20,1,,,,,シセイカイ,0
2645,9340003004666,新規,0,2024-11-20,2024-11-20,合同会社福迫商事,,合同会社,鹿児島県,鹿児島市,荒田１丁目３６－１５,,46,201,8900054,,,,,,,2024-11-20,1,,,,,フクザコショウジ,0
2653,9370003006833,新規,0,2024-11-20,2024-11-20,合同会社はなびＪａｐａｎ,,合同会社,宮城県,遠田郡涌谷町,字本町１０６－２,,04,501,9870162,,,,,,,2024-11-20,1,,,,,ハナビジャパン,0
2662,9420003003024,新規,0,2024-11-20,2024-11-20,マルボシ海商合同会社,,合同会社,青森県,上北郡野辺地町,字大月平３０番地１３,,02,401,0393104,,,,,,,2024-11-20,1,,,,,マルボシカイショウ,0
2663,9420005007931,新規,0,2024-11-20,2024-11-20,一般社団法人チームプラネット,,その他の設立登記法人,青森県,青森市,大字羽白字沢田７７１番地,,02,201,0380058,,,,,,,2024-11-20,1,,,,,チームプラネット,0
2668,9430001093099,新規,0,2024-11-20,2024-11-20,株式会社マンナストック,,株式会社,北海道,札幌市厚別区,厚別中央一条７丁目１７番３７号,,01,108,0040051,,,,,,,2024-11-20,1,,,,,マンナストック,0
2669,9430001093108,新規,0,2024-11-20,2024-11-20,株式会社ＢＲＡ,,株式会社,北海道,札幌市中央区,南十条西７丁目５番１５号,,01,101,0640810,,,,,,,2024-11-20,1,,,,,ビーアールエー,0
2670,9430001093116,新規,0,2024-11-20,2024-11-20,四葉商事株式会社,,株式会社,北海道,石狩市,花川北二条３丁目６８番地,,01,235,0613212,,,,,,,2024-11-20,1,,,,,ヨツバショウジ,0
2684,9700150127910,新規,0,2024-11-20,2024-11-20,ＴＵＲＢＯ　ＴＨＲＩＬＬＳ　ＡＵＴＯＭＯＴＩＶＥ,,外国会社等,神奈川県,厚木市,山際８６２番地１オリエントビルＮｏ．６　１０２－Ａ,,14,212,2430803,スリランカ民主社会主義共和国、クリヤピティヤ、マダンペロード、Ｎｏ．２１２／１４,,,,,,2024-11-20,1,,,,,ターボスリルオートモーテイブ,0
