sequenceNumber,corporateNumber,process,correct,updateDate,changeDate,name,nameImageId,kind,prefectureName,cityName,streetNumber,addressImageId,prefectureCode,cityCode,postCode,addressOutside,addressOutsideImageId,closeDate,closeCause,successorCorporateNumber,changeCause,assignmentDate,latest,enName,enPrefectureName,enCityName,enAddressOutside,furigana,hihyoji
6,1010001152029,登記記録の閉鎖等,0,2023-01-10,2022-12-27,株式会社Ｋ－ＺＯＮＥ,,株式会社,東京都,千代田区,九段北１丁目８番１０号住友不動産九段ビル９階,,13,101,1020073,,,2022-12-27,合併による解散等,2010001196850,令和４年１２月２７日東京都千代田区九段北一丁目８番１０号住友不動産九段ビル９階株式会社Ｆｉｎａｔｅｘｔ（2010001196850）に合併し解散,2015-10-05,1,,,,,ケイゾン,0
8,1010001167233,登記記録の閉鎖等,0,2023-01-10,2022-12-27,株式会社ノア,,株式会社,東京都,中央区,築地２丁目１５番１５号,,13,102,1040045,,,2022-12-27,清算の結了等,,,2015-10-05,1,,,,,ノア,0
10,1010002023757,登記記録の閉鎖等,0,2023-01-10,2022-12-28,有限会社原税務会計事務所,,有限会社,東京都,中央区,京橋２丁目８番４号,,13,102,1040031,,,2022-12-28,清算の結了等,,,2015-10-05,1,,,,,ハラゼイムカイケイジムショ,0
17,1010005034495,登記記録の閉鎖等,0,2023-01-10,2023-01-05,エスティクサツ一般社団法人,,その他の設立登記法人,東京都,千代田区,丸の内３丁目１番１号東京共同会計事務所内,,13,101,1000005,,,2023-01-05,清算の結了等,,,2022-01-25,1,,,,,エスティクサツ,0
29,1010405001525,登記記録の閉鎖等,0,2023-01-10,2022-12-22,妙法龍子教会,,その他の設立登記法人,東京都,港区,西麻布３丁目２１番２０－３０９号,,13,103,1060031,,,2022-12-22,清算の結了等,,,2015-10-05,1,,,,,ミョウホウリュウシキョウカイ,0
34,1010501029486,登記記録の閉鎖等,0,2023-01-10,2023-01-04,株式会社フェアリー,,株式会社,東京都,台東区,下谷１丁目４番５号,,13,106,1100004,,,2023-01-04,合併による解散等,6010502011372,令和４年１２月３１日東京都台東区池之端三丁目１番３３号株式会社フェアリー（6010502011372）に合併し解散,2015-10-05,1,,,,,フェアリー,0
37,1010603007563,登記記録の閉鎖等,0,2023-01-10,2022-12-26,合同会社Ｓｏｕｒｃｅｓ　ｏｆ　ｌｉｆｅ,,合同会社,東京都,立川市,砂川町５丁目３０番地５－１０３号室,,13,202,1900031,,,2022-12-26,清算の結了等,,,2018-11-30,1,,,,,ソーシーズオブライフ,0
42,1010702003595,登記記録の閉鎖等,0,2023-01-10,2023-01-04,有限会社佐藤徳商店,,有限会社,東京都,品川区,北品川５丁目１２番９号,,13,109,1410001,,,2023-01-04,清算の結了等,,,2015-10-05,1,,,,,サトウトクショウテン,0
60,1011103005578,登記記録の閉鎖等,0,2023-01-10,2023-01-04,敷島興産合同会社,,合同会社,東京都,新宿区,新宿３丁目１２番４号新宿Ｎタウンプラザ,,13,104,1600022,,,2023-01-04,合併による解散等,6011103007082,令和５年１月１日東京都新宿区新宿三丁目１２番４号新宿Ｎタウンプラザ房総興産合同会社（6011103007082）に合併し解散,2015-10-05,1,,,,,シキシマコウサン,0
76,1011602002885,登記記録の閉鎖等,0,2023-01-10,2023-01-04,有限会社協和科学,,有限会社,東京都,練馬区,練馬１丁目６番１２－３０４号,,13,120,1760001,,,2023-01-04,清算の結了等,,,2015-10-05,1,,,,,キョウワカガク,0
83,1011802000078,登記記録の閉鎖等,0,2023-01-10,2022-12-27,有限会社アーキテック,,有限会社,東京都,葛飾区,鎌倉３丁目４６番１８号,,13,122,1250053,,,2022-12-27,清算の結了等,,,2015-10-05,1,,,,,アーキテック,0
88,1013202012546,登記記録の閉鎖等,0,2023-01-10,2022-12-26,有限会社ヴァンクール,,有限会社,東京都,目黒区,下目黒１丁目３番２０－７０４号,,13,110,1530064,,,2022-12-26,清算の結了等,,,2015-10-05,1,,,,,ヴァンクール,0
116,1040001089854,登記記録の閉鎖等,0,2023-01-10,2023-01-04,株式会社並木組,,株式会社,千葉県,船橋市,三咲６丁目３４番１２号,,12,204,2740812,,,2023-01-04,清算の結了等,,,2015-10-05,1,,,,,ナミキグミ,0
131,1070001006988,登記記録の閉鎖等,0,2023-01-10,2023-01-04,株式会社酒井酒造店,,株式会社,群馬県,高崎市,九蔵町８３番地,,10,202,3700058,,,2023-01-04,清算の結了等,,,2015-10-05,1,,,,,サカイシュゾウテン,0
133,1070002017662,登記記録の閉鎖等,0,2023-01-10,2022-12-28,有限会社野口薬局,,有限会社,群馬県,藤岡市,藤岡８０３番地２,,10,209,3750024,,,2022-12-28,清算の結了等,,,2015-10-05,1,,,,,ノグチヤッキョク,0
135,1080001013257,登記記録の閉鎖等,0,2023-01-10,2023-01-05,フタバ食品工業株式会社,,株式会社,静岡県,島田市,神座２０８６番地,,22,209,4270032,,,2023-01-05,合併による解散等,3080001004584,令和５年１月１日静岡市葵区昭和町５番地の１１フタバ興産株式会社（3080001004584）に合併し解散,2015-10-05,1,,,,,フタバショクヒンコウギョウ,0
143,1100001008196,登記記録の閉鎖等,0,2023-01-10,2023-01-04,株式会社佐久高原ケーブルビジョン,,株式会社,長野県,南佐久郡佐久穂町,大字高野町１１７０番地４,,20,309,3840613,,,2023-01-04,清算の結了等,,,2015-10-05,1,,,,,サクコウゲンケーブルビジョン,0
153,1110005008035,登記記録の閉鎖等,0,2023-01-10,2023-01-04,特定非営利活動法人にいがた士業ネット,,その他の設立登記法人,新潟県,新潟市中央区,新光町１０番地３技術士センタービルＩＩ４０４号,00107030,15,103,9500965,,,2023-01-04,清算の結了等,,,2015-10-05,1,,,,,ニイガタシギョウネット,0
164,1122001015682,登記記録の閉鎖等,0,2023-01-10,2023-01-05,内外精機株式会社,,株式会社,大阪府,大東市,新田北町５番４３号,,27,218,5740052,,,2023-01-05,合併による解散等,2120001000869,令和５年１月１日大阪府守口市八雲中町二丁目１０番１７号内外精機工業株式会社（2120001000869）に合併し解散,2015-10-05,1,,,,,ナイガイセイキ,0
168,1130001040502,登記記録の閉鎖等,0,2023-01-10,2022-12-26,京都住宅資材株式会社,,株式会社,京都府,宮津市,字獅子崎小字問屋町１４４番地の１３,,26,205,6260065,,,2022-12-26,清算の結了等,,,2015-10-05,1,,,,,キョウトジュウタクシザイ,0
169,1130001072859,登記記録の閉鎖等,0,2023-01-10,2022-12-27,コンティーヌエ株式会社,,株式会社,京都府,舞鶴市,大字森小字駒谷１０５番地３,,26,202,6250000,,,2022-12-27,合併による解散等,8130001044488,令和４年１２月２７日京都府舞鶴市大字森小字駒谷１０５－３ドリームドリーム株式会社（8130001044488）に合併し解散,2022-10-19,1,,,,,コンティーヌエ,0
187,1180001075527,登記記録の閉鎖等,0,2023-01-10,2023-01-04,愛日設計株式会社,,株式会社,愛知県,小牧市,大字下末１２８９番地,,23,219,4850825,,,2023-01-04,清算の結了等,,,2015-10-05,1,,,,,アイニチセッケイ,0
188,1180001093636,登記記録の閉鎖等,0,2023-01-10,2023-01-04,東浦三共株式会社,,株式会社,愛知県,知多郡東浦町,大字森岡字栄北６０番地１９,,23,442,4702101,,,2023-01-04,合併による解散等,7180001094975,令和５年１月１日愛知県知多郡東浦町大字森岡字栄北６０番地２１名和三共株式会社（7180001094975）に合併し解散,2015-10-05,1,,,,,ヒガシウラサンキョウ,0
201,1180005017509,登記記録の閉鎖等,0,2023-01-10,2023-01-04,税理士法人伊勢山会計,,その他の設立登記法人,愛知県,名古屋市中区,錦２丁目５番５号八木兵伝馬町ビル３Ｆ,,23,106,4600003,,,2023-01-04,清算の結了等,,,2017-10-05,1,,,,,イセヤマカイケイ,0
207,1210001004473,登記記録の閉鎖等,0,2023-01-10,2023-01-04,渡辺繊維株式会社,,株式会社,福井県,福井市,清水畑町第１７号２１番地,,18,201,9103646,,,2023-01-04,清算の結了等,,,2015-10-05,1,,,,,ワタナベセンイ,0
214,1240001005114,登記記録の閉鎖等,0,2023-01-10,2023-01-05,城山プレス工業株式会社,,株式会社,広島県,広島市西区,観音本町２丁目８番２９号,,34,104,7330033,,,2023-01-05,清算の結了等,,,2015-10-05,1,,,,,シロヤマプレスコウギョウ,0
249,1350005005611,登記記録の閉鎖等,0,2023-01-10,2023-01-06,一般社団法人綾町農業支援センター,,その他の設立登記法人,宮崎県,東諸県郡綾町,大字南俣１１２８番地,,45,383,8801303,,,2023-01-06,清算の結了等,,,2016-07-06,1,,,,,アヤチョウノウギョウシエンセンター,0
264,1400001004801,登記記録の閉鎖等,0,2023-01-10,2023-01-06,株式会社ゼームス,,株式会社,岩手県,盛岡市,下米内１丁目６番６号,,03,201,0200003,,,2023-01-06,登記官による閉鎖,,,2015-10-05,1,,,,,,0
265,1400002004511,登記記録の閉鎖等,0,2023-01-10,2023-01-06,有限会社高橋組,00085575,有限会社,岩手県,盛岡市,繋字山根２００－２５,,03,201,0200055,,,2023-01-06,登記官による閉鎖,,,2015-10-05,1,,,,,,0
266,1400002011508,登記記録の閉鎖等,0,2023-01-10,2023-01-06,有限会社釜石ギフト,,有限会社,岩手県,釜石市,新町７番４０号,,03,211,0260043,,,2023-01-06,登記官による閉鎖,,,2015-10-05,1,,,,,,0
267,1400002011573,登記記録の閉鎖等,0,2023-01-10,2023-01-06,有限会社慶吉屋商店,,有限会社,岩手県,釜石市,大町１丁目８番１０号,,03,211,0260024,,,2023-01-06,登記官による閉鎖,,,2015-10-05,1,,,,,,0
269,1400003002662,登記記録の閉鎖等,0,2023-01-10,2023-01-06,合同会社ちびらーさん,,合同会社,岩手県,久慈市,宇部町５－１１９,,03,207,0288111,,,2023-01-06,清算の結了等,,,2020-09-09,1,,,,,,0
286,1480002015088,登記記録の閉鎖等,0,2023-01-10,2023-01-05,有限会社美馬本建材,,有限会社,徳島県,美馬市,脇町野村４３８７番地,,36,207,7793620,,,2023-01-05,清算の結了等,,,2015-10-05,1,,,,,ミマモトケンザイ,0
287,1490001007052,登記記録の閉鎖等,0,2023-01-10,2023-01-05,株式会社清流,,株式会社,高知県,四万十市,鵜ノ江１４９１番地２,,39,210,7871226,,,2023-01-05,清算の結了等,,,2015-10-05,1,,,,,セイリュウ,0
297,2010001020894,登記記録の閉鎖等,0,2023-01-10,2022-12-27,株式会社セキグチビジネス,,株式会社,東京都,千代田区,神田神保町３丁目２番地,,13,101,1010051,,,2022-12-27,清算の結了等,,,2015-10-05,1,,,,,セキグチビジネス,0
312,2010401107564,登記記録の閉鎖等,0,2023-01-10,2022-12-27,日総トライリンク株式会社,,株式会社,東京都,港区,麻布台１丁目１１番１０号日総第２２ビル,,13,103,1060041,,,2022-12-27,合併による解散等,5010401055967,令和４年１２月２７日東京都港区麻布台一丁目１１番１０号日総ビルディング株式会社（5010401055967）に合併し解散,2015-10-05,1,,,,,ニッソウトライリンク,0
313,2010401161784,登記記録の閉鎖等,0,2023-01-10,2022-12-21,広尾フラワーストリート株式会社,,株式会社,東京都,港区,元麻布２丁目１番２０,,13,103,1060046,,,2022-12-21,清算の結了等,,,2021-08-03,1,,,,,ヒロオフラワーストリート,0
350,2011703001232,登記記録の閉鎖等,0,2023-01-10,2023-01-04,プロスペリティ合同会社,,合同会社,東京都,江戸川区,東小岩３丁目７番１８号,,13,123,1330052,,,2023-01-04,清算の結了等,,,2015-10-05,1,,,,,プロスペリティ,0
366,2020001049009,登記記録の閉鎖等,0,2023-01-10,2022-12-28,旭エステート株式会社,,株式会社,神奈川県,横浜市都筑区,葛が谷１０番５,,14,118,2240062,,,2022-12-28,合併による解散等,3020001094210,令和４年１２月２８日横浜市西区楠町２７番地９株式会社コンパス（3020001094210）に合併し解散,2015-10-05,1,,,,,アサヒエステート,0
376,2030001077454,登記記録の閉鎖等,0,2023-01-10,2023-01-04,株式会社武蔵野会館,,株式会社,埼玉県,川口市,柳崎１丁目２２番１号,,11,203,3330861,,,2023-01-04,清算の結了等,,,2015-10-05,1,,,,,,0
379,2030001125262,登記記録の閉鎖等,0,2023-01-10,2022-12-28,株式会社ＦＲＥＤＥＲＩＱＳ,,株式会社,埼玉県,さいたま市大宮区,桜木町１丁目３６６番地９,,11,103,3300854,,,2022-12-28,清算の結了等,,,2018-04-26,1,,,,,フレドリックス,0
384,2030003004266,登記記録の閉鎖等,0,2023-01-10,2023-01-04,合同会社Ｋｒｅｙ,,合同会社,埼玉県,川口市,大字安行領根岸２２５０番地の１,,11,203,3330834,,,2023-01-04,清算の結了等,,,2015-10-05,1,,,,,クレイ,0
387,2040001072009,登記記録の閉鎖等,0,2023-01-10,2023-01-04,関宿不動産株式会社,,株式会社,千葉県,野田市,木間ケ瀬５０４９番地６,,12,208,2700222,,,2023-01-04,清算の結了等,,,2015-10-05,1,,,,,,0
409,2100002007816,登記記録の閉鎖等,0,2023-01-10,2023-01-04,有限会社フクダソリューション,,有限会社,長野県,上水内郡飯綱町,大字牟礼７０８番地４,,20,590,3891211,,,2023-01-04,清算の結了等,,,2015-10-05,1,,,,,フクダソリューション,0
411,2100002026361,登記記録の閉鎖等,0,2023-01-10,2022-12-28,有限会社小林写眞店,,有限会社,長野県,北安曇郡松川村,７０１９番地,,20,482,3998501,,,2022-12-28,清算の結了等,,,2015-10-05,1,,,,,コバヤシシャシンテン,0
433,2120002041540,登記記録の閉鎖等,0,2023-01-10,2023-01-04,有限会社プレビジョン,,有限会社,大阪府,大阪市北区,梅田１丁目１１番４－１１００号,,27,127,5300001,,,2023-01-04,清算の結了等,,,2015-10-05,1,,,,,プレビジョン,0
456,2140001088969,登記記録の閉鎖等,0,2023-01-10,2022-12-26,ヴァロース株式会社,,株式会社,兵庫県,神戸市東灘区,岡本２丁目７番１号,,28,101,6580072,,,2022-12-26,合併による解散等,8140001022939,令和４年１２月２６日神戸市東灘区岡本二丁目７番１号株式会社ファンクレール（8140001022939）に合併し解散,2015-10-05,1,,,,,ヴァロース,0
470,2180001150519,登記記録の閉鎖等,0,2023-01-10,2023-01-04,思美貿易株式会社,,株式会社,愛知県,長久手市,仲田１０８番地,,23,238,4801167,,,2023-01-04,清算の結了等,,,2022-03-24,1,,,,,コトミボウエキ,0
487,2190002018706,登記記録の閉鎖等,0,2023-01-10,2023-01-05,有限会社Ｍｚ　ＰＬＡＮＮＩＮＧ,,有限会社,三重県,桑名市,松ノ木４丁目７番地７７,,24,205,5110902,,,2023-01-05,清算の結了等,,,2015-10-05,1,,,,,エムズプランニング,0
492,2200001009035,登記記録の閉鎖等,0,2023-01-10,2023-01-06,株式会社ディライトインホーム,,株式会社,岐阜県,岐阜市,西島町１６番１６号,,21,201,5020912,,,2023-01-06,清算の結了等,,,2015-10-05,1,,,,,ディライトインホーム,0
521,2290001080928,登記記録の閉鎖等,0,2023-01-10,2023-01-04,株式会社アイランドスタイルホテル＆リゾート,,株式会社,福岡県,久留米市,東町３８番地１３,,40,203,8300032,,,2023-01-04,合併による解散等,4290001048452,令和５年１月１日福岡県久留米市東櫛原町２８５１番地１株式会社駅前不動産（4290001048452）に合併し解散,2018-03-29,1,,,,,アイランドスタイルホテルアンドリゾート,0
531,2300002000890,登記記録の閉鎖等,0,2023-01-10,2023-01-04,有限会社高木瀬コンタクトレンズ,,有限会社,佐賀県,佐賀市,高木瀬東２丁目１５番２号,,41,201,8490922,,,2023-01-04,清算の結了等,,,2015-10-05,1,,,,,タカギセコンタクトレンズ,0
533,2300003000733,登記記録の閉鎖等,0,2023-01-10,2023-01-04,合同会社ステップワン,,合同会社,佐賀県,佐賀市,諸富町大字徳富２０６９番地６,,41,201,8402104,,,2023-01-04,合併による解散等,8300001008500,令和５年１月１日佐賀市川副町大字西古賀２３番地６株式会社ノグチ（8300001008500）に合併し解散,2015-10-05,1,,,,,ステップワン,0
553,2390001010148,登記記録の閉鎖等,0,2023-01-10,2022-12-28,株式会社ムラヤマ建装,,株式会社,山形県,米沢市,万世町桑山４２７４番地,,06,202,9921123,,,2022-12-28,清算の結了等,,,2015-10-05,1,,,,,ムラヤマケンソウ,0
555,2400001004478,登記記録の閉鎖等,0,2023-01-10,2023-01-06,株式会社紫杜工匠,,株式会社,岩手県,紫波郡紫波町,彦部字堰田２２番地４,,03,321,0283315,,,2023-01-06,登記官による閉鎖,,,2015-10-05,1,,,,,,0
559,2400002009716,登記記録の閉鎖等,0,2023-01-10,2023-01-06,有限会社マルカ室内装飾,,有限会社,岩手県,北上市,上野町１丁目２番２１号,,03,206,0240021,,,2023-01-06,登記官による閉鎖,,,2015-10-05,1,,,,,,0
560,2400002010285,登記記録の閉鎖等,0,2023-01-10,2023-01-06,有限会社スズキ時計堂,,有限会社,岩手県,遠野市,中央通り５番２８号,,03,208,0280523,,,2023-01-06,登記官による閉鎖,,,2015-10-05,1,,,,,,0
561,2400005000291,登記記録の閉鎖等,0,2023-01-10,2023-01-06,岩手県コンクリート製品協同組合,,その他の設立登記法人,岩手県,盛岡市,内丸１４番８号,,03,201,0200023,,,2023-01-06,登記官による閉鎖,,,2015-10-05,1,,,,,,0
565,2400502000273,登記記録の閉鎖等,0,2023-01-10,2023-01-06,有限会社小岩管工事,,有限会社,岩手県,一関市,上坊３番１５号,,03,209,0210006,,,2023-01-06,登記官による閉鎖,,,2015-10-05,1,,,,,,0
566,2400601000406,登記記録の閉鎖等,0,2023-01-10,2023-01-06,北日本設備工業株式会社,,株式会社,岩手県,奥州市,江刺愛宕字橋本８２番地,,03,215,0231131,,,2023-01-06,登記官による閉鎖,,,2015-10-05,1,,,,,,0
567,2402701000475,登記記録の閉鎖等,0,2023-01-10,2023-01-06,株式会社デザインルーム,,株式会社,岩手県,大船渡市,猪川町字久名畑９８番地５,,03,203,0220004,,,2023-01-06,登記官による閉鎖,,,2015-10-05,1,,,,,,0
583,3010001098856,登記記録の閉鎖等,0,2023-01-10,2022-12-28,株式会社映広,,株式会社,東京都,千代田区,丸の内２丁目２番１号岸本ビルヂング６階,,13,101,1000005,,,2022-12-28,清算の結了等,,,2015-10-05,1,,,,,,0
585,3010001163049,登記記録の閉鎖等,0,2023-01-10,2022-12-27,株式会社トライ,,株式会社,東京都,中央区,銀座３丁目４番５号,,13,102,1040061,,,2022-12-27,清算の結了等,,,2015-10-05,1,,,,,トライ,0
594,3010003024488,登記記録の閉鎖等,0,2023-01-10,2022-12-27,合同会社ＡＳＧＪ　ＰＲＯＪＥＣＴ１,,合同会社,東京都,中央区,銀座１丁目６番１１号土志田ビルディング３Ｆ,,13,102,1040061,,,2022-12-27,清算の結了等,,,2016-12-06,1,,,,,エーエスジージェイプロジェクトワン,0
595,3010003025750,登記記録の閉鎖等,0,2023-01-10,2022-12-27,合同会社シーバード・インベストメント,,合同会社,東京都,千代田区,紀尾井町４番３,,13,101,1020094,,,2022-12-27,清算の結了等,,,2017-07-26,1,,,,,シーバードインベストメント,0
597,3010003036087,登記記録の閉鎖等,0,2023-01-10,2022-12-27,合同会社ＣＴＦ１号,,合同会社,東京都,中央区,八丁堀４丁目２番１０号ＡＯＪ税理士法人内,,13,102,1040032,,,2022-12-27,清算の結了等,,,2021-10-27,1,,,,,シーティーエフイチゴウ,0
612,3010405017874,登記記録の閉鎖等,0,2023-01-10,2022-12-21,Ｐｏｌａｒｉｓ特定目的会社,,その他の設立登記法人,東京都,港区,虎ノ門５丁目１番４号,,13,103,1050001,,,2022-12-21,清算の結了等,,,2019-07-12,1,,,,,ポラリス,0
616,3010602007562,登記記録の閉鎖等,0,2023-01-10,2022-12-27,原田ビジネス有限会社,,有限会社,東京都,江東区,東砂６丁目２０番４号,,13,108,1360074,,,2022-12-27,清算の結了等,,,2015-10-05,1,,,,,ハラダビジネス,0
619,3010903004556,登記記録の閉鎖等,0,2023-01-10,2022-12-28,クロスシーネット合同会社,,合同会社,東京都,世田谷区,上北沢５丁目３１番１－３０２号,,13,112,1560057,,,2022-12-28,清算の結了等,,,2018-09-20,1,,,,,クロスシーネット,0
638,3011601015861,登記記録の閉鎖等,0,2023-01-10,2022-12-26,株式会社コーシン,,株式会社,東京都,練馬区,向山４丁目３番１０号,,13,120,1760022,,,2022-12-26,清算の結了等,,,2015-10-05,1,,,,,コーシン,0
656,3013301031734,登記記録の閉鎖等,0,2023-01-10,2022-12-26,新電力コム株式会社,,株式会社,東京都,中央区,京橋３丁目１番１号東京スクエアガーデンＷｅＷｏｒｋ内１４階,,13,102,1040031,,,2022-12-26,合併による解散等,6010601047805,令和４年１２月２３日東京都中央区京橋三丁目１番１号東京スクエアガーデンＷｅＷｏｒｋ内１４階ＥＮＥＣＨＡＮＧＥ株式会社（6010601047805）に合併し解散,2015-10-05,1,,,,,シンデンリョクコム,0
657,3013301043201,登記記録の閉鎖等,0,2023-01-10,2023-01-04,株式会社ジャパンワールド,,株式会社,東京都,豊島区,東池袋２丁目２０番９号Ｏ・Ｓサンプラザビル３０１,,13,116,1700013,,,2023-01-04,清算の結了等,,,2018-12-07,1,,,,,ジャパンワールド,0
684,3030001049072,登記記録の閉鎖等,0,2023-01-10,2023-01-04,株式会社総合設備オオタニ,,株式会社,埼玉県,新座市,堀ノ内２丁目３番１８号,,11,230,3520023,,,2023-01-04,清算の結了等,,,2015-10-05,1,,,,,ソウゴウセツビオオタニ,0
697,3040001074111,登記記録の閉鎖等,0,2023-01-10,2022-12-28,共生株式会社,,株式会社,東京都,目黒区,下目黒３丁目１９番１１号,,13,110,1530064,,,2022-12-28,清算の結了等,,,2015-10-05,1,,,,,キョウセイ,0
698,3040001106541,登記記録の閉鎖等,0,2023-01-10,2023-01-04,株式会社ＢＵＩＬＤ　ＷＯＲＫＳ,,株式会社,千葉県,野田市,中野台鹿島町５番地の４,,12,208,2780036,,,2023-01-04,清算の結了等,,,2018-10-22,1,,,,,ビルドワークス,0
706,3040003006236,登記記録の閉鎖等,0,2023-01-10,2023-01-04,合同会社マザーグースの家,,合同会社,千葉県,柏市,名戸ケ谷１丁目７－４３コーポラスＮｏ．１０－１０５,,12,217,2770032,,,2023-01-04,清算の結了等,,,2015-10-05,1,,,,,,0
733,3120001233575,登記記録の閉鎖等,0,2023-01-10,2022-12-28,株式会社ＲｅＦｌａｍｅ,,株式会社,大阪府,大阪市西区,靱本町１丁目１８番７号ＡＸＩＳＷＥＳＴ本町ビル別館４階,,27,106,5500004,,,2022-12-28,清算の結了等,,,2020-12-04,1,,,,,リフレイム,0
746,3120901020932,登記記録の閉鎖等,0,2023-01-10,2023-01-06,株式会社ホソミ電器,,株式会社,大阪府,箕面市,小野原西１丁目１１番１７号,,27,220,5620032,,,2023-01-06,清算の結了等,,,2015-10-05,1,,,,,,0
748,3120901036111,登記記録の閉鎖等,0,2023-01-10,2023-01-04,株式会社大高工務店,00104888,株式会社,大阪府,高槻市,北大樋町４４７番地の１,,27,207,5690041,,,2023-01-04,清算の結了等,,,2015-11-06,1,,,,,,0
753,3130002014718,登記記録の閉鎖等,0,2023-01-10,2022-12-27,日出盛食品有限会社,,有限会社,京都府,京都市伏見区,恵美酒町９３０番地,,26,109,6128201,,,2022-12-27,清算の結了等,,,2015-10-05,1,,,,,ヒノデザカリショクヒン,0
797,3240002044183,登記記録の閉鎖等,0,2023-01-10,2023-01-04,有限会社佐藤総建,,有限会社,広島県,福山市,神辺町大字川南１４０８番地の１,,34,207,7202124,,,2023-01-04,清算の結了等,,,2015-10-05,1,,,,,サトウソウケン,0
813,3290801009893,登記記録の閉鎖等,0,2023-01-10,2023-01-04,株式会社キャリアライフ,,株式会社,福岡県,北九州市八幡西区,築地町４番３号,,40,109,8060001,,,2023-01-04,合併による解散等,1290801009846,令和５年１月１日北九州市八幡西区穴生三丁目１０番２４号菊竹産業株式会社（1290801009846）に合併し解散,2015-10-05,1,,,,,キャリアライフ,0
830,3350002003327,登記記録の閉鎖等,0,2023-01-10,2023-01-05,有限会社ナガノステンレス,,有限会社,宮崎県,宮崎市,村角町天神田１７１１番地１,,45,201,8800837,,,2023-01-05,清算の結了等,,,2015-10-05,1,,,,,ナガノステンレス,0
837,3400002008709,登記記録の閉鎖等,0,2023-01-10,2023-01-06,有限会社うめたか,,有限会社,岩手県,花巻市,東和町東晴山８区１１０番地,,03,205,0280113,,,2023-01-06,登記官による閉鎖,,,2015-10-05,1,,,,,,0
838,3400003001002,登記記録の閉鎖等,0,2023-01-10,2023-01-06,合同会社南部粉物本舗,,合同会社,岩手県,花巻市,上町７番地７号,,03,205,0250087,,,2023-01-06,登記官による閉鎖,,,2015-10-05,1,,,,,,0
839,3400005005174,登記記録の閉鎖等,0,2023-01-10,2023-01-06,特定非営利活動法人訪問理美容協会スマイル,,その他の設立登記法人,岩手県,盛岡市,大館町２６番５３,,03,201,0200147,,,2023-01-06,登記官による閉鎖,,,2015-10-05,1,,,,,,0
852,3462501000735,登記記録の閉鎖等,0,2023-01-10,2022-12-27,株式会社昇龍,,株式会社,北海道,標津郡中標津町,東十一条南８丁目９番地,,01,692,0861011,,,2022-12-27,清算の結了等,,,2017-06-07,1,,,,,ショウリュウ,0
868,4010001217225,登記記録の閉鎖等,0,2023-01-10,2022-12-21,株式会社ＦＡＭＭＯＧ,,株式会社,東京都,千代田区,神田練塀町３番地１２－１Ｆ,,13,101,1010022,,,2022-12-21,清算の結了等,,,2021-04-07,1,,,,,ファンモグ,0
888,4010701007231,登記記録の閉鎖等,0,2023-01-10,2022-12-28,株式会社永松賢一・游建築研究所,,株式会社,東京都,品川区,豊町３丁目２番１６号,,13,109,1420042,,,2022-12-28,清算の結了等,,,2015-10-05,1,,,,,ナガマツケンイチユウケンチクケンキュウショ,0
898,4011001035229,登記記録の閉鎖等,0,2023-01-10,2022-12-26,株式会社ディー・エイチ・サポート,,株式会社,東京都,渋谷区,円山町１２番２号,,13,113,1500044,,,2022-12-26,清算の結了等,,,2015-10-05,1,,,,,ディーエイチサポート,0
910,4011101070150,登記記録の閉鎖等,0,2023-01-10,2023-01-04,株式会社サンシャイン,,株式会社,東京都,新宿区,百人町２丁目１０番１号南雲ビル４Ｆ,,13,104,1690073,,,2023-01-04,清算の結了等,,,2015-10-05,1,,,,,サンシャイン,0
912,4011101081651,登記記録の閉鎖等,0,2023-01-10,2023-01-04,ＬＩＮＥ　ＴＩＣＫＥＴ株式会社,,株式会社,東京都,新宿区,四谷１丁目６番１号,,13,104,1600004,,,2023-01-04,清算の結了等,,,2017-09-05,1,,,,,ラインチケット,0
920,4011601005523,登記記録の閉鎖等,0,2023-01-10,2023-01-04,株式会社ハイネット,,株式会社,東京都,新宿区,住吉町２－１４,,13,104,1620065,,,2023-01-04,合併による解散等,4011101001064,令和５年１月１日東京都新宿区新宿一丁目６番３号株式会社アデランス（4011101001064）に合併し解散,2015-10-05,1,,,,,ハイネット,0
943,4030001088458,登記記録の閉鎖等,0,2023-01-10,2023-01-04,株式会社シマックス,,株式会社,埼玉県,熊谷市,上川上１００７番地２,,11,202,3600004,,,2023-01-04,清算の結了等,,,2015-10-05,1,,,,,シマックス,0
949,4030002045375,登記記録の閉鎖等,0,2023-01-10,2022-12-28,有限会社橋本工事,,有限会社,埼玉県,草加市,青柳７丁目５番１４号,,11,221,3400002,,,2022-12-28,清算の結了等,,,2015-10-05,1,,,,,ハシモトコウジ,0
950,4030002067808,登記記録の閉鎖等,0,2023-01-10,2022-12-28,有限会社イーシー企画,,有限会社,埼玉県,春日部市,梅田本町１丁目１番３号,,11,214,3440053,,,2022-12-28,清算の結了等,,,2015-10-05,1,,,,,イーシーキカク,0
953,4040001079679,登記記録の閉鎖等,0,2023-01-10,2023-01-04,株式会社ＭＳ．ＤＡＹ,,株式会社,千葉県,千葉市中央区,本千葉町６番１号,,12,101,2600014,,,2023-01-04,合併による解散等,8040001107576,令和４年１２月３１日千葉県習志野市谷津一丁目１７番２４号株式会社ＯＴ．ＤＡＹ（8040001107576）に合併し解散,2015-10-05,1,,,,,エムエスデイ,0
963,4050002035993,登記記録の閉鎖等,0,2023-01-10,2022-12-26,有限会社大観ツーリスト,,有限会社,茨城県,久慈郡大子町,大字大子７４２番地の３,,08,364,3193526,,,2022-12-26,清算の結了等,,,2015-10-05,1,,,,,ダイカンツーリスト,0
995,4120002021499,登記記録の閉鎖等,0,2023-01-10,2023-01-05,有限会社岡本エンジニアリング,,有限会社,大阪府,高石市,羽衣４丁目１３番２３－９１１号,,27,225,5920002,,,2023-01-05,清算の結了等,,,2015-10-05,1,,,,,オカモトエンジニアリング,0
999,4120101029666,登記記録の閉鎖等,0,2023-01-10,2022-12-28,株式会社住まいるカレッジ,,株式会社,大阪府,堺市堺区,錦綾町３丁８－１－８０７,,27,141,5900006,,,2022-12-28,清算の結了等,,,2015-10-05,1,,,,,スマイルカレッジ,0
1003,4120901001386,登記記録の閉鎖等,0,2023-01-10,2022-12-28,津幡技研工業株式会社,,株式会社,大阪府,摂津市,鳥飼本町４丁目１２番１２号,,27,224,5660052,,,2022-12-28,清算の結了等,,,2015-10-05,1,,,,,ツバタギケンコウギョウ,0
1008,4130001056685,登記記録の閉鎖等,0,2023-01-10,2022-12-28,株式会社にしおき,,株式会社,京都府,城陽市,水主塚ノ木６番地の１０,,26,207,6100118,,,2022-12-28,清算の結了等,,,2016-01-18,1,,,,,ニシオキ,0
1030,4180001139865,登記記録の閉鎖等,0,2023-01-10,2022-12-28,株式会社ＳＭＩＬＥ　ＯＮＥ,,株式会社,愛知県,名古屋市名東区,香南１丁目５０９番地,,23,115,4650004,,,2022-12-28,清算の結了等,,,2020-01-29,1,,,,,スマイルワン,0
1031,4180001140476,登記記録の閉鎖等,0,2023-01-10,2022-12-28,株式会社鹿野建設,,株式会社,愛知県,大府市,横根町箕手６９番地の４２,,23,223,4740011,,,2022-12-28,清算の結了等,,,2020-03-19,1,,,,,シカノケンセツ,0
1044,4180301019313,登記記録の閉鎖等,0,2023-01-10,2022-12-27,株式会社松平やな,,株式会社,愛知県,豊田市,穂積町高瀬１０番地,,23,211,4442222,,,2022-12-27,清算の結了等,,,2022-07-05,1,,,,,マツダイラヤナ,0
1052,4230002006613,登記記録の閉鎖等,0,2023-01-10,2023-01-04,有限会社ふじ,,有限会社,富山県,富山市,本宮９８７番地,,16,201,9301455,,,2023-01-04,清算の結了等,,,2015-10-05,1,,,,,フジ,0
1066,4270002009579,登記記録の閉鎖等,0,2023-01-10,2022-12-28,有限会社リンツ,,有限会社,鳥取県,東伯郡琴浦町,大字杉下４５５番地,,31,371,6892313,,,2022-12-28,清算の結了等,,,2015-10-05,1,,,,,リンツ,0
1078,4290801001305,登記記録の閉鎖等,0,2023-01-10,2023-01-04,幸映開発株式会社,,株式会社,福岡県,北九州市小倉北区,若富士町１番２６号－２Ｃ,,40,106,8020063,,,2023-01-04,合併による解散等,8290801002480,令和５年１月１日北九州市小倉北区若富士町１番２６号－２Ａ藤映産業株式会社（8290801002480）に合併し解散,2015-10-05,1,,,,,コウエイカイハツ,0
1083,4300002010665,登記記録の閉鎖等,0,2023-01-10,2023-01-04,有限会社保利商事,,有限会社,佐賀県,唐津市,鏡４６４８番地３,,41,202,8470022,,,2023-01-04,清算の結了等,,,2015-10-05,1,,,,,ホリショウジ,0
1084,4300005006933,登記記録の閉鎖等,0,2023-01-10,2022-12-06,グローバル・ネット協同組合,,その他の設立登記法人,佐賀県,佐賀市,呉服元町２番２４号,,41,201,8400824,,,2022-12-06,清算の結了等,,,2020-09-09,1,,,,,グローバルネット,0
1093,4330002026551,登記記録の閉鎖等,0,2023-01-10,2023-01-05,有限会社八代モータース,,有限会社,熊本県,八代市,東片町２９４番地の１,,43,202,8660814,,,2023-01-05,清算の結了等,,,2015-10-05,1,,,,,ヤツシロモータース,0
1114,4400002002768,登記記録の閉鎖等,0,2023-01-10,2023-01-06,有限会社福盛食品,,有限会社,岩手県,盛岡市,下飯岡１１地割９５番地１,,03,201,0200853,,,2023-01-06,登記官による閉鎖,,,2015-10-05,1,,,,,,0
1115,4400002007998,登記記録の閉鎖等,0,2023-01-10,2023-01-04,有限会社おとべ,,有限会社,岩手県,花巻市,吹張町３番７号,,03,205,0250078,,,2023-01-04,清算の結了等,,,2015-10-05,1,,,,,オトベ,0
1116,4400002013451,登記記録の閉鎖等,0,2023-01-10,2023-01-06,有限会社カワモト・プロ,,有限会社,岩手県,北上市,村崎野１４地割１７４番地１２,,03,206,0240004,,,2023-01-06,登記官による閉鎖,,,2015-10-05,1,,,,,,0
1117,4400003000614,登記記録の閉鎖等,0,2023-01-10,2023-01-06,合同会社フォアサイト,,合同会社,岩手県,花巻市,東宮野目第１３地割３３番地１,,03,205,0250003,,,2023-01-06,登記官による閉鎖,,,2015-10-05,1,,,,,,0
1118,4400005002352,登記記録の閉鎖等,0,2023-01-10,2023-01-06,農事組合法人戸沢組合,,その他の設立登記法人,岩手県,岩手郡雫石町,西安庭第４５地割４４番地の２６,,03,301,0200572,,,2023-01-06,登記官による閉鎖,,,2015-10-05,1,,,,,,0
1121,4400602001211,登記記録の閉鎖等,0,2023-01-10,2023-01-06,有限会社友人社,,有限会社,岩手県,胆沢郡金ケ崎町,三ケ尻鎌田東１番地２,,03,381,0294502,,,2023-01-06,登記官による閉鎖,,,2015-10-05,1,,,,,,0
1141,4490002009375,登記記録の閉鎖等,0,2023-01-10,2023-01-04,有限会社池澤設備,,有限会社,高知県,吾川郡いの町,枝川６５２番地６,,39,386,7812120,,,2023-01-04,清算の結了等,,,2015-10-05,1,,,,,イケザワセツビ,0
1146,5010001150937,登記記録の閉鎖等,0,2023-01-10,2022-12-20,マハリシ・ソーラー・ピース・パークス株式会社,,株式会社,東京都,千代田区,麹町２丁目１０番１０号,00060793,13,101,1020083,,,2022-12-20,清算の結了等,,,2015-10-05,1,,,,,マハリシソーラーピースパークス,0
1153,5010003025435,登記記録の閉鎖等,0,2023-01-10,2022-12-27,合同会社フランケル・インベストメント,,合同会社,東京都,千代田区,紀尾井町４番３,,13,101,1020094,,,2022-12-27,清算の結了等,,,2017-06-02,1,,,,,フランケルインベストメント,0
1157,5010005022851,登記記録の閉鎖等,0,2023-01-10,2022-12-23,アオイ特定目的会社,,その他の設立登記法人,東京都,渋谷区,広尾１丁目１１番２号嶋本公認会計士事務所気付,,13,113,1500012,,,2022-12-23,清算の結了等,,,2015-10-05,1,,,,,アオイ,0
1160,5010401081113,登記記録の閉鎖等,0,2023-01-10,2022-12-27,クリアストリーム・バンキング・ジャパン株式会社,,株式会社,東京都,千代田区,丸の内１丁目６番５号,,13,101,1000005,,,2022-12-27,清算の結了等,,,2015-10-05,1,,,,,クリアストリームバンキングジャパン,0
1170,5010601001481,登記記録の閉鎖等,0,2023-01-10,2022-12-27,株式会社金月,,株式会社,東京都,江東区,富岡１丁目７番１１号,,13,108,1350047,,,2022-12-27,清算の結了等,,,2015-10-05,1,,,,,キンゲツ,0
1171,5010601031280,登記記録の閉鎖等,0,2023-01-10,2022-12-27,株式会社プラスアール,,株式会社,東京都,江東区,東雲１丁目９番３２号,,13,108,1350062,,,2022-12-27,清算の結了等,,,2015-10-05,1,,,,,プラスアール,0
1207,5011801017813,登記記録の閉鎖等,0,2023-01-10,2023-01-04,株式会社ジェイ・サポート,,株式会社,東京都,足立区,東綾瀬２丁目１４番８号,,13,121,1200004,,,2023-01-04,清算の結了等,,,2015-10-05,1,,,,,,0
1227,5021002057765,登記記録の閉鎖等,0,2023-01-10,2022-12-27,有限会社今野設備,,有限会社,神奈川県,平塚市,真土９１番地の３,,14,203,2540017,,,2022-12-27,清算の結了等,,,2015-10-05,1,,,,,,0
1233,5030001051489,登記記録の閉鎖等,0,2023-01-10,2023-01-04,マック産業機器株式会社,,株式会社,埼玉県,春日部市,緑町５丁目３番３６号１,,11,214,3440063,,,2023-01-04,清算の結了等,,,2015-10-05,1,,,,,,0
1249,5040003009872,登記記録の閉鎖等,0,2023-01-10,2023-01-04,合同会社レズム,,合同会社,千葉県,柏市,中新宿２丁目１１番２３号,,12,217,2770066,,,2023-01-04,清算の結了等,,,2017-03-31,1,,,,,レズム,0
1252,5050001017471,登記記録の閉鎖等,0,2023-01-10,2022-12-27,株式会社久松,,株式会社,茨城県,つくば市,谷田部２０２３番地,,08,220,3050861,,,2022-12-27,清算の結了等,,,2015-10-05,1,,,,,,0
1258,5070001006266,登記記録の閉鎖等,0,2023-01-10,2022-12-26,株式会社ウチダ,,株式会社,群馬県,高崎市,根小屋町２３１３番地３７,,10,202,3701214,,,2022-12-26,清算の結了等,,,2015-10-05,1,,,,,ウチダ,0
1271,5110001010288,登記記録の閉鎖等,0,2023-01-10,2023-01-04,株式会社マイネット,,株式会社,新潟県,新潟市中央区,女池神明１丁目５番地８,,15,103,9500943,,,2023-01-04,清算の結了等,,,2015-10-05,1,,,,,マイネット,0
1286,5120102021051,登記記録の閉鎖等,0,2023-01-10,2023-01-04,有限会社國藤事務所,,有限会社,大阪府,岸和田市,岸城町１２番１０号,,27,202,5960073,,,2023-01-04,清算の結了等,,,2015-10-05,1,,,,,クニトウジムショ,0
1297,5130001033114,登記記録の閉鎖等,0,2023-01-10,2022-12-28,株式会社マテリアル,,株式会社,京都府,宇治市,伊勢田町大谷１９番地の４５,,26,204,6110043,,,2022-12-28,清算の結了等,,,2015-10-05,1,,,,,マテリアル,0
1301,5130002030688,登記記録の閉鎖等,0,2023-01-10,2022-12-28,有限会社阪田不動産,,有限会社,京都府,城陽市,大字平川小字指月４番地,,26,207,6100100,,,2022-12-28,清算の結了等,,,2015-10-05,1,,,,,サカタフドウサン,0
1322,5180001119767,登記記録の閉鎖等,0,2023-01-10,2023-01-04,株式会社太田農園,,株式会社,愛知県,知多郡美浜町,大字布土字大池３１番地３,,23,446,4702401,,,2023-01-04,清算の結了等,,,2015-10-05,1,,,,,オオタノウエン,0
1332,5180002077691,登記記録の閉鎖等,0,2023-01-10,2022-12-23,有限会社みうらや,,有限会社,愛知県,一宮市,萩原町串作字荒神浦４番地,,23,203,4910376,,,2022-12-23,清算の結了等,,,2015-10-05,1,,,,,ミウラヤ,0
1358,5240002053141,登記記録の閉鎖等,0,2023-01-10,2023-01-05,有限会社小山建設,,有限会社,広島県,三原市,高坂町真良２７４６番地,,34,204,7290472,,,2023-01-05,清算の結了等,,,2015-10-05,1,,,,,コヤマケンセツ,0
1366,5260002031459,登記記録の閉鎖等,0,2023-01-10,2023-01-05,有限会社ナカガワ工務店,,有限会社,岡山県,瀬戸内市,長船町服部１２６９番地の１,,33,212,7014276,,,2023-01-05,清算の結了等,,,2015-10-05,1,,,,,ナカガワコウムテン,0
1381,5290801001758,登記記録の閉鎖等,0,2023-01-10,2023-01-04,正映建設工業株式会社,,株式会社,福岡県,北九州市小倉北区,若富士町１番２６号－２Ｂ,,40,106,8020063,,,2023-01-04,合併による解散等,8290801002480,令和５年１月１日北九州市小倉北区若富士町１番２６号－２Ａ藤映産業株式会社（8290801002480）に合併し解散,2015-10-05,1,,,,,ショウエイケンセツコウギョウ,0
1385,5290805007157,登記記録の閉鎖等,0,2023-01-10,2023-01-05,医療法人博邦会きむらクリニック,,その他の設立登記法人,福岡県,行橋市,大橋３丁目５番１号,,40,213,8240003,,,2023-01-05,清算の結了等,,,2015-10-05,1,,,,,ハクホウカイキムラクリニック,0
1387,5310002019985,登記記録の閉鎖等,0,2023-01-10,2023-01-06,有限会社佐々石油,,有限会社,長崎県,松浦市,志佐町高野免１１９９番地１,,42,208,8594503,,,2023-01-06,清算の結了等,,,2015-10-05,1,,,,,サザセキユ,0
1388,5320001002867,登記記録の閉鎖等,0,2023-01-10,2023-01-04,菱甲産業株式会社,,株式会社,大分県,大分市,花津留１丁目１２番３１号,,44,201,8700933,,,2023-01-04,合併による解散等,5320001008402,令和５年１月１日大分市花津留一丁目１２番３１号リョウコウホールディングス株式会社（5320001008402）に合併し解散,2015-10-05,1,,,,,リョウコウサンギョウ,0
1410,5400001003709,登記記録の閉鎖等,0,2023-01-10,2023-01-06,安住ホームズ株式会社,,株式会社,岩手県,盛岡市,中野１丁目１９番２４号,,03,201,0200816,,,2023-01-06,登記官による閉鎖,,,2015-10-05,1,,,,,,0
1413,5400002011834,登記記録の閉鎖等,0,2023-01-10,2023-01-06,有限会社丸正スズキ販売,,有限会社,岩手県,釜石市,片岸町第１地割９番地１,,03,211,0260302,,,2023-01-06,登記官による閉鎖,,,2015-10-05,1,,,,,,0
1414,5400005002574,登記記録の閉鎖等,0,2023-01-10,2023-01-06,特定非営利活動法人いいものクラブ,,その他の設立登記法人,岩手県,盛岡市,三ツ割字櫃石２０番地１有限会社ダイユウ機販明広内,,03,201,0200011,,,2023-01-06,登記官による閉鎖,,,2015-10-05,1,,,,,,0
1415,5400005002896,登記記録の閉鎖等,0,2023-01-10,2023-01-06,特定非営利活動法人メディカルハーモニー,,その他の設立登記法人,岩手県,盛岡市,大通３丁目９番２９号,,03,201,0200022,,,2023-01-06,登記官による閉鎖,,,2015-10-05,1,,,,,,0
1416,5400601000080,登記記録の閉鎖等,0,2023-01-10,2023-01-06,角久土地建物株式会社,,株式会社,岩手県,奥州市,水沢東大通り２丁目１番１２号,,03,215,0230828,,,2023-01-06,登記官による閉鎖,,,2015-10-05,1,,,,,,0
1417,5402705000015,登記記録の閉鎖等,0,2023-01-10,2023-01-06,農事組合法人住田ブロイラー生産組合,,その他の設立登記法人,岩手県,気仙郡住田町,下有住字十文字８７番地９,,03,441,0292502,,,2023-01-06,登記官による閉鎖,,,2015-10-05,1,,,,,,0
1418,5402705000064,登記記録の閉鎖等,0,2023-01-10,2023-01-06,全国繊維化学食品流通サービス一般労働組合同盟・西北グループ労働組合連合会・北日本プライウッド労働組合,,その他の設立登記法人,岩手県,大船渡市,大船渡町字中港３番地,,03,203,0220002,,,2023-01-06,登記官による閉鎖,,,2015-10-05,1,,,,,,0
1439,5490001004681,登記記録の閉鎖等,0,2023-01-10,2023-01-05,株式会社白鯨,,株式会社,高知県,高知市,菜園場町４番１０号,,39,201,7800823,,,2023-01-05,合併による解散等,2490001005955,令和５年１月１日高知市役知町１８番２号株式会社電勝（2490001005955）に合併し解散,2015-10-05,1,,,,,ハクゲイ,0
1441,5490001010283,登記記録の閉鎖等,0,2023-01-10,2023-01-05,ゼロダブルエイト株式会社,,株式会社,高知県,高知市,大津乙１２３１番地１,,39,201,7815103,,,2023-01-05,清算の結了等,,,2022-09-09,1,,,,,ゼロダブルエイト,0
1467,6010601046939,登記記録の閉鎖等,0,2023-01-10,2022-12-27,東京ビルメンテナンス株式会社,,株式会社,東京都,墨田区,錦糸３丁目１２番９号,,13,107,1300013,,,2022-12-27,清算の結了等,,,2015-10-05,1,,,,,トウキョウビルメンテナンス,0
1503,6011801035748,登記記録の閉鎖等,0,2023-01-10,2023-01-04,株式会社Ａｒｕｋｕ,,株式会社,東京都,足立区,西新井７丁目５番２０号,,13,121,1230841,,,2023-01-04,清算の結了等,,,2019-02-15,1,,,,,アルク,0
1508,6013101000060,登記記録の閉鎖等,0,2023-01-10,2023-01-04,オクダ建設株式会社,,株式会社,東京都,福生市,大字熊川４４７番地１１,,13,218,1970003,,,2023-01-04,合併による解散等,3013102000178,令和５年１月１日東京都福生市大字熊川４４７番地９株式会社オクダコーポレーション（3013102000178）に合併し解散,2015-10-05,1,,,,,オクダケンセツ,0
1509,6013301041227,登記記録の閉鎖等,0,2023-01-10,2023-01-04,株式会社ＴＴＮ　ＪＡＰＡＮ,,株式会社,東京都,豊島区,東池袋２丁目２０－９ＯＳサンプラザビル３Ｆ,,13,116,1700013,,,2023-01-04,清算の結了等,,,2017-10-10,1,,,,,ティーティーエヌジャパン,0
1546,6030003015722,登記記録の閉鎖等,0,2023-01-10,2023-01-04,合同会社ケーソリューションズ,,合同会社,埼玉県,さいたま市中央区,鈴谷６丁目１１番２２号,,11,105,3380013,,,2023-01-04,清算の結了等,,,2020-08-14,1,,,,,ケーソリューションズ,0
1547,6040001079982,登記記録の閉鎖等,0,2023-01-10,2023-01-04,株式会社大和田,,株式会社,千葉県,市原市,西五所３３番地１３シュガーコーポ１０３,,12,219,2900065,,,2023-01-04,清算の結了等,,,2015-10-05,1,,,,,,0
1570,6080001010142,登記記録の閉鎖等,0,2023-01-10,2023-01-06,株式会社ソートフル,,株式会社,静岡県,静岡市駿河区,登呂５丁目９番１４号,,22,102,4228033,,,2023-01-06,清算の結了等,,,2015-10-05,1,,,,,ソートフル,0
1580,6110002017496,登記記録の閉鎖等,0,2023-01-10,2023-01-04,有限会社野沢時計店,,有限会社,新潟県,三条市,北新保１丁目１２番９号,,15,204,9550861,,,2023-01-04,清算の結了等,,,2015-10-05,1,,,,,ノザワトケイテン,0
1602,6120901018619,登記記録の閉鎖等,0,2023-01-10,2023-01-05,フェイグファクトリ株式会社,,株式会社,大阪府,吹田市,山田東２丁目１０番３号,,27,205,5650821,,,2023-01-05,清算の結了等,,,2015-10-05,1,,,,,フェイグファクトリ,0
1604,6120902008412,登記記録の閉鎖等,0,2023-01-10,2023-01-06,有限会社岡本水道工業所,,有限会社,大阪府,摂津市,鳥飼西３丁目１２番１号－１０５,,27,224,5660072,,,2023-01-06,清算の結了等,,,2015-10-05,1,,,,,,0
1606,6122001034067,登記記録の閉鎖等,0,2023-01-10,2023-01-05,株式会社アシスト,,株式会社,大阪府,東大阪市,大蓮東５丁目１６番２６号,,27,227,5770824,,,2023-01-05,清算の結了等,,,2020-10-07,1,,,,,アシスト,0
1615,6130002009491,登記記録の閉鎖等,0,2023-01-10,2022-12-28,有限会社ライフ大八木,,有限会社,京都府,亀岡市,南つつじケ丘桜台２丁目１０番地の９,,26,206,6210847,,,2022-12-28,清算の結了等,,,2015-10-05,1,,,,,ライフオオヤギ,0
1625,6140002032575,登記記録の閉鎖等,0,2023-01-10,2022-12-28,有限会社岸本歯科技術研究所,,有限会社,兵庫県,宍粟市,山崎町五十波３４５番地の２,,28,227,6712515,,,2022-12-28,清算の結了等,,,2015-10-05,1,,,,,キシモトシカギジュツケンキュウショ,0
1632,6160002006296,登記記録の閉鎖等,0,2023-01-10,2023-01-05,有限会社梅本安平商店,,有限会社,滋賀県,長浜市,尊勝寺町２９８番地,,25,203,5260256,,,2023-01-05,清算の結了等,,,2015-10-05,1,,,,,ウメモトヤスベエショウテン,0
1647,6180303004220,登記記録の閉鎖等,0,2023-01-10,2022-12-27,深田合名会社,,合名会社,愛知県,岡崎市,若宮町２丁目３番地,,23,202,4440014,,,2022-12-27,清算の結了等,,,2018-12-06,1,,,,,フカダ,0
1711,6400001000358,登記記録の閉鎖等,0,2023-01-10,2023-01-06,奥羽興産株式会社,,株式会社,岩手県,盛岡市,名須川町１６番１０号,,03,201,0200016,,,2023-01-06,登記官による閉鎖,,,2015-10-05,1,,,,,,0
1712,6400001004482,登記記録の閉鎖等,0,2023-01-10,2023-01-06,株式会社メイディアコーポレーション,,株式会社,岩手県,盛岡市,東緑が丘１２番１号,,03,201,0200112,,,2023-01-06,登記官による閉鎖,,,2015-10-05,1,,,,,,0
1713,6400001006256,登記記録の閉鎖等,0,2023-01-10,2023-01-06,株式会社丸洲製材所,,株式会社,岩手県,北上市,下江釣子１１地割１２０番地１,,03,206,0240073,,,2023-01-06,登記官による閉鎖,,,2015-10-05,1,,,,,,0
1728,6460101003305,登記記録の閉鎖等,0,2023-01-10,2022-12-28,株式会社丸田田中木材店,,株式会社,北海道,足寄郡陸別町,字陸別本通１丁目１６番地,,01,648,0894300,,,2022-12-28,清算の結了等,,,2015-10-05,1,,,,,マルタタナカモクザイテン,0
1748,7010102004684,登記記録の閉鎖等,0,2023-01-10,2022-12-26,有限会社東京自動車サービス,,有限会社,東京都,八王子市,片倉町１４０４番地,,13,201,1920914,,,2022-12-26,清算の結了等,,,2015-10-05,1,,,,,トウキョウジドウシャサービス,0
1751,7010401094542,登記記録の閉鎖等,0,2023-01-10,2022-12-21,株式会社高橋松本＆パートナーズ,,株式会社,東京都,港区,三田３丁目１３番１６号誠真ＩＰ特許業務法人内,,13,103,1080073,,,2022-12-21,清算の結了等,,,2015-10-05,1,,,,,タカハシマツモトアンドパートナーズ,0
1779,7010901050383,登記記録の閉鎖等,0,2023-01-10,2022-12-28,株式会社ジャパンラ,,株式会社,東京都,世田谷区,深沢４丁目７番２０号パークサイドハウス３０１,,13,112,1580081,,,2022-12-28,清算の結了等,,,2022-02-18,1,,,,,ジャパンラ,0
1791,7011103006471,登記記録の閉鎖等,0,2023-01-10,2023-01-04,相模興産合同会社,,合同会社,東京都,新宿区,新宿３丁目１２番４号新宿Ｎタウンプラザ,,13,104,1600022,,,2023-01-04,合併による解散等,6011103007082,令和５年１月１日東京都新宿区新宿三丁目１２番４号新宿Ｎタウンプラザ房総興産合同会社（6011103007082）に合併し解散,2016-08-16,1,,,,,サガミコウサン,0
1796,7011801009511,登記記録の閉鎖等,0,2023-01-10,2022-12-26,株式会社拓栄,,株式会社,東京都,足立区,鹿浜７丁目２４番１５号,,13,121,1230864,,,2022-12-26,清算の結了等,,,2015-10-05,1,,,,,タクエイ,0
1798,7011802001764,登記記録の閉鎖等,0,2023-01-10,2023-01-04,有限会社海南ゴム,,有限会社,東京都,葛飾区,東四つ木４丁目３２番５号,,13,122,1240014,,,2023-01-04,清算の結了等,,,2015-10-05,1,,,,,,0
1811,7020001093423,登記記録の閉鎖等,0,2023-01-10,2023-01-04,株式会社光心サプライ,,株式会社,神奈川県,横浜市港南区,東芹が谷１３番１－６０９号,,14,111,2330005,,,2023-01-04,清算の結了等,,,2015-10-05,1,,,,,コウシンサプライ,0
1819,7021001062797,登記記録の閉鎖等,0,2023-01-10,2022-12-28,株式会社宅地開発,,株式会社,神奈川県,小田原市,栢山２９２３番地７,,14,206,2500852,,,2022-12-28,清算の結了等,,,2017-08-14,1,,,,,タクチカイハツ,0
1840,7040001101935,登記記録の閉鎖等,0,2023-01-10,2022-12-28,ウィン・トラスト・コンサルティング株式会社,,株式会社,千葉県,松戸市,北松戸２丁目８番地の１ハイホーム北松戸４０３号,,12,207,2710063,,,2022-12-28,清算の結了等,,,2017-09-26,1,,,,,ウィントラストコンサルティング,0
1857,7060002029562,登記記録の閉鎖等,0,2023-01-10,2022-12-28,有限会社遊ランド,,有限会社,栃木県,小山市,大字横倉６９２番地,,09,208,3230813,,,2022-12-28,清算の結了等,,,2015-10-05,1,,,,,ユウランド,0
1874,7110003004039,登記記録の閉鎖等,0,2023-01-10,2023-01-04,合同会社スノートライシクル,,合同会社,新潟県,妙高市,大字関山３７０３番地,,15,217,9492235,,,2023-01-04,清算の結了等,,,2019-11-07,1,,,,,スノートライシクル,0
1877,7120001141840,登記記録の閉鎖等,0,2023-01-10,2023-01-04,金泉株式会社,,株式会社,大阪府,大阪市天王寺区,上本町８丁目６番２６号,,27,109,5430001,,,2023-01-04,合併による解散等,3011001040956,令和５年１月１日大阪市天王寺区上本町八丁目６番２６号株式会社ケーシークロッシング（3011001040956）に合併し解散,2015-10-05,1,,,,,キンセン,0
1895,7120105006147,登記記録の閉鎖等,0,2023-01-10,2023-01-05,特定非営利活動法人すべての人の心に花を,,その他の設立登記法人,大阪府,岸和田市,港緑町３番１号,,27,202,5960014,,,2023-01-05,清算の結了等,,,2015-10-05,1,,,,,スベテノヒトノココロニハナヲ,0
1897,7120901028071,登記記録の閉鎖等,0,2023-01-10,2022-12-27,ウィルベース株式会社,,株式会社,東京都,中央区,勝どき２丁目１８番１号,,13,102,1040054,,,2022-12-27,清算の結了等,,,2015-10-05,1,,,,,ウィルベース,0
1905,7130002002693,登記記録の閉鎖等,0,2023-01-10,2022-12-28,有限会社永田印刷,,有限会社,京都府,京都市上京区,一条通堀川東入竪富田町４３８番地,,26,102,6020955,,,2022-12-28,清算の結了等,,,2015-10-05,1,,,,,ナガタインサツ,0
1918,7180001057916,登記記録の閉鎖等,0,2023-01-10,2023-01-04,株式会社センタライス,,株式会社,三重県,津市,雲出伊倉津町５５９番地,,24,201,5140302,,,2023-01-04,清算の結了等,,,2015-10-05,1,,,,,センタライス,0
1924,7180002033321,登記記録の閉鎖等,0,2023-01-10,2023-01-04,有限会社山川商会,,有限会社,愛知県,名古屋市中区,錦２丁目５番５号八木兵伝馬町ビル,,23,106,4600003,,,2023-01-04,清算の結了等,,,2015-10-05,1,,,,,ヤマカワショウカイ,0
1925,7180002051505,登記記録の閉鎖等,0,2023-01-10,2023-01-04,有限会社名成装飾,,有限会社,愛知県,名古屋市昭和区,石仏町１丁目６４番地の１,,23,107,4660023,,,2023-01-04,清算の結了等,,,2015-10-05,1,,,,,メイセイソウショク,0
1926,7180003023635,登記記録の閉鎖等,0,2023-01-10,2022-12-26,合同会社ＮＰＮＧ,,合同会社,愛知県,名古屋市東区,筒井町４丁目３９番地の５睦ハイツ２棟２１５号,,23,102,4610003,,,2022-12-26,清算の結了等,,,2022-03-25,1,,,,,エヌピーエヌジー,0
1928,7180301006135,登記記録の閉鎖等,0,2023-01-10,2022-12-27,株式会社高志,00074463,株式会社,愛知県,豊橋市,多米東町１丁目２１番地１０,,23,201,4400028,,,2022-12-27,清算の結了等,,,2015-10-05,1,,,,,タカシ,0
1930,7180301023923,登記記録の閉鎖等,0,2023-01-10,2022-12-26,白龍産業株式会社,,株式会社,愛知県,西尾市,港町６番地４,,23,213,4440335,,,2022-12-26,清算の結了等,,,2015-10-05,1,,,,,ハクリュウサンギョウ,0
1937,7200001036297,登記記録の閉鎖等,0,2023-01-10,2023-01-04,株式会社ＧＳ．ＣＲＥＡＴＩＯＮＳ,,株式会社,岐阜県,羽島市,竹鼻町字大仏町２２３番地２,,21,209,5016241,,,2023-01-04,合併による解散等,3200001011766,令和５年１月１日岐阜県羽島市正木町森新田四丁目３番地株式会社東海リフォームサービス（3200001011766）に合併し解散,2019-06-06,1,,,,,ジーエスクリエーションズ,0
1948,7240002032589,登記記録の閉鎖等,0,2023-01-10,2022-12-28,有限会社協立工業所,,有限会社,広島県,呉市,押込２丁目１１番１４号,,34,202,7370915,,,2022-12-28,清算の結了等,,,2015-10-05,1,,,,,キョウリツコウギョウショ,0
1959,7290003007585,登記記録の閉鎖等,0,2023-01-10,2022-12-28,合同会社アイエムシー,,合同会社,福岡県,福岡市南区,清水１丁目１９番５号,,40,134,8150031,,,2022-12-28,清算の結了等,,,2017-11-01,1,,,,,アイエムシー,0
1960,7290003008468,登記記録の閉鎖等,0,2023-01-10,2022-12-27,ＡＢＰ株式会社,,株式会社,東京都,文京区,本郷５丁目３３番１０号,,13,105,1130033,,,2022-12-27,清算の結了等,,,2018-10-22,1,,,,,エービーピー,0
1975,7340002006310,登記記録の閉鎖等,0,2023-01-10,2023-01-06,有限会社つた家,,有限会社,鹿児島県,鹿児島市,田上２丁目１６番１５号,,46,201,8900034,,,2023-01-06,清算の結了等,,,2015-10-05,1,,,,,ツタヤ,0
1979,7350002018271,登記記録の閉鎖等,0,2023-01-10,2023-01-04,有限会社サン・ヴィレッヂ,,有限会社,宮崎県,宮崎市,大塚町窪田３３６７番地１,,45,201,8800951,,,2023-01-04,合併による解散等,5350001010611,令和５年１月１日宮崎市大塚町窪田３３６７番地１株式会社サン・シティ宮崎（5350001010611）に合併し解散,2015-10-05,1,,,,,サンヴィレッヂ,0
1988,7390003001413,登記記録の閉鎖等,0,2023-01-10,2022-12-28,合同会社長井菊芋研究所,,合同会社,山形県,長井市,五十川６１９６番地１,,06,209,9930072,,,2022-12-28,清算の結了等,,,2016-11-29,1,,,,,ナガイキクイモケンキュウショ,0
1990,7400002012005,登記記録の閉鎖等,0,2023-01-10,2023-01-06,有限会社花巻屋,,有限会社,岩手県,上閉伊郡大槌町,本町８番２３号,,03,461,0281116,,,2023-01-06,登記官による閉鎖,,,2015-10-05,1,,,,,,0
1991,7400005002366,登記記録の閉鎖等,0,2023-01-10,2023-01-06,特定非営利活動法人いわて住環境保護管理機構,,その他の設立登記法人,岩手県,盛岡市,津志田南２丁目１３番３８号,,03,201,0200839,,,2023-01-06,登記官による閉鎖,,,2015-10-05,1,,,,,,0
1992,7400602001506,登記記録の閉鎖等,0,2023-01-10,2023-01-06,有限会社中野通商,,有限会社,岩手県,奥州市,水沢卸町４番地１２,,03,215,0230001,,,2023-01-06,登記官による閉鎖,,,2015-10-05,1,,,,,,0
1993,7402702000511,登記記録の閉鎖等,0,2023-01-10,2023-01-06,有限会社佐々木水産,,有限会社,岩手県,陸前高田市,広田町字泊１２７番地,,03,210,0292208,,,2023-01-06,登記官による閉鎖,,,2015-10-05,1,,,,,,0
1994,7402702000528,登記記録の閉鎖等,0,2023-01-10,2023-01-06,有限会社タイヤショップツチヤ,,有限会社,岩手県,陸前高田市,高田町字館の沖１２３番地,,03,210,0292205,,,2023-01-06,登記官による閉鎖,,,2015-10-05,1,,,,,,0
1996,7410002001956,登記記録の閉鎖等,0,2023-01-10,2023-01-04,有限会社システムメンテナンス,,有限会社,秋田県,秋田市,新屋豊町１５番１０号,,05,201,0101612,,,2023-01-04,清算の結了等,,,2015-10-05,1,,,,,システムメンテナンス,0
1998,7430001058491,登記記録の閉鎖等,0,2023-01-10,2023-01-06,株式会社恒星,,株式会社,北海道,札幌市豊平区,旭町３丁目２－２ナウパレス１Ｆ,,01,105,0620911,,,2023-01-06,清算の結了等,,,2015-10-05,1,,,,,コウセイ,0
2013,8010001153383,登記記録の閉鎖等,0,2023-01-10,2023-01-04,株式会社ＣＯＫＯ,,株式会社,東京都,豊島区,東池袋２丁目２０－９ＯＳサンプラザビル３Ｆ,,13,116,1700013,,,2023-01-04,清算の結了等,,,2015-10-05,1,,,,,,0
2014,8010001161436,登記記録の閉鎖等,0,2023-01-10,2022-12-26,前田マッコーリーキャピタル株式会社,,株式会社,東京都,千代田区,富士見２丁目１０番２号,,13,101,1020071,,,2022-12-26,清算の結了等,,,2015-10-05,1,,,,,マエダマッコーリーキャピタル,0
2018,8010002037024,登記記録の閉鎖等,0,2023-01-10,2022-12-27,有限会社郷風,,有限会社,東京都,文京区,本郷４丁目１番６号,,13,105,1130033,,,2022-12-27,清算の結了等,,,2015-10-05,1,,,,,ゴウフウ,0
2072,8011601004208,登記記録の閉鎖等,0,2023-01-10,2022-12-28,田中電業株式会社,,株式会社,東京都,練馬区,大泉町２丁目５８番３号,,13,120,1780062,,,2022-12-28,清算の結了等,,,2015-10-05,1,,,,,タナカデンギョウ,0
2086,8013303003792,登記記録の閉鎖等,0,2023-01-10,2022-12-27,湘日貿易合同会社,,合同会社,埼玉県,川口市,並木４丁目６番１８号ＧＡＹＡＮＡＭＩＫＩ３０３号,,11,203,3320034,,,2022-12-27,清算の結了等,,,2017-08-04,1,,,,,ショウニチボウエキ,0
2103,8030002084361,登記記録の閉鎖等,0,2023-01-10,2023-01-04,有限会社藤村製作所,,有限会社,埼玉県,鴻巣市,屈巣４８５３番地,,11,217,3650014,,,2023-01-04,清算の結了等,,,2015-10-05,1,,,,,フジムラセイサクショ,0
2112,8040002065484,登記記録の閉鎖等,0,2023-01-10,2023-01-04,有限会社ＦＣライン,,有限会社,千葉県,八街市,山田台１８０番地２,,12,230,2891124,,,2023-01-04,清算の結了等,,,2015-10-05,1,,,,,エフシーライン,0
2120,8050005011880,登記記録の閉鎖等,0,2023-01-10,2022-12-27,茨城家電事業協同組合,,その他の設立登記法人,茨城県,取手市,新町１丁目２番４０号,,08,217,3020024,,,2022-12-27,清算の結了等,,,2016-04-28,1,,,,,,0
2151,8120001226161,登記記録の閉鎖等,0,2023-01-10,2023-01-04,株式会社ミッテ,,株式会社,大阪府,大阪市中央区,安土町２丁目３番１３号大阪国際ビルディング,,27,128,5410052,,,2023-01-04,合併による解散等,3120001098135,令和５年１月１日大阪市中央区南本町一丁目４番１０号株式会社ベック（3120001098135）に合併し解散,2020-01-14,1,,,,,ミッテ,0
2159,8120005018200,登記記録の閉鎖等,0,2023-01-10,2023-01-05,税理士法人未来財務,,その他の設立登記法人,大阪府,大阪市北区,同心２丁目３番１９号タカラ同心ビル１Ｆ,,27,127,5300035,,,2023-01-05,清算の結了等,,,2015-10-05,1,,,,,ミライザイム,0
2171,8130001056962,登記記録の閉鎖等,0,2023-01-10,2023-01-04,ｕｔｅｎａ　ｗｏｒｋｓ株式会社,,株式会社,京都府,京都市下京区,五条高倉角堺町２１番地,,26,106,6000000,,,2023-01-04,清算の結了等,,,2016-03-04,1,,,,,ウテナワークス,0
2204,8180002004486,登記記録の閉鎖等,0,2023-01-10,2022-12-28,有限会社鈴木商店,,有限会社,愛知県,名古屋市千種区,千種１丁目１７番１４号,,23,101,4640858,,,2022-12-28,清算の結了等,,,2015-10-05,1,,,,,スズキショウテン,0
2207,8180003015284,登記記録の閉鎖等,0,2023-01-10,2022-12-28,進光住設合同会社,,合同会社,愛知県,日進市,竹の山５丁目３１５,,23,230,4700136,,,2022-12-28,清算の結了等,,,2015-10-05,1,,,,,シンコウジュウセツ,0
2219,8200001035967,登記記録の閉鎖等,0,2023-01-10,2023-01-04,株式会社大萱商会,,株式会社,岐阜県,可児市,久々利３３７番地１,,21,214,5090224,,,2023-01-04,清算の結了等,,,2019-02-25,1,,,,,オオガヤショウカイ,0
2226,8220002008425,登記記録の閉鎖等,0,2023-01-10,2023-01-05,有限会社駒谷総合企画,,有限会社,石川県,金沢市,旭町３丁目１番２２号,,17,201,9200941,,,2023-01-05,清算の結了等,,,2015-10-05,1,,,,,コマタニソウゴウキカク,0
2276,8400001000265,登記記録の閉鎖等,0,2023-01-10,2023-01-06,株式会社いずみ,,株式会社,岩手県,盛岡市,上堂３丁目１３番２９号,,03,201,0200125,,,2023-01-06,登記官による閉鎖,,,2015-10-05,1,,,,,,0
2279,8400002011658,登記記録の閉鎖等,0,2023-01-10,2023-01-06,有限会社鈴木自動車整備工場,,有限会社,岩手県,釜石市,大平町１丁目１番１４号,,03,211,0260002,,,2023-01-06,登記官による閉鎖,,,2015-10-05,1,,,,,,0
2280,8400005002729,登記記録の閉鎖等,0,2023-01-10,2023-01-06,農事組合法人北光牧場,,その他の設立登記法人,岩手県,岩手郡岩手町,大字一方井第１７地割２４番地の１,,03,303,0284421,,,2023-01-06,登記官による閉鎖,,,2015-10-05,1,,,,,,0
2281,8402705000012,登記記録の閉鎖等,0,2023-01-10,2023-01-06,農事組合法人住田養豚生産組合,,その他の設立登記法人,岩手県,気仙郡住田町,下有住字十文字８７番地９,,03,441,0292502,,,2023-01-06,登記官による閉鎖,,,2015-10-05,1,,,,,,0
2296,9010002028344,登記記録の閉鎖等,0,2023-01-10,2022-12-27,有限会社アイ・アンド・アイコンサルティング,,有限会社,東京都,中央区,月島３丁目１番２－７０１号,,13,102,1040052,,,2022-12-27,清算の結了等,,,2015-10-05,1,,,,,アイアンドアイコンサルティング,0
2298,9010402036129,登記記録の閉鎖等,0,2023-01-10,2022-12-21,フューチャーアクセスアンドパートナーズ有限会社,,有限会社,東京都,港区,港南２丁目１６－１品川イーストワンタワー４Ｆ,,13,103,1080075,,,2022-12-21,清算の結了等,,,2015-10-05,1,,,,,フューチャーアクセスアンドパートナーズ,0
2310,9010701007466,登記記録の閉鎖等,0,2023-01-10,2022-12-28,株式会社日東集成社,,株式会社,東京都,品川区,東五反田５丁目２５番１８号,,13,109,1410022,,,2022-12-28,清算の結了等,,,2015-10-05,1,,,,,ニットウシュウセイシャ,0
2338,9011501022713,登記記録の閉鎖等,0,2023-01-10,2022-12-26,佐藤電機点検サービス株式会社,,株式会社,東京都,荒川区,西尾久４丁目３番２号高田荘１６号室,,13,118,1160011,,,2022-12-26,清算の結了等,,,2017-06-05,1,,,,,,0
2356,9013301045316,登記記録の閉鎖等,0,2023-01-10,2023-01-04,株式会社ＡＣＴＲＩＳＥ,,株式会社,東京都,豊島区,南池袋１丁目１６－１５ダイヤゲート池袋４Ｆ,,13,116,1710022,,,2023-01-04,清算の結了等,,,2020-03-06,1,,,,,アクトライズ,0
2357,9013301046834,登記記録の閉鎖等,0,2023-01-10,2023-01-04,株式会社Ｇｒｅｅｎ　Ｌｉｇｈｔ,,株式会社,東京都,板橋区,栄町４番１６号ルピナスガーデン２０３,,13,119,1730015,,,2023-01-04,清算の結了等,,,2021-01-25,1,,,,,グリーンライト,0
2363,9020005013656,登記記録の閉鎖等,0,2023-01-10,2022-12-28,一般社団法人ＴＳホールディングス２号,,その他の設立登記法人,東京都,千代田区,紀尾井町３番１０号紀尾井町ガーデンタワー２５０４号（Ｃ／Ｏｓｈｉｍａｄａ－ｏｆｆｉｃｅ）,,13,101,1020094,,,2022-12-28,清算の結了等,,,2018-04-25,1,,,,,ティーエスホールディングスニゴウ,0
2367,9030001117971,登記記録の閉鎖等,0,2023-01-10,2022-12-26,メイプランニング株式会社,,株式会社,埼玉県,川越市,清水町１１番地２８,,11,201,3501145,,,2022-12-26,清算の結了等,,,2017-01-11,1,,,,,メイプランニング,0
2384,9050002024190,登記記録の閉鎖等,0,2023-01-10,2022-12-27,有限会社ノエビア古河販社,,有限会社,茨城県,古河市,本町１丁目８番２０号,,08,204,3060023,,,2022-12-27,清算の結了等,,,2015-10-05,1,,,,,ノエビアコガハンシャ,0
2389,9070002021847,登記記録の閉鎖等,0,2023-01-10,2023-01-04,有限会社インターサクラウェーブ,,有限会社,群馬県,佐波郡玉村町,大字下新田８０番地３,,10,464,3701132,,,2023-01-04,清算の結了等,,,2015-10-05,1,,,,,インターサクラウェーブ,0
2395,9080402008889,登記記録の閉鎖等,0,2023-01-10,2023-01-05,有限会社ラスティック,,有限会社,静岡県,浜松市中区,富塚町１７０９番地の１,00080075,22,131,4328002,,,2023-01-05,清算の結了等,,,2015-10-05,1,,,,,ラスティック,0
2398,9090003002159,登記記録の閉鎖等,0,2023-01-10,2022-12-28,合同会社ＦＵＮＡＴＯＭＩ,,合同会社,山梨県,甲府市,池田２丁目６番２４号,,19,201,4000062,,,2022-12-28,清算の結了等,,,2022-09-08,1,,,,,フナトミ,0
2401,9100002027972,登記記録の閉鎖等,0,2023-01-10,2023-01-04,有限会社金子光機,,有限会社,長野県,諏訪市,大字湖南２１４１番地,,20,206,3920131,,,2023-01-04,清算の結了等,,,2015-10-05,1,,,,,カネココウキ,0
2423,9120005002046,登記記録の閉鎖等,0,2023-01-10,2023-01-06,神道國玉教会,,その他の設立登記法人,大阪府,大阪市阿倍野区,西田辺町２丁目８５番地,,27,119,5450014,,,2023-01-06,清算の結了等,,,2015-10-05,1,,,,,シンドウクニタマキョウカイ,0
2435,9120905005585,登記記録の閉鎖等,0,2023-01-10,2023-01-04,一般社団法人環境アライアンス２Ｆ４Ｋ,,その他の設立登記法人,大阪府,大阪市中央区,谷町３丁目４番５－９０１号中央谷町ビル,,27,128,5400012,,,2023-01-04,清算の結了等,,,2017-07-24,1,,,,,カンキョウアライアンスニーエフヨンケー,0
2436,9122001023620,登記記録の閉鎖等,0,2023-01-10,2023-01-05,ステークホルダー株式会社,,株式会社,大阪府,東大阪市,池島町３丁目２番４４号,,27,227,5798064,,,2023-01-05,合併による解散等,3120001106590,令和５年１月１日大阪市港区弁天二丁目２番１７号株式会社デルタ（3120001106590）に合併し解散,2015-10-05,1,,,,,ステークホルダー,0
2442,9130002014514,登記記録の閉鎖等,0,2023-01-10,2022-12-27,有限会社ナカタニ,,有限会社,京都府,京都市伏見区,納所町５８６番地の１６８,,26,109,6128275,,,2022-12-27,清算の結了等,,,2015-10-05,1,,,,,ナカタニ,0
2454,9180001009758,登記記録の閉鎖等,0,2023-01-10,2023-01-04,株式会社秋利,,株式会社,愛知県,名古屋市瑞穂区,東栄町７丁目７番地２,,23,108,4670017,,,2023-01-04,清算の結了等,,,2015-10-05,1,,,,,アキリ,0
2456,9180001085320,登記記録の閉鎖等,0,2023-01-10,2022-12-28,株式会社未来テックス,,株式会社,愛知県,一宮市,白旗通１丁目５０番地１,,23,203,4910879,,,2022-12-28,清算の結了等,,,2015-10-05,1,,,,,ミライテックス,0
2457,9180001114319,登記記録の閉鎖等,0,2023-01-10,2023-01-04,ＭｏｏｎＬａｋｅ株式会社,,株式会社,愛知県,名古屋市東区,東桜２丁目９番３４号成田ビル１階,,23,102,4610005,,,2023-01-04,清算の結了等,,,2015-10-05,1,,,,,ムーンレイク,0
2469,9180003021785,登記記録の閉鎖等,0,2023-01-10,2022-12-27,合同会社バーディクリーン,,合同会社,愛知県,名古屋市緑区,鳴海町字京田６５番地,,23,114,4580801,,,2022-12-27,清算の結了等,,,2020-11-02,1,,,,,バーディクリーン,0
2473,9180003022296,登記記録の閉鎖等,0,2023-01-10,2023-01-04,合同会社Ｈ＆Ｃ　ＧＯＬＤＥＮ　ＫＩＮＧ,,合同会社,愛知県,春日井市,鳥居松町５丁目５０マルキツビル１階,,23,206,4860844,,,2023-01-04,清算の結了等,,,2021-03-24,1,,,,,エッチアンドシーゴールデンキング,0
2482,9180302006751,登記記録の閉鎖等,0,2023-01-10,2022-12-26,有限会社オーケイシステム,,有限会社,愛知県,豊橋市,南小池町１９２番地の１,,23,201,4418044,,,2022-12-26,清算の結了等,,,2015-10-05,1,,,,,オーケイシステム,0
2490,9210001013756,登記記録の閉鎖等,0,2023-01-10,2023-01-05,株式会社環境資源公社,,株式会社,福井県,鯖江市,杉本町８０９番地１,,18,207,9160005,,,2023-01-05,清算の結了等,,,2015-10-05,1,,,,,カンキョウシゲンコウシャ,0
2492,9210002012765,登記記録の閉鎖等,0,2023-01-10,2023-01-05,有限会社アイ・キャンバス,,有限会社,福井県,鯖江市,横江町２丁目２－１コーポ景山４０３号,,18,207,9160046,,,2023-01-05,清算の結了等,,,2015-10-05,1,,,,,アイキャンバス,0
2498,9240001027506,登記記録の閉鎖等,0,2023-01-10,2023-01-05,株式会社ＹＣ呉中央,,株式会社,広島県,呉市,吉浦本町２丁目６番１９号,,34,202,7370861,,,2023-01-05,清算の結了等,,,2015-10-05,1,,,,,ワイシークレチュウオウ,0
2506,9290001082174,登記記録の閉鎖等,0,2023-01-10,2023-01-04,株式会社アールウェイ,,株式会社,福岡県,福岡市博多区,博多駅前２丁目２０番１７号,,40,132,8120011,,,2023-01-04,合併による解散等,6290001038006,令和５年１月１日福岡市中央区大手門一丁目９番７号株式会社ベータビジョン（6290001038006）に合併し解散,2018-07-26,1,,,,,アールウェイ,0
2511,9290002038150,登記記録の閉鎖等,0,2023-01-10,2023-01-04,有限会社読売センター粕屋江崎新聞販売店,,有限会社,福岡県,糟屋郡粕屋町,内橋東１丁目２番２７号,,40,349,8112320,,,2023-01-04,清算の結了等,,,2015-10-05,1,,,,,ヨミウリセンターカスヤエザキシンブンハンバイテン,0
2542,9400001006591,登記記録の閉鎖等,0,2023-01-10,2023-01-06,株式会社東日本ウィンゲート,,株式会社,岩手県,北上市,堤ケ丘２丁目１３番７号,,03,206,0240011,,,2023-01-06,登記官による閉鎖,,,2015-10-05,1,,,,,,0
2543,9400002001344,登記記録の閉鎖等,0,2023-01-10,2023-01-06,有限会社三建土木,,有限会社,岩手県,岩手郡雫石町,西安庭第１５地割８８番地２５,,03,301,0200572,,,2023-01-06,登記官による閉鎖,,,2015-10-05,1,,,,,,0
2544,9400002004818,登記記録の閉鎖等,0,2023-01-10,2023-01-06,有限会社オフィスレン,,有限会社,岩手県,盛岡市,大通２丁目４番７号,,03,201,0200022,,,2023-01-06,登記官による閉鎖,,,2015-10-05,1,,,,,,0
2545,9400002010188,登記記録の閉鎖等,0,2023-01-10,2023-01-06,有限会社石田屋,,有限会社,岩手県,遠野市,上郷町細越７地割１７番地３,,03,208,0280772,,,2023-01-06,登記官による閉鎖,,,2015-10-05,1,,,,,,0
2546,9400003000543,登記記録の閉鎖等,0,2023-01-10,2023-01-06,合資会社矢幅,,合資会社,岩手県,紫波郡矢巾町,大字南矢幅第５地割９３番地３２,,03,322,0283615,,,2023-01-06,登記官による閉鎖,,,2015-10-05,1,,,,,,0
2548,9402705000275,登記記録の閉鎖等,0,2023-01-10,2023-01-06,特定非営利活動法人分水嶺,,その他の設立登記法人,岩手県,大船渡市,三陸町綾里字清水１３６番地１,,03,203,0220211,,,2023-01-06,登記官による閉鎖,,,2015-10-05,1,,,,,,0
2552,9430001086409,登記記録の閉鎖等,0,2023-01-10,2022-12-26,株式会社徳永不動産,,株式会社,北海道,札幌市西区,発寒六条９丁目１２番７号,,01,107,0630826,,,2022-12-26,清算の結了等,,,2022-04-14,1,,,,,トクナガフドウサン,0
2556,9440002002355,登記記録の閉鎖等,0,2023-01-10,2022-12-28,有限会社清和不動産,,有限会社,北海道,函館市,柏木町２４番７号,,01,202,0420942,,,2022-12-28,清算の結了等,,,2015-10-05,1,,,,,セイワフドウサン,0
2563,9490001000207,登記記録の閉鎖等,0,2023-01-10,2022-12-28,大野興業株式会社,,株式会社,高知県,高知市,八反町２丁目８番２号,,39,201,7800912,,,2022-12-28,清算の結了等,,,2022-01-18,1,,,,,オオノコウギョウ,0
