sequenceNumber,corporateNumber,process,correct,updateDate,changeDate,name,nameImageId,kind,prefectureName,cityName,streetNumber,addressImageId,prefectureCode,cityCode,postCode,addressOutside,addressOutsideImageId,closeDate,closeCause,successorCorporateNumber,changeCause,assignmentDate,latest,enName,enPrefectureName,enCityName,enAddressOutside,furigana,hihyoji
4,1010001100631,登記記録の閉鎖等,0,2022-01-12,2021-12-28,日本エデュケーション株式会社,,株式会社,東京都,中央区,銀座６丁目１２番１３号,,13,102,1040061,,,2021-12-28,清算の結了等,,,2015-10-05,1,,,,,ニホンエデュケーション,0
11,1010001179773,登記記録の閉鎖等,0,2022-01-12,2021-12-28,株式会社ルヴィータ,,株式会社,東京都,中央区,銀座２丁目３番２号,,13,102,1040061,,,2021-12-28,清算の結了等,,,2016-11-25,1,,,,,ルヴィータ,0
16,1010003025265,登記記録の閉鎖等,0,2022-01-12,2022-01-04,合同会社神田パートナーズ１号,,合同会社,東京都,千代田区,神田猿楽町２丁目６番７号,,13,101,1010064,,,2022-01-04,清算の結了等,,,2017-05-02,1,,,,,カンダパートナーズイチゴウ,0
24,1010401110354,登記記録の閉鎖等,0,2022-01-12,2021-12-28,リーボンズ・フジモリ株式会社,,株式会社,東京都,港区,芝公園３丁目６番２３号,,13,103,1050011,,,2021-12-28,清算の結了等,,,2015-10-05,1,,,,,,0
32,1010603006581,登記記録の閉鎖等,0,2022-01-12,2022-01-04,Ｓ企画合同会社,,合同会社,東京都,墨田区,千歳１丁目５番１５号,,13,107,1300025,,,2022-01-04,清算の結了等,,,2017-01-12,1,,,,,,0
38,1010902016901,登記記録の閉鎖等,0,2022-01-12,2022-01-06,有限会社渡部青果店,,有限会社,東京都,世田谷区,奥沢８丁目１３番１号,,13,112,1580083,,,2022-01-06,清算の結了等,,,2015-10-05,1,,,,,ワタベセイカテン,0
56,1011101048678,登記記録の閉鎖等,0,2022-01-12,2021-12-27,エンターケイ株式会社,,株式会社,東京都,港区,虎ノ門１丁目１６番６号虎ノ門ラポートビル７０３,,13,103,1050001,,,2021-12-27,清算の結了等,,,2015-10-05,1,,,,,エンターケイ,0
57,1011101061350,登記記録の閉鎖等,0,2022-01-12,2021-12-24,株式会社スプレィ,,株式会社,東京都,千代田区,神田司町２丁目２番地２,,13,101,1010048,,,2021-12-24,清算の結了等,,,2015-10-05,1,,,,,スプレイ,0
71,1011501002301,登記記録の閉鎖等,0,2022-01-12,2022-01-11,水研化学工業株式会社,,株式会社,東京都,北区,西が丘１丁目３番１４号,,13,117,1150056,,,2022-01-11,登記官による閉鎖,,,2015-10-05,1,,,,,,0
72,1011501009965,登記記録の閉鎖等,0,2022-01-12,2022-01-11,明和マシナリー株式会社,,株式会社,東京都,北区,東田端２丁目１番１０号,,13,117,1140013,,,2022-01-11,登記官による閉鎖,,,2015-10-05,1,,,,,,0
73,1011501015204,登記記録の閉鎖等,0,2022-01-12,2022-01-11,株式会社マジカル大陸,,株式会社,東京都,北区,滝野川５丁目６番５号,,13,117,1140023,,,2022-01-11,登記官による閉鎖,,,2015-10-05,1,,,,,,0
76,1011502005492,登記記録の閉鎖等,0,2022-01-12,2022-01-11,有限会社マーティシスタジオ,,有限会社,東京都,北区,中里２丁目２１番１３号,,13,117,1140015,,,2022-01-11,登記官による閉鎖,,,2015-10-05,1,,,,,,0
77,1011502005765,登記記録の閉鎖等,0,2022-01-12,2022-01-11,有限会社水野工務店,,有限会社,東京都,北区,赤羽南２丁目８番１号,,13,117,1150044,,,2022-01-11,登記官による閉鎖,,,2015-10-05,1,,,,,,0
78,1011505000490,登記記録の閉鎖等,0,2022-01-12,2022-01-11,医療法人社団眼科岸田医院,,その他の設立登記法人,東京都,北区,中里２丁目１番４号アジアビル２０２号,,13,117,1140015,,,2022-01-11,登記官による閉鎖,,,2015-10-05,1,,,,,,0
81,1011802001010,登記記録の閉鎖等,0,2022-01-12,2022-01-12,有限会社内山自動車,,有限会社,東京都,葛飾区,金町３丁目２番７号,,13,122,1250042,,,2022-01-12,登記官による閉鎖,,,2015-10-05,1,,,,,,0
82,1011802006942,登記記録の閉鎖等,0,2022-01-12,2022-01-12,有限会社ホーム・リース,,有限会社,東京都,葛飾区,東立石４丁目４４番７号,,13,122,1240013,,,2022-01-12,登記官による閉鎖,,,2015-10-05,1,,,,,,0
83,1011802007263,登記記録の閉鎖等,0,2022-01-12,2022-01-12,有限会社マナカトーイ,,有限会社,東京都,葛飾区,西亀有１丁目１２番１２号,,13,122,1240002,,,2022-01-12,登記官による閉鎖,,,2015-10-05,1,,,,,,0
84,1011802007874,登記記録の閉鎖等,0,2022-01-12,2022-01-12,有限会社森田スクリーン印刷,,有限会社,東京都,葛飾区,高砂７丁目４番５号,,13,122,1250054,,,2022-01-12,登記官による閉鎖,,,2015-10-05,1,,,,,,0
85,1011802009061,登記記録の閉鎖等,0,2022-01-12,2022-01-12,有限会社秋元商店,,有限会社,東京都,足立区,宮城１丁目１４番１２号,,13,121,1200047,,,2022-01-12,登記官による閉鎖,,,2015-10-05,1,,,,,,0
86,1011802015687,登記記録の閉鎖等,0,2022-01-12,2022-01-12,有限会社竹創,,有限会社,東京都,足立区,関原２丁目７番７号,,13,121,1230852,,,2022-01-12,登記官による閉鎖,,,2015-10-05,1,,,,,,0
87,1011802015720,登記記録の閉鎖等,0,2022-01-12,2022-01-12,有限会社中央管興業,,有限会社,東京都,足立区,神明南１丁目８番２号プランタンハウスＧ号室,,13,121,1210057,,,2022-01-12,登記官による閉鎖,,,2015-10-05,1,,,,,,0
88,1011802016702,登記記録の閉鎖等,0,2022-01-12,2022-01-12,有限会社ナカダ,,有限会社,東京都,足立区,堀之内２丁目４番１６号,,13,121,1230874,,,2022-01-12,登記官による閉鎖,,,2015-10-05,1,,,,,,0
89,1011802016826,登記記録の閉鎖等,0,2022-01-12,2022-01-12,有限会社南部製作所,,有限会社,東京都,足立区,扇３丁目１１番１０号,,13,121,1230873,,,2022-01-12,登記官による閉鎖,,,2015-10-05,1,,,,,,0
90,1011802026610,登記記録の閉鎖等,0,2022-01-12,2022-01-12,有限会社柴田電気,,有限会社,東京都,葛飾区,東四つ木２丁目１番２号,,13,122,1240014,,,2022-01-12,登記官による閉鎖,,,2015-10-05,1,,,,,,0
91,1011805001461,登記記録の閉鎖等,0,2022-01-12,2022-01-12,特定非営利活動法人あすか社会改善センター,,その他の設立登記法人,東京都,足立区,綾瀬７丁目１３番１８号,,13,121,1200005,,,2022-01-12,登記官による閉鎖,,,2015-10-05,1,,,,,,0
92,1011805001684,登記記録の閉鎖等,0,2022-01-12,2022-01-12,特定非営利活動法人全国調査業者連絡協議会,,その他の設立登記法人,東京都,葛飾区,金町６丁目９番７号,,13,122,1250042,,,2022-01-12,登記官による閉鎖,,,2015-10-05,1,,,,,,0
99,1012705000388,登記記録の閉鎖等,0,2022-01-12,2021-12-17,天理教錦和沖分教会,,その他の設立登記法人,東京都,西東京市,保谷町６丁目２５番２０号,,13,229,2020015,,,2021-12-17,合併による解散等,3011605000158,令和３年１２月１４日東京都練馬区南大泉四丁目４７番２２号天理教開和分教会（3011605000158）に合併し解散,2015-10-05,1,,,,,,0
101,1012802002634,登記記録の閉鎖等,0,2022-01-12,2022-01-04,有限会社アクス森谷,,有限会社,東京都,昭島市,宮沢町２丁目３３番２２号,,13,207,1960024,,,2022-01-04,合併による解散等,6012802003883,令和４年１月１日東京都昭島市宮沢町二丁目３３番２２号森谷瓦創業株式会社（6012802003883）に合併し解散,2015-10-05,1,,,,,アクスモリヤ,0
105,1013202011548,登記記録の閉鎖等,0,2022-01-12,2021-12-23,有限会社オン・ゴーイング,,有限会社,東京都,目黒区,柿の木坂１丁目１５番１１号,,13,110,1520022,,,2021-12-23,清算の結了等,,,2015-10-05,1,,,,,オンゴーイング,0
111,1020001062961,登記記録の閉鎖等,0,2022-01-12,2022-01-04,株式会社クールジャパンａｔ　Ｃｉｔｙ,,株式会社,神奈川県,横浜市神奈川区,鶴屋町３丁目３３番地の８アサヒビル３Ｆ,,14,102,2210835,,,2022-01-04,合併による解散等,5020001045896,令和４年１月１日横浜市神奈川区鶴屋町三丁目３３番地の８アサヒビル３Ｆ株式会社ニューシティー（5020001045896）に合併し解散,2015-10-05,1,,,,,クールジャパンアットシティ,0
126,1021002017756,登記記録の閉鎖等,0,2022-01-12,2022-01-06,有限会社飯綱製作所,,有限会社,神奈川県,相模原市中央区,上溝３８７５番地,,14,152,2520243,,,2022-01-06,清算の結了等,,,2015-10-05,1,,,,,イイズナセイサクショ,0
129,1021003007855,登記記録の閉鎖等,0,2022-01-12,2022-01-05,合同会社ＡＳＣ経営創造研究所,,合同会社,神奈川県,藤沢市,羽鳥１丁目１番１０～５３０号,,14,205,2510056,,,2022-01-05,清算の結了等,,,2018-10-18,1,,,,,エーエスシーケイエイソウゾウケンキュウジョ,0
140,1030002103342,登記記録の閉鎖等,0,2022-01-12,2022-01-06,有限会社三和電機,,有限会社,埼玉県,川口市,東領家１丁目２０番３号,,11,203,3320003,,,2022-01-06,清算の結了等,,,2015-10-05,1,,,,,サンワデンキ,0
143,1040001013120,登記記録の閉鎖等,0,2022-01-12,2022-01-06,美浜株式会社,,株式会社,神奈川県,横浜市中区,根岸町３丁目１９５番地,,14,104,2310836,,,2022-01-06,清算の結了等,,,2015-10-05,1,,,,,ミハマ,0
149,1040002048850,登記記録の閉鎖等,0,2022-01-12,2021-12-28,丸正交通有限会社,,有限会社,千葉県,松戸市,小根本字打越１４２番地の３,,12,207,2710073,,,2021-12-28,清算の結了等,,,2015-10-05,1,,,,,マルショウコウツウ,0
158,1050002035212,登記記録の閉鎖等,0,2022-01-12,2022-01-04,有限会社横松洋品店,,有限会社,茨城県,常陸太田市,東一町２３１１番地,,08,212,3130051,,,2022-01-04,清算の結了等,,,2015-10-05,1,,,,,ヨコマツヨウヒンテン,0
167,1060003002202,登記記録の閉鎖等,0,2022-01-12,2022-01-04,合同会社Ｇ’ｓ,,合同会社,栃木県,下都賀郡野木町,大字丸林３７５番地６,,09,364,3290111,,,2022-01-04,清算の結了等,,,2016-02-15,1,,,,,ジーズ,0
177,1070002030491,登記記録の閉鎖等,0,2022-01-12,2022-01-06,有限会社長谷井畜産,,有限会社,群馬県,太田市,新田市野井町１６０７番地１,,10,205,3700314,,,2022-01-06,清算の結了等,,,2015-10-05,1,,,,,ハセイチクサン,0
190,1100001010573,登記記録の閉鎖等,0,2022-01-12,2022-01-07,ワールド・シェア株式会社,,株式会社,長野県,上田市,真田町長５８１２番地１,,20,203,3862201,,,2022-01-07,清算の結了等,,,2015-10-05,1,,,,,ワールドシェア,0
193,1100002008848,登記記録の閉鎖等,0,2022-01-12,2022-01-07,有限会社丸本酒店,,有限会社,長野県,須坂市,大字須坂１２６４番地８,,20,207,3820000,,,2022-01-07,清算の結了等,,,2015-10-05,1,,,,,マルモトサケテン,0
194,1100002028425,登記記録の閉鎖等,0,2022-01-12,2022-01-07,有限会社鈴木製作所,,有限会社,長野県,諏訪市,大字四賀６５３番地１,,20,206,3920012,,,2022-01-07,清算の結了等,,,2015-10-05,1,,,,,スズキセイサクショ,0
206,1120001204157,登記記録の閉鎖等,0,2022-01-12,2021-12-27,株式会社ＦＩＸ　ＩＴ,,株式会社,大阪府,大阪市東淀川区,東中島１丁目６－１４,,27,114,5330033,,,2021-12-27,合併による解散等,9120001163874,令和３年１２月２５日大阪市東淀川区東中島一丁目６－１４新大阪第２日大ビル１０階株式会社Ｇ．Ｏホールディングス（9120001163874）に合併し解散,2017-03-03,1,,,,,フィックスイット,0
236,1120902019950,登記記録の閉鎖等,0,2022-01-12,2022-01-07,有限会社宮前重機サービス,,有限会社,大阪府,豊中市,利倉西２丁目１５番４０－２０３号,,27,203,5610844,,,2022-01-07,清算の結了等,,,2015-10-05,1,,,,,ミヤマエジュウキサービス,0
258,1180001095467,登記記録の閉鎖等,0,2022-01-12,2022-01-06,株式会社ＡＺライフ,,株式会社,愛知県,知多郡武豊町,字道崎９６番地１,,23,447,4702347,,,2022-01-06,清算の結了等,,,2015-10-05,1,,,,,エーゼットライフ,0
278,1230003001574,登記記録の閉鎖等,0,2022-01-12,2022-01-06,合同会社わたぐも,,合同会社,富山県,魚津市,北鬼江２丁目９番７号,,16,204,9370066,,,2022-01-06,清算の結了等,,,2020-12-10,1,,,,,,0
279,1240001004025,登記記録の閉鎖等,0,2022-01-12,2022-01-04,株式会社佐賀福留,,株式会社,広島県,広島市西区,草津港２丁目６番７５号,,34,104,7330832,,,2022-01-04,合併による解散等,6240001010290,令和４年１月１日広島市西区草津港二丁目６番７５号福留ハム株式会社（6240001010290）に合併し解散,2015-10-05,1,,,,,サガフクトメ,0
292,1240005010366,登記記録の閉鎖等,0,2022-01-12,2021-11-26,熊野神社,,その他の設立登記法人,広島県,竹原市,田万里町１８８番地,,34,203,7250001,,,2021-11-26,合併による解散等,5240005010429,令和３年１１月２６日広島県竹原市田万里町１２２８番地八幡神社（5240005010429）に合併し解散,2015-10-05,1,,,,,クマノジンジャ,0
297,1260005004556,登記記録の閉鎖等,0,2022-01-12,2022-01-11,特定非営利活動法人サポートセンタージョイ,,その他の設立登記法人,岡山県,倉敷市,鳥羽１５２番地１１,,33,202,7100012,,,2022-01-11,清算の結了等,,,2015-10-05,1,,,,,サポートセンタージョイ,0
321,1340002015176,登記記録の閉鎖等,0,2022-01-12,2022-01-07,有限会社ワダ,,有限会社,鹿児島県,姶良郡湧水町,米永３１２２－１,,46,452,8996207,,,2022-01-07,合併による解散等,3340001008360,令和４年１月５日鹿児島県姶良郡湧水町米永３１２２番地１株式会社アーモンド工房カホク（3340001008360）に合併し解散,2015-10-05,1,,,,,ワダ,0
339,1400002010237,登記記録の閉鎖等,0,2022-01-12,2022-01-12,有限会社菊池プラント工業,,有限会社,岩手県,遠野市,青笹町青笹２９地割９番地５,,03,208,0280503,,,2022-01-12,登記官による閉鎖,,,2015-10-05,1,,,,,,0
340,1400002011152,登記記録の閉鎖等,0,2022-01-12,2022-01-11,有限会社日本木材工業,,有限会社,岩手県,下閉伊郡岩泉町,二升石字貝内野５番地９,,03,483,0270507,,,2022-01-11,清算の結了等,,,2015-10-05,1,,,,,,0
341,1400002011920,登記記録の閉鎖等,0,2022-01-12,2022-01-12,有限会社梅津会館,,有限会社,岩手県,上閉伊郡大槌町,本町１番３号,,03,461,0281116,,,2022-01-12,登記官による閉鎖,,,2015-10-05,1,,,,,,0
342,1400002017488,登記記録の閉鎖等,0,2022-01-12,2022-01-12,有限会社みよしカンパニー,,有限会社,岩手県,遠野市,下組町９番３５号,,03,208,0280526,,,2022-01-12,登記官による閉鎖,,,2015-10-05,1,,,,,,0
343,1400005000838,登記記録の閉鎖等,0,2022-01-12,2022-01-12,農事組合法人南部駒育成組合,,その他の設立登記法人,岩手県,盛岡市,東山２丁目３番３５号,,03,201,0200813,,,2022-01-12,登記官による閉鎖,,,2015-10-05,1,,,,,,0
344,1400005003881,登記記録の閉鎖等,0,2022-01-12,2022-01-12,農事組合法人上郷たばこ協業組合,,その他の設立登記法人,岩手県,遠野市,上郷町板沢９地割１３番地,,03,208,0280776,,,2022-01-12,登記官による閉鎖,,,2015-10-05,1,,,,,,0
345,1400005004203,登記記録の閉鎖等,0,2022-01-12,2022-01-12,農事組合法人甲地協業養蚕組合,,その他の設立登記法人,岩手県,下閉伊郡田野畑村,子木地１７５番地,,03,484,0288401,,,2022-01-12,登記官による閉鎖,,,2015-10-05,1,,,,,,0
346,1402705000019,登記記録の閉鎖等,0,2022-01-12,2022-01-12,農事組合法人大畑養蚕組合,,その他の設立登記法人,岩手県,気仙郡住田町,上有住字上大畑３８番地,,03,441,0292501,,,2022-01-12,登記官による閉鎖,,,2015-10-05,1,,,,,,0
357,1430002034274,登記記録の閉鎖等,0,2022-01-12,2022-01-05,有限会社嵯峨電機,,有限会社,北海道,札幌市東区,北三十五条東４丁目１番１２－５０３号,,01,103,0070835,,,2022-01-05,清算の結了等,,,2015-10-05,1,,,,,サガデンキ,0
359,1440002005902,登記記録の閉鎖等,0,2022-01-12,2022-01-11,有限会社エスプロジェクト,,有限会社,北海道,函館市,的場町１９番１号,,01,202,0400021,,,2022-01-11,登記官による閉鎖,,,2015-10-05,1,,,,,,0
360,1440002007816,登記記録の閉鎖等,0,2022-01-12,2022-01-11,有限会社ヨコタ工務店,,有限会社,北海道,亀田郡七飯町,鳴川３丁目２６番１６号,,01,337,0411112,,,2022-01-11,登記官による閉鎖,,,2015-10-05,1,,,,,,0
361,1440002008236,登記記録の閉鎖等,0,2022-01-12,2022-01-11,有限会社ＳＩＮコーポレーション,,有限会社,北海道,函館市,本町２番１２号,,01,202,0400011,,,2022-01-11,登記官による閉鎖,,,2015-10-05,1,,,,,,0
384,2010401133412,登記記録の閉鎖等,0,2022-01-12,2021-12-28,グランシーカー株式会社,,株式会社,東京都,港区,六本木４丁目３番１１号六本木ユニハウス２２３号,,13,103,1060032,,,2021-12-28,清算の結了等,,,2017-08-25,1,,,,,グランシーカー,0
388,2010601026572,登記記録の閉鎖等,0,2022-01-12,2022-01-04,富士営繕株式会社,,株式会社,東京都,江東区,北砂５丁目１７番３０号,,13,108,1360073,,,2022-01-04,清算の結了等,,,2015-10-05,1,,,,,フジエイゼン,0
398,2010802006159,登記記録の閉鎖等,0,2022-01-12,2022-01-04,有限会社サンサ商事,,有限会社,東京都,大田区,東海５丁目３番５号,,13,111,1430001,,,2022-01-04,清算の結了等,,,2015-10-05,1,,,,,,0
403,2011001068866,登記記録の閉鎖等,0,2022-01-12,2022-01-06,ＨＩＳＡＷＡメディカル株式会社,,株式会社,東京都,世田谷区,成城７丁目１４番１０号,,13,112,1570066,,,2022-01-06,清算の結了等,,,2015-10-05,1,,,,,ヒサワメディカル,0
405,2011001107995,登記記録の閉鎖等,0,2022-01-12,2022-01-07,株式会社アイデア家業,,株式会社,東京都,台東区,雷門２丁目１３番１号２Ｆ,,13,106,1110034,,,2022-01-07,清算の結了等,,,2015-10-30,1,,,,,アイデアカギョウ,0
406,2011001117012,登記記録の閉鎖等,0,2022-01-12,2022-01-11,株式会社サンカクキャリア,,株式会社,東京都,渋谷区,道玄坂１丁目１９番２号スプラインビル６階,,13,113,1500043,,,2022-01-11,清算の結了等,,,2017-06-23,1,,,,,サンカクキャリア,0
423,2011501000832,登記記録の閉鎖等,0,2022-01-12,2022-01-11,株式会社大野工務店,,株式会社,東京都,北区,上十条２丁目２番７号,,13,117,1140034,,,2022-01-11,登記官による閉鎖,,,2015-10-05,1,,,,,,0
424,2011501009238,登記記録の閉鎖等,0,2022-01-12,2022-01-11,株式会社ヨシヒロ,,株式会社,東京都,荒川区,町屋２丁目９番２号,,13,118,1160001,,,2022-01-11,登記官による閉鎖,,,2015-10-05,1,,,,,,0
425,2011501013074,登記記録の閉鎖等,0,2022-01-12,2022-01-11,株式会社ニッシンコーポレーシヨン,,株式会社,東京都,北区,豊島１丁目３１番４号,,13,117,1140003,,,2022-01-11,登記官による閉鎖,,,2015-10-05,1,,,,,,0
426,2011501015368,登記記録の閉鎖等,0,2022-01-12,2022-01-11,株式会社野村住資,,株式会社,東京都,荒川区,東尾久３丁目２４番６－１０４号,,13,118,1160012,,,2022-01-11,登記官による閉鎖,,,2015-10-05,1,,,,,,0
429,2011502002976,登記記録の閉鎖等,0,2022-01-12,2022-01-11,有限会社十一屋,,有限会社,東京都,北区,十条仲原１丁目２５番１０号,,13,117,1140031,,,2022-01-11,登記官による閉鎖,,,2015-10-05,1,,,,,,0
430,2011502008081,登記記録の閉鎖等,0,2022-01-12,2022-01-11,有限会社グッドシーリング,,有限会社,東京都,荒川区,東尾久５丁目１５番４号,,13,118,1160012,,,2022-01-11,登記官による閉鎖,,,2015-10-05,1,,,,,,0
431,2011502008890,登記記録の閉鎖等,0,2022-01-12,2022-01-11,有限会社シンキ塗装,,有限会社,東京都,荒川区,町屋４丁目４番８号,,13,118,1160001,,,2022-01-11,登記官による閉鎖,,,2015-10-05,1,,,,,,0
432,2011502010905,登記記録の閉鎖等,0,2022-01-12,2022-01-11,ふるさとの味問屋ささ山有限会社,,有限会社,東京都,荒川区,東日暮里２丁目１５番１１号,,13,118,1160014,,,2022-01-11,登記官による閉鎖,,,2015-10-05,1,,,,,,0
433,2011502012736,登記記録の閉鎖等,0,2022-01-12,2022-01-11,アートクルー有限会社,,有限会社,東京都,北区,堀船１丁目１５番１０－３０１号,,13,117,1140004,,,2022-01-11,登記官による閉鎖,,,2015-10-05,1,,,,,,0
434,2011502014542,登記記録の閉鎖等,0,2022-01-12,2022-01-04,有限会社ｉｎｔｅｒｉｏｒ　Ｍ’ｓ,,有限会社,東京都,北区,田端新町３丁目１１番６号,,13,117,1140012,,,2022-01-04,清算の結了等,,,2015-10-05,1,,,,,,0
437,2011801001670,登記記録の閉鎖等,0,2022-01-12,2022-01-12,彩工スクリーン株式会社,,株式会社,東京都,葛飾区,四つ木５丁目１番１５号,,13,122,1240011,,,2022-01-12,登記官による閉鎖,,,2015-10-05,1,,,,,,0
438,2011801011447,登記記録の閉鎖等,0,2022-01-12,2022-01-12,株式会社冨士工,,株式会社,東京都,足立区,神明１丁目２番２４号,,13,121,1210051,,,2022-01-12,登記官による閉鎖,,,2015-10-05,1,,,,,,0
439,2011801013154,登記記録の閉鎖等,0,2022-01-12,2022-01-12,株式会社リネア,,株式会社,東京都,足立区,千住中居町２８番２４号,,13,121,1200035,,,2022-01-12,登記官による閉鎖,,,2015-10-05,1,,,,,,0
440,2011801020737,登記記録の閉鎖等,0,2022-01-12,2022-01-12,ファインコンピュータサービス株式会社,,株式会社,東京都,葛飾区,新宿１丁目７番２３－２０６号カーサドルチェ,,13,122,1250051,,,2022-01-12,登記官による閉鎖,,,2015-10-05,1,,,,,,0
441,2011801022709,登記記録の閉鎖等,0,2022-01-12,2022-01-12,株式会社ポラリス,,株式会社,東京都,葛飾区,堀切３丁目２９番１３号,,13,122,1240006,,,2022-01-12,登記官による閉鎖,,,2015-10-05,1,,,,,,0
442,2011801024093,登記記録の閉鎖等,0,2022-01-12,2022-01-12,株式会社ニーナハウジング,,株式会社,東京都,葛飾区,青戸５丁目２番９号,,13,122,1250062,,,2022-01-12,登記官による閉鎖,,,2015-10-05,1,,,,,,0
443,2011801024721,登記記録の閉鎖等,0,2022-01-12,2022-01-12,日本ＴＱＭ金型技術株式会社,,株式会社,東京都,足立区,島根３丁目１９番３号,,13,121,1210815,,,2022-01-12,登記官による閉鎖,,,2015-10-05,1,,,,,,0
446,2011802001240,登記記録の閉鎖等,0,2022-01-12,2022-01-12,有限会社海老原,,有限会社,東京都,葛飾区,東金町８丁目１０番７号,,13,122,1250041,,,2022-01-12,登記官による閉鎖,,,2015-10-05,1,,,,,,0
447,2011802003732,登記記録の閉鎖等,0,2022-01-12,2022-01-12,有限会社シンポ,,有限会社,東京都,葛飾区,立石１丁目１４番２号,,13,122,1240012,,,2022-01-12,登記官による閉鎖,,,2015-10-05,1,,,,,,0
448,2011802010935,登記記録の閉鎖等,0,2022-01-12,2022-01-12,有限会社荻島商事,,有限会社,東京都,足立区,西伊興３丁目１７番２１号,,13,121,1210824,,,2022-01-12,登記官による閉鎖,,,2015-10-05,1,,,,,,0
450,2011802012386,登記記録の閉鎖等,0,2022-01-12,2022-01-12,有限会社幸伸金属,,有限会社,東京都,足立区,六木４丁目５番２４号,,13,121,1210052,,,2022-01-12,登記官による閉鎖,,,2015-10-05,1,,,,,,0
451,2011802014060,登記記録の閉鎖等,0,2022-01-12,2022-01-12,有限会社詳晃オールサービス,,有限会社,東京都,足立区,伊興４丁目１２番３－１０８号,,13,121,1210823,,,2022-01-12,登記官による閉鎖,,,2015-10-05,1,,,,,,0
452,2011802023549,登記記録の閉鎖等,0,2022-01-12,2022-01-12,有限会社ニホンギ,,有限会社,東京都,葛飾区,東四つ木４丁目３番１６号,,13,122,1240014,,,2022-01-12,登記官による閉鎖,,,2015-10-05,1,,,,,,0
455,2011802029050,登記記録の閉鎖等,0,2022-01-12,2022-01-12,有限会社アイビア,,有限会社,東京都,足立区,千住龍田町３０番５号,,13,121,1200042,,,2022-01-12,登記官による閉鎖,,,2015-10-05,1,,,,,,0
456,2011805000710,登記記録の閉鎖等,0,2022-01-12,2022-01-12,医療法人社団栄久会,,その他の設立登記法人,東京都,葛飾区,亀有３丁目３３番３号千石きむらビル２０１号,,13,122,1250061,,,2022-01-12,登記官による閉鎖,,,2015-10-05,1,,,,,,0
466,2013301011332,登記記録の閉鎖等,0,2022-01-12,2022-01-04,益子食品株式会社,,株式会社,東京都,豊島区,北大塚２丁目６番１０号,00066878,13,116,1700004,,,2022-01-04,清算の結了等,,,2015-10-05,1,,,,,マシコショクヒン,0
474,2020001090350,登記記録の閉鎖等,0,2022-01-12,2022-01-04,サンミック株式会社,,株式会社,東京都,板橋区,徳丸６丁目２９番２号,,13,119,1750083,,,2022-01-04,合併による解散等,8011401005439,令和４年１月１日東京都板橋区常盤台三丁目２０番７号株式会社アリオス（8011401005439）に合併し解散,2015-10-05,1,,,,,サンミック,0
488,2020005004190,登記記録の閉鎖等,0,2022-01-12,2021-12-28,医療法人東整形外科クリニック,,その他の設立登記法人,神奈川県,横浜市港北区,菊名２丁目２５番１号,,14,109,2220011,,,2021-12-28,清算の結了等,,,2015-10-05,1,,,,,ヒガシセイケイゲカクリニック,0
490,2021001030734,登記記録の閉鎖等,0,2022-01-12,2021-12-23,ＩＮＳＩＤＥ　ＢＯＵＮＤ株式会社,,株式会社,東京都,渋谷区,上原２丁目３２番５号アートヒルズ駒場４０１号室,,13,113,1510064,,,2021-12-23,清算の結了等,,,2015-10-05,1,,,,,インサイドバウンド,0
493,2021002059161,登記記録の閉鎖等,0,2022-01-12,2022-01-06,有限会社馬鳥豆腐店,,有限会社,神奈川県,平塚市,西八幡２丁目１０番３２号,,14,203,2540073,,,2022-01-06,清算の結了等,,,2015-10-05,1,,,,,バトリトウフテン,0
494,2021003000702,登記記録の閉鎖等,0,2022-01-12,2022-01-06,協和療品合資会社,,合資会社,神奈川県,高座郡寒川町,岡田７丁目１番１２－３０５号,,14,321,2530105,,,2022-01-06,清算の結了等,,,2015-10-05,1,,,,,,0
500,2030001068684,登記記録の閉鎖等,0,2022-01-12,2022-01-07,株式会社インデックス,,株式会社,埼玉県,坂戸市,大字北大塚１５７番地１,,11,239,3500253,,,2022-01-07,清算の結了等,,,2015-10-05,1,,,,,インデックス,0
505,2030002115824,登記記録の閉鎖等,0,2022-01-12,2022-01-07,有限会社篠田牛乳店,,有限会社,埼玉県,大里郡寄居町,大字赤浜６５８番地７,,11,408,3691211,,,2022-01-07,清算の結了等,,,2015-10-05,1,,,,,シノダギュウニュウテン,0
529,2060002027661,登記記録の閉鎖等,0,2022-01-12,2022-01-04,有限会社レッズ宇都宮,,有限会社,栃木県,宇都宮市,幕田町５９６番地５,,09,201,3210157,,,2022-01-04,合併による解散等,8060001006768,令和４年１月１日栃木県宇都宮市幕田町５９６番地５株式会社スーパーレッズ（8060001006768）に合併し解散,2015-10-05,1,,,,,レッズウツノミヤ,0
533,2070002003067,登記記録の閉鎖等,0,2022-01-12,2022-01-07,有限会社関口商店,,有限会社,群馬県,前橋市,関根町２丁目７番地１３,,10,201,3710047,,,2022-01-07,清算の結了等,,,2015-10-05,1,,,,,セキグチショウテン,0
542,2100001005424,登記記録の閉鎖等,0,2022-01-12,2022-01-07,株式会社アオキ建装,,株式会社,長野県,長野市,川中島町御厨１６８５番地,,20,201,3812221,,,2022-01-07,清算の結了等,,,2015-10-05,1,,,,,アオキケンソウ,0
545,2100002014705,登記記録の閉鎖等,0,2022-01-12,2022-01-07,有限会社別所観光ホテル,,有限会社,長野県,上田市,別所温泉３２３番地,,20,203,3861431,,,2022-01-07,清算の結了等,,,2015-10-05,1,,,,,,0
561,2120101031236,登記記録の閉鎖等,0,2022-01-12,2022-01-11,株式会社マツバ,,株式会社,大阪府,富田林市,東板持町１丁目１２番８号,,27,214,5840046,,,2022-01-11,清算の結了等,,,2015-10-05,1,,,,,マツバ,0
566,2120901033761,登記記録の閉鎖等,0,2022-01-12,2021-12-27,正和ＨＤ株式会社,,株式会社,大阪府,吹田市,江坂町５丁目５番８号,,27,205,5640063,,,2021-12-27,清算の結了等,,,2015-10-05,1,,,,,ショウワホールディングス,0
594,2140005001044,登記記録の閉鎖等,0,2022-01-12,2021-12-14,日本イエス・キリスト教団高和教会,,その他の設立登記法人,兵庫県,神戸市西区,押部谷町高和８５番地２,,28,111,6512204,,,2021-12-14,合併による解散等,2140005021579,令和３年１２月１４日神戸市西区押部谷町福住６０２の２日本イエス・キリスト教団神戸西聖愛教会（2140005021579）に合併し解散,2015-10-05,1,,,,,,0
604,2180001070650,登記記録の閉鎖等,0,2022-01-12,2022-01-04,株式会社マンエイ,,株式会社,愛知県,名古屋市緑区,滝ノ水４丁目２４１０番地,,23,114,4580021,,,2022-01-04,合併による解散等,4180001029059,令和４年１月１日名古屋市緑区滝ノ水四丁目２４１０番地株式会社有美社（4180001029059）に合併し解散,2015-10-05,1,,,,,マンエイ,0
612,2180002086638,登記記録の閉鎖等,0,2022-01-12,2022-01-05,有限会社田中経理サポートセンター,,有限会社,愛知県,半田市,清水西町７０番地,,23,205,4750865,,,2022-01-05,清算の結了等,,,2015-10-05,1,,,,,タナカケイリサポートセンター,0
617,2180301015396,登記記録の閉鎖等,0,2022-01-12,2022-01-07,トーワフーズ株式会社,,株式会社,愛知県,碧南市,二本木町２丁目２２番地,,23,209,4470029,,,2022-01-07,清算の結了等,,,2015-10-05,1,,,,,トーワフーズ,0
630,2220002012663,登記記録の閉鎖等,0,2022-01-12,2022-01-06,有限会社中出板金工業,,有限会社,石川県,加賀市,山代温泉神明町６４番地４,,17,206,9220244,,,2022-01-06,清算の結了等,,,2015-10-05,1,,,,,ナカデバンキンコウギョウ,0
644,2260002005705,登記記録の閉鎖等,0,2022-01-12,2022-01-11,有限会社相互塗装工場,,有限会社,岡山県,岡山市中区,倉田１６１番地の５,,33,102,7038265,,,2022-01-11,清算の結了等,,,2015-10-05,1,,,,,ソウゴトソウコウジョウ,0
662,2290003008118,登記記録の閉鎖等,0,2022-01-12,2021-12-15,合同会社Ｓｔｅｌｌａｒ,,合同会社,福岡県,太宰府市,御笠１丁目１０番１３号,,40,221,8180110,,,2021-12-15,清算の結了等,,,2018-05-30,1,,,,,ステラ,0
677,2330002023369,登記記録の閉鎖等,0,2022-01-12,2022-01-05,有限会社成和自動車工業,,有限会社,熊本県,阿蘇郡南小国町,大字赤馬場１７１番地の３,,43,423,8692401,,,2022-01-05,清算の結了等,,,2015-10-05,1,,,,,セイワジドウシャコウギョウ,0
683,2340005002682,登記記録の閉鎖等,0,2022-01-12,2021-12-20,天理教羽月分教会,,その他の設立登記法人,鹿児島県,伊佐市,大口下殿１１番地２,,46,224,8952525,,,2021-12-20,合併による解散等,2350005002038,令和３年１２月１５日宮崎県西都市大字童子丸５４１番地天理教兒湯分教会（2350005002038）に合併し解散,2015-10-05,1,,,,,,0
685,2350003003450,登記記録の閉鎖等,0,2022-01-12,2022-01-06,合同会社匠工務店宮崎,,合同会社,宮崎県,宮崎市,京塚２丁目３番３０号第５久保ビル１Ｆ,,45,201,8800937,,,2022-01-06,清算の結了等,,,2019-10-28,1,,,,,タクミコウムテンミヤザキ,0
699,2400001004362,登記記録の閉鎖等,0,2022-01-12,2022-01-12,株式会社商環境マネジメント,,株式会社,岩手県,盛岡市,本町通３丁目５番８号,,03,201,0200015,,,2022-01-12,登記官による閉鎖,,,2015-10-05,1,,,,,,0
700,2400001007423,登記記録の閉鎖等,0,2022-01-12,2022-01-12,株式会社丸栄及新,,株式会社,岩手県,釜石市,浜町２丁目１番３号,,03,211,0260013,,,2022-01-12,登記官による閉鎖,,,2015-10-05,1,,,,,,0
702,2400002010302,登記記録の閉鎖等,0,2022-01-12,2022-01-12,有限会社千葉時計店,,有限会社,岩手県,遠野市,中央通り５番３２号,,03,208,0280523,,,2022-01-12,登記官による閉鎖,,,2015-10-05,1,,,,,,0
703,2400002010434,登記記録の閉鎖等,0,2022-01-12,2022-01-12,有限会社マザーハート,,有限会社,岩手県,遠野市,松崎町白岩２０地割１４番地１,,03,208,0280541,,,2022-01-12,登記官による閉鎖,,,2015-10-05,1,,,,,,0
704,2400002011944,登記記録の閉鎖等,0,2022-01-12,2022-01-12,有限会社カメラの十王,,有限会社,岩手県,上閉伊郡大槌町,安渡１丁目７番１５号,,03,461,0281105,,,2022-01-12,登記官による閉鎖,,,2015-10-05,1,,,,,,0
706,2400005002247,登記記録の閉鎖等,0,2022-01-12,2022-01-12,特定非営利活動法人手話っ知,,その他の設立登記法人,岩手県,盛岡市,東見前７地割１４４番地９,,03,201,0200832,,,2022-01-12,登記官による閉鎖,,,2015-10-05,1,,,,,,0
712,2430002016759,登記記録の閉鎖等,0,2022-01-12,2021-12-22,有限会社ファーストエージェンシー,,有限会社,北海道,札幌市中央区,南十四条西１１丁目１－３,,01,101,0640914,,,2021-12-22,合併による解散等,2430001041072,令和３年１２月２２日札幌市中央区南十四条西十一丁目１－３株式会社アゲイン（2430001041072）に合併し解散,2015-10-05,1,,,,,,0
716,2440001002032,登記記録の閉鎖等,0,2022-01-12,2022-01-11,株式会社包装資材タナカ,,株式会社,北海道,函館市,深堀町２７番１０号,,01,202,0420941,,,2022-01-11,登記官による閉鎖,,,2015-10-05,1,,,,,,0
717,2440002001446,登記記録の閉鎖等,0,2022-01-12,2022-01-11,有限会社黒沼商店,,有限会社,北海道,函館市,中道１丁目２番１８号,,01,202,0410853,,,2022-01-11,登記官による閉鎖,,,2015-10-05,1,,,,,,0
718,2440002007740,登記記録の閉鎖等,0,2022-01-12,2022-01-11,有限会社ハウジングアキバ,,有限会社,北海道,亀田郡七飯町,大中山８丁目５５２番地の３,,01,337,0411121,,,2022-01-11,登記官による閉鎖,,,2015-10-05,1,,,,,,0
719,2440002008219,登記記録の閉鎖等,0,2022-01-12,2022-01-11,有限会社タナカ商事,,有限会社,北海道,亀田郡七飯町,鳴川４丁目６番１９号,,01,337,0411112,,,2022-01-11,登記官による閉鎖,,,2015-10-05,1,,,,,,0
720,2440002009043,登記記録の閉鎖等,0,2022-01-12,2022-01-11,有限会社丸ウ氏家商店,,有限会社,北海道,久遠郡せたな町,北檜山区豊岡９６番地の３,,01,371,0494514,,,2022-01-11,登記官による閉鎖,,,2015-10-05,1,,,,,,0
721,2440002009316,登記記録の閉鎖等,0,2022-01-12,2022-01-11,有限会社安井測量設計社,,有限会社,北海道,茅部郡森町,字森川町１９０番地,,01,345,0492313,,,2022-01-11,登記官による閉鎖,,,2015-10-05,1,,,,,,0
739,3010001168816,登記記録の閉鎖等,0,2022-01-12,2022-01-04,ゼオンナノテクノロジー株式会社,,株式会社,東京都,千代田区,丸の内１丁目６番２号,,13,101,1000005,,,2022-01-04,合併による解散等,9010001008834,令和４年１月１日東京都千代田区丸の内一丁目６番２号日本ゼオン株式会社（9010001008834）に合併し解散,2015-10-05,1,,,,,ゼオンナノテクノロジー,0
755,3010102006718,登記記録の閉鎖等,0,2022-01-12,2022-01-07,有限会社美帆メディカル・サービス,,有限会社,東京都,八王子市,楢原町１４８３番地の１５,00050438,13,201,1930803,,,2022-01-07,清算の結了等,,,2015-10-05,1,,,,,,0
765,3010403016754,登記記録の閉鎖等,0,2022-01-12,2021-12-28,寶聖グローバルオーシャン合同会社,,合同会社,東京都,港区,海岸３丁目３３番１７号東京ベイサイドビル,,13,103,1080022,,,2021-12-28,清算の結了等,,,2017-06-12,1,,,,,ホウセイグローバルオーシャン,0
771,3010502021069,登記記録の閉鎖等,0,2022-01-12,2022-01-07,有限会社筆心,,有限会社,東京都,台東区,今戸２丁目３０－３フレンドリーコーポ１階,,13,106,1110024,,,2022-01-07,清算の結了等,,,2015-10-05,1,,,,,ヒッシン,0
791,3011001128248,登記記録の閉鎖等,0,2022-01-12,2021-12-22,株式会社ＥＮＤＥＡＶＯＵＲ,,株式会社,東京都,渋谷区,神宮前３丁目２５番１８号,,13,113,1500001,,,2021-12-22,合併による解散等,4011001093672,令和３年１２月２０日東京都目黒区青葉台一丁目７番１４－４０３号株式会社Ｋ　Ａｓｓｅｔ　Ｍａｎａｇｅｍｅｎｔ（4011001093672）に合併し解散,2019-05-30,1,,,,,エンデバー,0
802,3011501006671,登記記録の閉鎖等,0,2022-01-12,2022-01-11,株式会社佐藤建設,,株式会社,東京都,荒川区,南千住５丁目１５番１号,,13,118,1160003,,,2022-01-11,登記官による閉鎖,,,2015-10-05,1,,,,,,0
803,3011501008981,登記記録の閉鎖等,0,2022-01-12,2022-01-11,ミリオンシステム株式会社,,株式会社,東京都,荒川区,西日暮里１丁目４６番１０－２０１号,,13,118,1160013,,,2022-01-11,登記官による閉鎖,,,2015-10-05,1,,,,,,0
804,3011501010970,登記記録の閉鎖等,0,2022-01-12,2022-01-11,現代システムラボラトリ株式会社,,株式会社,東京都,北区,上中里１丁目３３番９号,,13,117,1140016,,,2022-01-11,登記官による閉鎖,,,2015-10-05,1,,,,,,0
809,3011502008213,登記記録の閉鎖等,0,2022-01-12,2022-01-11,有限会社ケイトーコピー,,有限会社,東京都,荒川区,西日暮里５丁目３０番７号,,13,118,1160013,,,2022-01-11,登記官による閉鎖,,,2015-10-05,1,,,,,,0
810,3011502008270,登記記録の閉鎖等,0,2022-01-12,2022-01-11,有限会社工芸社カトウ,,有限会社,東京都,荒川区,荒川８丁目３番２号,,13,118,1160002,,,2022-01-11,登記官による閉鎖,,,2015-10-05,1,,,,,,0
811,3011502010103,登記記録の閉鎖等,0,2022-01-12,2022-01-11,有限会社トモ流通,,有限会社,東京都,荒川区,南千住２丁目３０番３号,,13,118,1160003,,,2022-01-11,登記官による閉鎖,,,2015-10-05,1,,,,,,0
812,3011502010383,登記記録の閉鎖等,0,2022-01-12,2022-01-11,有限会社根本建具商店,,有限会社,東京都,荒川区,西尾久４丁目３番１２号,,13,118,1160011,,,2022-01-11,登記官による閉鎖,,,2015-10-05,1,,,,,,0
813,3011502012776,登記記録の閉鎖等,0,2022-01-12,2022-01-11,有限会社アイ・イー・エススクール,,有限会社,東京都,北区,赤羽南１丁目３番１号高橋ビル３Ｆ,,13,117,1150044,,,2022-01-11,登記官による閉鎖,,,2015-10-05,1,,,,,,0
815,3011801000944,登記記録の閉鎖等,0,2022-01-12,2022-01-12,株式会社ガクエンファイナンス,,株式会社,東京都,葛飾区,南水元２丁目２０番１０号,,13,122,1250035,,,2022-01-12,登記官による閉鎖,,,2015-10-05,1,,,,,ガクエンファイナンス,0
816,3011801018466,登記記録の閉鎖等,0,2022-01-12,2022-01-12,株式会社イッセイクラフト,,株式会社,東京都,葛飾区,立石８丁目３２番１０号,,13,122,1240012,,,2022-01-12,登記官による閉鎖,,,2015-10-05,1,,,,,,0
817,3011801019605,登記記録の閉鎖等,0,2022-01-12,2022-01-12,株式会社オフィスケイ,,株式会社,東京都,足立区,谷在家３丁目９番８号,,13,121,1230863,,,2022-01-12,登記官による閉鎖,,,2015-10-05,1,,,,,,0
818,3011801020579,登記記録の閉鎖等,0,2022-01-12,2022-01-12,株式会社しまかぜ,,株式会社,東京都,葛飾区,東金町１丁目１９番３号,,13,122,1250041,,,2022-01-12,登記官による閉鎖,,,2015-10-05,1,,,,,,0
821,3011802000828,登記記録の閉鎖等,0,2022-01-12,2022-01-12,有限会社稲荷屋商店,,有限会社,東京都,葛飾区,堀切２丁目４８番２号,,13,122,1240006,,,2022-01-12,登記官による閉鎖,,,2015-10-05,1,,,,,,0
822,3011802006676,登記記録の閉鎖等,0,2022-01-12,2022-01-12,有限会社フオトアイデア,,有限会社,東京都,葛飾区,四つ木１丁目４７番４号,,13,122,1240011,,,2022-01-12,登記官による閉鎖,,,2015-10-05,1,,,,,,0
823,3011802021527,登記記録の閉鎖等,0,2022-01-12,2022-01-12,有限会社マキタインターナショナル,,有限会社,東京都,足立区,南花畑５丁目４番５号,,13,121,1210062,,,2022-01-12,登記官による閉鎖,,,2015-10-05,1,,,,,,0
824,3011805000998,登記記録の閉鎖等,0,2022-01-12,2022-01-12,キャップ家庭品協同組合,,その他の設立登記法人,東京都,足立区,足立１丁目３番１１号,,13,121,1200015,,,2022-01-12,登記官による閉鎖,,,2015-10-05,1,,,,,,0
825,3011805001955,登記記録の閉鎖等,0,2022-01-12,2022-01-12,一般社団法人マッキーマスジド東京,,その他の設立登記法人,東京都,葛飾区,四つ木５丁目２２番１４号,,13,122,1240011,,,2022-01-12,登記官による閉鎖,,,2015-10-05,1,,,,,,0
837,3020001102006,登記記録の閉鎖等,0,2022-01-12,2022-01-05,株式会社ナイスクレア,,株式会社,神奈川県,横浜市中区,太田町４丁目４７番地,,14,104,2310011,,,2022-01-05,清算の結了等,,,2015-10-05,1,,,,,ナイスクレア,0
851,3030002055243,登記記録の閉鎖等,0,2022-01-12,2022-01-05,有限会社ゆうとぴあ,,有限会社,埼玉県,上尾市,大字平塚２４４３番地の３３,,11,219,3620011,,,2022-01-05,清算の結了等,,,2015-10-05,1,,,,,ユウトピア,0
853,3030002072692,登記記録の閉鎖等,0,2022-01-12,2022-01-06,有限会社落合電気,,有限会社,埼玉県,川越市,砂新田５丁目２８番地２,,11,201,3501137,,,2022-01-06,清算の結了等,,,2015-10-05,1,,,,,オチアイデンキ,0
922,3120001211242,登記記録の閉鎖等,0,2022-01-12,2021-12-27,株式会社ＮＡＬＣ,,株式会社,大阪府,大阪市東淀川区,東中島１丁目６番１４号,,27,114,5330033,,,2021-12-27,合併による解散等,9120001163874,令和３年１２月２５日大阪市東淀川区東中島一丁目６－１４新大阪第２日大ビル１０階株式会社Ｇ．Ｏホールディングス（9120001163874）に合併し解散,2018-02-16,1,,,,,ナルク,0
926,3120002015295,登記記録の閉鎖等,0,2022-01-12,2022-01-06,有限会社エムズ,,有限会社,大阪府,大阪市港区,八幡屋１丁目６番１４号,,27,107,5520014,,,2022-01-06,清算の結了等,,,2015-10-05,1,,,,,エムズ,0
947,3130005000640,登記記録の閉鎖等,0,2022-01-12,2021-12-15,天理教綾小路分教会,,その他の設立登記法人,京都府,京都市西京区,嵐山山ノ下町３０番地の１７,,26,111,6160015,,,2021-12-15,合併による解散等,9130005011748,令和３年１２月１５日京都府舞鶴市愛宕浜町２番地の５天理教山海分教会（9130005011748）に合併し解散,2015-10-05,1,,,,,テンリキョウアヤコウジブンキョウカイ,0
998,3260005000727,登記記録の閉鎖等,0,2022-01-12,2021-12-17,日蓮宗今村教会,,その他の設立登記法人,岡山県,岡山市北区,今７丁目２番３０号,,33,101,7000975,,,2021-12-17,合併による解散等,7260005000863,令和３年１２月１７日岡山市北区三門東町７番１号妙林寺（7260005000863）に合併し解散,2015-10-05,1,,,,,ニチレンシュウイマムラキョウカイ,0
1003,3270001007007,登記記録の閉鎖等,0,2022-01-12,2022-01-05,長門マリン工業株式会社,,株式会社,鳥取県,境港市,入船町２番地１８－１,,31,204,6840014,,,2022-01-05,合併による解散等,5270002007862,令和４年１月１日鳥取県境港市入船町２番地１３長門船舶工業株式会社（5270002007862）に合併し解散,2016-07-11,1,,,,,ナガトマリンコウギョウ,0
1022,3330005006865,登記記録の閉鎖等,0,2022-01-12,2022-01-07,天草木材工業協同組合,,その他の設立登記法人,熊本県,天草市,有明町大島子２００４番地,,43,215,8617314,,,2022-01-07,清算の結了等,,,2015-10-05,1,,,,,アマクサモクザイコウギョウ,0
1038,3370005000617,登記記録の閉鎖等,0,2022-01-12,2021-12-16,天理教本孝分教会,00082375,その他の設立登記法人,宮城県,仙台市宮城野区,鶴ケ谷東１丁目３番１２号,,04,102,9830826,,,2021-12-16,合併による解散等,9030005005347,令和３年１２月９日埼玉県加須市旗井一丁目３１番地１５天理教本埼分教会（9030005005347）に合併し解散,2015-10-05,1,,,,,テンリキョウホンタカブンキョウカイ,0
1045,3400001000831,登記記録の閉鎖等,0,2022-01-12,2022-01-12,城和建設株式会社,,株式会社,岩手県,盛岡市,中太田新田３９番地３０,,03,201,0200052,,,2022-01-12,登記官による閉鎖,,,2015-10-05,1,,,,,,0
1046,3400001003834,登記記録の閉鎖等,0,2022-01-12,2022-01-12,株式会社ヨシダランドリー,,株式会社,岩手県,紫波郡矢巾町,大字西徳田第８地割９４番地,,03,322,0283603,,,2022-01-12,登記官による閉鎖,,,2015-10-05,1,,,,,,0
1047,3400001007265,登記記録の閉鎖等,0,2022-01-12,2022-01-12,冨士恵鉱業株式会社,,株式会社,岩手県,下閉伊郡普代村,第２０地割字馬場野６７番地の２,,03,485,0288301,,,2022-01-12,登記官による閉鎖,,,2015-10-05,1,,,,,,0
1048,3400001007562,登記記録の閉鎖等,0,2022-01-12,2022-01-12,株式会社川井機工,,株式会社,岩手県,上閉伊郡大槌町,大町１５番９号,,03,461,0281112,,,2022-01-12,登記官による閉鎖,,,2015-10-05,1,,,,,,0
1049,3400001007686,登記記録の閉鎖等,0,2022-01-12,2022-01-12,株式会社横濱建設,,株式会社,岩手県,二戸市,安比字上大簗平２２番地３,,03,213,0286723,,,2022-01-12,登記官による閉鎖,,,2015-10-05,1,,,,,,0
1052,3400002006547,登記記録の閉鎖等,0,2022-01-12,2022-01-12,有限会社タカショウ岩手,,有限会社,岩手県,盛岡市,大通３丁目９番１７号,,03,201,0200022,,,2022-01-12,登記官による閉鎖,,,2015-10-05,1,,,,,,0
1053,3400002012660,登記記録の閉鎖等,0,2022-01-12,2022-01-12,有限会社インベント,,有限会社,岩手県,二戸市,浄法寺町里川目２２番地,,03,213,0286872,,,2022-01-12,登記官による閉鎖,,,2015-10-05,1,,,,,,0
1055,3400002013213,登記記録の閉鎖等,0,2022-01-12,2022-01-12,カネニ食品有限会社,,有限会社,岩手県,九戸郡洋野町,種市第２２地割１３１番地１８,,03,507,0287914,,,2022-01-12,登記官による閉鎖,,,2015-10-05,1,,,,,,0
1056,3400003000656,登記記録の閉鎖等,0,2022-01-12,2022-01-12,合資会社盛電工業,,合資会社,岩手県,北上市,堤ケ丘１丁目８番２０号,,03,206,0240011,,,2022-01-12,登記官による閉鎖,,,2015-10-05,1,,,,,,0
1057,3400005002741,登記記録の閉鎖等,0,2022-01-12,2022-01-12,農事組合法人荒谷採草搾乳組合,,その他の設立登記法人,岩手県,岩手郡葛巻町,葛巻第３２地割１７番地,,03,302,0285402,,,2022-01-12,登記官による閉鎖,,,2015-10-05,1,,,,,,0
1058,3400005003888,登記記録の閉鎖等,0,2022-01-12,2022-01-12,農事組合法人来内草地管理組合,,その他の設立登記法人,岩手県,遠野市,上郷町来内６地割３０番地,,03,208,0280774,,,2022-01-12,登記官による閉鎖,,,2015-10-05,1,,,,,,0
1059,3400005004052,登記記録の閉鎖等,0,2022-01-12,2022-01-12,農事組合法人上川井協業養蚕組合,,その他の設立登記法人,岩手県,宮古市,川井第８地割３６番地,,03,202,0282302,,,2022-01-12,登記官による閉鎖,,,2015-10-05,1,,,,,,0
1062,3400602000866,登記記録の閉鎖等,0,2022-01-12,2022-01-12,江刺運輸有限会社,,有限会社,岩手県,奥州市,江刺伊手字寺地５０番地７,,03,215,0231761,,,2022-01-12,登記官による閉鎖,,,2015-10-05,1,,,,,,0
1063,3402702000597,登記記録の閉鎖等,0,2022-01-12,2022-01-12,有限会社モトショップ・タカタ,,有限会社,岩手県,陸前高田市,高田町字裏田６６番地５,,03,210,0292205,,,2022-01-12,登記官による閉鎖,,,2015-10-05,1,,,,,,0
1064,3402702000671,登記記録の閉鎖等,0,2022-01-12,2022-01-11,有限会社ホソヤ,,有限会社,岩手県,大船渡市,大船渡町字明神前９番地２６,,03,203,0220002,,,2022-01-11,清算の結了等,,,2015-10-05,1,,,,,ホソヤ,0
1067,3420003000539,登記記録の閉鎖等,0,2022-01-12,2022-01-06,合同会社山三,,合同会社,青森県,八戸市,卸センター１丁目３３番５号,,02,203,0391121,,,2022-01-06,清算の結了等,,,2015-10-05,1,,,,,ヤマサン,0
1069,3430001036749,登記記録の閉鎖等,0,2022-01-12,2021-12-22,株式会社クレバー,,株式会社,北海道,札幌市中央区,南十四条西１１丁目１－３,,01,101,0640914,,,2021-12-22,合併による解散等,2430001041072,令和３年１２月２２日札幌市中央区南十四条西十一丁目１－３株式会社アゲイン（2430001041072）に合併し解散,2015-10-05,1,,,,,クレバー,0
1076,3440001002171,登記記録の閉鎖等,0,2022-01-12,2022-01-11,株式会社前田設計,,株式会社,北海道,函館市,青柳町１８番２１号,,01,202,0400044,,,2022-01-11,登記官による閉鎖,,,2015-10-05,1,,,,,,0
1077,3440002004893,登記記録の閉鎖等,0,2022-01-12,2022-01-11,有限会社籾山左官工業,00090416,有限会社,北海道,函館市,鍛治１丁目１番７号,,01,202,0410852,,,2022-01-11,登記官による閉鎖,,,2015-10-05,1,,,,,,0
1078,3440005000287,登記記録の閉鎖等,0,2022-01-12,2022-01-11,医療法人社団仲野谷泌尿器科医院,,その他の設立登記法人,北海道,函館市,富岡町１丁目１番１９号,,01,202,0410811,,,2022-01-11,登記官による閉鎖,,,2015-10-05,1,,,,,,0
1087,3480001004916,登記記録の閉鎖等,0,2022-01-12,2022-01-12,泉プロパン石油株式会社,,株式会社,徳島県,鳴門市,撫養町林崎字北殿町９１番地の１,,36,202,7720016,,,2022-01-12,清算の結了等,,,2015-10-05,1,,,,,イズミプロパンセキユ,0
1093,4010001054445,登記記録の閉鎖等,0,2022-01-12,2022-01-05,リケンファブロ株式会社,,株式会社,東京都,千代田区,神田淡路町２丁目１０１番地,,13,101,1010063,,,2022-01-05,合併による解散等,9010001034970,令和４年１月１日東京都千代田区神田淡路町二丁目１０１番地リケンテクノス株式会社（9010001034970）に合併し解散,2015-10-05,1,,,,,リケンファブロ,0
1112,4010401045894,登記記録の閉鎖等,0,2022-01-12,2022-01-04,アルマン株式会社,,株式会社,東京都,新宿区,内藤町１番地１０,,13,104,1600014,,,2022-01-04,清算の結了等,,,2015-10-05,1,,,,,アルマン,0
1113,4010401074588,登記記録の閉鎖等,0,2022-01-12,2021-12-28,株式会社ＨＲコンサルティング,,株式会社,東京都,港区,南麻布２丁目７番３１号,,13,103,1060047,,,2021-12-28,清算の結了等,,,2015-10-05,1,,,,,エイチアールコンサルティング,0
1130,4010605000761,登記記録の閉鎖等,0,2022-01-12,2021-12-28,墨東質業協同組合,,その他の設立登記法人,東京都,墨田区,緑１丁目１４番２０号,,13,107,1300021,,,2021-12-28,清算の結了等,,,2015-10-05,1,,,,,ボクトウシチギョウ,0
1138,4011003011426,登記記録の閉鎖等,0,2022-01-12,2021-12-22,ＮＯＣ合同会社,,合同会社,東京都,目黒区,青葉台１丁目３０番１３号９０２,,13,110,1530042,,,2021-12-22,清算の結了等,,,2020-07-28,1,,,,,ノック,0
1150,4011301015038,登記記録の閉鎖等,0,2022-01-12,2022-01-04,Ｇｅｎｓ　Ｍｕｓｉｃ　Ｓｔｙｌｅ株式会社,,株式会社,東京都,杉並区,浜田山１丁目３３番３０号メゾンアンドー３０１,,13,115,1680065,,,2022-01-04,清算の結了等,,,2015-10-05,1,,,,,ジャンミュージックスタイル,0
1151,4011402007421,登記記録の閉鎖等,0,2022-01-12,2022-01-06,ひかわ自動車有限会社,,有限会社,東京都,板橋区,熊野町３７番１１号,,13,119,1730025,,,2022-01-06,清算の結了等,,,2015-10-05,1,,,,,ヒカワジドウシャ,0
1152,4011501001795,登記記録の閉鎖等,0,2022-01-12,2022-01-11,株式会社サザン,,株式会社,東京都,北区,中里２丁目５番５号,,13,117,1140015,,,2022-01-11,登記官による閉鎖,,,2015-10-05,1,,,,,,0
1153,4011501016166,登記記録の閉鎖等,0,2022-01-12,2022-01-11,株式会社コミュニティビジネスサポートセンター,,株式会社,東京都,北区,志茂２丁目５９番２０号ＵＳビル,,13,117,1150042,,,2022-01-11,登記官による閉鎖,,,2015-10-05,1,,,,,,0
1154,4011501016579,登記記録の閉鎖等,0,2022-01-12,2022-01-11,株式会社レッドスターコーポレーション,,株式会社,東京都,北区,神谷１丁目２９番８号神谷荘２０１号,,13,117,1150043,,,2022-01-11,登記官による閉鎖,,,2015-10-05,1,,,,,,0
1156,4011503002148,登記記録の閉鎖等,0,2022-01-12,2022-01-11,合同会社安いレンタカーＪＪ,,合同会社,東京都,荒川区,南千住８丁目１０番３号３０２,,13,118,1160003,,,2022-01-11,登記官による閉鎖,,,2015-10-05,1,,,,,,0
1157,4011505001131,登記記録の閉鎖等,0,2022-01-12,2022-01-11,特定非営利活動法人ベトナム点字図書館国際支援の会,,その他の設立登記法人,東京都,荒川区,西尾久１丁目３番８号,,13,118,1160011,,,2022-01-11,登記官による閉鎖,,,2015-10-05,1,,,,,,0
1158,4011801006263,登記記録の閉鎖等,0,2022-01-12,2022-01-12,株式会社エイコーフタバ,,株式会社,東京都,足立区,日ノ出町２７番３－１１２４号,,13,121,1200021,,,2022-01-12,登記官による閉鎖,,,2015-10-05,1,,,,,,0
1159,4011801009472,登記記録の閉鎖等,0,2022-01-12,2022-01-12,太陽運輸株式会社,,株式会社,東京都,足立区,南花畑２丁目４７番８号,,13,121,1210062,,,2022-01-12,登記官による閉鎖,,,2015-10-05,1,,,,,,0
1160,4011801010273,登記記録の閉鎖等,0,2022-01-12,2022-01-12,東亜電飾株式会社,,株式会社,東京都,足立区,千住緑町３丁目１３番２３号,,13,121,1200044,,,2022-01-12,登記官による閉鎖,,,2015-10-05,1,,,,,,0
1161,4011801010645,登記記録の閉鎖等,0,2022-01-12,2022-01-12,株式会社中川塗装,,株式会社,東京都,足立区,一ツ家３丁目２２番１号,,13,121,1210075,,,2022-01-12,登記官による閉鎖,,,2015-10-05,1,,,,,,0
1162,4011801016502,登記記録の閉鎖等,0,2022-01-12,2022-01-12,株式会社しょうげつや,,株式会社,東京都,葛飾区,西亀有２丁目４５番１４号,,13,122,1240002,,,2022-01-12,登記官による閉鎖,,,2015-10-05,1,,,,,,0
1163,4011801022228,登記記録の閉鎖等,0,2022-01-12,2022-01-12,株式会社島田会計センター,,株式会社,東京都,足立区,千住１丁目２１番１５号,,13,121,1200034,,,2022-01-12,登記官による閉鎖,,,2015-10-05,1,,,,,,0
1164,4011801023003,登記記録の閉鎖等,0,2022-01-12,2022-01-12,株式会社マウントヒルズホールディングス,,株式会社,東京都,足立区,千住２丁目６５番地藤本ビル２階,,13,121,1200034,,,2022-01-12,登記官による閉鎖,,,2015-10-05,1,,,,,,0
1165,4011801024629,登記記録の閉鎖等,0,2022-01-12,2022-01-12,株式会社ＭＩＣＨＩ,,株式会社,東京都,足立区,古千谷本町３丁目９番１０－２０１号,,13,121,1210832,,,2022-01-12,登記官による閉鎖,,,2015-10-05,1,,,,,,0
1166,4011802008507,登記記録の閉鎖等,0,2022-01-12,2022-01-12,有限会社若林貴金属,,有限会社,東京都,葛飾区,堀切１丁目１８番１９号,,13,122,1240006,,,2022-01-12,登記官による閉鎖,,,2015-10-05,1,,,,,,0
1167,4011802020081,登記記録の閉鎖等,0,2022-01-12,2022-01-12,ユモトネジ有限会社,,有限会社,東京都,足立区,皿沼１丁目１６番３号,,13,121,1230862,,,2022-01-12,登記官による閉鎖,,,2015-10-05,1,,,,,,0
1168,4011802023480,登記記録の閉鎖等,0,2022-01-12,2022-01-12,有限会社マル五商会,,有限会社,東京都,葛飾区,高砂７丁目９番３号,,13,122,1250054,,,2022-01-12,登記官による閉鎖,,,2015-10-05,1,,,,,,0
1171,4011805001533,登記記録の閉鎖等,0,2022-01-12,2022-01-12,医療法人社団誠隆会,,その他の設立登記法人,東京都,足立区,青井３丁目３４番１５号,,13,121,1200012,,,2022-01-12,登記官による閉鎖,,,2015-10-05,1,,,,,,0
1189,4020001029413,登記記録の閉鎖等,0,2022-01-12,2022-01-04,株式会社横浜環境デザイン研究所,,株式会社,神奈川県,横浜市保土ケ谷区,保土ケ谷町２丁目１１６番地,,14,106,2400021,,,2022-01-04,清算の結了等,,,2015-10-05,1,,,,,,0
1196,4020005014725,登記記録の閉鎖等,0,2022-01-12,2022-01-06,朝日行政書士法人,,その他の設立登記法人,神奈川県,横浜市中区,住吉町２丁目２７番地,,14,104,2310013,,,2022-01-06,清算の結了等,,,2020-07-15,1,,,,,アサヒ,0
1208,4030001066892,登記記録の閉鎖等,0,2022-01-12,2022-01-07,株式会社石橋製作所,,株式会社,埼玉県,吉川市,中島２丁目３８番地,,11,243,3420031,,,2022-01-07,清算の結了等,,,2015-10-05,1,,,,,イシバシセイサクショ,0
1214,4030005012298,登記記録の閉鎖等,0,2022-01-12,2021-12-20,天理教平和分教会,,その他の設立登記法人,埼玉県,川口市,朝日３丁目１７番２８号,,11,203,3320001,,,2021-12-20,合併による解散等,6030005005606,令和３年１２月２０日埼玉県草加市稲荷二丁目２９番２３号天理教立野堀大教会（6030005005606）に合併し解散,2015-10-05,1,,,,,テンリキョウヘイワブンキョウカイ,0
1220,4040002019683,登記記録の閉鎖等,0,2022-01-12,2021-12-28,有限会社インフォメディアリ,,有限会社,千葉県,習志野市,藤崎３丁目１４番２９号,,12,216,2750017,,,2021-12-28,清算の結了等,,,2015-10-05,1,,,,,インフォメディアリ,0
1232,4050003005120,登記記録の閉鎖等,0,2022-01-12,2022-01-05,合同会社マルミ興業,,合同会社,茨城県,那珂郡東海村,豊白１丁目１９番１号,,08,341,3191107,,,2022-01-05,清算の結了等,,,2020-04-02,1,,,,,マルミコウギョウ,0
1241,4070001017330,登記記録の閉鎖等,0,2022-01-12,2022-01-07,株式会社マサル技研,,株式会社,群馬県,みどり市,大間々町桐原２８９番地４,,10,212,3760102,,,2022-01-07,清算の結了等,,,2015-10-05,1,,,,,マサルギケン,0
1245,4070002003635,登記記録の閉鎖等,0,2022-01-12,2022-01-07,有限会社つたや商店,,有限会社,群馬県,前橋市,住吉町１丁目１５番９号,,10,201,3710021,,,2022-01-07,清算の結了等,,,2015-10-05,1,,,,,ツタヤショウテン,0
1246,4070002029795,登記記録の閉鎖等,0,2022-01-12,2022-01-07,有限会社園田熱処理工業所,,有限会社,群馬県,太田市,大原町１６３番地１１,,10,205,3792304,,,2022-01-07,清算の結了等,,,2015-10-05,1,,,,,ソノダネツショリコウギョウショ,0
1257,4110003004454,登記記録の閉鎖等,0,2022-01-12,2022-01-06,ＫＶＡ合同会社,,合同会社,新潟県,上越市,木田２丁目２番５号,,15,222,9430805,,,2022-01-06,清算の結了等,,,2021-04-23,1,,,,,ケーブイエー,0
1262,4120001223088,登記記録の閉鎖等,0,2022-01-12,2022-01-06,株式会社ムササビ,,株式会社,長野県,安曇野市,穂高有明９９９９番地１,,20,220,3998301,,,2022-01-06,清算の結了等,,,2019-08-15,1,,,,,ムササビ,0
1288,4140001073705,登記記録の閉鎖等,0,2022-01-12,2021-12-24,株式会社ヒロ伊藤,,株式会社,兵庫県,西宮市,若山町１１番８－１０２号,,28,204,6638016,,,2021-12-24,清算の結了等,,,2015-10-05,1,,,,,ヒロイトウ,0
1300,4180001012320,登記記録の閉鎖等,0,2022-01-12,2022-01-06,株式会社マジコ,,株式会社,愛知県,名古屋市北区,安井１丁目２１番２号,,23,103,4620023,,,2022-01-06,清算の結了等,,,2015-10-05,1,,,,,,0
1333,4200005008246,登記記録の閉鎖等,0,2022-01-12,2021-12-20,天理教多治見分教会,00077494,その他の設立登記法人,岐阜県,多治見市,精華町２８番地,,21,204,5070031,,,2021-12-20,合併による解散等,3200005006754,令和３年１２月２０日岐阜県加茂郡川辺町西栃井４００番地天理教東濃大教会（3200005006754）に合併し解散,2015-10-05,1,,,,,,0
1343,4240005010347,登記記録の閉鎖等,0,2022-01-12,2021-11-26,嚴島神社,,その他の設立登記法人,広島県,竹原市,田万里町１８７９番地,,34,203,7250001,,,2021-11-26,合併による解散等,5240005010429,令和３年１１月２６日広島県竹原市田万里町１２２８番地八幡神社（5240005010429）に合併し解散,2015-10-05,1,,,,,イツクシマジンジャ,0
1392,4340002014539,登記記録の閉鎖等,0,2022-01-12,2022-01-07,有限会社伊佐,,有限会社,鹿児島県,姶良郡湧水町,米永３１２２－１,,46,452,8996207,,,2022-01-07,合併による解散等,3340001008360,令和４年１月５日鹿児島県姶良郡湧水町米永３１２２番地１株式会社アーモンド工房カホク（3340001008360）に合併し解散,2015-10-05,1,,,,,イサ,0
1401,4380001016441,登記記録の閉鎖等,0,2022-01-12,2022-01-04,株式会社いがり,,株式会社,福島県,双葉郡浪江町,大字権現堂字下続町３番地,,07,547,9791521,,,2022-01-04,清算の結了等,,,2015-10-05,1,,,,,イガリ,0
1407,4400001002034,登記記録の閉鎖等,0,2022-01-12,2022-01-12,株式会社岩手住研,,株式会社,岩手県,盛岡市,津志田南２丁目１３番３８号,,03,201,0200839,,,2022-01-12,登記官による閉鎖,,,2015-10-05,1,,,,,,0
1411,4400002011604,登記記録の閉鎖等,0,2022-01-12,2022-01-12,有限会社佐々源魚店,,有限会社,岩手県,釜石市,大町３丁目１０番５号,,03,211,0260024,,,2022-01-12,登記官による閉鎖,,,2015-10-05,1,,,,,,0
1412,4400002011868,登記記録の閉鎖等,0,2022-01-12,2022-01-12,有限会社山形屋,,有限会社,岩手県,釜石市,浜町１丁目５番１０号,,03,211,0260013,,,2022-01-12,登記官による閉鎖,,,2015-10-05,1,,,,,,0
1413,4402705000008,登記記録の閉鎖等,0,2022-01-12,2022-01-12,農事組合法人平沢養蚕組合,,その他の設立登記法人,岩手県,気仙郡住田町,上有住字平沢９０番地,,03,441,0292501,,,2022-01-12,登記官による閉鎖,,,2015-10-05,1,,,,,,0
1415,4410002002973,登記記録の閉鎖等,0,2022-01-12,2022-01-04,有限会社ハイパーサイエンス,,有限会社,秋田県,秋田市,山王中島町３番５号カスガビル,,05,201,0100955,,,2022-01-04,清算の結了等,,,2015-10-05,1,,,,,ハイパーサイエンス,0
1417,4420002009134,登記記録の閉鎖等,0,2022-01-12,2022-01-06,大和地所有限会社,,有限会社,青森県,八戸市,大字糠塚字古常泉下１８番地４,,02,203,0310022,,,2022-01-06,清算の結了等,,,2015-10-05,1,,,,,ヤマトチショ,0
1419,4430001008441,登記記録の閉鎖等,0,2022-01-12,2021-12-22,株式会社アーバンエキスパート,,株式会社,北海道,札幌市中央区,南十四条西１１丁目１－３,,01,101,0640914,,,2021-12-22,合併による解散等,2430001041072,令和３年１２月２２日札幌市中央区南十四条西十一丁目１－３株式会社アゲイン（2430001041072）に合併し解散,2015-10-05,1,,,,,アーバンエキスパート,0
1427,4440001002303,登記記録の閉鎖等,0,2022-01-12,2022-01-11,株式会社丸ツ若杉靴鞄店,00090315,株式会社,北海道,函館市,若松町２０番７号,,01,202,0400063,,,2022-01-11,登記官による閉鎖,,,2015-10-05,1,,,,,,0
1428,4440002001956,登記記録の閉鎖等,0,2022-01-12,2022-01-11,沢田建築工業有限会社,,有限会社,北海道,函館市,石崎町７２４番地,,01,202,0410261,,,2022-01-11,登記官による閉鎖,,,2015-10-05,1,,,,,,0
1429,4440002002772,登記記録の閉鎖等,0,2022-01-12,2022-01-11,有限会社スライヴ,,有限会社,北海道,函館市,堀川町３１番１２号,,01,202,0400025,,,2022-01-11,登記官による閉鎖,,,2015-10-05,1,,,,,,0
1430,4440002003226,登記記録の閉鎖等,0,2022-01-12,2022-01-11,有限会社西岡損害保険事務所,,有限会社,北海道,函館市,美原４丁目２番１号,,01,202,0410806,,,2022-01-11,登記官による閉鎖,,,2015-10-05,1,,,,,,0
1431,4440002007573,登記記録の閉鎖等,0,2022-01-12,2022-01-11,有限会社金子鉄工,,有限会社,北海道,亀田郡七飯町,本町４丁目１８番１３号,,01,337,0411111,,,2022-01-11,登記官による閉鎖,,,2015-10-05,1,,,,,,0
1432,4440002010024,登記記録の閉鎖等,0,2022-01-12,2022-01-11,有限会社カネカ川上商店,,有限会社,北海道,寿都郡寿都町,字大磯町１０４番地１,,01,392,0480404,,,2022-01-11,登記官による閉鎖,,,2015-10-05,1,,,,,,0
1448,5010003018042,登記記録の閉鎖等,0,2022-01-12,2022-01-06,合同会社テンターズショップ,,合同会社,東京都,文京区,小石川２丁目１７番２８号,,13,105,1120002,,,2022-01-06,清算の結了等,,,2015-10-05,1,,,,,テンターズショップ,0
1450,5010005016259,登記記録の閉鎖等,0,2022-01-12,2022-01-07,ＴＮＫ税理士法人,,その他の設立登記法人,東京都,千代田区,九段南４丁目６番１０号,,13,101,1020074,,,2022-01-07,清算の結了等,,,2015-10-05,1,,,,,ティーエヌケイ,0
1462,5010401124557,登記記録の閉鎖等,0,2022-01-12,2022-01-05,株式会社グリフィン・ソイフーズ,,株式会社,東京都,世田谷区,粕谷２丁目８番２１－３１３号,,13,112,1570063,,,2022-01-05,清算の結了等,,,2016-05-13,1,,,,,グリフィンソイフーズ,0
1511,5011501014251,登記記録の閉鎖等,0,2022-01-12,2022-01-11,東星新技術株式会社,,株式会社,東京都,荒川区,東日暮里６丁目８番１４号,,13,118,1160014,,,2022-01-11,登記官による閉鎖,,,2015-10-05,1,,,,,,0
1512,5011501014367,登記記録の閉鎖等,0,2022-01-12,2022-01-11,株式会社関城テクノ,,株式会社,東京都,北区,赤羽２丁目２８番７号,,13,117,1150045,,,2022-01-11,登記官による閉鎖,,,2015-10-05,1,,,,,,0
1513,5011501015506,登記記録の閉鎖等,0,2022-01-12,2022-01-11,株式会社トツカ・セッケイ,,株式会社,東京都,北区,東十条２丁目１４番１号,,13,117,1140001,,,2022-01-11,登記官による閉鎖,,,2015-10-05,1,,,,,,0
1515,5011502007246,登記記録の閉鎖等,0,2022-01-12,2022-01-11,有限会社海野商店,,有限会社,東京都,荒川区,荒川３丁目１０番６号,,13,118,1160002,,,2022-01-11,登記官による閉鎖,,,2015-10-05,1,,,,,,0
1516,5011502009440,登記記録の閉鎖等,0,2022-01-12,2022-01-11,有限会社大栄鈑金塗装,,有限会社,東京都,荒川区,東日暮里１丁目３２番２号,,13,118,1160014,,,2022-01-11,登記官による閉鎖,,,2015-10-05,1,,,,,,0
1520,5011801004167,登記記録の閉鎖等,0,2022-01-12,2022-01-12,株式会社藤澤工務店,,株式会社,東京都,葛飾区,柴又３丁目３２番１４号,,13,122,1250052,,,2022-01-12,登記官による閉鎖,,,2015-10-05,1,,,,,,0
1521,5011801007517,登記記録の閉鎖等,0,2022-01-12,2022-01-12,幸栄鉄工建設株式会社,,株式会社,東京都,足立区,六木２丁目６番８号,,13,121,1210052,,,2022-01-12,登記官による閉鎖,,,2015-10-05,1,,,,,,0
1522,5011801018349,登記記録の閉鎖等,0,2022-01-12,2022-01-12,株式会社トーイツ,,株式会社,東京都,足立区,足立２丁目３１番７号,,13,121,1200015,,,2022-01-12,登記官による閉鎖,,,2015-10-05,1,,,,,,0
1524,5011802000140,登記記録の閉鎖等,0,2022-01-12,2022-01-12,有限会社アーネスト,,有限会社,東京都,葛飾区,東新小岩２丁目６番２号,,13,122,1240023,,,2022-01-12,登記官による閉鎖,,,2015-10-05,1,,,,,,0
1525,5011802001808,登記記録の閉鎖等,0,2022-01-12,2022-01-12,有限会社笠原電業社,,有限会社,東京都,葛飾区,水元４丁目４番１７号,,13,122,1250032,,,2022-01-12,登記官による閉鎖,,,2015-10-05,1,,,,,,0
1526,5011802002715,登記記録の閉鎖等,0,2022-01-12,2022-01-12,有限会社高梅軒,,有限会社,東京都,葛飾区,西新小岩１丁目９番２号,,13,122,1240025,,,2022-01-12,登記官による閉鎖,,,2015-10-05,1,,,,,,0
1527,5011802004018,登記記録の閉鎖等,0,2022-01-12,2022-01-12,有限会社白木屋,,有限会社,東京都,葛飾区,青戸６丁目２３番１１号,,13,122,1250062,,,2022-01-12,登記官による閉鎖,,,2015-10-05,1,,,,,,0
1528,5011802008695,登記記録の閉鎖等,0,2022-01-12,2022-01-12,有限会社旭,,有限会社,東京都,足立区,舎人４丁目８番１１号,,13,121,1210831,,,2022-01-12,登記官による閉鎖,,,2015-10-05,1,,,,,,0
1529,5011802018777,登記記録の閉鎖等,0,2022-01-12,2022-01-12,有限会社豆屋,,有限会社,東京都,足立区,西保木間２丁目４番５号,,13,121,1210812,,,2022-01-12,登記官による閉鎖,,,2015-10-05,1,,,,,,0
1530,5011802028504,登記記録の閉鎖等,0,2022-01-12,2022-01-12,有限会社猪又工業,,有限会社,東京都,葛飾区,西水元１丁目２４番３号,,13,122,1250031,,,2022-01-12,登記官による閉鎖,,,2015-10-05,1,,,,,,0
1531,5011803001088,登記記録の閉鎖等,0,2022-01-12,2022-01-12,合同会社Ｌｉｏｎ　Ｈｅａｒｔ,,合同会社,東京都,足立区,古千谷本町３丁目６番２２号,,13,121,1210832,,,2022-01-12,登記官による閉鎖,,,2015-10-05,1,,,,,,0
1532,5011803001294,登記記録の閉鎖等,0,2022-01-12,2022-01-12,合同会社フリーテック,,合同会社,東京都,足立区,栗原１丁目２２番１１号,,13,121,1230842,,,2022-01-12,登記官による閉鎖,,,2015-10-05,1,,,,,,0
1537,5013101005746,登記記録の閉鎖等,0,2022-01-12,2022-01-05,株式会社ブーズライズ,,株式会社,東京都,あきる野市,草花２９１９番地４,,13,228,1970802,,,2022-01-05,清算の結了等,,,2015-10-05,1,,,,,ブーズライズ,0
1552,5020002094091,登記記録の閉鎖等,0,2022-01-12,2022-01-05,有限会社大野塗装,,有限会社,神奈川県,川崎市麻生区,高石６丁目２１番５号,,14,137,2150003,,,2022-01-05,清算の結了等,,,2015-10-05,1,,,,,オオノトソウ,0
1570,5030002039905,登記記録の閉鎖等,0,2022-01-12,2022-01-06,有限会社野本自動車部品,,有限会社,埼玉県,幸手市,東３丁目４番１号,,11,240,3400114,,,2022-01-06,清算の結了等,,,2015-10-05,1,,,,,ノモトジドウシャブヒン,0
1573,5030005011200,登記記録の閉鎖等,0,2022-01-12,2022-01-06,特定非営利活動法人ウェーブ,,その他の設立登記法人,埼玉県,入間郡毛呂山町,南台１丁目２７番地８,,11,326,3500464,,,2022-01-06,清算の結了等,,,2015-10-05,1,,,,,ウェーブ,0
1576,5040001004066,登記記録の閉鎖等,0,2022-01-12,2022-01-04,大信電業株式会社,,株式会社,千葉県,千葉市若葉区,貝塚町５６９番地３,,12,104,2640023,,,2022-01-04,清算の結了等,,,2015-10-05,1,,,,,ダイシンデンギョウ,0
1591,5070001034085,登記記録の閉鎖等,0,2022-01-12,2022-01-06,株式会社ｉｎｃａｒｏｓｅ,,株式会社,群馬県,高崎市,棟高町７３０番地１８４,,10,202,3703521,,,2022-01-06,清算の結了等,,,2017-10-26,1,,,,,,0
1601,5100001022846,登記記録の閉鎖等,0,2022-01-12,2022-01-07,ジーアール産業株式会社,,株式会社,長野県,松本市,中央３丁目１１番１号ハヤマビル２階,,20,202,3900811,,,2022-01-07,清算の結了等,,,2015-10-05,1,,,,,ジーアールサンギョウ,0
1618,5120901021433,登記記録の閉鎖等,0,2022-01-12,2022-01-04,株式会社イン・グッド,,株式会社,大阪府,箕面市,船場西１丁目５番１号,,27,220,5620036,,,2022-01-04,合併による解散等,6120901020847,令和４年１月１日大阪府箕面市船場西一丁目５番１号株式会社パブロ・クリエーション（6120901020847）に合併し解散,2015-10-05,1,,,,,,0
1629,5140003014094,登記記録の閉鎖等,0,2022-01-12,2022-01-05,合同会社サティ,,合同会社,兵庫県,神戸市北区,筑紫が丘２丁目７番地の１４,,28,109,6511212,,,2022-01-05,清算の結了等,,,2019-07-12,1,,,,,サティ,0
1634,5160005009900,登記記録の閉鎖等,0,2022-01-12,2022-01-06,特定非営利活動法人ぴあにしも,,その他の設立登記法人,滋賀県,湖南市,菩提寺西４丁目１３番１２号,,25,211,5203248,,,2022-01-06,清算の結了等,,,2015-10-05,1,,,,,ピアニシモ,0
1666,5240001040677,登記記録の閉鎖等,0,2022-01-12,2022-01-06,株式会社エイトアップ,,株式会社,広島県,広島市安佐北区,口田南２丁目１８番９号,,34,106,7391733,,,2022-01-06,合併による解散等,3010401093325,令和４年１月１日福岡市中央区薬院１－１－１薬院ビジネスガーデン４Ｆ株式会社エイトアップ（3010401093325）に合併し解散,2015-10-05,1,,,,,エイトアップ,0
1679,5290001063509,登記記録の閉鎖等,0,2022-01-12,2022-01-05,株式会社小野総建,,株式会社,福岡県,糟屋郡須惠町,大字須惠１６５番地７１,,40,344,8112113,,,2022-01-05,清算の結了等,,,2015-10-05,1,,,,,オノソウケン,0
1698,5310002005119,登記記録の閉鎖等,0,2022-01-12,2022-01-11,有限会社マシン・サービス,,有限会社,長崎県,長崎市,田中町５８３番地１,,42,201,8510134,,,2022-01-11,清算の結了等,,,2015-10-05,1,,,,,マシンサービス,0
1714,5340002003929,登記記録の閉鎖等,0,2022-01-12,2022-01-07,有限会社国生商店,,有限会社,鹿児島県,鹿児島市,東開町１１番１号,,46,201,8910115,,,2022-01-07,清算の結了等,,,2015-10-05,1,,,,,コクショウショウテン,0
1715,5340003002013,登記記録の閉鎖等,0,2022-01-12,2022-01-06,合同会社エストレード,,合同会社,鹿児島県,霧島市,国分中央１丁目２番３５号,,46,218,8994332,,,2022-01-06,清算の結了等,,,2016-01-06,1,,,,,エストレード,0
1716,5340005003892,登記記録の閉鎖等,0,2022-01-12,2022-01-06,医療法人アスカ,,その他の設立登記法人,鹿児島県,薩摩郡さつま町,柏原２８８３番１,,46,392,8952104,,,2022-01-06,清算の結了等,,,2015-10-05,1,,,,,アスカ,0
1739,5400002000837,登記記録の閉鎖等,0,2022-01-12,2022-01-12,有限会社金本商店,,有限会社,岩手県,盛岡市,西仙北１丁目１３番１５号,,03,201,0200864,,,2022-01-12,登記官による閉鎖,,,2015-10-05,1,,,,,,0
1740,5400002007907,登記記録の閉鎖等,0,2022-01-12,2022-01-12,有限会社岩手着装,,有限会社,岩手県,岩手郡雫石町,御明神南野８２番地,,03,301,0200581,,,2022-01-12,登記官による閉鎖,,,2015-10-05,1,,,,,,0
1743,5400005003705,登記記録の閉鎖等,0,2022-01-12,2022-01-12,企業組合西和賀除雪社,,その他の設立登記法人,岩手県,和賀郡西和賀町,湯田２１地割１３６番地２,,03,366,0295503,,,2022-01-12,登記官による閉鎖,,,2015-10-05,1,,,,,,0
1744,5400005004208,登記記録の閉鎖等,0,2022-01-12,2022-01-12,農事組合法人子木地協業養蚕組合,,その他の設立登記法人,岩手県,下閉伊郡田野畑村,蝦夷森１００番地,,03,484,0288401,,,2022-01-12,登記官による閉鎖,,,2015-10-05,1,,,,,,0
1745,5400602000749,登記記録の閉鎖等,0,2022-01-12,2022-01-12,有限会社メモリアル,,有限会社,岩手県,奥州市,水沢大手町５丁目３３番地,,03,215,0230053,,,2022-01-12,登記官による閉鎖,,,2015-10-05,1,,,,,,0
1746,5400602001012,登記記録の閉鎖等,0,2022-01-12,2022-01-12,有限会社高橋建材,00085721,有限会社,岩手県,奥州市,江刺愛宕字樋渡１２５番地１,00112949,03,215,0231131,,,2022-01-12,登記官による閉鎖,,,2015-10-05,1,,,,,タカハシケンザイ,0
1747,5402703000041,登記記録の閉鎖等,0,2022-01-12,2022-01-12,合資会社氷南社,,合資会社,岩手県,陸前高田市,高田町字荒町１５番地,,03,210,0292205,,,2022-01-12,登記官による閉鎖,,,2015-10-05,1,,,,,,0
1759,5440001002368,登記記録の閉鎖等,0,2022-01-12,2022-01-11,株式会社みちのく水産,,株式会社,北海道,函館市,花園町３７番３号,,01,202,0410843,,,2022-01-11,登記官による閉鎖,,,2016-05-13,1,,,,,,0
1760,5440001005313,登記記録の閉鎖等,0,2022-01-12,2022-01-11,株式会社ＳＫＹ・フーズ,,株式会社,北海道,函館市,本町２２番２８号,,01,202,0400011,,,2022-01-11,登記官による閉鎖,,,2015-10-05,1,,,,,,0
1761,5440002007721,登記記録の閉鎖等,0,2022-01-12,2022-01-11,有限会社日生長谷川商事,,有限会社,北海道,亀田郡七飯町,大中山２丁目１２番１１号,,01,337,0411121,,,2022-01-11,登記官による閉鎖,,,2015-10-05,1,,,,,,0
1776,6010001020610,登記記録の閉鎖等,0,2022-01-12,2022-01-04,全販企画サービス株式会社,,株式会社,東京都,千代田区,一ツ橋２丁目６番８号,,13,101,1010003,,,2022-01-04,清算の結了等,,,2015-10-05,1,,,,,ゼンパンキカクサービス,0
1778,6010001050789,登記記録の閉鎖等,0,2022-01-12,2022-01-06,株式会社電通ワークス,,株式会社,東京都,中央区,銀座２丁目１６番７号,,13,102,1040061,,,2022-01-06,合併による解散等,3010401161197,令和４年１月１日東京都港区東新橋一丁目８番１号株式会社電通コーポレートワン（3010401161197）に合併し解散,2015-10-05,1,,,,,デンツウワークス,0
1789,6010001180157,登記記録の閉鎖等,0,2022-01-12,2022-01-06,山木工業ホールディングス株式会社,,株式会社,福島県,いわき市,平谷川瀬３丁目１番地の４,,07,204,9708036,,,2022-01-06,合併による解散等,9380001014028,令和４年１月１日福島県いわき市平谷川瀬三丁目１番地の４山木工業株式会社（9380001014028）に合併し解散,2016-12-09,1,,,,,,0
1792,6010001219491,登記記録の閉鎖等,0,2022-01-12,2021-12-28,株式会社ぐぅーぐぅー,,株式会社,東京都,中央区,晴海３丁目６－８,,13,102,1040053,,,2021-12-28,清算の結了等,,,2021-07-08,1,,,,,グゥーグゥー,0
1804,6010101012540,登記記録の閉鎖等,0,2022-01-12,2022-01-06,畑中理財株式会社,,株式会社,東京都,福生市,大字福生９１０番地４２号,,13,218,1970011,,,2022-01-06,清算の結了等,,,2016-10-27,1,,,,,ハタナカリザイ,0
1805,6010401054506,登記記録の閉鎖等,0,2022-01-12,2022-01-05,ＫＫ管財株式会社,,株式会社,東京都,渋谷区,恵比寿１丁目１５－９シルク恵比寿４０３,,13,113,1500013,,,2022-01-05,清算の結了等,,,2015-10-05,1,,,,,ケイケイカンザイ,0
1812,6010402030118,登記記録の閉鎖等,0,2022-01-12,2021-12-28,有限会社ノイエ,,有限会社,東京都,港区,白金１丁目４番１１号,,13,103,1080072,,,2021-12-28,清算の結了等,,,2015-10-05,1,,,,,ノイエ,0
1816,6010403021248,登記記録の閉鎖等,0,2022-01-12,2021-12-28,勝どき２丁目プロジェクト合同会社,,合同会社,東京都,千代田区,丸の内２丁目３番２号,,13,101,1000005,,,2021-12-28,清算の結了等,,,2019-08-09,1,,,,,カチドキニチョウメ,0
1848,6011501002610,登記記録の閉鎖等,0,2022-01-12,2022-01-11,大成電気工事株式会社,,株式会社,東京都,北区,滝野川３丁目２０番２号,,13,117,1140023,,,2022-01-11,登記官による閉鎖,,,2015-10-05,1,,,,,,0
1849,6011501014093,登記記録の閉鎖等,0,2022-01-12,2022-01-11,株式会社ＳＹＭＭＥＴＲＹ,,株式会社,東京都,荒川区,町屋５丁目１８番１５－４０２号エンゼルパークサイド町屋,,13,118,1160001,,,2022-01-11,登記官による閉鎖,,,2015-10-05,1,,,,,,0
1850,6011501014481,登記記録の閉鎖等,0,2022-01-12,2021-12-28,株式会社クリムズンヘッジ,,株式会社,東京都,荒川区,東日暮里１丁目３８番５－４０２号,,13,118,1160014,,,2021-12-28,清算の結了等,,,2015-10-05,1,,,,,クリムズンヘッジ,0
1851,6011501015711,登記記録の閉鎖等,0,2022-01-12,2022-01-11,株式会社平和,,株式会社,東京都,荒川区,東日暮里５丁目３０番１号,,13,118,1160014,,,2022-01-11,登記官による閉鎖,,,2015-10-05,1,,,,,,0
1852,6011501016305,登記記録の閉鎖等,0,2022-01-12,2022-01-11,ハウスビルダー株式会社,,株式会社,東京都,北区,赤羽西１丁目２３番２－３０８号ライオンズマンション赤羽西第二,,13,117,1150055,,,2022-01-11,登記官による閉鎖,,,2015-10-05,1,,,,,,0
1859,6011801009116,登記記録の閉鎖等,0,2022-01-12,2022-01-12,株式会社セントラル電機,,株式会社,東京都,足立区,堀之内１丁目１４番３号,,13,121,1230874,,,2022-01-12,登記官による閉鎖,,,2015-10-05,1,,,,,,0
1860,6011801011253,登記記録の閉鎖等,0,2022-01-12,2022-01-12,株式会社ハマ美装,,株式会社,東京都,足立区,保木間５丁目１４番１６号,,13,121,1210064,,,2022-01-12,登記官による閉鎖,,,2015-10-05,1,,,,,,0
1861,6011801012557,登記記録の閉鎖等,0,2022-01-12,2022-01-12,株式会社ＭＯＧＧＹ綜合建築設計事務所,,株式会社,東京都,足立区,六町１丁目１６番３号,,13,121,1210073,,,2022-01-12,登記官による閉鎖,,,2015-10-05,1,,,,,,0
1862,6011801021186,登記記録の閉鎖等,0,2022-01-12,2022-01-12,株式会社タクシーサポーター,,株式会社,東京都,葛飾区,亀有３丁目３７番１１－１２０４号,,13,122,1250061,,,2022-01-12,登記官による閉鎖,,,2015-10-05,1,,,,,,0
1863,6011802003407,登記記録の閉鎖等,0,2022-01-12,2022-01-12,有限会社サニーサイド,,有限会社,東京都,葛飾区,堀切３丁目１２番１２号,,13,122,1240006,,,2022-01-12,登記官による閉鎖,,,2015-10-05,1,,,,,,0
1864,6011802005799,登記記録の閉鎖等,0,2022-01-12,2022-01-12,有限会社中村工務店,,有限会社,東京都,葛飾区,堀切２丁目６４番４号,,13,122,1240006,,,2022-01-12,登記官による閉鎖,,,2015-10-05,1,,,,,,0
1865,6011802011574,登記記録の閉鎖等,0,2022-01-12,2022-01-12,有限会社川島土木,,有限会社,東京都,足立区,六木１丁目１６番１６号,,13,121,1210052,,,2022-01-12,登記官による閉鎖,,,2015-10-05,1,,,,,,0
1866,6011802015377,登記記録の閉鎖等,0,2022-01-12,2022-01-12,高橋管工有限会社,00057444,有限会社,東京都,足立区,東和４丁目１１番１７－６０２号,,13,121,1200003,,,2022-01-12,登記官による閉鎖,,,2015-10-05,1,,,,,,0
1867,6011802029179,登記記録の閉鎖等,0,2022-01-12,2022-01-12,マナブルク有限会社,,有限会社,東京都,足立区,千住３丁目６番地ツォード千住壱番館８０１,,13,121,1200034,,,2022-01-12,登記官による閉鎖,,,2015-10-05,1,,,,,,0
1868,6011802029419,登記記録の閉鎖等,0,2022-01-12,2022-01-12,有限会社大越企画,,有限会社,東京都,足立区,西新井６丁目２３番１９号,,13,121,1230841,,,2022-01-12,登記官による閉鎖,,,2015-10-05,1,,,,,,0
1869,6011803001269,登記記録の閉鎖等,0,2022-01-12,2022-01-12,合同会社チャンネルサービス,,合同会社,東京都,足立区,関原３丁目４５－１０,,13,121,1230852,,,2022-01-12,登記官による閉鎖,,,2015-10-05,1,,,,,,0
1871,6011805001416,登記記録の閉鎖等,0,2022-01-12,2022-01-12,特定非営利活動法人アムステイション,,その他の設立登記法人,東京都,葛飾区,西水元２丁目４番９号,,13,122,1250031,,,2022-01-12,登記官による閉鎖,,,2015-10-05,1,,,,,,0
1872,6011805001473,登記記録の閉鎖等,0,2022-01-12,2022-01-12,特定非営利活動法人ひだまりの家,,その他の設立登記法人,東京都,足立区,綾瀬１丁目２８番７号第４１新井ビル,,13,121,1200005,,,2022-01-12,登記官による閉鎖,,,2015-10-05,1,,,,,,0
1873,6011805001606,登記記録の閉鎖等,0,2022-01-12,2022-01-12,特定非営利活動法人中央アークサポートセンター,,その他の設立登記法人,東京都,足立区,東和３丁目３番２２－３０１号,,13,121,1200003,,,2022-01-12,登記官による閉鎖,,,2015-10-05,1,,,,,,0
1894,6020002045176,登記記録の閉鎖等,0,2022-01-12,2022-01-06,有限会社松本薬局,,有限会社,神奈川県,横浜市中区,野毛町２丁目６５番地,,14,104,2310064,,,2022-01-06,清算の結了等,,,2015-10-05,1,,,,,マツモトヤッキョク,0
1895,6020002067138,登記記録の閉鎖等,0,2022-01-12,2022-01-04,株式会社シティデザイン,,株式会社,神奈川県,横浜市中区,長者町９丁目１５８番地,,14,104,2310033,,,2022-01-04,合併による解散等,5020001045896,令和４年１月１日横浜市神奈川区鶴屋町三丁目３３番地の８アサヒビル３Ｆ株式会社ニューシティー（5020001045896）に合併し解散,2015-10-05,1,,,,,シティデザイン,0
1896,6020002071206,登記記録の閉鎖等,0,2022-01-12,2022-01-06,有限会社エフ・アンド・ティー,,有限会社,神奈川県,横浜市西区,岡野１丁目９番６号,,14,103,2200073,,,2022-01-06,清算の結了等,,,2015-10-05,1,,,,,エフアンドティー,0
1901,6021001053211,登記記録の閉鎖等,0,2022-01-12,2022-01-06,株式会社五大食品,,株式会社,神奈川県,海老名市,中央２丁目８番１２号,,14,215,2430432,,,2022-01-06,清算の結了等,,,2015-10-05,1,,,,,,0
1905,6021003004187,登記記録の閉鎖等,0,2022-01-12,2022-01-05,合同会社不動産の窓口,,合同会社,神奈川県,大和市,福田５丁目５番地１セルピナ桜ケ丘ランドヒルズ１０４号,,14,213,2420024,,,2022-01-05,清算の結了等,,,2015-10-05,1,,,,,フドウサンノマドグチ,0
1906,6030001035920,登記記録の閉鎖等,0,2022-01-12,2022-01-07,株式会社関東運輸サービス,,株式会社,埼玉県,八潮市,大字南川崎７９０番地５,,11,234,3400814,,,2022-01-07,清算の結了等,,,2015-10-05,1,,,,,,0
1909,6030001080198,登記記録の閉鎖等,0,2022-01-12,2022-01-07,株式会社エイム,,株式会社,埼玉県,川口市,大字安行慈林９３９番地の１,,11,203,3340071,,,2022-01-07,清算の結了等,,,2015-10-05,1,,,,,エイム,0
1912,6030001129235,登記記録の閉鎖等,0,2022-01-12,2022-01-07,明彰株式会社,,株式会社,埼玉県,川口市,西川口１丁目２５番３号,,11,203,3320021,,,2022-01-07,清算の結了等,,,2019-01-29,1,,,,,メイショウ,0
1945,6060001024417,登記記録の閉鎖等,0,2022-01-12,2022-01-04,株式会社めぐみの森,,株式会社,栃木県,足利市,小俣町２５４番地１,,09,202,3260141,,,2022-01-04,清算の結了等,,,2015-10-05,1,,,,,メグミノモリ,0
1956,6070003003351,登記記録の閉鎖等,0,2022-01-12,2022-01-06,合同会社Ｅｃｏ　Ｃｏｒｐｏｒａｔｉｏｎ,,合同会社,群馬県,伊勢崎市,宮前町１６番地Ｂ１０１号,,10,204,3720026,,,2022-01-06,清算の結了等,,,2019-01-09,1,,,,,,0
1967,6100005010598,登記記録の閉鎖等,0,2022-01-12,2022-01-11,医療法人社団薫栄会,,その他の設立登記法人,長野県,松本市,中央１丁目７番１７号毛利ビル３階,,20,202,3900811,,,2022-01-11,清算の結了等,,,2015-10-05,1,,,,,クンエイカイ,0
1979,6120001176078,登記記録の閉鎖等,0,2022-01-12,2022-01-05,株式会社メディカルアソシエイツ,,株式会社,大阪府,大阪市住之江区,御崎１丁目８番３２号,,27,125,5590013,,,2022-01-05,清算の結了等,,,2015-10-05,1,,,,,メディカルアソシエイツ,0
1993,6122001014036,登記記録の閉鎖等,0,2022-01-12,2022-01-06,株式会社Ｐｒｉｍｏｒ,,株式会社,大阪府,東大阪市,花園西町２丁目４番２１号,,27,227,5780936,,,2022-01-06,清算の結了等,,,2015-10-05,1,,,,,プリモール,0
2002,6140002030208,登記記録の閉鎖等,0,2022-01-12,2022-01-06,有限会社エーディーエス計画研究所,,有限会社,兵庫県,明石市,相生町１丁目２番９号,,28,203,6730882,,,2022-01-06,清算の結了等,,,2015-10-05,1,,,,,エーディーエスケイカクケンキュウショ,0
2012,6150005009124,登記記録の閉鎖等,0,2022-01-12,2022-01-05,一般社団法人Ａ－ｗａｓａｂｉ研究所,,その他の設立登記法人,奈良県,生駒市,辻町７５１番地１－６０６,00121453,29,209,6300212,,,2022-01-05,清算の結了等,,,2019-11-07,1,,,,,エーワサビケンキュウジョ,0
2018,6180001033612,登記記録の閉鎖等,0,2022-01-12,2022-01-06,株式会社アイ・ケイ・ケイ,,株式会社,愛知県,名古屋市中区,栄３丁目３１番１２号,,23,106,4600008,,,2022-01-06,合併による解散等,7180001030988,令和４年１月１日名古屋市中区栄三丁目３１番１２号大成株式会社（7180001030988）に合併し解散,2015-10-05,1,,,,,アイケイケイ,0
2019,6180001077519,登記記録の閉鎖等,0,2022-01-12,2022-01-07,株式会社南管工業,,株式会社,愛知県,春日井市,小木田町２３９番地２,,23,206,4860827,,,2022-01-07,清算の結了等,,,2015-10-05,1,,,,,ミナミカンコウギョウ,0
2035,6220005007260,登記記録の閉鎖等,0,2022-01-12,2022-01-04,農事組合法人大崎甘藷生産組合,00078758,その他の設立登記法人,石川県,かほく市,大崎ル１番地,,17,209,9291127,,,2022-01-04,清算の結了等,,,2015-10-05,1,,,,,オオサキカンショセイサンクミアイ,0
2045,6240001053075,登記記録の閉鎖等,0,2022-01-12,2022-01-07,株式会社メモリーランド,,株式会社,鳥取県,米子市,両三柳７８３番３,,31,202,6830853,,,2022-01-07,合併による解散等,6370601000760,令和４年１月４日宮城県宮城郡松島町松島字小梨屋２番地の１４ランドワーク株式会社（6370601000760）に合併し解散,2018-07-10,1,,,,,メモリーランド,0
2047,6240005013364,登記記録の閉鎖等,0,2022-01-12,2022-01-11,特定非営利活動法人日本ホルティセラピー協会,,その他の設立登記法人,広島県,広島市南区,比治山本町１４番２２号,,34,103,7320816,,,2022-01-11,清算の結了等,,,2015-10-05,1,,,,,ニホンホルティセラピーキョウカイ,0
2076,6340002014826,登記記録の閉鎖等,0,2022-01-12,2022-01-07,有限会社カホク,,有限会社,鹿児島県,姶良郡湧水町,米永３１２２－１,,46,452,8996207,,,2022-01-07,合併による解散等,3340001008360,令和４年１月５日鹿児島県姶良郡湧水町米永３１２２番地１株式会社アーモンド工房カホク（3340001008360）に合併し解散,2015-10-05,1,,,,,カホク,0
2084,6370002013040,登記記録の閉鎖等,0,2022-01-12,2022-01-07,有限会社比呂瀬,,有限会社,宮城県,仙台市青葉区,一番町４丁目２番３号,,04,101,9800811,,,2022-01-07,清算の結了等,,,2015-10-05,1,,,,,ヒロセ,0
2091,6400001006470,登記記録の閉鎖等,0,2022-01-12,2022-01-12,高沢翔企画株式会社,,株式会社,岩手県,和賀郡西和賀町,沢内字川舟３６地割４０番地５,,03,366,0295701,,,2022-01-12,登記官による閉鎖,,,2015-10-05,1,,,,,,0
2095,6400002007022,登記記録の閉鎖等,0,2022-01-12,2022-01-12,大角建設有限会社,,有限会社,岩手県,紫波郡紫波町,佐比内字三子平４８番地１０,,03,321,0283316,,,2022-01-12,登記官による閉鎖,,,2015-10-05,1,,,,,,0
2096,6400002011750,登記記録の閉鎖等,0,2022-01-12,2022-01-12,有限会社根浜電設,,有限会社,岩手県,釜石市,鵜住居町第２１地割１８番地２,,03,211,0260301,,,2022-01-12,登記官による閉鎖,,,2015-10-05,1,,,,,,0
2100,6400005000940,登記記録の閉鎖等,0,2022-01-12,2022-01-12,特定非営利活動法人エンデバー二一スポーツ倶楽部,,その他の設立登記法人,岩手県,盛岡市,黒川２３地割９９番地１,,03,201,0200402,,,2022-01-12,登記官による閉鎖,,,2015-10-05,1,,,,,,0
2115,6440002001186,登記記録の閉鎖等,0,2022-01-12,2022-01-11,有限会社菊地商事,,有限会社,北海道,函館市,桔梗町４１０番地の９,,01,202,0410801,,,2022-01-11,登記官による閉鎖,,,2015-10-05,1,,,,,,0
2116,6440002003067,登記記録の閉鎖等,0,2022-01-12,2022-01-11,有限会社トミオカメデイカルサプライ,,有限会社,北海道,函館市,松陰町２５番５号,,01,202,0400003,,,2022-01-11,登記官による閉鎖,,,2015-10-05,1,,,,,,0
2117,6440002006136,登記記録の閉鎖等,0,2022-01-12,2022-01-11,有限会社エフエスマネージメントサービス,,有限会社,北海道,函館市,千歳町２０番１６号,,01,202,0400033,,,2022-01-11,登記官による閉鎖,,,2015-10-05,1,,,,,,0
2118,6440002009659,登記記録の閉鎖等,0,2022-01-12,2022-01-11,有限会社新谷商店,,有限会社,北海道,爾志郡乙部町,字元和７７５番地の５,,01,364,0430114,,,2022-01-11,登記官による閉鎖,,,2015-10-05,1,,,,,,0
2119,6440005002074,登記記録の閉鎖等,0,2022-01-12,2022-01-11,特定非営利活動法人北海道インフォメーションセンター・ひやま,,その他の設立登記法人,北海道,檜山郡江差町,字中歌町１９８番地の６江差町地域振興センター内,,01,361,0430034,,,2022-01-11,登記官による閉鎖,,,2015-10-05,1,,,,,,0
2127,6490002010769,登記記録の閉鎖等,0,2022-01-12,2022-01-11,有限会社葉山建設,,有限会社,高知県,高岡郡津野町,永野３６７番地１４,,39,411,7850201,,,2022-01-11,清算の結了等,,,2015-10-05,1,,,,,ハヤマケンセツ,0
2165,7010902011038,登記記録の閉鎖等,0,2022-01-12,2022-01-05,有限会社ナインティーン・エイティーナイン,,有限会社,東京都,千代田区,岩本町１丁目１３番５号,,13,101,1010032,,,2022-01-05,清算の結了等,,,2015-10-05,1,,,,,ナインティーンエイティーナイン,0
2180,7011002017462,登記記録の閉鎖等,0,2022-01-12,2021-12-23,有限会社ワイティビル,,有限会社,東京都,渋谷区,神宮前４丁目６番５号,,13,113,1500001,,,2021-12-23,清算の結了等,,,2015-10-05,1,,,,,ワイティビル,0
2183,7011101006804,登記記録の閉鎖等,0,2022-01-12,2021-12-27,興和物産株式会社,,株式会社,東京都,新宿区,西新宿６丁目１１番３号,,13,104,1600023,,,2021-12-27,清算の結了等,,,2016-02-17,1,,,,,コウワブッサン,0
2189,7011303003731,登記記録の閉鎖等,0,2022-01-12,2021-12-24,Ｔｕｇｂｏａｔ合同会社,,合同会社,東京都,杉並区,成田西２丁目２４番１７号,,13,115,1660016,,,2021-12-24,清算の結了等,,,2020-08-13,1,,,,,タグボート,0
2195,7011501012063,登記記録の閉鎖等,0,2022-01-12,2022-01-11,帝国人事株式会社,,株式会社,東京都,北区,滝野川７丁目１９番７号田中ビル２０１号,,13,117,1140023,,,2022-01-11,登記官による閉鎖,,,2015-10-05,1,,,,,,0
2196,7011501014522,登記記録の閉鎖等,0,2022-01-12,2022-01-11,株式会社ウインテクノシステム,,株式会社,東京都,北区,豊島６丁目３番１４号,,13,117,1140003,,,2022-01-11,登記官による閉鎖,,,2015-10-05,1,,,,,,0
2197,7011502000190,登記記録の閉鎖等,0,2022-01-12,2022-01-11,赤羽印刷有限会社,,有限会社,東京都,北区,赤羽１丁目６１番７号,,13,117,1150045,,,2022-01-11,登記官による閉鎖,,,2015-10-05,1,,,,,,0
2198,7011502008548,登記記録の閉鎖等,0,2022-01-12,2022-01-11,有限会社斉藤定プレス型製作所,,有限会社,東京都,荒川区,西尾久６丁目８番３号,,13,118,1160011,,,2022-01-11,登記官による閉鎖,,,2015-10-05,1,,,,,,0
2199,7011502014810,登記記録の閉鎖等,0,2022-01-12,2022-01-07,有限会社アーネスト,,有限会社,静岡県,伊東市,八幡野字磯道１０３４番地１１,,22,208,4130232,,,2022-01-07,清算の結了等,,,2015-10-05,1,,,,,アーネスト,0
2201,7011505000056,登記記録の閉鎖等,0,2022-01-12,2022-01-11,東京鞣製協同組合,,その他の設立登記法人,東京都,荒川区,荒川８丁目１０番１５－５０１号,,13,118,1160002,,,2022-01-11,登記官による閉鎖,,,2015-10-05,1,,,,,,0
2202,7011505001070,登記記録の閉鎖等,0,2022-01-12,2022-01-11,特定非営利活動法人テミス,,その他の設立登記法人,東京都,北区,中十条３丁目２３番３号,,13,117,1140032,,,2022-01-11,登記官による閉鎖,,,2015-10-05,1,,,,,,0
2203,7011801012382,登記記録の閉鎖等,0,2022-01-12,2022-01-12,美濃建設株式会社,,株式会社,東京都,足立区,西新井本町２丁目５番４号,,13,121,1230845,,,2022-01-12,登記官による閉鎖,,,2015-10-05,1,,,,,,0
2204,7011801013711,登記記録の閉鎖等,0,2022-01-12,2022-01-12,アイ・ケーコーポレーション株式会社,,株式会社,東京都,足立区,本木２丁目４番２３号,,13,121,1230853,,,2022-01-12,登記官による閉鎖,,,2015-10-05,1,,,,,,0
2205,7011801022241,登記記録の閉鎖等,0,2022-01-12,2022-01-12,ＫＥＥＰ株式会社,,株式会社,東京都,葛飾区,宝町２丁目３番３号,,13,122,1240005,,,2022-01-12,登記官による閉鎖,,,2015-10-05,1,,,,,,0
2206,7011801023850,登記記録の閉鎖等,0,2022-01-12,2022-01-12,レジェンドホース株式会社,,株式会社,東京都,足立区,千住寿町８番７号１０２,,13,121,1200033,,,2022-01-12,登記官による閉鎖,,,2015-10-05,1,,,,,,0
2207,7011802001038,登記記録の閉鎖等,0,2022-01-12,2022-01-12,有限会社エイケイ計算センター,,有限会社,東京都,葛飾区,新小岩１丁目２９番６号,,13,122,1240024,,,2022-01-12,登記官による閉鎖,,,2015-10-05,1,,,,,,0
2208,7011802009881,登記記録の閉鎖等,0,2022-01-12,2022-01-12,稻美印刷有限会社,,有限会社,東京都,足立区,保木間５丁目２１番２５号,,13,121,1210064,,,2022-01-12,登記官による閉鎖,,,2015-10-05,1,,,,,,0
2209,7011802025202,登記記録の閉鎖等,0,2022-01-12,2022-01-12,有限会社キーエスピー,,有限会社,東京都,足立区,南花畑４丁目２２番１２号,,13,121,1210062,,,2022-01-12,登記官による閉鎖,,,2015-10-05,1,,,,,,0
2210,7011805001299,登記記録の閉鎖等,0,2022-01-12,2022-01-12,特定非営利活動法人日本イベント振興センター,,その他の設立登記法人,東京都,葛飾区,奥戸６丁目２０番１４号,,13,122,1240022,,,2022-01-12,登記官による閉鎖,,,2015-10-05,1,,,,,,0
2211,7011805001729,登記記録の閉鎖等,0,2022-01-12,2022-01-12,特定非営利活動法人国際福祉支援センター,,その他の設立登記法人,東京都,葛飾区,東堀切３丁目２７番８号グリンハウス２０１,,13,122,1240004,,,2022-01-12,登記官による閉鎖,,,2015-10-05,1,,,,,,0
2215,7020001079975,登記記録の閉鎖等,0,2022-01-12,2022-01-06,日本物流グループ株式会社,,株式会社,神奈川県,川崎市川崎区,浮島町１２番３号,,14,131,2100862,,,2022-01-06,清算の結了等,,,2015-10-05,1,,,,,ニッポンブツリュウグループ,0
2218,7020001107224,登記記録の閉鎖等,0,2022-01-12,2022-01-07,共勝ビジネスサポート株式会社,,株式会社,神奈川県,横浜市西区,高島２丁目１９番１２号横浜スカイビル２０階,,14,103,2200011,,,2022-01-07,清算の結了等,,,2015-10-05,1,,,,,キョウショウビジネスサポート,0
2228,7020005009359,登記記録の閉鎖等,0,2022-01-12,2022-01-06,ＮＰＯ法人ウィル,,その他の設立登記法人,神奈川県,横浜市戸塚区,下倉田町８２５番地２０,,14,110,2440815,,,2022-01-06,清算の結了等,,,2015-10-05,1,,,,,ウィル,0
2236,7021002062994,登記記録の閉鎖等,0,2022-01-12,2022-01-05,有限会社うしやま,,有限会社,神奈川県,横須賀市,公郷町３丁目６０番地,,14,201,2380022,,,2022-01-05,清算の結了等,,,2015-10-05,1,,,,,ウシヤマ,0
2246,7030005015307,登記記録の閉鎖等,0,2022-01-12,2021-12-17,天理教尾田蒔分教会,,その他の設立登記法人,埼玉県,秩父市,寺尾２１５８番地,,11,207,3680056,,,2021-12-17,合併による解散等,5030005015317,令和３年１２月１７日埼玉県秩父郡小鹿野町長留１４７４番地天理教西秩父分教会（5030005015317）に合併し解散,2015-10-05,1,,,,,,0
2255,7050001001572,登記記録の閉鎖等,0,2022-01-12,2022-01-04,株式会社太陽商社,,株式会社,茨城県,水戸市,千波町４６１番地,,08,201,3100851,,,2022-01-04,清算の結了等,,,2015-10-05,1,,,,,タイヨウショウシャ,0
2261,7050002039950,登記記録の閉鎖等,0,2022-01-12,2022-01-04,有限会社藤,,有限会社,茨城県,常総市,内守谷町５４６４番地,,08,211,3030043,,,2022-01-04,合併による解散等,1050002039997,令和３年１２月３１日茨城県常総市内守谷町５４６４番地株式会社武藤商店（1050002039997）に合併し解散,2015-10-05,1,,,,,フジ,0
2272,7070002015025,登記記録の閉鎖等,0,2022-01-12,2022-01-07,有限会社花岡精工,,有限会社,群馬県,安中市,岩井１５５６番地,,10,211,3790112,,,2022-01-07,清算の結了等,,,2015-10-05,1,,,,,ハナオカセイコウ,0
2274,7070002015454,登記記録の閉鎖等,0,2022-01-12,2022-01-06,有限会社エス企画,,有限会社,群馬県,前橋市,元総社町１丁目３番地８ポレスター１００４号,,10,201,3710846,,,2022-01-06,清算の結了等,,,2015-10-05,1,,,,,,0
2275,7080101019462,登記記録の閉鎖等,0,2022-01-12,2022-01-05,石井農園株式会社,,株式会社,東京都,千代田区,神田小川町２丁目１０番地,,13,101,1010052,,,2022-01-05,清算の結了等,,,2016-11-08,1,,,,,イシイノウエン,0
2280,7090002002310,登記記録の閉鎖等,0,2022-01-12,2022-01-05,有限会社日本経済新聞甲府専売所,,有限会社,山梨県,甲府市,相生２丁目２番４号,,19,201,4000858,,,2022-01-05,合併による解散等,5090001000820,令和４年１月１日山梨県甲府市住吉四丁目１番３０号株式会社五味新聞店（5090001000820）に合併し解散,2015-10-05,1,,,,,ニホンケイザイシンブンコウフセンバイショ,0
2281,7090002008910,登記記録の閉鎖等,0,2022-01-12,2022-01-05,有限会社マルエムグリーンサービス,,有限会社,山梨県,笛吹市,御坂町金川原１２４９番地１,,19,211,4060802,,,2022-01-05,清算の結了等,,,2015-10-05,1,,,,,マルエムグリーンサービス,0
2283,7100001032728,登記記録の閉鎖等,0,2022-01-12,2022-01-04,株式会社Ｎｉｐｐｏｎ　Ｖｉａ,,株式会社,長野県,茅野市,豊平５３３５,,20,214,3910213,,,2022-01-04,合併による解散等,1100001018914,令和４年１月１日長野県茅野市塚原一丁目８番３７号株式会社ＳＩＭＭＴＥＣＨ　ＧＲＡＰＨＩＣＳ（1100001018914）に合併し解散,2019-11-22,1,,,,,ニッポンビア,0
2284,7100002030581,登記記録の閉鎖等,0,2022-01-12,2022-01-06,有限会社名東ラボ,,有限会社,長野県,茅野市,北山４８５０番地１,,20,214,3910301,,,2022-01-06,清算の結了等,,,2015-10-05,1,,,,,メイトウラボ,0
2295,7120001190929,登記記録の閉鎖等,0,2022-01-12,2022-01-04,金龍貿易株式会社,,株式会社,大阪府,大阪市平野区,長吉長原１丁目４番１５号,,27,126,5470016,,,2022-01-04,清算の結了等,,,2015-10-05,1,,,,,キンリュウボウエキ,0
2359,7180303004789,登記記録の閉鎖等,0,2022-01-12,2022-01-06,合同会社ダイユウ,,合同会社,愛知県,豊田市,駒場町雲目８７番地,,23,211,4730925,,,2022-01-06,清算の結了等,,,2020-11-06,1,,,,,ダイユウ,0
2383,7260001031920,登記記録の閉鎖等,0,2022-01-12,2022-01-07,株式会社シェレンタ中四国,,株式会社,岡山県,倉敷市,二日市３３１番地１,,33,202,7100042,,,2022-01-07,合併による解散等,1260001014484,令和４年１月１日岡山県倉敷市加須山３３４番地の４株式会社ハヤシ（1260001014484）に合併し解散,2018-04-10,1,,,,,シェレンタチュウシコク,0
2384,7260001033371,登記記録の閉鎖等,0,2022-01-12,2022-01-07,株式会社プラントツリーズ,,株式会社,岡山県,倉敷市,加須山３３４番地の４,,33,202,7100026,,,2022-01-07,合併による解散等,1260001014484,令和４年１月１日岡山県倉敷市加須山３３４番地の４株式会社ハヤシ（1260001014484）に合併し解散,2019-07-26,1,,,,,プラントツリーズ,0
2415,7340001007193,登記記録の閉鎖等,0,2022-01-12,2022-01-06,株式会社国分リサイクルセンター,,株式会社,鹿児島県,霧島市,国分清水１１４９番地１,,46,218,8994304,,,2022-01-06,清算の結了等,,,2015-10-05,1,,,,,コクブリサイクルセンター,0
2434,7400001006461,登記記録の閉鎖等,0,2022-01-12,2022-01-12,岡島工業株式会社,,株式会社,岩手県,北上市,町分３地割１３８番地１,,03,206,0240082,,,2022-01-12,登記官による閉鎖,,,2015-10-05,1,,,,,,0
2435,7400005000741,登記記録の閉鎖等,0,2022-01-12,2022-01-12,農事組合法人岩手県緑化協同組合,,その他の設立登記法人,岩手県,盛岡市,中ノ橋通１丁目９番２２号,,03,201,0200871,,,2022-01-12,登記官による閉鎖,,,2015-10-05,1,,,,,,0
2436,7400005003884,登記記録の閉鎖等,0,2022-01-12,2022-01-12,農事組合法人遠野肉牛生産牧場,,その他の設立登記法人,岩手県,遠野市,大工町４番１３号,,03,208,0280527,,,2022-01-12,登記官による閉鎖,,,2015-10-05,1,,,,,,0
2437,7400005004271,登記記録の閉鎖等,0,2022-01-12,2022-01-12,特定非営利活動法人いわてＮＰＯ事業開発センター,,その他の設立登記法人,岩手県,宮古市,上鼻１丁目１番７号,,03,202,0270044,,,2022-01-12,登記官による閉鎖,,,2015-10-05,1,,,,,,0
2438,7400605000125,登記記録の閉鎖等,0,2022-01-12,2022-01-12,農事組合法人満倉養鶏場,,その他の設立登記法人,岩手県,奥州市,水沢佐倉河字明神堂川原１番地１,,03,215,0230003,,,2022-01-12,登記官による閉鎖,,,2015-10-05,1,,,,,,0
2439,7402702000387,登記記録の閉鎖等,0,2022-01-12,2022-01-12,有限会社丸星プリント,,有限会社,岩手県,大船渡市,大船渡町字新田４６番地１７,,03,203,0220002,,,2022-01-12,登記官による閉鎖,,,2015-10-05,1,,,,,,0
2440,7402705000269,登記記録の閉鎖等,0,2022-01-12,2022-01-12,協同組合伝統建築気仙匠の会,,その他の設立登記法人,岩手県,大船渡市,三陸町綾里字清水１３６番地１,,03,203,0220211,,,2022-01-12,登記官による閉鎖,,,2015-10-05,1,,,,,,0
2446,7430001000255,登記記録の閉鎖等,0,2022-01-12,2021-12-22,株式会社アーバングループ,,株式会社,北海道,札幌市中央区,南十四条西１１丁目１－３,,01,101,0640914,,,2021-12-22,合併による解散等,2430001041072,令和３年１２月２２日札幌市中央区南十四条西十一丁目１－３株式会社アゲイン（2430001041072）に合併し解散,2015-10-05,1,,,,,アーバングループ,0
2448,7430001015947,登記記録の閉鎖等,0,2022-01-12,2022-01-05,株式会社前倉建築設計事務所,,株式会社,北海道,札幌市北区,新川三条８丁目６番１２号,,01,102,0010923,,,2022-01-05,清算の結了等,,,2015-10-05,1,,,,,マエクラケンチクセッケイジムショ,0
2451,7440002001953,登記記録の閉鎖等,0,2022-01-12,2022-01-11,有限会社さわだ工務店,,有限会社,北海道,函館市,志海苔町２７３番地,,01,202,0420923,,,2022-01-11,登記官による閉鎖,,,2015-10-05,1,,,,,,0
2452,7440002005434,登記記録の閉鎖等,0,2022-01-12,2022-01-11,有限会社ヘアーアート,,有限会社,北海道,函館市,杉並町６番３号,,01,202,0400004,,,2022-01-11,登記官による閉鎖,,,2015-10-05,1,,,,,,0
2453,7440002008453,登記記録の閉鎖等,0,2022-01-12,2022-01-11,有限会社イーストコンサルタント,,有限会社,北海道,函館市,弁天町１６番５号,,01,202,0400051,,,2022-01-11,登記官による閉鎖,,,2015-10-05,1,,,,,,0
2454,7460301003649,登記記録の閉鎖等,0,2022-01-12,2022-01-06,株式会社オートプランナーＨＡＹＡＳＨＩ,,株式会社,北海道,網走市,字潮見２８２番地６,,01,211,0930042,,,2022-01-06,合併による解散等,5460302004540,令和４年１月１日北海道網走市字三眺１３番地１５株式会社オートプランナーＨＡＹＡＳＨＩ（5460302004540）に合併し解散,2015-10-05,1,,,,,オートプランナーハヤシ,0
2472,8010002009139,登記記録の閉鎖等,0,2022-01-12,2021-12-28,有限会社木村運送店,,有限会社,東京都,千代田区,九段北１丁目７番１１号,,13,101,1020073,,,2021-12-28,清算の結了等,,,2015-10-05,1,,,,,キムラウンソウテン,0
2473,8010002026340,登記記録の閉鎖等,0,2022-01-12,2022-01-04,有限会社ラツプ商事,,有限会社,東京都,中央区,銀座７丁目６番１１号,,13,102,1040061,,,2022-01-04,清算の結了等,,,2015-10-05,1,,,,,ラップショウジ,0
2475,8010005028631,登記記録の閉鎖等,0,2022-01-12,2021-12-28,一般社団法人量子人工知能利用技術研究開発起点,,その他の設立登記法人,東京都,文京区,弥生２丁目１１番１６号,,13,105,1130032,,,2021-12-28,清算の結了等,,,2018-06-12,1,,,,,リョウシジンコウチノウリヨウギジュツケンキュウカイハツキテン,0
2484,8010402022229,登記記録の閉鎖等,0,2022-01-12,2021-12-28,ピーシーエムリース有限会社,,有限会社,東京都,港区,赤坂５丁目２番２０号,,13,103,1070052,,,2021-12-28,清算の結了等,,,2015-10-05,1,,,,,ピーシーエムリース,0
2494,8010802003398,登記記録の閉鎖等,0,2022-01-12,2022-01-04,有限会社柿崎精機製作所,,有限会社,東京都,大田区,西糀谷１丁目２２番１５号,,13,111,1440034,,,2022-01-04,清算の結了等,,,2015-10-05,1,,,,,カキザキセイキセイサクショ,0
2518,8011103007287,登記記録の閉鎖等,0,2022-01-12,2021-12-28,合同会社ウィンプレイス,,合同会社,東京都,新宿区,南町２番地－２０２号,,13,104,1620836,,,2021-12-28,清算の結了等,,,2017-08-21,1,,,,,ウィンプレイス,0
2521,8011201023070,登記記録の閉鎖等,0,2022-01-12,2021-12-28,株式会社鶴見商店,,株式会社,東京都,中野区,上高田１丁目４９番１２号,,13,114,1640002,,,2021-12-28,合併による解散等,5011201000196,令和３年１２月２７日東京都中野区上高田一丁目４９番１２号株式会社味ノマチダヤ（5011201000196）に合併し解散,2021-06-22,1,,,,,ツルミショウテン,0
2524,8011501002253,登記記録の閉鎖等,0,2022-01-12,2022-01-11,ジャパンソフトパワー株式会社,,株式会社,東京都,北区,西ケ原３丁目１７番１号,,13,117,1140024,,,2022-01-11,登記官による閉鎖,,,2015-10-05,1,,,,,,0
2525,8011501003706,登記記録の閉鎖等,0,2022-01-12,2022-01-11,株式会社アールデーピーウォーク,,株式会社,東京都,北区,田端１丁目２４番７号,,13,117,1140014,,,2022-01-11,登記官による閉鎖,,,2015-10-05,1,,,,,,0
2530,8011501021807,登記記録の閉鎖等,0,2022-01-12,2022-01-11,株式会社セブン,,株式会社,東京都,荒川区,西日暮里２丁目１７番７号大石ビル３階,,13,118,1160013,,,2022-01-11,登記官による閉鎖,,,2016-08-04,1,,,,,,0
2533,8011502002467,登記記録の閉鎖等,0,2022-01-12,2022-01-11,有限会社坂本商店,,有限会社,東京都,北区,赤羽台３丁目２番１４号,,13,117,1150053,,,2022-01-11,登記官による閉鎖,,,2015-10-05,1,,,,,,0
2535,8011502013927,登記記録の閉鎖等,0,2022-01-12,2022-01-11,有限会社サンユー,,有限会社,東京都,北区,赤羽２丁目４５番８号ファーストビル赤羽５０５号,,13,117,1150045,,,2022-01-11,登記官による閉鎖,,,2015-10-05,1,,,,,,0
2536,8011502015881,登記記録の閉鎖等,0,2022-01-12,2022-01-11,有限会社北電気,,有限会社,東京都,北区,赤羽２丁目３８番９－４０１号,,13,117,1150045,,,2022-01-11,登記官による閉鎖,,,2015-10-05,1,,,,,,0
2540,8011801000320,登記記録の閉鎖等,0,2022-01-12,2022-01-12,石井製型株式会社,,株式会社,東京都,葛飾区,西新小岩５丁目１５番２号,,13,122,1240025,,,2022-01-12,登記官による閉鎖,,,2015-10-05,1,,,,,,0
2541,8011801006053,登記記録の閉鎖等,0,2022-01-12,2022-01-12,株式会社インテリア下川,,株式会社,東京都,足立区,宮城１丁目３０番１号,,13,121,1200047,,,2022-01-12,登記官による閉鎖,,,2015-10-05,1,,,,,,0
2542,8011801009502,登記記録の閉鎖等,0,2022-01-12,2022-01-12,株式会社ダイヤモンド,,株式会社,東京都,足立区,南花畑１丁目９番１８号,,13,121,1210062,,,2022-01-12,登記官による閉鎖,,,2015-10-05,1,,,,,,0
2543,8011801023032,登記記録の閉鎖等,0,2022-01-12,2022-01-12,株式会社Ｃｕｒｅ　ＣＯＲＰＯＲＡＴＩＯＮ,,株式会社,東京都,足立区,鹿浜３丁目９番５号,,13,121,1230864,,,2022-01-12,登記官による閉鎖,,,2015-10-05,1,,,,,,0
2547,8011801025235,登記記録の閉鎖等,0,2022-01-12,2022-01-12,株式会社ユートピア,,株式会社,東京都,葛飾区,亀有２丁目６７番１１号エルスタンザ亀有７０７,,13,122,1250061,,,2022-01-12,登記官による閉鎖,,,2015-10-05,1,,,,,,0
2549,8011802001540,登記記録の閉鎖等,0,2022-01-12,2022-01-12,有限会社奥戸染機製作所,,有限会社,東京都,葛飾区,奥戸２丁目３４番２１号,,13,122,1240022,,,2022-01-12,登記官による閉鎖,,,2015-10-05,1,,,,,,0
2550,8011802008032,登記記録の閉鎖等,0,2022-01-12,2022-01-12,有限会社山岸金型製作所,,有限会社,東京都,葛飾区,四つ木５丁目１８番１７号,,13,122,1240011,,,2022-01-12,登記官による閉鎖,,,2015-10-05,1,,,,,,0
2551,8011802015854,登記記録の閉鎖等,0,2022-01-12,2022-01-12,有限会社椿製作所,,有限会社,東京都,足立区,東和４丁目２０番３号,,13,121,1200003,,,2022-01-12,登記官による閉鎖,,,2015-10-05,1,,,,,,0
2552,8011802017611,登記記録の閉鎖等,0,2022-01-12,2022-01-12,有限会社檜野商店,,有限会社,東京都,足立区,宮城１丁目１４番１２号,,13,121,1200047,,,2022-01-12,登記官による閉鎖,,,2015-10-05,1,,,,,,0
2553,8011802029994,登記記録の閉鎖等,0,2022-01-12,2022-01-12,有限会社日高商会,00057600,有限会社,東京都,足立区,江北７丁目２１番５号,,13,121,1230872,,,2022-01-12,登記官による閉鎖,,,2015-10-05,1,,,,,,0
2554,8011803001523,登記記録の閉鎖等,0,2022-01-12,2022-01-12,合資会社アトリエ・シュパース,,合資会社,東京都,足立区,扇３丁目８番１５号－２０３,,13,121,1230873,,,2022-01-12,登記官による閉鎖,,,2015-10-05,1,,,,,,0
2555,8011805000952,登記記録の閉鎖等,0,2022-01-12,2022-01-12,城北ウエイスト商工業協同組合,,その他の設立登記法人,東京都,足立区,本木南町４番１１号,,13,121,1230855,,,2022-01-12,登記官による閉鎖,,,2015-10-05,1,,,,,,0
2556,8011805001100,登記記録の閉鎖等,0,2022-01-12,2022-01-12,特定非営利活動法人介護支援ネットワーク,,その他の設立登記法人,東京都,足立区,南花畑２丁目２３番２１号,,13,121,1210062,,,2022-01-12,登記官による閉鎖,,,2015-10-05,1,,,,,,0
2574,8020002028352,登記記録の閉鎖等,0,2022-01-12,2022-01-07,有限会社ムラセ,,有限会社,神奈川県,横浜市西区,岡野１丁目２番１０号,,14,103,2200073,,,2022-01-07,清算の結了等,,,2015-10-05,1,,,,,ムラセ,0
2610,8060001022195,登記記録の閉鎖等,0,2022-01-12,2022-01-04,株式会社エコライフ,,株式会社,栃木県,宇都宮市,西川田南１丁目３６番１号,,09,201,3210155,,,2022-01-04,合併による解散等,7060001001092,令和４年１月１日栃木県宇都宮市石井町３３３５番地５５株式会社オリンピア（7060001001092）に合併し解散,2015-10-05,1,,,,,エコライフ,0
2615,8070001021411,登記記録の閉鎖等,0,2022-01-12,2022-01-06,ユニケアネットサービス株式会社,,株式会社,群馬県,邑楽郡大泉町,大字寄木戸１０３７番地３,,10,524,3700535,,,2022-01-06,清算の結了等,,,2015-10-05,1,,,,,ユニケアネットサービス,0
2616,8070001028654,登記記録の閉鎖等,0,2022-01-12,2022-01-07,株式会社エクスプラン,,株式会社,群馬県,太田市,東金井町１０１７番地,,10,205,3730022,,,2022-01-07,清算の結了等,,,2015-10-05,1,,,,,,0
2632,8100002034383,登記記録の閉鎖等,0,2022-01-12,2022-01-06,有限会社フレンド印刷所,,有限会社,長野県,駒ヶ根市,北町１１番１２号,,20,210,3994111,,,2022-01-06,清算の結了等,,,2015-10-05,1,,,,,フレンドインサツジョ,0
2662,8120901043020,登記記録の閉鎖等,0,2022-01-12,2022-01-07,株式会社みさきランド,,株式会社,大阪府,茨木市,鮎川４丁目２５番１６号ピースフルハウス３０３号,,27,211,5670831,,,2022-01-07,清算の結了等,,,2020-07-28,1,,,,,ミサキランド,0
2676,8140002029842,登記記録の閉鎖等,0,2022-01-12,2021-12-28,有限会社村田木工所,,有限会社,兵庫県,明石市,大久保町松陰１０４９番地の７,,28,203,6740053,,,2021-12-28,清算の結了等,,,2015-10-05,1,,,,,ムラタモッコウジョ,0
2682,8150005001038,登記記録の閉鎖等,0,2022-01-12,2022-01-11,特定非営利活動法人おとうちゃん友の会,,その他の設立登記法人,奈良県,奈良市,肘塚町２０９,00048965,29,201,6308142,,,2022-01-11,清算の結了等,,,2015-10-05,1,,,,,オトウチャントモノカイ,0
2705,8180305008580,登記記録の閉鎖等,0,2022-01-12,2022-01-07,一般社団法人ＵＮ・ＬＩＭＩＴＥＤ,,その他の設立登記法人,愛知県,豊田市,高美町７丁目４０番地,,23,211,4730918,,,2022-01-07,清算の結了等,,,2016-11-15,1,,,,,アンリミテッド,0
2734,8290002004657,登記記録の閉鎖等,0,2022-01-12,2022-01-05,有限会社九井不動産,,有限会社,福岡県,福岡市東区,箱崎１丁目３４番６号,,40,131,8120053,,,2022-01-05,清算の結了等,,,2015-10-05,1,,,,,キュウイフドウサン,0
2742,8290801016456,登記記録の閉鎖等,0,2022-01-12,2022-01-05,株式会社ひつじや,,株式会社,福岡県,田川市,本町１０番１６号,,40,206,8260022,,,2022-01-05,清算の結了等,,,2015-10-05,1,,,,,ヒツジヤ,0
2744,8310001012278,登記記録の閉鎖等,0,2022-01-12,2022-01-11,株式会社ヘルシーラボ,,株式会社,長崎県,長崎市,さくらの里１丁目１５番７号,,42,201,8512207,,,2022-01-11,清算の結了等,,,2015-10-05,1,,,,,ヘルシーラボ,0
2766,8380001025579,登記記録の閉鎖等,0,2022-01-12,2022-01-06,スリーエス株式会社,,株式会社,福島県,南相馬市,原町区長野字上田９９番地,,07,212,9750074,,,2022-01-06,清算の結了等,,,2015-10-05,1,,,,,,0
2774,8400001007293,登記記録の閉鎖等,0,2022-01-12,2022-01-12,ウオテイレストランシステム株式会社,,株式会社,岩手県,釜石市,只越町２丁目５番１４号,,03,211,0260021,,,2022-01-12,登記官による閉鎖,,,2015-10-05,1,,,,,,0
2775,8400001008242,登記記録の閉鎖等,0,2022-01-12,2022-01-12,株式会社南部興業,,株式会社,岩手県,九戸郡洋野町,種市５７－９５,,03,507,0287900,,,2022-01-12,登記官による閉鎖,,,2015-10-05,1,,,,,,0
2776,8400002011162,登記記録の閉鎖等,0,2022-01-12,2022-01-12,袰野しいたけ有限会社,,有限会社,岩手県,下閉伊郡岩泉町,袰野字袰野５１番地の４,,03,483,0270424,,,2022-01-12,登記官による閉鎖,,,2015-10-05,1,,,,,,0
2778,8400005002679,登記記録の閉鎖等,0,2022-01-12,2022-01-11,特定非営利活動法人風景の生命を守る地域づくりネットワーク,,その他の設立登記法人,岩手県,八幡平市,大更第１６地割１２番地５,,03,214,0287111,,,2022-01-11,清算の結了等,,,2015-10-05,1,,,,,,0
2779,8400005002761,登記記録の閉鎖等,0,2022-01-12,2022-01-12,特定非営利活動法人ふれあいの里あっとほーむ,,その他の設立登記法人,岩手県,岩手郡岩手町,大字坊第２地割１０番地,,03,303,0284422,,,2022-01-12,登記官による閉鎖,,,2015-10-05,1,,,,,,0
2787,8430002034292,登記記録の閉鎖等,0,2022-01-12,2021-12-22,有限会社サウスゲート,,有限会社,北海道,札幌市中央区,南十四条西１１丁目１－３,,01,101,0640914,,,2021-12-22,合併による解散等,2430001041072,令和３年１２月２２日札幌市中央区南十四条西十一丁目１－３株式会社アゲイン（2430001041072）に合併し解散,2015-10-05,1,,,,,,0
2788,8440002000970,登記記録の閉鎖等,0,2022-01-12,2022-01-11,有限会社勝良観光,,有限会社,北海道,函館市,湯川町２丁目２６番４号,,01,202,0420932,,,2022-01-11,登記官による閉鎖,,,2015-10-05,1,,,,,,0
2789,8440002001201,登記記録の閉鎖等,0,2022-01-12,2022-01-11,有限会社ききょう石油,,有限会社,北海道,函館市,石川町６５番地１,,01,202,0410802,,,2022-01-11,登記官による閉鎖,,,2015-10-05,1,,,,,,0
2790,8440002003214,登記記録の閉鎖等,0,2022-01-12,2022-01-11,有限会社なりた屋,,有限会社,北海道,松前郡松前町,字唐津２２番地,,01,331,0491506,,,2022-01-11,登記官による閉鎖,,,2015-10-05,1,,,,,,0
2791,8440002003874,登記記録の閉鎖等,0,2022-01-12,2022-01-11,有限会社フジヤ商会,,有限会社,北海道,函館市,大町３番１５号,,01,202,0400052,,,2022-01-11,登記官による閉鎖,,,2015-10-05,1,,,,,,0
2792,8440002008163,登記記録の閉鎖等,0,2022-01-12,2022-01-11,有限会社フェイスオフ,,有限会社,北海道,函館市,松風町１番５号,,01,202,0400035,,,2022-01-11,登記官による閉鎖,,,2015-10-05,1,,,,,,0
2793,8440002008709,登記記録の閉鎖等,0,2022-01-12,2022-01-11,有限会社長万部新聞社,,有限会社,北海道,山越郡長万部町,字長万部１７２番地,,01,347,0493521,,,2022-01-11,登記官による閉鎖,,,2015-10-05,1,,,,,,0
2794,8440003000012,登記記録の閉鎖等,0,2022-01-12,2022-01-11,合資会社尾上,,合資会社,北海道,函館市,松風町１８番１７－７０７号,,01,202,0400035,,,2022-01-11,登記官による閉鎖,,,2015-10-05,1,,,,,,0
2807,8500001020550,登記記録の閉鎖等,0,2022-01-12,2022-01-06,環境技術株式会社,,株式会社,愛媛県,松山市,西石井４丁目６番１２号,,38,201,7900931,,,2022-01-06,清算の結了等,,,2017-04-13,1,,,,,カンキョウギジュツ,0
2827,9010401080623,登記記録の閉鎖等,0,2022-01-12,2022-01-04,タレスＤＩＳ　ＣＰＬジャパン株式会社,,株式会社,東京都,港区,赤坂２丁目１７番７号赤坂溜池タワー８階,,13,103,1070052,,,2022-01-04,合併による解散等,1010401059872,令和４年１月１日東京都港区赤坂二丁目１７番７号赤坂溜池タワー８階タレスＤＩＳジャパン株式会社（1010401059872）に合併し解散,2015-10-05,1,,,,,タレスディーアイエスシーピーエルジャパン,0
2830,9010401136193,登記記録の閉鎖等,0,2022-01-12,2021-12-28,ＢＷＥパートナーズ株式会社,,株式会社,東京都,港区,新橋４丁目３０番６号京急中はらビル５階,,13,103,1050004,,,2021-12-28,清算の結了等,,,2018-01-26,1,,,,,,0
2838,9010501009282,登記記録の閉鎖等,0,2022-01-12,2022-01-11,東京あづま製菓株式会社,,株式会社,東京都,台東区,浅草１丁目１７番５号,,13,106,1110032,,,2022-01-11,清算の結了等,,,2015-10-05,1,,,,,,0
2856,9011101037863,登記記録の閉鎖等,0,2022-01-12,2022-01-05,ディーンモルガン株式会社,,株式会社,東京都,中央区,銀座４丁目１２番１５号歌舞伎座タワー,,13,102,1040061,,,2022-01-05,合併による解散等,2180001090095,令和４年１月１日東京都中央区銀座四丁目１２番１５号歌舞伎座タワー株式会社リンクアカデミー（2180001090095）に合併し解散,2015-10-05,1,,,,,ディーンモルガン,0
2857,9011101061351,登記記録の閉鎖等,0,2022-01-12,2021-12-24,株式会社レイード,,株式会社,東京都,千代田区,神田司町２丁目２番地２,,13,101,1010048,,,2021-12-24,清算の結了等,,,2015-10-05,1,,,,,レイード,0
2860,9011101068751,登記記録の閉鎖等,0,2022-01-12,2022-01-04,株式会社ＰＯＯＮＧ　ＨＡＮ,,株式会社,東京都,新宿区,大久保１丁目１３番１０号フォーチュンスペース１０２号,,13,104,1690072,,,2022-01-04,清算の結了等,,,2015-10-05,1,,,,,プンハン,0
2868,9011501001980,登記記録の閉鎖等,0,2022-01-12,2022-01-11,株式会社ジェイ・アール,,株式会社,東京都,北区,西ケ原１丁目２６番１号,,13,117,1140024,,,2022-01-11,登記官による閉鎖,,,2015-10-05,1,,,,,,0
2870,9011501014974,登記記録の閉鎖等,0,2022-01-12,2022-01-11,株式会社翼ネットワーク,,株式会社,東京都,北区,東田端１丁目３番５－８０６号,,13,117,1140013,,,2022-01-11,登記官による閉鎖,,,2015-10-05,1,,,,,,0
2871,9011502003200,登記記録の閉鎖等,0,2022-01-12,2022-01-11,有限会社須藤商店,,有限会社,東京都,北区,滝野川６丁目３３番１７号,,13,117,1140023,,,2022-01-11,登記官による閉鎖,,,2015-10-05,1,,,,,,0
2872,9011502005915,登記記録の閉鎖等,0,2022-01-12,2022-01-11,有限会社武蔵物流,,有限会社,東京都,北区,滝野川７丁目３４番１４号,,13,117,1140023,,,2022-01-11,登記官による閉鎖,,,2015-10-05,1,,,,,,0
2874,9011502011228,登記記録の閉鎖等,0,2022-01-12,2022-01-11,有限会社丸昌,,有限会社,東京都,荒川区,荒川３丁目２３番８号,,13,118,1160002,,,2022-01-11,登記官による閉鎖,,,2015-10-05,1,,,,,,0
2875,9011502015658,登記記録の閉鎖等,0,2022-01-12,2022-01-11,有限会社オフィスふる川,,有限会社,東京都,北区,西ケ原４丁目２９番７号,,13,117,1140024,,,2022-01-11,登記官による閉鎖,,,2015-10-05,1,,,,,,0
2877,9011801004015,登記記録の閉鎖等,0,2022-01-12,2022-01-12,株式会社ビー・プラン,,株式会社,東京都,葛飾区,東新小岩８丁目２８番１３号,,13,122,1240023,,,2022-01-12,登記官による閉鎖,,,2015-10-05,1,,,,,,0
2878,9011801019236,登記記録の閉鎖等,0,2022-01-12,2022-01-12,株式会社リーウッド,,株式会社,東京都,葛飾区,堀切１丁目１７番１５号,,13,122,1240006,,,2022-01-12,登記官による閉鎖,,,2015-10-05,1,,,,,,0
2879,9011802007058,登記記録の閉鎖等,0,2022-01-12,2022-01-12,有限会社堀切漉加工所,,有限会社,東京都,葛飾区,堀切１丁目２３番２０号,,13,122,1240006,,,2022-01-12,登記官による閉鎖,,,2015-10-05,1,,,,,,0
2880,9011802009822,登記記録の閉鎖等,0,2022-01-12,2022-01-12,有限会社インテリアサガワ,,有限会社,東京都,足立区,鹿浜７丁目２６番１５－４０３号,,13,121,1230864,,,2022-01-12,登記官による閉鎖,,,2015-10-05,1,,,,,,0
2881,9011802014277,登記記録の閉鎖等,0,2022-01-12,2022-01-12,有限会社白田フェンス,,有限会社,東京都,足立区,辰沼２丁目７番５号,,13,121,1210054,,,2022-01-12,登記官による閉鎖,,,2015-10-05,1,,,,,,0
2882,9011802019648,登記記録の閉鎖等,0,2022-01-12,2022-01-12,有限会社谷口工業所,,有限会社,東京都,足立区,一ツ家１丁目１３番８号,,13,121,1210075,,,2022-01-12,登記官による閉鎖,,,2015-10-05,1,,,,,,0
2883,9011802025010,登記記録の閉鎖等,0,2022-01-12,2022-01-12,有限会社トータル企画,,有限会社,東京都,葛飾区,東立石１丁目１９番５号,,13,122,1240013,,,2022-01-12,登記官による閉鎖,,,2015-10-05,1,,,,,,0
2884,9011802026974,登記記録の閉鎖等,0,2022-01-12,2022-01-12,有限会社ファストハンド,,有限会社,東京都,足立区,谷在家１丁目１４番５－１０８号,,13,121,1230863,,,2022-01-12,登記官による閉鎖,,,2015-10-05,1,,,,,,0
2885,9011803001134,登記記録の閉鎖等,0,2022-01-12,2022-01-12,合同会社ビレイポイント,,合同会社,東京都,足立区,鹿浜７丁目３番３－５０４号,,13,121,1230864,,,2022-01-12,登記官による閉鎖,,,2015-10-05,1,,,,,,0
2886,9011805001561,登記記録の閉鎖等,0,2022-01-12,2022-01-12,特定非営利活動法人アジアヘルスサポート,,その他の設立登記法人,東京都,葛飾区,亀有３丁目３３番８号渡辺ビル３０１,,13,122,1250061,,,2022-01-12,登記官による閉鎖,,,2015-10-05,1,,,,,,0
2888,9012703000944,登記記録の閉鎖等,0,2022-01-12,2022-01-06,合同会社エーピーネックス,,合同会社,神奈川県,相模原市中央区,小山３丁目７番１０号,,14,152,2520205,,,2022-01-06,清算の結了等,,,2015-10-05,1,,,,,エーピーネックス,0
2909,9021001055015,登記記録の閉鎖等,0,2022-01-12,2022-01-05,株式会社スズキ装建,,株式会社,神奈川県,平塚市,御殿３丁目２０番９号,,14,203,2540061,,,2022-01-05,清算の結了等,,,2015-10-05,1,,,,,スズキソウケン,0
2911,9021002045378,登記記録の閉鎖等,0,2022-01-12,2022-01-06,有限会社戸山家具製作所,,有限会社,神奈川県,海老名市,今里３丁目２５番４１号,,14,215,2430423,,,2022-01-06,清算の結了等,,,2015-10-05,1,,,,,,0
2943,9070001019842,登記記録の閉鎖等,0,2022-01-12,2022-01-06,株式会社ナガイワ商会,,株式会社,群馬県,邑楽郡大泉町,城之内５丁目２５番７号,,10,524,3700518,,,2022-01-06,清算の結了等,,,2015-10-05,1,,,,,ナガイワショウカイ,0
2945,9070002014545,登記記録の閉鎖等,0,2022-01-12,2022-01-06,有限会社アートス不動産,,有限会社,群馬県,安中市,原市６１７番地,,10,211,3790133,,,2022-01-06,清算の結了等,,,2015-10-05,1,,,,,アートスフドウサン,0
2947,9080401014888,登記記録の閉鎖等,0,2022-01-12,2022-01-06,株式会社関東オークラ,,株式会社,静岡県,菊川市,加茂２１５８番地,,22,224,4390031,,,2022-01-06,合併による解散等,8160001010009,令和４年１月１日滋賀県東近江市御園町９０番地株式会社ＫＳオークラ（8160001010009）に合併し解散,2015-10-05,1,,,,,カントウオークラ,0
2948,9080402016891,登記記録の閉鎖等,0,2022-01-12,2022-01-06,杉浦エンジニアリング有限会社,,有限会社,静岡県,浜松市中区,富塚町３５６番地の８,00080156,22,131,4328002,,,2022-01-06,清算の結了等,,,2015-10-05,1,,,,,スギウラエンジニアリング,0
2949,9080402020646,登記記録の閉鎖等,0,2022-01-12,2022-01-04,有限会社銅勝板金,,有限会社,静岡県,磐田市,小中瀬７２８番地の１,,22,211,4380215,,,2022-01-04,清算の結了等,,,2015-10-05,1,,,,,ドウカツバンキン,0
2959,9110001019739,登記記録の閉鎖等,0,2022-01-12,2022-01-04,株式会社謙信堂,,株式会社,新潟県,上越市,中央１丁目２６番４５号,,15,222,9420001,,,2022-01-04,合併による解散等,2110001018904,令和４年１月１日新潟県上越市中央一丁目２６番４５号株式会社イデア（2110001018904）に合併し解散,2015-10-05,1,,,,,ケンシンドウ,0
2961,9120001060345,登記記録の閉鎖等,0,2022-01-12,2022-01-06,阿部株式会社,,株式会社,大阪府,大阪市北区,鶴野町１番３号,,27,127,5300014,,,2022-01-06,清算の結了等,,,2015-10-05,1,,,,,アベ,0
2967,9120001101157,登記記録の閉鎖等,0,2022-01-12,2022-01-04,株式会社ＳＢＣファイナンシャルサービス,,株式会社,大阪府,大阪市北区,太融寺町３番２４号,,27,127,5300051,,,2022-01-04,合併による解散等,9120001065006,令和４年１月１日大阪市北区太融寺町３番２４号株式会社柴田ビジネス・コンサルティング（9120001065006）に合併し解散,2015-10-05,1,,,,,エスビーシーファイナンシャルサービス,0
2987,9120103002229,登記記録の閉鎖等,0,2022-01-12,2022-01-07,合同会社たこやき茶屋,,合同会社,大阪府,大阪市中央区,森ノ宮中央２丁目１３番３５－１０３２号,,27,128,5400003,,,2022-01-07,清算の結了等,,,2015-10-05,1,,,,,タコヤキチャヤ,0
3017,9180001091038,登記記録の閉鎖等,0,2022-01-12,2022-01-06,株式会社ＪＨＴマイルストーン,,株式会社,愛知県,名古屋市千種区,鹿子殿１１番１３号－１,,23,101,4640021,,,2022-01-06,清算の結了等,,,2015-10-05,1,,,,,ジェイエイチティーマイルストーン,0
3030,9180301010911,登記記録の閉鎖等,0,2022-01-12,2022-01-07,蒲郡生コン株式会社,,株式会社,愛知県,蒲郡市,浜町４４番地,,23,214,4430036,,,2022-01-07,清算の結了等,,,2015-10-05,1,,,,,ガマゴオリナマコン,0
3034,9190001027040,登記記録の閉鎖等,0,2022-01-12,2022-01-07,株式会社グリーンポイント,,株式会社,三重県,度会郡南伊勢町,迫間浦５７２番地５,,24,472,5160116,,,2022-01-07,清算の結了等,,,2020-01-14,1,,,,,グリーンポイント,0
3036,9190003003436,登記記録の閉鎖等,0,2022-01-12,2021-12-24,合同会社ｍｏｃａ,,合同会社,三重県,桑名市,星見ヶ丘９丁目１１０７番地２,,24,205,5110912,,,2021-12-24,清算の結了等,,,2020-07-20,1,,,,,モカ,0
3043,9220003000776,登記記録の閉鎖等,0,2022-01-12,2022-01-06,合同会社ＬＡＰＩＮ,,合同会社,石川県,白山市,美里町６番地,,17,210,9240820,,,2022-01-06,清算の結了等,,,2015-10-05,1,,,,,ラパン,0
3050,9240005010342,登記記録の閉鎖等,0,2022-01-12,2021-11-26,石立神社,,その他の設立登記法人,広島県,竹原市,田万里町３７２８番地,,34,203,7250001,,,2021-11-26,合併による解散等,5240005010429,令和３年１１月２６日広島県竹原市田万里町１２２８番地八幡神社（5240005010429）に合併し解散,2015-10-05,1,,,,,イシダテジンジャ,0
3066,9290005009636,登記記録の閉鎖等,0,2022-01-12,2022-01-04,中村食糧販売企業組合,,その他の設立登記法人,福岡県,久留米市,合川町２１３９番地の２,,40,203,8390861,,,2022-01-04,清算の結了等,,,2015-10-05,1,,,,,ナカムラショクリョウハンバイ,0
3070,9330001015550,登記記録の閉鎖等,0,2022-01-12,2022-01-07,株式会社レイホクファーム,,株式会社,熊本県,天草郡苓北町,志岐８６２番地,,43,531,8632503,,,2022-01-07,合併による解散等,5330001015372,令和４年１月４日熊本県天草郡苓北町志岐２３４番地１株式会社レイジュウ（5330001015372）に合併し解散,2015-10-05,1,,,,,レイホクファーム,0
3071,9330001027380,登記記録の閉鎖等,0,2022-01-12,2022-01-04,株式会社ＲＩＶ　ＮＯＴＨ,,株式会社,熊本県,熊本市西区,春日７丁目２７番８５号,,43,103,8600047,,,2022-01-04,合併による解散等,2330001022850,令和４年１月１日熊本市西区春日七丁目２７番８５号Ａ・ｖａｉｌ建設株式会社（2330001022850）に合併し解散,2020-04-09,1,,,,,リブノース,0
3075,9340002009385,登記記録の閉鎖等,0,2022-01-12,2022-01-05,有限会社みよし鮨,,有限会社,鹿児島県,鹿児島市,春山町１８２０番地５,,46,201,8992704,,,2022-01-05,清算の結了等,,,2015-10-05,1,,,,,,0
3094,9380002029900,登記記録の閉鎖等,0,2022-01-12,2022-01-05,有限会社オザワ工業,,有限会社,福島県,双葉郡浪江町,大字高瀬字根木内８３番地３,,07,547,9791525,,,2022-01-05,清算の結了等,,,2015-10-05,1,,,,,オザワコウギョウ,0
3097,9400001006204,登記記録の閉鎖等,0,2022-01-12,2022-01-12,株式会社日専連北上ファイナンス,,株式会社,岩手県,北上市,新穀町１丁目４番１号,,03,206,0240092,,,2022-01-12,登記官による閉鎖,,,2015-10-05,1,,,,,,0
3098,9400002001749,登記記録の閉鎖等,0,2022-01-12,2022-01-12,有限会社セイウン,,有限会社,岩手県,盛岡市,西青山２丁目８番３４号,,03,201,0200132,,,2022-01-12,登記官による閉鎖,,,2015-10-05,1,,,,,,0
3099,9400002009338,登記記録の閉鎖等,0,2022-01-12,2022-01-12,有限会社光和開発,,有限会社,岩手県,北上市,鬼柳町新井田５２番地,,03,206,0240056,,,2022-01-12,登記官による閉鎖,,,2015-10-05,1,,,,,,0
3101,9400005002728,登記記録の閉鎖等,0,2022-01-12,2022-01-12,農事組合法人豊岡農場,,その他の設立登記法人,岩手県,岩手郡岩手町,大字久保第１地割３１７番地,,03,303,0284305,,,2022-01-12,登記官による閉鎖,,,2015-10-05,1,,,,,,0
3102,9400005003040,登記記録の閉鎖等,0,2022-01-12,2022-01-12,農事組合法人上新田生産組合,,その他の設立登記法人,岩手県,花巻市,鍋倉字百目木４番地２,,03,205,0250046,,,2022-01-12,登記官による閉鎖,,,2015-10-05,1,,,,,,0
3103,9400005003692,登記記録の閉鎖等,0,2022-01-12,2022-01-12,特定非営利活動法人県南広域振興圏を考える会,,その他の設立登記法人,岩手県,北上市,大通り１丁目１１番３号グリーンホテル北上（内）,,03,206,0240061,,,2022-01-12,登記官による閉鎖,,,2015-10-05,1,,,,,,0
3104,9402702000170,登記記録の閉鎖等,0,2022-01-12,2022-01-12,有限会社今野工務店,,有限会社,岩手県,大船渡市,赤崎町字後ノ入５８番地３,,03,203,0220007,,,2022-01-12,登記官による閉鎖,,,2015-10-05,1,,,,,,0
3115,9430001041066,登記記録の閉鎖等,0,2022-01-12,2021-12-22,株式会社ゲイズ,,株式会社,北海道,札幌市中央区,南十四条西１１丁目１－３,,01,101,0640914,,,2021-12-22,合併による解散等,2430001041072,令和３年１２月２２日札幌市中央区南十四条西十一丁目１－３株式会社アゲイン（2430001041072）に合併し解散,2015-10-05,1,,,,,ゲイズ,0
3118,9440001000120,登記記録の閉鎖等,0,2022-01-12,2022-01-11,株式会社イースト,,株式会社,北海道,函館市,高盛町３番２０号,,01,202,0400024,,,2022-01-11,登記官による閉鎖,,,2015-10-05,1,,,,,,0
3119,9440001000913,登記記録の閉鎖等,0,2022-01-12,2022-01-11,株式会社ジェイ・オー,,株式会社,北海道,函館市,梁川町７番１３号,,01,202,0400015,,,2022-01-11,登記官による閉鎖,,,2015-10-05,1,,,,,,0
3120,9440002002223,登記記録の閉鎖等,0,2022-01-12,2022-01-11,有限会社末広寿司,,有限会社,北海道,函館市,美原５丁目１６番１４号,,01,202,0410806,,,2022-01-11,登記官による閉鎖,,,2015-10-05,1,,,,,,0
3121,9440002003163,登記記録の閉鎖等,0,2022-01-12,2022-01-11,ナカノデジタル有限会社,,有限会社,北海道,函館市,杉並町１５番１２号,,01,202,0400004,,,2022-01-11,登記官による閉鎖,,,2015-10-05,1,,,,,,0
3122,9440002003923,登記記録の閉鎖等,0,2022-01-12,2022-01-11,有限会社プラスワン,,有限会社,北海道,函館市,中島町９番１号,,01,202,0400014,,,2022-01-11,登記官による閉鎖,,,2015-10-05,1,,,,,,0
3125,9470002016071,登記記録の閉鎖等,0,2022-01-12,2022-01-07,有限会社辻カメラ,00005481,有限会社,香川県,観音寺市,観音寺町甲１１６０番地１,,37,205,7680060,,,2022-01-07,清算の結了等,,,2015-10-05,1,,,,,ツジカメラ,0
