sequenceNumber,corporateNumber,process,correct,updateDate,changeDate,name,nameImageId,kind,prefectureName,cityName,streetNumber,addressImageId,prefectureCode,cityCode,postCode,addressOutside,addressOutsideImageId,closeDate,closeCause,successorCorporateNumber,changeCause,assignmentDate,latest,enName,enPrefectureName,enCityName,enAddressOutside,furigana,hihyoji
6,1010001242779,新規,0,2024-03-11,2024-03-11,株式会社Ａｂｉｅｓ,,株式会社,東京都,中央区,銀座１丁目１２番４号Ｎ＆Ｅ，ＢＬＤ．７階,,13,102,1040061,,,,,,,2024-03-11,1,,,,,アビエス,0
7,1010001242878,新規,0,2024-03-11,2024-03-11,Ｋリアルエステート株式会社,,株式会社,東京都,中央区,晴海５丁目５番４－２０６号,,13,102,1040053,,,,,,,2024-03-11,1,,,,,ケーリアルエステート,0
8,1010001242903,新規,0,2024-03-11,2024-03-11,ＫＴクリーンサポート株式会社,,株式会社,東京都,千代田区,外神田１丁目３番１２－６０１号,,13,101,1010021,,,,,,,2024-03-11,1,,,,,ケーティークリーンサポート,0
9,1010001242944,新規,0,2024-03-11,2024-03-11,株式会社ブルーム,,株式会社,東京都,中央区,築地５丁目６番１０号,,13,102,1040045,,,,,,,2024-03-11,1,,,,,ブルーム,0
12,1010003043093,新規,0,2024-03-11,2024-03-11,ＨＬＢ１８号合同会社,,合同会社,東京都,千代田区,霞が関３丁目２番５号,,13,101,1000013,,,,,,,2024-03-11,1,,,,,エイチエルビージュウハチゴウ,0
13,1010003043151,新規,0,2024-03-11,2024-03-11,合同会社ｔｒｕｓｔｗｉｎｓ,,合同会社,東京都,中央区,日本橋室町１丁目１１－１２日本橋水野ビル７階,,13,102,1030022,,,,,,,2024-03-11,1,,,,,トラストゥィンズ,0
14,1010101016042,新規,0,2024-03-11,2024-03-11,株式会社アンサンヒーロー,,株式会社,東京都,八王子市,犬目町３２３番地３,,13,201,1930802,,,,,,,2024-03-11,1,,,,,アンサンヒーロー,0
23,1010701045663,新規,0,2024-03-11,2024-03-11,株式会社ＡＳＫ　Ｓｏｌｕｔｉｏｎ,,株式会社,東京都,品川区,大崎２丁目９－１－Ｅ３４０１,,13,109,1410032,,,,,,,2024-03-11,1,,,,,アスクソリューション,0
27,1010901054828,新規,0,2024-03-11,2024-03-11,株式会社Ｕｃａ,,株式会社,東京都,世田谷区,池尻４丁目２８番２１－１１３号,,13,112,1540001,,,,,,,2024-03-11,1,,,,,ウカ,0
32,1011001160418,新規,0,2024-03-11,2024-03-11,エムアンド株式会社,,株式会社,東京都,渋谷区,恵比寿西２丁目８番４号ＥＸ恵比寿西ビル５階,,13,113,1500021,,,,,,,2024-03-11,1,,,,,エムアンド,0
33,1011001160475,新規,0,2024-03-11,2024-03-11,株式会社ＳＴＡＮＵ,,株式会社,東京都,渋谷区,宇田川町１２番３－３０２号,,13,113,1500042,,,,,,,2024-03-11,1,,,,,スタンユー,0
34,1011001160500,新規,0,2024-03-11,2024-03-11,株式会社ＡＩＴｅｃｈ,,株式会社,東京都,渋谷区,神山町４１－７エクティ神山町１０４号室,,13,113,1500047,,,,,,,2024-03-11,1,,,,,アイテック,0
39,1011003018647,新規,0,2024-03-11,2024-03-11,ＳｍａｒｔＰａｙｍｅｎｔ合同会社,,合同会社,東京都,渋谷区,道玄坂１丁目１０－８渋谷道玄坂東急ビル２Ｆ－Ｃ,,13,113,1500043,,,,,,,2024-03-11,1,,,,,スマートペイメント,0
41,1011101106460,新規,0,2024-03-11,2024-03-11,株式会社Ｔｒｉａ,,株式会社,東京都,新宿区,西新宿６丁目１２－７ストーク新宿１階Ｃ－１７,,13,104,1600023,,,,,,,2024-03-11,1,,,,,トリア,0
43,1011301029478,新規,0,2024-03-11,2024-03-11,ＶＲＩＬ株式会社,,株式会社,東京都,杉並区,久我山２丁目１３番５号,,13,115,1680082,,,,,,,2024-03-11,1,,,,,ヴリル,0
44,1011301029486,新規,0,2024-03-11,2024-03-11,株式会社レイズ,,株式会社,東京都,杉並区,和泉２丁目３９番１６号アイルプレミアム笹塚ウエスト１０５,,13,115,1680063,,,,,,,2024-03-11,1,,,,,レイズ,0
45,1011305002968,新規,0,2024-03-11,2024-03-11,医療法人社団健麗会,,その他の設立登記法人,東京都,杉並区,西荻南４丁目４番５号フェリーチェ１０２,,13,115,1670053,,,,,,,2024-03-11,1,,,,,ケンレイカイ,0
46,1011501030418,新規,0,2024-03-11,2024-03-11,株式会社ＢＯＮＩＴＯ,,株式会社,東京都,荒川区,東尾久４丁目２番８－２０３号,,13,118,1160012,,,,,,,2024-03-11,1,,,,,ボニート,0
53,1012401041612,新規,0,2024-03-11,2024-03-11,ＲＨＩ　Ｊａｐａｎ株式会社,,株式会社,東京都,武蔵野市,中町１丁目１５番５号７階・８階,,13,203,1800006,,,,,,,2024-03-11,1,,,,,アールエイチアイジャパン,0
55,1012801023020,新規,0,2024-03-11,2024-03-11,株式会社ケイザン,,株式会社,東京都,武蔵村山市,三ツ藤１丁目８１番地の１４,,13,223,2080021,,,,,,,2024-03-11,1,,,,,ケイザン,0
57,1012803003334,新規,0,2024-03-11,2024-03-11,合同会社クワトログループ,,合同会社,東京都,立川市,錦町１丁目１７番２０号レーベン立川Ｅｍｂｅｌｌｉｒ１２０１,,13,202,1900022,,,,,,,2024-03-11,1,,,,,クワトログループ,0
81,1040003024512,新規,0,2024-03-11,2024-03-11,合同会社ＤＭ５号,,合同会社,千葉県,柏市,柏４丁目５番１０号,,12,217,2770005,,,,,,,2024-03-11,1,,,,,ディーエムゴゴウ,0
85,1050001054386,新規,0,2024-03-11,2024-03-11,タカラ株式会社,,株式会社,茨城県,下妻市,下妻丙１９８番地１,,08,210,3040061,,,,,,,2024-03-11,1,,,,,タカラ,0
86,1050003008183,新規,0,2024-03-11,2024-03-11,合同会社アイボリー,,合同会社,茨城県,つくば市,梅園２丁目１番地１５,,08,220,3050045,,,,,,,2024-03-11,1,,,,,アイボリー,0
91,1070001041473,新規,0,2024-03-11,2024-03-11,株式会社結島,,株式会社,群馬県,北群馬郡吉岡町,大字大久保２１５１番地５,,10,345,3703602,,,,,,,2024-03-11,1,,,,,ユイシマ,0
92,1080005007593,新規,0,2024-03-11,2024-03-11,一般社団法人学生助けたいんじゃー,,その他の設立登記法人,静岡県,静岡市清水区,谷田４番１４号,,22,103,4240887,,,,,,,2024-03-11,1,,,,,ガクセイタスケタインジャー,0
93,1090005007618,新規,0,2024-03-11,2024-03-11,一般社団法人ジェンダー・多様性政策推進機構,,その他の設立登記法人,山梨県,西八代郡市川三郷町,市川大門３５０－１,,19,346,4093601,,,,,,,2024-03-11,1,,,,,ジェンダータヨウセイセイサクスイシンキコウ,0
97,1110005017060,新規,0,2024-03-11,2024-03-11,一般社団法人新潟市中央区中小建設業協会,,その他の設立登記法人,新潟県,新潟市中央区,長嶺町９番２０号,,15,103,9500085,,,,,,,2024-03-11,1,,,,,ニイガタシチュウオウクチュウショウケンセツギョウキョウカイ,0
102,1120003026095,新規,0,2024-03-11,2024-03-11,合同会社タグボート,,合同会社,大阪府,大阪市西区,土佐堀３丁目３－２－１２０３,,27,106,5500001,,,,,,,2024-03-11,1,,,,,タグボート,0
104,1120005024188,新規,0,2024-03-11,2024-03-11,一般社団法人Ｆｒｅｅ２ｍｏｖｅ,,その他の設立登記法人,大阪府,大阪市東成区,東小橋３丁目１３番２８－１１０２号,,27,115,5370024,,,,,,,2024-03-11,1,,,,,フリートゥームーヴ,0
113,1140001133627,新規,0,2024-03-11,2024-03-11,株式会社ＳＫＣ,,株式会社,兵庫県,神戸市中央区,旭通５丁目３番５号,,28,110,6510095,,,,,,,2024-03-11,1,,,,,エスケーシー,0
114,1140001133635,新規,0,2024-03-11,2024-03-11,尼崎ハイトラスト株式会社,,株式会社,兵庫県,尼崎市,金楽寺町２丁目２番３３号,,28,202,6600806,,,,,,,2024-03-11,1,,,,,アマガサキハイトラスト,0
131,1180001160477,新規,0,2024-03-11,2024-03-11,株式会社名古屋の不動産,,株式会社,愛知県,名古屋市中区,栄１丁目２２番７号,,23,106,4600008,,,,,,,2024-03-11,1,,,,,ナゴヤノフドウサン,0
132,1180001160493,新規,0,2024-03-11,2024-03-11,アメイジア・ジャパン株式会社,,株式会社,愛知県,名古屋市中区,丸の内１丁目３番１号ライオンズビル丸の内６０１号室,,23,106,4600002,,,,,,,2024-03-11,1,,,,,アメイジアジャパン,0
133,1180001160502,新規,0,2024-03-11,2024-03-11,株式会社ステイクローズ,,株式会社,愛知県,名古屋市東区,泉１丁目７番２８号グランドール泉１１０２号,,23,102,4610001,,,,,,,2024-03-11,1,,,,,ステイクローズ,0
134,1180001160510,新規,0,2024-03-11,2024-03-11,株式会社コティ,,株式会社,愛知県,春日井市,如意申町６丁目１３番地１３,,23,206,4860918,,,,,,,2024-03-11,1,,,,,コティ,0
138,1180003026461,新規,0,2024-03-11,2024-03-11,合同会社ハートベル,,合同会社,愛知県,名古屋市名東区,八前２丁目３１０番の６ライオンズマンション平和が丘第３－１０６号室,,23,115,4650018,,,,,,,2024-03-11,1,,,,,ハートベル,0
142,1180301038407,新規,0,2024-03-11,2024-03-11,ピナクルトレジャー株式会社,,株式会社,愛知県,豊川市,御油町西沢８５番地の５,,23,207,4410211,,,,,,,2024-03-11,1,,,,,ピナクルトレジャー,0
154,1260001038822,新規,0,2024-03-11,2024-03-11,千光ホールディングス株式会社,,株式会社,岡山県,岡山市東区,古都南方１４２５番地,,33,103,7038215,,,,,,,2024-03-11,1,,,,,センコウホールディングス,0
159,1290003015040,新規,0,2024-03-11,2024-03-11,ＤＲＥＡＭ　ＡＣＥ合同会社,,合同会社,福岡県,福岡市南区,塩原１丁目２－３２オーヴィジョン塩原１００２,,40,134,8150032,,,,,,,2024-03-11,1,,,,,ドリームエース,0
170,1360005006996,新規,0,2024-03-11,2024-03-11,社会保険労務士法人クリックオフィス,,その他の設立登記法人,沖縄県,中頭郡西原町,字幸地７６４番地,,47,329,9030116,,,,,,,2024-03-11,1,,,,,クリックオフィス,0
174,1390001017549,新規,0,2024-03-11,2024-03-11,株式会社ＳＥＥＤ,,株式会社,山形県,鶴岡市,下山添字一里塚１５１番地,,06,203,9970341,,,,,,,2024-03-11,1,,,,,シード,0
177,1430001091250,新規,0,2024-03-11,2024-03-11,株式会社山川,,株式会社,北海道,札幌市西区,平和二条６丁目３番１６号,,01,107,0630022,,,,,,,2024-03-11,1,,,,,ヤマカワ,0
181,1430003016024,新規,0,2024-03-11,2024-03-11,合同会社ひとみコーポレーション,,合同会社,北海道,札幌市東区,北十六条東６丁目１番１－１０１号,,01,103,0650016,,,,,,,2024-03-11,1,,,,,ヒトミコーポレーション,0
182,1430003016040,新規,0,2024-03-11,2024-03-11,合同会社タラクテ,,合同会社,北海道,札幌市中央区,北三条東３丁目１－２７ラピス札幌Ｎ３　８０３号室,,01,101,0600033,,,,,,,2024-03-11,1,,,,,タラクテ,0
189,1700150124130,新規,0,2024-03-11,2024-02-22,北竜地区ＪＡアグリサポート協議会,,その他,北海道,雨竜郡北竜町,字和３６－３ＪＡきたそらち北竜支所内,,01,437,0782512,,,,,,,2024-02-22,1,,,,,ホクリユウチクジエイエイアグリサポートキヨウギカイ,0
194,2010001242786,新規,0,2024-03-11,2024-03-11,株式会社ＢＩＮＯＳＣＯＰＥ,,株式会社,東京都,中央区,日本橋室町１丁目１１番１２号日本橋水野ビル７階,,13,102,1030022,,,,,,,2024-03-11,1,,,,,バイノスコープ,0
195,2010001242877,新規,0,2024-03-11,2024-03-11,ＱＩＡＮＶＥＮＴＵＲＥＳ株式会社,,株式会社,東京都,中央区,築地７丁目８－３,,13,102,1040045,,,,,,,2024-03-11,1,,,,,チェンベンチャーズ,0
198,2010401180900,新規,0,2024-03-11,2024-03-11,株式会社八十八,,株式会社,東京都,港区,麻布十番２丁目３番７－４０１号グリーンコート麻布十番,,13,103,1060045,,,,,,,2024-03-11,1,,,,,ヤソハチ,0
199,2010401180941,新規,0,2024-03-11,2024-03-11,株式会社アイテクノホールディングス,,株式会社,東京都,港区,芝４丁目１１番５号,,13,103,1080014,,,,,,,2024-03-11,1,,,,,アイテクノホールディングス,0
221,2011603004269,新規,0,2024-03-11,2024-03-11,ＮＫコンサルティング合同会社,,合同会社,東京都,練馬区,早宮１丁目１５番地－２５－５１０号,,13,120,1790085,,,,,,,2024-03-11,1,,,,,エヌケイコンサルティング,0
229,2012401041611,新規,0,2024-03-11,2024-03-11,株式会社ｑｕｉｃｋ,,株式会社,東京都,小金井市,中町３丁目２２番２２号,,13,210,1840012,,,,,,,2024-03-11,1,,,,,クイック,0
236,2013301052194,新規,0,2024-03-11,2024-03-11,ＡＴＲ株式会社,,株式会社,東京都,豊島区,池袋１丁目２番６－９０３号,,13,116,1700014,,,,,,,2024-03-11,1,,,,,アットアール,0
238,2020001156184,新規,0,2024-03-11,2024-03-11,くじら株式会社,,株式会社,神奈川県,横浜市都筑区,加賀原２丁目１０番３０号,,14,118,2240055,,,,,,,2024-03-11,1,,,,,クジラ,0
241,2020003025684,新規,0,2024-03-11,2024-03-11,合同会社森松,,合同会社,神奈川県,横浜市青葉区,榎が丘１８番地テラスハウス青葉台２０８,,14,117,2270063,,,,,,,2024-03-11,1,,,,,モリマツ,0
242,2020003025701,新規,0,2024-03-11,2024-03-11,あしすと合同会社,,合同会社,神奈川県,横浜市神奈川区,六角橋６丁目３０－２９－４０３,,14,102,2210802,,,,,,,2024-03-11,1,,,,,アシスト,0
261,2040003024511,新規,0,2024-03-11,2024-03-11,合同会社ＤＭ４号,,合同会社,千葉県,柏市,柏４丁目５番１０号,,12,217,2770005,,,,,,,2024-03-11,1,,,,,ディーエムヨンゴウ,0
262,2050005013395,新規,0,2024-03-11,2024-03-11,一般社団法人茨城県介護事業者連盟,,その他の設立登記法人,茨城県,石岡市,府中１丁目３番３号,,08,205,3150013,,,,,,,2024-03-11,1,,,,,イバラキケンカイゴジギョウシャレンメイ,0
263,2060001036903,新規,0,2024-03-11,2024-03-11,株式会社ベースネイチャーワーク,,株式会社,栃木県,芳賀郡茂木町,大字茂木５０番地７,,09,343,3213531,,,,,,,2024-03-11,1,,,,,ベースネイチャーワーク,0
265,2070001041472,新規,0,2024-03-11,2024-03-11,ＦＬＯＷ　ＵＰ株式会社,,株式会社,群馬県,高崎市,筑縄町５２番地７梅山第一ビル１０１,,10,202,3700075,,,,,,,2024-03-11,1,,,,,フロウアップ,0
279,2120001260637,新規,0,2024-03-11,2024-03-11,株式会社Ｌｉｎｘｔｉｏｎ,,株式会社,大阪府,大阪市北区,梅田１丁目１番３号大阪駅前第３ビル２９階１－１－１号室,,27,127,5300001,,,,,,,2024-03-11,1,,,,,リンクション,0
280,2120001263020,新規,0,2024-03-11,2024-03-11,株式会社３ａｒｔ,,株式会社,大阪府,大阪市西区,北堀江３丁目１０番１７ＴｈｅＨｉｇｈＨｏｒｉｅ２０９,,27,106,5500014,,,,,,,2024-03-11,1,,,,,スリーアート,0
281,2120001263053,新規,0,2024-03-11,2024-03-11,松山株式会社,,株式会社,大阪府,大阪市中央区,西心斎橋２丁目７－１５道頓堀ＪＮＳビル,,27,128,5420086,,,,,,,2024-03-11,1,,,,,マツヤマ,0
282,2120101069185,新規,0,2024-03-11,2024-03-11,株式会社ＲＩＳＥ　ＺＥＲＯ,,株式会社,大阪府,堺市中区,深井清水町３２７６番地,,27,142,5998273,,,,,,,2024-03-11,1,,,,,ライズゼロ,0
287,2120901048859,新規,0,2024-03-11,2024-03-11,ＡＺＵＬ株式会社,,株式会社,大阪府,吹田市,江坂町５丁目１１番１０号サンシャイン緑地公園３０５号室,,27,205,5640063,,,,,,,2024-03-11,1,,,,,アズール,0
288,2122001037874,新規,0,2024-03-11,2024-03-11,株式会社アリエ,,株式会社,大阪府,東大阪市,南鴻池町２丁目４番４号,,27,227,5780961,,,,,,,2024-03-11,1,,,,,アリエ,0
307,2220001025856,新規,0,2024-03-11,2024-03-11,株式会社Ｂ．Ｉ．Ｔ,,株式会社,石川県,金沢市,笠市町４番１０号,,17,201,9200851,,,,,,,2024-03-11,1,,,,,ビーアイテイー,0
310,2240001062897,新規,0,2024-03-11,2024-03-11,ＶＩＣＴＯＲＹ　ＥＡＳＴ株式会社,,株式会社,広島県,福山市,川口町５丁目６番１１号,,34,207,7200822,,,,,,,2024-03-11,1,,,,,ビクトリーイースト,0
311,2240005015744,新規,0,2024-03-11,2024-03-11,一般社団法人ワンダー５,,その他の設立登記法人,広島県,三次市,石原町４３５番地,,34,209,7280623,,,,,,,2024-03-11,1,,,,,ワンダーファイブ,0
333,2400001016580,新規,0,2024-03-11,2024-03-11,サッシセンター株式会社,,株式会社,岩手県,盛岡市,松尾町１６番２２号,,03,201,0200873,,,,,,,2024-03-11,1,,,,,サッシセンター,0
334,2410005006569,新規,0,2024-03-11,2024-03-11,農事組合法人百笑家,,その他の設立登記法人,秋田県,大仙市,太田町横沢字泥窪３１,,05,212,0191601,,,,,,,2024-03-11,1,,,,,,0
335,2430001091258,新規,0,2024-03-11,2024-03-11,ＶＩＴＡＲＱ株式会社,,株式会社,北海道,札幌市西区,西町南１２丁目４番８号,,01,107,0630062,,,,,,,2024-03-11,1,,,,,ヴィターク,0
336,2430001091266,新規,0,2024-03-11,2024-03-11,しえる株式会社,,株式会社,北海道,札幌市中央区,大通西１丁目１４番２号桂和大通ビル５０地下１階,,01,101,0600042,,,,,,,2024-03-11,1,,,,,シエル,0
342,2470005006555,新規,0,2024-03-11,2024-03-11,特定非営利活動法人Ｌｉｂｅｒｔｅ,,その他の設立登記法人,香川県,丸亀市,土器町西３丁目４６５番地３,,37,202,7630081,,,,,,,2024-03-11,1,,,,,リベルテ,0
352,2700150124377,新規,0,2024-03-11,2024-03-11,ＤＥ－ＣＩＸ　ＡＳＩＡ　Ｐｔｅ．Ｌｔｄ．,,外国会社等,東京都,品川区,西五反田５丁目２４－１５,,13,109,1410031,シンガポール共和国、１０アンソンロード＃３５－１１、インターナショナルプラザ,,,,,,2024-03-11,1,,,,,デイーイーシーアイエクスアジアリミテツド,0
353,2700150124385,新規,0,2024-03-11,2024-03-11,ＣｈａｎｇｚｈｏｕｌｕｏｔｅｌｉｊｉａｄｉａｎｚｉｓｈａｎｇｗｕＬｔｄ,,外国会社等,,,,,,,,ｗｕｊｉｎ　ｄｉｓｔ．ｌｕ　Ｊｉｎ　ｃｈｅｎｇ　７　ｚｈｕａｎｇ　ｊｉａ　ｄａｎ　ｙｕａｎ　２９０４,,,,,,2024-03-11,1,,,,,チャンジョウルオターリージャーディエンズーシャンウーヨウシエンゴンスー,0
365,3010401180874,新規,0,2024-03-11,2024-03-11,日本ＣＧＬ商事株式会社,,株式会社,東京都,港区,新橋４丁目２１番３号新橋東急ビル２Ｆ,,13,103,1050004,,,,,,,2024-03-11,1,,,,,ニホンシージーエルショウジ,0
368,3010601064761,新規,0,2024-03-11,2024-03-11,株式会社Ｐｏｎｇｇｉ,,株式会社,東京都,江東区,大島３丁目１４－１２,,13,108,1360072,,,,,,,2024-03-11,1,,,,,ポンギ,0
369,3010601064794,新規,0,2024-03-11,2024-03-11,株式会社ＥＬ,,株式会社,東京都,江東区,扇橋１丁目２１番５号メイツ住吉１２２７,,13,108,1350011,,,,,,,2024-03-11,1,,,,,イーエル,0
371,3010603010697,新規,0,2024-03-11,2024-03-11,イールドギャップ合同会社,,合同会社,東京都,墨田区,千歳３丁目９番９－８０３号,,13,107,1300025,,,,,,,2024-03-11,1,,,,,イールドギャップ,0
376,3010903008870,新規,0,2024-03-11,2024-03-11,ライブハック合同会社,,合同会社,東京都,世田谷区,池尻３丁目２８番３号ラビュール三宿５０３,,13,112,1540001,,,,,,,2024-03-11,1,,,,,ライブハック,0
383,3011001160424,新規,0,2024-03-11,2024-03-11,株式会社Ｐａｎｏｒｙ,,株式会社,東京都,渋谷区,円山町５－５Ｎａｖｉ渋谷Ｖ３階,,13,113,1500044,,,,,,,2024-03-11,1,,,,,パノリー,0
384,3011001160432,新規,0,2024-03-11,2024-03-11,株式会社ＲＯＦ,,株式会社,東京都,渋谷区,恵比寿西２丁目４番８号ウィンド恵比寿ビル８Ｆ,,13,113,1500021,,,,,,,2024-03-11,1,,,,,ロフ,0
385,3011001160449,新規,0,2024-03-11,2024-03-11,ＮＯＢＵＫＯ　ＪＡＰＡＮ株式会社,,株式会社,東京都,渋谷区,富ヶ谷１丁目１４－１４スタンフォードアネックスビル３階,,13,113,1510063,,,,,,,2024-03-11,1,,,,,ノブコジャパン,0
386,3011003018620,新規,0,2024-03-11,2024-03-11,合同会社ｗｉｓ,,合同会社,東京都,渋谷区,道玄坂１丁目１０番８号渋谷道玄坂東急ビル２Ｆ－Ｃ,,13,113,1500043,,,,,,,2024-03-11,1,,,,,ウィズ,0
387,3011005010402,新規,0,2024-03-11,2024-03-11,いちじく社会保険労務士法人,,その他の設立登記法人,東京都,渋谷区,神宮前６丁目２９番４号原宿Ｋｏｍｉｙａビル６階,,13,113,1500001,,,,,,,2024-03-11,1,,,,,イチジク,0
388,3011101106459,新規,0,2024-03-11,2024-03-11,アプロスソリューションズ株式会社,,株式会社,東京都,新宿区,西新宿３丁目３番１３号西新宿水間ビル２Ｆ,,13,104,1600023,,,,,,,2024-03-11,1,,,,,アプロスソリューションズ,0
389,3011101106467,新規,0,2024-03-11,2024-03-11,Ｄ‐Ｃｏｎｎｅｃｔデジタルパートナーズ株式会社,,株式会社,東京都,新宿区,西新宿３丁目３番１３号西新宿水間ビル６階,,13,104,1600023,,,,,,,2024-03-11,1,,,,,ディーコネクトデジタルパートナーズ,0
391,3011103014180,新規,0,2024-03-11,2024-03-11,三浦産業医事務所合同会社,,合同会社,東京都,新宿区,西新宿３丁目３番１３号西新宿水間ビル２Ｆ,,13,104,1600023,,,,,,,2024-03-11,1,,,,,ミウラサンギョウイジムショ,0
393,3011301029476,新規,0,2024-03-11,2024-03-11,株式会社ポジ,,株式会社,東京都,杉並区,天沼１丁目１８番１３号,,13,115,1670032,,,,,,,2024-03-11,1,,,,,ポジ,0
394,3011305002966,新規,0,2024-03-11,2024-03-11,医療法人社団翼優会,,その他の設立登記法人,東京都,杉並区,方南２丁目２８番３号,,13,115,1680062,,,,,,,2024-03-11,1,,,,,ヨクユウカイ,0
398,3011701027105,新規,0,2024-03-11,2024-03-11,株式会社中塚電機,,株式会社,東京都,江戸川区,新堀１丁目２１番１６－４０３号,,13,123,1320001,,,,,,,2024-03-11,1,,,,,ナカツカデンキ,0
406,3012405004951,新規,0,2024-03-11,2024-03-11,一般社団法人山の音楽舎,,その他の設立登記法人,東京都,稲城市,矢野口３７５０番１９号アートフル矢野口駅前ビル地下１階,,13,225,2060812,,,,,,,2024-03-11,1,,,,,ヤマノオンガクシャ,0
407,3012701018127,新規,0,2024-03-11,2024-03-11,ビスリンク株式会社,,株式会社,東京都,小平市,小川東町１丁目３４番１４号,,13,211,1870031,,,,,,,2024-03-11,1,,,,,ビスリンク,0
408,3012705002390,新規,0,2024-03-11,2024-03-11,医療法人社団啓虹会,,その他の設立登記法人,東京都,西東京市,西原町４丁目２番８号３階,,13,229,1880004,,,,,,,2024-03-11,1,,,,,ケイコウカイ,0
412,3013301052185,新規,0,2024-03-11,2024-03-11,株式会社Ａ　ＬＡＢＯ,,株式会社,東京都,豊島区,池袋２丁目５０－８－４０１,,13,116,1710014,,,,,,,2024-03-11,1,,,,,エーラボ,0
418,3020003025709,新規,0,2024-03-11,2024-03-11,合同会社ＤＡＹ　ＯＮＥ,,合同会社,神奈川県,横浜市神奈川区,金港町５－１４クアドリフォリオ８階,,14,102,2210056,,,,,,,2024-03-11,1,,,,,デイワン,0
421,3021001081677,新規,0,2024-03-11,2024-03-11,Ｂｕｄｄｈａ　Ｓｔｕｄｉｏ株式会社,,株式会社,神奈川県,藤沢市,辻堂元町５丁目１３番２７号ＣＲＥＡ２０１,,14,205,2510043,,,,,,,2024-03-11,1,,,,,ブッダスタジオ,0
428,3030001159169,新規,0,2024-03-11,2024-03-11,株式会社ｏｂｂｌｉｇａｔｏ,,株式会社,埼玉県,さいたま市大宮区,桜木町４丁目１２３番３号,,11,103,3300854,,,,,,,2024-03-11,1,,,,,オブリガート,0
435,3040001132587,新規,0,2024-03-11,2024-03-11,株式会社ＯｎｅＬｅａｆ　Ｔｒａｎｓｐｏｒｔ,,株式会社,千葉県,いすみ市,若山１７３８番地,,12,238,2980001,,,,,,,2024-03-11,1,,,,,ワンリーフトランスポート,0
440,3060001036902,新規,0,2024-03-11,2024-03-11,株式会社ウェイマーク,,株式会社,栃木県,宇都宮市,池上町４番２号アソルティ宇都宮７階,,09,201,3200801,,,,,,,2024-03-11,1,,,,,ウェイマーク,0
441,3070001041463,新規,0,2024-03-11,2024-03-11,株式会社ハンプティーダンプティー,,株式会社,群馬県,前橋市,青柳町１９８番地,,10,201,3710056,,,,,,,2024-03-11,1,,,,,ハンプティーダンプティー,0
449,3090003002511,新規,0,2024-03-11,2024-03-11,合同会社共栄造園土木,,合同会社,山梨県,山梨市,下石森１１５番地,,19,205,4050015,,,,,,,2024-03-11,1,,,,,キョウエイゾウエンドボク,0
474,3130003009345,新規,0,2024-03-11,2024-03-11,ブルーオレンジ合同会社,,合同会社,京都府,京都市東山区,今熊野南谷町１６－６,,26,105,6050979,,,,,,,2024-03-11,1,,,,,ブルーオレンジ,0
489,3150001027124,新規,0,2024-03-11,2024-03-11,株式会社Ｂｅｓｔ．Ｌａｂ．,,株式会社,奈良県,天理市,西長柄町１６番地,,29,204,6320063,,,,,,,2024-03-11,1,,,,,ベストラボ,0
493,3180001160475,新規,0,2024-03-11,2024-03-11,株式会社Ａｌｏｈａ,,株式会社,愛知県,名古屋市中村区,名駅５丁目１６番１７号花車ビル南館５１１号,,23,105,4500002,,,,,,,2024-03-11,1,,,,,アロハ,0
498,3180003026468,新規,0,2024-03-11,2024-03-11,合同会社ＧＧ　ＢＥＡＵＴＹ,,合同会社,愛知県,名古屋市港区,泰明町３丁目１番地の６,,23,111,4550069,,,,,,,2024-03-11,1,,,,,ジージービューティー,0
516,3290001104966,新規,0,2024-03-11,2024-03-11,株式会社浦電設,,株式会社,福岡県,糸島市,波多江駅南１丁目１６番１０－６０８号,,40,230,8191108,,,,,,,2024-03-11,1,,,,,ウラデンセツ,0
517,3290001105007,新規,0,2024-03-11,2024-03-11,株式会社アノニマス,,株式会社,福岡県,福岡市博多区,築港本町３番８－５１０号,,40,132,8120021,,,,,,,2024-03-11,1,,,,,アノニマス,0
532,3330003010258,新規,0,2024-03-11,2024-03-11,合同会社ハッピー,,合同会社,熊本県,熊本市西区,花園５丁目４－１１,,43,103,8600072,,,,,,,2024-03-11,1,,,,,ハッピー,0
535,3360003013778,新規,0,2024-03-11,2024-03-11,合同会社美らヤギ,,合同会社,沖縄県,那覇市,久茂地２丁目１４番２２号,,47,201,9000015,,,,,,,2024-03-11,1,,,,,チュラヤギ,0
543,3430001091249,新規,0,2024-03-11,2024-03-11,石山通りの株式会社,,株式会社,北海道,札幌市中央区,南十条西１０丁目１番２０号,,01,101,0640810,,,,,,,2024-03-11,1,,,,,イシヤマドオリノ,0
544,3430005014908,新規,0,2024-03-11,2024-03-11,司法書士法人小樽とみおか事務所,,その他の設立登記法人,北海道,小樽市,富岡１丁目５番２０号,,01,203,0470033,,,,,,,2024-03-11,1,,,,,オタルトミオカジムショ,0
548,3470003002596,新規,0,2024-03-11,2024-03-11,合同会社ＭＴＡＬ,,合同会社,香川県,高松市,高松町１６７８番地１１,,37,201,7610104,,,,,,,2024-03-11,1,,,,,マタル,0
556,3700150124376,新規,0,2024-03-11,2024-03-11,ＡＲＯＭＡＦＯＲＩＡ　ＰＴＥ．ＬＴＤ．,,外国会社等,福岡県,福岡市中央区,大名１丁目２番１１号プロテクトＩＩＩビル３階,00134015,40,133,8100041,シンガポール共和国ダブリンロード２６,,,,,,2024-03-11,1,,,,,アロマフオリア,0
557,3700150124384,新規,0,2024-03-11,2024-03-11,Ｚｈｅｊｉａｎｇ　ＩＮＳＩ　Ｉｍｐｏｒｔ　ａｎｄ　Ｅｘｐｏｒｔ　Ｃｏ．Ｌｔｄ．,,外国会社等,,,,,,,,Ｒｏｏｍ　１２２，Ｂｕｉｌｄｉｎｇ　４，Ｎｏ．８　Ｘｉｎｇｙｅ　Ａｖｅｎｕｅ，Ｎｉｎｇｂｏ　Ｆｒｅｅ　Ｔｒａｄｅ　Ｚｏｎｅ，Ｚｈｅｊｉａｎｇ　Ｐｒｏｖｉｎｃｅ,,,,,,2024-03-11,1,,,,,ジョージャンインスージンチェーコウヨウシエンゴンスー,0
570,4010001242801,新規,0,2024-03-11,2024-03-11,株式会社ｉｎｎｏｖａ,,株式会社,東京都,中央区,日本橋浜町３丁目３５－６,,13,102,1030007,,,,,,,2024-03-11,1,,,,,イノーバ,0
571,4010001242883,新規,0,2024-03-11,2024-03-11,ＭＥＮＴＡＧＲＡＰＨ株式会社,,株式会社,東京都,中央区,八重洲１丁目８番１７号,,13,102,1030028,,,,,,,2024-03-11,1,,,,,メンタグラフ,0
572,4010003043165,新規,0,2024-03-11,2024-03-11,合同会社インフォリンク,,合同会社,東京都,千代田区,外神田５丁目１－１０千住ビル１Ｆ,,13,101,1010021,,,,,,,2024-03-11,1,,,,,インフォリンク,0
573,4010003043173,新規,0,2024-03-11,2024-03-11,合同会社ｏｄｏｌｉｂａ,,合同会社,東京都,中央区,日本橋室町１丁目１１番１２号,,13,102,1030022,,,,,,,2024-03-11,1,,,,,オドリバ,0
578,4010401180964,新規,0,2024-03-11,2024-03-11,株式会社くすのき,,株式会社,東京都,港区,赤坂２丁目１８番４ビヴァーチェ赤坂３０３,,13,103,1070052,,,,,,,2024-03-11,1,,,,,クスノキ,0
581,4010501051891,新規,0,2024-03-11,2024-03-11,株式会社福興ホールディングスジャパン,,株式会社,東京都,台東区,上野３丁目２番２号ＡＩＯＳ秋葉原４０３号室,,13,106,1100005,,,,,,,2024-03-11,1,,,,,フクコウホールディングスジャパン,0
583,4010601064760,新規,0,2024-03-11,2024-03-11,株式会社ＮＴＴデータ・コーテック,,株式会社,東京都,江東区,豊洲３丁目３番９号,,13,108,1350061,,,,,,,2024-03-11,1,,,,,エヌティティデータコーテック,0
599,4010903008853,新規,0,2024-03-11,2024-03-11,合同会社ｆｕｏｃｕｓ．,,合同会社,東京都,世田谷区,代田３丁目４７－１０羽根木フラッツ１０２,,13,112,1550033,,,,,,,2024-03-11,1,,,,,フォーカス,0
613,4011101106499,新規,0,2024-03-11,2024-03-11,株式会社レアリゼ,,株式会社,東京都,新宿区,西新宿３丁目３番１３号西新宿水間ビル６階,,13,104,1600023,,,,,,,2024-03-11,1,,,,,レアリゼ,0
619,4011301029483,新規,0,2024-03-11,2024-03-11,株式会社東昇,,株式会社,東京都,杉並区,高円寺南２丁目３７番１４－６０１号,,13,115,1660003,,,,,,,2024-03-11,1,,,,,トウショウ,0
620,4011303005078,新規,0,2024-03-11,2024-03-11,合同会社ＬＥＡＦ,,合同会社,東京都,杉並区,成田東４丁目２８番５号,,13,115,1660015,,,,,,,2024-03-11,1,,,,,リーフ,0
621,4011305002965,新規,0,2024-03-11,2024-03-11,医療法人社団ふじたか会,,その他の設立登記法人,東京都,杉並区,上荻１丁目５番１号荻窪ステーションサイドビル２階,,13,115,1670043,,,,,,,2024-03-11,1,,,,,フジタカカイ,0
624,4011503005984,新規,0,2024-03-11,2024-03-11,合同会社ユイビ書房,,合同会社,東京都,北区,赤羽３丁目３番３－３１２号ドミール赤羽,,13,117,1150045,,,,,,,2024-03-11,1,,,,,ユイビショボウ,0
630,4012401041618,新規,0,2024-03-11,2024-03-11,株式会社ＣＲＥＯ,,株式会社,東京都,小金井市,梶野町４丁目２－２０,,13,210,1840002,,,,,,,2024-03-11,1,,,,,クレオ,0
634,4020001012971,新規,0,2024-03-11,2024-03-11,三光商事株式会社,,株式会社,神奈川県,横浜市南区,永田北２丁目１０番３号,,14,105,2320071,,,,,,,2024-03-11,1,,,,,サンコウショウジ,0
648,4020003025708,新規,0,2024-03-11,2024-03-11,ルモンヴェルテュ合同会社,,合同会社,神奈川県,横浜市金沢区,西柴２丁目２８番１５号,,14,108,2360017,,,,,,,2024-03-11,1,,,,,ルモンヴェルテュ,0
649,4020005016300,新規,0,2024-03-11,2024-03-11,一般社団法人ＯＮＥ　ＦＯＲＴＹ,,その他の設立登記法人,神奈川県,川崎市幸区,古市場１丁目６１番地３４,,14,132,2120052,,,,,,,2024-03-11,1,,,,,ワンフォーティ,0
654,4021001081676,新規,0,2024-03-11,2024-03-11,ｆ‐ｃｕｂｅ株式会社,,株式会社,神奈川県,横須賀市,鴨居２丁目２８番地９号,,14,201,2390813,,,,,,,2024-03-11,1,,,,,エフキューブ,0
660,4030001158995,新規,0,2024-03-11,2024-03-11,株式会社ヤシバ自工,,株式会社,埼玉県,八潮市,大字大曽根３８１番地,,11,234,3400834,,,,,,,2024-03-11,1,,,,,ヤシバジコウ,0
668,4040001132586,新規,0,2024-03-11,2024-03-11,株式会社櫻井興業,,株式会社,千葉県,成田市,名古屋１１７４番地７５,,12,211,2890116,,,,,,,2024-03-11,1,,,,,サクライコウギョウ,0
670,4040005022313,新規,0,2024-03-11,2024-03-11,特定非営利活動法人オリーブの葉っぱ,,その他の設立登記法人,千葉県,市川市,市川１丁目９番１１号サン市川ハイツ４０４,,12,203,2720034,,,,,,,2024-03-11,1,,,,,オリーブノハッパ,0
672,4050005013393,新規,0,2024-03-11,2024-03-11,一般社団法人観喜の郷,,その他の設立登記法人,茨城県,桜川市,真壁町下谷貝４６５番地,,08,231,3004426,,,,,,,2024-03-11,1,,,,,ヨロコビノサト,0
682,4100005013140,新規,0,2024-03-11,2024-03-11,医療法人久堅会,,その他の設立登記法人,長野県,安曇野市,豊科５４６２番地４,,20,220,3998205,,,,,,,2024-03-11,1,,,,,ヒサカタカイ,0
689,4120001263010,新規,0,2024-03-11,2024-03-11,株式会社ＤＫ　Ｉｎｔｅｒｎａｔｉｏｎａｌ,,株式会社,大阪府,大阪市浪速区,日本橋５丁目１２番８号２Ｆ,,27,111,5560005,,,,,,,2024-03-11,1,,,,,ディーケーインターナショナル,0
691,4120901048865,新規,0,2024-03-11,2024-03-11,株式会社リアン,,株式会社,大阪府,吹田市,山田東１丁目１９番２７号,,27,205,5650821,,,,,,,2024-03-11,1,,,,,リアン,0
692,4120901048873,新規,0,2024-03-11,2024-03-11,株式会社ＡＲＫ,,株式会社,大阪府,茨木市,大字泉原８９８番,,27,211,5680097,,,,,,,2024-03-11,1,,,,,アーク,0
697,4122003002825,新規,0,2024-03-11,2024-03-11,Ｐｅａｃｅｆｕｌ　Ｌｉｆｅ合同会社,,合同会社,大阪府,八尾市,八尾木５丁目１９５番地の１,,27,212,5810027,,,,,,,2024-03-11,1,,,,,ピースフルライフ,0
698,4130003009360,新規,0,2024-03-11,2024-03-11,合同会社ライズ,,合同会社,京都府,京都市左京区,岩倉幡枝町２５０５番地,,26,103,6060015,,,,,,,2024-03-11,1,,,,,ライズ,0
701,4140001133582,新規,0,2024-03-11,2024-03-11,株式会社システム７８,,株式会社,兵庫県,姫路市,名古山町３番４８号,,28,201,6700051,,,,,,,2024-03-11,1,,,,,システムナバ,0
702,4140001133616,新規,0,2024-03-11,2024-03-11,株式会社村田工務店,,株式会社,兵庫県,三田市,南が丘１丁目１番７号,,28,219,6691535,,,,,,,2024-03-11,1,,,,,ムラタコウムテン,0
703,4140003020218,新規,0,2024-03-11,2024-03-11,合同会社ＪＭ,,合同会社,兵庫県,尼崎市,尾浜町３丁目２０－１２,,28,202,6610022,,,,,,,2024-03-11,1,,,,,ジェイエム,0
710,4180001160441,新規,0,2024-03-11,2024-03-11,株式会社ウェビークルー,,株式会社,愛知県,稲沢市,駅前４丁目７番１５号,,23,220,4928143,,,,,,,2024-03-11,1,,,,,ウェビークルー,0
711,4180001160466,新規,0,2024-03-11,2024-03-11,株式会社いろろ,,株式会社,愛知県,名古屋市瑞穂区,春山町６番地９,,23,108,4670024,,,,,,,2024-03-11,1,,,,,イロロ,0
714,4180301038404,新規,0,2024-03-11,2024-03-11,株式会社ソリューション,,株式会社,愛知県,豊橋市,前田中町１０番地１２,,23,201,4400872,,,,,,,2024-03-11,1,,,,,ソリューション,0
716,4210001019667,新規,0,2024-03-11,2024-03-11,株式会社よつば音楽企画,,株式会社,福井県,三方上中郡若狭町,海山第６９号４番地,,18,501,9191461,,,,,,,2024-03-11,1,,,,,ヨツバオンガクキカク,0
725,4290001104924,新規,0,2024-03-11,2024-03-11,Ｈａｎｇｅｒ７４株式会社,,株式会社,福岡県,福岡市東区,舞松原２丁目１０番７号,,40,131,8130042,,,,,,,2024-03-11,1,,,,,ハンガーセブンティフォー,0
726,4290001105006,新規,0,2024-03-11,2024-03-11,嘉豊プラスチック工業株式会社,,株式会社,福岡県,飯塚市,菰田東１丁目４番３５号シャトレ和３０１号,,40,205,8200016,,,,,,,2024-03-11,1,,,,,カホウプラスチックコウギョウ,0
728,4290003015038,新規,0,2024-03-11,2024-03-11,ルーツ合同会社,,合同会社,福岡県,飯塚市,吉原町６－１６－９０３,,40,205,8200040,,,,,,,2024-03-11,1,,,,,ルーツ,0
731,4290801030386,新規,0,2024-03-11,2024-03-11,ＹＬグローバル株式会社,,株式会社,福岡県,北九州市八幡東区,荒手２丁目１番２９号,,40,108,8050001,,,,,,,2024-03-11,1,,,,,ワイエルグローバル,0
735,4330001031833,新規,0,2024-03-11,2024-03-11,スマイルカーズ株式会社,,株式会社,熊本県,荒尾市,万田６１６番地,,43,204,8640002,,,,,,,2024-03-11,1,,,,,スマイルカーズ,0
737,4330003010257,新規,0,2024-03-11,2024-03-11,合同会社エスアイホールディングス,,合同会社,熊本県,熊本市西区,小島９丁目１番２１号,,43,103,8615287,,,,,,,2024-03-11,1,,,,,エスアイホールディングス,0
741,4360001033307,新規,0,2024-03-11,2024-03-11,株式会社島田農園,,株式会社,沖縄県,石垣市,字登野城２３８９番地,,47,207,9070004,,,,,,,2024-03-11,1,,,,,シマダノウエン,0
742,4360003013777,新規,0,2024-03-11,2024-03-11,合同会社あさひ保険センター,,合同会社,沖縄県,宜野湾市,大山２丁目３１番２９号三商ビル３Ｆ,,47,205,9012223,,,,,,,2024-03-11,1,,,,,アサヒホケンセンター,0
750,4420001018623,新規,0,2024-03-11,2024-03-11,Ｍａｒｇｉｎａｌ株式会社,,株式会社,青森県,東津軽郡今別町,大字今別字今別３３阿部アパート２階,,02,303,0301502,,,,,,,2024-03-11,1,,,,,マージナル,0
751,4430001091256,新規,0,2024-03-11,2024-03-11,株式会社リーメイズ,,株式会社,北海道,札幌市北区,北二十三条西９丁目１番５号,,01,102,0010023,,,,,,,2024-03-11,1,,,,,リーメイズ,0
767,4700150124383,新規,0,2024-03-11,2024-03-11,ＭｅｉＳｈａｎｇＧｕｏＪｉＭａｏＹｉ（ＳｈｅｎＺｈｅｎ）ＹｏｕＸｉａｎＧｏｎｇＳｉ,,外国会社等,,,,,,,,Ｒｏｎｇｃｈａｏｊｉｎｇｍａｏｚｈｏｎｇｘｉｎ５１５－５２Ｌｉａｎｈｕａｊｉｅｄａｏｆｕｚｈｏｎｇｓｈｅｑｕｊｉｎｔｉａｎｌｕ４０２８ｈａｏＦｕｔｉａｎｑｕＳｈｅｎｚｈｅｎ,,,,,,2024-03-11,1,,,,,メイシャングオジーマオイーシェンジェンヨウシエンゴンスー,0
773,5010001242908,新規,0,2024-03-11,2024-03-11,株式会社ウェルカルチャー,,株式会社,東京都,中央区,日本橋室町１丁目１１番１２号日本橋水野ビル７階,,13,102,1030022,,,,,,,2024-03-11,1,,,,,ウェルカルチャー,0
774,5010001242932,新規,0,2024-03-11,2024-03-11,株式会社ｅｔｃ,,株式会社,東京都,新島村,字下川原３４６番地３,,13,363,1000400,,,,,,,2024-03-11,1,,,,,イーティーシー,0
775,5010001242940,新規,0,2024-03-11,2024-03-11,株式会社天池商会,,株式会社,東京都,千代田区,神田和泉町１番地６－１６ヤマトビル４０５,,13,101,1010024,,,,,,,2024-03-11,1,,,,,アマイケショウカイ,0
776,5010001242965,新規,0,2024-03-11,2024-03-11,Ｂｅａｍ株式会社,,株式会社,東京都,中央区,銀座１丁目１２番４号Ｎ＆ＥＢＬＤ．６Ｆ,,13,102,1040061,,,,,,,2024-03-11,1,,,,,ビーム,0
779,5010401180914,新規,0,2024-03-11,2024-03-11,株式会社ＬｕｕＱｓ,,株式会社,東京都,港区,南青山２丁目２番１５号,,13,103,1070062,,,,,,,2024-03-11,1,,,,,ルークス,0
780,5010401180939,新規,0,2024-03-11,2024-03-11,高盈テクノロジー株式会社,,株式会社,東京都,港区,新橋６丁目８番１号信永中和ビル２０３,,13,103,1050004,,,,,,,2024-03-11,1,,,,,ゴーイングテクノロジー,0
781,5010401180963,新規,0,2024-03-11,2024-03-11,株式会社ももカン・ファクトリー,,株式会社,東京都,港区,南青山５丁目１１番地２３－２０２,,13,103,1070062,,,,,,,2024-03-11,1,,,,,モモカンファクトリー,0
782,5010403032122,新規,0,2024-03-11,2024-03-11,Ｂｒｉｌｌｉａｎｔ　Ｅｌｉｔｅ　Ｄｅｖｅｌｏｐｍｅｎｔ合同会社,,合同会社,東京都,港区,六本木１丁目９番１０号アークヒルズ仙石山森タワー２８Ｆ,,13,103,1060032,,,,,,,2024-03-11,1,,,,,ブリリアントエリートデベロップメント,0
785,5010601064784,新規,0,2024-03-11,2024-03-11,株式会社資橋,,株式会社,東京都,江東区,北砂２丁目１８－２－１３３１,,13,108,1360073,,,,,,,2024-03-11,1,,,,,アセットブリッジ,0
792,5010701045676,新規,0,2024-03-11,2024-03-11,株式会社ＪＯＢＡ　ＮＥＴＷＯＲＫ,,株式会社,東京都,品川区,東品川２丁目２－２５,,13,109,1400002,,,,,,,2024-03-11,1,,,,,ジョバネットワーク,0
794,5010705003606,新規,0,2024-03-11,2024-03-11,ＭｏｍｅｎｔｕｍＹｏｕｔｈ社会保険労務士法人,,その他の設立登記法人,東京都,品川区,南大井６丁目１６番２０号品川水神ビル６Ｆ,,13,109,1400013,,,,,,,2024-03-11,1,,,,,モメンタムユース,0
796,5010903008877,新規,0,2024-03-11,2024-03-11,ＭＦＡＭ合同会社,,合同会社,東京都,世田谷区,等々力８丁目２２番８－１０２号,,13,112,1580082,,,,,,,2024-03-11,1,,,,,エムエフエーエム,0
800,5011001160562,新規,0,2024-03-11,2024-03-11,ｆａｓｔｍｅｄｉａ株式会社,,株式会社,東京都,渋谷区,道玄坂１丁目１０番８号渋谷道玄坂東急ビル２Ｆ－Ｃ,,13,113,1500043,,,,,,,2024-03-11,1,,,,,ファストメディア,0
801,5011003018643,新規,0,2024-03-11,2024-03-11,合同会社ＭＩＹＡ,,合同会社,東京都,渋谷区,西原２丁目１５番１５号ビラージュ代々木上原１０１,,13,113,1510066,,,,,,,2024-03-11,1,,,,,ミヤ,0
804,5011103014187,新規,0,2024-03-11,2024-03-11,合同会社ツルウチ商店,,合同会社,東京都,新宿区,市谷薬王寺町１１－５－５０２,,13,104,1620063,,,,,,,2024-03-11,1,,,,,ツルウチショウテン,0
808,5011703003770,新規,0,2024-03-11,2024-03-11,ＳＰＡＲＫ合同会社,,合同会社,東京都,江戸川区,中葛西７丁目１４番１２号,,13,123,1340083,,,,,,,2024-03-11,1,,,,,スパーク,0
816,5013301052175,新規,0,2024-03-11,2024-03-11,Ｋｅｎｎｙ．Ｒ．Ｋ．Ａｒｔｓ　ａｎｄ　Ｍａｎａｇｅｍｅｎｔ株式会社,,株式会社,東京都,豊島区,東池袋５丁目３２番６－１１０２号,,13,116,1700013,,,,,,,2024-03-11,1,,,,,ケニーアールケイアーツアンドマネジメント,0
817,5013301052183,新規,0,2024-03-11,2024-03-11,株式会社ＧＣＣ,,株式会社,東京都,豊島区,北大塚２丁目７－１行雲ビル６階,,13,116,1700004,,,,,,,2024-03-11,1,,,,,ジーシーシー,0
820,5020001156173,新規,0,2024-03-11,2024-03-11,株式会社Ｌｉｅｎ,,株式会社,神奈川県,横浜市神奈川区,三ツ沢東町２－４６,,14,102,2210853,,,,,,,2024-03-11,1,,,,,リアン,0
822,5020005016299,新規,0,2024-03-11,2024-03-11,慶念寺,,その他の設立登記法人,神奈川県,川崎市多摩区,中野島４丁目２４番２－５号,,14,135,2140012,,,,,,,2024-03-11,1,,,,,キョウネンジ,0
827,5021001081650,新規,0,2024-03-11,2024-03-11,株式会社ｌｕｎａ　ｃｅａｎｏ,,株式会社,神奈川県,鎌倉市,大船３丁目１番２４号,,14,204,2470056,,,,,,,2024-03-11,1,,,,,ルナセアーノ,0
828,5021001081659,新規,0,2024-03-11,2024-03-11,ＲＯＭＡＮ株式会社,,株式会社,神奈川県,鎌倉市,小町１丁目９－３島森ビル地下１階,,14,204,2480006,,,,,,,2024-03-11,1,,,,,ローマン,0
836,5030001159167,新規,0,2024-03-11,2024-03-11,ＮＥＲＡ株式会社,,株式会社,埼玉県,川口市,戸塚東１丁目２２番１０号,,11,203,3330802,,,,,,,2024-03-11,1,,,,,ネラ,0
839,5030003023800,新規,0,2024-03-11,2024-03-11,ＷＣＯＤ合同会社,,合同会社,埼玉県,吉川市,栄町８３１番地４,,11,243,3420050,,,,,,,2024-03-11,1,,,,,ダブリューシーオーディー,0
841,5040001132560,新規,0,2024-03-11,2024-03-11,ＳＰ　Ｕｎｉｔｅｄ　Ｊａｐａｎ株式会社,,株式会社,千葉県,千葉市中央区,栄町３５番１４号,,12,101,2600016,,,,,,,2024-03-11,1,,,,,エスピーユナイテッドジャパン,0
862,5100003007416,新規,0,2024-03-11,2024-03-11,合同会社スマイルスタジオ,,合同会社,長野県,長野市,中御所４丁目１２番１２号ガーデンハウス九反１０１号,,20,201,3800935,,,,,,,2024-03-11,1,,,,,スマイルスタジオ,0
863,5100003007440,新規,0,2024-03-11,2024-03-11,デミ．オーク合同会社,,合同会社,長野県,小諸市,大字柏木１４０９番地１２,,20,208,3840055,,,,,,,2024-03-11,1,,,,,デミオーク,0
869,5120001263067,新規,0,2024-03-11,2024-03-11,株式会社ＬＯＰ,,株式会社,大阪府,大阪市中央区,淡路町３丁目５－１３創建御堂筋ビル２階,,27,128,5410047,,,,,,,2024-03-11,1,,,,,エルオーピー,0
882,5140003020258,新規,0,2024-03-11,2024-03-11,合同会社岸本吉生Ｏｆｆｉｃｅ,,合同会社,兵庫県,芦屋市,楠町７番５号,,28,206,6590015,,,,,,,2024-03-11,1,,,,,キシモトヨシオオフィス,0
883,5160005011286,新規,0,2024-03-11,2024-03-11,特定非営利活動法人葛川共創ネットワーク,,その他の設立登記法人,滋賀県,大津市,葛川木戸口町２９２番地の４,,25,201,5200477,,,,,,,2024-03-11,1,,,,,カツラガワキョウソウネットワーク,0
884,5180001160424,新規,0,2024-03-11,2024-03-11,株式会社レリーフ,,株式会社,愛知県,名古屋市中区,丸の内３丁目２０番９号三晃社ビル３階,,23,106,4600002,,,,,,,2024-03-11,1,,,,,レリーフ,0
885,5180001160498,新規,0,2024-03-11,2024-03-11,株式会社丸一,,株式会社,愛知県,名古屋市守山区,金屋２丁目２８６番地,,23,113,4630072,,,,,,,2024-03-11,1,,,,,マルイチ,0
890,5180003026441,新規,0,2024-03-11,2024-03-11,ＩＮＲ合同会社,,合同会社,愛知県,名古屋市東区,白壁４丁目７１番地,,23,102,4610011,,,,,,,2024-03-11,1,,,,,アイエヌアール,0
891,5180003026458,新規,0,2024-03-11,2024-03-11,合同会社Ｓｉｎｇ,,合同会社,愛知県,春日井市,藤山台２丁目２－３２０８－４０４,,23,206,4870035,,,,,,,2024-03-11,1,,,,,シング,0
905,5290003015045,新規,0,2024-03-11,2024-03-11,合同会社アクチニウム,,合同会社,福岡県,福岡市博多区,冷泉町２－９クレアランドマーク３０５,,40,132,8120039,,,,,,,2024-03-11,1,,,,,アクチニウム,0
909,5350001018828,新規,0,2024-03-11,2024-03-11,株式会社セイルージュ産業,,株式会社,宮崎県,宮崎市,橘通東４丁目１番４号河北ビル２０８,,45,201,8800805,,,,,,,2024-03-11,1,,,,,セイルージュサンギョウ,0
915,5380003005706,新規,0,2024-03-11,2024-03-11,合同会社鐡食品,,合同会社,福島県,郡山市,熱海町石筵字瀬上２２０番地,,07,203,9631301,,,,,,,2024-03-11,1,,,,,クロガネショクヒン,0
918,5400005008398,新規,0,2024-03-11,2024-03-11,一般社団法人ＩＣＢＵ,,その他の設立登記法人,岩手県,盛岡市,永井２４地割４６番地１,,03,201,0200834,,,,,,,2024-03-11,1,,,,,アイシービーユー,0
922,5430003016029,新規,0,2024-03-11,2024-03-11,合同会社スマイルプランニング,,合同会社,北海道,札幌市清田区,里塚三条３丁目１３番１号,,01,110,0040803,,,,,,,2024-03-11,1,,,,,スマイルプランニング,0
923,5440001009396,新規,0,2024-03-11,2024-03-11,株式会社エヌエスクラフト,,株式会社,北海道,北斗市,七重浜１丁目２番２号,,01,236,0490111,,,,,,,2024-03-11,1,,,,,エヌエスクラフト,0
939,6010001242790,新規,0,2024-03-11,2024-03-11,株式会社ＧＸコンシェルジュ,,株式会社,東京都,千代田区,神田美土代町１番地ＷＯＲＫＶＩＬＬＡＭＩＴＯＳＨＩＲＯ,,13,101,1010053,,,,,,,2024-03-11,1,,,,,ジーエックスコンシェルジュ,0
940,6010001242931,新規,0,2024-03-11,2024-03-11,株式会社Ｈ　Ｓｑｕａｒｅｄ,,株式会社,東京都,中央区,湊２丁目１５番１４－１８０４号,,13,102,1040043,,,,,,,2024-03-11,1,,,,,エイチスクエアード,0
941,6010001242964,新規,0,2024-03-11,2024-03-11,株式会社フガク,,株式会社,東京都,千代田区,紀尾井町４番１号ニューオータニガーデンコート１９階,,13,101,1020094,,,,,,,2024-03-11,1,,,,,フガク,0
942,6010003043163,新規,0,2024-03-11,2024-03-11,ＥＮＥＸＩＡ合同会社,,合同会社,東京都,千代田区,大手町２丁目３番２号,,13,101,1000004,,,,,,,2024-03-11,1,,,,,エネクシア,0
954,6010401180962,新規,0,2024-03-11,2024-03-11,Ｅｌｅｖｉｓｓ株式会社,,株式会社,東京都,港区,南青山２丁目２番１５号,,13,103,1070062,,,,,,,2024-03-11,1,,,,,エレヴィス,0
956,6010403032138,新規,0,2024-03-11,2024-03-11,ＴＫ　Ｓｕｐｐｏｒｔ合同会社,,合同会社,東京都,港区,西麻布２丁目１６－５,,13,103,1060031,,,,,,,2024-03-11,1,,,,,ティーケーサポート,0
959,6010701045675,新規,0,2024-03-11,2024-03-11,株式会社ＴＲＩ,,株式会社,東京都,品川区,東五反田１丁目１１番９号五洋ビル４階,,13,109,1410022,,,,,,,2024-03-11,1,,,,,ティーアールアイ,0
960,6010801034834,新規,0,2024-03-11,2024-03-11,株式会社アールデコ,,株式会社,東京都,大田区,北千束１丁目２８番２号,,13,111,1450062,,,,,,,2024-03-11,1,,,,,,0
974,6011001160462,新規,0,2024-03-11,2024-03-11,株式会社エミリー,,株式会社,東京都,目黒区,上目黒２丁目１４番１号,,13,110,1530051,,,,,,,2024-03-11,1,,,,,エミリー,0
975,6011001160487,新規,0,2024-03-11,2024-03-11,株式会社ＮＪＩ,,株式会社,東京都,渋谷区,東３丁目１４番１５号,,13,113,1500011,,,,,,,2024-03-11,1,,,,,エヌジェイアイ,0
978,6011003018650,新規,0,2024-03-11,2024-03-11,合同会社ココノバ,,合同会社,東京都,渋谷区,渋谷１丁目１番３号,,13,113,1500002,,,,,,,2024-03-11,1,,,,,ココノバ,0
983,6011103014186,新規,0,2024-03-11,2024-03-11,ＴＣＢ合同会社,,合同会社,東京都,新宿区,百人町２丁目７番１４号新宿サニーマンション４０４号室,,13,104,1690073,,,,,,,2024-03-11,1,,,,,ティーシービー,0
989,6011503005966,新規,0,2024-03-11,2024-03-11,合同会社山月,,合同会社,東京都,北区,浮間１丁目７－２３兆豊浮間ビル,,13,117,1150051,,,,,,,2024-03-11,1,,,,,サンゲツ,0
990,6011701027085,新規,0,2024-03-11,2024-03-11,株式会社ＫＫホールディングス,,株式会社,東京都,江戸川区,北小岩５丁目２番９号,,13,123,1330051,,,,,,,2024-03-11,1,,,,,ケーケーホールディングス,0
997,6013301052182,新規,0,2024-03-11,2024-03-11,株式会社Ａｓｔｅｒｈｙｔｈｍ,,株式会社,東京都,豊島区,池袋２丁目１７番８号,,13,116,1710014,,,,,,,2024-03-11,1,,,,,アステリズム,0
1005,6021003014244,新規,0,2024-03-11,2024-03-11,ＢｆｆＣｏｏ合同会社,,合同会社,神奈川県,横須賀市,湘南国際村１丁目１１番９号,,14,201,2400107,,,,,,,2024-03-11,1,,,,,ビーエフエフシーオーオー,0
1009,6030001159100,新規,0,2024-03-11,2024-03-11,Ｗ＆Ｐ産業株式会社,,株式会社,埼玉県,坂戸市,にっさい花みず木３丁目２６番地４,,11,239,3500269,,,,,,,2024-03-11,1,,,,,ダブリューアンドピーサンギョウ,0
1019,6040003024474,新規,0,2024-03-11,2024-03-11,ＢＡＳＵＤＥＶ合同会社,,合同会社,千葉県,千葉市中央区,都町８丁目４番３号,,12,101,2600001,,,,,,,2024-03-11,1,,,,,バスデブ,0
1020,6050001054407,新規,0,2024-03-11,2024-03-11,株式会社Ｈｏｎｅｓｔ　Ａｓｓｅｔ　Ｍａｎａｇｅｍｅｎｔ,,株式会社,茨城県,つくば市,臼井１５３７番地１,,08,220,3004211,,,,,,,2024-03-11,1,,,,,オネストアセットマネジメント,0
1025,6070001041452,新規,0,2024-03-11,2024-03-11,株式会社ＺｅｒｏＤｅｍｏ,,株式会社,群馬県,高崎市,八幡町８００番地６４,,10,202,3700884,,,,,,,2024-03-11,1,,,,,ゼロデモ,0
1028,6080101024579,新規,0,2024-03-11,2024-03-11,株式会社ＮＹＣ,,株式会社,静岡県,裾野市,深良２６７４番地の２,,22,220,4101102,,,,,,,2024-03-11,1,,,,,エヌワイシー,0
1029,6080103003003,新規,0,2024-03-11,2024-03-11,グローバル・コミュニティ合同会社,,合同会社,静岡県,熱海市,咲見町４番２１号５１５,,22,205,4130019,,,,,,,2024-03-11,1,,,,,グローバルコミュニティ,0
1034,6100001037265,新規,0,2024-03-11,2024-03-11,株式会社上村工務店,,株式会社,長野県,松本市,筑摩４丁目１５番１０号,,20,202,3900821,,,,,,,2024-03-11,1,,,,,カミムラコウムテン,0
1039,6120001263058,新規,0,2024-03-11,2024-03-11,株式会社Ｕ．ＦＩＥＬＤ,,株式会社,大阪府,大阪市淀川区,東三国２丁目３７番３－１０１２号,,27,123,5320002,,,,,,,2024-03-11,1,,,,,ユーフィールド,0
1043,6120003026108,新規,0,2024-03-11,2024-03-11,ＮＴＨ合同会社,,合同会社,大阪府,大阪市港区,磯路２丁目１６番２２号３０１号室,,27,107,5520003,,,,,,,2024-03-11,1,,,,,エヌティエッチ,0
1050,6120901048871,新規,0,2024-03-11,2024-03-11,株式会社エムシーエス,,株式会社,大阪府,池田市,伏尾台１丁目８番地の４,,27,204,5630017,,,,,,,2024-03-11,1,,,,,エムシーエス,0
1052,6120905006578,新規,0,2024-03-11,2024-03-11,労働者協同組合ａｎｄ,,その他の設立登記法人,大阪府,茨木市,島１丁目１２－３７,,27,211,5670854,,,,,,,2024-03-11,1,,,,,アンド,0
1054,6130001076525,新規,0,2024-03-11,2024-03-11,株式会社山本工業,,株式会社,京都府,相楽郡笠置町,大字有市小字羽根田５３番地,,26,364,6191301,,,,,,,2024-03-11,1,,,,,ヤマモトコウギョウ,0
1055,6130003009367,新規,0,2024-03-11,2024-03-11,京行者合同会社,,合同会社,京都府,京都市中京区,蛸薬師通烏丸東入一蓮社町３００番地３０３号室,,26,104,6048146,,,,,,,2024-03-11,1,,,,,ミヤコギョウジャ,0
1063,6140003020257,新規,0,2024-03-11,2024-03-11,天ノ下商介合同会社,,合同会社,兵庫県,神戸市垂水区,天ノ下町８－６アノンハウス２階西,,28,108,6550029,,,,,,,2024-03-11,1,,,,,テンノシタショウカイ,0
1067,6160005011285,新規,0,2024-03-11,2024-03-11,特定非営利活動法人愛知川流域の水環境を守る会,,その他の設立登記法人,滋賀県,東近江市,市原野町１０５６番地,,25,213,5270224,,,,,,,2024-03-11,1,,,,,エチガワリュウイキノミズカンキョウヲマモルカイ,0
1074,6180001160464,新規,0,2024-03-11,2024-03-11,株式会社ｂｕｄ,,株式会社,愛知県,名古屋市名東区,陸前町３３０８－２グレイス伸和２Ｆ,,23,115,4650057,,,,,,,2024-03-11,1,,,,,バド,0
1077,6200003006258,新規,0,2024-03-11,2024-03-11,ＳＧ合同会社,,合同会社,岐阜県,瑞穂市,別府７７２番地３,,21,216,5010222,,,,,,,2024-03-11,1,,,,,エスジー,0
1093,6290001104996,新規,0,2024-03-11,2024-03-11,株式会社ＫＧＩ,,株式会社,福岡県,糟屋郡新宮町,新宮東２丁目７番１６号,,40,345,8110124,,,,,,,2024-03-11,1,,,,,ケージーアイ,0
1094,6290001105004,新規,0,2024-03-11,2024-03-11,株式会社ＢＬＵＥ,,株式会社,福岡県,福岡市西区,大字宮浦２１２９‐１６,,40,135,8190201,,,,,,,2024-03-11,1,,,,,ブルー,0
1095,6290001105020,新規,0,2024-03-11,2024-03-11,株式会社げんたくん,,株式会社,福岡県,福岡市博多区,古門戸町１番１０号,,40,132,8120029,,,,,,,2024-03-11,1,,,,,ゲンタクン,0
1096,6290003015036,新規,0,2024-03-11,2024-03-11,合同会社翔龍,,合同会社,福岡県,久留米市,本町１５番地１０－４０１,,40,203,8300044,,,,,,,2024-03-11,1,,,,,ショウリュウ,0
1098,6300001013642,新規,0,2024-03-11,2024-03-11,株式会社ＷｏＷ,,株式会社,佐賀県,小城市,小城町松尾３７１４番地８,,41,208,8450004,,,,,,,2024-03-11,1,,,,,ワオ,0
1111,6370003006506,新規,0,2024-03-11,2024-03-11,合同会社レイズホーム,,合同会社,宮城県,富谷市,上桜木１丁目１７番地５,,04,216,9813328,,,,,,,2024-03-11,1,,,,,レイズホーム,0
1115,6400001016577,新規,0,2024-03-11,2024-03-11,株式会社丸香コーポレーション,,株式会社,岩手県,盛岡市,津志田３地割３３番地１,,03,201,0200835,,,,,,,2024-03-11,1,,,,,マルコウコーポレーション,0
1120,6430001091205,新規,0,2024-03-11,2024-03-11,株式会社北信トラスト,,株式会社,北海道,札幌市北区,あいの里二条４丁目６番６号,,01,102,0028072,,,,,,,2024-03-11,1,,,,,ホクシントラスト,0
1121,6430001091270,新規,0,2024-03-11,2024-03-11,Ｐｅｅｋａｂｏｏ株式会社,,株式会社,北海道,日高郡新ひだか町,静内駒場９－４５,,01,610,0560027,,,,,,,2024-03-11,1,,,,,,0
1132,6700150124381,新規,0,2024-03-11,2024-03-11,ｗｕｘｉｗａｎｇｙｕａｎｊｉｙｅｆａｎｇｙｏｕｘｉａｎｇｏｎｇｓｉ,,外国会社等,,,,,,,,ｗｕｘｉｓｈｉｈｕｉｓｈａｎｑｕｈｕｉｃｈａｎｇｌｕ９９ｈａｏ,,,,,,2024-03-11,1,,,,,ムシャクオウゲンキチボユウゲンコウシ,0
1142,7010001242939,新規,0,2024-03-11,2024-03-11,Ａ‐ｈｕｂ株式会社,,株式会社,東京都,中央区,銀座１丁目２２番１１号銀座大竹ビジデンス２Ｆ,,13,102,1040061,,,,,,,2024-03-11,1,,,,,エーハブ,0
1143,7010001242971,新規,0,2024-03-11,2024-03-11,株式会社ＣＡＮＳＯＣＡ,,株式会社,東京都,千代田区,九段南１丁目５番６号りそな九段ビル５Ｆ・ＫＳフロア,,13,101,1020074,,,,,,,2024-03-11,1,,,,,カンソカ,0
1144,7010003043154,新規,0,2024-03-11,2024-03-11,ユメワークス合同会社,,合同会社,東京都,中央区,銀座１丁目２２番１１号銀座大竹ビジデンス２Ｆ,,13,102,1040061,,,,,,,2024-03-11,1,,,,,ユメワークス,0
1145,7010003043162,新規,0,2024-03-11,2024-03-11,合同会社エーコンサルティング,,合同会社,東京都,中央区,日本橋兜町１７－１－７０７,,13,102,1030026,,,,,,,2024-03-11,1,,,,,エーコンサルティング,0
1170,7011501030420,新規,0,2024-03-11,2024-03-11,株式会社ｅｓｕ‐ＲＫ,,株式会社,東京都,北区,神谷２丁目２２－１２ウィステリア１００,,13,117,1150043,,,,,,,2024-03-11,1,,,,,エスアールケイ,0
1173,7012401041623,新規,0,2024-03-11,2024-03-11,株式会社クロスフィールド,,株式会社,東京都,府中市,小柳町３丁目２３番地の６,,13,206,1830013,,,,,,,2024-03-11,1,,,,,クロスフィールド,0
1174,7012403006442,新規,0,2024-03-11,2024-03-11,合同会社ＬＡ　ＣＡＢＯＴＴＥ,,合同会社,東京都,狛江市,岩戸北４丁目１８－１１,,13,219,2010004,,,,,,,2024-03-11,1,,,,,ラカボット,0
1180,7013301052181,新規,0,2024-03-11,2024-03-11,ＢＣＭ　Ｔｒａｄｅ株式会社,,株式会社,東京都,豊島区,池袋１丁目１３－５パークレジデンス１０２,,13,116,1700014,,,,,,,2024-03-11,1,,,,,ビーシーエムトレード,0
1184,7020001156056,新規,0,2024-03-11,2024-03-11,株式会社ＣｏｍｍｏｎＭａｒｋｅｔｉｎｇ,,株式会社,神奈川県,横浜市青葉区,鉄町１７７５,,14,117,2250025,,,,,,,2024-03-11,1,,,,,コモンマーケティング,0
1187,7020003025696,新規,0,2024-03-11,2024-03-11,ＰＩＴＡＲＩ．合同会社,,合同会社,神奈川県,横浜市鶴見区,尻手１丁目２－６－７,,14,101,2300003,,,,,,,2024-03-11,1,,,,,ピタリ,0
1189,7021001081649,新規,0,2024-03-11,2024-03-11,アルムナス株式会社,,株式会社,神奈川県,茅ヶ崎市,中海岸１丁目２番７‐５０７号,,14,207,2530055,,,,,,,2024-03-11,1,,,,,アルムナス,0
1197,7030001159165,新規,0,2024-03-11,2024-03-11,ＲＳＹ株式会社,,株式会社,埼玉県,蕨市,中央２丁目２－８－２階,,11,223,3350004,,,,,,,2024-03-11,1,,,,,アールエスワイ,0
1198,7030001159173,新規,0,2024-03-11,2024-03-11,株式会社三國,,株式会社,埼玉県,川口市,上青木２丁目５０－２０の１０１,,11,203,3330844,,,,,,,2024-03-11,1,,,,,サンゴク,0
1209,7040001132575,新規,0,2024-03-11,2024-03-11,株式会社ＲＥＦＬＥＣＴＩＯＮ,,株式会社,千葉県,鎌ケ谷市,右京塚１３番１３号,,12,224,2730102,,,,,,,2024-03-11,1,,,,,リフレクション,0
1212,7040003024515,新規,0,2024-03-11,2024-03-11,ハルフウェイ合同会社,,合同会社,千葉県,松戸市,松戸新田５４６番地の１８,,12,207,2702241,,,,,,,2024-03-11,1,,,,,ハルフウェイ,0
1215,7070001041476,新規,0,2024-03-11,2024-03-11,株式会社ＮＦ．ＢＬＯＯＤ,,株式会社,群馬県,前橋市,文京町２丁目２８番２１号サラダ館３階,,10,201,3710801,,,,,,,2024-03-11,1,,,,,エヌエフブラッド,0
1217,7080401027041,新規,0,2024-03-11,2024-03-11,株式会社よさく屋ｙｏｒｒｏ’ｓ,,株式会社,静岡県,菊川市,半済２９７８番地の３,,22,224,4390019,,,,,,,2024-03-11,1,,,,,ヨサクヤヨローズ,0
1223,7100001037256,新規,0,2024-03-11,2024-03-11,三山株式会社,,株式会社,長野県,長野市,松代町小島田３５７８番地,,20,201,3811213,,,,,,,2024-03-11,1,,,,,ミヤマ,0
1224,7100001037264,新規,0,2024-03-11,2024-03-11,中日農商組合株式会社,,株式会社,長野県,上伊那郡南箕輪村,５５７６番地１０,,20,385,3994511,,,,,,,2024-03-11,1,,,,,チュウニチノウショウクミアイ,0
1225,7100003007439,新規,0,2024-03-11,2024-03-11,合同会社ＰＡＩＳ,,合同会社,長野県,長野市,大字南長野妻科１８５番地石黒アパート５号室,,20,201,3800872,,,,,,,2024-03-11,1,,,,,パイス,0
1234,7120001262967,新規,0,2024-03-11,2024-03-11,株式会社ＮＳコンサルタント,,株式会社,大阪府,大阪市中央区,南船場１丁目１１－９長堀八千代ビル９階Ｉ,,27,128,5420081,,,,,,,2024-03-11,1,,,,,エヌエスコンサルタント,0
1235,7120001263049,新規,0,2024-03-11,2024-03-11,日本未来島科技株式会社,,株式会社,大阪府,大阪市東住吉区,杭全１丁目１７－１７－４０３号室,,27,121,5460002,,,,,,,2024-03-11,1,,,,,ニホンミライジマカギ,0
1241,7120003026115,新規,0,2024-03-11,2024-03-11,合同会社ＳＢＭＣ,,合同会社,大阪府,大阪市福島区,吉野５丁目７番１１号メゾンサンクレア４Ａ,,27,103,5530006,,,,,,,2024-03-11,1,,,,,エスビーエムシー,0
1246,7120101069189,新規,0,2024-03-11,2024-03-11,株式会社ＴＳＵＮＡＧＩ,,株式会社,大阪府,堺市堺区,南瓦町１－２０－３０３,,27,141,5900078,,,,,,,2024-03-11,1,,,,,ツナギ,0
1249,7120103005712,新規,0,2024-03-11,2024-03-11,玉新合同会社,,合同会社,大阪府,岸和田市,松風町１３番５８号春木ｗｏｒｋｓｐａｃｅ２０１号室,,27,202,5960021,,,,,,,2024-03-11,1,,,,,ギョクシン,0
1256,7130001076549,新規,0,2024-03-11,2024-03-11,Ｑｂｒａｎｅ株式会社,,株式会社,京都府,京都市下京区,西木屋町通五条下る七条新地平居町５５番地１,,26,106,6000000,,,,,,,2024-03-11,1,,,,,キューブレイン,0
1260,7140001133613,新規,0,2024-03-11,2024-03-11,株式会社ＳＥＶＥＮ,,株式会社,兵庫県,川西市,出在家町３番１４号,,28,217,6660011,,,,,,,2024-03-11,1,,,,,セブン,0
1264,7140003020256,新規,0,2024-03-11,2024-03-11,合同会社Ｆｌｏｗ,,合同会社,兵庫県,神戸市垂水区,多聞町８６８番地の１３３７,,28,108,6550001,,,,,,,2024-03-11,1,,,,,フロー,0
1272,7160005011284,新規,0,2024-03-11,2024-03-11,医療法人共忠会,,その他の設立登記法人,滋賀県,大津市,大将軍１丁目１７番７号,,25,201,5202145,,,,,,,2024-03-11,1,,,,,トモタダカイ,0
1282,7180001160505,新規,0,2024-03-11,2024-03-11,株式会社三昇ホールディングス,,株式会社,愛知県,名古屋市千種区,南明町３丁目１５番地の５,,23,101,4640845,,,,,,,2024-03-11,1,,,,,サンショウホールディングス,0
1287,7180303006026,新規,0,2024-03-11,2024-03-11,合同会社ＫＡＩＰ,,合同会社,愛知県,知立市,栄１丁目６番地エムズシティ知立ザ・タワー２００５号,,23,225,4720037,,,,,,,2024-03-11,1,,,,,カイピー,0
1293,7230003002162,新規,0,2024-03-11,2024-03-11,リフレクタージャパン合同会社,,合同会社,富山県,富山市,下新北町８－１６,,16,201,9300802,,,,,,,2024-03-11,1,,,,,リフレクタージャパン,0
1297,7290001104921,新規,0,2024-03-11,2024-03-11,株式会社みらい,,株式会社,福岡県,筑紫野市,上古賀３丁目９番３２号,,40,217,8180041,,,,,,,2024-03-11,1,,,,,ミライ,0
1298,7290001104995,新規,0,2024-03-11,2024-03-11,株式会社ＴＯＯＮＥ,,株式会社,福岡県,福岡市博多区,博多駅前３丁目２３番２０号,,40,132,8120011,,,,,,,2024-03-11,1,,,,,トーン,0
1299,7290001105003,新規,0,2024-03-11,2024-03-11,株式会社アリエス,,株式会社,福岡県,福岡市博多区,博多駅南３丁目１２番３０－４０１号,,40,132,8120016,,,,,,,2024-03-11,1,,,,,アリエス,0
1300,7290003015035,新規,0,2024-03-11,2024-03-11,合同会社ｓｈｏｏｔｅｒ,,合同会社,福岡県,大牟田市,八尻町３丁目３８番地１,,40,202,8360811,,,,,,,2024-03-11,1,,,,,シューター,0
1302,7310003004745,新規,0,2024-03-11,2024-03-11,合同会社はぁとみらい,,合同会社,長崎県,諫早市,貝津ヶ丘４５３番地１５１,,42,204,8540069,,,,,,,2024-03-11,1,,,,,ハァトミライ,0
1304,7340001026350,新規,0,2024-03-11,2024-03-11,株式会社Ｔ．Ｃ,,株式会社,鹿児島県,鹿児島市,山之口町ＴＭ１９ビルディング３Ｆ１号２号,,46,201,8920844,,,,,,,2024-03-11,1,,,,,ティーシー,0
1305,7350001018826,新規,0,2024-03-11,2024-03-11,株式会社ＳＫＹ,,株式会社,宮崎県,宮崎市,吉村町下り松甲２４９７番地２,,45,201,8800841,,,,,,,2024-03-11,1,,,,,エスケイワイ,0
1310,7360001033304,新規,0,2024-03-11,2024-03-11,株式会社ＮＡＨＡＺＯ,,株式会社,沖縄県,那覇市,字仲井真４００番地９,,47,201,9020074,,,,,,,2024-03-11,1,,,,,ナハゾー,0
1329,7490003001873,新規,0,2024-03-11,2024-03-11,合同会社高知ニューエナジー脱炭素推進機構,,合同会社,高知県,高岡郡日高村,本郷６１－１,,39,410,7812153,,,,,,,2024-03-11,1,,,,,コウチニューエナジーダツタンソスイシンキコウ,0
1336,8010001242979,新規,0,2024-03-11,2024-03-11,ＯＭＯＵＭＡＭＡ株式会社,,株式会社,東京都,千代田区,東神田２丁目１０番９号,,13,101,1010031,,,,,,,2024-03-11,1,,,,,オモウママ,0
1339,8010003043153,新規,0,2024-03-11,2024-03-11,合同会社Ｃｕｒｃｕｍａ　Ｄｅｓｉｇｎ,,合同会社,東京都,中央区,銀座１丁目１２番４号Ｎ＆ＥＢＬＤ．６Ｆ,,13,102,1040061,,,,,,,2024-03-11,1,,,,,クルクマデザイン,0
1340,8010005038011,新規,0,2024-03-11,2024-03-11,一般社団法人ヴィレッジエイト,,その他の設立登記法人,東京都,中央区,日本橋１丁目４番１号,,13,102,1030027,,,,,,,2024-03-11,1,,,,,ヴィレッジエイト,0
1343,8010401180911,新規,0,2024-03-11,2024-03-11,株式会社Ｓｐｒｉｎｇ,,株式会社,東京都,港区,南麻布１丁目８－１６－６０３,,13,103,1060047,,,,,,,2024-03-11,1,,,,,スプリング,0
1350,8010803004874,新規,0,2024-03-11,2024-03-11,合同会社ＳＳアセットマネージメント,,合同会社,東京都,大田区,大森南５丁目４－１５ウイング大森南１００３,,13,111,1430013,,,,,,,2024-03-11,1,,,,,エスエスアセットマネージメント,0
1351,8010805003098,新規,0,2024-03-11,2024-03-11,医療法人社団アイル,,その他の設立登記法人,東京都,大田区,仲六郷２丁目４３番２号オーケージャンボ・サガンビル５階Ｃ区画,,13,111,1440055,,,,,,,2024-03-11,1,,,,,アイル,0
1353,8010901054854,新規,0,2024-03-11,2024-03-11,株式会社ＫＭＨ企画,,株式会社,東京都,世田谷区,上祖師谷２丁目３２－３５,,13,112,1570065,,,,,,,2024-03-11,1,,,,,ケーエムエイチキカク,0
1364,8011003018632,新規,0,2024-03-11,2024-03-11,おじや合同会社,,合同会社,東京都,渋谷区,道玄坂１丁目１０番８号渋谷道玄坂東急ビル２Ｆ－Ｃ,,13,113,1500043,,,,,,,2024-03-11,1,,,,,オジヤ,0
1365,8011003018649,新規,0,2024-03-11,2024-03-11,合同会社アイヴァンス,,合同会社,東京都,渋谷区,道玄坂１丁目１０番８号渋谷道玄坂東急ビル２Ｆ,,13,113,1500043,,,,,,,2024-03-11,1,,,,,アイヴァンス,0
1369,8011101106487,新規,0,2024-03-11,2024-03-11,恒星株式会社,,株式会社,東京都,新宿区,新宿２丁目１６－９五城ビル８階,,13,104,1600022,,,,,,,2024-03-11,1,,,,,コウセイ,0
1372,8011401025916,新規,0,2024-03-11,2024-03-11,株式会社Ｇ　Ｃｒｅａｔｉｏｎ,,株式会社,東京都,板橋区,東山町３５番１１号,,13,119,1740073,,,,,,,2024-03-11,1,,,,,ジークリエイション,0
1375,8011505002613,新規,0,2024-03-11,2024-03-11,医療法人社団光忍会,,その他の設立登記法人,東京都,荒川区,東日暮里６丁目１番１号アトラスブランズタワー三河島２階,,13,118,1160014,,,,,,,2024-03-11,1,,,,,コウニンカイ,0
1377,8011703003768,新規,0,2024-03-11,2024-03-11,合同会社Ｉ．Ｎ．Ｏ,,合同会社,東京都,江戸川区,平井７丁目１９－１０,,13,123,1320035,,,,,,,2024-03-11,1,,,,,アイエヌオー,0
1385,8013301052180,新規,0,2024-03-11,2024-03-11,株式会社ＫＩＮＤ　ＯＦ　ＳＫＹ,,株式会社,東京都,豊島区,西巣鴨１丁目３番２３号ヴィラパレット３０４号,,13,116,1700001,,,,,,,2024-03-11,1,,,,,カインドオブスカイ,0
1386,8013301052189,新規,0,2024-03-11,2024-03-11,オッドコンセプト株式会社,,株式会社,東京都,豊島区,東池袋５丁目７番３号アゼリア東池袋４０１,,13,116,1700013,,,,,,,2024-03-11,1,,,,,オッドコンセプト,0
1388,8013303007018,新規,0,2024-03-11,2024-03-11,合同会社ｓｍｉｌｅ　ａｖｅｎｉｒ,,合同会社,東京都,豊島区,南池袋１丁目１６－１５ダイヤゲート池袋５Ｆ,,13,116,1710022,,,,,,,2024-03-11,1,,,,,スマイルアベニール,0
1389,8013303007042,新規,0,2024-03-11,2024-03-11,ＳＡＫＵＲＡ合同会社,,合同会社,東京都,豊島区,要町２丁目２９番２号シティハイムクレドール２０１号,,13,116,1710043,,,,,,,2024-03-11,1,,,,,サクラ,0
1408,8030001158843,新規,0,2024-03-11,2024-03-11,ミドリクＮｂＳ株式会社,,株式会社,埼玉県,さいたま市緑区,東浦和７丁目２４番２５,,11,109,3360926,,,,,,,2024-03-11,1,,,,,ミドリクエヌビーエス,0
1409,8030001159172,新規,0,2024-03-11,2024-03-11,株式会社大工陽八,,株式会社,埼玉県,さいたま市南区,大字大谷口１９１２番地１,,11,108,3360042,,,,,,,2024-03-11,1,,,,,ダイクヨウハチ,0
1412,8030003023797,新規,0,2024-03-11,2024-03-11,ＳＭジャパン合同会社,,合同会社,埼玉県,川越市,大字中福字鬼窪９１０番地１,,11,201,3501156,,,,,,,2024-03-11,1,,,,,エスエムジャパン,0
1418,8050001054413,新規,0,2024-03-11,2024-03-11,株式会社ＨＩＭホールディングス,,株式会社,茨城県,つくば市,花室１１２８番地１,,08,220,3050025,,,,,,,2024-03-11,1,,,,,エイチアイエムホールディングス,0
1424,8060001036897,新規,0,2024-03-11,2024-03-11,株式会社ＺＢＴ　ＩＮＴＥＲＮＡＴＩＯＮＡＬ　ＴＲＡＤＩＮＧ,,株式会社,栃木県,鹿沼市,深津１２１３番地５,,09,205,3220013,,,,,,,2024-03-11,1,,,,,ゼッドビーティーインターナショナルトレーディング,0
1429,8080101024577,新規,0,2024-03-11,2024-03-11,スルガコーポレーション株式会社,,株式会社,静岡県,沼津市,西添町１番地の１,,22,203,4100313,,,,,,,2024-03-11,1,,,,,スルガコーポレーション,0
1472,8120001262999,新規,0,2024-03-11,2024-03-11,袁氏貿易株式会社,,株式会社,大阪府,大阪市東淀川区,上新庄２丁目３番９－３０２号,,27,114,5330006,,,,,,,2024-03-11,1,,,,,エンシボウエキ,0
1473,8120001263048,新規,0,2024-03-11,2024-03-11,株式会社ソニックドライブ,,株式会社,大阪府,大阪市西区,西本町１丁目１３－３８－７０１,,27,106,5500005,,,,,,,2024-03-11,1,,,,,ソニックドライブ,0
1480,8130001076531,新規,0,2024-03-11,2024-03-11,株式会社Ａｍａｒａｎｃｅ,,株式会社,京都府,京都市伏見区,醍醐御霊ケ下町５２番地３１シャーメゾンレーヴ１０２号,,26,109,6011361,,,,,,,2024-03-11,1,,,,,アマランス,0
1486,8140001133620,新規,0,2024-03-11,2024-03-11,株式会社ＳＹ．ｕ,,株式会社,兵庫県,神戸市中央区,多聞通３丁目３番１５号ＥＧ神戸ビル,,28,110,6500015,,,,,,,2024-03-11,1,,,,,シュウ,0
1489,8160005011275,新規,0,2024-03-11,2024-03-11,一般社団法人ＭＯＲＩＴＯＷＡ,,その他の設立登記法人,滋賀県,長浜市,木之本町音羽２８４,,25,203,5290403,,,,,,,2024-03-11,1,,,,,モリトワ,0
1497,8180001160479,新規,0,2024-03-11,2024-03-11,株式会社ｍａ．ｋａ．ｎａ,,株式会社,愛知県,あま市,中萱津南ノ川４２番地１,,23,237,4901113,,,,,,,2024-03-11,1,,,,,マカナ,0
1498,8180001160487,新規,0,2024-03-11,2024-03-11,ログフィールドエンジニアリング株式会社,,株式会社,愛知県,名古屋市守山区,本地が丘１７０７番地の１,,23,113,4630031,,,,,,,2024-03-11,1,,,,,ログフィールドエンジニアリング,0
1499,8180001160504,新規,0,2024-03-11,2024-03-11,ＤｅｓｓＡｎｇｅ株式会社,,株式会社,愛知県,名古屋市中区,栄２丁目２番１号広小路伏見中駒ビル２Ｆ－９,,23,106,4600008,,,,,,,2024-03-11,1,,,,,デサンジュ,0
1500,8180001160512,新規,0,2024-03-11,2024-03-11,株式会社ＴＮＰＤ,,株式会社,愛知県,名古屋市中川区,宮脇町１丁目１４４番地,,23,110,4540842,,,,,,,2024-03-11,1,,,,,ティーエヌピーディー,0
1502,8180003026463,新規,0,2024-03-11,2024-03-11,合同会社Ｄｉｏｎ,,合同会社,愛知県,名古屋市中区,千代田３丁目１０番２号,,23,106,4600012,,,,,,,2024-03-11,1,,,,,ディオン,0
1515,8290003015034,新規,0,2024-03-11,2024-03-11,合同会社新工業,,合同会社,福岡県,福岡市東区,香椎駅前２丁目６番３０号,,40,131,8130013,,,,,,,2024-03-11,1,,,,,シンコウギョウ,0
1521,8350001018817,新規,0,2024-03-11,2024-03-11,地域資源ブランディング株式会社,,株式会社,宮崎県,宮崎市,学園木花台西１丁目１,,45,201,8892155,,,,,,,2024-03-11,1,,,,,チイキシゲンブランディング,0
1522,8350001018825,新規,0,2024-03-11,2024-03-11,株式会社高村保険事務所,,株式会社,宮崎県,延岡市,恒富町２丁目２番地４,,45,203,8820836,,,,,,,2024-03-11,1,,,,,タカムラホケンジムショ,0
1525,8370001051015,新規,0,2024-03-11,2024-03-11,株式会社ハビリススタッフ,,株式会社,宮城県,仙台市青葉区,中央１丁目３番１号,,04,101,9800021,,,,,,,2024-03-11,1,,,,,ハビリススタッフ,0
1533,8430003016042,新規,0,2024-03-11,2024-03-11,建機塗装工業合同会社,,合同会社,北海道,石狩市,花川東４７２番３３５,,01,235,0613248,,,,,,,2024-03-11,1,,,,,ケンキトソウコウギョウ,0
1534,8430005014911,新規,0,2024-03-11,2024-03-11,北海道防水改修事業協同組合,,その他の設立登記法人,北海道,札幌市中央区,大通西６丁目２番６号,,01,101,0600042,,,,,,,2024-03-11,1,,,,,ホッカイドウボウスイカイシュウ,0
1536,8470001020067,新規,0,2024-03-11,2024-03-11,株式会社Ｓ．Ａ‐ＰＯＲＴ,,株式会社,香川県,高松市,国分寺町新居３０１番地１ダイアパレス１１０３,,37,201,7690101,,,,,,,2024-03-11,1,,,,,エスエーポート,0
1543,8700150124198,新規,0,2024-03-11,2024-02-27,宮野地区社会福祉協議会,,その他,山口県,山口市,宮野下３０５４,,35,203,7530011,,,,,,,2024-02-27,1,,,,,ミヤノチクシヤカイフクシキヨウギカイ,0
1554,9010001242879,新規,0,2024-03-11,2024-03-11,玖株式会社,,株式会社,東京都,中央区,銀座１丁目１２番４号Ｎ＆ＥＢＬＤ．６Ｆ,,13,102,1040061,,,,,,,2024-03-11,1,,,,,キュウ,0
1555,9010001242929,新規,0,2024-03-11,2024-03-11,株式会社ｃｏｔｔｏｎ,,株式会社,東京都,千代田区,神田松永町１７番地７ヒラツカビル２階,,13,101,1010023,,,,,,,2024-03-11,1,,,,,コットン,0
1559,9010005038002,新規,0,2024-03-11,2024-03-11,一般社団法人ＴＯＲＩＯＳ　ＭＳＫ,,その他の設立登記法人,東京都,中央区,築地７丁目１０番７号,,13,102,1040045,,,,,,,2024-03-11,1,,,,,トリオスエムエスケイ,0
1560,9010005038010,新規,0,2024-03-11,2024-03-11,ＦＡＬ　Ｇｉｆｕ　ＴＭＫ特定目的会社,,その他の設立登記法人,東京都,千代田区,丸の内２丁目３番２号郵船ビルアルタードムス・ジャパン株式会社内,,13,101,1000005,,,,,,,2024-03-11,1,,,,,エフエーエルギフティーエムケイ,0
1562,9010401180919,新規,0,2024-03-11,2024-03-11,株式会社データライズジャパン,,株式会社,東京都,港区,虎ノ門１丁目１７番１号虎ノ門ヒルズビジネスタワー１５階６１号室,,13,103,1050001,,,,,,,2024-03-11,1,,,,,データライズジャパン,0
1563,9010401180935,新規,0,2024-03-11,2024-03-11,グローリーフォーエバージャパン株式会社,,株式会社,東京都,港区,北青山３丁目６番７号青山パラシオタワー１１階,,13,103,1070061,,,,,,,2024-03-11,1,,,,,グローリーフォーエバージャパン,0
1567,9010601064789,新規,0,2024-03-11,2024-03-11,株式会社Ｃｒａｆｔ　Ｓｔｏｒｉｅｓ,,株式会社,東京都,江東区,新大橋２丁目６番８－１０１号,,13,108,1350007,,,,,,,2024-03-11,1,,,,,クラフトストーリーズ,0
1568,9010701045664,新規,0,2024-03-11,2024-03-11,株式会社Ｍ‐ｓｔｙｌｅ,,株式会社,東京都,品川区,大崎２丁目５番２７号,,13,109,1410032,,,,,,,2024-03-11,1,,,,,エムスタイル,0
1570,9010803004873,新規,0,2024-03-11,2024-03-11,まめつぶブラザーズ合同会社,,合同会社,東京都,大田区,羽田６丁目２１番７号,,13,111,1440043,,,,,,,2024-03-11,1,,,,,,0
1573,9010903008873,新規,0,2024-03-11,2024-03-11,合同会社ジルスマリア,,合同会社,東京都,世田谷区,桜丘４丁目２０番１９号,,13,112,1560054,,,,,,,2024-03-11,1,,,,,ジルスマリア,0
1580,9011001160468,新規,0,2024-03-11,2024-03-11,オオノシルク株式会社,,株式会社,東京都,目黒区,目黒４丁目２３－９,,13,110,1530063,,,,,,,2024-03-11,1,,,,,オオノシルク,0
1581,9011001160567,新規,0,2024-03-11,2024-03-11,株式会社Ｐｅｎｋｅｎ　ｇｒｏｕｐ,,株式会社,東京都,渋谷区,恵比寿西２丁目４番８号ウィンド恵比寿ビル８Ｆ,,13,113,1500021,,,,,,,2024-03-11,1,,,,,ペンケングループ,0
1586,9011401025915,新規,0,2024-03-11,2024-03-11,Ｇ．ｏ．Ｄ株式会社,,株式会社,東京都,板橋区,熊野町１番８号Ｓ－ＲＥＳＩＤＥＮＣＥ板橋大山８０３,,13,119,1730025,,,,,,,2024-03-11,1,,,,,ジーオーディー,0
1589,9011403004297,新規,0,2024-03-11,2024-03-11,ＳＡＲＡＦＡＴ合同会社,,合同会社,東京都,板橋区,赤塚１丁目３２－１６松美ハイツ１０３,,13,119,1750092,,,,,,,2024-03-11,1,,,,,サラファト,0
1597,9012401041621,新規,0,2024-03-11,2024-03-11,鍵本ホールディングス株式会社,,株式会社,東京都,三鷹市,上連雀１丁目１２番１７号,,13,204,1810012,,,,,,,2024-03-11,1,,,,,カギモトホールディングス,0
1599,9012801023021,新規,0,2024-03-11,2024-03-11,株式会社ラッシュグリーン,,株式会社,東京都,日野市,東豊田４丁目２１番２,,13,212,1910052,,,,,,,2024-03-11,1,,,,,ラッシュグリーン,0
1602,9013303007041,新規,0,2024-03-11,2024-03-11,アールエイチ合同会社,,合同会社,東京都,豊島区,雑司が谷２丁目３番１－５０８号,,13,116,1710032,,,,,,,2024-03-11,1,,,,,アールエイチ,0
1612,9020003025694,新規,0,2024-03-11,2024-03-11,Ｋ合同会社,,合同会社,神奈川県,横浜市金沢区,富岡西７丁目２２番２７号,,14,108,2360052,,,,,,,2024-03-11,1,,,,,ケイ,0
1622,9030001159171,新規,0,2024-03-11,2024-03-11,愛華商事株式会社,,株式会社,埼玉県,戸田市,大字新曽１３２－２ダイアパレス戸田５０３,,11,224,3350021,,,,,,,2024-03-11,1,,,,,アイカショウジ,0
1629,9030003023788,新規,0,2024-03-11,2024-03-11,合同会社ＳＴイノベーション,,合同会社,埼玉県,さいたま市浦和区,瀬ヶ崎２丁目８番２３号,,11,107,3300044,,,,,,,2024-03-11,1,,,,,エスティイノベーション,0
1630,9030003023796,新規,0,2024-03-11,2024-03-11,ＡＤＶＡＮＣＥ　ＴＲＡＤＩＮＧＳ合同会社,,合同会社,埼玉県,川越市,大字小堤４１８番地１１,,11,201,3500811,,,,,,,2024-03-11,1,,,,,アドバンストレーディングス,0
1634,9040003024513,新規,0,2024-03-11,2024-03-11,合同会社ＤＭ６号,,合同会社,千葉県,柏市,柏４丁目５番１０号,,12,217,2770005,,,,,,,2024-03-11,1,,,,,ディーエムロクゴウ,0
1638,9050001054429,新規,0,2024-03-11,2024-03-11,株式会社ふじえだ農園ＰＫ,,株式会社,茨城県,東茨城郡茨城町,大字海老沢１５１０番地２,,08,302,3113135,,,,,,,2024-03-11,1,,,,,フジエダノウエンピーケー,0
1669,9110001038235,新規,0,2024-03-11,2024-03-11,エヌプロジェクト株式会社,,株式会社,新潟県,南魚沼市,浦佐１１３９番地,,15,226,9497302,,,,,,,2024-03-11,1,,,,,エヌプロジェクト,0
1677,9120001263063,新規,0,2024-03-11,2024-03-11,株式会社ＢＲＥＤＤＡ,,株式会社,大阪府,大阪市中央区,谷町１丁目６―４天満橋八千代ビル５階,,27,128,5400012,,,,,,,2024-03-11,1,,,,,ブレダ,0
1685,9140001133628,新規,0,2024-03-11,2024-03-11,ＭＡ３Ｉｎｖｅｓｔｍｅｎｔ株式会社,,株式会社,兵庫県,川西市,矢問１丁目１４－１４,,28,217,6660131,,,,,,,2024-03-11,1,,,,,エムエースリーインベストメント,0
1686,9140001133636,新規,0,2024-03-11,2024-03-11,株式会社宏途,,株式会社,兵庫県,西宮市,甲子園洲鳥町１番２９号,,28,204,6638151,,,,,,,2024-03-11,1,,,,,ヒロト,0
1688,9140005026968,新規,0,2024-03-11,2024-03-11,特定非営利活動法人ＫＯＢＥとまり木,,その他の設立登記法人,兵庫県,神戸市灘区,灘南通３丁目４番２０号株式会社あんじゅホーム内,,28,102,6570841,,,,,,,2024-03-11,1,,,,,コウベトマリギ,0
1693,9180001160478,新規,0,2024-03-11,2024-03-11,株式会社エムプラン,,株式会社,愛知県,名古屋市千種区,富士見台４丁目１番地,,23,101,4640015,,,,,,,2024-03-11,1,,,,,エムプラン,0
1694,9180001160503,新規,0,2024-03-11,2024-03-11,株式会社ＣＨＵＯ,,株式会社,愛知県,名古屋市昭和区,御器所３丁目３番２４号,,23,107,4660051,,,,,,,2024-03-11,1,,,,,チュウオー,0
1695,9180001160511,新規,0,2024-03-11,2024-03-11,株式会社ねお巳,,株式会社,愛知県,名古屋市中村区,名駅３丁目４－１０アルティメイト名駅１ｓｔ２階,,23,105,4500002,,,,,,,2024-03-11,1,,,,,ネオミ,0
1697,9180301038399,新規,0,2024-03-11,2024-03-11,株式会社保険ｎｉｋｉ,,株式会社,愛知県,刈谷市,高須町１丁目９番地５,,23,210,4480812,,,,,,,2024-03-11,1,,,,,ホケンニキ,0
1713,9240003006573,新規,0,2024-03-11,2024-03-11,合同会社大地と海ラボ,,合同会社,広島県,広島市東区,東山町６番１－２０３号,,34,102,7320043,,,,,,,2024-03-11,1,,,,,ダイチトウミラボ,0
1717,9290001105018,新規,0,2024-03-11,2024-03-11,株式会社陽のあたる場所,,株式会社,福岡県,福岡市南区,若久５丁目２２番７号,,40,134,8150042,,,,,,,2024-03-11,1,,,,,ヒノアタルバショ,0
1727,9340001026349,新規,0,2024-03-11,2024-03-11,双布総合株式会社,,株式会社,鹿児島県,霧島市,国分下井１番地１,,46,218,8994463,,,,,,,2024-03-11,1,,,,,ソウフソウゴウ,0
1733,9360003013772,新規,0,2024-03-11,2024-03-11,ＨＲＭ商店合同会社,,合同会社,沖縄県,中頭郡北谷町,北谷２丁目１１番１４号３０５,,47,326,9040116,,,,,,,2024-03-11,1,,,,,エイチアールエムショウテン,0
1736,9370001051014,新規,0,2024-03-11,2024-03-11,株式会社たまりば,,株式会社,宮城県,仙台市泉区,泉中央２丁目１０番地の１－２０１,,04,105,9813133,,,,,,,2024-03-11,1,,,,,タマリバ,0
1745,9430001091210,新規,0,2024-03-11,2024-03-11,株式会社Ｒ４ファクトリー,,株式会社,北海道,札幌市白石区,東米里２０３６番地１６,,01,104,0030876,,,,,,,2024-03-11,1,,,,,アールフォーファクトリー,0
1747,9430003016041,新規,0,2024-03-11,2024-03-11,合同会社ＰＰＴ２,,合同会社,北海道,札幌市西区,山の手七条８丁目６番３号,,01,107,0630007,,,,,,,2024-03-11,1,,,,,ピーピーティーツー,0
1749,9430005014910,新規,0,2024-03-11,2024-03-11,一般社団法人ＴＯＹＡＫＯ　ＢＯＡＴ　ＣＬＵＢ,,その他の設立登記法人,北海道,虻田郡洞爺湖町,洞爺町１２７番地,,01,584,0495802,,,,,,,2024-03-11,1,,,,,トウヤコボートクラブ,0
1752,9460303000816,新規,0,2024-03-11,2024-03-11,合同会社菅原造林,,合同会社,北海道,網走郡美幌町,字美芳２５番地の３,,01,543,0920013,,,,,,,2024-03-11,1,,,,,スガワラゾウリン,0
