sequenceNumber,corporateNumber,process,correct,updateDate,changeDate,name,nameImageId,kind,prefectureName,cityName,streetNumber,addressImageId,prefectureCode,cityCode,postCode,addressOutside,addressOutsideImageId,closeDate,closeCause,successorCorporateNumber,changeCause,assignmentDate,latest,enName,enPrefectureName,enCityName,enAddressOutside,furigana,hihyoji
9,1010005026088,登記記録の閉鎖等,0,2022-11-14,2022-11-10,ジャパンエステート一般社団法人,,その他の設立登記法人,東京都,中央区,日本橋１丁目４番１号,,13,102,1030027,,,2022-11-10,清算の結了等,,,2016-12-07,1,,,,,ジャパンエステート,0
20,1010403017234,登記記録の閉鎖等,0,2022-11-14,2022-10-31,合同会社スクエアポイント,,合同会社,東京都,港区,虎ノ門４丁目１番３４号,,13,103,1050001,,,2022-10-31,合併による解散等,4010403014807,令和４年１０月３１日東京都港区浜松町二丁目２番１５号ＫＥＩ企画合同会社（4010403014807）に合併し解散,2017-09-19,1,,,,,スクエアポイント,0
24,1010601053188,登記記録の閉鎖等,0,2022-11-14,2022-10-17,ヤマト株式会社,,株式会社,神奈川県,横浜市神奈川区,三ツ沢上町７－８ハイツジュネス２０３,,14,102,2210856,,,2022-10-17,清算の結了等,,,2018-04-18,1,,,,,ヤマト,0
30,1010701031333,登記記録の閉鎖等,0,2022-11-14,2022-11-08,株式会社ｎｏｔｔｅｃｏ,,株式会社,東京都,千代田区,平河町２丁目５番３号,,13,101,1020093,,,2022-11-08,合併による解散等,1010701022159,令和４年１０月１日東京都千代田区平河町二丁目５番３号株式会社ガイアックス（1010701022159）に合併し解散,2015-10-05,1,,,,,ノッテコ,0
43,1011001138034,登記記録の閉鎖等,0,2022-11-14,2022-11-04,ＰＩＥＲＲＥ　ＭＡＲＣＯＬＩＮＩ　ＪＡＰＡＮ株式会社,,株式会社,東京都,渋谷区,千駄ヶ谷５丁目２７番３号やまとビル８階,,13,113,1510051,,,2022-11-04,清算の結了等,,,2021-01-20,1,,,,,ピエールマルコリーニジャパン,0
52,1011101091348,登記記録の閉鎖等,0,2022-11-14,2022-11-09,株式会社がおがおスター,,株式会社,東京都,新宿区,大久保２丁目３２番２３号和孝第二レジデンス１０２号室,,13,104,1690072,,,2022-11-09,清算の結了等,,,2020-05-27,1,,,,,ガオガオスター,0
76,1020001022437,登記記録の閉鎖等,0,2022-11-14,2022-11-07,株式会社ウェルネスハウス,,株式会社,神奈川県,横浜市神奈川区,斎藤分町２番３０号,,14,102,2210811,,,2022-11-07,清算の結了等,,,2015-10-05,1,,,,,ウェルネスハウス,0
78,1020001061773,登記記録の閉鎖等,0,2022-11-14,2022-11-02,株式会社アモリコ,,株式会社,東京都,港区,白金６丁目１０－１６,,13,103,1080072,,,2022-11-02,清算の結了等,,,2015-10-05,1,,,,,,0
103,1040002025767,登記記録の閉鎖等,0,2022-11-14,2022-11-04,有限会社三山肉店,,有限会社,千葉県,船橋市,薬円台４丁目１番２号,,12,204,2740077,,,2022-11-04,清算の結了等,,,2015-10-05,1,,,,,ミヤマニクテン,0
119,1080102001813,登記記録の閉鎖等,0,2022-11-14,2022-11-11,有限会社杉茂,,有限会社,静岡県,沼津市,内浦小海１５４番地の２６,,22,203,4100222,,,2022-11-11,清算の結了等,,,2015-10-05,1,,,,,スギモ,0
121,1080102014740,登記記録の閉鎖等,0,2022-11-14,2022-11-10,有限会社原田工業,,有限会社,静岡県,富士市,大渕６３６番地の５１,,22,210,4170000,,,2022-11-10,清算の結了等,,,2015-10-05,1,,,,,ハラダコウギョウ,0
139,1120005007820,登記記録の閉鎖等,0,2022-11-14,2022-11-11,加島アタックサービス企業組合,,その他の設立登記法人,大阪府,大阪市淀川区,加島１丁目４９番２５号,,27,123,5320031,,,2022-11-11,清算の結了等,,,2015-10-05,1,,,,,カシマアタックサービス,0
145,1120902012914,登記記録の閉鎖等,0,2022-11-14,2022-11-11,有限会社ＮＡＶＩエンジニアリング,,有限会社,大阪府,摂津市,鳥飼中１丁目２番５－２１５号,,27,224,5660064,,,2022-11-11,清算の結了等,,,2015-10-05,1,,,,,ナビエンジニアリング,0
151,1130001011379,登記記録の閉鎖等,0,2022-11-14,2022-11-01,株式会社ニシケン木工,,株式会社,京都府,京都市南区,吉祥院稲葉町３１番地,,26,107,6018343,,,2022-11-01,合併による解散等,1130001010653,令和４年１１月１日京都市南区吉祥院稲葉町３１番地株式会社西建（1130001010653）に合併し解散,2015-10-05,1,,,,,ニシケンモッコウ,0
153,1130001060946,登記記録の閉鎖等,0,2022-11-14,2022-11-08,株式会社ＹＡＭＡＩＣＨＩ,,株式会社,京都府,京都市下京区,西七条南月読町９２番地,,26,106,6008885,,,2022-11-08,清算の結了等,,,2017-11-14,1,,,,,ヤマイチ,0
160,1140001050293,登記記録の閉鎖等,0,2022-11-14,2022-11-07,株式会社トレビック,,株式会社,兵庫県,尼崎市,塚口町５丁目３７番地の１２,,28,202,6610002,,,2022-11-07,清算の結了等,,,2015-10-05,1,,,,,トレビック,0
166,1140002013794,登記記録の閉鎖等,0,2022-11-14,2022-11-09,有限会社建設神戸アンカー,,有限会社,兵庫県,神戸市中央区,橘通４丁目１番２号,,28,110,6500016,,,2022-11-09,清算の結了等,,,2015-10-05,1,,,,,ケンセツコウベアンカー,0
176,1170002010558,登記記録の閉鎖等,0,2022-11-14,2022-11-11,有限会社井筒屋商店,,有限会社,和歌山県,橋本市,野３８９番地,,30,203,6480074,,,2022-11-11,清算の結了等,,,2015-10-05,1,,,,,イヅツヤショウテン,0
178,1180001041280,登記記録の閉鎖等,0,2022-11-14,2022-11-07,名信興業株式会社,,株式会社,愛知県,名古屋市中区,新栄１丁目６番９号,,23,106,4600007,,,2022-11-07,清算の結了等,,,2015-10-05,1,,,,,メイシンコウギョウ,0
179,1180001050538,登記記録の閉鎖等,0,2022-11-14,2022-11-07,株式会社美弘社,,株式会社,愛知県,名古屋市昭和区,福原町２丁目４２番地の１,,23,107,4660803,,,2022-11-07,清算の結了等,,,2015-10-05,1,,,,,ビコウシャ,0
198,1200002009547,登記記録の閉鎖等,0,2022-11-14,2022-11-11,有限会社讃栄,,有限会社,岐阜県,瑞穂市,馬場小城町２丁目６９番地,,21,216,5010205,,,2022-11-11,清算の結了等,,,2015-10-05,1,,,,,サンエイ,0
207,1240002013735,登記記録の閉鎖等,0,2022-11-14,2022-11-11,有限会社日出画廊,,有限会社,広島県,広島市西区,己斐中３丁目５０番２号,,34,104,7330813,,,2022-11-11,清算の結了等,,,2015-10-05,1,,,,,ヒノデガロウ,0
212,1280001002248,登記記録の閉鎖等,0,2022-11-14,2022-11-11,株式会社エムズコレクション,,株式会社,鳥取県,境港市,竹内団地２７８番地７,,31,204,6840046,,,2022-11-11,清算の結了等,,,2015-10-05,1,,,,,エムズコレクション,0
236,1320005002702,登記記録の閉鎖等,0,2022-11-14,2022-11-07,別府市亀川商店街振興組合,,その他の設立登記法人,大分県,別府市,亀川中央町９番２７号,,44,202,8740021,,,2022-11-07,清算の結了等,,,2015-10-05,1,,,,,ベップシカメガワショウテンガイ,0
238,1330001030061,登記記録の閉鎖等,0,2022-11-14,2022-11-08,成和観光株式会社,,株式会社,熊本県,熊本市西区,河内町船津２７０９番地,,43,103,8615347,,,2022-11-08,清算の結了等,,,2022-09-20,1,,,,,セイワカンコウ,0
244,1350001006877,登記記録の閉鎖等,0,2022-11-14,2022-11-10,富山住設株式会社,,株式会社,宮崎県,延岡市,愛宕町３丁目３５番地,,45,203,8820872,,,2022-11-10,清算の結了等,,,2015-10-05,1,,,,,トミヤマジュウセツ,0
246,1350005005529,登記記録の閉鎖等,0,2022-11-14,2022-11-09,特定非営利活動法人都城ふれあいの丘・里山カレッジ,,その他の設立登記法人,宮崎県,都城市,山田町中霧島４４８０番地,,45,202,8894602,,,2022-11-09,清算の結了等,,,2015-10-05,1,,,,,ミヤコノジョウフレアイノオカサトヤマカレッジ,0
261,1390001012120,登記記録の閉鎖等,0,2022-11-14,2022-11-07,本道寺ふる里振興株式会社,,株式会社,山形県,西村山郡西川町,大字本道寺３６２番地の２,,06,322,9900735,,,2022-11-07,清算の結了等,,,2015-10-05,1,,,,,ホンドウジフルサトシンコウ,0
269,1430002054801,登記記録の閉鎖等,0,2022-11-14,2022-11-07,有限会社テクノ・プロス,,有限会社,北海道,小樽市,天神２丁目１３番４号,,01,203,0470011,,,2022-11-07,清算の結了等,,,2015-10-05,1,,,,,テクノプロス,0
270,1430003008723,登記記録の閉鎖等,0,2022-11-14,2022-11-04,合同会社イーグル,,合同会社,北海道,札幌市北区,北二十九条西６丁目３番６号,,01,102,0010029,,,2022-11-04,清算の結了等,,,2017-09-21,1,,,,,イーグル,0
271,1430003012394,登記記録の閉鎖等,0,2022-11-14,2022-11-07,合同会社ＰＬＡＴＳ,,合同会社,北海道,札幌市中央区,宮の森一条８丁目３番１１－３０４,,01,101,0640951,,,2022-11-07,清算の結了等,,,2021-02-01,1,,,,,プラッツ,0
292,2010002005655,登記記録の閉鎖等,0,2022-11-14,2022-11-08,有限会社松井刺繍,,有限会社,東京都,文京区,小日向３丁目１番１１号,,13,105,1120006,,,2022-11-08,清算の結了等,,,2015-10-05,1,,,,,マツイシシュウ,0
299,2010005009736,登記記録の閉鎖等,0,2022-11-14,2022-11-11,税理士法人米田会計コンサルティング,,その他の設立登記法人,東京都,千代田区,飯田橋３丁目４番３号,,13,101,1020072,,,2022-11-11,清算の結了等,,,2015-10-05,1,,,,,ヨネダカイケイコンサルティング,0
302,2010101011083,登記記録の閉鎖等,0,2022-11-14,2022-11-10,株式会社ＭＡＣＳ,,株式会社,東京都,八王子市,千人町１丁目６番地４,,13,201,1930835,,,2022-11-10,清算の結了等,,,2015-10-05,1,,,,,マックス,0
306,2010401140210,登記記録の閉鎖等,0,2022-11-14,2022-10-31,レーションサプライジャパン株式会社,,株式会社,東京都,港区,赤坂１丁目１番１７号,,13,103,1070052,,,2022-10-31,清算の結了等,,,2018-08-13,1,,,,,レーションサプライジャパン,0
309,2010401153294,登記記録の閉鎖等,0,2022-11-14,2022-11-01,株式会社エフビット,,株式会社,東京都,港区,芝５丁目２７番３号ＭＢＣ,,13,103,1080014,,,2022-11-01,合併による解散等,9010401169020,令和４年１１月１日東京都港区芝浦一丁目１３番１０号第３東運ビル８Ｆエイトビット株式会社（9010401169020）に合併し解散,2020-06-11,1,,,,,エフビット,0
332,2011002030759,登記記録の閉鎖等,0,2022-11-14,2022-11-08,有限会社ネットワーク祐,,有限会社,東京都,渋谷区,渋谷１丁目１５－１５－５０３号,,13,113,1500002,,,2022-11-08,清算の結了等,,,2015-10-05,1,,,,,ネットワークユウ,0
362,2021001019380,登記記録の閉鎖等,0,2022-11-14,2022-11-09,石射樹脂工業株式会社,,株式会社,神奈川県,厚木市,船子１６７番地,,14,212,2430034,,,2022-11-09,清算の結了等,,,2015-10-05,1,,,,,イシイジュシコウギョウ,0
435,2120101002393,登記記録の閉鎖等,0,2022-11-14,2022-11-10,金剛セメント工業株式会社,,株式会社,大阪府,堺市堺区,海山町４丁１７５番地,,27,141,5900982,,,2022-11-10,清算の結了等,,,2015-10-05,1,,,,,コンゴウセメントコウギョウ,0
460,2140002069786,登記記録の閉鎖等,0,2022-11-14,2022-11-09,有限会社シー・エイ・シー,,有限会社,兵庫県,南あわじ市,市円行寺１３８番地,,28,224,6560461,,,2022-11-09,清算の結了等,,,2015-10-05,1,,,,,シーエイシー,0
485,2210001016492,登記記録の閉鎖等,0,2022-11-14,2022-11-09,セカンド・フィッティング株式会社,,株式会社,石川県,加賀市,三木町ニ１６番地１,,17,206,9220854,,,2022-11-09,清算の結了等,,,2016-10-05,1,,,,,セカンドフィッティング,0
517,2330001009146,登記記録の閉鎖等,0,2022-11-14,2022-11-08,株式会社九州だいいちコンフェクショナリ,,株式会社,熊本県,菊池郡大津町,大字大林字上尾迫１０５８番地,,43,403,8691219,,,2022-11-08,合併による解散等,4220001013256,令和４年１１月１日石川県加賀市梶井町１４１番地株式会社だいいちコンフェクショナリ（4220001013256）に合併し解散,2015-10-05,1,,,,,キュウシュウダイイチコンフェクショナリ,0
536,2420001017346,登記記録の閉鎖等,0,2022-11-14,2022-11-08,株式会社ＩＧ村上総建,,株式会社,青森県,八戸市,旭ケ丘４丁目１番２８号,,02,203,0310824,,,2022-11-08,清算の結了等,,,2021-03-08,1,,,,,アイジームラカミソウケン,0
548,2460302005038,登記記録の閉鎖等,0,2022-11-14,2022-11-07,有限会社服巻産業,,有限会社,北海道,斜里郡小清水町,字共和２５９番地の３,,01,547,0993612,,,2022-11-07,清算の結了等,,,2015-10-05,1,,,,,,0
578,3010401165108,登記記録の閉鎖等,0,2022-11-14,2022-10-31,株式会社アスパラントグループＳＰＣ１０号,,株式会社,東京都,港区,赤坂２丁目２３番１号,,13,103,1070052,,,2022-10-31,清算の結了等,,,2022-01-21,1,,,,,アスパラントグループエスピーシージュウゴウ,0
584,3010701012959,登記記録の閉鎖等,0,2022-11-14,2022-11-09,日本オルボテック株式会社,,株式会社,東京都,目黒区,青葉台４丁目７番７号,,13,110,1530042,,,2022-11-09,合併による解散等,6020001010379,令和４年１１月１日横浜市西区みなとみらい三丁目７番１号ＯＣＥＡＮＧＡＴＥＭＩＮＡＴＯＭＩＲＡＩケーエルエー・テンコール株式会社（6020001010379）に合併し解散,2015-10-05,1,,,,,ニホンオルボテック,0
590,3010801028954,登記記録の閉鎖等,0,2022-11-14,2022-11-02,リトス株式会社,,株式会社,北海道,札幌市西区,八軒三条西４丁目６番１号,,01,107,0630843,,,2022-11-02,清算の結了等,,,2018-06-29,1,,,,,リトス,0
602,3011001022624,登記記録の閉鎖等,0,2022-11-14,2022-11-04,株式会社ミチフラワー,,株式会社,東京都,渋谷区,松濤２丁目７番１号,,13,113,1500046,,,2022-11-04,清算の結了等,,,2015-10-05,1,,,,,ミチフラワー,0
629,3012402008559,登記記録の閉鎖等,0,2022-11-14,2022-11-09,有限会社エコテクノロジー,,有限会社,東京都,府中市,寿町１丁目１０番地の１府中マンション１０６,,13,206,1830056,,,2022-11-09,清算の結了等,,,2015-10-05,1,,,,,エコテクノロジー,0
633,3013102001408,登記記録の閉鎖等,0,2022-11-14,2022-11-09,有限会社浜田電機,,有限会社,東京都,福生市,武蔵野台１丁目２番地４,,13,218,1970013,,,2022-11-09,清算の結了等,,,2015-10-05,1,,,,,ハマダデンキ,0
634,3013201000863,登記記録の閉鎖等,0,2022-11-14,2022-11-02,株式会社エーユー一級建築士事務所,,株式会社,東京都,目黒区,青葉台１丁目２７番５号,,13,110,1530042,,,2022-11-02,清算の結了等,,,2015-10-05,1,,,,,エーユーイッキュウケンチクシジムショ,0
643,3020002083014,登記記録の閉鎖等,0,2022-11-14,2022-11-07,有限会社クロカワ印刷,,有限会社,神奈川県,川崎市中原区,中丸子５８２番地,,14,133,2110012,,,2022-11-07,清算の結了等,,,2015-10-05,1,,,,,クロカワインサツ,0
644,3020003004951,登記記録の閉鎖等,0,2022-11-14,2022-11-07,合同会社八百勝,,合同会社,神奈川県,横浜市西区,戸部町２丁目４０番地,,14,103,2200042,,,2022-11-07,清算の結了等,,,2015-10-05,1,,,,,ヤオカツ,0
646,3020003017615,登記記録の閉鎖等,0,2022-11-14,2022-11-07,合同会社ＫＥＮ,,合同会社,神奈川県,横浜市港南区,大久保３丁目３０番１号,,14,111,2330007,,,2022-11-07,清算の結了等,,,2020-04-08,1,,,,,ケーイーエヌ,0
660,3030001130996,登記記録の閉鎖等,0,2022-11-14,2022-11-07,株式会社ＲＥＩ－ＷＡハウス,,株式会社,埼玉県,上尾市,柏座２丁目４番２８号エリア赤熊３階,,11,219,3620075,,,2022-11-07,清算の結了等,,,2019-05-24,1,,,,,レイワハウス,0
695,3090002012263,登記記録の閉鎖等,0,2022-11-14,2022-11-08,有限会社中部配管,,有限会社,山梨県,南都留郡忍野村,忍草３４４８番地４,,19,424,4010511,,,2022-11-08,清算の結了等,,,2015-10-05,1,,,,,チュウブハイカン,0
732,3130001062478,登記記録の閉鎖等,0,2022-11-14,2022-11-07,株式会社プラットホームパートナーズ,,株式会社,京都府,京都市下京区,七条通新町西入夷之町６９８番地,,26,106,6008310,,,2022-11-07,清算の結了等,,,2018-07-09,1,,,,,プラットホームパートナーズ,0
745,3140002060991,登記記録の閉鎖等,0,2022-11-14,2022-11-09,有限会社山電サービス,,有限会社,兵庫県,西宮市,西宮浜４丁目８番３－３０４号,,28,204,6620934,,,2022-11-09,清算の結了等,,,2015-10-05,1,,,,,ヤマデンサービス,0
766,3190005005262,登記記録の閉鎖等,0,2022-11-14,2022-11-10,公益財団法人鳥羽市武道振興会,,その他の設立登記法人,三重県,鳥羽市,大明東町８番２号,,24,211,5170022,,,2022-11-10,清算の結了等,,,2015-10-05,1,,,,,トバシブドウシンコウカイ,0
769,3200002014909,登記記録の閉鎖等,0,2022-11-14,2022-11-11,有限会社八島,,有限会社,岐阜県,大垣市,八島町２４０４番地,,21,202,5030016,,,2022-11-11,清算の結了等,,,2015-10-05,1,,,,,ヤシマ,0
771,3220005008583,登記記録の閉鎖等,0,2022-11-14,2022-11-10,特定非営利活動法人石川県災害等支援車協会,,その他の設立登記法人,石川県,河北郡内灘町,字千鳥台３丁目５６番地,,17,365,9200277,,,2022-11-10,清算の結了等,,,2021-08-10,1,,,,,イシカワケンサイガイトウシエンシャキョウカイ,0
803,3320002001044,登記記録の閉鎖等,0,2022-11-14,2022-11-08,有限会社岩尾総合ビジネスサービス,,有限会社,大分県,大分市,大字光吉１４８０番地の５,,44,201,8701132,,,2022-11-08,清算の結了等,,,2015-10-05,1,,,,,イワオソウゴウビジネスサービス,0
807,3350003003607,登記記録の閉鎖等,0,2022-11-14,2022-11-08,合同会社季節料理かわの,,合同会社,宮崎県,宮崎市,千草町１番２２号,,45,201,8800006,,,2022-11-08,清算の結了等,,,2020-06-24,1,,,,,キセツリョウリカワノ,0
822,3380001014074,登記記録の閉鎖等,0,2022-11-14,2022-11-04,斉藤建材株式会社,,株式会社,福島県,いわき市,小名浜大原字甲新地１０４番地の９,,07,204,9718111,,,2022-11-04,清算の結了等,,,2015-10-05,1,,,,,サイトウケンザイ,0
828,3430001067629,登記記録の閉鎖等,0,2022-11-14,2022-11-10,ウェブリード株式会社,,株式会社,北海道,札幌市豊平区,平岸三条５丁目２－３５,,01,105,0620933,,,2022-11-10,清算の結了等,,,2015-10-05,1,,,,,ウェブリード,0
839,4010001076316,登記記録の閉鎖等,0,2022-11-14,2022-11-09,株式会社小室設計事務所,,株式会社,東京都,文京区,大塚６丁目１１番１９号,,13,105,1120012,,,2022-11-09,清算の結了等,,,2015-10-05,1,,,,,コムロセッケイジムショ,0
864,4010401139399,登記記録の閉鎖等,0,2022-11-14,2022-10-31,Ｍｉｚｕｈａｎａ株式会社,,株式会社,東京都,港区,赤坂２丁目１６番６号ＢＩＺＭＡＲＫＳ赤坂１階,,13,103,1070052,,,2022-10-31,清算の結了等,,,2018-07-06,1,,,,,ミズハナ,0
867,4010403025218,登記記録の閉鎖等,0,2022-11-14,2022-11-01,合同会社アールジェイ７号,,合同会社,東京都,港区,虎ノ門１丁目２番８号リニューアブル・ジャパン株式会社内,,13,103,1050001,,,2022-11-01,合併による解散等,1010403015188,令和４年１１月１日東京都港区虎ノ門一丁目２番８号リニューアブル・ジャパン株式会社内日本再生可能エネルギーオペレーター合同会社（1010403015188）に合併し解散,2021-04-30,1,,,,,アールジェイナナゴウ,0
908,4012302004236,登記記録の閉鎖等,0,2022-11-14,2022-11-04,有限会社文具ヒサマツ,,有限会社,東京都,町田市,南町田３丁目３８番３号,,13,209,1940005,,,2022-11-04,清算の結了等,,,2015-10-05,1,,,,,ブングヒサマツ,0
911,4012801018199,登記記録の閉鎖等,0,2022-11-14,2022-11-04,彩成建設株式会社,,株式会社,東京都,国立市,泉４丁目１４番地の４,,13,215,1860012,,,2022-11-04,清算の結了等,,,2017-08-14,1,,,,,サイセイケンセツ,0
937,4030001033851,登記記録の閉鎖等,0,2022-11-14,2022-11-04,株式会社柏木住設,,株式会社,埼玉県,久喜市,菖蒲町台２４４０番地４,,11,232,3460103,,,2022-11-04,清算の結了等,,,2015-10-05,1,,,,,カシワギジュウセツ,0
949,4030002118032,登記記録の閉鎖等,0,2022-11-14,2022-11-08,有限会社南郷自動車整備工場,,有限会社,埼玉県,行田市,大字下須戸１１１８番地２,,11,206,3610012,,,2022-11-08,清算の結了等,,,2015-10-05,1,,,,,ナンゴウジドウシャセイビコウジョウ,0
974,4070002027964,登記記録の閉鎖等,0,2022-11-14,2022-11-08,有限会社アルファ,,有限会社,群馬県,太田市,本町１７番３号,,10,205,3730057,,,2022-11-08,清算の結了等,,,2015-10-05,1,,,,,アルファ,0
976,4080001013907,登記記録の閉鎖等,0,2022-11-14,2022-11-10,株式会社アスカ,,株式会社,静岡県,榛原郡吉田町,住吉５４３１番地の１２９,,22,424,4210301,,,2022-11-10,清算の結了等,,,2015-10-05,1,,,,,アスカ,0
981,4080102006529,登記記録の閉鎖等,0,2022-11-14,2022-11-11,有限会社サンカルチャー,,有限会社,静岡県,裾野市,平松３６４番地の３,,22,220,4101127,,,2022-11-11,清算の結了等,,,2015-10-05,1,,,,,サンカルチャー,0
983,4100002023992,登記記録の閉鎖等,0,2022-11-14,2022-11-07,有限会社フタバテック,,有限会社,長野県,安曇野市,穂高有明４２５６番地１,,20,220,3998301,,,2022-11-07,清算の結了等,,,2015-10-05,1,,,,,フタバテック,0
986,4110002021756,登記記録の閉鎖等,0,2022-11-14,2022-11-10,有限会社丸松横山商店,,有限会社,新潟県,村上市,飯野１丁目６番２２号,,15,212,9580857,,,2022-11-10,清算の結了等,,,2015-10-05,1,,,,,,0
1006,4130001022794,登記記録の閉鎖等,0,2022-11-14,2022-11-02,株式会社宮崎,,株式会社,京都府,京都市中京区,夷川通堺町西入ル百足屋町第１３番戸,,26,104,6040000,,,2022-11-02,合併による解散等,6130001001994,令和４年１１月１日京都市中京区夷川通堺町西入る絹屋町１２９番地宮崎木材工業株式会社（6130001001994）に合併し解散,2015-10-05,1,,,,,ミヤザキ,0
1030,4170001009111,登記記録の閉鎖等,0,2022-11-14,2022-11-11,株式会社梨本商会,,株式会社,和歌山県,西牟婁郡白浜町,２６４６番地,,30,401,6492211,,,2022-11-11,清算の結了等,,,2015-10-05,1,,,,,ナシモトショウカイ,0
1031,4180001029141,登記記録の閉鎖等,0,2022-11-14,2022-11-08,株式会社愛韓商,,株式会社,愛知県,名古屋市中村区,亀島１丁目６番２号,,23,105,4530013,,,2022-11-08,清算の結了等,,,2015-10-05,1,,,,,アイカンショウ,0
1034,4180001068924,登記記録の閉鎖等,0,2022-11-14,2022-11-08,株式会社Ｋ・スリー,,株式会社,愛知県,名古屋市千種区,大島町３丁目５８番地,,23,101,4640833,,,2022-11-08,清算の結了等,,,2015-10-05,1,,,,,ケースリー,0
1038,4180001139106,登記記録の閉鎖等,0,2022-11-14,2022-11-07,株式会社シンフォテック,,株式会社,愛知県,瀬戸市,西本町１丁目１３,,23,204,4890819,,,2022-11-07,清算の結了等,,,2019-12-06,1,,,,,シンフォテック,0
1051,4220005007543,登記記録の閉鎖等,0,2022-11-14,2022-11-09,一般社団法人日本美容食育学会,,その他の設立登記法人,石川県,金沢市,荒屋１丁目８３番地１,,17,201,9203124,,,2022-11-09,清算の結了等,,,2015-10-05,1,,,,,ニホンビヨウショクイクガッカイ,0
1056,4240001025027,登記記録の閉鎖等,0,2022-11-14,2022-11-11,平和印刷株式会社,,株式会社,広島県,庄原市,板橋町３２４番地の７,,34,210,7270014,,,2022-11-11,清算の結了等,,,2015-10-05,1,,,,,ヘイワインサツ,0
1062,4240001060404,登記記録の閉鎖等,0,2022-11-14,2022-11-08,朝日ナショナル建材株式会社,,株式会社,広島県,福山市,卸町２番１６号,,34,207,7210954,,,2022-11-08,清算の結了等,,,2022-10-04,1,,,,,アサヒナショナルケンザイ,0
1071,4260001001240,登記記録の閉鎖等,0,2022-11-14,2022-11-10,株式会社岡山ねこしま,,株式会社,岡山県,岡山市南区,福田４７２番地１４,,33,104,7028021,,,2022-11-10,清算の結了等,,,2015-10-05,1,,,,,オカヤマネコシマ,0
1081,4290003010385,登記記録の閉鎖等,0,2022-11-14,2022-11-08,合同会社ピクセル,,合同会社,福岡県,大川市,大字小保２４３番地,,40,212,8310041,,,2022-11-08,合併による解散等,3010401127347,令和４年１１月１日東京都港区麻布台二丁目１番２－５０９号株式会社ＫＯＧＡ　ＨＯＬＤＩＮＧＳ（3010401127347）に合併し解散,2020-09-03,1,,,,,ピクセル,0
1094,4340003003706,登記記録の閉鎖等,0,2022-11-14,2022-11-11,合同会社Ｌｉｆｅ　Ｓｔａｇｅ,,合同会社,鹿児島県,鹿児島市,西田２丁目２０番８号山野ビル５０３,,46,201,8900046,,,2022-11-11,清算の結了等,,,2022-02-08,1,,,,,ライフステージ,0
1095,4350005005609,登記記録の閉鎖等,0,2022-11-14,2022-11-09,一般社団法人らしくサポート,,その他の設立登記法人,宮崎県,都城市,太郎坊町１６９０番地,,45,202,8850002,,,2022-11-09,清算の結了等,,,2016-07-04,1,,,,,ラシクサポート,0
1112,4400002009441,登記記録の閉鎖等,0,2022-11-14,2022-11-08,有限会社創和建築事務所,,有限会社,岩手県,北上市,北鬼柳２７地割４２番地１,,03,206,0240072,,,2022-11-08,清算の結了等,,,2015-10-05,1,,,,,ソウワケンチクジムショ,0
1127,4480001008932,登記記録の閉鎖等,0,2022-11-14,2022-11-08,株式会社Ｆｉｏ,,株式会社,徳島県,徳島市,応神町西貞方字鷹ノ橋２７番地４,,36,201,7711155,,,2022-11-08,清算の結了等,,,2015-10-05,1,,,,,フィオ,0
1161,5010402000617,登記記録の閉鎖等,0,2022-11-14,2022-10-31,有限会社アドバタイジングオフィス・プラス・アルファ,,有限会社,東京都,港区,六本木７丁目１１番１５号,,13,103,1060032,,,2022-10-31,清算の結了等,,,2015-10-05,1,,,,,アドバタイジングオフィスプラスアルファ,0
1162,5010402019772,登記記録の閉鎖等,0,2022-11-14,2022-11-02,有限会社リ・ヌード,,有限会社,東京都,港区,芝１丁目８番１７号,,13,103,1050014,,,2022-11-02,清算の結了等,,,2015-10-05,1,,,,,,0
1174,5011001142412,登記記録の閉鎖等,0,2022-11-14,2022-10-31,株式会社グリーン,,株式会社,東京都,港区,南青山２丁目２番１５号,,13,103,1070062,,,2022-10-31,清算の結了等,,,2021-08-23,1,,,,,グリーン,0
1185,5011301017074,登記記録の閉鎖等,0,2022-11-14,2022-11-02,株式会社建材カンパニー,,株式会社,東京都,渋谷区,代々木４丁目３０番５－５０１号,,13,113,1510053,,,2022-11-02,清算の結了等,,,2015-10-05,1,,,,,ケンザイカンパニー,0
1189,5011602000670,登記記録の閉鎖等,0,2022-11-14,2022-11-08,有限会社荒川そば店,,有限会社,東京都,練馬区,中村３丁目２０番５号,,13,120,1760024,,,2022-11-08,清算の結了等,,,2015-10-05,1,,,,,アラカワソバテン,0
1200,5013302006808,登記記録の閉鎖等,0,2022-11-14,2022-11-08,有限会社東京語学研究会,,有限会社,東京都,豊島区,上池袋２丁目３番５号,,13,116,1700012,,,2022-11-08,清算の結了等,,,2015-10-05,1,,,,,トウキョウゴガクケンキュウカイ,0
1243,5060001007356,登記記録の閉鎖等,0,2022-11-14,2022-11-07,ＧＬＫ株式会社,,株式会社,栃木県,宇都宮市,砥上町１０６６番地１,,09,201,3200856,,,2022-11-07,清算の結了等,,,2015-10-05,1,,,,,ジーエルケー,0
1257,5110005012248,登記記録の閉鎖等,0,2022-11-14,2022-11-07,特定非営利活動法人醸造の町摂田屋町おこしの会,,その他の設立登記法人,新潟県,長岡市,摂田屋４丁目８番１２号,,15,202,9401105,,,2022-11-07,清算の結了等,,,2015-10-05,1,,,,,ジョウゾウノマチセッタヤマチオコシノカイ,0
1258,5120001011938,登記記録の閉鎖等,0,2022-11-14,2022-11-08,オクノ株式会社,,株式会社,大阪府,大阪市東成区,東中本３丁目３番８号,,27,115,5370021,,,2022-11-08,清算の結了等,,,2015-10-05,1,,,,,オクノ,0
1268,5120001208518,登記記録の閉鎖等,0,2022-11-14,2022-11-09,株式会社ＫＩＺＵＮＡ,,株式会社,大阪府,大阪市旭区,中宮２丁目１５番８号マンション圭２０１,,27,117,5350003,,,2022-11-09,清算の結了等,,,2017-10-04,1,,,,,キズナ,0
1278,5120101058441,登記記録の閉鎖等,0,2022-11-14,2022-11-07,株式会社希望,,株式会社,大阪府,阪南市,石田２５４番地の７,,27,232,5990221,,,2022-11-07,清算の結了等,,,2018-07-05,1,,,,,ノゾミ,0
1298,5130005003468,登記記録の閉鎖等,0,2022-11-14,2022-11-01,京都装粧品裁縫雑貨協同組合,,その他の設立登記法人,京都府,京都市下京区,東洞院通松原下る樋之下町３７番地１１,,26,106,6008087,,,2022-11-01,清算の結了等,,,2015-10-05,1,,,,,キョウトソウショヒンサイホウザッカ,0
1316,5160002000597,登記記録の閉鎖等,0,2022-11-14,2022-11-11,有限会社銀河エンタープライズ,,有限会社,滋賀県,大津市,膳所２丁目１番３２号,,25,201,5200815,,,2022-11-11,清算の結了等,,,2015-10-05,1,,,,,ギンガエンタープライズ,0
1317,5170001010514,登記記録の閉鎖等,0,2022-11-14,2022-11-01,株式会社セイシン・マテリアル,,株式会社,和歌山県,御坊市,湯川町財部字東新田１０５７番２,,30,205,6440011,,,2022-11-01,合併による解散等,9170001013075,令和４年１１月１日和歌山県日高郡由良町大字里３７６番地の１０株式会社セイシン（9170001013075）に合併し解散,2015-10-05,1,,,,,セイシンマテリアル,0
1323,5180002041326,登記記録の閉鎖等,0,2022-11-14,2022-11-07,有限会社アバント,,有限会社,愛知県,名古屋市昭和区,福原町２丁目４２番地の１,,23,107,4660803,,,2022-11-07,清算の結了等,,,2015-10-05,1,,,,,アバント,0
1328,5190001026839,登記記録の閉鎖等,0,2022-11-14,2022-11-10,株式会社エーピーエムシー,,株式会社,三重県,松阪市,広陽町２２番地,,24,204,5150053,,,2022-11-10,清算の結了等,,,2019-10-28,1,,,,,エーピーエムシー,0
1331,5200002006763,登記記録の閉鎖等,0,2022-11-14,2022-11-11,株式会社加納,,株式会社,岐阜県,瑞穂市,馬場小城町２丁目５５番地,,21,216,5010205,,,2022-11-11,清算の結了等,,,2015-10-05,1,,,,,カノウ,0
1333,5210001003026,登記記録の閉鎖等,0,2022-11-14,2022-11-09,株式会社福井スイミングセンター,,株式会社,福井県,福井市,松本１丁目３４番１５号,,18,201,9100003,,,2022-11-09,清算の結了等,,,2015-10-05,1,,,,,フクイスイミングセンター,0
1345,5250002008813,登記記録の閉鎖等,0,2022-11-14,2022-11-04,共和機工有限会社,,有限会社,山口県,下関市,伊崎町２丁目１３番３４号,,35,201,7500065,,,2022-11-04,清算の結了等,,,2015-10-05,1,,,,,キョウワキコウ,0
1353,5290002006020,登記記録の閉鎖等,0,2022-11-14,2022-11-08,有限会社松島スチール加工センター,,有限会社,福岡県,福岡市東区,松島３丁目１０番１２号,,40,131,8130062,,,2022-11-08,清算の結了等,,,2015-10-05,1,,,,,マツシマスチールカコウセンター,0
1384,5420002003284,登記記録の閉鎖等,0,2022-11-14,2022-11-08,有限会社今別運輸,,有限会社,青森県,東津軽郡今別町,大字今別字中沢１７２番地,,02,303,0301502,,,2022-11-08,清算の結了等,,,2015-10-05,1,,,,,イマベツウンユ,0
1386,5430001023159,登記記録の閉鎖等,0,2022-11-14,2022-11-02,株式会社丸セ木下商店,,株式会社,北海道,札幌市中央区,北十一条西２１丁目３７４番地,,01,101,0600011,,,2022-11-02,清算の結了等,,,2015-10-05,1,,,,,マルセキノシタショウテン,0
1390,5440002003563,登記記録の閉鎖等,0,2022-11-14,2022-11-09,有限会社はせべ,,有限会社,北海道,函館市,湯川町１丁目３０番５号,,01,202,0420932,,,2022-11-09,清算の結了等,,,2015-10-05,1,,,,,ハセベ,0
1393,5460301000805,登記記録の閉鎖等,0,2022-11-14,2022-11-10,株式会社野付牛旅舘,,株式会社,北海道,北見市,北一条東１丁目８番地,,01,208,0900021,,,2022-11-10,清算の結了等,,,2015-10-05,1,,,,,ノッケウシリョカン,0
1428,6010402004278,登記記録の閉鎖等,0,2022-11-14,2022-10-31,有限会社グローリープラザ,,有限会社,東京都,港区,白金６丁目１５番１４－９０１号,,13,103,1080072,,,2022-10-31,清算の結了等,,,2015-10-05,1,,,,,グローリープラザ,0
1447,6010901043306,登記記録の閉鎖等,0,2022-11-14,2022-11-09,株式会社Ｙｅｎｃｅ,,株式会社,東京都,世田谷区,下馬２丁目２０番９号四ツ葉世田谷ビル３Ｆ,,13,112,1540002,,,2022-11-09,合併による解散等,9240001038478,令和４年１１月１日広島県尾道市美ノ郷町三成２６３８番地藤井製帽株式会社（9240001038478）に合併し解散,2018-12-18,1,,,,,イェンス,0
1471,6011401021628,登記記録の閉鎖等,0,2022-11-14,2022-11-09,株式会社シーパートナー,,株式会社,東京都,新宿区,袋町５番地１ＦＡＲＯ神楽坂１階,,13,104,1620828,,,2022-11-09,清算の結了等,,,2019-02-05,1,,,,,シーパートナー,0
1484,6020001024123,登記記録の閉鎖等,0,2022-11-14,2022-11-04,株式会社野田製材所,,株式会社,神奈川県,横浜市神奈川区,子安通１丁目２０２番地,,14,102,2210021,,,2022-11-04,清算の結了等,,,2015-10-05,1,,,,,ノダセイザイショ,0
1493,6021001069430,登記記録の閉鎖等,0,2022-11-14,2022-11-02,株式会社チームウルフ,,株式会社,神奈川県,海老名市,中央２丁目９番５０号海老名プライムタワー,,14,215,2430432,,,2022-11-02,合併による解散等,2021001056960,令和４年１１月１日神奈川県海老名市中央二丁目９番５０号海老名プライムタワー株式会社チームライク（2021001056960）に合併し解散,2020-03-04,1,,,,,チームウルフ,0
1504,6030001122578,登記記録の閉鎖等,0,2022-11-14,2022-11-07,株式会社エヌイー,,株式会社,埼玉県,川口市,大字石神１７２番地の２６,,11,203,3330823,,,2022-11-07,清算の結了等,,,2017-10-18,1,,,,,エヌイー,0
1523,6040005002180,登記記録の閉鎖等,0,2022-11-14,2022-11-02,特定非営利活動法人ひろ,,その他の設立登記法人,千葉県,千葉市花見川区,花園１丁目１７番地４号,,12,102,2620025,,,2022-11-02,清算の結了等,,,2015-10-05,1,,,,,ヒロ,0
1524,6040005005910,登記記録の閉鎖等,0,2022-11-14,2022-11-01,協同組合しちりん経営支援センター,,その他の設立登記法人,千葉県,流山市,南流山４丁目１６番地１８,,12,220,2700163,,,2022-11-01,清算の結了等,,,2015-10-05,1,,,,,シチリンケイエイシエンセンター,0
1544,6100003004511,登記記録の閉鎖等,0,2022-11-14,2022-11-11,安曇野興産合同会社,,合同会社,長野県,安曇野市,穂高北穂高１７５９番地８,,20,220,3998302,,,2022-11-11,清算の結了等,,,2016-09-28,1,,,,,アズミノコウサン,0
1563,6120002047369,登記記録の閉鎖等,0,2022-11-14,2022-11-07,有限会社レマンシューズ,,有限会社,大阪府,大阪市城東区,今福西２丁目９番１３号,,27,118,5360004,,,2022-11-07,清算の結了等,,,2015-10-05,1,,,,,レマンシューズ,0
1586,6140002028540,登記記録の閉鎖等,0,2022-11-14,2022-11-09,有限会社オーシャンメディカル,,有限会社,兵庫県,明石市,東朝霧丘２１番２６号,,28,203,6730854,,,2022-11-09,清算の結了等,,,2015-10-05,1,,,,,オーシャンメディカル,0
1598,6190001011831,登記記録の閉鎖等,0,2022-11-14,2022-11-10,株式会社三和,,株式会社,三重県,松阪市,嬉野中川新町３丁目６８番地３,,24,204,5152325,,,2022-11-10,清算の結了等,,,2015-10-05,1,,,,,サンワ,0
1599,6190001019577,登記記録の閉鎖等,0,2022-11-14,2022-11-08,株式会社住化ファーム三重,,株式会社,三重県,志摩市,磯部町迫間１６１９番地１,,24,215,5170214,,,2022-11-08,清算の結了等,,,2015-10-05,1,,,,,スミカファームミエ,0
1600,6190001023629,登記記録の閉鎖等,0,2022-11-14,2022-11-08,株式会社Ｙａｍａｓｕｎ　Ｈｏｍｅ,,株式会社,三重県,志摩市,阿児町鵜方３０１６番地６,,24,215,5170501,,,2022-11-08,清算の結了等,,,2016-05-11,1,,,,,ヤマサンホーム,0
1602,6210002007628,登記記録の閉鎖等,0,2022-11-14,2022-11-07,有限会社藤嶋食品,,有限会社,福井県,あわら市,二面３３号２番地３,,18,208,9104103,,,2022-11-07,清算の結了等,,,2015-10-05,1,,,,,フジジマショクヒン,0
1631,6320002014241,登記記録の閉鎖等,0,2022-11-14,2022-11-10,有限会社うるしま,,有限会社,大分県,宇佐市,安心院町下毛２０５５番地の３,,44,211,8720521,,,2022-11-10,清算の結了等,,,2015-10-05,1,,,,,ウルシマ,0
1637,6340002022432,登記記録の閉鎖等,0,2022-11-14,2022-11-07,有限会社坂上商会,,有限会社,鹿児島県,阿久根市,本町１５１番地２,,46,206,8991621,,,2022-11-07,清算の結了等,,,2015-10-05,1,,,,,サカウエショウカイ,0
1639,6370003005607,登記記録の閉鎖等,0,2022-11-14,2022-11-04,ａｋｍ合同会社,,合同会社,宮城県,仙台市青葉区,一番町２丁目２番８号ＩＫＩビル１０Ｆ,,04,101,9800811,,,2022-11-04,清算の結了等,,,2022-03-03,1,,,,,エーケーエム,0
1643,6380002012628,登記記録の閉鎖等,0,2022-11-14,2022-11-07,有限会社宗像工匠店,,有限会社,福島県,郡山市,深沢２丁目９番２号,,07,203,9638874,,,2022-11-07,清算の結了等,,,2015-10-05,1,,,,,ムナカタコウショウテン,0
1653,6470001007207,登記記録の閉鎖等,0,2022-11-14,2022-11-08,株式会社ＩＳコミュニケーションズ,,株式会社,香川県,高松市,松島町２丁目１４番地６号進成ビル２Ｆ,,37,201,7600068,,,2022-11-08,合併による解散等,1100002022428,令和４年１１月１日長野県松本市波田２０１６番地１中信土木株式会社（1100002022428）に合併し解散,2015-10-05,1,,,,,アイエスコミュニケーションズ,0
1658,6500005006878,登記記録の閉鎖等,0,2022-11-14,2022-11-09,ＮＰＯ法人自遊楽校あるここ,,その他の設立登記法人,愛媛県,西条市,氷見丙６７番地６,,38,206,7930073,,,2022-11-09,清算の結了等,,,2015-10-05,1,,,,,ジユウガッコウアルココ,0
1668,7010002008819,登記記録の閉鎖等,0,2022-11-14,2022-11-04,有限会社カイ編集舎,,有限会社,東京都,渋谷区,西原３丁目２番２号,,13,113,1510066,,,2022-11-04,清算の結了等,,,2015-10-05,1,,,,,カイヘンシュウシャ,0
1680,7010401061204,登記記録の閉鎖等,0,2022-11-14,2022-10-31,三井倉庫ＮＥＡ株式会社,,株式会社,東京都,港区,西新橋３丁目２０番１号,,13,103,1050003,,,2022-10-31,清算の結了等,,,2015-10-05,1,,,,,ミツイソウコエヌイーエー,0
1686,7010403016032,登記記録の閉鎖等,0,2022-11-14,2022-10-31,合同会社Ｓｋｙｅ,,合同会社,東京都,港区,浜松町２丁目２番１５号,,13,103,1050013,,,2022-10-31,合併による解散等,4010403014807,令和４年１０月３１日東京都港区浜松町二丁目２番１５号ＫＥＩ企画合同会社（4010403014807）に合併し解散,2017-01-30,1,,,,,スカイ,0
1692,7010501035660,登記記録の閉鎖等,0,2022-11-14,2022-11-10,ふわもこ株式会社,,株式会社,東京都,台東区,浅草橋１丁目２６番５－１００２号アーデン浅草橋,,13,106,1110053,,,2022-11-10,合併による解散等,6011001066651,令和４年１０月２０日東京都港区芝二丁目３番９号ＶＯＲＴ芝公園ＩＩ２階株式会社シオン（6011001066651）に合併し解散,2015-10-05,1,,,,,フワモコ,0
1698,7011001114228,登記記録の閉鎖等,0,2022-11-14,2022-11-04,ａｎｄ　ＢＥＳＴ株式会社,,株式会社,東京都,渋谷区,千駄ヶ谷３丁目３番８号第５スカイビル２Ｆ,,13,113,1510051,,,2022-11-04,清算の結了等,,,2016-12-27,1,,,,,アンドベスト,0
1719,7011701024098,登記記録の閉鎖等,0,2022-11-14,2022-11-10,株式会社三国ＪＡＰＡＮ,,株式会社,東京都,江戸川区,南葛西６丁目１３番１４号,,13,123,1340085,,,2022-11-10,清算の結了等,,,2021-02-08,1,,,,,サンゴクジャパン,0
1752,7030005017955,登記記録の閉鎖等,0,2022-11-14,2022-11-07,特定非営利活動法人公衆衛生活動研究会,,その他の設立登記法人,埼玉県,さいたま市中央区,上落合３丁目１０番２－１０２号,,11,105,3380001,,,2022-11-07,清算の結了等,,,2016-04-27,1,,,,,コウシュウエイセイカツドウケンキュウカイ,0
1769,7050005009249,登記記録の閉鎖等,0,2022-11-14,2022-10-04,特定非営利活動法人移動サポートらくらく,,その他の設立登記法人,茨城県,牛久市,岡見町９７２番地の２８,,08,219,3001204,,,2022-10-04,清算の結了等,,,2015-10-05,1,,,,,イドウサポートラクラク,0
1796,7120002016323,登記記録の閉鎖等,0,2022-11-14,2022-11-10,有限会社北加賀屋松寿司,,有限会社,大阪府,大阪市住之江区,北加賀屋１丁目１０番４号,,27,125,5590011,,,2022-11-10,清算の結了等,,,2015-10-05,1,,,,,キタカガヤマツズシ,0
1830,7140002063990,登記記録の閉鎖等,0,2022-11-14,2022-11-09,有限会社北攝マンション,,有限会社,兵庫県,伊丹市,中野北１丁目１番２４号,,28,207,6640029,,,2022-11-09,清算の結了等,,,2015-10-05,1,,,,,ホクセツマンション,0
1836,7150001017559,登記記録の閉鎖等,0,2022-11-14,2022-11-11,Ｉ・Ｂテクノ株式会社,,株式会社,奈良県,生駒市,南田原町１１１３番地７,,29,209,6300135,,,2022-11-11,清算の結了等,,,2015-10-05,1,,,,,アイビーテクノ,0
1871,7290001080205,登記記録の閉鎖等,0,2022-11-14,2022-11-09,株式会社エフォート,,株式会社,福岡県,福岡市南区,横手４丁目１２番８号,,40,134,8111311,,,2022-11-09,清算の結了等,,,2018-01-12,1,,,,,エフォート,0
1915,8010001181228,登記記録の閉鎖等,0,2022-11-14,2022-11-10,株式会社コスモス,,株式会社,東京都,文京区,湯島３丁目１２番１号,,13,105,1130034,,,2022-11-10,合併による解散等,5011101084736,令和４年１１月１日東京都墨田区石原三丁目２番３号株式会社エフエヌリパブリックジャパン（5011101084736）に合併し解散,2017-02-08,1,,,,,コスモス,0
1921,8010003029103,登記記録の閉鎖等,0,2022-11-14,2022-11-08,合同会社ドリーム・ＤＲＩ・マディソン,,合同会社,東京都,千代田区,丸の内３丁目１番１号東京共同会計事務所内,,13,101,1000005,,,2022-11-08,清算の結了等,,,2019-01-22,1,,,,,ドリームディーアールアイマディソン,0
1929,8010401109737,登記記録の閉鎖等,0,2022-11-14,2022-11-02,チケットエクスペリエンス株式会社,,株式会社,東京都,渋谷区,桜丘町２６－１セルリアンタワー１５階,,13,113,1500031,,,2022-11-02,清算の結了等,,,2015-10-05,1,,,,,チケットエクスペリエンス,0
1930,8010401117896,登記記録の閉鎖等,0,2022-11-14,2022-11-07,株式会社日本中央相談会,,株式会社,東京都,千代田区,平河町２丁目８番１０号,,13,101,1020093,,,2022-11-07,清算の結了等,,,2015-10-05,1,,,,,ニホンチュウオウソウダンカイ,0
1932,8010401130049,登記記録の閉鎖等,0,2022-11-14,2022-10-31,株式会社ジャパン・ダイニング・ポータリー,,株式会社,東京都,港区,西麻布１丁目８番１２号,,13,103,1060031,,,2022-10-31,合併による解散等,7010401102651,令和４年１０月３１日東京都港区西麻布一丁目８番１２号株式会社マイスタヴェルク・ホールディングス（7010401102651）に合併し解散,2017-03-13,1,,,,,ジャパンダイニングポータリー,0
1938,8010403010876,登記記録の閉鎖等,0,2022-11-14,2022-11-09,ななここキッズ合同会社,,合同会社,東京都,港区,南青山２丁目２番１５号ウィン青山１３０２,,13,103,1070062,,,2022-11-09,清算の結了等,,,2015-10-05,1,,,,,ナナココキッズ,0
1996,8020001137237,登記記録の閉鎖等,0,2022-11-14,2022-11-07,株式会社ＴＳカンパニー,,株式会社,神奈川県,横浜市瀬谷区,本郷１丁目５５番地７８,,14,114,2460015,,,2022-11-07,清算の結了等,,,2020-08-12,1,,,,,ティエスカンパニー,0
2007,8021002025447,登記記録の閉鎖等,0,2022-11-14,2022-11-09,有限会社和興工業,,有限会社,神奈川県,相模原市中央区,相模原１丁目７番８号,,14,152,2520231,,,2022-11-09,清算の結了等,,,2015-10-05,1,,,,,ワコウコウギョウ,0
2010,8030001023469,登記記録の閉鎖等,0,2022-11-14,2022-11-04,株式会社ケースリー,,株式会社,埼玉県,久喜市,南栗橋４丁目２９番２,,11,232,3491117,,,2022-11-04,清算の結了等,,,2015-10-05,1,,,,,ケースリー,0
2011,8030001063523,登記記録の閉鎖等,0,2022-11-14,2022-11-07,株式会社池田フーズ,,株式会社,埼玉県,越谷市,宮本町２丁目２４６番地１,,11,222,3430806,,,2022-11-07,清算の結了等,,,2015-10-05,1,,,,,イケダフーズ,0
2014,8030001134902,登記記録の閉鎖等,0,2022-11-14,2022-11-04,株式会社ＡＲＵＹＯ,,株式会社,埼玉県,さいたま市浦和区,岸町４丁目２６番１－１６０４号,,11,107,3300064,,,2022-11-04,清算の結了等,,,2020-01-28,1,,,,,アルヨ,0
2023,8030002093123,登記記録の閉鎖等,0,2022-11-14,2022-11-07,有限会社アドバイザー,,有限会社,埼玉県,鶴ヶ島市,富士見２丁目１０番１１号,,11,241,3502201,,,2022-11-07,清算の結了等,,,2015-10-05,1,,,,,アドバイザー,0
2032,8040001101059,登記記録の閉鎖等,0,2022-11-14,2022-11-02,株式会社コーパ,,株式会社,千葉県,松戸市,中金杉３丁目２０７番地,,12,207,2700007,,,2022-11-02,清算の結了等,,,2017-07-21,1,,,,,コーパ,0
2037,8040002093386,登記記録の閉鎖等,0,2022-11-14,2022-11-02,有限会社川又塗装,,有限会社,千葉県,柏市,藤ケ谷５１８番地２１,,12,217,2770931,,,2022-11-02,清算の結了等,,,2015-10-05,1,,,,,カワマタトソウ,0
2047,8060002022070,登記記録の閉鎖等,0,2022-11-14,2022-11-07,有限会社加藤住建,,有限会社,栃木県,那須塩原市,青木字大輪地原５０６番地３,,09,213,3250103,,,2022-11-07,清算の結了等,,,2015-10-05,1,,,,,,0
2095,8140001068544,登記記録の閉鎖等,0,2022-11-14,2022-11-10,株式会社グリーンアルファ,,株式会社,大阪府,大阪市中央区,上本町西５丁目３番１６号,,27,128,5420062,,,2022-11-10,清算の結了等,,,2015-10-05,1,,,,,グリーンアルファ,0
2108,8180003020136,登記記録の閉鎖等,0,2022-11-14,2022-11-08,合同会社Ｆｕｔｕｒｅ　Ｄｒｅａｍｓ,,合同会社,愛知県,名古屋市名東区,名東本通５丁目２３番地,,23,115,4650087,,,2022-11-08,清算の結了等,,,2019-07-02,1,,,,,フューチャードリームズ,0
2112,8190005006669,登記記録の閉鎖等,0,2022-11-14,2022-11-10,南勢酪農業協同組合,,その他の設立登記法人,三重県,松阪市,美濃田町１０４５番地２,,24,204,5152344,,,2022-11-10,清算の結了等,,,2015-10-05,1,,,,,ナンセイラク,0
2122,8250003002779,登記記録の閉鎖等,0,2022-11-14,2022-11-08,寛道工房合同会社,,合同会社,福岡県,福岡市中央区,天神２丁目３番１０号天神パインクレスト７１９号,,40,133,8100001,,,2022-11-08,清算の結了等,,,2021-02-24,1,,,,,カンドウコウボウ,0
2131,8290002028425,登記記録の閉鎖等,0,2022-11-14,2022-11-08,有限会社ライフ・ライツ,,有限会社,福岡県,福岡市博多区,博多駅前３丁目３０番１５－３０４号,,40,132,8120011,,,2022-11-08,清算の結了等,,,2015-10-05,1,,,,,ライフライツ,0
2138,8320002004570,登記記録の閉鎖等,0,2022-11-14,2022-11-10,ツルキ商事有限会社,,有限会社,大分県,大分市,横塚２丁目７番３号,,44,201,8700254,,,2022-11-10,清算の結了等,,,2015-10-05,1,,,,,ツルキショウジ,0
2141,8330005005887,登記記録の閉鎖等,0,2022-11-14,2022-11-07,八代市土地開発公社,,その他の設立登記法人,熊本県,八代市,松江城町１番２５号,,43,202,8660862,,,2022-11-07,清算の結了等,,,2015-10-05,1,,,,,ヤツシロシトシカイハツコウシャ,0
2154,8400001013267,登記記録の閉鎖等,0,2022-11-14,2022-11-10,カルミア株式会社,,株式会社,岩手県,盛岡市,大新町９番３９号,,03,201,0200135,,,2022-11-10,清算の結了等,,,2016-07-06,1,,,,,カルミア,0
2159,8430001041661,登記記録の閉鎖等,0,2022-11-14,2022-10-31,セレッソホーム株式会社,,株式会社,北海道,札幌市西区,山の手四条１丁目１番１号,,01,107,0630004,,,2022-10-31,清算の結了等,,,2015-10-05,1,,,,,セレッソホーム,0
2161,8430002016084,登記記録の閉鎖等,0,2022-11-14,2022-11-07,有限会社原大野建築設計事務所,,有限会社,北海道,札幌市中央区,南十四条西１１丁目２番１２号,,01,101,0640914,,,2022-11-07,清算の結了等,,,2015-10-05,1,,,,,ハラオオノケンチクセッケイジムショ,0
2212,9010801031052,登記記録の閉鎖等,0,2022-11-14,2022-11-02,アセアンヒューマンリソース株式会社,,株式会社,東京都,大田区,中央１丁目８番１号,,13,111,1430024,,,2022-11-02,清算の結了等,,,2020-07-20,1,,,,,アセアンヒューマンリソース,0
2260,9020001053350,登記記録の閉鎖等,0,2022-11-14,2022-11-01,株式会社エム・エス・シー,,株式会社,神奈川県,横浜市神奈川区,鶴屋町３丁目３２番１４号新港ビル７０６,,14,102,2210835,,,2022-11-01,清算の結了等,,,2015-10-05,1,,,,,エムエスシー,0
2278,9030001081920,登記記録の閉鎖等,0,2022-11-14,2022-11-01,株式会社エンテック,,株式会社,埼玉県,川口市,川口５丁目１０番１５－２０２号アルス川口５丁目壱番館,,11,203,3320015,,,2022-11-01,清算の結了等,,,2015-10-05,1,,,,,エンテック,0
2279,9030001085500,登記記録の閉鎖等,0,2022-11-14,2022-11-07,株式会社東京鋲兼熊谷製作所,,株式会社,埼玉県,熊谷市,押切２６３７番地の１,,11,202,3600111,,,2022-11-07,清算の結了等,,,2015-10-05,1,,,,,トウキョウビョウカネクマガヤセイサクショ,0
2289,9030002114431,登記記録の閉鎖等,0,2022-11-14,2022-11-04,有限会社吉村商店,00017948,有限会社,埼玉県,熊谷市,鎌倉町２番地,,11,202,3600046,,,2022-11-04,清算の結了等,,,2015-10-05,1,,,,,ヨシムラショウテン,0
2305,9070001022788,登記記録の閉鎖等,0,2022-11-14,2022-11-07,環境化学株式会社,,株式会社,群馬県,太田市,龍舞町１９２０番地３,,10,205,3730806,,,2022-11-07,清算の結了等,,,2015-10-05,1,,,,,カンキョウカガク,0
2316,9080002011871,登記記録の閉鎖等,0,2022-11-14,2022-11-11,有限会社プランＦ,,有限会社,静岡県,静岡市葵区,水落町７番１６号,,22,101,4200831,,,2022-11-11,清算の結了等,,,2015-10-05,1,,,,,プランエフ,0
2343,9120103000190,登記記録の閉鎖等,0,2022-11-14,2022-11-10,合資会社フジデン,,合資会社,大阪府,堺市堺区,緑町１丁１５番地,,27,141,5900907,,,2022-11-10,清算の結了等,,,2015-10-05,1,,,,,フジデン,0
2416,9290003009910,登記記録の閉鎖等,0,2022-11-14,2022-11-08,合同会社ｈｉｇｈ　ｒｏａｄ,,合同会社,福岡県,福岡市中央区,渡辺通５丁目９番２号,,40,133,8100004,,,2022-11-08,清算の結了等,,,2020-04-07,1,,,,,ハイロード,0
