sequenceNumber,corporateNumber,process,correct,updateDate,changeDate,name,nameImageId,kind,prefectureName,cityName,streetNumber,addressImageId,prefectureCode,cityCode,postCode,addressOutside,addressOutsideImageId,closeDate,closeCause,successorCorporateNumber,changeCause,assignmentDate,latest,enName,enPrefectureName,enCityName,enAddressOutside,furigana,hihyoji
17,1010003039281,新規,0,2022-12-13,2022-12-13,合同会社清晨堂,,合同会社,東京都,文京区,根津２丁目３７番１１号,,13,105,1130031,,,,,,,2022-12-13,1,,,,,セイシンドウ,0
21,1010005035898,新規,0,2022-12-13,2022-12-13,一般社団法人視覚芸術振興協議会,,その他の設立登記法人,東京都,中央区,日本橋人形町２丁目８番１１号友高ビル３階,,13,102,1030013,,,,,,,2022-12-13,1,,,,,シカクゲイジュツシンコウキョウギカイ,0
22,1010005035907,新規,0,2022-12-13,2022-12-13,一般社団法人ながみね,,その他の設立登記法人,東京都,千代田区,丸の内３丁目１番１号東京共同会計事務所内,,13,101,1000005,,,,,,,2022-12-13,1,,,,,ナガミネ,0
29,1010401171306,新規,0,2022-12-13,2022-12-13,株式会社ＴｈｅＭＯＶＥ,,株式会社,東京都,港区,南青山２丁目２番１５号,,13,103,1070062,,,,,,,2022-12-13,1,,,,,ザムーヴ,0
30,1010401171314,新規,0,2022-12-13,2022-12-13,普因株式会社,,株式会社,東京都,港区,三田１丁目３－４０－７０３号室,,13,103,1080073,,,,,,,2022-12-13,1,,,,,フイン,0
31,1010401171330,新規,0,2022-12-13,2022-12-13,Ａｐｏｐｔｏｓｉｓ株式会社,,株式会社,東京都,港区,西麻布４丁目２１－２コートヤードＨＩＲＯＯ１Ａ,,13,103,1060031,,,,,,,2022-12-13,1,,,,,アポトーシス,0
32,1010403029139,新規,0,2022-12-13,2022-12-13,合同会社ＡＦＲＡ　ＳＨＩＢＵＹＡ,,合同会社,東京都,港区,虎ノ門３丁目２２番１０－２０１号,,13,103,1050001,,,,,,,2022-12-13,1,,,,,エーエフアールエーシブヤ,0
33,1010405021671,新規,0,2022-12-13,2022-12-13,一般社団法人介護美容療法協会,,その他の設立登記法人,東京都,港区,西麻布２丁目２１番８号,,13,103,1060031,,,,,,,2022-12-13,1,,,,,カイゴビヨウリョウホウキョウカイ,0
38,1010501049724,新規,0,2022-12-13,2022-12-13,鴻帷株式会社,,株式会社,東京都,台東区,上野６丁目７－１６ＩＮＣＯｆｆｉｃｅＵｅｎｏ７０７号室,,13,106,1100005,,,,,,,2022-12-13,1,,,,,コウトバリ,0
48,1010601062288,新規,0,2022-12-13,2022-12-13,株式会社ＢｌｉｎｋＸ,,株式会社,東京都,江東区,亀戸９丁目３４番１－１４０４号,,13,108,1360071,,,,,,,2022-12-13,1,,,,,ブリンクエックス,0
51,1010801033510,新規,0,2022-12-13,2022-12-13,株式会社まとい,,株式会社,東京都,大田区,北千束３丁目２０番６号,,13,111,1450062,,,,,,,2022-12-13,1,,,,,マトイ,0
64,1011001151391,新規,0,2022-12-13,2022-12-13,３コリーネ株式会社,,株式会社,東京都,渋谷区,恵比寿１丁目１９－１９,,13,113,1500013,,,,,,,2022-12-13,1,,,,,サンコリーネ,0
65,1011001151409,新規,0,2022-12-13,2022-12-13,株式会社ＤＮＤＮ,,株式会社,東京都,目黒区,上目黒２丁目３７－２,,13,110,1530051,,,,,,,2022-12-13,1,,,,,ディーエヌディーエヌ,0
66,1011001151474,新規,0,2022-12-13,2022-12-13,株式会社グラディート,,株式会社,東京都,渋谷区,神宮前６丁目２３番４号桑野ビル２階,,13,113,1500001,,,,,,,2022-12-13,1,,,,,グラディート,0
73,1011203003960,新規,0,2022-12-13,2022-12-13,合同会社ＳＵＮ　ＣＲＥＡＴＥ,,合同会社,東京都,中野区,弥生町２丁目２２番１号,,13,114,1640013,,,,,,,2022-12-13,1,,,,,サンクリエイト,0
77,1011501028750,新規,0,2022-12-13,2022-12-13,ＧＬ株式会社,,株式会社,東京都,北区,十条仲原１丁目３番５－２０５号,,13,117,1140031,,,,,,,2022-12-13,1,,,,,ジーエル,0
78,1011701025853,新規,0,2022-12-13,2022-12-13,株式会社Ｏｓｃａｒ　Ｃａｐｉｔａｌ,,株式会社,東京都,江戸川区,松島１丁目１番１０号,,13,123,1320031,,,,,,,2022-12-13,1,,,,,オスカーキャピタル,0
82,1011801041668,新規,0,2022-12-13,2022-12-13,京麗貿株式会社,,株式会社,東京都,葛飾区,亀有３丁目１３番２－６０１号,,13,122,1250061,,,,,,,2022-12-13,1,,,,,キョウレイボウ,0
83,1012401039961,新規,0,2022-12-13,2022-12-13,株式会社ＡＣＴ・２,,株式会社,東京都,府中市,小柳町５丁目９番地の３７,,13,206,1830013,,,,,,,2022-12-13,1,,,,,アクトツー,0
94,1020003022889,新規,0,2022-12-13,2022-12-13,合同会社クラウド,,合同会社,神奈川県,横浜市港南区,上大岡西１丁目１４番３号１Ｆ,,14,111,2330002,,,,,,,2022-12-13,1,,,,,クラウド,0
100,1021005012688,新規,0,2022-12-13,2022-12-13,ＮＰＯ法人Ｆｌｙｉｎｇ　ｔｏ　ｔｈｅ　Ｆｕｔｕｒｅ,,その他の設立登記法人,神奈川県,横須賀市,長瀬１丁目１番２－１０７号,,14,201,2390826,,,,,,,2022-12-13,1,,,,,フライングトゥザフューチャー,0
118,1040001126194,新規,0,2022-12-13,2022-12-13,株式会社アンドオフィス,,株式会社,千葉県,千葉市中央区,富士見２丁目７番９号富士見ビル６０９号,,12,101,2600015,,,,,,,2022-12-13,1,,,,,アンドオフィス,0
124,1060001035526,新規,0,2022-12-13,2022-12-13,株式会社二基,,株式会社,栃木県,宇都宮市,陽東８丁目１８番２７号,,09,201,3210904,,,,,,,2022-12-13,1,,,,,ニキ,0
129,1080003002910,新規,0,2022-12-13,2022-12-13,合同会社アーサンシェル,,合同会社,静岡県,静岡市清水区,石川本町３番１１号,,22,103,4240006,,,,,,,2022-12-13,1,,,,,アーサンシェル,0
130,1080103002703,新規,0,2022-12-13,2022-12-13,合同会社ＴＭＴ,,合同会社,静岡県,沼津市,下香貫林ノ下２０３２番地の９,,22,203,4100822,,,,,,,2022-12-13,1,,,,,ティーエムティー,0
137,1100001035959,新規,0,2022-12-13,2022-12-13,株式会社セカンドファミリー,,株式会社,長野県,上高井郡高山村,大字中山１３７０番地７,,20,543,3820800,,,,,,,2022-12-13,1,,,,,セカンドファミリー,0
140,1110001037178,新規,0,2022-12-13,2022-12-13,株式会社建築工房太一,,株式会社,新潟県,柏崎市,大字堀１３９４番地２３,,15,205,9451111,,,,,,,2022-12-13,1,,,,,ケンチクコウボウタイチ,0
155,1120001250944,新規,0,2022-12-13,2022-12-13,珈堯株式会社,00128776,株式会社,大阪府,大阪市東住吉区,鷹合４丁目２１番１６号１Ｆ－Ｃ,,27,121,5460014,,,,,,,2022-12-13,1,,,,,カギョウ,0
159,1120003023068,新規,0,2022-12-13,2022-12-13,合同会社ゆいまーるイノベーション,,合同会社,大阪府,枚方市,岡本町７番１号,,27,210,5730031,,,,,,,2022-12-13,1,,,,,ユイマールイノベーション,0
166,1120901046863,新規,0,2022-12-13,2022-12-13,ＴＡＦコンサルティング株式会社,,株式会社,大阪府,池田市,住吉１丁目８番２４号,,27,204,5630033,,,,,,,2022-12-13,1,,,,,タフコンサルティング,0
168,1122001036489,新規,0,2022-12-13,2022-12-13,株式会社Ｌｉｑｕｏｒ　Ｊａｐａｎ,,株式会社,大阪府,東大阪市,岸田堂西１丁目６番２１号,,27,227,5770848,,,,,,,2022-12-13,1,,,,,リカージャパン,0
179,1140001128354,新規,0,2022-12-13,2022-12-13,株式会社Ｂ‐Ｔｈｉｎｋ,,株式会社,兵庫県,神戸市中央区,磯上通４丁目１－１４三宮スカイビル７Ｆ１２０ＷＯＲＫＰＬＡＣＥＫＯＢＥ,,28,110,6510086,,,,,,,2022-12-13,1,,,,,ビーシンク,0
180,1140003018446,新規,0,2022-12-13,2022-12-13,合同会社ＬＥＡＶＥＳ,,合同会社,兵庫県,尼崎市,大庄中通２丁目３４番地の１０,,28,202,6600075,,,,,,,2022-12-13,1,,,,,リーブス,0
181,1140003018454,新規,0,2022-12-13,2022-12-13,合同会社ＨＯＵＳＥＩ,,合同会社,兵庫県,西宮市,高座町９番１６号,,28,204,6620872,,,,,,,2022-12-13,1,,,,,ホウセイ,0
184,1150001001130,新規,0,2022-12-13,2022-12-13,生化工業株式会社,,株式会社,奈良県,奈良市,西木辻町１２３番地,00128700,29,201,6308325,,,,,,,2022-12-13,1,,,,,セイカコウギョウ,0
201,1190001030027,新規,0,2022-12-13,2022-12-13,三東電設株式会社,,株式会社,三重県,松阪市,田原町６２番地１８,,24,204,5150032,,,,,,,2022-12-13,1,,,,,サントウデンセツ,0
204,1190003004169,新規,0,2022-12-13,2022-12-13,合同会社北,,合同会社,三重県,松阪市,嬉野黒野町９１７番地,,24,204,5152334,,,,,,,2022-12-13,1,,,,,キタ,0
210,1210001019182,新規,0,2022-12-13,2022-12-13,株式会社リステック,,株式会社,福井県,鯖江市,吉江町第１３号８番地１０,,18,207,9160001,,,,,,,2022-12-13,1,,,,,リステック,0
211,1210005010071,新規,0,2022-12-13,2022-12-13,一般社団法人青空,,その他の設立登記法人,福井県,敦賀市,津内町２丁目１０番３１号,,18,202,9140056,,,,,,,2022-12-13,1,,,,,アオゾラ,0
218,1250001019880,新規,0,2022-12-13,2022-12-13,ＩＮＦＩＮＩＴＹ　ＭＡＲＩＴＩＭＥ株式会社,,株式会社,山口県,熊毛郡平生町,大字平生町５６８番地３１,,35,344,7421101,,,,,,,2022-12-13,1,,,,,インフィニティマリタイム,0
223,1260001037469,新規,0,2022-12-13,2022-12-13,あさひ未来プロジェクト株式会社,,株式会社,岡山県,久米郡美咲町,北１９３７番地,,33,666,7093401,,,,,,,2022-12-13,1,,,,,アサヒミライプロジェクト,0
224,1260001037485,新規,0,2022-12-13,2022-12-13,株式会社Ｎｅｘｔ,,株式会社,岡山県,倉敷市,昭和１丁目３番３５－１４０３号,,33,202,7100057,,,,,,,2022-12-13,1,,,,,ネクスト,0
228,1290001099861,新規,0,2022-12-13,2022-12-13,株式会社ＤＭＮホールディングス,,株式会社,福岡県,福岡市東区,馬出１丁目１３番９号,,40,131,8120054,,,,,,,2022-12-13,1,,,,,ディーエムエヌホールディングス,0
229,1290001099894,新規,0,2022-12-13,2022-12-13,株式会社Ａ’ｔｒｕｓ,,株式会社,福岡県,福岡市早良区,田村５丁目２０番１１号,,40,137,8140175,,,,,,,2022-12-13,1,,,,,アトラス,0
230,1290001099911,新規,0,2022-12-13,2022-12-13,株式会社Ｈ　Ｂｒａｎｄｉｎｇ　Ｗｏｒｋｓ,,株式会社,福岡県,福岡市中央区,白金１丁目１８番３７,,40,133,8100012,,,,,,,2022-12-13,1,,,,,エイチブランディングワークス,0
231,1290003013309,新規,0,2022-12-13,2022-12-13,ＶＩＰ合同会社,,合同会社,福岡県,福岡市南区,玉川町５番４号,,40,134,8150037,,,,,,,2022-12-13,1,,,,,ブイアイピー,0
233,1290801029118,新規,0,2022-12-13,2022-12-13,株式会社九宝,,株式会社,福岡県,北九州市戸畑区,幸町６番３号,,40,105,8040084,,,,,,,2022-12-13,1,,,,,キュウホウ,0
235,1300003001914,新規,0,2022-12-13,2022-12-13,合同会社Ｇｒｏｗｔｈ,,合同会社,佐賀県,佐賀市,中の小路４番２４号カーザ杵島１０１,,41,201,8400833,,,,,,,2022-12-13,1,,,,,グロース,0
236,1320003003966,新規,0,2022-12-13,2022-12-13,合同会社Ｇｒａｎｄｉｒ,,合同会社,大分県,宇佐市,院内町櫛野１４６番地,,44,211,8720312,,,,,,,2022-12-13,1,,,,,グランディール,0
242,1340001025234,新規,0,2022-12-13,2022-12-13,株式会社ＡＩｎＴ,,株式会社,鹿児島県,鹿児島市,西千石町１１－２１鹿児島ＭＳビル５Ｆ,,46,201,8920847,,,,,,,2022-12-13,1,,,,,エーインティ,0
246,1360003012542,新規,0,2022-12-13,2022-12-13,合同会社ロジワークス,,合同会社,沖縄県,浦添市,城間２丁目９番－１２－４０３コーポさくら,,47,208,9012133,,,,,,,2022-12-13,1,,,,,ロジワークス,0
247,1360003012550,新規,0,2022-12-13,2022-12-13,合同会社大浜企画,,合同会社,沖縄県,石垣市,浜崎町２丁目６番地２８浜崎マンション１０２,,47,207,9070013,,,,,,,2022-12-13,1,,,,,オオハマキカク,0
251,1380003005338,新規,0,2022-12-13,2022-12-13,合同会社よろず,,合同会社,福島県,会津若松市,門田町大字飯寺字村東１００１番地の１０５,,07,202,9650846,,,,,,,2022-12-13,1,,,,,ヨロズ,0
265,1470003002292,新規,0,2022-12-13,2022-12-13,合同会社Ｍ．Ｗｈｉｔｅ,,合同会社,香川県,高松市,多肥下町１５６５番地２４,,37,201,7618075,,,,,,,2022-12-13,1,,,,,エムホワイト,0
266,1470005006481,新規,0,2022-12-13,2022-12-13,一般社団法人全日本マナー・和文化振興会,,その他の設立登記法人,香川県,高松市,松縄町１０６７番地２１,,37,201,7600079,,,,,,,2022-12-13,1,,,,,ゼンニホンマナーワブンカシンコウカイ,0
267,1490001010353,新規,0,2022-12-13,2022-12-13,コマツ建築設計株式会社,,株式会社,高知県,安芸郡芸西村,和食甲５８１２番地２１,,39,307,7815701,,,,,,,2022-12-13,1,,,,,コマツケンチクセッケイ,0
284,2010401171305,新規,0,2022-12-13,2022-12-13,Ｃｅｎｘｕｓ　ＦＡＳ株式会社,,株式会社,東京都,港区,赤坂１丁目１２－３２アーク森ビル３０階ＣｅｎｘｕｓＧｒｏｕｐ内,,13,103,1070052,,,,,,,2022-12-13,1,,,,,センクサスファス,0
285,2010401171313,新規,0,2022-12-13,2022-12-13,加茂株式会社,,株式会社,東京都,港区,三田１丁目３－４０－８０１号室,,13,103,1080073,,,,,,,2022-12-13,1,,,,,カモ,0
291,2010503006813,新規,0,2022-12-13,2022-12-13,合同会社エイトルーツ,,合同会社,東京都,台東区,台東２丁目２３番５号星丸ビル１０２,,13,106,1100016,,,,,,,2022-12-13,1,,,,,エイトルーツ,0
312,2011103012499,新規,0,2022-12-13,2022-12-13,合同会社ｅＢｒａｖｅ,,合同会社,東京都,新宿区,西新宿７丁目５番９ファーストリアルタワー新宿８１０,,13,104,1600023,,,,,,,2022-12-13,1,,,,,イーブレイブ,0
324,2011503005391,新規,0,2022-12-13,2022-12-13,合同会社ＮＹＥ,,合同会社,東京都,荒川区,東尾久５丁目３２－８,,13,118,1160012,,,,,,,2022-12-13,1,,,,,エヌワイイー,0
329,2012401039969,新規,0,2022-12-13,2022-12-13,株式会社Ｓｙｍｍｅｔｒｙ　Ｄｅｓｉｎｇ,,株式会社,東京都,武蔵野市,御殿山１丁目１１－１２－２２６,,13,203,1800005,,,,,,,2022-12-13,1,,,,,シンメトリーデザイン,0
332,2012803002946,新規,0,2022-12-13,2022-12-13,Ｎｏｗｈｅｒｅ合同会社,,合同会社,東京都,日野市,百草８６２番地の１２カルム百草園２０７,,13,212,1910033,,,,,,,2022-12-13,1,,,,,ノーウェア,0
335,2013301050058,新規,0,2022-12-13,2022-12-13,ｍｏｃｃｕ株式会社,,株式会社,東京都,豊島区,北大塚１丁目１５番５号,,13,116,1700004,,,,,,,2022-12-13,1,,,,,モック,0
336,2013303006405,新規,0,2022-12-13,2022-12-13,合同会社ＮＮＣ,,合同会社,東京都,豊島区,南池袋１丁目９番１８号ＧＯＧＯオフィス池袋１０２号室,,13,116,1710022,,,,,,,2022-12-13,1,,,,,エヌエヌシー,0
341,2020001149378,新規,0,2022-12-13,2022-12-13,株式会社東海実業,,株式会社,神奈川県,横浜市旭区,川井本町８０－８－２０１号室,,14,112,2410803,,,,,,,2022-12-13,1,,,,,トウカイジツギョウ,0
342,2020001149394,新規,0,2022-12-13,2022-12-13,大一総合株式会社,,株式会社,神奈川県,横浜市西区,北幸２丁目１０番２８号むつみビル３Ｆ,,14,103,2200004,,,,,,,2022-12-13,1,,,,,ダイイチソウゴウ,0
343,2020001149403,新規,0,2022-12-13,2022-12-13,株式会社バンフロー,,株式会社,神奈川県,横浜市中区,本牧原１２番１号,,14,104,2310821,,,,,,,2022-12-13,1,,,,,バンフロー,0
349,2020003022888,新規,0,2022-12-13,2022-12-13,合同会社ＡＡＡ,,合同会社,神奈川県,横浜市鶴見区,市場上町１０番３－１２１５号,,14,101,2300021,,,,,,,2022-12-13,1,,,,,アミッツ,0
352,2021001077552,新規,0,2022-12-13,2022-12-13,株式会社ツールモンスター,,株式会社,神奈川県,相模原市南区,相模大野７丁目３５パークスクエア相模大野１－５０６,,14,153,2520303,,,,,,,2022-12-13,1,,,,,ツールモンスター,0
354,2021003012458,新規,0,2022-12-13,2022-12-13,合同会社ＫＩＫＵ,,合同会社,神奈川県,大和市,中央４丁目１４番２号,,14,213,2420021,,,,,,,2022-12-13,1,,,,,キク,0
358,2030001151416,新規,0,2022-12-13,2022-12-13,芸琳貿易株式会社,,株式会社,埼玉県,川口市,戸塚東４丁目２－１０サンシティ東川口２０２号室,,11,203,3330802,,,,,,,2022-12-13,1,,,,,ゲイリンボウエキ,0
374,2060001035517,新規,0,2022-12-13,2022-12-13,ＲＳ　ＳＲＩ株式会社,,株式会社,栃木県,足利市,堀込町１６３１番地,,09,202,3260831,,,,,,,2022-12-13,1,,,,,アールエススリ,0
377,2070001039905,新規,0,2022-12-13,2022-12-13,ＭＡＹＵＣＡ・ＦＡＲＭ株式会社,,株式会社,群馬県,前橋市,大渡町１丁目１６－１オクシー前橋１階Ｂ号室,,10,201,3710854,,,,,,,2022-12-13,1,,,,,マユカファーム,0
387,2100003006817,新規,0,2022-12-13,2022-12-13,合同会社萬俵,,合同会社,長野県,松本市,清水１丁目７番３号,,20,202,3900805,,,,,,,2022-12-13,1,,,,,マンピョウ,0
392,2110003004943,新規,0,2022-12-13,2022-12-13,合同会社丸福,,合同会社,新潟県,新潟市中央区,姥ケ山２丁目３番１２号,,15,103,9500923,,,,,,,2022-12-13,1,,,,,マルフク,0
406,2120001250984,新規,0,2022-12-13,2022-12-13,サンビーノス株式会社,,株式会社,大阪府,守口市,西郷通２丁目１８番１５号,,27,209,5700034,,,,,,,2022-12-13,1,,,,,サンビーノス,0
407,2120001251009,新規,0,2022-12-13,2022-12-13,株式会社ケンソン,,株式会社,大阪府,大阪市中央区,北浜東５－４コーシン北浜５０４号,,27,128,5400031,,,,,,,2022-12-13,1,,,,,ケンソン,0
411,2120003023083,新規,0,2022-12-13,2022-12-13,楽識合同会社,,合同会社,大阪府,大阪市中央区,南船場３丁目２－２８－５１１号,,27,128,5420081,,,,,,,2022-12-13,1,,,,,ラクシキ,0
416,2120101066653,新規,0,2022-12-13,2022-12-13,株式会社リライアンスシステム,,株式会社,大阪府,堺市西区,草部１５９４番地４,,27,144,5938312,,,,,,,2022-12-13,1,,,,,リライアンスシステム,0
417,2120101066661,新規,0,2022-12-13,2022-12-13,株式会社ひまわり,,株式会社,大阪府,泉佐野市,日根野６５７６番地,,27,213,5980021,,,,,,,2022-12-13,1,,,,,ヒマワリ,0
423,2120901046870,新規,0,2022-12-13,2022-12-13,株式会社Ｒｅ‐ｌｉｅｆ,,株式会社,大阪府,豊中市,上野東１丁目４番１－１０９号,,27,203,5600013,,,,,,,2022-12-13,1,,,,,リリーフ,0
431,2130001073278,新規,0,2022-12-13,2022-12-13,アイシス・キャスト株式会社,,株式会社,京都府,京都市南区,東九条西山王町１番地三星ビル３０１号,,26,107,6018003,,,,,,,2022-12-13,1,,,,,アイシスキャスト,0
432,2130001073286,新規,0,2022-12-13,2022-12-13,株式会社Ｏｈａｎａ．ｅｘｐ,,株式会社,京都府,亀岡市,＿田野町芦ノ山アゲキ１番地２６,00128765,26,206,6210034,,,,,,,2022-12-13,1,,,,,オハナドットイーエックスピー,0
439,2140001128337,新規,0,2022-12-13,2022-12-13,株式会社ｗａｎｎａｃｏｍｅ,,株式会社,兵庫県,西宮市,甲風園１丁目７番１号,,28,204,6620832,,,,,,,2022-12-13,1,,,,,ワナカム,0
444,2140003018445,新規,0,2022-12-13,2022-12-13,合同会社ＫｈＡＳ,,合同会社,兵庫県,尼崎市,武庫豊町３丁目１番４１－２号,,28,202,6610045,,,,,,,2022-12-13,1,,,,,ハス,0
445,2140003018461,新規,0,2022-12-13,2022-12-13,合同会社サニープレイス,,合同会社,兵庫県,淡路市,志筑２３２５番地２０,,28,226,6562131,,,,,,,2022-12-13,1,,,,,サニープレイス,0
456,2190001030026,新規,0,2022-12-13,2022-12-13,株式会社グローバル２,,株式会社,三重県,四日市市,諏訪栄町４－１０アピカビル３Ｆ,,24,202,5100086,,,,,,,2022-12-13,1,,,,,グローバルツー,0
472,2240001060793,新規,0,2022-12-13,2022-12-13,株式会社Ｎ・Ｋホールディングス,,株式会社,広島県,広島市中区,大手町１丁目７番２１号,,34,101,7300051,,,,,,,2022-12-13,1,,,,,エヌケイホールディングス,0
473,2240001060802,新規,0,2022-12-13,2022-12-13,株式会社ミツマサ,,株式会社,広島県,福山市,千田町２丁目４３番２８号あずま住宅２号,,34,207,7200017,,,,,,,2022-12-13,1,,,,,ミツマサ,0
478,2240003005929,新規,0,2022-12-13,2022-12-13,合同会社Ｌｉｂｅｒｔｙ,,合同会社,広島県,福山市,山手町４丁目１０番２０号,,34,207,7200092,,,,,,,2022-12-13,1,,,,,リバティ,0
480,2280001008839,新規,0,2022-12-13,2022-12-13,株式会社ＨＡＰＰＥＮＩＮＧ　ＡＲＴ,,株式会社,島根県,出雲市,多伎町多岐５８８番地,,32,203,6990902,,,,,,,2022-12-13,1,,,,,ハプニングアート,0
484,2290001099852,新規,0,2022-12-13,2022-12-13,株式会社いしばし製麺工場,,株式会社,福岡県,福岡市早良区,祖原３０番７号,,40,137,8140005,,,,,,,2022-12-13,1,,,,,イシバシセイメンコウジョウ,0
485,2290001099860,新規,0,2022-12-13,2022-12-13,三好エージェントトラスト株式会社,,株式会社,福岡県,福岡市中央区,今川１丁目１番１号,,40,133,8100054,,,,,,,2022-12-13,1,,,,,ミヨシエージェントトラスト,0
486,2290001099919,新規,0,2022-12-13,2022-12-13,株式会社ナトゥーラ,,株式会社,福岡県,福岡市西区,北原２丁目１９番８号,,40,135,8190379,,,,,,,2022-12-13,1,,,,,ナトゥーラ,0
487,2290003013308,新規,0,2022-12-13,2022-12-13,合同会社ｌｏｇｂｏｏｋ．,,合同会社,福岡県,久留米市,上津町１３９１番地２１,,40,203,8300052,,,,,,,2022-12-13,1,,,,,ログブック,0
492,2290801029117,新規,0,2022-12-13,2022-12-13,株式会社ＴＫＳ．ｅ,,株式会社,福岡県,北九州市小倉北区,泉台２丁目２１番１０号,,40,106,8030842,,,,,,,2022-12-13,1,,,,,ティーケーエスイー,0
493,2330001030382,新規,0,2022-12-13,2022-12-13,ネシアグループ株式会社,,株式会社,熊本県,熊本市中央区,新市街１３番１５号３Ｆ,,43,101,8600803,,,,,,,2022-12-13,1,,,,,ネシアグループ,0
495,2330003009623,新規,0,2022-12-13,2022-12-13,合同会社Ｌｅ　ｃｉｅｌ,,合同会社,熊本県,熊本市南区,平田２丁目２０番６９号,,43,104,8600826,,,,,,,2022-12-13,1,,,,,ルシエール,0
511,2430003014539,新規,0,2022-12-13,2022-12-13,Ｐｒｅｃｅｓｓｉｏｎ合同会社,,合同会社,北海道,虻田郡洞爺湖町,洞爺町７番地１,,01,584,0495802,,,,,,,2022-12-13,1,,,,,プリセッション,0
512,2430003014547,新規,0,2022-12-13,2022-12-13,合同会社Ｅｖｅｎｔ　Ｆｏｕｎｄａｔｉｏｎｓ,,合同会社,北海道,札幌市手稲区,前田五条５丁目１番３－８０１号,,01,109,0060815,,,,,,,2022-12-13,1,,,,,イベントファンデーションズ,0
513,2430005014611,新規,0,2022-12-13,2022-12-13,特定非営利活動法人泰翔,,その他の設立登記法人,北海道,札幌市手稲区,前田一条１丁目２番８号,,01,109,0060811,,,,,,,2022-12-13,1,,,,,タイショウ,0
514,2460101007292,新規,0,2022-12-13,2022-12-13,株式会社齊藤牧場,,株式会社,北海道,中川郡幕別町,忠類新生１００番地,,01,643,0891714,,,,,,,2022-12-13,1,,,,,サイトウボクジョウ,0
515,2460301005113,新規,0,2022-12-13,2022-12-13,株式会社ＡＺＵＲＥ,,株式会社,北海道,網走市,潮見１丁目３６１番地の２９,,01,211,0930042,,,,,,,2022-12-13,1,,,,,アズール,0
517,2470001019370,新規,0,2022-12-13,2022-12-13,株式会社英樹ホーム,,株式会社,香川県,高松市,飯田町１３０４番地４アヴニールＭＩＩ,00128774,37,201,7618033,,,,,,,2022-12-13,1,,,,,エイジュホーム,0
520,2470005006480,新規,0,2022-12-13,2022-12-13,一般財団法人石のアトリエ・和泉正敏財団,,その他の設立登記法人,香川県,高松市,牟礼町牟礼３５２４番地１０,,37,201,7610121,,,,,,,2022-12-13,1,,,,,イシノアトリエイズミマサトシザイダン,0
524,2500001024648,新規,0,2022-12-13,2022-12-13,株式会社ＬＬｉＬ,,株式会社,愛媛県,松山市,松末２丁目３番３１号,,38,201,7900915,,,,,,,2022-12-13,1,,,,,リル,0
531,3010001231540,新規,0,2022-12-13,2022-12-13,株式会社Ｉｋｉｇａｉ,,株式会社,東京都,文京区,本郷２丁目３０番１６号ＣｈｅｚＲａｐｈａｅｌ１０１,,13,105,1130033,,,,,,,2022-12-13,1,,,,,イキガイ,0
533,3010005035896,新規,0,2022-12-13,2022-12-13,一般社団法人福田会,,その他の設立登記法人,東京都,文京区,本郷２丁目３５番８号,,13,105,1130033,,,,,,,2022-12-13,1,,,,,フクダカイ,0
543,3010401171312,新規,0,2022-12-13,2022-12-13,株式会社Ｅ‐ＦＵＮＣＴＩＯＮ,,株式会社,東京都,港区,浜松町１丁目１４番７号,,13,103,1050013,,,,,,,2022-12-13,1,,,,,イーファンクション,0
545,3010403029120,新規,0,2022-12-13,2022-12-13,合同会社ＹＪレンタカー,,合同会社,東京都,港区,西麻布３丁目６番３－５０１号,,13,103,1060031,,,,,,,2022-12-13,1,,,,,ワイジェイレンタカー,0
553,3010803004383,新規,0,2022-12-13,2022-12-13,合同会社モンテタウン,,合同会社,東京都,大田区,池上８丁目１４－１ペアハウス池上２０２,,13,111,1460082,,,,,,,2022-12-13,1,,,,,モンテタウン,0
573,3011001151423,新規,0,2022-12-13,2022-12-13,ＩＴものづくり株式会社,,株式会社,東京都,渋谷区,道玄坂１丁目１０番８号渋谷道玄坂東急ビル２Ｆ－Ｃ,,13,113,1500043,,,,,,,2022-12-13,1,,,,,アイティーモノヅクリ,0
574,3011001151448,新規,0,2022-12-13,2022-12-13,株式会社Ｃａｌ,,株式会社,東京都,渋谷区,神南１丁目１４番７号ワイズ神南ビル２Ｆ,,13,113,1500041,,,,,,,2022-12-13,1,,,,,カル,0
575,3011003015857,新規,0,2022-12-13,2022-12-13,ユーザーファースト合同会社,,合同会社,東京都,目黒区,大橋１丁目２－３目黒アームズ３０２号室,,13,110,1530044,,,,,,,2022-12-13,1,,,,,ユーザーファースト,0
576,3011003015898,新規,0,2022-12-13,2022-12-13,合同会社ＶＳＬＳ,,合同会社,東京都,渋谷区,円山町２番６号ＪＰＬＡＺＡビル,,13,113,1500044,,,,,,,2022-12-13,1,,,,,ブイエスエルエス,0
580,3011101101138,新規,0,2022-12-13,2022-12-13,株式会社ＡＲＭＥＤＥＳ　ＪＡＰＡＮ,,株式会社,東京都,新宿区,西新宿３丁目３番－１３号西新宿水間ビル６階,,13,104,1600023,,,,,,,2022-12-13,1,,,,,アルメデス,0
581,3011101101146,新規,0,2022-12-13,2022-12-13,猫衣草株式会社,00128764,株式会社,東京都,新宿区,早稲田鶴巻町５３８番地１９リンクス早稲田ビル５０８,,13,104,1620041,,,,,,,2022-12-13,1,,,,,ビョウイソウ,0
582,3011101101170,新規,0,2022-12-13,2022-12-13,株式会社トゥエルスエステート,,株式会社,東京都,新宿区,高田馬場１丁目１７番１７号新坂ビル３階,,13,104,1690075,,,,,,,2022-12-13,1,,,,,トゥエルスエステート,0
589,3011601026421,新規,0,2022-12-13,2022-12-13,嘉誠株式会社,,株式会社,東京都,練馬区,桜台１丁目７番７－４２０号,,13,120,1760002,,,,,,,2022-12-13,1,,,,,カセイ,0
597,3012401039935,新規,0,2022-12-13,2022-12-13,株式会社Ｍｉｎｄｓｏｃｉｅｔｙｌａｂ,,株式会社,東京都,調布市,富士見町３丁目６番地６,,13,208,1820033,,,,,,,2022-12-13,1,,,,,マインドソサエティラボ,0
607,3013301050049,新規,0,2022-12-13,2022-12-13,株式会社Ｎ‐ＴＡＫＥ,,株式会社,東京都,豊島区,北大塚１丁目１９番１２号コルティス大塚６Ｆ－２７,,13,116,1700004,,,,,,,2022-12-13,1,,,,,エヌテイク,0
617,3021005012694,新規,0,2022-12-13,2022-12-13,宗教法人エホバの証人の鎌倉北会衆,,その他の設立登記法人,神奈川県,鎌倉市,城廻４６８番４,,14,204,2470074,,,,,,,2022-12-13,1,,,,,エホバノショウニンノカマクラキタカイシュウ,0
629,3030003020733,新規,0,2022-12-13,2022-12-13,合同会社ブリッジ,,合同会社,埼玉県,越谷市,神明町１丁目１４８番地１５,,11,222,3430805,,,,,,,2022-12-13,1,,,,,ブリッジ,0
639,3050001052074,新規,0,2022-12-13,2022-12-13,ＳＬホールディングス株式会社,,株式会社,茨城県,水戸市,笠原町６００番地の２７,,08,201,3100852,,,,,,,2022-12-13,1,,,,,エスエルホールディングス,0
651,3100001035957,新規,0,2022-12-13,2022-12-13,株式会社丸善,,株式会社,長野県,千曲市,大字寂蒔８８０番地,,20,218,3870016,,,,,,,2022-12-13,1,,,,,マルゼン,0
652,3100003006799,新規,0,2022-12-13,2022-12-13,合同会社ＮＯＣ　ＹＡＲＤ,,合同会社,長野県,長野市,市場６番１１号,,20,201,3812202,,,,,,,2022-12-13,1,,,,,ノックヤード,0
653,3100003006816,新規,0,2022-12-13,2022-12-13,合同会社カラフルベース,,合同会社,長野県,長野市,大字南長野北石堂町１１８０番地１グランドハイツ石堂１０１,,20,201,3800826,,,,,,,2022-12-13,1,,,,,カラフルベース,0
657,3110003004942,新規,0,2022-12-13,2022-12-13,合同会社ふくふく,,合同会社,新潟県,新潟市北区,松浜本町２丁目３番４号,,15,101,9503125,,,,,,,2022-12-13,1,,,,,フクフク,0
671,3120001250959,新規,0,2022-12-13,2022-12-13,株式会社Ｂ．Ｌｏｔｕｓ,,株式会社,大阪府,大阪市中央区,久太郎町３丁目１番１５号メビウス御堂筋本町ビル２０２号,,27,128,5410056,,,,,,,2022-12-13,1,,,,,ビーロータス,0
672,3120001250983,新規,0,2022-12-13,2022-12-13,株式会社福寿,,株式会社,大阪府,大阪市東住吉区,駒川４丁目２番７号２０１号,,27,121,5460043,,,,,,,2022-12-13,1,,,,,フクジュ,0
673,3120001251016,新規,0,2022-12-13,2022-12-13,アニドライブ株式会社,,株式会社,大阪府,大阪市淀川区,西中島７丁目７番３号,,27,123,5320011,,,,,,,2022-12-13,1,,,,,アニドライブ,0
674,3120001251057,新規,0,2022-12-13,2022-12-13,３Ｍ株式会社,,株式会社,大阪府,大阪市中央区,千日前２丁目５番２号日本一歯科センタービル５Ｆ,,27,128,5420074,,,,,,,2022-12-13,1,,,,,スリーエム,0
678,3120101066652,新規,0,2022-12-13,2022-12-13,ＨＲＢホールディングス株式会社,,株式会社,大阪府,堺市美原区,北余部３１３番地,,27,147,5870051,,,,,,,2022-12-13,1,,,,,エイチアールビーホールディングス,0
689,3140003018452,新規,0,2022-12-13,2022-12-13,合同会社彩,,合同会社,兵庫県,神戸市西区,前開南町２丁目６番１３号,,28,111,6512109,,,,,,,2022-12-13,1,,,,,サイ,0
690,3140003018460,新規,0,2022-12-13,2022-12-13,合同会社ブルースカイハイ,,合同会社,兵庫県,伊丹市,西台４丁目３番１アーバンコート西台２０２号室,,28,207,6640858,,,,,,,2022-12-13,1,,,,,ブルースカイハイ,0
691,3150001025994,新規,0,2022-12-13,2022-12-13,株式会社ジョブズマン,,株式会社,奈良県,大和郡山市,池沢町５９５番地１,,29,203,6391032,,,,,,,2022-12-13,1,,,,,ジョブズマン,0
698,3170001017404,新規,0,2022-12-13,2022-12-13,シカオラリファーム株式会社,,株式会社,和歌山県,海南市,多田７８３番地１,,30,202,6420013,,,,,,,2022-12-13,1,,,,,シカオラリファーム,0
710,3190001030009,新規,0,2022-12-13,2022-12-13,株式会社ＳＥＮ,,株式会社,三重県,多気郡大台町,佐原６２８番地,,24,443,5192404,,,,,,,2022-12-13,1,,,,,エスイーエヌ,0
711,3190003004167,新規,0,2022-12-13,2022-12-13,合同会社ユータス,,合同会社,三重県,四日市市,高花平１丁目１－４７,,24,202,5100945,,,,,,,2022-12-13,1,,,,,ユータス,0
712,3200001040765,新規,0,2022-12-13,2022-12-13,株式会社ＦＡＳＴ,,株式会社,岐阜県,揖斐郡池田町,下東野３５４番地の２,,21,404,5032414,,,,,,,2022-12-13,1,,,,,ファスト,0
714,3200003005766,新規,0,2022-12-13,2022-12-13,合同会社リハの木,,合同会社,岐阜県,大垣市,緑園２８番地５フレストステージ大垣緑園西館４０２,,21,202,5030806,,,,,,,2022-12-13,1,,,,,リハノキ,0
716,3210001019180,新規,0,2022-12-13,2022-12-13,株式会社ソウケン,,株式会社,福井県,福井市,花堂南１丁目２番２４号,,18,201,9188015,,,,,,,2022-12-13,1,,,,,ソウケン,0
718,3220001025178,新規,0,2022-12-13,2022-12-13,株式会社福井建設,,株式会社,石川県,金沢市,北安江１丁目９番１３号,,17,201,9200022,,,,,,,2022-12-13,1,,,,,フクイケンセツ,0
721,3230001019633,新規,0,2022-12-13,2022-12-13,株式会社ＡＲＩＳＯＲＡ,,株式会社,富山県,富山市,針原中町４１８番地１,,16,201,9318431,,,,,,,2022-12-13,1,,,,,アリソラ,0
722,3230003001944,新規,0,2022-12-13,2022-12-13,ｍｕｔ．合同会社,,合同会社,富山県,富山市,雄山町５番１６号,,16,201,9398092,,,,,,,2022-12-13,1,,,,,ムート,0
729,3240003005928,新規,0,2022-12-13,2022-12-13,ヒラタサンパワー合同会社,,合同会社,広島県,江田島市,江田島町江南１丁目２番８号,,34,215,7372132,,,,,,,2022-12-13,1,,,,,ヒラタサンパワー,0
732,3260001037475,新規,0,2022-12-13,2022-12-13,株式会社大月商店,,株式会社,岡山県,倉敷市,児島味野２丁目６番９号,,33,202,7110913,,,,,,,2022-12-13,1,,,,,オオツキショウテン,0
733,3260001037500,新規,0,2022-12-13,2022-12-13,株式会社Ｋ　ａｎｄ　Ｃｏｍｐａｎｙ,,株式会社,岡山県,倉敷市,笹沖１３３２－２サーパス笹沖一番館４０７,,33,202,7100834,,,,,,,2022-12-13,1,,,,,ケイアンドカンパニー,0
738,3280005007522,新規,0,2022-12-13,2022-12-13,一般社団法人ジェットシステムグループ互助会,,その他の設立登記法人,島根県,松江市,平成町１８２番地７,,32,201,6900038,,,,,,,2022-12-13,1,,,,,ジェットシステムグループゴジョカイ,0
739,3290001099892,新規,0,2022-12-13,2022-12-13,株式会社砦ベース,,株式会社,福岡県,筑紫野市,大字阿志岐２４６９番地３,,40,217,8180011,,,,,,,2022-12-13,1,,,,,トリデベース,0
752,3340001025240,新規,0,2022-12-13,2022-12-13,株式会社パークハウスみどり,,株式会社,鹿児島県,鹿児島市,冷水町１２番１７号,,46,201,8920855,,,,,,,2022-12-13,1,,,,,パークハウスミドリ,0
756,3360001031311,新規,0,2022-12-13,2022-12-13,株式会社ＡＺＰＬＡＮ,,株式会社,沖縄県,那覇市,久茂地１丁目１番１号パレットくもじ９Ｆ,,47,201,9000015,,,,,,,2022-12-13,1,,,,,アズプラン,0
764,3380001033322,新規,0,2022-12-13,2022-12-13,株式会社Ａｉ‐ｔｏ,,株式会社,福島県,福島市,御山字一本松３番地の９マロンハウス御山１０１号室,,07,201,9608252,,,,,,,2022-12-13,1,,,,,アイト,0
772,3430003014546,新規,0,2022-12-13,2022-12-13,Ｍ＆ＢＤ‐ＨＯＫＫＡＩＤＯ合同会社,,合同会社,北海道,小樽市,長橋２丁目３番４号,,01,203,0470036,,,,,,,2022-12-13,1,,,,,メタアンドビルドデザインホッカイドウ,0
777,3480001011945,新規,0,2022-12-13,2022-12-13,株式会社應仁建設,,株式会社,徳島県,阿南市,橘町汐谷山７９番地１,,36,204,7740023,,,,,,,2022-12-13,1,,,,,オウジンケンセツ,0
783,4010001231440,新規,0,2022-12-13,2022-12-13,株式会社ジャパン・キュア・センター,,株式会社,東京都,中央区,日本橋小伝馬町１４番５－４０１号,,13,102,1030001,,,,,,,2022-12-13,1,,,,,ジャパンキュアセンター,0
784,4010001231572,新規,0,2022-12-13,2022-12-13,株式会社エコナビゲーション,,株式会社,東京都,文京区,根津２丁目２１番１２号,,13,105,1130031,,,,,,,2022-12-13,1,,,,,エコナビゲーション,0
789,4010003039295,新規,0,2022-12-13,2022-12-13,合同会社羽田人形町,,合同会社,東京都,千代田区,霞が関３丁目２番５号,,13,101,1000013,,,,,,,2022-12-13,1,,,,,ハネダニンギョウチョウ,0
801,4010503006811,新規,0,2022-12-13,2022-12-13,合同会社モビリティファンド２号,,合同会社,東京都,台東区,柳橋１丁目２３番３号ＶＯＲＴ浅草橋駅前８階,,13,106,1110052,,,,,,,2022-12-13,1,,,,,モビリティファンドニゴウ,0
805,4010601062293,新規,0,2022-12-13,2022-12-13,株式会社栄信ソリューションズ,,株式会社,東京都,墨田区,両国２丁目２１番５－５０６号,,13,107,1300026,,,,,,,2022-12-13,1,,,,,エイシンソリューションズ,0
808,4010701043598,新規,0,2022-12-13,2022-12-13,株式会社Ｇｒａｃｅ,,株式会社,東京都,品川区,南品川６丁目１番７号,,13,109,1400004,,,,,,,2022-12-13,1,,,,,グレイス,0
811,4010901052127,新規,0,2022-12-13,2022-12-13,美麗株式会社,,株式会社,東京都,世田谷区,赤堤４丁目４５－１７鈴木ビル１階,,13,112,1560044,,,,,,,2022-12-13,1,,,,,メイリー,0
823,4011001151414,新規,0,2022-12-13,2022-12-13,パーチェ株式会社,,株式会社,東京都,渋谷区,宇田川町１番１２－４１４号パークコート渋谷ザタワー,,13,113,1500042,,,,,,,2022-12-13,1,,,,,パーチェ,0
824,4011001151430,新規,0,2022-12-13,2022-12-13,株式会社Ｕｎｑｕｅ,,株式会社,東京都,渋谷区,東２丁目１４番２８号ラフィーネ渋谷Ａ棟,,13,113,1500011,,,,,,,2022-12-13,1,,,,,ユナーク,0
825,4011001151439,新規,0,2022-12-13,2022-12-13,株式会社伊藤修武事務所,,株式会社,東京都,渋谷区,神宮前５丁目１３番１１号,,13,113,1500001,,,,,,,2022-12-13,1,,,,,イトウオサムジムショ,0
829,4011003015889,新規,0,2022-12-13,2022-12-13,合同会社ＡＤＶＡＮＣＥ,,合同会社,東京都,渋谷区,本町１丁目１８－１ＬＯＧ初台１１０２,,13,113,1510071,,,,,,,2022-12-13,1,,,,,アドバンス,0
830,4011003015906,新規,0,2022-12-13,2022-12-13,合同会社ＭＥＬＯＤＵＣＥ　Ｉｎｃ．,,合同会社,東京都,渋谷区,神宮前６丁目２３－４桑野ビル２階,,13,113,1500001,,,,,,,2022-12-13,1,,,,,,0
838,4011101101153,新規,0,2022-12-13,2022-12-13,株式会社サンドバンク,,株式会社,東京都,新宿区,北新宿２丁目８番３号,,13,104,1690074,,,,,,,2022-12-13,1,,,,,サンドバンク,0
842,4011403003840,新規,0,2022-12-13,2022-12-13,合同会社ｍｏｊｏ,,合同会社,東京都,板橋区,熊野町３９－６,,13,119,1730025,,,,,,,2022-12-13,1,,,,,モジョ,0
845,4011603003772,新規,0,2022-12-13,2022-12-13,ＨＮＲ合同会社,,合同会社,東京都,練馬区,土支田１丁目１番２４号リリーゼ光が丘１０４,,13,120,1790076,,,,,,,2022-12-13,1,,,,,エイチエヌアール,0
847,4012403005728,新規,0,2022-12-13,2022-12-13,ラッキースター合同会社,,合同会社,東京都,稲城市,平尾３丁目１－１－１－３０８,,13,225,2060823,,,,,,,2022-12-13,1,,,,,ラッキースター,0
854,4013303006403,新規,0,2022-12-13,2022-12-13,合同会社アキスト,,合同会社,東京都,豊島区,南池袋２丁目２４番５－４０３号,,13,116,1710022,,,,,,,2022-12-13,1,,,,,アキスト,0
855,4013303006411,新規,0,2022-12-13,2022-12-13,ゴールドパス合同会社,,合同会社,東京都,豊島区,北大塚１丁目１９－１２コルティス大塚ビル６階,,13,116,1700004,,,,,,,2022-12-13,1,,,,,ゴールドパス,0
861,4020001149327,新規,0,2022-12-13,2022-12-13,株式会社ＨＫホールディングス,,株式会社,神奈川県,横浜市中区,山手町９８番地１,,14,104,2310862,,,,,,,2022-12-13,1,,,,,エイチケーホールディングス,0
865,4020003022886,新規,0,2022-12-13,2022-12-13,ＣＨＭ合同会社,,合同会社,神奈川県,川崎市幸区,小向町２３番１２号ユナイト小向ベニートの杜２１０,,14,132,2120003,,,,,,,2022-12-13,1,,,,,シーエイチエム,0
867,4021001077682,新規,0,2022-12-13,2022-12-13,株式会社ＴＭＴＣ,,株式会社,神奈川県,平塚市,広川７２３番地の１１,,14,203,2591219,,,,,,,2022-12-13,1,,,,,ティエムティシー,0
871,4030001151422,新規,0,2022-12-13,2022-12-13,株式会社スプリングス,,株式会社,埼玉県,熊谷市,筑波２丁目５６番３号,,11,202,3600037,,,,,,,2022-12-13,1,,,,,スプリングス,0
872,4030001151430,新規,0,2022-12-13,2022-12-13,株式会社興和通商,,株式会社,埼玉県,入間郡三芳町,大字上富１２３５,,11,324,3540045,,,,,,,2022-12-13,1,,,,,コウワツウショウ,0
891,4060003004344,新規,0,2022-12-13,2022-12-13,ＳＮＥ合同会社,,合同会社,栃木県,足利市,鹿島町６４２番地３－２－Ｃ,,09,202,3260844,,,,,,,2022-12-13,1,,,,,エスエヌイ,0
899,4110001037175,新規,0,2022-12-13,2022-12-13,株式会社上越グリーンホールディングス,,株式会社,新潟県,上越市,大字下五貫野４４番地１,,15,222,9420255,,,,,,,2022-12-13,1,,,,,ジョウエツグリーンホールディングス,0
923,4120001250941,新規,0,2022-12-13,2022-12-13,Ｐｅｇａｓｕｓ観光株式会社,,株式会社,大阪府,大阪市東住吉区,鷹合４丁目２１番１６号１Ｆ－Ｄ,,27,121,5460014,,,,,,,2022-12-13,1,,,,,ペガサスカンコウ,0
926,4120003023049,新規,0,2022-12-13,2022-12-13,合同会社新力,,合同会社,大阪府,大阪市淀川区,新北野１丁目１２番１０号万和十三ビル２０３号室,,27,123,5320025,,,,,,,2022-12-13,1,,,,,シンリキ,0
927,4120003023057,新規,0,2022-12-13,2022-12-13,合同会社アジアンサービス,,合同会社,大阪府,大阪市西成区,鶴見橋２丁目１１番３０号,,27,122,5570031,,,,,,,2022-12-13,1,,,,,アジアンサービス,0
930,4120101066668,新規,0,2022-12-13,2022-12-13,株式会社アントレ,,株式会社,大阪府,堺市中区,深井中町１８７１番地２,,27,142,5998272,,,,,,,2022-12-13,1,,,,,アントレ,0
931,4120103004964,新規,0,2022-12-13,2022-12-13,合同会社ｗａｒａｂｅｅ,,合同会社,大阪府,堺市堺区,賑町３丁５－１５,,27,141,5900066,,,,,,,2022-12-13,1,,,,,,0
932,4120103004972,新規,0,2022-12-13,2022-12-13,合同会社スマイルバトン,,合同会社,大阪府,泉南市,新家１３１５番地の２７６,,27,228,5900503,,,,,,,2022-12-13,1,,,,,スマイルバトン,0
936,4122001036494,新規,0,2022-12-13,2022-12-13,株式会社セイムオー,,株式会社,大阪府,東大阪市,永和３丁目４番１７号,,27,227,5770809,,,,,,,2022-12-13,1,,,,,セイムオー,0
939,4130001073268,新規,0,2022-12-13,2022-12-13,株式会社エムズ,,株式会社,京都府,京都市南区,唐橋琵琶町５７番地２１,,26,107,6018457,,,,,,,2022-12-13,1,,,,,エムズ,0
948,4140003018451,新規,0,2022-12-13,2022-12-13,合同会社ありんこ,,合同会社,兵庫県,神戸市須磨区,桜の杜１丁目１１番１－４０６号,,28,107,6540114,,,,,,,2022-12-13,1,,,,,アリンコ,0
949,4140003018476,新規,0,2022-12-13,2022-12-13,合同会社Ｐｌａｎｅｔ,,合同会社,兵庫県,芦屋市,緑町１－１１－２０３,,28,206,6590042,,,,,,,2022-12-13,1,,,,,プラネット,0
957,4180301036894,新規,0,2022-12-13,2022-12-13,株式会社ナカタク,,株式会社,愛知県,豊川市,高見町１丁目５１番地の５,,23,207,4420883,,,,,,,2022-12-13,1,,,,,ナカタク,0
962,4200003005765,新規,0,2022-12-13,2022-12-13,合同会社ＫＹＴライン,,合同会社,岐阜県,土岐市,駄知町字追分８９８番１,,21,212,5095401,,,,,,,2022-12-13,1,,,,,ケイワイティーライン,0
968,4240001060750,新規,0,2022-12-13,2022-12-13,株式会社ＴＤ,,株式会社,広島県,福山市,瀬戸町大字長和９４３番地６６,,34,207,7200836,,,,,,,2022-12-13,1,,,,,ティーディー,0
969,4240001060783,新規,0,2022-12-13,2022-12-13,ユナイトトラスト株式会社,,株式会社,広島県,広島市東区,牛田本町２丁目１番２－６０１号,,34,102,7320066,,,,,,,2022-12-13,1,,,,,ユナイトトラスト,0
970,4240001060791,新規,0,2022-12-13,2022-12-13,株式会社藤本工業,,株式会社,広島県,広島市中区,光南２丁目２２番１９号,,34,101,7300825,,,,,,,2022-12-13,1,,,,,フジモトコウギョウ,0
971,4240001060800,新規,0,2022-12-13,2022-12-13,真創株式会社,,株式会社,広島県,安芸高田市,八千代町上根８００番地７,,34,214,7310305,,,,,,,2022-12-13,1,,,,,シンソウ,0
976,4250001019878,新規,0,2022-12-13,2022-12-13,株式会社ＴｈｅｒａＦｉｔ,,株式会社,山口県,下関市,竹崎町４丁目４番８号シーモール下関１階１４７区画,,35,201,7500025,,,,,,,2022-12-13,1,,,,,セラフィット,0
978,4250003003194,新規,0,2022-12-13,2022-12-13,合同会社タオダ,,合同会社,山口県,山口市,葵１丁目５番５３号,,35,203,7530821,,,,,,,2022-12-13,1,,,,,タオダ,0
980,4260001037490,新規,0,2022-12-13,2022-12-13,株式会社Ｋｅｉｍｏ　Ｄｅｖｅｌｏｐｍｅｎｔ,,株式会社,岡山県,岡山市北区,表町３丁目５－４３,,33,101,7000822,,,,,,,2022-12-13,1,,,,,ケイモディベロップメント,0
988,4290001099776,新規,0,2022-12-13,2022-12-13,株式会社マコト電業,,株式会社,福岡県,福岡市南区,柏原１丁目１０番２４－２０２号フローラ山本,,40,134,8111353,,,,,,,2022-12-13,1,,,,,マコトデンギョウ,0
989,4290001099875,新規,0,2022-12-13,2022-12-13,株式会社ＡＸＩＡ,,株式会社,福岡県,福岡市中央区,天神１丁目１番１号アクロス福岡１Ｆ,,40,133,8100001,,,,,,,2022-12-13,1,,,,,アクシア,0
990,4290001099883,新規,0,2022-12-13,2022-12-13,福倖株式会社,,株式会社,福岡県,福岡市中央区,六本松４丁目５番３９号,,40,133,8100044,,,,,,,2022-12-13,1,,,,,フクサチ,0
997,4330001030380,新規,0,2022-12-13,2022-12-13,ゆめ路株式会社,,株式会社,熊本県,上益城郡益城町,大字寺迫１３８５番地,,43,443,8612244,,,,,,,2022-12-13,1,,,,,ユメジ,0
998,4330003009621,新規,0,2022-12-13,2022-12-13,合同会社Ｆｅｌｉｃｅ．Ｏｔｔｏ,,合同会社,熊本県,熊本市東区,月出２丁目２番５３－４０３号,,43,102,8620920,,,,,,,2022-12-13,1,,,,,フェリーチェオット,0
1001,4340005009536,新規,0,2022-12-13,2022-12-13,こどもたちに教育と経験を残す一般社団法人,,その他の設立登記法人,鹿児島県,伊佐市,大口小木原８８７番地１２,,46,224,8952631,,,,,,,2022-12-13,1,,,,,コドモタチニキョウイクトケイケンヲノコス,0
1002,4350001018085,新規,0,2022-12-13,2022-12-13,株式会社ＨｉｉｉＴｏ,,株式会社,宮崎県,西都市,御舟町１丁目１０４,,45,208,8810016,,,,,,,2022-12-13,1,,,,,ヒト,0
1015,4420001018094,新規,0,2022-12-13,2022-12-13,株式会社たざわトマト,,株式会社,青森県,南津軽郡田舎館村,大字諏訪堂字村元２８番地１,,02,367,0381132,,,,,,,2022-12-13,1,,,,,タザワトマト,0
1021,4480001011944,新規,0,2022-12-13,2022-12-13,ＮＡＫＡＹＡ株式会社,,株式会社,徳島県,吉野川市,鴨島町牛島１３８４番地,,36,205,7760001,,,,,,,2022-12-13,1,,,,,ナカヤ,0
1029,5010003039245,新規,0,2022-12-13,2022-12-13,Ｌｉｆｅ　Ｑｕｅｓｔ　Ａｌｌｉａｎｃｅ合同会社,,合同会社,東京都,中央区,銀座１丁目１２番４号Ｎ＆Ｅ＿ＢＬＤ．６Ｆ,,13,102,1040061,,,,,,,2022-12-13,1,,,,,ライフクエストアライアンス,0
1032,5010005035894,新規,0,2022-12-13,2022-12-13,一般社団法人島根水明,,その他の設立登記法人,東京都,千代田区,平河町１丁目３番１３号平河町フロントビル７階株式会社シリウス・アドバイザリー内,,13,101,1020093,,,,,,,2022-12-13,1,,,,,シマネスイメイ,0
1039,5010403029143,新規,0,2022-12-13,2022-12-13,神谷町キャピタル・フォー合同会社,,合同会社,東京都,港区,虎ノ門３丁目１８番１２－５０２号株式会社虎ノ門会計神谷町分室内,,13,103,1050001,,,,,,,2022-12-13,1,,,,,カミヤチョウキャピタルフォー,0
1043,5010501049737,新規,0,2022-12-13,2022-12-13,エスワールド株式会社,,株式会社,東京都,台東区,三筋２丁目１５－１８宮田金属ビル５Ｆ,,13,106,1110055,,,,,,,2022-12-13,1,,,,,エスワールド,0
1045,5010601062284,新規,0,2022-12-13,2022-12-13,株式会社Ｇｌａｕｂｅｎ,,株式会社,東京都,江東区,亀戸５丁目４０番１１号フローラ亀戸１０２,,13,108,1360071,,,,,,,2022-12-13,1,,,,,グラウベン,0
1048,5010605004159,新規,0,2022-12-13,2022-12-13,一般社団法人日本ハンドラップ協会,,その他の設立登記法人,東京都,墨田区,八広２丁目２番地の１４第３修明ビル１Ｆ,,13,107,1310041,,,,,,,2022-12-13,1,,,,,ニホンハンドラップキョウカイ,0
1050,5010701043572,新規,0,2022-12-13,2022-12-13,株式会社イグナイトライフ,,株式会社,東京都,品川区,北品川５丁目５番１５号,,13,109,1410001,,,,,,,2022-12-13,1,,,,,イグナイトライフ,0
1054,5010801033507,新規,0,2022-12-13,2022-12-13,京佳株式会社,,株式会社,東京都,大田区,西糀谷１丁目１６番１２号,,13,111,1440034,,,,,,,2022-12-13,1,,,,,キョウカ,0
1073,5011003015896,新規,0,2022-12-13,2022-12-13,合同会社ＴＡＴＳＵＫＩ,,合同会社,東京都,渋谷区,道玄坂１丁目１０番８号渋谷道玄坂東急ビル２Ｆ－Ｃ,,13,113,1500043,,,,,,,2022-12-13,1,,,,,タツキ,0
1086,5011801041664,新規,0,2022-12-13,2022-12-13,株式会社Ｔｒｉｐｌｅ　Ｉｎｌｅｔ,,株式会社,東京都,足立区,千住桜木１丁目３番３－４０５号,,13,121,1200045,,,,,,,2022-12-13,1,,,,,トリプルインレット,0
1087,5012401039958,新規,0,2022-12-13,2022-12-13,株式会社Ｇａｃｈｅｔｔｅ,,株式会社,東京都,三鷹市,中原２丁目８－１８,,13,204,1810005,,,,,,,2022-12-13,1,,,,,ガシェット,0
1089,5012801022010,新規,0,2022-12-13,2022-12-13,株式会社アークス,,株式会社,東京都,昭島市,福島町３丁目１５番１０号,,13,207,1960031,,,,,,,2022-12-13,1,,,,,アークス,0
1093,5013301050047,新規,0,2022-12-13,2022-12-13,株式会社メディカナル,,株式会社,東京都,豊島区,南大塚１丁目１０番６号,,13,116,1700005,,,,,,,2022-12-13,1,,,,,メディカナル,0
1094,5013301050055,新規,0,2022-12-13,2022-12-13,株式会社ＤＳ日本,,株式会社,東京都,豊島区,高田３丁目３６番１５号スパジオ山崎３０３号,00128768,13,116,1710033,,,,,,,2022-12-13,1,,,,,ディエスニホン,0
1095,5013303006402,新規,0,2022-12-13,2022-12-13,アイケイビー合同会社,,合同会社,東京都,豊島区,西池袋１丁目１７番地７池袋ルミエールビル４階,,13,116,1710021,,,,,,,2022-12-13,1,,,,,アイケイビー,0
1103,5020003022885,新規,0,2022-12-13,2022-12-13,合同会社ＣＥＮＴＵＲＹ　ＧＲＯＵＰ,,合同会社,神奈川県,川崎市川崎区,境町１番１号林ビル３階,,14,131,2100838,,,,,,,2022-12-13,1,,,,,センチュリーグループ,0
1104,5020003022893,新規,0,2022-12-13,2022-12-13,ａｌｐｈａｓｅｅｄ合同会社,,合同会社,神奈川県,横浜市西区,伊勢町３丁目１３３－１３,,14,103,2200045,,,,,,,2022-12-13,1,,,,,アルファシード,0
1106,5020005015771,新規,0,2022-12-13,2022-12-13,医療法人社団わんぱく会,,その他の設立登記法人,神奈川県,横浜市鶴見区,鶴見中央１丁目１９番４号メディカルプラザＤ鶴見３階,,14,101,2300051,,,,,,,2022-12-13,1,,,,,ワンパクカイ,0
1108,5021001077566,新規,0,2022-12-13,2022-12-13,株式会社ＬＯＬ,,株式会社,神奈川県,藤沢市,亀井野１丁目１０番１８号ユーアイビル２階,,14,205,2520813,,,,,,,2022-12-13,1,,,,,ラウル,0
1109,5021001077681,新規,0,2022-12-13,2022-12-13,株式会社ＫＳＫ,,株式会社,神奈川県,厚木市,田村町７番１２号グランシャルム１Ｆ,,14,212,2430016,,,,,,,2022-12-13,1,,,,,ケーエスケー,0
1110,5021003012496,新規,0,2022-12-13,2022-12-13,合同会社ＳＡＫＥ,,合同会社,神奈川県,横須賀市,池上５丁目７番１０号,,14,201,2380035,,,,,,,2022-12-13,1,,,,,サケ,0
1114,5030003020707,新規,0,2022-12-13,2022-12-13,武島フロアー合同会社,,合同会社,埼玉県,川口市,弥平１丁目１６－５－２０５ベルメゾンクレスト,,11,203,3320002,,,,,,,2022-12-13,1,,,,,タケシマフロアー,0
1115,5030005021083,新規,0,2022-12-13,2022-12-13,特定非営利活動法人わこうフードネットワーク,,その他の設立登記法人,埼玉県,和光市,白子２丁目２２番４１号とん作内,,11,229,3510101,,,,,,,2022-12-13,1,,,,,ワコウフードネットワーク,0
1116,5040001126158,新規,0,2022-12-13,2022-12-13,リカバリーサポート株式会社,,株式会社,千葉県,茂原市,小林２３１９番地１,,12,210,2970074,,,,,,,2022-12-13,1,,,,,リカバリーサポート,0
1120,5040003021456,新規,0,2022-12-13,2022-12-13,ディナーヤ・トレーディング合同会社,,合同会社,千葉県,山武市,松尾町祝田１２３番地・二号,,12,237,2891524,,,,,,,2022-12-13,1,,,,,ディナーヤトレーディング,0
1126,5060001035522,新規,0,2022-12-13,2022-12-13,華隆商事株式会社,,株式会社,栃木県,那須郡那須町,大字豊原乙沼尻２１０２－１０,,09,407,3293224,,,,,,,2022-12-13,1,,,,,カリュウショウジ,0
1137,5100001035947,新規,0,2022-12-13,2022-12-13,Ｌａ　Ｖｉｓｔａ株式会社,,株式会社,長野県,北安曇郡小谷村,大字千国乙１２８４０番地１,,20,486,3999422,,,,,,,2022-12-13,1,,,,,ラビスタ,0
1139,5100003006814,新規,0,2022-12-13,2022-12-13,合同会社んがんが,,合同会社,長野県,松本市,横田２丁目２０番１－１号,,20,202,3900804,,,,,,,2022-12-13,1,,,,,ンガンガ,0
1152,5120001251014,新規,0,2022-12-13,2022-12-13,株式会社よし川,,株式会社,大阪府,門真市,四宮５丁目１番３４号,,27,223,5710017,,,,,,,2022-12-13,1,,,,,ヨシカワ,0
1156,5120003023072,新規,0,2022-12-13,2022-12-13,合同会社Ａ＆Ｐａｒｔｎｅｒｓ,,合同会社,大阪府,大阪市浪速区,塩草２丁目７―１―３０６,,27,111,5560024,,,,,,,2022-12-13,1,,,,,エーアンドパートナーズ,0
1158,5120101066650,新規,0,2022-12-13,2022-12-13,株式会社Ｋｉｄｓ　Ｌｏｖｅ　Ｇｒｏｕｐ,,株式会社,大阪府,堺市北区,南花田町６０番地２,,27,146,5918011,,,,,,,2022-12-13,1,,,,,キッズラブグループ,0
1159,5120103004971,新規,0,2022-12-13,2022-12-13,合同会社Ｒｙｏ’ｓ　Ｆａｍｉｌｙ,,合同会社,大阪府,堺市南区,泉田中２３９３番地１９,,27,145,5900126,,,,,,,2022-12-13,1,,,,,リョウズファミリー,0
1170,5140001128359,新規,0,2022-12-13,2022-12-13,ＦＣＣ株式会社,,株式会社,兵庫県,神戸市中央区,磯上通８丁目１番２９号カサベラビルＣ＆Ｍ４０３号室,,28,110,6510086,,,,,,,2022-12-13,1,,,,,エフシーシー,0
1177,5160001024696,新規,0,2022-12-13,2022-12-13,株式会社Ｄｅｎｔａｌ・ＲＤ,,株式会社,滋賀県,甲賀市,水口町北脇１３４１番地,,25,209,5280057,,,,,,,2022-12-13,1,,,,,デンタルアールディー,0
1192,5190001030015,新規,0,2022-12-13,2022-12-13,株式会社コンフォートプロ,,株式会社,三重県,津市,一志町日置２２４番地５,,24,201,5152503,,,,,,,2022-12-13,1,,,,,コンフォートプロ,0
1195,5200001040771,新規,0,2022-12-13,2022-12-13,株式会社ＳＫｙ,,株式会社,岐阜県,岐阜市,浪花町１丁目８番地１アーバンライフシティ６０２号室,,21,201,5008301,,,,,,,2022-12-13,1,,,,,エスケイワイ,0
1196,5200003005764,新規,0,2022-12-13,2022-12-13,合同会社マウンテンサイド,,合同会社,岐阜県,高山市,名田町４丁目２０番地１２,,21,203,5060021,,,,,,,2022-12-13,1,,,,,マウンテンサイド,0
1205,5260001037498,新規,0,2022-12-13,2022-12-13,株式会社よこやま,,株式会社,岡山県,浅口市,鴨方町小坂西１７２７番地１,,33,216,7190231,,,,,,,2022-12-13,1,,,,,ヨコヤマ,0
1206,5260003004125,新規,0,2022-12-13,2022-12-13,合同会社ＴＮＧ,,合同会社,岡山県,岡山市東区,升田４６４番地１８,,33,103,7048163,,,,,,,2022-12-13,1,,,,,ティーエヌジー,0
1207,5260005011177,新規,0,2022-12-13,2022-12-13,一般社団法人ＨＥＬＬＯ　ＢＡＢＹ,,その他の設立登記法人,岡山県,津山市,神代８５５番地,,33,203,7094621,,,,,,,2022-12-13,1,,,,,,0
1217,5290001099866,新規,0,2022-12-13,2022-12-13,株式会社Ｙ・Ｔ商事,,株式会社,福岡県,糟屋郡志免町,志免中央４丁目７番１０－３０２号,,40,343,8112244,,,,,,,2022-12-13,1,,,,,ワイティーショウジ,0
1220,5290005018871,新規,0,2022-12-13,2022-12-13,一般社団法人いきしるべ,,その他の設立登記法人,福岡県,福岡市西区,今宿東１丁目１８番９－３号,,40,135,8190161,,,,,,,2022-12-13,1,,,,,イキシルベ,0
1221,5290801029114,新規,0,2022-12-13,2022-12-13,株式会社ｍｙｐｌａｃｅ,,株式会社,福岡県,行橋市,大字金屋３５１番地１号,,40,213,8240004,,,,,,,2022-12-13,1,,,,,マイプレイス,0
1232,5330001030388,新規,0,2022-12-13,2022-12-13,株式会社Ｐ＆Ａ,,株式会社,熊本県,熊本市西区,池田４丁目２２番１号,,43,103,8600082,,,,,,,2022-12-13,1,,,,,ピーアンドエー,0
1234,5340001025230,新規,0,2022-12-13,2022-12-13,株式会社つみき,,株式会社,鹿児島県,薩摩川内市,五代町１０７４番地,,46,215,8950066,,,,,,,2022-12-13,1,,,,,ツミキ,0
1240,5360001031301,新規,0,2022-12-13,2022-12-13,株式会社ＮＰＴ,,株式会社,沖縄県,名護市,大中１丁目９番２号,,47,209,9050017,,,,,,,2022-12-13,1,,,,,エヌピーティー,0
1241,5360003012555,新規,0,2022-12-13,2022-12-13,合同会社Ｆｒｅｅ　Ｗｉｌｌ,,合同会社,沖縄県,那覇市,古波蔵３丁目６番２４号プロスペリティ２０６,,47,201,9000024,,,,,,,2022-12-13,1,,,,,フリーウィル,0
1248,5390003002025,新規,0,2022-12-13,2022-12-13,合同会社林住企画,,合同会社,山形県,鶴岡市,上畑町７‐３１,,06,203,9970032,,,,,,,2022-12-13,1,,,,,リンジュウキカク,0
1261,5500001024645,新規,0,2022-12-13,2022-12-13,株式会社愛星サービス,,株式会社,愛媛県,松山市,磯河内甲２５２番地１渡部ビル２０５号室,,38,201,7992467,,,,,,,2022-12-13,1,,,,,アイセイサービス,0
1264,5700150113369,新規,0,2022-12-13,2022-12-13,Ｓ．Ｒ．Ｓ．ＩＮＴＥＲＮＡＴＩＯＮＡＬ　ＨＯＬＤＩＮＧＳ　ＬＡＮＫＡ　ＰＶＴ　ＬＴＤ．,,外国会社等,神奈川県,綾瀬市,吉岡９６２番地１,,14,218,2521124,スリランカ民主社会主義共和国、ネーラルラ、アクラナ７、メルチェナ８６０／２．Ａ,,,,,,2022-12-13,1,,,,,エスアールエムインタナシヨナルホールデイングスランカ,0
1271,6010001231430,新規,0,2022-12-13,2022-12-13,株式会社ＪＲＳ,,株式会社,東京都,千代田区,九段北１丁目４番７号,,13,101,1020073,,,,,,,2022-12-13,1,,,,,ジェイアールエス,0
1272,6010003039319,新規,0,2022-12-13,2022-12-13,合同会社リアン,,合同会社,東京都,千代田区,神田佐久間町３丁目９番第３田中ビル３階３６号室,,13,101,1010025,,,,,,,2022-12-13,1,,,,,リアン,0
1275,6010005035885,新規,0,2022-12-13,2022-12-13,司法書士法人Ｒｅｅ　Ｐｌｕｓ,,その他の設立登記法人,東京都,中央区,京橋１丁目３番２号,,13,102,1040031,,,,,,,2022-12-13,1,,,,,リープラス,0
1276,6010005035902,新規,0,2022-12-13,2022-12-13,一般財団法人経営者支援学会,,その他の設立登記法人,東京都,中央区,日本橋３丁目２番１４号,,13,102,1030027,,,,,,,2022-12-13,1,,,,,ケイエイシャシエンガッカイ,0
1295,6010601062283,新規,0,2022-12-13,2022-12-13,株式会社ＴＥＴ,,株式会社,東京都,江東区,豊洲４丁目１０－１８－９１７,,13,108,1350061,,,,,,,2022-12-13,1,,,,,テット,0
1296,6010703006502,新規,0,2022-12-13,2022-12-13,Ｄ．Ｎａｒｔ．Ａｍｐｔａ合同会社,,合同会社,東京都,品川区,北品川６丁目１番３１号Ｍｙｓｔｙｌｅｖｉｎｔａｇｅ高輪２０１,,13,109,1410001,,,,,,,2022-12-13,1,,,,,ディナートアンプタ,0
1300,6010901052125,新規,0,2022-12-13,2022-12-13,株式会社ファースト,,株式会社,東京都,世田谷区,代田５丁目２番２２－２０１号,,13,112,1550033,,,,,,,2022-12-13,1,,,,,ファースト,0
1304,6011001151437,新規,0,2022-12-13,2022-12-13,ａｍｕ株式会社,,株式会社,東京都,渋谷区,渋谷２丁目１９－１５宮益坂ビルディング６０９,,13,113,1500002,,,,,,,2022-12-13,1,,,,,アム,0
1305,6011001151453,新規,0,2022-12-13,2022-12-13,株式会社ＧＩＲＡＦＦＥ,,株式会社,東京都,目黒区,中町２丁目４４番１２－２０２号目黒建築会館ビル,,13,110,1530065,,,,,,,2022-12-13,1,,,,,ジラフ,0
1308,6011003015870,新規,0,2022-12-13,2022-12-13,ＬＩＧＨＴＵＰ合同会社,,合同会社,東京都,渋谷区,神宮前２丁目２番３９号ＴＨＥＣＯＵＲＴ神宮外苑７０１,,13,113,1500001,,,,,,,2022-12-13,1,,,,,ライトアップ,0
1329,6020001149366,新規,0,2022-12-13,2022-12-13,株式会社ＣＭ,,株式会社,神奈川県,横浜市港北区,大曽根台２０番１７号,,14,109,2220004,,,,,,,2022-12-13,1,,,,,シーエム,0
1330,6020001149382,新規,0,2022-12-13,2022-12-13,株式会社ｒｉｐｐｌｅｓ,,株式会社,神奈川県,横浜市西区,浅間町１丁目４番地３ウィザードビル４０２,,14,103,2200072,,,,,,,2022-12-13,1,,,,,リップルズ,0
1331,6020001149399,新規,0,2022-12-13,2022-12-13,株式会社百石,,株式会社,神奈川県,横浜市都筑区,加賀原１丁目４２番９号,,14,118,2240055,,,,,,,2022-12-13,1,,,,,ヒャッコク,0
1332,6020001149424,新規,0,2022-12-13,2022-12-13,株式会社ＮＫホームズ,,株式会社,神奈川県,横浜市南区,高根町３丁目１８番１８－４０３号,,14,105,2320022,,,,,,,2022-12-13,1,,,,,エヌケイホームズ,0
1333,6020003022884,新規,0,2022-12-13,2022-12-13,アサヒ合同会社,,合同会社,神奈川県,川崎市幸区,南幸町２丁目１０番地１２ティーフラワータナベ２０３,,14,132,2120016,,,,,,,2022-12-13,1,,,,,アサヒ,0
1339,6030001151404,新規,0,2022-12-13,2022-12-13,株式会社樽見測量設計,00128775,株式会社,埼玉県,上尾市,泉台２丁目１９番地３０,,11,219,3620062,,,,,,,2022-12-13,1,,,,,タルミソクリョウセッケイ,0
1340,6030001151420,新規,0,2022-12-13,2022-12-13,株式会社ＫＣＲ,,株式会社,埼玉県,草加市,瀬崎１丁目１２番７号,,11,221,3400022,,,,,,,2022-12-13,1,,,,,ケーシーアール,0
1344,6030003020672,新規,0,2022-12-13,2022-12-13,花村広報戦略合同会社,,合同会社,埼玉県,志木市,幸町１丁目６－４７エクセレントシティ志木１０１号室,,11,228,3530005,,,,,,,2022-12-13,1,,,,,ハナムラコウホウセンリャク,0
1345,6030003020730,新規,0,2022-12-13,2022-12-13,九色鹿合同会社,,合同会社,埼玉県,三郷市,新和３丁目２１６番地２テラスサカエ１０３,,11,237,3410034,,,,,,,2022-12-13,1,,,,,クシキロク,0
1354,6040003021471,新規,0,2022-12-13,2022-12-13,ＴＥＲＡＪＩＭＡ．ＥＮＧＩＮＥＥＲＩＮＧ合同会社,,合同会社,千葉県,白井市,桜台２丁目４－１４プロムナード桜台１０５号,,12,232,2701412,,,,,,,2022-12-13,1,,,,,テラジマエンジニアリング,0
1361,6050005013185,新規,0,2022-12-13,2022-12-13,学校法人能達学園,,その他の設立登記法人,茨城県,取手市,寺田５２３７番地９,,08,217,3020021,,,,,,,2022-12-13,1,,,,,ノウタツガクエン,0
1364,6060001035521,新規,0,2022-12-13,2022-12-13,株式会社Ｇｒｅｅｎ　Ｓｐｒｏｕｔ　Ｅｎｇｌｉｓｈ　Ｓｃｈｏｏｌ,,株式会社,栃木県,宇都宮市,戸祭台４６番地６,,09,201,3200017,,,,,,,2022-12-13,1,,,,,グリーンスプラウトイングリッシュスクール,0
1366,6060005010033,新規,0,2022-12-13,2022-12-13,仲野・浅井税理士法人,,その他の設立登記法人,栃木県,宇都宮市,道場宿町１２２３番地２１,,09,201,3213237,,,,,,,2022-12-13,1,,,,,ナカノアサイ,0
1367,6070001039918,新規,0,2022-12-13,2022-12-13,株式会社ジュンエステート,,株式会社,群馬県,高崎市,旭町３４番地２アパガーデンパレス高崎１００５号,,10,202,3700052,,,,,,,2022-12-13,1,,,,,ジュンエステート,0
1371,6080401026201,新規,0,2022-12-13,2022-12-13,株式会社大進総建,,株式会社,静岡県,浜松市浜北区,染地台１丁目１１番３３号ロイヤルタウン染地台Ａ１０１,,22,136,4340046,,,,,,,2022-12-13,1,,,,,ダイシンソウケン,0
1372,6080403004675,新規,0,2022-12-13,2022-12-13,ＡｃｅＯｎｅ合同会社,,合同会社,静岡県,浜松市中区,野口町２５２番地の５,,22,131,4300919,,,,,,,2022-12-13,1,,,,,エースワン,0
1375,6110001037173,新規,0,2022-12-13,2022-12-13,株式会社ＬＧＢ,,株式会社,新潟県,新潟市中央区,東大通１丁目６－９大新ビル２階,,15,103,9500087,,,,,,,2022-12-13,1,,,,,エルジービー,0
1391,6120001250980,新規,0,2022-12-13,2022-12-13,株式会社市來工務店,,株式会社,大阪府,大阪市東淀川区,下新庄４丁目１７－７バートンハウス１０６号室,,27,114,5330021,,,,,,,2022-12-13,1,,,,,イチキコウムテン,0
1392,6120001250989,新規,0,2022-12-13,2022-12-13,株式会社Ｇ＆Ｇサラン,,株式会社,大阪府,大阪市中央区,高津２丁目３番１６号ローズシャトー３０１,,27,128,5420072,,,,,,,2022-12-13,1,,,,,ジーアンドジーサラン,0
1393,6120001251005,新規,0,2022-12-13,2022-12-13,株式会社ＹＯＨＡＫＵ,,株式会社,大阪府,大阪市生野区,小路東４丁目７番１４号,,27,116,5440003,,,,,,,2022-12-13,1,,,,,ヨハク,0
1394,6120001251013,新規,0,2022-12-13,2022-12-13,ミーツデザイン株式会社,,株式会社,大阪府,大阪市北区,梅田１丁目１番地３号大阪駅前第３ビル２９階１－１－１号室,,27,127,5300001,,,,,,,2022-12-13,1,,,,,ミーツデザイン,0
1397,6120003023055,新規,0,2022-12-13,2022-12-13,ＴＩＴＡＮ合同会社,,合同会社,大阪府,大阪市城東区,諏訪２丁目３番２４号,,27,118,5360021,,,,,,,2022-12-13,1,,,,,タイタン,0
1398,6120003023063,新規,0,2022-12-13,2022-12-13,ＣＨＵＮＧ　ＡＮＨ合同会社,,合同会社,大阪府,大阪市西成区,潮路１丁目１０－１林岸里駅前ビル西号室,,27,122,5570052,,,,,,,2022-12-13,1,,,,,チュンアイン,0
1405,6120903004402,新規,0,2022-12-13,2022-12-13,合同会社パルアクティブ,,合同会社,大阪府,豊中市,服部南町４丁目３番３６号,,27,203,5610853,,,,,,,2022-12-13,1,,,,,パルアクティブ,0
1407,6130001073266,新規,0,2022-12-13,2022-12-13,株式会社うみあそび,,株式会社,京都府,京丹後市,網野町小浜９３２番地の２サンリードあみの２０２,,26,212,6293113,,,,,,,2022-12-13,1,,,,,ウミアソビ,0
1408,6130001073274,新規,0,2022-12-13,2022-12-13,株式会社ｎａｋａｙｏｓｈｉ,,株式会社,京都府,京都市右京区,梅津北浦町１９番地２８、１０２号室,,26,108,6150934,,,,,,,2022-12-13,1,,,,,ナカヨシ,0
1413,6140001128358,新規,0,2022-12-13,2022-12-13,株式会社リバーガーデン,,株式会社,兵庫県,尼崎市,元浜町４丁目５７番地リバーガーデン藤１０１,,28,202,6600085,,,,,,,2022-12-13,1,,,,,,0
1430,6200001040762,新規,0,2022-12-13,2022-12-13,株式会社ペガサス,,株式会社,岐阜県,大垣市,見取町１丁目７５番地５,,21,202,5030025,,,,,,,2022-12-13,1,,,,,ペガサス,0
1431,6200001040770,新規,0,2022-12-13,2022-12-13,ウェルタクトムーヴ株式会社,,株式会社,岐阜県,関市,本町４丁目１０番地,,21,205,5013886,,,,,,,2022-12-13,1,,,,,ウェルタクトムーヴ,0
1434,6220003003410,新規,0,2022-12-13,2022-12-13,合同会社ＹＯＣ,,合同会社,石川県,金沢市,福久東１丁目８８番地,,17,201,9203123,,,,,,,2022-12-13,1,,,,,ワイオーシー,0
1439,6250001019876,新規,0,2022-12-13,2022-12-13,株式会社ＳＵＭＩＯ,,株式会社,山口県,下関市,形山みどり町１３－９第１アネックスビル２０２,,35,201,7510885,,,,,,,2022-12-13,1,,,,,スミオ,0
1444,6260001037489,新規,0,2022-12-13,2022-12-13,江戸屋丈兵衛株式会社,,株式会社,岡山県,岡山市北区,中山下２丁目３－４０,,33,101,7000821,,,,,,,2022-12-13,1,,,,,エドヤタケベエ,0
1445,6260001037497,新規,0,2022-12-13,2022-12-13,株式会社エヌ・エス,,株式会社,岡山県,倉敷市,中島２１６１番地板谷ビル２Ｆ,,33,202,7100803,,,,,,,2022-12-13,1,,,,,エヌエス,0
1446,6260003004124,新規,0,2022-12-13,2022-12-13,合同会社３６９,,合同会社,岡山県,岡山市南区,芳泉２丁目９番１号,,33,104,7028027,,,,,,,2022-12-13,1,,,,,サブロク,0
1458,6330001030379,新規,0,2022-12-13,2022-12-13,ＭＤコンサル株式会社,,株式会社,熊本県,熊本市西区,池田１丁目３３－１９ウッディハイム池田１０５号,,43,103,8600082,,,,,,,2022-12-13,1,,,,,エムディーコンサル,0
1459,6330001030387,新規,0,2022-12-13,2022-12-13,株式会社おゆはぴ,,株式会社,熊本県,熊本市東区,沼山津４丁目１番４３号,,43,102,8612102,,,,,,,2022-12-13,1,,,,,オユハピ,0
1462,6330005010591,新規,0,2022-12-13,2022-12-13,芦北生活協同組合,00128680,その他の設立登記法人,熊本県,葦北郡芦北町,大字花岡１，８１１番地～１３,,43,482,8695442,,,,,,,2022-12-13,1,,,,,アシキタ,0
1463,6340001025238,新規,0,2022-12-13,2022-12-13,株式会社山鮮,,株式会社,鹿児島県,鹿児島市,大黒町３番１２号トーカンマンションいづろ８０３号,,46,201,8920825,,,,,,,2022-12-13,1,,,,,ヤマセン,0
1465,6360003012554,新規,0,2022-12-13,2022-12-13,Ｉｓｌａｎｄ　Ｄｒｅａｍ　Ｐｒｏｊｅｃｔ合同会社,,合同会社,沖縄県,那覇市,おもろまち４丁目２０番２１号,,47,201,9000006,,,,,,,2022-12-13,1,,,,,アイランドドリームプロジェクト,0
1467,6370001049366,新規,0,2022-12-13,2022-12-13,株式会社Ｆｒｅｅ　ｒｉｓｅ,,株式会社,宮城県,気仙沼市,舘山１丁目７番２３９号,,04,205,9880076,,,,,,,2022-12-13,1,,,,,フリーライズ,0
1472,6390003002024,新規,0,2022-12-13,2022-12-13,合同会社ｍａｈｉｍａｈｉ,,合同会社,山形県,山形市,大字十文字１５９１番地,,06,201,9902211,,,,,,,2022-12-13,1,,,,,マヒマヒ,0
1475,6400002009605,新規,0,2022-12-13,2022-12-13,有限会社さくら建設,,有限会社,岩手県,北上市,村崎野１５地割１番地２,,03,206,0240004,,,,,,,2022-12-13,1,,,,,サクラケンセツ,0
1477,6410003003721,新規,0,2022-12-13,2022-12-13,合同会社Ｐ‐ＣＵＢＥＤ,,合同会社,秋田県,湯沢市,大町１丁目２番２６号鈴木ビル２階,,05,207,0120841,,,,,,,2022-12-13,1,,,,,ピーキューブド,0
1486,6430001088036,新規,0,2022-12-13,2022-12-13,株式会社アイティパレット,,株式会社,北海道,室蘭市,中島町２丁目７－１３－３０７,,01,205,0500074,,,,,,,2022-12-13,1,,,,,アイティパレット,0
1497,6500001024644,新規,0,2022-12-13,2022-12-13,株式会社Ｙｕｅ,,株式会社,愛媛県,松山市,萱町１丁目４番地１第１グリーンビル１０２,,38,201,7900813,,,,,,,2022-12-13,1,,,,,ユエ,0
1498,6500001024652,新規,0,2022-12-13,2022-12-13,Ｌｅｔｏｎ．株式会社,,株式会社,愛媛県,松山市,三番町７丁目５－１マルヤビル２階,,38,201,7900003,,,,,,,2022-12-13,1,,,,,レトン,0
1507,7010003039284,新規,0,2022-12-13,2022-12-13,合同会社首都圏レジ開発フォー,,合同会社,東京都,千代田区,平河町１丁目６番１５号シルスフィア会計事務所内,,13,101,1020093,,,,,,,2022-12-13,1,,,,,シュトケンレジカイハツフォー,0
1508,7010003039301,新規,0,2022-12-13,2022-12-13,ベス・トラスト・ジャパン合同会社,,合同会社,東京都,千代田区,霞が関３丁目２番５号,,13,101,1000013,,,,,,,2022-12-13,1,,,,,ベストラストジャパン,0
1509,7010003039318,新規,0,2022-12-13,2022-12-13,合同会社ながみね,,合同会社,東京都,千代田区,丸の内３丁目１番１号東京共同会計事務所内,,13,101,1000005,,,,,,,2022-12-13,1,,,,,ナガミネ,0
1510,7010005035901,新規,0,2022-12-13,2022-12-13,一般社団法人ＣＣＦ２号,,その他の設立登記法人,東京都,中央区,八丁堀４丁目２番１０号ＡＯＪ税理士法人内,,13,102,1040032,,,,,,,2022-12-13,1,,,,,シーシーエフニゴウ,0
1515,7010401171317,新規,0,2022-12-13,2022-12-13,株式会社アロービースタジオ,,株式会社,東京都,港区,浜松町１丁目１２番２号東武ハイライン大門５０３,,13,103,1050013,,,,,,,2022-12-13,1,,,,,アロービースタジオ,0
1516,7010403029133,新規,0,2022-12-13,2022-12-13,合同会社ＲＪベータ,,合同会社,東京都,港区,虎ノ門１丁目２番８号リニューアブル・ジャパン株式会社内,,13,103,1050001,,,,,,,2022-12-13,1,,,,,アールジェイベータ,0
1518,7010405021658,新規,0,2022-12-13,2022-12-13,くれみらい特定目的会社,,その他の設立登記法人,東京都,港区,元赤坂１丁目１番７号,,13,103,1070051,,,,,,,2022-12-13,1,,,,,クレミライ,0
1527,7010601062266,新規,0,2022-12-13,2022-12-13,株式会社ＴＭＡＣ,,株式会社,東京都,墨田区,太平３丁目１５番１０号,,13,107,1300012,,,,,,,2022-12-13,1,,,,,ティーマック,0
1528,7010601062282,新規,0,2022-12-13,2022-12-13,株式会社ＩＴＳｔａｒｔ,,株式会社,東京都,墨田区,緑４丁目２２番６－５０１号クリオラベルヴィ錦糸町,,13,107,1300021,,,,,,,2022-12-13,1,,,,,アイティースタート,0
1548,7011001151394,新規,0,2022-12-13,2022-12-13,株式会社無垢,,株式会社,東京都,目黒区,東山１丁目１５－５,,13,110,1530043,,,,,,,2022-12-13,1,,,,,ムク,0
1549,7011001151411,新規,0,2022-12-13,2022-12-13,株式会社Ｐｌａｙ　ｔｅｃｈ,,株式会社,東京都,渋谷区,代々木２丁目２１－３－２Ｆ,,13,113,1510053,,,,,,,2022-12-13,1,,,,,プレイテック,0
1550,7011001151428,新規,0,2022-12-13,2022-12-13,ニッコリ株式会社,,株式会社,東京都,渋谷区,富ヶ谷１丁目１４番１４号３階,,13,113,1510063,,,,,,,2022-12-13,1,,,,,ニッコリ,0
1551,7011003015894,新規,0,2022-12-13,2022-12-13,合同会社ｓｔａｒｆｉｅｌｄ,,合同会社,東京都,渋谷区,渋谷２丁目６－１２ベルデ青山ビル６Ｆ,,13,113,1500002,,,,,,,2022-12-13,1,,,,,スターフィールド,0
1554,7011101101142,新規,0,2022-12-13,2022-12-13,株式会社Ｍｉｒａｋｕ,,株式会社,東京都,新宿区,西新宿８丁目１４番２４号西新宿ＫＦビル７０８号室,,13,104,1600023,,,,,,,2022-12-13,1,,,,,ミラク,0
1556,7011103012486,新規,0,2022-12-13,2022-12-13,アントジャパン合同会社,,合同会社,東京都,新宿区,新宿５丁目１１番３０号新宿第五葉山ビル３Ｆ,,13,104,1600022,,,,,,,2022-12-13,1,,,,,アントジャパン,0
1562,7011701025864,新規,0,2022-12-13,2022-12-13,株式会社やすえもん,,株式会社,東京都,江戸川区,一之江５丁目１６番２７号,,13,123,1320024,,,,,,,2022-12-13,1,,,,,ヤスエモン,0
1571,7020001149299,新規,0,2022-12-13,2022-12-13,エイチ・アイカンパニー株式会社,,株式会社,神奈川県,横浜市緑区,長津田１丁目２１番３５号,,14,113,2260027,,,,,,,2022-12-13,1,,,,,エイチアイカンパニー,0
1572,7020001149381,新規,0,2022-12-13,2022-12-13,株式会社ＳＬＫ,,株式会社,神奈川県,横浜市都筑区,中川中央１丁目２８番１９号,,14,118,2240003,,,,,,,2022-12-13,1,,,,,エスエルケイ,0
1573,7020001149415,新規,0,2022-12-13,2022-12-13,ロジビジョン株式会社,,株式会社,神奈川県,横浜市港北区,下田町５丁目４１番７号,,14,109,2230064,,,,,,,2022-12-13,1,,,,,ロジビジョン,0
1595,7040003021470,新規,0,2022-12-13,2022-12-13,福笑工業合同会社,,合同会社,千葉県,東金市,八坂台４丁目１番地１５,,12,213,2830801,,,,,,,2022-12-13,1,,,,,フクエコウギョウ,0
1599,7060003004333,新規,0,2022-12-13,2022-12-13,ＳＷＡＭＩＮＡＲＡＹＡＮ　ＴＲＡＤＩＮＧ合同会社,,合同会社,栃木県,小山市,東城南１丁目１番地３シャトル海老沼５０３号,,09,208,3230829,,,,,,,2022-12-13,1,,,,,スワミナラヤントレーディング,0
1602,7070001039900,新規,0,2022-12-13,2022-12-13,ＳＡＩ株式会社,,株式会社,群馬県,太田市,新井町８１番地３サンデュエル太田セントラルスクエア７０７号室,,10,205,3730852,,,,,,,2022-12-13,1,,,,,エスエーアイ,0
1604,7070003004753,新規,0,2022-12-13,2022-12-13,合同会社アート音旅,,合同会社,群馬県,前橋市,国領町２丁目２１番２５－１４０３号,,10,201,3710033,,,,,,,2022-12-13,1,,,,,アートオトタビ,0
1608,7080101023679,新規,0,2022-12-13,2022-12-13,株式会社ＳＵＮＢＡＳＥ,,株式会社,静岡県,裾野市,葛山６２５番地の３,,22,220,4101103,,,,,,,2022-12-13,1,,,,,サンベース,0
1617,7120001032115,新規,0,2022-12-13,2022-12-13,新井開発株式会社,,株式会社,大阪府,大阪市住吉区,上住吉２丁目９番２号,,27,120,5580046,,,,,,,2022-12-13,1,,,,,,0
1624,7120001250897,新規,0,2022-12-13,2022-12-13,昇真産業株式会社,,株式会社,大阪府,大阪市淀川区,東三国２丁目１８番２０号,,27,123,5320002,,,,,,,2022-12-13,1,,,,,ショウシンサンギョウ,0
1625,7120001250988,新規,0,2022-12-13,2022-12-13,金橋商事株式会社,,株式会社,大阪府,大阪市中央区,本町２丁目３番４号アソルティ本町４階,,27,128,5410053,,,,,,,2022-12-13,1,,,,,カネバシショウジ,0
1626,7120001250996,新規,0,2022-12-13,2022-12-13,株式会社Ｃｏｎｎｅｃｔ　Ｈｏｍｅ,,株式会社,大阪府,大阪市東淀川区,豊新２丁目７番２１号サンヒルズ１階,,27,114,5330014,,,,,,,2022-12-13,1,,,,,コネクトホーム,0
1627,7120001251004,新規,0,2022-12-13,2022-12-13,株式会社ＷＯＮＤＥＲ　ＷＡＬＬ,,株式会社,大阪府,大阪市都島区,片町２丁目２－４０,,27,102,5340025,,,,,,,2022-12-13,1,,,,,ワンダーウォール,0
1630,7120003023054,新規,0,2022-12-13,2022-12-13,猫小路合同会社,,合同会社,大阪府,大阪市天王寺区,国分町１３番６－３０１号,,27,109,5430044,,,,,,,2022-12-13,1,,,,,ネココジ,0
1636,7120903004418,新規,0,2022-12-13,2022-12-13,合同会社ＰｒｏＡｃｔＴ＆Ｐ,,合同会社,大阪府,豊中市,北緑丘２丁目１番１０－１０２号,,27,203,5600001,,,,,,,2022-12-13,1,,,,,プロアクトティーアンドピー,0
1650,7140001128357,新規,0,2022-12-13,2022-12-13,株式会社孔雀商会,,株式会社,兵庫県,三木市,岩宮２２３番地の１,,28,215,6730412,,,,,,,2022-12-13,1,,,,,クジャクショウカイ,0
1653,7150003002831,新規,0,2022-12-13,2022-12-13,合同会社ＮＡＲＡ開発２５,,合同会社,奈良県,大和郡山市,小泉町２４１５番,,29,203,6391042,,,,,,,2022-12-13,1,,,,,ナラカイハツニジュウゴ,0
1664,7190001030013,新規,0,2022-12-13,2022-12-13,株式会社ＩＴＯ総合建設,,株式会社,三重県,津市,香良洲町１２６５番地５,,24,201,5140315,,,,,,,2022-12-13,1,,,,,アイティオーソウゴウケンセツ,0
1668,7200003005762,新規,0,2022-12-13,2022-12-13,合同会社ＭＫ　ＧＬＯＢＡＬ　ＬＯＧＩＳＴＩＣＳ,,合同会社,岐阜県,本巣郡北方町,東加茂３丁目２番地,,21,421,5010426,,,,,,,2022-12-13,1,,,,,エムケーグローバルロジスティクス,0
1679,7240003005924,新規,0,2022-12-13,2022-12-13,合同会社Ｉｎ‐ｓｉｇｈｔ,,合同会社,広島県,福山市,加茂町大字下加茂１０２番地４７,,34,207,7202412,,,,,,,2022-12-13,1,,,,,インサイト,0
1683,7260001037447,新規,0,2022-12-13,2022-12-13,株式会社Ｖ・Ｍ,,株式会社,岡山県,岡山市東区,益野町５３番地１５,,33,103,7048175,,,,,,,2022-12-13,1,,,,,ブイエム,0
1684,7260001037496,新規,0,2022-12-13,2022-12-13,株式会社ラポ・インターナショナル,,株式会社,岡山県,総社市,中央６丁目８番地１１９,,33,208,7191131,,,,,,,2022-12-13,1,,,,,ラポインターナショナル,0
1686,7260005011175,新規,0,2022-12-13,2022-12-13,一般社団法人おかやま精神医療アドボケイトセンター,,その他の設立登記法人,岡山県,岡山市北区,春日町５番６号,,33,101,7000905,,,,,,,2022-12-13,1,,,,,オカヤマセイシンイリョウアドボケイトセンター,0
1688,7290001099880,新規,0,2022-12-13,2022-12-13,株式会社まるフード,,株式会社,福岡県,福岡市東区,箱崎ふ頭５丁目２番２２号２Ｆ,,40,131,8120051,,,,,,,2022-12-13,1,,,,,マルフード,0
1699,7310001018160,新規,0,2022-12-13,2022-12-13,株式会社クサノアルミ,,株式会社,長崎県,諫早市,高来町三部一名２３６番地５,,42,204,8540000,,,,,,,2022-12-13,1,,,,,,0
1700,7320001019471,新規,0,2022-12-13,2022-12-13,株式会社Ｂｒｉｄｇｅ,,株式会社,大分県,由布市,湯布院町川上１２６５－５,,44,213,8795102,,,,,,,2022-12-13,1,,,,,ブリッジ,0
1701,7330001030378,新規,0,2022-12-13,2022-12-13,株式会社ＬＧＣ熊本,,株式会社,熊本県,熊本市中央区,京町２丁目２番４２号２階,,43,101,8600078,,,,,,,2022-12-13,1,,,,,エルジーシークマモト,0
1702,7330001030403,新規,0,2022-12-13,2022-12-13,株式会社Ｎｉｖｉｃ,,株式会社,熊本県,玉名市,横島町共栄３７６番地,,43,206,8650073,,,,,,,2022-12-13,1,,,,,ニビック,0
1703,7340001025237,新規,0,2022-12-13,2022-12-13,株式会社暁,,株式会社,鹿児島県,鹿児島市,喜入瀬々串町１１０３ー３,,46,201,8910201,,,,,,,2022-12-13,1,,,,,アカツキ,0
1712,7390003002023,新規,0,2022-12-13,2022-12-13,ＬＯＨＡＴＨ合同会社,,合同会社,山形県,東村山郡中山町,あおば５番地８,,06,302,9900411,,,,,,,2022-12-13,1,,,,,ロハス,0
1722,7450005004358,新規,0,2022-12-13,2022-12-13,一般社団法人北野コミュニティセンター,,その他の設立登記法人,北海道,上川郡鷹栖町,北野東三条２丁目３番２０号,,01,452,0711223,,,,,,,2022-12-13,1,,,,,キタノコミュニティセンター,0
1726,7480003001899,新規,0,2022-12-13,2022-12-13,合同会社谷口建築,,合同会社,徳島県,三好市,池田町西山岡ノ花４０５９番地１,,36,208,7780040,,,,,,,2022-12-13,1,,,,,タニグチケンチク,0
1737,8010001231478,新規,0,2022-12-13,2022-12-13,株式会社鯖ジロー舎,00128777,株式会社,東京都,中央区,勝どき１丁目１３番６－６０４号,,13,102,1040054,,,,,,,2022-12-13,1,,,,,サバジローシャ,0
1739,8010003039283,新規,0,2022-12-13,2022-12-13,合同会社首都圏レジ開発スリー,,合同会社,東京都,千代田区,平河町１丁目６番１５号シルスフィア会計事務所内,,13,101,1020093,,,,,,,2022-12-13,1,,,,,シュトケンレジカイハツスリー,0
1740,8010003039325,新規,0,2022-12-13,2022-12-13,合同会社フォースメソッド,,合同会社,東京都,文京区,千石２丁目５－２,,13,105,1120011,,,,,,,2022-12-13,1,,,,,フォースメソッド,0
1743,8010005035900,新規,0,2022-12-13,2022-12-13,ギャラクシーソーラーホールディングス一般社団法人,,その他の設立登記法人,東京都,中央区,八丁堀４丁目２番１０号ＡＯＪ税理士法人内,,13,102,1040032,,,,,,,2022-12-13,1,,,,,ギャラクシーソーラーホールディングス,0
1745,8010401171316,新規,0,2022-12-13,2022-12-13,株式会社９０ＣＲＥＡＴＥ,,株式会社,東京都,港区,西新橋１丁目２２－４ＳｐａｃｅＲ３階,,13,103,1050003,,,,,,,2022-12-13,1,,,,,キュウマルクリエイト,0
1749,8010403029132,新規,0,2022-12-13,2022-12-13,合同会社ＲＪアルファ,,合同会社,東京都,港区,虎ノ門１丁目２番８号リニューアブル・ジャパン株式会社内,,13,103,1050001,,,,,,,2022-12-13,1,,,,,アールジェイアルファ,0
1755,8010501049742,新規,0,2022-12-13,2022-12-13,アメイジンググレースジャパン株式会社,,株式会社,東京都,台東区,元浅草１丁目６－２９、３Ｆ,,13,106,1110041,,,,,,,2022-12-13,1,,,,,アメイジンググレースジャパン,0
1756,8010503006808,新規,0,2022-12-13,2022-12-13,合同会社スズメ,,合同会社,東京都,台東区,橋場２丁目２２－３平塚アパート２０２,,13,106,1110023,,,,,,,2022-12-13,1,,,,,スズメ,0
1761,8010701043594,新規,0,2022-12-13,2022-12-13,株式会社ソリダリティ・ジャパン,,株式会社,東京都,品川区,東五反田５丁目１８番３－１０１号,,13,109,1410022,,,,,,,2022-12-13,1,,,,,ソリダリティジャパン,0
1766,8010901052098,新規,0,2022-12-13,2022-12-13,ＮＳ株式会社,,株式会社,東京都,世田谷区,用賀１丁目２０番２０号,,13,112,1580097,,,,,,,2022-12-13,1,,,,,エヌエス,0
1772,8011001151410,新規,0,2022-12-13,2022-12-13,株式会社ＳＴＡＧＥ　ＰＲＯ,,株式会社,東京都,渋谷区,渋谷３丁目１０－１８－８０５パークハビオ渋谷,,13,113,1500002,,,,,,,2022-12-13,1,,,,,ステージプロ,0
1773,8011001151443,新規,0,2022-12-13,2022-12-13,株式会社ロンピークス,,株式会社,東京都,目黒区,碑文谷２丁目１３－１３グランシャトレ碑文谷１０１,,13,110,1520003,,,,,,,2022-12-13,1,,,,,ロンピークス,0
1781,8011103012485,新規,0,2022-12-13,2022-12-13,合同会社ｍｅｌｌｅａｄ,,合同会社,東京都,新宿区,西新宿３丁目３番１３号西新宿水間ビル６階,,13,104,1600023,,,,,,,2022-12-13,1,,,,,メルリード,0
1796,8011801041645,新規,0,2022-12-13,2022-12-13,フッライオン株式会社,,株式会社,東京都,葛飾区,新小岩１丁目３５－５ＤＲホームズ新小岩２０３,,13,122,1240024,,,,,,,2022-12-13,1,,,,,フッライオン,0
1803,8013301050052,新規,0,2022-12-13,2022-12-13,株式会社アットエコライフ,,株式会社,東京都,豊島区,南長崎４丁目２０番５号アーバン南長崎ビル３Ｆ,,13,116,1710052,,,,,,,2022-12-13,1,,,,,アットエコライフ,0
1805,8013303006408,新規,0,2022-12-13,2022-12-13,べジュネス合同会社,,合同会社,東京都,豊島区,南長崎６丁目３番９－２１１３号,,13,116,1710052,,,,,,,2022-12-13,1,,,,,ベジュネス,0
1811,8020001149356,新規,0,2022-12-13,2022-12-13,株式会社ＳＴＯＲＹ,,株式会社,神奈川県,川崎市高津区,北見方２丁目２－８,,14,134,2130005,,,,,,,2022-12-13,1,,,,,ストーリー,0
1812,8020001149389,新規,0,2022-12-13,2022-12-13,株式会社いわさき商店,,株式会社,神奈川県,川崎市幸区,塚越２丁目２２５番地２５,,14,132,2120024,,,,,,,2022-12-13,1,,,,,イワサキショウテン,0
1813,8020001149414,新規,0,2022-12-13,2022-12-13,豊信通商株式会社,,株式会社,神奈川県,横浜市中区,元浜町３丁目２３番地,,14,104,2310004,,,,,,,2022-12-13,1,,,,,トヨシンツウショウ,0
1817,8020005015769,新規,0,2022-12-13,2022-12-13,横浜労務社会保険労務士法人,,その他の設立登記法人,神奈川県,横浜市戸塚区,品濃町５５７番地１,,14,110,2440801,,,,,,,2022-12-13,1,,,,,ヨコハマロウム,0
1820,8021001077679,新規,0,2022-12-13,2022-12-13,株式会社ベルフ,,株式会社,神奈川県,座間市,緑ケ丘２丁目１番４１号,,14,216,2520021,,,,,,,2022-12-13,1,,,,,ベルフ,0
1839,8040001126114,新規,0,2022-12-13,2022-12-13,ＩＬＭＡ　ＣＯＲＰＯＲＡＴＩＯＮ株式会社,,株式会社,千葉県,八街市,八街は９７番地１４３,,12,230,2891107,,,,,,,2022-12-13,1,,,,,イルマコーポレーション,0
1843,8040003021379,新規,0,2022-12-13,2022-12-13,ＩＤａ合同会社,,合同会社,千葉県,柏市,松ケ崎１０３４番地６ルピーノ２０１号,,12,217,2770835,,,,,,,2022-12-13,1,,,,,アイディーエー,0
1846,8050001052086,新規,0,2022-12-13,2022-12-13,株式会社Ｓｉｒｉｕｓ,,株式会社,茨城県,守谷市,同地２４８番地の１,,08,224,3020112,,,,,,,2022-12-13,1,,,,,シリウス,0
1852,8060003004332,新規,0,2022-12-13,2022-12-13,合同会社スピードファイア,,合同会社,栃木県,那須烏山市,向田２６８０,,09,215,3210635,,,,,,,2022-12-13,1,,,,,スピードファイア,0
1855,8070001039908,新規,0,2022-12-13,2022-12-13,株式会社ライフデザインパートナー,,株式会社,群馬県,伊勢崎市,田部井町２丁目６１９番地１１－１０６号,,10,204,3792222,,,,,,,2022-12-13,1,,,,,ライフデザインパートナー,0
1858,8080001025345,新規,0,2022-12-13,2022-12-13,株式会社ＤＥＣＯ　ＤＥＳＩＧＮ,,株式会社,静岡県,静岡市駿河区,谷田３３番８号、２Ｆ,,22,102,4228002,,,,,,,2022-12-13,1,,,,,デコデザイン,0
1879,8120001250995,新規,0,2022-12-13,2022-12-13,株式会社ｄｕａｌ．ａｄ,,株式会社,大阪府,大阪市北区,梅田１丁目１１番４号大阪駅前第４ビル９階９２３－１６５２号,,27,127,5300001,,,,,,,2022-12-13,1,,,,,デュアルエーディー,0
1880,8120001251003,新規,0,2022-12-13,2022-12-13,株式会社Ｒｅｐｒｏ　ＤＭＫ,,株式会社,大阪府,大阪市西区,北堀江１丁目２－１７四ツ橋川崎ビル５階,,27,106,5500014,,,,,,,2022-12-13,1,,,,,リプロディーエムケー,0
1881,8120001251028,新規,0,2022-12-13,2022-12-13,ｎａｋａｍａ　ｅｎｔｅｒｔａｉｎｍｅｎｔ株式会社,,株式会社,大阪府,大阪市西淀川区,福町１丁目１０番１－１０５号,,27,113,5550034,,,,,,,2022-12-13,1,,,,,ナカマエンターテインメント,0
1887,8120003023037,新規,0,2022-12-13,2022-12-13,ＪＡＮＮＺ　ＴＲＡＤＩＮＧ合同会社,,合同会社,大阪府,大阪市東淀川区,西淡路１丁目６－８,,27,114,5330031,,,,,,,2022-12-13,1,,,,,ジャンズトレーディング,0
1888,8120003023045,新規,0,2022-12-13,2022-12-13,山南合同会社,,合同会社,大阪府,大阪市淀川区,西中島７丁目２番１３号メゾン第３新大阪５０３号室,,27,123,5320011,,,,,,,2022-12-13,1,,,,,サンナン,0
1889,8120003023061,新規,0,2022-12-13,2022-12-13,ｄｅｓｉｇｎ　ＧＲＯＯＶＥ合同会社,,合同会社,大阪府,大阪市浪速区,下寺２丁目６番１９号ヴィラ松井５Ｄ号室,,27,111,5560001,,,,,,,2022-12-13,1,,,,,デザイングルーブ,0
1892,8120101066648,新規,0,2022-12-13,2022-12-13,株式会社ドロップアウト,,株式会社,大阪府,泉北郡忠岡町,馬瀬１丁目６番３１号,,27,341,5950804,,,,,,,2022-12-13,1,,,,,ドロップアウト,0
1894,8120901046840,新規,0,2022-12-13,2022-12-13,株式会社質こうじや,,株式会社,大阪府,茨木市,下穂積１丁目３番１０４号,,27,211,5670041,,,,,,,2022-12-13,1,,,,,シチコウジヤ,0
1904,8140001128281,新規,0,2022-12-13,2022-12-13,株式会社ＴＨＲＥＥ,,株式会社,兵庫県,芦屋市,西山町２－４西棟２階Ａ,,28,206,6590083,,,,,,,2022-12-13,1,,,,,スリー,0
1905,8140001128323,新規,0,2022-12-13,2022-12-13,株式会社煌琳,,株式会社,兵庫県,神戸市西区,押部谷町西盛５４１番地の６,,28,111,6512202,,,,,,,2022-12-13,1,,,,,コウリン,0
1909,8140005026382,新規,0,2022-12-13,2022-12-13,一般社団法人Ｓｔｕｄｙｔａｉｎｍｅｎｔ研究会,,その他の設立登記法人,兵庫県,姫路市,御国野町御着３０７,,28,201,6710232,,,,,,,2022-12-13,1,,,,,スタディテイメントケンキュウカイ,0
1914,8170001017408,新規,0,2022-12-13,2022-12-13,株式会社テルヤ,,株式会社,和歌山県,和歌山市,神前１７番地１５,,30,201,6408314,,,,,,,2022-12-13,1,,,,,テルヤ,0
1934,8260001037479,新規,0,2022-12-13,2022-12-13,株式会社Ａ‐ＳＴＡＧＥ,,株式会社,岡山県,備前市,日生町日生８５４番地,,33,211,7013204,,,,,,,2022-12-13,1,,,,,エーステージ,0
1935,8260001037487,新規,0,2022-12-13,2022-12-13,株式会社小山設備,,株式会社,岡山県,倉敷市,大内９２３番地５,,33,202,7100817,,,,,,,2022-12-13,1,,,,,コヤマセツビ,0
1936,8260001037495,新規,0,2022-12-13,2022-12-13,アイティス株式会社,,株式会社,岡山県,倉敷市,連島町鶴新田２４７番地９,,33,202,7128006,,,,,,,2022-12-13,1,,,,,アイティス,0
1948,8320003003968,新規,0,2022-12-13,2022-12-13,合同会社グローバルプラス,,合同会社,大分県,大分市,高城南町６番１０号,,44,201,8700155,,,,,,,2022-12-13,1,,,,,グローバルプラス,0
1951,8340001025228,新規,0,2022-12-13,2022-12-13,タートルベイ醸造株式会社,,株式会社,鹿児島県,大島郡徳之島町,亀津８２６番地,,46,530,8917101,,,,,,,2022-12-13,1,,,,,タートルベイジョウゾウ,0
1952,8340001025236,新規,0,2022-12-13,2022-12-13,株式会社セブンホーム,,株式会社,鹿児島県,鹿児島市,西別府町１８２９番地,,46,201,8900033,,,,,,,2022-12-13,1,,,,,セブンホーム,0
1962,8390003002022,新規,0,2022-12-13,2022-12-13,合同会社Ｋファクトリー,,合同会社,山形県,寒河江市,大字高屋字西浦２８７４番地の３,,06,206,9910042,,,,,,,2022-12-13,1,,,,,ケーファクトリー,0
1974,8500001024642,新規,0,2022-12-13,2022-12-13,株式会社ｔｈｅ　ｅｐｒｏ,,株式会社,愛媛県,松山市,南吉田町９９４番地１０,,38,201,7918042,,,,,,,2022-12-13,1,,,,,,0
1980,9010001231510,新規,0,2022-12-13,2022-12-13,株式会社ジーイーエヌ,,株式会社,東京都,中央区,銀座１丁目１２番４Ｎ＆Ｅ・ＢＬＤ．７階,,13,102,1040061,,,,,,,2022-12-13,1,,,,,ジーイーエヌ,0
1983,9010003039282,新規,0,2022-12-13,2022-12-13,合同会社首都圏レジ開発ツー,,合同会社,東京都,千代田区,平河町１丁目６番１５号シルスフィア会計事務所内,,13,101,1020093,,,,,,,2022-12-13,1,,,,,シュトケンレジカイハツツー,0
1984,9010003039316,新規,0,2022-12-13,2022-12-13,合同会社天宿,,合同会社,東京都,中央区,佃２丁目１番１号センチュリーパークタワー４１１,,13,102,1040051,,,,,,,2022-12-13,1,,,,,テンジュク,0
1986,9010005035899,新規,0,2022-12-13,2022-12-13,ＲＥパワー一般社団法人,,その他の設立登記法人,東京都,中央区,八丁堀４丁目２番１０号ＡＯＪ税理士法人内,,13,102,1040032,,,,,,,2022-12-13,1,,,,,アールイーパワー,0
1995,9010405021672,新規,0,2022-12-13,2022-12-13,一般社団法人神谷町キャピタル・フォー,,その他の設立登記法人,東京都,港区,虎ノ門３丁目１８番１２－５０２号株式会社虎ノ門会計神谷町分室内,,13,103,1050001,,,,,,,2022-12-13,1,,,,,カミヤチョウキャピタルフォー,0
1998,9010501049725,新規,0,2022-12-13,2022-12-13,義豊株式会社,,株式会社,東京都,台東区,上野６丁目７－１６ＩＮＣＯｆｆｉｃｅＵｅｎｏ４１８号室,,13,106,1100005,,,,,,,2022-12-13,1,,,,,ギホウ,0
1999,9010501049733,新規,0,2022-12-13,2022-12-13,株式会社ジー・エル・ディー,,株式会社,東京都,台東区,日本堤２丁目３２－５ユーべルジュ８０３号室,,13,106,1110021,,,,,,,2022-12-13,1,,,,,ジーエルディー,0
2000,9010501049741,新規,0,2022-12-13,2022-12-13,株式会社ＳＧネクストホールディングス,,株式会社,東京都,台東区,竜泉１丁目２７番３号水野ビル３階,,13,106,1100012,,,,,,,2022-12-13,1,,,,,エスジーネクストホールディングス,0
2006,9010801033511,新規,0,2022-12-13,2022-12-13,株式会社ＭＡＲＲＯＮ,,株式会社,東京都,大田区,中央６丁目２１番１４号,,13,111,1430024,,,,,,,2022-12-13,1,,,,,マロン,0
2012,9010903007842,新規,0,2022-12-13,2022-12-13,合同会社二九,,合同会社,東京都,世田谷区,若林２丁目１９番地７号,,13,112,1540023,,,,,,,2022-12-13,1,,,,,ニク,0
2015,9011001151327,新規,0,2022-12-13,2022-12-13,株式会社ＴＫＣ,,株式会社,東京都,渋谷区,渋谷２丁目１９番１５号,,13,113,1500002,,,,,,,2022-12-13,1,,,,,ティーケーシー,0
2016,9011001151434,新規,0,2022-12-13,2022-12-13,株式会社アンダスタンド,,株式会社,東京都,目黒区,目黒本町２丁目２３番９号,,13,110,1520002,,,,,,,2022-12-13,1,,,,,アンダスタンド,0
2017,9011001151450,新規,0,2022-12-13,2022-12-13,整体なび株式会社,,株式会社,東京都,渋谷区,千駄ヶ谷３丁目１６番５号北参道ＧＡＴＥ９階,,13,113,1510051,,,,,,,2022-12-13,1,,,,,セイタイナビ,0
2020,9011003015851,新規,0,2022-12-13,2022-12-13,合同会社ＯＲＣＡ,,合同会社,東京都,渋谷区,本町１丁目２６番２号ビクトール初台Ｃ－１,,13,113,1510071,,,,,,,2022-12-13,1,,,,,オルカ,0
2027,9011301028308,新規,0,2022-12-13,2022-12-13,株式会社ＵＮＤＥＲ　ＤＯＧ,,株式会社,東京都,杉並区,高円寺南５丁目１１－２６ＥＸＡＭ高円寺南１０７,,13,115,1660003,,,,,,,2022-12-13,1,,,,,アンダードッグ,0
2036,9011601026432,新規,0,2022-12-13,2022-12-13,ＶＩＴＡＢＯＸ株式会社,,株式会社,東京都,練馬区,上石神井１丁目１３番１０号ワコーオザキビル５Ｆ,,13,120,1770044,,,,,,,2022-12-13,1,,,,,ビタボックス,0
2041,9011803005432,新規,0,2022-12-13,2022-12-13,Ｌｅ’Ａ合同会社,,合同会社,東京都,足立区,西新井栄町１丁目１８番１－１３１１号,,13,121,1230843,,,,,,,2022-12-13,1,,,,,レア,0
2042,9012403005731,新規,0,2022-12-13,2022-12-13,ＳＩＦジャパン合同会社,,合同会社,東京都,武蔵野市,関前３丁目１０－６,,13,203,1800014,,,,,,,2022-12-13,1,,,,,シフジャパンン,0
2046,9013301050051,新規,0,2022-12-13,2022-12-13,株式会社アザラシライティング,,株式会社,東京都,豊島区,西池袋３丁目２１番１３－１７１０号,,13,116,1710021,,,,,,,2022-12-13,1,,,,,アザラシライティング,0
2047,9013303006407,新規,0,2022-12-13,2022-12-13,合同会社シュシュ,,合同会社,東京都,豊島区,上池袋３丁目１－５バルコン・ド・トダ１０１,,13,116,1700012,,,,,,,2022-12-13,1,,,,,シュシュ,0
2057,9020001149388,新規,0,2022-12-13,2022-12-13,株式会社ＣＣＪ横濱ファクトリー,,株式会社,神奈川県,横浜市港北区,新羽町８４９番地,,14,109,2230057,,,,,,,2022-12-13,1,,,,,シーシージェイヨコハマファクトリー,0
2061,9021003012451,新規,0,2022-12-13,2022-12-13,合同会社Ｈａｐｐｙ　Ｌｕｃｋｙ　Ｃｏｍｐａｎｙ,,合同会社,神奈川県,横須賀市,小川町１９番地５富士ビル３階,,14,201,2380004,,,,,,,2022-12-13,1,,,,,ハッピーラッキーカンパニー,0
2062,9021003012468,新規,0,2022-12-13,2022-12-13,合同会社ＳＡＳＡＩＣＨＩ,,合同会社,神奈川県,横須賀市,湘南鷹取６丁目１４番１３号,,14,201,2370066,,,,,,,2022-12-13,1,,,,,ササイチ,0
2075,9040001126204,新規,0,2022-12-13,2022-12-13,株式会社ベイサイドトラベル,,株式会社,千葉県,木更津市,高柳３３７１番地４,,12,206,2920014,,,,,,,2022-12-13,1,,,,,ベイサイドトラベル,0
2081,9040003021469,新規,0,2022-12-13,2022-12-13,天祥合同会社,,合同会社,千葉県,松戸市,上本郷２３９１番地の１,,12,207,2710064,,,,,,,2022-12-13,1,,,,,テンショウ,0
2084,9050005013182,新規,0,2022-12-13,2022-12-13,一般社団法人台湾華語文学習中心,,その他の設立登記法人,茨城県,龍ケ崎市,佐貫３丁目１番地９,,08,208,3010032,,,,,,,2022-12-13,1,,,,,タイワンカゴブンガクシュウチュウシン,0
2090,9080001025344,新規,0,2022-12-13,2022-12-13,ヒロプラント株式会社,,株式会社,静岡県,焼津市,小土２５０番地の３,,22,212,4250086,,,,,,,2022-12-13,1,,,,,ヒロプラント,0
2091,9080101023685,新規,0,2022-12-13,2022-12-13,株式会社モール,,株式会社,静岡県,沼津市,江浦３３７番地の１,,22,203,4100103,,,,,,,2022-12-13,1,,,,,モール,0
2092,9080402004483,新規,0,2022-12-13,2022-12-13,有限会社倉心実業,,有限会社,静岡県,浜松市西区,湖東町１０６番地の１,,22,133,4311103,,,,,,,2022-12-13,1,,,,,クラシンジツギョウ,0
2100,9110001037179,新規,0,2022-12-13,2022-12-13,株式会社里山パブリックリレーションズ,,株式会社,新潟県,十日町市,蒲生１５８３番地２イーストハウス,,15,210,9421534,,,,,,,2022-12-13,1,,,,,サトヤマパブリックリレーションズ,0
2106,9120001250838,新規,0,2022-12-13,2022-12-13,相互株式会社,,株式会社,大阪府,大阪市都島区,内代町１丁目４番１０号,,27,102,5340013,,,,,,,2022-12-13,1,,,,,ソウゴ,0
2107,9120001251002,新規,0,2022-12-13,2022-12-13,株式会社Ｕｃｙａ２０２０,,株式会社,大阪府,大阪市平野区,喜連４丁目４番２２号－１０３,,27,126,5470027,,,,,,,2022-12-13,1,,,,,ウチャ,0
2118,9120101066647,新規,0,2022-12-13,2022-12-13,Ｒｏｙａｌ　Ａｓｉａｎ株式会社,,株式会社,大阪府,富田林市,寺池台５丁目１７番２１号,,27,214,5840073,,,,,,,2022-12-13,1,,,,,ロイヤルアジアン,0
2119,9120103004968,新規,0,2022-12-13,2022-12-13,合同会社ジオ,,合同会社,大阪府,堺市北区,新金岡町５丁５番１２５号,,27,146,5918021,,,,,,,2022-12-13,1,,,,,ジオ,0
2121,9120901046864,新規,0,2022-12-13,2022-12-13,株式会社Ｏｍｕｓｕｂｉ,,株式会社,大阪府,吹田市,江の木町３０－２０－２Ｆ,,27,205,5640053,,,,,,,2022-12-13,1,,,,,オムスビ,0
2122,9120901046872,新規,0,2022-12-13,2022-12-13,株式会社ＫＭＲ,,株式会社,大阪府,吹田市,新芦屋上２７Ｅ－６０６,,27,205,5650804,,,,,,,2022-12-13,1,,,,,ケーエムアール,0
2124,9130001073271,新規,0,2022-12-13,2022-12-13,株式会社あかり,,株式会社,京都府,京都市左京区,北白川東久保田町１３番地２,,26,103,6068285,,,,,,,2022-12-13,1,,,,,アカリ,0
2148,9200001040768,新規,0,2022-12-13,2022-12-13,株式会社Ｐｒｏｕｄ,,株式会社,岐阜県,可児市,瀬田２４３番地７,,21,214,5090213,,,,,,,2022-12-13,1,,,,,プラウド,0
2150,9240003005922,新規,0,2022-12-13,2022-12-13,合同会社カゲヤマ技研,,合同会社,広島県,東広島市,西条土与丸５丁目６番８号,,34,212,7390007,,,,,,,2022-12-13,1,,,,,カゲヤマギケン,0
2151,9240003005930,新規,0,2022-12-13,2022-12-13,合同会社ｃａｎｖａｓ,,合同会社,広島県,広島市佐伯区,五日市駅前１丁目１０番１－６０３号,,34,108,7315125,,,,,,,2022-12-13,1,,,,,キャンバス,0
2159,9290001099862,新規,0,2022-12-13,2022-12-13,株式会社ラポール,,株式会社,福岡県,福岡市博多区,博多駅南４丁目４番１７号第５博多ＩＲ．ＢＬＤ,,40,132,8120016,,,,,,,2022-12-13,1,,,,,ラポール,0
2160,9290001099870,新規,0,2022-12-13,2022-12-13,株式会社Ｓｔｅｌｌａプラス,,株式会社,福岡県,福岡市中央区,伊崎１６番１豊嶋ビル１階,,40,133,8100067,,,,,,,2022-12-13,1,,,,,ステラプラス,0
2166,9330001030384,新規,0,2022-12-13,2022-12-13,株式会社ＦＩＲＳＴ,,株式会社,熊本県,熊本市東区,江津３丁目１１－１,,43,102,8620942,,,,,,,2022-12-13,1,,,,,ファースト,0
2167,9330001030401,新規,0,2022-12-13,2022-12-13,株式会社沙蔵,,株式会社,熊本県,熊本市中央区,下通１丁目１１番２０号コンフォート乃ぞみビル７０１,,43,101,8600807,,,,,,,2022-12-13,1,,,,,サクラ,0
2170,9340001025235,新規,0,2022-12-13,2022-12-13,株式会社ＡＩＧＡＴＥ,,株式会社,鹿児島県,鹿児島市,川上町４００３番地,,46,201,8920875,,,,,,,2022-12-13,1,,,,,アイガテ,0
2171,9360003012551,新規,0,2022-12-13,2022-12-13,Ｖｉｔａ　Ｅｎｇｉｎｅｅｒｉｎｇ合同会社,,合同会社,沖縄県,沖縄市,与儀３丁目１番７号,,47,211,9042174,,,,,,,2022-12-13,1,,,,,ヴィータエンジニアリング,0
2174,9380003005339,新規,0,2022-12-13,2022-12-13,渡辺国際貿易合同会社,,合同会社,福島県,福島市,蓬莱町７丁目６－１０,,07,201,9608157,,,,,,,2022-12-13,1,,,,,ワタナベコクサイボウエキ,0
2187,9430003014540,新規,0,2022-12-13,2022-12-13,合同会社リブラサポート,,合同会社,北海道,砂川市,空知太西三条６丁目２番１０号,,01,226,0730173,,,,,,,2022-12-13,1,,,,,リブラサポート,0
2190,9450001013856,新規,0,2022-12-13,2022-12-13,株式会社ハヤシ重機工業,,株式会社,北海道,上川郡当麻町,宇園別２区,,01,454,0781332,,,,,,,2022-12-13,1,,,,,ハヤシジュウキコウギョウ,0
2191,9470001019380,新規,0,2022-12-13,2022-12-13,株式会社秤枡,,株式会社,香川県,高松市,亀岡町１２番１５号,,37,201,7600006,,,,,,,2022-12-13,1,,,,,ハカリマス,0
2195,9480002016260,新規,0,2022-12-13,2022-12-13,有限会社清月別舘,,有限会社,徳島県,三好市,池田町サラダ１８９３番地の１,,36,208,7780003,,,,,,,2022-12-13,1,,,,,,0
2196,9490001010354,新規,0,2022-12-13,2022-12-13,株式会社ｒｉｃｈ５,,株式会社,高知県,香美市,土佐山田町６３７番地１,,39,212,7820047,,,,,,,2022-12-13,1,,,,,リッチファイブ,0
