sequenceNumber,corporateNumber,process,correct,updateDate,changeDate,name,nameImageId,kind,prefectureName,cityName,streetNumber,addressImageId,prefectureCode,cityCode,postCode,addressOutside,addressOutsideImageId,closeDate,closeCause,successorCorporateNumber,changeCause,assignmentDate,latest,enName,enPrefectureName,enCityName,enAddressOutside,furigana,hihyoji
1,1010001011688,登記記録の閉鎖等,0,2022-12-15,2022-12-09,株式会社駅前コイン,,株式会社,東京都,千代田区,内神田３丁目２０番７号,,13,101,1010047,,,2022-12-09,清算の結了等,,,2015-10-05,1,,,,,エキマエコイン,0
19,1010401105453,登記記録の閉鎖等,0,2022-12-15,2022-10-20,株式会社杉村商事,,株式会社,北海道,旭川市,春光一条９丁目１０番１６号,,01,204,0700871,,,2022-10-20,清算の結了等,,,2015-10-05,1,,,,,スギムラショウジ,0
20,1010401148956,登記記録の閉鎖等,0,2022-12-15,2022-12-07,ＬＳ－Ａｖｉａｔｉｏｎ第１７号株式会社,,株式会社,東京都,港区,六本木１丁目６番１号,,13,103,1060032,,,2022-12-07,清算の結了等,,,2019-10-31,1,,,,,エルエスアビエーションダイジュウナナゴウ,0
55,1011702000161,登記記録の閉鎖等,0,2022-12-15,2022-12-13,有限会社アートエンジニアリング,,有限会社,東京都,江戸川区,北小岩２丁目１４番２号,,13,123,1330051,,,2022-12-13,清算の結了等,,,2015-10-05,1,,,,,アートエンジニアリング,0
71,1013101001476,登記記録の閉鎖等,0,2022-12-15,2022-12-06,株式会社中山製作所,,株式会社,東京都,武蔵村山市,三ツ藤１丁目３８番地の１,,13,223,2080021,,,2022-12-06,清算の結了等,,,2015-10-05,1,,,,,ナカヤマセイサクショ,0
74,1020001014987,登記記録の閉鎖等,0,2022-12-15,2022-12-12,シーデックス株式会社,,株式会社,神奈川県,横浜市西区,宮ケ谷１３番地,,14,103,2200006,,,2022-12-12,清算の結了等,,,2015-10-05,1,,,,,シーデックス,0
82,1020002018590,登記記録の閉鎖等,0,2022-12-15,2022-12-12,有限会社港南泉,,有限会社,神奈川県,横浜市港南区,港南３丁目３番５号,,14,111,2330003,,,2022-12-12,清算の結了等,,,2015-10-05,1,,,,,コウナンセン,0
84,1020002106692,登記記録の閉鎖等,0,2022-12-15,2022-12-12,新橋施設有限会社,,有限会社,神奈川県,横浜市港南区,港南３丁目３２番地３号,,14,111,2330003,,,2022-12-12,清算の結了等,,,2015-10-05,1,,,,,シンバシシセツ,0
104,1030002069311,登記記録の閉鎖等,0,2022-12-15,2022-12-12,有限会社マイホーミング,,有限会社,埼玉県,春日部市,上蛭田７１番地１－３８－Ｄ２０９,,11,214,3440046,,,2022-12-12,清算の結了等,,,2015-10-05,1,,,,,,0
105,1030002081753,登記記録の閉鎖等,0,2022-12-15,2022-12-09,有限会社かみさと介護ステーション,,有限会社,埼玉県,児玉郡上里町,大字七本木２９１番地１,,11,385,3690306,,,2022-12-09,清算の結了等,,,2015-10-05,1,,,,,カミサトカイゴステーション,0
125,1100001003404,登記記録の閉鎖等,0,2022-12-15,2022-12-12,ミサワ通商株式会社,,株式会社,長野県,長野市,大字南長池３４４番地１０,,20,201,3810024,,,2022-12-12,合併による解散等,7070001019010,令和４年１２月１日群馬県太田市細谷町３３６番地１株式会社金谷興油（7070001019010）に合併し解散,2015-10-05,1,,,,,ミサワツウショウ,0
131,1120001072315,登記記録の閉鎖等,0,2022-12-15,2022-12-13,株式会社メイワーク,,株式会社,大阪府,大阪市福島区,福島３丁目７番３９号藤和堂ハイタウン６０２,,27,103,5530003,,,2022-12-13,清算の結了等,,,2015-10-05,1,,,,,メイワーク,0
182,1140002035401,登記記録の閉鎖等,0,2022-12-15,2022-12-12,有限会社大西フーズ,,有限会社,兵庫県,加古川市,平岡町新在家５６４番地の７,,28,210,6750101,,,2022-12-12,清算の結了等,,,2015-10-05,1,,,,,オオニシフーズ,0
206,1180302011882,登記記録の閉鎖等,0,2022-12-15,2022-12-09,有限会社平成不動産,,有限会社,愛知県,豊橋市,植田町字鶴首３番地の１０１６,,23,201,4418134,,,2022-12-09,清算の結了等,,,2015-10-05,1,,,,,ヘイセイフドウサン,0
207,1190001017817,登記記録の閉鎖等,0,2022-12-15,2022-12-12,株式会社キミイチ,,株式会社,三重県,四日市市,桜町３３６番地の６,,24,202,5121211,,,2022-12-12,清算の結了等,,,2015-10-05,1,,,,,キミイチ,0
214,1200003001379,登記記録の閉鎖等,0,2022-12-15,2022-12-14,合名会社大橋澱粉,,合名会社,岐阜県,羽島市,小熊町江頭８５３番地,,21,209,5016263,,,2022-12-14,清算の結了等,,,2015-10-05,1,,,,,オオハシデンプン,0
238,1310005007917,登記記録の閉鎖等,0,2022-12-15,2022-12-13,一般社団法人日研ホールディングス,,その他の設立登記法人,長崎県,佐世保市,小野町１７番地,,42,202,8580965,,,2022-12-13,清算の結了等,,,2016-02-03,1,,,,,ニッケンホールディングス,0
245,1360001006182,登記記録の閉鎖等,0,2022-12-15,2022-11-24,クレスト株式会社,,株式会社,沖縄県,那覇市,辻２丁目２５番地の１０,00101238,47,201,9000037,,,2022-11-24,清算の結了等,,,2015-10-05,1,,,,,,0
263,1410005002429,登記記録の閉鎖等,0,2022-12-15,2022-12-12,湯沢市宇留院内生産森林組合,,その他の設立登記法人,秋田県,湯沢市,宇留院内字山根１３番地,,05,207,0190403,,,2022-12-12,清算の結了等,,,2015-10-05,1,,,,,ユザワシウルインナイ,0
271,1450005004248,登記記録の閉鎖等,0,2022-12-15,2022-12-09,一般社団法人旭川ひとまちコミュニティ,,その他の設立登記法人,北海道,旭川市,川端町二条７丁目３－９－１０６下村総合投資事務所内,,01,204,0700812,,,2022-12-09,清算の結了等,,,2020-05-12,1,,,,,アサヒカワヒトマチコミュニティ,0
275,2010001041734,登記記録の閉鎖等,0,2022-12-15,2022-12-09,株式会社九十九社,,株式会社,東京都,中央区,日本橋２丁目１番１７号,,13,102,1030027,,,2022-12-09,清算の結了等,,,2015-10-05,1,,,,,ツクモシャ,0
277,2010001135081,登記記録の閉鎖等,0,2022-12-15,2022-12-13,株式会社オージスジャパン,,株式会社,三重県,度会郡南伊勢町,五ケ所浦７１９番地２０,,24,472,5160101,,,2022-12-13,清算の結了等,,,2015-10-05,1,,,,,オージスジャパン,0
299,2010401017788,登記記録の閉鎖等,0,2022-12-15,2022-12-12,株式会社チャーリー石黒ブラザース,,株式会社,東京都,渋谷区,広尾４丁目２番２０－３０１号,,13,113,1500012,,,2022-12-12,清算の結了等,,,2015-10-05,1,,,,,チャーリーイシグロブラザース,0
304,2010401148963,登記記録の閉鎖等,0,2022-12-15,2022-12-07,ＬＳ－Ａｖｉａｔｉｏｎ第２４号株式会社,,株式会社,東京都,港区,六本木１丁目６番１号,,13,103,1060032,,,2022-12-07,清算の結了等,,,2019-10-31,1,,,,,エルエスアビエーションダイニジュウヨンゴウ,0
324,2010801029160,登記記録の閉鎖等,0,2022-12-15,2022-12-09,株式会社ジャパンアルゴリズム,,株式会社,東京都,大田区,大森北１丁目３５番７号,,13,111,1430016,,,2022-12-09,合併による解散等,6010501037757,令和４年１１月３０日東京都千代田区岩本町一丁目３－１株式会社ＡＤＳＯＵＬ（6010501037757）に合併し解散,2018-09-12,1,,,,,,0
331,2011001070731,登記記録の閉鎖等,0,2022-12-15,2022-12-08,ＳＦインベストメント株式会社,,株式会社,東京都,港区,六本木３丁目２番１号,,13,103,1060032,,,2022-12-08,清算の結了等,,,2015-10-05,1,,,,,エスエフインベストメント,0
343,2011202002756,登記記録の閉鎖等,0,2022-12-15,2022-12-13,有限会社ジーアンドエムエンタープライズ,,有限会社,東京都,中野区,野方４丁目１１番３号,,13,114,1650027,,,2022-12-13,清算の結了等,,,2015-10-05,1,,,,,ジーアンドエムエンタープライズ,0
405,2070002024393,登記記録の閉鎖等,0,2022-12-15,2022-12-09,有限会社能楽館,,有限会社,群馬県,桐生市,仲町１丁目１２番４０号,,10,203,3760035,,,2022-12-09,清算の結了等,,,2015-10-05,1,,,,,ノウラクカン,0
423,2120001249192,登記記録の閉鎖等,0,2022-12-15,2022-12-13,株式会社アース,,株式会社,大阪府,大阪市城東区,鴫野西１丁目２番３３－３０７号,,27,118,5360014,,,2022-12-13,清算の結了等,,,2022-10-04,1,,,,,アース,0
433,2120102020659,登記記録の閉鎖等,0,2022-12-15,2022-12-12,有限会社キノシタ,,有限会社,大阪府,岸和田市,八田町３６２番１,,27,202,5960841,,,2022-12-12,合併による解散等,5120101041067,令和４年１２月１２日大阪府岸和田市八田町３６２番１株式会社ＫＩＮＯＳＨＩＴＡ（5120101041067）に合併し解散,2015-10-05,1,,,,,キノシタ,0
441,2130002031045,登記記録の閉鎖等,0,2022-12-15,2022-12-09,有限会社巧,,有限会社,京都府,京田辺市,田辺伝道林５６番地,,26,211,6100331,,,2022-12-09,清算の結了等,,,2015-10-05,1,,,,,タクミ,0
443,2130005007208,登記記録の閉鎖等,0,2022-12-15,2022-12-09,宍人生産森林組合,,その他の設立登記法人,京都府,南丹市,園部町宍人草谷１番地,,26,213,6220055,,,2022-12-09,清算の結了等,,,2015-10-05,1,,,,,シシウド,0
444,2140001046134,登記記録の閉鎖等,0,2022-12-15,2022-12-09,株式会社ダイリン,,株式会社,兵庫県,加古川市,野口町坂井１２３番地,,28,210,6750015,,,2022-12-09,清算の結了等,,,2015-10-05,1,,,,,ダイリン,0
454,2140005021810,登記記録の閉鎖等,0,2022-12-15,2022-12-14,一般社団法人笑楽育,,その他の設立登記法人,兵庫県,神戸市北区,筑紫が丘２丁目１５番地の６,,28,109,6511212,,,2022-12-14,清算の結了等,,,2015-10-05,1,,,,,ワライ,0
472,2180002029043,登記記録の閉鎖等,0,2022-12-15,2022-12-13,有限会社松浦商事,,有限会社,愛知県,名古屋市中村区,藤江町２丁目６０番地,,23,105,4530045,,,2022-12-13,清算の結了等,,,2015-10-05,1,,,,,マツウラショウジ,0
473,2180002071656,登記記録の閉鎖等,0,2022-12-15,2022-12-09,有限会社兼久,,有限会社,愛知県,瀬戸市,平町３丁目３８番地の１平町パークハイツ３０２,,23,204,4890916,,,2022-12-09,清算の結了等,,,2015-10-05,1,,,,,カネキュウ,0
476,2180005011502,登記記録の閉鎖等,0,2022-12-15,2022-12-09,税理士法人ＳＡＪ,,その他の設立登記法人,愛知県,名古屋市東区,葵１丁目４番３４号,,23,102,4610004,,,2022-12-09,清算の結了等,,,2015-10-05,1,,,,,エスエージェイ,0
494,2250002015077,登記記録の閉鎖等,0,2022-12-15,2022-12-12,有限会社ウィルコム,,有限会社,山口県,周南市,城ケ丘３丁目３－１４,,35,215,7450807,,,2022-12-12,清算の結了等,,,2015-10-05,1,,,,,,0
519,2360005001831,登記記録の閉鎖等,0,2022-12-15,2022-12-09,医療法人東風の会,,その他の設立登記法人,沖縄県,島尻郡与那原町,字上与那原３３５番地１,,47,348,9011302,,,2022-12-09,清算の結了等,,,2015-10-05,1,,,,,コチノカイ,0
534,2450002009380,登記記録の閉鎖等,0,2022-12-15,2022-12-13,有限会社だうんひる,,有限会社,北海道,空知郡上富良野町,本町３丁目６番３５号,,01,460,0710551,,,2022-12-13,清算の結了等,,,2015-10-05,1,,,,,ダウンヒル,0
543,3010001002396,登記記録の閉鎖等,0,2022-12-15,2022-12-08,ケイス電子株式会社,,株式会社,東京都,文京区,白山１丁目１５番１１号,,13,105,1130001,,,2022-12-08,清算の結了等,,,2015-10-05,1,,,,,ケイスデンシ,0
546,3010001043399,登記記録の閉鎖等,0,2022-12-15,2022-12-09,株式会社小松デベロツプメント,,株式会社,東京都,中央区,銀座６丁目９番５号,,13,102,1040061,,,2022-12-09,清算の結了等,,,2015-10-05,1,,,,,コマツデベロツプメント,0
564,3010401148962,登記記録の閉鎖等,0,2022-12-15,2022-12-07,ＬＳ－Ａｖｉａｔｉｏｎ第２３号株式会社,,株式会社,東京都,港区,六本木１丁目６番１号,,13,103,1060032,,,2022-12-07,清算の結了等,,,2019-10-31,1,,,,,エルエスアビエーションダイニジュウサンゴウ,0
581,3010601057947,登記記録の閉鎖等,0,2022-12-15,2022-12-08,株式会社オフィスＴＧ,,株式会社,東京都,墨田区,立川２丁目１３番７号,,13,107,1300023,,,2022-12-08,清算の結了等,,,2020-09-10,1,,,,,オフィスティージー,0
611,3011501007678,登記記録の閉鎖等,0,2022-12-15,2022-12-12,東京薄紙印刷株式会社,,株式会社,東京都,荒川区,荒川８丁目２３番１６号,,13,118,1160002,,,2022-12-12,合併による解散等,9010401007337,令和４年１２月１日東京都港区虎ノ門五丁目８番１５号カワセ印刷株式会社（9010401007337）に合併し解散,2015-10-05,1,,,,,トウキョウウスガミインサツ,0
612,3011502001597,登記記録の閉鎖等,0,2022-12-15,2022-12-08,有限会社川森製作所,,有限会社,東京都,北区,浮間３丁目９番５号,,13,117,1150051,,,2022-12-08,清算の結了等,,,2015-10-05,1,,,,,カワモリセイサクショ,0
630,3020001118472,登記記録の閉鎖等,0,2022-12-15,2022-12-09,株式会社ガーデン・サービス,,株式会社,東京都,調布市,国領町３丁目３番地１３プラザながかわ１０３号,,13,208,1820022,,,2022-12-09,清算の結了等,,,2016-11-07,1,,,,,ガーデンサービス,0
641,3021001046721,登記記録の閉鎖等,0,2022-12-15,2022-12-12,株式会社エス・オー・エル,,株式会社,神奈川県,海老名市,中央３丁目３番２６号Ｃ＆Ｃハイツ海老名地下１階,,14,215,2430432,,,2022-12-12,清算の結了等,,,2015-10-05,1,,,,,エスオーエル,0
651,3030001115956,登記記録の閉鎖等,0,2022-12-15,2022-12-12,株式会社すずなやさ’ｎ,,株式会社,埼玉県,川越市,川鶴１丁目１５番地１１,,11,201,3501176,,,2022-12-12,清算の結了等,,,2016-08-17,1,,,,,スズナヤサン,0
668,3050001001023,登記記録の閉鎖等,0,2022-12-15,2022-12-12,株式会社サンエイ企画,,株式会社,茨城県,水戸市,平須町１８２８番地９９０,,08,201,3100853,,,2022-12-12,清算の結了等,,,2015-10-05,1,,,,,サンエイキカク,0
672,3050002035219,登記記録の閉鎖等,0,2022-12-15,2022-12-13,有限会社綿引工業所,,有限会社,茨城県,常陸太田市,下河合町９２１番地,,08,212,3130044,,,2022-12-13,清算の結了等,,,2015-10-05,1,,,,,ワタヒキコウギョウショ,0
680,3070002023774,登記記録の閉鎖等,0,2022-12-15,2022-12-09,信和物産有限会社,,有限会社,群馬県,桐生市,東２丁目１１番８号,,10,203,3760034,,,2022-12-09,清算の結了等,,,2015-10-05,1,,,,,シンワブッサン,0
702,3120901039881,登記記録の閉鎖等,0,2022-12-15,2022-12-13,株式会社ＣＨＡＮＣＥ,,株式会社,大阪府,豊中市,少路１丁目１０番２５号少路駅前ビル５Ｆ,,27,203,5600004,,,2022-12-13,清算の結了等,,,2018-05-07,1,,,,,シャンス,0
745,3210005007966,登記記録の閉鎖等,0,2022-12-15,2022-12-13,鯖江印刷協同組合,00078173,その他の設立登記法人,福井県,鯖江市,幸町２丁目２番１０号,,18,207,9160018,,,2022-12-13,清算の結了等,,,2015-10-05,1,,,,,サバエインサツ,0
759,3290001048998,登記記録の閉鎖等,0,2022-12-15,2022-12-08,株式会社進和技研,,株式会社,福岡県,久留米市,梅満町３４７番地の７,,40,203,8300048,,,2022-12-08,清算の結了等,,,2015-10-05,1,,,,,シンワギケン,0
760,3290001091189,登記記録の閉鎖等,0,2022-12-15,2022-12-01,株式会社レスター,,株式会社,福岡県,大牟田市,大字白川２８３番地７０,,40,202,8370925,,,2022-12-01,合併による解散等,5290001077252,令和４年１２月１日福岡県大牟田市大字白川２８３番地７０株式会社ライアート（5290001077252）に合併し解散,2020-12-08,1,,,,,レスター,0
763,3290003001773,登記記録の閉鎖等,0,2022-12-15,2022-12-08,合資会社シナジーコンサルティング,,合資会社,福岡県,糟屋郡宇美町,ひばりが丘１丁目８番１０号,,40,341,8112106,,,2022-12-08,清算の結了等,,,2015-10-05,1,,,,,シナジーコンサルティング,0
764,3290005016282,登記記録の閉鎖等,0,2022-12-15,2022-12-13,一般財団法人東南アジア医療救護センター,,その他の設立登記法人,福岡県,福岡市中央区,草香江２丁目２番１７号,,40,133,8100045,,,2022-12-13,清算の結了等,,,2017-02-13,1,,,,,トウナンアジアイリョウキュウゴセンター,0
778,3330005002336,登記記録の閉鎖等,0,2022-12-15,2022-12-14,特定非営利活動法人くまもと温暖化対策センター,,その他の設立登記法人,熊本県,熊本市東区,錦ケ丘３１番１４号別棟２Ｆ,,43,102,8620912,,,2022-12-14,清算の結了等,,,2015-10-05,1,,,,,クマモトオンダンカタイサクセンター,0
784,3360005005088,登記記録の閉鎖等,0,2022-12-15,2022-12-09,特定非営利活動法人大きな和,,その他の設立登記法人,沖縄県,名護市,大中３丁目２１番１号,,47,209,9050017,,,2022-12-09,清算の結了等,,,2015-10-05,1,,,,,オオキナワ,0
793,3380001011591,登記記録の閉鎖等,0,2022-12-15,2022-12-09,株式会社中田工業所,,株式会社,福島県,石川郡石川町,字北町９７番地の４,,07,501,9637844,,,2022-12-09,清算の結了等,,,2015-10-05,1,,,,,ナカダコウギョウショ,0
797,3390001016805,登記記録の閉鎖等,0,2022-12-15,2022-12-12,株式会社伊義,,株式会社,山形県,天童市,大字山口３０番地の１,,06,210,9940101,,,2022-12-12,清算の結了等,,,2022-03-03,1,,,,,イヨシ,0
848,4010401148961,登記記録の閉鎖等,0,2022-12-15,2022-12-07,ＬＳ－Ａｖｉａｔｉｏｎ第２２号株式会社,,株式会社,東京都,港区,六本木１丁目６番１号,,13,103,1060032,,,2022-12-07,清算の結了等,,,2019-10-31,1,,,,,エルエスアビエーションダイニジュウニゴウ,0
873,4010801028326,登記記録の閉鎖等,0,2022-12-15,2022-12-08,株式会社エイチディープラン,,株式会社,埼玉県,戸田市,喜沢１丁目５１番地の５,,11,224,3350013,,,2022-12-08,清算の結了等,,,2017-11-17,1,,,,,エイチディープラン,0
876,4010901043571,登記記録の閉鎖等,0,2022-12-15,2022-12-08,メディカルデータバンク株式会社,,株式会社,東京都,中央区,勝どき１丁目１３番１号イヌイビル・カチドキ３階,,13,102,1040054,,,2022-12-08,清算の結了等,,,2019-01-29,1,,,,,メディカルデータバンク,0
886,4011001093318,登記記録の閉鎖等,0,2022-12-15,2022-12-09,ＬＩＧＨＴ　ＥＤＧＥ株式会社,,株式会社,東京都,千代田区,永田町２丁目１２番８号,,13,101,1000014,,,2022-12-09,合併による解散等,7011001070776,令和４年１２月１日東京都渋谷区猿楽町７番１２号ＣＯＭＦＯＵＲＴＩＳ０８１ＬＩＢＥＲＡ株式会社（7011001070776）に合併し解散,2015-10-05,1,,,,,,0
894,4011101080793,登記記録の閉鎖等,0,2022-12-15,2022-12-12,株式会社ＭＩＥＬ　Ｇｒｏｕｐ,,株式会社,東京都,新宿区,西新宿１丁目１５番１０号西新宿ビル２Ｆ,,13,104,1600023,,,2022-12-12,清算の結了等,,,2017-06-15,1,,,,,ミエルグループ,0
900,4011302001458,登記記録の閉鎖等,0,2022-12-15,2022-12-06,有限会社永福寝具,,有限会社,東京都,杉並区,永福３丁目５７番２０号,,13,115,1680064,,,2022-12-06,清算の結了等,,,2015-10-05,1,,,,,エイフクシング,0
914,4013201002413,登記記録の閉鎖等,0,2022-12-15,2022-12-13,株式会社山陽,,株式会社,東京都,目黒区,自由が丘１丁目２１番２２号,,13,110,1520035,,,2022-12-13,清算の結了等,,,2015-10-05,1,,,,,,0
916,4013301007733,登記記録の閉鎖等,0,2022-12-15,2022-12-09,株式会社店建,,株式会社,東京都,豊島区,東池袋１丁目３１番５号,,13,116,1700013,,,2022-12-09,清算の結了等,,,2015-10-05,1,,,,,テンケン,0
932,4020001128322,登記記録の閉鎖等,0,2022-12-15,2022-12-12,株式会社マジリ,,株式会社,神奈川県,横浜市都筑区,大丸１０番１１－３０３号,,14,118,2240061,,,2022-12-12,清算の結了等,,,2018-10-15,1,,,,,マジリ,0
940,4020002062727,登記記録の閉鎖等,0,2022-12-15,2022-12-12,有限会社マキ・ナーシング・ケアーコンサルタント,,有限会社,神奈川県,横浜市金沢区,釜利谷西１丁目５７番２０号,,14,108,2360046,,,2022-12-12,清算の結了等,,,2015-10-05,1,,,,,マキナーシングケアーコンサルタント,0
942,4020002095371,登記記録の閉鎖等,0,2022-12-15,2022-12-12,有限会社朝倉商店,,有限会社,神奈川県,川崎市川崎区,東田町４番地１０,,14,131,2100005,,,2022-12-12,清算の結了等,,,2015-10-05,1,,,,,アサクラショウテン,0
957,4030001146629,登記記録の閉鎖等,0,2022-12-15,2022-12-09,株式会社ハーヴィーズ,,株式会社,埼玉県,所沢市,御幸町７番６号,,11,208,3591115,,,2022-12-09,清算の結了等,,,2022-02-03,1,,,,,ハーヴィーズ,0
963,4030003019568,登記記録の閉鎖等,0,2022-12-15,2022-11-15,合同会社キャリアック,,合同会社,埼玉県,和光市,本町３１番３－１４０１号ＣＩハイツ,,11,229,3510114,,,2022-11-15,清算の結了等,,,2022-06-22,1,,,,,キャリアック,0
972,4040002042669,登記記録の閉鎖等,0,2022-12-15,2022-12-08,有限会社ハートステーション,,有限会社,東京都,中央区,銀座７丁目１３番６号サガミビル２階,,13,102,1040061,,,2022-12-08,清算の結了等,,,2015-10-05,1,,,,,ハートステーション,0
973,4040002075685,登記記録の閉鎖等,0,2022-12-15,2022-12-09,有限会社ワソウ,,有限会社,千葉県,市原市,草刈２１６５番地,,12,219,2900001,,,2022-12-09,清算の結了等,,,2015-10-05,1,,,,,ワソウ,0
985,4060002030341,登記記録の閉鎖等,0,2022-12-15,2022-12-08,有限会社タカプランニング,,有限会社,栃木県,小山市,宮本町３丁目１番２１号,,09,208,3230024,,,2022-12-08,清算の結了等,,,2015-10-05,1,,,,,タカプランニング,0
999,4120001189569,登記記録の閉鎖等,0,2022-12-15,2022-12-13,株式会社フレスカ,,株式会社,大阪府,大阪市中央区,上汐２丁目４番６号上六センタービル２Ｆ,,27,128,5420064,,,2022-12-13,合併による解散等,1150002000395,令和４年１１月３０日奈良県生駒市辻町２１３番地５株式会社大橋工業（1150002000395）に合併し解散,2015-10-05,1,,,,,フレスカ,0
1009,4120005021380,登記記録の閉鎖等,0,2022-12-15,2022-12-13,一般社団法人幸齢舎,,その他の設立登記法人,大阪府,大阪市東淀川区,西淡路１丁目１番３５号,,27,114,5330031,,,2022-12-13,清算の結了等,,,2020-01-24,1,,,,,コウレイシャ,0
1020,4122001000863,登記記録の閉鎖等,0,2022-12-15,2022-12-14,株式会社井上文信堂,,株式会社,大阪府,東大阪市,高井田中３丁目９番２４号,,27,227,5770065,,,2022-12-14,清算の結了等,,,2015-10-05,1,,,,,イノウエブンシンドウ,0
1035,4140002002638,登記記録の閉鎖等,0,2022-12-15,2022-12-13,有限会社吉本建材店,,有限会社,兵庫県,神戸市東灘区,住吉南町３丁目３番１４号,,28,101,6580041,,,2022-12-13,清算の結了等,,,2015-10-05,1,,,,,ヨシモトケンザイテン,0
1046,4180001086208,登記記録の閉鎖等,0,2022-12-15,2022-12-08,株式会社まりフクオカ,,株式会社,愛知県,稲沢市,稲葉３丁目９番１３号,,23,220,4928219,,,2022-12-08,清算の結了等,,,2015-10-05,1,,,,,マリフクオカ,0
1047,4180001095712,登記記録の閉鎖等,0,2022-12-15,2022-12-09,株式会社シングルマザー応援団,,株式会社,愛知県,知多郡武豊町,字桜ケ丘１丁目１番地４,,23,447,4702359,,,2022-12-09,合併による解散等,6180001093425,令和４年１１月３０日愛知県半田市出口町一丁目２１１番地の１９一階北株式会社シー・シー・エヌ（6180001093425）に合併し解散,2015-10-05,1,,,,,シングルマザーオウエンダン,0
1061,4210002004890,登記記録の閉鎖等,0,2022-12-15,2022-12-13,有限会社トーク・フォー・ユー,,有限会社,福井県,坂井市,春江町江留下屋敷５２番地２,,18,210,9190414,,,2022-12-13,清算の結了等,,,2015-10-05,1,,,,,トークフォーユー,0
1072,4240002054875,登記記録の閉鎖等,0,2022-12-15,2022-12-13,日南建設有限会社,,有限会社,広島県,広島市西区,観音新町３丁目８番３０号,,34,104,7330036,,,2022-12-13,清算の結了等,,,2021-05-21,1,,,,,ニチナンケンセツ,0
1076,4260003002658,登記記録の閉鎖等,0,2022-12-15,2022-12-07,陽だまり合同会社,,合同会社,岡山県,倉敷市,神田１丁目８番２８号ジュネス神田Ａ２０１,,33,202,7128061,,,2022-12-07,清算の結了等,,,2018-09-19,1,,,,,ヒダマリ,0
1094,4310001005054,登記記録の閉鎖等,0,2022-12-15,2022-12-14,株式会社フリーエム,,株式会社,長崎県,長崎市,京泊３丁目３０番３号,,42,201,8512211,,,2022-12-14,清算の結了等,,,2015-10-05,1,,,,,フリーエム,0
1115,4390001005154,登記記録の閉鎖等,0,2022-12-15,2022-12-12,株式会社丸常工務店,,株式会社,山形県,上山市,金瓶字田中２９番地の１９,,06,207,9993101,,,2022-12-12,清算の結了等,,,2015-10-05,1,,,,,マルツネコウムテン,0
1117,4390002014055,登記記録の閉鎖等,0,2022-12-15,2022-12-12,有限会社中央ラヂエーター工業所,,有限会社,山形県,山形市,穂積１０２番地の１,,06,201,9900001,,,2022-12-12,清算の結了等,,,2015-10-05,1,,,,,チュウオウラヂエーターコウギョウショ,0
1151,5010401148960,登記記録の閉鎖等,0,2022-12-15,2022-12-07,ＬＳ－Ａｖｉａｔｉｏｎ第２１号株式会社,,株式会社,東京都,港区,六本木１丁目６番１号,,13,103,1060032,,,2022-12-07,清算の結了等,,,2019-10-31,1,,,,,エルエスアビエーションダイニジュウイチゴウ,0
1199,5012403004373,登記記録の閉鎖等,0,2022-12-15,2022-12-12,合同会社モリモリ,,合同会社,東京都,府中市,府中町３丁目１１番地の１０モア府中３０７,,13,206,1830055,,,2022-12-12,清算の結了等,,,2020-06-04,1,,,,,モリモリ,0
1203,5012801007218,登記記録の閉鎖等,0,2022-12-15,2022-12-06,株式会社能研インキュベーター,,株式会社,東京都,立川市,曙町２丁目９番１号菊屋ビル８Ｆ,,13,202,1900012,,,2022-12-06,清算の結了等,,,2015-10-05,1,,,,,ノウケンインキュベーター,0
1207,5013301042085,登記記録の閉鎖等,0,2022-12-15,2022-12-14,株式会社ＲｅＲｉｓｅ,,株式会社,熊本県,玉名市,三ツ川５１２４－４,,43,206,8650009,,,2022-12-14,清算の結了等,,,2018-04-12,1,,,,,リライズ,0
1234,5030001122298,登記記録の閉鎖等,0,2022-12-15,2022-12-12,株式会社アクシス,,株式会社,埼玉県,所沢市,大字荒幡９０９－１－１０８,,11,208,3591133,,,2022-12-12,清算の結了等,,,2017-09-27,1,,,,,アクシス,0
1283,5100002009842,登記記録の閉鎖等,0,2022-12-15,2022-12-12,有限会社松倉興業,,有限会社,長野県,千曲市,大字小船山２１２番地,,20,218,3890801,,,2022-12-12,清算の結了等,,,2015-10-05,1,,,,,マツクラコウギョウ,0
1300,5120003019780,登記記録の閉鎖等,0,2022-12-15,2022-12-09,合同会社ＣｈｅＳｔａｒ,,合同会社,大阪府,大阪市北区,梅田１丁目１番３号大阪駅前第３ビル２３０７,,27,127,5300001,,,2022-12-09,清算の結了等,,,2021-07-05,1,,,,,チェスター,0
1314,5130001059695,登記記録の閉鎖等,0,2022-12-15,2022-12-14,八郎エステート株式会社,,株式会社,東京都,港区,赤坂４丁目７番６号赤坂ビジネスコート２階,,13,103,1070052,,,2022-12-14,清算の結了等,,,2017-05-08,1,,,,,,0
1318,5140001045513,登記記録の閉鎖等,0,2022-12-15,2022-12-09,ＥＣＯプロダクツ株式会社,,株式会社,兵庫県,高砂市,高砂町浜田町１丁目５番６－１１号,,28,216,6760022,,,2022-12-09,清算の結了等,,,2015-10-05,1,,,,,,0
1328,5150002009012,登記記録の閉鎖等,0,2022-12-15,2022-12-12,有限会社シルフィード,,有限会社,奈良県,香芝市,旭ケ丘３丁目１８番地６,,29,210,6390266,,,2022-12-12,清算の結了等,,,2015-10-05,1,,,,,シルフィード,0
1337,5180002012285,登記記録の閉鎖等,0,2022-12-15,2022-12-09,有限会社ハイクリーン,,有限会社,愛知県,清須市,西枇杷島町上新３７番地,,23,233,4520022,,,2022-12-09,清算の結了等,,,2015-10-05,1,,,,,ハイクリーン,0
1345,5180302025540,登記記録の閉鎖等,0,2022-12-15,2022-12-12,有限会社ヤマヨシ技建,,有限会社,愛知県,豊田市,水間町４丁目４６番地４,,23,211,4710012,,,2022-12-12,清算の結了等,,,2015-10-05,1,,,,,ヤマヨシギケン,0
1362,5240002007304,登記記録の閉鎖等,0,2022-12-15,2022-12-12,有限会社シーエッチアート企画,,有限会社,広島県,広島市西区,中広町２丁目２０番７号,,34,104,7330012,,,2022-12-12,清算の結了等,,,2015-10-05,1,,,,,シーエッチアートキカク,0
1364,5240002043811,登記記録の閉鎖等,0,2022-12-15,2022-12-13,有限会社ワイエス広告事務所,,有限会社,広島県,福山市,丸之内２丁目３番８号ダイアパレス丸之内二番館３０３号,,34,207,7200061,,,2022-12-13,清算の結了等,,,2015-10-05,1,,,,,ワイエスコウコクジムショ,0
1367,5280002009239,登記記録の閉鎖等,0,2022-12-15,2022-12-13,有限会社津宮建設,,有限会社,島根県,江津市,二宮町神主イ１０２０番地１,,32,207,6950024,,,2022-12-13,清算の結了等,,,2015-10-05,1,,,,,ツミヤケンセツ,0
1371,5290001073961,登記記録の閉鎖等,0,2022-12-15,2022-12-13,株式会社トーフラボ,,株式会社,福岡県,福岡市博多区,中洲４丁目６－１２,,40,132,8100801,,,2022-12-13,合併による解散等,9320001017952,令和４年１２月８日大分市金池町二丁目１番１０号イジゲングループ株式会社（9320001017952）に合併し解散,2016-05-16,1,,,,,トーフラボ,0
1374,5290001080710,登記記録の閉鎖等,0,2022-12-15,2022-12-09,ビジネスレザーファクトリー株式会社,,株式会社,福岡県,福岡市東区,多の津４丁目１４番１号,,40,131,8130034,,,2022-12-09,合併による解散等,6010001107754,令和４年１１月３０日東京都新宿区市谷田町二丁目１７番地株式会社ボーダレス・ジャパン（6010001107754）に合併し解散,2018-03-07,1,,,,,ビジネスレザーファクトリー,0
1398,5370002014287,登記記録の閉鎖等,0,2022-12-15,2022-12-12,有限会社ワタショー,,有限会社,宮城県,仙台市青葉区,上愛子字街道８１番地,,04,101,9893124,,,2022-12-12,清算の結了等,,,2015-10-05,1,,,,,ワタショー,0
1411,5410001001100,登記記録の閉鎖等,0,2022-12-15,2022-12-12,株式会社国土測量設計,,株式会社,秋田県,秋田市,横森２丁目７番２２号,,05,201,0100044,,,2022-12-12,清算の結了等,,,2015-10-05,1,,,,,コクドソクリョウセッケイ,0
1417,5460102004286,登記記録の閉鎖等,0,2022-12-15,2022-12-12,有限会社おがさ,,有限会社,北海道,帯広市,西二十二条南２丁目１番地１３７,,01,207,0802472,,,2022-12-12,清算の結了等,,,2015-10-05,1,,,,,オガサ,0
1473,6010802018340,登記記録の閉鎖等,0,2022-12-15,2022-12-08,有限会社コヨミ,,有限会社,東京都,大田区,大森西２丁目１７番２２号鈴木ビル１Ｆ,,13,111,1430015,,,2022-12-08,清算の結了等,,,2015-10-05,1,,,,,コヨミ,0
1494,6011202006258,登記記録の閉鎖等,0,2022-12-15,2022-12-12,有限会社弓座工務店,,有限会社,東京都,中野区,沼袋４丁目２７番１０号,,13,114,1650025,,,2022-12-12,清算の結了等,,,2015-10-05,1,,,,,ユミザコウムテン,0
1497,6011501007849,登記記録の閉鎖等,0,2022-12-15,2022-12-09,東洋工機株式会社,,株式会社,東京都,荒川区,東日暮里５丁目６番７－９０４号,,13,118,1160014,,,2022-12-09,清算の結了等,,,2015-10-05,1,,,,,トウヨウコウキ,0
1503,6011801040104,登記記録の閉鎖等,0,2022-12-15,2022-12-07,＿慧ジャパン株式会社,00125241,株式会社,東京都,足立区,興野２丁目３１番２３－８号,,13,121,1230844,,,2022-12-07,清算の結了等,,,2021-12-27,1,,,,,レイケイジャパン,0
1522,6020001103629,登記記録の閉鎖等,0,2022-12-15,2022-12-12,株式会社ジュンコーポレーション,,株式会社,神奈川県,横浜市保土ケ谷区,上菅田町６６２番地万葉マンション３０１,,14,106,2400051,,,2022-12-12,清算の結了等,,,2015-10-05,1,,,,,ジュンコーポレーション,0
1531,6021001007142,登記記録の閉鎖等,0,2022-12-15,2022-12-12,中日ゴム商事株式会社,,株式会社,神奈川県,茅ヶ崎市,茅ヶ崎字鶴田２３０番地１７,,14,207,2530041,,,2022-12-12,清算の結了等,,,2015-10-05,1,,,,,,0
1542,6021002008494,登記記録の閉鎖等,0,2022-12-15,2022-12-12,有限会社スマートサポート,,有限会社,神奈川県,藤沢市,鵠沼海岸２丁目１１番１９号,,14,205,2510037,,,2022-12-12,清算の結了等,,,2015-10-05,1,,,,,スマートサポート,0
1543,6021002014311,登記記録の閉鎖等,0,2022-12-15,2022-12-09,有限会社神奈川コンタクトレンズ,,有限会社,神奈川県,鎌倉市,津１０６９番地２０９,,14,204,2480032,,,2022-12-09,清算の結了等,,,2015-10-05,1,,,,,カナガワコンタクトレンズ,0
1580,6050002009748,登記記録の閉鎖等,0,2022-12-15,2022-12-12,株式会社シンメイ,,株式会社,茨城県,水戸市,中央２丁目８番８号アシスト第２ビル２０２号,,08,201,3100805,,,2022-12-12,清算の結了等,,,2015-10-05,1,,,,,シンメイ,0
1581,6060002021487,登記記録の閉鎖等,0,2022-12-15,2022-12-08,有限会社農業生産法人華,,有限会社,栃木県,鹿沼市,野尻２１４番地３,,09,205,3220251,,,2022-12-08,清算の結了等,,,2015-10-05,1,,,,,ノウギョウセイサンホウジンハナ,0
1585,6070001035652,登記記録の閉鎖等,0,2022-12-15,2022-12-12,株式会社ＴＫＫ,,株式会社,群馬県,高崎市,中尾町５５１番地,,10,202,3700001,,,2022-12-12,清算の結了等,,,2019-05-13,1,,,,,ティケイケイ,0
1588,6070002005811,登記記録の閉鎖等,0,2022-12-15,2022-12-12,有限会社ラッカープラン,,有限会社,群馬県,前橋市,大渡町１丁目７番地１６,,10,201,3710854,,,2022-12-12,清算の結了等,,,2015-10-05,1,,,,,ラッカープラン,0
1658,6180002082063,登記記録の閉鎖等,0,2022-12-15,2022-12-12,有限会社トモエ,,有限会社,愛知県,江南市,草井町中１９８番地,,23,217,4838006,,,2022-12-12,清算の結了等,,,2015-10-05,1,,,,,トモエ,0
1673,6220002010432,登記記録の閉鎖等,0,2022-12-15,2022-12-12,有限会社かつら,,有限会社,石川県,小松市,粟津町ワ８５番地,,17,203,9230326,,,2022-12-12,清算の結了等,,,2015-10-05,1,,,,,カツラ,0
1682,6240002029330,登記記録の閉鎖等,0,2022-12-15,2022-12-13,有限会社ティーアイ,,有限会社,広島県,東広島市,黒瀬切田が丘１丁目２１番１８号,,34,212,7392619,,,2022-12-13,清算の結了等,,,2015-10-05,1,,,,,ティーアイ,0
1689,6280001004000,登記記録の閉鎖等,0,2022-12-15,2022-12-14,株式会社リソート,,株式会社,島根県,大田市,川合町忍原イ１００６番地２,,32,205,6940012,,,2022-12-14,清算の結了等,,,2015-10-05,1,,,,,リソート,0
1725,6390005005669,登記記録の閉鎖等,0,2022-12-15,2022-12-12,一般社団法人尾花沢青年会議所,,その他の設立登記法人,山形県,尾花沢市,北町１丁目１０番５号,,06,212,9994231,,,2022-12-12,清算の結了等,,,2015-10-05,1,,,,,オバナザワセイネンカイギショ,0
1743,7010002004363,登記記録の閉鎖等,0,2022-12-15,2022-12-09,有限会社鳥義商店,,有限会社,東京都,文京区,千駄木２丁目１９番２０号,,13,105,1130022,,,2022-12-09,清算の結了等,,,2015-10-05,1,,,,,トリヨシショウテン,0
1746,7010401148959,登記記録の閉鎖等,0,2022-12-15,2022-12-07,ＬＳ－Ａｖｉａｔｉｏｎ第２０号株式会社,,株式会社,東京都,港区,六本木１丁目６番１号,,13,103,1060032,,,2022-12-07,清算の結了等,,,2019-10-31,1,,,,,エルエスアビエーションダイニジュウゴウ,0
1778,7011502013928,登記記録の閉鎖等,0,2022-12-15,2022-12-08,有限会社アトリエ小林,,有限会社,東京都,荒川区,町屋２丁目１７番１８号,,13,118,1160001,,,2022-12-08,清算の結了等,,,2015-10-05,1,,,,,アトリエコバヤシ,0
1780,7011701015477,登記記録の閉鎖等,0,2022-12-15,2022-12-12,株式会社ジェイセブン,,株式会社,東京都,江戸川区,西葛西１丁目１０番３４号,,13,123,1340088,,,2022-12-12,清算の結了等,,,2015-10-05,1,,,,,ジェイセブン,0
1791,7020001122462,登記記録の閉鎖等,0,2022-12-15,2022-12-12,株式会社高,,株式会社,神奈川県,横浜市都筑区,茅ケ崎中央２９番１号,,14,118,2240032,,,2022-12-12,清算の結了等,,,2017-07-31,1,,,,,コウ,0
1792,7020001133435,登記記録の閉鎖等,0,2022-12-15,2022-12-12,桜井健康研究株式会社,,株式会社,神奈川県,横浜市中区,山下町１６２番,,14,104,2310023,,,2022-12-12,清算の結了等,,,2019-10-30,1,,,,,サクライケンコウケンキュウ,0
1802,7021002028830,登記記録の閉鎖等,0,2022-12-15,2022-12-09,エス・エイチ・アイ有限会社,,有限会社,神奈川県,相模原市緑区,根小屋２４９３番地１９,,14,151,2520153,,,2022-12-09,清算の結了等,,,2015-10-05,1,,,,,エスエイチアイ,0
1822,7040001032197,登記記録の閉鎖等,0,2022-12-15,2022-12-12,株式会社グリーニングワークス,,株式会社,千葉県,市川市,真間１丁目３番３号,,12,203,2720826,,,2022-12-12,清算の結了等,,,2015-10-05,1,,,,,グリーニングワークス,0
1826,7040002037138,登記記録の閉鎖等,0,2022-12-15,2022-12-08,有限会社やまの工芸,,有限会社,千葉県,市川市,南八幡５丁目１２番９号,,12,203,2720023,,,2022-12-08,清算の結了等,,,2015-10-05,1,,,,,ヤマノコウゲイ,0
1865,7130001026693,登記記録の閉鎖等,0,2022-12-15,2022-12-08,株式会社バイオベルデ,,株式会社,京都府,京都市南区,東九条南松ノ木町４３番地１,,26,107,6018023,,,2022-12-08,合併による解散等,4130001011509,令和４年１２月１日京都市南区東九条南松ノ木町４５番地株式会社ビーエムジー（4130001011509）に合併し解散,2015-10-05,1,,,,,バイオベルデ,0
1869,7140001055320,登記記録の閉鎖等,0,2022-12-15,2022-12-13,株式会社スーパー玉出神戸,,株式会社,大阪府,大阪市西成区,玉出中１丁目１２番９号,,27,122,5570044,,,2022-12-13,清算の結了等,,,2015-10-05,1,,,,,スーパータマデコウベ,0
1882,7160001021188,登記記録の閉鎖等,0,2022-12-15,2022-12-13,エフライズ株式会社,,株式会社,滋賀県,東近江市,八日市本町６番９号,,25,213,5270012,,,2022-12-13,清算の結了等,,,2018-09-20,1,,,,,エフライズ,0
1897,7180301008643,登記記録の閉鎖等,0,2022-12-15,2022-12-08,アークＪＡＰＡＮ株式会社,,株式会社,愛知県,豊橋市,雲谷町字八尻１５番地６,,23,201,4413104,,,2022-12-08,清算の結了等,,,2015-10-05,1,,,,,アークジャパン,0
1902,7180302008568,登記記録の閉鎖等,0,2022-12-15,2022-12-09,有限会社テクノ内藤,,有限会社,愛知県,豊橋市,牧野町１２０番地の３,,23,201,4418112,,,2022-12-09,清算の結了等,,,2015-10-05,1,,,,,テクノナイトウ,0
1909,7200001014773,登記記録の閉鎖等,0,2022-12-15,2022-12-13,株式会社ケープ,,株式会社,岐阜県,不破郡垂井町,大石１９６番地の１,,21,361,5032108,,,2022-12-13,清算の結了等,,,2015-10-05,1,,,,,ケープ,0
1925,7290001094403,登記記録の閉鎖等,0,2022-12-15,2022-12-13,株式会社Ｐｅｏｐｌｅ＆Ｃｕｌｔｕｒｅ,,株式会社,福岡県,福岡市博多区,中洲４丁目６－１２,,40,132,8100801,,,2022-12-13,合併による解散等,9320001017952,令和４年１２月８日大分市金池町二丁目１番１０号イジゲングループ株式会社（9320001017952）に合併し解散,2021-09-06,1,,,,,ピープルアンドカルチャー,0
1931,7290802013197,登記記録の閉鎖等,0,2022-12-15,2022-12-12,有限会社アザレ化粧品北九州本舗,,有限会社,福岡県,北九州市八幡西区,穴生１丁目１５番２５号,,40,109,8060049,,,2022-12-12,清算の結了等,,,2015-10-05,1,,,,,アザレケショウヒンキタキュウシュウホンポ,0
1952,7370601002814,登記記録の閉鎖等,0,2022-12-15,2022-12-13,共立工業株式会社,,株式会社,宮城県,宮城郡利府町,花園１丁目４番３号,,04,406,9810132,,,2022-12-13,清算の結了等,,,2015-10-05,1,,,,,キョウリツコウギョウ,0
1963,7400001014101,登記記録の閉鎖等,0,2022-12-15,2022-12-13,株式会社ＪＫインテ,,株式会社,岩手県,二戸市,石切所字穴牛１３２番地,,03,213,0286103,,,2022-12-13,清算の結了等,,,2018-04-06,1,,,,,ジェイケイインテ,0
1973,7440003000046,登記記録の閉鎖等,0,2022-12-15,2022-12-09,合資会社丸〆大河商店,00090481,合資会社,北海道,函館市,西桔梗町５８９番地２５,,01,202,0410824,,,2022-12-09,清算の結了等,,,2015-10-05,1,,,,,マルシメオカワショウテン,0
1990,8010001215704,登記記録の閉鎖等,0,2022-12-15,2022-12-02,株式会社サブプロダクト,,株式会社,東京都,中央区,銀座７丁目１３番６号サガミビル２階,,13,102,1040061,,,2022-12-02,清算の結了等,,,2021-02-09,1,,,,,サブプロダクト,0
1998,8010003026190,登記記録の閉鎖等,0,2022-12-15,2022-12-09,合同会社ビットスピード,,合同会社,東京都,中央区,銀座１丁目１４番１１号銀松ビル４Ｆ,,13,102,1040061,,,2022-12-09,清算の結了等,,,2017-10-13,1,,,,,ビットスピード,0
2007,8010401098575,登記記録の閉鎖等,0,2022-12-15,2022-12-09,株式会社パブリック・ベンディング・サービス,,株式会社,東京都,江東区,木場１丁目５番２５号,,13,108,1350042,,,2022-12-09,清算の結了等,,,2015-10-05,1,,,,,パブリックベンディングサービス,0
2012,8010401148958,登記記録の閉鎖等,0,2022-12-15,2022-12-07,ＬＳ－Ａｖｉａｔｉｏｎ第１９号株式会社,,株式会社,東京都,港区,六本木１丁目６番１号,,13,103,1060032,,,2022-12-07,清算の結了等,,,2019-10-31,1,,,,,エルエスアビエーションダイジュウキュウゴウ,0
2020,8010501032797,登記記録の閉鎖等,0,2022-12-15,2022-12-09,ＨＫ建設株式会社,,株式会社,東京都,足立区,千住桜木２丁目５番６号,,13,121,1200045,,,2022-12-09,清算の結了等,,,2015-10-05,1,,,,,エイチケーケンセツ,0
2030,8010901046752,登記記録の閉鎖等,0,2022-12-15,2022-12-12,株式会社故郷自然文化公社,,株式会社,東京都,世田谷区,深沢４丁目３６番９号,,13,112,1580081,,,2022-12-12,清算の結了等,,,2020-08-05,1,,,,,フルサトシゼンブンカコウシャ,0
2058,8011201014532,登記記録の閉鎖等,0,2022-12-15,2022-12-13,株式会社アステック,,株式会社,東京都,中野区,南台４丁目５２番８号,,13,114,1640014,,,2022-12-13,清算の結了等,,,2015-10-05,1,,,,,アステック,0
2081,8013202014379,登記記録の閉鎖等,0,2022-12-15,2022-12-12,有限会社永島婚礼会,,有限会社,東京都,目黒区,緑が丘２丁目２番９号,,13,110,1520034,,,2022-12-12,清算の結了等,,,2015-10-05,1,,,,,ナガシマコンレイカイ,0
2092,8021002015209,登記記録の閉鎖等,0,2022-12-15,2022-12-09,有限会社東洋寝具,,有限会社,神奈川県,鎌倉市,笹目町１１番１４－２号,,14,204,2480015,,,2022-12-09,清算の結了等,,,2015-10-05,1,,,,,トウヨウシング,0
2121,8050003005819,登記記録の閉鎖等,0,2022-12-15,2022-12-12,マスオ企画合同会社,,合同会社,茨城県,東茨城郡城里町,大字那珂西２２７２番地の４,,08,310,3114302,,,2022-12-12,清算の結了等,,,2021-04-28,1,,,,,マスオキカク,0
2126,8070003001691,登記記録の閉鎖等,0,2022-12-15,2022-12-12,合同会社あらい,,合同会社,群馬県,甘楽郡甘楽町,大字福島５６０番地６,,10,384,3702212,,,2022-12-12,清算の結了等,,,2015-10-05,1,,,,,アライ,0
2131,8080402015481,登記記録の閉鎖等,0,2022-12-15,2022-12-13,有限会社ヒラタ防水,,有限会社,静岡県,浜松市浜北区,善地８５番地,,22,136,4340025,,,2022-12-13,清算の結了等,,,2015-10-05,1,,,,,ヒラタボウスイ,0
2144,8120001074412,登記記録の閉鎖等,0,2022-12-15,2022-12-14,池田泉州投資顧問株式会社,,株式会社,大阪府,大阪市北区,豊崎３丁目１番２２号,,27,127,5310072,,,2022-12-14,清算の結了等,,,2015-10-05,1,,,,,イケダセンシュウトウシコモン,0
2168,8120902017997,登記記録の閉鎖等,0,2022-12-15,2022-12-14,有限会社海保建物,,有限会社,大阪府,豊中市,中桜塚１丁目６番１３号,,27,203,5610881,,,2022-12-14,清算の結了等,,,2015-10-05,1,,,,,カイホタテモノ,0
2176,8140001021536,登記記録の閉鎖等,0,2022-12-15,2022-12-13,株式会社神戸ながたティ・エム・オー,,株式会社,兵庫県,神戸市長田区,久保町６丁目１番１－４０１号,,28,106,6530041,,,2022-12-13,清算の結了等,,,2015-10-05,1,,,,,コウベナガタティエムオー,0
2197,8180001139317,登記記録の閉鎖等,0,2022-12-15,2022-12-08,株式会社ＥＭＩＫＯ　ＥＸＣＵＲＳＩＯＮ＆ＢＥＹＯＮＤ,,株式会社,愛知県,名古屋市瑞穂区,洲山町１丁目１３番地の６,,23,108,4670066,,,2022-12-08,清算の結了等,,,2019-12-20,1,,,,,エミコエクスカーションアンドビヨンド,0
2203,8180002004016,登記記録の閉鎖等,0,2022-12-15,2022-12-09,有限会社クイーン・ベーカリー,,有限会社,愛知県,名古屋市緑区,上旭２丁目７０８番地,,23,114,4580016,,,2022-12-09,清算の結了等,,,2015-10-05,1,,,,,クイーンベーカリー,0
2207,8180002074819,登記記録の閉鎖等,0,2022-12-15,2022-12-12,有限会社後藤測量設計事務所,,有限会社,愛知県,犬山市,大字木津字北ノ畑５３番地,,23,215,4840079,,,2022-12-12,清算の結了等,,,2015-10-05,1,,,,,ゴトウソクリョウセッケイジムショ,0
2217,8220003000637,登記記録の閉鎖等,0,2022-12-15,2022-12-12,合資会社アイディーエム研究所,,合資会社,石川県,金沢市,小坂町南６３８番地,,17,201,9200811,,,2022-12-12,清算の結了等,,,2015-10-05,1,,,,,アイディーエムケンキュウショ,0
2222,8240002033339,登記記録の閉鎖等,0,2022-12-15,2022-12-13,有限会社ダイ工務店,,有限会社,広島県,広島市西区,南観音町６番１２号,,34,104,7330034,,,2022-12-13,清算の結了等,,,2015-10-05,1,,,,,ダイコウムテン,0
2232,8280003000978,登記記録の閉鎖等,0,2022-12-15,2022-12-14,合同会社招成社,,合同会社,島根県,邑智郡邑南町,中野２３５４番地,,32,449,6960102,,,2022-12-14,清算の結了等,,,2015-10-05,1,,,,,ショウセイシャ,0
2251,8340002010138,登記記録の閉鎖等,0,2022-12-15,2022-12-13,有限会社ユニバーサルリンク,,有限会社,鹿児島県,鹿児島市,東千石町２０番１６号,,46,201,8920842,,,2022-12-13,清算の結了等,,,2015-10-05,1,,,,,ユニバーサルリンク,0
2277,8450002005762,登記記録の閉鎖等,0,2022-12-15,2022-12-12,有限会社メイカ食品,,有限会社,北海道,旭川市,春光五区一条５丁目４６番地の２,,01,204,0700981,,,2022-12-12,清算の結了等,,,2015-10-05,1,,,,,メイカショクヒン,0
2280,8460102005959,登記記録の閉鎖等,0,2022-12-15,2022-12-12,有限会社鳥せい西北店,,有限会社,北海道,帯広市,西十二条北１丁目８番地４,,01,207,0800042,,,2022-12-12,清算の結了等,,,2015-10-05,1,,,,,トリセイセイホクテン,0
2310,9010401095794,登記記録の閉鎖等,0,2022-12-15,2022-12-08,株式会社Ｏｐｔｉｍｕｓ　Ｃａｐｉｔａｌ,,株式会社,東京都,港区,六本木３丁目２番１号,,13,103,1060032,,,2022-12-08,清算の結了等,,,2015-10-05,1,,,,,オプティマスキャピタル,0
2312,9010401148957,登記記録の閉鎖等,0,2022-12-15,2022-12-07,ＬＳ－Ａｖｉａｔｉｏｎ第１８号株式会社,,株式会社,東京都,港区,六本木１丁目６番１号,,13,103,1060032,,,2022-12-07,清算の結了等,,,2019-10-31,1,,,,,エルエスアビエーションダイジュウハチゴウ,0
2315,9010405015542,登記記録の閉鎖等,0,2022-12-15,2022-12-09,一般社団法人シップ・パートナーズ,,その他の設立登記法人,東京都,港区,虎ノ門３丁目２２番１０－２０１号,,13,103,1050001,,,2022-12-09,清算の結了等,,,2017-02-28,1,,,,,シップパートナーズ,0
2360,9012401030772,登記記録の閉鎖等,0,2022-12-15,2022-12-13,株式会社ケイアンドエーシステム,,株式会社,東京都,八王子市,八幡町２－１７エイラクビル１Ｆ,,13,201,1920053,,,2022-12-13,清算の結了等,,,2015-11-24,1,,,,,ケイアンドエーシステム,0
2363,9012801021512,登記記録の閉鎖等,0,2022-12-15,2022-12-05,株式会社グリーンホーム,,株式会社,東京都,立川市,一番町１丁目２３番地の１,,13,202,1900033,,,2022-12-05,清算の結了等,,,2022-04-13,1,,,,,グリーンホーム,0
2371,9020002004708,登記記録の閉鎖等,0,2022-12-15,2022-12-12,フカオ電気工事有限会社,,有限会社,神奈川県,横浜市緑区,小山町４３２番地２,,14,113,2260023,,,2022-12-12,清算の結了等,,,2015-10-05,1,,,,,フカオデンキコウジ,0
2384,9021002040940,登記記録の閉鎖等,0,2022-12-15,2022-12-09,有限会社三倖商事,,有限会社,神奈川県,大和市,中央２丁目１２番１１号,,14,213,2420021,,,2022-12-09,清算の結了等,,,2015-10-05,1,,,,,サンコウショウジ,0
2411,9040002094359,登記記録の閉鎖等,0,2022-12-15,2022-12-08,有限会社インフォメディア,,有限会社,千葉県,柏市,篠籠田１４９０番地の５２,,12,217,2770862,,,2022-12-08,清算の結了等,,,2015-10-05,1,,,,,インフォメディア,0
2429,9080401006266,登記記録の閉鎖等,0,2022-12-15,2022-12-13,小笠原撚糸株式会社,,株式会社,静岡県,浜松市西区,舞阪町舞阪１０２０番地の１,,22,133,4310211,,,2022-12-13,清算の結了等,,,2015-10-05,1,,,,,オガサワラネンシ,0
2431,9080402009466,登記記録の閉鎖等,0,2022-12-15,2022-12-09,有限会社丸星土木,,有限会社,静岡県,湖西市,鷲津１１４１番地の１,,22,221,4310431,,,2022-12-09,清算の結了等,,,2015-10-05,1,,,,,マルボシドボク,0
2459,9120901043003,登記記録の閉鎖等,0,2022-12-15,2022-12-09,ＬＩＮＫ株式会社,,株式会社,東京都,千代田区,内神田１丁目１４番１０号,,13,101,1010047,,,2022-12-09,合併による解散等,5011001097788,令和４年１２月１日東京都千代田区内神田一丁目１４番１０号株式会社Ｄｏｃｔｏｒｂｏｏｋ（5011001097788）に合併し解散,2020-07-22,1,,,,,リンク,0
2478,9140002069565,登記記録の閉鎖等,0,2022-12-15,2022-12-12,有限会社堀井,,有限会社,兵庫県,淡路市,中田２９９０番地の２,,28,226,6562163,,,2022-12-12,清算の結了等,,,2015-10-05,1,,,,,ホリイ,0
2492,9180001125522,登記記録の閉鎖等,0,2022-12-15,2022-12-08,株式会社オルベス,,株式会社,愛知県,名古屋市守山区,吉根南１１０２番地,,23,113,4630813,,,2022-12-08,清算の結了等,,,2016-11-15,1,,,,,オルベス,0
2501,9180002004097,登記記録の閉鎖等,0,2022-12-15,2022-12-09,有限会社光亜メガネ,,有限会社,愛知県,長久手市,市が洞１丁目１１３番地,,23,238,4801147,,,2022-12-09,清算の結了等,,,2015-10-05,1,,,,,コウアメガネ,0
2508,9180302027888,登記記録の閉鎖等,0,2022-12-15,2022-12-09,有限会社システムマルヰ,,有限会社,愛知県,新城市,副川字土林２４番地６,,23,221,4411946,,,2022-12-09,清算の結了等,,,2015-10-05,1,,,,,システムマルイ,0
2510,9200001002743,登記記録の閉鎖等,0,2022-12-15,2022-12-12,株式会社スター砥石製作所,,株式会社,岐阜県,岐阜市,長良竜東町４丁目６番地１,,21,201,5020061,,,2022-12-12,清算の結了等,,,2015-10-05,1,,,,,スタートイシセイサクショ,0
2524,9250001008975,登記記録の閉鎖等,0,2022-12-15,2022-12-12,株式会社大和,,株式会社,山口県,周南市,速玉町１番２３号,,35,215,7450844,,,2022-12-12,清算の結了等,,,2015-10-05,1,,,,,ダイワ,0
2541,9290802003353,登記記録の閉鎖等,0,2022-12-15,2022-12-14,有限会社白水薬局,,有限会社,福岡県,北九州市戸畑区,中原西２丁目４番１６号,,40,105,8040011,,,2022-12-14,清算の結了等,,,2015-10-05,1,,,,,シロウズヤッキョク,0
2543,9330003008494,登記記録の閉鎖等,0,2022-12-15,2022-12-13,合同会社ＭＭＳ,,合同会社,熊本県,熊本市南区,近見６丁目３番１６号,,43,104,8614101,,,2022-12-13,清算の結了等,,,2020-07-27,1,,,,,エムエムエス,0
2560,9410002006219,登記記録の閉鎖等,0,2022-12-15,2022-12-12,有限会社総設,,有限会社,秋田県,男鹿市,船川港女川字鵜ノ崎７番地の２１,,05,206,0100523,,,2022-12-12,清算の結了等,,,2015-10-05,1,,,,,ソウセツ,0
2566,9430002057367,登記記録の閉鎖等,0,2022-12-15,2022-12-12,有限会社プライズ,,有限会社,北海道,虻田郡倶知安町,字樺山１９２番地２２,,01,400,0440078,,,2022-12-12,清算の結了等,,,2015-10-05,1,,,,,プライズ,0
2569,9460002001207,登記記録の閉鎖等,0,2022-12-15,2022-12-13,有限会社サワダバツク,,有限会社,北海道,釧路市,愛国西２丁目２２番２号,,01,206,0850057,,,2022-12-13,清算の結了等,,,2015-10-05,1,,,,,サワダバツク,0
