sequenceNumber,corporateNumber,process,correct,updateDate,changeDate,name,nameImageId,kind,prefectureName,cityName,streetNumber,addressImageId,prefectureCode,cityCode,postCode,addressOutside,addressOutsideImageId,closeDate,closeCause,successorCorporateNumber,changeCause,assignmentDate,latest,enName,enPrefectureName,enCityName,enAddressOutside,furigana,hihyoji
11,1010001252654,新規,0,2025-03-04,2025-03-04,ＡＣＡケミスト株式会社,,株式会社,東京都,千代田区,平河町２丁目１６番９号永田町グラスゲート６階ＡＣＡ株式会社内,,13,101,1020093,,,,,,,2025-03-04,1,,,,,エーシーエーケミスト,0
12,1010001252720,新規,0,2025-03-04,2025-03-04,株式会社おんにきる,,株式会社,東京都,中央区,銀座１丁目１２番４号Ｎ＆ＥＢＬＤ．６Ｆ,,13,102,1040061,,,,,,,2025-03-04,1,,,,,オンニキル,0
13,1010001252729,新規,0,2025-03-04,2025-03-04,株式会社ＲｅｗａｒｄＳ,,株式会社,東京都,千代田区,神田岩本町１番地５山上ビル３Ｆ,,13,101,1010033,,,,,,,2025-03-04,1,,,,,リワーズ,0
15,1010003046567,新規,0,2025-03-04,2025-03-04,合同会社ＪＡＩＣ丹波蓄電所,,合同会社,東京都,千代田区,九段北３丁目２番４号,,13,101,1020073,,,,,,,2025-03-04,1,,,,,ジャイクタンバチクデンショ,0
16,1010003046575,新規,0,2025-03-04,2025-03-04,ＦＯＵＲＥ公共ＰＰＡ合同会社,,合同会社,東京都,中央区,京橋２丁目１２番６号ＡＯＪ税理士法人内,,13,102,1040031,,,,,,,2025-03-04,1,,,,,フォーレコウキョウピーピーエイ,0
17,1010003046609,新規,0,2025-03-04,2025-03-04,合同会社ＧＯＺｈｉＡＩ,,合同会社,東京都,文京区,千石３丁目１０－１０,,13,105,1120011,,,,,,,2025-03-04,1,,,,,ゴジアイ,0
18,1010101016538,新規,0,2025-03-04,2025-03-04,旭日株式会社,,株式会社,東京都,八王子市,大塚６４５－１ユーカリハイツ八王子２０５号室,,13,201,1920352,,,,,,,2025-03-04,1,,,,,アサヒ,0
24,1010401188556,新規,0,2025-03-04,2025-03-04,株式会社アッシュ,,株式会社,東京都,港区,赤坂８丁目１２番２８－５０２号,,13,103,1070052,,,,,,,2025-03-04,1,,,,,アッシュ,0
25,1010401188572,新規,0,2025-03-04,2025-03-04,株式会社ｏｎｅ　ｄｒｏｐ,,株式会社,東京都,港区,南青山２丁目２番１５号,,13,103,1070062,,,,,,,2025-03-04,1,,,,,ワンドロップ,0
26,1010401188580,新規,0,2025-03-04,2025-03-04,株式会社天照,,株式会社,東京都,港区,芝浦４丁目１２番２６号,,13,103,1080023,,,,,,,2025-03-04,1,,,,,アマテラス,0
27,1010401188589,新規,0,2025-03-04,2025-03-04,ＮｅｉｇｈｂｏｒＬａｎｄ株式会社,,株式会社,東京都,港区,海岸３丁目８番１４－７０４号,,13,103,1080022,,,,,,,2025-03-04,1,,,,,ネイバーランド,0
28,1010401188597,新規,0,2025-03-04,2025-03-04,株式会社吉井,,株式会社,東京都,港区,南青山５丁目１７番２号シドニービル５０２,,13,103,1070062,,,,,,,2025-03-04,1,,,,,ヨシイ,0
29,1010403034493,新規,0,2025-03-04,2025-03-04,合同会社キス,,合同会社,東京都,港区,新橋２丁目１５番１６号ル・グラシエルＢＬＤＧ．２９６階,,13,103,1050004,,,,,,,2025-03-04,1,,,,,キス,0
30,1010403034510,新規,0,2025-03-04,2025-03-04,Ｂｌａｃｋｓｈｉｐ合同会社,,合同会社,東京都,港区,新橋４丁目１４番１新橋ＡＵＮＢＬＤＧ４階,,13,103,1050004,,,,,,,2025-03-04,1,,,,,ブラックシップ,0
36,1010601066867,新規,0,2025-03-04,2025-03-04,株式会社花味舎,,株式会社,東京都,江東区,三好１丁目８番３号越前屋ビル２階,,13,108,1350022,,,,,,,2025-03-04,1,,,,,ハナミシャ,0
38,1010603011409,新規,0,2025-03-04,2025-03-04,Ｍ＆Ｃ合同会社,,合同会社,東京都,墨田区,京島１丁目１１―６―１Ｆ,,13,107,1310046,,,,,,,2025-03-04,1,,,,,エムアンドシー,0
40,1010701047305,新規,0,2025-03-04,2025-03-04,株式会社朝日学研シンクエスト,,株式会社,東京都,品川区,西五反田２丁目１１番８号,,13,109,1410031,,,,,,,2025-03-04,1,,,,,アサヒガッケンシンクエスト,0
41,1010701047313,新規,0,2025-03-04,2025-03-04,株式会社イルジオーネ,,株式会社,東京都,品川区,上大崎４丁目５番２６－４－１１０８号,,13,109,1410021,,,,,,,2025-03-04,1,,,,,イルジオーネ,0
43,1010801035878,新規,0,2025-03-04,2025-03-04,株式会社Ｙｏｆｆｉｅ,,株式会社,東京都,大田区,羽田５丁目３０番７号,,13,111,1440043,,,,,,,2025-03-04,1,,,,,ヨフィー,0
45,1010803005301,新規,0,2025-03-04,2025-03-04,Ｃｏｒｐｏｒａｔｅ　Ｇｏｖｅｒｎａｎｃｅ　Ａｆｒｉｃａ合同会社,,合同会社,東京都,大田区,田園調布５丁目４８番８号,,13,111,1450071,,,,,,,2025-03-04,1,,,,,コーポレートガバナンスアフリカ,0
46,1010901056873,新規,0,2025-03-04,2025-03-04,株式会社ＮＭＲ,,株式会社,東京都,世田谷区,深沢７丁目２番２４－４０２号,,13,112,1580081,,,,,,,2025-03-04,1,,,,,エヌエムアール,0
47,1010901056915,新規,0,2025-03-04,2025-03-04,株式会社ＧｒａｎＴａｉｒｅ,,株式会社,東京都,世田谷区,駒沢５丁目１５番５号ＳＡＷＡビル２０１,,13,112,1540012,,,,,,,2025-03-04,1,,,,,グランテール,0
58,1011001167982,新規,0,2025-03-04,2025-03-04,Ｌｙｃｈｅｅｅ株式会社,,株式会社,東京都,渋谷区,渋谷２丁目１９－１５宮益坂ビルディング６０９,,13,113,1500002,,,,,,,2025-03-04,1,,,,,ライチ,0
59,1011001168023,新規,0,2025-03-04,2025-03-04,Ｃｈａｒｍｉ　Ｇｌｏｂａｌ　Ｃａｐｉｔａｌ株式会社,,株式会社,東京都,渋谷区,恵比寿西２丁目４－８,,13,113,1500021,,,,,,,2025-03-04,1,,,,,チャーミーグローバルキャピタル,0
60,1011001168122,新規,0,2025-03-04,2025-03-04,Ｖｉｓｕｅｌｌｅ株式会社,,株式会社,東京都,渋谷区,千駄ヶ谷１丁目１１番１４号ビジデンス千駄ヶ谷５０１,,13,113,1510051,,,,,,,2025-03-04,1,,,,,ウスエラ,0
65,1011101110801,新規,0,2025-03-04,2025-03-04,株式会社ＳＯＣＩＲＩＳ,,株式会社,東京都,新宿区,若松町１５番１６号ＡＲＫＣＯＵＲＴ若松町１０４,,13,104,1620056,,,,,,,2025-03-04,1,,,,,ソシリス,0
66,1011101110818,新規,0,2025-03-04,2025-03-04,株式会社タカハビジョン,,株式会社,東京都,新宿区,新宿５丁目１１番１３号富士新宿ビル４階,,13,104,1600022,,,,,,,2025-03-04,1,,,,,タカハビジョン,0
67,1011103015528,新規,0,2025-03-04,2025-03-04,合同会社ＡＰＥＸ　ＲＯＹＡＬ,,合同会社,東京都,新宿区,高田馬場４丁目１３番８号ラウンジビル１階,,13,104,1690075,,,,,,,2025-03-04,1,,,,,エイペックスローヤル,0
68,1011301030403,新規,0,2025-03-04,2025-03-04,株式会社Ｍｆｕｎ,,株式会社,東京都,杉並区,清水１丁目３番１６号ダイン２０１,,13,115,1670033,,,,,,,2025-03-04,1,,,,,エムファン,0
71,1011401026870,新規,0,2025-03-04,2025-03-04,株式会社ライフデザインラボ,,株式会社,東京都,板橋区,加賀２丁目１１番１号,,13,119,1730003,,,,,,,2025-03-04,1,,,,,ライフデザインラボ,0
82,1012803003648,新規,0,2025-03-04,2025-03-04,ｙｕｍｙｕｎ合同会社,,合同会社,東京都,日野市,多摩平３丁目１９－１８,,13,212,1910062,,,,,,,2025-03-04,1,,,,,ヤムヤム,0
94,1020001161607,新規,0,2025-03-04,2025-03-04,タイウェイジャパン株式会社,,株式会社,神奈川県,横浜市南区,六ツ川１丁目２３０－８３,,14,105,2320066,,,,,,,2025-03-04,1,,,,,タイウェイジャパン,0
95,1020001161631,新規,0,2025-03-04,2025-03-04,株式会社ＣＯＭＰＡＳＳ,,株式会社,神奈川県,横浜市中区,山下町１６０番地２,,14,104,2310023,,,,,,,2025-03-04,1,,,,,コンパス,0
96,1020001161656,新規,0,2025-03-04,2025-03-04,株式会社好運,,株式会社,神奈川県,横浜市中区,三吉町３番地１１セルアージュ横濱関内ル・ミュウ９０２号室,,14,104,2310034,,,,,,,2025-03-04,1,,,,,コウウン,0
98,1020003027938,新規,0,2025-03-04,2025-03-04,ＭＨＣ合同会社,,合同会社,神奈川県,横浜市青葉区,荏田西２丁目１番８－４０３号,,14,117,2250014,,,,,,,2025-03-04,1,,,,,エムエイチシー,0
101,1021001084590,新規,0,2025-03-04,2025-03-04,株式会社明,,株式会社,神奈川県,相模原市緑区,西橋本５丁目２番１２－２８０１号,,14,151,2520131,,,,,,,2025-03-04,1,,,,,アカ,0
106,1030001165094,新規,0,2025-03-04,2025-03-04,株式会社Ｎｏｒｔｈｅｒｎ　Ｌｉｇｈｔｓ,,株式会社,埼玉県,桶川市,鴨川１丁目８番１０号,,11,231,3630024,,,,,,,2025-03-04,1,,,,,ノーザンライツ,0
107,1030001165103,新規,0,2025-03-04,2025-03-04,かわつく株式会社,,株式会社,埼玉県,川口市,本前川３丁目２４－１４,,11,203,3330849,,,,,,,2025-03-04,1,,,,,カワツク,0
108,1030001165128,新規,0,2025-03-04,2025-03-04,彩トライト株式会社,,株式会社,埼玉県,川越市,むさし野２２番地８,,11,201,3501170,,,,,,,2025-03-04,1,,,,,サイトライト,0
109,1030001165136,新規,0,2025-03-04,2025-03-04,株式会社ｗｉｎｓ,,株式会社,埼玉県,川越市,大字藤間２９番地５,,11,201,3501142,,,,,,,2025-03-04,1,,,,,ウィンズ,0
110,1030001165144,新規,0,2025-03-04,2025-03-04,株式会社不撓,,株式会社,埼玉県,草加市,西町１２０番地７－１０２号,,11,221,3400035,,,,,,,2025-03-04,1,,,,,フトウ,0
111,1030001165160,新規,0,2025-03-04,2025-03-04,仲泰株式会社,,株式会社,埼玉県,本庄市,寿３丁目２－１,,11,211,3670023,,,,,,,2025-03-04,1,,,,,チュウタイ,0
113,1030003026229,新規,0,2025-03-04,2025-03-04,合同会社カネモ,,合同会社,埼玉県,さいたま市大宮区,上小町７４４番地１,,11,103,3300855,,,,,,,2025-03-04,1,,,,,カネモ,0
115,1030005022060,新規,0,2025-03-04,2025-03-04,農事組合法人紅佐倉,,その他の設立登記法人,埼玉県,白岡市,彦兵衛７－１１１,,11,246,3490224,,,,,,,2025-03-04,1,,,,,ベニサクラ,0
119,1040001137456,新規,0,2025-03-04,2025-03-04,株式会社ムック,,株式会社,千葉県,市川市,北方２丁目１４番１号,,12,203,2720815,,,,,,,2025-03-04,1,,,,,ムック,0
120,1040001137588,新規,0,2025-03-04,2025-03-04,株式会社仲田組,,株式会社,千葉県,鎌ケ谷市,東初富１丁目３番５号,,12,224,2730122,,,,,,,2025-03-04,1,,,,,ナカタグミ,0
121,1040001137605,新規,0,2025-03-04,2025-03-04,株式会社アールズ,,株式会社,千葉県,木更津市,ほたる野３丁目４３番地９,,12,206,2920038,,,,,,,2025-03-04,1,,,,,アールズ,0
124,1040003027003,新規,0,2025-03-04,2025-03-04,合同会社ｗｏｏｄ　ｒａｎｄ,,合同会社,千葉県,千葉市若葉区,大宮町３０５９－２,,12,104,2640016,,,,,,,2025-03-04,1,,,,,ウッドランド,0
127,1050001056242,新規,0,2025-03-04,2025-03-04,株式会社ＭＩＷＡ,,株式会社,茨城県,東茨城郡城里町,大字石塚２２５８番地の１,,08,310,3114303,,,,,,,2025-03-04,1,,,,,ミワ,0
130,1060003005452,新規,0,2025-03-04,2025-03-04,Ｉｂｒａｈｉｍ　Ｉｎｔｅｒｎａｔｉｏｎａｌ合同会社,,合同会社,栃木県,小山市,大字羽川２７４－７,,09,208,3230012,,,,,,,2025-03-04,1,,,,,イブラヒムインターナショナル,0
142,1080401027765,新規,0,2025-03-04,2025-03-04,株式会社マルティ,,株式会社,静岡県,浜松市中央区,佐藤２丁目２７番１９－３０４号コープ佐藤,,22,138,4300807,,,,,,,2025-03-04,1,,,,,マルティ,0
143,1090003002760,新規,0,2025-03-04,2025-03-04,ＦＲ企画合同会社,,合同会社,山梨県,北杜市,長坂町小荒間２０４２番地１,,19,209,4080031,,,,,,,2025-03-04,1,,,,,エフアールキカク,0
146,1110001039075,新規,0,2025-03-04,2025-03-04,株式会社Ａｎｇｅｌ　Ｇｒｅｅｎ,,株式会社,新潟県,新潟市西蒲区,槇島６６６番地,,15,108,9590433,,,,,,,2025-03-04,1,,,,,エンジェルグリーン,0
153,1120001273219,新規,0,2025-03-04,2025-03-04,銖＿金属株式会社,00138184,株式会社,大阪府,大阪市阿倍野区,松崎町２丁目３番８号７０２号室,,27,119,5450053,,,,,,,2025-03-04,1,,,,,シュキンゾク,0
154,1120001273301,新規,0,2025-03-04,2025-03-04,雷貝康養旅居株式会社,,株式会社,大阪府,大阪市大正区,三軒家西３丁目４番１６号中山ビル４０８Ａ,,27,108,5510001,,,,,,,2025-03-04,1,,,,,ライバイコウヨウリョキョ,0
155,1120003028752,新規,0,2025-03-04,2025-03-04,合同会社けせらせら,,合同会社,大阪府,大阪市北区,梅田１丁目２番２号大阪駅前第２ビル１２－１２,,27,127,5300001,,,,,,,2025-03-04,1,,,,,ケセラセラ,0
161,1120101071142,新規,0,2025-03-04,2025-03-04,株式会社浬,,株式会社,大阪府,河内長野市,日野３７２番地の甲,,27,216,5860085,,,,,,,2025-03-04,1,,,,,カイリ,0
163,1120901050519,新規,0,2025-03-04,2025-03-04,株式会社匡美,,株式会社,大阪府,高槻市,上田辺町７番４号,,27,207,5690805,,,,,,,2025-03-04,1,,,,,タダヨシ,0
169,1130001079136,新規,0,2025-03-04,2025-03-04,健康食品ＯＥＭ株式会社,,株式会社,京都府,京都市下京区,玉津島町２９４番地,,26,106,6008427,,,,,,,2025-03-04,1,,,,,ケンコウショクヒンオーイーエム,0
170,1130003010247,新規,0,2025-03-04,2025-03-04,合同会社番地,,合同会社,京都府,京都市下京区,東側町５３１番地,,26,106,6008324,,,,,,,2025-03-04,1,,,,,バンチ,0
171,1130003010255,新規,0,2025-03-04,2025-03-04,リミトラス合同会社,,合同会社,京都府,京都市南区,吉祥院嶋樫山町３５番１１,,26,107,6018371,,,,,,,2025-03-04,1,,,,,リミトラス,0
176,1140001137561,新規,0,2025-03-04,2025-03-04,神戸ポート株式会社,,株式会社,兵庫県,神戸市中央区,江戸町８５－１,,28,110,6500033,,,,,,,2025-03-04,1,,,,,,0
177,1140001137578,新規,0,2025-03-04,2025-03-04,株式会社アイエ技術,,株式会社,兵庫県,神戸市灘区,鶴甲３丁目２番２号,,28,102,6570011,,,,,,,2025-03-04,1,,,,,アイエギジュツ,0
178,1140001137586,新規,0,2025-03-04,2025-03-04,こにしいけ株式会社,,株式会社,兵庫県,宝塚市,雲雀丘１丁目２番９号,,28,214,6650805,,,,,,,2025-03-04,1,,,,,コニシイケ,0
186,1140003021722,新規,0,2025-03-04,2025-03-04,合同会社Ｂｈａｒａｔ,,合同会社,兵庫県,神戸市中央区,吾妻通１丁目２番２３－１２０３号,,28,110,6510076,,,,,,,2025-03-04,1,,,,,バーラト,0
190,1160001026580,新規,0,2025-03-04,2025-03-04,株式会社ＴＯＧＥＲＵ,,株式会社,滋賀県,高島市,今津町今津２９９,,25,212,5201621,,,,,,,2025-03-04,1,,,,,トゲル,0
192,1170001018511,新規,0,2025-03-04,2025-03-04,株式会社Ｈｅｎｇｅｌ工房,,株式会社,和歌山県,西牟婁郡上富田町,朝来１１３５番地,,30,404,6492105,,,,,,,2025-03-04,1,,,,,ヘンゲルコウボウ,0
197,1180001165682,新規,0,2025-03-04,2025-03-04,株式会社Ｌ＆Ｈコンサルティング,,株式会社,愛知県,半田市,有脇町６丁目２８番地の６,,23,205,4750017,,,,,,,2025-03-04,1,,,,,エルアンドエイチコンサルティング,0
200,1180005020958,新規,0,2025-03-04,2025-03-04,中部国際人材協同組合,,その他の設立登記法人,愛知県,知多市,にしの台２丁目３０１番地２Ａ,,23,224,4780055,,,,,,,2025-03-04,1,,,,,チュウブコクサイジンザイ,0
205,1190001032048,新規,0,2025-03-04,2025-03-04,ライスプラス株式会社,,株式会社,三重県,津市,河芸町東千里２６７番地１,,24,201,5100303,,,,,,,2025-03-04,1,,,,,ライスプラス,0
207,1200001043489,新規,0,2025-03-04,2025-03-04,株式会社ＷｉｎＵＰ,,株式会社,岐阜県,岐阜市,中西郷１丁目１５８番地５,,21,201,5011177,,,,,,,2025-03-04,1,,,,,ウィンアップ,0
211,1220001026517,新規,0,2025-03-04,2025-03-04,株式会社ＮＩＳＨＩＫＩ,,株式会社,石川県,金沢市,東長江町を１１番地,,17,201,9200822,,,,,,,2025-03-04,1,,,,,ニシキ,0
212,1220005008932,新規,0,2025-03-04,2025-03-04,一般社団法人現代集落,,その他の設立登記法人,石川県,珠洲市,真浦町ル字１２番地４,,17,205,9271326,,,,,,,2025-03-04,1,,,,,ゲンダイシュウラク,0
214,1230003002382,新規,0,2025-03-04,2025-03-04,ＨＡＩＳＯＲＩ合同会社,,合同会社,富山県,射水市,土合１３９９,,16,211,9390251,,,,,,,2025-03-04,1,,,,,ハイソリ,0
215,1240001064597,新規,0,2025-03-04,2025-03-04,京和株式会社,,株式会社,広島県,広島市西区,庚午中３丁目８番２号セイデンビル３０１号,,34,104,7330822,,,,,,,2025-03-04,1,,,,,キョウワ,0
217,1240005015910,新規,0,2025-03-04,2025-03-04,医療法人メディカル,,その他の設立登記法人,広島県,福山市,神辺町大字川北８９５番地１,,34,207,7202123,,,,,,,2025-03-04,1,,,,,メディカル,0
224,1290001109174,新規,0,2025-03-04,2025-03-04,株式会社Ａ．ＡＮＢＹ,,株式会社,福岡県,糟屋郡粕屋町,大字江辻１７９番地１,00138197,40,349,8112313,,,,,,,2025-03-04,1,,,,,エーアンバイ,0
226,1290005019667,新規,0,2025-03-04,2025-03-04,一般社団法人日本アジア舞踊協会,,その他の設立登記法人,福岡県,みやま市,瀬高町小川２２２番地７,,40,229,8350023,,,,,,,2025-03-04,1,,,,,ニホンアジアブヨウキョウカイ,0
232,1340001027148,新規,0,2025-03-04,2025-03-04,さくらグローバル株式会社,,株式会社,鹿児島県,薩摩川内市,平佐町４３００番地５ヴァンドミール１０２,,46,215,8950012,,,,,,,2025-03-04,1,,,,,サクラグローバル,0
234,1340003004764,新規,0,2025-03-04,2025-03-04,合同会社Ｂｌｅｓｓ,,合同会社,鹿児島県,鹿児島市,坂之上５丁目８番１４号ｓアトゥール２０１号,,46,201,8910150,,,,,,,2025-03-04,1,,,,,ブレス,0
235,1350001019417,新規,0,2025-03-04,2025-03-04,株式会社家守,,株式会社,宮崎県,宮崎市,瀬頭１丁目４番２２号,,45,201,8800867,,,,,,,2025-03-04,1,,,,,ヤモリ,0
236,1350003004854,新規,0,2025-03-04,2025-03-04,ワイルドビアードブルーイング合同会社,,合同会社,宮崎県,北諸県郡三股町,稗田２８番地１６,,45,341,8891903,,,,,,,2025-03-04,1,,,,,ワイルドビアードブルーイング,0
239,1360003014729,新規,0,2025-03-04,2025-03-04,合同会社ＮＥＸＴ,,合同会社,沖縄県,名護市,字汀間３２番地１,,47,209,9052265,,,,,,,2025-03-04,1,,,,,ネクスト,0
248,1430003017336,新規,0,2025-03-04,2025-03-04,合同会社小島総研,,合同会社,北海道,札幌市豊平区,平岸五条９丁目２番３号イルマーレ２０３号室,,01,105,0620935,,,,,,,2025-03-04,1,,,,,コジマソウケン,0
249,1430003017344,新規,0,2025-03-04,2025-03-04,合同会社若草保険ＴＯＷＡ,,合同会社,北海道,千歳市,豊里２丁目２番１３号,,01,224,0660022,,,,,,,2025-03-04,1,,,,,ワカクサホケントワ,0
250,1430005015164,新規,0,2025-03-04,2025-03-04,一般社団法人ｓｐｉｃｅ　ｏｆ　ｌｉｆｅ,,その他の設立登記法人,北海道,札幌市中央区,旭ケ丘１丁目３番２５号,,01,101,0640941,,,,,,,2025-03-04,1,,,,,スパイスオブライフ,0
251,1450003002609,新規,0,2025-03-04,2025-03-04,合同会社セオリー,,合同会社,北海道,富良野市,弥生町６番５３号,,01,229,0760018,,,,,,,2025-03-04,1,,,,,セオリー,0
256,1470001020610,新規,0,2025-03-04,2025-03-04,株式会社ＴＨＲＥＥ　ＡＲＴＳ,,株式会社,香川県,高松市,円座町１４７番地７,,37,201,7618044,,,,,,,2025-03-04,1,,,,,スリーアーツ,0
257,1470003002821,新規,0,2025-03-04,2025-03-04,合同会社ホワイトエナジー,,合同会社,香川県,仲多度郡まんのう町,炭所西３１７０番地,,37,406,7660017,,,,,,,2025-03-04,1,,,,,ホワイトエナジー,0
260,1500001026166,新規,0,2025-03-04,2025-03-04,ｗａｇａｙａ　Ｊａｐａｎ株式会社,,株式会社,愛媛県,松山市,湊町１丁目２番地,,38,201,7900012,,,,,,,2025-03-04,1,,,,,ワガヤジャパン,0
261,1700150129419,新規,0,2025-03-04,2025-03-04,ＤＩＮＩＴＨＩ　ＳＨＡＫＴＨＩ　ＣＯＮＳＴＲＵＣＴＩＯＮ有限会社,,外国会社等,千葉県,旭市,野中７８０番地４－１０２,,12,215,2892513,スリランカ民主社会主義共和国西部州コロンボ地区パドゥッカ，ホラガラ西Ｎｏ．２５４／Ａ,,,,,,2025-03-04,1,,,,,デイニシシヤクシコンストラクシヨンユウゲンガイシヤ,0
262,1700150129427,新規,0,2025-03-04,2025-03-04,ＣＵＲＩＯＵＳ　ＦＡＣＴＯＲＹ　ＬＬＣ,,外国会社等,,,,,,,,１１９２１　Ｆｒｅｅｄｏｍ　Ｄｒｉｖｅ，Ｔｗｏ　Ｆｏｕｎｔａｉｎ　Ｓｑｕａｒｅ，Ｓｕｉｔｅ　５５０　Ｒｅｓｔｏｎ　ＶＡ　２０１９０　ＵＳＡ,,,,,,2025-03-04,1,,,,,キユリオスフアクトリー,0
263,1700150129435,新規,0,2025-03-04,2025-03-04,Ｑｉｎｇｄａｏｋｕｎｑｉｚｈｉｍａｏｙｏｕｘｉａｎｇｏｎｇｓｉ,,外国会社等,,,,,,,,Ｓｈａｎｄｏｎｇｓｈｅｎｇ，Ｑｉｎｇｄａｏ，Ｊｉａｏｚｈｏｕ，Ｌｉｇｅｚｈｕａｎｇｚｈｅｎ，Ｚｈｏｕｊｉａｃｕｎｃｕｎｎａｎ,,,,,,2025-03-04,1,,,,,セイドウコンリンセイボウユウゲンコウシ,0
270,2010001252604,新規,0,2025-03-04,2025-03-04,株式会社Ｂｏｂｓ,,株式会社,東京都,中央区,新川２丁目１６番１０－７０２号,,13,102,1040033,,,,,,,2025-03-04,1,,,,,ボブス,0
271,2010001252620,新規,0,2025-03-04,2025-03-04,株式会社ＶＩＳＩＯＮ　ＩＮＴＥＬＬＩＧＥＮＣＥ,,株式会社,東京都,文京区,本郷２丁目３－９ツインビュー御茶の水３０３室,,13,105,1130033,,,,,,,2025-03-04,1,,,,,ビジョンインテリジェンス,0
272,2010001252744,新規,0,2025-03-04,2025-03-04,株式会社サンデーバックナイン,,株式会社,東京都,中央区,勝どき４丁目６番２－２８１５号,,13,102,1040054,,,,,,,2025-03-04,1,,,,,サンデーバックナイン,0
273,2010001252752,新規,0,2025-03-04,2025-03-04,株式会社ダイヤード,,株式会社,東京都,千代田区,一番町２２番地６ホーマットオリエント６０５号,,13,101,1020082,,,,,,,2025-03-04,1,,,,,ダイヤード,0
274,2010003046590,新規,0,2025-03-04,2025-03-04,未来藤合同会社,,合同会社,東京都,千代田区,外神田２丁目１番８号１０８号室,,13,101,1010021,,,,,,,2025-03-04,1,,,,,ミライトウ,0
277,2010005039659,新規,0,2025-03-04,2025-03-04,一般社団法人エメラルド,,その他の設立登記法人,東京都,千代田区,二番町３番地麹町スクエア株式会社シリウス・アドバイザリー内,,13,101,1020084,,,,,,,2025-03-04,1,,,,,エメラルド,0
284,2010401188514,新規,0,2025-03-04,2025-03-04,ジンメクスＩ＆Ｅジャパン株式会社,,株式会社,東京都,港区,新橋２丁目２０番１５号新橋駅前ビル１号館４階,,13,103,1050004,,,,,,,2025-03-04,1,,,,,ジンメクスアイアンドイージャパン,0
285,2010401188530,新規,0,2025-03-04,2025-03-04,都行株式会社,,株式会社,東京都,港区,白金台３丁目７番２４号,,13,103,1080071,,,,,,,2025-03-04,1,,,,,トコウ,0
286,2010401188571,新規,0,2025-03-04,2025-03-04,ルックバック株式会社,,株式会社,東京都,港区,北青山１丁目３番１号アールキューブ青山３階,,13,103,1070061,,,,,,,2025-03-04,1,,,,,ルックバック,0
287,2010401188588,新規,0,2025-03-04,2025-03-04,株式会社ルーク,,株式会社,東京都,港区,北青山１丁目３番３号三橋ビル３階,,13,103,1070061,,,,,,,2025-03-04,1,,,,,ルーク,0
288,2010401188596,新規,0,2025-03-04,2025-03-04,株式会社ｃｏｃｏｓｔａ,,株式会社,東京都,港区,西麻布２丁目９番１４号,,13,103,1060031,,,,,,,2025-03-04,1,,,,,ココスタ,0
293,2010701047320,新規,0,2025-03-04,2025-03-04,Ｈｕｅｓ　ＡＩＬａｂ　Ｊａｐａｎ株式会社,,株式会社,東京都,品川区,西五反田１丁目２６番２号五反田サンハイツ９１１,,13,109,1410031,,,,,,,2025-03-04,1,,,,,ヒューズアイラボジャパン,0
294,2010701047329,新規,0,2025-03-04,2025-03-04,株式会社ＯＮフランチャイズ,,株式会社,東京都,品川区,東五反田５丁目１７番１５号,,13,109,1410022,,,,,,,2025-03-04,1,,,,,オンフランチャイズ,0
295,2010701047337,新規,0,2025-03-04,2025-03-04,株式会社ラズリ,,株式会社,東京都,品川区,西五反田６丁目２４－９ルーブル西五反田１３０１,,13,109,1410031,,,,,,,2025-03-04,1,,,,,ラズリ,0
300,2010901056906,新規,0,2025-03-04,2025-03-04,株式会社フレーベル,,株式会社,東京都,世田谷区,祖師谷１丁目３０番７号,,13,112,1570072,,,,,,,2025-03-04,1,,,,,フレーベル,0
301,2010903009754,新規,0,2025-03-04,2025-03-04,合同会社ティブロン,,合同会社,東京都,世田谷区,成城４丁目１２－５,,13,112,1570066,,,,,,,2025-03-04,1,,,,,ティブロン,0
307,2011001168022,新規,0,2025-03-04,2025-03-04,株式会社ＳＹＮＥＲＺ,,株式会社,東京都,目黒区,中根１丁目１８番２号シャトレー中根１階,,13,110,1520031,,,,,,,2025-03-04,1,,,,,シナーズ,0
308,2011001168146,新規,0,2025-03-04,2025-03-04,株式会社Ｕ　ＳＴＥＰ,,株式会社,東京都,渋谷区,代々木２丁目６番７号セイチビル４階,,13,113,1510053,,,,,,,2025-03-04,1,,,,,ユーステップ,0
310,2011003020916,新規,0,2025-03-04,2025-03-04,セクラベグループ合同会社,,合同会社,東京都,渋谷区,恵比寿西２丁目８番４号ＥＸ恵比寿西ビル５階,,13,113,1500021,,,,,,,2025-03-04,1,,,,,セクラベグループ,0
312,2011101110800,新規,0,2025-03-04,2025-03-04,株式会社ＰＥＲＩＤＯＴ,,株式会社,東京都,新宿区,新宿１丁目１５番４号リンバ新宿御苑４Ｆ,,13,104,1600022,,,,,,,2025-03-04,1,,,,,ペリドット,0
313,2011101110858,新規,0,2025-03-04,2025-03-04,株式会社Ｎｅｗ　Ｍａｋｅ,,株式会社,東京都,新宿区,四谷４丁目１３－１,,13,104,1600004,,,,,,,2025-03-04,1,,,,,ニューメイク,0
322,2012805003315,新規,0,2025-03-04,2025-03-04,一般社団法人Ｔｓｕｂａｍｅ　Ｊａｐａｎ,,その他の設立登記法人,東京都,国分寺市,本多５丁目２２番８号１０２,,13,214,1850011,,,,,,,2025-03-04,1,,,,,ツバメジャパン,0
332,2020001161630,新規,0,2025-03-04,2025-03-04,株式会社ＬＯＣＯＳ,,株式会社,神奈川県,横浜市港南区,大久保１丁目１１番３号１０１号室,,14,111,2330007,,,,,,,2025-03-04,1,,,,,ロコス,0
333,2020001161688,新規,0,2025-03-04,2025-03-04,株式会社ＥＶＥＮＴＩＣＡ,,株式会社,神奈川県,横浜市鶴見区,尻手１丁目２番１号,,14,101,2300003,,,,,,,2025-03-04,1,,,,,イベンティカ,0
340,2021003015642,新規,0,2025-03-04,2025-03-04,合同会社Ｔｕｒｎ　Ｏｖｅｒ,,合同会社,神奈川県,大和市,桜森２丁目２３番１１－１号,,14,213,2420028,,,,,,,2025-03-04,1,,,,,ターンオーバー,0
349,2030003026203,新規,0,2025-03-04,2025-03-04,合同会社ＤＣＳ,,合同会社,埼玉県,川口市,東川口３丁目６番１号１階,,11,203,3330801,,,,,,,2025-03-04,1,,,,,ディーシーエス,0
350,2030003026211,新規,0,2025-03-04,2025-03-04,合同会社アール不動産,,合同会社,埼玉県,さいたま市見沼区,大和田町１丁目１０１１番地ＭＳ大和田２０１,,11,104,3370053,,,,,,,2025-03-04,1,,,,,アールフドウサン,0
351,2030003026236,新規,0,2025-03-04,2025-03-04,合同会社ＩＳＡＫＡ,,合同会社,埼玉県,久喜市,栗橋東２丁目１１番１０－３号,,11,232,3491103,,,,,,,2025-03-04,1,,,,,イサカ,0
357,2040001137661,新規,0,2025-03-04,2025-03-04,株式会社ビメオリンク,,株式会社,千葉県,大網白里市,柳橋１０９３番地３２,,12,239,2993263,,,,,,,2025-03-04,1,,,,,ビメオリンク,0
360,2040003027002,新規,0,2025-03-04,2025-03-04,国分企画合同会社,,合同会社,千葉県,千葉市中央区,新千葉１丁目７番２号,,12,101,2600031,,,,,,,2025-03-04,1,,,,,コクブキカク,0
361,2050001056241,新規,0,2025-03-04,2025-03-04,株式会社Ａ＆Ｍ,,株式会社,茨城県,那珂市,菅谷２０４６番地ラ・メゾンド・ユキ１０３号,,08,226,3110105,,,,,,,2025-03-04,1,,,,,エーアンドエム,0
364,2070001042677,新規,0,2025-03-04,2025-03-04,株式会社愛由美商事,,株式会社,群馬県,太田市,新田市野井町１６６７番地３,,10,205,3700314,,,,,,,2025-03-04,1,,,,,アユミショウジ,0
366,2080001026778,新規,0,2025-03-04,2025-03-04,株式会社ソーアイ＆Ｉ,,株式会社,静岡県,静岡市駿河区,中田本町５７番１４号,,22,102,4228043,,,,,,,2025-03-04,1,,,,,ソーアイアンドアイ,0
367,2080001026786,新規,0,2025-03-04,2025-03-04,株式会社薮乃家,,株式会社,静岡県,静岡市葵区,小布杉１６５５番地の１,,22,101,4211316,,,,,,,2025-03-04,1,,,,,ヤブノウチ,0
375,2080401027780,新規,0,2025-03-04,2025-03-04,株式会社Ｔ＆Ｍ,,株式会社,静岡県,浜松市中央区,葵東２丁目６番４号,,22,138,4338114,,,,,,,2025-03-04,1,,,,,ティーアンドエム,0
377,2100001038333,新規,0,2025-03-04,2025-03-04,株式会社坂下農園,,株式会社,長野県,佐久市,瀬戸３４５４－６８,,20,217,3850035,,,,,,,2025-03-04,1,,,,,サカシタノウエン,0
378,2110001039074,新規,0,2025-03-04,2025-03-04,株式会社Ｏｎｃｅ,,株式会社,新潟県,長岡市,来迎寺３９８８番地,,15,202,9495411,,,,,,,2025-03-04,1,,,,,ワンス,0
384,2120001273291,新規,0,2025-03-04,2025-03-04,株式会社Ｈａｐｐｉｆｕｌｌ,,株式会社,大阪府,大阪市中央区,大手通２丁目４‐８Ａｓｓｅｓｓ大手通ビル１０Ｆ,,27,128,5400021,,,,,,,2025-03-04,1,,,,,ハピフル,0
385,2120001273300,新規,0,2025-03-04,2025-03-04,李＿株式会社,00138189,株式会社,大阪府,大阪市大正区,三軒家西３丁目４番１６号中山ビル１０１Ｃ,,27,108,5510001,,,,,,,2025-03-04,1,,,,,リイク,0
386,2120001273333,新規,0,2025-03-04,2025-03-04,株式会社ｅｎｚｉｎｅ,,株式会社,大阪府,大阪市中央区,南船場２丁目７番１１号,,27,128,5420081,,,,,,,2025-03-04,1,,,,,エンジン,0
387,2120001273341,新規,0,2025-03-04,2025-03-04,株式会社神心會,,株式会社,大阪府,大阪市大正区,泉尾７丁目５番３１号,,27,108,5510031,,,,,,,2025-03-04,1,,,,,シンシンカイ,0
391,2120101071158,新規,0,2025-03-04,2025-03-04,株式会社あーる,,株式会社,大阪府,堺市北区,百舌鳥赤畑町２丁６７番地４,,27,146,5918037,,,,,,,2025-03-04,1,,,,,アール,0
395,2122001038939,新規,0,2025-03-04,2025-03-04,株式会社ＤＧ,,株式会社,大阪府,東大阪市,高井田西３丁目６番３号,,27,227,5770067,,,,,,,2025-03-04,1,,,,,ディージー,0
402,2130003010246,新規,0,2025-03-04,2025-03-04,合同会社ゼロイチ,,合同会社,京都府,京田辺市,興戸若宮２番地ＡｃａｄｅｍｉａＫＩＴＡＧＥＮ１００,,26,211,6100332,,,,,,,2025-03-04,1,,,,,ゼロイチ,0
409,2140001137585,新規,0,2025-03-04,2025-03-04,株式会社アウトバーン,,株式会社,兵庫県,神戸市中央区,元町通１丁目１３番１７号岡崎ビル５Ｆ,,28,110,6500022,,,,,,,2025-03-04,1,,,,,アウトバーン,0
418,2170001018519,新規,0,2025-03-04,2025-03-04,株式会社ＴＳＵＮＡＧＵ,,株式会社,和歌山県,和歌山市,小雑賀２１０－１Ｎ’ｓＢＡＳＥ２０１,,30,201,6410007,,,,,,,2025-03-04,1,,,,,ツナグ,0
420,2180001165673,新規,0,2025-03-04,2025-03-04,株式会社ＮＵＬＬ・ＰＬＵＳ,,株式会社,愛知県,名古屋市西区,花原町１１９番地の２,,23,104,4520809,,,,,,,2025-03-04,1,,,,,ヌルプラス,0
422,2180003028060,新規,0,2025-03-04,2025-03-04,Ｏｔｏｋｏｇｉ合同会社,,合同会社,愛知県,名古屋市中区,橘１丁目５番１号,,23,106,4600016,,,,,,,2025-03-04,1,,,,,オトコギ,0
423,2180003028085,新規,0,2025-03-04,2025-03-04,合同会社ピースランド,,合同会社,愛知県,名古屋市東区,相生町１１番地,,23,102,4610012,,,,,,,2025-03-04,1,,,,,ピースランド,0
428,2210001020081,新規,0,2025-03-04,2025-03-04,株式会社ＳＴＥＥＬ　ＷＯＲＫＳ,,株式会社,福井県,大野市,東中野３丁目２１５番地,,18,205,9120017,,,,,,,2025-03-04,1,,,,,スチールワークス,0
432,2220005008931,新規,0,2025-03-04,2025-03-04,一般社団法人あいコネクト,,その他の設立登記法人,石川県,金沢市,木倉町２番１号,,17,201,9200988,,,,,,,2025-03-04,1,,,,,アイコネクト,0
436,2240001064588,新規,0,2025-03-04,2025-03-04,株式会社ＩＭＧＬＩＮＫ,,株式会社,広島県,広島市中区,東白島町４番５号東白島ビル１階,,34,101,7300004,,,,,,,2025-03-04,1,,,,,イマジリンク,0
437,2240001064596,新規,0,2025-03-04,2025-03-04,株式会社レヴァンセ,,株式会社,広島県,広島市安佐南区,八木５丁目１０番１７号,,34,105,7310101,,,,,,,2025-03-04,1,,,,,レヴァンセ,0
439,2250005008986,新規,0,2025-03-04,2025-03-04,一般社団法人山陽小野田メディカルネット,,その他の設立登記法人,山口県,山陽小野田市,大字小野田１３１５番地４,,35,216,7560817,,,,,,,2025-03-04,1,,,,,サンヨウオノダメディカルネット,0
440,2280003001924,新規,0,2025-03-04,2025-03-04,プレスト合同会社,,合同会社,島根県,松江市,古志原２丁目２０番１４号,,32,201,6900012,,,,,,,2025-03-04,1,,,,,プレスト,0
442,2290001109181,新規,0,2025-03-04,2025-03-04,株式会社Ｓｔａｙ　Ａｒｔｓ,,株式会社,福岡県,福岡市城南区,樋井川４丁目３１番１２号,,40,136,8140153,,,,,,,2025-03-04,1,,,,,ステイアーツ,0
444,2290801031304,新規,0,2025-03-04,2025-03-04,株式会社白兎,,株式会社,福岡県,北九州市小倉南区,守恒２丁目１番４０号,,40,107,8020972,,,,,,,2025-03-04,1,,,,,ホワイト,0
445,2310003004956,新規,0,2025-03-04,2025-03-04,合同会社ＨＩＤＡＫＡ,,合同会社,長崎県,長崎市,豊洋台２丁目３０番１１号,,42,201,8512216,,,,,,,2025-03-04,1,,,,,ヒダカ,0
446,2310005008831,新規,0,2025-03-04,2025-03-04,医療法人ｙｕｒｕｒｉ,,その他の設立登記法人,長崎県,長崎市,上野町６番２２号,,42,201,8528113,,,,,,,2025-03-04,1,,,,,ユルリ,0
454,2360001034843,新規,0,2025-03-04,2025-03-04,株式会社一路,,株式会社,沖縄県,南城市,玉城字糸数５７番地４,,47,215,9010606,,,,,,,2025-03-04,1,,,,,イチロ,0
455,2360001034851,新規,0,2025-03-04,2025-03-04,株式会社立統建設,,株式会社,沖縄県,うるま市,石川東恩納９４１番地２サウスレジデンス３０５,,47,213,9041111,,,,,,,2025-03-04,1,,,,,リュウトウケンセツ,0
456,2360003014728,新規,0,2025-03-04,2025-03-04,合同会社Ｇａｋｋｙ,,合同会社,沖縄県,宮古島市,平良字久貝２４８－１１ミラコスタ１－Ｃ,,47,214,9060015,,,,,,,2025-03-04,1,,,,,ガッキー,0
457,2360005007184,新規,0,2025-03-04,2025-03-04,一般社団法人石灰石塗料技術開発機構,,その他の設立登記法人,沖縄県,浦添市,宮城３丁目２番８号２０１,,47,208,9012126,,,,,,,2025-03-04,1,,,,,セッカイセキトリョウギジュツカイハツキコウ,0
461,2370005010914,新規,0,2025-03-04,2025-03-04,農事組合法人仙台クリエイティブファーム,,その他の設立登記法人,宮城県,東松島市,赤井字南新町５‐３,,04,214,9810501,,,,,,,2025-03-04,1,,,,,センダイクリエイティブファーム,0
463,2400001016960,新規,0,2025-03-04,2025-03-04,ＪＲ　ＳＴＢ小岩井開発株式会社,,株式会社,岩手県,盛岡市,盛岡駅前通１番３９号,,03,201,0200034,,,,,,,2025-03-04,1,,,,,ジェイアールエスティービーコイワイカイハツ,0
470,2430001093790,新規,0,2025-03-04,2025-03-04,株式会社ＴＮＲ,,株式会社,北海道,札幌市白石区,北郷二条１丁目５－１ルミエール２・１ＩＩＩ２０５,00138183,01,104,0030832,,,,,,,2025-03-04,1,,,,,ティーエヌアール,0
471,2430001093799,新規,0,2025-03-04,2025-03-04,株式会社Ｅ．ｅｎｇｉｎｅｅｒ,,株式会社,北海道,砂川市,晴見二条北５丁目１番５号,,01,226,0730112,,,,,,,2025-03-04,1,,,,,イードットエンジニア,0
472,2430001093808,新規,0,2025-03-04,2025-03-04,株式会社ＨＯＴサービス,,株式会社,北海道,札幌市手稲区,前田九条１４丁目２番２０号２１１号室,,01,109,0060819,,,,,,,2025-03-04,1,,,,,ホットサービス,0
474,2430003017335,新規,0,2025-03-04,2025-03-04,合同会社英勇建設,,合同会社,北海道,恵庭市,文京町４丁目１６－３,,01,231,0611425,,,,,,,2025-03-04,1,,,,,エイユウケンセツ,0
475,2430003017343,新規,0,2025-03-04,2025-03-04,合同会社ＲＫＳパートナー,,合同会社,北海道,札幌市中央区,南一条西１２丁目４－１９２ハウザービルＮＯ．３　４Ｆ,,01,101,0600061,,,,,,,2025-03-04,1,,,,,アールケーエスパートナー,0
485,2700150129426,新規,0,2025-03-04,2025-03-04,ＣＲＵＺＥ　ＭＯＴＯＲＳ,,外国会社等,千葉県,夷隅郡大多喜町,下大多喜３２４５番地１,,12,441,2980202,スリランカ民主社会主義共和国、ワラカムラ、マタレロード、Ｎｏ．８８／１,,,,,,2025-03-04,1,,,,,クルズモータース,0
486,2700150129434,新規,0,2025-03-04,2025-03-04,ｚｈｅ　ｊｉａｎｇ　ｚｈｏｎｇ　ｍｉｎ　ｓｕｏ　ｙｅ　ｙｏｕ　ｘｉａｎ　ｇｏｎｇ　ｓｉ,,外国会社等,,,,,,,,ｚｈｅ　ｊｉａｎｇ　ｓｈｅｎｇ　ｌｉ　ｓｈｕｉ　ｓｈｉ　ｌｉａｎ　ｄｕ　ｑｕ　ｎａｎ　ｍｉｎｇ　ｓｈａｎ　ｊｉｅ　ｄａｏ　ｔｏｎｇ　ｊｉ　ｊｉｅ　９５　ｈａｏ　２４　ｄｏｎｇ　３０１ｓｈｉ　ｄｏｎｇ　ｍｉａｎ　ｄｉ　ｙｉ　ｇｅ,,,,,,2025-03-04,1,,,,,セッコウチュウミンサギョウユウゲンコウシ,0
489,3010001252586,新規,0,2025-03-04,2025-03-04,株式会社ブレイサイド,,株式会社,東京都,中央区,銀座１丁目１２番４号Ｎ＆ＥＢＬＤ．６Ｆ,,13,102,1040061,,,,,,,2025-03-04,1,,,,,ブレイサイド,0
490,3010001252719,新規,0,2025-03-04,2025-03-04,株式会社Ｒｅｖｅｌｉｎｋ．,,株式会社,東京都,中央区,銀座１丁目１２－４Ｎ＆ＥＢＬＤ．７階,,13,102,1040061,,,,,,,2025-03-04,1,,,,,レヴリンク,0
491,3010001252727,新規,0,2025-03-04,2025-03-04,ＡＩＮ株式会社,,株式会社,東京都,千代田区,神田佐久間町３丁目２８番地星野ビル４Ｆ７号,,13,101,1010025,,,,,,,2025-03-04,1,,,,,アイン,0
495,3010003046532,新規,0,2025-03-04,2025-03-04,合同会社ルシュ,,合同会社,東京都,文京区,向丘１丁目７番７－３０１号,,13,105,1130023,,,,,,,2025-03-04,1,,,,,ルシュ,0
496,3010003046581,新規,0,2025-03-04,2025-03-04,合同会社Ｓｐｉｒｉｔ　Ｐｅａｋ,,合同会社,東京都,中央区,新川１丁目１７番１８号,,13,102,1040033,,,,,,,2025-03-04,1,,,,,スピリットピーク,0
497,3010005039666,新規,0,2025-03-04,2025-03-04,一般社団法人スピカ,,その他の設立登記法人,東京都,千代田区,二番町３番地麹町スクエア株式会社シリウス・アドバイザリー内,,13,101,1020084,,,,,,,2025-03-04,1,,,,,スピカ,0
498,3010101016536,新規,0,2025-03-04,2025-03-04,株式会社ＦＡＬＣ,,株式会社,東京都,八王子市,富士見町３３番１４号,,13,201,1920044,,,,,,,2025-03-04,1,,,,,ファルク,0
501,3010401188579,新規,0,2025-03-04,2025-03-04,株式会社アンビーテン,,株式会社,東京都,港区,南青山３丁目１番３６号青山丸竹ビル６Ｆ,,13,103,1070062,,,,,,,2025-03-04,1,,,,,アンビーテン,0
502,3010401188604,新規,0,2025-03-04,2025-03-04,屋根のエイト株式会社,,株式会社,東京都,港区,南青山２丁目２番１５号ウィン青山ビル６階,,13,103,1070062,,,,,,,2025-03-04,1,,,,,ヤネノエイト,0
503,3010401188612,新規,0,2025-03-04,2025-03-04,アイコテック株式会社,,株式会社,東京都,港区,西新橋１丁目２番９号日比谷セントラルビル１４階,,13,103,1050003,,,,,,,2025-03-04,1,,,,,アイコテック,0
504,3010401188645,新規,0,2025-03-04,2025-03-04,タイガートレーディング株式会社,,株式会社,東京都,港区,赤坂９丁目５番１２号,,13,103,1070052,,,,,,,2025-03-04,1,,,,,タイガートレーディング,0
506,3010403034509,新規,0,2025-03-04,2025-03-04,美竹管理合同会社,,合同会社,東京都,港区,北青山１丁目３－１アールキューブ青山３階,,13,103,1070061,,,,,,,2025-03-04,1,,,,,ミタケカンリ,0
507,3010403034533,新規,0,2025-03-04,2025-03-04,Ｓｋｙ　Ｂｌｕｅ　Ａｓｓｅｔ合同会社,,合同会社,東京都,港区,南青山７丁目８番１５号,,13,103,1070062,,,,,,,2025-03-04,1,,,,,スカイブルーアセット,0
511,3010501053724,新規,0,2025-03-04,2025-03-04,サンライズ株式会社,,株式会社,東京都,台東区,西浅草１丁目７－２三浦ビル１Ｆ,,13,106,1110035,,,,,,,2025-03-04,1,,,,,サンライズ,0
514,3010605004417,新規,0,2025-03-04,2025-03-04,医療法人社団ＹＭＣ,,その他の設立登記法人,東京都,江東区,北砂２丁目１７番１号アリオ北砂３階,,13,108,1360073,,,,,,,2025-03-04,1,,,,,ワイエムシー,0
524,3011001168145,新規,0,2025-03-04,2025-03-04,株式会社ＬＩＫＥ　ＳＴＵＤＩＯ,,株式会社,東京都,渋谷区,渋谷２丁目１９番１９号ワコー宮益坂ビル５階,,13,113,1500002,,,,,,,2025-03-04,1,,,,,ライクスタジオ,0
525,3011003021087,新規,0,2025-03-04,2025-03-04,合同会社蛙プロジェクト,,合同会社,東京都,渋谷区,渋谷２丁目１９－１５宮益坂ビルディング６０９,,13,113,1500002,,,,,,,2025-03-04,1,,,,,カワズプロジェクト,0
527,3011101110799,新規,0,2025-03-04,2025-03-04,株式会社ブルーショットガン,,株式会社,東京都,新宿区,西新宿３丁目５番３－１４０５号,,13,104,1600023,,,,,,,2025-03-04,1,,,,,ブルーショットガン,0
528,3011101110808,新規,0,2025-03-04,2025-03-04,ＲｏｂｉｎＸ株式会社,,株式会社,東京都,新宿区,新宿１丁目１８－１２柳田ビル２Ｆ,,13,104,1600022,,,,,,,2025-03-04,1,,,,,ロビンエクス,0
529,3011101110816,新規,0,2025-03-04,2025-03-04,株式会社ＢＦＨ,,株式会社,東京都,新宿区,市谷薬王寺町４番４号,,13,104,1620063,,,,,,,2025-03-04,1,,,,,ビーエフエイチ,0
530,3011201026160,新規,0,2025-03-04,2025-03-04,米山ハウジング株式会社,,株式会社,東京都,中野区,野方４丁目１０番７号,,13,114,1650027,,,,,,,2025-03-04,1,,,,,ヨネヤマハウジング,0
538,3011701028111,新規,0,2025-03-04,2025-03-04,アルビスタ株式会社,,株式会社,東京都,江戸川区,上篠崎２丁目６番３号,,13,123,1330054,,,,,,,2025-03-04,1,,,,,アルビスタ,0
539,3011703004143,新規,0,2025-03-04,2025-03-04,合同会社テックトラスト,,合同会社,東京都,江戸川区,東葛西６丁目１番５号－４０２号,,13,123,1340084,,,,,,,2025-03-04,1,,,,,テックトラスト,0
540,3011801045675,新規,0,2025-03-04,2025-03-04,株式会社ユーテックオート,,株式会社,東京都,足立区,扇１丁目５１番１６号,,13,121,1230873,,,,,,,2025-03-04,1,,,,,ユーテックオート,0
549,3012801023786,新規,0,2025-03-04,2025-03-04,株式会社ｅａｒｔｈｐｏｉｎｔ,,株式会社,東京都,立川市,栄町１丁目１７－３０,,13,202,1900003,,,,,,,2025-03-04,1,,,,,アースポイント,0
553,3013303007567,新規,0,2025-03-04,2025-03-04,合同会社Ｒｏｐｉ,,合同会社,東京都,豊島区,東池袋２丁目６２番８号ＢＩＧオフィスプラザ池袋１２０６,,13,116,1700013,,,,,,,2025-03-04,1,,,,,ロピ,0
561,3020001161621,新規,0,2025-03-04,2025-03-04,株式会社Ｓｏａｒ　Ｆ’Ｎｅｓｔ,,株式会社,神奈川県,横浜市鶴見区,駒岡１丁目２１番５号,,14,101,2300071,,,,,,,2025-03-04,1,,,,,ソールネスト,0
566,3020003027936,新規,0,2025-03-04,2025-03-04,合同会社ロングビル,,合同会社,神奈川県,横浜市泉区,弥生台６１番地３号,,14,116,2450008,,,,,,,2025-03-04,1,,,,,ロングビル,0
569,3021001084597,新規,0,2025-03-04,2025-03-04,株式会社田畑洋人建築研究所,,株式会社,神奈川県,茅ヶ崎市,元町１５番１１号,,14,207,2530043,,,,,,,2025-03-04,1,,,,,タバタヒロトケンチクケンキュウジョ,0
577,3030001165051,新規,0,2025-03-04,2025-03-04,株式会社ＹＲＥ,,株式会社,埼玉県,川越市,大字石田本郷１３番地,,11,201,3500835,,,,,,,2025-03-04,1,,,,,ワイアールイー,0
579,3030003026235,新規,0,2025-03-04,2025-03-04,セキ内装合同会社,,合同会社,埼玉県,川口市,並木元町１番４８－９０２号川口マンション,,11,203,3320033,,,,,,,2025-03-04,1,,,,,,0
580,3030003026243,新規,0,2025-03-04,2025-03-04,合同会社ＲｉＣＯ,,合同会社,埼玉県,所沢市,上新井３丁目６５番地の５ユート小手指３０２,,11,208,3591142,,,,,,,2025-03-04,1,,,,,リコ,0
582,3030005022059,新規,0,2025-03-04,2025-03-04,農事組合法人ソムリエ,,その他の設立登記法人,埼玉県,白岡市,彦兵衛７－１１１,,11,246,3490224,,,,,,,2025-03-04,1,,,,,ソムリエ,0
588,3040003027001,新規,0,2025-03-04,2025-03-04,合同会社千優,,合同会社,千葉県,松戸市,栄町西３丁目１０８７番地の２１,,12,207,2710061,,,,,,,2025-03-04,1,,,,,センユ,0
592,3050001056240,新規,0,2025-03-04,2025-03-04,株式会社闘亀創設,,株式会社,茨城県,猿島郡境町,大字伏木１２６２番地２０,,08,546,3060416,,,,,,,2025-03-04,1,,,,,トウキソウセツ,0
595,3060001037958,新規,0,2025-03-04,2025-03-04,エッグプラントアグリ株式会社,,株式会社,栃木県,那須塩原市,石林３４６番地１,,09,213,3292711,,,,,,,2025-03-04,1,,,,,エッグプラントアグリ,0
596,3060001037966,新規,0,2025-03-04,2025-03-04,株式会社コネクト碧,,株式会社,栃木県,宇都宮市,今泉２丁目１番６号,,09,201,3210966,,,,,,,2025-03-04,1,,,,,コネクトアオイ,0
601,3070001042668,新規,0,2025-03-04,2025-03-04,株式会社オギコー,,株式会社,群馬県,伊勢崎市,豊城町２１００番地７,,10,204,3720012,,,,,,,2025-03-04,1,,,,,オギコー,0
604,3080001026777,新規,0,2025-03-04,2025-03-04,ＬＣソリューションズ株式会社,,株式会社,静岡県,静岡市葵区,馬場町１１６番地ＭＴビル３Ｆ,,22,101,4200867,,,,,,,2025-03-04,1,,,,,エルシーソリューションズ,0
606,3080101025340,新規,0,2025-03-04,2025-03-04,静岡低温物流株式会社,,株式会社,静岡県,三島市,梅名４４７番地６,,22,206,4110816,,,,,,,2025-03-04,1,,,,,シズオカテイオンブツリュウ,0
611,3080401027771,新規,0,2025-03-04,2025-03-04,株式会社ＳＯＬ　ＣＲＥＡＴＩＯＮＳ,,株式会社,静岡県,浜松市中央区,上島５丁目１７番５８号萩コーポＢ１０２号,,22,138,4338122,,,,,,,2025-03-04,1,,,,,ソルクリエイションズ,0
612,3080403005214,新規,0,2025-03-04,2025-03-04,合同会社すごもり,,合同会社,静岡県,浜松市中央区,富塚町２０２番地,,22,138,4328002,,,,,,,2025-03-04,1,,,,,スゴモリ,0
614,3090001019160,新規,0,2025-03-04,2025-03-04,株式会社Ｈｏｋｋｏｒｉ,,株式会社,山梨県,北杜市,大泉町西井出８２４０－４５３６,,19,209,4091501,,,,,,,2025-03-04,1,,,,,ホッコリ,0
615,3090003002759,新規,0,2025-03-04,2025-03-04,合同会社アルプスフーズ＆プランニング,,合同会社,山梨県,北杜市,高根町清里３５４５番地,,19,209,4070301,,,,,,,2025-03-04,1,,,,,アルプスフーズアンドプランニング,0
616,3100001038340,新規,0,2025-03-04,2025-03-04,株式会社Ｔｅｐｐｅｎ,,株式会社,長野県,北安曇郡白馬村,大字神城２２１９９番地５７,,20,485,3999211,,,,,,,2025-03-04,1,,,,,テッペン,0
617,3110001039081,新規,0,2025-03-04,2025-03-04,株式会社三ケ月商事,,株式会社,新潟県,新潟市西区,小新２０７３番地,,15,107,9502023,,,,,,,2025-03-04,1,,,,,ミカヅキショウジ,0
618,3110003005684,新規,0,2025-03-04,2025-03-04,合同会社Ａｍｂｉｔ,,合同会社,新潟県,新潟市中央区,南笹口２丁目１番２６号フォルテアＡ３０８号室,,15,103,9500912,,,,,,,2025-03-04,1,,,,,アンビット,0
623,3120001273340,新規,0,2025-03-04,2025-03-04,株式会社エピクラウド,,株式会社,大阪府,大阪市西区,北堀江１丁目２番１９号アステリオ北堀江ザ・メトロタワー１０Ｆ,,27,106,5500014,,,,,,,2025-03-04,1,,,,,エピクラウド,0
624,3120001273357,新規,0,2025-03-04,2025-03-04,ｓｈｉｎ　Ｂｕｓ株式会社,,株式会社,大阪府,大阪市天王寺区,空清町４番１１号４０５室,,27,109,5430018,,,,,,,2025-03-04,1,,,,,シンバス,0
628,3120003028750,新規,0,2025-03-04,2025-03-04,ロッカローズ合同会社,,合同会社,大阪府,大阪市城東区,放出西１丁目８番２１－２０７号,,27,118,5360011,,,,,,,2025-03-04,1,,,,,ロッカローズ,0
633,3120901050509,新規,0,2025-03-04,2025-03-04,株式会社ＭＫＳアソシエイツ,,株式会社,大阪府,豊中市,宮山町３丁目３番８号,,27,203,5600056,,,,,,,2025-03-04,1,,,,,エムケーエスアソシエイツ,0
638,3130001079043,新規,0,2025-03-04,2025-03-04,ＡＫＡ　ＧＲＯＵＰ株式会社,,株式会社,京都府,京都市下京区,玉津島町２９４,,26,106,6008427,,,,,,,2025-03-04,1,,,,,アカグループ,0
648,3140003021729,新規,0,2025-03-04,2025-03-04,合同会社ＶｉｓｕｐＫＯＢＥ,,合同会社,兵庫県,神戸市須磨区,高倉町１丁目４番２８－２０９号,,28,107,6540074,,,,,,,2025-03-04,1,,,,,ビスアップコウベ,0
650,3150005009671,新規,0,2025-03-04,2025-03-04,一般社団法人北村地区営農組合,,その他の設立登記法人,奈良県,奈良市,北村町３７８番地,,29,201,6301113,,,,,,,2025-03-04,1,,,,,キタムラチクエイノウクミアイ,0
658,3180001165680,新規,0,2025-03-04,2025-03-04,ＦｏｒｔｙＲｏｂｏｔｉｃｓ株式会社,,株式会社,愛知県,名古屋市中村区,名駅４丁目２４番５号第２森ビル４０１,,23,105,4500002,,,,,,,2025-03-04,1,,,,,フォーティーロボティクス,0
660,3180003028068,新規,0,2025-03-04,2025-03-04,合同会社ＭＵＳＵＢＩ,,合同会社,愛知県,春日井市,大手町３丁目３番地４ＣａｓａＦｅｌｉｃｅ１０１号,,23,206,4860807,,,,,,,2025-03-04,1,,,,,ムスビ,0
664,3220001026515,新規,0,2025-03-04,2025-03-04,ＡＩロトナンバーズ株式会社,,株式会社,石川県,河北郡津幡町,字能瀬井１番地３６,,17,361,9290319,,,,,,,2025-03-04,1,,,,,エーアイロトナンバーズ,0
675,3260003005083,新規,0,2025-03-04,2025-03-04,合同会社縁ｄｒｅｓｓ,,合同会社,岡山県,岡山市北区,田原５７４,,33,101,7011132,,,,,,,2025-03-04,1,,,,,エンドレス,0
681,3290001109156,新規,0,2025-03-04,2025-03-04,株式会社ＳＣＡＴＴＥＲＸ　ＪＡＰＡＮ,,株式会社,福岡県,福岡市中央区,天神２丁目３番１０－１００４号,,40,133,8100001,,,,,,,2025-03-04,1,,,,,スケーターエックスジャパン,0
684,3310003004955,新規,0,2025-03-04,2025-03-04,合同会社さかのまち企画,,合同会社,長崎県,東彼杵郡川棚町,栄町４番地４,,42,322,8593608,,,,,,,2025-03-04,1,,,,,サカノマチキカク,0
685,3310005008830,新規,0,2025-03-04,2025-03-04,医療法人社団長沢医院,,その他の設立登記法人,長崎県,西彼杵郡長与町,嬉里郷７１５番地,,42,307,8512128,,,,,,,2025-03-04,1,,,,,ナガサワイイン,0
686,3320001020953,新規,0,2025-03-04,2025-03-04,株式会社Ｓｔｒａｔｏｓ,,株式会社,大分県,大分市,新栄町１６番２６号,,44,201,8700919,,,,,,,2025-03-04,1,,,,,ストラトス,0
687,3330001032948,新規,0,2025-03-04,2025-03-04,しろくま着物百貨店株式会社,,株式会社,熊本県,熊本市東区,健軍１丁目１８番７号,,43,102,8620911,,,,,,,2025-03-04,1,,,,,シロクマキモノヒャッカテン,0
692,3340005009818,新規,0,2025-03-04,2025-03-04,一般社団法人あんしん住宅解体支援機構,,その他の設立登記法人,鹿児島県,鹿児島市,西田２丁目１０番１号,,46,201,8900046,,,,,,,2025-03-04,1,,,,,アンシンジュウタクカイタイシエンキコウ,0
694,3360001034818,新規,0,2025-03-04,2025-03-04,株式会社エスゼット粟国研究所,,株式会社,沖縄県,島尻郡粟国村,字浜３０７番地,,47,355,9013701,,,,,,,2025-03-04,1,,,,,エスゼットアグニケンキュウショ,0
698,3370001052307,新規,0,2025-03-04,2025-03-04,天壇株式会社,,株式会社,宮城県,仙台市青葉区,八幡３丁目８番４号フォーユーハウス,,04,101,9800871,,,,,,,2025-03-04,1,,,,,テンダン,0
704,3430003017318,新規,0,2025-03-04,2025-03-04,合同会社やすらぎ,,合同会社,北海道,札幌市東区,東苗穂七条１丁目１番５５号,,01,103,0070807,,,,,,,2025-03-04,1,,,,,ヤスラギ,0
705,3430003017334,新規,0,2025-03-04,2025-03-04,合同会社オフィス・セカンド,,合同会社,北海道,札幌市中央区,南二条東２丁目１６堀尾ビル,,01,101,0600052,,,,,,,2025-03-04,1,,,,,オフィスセカンド,0
706,3430003017342,新規,0,2025-03-04,2025-03-04,合同会社ソラン,,合同会社,北海道,札幌市西区,八軒九条西５丁目３番２０号,,01,107,0630849,,,,,,,2025-03-04,1,,,,,ソラン,0
709,3470001020600,新規,0,2025-03-04,2025-03-04,株式会社英叶,,株式会社,香川県,三豊市,山本町財田西８１３番地２パティシェール山本３０１号室,,37,208,7680103,,,,,,,2025-03-04,1,,,,,エイト,0
714,3500001026164,新規,0,2025-03-04,2025-03-04,株式会社ＩＮＦＩＮＩＴＥ,,株式会社,愛媛県,伊予郡松前町,大字北黒田７１８番地１,,38,401,7913102,,,,,,,2025-03-04,1,,,,,インフィニット,0
715,3500001026180,新規,0,2025-03-04,2025-03-04,株式会社志建装,,株式会社,愛媛県,松山市,古川西３丁目１０番１５－４号,,38,201,7900944,,,,,,,2025-03-04,1,,,,,ココロケンソウ,0
717,3700150129425,新規,0,2025-03-04,2025-03-04,ＡＵＴＯ　ＴＥＣＨ　ＬＡＮＫＡ,,外国会社等,千葉県,いすみ市,大原９２１０番地５－Ｃ,,12,238,2980004,スリランカ民主社会主義共和国、キャンディ、アクラナ、ウダウェリケティヤ、Ｎｏ．９０／Ａ,,,,,,2025-03-04,1,,,,,オートテツクランカ,0
718,3700150129433,新規,0,2025-03-04,2025-03-04,ｓｈｅｎｚｈｅｎｓｈｉｘｉｎｇｈｕｉｌｅｋｅｊｉｙｏｕｘｉａｎｇｏｎｇｓｉ,,外国会社等,,,,,,,,ｓｈｅｎｚｈｅｎｓｈｉｂａｏａｎｑｕｘｉｘｉａｎｇｊｉｅｄａｏｈａｏｙｅｓｈｅｑｕｈａｏｙｅｈｕａｔｉｎｇＢ１－Ｂ３ｄｏｎｇ７０２,,,,,,2025-03-04,1,,,,,シンセンシセイキラクカギユウゲンコウシ,0
724,4010001252643,新規,0,2025-03-04,2025-03-04,ＦｉｆｔｈＭｅｄｉａ株式会社,,株式会社,東京都,千代田区,外神田２丁目１番８号スクエア秋葉原１０２号室,,13,101,1010021,,,,,,,2025-03-04,1,,,,,フィフスメディア,0
725,4010001252692,新規,0,2025-03-04,2025-03-04,株式会社勵空,,株式会社,東京都,中央区,日本橋富沢町１３－２小川ビルＢ１,,13,102,1030006,,,,,,,2025-03-04,1,,,,,レイクウ,0
726,4010001252726,新規,0,2025-03-04,2025-03-04,株式会社ＪＭＴＴ,,株式会社,東京都,千代田区,神田東松下町３０番地,,13,101,1010042,,,,,,,2025-03-04,1,,,,,ジェイエムティティ,0
729,4010003046614,新規,0,2025-03-04,2025-03-04,合同会社リーフ,,合同会社,東京都,千代田区,神田須田町１丁目７番８号ＶＯＲＴ秋葉原ＩＶ２Ｆ,00138188,13,101,1010041,,,,,,,2025-03-04,1,,,,,リーフ,0
730,4010003046639,新規,0,2025-03-04,2025-03-04,Ｎｙｏｂｏｌｔ　Ｊａｐａｎ合同会社,,合同会社,東京都,千代田区,丸の内１丁目１１番１号,,13,101,1000005,,,,,,,2025-03-04,1,,,,,ナイオボルトジャパン,0
732,4010005039665,新規,0,2025-03-04,2025-03-04,一般社団法人オリオン,,その他の設立登記法人,東京都,千代田区,二番町３番地麹町スクエア株式会社シリウス・アドバイザリー内,,13,101,1020084,,,,,,,2025-03-04,1,,,,,オリオン,0
733,4010005039681,新規,0,2025-03-04,2025-03-04,福岡ロジスティックＮ特定目的会社,,その他の設立登記法人,東京都,中央区,八重洲２丁目２番１号,,13,102,1040028,,,,,,,2025-03-04,1,,,,,フクオカロジスティックエヌ,0
741,4010401188512,新規,0,2025-03-04,2025-03-04,なないろエステート株式会社,,株式会社,東京都,港区,北青山１丁目３番３号三橋ビル３階,,13,103,1070061,,,,,,,2025-03-04,1,,,,,ナナイロエステート,0
742,4010401188561,新規,0,2025-03-04,2025-03-04,株式会社Ｗｉｂｒｏ,,株式会社,東京都,港区,北青山１丁目３－３三橋ビル３階,,13,103,1070061,,,,,,,2025-03-04,1,,,,,ウィブロ,0
743,4010401188594,新規,0,2025-03-04,2025-03-04,エアーソーラーテクノロジーズ株式会社,,株式会社,東京都,港区,港南２丁目１６番４号品川グランドセントラルタワー８階,,13,103,1080075,,,,,,,2025-03-04,1,,,,,エアーソーラーテクノロジーズ,0
751,4010701047302,新規,0,2025-03-04,2025-03-04,＿帆株式会社,00138187,株式会社,東京都,品川区,東品川４丁目１２－８品川シーサイドイーストタワー１５Ｆ１５３０号室,,13,109,1400002,,,,,,,2025-03-04,1,,,,,センホ,0
752,4010701047310,新規,0,2025-03-04,2025-03-04,ｅｌｉｆｅ株式会社,,株式会社,東京都,品川区,西五反田３丁目１１番６号サンウエスト山手ビル４Ｆ,,13,109,1410031,,,,,,,2025-03-04,1,,,,,イーライフ,0
753,4010701047319,新規,0,2025-03-04,2025-03-04,株式会社ロキテクノ未来,,株式会社,東京都,品川区,南大井６丁目２０番１２号,,13,109,1400013,,,,,,,2025-03-04,1,,,,,ロキテクノミライ,0
754,4010701047343,新規,0,2025-03-04,2025-03-04,株式会社ＡＸｅｒｅａ,,株式会社,東京都,品川区,西五反田４丁目４番２５号松島ビル１階,,13,109,1410031,,,,,,,2025-03-04,1,,,,,アクセリア,0
755,4010801035883,新規,0,2025-03-04,2025-03-04,株式会社岩井,,株式会社,東京都,大田区,大森西７丁目８番１９号,,13,111,1430015,,,,,,,2025-03-04,1,,,,,イワイ,0
757,4010901056912,新規,0,2025-03-04,2025-03-04,株式会社ＳＨＩＮＥ,,株式会社,東京都,世田谷区,鎌田３丁目１２番１６号ヴィアードステージ２０４,,13,112,1570077,,,,,,,2025-03-04,1,,,,,シャイン,0
758,4010903009752,新規,0,2025-03-04,2025-03-04,リリーミュージック合同会社,,合同会社,東京都,世田谷区,太子堂５丁目３２番２０号,,13,112,1540004,,,,,,,2025-03-04,1,,,,,リリーミュージック,0
768,4011101110807,新規,0,2025-03-04,2025-03-04,株式会社ＴＨＲＥＥ,,株式会社,東京都,新宿区,若松町１５番１６号,,13,104,1620056,,,,,,,2025-03-04,1,,,,,スリー,0
770,4011105011357,新規,0,2025-03-04,2025-03-04,一般社団法人ＴＵ０１０,,その他の設立登記法人,東京都,新宿区,四谷２丁目９番地１５東京ユナイテッド綜合事務所内,,13,104,1600004,,,,,,,2025-03-04,1,,,,,ティーユーゼロワンゼロ,0
772,4011203004626,新規,0,2025-03-04,2025-03-04,ＴＣ合同会社,,合同会社,東京都,中野区,沼袋１丁目１４－１５第一アパート,,13,114,1650025,,,,,,,2025-03-04,1,,,,,ティーシー,0
773,4011301030391,新規,0,2025-03-04,2025-03-04,株式会社ウィナブル,,株式会社,東京都,杉並区,阿佐谷北４丁目２９－１１,,13,115,1660001,,,,,,,2025-03-04,1,,,,,ウィナブル,0
776,4011603004614,新規,0,2025-03-04,2025-03-04,合同会社百合葉,,合同会社,東京都,練馬区,貫井３丁目３３番１２－２１１号,,13,120,1760021,,,,,,,2025-03-04,1,,,,,ユリハ,0
787,4013301053868,新規,0,2025-03-04,2025-03-04,世界ＤＡＯ株式会社,,株式会社,東京都,豊島区,西池袋５丁目５番２１－１２０９号,,13,116,1710021,,,,,,,2025-03-04,1,,,,,セカイダオ,0
795,4020001161612,新規,0,2025-03-04,2025-03-04,株式会社ｋ．ｃｏｒｐｏｒａｔｉｏｎ,,株式会社,神奈川県,川崎市川崎区,駅前本町１１番地２川崎フロンティアビル４階,,14,131,2100007,,,,,,,2025-03-04,1,,,,,ケーコーポレーション,0
796,4020001161653,新規,0,2025-03-04,2025-03-04,株式会社幸和興業,,株式会社,神奈川県,横浜市中区,尾上町４丁目５７横浜尾上町ビルディング８階,,14,104,2310015,,,,,,,2025-03-04,1,,,,,コウワコウギョウ,0
804,4020003027935,新規,0,2025-03-04,2025-03-04,合同会社ＬＥＶＯ,,合同会社,神奈川県,川崎市多摩区,南生田２丁目１５番４１号メゾンドエトワールＡ２０２,,14,135,2140036,,,,,,,2025-03-04,1,,,,,レヴォ,0
809,4021001084588,新規,0,2025-03-04,2025-03-04,株式会社ブレイズ,,株式会社,神奈川県,相模原市緑区,上九沢３９２番地９,,14,151,2520136,,,,,,,2025-03-04,1,,,,,ブレイズ,0
817,4030001165050,新規,0,2025-03-04,2025-03-04,株式会社ＩＮＦＩＮＩＴＡＳ,,株式会社,埼玉県,さいたま市大宮区,宮町４丁目１１４－１－２０５,,11,103,3300802,,,,,,,2025-03-04,1,,,,,インフィニタス,0
818,4030001165091,新規,0,2025-03-04,2025-03-04,株式会社ＬＡＮＤＳＣＡＰＥ,,株式会社,埼玉県,東松山市,美原町３丁目１４番地１０,,11,212,3550010,,,,,,,2025-03-04,1,,,,,ランドスケープ,0
819,4030001165141,新規,0,2025-03-04,2025-03-04,株式会社ＨＲＫ,,株式会社,埼玉県,鴻巣市,下忍３３１６番地２,,11,217,3690113,,,,,,,2025-03-04,1,,,,,エイチアールケー,0
821,4030003026226,新規,0,2025-03-04,2025-03-04,合同会社ワビークロス,,合同会社,埼玉県,八潮市,大字鶴ケ曽根１５４７ー２,,11,234,3400802,,,,,,,2025-03-04,1,,,,,ワビークロス,0
822,4030003026234,新規,0,2025-03-04,2025-03-04,ＢＯＮＣＨＡＮ合同会社,,合同会社,埼玉県,さいたま市南区,文蔵４丁目２３－３－２０５,,11,108,3360025,,,,,,,2025-03-04,1,,,,,ボンチャン,0
838,4080001026776,新規,0,2025-03-04,2025-03-04,株式会社ライフゴールデザインオフィス,,株式会社,静岡県,島田市,岸町６４３番地の４,,22,209,4270005,,,,,,,2025-03-04,1,,,,,ライフゴールデザインオフィス,0
843,4080401027770,新規,0,2025-03-04,2025-03-04,アデキ浜松株式会社,,株式会社,静岡県,浜松市浜名区,都田町１０２４７番地,,22,139,4312102,,,,,,,2025-03-04,1,,,,,アデキハママツ,0
844,4090003002758,新規,0,2025-03-04,2025-03-04,美幸造園合同会社,,合同会社,山梨県,山梨市,牧丘町室伏２７１７番地,,19,205,4040012,,,,,,,2025-03-04,1,,,,,ミユキゾウエン,0
850,4110003005683,新規,0,2025-03-04,2025-03-04,合同会社バラード,,合同会社,新潟県,新潟市中央区,礎町通５ノ町２２５９番地４カーサ礎４０４号,,15,103,9518055,,,,,,,2025-03-04,1,,,,,バラード,0
854,4120001273281,新規,0,2025-03-04,2025-03-04,株式会社ｍｉｒｕｍｉｒｕ,,株式会社,大阪府,大阪市福島区,大開１丁目１０番５号,,27,103,5530007,,,,,,,2025-03-04,1,,,,,ミルミル,0
855,4120001273315,新規,0,2025-03-04,2025-03-04,ＢＬＵＥＳＴＯＮＥ株式会社,,株式会社,大阪府,大阪市生野区,新今里７丁目５番１８－１０１号,,27,116,5440001,,,,,,,2025-03-04,1,,,,,ブルーストーン,0
856,4120001273323,新規,0,2025-03-04,2025-03-04,株式会社Ｗｏｒｌｄ　Ｐａｒａｄｉｓｅ,,株式会社,大阪府,門真市,浜町４番２８－５０２号,,27,223,5710054,,,,,,,2025-03-04,1,,,,,ワールドパラダイス,0
857,4120001273331,新規,0,2025-03-04,2025-03-04,株式会社ＴＨＥ　ＫＡＧＵ,,株式会社,大阪府,大阪市中央区,東心斎橋１丁目２番１－３４０１号,,27,128,5420083,,,,,,,2025-03-04,1,,,,,ザカグ,0
858,4120001273356,新規,0,2025-03-04,2025-03-04,万匯株式会社,,株式会社,大阪府,大阪市東淀川区,西淡路３丁目１２番３号２０２号室,,27,114,5330031,,,,,,,2025-03-04,1,,,,,マンエ,0
859,4120001273372,新規,0,2025-03-04,2025-03-04,ＭＵＥ株式会社,,株式会社,大阪府,大阪市西成区,花園北２丁目１８－１１ワイズレジデンス花園,,27,122,5570016,,,,,,,2025-03-04,1,,,,,エムユーイー,0
860,4120001273422,新規,0,2025-03-04,2025-03-04,株式会社のぞみ工務店,,株式会社,大阪府,大阪市城東区,天王田６番２号,,27,118,5360012,,,,,,,2025-03-04,1,,,,,ノゾミコウムテン,0
863,4120003028766,新規,0,2025-03-04,2025-03-04,ｃａｎｖａｓ合同会社,,合同会社,大阪府,枚方市,牧野本町２丁目１８番５号,,27,210,5731144,,,,,,,2025-03-04,1,,,,,キャンバス,0
864,4120003028774,新規,0,2025-03-04,2025-03-04,ＳＧＳＯ合同会社,,合同会社,大阪府,大阪市天王寺区,逢阪１丁目３－３４桜荘２０２号室,,27,109,5430062,,,,,,,2025-03-04,1,,,,,エスジーエスオー,0
868,4120101071156,新規,0,2025-03-04,2025-03-04,株式会社三和金属羽曳野,,株式会社,大阪府,羽曳野市,古市１６６７番地の１,,27,222,5830852,,,,,,,2025-03-04,1,,,,,サンワキンゾクハビキノ,0
869,4120905006695,新規,0,2025-03-04,2025-03-04,一般社団法人仏教普及会,,その他の設立登記法人,大阪府,豊中市,庄内栄町３丁目２１番２号,,27,203,5610834,,,,,,,2025-03-04,1,,,,,ブッキョウフキュウカイ,0
879,4140001137501,新規,0,2025-03-04,2025-03-04,株式会社ＱＵＥＳＴ,,株式会社,兵庫県,神戸市西区,糀台５丁目９番地の４,,28,111,6512273,,,,,,,2025-03-04,1,,,,,クエスト,0
880,4140003021694,新規,0,2025-03-04,2025-03-04,合同会社Ｔｈｅ　ＫＩＮＫＡＮ,,合同会社,兵庫県,西宮市,一ケ谷町１番５号,,28,204,6620873,,,,,,,2025-03-04,1,,,,,ザキンカン,0
887,4160003003410,新規,0,2025-03-04,2025-03-04,合同会社ＨＯＰＥ,,合同会社,滋賀県,草津市,大路１丁目１９番１３号,,25,206,5250032,,,,,,,2025-03-04,1,,,,,ホープ,0
891,4180001165696,新規,0,2025-03-04,2025-03-04,株式会社ＫＯＮＤＯ,,株式会社,愛知県,愛知郡東郷町,大字春木字清水ケ根４１２６番地２６,,23,302,4700162,,,,,,,2025-03-04,1,,,,,コンドー,0
893,4180005020963,新規,0,2025-03-04,2025-03-04,社会福祉法人大きな家,,その他の設立登記法人,愛知県,名古屋市港区,港楽３丁目４番１７号,,23,111,4550014,,,,,,,2025-03-04,1,,,,,オオキナイエ,0
904,4190001032045,新規,0,2025-03-04,2025-03-04,株式会社Ｍ’ｓ　Ａｉｒｓｙｓｔｅｍ,,株式会社,三重県,津市,観音寺町６７３番地２７,,24,201,5140062,,,,,,,2025-03-04,1,,,,,エムズエアシステム,0
912,4220001026514,新規,0,2025-03-04,2025-03-04,株式会社Ｗｉｌｌｏｗ,,株式会社,石川県,野々市市,上林４丁目４２１番地,,17,212,9218835,,,,,,,2025-03-04,1,,,,,ウィロー,0
913,4220003003957,新規,0,2025-03-04,2025-03-04,合同会社ＡＫＡ,,合同会社,石川県,河北郡津幡町,字浅田甲１２９番地２,,17,361,9290324,,,,,,,2025-03-04,1,,,,,アカ,0
920,4260001039958,新規,0,2025-03-04,2025-03-04,株式会社アイワ装業,,株式会社,岡山県,岡山市北区,野田５丁目８番１１号,,33,101,7000971,,,,,,,2025-03-04,1,,,,,アイワソウギョウ,0
921,4260001039966,新規,0,2025-03-04,2025-03-04,株式会社カンパーニュ,,株式会社,岡山県,赤磐市,桜が丘西７丁目２０番１６号,,33,213,7090802,,,,,,,2025-03-04,1,,,,,カンパーニュ,0
922,4260001039974,新規,0,2025-03-04,2025-03-04,ワイズワークス株式会社,,株式会社,岡山県,玉野市,玉６丁目１７番２６号,,33,204,7060012,,,,,,,2025-03-04,1,,,,,ワイズワークス,0
925,4270001009159,新規,0,2025-03-04,2025-03-04,株式会社ナナナカンパニー,,株式会社,鳥取県,鳥取市,御弓町４６番地１,,31,201,6800044,,,,,,,2025-03-04,1,,,,,ナナナカンパニー,0
933,4290001109139,新規,0,2025-03-04,2025-03-04,Ｎｉｋｋｏｒｉ　Ｂａｎｋ株式会社,,株式会社,福岡県,福岡市博多区,博多駅前４丁目２３番４号,,40,132,8120011,,,,,,,2025-03-04,1,,,,,ニッコリバンク,0
934,4290001109147,新規,0,2025-03-04,2025-03-04,株式会社ｃｒｅａｘｉａ,,株式会社,福岡県,福岡市博多区,上呉服町１４番３０－２０３号メゾン・ド・ばんらい,,40,132,8120036,,,,,,,2025-03-04,1,,,,,クレアシア,0
935,4290001109196,新規,0,2025-03-04,2025-03-04,株式会社ａ　ｈｒｅｆ,,株式会社,福岡県,福岡市博多区,博多駅前１丁目２３－２・５Ｆ－Ｂ,,40,132,8120011,,,,,,,2025-03-04,1,,,,,アンカーエイチレフ,0
952,4330001032914,新規,0,2025-03-04,2025-03-04,株式会社ＦＡＢａ　Ａｓｓｅｔ　Ｍａｎａｇｅｍｅｎｔ,,株式会社,熊本県,熊本市中央区,桜町３番３０ザ・熊本ガーデンズ１３１０号室,,43,101,8600805,,,,,,,2025-03-04,1,,,,,エフエービーエイアセットマネジメント,0
953,4340001027161,新規,0,2025-03-04,2025-03-04,サンハイワークス株式会社,,株式会社,鹿児島県,鹿児島市,真砂本町１７番１８号,,46,201,8900067,,,,,,,2025-03-04,1,,,,,サンハイワークス,0
959,4360003014742,新規,0,2025-03-04,2025-03-04,合同会社ｆｕｌｌｇｕｓ,,合同会社,沖縄県,那覇市,首里平良町２丁目６５－１,,47,201,9030803,,,,,,,2025-03-04,1,,,,,フルガス,0
960,4380001035128,新規,0,2025-03-04,2025-03-04,株式会社Ｆａｒｍおかだ村,,株式会社,福島県,南相馬市,小高区岡田字天神前９８番地,,07,212,9792134,,,,,,,2025-03-04,1,,,,,ファームオカダムラ,0
966,4430001093797,新規,0,2025-03-04,2025-03-04,株式会社漆,,株式会社,北海道,札幌市中央区,南五条西４丁目ＴＭ－２９ビル３Ｆ,,01,101,0640805,,,,,,,2025-03-04,1,,,,,ウルシ,0
974,4700150129424,新規,0,2025-03-04,2025-03-04,ＢＲＯＷＩＮ　ＥＮＴＥＲＰＲＩＳＥＳ,,外国会社等,千葉県,香取郡神崎町,古原乙３２６番地２１２オフィスＡ,,12,342,2890215,スリランカ民主社会主義共和国、キャンディ、カットガストッタロード、Ｎｏ．１９０,,,,,,2025-03-04,1,,,,,ブラウンエンタープライズ,0
975,4700150129432,新規,0,2025-03-04,2025-03-04,ｓｈｅｎｚｈｅｎｙｉｚｈｅｎｋｅｊｉｙｏｕｘｉａｎｇｏｎｇｓｉ,,外国会社等,,,,,,,,ｌｏｎｇｇａｎｇｑｕｐｉｎｇｈｕｊｉｅｄａｏｂａｉｎｉｋｅｎｇｓｈｅｑｕｂａｉｙｉｎｌｕ６０ｈａｏ２０２Ａｓｈｅｎｚｈｅｎｓｈｉ　ｇｕａｎｇｄｏｎｇｓｈｅｎｇ５１８０００,,,,,,2025-03-04,1,,,,,シンセンイシンカギユウゲンコウシ,0
984,5010001252535,新規,0,2025-03-04,2025-03-04,よりみち株式会社,,株式会社,東京都,中央区,銀座１丁目１２－４Ｎ＆ＥＢＬＤ．７階,,13,102,1040061,,,,,,,2025-03-04,1,,,,,ヨリミチ,0
985,5010001252774,新規,0,2025-03-04,2025-03-04,株式会社ＶＥＲＴＥＣＴＩＯＮ,,株式会社,東京都,中央区,銀座１丁目２２番１１号銀座大竹ビジデンス２Ｆ,,13,102,1040061,,,,,,,2025-03-04,1,,,,,ヴェルテクション,0
988,5010003046480,新規,0,2025-03-04,2025-03-04,ｎａｏｕ．合同会社,,合同会社,東京都,中央区,新富１丁目１０番２－９０２号,,13,102,1040041,,,,,,,2025-03-04,1,,,,,ナウ,0
989,5010003046596,新規,0,2025-03-04,2025-03-04,合同会社海老原商店,,合同会社,東京都,千代田区,神田須田町２丁目１７番,,13,101,1010041,,,,,,,2025-03-04,1,,,,,エビハラショウテン,0
993,5010005039656,新規,0,2025-03-04,2025-03-04,一般社団法人日本ＧＰＳアート協会,,その他の設立登記法人,東京都,文京区,湯島２丁目２５番７号Ｉｔｐ本郷オフィス６階,,13,105,1130034,,,,,,,2025-03-04,1,,,,,,0
994,5010005039664,新規,0,2025-03-04,2025-03-04,一般社団法人アルタイル,,その他の設立登記法人,東京都,千代田区,二番町３番地麹町スクエア株式会社シリウス・アドバイザリー内,,13,101,1020084,,,,,,,2025-03-04,1,,,,,アルタイル,0
995,5010005039680,新規,0,2025-03-04,2025-03-04,福岡ロジスティックＷ特定目的会社,,その他の設立登記法人,東京都,中央区,八重洲２丁目２番１号,,13,102,1040028,,,,,,,2025-03-04,1,,,,,フクオカロジスティックダブリュー,0
1001,5010601066863,新規,0,2025-03-04,2025-03-04,タカミ株式会社,,株式会社,東京都,墨田区,太平４丁目３番１－５０９号,,13,107,1300012,,,,,,,2025-03-04,1,,,,,タカミ,0
1002,5010605004415,新規,0,2025-03-04,2025-03-04,医療法人社団白友会,,その他の設立登記法人,東京都,江東区,富岡１丁目２５番５号メディカルビル門前仲町６階,,13,108,1350047,,,,,,,2025-03-04,1,,,,,ハクユウカイ,0
1004,5010701047318,新規,0,2025-03-04,2025-03-04,株式会社ニーシールド,,株式会社,東京都,品川区,北品川４丁目１０番１０－１０５号,,13,109,1400001,,,,,,,2025-03-04,1,,,,,ニーシールド,0
1005,5010703007600,新規,0,2025-03-04,2025-03-04,ｍｅｔａｖｉａ合同会社,,合同会社,東京都,品川区,北品川５丁目５番２７－７０１号,,13,109,1410001,,,,,,,2025-03-04,1,,,,,メタヴィア,0
1007,5010801035874,新規,0,2025-03-04,2025-03-04,Ｋ．Ｉ．Ｃｈａｎｇｅｓ株式会社,,株式会社,東京都,大田区,田園調布本町２１番２６号,,13,111,1450072,,,,,,,2025-03-04,1,,,,,ケイアイチェインジズ,0
1012,5011001168119,新規,0,2025-03-04,2025-03-04,株式会社ｈｏｍｉｅ,,株式会社,東京都,渋谷区,恵比寿西２丁目８番４号ＥＸ恵比寿西ビル５階,,13,113,1500021,,,,,,,2025-03-04,1,,,,,ホーミー,0
1013,5011001168234,新規,0,2025-03-04,2025-03-04,株式会社ＩＰ　Ｃａｌｉｆｏｒｎｉａ,,株式会社,東京都,渋谷区,神宮前１丁目２３番２７号,,13,113,1500001,,,,,,,2025-03-04,1,,,,,アイピーカリフォルニア,0
1017,5011003021060,新規,0,2025-03-04,2025-03-04,合同会社Ｓｏｌａｒｉｅ,,合同会社,東京都,渋谷区,渋谷２丁目１９－１５宮益坂ビルディング６０９,,13,113,1500002,,,,,,,2025-03-04,1,,,,,ソラリエ,0
1018,5011005010887,新規,0,2025-03-04,2025-03-04,一般社団法人ひとつの世界・ひとつの家族,,その他の設立登記法人,東京都,目黒区,東が丘１丁目２４番１４号Ａ．Ｓ．ハウス２０２,,13,110,1520021,,,,,,,2025-03-04,1,,,,,ヒトツノセカイヒトツノカゾク,0
1022,5011101110797,新規,0,2025-03-04,2025-03-04,ライズ株式会社,,株式会社,東京都,新宿区,山吹町３５０番地,,13,104,1620801,,,,,,,2025-03-04,1,,,,,ライズ,0
1024,5011201026167,新規,0,2025-03-04,2025-03-04,株式会社Ｆｏｒｔｕｎｅ,,株式会社,東京都,中野区,鷺宮４丁目３番１６号,,13,114,1650032,,,,,,,2025-03-04,1,,,,,フォーチューン,0
1029,5011801045698,新規,0,2025-03-04,2025-03-04,株式会社メトロアート,,株式会社,東京都,葛飾区,新小岩２丁目７番６号新小岩５番館４０１,,13,122,1240024,,,,,,,2025-03-04,1,,,,,メトロアート,0
1030,5011801045723,新規,0,2025-03-04,2025-03-04,ザ・ガラージュ株式会社,,株式会社,東京都,葛飾区,東水元２丁目３２番９号,,13,122,1250033,,,,,,,2025-03-04,1,,,,,ザガラージュ,0
1037,5012701018728,新規,0,2025-03-04,2025-03-04,ブルーイン株式会社,,株式会社,東京都,小平市,上水南町３丁目１３－２－２,,13,211,1870021,,,,,,,2025-03-04,1,,,,,ブルーイン,0
1047,5013301053867,新規,0,2025-03-04,2025-03-04,株式会社漢方中医堂,,株式会社,東京都,豊島区,池袋２丁目６１番３号池袋アバックビル６階,,13,116,1710014,,,,,,,2025-03-04,1,,,,,カンポウチュウイドウ,0
1052,5020001161537,新規,0,2025-03-04,2025-03-04,株式会社武レーザー,,株式会社,神奈川県,川崎市宮前区,西野川１丁目１０番３７号,,14,136,2160044,,,,,,,2025-03-04,1,,,,,タケレーザー,0
1053,5020001161611,新規,0,2025-03-04,2025-03-04,株式会社佐藤工務店,,株式会社,神奈川県,横浜市鶴見区,矢向５丁目１番３－２０４号,,14,101,2300001,,,,,,,2025-03-04,1,,,,,サトウコウムテン,0
1054,5020001161636,新規,0,2025-03-04,2025-03-04,株式会社Ｒａｕｇｈ　Ｔａｌｅ,,株式会社,神奈川県,横浜市泉区,下和泉５丁目１２番３２号,,14,116,2450021,,,,,,,2025-03-04,1,,,,,ラフテル,0
1055,5020001161644,新規,0,2025-03-04,2025-03-04,アルアマーナ国際物流株式会社,,株式会社,神奈川県,横浜市中区,太田町２丁目２３番地横浜メディア・ビジネスセンター６階,,14,104,2310011,,,,,,,2025-03-04,1,,,,,アルアマーナコクサイブツリュウ,0
1056,5020001161677,新規,0,2025-03-04,2025-03-04,株式会社ＳＫプランニング,,株式会社,神奈川県,横浜市磯子区,杉田５丁目１２番２３－３号室,,14,107,2350033,,,,,,,2025-03-04,1,,,,,エスケープランニング,0
1061,5020003027950,新規,0,2025-03-04,2025-03-04,合同会社こみち,,合同会社,神奈川県,川崎市幸区,小向仲野町１１－１１,,14,132,2120002,,,,,,,2025-03-04,1,,,,,コミチ,0
1062,5020003027967,新規,0,2025-03-04,2025-03-04,合同会社なごやかコンサルティング,,合同会社,神奈川県,川崎市幸区,南幸町１丁目３３番地２川崎スパマンション２０３,,14,132,2120016,,,,,,,2025-03-04,1,,,,,ナゴヤカコンサルティング,0
1063,5020005016720,新規,0,2025-03-04,2025-03-04,一般社団法人日本シェフ・イン・レジデンス応援協会,,その他の設立登記法人,神奈川県,横浜市西区,北幸２丁目１０番４８号むつみビル３階,,14,103,2200004,,,,,,,2025-03-04,1,,,,,ニホンシェフインレジデンスオウエンキョウカイ,0
1066,5021001084587,新規,0,2025-03-04,2025-03-04,株式会社Ｅ＆Ｋ,,株式会社,神奈川県,茅ヶ崎市,今宿９１１番地３－１１２号ダイアパレスエクシード茅ヶ崎,,14,207,2530072,,,,,,,2025-03-04,1,,,,,イーアンドケー,0
1068,5030001165116,新規,0,2025-03-04,2025-03-04,株式会社アンアイン,,株式会社,埼玉県,春日部市,中央７丁目１番地１ピュアルワン２０２号,,11,214,3440067,,,,,,,2025-03-04,1,,,,,アンアイン,0
1072,5030003026258,新規,0,2025-03-04,2025-03-04,ＭＹＭＹ合同会社,,合同会社,埼玉県,さいたま市大宮区,桜木町１丁目２６６番地１２ＧｒａｎｄｉｏＳａｋｕｒａｇｉｃｈｏ６０３,,11,103,3300854,,,,,,,2025-03-04,1,,,,,マイマイ,0
1080,5040001137650,新規,0,2025-03-04,2025-03-04,株式会社ＵＭＩ　Ｐａｒｔｎｅｒｓ,,株式会社,千葉県,流山市,南流山１０丁目１７番地の８,,12,220,2700163,,,,,,,2025-03-04,1,,,,,ウミパートナーズ,0
1085,5050001056255,新規,0,2025-03-04,2025-03-04,株式会社Ｎプラス,,株式会社,茨城県,つくば市,森の里９７番地１,,08,220,3001256,,,,,,,2025-03-04,1,,,,,エヌプラス,0
1087,5060001037964,新規,0,2025-03-04,2025-03-04,株式会社村山商事,,株式会社,栃木県,宇都宮市,問屋町３１７２番地５３,,09,201,3210911,,,,,,,2025-03-04,1,,,,,ムラヤマショウジ,0
1094,5080001026775,新規,0,2025-03-04,2025-03-04,株式会社リブリカ,,株式会社,静岡県,静岡市葵区,南安倍１丁目１１番５号,,22,101,4200054,,,,,,,2025-03-04,1,,,,,リブリカ,0
1095,5080101025339,新規,0,2025-03-04,2025-03-04,株式会社ＤＨＫトータルサポート,,株式会社,静岡県,御殿場市,印野８４１番地の３,,22,215,4120008,,,,,,,2025-03-04,1,,,,,ディーエイチケイトータルサポート,0
1098,5080401027778,新規,0,2025-03-04,2025-03-04,株式会社ワントゥルー,,株式会社,静岡県,浜松市中央区,領家３丁目１３番７号７０６,,22,138,4300852,,,,,,,2025-03-04,1,,,,,ワントゥルー,0
1101,5080403005212,新規,0,2025-03-04,2025-03-04,合同会社グエン,,合同会社,静岡県,御前崎市,池新田８６１１番地の１,,22,223,4371612,,,,,,,2025-03-04,1,,,,,グエン,0
1112,5120001273231,新規,0,2025-03-04,2025-03-04,スイートスポット貿易株式会社,,株式会社,大阪府,大阪市港区,市岡３丁目１３番９号２０２Ｂ,,27,107,5520012,,,,,,,2025-03-04,1,,,,,スイートスポットボウエキ,0
1113,5120001273272,新規,0,2025-03-04,2025-03-04,天盛株式会社,,株式会社,大阪府,大阪市都島区,東野田町４丁目５－４４翠連マンション２２４号室,,27,102,5340024,,,,,,,2025-03-04,1,,,,,テンセイ,0
1114,5120001273297,新規,0,2025-03-04,2025-03-04,ハッテン株式会社,,株式会社,大阪府,大阪市北区,梅田１丁目２番２号大阪駅前第２ビル１２－１２,,27,127,5300001,,,,,,,2025-03-04,1,,,,,ハッテン,0
1115,5120001273322,新規,0,2025-03-04,2025-03-04,株式会社ＹＫＹＳ．,,株式会社,大阪府,大阪市淀川区,三津屋南２丁目１４番３０号,,27,123,5320035,,,,,,,2025-03-04,1,,,,,ワイケーワイエス,0
1116,5120001273339,新規,0,2025-03-04,2025-03-04,日京化学株式会社,,株式会社,大阪府,大阪市生野区,生野西２丁目１番３３－３１０号,,27,116,5440024,,,,,,,2025-03-04,1,,,,,ニッキョウカガク,0
1117,5120001273371,新規,0,2025-03-04,2025-03-04,Ｂａｃｈｙ　Ｓｏｌｅｔａｎｃｈｅ　Ｊａｐａｎ株式会社,,株式会社,大阪府,大阪市北区,堂島１丁目６番２０号堂島アバンザ６階在日フランス商工会議所内,,27,127,5300003,,,,,,,2025-03-04,1,,,,,バシーソレタンシュジャパン,0
1119,5120003028699,新規,0,2025-03-04,2025-03-04,合同会社はじめ,,合同会社,大阪府,守口市,淀江町１－３シャルマン淀江３０７,,27,209,5700004,,,,,,,2025-03-04,1,,,,,ハジメ,0
1120,5120003028765,新規,0,2025-03-04,2025-03-04,合同会社ＨＡＲＵＫＡ,,合同会社,大阪府,門真市,四宮５丁目５－３,,27,223,5710017,,,,,,,2025-03-04,1,,,,,ハルカ,0
1121,5120101071163,新規,0,2025-03-04,2025-03-04,株式会社イグニズム,,株式会社,大阪府,河内長野市,千代田台町１３番８号,,27,216,5860027,,,,,,,2025-03-04,1,,,,,イグニズム,0
1122,5120103006299,新規,0,2025-03-04,2025-03-04,合同会社ｃｉｅｌ,,合同会社,大阪府,堺市西区,下田町２番１－２０３号,,27,144,5938329,,,,,,,2025-03-04,1,,,,,シエル,0
1123,5120901050523,新規,0,2025-03-04,2025-03-04,株式会社古澤組,,株式会社,大阪府,豊中市,庄内幸町５丁目２３番１５号,,27,203,5610833,,,,,,,2025-03-04,1,,,,,フルサワグミ,0
1124,5122001038936,新規,0,2025-03-04,2025-03-04,株式会社ペンギンズ,,株式会社,大阪府,東大阪市,小若江３丁目６番９号近畿大学ＫＩＮＣＵＢＡＢａｓｅｃａｍｐ,,27,227,5770818,,,,,,,2025-03-04,1,,,,,ペンギンズ,0
1131,5130003010243,新規,0,2025-03-04,2025-03-04,寿司処喜与丸合同会社,,合同会社,京都府,京都市下京区,朱雀宝蔵町４４番地協栄ビル２階京都朱雀スタジオ,,26,106,6008846,,,,,,,2025-03-04,1,,,,,スシドコロキヨマル,0
1140,5140001137582,新規,0,2025-03-04,2025-03-04,宝塚住研株式会社,00138190,株式会社,兵庫県,宝塚市,中州１丁目１５番３４号,,28,214,6650021,,,,,,,2025-03-04,1,,,,,タカラヅカジュウケン,0
1156,5180005020962,新規,0,2025-03-04,2025-03-04,社会福祉法人夢きらり,,その他の設立登記法人,愛知県,名古屋市中川区,小本本町３丁目９２番地,,23,110,4540826,,,,,,,2025-03-04,1,,,,,ユメキラリ,0
1173,5210001020079,新規,0,2025-03-04,2025-03-04,株式会社しの屋,,株式会社,福井県,福井市,南菅生町第２１号２３番地,,18,201,9103386,,,,,,,2025-03-04,1,,,,,シノヤ,0
1174,5220001026513,新規,0,2025-03-04,2025-03-04,株式会社ＯｎＯ,,株式会社,石川県,金沢市,笠舞２丁目２２番８号,,17,201,9200965,,,,,,,2025-03-04,1,,,,,オーエヌオー,0
1175,5220003003964,新規,0,2025-03-04,2025-03-04,合同会社たま,,合同会社,石川県,金沢市,駅西本町１丁目１４番５号,,17,201,9200025,,,,,,,2025-03-04,1,,,,,タマ,0
1183,5240001064585,新規,0,2025-03-04,2025-03-04,大國警備保障株式会社,,株式会社,広島県,福山市,南手城町３丁目１９番４号,,34,207,7210963,,,,,,,2025-03-04,1,,,,,ダイコクケイビホショウ,0
1187,5250005008983,新規,0,2025-03-04,2025-03-04,一般社団法人インクルージョン,,その他の設立登記法人,山口県,岩国市,車町１丁目８番１３号,,35,208,7400026,,,,,,,2025-03-04,1,,,,,インクルージョン,0
1190,5260001039957,新規,0,2025-03-04,2025-03-04,株式会社デイズ,,株式会社,岡山県,倉敷市,栗坂９７３,,33,202,7010113,,,,,,,2025-03-04,1,,,,,デイズ,0
1191,5260003005081,新規,0,2025-03-04,2025-03-04,合同会社１００３,,合同会社,岡山県,岡山市北区,津高９１９番地７－６０５,,33,101,7011152,,,,,,,2025-03-04,1,,,,,イチゼロゼロサン,0
1192,5270001009158,新規,0,2025-03-04,2025-03-04,あおやホールディングス株式会社,,株式会社,鳥取県,鳥取市,青谷町善田１番地４,,31,201,6890511,,,,,,,2025-03-04,1,,,,,アオヤホールディングス,0
1196,5270003001716,新規,0,2025-03-04,2025-03-04,ＳＥＡ　ＳＫＹ合同会社,,合同会社,鳥取県,鳥取市,吉方温泉４丁目４３２番地,,31,201,6800841,,,,,,,2025-03-04,1,,,,,シースカイ,0
1201,5290803004981,新規,0,2025-03-04,2025-03-04,合同会社Ｔ＆Ｈ,,合同会社,福岡県,北九州市門司区,吉志６丁目２４番８号,,40,101,8000114,,,,,,,2025-03-04,1,,,,,ティアンドエイチ,0
1203,5310005008829,新規,0,2025-03-04,2025-03-04,医療法人明恒会,,その他の設立登記法人,長崎県,大村市,小路口町２５８番地４,,42,205,8560025,,,,,,,2025-03-04,1,,,,,メイコウカイ,0
1204,5320001020976,新規,0,2025-03-04,2025-03-04,株式会社シンセロ,,株式会社,大分県,大分市,竹下１丁目４番１１－３０１号イルチェーロ,,44,201,8700265,,,,,,,2025-03-04,1,,,,,シンセロ,0
1211,5360001034849,新規,0,2025-03-04,2025-03-04,株式会社ｙｕｉ,,株式会社,沖縄県,南城市,大里字古堅８０９番地８,,47,215,9011207,,,,,,,2025-03-04,1,,,,,ユイ,0
1212,5360001034865,新規,0,2025-03-04,2025-03-04,ＵＺｍｅｎｋａ株式会社,,株式会社,沖縄県,島尻郡八重瀬町,字東風平８３２ＣＡＳＡ　ＬＡ　ＴＩＤＡ２０１号,,47,362,9010401,,,,,,,2025-03-04,1,,,,,ウズメンカ,0
1215,5370001052321,新規,0,2025-03-04,2025-03-04,株式会社Ｓファーム,,株式会社,宮城県,加美郡加美町,四日市場字屋敷９３番地,,04,445,9814221,,,,,,,2025-03-04,1,,,,,エスファーム,0
1216,5380001035127,新規,0,2025-03-04,2025-03-04,株式会社Ｔ．ＳＴＥＰ,,株式会社,福島県,南相馬市,小高区本町１丁目８７番地,,07,212,9792124,,,,,,,2025-03-04,1,,,,,ティードットステップ,0
1217,5380003005945,新規,0,2025-03-04,2025-03-04,橋本合同会社,,合同会社,福島県,郡山市,日和田町高倉字町裏５７番地市営住宅２‐１‐１１,,07,203,9630531,,,,,,,2025-03-04,1,,,,,ハシモト,0
1218,5380003005978,新規,0,2025-03-04,2025-03-04,合同会社ＭＭＬ,,合同会社,福島県,郡山市,小原田３丁目３番４号エコライフハリマ３０６号,,07,203,9638835,,,,,,,2025-03-04,1,,,,,エムエムエル,0
1223,5420003003077,新規,0,2025-03-04,2025-03-04,合同会社Ｍｉｎｎ　ＳＭＩＬＥ,,合同会社,青森県,八戸市,小田１丁目６番２７号,,02,203,0391160,,,,,,,2025-03-04,1,,,,,ミンスマイル,0
1225,5430001093805,新規,0,2025-03-04,2025-03-04,株式会社いなむら農場,,株式会社,北海道,石狩郡当別町,字東裏９６７番地,,01,303,0610213,,,,,,,2025-03-04,1,,,,,イナムラノウジョウ,0
1226,5430001093821,新規,0,2025-03-04,2025-03-04,株式会社成澤,,株式会社,北海道,札幌市中央区,南二条西５丁目３１－１ＲＭＢｌｄ．７０１,,01,101,0600062,,,,,,,2025-03-04,1,,,,,ナリサワ,0
1227,5430003017332,新規,0,2025-03-04,2025-03-04,合同会社いろどりＴＲＥＥ,,合同会社,北海道,札幌市北区,新川八条１７丁目７６９番地１７,,01,102,0010928,,,,,,,2025-03-04,1,,,,,イロドリツリー,0
1228,5430003017340,新規,0,2025-03-04,2025-03-04,合同会社ＮＯＧ,,合同会社,北海道,札幌市東区,本町一条２丁目５番３２号,,01,103,0650041,,,,,,,2025-03-04,1,,,,,ノグ,0
1240,5500001026162,新規,0,2025-03-04,2025-03-04,株式会社Ｓｔｅｍ　Ｐｒｏｄｕｃｔｉｏｎ,,株式会社,愛媛県,松山市,湊町４丁目５番６号２Ｆ,,38,201,7900012,,,,,,,2025-03-04,1,,,,,ステムプロダクション,0
1241,5500001026170,新規,0,2025-03-04,2025-03-04,株式会社エクスサービス,,株式会社,愛媛県,松山市,福音寺町３６番地１３,,38,201,7900921,,,,,,,2025-03-04,1,,,,,エクスサービス,0
1243,5700150129423,新規,0,2025-03-04,2025-03-04,Ｓｒｉｐａｔｈｉ　Ｍｏｔｏｒｓ,,外国会社等,千葉県,香取郡神崎町,古原乙３２６番地２１２オフィス１,,12,342,2890215,スリランカ民主社会主義共和国、クリヤピティヤ、クラガハゲダラ、３１９,,,,,,2025-03-04,1,,,,,スリパテイモータース,0
1244,5700150129431,新規,0,2025-03-04,2025-03-04,Ｍｏｚｈｅｎｋｅｊｉｓｈｅｎｚｈｅｎｙｏｕｘｉａｎｇｏｎｇｓｉ,,外国会社等,,,,,,,,５ｔｈ　Ｆｌｏｏｒ，Ｒｏｏｍ　５０３，Ｂｕｉｌｄｉｎｇ　４，Ｐｈａｓｅ　ＩＩ，Ｔｉａｎ’ａｎ　Ｙｕｎｇｕ　Ｉｎｄｕｓｔｒｉａｌ　Ｐａｒｋ，Ｇａｎｇｔｏｕ　Ｃｏｍｍｕｎｉｔｙ，Ｂａｎｔｉａｎ　Ｓｔｒｅｅｔ，Ｌｏｎｇｇａｎｇ　Ｄｉｓｔｒｉｃｔ，Ｓｈｅｎｚｈｅｎ．５１８１００　ＣＮ,00138153,,,,,2025-03-04,1,,,,,モゼンカギシンセンユウゲンコウシ,0
1249,6010001252559,新規,0,2025-03-04,2025-03-04,Ｔａｂｉ　Ｆａｃｔｏｒｙ株式会社,,株式会社,東京都,千代田区,外神田２丁目１番８スクエア秋葉原１０６号室,,13,101,1010021,,,,,,,2025-03-04,1,,,,,タビファクトリー,0
1250,6010001252749,新規,0,2025-03-04,2025-03-04,日本裕川株式会社,,株式会社,東京都,千代田区,丸の内１丁目１１－１パシフィックセンチュリープレイス丸の内１３Ｆ１３４２,,13,101,1000005,,,,,,,2025-03-04,1,,,,,ニホンユウカワ,0
1252,6010005039663,新規,0,2025-03-04,2025-03-04,一般社団法人ベガ,,その他の設立登記法人,東京都,千代田区,二番町３番地麹町スクエア株式会社シリウス・アドバイザリー内,,13,101,1020084,,,,,,,2025-03-04,1,,,,,ベガ,0
1260,6010401188551,新規,0,2025-03-04,2025-03-04,株式会社ＳＨＩＮＹ　ＳＴＹＬＥＲ,,株式会社,東京都,港区,北青山１丁目３番１号アールキューブ青山３階,,13,103,1070061,,,,,,,2025-03-04,1,,,,,シャイニースタイラー,0
1261,6010401188584,新規,0,2025-03-04,2025-03-04,株式会社ノーススター,,株式会社,東京都,港区,芝４丁目１番２３号三田ＮＮビル１５階,,13,103,1080014,,,,,,,2025-03-04,1,,,,,ノーススター,0
1265,6010403034506,新規,0,2025-03-04,2025-03-04,合同会社ドリーム,,合同会社,東京都,港区,西麻布２丁目１５番２０号,,13,103,1060031,,,,,,,2025-03-04,1,,,,,ドリーム,0
1266,6010403034514,新規,0,2025-03-04,2025-03-04,合同会社フューチャーテックインベストメント,,合同会社,東京都,港区,西麻布３丁目１６番１１号,,13,103,1060031,,,,,,,2025-03-04,1,,,,,フューチャーテックインベストメント,0
1267,6010403034522,新規,0,2025-03-04,2025-03-04,Ｄｏｔｄｉｇｉｔａｌ　Ｊａｐａｎ合同会社,,合同会社,東京都,港区,元麻布３丁目１番６号,,13,103,1060046,,,,,,,2025-03-04,1,,,,,ドットデジタルジャパン,0
1268,6010403034530,新規,0,2025-03-04,2025-03-04,Ｖｅｒｔｉｖ　Ｊａｐａｎ合同会社,,合同会社,東京都,港区,六本木１丁目９番１０号アークヒルズ仙石山森タワー２８階ベーカー＆マッケンジー法律事務所（外国法共同事業）内,,13,103,1060032,,,,,,,2025-03-04,1,,,,,バーティブジャパン,0
1270,6010405024117,新規,0,2025-03-04,2025-03-04,一般社団法人カルチャーモデル研究所,,その他の設立登記法人,東京都,港区,浜松町２丁目２－１５浜松町ダイヤビル２階,,13,103,1050013,,,,,,,2025-03-04,1,,,,,カルチャーモデルケンキュウジョ,0
1271,6010601066870,新規,0,2025-03-04,2025-03-04,南書株式会社,,株式会社,東京都,江東区,亀戸３丁目６２番１０号ＳＡＮビル４０５号室,,13,108,1360071,,,,,,,2025-03-04,1,,,,,ナンショ,0
1272,6010601066887,新規,0,2025-03-04,2025-03-04,株式会社ペルシステンティア,,株式会社,東京都,江東区,南砂１丁目５番８－５０１号,,13,108,1360076,,,,,,,2025-03-04,1,,,,,ペルシステンティア,0
1281,6010701047317,新規,0,2025-03-04,2025-03-04,株式会社Ｔｒｕｓｔ　Ａｃｃｏｕｎｔｉｎｇ,,株式会社,東京都,品川区,南大井３丁目１２番７号,,13,109,1400013,,,,,,,2025-03-04,1,,,,,トラストアカウンティング,0
1282,6010701047333,新規,0,2025-03-04,2025-03-04,ＧＬＥＡＭＳ株式会社,,株式会社,東京都,品川区,大崎３丁目６番２１号ニュー大崎マンション３１３,,13,109,1410032,,,,,,,2025-03-04,1,,,,,グリームス,0
1283,6010801035881,新規,0,2025-03-04,2025-03-04,友敬株式会社,,株式会社,東京都,大田区,矢口１丁目１６－１９コスモビルＩＩ３０９,00138186,13,111,1460093,,,,,,,2025-03-04,1,,,,,ユウケイ,0
1284,6010803005296,新規,0,2025-03-04,2025-03-04,合同会社ＫｉｎｄｅｒＪｏｙ,,合同会社,東京都,大田区,南千束３丁目１８番６号ＡＮＮＥＸ大岡山１０５,,13,111,1450063,,,,,,,2025-03-04,1,,,,,カインダージョイ,0
1287,6010901056902,新規,0,2025-03-04,2025-03-04,株式会社レックス＆カンパニー,,株式会社,東京都,世田谷区,奥沢６丁目２７－２アーバンＳＫビル３Ｆ,,13,112,1580083,,,,,,,2025-03-04,1,,,,,レックスアンドカンパニー,0
1295,6011001168010,新規,0,2025-03-04,2025-03-04,株式会社ｓｕｋｉｙａｋｉ　ｐｒｏｊｅｃｔ,,株式会社,東京都,渋谷区,道玄坂１丁目１６番６号二葉ビル８ｂ,,13,113,1500043,,,,,,,2025-03-04,1,,,,,スキヤキプロジェクト,0
1299,6011003021076,新規,0,2025-03-04,2025-03-04,合同会社ＵＮＤＥＲ　ＴＨＥ　ＰＥＲＦＵＭＥ,,合同会社,東京都,渋谷区,恵比寿西２丁目４番８号ウィンド恵比寿ビル８Ｆ,,13,113,1500021,,,,,,,2025-03-04,1,,,,,アンダーザパフューム,0
1301,6011101110821,新規,0,2025-03-04,2025-03-04,ワーカーズライツコンサルティング株式会社,,株式会社,東京都,新宿区,西新宿３丁目３番１３号西新宿水間ビル２Ｆ,,13,104,1600023,,,,,,,2025-03-04,1,,,,,ワーカーズライツコンサルティング,0
1303,6011103015597,新規,0,2025-03-04,2025-03-04,合同会社ＴＵ０１０,,合同会社,東京都,新宿区,四谷２丁目９番地１５東京ユナイテッド綜合事務所内,,13,104,1600004,,,,,,,2025-03-04,1,,,,,ティーユーゼロワンゼロ,0
1305,6011301030407,新規,0,2025-03-04,2025-03-04,株式会社雅,,株式会社,東京都,杉並区,浜田山４丁目１４番６号メゾン・スリズィエ２０５,,13,115,1680065,,,,,,,2025-03-04,1,,,,,ミヤビ,0
1308,6011501031782,新規,0,2025-03-04,2025-03-04,株式会社ＧＮＯ３３,,株式会社,東京都,荒川区,東日暮里４丁目３６番２３号ジェノヴィア東日暮里グリーンヴェール１１０２,,13,118,1160014,,,,,,,2025-03-04,1,,,,,ジーエヌオーサンサン,0
1311,6011601028448,新規,0,2025-03-04,2025-03-04,株式会社Ａｓｐｉｒａｔｉｏｎ,,株式会社,東京都,練馬区,下石神井４丁目２１－３２ミモザ１０２,,13,120,1770042,,,,,,,2025-03-04,1,,,,,アスピレーション,0
1316,6011801045722,新規,0,2025-03-04,2025-03-04,株式会社ＴＩ,,株式会社,東京都,足立区,西新井栄町２丁目８－４ノワールコート３０２,,13,121,1230843,,,,,,,2025-03-04,1,,,,,ティーアイ,0
1318,6012401042829,新規,0,2025-03-04,2025-03-04,株式会社和燈社,,株式会社,東京都,調布市,緑ケ丘２丁目４番地１,,13,208,1820001,,,,,,,2025-03-04,1,,,,,ワトウシャ,0
1324,6012801023759,新規,0,2025-03-04,2025-03-04,株式会社Ｄｏｇ　Ｆａｍ,,株式会社,東京都,東大和市,南街２丁目４８番地の１小野ビルＥ,,13,220,2070014,,,,,,,2025-03-04,1,,,,,ドッグファム,0
1325,6013303007556,新規,0,2025-03-04,2025-03-04,合同会社雑司が谷馬場,,合同会社,東京都,豊島区,雑司が谷１丁目１７番２号,,13,116,1710032,,,,,,,2025-03-04,1,,,,,ゾウシガヤババ,0
1326,6013303007564,新規,0,2025-03-04,2025-03-04,照合同会社,,合同会社,東京都,豊島区,南大塚２丁目１１―１０ミモザビル３階,,13,116,1700005,,,,,,,2025-03-04,1,,,,,テル,0
1339,6020001161602,新規,0,2025-03-04,2025-03-04,株式会社ＦＡＭ,,株式会社,神奈川県,横浜市青葉区,つつじが丘２９番地５メゾン青葉台１０１,,14,117,2270055,,,,,,,2025-03-04,1,,,,,エフエーエム,0
1340,6020001161651,新規,0,2025-03-04,2025-03-04,株式会社ＤＯＰ,,株式会社,神奈川県,横浜市港北区,箕輪町２丁目２０番３２－１０１号,,14,109,2230051,,,,,,,2025-03-04,1,,,,,ディオーピー,0
1344,6020003027941,新規,0,2025-03-04,2025-03-04,永宝堂合同会社,,合同会社,神奈川県,横浜市南区,南吉田町５丁目４７番２号,,14,105,2320012,,,,,,,2025-03-04,1,,,,,エイホウドウ,0
1349,6021003015639,新規,0,2025-03-04,2025-03-04,合同会社岩本理容,,合同会社,神奈川県,足柄下郡湯河原町,土肥５丁目２‐２７,,14,384,2590303,,,,,,,2025-03-04,1,,,,,イワモトリヨウ,0
1355,6030001165123,新規,0,2025-03-04,2025-03-04,株式会社ｐｏｎｏ,,株式会社,埼玉県,春日部市,中央５丁目７番地３３,,11,214,3440067,,,,,,,2025-03-04,1,,,,,ポノ,0
1356,6030001165131,新規,0,2025-03-04,2025-03-04,ラグジュアリートラベル株式会社,,株式会社,埼玉県,川口市,上青木５丁目１３番２６号,,11,203,3330844,,,,,,,2025-03-04,1,,,,,ラグジュアリートラベル,0
1364,6040001137633,新規,0,2025-03-04,2025-03-04,株式会社ＳＥＶＥＮ　ＨＯＲＳＥ,,株式会社,千葉県,松戸市,新松戸３丁目２７５番地３０３号室,,12,207,2700034,,,,,,,2025-03-04,1,,,,,セブンホース,0
1367,6050001056221,新規,0,2025-03-04,2025-03-04,盛和株式会社,,株式会社,茨城県,ひたちなか市,大字津田２８５９－１,,08,221,3120032,,,,,,,2025-03-04,1,,,,,セイワ,0
1368,6070001042657,新規,0,2025-03-04,2025-03-04,株式会社スカイチャープ,,株式会社,群馬県,館林市,西高根町４２番地の２３,,10,207,3740075,,,,,,,2025-03-04,1,,,,,スカイチャープ,0
1369,6070001042665,新規,0,2025-03-04,2025-03-04,株式会社Ｓｍａｌｌ　Ｆｉｅｌｄ,,株式会社,群馬県,高崎市,箕郷町柏木沢２２４３番地１０柏木沢ハイツＢ号,,10,202,3703101,,,,,,,2025-03-04,1,,,,,スモールフィールド,0
1374,6080401027769,新規,0,2025-03-04,2025-03-04,マルツホールディングス株式会社,,株式会社,静岡県,浜松市中央区,白鳥町８０番地,,22,138,4350002,,,,,,,2025-03-04,1,,,,,マルツホールディングス,0
1375,6080401027777,新規,0,2025-03-04,2025-03-04,株式会社藍辰,,株式会社,静岡県,浜松市中央区,篠原町１１４４番地の７,,22,138,4310201,,,,,,,2025-03-04,1,,,,,アイシン,0
1378,6110001039095,新規,0,2025-03-04,2025-03-04,株式会社山川機設,,株式会社,新潟県,新潟市南区,鷲ノ木新田６８１５番地３６,,15,106,9501407,,,,,,,2025-03-04,1,,,,,ヤマカワキセツ,0
1390,6120001273305,新規,0,2025-03-04,2025-03-04,千里同風株式会社,,株式会社,大阪府,大阪市港区,八幡屋３丁目５－１－３０６室,,27,107,5520014,,,,,,,2025-03-04,1,,,,,センリドウフウ,0
1391,6120001273313,新規,0,2025-03-04,2025-03-04,舒元科技諮詢株式会社,,株式会社,大阪府,大阪市東住吉区,住道矢田１丁目１６番２５－２０１号,,27,121,5460022,,,,,,,2025-03-04,1,,,,,ショゲンカギシジュン,0
1392,6120003028500,新規,0,2025-03-04,2025-03-04,合同会社Ｊｉｇｓａｗ,,合同会社,大阪府,大阪市西区,南堀江１丁目１８番１４－１１０１号,,27,106,5500015,,,,,,,2025-03-04,1,,,,,ジグソー,0
1393,6120003028756,新規,0,2025-03-04,2025-03-04,合同会社ＴｅｃｈＮｅｘｕｓ,,合同会社,大阪府,大阪市北区,梅田１丁目２番２号大阪駅前第２ビル,,27,127,5300001,,,,,,,2025-03-04,1,,,,,テックネクサス,0
1394,6120003028789,新規,0,2025-03-04,2025-03-04,Ａｎｎｅｘ合同会社,,合同会社,大阪府,大阪市中央区,平野町３丁目３‐１１‐９０２,,27,128,5410046,,,,,,,2025-03-04,1,,,,,アネックス,0
1397,6120101071195,新規,0,2025-03-04,2025-03-04,林メディカル株式会社,,株式会社,大阪府,大阪狭山市,大野台７丁目１２－５,,27,231,5890023,,,,,,,2025-03-04,1,,,,,ハヤシメディカル,0
1400,6122001038935,新規,0,2025-03-04,2025-03-04,株式会社アメシスト,,株式会社,大阪府,八尾市,西山本町３丁目２番４９号,,27,212,5810868,,,,,,,2025-03-04,1,,,,,アメシスト,0
1403,6130001079098,新規,0,2025-03-04,2025-03-04,株式会社ａｒｔｉｓａｎ,,株式会社,京都府,京都市中京区,壬生松原町２２番地田附ビル２Ｆ,,26,104,6048823,,,,,,,2025-03-04,1,,,,,アルチザン,0
1405,6140001137557,新規,0,2025-03-04,2025-03-04,株式会社フェリックスホールディングス,,株式会社,兵庫県,宝塚市,伊孑志２丁目５番８号,,28,214,6650033,,,,,,,2025-03-04,1,,,,,フェリックスホールディングス,0
1406,6140001137581,新規,0,2025-03-04,2025-03-04,株式会社クリーンアップ,,株式会社,兵庫県,芦屋市,南浜町２番９号,,28,206,6590037,,,,,,,2025-03-04,1,,,,,クリーンアップ,0
1409,6140003021726,新規,0,2025-03-04,2025-03-04,合同会社カウンセリングセンターみらいｂｌｏｏｍ,,合同会社,兵庫県,神戸市灘区,篠原南町７丁目１－１１,,28,102,6570059,,,,,,,2025-03-04,1,,,,,カウンセリングセンターミライブルーム,0
1410,6140005027390,新規,0,2025-03-04,2025-03-04,一般社団法人ＬＩＮＫ　Ｎｉｓｈｉｎｏｍｉｙａ,,その他の設立登記法人,兵庫県,西宮市,鳴尾町２丁目２６－３,,28,204,6638184,,,,,,,2025-03-04,1,,,,,リンクニシノミヤ,0
1414,6150001027914,新規,0,2025-03-04,2025-03-04,大奈良グループ株式会社,,株式会社,奈良県,北葛城郡河合町,久美ケ丘２丁目１８番地１,,29,427,6360063,,,,,,,2025-03-04,1,,,,,ダイナラグループ,0
1416,6160001026584,新規,0,2025-03-04,2025-03-04,株式会社３６５‐ゴルフクラブ,,株式会社,滋賀県,長浜市,内保町３０１番地,,25,203,5260244,,,,,,,2025-03-04,1,,,,,サンロクゴゴルフクラブ,0
1422,6180001165661,新規,0,2025-03-04,2025-03-04,株式会社ＧＯＡＴ,,株式会社,愛知県,名古屋市中区,富士見町１３番１９号富士見町八木ビル４階４０６号室,,23,106,4600014,,,,,,,2025-03-04,1,,,,,ゴート,0
1423,6180001165678,新規,0,2025-03-04,2025-03-04,いまライフマネー株式会社,,株式会社,愛知県,名古屋市西区,山木２丁目１番地の１（ライオンズ上小田井オアシスプレイス３１９号）,,23,104,4520833,,,,,,,2025-03-04,1,,,,,イマライフマネー,0
1430,6190001032035,新規,0,2025-03-04,2025-03-04,株式会社清光建設,,株式会社,三重県,津市,一志町みのりヶ丘１１５番地５１４,,24,201,5152517,,,,,,,2025-03-04,1,,,,,キヨミツケンセツ,0
1436,6220001026512,新規,0,2025-03-04,2025-03-04,株式会社成騎．,,株式会社,石川県,能美市,大成町１丁目２５番地１,,17,211,9290113,,,,,,,2025-03-04,1,,,,,ナルキ,0
1439,6220005008928,新規,0,2025-03-04,2025-03-04,特定非営利活動法人外浦の未来をつくる会,,その他の設立登記法人,石川県,珠洲市,馬緤町６字４６番地,,17,205,9271304,,,,,,,2025-03-04,1,,,,,ソトウラノミライヲツクルカイ,0
1443,6240005015906,新規,0,2025-03-04,2025-03-04,一般社団法人ＫＡＫＥＲＵ,,その他の設立登記法人,広島県,福山市,千田町大字千田２２１９セジュールＢ１０１,,34,207,7200013,,,,,,,2025-03-04,1,,,,,カケル,0
1445,6260001039972,新規,0,2025-03-04,2025-03-04,株式会社山王グループ,,株式会社,岡山県,倉敷市,福江１４６２番地１,,33,202,7100145,,,,,,,2025-03-04,1,,,,,ヤマオウグループ,0
1448,6270001009157,新規,0,2025-03-04,2025-03-04,株式会社Ｐｈｏｔｏｎ,,株式会社,鳥取県,米子市,錦町１丁目５ＩＴＯＨビル２階Ａ,,31,202,6830811,,,,,,,2025-03-04,1,,,,,フォトン,0
1449,6280001009362,新規,0,2025-03-04,2025-03-04,株式会社Ｐｕｌａｒ　Ｆｅｅｔ,,株式会社,島根県,大田市,久手町波根西２０５３番地９,,32,205,6940051,,,,,,,2025-03-04,1,,,,,プラフィート,0
1453,6290001109178,新規,0,2025-03-04,2025-03-04,株式会社エムズプラン,,株式会社,福岡県,福岡市南区,高宮５丁目３番９－４０５号,,40,134,8150083,,,,,,,2025-03-04,1,,,,,エムズプラン,0
1455,6290801031309,新規,0,2025-03-04,2025-03-04,Ｆ‐Ｄａｙｌｉｇｈｔ株式会社,,株式会社,福岡県,北九州市八幡西区,町上津役西３丁目４番３５号（２０３）,,40,109,8070074,,,,,,,2025-03-04,1,,,,,エフディライト,0
1456,6290801031325,新規,0,2025-03-04,2025-03-04,株式会社小池サービス機工,,株式会社,福岡県,北九州市小倉北区,清水３丁目４番１３号,,40,106,8030841,,,,,,,2025-03-04,1,,,,,コイケサービスキコウ,0
1465,6360003014732,新規,0,2025-03-04,2025-03-04,合同会社ナゴプレイス,,合同会社,沖縄県,名護市,字宇茂佐４２８－２４,,47,209,9050006,,,,,,,2025-03-04,1,,,,,ナゴプレイス,0
1477,6400005008471,新規,0,2025-03-04,2025-03-04,医療法人社団慈敬会,,その他の設立登記法人,岩手県,釜石市,只越町３丁目５－１５,,03,211,0260021,,,,,,,2025-03-04,1,,,,,ジケイカイ,0
1482,6430001093812,新規,0,2025-03-04,2025-03-04,辰興芙蓉株式会社,,株式会社,北海道,札幌市西区,平和二条６丁目２番１４号,,01,107,0630022,,,,,,,2025-03-04,1,,,,,シンコウフヨウ,0
1483,6430003017331,新規,0,2025-03-04,2025-03-04,合同会社ニセコアンリーシュド,,合同会社,北海道,余市郡余市町,黒川町１２丁目１００番地,,01,408,0460003,,,,,,,2025-03-04,1,,,,,ニセコアンリーシュド,0
1486,6460301005282,新規,0,2025-03-04,2025-03-04,株式会社藤原農場,,株式会社,北海道,網走郡津別町,字美都３７０番地,,01,544,0920223,,,,,,,2025-03-04,1,,,,,フジワラノウジョウ,0
1490,6490001010984,新規,0,2025-03-04,2025-03-04,株式会社リースリースタジオ,,株式会社,高知県,香南市,野市町西野１００８番地８プレステージ６０２,,39,211,7815232,,,,,,,2025-03-04,1,,,,,リースリースタジオ,0
1492,6700150129422,新規,0,2025-03-04,2025-03-04,Ｈ．Ｓ．ＥＮＴＥＲＰＲＩＳＥＳ,,外国会社等,千葉県,長生郡白子町,五井１２１１番地２５－１０８,,12,424,2994211,スリランカ民主社会主義共和国、クルネガラ、シヤンバラガスコトトゥワ、カハタガハマダ、Ｎｏ．３４１／１,,,,,,2025-03-04,1,,,,,エイチエスエンタープライゼス,0
1493,6700150129430,新規,0,2025-03-04,2025-03-04,ｓｈｅｎｚｈｅｎｘｉｎｌｉａｎｚｏｎｇｚｈｉｎｅｎｇｋｅｊｉｙｏｕｘｉａｎｇｏｎｇｓｉ,,外国会社等,,,,,,,,３０１，３／Ｆ，Ｂｕｉｌｄｉｎｇ　Ａ２，Ｚｈｏｎｇｊｉａ　Ｃｒｅａｔｉｖｅ　Ｐａｒｋ，Ｎｏ．６５　Ｄｏｎｇｈｕａｎ　Ｅｒ　Ｒｏａｄ，Ｆｕｋａｎｇ　Ｃｏｍｍｕｎｉｔｙ，Ｌｏｎｇｈｕａ　Ｓｔｒｅｅｔ，Ｌｏｎｇｈｕａ　Ｄｉｓｔｒｉｃｔ，Ｓｈｅｎｚｈｅｎ　５１８１００　ＣＮ,,,,,,2025-03-04,1,,,,,シンセンシンレンゾンジネンカギユウゲンコウシ,0
1503,7010001252723,新規,0,2025-03-04,2025-03-04,Ｘ＆Ｃｏｍｐａｎｙ株式会社,,株式会社,東京都,中央区,日本橋室町１丁目１１番１２号日本橋水野ビル７階,,13,102,1030022,,,,,,,2025-03-04,1,,,,,エックスアンドカンパニー,0
1504,7010001252748,新規,0,2025-03-04,2025-03-04,株式会社Ｌｕｍｉｓ,,株式会社,東京都,中央区,銀座７丁目１４番１４号ＧＩＮＺＡ７ビル７階,,13,102,1040061,,,,,,,2025-03-04,1,,,,,ルミス,0
1505,7010001252780,新規,0,2025-03-04,2025-03-04,株式会社ＢＣＪ‐９５,,株式会社,東京都,千代田区,丸の内１丁目１番１号パレスビル５階,,13,101,1000005,,,,,,,2025-03-04,1,,,,,ビーシージェイナインティーファイブ,0
1506,7010003046586,新規,0,2025-03-04,2025-03-04,ルルカ合同会社,,合同会社,東京都,中央区,新川１丁目７番１号天翔日本橋茅場町ビル２階２０３号,,13,102,1040033,,,,,,,2025-03-04,1,,,,,ルルカ,0
1507,7010005039654,新規,0,2025-03-04,2025-03-04,一般社団法人ＷＯＮＤＥＲＦＵＬ　ＧＩＦＴ,,その他の設立登記法人,東京都,中央区,銀座１丁目１２番４号Ｎ＆ＥＢＬＤ．６Ｆ,,13,102,1040061,,,,,,,2025-03-04,1,,,,,ワンダフルギフト,0
1508,7010005039662,新規,0,2025-03-04,2025-03-04,一般社団法人トパーズ,,その他の設立登記法人,東京都,千代田区,二番町３番地麹町スクエア株式会社シリウス・アドバイザリー内,,13,101,1020084,,,,,,,2025-03-04,1,,,,,トパーズ,0
1509,7010005039679,新規,0,2025-03-04,2025-03-04,福岡ロジスティックＥ特定目的会社,,その他の設立登記法人,東京都,中央区,八重洲２丁目２番１号,,13,102,1040028,,,,,,,2025-03-04,1,,,,,フクオカロジスティックイー,0
1515,7010401187940,新規,0,2025-03-04,2025-03-04,株式会社フォルティスジャパン,,株式会社,東京都,港区,元赤坂１丁目１番７号,,13,103,1070051,,,,,,,2025-03-04,1,,,,,フォルティスジャパン,0
1516,7010401188492,新規,0,2025-03-04,2025-03-04,ＡｍｏＫａ株式会社,,株式会社,東京都,港区,南青山３丁目１－３６号青山丸竹ビル６Ｆ,,13,103,1070062,,,,,,,2025-03-04,1,,,,,アモカ,0
1519,7010501053695,新規,0,2025-03-04,2025-03-04,ユニクシア株式会社,,株式会社,東京都,台東区,浅草橋２丁目２９－２リードシー浅草橋ビル８階８０２,,13,106,1110053,,,,,,,2025-03-04,1,,,,,ユニクシア,0
1524,7010701047316,新規,0,2025-03-04,2025-03-04,株式会社野村ＫＬＯ,,株式会社,東京都,品川区,中延５丁目４番５号,,13,109,1420053,,,,,,,2025-03-04,1,,,,,ノムラケーエルオー,0
1529,7010901056901,新規,0,2025-03-04,2025-03-04,株式会社ＣＡＳＣＡ,,株式会社,東京都,世田谷区,松原６丁目９－１７ジュノ羽根木公園２０１,,13,112,1560043,,,,,,,2025-03-04,1,,,,,カスカ,0
1533,7011001168042,新規,0,2025-03-04,2025-03-04,ＳＵＫＡＤＡＮＡ株式会社,,株式会社,東京都,渋谷区,道玄坂１丁目１０番８号渋谷道玄坂東急ビル２Ｆ－Ｃ,,13,113,1500043,,,,,,,2025-03-04,1,,,,,スカダナ,0
1534,7011001168117,新規,0,2025-03-04,2025-03-04,株式会社Ｍ’ｓ　Ｃｏｍｐａｎｙ,,株式会社,東京都,目黒区,東が丘１丁目４番１０号,,13,110,1520021,,,,,,,2025-03-04,1,,,,,エムズカンパニー,0
1535,7011003021083,新規,0,2025-03-04,2025-03-04,菊池アソシエイツ合同会社,,合同会社,東京都,渋谷区,恵比寿西２丁目４番８号ウィンド恵比寿ビル８Ｆ,,13,113,1500021,,,,,,,2025-03-04,1,,,,,キクチアソシエイツ,0
1537,7011005010885,新規,0,2025-03-04,2025-03-04,一般社団法人Ｊａｐａｎ　Ｖｅｎｔｕｒｅ　Ａｃａｄｅｍｙ,,その他の設立登記法人,東京都,渋谷区,東１丁目２９－３ＳｈｉｂｕｙａＢｒｉｄｇｅＢ－５,,13,113,1500011,,,,,,,2025-03-04,1,,,,,ジャパンベンチャーアカデミー,0
1543,7011201026165,新規,0,2025-03-04,2025-03-04,Ｅｍｐｏｗｅｒ株式会社,,株式会社,東京都,中野区,中野４丁目１０－２中野セントラルパークサウス２Ｆ,,13,114,1640001,,,,,,,2025-03-04,1,,,,,エンパワー,0
1545,7011405002375,新規,0,2025-03-04,2025-03-04,一般社団法人メディカルケアポールウォーキング協会,,その他の設立登記法人,東京都,板橋区,前野町５丁目４３番９号,,13,119,1740063,,,,,,,2025-03-04,1,,,,,メディカルケアポールウォーキングキョウカイ,0
1553,7012403006995,新規,0,2025-03-04,2025-03-04,合同会社Ｂｌｏｕｍ,,合同会社,東京都,稲城市,百村２２９番地の１ワンダーランド１０１,,13,225,2060804,,,,,,,2025-03-04,1,,,,,ブルーム,0
1556,7013301053873,新規,0,2025-03-04,2025-03-04,星耀株式会社,,株式会社,東京都,豊島区,西巣鴨２丁目６－１２－５１０室,,13,116,1700001,,,,,,,2025-03-04,1,,,,,セイヨウ,0
1560,7020001161535,新規,0,2025-03-04,2025-03-04,株式会社ミモレット,,株式会社,神奈川県,横浜市神奈川区,金港町５－１４クアドリフォリオ８階,,14,102,2210056,,,,,,,2025-03-04,1,,,,,ミモレット,0
1562,7020003027940,新規,0,2025-03-04,2025-03-04,ＲＫ　Ｐｏｒｔｆｏｌｉｏ合同会社,,合同会社,神奈川県,横浜市金沢区,富岡東５丁目８番１－９０５号,,14,108,2360051,,,,,,,2025-03-04,1,,,,,アールケーポートフォリオ,0
1564,7021001084577,新規,0,2025-03-04,2025-03-04,株式会社山岸総合設計,,株式会社,神奈川県,足柄上郡松田町,松田惣領１４１１番地４,,14,363,2580003,,,,,,,2025-03-04,1,,,,,ヤマギシソウゴウセッケイ,0
1571,7030001165130,新規,0,2025-03-04,2025-03-04,株式会社嶋田工業,,株式会社,埼玉県,さいたま市岩槻区,大字末田１８４９番地,,11,110,3390021,,,,,,,2025-03-04,1,,,,,シマダコウギョウ,0
1575,7030005022063,新規,0,2025-03-04,2025-03-04,農事組合法人Ｄ４４,,その他の設立登記法人,埼玉県,白岡市,彦兵衛７－１１１,,11,246,3490224,,,,,,,2025-03-04,1,,,,,ディヨンヨン,0
1580,7050003009069,新規,0,2025-03-04,2025-03-04,ＮＳ　ＴＲＡＤＩＮＧ合同会社,,合同会社,茨城県,古河市,中田１６６６番地３,,08,204,3060053,,,,,,,2025-03-04,1,,,,,エヌエストレーディング,0
1581,7060001037946,新規,0,2025-03-04,2025-03-04,株式会社ＮＯＢＩＬＥ,,株式会社,栃木県,宇都宮市,五代１丁目２１番１１号,,09,201,3210135,,,,,,,2025-03-04,1,,,,,ノービレ,0
1585,7080101025337,新規,0,2025-03-04,2025-03-04,株式会社Ｙ’ｓ　Ｆａｃｔｏｒｙ,,株式会社,静岡県,沼津市,下香貫前原１４９１番地の１,,22,203,4100822,,,,,,,2025-03-04,1,,,,,ワイズファクトリー,0
1586,7080401027768,新規,0,2025-03-04,2025-03-04,株式会社イソロク,,株式会社,静岡県,浜松市中央区,有玉西町２１９７番地の１８,,22,138,4313123,,,,,,,2025-03-04,1,,,,,イソロク,0
1587,7080401027776,新規,0,2025-03-04,2025-03-04,株式会社アイエム,,株式会社,静岡県,浜松市中央区,西町７０２番地の２,,22,138,4300821,,,,,,,2025-03-04,1,,,,,アイエム,0
1591,7100005013303,新規,0,2025-03-04,2025-03-04,一般社団法人原村観光局,,その他の設立登記法人,長野県,諏訪郡原村,１７２１７番地１６１３,,20,363,3910100,,,,,,,2025-03-04,1,,,,,ハラムラカンコウキョク,0
1601,7120001273312,新規,0,2025-03-04,2025-03-04,ＭａＳｈ株式会社,,株式会社,大阪府,寝屋川市,美井元町１８番４０号,,27,215,5720006,,,,,,,2025-03-04,1,,,,,マッシュ,0
1602,7120001273320,新規,0,2025-03-04,2025-03-04,早合コンサルティング株式会社,,株式会社,大阪府,大阪市中央区,谷町７丁目３－４新谷町第３ビル３階,,27,128,5420012,,,,,,,2025-03-04,1,,,,,ハヤゴウコンサルティング,0
1603,7120001273337,新規,0,2025-03-04,2025-03-04,株式会社ｆ．ｆ．ｆ,,株式会社,大阪府,大阪市阿倍野区,北畠１丁目２番２８号,,27,119,5450035,,,,,,,2025-03-04,1,,,,,エフエフエフ,0
1604,7120001273361,新規,0,2025-03-04,2025-03-04,ＴＥＣＨＮＩＣ株式会社,,株式会社,大阪府,大阪市生野区,林寺２丁目８番２号１階Ａ１０３号室,,27,116,5440023,,,,,,,2025-03-04,1,,,,,テクニック,0
1606,7120003028730,新規,0,2025-03-04,2025-03-04,合同会社ＫＴ,,合同会社,大阪府,大阪市平野区,平野宮町１丁目８番３－７６４号,,27,126,5470046,,,,,,,2025-03-04,1,,,,,ケイティー,0
1607,7120003028747,新規,0,2025-03-04,2025-03-04,Ｎｅｗ　Ｗａｖｅ合同会社,,合同会社,大阪府,大阪市西成区,松１丁目１０－２９－２１０号,,27,122,5570034,,,,,,,2025-03-04,1,,,,,ニューウェーブ,0
1608,7120003028763,新規,0,2025-03-04,2025-03-04,合同会社ＦＷ,,合同会社,大阪府,枚方市,長尾東町３丁目３番９号,,27,210,5730105,,,,,,,2025-03-04,1,,,,,エフダブリュー,0
1609,7120003028805,新規,0,2025-03-04,2025-03-04,合同会社ＲＥＳＴＡＲ,,合同会社,大阪府,大阪市東住吉区,今川７丁目１０‐４,,27,121,5460003,,,,,,,2025-03-04,1,,,,,リスター,0
1615,7120903005564,新規,0,2025-03-04,2025-03-04,合同会社ｍｅｎ’ｓ　ｅｓｔａｔｅ,,合同会社,大阪府,茨木市,真砂２丁目１２－１６－１０２,,27,211,5670851,,,,,,,2025-03-04,1,,,,,メンズエステート,0
1619,7130001079114,新規,0,2025-03-04,2025-03-04,株式会社すみよしホーム,,株式会社,京都府,京都市伏見区,樽屋町９９２番地佐々木マンション２１１,,26,109,6128332,,,,,,,2025-03-04,1,,,,,スミヨシホーム,0
1620,7130001079130,新規,0,2025-03-04,2025-03-04,株式会社ＫＯＴＯ,,株式会社,京都府,久世郡久御山町,佐山新開地３１４番地,,26,322,6130034,,,,,,,2025-03-04,1,,,,,コト,0
1626,7140001137556,新規,0,2025-03-04,2025-03-04,株式会社ホームプラス,,株式会社,兵庫県,小野市,王子町８５４番地,,28,218,6751378,,,,,,,2025-03-04,1,,,,,ホームプラス,0
1627,7140001137572,新規,0,2025-03-04,2025-03-04,ＣＢＮ　ＰＲＥＭＩＥＲ　ＬＯＧＩＳＴＩＣＳ株式会社,,株式会社,兵庫県,加古郡稲美町,草谷相野６２－８,,28,381,6751102,,,,,,,2025-03-04,1,,,,,シービーエヌプレミアロジスティクス,0
1628,7140001137580,新規,0,2025-03-04,2025-03-04,株式会社グローバルワン,,株式会社,兵庫県,芦屋市,南浜町２番９号,,28,206,6590037,,,,,,,2025-03-04,1,,,,,グローバルワン,0
1633,7170001018514,新規,0,2025-03-04,2025-03-04,日本車輪株式会社,,株式会社,和歌山県,西牟婁郡白浜町,日置９５番地,,30,401,6492511,,,,,,,2025-03-04,1,,,,,ニホンシャリン,0
1636,7180001165652,新規,0,2025-03-04,2025-03-04,株式会社まるカンパニー,,株式会社,愛知県,名古屋市熱田区,玉の井町３番１５号,,23,109,4560025,,,,,,,2025-03-04,1,,,,,マルカンパニー,0
1637,7180001165669,新規,0,2025-03-04,2025-03-04,株式会社エポカル,,株式会社,愛知県,春日井市,大手町３丁目９番地１４,,23,206,4860807,,,,,,,2025-03-04,1,,,,,エポカル,0
1638,7180001165677,新規,0,2025-03-04,2025-03-04,株式会社全国公報,,株式会社,愛知県,名古屋市東区,白壁３丁目１２番１３号中部産業連盟ビル新館５Ｆ,,23,102,4610011,,,,,,,2025-03-04,1,,,,,ゼンコクコウホウ,0
1646,7190001032034,新規,0,2025-03-04,2025-03-04,株式会社ＫＩＩＴＯＳ,,株式会社,三重県,松阪市,久保町１２８８番地９,,24,204,5150044,,,,,,,2025-03-04,1,,,,,キートス,0
1647,7190001032042,新規,0,2025-03-04,2025-03-04,金海株式会社,,株式会社,三重県,名張市,滝之原２０３番地４,,24,208,5180411,,,,,,,2025-03-04,1,,,,,キンカイ,0
1652,7210001020077,新規,0,2025-03-04,2025-03-04,友禅旅人株式会社,,株式会社,福井県,坂井市,三国町山岸第１２号２１番地,,18,210,9130032,,,,,,,2025-03-04,1,,,,,ユウゼンリョジン,0
1656,7220003003962,新規,0,2025-03-04,2025-03-04,アシタハレソラ合同会社,,合同会社,石川県,金沢市,野田町ワ２１０番地,,17,201,9218104,,,,,,,2025-03-04,1,,,,,アシタハレソラ,0
1659,7240001064591,新規,0,2025-03-04,2025-03-04,株式会社しまづつ,,株式会社,広島県,山県郡北広島町,有間５６４番地,,34,369,7311503,,,,,,,2025-03-04,1,,,,,シマヅツ,0
1663,7260001039955,新規,0,2025-03-04,2025-03-04,株式会社中野農産,,株式会社,岡山県,岡山市南区,藤田５４７,,33,104,7010221,,,,,,,2025-03-04,1,,,,,ナカノノウサン,0
1664,7260001039971,新規,0,2025-03-04,2025-03-04,株式会社ＭＣテクノ,,株式会社,岡山県,岡山市北区,京山１丁目６番１０号,,33,101,7000015,,,,,,,2025-03-04,1,,,,,エムシーテクノ,0
1665,7270001009156,新規,0,2025-03-04,2025-03-04,株式会社Ｉｈｓａｎ　Ａ２Ｚ,,株式会社,鳥取県,西伯郡伯耆町,溝口５９３番地２,,31,390,6894201,,,,,,,2025-03-04,1,,,,,イーサンエーツーゼット,0
1670,7300001014103,新規,0,2025-03-04,2025-03-04,株式会社七転八起,,株式会社,佐賀県,杵島郡白石町,大字福富下分１９２９,,41,425,8490402,,,,,,,2025-03-04,1,,,,,シチテンハッキ,0
1675,7310001019480,新規,0,2025-03-04,2025-03-04,狩野機設株式会社,,株式会社,長崎県,長崎市,新戸町４丁目６番１３号,,42,201,8500954,,,,,,,2025-03-04,1,,,,,カリノキセツ,0
1681,7340001027142,新規,0,2025-03-04,2025-03-04,株式会社ＦＡＮＤＸ,,株式会社,鹿児島県,霧島市,国分上野原テクノパーク１２番１８号,,46,218,8994317,,,,,,,2025-03-04,1,,,,,ファンデックス,0
1682,7340001027150,新規,0,2025-03-04,2025-03-04,株式会社ＬｉＮＫＳ,,株式会社,鹿児島県,鹿児島市,鴨池新町２１番７号鴨池シーサイドビル３０１,,46,201,8900064,,,,,,,2025-03-04,1,,,,,リンクス,0
1685,7360001034855,新規,0,2025-03-04,2025-03-04,株式会社１１号,,株式会社,沖縄県,宜野湾市,宜野湾１丁目１０番３０号,,47,205,9012211,,,,,,,2025-03-04,1,,,,,ジュウイチゴウ,0
1686,7360003014731,新規,0,2025-03-04,2025-03-04,合同会社クレッシェンドスタジオ,,合同会社,沖縄県,沖縄市,高原４丁目１０番１８号,,47,211,9042171,,,,,,,2025-03-04,1,,,,,クレッシェンドスタジオ,0
1695,7430003017339,新規,0,2025-03-04,2025-03-04,合同会社レオンサービス,,合同会社,北海道,札幌市西区,発寒十二条１１丁目３番３１,,01,107,0630832,,,,,,,2025-03-04,1,,,,,レオンサービス,0
1696,7430005015167,新規,0,2025-03-04,2025-03-04,司法書士法人くまごろう,,その他の設立登記法人,北海道,札幌市豊平区,美園二条２丁目３番２３号,,01,105,0620002,,,,,,,2025-03-04,1,,,,,クマゴロウ,0
1698,7460301005281,新規,0,2025-03-04,2025-03-04,まるちよ株式会社,,株式会社,北海道,北見市,美山町南９丁目３６番地４０,,01,208,0900068,,,,,,,2025-03-04,1,,,,,マルチヨ,0
1699,7470003002824,新規,0,2025-03-04,2025-03-04,合同会社ＯｔＯ研究所,,合同会社,香川県,高松市,鍛冶屋町６－１１,,37,201,7600028,,,,,,,2025-03-04,1,,,,,オーティーオーケンキュウジョ,0
1701,7700150129421,新規,0,2025-03-04,2025-03-04,ＫＡＮＡＧＡＷＡ　ＴＲＡＤＩＮＧ　ＰＶＴ　ＬＴＤ,,外国会社等,千葉県,夷隅郡大多喜町,下大多喜３２４５番地１オフィス６号,,12,441,2980202,スリランカ民主社会主義共和国、キャンディ、マパナワトゥラロード、Ｎｏ．１２８／２５,,,,,,2025-03-04,1,,,,,カナガワトレーデイングプライベートリミテツド,0
1709,8010001252747,新規,0,2025-03-04,2025-03-04,Ｌ．Ａ．Ｆｏｒｅｓｔ株式会社,,株式会社,東京都,中央区,銀座１丁目１２－４Ｎ＆ＥＢＬＤ．７階,,13,102,1040061,,,,,,,2025-03-04,1,,,,,エルエーフォレスト,0
1710,8010001252763,新規,0,2025-03-04,2025-03-04,グランデスミ株式会社,,株式会社,東京都,中央区,日本橋人形町２丁目７番１３号,,13,102,1030013,,,,,,,2025-03-04,1,,,,,グランデスミ,0
1711,8010003046569,新規,0,2025-03-04,2025-03-04,合同会社エム・ジェイ・エム,,合同会社,東京都,千代田区,霞が関３丁目２番５号,,13,101,1000013,,,,,,,2025-03-04,1,,,,,エムジェイエム,0
1712,8010003046651,新規,0,2025-03-04,2025-03-04,ＤＰＤＬコンサルティング合同会社,,合同会社,東京都,中央区,日本橋室町１丁目１１番１２号日本橋水野ビル７階,,13,102,1030022,,,,,,,2025-03-04,1,,,,,デーピィーデーエルコンサルティング,0
1714,8010005039595,新規,0,2025-03-04,2025-03-04,行政書士法人ビスポーク,,その他の設立登記法人,東京都,千代田区,内神田１丁目３番１号トーハン第３ビル３階,,13,101,1010047,,,,,,,2025-03-04,1,,,,,ビスポーク,0
1715,8010005039661,新規,0,2025-03-04,2025-03-04,一般社団法人ヒスイ,,その他の設立登記法人,東京都,千代田区,二番町３番地麹町スクエア株式会社シリウス・アドバイザリー内,,13,101,1020084,,,,,,,2025-03-04,1,,,,,ヒスイ,0
1716,8010005039678,新規,0,2025-03-04,2025-03-04,福岡ロジスティックＳ特定目的会社,,その他の設立登記法人,東京都,中央区,八重洲２丁目２番１号,,13,102,1040028,,,,,,,2025-03-04,1,,,,,フクオカロジスティックエス,0
1723,8010401188566,新規,0,2025-03-04,2025-03-04,ＬＩＮＫＳＳ　ＳＣＥ株式会社,,株式会社,東京都,港区,白金台２丁目４番２０号,,13,103,1080071,,,,,,,2025-03-04,1,,,,,リンクスエスシーイー,0
1724,8010401188574,新規,0,2025-03-04,2025-03-04,株式会社Ｗａｎｏｖａ,,株式会社,東京都,港区,芝３丁目１番４号芝公園阪神ビル５階,,13,103,1050014,,,,,,,2025-03-04,1,,,,,ワノヴァ,0
1725,8010401188582,新規,0,2025-03-04,2025-03-04,赤坂アドバイザーズ株式会社,,株式会社,東京都,港区,赤坂６丁目１９番５４ミッドガーデン赤坂氷川６０７,,13,103,1070052,,,,,,,2025-03-04,1,,,,,アカサカアドバイザーズ,0
1727,8010405024148,新規,0,2025-03-04,2025-03-04,ジャパン・マグノリア特定目的会社,,その他の設立登記法人,東京都,港区,虎ノ門３丁目２２番１０－２０１号,,13,103,1050001,,,,,,,2025-03-04,1,,,,,ジャパンマグノリア,0
1728,8010601066869,新規,0,2025-03-04,2025-03-04,ＨＥＬＩＯＳ株式会社,,株式会社,東京都,江東区,亀戸３丁目６２番１０号ＳＡＮビル４０３号室,,13,108,1360071,,,,,,,2025-03-04,1,,,,,エリオス,0
1731,8010701047273,新規,0,2025-03-04,2025-03-04,株式会社Ｆｉｎｏｖａ,,株式会社,東京都,品川区,東五反田５丁目２２－３３ＴＫＩＫＥＤＡＹＡＭＡＢＬＤＧ２階,,13,109,1410022,,,,,,,2025-03-04,1,,,,,フィノバ,0
1732,8010701047331,新規,0,2025-03-04,2025-03-04,株式会社ＧＮＳ,,株式会社,東京都,品川区,西五反田２丁目１４番１０号五反田ハイム５０５号室,,13,109,1410031,,,,,,,2025-03-04,1,,,,,ジーエヌエス,0
1733,8010703007597,新規,0,2025-03-04,2025-03-04,合同会社アルク,,合同会社,東京都,品川区,西五反田２丁目１３番１－５０７号,,13,109,1410031,,,,,,,2025-03-04,1,,,,,アルク,0
1742,8010901056909,新規,0,2025-03-04,2025-03-04,株式会社Ｆｕｔｕｒｅ　Ｐｌｕｓ,,株式会社,東京都,世田谷区,玉川４丁目３４－１０,,13,112,1580094,,,,,,,2025-03-04,1,,,,,フューチャープラス,0
1743,8010901056917,新規,0,2025-03-04,2025-03-04,株式会社Ｂｒａｎｄ　Ｒｉｃｈ,,株式会社,東京都,世田谷区,岡本３丁目１８番１６号,,13,112,1570076,,,,,,,2025-03-04,1,,,,,ブランドリッチ,0
1750,8011001168033,新規,0,2025-03-04,2025-03-04,株式会社リジュリル,,株式会社,東京都,渋谷区,道玄坂１丁目１０番８号渋谷道玄坂東急ビル２Ｆ－Ｃ,,13,113,1500043,,,,,,,2025-03-04,1,,,,,リジュリル,0
1751,8011001168099,新規,0,2025-03-04,2025-03-04,株式会社Ｂｉｒ　ＡＮ,,株式会社,東京都,渋谷区,道玄坂１丁目１０番８号渋谷道玄坂東急ビル２Ｆ－Ｃ,,13,113,1500043,,,,,,,2025-03-04,1,,,,,ビアアン,0
1752,8011005010884,新規,0,2025-03-04,2025-03-04,一般社団法人ハリケーンズラグビークラブ,,その他の設立登記法人,東京都,渋谷区,道玄坂１丁目１０番８号渋谷道玄坂東急ビル２Ｆ－Ｃ,,13,113,1500043,,,,,,,2025-03-04,1,,,,,ハリケーンズラグビークラブ,0
1753,8011101110811,新規,0,2025-03-04,2025-03-04,ＧＯＯＤＭＡＮ　ＣＯＮＳＵＬＴＩＮＧ株式会社,,株式会社,東京都,新宿区,西新宿６丁目５番１号新宿アイランドタワー２階,,13,104,1600023,,,,,,,2025-03-04,1,,,,,グッドマンコンサルティング,0
1759,8011503006442,新規,0,2025-03-04,2025-03-04,合同会社ＳＳＣ,,合同会社,東京都,北区,志茂３丁目２５番８号,,13,117,1150042,,,,,,,2025-03-04,1,,,,,エスエスシー,0
1761,8012301014281,新規,0,2025-03-04,2025-03-04,株式会社安海グローバル,,株式会社,東京都,町田市,高ヶ坂４丁目２８番３０号,,13,209,1940014,,,,,,,2025-03-04,1,,,,,アンカイグローバル,0
1773,8013301053856,新規,0,2025-03-04,2025-03-04,千秋商事株式会社,,株式会社,東京都,豊島区,西巣鴨１丁目２番６－５０１号,,13,116,1700001,,,,,,,2025-03-04,1,,,,,チアキショウジ,0
1774,8013301053872,新規,0,2025-03-04,2025-03-04,株式会社グリーディー,,株式会社,東京都,豊島区,池袋３丁目７０番７号ドミシル池袋２０５号,,13,116,1710014,,,,,,,2025-03-04,1,,,,,グリーディー,0
1781,8020001161633,新規,0,2025-03-04,2025-03-04,株式会社ＥＭＭ,,株式会社,神奈川県,川崎市宮前区,菅生１丁目１７番１８号,,14,136,2160015,,,,,,,2025-03-04,1,,,,,イーエムエム,0
1782,8020001161641,新規,0,2025-03-04,2025-03-04,株式会社ＳＡＹＵＲＡ　ＣＯＲＰＯＲＡＴＩＯＮ,,株式会社,神奈川県,横浜市港北区,綱島西１丁目６番１７号綱島ビル２階,,14,109,2230053,,,,,,,2025-03-04,1,,,,,サユラコーポレーション,0
1783,8020001161658,新規,0,2025-03-04,2025-03-04,株式会社リントヴルム,,株式会社,神奈川県,横浜市港北区,高田西５丁目１２番２号,,14,109,2230066,,,,,,,2025-03-04,1,,,,,リントヴルム,0
1784,8020001161682,新規,0,2025-03-04,2025-03-04,株式会社Ｅａｓｔａｒｔ,,株式会社,神奈川県,横浜市西区,岡野１丁目１６番４－２０２号,,14,103,2200073,,,,,,,2025-03-04,1,,,,,イースタート,0
1790,8020003027931,新規,0,2025-03-04,2025-03-04,合同会社４Ｃ,,合同会社,神奈川県,横浜市保土ケ谷区,坂本町３６番地１,,14,106,2400043,,,,,,,2025-03-04,1,,,,,フォーシー,0
1791,8020003027956,新規,0,2025-03-04,2025-03-04,ＣＵＢＥ合同会社,,合同会社,神奈川県,横浜市保土ケ谷区,権太坂２丁目１番２号,,14,106,2400026,,,,,,,2025-03-04,1,,,,,キューブ,0
1795,8021001084584,新規,0,2025-03-04,2025-03-04,株式会社Ｄｅａｒ　ｑｕａｒｔｅｔ,,株式会社,神奈川県,茅ヶ崎市,菱沼３丁目３－１０,,14,207,2530011,,,,,,,2025-03-04,1,,,,,ディアカルテット,0
1798,8021005013283,新規,0,2025-03-04,2025-03-04,一般社団法人茅ヶ崎１００年基金,,その他の設立登記法人,神奈川県,茅ヶ崎市,東海岸南６丁目４番７８－１号,,14,207,2530054,,,,,,,2025-03-04,1,,,,,チガサキヒャクネンキキン,0
1806,8030001165055,新規,0,2025-03-04,2025-03-04,株式会社塗無双屋,,株式会社,埼玉県,春日部市,中央１丁目８番地１５春日部セントラルＣ－５６,,11,214,3440067,,,,,,,2025-03-04,1,,,,,トムソーヤ,0
1807,8030001165088,新規,0,2025-03-04,2025-03-04,株式会社ＭＲＳバケーション,,株式会社,埼玉県,蕨市,塚越７丁目２１番６号,,11,223,3350002,,,,,,,2025-03-04,1,,,,,エムアールエスバケーション,0
1808,8030001165113,新規,0,2025-03-04,2025-03-04,株式会社ワンライフ,,株式会社,埼玉県,羽生市,大字北袋６１６番地,,11,216,3480028,,,,,,,2025-03-04,1,,,,,ワンライフ,0
1809,8030001165154,新規,0,2025-03-04,2025-03-04,Ｈａｐｐｉｎｅｓｓ株式会社,,株式会社,埼玉県,さいたま市大宮区,桜木町２丁目３番地大宮マルイ７階,,11,103,3300854,,,,,,,2025-03-04,1,,,,,ハピネス,0
1812,8030003026222,新規,0,2025-03-04,2025-03-04,合同会社ことぶきエアコン,,合同会社,埼玉県,志木市,中宗岡５丁目２０番３３号コンフィデンス２０１号,,11,228,3530002,,,,,,,2025-03-04,1,,,,,コトブキエアコン,0
1813,8030003026239,新規,0,2025-03-04,2025-03-04,合同会社ｅｎｔｒｅｅ,,合同会社,埼玉県,八潮市,大字桁４３５番地１シーサーハイツ１号,,11,234,3400800,,,,,,,2025-03-04,1,,,,,アントレー,0
1814,8030003026247,新規,0,2025-03-04,2025-03-04,合同会社振付屋かぶきもん,,合同会社,埼玉県,越谷市,千間台西３丁目２番地パークタウン６－２０１,,11,222,3430041,,,,,,,2025-03-04,1,,,,,カブキモン,0
1816,8030005022062,新規,0,2025-03-04,2025-03-04,農事組合法人Ｄ４３,,その他の設立登記法人,埼玉県,白岡市,彦兵衛７－１１１,,11,246,3490224,,,,,,,2025-03-04,1,,,,,ディヨンサン,0
1826,8040001137581,新規,0,2025-03-04,2025-03-04,ＸＹ株式会社,,株式会社,千葉県,香取市,牧野１３８７番地１,,12,236,2870033,,,,,,,2025-03-04,1,,,,,エックスワイ,0
1827,8040001137598,新規,0,2025-03-04,2025-03-04,株式会社シャインアドレーションズ,,株式会社,千葉県,千葉市稲毛区,小中台町４３５番地１稲毛スカイタウン７－１２０４,,12,103,2630044,,,,,,,2025-03-04,1,,,,,シャインアドレーションズ,0
1828,8040001137631,新規,0,2025-03-04,2025-03-04,ＴＬＯ　ＪＡＰＡＮ株式会社,,株式会社,千葉県,成田市,桜田９４５番地１４５,,12,211,2870217,,,,,,,2025-03-04,1,,,,,ティーエルオージャパン,0
1830,8040003026972,新規,0,2025-03-04,2025-03-04,ＴＳＰ合同会社,,合同会社,千葉県,船橋市,坪井西１丁目１１番３号,,12,204,2740069,,,,,,,2025-03-04,1,,,,,ティーエスピー,0
1833,8050005013571,新規,0,2025-03-04,2025-03-04,一般社団法人エネルギー技術革新機構,,その他の設立登記法人,茨城県,つくば市,松代２丁目１０番地２－１０４号,,08,220,3050035,,,,,,,2025-03-04,1,,,,,エネルギーギジュツカクシンキコウ,0
1836,8060001037961,新規,0,2025-03-04,2025-03-04,株式会社丸輝組,,株式会社,栃木県,足利市,福居町７６２番地１１,,09,202,3260338,,,,,,,2025-03-04,1,,,,,マルキグミ,0
1839,8070001042663,新規,0,2025-03-04,2025-03-04,株式会社ＭＨＳ,,株式会社,群馬県,高崎市,矢中町３５２番地７,,10,202,3701203,,,,,,,2025-03-04,1,,,,,エムエイチエス,0
1844,8080401027775,新規,0,2025-03-04,2025-03-04,株式会社ＨＹＳ,,株式会社,静岡県,浜松市中央区,高塚町６００番地の２,,22,138,4328065,,,,,,,2025-03-04,1,,,,,エイチワイエス,0
1846,8100003008015,新規,0,2025-03-04,2025-03-04,合同会社晴れの日,,合同会社,長野県,松本市,大字里山辺１５４９番地１柏葉ビル２０３号,,20,202,3900221,,,,,,,2025-03-04,1,,,,,ハレノヒ,0
1848,8110001039052,新規,0,2025-03-04,2025-03-04,株式会社Ｌｉ　Ｗｏｎｄｅｒ,,株式会社,新潟県,長岡市,大手通２丁目２番地６,,15,202,9400062,,,,,,,2025-03-04,1,,,,,リワンダー,0
1856,8120001273220,新規,0,2025-03-04,2025-03-04,金海フードサービス株式会社,,株式会社,大阪府,大阪市此花区,西九条２丁目６番２２号,,27,104,5540012,,,,,,,2025-03-04,1,,,,,キンカイフードサービス,0
1857,8120001273294,新規,0,2025-03-04,2025-03-04,株式会社ゆめもえ,,株式会社,大阪府,大阪市平野区,加美南４丁目４番２８号ハピネス加美５１６号室,,27,126,5470003,,,,,,,2025-03-04,1,,,,,ユメモエ,0
1858,8120001273303,新規,0,2025-03-04,2025-03-04,欧若拉株式会社,,株式会社,大阪府,大阪市生野区,新今里３丁目４番１７号ＯＧビル２０１Ａ,,27,116,5440001,,,,,,,2025-03-04,1,,,,,オウニャクラ,0
1859,8120001273344,新規,0,2025-03-04,2025-03-04,株式会社セカンドライフ,,株式会社,大阪府,大阪市住吉区,我孫子１丁目８番３－４１５号,,27,120,5580014,,,,,,,2025-03-04,1,,,,,セカンドライフ,0
1860,8120001273352,新規,0,2025-03-04,2025-03-04,株式会社Ｇｒｏｗ　Ａｂｉｌｉｔｙ,,株式会社,大阪府,大阪市北区,梅田１丁目２番２号大阪駅前第２ビル１２－１２,,27,127,5300001,,,,,,,2025-03-04,1,,,,,グロウアビリティ,0
1861,8120001273360,新規,0,2025-03-04,2025-03-04,株式会社ＲＥＧＡＬＯ,,株式会社,大阪府,大阪市北区,本庄東２丁目１４番７号クレイン・レジデンス２０３号,,27,127,5310074,,,,,,,2025-03-04,1,,,,,レガロ,0
1862,8120001273377,新規,0,2025-03-04,2025-03-04,株式会社Ｋ＆Ｔｏ,,株式会社,大阪府,守口市,八雲西町２丁目２３番９号,,27,209,5700006,,,,,,,2025-03-04,1,,,,,ケーアンドティーオー,0
1863,8120003028713,新規,0,2025-03-04,2025-03-04,遠洋国際合同会社,,合同会社,大阪府,大阪市平野区,平野西３丁目８番６号レジェイド平野１３０１号,,27,126,5470033,,,,,,,2025-03-04,1,,,,,エンヨウコクサイ,0
1864,8120003028721,新規,0,2025-03-04,2025-03-04,合同会社Ａｕｒｅａ,,合同会社,大阪府,大阪市北区,梅田１丁目２番２号大阪駅前第２ビル１２－１２,,27,127,5300001,,,,,,,2025-03-04,1,,,,,アウレア,0
1865,8120003028754,新規,0,2025-03-04,2025-03-04,合同会社テクノ,,合同会社,大阪府,大阪市西区,西本町３丁目１番２２－４０２号,,27,106,5500005,,,,,,,2025-03-04,1,,,,,テクノ,0
1866,8120003028762,新規,0,2025-03-04,2025-03-04,合同会社ＳＡＰＥＵＲ,,合同会社,大阪府,大阪市西成区,千本北１丁目２０－１４ウインド豊３Ｆ,,27,122,5570053,,,,,,,2025-03-04,1,,,,,サプール,0
1869,8120901050504,新規,0,2025-03-04,2025-03-04,株式会社月詠水産,,株式会社,大阪府,池田市,石橋１丁目１５番１０号,,27,204,5630032,,,,,,,2025-03-04,1,,,,,ツクヨミスイサン,0
1871,8130001079113,新規,0,2025-03-04,2025-03-04,株式会社プレステージ,,株式会社,京都府,京都市右京区,西院東淳和院町１４番地３カーサクレール１Ｆ,,26,108,6150011,,,,,,,2025-03-04,1,,,,,プレステージ,0
1872,8130001079121,新規,0,2025-03-04,2025-03-04,株式会社０７５,,株式会社,京都府,京都市中京区,津軽町７６７番地イーグルコート烏丸御池ル・シエル１００２,,26,104,6048271,,,,,,,2025-03-04,1,,,,,ゼロナナゴ,0
1873,8130003010232,新規,0,2025-03-04,2025-03-04,合同会社みんさー５４,,合同会社,京都府,京都市伏見区,桃山紅雪町３６番地コリーヌ紅雪Ｂ,,26,109,6120835,,,,,,,2025-03-04,1,,,,,ミンサーゴジュウヨン,0
1881,8140001137555,新規,0,2025-03-04,2025-03-04,株式会社梅原建装,,株式会社,兵庫県,明石市,大久保町西島１０５３番地の７,,28,203,6740065,,,,,,,2025-03-04,1,,,,,ウメハラケンソウ,0
1888,8170001018513,新規,0,2025-03-04,2025-03-04,株式会社ＲＡＩＤＥＮ,,株式会社,和歌山県,和歌山市,雄松町４丁目２０番地１３,,30,201,6408124,,,,,,,2025-03-04,1,,,,,ライデン,0
1895,8180301039555,新規,0,2025-03-04,2025-03-04,ブルーアセットマネジメント株式会社,,株式会社,愛知県,豊田市,喜多町３丁目１２０番地,,23,211,4710027,,,,,,,2025-03-04,1,,,,,ブルーアセットマネジメント,0
1901,8200001043490,新規,0,2025-03-04,2025-03-04,アールイープラス株式会社,,株式会社,岐阜県,岐阜市,宇佐南１丁目４番２０号ステラビル１０１,,21,201,5008367,,,,,,,2025-03-04,1,,,,,アールイープラス,0
1913,8240005015912,新規,0,2025-03-04,2025-03-04,医療法人精療会,,その他の設立登記法人,広島県,広島市中区,紙屋町２丁目３番２０号３階３０３,,34,101,7300031,,,,,,,2025-03-04,1,,,,,セイリョウカイ,0
1917,8260001039954,新規,0,2025-03-04,2025-03-04,シンレイワ株式会社,,株式会社,岡山県,倉敷市,南畝６丁目４番１２号,,33,202,7128055,,,,,,,2025-03-04,1,,,,,シンレイワ,0
1923,8290003016478,新規,0,2025-03-04,2025-03-04,ＰＰＣ合同会社,,合同会社,福岡県,福岡市東区,青葉７丁目２１番７号,,40,131,8130025,,,,,,,2025-03-04,1,,,,,ピーピーシー,0
1927,8310001019488,新規,0,2025-03-04,2025-03-04,傑森株式会社,,株式会社,長崎県,長崎市,中里町１１９３番地１パセオ３４Ｂ－２０２,,42,201,8510103,,,,,,,2025-03-04,1,,,,,ケーセン,0
1932,8320003004586,新規,0,2025-03-04,2025-03-04,合同会社ＣｈｒｏｎｏＳｋｙ,,合同会社,大分県,別府市,東荘園９丁目２番３４号,,44,202,8740836,,,,,,,2025-03-04,1,,,,,クロノスカイ,0
1937,8350003004856,新規,0,2025-03-04,2025-03-04,合同会社ミライズ,,合同会社,宮崎県,都城市,松元町７号１番地ＣｕｂｅＩＩＡ号,00138185,45,202,8850077,,,,,,,2025-03-04,1,,,,,ミライズ,0
1938,8360001034846,新規,0,2025-03-04,2025-03-04,ミロク沖縄株式会社,,株式会社,沖縄県,うるま市,字洲崎１２番地８０,,47,213,9042200,,,,,,,2025-03-04,1,,,,,ミロクオキナワ,0
1939,8360001034854,新規,0,2025-03-04,2025-03-04,株式会社サンコウ設備工業,,株式会社,沖縄県,糸満市,西崎２丁目３番１０号カーサ丸徳２（１０１）,,47,210,9010305,,,,,,,2025-03-04,1,,,,,サンコウセツビコウギョウ,0
1940,8360003014714,新規,0,2025-03-04,2025-03-04,合同会社Ｑｕｉｃｋ　Ｌｉｎｅ,,合同会社,沖縄県,沖縄市,古謝津嘉山町３９番１２号ル・シエールあらた１０２号,,47,211,9042166,,,,,,,2025-03-04,1,,,,,クイックライン,0
1942,8370003006958,新規,0,2025-03-04,2025-03-04,合同会社ＴＵＴＴＯＦＡＲＥ,,合同会社,宮城県,富谷市,明石台１丁目２２－１５,,04,216,9813332,,,,,,,2025-03-04,1,,,,,トゥットファーレ,0
1951,8430001093819,新規,0,2025-03-04,2025-03-04,株式会社Ｖｏｌａ,,株式会社,北海道,札幌市西区,発寒十二条４丁目８番２６号,,01,107,0630832,,,,,,,2025-03-04,1,,,,,ヴォラ,0
1952,8430003017338,新規,0,2025-03-04,2025-03-04,Ｎｉｓｅｋｏ　Ｙｏｔｅｉ　Ｃｏｎｓｕｌｔｉｎｇ合同会社,,合同会社,北海道,虻田郡ニセコ町,字近藤１７０番地９,,01,395,0481542,,,,,,,2025-03-04,1,,,,,ニセコヨウテイコンサルティング,0
1958,8470003002823,新規,0,2025-03-04,2025-03-04,ＢＲＩＣ　Ａ　ＢＲＡＣ合同会社,,合同会社,香川県,高松市,郷東町７９２番地１２１,,37,201,7618031,,,,,,,2025-03-04,1,,,,,ブリックアブラック,0
1961,8490001010982,新規,0,2025-03-04,2025-03-04,正岡建設株式会社,,株式会社,高知県,高岡郡日高村,岩目地３３番地１,,39,410,7812154,,,,,,,2025-03-04,1,,,,,,0
1962,8490003001988,新規,0,2025-03-04,2025-03-04,合同会社ＮＳＪ未来,,合同会社,高知県,高知市,比島町２丁目１６番１２号５０１号,,39,201,7800066,,,,,,,2025-03-04,1,,,,,エヌエスジェイミライ,0
1963,8500001026168,新規,0,2025-03-04,2025-03-04,株式会社Ｃｌｅａｎ　Ｗａｖｅ,,株式会社,愛媛県,松山市,畑寺１丁目４番３８－１３号,,38,201,7900913,,,,,,,2025-03-04,1,,,,,クリーンウェーブ,0
1965,8700150129420,新規,0,2025-03-04,2025-03-04,株式会社チュライカンパニー,,外国会社等,東京都,豊島区,東池袋５丁目７番３号アゼリア東池袋４０１,,13,116,1700013,大韓民国大田広域市西区大徳大路２３３番ギル２８，６０１号Ｋ１１（屯山洞）,,,,,,2025-03-04,1,,,,,カブシキガイシヤチユライカンパニー,0
1966,8700150129429,新規,0,2025-03-04,2025-03-04,ｐｉｎｇｘｉａｎｇｓｈｉｑｉｃｏｎｇｋｅｊｉｙｏｕｘｉａｎｇｏｎｇｓｉ,,外国会社等,,,,,,,,ａｎｙｕａｎｚｈｅｎｈｕａｃｈｏｎｇ２ｄｏｎｇ１ｄａｎｙｕａｎ５０２ｓｈｉｐｉｎｇｘｉａｎｇｓｈｉ　ｊｉａｎｇｘｉｓｈｅｎｇ　３３００００　ＣＮ,,,,,,2025-03-04,1,,,,,ピンシャンシチツオンカギユウゲンコウシ,0
1973,9010001252655,新規,0,2025-03-04,2025-03-04,ＡＣＡメディケイション株式会社,,株式会社,東京都,千代田区,平河町２丁目１６番９号永田町グラスゲート６階ＡＣＡ株式会社内,,13,101,1020093,,,,,,,2025-03-04,1,,,,,エーシーエーメディケイション,0
1974,9010001252721,新規,0,2025-03-04,2025-03-04,株式会社久栄,,株式会社,東京都,文京区,白山１丁目６番４号文京ＶｅｎｔｕｒｅＢａｓｅＡ１４,,13,105,1130001,,,,,,,2025-03-04,1,,,,,キュウエイ,0
1975,9010001252762,新規,0,2025-03-04,2025-03-04,株式会社ＴＡＳＭ,,株式会社,東京都,千代田区,丸の内１丁目６番５号,,13,101,1000005,,,,,,,2025-03-04,1,,,,,ティーエーエスエム,0
1977,9010003046535,新規,0,2025-03-04,2025-03-04,ＡＡＪ　Ｊ合同会社,,合同会社,東京都,千代田区,霞が関３丁目２番５号,,13,101,1000013,,,,,,,2025-03-04,1,,,,,エーエージェージェー,0
1978,9010003046626,新規,0,2025-03-04,2025-03-04,ａｎｄ　ＢＬＯＯＭ合同会社,,合同会社,東京都,中央区,銀座１丁目１２番４号,,13,102,1040061,,,,,,,2025-03-04,1,,,,,アンドブルーム,0
1979,9010003046683,新規,0,2025-03-04,2025-03-04,Ｌｅｅｗａｙ合同会社,,合同会社,東京都,中央区,銀座１丁目１２－４Ｎ＆ＥＢＬＤ．７階,,13,102,1040061,,,,,,,2025-03-04,1,,,,,リーウェイ,0
1980,9010005039660,新規,0,2025-03-04,2025-03-04,一般社団法人ルビー,,その他の設立登記法人,東京都,千代田区,二番町３番地麹町スクエア株式会社シリウス・アドバイザリー内,,13,101,1020084,,,,,,,2025-03-04,1,,,,,ルビー,0
1981,9010105002329,新規,0,2025-03-04,2025-03-04,土地家屋調査士法人ｓｋｙ,,その他の設立登記法人,東京都,八王子市,大和田町６丁目１４番５号メゾン・ド・ノア大和田３２７,,13,201,1920045,,,,,,,2025-03-04,1,,,,,スカイ,0
1987,9010401188532,新規,0,2025-03-04,2025-03-04,株式会社Ｇｒｅｅｎ　Ｓｏｌｕｔｉｏｎ,,株式会社,東京都,港区,六本木６丁目１２－２－１２０７,,13,103,1060032,,,,,,,2025-03-04,1,,,,,グリーンソリューション,0
1988,9010401188565,新規,0,2025-03-04,2025-03-04,ＫＯＲＶＶＡ　Ｊａｐａｎ株式会社,,株式会社,東京都,港区,白金台２丁目４番２０号,,13,103,1080071,,,,,,,2025-03-04,1,,,,,コバジャパン,0
1989,9010401188581,新規,0,2025-03-04,2025-03-04,株式会社Ｎｅｎｅ＆Ｊｏｅ,,株式会社,東京都,港区,六本木７丁目１１番９号ミッドタウンＴビル２Ｆ,,13,103,1060032,,,,,,,2025-03-04,1,,,,,ニーンアンドジョー,0
1990,9010401188615,新規,0,2025-03-04,2025-03-04,株式会社ＴＳオフィス＆サプライ,,株式会社,東京都,港区,新橋５丁目３０番７号ベルビュー新橋１４０２,,13,103,1050004,,,,,,,2025-03-04,1,,,,,ティエスオフィスアンドサプライ,0
1992,9010403034503,新規,0,2025-03-04,2025-03-04,東京不動産ＥＩＧＨＴ合同会社,,合同会社,東京都,港区,赤坂９丁目６－１６乃木坂プレース２０１,,13,103,1070052,,,,,,,2025-03-04,1,,,,,トウキョウフドウサンエイト,0
1994,9010405024147,新規,0,2025-03-04,2025-03-04,ジャパン・カメリア特定目的会社,,その他の設立登記法人,東京都,港区,虎ノ門３丁目２２番１０－２０１号,,13,103,1050001,,,,,,,2025-03-04,1,,,,,ジャパンカメリア,0
2002,9010701047181,新規,0,2025-03-04,2025-03-04,ライスホットケーキ株式会社,,株式会社,東京都,品川区,戸越４丁目８－５,,13,109,1420041,,,,,,,2025-03-04,1,,,,,ライスホットケーキ,0
2003,9010701047314,新規,0,2025-03-04,2025-03-04,メディアＧＰＴ株式会社,,株式会社,東京都,品川区,中延３丁目９番３号ドミール中延１０２,,13,109,1420053,,,,,,,2025-03-04,1,,,,,メディアジーピーティー,0
2004,9010701047330,新規,0,2025-03-04,2025-03-04,株式会社ＴＭ　ｐｒｏｍｏｔｉｏｎ,,株式会社,東京都,品川区,西品川１丁目２番１－２００４号,,13,109,1410033,,,,,,,2025-03-04,1,,,,,ティーエムプロモーション,0
2005,9010801035887,新規,0,2025-03-04,2025-03-04,ＣＹ国際株式会社,,株式会社,東京都,大田区,西蒲田４丁目８－５ライオンズガーデン西蒲田４０３号,,13,111,1440051,,,,,,,2025-03-04,1,,,,,シーワイコクサイ,0
2007,9010903009748,新規,0,2025-03-04,2025-03-04,Ｗｈｉｔｅ　Ｆｏｘ合同会社,,合同会社,東京都,世田谷区,太子堂４丁目２７－２,,13,112,1540004,,,,,,,2025-03-04,1,,,,,ホワイトフォックス,0
2015,9011001168024,新規,0,2025-03-04,2025-03-04,株式会社ＺＵＮＤＡ,,株式会社,東京都,渋谷区,神南１丁目１１－４ＦＰＧリンクス神南５階,,13,113,1500041,,,,,,,2025-03-04,1,,,,,ズンダ,0
2016,9011001168098,新規,0,2025-03-04,2025-03-04,株式会社Ｍａｒｓ　Ｏｎｌｉｎｅ,,株式会社,東京都,渋谷区,恵比寿４丁目２０番３号恵比寿ガーデンプレイスタワー１８Ｆ,,13,113,1500013,,,,,,,2025-03-04,1,,,,,マルスオンライン,0
2018,9011003021115,新規,0,2025-03-04,2025-03-04,ハチニーナ・アセットマネジメント合同会社,,合同会社,東京都,渋谷区,西原２丁目５０番６‐２０７号,,13,113,1510066,,,,,,,2025-03-04,1,,,,,ハチニーナアセットマネジメント,0
2019,9011003021123,新規,0,2025-03-04,2025-03-04,１７３合同会社,,合同会社,東京都,目黒区,柿の木坂１丁目９番５号,,13,110,1520022,,,,,,,2025-03-04,1,,,,,イナミ,0
2021,9011101110810,新規,0,2025-03-04,2025-03-04,つながりＡＩ株式会社,,株式会社,東京都,新宿区,新小川町５番６－２０９号,,13,104,1620814,,,,,,,2025-03-04,1,,,,,ツナガリエーアイ,0
2022,9011101110819,新規,0,2025-03-04,2025-03-04,株式会社ＷＯＲＬＤ，ｃｍｎ,,株式会社,東京都,新宿区,西新宿３丁目３番１３号西新宿水間ビル２Ｆ,,13,104,1600023,,,,,,,2025-03-04,1,,,,,ワールドコモン,0
2032,9011203004621,新規,0,2025-03-04,2025-03-04,合同会社Ｊ・Ｂ,,合同会社,東京都,中野区,弥生町１丁目４－６,,13,114,1640013,,,,,,,2025-03-04,1,,,,,ジェービー,0
2040,9011801045711,新規,0,2025-03-04,2025-03-04,心大商事株式会社,,株式会社,東京都,足立区,足立４丁目３３番１－１０２号,,13,121,1200015,,,,,,,2025-03-04,1,,,,,シンダイショウジ,0
2041,9011801045728,新規,0,2025-03-04,2025-03-04,株式会社ｃｒｅｅｒ　ｌｅ　ｆｕｔｕｒ,,株式会社,東京都,足立区,六木４丁目７番２３号,,13,121,1210052,,,,,,,2025-03-04,1,,,,,クレエルフュテュール,0
2042,9012301014280,新規,0,2025-03-04,2025-03-04,ＴＹＪＪ株式会社,,株式会社,東京都,町田市,鶴間５丁目２番１－８０３号,,13,209,1940004,,,,,,,2025-03-04,1,,,,,ティーワイジェイジェイ,0
2047,9012401042826,新規,0,2025-03-04,2025-03-04,株式会社希のもと,,株式会社,東京都,三鷹市,井口３丁目３番２７‐３０９号,,13,204,1810011,,,,,,,2025-03-04,1,,,,,キノモト,0
2050,9012801023789,新規,0,2025-03-04,2025-03-04,路通株式会社,,株式会社,東京都,国分寺市,南町３丁目７－９パークアべニュー国分寺５階５１２号,,13,214,1850021,,,,,,,2025-03-04,1,,,,,ロツウ,0
2051,9013301053863,新規,0,2025-03-04,2025-03-04,株式会社ライフサポート,,株式会社,東京都,豊島区,長崎６丁目１番７号長崎ハイツ２０３号,,13,116,1710051,,,,,,,2025-03-04,1,,,,,ライフサポート,0
2058,9020001161649,新規,0,2025-03-04,2025-03-04,株式会社ＲＩＺＥ　ＷＯＲＫＳ,,株式会社,神奈川県,横浜市瀬谷区,下瀬谷２丁目２５番地１０ライフェン瀬谷１０３,,14,114,2460035,,,,,,,2025-03-04,1,,,,,ライズワークス,0
2059,9020001161657,新規,0,2025-03-04,2025-03-04,株式会社人・本・旅,,株式会社,神奈川県,横浜市旭区,柏町１３５番地１４セカンドオーシャン南万騎が原２０２号,,14,112,2410835,,,,,,,2025-03-04,1,,,,,ヒトホンタビ,0
2063,9020003027914,新規,0,2025-03-04,2025-03-04,合同会社Ｋ‐Ｔ,,合同会社,神奈川県,川崎市川崎区,大島１丁目２３－４サイトウハイツ２０１,,14,131,2100834,,,,,,,2025-03-04,1,,,,,ケーティー,0
2064,9020003027947,新規,0,2025-03-04,2025-03-04,合同会社エフビーディー,,合同会社,神奈川県,川崎市中原区,下沼部１７１１番地４パークノヴァ武蔵小杉２１４,,14,133,2110011,,,,,,,2025-03-04,1,,,,,エフビーディー,0
2067,9021003015652,新規,0,2025-03-04,2025-03-04,合同会社ピースコネクション,,合同会社,神奈川県,相模原市南区,相模台７丁目３７番１４号,,14,153,2520321,,,,,,,2025-03-04,1,,,,,ピースコネクション,0
2078,9030005022061,新規,0,2025-03-04,2025-03-04,農事組合法人スズケン,,その他の設立登記法人,埼玉県,白岡市,彦兵衛７－１１１,,11,246,3490224,,,,,,,2025-03-04,1,,,,,スズケン,0
2081,9040001137606,新規,0,2025-03-04,2025-03-04,悠和株式会社,,株式会社,千葉県,船橋市,西船４丁目１９番２－９０１号第１２花園ビル,,12,204,2730031,,,,,,,2025-03-04,1,,,,,ユウワ,0
2084,9040003027004,新規,0,2025-03-04,2025-03-04,さゆみ合同会社,,合同会社,千葉県,山武市,成東６３０番地３,,12,237,2891326,,,,,,,2025-03-04,1,,,,,サユミ,0
2087,9050001056251,新規,0,2025-03-04,2025-03-04,株式会社常笑喜流,,株式会社,茨城県,稲敷郡阿見町,大字曙１３３番地,,08,443,3000306,,,,,,,2025-03-04,1,,,,,ジョウショウキリュウ,0
2092,9060001037952,新規,0,2025-03-04,2025-03-04,株式会社オルオル,,株式会社,栃木県,栃木市,大平町富田４５５番地４金太郎ビル１階,,09,203,3294404,,,,,,,2025-03-04,1,,,,,オルオル,0
2095,9070001042679,新規,0,2025-03-04,2025-03-04,ＮＡＮＯ‐ＭＵＧＥＮ株式会社,,株式会社,群馬県,高崎市,浜川町２２９番地１０,,10,202,3700081,,,,,,,2025-03-04,1,,,,,ナノムゲン,0
2096,9070003005808,新規,0,2025-03-04,2025-03-04,合同会社永吉,,合同会社,群馬県,伊勢崎市,中央町２３番１３－５０７号,,10,204,3720042,,,,,,,2025-03-04,1,,,,,ナガヨシ,0
2098,9080101025335,新規,0,2025-03-04,2025-03-04,株式会社ここ２サービス,,株式会社,静岡県,沼津市,足高３１９番地の５６１,,22,203,4100001,,,,,,,2025-03-04,1,,,,,ココニサービス,0
2101,9080401027774,新規,0,2025-03-04,2025-03-04,株式会社Ｐｏｉｎｔ　Ｆｉｖｅ,,株式会社,静岡県,浜松市中央区,曳馬６丁目２２番１０号,,22,138,4300901,,,,,,,2025-03-04,1,,,,,ポイントファイブ,0
2107,9100001038335,新規,0,2025-03-04,2025-03-04,きらら生活クラブ長野発電株式会社,,株式会社,長野県,塩尻市,大字洗馬２７１番地２,,20,215,3996462,,,,,,,2025-03-04,1,,,,,キララセイカツクラブナガノハツデン,0
2109,9110001039076,新規,0,2025-03-04,2025-03-04,マスタプラン株式会社,,株式会社,新潟県,新潟市中央区,西堀通３番町２５８番地４１西堀フロント２Ｆ－Ｃ,,15,103,9518061,,,,,,,2025-03-04,1,,,,,マスタプラン,0
2111,9110003005679,新規,0,2025-03-04,2025-03-04,合同会社ライズアッププロジェクト,,合同会社,新潟県,新潟市中央区,京王１丁目２１番２２号,,15,103,9500921,,,,,,,2025-03-04,1,,,,,ライズアッププロジェクト,0
2126,9120003028753,新規,0,2025-03-04,2025-03-04,合同会社ＢＲＩＧＨＴＥＮ　ＵＰ,,合同会社,大阪府,大阪市西成区,潮路２丁目６番２２号,,27,122,5570052,,,,,,,2025-03-04,1,,,,,ブライトンアップ,0
2133,9122001038949,新規,0,2025-03-04,2025-03-04,株式会社ＨｏＮｕ,,株式会社,大阪府,東大阪市,吉田３丁目８番４３号,,27,227,5780924,,,,,,,2025-03-04,1,,,,,ホヌ,0
2141,9130003010248,新規,0,2025-03-04,2025-03-04,合同会社Ｒｏｕｔｉｎｅｌａｂｏ,,合同会社,京都府,京都市下京区,七条通油小路東入大黒町２２７番地第２キョートビル４０２,,26,106,6008223,,,,,,,2025-03-04,1,,,,,ルーティンラボ,0
2142,9130003010256,新規,0,2025-03-04,2025-03-04,合同会社じぶんらしく,,合同会社,京都府,京都市左京区,静市市原町１６３番地６,,26,103,6011123,,,,,,,2025-03-04,1,,,,,ジブンラシク,0
2146,9140001137554,新規,0,2025-03-04,2025-03-04,株式会社ｌｉｂｅｒａｔｉｏｎ　ｗｉｎｇ,,株式会社,兵庫県,神戸市中央区,元町通４丁目３番１６号坂口ポートハイツ２０３,,28,110,6500022,,,,,,,2025-03-04,1,,,,,リベレーションウイング,0
2147,9140001137579,新規,0,2025-03-04,2025-03-04,株式会社ダブルエージェンシー,,株式会社,兵庫県,芦屋市,南浜町２番９号,,28,206,6590037,,,,,,,2025-03-04,1,,,,,ダブルエージェンシー,0
2158,9170001018512,新規,0,2025-03-04,2025-03-04,株式会社敬康工業,,株式会社,和歌山県,和歌山市,本脇２１６,,30,201,6400113,,,,,,,2025-03-04,1,,,,,ケイコウコウギョウ,0
2161,9180001165650,新規,0,2025-03-04,2025-03-04,株式会社ポシビリテ,,株式会社,愛知県,名古屋市西区,名駅２丁目２７番８号名古屋プライムセントラルタワー３階,,23,104,4510045,,,,,,,2025-03-04,1,,,,,ポシビリテ,0
2163,9180003028070,新規,0,2025-03-04,2025-03-04,合同会社ｇｉｆｔ,,合同会社,愛知県,名古屋市南区,寺崎町８番１３号－２,,23,112,4570013,,,,,,,2025-03-04,1,,,,,ギフト,0
2173,9210001020075,新規,0,2025-03-04,2025-03-04,株式会社ＷＨｉＴＥ,,株式会社,福井県,福井市,灯明寺２丁目１７０１番地１,,18,201,9100063,,,,,,,2025-03-04,1,,,,,ホワイト,0
2174,9210001020083,新規,0,2025-03-04,2025-03-04,株式会社ＧｏｏｄＷｏｒｋ,,株式会社,福井県,福井市,勝見３丁目７番２号１,,18,201,9100856,,,,,,,2025-03-04,1,,,,,グッドワーク,0
2175,9220001026518,新規,0,2025-03-04,2025-03-04,ペット火葬ハピネス関東株式会社,,株式会社,石川県,金沢市,伏見新町２７８番地,,17,201,9218172,,,,,,,2025-03-04,1,,,,,ペットカソウハピネスカントウ,0
2177,9220003003952,新規,0,2025-03-04,2025-03-04,桃幻合同会社,,合同会社,石川県,加賀市,別所町富士見ケ丘８―８,,17,206,9220275,,,,,,,2025-03-04,1,,,,,トーゲン,0
2178,9230003002383,新規,0,2025-03-04,2025-03-04,ＨＡＩＫＡＲＡ合同会社,,合同会社,富山県,射水市,土合１３９９,,16,211,9390251,,,,,,,2025-03-04,1,,,,,ハイカラ,0
2182,9240001064607,新規,0,2025-03-04,2025-03-04,ファーストペンギン株式会社,,株式会社,広島県,呉市,広駅前２丁目７番３８号フェスタビル１Ｆ,,34,202,7370142,,,,,,,2025-03-04,1,,,,,ファーストペンギン,0
2198,9290001109084,新規,0,2025-03-04,2025-03-04,株式会社エクセルベスト,,株式会社,福岡県,糟屋郡志免町,南里２丁目１８番１７－２０１号,,40,343,8112207,,,,,,,2025-03-04,1,,,,,エクセルベスト,0
2199,9290001109175,新規,0,2025-03-04,2025-03-04,株式会社ＳＭＯ,,株式会社,福岡県,福岡市早良区,百道浜４丁目１４番９号,,40,137,8140001,,,,,,,2025-03-04,1,,,,,エスエムオー,0
2200,9290001109209,新規,0,2025-03-04,2025-03-04,株式会社ＶＩＳＩＯＮ,,株式会社,福岡県,福岡市中央区,警固１丁目１３番１５号,,40,133,8100023,,,,,,,2025-03-04,1,,,,,ヴィジョン,0
2202,9290801031314,新規,0,2025-03-04,2025-03-04,株式会社ｔｒｅｅｈｏｕｓｅ,,株式会社,福岡県,北九州市戸畑区,沢見１丁目５番２５号,,40,105,8040093,,,,,,,2025-03-04,1,,,,,ツリーハウス,0
2204,9300001014101,新規,0,2025-03-04,2025-03-04,コヤマ株式会社,,株式会社,佐賀県,東松浦郡玄海町,大字大薗２０４８番地１５,,41,387,8471434,,,,,,,2025-03-04,1,,,,,コヤマ,0
2205,9310001019479,新規,0,2025-03-04,2025-03-04,株式会社白鳥緑化土木,,株式会社,長崎県,長崎市,白鳥町６番５５号,,42,201,8528042,,,,,,,2025-03-04,1,,,,,シラトリリョクカドボク,0
2212,9340001027157,新規,0,2025-03-04,2025-03-04,株式会社ＴＳＵＮＡＧＵ,,株式会社,鹿児島県,姶良市,加治木町反土４番１５番地２４９,,46,225,8995231,,,,,,,2025-03-04,1,,,,,ツナグ,0
2214,9350003004863,新規,0,2025-03-04,2025-03-04,合同会社ハオチー,,合同会社,宮崎県,宮崎市,橘通東３丁目４番３３号２階,,45,201,8800805,,,,,,,2025-03-04,1,,,,,ハオチー,0
2215,9360001034853,新規,0,2025-03-04,2025-03-04,株式会社ＮＥＯ　ＦＩＴ　ＪＡＰＡＮ,,株式会社,沖縄県,那覇市,おもろまち４丁目２０番２１号,,47,201,9000006,,,,,,,2025-03-04,1,,,,,ネオフィットジャパン,0
2219,9370003006957,新規,0,2025-03-04,2025-03-04,合同会社ＳＨＩＯＮ,,合同会社,宮城県,石巻市,門脇字青葉東１０３－５,,04,202,9860853,,,,,,,2025-03-04,1,,,,,シオン,0
2237,9500001026175,新規,0,2025-03-04,2025-03-04,株式会社Ｎリーガルデザイン,,株式会社,愛媛県,松山市,小栗７丁目８番３５号エスポワール２０６,,38,201,7900036,,,,,,,2025-03-04,1,,,,,エヌリーガルデザイン,0
2238,9500003003445,新規,0,2025-03-04,2025-03-04,Ｏｔｔｏ＆Ｓｏｎｓ　Ｊａｐａｎ合同会社,,合同会社,愛媛県,八幡浜市,保内町宮内１番耕地２８９番地１,,38,204,7960202,,,,,,,2025-03-04,1,,,,,オットーアンドサンズジャパン,0
2239,9700150129428,新規,0,2025-03-04,2025-03-04,ｓｈａｎｔｏｕｓｈｉｂｕｌｕｏｋｅｋｅｊｉｙｏｕｘｉａｎｇｏｎｇｓｉ,,外国会社等,,,,,,,,Ｎｏ．７，Ｓｅｃｏｎｄ　Ｑｉｇｏｕ　Ｌａｎｅ，Ｗｅｓｔ　ｏｆ　Ｏｕｔｉｎｇ　Ｓｔｒｅｅｔ　Ｌｏｎｇｈｕ　Ｄｉｓｔｒｉｃｔ，Ｓｈａｎｔｏｕ　Ｃｉｔｙ,,,,,,2025-03-04,1,,,,,サントウシブロウケカギユウゲンコウシ,0
2240,9700150129436,新規,0,2025-03-04,2025-03-04,トウヤ・エスジー・ツー・ピーティーイー・リミテッド,,外国会社等,東京都,港区,六本木１丁目６番１号　泉ガーデンタワー,,13,103,1060032,シンガポール共和国０４９３２１、オーユーイー・ベイフロント、コリヤーキー５０、＃０４－０３,,,,,,2025-03-04,1,,,,,トウヤエスジーツーピーテイーイーリミテツド,0
