sequenceNumber,corporateNumber,process,correct,updateDate,changeDate,name,nameImageId,kind,prefectureName,cityName,streetNumber,addressImageId,prefectureCode,cityCode,postCode,addressOutside,addressOutsideImageId,closeDate,closeCause,successorCorporateNumber,changeCause,assignmentDate,latest,enName,enPrefectureName,enCityName,enAddressOutside,furigana,hihyoji
516,1010001251771,新規,0,2025-01-31,2025-01-31,ＮＯＶＡ　ＩＮＤＵＳＴＲＹ　ＪＡＰＡＮ株式会社,,株式会社,東京都,千代田区,平河町１丁目３番７号５Ｆ,,13,101,1020093,,,,,,,2025-01-31,1,,,,,ノヴァインダストリージャパン,0
517,1010001251912,新規,0,2025-01-31,2025-01-31,株式会社Ｃａｍｉｎｏ,,株式会社,東京都,中央区,築地２丁目６番１号青木ビル４階,,13,102,1040045,,,,,,,2025-01-31,1,,,,,カミーノ,0
530,1010005039486,新規,0,2025-01-31,2025-01-31,一般社団法人エスアイエム,,その他の設立登記法人,東京都,中央区,日本橋１丁目４番１号,,13,102,1030027,,,,,,,2025-01-31,1,,,,,エスアイエム,0
688,1010601066702,新規,0,2025-01-31,2025-01-31,株式会社スミダメディカル,,株式会社,東京都,墨田区,亀沢１丁目７番２－７０１号,,13,107,1300014,,,,,,,2025-01-31,1,,,,,スミダメディカル,0
695,1010603011359,新規,0,2025-01-31,2025-01-31,日本ＵＰＥ合同会社,,合同会社,東京都,江東区,豊洲３丁目６番地８シティタワーズ豊洲ザ・シンボル５１２号室,,13,108,1350061,,,,,,,2025-01-31,1,,,,,ニホンユーピーイー,0
698,1010701047189,新規,0,2025-01-31,2025-01-31,株式会社トラピック,,株式会社,東京都,品川区,東五反田４丁目７番２７号ＮＯＶＥＬＷＯＲＫＧｏｔａｎｄａ４Ｆ,,13,109,1410022,,,,,,,2025-01-31,1,,,,,トラピック,0
699,1010703007538,新規,0,2025-01-31,2025-01-31,金海エステート合同会社,,合同会社,東京都,品川区,南大井１丁目７－１０,,13,109,1400013,,,,,,,2025-01-31,1,,,,,,0
700,1010801035804,新規,0,2025-01-31,2025-01-31,株式会社コーヌコピア,,株式会社,東京都,大田区,新蒲田２丁目２０番７号ユーフラット１Ａ号,,13,111,1440054,,,,,,,2025-01-31,1,,,,,コーヌコピア,0
943,1011001167314,新規,0,2025-01-31,2025-01-31,エン・ビジネスパートナーズ株式会社,,株式会社,東京都,渋谷区,渋谷２丁目１９番１９号ワコー宮益坂ビル５階,,13,113,1500002,,,,,,,2025-01-31,1,,,,,エンビジネスパートナーズ,0
944,1011001167396,新規,0,2025-01-31,2025-01-31,ケイウッドエナジーソリューション株式会社,,株式会社,東京都,渋谷区,神宮前５丁目５０番１０号,,13,113,1500001,,,,,,,2025-01-31,1,,,,,ケイウッドエナジーソリューション,0
946,1011003020743,新規,0,2025-01-31,2025-01-31,合同会社３７＆Ｃｏ．,,合同会社,東京都,渋谷区,円山町５－５Ｎａｖｉ渋谷Ｖ３階,00137841,13,113,1500044,,,,,,,2025-01-31,1,,,,,サンナナアンドコー,0
961,1011101110446,新規,0,2025-01-31,2025-01-31,株式会社リーディングラボ,,株式会社,東京都,新宿区,新宿１丁目１８－１０カテリーナ柳通りビル３階,,13,104,1600022,,,,,,,2025-01-31,1,,,,,リーディングラボ,0
962,1011101110470,新規,0,2025-01-31,2025-01-31,Ｒｕｍｉｎａｔｅ　Ｇｒｉｌｌ　ａｎｄ　Ｂａｒ株式会社,,株式会社,東京都,新宿区,四谷三栄町２番１４号,,13,104,1600008,,,,,,,2025-01-31,1,,,,,ルーミネートグリルアンドバー,0
964,1011103015478,新規,0,2025-01-31,2025-01-31,合同会社カルチベ,,合同会社,東京都,新宿区,西早稲田２丁目１番２３－１１０１号,,13,104,1690051,,,,,,,2025-01-31,1,,,,,カルチベ,0
1040,1011501031639,新規,0,2025-01-31,2025-01-31,株式会社輝星架設工業,,株式会社,東京都,荒川区,西日暮里５丁目３４番２号,,13,118,1160013,,,,,,,2025-01-31,1,,,,,コウセイカセツコウギョウ,0
1042,1011801045545,新規,0,2025-01-31,2025-01-31,株式会社ＴＫＧ,,株式会社,東京都,足立区,東和５丁目８－９－９０６,,13,121,1200003,,,,,,,2025-01-31,1,,,,,ティーケージー,0
1043,1011803006669,新規,0,2025-01-31,2025-01-31,合同会社サンハイ,,合同会社,東京都,足立区,綾瀬２丁目１８番３号メゾン南伯綾３０７号室,,13,121,1200005,,,,,,,2025-01-31,1,,,,,サンハイ,0
1152,1012403006951,新規,0,2025-01-31,2025-01-31,Ｎｅｏ合同会社,,合同会社,東京都,府中市,白糸台４丁目２０番地の１０,,13,206,1830011,,,,,,,2025-01-31,1,,,,,ネオ,0
1183,1013101009619,新規,0,2025-01-31,2025-01-31,株式会社ＳＲＩ　ＮＡＹＡＭ,,株式会社,東京都,あきる野市,野辺１２５５番地１７,,13,228,1970823,,,,,,,2025-01-31,1,,,,,スリナヤム,0
1284,1020001161061,新規,0,2025-01-31,2025-01-31,株式会社ＲＴエンタープライズ,,株式会社,神奈川県,横浜市磯子区,磯子８丁目３－１０６,,14,107,2350016,,,,,,,2025-01-31,1,,,,,,0
1286,1020003027649,新規,0,2025-01-31,2025-01-31,合同会社ＳＴＥＬＬＡ,,合同会社,神奈川県,川崎市麻生区,片平３丁目１番８－２０６号,,14,137,2150023,,,,,,,2025-01-31,1,,,,,ステラ,0
1312,1040001137233,新規,0,2025-01-31,2025-01-31,株式会社Ａｃｔｉｂ,,株式会社,千葉県,八千代市,緑が丘１丁目１１０６－５,,12,221,2760049,,,,,,,2025-01-31,1,,,,,アクティブ,0
1315,1040003026715,新規,0,2025-01-31,2025-01-31,合同会社Ｔｅｒｍｉｎａｌ,,合同会社,千葉県,柏市,西原２丁目６番３５ニッタクビル１Ｆ,,12,217,2770885,,,,,,,2025-01-31,1,,,,,ターミナル,0
1322,1060005010285,新規,0,2025-01-31,2025-01-31,農事組合法人ＫＤ１,,その他の設立登記法人,栃木県,宇都宮市,双葉２丁目１０－９コーポツバサ２０１,,09,201,3210164,,,,,,,2025-01-31,1,,,,,ケーディイチ,0
1330,1080103003247,新規,0,2025-01-31,2025-01-31,みずほコンサルティング合同会社,,合同会社,静岡県,伊東市,八幡野１５８６番地の２１０名鉄赤沢２７－３,,22,208,4130232,,,,,,,2025-01-31,1,,,,,ミズホコンサルティング,0
1337,1120003028513,新規,0,2025-01-31,2025-01-31,三釜合同会社,,合同会社,大阪府,大阪市阿倍野区,相生通２丁目７番４５－３０２号,,27,119,5450033,,,,,,,2025-01-31,1,,,,,サンプ,0
1341,1122005003808,新規,0,2025-01-31,2025-01-31,特定非営利活動法人ワーク,,その他の設立登記法人,大阪府,東大阪市,善根寺町４丁目２番３８号,,27,227,5798001,,,,,,,2025-01-31,1,,,,,ワーク,0
1345,1130001078914,新規,0,2025-01-31,2025-01-31,株式会社ターニングポイント,,株式会社,京都府,京都市伏見区,中油掛町１０６－７,,26,109,6128056,,,,,,,2025-01-31,1,,,,,ターニングポイント,0
1351,1140001137280,新規,0,2025-01-31,2025-01-31,株式会社せいのお,,株式会社,兵庫県,尼崎市,南武庫之荘１丁目５番３号,,28,202,6610033,,,,,,,2025-01-31,1,,,,,セイノオ,0
1362,1180001165204,新規,0,2025-01-31,2025-01-31,株式会社ＫＡＴＡＣＨＩ,,株式会社,愛知県,名古屋市中区,栄３丁目３２番２４号コジマテントビル８階,,23,106,4600008,,,,,,,2025-01-31,1,,,,,カタチ,0
1363,1180001165220,新規,0,2025-01-31,2025-01-31,アイアンテック株式会社,,株式会社,愛知県,半田市,舟入町４８番地の２,,23,205,4750000,,,,,,,2025-01-31,1,,,,,アイアンテック,0
1364,1180001165261,新規,0,2025-01-31,2025-01-31,株式会社ＫＡＮＷＡ基板修理センター,,株式会社,愛知県,名古屋市緑区,曽根２丁目３６０番地,,23,114,4580035,,,,,,,2025-01-31,1,,,,,カンワキバンシュウリセンター,0
1368,1180003027939,新規,0,2025-01-31,2025-01-31,合同会社サクシード,,合同会社,愛知県,名古屋市緑区,万場山１丁目６０３番地,,23,114,4580043,,,,,,,2025-01-31,1,,,,,サクシード,0
1379,1240001064465,新規,0,2025-01-31,2025-01-31,はやし建設サポート株式会社,,株式会社,広島県,広島市南区,西蟹屋３丁目３番２４号,,34,103,7320804,,,,,,,2025-01-31,1,,,,,ハヤシケンセツサポート,0
1380,1240001064473,新規,0,2025-01-31,2025-01-31,株式会社コニリオ,,株式会社,広島県,広島市安佐北区,口田南４丁目４４番１３号,,34,106,7391733,,,,,,,2025-01-31,1,,,,,コニリオ,0
1382,1240005015885,新規,0,2025-01-31,2025-01-31,一般社団法人ＭＯＬＴ,,その他の設立登記法人,広島県,尾道市,東御所町９番１号,,34,205,7220036,,,,,,,2025-01-31,1,,,,,モルト,0
1385,1260001039861,新規,0,2025-01-31,2025-01-31,株式会社エムテクニカル,,株式会社,岡山県,赤磐市,西軽部９０２,,33,213,7012215,,,,,,,2025-01-31,1,,,,,エムテクニカル,0
1388,1270001009137,新規,0,2025-01-31,2025-01-31,株式会社裕建工業,,株式会社,鳥取県,米子市,車尾４丁目９番７号,,31,202,6830006,,,,,,,2025-01-31,1,,,,,ユウケンコウギョウ,0
1392,1290001108770,新規,0,2025-01-31,2025-01-31,株式会社エンコネクト,,株式会社,福岡県,福岡市中央区,港１丁目４番６－１００１号,,40,133,8100075,,,,,,,2025-01-31,1,,,,,エンコネクト,0
1393,1290001108795,新規,0,2025-01-31,2025-01-31,日本世知原寒蘭研究所株式会社,,株式会社,福岡県,福岡市早良区,室見２丁目１４番１２号,,40,137,8140015,,,,,,,2025-01-31,1,,,,,ニッポンセチバルカンランケンキュウショ,0
1399,1290003016369,新規,0,2025-01-31,2025-01-31,合同会社インフィールド,,合同会社,福岡県,福岡市西区,野方３丁目１１番１７号,,40,135,8190043,,,,,,,2025-01-31,1,,,,,インフィールド,0
1406,1320003004568,新規,0,2025-01-31,2025-01-31,唐禾隆合同会社,,合同会社,大分県,由布市,湯布院町川北１１７１番地１,,44,213,8795114,,,,,,,2025-01-31,1,,,,,トウカリュウ,0
1410,1330005010869,新規,0,2025-01-31,2025-01-31,一般社団法人光輝会,,その他の設立登記法人,熊本県,熊本市中央区,城東町２番１８号求人案内通町ビル７Ｆ,,43,101,8600846,,,,,,,2025-01-31,1,,,,,コウキカイ,0
1411,1340001027098,新規,0,2025-01-31,2025-01-31,ＡＲＭ不動産株式会社,,株式会社,鹿児島県,鹿児島市,下荒田２丁目２４番１８号２１０号室,,46,201,8900056,,,,,,,2025-01-31,1,,,,,アームフドウサン,0
1627,1430001093585,新規,0,2025-01-31,2025-01-31,株式会社ＭＩＹＡＫＡＷＡ,,株式会社,北海道,札幌市豊平区,月寒東五条１７丁目７番１８－２０１号,,01,105,0620055,,,,,,,2025-01-31,1,,,,,ミヤカワ,0
1630,1430003017229,新規,0,2025-01-31,2025-01-31,合同会社ニタドリ,,合同会社,北海道,苫小牧市,日の出町２丁目７－２５－５０２,,01,213,0530043,,,,,,,2025-01-31,1,,,,,ニタドリ,0
1633,1500005008763,新規,0,2025-01-31,2025-01-31,アイ・エム・エー協同組合,,その他の設立登記法人,愛媛県,今治市,北日吉町２丁目５番４０号,,38,202,7940054,,,,,,,2025-01-31,1,,,,,アイエムエー,0
1636,1700150129047,新規,0,2025-01-31,2025-01-31,ＨＡＡＮＩＭ　ＩＮＴＥＲＮＡＴＩＯＮＡＬ　ＥＮＴＥＲＰＲＩＳＥＳ,,外国会社等,千葉県,東金市,東金１４８１番地１東金２０５,,12,213,2830802,スリランカ民主社会主義共和国、マダワラ、ウダカンデ、Ｎｏ．１２５／Ａ,,,,,,2025-01-31,1,,,,,ハアニムインターナシヨナルエンタープライズ,0
2128,2010003046244,新規,0,2025-01-31,2025-01-31,合同会社綾立,,合同会社,東京都,中央区,日本橋堀留町２丁目２番６号則武６Ｆ,,13,102,1030012,,,,,,,2025-01-31,1,,,,,アヤタツ,0
2152,2010401187887,新規,0,2025-01-31,2025-01-31,ウイングコーポレーション株式会社,,株式会社,東京都,港区,白金３丁目１番１３号,,13,103,1080072,,,,,,,2025-01-31,1,,,,,ウイングコーポレーション,0
2293,2010701047188,新規,0,2025-01-31,2025-01-31,エンタテインデュケイション株式会社,,株式会社,東京都,品川区,南大井５丁目２０番１１号２０３号室,,13,109,1400013,,,,,,,2025-01-31,1,,,,,エンタテインデュケイション,0
2540,2011003020825,新規,0,2025-01-31,2025-01-31,合同会社ＫＭＰ,,合同会社,東京都,渋谷区,恵比寿南２丁目１７番３号,,13,113,1500022,,,,,,,2025-01-31,1,,,,,ケイエムピー,0
2551,2011101110453,新規,0,2025-01-31,2025-01-31,青麦国際株式会社,,株式会社,東京都,新宿区,北新宿４丁目２１－３青麦ビル２０２号室,,13,104,1690074,,,,,,,2025-01-31,1,,,,,アオムギコクサイ,0
2552,2011101110478,新規,0,2025-01-31,2025-01-31,株式会社ヴァンクール,,株式会社,東京都,新宿区,新宿１丁目３６番２号新宿第七葉山ビル３階,,13,104,1600022,,,,,,,2025-01-31,1,,,,,ヴァンクール,0
2622,2011303005402,新規,0,2025-01-31,2025-01-31,合同会社ＳＵＰＲＩＴＥＭＥ,,合同会社,東京都,杉並区,荻窪２丁目４０番２,,13,115,1670051,,,,,,,2025-01-31,1,,,,,スプリトム,0
2624,2011401026787,新規,0,2025-01-31,2025-01-31,１０１０ジャパン株式会社,,株式会社,東京都,板橋区,前野町５丁目２３番１－８０１号ブライトヒルズ,,13,119,1740063,,,,,,,2025-01-31,1,,,,,テンテンジャパン,0
2628,2011701028021,新規,0,2025-01-31,2025-01-31,ｐｍｉテック共済株式会社,,株式会社,東京都,江戸川区,一之江１丁目１４番７号,,13,123,1320024,,,,,,,2025-01-31,1,,,,,ピーエムアイテックキョウサイ,0
2629,2011703004111,新規,0,2025-01-31,2025-01-31,合同会社ＷＩＬＬＩＮＧ,,合同会社,東京都,江戸川区,松島２丁目２０番２７号,,13,123,1320031,,,,,,,2025-01-31,1,,,,,ウィリング,0
2631,2011803006668,新規,0,2025-01-31,2025-01-31,合同会社ＪＩＬＬ,,合同会社,東京都,葛飾区,西亀有４丁目２１番８－４０９号ＡＺＥＳＴ亀有ＩＩ,00137840,13,122,1250002,,,,,,,2025-01-31,1,,,,,ジル,0
2734,2012401042717,新規,0,2025-01-31,2025-01-31,Ｔｈｅｔａ　Ｔｉｍｅｓ　Ｐａｒｔｎｅｒｓ株式会社,,株式会社,東京都,三鷹市,下連雀９丁目７番１２－４１１号,,13,204,1810013,,,,,,,2025-01-31,1,,,,,シータタイムスパートナーズ,0
2738,2012403006942,新規,0,2025-01-31,2025-01-31,合同会社ラビットフット,,合同会社,東京都,三鷹市,大沢５丁目１３番１３号,,13,204,1810015,,,,,,,2025-01-31,1,,,,,ラビットフット,0
2842,2013301053713,新規,0,2025-01-31,2025-01-31,スターサミット株式会社,,株式会社,東京都,豊島区,東池袋３丁目９－２池袋Ｅ３ビル２Ｆ,,13,116,1700013,,,,,,,2025-01-31,1,,,,,スターサミット,0
2868,2020001161077,新規,0,2025-01-31,2025-01-31,創達株式会社,,株式会社,神奈川県,横浜市中区,本牧町１丁目１０８ケーエスアヴェニール１階,,14,104,2310806,,,,,,,2025-01-31,1,,,,,ソウタツ,0
2873,2021003015535,新規,0,2025-01-31,2025-01-31,６Ｄｓｈａｒｋ　ＪＡＰＡＮ合同会社,,合同会社,神奈川県,厚木市,中町３丁目９－１５厚木ＪＣビル６０２,,14,212,2430018,,,,,,,2025-01-31,1,,,,,シックスディーシャークジャパン,0
2883,2030001164665,新規,0,2025-01-31,2025-01-31,株式会社エース,,株式会社,埼玉県,三郷市,三郷１丁目５番２号,,11,237,3410024,,,,,,,2025-01-31,1,,,,,エース,0
2887,2030003025997,新規,0,2025-01-31,2025-01-31,合同会社アドロック,,合同会社,埼玉県,富士見市,鶴馬１丁目１番２４号,,11,235,3540021,,,,,,,2025-01-31,1,,,,,アドロック,0
2894,2040001137232,新規,0,2025-01-31,2025-01-31,ｆｕｌｌｃｒａｆｔｓ株式会社,,株式会社,千葉県,千葉市中央区,富士見１丁目１４－１３千葉大栄ビル８Ｆ,,12,101,2600015,,,,,,,2025-01-31,1,,,,,フルクラフト,0
2895,2050001056076,新規,0,2025-01-31,2025-01-31,株式会社ＥＡ‐Ｃｏｎｎｅｃｔ,,株式会社,茨城県,古河市,関戸１５５６番地６,,08,204,3060205,,,,,,,2025-01-31,1,,,,,イーエーコネクト,0
2896,2050001056092,新規,0,2025-01-31,2025-01-31,株式会社トゥールカンパニー,,株式会社,茨城県,古河市,関戸８０５番地４,,08,204,3060205,,,,,,,2025-01-31,1,,,,,トゥールカンパニー,0
2898,2050003008975,新規,0,2025-01-31,2025-01-31,とりでドローンサービス合同会社,,合同会社,茨城県,取手市,宮和田１１３３番地３,,08,217,3001514,,,,,,,2025-01-31,1,,,,,トリデドローンサービス,0
2901,2060005010284,新規,0,2025-01-31,2025-01-31,農事組合法人フォルテ,,その他の設立登記法人,栃木県,宇都宮市,双葉２丁目１０－９コーポツバサ２０１,,09,201,3210164,,,,,,,2025-01-31,1,,,,,フォルテ,0
2903,2080005007667,新規,0,2025-01-31,2025-01-31,特定非営利活動法人ａｔ　ｈｉｚａ　ｎｏ　ｕｅ,,その他の設立登記法人,静岡県,島田市,阿知ケ谷７４８番地の１１,,22,209,4270006,,,,,,,2025-01-31,1,,,,,アットヒザノウエ,0
2909,2100001038267,新規,0,2025-01-31,2025-01-31,株式会社ＩＬＬＵＭＩＲＩＳＥ,,株式会社,長野県,松本市,大字神林１５３７番地６,,20,202,3901243,,,,,,,2025-01-31,1,,,,,イルミライズ,0
2921,2120001272368,新規,0,2025-01-31,2025-01-31,株式会社エピアシスト,,株式会社,大阪府,大阪市西区,北堀江１丁目２番１９号アステリオ北堀江ザ・メトロタワー１０Ｆ,,27,106,5500014,,,,,,,2025-01-31,1,,,,,エピアシスト,0
2922,2120001272418,新規,0,2025-01-31,2025-01-31,ピピリチ株式会社,,株式会社,大阪府,大阪市住之江区,南港中２丁目３－１２－３０５－Ａ室,,27,125,5590033,,,,,,,2025-01-31,1,,,,,ピピリチ,0
2923,2120001272442,新規,0,2025-01-31,2025-01-31,Ｎｕｄｉｅ　Ｊｅａｎｓ　Ｊａｐａｎ株式会社,,株式会社,大阪府,大阪市中央区,南船場４丁目６番１０号,,27,128,5420081,,,,,,,2025-01-31,1,,,,,ヌーディージーンズジャパン,0
2924,2120001272491,新規,0,2025-01-31,2025-01-31,株式会社太陽,,株式会社,大阪府,大阪市西区,新町１丁目８番１号行成ビル７階Ｂ１,,27,106,5500013,,,,,,,2025-01-31,1,,,,,タイヨウ,0
2935,2122005003807,新規,0,2025-01-31,2025-01-31,特定非営利活動法人善根寺シルバーセンター,,その他の設立登記法人,大阪府,東大阪市,善根寺町４丁目２番３７号ヤマゾエハイツ１０３号,,27,227,5798001,,,,,,,2025-01-31,1,,,,,ゼンコンジシルバーセンター,0
2939,2130001078896,新規,0,2025-01-31,2025-01-31,静心株式会社,,株式会社,京都府,京都市中京区,西ノ京伯楽町１４番５１号コーポ杉４０２号室,,26,104,6048452,,,,,,,2025-01-31,1,,,,,セイシン,0
2946,2140001137271,新規,0,2025-01-31,2025-01-31,株式会社ｄａ　Ｖｉｎｃｉ,,株式会社,兵庫県,神戸市中央区,加納町６丁目６番３号摩耶松本ビル１０階,,28,110,6500001,,,,,,,2025-01-31,1,,,,,ダヴィンチ,0
2947,2140003021606,新規,0,2025-01-31,2025-01-31,合同会社ＯＭＮＡＬ,,合同会社,兵庫県,明石市,大久保町松陰３９番地の１２,,28,203,6740053,,,,,,,2025-01-31,1,,,,,オムナル,0
2950,2150001027843,新規,0,2025-01-31,2025-01-31,三善株式会社,,株式会社,奈良県,奈良市,法華寺５１－５・３Ｆ,,29,201,6300000,,,,,,,2025-01-31,1,,,,,サンゼン,0
2956,2180001165252,新規,0,2025-01-31,2025-01-31,株式会社ＭＩＮＡＴＯ,,株式会社,愛知県,名古屋市南区,元塩町１丁目３６番地の３ホワイトキャッスル南ケ丘Ｂ棟１０２号室,,23,112,4570823,,,,,,,2025-01-31,1,,,,,ミナト,0
2959,2180301039486,新規,0,2025-01-31,2025-01-31,ＭＫＮ株式会社,,株式会社,愛知県,豊田市,朝日町５丁目２６番地１グローリアス豊田朝日町１０７号,,23,211,4710031,,,,,,,2025-01-31,1,,,,,エムケイエヌ,0
2961,2190003004928,新規,0,2025-01-31,2025-01-31,合同会社訪問看護ステーションふるふる,,合同会社,三重県,津市,美杉町太郎生２１６０番地,,24,201,5153536,,,,,,,2025-01-31,1,,,,,ホウモンカンゴステーションフルフル,0
2981,2290001108753,新規,0,2025-01-31,2025-01-31,株式会社ＨＯＭＭＹＳ,,株式会社,福岡県,福岡市博多区,美野島３丁目１番５－１３０２号,,40,132,8120017,,,,,,,2025-01-31,1,,,,,ホミーズ,0
2982,2290001108761,新規,0,2025-01-31,2025-01-31,株式会社Ｓ‐ＣＯＲＥ,,株式会社,福岡県,福岡市中央区,天神３丁目９－６,,40,133,8100001,,,,,,,2025-01-31,1,,,,,エスコア,0
2983,2290001108794,新規,0,2025-01-31,2025-01-31,株式会社かなる,,株式会社,福岡県,福岡市早良区,高取２丁目２番１４号タワーズ藤崎５Ｄ,,40,137,8140011,,,,,,,2025-01-31,1,,,,,カナル,0
2984,2290003016368,新規,0,2025-01-31,2025-01-31,合同会社ココロミ,,合同会社,福岡県,福岡市西区,上山門１丁目１１－６,,40,135,8190054,,,,,,,2025-01-31,1,,,,,ココロミ,0
2995,2330005010868,新規,0,2025-01-31,2025-01-31,ＮＰＯ法人きずな,,その他の設立登記法人,熊本県,八代郡氷川町,野津字南井上４６００番地,,43,468,8694805,,,,,,,2025-01-31,1,,,,,キズナ,0
2997,2340001027097,新規,0,2025-01-31,2025-01-31,株式会社環境アース,,株式会社,鹿児島県,鹿児島市,山田町１５７１番地,,46,201,8910104,,,,,,,2025-01-31,1,,,,,カンキョウアース,0
3000,2360001034736,新規,0,2025-01-31,2025-01-31,株式会社Ｏ．ＨＩＫＥ,,株式会社,沖縄県,宜野湾市,宇地泊１丁目１７番１２号,,47,205,9012227,,,,,,,2025-01-31,1,,,,,オーハイク,0
3002,2360003014653,新規,0,2025-01-31,2025-01-31,合同会社ＳＯＬＡ,,合同会社,沖縄県,宜野湾市,長田１丁目２６番１０号,,47,205,9012212,,,,,,,2025-01-31,1,,,,,ソラ,0
3183,2400003003387,新規,0,2025-01-31,2025-01-31,合同会社スマイル,,合同会社,岩手県,盛岡市,菜園２丁目５－２０メルヘンハウス２－Ｃ,,03,201,0200024,,,,,,,2025-01-31,1,,,,,スマイル,0
3201,2460001005966,新規,0,2025-01-31,2025-01-31,ＡｌｌｙｎａｖＡＧ株式会社,,株式会社,北海道,川上郡弟子屈町,泉２丁目３７番地１７,,01,665,0883212,,,,,,,2025-01-31,1,,,,,アリナビエージー,0
3209,2700150129038,新規,0,2025-01-31,2025-01-31,上海嘉仕久企業発展有限公司　東京駐在員事務所,,外国会社等,千葉県,松戸市,西馬橋蔵元町５５番地２０６号,,12,207,2710046,上海市崇明区城橋鎮秀山路５１８号,,,,,,2025-01-31,1,,,,,シヤンハイジヤシクキギヨウハツテンユウゲンコウシトウキヨウチユウザイインジムシヨ,0
3210,2700150129046,新規,0,2025-01-31,2025-01-31,エイチジェイカルチャー株式会社,,外国会社等,東京都,港区,虎ノ門２丁目４番７号　Ｔ－ＬＩＴＥビル１６Ｆ１２号室,,13,103,1050001,大韓民国ソウル市江南区狎鴎亭路４２ギル２２、３Ｆ（新沙洞、セファビル）,00137187,,,,,2025-01-31,1,,,,,エイチジエイカルチヤーカブシキガイシヤ,0
3754,3010001251902,新規,0,2025-01-31,2025-01-31,株式会社ＲＯＵＮＤ　Ｃｏｌｏｒ,,株式会社,東京都,千代田区,九段南１丁目５番６号りそな九段ビル５階ＫＳフロア,,13,101,1020074,,,,,,,2025-01-31,1,,,,,ラウンドカラー,0
3757,3010003046235,新規,0,2025-01-31,2025-01-31,合同会社上田市２号,,合同会社,東京都,千代田区,神田東松下町３０ＴＫビル,,13,101,1010042,,,,,,,2025-01-31,1,,,,,ウエダシニゴウ,0
3758,3010003046243,新規,0,2025-01-31,2025-01-31,合同会社メルクマール,,合同会社,東京都,中央区,日本橋室町１丁目１１番１２号日本橋水野ビル７階,,13,102,1030022,,,,,,,2025-01-31,1,,,,,メルクマール,0
3759,3010003046268,新規,0,2025-01-31,2025-01-31,合同会社ＪＡＨ　Ｔｗｏ,,合同会社,東京都,千代田区,平河町１丁目６番１５号シルスフィア会計事務所内,,13,101,1020093,,,,,,,2025-01-31,1,,,,,ジェイエイエイチツー,0
3776,3010401187820,新規,0,2025-01-31,2025-01-31,Ｔｏｋａｍａｋ　Ｅｎｅｒｇｙ株式会社,,株式会社,東京都,港区,赤坂２丁目１４番５号Ｄａｉｗａ赤坂ビル４階,,13,103,1070052,,,,,,,2025-01-31,1,,,,,トカマクエナジー,0
3777,3010403034319,新規,0,2025-01-31,2025-01-31,紀尾井レジデンス合同会社,,合同会社,東京都,港区,西麻布１丁目２番７号,,13,103,1060031,,,,,,,2025-01-31,1,,,,,キオイレジデンス,0
3904,3010601066683,新規,0,2025-01-31,2025-01-31,株式会社栄,,株式会社,東京都,江東区,亀戸１丁目４２番１４－３０３号,,13,108,1360071,,,,,,,2025-01-31,1,,,,,サカエ,0
3916,3010701047170,新規,0,2025-01-31,2025-01-31,株式会社ＥＸＥＲ,,株式会社,東京都,品川区,北品川５丁目５番１５号,,13,109,1410001,,,,,,,2025-01-31,1,,,,,エクサー,0
3917,3010703007552,新規,0,2025-01-31,2025-01-31,ＴＡＴＥＭＯＮＯ　ＭＧＭＴ合同会社,,合同会社,東京都,品川区,東大井１丁目２０－４,,13,109,1400011,,,,,,,2025-01-31,1,,,,,タテモノマネジメント,0
4163,3011001167287,新規,0,2025-01-31,2025-01-31,株式会社Ａｓｔｒａ　Ｇｒｉｄ,,株式会社,東京都,渋谷区,渋谷２丁目１９－１５宮益坂ビルディング６０９,,13,113,1500002,,,,,,,2025-01-31,1,,,,,アストラグリッド,0
4164,3011001167295,新規,0,2025-01-31,2025-01-31,株式会社ＬｉＭｉｅｕ,,株式会社,東京都,渋谷区,神宮前２丁目１８番４号ドエル神宮前１０１,,13,113,1500001,,,,,,,2025-01-31,1,,,,,リミュー,0
4172,3011003020816,新規,0,2025-01-31,2025-01-31,合同会社ランラン,,合同会社,東京都,渋谷区,道玄坂１丁目１０番８号渋谷道玄坂東急ビル２Ｆ－Ｃ,,13,113,1500043,,,,,,,2025-01-31,1,,,,,ランラン,0
4173,3011003020824,新規,0,2025-01-31,2025-01-31,合同会社ＫＭＳ,,合同会社,東京都,渋谷区,恵比寿南２丁目１７番３号,,13,113,1500022,,,,,,,2025-01-31,1,,,,,ケイエムエス,0
4180,3011103015476,新規,0,2025-01-31,2025-01-31,合同会社ＤＹＥＤ　ＷＨＩＴＥ,,合同会社,東京都,新宿区,西落合２丁目１２番２号スリージア１０１,,13,104,1610031,,,,,,,2025-01-31,1,,,,,ダイドホワイト,0
4181,3011103015484,新規,0,2025-01-31,2025-01-31,合同会社新宿水戸屋,,合同会社,東京都,新宿区,北新宿２丁目２１番２－３０７号,,13,104,1690074,,,,,,,2025-01-31,1,,,,,シンジュクミズトヤ,0
4264,3011303005401,新規,0,2025-01-31,2025-01-31,合同会社ｍｏｌｌｉｓ,,合同会社,東京都,杉並区,浜田山４丁目２９番１２号,,13,115,1680065,,,,,,,2025-01-31,1,,,,,モリス,0
4266,3011401026786,新規,0,2025-01-31,2025-01-31,吉道株式会社,,株式会社,東京都,板橋区,加賀１丁目９－１０,,13,119,1730003,,,,,,,2025-01-31,1,,,,,ヨシミチ,0
4271,3011801045543,新規,0,2025-01-31,2025-01-31,株式会社ＭＡＲＶＥＬ　ＮＥＸＴ,,株式会社,東京都,葛飾区,青戸４丁目２２番２２号,,13,122,1250062,,,,,,,2025-01-31,1,,,,,マーベルネクスト,0
4272,3011801045551,新規,0,2025-01-31,2025-01-31,株式会社都,,株式会社,東京都,葛飾区,東金町３丁目１７番１０号ＫＢＳ－Ｄ－１号,,13,122,1250041,,,,,,,2025-01-31,1,,,,,ミヤコ,0
4372,3012401042724,新規,0,2025-01-31,2025-01-31,株式会社スタジオｆｕ,,株式会社,東京都,武蔵野市,中町１丁目４番１号香月ビル２階,,13,203,1800006,,,,,,,2025-01-31,1,,,,,スタジオフゥ,0
4417,3013101009617,新規,0,2025-01-31,2025-01-31,アルファトラスト株式会社,,株式会社,東京都,羽村市,羽西１丁目１８番３３号,,13,227,2050017,,,,,,,2025-01-31,1,,,,,アルファトラスト,0
4543,3020001161035,新規,0,2025-01-31,2025-01-31,株式会社さくらなでしこ,,株式会社,神奈川県,横浜市西区,浅間町１丁目４番３号ウィザードビル４０２,,14,103,2200072,,,,,,,2025-01-31,1,,,,,サクラナデシコ,0
4544,3020001161043,新規,0,2025-01-31,2025-01-31,株式会社ＮＥＸＫＥＥＭ,,株式会社,神奈川県,横浜市港北区,大倉山７丁目２９番１６号,,14,109,2220037,,,,,,,2025-01-31,1,,,,,ネクスキーム,0
4545,3020001161068,新規,0,2025-01-31,2025-01-31,株式会社Ｂｌｕｅ　Ｂｅｌｌ,,株式会社,神奈川県,横浜市緑区,新治町６２３番地２,,14,113,2260017,,,,,,,2025-01-31,1,,,,,ブルーベル,0
4546,3020001161076,新規,0,2025-01-31,2025-01-31,株式会社ｔｒｉｐｌｅｔ,,株式会社,神奈川県,横浜市都筑区,仲町台１丁目３１番６号,,14,118,2240041,,,,,,,2025-01-31,1,,,,,トリプレット,0
4547,3020001161167,新規,0,2025-01-31,2025-01-31,株式会社グランドアドベンチャー,,株式会社,神奈川県,横浜市港北区,新横浜２丁目５番地１４ＷＩＳＥＮＥＸＴ新横浜３階,,14,109,2220033,,,,,,,2025-01-31,1,,,,,グランドアドベンチャー,0
4567,3030001164326,新規,0,2025-01-31,2025-01-31,Ｗ’ｍｓ株式会社,,株式会社,埼玉県,さいたま市北区,東大成町１丁目６５７番地６,,11,102,3310814,,,,,,,2025-01-31,1,,,,,ウィンミッション,0
4568,3030001164623,新規,0,2025-01-31,2025-01-31,株式会社朴東洋武道学院,,株式会社,埼玉県,戸田市,上戸田５丁目２３番５号,,11,224,3350022,,,,,,,2025-01-31,1,,,,,パクトウヨウブヨウガクイン,0
4584,3040003026721,新規,0,2025-01-31,2025-01-31,合同会社ＴＭＤ,,合同会社,千葉県,千葉市緑区,誉田町１丁目７５３番地２６サン・ウイングＣ２０１号,,12,105,2660005,,,,,,,2025-01-31,1,,,,,ティエムディ,0
4610,3120001272409,新規,0,2025-01-31,2025-01-31,Ｔ‐スタイリング株式会社,,株式会社,大阪府,大阪市北区,西天満３丁目１番２７号Ｍｅｂｉｕｓ西天満ビル５Ｆ,,27,127,5300047,,,,,,,2025-01-31,1,,,,,ティースタイリング,0
4611,3120001272417,新規,0,2025-01-31,2025-01-31,ＮＴＹ株式会社,,株式会社,大阪府,大阪市東住吉区,鷹合４丁目２１番１６号１Ｆ－Ｅ,,27,121,5460014,,,,,,,2025-01-31,1,,,,,エヌティーワイ,0
4612,3120001272441,新規,0,2025-01-31,2025-01-31,株式会社ＡＣＣ　ＪＰ,,株式会社,大阪府,大阪市中央区,東心斎橋１丁目８番１１号,,27,128,5420083,,,,,,,2025-01-31,1,,,,,エーシーシージェイピー,0
4613,3120001272490,新規,0,2025-01-31,2025-01-31,株式会社ＮＯＡ社マネジメント,,株式会社,大阪府,大阪市天王寺区,味原町１２番３号２階,,27,109,5430023,,,,,,,2025-01-31,1,,,,,ノアシャマネジメント,0
4621,3120101070984,新規,0,2025-01-31,2025-01-31,励行株式会社,,株式会社,大阪府,阪南市,箱作１１２２番地の１４,,27,232,5990232,,,,,,,2025-01-31,1,,,,,レイコウ,0
4622,3120103006251,新規,0,2025-01-31,2025-01-31,合名会社わたなべ,,合名会社,大阪府,貝塚市,二色４丁目１８番５号,,27,208,5970091,,,,,,,2025-01-31,1,,,,,ワタナベ,0
4623,3120903005527,新規,0,2025-01-31,2025-01-31,合同会社ヤットアーキテクツ,,合同会社,大阪府,吹田市,円山町２１番１５号,,27,205,5640061,,,,,,,2025-01-31,1,,,,,ヤットアーキテクツ,0
4624,3122001038847,新規,0,2025-01-31,2025-01-31,山崎実業スタジオ株式会社,,株式会社,大阪府,八尾市,福万寺町２丁目８１番地５,,27,212,5810842,,,,,,,2025-01-31,1,,,,,ヤマザキジツギョウスタジオ,0
4625,3122005003806,新規,0,2025-01-31,2025-01-31,医療法人米田歯科,,その他の設立登記法人,大阪府,東大阪市,吉田１丁目７番３６号小川ビル１階,,27,227,5780924,,,,,,,2025-01-31,1,,,,,ヨネダシカ,0
4631,3130001078862,新規,0,2025-01-31,2025-01-31,株式会社ｒｅｓｏｒｔ＆ｖｉｌｌａｇｅ,,株式会社,京都府,長岡京市,下海印寺伊賀寺２０番地１２３,,26,209,6170845,,,,,,,2025-01-31,1,,,,,リゾートアンドビレッジ,0
4632,3130001078904,新規,0,2025-01-31,2025-01-31,株式会社Ｇ・Ｇフォーム,,株式会社,京都府,八幡市,八幡園内５０番地６６,,26,210,6148038,,,,,,,2025-01-31,1,,,,,ジージーフォーム,0
4639,3140001063839,新規,0,2025-01-31,2025-01-31,富士燐寸販売株式会社,,株式会社,兵庫県,姫路市,白浜町丙１７１番地,,28,201,6728023,,,,,,,2025-01-31,1,,,,,フジマッチハンバイ,0
4642,3140001137279,新規,0,2025-01-31,2025-01-31,株式会社ＢＡＳＥ,,株式会社,兵庫県,西宮市,鷲林寺南町１３番１２号,,28,204,6620002,,,,,,,2025-01-31,1,,,,,ベイス,0
4644,3140003021588,新規,0,2025-01-31,2025-01-31,合同会社ＸＺ,,合同会社,兵庫県,神戸市中央区,三宮町３丁目６番１１号なかむらビル２Ｆ,,28,110,6500021,,,,,,,2025-01-31,1,,,,,エックスゼット,0
4649,3180001165276,新規,0,2025-01-31,2025-01-31,株式会社くらしい,,株式会社,愛知県,名古屋市守山区,茶臼前５番１０号,,23,113,4630012,,,,,,,2025-01-31,1,,,,,クラシイ,0
4655,3180003027920,新規,0,2025-01-31,2025-01-31,合同会社ＴＡＪＡＥＮ,,合同会社,愛知県,東海市,荒尾町寺下２９番地の１,,23,222,4760003,,,,,,,2025-01-31,1,,,,,タジャエン,0
4656,3180003027929,新規,0,2025-01-31,2025-01-31,合同会社Ｂｅｌｉｎｄａ,,合同会社,愛知県,名古屋市中村区,角割町２丁目４５番地の２,,23,105,4530852,,,,,,,2025-01-31,1,,,,,ベリンダ,0
4664,3220001026473,新規,0,2025-01-31,2025-01-31,黒崎産業株式会社,,株式会社,石川県,金沢市,湊３丁目６２番地,,17,201,9200211,,,,,,,2025-01-31,1,,,,,クロサキサンギョウ,0
4666,3220005008922,新規,0,2025-01-31,2025-01-31,一般社団法人Ｓｋｙ　Ｍｏｂｉｌｉｔｙ　ＪＡＰＡＮ,,その他の設立登記法人,石川県,珠洲市,飯田町９部９７－１,,17,205,9271214,,,,,,,2025-01-31,1,,,,,スカイモビリティジャパン,0
4681,3290001108736,新規,0,2025-01-31,2025-01-31,株式会社ｕｎｉｆｉｃａｔｉｏｎグループ,,株式会社,福岡県,福岡市東区,蒲田２丁目１８番１８号,,40,131,8130023,,,,,,,2025-01-31,1,,,,,ユニフィケーショングループ,0
4682,3290001108752,新規,0,2025-01-31,2025-01-31,株式会社ｙｅｌｌｏｗ　Ｍａｇｉｃ,,株式会社,福岡県,飯塚市,新立岩８番４０号,,40,205,8200004,,,,,,,2025-01-31,1,,,,,イエローマジック,0
4683,3290001108785,新規,0,2025-01-31,2025-01-31,株式会社Ｔｓｕｒｕｙａ,,株式会社,福岡県,福岡市城南区,樋井川３丁目３９番８号,,40,136,8140153,,,,,,,2025-01-31,1,,,,,ツルヤ,0
4684,3290001108793,新規,0,2025-01-31,2025-01-31,はちどりカンパニー株式会社,,株式会社,福岡県,福岡市南区,長住１丁目５番１３号,,40,134,8111362,,,,,,,2025-01-31,1,,,,,ハチドリカンパニー,0
4685,3290003016342,新規,0,2025-01-31,2025-01-31,Ｕ＆Ｉ　Ｄｅｓｉｇｎ　Ｐｒｏｊｅｃｔ合同会社,,合同会社,福岡県,福岡市早良区,賀茂３丁目２３番３号,,40,137,8140164,,,,,,,2025-01-31,1,,,,,ユーアンドアイデザインプロジェクト,0
4694,3330003010778,新規,0,2025-01-31,2025-01-31,合同会社いちごのきもち,,合同会社,熊本県,八代市,奈良木町３３９番地,,43,202,8660064,,,,,,,2025-01-31,1,,,,,イチゴノキモチ,0
4695,3330005010867,新規,0,2025-01-31,2025-01-31,一般社団法人てふてふ農園花工房,,その他の設立登記法人,熊本県,菊池市,泗水町永４３８５番地３,,43,210,8611204,,,,,,,2025-01-31,1,,,,,テフテフノウエンハナコウボウ,0
4865,3380001035062,新規,0,2025-01-31,2025-01-31,株式会社プランＡ,,株式会社,福島県,いわき市,小名浜字中坪１番地の１,,07,204,9718101,,,,,,,2025-01-31,1,,,,,プランエー,0
4872,3420001019003,新規,0,2025-01-31,2025-01-31,株式会社Ｋサポート,,株式会社,青森県,東津軽郡蓬田村,大字中沢字浪返４４番地１０,,02,304,0301214,,,,,,,2025-01-31,1,,,,,ケイサポート,0
4877,3430001093591,新規,0,2025-01-31,2025-01-31,株式会社ケーズプランニング,,株式会社,北海道,札幌市手稲区,前田九条一丁目８－１第３まるみ荘,,01,109,0060000,,,,,,,2025-01-31,1,,,,,ケーズプランニング,0
4878,3430001093600,新規,0,2025-01-31,2025-01-31,ＡＴＴＡ　ＴＲＡＤＩＮＧ株式会社,,株式会社,北海道,滝川市,江部乙町西１３丁目１５４２番地６,,01,225,0790462,,,,,,,2025-01-31,1,,,,,アタトレーディング,0
4886,3490001010954,新規,0,2025-01-31,2025-01-31,株式会社はかた,,株式会社,高知県,安芸郡安田町,３０１６番地,,39,304,7816400,,,,,,,2025-01-31,1,,,,,ハカタ,0
4888,3500001026123,新規,0,2025-01-31,2025-01-31,株式会社ＳＥＩＷＡ　ＨＯＬＤＩＮＧＳ,,株式会社,愛媛県,西条市,三芳１６９９番地５,,38,206,7991301,,,,,,,2025-01-31,1,,,,,セイワホールディングス,0
4890,3500003003426,新規,0,2025-01-31,2025-01-31,合同会社クレイソフト,,合同会社,愛媛県,松山市,立花３丁目１０番２号アルト立花３２号,,38,201,7900966,,,,,,,2025-01-31,1,,,,,クレイソフト,0
4891,3700150112967,新規,0,2025-01-31,2022-11-22,Ｋ’ｓ　ｐｒｏ．,,その他,東京都,新宿区,早稲田鶴巻町５３０ＲＢ２３０２,,13,104,1620041,,,,,,,2022-11-22,1,,,,,ケツズプロ,0
4892,3700150129045,新規,0,2025-01-31,2025-01-31,ＳＢ　Ｇｌｏｂａｌ　Ａｄｖｉｓｅｒｓ　Ｓｉｎｇａｐｏｒｅ　Ｐｔｅ．Ｌｔｄ．,,外国会社等,東京都,港区,海岸１丁目７番１号,,13,103,1050022,シンガポール、マーケットストリート１３８、キャピタグリーン＃２７－０１Ａ,,,,,,2025-01-31,1,,,,,エスビーグローバルアドバイザーズシンガポールプライベートリミテツド,0
5395,4010001251736,新規,0,2025-01-31,2025-01-31,株式会社イルムインターナショナル,,株式会社,東京都,中央区,銀座７丁目２番１６号ＴＨＥＣＩＴＹ銀座２階,,13,102,1040061,,,,,,,2025-01-31,1,,,,,イルムインターナショナル,0
5396,4010001251876,新規,0,2025-01-31,2025-01-31,暁達金属日本株式会社,,株式会社,東京都,中央区,新富２丁目１１番１１号,,13,102,1040041,,,,,,,2025-01-31,1,,,,,ギョウタツキンゾクニホン,0
5397,4010001251892,新規,0,2025-01-31,2025-01-31,株式会社キャリアデザインラボ,,株式会社,東京都,中央区,新川２丁目３－７浪商ビル４階,,13,102,1040033,,,,,,,2025-01-31,1,,,,,キャリアデザインラボ,0
5398,4010001251901,新規,0,2025-01-31,2025-01-31,株式会社ＬＩＢＥＲＯ＆Ｃｏ．,,株式会社,東京都,中央区,日本橋室町１丁目１１番１２号日本橋水野ビル７階,,13,102,1030022,,,,,,,2025-01-31,1,,,,,リベロアンドコー,0
5399,4010001251983,新規,0,2025-01-31,2025-01-31,株式会社クラウンアイ,,株式会社,東京都,千代田区,外神田３丁目９番１０号,,13,101,1010021,,,,,,,2025-01-31,1,,,,,クラウンアイ,0
5400,4010003046234,新規,0,2025-01-31,2025-01-31,合同会社オープンドア,,合同会社,東京都,千代田区,神田錦町１丁目４番地８,,13,101,1010054,,,,,,,2025-01-31,1,,,,,オープンドア,0
5401,4010003046250,新規,0,2025-01-31,2025-01-31,バウハウス合同会社４,,合同会社,東京都,千代田区,霞が関３丁目２番５号,,13,101,1000013,,,,,,,2025-01-31,1,,,,,バウハウスフォー,0
5402,4010003046259,新規,0,2025-01-31,2025-01-31,合同会社ＥＳグリーンフューチャーファンド１号,,合同会社,東京都,千代田区,紀尾井町４番１号ニューオータニガーデンコート１９階フィンポート税理士法人内,,13,101,1020094,,,,,,,2025-01-31,1,,,,,イーエスグリーンフューチャーファンドイチゴウ,0
5411,4010005039459,新規,0,2025-01-31,2025-01-31,行政書士法人一人親方組合,,その他の設立登記法人,東京都,中央区,日本橋小網町１７番１５号松尾ビル２階,,13,102,1030016,,,,,,,2025-01-31,1,,,,,ヒトリオヤカタクミアイ,0
5412,4010005039475,新規,0,2025-01-31,2025-01-31,特定非営利活動法人デジタルものづくり協議会,,その他の設立登記法人,東京都,文京区,千駄木２丁目１０番１７号清水荘１０２,,13,105,1130022,,,,,,,2025-01-31,1,,,,,デジタルモノヅクリキョウギカイ,0
5418,4010403034251,新規,0,2025-01-31,2025-01-31,合同会社Ｄｏｎｅｒａｉｌ,,合同会社,東京都,港区,虎ノ門１丁目１番１８号ヒューリック虎ノ門ビル９階Ｌ＆Ｐ司法書士法人内,,13,103,1050001,,,,,,,2025-01-31,1,,,,,ドーンレイル,0
5419,4010405024036,新規,0,2025-01-31,2025-01-31,一般社団法人Ｔｒａｍｉ,,その他の設立登記法人,東京都,港区,虎ノ門１丁目１番１８号ヒューリック虎ノ門ビル９階Ｌ＆Ｐ司法書士法人内,,13,103,1050001,,,,,,,2025-01-31,1,,,,,チャーミー,0
5542,4010601066699,新規,0,2025-01-31,2025-01-31,株式会社ＨＡＬｅＲＡ,,株式会社,東京都,墨田区,文花１丁目１８－１３,,13,107,1310044,,,,,,,2025-01-31,1,,,,,ハレラ,0
5552,4010703007551,新規,0,2025-01-31,2025-01-31,ＨＩＬＬＩＳＥ合同会社,,合同会社,東京都,品川区,大井３丁目９番９－８１３号,,13,109,1400014,,,,,,,2025-01-31,1,,,,,ヒリス,0
5556,4010901056755,新規,0,2025-01-31,2025-01-31,株式会社Ｎｅｓｔ　Ｐａｃｋ,,株式会社,東京都,世田谷区,弦巻２丁目３０番１号ＹＭＯ駒沢,,13,112,1540016,,,,,,,2025-01-31,1,,,,,ネストパック,0
5804,4011001167014,新規,0,2025-01-31,2025-01-31,株式会社ＷｈｉｔｅＢｏｘ,,株式会社,東京都,渋谷区,恵比寿４丁目２０番３号,,13,113,1500013,,,,,,,2025-01-31,1,,,,,ホワイトボックス,0
5805,4011001167162,新規,0,2025-01-31,2025-01-31,株式会社ＬａＭｕｓｅ,,株式会社,東京都,渋谷区,渋谷３丁目２７番１号,,13,113,1500002,,,,,,,2025-01-31,1,,,,,ラミューズ,0
5806,4011001167294,新規,0,2025-01-31,2025-01-31,株式会社ティーアール,,株式会社,東京都,目黒区,下目黒１丁目１番１４号コノトラビル７Ｆ,,13,110,1530064,,,,,,,2025-01-31,1,,,,,ティーアール,0
5812,4011003020880,新規,0,2025-01-31,2025-01-31,合同会社翠康,,合同会社,東京都,渋谷区,西原１丁目４５番１４号,,13,113,1510066,,,,,,,2025-01-31,1,,,,,スイコウ,0
5821,4011103015467,新規,0,2025-01-31,2025-01-31,合同会社Ｓａｃ‐Ｍａｎ　Ｌａｎｄ,,合同会社,東京都,新宿区,新宿６丁目２８番８号ラ・ベルティ新宿Ｂ２Ｆ,,13,104,1600022,,,,,,,2025-01-31,1,,,,,サックマンランド,0
5822,4011105011316,新規,0,2025-01-31,2025-01-31,一般社団法人ネクストライフ,,その他の設立登記法人,東京都,新宿区,西新宿１丁目２５番１号新宿センタービル３５階,,13,104,1600023,,,,,,,2025-01-31,1,,,,,ネクストライフ,0
5894,4011201026093,新規,0,2025-01-31,2025-01-31,東京率秀図新株式会社,,株式会社,東京都,中野区,東中野１丁目１５－１１,,13,114,1640003,,,,,,,2025-01-31,1,,,,,トウキョウリッシュウズシン,0
5908,4011603004589,新規,0,2025-01-31,2025-01-31,合同会社三栗ケア介護事務所,,合同会社,東京都,練馬区,田柄２丁目１４番６号,,13,120,1790073,,,,,,,2025-01-31,1,,,,,メグリケアカイゴジムショ,0
5976,4012403006940,新規,0,2025-01-31,2025-01-31,合同会社ＳＴＡＲＴＩＮＧ　ＬＩＮＥ,,合同会社,東京都,調布市,菊野台２丁目２９番地２,,13,208,1820007,,,,,,,2025-01-31,1,,,,,スターティングライン,0
5984,4012705002448,新規,0,2025-01-31,2025-01-31,特定非営利活動法人日本及びインド太平洋インフラ開発研究所,,その他の設立登記法人,東京都,東村山市,野口町２丁目２６番地４２,,13,213,1890022,,,,,,,2025-01-31,1,,,,,ニホンオヨビインドタイヘイヨウインフラカイハツケンキュウショ,0
6127,4020001161067,新規,0,2025-01-31,2025-01-31,株式会社ダンク,,株式会社,神奈川県,川崎市高津区,溝口２丁目１６番１１－１２０５号,,14,134,2130001,,,,,,,2025-01-31,1,,,,,ダンク,0
6130,4020003027646,新規,0,2025-01-31,2025-01-31,合同会社青空,,合同会社,神奈川県,横浜市神奈川区,西寺尾３丁目２８番３１号,,14,102,2210001,,,,,,,2025-01-31,1,,,,,アオゾラ,0
6152,4030005022025,新規,0,2025-01-31,2025-01-31,ＮＰＯ法人みらいけあ,,その他の設立登記法人,埼玉県,新座市,畑中２丁目８番５号,,11,230,3520012,,,,,,,2025-01-31,1,,,,,ミライケア,0
6155,4040001137197,新規,0,2025-01-31,2025-01-31,株式会社コンティニュー,,株式会社,千葉県,我孫子市,我孫子１丁目１５番１－４０３号,,12,222,2701166,,,,,,,2025-01-31,1,,,,,コンティニュー,0
6160,4040003026745,新規,0,2025-01-31,2025-01-31,合同会社Ｈｉｎｏａｋｅ,,合同会社,千葉県,茂原市,東茂原１５番地２３,,12,210,2970032,,,,,,,2025-01-31,1,,,,,ヒノアケ,0
6164,4050001056099,新規,0,2025-01-31,2025-01-31,株式会社英佑,,株式会社,茨城県,那珂郡東海村,東海１丁目７番５号,,08,341,3191117,,,,,,,2025-01-31,1,,,,,エイユウ,0
6165,4050001056108,新規,0,2025-01-31,2025-01-31,株式会社サンバースト,,株式会社,茨城県,水戸市,東野町６８５－１,,08,201,3100846,,,,,,,2025-01-31,1,,,,,サンバースト,0
6169,4050003008981,新規,0,2025-01-31,2025-01-31,ＨＡＳＮＡ　ＭＵＫＴＨＡＲ　ＭＯＴＯＲＳ合同会社,,合同会社,茨城県,下妻市,鎌庭２５１９番地アルエット２０２号室,,08,210,3040819,,,,,,,2025-01-31,1,,,,,ハスナムクタルモーターズ,0
6173,4080001026735,新規,0,2025-01-31,2025-01-31,ワールドパートナーズ株式会社,,株式会社,静岡県,静岡市葵区,千代２丁目９番３６号,,22,101,4211212,,,,,,,2025-01-31,1,,,,,ワールドパートナーズ,0
6191,4120001272341,新規,0,2025-01-31,2025-01-31,株式会社ＣＬＳ,,株式会社,大阪府,大阪市北区,中之島３丁目５番１１号２２０２号,,27,127,5300005,,,,,,,2025-01-31,1,,,,,シーエルエス,0
6192,4120001272366,新規,0,2025-01-31,2025-01-31,ＦＩＤ株式会社,,株式会社,大阪府,大阪市西区,江戸堀２丁目１番１号江戸堀センタービル９Ｆ,,27,106,5500002,,,,,,,2025-01-31,1,,,,,エフアイディ,0
6198,4120101070983,新規,0,2025-01-31,2025-01-31,株式会社ブリオエステート,,株式会社,大阪府,堺市南区,新檜尾台４－５３－２１,,27,145,5900100,,,,,,,2025-01-31,1,,,,,ブリオエステート,0
6205,4130001078886,新規,0,2025-01-31,2025-01-31,多宝株式会社,,株式会社,京都府,京都市中京区,西ノ京職司町６７－７６,,26,104,6048381,,,,,,,2025-01-31,1,,,,,タホウ,0
6208,4140001137237,新規,0,2025-01-31,2025-01-31,株式会社Ｔｓｕｔｓｕ　Ｕｒａｕｒａ,,株式会社,兵庫県,姫路市,飾磨区妻鹿１３８０,,28,201,6728031,,,,,,,2025-01-31,1,,,,,ツツウラウラ,0
6209,4140001137253,新規,0,2025-01-31,2025-01-31,ＲＭＳ株式会社,,株式会社,兵庫県,神戸市中央区,宮本通６丁目４番５号アバントコート春日野１０１,,28,110,6510063,,,,,,,2025-01-31,1,,,,,ラムズ,0
6213,4170005007128,新規,0,2025-01-31,2025-01-31,医療法人三笠会,,その他の設立登記法人,和歌山県,紀の川市,久留壁２１番２号,,30,208,6496418,,,,,,,2025-01-31,1,,,,,ミカサカイ,0
6218,4180001165267,新規,0,2025-01-31,2025-01-31,株式会社セカンドホームズ,,株式会社,愛知県,名古屋市名東区,亀の井１丁目１３５番地星ヶ丘ヒルズコート３０７号,,23,115,4650094,,,,,,,2025-01-31,1,,,,,セカンドホームズ,0
6230,4220001026472,新規,0,2025-01-31,2025-01-31,ウェルビア株式会社,,株式会社,石川県,白山市,西新町１１３３番地ポポロ松任３０５,,17,210,9240871,,,,,,,2025-01-31,1,,,,,ウェルビア,0
6237,4290001108751,新規,0,2025-01-31,2025-01-31,株式会社むなかた米あぐり,,株式会社,福岡県,宗像市,吉留１１６５番地,,40,220,8114153,,,,,,,2025-01-31,1,,,,,ムナカタマイアグリ,0
6238,4290003016283,新規,0,2025-01-31,2025-01-31,合同会社Ｕｐｓ　ａｎｄ　Ｄｏｗｎｓ,,合同会社,福岡県,筑紫野市,大字筑紫１８０９番地,,40,217,8180025,,,,,,,2025-01-31,1,,,,,アップスアンドダウンズ,0
6239,4300003002224,新規,0,2025-01-31,2025-01-31,合同会社ＫＮＤフード,,合同会社,佐賀県,佐賀市,高木瀬町長瀬１００９－１,,41,201,8490917,,,,,,,2025-01-31,1,,,,,ケーエヌディーフード,0
6247,4330003010769,新規,0,2025-01-31,2025-01-31,合同会社ユタカ林業,,合同会社,熊本県,人吉市,浪床町３０９３番地２,,43,203,8680045,,,,,,,2025-01-31,1,,,,,ユタカリンギョウ,0
6429,4390001017868,新規,0,2025-01-31,2025-01-31,株式会社慎愛商事,,株式会社,山形県,天童市,芳賀タウン北１丁目６番２１号,,06,210,9940082,,,,,,,2025-01-31,1,,,,,シンアイショウジ,0
6434,4420005007944,新規,0,2025-01-31,2025-01-31,一般社団法人愛和会,,その他の設立登記法人,青森県,青森市,緑３丁目９－２,,02,201,0300845,,,,,,,2025-01-31,1,,,,,アイワカイ,0
6436,4430001093566,新規,0,2025-01-31,2025-01-31,株式会社ＳＨ　ＨＯＫＫＡＩＤＯ,,株式会社,北海道,千歳市,朝日町５丁目１９－２１,,01,224,0660043,,,,,,,2025-01-31,1,,,,,スエイチホッカイドウ,0
6437,4430001093582,新規,0,2025-01-31,2025-01-31,株式会社５ＯＬＡ,,株式会社,北海道,札幌市白石区,平和通１７丁目北３番３２－１０２号,,01,104,0030029,,,,,,,2025-01-31,1,,,,,ソラ,0
6438,4430001093599,新規,0,2025-01-31,2025-01-31,株式会社スピリアート,,株式会社,北海道,札幌市豊平区,月寒西三条１０丁目２番５５－４０２号,,01,105,0620023,,,,,,,2025-01-31,1,,,,,スピリアート,0
6449,4450001014520,新規,0,2025-01-31,2025-01-31,株式会社リペアテクス,,株式会社,北海道,上川郡東川町,東町３丁目９番１７号,,01,458,0711423,,,,,,,2025-01-31,1,,,,,リペアテクス,0
6452,4470001020558,新規,0,2025-01-31,2025-01-31,株式会社Ｊヘルスケア高松,,株式会社,香川県,高松市,番町１丁目９番１０号,,37,201,7600017,,,,,,,2025-01-31,1,,,,,,0
6454,4500001026122,新規,0,2025-01-31,2025-01-31,株式会社ココロコネクト,,株式会社,愛媛県,八幡浜市,若山１－３３２－６,,38,204,7968035,,,,,,,2025-01-31,1,,,,,ココロコネクト,0
6455,4500003003425,新規,0,2025-01-31,2025-01-31,合同会社ＵＡＣ,,合同会社,愛媛県,四国中央市,寒川町４１７９番地１,,38,213,7990431,,,,,,,2025-01-31,1,,,,,ユーエーシー,0
6463,4700150129036,新規,0,2025-01-31,2025-01-31,ＮＡＳＨＡＤ　ＴＲＡＤＩＮＧ　ＩＮＴＥＲＮＡＴＩＯＮＡＬ　ＰＲＩＶＡＴＥ　ＬＩＭＩＴＥＤ,,外国会社等,神奈川県,厚木市,山際１－６オリエントハイツＮｏ－５－２０１,,14,212,2430803,スリランカ民主社会主義共和国、アクラナ、ブルガハテンナ、２４４／Ｃ番,,,,,,2025-01-31,1,,,,,ナシヤドトレーデイングインターナシヨナルプライベートリミテツド,0
6970,5010001251644,新規,0,2025-01-31,2025-01-31,ＪＩＴＳＵＧＥＮ　ＰＡＲＴＮＥＲＳ株式会社,,株式会社,東京都,中央区,銀座３丁目１４－１３第一厚生館ビル５Ｆ,,13,102,1040061,,,,,,,2025-01-31,1,,,,,ジツゲンパートナーズ,0
6971,5010001251685,新規,0,2025-01-31,2025-01-31,株式会社ドクターキュアセル,,株式会社,東京都,中央区,築地２丁目１２番８号大広ビル２階,,13,102,1040045,,,,,,,2025-01-31,1,,,,,ドクターキュアセル,0
6972,5010001251900,新規,0,2025-01-31,2025-01-31,天翔匠株式会社,,株式会社,東京都,中央区,銀座２丁目７番１７号,,13,102,1040061,,,,,,,2025-01-31,1,,,,,テンショウタクミ,0
6974,5010003046084,新規,0,2025-01-31,2025-01-31,合同会社ワンハンド,,合同会社,東京都,中央区,銀座１丁目１２－４Ｎ＆ＥＢＬＤ７階,,13,102,1040061,,,,,,,2025-01-31,1,,,,,ワンハンド,0
6975,5010003046241,新規,0,2025-01-31,2025-01-31,Ａ＆Ｌ　Ｏｆｆｉｃｅ合同会社,,合同会社,東京都,中央区,銀座１丁目１２－４Ｎ＆ＥＢＬＤ．７階,,13,102,1040061,,,,,,,2025-01-31,1,,,,,エーアンドエルオフィス,0
6976,5010003046258,新規,0,2025-01-31,2025-01-31,合同会社ＥＳグリーンエステート,,合同会社,東京都,千代田区,紀尾井町４番１号ニューオータニガーデンコート１９階フィンポート税理士法人内,,13,101,1020094,,,,,,,2025-01-31,1,,,,,イーエスグリーンエステート,0
6987,5010005039490,新規,0,2025-01-31,2025-01-31,熱海特定目的会社,,その他の設立登記法人,東京都,中央区,日本橋３丁目９番１号日本橋三丁目スクエア１１階,,13,102,1030027,,,,,,,2025-01-31,1,,,,,アタミ,0
6991,5010401187802,新規,0,2025-01-31,2025-01-31,Ｓａｒｋｉｔ株式会社,,株式会社,東京都,港区,赤坂９丁目７番２号ミッドタウン・イースト４階,,13,103,1070052,,,,,,,2025-01-31,1,,,,,サーキット,0
6996,5010501053565,新規,0,2025-01-31,2025-01-31,株式会社Ｑｕｉｎｔａ,,株式会社,東京都,台東区,今戸１丁目２－６,,13,106,1110024,,,,,,,2025-01-31,1,,,,,クインタ,0
7094,5010701047185,新規,0,2025-01-31,2025-01-31,株式会社ＷｅｂＨａｗｋＥｙｅ,,株式会社,東京都,品川区,西五反田１丁目２６番２号五反田サンハイツ９１１,,13,109,1410031,,,,,,,2025-01-31,1,,,,,ウェブホークアイ,0
7097,5010801035783,新規,0,2025-01-31,2025-01-31,株式会社こども未来創生総研,,株式会社,東京都,大田区,久が原１丁目１９番１７号,,13,111,1460085,,,,,,,2025-01-31,1,,,,,コドモミライソウセイソウケン,0
7100,5010901056762,新規,0,2025-01-31,2025-01-31,株式会社Ｒ，ｓ,,株式会社,東京都,世田谷区,祖師谷３丁目９番１０号,,13,112,1570072,,,,,,,2025-01-31,1,,,,,アールズ,0
7359,5011001167310,新規,0,2025-01-31,2025-01-31,株式会社Ｂｅｌｉｅｆ　Ｔｅｃｈ,,株式会社,東京都,渋谷区,渋谷１丁目１４－８,,13,113,1500002,,,,,,,2025-01-31,1,,,,,,0
7376,5011101110450,新規,0,2025-01-31,2025-01-31,株式会社ＣＯＭＰＡＳＳ,,株式会社,東京都,新宿区,西新宿５丁目５－１－３２１１,,13,104,1600023,,,,,,,2025-01-31,1,,,,,コンパス,0
7377,5011101110467,新規,0,2025-01-31,2025-01-31,＿寓株式会社,00137837,株式会社,東京都,新宿区,岩戸町１６－２メイジャー神楽坂９階,,13,104,1620832,,,,,,,2025-01-31,1,,,,,レイグウ,0
7379,5011103015466,新規,0,2025-01-31,2025-01-31,ふわりん合同会社,,合同会社,東京都,新宿区,西新宿３丁目３番１３号西新宿水間ビル６階,,13,104,1600023,,,,,,,2025-01-31,1,,,,,フワリン,0
7380,5011103015482,新規,0,2025-01-31,2025-01-31,合同会社Ｓｕｓｈｉ　Ｂａｒにぎりて,,合同会社,東京都,新宿区,西新宿７丁目９番１５号,,13,104,1600023,,,,,,,2025-01-31,1,,,,,スシバーニギリテ,0
7449,5011201026092,新規,0,2025-01-31,2025-01-31,株式会社イズユアーズ,,株式会社,東京都,中野区,本町４丁目２８－９－２１０,,13,114,1640012,,,,,,,2025-01-31,1,,,,,イズユアーズ,0
7454,5011501031643,新規,0,2025-01-31,2025-01-31,上汐設計株式会社,,株式会社,東京都,荒川区,町屋３丁目２４番２号面川ビル２１９号室,,13,118,1160001,,,,,,,2025-01-31,1,,,,,カミセキセッケイ,0
7455,5011703004109,新規,0,2025-01-31,2025-01-31,ＮＴＤ合同会社,,合同会社,東京都,江戸川区,宇喜田町１２４４番２,,13,123,1340082,,,,,,,2025-01-31,1,,,,,エヌティデ,0
7558,5012403006948,新規,0,2025-01-31,2025-01-31,ＴＨＩＲＤ　ＰＬＡＹＳ合同会社,,合同会社,東京都,多摩市,落合１丁目２０番地の１クロスウィル多摩センター２０８,,13,224,2060033,,,,,,,2025-01-31,1,,,,,サードプレイス,0
7667,5013301053719,新規,0,2025-01-31,2025-01-31,株式会社Ｇｏ‐Ｔｏ,,株式会社,東京都,豊島区,駒込２丁目３番１号,,13,116,1700003,,,,,,,2025-01-31,1,,,,,ゴートゥー,0
7702,5020001161264,新規,0,2025-01-31,2025-01-31,フィールドワーク株式会社,,株式会社,神奈川県,横浜市南区,唐沢３８－２０２,,14,105,2320034,,,,,,,2025-01-31,1,,,,,フィールドワーク,0
7703,5020001161272,新規,0,2025-01-31,2025-01-31,株式会社Ｎｅｏ　ａｓｓｅｔ,,株式会社,神奈川県,川崎市高津区,梶ケ谷６丁目７番地７,,14,134,2130015,,,,,,,2025-01-31,1,,,,,ネオアセット,0
7705,5020003027637,新規,0,2025-01-31,2025-01-31,グロースマイルラボラトリー合同会社,,合同会社,神奈川県,横浜市緑区,西八朔町７６１番地６１,,14,113,2260024,,,,,,,2025-01-31,1,,,,,グロースマイルラボラトリー,0
7706,5020003027653,新規,0,2025-01-31,2025-01-31,合同会社かなやさ,,合同会社,神奈川県,横浜市泉区,新橋町５９８－３,,14,116,2450009,,,,,,,2025-01-31,1,,,,,カナヤサ,0
7711,5021001084331,新規,0,2025-01-31,2025-01-31,株式会社増澤企画,,株式会社,神奈川県,鎌倉市,極楽寺１丁目１１番１９－１号,,14,204,2480023,,,,,,,2025-01-31,1,,,,,マスザワキカク,0
7725,5030001164662,新規,0,2025-01-31,2025-01-31,株式会社アシスト,,株式会社,埼玉県,さいたま市緑区,大字中尾２０８５番地８,,11,109,3360932,,,,,,,2025-01-31,1,,,,,アシスト,0
7736,5050001056081,新規,0,2025-01-31,2025-01-31,株式会社ＥＲＩＣＡ,,株式会社,茨城県,つくば市,学園の森３丁目１２番地１、１０３号,,08,220,3050816,,,,,,,2025-01-31,1,,,,,エリカ,0
7737,5050003008989,新規,0,2025-01-31,2025-01-31,合同会社服部プラント,,合同会社,茨城県,潮来市,水原２７３番地２号,,08,223,3112404,,,,,,,2025-01-31,1,,,,,ハットリプラント,0
7748,5080401027720,新規,0,2025-01-31,2025-01-31,株式会社ＩＫＫＹＯ,,株式会社,静岡県,浜松市中央区,田町３２３番地の２０プロスパービル田町２階,,22,138,4300944,,,,,,,2025-01-31,1,,,,,イッキョウ,0
7749,5080403005195,新規,0,2025-01-31,2025-01-31,合同会社ＩＲＩＳ,,合同会社,静岡県,掛川市,紺屋町６番地の１３,,22,213,4360055,,,,,,,2025-01-31,1,,,,,アイリス,0
7751,5100001038264,新規,0,2025-01-31,2025-01-31,株式会社５Ｌｅａｆ,,株式会社,長野県,北佐久郡立科町,大字茂田井７６３番地３,,20,324,3842211,,,,,,,2025-01-31,1,,,,,ファイブリーフ,0
7753,5100003007977,新規,0,2025-01-31,2025-01-31,合同会社ゴート,,合同会社,長野県,松本市,清水１丁目５番１３号フォーレスモコＢ１０２,,20,202,3900805,,,,,,,2025-01-31,1,,,,,ゴート,0
7763,5120001272464,新規,0,2025-01-31,2025-01-31,恒田株式会社,,株式会社,大阪府,大阪市住之江区,北加賀屋５丁目２－２４、４０１室,,27,125,5590011,,,,,,,2025-01-31,1,,,,,ツネダ,0
7769,5120003028518,新規,0,2025-01-31,2025-01-31,万花合同会社,,合同会社,大阪府,寝屋川市,国松町１番１１号,,27,215,5720016,,,,,,,2025-01-31,1,,,,,バンカ,0
7773,5120101070958,新規,0,2025-01-31,2025-01-31,株式会社ヴィシップ,,株式会社,大阪府,泉大津市,田中町５番２２－７０６号,,27,206,5950062,,,,,,,2025-01-31,1,,,,,ヴィシップ,0
7782,5130003010177,新規,0,2025-01-31,2025-01-31,合同会社Ｗａｂｉ　Ｓａｂｉ,,合同会社,京都府,京都市東山区,清水４丁目１７１番地１２Ｐ・Ｄ・Ｐメディカルビル４階,,26,105,6050862,,,,,,,2025-01-31,1,,,,,ワビサビ,0
7788,5140001137277,新規,0,2025-01-31,2025-01-31,株式会社オリジン,,株式会社,兵庫県,明石市,人丸町１番７１号グランシャリオ２０２号,,28,203,6730877,,,,,,,2025-01-31,1,,,,,オリジン,0
7789,5170001018466,新規,0,2025-01-31,2025-01-31,Ｍｉ＆Ｔ株式会社,,株式会社,和歌山県,和歌山市,ふじと台１２番地シャリエ和歌山大学前ヴェリテ３０７号,,30,201,6408454,,,,,,,2025-01-31,1,,,,,ミアット,0
7795,5180001165266,新規,0,2025-01-31,2025-01-31,株式会社愛信国際商事,,株式会社,愛知県,名古屋市熱田区,大宝１丁目１－１ヴェルクレート日比野Ａ棟１１６号１階,,23,109,4560062,,,,,,,2025-01-31,1,,,,,アイシンコクサイショウジ,0
7799,5180003027919,新規,0,2025-01-31,2025-01-31,合同会社ＵＳｅｅ,,合同会社,愛知県,名古屋市港区,港明２丁目４番２号ガーデンスクエア１０１,,23,111,4550018,,,,,,,2025-01-31,1,,,,,ユーシー,0
7800,5180003027943,新規,0,2025-01-31,2025-01-31,合同会社ファースト,,合同会社,愛知県,半田市,更生町１丁目１２１番地の５パークサイド知多半田３０２号,,23,205,4750856,,,,,,,2025-01-31,1,,,,,ファースト,0
7806,5220005008920,新規,0,2025-01-31,2025-01-31,一般社団法人国際人材雇用支援協会,,その他の設立登記法人,石川県,金沢市,鱗町９７番地１アトラスビル２階,,17,201,9200971,,,,,,,2025-01-31,1,,,,,コクサイジンザイコヨウシエンキョウカイ,0
7822,5290003016332,新規,0,2025-01-31,2025-01-31,合同会社花奏論,,合同会社,福岡県,糸島市,二丈深江７丁目１５番４０号,,40,230,8191601,,,,,,,2025-01-31,1,,,,,カナデロン,0
7833,5320001020919,新規,0,2025-01-31,2025-01-31,株式会社赤嶺,,株式会社,大分県,大分市,ふじが丘北２丁目１番１０号,,44,201,8701181,,,,,,,2025-01-31,1,,,,,アカミネ,0
7836,5330003010776,新規,0,2025-01-31,2025-01-31,合同会社アップヒル,,合同会社,熊本県,熊本市中央区,中央街１番１４号,,43,101,8600802,,,,,,,2025-01-31,1,,,,,アップヒル,0
7837,5340001027078,新規,0,2025-01-31,2025-01-31,株式会社小倉電設,,株式会社,鹿児島県,西之表市,西之表７７２４番地４－１０２,,46,213,8913101,,,,,,,2025-01-31,1,,,,,オグラデンセツ,0
8022,5460003001036,新規,0,2025-01-31,2025-01-31,合同会社Ｒｅ‐Ｂｏｒｎ　ｃｏ．,,合同会社,北海道,釧路市,芦野３丁目１６番６号,00137838,01,206,0850061,,,,,,,2025-01-31,1,,,,,リボーンカンパニー,0
8024,5460103001679,新規,0,2025-01-31,2025-01-31,合同会社ミサキＲＳ,,合同会社,北海道,帯広市,西一条南２７丁目１９番地１,,01,207,0800011,,,,,,,2025-01-31,1,,,,,ミサキアールエス,0
8029,5480001012735,新規,0,2025-01-31,2025-01-31,株式会社凩組,,株式会社,徳島県,徳島市,国府町和田字表１０番地の１フィットセルグリシーヌＤ棟,,36,201,7793121,,,,,,,2025-01-31,1,,,,,コガラシクミ,0
8032,5700150129035,新規,0,2025-01-31,2025-01-31,滝の口ファミリータウン自治会,,その他,千葉県,袖ケ浦市,滝の口３０６番地７０,,12,229,2990226,,,,,,,2025-01-31,1,,,,,タキノクチフアミリータウンジチカイ,0
8033,5700150129043,新規,0,2025-01-31,2025-01-31,ＡＧＨＡＮＩＭ，ＩＮＣ,,外国会社等,,,,,,,,２５４　Ｃｈａｐｍａｎ　Ｒｄ，Ｓｔｅ　２０９，Ｎｅｗａｒｋ，Ｄｅｌａｗａｒｅ　１９７０２，ＵＳＡ,,,,,,2025-01-31,1,,,,,アグハニムインク,0
8034,5700150129051,新規,0,2025-01-31,2025-01-31,ＣＯＷＩ　ＡＳ,,外国会社等,東京都,港区,新橋６丁目１３番１０号　ＰＭＯ新橋７階,,13,103,1050004,デンマーク王国コンゲンス・リュンビュー２８００、パラレルヴァイ２,,,,,,2025-01-31,1,,,,,コーウイーエーエス,0
8540,6010001251593,新規,0,2025-01-31,2025-01-31,ライオンイノベーショングループ株式会社,,株式会社,東京都,文京区,白山１丁目６番４－２３３,,13,105,1130001,,,,,,,2025-01-31,1,,,,,ライオンイノベーショングループ,0
8541,6010001251882,新規,0,2025-01-31,2025-01-31,安達バイオテクノロジー株式会社,,株式会社,東京都,文京区,千石４丁目１４番９号,,13,105,1120011,,,,,,,2025-01-31,1,,,,,アダチバイオテクノロジー,0
8544,6010003046240,新規,0,2025-01-31,2025-01-31,Ｆｏｒｔｅ　Ｐａｌｌｅｔ合同会社,,合同会社,東京都,中央区,日本橋室町１丁目１１番１２号日本橋水野ビル７階,,13,102,1030022,,,,,,,2025-01-31,1,,,,,フォルテパレット,0
8545,6010003046249,新規,0,2025-01-31,2025-01-31,パーシモン企画合同会社,,合同会社,東京都,中央区,日本橋兜町１７－２兜町第６葉山ビル４Ｆ,,13,102,1030026,,,,,,,2025-01-31,1,,,,,パーシモンキカク,0
8564,6010401187982,新規,0,2025-01-31,2025-01-31,キッテン・プロダクション株式会社,,株式会社,東京都,港区,南青山３丁目９番５号,,13,103,1070062,,,,,,,2025-01-31,1,,,,,キッテンプロダクション,0
8565,6010401188015,新規,0,2025-01-31,2025-01-31,ＣＯＭＩＴＡＳ株式会社,,株式会社,東京都,港区,北青山１丁目３－１アールキューブ青山３階,,13,103,1070061,,,,,,,2025-01-31,1,,,,,コミタス,0
8567,6010403034290,新規,0,2025-01-31,2025-01-31,合同会社ＡＧＥＮＴ　Ｃ,,合同会社,東京都,港区,東麻布２丁目２６番３号第２小林ビル５階,,13,103,1060044,,,,,,,2025-01-31,1,,,,,エージェントシー,0
8568,6010405024042,新規,0,2025-01-31,2025-01-31,税理士法人青山鈴木事務所,,その他の設立登記法人,東京都,港区,南青山２丁目１４番１４号,,13,103,1070062,,,,,,,2025-01-31,1,,,,,アオヤマスズキジムショ,0
8727,6010901056761,新規,0,2025-01-31,2025-01-31,株式会社Ｇｏｏｄ　Ｓｏｎｇｓ,,株式会社,東京都,世田谷区,瀬田５丁目９番３号,,13,112,1580095,,,,,,,2025-01-31,1,,,,,グッドソングス,0
9007,6011001166963,新規,0,2025-01-31,2025-01-31,株式会社二期管理,,株式会社,東京都,渋谷区,神宮前５丁目２番１８号,,13,113,1500001,,,,,,,2025-01-31,1,,,,,ニキカンリ,0
9008,6011001167466,新規,0,2025-01-31,2025-01-31,株式会社ハッココーポレーション,,株式会社,東京都,渋谷区,松濤１丁目１７番３号,,13,113,1500046,,,,,,,2025-01-31,1,,,,,ハッココーポレーション,0
9027,6011101110441,新規,0,2025-01-31,2025-01-31,株式会社ＣｏｄｅＰｌｕｓ,,株式会社,東京都,新宿区,西新宿１丁目２６番２号,,13,104,1600023,,,,,,,2025-01-31,1,,,,,コードプラス,0
9028,6011101110466,新規,0,2025-01-31,2025-01-31,百花園株式会社,,株式会社,東京都,新宿区,大京町１２番地６７号１０１室Ｍ－グレイス６,,13,104,1600015,,,,,,,2025-01-31,1,,,,,ヒャッカエン,0
9029,6011101110474,新規,0,2025-01-31,2025-01-31,君悦株式会社,,株式会社,東京都,新宿区,早稲田鶴巻町５０８番地５,,13,104,1620041,,,,,,,2025-01-31,1,,,,,キミエツ,0
9030,6011103015457,新規,0,2025-01-31,2025-01-31,エンフィリ合同会社,,合同会社,東京都,新宿区,弁天町１４３番地アイ・シティ１０２,,13,104,1620851,,,,,,,2025-01-31,1,,,,,エンフィリ,0
9031,6011103015481,新規,0,2025-01-31,2025-01-31,ＳｔｅｐＯｕｔ合同会社,,合同会社,東京都,新宿区,山吹町２６１,,13,104,1620801,,,,,,,2025-01-31,1,,,,,ステップアウト,0
9106,6011501031650,新規,0,2025-01-31,2025-01-31,加和源株式会社,,株式会社,東京都,荒川区,東尾久２丁目２番９号三祥ビル２４８,,13,118,1160012,,,,,,,2025-01-31,1,,,,,カワゲン,0
9108,6011503006403,新規,0,2025-01-31,2025-01-31,海ｇｏｏｄ合同会社,,合同会社,東京都,荒川区,東尾久３丁目９番１４号,,13,118,1160012,,,,,,,2025-01-31,1,,,,,ウミグッド,0
9113,6011801045549,新規,0,2025-01-31,2025-01-31,株式会社原田電業,,株式会社,東京都,葛飾区,高砂６丁目５番２４号ベルフルール矢作１０５号,,13,122,1250054,,,,,,,2025-01-31,1,,,,,ハラダデンギョウ,0
9114,6011801045557,新規,0,2025-01-31,2025-01-31,謙和株式会社,,株式会社,東京都,葛飾区,新小岩１丁目１６－１８パルデンス藤井２０２号,,13,122,1240024,,,,,,,2025-01-31,1,,,,,ケンワ,0
9115,6011803006664,新規,0,2025-01-31,2025-01-31,ＭＹＯ　ＥＶＥＮＴＳ合同会社,,合同会社,東京都,足立区,小台１丁目１８番８号,,13,121,1200046,,,,,,,2025-01-31,1,,,,,エムワイオーイベント,0
9220,6012401042721,新規,0,2025-01-31,2025-01-31,株式会社ＴＡＲＯＫＯ,,株式会社,東京都,調布市,入間町１丁目３５番８５号リュネラパン２０１号,,13,208,1820004,,,,,,,2025-01-31,1,,,,,タロコ,0
9229,6012701018685,新規,0,2025-01-31,2025-01-31,株式会社Ｋ・Ｃ,,株式会社,東京都,東村山市,秋津町５丁目２１番地１－１０２号室,,13,213,1890001,,,,,,,2025-01-31,1,,,,,ケーシー,0
9311,6013301053718,新規,0,2025-01-31,2025-01-31,納＿株式会社,00137843,株式会社,東京都,豊島区,池袋本町１丁目１番１１号三田池袋北コーポ３０４,,13,116,1700011,,,,,,,2025-01-31,1,,,,,ノウキン,0
9348,6020001161049,新規,0,2025-01-31,2025-01-31,株式会社かわさきＤａｉｓｈｉ引越センター,,株式会社,神奈川県,川崎市川崎区,東門前１丁目１０番６‐２号,,14,131,2100812,,,,,,,2025-01-31,1,,,,,カワサキダイシヒッコシセンター,0
9349,6020001161065,新規,0,2025-01-31,2025-01-31,株式会社ＳＨＵ,,株式会社,神奈川県,横浜市中区,元町３丁目１４５－３－５０３,,14,104,2310861,,,,,,,2025-01-31,1,,,,,シュウ,0
9351,6020003027652,新規,0,2025-01-31,2025-01-31,合同会社大沼農園,,合同会社,神奈川県,横浜市泉区,和泉町２７８ー２,,14,116,2450016,,,,,,,2025-01-31,1,,,,,オオヌマノウエン,0
9352,6020005016694,新規,0,2025-01-31,2025-01-31,一般社団法人Ｖｅｒｉｔａｓ,,その他の設立登記法人,神奈川県,横浜市港南区,港南台４丁目３番４号グレース丸幸港南台ビル１Ｆ,,14,111,2340054,,,,,,,2025-01-31,1,,,,,ヴェリタス,0
9353,6020005016703,新規,0,2025-01-31,2025-01-31,一般社団法人共樹会,,その他の設立登記法人,神奈川県,横浜市港北区,新横浜２丁目２番地１５,,14,109,2220033,,,,,,,2025-01-31,1,,,,,キョウジュカイ,0
9370,6040001137212,新規,0,2025-01-31,2025-01-31,株式会社ＮｅｔＦｌａｎｋｅｒ,,株式会社,千葉県,八街市,八街ほ１３７番地１００,,12,230,2891115,,,,,,,2025-01-31,1,,,,,ネットフランカー,0
9371,6040001137237,新規,0,2025-01-31,2025-01-31,株式会社えびす,,株式会社,千葉県,船橋市,藤原７丁目１番１棟１０３号,,12,204,2730047,,,,,,,2025-01-31,1,,,,,エビス,0
9373,6050001056106,新規,0,2025-01-31,2025-01-31,あいざわ農産株式会社,,株式会社,茨城県,那珂市,門部１７００番地,,08,226,3110136,,,,,,,2025-01-31,1,,,,,アイザワノウサン,0
9383,6100005013287,新規,0,2025-01-31,2025-01-31,社会保険労務士法人レガート,,その他の設立登記法人,長野県,松本市,中央１丁目７番２３号丸山ビル１階,,20,202,3900811,,,,,,,2025-01-31,1,,,,,レガート,0
9384,6110003005649,新規,0,2025-01-31,2025-01-31,合同会社ＧＲＥＡＴＴＲＥＡＳＵＲＥ,,合同会社,新潟県,上越市,石橋２丁目５番３６号,,15,222,9420074,,,,,,,2025-01-31,1,,,,,グレートトレジャー,0
9400,6120001272406,新規,0,2025-01-31,2025-01-31,抹小茶スタジオ株式会社,,株式会社,大阪府,大阪市淀川区,西中島７丁目１－３チサンマンション第８新大阪１１０７号,,27,123,5320011,,,,,,,2025-01-31,1,,,,,マッショウチャスタジオ,0
9402,6120101070957,新規,0,2025-01-31,2025-01-31,株式会社ＷＡＲＰ　Ｉｎｎｏｖａｔｉｏｎ　Ｈｏｌｄｉｎｇｓ,,株式会社,大阪府,堺市東区,北野田４８２番地１,,27,143,5998123,,,,,,,2025-01-31,1,,,,,ワープイノベーションホールディングス,0
9404,6122001038844,新規,0,2025-01-31,2025-01-31,株式会社アルファソリューション,,株式会社,大阪府,八尾市,南木の本９丁目２－１,,27,212,5810042,,,,,,,2025-01-31,1,,,,,アルファソリューション,0
9413,6140001136798,新規,0,2025-01-31,2025-01-31,キュウホウ株式会社,,株式会社,兵庫県,尼崎市,東難波町３丁目２１番６号－３Ｆ,,28,202,6600892,,,,,,,2025-01-31,1,,,,,キュウホウ,0
9416,6140003021528,新規,0,2025-01-31,2025-01-31,合同会社Ｆａｍｒｓ,,合同会社,兵庫県,赤穂郡上郡町,宇治山５番地２,,28,481,6781218,,,,,,,2025-01-31,1,,,,,ファムリス,0
9417,6140003021593,新規,0,2025-01-31,2025-01-31,シェーンプロパティーズジャパン合同会社,,合同会社,兵庫県,西宮市,高松町１０番１４－２号,,28,204,6638204,,,,,,,2025-01-31,1,,,,,シェーンプロパティーズジャパン,0
9418,6140003021602,新規,0,2025-01-31,2025-01-31,ＭＩＫＡ合同会社,,合同会社,兵庫県,姫路市,野里中町４－３４,,28,201,6700864,,,,,,,2025-01-31,1,,,,,ミカ,0
9428,6180001165265,新規,0,2025-01-31,2025-01-31,株式会社輝栄,,株式会社,愛知県,名古屋市中川区,八田町４０９,,23,110,4540877,,,,,,,2025-01-31,1,,,,,キエイ,0
9432,6180003027934,新規,0,2025-01-31,2025-01-31,Ｙ２‐ｔｏ‐ｗｉｎ合同会社,,合同会社,愛知県,名古屋市中村区,名駅４丁目２４番５号第２森ビル４０１,,23,105,4500002,,,,,,,2025-01-31,1,,,,,ワイツートゥウィン,0
9437,6200001043393,新規,0,2025-01-31,2025-01-31,ＷＩＬＬ’Ｓ株式会社,,株式会社,岐阜県,岐阜市,大学北２丁目１０３番地,,21,201,5011111,,,,,,,2025-01-31,1,,,,,ウィルス,0
9438,6200001043402,新規,0,2025-01-31,2025-01-31,株式会社Ｓｈｅｐｈｅｒｄ,,株式会社,岐阜県,可児市,土田１７５９番地１１１,,21,214,5090206,,,,,,,2025-01-31,1,,,,,シェパード,0
9445,6240001064460,新規,0,2025-01-31,2025-01-31,株式会社ｙ　ｋ　ｃｏｎｎｅｃｔ,,株式会社,広島県,呉市,安浦町中央北２丁目５番１８号,,34,202,7372515,,,,,,,2025-01-31,1,,,,,ワイケーコネクト,0
9455,6300001014070,新規,0,2025-01-31,2025-01-31,株式会社コマサ,,株式会社,佐賀県,唐津市,東城内４番４６号,,41,202,8470016,,,,,,,2025-01-31,1,,,,,コマサ,0
9458,6310001019432,新規,0,2025-01-31,2025-01-31,株式会社ＳＭＩＬＥ,,株式会社,長崎県,佐世保市,相浦町３２番地２８,,42,202,8580918,,,,,,,2025-01-31,1,,,,,スマイル,0
9468,6360001034732,新規,0,2025-01-31,2025-01-31,株式会社ハウオリリヴレ沖縄,,株式会社,沖縄県,浦添市,前田４丁目５番９号,,47,208,9012102,,,,,,,2025-01-31,1,,,,,ハウオリリヴレオキナワ,0
9673,6380003005944,新規,0,2025-01-31,2025-01-31,古物屋ＧＫＩ合同会社,,合同会社,福島県,大沼郡会津美里町,字新町１５４番地,,07,447,9696115,,,,,,,2025-01-31,1,,,,,コブツヤジーケイアイ,0
9675,6390001017866,新規,0,2025-01-31,2025-01-31,株式会社カウンセリングワークス,,株式会社,山形県,山形市,飯田３丁目２－２２つなぐガーデン２Ｆ,,06,201,9902332,,,,,,,2025-01-31,1,,,,,カウンセリングワークス,0
9682,6430001093589,新規,0,2025-01-31,2025-01-31,株式会社Ｒｉｒａｒｙ,,株式会社,北海道,千歳市,文京６丁目９番地の３,,01,224,0660052,,,,,,,2025-01-31,1,,,,,リラリー,0
9691,6490001010951,新規,0,2025-01-31,2025-01-31,株式会社ｎｅｋｏｎｏｔｅＡｒｔＷｏｒｋｓ,,株式会社,高知県,幡多郡黒潮町,入野２９２番地１５,,39,428,7891931,,,,,,,2025-01-31,1,,,,,ネコノテアートワークス,0
9695,6700150129042,新規,0,2025-01-31,2025-01-31,Ｍｏｕｎｔ　Ｙｏｔｅｉ　Ｉｎｖｅｓｔｍｅｎｔ　Ｌｉｍｉｔｅｄ,,外国会社等,,,,,,,,中華人民共和国、香港特別行政区、ハッピーバレー、ブロードウッドロード６、ビバリーヒル、ブロックＪ、フラット２、１５階,,,,,,2025-01-31,1,,,,,マウントヨウテイインベストメント,0
9696,6700150129050,新規,0,2025-01-31,2025-01-31,Ｆ．Ｒ．Ｔ．ＥＮＴＥＲＰＲＩＳＥＳ,,外国会社等,千葉県,東金市,極楽寺５３８番地９ビジネスオフィス３号,,12,213,2830835,スリランカ民主社会主義共和国、ケビティゴッラワ、ムスリムアッタウィーラウェワ,,,,,,2025-01-31,1,,,,,エフアールテイエンタープライズ,0
10194,7010001251881,新規,0,2025-01-31,2025-01-31,ＶＫ　ｃａｒｅ株式会社,,株式会社,東京都,文京区,千石４丁目１４番９号,,13,105,1120011,,,,,,,2025-01-31,1,,,,,ヴィケーケア,0
10196,7010003046231,新規,0,2025-01-31,2025-01-31,合同会社マンホ,,合同会社,東京都,千代田区,神田和泉町１番６－１６ヤマトビル４０５,,13,101,1010024,,,,,,,2025-01-31,1,,,,,マンホ,0
10203,7010005039497,新規,0,2025-01-31,2025-01-31,トリピックル特定目的会社,,その他の設立登記法人,東京都,千代田区,丸の内１丁目４番１号東京共同会計事務所内,,13,101,1000005,,,,,,,2025-01-31,1,,,,,トリピックル,0
10215,7010401187899,新規,0,2025-01-31,2025-01-31,株式会社Ｍｅｉｓｔｅｒ　Ｎａｖｉ,,株式会社,東京都,港区,赤坂９丁目１番７号,,13,103,1070052,,,,,,,2025-01-31,1,,,,,マイスターナビ,0
10216,7010402004087,新規,0,2025-01-31,2025-01-31,有限会社ギャラクシー,,有限会社,東京都,港区,麻布十番１丁目５番１２号,,13,103,1060045,,,,,,,2025-01-31,1,,,,,,0
10221,7010501053539,新規,0,2025-01-31,2025-01-31,株式会社アポロ,,株式会社,東京都,台東区,浅草橋２丁目２５番７号長島エレガンスビル１階,,13,106,1110053,,,,,,,2025-01-31,1,,,,,アポロ,0
10343,7010601066705,新規,0,2025-01-31,2025-01-31,株式会社ハウスワランティ,,株式会社,東京都,墨田区,両国３丁目２５番５号ＪＥＩ両国ビル１１階,,13,107,1300026,,,,,,,2025-01-31,1,,,,,ハウスワランティ,0
10362,7010901056752,新規,0,2025-01-31,2025-01-31,株式会社Ｙ４キャピタル,,株式会社,東京都,世田谷区,桜上水５丁目９番４号,,13,112,1560045,,,,,,,2025-01-31,1,,,,,ワイフォーキャピタル,0
10623,7011003020688,新規,0,2025-01-31,2025-01-31,合同会社ＦＲＥＥ,,合同会社,東京都,渋谷区,円山町２５番５号プレール渋谷壱番館２０２,,13,113,1500044,,,,,,,2025-01-31,1,,,,,フリー,0
10630,7011101110457,新規,0,2025-01-31,2025-01-31,株式会社カーヘルパー・サービス,,株式会社,東京都,新宿区,西落合４丁目１番７号,,13,104,1610031,,,,,,,2025-01-31,1,,,,,カーヘルパーサービス,0
10707,7011501031641,新規,0,2025-01-31,2025-01-31,株式会社ＡＷＡＫＥ,,株式会社,東京都,荒川区,西尾久７丁目１番９号,,13,118,1160011,,,,,,,2025-01-31,1,,,,,アウェイク,0
10710,7011601028397,新規,0,2025-01-31,2025-01-31,株式会社ナノセカンド,,株式会社,東京都,練馬区,練馬１丁目２９番１５サンハウスユアサ２０３号,,13,120,1760001,,,,,,,2025-01-31,1,,,,,ナノセカンド,0
10712,7011703004107,新規,0,2025-01-31,2025-01-31,ルメア合同会社,,合同会社,東京都,江戸川区,東葛西５丁目４２番８号,,13,123,1340084,,,,,,,2025-01-31,1,,,,,ルメア,0
10714,7011801045564,新規,0,2025-01-31,2025-01-31,南山株式会社,,株式会社,東京都,葛飾区,堀切４丁目１９番１３－４０２号アンビシャス堀切菖蒲園,,13,122,1240006,,,,,,,2025-01-31,1,,,,,ナンザン,0
10805,7012401042720,新規,0,2025-01-31,2025-01-31,株式会社Ｓ＆Ｃ,,株式会社,東京都,武蔵野市,吉祥寺北町１丁目１番１号桜井ビル２階,,13,203,1800001,,,,,,,2025-01-31,1,,,,,エスアンドシー,0
10811,7012403006946,新規,0,2025-01-31,2025-01-31,合同会社Ｌａｕｇｈ　ｔａｌｅ,,合同会社,東京都,武蔵野市,吉祥寺東町２丁目３３番２０号１０１,,13,203,1800002,,,,,,,2025-01-31,1,,,,,ラフテル,0
10921,7013301053717,新規,0,2025-01-31,2025-01-31,湖州通発株式会社,,株式会社,東京都,豊島区,南大塚２丁目３８番１号リードシー大塚ビル,,13,116,1700005,,,,,,,2025-01-31,1,,,,,コシュウツウハツ,0
10922,7013303007522,新規,0,2025-01-31,2025-01-31,合同会社Ｇｒｅｖｏ,,合同会社,東京都,豊島区,千早１丁目２０－１８－１４０１,,13,116,1710044,,,,,,,2025-01-31,1,,,,,グレーボ,0
10951,7020001161072,新規,0,2025-01-31,2025-01-31,株式会社横浜山手知財コンサルティング,,株式会社,神奈川県,横浜市中区,山手町１０１番地オープンレジデンシア山手１０１弐番館１０３号室,,14,104,2310862,,,,,,,2025-01-31,1,,,,,ヨコハマヤマテチザイコンサルティング,0
10952,7020001161270,新規,0,2025-01-31,2025-01-31,泉松株式会社,,株式会社,神奈川県,横浜市青葉区,美しが丘２丁目５５番地１３,,14,117,2250002,,,,,,,2025-01-31,1,,,,,センマツ,0
10953,7020003027651,新規,0,2025-01-31,2025-01-31,合同会社浜家不動産,,合同会社,神奈川県,横浜市緑区,寺山町１１０－２８,,14,113,2260013,,,,,,,2025-01-31,1,,,,,ハマヤフドウサン,0
10954,7021001084362,新規,0,2025-01-31,2025-01-31,株式会社ダブルアール,,株式会社,神奈川県,相模原市南区,相南４丁目３番９号ー１０３,,14,153,2520312,,,,,,,2025-01-31,1,,,,,ダブルアール,0
10973,7030003025968,新規,0,2025-01-31,2025-01-31,トモニー合同会社,,合同会社,埼玉県,さいたま市南区,四谷１丁目５番１８号,,11,108,3360032,,,,,,,2025-01-31,1,,,,,トモニー,0
10984,7040003026759,新規,0,2025-01-31,2025-01-31,ＬＭＴ合同会社,,合同会社,千葉県,松戸市,本町１７番１１号芹澤ビル６階,,12,207,2710091,,,,,,,2025-01-31,1,,,,,エルエムティ,0
10985,7050001056121,新規,0,2025-01-31,2025-01-31,株式会社どえらザウルス,,株式会社,茨城県,つくば市,谷田部１１７５番（陣場Ｇ２２街区４）,,08,220,3050861,,,,,,,2025-01-31,1,,,,,ドエラザウルス,0
10991,7050003008987,新規,0,2025-01-31,2025-01-31,合同会社ＢＡＫＥＳ　Ｎ　ＣＡＫＥＳ,,合同会社,茨城県,龍ケ崎市,出し山町１１６番地２ロイヤル・コート出し山１０３号室,,08,208,3010839,,,,,,,2025-01-31,1,,,,,ベイクスエヌケイクス,0
10995,7060005010288,新規,0,2025-01-31,2025-01-31,農事組合法人ＫＤ４,,その他の設立登記法人,栃木県,宇都宮市,双葉２丁目１０－９コーポツバサ２０１,,09,201,3210164,,,,,,,2025-01-31,1,,,,,ケーディヨン,0
11003,7080401027719,新規,0,2025-01-31,2025-01-31,株式会社ＩＴＳグローバル,,株式会社,静岡県,浜松市中央区,千歳町９１番地の１,,22,138,4300934,,,,,,,2025-01-31,1,,,,,アイティエスグローバル,0
11005,7100003007934,新規,0,2025-01-31,2025-01-31,合同会社Ｇｒａｉｎｅ　Ｐｒｏｄｕｃｔｉｏｎ,,合同会社,長野県,佐久市,平塚２５０－１,,20,217,3850024,,,,,,,2025-01-31,1,,,,,グレーヌプロダクション,0
11020,7120001272371,新規,0,2025-01-31,2025-01-31,森田株式会社,,株式会社,大阪府,大阪市生野区,中川西２丁目１７番２０号,,27,116,5440032,,,,,,,2025-01-31,1,,,,,モリタ,0
11021,7120001272388,新規,0,2025-01-31,2025-01-31,桜和株式会社,,株式会社,大阪府,大阪市天王寺区,伶人町２－３１ＳｔａｒＯｆｆｉｃｅ大阪天王寺北５０９号室,,27,109,5430061,,,,,,,2025-01-31,1,,,,,オウワ,0
11022,7120001272438,新規,0,2025-01-31,2025-01-31,株式会社ＢＩＴＯＫＵ,,株式会社,大阪府,大阪市福島区,吉野１丁目１０番２０－２０１号,,27,103,5530006,,,,,,,2025-01-31,1,,,,,ビトク,0
11025,7120003028516,新規,0,2025-01-31,2025-01-31,合同会社土井商店,,合同会社,大阪府,大阪市西成区,北津守４丁目４番５１号,,27,122,5570061,,,,,,,2025-01-31,1,,,,,ドイショウテン,0
11036,7122001038851,新規,0,2025-01-31,2025-01-31,株式会社モリハラ,,株式会社,大阪府,東大阪市,加納４丁目１４番２号,,27,227,5780901,,,,,,,2025-01-31,1,,,,,モリハラ,0
11043,7130001078867,新規,0,2025-01-31,2025-01-31,Ａｎｄｐｌｕｓ株式会社,,株式会社,京都府,京都市下京区,朱雀宝蔵町４４番地協栄ビル２階京都朱雀スタジオ,,26,106,6008846,,,,,,,2025-01-31,1,,,,,アンドプラス,0
11044,7130003010175,新規,0,2025-01-31,2025-01-31,合同会社Ｎ　Ｃｏｍｍｕｎｉｃａｔｉｏｎｓ,,合同会社,京都府,京都市下京区,東洞院五条下ル和泉町５２９,,26,106,6000000,,,,,,,2025-01-31,1,,,,,エヌコミュニケーションズ,0
11046,7140001137275,新規,0,2025-01-31,2025-01-31,株式会社一期一家,,株式会社,兵庫県,西宮市,甲子園浦風町１０番２５号,,28,204,6638165,,,,,,,2025-01-31,1,,,,,イチゴイチエ,0
11047,7140001137283,新規,0,2025-01-31,2025-01-31,アイリプロパティ株式会社,,株式会社,兵庫県,西宮市,芦原町４番１９号,00137854,28,204,6620842,,,,,,,2025-01-31,1,,,,,アイリプロパティ,0
11051,7160001026518,新規,0,2025-01-31,2025-01-31,株式会社ＰＲＳ長浜,,株式会社,滋賀県,長浜市,港町４番１７号,,25,203,5260067,,,,,,,2025-01-31,1,,,,,ピーアールエスナガハマ,0
11052,7170001018472,新規,0,2025-01-31,2025-01-31,株式会社Ｎ＆Ｉホース,,株式会社,和歌山県,橋本市,賢堂１１１４番地の１,,30,203,6480037,,,,,,,2025-01-31,1,,,,,エヌアンドアイホース,0
11068,7180003027941,新規,0,2025-01-31,2025-01-31,合同会社知多エステート,,合同会社,愛知県,半田市,住吉町３丁目１０３番地の３,,23,205,4750862,,,,,,,2025-01-31,1,,,,,チタエステート,0
11075,7200001043401,新規,0,2025-01-31,2025-01-31,株式会社Ｐｏｗｅｒ　Ｈｏｕｓｅ　Ｒ,,株式会社,岐阜県,瑞浪市,稲津町小里１１６３番地の１５,,21,208,5096103,,,,,,,2025-01-31,1,,,,,パワーハウスアール,0
11077,7200003006686,新規,0,2025-01-31,2025-01-31,合同会社助け愛,,合同会社,岐阜県,瑞浪市,寺河戸町１１６２番地プラザ水の木４０１号,,21,208,5096121,,,,,,,2025-01-31,1,,,,,タスケアイ,0
11083,7230005009429,新規,0,2025-01-31,2025-01-31,一般社団法人日本クリエイター権利保護協会,,その他の設立登記法人,富山県,高岡市,本町１１番４号,,16,202,9330913,,,,,,,2025-01-31,1,,,,,ニホンクリエイターケンリホゴキョウカイ,0
11088,7240001064451,新規,0,2025-01-31,2025-01-31,ＬＵＣＫＹＳＯＯＮ国際商貿株式会社,,株式会社,広島県,尾道市,向島町５７９－９,,34,205,7220073,,,,,,,2025-01-31,1,,,,,ラッキースーンコクサイショウボウ,0
11089,7240001064468,新規,0,2025-01-31,2025-01-31,ＷＥＬＬ　ＩＮＦＩＮＩＴＥ株式会社,,株式会社,広島県,尾道市,因島中庄町３９４２番地４,,34,205,7222211,,,,,,,2025-01-31,1,,,,,ウェルインフィニット,0
11093,7290001108583,新規,0,2025-01-31,2025-01-31,株式会社Ｆｒｅｅ　Ｌｉｆｅ,,株式会社,福岡県,福岡市博多区,板付６丁目１３番１５号,,40,132,8120888,,,,,,,2025-01-31,1,,,,,フリーライフ,0
11094,7290001108740,新規,0,2025-01-31,2025-01-31,株式会社Ｎスタイル,,株式会社,福岡県,福岡市東区,千早４丁目１４番２６－９１８号,,40,131,8130044,,,,,,,2025-01-31,1,,,,,エヌスタイル,0
11095,7290001108757,新規,0,2025-01-31,2025-01-31,株式会社Ｂｌｉｓｓｆｕｌ,,株式会社,福岡県,福岡市博多区,竹下４丁目２番１７－６０４号メゾン・ド・フレイエ,,40,132,8120895,,,,,,,2025-01-31,1,,,,,ブリスフル,0
11096,7290001108781,新規,0,2025-01-31,2025-01-31,株式会社ＳＭＩＬＥ　ＯＯＨ,,株式会社,福岡県,福岡市博多区,博多駅前１丁目１５－２０ＮＭＦ博多駅前ビル２階,,40,132,8120011,,,,,,,2025-01-31,1,,,,,スマイルオー,0
11099,7290003016339,新規,0,2025-01-31,2025-01-31,合同会社スペシャル,,合同会社,福岡県,福岡市中央区,渡辺通４丁目１番１－９１２号,,40,133,8100004,,,,,,,2025-01-31,1,,,,,スペシャル,0
11100,7290003016371,新規,0,2025-01-31,2025-01-31,合同会社３９,,合同会社,福岡県,筑紫野市,大字吉木２１９１－１３,,40,217,8180004,,,,,,,2025-01-31,1,,,,,サンキュウ,0
11103,7310003004935,新規,0,2025-01-31,2025-01-31,魚助合同会社,,合同会社,長崎県,壱岐市,芦辺町諸吉本村触４３０番地,00137842,42,210,8115311,,,,,,,2025-01-31,1,,,,,ウオスケ,0
11106,7320005010220,新規,0,2025-01-31,2025-01-31,一般社団法人ＩＫＩＳＡＫＩ,,その他の設立登記法人,大分県,中津市,三光諌山７９５番地１,,44,203,8710104,,,,,,,2025-01-31,1,,,,,イキサキ,0
11313,7430001093588,新規,0,2025-01-31,2025-01-31,山内フーズ株式会社,,株式会社,北海道,江別市,三条６丁目１０番地１,,01,217,0670013,,,,,,,2025-01-31,1,,,,,ヤマウチフーズ,0
11314,7430003017231,新規,0,2025-01-31,2025-01-31,合同会社ウェルコネクト,,合同会社,北海道,札幌市西区,八軒二条東５丁目３番１号,,01,107,0630862,,,,,,,2025-01-31,1,,,,,ウェルコネクト,0
11317,7450001014518,新規,0,2025-01-31,2025-01-31,セキヤファーム株式会社,,株式会社,北海道,旭川市,永山町１１丁目１７２番地の２,,01,204,0798431,,,,,,,2025-01-31,1,,,,,セキヤファーム,0
11319,7460003001034,新規,0,2025-01-31,2025-01-31,合同会社Ｍｅｔｈｏｄ,,合同会社,北海道,釧路市,貝塚２丁目５番１４号,,01,206,0850816,,,,,,,2025-01-31,1,,,,,メソッド,0
11868,8010001249974,新規,0,2025-01-31,2025-01-31,株式会社ＡＩ　ｂｅａｍ,,株式会社,東京都,千代田区,岩本町２丁目３－８ＪＰ－ＢＡＳＥ２Ｆ,,13,101,1010032,,,,,,,2025-01-31,1,,,,,,0
11870,8010001251427,新規,0,2025-01-31,2025-01-31,ＭｅｄＣｏｎｓ．株式会社,,株式会社,東京都,中央区,銀座１丁目１２－４Ｎ＆ＥＢＬＤ．６Ｆ,,13,102,1040061,,,,,,,2025-01-31,1,,,,,メドコンス,0
11871,8010001251807,新規,0,2025-01-31,2025-01-31,Ｉｎｓｉｇｎｉａ　Ｖｅｎｔｕｒｅｓ　Ｊａｐａｎ株式会社,,株式会社,東京都,中央区,日本橋室町４丁目３番９号,,13,102,1030022,,,,,,,2025-01-31,1,,,,,インシグニアベンチャーズジャパン,0
11872,8010001251880,新規,0,2025-01-31,2025-01-31,株式会社沼倉商事,,株式会社,東京都,千代田区,神田須田町２丁目３番地１２－１２ＫＡＮＤＡ６階,,13,101,1010041,,,,,,,2025-01-31,1,,,,,ヌマクラショウジ,0
11873,8010001251906,新規,0,2025-01-31,2025-01-31,富吉国際株式会社,,株式会社,東京都,中央区,銀座１丁目１９番１４号銀座ＯＮＥビル６階,,13,102,1040061,,,,,,,2025-01-31,1,,,,,トミヨシコクサイ,0
11874,8010003046197,新規,0,2025-01-31,2025-01-31,合同会社ファンテェック,,合同会社,東京都,中央区,東日本橋３丁目１０番１１号,,13,102,1030004,,,,,,,2025-01-31,1,,,,,ファンテェック,0
11894,8010401187824,新規,0,2025-01-31,2025-01-31,株式会社Ｎ‐Ｆｒｅｅ,,株式会社,東京都,港区,浜松町１丁目２３番９号セゾンビル浜松町５Ｆ,,13,103,1050013,,,,,,,2025-01-31,1,,,,,エヌフリー,0
11895,8010401187948,新規,0,2025-01-31,2025-01-31,株式会社インプルーブ,,株式会社,東京都,港区,北青山１丁目３－１アールキューブ青山３Ｆ,,13,103,1070061,,,,,,,2025-01-31,1,,,,,インプルーブ,0
11896,8010403034264,新規,0,2025-01-31,2025-01-31,ナポロン合同会社,,合同会社,東京都,港区,芝４丁目１６番１号,,13,103,1080014,,,,,,,2025-01-31,1,,,,,ナポロン,0
11897,8010405023991,新規,0,2025-01-31,2025-01-31,ジー・エイ・ワン・レジデンス・セブン一般社団法人,,その他の設立登記法人,東京都,港区,虎ノ門５丁目１番４号,,13,103,1050001,,,,,,,2025-01-31,1,,,,,ジーエイワンレジデンスセブン,0
12007,8010601066704,新規,0,2025-01-31,2025-01-31,株式会社ＨＡＮＡ　ＬＡＢＯ,,株式会社,東京都,江東区,新砂３丁目４番４３－５０８号,,13,108,1360075,,,,,,,2025-01-31,1,,,,,ハナラボ,0
12017,8010701047158,新規,0,2025-01-31,2025-01-31,株式会社おんれい,,株式会社,東京都,品川区,上大崎３丁目１番２－１３０３号,,13,109,1410021,,,,,,,2025-01-31,1,,,,,オンレイ,0
12018,8010701047166,新規,0,2025-01-31,2025-01-31,ＦＩＴＥＬＬＩＧＥＮＴ株式会社,,株式会社,東京都,品川区,東品川１丁目２９－１９武田ビル２０２号室,,13,109,1400002,,,,,,,2025-01-31,1,,,,,,0
12282,8011001167200,新規,0,2025-01-31,2025-01-31,株式会社ＷＯＮＤＥＲ　ＲＯＣＫＥＴ,,株式会社,東京都,渋谷区,恵比寿西１丁目２１番５号ＳｒｅｅｄＥＢＩＳＵ＋ｔ６階,,13,113,1500021,,,,,,,2025-01-31,1,,,,,ワンダーロケット,0
12283,8011001167456,新規,0,2025-01-31,2025-01-31,株式会社Ｒｅ‐Ｌｉｆｅ,,株式会社,東京都,渋谷区,神宮前６丁目２３－４桑野ビル２Ｆ,,13,113,1500001,,,,,,,2025-01-31,1,,,,,リライフ,0
12295,8011005010835,新規,0,2025-01-31,2025-01-31,広尾ハイツ管理組合法人,,その他の設立登記法人,東京都,渋谷区,広尾５丁目１番１４号管理人室,,13,113,1500012,,,,,,,2025-01-31,1,,,,,ヒロオハイツ,0
12373,8011501031649,新規,0,2025-01-31,2025-01-31,株式会社Ｈａｌｖｉａ,,株式会社,東京都,北区,赤羽西１丁目５番１－１４０７号赤羽アボードＩ,00137844,13,117,1150055,,,,,,,2025-01-31,1,,,,,ハルヴィア,0
12377,8011701028024,新規,0,2025-01-31,2025-01-31,株式会社ホームトラスト,,株式会社,東京都,江戸川区,西葛西７丁目１２番４－１０１号,,13,123,1340088,,,,,,,2025-01-31,1,,,,,ホームトラスト,0
12382,8011801045530,新規,0,2025-01-31,2025-01-31,株式会社ＹＪコーポレーション,,株式会社,東京都,足立区,伊興３丁目１１番８号,,13,121,1210823,,,,,,,2025-01-31,1,,,,,ワイジェイコーポレーション,0
12384,8011803006670,新規,0,2025-01-31,2025-01-31,Ｂｅｓｔ　Ｌｉｎｋ合同会社,,合同会社,東京都,足立区,東和５丁目７番１３－５０２号,,13,121,1200003,,,,,,,2025-01-31,1,,,,,ベストリンク,0
12484,8012401042728,新規,0,2025-01-31,2025-01-31,株式会社Ｌｅｍｏｎ　ＵＰ,,株式会社,東京都,府中市,朝日町２丁目５－９ＭＡＩＳＯＮＡＳＡＨＩ１階,,13,206,1830003,,,,,,,2025-01-31,1,,,,,レモンアップ,0
12654,8020001161055,新規,0,2025-01-31,2025-01-31,株式会社Ａｐｓｅｔ,,株式会社,神奈川県,横浜市旭区,市沢町１７４－９,,14,112,2410014,,,,,,,2025-01-31,1,,,,,アプセット,0
12655,8020001161071,新規,0,2025-01-31,2025-01-31,株式会社Ｍｉａｌｕｃｅ,,株式会社,神奈川県,川崎市宮前区,宮前平３丁目７番地２２プラウドシティ宮崎台イーストコート９０１,,14,136,2160006,,,,,,,2025-01-31,1,,,,,ミアルーチェ,0
12658,8020003027642,新規,0,2025-01-31,2025-01-31,合同会社ＴＲｕＳＴ横濱,00137836,合同会社,神奈川県,横浜市金沢区,泥亀１丁目１４番４－１０２号,,14,108,2360021,,,,,,,2025-01-31,1,,,,,トラストヨコハマ,0
12659,8020003027650,新規,0,2025-01-31,2025-01-31,合同会社ＧＬＵＣＫ,,合同会社,神奈川県,横浜市泉区,上飯田町９４８番地１第２タカナシハイツ１０３号,,14,116,2450018,,,,,,,2025-01-31,1,,,,,グリュック,0
12660,8020003027659,新規,0,2025-01-31,2025-01-31,合同会社ブルー,,合同会社,神奈川県,川崎市川崎区,堀之内町８番地１１,,14,131,2100003,,,,,,,2025-01-31,1,,,,,ブルー,0
12664,8021003015521,新規,0,2025-01-31,2025-01-31,ＴＨＡＳＥＥＫＡ　ＮＩＰＰＯＮ合同会社,,合同会社,神奈川県,厚木市,飯山南４丁目２番１４号ストンリバー・マンション２０７号室,,14,212,2430218,,,,,,,2025-01-31,1,,,,,タシーカニッポン,0
12675,8030001164643,新規,0,2025-01-31,2025-01-31,株式会社ブリスアセット,,株式会社,埼玉県,川口市,元郷５丁目９番１３号,,11,203,3320011,,,,,,,2025-01-31,1,,,,,ブリスアセット,0
12676,8030001164668,新規,0,2025-01-31,2025-01-31,株式会社ＡＨＭＥＤ　ＫＨＡＮ　ＭＯＴＯＲＳ,,株式会社,埼玉県,羽生市,東２丁目１番４０号リトルアニマルＡ－２,,11,216,3480052,,,,,,,2025-01-31,1,,,,,アフメドカーンモータース,0
12684,8030003025991,新規,0,2025-01-31,2025-01-31,合同会社ワセダーマ,,合同会社,埼玉県,桶川市,若宮１丁目８番２７－１０４号,,11,231,3630022,,,,,,,2025-01-31,1,,,,,ワセダーマ,0
12691,8040001137235,新規,0,2025-01-31,2025-01-31,株式会社ＳＭＡＲＴ　Ａｎａｌｙｓｉｓ,,株式会社,千葉県,市川市,真間３丁目７番４号,,12,203,2720826,,,,,,,2025-01-31,1,,,,,スマートアナライシス,0
12707,8040003026758,新規,0,2025-01-31,2025-01-31,ＥＲＮＥＳＴ　ＭＩＲＡＣＬＥ　ＩＮＴＥＲＮＡＴＩＯＮＡＬ合同会社,,合同会社,千葉県,野田市,目吹４５３番地３,,12,208,2780001,,,,,,,2025-01-31,1,,,,,アーネストミラクルインターナショナル,0
12713,8060005010287,新規,0,2025-01-31,2025-01-31,農事組合法人ＫＤ３,,その他の設立登記法人,栃木県,宇都宮市,双葉２丁目１０－９コーポツバサ２０１,,09,201,3210164,,,,,,,2025-01-31,1,,,,,ケーディサン,0
12737,8120001272197,新規,0,2025-01-31,2025-01-31,君遊サステナブルビルディングス株式会社,,株式会社,大阪府,大阪市西成区,岸里東２丁目７－８,,27,122,5570042,,,,,,,2025-01-31,1,,,,,クンユウサステナブルビルディングス,0
12738,8120001272387,新規,0,2025-01-31,2025-01-31,ＭＵＳＫ株式会社,,株式会社,大阪府,大阪市天王寺区,伶人町２－３１ＳｔａｒＯｆｆｉｃｅ大阪天王寺北５０８号室,,27,109,5430061,,,,,,,2025-01-31,1,,,,,マスク,0
12739,8120001272453,新規,0,2025-01-31,2025-01-31,タカイ関西株式会社,,株式会社,大阪府,大阪市西区,京町堀１丁目１７番１６号京町堀センタービルディング８０１号室,,27,106,5500003,,,,,,,2025-01-31,1,,,,,タカイカンサイ,0
12740,8120001272494,新規,0,2025-01-31,2025-01-31,株式会社ＦＬＡＶＯＲＨＯＬＩＣ,,株式会社,大阪府,門真市,三ツ島２丁目２２番４４号,,27,223,5710015,,,,,,,2025-01-31,1,,,,,フレーバーホリック,0
12741,8120001272503,新規,0,2025-01-31,2025-01-31,株式会社伸司,,株式会社,大阪府,守口市,南寺方南通３丁目１番２６号,,27,209,5700044,,,,,,,2025-01-31,1,,,,,シンシ,0
12753,8122001038826,新規,0,2025-01-31,2025-01-31,日本文化之橋株式会社,,株式会社,大阪府,東大阪市,小阪２丁目１０番２８号ＪＰ小阪３階３Ｃ,,27,227,5770801,,,,,,,2025-01-31,1,,,,,ニホンブンカノハシ,0
12754,8122001038859,新規,0,2025-01-31,2025-01-31,ＨＡＲＡＴＥＣＨ株式会社,,株式会社,大阪府,東大阪市,若江西新町４丁目６番１０－３０６号,,27,227,5780944,,,,,,,2025-01-31,1,,,,,ハラテック,0
12761,8130001078890,新規,0,2025-01-31,2025-01-31,三栄パトナ株式会社,,株式会社,京都府,京都市下京区,東洞院通七条東入材木町４９９番地京都駅前第７ビル５階,,26,106,6000000,,,,,,,2025-01-31,1,,,,,サンエイパトナ,0
12762,8130001078899,新規,0,2025-01-31,2025-01-31,婆娑羅株式会社,,株式会社,京都府,京都市北区,紫野門前町１８番地１,,26,101,6038216,,,,,,,2025-01-31,1,,,,,バサラ,0
12768,8140001137266,新規,0,2025-01-31,2025-01-31,株式会社オルブ,,株式会社,兵庫県,芦屋市,宮塚町５番８号ストラッセ芦屋１Ｆ,,28,206,6590062,,,,,,,2025-01-31,1,,,,,オルブ,0
12769,8140001137274,新規,0,2025-01-31,2025-01-31,株式会社あかしブリッジケア,,株式会社,兵庫県,明石市,貴崎３丁目２３－２６,,28,203,6730037,,,,,,,2025-01-31,1,,,,,アカシブリッジケア,0
12770,8140001137282,新規,0,2025-01-31,2025-01-31,株式会社ＨＡトレーディング,,株式会社,兵庫県,神戸市兵庫区,氷室町１丁目１番２－１号,,28,105,6520054,,,,,,,2025-01-31,1,,,,,エイチエートレーディング,0
12772,8160001026517,新規,0,2025-01-31,2025-01-31,株式会社Ｂｒａｖｉｎｇ　Ｆｌａｇ,,株式会社,滋賀県,長浜市,地福寺町１２番３３号,,25,203,5260036,,,,,,,2025-01-31,1,,,,,ブレイヴィングフラッグ,0
12783,8180001165115,新規,0,2025-01-31,2025-01-31,株式会社ゼン・オアシス・コーポレーション,,株式会社,愛知県,名古屋市昭和区,南山町４番地の４Ａ－２号,,23,107,4660835,,,,,,,2025-01-31,1,,,,,ゼンオアシスコーポレーション,0
12784,8180001165263,新規,0,2025-01-31,2025-01-31,株式会社Ｌｏｒｄ,,株式会社,愛知県,名古屋市天白区,元八事５丁目１２７番地,,23,116,4680066,,,,,,,2025-01-31,1,,,,,ロード,0
12785,8180001165271,新規,0,2025-01-31,2025-01-31,株式会社セブンレイズ,,株式会社,愛知県,名古屋市昭和区,福江１丁目１０番１７号,,23,107,4660059,,,,,,,2025-01-31,1,,,,,セブンレイズ,0
12789,8180301039480,新規,0,2025-01-31,2025-01-31,ワイアセット株式会社,,株式会社,愛知県,豊橋市,牛川町字南台３９番地３９,,23,201,4400016,,,,,,,2025-01-31,1,,,,,ワイアセット,0
12791,8200001043383,新規,0,2025-01-31,2025-01-31,株式会社和心,,株式会社,岐阜県,岐阜市,野一色２丁目５番地１５,,21,201,5008226,,,,,,,2025-01-31,1,,,,,ワゴコロ,0
12792,8200001043400,新規,0,2025-01-31,2025-01-31,株式会社林徳,,株式会社,岐阜県,瑞穂市,別府７４９番地１,,21,216,5010222,,,,,,,2025-01-31,1,,,,,リントク,0
12793,8200003006685,新規,0,2025-01-31,2025-01-31,合同会社ＡＳＵＲＡ,,合同会社,岐阜県,岐阜市,上土居１丁目８番３‐１号,,21,201,5020803,,,,,,,2025-01-31,1,,,,,アスラ,0
12794,8210001020043,新規,0,2025-01-31,2025-01-31,株式会社ｓａ‐ｍｏ,,株式会社,福井県,大野市,元町１－７,,18,205,9120081,,,,,,,2025-01-31,1,,,,,サーモ,0
12806,8250001020989,新規,0,2025-01-31,2025-01-31,アセンブル株式会社,,株式会社,山口県,長門市,東深川２７４３番地１,,35,211,7594101,,,,,,,2025-01-31,1,,,,,アセンブル,0
12807,8250003003629,新規,0,2025-01-31,2025-01-31,ＫＴＡ合同会社,,合同会社,山口県,周南市,御幸通２丁目１,,35,215,7450034,,,,,,,2025-01-31,1,,,,,ケーティーエー,0
12812,8260001039863,新規,0,2025-01-31,2025-01-31,ＭＹＭ株式会社,,株式会社,岡山県,岡山市北区,大安寺東町１７番２５号,,33,101,7000063,,,,,,,2025-01-31,1,,,,,マイム,0
12819,8290001108748,新規,0,2025-01-31,2025-01-31,株式会社Ｏｎｉｇｉｒｉ＆Ｃｏ．,,株式会社,福岡県,福岡市中央区,大名１丁目３番４１号プリオ大名１Ｆ,,40,133,8100041,,,,,,,2025-01-31,1,,,,,オニギリアンドコー,0
12820,8290001108772,新規,0,2025-01-31,2025-01-31,わたしとみんなの株式会社,,株式会社,福岡県,福岡市博多区,中洲３丁目２番１２号第三ラインビル５階２号,,40,132,8100801,,,,,,,2025-01-31,1,,,,,ワタシトミンナノ,0
12823,8300001014069,新規,0,2025-01-31,2025-01-31,株式会社保険のナカヤマ,,株式会社,佐賀県,杵島郡江北町,大字山口１２２３番地,,41,424,8490501,,,,,,,2025-01-31,1,,,,,ホケンノナカヤマ,0
13018,8420001018999,新規,0,2025-01-31,2025-01-31,株式会社テーズ,,株式会社,青森県,八戸市,大字廿三日町２８番地八戸ウエストビル６０１,,02,203,0310041,,,,,,,2025-01-31,1,,,,,テーズ,0
13021,8430001093579,新規,0,2025-01-31,2025-01-31,株式会社三洋,,株式会社,北海道,札幌市南区,藤野六条４丁目３番１１号,,01,106,0612286,,,,,,,2025-01-31,1,,,,,サンヨウ,0
13022,8430001093595,新規,0,2025-01-31,2025-01-31,株式会社ＢＩＧ,,株式会社,北海道,札幌市東区,北十七条東１７丁目３番２３－２０５号,,01,103,0650017,,,,,,,2025-01-31,1,,,,,ビッグ,0
13027,8470001020562,新規,0,2025-01-31,2025-01-31,株式会社ハロ,,株式会社,香川県,高松市,上天神町８３５番地１０,,37,201,7618056,,,,,,,2025-01-31,1,,,,,ハロ,0
13032,8700150129040,新規,0,2025-01-31,2025-01-31,株式会社ＳＭエンターテインメント,,外国会社等,,,,,,,,大韓民国ソウル特別市城東区往十里路８３－２１,,,,,,2025-01-31,1,,,,,カブシキガイシヤエスエムエンターテインメント,0
13033,8700150129049,新規,0,2025-01-31,2025-01-31,株式会社モンスターライオネット,,外国会社等,東京都,港区,虎ノ門２丁目４番７号　Ｔ－ＬＩＴＥビル１６Ｆ１３号室,,13,103,1050001,大韓民国釜山広域市水営区民楽水辺路２４１（民楽洞）,,,,,,2025-01-31,1,,,,,カブシキガイシヤモンスターライオネツト,0
13537,9010001251772,新規,0,2025-01-31,2025-01-31,さくらホールディングス株式会社,,株式会社,東京都,中央区,銀座５丁目６番１６号銀座西五番館４階,,13,102,1040061,,,,,,,2025-01-31,1,,,,,サクラホールディングス,0
13538,9010001251905,新規,0,2025-01-31,2025-01-31,株式会社リアリング,,株式会社,東京都,千代田区,神田和泉町１番地６－１６ヤマトビル４０５,,13,101,1010024,,,,,,,2025-01-31,1,,,,,リアリング,0
13539,9010001251938,新規,0,2025-01-31,2025-01-31,株式会社ジョイリープ・テクノロジーズ,,株式会社,東京都,千代田区,神田須田町１丁目７番８号ＶＯＲＴ秋葉原ＩＶ２Ｆ,00137851,13,101,1010041,,,,,,,2025-01-31,1,,,,,ジョイリープテクノロジーズ,0
13541,9010003046246,新規,0,2025-01-31,2025-01-31,合同会社ＥＮＳＨＩＮ,,合同会社,東京都,文京区,千駄木３丁目３３番１２号ＡＶＡＮＣＥ文京３０１,,13,105,1130022,,,,,,,2025-01-31,1,,,,,エンシン,0
13705,9010603011343,新規,0,2025-01-31,2025-01-31,合同会社ユニファイドスレッド,,合同会社,東京都,江東区,永代１丁目４番１号宮澤コーポラス３０２,,13,108,1350034,,,,,,,2025-01-31,1,,,,,ユニファイドスレッド,0
13959,9011003020810,新規,0,2025-01-31,2025-01-31,ファッション動量合同会社,,合同会社,東京都,渋谷区,富ヶ谷１丁目１４番１４号３Ｆ・４Ｆ,,13,113,1510063,,,,,,,2025-01-31,1,,,,,ファッションドウリョウ,0
13961,9011005010842,新規,0,2025-01-31,2025-01-31,一般社団法人カンナビノイド検査機関連絡協議会,,その他の設立登記法人,東京都,渋谷区,神山町１２番８号,,13,113,1500047,,,,,,,2025-01-31,1,,,,,カンナビノイドケンサキカンレンラクキョウギカイ,0
13965,9011101110455,新規,0,2025-01-31,2025-01-31,株式会社ｒａｄｉｏ,,株式会社,東京都,新宿区,歌舞伎町１丁目１番５号,,13,104,1600021,,,,,,,2025-01-31,1,,,,,ラジオ,0
13966,9011101110471,新規,0,2025-01-31,2025-01-31,Ｔｈｅ　Ｊｏｂ　Ｔａｉｌｏｒｓ株式会社,,株式会社,東京都,新宿区,西新宿８丁目１１番１０－３１２号星野ビル３階,,13,104,1600023,,,,,,,2025-01-31,1,,,,,ザジョブテイラーズ,0
13967,9011103015470,新規,0,2025-01-31,2025-01-31,スタートライン合同会社,,合同会社,東京都,新宿区,百人町１丁目１番１５ＰＨＯＴＯビル３０２号,,13,104,1690073,,,,,,,2025-01-31,1,,,,,スタートライン,0
13968,9011103015479,新規,0,2025-01-31,2025-01-31,合同会社Ｃｒｏｓｓｒｏａｄｓ,,合同会社,東京都,新宿区,西新宿３丁目３番１３号西新宿水間ビル２Ｆ,,13,104,1600023,,,,,,,2025-01-31,1,,,,,クロスローズ,0
14038,9011201026097,新規,0,2025-01-31,2025-01-31,ＴＯＫＹＯ　ＳＵＩＴＥ株式会社,,株式会社,東京都,中野区,本町４丁目４５番１５号,,13,114,1640012,,,,,,,2025-01-31,1,,,,,トウキョウスイート,0
14041,9011203004596,新規,0,2025-01-31,2025-01-31,合同会社ｓｈｉｒｏ,,合同会社,東京都,中野区,南台３丁目６番１６－４０６号,,13,114,1640014,,,,,,,2025-01-31,1,,,,,シロ,0
14044,9011401026772,新規,0,2025-01-31,2025-01-31,株式会社萬泊堂,,株式会社,東京都,板橋区,前野町６丁目１０番５－５０６号,,13,119,1740063,,,,,,,2025-01-31,1,,,,,マンパクドウ,0
14050,9011601028404,新規,0,2025-01-31,2025-01-31,株式会社Ｌｉｇｈｔ‐Ｍａｇｉｃ,,株式会社,東京都,練馬区,上石神井４丁目２０番２４号,,13,120,1770044,,,,,,,2025-01-31,1,,,,,ライトマジック,0
14056,9012303002102,新規,0,2025-01-31,2025-01-31,合同会社ＨＥＡＲＴＳ,,合同会社,東京都,町田市,原町田４丁目１１番地１３天野ビル４Ｆ,,13,209,1940013,,,,,,,2025-01-31,1,,,,,ハーツ,0
14151,9012403006944,新規,0,2025-01-31,2025-01-31,合同会社ＡＱ,,合同会社,東京都,府中市,府中町１丁目８番地の１２キャッスルプラザ７０２,,13,206,1830055,,,,,,,2025-01-31,1,,,,,エーキュー,0
14260,9013301053715,新規,0,2025-01-31,2025-01-31,株式会社ＨＲ労務心理,,株式会社,東京都,豊島区,西池袋２丁目３７番４号としま産業振興プラザ４Ｆ,,13,116,1710021,,,,,,,2025-01-31,1,,,,,エイチアールロウムシンリ,0
14284,9020001161054,新規,0,2025-01-31,2025-01-31,株式会社ＬｉＮｏａｈ,,株式会社,神奈川県,横浜市港北区,箕輪町２丁目２０番２７－２１２号,,14,109,2230051,,,,,,,2025-01-31,1,,,,,リノア,0
14285,9020003027641,新規,0,2025-01-31,2025-01-31,Ａ＆Ｗ　Ｃｏｎｓｕｌｔｉｎｇ合同会社,,合同会社,神奈川県,横浜市青葉区,美しが丘２丁目３番２号,,14,117,2250002,,,,,,,2025-01-31,1,,,,,エーアンドダブリューコンサルティング,0
14287,9021001084360,新規,0,2025-01-31,2025-01-31,株式会社ソレイユ,,株式会社,神奈川県,相模原市中央区,田名２１４０番地８,,14,152,2520244,,,,,,,2025-01-31,1,,,,,ソレイユ,0
14289,9021003015520,新規,0,2025-01-31,2025-01-31,ごえん合同会社,,合同会社,神奈川県,平塚市,袖ケ浜１８番３２号,,14,203,2540813,,,,,,,2025-01-31,1,,,,,ゴエン,0
14290,9021003015537,新規,0,2025-01-31,2025-01-31,ＹＭ１６４マネージ合同会社,,合同会社,神奈川県,藤沢市,片瀬５丁目１２番２０号,,14,205,2510032,,,,,,,2025-01-31,1,,,,,ワイエムイチロクヨンマネージ,0
14318,9040003026757,新規,0,2025-01-31,2025-01-31,フクラ合同会社,,合同会社,千葉県,船橋市,大穴北２丁目４７番１８号,,12,204,2740068,,,,,,,2025-01-31,1,,,,,フクラ,0
14319,9050001056103,新規,0,2025-01-31,2025-01-31,株式会社フリーリー,,株式会社,茨城県,つくば市,梅園２丁目８番１７号,,08,220,3050045,,,,,,,2025-01-31,1,,,,,フリーリー,0
14326,9060005010286,新規,0,2025-01-31,2025-01-31,農事組合法人ＫＤ２,,その他の設立登記法人,栃木県,宇都宮市,双葉２丁目１０－９コーポツバサ２０１,,09,201,3210164,,,,,,,2025-01-31,1,,,,,ケーディニ,0
14332,9080401027717,新規,0,2025-01-31,2025-01-31,株式会社庶務ストア,,株式会社,静岡県,浜松市中央区,三島町９９１番地の４,,22,138,4300853,,,,,,,2025-01-31,1,,,,,ショムストア,0
14334,9100001038260,新規,0,2025-01-31,2025-01-31,株式会社Ｔ．Ｎ,,株式会社,長野県,小諸市,大字森山６７６番地３,,20,208,3840085,,,,,,,2025-01-31,1,,,,,ティピリオドエヌ,0
14335,9100003007965,新規,0,2025-01-31,2025-01-31,ＷＨＩＴＥ　ＷＩＬＬＯＷ合同会社,,合同会社,長野県,大町市,大町４５０４－１,,20,212,3980002,,,,,,,2025-01-31,1,,,,,ホワイトウィロー,0
14336,9110001039027,新規,0,2025-01-31,2025-01-31,株式会社柏崎ＮＳコンクリート,,株式会社,新潟県,柏崎市,東長浜町１番２７－２号,,15,205,9450033,,,,,,,2025-01-31,1,,,,,カシワザキエヌエスコンクリート,0
14348,9120001272345,新規,0,2025-01-31,2025-01-31,株式会社ＴＯＰ　ＶＡＬＵＥ,,株式会社,大阪府,大阪市城東区,永田２丁目９番２７号,,27,118,5360022,,,,,,,2025-01-31,1,,,,,トップバリュー,0
14354,9130001078898,新規,0,2025-01-31,2025-01-31,株式会社スカイワークス,,株式会社,京都府,京都市右京区,北嵯峨北ノ段町２０番地１２,,26,108,6168441,,,,,,,2025-01-31,1,,,,,スカイワークス,0
14355,9130003010181,新規,0,2025-01-31,2025-01-31,フィライト・コンサルティング合同会社,,合同会社,京都府,京都市右京区,龍安寺西ノ川町２８番地１４,,26,108,6168016,,,,,,,2025-01-31,1,,,,,フィライトコンサルティング,0
14360,9140001137281,新規,0,2025-01-31,2025-01-31,株式会社緑円,,株式会社,兵庫県,神戸市長田区,明泉寺町３丁目８番４号,,28,106,6530884,,,,,,,2025-01-31,1,,,,,リョクエン,0
14374,9180001165270,新規,0,2025-01-31,2025-01-31,株式会社ＫｏｚａａａＦＰＶ,,株式会社,愛知県,江南市,小杁町本郷５９番地,,23,217,4838413,,,,,,,2025-01-31,1,,,,,コザーエフピーブイ,0
14375,9180001165279,新規,0,2025-01-31,2025-01-31,ペンブルック株式会社,,株式会社,愛知県,名古屋市中村区,名駅４丁目２４番５号第２森ビル４０１,,23,105,4500002,,,,,,,2025-01-31,1,,,,,ペンブルック,0
14380,9180005020934,新規,0,2025-01-31,2025-01-31,弁理士法人長谷川内外特許事務所,,その他の設立登記法人,愛知県,名古屋市東区,東片端町２４番地長谷川ビル４階,,23,102,4610015,,,,,,,2025-01-31,1,,,,,ハセガワナイガイトッキョジムショ,0
14382,9180303006445,新規,0,2025-01-31,2025-01-31,合同会社ＦＡ‐ＴＥ,,合同会社,愛知県,豊田市,喜多町１丁目９９番地,,23,211,4710027,,,,,,,2025-01-31,1,,,,,フェート,0
14385,9180305009652,新規,0,2025-01-31,2025-01-31,一般社団法人ゆうなぎカンパニー,,その他の設立登記法人,愛知県,豊川市,門前町１５番地,,23,207,4420037,,,,,,,2025-01-31,1,,,,,ユウナギカンパニー,0
14389,9190001031967,新規,0,2025-01-31,2025-01-31,株式会社板津メタル,,株式会社,三重県,四日市市,新正２丁目１０番１１号,,24,202,5100064,,,,,,,2025-01-31,1,,,,,イタヅメタル,0
14398,9240001064441,新規,0,2025-01-31,2025-01-31,ラーニングブリス株式会社,,株式会社,広島県,呉市,宮原６丁目１番２号,,34,202,7370024,,,,,,,2025-01-31,1,,,,,ラーニングブリス,0
14399,9240001064466,新規,0,2025-01-31,2025-01-31,株式会社スマイル・ウイング,,株式会社,広島県,呉市,郷原学びの丘２丁目１５番８号,,34,202,7370162,,,,,,,2025-01-31,1,,,,,スマイルウイング,0
14413,9290001108763,新規,0,2025-01-31,2025-01-31,株式会社いろどり不動産,,株式会社,福岡県,朝倉市,大庭２４２７番地,,40,228,8381316,,,,,,,2025-01-31,1,,,,,イロドリフドウサン,0
14414,9290003016345,新規,0,2025-01-31,2025-01-31,インベスト合同会社,,合同会社,福岡県,福岡市西区,戸切２丁目１番７号,,40,135,8190032,,,,,,,2025-01-31,1,,,,,インベスト,0
14421,9320003004569,新規,0,2025-01-31,2025-01-31,合同会社Ｗｅｓｔｉｎ,,合同会社,大分県,由布市,湯布院町川西４２４２番２号,,44,213,8795113,,,,,,,2025-01-31,1,,,,,ウェストイン,0
14424,9330001032851,新規,0,2025-01-31,2025-01-31,株式会社ルミエール・ド・ローブ,,株式会社,熊本県,熊本市南区,良町４丁目１番８０号,,43,104,8620969,,,,,,,2025-01-31,1,,,,,ルミエールドローブ,0
14427,9330003010772,新規,0,2025-01-31,2025-01-31,合同会社桜ｆａｃｔｏｒｙ,,合同会社,熊本県,熊本市西区,島崎一丁目５－１９Ｄ棟,,43,103,8610000,,,,,,,2025-01-31,1,,,,,サクラファクトリー,0
14433,9340001027099,新規,0,2025-01-31,2025-01-31,株式会社斗蒼,,株式会社,鹿児島県,鹿児島市,東谷山５丁目１８番１７－３号,,46,201,8910113,,,,,,,2025-01-31,1,,,,,トウア,0
14434,9340003004732,新規,0,2025-01-31,2025-01-31,合同会社ｌｏｖｅ　ｌｉｆｅ,,合同会社,鹿児島県,霧島市,国分松木町１１番４２－６号,,46,218,8994325,,,,,,,2025-01-31,1,,,,,ラブライフ,0
14615,9380001035073,新規,0,2025-01-31,2025-01-31,株式会社和雅建設,,株式会社,福島県,郡山市,富田東６丁目８６番地,,07,203,9638047,,,,,,,2025-01-31,1,,,,,ワゲケンセツ,0
14628,9430001093586,新規,0,2025-01-31,2025-01-31,株式会社花鳥風月,,株式会社,北海道,札幌市東区,北七条東５丁目１７番地３８－４０６,,01,103,0600907,,,,,,,2025-01-31,1,,,,,カチョウフウゲツ,0
14629,9430001093594,新規,0,2025-01-31,2025-01-31,株式会社ＳＴＡＲＳ,,株式会社,北海道,札幌市中央区,北五条西９丁目５番地７ブランシャールＳＡＰＰＯＲＯ　ＳＴＡＴＩＯＮ　ＷＥＳＴ１０２号,,01,101,0600005,,,,,,,2025-01-31,1,,,,,スターズ,0
14632,9460001005968,新規,0,2025-01-31,2025-01-31,ＪＤ　ＴＲＡＤＥ株式会社,,株式会社,北海道,釧路市,大楽毛３丁目線１８１番地１３,,01,206,0840917,,,,,,,2025-01-31,1,,,,,ジェイディートレード,0
14638,9700150056028,新規,0,2025-01-31,2015-10-09,美郷町学校給食会,,その他,島根県,邑智郡美郷町,都賀行１２０－１,,32,448,6960705,,,,,,,2015-10-09,1,,,,,ミサトチヨウガツコウキユウシヨクカイ,0
14639,9700150129031,新規,0,2025-01-31,2025-01-31,月島四丁目住宅マンション建替組合,,その他,東京都,江東区,東陽２丁目４番２４号,,13,108,1350016,,,,,,,2025-01-31,1,,,,,ツキシマヨンチヨウメジユウタクマンシヨンタテカエクミアイ,0
14640,9700150129048,新規,0,2025-01-31,2025-01-31,ＤＣＣ　ＥＮＴ株式会社,,外国会社等,東京都,港区,虎ノ門２丁目４番７号　Ｔ－ＬＩＴＥビル　１６Ｆ　７号室,,13,103,1050001,大韓民国ソウル特別市衿川区加山デジタル１路２、２１３号（加山洞、ウリムライオンズバレー２次）,,,,,,2025-01-31,1,,,,,デイーシーシーエーエヌテイーカブシキガイシヤ,0
