sequenceNumber,corporateNumber,process,correct,updateDate,changeDate,name,nameImageId,kind,prefectureName,cityName,streetNumber,addressImageId,prefectureCode,cityCode,postCode,addressOutside,addressOutsideImageId,closeDate,closeCause,successorCorporateNumber,changeCause,assignmentDate,latest,enName,enPrefectureName,enCityName,enAddressOutside,furigana,hihyoji
5,1010001118913,登記記録の閉鎖等,0,2022-07-13,2022-07-01,ナスカシステムズ株式会社,,株式会社,東京都,中央区,晴海１丁目６番６－２２０７号,,13,102,1040053,,,2022-07-01,清算の結了等,,,2015-10-05,1,,,,,ナスカシステムズ,0
36,1010401080688,登記記録の閉鎖等,0,2022-07-13,2022-06-29,株式会社ＭＹＭ,,株式会社,東京都,中央区,銀座８丁目１０番６号,,13,102,1040061,,,2022-06-29,合併による解散等,2010001103988,令和４年６月２６日東京都中央区銀座八丁目１０番６号株式会社フードバンク（2010001103988）に合併し解散,2015-10-05,1,,,,,エムワイエム,0
43,1010405013512,登記記録の閉鎖等,0,2022-07-13,2022-06-27,流山１ロジスティック特定目的会社,,その他の設立登記法人,東京都,港区,東新橋１丁目５番２号汐留シティセンター,,13,103,1050021,,,2022-06-27,清算の結了等,,,2015-10-05,1,,,,,ナガレヤマワンロジスティック,0
66,1011003008549,登記記録の閉鎖等,0,2022-07-13,2022-06-28,スプリップル合同会社,,合同会社,東京都,渋谷区,恵比寿西１丁目１５番地２号アパルトマンイトウ２０６,,13,113,1500021,,,2022-06-28,清算の結了等,,,2018-03-07,1,,,,,スプリップル,0
72,1011101057753,登記記録の閉鎖等,0,2022-07-13,2022-07-04,Ｃｏｎｓｅｎｓｕｓ　Ｃａｐｉｔａｌ株式会社,,株式会社,東京都,中央区,新富２丁目１１番５号,,13,102,1040041,,,2022-07-04,清算の結了等,,,2015-10-05,1,,,,,コンセンサスキャピタル,0
74,1011101069617,登記記録の閉鎖等,0,2022-07-13,2022-07-07,株式会社リコス,,株式会社,東京都,新宿区,西新宿４丁目３２番１１－７１３号,,13,104,1600023,,,2022-07-07,清算の結了等,,,2015-10-05,1,,,,,リコス,0
79,1011103006799,登記記録の閉鎖等,0,2022-07-13,2022-07-08,ＳＧ茨城合同会社,,合同会社,東京都,新宿区,西新宿３丁目１番４号第二佐山ビル９Ｆ,,13,104,1600023,,,2022-07-08,清算の結了等,,,2017-02-07,1,,,,,エスジーイバラキ,0
94,1011702005524,登記記録の閉鎖等,0,2022-07-13,2022-07-08,有限会社新田加登屋酒店,,有限会社,東京都,江戸川区,東葛西６丁目１３番６号,,13,123,1340084,,,2022-07-08,清算の結了等,,,2015-10-05,1,,,,,シンデンカトヤサケテン,0
99,1012405004193,登記記録の閉鎖等,0,2022-07-13,2022-07-07,一般社団法人マッチ・アイ・アンド・シー協会,,その他の設立登記法人,東京都,府中市,片町１丁目８番地の５,,13,206,1830021,,,2022-07-07,清算の結了等,,,2018-06-21,1,,,,,マッチアイアンドシーキョウカイ,0
125,1030001038218,登記記録の閉鎖等,0,2022-07-13,2022-07-01,株式会社ＹＴフーズ,,株式会社,埼玉県,三郷市,高州４丁目１７番地３,,11,237,3410037,,,2022-07-01,清算の結了等,,,2015-10-05,1,,,,,ワイティフーズ,0
138,1040001031857,登記記録の閉鎖等,0,2022-07-13,2022-07-08,株式会社ジャーク,,株式会社,東京都,新宿区,北新宿１丁目６番６号,,13,104,1690074,,,2022-07-08,清算の結了等,,,2015-10-05,1,,,,,ジャーク,0
141,1040001065599,登記記録の閉鎖等,0,2022-07-13,2022-07-01,株式会社こやま通商,,株式会社,千葉県,柏市,根戸６１７番地２３,,12,217,2770831,,,2022-07-01,清算の結了等,,,2015-10-05,1,,,,,コヤマツウショウ,0
155,1050003004018,登記記録の閉鎖等,0,2022-07-13,2022-07-07,合同会社サンクレフ,,合同会社,東京都,新宿区,新宿６丁目７番１号エルプリメント新宿２０２号,,13,104,1600022,,,2022-07-07,清算の結了等,,,2017-12-13,1,,,,,サンクレフ,0
164,1080002012316,登記記録の閉鎖等,0,2022-07-13,2022-07-11,有限会社タザワコンフォート,,有限会社,静岡県,静岡市葵区,七間町１７番地の１エンブルタワー七間町１５０５号,,22,101,4200035,,,2022-07-11,清算の結了等,,,2015-10-05,1,,,,,タザワコンフォート,0
209,1180001029862,登記記録の閉鎖等,0,2022-07-13,2022-07-07,株式会社紙愛知,,株式会社,愛知県,名古屋市中村区,名駅南２丁目９番１８号,,23,105,4500003,,,2022-07-07,清算の結了等,,,2015-10-05,1,,,,,カミアイチ,0
213,1180001139521,登記記録の閉鎖等,0,2022-07-13,2022-07-07,ＭＢＣ株式会社,,株式会社,愛知県,名古屋市東区,白壁１丁目２１番名東ビル３Ｂ,,23,102,4610011,,,2022-07-07,清算の結了等,,,2020-01-14,1,,,,,エムビーシー,0
226,1200002011362,登記記録の閉鎖等,0,2022-07-13,2022-07-11,有限会社吉川家,,有限会社,岐阜県,羽島市,竹鼻町狐穴５０３番地の２,,21,209,5016232,,,2022-07-11,清算の結了等,,,2015-10-05,1,,,,,ヨシカワヤ,0
248,1260003002553,登記記録の閉鎖等,0,2022-07-13,2022-07-08,合同会社ＨＹＦＬ,,合同会社,岡山県,岡山市北区,表町３丁目１８－５２吉本ビル５Ｆ,,33,101,7000822,,,2022-07-08,清算の結了等,,,2018-05-21,1,,,,,エイチワイエフエル,0
250,1260005008920,登記記録の閉鎖等,0,2022-07-13,2022-07-11,玉島おかみさん会企業組合,,その他の設立登記法人,岡山県,倉敷市,玉島１丁目１０番３０号,,33,202,7138102,,,2022-07-11,清算の結了等,,,2015-10-05,1,,,,,タマシマオカミサンカイ,0
251,1270002005795,登記記録の閉鎖等,0,2022-07-13,2022-07-04,有限会社倉敷電気工事,,有限会社,鳥取県,米子市,新開１丁目４番８号,,31,202,6830801,,,2022-07-04,清算の結了等,,,2015-10-05,1,,,,,クラシキデンキコウジ,0
276,1330001018197,登記記録の閉鎖等,0,2022-07-13,2022-06-30,ハイツリー株式会社,,株式会社,熊本県,八代市,松江城町３番２３号,,43,202,8660862,,,2022-06-30,清算の結了等,,,2015-10-05,1,,,,,ハイツリー,0
280,1340002001977,登記記録の閉鎖等,0,2022-07-13,2022-07-11,有限会社絵夢建築設計工房,,有限会社,鹿児島県,鹿児島市,和田１丁目１１番１２号,,46,201,8910143,,,2022-07-11,清算の結了等,,,2015-10-05,1,,,,,エムケンチクセッケイコウボウ,0
287,1380001008045,登記記録の閉鎖等,0,2022-07-13,2022-07-04,株式会社丸ウ吉田工務店,,株式会社,福島県,田村市,船引町堀越字田島池１４０番地,,07,211,9634204,,,2022-07-04,清算の結了等,,,2015-10-05,1,,,,,,0
298,1420002002802,登記記録の閉鎖等,0,2022-07-13,2022-07-06,有限会社間山家政婦紹介所,,有限会社,青森県,青森市,新町２丁目２番２１号,,02,201,0300801,,,2022-07-06,清算の結了等,,,2015-10-05,1,,,,,マヤマカセイフショウカイショ,0
305,1430002045180,登記記録の閉鎖等,0,2022-07-13,2022-07-06,有限会社ハッシング,,有限会社,北海道,帯広市,西十七条北１丁目３７番１２号,,01,207,0800047,,,2022-07-06,清算の結了等,,,2015-10-05,1,,,,,ハッシング,0
330,2010005031566,登記記録の閉鎖等,0,2022-07-13,2022-07-05,一般社団法人ＢＬ江坂プロパティー,,その他の設立登記法人,東京都,千代田区,神田神保町１丁目１１番地さくら綜合事務所内,,13,101,1010051,,,2022-07-05,清算の結了等,,,2020-03-10,1,,,,,ビーエルエサカプロパティー,0
337,2010401140540,登記記録の閉鎖等,0,2022-07-13,2022-06-01,株式会社レイズ,,株式会社,東京都,千代田区,霞が関３丁目２番５号,,13,101,1000013,,,2022-06-01,合併による解散等,8010401056616,令和４年６月１日東京都千代田区霞が関三丁目２番５号株式会社ユカリア（8010401056616）に合併し解散,2018-09-03,1,,,,,レイズ,0
341,2010405013511,登記記録の閉鎖等,0,2022-07-13,2022-06-27,流山２ロジスティック特定目的会社,,その他の設立登記法人,東京都,港区,東新橋１丁目５番２号汐留シティセンター,,13,103,1050021,,,2022-06-27,清算の結了等,,,2015-10-05,1,,,,,ナガレヤマツーロジスティック,0
351,2011001104555,登記記録の閉鎖等,0,2022-07-13,2022-07-08,株式会社デューバエンタテインメント,,株式会社,東京都,豊島区,西池袋２丁目２番１７号フラット目白１Ｆ,,13,116,1710021,,,2022-07-08,清算の結了等,,,2015-10-05,1,,,,,デューバエンタテインメント,0
360,2011101064542,登記記録の閉鎖等,0,2022-07-13,2022-06-27,株式会社ＳＯＬＡＥＲ　ＪＡＰＡＮ,,株式会社,東京都,港区,西麻布３丁目２－９サンライズ六本木６Ａ,,13,103,1060031,,,2022-06-27,清算の結了等,,,2015-10-05,1,,,,,ソラエルジャパン,0
365,2011103004406,登記記録の閉鎖等,0,2022-07-13,2022-06-27,合同会社宙得宇乃,,合同会社,東京都,港区,西麻布３丁目２－９サンライズ六本木６Ａ,,13,103,1060031,,,2022-06-27,清算の結了等,,,2015-10-05,1,,,,,ソラエルウノ,0
366,2011103006798,登記記録の閉鎖等,0,2022-07-13,2022-07-08,ＳＧ群馬合同会社,,合同会社,東京都,新宿区,西新宿３丁目１番４号第二佐山ビル９Ｆ,,13,104,1600023,,,2022-07-08,清算の結了等,,,2017-02-07,1,,,,,エスジーグンマ,0
367,2011103009124,登記記録の閉鎖等,0,2022-07-13,2022-07-07,合同会社スマイルライフ,,合同会社,東京都,新宿区,高田馬場３丁目１番５号,,13,104,1690075,,,2022-07-07,清算の結了等,,,2019-09-27,1,,,,,スマイルライフ,0
378,2011402001789,登記記録の閉鎖等,0,2022-07-13,2022-07-11,有限会社大島印刷,,有限会社,東京都,板橋区,坂下３丁目３３番１４－２０２号,,13,119,1740043,,,2022-07-11,清算の結了等,,,2015-10-05,1,,,,,,0
385,2011602003016,登記記録の閉鎖等,0,2022-07-13,2022-07-11,有限会社北村機材,,有限会社,東京都,練馬区,富士見台４丁目２４番１３号,,13,120,1770034,,,2022-07-11,清算の結了等,,,2015-10-05,1,,,,,キタムラキザイ,0
386,2011701005730,登記記録の閉鎖等,0,2022-07-13,2022-07-07,株式会社トクエー堂,,株式会社,東京都,江戸川区,西小岩１丁目２５番３号,,13,123,1330057,,,2022-07-07,清算の結了等,,,2015-10-05,1,,,,,トクエードウ,0
393,2012401005054,登記記録の閉鎖等,0,2022-07-13,2022-07-08,キット商事株式会社,,株式会社,東京都,府中市,小柳町６丁目２３番地の３９,,13,206,1830013,,,2022-07-08,清算の結了等,,,2015-10-05,1,,,,,キットショウジ,0
421,2021002066769,登記記録の閉鎖等,0,2022-07-13,2022-07-05,有限会社細高商店,,有限会社,神奈川県,横須賀市,秋谷２丁目７番１８号,,14,201,2400105,,,2022-07-05,清算の結了等,,,2015-10-05,1,,,,,ホソタカショウテン,0
432,2040001114108,登記記録の閉鎖等,0,2022-07-13,2022-07-05,株式会社マウンテン,,株式会社,千葉県,市川市,市川南２丁目９番３２号ユーコート市川南２０１号室,,12,203,2720033,,,2022-07-05,清算の結了等,,,2020-06-24,1,,,,,マウンテン,0
435,2040005001145,登記記録の閉鎖等,0,2022-07-13,2022-07-01,医療法人三橋病院,,その他の設立登記法人,千葉県,千葉市中央区,亀井町２番３号,,12,101,2600011,,,2022-07-01,合併による解散等,4040005009946,令和４年７月１日千葉県東金市堀上字関之上７３番地１医療法人社団明生会（4040005009946）に合併し解散,2015-10-05,1,,,,,ミツハシビョウイン,0
441,2070001007309,登記記録の閉鎖等,0,2022-07-13,2022-07-07,スーユェン株式会社,,株式会社,群馬県,高崎市,上里見町３９５５番地,,10,202,3703345,,,2022-07-07,清算の結了等,,,2015-10-05,1,,,,,スーユェン,0
457,2110002005934,登記記録の閉鎖等,0,2022-07-13,2022-07-07,有限会社宝来寿司,,有限会社,新潟県,新潟市中央区,古町通８番町１５０３番地,,15,103,9518063,,,2022-07-07,清算の結了等,,,2015-10-05,1,,,,,ホウライズシ,0
458,2110002029371,登記記録の閉鎖等,0,2022-07-13,2022-07-07,有限会社森永牛乳南部販売所,,有限会社,新潟県,長岡市,宮原２丁目１３番３４号,,15,202,9400083,,,2022-07-07,清算の結了等,,,2015-10-05,1,,,,,モリナガギュウニュウナンブハンバイショ,0
459,2120001002056,登記記録の閉鎖等,0,2022-07-13,2022-07-07,ダイメイ電気土木株式会社,,株式会社,大阪府,大阪市鶴見区,緑３丁目８番５号,,27,124,5380054,,,2022-07-07,清算の結了等,,,2015-10-05,1,,,,,ダイメイデンキドボク,0
463,2120001044230,登記記録の閉鎖等,0,2022-07-13,2022-07-11,システム工産株式会社,,株式会社,大阪府,大阪市西区,阿波座１丁目１２番２１号,,27,106,5500011,,,2022-07-11,清算の結了等,,,2015-10-05,1,,,,,システムコウサン,0
505,2160001007225,登記記録の閉鎖等,0,2022-07-13,2022-07-05,株式会社共進コンサルタント,,株式会社,滋賀県,長浜市,湖北町山脇５０８番地,,25,203,5290317,,,2022-07-05,清算の結了等,,,2015-10-05,1,,,,,キョウシンコンサルタント,0
511,2180005017623,登記記録の閉鎖等,0,2022-07-13,2022-07-07,特定非営利活動法人ガーディアン・サポート,,その他の設立登記法人,愛知県,名古屋市中村区,名駅４丁目１３番７号西柳パークビル５階,,23,105,4500002,,,2022-07-07,清算の結了等,,,2017-12-27,1,,,,,ガーディアンサポート,0
513,2180005019363,登記記録の閉鎖等,0,2022-07-13,2022-07-08,一般社団法人東海医療研究開発センター,,その他の設立登記法人,愛知県,名古屋市中区,錦２丁目１１番２７号ＴＨ錦ビル６階,,23,106,4600003,,,2022-07-08,清算の結了等,,,2021-07-13,1,,,,,トウカイイリョウカイハツセンター,0
517,2180303004018,登記記録の閉鎖等,0,2022-07-13,2022-07-01,合同会社シリウスキャピタル,,合同会社,愛知県,豊田市,御幸本町７丁目３０３－６,,23,211,4730901,,,2022-07-01,清算の結了等,,,2018-02-23,1,,,,,シリウスキャピタル,0
528,2240002052872,登記記録の閉鎖等,0,2022-07-13,2022-07-07,有限会社イチフジ技建,,有限会社,広島県,尾道市,御調町市２９１番地１,,34,205,7220311,,,2022-07-07,清算の結了等,,,2015-10-05,1,,,,,イチフジギケン,0
541,2290001053891,登記記録の閉鎖等,0,2022-07-13,2022-07-01,株式会社精美堂,,株式会社,福岡県,大牟田市,上町２丁目６番地の１０,,40,202,8360853,,,2022-07-01,清算の結了等,,,2015-10-05,1,,,,,セイビドウ,0
550,2320001011202,登記記録の閉鎖等,0,2022-07-13,2022-07-01,朝日観光開発株式会社,,株式会社,大分県,中津市,大字島田４６５番地の３,,44,203,8710033,,,2022-07-01,清算の結了等,,,2015-10-05,1,,,,,アサヒカンコウカイハツ,0
553,2320003002026,登記記録の閉鎖等,0,2022-07-13,2022-07-04,合同会社中尾,,合同会社,大分県,大分市,大字荏隈４４６番地の７,,44,201,8700889,,,2022-07-04,清算の結了等,,,2015-10-05,1,,,,,ナカオ,0
561,2370003001353,登記記録の閉鎖等,0,2022-07-13,2022-06-30,合同会社鈴木地質,,合同会社,宮城県,仙台市太白区,大野田字下古川３７番地の７７,,04,104,9820014,,,2022-06-30,清算の結了等,,,2015-10-05,1,,,,,スズキチシツ,0
586,2460103001194,登記記録の閉鎖等,0,2022-07-13,2022-07-06,合同会社ケサタ機工,,合同会社,北海道,帯広市,西十六条北２丁目４４番４号,,01,207,0800046,,,2022-07-06,清算の結了等,,,2019-01-21,1,,,,,ケサタキコウ,0
589,2480001009932,登記記録の閉鎖等,0,2022-07-13,2022-07-11,鳴門ＩＲ株式会社,,株式会社,徳島県,徳島市,昭和町１丁目２９番地の１フィールド・オブ・ウィステリア８０３号室,,36,201,7700942,,,2022-07-11,清算の結了等,,,2017-03-07,1,,,,,ナルトアイアール,0
610,3010401162732,登記記録の閉鎖等,0,2022-07-13,2022-07-08,株式会社おがの,,株式会社,東京都,港区,三田５丁目７番１２号,,13,103,1080073,,,2022-07-08,合併による解散等,9010501009209,令和４年６月３０日東京都台東区東上野一丁目２６番２号東京貴宝株式会社（9010501009209）に合併し解散,2021-09-16,1,,,,,オガノ,0
611,3010405013510,登記記録の閉鎖等,0,2022-07-13,2022-06-27,流山３ロジスティック特定目的会社,,その他の設立登記法人,東京都,港区,東新橋１丁目５番２号汐留シティセンター,,13,103,1050021,,,2022-06-27,清算の結了等,,,2015-10-05,1,,,,,ナガレヤマスリーロジスティック,0
627,3011101051416,登記記録の閉鎖等,0,2022-07-13,2022-07-08,株式会社めっせーじ,,株式会社,東京都,新宿区,下落合１丁目３番１６号,,13,104,1610033,,,2022-07-08,清算の結了等,,,2015-10-05,1,,,,,メッセージ,0
632,3011103006797,登記記録の閉鎖等,0,2022-07-13,2022-07-08,ＳＧ千葉合同会社,,合同会社,東京都,新宿区,西新宿３丁目１番４号第二佐山ビル９Ｆ,,13,104,1600023,,,2022-07-08,清算の結了等,,,2017-02-07,1,,,,,エスジーチバ,0
633,3011103006806,登記記録の閉鎖等,0,2022-07-13,2022-07-08,ＳＧ東北合同会社,,合同会社,東京都,新宿区,西新宿３丁目１番４号第二佐山ビル９Ｆ,,13,104,1600023,,,2022-07-08,清算の結了等,,,2017-02-07,1,,,,,エスジートウホク,0
637,3011303003363,登記記録の閉鎖等,0,2022-07-13,2022-07-08,合同会社三愛,,合同会社,東京都,杉並区,西荻北３丁目２４番１３号,,13,115,1670042,,,2022-07-08,清算の結了等,,,2019-07-10,1,,,,,サンアイ,0
667,3020001106023,登記記録の閉鎖等,0,2022-07-13,2022-07-04,株式会社ウインドフィールド,,株式会社,神奈川県,横浜市青葉区,奈良２丁目３２番地１９,,14,117,2270038,,,2022-07-04,清算の結了等,,,2015-10-05,1,,,,,ウインドフィールド,0
674,3020003008738,登記記録の閉鎖等,0,2022-07-13,2022-06-27,合同会社ＩＷＥＣ,,合同会社,神奈川県,平塚市,明石町２３番４－５０６号,,14,203,2540042,,,2022-06-27,清算の結了等,,,2015-10-05,1,,,,,アイウェック,0
696,3040001002872,登記記録の閉鎖等,0,2022-07-13,2022-07-05,山和エステート株式会社,,株式会社,千葉県,千葉市中央区,祐光２丁目５番１,,12,101,2600007,,,2022-07-05,清算の結了等,,,2015-10-05,1,,,,,サンワエステート,0
699,3040001076363,登記記録の閉鎖等,0,2022-07-13,2022-07-01,株式会社マツモトキヨシファーマシーズ,,株式会社,千葉県,松戸市,新松戸東９番地１,,12,207,2700033,,,2022-07-01,合併による解散等,1040001036939,令和４年７月１日千葉県松戸市新松戸東９番地１株式会社マツモトキヨシ（1040001036939）に合併し解散,2015-10-05,1,,,,,マツモトキヨシファーマシーズ,0
735,3110001007063,登記記録の閉鎖等,0,2022-07-13,2022-07-05,株式会社あさひや,,株式会社,新潟県,新潟市秋葉区,新津本町３丁目１２番４号,,15,105,9560864,,,2022-07-05,清算の結了等,,,2015-10-05,1,,,,,アサヒヤ,0
737,3120001066595,登記記録の閉鎖等,0,2022-07-13,2022-07-11,大東繊維株式会社,,株式会社,大阪府,大阪市中央区,南本町３丁目３番２３号,,27,128,5410054,,,2022-07-11,清算の結了等,,,2015-10-05,1,,,,,ダイトウセンイ,0
753,3120002046687,登記記録の閉鎖等,0,2022-07-13,2022-07-11,有限会社六甲,,有限会社,大阪府,大阪市西区,阿波座１丁目１２番２１号,,27,106,5500011,,,2022-07-11,清算の結了等,,,2015-10-05,1,,,,,ロッコウ,0
768,3120102020146,登記記録の閉鎖等,0,2022-07-13,2022-07-06,有限会社橋爪,,有限会社,大阪府,河内長野市,千代田台町４番４号,,27,216,5860027,,,2022-07-06,清算の結了等,,,2015-10-05,1,,,,,ハシヅメ,0
773,3120901020354,登記記録の閉鎖等,0,2022-07-13,2022-06-30,株式会社関西技術センター,,株式会社,大阪府,箕面市,坊島１丁目１７番１５号,,27,220,5620013,,,2022-06-30,清算の結了等,,,2015-10-05,1,,,,,カンサイギジュツセンター,0
777,3122001013115,登記記録の閉鎖等,0,2022-07-13,2022-07-07,ニスク販売株式会社,,株式会社,大阪府,東大阪市,本庄西３丁目７番２４号,,27,227,5780965,,,2022-07-07,合併による解散等,5120001044979,令和４年７月１日大阪市西区南堀江三丁目１３番１４号ＮＳプロスチール建材株式会社（5120001044979）に合併し解散,2015-10-05,1,,,,,ニスクハンバイ,0
818,3290001004019,登記記録の閉鎖等,0,2022-07-13,2022-07-01,株式会社フリーダム,,株式会社,福岡県,福岡市早良区,百道浜４丁目３１番１－２５０９号,,40,137,8140001,,,2022-07-01,清算の結了等,,,2015-10-05,1,,,,,フリーダム,0
846,3370001002699,登記記録の閉鎖等,0,2022-07-13,2022-07-01,遠藤自動車工業株式会社,,株式会社,宮城県,仙台市若林区,河原町１丁目７番２０号,,04,103,9840816,,,2022-07-01,清算の結了等,,,2015-10-05,1,,,,,エンドウジドウシャコウギョウ,0
878,4010002016295,登記記録の閉鎖等,0,2022-07-13,2022-06-30,アーガス商事有限会社,,有限会社,東京都,中央区,築地６丁目３番９号,,13,102,1040045,,,2022-06-30,清算の結了等,,,2015-10-05,1,,,,,アーガスショウジ,0
905,4010702007874,登記記録の閉鎖等,0,2022-07-13,2022-07-07,有限会社丸伝,,有限会社,東京都,品川区,西五反田８丁目１番１０号,,13,109,1410031,,,2022-07-07,清算の結了等,,,2015-10-05,1,,,,,マルデン,0
925,4011103006805,登記記録の閉鎖等,0,2022-07-13,2022-07-08,ＳＧ九州合同会社,,合同会社,東京都,新宿区,西新宿３丁目１番４号第二佐山ビル９Ｆ,,13,104,1600023,,,2022-07-08,清算の結了等,,,2017-02-07,1,,,,,エスジーキュウシュウ,0
927,4011301025565,登記記録の閉鎖等,0,2022-07-13,2022-07-08,株式会社ケアライズ,,株式会社,東京都,杉並区,天沼３丁目９－１荻窪ビル１階,,13,115,1670032,,,2022-07-08,清算の結了等,,,2019-12-12,1,,,,,ケアライズ,0
935,4011501020060,登記記録の閉鎖等,0,2022-07-13,2022-07-11,甘露商事株式会社,,株式会社,東京都,台東区,東上野２丁目２２番６号,,13,106,1100015,,,2022-07-11,清算の結了等,,,2015-10-05,1,,,,,カンロショウジ,0
938,4011601000573,登記記録の閉鎖等,0,2022-07-13,2022-07-08,石川商事株式会社,,株式会社,東京都,練馬区,早宮２丁目１８番２３号,,13,120,1790085,,,2022-07-08,清算の結了等,,,2015-10-05,1,,,,,イシカワショウジ,0
939,4011601004467,登記記録の閉鎖等,0,2022-07-13,2022-07-07,株式会社トウキョウエレクトロアコーステイック,,株式会社,東京都,練馬区,大泉学園町６丁目４番１８号,,13,120,1780061,,,2022-07-07,清算の結了等,,,2015-10-05,1,,,,,トウキョウエレクトロアコーステイック,0
949,4013302013887,登記記録の閉鎖等,0,2022-07-13,2022-07-07,有限会社ミエ硝子,,有限会社,東京都,豊島区,南長崎１丁目１５番８号,,13,116,1710052,,,2022-07-07,清算の結了等,,,2015-10-05,1,,,,,ミエガラス,0
950,4020001045352,登記記録の閉鎖等,0,2022-07-13,2022-07-04,株式会社青木テクノロジー,,株式会社,神奈川県,横浜市南区,西中町１丁目２番地,,14,105,2320003,,,2022-07-04,清算の結了等,,,2015-10-05,1,,,,,アオキテクノロジー,0
952,4020001076612,登記記録の閉鎖等,0,2022-07-13,2022-07-07,株式会社ＪＦＥメカフロント京浜,,株式会社,神奈川県,川崎市川崎区,扇島１番地１,,14,131,2100868,,,2022-07-07,合併による解散等,7040001004725,令和４年７月１日千葉市中央区新浜町１番地株式会社ＪＦＥメカフロント東日本（7040001004725）に合併し解散,2015-10-05,1,,,,,ジェイエフイーメカフロントケイヒン,0
993,4050001037693,登記記録の閉鎖等,0,2022-07-13,2022-07-01,株式会社三信テクノ,,株式会社,茨城県,神栖市,日川４５０４番地１,,08,232,3140114,,,2022-07-01,合併による解散等,1050001021080,令和４年７月１日茨城県神栖市日川４５０４番地１株式会社三信工業（1050001021080）に合併し解散,2015-10-05,1,,,,,サンシンテクノ,0
996,4060002028690,登記記録の閉鎖等,0,2022-07-13,2022-07-04,有限会社誠美,,有限会社,栃木県,小山市,駅南町４丁目１９番１７号,,09,208,3230822,,,2022-07-04,清算の結了等,,,2015-10-05,1,,,,,セイミ,0
1002,4080101013542,登記記録の閉鎖等,0,2022-07-13,2022-07-08,株式会社風越勢気,,株式会社,静岡県,伊東市,吉田１００５番地,,22,208,4140051,,,2022-07-08,合併による解散等,5010701002099,令和４年７月１日東京都品川区大井七丁目２９番６号大森建物株式会社（5010701002099）に合併し解散,2015-10-05,1,,,,,カザコシセキ,0
1017,4120001088011,登記記録の閉鎖等,0,2022-07-13,2022-07-08,平田機工株式会社,,株式会社,大阪府,大阪市中央区,上本町西１丁目３番７号,,27,128,5420062,,,2022-07-08,清算の結了等,,,2015-10-05,1,,,,,ヒラタキコウ,0
1046,4130005015836,登記記録の閉鎖等,0,2022-07-13,2022-07-04,一般社団法人さと・まち,,その他の設立登記法人,兵庫県,宝塚市,野上３丁目１２番３９号,,28,214,6650022,,,2022-07-04,清算の結了等,,,2020-02-18,1,,,,,サトマチ,0
1047,4140001013834,登記記録の閉鎖等,0,2022-07-13,2022-07-05,日神建設株式会社,,株式会社,宮城県,仙台市青葉区,本町１丁目１３番２２号,,04,101,9800014,,,2022-07-05,合併による解散等,2140001012854,令和４年７月１日神戸市兵庫区七宮町二丁目１番１号寄神建設株式会社（2140001012854）に合併し解散,2015-10-05,1,,,,,ニッシンケンセツ,0
1053,4140003005895,登記記録の閉鎖等,0,2022-07-13,2022-07-05,ＣＨ　Ｐａｒｔｎｅｒｓ合同会社,,合同会社,兵庫県,神戸市東灘区,岡本５丁目１０番１０号,,28,101,6580072,,,2022-07-05,清算の結了等,,,2015-10-05,1,,,,,シーエイチパートナーズ,0
1054,4150001000261,登記記録の閉鎖等,0,2022-07-13,2022-07-07,株式会社うさぎや玩具店,,株式会社,奈良県,奈良市,東向南町２３番地,,29,201,6308216,,,2022-07-07,清算の結了等,,,2015-10-05,1,,,,,ウサギヤガングテン,0
1078,4210002010352,登記記録の閉鎖等,0,2022-07-13,2022-06-30,有限会社シーシーエス北陸代理店,,有限会社,福井県,敦賀市,中央町２丁目８番２５号,,18,202,9140811,,,2022-06-30,清算の結了等,,,2015-10-05,1,,,,,シーシーエスホクリクダイリテン,0
1079,4220001023271,登記記録の閉鎖等,0,2022-07-13,2022-07-01,株式会社ジュプランサ,,株式会社,石川県,金沢市,笠市町２番３２号,,17,201,9200851,,,2022-07-01,合併による解散等,5220001005203,令和４年７月１日石川県金沢市柳橋町ハ３２番地１能崎物産株式会社（5220001005203）に合併し解散,2019-12-25,1,,,,,ジュプランサ,0
1085,4240001009772,登記記録の閉鎖等,0,2022-07-13,2022-07-07,ヒサゴ食品株式会社,,株式会社,広島県,広島市西区,庚午北３丁目９番１号,,34,104,7330821,,,2022-07-07,清算の結了等,,,2015-10-05,1,,,,,ヒサゴショクヒン,0
1092,4260002018309,登記記録の閉鎖等,0,2022-07-13,2022-07-07,サン衣料三宅有限会社,,有限会社,岡山県,倉敷市,児島小川３丁目３番１５号,,33,202,7110911,,,2022-07-07,清算の結了等,,,2015-10-05,1,,,,,サンイリョウミヤケ,0
1142,4470002001094,登記記録の閉鎖等,0,2022-07-13,2022-07-05,有限会社祖谷温泉,,有限会社,香川県,高松市,田村町４８４番地４,,37,201,7618057,,,2022-07-05,合併による解散等,8480001007476,令和４年７月１日徳島県三好市池田町松尾松本３６７番地２８祖谷溪温泉観光株式会社（8480001007476）に合併し解散,2015-10-05,1,,,,,イヤオンセン,0
1158,5010001125617,登記記録の閉鎖等,0,2022-07-13,2022-07-07,ダイヤモンドシテイ株式会社,,株式会社,東京都,新宿区,揚場町二丁目１８番,,13,104,1620824,,,2022-07-07,清算の結了等,,,2015-10-05,1,,,,,,0
1185,5010501011531,登記記録の閉鎖等,0,2022-07-13,2022-07-12,株式会社ヒロエ・シューズ,,株式会社,東京都,台東区,東浅草２丁目１９番３号,,13,106,1110025,,,2022-07-12,清算の結了等,,,2015-10-05,1,,,,,ヒロエシューズ,0
1213,5011103006804,登記記録の閉鎖等,0,2022-07-13,2022-07-08,ＳＧ東京合同会社,,合同会社,東京都,新宿区,西新宿３丁目１番４号第二佐山ビル９Ｆ,,13,104,1600023,,,2022-07-08,清算の結了等,,,2017-02-07,1,,,,,エスジートウキョウ,0
1217,5011301026356,登記記録の閉鎖等,0,2022-07-13,2022-07-08,アークソリューションズ株式会社,,株式会社,東京都,武蔵野市,西久保１丁目３番１０号,,13,203,1800013,,,2022-07-08,清算の結了等,,,2020-11-09,1,,,,,アークソリューションズ,0
1223,5011503004738,登記記録の閉鎖等,0,2022-07-13,2022-07-08,Ｆｏｒｔｕｎｅ　Ｃｕｒｒｅｎｔ合同会社,,合同会社,東京都,北区,東田端２丁目６番４号シルフィ田端７０２号,,13,117,1140013,,,2022-07-08,清算の結了等,,,2021-04-20,1,,,,,フォーチューンカレント,0
1243,5020002058930,登記記録の閉鎖等,0,2022-07-13,2022-07-04,有限会社共栄工作,,有限会社,神奈川県,横浜市保土ケ谷区,新桜ケ丘１丁目４５番２号,,14,106,2400036,,,2022-07-04,清算の結了等,,,2015-10-05,1,,,,,,0
1248,5021002028196,登記記録の閉鎖等,0,2022-07-13,2022-07-06,有限会社ファームソート,,有限会社,神奈川県,相模原市中央区,上溝１６６９番地３サーパス上溝第２－３０７号,,14,152,2520243,,,2022-07-06,清算の結了等,,,2015-10-05,1,,,,,ファームソート,0
1265,5030002099668,登記記録の閉鎖等,0,2022-07-13,2022-07-01,有限会社朝日工業,,有限会社,埼玉県,川口市,朝日５丁目９番２３号,,11,203,3320001,,,2022-07-01,清算の結了等,,,2015-10-05,1,,,,,アサヒコウギョウ,0
1266,5030002106473,登記記録の閉鎖等,0,2022-07-13,2022-07-04,有限会社武幸商事,,有限会社,千葉県,松戸市,小金原６丁目８番地の１１,,12,207,2700021,,,2022-07-04,清算の結了等,,,2015-10-05,1,,,,,ブコウショウジ,0
1290,5050001020450,登記記録の閉鎖等,0,2022-07-13,2022-06-30,株式会社石毛築炉工業,,株式会社,茨城県,鹿嶋市,大字鉢形１３８５番地３８,,08,222,3140034,,,2022-06-30,清算の結了等,,,2015-10-05,1,,,,,イシゲチクロコウギョウ,0
1317,5120003015466,登記記録の閉鎖等,0,2022-07-13,2022-07-06,合同会社ＳＡＳ,,合同会社,大阪府,大阪市阿倍野区,阿倍野筋５丁目１０番１６号,,27,119,5450052,,,2022-07-06,清算の結了等,,,2019-03-25,1,,,,,エスエーエス,0
1354,5180005006193,登記記録の閉鎖等,0,2022-07-13,2022-07-11,特定非営利活動法人ホームページ工房なごや,,その他の設立登記法人,愛知県,名古屋市緑区,万場山２丁目７１１番地,,23,114,4580043,,,2022-07-11,清算の結了等,,,2015-10-05,1,,,,,ホームページコウボウナゴヤ,0
1355,5180301008959,登記記録の閉鎖等,0,2022-07-13,2022-07-01,豊田生産コンサルティング株式会社,,株式会社,愛知県,豊橋市,朝丘町７４番地,,23,201,4400043,,,2022-07-01,清算の結了等,,,2015-10-05,1,,,,,トヨタセイサンコンサルティング,0
1388,5290801016137,登記記録の閉鎖等,0,2022-07-13,2022-07-08,株式会社宮崎農園,,株式会社,福岡県,築上郡上毛町,大字土佐井５７８番地,,40,646,8710921,,,2022-07-08,合併による解散等,2320001011210,令和４年６月２９日大分県中津市大字田尻２５００番地の１株式会社大和（2320001011210）に合併し解散,2015-10-05,1,,,,,ミヤザキノウエン,0
1390,5310003003690,登記記録の閉鎖等,0,2022-07-13,2022-07-08,合同会社イーリス,,合同会社,長崎県,北松浦郡佐々町,市場免１６番地２,,42,391,8570312,,,2022-07-08,清算の結了等,,,2019-07-01,1,,,,,イーリス,0
1428,5500002015635,登記記録の閉鎖等,0,2022-07-13,2022-07-11,有限会社プラスシール,,有限会社,愛媛県,西条市,明神木９４番地８,,38,206,7930034,,,2022-07-11,清算の結了等,,,2015-10-05,1,,,,,プラスシール,0
1432,6010001135549,登記記録の閉鎖等,0,2022-07-13,2022-07-01,株式会社アール・イー・ジー,,株式会社,東京都,千代田区,三番町７番地２ヴィラロイヤル三番町５０１号,,13,101,1020075,,,2022-07-01,清算の結了等,,,2015-10-05,1,,,,,アールイージー,0
1439,6010002003713,登記記録の閉鎖等,0,2022-07-13,2022-07-01,有限会社タケノヤ,,有限会社,東京都,文京区,本郷２丁目１２－２タケノヤビル別館,,13,105,1130033,,,2022-07-01,清算の結了等,,,2015-10-05,1,,,,,タケノヤ,0
1471,6010603007419,登記記録の閉鎖等,0,2022-07-13,2022-07-05,合同会社Ｍ’ｓレンタル,,合同会社,東京都,江東区,南砂６丁目１１番１２－５０４号,,13,108,1360076,,,2022-07-05,清算の結了等,,,2018-09-04,1,,,,,エムズレンタル,0
1496,6011001140274,登記記録の閉鎖等,0,2022-07-13,2022-07-01,株式会社ハイブリッジ,,株式会社,東京都,渋谷区,神宮前６丁目２３番４号桑野ビル２Ｆ,,13,113,1500001,,,2022-07-01,清算の結了等,,,2021-05-14,1,,,,,ハイブリッジ,0
1497,6011003012364,登記記録の閉鎖等,0,2022-07-13,2022-07-04,合同会社アポロ,,合同会社,東京都,目黒区,碑文谷４丁目９番１６号,,13,110,1520003,,,2022-07-04,清算の結了等,,,2021-03-02,1,,,,,アポロ,0
1499,6011103004402,登記記録の閉鎖等,0,2022-07-13,2022-06-27,合同会社宙得新古,,合同会社,東京都,港区,西麻布３丁目２－９サンライズ六本木６Ａ,,13,103,1060031,,,2022-06-27,清算の結了等,,,2015-10-05,1,,,,,ソラエルシンコ,0
1500,6011103006803,登記記録の閉鎖等,0,2022-07-13,2022-07-08,ＳＧ埼玉合同会社,,合同会社,東京都,新宿区,西新宿３丁目１番４号第二佐山ビル９Ｆ,,13,104,1600023,,,2022-07-08,清算の結了等,,,2017-02-07,1,,,,,エスジーサイタマ,0
1501,6011201013296,登記記録の閉鎖等,0,2022-07-13,2022-07-01,株式会社ブシロードメディア,,株式会社,東京都,中野区,中央１丁目３８番１号,,13,114,1640011,,,2022-07-01,合併による解散等,8030001107206,令和４年７月１日東京都中野区中央一丁目３８番１号株式会社ブシロードクリエイティブ（8030001107206）に合併し解散,2015-10-05,1,,,,,ブシロードメディア,0
1507,6012401025858,登記記録の閉鎖等,0,2022-07-13,2022-07-08,株式会社クラレンドン研究所,,株式会社,東京都,小金井市,本町３丁目１番２０号,,13,210,1840004,,,2022-07-08,清算の結了等,,,2015-10-05,1,,,,,クラレンドンケンキュウジョ,0
1513,6013301031780,登記記録の閉鎖等,0,2022-07-13,2022-07-08,株式会社エニアップ,,株式会社,東京都,豊島区,南池袋１丁目１６番１５号ダイヤゲート池袋５階,,13,116,1710022,,,2022-07-08,清算の結了等,,,2015-10-05,1,,,,,エニアップ,0
1554,6040001042073,登記記録の閉鎖等,0,2022-07-13,2022-07-04,株式会社カミコシマ,,株式会社,千葉県,松戸市,大橋４８０番地１０,,12,207,2702224,,,2022-07-04,清算の結了等,,,2015-10-05,1,,,,,カミコシマ,0
1555,6040001073993,登記記録の閉鎖等,0,2022-07-13,2022-07-04,サザンワークス株式会社,,株式会社,千葉県,南房総市,富浦町深名４２７番地の１,,12,234,2992415,,,2022-07-04,清算の結了等,,,2015-10-05,1,,,,,サザンワークス,0
1575,6060002003659,登記記録の閉鎖等,0,2022-07-13,2022-07-04,有限会社公共測量設計事務所,,有限会社,栃木県,宇都宮市,海道町字土橋８０７番地１３,,09,201,3210971,,,2022-07-04,清算の結了等,,,2015-10-05,1,,,,,コウキョウソクリョウセッケイジムショ,0
1578,6070001021933,登記記録の閉鎖等,0,2022-07-13,2022-07-01,日総建設株式会社,,株式会社,群馬県,館林市,小桑原町８７６番地の２,,10,207,3740037,,,2022-07-01,清算の結了等,,,2015-10-05,1,,,,,,0
1582,6080002002436,登記記録の閉鎖等,0,2022-07-13,2022-07-11,有限会社清水洋子,,有限会社,静岡県,静岡市葵区,二番町４番地の１０,,22,101,4200072,,,2022-07-11,清算の結了等,,,2015-10-05,1,,,,,シミズヨウコ,0
1596,6110001018520,登記記録の閉鎖等,0,2022-07-13,2022-07-06,株式会社さくら会計サポート,,株式会社,新潟県,村上市,岩船横新町２番２号,,15,212,9580057,,,2022-07-06,清算の結了等,,,2015-10-05,1,,,,,サクラカイケイサポート,0
1599,6120001004453,登記記録の閉鎖等,0,2022-07-13,2022-07-01,ヤマス興発株式会社,,株式会社,大阪府,大阪市天王寺区,東高津町１１番９号,,27,109,5430021,,,2022-07-01,合併による解散等,4120001003548,令和４年７月１日大阪市天王寺区東高津町１１番９号白山殖産株式会社（4120001003548）に合併し解散,2015-10-05,1,,,,,ヤマスコウハツ,0
1619,6120005014036,登記記録の閉鎖等,0,2022-07-13,2022-07-11,医療法人斉歯会杉岡歯科診療所,,その他の設立登記法人,大阪府,門真市,千石東町２番２６号,,27,223,5710013,,,2022-07-11,清算の結了等,,,2015-10-05,1,,,,,セイシカイスギオカシカシンリョウジョ,0
1645,6180001109610,登記記録の閉鎖等,0,2022-07-13,2022-07-07,株式会社シンテック,,株式会社,愛知県,丹羽郡扶桑町,大字高木字吉山８７７番地２,,23,362,4800107,,,2022-07-07,清算の結了等,,,2015-10-05,1,,,,,シンテック,0
1659,6190002024477,登記記録の閉鎖等,0,2022-07-13,2022-07-01,丸共木材生産有限会社,,有限会社,三重県,伊勢市,一之木２丁目２２番１４号,,24,203,5160071,,,2022-07-01,清算の結了等,,,2015-10-05,1,,,,,マルキョウモクザイセイサン,0
1664,6220001021513,登記記録の閉鎖等,0,2022-07-13,2022-07-05,株式会社アスコム北陸,,株式会社,石川県,金沢市,横川６丁目１０８番地,,17,201,9218163,,,2022-07-05,清算の結了等,,,2017-03-06,1,,,,,アスコムホクリク,0
1680,6270001000545,登記記録の閉鎖等,0,2022-07-13,2022-07-06,株式会社錦工務店,,株式会社,鳥取県,鳥取市,宮長１２３番地９,,31,201,6800872,,,2022-07-06,清算の結了等,,,2015-10-05,1,,,,,ニシキコウムテン,0
1718,6430001034799,登記記録の閉鎖等,0,2022-07-13,2022-07-06,コムシス北海道エンジニアリング株式会社,,株式会社,北海道,札幌市手稲区,手稲星置１８１番地１,,01,109,0060859,,,2022-07-06,合併による解散等,7430001025079,令和４年７月１日札幌市中央区南二十条西十丁目３番５号株式会社つうけんアクティブ（7430001025079）に合併し解散,2015-10-05,1,,,,,コムシスホッカイドウエンジニアリング,0
1735,7010001032753,登記記録の閉鎖等,0,2022-07-13,2022-07-01,株式会社ワークショップ二十一,,株式会社,東京都,千代田区,神田練塀町４５番地ライオンズマンション秋葉原３０５号室,,13,101,1010022,,,2022-07-01,清算の結了等,,,2015-10-05,1,,,,,ワークショップニジュウイチ,0
1772,7010603007599,登記記録の閉鎖等,0,2022-07-13,2022-07-08,レイファートジャパン合同会社,,合同会社,東京都,新宿区,西新宿７丁目１番１２号クロスオフィス新宿２階コワーキングスペース内,,13,104,1600023,,,2022-07-08,清算の結了等,,,2019-01-09,1,,,,,レイファートジャパン,0
1780,7010901037728,登記記録の閉鎖等,0,2022-07-13,2022-07-06,ドア株式会社,,株式会社,東京都,世田谷区,等々力１丁目２３番２号,,13,112,1580082,,,2022-07-06,清算の結了等,,,2016-03-08,1,,,,,ドア,0
1798,7011103006802,登記記録の閉鎖等,0,2022-07-13,2022-07-08,ＳＧ神奈川合同会社,,合同会社,東京都,新宿区,西新宿３丁目１番４号第二佐山ビル９Ｆ,,13,104,1600023,,,2022-07-08,清算の結了等,,,2017-02-07,1,,,,,エスジーカナガワ,0
1801,7011301016776,登記記録の閉鎖等,0,2022-07-13,2022-07-08,株式会社東図企画,,株式会社,東京都,杉並区,高円寺北２丁目１４番２６号,,13,115,1660002,,,2022-07-08,清算の結了等,,,2015-10-05,1,,,,,,0
1813,7011602009173,登記記録の閉鎖等,0,2022-07-13,2022-07-11,有限会社マサキ電機工業,,有限会社,東京都,練馬区,上石神井２丁目２３番５号,,13,120,1770044,,,2022-07-11,清算の結了等,,,2015-10-05,1,,,,,マサキデンキコウギョウ,0
1828,7020002018478,登記記録の閉鎖等,0,2022-07-13,2022-07-04,有限会社上大岡漢方堂薬局,,有限会社,神奈川県,横浜市港南区,東永谷１丁目１番２０号,,14,111,2330011,,,2022-07-04,清算の結了等,,,2015-10-05,1,,,,,カミオオオカカンポウドウヤッキョク,0
1836,7021001005293,登記記録の閉鎖等,0,2022-07-13,2022-07-04,株式会社チャンプハウス,,株式会社,神奈川県,藤沢市,湘南台２丁目１２番１号らうらうじ湘南台１２０８号室,,14,205,2520804,,,2022-07-04,清算の結了等,,,2015-10-05,1,,,,,チャンプハウス,0
1862,7040002064751,登記記録の閉鎖等,0,2022-07-13,2022-07-04,有限会社古川設備,,有限会社,千葉県,八街市,八街へ１９９番地６７３,,12,230,2891113,,,2022-07-04,清算の結了等,,,2015-10-05,1,,,,,,0
1879,7080002010025,登記記録の閉鎖等,0,2022-07-13,2022-07-11,有限会社新成工機,,有限会社,静岡県,静岡市葵区,昭府１丁目１９番１５－５号,,22,101,4200871,,,2022-07-11,清算の結了等,,,2015-10-05,1,,,,,シンセイコウキ,0
1888,7090002010536,登記記録の閉鎖等,0,2022-07-13,2022-07-05,有限会社安田織物,,有限会社,山梨県,都留市,大幡２８１０番地,,19,204,4020045,,,2022-07-05,清算の結了等,,,2015-10-05,1,,,,,ヤスダオリモノ,0
1908,7120002072473,登記記録の閉鎖等,0,2022-07-13,2022-07-07,有限会社芝崎電気,,有限会社,大阪府,寝屋川市,対馬江西町３番１８号,,27,215,5720065,,,2022-07-07,清算の結了等,,,2015-10-05,1,,,,,シバサキデンキ,0
1963,7240005009576,登記記録の閉鎖等,0,2022-07-13,2022-07-04,願成寺,,その他の設立登記法人,広島県,府中市,目崎町１１０番地の１,,34,208,7260033,,,2022-07-04,清算の結了等,,,2015-10-05,1,,,,,ガンジョウジ,0
1990,7340002009511,登記記録の閉鎖等,0,2022-07-13,2022-07-11,有限会社南日本ガス,,有限会社,鹿児島県,鹿児島市,紫原４丁目４２番７号,,46,201,8900082,,,2022-07-11,清算の結了等,,,2015-10-05,1,,,,,ミナミニホンガス,0
2010,7380002008889,登記記録の閉鎖等,0,2022-07-13,2022-07-07,有限会社協和モーターサービス,,有限会社,福島県,郡山市,字賀庄３４番地の２,,07,203,9638844,,,2022-07-07,清算の結了等,,,2015-10-05,1,,,,,キョウワモーターサービス,0
2019,7430001046959,登記記録の閉鎖等,0,2022-07-13,2022-06-30,三桂株式会社,,株式会社,北海道,三笠市,岡山１７８番２１,,01,222,0682165,,,2022-06-30,清算の結了等,,,2015-10-05,1,,,,,サンケイ,0
2046,8010001220299,登記記録の閉鎖等,0,2022-07-13,2022-07-07,株式会社リメイク,,株式会社,東京都,新宿区,新宿１丁目４番１３号溝呂木第２ビル７階７０Ｃ号室,,13,104,1600022,,,2022-07-07,清算の結了等,,,2021-08-06,1,,,,,リメイク,0
2060,8010401082216,登記記録の閉鎖等,0,2022-07-13,2022-06-27,株式会社アノアフォレスト,,株式会社,東京都,港区,赤坂２丁目１９番５号,,13,103,1070052,,,2022-06-27,清算の結了等,,,2015-10-05,1,,,,,,0
2068,8010403026014,登記記録の閉鎖等,0,2022-07-13,2022-06-27,合同会社Ｍａｇｎｏ,,合同会社,東京都,港区,虎ノ門５丁目１番４号,,13,103,1050001,,,2022-06-27,清算の結了等,,,2021-08-31,1,,,,,マグノ,0
2082,8010901040714,登記記録の閉鎖等,0,2022-07-13,2022-07-06,株式会社森のラジオ,,株式会社,東京都,世田谷区,用賀４丁目２番４号ウェールズ用賀５０１,,13,112,1580097,,,2022-07-06,清算の結了等,,,2017-08-30,1,,,,,モリノラジオ,0
2085,8011001102108,登記記録の閉鎖等,0,2022-07-13,2022-07-04,株式会社リーハイ,,株式会社,東京都,渋谷区,広尾５丁目１９番１号,,13,113,1500012,,,2022-07-04,清算の結了等,,,2015-10-05,1,,,,,リーハイ,0
2092,8011101021447,登記記録の閉鎖等,0,2022-07-13,2022-07-07,株式会社山路商店,,株式会社,東京都,新宿区,新宿５丁目１０番２３号,,13,104,1600022,,,2022-07-07,清算の結了等,,,2015-10-05,1,,,,,ヤマジショウテン,0
2096,8011103006801,登記記録の閉鎖等,0,2022-07-13,2022-07-08,ＳＧ山梨合同会社,,合同会社,東京都,新宿区,西新宿３丁目１番４号第二佐山ビル９Ｆ,,13,104,1600023,,,2022-07-08,清算の結了等,,,2017-02-07,1,,,,,エスジーヤマナシ,0
2098,8011105000810,登記記録の閉鎖等,0,2022-07-13,2022-07-08,医療法人社団正淳会,,その他の設立登記法人,東京都,新宿区,下落合１丁目１５番８号１階,,13,104,1610033,,,2022-07-08,清算の結了等,,,2015-10-05,1,,,,,セイジュンカイ,0
2109,8011601006749,登記記録の閉鎖等,0,2022-07-13,2022-07-06,株式会社ミヤタホーム,,株式会社,東京都,練馬区,石神井町８丁目４０番８号,,13,120,1770041,,,2022-07-06,清算の結了等,,,2015-10-05,1,,,,,ミヤタホーム,0
2110,8011703000939,登記記録の閉鎖等,0,2022-07-13,2022-07-08,合同会社リグロッソ,,合同会社,東京都,江戸川区,東小岩３丁目７番１８号,,13,123,1330052,,,2022-07-08,清算の結了等,,,2015-10-05,1,,,,,リグロッソ,0
2124,8020001106241,登記記録の閉鎖等,0,2022-07-13,2022-07-01,株式会社ＴＰＷＣ,,株式会社,神奈川県,横浜市青葉区,美しが丘４丁目２２番地３９,,14,117,2250002,,,2022-07-01,清算の結了等,,,2015-10-05,1,,,,,ティーピーダブリューシー,0
2125,8020001141412,登記記録の閉鎖等,0,2022-07-13,2022-07-05,ミタイ株式会社,,株式会社,神奈川県,横浜市西区,北幸１丁目１１番１号水信ビル７階,,14,103,2200004,,,2022-07-05,清算の結了等,,,2021-05-21,1,,,,,ミタイ,0
2137,8021001071070,登記記録の閉鎖等,0,2022-07-13,2022-07-05,株式会社おうちピテクス,,株式会社,神奈川県,逗子市,桜山１丁目３番３１号,,14,208,2490005,,,2022-07-05,清算の結了等,,,2020-10-15,1,,,,,オウチピテクス,0
2139,8021003011132,登記記録の閉鎖等,0,2022-07-13,2022-07-04,合同会社Ｍ．Ｍ．Ｃ,,合同会社,神奈川県,茅ヶ崎市,東海岸南１丁目２３番３号パークハウス茅ヶ崎東海岸南２０６,,14,207,2530054,,,2022-07-04,清算の結了等,,,2021-11-30,1,,,,,エムエムシー,0
2141,8030001005038,登記記録の閉鎖等,0,2022-07-13,2022-07-01,宝電機工業株式会社,,株式会社,埼玉県,さいたま市緑区,東浦和６丁目１４番地２４,,11,109,3360926,,,2022-07-01,清算の結了等,,,2015-10-05,1,,,,,タカラデンキコウギョウ,0
2149,8030001132583,登記記録の閉鎖等,0,2022-07-13,2022-07-04,株式会社トラスト,,株式会社,千葉県,野田市,吉春８８３番地１,,12,208,2780042,,,2022-07-04,合併による解散等,6040001010765,令和４年７月１日千葉県白井市神々廻１９１５番地１４株式会社プロテクト（6040001010765）に合併し解散,2019-08-26,1,,,,,トラスト,0
2169,8040002075756,登記記録の閉鎖等,0,2022-07-13,2022-07-04,有限会社ロードサービス市原,,有限会社,千葉県,市原市,惣社１２６０番地１,,12,219,2900023,,,2022-07-04,清算の結了等,,,2015-10-05,1,,,,,ロードサービスイチハラ,0
2192,8110002031743,登記記録の閉鎖等,0,2022-07-13,2022-07-07,有限会社東洋設備,,有限会社,新潟県,見附市,月見台１丁目６番１４号,,15,211,9540034,,,2022-07-07,清算の結了等,,,2015-10-05,1,,,,,トウヨウセツビ,0
2194,8120001003131,登記記録の閉鎖等,0,2022-07-13,2022-07-05,桂田グレイチング株式会社,,株式会社,奈良県,奈良市,登美ヶ丘５丁目４番３号,,29,201,6310004,,,2022-07-05,清算の結了等,,,2015-10-05,1,,,,,カツラダグレイチング,0
2196,8120001019136,登記記録の閉鎖等,0,2022-07-13,2022-07-11,株式会社山口テック,,株式会社,大阪府,大阪市生野区,巽北４丁目１３番２３－２０５号,00125268,27,116,5440004,,,2022-07-11,清算の結了等,,,2015-10-05,1,,,,,ヤマグチテック,0
2208,8120002011257,登記記録の閉鎖等,0,2022-07-13,2022-07-04,有限会社ジェイ・エヌ・シー,,有限会社,大阪府,大阪市平野区,喜連西３丁目１４０７番１,,27,126,5470026,,,2022-07-04,清算の結了等,,,2015-10-05,1,,,,,ジェイエヌシー,0
2218,8122001024669,登記記録の閉鎖等,0,2022-07-13,2022-07-01,株式会社シリエトク,,株式会社,大阪府,八尾市,神武町１番１５号,,27,212,5810067,,,2022-07-01,合併による解散等,2122001017892,令和４年７月１日大阪府八尾市神武町１番１５号株式会社エム・シー・エム（2122001017892）に合併し解散,2015-10-05,1,,,,,シリエトク,0
2239,8180001036274,登記記録の閉鎖等,0,2022-07-13,2022-07-04,株式会社坂本製作所,,株式会社,愛知県,名古屋市中区,新栄２丁目１０番１６号,,23,106,4600007,,,2022-07-04,清算の結了等,,,2015-10-05,1,,,,,サカモトセイサクショ,0
2248,8180002023560,登記記録の閉鎖等,0,2022-07-13,2022-07-07,有限会社志の島,,有限会社,愛知県,名古屋市西区,城西４丁目２０番１号,,23,104,4510031,,,2022-07-07,清算の結了等,,,2015-10-05,1,,,,,シノジマ,0
2249,8180003016118,登記記録の閉鎖等,0,2022-07-13,2022-07-07,合同会社明邦,,合同会社,愛知県,一宮市,奥町字立切先３６番地１,,23,203,4910201,,,2022-07-07,清算の結了等,,,2015-10-05,1,,,,,メイホウ,0
2281,8290001021678,登記記録の閉鎖等,0,2022-07-13,2022-07-04,株式会社アイティオージャパン,,株式会社,福岡県,福岡市博多区,博多駅東３丁目５番８号サンエイビル５０１,,40,132,8120013,,,2022-07-04,清算の結了等,,,2015-10-05,1,,,,,アイティオージャパン,0
2282,8290001030357,登記記録の閉鎖等,0,2022-07-13,2022-07-01,株式会社Ｉ＆Ｉ,,株式会社,福岡県,福岡市中央区,輝国２丁目９番１５号,,40,133,8100032,,,2022-07-01,清算の結了等,,,2015-10-05,1,,,,,アイアンドアイ,0
2300,8340001012317,登記記録の閉鎖等,0,2022-07-13,2022-07-11,株式会社エソール,,株式会社,鹿児島県,鹿屋市,西原２丁目３４番２１号,,46,203,8930064,,,2022-07-11,清算の結了等,,,2015-10-05,1,,,,,,0
2301,8340001014412,登記記録の閉鎖等,0,2022-07-13,2022-07-11,株式会社ライフクリエイト,,株式会社,鹿児島県,鹿屋市,西原２丁目３４番２１号,,46,203,8930064,,,2022-07-11,清算の結了等,,,2015-10-05,1,,,,,,0
2321,8390002011965,登記記録の閉鎖等,0,2022-07-13,2022-07-04,有限会社芳賀設計工房,,有限会社,山形県,尾花沢市,大字尾花沢１３８７番１,,06,212,9994221,,,2022-07-04,清算の結了等,,,2015-10-05,1,,,,,ハガセッケイコウボウ,0
2334,8480005006706,登記記録の閉鎖等,0,2022-07-13,2022-07-12,特定非営利活動法人書現社,,その他の設立登記法人,徳島県,徳島市,上八万町西山８７２番地,,36,201,7708041,,,2022-07-12,清算の結了等,,,2019-05-14,1,,,,,ショゲンシャ,0
2341,9010001143730,登記記録の閉鎖等,0,2022-07-13,2022-06-29,株式会社フードバンク東京,,株式会社,東京都,中央区,銀座８丁目１０番６号,,13,102,1040061,,,2022-06-29,合併による解散等,2010001103988,令和４年６月２６日東京都中央区銀座八丁目１０番６号株式会社フードバンク（2010001103988）に合併し解散,2015-10-05,1,,,,,,0
2395,9011103006800,登記記録の閉鎖等,0,2022-07-13,2022-07-08,ＳＧ栃木合同会社,,合同会社,東京都,新宿区,西新宿３丁目１番４号第二佐山ビル９Ｆ,,13,104,1600023,,,2022-07-08,清算の結了等,,,2017-02-07,1,,,,,エスジートチギ,0
2396,9011401011584,登記記録の閉鎖等,0,2022-07-13,2022-07-11,株式会社マークス,,株式会社,東京都,板橋区,東坂下１丁目１３番６号,,13,119,1740042,,,2022-07-11,清算の結了等,,,2015-10-05,1,,,,,,0
2405,9011501026268,登記記録の閉鎖等,0,2022-07-13,2022-07-07,株式会社ＳＮＯＫ,,株式会社,東京都,豊島区,西池袋２丁目３６番１－８０５号,,13,116,1710021,,,2022-07-07,清算の結了等,,,2020-10-14,1,,,,,スノック,0
2422,9013302012653,登記記録の閉鎖等,0,2022-07-13,2022-07-06,有限会社私市電気,,有限会社,東京都,豊島区,西巣鴨２丁目１４番６号,,13,116,1700001,,,2022-07-06,清算の結了等,,,2015-10-05,1,,,,,シイチデンキ,0
2441,9021002019456,登記記録の閉鎖等,0,2022-07-13,2022-06-30,有限会社キョウシン,,有限会社,神奈川県,相模原市南区,大野台５丁目９番６号,,14,153,2520331,,,2022-06-30,清算の結了等,,,2015-10-05,1,,,,,キョウシン,0
2450,9030002041964,登記記録の閉鎖等,0,2022-07-13,2022-06-29,有限会社細村製作所,,有限会社,埼玉県,羽生市,大字上新郷５６５１番地３,,11,216,3480041,,,2022-06-29,清算の結了等,,,2015-10-05,1,,,,,ホソムラセイサクジョ,0
2465,9060001025800,登記記録の閉鎖等,0,2022-07-13,2022-06-30,株式会社ユーユービズサポート,,株式会社,栃木県,宇都宮市,平出工業団地３９番地５,,09,201,3210905,,,2022-06-30,清算の結了等,,,2015-10-05,1,,,,,ユーユービズサポート,0
2475,9080402016743,登記記録の閉鎖等,0,2022-07-13,2022-07-08,株式会社ハーバルインデックス,,株式会社,静岡県,浜松市中区,鴨江１丁目３８番６号ハーバルインデックスビルヂング,,22,131,4328023,,,2022-07-08,合併による解散等,6180301022439,令和４年７月１日愛知県西尾市花蔵寺町宮後１７番地３株式会社光南（6180301022439）に合併し解散,2015-10-05,1,,,,,ハーバルインデックス,0
2480,9110001007090,登記記録の閉鎖等,0,2022-07-13,2022-07-04,株式会社英進堂,,株式会社,新潟県,新潟市秋葉区,新津本町３丁目７番３０号,,15,105,9560864,,,2022-07-04,清算の結了等,,,2015-10-05,1,,,,,エイシンドウ,0
2498,9120001209405,登記記録の閉鎖等,0,2022-07-13,2022-07-04,バイロンパートナーズ株式会社,,株式会社,東京都,千代田区,有楽町１丁目１２番１号新有楽町ビル１０階,,13,101,1000006,,,2022-07-04,合併による解散等,3120001142693,令和４年７月１日大阪市北区中之島二丁目３番１８号中之島フェスティバルタワー１６階バイロン株式会社（3120001142693）に合併し解散,2017-11-13,1,,,,,バイロンパートナーズ,0
2508,9120002053769,登記記録の閉鎖等,0,2022-07-13,2022-07-12,有限会社のぞみ,,有限会社,大阪府,大阪市北区,芝田１丁目１０番１０号,,27,127,5300012,,,2022-07-12,清算の結了等,,,2015-10-05,1,,,,,ノゾミ,0
2522,9120901034530,登記記録の閉鎖等,0,2022-07-13,2022-07-11,株式会社山脇建設,,株式会社,大阪府,箕面市,粟生間谷西４丁目２番２３－５０１号,,27,220,5620023,,,2022-07-11,清算の結了等,,,2015-10-05,1,,,,,ヤマワキケンセツ,0
2555,9180002087407,登記記録の閉鎖等,0,2022-07-13,2022-07-04,有限会社中部ナイスサービス,,有限会社,愛知県,大府市,横根町新江１５番地１９,,23,223,4740011,,,2022-07-04,清算の結了等,,,2015-10-05,1,,,,,チュウブナイスサービス,0
2558,9190002011761,登記記録の閉鎖等,0,2022-07-13,2022-07-04,有限会社山岡商店,,有限会社,三重県,志摩市,志摩町布施田１６７番地,,24,215,5170702,,,2022-07-04,清算の結了等,,,2015-10-05,1,,,,,ヤマオカショウテン,0
2580,9240002005205,登記記録の閉鎖等,0,2022-07-13,2022-07-07,有限会社栗田,,有限会社,広島県,広島市安佐北区,安佐町大字飯室１５４１番地,,34,106,7311142,,,2022-07-07,清算の結了等,,,2015-10-05,1,,,,,クリタ,0
2588,9280002002017,登記記録の閉鎖等,0,2022-07-13,2022-07-11,有限会社ページボーイ,,有限会社,島根県,松江市,西津田１０丁目１７番２０－１号,,32,201,6900017,,,2022-07-11,清算の結了等,,,2015-10-05,1,,,,,ページボーイ,0
2613,9350001006449,登記記録の閉鎖等,0,2022-07-13,2022-07-07,株式会社アイテック,,株式会社,宮崎県,日向市,大字財光寺２７９番地２,,45,206,8830021,,,2022-07-07,清算の結了等,,,2015-10-05,1,,,,,アイテック,0
2616,9360001023815,登記記録の閉鎖等,0,2022-07-13,2022-07-04,株式会社ｔｈｒｅｅ　ｄｅｅｇｏ,,株式会社,沖縄県,中頭郡北谷町,字港１１番地１４,,47,326,9040114,,,2022-07-04,清算の結了等,,,2018-04-16,1,,,,,スリーディーゴ,0
