sequenceNumber,corporateNumber,process,correct,updateDate,changeDate,name,nameImageId,kind,prefectureName,cityName,streetNumber,addressImageId,prefectureCode,cityCode,postCode,addressOutside,addressOutsideImageId,closeDate,closeCause,successorCorporateNumber,changeCause,assignmentDate,latest,enName,enPrefectureName,enCityName,enAddressOutside,furigana,hihyoji
14,1010001239560,新規,0,2023-10-30,2023-10-30,美肌百貨店株式会社,,株式会社,東京都,中央区,銀座１丁目２２番１１号銀座大竹ビジデンス２Ｆ,,13,102,1040061,,,,,,,2023-10-30,1,,,,,ビハダヒャッカテン,0
15,1010001239619,新規,0,2023-10-30,2023-10-30,ＫＩＹＡＮ　ＭＥＤＩＣＡＬ株式会社,,株式会社,東京都,千代田区,麹町６丁目２番６号,,13,101,1020083,,,,,,,2023-10-30,1,,,,,キヤンメディカル,0
24,1010003042046,新規,0,2023-10-30,2023-10-30,ＬｅｏＳｆｉｄａ合同会社,,合同会社,東京都,千代田区,神田和泉町１－６－１６,,13,101,1010024,,,,,,,2023-10-30,1,,,,,レオスフィーダ,0
25,1010003042062,新規,0,2023-10-30,2023-10-30,Ｗｅｃｒｉｎ合同会社,,合同会社,東京都,中央区,日本橋室町１丁目１１番１２号日本橋水野ビル７階,,13,102,1030022,,,,,,,2023-10-30,1,,,,,ウェクリン,0
26,1010003042070,新規,0,2023-10-30,2023-10-30,合同会社ＧＲＯＸＩＡ,,合同会社,東京都,中央区,銀座１丁目２２番１１号銀座大竹ビジデンス２階,,13,102,1040061,,,,,,,2023-10-30,1,,,,,グローシア,0
31,1010401178128,新規,0,2023-10-30,2023-10-30,ＭＣＰ１９株式会社,,株式会社,東京都,港区,元赤坂１丁目１番８号株式会社赤坂国際会計内,,13,103,1070051,,,,,,,2023-10-30,1,,,,,エムシーピーワンナイン,0
37,1010701045060,新規,0,2023-10-30,2023-10-30,株式会社風社,,株式会社,東京都,品川区,大崎２丁目５番２０号,,13,109,1410032,,,,,,,2023-10-30,1,,,,,カゼノヤシロ,0
40,1010803004732,新規,0,2023-10-30,2023-10-30,合同会社ＩＳＳ,,合同会社,東京都,大田区,羽田１丁目１３－１クレッセント東京リプライム１０５,,13,111,1440043,,,,,,,2023-10-30,1,,,,,アイエスエス,0
44,1010901054076,新規,0,2023-10-30,2023-10-30,欧徳薇兒医薬科技株式会社,,株式会社,東京都,世田谷区,世田谷１丁目４１番２号,,13,112,1540017,,,,,,,2023-10-30,1,,,,,オドウェルイヤクテクノロジー,0
46,1010903008550,新規,0,2023-10-30,2023-10-30,合同会社ソルトパン,,合同会社,東京都,世田谷区,北烏山７丁目２５番８－５０９号,,13,112,1570061,,,,,,,2023-10-30,1,,,,,ソルトパン,0
51,1011001157926,新規,0,2023-10-30,2023-10-30,Ｋ＆Ｓ　Ｖｅｎｔｕｒｅｓ株式会社,,株式会社,東京都,渋谷区,広尾２丁目５番３３号アッシュダール広尾３０１,,13,113,1500012,,,,,,,2023-10-30,1,,,,,ケーエンドエスベンチャーズ,0
52,1011001157934,新規,0,2023-10-30,2023-10-30,株式会社ＮＥＷ　ＯＮＥ,,株式会社,東京都,目黒区,中町２丁目４５番１８号,,13,110,1530065,,,,,,,2023-10-30,1,,,,,ニューワン,0
57,1011103013663,新規,0,2023-10-30,2023-10-30,合同会社アメヤ,,合同会社,東京都,新宿区,西新宿３丁目３番１３号西新宿水間ビル２Ｆ,,13,104,1600023,,,,,,,2023-10-30,1,,,,,アメヤ,0
59,1011201025008,新規,0,2023-10-30,2023-10-30,ファルストマ株式会社,,株式会社,東京都,中野区,中野５丁目２２番１８号,,13,114,1640001,,,,,,,2023-10-30,1,,,,,ファルストマ,0
69,1012405004912,新規,0,2023-10-30,2023-10-30,ＮＰＯ法人新しい琴音楽の流れを作る会,,その他の設立登記法人,東京都,調布市,染地２丁目２番地１２,,13,208,1820023,,,,,,,2023-10-30,1,,,,,アタラシイコトオンガクノナガレヲツクルカイ,0
78,1013301051552,新規,0,2023-10-30,2023-10-30,株式会社Ｊ楽,,株式会社,東京都,豊島区,上池袋４丁目１０番８号ソネット上池袋９０２号,,13,116,1700012,,,,,,,2023-10-30,1,,,,,ジェイラク,0
86,1020001154197,新規,0,2023-10-30,2023-10-30,株式会社乃心建設,,株式会社,神奈川県,横浜市旭区,白根８丁目１０番４号,,14,112,2410005,,,,,,,2023-10-30,1,,,,,ダイシンケンセツ,0
87,1020001154214,新規,0,2023-10-30,2023-10-30,株式会社Ｓ・ファースト,,株式会社,神奈川県,横浜市都筑区,勝田町２１３番地,,14,118,2240034,,,,,,,2023-10-30,1,,,,,エスファースト,0
93,1020003024869,新規,0,2023-10-30,2023-10-30,ルピナス合同会社,,合同会社,神奈川県,横浜市中区,上野町３丁目１２４番３号,,14,104,2310842,,,,,,,2023-10-30,1,,,,,ルピナス,0
105,1030001156886,新規,0,2023-10-30,2023-10-30,ＭｅＬｏＤ株式会社,,株式会社,埼玉県,さいたま市南区,大字太田窪２９７４番地１０,,11,108,3360015,,,,,,,2023-10-30,1,,,,,メロディ,0
106,1030001156903,新規,0,2023-10-30,2023-10-30,上海宏林ＪＡＰＡＮ株式会社,,株式会社,埼玉県,川口市,本町２丁目５番２０号レ・ジュール川口本町１０１号室,,11,203,3320012,,,,,,,2023-10-30,1,,,,,シャンハイコウリンジャパン,0
116,1030003022871,新規,0,2023-10-30,2023-10-30,つきのみやビジネスサポート合同会社,,合同会社,埼玉県,さいたま市浦和区,岸町７丁目２番５－１１０２号,,11,107,3300064,,,,,,,2023-10-30,1,,,,,ツキノミヤビジネスサポート,0
117,1030005021450,新規,0,2023-10-30,2023-10-30,一般社団法人うま,,その他の設立登記法人,埼玉県,熊谷市,小江川２１３１番地４,,11,202,3600103,,,,,,,2023-10-30,1,,,,,ウマ,0
132,1050001053719,新規,0,2023-10-30,2023-10-30,株式会社一樹建設,,株式会社,茨城県,水戸市,千波町２８８６番地の５１,,08,201,3100851,,,,,,,2023-10-30,1,,,,,イツキケンセツ,0
133,1050001053735,新規,0,2023-10-30,2023-10-30,エヌエス環境株式会社,,株式会社,茨城県,土浦市,飯田２４５１番地,,08,203,3000802,,,,,,,2023-10-30,1,,,,,エヌエスカンキョウ,0
134,1050003007895,新規,0,2023-10-30,2023-10-30,気楽合同会社,,合同会社,茨城県,牛久市,南７丁目５１番地３６,,08,219,3001222,,,,,,,2023-10-30,1,,,,,キラク,0
141,1080001025946,新規,0,2023-10-30,2023-10-30,株式会社ファクト,,株式会社,静岡県,静岡市駿河区,光陽町７９番地,,22,102,4210116,,,,,,,2023-10-30,1,,,,,ファクト,0
147,1100003007246,新規,0,2023-10-30,2023-10-30,合同会社長沼,,合同会社,長野県,飯田市,鼎切石４１３３番地１（村沢アパートＤ号）,,20,205,3950807,,,,,,,2023-10-30,1,,,,,ナガヌマ,0
148,1100005013085,新規,0,2023-10-30,2023-10-30,特定非営利活動法人みんなとつくる軽井沢,,その他の設立登記法人,長野県,北佐久郡軽井沢町,中軽井沢５番地９,,20,321,3890112,,,,,,,2023-10-30,1,,,,,ミンナトツクルカルイザワ,0
164,1120001259077,新規,0,2023-10-30,2023-10-30,清源株式会社,,株式会社,大阪府,大阪市生野区,新今里３丁目１０番２０号富士グランドビル７０１,,27,116,5440001,,,,,,,2023-10-30,1,,,,,セイゲン,0
165,1120001259250,新規,0,2023-10-30,2023-10-30,株式会社Ｖ,,株式会社,大阪府,大阪市北区,梅田２丁目５番１３号桜橋第一ビル３０４号,,27,127,5300001,,,,,,,2023-10-30,1,,,,,ヴイ,0
166,1120001259267,新規,0,2023-10-30,2023-10-30,ＧＴＦコンサルティング株式会社,,株式会社,大阪府,大阪市北区,天神橋３丁目３番３号２階,,27,127,5300041,,,,,,,2023-10-30,1,,,,,ジーティーエフコンサルティング,0
167,1120001259300,新規,0,2023-10-30,2023-10-30,海和エンジニアリング株式会社,,株式会社,大阪府,大阪市旭区,新森２丁目１１番１４号,,27,117,5350022,,,,,,,2023-10-30,1,,,,,カイワエンジニアリング,0
169,1120005023966,新規,0,2023-10-30,2023-10-30,一般社団法人ほほえみは愛財務管理,,その他の設立登記法人,大阪府,大阪市西成区,潮路１丁目９番１９号久津和オレンジマンションエイト７０８号,,27,122,5570052,,,,,,,2023-10-30,1,,,,,ホホエミハアイザイムカンリ,0
170,1120101068444,新規,0,2023-10-30,2023-10-30,株式会社永安商事,,株式会社,大阪府,松原市,立部２丁目２２０番地の１,,27,217,5800012,,,,,,,2023-10-30,1,,,,,エイアンショウジ,0
173,1120901048281,新規,0,2023-10-30,2023-10-30,株式会社ＢＥＹＯＮＤ,,株式会社,大阪府,池田市,豊島南２丁目１２番１５号,,27,204,5630035,,,,,,,2023-10-30,1,,,,,ビヨンド,0
177,1130001075515,新規,0,2023-10-30,2023-10-30,株式会社いろは,,株式会社,京都府,京都市山科区,大宅坂ノ辻町２８,00132456,26,110,6078182,,,,,,,2023-10-30,1,,,,,イロハ,0
178,1130001075548,新規,0,2023-10-30,2023-10-30,Ｎ．ｎａｔｕｒａｌ　ｆａｒｍ株式会社,,株式会社,京都府,京田辺市,飯岡東原１番地,,26,211,6100312,,,,,,,2023-10-30,1,,,,,エヌナチュラルファーム,0
179,1130001075564,新規,0,2023-10-30,2023-10-30,株式会社大成エンジニアリング,,株式会社,京都府,宇治市,木幡御蔵山３９番地の１５４７,,26,204,6110002,,,,,,,2023-10-30,1,,,,,タイセイエンジニアリング,0
180,1130001075572,新規,0,2023-10-30,2023-10-30,株式会社ＫＩＴＴＥ,,株式会社,京都府,京都市下京区,黒門通綾小路下る塩屋町１８２番地朝日プラザ四条大宮４０５号,,26,106,6008382,,,,,,,2023-10-30,1,,,,,キッテ,0
183,1130003009074,新規,0,2023-10-30,2023-10-30,合同会社紬,,合同会社,京都府,京都市下京区,二人司町３－１９,,26,106,6008824,,,,,,,2023-10-30,1,,,,,ツムギ,0
188,1140001132109,新規,0,2023-10-30,2023-10-30,株式会社アセットプランニング,,株式会社,兵庫県,神戸市垂水区,下畑町２１３８番地,,28,108,6550861,,,,,,,2023-10-30,1,,,,,アセットプランニング,0
197,1180001158694,新規,0,2023-10-30,2023-10-30,株式会社システムプランニングウイン,,株式会社,愛知県,名古屋市中川区,五女子町１丁目７８番地の１,,23,110,4540034,,,,,,,2023-10-30,1,,,,,システムプランニングウイン,0
201,1180003025901,新規,0,2023-10-30,2023-10-30,ＡＹＬＡ　ＴＲＡＤＩＮＧ合同会社,,合同会社,愛知県,名古屋市港区,港栄２丁目３－３ジュエルズコートＩＩ３０１,00132458,23,111,4550015,,,,,,,2023-10-30,1,,,,,アイラトレーディング,0
204,1200001041864,新規,0,2023-10-30,2023-10-30,金春株式会社,,株式会社,岐阜県,大垣市,南一色町６１９番地４２,,21,202,5030971,,,,,,,2023-10-30,1,,,,,コンパル,0
223,1290001103573,新規,0,2023-10-30,2023-10-30,株式会社Ｌｅｇｇｅｒｏ,,株式会社,福岡県,福岡市博多区,博多駅前３丁目２７番２４号タナカビルＢ１Ｆ,,40,132,8120011,,,,,,,2023-10-30,1,,,,,レジェロ,0
225,1290003014538,新規,0,2023-10-30,2023-10-30,合同会社Ｊｅｗｅｌｓ,,合同会社,福岡県,糸島市,加布里１丁目１６番１６号,,40,230,8191124,,,,,,,2023-10-30,1,,,,,ジュエルズ,0
247,1360003013433,新規,0,2023-10-30,2023-10-30,合同会社ＩＣＳ,,合同会社,沖縄県,那覇市,銘苅３丁目９－２２ＫＡキャンディービル２階,,47,201,9000004,,,,,,,2023-10-30,1,,,,,アイシーエス,0
250,1370001050576,新規,0,2023-10-30,2023-10-30,株式会社アークス,,株式会社,宮城県,仙台市青葉区,桜ケ丘６丁目５－２０－１０３号,,04,101,9810961,,,,,,,2023-10-30,1,,,,,アークス,0
255,1400001016441,新規,0,2023-10-30,2023-10-30,磐井グリーンエネルギー株式会社,,株式会社,岩手県,一関市,千厩町千厩字前田９０－１３,,03,209,0290803,,,,,,,2023-10-30,1,,,,,イワイグリーンエネルギー,0
259,1430001090252,新規,0,2023-10-30,2023-10-30,株式会社Ｗｉｌｌ,,株式会社,北海道,札幌市清田区,里塚緑ケ丘１０丁目１３番１２号,,01,110,0040805,,,,,,,2023-10-30,1,,,,,ウィル,0
260,1430001090293,新規,0,2023-10-30,2023-10-30,株式会社ＴＯＵＲ　ＣＯＮＴＥＮＴＳ,,株式会社,北海道,札幌市東区,北二十八条東１９丁目２番１８号,,01,103,0650028,,,,,,,2023-10-30,1,,,,,ツアーコンテンツ,0
266,1430003015570,新規,0,2023-10-30,2023-10-30,合同会社ＹＯＲＯＺ,,合同会社,北海道,小樽市,銭函３丁目２６‐８,,01,203,0470261,,,,,,,2023-10-30,1,,,,,ヨロズ,0
267,1450001014127,新規,0,2023-10-30,2023-10-30,株式会社ランプスタンド,,株式会社,北海道,旭川市,高砂台５丁目１３番地１０,,01,204,0708061,,,,,,,2023-10-30,1,,,,,ランプスタンド,0
272,1700150121549,新規,0,2023-10-30,2023-10-30,Ｐｕｒｉ　Ｃｏｍｐｌｅｘ　Ｐｖｔ．Ｌｔｄ．,,外国会社等,東京都,品川区,南大井３丁目２０番１０号大橋ビル５０１号室,,13,109,1400013,ネパール国カスキ郡ポカラ市シッダルタチョク４区,,,,,,2023-10-30,1,,,,,プリコンプレツクスプライベートリミテツド,0
273,1700150121573,新規,0,2023-10-30,2023-10-30,Ｇｕａｎｇｚｈｏｕ　Ｔｕｏｋｅ　Ｃｏｍｍｅｒｃｅ　＆　Ｔｒａｄｅ　Ｃｏ．，Ｌｔｄ．,,外国会社等,,,,,,,,Ｒｏｏｍ４１６　Ｎｏ．１０１　ＤｅｘｉｎｇＲｏａｄ　Ｗａｎｇｇａｎｇ　ＪｉａｈｅＳｔｒｅｅｔ　ＢａｉｙｕｎＤｉｓｔｒｉｃｔ　Ｇｕａｎｇｚｈｏｕ　５１００００　ＣＮ,,,,,,2023-10-30,1,,,,,コウシュウトオケコマーストレードカンパニーリミテッド,0
287,2010003042045,新規,0,2023-10-30,2023-10-30,合同会社ユニフィー,,合同会社,東京都,千代田区,丸の内３丁目１番１号東京共同会計事務所内,,13,101,1000005,,,,,,,2023-10-30,1,,,,,ユニフィー,0
289,2010101015869,新規,0,2023-10-30,2023-10-30,株式会社良建工業,,株式会社,東京都,八王子市,三崎町４－１１トーネンビル５Ｆ,,13,201,1920084,,,,,,,2023-10-30,1,,,,,リョウケンコウギョウ,0
304,2010401178127,新規,0,2023-10-30,2023-10-30,ＭＣＰ２０株式会社,,株式会社,東京都,港区,元赤坂１丁目１番８号株式会社赤坂国際会計内,,13,103,1070051,,,,,,,2023-10-30,1,,,,,エムシーピーツーゼロ,0
305,2010401178168,新規,0,2023-10-30,2023-10-30,株式会社Ｌｉｆｅ．ｃｏｍ,,株式会社,東京都,港区,西新橋１丁目２４－１６平和ビル９階,,13,103,1050003,,,,,,,2023-10-30,1,,,,,ライフドットコム,0
306,2010401178201,新規,0,2023-10-30,2023-10-30,株式会社ＬｅｓＣｌｅｆｓＯｆｆｉｃｅ,,株式会社,東京都,港区,南青山３丁目１番３６号青山丸竹ビル６Ｆ,,13,103,1070062,,,,,,,2023-10-30,1,,,,,レクレオフィス,0
307,2010403031259,新規,0,2023-10-30,2023-10-30,合同会社トリプルエージェント,,合同会社,東京都,港区,北青山１丁目３番１号アールキューブ青山３階,,13,103,1070061,,,,,,,2023-10-30,1,,,,,トリプルエージェント,0
313,2011001157719,新規,0,2023-10-30,2023-10-30,株式会社ＭＥＤＩＵＭ,,株式会社,東京都,渋谷区,円山町５番５号Ｎａｖｉ渋谷Ｖ３階,,13,113,1500044,,,,,,,2023-10-30,1,,,,,メディウム,0
314,2011001157768,新規,0,2023-10-30,2023-10-30,株式会社Ｄａｇｏｏｓｅ,,株式会社,東京都,渋谷区,道玄坂１丁目１０番８号渋谷道玄坂東急ビル２Ｆ－Ｃ,,13,113,1500043,,,,,,,2023-10-30,1,,,,,ダーグース,0
321,2011101104967,新規,0,2023-10-30,2023-10-30,株式会社Ｄｉａｂｌｏ,,株式会社,東京都,新宿区,北新宿３丁目２－１－１７０４,,13,104,1690074,,,,,,,2023-10-30,1,,,,,ディアブロ,0
322,2011301029130,新規,0,2023-10-30,2023-10-30,株式会社力,,株式会社,東京都,杉並区,阿佐谷北４丁目１３番１５号,,13,115,1660001,,,,,,,2023-10-30,1,,,,,チカラ,0
330,2011801043259,新規,0,2023-10-30,2023-10-30,香雅株式会社,,株式会社,東京都,葛飾区,新小岩３丁目２９－７－２０５ＫＡＫＵＲＥＯＦＦＩＣＥ新小岩,,13,122,1240024,,,,,,,2023-10-30,1,,,,,コウガ,0
334,2012401041157,新規,0,2023-10-30,2023-10-30,株式会社ロジクラム,,株式会社,東京都,府中市,寿町１丁目６番地の１,,13,206,1830056,,,,,,,2023-10-30,1,,,,,ロジクラム,0
336,2012703002823,新規,0,2023-10-30,2023-10-30,合同会社英,,合同会社,東京都,西東京市,下保谷５丁目１１－２６,,13,229,2020004,,,,,,,2023-10-30,1,,,,,エイ,0
339,2013301051551,新規,0,2023-10-30,2023-10-30,株式会社グローバルリンク,,株式会社,東京都,豊島区,北大塚１丁目１８番１１号大塚ＫＹビル３階,,13,116,1700004,,,,,,,2023-10-30,1,,,,,グローバルリンク,0
346,2020001154213,新規,0,2023-10-30,2023-10-30,株式会社シンコー,,株式会社,神奈川県,横浜市港南区,日野４丁目５３番５号,,14,111,2340051,,,,,,,2023-10-30,1,,,,,シンコー,0
352,2020003024868,新規,0,2023-10-30,2023-10-30,ペンタス合同会社,,合同会社,神奈川県,横浜市中区,上野町３丁目１２４番３号,,14,104,2310842,,,,,,,2023-10-30,1,,,,,ペンタス,0
353,2020003024876,新規,0,2023-10-30,2023-10-30,冲宇合同会社,,合同会社,神奈川県,横浜市中区,本牧町２丁目３０４加藤ビル３０３Ｃ,,14,104,2310806,,,,,,,2023-10-30,1,,,,,チュウウ,0
355,2020005016161,新規,0,2023-10-30,2023-10-30,一般社団法人ＹＯＫＯＨＡＭＡ　ＣＯＦＦＥＥ　ＣＵＬＴＵＲＥ,,その他の設立登記法人,神奈川県,横浜市都筑区,中川４丁目６番１号,,14,118,2240001,,,,,,,2023-10-30,1,,,,,ヨコハマコーヒーカルチャー,0
357,2021001080572,新規,0,2023-10-30,2023-10-30,株式会社和架設,,株式会社,神奈川県,大和市,鶴間２丁目３番２２号ヴェルドミール南林間２０６号,,14,213,2420004,,,,,,,2023-10-30,1,,,,,ナゴミカセツ,0
358,2021003013737,新規,0,2023-10-30,2023-10-30,Ｋ‐ＰＬＡＮＮＩＮＧ合同会社,,合同会社,神奈川県,相模原市中央区,鹿沼台２丁目８番１４号,,14,152,2520233,,,,,,,2023-10-30,1,,,,,ケイプランニング,0
359,2021005012919,新規,0,2023-10-30,2023-10-30,一般社団法人Ｂｌｉｓｓ,,その他の設立登記法人,神奈川県,逗子市,逗子１丁目３番１６号,,14,208,2490006,,,,,,,2023-10-30,1,,,,,ブリス,0
363,2030001156902,新規,0,2023-10-30,2023-10-30,株式会社Ｌａｓｔ　Ｃａｒｄ,,株式会社,埼玉県,さいたま市大宮区,宮町１丁目５番地,,11,103,3300802,,,,,,,2023-10-30,1,,,,,ラストカード,0
369,2030003022887,新規,0,2023-10-30,2023-10-30,合同会社ゆうひ屋Ｔｈａａｄ,,合同会社,埼玉県,東松山市,大字高坂１１６７番地１ユウヒヤビル２０１号室,,11,212,3550047,,,,,,,2023-10-30,1,,,,,ユウヒヤサード,0
370,2030005021433,新規,0,2023-10-30,2023-10-30,特定非営利活動法人しらさぎサポーターズ,,その他の設立登記法人,埼玉県,さいたま市北区,日進町２丁目８６９番地,,11,102,3310823,,,,,,,2023-10-30,1,,,,,シラサギサポーターズ,0
377,2040001130732,新規,0,2023-10-30,2023-10-30,株式会社ＡＣＥ,,株式会社,千葉県,流山市,加５丁目１７１３番地の５,,12,220,2700176,,,,,,,2023-10-30,1,,,,,エース,0
378,2040001130740,新規,0,2023-10-30,2023-10-30,株式会社トルク,,株式会社,千葉県,八街市,勢田７８６番地２,,12,230,2891132,,,,,,,2023-10-30,1,,,,,トルク,0
379,2040001130749,新規,0,2023-10-30,2023-10-30,株式会社Ｗａｎｄａｌ　Ｄｅｓｉｇｎ,,株式会社,千葉県,柏市,松葉町４丁目１番地９,,12,217,2770827,,,,,,,2023-10-30,1,,,,,ワンダルデザイン,0
388,2050001053718,新規,0,2023-10-30,2023-10-30,株式会社伝電,,株式会社,茨城県,水戸市,袴塚３丁目３番５０号,,08,201,3100055,,,,,,,2023-10-30,1,,,,,デンデン,0
389,2050001053726,新規,0,2023-10-30,2023-10-30,株式会社ＪＩＮ,,株式会社,茨城県,鹿嶋市,神野４丁目３番１号,,08,222,3140037,,,,,,,2023-10-30,1,,,,,ジン,0
390,2050001053734,新規,0,2023-10-30,2023-10-30,株式会社エムズプランニング,,株式会社,茨城県,那珂市,後台１４１３－２,,08,226,3110111,,,,,,,2023-10-30,1,,,,,エムズプランニング,0
391,2050001053742,新規,0,2023-10-30,2023-10-30,株式会社ヨシハラ総合企画,,株式会社,茨城県,守谷市,中央２丁目５３番地ブランチ守谷Ａ０１０,,08,224,3020115,,,,,,,2023-10-30,1,,,,,ヨシハラソウゴウキカク,0
392,2050003007878,新規,0,2023-10-30,2023-10-30,合同会社ＡＶＥＮＧＥ,,合同会社,茨城県,稲敷郡阿見町,大字荒川本郷１３３４番地１１７号,,08,443,3001152,,,,,,,2023-10-30,1,,,,,アベンジ,0
393,2050003007886,新規,0,2023-10-30,2023-10-30,合同会社サポートクリエイション,,合同会社,茨城県,土浦市,港町１丁目４番２２号ハーバープラザ土浦２Ｆ,,08,203,3000034,,,,,,,2023-10-30,1,,,,,サポートクリエイション,0
394,2050003007903,新規,0,2023-10-30,2023-10-30,合同会社松沢,,合同会社,茨城県,土浦市,中村西根７８２番地,,08,203,3000849,,,,,,,2023-10-30,1,,,,,マツザワ,0
396,2050005013346,新規,0,2023-10-30,2023-10-30,ＮＰＯ法人ウーマンサポートＪＯＳＯ,,その他の設立登記法人,茨城県,常総市,大生郷町１８９３番地３,,08,211,3002521,,,,,,,2023-10-30,1,,,,,ウーマンサポートジョウソウ,0
399,2060003004783,新規,0,2023-10-30,2023-10-30,合同会社ダイシン,,合同会社,栃木県,宇都宮市,台新田１丁目１３番５号,,09,201,3210104,,,,,,,2023-10-30,1,,,,,ダイシン,0
404,2070001041035,新規,0,2023-10-30,2023-10-30,ＹＵＭＥＫＡＮＡ　ＧＲＯＵＰ株式会社,,株式会社,群馬県,伊勢崎市,連取町３２７７番地３ＹＯＵハイツ１０１号室,,10,204,3720812,,,,,,,2023-10-30,1,,,,,ユメカナグループ,0
411,2080403004902,新規,0,2023-10-30,2023-10-30,ＮＣ合同会社,,合同会社,静岡県,浜松市中区,鴨江４丁目３０番７号,,22,131,4328023,,,,,,,2023-10-30,1,,,,,エヌシー,0
412,2090003002413,新規,0,2023-10-30,2023-10-30,合同会社相続・事業承継相談室,,合同会社,山梨県,甲府市,相生１丁目２番１号相生ワンツウビル３Ｆ,,19,201,4000858,,,,,,,2023-10-30,1,,,,,ソウゾクジギョウショウケイソウダンシツ,0
416,2100003007245,新規,0,2023-10-30,2023-10-30,合同会社黎明堂書店,,合同会社,長野県,小諸市,荒町１丁目６番１０号,,20,208,3840014,,,,,,,2023-10-30,1,,,,,レイメイドウショテン,0
433,2120001258895,新規,0,2023-10-30,2023-10-30,株式会社松村軌道,,株式会社,大阪府,大阪市西淀川区,御幣島６丁目１１番２７－２０１号,,27,113,5550012,,,,,,,2023-10-30,1,,,,,マツムラキドウ,0
435,2120005023965,新規,0,2023-10-30,2023-10-30,一般社団法人職人の継手,,その他の設立登記法人,大阪府,大阪市北区,梅田１丁目１１番４号大阪駅前第４ビル９階９２３－１６８０号,,27,127,5300001,,,,,,,2023-10-30,1,,,,,ショクニンノツナギテ,0
437,2120101068443,新規,0,2023-10-30,2023-10-30,株式会社ノイモンド,,株式会社,大阪府,河内長野市,錦町８番３３号,,27,216,5860031,,,,,,,2023-10-30,1,,,,,ノイモンド,0
439,2120103005510,新規,0,2023-10-30,2023-10-30,合同会社Ｋｅｅｐ　Ｏｎ,,合同会社,大阪府,堺市堺区,柏木町４丁１番１１号エリザベスビル３０１号,,27,141,5900837,,,,,,,2023-10-30,1,,,,,キープオン,0
445,2130001075547,新規,0,2023-10-30,2023-10-30,株式会社守誠開発,,株式会社,京都府,亀岡市,曽我部町穴太口山５０番地２５,,26,206,6210029,,,,,,,2023-10-30,1,,,,,シュセイカイハツ,0
446,2130001075563,新規,0,2023-10-30,2023-10-30,京都双子社株式会社,,株式会社,京都府,京都市左京区,修学院茶屋ノ前町３５番地１,,26,103,6068073,,,,,,,2023-10-30,1,,,,,キョウトフタゴシャ,0
450,2130005016919,新規,0,2023-10-30,2023-10-30,一般財団法人山城芸術財団,,その他の設立登記法人,京都府,京田辺市,田辺中央１丁目５番地５,,26,211,6100334,,,,,,,2023-10-30,1,,,,,ヤマシロゲイジュツザイダン,0
453,2140001132124,新規,0,2023-10-30,2023-10-30,株式会社カーギャラリーナカタ,,株式会社,兵庫県,赤穂市,さつき町１１番地１０,,28,212,6780226,,,,,,,2023-10-30,1,,,,,カーギャラリーナカタ,0
455,2140005026784,新規,0,2023-10-30,2023-10-30,一般社団法人雅さん,,その他の設立登記法人,兵庫県,洲本市,下加茂２丁目３番３０号,,28,205,6560013,,,,,,,2023-10-30,1,,,,,マササン,0
460,2170001017859,新規,0,2023-10-30,2023-10-30,ワカショー株式会社,,株式会社,和歌山県,田辺市,上の山１丁目１４番１５号,,30,206,6460061,,,,,,,2023-10-30,1,,,,,ワカショー,0
470,2180001158710,新規,0,2023-10-30,2023-10-30,株式会社よしやす,,株式会社,愛知県,名古屋市千種区,赤坂町３丁目４３番地の２,,23,101,4640094,,,,,,,2023-10-30,1,,,,,ヨシヤス,0
471,2180003025925,新規,0,2023-10-30,2023-10-30,合同会社ＨＩＳＥＮＡ,,合同会社,愛知県,北名古屋市,能田旭１７番地,,23,234,4810003,,,,,,,2023-10-30,1,,,,,ヒセナ,0
483,2220005008790,新規,0,2023-10-30,2023-10-30,アーシャジャパン協同組合,,その他の設立登記法人,石川県,河北郡津幡町,字竹橋東４０番地,,17,361,9290426,,,,,,,2023-10-30,1,,,,,アーシャジャパン,0
490,2260003004482,新規,0,2023-10-30,2023-10-30,合同会社コルム,,合同会社,岡山県,岡山市北区,下中野３３８番地１２３,,33,101,7000973,,,,,,,2023-10-30,1,,,,,コルム,0
498,2290001103572,新規,0,2023-10-30,2023-10-30,株式会社Ｂｒｉｌｌｉａｎｔ　Ｌｏｔｕｓ,,株式会社,福岡県,福岡市中央区,大濠公園２番３５－５１０号,,40,133,8100051,,,,,,,2023-10-30,1,,,,,ブリリアントロータス,0
503,2290801030000,新規,0,2023-10-30,2023-10-30,株式会社峰義,,株式会社,福岡県,北九州市小倉北区,中井５丁目６番２６号,,40,106,8030836,,,,,,,2023-10-30,1,,,,,ミネヨシ,0
509,2330003010044,新規,0,2023-10-30,2023-10-30,アステル合同会社,,合同会社,熊本県,熊本市北区,津浦町１３番８３号,,43,105,8600088,,,,,,,2023-10-30,1,,,,,アステル,0
513,2360003013424,新規,0,2023-10-30,2023-10-30,合同会社ｆｅｅｌ　ｉｔ,,合同会社,沖縄県,うるま市,石川白浜１丁目１－１,,47,213,9041105,,,,,,,2023-10-30,1,,,,,フィールイット,0
516,2370001050575,新規,0,2023-10-30,2023-10-30,Ｋｅｎｓｅｉケアパートナー株式会社,,株式会社,宮城県,仙台市青葉区,宮町３丁目５番２０号,,04,101,9800004,,,,,,,2023-10-30,1,,,,,ケンセイケアパートナー,0
518,2370003006344,新規,0,2023-10-30,2023-10-30,合同会社Ｈｏｌｏｍｕａ,,合同会社,宮城県,仙台市若林区,上飯田３丁目３０番１４号フレグランスＣ１０２,,04,103,9840838,,,,,,,2023-10-30,1,,,,,ホロムア,0
526,2430001090276,新規,0,2023-10-30,2023-10-30,株式会社Ｇｒｅｅｎ,,株式会社,北海道,札幌市中央区,南二十四条西１２丁目２番１１号,,01,101,0640924,,,,,,,2023-10-30,1,,,,,グリーン,0
527,2430001090292,新規,0,2023-10-30,2023-10-30,株式会社ＴＨＩＮＫ　ＵＲ,,株式会社,北海道,札幌市東区,東苗穂九条３丁目１番２号,,01,103,0070809,,,,,,,2023-10-30,1,,,,,シンクユアー,0
536,2700150121572,新規,0,2023-10-30,2023-10-30,Ｎｉｎｇｂｏ　Ｓｈｉｊｉｃｈｅｎｇｕａｎｇ　Ｔｒａｄｅ　Ｄｅｖｅｌｏｐｍｅｎｔ　Ｃｏ．，Ｌｔｄ．,,外国会社等,,,,,,,,Ｚｈｅｊｉａｎｇｓｈｅｎｇ　Ｎｉｎｇｂｏｓｈｉ　ＢｅｉｌｕｎＱｕ　Ｍｅｉｓｈａｎｙａｎｃｈａｎｇ１Ｈａｏｂａｎｇｏｎｇｌｏｕ８Ｈａｏ９６４Ｓｈｉ　３１５０００　ＣＮ,,,,,,2023-10-30,1,,,,,ネイハシジチェングゥアントレードディベロップメントカンパニーリミテッド,0
547,3010001239617,新規,0,2023-10-30,2023-10-30,ＳｉｔｙＣａｎｖａｓ株式会社,,株式会社,東京都,中央区,入船１丁目６番９号,,13,102,1040042,,,,,,,2023-10-30,1,,,,,シティキャンバス,0
550,3010003042060,新規,0,2023-10-30,2023-10-30,合同会社Ｔｅｎｚａｉ,,合同会社,東京都,文京区,後楽２丁目３－１０メゾン飯田橋２０２,,13,105,1120004,,,,,,,2023-10-30,1,,,,,テンザイ,0
563,3010401178051,新規,0,2023-10-30,2023-10-30,株式会社ＰｏｎＴｅｃｈ,,株式会社,東京都,港区,南青山３丁目１番３６号青山丸竹ビル６Ｆ,,13,103,1070062,,,,,,,2023-10-30,1,,,,,ポンテック,0
564,3010401178126,新規,0,2023-10-30,2023-10-30,ＭＣＰ２１株式会社,,株式会社,東京都,港区,元赤坂１丁目１番８号株式会社赤坂国際会計内,,13,103,1070051,,,,,,,2023-10-30,1,,,,,エムシーピーツーワン,0
565,3010401178159,新規,0,2023-10-30,2023-10-30,株式会社ＴＧＸ　ＯＮＥ,,株式会社,東京都,港区,南青山１丁目３番１号,,13,103,1070062,,,,,,,2023-10-30,1,,,,,ティージーエックスワン,0
566,3010401178191,新規,0,2023-10-30,2023-10-30,Ｔｈｅ　ｃａｒｅ株式会社,,株式会社,東京都,港区,南青山２丁目２番１５－１０４２号,,13,103,1070062,,,,,,,2023-10-30,1,,,,,ザケア,0
567,3010401178209,新規,0,2023-10-30,2023-10-30,株式会社エモーショナルバンク,,株式会社,東京都,港区,三田５丁目９番１４号アトラス白金高輪５０７号,,13,103,1080073,,,,,,,2023-10-30,1,,,,,エモーショナルバンク,0
570,3010405022610,新規,0,2023-10-30,2023-10-30,特定非営利活動法人響の会,,その他の設立登記法人,東京都,港区,北青山３丁目３番７号第一青山ビル２階,,13,103,1070061,,,,,,,2023-10-30,1,,,,,ヒビキノカイ,0
577,3010601064043,新規,0,2023-10-30,2023-10-30,株式会社ＭＳＦ,,株式会社,東京都,墨田区,東向島６丁目１１番１３号,,13,107,1310032,,,,,,,2023-10-30,1,,,,,エムエスエフ,0
582,3010701045059,新規,0,2023-10-30,2023-10-30,株式会社ＷｅｂＲｅｎｔ,,株式会社,東京都,品川区,西五反田２丁目９番７号ドルミ五反田アンメゾン４０７号,,13,109,1410031,,,,,,,2023-10-30,1,,,,,ウェブレント,0
587,3010903008540,新規,0,2023-10-30,2023-10-30,合同会社ｃｕｘｏ,,合同会社,東京都,世田谷区,池尻２丁目３１－７－７０２,,13,112,1540001,,,,,,,2023-10-30,1,,,,,クーソー,0
595,3011001157767,新規,0,2023-10-30,2023-10-30,株式会社ＷＥＬＬ　ＢＥＬＬＥ,,株式会社,東京都,渋谷区,代々木４丁目１０番１４号,,13,113,1510053,,,,,,,2023-10-30,1,,,,,ウェルベル,0
596,3011001157908,新規,0,2023-10-30,2023-10-30,アネラックス株式会社,,株式会社,東京都,渋谷区,恵比寿西２丁目８番４号ＥＸ恵比寿西ビル５階,,13,113,1500021,,,,,,,2023-10-30,1,,,,,アネラックス,0
600,3011201025014,新規,0,2023-10-30,2023-10-30,株式会社Ｑｕｉｘｏｔｉｋｓ,,株式会社,東京都,中野区,本町５丁目４０－２メゾン匠３０５,,13,114,1640012,,,,,,,2023-10-30,1,,,,,キゾティクス,0
610,3011801043258,新規,0,2023-10-30,2023-10-30,ＷＥＬＬＳＥＥＤ株式会社,,株式会社,東京都,足立区,六町３丁目１０番１号,,13,121,1210073,,,,,,,2023-10-30,1,,,,,ウェルシード,0
612,3011803005909,新規,0,2023-10-30,2023-10-30,ＪＮＴ合同会社,,合同会社,東京都,足立区,本木２丁目１８番３１号ラ・ネージュ３０３,,13,121,1230853,,,,,,,2023-10-30,1,,,,,ジェイエヌティー,0
624,3020001154195,新規,0,2023-10-30,2023-10-30,株式会社ミオ工業,,株式会社,神奈川県,横浜市都筑区,池辺町４８８７番地１－２０４号,,14,118,2240053,,,,,,,2023-10-30,1,,,,,ミオコウギョウ,0
625,3020001154212,新規,0,2023-10-30,2023-10-30,株式会社トータルビジネスサポート,,株式会社,神奈川県,横浜市西区,浅間町１丁目４番３号ウィザードビル４０２,,14,103,2200072,,,,,,,2023-10-30,1,,,,,トータルビジネスサポート,0
627,3021001080571,新規,0,2023-10-30,2023-10-30,株式会社ＹＫステップ,,株式会社,神奈川県,相模原市南区,上鶴間２丁目９番３１－１号,,14,153,2520302,,,,,,,2023-10-30,1,,,,,ワイケイステップ,0
650,3040003023578,新規,0,2023-10-30,2023-10-30,Ｃａｓａ　Ｐｅｑｕｅ合同会社,,合同会社,千葉県,松戸市,古ケ崎２丁目３２４１番地の３,,12,207,2710068,,,,,,,2023-10-30,1,,,,,カサペケ,0
651,3040005022181,新規,0,2023-10-30,2023-10-30,医療法人社団翔積会,,その他の設立登記法人,千葉県,茂原市,早野１１３８番地１１,,12,210,2970037,,,,,,,2023-10-30,1,,,,,ショウセキカイ,0
652,3050001053667,新規,0,2023-10-30,2023-10-30,株式会社ＭＩＡＮ　ＴＲＡＤＥＲＳ,,株式会社,茨城県,潮来市,須賀南６２－１２,,08,223,3112446,,,,,,,2023-10-30,1,,,,,ミアントレーダーズ,0
653,3050001053725,新規,0,2023-10-30,2023-10-30,株式会社ドゥエル,,株式会社,茨城県,つくば市,妻木４２３番地,,08,220,3050028,,,,,,,2023-10-30,1,,,,,ドゥエル,0
654,3050001053741,新規,0,2023-10-30,2023-10-30,株式会社Ｏｕｋａ,,株式会社,茨城県,取手市,宮和田３０６番地,,08,217,3001514,,,,,,,2023-10-30,1,,,,,オウカ,0
657,3050003007902,新規,0,2023-10-30,2023-10-30,ＧＯＲＳｉ　ＴＲＡＤＩＮＧ合同会社,,合同会社,茨城県,坂東市,逆井１８３３番地４９,,08,228,3060501,,,,,,,2023-10-30,1,,,,,ゴルシトレーディング,0
658,3060001036497,新規,0,2023-10-30,2023-10-30,ＬｉＦｉＸ株式会社,,株式会社,栃木県,那須郡那珂川町,小川６９１,,09,411,3240501,,,,,,,2023-10-30,1,,,,,リフィックス,0
673,3100003007244,新規,0,2023-10-30,2023-10-30,合同会社ぶっきぃファーム,,合同会社,長野県,駒ヶ根市,赤穂２７６７番地６,,20,210,3994117,,,,,,,2023-10-30,1,,,,,ブッキィファーム,0
685,3120001259141,新規,0,2023-10-30,2023-10-30,株式会社ＴＳ,,株式会社,大阪府,枚方市,長尾元町５丁目２番１６号,,27,210,5730163,,,,,,,2023-10-30,1,,,,,ティーエス,0
686,3120001259166,新規,0,2023-10-30,2023-10-30,ＲｅＳｏｗホールディングス株式会社,,株式会社,大阪府,大阪市阿倍野区,阿倍野筋１丁目１番４３号あべのハルカス２９階,,27,119,5450052,,,,,,,2023-10-30,1,,,,,リソウホールディングス,0
687,3120001259315,新規,0,2023-10-30,2023-10-30,株式会社中山工業,,株式会社,大阪府,大阪市大正区,南恩加島１丁目６番１２号,,27,108,5510021,,,,,,,2023-10-30,1,,,,,ナカヤマコウギョウ,0
690,3120003025211,新規,0,2023-10-30,2023-10-30,Ａｒｓｙ合同会社,,合同会社,大阪府,大阪市中央区,北久宝寺町１丁目１番１号フレアコート北久宝寺町８０１号,,27,128,5410057,,,,,,,2023-10-30,1,,,,,アーシー,0
704,3130001075546,新規,0,2023-10-30,2023-10-30,丹後絹塩株式会社,,株式会社,京都府,京丹後市,網野町島津１５８２－１,,26,212,6293121,,,,,,,2023-10-30,1,,,,,タンゴキヌシオ,0
705,3130001075562,新規,0,2023-10-30,2023-10-30,株式会社ＶＡＳＥ＆Ｃｏ．,,株式会社,京都府,京都市東山区,毘沙門町３１ベラジオ京都高台寺３０３,,26,105,6050812,,,,,,,2023-10-30,1,,,,,ベイスアンドコー,0
713,3140001132131,新規,0,2023-10-30,2023-10-30,株式会社ルーニスト,,株式会社,兵庫県,神戸市中央区,生田町４丁目５番２４－７０１号,,28,110,6510092,,,,,,,2023-10-30,1,,,,,ルーニスト,0
714,3140001132164,新規,0,2023-10-30,2023-10-30,ＲＩＴＡホールディングス株式会社,,株式会社,兵庫県,神崎郡市川町,下瀬加１９５番地の１,,28,442,6792304,,,,,,,2023-10-30,1,,,,,リタホールディングス,0
716,3140003019748,新規,0,2023-10-30,2023-10-30,２０００Ｒｅｓｔａｕｒａｎｔ合同会社,,合同会社,兵庫県,神戸市東灘区,御影塚町３丁目１１番９号神戸１２番館５０８号,,28,101,6580044,,,,,,,2023-10-30,1,,,,,ニセンレストラン,0
721,3180001158676,新規,0,2023-10-30,2023-10-30,株式会社ＧＯＮＳＵＫＥ,,株式会社,愛知県,名古屋市中村区,名駅３丁目２４番８三立ビル３Ｆ,,23,105,4500002,,,,,,,2023-10-30,1,,,,,ゴンスケ,0
726,3220001025657,新規,0,2023-10-30,2023-10-30,株式会社きばや,,株式会社,石川県,金沢市,彦三町１丁目８番２６号１階,,17,201,9200901,,,,,,,2023-10-30,1,,,,,キバヤ,0
729,3230001020079,新規,0,2023-10-30,2023-10-30,株式会社ＲＥＬＩＥＶＥＲ,,株式会社,富山県,富山市,蓮町４丁目５番２３号,,16,201,9318333,,,,,,,2023-10-30,1,,,,,リリーバー,0
730,3230003002100,新規,0,2023-10-30,2023-10-30,合同会社星場ジンサク,,合同会社,富山県,高岡市,伏木東一宮２８番４１号,,16,202,9330111,,,,,,,2023-10-30,1,,,,,ホシバジンサク,0
743,3290001103547,新規,0,2023-10-30,2023-10-30,株式会社Ｓ．Ｊ企画,,株式会社,福岡県,福岡市博多区,西月隈３丁目２０番１号,,40,132,8120857,,,,,,,2023-10-30,1,,,,,エスジェイキカク,0
744,3290001103555,新規,0,2023-10-30,2023-10-30,株式会社トリフィリ,,株式会社,福岡県,福岡市中央区,天神２丁目２番１２号Ｔ＆Ｊビルディング７Ｆ,,40,133,8100001,,,,,,,2023-10-30,1,,,,,トリフィリ,0
750,3290801029999,新規,0,2023-10-30,2023-10-30,株式会社山田建設,,株式会社,福岡県,北九州市小倉南区,大字新道寺１２０７番地,,40,107,8030186,,,,,,,2023-10-30,1,,,,,ヤマダケンセツ,0
751,3290805009683,新規,0,2023-10-30,2023-10-30,特定非営利活動法人ｍｉｘｊａｍ,,その他の設立登記法人,福岡県,直方市,新町１丁目４番３１号,,40,204,8220015,,,,,,,2023-10-30,1,,,,,ミックスジャム,0
754,3310001018684,新規,0,2023-10-30,2023-10-30,株式会社Ｋ＆Ｋ解体工業,,株式会社,長崎県,佐世保市,有福町１５２４番地４３,,42,202,8593241,,,,,,,2023-10-30,1,,,,,ケイアンドケイカイタイコウギョウ,0
762,3340001026032,新規,0,2023-10-30,2023-10-30,株式会社ＹＯＳＨＩＭＯＴＯ,,株式会社,鹿児島県,鹿児島市,星ヶ峯１丁目５６番１２号,,46,201,8910102,,,,,,,2023-10-30,1,,,,,ヨシモト,0
763,3360001032747,新規,0,2023-10-30,2023-10-30,株式会社ななつ星,,株式会社,沖縄県,浦添市,城間４丁目４０番２号４Ｆ,,47,208,9012133,,,,,,,2023-10-30,1,,,,,ナナツボシ,0
767,3360003013415,新規,0,2023-10-30,2023-10-30,合同会社Ｎ．ＧＲＯＷカンパニー,,合同会社,沖縄県,浦添市,牧港４丁目２５番１,,47,208,9012131,,,,,,,2023-10-30,1,,,,,エヌグロウカンパニー,0
772,3380001034097,新規,0,2023-10-30,2023-10-30,スマイルアンドフーズ株式会社,,株式会社,福島県,郡山市,鶴見坦１丁目８番３号,,07,203,9638861,,,,,,,2023-10-30,1,,,,,スマイルアンドフーズ,0
778,3430001090300,新規,0,2023-10-30,2023-10-30,株式会社來翔建設,,株式会社,北海道,札幌市東区,東苗穂七条１丁目２番１９号,,01,103,0070807,,,,,,,2023-10-30,1,,,,,ライトケンセツ,0
779,3430003015544,新規,0,2023-10-30,2023-10-30,オレンヂアソシエイション合同会社,,合同会社,北海道,札幌市東区,北八条東４丁目１番２０号,,01,103,0600908,,,,,,,2023-10-30,1,,,,,オレンヂアソシエイション,0
780,3430003015569,新規,0,2023-10-30,2023-10-30,合同会社イーワークス,,合同会社,北海道,札幌市中央区,南十一条西７丁目１－７朝日ビル３階,,01,101,0640811,,,,,,,2023-10-30,1,,,,,イーワークス,0
792,3700150121118,新規,0,2023-10-30,2023-10-06,富山県学校農業クラブ連盟,,その他,富山県,小矢部市,西中２１０番地,,16,209,9320805,,,,,,,2023-10-06,1,,,,,トヤマケンガツコウノウギヨウクラブレンメイ,0
793,3700150121571,新規,0,2023-10-30,2023-10-30,Ｇｕａｎｇｚｈｏｕ　Ｃｈａｏｙａｎ　Ｔｅｃｈｎｏｌｏｇｙ　Ｃｏ．，Ｌｔｄ,,外国会社等,,,,,,,,ｇｕａｎｇｚｈｏｕｓｈｉ　ｔｉａｎｈｅｑｕ　ｈｕａｇｕａｎｌｕ１９３３ｈａｏｚｈｉｅｒ４０２　４０３ｆａｎｇＺＣ０１－Ｋ２０３ｈａｏ　５１０６３０　ＣＮ,,,,,,2023-10-30,1,,,,,コウシュウチャオイエンテクノロジーカンパニーリミテッド,0
799,4010001239525,新規,0,2023-10-30,2023-10-30,株式会社ＬＵＪＵ,,株式会社,東京都,中央区,銀座１丁目２２番１１号銀座大竹ビジデンス２Ｆ,,13,102,1040061,,,,,,,2023-10-30,1,,,,,ルジュ,0
805,4010005037446,新規,0,2023-10-30,2023-10-30,一般社団法人ＬＥＶＥＣＨＹ９号,,その他の設立登記法人,東京都,千代田区,紀尾井町３－８第２紀尾井町ビル９０１アクシス綜合会計事務所内,,13,101,1020094,,,,,,,2023-10-30,1,,,,,レベチーキュウゴウ,0
806,4010101015867,新規,0,2023-10-30,2023-10-30,はたら工場株式会社,,株式会社,東京都,八王子市,東町１０番３号,,13,201,1920082,,,,,,,2023-10-30,1,,,,,ハタラコウジョウ,0
811,4010401178190,新規,0,2023-10-30,2023-10-30,株式会社Ａｃｔ　Ｎｏｗ,,株式会社,東京都,港区,南青山３丁目３－１７パイン南青山１０１号室,,13,103,1070062,,,,,,,2023-10-30,1,,,,,アクトナウ,0
812,4010401178199,新規,0,2023-10-30,2023-10-30,株式会社不動産Ｍ＆Ａ会,,株式会社,東京都,港区,南青山２丁目１３番１６号ニュー鈴木２階,,13,103,1070062,,,,,,,2023-10-30,1,,,,,フドウサンエムアンドエーカイ,0
815,4010501051272,新規,0,2023-10-30,2023-10-30,中尾設備設計株式会社,,株式会社,東京都,台東区,上野６丁目１番６号御徒町グリーンハイツ１００５号,,13,106,1100005,,,,,,,2023-10-30,1,,,,,ナカオセツビセッケイ,0
825,4010801034464,新規,0,2023-10-30,2023-10-30,株式会社ＳＰｏｏＭ,,株式会社,東京都,大田区,鵜の木２丁目３３番７号,,13,111,1460091,,,,,,,2023-10-30,1,,,,,スプーム,0
838,4011101104949,新規,0,2023-10-30,2023-10-30,株式会社ＮＭＳ,,株式会社,東京都,新宿区,新宿５丁目１８番２０号ルックハイツ新宿８０３号,,13,104,1600022,,,,,,,2023-10-30,1,,,,,エヌエムエス,0
840,4011103013669,新規,0,2023-10-30,2023-10-30,カタカナ合同会社,,合同会社,東京都,新宿区,須賀町９－３琴富貴荘２Ｈ,,13,104,1600018,,,,,,,2023-10-30,1,,,,,カタカナ,0
841,4011301029120,新規,0,2023-10-30,2023-10-30,杜海株式会社,,株式会社,東京都,杉並区,上高井戸１丁目１３番３－７１０号,,13,115,1680074,,,,,,,2023-10-30,1,,,,,モリミ,0
850,4011603004110,新規,0,2023-10-30,2023-10-30,合同会社Ｐｅｎｄｏｌｏ,,合同会社,東京都,練馬区,桜台２丁目１０番７号,,13,120,1760002,,,,,,,2023-10-30,1,,,,,ペンドロ,0
856,4011801043257,新規,0,2023-10-30,2023-10-30,株式会社メイワ,,株式会社,東京都,足立区,鹿浜５丁目２４番７号,,13,121,1230864,,,,,,,2023-10-30,1,,,,,メイワ,0
873,4020001154104,新規,0,2023-10-30,2023-10-30,株式会社ポジメディ,,株式会社,神奈川県,横浜市中区,桜木町１丁目１０１－１クロスゲート７Ｆ,,14,104,2310062,,,,,,,2023-10-30,1,,,,,ポジメディ,0
874,4020001154186,新規,0,2023-10-30,2023-10-30,株式会社ＣＨＯ　ＮＩＣＥ,,株式会社,神奈川県,川崎市多摩区,菅仙谷２丁目１１番１９号リコルドタカ２０１,,14,135,2140006,,,,,,,2023-10-30,1,,,,,チョウナイス,0
875,4020001154194,新規,0,2023-10-30,2023-10-30,株式会社シンマネジメント,,株式会社,神奈川県,横浜市戸塚区,汲沢５丁目１６番２３号,,14,110,2450061,,,,,,,2023-10-30,1,,,,,シンマネジメント,0
876,4020001154211,新規,0,2023-10-30,2023-10-30,グリーンサービス株式会社,,株式会社,神奈川県,川崎市多摩区,西生田３丁目１７番３５号ヒルトップハイツ１０２,,14,135,2140037,,,,,,,2023-10-30,1,,,,,グリーンサービス,0
877,4020001154228,新規,0,2023-10-30,2023-10-30,京友型枠株式会社,,株式会社,神奈川県,横浜市都筑区,川向町８１９番地１－２０４号,,14,118,2240044,,,,,,,2023-10-30,1,,,,,キョウユウカタワク,0
879,4020003024858,新規,0,2023-10-30,2023-10-30,合同会社ライズ,,合同会社,神奈川県,川崎市高津区,北見方１丁目３０番２０号ロイヤルハイツ３０２,,14,134,2130005,,,,,,,2023-10-30,1,,,,,ライズ,0
880,4020003024874,新規,0,2023-10-30,2023-10-30,合同会社エム・エヌ,,合同会社,神奈川県,横浜市栄区,鍛冶ケ谷町４５２番地の１２０,,14,115,2470003,,,,,,,2023-10-30,1,,,,,エムエヌ,0
882,4021001080579,新規,0,2023-10-30,2023-10-30,児島晋輔事務所株式会社,,株式会社,神奈川県,鎌倉市,大町６丁目１０番７－２号,,14,204,2480007,,,,,,,2023-10-30,1,,,,,コジマシンスケジムショ,0
890,4030001156842,新規,0,2023-10-30,2023-10-30,株式会社ＴＡＣＨＩＳＨＩＢＡ,,株式会社,埼玉県,吉川市,木売２丁目１番２号,,11,243,3420045,,,,,,,2023-10-30,1,,,,,タチシバ,0
891,4030001156875,新規,0,2023-10-30,2023-10-30,株式会社セコンドラボーロ,,株式会社,埼玉県,川口市,芝下３丁目２６番８号,,11,203,3330848,,,,,,,2023-10-30,1,,,,,セコンドラボーロ,0
892,4030001156900,新規,0,2023-10-30,2023-10-30,株式会社Ｋ‐ｆｏｒｅｓｔ,,株式会社,埼玉県,川口市,大字差間２０番地の５,,11,203,3330816,,,,,,,2023-10-30,1,,,,,ケーフォレスト,0
893,4030001156917,新規,0,2023-10-30,2023-10-30,株式会社ＤＲＥＡＭ,,株式会社,埼玉県,川口市,南鳩ヶ谷４丁目２６番１－２０３号,,11,203,3340013,,,,,,,2023-10-30,1,,,,,ドリーム,0
901,4040001130739,新規,0,2023-10-30,2023-10-30,株式会社美骨ＬＡＢ,,株式会社,千葉県,八街市,八街ほ１０３２－２６,,12,230,2891115,,,,,,,2023-10-30,1,,,,,ビコツラボ,0
905,4050001053708,新規,0,2023-10-30,2023-10-30,株式会社ＴＡＳＵＫＩ,,株式会社,茨城県,結城市,大字結城１０５９２番地１２,,08,207,3070001,,,,,,,2023-10-30,1,,,,,タスキ,0
907,4050003007892,新規,0,2023-10-30,2023-10-30,合同会社クナイソンカム,,合同会社,茨城県,古河市,上辺見２８２７番地サンライズふじ２０１号,,08,204,3060234,,,,,,,2023-10-30,1,,,,,クナイソンカム,0
919,4100003007235,新規,0,2023-10-30,2023-10-30,合同会社メタルワーカー,,合同会社,長野県,上伊那郡箕輪町,大字中箕輪１１２６８－２,,20,383,3994601,,,,,,,2023-10-30,1,,,,,メタルワーカー,0
920,4100003007243,新規,0,2023-10-30,2023-10-30,合同会社つなぎびと,,合同会社,長野県,松本市,梓川倭１８６３番地１２,,20,202,3901701,,,,,,,2023-10-30,1,,,,,ツナギビト,0
923,4110003005196,新規,0,2023-10-30,2023-10-30,合同会社レイズ,,合同会社,新潟県,長岡市,左近２丁目１３番リオブランシェ１０１,,15,202,9401161,,,,,,,2023-10-30,1,,,,,レイズ,0
933,4120001259280,新規,0,2023-10-30,2023-10-30,株式会社ＨＡＲＩＭＡ,,株式会社,大阪府,大阪市天王寺区,石ケ辻町６番１３－２０８号,00132455,27,109,5430031,,,,,,,2023-10-30,1,,,,,ハリマ,0
945,4130001075561,新規,0,2023-10-30,2023-10-30,株式会社パデボ,,株式会社,京都府,京都市右京区,太秦石垣町４７,,26,108,6168166,,,,,,,2023-10-30,1,,,,,パデボ,0
952,4140001132155,新規,0,2023-10-30,2023-10-30,株式会社技研テック,,株式会社,兵庫県,尼崎市,金楽寺町２丁目２０番３０号,,28,202,6600806,,,,,,,2023-10-30,1,,,,,ギケンテック,0
964,4180001158733,新規,0,2023-10-30,2023-10-30,株式会社アルクメディカル,,株式会社,愛知県,北名古屋市,鹿田清水５５番地２,,23,234,4810004,,,,,,,2023-10-30,1,,,,,アルクメディカル,0
984,4230001020078,新規,0,2023-10-30,2023-10-30,高岡金属株式会社,,株式会社,富山県,高岡市,十二町島１０４番１,,16,202,9330822,,,,,,,2023-10-30,1,,,,,タカオカキンゾク,0
987,4240001062342,新規,0,2023-10-30,2023-10-30,株式会社サウザンドクリエイト,,株式会社,広島県,広島市中区,橋本町９番７号,,34,101,7300015,,,,,,,2023-10-30,1,,,,,サウザンドクリエイト,0
988,4240001062350,新規,0,2023-10-30,2023-10-30,株式会社フューチャーブルーム,,株式会社,広島県,東広島市,西条町吉行１９６３番地,,34,212,7390002,,,,,,,2023-10-30,1,,,,,フューチャーブルーム,0
997,4290001103570,新規,0,2023-10-30,2023-10-30,株式会社ｓｈｕｖｉｒｔｕｅ,,株式会社,福岡県,福岡市中央区,天神２丁目２番１２号Ｔ＆Ｊビルディング７Ｆ,,40,133,8100001,,,,,,,2023-10-30,1,,,,,シュバーチュ,0
1007,4310001018683,新規,0,2023-10-30,2023-10-30,株式会社松坂農園,,株式会社,長崎県,南島原市,西有家町慈恩寺１９２６番地１,,42,214,8592214,,,,,,,2023-10-30,1,,,,,マツザカノウエン,0
1015,4360003013414,新規,0,2023-10-30,2023-10-30,合同会社Ｗｉｌｌ　Ｗｅａｖｅ,,合同会社,沖縄県,中頭郡中城村,字当間９２６番地,,47,328,9012406,,,,,,,2023-10-30,1,,,,,ウィルウェーヴ,0
1016,4360003013430,新規,0,2023-10-30,2023-10-30,合同会社沖縄拳法総本部中村道場,,合同会社,沖縄県,名護市,大中１丁目１４番１２号,,47,209,9050017,,,,,,,2023-10-30,1,,,,,オキナワケンポウソウホンブナカムラドウジョウ,0
1035,4450001014124,新規,0,2023-10-30,2023-10-30,株式会社旭桜,,株式会社,北海道,旭川市,末広二条１５丁目６番２号,,01,204,0718132,,,,,,,2023-10-30,1,,,,,キョクオウ,0
1040,4700150088315,新規,0,2023-10-30,2018-04-09,徳島県農業用廃プラスチック適正処理対策協議会,,その他,徳島県,徳島市,北佐古一番町５－１２,,36,201,7700011,,,,,,,2018-04-09,1,,,,,トクシマケンノウギヨウヨウハイプラスチツクテキセイシヨリタイサクキヨウギカイ,0
1042,4700150121554,新規,0,2023-10-30,2023-10-30,Ｍｕｚｉｎｉｃｈ＆Ｃｏ．Ｊａｐａｎ　Ｐｔｅ．Ｌｉｍｉｔｅｄ,,外国会社等,東京都,千代田区,丸の内３丁目２－２丸の内二重橋ビル３階,,13,101,1000005,シンガポール共和国、バッテリー・ロード６、２６－０５号,,,,,,2023-10-30,1,,,,,ミユーズニツチアンドコージヤパンプライベートリミテツド,0
1043,4700150121570,新規,0,2023-10-30,2023-10-30,ｓｈｅｎｚｈｅｎｓｈｉｚｈｉｘｉａｎｇｓｈｅｎｇｈｕｏｊｉａｊｕ　ｙｏｕｘｉａｎｚｅｒｅｎｇｏｎｇｓｉ,,外国会社等,,,,,,,,ｍｉｎｚｈｉｊｉｅｄａｏｚｈａｎｇｋｅｎｇｓｈｅｑｕｚｈａｎｇｋｅｎｇｙｉｑｕ７８ｄｏｎｇ５０６　ｓｈｅｎｚｈｅｎｓｈｉ　ｌｏｎｇｈｕａｑｕ　５１８１３１　ＣＮ,,,,,,2023-10-30,1,,,,,シンセンシジシャンセンホウジャジュヨウシェンゴンスー,0
1053,5010001239607,新規,0,2023-10-30,2023-10-30,ＴＫアクアグリーン株式会社,,株式会社,東京都,千代田区,神田三崎町２丁目５番３号,,13,101,1010061,,,,,,,2023-10-30,1,,,,,ティーケーアクアグリーン,0
1068,5010401178165,新規,0,2023-10-30,2023-10-30,株式会社ＰＯＲＴ,,株式会社,東京都,港区,海岸３丁目９番１８号,,13,103,1080022,,,,,,,2023-10-30,1,,,,,ポート,0
1069,5010401178173,新規,0,2023-10-30,2023-10-30,株式会社Ａ・Ｋフィナンシャル,,株式会社,東京都,港区,愛宕２丁目５番１号愛宕グリーンヒルズＭＯＲＩタワー２４階,,13,103,1050002,,,,,,,2023-10-30,1,,,,,エーケーフィナンシャル,0
1070,5010401178181,新規,0,2023-10-30,2023-10-30,株式会社Ａｗｅｓｏｍｅ,,株式会社,東京都,港区,芝浦３丁目１９番２３号,,13,103,1080023,,,,,,,2023-10-30,1,,,,,オーサム,0
1071,5010401178198,新規,0,2023-10-30,2023-10-30,株式会社ＳｉｄｅＦＩＲＥ会,,株式会社,東京都,港区,南青山２丁目１３番１６号ニュー鈴木２階,,13,103,1070062,,,,,,,2023-10-30,1,,,,,サイドファイアーカイ,0
1074,5010405022617,新規,0,2023-10-30,2023-10-30,一般社団法人ＯＨＡＯ,,その他の設立登記法人,東京都,港区,芝浦３丁目１５番５－２１１号,,13,103,1080023,,,,,,,2023-10-30,1,,,,,オハオ,0
1075,5010405022633,新規,0,2023-10-30,2023-10-30,一般社団法人美容健康癒しの研究所,,その他の設立登記法人,東京都,港区,虎ノ門３丁目１８－６,,13,103,1050001,,,,,,,2023-10-30,1,,,,,ビヨウケンコウイヤシノケンキュウジョ,0
1080,5010601064058,新規,0,2023-10-30,2023-10-30,はわはわ株式会社,,株式会社,東京都,江東区,亀戸２丁目２６番５号亀戸第２ミハマビル２０２,,13,108,1360071,,,,,,,2023-10-30,1,,,,,ハワハワ,0
1081,5010603010456,新規,0,2023-10-30,2023-10-30,合同会社ＫＯＥＬ,,合同会社,東京都,江東区,白河３丁目１５番４号,,13,108,1350021,,,,,,,2023-10-30,1,,,,,コエル,0
1098,5011001157914,新規,0,2023-10-30,2023-10-30,別邸生活マネジメント株式会社,,株式会社,東京都,目黒区,碑文谷２丁目１５番２号,,13,110,1520003,,,,,,,2023-10-30,1,,,,,ベッテイセイカツマネジメント,0
1111,5011101104923,新規,0,2023-10-30,2023-10-30,東京新都心警備システム株式会社,,株式会社,東京都,新宿区,改代町３３番地１７号,,13,104,1620802,,,,,,,2023-10-30,1,,,,,トウキョウシントシンケイビシステム,0
1112,5011101104964,新規,0,2023-10-30,2023-10-30,株式会社ＡｐｐｌｅＳｅｅｄ,,株式会社,東京都,新宿区,西新宿３丁目３－１３西新宿水間ビル６階,,13,104,1600023,,,,,,,2023-10-30,1,,,,,アップルシード,0
1114,5011103013668,新規,0,2023-10-30,2023-10-30,合同会社エスケードリーム,,合同会社,東京都,新宿区,四谷２丁目９番地１５東京ユナイテッド綜合事務所内,,13,104,1600004,,,,,,,2023-10-30,1,,,,,エスケードリーム,0
1115,5011103013676,新規,0,2023-10-30,2023-10-30,合同会社ＡＲＡＷＡＲＥ,,合同会社,東京都,新宿区,新宿１丁目３６番２号,,13,104,1600022,,,,,,,2023-10-30,1,,,,,アラワレ,0
1116,5011105010829,新規,0,2023-10-30,2023-10-30,一般社団法人エスケードリーム,,その他の設立登記法人,東京都,新宿区,四谷２丁目９番地１５東京ユナイテッド綜合事務所内,,13,104,1600004,,,,,,,2023-10-30,1,,,,,エスケードリーム,0
1119,5011501029927,新規,0,2023-10-30,2023-10-30,弘胤株式会社,,株式会社,東京都,荒川区,東日暮里２丁目３０番６－１０３,,13,118,1160014,,,,,,,2023-10-30,1,,,,,コウイン,0
1122,5011601027236,新規,0,2023-10-30,2023-10-30,株式会社やぎや,,株式会社,東京都,練馬区,豊玉南３丁目６番６号デュオコ－ト１０１,,13,120,1760014,,,,,,,2023-10-30,1,,,,,ヤギヤ,0
1128,5011701026716,新規,0,2023-10-30,2023-10-30,株式会社サンライトスポーツ,,株式会社,東京都,江戸川区,篠崎町７丁目２６番１３－９０３号レクセル篠崎,,13,123,1330061,,,,,,,2023-10-30,1,,,,,,0
1134,5012401041146,新規,0,2023-10-30,2023-10-30,株式会社トリプルティ,,株式会社,東京都,多摩市,和田２０００番地の９,,13,224,2060001,,,,,,,2023-10-30,1,,,,,トリプルティ,0
1137,5013303006856,新規,0,2023-10-30,2023-10-30,Ｂｅａｕｔｙ合同会社,,合同会社,東京都,豊島区,上池袋２丁目４４番２号ミハス池袋２０１号,,13,116,1700012,,,,,,,2023-10-30,1,,,,,ビューティー,0
1146,5020001154177,新規,0,2023-10-30,2023-10-30,心拓株式会社,,株式会社,神奈川県,横浜市南区,蒔田町字谷戸田上９７３番地９ルネ横浜蒔田グランヒルズ３０６号,,14,105,2320043,,,,,,,2023-10-30,1,,,,,シンタク,0
1153,5021001080578,新規,0,2023-10-30,2023-10-30,Ｋａｉｋａ　Ｄｅｓｉｇｎ株式会社,,株式会社,神奈川県,藤沢市,藤沢１０２３番地の１メディウス藤沢７０２号,,14,205,2510052,,,,,,,2023-10-30,1,,,,,カイカデザイン,0
1165,5030001156890,新規,0,2023-10-30,2023-10-30,株式会社龍真総業,,株式会社,埼玉県,新座市,石神５丁目９番８号,,11,230,3520033,,,,,,,2023-10-30,1,,,,,リュウシンソウギョウ,0
1166,5030001156899,新規,0,2023-10-30,2023-10-30,株式会社美孝技術,,株式会社,埼玉県,川口市,大字峯１３４番地,,11,203,3340056,,,,,,,2023-10-30,1,,,,,ビコウギジュツ,0
1167,5030001156924,新規,0,2023-10-30,2023-10-30,株式会社アントレース,,株式会社,埼玉県,所沢市,大字山口１１３８番地の１,,11,208,3591145,,,,,,,2023-10-30,1,,,,,アントレース,0
1176,5030003022892,新規,0,2023-10-30,2023-10-30,合同会社ゴリアテ,,合同会社,埼玉県,川口市,東川口５丁目１０番４０－２０８号ルモン東川口二番館,,11,203,3330801,,,,,,,2023-10-30,1,,,,,ゴリアテ,0
1182,5040001130721,新規,0,2023-10-30,2023-10-30,株式会社アサヒサービス,,株式会社,千葉県,松戸市,西馬橋蔵元町１０８番地，００２－ＨＩＲＡＫＡＷＡ５０３号,,12,207,2710046,,,,,,,2023-10-30,1,,,,,アサヒサービス,0
1183,5040001130738,新規,0,2023-10-30,2023-10-30,ＶＴＴ株式会社,,株式会社,千葉県,千葉市美浜区,磯辺１丁目７－１１,,12,106,2610012,,,,,,,2023-10-30,1,,,,,ヴィーティーティ,0
1186,5050001053707,新規,0,2023-10-30,2023-10-30,株式会社人材ワーク,,株式会社,茨城県,つくば市,高野台２丁目１１番地２平和ハイツ２０２号室,,08,220,3050074,,,,,,,2023-10-30,1,,,,,ジンザイワーク,0
1187,5050001053715,新規,0,2023-10-30,2023-10-30,株式会社三衛不動産,,株式会社,茨城県,行方市,浜６８５番地２,,08,233,3113505,,,,,,,2023-10-30,1,,,,,サンエイフドウサン,0
1188,5050001053723,新規,0,2023-10-30,2023-10-30,株式会社ＪＡＭ,,株式会社,茨城県,土浦市,荒川沖東３丁目１７－５４コーポ向山Ｃ２０２,,08,203,3000871,,,,,,,2023-10-30,1,,,,,ジャム,0
1189,5050001053731,新規,0,2023-10-30,2023-10-30,株式会社Ｍ＆Ｋ　ｐｒｏｄｕｃｔｉｏｎ,,株式会社,茨城県,坂東市,弓田１１０５番地１,,08,228,3060607,,,,,,,2023-10-30,1,,,,,エムアンドケイプロダクション,0
1190,5050001053748,新規,0,2023-10-30,2023-10-30,賀進物流株式会社,,株式会社,茨城県,龍ケ崎市,大徳町２９３番地１２,,08,208,3010816,,,,,,,2023-10-30,1,,,,,ガシンブツリュウ,0
1195,5080103002914,新規,0,2023-10-30,2023-10-30,合同会社スカイスクレイパー,,合同会社,静岡県,三島市,壱町田１７番地の３０リバーサイド小川１０２,,22,206,4110025,,,,,,,2023-10-30,1,,,,,スカイスクレイパー,0
1197,5080401026813,新規,0,2023-10-30,2023-10-30,株式会社ＷＡＶＥ,,株式会社,静岡県,浜松市中区,広沢３丁目１１－２０Ｄグランセ広沢４０１号,,22,131,4328013,,,,,,,2023-10-30,1,,,,,ウェーブ,0
1209,5100003007234,新規,0,2023-10-30,2023-10-30,合同会社Ｆ＆Ｇ　ｓｔｕｄｉｏ,,合同会社,長野県,松本市,大字里山辺３３７２番地１ラ・サンシャイン２０５,,20,202,3900221,,,,,,,2023-10-30,1,,,,,エフアンドジースタジオ,0
1210,5100005013081,新規,0,2023-10-30,2023-10-30,特定非営利活動法人ＮＫスポーツ,,その他の設立登記法人,長野県,駒ヶ根市,中央１番３号２階,,20,210,3994112,,,,,,,2023-10-30,1,,,,,エヌケースポーツ,0
1217,5120001259288,新規,0,2023-10-30,2023-10-30,株式会社Ｌｉｅｎ,,株式会社,大阪府,大阪市西成区,玉出東１丁目１０－１２－３Ｂ,,27,122,5570043,,,,,,,2023-10-30,1,,,,,リアン,0
1218,5120001259296,新規,0,2023-10-30,2023-10-30,株式会社ベンチャーコンサルタント,,株式会社,大阪府,大阪市北区,梅田２丁目６－２０パシフィックマークス西梅田４Ｆ,,27,127,5300001,,,,,,,2023-10-30,1,,,,,ベンチャーコンサルタント,0
1224,5120003025201,新規,0,2023-10-30,2023-10-30,合同会社セレクト,,合同会社,大阪府,大阪市東住吉区,山坂１丁目１２番４－５０１号,,27,121,5460035,,,,,,,2023-10-30,1,,,,,セレクト,0
1230,5130001075569,新規,0,2023-10-30,2023-10-30,Ｃｌｅａｒ　Ｌｉｆｅ　Ｐｌａｎｎｉｎｇ株式会社,,株式会社,京都府,京都市下京区,鶏鉾町４９３番地７Ｆ,,26,106,6008491,,,,,,,2023-10-30,1,,,,,クリアーライフプランニング,0
1238,5140001132113,新規,0,2023-10-30,2023-10-30,株式会社ミツトモ設備,,株式会社,兵庫県,西宮市,今津上野町２番１５号１Ｆ,,28,204,6638213,,,,,,,2023-10-30,1,,,,,,0
1239,5140001132121,新規,0,2023-10-30,2023-10-30,株式会社アドバンスプレシジョン,,株式会社,兵庫県,神戸市中央区,磯上通４丁目３番１０－８０７号,,28,110,6510086,,,,,,,2023-10-30,1,,,,,アドバンスプレシジョン,0
1240,5140001132138,新規,0,2023-10-30,2023-10-30,株式会社Ｐｒｉｅｒ,,株式会社,兵庫県,西宮市,産所町７番７号シャーメゾンリヴュレット２０１号,,28,204,6620978,,,,,,,2023-10-30,1,,,,,プリエ,0
1241,5140001132146,新規,0,2023-10-30,2023-10-30,株式会社今村試錐,,株式会社,兵庫県,神崎郡市川町,西川辺１５５番地の３,,28,442,6792315,,,,,,,2023-10-30,1,,,,,イマムラシスイ,0
1242,5140001132170,新規,0,2023-10-30,2023-10-30,株式会社小肌,,株式会社,兵庫県,西宮市,南昭和町９番７号,,28,204,6620834,,,,,,,2023-10-30,1,,,,,コハダ,0
1244,5170001017864,新規,0,2023-10-30,2023-10-30,株式会社Ｆｌｅｕｒ,,株式会社,和歌山県,日高郡由良町,大字江ノ駒２９,,30,383,6491104,,,,,,,2023-10-30,1,,,,,フルール,0
1253,5180001158699,新規,0,2023-10-30,2023-10-30,株式会社ｂｅ　ｆａｍｉｌｙ,,株式会社,愛知県,名古屋市中村区,名駅２丁目３６番２０号,,23,105,4500002,,,,,,,2023-10-30,1,,,,,ビーファミリー,0
1256,5180003025872,新規,0,2023-10-30,2023-10-30,サークル合同会社,,合同会社,愛知県,名古屋市中川区,荒子町字宮窓１１０番地の１リバティー荒子２０６号,,23,110,4540861,,,,,,,2023-10-30,1,,,,,サークル,0
1257,5180003025914,新規,0,2023-10-30,2023-10-30,合同会社全力女子広報担当局,,合同会社,愛知県,名古屋市西区,那古野２丁目１４番１号,,23,104,4510042,,,,,,,2023-10-30,1,,,,,ゼンリョクジョシコウホウタントウキョク,0
1258,5180003025922,新規,0,2023-10-30,2023-10-30,合同会社たなかや,,合同会社,愛知県,名古屋市中川区,戸田明正２丁目２００５―１シーズンズ１０１,,23,110,4540961,,,,,,,2023-10-30,1,,,,,タナカヤ,0
1260,5180301037958,新規,0,2023-10-30,2023-10-30,株式会社ＳＥＳ,,株式会社,愛知県,刈谷市,野田新町２丁目２０８番地１－Ａ,,23,210,4480862,,,,,,,2023-10-30,1,,,,,エスイーエス,0
1278,5250001020372,新規,0,2023-10-30,2023-10-30,タランチュラ株式会社,,株式会社,山口県,山口市,白石１丁目１５番６－１０２号,,35,203,7530070,,,,,,,2023-10-30,1,,,,,タランチュラ,0
1305,5320001020118,新規,0,2023-10-30,2023-10-30,モトタカ建設株式会社,,株式会社,大分県,由布市,庄内町櫟木６１９番地６,,44,213,8795404,,,,,,,2023-10-30,1,,,,,モトタカケンセツ,0
1306,5320003004218,新規,0,2023-10-30,2023-10-30,合同会社百壽,,合同会社,大分県,別府市,大字北石垣１１８７番地の４ロフティ春木Ａ館５０１号,,44,202,8740000,,,,,,,2023-10-30,1,,,,,ヒャクジュ,0
1309,5330001031403,新規,0,2023-10-30,2023-10-30,株式会社ゴーパ,,株式会社,熊本県,山鹿市,泉町２０６番地,,43,208,8610512,,,,,,,2023-10-30,1,,,,,ゴーパ,0
1312,5360001032753,新規,0,2023-10-30,2023-10-30,株式会社ウィンズ,,株式会社,沖縄県,糸満市,西崎町３丁目１６０番地コアーズ西崎３０１号室,,47,210,9010306,,,,,,,2023-10-30,1,,,,,ウィンズ,0
1314,5360003013421,新規,0,2023-10-30,2023-10-30,ＺｅｕｓＰｌａｎ合同会社,,合同会社,沖縄県,宮古島市,平良字松原５２１番地６メゾンさち３－Ｃ,,47,214,9060014,,,,,,,2023-10-30,1,,,,,ゼウスプラン,0
1315,5370001050572,新規,0,2023-10-30,2023-10-30,ひなた工房株式会社,,株式会社,宮城県,多賀城市,南宮字伊勢２２１番地,,04,209,9850851,,,,,,,2023-10-30,1,,,,,ヒナタコウボウ,0
1316,5370001050580,新規,0,2023-10-30,2023-10-30,株式会社ＮＯＡＨ,,株式会社,宮城県,仙台市宮城野区,福室２丁目８番１７号福室マンション３１４号,,04,102,9830005,,,,,,,2023-10-30,1,,,,,ノア,0
1331,5430001090273,新規,0,2023-10-30,2023-10-30,株式会社Ｅ‐ｓｔｙｌｅ,,株式会社,北海道,札幌市西区,福井２丁目１２番３号,,01,107,0630012,,,,,,,2023-10-30,1,,,,,イースタイル,0
1338,5470001019871,新規,0,2023-10-30,2023-10-30,Ｗｉｔｈ株式会社,,株式会社,香川県,丸亀市,土器町東９丁目８６番地コーポセイサン１Ｆ,,37,202,7630082,,,,,,,2023-10-30,1,,,,,ウィズ,0
1339,5480001012264,新規,0,2023-10-30,2023-10-30,株式会社ＯＫＡＤＡ,,株式会社,徳島県,徳島市,一番町３丁目１６番地の３,,36,201,7700833,,,,,,,2023-10-30,1,,,,,オカダ,0
1340,5480001012272,新規,0,2023-10-30,2023-10-30,株式会社吉岡商店,,株式会社,徳島県,吉野川市,鴨島町西麻植字中筋１０４番地,,36,205,7760020,,,,,,,2023-10-30,1,,,,,ヨシオカショウテン,0
1341,5480003002040,新規,0,2023-10-30,2023-10-30,Ｌｅｖａｎｔｅ合同会社,,合同会社,徳島県,徳島市,国府町和田字七反田２０番地の８,,36,201,7793121,,,,,,,2023-10-30,1,,,,,レヴァンテ,0
1342,5500001025271,新規,0,2023-10-30,2023-10-30,株式会社ＡＰコンサルティング,,株式会社,愛媛県,今治市,河南町２丁目４番２４号,,38,202,7940822,,,,,,,2023-10-30,1,,,,,エーピーコンサルティング,0
1344,5700150121553,新規,0,2023-10-30,2023-10-30,Ｓ６４ベンチャーズ・リミテッド,,外国会社等,東京都,千代田区,丸の内３丁目２番２号,,13,101,1000005,英国ロンドン、ウィンポールストリート９１,,,,,,2023-10-30,1,,,,,エスシツクステイーフオーベンチヤーズリミテツド,0
1345,5700150121578,新規,0,2023-10-30,2023-10-30,Ｇｕａｎｇｚｈｏｕ　Ｔｉａｎｆｅｎｇｓｈａｎ　Ｔｒａｄｉｎｇ　Ｃｏ．，Ｌｔｄ,,外国会社等,,,,,,,,２３９，Ｎｏ．４３９　Ｆｕｙｉ　Ｒｏａｄ，Ｄａｌｏｎｇ　Ｓｔｒｅｅｔ，Ｐａｎｙｕ　Ｄｉｓｔｒｉｃｔ，Ｇｕａｎｇｚｈｏｕ　Ｇｕａｎｇｄｏｎｇ　Ｐｒｏｖｉｎｃｅ　５１１４００　ＣＮ,,,,,,2023-10-30,1,,,,,グァンジョウティェンフォンシャンマオイーヨウシェンゴンスー,0
1354,6010001239606,新規,0,2023-10-30,2023-10-30,株式会社共立リフレフォーラム,,株式会社,東京都,千代田区,外神田２丁目１０番７号,,13,101,1010021,,,,,,,2023-10-30,1,,,,,キョウリツリフレフォーラム,0
1357,6010005037444,新規,0,2023-10-30,2023-10-30,一般社団法人天草動鳴山風力発電,,その他の設立登記法人,東京都,文京区,本郷５丁目３３番１０号,,13,105,1130033,,,,,,,2023-10-30,1,,,,,アマクサドウメイザンフウリョクハツデン,0
1362,6010401178180,新規,0,2023-10-30,2023-10-30,株式会社ＣＲＯＳＹＳ,,株式会社,東京都,港区,南青山２丁目２番１５号ウィン青山１２１４号,,13,103,1070062,,,,,,,2023-10-30,1,,,,,クロシス,0
1363,6010401178197,新規,0,2023-10-30,2023-10-30,株式会社Ｔｈｅｏｒｉａ,,株式会社,東京都,港区,白金３丁目１番１３号日恵ビル２階,,13,103,1080072,,,,,,,2023-10-30,1,,,,,テオリア,0
1376,6011001157913,新規,0,2023-10-30,2023-10-30,クール・デュ・ミュゼ株式会社,,株式会社,東京都,渋谷区,渋谷４丁目２番９号,,13,113,1500002,,,,,,,2023-10-30,1,,,,,クールデュミュゼ,0
1380,6011101104955,新規,0,2023-10-30,2023-10-30,株式会社ＢＢ,,株式会社,東京都,新宿区,歌舞伎町１丁目３－７第一金嶋ビル１階い区画,,13,104,1600021,,,,,,,2023-10-30,1,,,,,ビービー,0
1381,6011103013584,新規,0,2023-10-30,2023-10-30,合同会社Ｈａｐｐｉｎｅｓｓ,,合同会社,東京都,新宿区,西新宿３丁目５番１２号トーカン新宿第二キャステール３１０号室,,13,104,1600023,,,,,,,2023-10-30,1,,,,,ハピネス,0
1382,6011103013667,新規,0,2023-10-30,2023-10-30,合同会社ホロノミクス,,合同会社,東京都,新宿区,西落合１丁目１０番１０号ゴールドレジデンス西落合４０３,,13,104,1610031,,,,,,,2023-10-30,1,,,,,ホロノミクス,0
1384,6011203004211,新規,0,2023-10-30,2023-10-30,東京ＥＣビジネスコンサルティング合同会社,,合同会社,東京都,中野区,本町２丁目５０番１０－６０１号,,13,114,1640012,,,,,,,2023-10-30,1,,,,,トウキョウイーシービジネスコンサルティング,0
1388,6011401025570,新規,0,2023-10-30,2023-10-30,カシワ株式会社,,株式会社,東京都,板橋区,蓮沼町２４番１４号,,13,119,1740052,,,,,,,2023-10-30,1,,,,,カシワ,0
1390,6011603004109,新規,0,2023-10-30,2023-10-30,合同会社ＭＫ,,合同会社,東京都,練馬区,豊玉北４丁目７－３ＭＳＡハイツ２Ｆ,,13,120,1760012,,,,,,,2023-10-30,1,,,,,エムケイ,0
1391,6011703003638,新規,0,2023-10-30,2023-10-30,合同会社ボット,,合同会社,東京都,江戸川区,松江２丁目１－１３－１０５,,13,123,1320025,,,,,,,2023-10-30,1,,,,,ボット,0
1392,6011801043255,新規,0,2023-10-30,2023-10-30,株式会社プランＢ,,株式会社,東京都,足立区,千住橋戸町１－４－１３０７号,,13,121,1200038,,,,,,,2023-10-30,1,,,,,プランビー,0
1393,6011803005914,新規,0,2023-10-30,2023-10-30,合同会社ｓｕｃｒｅ,,合同会社,東京都,葛飾区,小菅２丁目２１番４号,,13,122,1240001,,,,,,,2023-10-30,1,,,,,シュクレ,0
1397,6012401041161,新規,0,2023-10-30,2023-10-30,ケーデザイン株式会社,,株式会社,東京都,多摩市,落合１丁目１０番地の１京王多摩センターＳＣ２階ＫＥＩＯＢＩＺＰＬＡＺＡ多摩センター内１７番,,13,224,2060033,,,,,,,2023-10-30,1,,,,,ケーデザイン,0
1399,6012403006245,新規,0,2023-10-30,2023-10-30,合同会社ふるさわ,,合同会社,東京都,多摩市,関戸２丁目４４番地の３セボン聖蹟桜ヶ丘１０６,,13,224,2060011,,,,,,,2023-10-30,1,,,,,フルサワ,0
1405,6020001154168,新規,0,2023-10-30,2023-10-30,株式会社Ｎｉｇｈｔ,,株式会社,神奈川県,横浜市西区,北軽井沢８番地２ライオンズマンション三ツ沢公園３０２号,,14,103,2200001,,,,,,,2023-10-30,1,,,,,ナイト,0
1406,6020001154176,新規,0,2023-10-30,2023-10-30,株式会社ｓｈｉｐ,,株式会社,神奈川県,横浜市西区,みなとみらい４丁目４－２横浜ブルーアベニュー１２Ｆ,,14,103,2200012,,,,,,,2023-10-30,1,,,,,シップ,0
1412,6020003024856,新規,0,2023-10-30,2023-10-30,合同会社サイナス,,合同会社,神奈川県,横浜市西区,北幸１丁目１１―１水信ビル７階,,14,103,2200004,,,,,,,2023-10-30,1,,,,,サイナス,0
1413,6020003024864,新規,0,2023-10-30,2023-10-30,合同会社ハクレフ,,合同会社,神奈川県,横浜市磯子区,岡村３丁目７－３６,,14,107,2350021,,,,,,,2023-10-30,1,,,,,ハクレフ,0
1417,6021001080577,新規,0,2023-10-30,2023-10-30,株式会社ＣＡＯ,,株式会社,神奈川県,愛甲郡愛川町,中津３５２９番地２０４号室,,14,401,2430303,,,,,,,2023-10-30,1,,,,,シーエーオー,0
1420,6021005012923,新規,0,2023-10-30,2023-10-30,一般社団法人Ａｉリハビリテーション研究会,,その他の設立登記法人,神奈川県,藤沢市,村岡東４丁目１番地の１１,,14,205,2510012,,,,,,,2023-10-30,1,,,,,エーアイリハビリテーションケンキュウカイ,0
1426,6030001156923,新規,0,2023-10-30,2023-10-30,株式会社ＧＬＯＲＩＯＵＳ　ＪＡＰＡＮ,,株式会社,埼玉県,入間市,牛沢町１３番６号４,,11,225,3580051,,,,,,,2023-10-30,1,,,,,グロリアスジャパン,0
1430,6030003022900,新規,0,2023-10-30,2023-10-30,Ａｍｂｉｔｕｓ合同会社,,合同会社,埼玉県,川口市,大字里５５５番地の６,,11,203,3340005,,,,,,,2023-10-30,1,,,,,アンビタス,0
1439,6040001130712,新規,0,2023-10-30,2023-10-30,大元ＳＴＡＹ株式会社,,株式会社,千葉県,山武郡九十九里町,小関２２９０番地１,,12,403,2830102,,,,,,,2023-10-30,1,,,,,ダイゲンステイ,0
1440,6040001130729,新規,0,2023-10-30,2023-10-30,ＰＭＰ株式会社,,株式会社,千葉県,市川市,大野町３丁目１８０６番地,,12,203,2720805,,,,,,,2023-10-30,1,,,,,ピーエムピー,0
1450,6050001053714,新規,0,2023-10-30,2023-10-30,株式会社大井商事,,株式会社,茨城県,ひたちなか市,大字足崎１４５８番地１５９,,08,221,3120003,,,,,,,2023-10-30,1,,,,,オオイショウジ,0
1451,6050001053730,新規,0,2023-10-30,2023-10-30,株式会社フルーク,,株式会社,茨城県,取手市,新町１丁目９番１号リボンとりで５階,,08,217,3020024,,,,,,,2023-10-30,1,,,,,フルーク,0
1452,6050001053739,新規,0,2023-10-30,2023-10-30,ＢＪＳ　ＩＮＴＥＲＮＡＴＩＯＮＡＬ　ＴＲＡＤＩＮＧ株式会社,,株式会社,茨城県,筑西市,藤ケ谷２０９１番地ロマ２０１号,,08,227,3080112,,,,,,,2023-10-30,1,,,,,ビージェイエスインターナショナルトレーディング,0
1456,6050003007890,新規,0,2023-10-30,2023-10-30,ＡＨ　ＴＲＡＤＥＲＳ合同会社,,合同会社,茨城県,龍ケ崎市,上町４２６４番地１－３階,,08,208,3010012,,,,,,,2023-10-30,1,,,,,エーエイチトレーダーズ,0
1459,6060001036503,新規,0,2023-10-30,2023-10-30,Ｔａｍｃｏ株式会社,,株式会社,栃木県,下都賀郡壬生町,大字壬生甲２１９０番地２,,09,361,3210214,,,,,,,2023-10-30,1,,,,,タムコ,0
1479,6100005013089,新規,0,2023-10-30,2023-10-30,一般社団法人ＷＯＲＬＤ　ＰＥＡＣＥ,,その他の設立登記法人,長野県,長野市,平林１丁目１７番６－１０３号,,20,201,3810036,,,,,,,2023-10-30,1,,,,,ワールドピース,0
1491,6120001259139,新規,0,2023-10-30,2023-10-30,株式会社銀のすず,,株式会社,大阪府,大阪市阿倍野区,天王寺町南３丁目９番２８号,,27,119,5450002,,,,,,,2023-10-30,1,,,,,ギンノスズ,0
1492,6120001259205,新規,0,2023-10-30,2023-10-30,株式会社ＬｉｎｋＧａｔｅホールディングス,,株式会社,大阪府,大阪市淀川区,西中島３丁目９番１３号,,27,123,5320011,,,,,,,2023-10-30,1,,,,,リンクゲートホールディングス,0
1493,6120001259287,新規,0,2023-10-30,2023-10-30,株式会社ＸＹＺ,,株式会社,大阪府,大阪市中央区,安土町１丁目８番１５号,,27,128,5410052,,,,,,,2023-10-30,1,,,,,エックスワイゼット,0
1494,6120001259295,新規,0,2023-10-30,2023-10-30,海福投資株式会社,,株式会社,大阪府,大阪市住吉区,遠里小野１丁目４番２８号ハイムエルザ２０１号室,,27,120,5580032,,,,,,,2023-10-30,1,,,,,カイフクトウシ,0
1496,6120003025183,新規,0,2023-10-30,2023-10-30,合同会社ＣＣＭＣ,,合同会社,大阪府,寝屋川市,打上南町１３－１１,,27,215,5720861,,,,,,,2023-10-30,1,,,,,シーシーエムシー,0
1503,6120903004897,新規,0,2023-10-30,2023-10-30,合同会社アールオフィス,,合同会社,大阪府,吹田市,江坂町１丁目１‐１１,,27,205,5640063,,,,,,,2023-10-30,1,,,,,アールオフィス,0
1509,6130001075543,新規,0,2023-10-30,2023-10-30,株式会社ホームワークス,,株式会社,京都府,木津川市,城山台７丁目２２番地１２,,26,214,6190218,,,,,,,2023-10-30,1,,,,,ホームワークス,0
1510,6130001075551,新規,0,2023-10-30,2023-10-30,株式会社ねぎの竹村,,株式会社,京都府,京都市南区,上鳥羽北岩ノ本町４４番地,,26,107,6018138,,,,,,,2023-10-30,1,,,,,ネギノタケムラ,0
1513,6130003009086,新規,0,2023-10-30,2023-10-30,京都かたおかコンサルティング合同会社,,合同会社,京都府,京都市伏見区,醍醐中山町２１番地２アメニティ醍醐２０６号室,,26,109,6011373,,,,,,,2023-10-30,1,,,,,キョウトカタオカコンサルティング,0
1515,6140001132153,新規,0,2023-10-30,2023-10-30,ＴＯＡ　ＭＡＣＨＩＮＥ　ＨＯＬＤＩＮＧＳ株式会社,,株式会社,兵庫県,神戸市灘区,岩屋北町７丁目２番２０号,,28,102,6570846,,,,,,,2023-10-30,1,,,,,トウアマシーンホールディングス,0
1516,6140001132161,新規,0,2023-10-30,2023-10-30,株式会社ＣＩＣＣＩＡ,,株式会社,兵庫県,神戸市中央区,加納町２丁目１番２号２階,,28,110,6500001,,,,,,,2023-10-30,1,,,,,チッチャ,0
1518,6140003019729,新規,0,2023-10-30,2023-10-30,合同会社Ｍ’ｓサポート,,合同会社,兵庫県,神戸市垂水区,高丸７丁目６番８－１号,,28,108,6550016,,,,,,,2023-10-30,1,,,,,エムズサポート,0
1519,6140003019737,新規,0,2023-10-30,2023-10-30,合同会社久保建築設計,,合同会社,兵庫県,川西市,平野１丁目２８番２２号,,28,217,6660121,,,,,,,2023-10-30,1,,,,,クボケンチクセッケイ,0
1520,6160001025454,新規,0,2023-10-30,2023-10-30,橋本商事株式会社,,株式会社,滋賀県,高島市,安曇川町上古賀１９０８番地２,,25,212,5201201,,,,,,,2023-10-30,1,,,,,ハシモトショウジ,0
1526,6180001158681,新規,0,2023-10-30,2023-10-30,ＴＣＬＩＮＥ株式会社,,株式会社,愛知県,名古屋市中区,丸の内３丁目１８－２２フェイマス丸の内ビル３Ｆ,,23,106,4600002,,,,,,,2023-10-30,1,,,,,ティーシーライン,0
1531,6180003025921,新規,0,2023-10-30,2023-10-30,ＲＴＡ合同会社,,合同会社,愛知県,愛西市,大井町宮新田２４番地１３,,23,232,4960921,,,,,,,2023-10-30,1,,,,,アールティーエー,0
1550,6240001062349,新規,0,2023-10-30,2023-10-30,ユーホー産業株式会社,,株式会社,広島県,福山市,多治米町６丁目３番５号,,34,207,7200824,,,,,,,2023-10-30,1,,,,,ユーホーサンギョウ,0
1560,6290801029996,新規,0,2023-10-30,2023-10-30,株式会社コマツ,,株式会社,福岡県,北九州市八幡西区,岩崎３丁目６番１２号,,40,109,8071153,,,,,,,2023-10-30,1,,,,,コマツ,0
1564,6320001020117,新規,0,2023-10-30,2023-10-30,株式会社ＳＯＷＥＲ　ＣＯＭＰＡＳＳＩＯＮ,,株式会社,大分県,大分市,森町西１丁目３番１０号,,44,201,8700140,,,,,,,2023-10-30,1,,,,,ソウアーコンパッション,0
1570,6330003010024,新規,0,2023-10-30,2023-10-30,合同会社Ｋｐｒｏｊｅｃｔ,,合同会社,熊本県,玉名郡玉東町,大字二俣５－１サクラハイツ５０３,,43,364,8690311,,,,,,,2023-10-30,1,,,,,ケープロジェクト,0
1571,6330003010049,新規,0,2023-10-30,2023-10-30,肥後暖簾ＦＤＳ合同会社,,合同会社,熊本県,熊本市中央区,国府３丁目１２番４９－３号,,43,101,8620949,,,,,,,2023-10-30,1,,,,,ヒゴノレンエフディエス,0
1580,6360001032744,新規,0,2023-10-30,2023-10-30,株式会社再建コンサルティング,,株式会社,沖縄県,那覇市,牧志２丁目１７－２７－４０１,,47,201,9000013,,,,,,,2023-10-30,1,,,,,サイケンコンサルティング,0
1581,6360001032752,新規,0,2023-10-30,2023-10-30,大国株式会社,,株式会社,沖縄県,那覇市,三原２丁目１３番２３－１１０１号ミルコマンション三原サンライズ,,47,201,9020063,,,,,,,2023-10-30,1,,,,,ダイコク,0
1586,6380001034094,新規,0,2023-10-30,2023-10-30,福神農園株式会社,,株式会社,福島県,双葉郡大熊町,大字下野上字清水５６９番地２２,,07,545,9791308,,,,,,,2023-10-30,1,,,,,フクシンノウエン,0
1592,6430001090297,新規,0,2023-10-30,2023-10-30,株式会社ストリームズ,,株式会社,北海道,札幌市東区,伏古八条４丁目１番５－８０３号,,01,103,0070868,,,,,,,2023-10-30,1,,,,,ストリームズ,0
1593,6430001090306,新規,0,2023-10-30,2023-10-30,株式会社朱鞠,,株式会社,北海道,札幌市西区,発寒十一条４丁目１９番１２号,,01,107,0630831,,,,,,,2023-10-30,1,,,,,シュマリ,0
1599,6450005004383,新規,0,2023-10-30,2023-10-30,特定非営利活動法人子どもの未来を創る会ＲＵＭＯＩ,,その他の設立登記法人,北海道,留萌市,錦町３丁目１番２５号,,01,212,0770044,,,,,,,2023-10-30,1,,,,,,0
1601,6470001019870,新規,0,2023-10-30,2023-10-30,ハイクラスドリンク四国株式会社,,株式会社,香川県,高松市,上林町４０５番地１,,37,201,7610302,,,,,,,2023-10-30,1,,,,,ハイクラスドリンクシコク,0
1603,6500001025270,新規,0,2023-10-30,2023-10-30,株式会社栄興業,,株式会社,愛媛県,四国中央市,土居町入野１０７８番地３,,38,213,7990712,,,,,,,2023-10-30,1,,,,,サカエコウギョウ,0
1605,6700150121552,新規,0,2023-10-30,2023-10-30,ＰｗＣ　ＵＳ　Ｂｕｓｉｎｅｓｓ　Ａｄｖｉｓｏｒｙ　ＪＰ　ＬＬＣ,,外国会社等,東京都,千代田区,大手町１丁目２番１号,,13,101,1000004,アメリカ合衆国１９８１０デラウェア州ウィルミントン、シルバーサイド・ロード３４１１、タットナル・ビルディング１０４号,,,,,,2023-10-30,1,,,,,ピーダブリユーシーユーエスビジネスアドバイザリージエイピーエルエルシー,0
1606,6700150121569,新規,0,2023-10-30,2023-10-30,ｓｕｚｈｏｕｍｅｉｄｉｎａｍａｏｙｉ　ｙｏｕｘｉａｎｇｏｎｇｓｉ,,外国会社等,,,,,,,,Ｒｏｏｍ　Ａ－３０３－１，Ｚｏｎｅ　Ａ，Ｔｈｉｒｄ　Ｆｌｏｏｒ，Ｎｏ．９９　Ｘｉｑｉｎｇ　Ｒｏａｄ，Ｙｕａｎｈｅ　Ｓｔｒｅｅｔ，Ｘｉａｎｇｃｈｅｎｇ　Ｄｉｓｔｒｉｃｔ，Ｓｕｚｈｏｕ　Ｃｉｔｙ　２１５１００　ＣＮ,,,,,,2023-10-30,1,,,,,ソシュウメイディナマオイヨウシェンゴンスー,0
1607,6700150121577,新規,0,2023-10-30,2023-10-30,ＢＩＧＦＯＸ　ＴＲＡＤＥ　ＤＥＶＥＬＯＰＭＥＮＴ　ＬＩＭＩＴＥＤ,,外国会社等,,,,,,,,Ｏｆｆｉｃｅ　３Ａ－３，１２／Ｆ，Ｋａｉｓｅｒ　Ｃｅｎｔｒｅ，Ｎｏ．１８　Ｃｅｎｔｒｅ　Ｓｔｒｅｅｔ，Ｓａｉ　Ｙｉｎｇ　Ｐｕｎ　ＨｏｎｇＫｏｎｇ,,,,,,2023-10-30,1,,,,,ダーフゥマオイーファージャンヨウシェンゴンスー,0
1611,7010001239588,新規,0,2023-10-30,2023-10-30,エイサスリサーチジャパン株式会社,,株式会社,東京都,千代田区,丸の内１丁目１１番１号パシフィックセンチュリープレイス丸の内１３Ｆ,,13,101,1000005,,,,,,,2023-10-30,1,,,,,エイサスリサーチジャパン,0
1617,7010101015856,新規,0,2023-10-30,2023-10-30,株式会社マルフジ,,株式会社,東京都,八王子市,石川町９１３番１,,13,201,1920032,,,,,,,2023-10-30,1,,,,,,0
1618,7010101015864,新規,0,2023-10-30,2023-10-30,株式会社目黒電気,,株式会社,東京都,八王子市,川口町１３３８番地１０,,13,201,1930801,,,,,,,2023-10-30,1,,,,,メグロデンキ,0
1629,7010401178072,新規,0,2023-10-30,2023-10-30,素敵リサーチコンサルティング株式会社,,株式会社,東京都,港区,虎ノ門５丁目１３番１号虎ノ門４０ＭＴビル,,13,103,1050001,,,,,,,2023-10-30,1,,,,,ステキリサーチコンサルティング,0
1630,7010401178196,新規,0,2023-10-30,2023-10-30,株式会社バモス,,株式会社,東京都,港区,麻布十番３丁目１１番６－１０１号,,13,103,1060045,,,,,,,2023-10-30,1,,,,,バモス,0
1631,7010401178205,新規,0,2023-10-30,2023-10-30,株式会社ＧＯＯＤＬＯＴＵＳ,,株式会社,東京都,港区,六本木３丁目１－３０,,13,103,1060032,,,,,,,2023-10-30,1,,,,,グッドロータス,0
1633,7010403031262,新規,0,2023-10-30,2023-10-30,合同会社ＴＨ総合研究所,,合同会社,東京都,港区,六本木６丁目１６番１１号,,13,103,1060032,,,,,,,2023-10-30,1,,,,,ティーエイチソウゴウケンキュウジョ,0
1634,7010405022615,新規,0,2023-10-30,2023-10-30,一般社団法人クリーンオーシャンプロジェクト,,その他の設立登記法人,東京都,港区,海岸１丁目２番３号汐留芝離宮ビルディング２１階,,13,103,1050022,,,,,,,2023-10-30,1,,,,,クリーンオーシャンプロジェクト,0
1638,7010601064056,新規,0,2023-10-30,2023-10-30,株式会社ＳＥＡＰＲＩＭＥ　ＨＯＬＤＩＮＧ　ＣＯＲＰＯＲＡＴＩＯＮ,,株式会社,東京都,墨田区,向島４丁目１番１－３０３号,,13,107,1310033,,,,,,,2023-10-30,1,,,,,シープライムホールディングコーポレーション,0
1656,7011003017635,新規,0,2023-10-30,2023-10-30,合同会社サプライザル,,合同会社,東京都,渋谷区,道玄坂１丁目１０－８渋谷道玄坂東急ビル２Ｆ－Ｃ,,13,113,1500043,,,,,,,2023-10-30,1,,,,,サプライザル,0
1661,7011101104954,新規,0,2023-10-30,2023-10-30,ＬＡＧＯＯＮ　ＤＥＳＩＧＮ　ＳＴＵＤＩＯ株式会社,,株式会社,東京都,新宿区,新宿６丁目２７番２９－１３０５号,,13,104,1600022,,,,,,,2023-10-30,1,,,,,ラグーンデザインスタジオ,0
1663,7011105010827,新規,0,2023-10-30,2023-10-30,一般社団法人エデン,,その他の設立登記法人,東京都,新宿区,歌舞伎町２丁目１９番１１号,,13,104,1600021,,,,,,,2023-10-30,1,,,,,エデン,0
1665,7011301029118,新規,0,2023-10-30,2023-10-30,株式会社ＳＫＭ,,株式会社,東京都,杉並区,成田西４丁目８番２５号,,13,115,1660016,,,,,,,2023-10-30,1,,,,,エスケーエム,0
1673,7011703003637,新規,0,2023-10-30,2023-10-30,合同会社松田労働衛生コンサルタント事務所,,合同会社,東京都,江戸川区,南葛西７丁目２番４－１４１２号,,13,123,1340085,,,,,,,2023-10-30,1,,,,,マツダロウドウエイセイコンサルタントジムショ,0
1679,7012701017918,新規,0,2023-10-30,2023-10-30,東京メガトンライン株式会社,,株式会社,東京都,東久留米市,前沢５丁目２５番１６号,,13,222,2030032,,,,,,,2023-10-30,1,,,,,トウキョウメガトンライン,0
1688,7013301051547,新規,0,2023-10-30,2023-10-30,株式会社アイネクスト,,株式会社,東京都,豊島区,西池袋１丁目４番１０号,,13,116,1710021,,,,,,,2023-10-30,1,,,,,アイネクスト,0
1697,7020001154167,新規,0,2023-10-30,2023-10-30,株式会社ニューリアリティーズ,,株式会社,神奈川県,横浜市都筑区,中川６丁目１番Ｃ－１０９号,,14,118,2240001,,,,,,,2023-10-30,1,,,,,ニューリアリティーズ,0
1698,7020001154209,新規,0,2023-10-30,2023-10-30,株式会社ｉｌｌｂｒｉｇｈｔ,,株式会社,神奈川県,川崎市中原区,苅宿１８番２４号,,14,133,2110022,,,,,,,2023-10-30,1,,,,,イルブライト,0
1703,7020003024863,新規,0,2023-10-30,2023-10-30,合同会社はまかぜ商会,,合同会社,神奈川県,横浜市金沢区,能見台２丁目２０番地４メガロン能見台４番館４２０６,,14,108,2360057,,,,,,,2023-10-30,1,,,,,ハマカゼショウカイ,0
1714,7021003013749,新規,0,2023-10-30,2023-10-30,合同会社湘南ロケット,,合同会社,神奈川県,茅ヶ崎市,共恵１丁目１５番１９―３０１号コート湘南茅ヶ崎,,14,207,2530056,,,,,,,2023-10-30,1,,,,,ショウナンロケット,0
1721,7030001156872,新規,0,2023-10-30,2023-10-30,株式会社ＹＧグループ,,株式会社,埼玉県,さいたま市北区,宮原町３丁目５６８番地,,11,102,3310812,,,,,,,2023-10-30,1,,,,,ワイジーグループ,0
1722,7030001156897,新規,0,2023-10-30,2023-10-30,株式会社ガクサポ,,株式会社,埼玉県,さいたま市見沼区,大字山１６０番地１,,11,104,3370025,,,,,,,2023-10-30,1,,,,,ガクサポ,0
1727,7030003022882,新規,0,2023-10-30,2023-10-30,関野建設合同会社,,合同会社,埼玉県,越谷市,東大沢２丁目１７番１０号１０１,,11,222,3430022,,,,,,,2023-10-30,1,,,,,カンノケンセツ,0
1735,7040001130728,新規,0,2023-10-30,2023-10-30,興建産業株式会社,,株式会社,千葉県,千葉市稲毛区,宮野木町２１１２番地１９,,12,103,2630054,,,,,,,2023-10-30,1,,,,,コウケンサンギョウ,0
1739,7040003023640,新規,0,2023-10-30,2023-10-30,合同会社ＫＭＭ,,合同会社,千葉県,木更津市,羽鳥野２丁目１８番地６,,12,206,2920819,,,,,,,2023-10-30,1,,,,,ケーエムエム,0
1740,7040005022178,新規,0,2023-10-30,2023-10-30,一般社団法人ＳＮＵＰ,,その他の設立登記法人,千葉県,千葉市中央区,本町２丁目９番１４号,,12,101,2600012,,,,,,,2023-10-30,1,,,,,エスエヌアップ,0
1742,7050001053713,新規,0,2023-10-30,2023-10-30,株式会社ｋｉｚｕｋｕ,,株式会社,茨城県,ひたちなか市,大字高野２４３５番地８２,,08,221,3120002,,,,,,,2023-10-30,1,,,,,キズク,0
1743,7050003007898,新規,0,2023-10-30,2023-10-30,永興興業合同会社,,合同会社,茨城県,鉾田市,滝浜７２９番地１,,08,234,3111423,,,,,,,2023-10-30,1,,,,,エイコウコウギョウ,0
1758,7100001036927,新規,0,2023-10-30,2023-10-30,ラ・ベルビー株式会社,,株式会社,長野県,長野市,上松１丁目６番１６号,,20,201,3800802,,,,,,,2023-10-30,1,,,,,ラベルビー,0
1773,7120001259294,新規,0,2023-10-30,2023-10-30,根栄株式会社,,株式会社,大阪府,大阪市住吉区,遠里小野１丁目４番２８号ハイムエルザ５０２号室,,27,120,5580032,,,,,,,2023-10-30,1,,,,,コンエイ,0
1774,7120001259393,新規,0,2023-10-30,2023-10-30,金羽株式会社,,株式会社,大阪府,大阪市北区,梅田１丁目２番２号大阪駅前第２ビル２階５－６号室,,27,127,5300001,,,,,,,2023-10-30,1,,,,,カネハ,0
1779,7120003025208,新規,0,2023-10-30,2023-10-30,合同会社さくらんぼ,,合同会社,大阪府,大阪市住吉区,我孫子東２丁目１０－９－１２０１,,27,120,5580013,,,,,,,2023-10-30,1,,,,,サクランボ,0
1785,7120901048276,新規,0,2023-10-30,2023-10-30,株式会社さつき,,株式会社,大阪府,吹田市,五月が丘南２４番４号,,27,205,5650832,,,,,,,2023-10-30,1,,,,,サツキ,0
1794,7130001075550,新規,0,2023-10-30,2023-10-30,株式会社エヌエスデザイン,,株式会社,京都府,京都市中京区,西ノ京南上合町８２番地の２９,,26,104,6048483,,,,,,,2023-10-30,1,,,,,,0
1795,7130001075559,新規,0,2023-10-30,2023-10-30,株式会社ＴＥＯ,,株式会社,京都府,京都市伏見区,中島河原田町３１番地１グランデュール鴨川テルス３番館１０５号,,26,109,6128469,,,,,,,2023-10-30,1,,,,,テオ,0
1796,7130001075567,新規,0,2023-10-30,2023-10-30,株式会社アピクス,,株式会社,京都府,京都市下京区,不明門通正面下る卓屋町５８番地,,26,106,6008158,,,,,,,2023-10-30,1,,,,,アピクス,0
1805,7140001132152,新規,0,2023-10-30,2023-10-30,株式会社ＰＥＡＣＥＷＥＬＬ　ＪＡＰＡＮ,,株式会社,兵庫県,高砂市,米田町米田９７２番地の２０,,28,216,6760805,,,,,,,2023-10-30,1,,,,,ピースウェルジャパン,0
1809,7150003003111,新規,0,2023-10-30,2023-10-30,合同会社絹,,合同会社,奈良県,吉野郡上北山村,大字小橡３９７番地の１,,29,451,6393702,,,,,,,2023-10-30,1,,,,,キヌ,0
1812,7170005007050,新規,0,2023-10-30,2023-10-30,特定非営利活動法人なごみ学童保育所,,その他の設立登記法人,和歌山県,西牟婁郡上富田町,岩田１７６４番地の１０,,30,404,6492102,,,,,,,2023-10-30,1,,,,,ナゴミガクドウホイクショ,0
1817,7180001158697,新規,0,2023-10-30,2023-10-30,ミチコ・トラスト株式会社,,株式会社,愛知県,愛西市,大野町郷西３６番地,,23,232,4960922,,,,,,,2023-10-30,1,,,,,ミチコトラスト,0
1820,7180003025895,新規,0,2023-10-30,2023-10-30,合同会社フィットコネクト,,合同会社,愛知県,名古屋市緑区,東陵８０３番地,,23,114,4580838,,,,,,,2023-10-30,1,,,,,フィットコネクト,0
1828,7200003006133,新規,0,2023-10-30,2023-10-30,アドニス・アセット合同会社,,合同会社,岐阜県,大垣市,旭町２丁目５番地,,21,202,5030824,,,,,,,2023-10-30,1,,,,,アドニスアセット,0
1840,7240005015673,新規,0,2023-10-30,2023-10-30,特定非営利活動法人安芸府中フットボールアカデミー,,その他の設立登記法人,広島県,安芸郡府中町,浜田３丁目１１番１号,,34,302,7350013,,,,,,,2023-10-30,1,,,,,アキフチュウフットボールアカデミー,0
1848,7290001103551,新規,0,2023-10-30,2023-10-30,ジョブストア株式会社,,株式会社,福岡県,福岡市中央区,天神２丁目５番２８号天神西通りセンタービル６Ｆ,,40,133,8100001,,,,,,,2023-10-30,1,,,,,ジョブストア,0
1849,7290001103568,新規,0,2023-10-30,2023-10-30,ウェルビーイング・キャリア・ジャパン株式会社,,株式会社,福岡県,福岡市博多区,博多駅前４丁目９番２８号,,40,132,8120011,,,,,,,2023-10-30,1,,,,,,0
1862,7320001020116,新規,0,2023-10-30,2023-10-30,株式会社Ｓｕｉ,,株式会社,大分県,大分市,都町２丁目６番７号ツインタワービル２０２,,44,201,8700034,,,,,,,2023-10-30,1,,,,,スイ,0
1864,7320003004216,新規,0,2023-10-30,2023-10-30,合同会社ヨジゲンエイゾー,,合同会社,大分県,竹田市,直入町大字下田北３５００番地１　１Ｆ,,44,208,8780404,,,,,,,2023-10-30,1,,,,,ヨジゲンエイゾー,0
1871,7350001018636,新規,0,2023-10-30,2023-10-30,株式会社そら,,株式会社,宮崎県,宮崎市,大字島之内伊鈴山１０２１０番２,,45,201,8800121,,,,,,,2023-10-30,1,,,,,ソラ,0
1872,7360001032743,新規,0,2023-10-30,2023-10-30,株式会社サウスステラ,,株式会社,沖縄県,石垣市,字新川２４５４番地２,,47,207,9070024,,,,,,,2023-10-30,1,,,,,サウスステラ,0
1873,7360001032751,新規,0,2023-10-30,2023-10-30,株式会社ＰＩＧＥＯＮ,,株式会社,沖縄県,那覇市,辻３丁目２番１号コスタビレッジエスパーナ２階,00132457,47,201,9000037,,,,,,,2023-10-30,1,,,,,ピジョン,0
1874,7360005006925,新規,0,2023-10-30,2023-10-30,沖縄マスジド及び沖縄イスラミックカルチャーセンター,,その他の設立登記法人,沖縄県,中頭郡西原町,上原２丁目２２番地の１２,,47,329,9030125,,,,,,,2023-10-30,1,,,,,オキナワマスジドオヨビオキナワイスラミックカルチャーセンター,0
1875,7370001050579,新規,0,2023-10-30,2023-10-30,株式会社アズ・フォト,,株式会社,宮城県,仙台市太白区,山田本町１番３号,,04,104,9820816,,,,,,,2023-10-30,1,,,,,アズフォト,0
1884,7390003002155,新規,0,2023-10-30,2023-10-30,合同会社ＴＯＭＭＹ’Ｓ,,合同会社,山形県,鶴岡市,越中山字谷口８８番地,,06,203,9970403,,,,,,,2023-10-30,1,,,,,トミーズ,0
1889,7430001090230,新規,0,2023-10-30,2023-10-30,株式会社Ｕ’ｓ　ｐｌｕｓ,,株式会社,北海道,札幌市中央区,南八条西１丁目１３－１３９Ｓ－ＦＯＲＴ中島公園１００７号,,01,101,0640808,,,,,,,2023-10-30,1,,,,,ユーズプラス,0
1891,7430003015565,新規,0,2023-10-30,2023-10-30,合同会社ＮＴＢ,,合同会社,北海道,札幌市東区,北二十条東１２丁目５番１－３０３号,,01,103,0650020,,,,,,,2023-10-30,1,,,,,エヌティービー,0
1894,7462501000970,新規,0,2023-10-30,2023-10-30,光農機サービス株式会社,,株式会社,北海道,標津郡中標津町,緑町北２丁目３６番地３,,01,692,0861165,,,,,,,2023-10-30,1,,,,,ヒカリノウキサービス,0
1897,7490001010620,新規,0,2023-10-30,2023-10-30,株式会社魁,,株式会社,高知県,高知市,はりまや町３丁目１番３号,,39,201,7800822,,,,,,,2023-10-30,1,,,,,サキガケ,0
1901,7700150121551,新規,0,2023-10-30,2023-10-30,ＰｗＣ　ＵＳ　Ｔａｘ　ＪＰ　ＬＬＣ,,外国会社等,東京都,千代田区,大手町１丁目２番１号,,13,101,1000004,アメリカ合衆国１９８１０デラウェア州ウィルミントン、シルバーサイド・ロード３４１１、タットナル・ビルディング１０４号,,,,,,2023-10-30,1,,,,,ピーダブリユーシーユーエスタツクスジエイピーエルエルシー,0
1902,7700150121568,新規,0,2023-10-30,2023-10-30,ｐｕｊｉａｎｇｘｉａｎｃｈｅｎｘｉａｎｐｉｎｇｄｉａｎｚｉｓｈａｎｇｗｕ　ｙｏｕｘｉａｎｇｏｎｇｓｉ,,外国会社等,,,,,,,,ｘｕｃｕｎｙｉｑｕ３８ｈａｏ　ｐｕｊｉａｎｇｘｉａｎ　ｙａｎｔｏｕｚｈｅｎｈｅｆｅｎｇｃｕｎ　ｚｈｅｊｉａｎｇｓｈｅｎｇ　３２２２００　ＣＮ,,,,,,2023-10-30,1,,,,,ホコウケンチェンシャンピンデンシショウムヨウシェンゴンスー,0
1903,7700150121576,新規,0,2023-10-30,2023-10-30,ｇｕａｎｇｚｈｏｕｓｈｉｂａｉｔａｏｊｉｕｙｅｙｏｕｘｉａｎｇｏｎｇｓｉ,,外国会社等,,,,,,,,Ｒｏｏｍ　２０８，Ｎｏ．３，Ｎｏ．２　Ｑｕａｎｔａｎｇ　Ｒｏａｄ，Ｈａｉｚｈｕ　Ｄｉｓｔｒｉｃｔ，Ｇｕａｎｇｚｈｏｕ　Ｇｕａｎｇｄｏｎｇ　５１００００　ＣＮ,,,,,,2023-10-30,1,,,,,グァンジョウシバイタオジゥイエヨウシェンゴンスー,0
1920,8010001239595,新規,0,2023-10-30,2023-10-30,株式会社ＳＡＡＫＩ,,株式会社,東京都,文京区,千石４丁目１０番６号,,13,105,1120011,,,,,,,2023-10-30,1,,,,,サアキ,0
1928,8010003042056,新規,0,2023-10-30,2023-10-30,合同会社リリリ,,合同会社,東京都,中央区,勝どき１丁目１３番６－１００３号,,13,102,1040054,,,,,,,2023-10-30,1,,,,,リリリ,0
1933,8010403031261,新規,0,2023-10-30,2023-10-30,合同会社ゴールドエムエルＤ,,合同会社,東京都,港区,虎ノ門３丁目２２番１０－２０１号,,13,103,1050001,,,,,,,2023-10-30,1,,,,,ゴールドエムエルディー,0
1938,8010601064047,新規,0,2023-10-30,2023-10-30,光輝株式会社,,株式会社,東京都,墨田区,緑４丁目２４番１９－９０１号,,13,107,1300021,,,,,,,2023-10-30,1,,,,,コウキ,0
1939,8010601064055,新規,0,2023-10-30,2023-10-30,株式会社ｎｉｋｏｒｉｈｉｔｏ,,株式会社,東京都,江東区,東砂８丁目８番５号,,13,108,1360074,,,,,,,2023-10-30,1,,,,,ニコリヒト,0
1948,8010903008560,新規,0,2023-10-30,2023-10-30,合同会社ＳＡＮＴＥ,,合同会社,東京都,世田谷区,等々力４丁目９番１号,,13,112,1580082,,,,,,,2023-10-30,1,,,,,サンテ,0
1954,8011001157894,新規,0,2023-10-30,2023-10-30,ＰＯＲＴ　ＯＦ　ＣＡＬＬ　ＪＡＰＡＮ株式会社,,株式会社,東京都,目黒区,大橋１丁目７番４号,,13,110,1530044,,,,,,,2023-10-30,1,,,,,ポートオブコールジャパン,0
1961,8011303004951,新規,0,2023-10-30,2023-10-30,合同会社ｒｕｎ,,合同会社,東京都,杉並区,高井戸東３丁目１８番１２号,,13,115,1680072,,,,,,,2023-10-30,1,,,,,ラン,0
1965,8011503005824,新規,0,2023-10-30,2023-10-30,合同会社静香,,合同会社,東京都,北区,志茂３丁目４３－１６－２２２,,13,117,1150042,,,,,,,2023-10-30,1,,,,,シズカ,0
1968,8012703002842,新規,0,2023-10-30,2023-10-30,ケイ・プラン合同会社,,合同会社,東京都,東村山市,本町３丁目９番地４１,,13,213,1890014,,,,,,,2023-10-30,1,,,,,ケイプラン,0
1973,8013301051554,新規,0,2023-10-30,2023-10-30,株式会社ゼロイチ,,株式会社,東京都,豊島区,南池袋１丁目１６－２０ぬかりやビル６Ｆ,,13,116,1710022,,,,,,,2023-10-30,1,,,,,ゼロイチ,0
1977,8020001153969,新規,0,2023-10-30,2023-10-30,株式会社Ａｐｆｙ,,株式会社,神奈川県,横浜市西区,北幸２丁目１０番地４８むつみビル３Ｆ,,14,103,2200004,,,,,,,2023-10-30,1,,,,,アプフィ,0
1978,8020001154190,新規,0,2023-10-30,2023-10-30,ＨＥＣＣＯ株式会社,,株式会社,神奈川県,横浜市港北区,新横浜３丁目１９番地１１加瀬ビル３階１５号,,14,109,2220033,,,,,,,2023-10-30,1,,,,,ヒーコ,0
1979,8020001154199,新規,0,2023-10-30,2023-10-30,株式会社彩叶,,株式会社,神奈川県,川崎市多摩区,生田１丁目１８番７号,,14,135,2140038,,,,,,,2023-10-30,1,,,,,サイカ,0
1988,8021005012921,新規,0,2023-10-30,2023-10-30,ＮＰＯ法人Ｂｅａｃｈ　Ｍａｇｉｃ,,その他の設立登記法人,神奈川県,藤沢市,朝日町１３番地の５ルート藤沢２Ｂ,,14,205,2510054,,,,,,,2023-10-30,1,,,,,ビーチマジック,0
1994,8030001156871,新規,0,2023-10-30,2023-10-30,株式会社レイズパートナーズ,,株式会社,埼玉県,所沢市,小手指南２丁目８番地の２７,,11,208,3591146,,,,,,,2023-10-30,1,,,,,レイズパートナーズ,0
1995,8030001156896,新規,0,2023-10-30,2023-10-30,アドヴィスタ株式会社,,株式会社,埼玉県,さいたま市見沼区,東大宮３丁目３番２２号,,11,104,3370051,,,,,,,2023-10-30,1,,,,,アドヴィスタ,0
2000,8030003022808,新規,0,2023-10-30,2023-10-30,合同会社ＫＳトレーディング,,合同会社,埼玉県,吉川市,大字上笹塚１６５１－１グリーンラボ２０３号,,11,243,3420017,,,,,,,2023-10-30,1,,,,,ケーエストレーディング,0
2007,8040001130727,新規,0,2023-10-30,2023-10-30,株式会社Ｒｉｂｅｒｔｙ,,株式会社,千葉県,市川市,八幡３丁目７－２ｍｏｔｏ．８－３号室,,12,203,2720021,,,,,,,2023-10-30,1,,,,,リバティ,0
2011,8040003023565,新規,0,2023-10-30,2023-10-30,合同会社バーバリアンズ,,合同会社,千葉県,柏市,豊四季３９０－５２,,12,217,2770863,,,,,,,2023-10-30,1,,,,,バーバリアンズ,0
2015,8050001053712,新規,0,2023-10-30,2023-10-30,株式会社ＬＯｃＡ,,株式会社,茨城県,土浦市,中村南２丁目７番１３号,,08,203,3000843,,,,,,,2023-10-30,1,,,,,ロカ,0
2017,8060001036501,新規,0,2023-10-30,2023-10-30,株式会社ＳＨＵＥＩ自動車,,株式会社,栃木県,那須塩原市,波立３６９番地２,,09,213,3293124,,,,,,,2023-10-30,1,,,,,シュウエイジドウシャ,0
2022,8090001018397,新規,0,2023-10-30,2023-10-30,Ｃｏｎｒｏｙ　Ｃａｒ　Ｉｍｐｏｒｔｓ株式会社,,株式会社,山梨県,甲斐市,玉川４０９番地１,,19,210,4000116,,,,,,,2023-10-30,1,,,,,コンロイカーインポーツ,0
2027,8100001036926,新規,0,2023-10-30,2023-10-30,ＭＩＯ　ＧＲＯＵＰ株式会社,,株式会社,長野県,塩尻市,大字広丘吉田８７７番地１２,,20,215,3990701,,,,,,,2023-10-30,1,,,,,ミオグループ,0
2040,8120001259186,新規,0,2023-10-30,2023-10-30,株式会社ＨＯＭＥＹ,,株式会社,大阪府,大阪市中央区,本町４丁目４－１７ＲＥ－０１２ビル５０１,,27,128,5410053,,,,,,,2023-10-30,1,,,,,ホーミー,0
2050,8120101068454,新規,0,2023-10-30,2023-10-30,株式会社吉石商事,,株式会社,大阪府,堺市北区,東浅香山町１丁２５６番地１３号,,27,146,5918008,,,,,,,2023-10-30,1,,,,,ヨシイシショウジ,0
2054,8120103005513,新規,0,2023-10-30,2023-10-30,合同会社丸新工業,,合同会社,大阪府,岸和田市,土生町２丁目３番４－２０１号,,27,202,5960825,,,,,,,2023-10-30,1,,,,,マルシンコウギョウ,0
2059,8120901048291,新規,0,2023-10-30,2023-10-30,ＡＤＯＫＥＮ株式会社,,株式会社,大阪府,吹田市,佐竹台２丁目５番１３－３０３号,,27,205,5650855,,,,,,,2023-10-30,1,,,,,アドケン,0
2069,8130001075525,新規,0,2023-10-30,2023-10-30,株式会社Ｍｏｒｉ　Ｏｆｆｉｃｅ　Ｍａｎａｇｅｍｅｎｔ,,株式会社,京都府,京都市左京区,岡崎東天王町３９番地,,26,103,6068332,,,,,,,2023-10-30,1,,,,,モリオフィスマネージメント,0
2070,8130001075566,新規,0,2023-10-30,2023-10-30,株式会社ＲＦＴ,,株式会社,京都府,八幡市,川口浜３８番地の１０１,,26,210,6148101,,,,,,,2023-10-30,1,,,,,アールエフティー,0
2091,8180001158705,新規,0,2023-10-30,2023-10-30,株式会社大．日,,株式会社,愛知県,名古屋市中村区,岩上町３１番地,,23,105,4530847,,,,,,,2023-10-30,1,,,,,ダイニチ,0
2096,8180303005885,新規,0,2023-10-30,2023-10-30,合同会社まちづくりワーク,,合同会社,愛知県,岡崎市,康生通東１丁目２１番地,,23,202,4440045,,,,,,,2023-10-30,1,,,,,マチヅクリワーク,0
2099,8200003006132,新規,0,2023-10-30,2023-10-30,合同会社エヌ・イー・オー,,合同会社,岐阜県,中津川市,駒場３６３番地の３,,21,206,5080011,,,,,,,2023-10-30,1,,,,,エヌイーオー,0
2107,8290001103567,新規,0,2023-10-30,2023-10-30,株式会社ワイズスタッフ,,株式会社,福岡県,糟屋郡篠栗町,大字田中１０３番地１ピュア２７－６０６号,,40,342,8112416,,,,,,,2023-10-30,1,,,,,ワイズスタッフ,0
2108,8290003014548,新規,0,2023-10-30,2023-10-30,合同会社Ｇｅｎｅｒａｔｉｖｉｔｙ,,合同会社,福岡県,福岡市博多区,博多駅前４丁目２３番６－１０４号,,40,132,8120011,,,,,,,2023-10-30,1,,,,,ジェネラティビティ,0
2109,8290801030003,新規,0,2023-10-30,2023-10-30,大福株式会社,,株式会社,福岡県,北九州市戸畑区,新池２丁目１番２１－８０２号,,40,105,8040082,,,,,,,2023-10-30,1,,,,,ダイフク,0
2111,8300003002039,新規,0,2023-10-30,2023-10-30,合同会社あくあワールド,,合同会社,佐賀県,伊万里市,立花町３２５５番地,,41,205,8480027,,,,,,,2023-10-30,1,,,,,アクアワールド,0
2119,8330001031409,新規,0,2023-10-30,2023-10-30,株式会社Ｔｒｉｂｕｔｅ,,株式会社,熊本県,熊本市西区,上熊本３丁目２４番３６－１３０６号,,43,103,8600079,,,,,,,2023-10-30,1,,,,,トリビュート,0
2122,8340001026028,新規,0,2023-10-30,2023-10-30,株式会社ＴＯＭＯＮＩ,,株式会社,鹿児島県,薩摩川内市,宮崎町２８５１番地３,,46,215,8950013,,,,,,,2023-10-30,1,,,,,トモニ,0
2123,8350001018635,新規,0,2023-10-30,2023-10-30,株式会社グラバー,,株式会社,宮崎県,日向市,大王町４丁目９３番地,,45,206,8830061,,,,,,,2023-10-30,1,,,,,グラバー,0
2127,8360001032750,新規,0,2023-10-30,2023-10-30,株式会社ＴＡＫＫＥＮ,,株式会社,沖縄県,那覇市,おもろまち４丁目１７番２５号,,47,201,9000006,,,,,,,2023-10-30,1,,,,,タッケン,0
2128,8360003013410,新規,0,2023-10-30,2023-10-30,合同会社ブルーバード,,合同会社,沖縄県,沖縄市,与儀２丁目１１番２０号,,47,211,9042174,,,,,,,2023-10-30,1,,,,,ブルーバード,0
2129,8360003013427,新規,0,2023-10-30,2023-10-30,合同会社ＳＥＡ　ＳＴＯＲＹ,,合同会社,沖縄県,那覇市,辻２丁目２０番２６号,00132460,47,201,9000037,,,,,,,2023-10-30,1,,,,,シーストーリ,0
2130,8360005006924,新規,0,2023-10-30,2023-10-30,一般社団法人りとから研究所,,その他の設立登記法人,沖縄県,石垣市,字白保２６８番地１３１,,47,207,9070242,,,,,,,2023-10-30,1,,,,,リトカラケンキュウショ,0
2133,8370001050578,新規,0,2023-10-30,2023-10-30,株式会社青葉企画,,株式会社,宮城県,仙台市太白区,郡山字籠ノ瀬４０番地の６,,04,104,9820003,,,,,,,2023-10-30,1,,,,,アオバキカク,0
2136,8380001034092,新規,0,2023-10-30,2023-10-30,株式会社むなぞう,,株式会社,福島県,須賀川市,長沼字子ッコ橋１００番地２,,07,207,9620203,,,,,,,2023-10-30,1,,,,,ムナゾウ,0
2137,8380001034101,新規,0,2023-10-30,2023-10-30,株式会社ＡＤ社,,株式会社,福島県,いわき市,平上荒川字長尾７４番地の８,,07,204,9708034,,,,,,,2023-10-30,1,,,,,エーディシャ,0
2149,8430001090287,新規,0,2023-10-30,2023-10-30,株式会社Ｃｒｏｓｓ‐ｐ’ｓ,,株式会社,北海道,札幌市北区,新琴似六条１丁目２番３号,,01,102,0010906,,,,,,,2023-10-30,1,,,,,クロスピース,0
2153,8460103001569,新規,0,2023-10-30,2023-10-30,東洋レンタリース合同会社,,合同会社,北海道,帯広市,西十六条南４丁目１８番１５号,,01,207,0800026,,,,,,,2023-10-30,1,,,,,トウヨウレンタリース,0
2159,8490003001831,新規,0,2023-10-30,2023-10-30,合同会社Ｍａｉｇｏ　Ｍｉｋａ,,合同会社,高知県,四万十市,西土佐口屋内３４０番地,,39,210,7871324,,,,,,,2023-10-30,1,,,,,マイゴミカ,0
2160,8500001025269,新規,0,2023-10-30,2023-10-30,株式会社ＧＲＯＷ　ＳＴＡＲ,,株式会社,愛媛県,松山市,和泉南４丁目９番１５－１号,,38,201,7900941,,,,,,,2023-10-30,1,,,,,グロウスター,0
2161,8700150121550,新規,0,2023-10-30,2023-10-30,ＵＫＡＳＨＡ　ＭＯＴＯＲＳ,,外国会社等,千葉県,東金市,上布田５３８番地１Ｆ,,12,213,2830834,スリランカ民主社会主義共和国、ガンポラ、ワウェタンネ、デモダラワッタ、３４９－Ａ,,,,,,2023-10-30,1,,,,,ウカシヤモータース,0
2162,8700150121567,新規,0,2023-10-30,2023-10-30,ｓｈｅｎｚｈｅｎｓｈｉｓｈｅｎｚｈｉｓｈｅｎｇｓｈｉｙｅ　ｙｏｕｘｉａｎｇｏｎｇｓｉ,,外国会社等,,,,,,,,ｓｈｅｎｚｈｅｎｓｈｉｆｕｔｉａｎｑｕ　ｆｕｔｉａｎｊｉｅｄａｏｆｕａｎｓｈｅｑｕｍｉｎｔｉａｎｌｕ１７８ｈａｏ　ｈｕａｒｏｎｇｄａｓｈａ１７１２Ｋ４２　５１８０００　ＣＮ,,,,,,2023-10-30,1,,,,,シンセンシシェンジシェンシイェヨウシェンゴンスー,0
2163,8700150121575,新規,0,2023-10-30,2023-10-30,ｊｉｕｗｅｉｋｕａｊｉｎｇｓｈａｎｇｍａｏ（ｄｏｎｇｇｕａｎ）ｙｏｕｘｉａｎｇｏｎｇｓｉ,,外国会社等,,,,,,,,Ｈｕｉｈｕａ　Ｃｏｍｍｅｒｃｉａｌ　Ｃｅｎｔｅｒ，Ｎｏ．２９　Ｙｉｎｇｂｉｎ　Ａｖｅｎｕｅ，Ｔａｎｇｘｉａ　Ｔｏｗｎ，Ｒｏｏｍ　８０７，Ｂｕｉｌｄｉｎｇ　３，Ｄｏｎｇｇｕａｎ　Ｃｉｔｙ，Ｇｕａｎｇｄｏｎｇ　５２３７１６　ＣＮ,,,,,,2023-10-30,1,,,,,ジウェイクアジンシャンマオドンワンヨウシェンゴンスー,0
2168,9010001239462,新規,0,2023-10-30,2023-10-30,コンシェルジュサービスジャパン株式会社,,株式会社,東京都,千代田区,永田町２丁目１７－５ローレル永田町５１４号室,,13,101,1000014,,,,,,,2023-10-30,1,,,,,コンシェルジュサービスジャパン,0
2169,9010001239553,新規,0,2023-10-30,2023-10-30,株式会社ＴＢＨ不動産,,株式会社,東京都,千代田区,神田三崎町２丁目１４番５号,,13,101,1010061,,,,,,,2023-10-30,1,,,,,ティービーエイチフドウサン,0
2170,9010001239603,新規,0,2023-10-30,2023-10-30,株式会社ＩＰＣ,,株式会社,東京都,中央区,銀座４丁目１０番１４号ＡＣＮ銀座４ビルディング１０階,,13,102,1040061,,,,,,,2023-10-30,1,,,,,アイピーシー,0
2173,9010005037441,新規,0,2023-10-30,2023-10-30,一般社団法人ボンドブリッジ２,,その他の設立登記法人,東京都,千代田区,内神田２丁目２番６号５階あすな会計事務所内,,13,101,1010047,,,,,,,2023-10-30,1,,,,,ボンドブリッジツー,0
2184,9010401178178,新規,0,2023-10-30,2023-10-30,株式会社ＴｒｉｐＣｌｉｐ,,株式会社,東京都,港区,六本木７丁目１２－２Ｒ７ビルディングＳｐａｃｅｓ六本木７０７,,13,103,1060032,,,,,,,2023-10-30,1,,,,,トリップクリップ,0
2189,9010403031260,新規,0,2023-10-30,2023-10-30,ＧＹ＆ＫＩＫＡＫＵ合同会社,,合同会社,東京都,港区,六本木７丁目１２番２号Ｒ７ビルディング２階,,13,103,1060032,,,,,,,2023-10-30,1,,,,,ジーワイアンドキカク,0
2191,9010405022613,新規,0,2023-10-30,2023-10-30,一般社団法人地域医療支援協会,,その他の設立登記法人,東京都,港区,西新橋１丁目１２－３西新橋ＴＭビル５階,,13,103,1050003,,,,,,,2023-10-30,1,,,,,チイキイリョウシエンキョウカイ,0
2206,9011001157852,新規,0,2023-10-30,2023-10-30,株式会社サンライズ,,株式会社,東京都,渋谷区,恵比寿西２丁目１１番１１号,,13,113,1500021,,,,,,,2023-10-30,1,,,,,サンライズ,0
2211,9011501029931,新規,0,2023-10-30,2023-10-30,相武株式会社,,株式会社,東京都,荒川区,荒川１丁目５８番１号コーポサトウ２０３,,13,118,1160002,,,,,,,2023-10-30,1,,,,,ソウブ,0
2216,9011701026712,新規,0,2023-10-30,2023-10-30,レテリア株式会社,,株式会社,東京都,江戸川区,東葛西８丁目２８番１０号ＬＥＶＡＮＴＥＢ,,13,123,1340084,,,,,,,2023-10-30,1,,,,,レテリア,0
2219,9011801043260,新規,0,2023-10-30,2023-10-30,エスアリビオ株式会社,,株式会社,東京都,足立区,栗原３丁目９－２オリエント第２ビル５０２,,13,121,1230842,,,,,,,2023-10-30,1,,,,,エスアリビオ,0
2222,9011805003310,新規,0,2023-10-30,2023-10-30,一般社団法人新時代健康促進協会,,その他の設立登記法人,東京都,足立区,梅島１丁目２８番６号,,13,121,1210816,,,,,,,2023-10-30,1,,,,,シンジダイケンコウソクシンキョウカイ,0
2225,9012701017916,新規,0,2023-10-30,2023-10-30,株式会社ＬａＰｌｕｓ,,株式会社,東京都,小平市,花小金井南町３丁目９番４－５号,,13,211,1870003,,,,,,,2023-10-30,1,,,,,ラプラス,0
2229,9013301051553,新規,0,2023-10-30,2023-10-30,株式会社ｉｎｉｔｉ,,株式会社,東京都,豊島区,東池袋１丁目３４番５号いちご東池袋ビル６階,,13,116,1700013,,,,,,,2023-10-30,1,,,,,イニティ,0
2234,9020001154090,新規,0,2023-10-30,2023-10-30,株式会社花咲,,株式会社,神奈川県,横浜市西区,老松町２３,,14,103,2200032,,,,,,,2023-10-30,1,,,,,ハナサキ,0
2235,9020001154181,新規,0,2023-10-30,2023-10-30,株式会社ＮＤＫ,,株式会社,神奈川県,横浜市中区,石川町４丁目１５９番地１６ヴァレーゼ石川町２階,,14,104,2310868,,,,,,,2023-10-30,1,,,,,エヌディーケー,0
2236,9020001154198,新規,0,2023-10-30,2023-10-30,株式会社ｙｍｔｔ,,株式会社,神奈川県,横浜市青葉区,大場町３６０－４,,14,117,2250023,,,,,,,2023-10-30,1,,,,,ワイエムティティ,0
2239,9020003024886,新規,0,2023-10-30,2023-10-30,Ｊ　Ｌｉｎｋｌｕｓｉｏｎ合同会社,,合同会社,神奈川県,横浜市西区,北幸２丁目１０番地４８むつみビル３Ｆ,,14,103,2200004,,,,,,,2023-10-30,1,,,,,ジェイリンクルージョン,0
2240,9020005016163,新規,0,2023-10-30,2023-10-30,一般社団法人ＡＵＪ,,その他の設立登記法人,神奈川県,横浜市港北区,綱島東１丁目７番１８号１階,,14,109,2230052,,,,,,,2023-10-30,1,,,,,,0
2243,9021005012920,新規,0,2023-10-30,2023-10-30,一般社団法人適材適所,,その他の設立登記法人,神奈川県,藤沢市,鵠沼橘２丁目７番２～１号,,14,205,2510024,,,,,,,2023-10-30,1,,,,,テキザイテキショ,0
2257,9030001156887,新規,0,2023-10-30,2023-10-30,ホームメディケアジャパン株式会社,,株式会社,埼玉県,所沢市,南住吉１番１５号ＧｌａｎｚＦｅｌｉｃｉａ３０６,,11,208,3591125,,,,,,,2023-10-30,1,,,,,ホームメディケアジャパン,0
2258,9030001156895,新規,0,2023-10-30,2023-10-30,株式会社中原産業,,株式会社,埼玉県,鶴ヶ島市,大字上広谷２８６番地９３,,11,241,3502203,,,,,,,2023-10-30,1,,,,,ナカハラサンギョウ,0
2263,9030003022856,新規,0,2023-10-30,2023-10-30,合同会社Ｔｅｎｋａ,,合同会社,埼玉県,三郷市,彦成４丁目１番２０－４１８号,,11,237,3410003,,,,,,,2023-10-30,1,,,,,テンカ,0
2264,9030003022889,新規,0,2023-10-30,2023-10-30,合同会社Ｓ・Ｔ,,合同会社,埼玉県,さいたま市大宮区,土手町１丁目４６番地１ライオンズプラザ大宮８１４,,11,103,3300801,,,,,,,2023-10-30,1,,,,,エスティ,0
2266,9030005021451,新規,0,2023-10-30,2023-10-30,一般社団法人終活トータルサポート,,その他の設立登記法人,埼玉県,さいたま市緑区,東浦和４丁目１３番地２４,,11,109,3360926,,,,,,,2023-10-30,1,,,,,シュウカツトータルサポート,0
2276,9040001130668,新規,0,2023-10-30,2023-10-30,株式会社ＵＮＡＧＩ,,株式会社,千葉県,松戸市,松戸１１６４番地の１シェスタビルＩＩ１Ｆ,00132459,12,207,2710092,,,,,,,2023-10-30,1,,,,,ウナギ,0
2277,9040001130726,新規,0,2023-10-30,2023-10-30,株式会社ＫＯＮＩ,,株式会社,千葉県,船橋市,宮本８丁目３９番２６号ブルーハイツ１０２号室,,12,204,2730003,,,,,,,2023-10-30,1,,,,,コニ,0
2286,9040003023639,新規,0,2023-10-30,2023-10-30,石井商事合同会社,,合同会社,千葉県,船橋市,二子町５２４番地２０３,,12,204,2730034,,,,,,,2023-10-30,1,,,,,イシイショウジ,0
2287,9040003023647,新規,0,2023-10-30,2023-10-30,合同会社湧心工業,,合同会社,千葉県,柏市,豊四季５０８番地１７２ディーローブル南柏２０１号,,12,217,2770863,,,,,,,2023-10-30,1,,,,,ユウシンコウギョウ,0
2289,9050001053703,新規,0,2023-10-30,2023-10-30,株式会社Ｔｈｅ　ｆｏｒｅｓｔ,,株式会社,茨城県,猿島郡境町,陽光台１丁目１６番地３,,08,546,3060435,,,,,,,2023-10-30,1,,,,,ザフォレスト,0
2290,9050001053728,新規,0,2023-10-30,2023-10-30,ＳＫ　ＴＲＡＤＩＮＧ株式会社,,株式会社,茨城県,筑西市,藤ケ谷２０９１番地ロマ２号,,08,227,3080112,,,,,,,2023-10-30,1,,,,,エスケートレーディング,0
2291,9050001053736,新規,0,2023-10-30,2023-10-30,株式会社Ｐｒｏｇｒｅｓｓ,,株式会社,茨城県,神栖市,神栖３丁目７番２号パレスＭ棟４号,,08,232,3140143,,,,,,,2023-10-30,1,,,,,プログレス,0
2292,9060001036500,新規,0,2023-10-30,2023-10-30,株式会社Ｈ＆Ｒ,,株式会社,栃木県,宇都宮市,南一の沢町２番１号ＳＵＮＰＩＥＲ２０１,,09,201,3200044,,,,,,,2023-10-30,1,,,,,エイチアンドアール,0
2295,9070005010186,新規,0,2023-10-30,2023-10-30,一般財団法人環境動物福祉みらい財団,,その他の設立登記法人,群馬県,利根郡みなかみ町,湯桧曽４番地１,,10,449,3791728,,,,,,,2023-10-30,1,,,,,カンキョウドウブツフクシミライザイダン,0
2298,9090001018396,新規,0,2023-10-30,2023-10-30,株式会社Ａ‐ＬＩＦＩＸ,,株式会社,山梨県,甲府市,上今井町２６０番地６青山並木ビル２Ｆ,,19,201,4000845,,,,,,,2023-10-30,1,,,,,エーリフィックス,0
2300,9100001036925,新規,0,2023-10-30,2023-10-30,株式会社ＧＯＧＯＧＯ,,株式会社,長野県,松本市,大字島立１１１７－１０,,20,202,3900852,,,,,,,2023-10-30,1,,,,,ゴーゴーゴー,0
2318,9120001259292,新規,0,2023-10-30,2023-10-30,ルークスペイ株式会社,,株式会社,大阪府,大阪市中央区,内本町２丁目４番１０－１２０１号,,27,128,5400026,,,,,,,2023-10-30,1,,,,,ルークスペイ,0
2319,9120003025206,新規,0,2023-10-30,2023-10-30,マルリー合同会社,,合同会社,大阪府,大阪市北区,梅田１丁目２番２号大阪駅前第２ビル１２－１２,,27,127,5300001,,,,,,,2023-10-30,1,,,,,マルリー,0
2320,9120005023967,新規,0,2023-10-30,2023-10-30,一般社団法人いきいきライフ協会大阪天王寺,,その他の設立登記法人,大阪府,大阪市天王寺区,生玉前町３－２５－４０３,,27,109,5430072,,,,,,,2023-10-30,1,,,,,イキイキライフキョウカイオオサカテンノウジ,0
2323,9120903004894,新規,0,2023-10-30,2023-10-30,合同会社ｃｌｏｔｈ,,合同会社,大阪府,摂津市,千里丘東３丁目７－１５アーベル千里丘１Ｆ,,27,224,5660011,,,,,,,2023-10-30,1,,,,,クロス,0
2332,9130001075549,新規,0,2023-10-30,2023-10-30,株式会社Ａ＆Ｍ　ＲＥＡＬ　ＥＳＴＡＴＥ,,株式会社,京都府,京都市山科区,厨子奥尾上町１４番地９０,,26,110,6078453,,,,,,,2023-10-30,1,,,,,エーアンドエムリアルエステート,0
2333,9130001075557,新規,0,2023-10-30,2023-10-30,株式会社ＣＨＯ,,株式会社,京都府,京都市南区,東九条中殿田町１１番地１２,,26,107,6018048,,,,,,,2023-10-30,1,,,,,シーエイチオー,0
2334,9130001075573,新規,0,2023-10-30,2023-10-30,株式会社白川建設,,株式会社,京都府,京都市下京区,七条通油小路東入大黒町２２７番地第２キョートビル４０２,,26,106,6008223,,,,,,,2023-10-30,1,,,,,シラカワケンセツ,0
2336,9130003009100,新規,0,2023-10-30,2023-10-30,合同会社Ａｅｘａ．ＬＬＯ,,合同会社,京都府,八幡市,橋本北浄土ケ原５０番地の９,,26,210,6148325,,,,,,,2023-10-30,1,,,,,エーエグザエルエルオー,0
2341,9140001131870,新規,0,2023-10-30,2023-10-30,五島ホールディングス株式会社,,株式会社,兵庫県,神戸市中央区,小野浜町５番１１号,,28,110,6510082,,,,,,,2023-10-30,1,,,,,ゴシマホールディングス,0
2342,9140001132150,新規,0,2023-10-30,2023-10-30,ワールドファーム株式会社,,株式会社,兵庫県,淡路市,浦２４００番地２,,28,226,6562305,,,,,,,2023-10-30,1,,,,,ワールドファーム,0
2348,9160003003026,新規,0,2023-10-30,2023-10-30,合同会社おたすけ家てんてん,,合同会社,滋賀県,草津市,片岡町５５９番地１,,25,206,5250011,,,,,,,2023-10-30,1,,,,,オタスケヤテンテン,0
2349,9160005011241,新規,0,2023-10-30,2023-10-30,特定非営利活動法人堅田２１世紀の会,,その他の設立登記法人,滋賀県,大津市,今堅田１丁目２番２０号,,25,201,5200241,,,,,,,2023-10-30,1,,,,,カタタニジュウイッセイキノカイ,0
2350,9170001017860,新規,0,2023-10-30,2023-10-30,中天居株式会社,,株式会社,和歌山県,海南市,名高４５１番地３３,,30,202,6420032,,,,,,,2023-10-30,1,,,,,チュウテンイ,0
2356,9180001158704,新規,0,2023-10-30,2023-10-30,株式会社Ｋ　ＣＲＡＦＴ,,株式会社,愛知県,稲沢市,西町１丁目６番１１号,,23,220,4928218,,,,,,,2023-10-30,1,,,,,ケイクラフト,0
2359,9180003025910,新規,0,2023-10-30,2023-10-30,ｉ　ＳＴＡＦＦ合同会社,,合同会社,愛知県,小牧市,応時３丁目１１番地,,23,219,4850832,,,,,,,2023-10-30,1,,,,,アイスタッフ,0
2364,9190003004491,新規,0,2023-10-30,2023-10-30,合同会社ＨＩＴ,,合同会社,三重県,四日市市,天カ須賀５丁目２番１０－１１号,,24,202,5108001,,,,,,,2023-10-30,1,,,,,ヒット,0
2371,9240001062346,新規,0,2023-10-30,2023-10-30,株式会社志興業,,株式会社,広島県,安芸郡海田町,大正町１番７－４０２号,,34,304,7360041,,,,,,,2023-10-30,1,,,,,ココロザシコウギョウ,0
2384,9290001103574,新規,0,2023-10-30,2023-10-30,ハンド九州株式会社,,株式会社,福岡県,福岡市博多区,中洲４丁目６番１２号プラート中洲２階,,40,132,8100801,,,,,,,2023-10-30,1,,,,,ハンドキュウシュウ,0
2398,9340001026035,新規,0,2023-10-30,2023-10-30,株式会社なかたね農産,,株式会社,鹿児島県,熊毛郡中種子町,増田３９６３番地２,,46,501,8913603,,,,,,,2023-10-30,1,,,,,ナカタネノウサン,0
2399,9340005009671,新規,0,2023-10-30,2023-10-30,特定非営利活動法人喜楽ハーブおきのえらぶ,,その他の設立登記法人,鹿児島県,大島郡和泊町,大字手々知名５２３番地５,,46,533,8919111,,,,,,,2023-10-30,1,,,,,キラクハーブオキノエラブ,0
2401,9350003004475,新規,0,2023-10-30,2023-10-30,京大合同会社,,合同会社,宮崎県,宮崎市,大字恒久９７８番地４,,45,201,8800916,,,,,,,2023-10-30,1,,,,,キョウダイ,0
2406,9360003013418,新規,0,2023-10-30,2023-10-30,合同会社裕進建設,,合同会社,沖縄県,島尻郡南風原町,字新川１６９番地４伊佐ハイツ１０２,,47,350,9011105,,,,,,,2023-10-30,1,,,,,ユウシンケンセツ,0
2407,9370003006338,新規,0,2023-10-30,2023-10-30,合同会社Ｃｈａｔｏｎ,,合同会社,宮城県,気仙沼市,八日町２丁目３番１９号２Ｆ,,04,205,9880084,,,,,,,2023-10-30,1,,,,,シャトン,0
2413,9380001034100,新規,0,2023-10-30,2023-10-30,株式会社ものづくりホールディングス,,株式会社,福島県,いわき市,勿来町窪田町通４丁目６６番地,,07,204,9790141,,,,,,,2023-10-30,1,,,,,モノヅクリホールディングス,0
2416,9380003005594,新規,0,2023-10-30,2023-10-30,合同会社いること,,合同会社,福島県,双葉郡葛尾村,大字野川字中島２５６番地１,,07,548,9791603,,,,,,,2023-10-30,1,,,,,イルコト,0
2417,9380003005603,新規,0,2023-10-30,2023-10-30,合同会社Ｓｔａｒｓｈｉｎｅ,,合同会社,福島県,福島市,野田町３丁目４－３６,,07,201,9608055,,,,,,,2023-10-30,1,,,,,スターシャイン,0
2424,9430001090294,新規,0,2023-10-30,2023-10-30,株式会社エースオフィス,,株式会社,北海道,札幌市中央区,南一条西１６丁目１番地３２３,,01,101,0600061,,,,,,,2023-10-30,1,,,,,エースオフィス,0
2426,9430003015539,新規,0,2023-10-30,2023-10-30,合同会社ディーディー,,合同会社,北海道,札幌市豊平区,月寒西一条７丁目１番１５‐３０１,,01,105,0620021,,,,,,,2023-10-30,1,,,,,ディーディー,0
2433,9470001019868,新規,0,2023-10-30,2023-10-30,株式会社輝,,株式会社,香川県,高松市,城東町２丁目７番９号プレイスポットＫ２ビル　３Ｆ,,37,201,7600036,,,,,,,2023-10-30,1,,,,,カガヤキ,0
2435,9480005006993,新規,0,2023-10-30,2023-10-30,特定非営利活動法人つながるよネット,,その他の設立登記法人,徳島県,阿南市,日開野町居内２１６番地,,36,204,7740013,,,,,,,2023-10-30,1,,,,,ツナガルヨネット,0
2436,9700150121574,新規,0,2023-10-30,2023-10-30,ｂｅｉｊｉｎｇｍｕｎａｎｋｅｊｉｙｏｕｘｉａｎｇｏｎｇｓｉ,,外国会社等,,,,,,,,ｚｈｏｎｇｇｕａｎｃｕｎｋｅｊｉｙｕａｎｑｕｐｉｎｇｇｕｙｕａｎ１ｑｕ－２１１２６９　Ｂｅｉｊｉｎｇ　ｐｉｎｇｇｕｑｕ　１０１２００　ＣＮ,,,,,,2023-10-30,1,,,,,ベイジンムゥナンカージヨウシェンゴンスー,0
