sequenceNumber,corporateNumber,process,correct,updateDate,changeDate,name,nameImageId,kind,prefectureName,cityName,streetNumber,addressImageId,prefectureCode,cityCode,postCode,addressOutside,addressOutsideImageId,closeDate,closeCause,successorCorporateNumber,changeCause,assignmentDate,latest,enName,enPrefectureName,enCityName,enAddressOutside,furigana,hihyoji
11,1010003035330,新規,0,2021-07-16,2021-07-16,合同会社キロロマネジメント,,合同会社,東京都,千代田区,丸の内３丁目１番１号東京共同会計事務所内,,13,101,1000005,,,,,,,2021-07-16,1,,,,,キロロマネジメント,0
14,1010101014772,新規,0,2021-07-16,2021-07-16,株式会社ディヤーナトランセンデンス,,株式会社,東京都,八王子市,大塚２６６,,13,201,1920352,,,,,,,2021-07-16,1,,,,,,0
27,1010401161397,新規,0,2021-07-16,2021-07-16,株式会社Ａｕｇ　Ｄｅｓｉｇｎ,,株式会社,東京都,港区,高輪２丁目１４－１７グレイス高輪ビル８Ｆ,,13,103,1080074,,,,,,,2021-07-16,1,,,,,オークデザイン,0
32,1010403025732,新規,0,2021-07-16,2021-07-16,ＲＢソーラーディスティニー合同会社,,合同会社,東京都,港区,虎ノ門３丁目２２番１０－２０１号,,13,103,1050001,,,,,,,2021-07-16,1,,,,,アールビーソーラーディスティニー,0
33,1010405019988,新規,0,2021-07-16,2021-07-16,一般社団法人日本動画編集協会,,その他の設立登記法人,東京都,港区,六本木３丁目４－２コープ野村六本木１－３０５号室,,13,103,1060032,,,,,,,2021-07-16,1,,,,,ニホンドウガヘンシュウキョウカイ,0
34,1010405020021,新規,0,2021-07-16,2021-07-16,麻布台プロパティ一般社団法人,,その他の設立登記法人,東京都,港区,西新橋１丁目２２番５号６階,,13,103,1050003,,,,,,,2021-07-16,1,,,,,,0
38,1010601059656,新規,0,2021-07-16,2021-07-16,株式会社ＢｌｉｓｓＱ,,株式会社,東京都,江東区,東陽１丁目２４番１号,,13,108,1350016,,,,,,,2021-07-16,1,,,,,ブリスク,0
45,1010901049101,新規,0,2021-07-16,2021-07-16,株式会社下北沢倶楽部,,株式会社,東京都,世田谷区,北沢２丁目３１番１０号,,13,112,1550031,,,,,,,2021-07-16,1,,,,,シモキタザワクラブ,0
54,1011001141748,新規,0,2021-07-16,2021-07-16,株式会社ミラベル,,株式会社,東京都,渋谷区,恵比寿西１丁目８番１号,,13,113,1500021,,,,,,,2021-07-16,1,,,,,ミラベル,0
59,1011101095737,新規,0,2021-07-16,2021-07-16,株式会社ｓｏａｒ,,株式会社,東京都,新宿区,歌舞伎町１丁目２番７号,,13,104,1600021,,,,,,,2021-07-16,1,,,,,ソアー,0
67,1011503004840,新規,0,2021-07-16,2021-07-16,合同会社ケアサービス,,合同会社,東京都,北区,豊島５丁目４番３－２１０号,,13,117,1140003,,,,,,,2021-07-16,1,,,,,ケアサービス,0
71,1013101008678,新規,0,2021-07-16,2021-07-16,株式会社いんくるーじょん,,株式会社,東京都,青梅市,河辺町１０丁目１番地の５ライオンズプラザ河辺駅前５０５号,,13,205,1980036,,,,,,,2021-07-16,1,,,,,インクルージョン,0
82,1020001142251,新規,0,2021-07-16,2021-07-16,ＴＲＩ　ＫＡＮＹＡ株式会社,,株式会社,神奈川県,横浜市鶴見区,豊岡町６番２５ー１０５号,,14,101,2300062,,,,,,,2021-07-16,1,,,,,トリカンヤ,0
83,1020001142276,新規,0,2021-07-16,2021-07-16,湘浜不動産株式会社,,株式会社,神奈川県,横浜市瀬谷区,宮沢２丁目２－２,,14,114,2460038,,,,,,,2021-07-16,1,,,,,ショウハマフドウサン,0
85,1020003020083,新規,0,2021-07-16,2021-07-16,合同会社ウェスタ,,合同会社,神奈川県,横浜市南区,高根町１丁目４－１６,,14,105,2320022,,,,,,,2021-07-16,1,,,,,ウェスタ,0
86,1020003020182,新規,0,2021-07-16,2021-07-16,合同会社コラット,,合同会社,神奈川県,横浜市港北区,綱島東６丁目１２番１３－２号,,14,109,2230052,,,,,,,2021-07-16,1,,,,,コラット,0
91,1021001073429,新規,0,2021-07-16,2021-07-16,株式会社彩は,,株式会社,神奈川県,厚木市,妻田北３丁目１５番３２号,,14,212,2430812,,,,,,,2021-07-16,1,,,,,イロハ,0
92,1021001073437,新規,0,2021-07-16,2021-07-16,グリーンプラネットフォレスト株式会社,,株式会社,神奈川県,大和市,南林間６丁目１番２１号,,14,213,2420006,,,,,,,2021-07-16,1,,,,,グリーンプラネットフォレスト,0
99,1030001143372,新規,0,2021-07-16,2021-07-16,株式会社キッツァ,,株式会社,埼玉県,さいたま市中央区,下落合６丁目１８番７－５０５号,,11,105,3380002,,,,,,,2021-07-16,1,,,,,キッツァ,0
100,1030001143414,新規,0,2021-07-16,2021-07-16,株式会社ホライゾンオートサービス,,株式会社,埼玉県,狭山市,大字堀兼１４１９番地の３－１０１,,11,215,3501312,,,,,,,2021-07-16,1,,,,,ホライゾンオートサービス,0
105,1030003017632,新規,0,2021-07-16,2021-07-16,エターナルハート合同会社,,合同会社,埼玉県,熊谷市,星川１丁目１６番地,,11,202,3600043,,,,,,,2021-07-16,1,,,,,エターナルハート,0
106,1030003017640,新規,0,2021-07-16,2021-07-16,メインストリート・マネジメント・リサーチ合同会社,,合同会社,埼玉県,さいたま市大宮区,宮町１丁目５番地銀座ビル７階,,11,103,3300802,,,,,,,2021-07-16,1,,,,,メインストリートマネジメントリサーチ,0
110,1040001118919,新規,0,2021-07-16,2021-07-16,株式会社ＰＵＲＩＮ,,株式会社,千葉県,松戸市,新松戸２丁目１－１,,12,207,2700034,,,,,,,2021-07-16,1,,,,,プリン,0
111,1040001119322,新規,0,2021-07-16,2021-07-16,テクノべル株式会社,,株式会社,千葉県,白井市,桜台３丁目１番３棟１１２号,,12,232,2701412,,,,,,,2021-07-16,1,,,,,テクノベル,0
112,1040001119388,新規,0,2021-07-16,2021-07-16,齊藤産業株式会社,,株式会社,千葉県,鎌ケ谷市,東中沢４丁目４番５６号,,12,224,2730112,,,,,,,2021-07-16,1,,,,,サイトウサンギョウ,0
117,1040003018175,新規,0,2021-07-16,2021-07-16,合同会社ＲＯＯＦ．ＯＮＥ,,合同会社,千葉県,茂原市,法目１６５７－２,,12,210,2994113,,,,,,,2021-07-16,1,,,,,ルーフワン,0
128,1080001024329,新規,0,2021-07-16,2021-07-16,株式会社吉祥,,株式会社,静岡県,静岡市葵区,下１２２１番地の１０,,22,101,4212108,,,,,,,2021-07-16,1,,,,,キッショウ,0
136,1090001017100,新規,0,2021-07-16,2021-07-16,株式会社Ｓｐａｃｅ　ｅＸｐｅｒｉｅｎｃｅ　Ｄｅｓｉｇｎ,,株式会社,山梨県,南都留郡道志村,９０１２番地,,19,422,4020200,,,,,,,2021-07-16,1,,,,,スペースエクスペリエンスデザイン,0
145,1120001097023,新規,0,2021-07-16,2021-07-16,日進コーヒー株式会社,,株式会社,大阪府,大阪市住之江区,北加賀屋４丁目４番２０号,,27,125,5590011,,,,,,,2021-07-16,1,,,,,ニッシンコーヒー,0
151,1120001239070,新規,0,2021-07-16,2021-07-16,Ｈｉ－Ｕｎｉｔ　ｂｒａｎｄｉｎｇ．株式会社,,株式会社,大阪府,大阪市浪速区,日本橋５丁目９番１９号,,27,111,5560005,,,,,,,2021-07-16,1,,,,,ハイユニットブランディング,0
152,1120001239095,新規,0,2021-07-16,2021-07-16,株式会社リベティ,,株式会社,大阪府,大阪市中央区,瓦町４丁目４番１４－４０５号,,27,128,5410048,,,,,,,2021-07-16,1,,,,,リベティ,0
153,1120001239112,新規,0,2021-07-16,2021-07-16,株式会社Ｍ＆Ｔ,,株式会社,大阪府,門真市,常称寺町１７番１４号川島第１１ビル２０５号,,27,223,5710063,,,,,,,2021-07-16,1,,,,,エムアンドティー,0
156,1120003019859,新規,0,2021-07-16,2021-07-16,Ｃｏｍｅ　Ｉｎ　Ｆａｍｉｌｙ　Ｃａｒｅ合同会社,,合同会社,大阪府,枚方市,楠葉丘１丁目１１－８,,27,210,5731104,,,,,,,2021-07-16,1,,,,,カムインファミリーケア,0
157,1120003019867,新規,0,2021-07-16,2021-07-16,わらび合同会社,,合同会社,大阪府,大阪市中央区,高津３丁目５－１ルイシャトレ高津６０２号,,27,128,5420072,,,,,,,2021-07-16,1,,,,,ワラビ,0
160,1120101063998,新規,0,2021-07-16,2021-07-16,株式会社星優化工,,株式会社,大阪府,貝塚市,清児４８５番地,,27,208,5970041,,,,,,,2021-07-16,1,,,,,セイユウカコウ,0
178,1130003007375,新規,0,2021-07-16,2021-07-16,合同会社ユニバーサルホーム,,合同会社,京都府,京都市下京区,東洞院通七条下る塩小路町５２４番地４パデシオン京都駅前２番館７０３号,,26,106,6008212,,,,,,,2021-07-16,1,,,,,ユニバーサルホーム,0
185,1140001122316,新規,0,2021-07-16,2021-07-16,マット・プロ株式会社,,株式会社,兵庫県,川西市,錦松台１４番３９号,,28,217,6660135,,,,,,,2021-07-16,1,,,,,マットプロ,0
189,1140003016540,新規,0,2021-07-16,2021-07-16,合同会社ＣＯＮＮＥＣＴＫＯＢＥ,,合同会社,兵庫県,神戸市西区,伊川谷町有瀬３１番地の１,,28,111,6512113,,,,,,,2021-07-16,1,,,,,コネクトコウベ,0
192,1170005006917,新規,0,2021-07-16,2021-07-16,一般社団法人ワカヤマスコラボ,,その他の設立登記法人,和歌山県,和歌山市,岡山丁８４,,30,201,6408145,,,,,,,2021-07-16,1,,,,,ワカヤマスコラボ,0
196,1180001146988,新規,0,2021-07-16,2021-07-16,株式会社Ｓ＆Ｍ,,株式会社,愛知県,名古屋市緑区,桶狭間南１２０７番地,,23,114,4580927,,,,,,,2021-07-16,1,,,,,エスアンドエム,0
197,1180001147004,新規,0,2021-07-16,2021-07-16,株式会社ＷＢＳ,,株式会社,愛知県,名古屋市中区,栄１丁目７番２８号,,23,106,4600008,,,,,,,2021-07-16,1,,,,,ダブリュビーエス,0
205,1200001038902,新規,0,2021-07-16,2021-07-16,株式会社ａｎ　ｆａｃｔｏｒｙ,,株式会社,岐阜県,関市,志津野２２７４番地２,,21,205,5013205,,,,,,,2021-07-16,1,,,,,アンファクトリー,0
210,1210003001394,新規,0,2021-07-16,2021-07-16,合同会社愛美,,合同会社,福井県,敦賀市,公文名３５号３９番地の１,,18,202,9140131,,,,,,,2021-07-16,1,,,,,アミ,0
223,1260001035778,新規,0,2021-07-16,2021-07-16,株式会社ＭＹ企画,,株式会社,岡山県,岡山市中区,原尾島４丁目１番１５号,,33,102,7038235,,,,,,,2021-07-16,1,,,,,エムワイキカク,0
237,1290801027633,新規,0,2021-07-16,2021-07-16,株式会社ＴＡＧＡＷＡ１９６６,,株式会社,福岡県,田川市,大字伊田２６２１番地３－２Ｆ,,40,206,8250002,,,,,,,2021-07-16,1,,,,,タガワイチキューロクロク,0
239,1290803003888,新規,0,2021-07-16,2021-07-16,アナハイム合同会社,,合同会社,福岡県,北九州市若松区,塩屋３丁目２９番３号,,40,103,8080131,,,,,,,2021-07-16,1,,,,,アナハイム,0
246,1320001018495,新規,0,2021-07-16,2021-07-16,日商石油株式会社,,株式会社,大分県,日田市,大字三和９８５番地３,,44,204,8770000,,,,,,,2021-07-16,1,,,,,ニッショウセキユ,0
255,1350003003889,新規,0,2021-07-16,2021-07-16,合同会社リベルティ,,合同会社,宮崎県,都城市,志比田町５３２４－１,,45,202,8850093,,,,,,,2021-07-16,1,,,,,リベルティ,0
258,1360001029084,新規,0,2021-07-16,2021-07-16,株式会社タープアンドリゾート,,株式会社,沖縄県,那覇市,おもろまち４丁目６番１９号,,47,201,9000006,,,,,,,2021-07-16,1,,,,,タープアンドリゾート,0
259,1360001029101,新規,0,2021-07-16,2021-07-16,株式会社開陸運送,,株式会社,沖縄県,浦添市,西原５丁目４４番１０号１Ｆ,,47,208,9012101,,,,,,,2021-07-16,1,,,,,カイリクウンソウ,0
270,1370003005306,新規,0,2021-07-16,2021-07-16,合同会社オオノファーマーズファクトリー,,合同会社,宮城県,加美郡加美町,平柳字城野２番地,,04,445,9814213,,,,,,,2021-07-16,1,,,,,オオノファーマーズファクトリー,0
294,1420001017520,新規,0,2021-07-16,2021-07-16,株式会社つながる弘前,,株式会社,青森県,弘前市,大字撫牛子３丁目１８番地５７,,02,202,0368075,,,,,,,2021-07-16,1,,,,,ツナガルヒロサキ,0
297,1430001084568,新規,0,2021-07-16,2021-07-16,株式会社ｓｏｒａ,,株式会社,北海道,札幌市西区,発寒七条５丁目６番２５号,,01,107,0630827,,,,,,,2021-07-16,1,,,,,ソラ,0
300,1430003012956,新規,0,2021-07-16,2021-07-16,合同会社こまち,,合同会社,北海道,札幌市東区,北十条東７丁目１番１０－４０４号,,01,103,0650010,,,,,,,2021-07-16,1,,,,,コマチ,0
317,1470001018621,新規,0,2021-07-16,2021-07-16,株式会社ＡＮＣＨＯＲ,,株式会社,香川県,高松市,東ハゼ町１７番地１３,,37,201,7618054,,,,,,,2021-07-16,1,,,,,アンカー,0
329,1500001023568,新規,0,2021-07-16,2021-07-16,株式会社ｃｅｆ,,株式会社,愛媛県,松山市,永木町１丁目６番地８,,38,201,7900866,,,,,,,2021-07-16,1,,,,,セフ,0
341,2010001219735,新規,0,2021-07-16,2021-07-16,ｎａｅ株式会社,,株式会社,東京都,中央区,銀座７丁目１３番６号サガミビル２階,,13,102,1040061,,,,,,,2021-07-16,1,,,,,ナエ,0
345,2010003035313,新規,0,2021-07-16,2021-07-16,イーサギフト合同会社,,合同会社,東京都,文京区,関口１丁目１８番９リビオ文京関口シティクロス２０５号,,13,105,1120014,,,,,,,2021-07-16,1,,,,,イーサギフト,0
346,2010003035338,新規,0,2021-07-16,2021-07-16,日光Ｐｌｕｓ１９合同会社１,,合同会社,東京都,千代田区,丸の内３丁目１番１号東京共同会計事務所内,,13,101,1000005,,,,,,,2021-07-16,1,,,,,ニッコウプラスナインティーンイチ,0
348,2010005033595,新規,0,2021-07-16,2021-07-16,一般社団法人愛妻家倶楽部,,その他の設立登記法人,東京都,中央区,銀座１丁目２２番１１号,,13,102,1040061,,,,,,,2021-07-16,1,,,,,アイサイカクラブ,0
349,2010005033661,新規,0,2021-07-16,2021-07-16,弁護士法人Ｃ－ＬｉＡ,,その他の設立登記法人,東京都,千代田区,神田神保町１丁目１４－３ＭＴＯ神保町１１階,,13,101,1010051,,,,,,,2021-07-16,1,,,,,クリア,0
358,2010603009047,新規,0,2021-07-16,2021-07-16,合同会社ＣＭＦ,,合同会社,東京都,江東区,枝川３丁目１０番２０－１０３,,13,108,1350051,,,,,,,2021-07-16,1,,,,,シーエムエフ,0
375,2011001141730,新規,0,2021-07-16,2021-07-16,株式会社ＭＥＭＯＲＹ　ＬＡＢ,,株式会社,東京都,渋谷区,神宮前６丁目２３番４号桑野ビル２階,,13,113,1500001,,,,,,,2021-07-16,1,,,,,メモリーラボ,0
376,2011001141739,新規,0,2021-07-16,2021-07-16,ＬＩＦＥ　ＳＴＯＲＹ株式会社,,株式会社,東京都,渋谷区,神宮前１丁目１５番１４号,,13,113,1500001,,,,,,,2021-07-16,1,,,,,ライフストーリー,0
377,2011001141788,新規,0,2021-07-16,2021-07-16,ｓｃｒａｔｃＨ株式会社,,株式会社,東京都,渋谷区,神宮前６丁目２３番４号桑野ビル２階,,13,113,1500001,,,,,,,2021-07-16,1,,,,,スクラッチ,0
378,2011005009115,新規,0,2021-07-16,2021-07-16,一般社団法人流通報道記者会,,その他の設立登記法人,東京都,渋谷区,代々木１丁目３７番８号向陽ビル４階,,13,113,1510053,,,,,,,2021-07-16,1,,,,,リュウツウホウドウキシャカイ,0
384,2011405002157,新規,0,2021-07-16,2021-07-16,東京リプラネット事業協同組合,,その他の設立登記法人,東京都,板橋区,高島平６丁目２番５号,,13,119,1750082,,,,,,,2021-07-16,1,,,,,トウキョウリプラネットジギョウ,0
387,2011801039463,新規,0,2021-07-16,2021-07-16,株式会社Ｚ　ＬＯＧＩ,,株式会社,東京都,葛飾区,亀有５丁目４２番５武笠ビル２０１号室,,13,122,1250061,,,,,,,2021-07-16,1,,,,,ゼットロジ,0
393,2013301047748,新規,0,2021-07-16,2021-07-16,サブスクＤ２Ｃ総研株式会社,,株式会社,東京都,豊島区,池袋２丁目４３－１池袋青柳ビルＢ１,,13,116,1710014,,,,,,,2021-07-16,1,,,,,サブスクディーツーシーソウケン,0
394,2013303005753,新規,0,2021-07-16,2021-07-16,合同会社Ｑｉｎ,,合同会社,東京都,豊島区,南大塚２丁目１１番１０号ミモザビル３Ｆ,,13,116,1700005,,,,,,,2021-07-16,1,,,,,シン,0
403,2020003020198,新規,0,2021-07-16,2021-07-16,鍬塚コーポレーション合同会社,,合同会社,神奈川県,横浜市中区,元町４丁目１６８番地ＢＩＺｃｏｍｆｏｒｔ元町ビル,,14,104,2310861,,,,,,,2021-07-16,1,,,,,クワツカコーポレーション,0
405,2020005015139,新規,0,2021-07-16,2021-07-16,一般社団法人世界一周大学,,その他の設立登記法人,神奈川県,横浜市都筑区,北山田１丁目１４番４２－１０５号,,14,118,2240021,,,,,,,2021-07-16,1,,,,,セカイイッシュウダイガク,0
409,2021001073386,新規,0,2021-07-16,2021-07-16,株式会社浅見,,株式会社,神奈川県,小田原市,府川９番地の１,,14,206,2500052,,,,,,,2021-07-16,1,,,,,アサミ,0
410,2021001073411,新規,0,2021-07-16,2021-07-16,クラフツマンミートサービス株式会社,,株式会社,神奈川県,逗子市,逗子１丁目５番２１号第２菊池ビル３階,,14,208,2490006,,,,,,,2021-07-16,1,,,,,クラフツマンミートサービス,0
411,2021001073428,新規,0,2021-07-16,2021-07-16,佐々木保温株式会社,,株式会社,神奈川県,平塚市,南金目１３８６番地の３,,14,203,2591201,,,,,,,2021-07-16,1,,,,,ササキホオン,0
414,2021003010701,新規,0,2021-07-16,2021-07-16,ＪＡＰＡＮ　ＡＦＲＩＣＡ　ＬＩＮＫ合同会社,,合同会社,神奈川県,座間市,東原５丁目１番１２－１０８号,,14,216,2520004,,,,,,,2021-07-16,1,,,,,ジャパンアフリカリンク,0
420,2030001143371,新規,0,2021-07-16,2021-07-16,株式会社未工房,,株式会社,埼玉県,北本市,中丸９丁目２０番地,,11,233,3640013,,,,,,,2021-07-16,1,,,,,ヒツジコウボウ,0
431,2040001119370,新規,0,2021-07-16,2021-07-16,株式会社幸喜建築,,株式会社,千葉県,鴨川市,天津１９６３番地３,,12,223,2995503,,,,,,,2021-07-16,1,,,,,コウキケンチク,0
432,2040001119395,新規,0,2021-07-16,2021-07-16,株式会社Ｂｕｌｌｃｏｎｓｕｌｔｉｎｇ,,株式会社,千葉県,船橋市,前原西４丁目７番１号－６０１,,12,204,2740825,,,,,,,2021-07-16,1,,,,,ブルコンサルティング,0
433,2040001119412,新規,0,2021-07-16,2021-07-16,株式会社ＮＯＧＵＣＨＩ　ＤＥＳＩＧＮ,,株式会社,千葉県,千葉市中央区,院内１丁目１２－６第１３ＣＩビル３Ａ,,12,101,2600018,,,,,,,2021-07-16,1,,,,,ノグチデザイン,0
440,2040003018141,新規,0,2021-07-16,2021-07-16,合同会社ＳＥＶＥＮ’ｓ,,合同会社,千葉県,松戸市,上本郷４６６８番地クレール上本郷１０３,,12,207,2710064,,,,,,,2021-07-16,1,,,,,セブンズ,0
441,2040003018174,新規,0,2021-07-16,2021-07-16,風緑合同会社,,合同会社,千葉県,千葉市緑区,あすみが丘２丁目３３番地１８,,12,105,2670066,,,,,,,2021-07-16,1,,,,,カザミドリ,0
442,2040003018182,新規,0,2021-07-16,2021-07-16,エステート合同会社,,合同会社,千葉県,東金市,台方６９６番地１,,12,213,2830811,,,,,,,2021-07-16,1,,,,,エステート,0
444,2050001001123,新規,0,2021-07-16,2021-07-16,サンユー建設株式会社,,株式会社,茨城県,水戸市,赤塚２丁目２０１８番地の４０,,08,201,3114141,,,,,,,2021-07-16,1,,,,,,0
445,2050001049559,新規,0,2021-07-16,2021-07-16,株式会社総建,,株式会社,茨城県,桜川市,大月３５３番地,,08,231,3091335,,,,,,,2021-07-16,1,,,,,ソウケン,0
457,2070001038279,新規,0,2021-07-16,2021-07-16,株式会社サンフラワー,,株式会社,群馬県,高崎市,八千代町２丁目３番１号２Ｆ,,10,202,3700861,,,,,,,2021-07-16,1,,,,,サンフラワー,0
458,2070001038287,新規,0,2021-07-16,2021-07-16,株式会社ＣＬＩＰ,,株式会社,群馬県,前橋市,荒牧町１１８７番地１２,,10,201,3710044,,,,,,,2021-07-16,1,,,,,クリップ,0
473,2100003006172,新規,0,2021-07-16,2021-07-16,小諸バイオマス発電合同会社,,合同会社,長野県,小諸市,大字和田釜田３１番５,,20,208,3840093,,,,,,,2021-07-16,1,,,,,コモロバイオマスハツデン,0
475,2110001035924,新規,0,2021-07-16,2021-07-16,株式会社Ｐｒｏ－Ｓｅｒｖｉｃｅ,,株式会社,新潟県,北蒲原郡聖籠町,大字大夫興野２８３０番地４,,15,307,9570126,,,,,,,2021-07-16,1,,,,,プロサービス,0
491,2120001239053,新規,0,2021-07-16,2021-07-16,高幸株式会社,,株式会社,大阪府,大阪市北区,西天満３丁目４番２１－６０４号,,27,127,5300047,,,,,,,2021-07-16,1,,,,,タカユキ,0
492,2120001239136,新規,0,2021-07-16,2021-07-16,Ｕｎｉｔｅｄ　ｅｖｅｒｔｓ株式会社,,株式会社,大阪府,枚方市,津田駅前１丁目１６番地１号１０５号室Ｍ’プラザ津田駅前１０番館,,27,210,5730125,,,,,,,2021-07-16,1,,,,,ユナイテッドエバーツ,0
493,2120001239144,新規,0,2021-07-16,2021-07-16,株式会社ＳＡＩ,,株式会社,大阪府,守口市,八島町７番１４号,,27,209,5700095,,,,,,,2021-07-16,1,,,,,サイ,0
496,2120003019817,新規,0,2021-07-16,2021-07-16,合同会社Ｓｈａｒｅｓ,,合同会社,大阪府,大阪市城東区,成育４丁目２４番１６号,,27,118,5360007,,,,,,,2021-07-16,1,,,,,シェアーズ,0
497,2120003019858,新規,0,2021-07-16,2021-07-16,ＴＥＮ＆ＮＩＣＯホールディングス合同会社,,合同会社,大阪府,大阪市都島区,都島本通４丁目１６－１２,,27,102,5340021,,,,,,,2021-07-16,1,,,,,テンアンドニコホールディングス,0
498,2120003019866,新規,0,2021-07-16,2021-07-16,ＭＩ合同会社,,合同会社,大阪府,大阪市港区,弁天１丁目２番３０－３４０６号,,27,107,5520007,,,,,,,2021-07-16,1,,,,,エムアイ,0
525,2150001024799,新規,0,2021-07-16,2021-07-16,株式会社ナナイロ,,株式会社,奈良県,生駒市,新生駒台２番３１号,,29,209,6300242,,,,,,,2021-07-16,1,,,,,ナナイロ,0
526,2150003002431,新規,0,2021-07-16,2021-07-16,空翔Ｊｉｎｍｕ合同会社,,合同会社,奈良県,橿原市,内膳町１丁目３番９号,,29,205,6340804,,,,,,,2021-07-16,1,,,,,クウショウジンム,0
541,2180001146938,新規,0,2021-07-16,2021-07-16,ｉｓｓｉｎ不動産株式会社,,株式会社,愛知県,知多郡阿久比町,大字草木字栄１番地,,23,441,4702211,,,,,,,2021-07-16,1,,,,,イッシンフドウサン,0
542,2180001147011,新規,0,2021-07-16,2021-07-16,ＡＮＭＯＬ　ＩＮＴＥＲＮＡＴＩＯＮＡＬ株式会社,,株式会社,愛知県,名古屋市中村区,中島町３丁目５３番地第８中村ハイツ１階,,23,105,4530022,,,,,,,2021-07-16,1,,,,,アンモルインターナショナル,0
543,2180001147060,新規,0,2021-07-16,2021-07-16,ＭＣＮ東合株式会社,,株式会社,愛知県,名古屋市港区,藤前５丁目１２５番地,,23,111,4550855,,,,,,,2021-07-16,1,,,,,エムシーエヌトウゴウ,0
556,2220003003083,新規,0,2021-07-16,2021-07-16,合同会社ルチル,,合同会社,石川県,加賀市,松が丘３丁目７番地の１７,,17,206,9220436,,,,,,,2021-07-16,1,,,,,ルチル,0
559,2240001058292,新規,0,2021-07-16,2021-07-16,株式会社ワンエイト,,株式会社,広島県,広島市安佐南区,東野１丁目２０番１２号,,34,105,7310111,,,,,,,2021-07-16,1,,,,,ワンエイト,0
569,2290001093888,新規,0,2021-07-16,2021-07-16,株式会社リンク,,株式会社,福岡県,福岡市中央区,渡辺通１丁目１１番１１号ＨＫビル,,40,133,8100004,,,,,,,2021-07-16,1,,,,,リンク,0
570,2290001093896,新規,0,2021-07-16,2021-07-16,株式会社セルフメディケーション,,株式会社,福岡県,福岡市中央区,小笹４丁目５番２－９０１号,,40,133,8100033,,,,,,,2021-07-16,1,,,,,セルフメディケーション,0
571,2290003011427,新規,0,2021-07-16,2021-07-16,合同会社桶屋商店,,合同会社,福岡県,福岡市博多区,上呉服町２番２号,,40,132,8120036,,,,,,,2021-07-16,1,,,,,オケヤショウテン,0
577,2290805009453,新規,0,2021-07-16,2021-07-16,浅川テラス団地管理組合法人,,その他の設立登記法人,福岡県,北九州市八幡西区,大字浅川１１７９番地１１３,,40,109,8070877,,,,,,,2021-07-16,1,,,,,アサカワテラスダンチカンリ,0
600,2360001029059,新規,0,2021-07-16,2021-07-16,株式会社ＤＵＣＫＹ　ＣＯＭＰＡＮＹ,,株式会社,沖縄県,うるま市,字喜屋武６番地１０,,47,213,9042225,,,,,,,2021-07-16,1,,,,,ダッキーカンパニー,0
607,2370003005313,新規,0,2021-07-16,2021-07-16,合同会社ＦＡＢＲＩＣ,,合同会社,宮城県,仙台市青葉区,国分町３丁目１１番３０－９０３号,,04,101,9800803,,,,,,,2021-07-16,1,,,,,ファブリック,0
629,2460101007029,新規,0,2021-07-16,2021-07-16,株式会社杪の杜,,株式会社,北海道,帯広市,西十九条南１丁目７番地３０,,01,207,0802469,,,,,,,2021-07-16,1,,,,,コズエノモリ,0
635,2480003001689,新規,0,2021-07-16,2021-07-16,合同会社Ｈ＆Ｃ　ＦｌｅｕｖｅⅡ,00123676,合同会社,徳島県,阿波市,吉野町柿原字原１４番地１,,36,206,7711401,,,,,,,2021-07-16,1,,,,,エイチアンドシーフルーヴツー,0
647,3010003035312,新規,0,2021-07-16,2021-07-16,室町インベストメント合同会社,,合同会社,東京都,中央区,銀座８丁目１０番１５号,,13,102,1040061,,,,,,,2021-07-16,1,,,,,ムロマチインベストメント,0
648,3010005033628,新規,0,2021-07-16,2021-07-16,一般社団法人キャンパスとまち計画研究所,,その他の設立登記法人,東京都,千代田区,富士見１丁目７番１２号,,13,101,1020071,,,,,,,2021-07-16,1,,,,,キャンパストマチケイカクケンキュウジョ,0
654,3010401161552,新規,0,2021-07-16,2021-07-16,世標検測認証日本株式会社,,株式会社,東京都,港区,南青山２丁目２番１５号,,13,103,1070062,,,,,,,2021-07-16,1,,,,,セヒョウケンソクニンショウニホン,0
656,3010403025722,新規,0,2021-07-16,2021-07-16,ＲＢソーラーパッション２合同会社,,合同会社,東京都,港区,虎ノ門３丁目２２番１０－２０１号,,13,103,1050001,,,,,,,2021-07-16,1,,,,,アールビーソーラーパッションツー,0
657,3010403025730,新規,0,2021-07-16,2021-07-16,Ｂｒｅｔｏｎｎｅｒｉｅ合同会社,,合同会社,東京都,港区,麻布十番２丁目２０番７号ＡＺＡＢＵＭＡＲＴＯ４０３,,13,103,1060045,,,,,,,2021-07-16,1,,,,,ブルトヌリー,0
664,3010603009046,新規,0,2021-07-16,2021-07-16,ネイランド＆ウォルドスポーツコンサルティング合同会社,,合同会社,東京都,江東区,塩浜１丁目４番３３－１２７号,,13,108,1350043,,,,,,,2021-07-16,1,,,,,ネイランドアンドウォルドスポーツコンサルティング,0
671,3010901049090,新規,0,2021-07-16,2021-07-16,株式会社ピザ・オブ・デス・レコーディングス,,株式会社,東京都,世田谷区,千歳台３丁目１番２号,,13,112,1570071,,,,,,,2021-07-16,1,,,,,ピザオブデスレコーディングス,0
674,3010903006676,新規,0,2021-07-16,2021-07-16,心結び合同会社,,合同会社,東京都,世田谷区,等々力５丁目２９－３ケイスイハイツ２０３,,13,112,1580082,,,,,,,2021-07-16,1,,,,,ココロムスビ,0
698,3011603003352,新規,0,2021-07-16,2021-07-16,ＶＩＳＩＯＮ　ＣＯＮＳＵＬＴＩＮＧ合同会社,,合同会社,東京都,練馬区,中村北３丁目８番１５号,,13,120,1760023,,,,,,,2021-07-16,1,,,,,ビジョンコンサルティング,0
699,3011701024548,新規,0,2021-07-16,2021-07-16,株式会社フラッグスタッフ,,株式会社,東京都,江戸川区,松江５丁目１３番１号,,13,123,1320025,,,,,,,2021-07-16,1,,,,,フラッグスタッフ,0
705,3012701016584,新規,0,2021-07-16,2021-07-16,明碩株式会社,,株式会社,東京都,小平市,学園東町１丁目１５－４０－５ファミリーハイツ１０１号,,13,211,1870043,,,,,,,2021-07-16,1,,,,,メイセキ,0
713,3013303005752,新規,0,2021-07-16,2021-07-16,合同会社ｕｒａｈａｋｕ,,合同会社,東京都,豊島区,駒込２丁目１２番１３号大蔵ビル２０２号,,13,116,1700003,,,,,,,2021-07-16,1,,,,,ウラハク,0
716,3020001142258,新規,0,2021-07-16,2021-07-16,株式会社Ｌｕｋｅ　Ｃａｐｉｔａｌ　Ｐａｒｔｎｅｒｓ,,株式会社,神奈川県,川崎市高津区,久本１丁目８－２,,14,134,2130011,,,,,,,2021-07-16,1,,,,,ルークキャピタルパートナーズ,0
720,3020003020123,新規,0,2021-07-16,2021-07-16,合同会社ＨＯＭＥ,,合同会社,神奈川県,横浜市中区,元町４丁目１６８番地,,14,104,2310861,,,,,,,2021-07-16,1,,,,,ホーム,0
726,3021001073427,新規,0,2021-07-16,2021-07-16,ハイブリッジ・マネジメント株式会社,,株式会社,神奈川県,鎌倉市,七里ガ浜東３丁目１１番２号,,14,204,2480025,,,,,,,2021-07-16,1,,,,,ハイブリッジマネジメント,0
733,3030001143387,新規,0,2021-07-16,2021-07-16,ＯＮＥ株式会社,,株式会社,埼玉県,さいたま市西区,大字二ツ宮８２番地,,11,101,3310065,,,,,,,2021-07-16,1,,,,,ワン,0
734,3030003017639,新規,0,2021-07-16,2021-07-16,合同会社Ｈａｌｌｏ　Ｇａｌｌｏ,,合同会社,埼玉県,所沢市,東町１０番５号,,11,208,3591116,,,,,,,2021-07-16,1,,,,,ハローガロー,0
738,3040001119312,新規,0,2021-07-16,2021-07-16,株式会社トラスト,,株式会社,千葉県,八千代市,高津３４０番地６５,,12,221,2760036,,,,,,,2021-07-16,1,,,,,トラスト,0
739,3040001119386,新規,0,2021-07-16,2021-07-16,株式会社ネクストキャピタルマネジメント,,株式会社,千葉県,館山市,北条１６３３番地,,12,205,2940045,,,,,,,2021-07-16,1,,,,,ネクストキャピタルマネジメント,0
740,3040001119394,新規,0,2021-07-16,2021-07-16,株式会社加門,,株式会社,千葉県,我孫子市,天王台２丁目１７番７号,,12,222,2701143,,,,,,,2021-07-16,1,,,,,カモン,0
741,3040001119403,新規,0,2021-07-16,2021-07-16,株式会社ＳＯＬＵＴＩＯＮ,,株式会社,千葉県,千葉市若葉区,小倉台７丁目１番７号,,12,104,2640006,,,,,,,2021-07-16,1,,,,,ソリューション,0
743,3040003018173,新規,0,2021-07-16,2021-07-16,桜花日本合同会社,,合同会社,千葉県,佐倉市,中志津１丁目２１番１１号,,12,212,2850843,,,,,,,2021-07-16,1,,,,,サクラハナニホン,0
744,3040003018181,新規,0,2021-07-16,2021-07-16,合同会社ＭＴＭＡ,,合同会社,千葉県,船橋市,本中山２丁目８番２２－３０４号,,12,204,2730035,,,,,,,2021-07-16,1,,,,,エムティエムエイ,0
746,3040005021282,新規,0,2021-07-16,2021-07-16,特定非営利活動法人ＴＡＳＥＥＬ　Ｊａｐａｎ,,その他の設立登記法人,千葉県,松戸市,常盤平５丁目１１番１７号,,12,207,2702261,,,,,,,2021-07-16,1,,,,,タッセルジャパン,0
749,3050001049558,新規,0,2021-07-16,2021-07-16,株式会社シックス,,株式会社,茨城県,つくば市,谷田部５６３８番地１０,,08,220,3050861,,,,,,,2021-07-16,1,,,,,シックス,0
753,3050003005988,新規,0,2021-07-16,2021-07-16,合同会社Ｅｉｇｈｔ,,合同会社,茨城県,水戸市,宮町１丁目５番１－１５０１号ヴェルスコート水戸,,08,201,3100015,,,,,,,2021-07-16,1,,,,,エイト,0
759,3070001038278,新規,0,2021-07-16,2021-07-16,ＴＨＥ　ＳＯＣＩＯ株式会社,,株式会社,群馬県,高崎市,島野町６０８番地７,,10,202,3700015,,,,,,,2021-07-16,1,,,,,ソシオ,0
773,3100003006171,新規,0,2021-07-16,2021-07-16,合同会社ＯＳＡＨＩＭＥ,,合同会社,長野県,飯田市,上郷別府３３５１番地１７,,20,205,3950003,,,,,,,2021-07-16,1,,,,,オサヒメ,0
793,3120001238938,新規,0,2021-07-16,2021-07-16,株式会社サードフォワード,,株式会社,大阪府,大阪市中央区,日本橋１丁目１７－１７ピカソ日本一ビル６０４号室,,27,128,5420073,,,,,,,2021-07-16,1,,,,,サードフォワード,0
794,3120001238979,新規,0,2021-07-16,2021-07-16,株式会社Ｓｉｄｅ　ｔｈｒｅｅ,,株式会社,大阪府,大阪市浪速区,大国３丁目９番２７号大国ビル３０２号室,,27,111,5560014,,,,,,,2021-07-16,1,,,,,サイドスリー,0
803,3120101063963,新規,0,2021-07-16,2021-07-16,株式会社優志建設,,株式会社,大阪府,河内長野市,小山田町１０８番１,,27,216,5860094,,,,,,,2021-07-16,1,,,,,ユウシケンセツ,0
810,3120105009426,新規,0,2021-07-16,2021-07-16,医療法人清咲会,,その他の設立登記法人,大阪府,泉南郡熊取町,野田４丁目２０８５番１号,,27,361,5900451,,,,,,,2021-07-16,1,,,,,セイショウカイ,0
816,3122003002132,新規,0,2021-07-16,2021-07-16,合同会社アシスト２４,,合同会社,大阪府,八尾市,山本高安町２丁目８番１２号,,27,212,5810021,,,,,,,2021-07-16,1,,,,,アシストトゥエンティフォー,0
824,3130001069746,新規,0,2021-07-16,2021-07-16,株式会社ＪＯＩＮＴＳ,,株式会社,京都府,京都市伏見区,下鳥羽但馬町１６４番地藤林倉庫２号,,26,109,6128208,,,,,,,2021-07-16,1,,,,,ジョインツ,0
825,3130005016216,新規,0,2021-07-16,2021-07-16,特定非営利活動法人ティンバーライフラボ,,その他の設立登記法人,京都府,向日市,寺戸町三ノ坪４番地の３８,,26,208,6170002,,,,,,,2021-07-16,1,,,,,ティンバーライフラボ,0
833,3140001122322,新規,0,2021-07-16,2021-07-16,山本経営会計株式会社,,株式会社,兵庫県,芦屋市,船戸町６番１９－１０７号,,28,206,6590093,,,,,,,2021-07-16,1,,,,,ヤマモトケイエイカイケイ,0
843,3180003022748,新規,0,2021-07-16,2021-07-16,合同会社ｍｙｔｉ,,合同会社,愛知県,長久手市,岩作三ケ峯３６番地９,,23,238,4801103,,,,,,,2021-07-16,1,,,,,マイティー,0
844,3180003022756,新規,0,2021-07-16,2021-07-16,合同会社Ｉｄｅａｌ,,合同会社,愛知県,名古屋市中区,新栄１丁目３８－７パークハイベリー新栄２０１,,23,106,4600007,,,,,,,2021-07-16,1,,,,,イデアル,0
845,3180005019370,新規,0,2021-07-16,2021-07-16,医療法人めぐる,,その他の設立登記法人,愛知県,名古屋市天白区,原１丁目１４１０番地サンモール原１０３号,,23,116,4680015,,,,,,,2021-07-16,1,,,,,メグル,0
847,3180303005056,新規,0,2021-07-16,2021-07-16,フォレスターズ合同会社,,合同会社,愛知県,岡崎市,美合町字五反田７番地１日研オフィスビル１０２号室,,23,202,4440802,,,,,,,2021-07-16,1,,,,,フォレスターズ,0
853,3200003005262,新規,0,2021-07-16,2021-07-16,生活Ｄｅｓｉｇｎ工房Ｈｏｍｅｌｙ合同会社,,合同会社,岐阜県,岐阜市,高田３丁目１８番７号,,21,201,5008224,,,,,,,2021-07-16,1,,,,,セイカツデザインコウボウホームリー,0
864,3230001018908,新規,0,2021-07-16,2021-07-16,株式会社プレイグラウンド,,株式会社,富山県,富山市,杉谷４７６番地２,,16,201,9300152,,,,,,,2021-07-16,1,,,,,プレイグラウンド,0
867,3230005009151,新規,0,2021-07-16,2021-07-16,医療法人社団洸緑会,,その他の設立登記法人,富山県,滑川市,柳原８５番地１,,16,206,9360023,,,,,,,2021-07-16,1,,,,,コウリョクカイ,0
889,3290005018279,新規,0,2021-07-16,2021-07-16,一般社団法人ＦＢＱ,,その他の設立登記法人,福岡県,大牟田市,大字手鎌３０４番地５,,40,202,8360004,,,,,,,2021-07-16,1,,,,,エフビーキュー,0
900,3330001028806,新規,0,2021-07-16,2021-07-16,株式会社マークランド,,株式会社,熊本県,熊本市中央区,安政町２番３８号,,43,101,8600801,,,,,,,2021-07-16,1,,,,,マークランド,0
904,3350001017204,新規,0,2021-07-16,2021-07-16,株式会社アライヴ,,株式会社,宮崎県,宮崎市,大塚町馬場崎３５４４番地１グレイスフルⅠ－２０４号,00123675,45,201,8800951,,,,,,,2021-07-16,1,,,,,アライヴ,0
910,3370001047348,新規,0,2021-07-16,2021-07-16,株式会社高野ホールディングス,,株式会社,宮城県,本吉郡南三陸町,志津川字天王山１３５番地１,,04,606,9860728,,,,,,,2021-07-16,1,,,,,タカノホールディングス,0
911,3370003005312,新規,0,2021-07-16,2021-07-16,合同会社ｔｒｙＡｎｇｌｅ,,合同会社,宮城県,仙台市若林区,清水小路６番地の１東日本不動産仙台ファーストビル１階,,04,103,9840075,,,,,,,2021-07-16,1,,,,,トライアングル,0
913,3390001016540,新規,0,2021-07-16,2021-07-16,フェルメクテス株式会社,,株式会社,山形県,鶴岡市,布目字宮田１０２番地２４,,06,203,9970851,,,,,,,2021-07-16,1,,,,,フェルメクテス,0
922,3400001015524,新規,0,2021-07-16,2021-07-16,株式会社ＶＥＮＵＳ,,株式会社,岩手県,北上市,若宮町１丁目９番１２号,,03,206,0240064,,,,,,,2021-07-16,1,,,,,ヴィーナス,0
929,3430001084574,新規,0,2021-07-16,2021-07-16,株式会社ケーラック,,株式会社,北海道,札幌市白石区,北郷三条８丁目５番１６号,,01,104,0030833,,,,,,,2021-07-16,1,,,,,ケーラック,0
933,3460101007028,新規,0,2021-07-16,2021-07-16,株式会社トカチェロ,,株式会社,北海道,帯広市,西十九条南１丁目７番地３０,,01,207,0802469,,,,,,,2021-07-16,1,,,,,トカチェロ,0
939,3480005006850,新規,0,2021-07-16,2021-07-16,一般社団法人ＣｏＦａｍｉｌｙ,,その他の設立登記法人,徳島県,美馬市,脇町大字脇町１１７番地１,,36,207,7793610,,,,,,,2021-07-16,1,,,,,コファミリー,0
962,4010005033627,新規,0,2021-07-16,2021-07-16,はやぶさトラスト監査法人,,その他の設立登記法人,東京都,千代田区,九段北１丁目１０番５号,,13,101,1020073,,,,,,,2021-07-16,1,,,,,ハヤブサトラスト,0
970,4010601059653,新規,0,2021-07-16,2021-07-16,パシフィック株式会社,,株式会社,東京都,墨田区,立花５丁目５０番２８－５３１号,,13,107,1310043,,,,,,,2021-07-16,1,,,,,パシフィック,0
982,4011001141745,新規,0,2021-07-16,2021-07-16,株式会社栄信,,株式会社,東京都,渋谷区,初台２丁目１１番９号,,13,113,1510061,,,,,,,2021-07-16,1,,,,,エイシン,0
983,4011003013067,新規,0,2021-07-16,2021-07-16,合同会社リフト,,合同会社,東京都,目黒区,東が丘１丁目５番２２号,,13,110,1520021,,,,,,,2021-07-16,1,,,,,リフト,0
984,4011005009121,新規,0,2021-07-16,2021-07-16,一般社団法人全国簡易トイレ普及協会,,その他の設立登記法人,東京都,目黒区,目黒１丁目４番地８号,,13,110,1530063,,,,,,,2021-07-16,1,,,,,ゼンコクカンイトイレフキュウキョウカイ,0
986,4011101095726,新規,0,2021-07-16,2021-07-16,株式会社触覚舎,,株式会社,東京都,新宿区,西落合２丁目１５番７号,,13,104,1610031,,,,,,,2021-07-16,1,,,,,ショッカクシャ,0
989,4011105009871,新規,0,2021-07-16,2021-07-16,弁護士法人アライズ,,その他の設立登記法人,東京都,新宿区,四谷２丁目２－１四谷フジビル４階,,13,104,1600004,,,,,,,2021-07-16,1,,,,,アライズ,0
1004,4012403004944,新規,0,2021-07-16,2021-07-16,合同会社ネオユニバース,,合同会社,東京都,調布市,緑ケ丘２丁目３７番地８５エスポワールⅡ１０１,00123666,13,208,1820001,,,,,,,2021-07-16,1,,,,,ネオユニバース,0
1018,4020001142133,新規,0,2021-07-16,2021-07-16,株式会社ＵＰＳＴＡＲＴ,,株式会社,神奈川県,川崎市麻生区,王禅寺西５丁目１３番４号,,14,137,2150017,,,,,,,2021-07-16,1,,,,,アップスタート,0
1019,4020001142240,新規,0,2021-07-16,2021-07-16,株式会社ＡＰ　Ｓｉｇｎａｔｕｒｅ,,株式会社,神奈川県,川崎市高津区,溝口４丁目５番５号山中屋ビル３０３,,14,134,2130001,,,,,,,2021-07-16,1,,,,,エーピーシグネチャー,0
1022,4020003020196,新規,0,2021-07-16,2021-07-16,ＭＴ合同会社,,合同会社,神奈川県,横浜市中区,羽衣町２丁目８－１ザ・パークハビオ横浜関内１００６,,14,104,2310047,,,,,,,2021-07-16,1,,,,,エムティー,0
1026,4021001073376,新規,0,2021-07-16,2021-07-16,株式会社ｍｏｎｏｇｏｔｏ,,株式会社,神奈川県,鎌倉市,常盤１８番地３－５０３,,14,204,2480022,,,,,,,2021-07-16,1,,,,,モノゴト,0
1027,4021001073418,新規,0,2021-07-16,2021-07-16,株式会社ＭＡＬＩＢＵ,,株式会社,神奈川県,相模原市南区,当麻８８４番地１３フ・ミールボタンＢ１０１,,14,153,2520336,,,,,,,2021-07-16,1,,,,,マリブ,0
1028,4021001073426,新規,0,2021-07-16,2021-07-16,株式会社Ｈａｃｏｂｕｎｅ,,株式会社,神奈川県,厚木市,妻田東３丁目２０番２４号,,14,212,2430813,,,,,,,2021-07-16,1,,,,,ハコブネ,0
1030,4021003010699,新規,0,2021-07-16,2021-07-16,合同会社結,,合同会社,神奈川県,相模原市中央区,上溝３９４８番地１エクレール相模原４０７号,,14,152,2520243,,,,,,,2021-07-16,1,,,,,,0
1034,4030001143329,新規,0,2021-07-16,2021-07-16,株式会社ＫＨＡＮインターナショナル,,株式会社,埼玉県,川越市,上殿３１５－１４０パールハイツ霞３０３,,11,201,3501100,,,,,,,2021-07-16,1,,,,,カンインターナショナル,0
1035,4030001143353,新規,0,2021-07-16,2021-07-16,株式会社日鑫商事,00123682,株式会社,埼玉県,春日部市,東中野８３２番地１０,,11,214,3440114,,,,,,,2021-07-16,1,,,,,ニッキンショウジ,0
1044,4040001119385,新規,0,2021-07-16,2021-07-16,株式会社ＦＵＫＵＣＨＩ工業,,株式会社,千葉県,千葉市花見川区,こてはし台５丁目２番９号,,12,102,2620005,,,,,,,2021-07-16,1,,,,,フクチコウギョウ,0
1045,4040001119393,新規,0,2021-07-16,2021-07-16,株式会社ＭＳコーポレーション,,株式会社,千葉県,松戸市,東松戸１丁目８番地の７,,12,207,2702225,,,,,,,2021-07-16,1,,,,,エムエスコーポレーション,0
1046,4040001119402,新規,0,2021-07-16,2021-07-16,ＧＯＳＨＩＡ　ＥＬＥＶＥＮ株式会社,,株式会社,千葉県,野田市,木間ケ瀬３００５番地５,,12,208,2700222,,,,,,,2021-07-16,1,,,,,ゴシアイレブン,0
1051,4040003018172,新規,0,2021-07-16,2021-07-16,合同会社Ｓｗａｉｌｅ,,合同会社,千葉県,船橋市,駿河台２丁目３２番３８－２号,,12,204,2730862,,,,,,,2021-07-16,1,,,,,スワイル,0
1052,4040003018180,新規,0,2021-07-16,2021-07-16,プレリアール合同会社,,合同会社,千葉県,松戸市,小金４４４番地の１８１,,12,207,2700014,,,,,,,2021-07-16,1,,,,,プレリアール,0
1056,4050001049549,新規,0,2021-07-16,2021-07-16,株式会社ＩＫＥＫＯホールディングス,,株式会社,茨城県,結城市,大字結城９５９３番地,,08,207,3070001,,,,,,,2021-07-16,1,,,,,イケコーホールディングス,0
1057,4050001049557,新規,0,2021-07-16,2021-07-16,株式会社Ａ．Ⅰ．,00123668,株式会社,茨城県,つくば市,君島９８６番地３,,08,220,3004233,,,,,,,2021-07-16,1,,,,,アイ,0
1058,4050001049565,新規,0,2021-07-16,2021-07-16,株式会社サービスエンジニアフクダ,,株式会社,茨城県,牛久市,岡見町２２９７番地４,,08,219,3001204,,,,,,,2021-07-16,1,,,,,サービスエンジニアフクダ,0
1067,4070001038260,新規,0,2021-07-16,2021-07-16,株式会社ＴＲＩＢＥ,,株式会社,群馬県,前橋市,朝倉町１丁目１０番地７セゾン朝倉Ａ－２０１号,,10,201,3710811,,,,,,,2021-07-16,1,,,,,トライブ,0
1070,4080001024334,新規,0,2021-07-16,2021-07-16,株式会社一番星,,株式会社,静岡県,静岡市葵区,上足洗３丁目７番３８－３号,,22,101,4200841,,,,,,,2021-07-16,1,,,,,イチバンボシ,0
1075,4080105006154,新規,0,2021-07-16,2021-07-16,特定非営利活動法人伊豆リゾートワーケーション協会,,その他の設立登記法人,静岡県,賀茂郡東伊豆町,奈良本１２４６番地の７３,,22,301,4130302,,,,,,,2021-07-16,1,,,,,イズリゾートワーケーションキョウカイ,0
1096,4120001239101,新規,0,2021-07-16,2021-07-16,リアライズ株式会社,,株式会社,大阪府,守口市,南寺方東通６丁目２７番１号,,27,209,5700043,,,,,,,2021-07-16,1,,,,,リアライズ,0
1100,4120003019864,新規,0,2021-07-16,2021-07-16,合同会社Ｉｙａｓｏ,,合同会社,大阪府,寝屋川市,三井が丘４丁目２番１１１－３号,,27,215,5720013,,,,,,,2021-07-16,1,,,,,イヤソ,0
1106,4120101063995,新規,0,2021-07-16,2021-07-16,株式会社竹斗,,株式会社,大阪府,堺市堺区,九間町東１丁２番２０号,,27,141,5900934,,,,,,,2021-07-16,1,,,,,タケトウ,0
1109,4120905006200,新規,0,2021-07-16,2021-07-16,一般社団法人ＪＭＡＡ,,その他の設立登記法人,大阪府,高槻市,城北町２丁目２番９号杉山商事ビル２Ｆ,,27,207,5690071,,,,,,,2021-07-16,1,,,,,ジェイエムエーエー,0
1112,4122001034928,新規,0,2021-07-16,2021-07-16,株式会社サイン,,株式会社,大阪府,東大阪市,横小路町１丁目３－６－１０１号室,,27,227,5798063,,,,,,,2021-07-16,1,,,,,サイン,0
1113,4122001035001,新規,0,2021-07-16,2021-07-16,株式会社仁,,株式会社,大阪府,八尾市,山本町南３丁目６番１－２０２号スイート・マヤ,,27,212,5810013,,,,,,,2021-07-16,1,,,,,ジン,0
1114,4122003002131,新規,0,2021-07-16,2021-07-16,Ｔｈｒｙ合同会社,,合同会社,大阪府,四條畷市,清滝中町１５－１７,,27,229,5750061,,,,,,,2021-07-16,1,,,,,スリー,0
1128,4170001016677,新規,0,2021-07-16,2021-07-16,株式会社ブループリントフィナンシャル,,株式会社,和歌山県,海南市,野尻１５７番地１,,30,202,6400453,,,,,,,2021-07-16,1,,,,,ブループリントフィナンシャル,0
1150,4200003005261,新規,0,2021-07-16,2021-07-16,ＴＴＨ合同会社,,合同会社,岐阜県,本巣郡北方町,高屋白木１丁目５６番地ＳＡＮＴＥ８８－１０５号,,21,421,5010454,,,,,,,2021-07-16,1,,,,,ティティエイチ,0
1158,4240001058290,新規,0,2021-07-16,2021-07-16,株式会社ネクステージ,,株式会社,広島県,広島市佐伯区,皆賀２丁目１０番３４－２０２号,,34,108,7315124,,,,,,,2021-07-16,1,,,,,ネクステージ,0
1161,4240003005200,新規,0,2021-07-16,2021-07-16,八笑堂合同会社,,合同会社,広島県,三原市,小泉町５２６９番地２,,34,204,7292361,,,,,,,2021-07-16,1,,,,,ハッショウドウ,0
1165,4260001035775,新規,0,2021-07-16,2021-07-16,株式会社タウンリフォーム,,株式会社,岡山県,岡山市南区,泉田４１３－６,,33,104,7000944,,,,,,,2021-07-16,1,,,,,タウンリフォーム,0
1172,4260003003631,新規,0,2021-07-16,2021-07-16,ペイントショップ岡田合同会社,,合同会社,岡山県,岡山市南区,藤田１８２番地２,,33,104,7010221,,,,,,,2021-07-16,1,,,,,ペイントショップオカダ,0
1190,4330001028805,新規,0,2021-07-16,2021-07-16,株式会社ＦＵＮＯＶＡ,,株式会社,熊本県,菊池郡大津町,大字大林７８７番地１,,43,403,8691219,,,,,,,2021-07-16,1,,,,,ファノーバ,0
1191,4330001028813,新規,0,2021-07-16,2021-07-16,株式会社九経ファーム,,株式会社,熊本県,熊本市東区,保田窪３丁目４番１５号,,43,102,8620926,,,,,,,2021-07-16,1,,,,,キュウケイファーム,0
1199,4350001017203,新規,0,2021-07-16,2021-07-16,株式会社瀨之口商店,00123674,株式会社,宮崎県,都城市,山田町中霧島３１６２番地１０,,45,202,8894602,,,,,,,2021-07-16,1,,,,,セノクチショウテン,0
1219,4420003002352,新規,0,2021-07-16,2021-07-16,合同会社雷音,,合同会社,青森県,青森市,本町２丁目１１番１号エアビル１０Ｄ,,02,201,0300802,,,,,,,2021-07-16,1,,,,,ライオン,0
1225,4430001084565,新規,0,2021-07-16,2021-07-16,株式会社エーティーワークス,,株式会社,北海道,札幌市東区,北三十五条東１丁目５番４０号セザール東麻生２０７,,01,103,0070835,,,,,,,2021-07-16,1,,,,,エーティーワークス,0
1226,4430001084573,新規,0,2021-07-16,2021-07-16,株式会社啓北,,株式会社,北海道,札幌市北区,屯田九条６丁目４番３４号,,01,102,0020859,,,,,,,2021-07-16,1,,,,,ケイホク,0
1236,4460301004996,新規,0,2021-07-16,2021-07-16,株式会社アウル工業,,株式会社,北海道,北見市,緑ケ丘３丁目２１番１９号,,01,208,0900067,,,,,,,2021-07-16,1,,,,,アウルコウギョウ,0
1240,4470001018619,新規,0,2021-07-16,2021-07-16,株式会社エスコート,,株式会社,香川県,三豊市,詫間町詫間１１８３番地３７,,37,208,7691101,,,,,,,2021-07-16,1,,,,,エスコート,0
1247,4490001009938,新規,0,2021-07-16,2021-07-16,アーバンコーポレーション株式会社,,株式会社,高知県,高知市,永国寺町１番３９号,,39,201,7800844,,,,,,,2021-07-16,1,,,,,アーバンコーポレーション,0
1249,4700150103354,新規,0,2021-07-16,2021-05-21,ふつふつ市場,,その他,長崎県,南島原市,布津町乙１３５８－１番地,,42,214,8592112,,,,,,,2021-05-21,1,,,,,フツフツイチバ,0
1260,5010001219749,新規,0,2021-07-16,2021-07-16,株式会社アウレ,,株式会社,東京都,千代田区,神田小川町２丁目１２番地,,13,101,1010052,,,,,,,2021-07-16,1,,,,,アウレ,0
1261,5010001219765,新規,0,2021-07-16,2021-07-16,ジャッカルホールディングス株式会社,,株式会社,東京都,千代田区,大手町１丁目５番１号,,13,101,1000004,,,,,,,2021-07-16,1,,,,,ジャッカルホールディングス,0
1266,5010005033659,新規,0,2021-07-16,2021-07-16,オフィスたかやま行政書士法人,,その他の設立登記法人,東京都,中央区,日本橋大伝馬町１３－７日本橋大富ビル２階,,13,102,1030011,,,,,,,2021-07-16,1,,,,,オフィスタカヤマ,0
1277,5010401161385,新規,0,2021-07-16,2021-07-16,ＣＲＯＳＳ株式会社,,株式会社,東京都,港区,南青山２丁目２番８号,,13,103,1070062,,,,,,,2021-07-16,1,,,,,クロス,0
1278,5010401161550,新規,0,2021-07-16,2021-07-16,共和エンタープライズ株式会社,,株式会社,東京都,港区,赤坂３丁目１１番１４号,,13,103,1070052,,,,,,,2021-07-16,1,,,,,キョウワエンタープライズ,0
1282,5010601059644,新規,0,2021-07-16,2021-07-16,株式会社Ｇｏｌｄｍａｎ．Ｃｏｒｐｏｒａｔｉｏｎ．Ｊａｐａｎ,,株式会社,東京都,江東区,潮見２丁目６番１号,,13,108,1350052,,,,,,,2021-07-16,1,,,,,ゴールドマンコーポレーションジャパン,0
1285,5010603009044,新規,0,2021-07-16,2021-07-16,合同会社アイスソード,,合同会社,東京都,江東区,塩浜２丁目２９番１０－８０９号,,13,108,1350043,,,,,,,2021-07-16,1,,,,,アイスソード,0
1287,5010701041262,新規,0,2021-07-16,2021-07-16,株式会社Ａ・Ｚ　ＰＡＲＴＮＥＲＳ,,株式会社,東京都,品川区,南大井６丁目２４番１４号,,13,109,1400013,,,,,,,2021-07-16,1,,,,,エーズィーパートナーズ,0
1289,5010801032145,新規,0,2021-07-16,2021-07-16,ＦｏｒｔｕｎｅＦｉｒｅｆｌｙ株式会社,,株式会社,東京都,大田区,大森北２丁目１４番１－１１０１号,,13,111,1430016,,,,,,,2021-07-16,1,,,,,フォーチュンファイヤーフライ,0
1291,5010803003813,新規,0,2021-07-16,2021-07-16,合同会社メイ,,合同会社,東京都,大田区,萩中３丁目１１番５－６０１号,,13,111,1440047,,,,,,,2021-07-16,1,,,,,メイ,0
1296,5010903006674,新規,0,2021-07-16,2021-07-16,合同会社ｃｃｃｃｃｃｃ．ｃ,,合同会社,東京都,世田谷区,三軒茶屋２丁目１９－１５ナザレンハイツ三軒茶屋８０３,,13,112,1540024,,,,,,,2021-07-16,1,,,,,シーセブンカンパニー,0
1302,5011001141604,新規,0,2021-07-16,2021-07-16,株式会社トランジットメキシカンフードオペレーション,,株式会社,東京都,渋谷区,恵比寿４丁目２０番４号,,13,113,1500013,,,,,,,2021-07-16,1,,,,,トランジットメキシカンフードオペレーション,0
1303,5011001141744,新規,0,2021-07-16,2021-07-16,株式会社ＴＥＮＵ,,株式会社,東京都,渋谷区,渋谷２丁目７番１４－３０２号,,13,113,1500002,,,,,,,2021-07-16,1,,,,,テンユウ,0
1304,5011001141819,新規,0,2021-07-16,2021-07-16,ｗｏｒｔｈ株式会社,,株式会社,東京都,渋谷区,代官山町８番９号,,13,113,1500034,,,,,,,2021-07-16,1,,,,,ワース,0
1308,5011101095626,新規,0,2021-07-16,2021-07-16,株式会社エムティーアイ・ヘルスケア・ホールディングス,,株式会社,東京都,新宿区,西新宿３丁目２０番２号,,13,104,1600023,,,,,,,2021-07-16,1,,,,,エムティーアイヘルスケアホールディングス,0
1312,5011301027057,新規,0,2021-07-16,2021-07-16,株式会社ヴィレッジ,,株式会社,東京都,杉並区,方南２丁目１番１５号方南テラスＮ３０１,,13,115,1680062,,,,,,,2021-07-16,1,,,,,ヴィレッジ,0
1313,5011305002758,新規,0,2021-07-16,2021-07-16,一般社団法人寺子屋経営塾,,その他の設立登記法人,東京都,杉並区,阿佐谷北１丁目２５番２８号,,13,115,1660001,,,,,,,2021-07-16,1,,,,,テラコヤケイエイジュク,0
1317,5011503004837,新規,0,2021-07-16,2021-07-16,合同会社ＷＫ,,合同会社,東京都,北区,滝野川２丁目１５番４号清和荘６号室,,13,117,1140023,,,,,,,2021-07-16,1,,,,,ダブリューケー,0
1324,5012403004943,新規,0,2021-07-16,2021-07-16,ＯＮＥ－Ｈｏｕｒ合同会社,,合同会社,東京都,府中市,新町１丁目８番地の１４,,13,206,1830052,,,,,,,2021-07-16,1,,,,,ワンアワー,0
1331,5020001142272,新規,0,2021-07-16,2021-07-16,株式会社北郷建装,,株式会社,神奈川県,横浜市緑区,三保町２７１０番地２２７,,14,113,2260015,,,,,,,2021-07-16,1,,,,,キタゴウケンソウ,0
1334,5020003020187,新規,0,2021-07-16,2021-07-16,合同会社ファーストメディア,,合同会社,神奈川県,川崎市幸区,南加瀬４丁目２番１１号エスポワール日吉１０７,,14,132,2120055,,,,,,,2021-07-16,1,,,,,ファーストメディア,0
1336,5020005015136,新規,0,2021-07-16,2021-07-16,一般社団法人日本フォーチュントラベル協会,,その他の設立登記法人,神奈川県,横浜市瀬谷区,三ツ境１３６番地４,,14,114,2460022,,,,,,,2021-07-16,1,,,,,ニホンフォーチュントラベルキョウカイ,0
1341,5021001073400,新規,0,2021-07-16,2021-07-16,株式会社ＦＩＤＥＭ,,株式会社,神奈川県,鎌倉市,大船１丁目１２番１０号湘南第５ビル４Ｆ,,14,204,2470056,,,,,,,2021-07-16,1,,,,,フィデム,0
1342,5021001073425,新規,0,2021-07-16,2021-07-16,株式会社寝台レスキュー,,株式会社,神奈川県,相模原市南区,新磯野１丁目２２番１２－１号,,14,153,2520325,,,,,,,2021-07-16,1,,,,,シンダイレスキュー,0
1343,5021001073433,新規,0,2021-07-16,2021-07-16,株式会社ＯＡＫＳ,,株式会社,神奈川県,鎌倉市,小袋谷２丁目４番１３－３号,,14,204,2470055,,,,,,,2021-07-16,1,,,,,オークス,0
1355,5030001143328,新規,0,2021-07-16,2021-07-16,株式会社ワールドヒューマン,,株式会社,埼玉県,川口市,芝富士２丁目３番２３号,,11,203,3330854,,,,,,,2021-07-16,1,,,,,ワールドヒューマン,0
1356,5030002042355,新規,0,2021-07-16,2021-07-16,有限会社松本製作所,,有限会社,埼玉県,加須市,南大桑２４０３番地,,11,210,3470015,,,,,,,2021-07-16,1,,,,,マツモトセイサクショ,0
1368,5040001119384,新規,0,2021-07-16,2021-07-16,株式会社Ａｉｍｅｅ,,株式会社,千葉県,千葉市中央区,千葉港７番２号ライオンズマンション千葉グランドタワー４０７,,12,101,2600026,,,,,,,2021-07-16,1,,,,,エメ,0
1369,5040001119392,新規,0,2021-07-16,2021-07-16,株式会社Ｓ．Ｔ商事,,株式会社,千葉県,四街道市,めいわ４丁目２番７号,,12,228,2840043,,,,,,,2021-07-16,1,,,,,エスティーショウジ,0
1370,5040001119401,新規,0,2021-07-16,2021-07-16,株式会社ＯＥＴコンサルティング,,株式会社,千葉県,我孫子市,本町３丁目９番５号,,12,222,2701151,,,,,,,2021-07-16,1,,,,,オーイーティーコンサルティング,0
1376,5050001049556,新規,0,2021-07-16,2021-07-16,株式会社ＡＧ・フローマー,,株式会社,茨城県,坂東市,弓田２６０５番地１,,08,228,3060607,,,,,,,2021-07-16,1,,,,,エイジーフローマー,0
1384,5070001038284,新規,0,2021-07-16,2021-07-16,株式会社深世界,,株式会社,群馬県,前橋市,元総社町１４１７番地１０,,10,201,3710846,,,,,,,2021-07-16,1,,,,,シンセカイ,0
1415,5120001238812,新規,0,2021-07-16,2021-07-16,Ｖｉｅｗｔｙ製薬株式会社,,株式会社,大阪府,大阪市中央区,本町４丁目２－１２野村不動産御堂筋本町ビル８Ｆ,,27,128,5410053,,,,,,,2021-07-16,1,,,,,ビューティーセイヤク,0
1416,5120001239100,新規,0,2021-07-16,2021-07-16,株式会社カツキインターナショナル,,株式会社,大阪府,大阪市中央区,博労町２丁目４番７号,,27,128,5410059,,,,,,,2021-07-16,1,,,,,カツキインターナショナル,0
1417,5120001239117,新規,0,2021-07-16,2021-07-16,株式会社神﨑工務店,00123672,株式会社,大阪府,枚方市,高野道２丁目１９－３,,27,210,5731131,,,,,,,2021-07-16,1,,,,,カンザキコウムテン,0
1418,5120001239125,新規,0,2021-07-16,2021-07-16,株式会社いぶ,,株式会社,大阪府,大阪市東住吉区,矢田２丁目２４番１７号,,27,121,5460023,,,,,,,2021-07-16,1,,,,,イブ,0
1419,5120001239141,新規,0,2021-07-16,2021-07-16,株式会社Ｒｅｇａｌｏ,,株式会社,大阪府,大阪市北区,中津７丁目２－１６ＴＧＣ・Ｎｏ．１０北梅田８０２号室,,27,127,5310071,,,,,,,2021-07-16,1,,,,,レガロ,0
1428,5120101063986,新規,0,2021-07-16,2021-07-16,株式会社ＤＡＩＴＯＳＨＩ,,株式会社,大阪府,和泉市,鶴山台４丁目１７番１－２号,,27,219,5940013,,,,,,,2021-07-16,1,,,,,ダイトシ,0
1431,5120103004253,新規,0,2021-07-16,2021-07-16,ディライトフルフューチャー合同会社,,合同会社,大阪府,堺市堺区,高砂町３丁８６番地２,,27,141,5900820,,,,,,,2021-07-16,1,,,,,ディライトフルフューチャー,0
1432,5120105009424,新規,0,2021-07-16,2021-07-16,医療法人四心会,,その他の設立登記法人,大阪府,泉大津市,昭和町６番６５号,,27,206,5950036,,,,,,,2021-07-16,1,,,,,シシンカイ,0
1442,5140001122320,新規,0,2021-07-16,2021-07-16,株式会社エレガンスビル,,株式会社,兵庫県,西宮市,上ケ原四番町１番４０号,,28,204,6620894,,,,,,,2021-07-16,1,,,,,エレガンスビル,0
1447,5140003016512,新規,0,2021-07-16,2021-07-16,合同会社ワンエム,,合同会社,兵庫県,豊岡市,弥栄町７－４アネックス弥栄１０２号室,,28,209,6680057,,,,,,,2021-07-16,1,,,,,ワンエム,0
1449,5150001024796,新規,0,2021-07-16,2021-07-16,株式会社石庭園グリーンサービス,,株式会社,奈良県,奈良市,横井６丁目６２１番地の３,,29,201,6308422,,,,,,,2021-07-16,1,,,,,セキテイエングリーンサービス,0
1451,5160001023483,新規,0,2021-07-16,2021-07-16,株式会社ＥＸＥ,,株式会社,滋賀県,栗東市,辻４６１－１（２Ｆ）,00123670,25,208,5203042,,,,,,,2021-07-16,1,,,,,エグゼ,0
1461,5180001147009,新規,0,2021-07-16,2021-07-16,株式会社ＷＥＬＬＳ　Ｕ,,株式会社,愛知県,名古屋市中村区,平池町４丁目６０番地の５,,23,105,4530872,,,,,,,2021-07-16,1,,,,,ウェルズユー,0
1462,5180001147025,新規,0,2021-07-16,2021-07-16,株式会社４ｃａｔ,,株式会社,愛知県,名古屋市中区,大須１丁目７番１４号,,23,106,4600011,,,,,,,2021-07-16,1,,,,,フォーキャット,0
1466,5180303005062,新規,0,2021-07-16,2021-07-16,合同会社いずみ,,合同会社,愛知県,岡崎市,康生通東１丁目２３番地,,23,202,4440045,,,,,,,2021-07-16,1,,,,,,0
1478,5220001024302,新規,0,2021-07-16,2021-07-16,株式会社トゥモローズランチ,,株式会社,石川県,金沢市,増泉１丁目２３番１３号１０２,,17,201,9218025,,,,,,,2021-07-16,1,,,,,トゥモローズランチ,0
1492,5250001019010,新規,0,2021-07-16,2021-07-16,株式会社ゆうなぎ法務コンサルティング,,株式会社,山口県,下関市,長府川端２丁目１０番１６号,,35,201,7520979,,,,,,,2021-07-16,1,,,,,ユウナギホウムコンサルティング,0
1504,5290003011424,新規,0,2021-07-16,2021-07-16,スキンメディコ合同会社,,合同会社,福岡県,太宰府市,石坂１丁目２１－９,,40,221,8180118,,,,,,,2021-07-16,1,,,,,スキンメディコ,0
1522,5360003011292,新規,0,2021-07-16,2021-07-16,天蛇合同会社,,合同会社,沖縄県,島尻郡南風原町,字新川２１３番地５,,47,350,9011105,,,,,,,2021-07-16,1,,,,,,0
1534,5390001016539,新規,0,2021-07-16,2021-07-16,株式会社山形財務サイエンス＆アーツ,,株式会社,山形県,山形市,城南町２丁目１１番１号,,06,201,9900827,,,,,,,2021-07-16,1,,,,,ヤマガタザイムサイエンツアンドアーツ,0
1562,5430003012952,新規,0,2021-07-16,2021-07-16,合同会社ビルドリーム,,合同会社,北海道,札幌市豊平区,豊平一条７丁目１番２３号１０２号室,,01,105,0620901,,,,,,,2021-07-16,1,,,,,ビルドリーム,0
1569,5480001011431,新規,0,2021-07-16,2021-07-16,株式会社出口不動産,,株式会社,徳島県,徳島市,八万町新貝１２１番地の８,,36,201,7708070,,,,,,,2021-07-16,1,,,,,デグチフドウサン,0
1571,5490001009937,新規,0,2021-07-16,2021-07-16,株式会社ｇｉｖｅ,,株式会社,高知県,高知市,朝倉横町２０番３５号,,39,201,7808074,,,,,,,2021-07-16,1,,,,,ギブ,0
1583,6010003035334,新規,0,2021-07-16,2021-07-16,合同会社日出国際化粧品,,合同会社,東京都,中央区,日本橋馬喰町１丁目４番２号ルクレ日本橋馬喰町６０５号,,13,102,1030002,,,,,,,2021-07-16,1,,,,,ヒノデコクサイケショウヒン,0
1591,6010405020025,新規,0,2021-07-16,2021-07-16,一般社団法人Ａｃｅ　Ｈｅａｌｔｈｃａｒｅ　Ｆｕｎｄ,,その他の設立登記法人,東京都,港区,南麻布５丁目２番３２号,,13,103,1060047,,,,,,,2021-07-16,1,,,,,エースヘルスケアファンド,0
1599,6010603009043,新規,0,2021-07-16,2021-07-16,合同会社ＳＨＩＮＡＬ　Ｊａｐａｎ,,合同会社,東京都,江東区,大島１丁目３９－１４シンコービル２Ｆ,,13,108,1360072,,,,,,,2021-07-16,1,,,,,シナルジャパン,0
1603,6010801032136,新規,0,2021-07-16,2021-07-16,株式会社森電機,,株式会社,東京都,大田区,大森東５丁目２７番２号,,13,111,1430012,,,,,,,2021-07-16,1,,,,,モリデンキ,0
1608,6010901049096,新規,0,2021-07-16,2021-07-16,株式会社川原商事,,株式会社,東京都,世田谷区,駒沢２丁目３０番４号,,13,112,1540012,,,,,,,2021-07-16,1,,,,,カワハラショウジ,0
1616,6011005009128,新規,0,2021-07-16,2021-07-16,一般社団法人グローバルタレントデベロップメント協議会,,その他の設立登記法人,東京都,渋谷区,西原３丁目１７番１５号地下１階,,13,113,1510066,,,,,,,2021-07-16,1,,,,,グローバルタレントデベロップメントキョウギカイ,0
1623,6011601025271,新規,0,2021-07-16,2021-07-16,株式会社Ｔａｓｔｅ　ａｎｄ　Ｌｏｇｉｃ,,株式会社,東京都,練馬区,関町南１丁目７番９号ウェリス上石神井１０３,,13,120,1770053,,,,,,,2021-07-16,1,,,,,,0
1630,6012703002266,新規,0,2021-07-16,2021-07-16,ＣＲＥＳＴ合同会社,,合同会社,東京都,東村山市,野口町１丁目２９番地７３,,13,213,1890022,,,,,,,2021-07-16,1,,,,,クレスト,0
1639,6020001142271,新規,0,2021-07-16,2021-07-16,株式会社マリンプラザ,,株式会社,神奈川県,横浜市港北区,新横浜１丁目１６番地４モア・クレストアクゼス新横浜１００２,,14,109,2220033,,,,,,,2021-07-16,1,,,,,マリンプラザ,0
1641,6020003020186,新規,0,2021-07-16,2021-07-16,Ｖスクエアード合同会社,,合同会社,神奈川県,横浜市西区,浅間町４丁目３３７番地９,,14,103,2200072,,,,,,,2021-07-16,1,,,,,ブイスクエアード,0
1644,6021001073424,新規,0,2021-07-16,2021-07-16,株式会社Ｍｅｌｌｏｗ　ｄｅｎｔａｌ,,株式会社,神奈川県,鎌倉市,鎌倉山１丁目１３番５－５０５号,,14,204,2480031,,,,,,,2021-07-16,1,,,,,メロウデンタル,0
1645,6021001073440,新規,0,2021-07-16,2021-07-16,クラン株式会社,,株式会社,神奈川県,藤沢市,片瀬１丁目６番３５号,,14,205,2510032,,,,,,,2021-07-16,1,,,,,クラン,0
1660,6030001143392,新規,0,2021-07-16,2021-07-16,株式会社東成エステート,,株式会社,埼玉県,桶川市,坂田西３丁目１０番地の７,,11,231,3630018,,,,,,,2021-07-16,1,,,,,トウセイエステート,0
1664,6040001119391,新規,0,2021-07-16,2021-07-16,株式会社アルヴィイタ＆アソシエイツ,,株式会社,千葉県,船橋市,本郷町６６７番地１,,12,204,2730033,,,,,,,2021-07-16,1,,,,,アルヴィイタアンドアソシエイツ,0
1668,6040003018179,新規,0,2021-07-16,2021-07-16,合同会社なごみソリューション,,合同会社,千葉県,佐倉市,臼井田１０２０,,12,212,2850861,,,,,,,2021-07-16,1,,,,,ナゴミショリューション,0
1670,6050001049563,新規,0,2021-07-16,2021-07-16,株式会社ＡＫＩＯ・Ｊ・Ｂ,,株式会社,茨城県,神栖市,高浜１５３９番地１,,08,232,3140125,,,,,,,2021-07-16,1,,,,,アキオジェービー,0
1671,6050003005985,新規,0,2021-07-16,2021-07-16,合同会社ロータス,,合同会社,茨城県,土浦市,手野町１９５０番地,,08,203,3000025,,,,,,,2021-07-16,1,,,,,ロータス,0
1681,6080101022657,新規,0,2021-07-16,2021-07-16,頣龍株式会社,00123662,株式会社,静岡県,裾野市,須山３０５番地の１,,22,220,4101231,,,,,,,2021-07-16,1,,,,,イーロン,0
1683,6080401025178,新規,0,2021-07-16,2021-07-16,東陽工業株式会社,,株式会社,静岡県,浜松市南区,鶴見町２７０２番地の４５,,22,134,4350022,,,,,,,2021-07-16,1,,,,,トウヨウコウギョウ,0
1684,6080401025203,新規,0,2021-07-16,2021-07-16,ＨＩＲＯ株式会社,,株式会社,静岡県,浜松市東区,北島町５９２番地,,22,132,4350041,,,,,,,2021-07-16,1,,,,,ヒロ,0
1689,6100001034452,新規,0,2021-07-16,2021-07-16,フードライフ株式会社,,株式会社,長野県,長野市,小島田町２１９４番地,,20,201,3812212,,,,,,,2021-07-16,1,,,,,フードライフ,0
1705,6120001239009,新規,0,2021-07-16,2021-07-16,株式会社ＥＤＥＮ,,株式会社,大阪府,大阪市中央区,難波５丁目１番６０号,,27,128,5420076,,,,,,,2021-07-16,1,,,,,エデン,0
1706,6120001239025,新規,0,2021-07-16,2021-07-16,進和興商株式会社,,株式会社,大阪府,大阪市平野区,平野元町５番５号Ｋ２ビル３０３室,,27,126,5470047,,,,,,,2021-07-16,1,,,,,シンワコウショウ,0
1707,6120001239082,新規,0,2021-07-16,2021-07-16,ウィズライト株式会社,,株式会社,大阪府,大阪市此花区,春日出中１丁目９番１３－２０２号,,27,104,5540022,,,,,,,2021-07-16,1,,,,,ウィズライト,0
1708,6120001239165,新規,0,2021-07-16,2021-07-16,株式会社レクス,,株式会社,大阪府,大阪市淀川区,西中島６丁目２－３,,27,123,5320011,,,,,,,2021-07-16,1,,,,,レクス,0
1711,6120101063993,新規,0,2021-07-16,2021-07-16,株式会社Ｌｉａｍ,,株式会社,大阪府,堺市西区,浜寺船尾町東３丁４０８番地２,,27,144,5928341,,,,,,,2021-07-16,1,,,,,リアム,0
1713,6120103004260,新規,0,2021-07-16,2021-07-16,合同会社ひふみ,,合同会社,大阪府,泉南郡熊取町,野田１丁目１３番２３号,,27,361,5900451,,,,,,,2021-07-16,1,,,,,ヒフミ,0
1715,6120105009423,新規,0,2021-07-16,2021-07-16,医療法人佳和会,,その他の設立登記法人,大阪府,堺市北区,長曽根町３０８２番地１,,27,146,5918025,,,,,,,2021-07-16,1,,,,,ケイワカイ,0
1720,6130001069743,新規,0,2021-07-16,2021-07-16,株式会社田牧商事,,株式会社,京都府,南丹市,八木町室河原初トノ４番３号,,26,213,6290166,,,,,,,2021-07-16,1,,,,,タマキショウジ,0
1722,6130003007370,新規,0,2021-07-16,2021-07-16,合同会社ＭＡＨＡＬＯ,,合同会社,京都府,京田辺市,三山木中央２丁目５－１１,,26,211,6100313,,,,,,,2021-07-16,1,,,,,マハロ,0
1735,6140001122220,新規,0,2021-07-16,2021-07-16,株式会社さぎさわ,,株式会社,兵庫県,姫路市,夢前町山冨１５番地８４,,28,201,6712123,,,,,,,2021-07-16,1,,,,,サギサワ,0
1736,6140001122311,新規,0,2021-07-16,2021-07-16,美麗ジュエリー株式会社,,株式会社,兵庫県,神戸市垂水区,西舞子１丁目５番２６号,,28,108,6550048,,,,,,,2021-07-16,1,,,,,ビレイジュエリー,0
1745,6160001023474,新規,0,2021-07-16,2021-07-16,株式会社パワーテック,,株式会社,滋賀県,大津市,真野４丁目８－１２,,25,201,5200232,,,,,,,2021-07-16,1,,,,,パワーテック,0
1746,6170003001601,新規,0,2021-07-16,2021-07-16,合同会社オインク,,合同会社,和歌山県,和歌山市,匠町４８番地,,30,201,6408028,,,,,,,2021-07-16,1,,,,,オインク,0
1749,6180001146827,新規,0,2021-07-16,2021-07-16,株式会社ＨＷ　Ｄｅｎｔａｌ　Ｓｕｐｐｏｒｔｓ,,株式会社,愛知県,名古屋市緑区,篠の風２丁目３４１番地の７,,23,114,4580015,,,,,,,2021-07-16,1,,,,,エイチダブリューデンタルサポート,0
1750,6180001146959,新規,0,2021-07-16,2021-07-16,セブンワークス株式会社,,株式会社,愛知県,半田市,乙川畑田町２丁目２４番地,,23,205,4750067,,,,,,,2021-07-16,1,,,,,セブンワークス,0
1756,6180003022753,新規,0,2021-07-16,2021-07-16,合同会社小島醸造,,合同会社,愛知県,犬山市,大字犬山字東古券６３３番地,,23,215,4840083,,,,,,,2021-07-16,1,,,,,コジマジョウゾウ,0
1758,6180005019368,新規,0,2021-07-16,2021-07-16,特定非営利活動法人愛岐福祉事業支援友の会,,その他の設立登記法人,愛知県,名古屋市緑区,六田２丁目１６１番地ＣＲＥＷＳ・ＳＱＵＡＲＥ３０１号,,23,114,4580036,,,,,,,2021-07-16,1,,,,,アイギフクシジギョウシエントモノカイ,0
1765,6190001028520,新規,0,2021-07-16,2021-07-16,株式会社アールテック,,株式会社,三重県,亀山市,菅内町１６４７番地３,,24,210,5190132,,,,,,,2021-07-16,1,,,,,アールテック,0
1768,6190005011596,新規,0,2021-07-16,2021-07-16,特定非営利活動法人おばら野,,その他の設立登記法人,三重県,尾鷲市,大字南浦１６７７番地１,,24,209,5193600,,,,,,,2021-07-16,1,,,,,オバラノ,0
1769,6200001038897,新規,0,2021-07-16,2021-07-16,株式会社創和堂,,株式会社,岐阜県,高山市,名田町３丁目８６番地６,,21,203,5060021,,,,,,,2021-07-16,1,,,,,ソウワドウ,0
1770,6200001038906,新規,0,2021-07-16,2021-07-16,株式会社ごかみ,,株式会社,岐阜県,岐阜市,六条片田１丁目１５番３号,,21,201,5008355,,,,,,,2021-07-16,1,,,,,ゴカミ,0
1774,6220001024301,新規,0,2021-07-16,2021-07-16,株式会社ｂｏｘ,,株式会社,石川県,金沢市,小橋町１０番６号,,17,201,9200844,,,,,,,2021-07-16,1,,,,,ボックス,0
1777,6230003001702,新規,0,2021-07-16,2021-07-16,合同会社クリアス,,合同会社,富山県,射水市,三ケ１５２７番地,,16,211,9390341,,,,,,,2021-07-16,1,,,,,クリアス,0
1779,6240001058272,新規,0,2021-07-16,2021-07-16,株式会社Ｗａｌｋ　ｗｉｔｈ,,株式会社,広島県,広島市南区,京橋町１番７号アスティ広島京橋ビルディング２９Ｆ,,34,103,7320828,,,,,,,2021-07-16,1,,,,,ウォークウィズ,0
1782,6260001035781,新規,0,2021-07-16,2021-07-16,ロンド株式会社,,株式会社,岡山県,岡山市中区,東川原２４４番地５,,33,102,7038255,,,,,,,2021-07-16,1,,,,,ロンド,0
1791,6290003011423,新規,0,2021-07-16,2021-07-16,合同会社ファミリーＭ,,合同会社,福岡県,福岡市早良区,有田３丁目１２番２２号,,40,137,8140033,,,,,,,2021-07-16,1,,,,,ファミリーエム,0
1799,6300001012561,新規,0,2021-07-16,2021-07-16,株式会社ＲＯＡＴＥＣＨ,,株式会社,佐賀県,佐賀市,神野東３丁目２番１０号,,41,201,8400804,,,,,,,2021-07-16,1,,,,,ロアテック,0
1812,6360001029096,新規,0,2021-07-16,2021-07-16,株式会社おきなわＡＬＬ,,株式会社,沖縄県,中頭郡西原町,上原２丁目２９番地１１,,47,329,9030125,,,,,,,2021-07-16,1,,,,,オキナワオール,0
1817,6370005010308,新規,0,2021-07-16,2021-07-16,一般社団法人日本アクティブコーディネーション協会,,その他の設立登記法人,宮城県,仙台市太白区,あすと長町１丁目４番１０号ゼビオアリーナ１階,,04,104,9820007,,,,,,,2021-07-16,1,,,,,ニホンアクティブコーディネーションキョウカイ,0
1822,6380003004970,新規,0,2021-07-16,2021-07-16,合同会社井田川コモンズ,,合同会社,福島県,南相馬市,小高区井田川字西廹７９番地の３,00123664,07,212,9792144,,,,,,,2021-07-16,1,,,,,イダガワコモンズ,0
1823,6380003004979,新規,0,2021-07-16,2021-07-16,合同会社大和,,合同会社,福島県,いわき市,常磐水野谷町千代鶴１６８番地,,07,204,9728311,,,,,,,2021-07-16,1,,,,,,0
1829,6390001016538,新規,0,2021-07-16,2021-07-16,水素システム山形株式会社,,株式会社,山形県,酒田市,新井田町９番８号,,06,204,9980041,,,,,,,2021-07-16,1,,,,,スイソシステムヤマガタ,0
1836,6400001015521,新規,0,2021-07-16,2021-07-16,株式会社ｂｒａｔ,,株式会社,岩手県,盛岡市,東山２丁目１６番１５号,,03,201,0200813,,,,,,,2021-07-16,1,,,,,ブラット,0
1838,6430001084555,新規,0,2021-07-16,2021-07-16,株式会社Ｆｕｔｕｒｅ　ｃｒｅａｔｉｏｎ,,株式会社,北海道,日高郡新ひだか町,静内中野町４丁目２番地,,01,610,0560006,,,,,,,2021-07-16,1,,,,,フューチャークリエーション,0
1848,6480001011430,新規,0,2021-07-16,2021-07-16,株式会社ワンナップＫＡＪＩ,,株式会社,徳島県,板野郡松茂町,笹木野字八山開拓１６８番地７,,36,401,7710219,,,,,,,2021-07-16,1,,,,,ワンナップカジ,0
1849,6500001023571,新規,0,2021-07-16,2021-07-16,株式会社山内ホールディングス,,株式会社,愛媛県,松山市,余戸中４丁目２番２２号,,38,201,7900045,,,,,,,2021-07-16,1,,,,,ヤマウチホールディングス,0
1862,7010001219466,新規,0,2021-07-16,2021-07-16,アグライア・コンサルティング株式会社,,株式会社,東京都,千代田区,内神田３丁目４番１４号,,13,101,1010047,,,,,,,2021-07-16,1,,,,,アグライアコンサルティング,0
1872,7010401161499,新規,0,2021-07-16,2021-07-16,株式会社Ｒｅａｌｉｚｅ,,株式会社,東京都,港区,赤坂３丁目１２－７,,13,103,1070052,,,,,,,2021-07-16,1,,,,,リアライズ,0
1873,7010401161549,新規,0,2021-07-16,2021-07-16,Ｗｏｒｌｄｂｏｘ　Ｊａｐａｎ株式会社,,株式会社,東京都,港区,西新橋１丁目２０番９号ＴＳＲビル３Ｆ,,13,103,1050003,,,,,,,2021-07-16,1,,,,,ワールドボックスジャパン,0
1877,7010501047581,新規,0,2021-07-16,2021-07-16,唐和株式会社,,株式会社,東京都,台東区,清川２丁目３５番１５－１２０３号ドムールタワーレジデンス,,13,106,1110022,,,,,,,2021-07-16,1,,,,,トウワ,0
1880,7010601059650,新規,0,2021-07-16,2021-07-16,株式会社アヴェクトロ,,株式会社,東京都,江東区,東陽２丁目５番１２号,,13,108,1350016,,,,,,,2021-07-16,1,,,,,アヴェクトロ,0
1884,7010901049062,新規,0,2021-07-16,2021-07-16,株式会社栄光丸,,株式会社,東京都,世田谷区,野毛３丁目２番２号フィロス野毛２階,,13,112,1580092,,,,,,,2021-07-16,1,,,,,エイコウマル,0
1885,7010901049104,新規,0,2021-07-16,2021-07-16,株式会社ピオニーエイト,,株式会社,東京都,世田谷区,松原２丁目９番１１号,,13,112,1560043,,,,,,,2021-07-16,1,,,,,ピオニーエイト,0
1892,7011001141783,新規,0,2021-07-16,2021-07-16,株式会社ｙｓ,,株式会社,東京都,渋谷区,神宮前３丁目３１番１７号ビラロ－ザ４０１号,,13,113,1500001,,,,,,,2021-07-16,1,,,,,ワイエス,0
1893,7011001141817,新規,0,2021-07-16,2021-07-16,株式会社ｗｅ．,,株式会社,東京都,渋谷区,渋谷１丁目２３番２５号,,13,113,1500002,,,,,,,2021-07-16,1,,,,,ウィードット,0
1894,7011005009127,新規,0,2021-07-16,2021-07-16,一般社団法人アナウンス発声協会,,その他の設立登記法人,東京都,渋谷区,円山町５番５号Ｎａｖｉ渋谷Ⅴ３階,00123665,13,113,1500044,,,,,,,2021-07-16,1,,,,,アナウンスハッセイキョウカイ,0
1903,7011301027022,新規,0,2021-07-16,2021-07-16,ＦＰＮシェアードサービス株式会社,,株式会社,東京都,杉並区,高円寺南４丁目２６番１６号,,13,115,1660003,,,,,,,2021-07-16,1,,,,,エフピーエヌシェアードサービス,0
1911,7012403004941,新規,0,2021-07-16,2021-07-16,合同会社武蔵,,合同会社,東京都,府中市,四谷１丁目５番地の１５,,13,206,1830035,,,,,,,2021-07-16,1,,,,,ムサシ,0
1913,7012701016580,新規,0,2021-07-16,2021-07-16,Ｒｅｖｅ株式会社,,株式会社,東京都,清瀬市,竹丘２丁目２１－５－１０１,,13,221,2040023,,,,,,,2021-07-16,1,,,,,レーヴ,0
1914,7012805003038,新規,0,2021-07-16,2021-07-16,司法書士法人宮野事務所,,その他の設立登記法人,東京都,昭島市,中神町１１７６番地１４,,13,207,1960022,,,,,,,2021-07-16,1,,,,,ミヤノジムショ,0
1917,7013103001064,新規,0,2021-07-16,2021-07-16,合同会社ボーグル,,合同会社,東京都,青梅市,河辺町５丁目９番地の１５,,13,205,1980036,,,,,,,2021-07-16,1,,,,,ボーグル,0
1921,7020001142246,新規,0,2021-07-16,2021-07-16,賀徳商事株式会社,,株式会社,神奈川県,川崎市幸区,堀川町７２番地２１ラゾーナ川崎レジデンスＲ９１２,,14,132,2120013,,,,,,,2021-07-16,1,,,,,ガトクショウジ,0
1922,7020001142254,新規,0,2021-07-16,2021-07-16,株式会社Ｍｉｓｔｙ,,株式会社,神奈川県,横浜市鶴見区,上末吉１丁目２１番１５号,,14,101,2300011,,,,,,,2021-07-16,1,,,,,ミスティー,0
1923,7020001142262,新規,0,2021-07-16,2021-07-16,株式会社アンカー,,株式会社,神奈川県,横浜市西区,みなとみらい４丁目９番２－Ｄ２３０２号,,14,103,2200012,,,,,,,2021-07-16,1,,,,,アンカー,0
1927,7020003020136,新規,0,2021-07-16,2021-07-16,合同会社三ツ合通商,,合同会社,神奈川県,横浜市鶴見区,下末吉２丁目１４－２１－Ｂ１,,14,101,2300012,,,,,,,2021-07-16,1,,,,,ミツアイツウショウ,0
1928,7020003020185,新規,0,2021-07-16,2021-07-16,合同会社川島アセットマネイジメント,,合同会社,神奈川県,川崎市中原区,小杉町２丁目２０１番地１パークホームズ武蔵小杉５０３,,14,133,2110063,,,,,,,2021-07-16,1,,,,,カワシマアセットマネイジメント,0
1935,7021001073464,新規,0,2021-07-16,2021-07-16,株式会社アットマイン,,株式会社,神奈川県,厚木市,飯山２６４４番地６３,,14,212,2430213,,,,,,,2021-07-16,1,,,,,アットマイン,0
1945,7030001143292,新規,0,2021-07-16,2021-07-16,株式会社清,,株式会社,埼玉県,さいたま市南区,大字太田窪２０１６番地１,,11,108,3360015,,,,,,,2021-07-16,1,,,,,カブシキカイシャキヨ,0
1946,7030001143318,新規,0,2021-07-16,2021-07-16,株式会社プライスレスモメント,,株式会社,埼玉県,越谷市,東越谷２丁目１２番地５３,,11,222,3430023,,,,,,,2021-07-16,1,,,,,プライスレスモメント,0
1947,7030001143391,新規,0,2021-07-16,2021-07-16,株式会社ＢＨＡＮＤＡＲＩ　ＩＮＴＥＲＮＡＴＩＯＮＡＬ,,株式会社,埼玉県,戸田市,笹目２丁目２１番地の１８井上ビル１Ｆ,,11,224,3350034,,,,,,,2021-07-16,1,,,,,バンダリインターナショナル,0
1957,7040003018178,新規,0,2021-07-16,2021-07-16,合同会社ＡＤＶＡＮＣＥ,,合同会社,千葉県,千葉市中央区,登戸３丁目１２番９号サンクレイドル千葉登戸スカイレジデンス４０１号,,12,101,2600032,,,,,,,2021-07-16,1,,,,,アドバンス,0
1983,7080401025202,新規,0,2021-07-16,2021-07-16,株式会社ＧＥＮＥＳＩＳ,,株式会社,静岡県,浜松市北区,引佐町東久留女木７４４番地,,22,135,4312201,,,,,,,2021-07-16,1,,,,,ジェネシス,0
1986,7090001017103,新規,0,2021-07-16,2021-07-16,株式会社Ｒｉｔｓｕｃｏ　Ｂｅａｕｔｙ　Ｌｉｎｅ,,株式会社,山梨県,山梨市,上神内川１２５９番地１,,19,205,4050018,,,,,,,2021-07-16,1,,,,,リツコビューティーライン,0
2004,7120001239057,新規,0,2021-07-16,2021-07-16,株式会社コスモス,,株式会社,大阪府,大阪市浪速区,元町２丁目１１番１４号ＭＡビル７階,,27,111,5560016,,,,,,,2021-07-16,1,,,,,コスモス,0
2005,7120001239098,新規,0,2021-07-16,2021-07-16,株式会社ＢＴ,,株式会社,大阪府,大阪市中央区,南船場１丁目６番３－２０２号,,27,128,5420081,,,,,,,2021-07-16,1,,,,,ビーティー,0
2006,7120001239131,新規,0,2021-07-16,2021-07-16,株式会社Ｓｋｙ,,株式会社,大阪府,大阪市福島区,福島３丁目５番２１号プレステージ堂島４０５号,,27,103,5530003,,,,,,,2021-07-16,1,,,,,スカイ,0
2007,7120003019853,新規,0,2021-07-16,2021-07-16,合同会社ハジメ,,合同会社,大阪府,大阪市大正区,千島２丁目４番３－７５１号,,27,108,5510003,,,,,,,2021-07-16,1,,,,,ハジメ,0
2014,7120101063992,新規,0,2021-07-16,2021-07-16,シィード訪問看護株式会社,,株式会社,大阪府,堺市中区,陶器北１２３９番地５,,27,142,5998242,,,,,,,2021-07-16,1,,,,,シィードホウモンカンゴ,0
2019,7122003002137,新規,0,2021-07-16,2021-07-16,合同会社ハンジョウ,,合同会社,大阪府,八尾市,西久宝寺６番地の４エバーグリーン３Ｂ号,,27,212,5810077,,,,,,,2021-07-16,1,,,,,ハンジョウ,0
2029,7140001122302,新規,0,2021-07-16,2021-07-16,株式会社さんさん堂,,株式会社,兵庫県,姫路市,飾磨区上野田４丁目２７１番地２,,28,201,6728043,,,,,,,2021-07-16,1,,,,,サンサンドウ,0
2030,7140001122335,新規,0,2021-07-16,2021-07-16,株式会社ｋｕｎｉｕｍｉ,,株式会社,兵庫県,神戸市中央区,浪花町５６起業プラザひょうご内,,28,110,6500035,,,,,,,2021-07-16,1,,,,,クニウミ,0
2032,7170001016674,新規,0,2021-07-16,2021-07-16,とも工業株式会社,,株式会社,和歌山県,和歌山市,善明寺１８２番地６,,30,201,6408471,,,,,,,2021-07-16,1,,,,,トモコウギョウ,0
2039,7180001147007,新規,0,2021-07-16,2021-07-16,株式会社空＆海,,株式会社,愛知県,海部郡蟹江町,今本町通２２番地,,23,425,4970000,,,,,,,2021-07-16,1,,,,,クウアンドカイ,0
2044,7180003022752,新規,0,2021-07-16,2021-07-16,合同会社エピドール,,合同会社,愛知県,名古屋市中区,古渡町１１番３０号シャルム東別院９０４号,,23,106,4600025,,,,,,,2021-07-16,1,,,,,エピドール,0
2045,7180005019367,新規,0,2021-07-16,2021-07-16,司法書士法人いなほ,,その他の設立登記法人,愛知県,大府市,共和町２丁目２２番地１１丸八ビル２階,,23,223,4740061,,,,,,,2021-07-16,1,,,,,イナホ,0
2047,7180301035167,新規,0,2021-07-16,2021-07-16,株式会社アソシア,,株式会社,愛知県,西尾市,一色町佐久島前田４５番地,,23,213,4440416,,,,,,,2021-07-16,1,,,,,アソシア,0
2048,7180301035175,新規,0,2021-07-16,2021-07-16,ＡｌｐｈａＢａｓｅ株式会社,,株式会社,愛知県,豊田市,喜多町６丁目２番地３シャーメゾンエテルノ２０１号,,23,211,4710027,,,,,,,2021-07-16,1,,,,,,0
2054,7200001038905,新規,0,2021-07-16,2021-07-16,株式会社ＡＣＥＳＳ,,株式会社,岐阜県,岐阜市,加納新本町３丁目１番地Ｄ,,21,201,5008463,,,,,,,2021-07-16,1,,,,,エース,0
2058,7220001024300,新規,0,2021-07-16,2021-07-16,ネットリンクシステム株式会社,,株式会社,石川県,河北郡内灘町,白帆台２丁目１５８番地,,17,365,9200269,,,,,,,2021-07-16,1,,,,,ネットリンクシステム,0
2064,7240001058288,新規,0,2021-07-16,2021-07-16,株式会社ななつほし,,株式会社,広島県,尾道市,土堂１丁目１１番６号こころ尾道駅前ビル５０２号,,34,205,7220035,,,,,,,2021-07-16,1,,,,,ナナツホシ,0
2067,7240005015244,新規,0,2021-07-16,2021-07-16,アジャスト土地家屋調査士法人,,その他の設立登記法人,広島県,広島市西区,庚午北１丁目５番４号１Ｆ,,34,104,7330821,,,,,,,2021-07-16,1,,,,,アジャスト,0
2080,7290001093850,新規,0,2021-07-16,2021-07-16,株式会社こどもカンパニー,,株式会社,福岡県,福岡市中央区,大名２丁目９番３５号トウセン天神ビル９Ｆ,,40,133,8100041,,,,,,,2021-07-16,1,,,,,コドモカンパニー,0
2081,7290005018283,新規,0,2021-07-16,2021-07-16,ＮＰＯ法人トレジャーズ,,その他の設立登記法人,福岡県,春日市,宝町１丁目１０番地９,,40,218,8160807,,,,,,,2021-07-16,1,,,,,トレジャーズ,0
2083,7290801027628,新規,0,2021-07-16,2021-07-16,大三パートナーズ株式会社,,株式会社,福岡県,田川市,大字伊加利１８２４番地,,40,206,8250001,,,,,,,2021-07-16,1,,,,,ダイサンパートナーズ,0
2084,7290801027636,新規,0,2021-07-16,2021-07-16,株式会社源,,株式会社,福岡県,北九州市小倉南区,大字貫２９９７番地６,,40,107,8000245,,,,,,,2021-07-16,1,,,,,ミナモト,0
2085,7290801027644,新規,0,2021-07-16,2021-07-16,株式会社功真工業,,株式会社,福岡県,遠賀郡水巻町,伊左座５丁目１２番４号,,40,382,8070056,,,,,,,2021-07-16,1,,,,,コウシンコウギョウ,0
2101,7360001029104,新規,0,2021-07-16,2021-07-16,七神電材株式会社,,株式会社,沖縄県,那覇市,識名３丁目１０番１１号,,47,201,9020078,,,,,,,2021-07-16,1,,,,,シチジンデンザイ,0
2109,7370005010315,新規,0,2021-07-16,2021-07-16,社会福祉法人明日育福祉会,,その他の設立登記法人,宮城県,仙台市宮城野区,鉄砲町中３番１４,,04,102,9830868,,,,,,,2021-07-16,1,,,,,アスイクフクシカイ,0
2133,7430005014227,新規,0,2021-07-16,2021-07-16,一般社団法人白いキャンバス,,その他の設立登記法人,北海道,札幌市中央区,南一条西１丁目１５－３－３Ｆ,,01,101,0600061,,,,,,,2021-07-16,1,,,,,シロイキャンバス,0
2135,7450001013387,新規,0,2021-07-16,2021-07-16,株式会社北村産業,,株式会社,北海道,天塩郡天塩町,新開通９丁目１６５５番地,,01,487,0983305,,,,,,,2021-07-16,1,,,,,キタムラサンギョウ,0
2136,7462501000905,新規,0,2021-07-16,2021-07-16,株式会社立川重工,,株式会社,北海道,標津郡中標津町,字武佐南十線西１５番地,,01,692,0861271,,,,,,,2021-07-16,1,,,,,タテカワジュウコウ,0
2143,7500001023570,新規,0,2021-07-16,2021-07-16,株式会社みどり動物病院,,株式会社,愛媛県,松山市,余戸南５丁目１４番１５号,,38,201,7900047,,,,,,,2021-07-16,1,,,,,ミドリドウブツビョウイン,0
2159,8010001219721,新規,0,2021-07-16,2021-07-16,株式会社Ｈｅａｌｔｈｙ　Ｌａｎｄｓ,,株式会社,東京都,文京区,湯島３丁目３７番１１号,,13,105,1130034,,,,,,,2021-07-16,1,,,,,ヘルシーランド,0
2169,8010405020015,新規,0,2021-07-16,2021-07-16,ＲＢソーラーディライトホールディングス一般社団法人,,その他の設立登記法人,東京都,港区,虎ノ門３丁目２２番１０－２０１号,,13,103,1050001,,,,,,,2021-07-16,1,,,,,アールビーソーラーディライトホールディングス,0
2170,8010405020023,新規,0,2021-07-16,2021-07-16,一般社団法人ｃｏｒｎｅｒｓｔｏｎｅ　Ｉ・ＳＨＩ・ＺＵ・Ｅ,,その他の設立登記法人,東京都,港区,六本木３丁目１５番１１号,,13,103,1060032,,,,,,,2021-07-16,1,,,,,コーナーストーンイシヅエ,0
2171,8010501047564,新規,0,2021-07-16,2021-07-16,株式会社クラリティ,,株式会社,東京都,台東区,東上野１丁目６番７－６０１号,,13,106,1100015,,,,,,,2021-07-16,1,,,,,クラリティ,0
2172,8010501047580,新規,0,2021-07-16,2021-07-16,株式会社Ｔｈｉｎｋ,,株式会社,東京都,台東区,寿１丁目１１番６号ＳＭＫビル６階,,13,106,1110042,,,,,,,2021-07-16,1,,,,,シンク,0
2179,8010703005849,新規,0,2021-07-16,2021-07-16,合同会社アキミツ,,合同会社,東京都,品川区,南大井６丁目１番２号３Ｆ,,13,109,1400013,,,,,,,2021-07-16,1,,,,,アキミツ,0
2184,8010803003819,新規,0,2021-07-16,2021-07-16,合同会社Ｆ・Ｃ・Ｓ,,合同会社,東京都,大田区,仲六郷２丁目４５番９号ＡＩＫＡＭＡＴＡ３０６,,13,111,1440055,,,,,,,2021-07-16,1,,,,,,0
2193,8011001141733,新規,0,2021-07-16,2021-07-16,株式会社ｏｎｔｏｌｏｇｙ,,株式会社,東京都,渋谷区,恵比寿南１丁目１番１号,,13,113,1500022,,,,,,,2021-07-16,1,,,,,オントロジー,0
2210,8012401038107,新規,0,2021-07-16,2021-07-16,舞風株式会社,,株式会社,東京都,調布市,小島町２丁目５１番地３ロイヤルプラザ５０５,,13,208,1820026,,,,,,,2021-07-16,1,,,,,マイカゼ,0
2213,8012405004617,新規,0,2021-07-16,2021-07-16,武蔵野プレジオ管理組合法人,,その他の設立登記法人,東京都,武蔵野市,中町３丁目３番１３号,,13,203,1800006,,,,,,,2021-07-16,1,,,,,ムサシノプレジオ,0
2214,8012701016588,新規,0,2021-07-16,2021-07-16,株式会社Ｋ・Ｐ・Ｓ,,株式会社,東京都,西東京市,向台町４丁目２２番３７号,,13,229,1880013,,,,,,,2021-07-16,1,,,,,ケープス,0
2224,8020001142286,新規,0,2021-07-16,2021-07-16,株式会社カームズ,,株式会社,神奈川県,横浜市金沢区,西柴３丁目３２－９,,14,108,2360017,,,,,,,2021-07-16,1,,,,,カームズ,0
2226,8020003020184,新規,0,2021-07-16,2021-07-16,ｉ２総合研究所合同会社,,合同会社,神奈川県,横浜市戸塚区,上矢部町３０４３番地４戸塚グリーンヒルＢ－５０２号,00123671,14,110,2450053,,,,,,,2021-07-16,1,,,,,アイツーソウゴウケンキュウジョ,0
2227,8020003020192,新規,0,2021-07-16,2021-07-16,慶應小城研究室合同会社,,合同会社,神奈川県,横浜市磯子区,岡村３丁目１９－１８－２Ｆ,,14,107,2350021,,,,,,,2021-07-16,1,,,,,ケイオウコジョウケンキュウシツ,0
2234,8021001073397,新規,0,2021-07-16,2021-07-16,株式会社ピラニア,,株式会社,神奈川県,藤沢市,鵠沼松が岡２丁目１番２５号,00123663,14,205,2510038,,,,,,,2021-07-16,1,,,,,ピラニア,0
2235,8021001073414,新規,0,2021-07-16,2021-07-16,株式会社アイの樹,,株式会社,神奈川県,海老名市,国分寺台１丁目５番９－１号,,14,215,2430413,,,,,,,2021-07-16,1,,,,,アイノキ,0
2236,8021001073439,新規,0,2021-07-16,2021-07-16,株式会社チャンディー建設,,株式会社,神奈川県,大和市,中央林間８丁目１６番１２ーⅠ２０２号,00123681,14,213,2420007,,,,,,,2021-07-16,1,,,,,チャンディーケンセツ,0
2242,8030005020446,新規,0,2021-07-16,2021-07-16,一般社団法人ライオンズクラブ事務サポートセンター,,その他の設立登記法人,埼玉県,さいたま市大宮区,北袋町１丁目１０３番地１中村ビル５階,,11,103,3300835,,,,,,,2021-07-16,1,,,,,ライオンズクラブジムサポートセンター,0
2247,8040001119398,新規,0,2021-07-16,2021-07-16,株式会社スマートトレーディング,,株式会社,千葉県,成田市,南三里塚７８番地７,,12,211,2860113,,,,,,,2021-07-16,1,,,,,スマートトレーディング,0
2252,8040003018185,新規,0,2021-07-16,2021-07-16,合同会社Ａ．Ｐ．Ｅ．Ｓ,,合同会社,千葉県,松戸市,八ケ崎２丁目１４番１号松戸ビレジ６０９,,12,207,2700023,,,,,,,2021-07-16,1,,,,,エイプス,0
2255,8050001049553,新規,0,2021-07-16,2021-07-16,株式会社ＡＩＫＡ,,株式会社,茨城県,土浦市,富士崎１丁目２番１０－３０５号セレナハイムリバーサイドステージ,,08,203,3000813,,,,,,,2021-07-16,1,,,,,アイカ,0
2265,8070001038273,新規,0,2021-07-16,2021-07-16,株式会社健心,,株式会社,群馬県,伊勢崎市,堀口町２２０番地１シティーハイツシクラメンＡ１１３号,,10,204,3720834,,,,,,,2021-07-16,1,,,,,ケンシン,0
2274,8080101022655,新規,0,2021-07-16,2021-07-16,株式会社富士山麓ＤａｉｒｙＦａｒｍ,,株式会社,静岡県,富士宮市,人穴１３９番地の４０,,22,207,4180102,,,,,,,2021-07-16,1,,,,,フジサンロクデイリーファーム,0
2277,8090001017102,新規,0,2021-07-16,2021-07-16,株式会社Ｙ．ｋｉｎｄ,,株式会社,山梨県,甲斐市,大下条７６９番地５,,19,210,4000126,,,,,,,2021-07-16,1,,,,,ワイカインド,0
2294,8120001239139,新規,0,2021-07-16,2021-07-16,株式会社Ａｉｒｔｏ,,株式会社,大阪府,大阪市此花区,西九条４丁目３－３６,,27,104,5540012,,,,,,,2021-07-16,1,,,,,エアトゥ,0
2300,8120101063983,新規,0,2021-07-16,2021-07-16,株式会社竹内重量,,株式会社,大阪府,羽曳野市,高鷲６丁目３番１３号,,27,222,5830882,,,,,,,2021-07-16,1,,,,,タケウチジュウリョウ,0
2301,8120101063991,新規,0,2021-07-16,2021-07-16,株式会社アシストテック,,株式会社,大阪府,大阪狭山市,大野台５丁目１８番１号,,27,231,5890023,,,,,,,2021-07-16,1,,,,,アシストテック,0
2304,8120103004259,新規,0,2021-07-16,2021-07-16,合同会社和愛商事,,合同会社,大阪府,貝塚市,麻生中１５９－１９,,27,208,5970081,,,,,,,2021-07-16,1,,,,,ワカショウジ,0
2305,8120105009421,新規,0,2021-07-16,2021-07-16,医療法人とねクリニック,,その他の設立登記法人,大阪府,富田林市,高辺台２丁目１５番１０号,,27,214,5840072,,,,,,,2021-07-16,1,,,,,トネクリニック,0
2310,8130003007369,新規,0,2021-07-16,2021-07-16,合同会社ＡＫＡＮＥ,,合同会社,京都府,京都市東山区,泉涌寺門前町２４番地４,,26,105,6050973,,,,,,,2021-07-16,1,,,,,アカネ,0
2315,8140003016526,新規,0,2021-07-16,2021-07-16,関西福祉支援合同会社,,合同会社,兵庫県,尼崎市,開明町２丁目３４番地の１,,28,202,6600862,,,,,,,2021-07-16,1,,,,,カンサイフクシシエン,0
2320,8170001016673,新規,0,2021-07-16,2021-07-16,株式会社ＩＴＫワークス,,株式会社,和歌山県,和歌山市,中島１７番地５,,30,201,6410006,,,,,,,2021-07-16,1,,,,,アイティケイワークス,0
2321,8180001146949,新規,0,2021-07-16,2021-07-16,㐂霖屋株式会社,00123669,株式会社,愛知県,名古屋市天白区,中坪町８番地,,23,116,4680048,,,,,,,2021-07-16,1,,,,,キリンヤ,0
2322,8180001147022,新規,0,2021-07-16,2021-07-16,ＧＷ株式会社,,株式会社,愛知県,清須市,西枇杷島町城並１丁目８番地５,,23,233,4520011,,,,,,,2021-07-16,1,,,,,ジーダブリュー,0
2323,8180001147030,新規,0,2021-07-16,2021-07-16,スーパースタイル株式会社,,株式会社,愛知県,名古屋市熱田区,千年２丁目１６番７号,,23,109,4560054,,,,,,,2021-07-16,1,,,,,スーパースタイル,0
2325,8180003022751,新規,0,2021-07-16,2021-07-16,合同会社Ｏｗｎｌｏｏｐ,,合同会社,愛知県,名古屋市中川区,大畑町２丁目１４番地の１コーポ奈津３Ａ,,23,110,4540843,,,,,,,2021-07-16,1,,,,,オウンループ,0
2332,8180301035166,新規,0,2021-07-16,2021-07-16,株式会社エディション,,株式会社,愛知県,西尾市,一色町佐久島前田４５番地,,23,213,4440416,,,,,,,2021-07-16,1,,,,,エディション,0
2333,8180301035174,新規,0,2021-07-16,2021-07-16,ものづくり製作所株式会社,,株式会社,愛知県,豊田市,浄水町伊保原３５４番地１‐２００３,,23,211,4700343,,,,,,,2021-07-16,1,,,,,,0
2348,8220001024299,新規,0,2021-07-16,2021-07-16,西内工務店株式会社,,株式会社,石川県,白山市,成町１２８番地,,17,210,9240023,,,,,,,2021-07-16,1,,,,,ニシウチコウムテン,0
2353,8240001058287,新規,0,2021-07-16,2021-07-16,アリサンコーポレーション株式会社,,株式会社,広島県,広島市安芸区,船越３丁目１３番１３号,,34,107,7360081,,,,,,,2021-07-16,1,,,,,アリサンコーポレーション,0
2356,8250001019008,新規,0,2021-07-16,2021-07-16,株式会社山口トラスト,,株式会社,山口県,下関市,幡生本町４０番１６号,,35,201,7510827,,,,,,,2021-07-16,1,,,,,ヤマグチトラスト,0
2368,8290001093882,新規,0,2021-07-16,2021-07-16,株式会社セカンドサービス,,株式会社,福岡県,嘉麻市,漆生２９８－１,,40,227,8200201,,,,,,,2021-07-16,1,,,,,セカンドサービス,0
2375,8290801027627,新規,0,2021-07-16,2021-07-16,株式会社樋熊緑化建設,00123667,株式会社,福岡県,北九州市八幡西区,市瀬３丁目８番１８号,,40,109,8060063,,,,,,,2021-07-16,1,,,,,ヒグマリョクカケンセツ,0
2382,8320001018497,新規,0,2021-07-16,2021-07-16,株式会社新進学塾,,株式会社,大分県,大分市,大在北３丁目６－１３,,44,201,8700245,,,,,,,2021-07-16,1,,,,,シンシンガクジュク,0
2386,8340001023941,新規,0,2021-07-16,2021-07-16,株式会社ジェラテリアクオーレ,,株式会社,鹿児島県,霧島市,国分新町２丁目１５番２５号,,46,218,8994351,,,,,,,2021-07-16,1,,,,,ジェラテリアクオーレ,0
2389,8340005009318,新規,0,2021-07-16,2021-07-16,一般社団法人異業種法令遵守協議会,,その他の設立登記法人,鹿児島県,鹿児島市,宮之浦町１１６番地,,46,201,8911305,,,,,,,2021-07-16,1,,,,,イギョウシュホウレイジュンシュキョウギカイ,0
2400,8380001032030,新規,0,2021-07-16,2021-07-16,株式会社エスプランニング,,株式会社,福島県,郡山市,鳴神３丁目２５－３ユニティー鳴神１０２号,,07,203,9630207,,,,,,,2021-07-16,1,,,,,,0
2424,8430003012958,新規,0,2021-07-16,2021-07-16,ｎｏｒｄｌａｎｄｅｒ合同会社,,合同会社,北海道,虻田郡倶知安町,南三条東６丁目２番地３１カンパーニュ２０１,,01,400,0440013,,,,,,,2021-07-16,1,,,,,ノードランダー,0
2437,8480001011429,新規,0,2021-07-16,2021-07-16,株式会社ＳＵＭｉＴＡＳ徳島,,株式会社,徳島県,徳島市,山城西４丁目３５番地２,,36,201,7708054,,,,,,,2021-07-16,1,,,,,スミタストクシマ,0
2444,8700150103961,新規,0,2021-07-16,2021-07-02,岩見沢パン協議会,,その他,北海道,岩見沢市,有明町南１－２０自治体ネットワークセンター３Ｆ　エミプラスラボ合同会社　内,,01,210,0680034,,,,,,,2021-07-02,1,,,,,イワミザワパンキヨウギカイ,0
2467,9010403025733,新規,0,2021-07-16,2021-07-16,ＲＢソーラーディライト合同会社,,合同会社,東京都,港区,虎ノ門３丁目２２番１０－２０１号,,13,103,1050001,,,,,,,2021-07-16,1,,,,,アールビーソーラーディライト,0
2472,9010405020014,新規,0,2021-07-16,2021-07-16,ＲＢソーラーディスティニーホールディングス一般社団法人,,その他の設立登記法人,東京都,港区,虎ノ門３丁目２２番１０－２０１号,,13,103,1050001,,,,,,,2021-07-16,1,,,,,アールビーソーラーディスティニーホールディングス,0
2492,9011001141740,新規,0,2021-07-16,2021-07-16,株式会社ＯＨ２,,株式会社,東京都,渋谷区,恵比寿西２丁目２番５号ＧＯビル４階,,13,113,1500021,,,,,,,2021-07-16,1,,,,,オーエイチツー,0
2510,9020001142260,新規,0,2021-07-16,2021-07-16,株式会社クロスロード,,株式会社,神奈川県,川崎市高津区,溝口３丁目１２番１２号,,14,134,2130001,,,,,,,2021-07-16,1,,,,,クロスロード,0
2511,9020003020183,新規,0,2021-07-16,2021-07-16,合同会社Ｅｐｉｃｐｈａｎｙ,,合同会社,神奈川県,横浜市港南区,下永谷３丁目２６－２４－７,,14,111,2330016,,,,,,,2021-07-16,1,,,,,エピファニー,0
2513,9020005015132,新規,0,2021-07-16,2021-07-16,特定非営利活動法人Ｃｏａｃｔｉｏｎ,,その他の設立登記法人,神奈川県,横浜市中区,長者町４丁目１０－１０デュオステージ関内３０１号室,,14,104,2310033,,,,,,,2021-07-16,1,,,,,,0
2517,9021001073438,新規,0,2021-07-16,2021-07-16,株式会社カルチャーライフホールディングス,,株式会社,神奈川県,相模原市南区,鵜野森１丁目２３番７号,,14,153,2520301,,,,,,,2021-07-16,1,,,,,カルチャーライフホールディングス,0
2521,9021005012251,新規,0,2021-07-16,2021-07-16,特定非営利活動法人みちびきケア,,その他の設立登記法人,神奈川県,秦野市,曽屋２丁目６－３０清水ハイツ１０１,,14,211,2570031,,,,,,,2021-07-16,1,,,,,ミチビキケア,0
2549,9040003018143,新規,0,2021-07-16,2021-07-16,メイプル住宅合同会社,,合同会社,千葉県,千葉市美浜区,打瀬３丁目１３番地５－３０９号,,12,106,2610013,,,,,,,2021-07-16,1,,,,,メイプルジュウタク,0
2557,9070001038280,新規,0,2021-07-16,2021-07-16,株式会社Ｈ・Ｈ　ＣＯＲＰＯＲＡＴＩＯＮ,,株式会社,群馬県,邑楽郡大泉町,坂田５丁目１９番１号エース坂田１階,,10,524,3700532,,,,,,,2021-07-16,1,,,,,エイチエイチコーポレーション,0
2570,9100003006174,新規,0,2021-07-16,2021-07-16,合同会社晶健,,合同会社,長野県,飯田市,通り町２丁目２２番地１,,20,205,3950043,,,,,,,2021-07-16,1,,,,,ショウケン,0
2584,9120001239071,新規,0,2021-07-16,2021-07-16,株式会社グラスファスト,,株式会社,大阪府,大阪市西区,北津守一丁目４番１５号,,27,106,5500000,,,,,,,2021-07-16,1,,,,,グラスファスト,0
2585,9120001239096,新規,0,2021-07-16,2021-07-16,株式会社Ｗｉｎｇ,,株式会社,大阪府,大阪市中央区,難波千日前５番３０号,,27,128,5420075,,,,,,,2021-07-16,1,,,,,ウィング,0
2587,9120003019868,新規,0,2021-07-16,2021-07-16,合同会社Ｂｌｅｓｓ,,合同会社,大阪府,大阪市東淀川区,豊里３丁目１番１９号ハイムグローリーＩ３０５号室,,27,114,5330013,,,,,,,2021-07-16,1,,,,,ブレス,0
2589,9120005022382,新規,0,2021-07-16,2021-07-16,クラージュ行政書士法人,,その他の設立登記法人,大阪府,大阪市中央区,大手通１丁目１－１３－４Ｆ,,27,128,5400021,,,,,,,2021-07-16,1,,,,,クラージュ,0
2598,9120101063966,新規,0,2021-07-16,2021-07-16,株式会社ＧＡＰ,,株式会社,大阪府,富田林市,梅の里４丁目４番６号,,27,214,5840001,,,,,,,2021-07-16,1,,,,,ジーエーピー,0
2599,9120101063990,新規,0,2021-07-16,2021-07-16,株式会社Ｐｒｏｓｐｅｒ,,株式会社,大阪府,高石市,西取石１丁目９番２７号,,27,225,5920012,,,,,,,2021-07-16,1,,,,,プロスパー,0
2614,9130003007368,新規,0,2021-07-16,2021-07-16,合同会社十月一日,,合同会社,京都府,京都市北区,紫野中柏野町２５番地１６,,26,101,6038312,,,,,,,2021-07-16,1,,,,,ジュウガツツイタチ,0
2618,9140003016525,新規,0,2021-07-16,2021-07-16,合同会社ＷＥＳＴ,,合同会社,兵庫県,神戸市兵庫区,水木通４丁目１番１８号,,28,105,6520802,,,,,,,2021-07-16,1,,,,,ウェスト,0
2629,9180303005059,新規,0,2021-07-16,2021-07-16,合同会社ＨＴＣジャパン,,合同会社,愛知県,岡崎市,保母町字南二百田７番地２,,23,202,4440004,,,,,,,2021-07-16,1,,,,,エイチティーシージャパン,0
2631,9190001028501,新規,0,2021-07-16,2021-07-16,ＬＩＮＫ　ＵＰ株式会社,,株式会社,三重県,津市,大門１番２７号,,24,201,5140027,,,,,,,2021-07-16,1,,,,,リンクアップ,0
2635,9200001038894,新規,0,2021-07-16,2021-07-16,株式会社ＸＲ．ｏｎｅ,,株式会社,岐阜県,各務原市,上中屋町１丁目２２１番地,,21,213,5040926,,,,,,,2021-07-16,1,,,,,エックスアールワン,0
2640,9220001024298,新規,0,2021-07-16,2021-07-16,株式会社ＰｅａｃｅＬａｂ．,,株式会社,石川県,能美市,大成町２丁目７２番地－２号館－２－１号,,17,211,9290113,,,,,,,2021-07-16,1,,,,,ピースラボ,0
2641,9220001024307,新規,0,2021-07-16,2021-07-16,株式会社じろざみ,,株式会社,石川県,七尾市,矢田町レ部１２番地,,17,202,9260014,,,,,,,2021-07-16,1,,,,,ジロザミ,0
2643,9220003003085,新規,0,2021-07-16,2021-07-16,合同会社ＮＹＣ,,合同会社,石川県,金沢市,田井町６番７号,,17,201,9200924,,,,,,,2021-07-16,1,,,,,エヌワイシー,0
2665,9260001035770,新規,0,2021-07-16,2021-07-16,株式会社ラフテル,,株式会社,岡山県,総社市,西阿曽７６１番地４,,33,208,7191103,,,,,,,2021-07-16,1,,,,,ラフテル,0
2669,9270003001324,新規,0,2021-07-16,2021-07-16,合同会社Ｐｒｉｏｎｅｅｒ,,合同会社,鳥取県,鳥取市,大覚寺１７０番地５５,,31,201,6800863,,,,,,,2021-07-16,1,,,,,プライオニア,0
2673,9290003011412,新規,0,2021-07-16,2021-07-16,合同会社和光,,合同会社,福岡県,福岡市東区,奈多１丁目１２番５４－１０５号,,40,131,8110204,,,,,,,2021-07-16,1,,,,,ワコウ,0
2674,9290005018281,新規,0,2021-07-16,2021-07-16,一般社団法人ぷらっとどっと,,その他の設立登記法人,福岡県,久留米市,荘島町９番地１０,,40,203,8300042,,,,,,,2021-07-16,1,,,,,プラットドット,0
2678,9290801027626,新規,0,2021-07-16,2021-07-16,株式会社ｂｒｉｍ,,株式会社,福岡県,直方市,須崎町５番４,,40,204,8220024,,,,,,,2021-07-16,1,,,,,ブリム,0
2679,9290801027634,新規,0,2021-07-16,2021-07-16,株式会社ＫＧコネクト,,株式会社,福岡県,北九州市小倉南区,下曽根４丁目１－１８木登ビル２０１号室,,40,107,8000217,,,,,,,2021-07-16,1,,,,,ケイジイコネクト,0
2683,9310001017383,新規,0,2021-07-16,2021-07-16,株式会社ＡＹＡＮＴＵＳ,,株式会社,長崎県,長崎市,長浦町２６番地１・１階,,42,201,8513212,,,,,,,2021-07-16,1,,,,,アヤントス,0
2684,9310003004116,新規,0,2021-07-16,2021-07-16,花信風合同会社,,合同会社,長崎県,長崎市,つつじが丘５丁目５番１３号,,42,201,8510102,,,,,,,2021-07-16,1,,,,,カシンフウ,0
2721,9430001084577,新規,0,2021-07-16,2021-07-16,株式会社ムラサキ,,株式会社,北海道,札幌市西区,西町北２０丁目３番１０号宮の沢メディカルビル一階たか歯科クリニック内,,01,107,0630061,,,,,,,2021-07-16,1,,,,,ムラサキ,0
2728,9460101007030,新規,0,2021-07-16,2021-07-16,株式会社ＴＫコミュニケーションズ,,株式会社,北海道,帯広市,西十九条南１丁目７番地３０,,01,207,0802469,,,,,,,2021-07-16,1,,,,,ティーケーコミュニケーションズ,0
2742,9700150029388,新規,0,2021-07-16,2015-10-09,姫路市食品衛生協会,,その他,兵庫県,姫路市,坂田町３,,28,201,6700931,,,,,,,2015-10-09,1,,,,,ヒメジシシヨクヒンエイセイキヨウカイ,0
2743,9700150103944,新規,0,2021-07-16,2021-07-01,馬場島愛好会,,その他,富山県,中新川郡上市町,伊折１,,16,322,9300437,,,,,,,2021-07-01,1,,,,,バンバジマアイコウカイ,0
