sequenceNumber,corporateNumber,process,correct,updateDate,changeDate,name,nameImageId,kind,prefectureName,cityName,streetNumber,addressImageId,prefectureCode,cityCode,postCode,addressOutside,addressOutsideImageId,closeDate,closeCause,successorCorporateNumber,changeCause,assignmentDate,latest,enName,enPrefectureName,enCityName,enAddressOutside,furigana,hihyoji
1,1010001149454,登記記録の閉鎖等,0,2024-08-28,2024-08-09,株式会社アイエムエイ,,株式会社,東京都,文京区,本郷３丁目５番１号,,13,105,1130033,,,2024-08-09,清算の結了等,,,2015-10-05,1,,,,,アイエムエイ,0
2,1010001161343,登記記録の閉鎖等,0,2024-08-28,2024-08-07,ブライトアース株式会社,,株式会社,東京都,中央区,日本橋馬喰町１丁目１４番７－４０４号,,13,102,1030002,,,2024-08-07,清算の結了等,,,2015-10-05,1,,,,,ブライトアース,0
23,1010402015065,登記記録の閉鎖等,0,2024-08-28,2024-08-07,有限会社アプリ企画,,有限会社,東京都,港区,南青山４丁目１番１５号,,13,103,1070062,,,2024-08-07,清算の結了等,,,2015-10-05,1,,,,,アプリキカク,0
29,1010701013439,登記記録の閉鎖等,0,2024-08-28,2024-08-21,株式会社ステラ,,株式会社,東京都,品川区,北品川４丁目７番２２－２０４号,,13,109,1400001,,,2024-08-21,清算の結了等,,,2015-10-05,1,,,,,ステラ,0
30,1010702015260,登記記録の閉鎖等,0,2024-08-28,2024-08-20,有限会社アプロックス,,有限会社,東京都,品川区,小山台２丁目２番１５号,,13,109,1420061,,,2024-08-20,清算の結了等,,,2015-10-05,1,,,,,アプロックス,0
34,1011001146111,登記記録の閉鎖等,0,2024-08-28,2024-07-31,株式会社ＴＯＭＯＣＯＳ,,株式会社,東京都,渋谷区,千駄ヶ谷３丁目８－５,,13,113,1510051,,,2024-07-31,清算の結了等,,,2022-03-07,1,,,,,トモコス,0
56,1012401038352,登記記録の閉鎖等,0,2024-08-28,2024-08-27,ＭＯＳＥＮ商業開発株式会社,,株式会社,東京都,武蔵野市,西久保３丁目２番１号アルベルゴ武蔵野７０２号室,,13,203,1800013,,,2024-08-27,清算の結了等,,,2021-10-05,1,"MOSEN Commercial Development Co., Ltd.",Tokyo,"Albergo Musashino 702, 3-2-1, Nishikubo, Musashino shi",,マオセンショウギョウカイハツ,0
60,1013202006325,登記記録の閉鎖等,0,2024-08-28,2024-08-06,有限会社邑ネットワーク,,有限会社,東京都,目黒区,八雲３丁目２３番１６号,,13,110,1520023,,,2024-08-06,清算の結了等,,,2015-10-05,1,,,,,ムラネットワーク,0
93,1040001112228,登記記録の閉鎖等,0,2024-08-28,2024-08-15,ｎａｎｏ　ｆａｃｔｏｒｙ株式会社,,株式会社,千葉県,市川市,湊新田１丁目４番５号,,12,203,2720132,,,2024-08-15,清算の結了等,,,2020-01-20,1,,,,,ナノファクトリー,0
100,1040005005378,登記記録の閉鎖等,0,2024-08-28,2024-08-13,医療法人社団虹彩会,,その他の設立登記法人,千葉県,松戸市,松戸２０４１番地の２吉崎ビル２階,00021430,12,207,2710092,,,2024-08-13,清算の結了等,,,2015-10-05,1,,,,,コウサイカイ,0
105,1060002011476,登記記録の閉鎖等,0,2024-08-28,2024-08-19,有限会社向洋,,有限会社,栃木県,宇都宮市,砥上町３１１番地１７,,09,201,3200856,,,2024-08-19,清算の結了等,,,2015-10-05,1,,,,,コウヨウ,0
117,1110001023541,登記記録の閉鎖等,0,2024-08-28,2024-08-21,株式会社ミツワ総合サービス,,株式会社,新潟県,長岡市,下条町字清水田１１８８番地,,15,202,9401146,,,2024-08-21,清算の結了等,,,2015-10-05,1,,,,,ミツワソウゴウサービス,0
120,1120001191305,登記記録の閉鎖等,0,2024-08-28,2024-08-26,株式会社福祉プロジェクト,,株式会社,大阪府,大阪市大正区,小林西１丁目８番１０号,,27,108,5510013,,,2024-08-26,清算の結了等,,,2015-10-05,1,,,,,フクシプロジェクト,0
134,1122001004586,登記記録の閉鎖等,0,2024-08-28,2024-08-26,株式会社田中金属工業所,,株式会社,大阪府,東大阪市,大蓮南５丁目７番３４号,00034244,27,227,5770825,,,2024-08-26,清算の結了等,,,2015-10-05,1,,,,,タナカキンゾクコウギョウショ,0
135,1122001005626,登記記録の閉鎖等,0,2024-08-28,2024-08-26,株式会社西川紙工,,株式会社,大阪府,東大阪市,七軒家１５番１９号,,27,227,5770005,,,2024-08-26,清算の結了等,,,2015-10-05,1,,,,,ニシカワシコウ,0
136,1122002011904,登記記録の閉鎖等,0,2024-08-28,2024-08-26,有限会社トフス,,有限会社,大阪府,四條畷市,雁屋南町１６番４３号,,27,229,5750036,,,2024-08-26,清算の結了等,,,2015-10-05,1,,,,,トフス,0
151,1180002069379,登記記録の閉鎖等,0,2024-08-28,2024-08-19,有限会社タイヨー工芸,,有限会社,愛知県,小牧市,大字北外山１０４５番地,,23,219,4850023,,,2024-08-19,清算の結了等,,,2015-10-05,1,,,,,タイヨーコウゲイ,0
156,1180003010671,登記記録の閉鎖等,0,2024-08-28,2024-08-22,柴田運輸合資会社,,合資会社,愛知県,瀬戸市,西本地町２丁目２４番地,,23,204,4890971,,,2024-08-22,合併による解散等,8180001106457,令和６年８月１２日愛知県瀬戸市西本地町二丁目２２番地株式会社三晃トランスポート（8180001106457）に合併し解散,2015-10-05,1,,,,,シバタウンユ,0
159,1180302019851,登記記録の閉鎖等,0,2024-08-28,2024-08-22,有限会社石川地所部,,有限会社,愛知県,碧南市,浜寺町２丁目１１番地,,23,209,4470845,,,2024-08-22,合併による解散等,5180301032612,令和６年８月２２日愛知県碧南市浜寺町二丁目１１番地株式会社ココノエホールディングス（5180301032612）に合併し解散,2015-10-05,1,,,,,イシカワヂショブ,0
166,1220001018662,登記記録の閉鎖等,0,2024-08-28,2024-08-20,株式会社ライソル,,株式会社,石川県,かほく市,大崎ハ３１番地１,,17,209,9291127,,,2024-08-20,清算の結了等,,,2015-10-05,1,,,,,ライソル,0
202,1410001009766,登記記録の閉鎖等,0,2024-08-28,2024-08-27,株式会社秋田ミミック,,株式会社,京都府,京都市伏見区,竹田藁屋町５０番地,,26,109,6128443,,,2024-08-27,清算の結了等,,,2015-10-05,1,,,,,アキタミミック,0
218,1440005000099,登記記録の閉鎖等,0,2024-08-28,2024-08-26,函館自動車車体整備協同組合,,その他の設立登記法人,北海道,函館市,西桔梗町８５７番地６,,01,202,0410824,,,2024-08-26,清算の結了等,,,2015-10-05,1,,,,,,0
270,2011101079648,登記記録の閉鎖等,0,2024-08-28,2024-08-09,株式会社ラブドッグホスピタリティ,,株式会社,東京都,新宿区,大久保１丁目８番８号,,13,104,1690072,,,2024-08-09,清算の結了等,,,2017-02-22,1,,,,,ラブドッグホスピタリティ,0
276,2011401003737,登記記録の閉鎖等,0,2024-08-28,2024-08-20,株式会社大成社紙業,,株式会社,東京都,板橋区,坂下３丁目４番５号,,13,119,1740043,,,2024-08-20,清算の結了等,,,2015-10-05,1,,,,,タイセイシャシギョウ,0
280,2011402002853,登記記録の閉鎖等,0,2024-08-28,2024-08-21,久保産業有限会社,,有限会社,東京都,板橋区,成増３丁目５１番１６号,,13,119,1750094,,,2024-08-21,清算の結了等,,,2015-10-05,1,,,,,クボサンギョウ,0
294,2013201018064,登記記録の閉鎖等,0,2024-08-28,2024-08-26,粧彩堂株式会社,,株式会社,埼玉県,川口市,戸塚５丁目１４番１２号,,11,203,3330811,,,2024-08-26,清算の結了等,,,2015-10-05,1,,,,,,0
297,2020001070154,登記記録の閉鎖等,0,2024-08-28,2024-08-05,株式会社勉強堂,,株式会社,神奈川県,川崎市中原区,上平間１１５２番地,,14,133,2110013,,,2024-08-05,清算の結了等,,,2015-10-05,1,,,,,ベンキョウドウ,0
305,2020002018516,登記記録の閉鎖等,0,2024-08-28,2024-08-05,有限会社共栄製版,,有限会社,神奈川県,横浜市港南区,港南台１丁目３０番４号,,14,111,2340054,,,2024-08-05,清算の結了等,,,2015-10-05,1,,,,,キョウエイセイハン,0
306,2020002059857,登記記録の閉鎖等,0,2024-08-28,2024-08-05,有限会社みどりケアサービス,,有限会社,神奈川県,横浜市緑区,東本郷５丁目２３番１０号,,14,113,2260002,,,2024-08-05,清算の結了等,,,2015-10-05,1,,,,,ミドリケアサービス,0
312,2021002031525,登記記録の閉鎖等,0,2024-08-28,2024-08-26,有限会社コア,,有限会社,神奈川県,厚木市,旭町２丁目２－２１－１Ｆ,,14,212,2430014,,,2024-08-26,清算の結了等,,,2015-10-05,1,,,,,コア,0
319,2040001031377,登記記録の閉鎖等,0,2024-08-28,2024-08-15,株式会社ＡＲＲＯＷ’Ｓプロジェクト,,株式会社,千葉県,市川市,八幡１丁目１１番２４号クルーハウス２０１,,12,203,2720021,,,2024-08-15,清算の結了等,,,2015-10-05,1,,,,,アローズプロジェクト,0
339,2080103000342,登記記録の閉鎖等,0,2024-08-28,2024-08-23,合名会社ヒルトップサービス,,合名会社,静岡県,御殿場市,萩原４３８番地,,22,215,4120042,,,2024-08-23,清算の結了等,,,2015-10-05,1,,,,,ヒルトップサービス,0
346,2100005011757,登記記録の閉鎖等,0,2024-08-28,2024-08-19,農事組合法人ナガノパープル堅石,,その他の設立登記法人,長野県,塩尻市,大字広丘堅石１１２１番地１,,20,215,3990705,,,2024-08-19,清算の結了等,,,2015-12-16,1,,,,,ナガノパープルカタイシ,0
347,2110001012766,登記記録の閉鎖等,0,2024-08-28,2024-08-23,デンカセメント新発田サービス株式会社,,株式会社,新潟県,新発田市,東新町１丁目１番地,,15,206,9570015,,,2024-08-23,清算の結了等,,,2015-10-05,1,,,,,デンカセメントシバタサービス,0
353,2120001008846,登記記録の閉鎖等,0,2024-08-28,2024-08-26,株式会社八雲商会,,株式会社,大阪府,枚方市,南中振１丁目２０番１９号,,27,210,5730094,,,2024-08-26,清算の結了等,,,2015-10-05,1,,,,,ヤクモショウカイ,0
361,2120001243674,登記記録の閉鎖等,0,2024-08-28,2024-08-21,心元投資株式会社,,株式会社,大阪府,大阪市北区,天満２丁目９番１７号天満双葉ビル２０３号室,,27,127,5300043,,,2024-08-21,清算の結了等,,,2022-02-09,1,,,,,シンゲントウシ,0
373,2120005004882,登記記録の閉鎖等,0,2024-08-28,2024-08-26,医療法人入江歯科医院,,その他の設立登記法人,大阪府,大阪市西区,新町１丁目２２番２３号,,27,106,5500013,,,2024-08-26,清算の結了等,,,2015-10-05,1,,,,,イリエシカイイン,0
385,2122003001390,登記記録の閉鎖等,0,2024-08-28,2024-08-23,合同会社ダイテック,,合同会社,大阪府,東大阪市,中石切町６丁目４番２号,,27,227,5798014,,,2024-08-23,合併による解散等,2120001045088,令和６年８月２１日大阪市西区九条南二丁目５番２４号株式会社ダイロック（2120001045088）に合併し解散,2017-09-12,1,,,,,,0
387,2140002010155,登記記録の閉鎖等,0,2024-08-28,2024-08-26,有限会社高原一級建築事務所,,有限会社,兵庫県,三田市,高次１丁目８番１号Ｙ’ｓビル３Ｆ,,28,219,6691512,,,2024-08-26,清算の結了等,,,2015-10-05,1,,,,,タカハライッキュウケンチクジムショ,0
388,2160001004247,登記記録の閉鎖等,0,2024-08-28,2024-08-14,株式会社川端電気,,株式会社,滋賀県,大津市,際川３丁目２５番６号,,25,201,5200002,,,2024-08-14,清算の結了等,,,2015-10-05,1,,,,,カワバタデンキ,0
398,2200001003252,登記記録の閉鎖等,0,2024-08-28,2024-08-22,谷下機械株式会社,,株式会社,岐阜県,岐阜市,下奈良１丁目２８番３号,,21,201,5008385,,,2024-08-22,清算の結了等,,,2015-10-05,1,,,,,タニシタキカイ,0
411,2260002012560,登記記録の閉鎖等,0,2024-08-28,2024-08-22,有限会社九十九エンタープライズ,,有限会社,岡山県,岡山市東区,城東台南１丁目１５番１７号,,33,103,7090623,,,2024-08-22,清算の結了等,,,2015-10-05,1,,,,,ツクモエンタープライズ,0
412,2270001008906,登記記録の閉鎖等,0,2024-08-28,2024-08-27,ＳＩＬＥＮＴビジネス総合企画株式会社,,株式会社,鳥取県,八頭郡八頭町,下野１２６番地,,31,329,6800415,,,2024-08-27,清算の結了等,,,2024-01-15,1,,,,,サイレントビジネスソウゴウキカク,0
418,2290003007004,登記記録の閉鎖等,0,2024-08-28,2024-07-12,合同会社夜臼製作所,,合同会社,福岡県,糟屋郡新宮町,夜臼５丁目１番１０号,,40,345,8110110,,,2024-07-12,清算の結了等,,,2017-02-03,1,,,,,ヤウスセイサクショ,0
421,2300003001104,登記記録の閉鎖等,0,2024-08-28,2024-08-23,幸合同会社,,合同会社,佐賀県,鳥栖市,東町２丁目８８５番地７,,41,203,8410035,,,2024-08-23,清算の結了等,,,2015-10-05,1,,,,,サチ,0
433,2340005005561,登記記録の閉鎖等,0,2024-08-28,2024-08-26,医療法人たけのこ会,,その他の設立登記法人,鹿児島県,鹿児島市,鴨池２丁目４番１号,,46,201,8900063,,,2024-08-26,清算の結了等,,,2015-10-05,1,,,,,タケノコカイ,0
435,2360001026329,登記記録の閉鎖等,0,2024-08-28,2024-08-19,株式会社オールインアート,,株式会社,沖縄県,中頭郡読谷村,字楚辺２０８２－３,,47,324,9040304,,,2024-08-19,清算の結了等,,,2019-10-16,1,,,,,オールインアート,0
443,2370002010140,登記記録の閉鎖等,0,2024-08-28,2024-08-13,有限会社大潟電器,,有限会社,宮城県,仙台市青葉区,中江２丁目３番５号,,04,101,9800001,,,2024-08-13,清算の結了等,,,2015-10-05,1,,,,,オオガタデンキ,0
462,2500002019861,登記記録の閉鎖等,0,2024-08-28,2024-08-26,有限会社宝屋,,有限会社,愛媛県,今治市,国分１丁目８番５５号,,38,202,7991533,,,2024-08-26,清算の結了等,,,2015-10-05,1,,,,,タカラヤ,0
468,3010001084179,登記記録の閉鎖等,0,2024-08-28,2024-08-28,株式会社エムズコーポレーション,,株式会社,東京都,府中市,是政４丁目１番地の１－１３０２,,13,206,1830014,,,2024-08-28,清算の結了等,,,2015-10-05,1,,,,,,0
481,3010003038777,登記記録の閉鎖等,0,2024-08-28,2024-08-13,Ｒａｄｗａｎ合同会社,,合同会社,東京都,千代田区,外神田６丁目７番１－４０４号,,13,101,1010021,,,2024-08-13,清算の結了等,,,2022-09-30,1,,,,,ラドワン,0
491,3010401105121,登記記録の閉鎖等,0,2024-08-28,2024-08-15,株式会社リハビリスト,,株式会社,千葉県,市川市,塩焼５丁目１４番１５号,,12,203,2720114,,,2024-08-15,清算の結了等,,,2015-10-05,1,,,,,リハビリスト,0
492,3010401142494,登記記録の閉鎖等,0,2024-08-28,2024-08-20,株式会社スカイ・メディカル,,株式会社,東京都,品川区,北品川５丁目９番１１号,,13,109,1410001,,,2024-08-20,清算の結了等,,,2018-12-12,1,,,,,スカイメディカル,0
498,3010502007398,登記記録の閉鎖等,0,2024-08-28,2024-08-22,有限会社デイリーマートナガシマ,,有限会社,東京都,台東区,三筋２丁目１０番１６号,,13,106,1110055,,,2024-08-22,清算の結了等,,,2015-10-05,1,,,,,デイリーマートナガシマ,0
502,3010701005608,登記記録の閉鎖等,0,2024-08-28,2024-08-21,株式会社大崎企画,,株式会社,東京都,品川区,大崎５丁目８番５号,,13,109,1410032,,,2024-08-21,清算の結了等,,,2015-10-05,1,,,,,オオサキキカク,0
544,3011802008350,登記記録の閉鎖等,0,2024-08-28,2024-08-21,有限会社吉田紙器製作所,,有限会社,東京都,葛飾区,東堀切１丁目２０番２２号,,13,122,1240004,,,2024-08-21,清算の結了等,,,2015-10-05,1,,,,,ヨシダシキセイサクショ,0
561,3020001100133,登記記録の閉鎖等,0,2024-08-28,2024-08-05,株式会社サスシステム,,株式会社,神奈川県,川崎市川崎区,元木１丁目６番１１－１号,,14,131,2100021,,,2024-08-05,清算の結了等,,,2015-10-05,1,,,,,サスシステム,0
565,3020002074120,登記記録の閉鎖等,0,2024-08-28,2024-08-02,有限会社オタフク,,有限会社,神奈川県,横浜市南区,中里４丁目４５番３号,,14,105,2320063,,,2024-08-02,清算の結了等,,,2015-10-05,1,,,,,オタフク,0
566,3020003011642,登記記録の閉鎖等,0,2024-08-28,2024-08-07,合同会社ランドマークコーポレーション,,合同会社,神奈川県,横浜市中区,尾上町６丁目８７番地１,,14,104,2310015,,,2024-08-07,清算の結了等,,,2016-08-05,1,,,,,ランドマークコーポレーション,0
586,3030002054311,登記記録の閉鎖等,0,2024-08-28,2024-08-26,有限会社高橋住設,00016778,有限会社,埼玉県,上尾市,大字川２１５番地１４,,11,219,3620048,,,2024-08-26,清算の結了等,,,2015-10-05,1,,,,,タカハシジュウセツ,0
597,3040002022820,登記記録の閉鎖等,0,2024-08-28,2024-07-30,有限会社新陽電気工事,,有限会社,千葉県,船橋市,上山町１丁目１５８番地１０,,12,204,2730046,,,2024-07-30,清算の結了等,,,2015-10-05,1,,,,,シンヨウデンキコウジ,0
606,3070001013900,登記記録の閉鎖等,0,2024-08-28,2024-08-27,株式会社サンクラフト,,株式会社,群馬県,伊勢崎市,赤堀鹿島町１５３番地,,10,204,3792202,,,2024-08-27,清算の結了等,,,2015-10-05,1,,,,,サンクラフト,0
622,3100005010023,登記記録の閉鎖等,0,2024-08-28,2024-08-20,医療法人真和会,,その他の設立登記法人,長野県,下伊那郡豊丘村,大字神稲１２９番地,,20,416,3993202,,,2024-08-20,清算の結了等,,,2015-10-05,1,,,,,シンワカイ,0
624,3110002016220,登記記録の閉鎖等,0,2024-08-28,2024-08-23,有限会社トツプ．モードエグチ,,有限会社,新潟県,胎内市,西本町２１番２５－３号,,15,227,9592656,,,2024-08-23,清算の結了等,,,2015-10-05,1,,,,,トツプモードエグチ,0
650,3130002027348,登記記録の閉鎖等,0,2024-08-28,2024-08-26,有限会社南京都タイヤショップ,,有限会社,京都府,久世郡久御山町,佐山双置３番地の２,,26,322,6130034,,,2024-08-26,清算の結了等,,,2015-10-05,1,,,,,ミナミキョウトタイヤショップ,0
652,3130005003924,登記記録の閉鎖等,0,2024-08-28,2024-08-26,医療法人田中整形外科・外科医院,,その他の設立登記法人,京都府,京都市中京区,西ノ京北円町３９番地,,26,104,6048462,,,2024-08-26,清算の結了等,,,2015-10-05,1,,,,,タナカセイケイゲカゲカイイン,0
661,3170002011380,登記記録の閉鎖等,0,2024-08-28,2024-08-26,有限会社和光商事,,有限会社,和歌山県,新宮市,神倉２丁目６番３号,,30,207,6470044,,,2024-08-26,清算の結了等,,,2015-10-05,1,,,,,,0
663,3180001062829,登記記録の閉鎖等,0,2024-08-28,2024-08-19,株式会社カワムラ通信,,株式会社,愛知県,名古屋市千種区,川崎町２丁目３３番地の２,,23,101,4640826,,,2024-08-19,清算の結了等,,,2015-10-05,1,,,,,カワムラツウシン,0
672,3180002072579,登記記録の閉鎖等,0,2024-08-28,2024-08-21,有限会社ウエスト,,有限会社,愛知県,尾張旭市,桜ケ丘町２丁目２２３番地,,23,226,4880859,,,2024-08-21,清算の結了等,,,2015-10-05,1,,,,,ウエスト,0
674,3180002091595,登記記録の閉鎖等,0,2024-08-28,2024-08-20,有限会社島田ステンレス,,有限会社,愛知県,あま市,新居屋又屋敷８番地,,23,237,4901105,,,2024-08-20,清算の結了等,,,2015-10-05,1,,,,,シマダステンレス,0
678,3180302018876,登記記録の閉鎖等,0,2024-08-28,2024-08-22,有限会社藤村,,有限会社,愛知県,刈谷市,小垣江町北高根１９９番地,,23,210,4480813,,,2024-08-22,清算の結了等,,,2015-10-05,1,,,,,フジムラ,0
689,3200005001136,登記記録の閉鎖等,0,2024-08-28,2024-08-22,協同組合岐阜県中国技術研修生南受入協会,,その他の設立登記法人,岐阜県,岐阜市,金町１丁目２３番地,,21,201,5008842,,,2024-08-22,清算の結了等,,,2015-10-05,1,,,,,ギフケンチュウゴクギジュツケンシュウセイミナミウケイレキョウカイ,0
691,3210001011872,登記記録の閉鎖等,0,2024-08-28,2024-08-26,株式会社バン,,株式会社,福井県,越前市,片屋町第６７号２５番地の３,,18,209,9150893,,,2024-08-26,清算の結了等,,,2015-10-05,1,,,,,バン,0
696,3240002043929,登記記録の閉鎖等,0,2024-08-28,2024-08-21,有限会社福山精機,,有限会社,広島県,福山市,東川口町４丁目２番２３号,,34,207,7200821,,,2024-08-21,清算の結了等,,,2015-10-05,1,,,,,フクヤマセイキ,0
699,3250002005449,登記記録の閉鎖等,0,2024-08-28,2024-08-26,有限会社浜本運送店,,有限会社,山口県,宇部市,港町１丁目２番２０号,,35,202,7550027,,,2024-08-26,清算の結了等,,,2015-10-05,1,,,,,ハマモトウンソウテン,0
705,3290001017276,登記記録の閉鎖等,0,2024-08-28,2024-07-11,吉岡土木株式会社,,株式会社,福岡県,福岡市博多区,東光２丁目１番１３号,,40,132,8120008,,,2024-07-11,清算の結了等,,,2015-10-05,1,,,,,ヨシオカドボク,0
712,3290801019918,登記記録の閉鎖等,0,2024-08-28,2024-08-20,株式会社早田興産,,株式会社,福岡県,北九州市小倉北区,中津口１丁目２番１号２Ｆ,,40,106,8020018,,,2024-08-20,合併による解散等,7290802011234,令和６年８月２０日北九州市小倉北区中津口一丁目２番１号２Ｆ株式会社早田不動産（7290802011234）に合併し解散,2015-10-05,1,,,,,ハヤタコウサン,0
714,3300002002473,登記記録の閉鎖等,0,2024-08-28,2024-07-11,株式会社カノン,,株式会社,福岡県,福岡市博多区,博多駅前４丁目１３－２７グランドハイツ博多１００７,,40,132,8120011,,,2024-07-11,清算の結了等,,,2015-10-05,1,,,,,カノン,0
722,3350001010761,登記記録の閉鎖等,0,2024-08-28,2024-08-23,株式会社ＣＯＲＥ,,株式会社,宮崎県,宮崎市,太田１丁目２番１６号グランドパレス大淀ＩＩ７０２号,00100566,45,201,8800903,,,2024-08-23,清算の結了等,,,2015-10-05,1,,,,,コア,0
744,4010001005274,登記記録の閉鎖等,0,2024-08-28,2024-08-26,株式会社東京富山会館,,株式会社,東京都,文京区,白山５丁目１番３－１０１号,,13,105,1120001,,,2024-08-26,清算の結了等,,,2015-10-05,1,,,,,トウキョウトヤマカイカン,0
747,4010001154237,登記記録の閉鎖等,0,2024-08-28,2024-08-21,アイ・シグマ・パートナーズ株式会社,,株式会社,東京都,千代田区,大手町１丁目５番１号,,13,101,1000004,,,2024-08-21,清算の結了等,,,2015-10-05,1,,,,,アイシグマパートナーズ,0
776,4010601044630,登記記録の閉鎖等,0,2024-08-28,2024-08-26,スペック株式会社,,株式会社,東京都,江東区,白河１丁目３番１３号,,13,108,1350021,,,2024-08-26,清算の結了等,,,2015-10-05,1,,,,,スペック,0
779,4010701009590,登記記録の閉鎖等,0,2024-08-28,2024-08-05,株式会社村田,,株式会社,神奈川県,横浜市瀬谷区,宮沢１丁目２７番地３,,14,114,2460038,,,2024-08-05,清算の結了等,,,2015-10-05,1,,,,,ムラタ,0
783,4010701043359,登記記録の閉鎖等,0,2024-08-28,2024-08-22,Ｃｈｏｃｏｔａｓ株式会社,,株式会社,東京都,品川区,南品川４丁目４番６号ＬＵＭＩＥＲＥ南品川（Ａ）９０１,,13,109,1400004,,,2024-08-22,清算の結了等,,,2022-10-19,1,,,,,チョコタス,0
787,4010902001306,登記記録の閉鎖等,0,2024-08-28,2024-08-07,有限会社池尻企画,,有限会社,東京都,千代田区,麹町６丁目２番６号,,13,101,1020083,,,2024-08-07,清算の結了等,,,2015-10-05,1,,,,,イケジリキカク,0
806,4011701008120,登記記録の閉鎖等,0,2024-08-28,2024-08-26,ユービーエム株式会社,,株式会社,東京都,江戸川区,西葛西５丁目６番２号５０１号室,,13,123,1340088,,,2024-08-26,清算の結了等,,,2015-10-05,1,,,,,ユービーエム,0
857,4030002040285,登記記録の閉鎖等,0,2024-08-28,2024-08-23,有限会社宏池コーポレーション,,有限会社,埼玉県,幸手市,香日向４丁目１４番１６号,,11,240,3400164,,,2024-08-23,清算の結了等,,,2015-10-05,1,,,,,ヒロイケコーポレーション,0
862,4040001085256,登記記録の閉鎖等,0,2024-08-28,2024-08-14,株式会社ペーパーアシスト,,株式会社,千葉県,八千代市,大和田新田９２７番地４３,,12,221,2760046,,,2024-08-14,清算の結了等,,,2015-10-05,1,,,,,ペーパーアシスト,0
887,4080401015247,登記記録の閉鎖等,0,2024-08-28,2024-08-23,株式会社大東,,株式会社,静岡県,掛川市,国安９４３番地の２,,22,213,4371413,,,2024-08-23,清算の結了等,,,2015-10-05,1,,,,,ダイトウ,0
893,4110001022020,登記記録の閉鎖等,0,2024-08-28,2024-08-20,株式会社アーバンプラン,,株式会社,新潟県,長岡市,希望が丘４丁目４番地１１,,15,202,9402124,,,2024-08-20,清算の結了等,,,2015-10-05,1,,,,,アーバンプラン,0
897,4120001022556,登記記録の閉鎖等,0,2024-08-28,2024-08-27,エムアンドエムエンジニアリング株式会社,,株式会社,大阪府,大阪市天王寺区,逢阪１丁目１番６－１１０１号,00027783,27,109,5430062,,,2024-08-27,清算の結了等,,,2015-10-05,1,,,,,エムアンドエムエンジニアリング,0
911,4120003011549,登記記録の閉鎖等,0,2024-08-28,2024-08-27,合同会社ルクスプロダクション,,合同会社,大阪府,大阪市都島区,友渕町１丁目３番１０５－４０９号,,27,102,5340016,,,2024-08-27,清算の結了等,,,2016-04-05,1,,,,,,0
929,4140001113295,登記記録の閉鎖等,0,2024-08-28,2024-08-26,株式会社知春,,株式会社,兵庫県,姫路市,岡田３５４番地１,,28,201,6700982,,,2024-08-26,清算の結了等,,,2019-04-11,1,,,,,チハル,0
933,4140002054126,登記記録の閉鎖等,0,2024-08-28,2024-08-26,有限会社グレイスキャリー,,有限会社,兵庫県,姫路市,書写１７３２番地１３,,28,201,6712201,,,2024-08-26,清算の結了等,,,2015-10-05,1,,,,,グレイスキャリー,0
938,4160002001613,登記記録の閉鎖等,0,2024-08-28,2024-08-26,有限会社フソウ企画,,有限会社,滋賀県,大津市,馬場３丁目１５番５号,,25,201,5200802,,,2024-08-26,清算の結了等,,,2015-10-05,1,,,,,フソウキカク,0
950,4180002038356,登記記録の閉鎖等,0,2024-08-28,2024-08-22,有限会社大豊空調,,有限会社,愛知県,名古屋市北区,喜惣治１丁目２１３番地,,23,103,4620065,,,2024-08-22,清算の結了等,,,2015-10-05,1,,,,,タイホウクウチョウ,0
951,4180002066225,登記記録の閉鎖等,0,2024-08-28,2024-08-20,有限会社シマサイエンス,,有限会社,愛知県,春日井市,上田楽町５７９番地の１０５,,23,206,4860801,,,2024-08-20,清算の結了等,,,2015-10-05,1,,,,,シマサイエンス,0
953,4180302024881,登記記録の閉鎖等,0,2024-08-28,2024-08-26,有限会社エイグ,,有限会社,広島県,広島市安佐南区,沼田町大字吉山１０８１１番地４５,,34,105,7313272,,,2024-08-26,清算の結了等,,,2015-10-05,1,,,,,,0
967,4260003003904,登記記録の閉鎖等,0,2024-08-28,2024-08-21,ナックカンパニー合同会社,,合同会社,岡山県,浅口市,鴨方町地頭上９９７番地２,,33,216,7190233,,,2024-08-21,清算の結了等,,,2022-05-11,1,,,,,ナックカンパニー,0
968,4290001010957,登記記録の閉鎖等,0,2024-08-28,2024-07-17,株式会社ライトフイルムプロダクシヨン,,株式会社,福岡県,福岡市中央区,平尾２丁目３番９号,,40,133,8100014,,,2024-07-17,清算の結了等,,,2015-10-05,1,,,,,ライトフイルムプロダクション,0
973,4290002021359,登記記録の閉鎖等,0,2024-08-28,2024-07-22,有限会社ラン・クリエイション,,有限会社,福岡県,福岡市中央区,高砂１丁目１４－１,,40,133,8100011,,,2024-07-22,清算の結了等,,,2015-10-05,1,,,,,ランクリエイション,0
977,4290003006565,登記記録の閉鎖等,0,2024-08-28,2024-07-22,合同会社梶原企画,,合同会社,福岡県,太宰府市,都府楼南２丁目１６番４１－４１６号,,40,221,8180105,,,2024-07-22,清算の結了等,,,2016-07-06,1,,,,,カジワラキカク,0
984,4330001022106,登記記録の閉鎖等,0,2024-08-28,2024-08-20,株式会社阿九,,株式会社,熊本県,熊本市南区,薄場２丁目１３番２４号,,43,104,8614131,,,2024-08-20,清算の結了等,,,2015-10-05,1,,,,,アキュウ,0
986,4330003007947,登記記録の閉鎖等,0,2024-08-28,2024-08-16,合同会社アーカム・ラボラトリーズ,,合同会社,熊本県,熊本市中央区,下通１丁目１２番２７号ＣＯＲＥ２１下通ビル,,43,101,8600807,,,2024-08-16,清算の結了等,,,2019-06-14,1,,,,,アーカムラボラトリーズ,0
999,4390002005756,登記記録の閉鎖等,0,2024-08-28,2024-08-19,有限会社ジェイジェイコーポレーション,,有限会社,山形県,天童市,東長岡３丁目２番３３号,,06,210,9940063,,,2024-08-19,清算の結了等,,,2015-10-05,1,,,,,ジェイジェイコーポレーション,0
1036,5010405008665,登記記録の閉鎖等,0,2024-08-28,2024-07-10,ビー・ヴィ・ケーリーフコフレ特定目的会社,,その他の設立登記法人,東京都,港区,赤坂２丁目１０番５号税理士法人赤坂国際会計事務所内,,13,103,1070052,,,2024-07-10,清算の結了等,,,2015-10-05,1,,,,,ビーヴィケーリーフコフレ,0
1037,5010501045521,登記記録の閉鎖等,0,2024-08-28,2024-08-22,ジェイメディック株式会社,,株式会社,東京都,台東区,浅草橋２丁目７番９号大森帽子ビル２Ｆ,,13,106,1110053,,,2024-08-22,清算の結了等,,,2020-03-30,1,,,,,ジェイメディック,0
1042,5010705002780,登記記録の閉鎖等,0,2024-08-28,2024-08-15,一般社団法人リ・クリエイトアジア,,その他の設立登記法人,東京都,中央区,銀座１丁目２２番１１号,,13,102,1040061,,,2024-08-15,清算の結了等,,,2018-06-20,1,,,,,リクリエイトアジア,0
1059,5011301019681,登記記録の閉鎖等,0,2024-08-28,2024-08-21,株式会社ルスカジャパン,,株式会社,東京都,品川区,大崎５丁目９番９－２６０３号,,13,109,1410032,,,2024-08-21,清算の結了等,,,2015-10-05,1,,,,,ルスカジャパン,0
1071,5012301009680,登記記録の閉鎖等,0,2024-08-28,2024-08-26,ファミリー葬祭株式会社,,株式会社,東京都,町田市,木曽東１丁目３６番１０号,,13,209,1940036,,,2024-08-26,清算の結了等,,,2015-10-05,1,,,,,ファミリーソウサイ,0
1080,5020001022912,登記記録の閉鎖等,0,2024-08-28,2024-08-05,京浜リペアーサービス株式会社,,株式会社,神奈川県,横浜市神奈川区,西神奈川１丁目１４番地１１,,14,102,2210822,,,2024-08-05,清算の結了等,,,2015-10-05,1,,,,,ケイヒンリペアーサービス,0
1116,5030005003866,登記記録の閉鎖等,0,2024-08-28,2024-08-22,公益財団法人入間市振興公社,,その他の設立登記法人,埼玉県,入間市,豊岡４丁目２番２号,,11,225,3580003,,,2024-08-22,清算の結了等,,,2015-10-05,1,,,,,イルマシシンコウコウシャ,0
1117,5030005020291,登記記録の閉鎖等,0,2024-08-28,2024-08-22,一般社団法人相続不動産サポートセンター,,その他の設立登記法人,埼玉県,さいたま市大宮区,天沼町１丁目６５番地,,11,103,3300834,,,2024-08-22,清算の結了等,,,2021-03-08,1,,,,,ソウゾクフドウサンサポートセンター,0
1126,5040003004790,登記記録の閉鎖等,0,2024-08-28,2024-08-05,合同会社ニューノーマル,,合同会社,千葉県,松戸市,千駄堀１４４１番地の１,,12,207,2702252,,,2024-08-05,清算の結了等,,,2015-10-05,1,,,,,ニューノーマル,0
1135,5080001007833,登記記録の閉鎖等,0,2024-08-28,2024-08-22,株式会社開花産業,,株式会社,静岡県,静岡市清水区,広瀬７８３番地の１,,22,103,4240102,,,2024-08-22,清算の結了等,,,2015-10-05,1,,,,,カイカサンギョウ,0
1136,5080001022320,登記記録の閉鎖等,0,2024-08-28,2024-08-22,株式会社エンジュ,,株式会社,静岡県,静岡市駿河区,森下町１－２１ＮＪオフィス静岡２２０７号,,22,102,4228061,,,2024-08-22,清算の結了等,,,2018-07-04,1,,,,,エンジュ,0
1140,5080402003233,登記記録の閉鎖等,0,2024-08-28,2024-08-26,有限会社桜井住宅,,有限会社,静岡県,浜松市中央区,城北２丁目３９番１０号,,22,138,4328011,,,2024-08-26,清算の結了等,,,2015-10-05,1,,,,,サクライジュウタク,0
1161,5120903004799,登記記録の閉鎖等,0,2024-08-28,2024-08-21,合同会社ダイレクト,,合同会社,大阪府,吹田市,佐竹台１丁目５番ＯＰＨ千里佐竹台１棟７０１号,,27,205,5650855,,,2024-08-21,清算の結了等,,,2023-08-25,1,,,,,ダイレクト,0
1171,5140002051642,登記記録の閉鎖等,0,2024-08-28,2024-08-26,有限会社リュウセイ,,有限会社,兵庫県,姫路市,飾磨区下野田２丁目４９３番地１－１０３,,28,201,6728044,,,2024-08-26,清算の結了等,,,2015-10-05,1,,,,,リュウセイ,0
1178,5180001088830,登記記録の閉鎖等,0,2024-08-28,2024-08-22,株式会社大谷設備,,株式会社,愛知県,西春日井郡豊山町,大字青山１８１６番地１１,,23,342,4800201,,,2024-08-22,清算の結了等,,,2015-10-05,1,,,,,オオタニセツビ,0
1182,5180001155969,登記記録の閉鎖等,0,2024-08-28,2024-08-22,株式会社鶴商,,株式会社,愛知県,名古屋市守山区,小幡太田１番８号アーバンラフレ小幡６号棟１００３号,,23,113,4630051,,,2024-08-22,清算の結了等,,,2023-04-20,1,,,,,ツルショウ,0
1219,5340002016105,登記記録の閉鎖等,0,2024-08-28,2024-08-26,有限会社古市商会,,有限会社,鹿児島県,姶良市,西姶良１丁目７番２号,,46,225,8995656,,,2024-08-26,清算の結了等,,,2015-10-05,1,,,,,フルイチショウカイ,0
1220,5340002026525,登記記録の閉鎖等,0,2024-08-28,2024-08-22,有限会社南日本新聞鹿屋中央販売センター,,有限会社,鹿児島県,鹿屋市,共栄町１４番２９号,,46,203,8930005,,,2024-08-22,清算の結了等,,,2015-10-05,1,,,,,ミナミニホンシンブンカノヤチュウオウハンバイセンター,0
1234,5400002004490,登記記録の閉鎖等,0,2024-08-28,2024-08-08,有限会社クッキングサロンケトル,,有限会社,岩手県,盛岡市,上堂１丁目１６番４号,,03,201,0200125,,,2024-08-08,清算の結了等,,,2015-10-05,1,,,,,クッキングサロンケトル,0
1235,5420002010462,登記記録の閉鎖等,0,2024-08-28,2024-08-23,有限会社オージェーシステム,,有限会社,青森県,八戸市,大字鮫町字上盲久保１８番地８２,,02,203,0310841,,,2024-08-23,清算の結了等,,,2015-10-05,1,,,,,オージェーシステム,0
1237,5430002001130,登記記録の閉鎖等,0,2024-08-28,2024-08-26,有限会社阿部保温工業,,有限会社,北海道,札幌市北区,篠路一条５丁目７番８号,,01,102,0028021,,,2024-08-26,清算の結了等,,,2015-10-05,1,,,,,アベホオンコウギョウ,0
1245,5480002001514,登記記録の閉鎖等,0,2024-08-28,2024-08-26,有限会社三光プロパン,,有限会社,徳島県,徳島市,福島１丁目３番５８号,,36,201,7700868,,,2024-08-26,清算の結了等,,,2015-10-05,1,,,,,サンコウプロパン,0
1256,6010003037561,登記記録の閉鎖等,0,2024-08-28,2024-08-16,ユーラピス合同会社,,合同会社,東京都,中央区,銀座１丁目２２番１１号,,13,102,1040061,,,2024-08-16,清算の結了等,,,2022-04-27,1,,,,,ユーラピス,0
1266,6010405020685,登記記録の閉鎖等,0,2024-08-28,2024-08-06,五葉山ソーラーホールディングス一般社団法人,,その他の設立登記法人,東京都,港区,虎ノ門３丁目２２番１０－２０１号,,13,103,1050001,,,2024-08-06,清算の結了等,,,2022-02-09,1,,,,,ゴヨウザンソーラーホールディングス,0
1298,6011102012595,登記記録の閉鎖等,0,2024-08-28,2024-08-20,有限会社宮崎保温工業,,有限会社,東京都,豊島区,南長崎４丁目４番１３号,,13,116,1710052,,,2024-08-20,清算の結了等,,,2015-10-05,1,,,,,ミヤザキホオンコウギョウ,0
1309,6011801009289,登記記録の閉鎖等,0,2024-08-28,2024-08-16,大光株式会社,,株式会社,東京都,足立区,千住仲町１８番１０号,,13,121,1200036,,,2024-08-16,合併による解散等,5011801037506,令和６年８月１４日東京都葛飾区白鳥三丁目１番１号株式会社ＴＡＳＫコーポレーション（5011801037506）に合併し解散,2015-10-05,1,,,,,ダイコウ,0
1311,6012302008169,登記記録の閉鎖等,0,2024-08-28,2024-08-26,有限会社ＳＯＲＡ,,有限会社,東京都,町田市,高ヶ坂２丁目２５番１５号,,13,209,1940014,,,2024-08-26,清算の結了等,,,2015-10-05,1,,,,,,0
1343,6030005008848,登記記録の閉鎖等,0,2024-08-28,2024-08-23,医療法人社団福勝会,,その他の設立登記法人,埼玉県,川越市,連雀町２５番地８,,11,201,3500066,,,2024-08-23,清算の結了等,,,2015-10-05,1,,,,,フッカツカイ,0
1348,6040001043815,登記記録の閉鎖等,0,2024-08-28,2024-08-13,クリーン・エコ株式会社,,株式会社,千葉県,白井市,河原子２４５番地の２５,,12,232,2701403,,,2024-08-13,清算の結了等,,,2015-10-05,1,,,,,クリーンエコ,0
1351,6040001111943,登記記録の閉鎖等,0,2024-08-28,2024-08-15,ＳＰ桜ケア株式会社,,株式会社,千葉県,四街道市,大日７９－３,,12,228,2840001,,,2024-08-15,清算の結了等,,,2019-12-23,1,,,,,エスピーサクラケア,0
1352,6040002024302,登記記録の閉鎖等,0,2024-08-28,2024-08-14,有限会社肉のにくや二和店,,有限会社,千葉県,船橋市,二和西１丁目７番２号,,12,204,2740806,,,2024-08-14,清算の結了等,,,2015-10-05,1,,,,,ニクノニクヤフタワテン,0
1371,6120001118022,登記記録の閉鎖等,0,2024-08-28,2024-08-21,株式会社シヤルレミヨシ,,株式会社,大阪府,大阪市中央区,粉川町４番１６号,,27,128,5400018,,,2024-08-21,清算の結了等,,,2015-10-05,1,,,,,シヤルレミヨシ,0
1383,6120002062401,登記記録の閉鎖等,0,2024-08-28,2024-08-27,有限会社リメイク,,有限会社,大阪府,大阪市大正区,泉尾１丁目３０番１５号,,27,108,5510031,,,2024-08-27,清算の結了等,,,2015-10-05,1,,,,,リメイク,0
1404,6130003008798,登記記録の閉鎖等,0,2024-08-28,2024-08-20,合同会社Ｆｒｏｎｔ＆Ｆｒｏｎｔ,,合同会社,愛知県,名古屋市中村区,名駅４丁目３番１０号,,23,105,4500002,,,2024-08-20,合併による解散等,6180001147742,令和６年８月２０日名古屋市中村区名駅四丁目３番１０号株式会社ＤｅＳＩＲＥ（6180001147742）に合併し解散,2023-06-28,1,,,,,フロントアンドフロント,0
1436,6240001048380,登記記録の閉鎖等,0,2024-08-28,2024-08-22,ＬＳ株式会社,,株式会社,東京都,品川区,西五反田４丁目９番１４号,,13,109,1410031,,,2024-08-22,清算の結了等,,,2015-10-23,1,,,,,エルエス,0
1437,6240002006437,登記記録の閉鎖等,0,2024-08-28,2024-08-27,有限会社三栄トータルシステム,,有限会社,広島県,広島市佐伯区,五月が丘４丁目２４番２４号,,34,108,7315101,,,2024-08-27,清算の結了等,,,2015-10-05,1,,,,,,0
1444,6290001061305,登記記録の閉鎖等,0,2024-08-28,2024-07-16,株式会社シャリップ販売,,株式会社,福岡県,筑紫野市,塔原東３丁目１３番１号,,40,217,8180059,,,2024-07-16,清算の結了等,,,2015-10-05,1,,,,,シャリップハンバイ,0
1453,6330002003722,登記記録の閉鎖等,0,2024-08-28,2024-08-20,有限会社玄泉,,有限会社,熊本県,熊本市西区,田崎本町６番１６－１０２号,,43,103,8600052,,,2024-08-20,清算の結了等,,,2015-10-05,1,,,,,ゲンセン,0
1455,6330003005214,登記記録の閉鎖等,0,2024-08-28,2024-08-20,合同会社Ｋ２企画,,合同会社,熊本県,山鹿市,方保田３４９７番地７,,43,208,8610382,,,2024-08-20,合併による解散等,2330001010599,令和６年８月２０日熊本県山鹿市方保田３４９７番地７株式会社ｐｌａｎ・Ｋ－２（2330001010599）に合併し解散,2015-10-05,1,,,,,ケーツーキカク,0
1456,6340002024874,登記記録の閉鎖等,0,2024-08-28,2024-08-22,有限会社井之上工業,,有限会社,鹿児島県,鹿屋市,西祓川町２９０番地,,46,203,8930025,,,2024-08-22,清算の結了等,,,2015-10-05,1,,,,,イノウエコウギョウ,0
1459,6350002004413,登記記録の閉鎖等,0,2024-08-28,2024-08-22,有限会社マツムラ・マタニティサプライ,,有限会社,宮崎県,宮崎市,大島町西田２１５４番地２,,45,201,8800824,,,2024-08-22,清算の結了等,,,2015-10-05,1,,,,,マツムラマタニティサプライ,0
1466,6370401000845,登記記録の閉鎖等,0,2024-08-28,2024-08-09,株式会社ファミーリオ,,株式会社,宮城県,登米市,南方町西山成前１３５番地１,,04,212,9870401,,,2024-08-09,清算の結了等,,,2015-10-05,1,,,,,ファミーリオ,0
1469,6380001031595,登記記録の閉鎖等,0,2024-08-28,2024-08-16,株式会社スマイルホーム,,株式会社,福島県,南相馬市,原町区本陣前２丁目２２番地の５,,07,212,9750062,,,2024-08-16,清算の結了等,,,2021-02-25,1,,,,,スマイルホーム,0
1476,6430002048377,登記記録の閉鎖等,0,2024-08-28,2024-08-26,有限会社明治家製菓店,,有限会社,北海道,千歳市,幸町２丁目１３番地,,01,224,0660063,,,2024-08-26,清算の結了等,,,2015-10-05,1,,,,,メイジヤセイカテン,0
1481,6470001011464,登記記録の閉鎖等,0,2024-08-28,2024-08-23,株式会社ハシモト,,株式会社,香川県,東かがわ市,白鳥３３番地３,,37,207,7692705,,,2024-08-23,清算の結了等,,,2015-10-05,1,,,,,ハシモト,0
1485,6490001005332,登記記録の閉鎖等,0,2024-08-28,2024-08-26,株式会社マインドフルトリニティ,,株式会社,高知県,幡多郡黒潮町,浮鞭９６５番地２,,39,428,7891911,,,2024-08-26,清算の結了等,,,2015-10-05,1,,,,,,0
1492,7010001152717,登記記録の閉鎖等,0,2024-08-28,2024-08-20,株式会社アネーグル,,株式会社,東京都,台東区,根岸２丁目２１番１５号３０７,,13,106,1100003,,,2024-08-20,清算の結了等,,,2015-10-05,1,,,,,アネーグル,0
1496,7010001180098,登記記録の閉鎖等,0,2024-08-28,2024-08-15,株式会社フランポン,,株式会社,東京都,文京区,向丘１丁目１６番１７号,,13,105,1130023,,,2024-08-15,清算の結了等,,,2016-12-09,1,,,,,フランポン,0
1522,7010401115141,登記記録の閉鎖等,0,2024-08-28,2024-08-05,株式会社ＷＡＫＬＵＣＫ,,株式会社,東京都,中央区,日本橋兜町１７－２兜町第６葉山ビル４階,,13,102,1030026,,,2024-08-05,清算の結了等,,,2015-10-05,1,,,,,ワックラック,0
1528,7010401124299,登記記録の閉鎖等,0,2024-08-28,2024-08-15,介護サポートサービス株式会社,,株式会社,千葉県,船橋市,行田３丁目２６番２２号,,12,204,2730044,,,2024-08-15,清算の結了等,,,2016-04-21,1,,,,,カイゴサポートサービス,0
1538,7010901053469,登記記録の閉鎖等,0,2024-08-28,2024-08-23,株式会社アクシオス,,株式会社,東京都,世田谷区,経堂３丁目３１番１４－２０２号,,13,112,1560052,,,2024-08-23,清算の結了等,,,2023-07-20,1,,,,,アクシオス,0
1548,7011101083166,登記記録の閉鎖等,0,2024-08-28,2024-08-26,株式会社ノックバックワークス,,株式会社,埼玉県,所沢市,小手指南１丁目２５番地の１５９,,11,208,3591146,,,2024-08-26,清算の結了等,,,2018-02-14,1,,,,,ノックバックワークス,0
1550,7011103008922,登記記録の閉鎖等,0,2024-08-28,2024-08-26,合同会社スカイウインドウ,,合同会社,東京都,北区,浮間１丁目１番１４号リムジンビル２０８,,13,117,1150051,,,2024-08-26,清算の結了等,,,2019-07-09,1,,,,,スカイウインドウ,0
1554,7011401016429,登記記録の閉鎖等,0,2024-08-28,2024-08-22,株式会社ピースプランニング,,株式会社,東京都,板橋区,大和町３４－７,,13,119,1730012,,,2024-08-22,清算の結了等,,,2015-10-05,1,,,,,ピースプランニング,0
1556,7011402001074,登記記録の閉鎖等,0,2024-08-28,2024-08-22,稲荷前産業有限会社,,有限会社,東京都,板橋区,四葉２丁目１９番３５号,,13,119,1750084,,,2024-08-22,清算の結了等,,,2015-10-05,1,,,,,イナリマエサンギョウ,0
1560,7012401022061,登記記録の閉鎖等,0,2024-08-28,2024-08-20,千葉不動産株式会社,,株式会社,東京都,国立市,西２丁目２６番地の３９,,13,215,1860005,,,2024-08-20,清算の結了等,,,2015-10-05,1,,,,,チバフドウサン,0
1571,7020001078283,登記記録の閉鎖等,0,2024-08-28,2024-08-16,株式会社フォーリンクス,,株式会社,東京都,中央区,銀座１丁目２２番１１号,,13,102,1040061,,,2024-08-16,清算の結了等,,,2015-10-05,1,,,,,フォーリンクス,0
1601,7040001047749,登記記録の閉鎖等,0,2024-08-28,2024-08-15,株式会社ファーストハウジング,,株式会社,千葉県,八街市,八街に１０６番地１００,,12,230,2891103,,,2024-08-15,清算の結了等,,,2015-10-05,1,,,,,ファーストハウジング,0
1602,7040001083125,登記記録の閉鎖等,0,2024-08-28,2024-08-15,株式会社Ｅｍｉａｓ,,株式会社,千葉県,千葉市美浜区,高洲３丁目２０番４５号細矢ビル４０３号,,12,106,2610004,,,2024-08-15,清算の結了等,,,2015-10-05,1,,,,,エミアス,0
1608,7050001000442,登記記録の閉鎖等,0,2024-08-28,2024-08-26,株式会社茨石,00021831,株式会社,東京都,品川区,上大崎３丁目１番１号目黒セントラルスクエア１５階,,13,109,1410021,,,2024-08-26,合併による解散等,9010003042930,令和６年８月２０日東京都千代田区内幸町二丁目２番２号富国生命ビル１３階茨石ホールディングス合同会社（9010003042930）に合併し解散,2015-10-05,1,,,,,イバセキ,0
1611,7070002013714,登記記録の閉鎖等,0,2024-08-28,2024-08-22,有限会社エヌエスアイ,,有限会社,群馬県,高崎市,井出町３７６番地,,10,202,3703534,,,2024-08-22,清算の結了等,,,2015-10-05,1,,,,,エヌエスアイ,0
1617,7090001009694,登記記録の閉鎖等,0,2024-08-28,2024-08-22,株式会社ケイ・アイ・シー,,株式会社,山梨県,富士吉田市,下吉田２丁目６番４号,,19,202,4030004,,,2024-08-22,清算の結了等,,,2015-10-05,1,,,,,ケイアイシー,0
1619,7100002030904,登記記録の閉鎖等,0,2024-08-28,2024-08-19,有限会社イチキン,,有限会社,長野県,岡谷市,川岸西２丁目１番１６号,,20,204,3940046,,,2024-08-19,清算の結了等,,,2015-10-05,1,,,,,イチキン,0
1637,7120002011299,登記記録の閉鎖等,0,2024-08-28,2024-08-23,有限会社尚弘商事,,有限会社,大阪府,大阪市平野区,流町３丁目４番１７号,,27,126,5470032,,,2024-08-23,清算の結了等,,,2015-10-05,1,,,,,ショウコウショウジ,0
1638,7120002027543,登記記録の閉鎖等,0,2024-08-28,2024-08-26,有限会社ダイチ,,有限会社,大阪府,大阪市淀川区,西中島４丁目７番３０号,,27,123,5320011,,,2024-08-26,清算の結了等,,,2015-10-05,1,,,,,ダイチ,0
1668,7180001018232,登記記録の閉鎖等,0,2024-08-28,2024-08-21,ほしや製菓株式会社,,株式会社,愛知県,名古屋市東区,東大曽根町２４番２号,,23,102,4610022,,,2024-08-21,清算の結了等,,,2015-10-05,1,,,,,ホシヤセイカ,0
1673,7180001094901,登記記録の閉鎖等,0,2024-08-28,2024-08-22,株式会社ティーエヌビーコーポレーション,,株式会社,愛知県,常滑市,金山字菖蒲池６９番地,,23,216,4790003,,,2024-08-22,清算の結了等,,,2015-10-05,1,,,,,ティーエヌビーコーポレーション,0
1689,7200003001134,登記記録の閉鎖等,0,2024-08-28,2024-08-22,合資会社間宮織物工場,,合資会社,岐阜県,各務原市,小佐野町５０８番地の１の１,,21,213,5040000,,,2024-08-22,清算の結了等,,,2015-10-05,1,,,,,マミヤオリモノコウジョウ,0
1701,7260001036127,登記記録の閉鎖等,0,2024-08-28,2024-08-22,株式会社コバシマリン,,株式会社,岡山県,玉野市,築港５丁目１４番６号,,33,204,7060002,,,2024-08-22,清算の結了等,,,2021-10-27,1,,,,,コバシマリン,0
1702,7290001084008,登記記録の閉鎖等,0,2024-08-28,2024-07-16,株式会社Ｄ・Ｓ・Ｋ,,株式会社,福岡県,福岡市博多区,博多駅前３丁目７番３５号,,40,132,8120011,,,2024-07-16,清算の結了等,,,2019-01-23,1,,,,,ディーエスケイ,0
1719,7310002002163,登記記録の閉鎖等,0,2024-08-28,2024-08-21,有限会社サンワホーム,,有限会社,長崎県,長崎市,為石町４２１７番地１３,,42,201,8510405,,,2024-08-21,清算の結了等,,,2015-10-05,1,,,,,サンワホーム,0
1752,7460301004151,登記記録の閉鎖等,0,2024-08-28,2024-08-27,株式会社穂,,株式会社,北海道,北見市,大通西２丁目１番地,,01,208,0900040,,,2024-08-27,清算の結了等,,,2015-10-05,1,,,,,ミノル,0
1755,7480002001611,登記記録の閉鎖等,0,2024-08-28,2024-08-26,有限会社上地商事,,有限会社,徳島県,徳島市,山城町東浜傍示５番地の２５３,,36,201,7708055,,,2024-08-26,清算の結了等,,,2015-10-05,1,,,,,カミヂショウジ,0
1758,7500002020419,登記記録の閉鎖等,0,2024-08-28,2024-08-26,有限会社ハート石油販売,,有限会社,愛媛県,今治市,菊間町長坂１８８１番地２,,38,202,7992310,,,2024-08-26,清算の結了等,,,2015-10-05,1,,,,,ハートセキユハンバイ,0
1767,8010001173398,登記記録の閉鎖等,0,2024-08-28,2024-08-22,株式会社ＪＢＨジャパン,,株式会社,東京都,台東区,池之端１丁目６番１７号,,13,106,1100008,,,2024-08-22,清算の結了等,,,2016-02-05,1,,,,,ジェービーエッチジャパン,0
1771,8010001226271,登記記録の閉鎖等,0,2024-08-28,2024-08-20,株式会社Ｉ,,株式会社,東京都,千代田区,霞が関３丁目２番１号,,13,101,1000013,,,2024-08-20,清算の結了等,,,2022-05-02,1,,,,,アイ,0
1781,8010102000468,登記記録の閉鎖等,0,2024-08-28,2024-08-26,有限会社アラート・エイト・エイト,,有限会社,東京都,八王子市,小宮町９１９番地の３,,13,201,1920031,,,2024-08-26,清算の結了等,,,2015-10-05,1,,,,,アラートエイトエイト,0
1793,8010901029914,登記記録の閉鎖等,0,2024-08-28,2024-08-23,イーケーティ株式会社,,株式会社,東京都,世田谷区,上祖師谷４丁目２番２－５０７号,,13,112,1570065,,,2024-08-23,清算の結了等,,,2015-10-05,1,,,,,イーケーティ,0
1811,8011602001856,登記記録の閉鎖等,0,2024-08-28,2024-08-22,有限会社エレクター・ヤジマ,,有限会社,東京都,練馬区,大泉学園町８丁目２番３３号,,13,120,1780061,,,2024-08-22,清算の結了等,,,2015-10-05,1,,,,,エレクターヤジマ,0
1816,8012301008143,登記記録の閉鎖等,0,2024-08-28,2024-08-22,株式会社不二設計,,株式会社,東京都,町田市,玉川学園７丁目２８番１３号,,13,209,1940041,,,2024-08-22,清算の結了等,,,2015-10-05,1,,,,,フジセッケイ,0
1824,8012802003915,登記記録の閉鎖等,0,2024-08-28,2024-08-21,有限会社山田電気,,有限会社,東京都,昭島市,中神町２丁目２２番２１号,,13,207,1960022,,,2024-08-21,清算の結了等,,,2015-10-05,1,,,,,ヤマダデンキ,0
1849,8030002042939,登記記録の閉鎖等,0,2024-08-28,2024-08-23,有限会社アスクインターナショナル,,有限会社,埼玉県,久喜市,本町８丁目６番１８号,,11,232,3460005,,,2024-08-23,清算の結了等,,,2015-10-05,1,,,,,アスクインターナショナル,0
1854,8040001090525,登記記録の閉鎖等,0,2024-08-28,2024-08-15,株式会社鷹匠,,株式会社,千葉県,佐倉市,中志津１丁目２８番８号,,12,212,2850843,,,2024-08-15,清算の結了等,,,2015-10-05,1,,,,,タカショウ,0
1861,8040003000390,登記記録の閉鎖等,0,2024-08-28,2024-08-14,エクスマスコンサルティング合同会社,,合同会社,千葉県,千葉市中央区,村田町１２３０番地１,,12,101,2600825,,,2024-08-14,清算の結了等,,,2015-10-05,1,,,,,エクスマスコンサルティング,0
1862,8040003017204,登記記録の閉鎖等,0,2024-08-28,2024-08-14,合同会社バンプール,,合同会社,千葉県,市川市,八幡４丁目９番７号,,12,203,2720021,,,2024-08-14,清算の結了等,,,2021-03-08,1,,,,,バンプール,0
1864,8050001022320,登記記録の閉鎖等,0,2024-08-28,2024-08-22,利根エンジニアリング株式会社,,株式会社,茨城県,鹿嶋市,大字根三田１０１７番地２,,08,222,3140035,,,2024-08-22,清算の結了等,,,2015-10-05,1,,,,,トネエンジニアリング,0
1876,8080002004819,登記記録の閉鎖等,0,2024-08-28,2024-08-23,有限会社ヒットクリエイション,,有限会社,静岡県,静岡市駿河区,有明町４番１５号,,22,102,4228031,,,2024-08-23,清算の結了等,,,2015-10-05,1,,,,,ヒットクリエイション,0
1882,8110002034564,登記記録の閉鎖等,0,2024-08-28,2024-08-23,有限会社山渡建設,,有限会社,新潟県,佐渡市,水渡田８４８番地,,15,224,9521205,,,2024-08-23,清算の結了等,,,2015-10-05,1,,,,,サントケンセツ,0
1899,8120105006195,登記記録の閉鎖等,0,2024-08-28,2024-08-27,特定非営利活動法人フレンドさくらがおか,,その他の設立登記法人,大阪府,岸和田市,下松町６丁目４番３４号,,27,202,5960823,,,2024-08-27,清算の結了等,,,2015-10-05,1,,,,,フレンドサクラガオカ,0
1928,8180001124533,登記記録の閉鎖等,0,2024-08-28,2024-08-22,桜迅株式会社,,株式会社,愛知県,名古屋市中村区,名駅南１丁目５番３２号タケナカビル７０３号,,23,105,4500003,,,2024-08-22,清算の結了等,,,2016-08-18,1,,,,,サクラジン,0
1931,8180002069273,登記記録の閉鎖等,0,2024-08-28,2024-08-21,有限会社スタジオピーボックス,,有限会社,愛知県,小牧市,大字大草４５８０番地,,23,219,4850802,,,2024-08-21,清算の結了等,,,2015-10-05,1,,,,,スタジオピーボックス,0
1932,8180301036412,登記記録の閉鎖等,0,2024-08-28,2024-08-26,桜パートナーズ株式会社,,株式会社,愛知県,田原市,福江町堂前５２番地６,,23,231,4413617,,,2024-08-26,清算の結了等,,,2022-07-08,1,,,,,サクラパートナーズ,0
1941,8200002020860,登記記録の閉鎖等,0,2024-08-28,2024-08-23,有限会社山道製陶所,,有限会社,岐阜県,多治見市,市之倉町１丁目５２番地,,21,204,5070814,,,2024-08-23,清算の結了等,,,2015-10-05,1,,,,,ヤマミチセイトウショ,0
1948,8240002034584,登記記録の閉鎖等,0,2024-08-28,2024-08-26,谷村汽船有限会社,,有限会社,広島県,呉市,蒲刈町向２８８４番地,,34,202,7370311,,,2024-08-26,清算の結了等,,,2015-10-05,1,,,,,タニムラキセン,0
1949,8250002011211,登記記録の閉鎖等,0,2024-08-28,2024-08-22,有限会社向井蒲鉾店,,有限会社,山口県,下関市,梶栗町４丁目４番１４号,,35,201,7596614,,,2024-08-22,清算の結了等,,,2015-10-05,1,,,,,ムカイカマボコテン,0
1974,8330005003957,登記記録の閉鎖等,0,2024-08-28,2024-08-21,くまもと逸品会協同組合,,その他の設立登記法人,熊本県,上益城郡御船町,大字高木４１９３番地,,43,441,8613203,,,2024-08-21,清算の結了等,,,2015-10-05,1,,,,,クマモトイッピンカイ,0
1980,8370001041346,登記記録の閉鎖等,0,2024-08-28,2024-08-09,株式会社アメイジング,,株式会社,宮城県,仙台市青葉区,本町１丁目１２番１２号,,04,101,9800014,,,2024-08-09,清算の結了等,,,2017-04-25,1,,,,,,0
1986,8430001027537,登記記録の閉鎖等,0,2024-08-28,2024-08-23,株式会社創造者,,株式会社,北海道,札幌市中央区,南一条西１９丁目２９１番地６－７０２,,01,101,0600061,,,2024-08-23,清算の結了等,,,2015-10-05,1,,,,,ソウゾウシャ,0
1987,8430002008305,登記記録の閉鎖等,0,2024-08-28,2024-08-23,有限会社境鉄工,,有限会社,北海道,札幌市西区,発寒九条１１丁目９番９号,,01,107,0630829,,,2024-08-23,清算の結了等,,,2015-10-05,1,,,,,サカイテッコウ,0
1989,8460002004796,登記記録の閉鎖等,0,2024-08-28,2024-08-26,有限会社黒崎塗装店,,有限会社,北海道,川上郡標茶町,開運８丁目２７番地,,01,664,0882311,,,2024-08-26,清算の結了等,,,2015-10-05,1,,,,,クロサキトソウテン,0
1990,8462502000993,登記記録の閉鎖等,0,2024-08-28,2024-08-26,有限会社牛家,,有限会社,北海道,野付郡別海町,上春別３１８番地の３１,,01,691,0882725,,,2024-08-26,清算の結了等,,,2015-10-05,1,,,,,ウシヤ,0
1991,8470001005951,登記記録の閉鎖等,0,2024-08-28,2024-08-22,株式会社Ｓｕｎ’ｓ　Ｓａｋｕｒａ,,株式会社,香川県,高松市,国分寺町新居９３９番地５,,37,201,7690101,,,2024-08-22,清算の結了等,,,2015-10-05,1,,,,,サンズサクラ,0
1992,8480003001287,登記記録の閉鎖等,0,2024-08-28,2024-08-26,合同会社ジェイ・ヨガスタジオ,,合同会社,徳島県,徳島市,南田宮２丁目７番７号,,36,201,7700004,,,2024-08-26,清算の結了等,,,2018-10-16,1,,,,,ジェイヨガスタジオ,0
1997,9010001034624,登記記録の閉鎖等,0,2024-08-28,2024-08-21,株式会社楯岡,,株式会社,東京都,千代田区,神田錦町１丁目１７番地谷澤ビル２Ｆ,,13,101,1010054,,,2024-08-21,清算の結了等,,,2015-10-05,1,,,,,タテオカ,0
2013,9010103000516,登記記録の閉鎖等,0,2024-08-28,2024-08-26,合同会社オフィスひつじ,,合同会社,東京都,八王子市,横川町９１８番地３７,,13,201,1930823,,,2024-08-26,清算の結了等,,,2015-10-05,1,,,,,オフィスヒツジ,0
2030,9010701027522,登記記録の閉鎖等,0,2024-08-28,2024-08-22,株式会社ＭＳＴ,,株式会社,東京都,品川区,南品川２丁目４番１号,,13,109,1400004,,,2024-08-22,清算の結了等,,,2015-10-05,1,,,,,,0
2036,9010901007101,登記記録の閉鎖等,0,2024-08-28,2024-08-26,滝沢インテリア株式会社,,株式会社,東京都,世田谷区,弦巻５丁目１６番２５号,,13,112,1540016,,,2024-08-26,清算の結了等,,,2015-10-05,1,,,,,タキザワインテリア,0
2055,9012701016298,登記記録の閉鎖等,0,2024-08-28,2024-08-15,ＳＰ藤が丘ケア株式会社,,株式会社,千葉県,佐倉市,稲荷台３丁目５番地１,,12,212,2850864,,,2024-08-15,清算の結了等,,,2021-02-03,1,,,,,エスピーフジガオカケア,0
2056,9012802005811,登記記録の閉鎖等,0,2024-08-28,2024-08-19,有限会社関田工務店,,有限会社,福島県,須賀川市,北横田字石の花１１２番地,,07,207,9620313,,,2024-08-19,清算の結了等,,,2015-10-05,1,,,,,セキタコウムテン,0
2058,9013401000765,登記記録の閉鎖等,0,2024-08-28,2024-08-20,株式会社モリヤストアー,,株式会社,東京都,日野市,栄町２丁目８番地１,,13,212,1910001,,,2024-08-20,清算の結了等,,,2015-10-05,1,,,,,モリヤストアー,0
2079,9021005006732,登記記録の閉鎖等,0,2024-08-28,2024-08-26,湘南たばこ商業協同組合,,その他の設立登記法人,神奈川県,平塚市,明石町２２番１３号明石町第１伸高ビル２０１号,,14,203,2540042,,,2024-08-26,清算の結了等,,,2015-10-05,1,,,,,ショウナンタバコショウギョウ,0
2091,9030002082876,登記記録の閉鎖等,0,2024-08-28,2024-08-23,有限会社ヒライ贈商,,有限会社,埼玉県,鴻巣市,本町５丁目３番２４号,,11,217,3650038,,,2024-08-23,清算の結了等,,,2015-10-05,1,,,,,ヒライゾウショウ,0
2115,9080001018991,登記記録の閉鎖等,0,2024-08-28,2024-08-22,株式会社バンレオール,,株式会社,静岡県,藤枝市,岡部町内谷６５０番地の１０,,22,214,4211131,,,2024-08-22,清算の結了等,,,2015-10-05,1,,,,,,0
2116,9080401027213,登記記録の閉鎖等,0,2024-08-28,2024-08-22,株式会社伸々,,株式会社,静岡県,浜松市中央区,松島町２２９番地の１,,22,138,4300834,,,2024-08-22,清算の結了等,,,2024-06-03,1,,,,,シンシン,0
2119,9080402015092,登記記録の閉鎖等,0,2024-08-28,2024-08-26,有限会社鈴木測量,,有限会社,静岡県,浜松市浜名区,貴布祢９１１番地の１２,,22,139,4340038,,,2024-08-26,清算の結了等,,,2015-10-05,1,,,,,スズキソクリョウ,0
2120,9090001009800,登記記録の閉鎖等,0,2024-08-28,2024-08-22,株式会社シュウ建,,株式会社,山梨県,富士吉田市,新倉２６５８番７,,19,202,4030011,,,2024-08-22,清算の結了等,,,2015-10-05,1,,,,,シュウケン,0
2126,9120001020299,登記記録の閉鎖等,0,2024-08-28,2024-08-26,株式会社アルベール,,株式会社,大阪府,大阪市東住吉区,杭全４丁目１番１５号ツワイアクト８８、３１０号,,27,121,5460002,,,2024-08-26,清算の結了等,,,2015-10-05,1,,,,,アルベール,0
2144,9120902017385,登記記録の閉鎖等,0,2024-08-28,2024-08-22,有限会社アール・デコエム・エフ,,有限会社,大阪府,豊中市,本町１丁目１３番２８号,,27,203,5600021,,,2024-08-22,清算の結了等,,,2015-10-05,1,,,,,アールデコエムエフ,0
2148,9130001057497,登記記録の閉鎖等,0,2024-08-28,2024-08-27,株式会社メディケア・ブレイン,,株式会社,京都府,京都市中京区,錦小路通烏丸西入占出山町３０８番地ヤマチュウビル５階,,26,104,6048155,,,2024-08-27,清算の結了等,,,2016-05-19,1,,,,,メディケアブレイン,0
2151,9140001106889,登記記録の閉鎖等,0,2024-08-28,2024-08-26,株式会社エフアンドエヌ,,株式会社,兵庫県,西宮市,石在町１７番３７号,,28,204,6620928,,,2024-08-26,清算の結了等,,,2017-07-13,1,,,,,エフアンドエヌ,0
2154,9150001004670,登記記録の閉鎖等,0,2024-08-28,2024-08-26,株式会社石切ハウス建設工業,,株式会社,奈良県,生駒市,北新町１２番２８号,,29,209,6300245,,,2024-08-26,清算の結了等,,,2016-12-13,1,,,,,イシキリハウスコウギョウ,0
2164,9180001139919,登記記録の閉鎖等,0,2024-08-28,2024-08-21,株式会社大蔵屋,,株式会社,愛知県,名古屋市昭和区,桜山町４丁目７１番地の４,,23,107,4660044,,,2024-08-21,清算の結了等,,,2020-02-04,1,,,,,オオクラヤ,0
2172,9200001008848,登記記録の閉鎖等,0,2024-08-28,2024-08-23,株式会社アンドウセイキ,,株式会社,岐阜県,各務原市,鵜沼羽場町７丁目２９４番地,,21,213,5090135,,,2024-08-23,清算の結了等,,,2015-10-05,1,,,,,アンドウセイキ,0
2185,9240005011621,登記記録の閉鎖等,0,2024-08-28,2024-08-27,特定非営利活動法人尾道こころネットよつば会,,その他の設立登記法人,広島県,尾道市,栗原東２丁目１７番８６号,,34,205,7220025,,,2024-08-27,清算の結了等,,,2015-10-05,1,,,,,オノミチココロネットヨツバカイ,0
2189,9290001084484,登記記録の閉鎖等,0,2024-08-28,2024-07-16,株式会社Ａ１オクト,,株式会社,福岡県,福岡市博多区,博多駅前３丁目７番３５号,,40,132,8120011,,,2024-07-16,清算の結了等,,,2019-03-07,1,,,,,エーワンオクト,0
2195,9310002015337,登記記録の閉鎖等,0,2024-08-28,2024-08-19,有限会社つかさ本舖,,有限会社,長崎県,諫早市,永昌東町５番５号,,42,204,8540071,,,2024-08-19,清算の結了等,,,2015-10-05,1,,,,,ツカサホンポ,0
2210,9380001030735,登記記録の閉鎖等,0,2024-08-28,2024-08-22,株式会社ＭＳ．中央建設,,株式会社,福島県,南相馬市,原町区北原字前山３７番地１８,,07,212,9750037,,,2024-08-22,清算の結了等,,,2020-03-04,1,,,,,,0
2221,9410002009312,登記記録の閉鎖等,0,2024-08-28,2024-08-23,有限会社和田鉄工所,,有限会社,秋田県,北秋田市,米内沢字中島１１番地,,05,213,0184301,,,2024-08-23,清算の結了等,,,2015-10-05,1,,,,,,0
2223,9430002017651,登記記録の閉鎖等,0,2024-08-28,2024-08-26,有限会社ベニータウン・デンタル・ラボ,,有限会社,北海道,札幌市厚別区,厚別西五条１丁目８番２０号,,01,108,0040065,,,2024-08-26,清算の結了等,,,2015-10-05,1,,,,,ベニータウンデンタルラボ,0
