sequenceNumber,corporateNumber,process,correct,updateDate,changeDate,name,nameImageId,kind,prefectureName,cityName,streetNumber,addressImageId,prefectureCode,cityCode,postCode,addressOutside,addressOutsideImageId,closeDate,closeCause,successorCorporateNumber,changeCause,assignmentDate,latest,enName,enPrefectureName,enCityName,enAddressOutside,furigana,hihyoji
23,1010001224109,新規,0,2022-01-27,2022-01-27,ＪＩＡ河野コンサル株式会社,,株式会社,東京都,千代田区,霞が関３丁目２番１号,,13,101,1000013,,,,,,,2022-01-27,1,,,,,ジェイアイエーカワノコンサル,0
30,1010003036849,新規,0,2022-01-27,2022-01-27,合同会社鮨桂太,,合同会社,東京都,中央区,築地６丁目６－４,,13,102,1040045,,,,,,,2022-01-27,1,,,,,スシケイタ,0
39,1010005034512,新規,0,2022-01-27,2022-01-27,福岡プロパティー特定目的会社,,その他の設立登記法人,東京都,千代田区,丸の内１丁目１１番１号,,13,101,1000005,,,,,,,2022-01-27,1,,,,,フクオカプロパティー,0
45,1010401165191,新規,0,2022-01-27,2022-01-27,即日オンラインファクタリング株式会社,,株式会社,東京都,港区,南青山２丁目２番６号ラセーナ南青山７０２号室,,13,103,1070062,,,,,,,2022-01-27,1,,,,,ソクジツオンラインファクタリング,0
52,1010403026978,新規,0,2022-01-27,2022-01-27,ｓａｆｅｒａｙ　Ｂｅｔａ　Ｓｏｌａｒ合同会社,,合同会社,東京都,港区,虎ノ門５丁目１番５号,,13,103,1050001,,,,,,,2022-01-27,1,,,,,セーフレイベータソーラー,0
56,1010501048354,新規,0,2022-01-27,2022-01-27,株式会社ワンダークリエイツ,,株式会社,東京都,台東区,浅草橋３丁目６番６号,,13,106,1110053,,,,,,,2022-01-27,1,,,,,ワンダークリエイツ,0
77,1010701042124,新規,0,2022-01-27,2022-01-27,グローバル・リクルートジャパン株式会社,,株式会社,東京都,品川区,西五反田１丁目２６番２号,,13,109,1410031,,,,,,,2022-01-27,1,,,,,グローバルリクルートジャパン,0
79,1010705003312,新規,0,2022-01-27,2022-01-27,一般社団法人セブン,,その他の設立登記法人,東京都,品川区,上大崎３丁目１番１号目黒セントラルスクエア１５階,,13,109,1410021,,,,,,,2022-01-27,1,,,,,セブン,0
93,1011003014027,新規,0,2022-01-27,2022-01-27,合同会社フォックス,,合同会社,東京都,渋谷区,神宮前６丁目２３－４桑野ビル２Ｆ,,13,113,1500001,,,,,,,2022-01-27,1,,,,,フォックス,0
100,1011105010106,新規,0,2022-01-27,2022-01-27,ＵＡホールディングス一般社団法人,,その他の設立登記法人,東京都,新宿区,四谷２丁目９番地１５東京ユナイテッド綜合事務所内,,13,104,1600004,,,,,,,2022-01-27,1,,,,,ユーエーホールディングス,0
102,1011403003546,新規,0,2022-01-27,2022-01-27,石と森の合同会社,,合同会社,東京都,板橋区,向原３丁目７番５－５０１号,,13,119,1730036,,,,,,,2022-01-27,1,,,,,イシトモリノ,0
106,1011701025003,新規,0,2022-01-27,2022-01-27,株式会社Ｇ－Ｐｌａｎ,,株式会社,東京都,江戸川区,中葛西５丁目１５番１０号ＹＣＣビル３階,,13,123,1340083,,,,,,,2022-01-27,1,,,,,ジープラン,0
107,1011703003056,新規,0,2022-01-27,2022-01-27,ズートコミュニケーション合同会社,,合同会社,東京都,江戸川区,船堀１丁目１番２‐７１７号,,13,123,1340091,,,,,,,2022-01-27,1,,,,,ズートコミュニケーション,0
112,1011803004937,新規,0,2022-01-27,2022-01-27,ＥＬ合同会社,,合同会社,東京都,葛飾区,西新小岩４丁目９－２４佐久間第一ビル６０１,,13,122,1240025,,,,,,,2022-01-27,1,,,,,イーエル,0
114,1012403005219,新規,0,2022-01-27,2022-01-27,ＳＫコンサルティング合同会社,,合同会社,東京都,三鷹市,井の頭２丁目３２番４４号,,13,204,1810001,,,,,,,2022-01-27,1,,,,,エスケーコンサルティング,0
116,1012801021362,新規,0,2022-01-27,2022-01-27,アタッチハイテック株式会社,,株式会社,東京都,立川市,錦町１丁目４番２０号,,13,202,1900022,,,,,,,2022-01-27,1,,,,,アタッチハイテック,0
127,1013303006018,新規,0,2022-01-27,2022-01-27,合同会社ＡＩＯ,,合同会社,東京都,豊島区,南池袋４丁目８－４ｄｅ－ｚａｙ・ｂ１－００２,,13,116,1710022,,,,,,,2022-01-27,1,,,,,アイオー,0
135,1020001144958,新規,0,2022-01-27,2022-01-27,株式会社鈴工,,株式会社,神奈川県,横浜市保土ケ谷区,今井町１２６９番地,,14,106,2400035,,,,,,,2022-01-27,1,,,,,スズコウ,0
139,1020003021206,新規,0,2022-01-27,2022-01-27,ＢＲＡＤＯＲ　ＪＡＰＡＮ合同会社,,合同会社,神奈川県,横浜市神奈川区,白幡仲町９番１号,,14,102,2210071,,,,,,,2022-01-27,1,,,,,ブラドールジャパン,0
142,1021001075037,新規,0,2022-01-27,2022-01-27,株式会社Ｄ－ｓｔｙｌｅ,,株式会社,神奈川県,横須賀市,根岸町２丁目１２番３９－３号,,14,201,2390807,,,,,,,2022-01-27,1,,,,,ディースタイル,0
148,1030001146532,新規,0,2022-01-27,2022-01-27,株式会社ＥＣＸ,,株式会社,埼玉県,さいたま市南区,四谷３丁目８－１３,,11,108,3360032,,,,,,,2022-01-27,1,,,,,イーシーエックス,0
149,1030001146549,新規,0,2022-01-27,2022-01-27,星野商事株式会社,,株式会社,埼玉県,ふじみ野市,清見２丁目１番地４１,,11,245,3560002,,,,,,,2022-01-27,1,,,,,ホシノショウジ,0
157,1040001121963,新規,0,2022-01-27,2022-01-27,株式会社ＡＣＰＲＯ　ＩＮＴＥＲＮＡＴＩＯＮＡＬ,,株式会社,千葉県,柏市,旭町２丁目８番１７号,,12,217,2770852,,,,,,,2022-01-27,1,,,,,エイシープロインターナショナル,0
170,1050003006336,新規,0,2022-01-27,2022-01-27,合同会社サティスエンタープライセス,,合同会社,茨城県,石岡市,東石岡４丁目３番地５０,,08,205,3150037,,,,,,,2022-01-27,1,,,,,サティスエンタープライセス,0
191,1110003004688,新規,0,2022-01-27,2022-01-27,合同会社センサカジャパン,,合同会社,新潟県,妙高市,朝日町１丁目１番７号,,15,217,9440043,,,,,,,2022-01-27,1,,,,,センサカジャパン,0
211,1120001243428,新規,0,2022-01-27,2022-01-27,株式会社Ｂｉａｎｃａ,,株式会社,大阪府,大阪市都島区,片町２丁目６番１３号京橋サウスビル４階,,27,102,5340025,,,,,,,2022-01-27,1,,,,,ビアンカ,0
212,1120001243444,新規,0,2022-01-27,2022-01-27,株式会社ラスカル,,株式会社,大阪府,大阪市住吉区,長居３丁目４番３号,,27,120,5580003,,,,,,,2022-01-27,1,,,,,ラスカル,0
220,1120101065004,新規,0,2022-01-27,2022-01-27,株式会社好建,,株式会社,大阪府,貝塚市,名越４９５番地,,27,208,5970042,,,,,,,2022-01-27,1,,,,,ヨシケン,0
223,1120903004010,新規,0,2022-01-27,2022-01-27,合同会社ＲＧＣ,,合同会社,大阪府,吹田市,桃山台１丁目１番８－１５０１号,,27,205,5650854,,,,,,,2022-01-27,1,,,,,アールジーシー,0
238,1140001124709,新規,0,2022-01-27,2022-01-27,Ｊ－ＳＨＡＫＹ　ＰＲＯＪＥＣＴ株式会社,,株式会社,兵庫県,神戸市長田区,房王寺町３丁目２番４号,,28,106,6530801,,,,,,,2022-01-27,1,,,,,ジェーシェーキープロジェクト,0
240,1140003017282,新規,0,2022-01-27,2022-01-27,合同会社シェールアミロッコウ,,合同会社,兵庫県,神戸市灘区,高徳町４丁目３番１３号,,28,102,6570025,,,,,,,2022-01-27,1,,,,,シェールアミロッコウ,0
245,1160001023958,新規,0,2022-01-27,2022-01-27,翰林産業株式会社,,株式会社,滋賀県,長浜市,八島町５３番地６３,,25,203,5260252,,,,,,,2022-01-27,1,,,,,カンリンサンギョウ,0
249,1180001149768,新規,0,2022-01-27,2022-01-27,株式会社山弥コーポレーション買収ＳＰＣ,,株式会社,愛知県,名古屋市中区,上前津２丁目１３番１９号,,23,106,4600013,,,,,,,2022-01-27,1,,,,,ヤマヤコーポレーションバイシュウエスピーシー,0
258,1200001039693,新規,0,2022-01-27,2022-01-27,川村組株式会社,,株式会社,岐阜県,各務原市,那加山下町２丁目８１番地５,,21,213,5040017,,,,,,,2022-01-27,1,,,,,カワムラグミ,0
270,1260001036462,新規,0,2022-01-27,2022-01-27,新和ビルド建工株式会社,,株式会社,岡山県,倉敷市,茶屋町１４９番地１,,33,202,7101101,,,,,,,2022-01-27,1,,,,,シンワビルドケンコウ,0
271,1260001036470,新規,0,2022-01-27,2022-01-27,株式会社ＰＣサポート企画,,株式会社,岡山県,総社市,井手１１５０番地６,,33,208,7191125,,,,,,,2022-01-27,1,,,,,ピーシーサポートキカク,0
272,1280001008617,新規,0,2022-01-27,2022-01-27,大庭の里ファーム株式会社,,株式会社,島根県,松江市,大庭町７３５番地,,32,201,6900033,,,,,,,2022-01-27,1,,,,,オオバノサトファーム,0
278,1290001096198,新規,0,2022-01-27,2022-01-27,株式会社Ｖｉｔａ　Ｄｅｓｉｇｎ,,株式会社,福岡県,福岡市博多区,博多駅南４丁目１９番５山王マンション１０２号,,40,132,8120016,,,,,,,2022-01-27,1,,,,,ヴィタデザイン,0
279,1290001096223,新規,0,2022-01-27,2022-01-27,湘陽株式会社,,株式会社,福岡県,福岡市東区,貝塚団地４番７１１号,,40,131,8120052,,,,,,,2022-01-27,1,,,,,ショウヨウ,0
281,1290003012079,新規,0,2022-01-27,2022-01-27,ＴＴ合同会社,,合同会社,福岡県,福岡市東区,箱崎２丁目４３番１９号,,40,131,8120053,,,,,,,2022-01-27,1,,,,,ティーティー,0
298,1360003011767,新規,0,2022-01-27,2022-01-27,合同会社Ｏ,,合同会社,沖縄県,那覇市,泊１丁目２９番地１１・サントピア泊第２・４０３,,47,201,9000012,,,,,,,2022-01-27,1,,,,,オー,0
300,1370001048133,新規,0,2022-01-27,2022-01-27,株式会社輝,,株式会社,宮城県,黒川郡大和町,鶴巣北目大崎字住吉１６０番地の１,,04,421,9813417,,,,,,,2022-01-27,1,,,,,カガヤ,0
308,1400001015757,新規,0,2022-01-27,2022-01-27,ライフセディア株式会社,,株式会社,岩手県,盛岡市,安倍館町１８番３５号２Ｆ,,03,201,0200126,,,,,,,2022-01-27,1,,,,,ライフセディア,0
310,1410003003610,新規,0,2022-01-27,2022-01-27,合同会社ファームプラス,,合同会社,秋田県,由利本荘市,川西字米山下１００,,05,210,0150331,,,,,,,2022-01-27,1,,,,,ファームプラス,0
315,1430005014380,新規,0,2022-01-27,2022-01-27,特定非営利活動法人Ｎｏｒｔｈ　ａｎｉｍａｌ　ｐｒｏｊｅｃｔ,,その他の設立登記法人,北海道,札幌市手稲区,手稲本町二条１丁目３番５－４０６号,,01,109,0060022,,,,,,,2022-01-27,1,,,,,ノースアニマルプロジェクト,0
316,1440002000416,新規,0,2022-01-27,2022-01-27,有限会社岩崎造材,,有限会社,北海道,松前郡松前町,字福山１２番地,,01,331,0491512,,,,,,,2022-01-27,1,,,,,イワサキゾウザイ,0
318,1450001013599,新規,0,2022-01-27,2022-01-27,株式会社大雪山研修センター,,株式会社,北海道,士別市,大通東１丁目１６０２,,01,220,0950019,,,,,,,2022-01-27,1,,,,,タイセツザンケンシュウセンター,0
319,1480001011633,新規,0,2022-01-27,2022-01-27,株式会社アウルズ,,株式会社,徳島県,徳島市,南矢三町１丁目７番３８号,,36,201,7700005,,,,,,,2022-01-27,1,,,,,アウルズ,0
322,1700150106847,新規,0,2022-01-27,2022-01-27,ｌｏｗｉｒｏ　ｌｉｍｉｔｅｄ,,外国会社等,神奈川県,茅ヶ崎市,浜竹１丁目１番３０－１号,,14,207,2530021,４ｔｈ　Ｆｌｏｏｒ　Ｉｍｐｅｒｉａｌ　Ｈｏｕｓｅ，８　Ｋｅａｎ　Ｓｔｒｅｅｔ，Ｌｏｎｄｏｎ，ＷＣ２Ｂ　４ＡＳ，ＵＫ,,,,,,2022-01-27,1,,,,,ロウイロリミテツド,0
347,2010001224124,新規,0,2022-01-27,2022-01-27,株式会社ＰＡＲＡＧＯＮ　ＧＲＯＵＰ,,株式会社,東京都,千代田区,丸の内３丁目２番２号,,13,101,1000005,,,,,,,2022-01-27,1,,,,,パラゴングループ,0
360,2010005034503,新規,0,2022-01-27,2022-01-27,中小企業サステナビリティ協同組合連合会,,その他の設立登記法人,東京都,中央区,日本橋３丁目５番１４号,,13,102,1030027,,,,,,,2022-01-27,1,,,,,チュウショウキギョウサステナビリティ,0
364,2010401165199,新規,0,2022-01-27,2022-01-27,Ｎｓｔｏｃｋ株式会社,,株式会社,東京都,港区,六本木３丁目２－１住友不動産六本木グランドタワー,,13,103,1060032,,,,,,,2022-01-27,1,,,,,エヌストック,0
366,2010403026969,新規,0,2022-01-27,2022-01-27,ＪＭアンタレス２合同会社,,合同会社,東京都,港区,虎ノ門４丁目３番１号城山トラストタワー２７階ＳａｎｎｅＧｒｏｕｐＪａｐａｎ株式会社内,,13,103,1050001,,,,,,,2022-01-27,1,,,,,ジェイエムアンタレスツー,0
367,2010403026977,新規,0,2022-01-27,2022-01-27,合同会社ＦＲＩＤＡＹ　ＮＩＧＨＴ　Ｃｏｍｐａｎｙ,,合同会社,東京都,港区,南麻布１丁目７番４１号,,13,103,1060047,,,,,,,2022-01-27,1,,,,,フライデーナイトカンパニー,0
378,2010503006490,新規,0,2022-01-27,2022-01-27,Ｋａｍｉｎａｇａ合同会社,,合同会社,東京都,台東区,駒形２丁目５－６カミナガビル,,13,106,1110043,,,,,,,2022-01-27,1,,,,,カミナガ,0
397,2010701042131,新規,0,2022-01-27,2022-01-27,株式会社Ｍａｎｅｋｒ　Ｄｓｉｇｎ　Ｐａｒｔｎｅｒｓ,,株式会社,東京都,品川区,西五反田３丁目１０－１８シティータワー目黒８０７,,13,109,1410031,,,,,,,2022-01-27,1,,,,,マネクルデザインパートナーズ,0
398,2010705003311,新規,0,2022-01-27,2022-01-27,品川建物管理協同組合,,その他の設立登記法人,東京都,品川区,戸越１丁目１２番１０号,,13,109,1420041,,,,,,,2022-01-27,1,,,,,シナガワタテモノカンリ,0
403,2010903007064,新規,0,2022-01-27,2022-01-27,合同会社メディアシード,,合同会社,東京都,世田谷区,玉川２丁目２６－１５テックレジデンスベータ二子玉川２０８,,13,112,1580094,,,,,,,2022-01-27,1,,,,,メディアシード,0
404,2010903007106,新規,0,2022-01-27,2022-01-27,龍洋ジャパン合同会社,,合同会社,東京都,世田谷区,祖師谷６丁目３－８－２１０号,,13,112,1570072,,,,,,,2022-01-27,1,,,,,リュウヨウジャパン,0
413,2011001145327,新規,0,2022-01-27,2022-01-27,株式会社ルディス,,株式会社,東京都,目黒区,中目黒１丁目５番１２－３０１号ＡＴＲＩＯ,,13,110,1530061,,,,,,,2022-01-27,1,,,,,ルディス,0
418,2011003014067,新規,0,2022-01-27,2022-01-27,合同会社ルーカス,,合同会社,東京都,渋谷区,初台１丁目１７番３－２０７号,,13,113,1510061,,,,,,,2022-01-27,1,,,,,ルーカス,0
425,2011105010105,新規,0,2022-01-27,2022-01-27,入間ホールディングス一般社団法人,,その他の設立登記法人,東京都,新宿区,四谷２丁目９番地１５東京ユナイテッド綜合事務所内,,13,104,1600004,,,,,,,2022-01-27,1,,,,,イルマホールディングス,0
427,2011201023588,新規,0,2022-01-27,2022-01-27,株式会社ＢＡＤＤＥＳＴ,,株式会社,東京都,中野区,弥生町２丁目２０番９号,,13,114,1640013,,,,,,,2022-01-27,1,,,,,バディスト,0
436,2011701025002,新規,0,2022-01-27,2022-01-27,株式会社エアグレイト,,株式会社,東京都,江戸川区,南葛西５丁目９番１０－４０２号,,13,123,1340085,,,,,,,2022-01-27,1,,,,,エアグレイト,0
439,2011703003047,新規,0,2022-01-27,2022-01-27,合同会社ｆａｍｉｌｌｅ,,合同会社,東京都,江戸川区,西一之江１丁目６－２－８０２号,,13,123,1320023,,,,,,,2022-01-27,1,,,,,ファミーユ,0
463,2020001144957,新規,0,2022-01-27,2022-01-27,株式会社ＬＯＧ,,株式会社,神奈川県,川崎市川崎区,渡田山王町１１番１０号パーテイク山王１０２,,14,131,2100845,,,,,,,2022-01-27,1,,,,,ログ,0
464,2020001144965,新規,0,2022-01-27,2022-01-27,株式会社ＫＰＬ,,株式会社,神奈川県,横浜市中区,伊勢佐木町７丁目１５１番地４ＹＳハウス１０２号,,14,104,2310045,,,,,,,2022-01-27,1,,,,,ケーピーエル,0
465,2020001145006,新規,0,2022-01-27,2022-01-27,Ｓｔｒｉｖｅｓ株式会社,,株式会社,神奈川県,横浜市鶴見区,東寺尾５丁目１０番１６－２号,,14,101,2300077,,,,,,,2022-01-27,1,,,,,ストライブス,0
485,2030003018737,新規,0,2022-01-27,2022-01-27,Ｈｅｉｓａｎ合同会社,,合同会社,埼玉県,幸手市,中４丁目９番１８号,,11,240,3400115,,,,,,,2022-01-27,1,,,,,ヘイサン,0
495,2050001050525,新規,0,2022-01-27,2022-01-27,株式会社ハーベストグリーン,,株式会社,茨城県,東茨城郡茨城町,大字常井字中台原１２０７番２,,08,302,3113112,,,,,,,2022-01-27,1,,,,,ハーベストグリーン,0
499,2060001034527,新規,0,2022-01-27,2022-01-27,株式会社西中丸,,株式会社,栃木県,宇都宮市,駒生町１１２８番地,,09,201,3200065,,,,,,,2022-01-27,1,,,,,ニシナカマル,0
501,2080001024708,新規,0,2022-01-27,2022-01-27,静岡コミュニティ・アンド・モビリティ株式会社,,株式会社,静岡県,静岡市駿河区,中原５３３番地の３,,22,102,4228058,,,,,,,2022-01-27,1,,,,,シズオカコミュニティアンドモビリティ,0
502,2080001024716,新規,0,2022-01-27,2022-01-27,株式会社マスミ創建,,株式会社,静岡県,藤枝市,南清里６番地の１０,,22,214,4260224,,,,,,,2022-01-27,1,,,,,マスミソウケン,0
506,2080101023056,新規,0,2022-01-27,2022-01-27,猪虎株式会社,,株式会社,静岡県,熱海市,泉８３の１,,22,205,4130001,,,,,,,2022-01-27,1,,,,,イノコ,0
508,2080401025594,新規,0,2022-01-27,2022-01-27,株式会社エルシェノン,,株式会社,静岡県,浜松市東区,有玉北町１９９０番地,,22,132,4313121,,,,,,,2022-01-27,1,,,,,エルシェノン,0
538,2120101065003,新規,0,2022-01-27,2022-01-27,アンドベリー株式会社,,株式会社,大阪府,堺市北区,北花田町３丁３７番地１４,,27,146,5918002,,,,,,,2022-01-27,1,,,,,アンドベリー,0
541,2120103004545,新規,0,2022-01-27,2022-01-27,合同会社ＧＲＯＷ,,合同会社,大阪府,岸和田市,池尻町２番地の１,,27,202,5960813,,,,,,,2022-01-27,1,,,,,グロウ,0
546,2120905006268,新規,0,2022-01-27,2022-01-27,医療法人光和会,,その他の設立登記法人,大阪府,茨木市,三島丘２丁目８番１７号角屋ビル１Ｆ,,27,211,5670021,,,,,,,2022-01-27,1,,,,,コウワカイ,0
549,2130001071018,新規,0,2022-01-27,2022-01-27,株式会社京都卓球クラブ,,株式会社,京都府,京都市中京区,錦小路通室町西入天神山町２８０番地石勘ビル４階,,26,104,6048221,,,,,,,2022-01-27,1,,,,,キョウトタッキュウクラブ,0
557,2140001124674,新規,0,2022-01-27,2022-01-27,神菱梱包株式会社,,株式会社,兵庫県,神戸市灘区,灘浜町３番地,,28,102,6570853,,,,,,,2022-01-27,1,,,,,,0
561,2140003017281,新規,0,2022-01-27,2022-01-27,合同会社ジパング,,合同会社,兵庫県,明石市,花園町１－１２大一テナントビル１Ｆ,,28,203,6730015,,,,,,,2022-01-27,1,,,,,ジパング,0
564,2150003002605,新規,0,2022-01-27,2022-01-27,合名会社水の星研究所,,合名会社,奈良県,吉野郡東吉野村,大字平野８１１番地の１,,29,453,6332303,,,,,,,2022-01-27,1,,,,,ミズノホシケンキュウショ,0
571,2180003023342,新規,0,2022-01-27,2022-01-27,ｅｖｅｒｙ　ｆｒｅｅ合同会社,,合同会社,愛知県,尾張旭市,東印場町１丁目５―９パレスウイング１０３,,23,226,4880830,,,,,,,2022-01-27,1,,,,,エブリフリー,0
575,2200001039701,新規,0,2022-01-27,2022-01-27,株式会社星雲,,株式会社,岐阜県,加茂郡坂祝町,勝山３８５番地７,,21,501,5050076,,,,,,,2022-01-27,1,,,,,セイウン,0
576,2210001018794,新規,0,2022-01-27,2022-01-27,株式会社ユウコウ開発,,株式会社,福井県,福井市,川合鷲塚町第２１号１７番地６,,18,201,9100102,,,,,,,2022-01-27,1,,,,,ユウコウカイハツ,0
584,2280001008616,新規,0,2022-01-27,2022-01-27,ネオスカイ株式会社,,株式会社,島根県,出雲市,斐川町上直江１０２４番地１４,,32,203,6990624,,,,,,,2022-01-27,1,,,,,ネオスカイ,0
599,2290001096255,新規,0,2022-01-27,2022-01-27,株式会社奏ケア・サービス,,株式会社,福岡県,福岡市中央区,大手門３丁目１４番６号,,40,133,8100074,,,,,,,2022-01-27,1,,,,,カナデケアサービス,0
603,2290003012086,新規,0,2022-01-27,2022-01-27,合同会社ｓｃｅｎｅｒｙ,,合同会社,福岡県,福岡市中央区,大手門３丁目１４‐２７ラフォーレ大濠パークアベニュー６０４,,40,133,8100074,,,,,,,2022-01-27,1,,,,,シーナリー,0
606,2290005018544,新規,0,2022-01-27,2022-01-27,一般社団法人Ｎａｔｕｒａｌ　Ｃａｐｉｔａｌ,,その他の設立登記法人,福岡県,福岡市南区,向野２丁目１０番２５号,,40,134,8150035,,,,,,,2022-01-27,1,,,,,ナチュラルキャピタル,0
623,2360001029942,新規,0,2022-01-27,2022-01-27,株式会社大城工業,,株式会社,沖縄県,糸満市,字座波１０９４番地１,,47,210,9010314,,,,,,,2022-01-27,1,,,,,オオシロコウギョウ,0
628,2390001016772,新規,0,2022-01-27,2022-01-27,株式会社遠藤陸送,,株式会社,山形県,山形市,吉原１丁目１０番１０号ドリームシティ１０２号,,06,201,9902451,,,,,,,2022-01-27,1,,,,,エンドウリクソウ,0
630,2400001015756,新規,0,2022-01-27,2022-01-27,株式会社ファミール,,株式会社,岩手県,奥州市,江刺男石１丁目３番３号,,03,215,0231121,,,,,,,2022-01-27,1,,,,,ファミール,0
636,2430001085879,新規,0,2022-01-27,2022-01-27,ツインズ株式会社,,株式会社,北海道,北広島市,北の里３４１番地８,,01,234,0611111,,,,,,,2022-01-27,1,,,,,ツインズ,0
637,2430005001320,新規,0,2022-01-27,2022-01-27,財団法人北海道警察協会,,その他の設立登記法人,北海道,札幌市中央区,北二条西７丁目,,01,101,0600002,,,,,,,2022-01-27,1,,,,,ホッカイドウケイサツキョウカイ,0
638,2460303000748,新規,0,2022-01-27,2022-01-27,合同会社ＦＵＪＩインダストリー,,合同会社,北海道,網走市,鱒浦３丁目１２番１３号,,01,211,0993119,,,,,,,2022-01-27,1,,,,,フジインダストリー,0
644,2480005006876,新規,0,2022-01-27,2022-01-27,一般社団法人地域プラットフォーム,,その他の設立登記法人,徳島県,小松島市,小松島町字北浜１１０番地の２,,36,203,7730001,,,,,,,2022-01-27,1,,,,,チイキプラットフォーム,0
645,2490005006818,新規,0,2022-01-27,2022-01-27,三原村開拓農業協同組合,,その他の設立登記法人,高知県,幡多郡三原村,大字来栖野３４６番地,,39,427,7870803,,,,,,,2022-01-27,1,,,,,,0
647,2700150106697,新規,0,2022-01-27,2022-01-18,ＢＤＦＦ実行委員会,,その他,東京都,台東区,浅草橋１丁目９－１３第１１１東京ビル６階,,13,106,1110053,,,,,,,2022-01-18,1,,,,,ビーデイーエフエフジツコウイインカイ,0
648,2700150106846,新規,0,2022-01-27,2022-01-27,ＳＯＵＺＯＵＳＨＡ　ＣＯＭＰＡＮＹ　ＬＩＭＩＴＥＤ,,外国会社等,東京都,渋谷区,恵比寿１丁目３４－１１,,13,113,1500013,ＦＬＡＴ　Ｂ　４／Ｆ　ＴＡＫ　ＰＯ　ＢＵＩＬＤＩＮＧ　ＴＡＩ　ＰＥＩ　ＳＱＵＡＲＥ　ＴＳＵＥＮ　ＷＡＮ　ＮＴ　ＨＯＮＧ　ＫＯＮＧ,,,,,,2022-01-27,1,,,,,ソウゾウシヤカンパニーリミテツド,0
679,3010001224148,新規,0,2022-01-27,2022-01-27,株式会社８００商事,,株式会社,東京都,千代田区,内神田３丁目１７番８号小山第一ビル６０３号室,,13,101,1010047,,,,,,,2022-01-27,1,,,,,ハッピャクショウジ,0
689,3010003036863,新規,0,2022-01-27,2022-01-27,名古屋マネージメント合同会社,,合同会社,東京都,千代田区,丸の内１丁目１１番１号,,13,101,1000005,,,,,,,2022-01-27,1,,,,,ナゴヤマネージメント,0
692,3010101015050,新規,0,2022-01-27,2022-01-27,千代田設計株式会社,,株式会社,東京都,八王子市,松木１４番地３,,13,201,1920362,,,,,,,2022-01-27,1,,,,,チヨダセッケイ,0
699,3010401165231,新規,0,2022-01-27,2022-01-27,株式会社５ＣＡＴＳ,,株式会社,東京都,港区,虎ノ門４丁目３番１号城山トラストタワー３階,,13,103,1050001,,,,,,,2022-01-27,1,,,,,ファイブキャット,0
701,3010403026968,新規,0,2022-01-27,2022-01-27,ＪＭアンタレス１合同会社,,合同会社,東京都,港区,虎ノ門４丁目３番１号城山トラストタワー２７階ＳａｎｎｅＧｒｏｕｐＪａｐａｎ株式会社内,,13,103,1050001,,,,,,,2022-01-27,1,,,,,ジェイエムアンタレスワン,0
702,3010403026992,新規,0,2022-01-27,2022-01-27,合同会社まけ屋,,合同会社,東京都,港区,南青山２丁目２番１５号,,13,103,1070062,,,,,,,2022-01-27,1,,,,,マケヤ,0
703,3010405020614,新規,0,2022-01-27,2022-01-27,ＥＳＲ２６特定目的会社,,その他の設立登記法人,東京都,港区,浜松町１丁目２０番１０号ライオネス浜松町５０６号室,,13,103,1050013,,,,,,,2022-01-27,1,,,,,イーエスアールニジュウロク,0
709,3010501048369,新規,0,2022-01-27,2022-01-27,株式会社ＭＳＲ,,株式会社,東京都,台東区,千束４丁目３３－１４ケルン浅草１０１,,13,106,1110031,,,,,,,2022-01-27,1,,,,,エムエスアール,0
728,3010701042130,新規,0,2022-01-27,2022-01-27,株式会社Ｓｅｖｅｎ　Ｄｅｓｉｇｎ,,株式会社,東京都,品川区,西五反田３丁目１０－１８シティータワー目黒８０７,,13,109,1410031,,,,,,,2022-01-27,1,,,,,セブンデザイン,0
733,3011001145169,新規,0,2022-01-27,2022-01-27,デジタルコミュニケーションデザイン株式会社,,株式会社,東京都,渋谷区,道玄坂１丁目１０－８渋谷道玄坂東急ビル２Ｆ－Ｃ,,13,113,1500043,,,,,,,2022-01-27,1,,,,,デジタルコミュニケーションデザイン,0
734,3011001145210,新規,0,2022-01-27,2022-01-27,ドキアーキテクツ株式会社,,株式会社,東京都,目黒区,目黒４丁目２６番７号,,13,110,1530063,,,,,,,2022-01-27,1,,,,,ドキアーキテクツ,0
738,3011401023981,新規,0,2022-01-27,2022-01-27,株式会社ＰＲＥＳＴＩＧＥ,,株式会社,東京都,板橋区,板橋４丁目２８－１０－２０９,,13,119,1730004,,,,,,,2022-01-27,1,,,,,プレステージ,0
748,3012401038796,新規,0,2022-01-27,2022-01-27,株式会社ＳＡＤ　ＲＡＢＢＩＴ,,株式会社,東京都,武蔵野市,吉祥寺本町１丁目４番１１－８０１号ライオンズステーションプラザ吉祥寺,,13,203,1800004,,,,,,,2022-01-27,1,,,,,サッドラビット,0
750,3012405004695,新規,0,2022-01-27,2022-01-27,久保田社会保険労務士法人,,その他の設立登記法人,東京都,武蔵野市,吉祥寺本町２丁目１７番７号,,13,203,1800004,,,,,,,2022-01-27,1,,,,,,0
751,3012701016907,新規,0,2022-01-27,2022-01-27,アップライト株式会社,,株式会社,東京都,小平市,小川東町１丁目３９番４－４０７号,,13,211,1870031,,,,,,,2022-01-27,1,,,,,アップライト,0
773,3020001145021,新規,0,2022-01-27,2022-01-27,株式会社Ｎ＆Ｋパートナーズ,,株式会社,神奈川県,横浜市神奈川区,大口仲町１０９番地１８,,14,102,2210003,,,,,,,2022-01-27,1,,,,,エヌアンドケーパートナーズ,0
774,3020003021204,新規,0,2022-01-27,2022-01-27,Ｗｅｍａｎａｇｅ合同会社,,合同会社,神奈川県,横浜市青葉区,美しが丘３丁目６４－１０,,14,117,2250002,,,,,,,2022-01-27,1,,,,,ウイマネージャー,0
785,3040001121887,新規,0,2022-01-27,2022-01-27,株式会社Ｓｐｒｅａｄ　Ｒｕｉ,,株式会社,千葉県,松戸市,松戸１８７３,,12,207,2710092,,,,,,,2022-01-27,1,,,,,スプレッドルイ,0
786,3040001121986,新規,0,2022-01-27,2022-01-27,クラス株式会社,,株式会社,千葉県,市川市,中山２丁目１５番６号ＳＵＮ・ＨＩＬＬＳ２－Ａ号,,12,203,2720813,,,,,,,2022-01-27,1,,,,,クラス,0
793,3080001024715,新規,0,2022-01-27,2022-01-27,株式会社ブランサーチマーケティング,,株式会社,静岡県,静岡市清水区,南岡町６番３４号,,22,103,4240932,,,,,,,2022-01-27,1,,,,,ブランサーチマーケティング,0
797,3080401025593,新規,0,2022-01-27,2022-01-27,株式会社ＯＮＥＴＥＡＭ,,株式会社,静岡県,浜松市中区,富塚町４０３番地の１７,,22,131,4328002,,,,,,,2022-01-27,1,,,,,ワンチーム,0
799,3090001017387,新規,0,2022-01-27,2022-01-27,株式会社ｃｏｍｍｕｎｃａ,,株式会社,山梨県,山梨市,江曽原５９４番地,,19,205,4050043,,,,,,,2022-01-27,1,,,,,コミュンカ,0
800,3090003002032,新規,0,2022-01-27,2022-01-27,合同会社宮内映像,,合同会社,山梨県,中巨摩郡昭和町,清水新居３８７,,19,384,4093867,,,,,,,2022-01-27,1,,,,,ミヤウチエイゾウ,0
810,3100001035008,新規,0,2022-01-27,2022-01-27,株式会社ＤＬＮ,,株式会社,長野県,長野市,豊野町浅野３９２番地４,,20,201,3891104,,,,,,,2022-01-27,1,,,,,ディーエルエヌ,0
857,3130001071009,新規,0,2022-01-27,2022-01-27,美騰株式会社,,株式会社,京都府,京都市伏見区,竹田七瀬川町５２番地４竹田七瀬川町貸事務所１０３,,26,109,6128422,,,,,,,2022-01-27,1,,,,,ビトウ,0
871,3140003017280,新規,0,2022-01-27,2022-01-27,合同会社ＨＯＡＮＧ　ＨＵＹ,,合同会社,兵庫県,神戸市長田区,真野町２番１７号２０２号,,28,106,6530025,,,,,,,2022-01-27,1,,,,,ホアンフィ,0
872,3150001025284,新規,0,2022-01-27,2022-01-27,エスワーク株式会社,,株式会社,奈良県,奈良市,青野町１丁目２番２１－１０６号,,29,201,6310841,,,,,,,2022-01-27,1,,,,,エスワーク,0
876,3150005009366,新規,0,2022-01-27,2022-01-27,一般社団法人警報器普及促進協会,,その他の設立登記法人,奈良県,香芝市,白鳳台２丁目６番地２,,29,210,6390262,,,,,,,2022-01-27,1,,,,,ケイホウキフキュウソクシンキョウカイ,0
890,3190001029067,新規,0,2022-01-27,2022-01-27,つ建株式会社,,株式会社,三重県,津市,半田５００３番地９,,24,201,5140823,,,,,,,2022-01-27,1,,,,,ツケン,0
891,3190003003887,新規,0,2022-01-27,2022-01-27,合同会社ＩＭＰＡＣＴグループ,,合同会社,三重県,鈴鹿市,岸岡町３７３２番地シーハイツ１０３,,24,207,5100226,,,,,,,2022-01-27,1,,,,,インパクトグループ,0
896,3200001039700,新規,0,2022-01-27,2022-01-27,株式会社フジワケミカル,,株式会社,岐阜県,安八郡安八町,牧４５２１番地,,21,383,5030125,,,,,,,2022-01-27,1,,,,,フジワケミカル,0
900,3220005008633,新規,0,2022-01-27,2022-01-27,一般社団法人北陸電気マネジメント協会,,その他の設立登記法人,石川県,金沢市,駅西本町１丁目１４番２９号サン金沢ビル６階,,17,201,9200025,,,,,,,2022-01-27,1,,,,,ホクリクデンキマネジメントキョウカイ,0
901,3230001019204,新規,0,2022-01-27,2022-01-27,丸富食品株式会社,,株式会社,富山県,高岡市,下黒田７７７番地の６４,,16,202,9330852,,,,,,,2022-01-27,1,,,,,,0
910,3240003005473,新規,0,2022-01-27,2022-01-27,合同会社どい事務所,,合同会社,広島県,広島市佐伯区,八幡４丁目１３番１５号,,34,108,7315116,,,,,,,2022-01-27,1,,,,,ドイジムショ,0
913,3260001036469,新規,0,2022-01-27,2022-01-27,株式会社ノーティス,,株式会社,岡山県,岡山市北区,今４丁目１５番２１号犬飼ビル１Ｆ,,33,101,7000975,,,,,,,2022-01-27,1,,,,,ノーティス,0
919,3290001096254,新規,0,2022-01-27,2022-01-27,シノハラ工業株式会社,,株式会社,福岡県,朝倉市,三奈木２８３９番地３１,,40,228,8380023,,,,,,,2022-01-27,1,,,,,シノハラコウギョウ,0
923,3290003012085,新規,0,2022-01-27,2022-01-27,合同会社ハレル,,合同会社,福岡県,福岡市南区,玉川町１６番１４号,,40,134,8150037,,,,,,,2022-01-27,1,,,,,ハレル,0
933,3320001018865,新規,0,2022-01-27,2022-01-27,株式会社なついろラボ,,株式会社,大分県,大分市,大字旦野原２９１番地の２,,44,201,8701124,,,,,,,2022-01-27,1,,,,,ナツイロラボ,0
936,3340001024457,新規,0,2022-01-27,2022-01-27,株式会社アネシス,,株式会社,鹿児島県,鹿児島市,小野４丁目７番５－３号,,46,201,8900021,,,,,,,2022-01-27,1,,,,,アネシス,0
940,3360001029941,新規,0,2022-01-27,2022-01-27,正青株式会社,,株式会社,沖縄県,那覇市,字天久１１９６番地１２藤浦通関ビル３階ＳｅａｓｉｄｅＯｆｆｉｃｅ３１５号室,,47,201,9000005,,,,,,,2022-01-27,1,,,,,セイショウ,0
943,3370005010434,新規,0,2022-01-27,2022-01-27,一般社団法人あぴ,,その他の設立登記法人,宮城県,仙台市青葉区,春日町１０番２３号,,04,101,9800821,,,,,,,2022-01-27,1,,,,,アピ,0
948,3390001016771,新規,0,2022-01-27,2022-01-27,ソレイユ不動産株式会社,,株式会社,山形県,天童市,大字荒谷１９４１番地の１１０６,,06,210,9940054,,,,,,,2022-01-27,1,,,,,ソレイユフドウサン,0
953,3420001017725,新規,0,2022-01-27,2022-01-27,Ｍｉｘｅｓ株式会社,,株式会社,青森県,十和田市,稲生町１４番５３号リラシャンテ１階,,02,206,0340011,,,,,,,2022-01-27,1,,,,,ミックス,0
959,3430003013572,新規,0,2022-01-27,2022-01-27,合同会社信,,合同会社,北海道,札幌市南区,真駒内曙町３丁目３番１０号,00125532,01,106,0050018,,,,,,,2022-01-27,1,,,,,ノブ,0
961,3490001010104,新規,0,2022-01-27,2022-01-27,株式会社マツタカ,,株式会社,高知県,高知市,稲荷町７番２３－５号,,39,201,7810814,,,,,,,2022-01-27,1,,,,,マツタカ,0
964,3500001023970,新規,0,2022-01-27,2022-01-27,株式会社Ｉウェルド,,株式会社,愛媛県,伊予郡松前町,大字筒井５１８番地１７,,38,401,7913120,,,,,,,2022-01-27,1,,,,,アイウェルド,0
965,3700150106837,新規,0,2022-01-27,2022-01-27,八重洲一丁目北地区市街地再開発組合,,その他,東京都,中央区,八重洲１丁目１－３壽ビル４Ｆ,,13,102,1030028,,,,,,,2022-01-27,1,,,,,ヤエスイツチヨウメキタチクシガイチサイカイハツクミアイ,0
966,3700150106845,新規,0,2022-01-27,2022-01-27,Ｈｅｒｅ　Ｃｏｍｅ　ｔｈｅ　Ｎｅｗ　Ｊｅｔｓ　Ｂ．Ｖ．,,外国会社等,,,,,,,,Ｋｅｉｚｅｒｓｇｒａｃｈｔ　２４１，１０１６ＥＡ　Ａｍｓｔｅｒｄａｍ，Ｎｅｔｈｅｒｌａｎｄｓ,,,,,,2022-01-27,1,,,,,ヒアーカムザニユージエツツビーヴイ,0
999,4010001224130,新規,0,2022-01-27,2022-01-27,オーソベンタス株式会社,,株式会社,東京都,千代田区,平河町１丁目８番９号,,13,101,1020093,,,,,,,2022-01-27,1,,,,,オーソベンタス,0
1009,4010003036862,新規,0,2022-01-27,2022-01-27,福岡マネージメント合同会社,,合同会社,東京都,千代田区,丸の内１丁目１１番１号,,13,101,1000005,,,,,,,2022-01-27,1,,,,,フクオカマネージメント,0
1027,4010403026967,新規,0,2022-01-27,2022-01-27,ＪＭスピカ合同会社,,合同会社,東京都,港区,虎ノ門４丁目３番１号城山トラストタワー２７階ＳａｎｎｅＧｒｏｕｐＪａｐａｎ株式会社内,,13,103,1050001,,,,,,,2022-01-27,1,,,,,ジェイエムスピカ,0
1037,4010501048368,新規,0,2022-01-27,2022-01-27,株式会社ＯＶＥＲ　ＧＲＥＥＮ,,株式会社,東京都,台東区,雷門２丁目３番２号,,13,106,1110034,,,,,,,2022-01-27,1,,,,,オーバーグリーン,0
1053,4010901050246,新規,0,2022-01-27,2022-01-27,株式会社Ｓｏｉｎ　ｄｅ　Ｃｏｅｕｒ,,株式会社,東京都,世田谷区,砧２丁目２－５,,13,112,1570073,,,,,,,2022-01-27,1,,,,,ソワンドゥクール,0
1059,4011001145168,新規,0,2022-01-27,2022-01-27,株式会社ヤマネコワークス,,株式会社,東京都,渋谷区,神宮前６丁目２３番４号桑野ビル２階,,13,113,1500001,,,,,,,2022-01-27,1,,,,,ヤマネコワークス,0
1060,4011001145201,新規,0,2022-01-27,2022-01-27,東京深夜通信株式会社,,株式会社,東京都,目黒区,緑が丘１丁目１３番１８号,,13,110,1520034,,,,,,,2022-01-27,1,,,,,トウキョウシンヤツウシン,0
1061,4011001145226,新規,0,2022-01-27,2022-01-27,株式会社ＣＵＰＲＯ　ＥＮＴＥＲＴＡＩＮＭＥＮＴ,,株式会社,東京都,渋谷区,渋谷２丁目１９－１５宮益坂ビルディング６０９,,13,113,1500002,,,,,,,2022-01-27,1,,,,,キュプロエンターテインメント,0
1064,4011003014073,新規,0,2022-01-27,2022-01-27,合同会社Ｃｏｍｐｌｅｔｅ,,合同会社,東京都,目黒区,鷹番３丁目９番２－４０７号乙甲ユースフル学芸大,,13,110,1520004,,,,,,,2022-01-27,1,,,,,コンプリート,0
1073,4011502016801,新規,0,2022-01-27,2022-01-27,有限会社こだま観光社,,有限会社,東京都,北区,堀船３丁目３２番７号,,13,117,1140004,,,,,,,2022-01-27,1,,,,,コダマカンコウシャ,0
1079,4012701016906,新規,0,2022-01-27,2022-01-27,株式会社ＳＨＵＫＥＮ,,株式会社,東京都,西東京市,谷戸町３丁目２３－２６ＧＬＯＩＲＥ１Ｆ,,13,229,1880001,,,,,,,2022-01-27,1,,,,,シュウケン,0
1081,4012803002688,新規,0,2022-01-27,2022-01-27,合同会社インスパイア,,合同会社,東京都,立川市,上砂町５丁目８番地の２ライオンズガーデン武蔵砂川１０２号,,13,202,1900032,,,,,,,2022-01-27,1,,,,,インスパイア,0
1088,4013301048587,新規,0,2022-01-27,2022-01-27,株式会社アシスター,,株式会社,東京都,豊島区,南長崎５丁目１６番８号,,13,116,1710052,,,,,,,2022-01-27,1,,,,,アシスター,0
1098,4020003021203,新規,0,2022-01-27,2022-01-27,弥栄合同会社,,合同会社,神奈川県,横浜市都筑区,川向町９００番地１,,14,118,2240044,,,,,,,2022-01-27,1,,,,,イヤサカ,0
1106,4030001146447,新規,0,2022-01-27,2022-01-27,株式会社ｎｉｎｅ　ｌｉｖｅｓ,,株式会社,埼玉県,幸手市,大字千塚４２１番地９,,11,240,3400161,,,,,,,2022-01-27,1,,,,,ナインライブス,0
1126,4040003019369,新規,0,2022-01-27,2022-01-27,賛多多合同会社,,合同会社,千葉県,千葉市花見川区,三角町１８番地２レオネクストフィールド１１７号,,12,102,2620011,,,,,,,2022-01-27,1,,,,,サンタタ,0
1129,4050001050515,新規,0,2022-01-27,2022-01-27,まちづくり河内株式会社,,株式会社,茨城県,稲敷郡河内町,長竿４６４１番地,,08,447,3001312,,,,,,,2022-01-27,1,,,,,マチヅクリカワチ,0
1130,4050001050531,新規,0,2022-01-27,2022-01-27,株式会社Ｎ‐ＯＦＦＩＣＥ,,株式会社,茨城県,神栖市,溝口４８７３番地５２,,08,232,3140121,,,,,,,2022-01-27,1,,,,,エヌオフィス,0
1133,4060001034525,新規,0,2022-01-27,2022-01-27,株式会社トレーニ,,株式会社,栃木県,鹿沼市,銀座２丁目１８６８番地３,,09,205,3220052,,,,,,,2022-01-27,1,,,,,トレーニ,0
1134,4070001038888,新規,0,2022-01-27,2022-01-27,株式会社ブルースター,,株式会社,群馬県,高崎市,島野町７７６番地１,,10,202,3700015,,,,,,,2022-01-27,1,,,,,ブルースター,0
1137,4080101023070,新規,0,2022-01-27,2022-01-27,株式会社文継,,株式会社,静岡県,駿東郡清水町,中徳倉２８‐６,,22,341,4110916,,,,,,,2022-01-27,1,,,,,ブンケイ,0
1141,4080103002502,新規,0,2022-01-27,2022-01-27,Ａｗｉｅｓ合同会社,,合同会社,静岡県,駿東郡清水町,徳倉６２０番地の８０,,22,341,4110917,,,,,,,2022-01-27,1,,,,,エーワイス,0
1179,4120001243441,新規,0,2022-01-27,2022-01-27,株式会社ｖｉｃｔｏｒ,,株式会社,大阪府,大阪市西淀川区,野里１丁目２１－２０レジュールアッシュ塚本２－９０２号室,,27,113,5550024,,,,,,,2022-01-27,1,,,,,ビクター,0
1185,4120101064993,新規,0,2022-01-27,2022-01-27,株式会社スクエアワン,,株式会社,大阪府,松原市,三宅西４丁目５６７番地の１,,27,217,5800045,,,,,,,2022-01-27,1,,,,,スクエアワン,0
1198,4140001124706,新規,0,2022-01-27,2022-01-27,株式会社プロト,,株式会社,兵庫県,西宮市,枝川町１１番１８号,,28,204,6638143,,,,,,,2022-01-27,1,,,,,プロト,0
1200,4150005009365,新規,0,2022-01-27,2022-01-27,ＴＡＥ協同組合,,その他の設立登記法人,奈良県,香芝市,下田西２丁目５番１８号,,29,210,6390231,,,,,,,2022-01-27,1,,,,,ティーエーイー,0
1201,4160001023963,新規,0,2022-01-27,2022-01-27,株式会社Ｌｏｒ３ｎｚ,,株式会社,滋賀県,大津市,におの浜３丁目３番３号ヨシノビル３－Ｂ号室,,25,201,5200801,,,,,,,2022-01-27,1,,,,,ローレンツ,0
1213,4180301035871,新規,0,2022-01-27,2022-01-27,ＡＦＮＡ　ＴＲＡＤＩＮＧ株式会社,,株式会社,愛知県,豊田市,汐見町２丁目１４番地１レクサシオミ２階２０９号室,,23,211,4710041,,,,,,,2022-01-27,1,,,,,アフナトレーディング,0
1214,4180303005237,新規,0,2022-01-27,2022-01-27,合同会社Ｎｕｒｓｉｎｇ　Ｔｓｕｂａｓａ,,合同会社,愛知県,豊橋市,東高田町４５２番地４,,23,201,4418115,,,,,,,2022-01-27,1,,,,,ナーシングツバサ,0
1216,4190003003886,新規,0,2022-01-27,2022-01-27,合同会社ＡＹＬＥＮ　ＨＩＫＡＲＩ,,合同会社,三重県,鈴鹿市,北長太町２６０番地の１８,,24,207,5130049,,,,,,,2022-01-27,1,,,,,アイレンヒカリ,0
1218,4200001039699,新規,0,2022-01-27,2022-01-27,株式会社クロップ,,株式会社,岐阜県,岐阜市,神室町５丁目１５番地３,,21,201,5008878,,,,,,,2022-01-27,1,,,,,クロップ,0
1228,4220001024666,新規,0,2022-01-27,2022-01-27,株式会社ＡＨＣ,,株式会社,石川県,金沢市,上堤町１番３５号,,17,201,9200869,,,,,,,2022-01-27,1,,,,,エーエイチシー,0
1231,4240001059248,新規,0,2022-01-27,2022-01-27,株式会社Ｔｈｒｉｖｅ・ｏｎ,,株式会社,広島県,安芸郡熊野町,呉地１丁目７番１８号,,34,307,7314222,,,,,,,2022-01-27,1,,,,,スライブオン,0
1238,4260001036468,新規,0,2022-01-27,2022-01-27,株式会社神光建設工業,00125535,株式会社,岡山県,笠岡市,神島５３７０番地,,33,205,7140044,,,,,,,2022-01-27,1,,,,,シンコウケンセツコウギョウ,0
1248,4290001096237,新規,0,2022-01-27,2022-01-27,橋本庭園株式会社,,株式会社,福岡県,福岡市南区,屋形原４丁目３番２１号,,40,134,8111351,,,,,,,2022-01-27,1,,,,,ハシモトテイエン,0
1249,4290001096245,新規,0,2022-01-27,2022-01-27,株式会社エンジンゴテン,,株式会社,福岡県,福岡市博多区,中洲中島町３番１５－３０９号,,40,132,8100802,,,,,,,2022-01-27,1,,,,,エンジンゴテン,0
1250,4290001096253,新規,0,2022-01-27,2022-01-27,エトウデザイン株式会社,,株式会社,福岡県,福岡市中央区,六本松３丁目１１番２３号,,40,133,8100044,,,,,,,2022-01-27,1,,,,,エトウデザイン,0
1252,4290003012076,新規,0,2022-01-27,2022-01-27,森の不動産ＦＯＲＥＳＴＡＴＥ合同会社,,合同会社,福岡県,柳川市,一新町２番地８田中貸事務所２階,,40,207,8320042,,,,,,,2022-01-27,1,,,,,モリノフドウサンフォレステイト,0
1265,4320001018864,新規,0,2022-01-27,2022-01-27,株式会社ＯＥＴ,,株式会社,大分県,大分市,大字常行２５４番地の５,,44,201,8700116,,,,,,,2022-01-27,1,,,,,オーイーティ,0
1274,4380003005095,新規,0,2022-01-27,2022-01-27,合同会社Ｋ‐ｔｉｅｓ,,合同会社,福島県,須賀川市,岡東町１１番地‐３０６号,,07,207,9620013,,,,,,,2022-01-27,1,,,,,ケータイズ,0
1276,4390001016770,新規,0,2022-01-27,2022-01-27,八勝工業株式会社,,株式会社,山形県,天童市,大字乱川２２６番地,,06,210,9940002,,,,,,,2022-01-27,1,,,,,ハッショウコウギョウ,0
1277,4410001013088,新規,0,2022-01-27,2022-01-27,株式会社ライトファーム,,株式会社,秋田県,潟上市,天王字二田９５番地２,,05,211,0100201,,,,,,,2022-01-27,1,,,,,ライトファーム,0
1281,4430001085869,新規,0,2022-01-27,2022-01-27,株式会社ＭＥＤＷ,,株式会社,北海道,札幌市北区,北二十七条西７丁目３７－５,,01,102,0010027,,,,,,,2022-01-27,1,,,,,メド,0
1282,4430001085877,新規,0,2022-01-27,2022-01-27,株式会社Ｇ－ＭＡＲＫ,,株式会社,北海道,札幌市中央区,南十条西１０丁目１番２０号さくらビル４Ｆ－Ｃ,,01,101,0640810,,,,,,,2022-01-27,1,,,,,ジーマーク,0
1285,4430003013563,新規,0,2022-01-27,2022-01-27,合同会社ＮＢカンパニー,,合同会社,北海道,札幌市豊平区,福住二条４丁目６番３０号,,01,105,0620042,,,,,,,2022-01-27,1,,,,,エヌビーカンパニー,0
1287,4430005014378,新規,0,2022-01-27,2022-01-27,一般社団法人すながわリバーズ,,その他の設立登記法人,北海道,砂川市,西一条南４丁目１番２８号,,01,226,0730141,,,,,,,2022-01-27,1,,,,,スナガワリバーズ,0
1296,4500003002765,新規,0,2022-01-27,2022-01-27,合同会社天元,,合同会社,愛媛県,今治市,高橋甲４０４番地４,,38,202,7940066,,,,,,,2022-01-27,1,,,,,テンゲン,0
1297,4700150046669,新規,0,2022-01-27,2015-10-09,白塚地区放課後児童クラブはまっ子会,,その他,三重県,津市,白塚町４４６３白塚小学校内,,24,201,5140101,,,,,,,2015-10-09,1,,,,,シラツカチクホウカゴジドウクラブハマツコカイ,0
1298,4700150105433,新規,0,2022-01-27,2021-10-21,Ｎ２Ｐｒｏｊｅｃｔ,,その他,東京都,大田区,北馬込２丁目２７－９,,13,111,1430021,,,,,,,2021-10-21,1,,,,,エヌツープロジエクト,0
1299,4700150106844,新規,0,2022-01-27,2022-01-27,Ｂｉｇｏ　Ｔｅｃｈｎｏｌｏｇｙ　Ｐｔｅ．，Ｌｔｄ．,,外国会社等,,,,,,,,３０　Ｐａｓｉｒ　Ｐａｎｊａｎｇ　Ｒｏａｄ　＃１５－３１Ａ　Ｍａｐｌｅｔｒｅｅ　Ｂｕｓｉｎｅｓｓ　Ｃｉｔｙ，Ｓｉｎｇａｐｏｒｅ　１１７４４０,,,,,,2022-01-27,1,,,,,ビゴテクノロジーピーテイーイーリミテツド,0
1333,5010001224071,新規,0,2022-01-27,2022-01-27,株式会社ＯＭＯＳＨＩＲＯ,,株式会社,東京都,中央区,東日本橋３丁目６番６号パークビル６階,,13,102,1030004,,,,,,,2022-01-27,1,,,,,オモシロ,0
1334,5010001224138,新規,0,2022-01-27,2022-01-27,株式会社サムアップ,,株式会社,東京都,中央区,築地３丁目５番１３号北村ビル４階,,13,102,1040045,,,,,,,2022-01-27,1,,,,,サムアップ,0
1344,5010003036861,新規,0,2022-01-27,2022-01-27,スリーアロウズ合同会社,,合同会社,東京都,千代田区,二番町１１番地１０,,13,101,1020084,,,,,,,2022-01-27,1,,,,,スリーアロウズ,0
1351,5010005034500,新規,0,2022-01-27,2022-01-27,一般社団法人がん先端医療推進センターＧＥＮＥ東京クリニック,,その他の設立登記法人,東京都,中央区,銀座１丁目１８番２号辰ビル３階,,13,102,1040061,,,,,,,2022-01-27,1,,,,,ガンセンタンイリョウスイシンセンタージーントウキョウクリニック,0
1361,5010401164990,新規,0,2022-01-27,2022-01-27,Ｋｉｎｅｔｉｃ　Ｒｅｎｅｗａｂｌｅｓ　Ｇｒｏｕｐ　Ｊａｐａｎ株式会社,,株式会社,東京都,港区,赤坂２丁目２３番１号アークヒルズ・フロントタワーＩｎＣｏｎｔｒｏｌ内,,13,103,1070052,,,,,,,2022-01-27,1,,,,,キネティックリニューアブルグループジャパン,0
1362,5010401165171,新規,0,2022-01-27,2022-01-27,株式会社ＶＩＲＴＵＡＬ＆ＭＡＧＩＣ,,株式会社,東京都,港区,東麻布２丁目３２番７号,,13,103,1060044,,,,,,,2022-01-27,1,,,,,バーチャルアンドマジック,0
1363,5010405020629,新規,0,2022-01-27,2022-01-27,ＡＰ　ＪＮＲＰ２Ｂ特定目的会社,,その他の設立登記法人,東京都,港区,虎ノ門３丁目２２番１０－２０１号,,13,103,1050001,,,,,,,2022-01-27,1,,,,,エーピージェイエヌアールピーツービー,0
1407,5011103011399,新規,0,2022-01-27,2022-01-27,サクセスエイド合同会社,,合同会社,東京都,新宿区,西新宿３丁目３番１３号西新宿水間ビル６階,,13,104,1600023,,,,,,,2022-01-27,1,,,,,サクセスエイド,0
1410,5011601025693,新規,0,2022-01-27,2022-01-27,株式会社ワイズリノベーション,,株式会社,東京都,練馬区,大泉町４丁目３２番２６号,,13,120,1780062,,,,,,,2022-01-27,1,,,,,ワイズリノベーション,0
1419,5012403005215,新規,0,2022-01-27,2022-01-27,合同会社八未,,合同会社,東京都,狛江市,中和泉５丁目４０－１９,,13,219,2010012,,,,,,,2022-01-27,1,,,,,ハチミ,0
1420,5012405004693,新規,0,2022-01-27,2022-01-27,一般社団法人多摩ハンドボールクラブ,,その他の設立登記法人,東京都,多摩市,一ノ宮１丁目１１番地の５,,13,224,2060002,,,,,,,2022-01-27,1,,,,,タマハンドボールクラブ,0
1430,5013303006014,新規,0,2022-01-27,2022-01-27,合同会社ＨＮＣ不動産,,合同会社,東京都,豊島区,雑司が谷１丁目３０番１２号アーバンプレイス雑司ヶ谷Ｂ１０２号,,13,116,1710032,,,,,,,2022-01-27,1,,,,,エイチエヌシーフドウサン,0
1440,5020001144970,新規,0,2022-01-27,2022-01-27,株式会社Ａｎｓｅｌｏ,,株式会社,神奈川県,横浜市青葉区,美しが丘２丁目１３番地３メゾン・ルミエールたまプラーザ１０６号室,,14,117,2250002,,,,,,,2022-01-27,1,,,,,アンセロ,0
1441,5020001144979,新規,0,2022-01-27,2022-01-27,株式会社木戸組,,株式会社,神奈川県,横浜市都筑区,勝田南１丁目７番６号,,14,118,2240036,,,,,,,2022-01-27,1,,,,,キドグミ,0
1442,5020001144987,新規,0,2022-01-27,2022-01-27,株式会社統建,,株式会社,神奈川県,川崎市川崎区,池上新町２丁目２１番１１号,,14,131,2100832,,,,,,,2022-01-27,1,,,,,トウケン,0
1454,5021003011333,新規,0,2022-01-27,2022-01-27,合同会社ＣＯＮＢＥＲＴ,,合同会社,神奈川県,相模原市中央区,田名６１０６番地１４,,14,152,2520244,,,,,,,2022-01-27,1,,,,,コンバート,0
1458,5030003018726,新規,0,2022-01-27,2022-01-27,鴻燕合同会社,,合同会社,埼玉県,川口市,芝園町３番２－９１１号芝園団地,,11,203,3330853,,,,,,,2022-01-27,1,,,,,コウエン,0
1464,5040001121984,新規,0,2022-01-27,2022-01-27,株式会社ＰｌｕｓＵｌｔｒａ,,株式会社,千葉県,松戸市,小金原４丁目２４番６号,,12,207,2700021,,,,,,,2022-01-27,1,,,,,プルスウルトラ,0
1474,5070001038879,新規,0,2022-01-27,2022-01-27,株式会社一期一會,,株式会社,群馬県,伊勢崎市,連取町１６６９番地１ミ・カーサＡ,,10,204,3720812,,,,,,,2022-01-27,1,,,,,イチゴイチエ,0
1475,5070001038887,新規,0,2022-01-27,2022-01-27,ＳＰＡＲ株式会社,,株式会社,群馬県,太田市,西本町５５番地５号,,10,205,3730033,,,,,,,2022-01-27,1,,,,,エスピーエーアール,0
1476,5080001024713,新規,0,2022-01-27,2022-01-27,ＨＯＲＳＥＨＥＡＤ　ＬＡＢＳ株式会社,,株式会社,静岡県,静岡市清水区,蒲原東１７０番地の１,,22,103,4213201,,,,,,,2022-01-27,1,,,,,ホースヘッドラブズ,0
1500,5110001036399,新規,0,2022-01-27,2022-01-27,株式会社Ｑｕｏｋｋａｒ,,株式会社,新潟県,新潟市中央区,天神１丁目１プラーカ３、２Ｆ,,15,103,9500917,,,,,,,2022-01-27,1,,,,,クオッカー,0
1513,5120003021019,新規,0,2022-01-27,2022-01-27,ＴＴ合同会社,,合同会社,大阪府,大阪市生野区,生野西１丁目１０番２９号,,27,116,5440024,,,,,,,2022-01-27,1,,,,,ティーティー,0
1514,5120005022741,新規,0,2022-01-27,2022-01-27,一般社団法人がん先端医療推進センターＧＥＮＥ大阪クリニック,,その他の設立登記法人,大阪府,大阪市北区,西天満４丁目１５番１８号プラザ梅新４階Ｂ,,27,127,5300047,,,,,,,2022-01-27,1,,,,,ガンセンタンイリョウスイシンセンタージーンオオサカクリニック,0
1528,5140001124696,新規,0,2022-01-27,2022-01-27,株式会社ＣＨ．ライフデザイン,,株式会社,兵庫県,神戸市東灘区,田中町１丁目２番１２号,,28,101,6580081,,,,,,,2022-01-27,1,,,,,シーエイチライフデザイン,0
1531,5140003017279,新規,0,2022-01-27,2022-01-27,ＭＡＲＨＢＡ　ＶＡＣＡＴＩＯＮ　ＨＯＭＥ　ＲＥＮＴＡＬ合同会社,,合同会社,兵庫県,神戸市中央区,下山手通８丁目２番１４－３,,28,110,6500011,,,,,,,2022-01-27,1,,,,,マルハバヴァケーションホームレンタル,0
1534,5140005026006,新規,0,2022-01-27,2022-01-27,一般社団法人アドバンス,,その他の設立登記法人,兵庫県,尼崎市,長洲西通２丁目８番３０号,,28,202,6600807,,,,,,,2022-01-27,1,,,,,アドバンス,0
1547,5180001149599,新規,0,2022-01-27,2022-01-27,興亜土地株式会社,,株式会社,愛知県,名古屋市南区,呼続町字下霜谷２２番地,,23,112,4570000,,,,,,,2022-01-27,1,,,,,コウアトチ,0
1550,5180003023430,新規,0,2022-01-27,2022-01-27,ＴＭアセットマネジメント合同会社,,合同会社,愛知県,名古屋市西区,又穂町１丁目２７番地名城ビル３Ｆ,,23,104,4510014,,,,,,,2022-01-27,1,,,,,ティーエムアセットマネジメント,0
1556,5200003005434,新規,0,2022-01-27,2022-01-27,合同会社高木奈良三郎,,合同会社,岐阜県,可児市,広見６６２番地３,,21,214,5090214,,,,,,,2022-01-27,1,,,,,タカギナラサブロウ,0
1558,5220001024665,新規,0,2022-01-27,2022-01-27,株式会社ディーセントワーク,,株式会社,石川県,金沢市,四十万町北チ５４‐１１,,17,201,9218133,,,,,,,2022-01-27,1,,,,,ディーセントワーク,0
1564,5240001059247,新規,0,2022-01-27,2022-01-27,株式会社グリーンＹＲ,,株式会社,広島県,広島市安芸区,瀬野５丁目５番３６－２号,,34,107,7390311,,,,,,,2022-01-27,1,,,,,グリーンワイアール,0
1567,5260001036475,新規,0,2022-01-27,2022-01-27,株式会社ＲＥＰＬＡＹ,,株式会社,岡山県,岡山市北区,田中６４２番地３シャーメゾンガーデンズ田中１０１,,33,101,7000951,,,,,,,2022-01-27,1,,,,,リプレイ,0
1578,5290001096194,新規,0,2022-01-27,2022-01-27,株式会社大豆の花,,株式会社,福岡県,飯塚市,有安１０３０番地,,40,205,8200111,,,,,,,2022-01-27,1,,,,,ダイズノハナ,0
1579,5290001096244,新規,0,2022-01-27,2022-01-27,株式会社ＲｉｓＭ,,株式会社,福岡県,福岡市早良区,百道浜２丁目３番２号ＴＮＣ放送会館,,40,137,8140001,,,,,,,2022-01-27,1,,,,,リズム,0
1580,5290001096252,新規,0,2022-01-27,2022-01-27,ミライズ株式会社,,株式会社,福岡県,福岡市博多区,御供所町４番３－１３０２号,,40,132,8120037,,,,,,,2022-01-27,1,,,,,ミライズ,0
1594,5320001018863,新規,0,2022-01-27,2022-01-27,株式会社ＣＡＯＳ,,株式会社,大分県,大分市,東大道２丁目５番６０号,,44,201,8700823,,,,,,,2022-01-27,1,,,,,カオス,0
1599,5360001029931,新規,0,2022-01-27,2022-01-27,株式会社雅左官工業,,株式会社,沖縄県,宜野湾市,大謝名２丁目１５番２号,,47,205,9012225,,,,,,,2022-01-27,1,,,,,ミヤビサカンコウギョウ,0
1603,5380001032529,新規,0,2022-01-27,2022-01-27,株式会社江見左官,,株式会社,福島県,喜多方市,東桜ガ丘２丁目２５３番地,,07,208,9660007,,,,,,,2022-01-27,1,,,,,エミサカン,0
1606,5400001015761,新規,0,2022-01-27,2022-01-27,株式会社ＩＳＰ・ＦｒｏｎｔＥｎｄ,,株式会社,岩手県,岩手郡岩手町,大字五日市第１１地割５３番地１０,,03,303,0284307,,,,,,,2022-01-27,1,,,,,アイエスピィフロントエンド,0
1608,5400005008209,新規,0,2022-01-27,2022-01-27,農事組合法人北下幅,,その他の設立登記法人,岩手県,奥州市,水沢字向田５番地,,03,215,0230096,,,,,,,2022-01-27,1,,,,,キタシタハバ,0
1614,5430002060465,新規,0,2022-01-27,2022-01-27,有限会社北勢ジェー・ビー・ファーム,,有限会社,愛知県,北設楽郡設楽町,大字西納庫字沖ノ平１番地２８３,,23,561,4412300,,,,,,,2022-01-27,1,,,,,,0
1618,5460301005036,新規,0,2022-01-27,2022-01-27,株式会社なつ,,株式会社,北海道,北見市,東三輪１丁目３１番地９９,,01,208,0900836,,,,,,,2022-01-27,1,,,,,ナツ,0
1621,5500001023969,新規,0,2022-01-27,2022-01-27,株式会社ＰＬＰＨＡ,,株式会社,愛媛県,松山市,今在家４丁目４番１７号フローラルコート日野Ｂ２０１号,,38,201,7911106,,,,,,,2022-01-27,1,,,,,プラファ,0
1624,5500005008454,新規,0,2022-01-27,2022-01-27,特定非営利活動法人Ｌｉｅｎ,,その他の設立登記法人,愛媛県,伊予市,下吾川１２５０番地１,,38,210,7993111,,,,,,,2022-01-27,1,,,,,リアン,0
1625,5700150106637,新規,0,2022-01-27,2022-01-14,人工知能美学芸術研究会,,その他,東京都,調布市,富士見町２丁目１－７－２０２,,13,208,1820033,,,,,,,2022-01-14,1,,,,,ジンコウチノウビガクゲイジユツケンキユウカイ,0
1626,5700150106843,新規,0,2022-01-27,2022-01-27,Ｔｅｌｌ　Ｉｎｖｅｓｔｍｅｎｔ　ＡＢ,,外国会社等,,,,,,,,スウェーデン、ストックホルム１３３４４、サルトシェーバーデン、Ｖａｎｔｖａｇｅｎ２３,,,,,,2022-01-27,1,,,,,テルインベストメントエービー,0
1682,6010103001855,新規,0,2022-01-27,2022-01-27,ｓａｌｔａｒｅ合同会社,,合同会社,東京都,八王子市,北野台２丁目１７－３,,13,201,1920913,,,,,,,2022-01-27,1,,,,,サルターレ,0
1689,6010401164866,新規,0,2022-01-27,2022-01-27,アルファコンサルティンググループ株式会社,,株式会社,東京都,港区,赤坂４丁目５番６号クレアツィオーネ赤坂３０２,,13,103,1070052,,,,,,,2022-01-27,1,,,,,アルファコンサルティンググループ,0
1690,6010401165162,新規,0,2022-01-27,2022-01-27,株式会社Ｄｅｓｉｇｎａｒｅ,,株式会社,東京都,港区,芝浦４丁目２２番１－４１４号,,13,103,1080023,,,,,,,2022-01-27,1,,,,,デジナーレ,0
1691,6010401165170,新規,0,2022-01-27,2022-01-27,株式会社Ａｃｒｏ,,株式会社,東京都,港区,東麻布２丁目３２番７号,,13,103,1060044,,,,,,,2022-01-27,1,,,,,アクロ,0
1692,6010401165245,新規,0,2022-01-27,2022-01-27,株式会社ＭＩＮＩＭＵＳ,,株式会社,東京都,港区,南青山４丁目５番１７号,,13,103,1070062,,,,,,,2022-01-27,1,,,,,ミニマス,0
1705,6010503006487,新規,0,2022-01-27,2022-01-27,Ｃ．Ｓｍｉｔｈ合同会社,,合同会社,東京都,台東区,竜泉１丁目１０番２号,,13,106,1100012,,,,,,,2022-01-27,1,,,,,シースミス,0
1720,6010701042144,新規,0,2022-01-27,2022-01-27,株式会社加藤製作所,,株式会社,東京都,品川区,二葉４丁目８番１号,,13,109,1420043,,,,,,,2022-01-27,1,,,,,カトウセイサクジョ,0
1728,6010901050244,新規,0,2022-01-27,2022-01-27,ＥＮＹＡ．ｃｏｍ株式会社,,株式会社,東京都,世田谷区,奥沢１丁目３０－３,,13,112,1580083,,,,,,,2022-01-27,1,,,,,エンヤドットコム,0
1729,6010901050252,新規,0,2022-01-27,2022-01-27,ＣＯＲＴＥＳＥ株式会社,,株式会社,東京都,世田谷区,砧５丁目１２番８号,,13,112,1570073,,,,,,,2022-01-27,1,,,,,コルテイゼ,0
1734,6011001145141,新規,0,2022-01-27,2022-01-27,株式会社ＭａｎｄＭ,,株式会社,東京都,渋谷区,広尾３丁目２番１－４０１号,,13,113,1500012,,,,,,,2022-01-27,1,,,,,エムアンドエム,0
1735,6011001145182,新規,0,2022-01-27,2022-01-27,株式会社リタテラス,,株式会社,東京都,渋谷区,道玄坂１丁目１０番８号渋谷道玄坂東急ビル２Ｆ－Ｃ,,13,113,1500043,,,,,,,2022-01-27,1,,,,,リタテラス,0
1736,6011001145323,新規,0,2022-01-27,2022-01-27,株式会社ストーンスリーシングス,,株式会社,東京都,目黒区,青葉台１丁目２９番６－２０４号,,13,110,1530042,,,,,,,2022-01-27,1,,,,,ストーンスリーシングス,0
1744,6011103011407,新規,0,2022-01-27,2022-01-27,せんちゃん合同会社,,合同会社,東京都,新宿区,新宿３丁目１１番１２号永谷テイクエイトビル１００１号室,,13,104,1600022,,,,,,,2022-01-27,1,,,,,センチャン,0
1748,6011203003741,新規,0,2022-01-27,2022-01-27,フューチャープランニング合同会社,,合同会社,東京都,中野区,東中野１丁目１４番２１号プレシス中野氷川町２０３,,13,114,1640003,,,,,,,2022-01-27,1,,,,,フューチャープランニング,0
1758,6011601025643,新規,0,2022-01-27,2022-01-27,デジタルデザイン株式会社,,株式会社,東京都,練馬区,桜台３丁目１８番７－６０２号,,13,120,1760002,,,,,,,2022-01-27,1,,,,,デジタルデザイン,0
1759,6011601025701,新規,0,2022-01-27,2022-01-27,株式会社ムーブ,,株式会社,東京都,練馬区,石神井町１丁目２３番１３号,,13,120,1770041,,,,,,,2022-01-27,1,,,,,ムーブ,0
1760,6011701025007,新規,0,2022-01-27,2022-01-27,川村木工株式会社,,株式会社,東京都,江戸川区,東葛西６丁目１０番１７－１３０４号,,13,123,1340084,,,,,,,2022-01-27,1,,,,,カワムラモッコウ,0
1764,6012401038793,新規,0,2022-01-27,2022-01-27,株式会社ＧＲＯＯＶＥ,,株式会社,東京都,三鷹市,井の頭４丁目２０番６号井の頭ハイム５０３,,13,204,1810001,,,,,,,2022-01-27,1,,,,,グルーヴ,0
1765,6012403005214,新規,0,2022-01-27,2022-01-27,合同会社ＫＩＮＧＤＯＭ,,合同会社,東京都,調布市,西つつじケ丘１丁目１４番地７４,,13,208,1820006,,,,,,,2022-01-27,1,,,,,キングダム,0
1767,6012801021358,新規,0,2022-01-27,2022-01-27,株式会社八剱,,株式会社,東京都,日野市,平山２丁目３９番地の１０,,13,212,1910043,,,,,,,2022-01-27,1,,,,,ヤツルギ,0
1768,6012801021366,新規,0,2022-01-27,2022-01-27,株式会社Ｈ＆Ｋ,,株式会社,東京都,国立市,東１丁目１４番地の１１,,13,215,1860002,,,,,,,2022-01-27,1,,,,,エイチアンドケイ,0
1770,6012803002686,新規,0,2022-01-27,2022-01-27,合同会社ＨＤＳ,,合同会社,東京都,立川市,富士見町１丁目１１番５号パルク富栄３０５号,,13,202,1900013,,,,,,,2022-01-27,1,,,,,エイチディエス,0
1785,6020001144920,新規,0,2022-01-27,2022-01-27,株式会社三陽,,株式会社,神奈川県,横浜市中区,上野町３丁目１１２番地９,,14,104,2310842,,,,,,,2022-01-27,1,,,,,,0
1786,6020001144994,新規,0,2022-01-27,2022-01-27,サンリングトラスト株式会社,,株式会社,神奈川県,横浜市鶴見区,潮田町３丁目１４３番地４,,14,101,2300041,,,,,,,2022-01-27,1,,,,,サンリングトラスト,0
1787,6020001145002,新規,0,2022-01-27,2022-01-27,株式会社ＴＥＤＹ,,株式会社,神奈川県,横浜市西区,高島２丁目１１番２号,,14,103,2200011,,,,,,,2022-01-27,1,,,,,テディ,0
1788,6020003021201,新規,0,2022-01-27,2022-01-27,ホープスタイル合同会社,,合同会社,神奈川県,横浜市中区,扇町２丁目５番地１４Ｙ’ｓトレゾワ関内６０２号,,14,104,2310027,,,,,,,2022-01-27,1,,,,,ホープスタイル,0
1799,6040001121967,新規,0,2022-01-27,2022-01-27,株式会社ＳｔＲｅｃｋ,,株式会社,千葉県,袖ケ浦市,神納５０２５番地１,,12,229,2990257,,,,,,,2022-01-27,1,,,,,ストレック,0
1804,6070001038886,新規,0,2022-01-27,2022-01-27,株式会社Ａｓｓｅｔ　ｐｌｕｓ,,株式会社,群馬県,前橋市,富士見町原之郷７１０番地,,10,201,3710116,,,,,,,2022-01-27,1,,,,,アセットプラス,0
1805,6080001024704,新規,0,2022-01-27,2022-01-27,株式会社ＨＯＭＵＲＡ,,株式会社,静岡県,静岡市葵区,桜町１丁目４番６９号,,22,101,4200945,,,,,,,2022-01-27,1,,,,,ホムラ,0
1806,6080001024712,新規,0,2022-01-27,2022-01-27,株式会社パシオン,,株式会社,静岡県,静岡市葵区,柳町１６番地の８０,,22,101,4200007,,,,,,,2022-01-27,1,,,,,パシオン,0
1809,6080101023069,新規,0,2022-01-27,2022-01-27,株式会社飯塚電気,,株式会社,静岡県,裾野市,麦塚１１７番地,,22,220,4101122,,,,,,,2022-01-27,1,,,,,イイヅカデンキ,0
1835,6120001243448,新規,0,2022-01-27,2022-01-27,株式会社ＳＤＳ,,株式会社,大阪府,枚方市,香里園東之町４番１７号,,27,210,5730085,,,,,,,2022-01-27,1,,,,,エスディエス,0
1838,6120003021018,新規,0,2022-01-27,2022-01-27,ＮＧＵＹＥＮ　ＨＵＹＮＨ合同会社,,合同会社,大阪府,大阪市生野区,桃谷４丁目４番１６号,,27,116,5440034,,,,,,,2022-01-27,1,,,,,グェンフィン,0
1842,6120905006272,新規,0,2022-01-27,2022-01-27,医療法人健寿会,,その他の設立登記法人,大阪府,高槻市,芥川町１丁目１番１号ＪＲ高槻駅ＮＫビル１階,,27,207,5691123,,,,,,,2022-01-27,1,,,,,ケンジュカイ,0
1862,6140001124695,新規,0,2022-01-27,2022-01-27,株式会社ＳＥＲＥＮＯ,,株式会社,兵庫県,神戸市北区,桂木３丁目３２番地の２エスポアシティ神戸北町１０８号,,28,109,6511223,,,,,,,2022-01-27,1,,,,,セレーノ,0
1863,6140001124720,新規,0,2022-01-27,2022-01-27,Ａｕｔｏｐｏｉｅｔｉｃ　Ｓａｐｉｅｎｃｅ株式会社,,株式会社,兵庫県,神戸市中央区,元町通３丁目１１番８号,,28,110,6500022,,,,,,,2022-01-27,1,,,,,オートポイエティックサピエンス,0
1876,6180001149689,新規,0,2022-01-27,2022-01-27,株式会社メロー,,株式会社,愛知県,一宮市,浅井町大日比野字東出５５番地５,,23,203,4910105,,,,,,,2022-01-27,1,,,,,メロー,0
1877,6180001149747,新規,0,2022-01-27,2022-01-27,高木マネージメントサービス株式会社,00125536,株式会社,愛知県,名古屋市中村区,名駅４丁目２番７号,,23,105,4500002,,,,,,,2022-01-27,1,,,,,タカギマネージメントサービス,0
1890,6190001029064,新規,0,2022-01-27,2022-01-27,株式会社プラットホール,,株式会社,三重県,津市,高茶屋小森町１５２７番地,,24,201,5140817,,,,,,,2022-01-27,1,,,,,プラットホール,0
1893,6200001039697,新規,0,2022-01-27,2022-01-27,株式会社ＳＢＳ,,株式会社,岐阜県,羽島郡岐南町,野中５丁目１０７番地の１,,21,302,5016004,,,,,,,2022-01-27,1,,,,,エスビーエス,0
1894,6200001039706,新規,0,2022-01-27,2022-01-27,株式会社Ｒｅｍｏｄｅｓ,,株式会社,岐阜県,揖斐郡池田町,池野２３０番地カサベルデ１－Ｂ,,21,404,5032424,,,,,,,2022-01-27,1,,,,,リモデス,0
1904,6260001036466,新規,0,2022-01-27,2022-01-27,Ｅ－ＡＳＴ　ＭＯＭＯ株式会社,,株式会社,岡山県,岡山市東区,浅越１６７番地１２,,33,103,7048181,,,,,,,2022-01-27,1,,,,,イーストモモ,0
1915,6290003012090,新規,0,2022-01-27,2022-01-27,福島郡山みらいエネルギー合同会社,,合同会社,福岡県,福岡市南区,那の川１丁目２４番１号,,40,134,8150081,,,,,,,2022-01-27,1,,,,,フクシマコオリヤマミライエネルギー,0
1926,6320003003714,新規,0,2022-01-27,2022-01-27,ＢＢＳ合同会社,,合同会社,大分県,佐伯市,直川大字上直見７１１番地の１,,44,205,8793102,,,,,,,2022-01-27,1,,,,,ビービーエス,0
1952,6430001085875,新規,0,2022-01-27,2022-01-27,株式会社千歳弘和サービス,,株式会社,北海道,千歳市,栄町２丁目１番地の１,,01,224,0660061,,,,,,,2022-01-27,1,,,,,チトセコウワサービス,0
1953,6430001085883,新規,0,2022-01-27,2022-01-27,株式会社Ｓアセット,,株式会社,北海道,札幌市東区,北八条東４丁目１番２０号,,01,103,0600908,,,,,,,2022-01-27,1,,,,,エスアセット,0
1962,6450001013603,新規,0,2022-01-27,2022-01-27,株式会社縁,,株式会社,北海道,旭川市,永山十四条３丁目２番２９号,,01,204,0798424,,,,,,,2022-01-27,1,,,,,エニシ,0
1964,6460301005035,新規,0,2022-01-27,2022-01-27,株式会社ＧＲＥＥＮ　ｒｅｌａｘｉｎｇ,,株式会社,北海道,北見市,北斗町２丁目５番１５号,,01,208,0900035,,,,,,,2022-01-27,1,,,,,グリーンリラクシング,0
1966,6480003001784,新規,0,2022-01-27,2022-01-27,合同会社エナジーサークル,,合同会社,徳島県,板野郡北島町,新喜来字南古田７７番地１９,,36,402,7710207,,,,,,,2022-01-27,1,,,,,エナジーサークル,0
1967,6500005008453,新規,0,2022-01-27,2022-01-27,特定非営利活動法人Ｐｒｏｊｅｔ－Ｄ,,その他の設立登記法人,愛媛県,松山市,別府町９９番地３,,38,201,7918056,,,,,,,2022-01-27,1,,,,,プロジェデ,0
1968,6700150106842,新規,0,2022-01-27,2022-01-27,Ｌｉｎｏｄｅ，ＬＬＣ,,外国会社等,東京都,品川区,東品川２丁目２－４３,,13,109,1400002,アメリカ合衆国ペンシルベニア州フィラデルフィア、アーチ・ストリート２４９,,,,,,2022-01-27,1,,,,,リノードエルエルシー,0
1990,7010001223947,新規,0,2022-01-27,2022-01-27,八億時空日本株式会社,,株式会社,東京都,中央区,八丁堀３丁目１１番１３－１２０４号室,,13,102,1040032,,,,,,,2022-01-27,1,,,,,ハチオクジクウニホン,0
1991,7010001224128,新規,0,2022-01-27,2022-01-27,株式会社クレッシェンド・ラボ,,株式会社,東京都,千代田区,岩本町１丁目４番５号,,13,101,1010032,,,,,,,2022-01-27,1,,,,,クレッシェンドラボ,0
1992,7010001224160,新規,0,2022-01-27,2022-01-27,アリンインターナショナル株式会社,,株式会社,東京都,中央区,八重洲１丁目３番７号八重洲ファーストフィナンシャルビル１３Ｆ,,13,102,1030028,,,,,,,2022-01-27,1,,,,,アリンインターナショナル,0
2022,7010403026980,新規,0,2022-01-27,2022-01-27,ｓａｆｅｒａｙ　Ａｌｐｈａ　Ｓｏｌａｒ合同会社,,合同会社,東京都,港区,虎ノ門５丁目１番５号,,13,103,1050001,,,,,,,2022-01-27,1,,,,,セーフレイアルファソーラー,0
2026,7010501002751,新規,0,2022-01-27,2022-01-27,株式会社カラコ,,株式会社,東京都,台東区,上野３丁目１９番４号,,13,106,1100005,,,,,,,2022-01-27,1,,,,,カラコ,0
2056,7010901050243,新規,0,2022-01-27,2022-01-27,株式会社Ｍｅｉｓｔｅｒ　Ｓｏｌｕｔｉｏｎ　Ｃｏｍｐａｎｙ,,株式会社,東京都,世田谷区,祖師谷４丁目１８番１４号,,13,112,1570072,,,,,,,2022-01-27,1,,,,,マイスターソリューションカンパニー,0
2065,7011001145157,新規,0,2022-01-27,2022-01-27,株式会社Ｂｒｉｇｈｔ,,株式会社,東京都,渋谷区,恵比寿南３丁目１－１９恵比寿ライトビル５Ｆ,,13,113,1500022,,,,,,,2022-01-27,1,,,,,ブライト,0
2066,7011001145330,新規,0,2022-01-27,2022-01-27,株式会社アーランシャフト,,株式会社,東京都,渋谷区,道玄坂１丁目１０番８号渋谷道玄坂東急ビル２Ｆ－Ｃ,,13,113,1500043,,,,,,,2022-01-27,1,,,,,アーランシャフト,0
2068,7011003014070,新規,0,2022-01-27,2022-01-27,合同会社堀江事務所,,合同会社,東京都,渋谷区,渋谷２丁目１９番１５号宮益坂ビルディング６０９,,13,113,1500002,,,,,,,2022-01-27,1,,,,,ホリエジムショ,0
2069,7011003014087,新規,0,2022-01-27,2022-01-27,金子ビジネスコンサルティング合同会社,,合同会社,東京都,渋谷区,鉢山町３番２５号,,13,113,1500035,,,,,,,2022-01-27,1,,,,,カネコビジネスコンサルティング,0
2079,7011303004291,新規,0,2022-01-27,2022-01-27,ナレッジカンパニー合同会社,,合同会社,東京都,杉並区,下井草２丁目２２番１０号,,13,115,1670022,,,,,,,2022-01-27,1,,,,,ナレッジカンパニー,0
2082,7011601025700,新規,0,2022-01-27,2022-01-27,株式会社ＳＯＵＫＥＮ,,株式会社,東京都,練馬区,平和台１丁目７番１４号パレス平和台２０１号,,13,120,1790083,,,,,,,2022-01-27,1,,,,,ソウケン,0
2085,7012403005213,新規,0,2022-01-27,2022-01-27,合同会社オビプロモーション,,合同会社,東京都,武蔵野市,中町３丁目７番１－２１０号,,13,203,1800006,,,,,,,2022-01-27,1,,,,,オビプロモーション,0
2089,7013301048601,新規,0,2022-01-27,2022-01-27,株式会社Ａｘｉｅ,,株式会社,東京都,豊島区,池袋２丁目２３番２３号白鳥ハイツ３０５,,13,116,1710014,,,,,,,2022-01-27,1,,,,,アクシー,0
2097,7020001144969,新規,0,2022-01-27,2022-01-27,株式会社心雅,,株式会社,神奈川県,横浜市磯子区,栗木１丁目２９番８号,,14,107,2350041,,,,,,,2022-01-27,1,,,,,ミヤビ,0
2098,7020001144977,新規,0,2022-01-27,2022-01-27,株式会社Ｋｎｏｗｌｅｄｇｅ＆Ｃｏｎｎｅｃｔｉｏｎ,,株式会社,神奈川県,横浜市緑区,長津田４丁目１７－９コンフォート長津田１１５号,,14,113,2260027,,,,,,,2022-01-27,1,,,,,ナレッジアンドコネクション,0
2099,7020001144985,新規,0,2022-01-27,2022-01-27,勇輝株式会社,,株式会社,神奈川県,横浜市鶴見区,市場上町６番２８－１号,,14,101,2300021,,,,,,,2022-01-27,1,,,,,ユウキ,0
2100,7020001145034,新規,0,2022-01-27,2022-01-27,株式会社ＴＯＮＢＩ,,株式会社,神奈川県,川崎市宮前区,鷺沼１丁目６番地６－１Ｆ,,14,136,2160004,,,,,,,2022-01-27,1,,,,,トンビ,0
2105,7020003021200,新規,0,2022-01-27,2022-01-27,ＥＭｉｔｏ合同会社,,合同会社,神奈川県,川崎市中原区,木月４丁目１２番１－５０５号,,14,133,2110025,,,,,,,2022-01-27,1,,,,,エミット,0
2106,7020005015365,新規,0,2022-01-27,2022-01-27,司法書士法人高橋啓事務所,00125533,その他の設立登記法人,神奈川県,横浜市港北区,篠原北２丁目４番２号日東ビル２０３,,14,109,2220021,,,,,,,2022-01-27,1,,,,,タカハシケイジムショ,0
2114,7021001075048,新規,0,2022-01-27,2022-01-27,株式会社石吉,,株式会社,神奈川県,相模原市南区,新磯野７０番地１,,14,153,2520325,,,,,,,2022-01-27,1,,,,,イシヨシ,0
2122,7030001146436,新規,0,2022-01-27,2022-01-27,啓程貿易株式会社,,株式会社,埼玉県,川口市,西川口１丁目３０－２０Ｔ・Ｂ・Ｓ企画ビル３０８,,11,203,3320021,,,,,,,2022-01-27,1,,,,,ケイテイボウエキ,0
2129,7040001121974,新規,0,2022-01-27,2022-01-27,株式会社アルティ,,株式会社,千葉県,市川市,妙典５丁目１５番１０－３０３号ミルフィーユ弐番館,,12,203,2720111,,,,,,,2022-01-27,1,,,,,アルティ,0
2130,7040003019374,新規,0,2022-01-27,2022-01-27,Ａｎｎａ合同会社,,合同会社,千葉県,船橋市,印内１丁目９番２５号,,12,204,2730039,,,,,,,2022-01-27,1,,,,,アンナ,0
2135,7050003006322,新規,0,2022-01-27,2022-01-27,合同会社ナガヤマコーポレーション,,合同会社,茨城県,水戸市,青柳町４７４６番地の８,,08,201,3100004,,,,,,,2022-01-27,1,,,,,ナガヤマコーポレーション,0
2140,7070001038885,新規,0,2022-01-27,2022-01-27,株式会社ＣＫＮ,,株式会社,群馬県,佐波郡玉村町,大字上飯島２９７番地,,10,464,3701121,,,,,,,2022-01-27,1,,,,,シーケイエヌ,0
2141,7080101023068,新規,0,2022-01-27,2022-01-27,Ｆ．о．ｒ．ｔ．ｈ．株式会社,,株式会社,静岡県,三島市,梅名５１８番地の１,,22,206,4110816,,,,,,,2022-01-27,1,,,,,フォース,0
2174,7120103004540,新規,0,2022-01-27,2022-01-27,合同会社ＴＥＴＳＵ電機,,合同会社,大阪府,岸和田市,作才町１丁目７番１２号,,27,202,5960826,,,,,,,2022-01-27,1,,,,,テツデンキ,0
2175,7120105009513,新規,0,2022-01-27,2022-01-27,医療法人希美会,,その他の設立登記法人,大阪府,岸和田市,土生町２丁目２０番１３号,,27,202,5960825,,,,,,,2022-01-27,1,,,,,ノゾミカイ,0
2178,7120903004013,新規,0,2022-01-27,2022-01-27,合同会社鉄幹,,合同会社,大阪府,吹田市,泉町２丁目３３番６－２号,,27,205,5640041,,,,,,,2022-01-27,1,,,,,テッカン,0
2179,7122003002260,新規,0,2022-01-27,2022-01-27,合同会社なごみオフィス,,合同会社,大阪府,大東市,津の辺町１８番１９－３０５号,,27,218,5740017,,,,,,,2022-01-27,1,,,,,ナゴミオフィス,0
2188,7140003017269,新規,0,2022-01-27,2022-01-27,ＧＭアセット合同会社,,合同会社,兵庫県,宝塚市,武庫山２丁目４番３８－７０１号,,28,214,6650005,,,,,,,2022-01-27,1,,,,,ジーエムアセット,0
2189,7140003017277,新規,0,2022-01-27,2022-01-27,合同会社海岸商会,,合同会社,兵庫県,洲本市,下加茂１丁目９－２８,,28,205,6560013,,,,,,,2022-01-27,1,,,,,カイガンショウカイ,0
2200,7180001149713,新規,0,2022-01-27,2022-01-27,株式会社Ｇｅｏｔｒａｎｓ,,株式会社,愛知県,名古屋市天白区,塩釜口２丁目１４０３,,23,116,4680073,,,,,,,2022-01-27,1,,,,,ジオトランス,0
2205,7190001029063,新規,0,2022-01-27,2022-01-27,株式会社ＭＯＪ,,株式会社,三重県,伊勢市,小俣町湯田８０３番地１,,24,203,5190506,,,,,,,2022-01-27,1,,,,,エムオージェイ,0
2209,7220003003186,新規,0,2022-01-27,2022-01-27,合同会社ＡＫＡＲＩ,,合同会社,石川県,能美市,大口町イ４１番地,,17,211,9231212,,,,,,,2022-01-27,1,,,,,アカリ,0
2210,7220003003194,新規,0,2022-01-27,2022-01-27,合同会社ひめのかみ,,合同会社,石川県,金沢市,駅西新町３丁目９番１１号,,17,201,9200027,,,,,,,2022-01-27,1,,,,,ヒメノカミ,0
2214,7240001059253,新規,0,2022-01-27,2022-01-27,ＶＡＲＭＥ株式会社,,株式会社,広島県,福山市,南蔵王町４丁目１番４５－１０４号,,34,207,7210973,,,,,,,2022-01-27,1,,,,,バーム,0
2217,7240003005478,新規,0,2022-01-27,2022-01-27,合同会社ふくろう,,合同会社,広島県,広島市中区,上幟町２番４４－６０３号,,34,101,7300014,,,,,,,2022-01-27,1,,,,,フクロウ,0
2219,7250005008718,新規,0,2022-01-27,2022-01-27,一般社団法人常盤学童保育クラブ,,その他の設立登記法人,山口県,宇部市,亀浦１丁目１番５０号,,35,202,7550002,,,,,,,2022-01-27,1,,,,,トキワガクドウホイククラブ,0
2223,7260005011027,新規,0,2022-01-27,2022-01-27,一般社団法人シネマフィルム,,その他の設立登記法人,岡山県,岡山市南区,妹尾２４０７番地９４,,33,104,7010205,,,,,,,2022-01-27,1,,,,,シネマフィルム,0
2240,7290803004047,新規,0,2022-01-27,2022-01-27,合同会社協,,合同会社,福岡県,北九州市小倉南区,守恒３丁目２番７－２０４号,,40,107,8020972,,,,,,,2022-01-27,1,,,,,キョウ,0
2243,7310001017690,新規,0,2022-01-27,2022-01-27,徳＿株式会社,00125544,株式会社,長崎県,長崎市,田中町４５３８番地１,,42,201,8510134,,,,,,,2022-01-27,1,,,,,トクキン,0
2251,7340001024453,新規,0,2022-01-27,2022-01-27,株式会社味甘,,株式会社,鹿児島県,いちき串木野市,照島４７８７番地２,,46,219,8960055,,,,,,,2022-01-27,1,,,,,ミカン,0
2253,7340005009401,新規,0,2022-01-27,2022-01-27,特定非営利活動法人鹿児島放射線医学振興ネットワーク,,その他の設立登記法人,鹿児島県,鹿児島市,桜ヶ丘８丁目３５番１号,,46,201,8900075,,,,,,,2022-01-27,1,,,,,カゴシマホウシャセンイガクシンコウネットワーク,0
2259,7380001032527,新規,0,2022-01-27,2022-01-27,ｉＴＥＣ株式会社,,株式会社,福島県,福島市,上浜町１３番１５号,,07,201,9608134,,,,,,,2022-01-27,1,,,,,アイテック,0
2267,7420003002440,新規,0,2022-01-27,2022-01-27,合同会社雪華,,合同会社,青森県,青森市,大字筒井字八ツ橋１２９３番地５,,02,201,0300944,,,,,,,2022-01-27,1,,,,,セッカ,0
2271,7430001085858,新規,0,2022-01-27,2022-01-27,マルユー株式会社,,株式会社,北海道,札幌市中央区,南四条西１５丁目３番１－５０２号,,01,101,0640804,,,,,,,2022-01-27,1,,,,,マルユー,0
2272,7430001085882,新規,0,2022-01-27,2022-01-27,北ガスライフロント株式会社,,株式会社,北海道,札幌市東区,北七条東２丁目１番１号,,01,103,0600907,,,,,,,2022-01-27,1,,,,,キタガスライフロント,0
2278,7500005008452,新規,0,2022-01-27,2022-01-27,一般社団法人佐田岬Ｓプロジェクト,,その他の設立登記法人,愛媛県,西宇和郡伊方町,三崎５８９番地,,38,442,7960801,,,,,,,2022-01-27,1,,,,,サダミサキエスプロジェクト,0
2279,7700150106321,新規,0,2022-01-27,2021-12-20,ｔｅ＿ｒｉ,,その他,岩手県,花巻市,松園町５０８－１１,,03,205,0250066,,,,,,,2021-12-20,1,,,,,テーリ,0
2280,7700150106833,新規,0,2022-01-27,2022-01-27,関東近県生涯学習・社会教育実践研究交流会実行委員会,,その他,茨城県,水戸市,笠原町９７８番６,,08,201,3100852,,,,,,,2022-01-27,1,,,,,カントウキンケンショウガイガクシュウシャカイキョウイクジッセンケンキュウコウリュウカイジッコウイインカイ,0
2281,7700150106841,新規,0,2022-01-27,2022-01-27,鬼橋町町内会,,その他,長崎県,大村市,鬼橋町１８７,,42,205,8560021,,,,,,,2022-01-27,1,,,,,オニバシマチチヨウナイカイ,0
2305,8010001224110,新規,0,2022-01-27,2022-01-27,株式会社ｐｉｌａｎｄ,,株式会社,東京都,中央区,銀座１丁目１２－４Ｎ＆ＥＢＬＤ．７階,,13,102,1040061,,,,,,,2022-01-27,1,,,,,ピランド,0
2322,8010101015046,新規,0,2022-01-27,2022-01-27,株式会社ＡＣＣ,,株式会社,東京都,八王子市,東町１２番８号長澤ビル４Ｆ－４２,,13,201,1920082,,,,,,,2022-01-27,1,,,,,エーシーシー,0
2332,8010401165169,新規,0,2022-01-27,2022-01-27,ＤｅｓｉｇｎＦｕｔｕｒｅ　Ｊａｐａｎ株式会社,,株式会社,東京都,港区,六本木１丁目４番５号アークヒルズサウスタワー１６階,,13,103,1060032,,,,,,,2022-01-27,1,,,,,デザインフューチャージャパン,0
2333,8010401165202,新規,0,2022-01-27,2022-01-27,株式会社ビジョンブリッジ,,株式会社,東京都,港区,南青山２丁目１５番５号ＦＡＲＯ青山１階,,13,103,1070062,,,,,,,2022-01-27,1,,,,,ビジョンブリッジ,0
2334,8010401165210,新規,0,2022-01-27,2022-01-27,株式会社百四十,,株式会社,東京都,港区,新橋６丁目１１番１３－１５０２号,,13,103,1050004,,,,,,,2022-01-27,1,,,,,ヒャクヨンジュウ,0
2335,8010401165235,新規,0,2022-01-27,2022-01-27,Ｚｅｒｏ　Ｐｒｏｏｆ　Ｊａｐａｎ株式会社,,株式会社,東京都,港区,六本木３丁目６番９号,,13,103,1060032,,,,,,,2022-01-27,1,,,,,ゼロプルーフジャパン,0
2336,8010403026988,新規,0,2022-01-27,2022-01-27,ワイズナッツ合同会社,,合同会社,東京都,港区,浜松町２丁目２番１５号,,13,103,1050013,,,,,,,2022-01-27,1,,,,,ワイズナッツ,0
2339,8010501012865,新規,0,2022-01-27,2022-01-27,松葉食品株式会社,,株式会社,東京都,台東区,松が谷２丁目２７番１０号,,13,106,1110036,,,,,,,2022-01-27,1,,,,,,0
2391,8011301027517,新規,0,2022-01-27,2022-01-27,株式会社ＮＳＶＴ,,株式会社,東京都,杉並区,南荻窪４丁目３９番１９号１０２,,13,115,1670052,,,,,,,2022-01-27,1,,,,,エヌエスブイティ,0
2392,8011303004290,新規,0,2022-01-27,2022-01-27,合同会社ＩＴＯ　ＦｉｎＴｅｃｈ,,合同会社,東京都,杉並区,天沼３丁目２５番１１号,,13,115,1670032,,,,,,,2022-01-27,1,,,,,アイティーオーファンティック,0
2393,8011401023985,新規,0,2022-01-27,2022-01-27,株式会社ｆｕｄｏｓｕｎ堂,,株式会社,東京都,板橋区,成増１丁目３２番１５号,,13,119,1750094,,,,,,,2022-01-27,1,,,,,フドウサンドウ,0
2398,8011403003548,新規,0,2022-01-27,2022-01-27,ＹＭＯ合同会社,,合同会社,東京都,板橋区,赤塚新町１丁目２１番１号豊嶋屋ビル５階,,13,119,1750093,,,,,,,2022-01-27,1,,,,,ワイエムオー,0
2416,8012401038800,新規,0,2022-01-27,2022-01-27,株式会社パーソナルライフジャパン,,株式会社,東京都,多摩市,落合１丁目１５番地の２,,13,224,2060033,,,,,,,2022-01-27,1,,,,,パーソナルライフジャパン,0
2435,8020001144935,新規,0,2022-01-27,2022-01-27,株式会社シャンティーアパレル,,株式会社,神奈川県,横浜市港北区,小机町６１番地１コスモ横浜小机セカンドウィング１０５,,14,109,2220036,,,,,,,2022-01-27,1,,,,,シャンティーアパレル,0
2436,8020001145033,新規,0,2022-01-27,2022-01-27,株式会社傘,,株式会社,神奈川県,横浜市鶴見区,潮田町３丁目１３８番地１２,,14,101,2300041,,,,,,,2022-01-27,1,,,,,カサ,0
2439,8020003021199,新規,0,2022-01-27,2022-01-27,ＳＹＳ　Ａｃｃｏｕｎｔｉｎｇ　Ｇｒｏｕｐ合同会社,,合同会社,神奈川県,川崎市中原区,小杉町３丁目６００番コスギサードアヴェニューＭＩＤＰＯＩＮＴ武蔵小杉,,14,133,2110063,,,,,,,2022-01-27,1,,,,,エスワイエスアカウンティンググループ,0
2440,8020003021208,新規,0,2022-01-27,2022-01-27,ＳＴ　ＴＲＡＤＩＮＧ合同会社,,合同会社,神奈川県,川崎市幸区,南幸町１丁目１７番地４スピリッツハイム川崎２０５,,14,132,2120016,,,,,,,2022-01-27,1,,,,,エスティートレーディング,0
2456,8030001146435,新規,0,2022-01-27,2022-01-27,美訊貿易株式会社,,株式会社,埼玉県,川口市,並木３丁目１３－４ダイトービル弐番館７１１,,11,203,3320034,,,,,,,2022-01-27,1,,,,,ビジンボウエキ,0
2457,8030001146526,新規,0,2022-01-27,2022-01-27,株式会社Ｆａｃｔｏｒｙ,,株式会社,埼玉県,草加市,氷川町７０８－２０１,,11,221,3400034,,,,,,,2022-01-27,1,,,,,ファクトリー,0
2461,8040001121973,新規,0,2022-01-27,2022-01-27,Ｅｉｎｓ　Ｅｂｅｎ株式会社,,株式会社,千葉県,市川市,田尻３丁目１番３１－３０４号,,12,203,2720014,,,,,,,2022-01-27,1,,,,,アインズエーベン,0
2469,8070001038884,新規,0,2022-01-27,2022-01-27,株式会社ｈｏｒｉｇｏｍｅ,,株式会社,群馬県,高崎市,常盤町１３１番地１２,,10,202,3700816,,,,,,,2022-01-27,1,,,,,ホリゴメ,0
2473,8080401025589,新規,0,2022-01-27,2022-01-27,株式会社新アス,,株式会社,静岡県,浜松市南区,東若林町１４４４番地の１,,22,134,4328052,,,,,,,2022-01-27,1,,,,,シンアス,0
2500,8110001036396,新規,0,2022-01-27,2022-01-27,株式会社リノベホーム,,株式会社,新潟県,新潟市西区,松美台８番４０号,,15,107,9502072,,,,,,,2022-01-27,1,,,,,リノベホーム,0
2521,8120903004012,新規,0,2022-01-27,2022-01-27,ａｒｓ　ｗｏｒｋｓ合同会社,,合同会社,大阪府,茨木市,大池１丁目１４－４０,,27,211,5670826,,,,,,,2022-01-27,1,,,,,アルスワークス,0
2527,8130003007690,新規,0,2022-01-27,2022-01-27,ＬＳ合同会社,,合同会社,京都府,久世郡久御山町,下津屋上ノ浜４５番地２,,26,322,6130035,,,,,,,2022-01-27,1,,,,,エルエス,0
2528,8140001124702,新規,0,2022-01-27,2022-01-27,株式会社ＡＨＲＥＮ,,株式会社,兵庫県,神戸市中央区,多聞通１丁目１－１勝浦ビル２階南,,28,110,6500015,,,,,,,2022-01-27,1,,,,,アレン,0
2532,8140003017276,新規,0,2022-01-27,2022-01-27,Ｓ．ＨＡＲＤ合同会社,,合同会社,兵庫県,神戸市兵庫区,西出町３番１１の２,,28,105,6520822,,,,,,,2022-01-27,1,,,,,エスハード,0
2542,8180001149737,新規,0,2022-01-27,2022-01-27,株式会社ＡＲＭ　ＴＲＡＤＩＮＧ,,株式会社,愛知県,愛西市,佐折町東川１０１番地１,,23,232,4968002,,,,,,,2022-01-27,1,,,,,エーアールエムトレーディング,0
2544,8180003023411,新規,0,2022-01-27,2022-01-27,サステナブルプラン合同会社,,合同会社,愛知県,津島市,橘町１丁目６－１,,23,208,4960038,,,,,,,2022-01-27,1,,,,,サステナブルプラン,0
2545,8180003023436,新規,0,2022-01-27,2022-01-27,合同会社Ｎ・Ｋ・Ｍ・ＩＮＴＥＲＮＡＴＩＯＮＡＬ,,合同会社,愛知県,春日井市,六軒屋町１丁目１６８番地,,23,206,4860842,,,,,,,2022-01-27,1,,,,,エヌケイエムインターナショナル,0
2549,8190001029062,新規,0,2022-01-27,2022-01-27,ＭＡＴＳＵＫＡＷＡ株式会社,,株式会社,三重県,鈴鹿市,稲生町８９６２番地,,24,207,5100201,,,,,,,2022-01-27,1,,,,,マツカワ,0
2552,8200001039695,新規,0,2022-01-27,2022-01-27,株式会社ディグラム,,株式会社,岐阜県,揖斐郡池田町,杉野７１番地,,21,404,5032411,,,,,,,2022-01-27,1,,,,,ディグラム,0
2558,8240003005477,新規,0,2022-01-27,2022-01-27,合同会社まほろば,,合同会社,広島県,広島市東区,福田３丁目３１番９号,,34,102,7320029,,,,,,,2022-01-27,1,,,,,マホロバ,0
2559,8260001036464,新規,0,2022-01-27,2022-01-27,株式会社ＦＭＳコンサルティング,,株式会社,岡山県,岡山市南区,豊成１丁目５番３号,,33,104,7000942,,,,,,,2022-01-27,1,,,,,エフエムエスコンサルティング,0
2564,8260003003784,新規,0,2022-01-27,2022-01-27,安生合同会社,,合同会社,岡山県,岡山市北区,西古松２４２番地６２,,33,101,7000927,,,,,,,2022-01-27,1,,,,,アンセイ,0
2565,8280001008619,新規,0,2022-01-27,2022-01-27,株式会社アンタレス,,株式会社,島根県,松江市,内中原町１８４番地３,,32,201,6900873,,,,,,,2022-01-27,1,,,,,アンタレス,0
2566,8290001042113,新規,0,2022-01-27,2022-01-27,秋葉建設株式会社,,株式会社,福岡県,大野城市,牛頸４丁目２番３８号,,40,219,8160971,,,,,,,2022-01-27,1,,,,,,0
2570,8290001096217,新規,0,2022-01-27,2022-01-27,株式会社Ｒｅｔｒｙ,,株式会社,福岡県,大川市,大字大野島２８７１番地１,,40,212,8310045,,,,,,,2022-01-27,1,,,,,リトライ,0
2571,8290001096258,新規,0,2022-01-27,2022-01-27,株式会社ＨＡＣＯ　ＬｉＢ,,株式会社,福岡県,大牟田市,通町２丁目１２番地６,,40,202,8360805,,,,,,,2022-01-27,1,,,,,ハコリブ,0
2591,8350001017554,新規,0,2022-01-27,2022-01-27,株式会社ｃａｎｄｙ,,株式会社,宮崎県,日向市,上町１３番９号ヒューグランデビル２－２,,45,206,8830044,,,,,,,2022-01-27,1,,,,,キャンディ,0
2593,8360001029945,新規,0,2022-01-27,2022-01-27,株式会社グレートプレゼンターズ,,株式会社,沖縄県,うるま市,石川東恩納１０５番地１,,47,213,9041111,,,,,,,2022-01-27,1,,,,,グレートプレゼンターズ,0
2594,8360003011736,新規,0,2022-01-27,2022-01-27,合同会社新世代エネルギー第五発電所,,合同会社,沖縄県,石垣市,字石垣１０９番地,,47,207,9070023,,,,,,,2022-01-27,1,,,,,シンセダイエネルギーダイゴハツデンショ,0
2597,8370003005571,新規,0,2022-01-27,2022-01-27,ビズサポート合同会社,,合同会社,宮城県,仙台市太白区,八木山本町１丁目１６番地の９,,04,104,9820801,,,,,,,2022-01-27,1,,,,,ビズサポート,0
2604,8410003003612,新規,0,2022-01-27,2022-01-27,合同会社Ｓ・Ｓ商会,,合同会社,秋田県,秋田市,新屋朝日町１番６号マルマメ朝日ビル２Ｆ,,05,201,0101613,,,,,,,2022-01-27,1,,,,,エスエスショウカイ,0
2611,8430003013568,新規,0,2022-01-27,2022-01-27,ＹＹサービス合同会社,,合同会社,北海道,札幌市東区,北三十条東３丁目１番１２号,,01,103,0650030,,,,,,,2022-01-27,1,,,,,ワイワイサービス,0
2612,8430005014382,新規,0,2022-01-27,2022-01-27,一般社団法人北海道アウトドアライフ協会,,その他の設立登記法人,北海道,札幌市中央区,北六条西２１丁目３番２号,,01,101,0600006,,,,,,,2022-01-27,1,,,,,ホッカイドウアウトドアライフキョウカイ,0
2615,8450001013601,新規,0,2022-01-27,2022-01-27,株式会社メディカルキャピタルマネジメント,,株式会社,北海道,旭川市,曙一条７丁目２番１号,,01,204,0700061,,,,,,,2022-01-27,1,,,,,メディカルキャピタルマネジメント,0
2617,8460001005647,新規,0,2022-01-27,2022-01-27,株式会社クレアティオ,,株式会社,北海道,釧路市,松浦町１２番２０号,,01,206,0850005,,,,,,,2022-01-27,1,,,,,クレアティオ,0
2618,8480001011635,新規,0,2022-01-27,2022-01-27,九一建設株式会社,,株式会社,徳島県,阿南市,橘町東中浜２４番地４,,36,204,7740023,,,,,,,2022-01-27,1,,,,,クイチケンセツ,0
2633,9010001224076,新規,0,2022-01-27,2022-01-27,株式会社ＦＲＯＭＥＤＯ,,株式会社,東京都,千代田区,霞が関１丁目４番１号－２階,,13,101,1000013,,,,,,,2022-01-27,1,,,,,フロメド,0
2654,9010005034380,新規,0,2022-01-27,2022-01-27,一般社団法人Ｍａｊｏｒｉｃｈアカデミー,,その他の設立登記法人,東京都,中央区,銀座１丁目２２番１１号,,13,102,1040061,,,,,,,2022-01-27,1,,,,,マジョリッチアカデミー,0
2655,9010005034505,新規,0,2022-01-27,2022-01-27,一般社団法人スクリーニング学研究会,,その他の設立登記法人,東京都,文京区,弥生２丁目５－８ＧＳビル,,13,105,1130032,,,,,,,2022-01-27,1,,,,,スクリーニングガクケンキュウカイ,0
2656,9010005034513,新規,0,2022-01-27,2022-01-27,尼崎２プロパティー特定目的会社,,その他の設立登記法人,東京都,千代田区,丸の内１丁目１１番１号,,13,101,1000005,,,,,,,2022-01-27,1,,,,,アマガサキツープロパティー,0
2664,9010403026970,新規,0,2022-01-27,2022-01-27,ＪＭアンタレス３合同会社,,合同会社,東京都,港区,虎ノ門４丁目３番１号城山トラストタワー２７階ＳａｎｎｅＧｒｏｕｐＪａｐａｎ株式会社内,,13,103,1050001,,,,,,,2022-01-27,1,,,,,ジェイエムアンタレススリー,0
2673,9010501048371,新規,0,2022-01-27,2022-01-27,株式会社アテーナー企画,,株式会社,東京都,台東区,根岸１丁目５－１６－６０２ライオンズマンション鶯谷第３,,13,106,1100003,,,,,,,2022-01-27,1,,,,,アテーナーキカク,0
2705,9011001145147,新規,0,2022-01-27,2022-01-27,株式会社ＲｅｌｙＳｈｉｐ,,株式会社,東京都,渋谷区,神宮前６丁目２３番４号桑野ビル２階,,13,113,1500001,,,,,,,2022-01-27,1,,,,,リライシップ,0
2706,9011001145246,新規,0,2022-01-27,2022-01-27,ＣＹＬ　ＩＮＴＥＲＮＡＴＩＯＮＡＬ株式会社,,株式会社,東京都,目黒区,目黒本町３丁目１６番２－３０１号エルカスティージョムサシ,,13,110,1520002,,,,,,,2022-01-27,1,,,,,シーワイエルインターナショナル,0
2708,9011003014028,新規,0,2022-01-27,2022-01-27,Ｗａｋａｂａ　ＦＰ　Ｌａｂｏｒａｔｏｒｙ合同会社,,合同会社,東京都,渋谷区,神宮前６丁目２３番４号桑野ビル２階,,13,113,1500001,,,,,,,2022-01-27,1,,,,,ワカバエフピーラボラトリー,0
2716,9011105010107,新規,0,2022-01-27,2022-01-27,社会保険労務士法人南雲事務所,,その他の設立登記法人,東京都,新宿区,西早稲田１丁目１１番５号,,13,104,1690051,,,,,,,2022-01-27,1,,,,,ナグモジムショ,0
2719,9011403003547,新規,0,2022-01-27,2022-01-27,合同会社たつみや,,合同会社,東京都,板橋区,坂下３丁目５番９号メインステージ板橋蓮根ＩＩ２１１,00125543,13,119,1740043,,,,,,,2022-01-27,1,,,,,タツミヤ,0
2722,9011601025698,新規,0,2022-01-27,2022-01-27,株式会社ＭＡＲＵＮＩＯＭＯＤＡＫＡ,,株式会社,東京都,練馬区,石神井台６丁目２番３８号ベース・ブリッジ１０３,,13,120,1770045,,,,,,,2022-01-27,1,,,,,マルニオモダカ,0
2723,9011701025004,新規,0,2022-01-27,2022-01-27,株式会社さくら建設,,株式会社,東京都,江戸川区,中葛西５丁目１５番１０号ＹＣＣビル３階,,13,123,1340083,,,,,,,2022-01-27,1,,,,,サクラケンセツ,0
2728,9011805003137,新規,0,2022-01-27,2022-01-27,ＮＰＯ法人インドシナの平和と子供を守る会,,その他の設立登記法人,東京都,足立区,梅島２丁目１７番１－５１０号,,13,121,1210816,,,,,,,2022-01-27,1,,,,,インドシナノヘイワトコドモヲマモルカイ,0
2745,9020001144942,新規,0,2022-01-27,2022-01-27,株式会社アオミクリエイト,,株式会社,神奈川県,川崎市中原区,木月４丁目８番５－８０１号ラ・ベル元住吉,,14,133,2110025,,,,,,,2022-01-27,1,,,,,アオミクリエイト,0
2781,9070001038883,新規,0,2022-01-27,2022-01-27,株式会社ＴＬＳ,,株式会社,群馬県,前橋市,問屋町１丁目１０番地８,,10,201,3710855,,,,,,,2022-01-27,1,,,,,ティーエルエス,0
2786,9080405007426,新規,0,2022-01-27,2022-01-27,ＮＰＯ法人浜松まちなか環境整備協議会,,その他の設立登記法人,静岡県,浜松市中区,鍛冶町１２４番地マルＨビル５階,,22,131,4300933,,,,,,,2022-01-27,1,,,,,ハママツマチナカカンキョウセイビキョウギカイ,0
2823,9120001243445,新規,0,2022-01-27,2022-01-27,超無極限株式会社,,株式会社,大阪府,大阪市平野区,平野西１丁目１２番２６号サンドール４０２号,,27,126,5470033,,,,,,,2022-01-27,1,,,,,チョウムキョクゲン,0
2826,9120003021015,新規,0,2022-01-27,2022-01-27,ＤＥＳＩＧＮＦＡＣＴＯＲＹＰＲＩＮＴＩＮＧ合同会社,,合同会社,大阪府,門真市,五月田町２３番７号,,27,223,5710027,,,,,,,2022-01-27,1,,,,,デザインファクトリープリンティング,0
2831,9122003002259,新規,0,2022-01-27,2022-01-27,Ｓａｋａｎｏ合同会社,,合同会社,大阪府,八尾市,刑部１丁目１４９,,27,212,5810015,,,,,,,2022-01-27,1,,,,,サカノ,0
2848,9140001124718,新規,0,2022-01-27,2022-01-27,株式会社ワンガード,,株式会社,兵庫県,神戸市西区,南別府２丁目９－１９ル・グラン２０３,,28,111,6512116,,,,,,,2022-01-27,1,,,,,ワンガード,0
2855,9140003017283,新規,0,2022-01-27,2022-01-27,合同会社ソラ,,合同会社,兵庫県,伊丹市,北野２丁目１１８番地１２,,28,207,6640007,,,,,,,2022-01-27,1,,,,,ソラ,0
2858,9150003002607,新規,0,2022-01-27,2022-01-27,合同会社Ｈｉｋａｒｉｅ,,合同会社,奈良県,橿原市,四条町６４５番地の１古市第３ビル３０２号室,,29,205,6340813,,,,,,,2022-01-27,1,,,,,ヒカリエ,0
2862,9160003002481,新規,0,2022-01-27,2022-01-27,ビーイングアライブ合同会社,,合同会社,滋賀県,長浜市,勝町１１３番地１,,25,203,5260042,,,,,,,2022-01-27,1,,,,,ビーイングアライブ,0
2871,9180001149744,新規,0,2022-01-27,2022-01-27,株式会社ヤマテク,,株式会社,愛知県,岩倉市,八剱町郷前５６番地３,,23,228,4820031,,,,,,,2022-01-27,1,,,,,ヤマテク,0
2872,9180001149769,新規,0,2022-01-27,2022-01-27,山弥産業株式会社,,株式会社,愛知県,名古屋市天白区,八事天道９０７番地の１,,23,116,4680061,,,,,,,2022-01-27,1,,,,,ヤマヤサンギョウ,0
2876,9180003023419,新規,0,2022-01-27,2022-01-27,ＡＮサポートサービス合同会社,,合同会社,愛知県,名古屋市西区,名駅１丁目１番１７号名駅ダイヤメイテツビル１１階,,23,104,4510045,,,,,,,2022-01-27,1,,,,,エーエヌサポートサービス,0
2879,9190001029061,新規,0,2022-01-27,2022-01-27,Ｉｎ　Ｔｉｍｅ株式会社,,株式会社,三重県,鈴鹿市,算所１丁目１２番３号,,24,207,5130806,,,,,,,2022-01-27,1,,,,,インタイム,0
2881,9200001039694,新規,0,2022-01-27,2022-01-27,ラボ・アシスト株式会社,,株式会社,岐阜県,羽島市,江吉良町江中６丁目５番地,,21,209,5016238,,,,,,,2022-01-27,1,,,,,ラボアシスト,0
2882,9200001039703,新規,0,2022-01-27,2022-01-27,株式会社ＴＯＭＺ,,株式会社,岐阜県,羽島市,新生町２丁目２００番地１,,21,209,5016206,,,,,,,2022-01-27,1,,,,,トムズ,0
2895,9240001059243,新規,0,2022-01-27,2022-01-27,陽明ホールディングス株式会社,,株式会社,広島県,広島市中区,吉島西１丁目２０番４号,,34,101,7300823,,,,,,,2022-01-27,1,,,,,ヨウメイホールディングス,0
2901,9260001036463,新規,0,2022-01-27,2022-01-27,株式会社剣栄建設,,株式会社,岡山県,玉野市,東七区３９番地,,33,204,7060226,,,,,,,2022-01-27,1,,,,,ケンエイケンセツ,0
2902,9260001036471,新規,0,2022-01-27,2022-01-27,株式会社くろーばー,,株式会社,岡山県,倉敷市,福島１４３番地１リメイン福島Ｂ２０１,,33,202,7100048,,,,,,,2022-01-27,1,,,,,クローバー,0
2904,9260003003783,新規,0,2022-01-27,2022-01-27,合同会社Ｋｕｗａｋｉ　ｐｒｏｍｏｔｉｏｎ,,合同会社,岡山県,岡山市北区,西之町１３番１１－４０４号,,33,101,7000916,,,,,,,2022-01-27,1,,,,,クワキプロモーション,0
2913,9290001096182,新規,0,2022-01-27,2022-01-27,株式会社Ａｇｉｌｉｔｙ,,株式会社,福岡県,福岡市博多区,築港本町３番８－７１０号,,40,132,8120021,,,,,,,2022-01-27,1,,,,,アジリティ,0
2914,9290001096224,新規,0,2022-01-27,2022-01-27,株式会社なかみ,,株式会社,福岡県,福岡市中央区,大名２丁目９‐３５トウセン天神ビル９Ｆ,,40,133,8100041,,,,,,,2022-01-27,1,,,,,ナカミ,0
2919,9290803004045,新規,0,2022-01-27,2022-01-27,合同会社アル・ソーレ,,合同会社,福岡県,北九州市八幡西区,沖田２丁目１７番３８－２０３号,,40,109,8070077,,,,,,,2022-01-27,1,,,,,アルソーレ,0
2926,9310001017680,新規,0,2022-01-27,2022-01-27,株式会社栗義組,,株式会社,長崎県,長崎市,西坂町１４番３号,,42,201,8500051,,,,,,,2022-01-27,1,,,,,クリヨシグミ,0
2933,9330003009212,新規,0,2022-01-27,2022-01-27,合同会社松榴,,合同会社,熊本県,菊池市,旭志新明３１６番地２,,43,210,8691207,,,,,,,2022-01-27,1,,,,,マツル,0
2941,9360001029936,新規,0,2022-01-27,2022-01-27,株式会社ａｓｓｅｔｐｒｏ,,株式会社,沖縄県,うるま市,字赤道１７４番地１０,,47,213,9042245,,,,,,,2022-01-27,1,,,,,アセットプロ,0
2942,9360001029944,新規,0,2022-01-27,2022-01-27,株式会社沖空電,,株式会社,沖縄県,島尻郡南風原町,字宮平４４９番地６,,47,350,9011104,,,,,,,2022-01-27,1,,,,,オキクウデン,0
2956,9430005014381,新規,0,2022-01-27,2022-01-27,一般社団法人ゆいと,,その他の設立登記法人,北海道,滝川市,朝日町東１丁目１番３７号,,01,225,0730015,,,,,,,2022-01-27,1,,,,,ユイト,0
2957,9450001013600,新規,0,2022-01-27,2022-01-27,株式会社Ｄ’ｓ　Ｇｒｏｕｐ,,株式会社,北海道,旭川市,東鷹栖二条４丁目６３８番地２４１,,01,204,0718102,,,,,,,2022-01-27,1,,,,,ディーズグループ,0
2958,9470001018944,新規,0,2022-01-27,2022-01-27,株式会社ＭＫｃｏｍ,,株式会社,香川県,高松市,香川町大野１１２７番地９,,37,201,7611701,,,,,,,2022-01-27,1,,,,,エムケイコム,0
2960,9480001011634,新規,0,2022-01-27,2022-01-27,株式会社高田興業,00125534,株式会社,徳島県,阿波市,土成町宮川内字藤原１１７番地１,,36,206,7711508,,,,,,,2022-01-27,1,,,,,タカタコウギョウ,0
2965,9700150046672,新規,0,2022-01-27,2015-10-09,藤水地区放課後児童クラブ　藤っ子会,,その他,三重県,津市,藤方１６２７藤水小学校内,,24,201,5140815,,,,,,,2015-10-09,1,,,,,フジミズチクホウカゴジドウクラブフジツコカイ,0
2967,9700150105544,新規,0,2022-01-27,2021-10-29,「令和に新たに拓く石見のステージ」実行委員会,,その他,島根県,浜田市,黒川町４１７５,,32,202,6970024,,,,,,,2021-10-29,1,,,,,レイワニアラタニヒラクイワミノステージジツコウイインカイ,0
2968,9700150106534,新規,0,2022-01-27,2022-01-06,ＢｌａｃｋＲｏｍａｎｃｅＦｉｌｍｓ,,その他,東京都,板橋区,向原２丁目１５－１３－Ａ１０２,,13,119,1730036,,,,,,,2022-01-06,1,,,,,ブラツクロマンスフイルムズ,0
2969,9700150106848,新規,0,2022-01-27,2022-01-27,Ｍｙｏｗｎｃａｒ　Ｍｏｔｏｒ　Ｃｏｍｐａｎｙ,,外国会社等,千葉県,八街市,榎戸２６２－１－１,,12,230,2891106,スリランカ民主社会主義共和国、マタレ、ゴダポラロード、Ｎｏ．１０９／１４,,,,,,2022-01-27,1,,,,,マイオーナーカーモーターカンパニー,0
