sequenceNumber,corporateNumber,process,correct,updateDate,changeDate,name,nameImageId,kind,prefectureName,cityName,streetNumber,addressImageId,prefectureCode,cityCode,postCode,addressOutside,addressOutsideImageId,closeDate,closeCause,successorCorporateNumber,changeCause,assignmentDate,latest,enName,enPrefectureName,enCityName,enAddressOutside,furigana,hihyoji
4,1010001206503,登記記録の閉鎖等,0,2022-12-08,2022-12-02,Ｔｒｉｌｉｕｍ株式会社,,株式会社,東京都,中央区,京橋２丁目１２番１２号,,13,102,1040031,,,2022-12-02,合併による解散等,7010001091477,令和４年１２月２日東京都中央区京橋二丁目１２番１２号ブロードバンドテクノロジー・コンサルティング株式会社（7010001091477）に合併し解散,2020-01-10,1,,,,,トリリウム,0
8,1010003036031,登記記録の閉鎖等,0,2022-12-08,2022-12-02,東上インベストメントワン合同会社,,合同会社,東京都,千代田区,九段南３丁目７番７号成和綜合会計事務所内,,13,101,1020074,,,2022-12-02,清算の結了等,,,2021-10-18,1,,,,,トウジョウインベストメントワン,0
28,1010602010717,登記記録の閉鎖等,0,2022-12-08,2022-12-01,有限会社康晋社印刷所,,有限会社,東京都,墨田区,東向島２丁目５番１０号,,13,107,1310032,,,2022-12-01,清算の結了等,,,2015-10-05,1,,,,,コウシンシャインサツショ,0
39,1011001128737,登記記録の閉鎖等,0,2022-12-08,2022-12-02,株式会社ＨａＣｌｏｓｅ,,株式会社,東京都,渋谷区,円山町５番５号Ｎａｖｉ渋谷Ｖ３階,,13,113,1500044,,,2022-12-02,清算の結了等,,,2019-06-28,1,,,,,ハックローズ,0
55,1011403003059,登記記録の閉鎖等,0,2022-12-08,2022-12-05,テスターちゃん合同会社,,合同会社,青森県,青森市,幸畑５丁目１２番１号,,02,201,0300943,,,2022-12-05,清算の結了等,,,2020-07-16,1,,,,,テスターチャン,0
66,1012402022999,登記記録の閉鎖等,0,2022-12-08,2022-12-05,有限会社エイチ・オー,,有限会社,東京都,新宿区,富久町１５番１－５４１１号,,13,104,1620067,,,2022-12-05,清算の結了等,,,2015-10-05,1,,,,,,0
70,1012802007666,登記記録の閉鎖等,0,2022-12-08,2022-11-21,有限会社赤津商事,,有限会社,東京都,武蔵村山市,三ツ藤３丁目４３番地の２,,13,223,2080021,,,2022-11-21,合併による解散等,6012801019699,令和４年１１月１９日東京都武蔵村山市三ツ藤三丁目４３番地の２株式会社赤津商事（6012801019699）に合併し解散,2015-10-05,1,,,,,アカツショウジ,0
78,1020005000158,登記記録の閉鎖等,0,2022-12-08,2022-11-29,宗教法人天理教濱別所分教会,00011917,その他の設立登記法人,神奈川県,横浜市南区,別所４丁目４番１４号,,14,105,2320064,,,2022-11-29,合併による解散等,9150005002811,令和４年１１月１８日奈良県大和郡山市馬司町３６８番地天理教秋津大教会（9150005002811）に合併し解散,2015-10-05,1,,,,,,0
80,1021003005693,登記記録の閉鎖等,0,2022-12-08,2022-12-05,合同会社ソリッドリンクス,,合同会社,神奈川県,相模原市南区,相模大野５丁目４２７０番２３,,14,153,2520303,,,2022-12-05,清算の結了等,,,2015-12-22,1,,,,,ソリッドリンクス,0
83,1030001028482,登記記録の閉鎖等,0,2022-12-08,2022-12-02,アメニティ介護株式会社,,株式会社,埼玉県,所沢市,松が丘１丁目１６番地の７９,,11,208,3591132,,,2022-12-02,清算の結了等,,,2015-10-05,1,,,,,アメニティカイゴ,0
105,1080101019889,登記記録の閉鎖等,0,2022-12-08,2022-12-06,株式会社増田塾,,株式会社,静岡県,三島市,文教町１丁目９番１１号,,22,206,4110033,,,2022-12-06,合併による解散等,7030001001013,令和４年１２月１日東京都千代田区富士見二丁目１１番１１号株式会社栄光（7030001001013）に合併し解散,2017-06-23,1,,,,,マスダジュク,0
109,1080402009449,登記記録の閉鎖等,0,2022-12-08,2022-12-07,有限会社プロセス石田,,有限会社,静岡県,湖西市,太田９５５番地,,22,221,4310404,,,2022-12-07,清算の結了等,,,2015-10-05,1,,,,,プロセスイシダ,0
111,1110001016594,登記記録の閉鎖等,0,2022-12-08,2022-12-06,新潟商事株式会社,,株式会社,新潟県,南蒲原郡田上町,大字田上乙１３２２番地１,,15,361,9591502,,,2022-12-06,清算の結了等,,,2015-10-05,1,,,,,ニイガタショウジ,0
112,1110001032352,登記記録の閉鎖等,0,2022-12-08,2022-12-06,株式会社戸田工業,,株式会社,新潟県,上越市,大字岩木５４４番地３,,15,222,9430814,,,2022-12-06,清算の結了等,,,2017-04-28,1,,,,,トダコウギョウ,0
121,1120001201708,登記記録の閉鎖等,0,2022-12-08,2022-12-06,ミックス・マッチ＆マネジメント株式会社,,株式会社,大阪府,大阪市阿倍野区,松崎町４丁目１１番３４号,,27,119,5450053,,,2022-12-06,清算の結了等,,,2016-11-04,1,,,,,ミックスマッチアンドマネジメント,0
123,1120001211277,登記記録の閉鎖等,0,2022-12-08,2022-12-06,株式会社ケイトアーツ,,株式会社,大阪府,大阪市中央区,日本橋２丁目１４番１６号,,27,128,5420073,,,2022-12-06,合併による解散等,4140001109129,令和４年１２月６日大阪市中央区日本橋二丁目１４番１６号株式会社ＬｉｖｉｎｇＰＬＵＳ（4140001109129）に合併し解散,2018-02-08,1,,,,,ケイトアーツ,0
125,1120001214536,登記記録の閉鎖等,0,2022-12-08,2022-12-05,株式会社ツバサ,,株式会社,岡山県,岡山市北区,駅元町２２番１７号,,33,101,7000024,,,2022-12-05,合併による解散等,9120001190051,令和４年１２月１日東京都新宿区高田馬場三丁目１８番２５号第一康洋ビル８階株式会社ＲＩＳＩＮＧ（9120001190051）に合併し解散,2018-07-06,1,,,,,ツバサ,0
126,1120001215880,登記記録の閉鎖等,0,2022-12-08,2022-12-06,株式会社メディアル,,株式会社,大阪府,大阪市中央区,石町１丁目１番１号,,27,128,5400033,,,2022-12-06,清算の結了等,,,2018-09-12,1,,,,,メディアル,0
143,1120102005520,登記記録の閉鎖等,0,2022-12-08,2022-12-07,有限会社光陽工業,,有限会社,大阪府,高石市,東羽衣５丁目１９番１１号,,27,225,5920003,,,2022-12-07,清算の結了等,,,2015-10-05,1,,,,,コウヨウコウギョウ,0
144,1120102013069,登記記録の閉鎖等,0,2022-12-08,2022-12-07,有限会社エイ・アイ・コレクション,,有限会社,大阪府,堺市南区,御池台２丁６番２４－２０５号,,27,145,5900134,,,2022-12-07,清算の結了等,,,2015-10-05,1,,,,,エイアイコレクション,0
172,1180002053325,登記記録の閉鎖等,0,2022-12-08,2022-12-01,エヌケー技研有限会社,,有限会社,愛知県,名古屋市熱田区,六番２丁目２番１号,,23,109,4560058,,,2022-12-01,合併による解散等,9180001022471,令和４年１２月１日名古屋市熱田区六番二丁目２番１号株式会社名古屋化学工業所（9180001022471）に合併し解散,2015-10-05,1,,,,,エヌケーギケン,0
175,1180002091812,登記記録の閉鎖等,0,2022-12-08,2022-12-01,有限会社ラポール加藤,,有限会社,愛知県,あま市,西今宿郷内二３０番地,,23,237,4901104,,,2022-12-01,清算の結了等,,,2015-10-05,1,,,,,ラポールカトウ,0
183,1200001032319,登記記録の閉鎖等,0,2022-12-08,2022-12-07,ティーアール株式会社,,株式会社,岐阜県,揖斐郡大野町,大字本庄３３３番地１,,21,403,5010533,,,2022-12-07,清算の結了等,,,2015-11-30,1,,,,,ティーアール,0
186,1200005011558,登記記録の閉鎖等,0,2022-12-08,2022-12-06,一般財団法人いびがわ,,その他の設立登記法人,岐阜県,揖斐郡揖斐川町,東横山２６４番地３,,21,401,5010804,,,2022-12-06,清算の結了等,,,2015-10-05,1,,,,,イビガワ,0
191,1220002009289,登記記録の閉鎖等,0,2022-12-08,2022-12-06,有限会社中川組,,有限会社,石川県,白山市,竹松町１０８番地,,17,210,9240021,,,2022-12-06,清算の結了等,,,2015-10-05,1,,,,,ナカガワグミ,0
196,1250001005212,登記記録の閉鎖等,0,2022-12-08,2022-12-01,株式会社小月ホンダ,,株式会社,山口県,下関市,小月茶屋２丁目８番２３号,,35,201,7501144,,,2022-12-01,合併による解散等,2250001003479,令和４年１２月１日山口県宇部市大字西岐波１２８４番地の１株式会社ホンダカーズ山口西（2250001003479）に合併し解散,2015-10-05,1,,,,,オヅキホンダ,0
237,1490002005377,登記記録の閉鎖等,0,2022-12-08,2022-12-06,有限会社山中電設,,有限会社,高知県,高知市,福井町１６６９番地１４,,39,201,7800965,,,2022-12-06,清算の結了等,,,2015-10-05,1,,,,,ヤマナカデンセツ,0
248,2010003029471,登記記録の閉鎖等,0,2022-12-08,2022-12-02,ＥＳＲ夜光合同会社,,合同会社,東京都,中央区,日本橋１丁目４番１号日本橋一丁目ビルディング,,13,102,1030027,,,2022-12-02,清算の結了等,,,2019-03-14,1,,,,,イーエスアールヤコウ,0
249,2010003031865,登記記録の閉鎖等,0,2022-12-08,2022-12-02,合同会社ワンチームエイト,,合同会社,東京都,千代田区,九段南３丁目７番７号成和綜合会計事務所内,,13,101,1020074,,,2022-12-02,清算の結了等,,,2020-03-13,1,,,,,ワンチームエイト,0
275,2010501012318,登記記録の閉鎖等,0,2022-12-08,2022-12-06,株式会社宝永,,株式会社,東京都,台東区,東上野３丁目１８番１号,,13,106,1100015,,,2022-12-06,清算の結了等,,,2015-10-05,1,,,,,ホウエイ,0
278,2010701036843,登記記録の閉鎖等,0,2022-12-08,2022-12-05,イスズ株式会社,,株式会社,東京都,新宿区,新宿２丁目１２番１３号新宿アントレサロンビル２階,,13,104,1600022,,,2022-12-05,清算の結了等,,,2018-12-11,1,,,,,イスズ,0
280,2010703005466,登記記録の閉鎖等,0,2022-12-08,2022-12-06,ムラマサネットワーク合同会社,,合同会社,東京都,品川区,大井１丁目４７番２号アメニティ５５－４０２,,13,109,1400014,,,2022-12-06,清算の結了等,,,2020-10-23,1,,,,,ムラマサネットワーク,0
297,2011101007055,登記記録の閉鎖等,0,2022-12-08,2022-12-02,株式会社コニシ,,株式会社,東京都,新宿区,中井１丁目２番４－３０２号,,13,104,1610035,,,2022-12-02,清算の結了等,,,2015-10-05,1,,,,,コニシ,0
325,2013402006925,登記記録の閉鎖等,0,2022-12-08,2022-12-07,有限会社ビーファイン,,有限会社,東京都,世田谷区,下馬４丁目２５番１４号タイムＫ１０１号室,,13,112,1540002,,,2022-12-07,清算の結了等,,,2015-10-05,1,,,,,ビーファイン,0
351,2040001115758,登記記録の閉鎖等,0,2022-12-08,2022-12-01,株式会社ＡＺケア,,株式会社,千葉県,八千代市,ゆりのき台１丁目８番地２エステートピア・ラ・テールＩ－２０５号,00121219,12,221,2760042,,,2022-12-01,合併による解散等,5040001098059,令和４年１２月１日千葉県船橋市松が丘三丁目１２番１２号株式会社ＫＫアソシエイツ（5040001098059）に合併し解散,2020-11-04,1,,,,,アズケア,0
362,2080001013173,登記記録の閉鎖等,0,2022-12-08,2022-12-01,大洋マテリア株式会社,,株式会社,静岡県,島田市,南２丁目２０番１号,,22,209,4270017,,,2022-12-01,合併による解散等,9080001013150,令和４年１２月１日静岡県島田市南二丁目２０番１号大洋株式会社（9080001013150）に合併し解散,2015-10-05,1,,,,,タイヨウマテリア,0
372,2100002009572,登記記録の閉鎖等,0,2022-12-08,2022-12-05,緑屋工業有限会社,,有限会社,長野県,千曲市,大字寂蒔１１４１番地１,,20,218,3870016,,,2022-12-05,清算の結了等,,,2015-10-05,1,,,,,ミドリヤコウギョウ,0
378,2120001018119,登記記録の閉鎖等,0,2022-12-08,2022-12-05,株式会社竹内印刷所,,株式会社,大阪府,大阪市生野区,生野東３丁目３番３６号,,27,116,5440025,,,2022-12-05,清算の結了等,,,2015-10-05,1,,,,,タケウチインサツショ,0
384,2120001186626,登記記録の閉鎖等,0,2022-12-08,2022-12-01,ＵＳＵＩ　ＣＡＰＩＴＡＬ株式会社,,株式会社,兵庫県,神戸市中央区,港島中町６丁目２番３号,,28,110,6500046,,,2022-12-01,合併による解散等,6140001107394,令和４年１２月１日神戸市中央区港島中町六丁目２番３号ＵＳＵＩ　ＩＮＴＥＲＮＡＴＩＯＮＡＬ株式会社（6140001107394）に合併し解散,2015-10-05,1,,,,,ウスイキャピタル,0
397,2120101029081,登記記録の閉鎖等,0,2022-12-08,2022-12-06,株式会社英知,,株式会社,大阪府,堺市中区,毛穴町６１番地１,,27,142,5998266,,,2022-12-06,清算の結了等,,,2015-10-05,1,,,,,エイチ,0
402,2120901043158,登記記録の閉鎖等,0,2022-12-08,2022-12-06,ＳＧ株式会社,,株式会社,大阪府,吹田市,青山台３丁目３７番３号,,27,205,5650875,,,2022-12-06,清算の結了等,,,2020-09-08,1,,,,,エスジー,0
406,2122001016060,登記記録の閉鎖等,0,2022-12-08,2022-12-07,山昇株式会社,,株式会社,大阪府,大東市,三箇４丁目４５４番地,,27,218,5740077,,,2022-12-07,清算の結了等,,,2015-10-05,1,,,,,ヤマショウ,0
407,2130001065275,登記記録の閉鎖等,0,2022-12-08,2022-12-02,株式会社サンエス,,株式会社,大阪府,大阪市浪速区,浪速西２丁目１２番１７号,,27,111,5560026,,,2022-12-02,清算の結了等,,,2019-09-13,1,,,,,サンエス,0
410,2130002024412,登記記録の閉鎖等,0,2022-12-08,2022-12-05,有限会社関通エステート,,有限会社,京都府,京都市中京区,麩屋町通竹屋町下る笹屋町４６０番地,,26,104,6040983,,,2022-12-05,清算の結了等,,,2015-10-05,1,,,,,カンツウエステート,0
412,2140001003044,登記記録の閉鎖等,0,2022-12-08,2022-12-01,入船株式会社,,株式会社,兵庫県,神戸市灘区,新在家南町１丁目２番１号,,28,102,6570864,,,2022-12-01,合併による解散等,4140001003331,令和４年１２月１日神戸市灘区新在家南町一丁目２番１号株式会社サザンモール六甲（4140001003331）に合併し解散,2015-10-05,1,,,,,イリフネ,0
418,2160005008558,登記記録の閉鎖等,0,2022-12-08,2022-12-02,協同組合京滋中小企業経営サポートセンター,,その他の設立登記法人,滋賀県,草津市,下笠町４２０９番地の１,,25,206,5250029,,,2022-12-02,清算の結了等,,,2015-10-05,1,,,,,ケイジチュウショウキギョウケイエイサポートセンター,0
430,2180005008036,登記記録の閉鎖等,0,2022-12-08,2022-12-02,特定非営利活動法人愛知中高年就職支援センター,,その他の設立登記法人,愛知県,名古屋市中川区,中島新町１丁目１２２０番地アベニュー中新ビル３０３号,,23,110,4540932,,,2022-12-02,清算の結了等,,,2015-10-05,1,,,,,アイチチュウコウネンシュウショクシエンセンター,0
437,2200002009661,登記記録の閉鎖等,0,2022-12-08,2022-12-07,有限会社中徳造園土木,,有限会社,岐阜県,本巣市,根尾大井１番地,,21,218,5011535,,,2022-12-07,清算の結了等,,,2015-10-05,1,,,,,ナカトクゾウエンドボク,0
451,2240005010423,登記記録の閉鎖等,0,2022-12-08,2022-12-01,天理教明倫分教会,,その他の設立登記法人,広島県,竹原市,田ノ浦１丁目７番３号,,34,203,7250023,,,2022-12-01,合併による解散等,3240005011800,令和４年１２月１日広島県三原市西宮一丁目２８番１号天理教三原分教会（3240005011800）に合併し解散,2015-10-05,1,,,,,テンリキョウメイリンブンキョウカイ,0
454,2250002011415,登記記録の閉鎖等,0,2022-12-08,2022-12-01,有限会社山口ホンダ,,有限会社,山口県,下関市,大和町２丁目１１番６号,,35,201,7500067,,,2022-12-01,合併による解散等,2250001003479,令和４年１２月１日山口県宇部市大字西岐波１２８４番地の１株式会社ホンダカーズ山口西（2250001003479）に合併し解散,2015-10-05,1,,,,,ヤマグチホンダ,0
455,2260001028913,登記記録の閉鎖等,0,2022-12-08,2022-12-07,株式会社若松,,株式会社,岡山県,倉敷市,連島１丁目３番４３号,,33,202,7128012,,,2022-12-07,清算の結了等,,,2015-10-26,1,,,,,,0
481,2370602000045,登記記録の閉鎖等,0,2022-12-08,2022-12-05,有限会社アイベックス,,有限会社,宮城県,多賀城市,町前２丁目１番１０－７０１号,,04,209,9850845,,,2022-12-05,清算の結了等,,,2015-10-05,1,,,,,アイベックス,0
490,2430001059214,登記記録の閉鎖等,0,2022-12-08,2022-12-05,株式会社庄司,,株式会社,北海道,小樽市,花園２丁目１番７号,,01,203,0470024,,,2022-12-05,清算の結了等,,,2015-10-05,1,,,,,ショウジ,0
495,2470001006501,登記記録の閉鎖等,0,2022-12-08,2022-11-29,株式会社松尾木工,,株式会社,香川県,高松市,香川町浅野２６６９番地３１,,37,201,7611703,,,2022-11-29,清算の結了等,,,2015-10-05,1,,,,,マツオモッコウ,0
505,3010001019390,登記記録の閉鎖等,0,2022-12-08,2022-12-01,株式会社シーケーケーブレーン,,株式会社,東京都,千代田区,飯田橋４丁目４番１２－３０１号,,13,101,1020072,,,2022-12-01,清算の結了等,,,2015-10-05,1,,,,,シーケーケーブレーン,0
507,3010001039703,登記記録の閉鎖等,0,2022-12-08,2022-12-01,株式会社オリーブ,,株式会社,東京都,中央区,銀座７丁目６番１９号,,13,102,1040061,,,2022-12-01,合併による解散等,7010002035334,令和４年１２月１日東京都中央区銀座七丁目７番１２号圭田ビル２階株式会社エム・アイ・イーコーポレイション（7010002035334）に合併し解散,2015-10-05,1,,,,,オリーブ,0
510,3010001202186,登記記録の閉鎖等,0,2022-12-08,2022-12-01,株式会社アスクレピア,,株式会社,東京都,千代田区,富士見１丁目８番１９号住友不動産千代田富士見ビル,,13,101,1020071,,,2022-12-01,合併による解散等,4010001075490,令和４年１２月１日東京都千代田区富士見一丁目８番１９号株式会社ケアネット（4010001075490）に合併し解散,2019-07-09,1,,,,,アスクレピア,0
515,3010401093845,登記記録の閉鎖等,0,2022-12-08,2022-11-30,グリーンランド石油開発株式会社,,株式会社,東京都,港区,赤坂５丁目３番１号,,13,103,1070052,,,2022-11-30,清算の結了等,,,2015-10-05,1,,,,,グリーンランドセキユカイハツ,0
516,3010401122884,登記記録の閉鎖等,0,2022-12-08,2022-12-01,株式会社ＭＡＮＵＫＡＩ,,株式会社,長野県,北佐久郡軽井沢町,大字軽井沢１３２３番地４５,,20,321,3890102,,,2022-12-01,合併による解散等,9010702014817,令和４年１２月１日長野県北佐久郡軽井沢町大字軽井沢１３２３番地４５株式会社ドリームフォーティ（9010702014817）に合併し解散,2016-02-03,1,,,,,マヌカイ,0
538,3010803001216,登記記録の閉鎖等,0,2022-12-08,2022-12-01,アスコルタ合同会社,,合同会社,東京都,大田区,南雪谷５丁目２０番１０号３０３,,13,111,1450066,,,2022-12-01,清算の結了等,,,2015-10-05,1,,,,,アスコルタ,0
551,3011105009146,登記記録の閉鎖等,0,2022-12-08,2022-12-05,一般社団法人暗号資産古物商協会,,その他の設立登記法人,東京都,新宿区,北新宿１丁目１番４－６０４号,,13,104,1690074,,,2022-12-05,清算の結了等,,,2019-10-31,1,Crypto Assets Antique Association,Tokyo,"1-1-4-604, Kitashinjuku, Shinjuku ku",,アンゴウシサンコブツショウキョウカイ,0
557,3011701022824,登記記録の閉鎖等,0,2022-12-08,2022-12-06,花見川株式会社,,株式会社,東京都,江戸川区,松江１丁目１９番１５号,,13,123,1320025,,,2022-12-06,清算の結了等,,,2019-07-25,1,,,,,ハナミガワ,0
558,3011801014663,登記記録の閉鎖等,0,2022-12-08,2022-12-05,室井産業株式会社,,株式会社,東京都,足立区,西伊興２丁目９番１６号,,13,121,1210824,,,2022-12-05,清算の結了等,,,2015-10-05,1,,,,,ムロイサンギョウ,0
562,3012701011981,登記記録の閉鎖等,0,2022-12-08,2022-12-02,株式会社ＲＡＹＬＩＮＥ,,株式会社,埼玉県,所沢市,寿町２９－１０ラフィネ所沢２１５,,11,208,3591122,,,2022-12-02,清算の結了等,,,2015-10-05,1,,,,,レイライン,0
572,3020001097584,登記記録の閉鎖等,0,2022-12-08,2022-12-05,Ｓｕｍｍｉｔ　Ｃｏｒｐｏｒａｔｉｏｎ　Ｊａｐａｎ株式会社,,株式会社,神奈川県,横浜市西区,みなとみらい２丁目３番１号クイーンズタワーＡ９階,,14,103,2200012,,,2022-12-05,清算の結了等,,,2015-10-05,1,,,,,サミットコーポレーションジャパン,0
576,3021005005715,登記記録の閉鎖等,0,2022-12-08,2022-11-24,天理教愛伯山分教会,,その他の設立登記法人,神奈川県,小田原市,早川１８７番地,,14,206,2500021,,,2022-11-24,合併による解散等,7500005005400,令和４年１１月２２日愛媛県今治市宮窪町宮窪４１５５番地天理教宮窪分教会（7500005005400）に合併し解散,2015-10-05,1,,,,,テンリキョウアイハクザンブンキョウカイ,0
577,3021005007892,登記記録の閉鎖等,0,2022-12-08,2022-12-02,神習教小坪支教会,,その他の設立登記法人,神奈川県,逗子市,小坪３丁目７番１２号,,14,208,2490008,,,2022-12-02,清算の結了等,,,2015-10-05,1,,,,,シンシュウキョウコツボシキョウカイ,0
580,3030001114792,登記記録の閉鎖等,0,2022-12-08,2022-12-05,ＹＭＳアセット株式会社,,株式会社,埼玉県,さいたま市大宮区,桜木町２丁目３３５番地４（８０３号）,,11,103,3300854,,,2022-12-05,合併による解散等,1120901035453,令和４年１２月１日大阪府高槻市白梅町５番２０－１８０９号ユミショウプロパティ株式会社（1120901035453）に合併し解散,2016-06-08,1,,,,,,0
584,3030003015080,登記記録の閉鎖等,0,2022-12-08,2022-12-02,Ｈｏｔ　Ｓｐｒｉｎｇｓ合同会社,,合同会社,埼玉県,さいたま市西区,大字高木１５２０番地３４,,11,101,3310071,,,2022-12-02,清算の結了等,,,2020-04-07,1,,,,,ホットスプリングス,0
588,3040001034809,登記記録の閉鎖等,0,2022-12-08,2022-11-30,株式会社飯塚水道工務店,00019012,株式会社,千葉県,松戸市,三矢小台４丁目１３番地の４,,12,207,2710087,,,2022-11-30,清算の結了等,,,2015-10-05,1,,,,,イイヅカスイドウコウムテン,0
589,3040001076074,登記記録の閉鎖等,0,2022-12-08,2022-12-01,株式会社ティーエム総業,,株式会社,千葉県,佐倉市,石川８１番地３０,,12,212,2850813,,,2022-12-01,清算の結了等,,,2015-10-05,1,,,,,ティーエムソウギョウ,0
591,3040002000314,登記記録の閉鎖等,0,2022-12-08,2022-12-02,有限会社秋久食料,,有限会社,千葉県,千葉市中央区,新千葉２丁目３番６号,,12,101,2600031,,,2022-12-02,清算の結了等,,,2015-10-05,1,,,,,アキヒサショクリョウ,0
611,3080102013336,登記記録の閉鎖等,0,2022-12-08,2022-12-06,有限会社市川保険事務所,,有限会社,静岡県,富士市,本市場町７０３番地,,22,210,4160954,,,2022-12-06,清算の結了等,,,2015-10-05,1,,,,,イチカワホケンジムショ,0
619,3120001090109,登記記録の閉鎖等,0,2022-12-08,2022-12-06,丸福株式会社,,株式会社,大阪府,大阪市中央区,鎗屋町１丁目１番１１号,,27,128,5400027,,,2022-12-06,清算の結了等,,,2015-10-05,1,,,,,マルフク,0
636,3120002078895,登記記録の閉鎖等,0,2022-12-08,2022-12-06,有限会社ピーアールエー,,有限会社,大阪府,守口市,外島町２番８－３０４号,,27,209,5700096,,,2022-12-06,清算の結了等,,,2015-10-05,1,,,,,ピーアールエー,0
640,3120102027678,登記記録の閉鎖等,0,2022-12-08,2022-12-06,中谷タオル有限会社,,有限会社,大阪府,泉南市,信達市場１４５７番地,,27,228,5900504,,,2022-12-06,清算の結了等,,,2015-10-05,1,,,,,ナカヤタオル,0
660,3140003016431,登記記録の閉鎖等,0,2022-12-08,2022-12-05,合同会社悠然,,合同会社,兵庫県,神戸市中央区,熊内町２丁目５番１０号マンションカサモナ２０３,,28,110,6510056,,,2022-12-05,清算の結了等,,,2021-06-18,1,,,,,ユウゼン,0
663,3170001011555,登記記録の閉鎖等,0,2022-12-08,2022-12-06,株式会社中本パーツ,,株式会社,和歌山県,新宮市,神倉３丁目１番１３号,,30,207,6470044,,,2022-12-06,清算の結了等,,,2015-10-05,1,,,,,ナカモトパーツ,0
672,3180002059304,登記記録の閉鎖等,0,2022-12-08,2022-12-02,有限会社サニーヒル,,有限会社,愛知県,名古屋市東区,矢田４丁目１３番４号,,23,102,4610040,,,2022-12-02,清算の結了等,,,2015-10-05,1,,,,,サニーヒル,0
677,3180305003594,登記記録の閉鎖等,0,2022-12-08,2022-12-06,愛知県鮎養殖漁業協同組合,,その他の設立登記法人,愛知県,豊川市,伊奈町雨田１８０番地,,23,207,4410105,,,2022-12-06,清算の結了等,,,2015-10-05,1,,,,,アイチケンアユヨウショクギョギョウ,0
682,3190001025792,登記記録の閉鎖等,0,2022-12-08,2022-12-01,日新貿易株式会社,,株式会社,愛知県,名古屋市千種区,今池南２９－７,,23,101,4640851,,,2022-12-01,清算の結了等,,,2018-08-14,1,,,,,ニッシンボウエキ,0
684,3190005006640,登記記録の閉鎖等,0,2022-12-08,2022-12-05,社会福祉法人聖の家,,その他の設立登記法人,三重県,多気郡多気町,津留５４８番地の１,,24,441,5192189,,,2022-12-05,清算の結了等,,,2015-10-05,1,,,,,ヒジリノイエ,0
690,3210002011558,登記記録の閉鎖等,0,2022-12-08,2022-12-06,有限会社オシャレ屋さんみよし,,有限会社,福井県,越前市,横市町第２９号７番地,,18,209,9150094,,,2022-12-06,清算の結了等,,,2015-10-05,1,,,,,オシャレヤサンミヨシ,0
703,3290005008461,登記記録の閉鎖等,0,2022-12-08,2022-12-07,高田生産森林組合,,その他の設立登記法人,福岡県,飯塚市,高田１０３５番地３,,40,205,8200079,,,2022-12-07,清算の結了等,,,2015-10-05,1,,,,,タカタ,0
724,3370205000169,登記記録の閉鎖等,0,2022-12-08,2022-11-28,天理教本大崎分教会,,その他の設立登記法人,宮城県,大崎市,三本木字大谷５番地,,04,215,9896321,,,2022-11-28,合併による解散等,8370205000172,令和４年１１月２８日宮城県大崎市三本木伊場野字舘崎９６番地天理教宮城大崎分教会（8370205000172）に合併し解散,2015-10-05,1,,,,,テンリキョウホンオオサキブンキョウカイ,0
746,3480005006487,登記記録の閉鎖等,0,2022-12-08,2022-12-07,一般社団法人徳島県ドローン安全協議会,,その他の設立登記法人,徳島県,徳島市,伊賀町３丁目５番地１１,,36,201,7700926,,,2022-12-07,清算の結了等,,,2016-06-09,1,,,,,トクシマケンドローンアンゼンキョウギカイ,0
749,3500002006231,登記記録の閉鎖等,0,2022-12-08,2022-12-07,有限会社松山吉忠,,有限会社,愛媛県,松山市,姫原３丁目甲４３２番,,38,201,7918012,,,2022-12-07,清算の結了等,,,2015-10-05,1,,,,,マツヤマヨシチュウ,0
756,4010001112442,登記記録の閉鎖等,0,2022-12-08,2022-12-02,株式会社ネクストコミュニケーション,,株式会社,東京都,中央区,八丁堀３丁目１６番７号,,13,102,1040032,,,2022-12-02,清算の結了等,,,2015-10-05,1,,,,,ネクストコミュニケーション,0
771,4010005024683,登記記録の閉鎖等,0,2022-12-08,2022-12-07,Ｎｉｓｈｉｋｉ特定目的会社,,その他の設立登記法人,東京都,千代田区,丸の内３丁目１番１号東京共同会計事務所内,,13,101,1000005,,,2022-12-07,清算の結了等,,,2015-12-03,1,,,,,ニシキ,0
847,4020001063627,登記記録の閉鎖等,0,2022-12-08,2022-12-06,新明工芸株式会社,,株式会社,神奈川県,横浜市都筑区,東山田４丁目４０番３５号,,14,118,2240023,,,2022-12-06,清算の結了等,,,2015-10-05,1,,,,,シンメイコウゲイ,0
859,4030001086107,登記記録の閉鎖等,0,2022-12-08,2022-12-05,日本石産株式会社,,株式会社,埼玉県,深谷市,小前田３０７番地１,,11,218,3691246,,,2022-12-05,清算の結了等,,,2015-10-05,1,,,,,,0
861,4030001099323,登記記録の閉鎖等,0,2022-12-08,2022-12-02,株式会社工藤商事,,株式会社,埼玉県,川越市,新富町１丁目７番地１１エテルノ・リヴィエール１０１,,11,201,3500043,,,2022-12-02,清算の結了等,,,2015-10-05,1,,,,,クドウショウジ,0
870,4030002044609,登記記録の閉鎖等,0,2022-12-08,2022-12-02,有限会社住吉屋,,有限会社,埼玉県,草加市,住吉１丁目１１番２０号,,11,221,3400014,,,2022-12-02,清算の結了等,,,2015-10-05,1,,,,,スミヨシヤ,0
952,4180001087833,登記記録の閉鎖等,0,2022-12-08,2022-12-02,株式会社ワーク,,株式会社,愛知県,岩倉市,鈴井町中新溝廻間７番地の８,,23,228,4820035,,,2022-12-02,清算の結了等,,,2015-10-05,1,,,,,ワーク,0
955,4180001116352,登記記録の閉鎖等,0,2022-12-08,2022-12-02,株式会社ジュータ・グローバル,,株式会社,愛知県,稲沢市,祖父江町本甲神明北３９番地,,23,220,4950012,,,2022-12-02,清算の結了等,,,2015-10-05,1,,,,,ジュータグローバル,0
963,4180302006772,登記記録の閉鎖等,0,2022-12-08,2022-12-05,有限会社大津屋建陶社,,有限会社,愛知県,豊橋市,花田町字中ノ坪５６番地の３,,23,201,4418019,,,2022-12-05,清算の結了等,,,2015-10-05,1,,,,,,0
990,4290002056529,登記記録の閉鎖等,0,2022-12-08,2022-12-05,有限会社サカイコーポレーション,,有限会社,福岡県,大牟田市,大字手鎌１５５１番地４,,40,202,8360004,,,2022-12-05,清算の結了等,,,2015-10-05,1,,,,,,0
995,4340001001109,登記記録の閉鎖等,0,2022-12-08,2022-12-01,株式会社アリウム商事,,株式会社,東京都,港区,浜松町２丁目２番１５号,,13,103,1050013,,,2022-12-01,清算の結了等,,,2015-10-05,1,,,,,アリウムショウジ,0
999,4370001023075,登記記録の閉鎖等,0,2022-12-08,2022-12-06,株式会社工房菓々ｙａｋｉ,,株式会社,宮城県,宮城郡利府町,しらかし台６丁目１番地１１,,04,406,9810134,,,2022-12-06,清算の結了等,,,2015-10-05,1,,,,,コウボウカガヤキ,0
1002,4370002007993,登記記録の閉鎖等,0,2022-12-08,2022-12-06,有限会社タケダ興産,,有限会社,宮城県,仙台市宮城野区,福田町１丁目６番４３号,,04,102,9830023,,,2022-12-06,合併による解散等,6370001015351,令和４年１２月１日仙台市宮城野区福田町一丁目６番４３号株式会社エフピージャパン（6370001015351）に合併し解散,2015-10-05,1,,,,,タケダコウサン,0
1011,4410005000891,登記記録の閉鎖等,0,2022-12-08,2022-11-29,天理教羽後南秋分教會,,その他の設立登記法人,秋田県,秋田市,土崎港中央６丁目１４番６号,,05,201,0110946,,,2022-11-29,合併による解散等,9410005003155,令和４年１１月２９日秋田県北秋田郡上小阿仁村仏社字羽立台７８番地天理教上小阿仁分教会（9410005003155）に合併し解散,2015-10-05,1,,,,,,0
1013,4420002015041,登記記録の閉鎖等,0,2022-12-08,2022-12-05,有限会社匠ネットワーク・住工房,,有限会社,青森県,弘前市,大字清原２丁目１０番地８,,02,202,0368163,,,2022-12-05,清算の結了等,,,2015-10-05,1,,,,,タクミネットワークジュウコウボウ,0
1022,4460301000401,登記記録の閉鎖等,0,2022-12-08,2022-12-06,小林教育機器株式会社,,株式会社,北海道,北見市,三楽町５番地,,01,208,0900019,,,2022-12-06,清算の結了等,,,2015-10-05,1,,,,,コバヤシキョウイクキキ,0
1024,4480002015705,登記記録の閉鎖等,0,2022-12-08,2022-12-06,有限会社中尾建設,,有限会社,徳島県,三好市,東祖谷小川２０番地１,,36,208,7780205,,,2022-12-06,清算の結了等,,,2015-10-05,1,,,,,ナカオケンセツ,0
1029,4500002016510,登記記録の閉鎖等,0,2022-12-08,2022-12-06,有限会社章司興産,,有限会社,愛媛県,新居浜市,東田２丁目１５３８番地の１,,38,205,7920852,,,2022-12-06,清算の結了等,,,2015-10-05,1,,,,,ショウジコウサン,0
1031,5010001062827,登記記録の閉鎖等,0,2022-12-08,2022-12-05,株式会社海竜社,,株式会社,東京都,中央区,明石町１１番１５号,,13,102,1040044,,,2022-12-05,清算の結了等,,,2015-10-05,1,,,,,カイリュウシャ,0
1044,5010403026470,登記記録の閉鎖等,0,2022-12-08,2022-12-01,合同会社ランドルーチェ,,合同会社,東京都,港区,南青山２丁目２番１５号,,13,103,1070062,,,2022-12-01,清算の結了等,,,2021-11-02,1,,,,,ランドルーチェ,0
1049,5010901030916,登記記録の閉鎖等,0,2022-12-08,2022-12-07,株式会社ＬＩＶＥＯＮＣＥ,,株式会社,東京都,台東区,上野桜木１丁目１２番１２号ベルザ桜木２０Ｂ,,13,106,1100002,,,2022-12-07,清算の結了等,,,2015-10-05,1,,,,,ライブワンス,0
1061,5011002033412,登記記録の閉鎖等,0,2022-12-08,2022-12-06,有限会社トレジョリー,,有限会社,東京都,品川区,小山７丁目４番７号,,13,109,1420062,,,2022-12-06,清算の結了等,,,2015-10-05,1,,,,,トレジョリー,0
1070,5011103010070,登記記録の閉鎖等,0,2022-12-08,2022-12-02,合同会社ラポールイノベーション,,合同会社,東京都,八王子市,散田町２丁目９番５号,,13,201,1930832,,,2022-12-02,清算の結了等,,,2020-10-02,1,,,,,ラポールイノベーション,0
1073,5011501000581,登記記録の閉鎖等,0,2022-12-08,2022-12-02,エースコーポレーション株式会社,,株式会社,東京都,北区,赤羽１丁目６２番５号小沢ビル,,13,117,1150045,,,2022-12-02,清算の結了等,,,2015-10-05,1,,,,,エースコーポレーション,0
1091,5011803003183,登記記録の閉鎖等,0,2022-12-08,2022-11-18,合同会社形屋,,合同会社,東京都,足立区,保木間３丁目１７番１号,,13,121,1210064,,,2022-11-18,清算の結了等,,,2018-02-13,1,,,,,カタヤ,0
1110,5030001118825,登記記録の閉鎖等,0,2022-12-08,2022-12-05,株式会社一家水産,,株式会社,埼玉県,和光市,下新倉４丁目１５番６０号,,11,229,3510111,,,2022-12-05,清算の結了等,,,2017-02-24,1,,,,,,0
1111,5030001123692,登記記録の閉鎖等,0,2022-12-08,2022-12-02,株式会社小島工業,,株式会社,埼玉県,草加市,稲荷３丁目５番４－３０３号,,11,221,3400003,,,2022-12-02,清算の結了等,,,2018-01-05,1,,,,,コジマコウギョウ,0
1116,5030002047065,登記記録の閉鎖等,0,2022-12-08,2022-12-05,有限会社サンパック,,有限会社,埼玉県,八潮市,八潮７丁目３７番地４,,11,234,3400815,,,2022-12-05,清算の結了等,,,2015-10-05,1,,,,,サンパック,0
1119,5030002083853,登記記録の閉鎖等,0,2022-12-08,2022-12-05,有限会社とば,,有限会社,埼玉県,鴻巣市,筑波２丁目４番１１号,,11,217,3690114,,,2022-12-05,清算の結了等,,,2015-10-05,1,,,,,トバ,0
1121,5030002115648,登記記録の閉鎖等,0,2022-12-08,2022-11-30,有限会社和田住設,,有限会社,埼玉県,深谷市,大塚４３３番地９,,11,218,3660003,,,2022-11-30,清算の結了等,,,2015-10-05,1,,,,,ワダジュウセツ,0
1124,5030003004676,登記記録の閉鎖等,0,2022-12-08,2022-12-02,合同会社英麗,,合同会社,埼玉県,深谷市,戸森８３２番地５,,11,218,3660833,,,2022-12-02,清算の結了等,,,2015-10-05,1,,,,,エイヨウ,0
1143,5050001026142,登記記録の閉鎖等,0,2022-12-08,2022-12-05,株式会社アルファーシステムプロデュース,,株式会社,茨城県,龍ケ崎市,松葉３丁目９番地１,,08,208,3010043,,,2022-12-05,清算の結了等,,,2015-10-05,1,,,,,アルファーシステムプロデュース,0
1155,5080101008442,登記記録の閉鎖等,0,2022-12-08,2022-12-01,株式会社クラウンオート,,株式会社,静岡県,富士市,松岡２２番地４,,22,210,4160909,,,2022-12-01,清算の結了等,,,2015-10-05,1,,,,,クラウンオート,0
1158,5090001006909,登記記録の閉鎖等,0,2022-12-08,2022-12-06,中央環境理研株式会社,,株式会社,山梨県,南アルプス市,小笠原６番地,,19,208,4000306,,,2022-12-06,合併による解散等,4020001008862,令和４年１２月１日横浜市緑区鴨居一丁目１３番２号株式会社総合環境分析（4020001008862）に合併し解散,2015-10-05,1,,,,,チュウオウカンキョウリケン,0
1159,5100002023851,登記記録の閉鎖等,0,2022-12-08,2022-12-02,有限会社長野エヌケイ機工,,有限会社,長野県,安曇野市,豊科高家５２７９番地３３,,20,220,3998204,,,2022-12-02,清算の結了等,,,2015-10-05,1,,,,,ナガノエヌケイキコウ,0
1163,5110001036507,登記記録の閉鎖等,0,2022-12-08,2022-12-06,株式会社寅之介,,株式会社,新潟県,新潟市中央区,東大通２丁目３番７号,,15,103,9500087,,,2022-12-06,清算の結了等,,,2022-03-18,1,,,,,トラノスケ,0
1181,5120005009160,登記記録の閉鎖等,0,2022-12-08,2022-12-07,特定非営利活動法人Ｐ＆Ｍアカデミー,,その他の設立登記法人,大阪府,大阪市中央区,瓦町４丁目４番７号,,27,128,5410048,,,2022-12-07,清算の結了等,,,2015-10-05,1,,,,,ピーアンドエムアカデミー,0
1195,5140001022181,登記記録の閉鎖等,0,2022-12-08,2022-11-30,株式会社古田水道工務店,,株式会社,兵庫県,神戸市兵庫区,湊町２丁目４番１５号,,28,105,6520812,,,2022-11-30,清算の結了等,,,2015-10-05,1,,,,,フルタスイドウコウムテン,0
1206,5140005024843,登記記録の閉鎖等,0,2022-12-08,2022-12-05,特定非営利活動法人たすかる君,,その他の設立登記法人,兵庫県,宍粟市,山崎町門前２７２番地２,,28,227,6712579,,,2022-12-05,清算の結了等,,,2019-10-30,1,,,,,タスカルクン,0
1208,5170001005142,登記記録の閉鎖等,0,2022-12-08,2022-12-01,モバイル・メディア・リンク株式会社,,株式会社,和歌山県,和歌山市,向２２０番地の１,,30,201,6408431,,,2022-12-01,合併による解散等,3170001001614,令和４年１２月１日和歌山市紀三井寺８４９番地の３株式会社サイバーリンクス（3170001001614）に合併し解散,2015-10-05,1,,,,,モバイルメディアリンク,0
1214,5180001143577,登記記録の閉鎖等,0,2022-12-08,2022-12-02,株式会社Ｋ＆Ｋクリエイト,,株式会社,愛知県,名古屋市中村区,畑江通９丁目２８番地の１,,23,105,4530851,,,2022-12-02,清算の結了等,,,2020-11-11,1,,,,,ケーアンドケークリエイト,0
1217,5180003020147,登記記録の閉鎖等,0,2022-12-08,2022-12-02,龍瞰合同会社,,合同会社,愛知県,稲沢市,祖父江町大牧明田９２９番地２９,,23,220,4950014,,,2022-12-02,清算の結了等,,,2019-07-10,1,Ryu Can LLC,Aichi,"929-29, Inazawa shi,Sobue cho,Omaki,Myoden",,リュウカン,0
1233,5210001014741,登記記録の閉鎖等,0,2022-12-08,2022-12-06,ケイシン総合企画株式会社,,株式会社,福井県,福井市,中央２丁目６番１号,,18,201,9100006,,,2022-12-06,清算の結了等,,,2015-10-05,1,,,,,ケイシンソウゴウキカク,0
1237,5240001049883,登記記録の閉鎖等,0,2022-12-08,2022-12-06,株式会社共同生コン三次,,株式会社,広島県,広島市安佐北区,大林町１５７番地１,,34,106,7310202,,,2022-12-06,清算の結了等,,,2016-09-06,1,,,,,キョウドウナマコンミヨシ,0
1258,5330001017220,登記記録の閉鎖等,0,2022-12-08,2022-12-07,株式会社丸松水産,,株式会社,熊本県,熊本市南区,白藤２丁目３番８１－１４１１号,,43,104,8614112,,,2022-12-07,清算の結了等,,,2015-10-05,1,,,,,マルマツスイサン,0
1261,5360001011229,登記記録の閉鎖等,0,2022-12-08,2022-12-01,株式会社Ｍコーポレーション,,株式会社,沖縄県,浦添市,字城間２００８番地,,47,208,9012133,,,2022-12-01,合併による解散等,4360001009216,令和４年１２月１日沖縄県浦添市字城間２００８番地株式会社メイクマン（4360001009216）に合併し解散,2015-10-05,1,,,,,エムコーポレーション,0
1266,5370001007911,登記記録の閉鎖等,0,2022-12-08,2022-12-01,株式会社慶尚,,株式会社,宮城県,仙台市太白区,長町３丁目６番１号,,04,104,9820011,,,2022-12-01,合併による解散等,2370001015487,令和４年１２月１日仙台市太白区長町三丁目６番１号株式会社サンコウ商事（2370001015487）に合併し解散,2015-10-05,1,,,,,,0
1273,5380002001912,登記記録の閉鎖等,0,2022-12-08,2022-12-02,有限会社すりかみ商事,,有限会社,福島県,福島市,宮代字瀬戸川５３番地の４,,07,201,9600116,,,2022-12-02,清算の結了等,,,2015-10-05,1,,,,,スリカミショウジ,0
1291,6010001152445,登記記録の閉鎖等,0,2022-12-08,2022-12-06,株式会社クレオ,,株式会社,東京都,江戸川区,北葛西４丁目１４番１号,,13,123,1340081,,,2022-12-06,清算の結了等,,,2015-10-05,1,,,,,クレオ,0
1294,6010001209492,登記記録の閉鎖等,0,2022-12-08,2022-12-01,株式会社ＯＮＯＤＥＲＡ　ＧＲＯＵＰ,,株式会社,東京都,千代田区,大手町１丁目１番３号,,13,101,1000004,,,2022-12-01,合併による解散等,8010001179437,令和４年１２月１日東京都千代田区大手町一丁目１番３号１６階株式会社ＯＮＯＤＥＲＡホールディングス（8010001179437）に合併し解散,2020-05-14,1,,,,,オノデラグループ,0
1295,6010001211366,登記記録の閉鎖等,0,2022-12-08,2022-12-01,株式会社ＯＮＯＤＥＲＡマネジメント,,株式会社,東京都,千代田区,大手町１丁目１番３号,,13,101,1000004,,,2022-12-01,合併による解散等,8010001179437,令和４年１２月１日東京都千代田区大手町一丁目１番３号１６階株式会社ＯＮＯＤＥＲＡ　ＧＲＯＵＰ（8010001179437）に合併し解散,2020-08-05,1,,,,,オノデラマネジメント,0
1297,6010002024024,登記記録の閉鎖等,0,2022-12-08,2022-12-02,有限会社平林商店,,有限会社,千葉県,市川市,中国分３丁目１４番２２号,,12,203,2720835,,,2022-12-02,清算の結了等,,,2015-10-05,1,,,,,ヒラバヤシショウテン,0
1309,6010403020704,登記記録の閉鎖等,0,2022-12-08,2022-12-07,合同会社グッド・パートナー,,合同会社,東京都,港区,南青山２丁目２番１５号ウィン青山１２１４号,,13,103,1070062,,,2022-12-07,清算の結了等,,,2019-05-21,1,,,,,グッドパートナー,0
1314,6010701007048,登記記録の閉鎖等,0,2022-12-08,2022-12-06,株式会社富澤製作所,,株式会社,東京都,品川区,西五反田７丁目１２番３号,,13,109,1410031,,,2022-12-06,清算の結了等,,,2015-10-05,1,,,,,トミザワセイサクショ,0
1324,6011001020609,登記記録の閉鎖等,0,2022-12-08,2022-12-02,株式会社ＣＳリアルエステート,,株式会社,東京都,中央区,京橋３丁目１番１号東京スクエアガーデン,,13,102,1040031,,,2022-12-02,合併による解散等,7010501023269,令和４年１２月１日東京都台東区東上野一丁目１番１４号株式会社大都技研（7010501023269）に合併し解散,2015-10-05,1,,,,,シーエスリアルエステート,0
1335,6011103011150,登記記録の閉鎖等,0,2022-12-08,2022-12-05,合同会社ＳｕｎＱｕｅｓｔ,,合同会社,東京都,新宿区,西新宿３丁目３番地１３号,,13,104,1600023,,,2022-12-05,清算の結了等,,,2021-11-11,1,,,,,サンクエスト,0
1336,6011105002395,登記記録の閉鎖等,0,2022-12-08,2022-12-05,特定非営利活動法人茶の湯文化研究所青山会,,その他の設立登記法人,東京都,新宿区,四谷１丁目８番８号佐伯千成ビル５Ｃ,,13,104,1600004,,,2022-12-05,清算の結了等,,,2015-10-05,1,,,,,チャノユブンカケンキュウジョアオヤマカイ,0
1349,6012702006417,登記記録の閉鎖等,0,2022-12-08,2022-12-05,株式会社ＫＤＫ,,株式会社,埼玉県,所沢市,大字下安松９４３の３,,11,208,3590024,,,2022-12-05,清算の結了等,,,2015-10-05,1,,,,,ケイディーケイ,0
1378,6030001111416,登記記録の閉鎖等,0,2022-12-08,2022-12-05,カミノテック株式会社,,株式会社,埼玉県,さいたま市岩槻区,大字釣上新田７５０番地２４,,11,110,3390025,,,2022-12-05,清算の結了等,,,2015-11-17,1,,,,,カミノテック,0
1387,6040001017810,登記記録の閉鎖等,0,2022-12-08,2022-12-01,株式会社鈴与商店,,株式会社,千葉県,船橋市,田喜野井６丁目２４番１０号,,12,204,2740073,,,2022-12-01,合併による解散等,4040002023033,令和４年１２月１日千葉県船橋市金杉三丁目４番５号株式会社鈴与商事（4040002023033）に合併し解散,2015-10-05,1,,,,,スズヨショウテン,0
1390,6040002071055,登記記録の閉鎖等,0,2022-12-08,2022-11-30,有限会社大川丸川端商店,,有限会社,千葉県,富津市,小久保２８６４番地の１,,12,226,2930042,,,2022-11-30,清算の結了等,,,2015-10-05,1,,,,,オオカワマルカワバタショウテン,0
1417,6110003003792,登記記録の閉鎖等,0,2022-12-08,2022-12-06,トラディショナルリード合同会社,,合同会社,新潟県,新潟市中央区,古町通１３番町５１５３番ＡＰＡＲＴＭＷＮＴ十三２０５,,15,103,9518063,,,2022-12-06,清算の結了等,,,2018-10-25,1,,,,,トラディショナルリード,0
1421,6120001086921,登記記録の閉鎖等,0,2022-12-08,2022-12-02,株式会社ネスノン,,株式会社,兵庫県,川西市,大和東４丁目２番地の３,,28,217,6660111,,,2022-12-02,清算の結了等,,,2015-10-05,1,,,,,ネスノン,0
1448,6120101028360,登記記録の閉鎖等,0,2022-12-08,2022-12-06,株式会社宏洋テック,,株式会社,大阪府,大阪狭山市,茱萸木６丁目１０４７番地の４,00046873,27,231,5890013,,,2022-12-06,清算の結了等,,,2015-10-05,1,,,,,コウヨウテック,0
1452,6120903003098,登記記録の閉鎖等,0,2022-12-08,2022-12-07,合同会社福本貿易,,合同会社,大阪府,茨木市,北春日丘２丁目１２番９号,,27,211,5670048,,,2022-12-07,清算の結了等,,,2020-01-20,1,,,,,フクモトボウエキ,0
1459,6130001062260,登記記録の閉鎖等,0,2022-12-08,2022-11-16,株式会社古川技建,,株式会社,京都府,綴喜郡井手町,大字井手小字野神４８番地の１,,26,343,6100302,,,2022-11-16,清算の結了等,,,2018-06-07,1,,,,,フルカワギケン,0
1460,6130002011142,登記記録の閉鎖等,0,2022-12-08,2022-12-05,タキ薬品有限会社,,有限会社,京都府,京都市南区,西九条川原城町９番地,,26,107,6018424,,,2022-12-05,清算の結了等,,,2015-10-05,1,,,,,タキヤクヒン,0
1480,6170003001072,登記記録の閉鎖等,0,2022-12-08,2022-12-07,合同会社Ｖｉｃｔｏｒｙ　Ｇｏｒｅｒｎ,,合同会社,和歌山県,和歌山市,六十谷１３３８番地１９,,30,201,6408482,,,2022-12-07,清算の結了等,,,2016-08-24,1,,,,,,0
1494,6180003016169,登記記録の閉鎖等,0,2022-12-08,2022-12-02,合同会社三藩,,合同会社,愛知県,名古屋市北区,清水４丁目９番１４号,,23,103,4620844,,,2022-12-02,清算の結了等,,,2015-10-05,1,,,,,サンハン,0
1508,6200001031877,登記記録の閉鎖等,0,2022-12-08,2022-12-06,株式会社国光工業,,株式会社,岐阜県,各務原市,前渡東町８丁目６４３番地１,,21,213,5040922,,,2022-12-06,清算の結了等,,,2015-10-05,1,,,,,クニミツコウギョウ,0
1512,6240002037449,登記記録の閉鎖等,0,2022-12-08,2022-12-06,有限会社ティーズコーポレーション,,有限会社,広島県,廿日市市,平良１丁目１８番６号,,34,213,7380025,,,2022-12-06,清算の結了等,,,2015-10-05,1,,,,,ティーズコーポレーション,0
1514,6240005000222,登記記録の閉鎖等,0,2022-12-08,2022-12-05,淨修院,,その他の設立登記法人,広島県,広島市西区,己斐西町２番１６号,,34,104,7330814,,,2022-12-05,清算の結了等,,,2015-10-05,1,,,,,ジョウシュウイン,0
1533,6330002025543,登記記録の閉鎖等,0,2022-12-08,2022-12-06,有限会社井原自動車,,有限会社,熊本県,八代市,麦島西町弐号１１番地,,43,202,8660052,,,2022-12-06,清算の結了等,,,2015-10-05,1,,,,,イハラジドウシャ,0
1543,6370002000162,登記記録の閉鎖等,0,2022-12-08,2022-12-05,アールイーエス有限会社,,有限会社,宮城県,仙台市泉区,上谷刈字向原７番地の３８,,04,105,9813121,,,2022-12-05,清算の結了等,,,2015-10-05,1,,,,,アールイーエス,0
1556,6420001008432,登記記録の閉鎖等,0,2022-12-08,2022-12-05,株式会社小山内,,株式会社,青森県,つがる市,柏下古川鶴山８９番地１０,,02,209,0383102,,,2022-12-05,清算の結了等,,,2015-10-05,1,,,,,オサナイ,0
1557,6420002011220,登記記録の閉鎖等,0,2022-12-08,2022-12-02,有限会社大林商会,,有限会社,青森県,五所川原市,大字福山字広富４３番地１２,,02,205,0370612,,,2022-12-02,清算の結了等,,,2015-10-05,1,,,,,ダイリンショウカイ,0
1574,7010001028702,登記記録の閉鎖等,0,2022-12-08,2022-12-01,株式会社物流機械新聞社,,株式会社,東京都,千代田区,神田司町２丁目１７番１５号,,13,101,1010048,,,2022-12-01,清算の結了等,,,2015-10-05,1,,,,,ブツリュウキカイシンブンシャ,0
1588,7010401134372,登記記録の閉鎖等,0,2022-12-08,2022-11-29,株式会社ＭＡＧＥＮＴＡ　ＰＬＡＮＥＴ,,株式会社,東京都,港区,北青山２丁目７番１３号３階,,13,103,1070061,,,2022-11-29,清算の結了等,,,2017-10-19,1,,,,,マゼンタプラネット,0
1594,7010502018012,登記記録の閉鎖等,0,2022-12-08,2022-12-07,有限会社斉藤シューズ,,有限会社,東京都,台東区,今戸２丁目１４番１号,,13,106,1110024,,,2022-12-07,清算の結了等,,,2015-10-05,1,,,,,サイトウシューズ,0
1600,7010701042226,登記記録の閉鎖等,0,2022-12-08,2022-12-06,株式会社桜スプリング,,株式会社,東京都,品川区,小山７丁目１６番５,,13,109,1420062,,,2022-12-06,清算の結了等,,,2022-02-10,1,,,,,サクラスプリング,0
1601,7010802012053,登記記録の閉鎖等,0,2022-12-08,2022-12-01,有限会社ビューティージエナー,,有限会社,東京都,大田区,南雪谷２丁目９番１６号,,13,111,1450066,,,2022-12-01,清算の結了等,,,2015-10-05,1,,,,,ビューティージエナー,0
1605,7011002032362,登記記録の閉鎖等,0,2022-12-08,2022-12-06,有限会社スモールエレファント,,有限会社,東京都,渋谷区,神山町３８番８号インナートリッププラザ神山町１０１,,13,113,1500047,,,2022-12-06,清算の結了等,,,2015-10-05,1,,,,,,0
1619,7012401021071,登記記録の閉鎖等,0,2022-12-08,2022-12-01,ＳＹＮＮＥＸ　Ｊａｐａｎ　Ｈｏｌｄｉｎｇｓ株式会社,,株式会社,東京都,江東区,東陽６丁目３番１号,,13,108,1350016,,,2022-12-01,合併による解散等,6010601037905,令和４年１２月１日東京都江東区東陽六丁目３番１号ＴＤ　ＳＹＮＮＥＸ株式会社（6010601037905）に合併し解散,2015-10-05,1,,,,,シネックスジャパンホールディングス,0
1621,7012702001945,登記記録の閉鎖等,0,2022-12-08,2022-12-08,有限会社山田陶器販売,,有限会社,東京都,小平市,仲町１７番地の１,,13,211,1870042,,,2022-12-08,清算の結了等,,,2015-10-05,1,,,,,,0
1639,7021005010942,登記記録の閉鎖等,0,2022-12-08,2022-12-05,一般社団法人南足柄みらい創りカレッジ,,その他の設立登記法人,神奈川県,南足柄市,関本５９１番地１ヴェルミ３,,14,217,2500105,,,2022-12-05,清算の結了等,,,2017-04-13,1,,,,,ミナミアシガラミライヅクリカレッジ,0
1641,7030001086698,登記記録の閉鎖等,0,2022-12-08,2022-12-02,株式会社アックスマチコー,,株式会社,埼玉県,行田市,佐間１丁目２番１６号,,11,206,3610032,,,2022-12-02,清算の結了等,,,2015-10-05,1,,,,,アックスマチコー,0
1674,7110002032965,登記記録の閉鎖等,0,2022-12-08,2022-12-06,有限会社シーピーシー,,有限会社,新潟県,南魚沼郡湯沢町,湯沢３丁目３番地１３,,15,461,9496101,,,2022-12-06,清算の結了等,,,2015-10-05,1,,,,,シーピーシー,0
1677,7120001129704,登記記録の閉鎖等,0,2022-12-08,2022-12-07,株式会社ＢＭ総研,,株式会社,大阪府,大阪市北区,天神橋２丁目５番２５号,,27,127,5300041,,,2022-12-07,清算の結了等,,,2015-10-05,1,,,,,ビーエムソウケン,0
1687,7120001206676,登記記録の閉鎖等,0,2022-12-08,2022-12-05,株式会社セカンドベスト,,株式会社,大阪府,大阪市阿倍野区,松崎町２丁目９番２１－４０１号,,27,119,5450053,,,2022-12-05,清算の結了等,,,2017-07-04,1,,,,,セカンドベスト,0
1689,7120001216618,登記記録の閉鎖等,0,2022-12-08,2022-12-05,株式会社オー・ケイ・エス,,株式会社,大阪府,大阪市都島区,友渕町１丁目５番１２－５０７号,,27,102,5340016,,,2022-12-05,清算の結了等,,,2018-10-17,1,,,,,オーケイエス,0
1711,7122002016336,登記記録の閉鎖等,0,2022-12-08,2022-12-06,有限会社ＵＰＣ,,有限会社,大阪府,八尾市,恩智中町１丁目３３番地の５,,27,212,5810883,,,2022-12-06,清算の結了等,,,2015-10-05,1,,,,,ユーピーシー,0
1730,7170001011691,登記記録の閉鎖等,0,2022-12-08,2022-12-01,株式会社ケイオープラン,,株式会社,和歌山県,東牟婁郡那智勝浦町,大字築地３丁目１番地５,,30,421,6495335,,,2022-12-01,合併による解散等,3170001001614,令和４年１２月１日和歌山市紀三井寺８４９番地の３株式会社サイバーリンクス（3170001001614）に合併し解散,2015-10-05,1,,,,,ケイオープラン,0
1737,7180001122645,登記記録の閉鎖等,0,2022-12-08,2022-12-02,株式会社美秀舎,,株式会社,愛知県,名古屋市千種区,萱場２丁目１４番１６号,,23,101,4640086,,,2022-12-02,清算の結了等,,,2016-03-29,1,,,,,ビシュウシャ,0
1746,7190001006896,登記記録の閉鎖等,0,2022-12-08,2022-11-30,株式会社ネクスト,,株式会社,三重県,伊勢市,宮川１丁目１３番２６号,,24,203,5160061,,,2022-11-30,清算の結了等,,,2015-10-05,1,,,,,,0
1752,7200002020787,登記記録の閉鎖等,0,2022-12-08,2022-12-06,有限会社ミルキーウェイ,,有限会社,岐阜県,多治見市,大畑町西仲根１番地の３０８,,21,204,5070816,,,2022-12-06,清算の結了等,,,2015-10-05,1,,,,,ミルキーウェイ,0
1760,7260002019394,登記記録の閉鎖等,0,2022-12-08,2022-12-06,有限会社滝澤不動産,,有限会社,岡山県,倉敷市,玉島乙島３２９２番地,,33,202,7138103,,,2022-12-06,清算の結了等,,,2015-10-05,1,,,,,タキザワフドウサン,0
1793,7380005011691,登記記録の閉鎖等,0,2022-12-08,2022-11-30,特定非営利活動法人福島県防災教育振興協会,,その他の設立登記法人,福島県,伊達市,梁川町やながわ工業団地６３－１,,07,213,9600719,,,2022-11-30,清算の結了等,,,2016-07-20,1,,,,,フクシマケンボウサイキョウイクシンコウキョウカイ,0
1835,8010401074213,登記記録の閉鎖等,0,2022-12-08,2022-12-01,株式会社ＫＯＴ,,株式会社,東京都,港区,麻布十番２丁目１３番８号,,13,103,1060045,,,2022-12-01,合併による解散等,4010401105822,令和４年１２月１日東京都港区麻布十番二丁目１３番８号株式会社ココハウス（4010401105822）に合併し解散,2015-10-05,1,,,,,ケーオーティー,0
1859,8010901026473,登記記録の閉鎖等,0,2022-12-08,2022-12-05,株式会社按針,,株式会社,大阪府,高槻市,安岡寺町３丁目４番１３号,,27,207,5691029,,,2022-12-05,清算の結了等,,,2015-10-05,1,,,,,アンジン,0
1862,8010901045845,登記記録の閉鎖等,0,2022-12-08,2022-12-06,株式会社Ｂｉｔｏ,,株式会社,東京都,世田谷区,下馬６丁目４６番１４号シャルム学芸大学１０３,,13,112,1540002,,,2022-12-06,清算の結了等,,,2020-03-09,1,,,,,ビト,0
1889,8011401002816,登記記録の閉鎖等,0,2022-12-08,2022-12-06,新栄紙工株式会社,,株式会社,東京都,板橋区,舟渡３丁目１７番２号,,13,119,1740041,,,2022-12-06,清算の結了等,,,2015-10-05,1,,,,,シンエイシコウ,0
1898,8011602000305,登記記録の閉鎖等,0,2022-12-08,2022-12-06,アールシー電材有限会社,,有限会社,東京都,練馬区,練馬４丁目２番１７号,,13,120,1760001,,,2022-12-06,清算の結了等,,,2015-10-05,1,,,,,アールシーデンザイ,0
1902,8011801036323,登記記録の閉鎖等,0,2022-12-08,2022-12-05,株式会社エムジェイスカイ,,株式会社,東京都,足立区,中央本町２丁目１４番１７－４０７号,,13,121,1200011,,,2022-12-05,清算の結了等,,,2019-07-03,1,"MJSKY, Inc.",Tokyo,"2-14-17-407, Chuohoncho, Adachi ku",,エムジェイスカイ,0
1905,8011802002068,登記記録の閉鎖等,0,2022-12-08,2022-12-06,有限会社川治電業,,有限会社,東京都,足立区,綾瀬７丁目１７番９号,,13,121,1200005,,,2022-12-06,清算の結了等,,,2015-10-05,1,,,,,カワチデンギョウ,0
1907,8012401001997,登記記録の閉鎖等,0,2022-12-08,2022-11-29,株式会社エフセン,,株式会社,東京都,国分寺市,東恋ヶ窪４丁目１５番３号,,13,214,1850014,,,2022-11-29,清算の結了等,,,2015-10-05,1,,,,,エフセン,0
1908,8012403005071,登記記録の閉鎖等,0,2022-12-08,2022-12-05,合同会社エブリー,,合同会社,東京都,三鷹市,井口３丁目１１－１２,,13,204,1810011,,,2022-12-05,清算の結了等,,,2021-10-18,1,,,,,エブリー,0
1909,8012403005419,登記記録の閉鎖等,0,2022-12-08,2022-12-06,合同会社うっしーふぁーむ,,合同会社,東京都,狛江市,猪方３丁目２４番１６号,,13,219,2010015,,,2022-12-06,清算の結了等,,,2022-06-08,1,,,,,ウッシーファーム,0
1918,8021001012082,登記記録の閉鎖等,0,2022-12-08,2022-12-02,株式会社小橋住宅製作所,,株式会社,神奈川県,相模原市中央区,淵野辺４丁目１９番１８号,,14,152,2520206,,,2022-12-02,清算の結了等,,,2015-10-05,1,,,,,コバシジュウタクセイサクショ,0
1922,8021002050858,登記記録の閉鎖等,0,2022-12-08,2022-12-02,有限会社足立動物病院,,有限会社,神奈川県,小田原市,上新田１４番地,,14,206,2500877,,,2022-12-02,清算の結了等,,,2015-10-05,1,,,,,アダチドウブツビョウイン,0
1928,8030002073406,登記記録の閉鎖等,0,2022-12-08,2022-12-01,有限会社斉藤土建,,有限会社,埼玉県,川越市,大字渋井１６４番地１２,,11,201,3500013,,,2022-12-01,清算の結了等,,,2015-10-05,1,,,,,,0
1931,8040001036338,登記記録の閉鎖等,0,2022-12-08,2022-12-02,トキワパック株式会社,,株式会社,千葉県,市川市,北方町４丁目１９４８番地８８Ｂ号室,,12,203,2720811,,,2022-12-02,清算の結了等,,,2015-10-05,1,,,,,トキワパック,0
1949,8110001031331,登記記録の閉鎖等,0,2022-12-08,2022-12-06,株式会社アンジュール,,株式会社,新潟県,新潟市南区,堀掛４６５番地１,,15,106,9501422,,,2022-12-06,清算の結了等,,,2016-03-10,1,,,,,アンジュール,0
1952,8110002001127,登記記録の閉鎖等,0,2022-12-08,2022-12-06,有限会社駅のれん街,,有限会社,新潟県,新潟市中央区,鐙西２丁目３５番４０号,,15,103,9500915,,,2022-12-06,清算の結了等,,,2015-10-05,1,,,,,エキノレンガイ,0
1958,8120001095813,登記記録の閉鎖等,0,2022-12-08,2022-12-05,株式会社ミヤコメディカル,,株式会社,大阪府,大阪市西区,北堀江１丁目２０番１３号,,27,106,5500014,,,2022-12-05,清算の結了等,,,2015-10-05,1,,,,,ミヤコメディカル,0
1964,8120001241094,登記記録の閉鎖等,0,2022-12-08,2022-12-06,株式会社グロウフル,,株式会社,大阪府,豊中市,東豊中町４丁目１番４５－３１８号,,27,203,5600003,,,2022-12-06,清算の結了等,,,2021-10-12,1,,,,,グロウフル,0
1982,8122002011105,登記記録の閉鎖等,0,2022-12-08,2022-12-06,有限会社関西テクノサービス,,有限会社,大阪府,大東市,平野屋２丁目２番８号,,27,218,5740022,,,2022-12-06,清算の結了等,,,2015-10-05,1,,,,,カンサイテクノサービス,0
1987,8140001099770,登記記録の閉鎖等,0,2022-12-08,2022-12-01,株式会社Ｋ－４,,株式会社,兵庫県,神戸市東灘区,住吉本町１丁目１１番１０－４０６号,,28,101,6580051,,,2022-12-01,合併による解散等,5140001100887,令和４年１２月１日神戸市東灘区住吉本町一丁目１１番１０－４０６号株式会社Ｋ－５（5140001100887）に合併し解散,2015-10-22,1,,,,,ケイフォー,0
2002,8180002031778,登記記録の閉鎖等,0,2022-12-08,2022-12-01,有限会社中名ビルデイング,,有限会社,愛知県,名古屋市中区,門前町３番２９号,,23,106,4600018,,,2022-12-01,合併による解散等,6180001039188,令和４年１２月１日名古屋市中区門前町３番２９号株式会社中埜（6180001039188）に合併し解散,2015-10-05,1,,,,,チュウメイビルデイング,0
2015,8200005001239,登記記録の閉鎖等,0,2022-12-08,2022-12-07,日中岐北協同組合,,その他の設立登記法人,岐阜県,岐阜市,大洞１丁目１番１６号,,21,201,5013124,,,2022-12-07,清算の結了等,,,2015-10-05,1,,,,,,0
2020,8260001030013,登記記録の閉鎖等,0,2022-12-08,2022-12-07,エムエナジー株式会社,,株式会社,岡山県,岡山市中区,海吉１１６５番地２,,33,102,7038261,,,2022-12-07,清算の結了等,,,2016-09-27,1,,,,,,0
2021,8270005004417,登記記録の閉鎖等,0,2022-12-08,2022-12-01,神倉生産森林組合,,その他の設立登記法人,鳥取県,東伯郡三朝町,大字神倉６４番地,,31,364,6820142,,,2022-12-01,清算の結了等,,,2015-10-05,1,,,,,カンノクラ,0
2047,8370005002121,登記記録の閉鎖等,0,2022-12-08,2022-12-05,特定非営利活動法人ぴっぱらネット,,その他の設立登記法人,宮城県,仙台市若林区,中倉２丁目１番１３－２０４号,,04,103,9840821,,,2022-12-05,清算の結了等,,,2015-10-05,1,,,,,ピッパラネット,0
2053,8390001015488,登記記録の閉鎖等,0,2022-12-08,2022-12-02,株式会社Ｌａｕｇｈ,,株式会社,山形県,酒田市,こがね町２丁目１番地の３３,,06,204,9980852,,,2022-12-02,合併による解散等,6390001007198,令和４年１２月１日山形県東田川郡庄内町狩川字水除４番地１株式会社テイアール（6390001007198）に合併し解散,2018-10-26,1,,,,,ラフ,0
2077,9010401068148,登記記録の閉鎖等,0,2022-12-08,2022-12-06,株式会社スケドーナ,,株式会社,東京都,港区,港南４丁目６番１号,,13,103,1080075,,,2022-12-06,清算の結了等,,,2015-10-05,1,,,,,スケドーナ,0
2091,9010701009842,登記記録の閉鎖等,0,2022-12-08,2022-12-06,株式会社山田紘子建築設計事務所,,株式会社,東京都,品川区,上大崎２丁目２４番１１号－２－７０１号,,13,109,1410021,,,2022-12-06,清算の結了等,,,2015-10-05,1,,,,,ヤマダヒロコケンチクセッケイジムショ,0
2100,9011001066054,登記記録の閉鎖等,0,2022-12-08,2022-12-05,ＦＯＵＲＮＩＮＥ　ＮＥＴＷＯＲＫ株式会社,,株式会社,東京都,渋谷区,神宮前３丁目４２番７号,,13,113,1500001,,,2022-12-05,清算の結了等,,,2015-10-05,1,,,,,フォーナインネットワーク,0
2106,9011002007370,登記記録の閉鎖等,0,2022-12-08,2022-12-02,有限会社ベル・クリエイト,,有限会社,東京都,渋谷区,神宮前４丁目２８番２２号,,13,113,1500001,,,2022-12-02,合併による解散等,9011002013492,令和４年１２月１日東京都渋谷区神宮前四丁目２８番２２号株式会社ベル・ユニオン（9011002013492）に合併し解散,2015-10-05,1,,,,,ベルクリエイト,0
2109,9011101052672,登記記録の閉鎖等,0,2022-12-08,2022-12-01,株式会社ＣＦＭ,,株式会社,東京都,港区,三田１丁目６番３号シティタワー麻布十番１３１５号,,13,103,1080073,,,2022-12-01,清算の結了等,,,2015-10-05,1,,,,,シーエフエム,0
2115,9011102023433,登記記録の閉鎖等,0,2022-12-08,2022-12-05,有限会社ＧＡＲＡＧＥ　Ｄ・Ｏ・Ｇ,,有限会社,東京都,新宿区,西早稲田３丁目３０番８号,,13,104,1690051,,,2022-12-05,清算の結了等,,,2015-10-05,1,,,,,,0
2133,9020001021704,登記記録の閉鎖等,0,2022-12-08,2022-12-05,株式会社細田鉄工所,,株式会社,神奈川県,横浜市港北区,新羽町１２４９番地,,14,109,2230057,,,2022-12-05,清算の結了等,,,2015-10-05,1,,,,,ホソダテッコウジョ,0
2151,9030001061930,登記記録の閉鎖等,0,2022-12-08,2022-12-01,イースペース株式会社,,株式会社,埼玉県,鴻巣市,栄町２番１２号,,11,217,3650055,,,2022-12-01,合併による解散等,9360001010334,令和４年１２月１日埼玉県鴻巣市栄町２番１２号株式会社エルスペース（9360001010334）に合併し解散,2015-10-05,1,,,,,イースペース,0
2156,9030002008823,登記記録の閉鎖等,0,2022-12-08,2022-12-05,有限会社谷口製作所,,有限会社,埼玉県,さいたま市見沼区,大字御蔵１２０番地の２,,11,104,3370033,,,2022-12-05,清算の結了等,,,2015-10-05,1,,,,,タニグチセイサクジョ,0
2169,9040001086068,登記記録の閉鎖等,0,2022-12-08,2022-12-01,株式会社Ｔ－Ｂｒａｎｄ,,株式会社,千葉県,香取市,大戸川１０番地１,,12,236,2870054,,,2022-12-01,清算の結了等,,,2015-10-05,1,,,,,ティーブランド,0
2186,9080005003817,登記記録の閉鎖等,0,2022-12-08,2022-12-07,特定非営利活動法人日中環境経済センター,,その他の設立登記法人,静岡県,静岡市葵区,羽鳥３丁目７番１７号,,22,101,4211215,,,2022-12-07,清算の結了等,,,2015-10-05,1,,,,,ニッチュウカンキョウケイザイセンター,0
2187,9080101020039,登記記録の閉鎖等,0,2022-12-08,2022-12-06,株式会社大島電業社,,株式会社,静岡県,富士市,大淵４１番地の１２,,22,210,4170801,,,2022-12-06,清算の結了等,,,2017-09-04,1,,,,,,0
2215,9120001227539,登記記録の閉鎖等,0,2022-12-08,2022-12-06,ネクストメディアパートナーズ株式会社,,株式会社,大阪府,大阪市中央区,道頓堀１丁目１番９号豊栄ビル５Ｆ,,27,128,5420071,,,2022-12-06,清算の結了等,,,2020-03-03,1,,,,,ネクストメディアパートナーズ,0
2227,9120101041328,登記記録の閉鎖等,0,2022-12-08,2022-12-05,河仲建設株式会社,,株式会社,大阪府,和泉市,和気町１丁目１０番６号,,27,219,5940073,,,2022-12-05,清算の結了等,,,2015-10-05,1,,,,,カワナカケンセツ,0
2259,9180002075171,登記記録の閉鎖等,0,2022-12-08,2022-12-02,有限会社タカギサプライ,,有限会社,愛知県,犬山市,上坂町５丁目９７番地,,23,215,4840059,,,2022-12-02,清算の結了等,,,2015-10-05,1,,,,,タカギサプライ,0
2272,9250002005699,登記記録の閉鎖等,0,2022-12-08,2022-12-05,有限会社松島ビル,,有限会社,山口県,宇部市,松島町１８番１５号,,35,202,7550042,,,2022-12-05,清算の結了等,,,2015-10-05,1,,,,,マツシマビル,0
2273,9280002005721,登記記録の閉鎖等,0,2022-12-08,2022-12-06,有限会社ダスキン出雲,,有限会社,島根県,出雲市,浜町２１７３番地２,,32,203,6930054,,,2022-12-06,清算の結了等,,,2015-10-05,1,,,,,ダスキンイズモ,0
2285,9290003012121,登記記録の閉鎖等,0,2022-12-08,2022-12-05,合同会社福岡県障がい者就労支援センター,,合同会社,福岡県,大野城市,白木原２丁目５番２５号,,40,219,8160943,,,2022-12-05,清算の結了等,,,2022-02-03,1,,,,,フクオカケンショウガイシャシュウロウシエンセンター,0
2292,9330005004104,登記記録の閉鎖等,0,2022-12-08,2022-11-30,医療法人社団好生会,,その他の設立登記法人,熊本県,玉名市,立願寺１８９番地１,,43,206,8650061,,,2022-11-30,清算の結了等,,,2015-10-05,1,,,,,コウセイカイ,0
2293,9340001008371,登記記録の閉鎖等,0,2022-12-08,2022-12-05,株式会社サンライズ精工,,株式会社,鹿児島県,霧島市,隼人町松永２１８８番地１,,46,218,8995112,,,2022-12-05,合併による解散等,2120001021304,令和４年１２月１日大阪市平野区加美北六丁目１５番１４号ハシダ技研工業株式会社（2120001021304）に合併し解散,2015-10-05,1,,,,,サンライズセイコウ,0
2297,9350002007025,登記記録の閉鎖等,0,2022-12-08,2022-12-06,有限会社上床建設,,有限会社,宮崎県,東諸県郡国富町,大字本庄５８４０番地４,,45,382,8801101,,,2022-12-06,清算の結了等,,,2015-10-05,1,,,,,ウエトコケンセツ,0
2298,9360001009368,登記記録の閉鎖等,0,2022-12-08,2022-12-01,株式会社ユンタンザ,,株式会社,沖縄県,中頭郡読谷村,字高志保１０４６番地,,47,324,9040323,,,2022-12-01,清算の結了等,,,2015-10-05,1,,,,,ユンタンザ,0
2314,9400001013142,登記記録の閉鎖等,0,2022-12-08,2022-12-02,株式会社ミカワマネージメント,,株式会社,岩手県,久慈市,川貫第７地割２８番地３０,,03,207,0280082,,,2022-12-02,清算の結了等,,,2016-04-12,1,,,,,ミカワマネージメント,0
