sequenceNumber,corporateNumber,process,correct,updateDate,changeDate,name,nameImageId,kind,prefectureName,cityName,streetNumber,addressImageId,prefectureCode,cityCode,postCode,addressOutside,addressOutsideImageId,closeDate,closeCause,successorCorporateNumber,changeCause,assignmentDate,latest,enName,enPrefectureName,enCityName,enAddressOutside,furigana,hihyoji
11,1010001247613,新規,0,2024-08-27,2024-08-27,株式会社ｅｌＶａｌｕｅ,,株式会社,東京都,千代田区,丸の内１丁目８番３号丸の内トラストタワー本館２０階,,13,101,1000005,,,,,,,2024-08-27,1,,,,,エルバリュー,0
14,1010003044653,新規,0,2024-08-27,2024-08-27,都村合同会社,,合同会社,東京都,千代田区,外神田３丁目７－２ラティスデュオ末広４０２号,,13,101,1010021,,,,,,,2024-08-27,1,,,,,ツムラ,0
15,1010003044694,新規,0,2024-08-27,2024-08-27,合同会社Ｍｏｆｆｙ,,合同会社,東京都,中央区,晴海５丁目６－６－８０２,,13,102,1040053,,,,,,,2024-08-27,1,,,,,モフィー,0
16,1010003044728,新規,0,2024-08-27,2024-08-27,ＧＮＯ合同会社,,合同会社,東京都,中央区,銀座１丁目１２－４Ｎ＆ＥＢＬＤ．７階,,13,102,1040061,,,,,,,2024-08-27,1,,,,,ジーエヌオー,0
19,1010005038645,新規,0,2024-08-27,2024-08-27,一般社団法人国際ＥＳＧサステナビリティ炭素管理協会,,その他の設立登記法人,東京都,中央区,銀座６丁目６番１号銀座風月堂５Ｆ,,13,102,1040061,,,,,,,2024-08-27,1,,,,,コクサイイーエスジーサステナビリティタンソカンリキョウカイ,0
24,1010401184514,新規,0,2024-08-27,2024-08-27,株式会社ニューテクノロジー,,株式会社,東京都,港区,新橋１丁目１６番９号,,13,103,1050004,,,,,,,2024-08-27,1,,,,,ニューテクノロジー,0
25,1010401184670,新規,0,2024-08-27,2024-08-27,株式会社中井メディカルソリューション,,株式会社,東京都,港区,海岸３丁目２番３－９０６号,,13,103,1080022,,,,,,,2024-08-27,1,,,,,ナカイメディカルソリューション,0
26,1010401184679,新規,0,2024-08-27,2024-08-27,株式会社Ｃｏｌｌａｂｏｒａｔｅ,,株式会社,東京都,港区,六本木７丁目７番７号Ｔｒｉ－ＳｅｖｅｎＲｏｐｐｏｎｇｉ８階,,13,103,1060032,,,,,,,2024-08-27,1,,,,,コラボレート,0
27,1010401184695,新規,0,2024-08-27,2024-08-27,株式会社ＦＭＣＰ,,株式会社,東京都,港区,赤坂３丁目６番１７号東洋グリーン赤坂ビル１階,,13,103,1070052,,,,,,,2024-08-27,1,,,,,エフエムシーピー,0
28,1010401184720,新規,0,2024-08-27,2024-08-27,株式会社ＭＥＤＩＳＯＮ,,株式会社,東京都,港区,芝１丁目９番９号,,13,103,1050014,,,,,,,2024-08-27,1,,,,,メディソン,0
29,1010401184761,新規,0,2024-08-27,2024-08-27,ボド・メラー・ケミー・ジャパン株式会社,,株式会社,東京都,港区,六本木６丁目１０番１号,,13,103,1060032,,,,,,,2024-08-27,1,,,,,ボドメラーケミージャパン,0
32,1010403033306,新規,0,2024-08-27,2024-08-27,みつばち１０２合同会社,,合同会社,東京都,港区,浜松町２丁目２番１５号,,13,103,1050013,,,,,,,2024-08-27,1,,,,,ミツバチワンゼロツー,0
33,1010405023494,新規,0,2024-08-27,2024-08-27,Ｃａｎａｌ　Ｓｉｄｅ特定目的会社,,その他の設立登記法人,東京都,港区,西新橋１丁目２２番５号６階,,13,103,1050003,,,,,,,2024-08-27,1,,,,,カナルサイド,0
34,1010405023503,新規,0,2024-08-27,2024-08-27,Ｐｅｒｇａｍｏｎ一般社団法人,,その他の設立登記法人,東京都,港区,西新橋１丁目１番１号ＥＰコンサルティングサービス内,,13,103,1050003,,,,,,,2024-08-27,1,,,,,ペルガモン,0
36,1010601065811,新規,0,2024-08-27,2024-08-27,株式会社来幸企画,,株式会社,東京都,墨田区,太平２丁目１８番１０号,,13,107,1300012,,,,,,,2024-08-27,1,,,,,ライコウキカク,0
37,1010601065828,新規,0,2024-08-27,2024-08-27,株式会社ティーアイパートナーズ,,株式会社,東京都,墨田区,亀沢３丁目６番６号コンフォルト両国７０２,,13,107,1300014,,,,,,,2024-08-27,1,,,,,ティーアイパートナーズ,0
39,1010603011037,新規,0,2024-08-27,2024-08-27,合同会社おにぎり,,合同会社,東京都,江東区,東陽４丁目７番１０号－２２３,,13,108,1350016,,,,,,,2024-08-27,1,,,,,オニギリ,0
53,1011001164237,新規,0,2024-08-27,2024-08-27,株式会社Ｃａｌｍ　Ｎｅｓｔ,,株式会社,東京都,渋谷区,恵比寿１丁目１８番１６号恵比寿東海マンション９０４,,13,113,1500013,,,,,,,2024-08-27,1,,,,,カムネスト,0
54,1011001164245,新規,0,2024-08-27,2024-08-27,株式会社ＹＯＬＯ　ＤＩＡＭＯＮＤ,,株式会社,東京都,渋谷区,渋谷２丁目１４番１３号岡崎ビル５０７号室,,13,113,1500002,,,,,,,2024-08-27,1,,,,,ヨロダイヤモンド,0
56,1011003019876,新規,0,2024-08-27,2024-08-27,オフィスＲＥＮＯ合同会社,,合同会社,東京都,渋谷区,道玄坂１丁目１０－８渋谷道玄坂東急ビル２Ｆ－Ｃ,,13,113,1500043,,,,,,,2024-08-27,1,,,,,オフィスリノ,0
57,1011003019884,新規,0,2024-08-27,2024-08-27,コレガーレＲ．Ｔ．Ｋ合同会社,,合同会社,東京都,目黒区,緑が丘２丁目１９番２０号,,13,110,1520034,,,,,,,2024-08-27,1,,,,,コレガーレアールティーケイ,0
62,1011101108226,新規,0,2024-08-27,2024-08-27,株式会社まっさき,,株式会社,東京都,新宿区,新宿２丁目１２番１３号新宿アントレサロンビル２階,,13,104,1600022,,,,,,,2024-08-27,1,,,,,マッサキ,0
70,1011601028015,新規,0,2024-08-27,2024-08-27,ＨＩＫＡＲＩ　ＪＡＰＡＮ株式会社,,株式会社,東京都,練馬区,高野台１丁目８番２－４０９号,,13,120,1770033,,,,,,,2024-08-27,1,,,,,ヒカリジャパン,0
75,1012305002099,新規,0,2024-08-27,2024-08-27,特定非営利活動法人技道會,,その他の設立登記法人,東京都,町田市,矢部町２７５３番地１,,13,209,1940214,,,,,,,2024-08-27,1,,,,,ギドウカイ,0
87,1020001158883,新規,0,2024-08-27,2024-08-27,ＪＡＰ株式会社,,株式会社,神奈川県,横浜市中区,桜木町１丁目１０１番地１クロスゲート７階,,14,104,2310062,,,,,,,2024-08-27,1,,,,,ジェイエーピー,0
90,1020003026766,新規,0,2024-08-27,2024-08-27,合同会社モージャン,,合同会社,神奈川県,川崎市川崎区,小田栄１丁目２番１１号,,14,131,2100843,,,,,,,2024-08-27,1,,,,,モージャン,0
91,1020003026782,新規,0,2024-08-27,2024-08-27,合同会社ＰＲＤ,,合同会社,神奈川県,横浜市戸塚区,下倉田町１８２３番地１０,,14,110,2440815,,,,,,,2024-08-27,1,,,,,ポラド,0
96,1030001162109,新規,0,2024-08-27,2024-08-27,株式会社ＣｙＭａｘ,,株式会社,埼玉県,北足立郡伊奈町,大字小室４２６６番地１,,11,301,3620806,,,,,,,2024-08-27,1,,,,,サイマックス,0
103,1030003024991,新規,0,2024-08-27,2024-08-27,合同会社おひさま,,合同会社,埼玉県,北葛飾郡杉戸町,清地６丁目２４番１８号,,11,464,3450025,,,,,,,2024-08-27,1,,,,,オヒサマ,0
107,1040001135096,新規,0,2024-08-27,2024-08-27,アーブル株式会社,,株式会社,千葉県,船橋市,北本町１丁目２０番１－１１１１号,,12,204,2730864,,,,,,,2024-08-27,1,,,,,アーブル,0
108,1040001135105,新規,0,2024-08-27,2024-08-27,株式会社ＹＭＴＡＫ,,株式会社,千葉県,八千代市,米本１６７番地１,,12,221,2760015,,,,,,,2024-08-27,1,,,,,ワイエムティエーケー,0
109,1040001135121,新規,0,2024-08-27,2024-08-27,株式会社心友,,株式会社,千葉県,船橋市,東船橋３丁目４１番３号,,12,204,2730002,,,,,,,2024-08-27,1,,,,,シンユウ,0
110,1040001135138,新規,0,2024-08-27,2024-08-27,東洋国際クレーン日本株式会社,,株式会社,千葉県,八街市,八街い４９番地１２－１０１,,12,230,2891143,,,,,,,2024-08-27,1,,,,,トウヨウコクサイクレーンニホン,0
113,1040003025683,新規,0,2024-08-27,2024-08-27,さくら合同会社,,合同会社,千葉県,佐倉市,井野１８０３－２６,,12,212,2850855,,,,,,,2024-08-27,1,,,,,サクラ,0
114,1040003025691,新規,0,2024-08-27,2024-08-27,合同会社ＢＯＲＴＥ,,合同会社,千葉県,山武郡九十九里町,真亀１２５７番地１０,,12,403,2830114,,,,,,,2024-08-27,1,,,,,ボルテ,0
128,1100003007733,新規,0,2024-08-27,2024-08-27,合同会社ブライト,,合同会社,長野県,長野市,大字金箱３７７番地,,20,201,3810007,,,,,,,2024-08-27,1,,,,,ブライト,0
136,1120001267996,新規,0,2024-08-27,2024-08-27,海豊株式会社,,株式会社,大阪府,大阪市東住吉区,照ケ丘矢田２丁目７番２号淘金ビルＣ号室,,27,121,5460021,,,,,,,2024-08-27,1,,,,,カイホウ,0
137,1120001268029,新規,0,2024-08-27,2024-08-27,科美商業株式会社,,株式会社,大阪府,大阪市西淀川区,姫島２丁目４番１０号パークアベニュー２階Ａ室,,27,113,5550033,,,,,,,2024-08-27,1,,,,,カビショウギョウ,0
138,1120001268045,新規,0,2024-08-27,2024-08-27,株式会社ピリ,,株式会社,大阪府,寝屋川市,高柳２丁目２１番３号,,27,215,5720051,,,,,,,2024-08-27,1,,,,,ピリ,0
143,1120003027333,新規,0,2024-08-27,2024-08-27,合同会社とらばさみ,,合同会社,大阪府,大阪市中央区,南船場４丁目１３－１７ＴＫビルディング３階,,27,128,5420081,,,,,,,2024-08-27,1,,,,,トラバサミ,0
144,1120003027374,新規,0,2024-08-27,2024-08-27,合同会社Ｕｉ　ｐｒｏｊｅｃｔ,,合同会社,大阪府,大阪市浪速区,元町２丁目９番１７号リンクハウス難波元町６０２号,,27,111,5560016,,,,,,,2024-08-27,1,,,,,ユーアイプロジェクト,0
150,1122001038394,新規,0,2024-08-27,2024-08-27,株式会社セプトサービス,,株式会社,大阪府,東大阪市,若江南町２丁目９番２４号,,27,227,5780943,,,,,,,2024-08-27,1,,,,,セプトサービス,0
152,1130001077734,新規,0,2024-08-27,2024-08-27,大川株式会社,,株式会社,京都府,京都市伏見区,深草下川原町５０番地４－１０２号室,,26,109,6128401,,,,,,,2024-08-27,1,,,,,オオガワ,0
157,1140001135623,新規,0,2024-08-27,2024-08-27,株式会社感性分析,,株式会社,兵庫県,三田市,中町７－３９,,28,219,6691527,,,,,,,2024-08-27,1,,,,,カンセイブンセキ,0
159,1160001026184,新規,0,2024-08-27,2024-08-27,株式会社ビワコメンテ,,株式会社,滋賀県,大津市,石山寺２丁目１３番７号,,25,201,5200861,,,,,,,2024-08-27,1,,,,,ビワコメンテ,0
168,1180001163018,新規,0,2024-08-27,2024-08-27,Ｒ興業株式会社,,株式会社,愛知県,江南市,村久野町中郷１８２番地２,,23,217,4838313,,,,,,,2024-08-27,1,,,,,アールコウギョウ,0
170,1180003027278,新規,0,2024-08-27,2024-08-27,合同会社やました,,合同会社,愛知県,稲沢市,高御堂１丁目２番１３号,,23,220,4928213,,,,,,,2024-08-27,1,,,,,ヤマシタ,0
171,1180005020743,新規,0,2024-08-27,2024-08-27,社会保険労務士法人ＦＲＯＧＳ,,その他の設立登記法人,愛知県,名古屋市天白区,原５丁目２１０１番地平針南住宅５棟１０３号,,23,116,4680015,,,,,,,2024-08-27,1,,,,,フロッグス,0
189,1280001009243,新規,0,2024-08-27,2024-08-27,株式会社ＳＯＬＯ,,株式会社,島根県,出雲市,大津町１１０２‐１５,,32,203,6930011,,,,,,,2024-08-27,1,,,,,ソロ,0
193,1290001106857,新規,0,2024-08-27,2024-08-27,オールイン不動産株式会社,,株式会社,福岡県,福岡市中央区,大名２丁目２番１－７０３号,,40,133,8100041,,,,,,,2024-08-27,1,,,,,オールインフドウサン,0
194,1290001107005,新規,0,2024-08-27,2024-08-27,株式会社ＳＵＳＨＩ　ＳＨＯ,,株式会社,福岡県,福岡市早良区,次郎丸４丁目３番２６号,,40,137,8140165,,,,,,,2024-08-27,1,,,,,スシショー,0
195,1290001107046,新規,0,2024-08-27,2024-08-27,株式会社Ｃｏｕｇａｒ,,株式会社,福岡県,福岡市中央区,天神２丁目２番１２号Ｔ＆Ｊビルディング７Ｆ,,40,133,8100001,,,,,,,2024-08-27,1,,,,,クーガー,0
196,1290001107054,新規,0,2024-08-27,2024-08-27,株式会社Ｌ’ａｎｃｏｒａ,,株式会社,福岡県,福岡市中央区,大名２丁目１０番３９号,,40,133,8100041,,,,,,,2024-08-27,1,,,,,ランコラ,0
199,1290003015734,新規,0,2024-08-27,2024-08-27,合同会社ＣＯＮＮＥＣＴ　ＳＴＡＧＥ,,合同会社,福岡県,福岡市博多区,博多駅東２丁目５番２８号博多偕成ビル２階,,40,132,8120013,,,,,,,2024-08-27,1,,,,,コネクトステージ,0
201,1330001032405,新規,0,2024-08-27,2024-08-27,株式会社熊本電算,,株式会社,熊本県,八代市,黄金町１８番地４,,43,202,8660845,,,,,,,2024-08-27,1,,,,,クマモトデンサン,0
204,1340001026760,新規,0,2024-08-27,2024-08-27,株式会社クリーンジャパン,,株式会社,鹿児島県,鹿児島市,西陵６丁目５番１１号,,46,201,8900032,,,,,,,2024-08-27,1,,,,,クリーンジャパン,0
217,1430001092554,新規,0,2024-08-27,2024-08-27,株式会社れあ,,株式会社,北海道,札幌市豊平区,平岸三条１０丁目１番３１－３０５号,,01,105,0620933,,,,,,,2024-08-27,1,,,,,レア,0
220,1430003016718,新規,0,2024-08-27,2024-08-27,合同会社真結氣,,合同会社,北海道,恵庭市,中島町６丁目１２番地６,,01,231,0611435,,,,,,,2024-08-27,1,,,,,シンユウキ,0
221,1430003016734,新規,0,2024-08-27,2024-08-27,合同会社ｇｒｏｗｕｐ,,合同会社,北海道,札幌市中央区,南十四条西１丁目２番２０号,,01,101,0640914,,,,,,,2024-08-27,1,,,,,グロウアップ,0
226,1500001025845,新規,0,2024-08-27,2024-08-27,株式会社Ｂ＆Ｍ　ｓｐｏｒｔｓ,,株式会社,愛媛県,松山市,北土居２丁目１番５１号,,38,201,7911104,,,,,,,2024-08-27,1,,,,,ビーアンドエムスポーツ,0
231,2010001247570,新規,0,2024-08-27,2024-08-27,株式会社Ｇｕｆｆａｗ,,株式会社,東京都,中央区,銀座１丁目１２番４号Ｎ＆Ｅ・ＢＬＤ．７階,,13,102,1040061,,,,,,,2024-08-27,1,,,,,ガフォー,0
232,2010001247736,新規,0,2024-08-27,2024-08-27,株式会社デジタルトレンド,,株式会社,東京都,中央区,銀座１丁目１２番４号Ｎ＆ＥＢＬＤ．７階,,13,102,1040061,,,,,,,2024-08-27,1,,,,,デジタルトレンド,0
233,2010001247752,新規,0,2024-08-27,2024-08-27,株式会社ＴＦＦ,,株式会社,東京都,中央区,銀座８丁目８番５号陽栄銀座ビル７階,,13,102,1040061,,,,,,,2024-08-27,1,,,,,ティーエフエフ,0
235,2010003044660,新規,0,2024-08-27,2024-08-27,ＴＦＪ９合同会社,,合同会社,東京都,中央区,新川１丁目１７番１８号,,13,102,1040033,,,,,,,2024-08-27,1,,,,,ティーエフジェイナイン,0
236,2010005038669,新規,0,2024-08-27,2024-08-27,司法書士法人日本橋パートナーズ,,その他の設立登記法人,東京都,中央区,日本橋２丁目９番４号日本橋オフィスビル３階,,13,102,1030027,,,,,,,2024-08-27,1,,,,,ニホンバシパートナーズ,0
243,2010401184694,新規,0,2024-08-27,2024-08-27,株式会社エクステンドプロダクション,,株式会社,東京都,港区,赤坂２丁目５番８号ヒューリックＪＰ赤坂ビル,,13,103,1070052,,,,,,,2024-08-27,1,,,,,エクステンドプロダクション,0
248,2010403033222,新規,0,2024-08-27,2024-08-27,合同会社ｉｃｅｂｅｒｇ　Ｃｏｎｓｕｌｔａｎｃｙ,,合同会社,東京都,港区,北青山１丁目３－１アールキューブ青山３階,,13,103,1070061,,,,,,,2024-08-27,1,,,,,アイスバーグコンサルタンシー,0
249,2010405023502,新規,0,2024-08-27,2024-08-27,Ａｌｂｉ特定目的会社,,その他の設立登記法人,東京都,港区,西新橋１丁目１番１号ＥＰコンサルティングサービス内,,13,103,1050003,,,,,,,2024-08-27,1,,,,,,0
254,2010601065819,新規,0,2024-08-27,2024-08-27,騰達株式会社,,株式会社,東京都,江東区,石島１４番地１,,13,108,1350014,,,,,,,2024-08-27,1,,,,,,0
255,2010601065827,新規,0,2024-08-27,2024-08-27,株式会社アルキミア,,株式会社,東京都,墨田区,亀沢３丁目５番１号,,13,107,1300014,,,,,,,2024-08-27,1,,,,,アルキミア,0
258,2010701046462,新規,0,2024-08-27,2024-08-27,株式会社Ｐｒｏｄｕｃｅ　Ｌａｂ,,株式会社,東京都,品川区,上大崎３丁目２番１号,,13,109,1410021,,,,,,,2024-08-27,1,,,,,プロデュースラボ,0
273,2011001164277,新規,0,2024-08-27,2024-08-27,株式会社フォーティー,,株式会社,東京都,渋谷区,恵比寿１丁目６番３号,,13,113,1500013,,,,,,,2024-08-27,1,,,,,フォーティー,0
275,2011003019891,新規,0,2024-08-27,2024-08-27,文筆調香合同会社,,合同会社,東京都,渋谷区,神宮前６丁目２３番４号桑野ビル２階,,13,113,1500001,,,,,,,2024-08-27,1,,,,,ブンピツチョウコウ,0
278,2011101108588,新規,0,2024-08-27,2024-08-27,株式会社ジェイ・ケイ・アイ,,株式会社,東京都,新宿区,下宮比町１番４号,,13,104,1620822,,,,,,,2024-08-27,1,,,,,ジェイケイアイ,0
283,2011501031084,新規,0,2024-08-27,2024-08-27,株式会社ＰｉＰｉ清掃,,株式会社,東京都,荒川区,荒川３丁目３８番８号,,13,118,1160002,,,,,,,2024-08-27,1,,,,,ピピセイソウ,0
284,2011603004434,新規,0,2024-08-27,2024-08-27,合同会社スール・アン・ニアージュ,,合同会社,東京都,練馬区,豊玉北４丁目４－７フェリーチェ豊玉北１０２,,13,120,1760012,,,,,,,2024-08-27,1,,,,,スールアンニアージュ,0
286,2012301014056,新規,0,2024-08-27,2024-08-27,株式会社ＨＡＮＡＮＯコンサルティング,,株式会社,東京都,町田市,鶴川４丁目１２番地３,,13,209,1950061,,,,,,,2024-08-27,1,,,,,ハナノコンサルティング,0
287,2012401042213,新規,0,2024-08-27,2024-08-27,株式会社ＫＲＥＯ,,株式会社,東京都,狛江市,東和泉２丁目１４番５０号グランシャリオＡ棟１０３,,13,219,2010014,,,,,,,2024-08-27,1,,,,,クレオ,0
288,2013301053044,新規,0,2024-08-27,2024-08-27,日本康和堂株式会社,,株式会社,東京都,豊島区,池袋３丁目４７－７池袋サンエイハイツ２０３,,13,116,1710014,,,,,,,2024-08-27,1,,,,,ニホンコウワドウ,0
289,2020001158544,新規,0,2024-08-27,2024-08-27,株式会社Ｋ,,株式会社,神奈川県,横浜市旭区,今宿１丁目２５番８号,,14,112,2410817,,,,,,,2024-08-27,1,,,,,ケー,0
290,2020001158610,新規,0,2024-08-27,2024-08-27,株式会社リハコ,,株式会社,神奈川県,川崎市多摩区,南生田２丁目１３番１９号,,14,135,2140036,,,,,,,2024-08-27,1,,,,,リハコ,0
291,2020001158619,新規,0,2024-08-27,2024-08-27,株式会社ＪＯｏａｋ,,株式会社,神奈川県,横浜市南区,井土ケ谷中町１５８番地４－３０５号室,,14,105,2320052,,,,,,,2024-08-27,1,,,,,ジェイオーク,0
292,2020001158825,新規,0,2024-08-27,2024-08-27,株式会社三共総業,,株式会社,神奈川県,横浜市南区,三春台１２０番地ロイヤルヒルズ１、３０４,,14,105,2320002,,,,,,,2024-08-27,1,,,,,サンキョウソウギョウ,0
293,2020001158940,新規,0,2024-08-27,2024-08-27,ＲＥＡＤ株式会社,,株式会社,神奈川県,横浜市港北区,新横浜１丁目１２番地１３ノブレス新横浜エスアリーナ６０６,,14,109,2220033,,,,,,,2024-08-27,1,,,,,リード,0
294,2020003026765,新規,0,2024-08-27,2024-08-27,誠一合同会社,,合同会社,神奈川県,川崎市中原区,上新城２丁目７番１号セシーズイシイ７－４０７,,14,133,2110045,,,,,,,2024-08-27,1,,,,,セイイチ,0
295,2020003026781,新規,0,2024-08-27,2024-08-27,合同会社ＫＭＹＲ,,合同会社,神奈川県,横浜市港北区,日吉本町４丁目２７番２１号,,14,109,2230062,,,,,,,2024-08-27,1,,,,,ケーエムワイアール,0
306,2030001162149,新規,0,2024-08-27,2024-08-27,エスジーパートナー株式会社,,株式会社,埼玉県,川口市,長蔵１丁目１７番４号グランドグレース１階,,11,203,3330807,,,,,,,2024-08-27,1,,,,,エスジーパートナー,0
309,2040001135104,新規,0,2024-08-27,2024-08-27,東木株式会社,,株式会社,千葉県,松戸市,東平賀５１９－８北小金第１３レジデンス２０２号,,12,207,2700003,,,,,,,2024-08-27,1,,,,,トウキ,0
310,2040001135112,新規,0,2024-08-27,2024-08-27,株式会社さちこ造園,,株式会社,千葉県,山武郡九十九里町,不動堂８２４番地２２,,12,403,2830113,,,,,,,2024-08-27,1,,,,,サチコゾウエン,0
311,2040001135137,新規,0,2024-08-27,2024-08-27,東洋の光株式会社,,株式会社,千葉県,市原市,姉崎５７２－３ＩＮＣＯｆｆｉｃｅ姉崎２０９号室,,12,219,2990111,,,,,,,2024-08-27,1,,,,,トウヨウノヒカリ,0
315,2040003025674,新規,0,2024-08-27,2024-08-27,合同会社つむぎ,,合同会社,千葉県,館山市,坂井２８４番地,,12,205,2940311,,,,,,,2024-08-27,1,,,,,ツムギ,0
316,2040003025682,新規,0,2024-08-27,2024-08-27,Ｓｔａｒ　Ｔｒａｎｓ合同会社,,合同会社,千葉県,千葉市稲毛区,小仲台２丁目６－１,,12,103,2630043,,,,,,,2024-08-27,1,,,,,スタートランス,0
319,2050001055326,新規,0,2024-08-27,2024-08-27,株式会社明信商事,,株式会社,茨城県,桜川市,真壁町丁谷貝１６５４番地,,08,231,3091200,,,,,,,2024-08-27,1,,,,,メイシンショウジ,0
333,2080103003130,新規,0,2024-08-27,2024-08-27,合同会社Ｏｆｆｉｃｅ　Ｋ,,合同会社,静岡県,伊東市,玖須美元和田７１６番地の６２９,,22,208,4140045,,,,,,,2024-08-27,1,,,,,オフィスケイ,0
334,2080401027401,新規,0,2024-08-27,2024-08-27,株式会社ケロデザイン,,株式会社,静岡県,浜松市中央区,有玉北町１００６番地の２,,22,138,4313121,,,,,,,2024-08-27,1,,,,,ケロデザイン,0
341,2100003007732,新規,0,2024-08-27,2024-08-27,合同会社デザインファームアンドリゾート,,合同会社,長野県,安曇野市,豊科高家６０４番地,,20,220,3998204,,,,,,,2024-08-27,1,,,,,デザインファームアンドリゾート,0
344,2110005017126,新規,0,2024-08-27,2024-08-27,特定非営利活動法人新潟湿地都市研究所,,その他の設立登記法人,新潟県,新潟市北区,朝日町３丁目２番１８号,,15,101,9503315,,,,,,,2024-08-27,1,,,,,ニイガタシッチトシケンキュウジョ,0
353,2120001268028,新規,0,2024-08-27,2024-08-27,まるや株式会社,,株式会社,大阪府,大阪市浪速区,芦原２丁目５番４０号,,27,111,5560029,,,,,,,2024-08-27,1,,,,,マルヤ,0
357,2120003027407,新規,0,2024-08-27,2024-08-27,テスロジスティクス合同会社,,合同会社,大阪府,大阪市淀川区,西中島６丁目１番１号,,27,123,5320011,,,,,,,2024-08-27,1,,,,,テスロジスティクス,0
360,2120103006013,新規,0,2024-08-27,2024-08-27,合同会社Ｒａｂｂｉｔｓ,,合同会社,大阪府,堺市美原区,多治井３８３,,27,147,5870012,,,,,,,2024-08-27,1,,,,,ラビッツ,0
366,2130001077808,新規,0,2024-08-27,2024-08-27,株式会社ＴＵＲＵ,,株式会社,京都府,久世郡久御山町,市田石橋１０番地２－１０７,,26,322,6130022,,,,,,,2024-08-27,1,,,,,ツウル,0
370,2140001135614,新規,0,2024-08-27,2024-08-27,株式会社丹波総合事務所,,株式会社,兵庫県,丹波市,氷上町新郷６６０番地,,28,223,6693571,,,,,,,2024-08-27,1,,,,,タンバソウゴウジムショ,0
371,2140001135622,新規,0,2024-08-27,2024-08-27,株式会社Ｅｍａｎｉ＆Ｃｏ．,,株式会社,兵庫県,神戸市中央区,二宮町１丁目１３番１３－８０１号,,28,110,6510093,,,,,,,2024-08-27,1,,,,,エマニアンドコー,0
373,2140003021003,新規,0,2024-08-27,2024-08-27,合同会社滝口不動産,,合同会社,兵庫県,神戸市中央区,元町通６丁目２番２－１５０２号,,28,110,6500022,,,,,,,2024-08-27,1,,,,,タキグチフドウサン,0
379,2160001026183,新規,0,2024-08-27,2024-08-27,株式会社Ｇｌｏｂａｌ　Ｆｏｒｅｓｔ,,株式会社,滋賀県,彦根市,馬場２丁目５－１７,,25,202,5220069,,,,,,,2024-08-27,1,,,,,グローバルフォレスト,0
391,2180001163017,新規,0,2024-08-27,2024-08-27,株式会社ＮＴコーポレーション,,株式会社,愛知県,名古屋市港区,川西通５丁目１３番地の３,,23,111,4550073,,,,,,,2024-08-27,1,,,,,エヌティーコーポレーション,0
392,2180001163025,新規,0,2024-08-27,2024-08-27,株式会社ＯＭＩ,,株式会社,愛知県,春日井市,下屋敷町字下屋敷１１８番地３,,23,206,4860906,,,,,,,2024-08-27,1,,,,,オーエムアイ,0
394,2180003027277,新規,0,2024-08-27,2024-08-27,合同会社ｓｔａｎｄ,,合同会社,愛知県,名古屋市中区,葵１丁目２２番１８号プレサンスジェネ新栄町駅前葵４０３号,,23,106,4600006,,,,,,,2024-08-27,1,,,,,スタンド,0
395,2180005020742,新規,0,2024-08-27,2024-08-27,一般社団法人日本湯灌協会,,その他の設立登記法人,愛知県,名古屋市中村区,上ノ宮町２丁目３１番地,,23,105,4530043,,,,,,,2024-08-27,1,,,,,ニホンユカンキョウカイ,0
397,2180301038991,新規,0,2024-08-27,2024-08-27,株式会社ａｔｅ,,株式会社,愛知県,豊橋市,天伯町字東沢１２３番地２,,23,201,4418122,,,,,,,2024-08-27,1,,,,,アテ,0
399,2180303006229,新規,0,2024-08-27,2024-08-27,合同会社アイデアテックスタジオ,,合同会社,愛知県,知立市,宝２丁目３－３２ＳｕｒｐｌｕｓＯｎｅ池田２０８,,23,225,4720056,,,,,,,2024-08-27,1,,,,,アイデアテックスタジオ,0
402,2200001042853,新規,0,2024-08-27,2024-08-27,株式会社ｂｅｅｌ,,株式会社,岐阜県,可児市,今渡１６１８番地３２,,21,214,5090207,,,,,,,2024-08-27,1,,,,,ビール,0
403,2200001042861,新規,0,2024-08-27,2024-08-27,ＩＫホールディングス株式会社,,株式会社,岐阜県,安八郡輪之内町,下大榑新田４８２番地の１,,21,382,5030206,,,,,,,2024-08-27,1,,,,,アイケイホールディングス,0
405,2200003006476,新規,0,2024-08-27,2024-08-27,太樹会合同会社,,合同会社,岐阜県,岐阜市,春近古市場北１１８番地,,21,201,5012524,,,,,,,2024-08-27,1,,,,,タイキカイ,0
411,2260001039398,新規,0,2024-08-27,2024-08-27,株式会社ＬＩＢＥＲＴＡ,,株式会社,岡山県,岡山市北区,田町１丁目１１－５三誠ビル２０５,,33,101,7000825,,,,,,,2024-08-27,1,,,,,リベルタ,0
419,2290001106872,新規,0,2024-08-27,2024-08-27,株式会社セルディビ,,株式会社,福岡県,福岡市博多区,下川端町３－１－１２０９博多リバレインリバーサイド,,40,132,8120027,,,,,,,2024-08-27,1,,,,,セルディビ,0
420,2290001106996,新規,0,2024-08-27,2024-08-27,株式会社オフィス・ミヤハラ,,株式会社,福岡県,久留米市,上津町１９８８番地１,,40,203,8300052,,,,,,,2024-08-27,1,,,,,オフィスミヤハラ,0
421,2290001107012,新規,0,2024-08-27,2024-08-27,株式会社ＦＵＮＡＲＩ,,株式会社,福岡県,福岡市博多区,立花寺２丁目２－３３,,40,132,8120862,,,,,,,2024-08-27,1,,,,,フナリ,0
422,2290001107053,新規,0,2024-08-27,2024-08-27,エナジーヴォルテックス株式会社,,株式会社,福岡県,福岡市博多区,板付５丁目１６番２４号,,40,132,8120888,,,,,,,2024-08-27,1,,,,,エナジーヴォルテックス,0
423,2290801030834,新規,0,2024-08-27,2024-08-27,Ｈａｒｒｙｓ　Ｇｒｏｕｐ株式会社,,株式会社,福岡県,北九州市八幡西区,折尾５丁目５番１５－１０１号,,40,109,8070825,,,,,,,2024-08-27,1,,,,,ハリーズグループ,0
425,2290803004828,新規,0,2024-08-27,2024-08-27,９Ｃａｐｉｔａｌ合同会社,,合同会社,福岡県,北九州市小倉北区,浅野３丁目８番１号,,40,106,8020001,,,,,,,2024-08-27,1,,,,,ナインキャピタル,0
429,2320001020681,新規,0,2024-08-27,2024-08-27,株式会社ヨツバ,,株式会社,大分県,大分市,高江西１丁目４３２３番地の２２,,44,201,8701117,,,,,,,2024-08-27,1,,,,,ヨツバ,0
434,2340003004581,新規,0,2024-08-27,2024-08-27,合同会社ＷＥＳＴ,,合同会社,鹿児島県,鹿児島市,宇宿１丁目２２番５号グランデ桜妃４０１号室,,46,201,8900073,,,,,,,2024-08-27,1,,,,,ウエスト,0
440,2420003002981,新規,0,2024-08-27,2024-08-27,合同会社ＶＩＤＡ　ｆｉｅｓｔａ,,合同会社,青森県,三戸郡五戸町,字古舘向２３番地５,,02,442,0391513,,,,,,,2024-08-27,1,,,,,ビダフィエスタ,0
444,2430003016733,新規,0,2024-08-27,2024-08-27,合同会社ノルテリア,,合同会社,北海道,札幌市西区,西町南１３丁目１－２０,,01,107,0630062,,,,,,,2024-08-27,1,,,,,ノルテリア,0
448,2500001025844,新規,0,2024-08-27,2024-08-27,株式会社ＴＧＴ不動産,,株式会社,愛媛県,松山市,久万ノ台２８３番地,,38,201,7918016,,,,,,,2024-08-27,1,,,,,ティージーティーフドウサン,0
454,3010001247751,新規,0,2024-08-27,2024-08-27,日本楽遊株式会社,,株式会社,東京都,文京区,白山１丁目６番４－２１０号,,13,105,1130001,,,,,,,2024-08-27,1,,,,,ニホンラクユウ,0
457,3010003044718,新規,0,2024-08-27,2024-08-27,合同会社ＭＡＮＮＩＳＨ,,合同会社,東京都,千代田区,神田司町２丁目２番８号,,13,101,1010048,,,,,,,2024-08-27,1,,,,,マニッシュ,0
466,3010401184297,新規,0,2024-08-27,2024-08-27,株式会社ヒフミ,,株式会社,東京都,港区,芝浦３丁目２０番７号,,13,103,1080023,,,,,,,2024-08-27,1,,,,,ヒフミ,0
467,3010401184520,新規,0,2024-08-27,2024-08-27,株式会社ＬｉｎｋＰｏｃｋｅｔ,,株式会社,東京都,港区,西麻布１丁目１２番３－６１０号,,13,103,1060031,,,,,,,2024-08-27,1,,,,,リンクポケット,0
468,3010401184693,新規,0,2024-08-27,2024-08-27,株式会社ＭＲＳ,,株式会社,東京都,港区,六本木５丁目１８番１９－２０９号グランメール六本木,,13,103,1060032,,,,,,,2024-08-27,1,,,,,マーズ,0
471,3010403033295,新規,0,2024-08-27,2024-08-27,みつばち２０１合同会社,,合同会社,東京都,港区,浜松町２丁目２番１５号,,13,103,1050013,,,,,,,2024-08-27,1,,,,,ミツバチツーゼロワン,0
473,3010405023501,新規,0,2024-08-27,2024-08-27,Ｐｅｒｇａｍｏｎ特定目的会社,,その他の設立登記法人,東京都,港区,西新橋１丁目１番１号ＥＰコンサルティングサービス内,,13,103,1050003,,,,,,,2024-08-27,1,,,,,ペルガモン,0
478,3010701046453,新規,0,2024-08-27,2024-08-27,株式会社かなもり,,株式会社,東京都,品川区,北品川４丁目１１番８号はるさめハイツ８０２,,13,109,1400001,,,,,,,2024-08-27,1,,,,,カナモリ,0
491,3011001164193,新規,0,2024-08-27,2024-08-27,株式会社ｉｎ　ｔｈｅ　ｆｏｇ,,株式会社,東京都,渋谷区,道玄坂１丁目１０番８号渋谷道玄坂東急ビル２Ｆ‐Ｃ,,13,113,1500043,,,,,,,2024-08-27,1,,,,,インザフォグ,0
492,3011001164243,新規,0,2024-08-27,2024-08-27,ＦＸＣ　ＤＡＴＡ　ＬＩＭＩＴＥＤ株式会社,,株式会社,東京都,渋谷区,富ヶ谷１丁目１４－１４スタンフォードアネックスビル３階・４階,,13,113,1510063,,,,,,,2024-08-27,1,,,,,,0
497,3011003019866,新規,0,2024-08-27,2024-08-27,ＴＲＩＢＥＳＴ合同会社,,合同会社,東京都,渋谷区,神宮前６丁目２３番４号桑野ビル２階,,13,113,1500001,,,,,,,2024-08-27,1,,,,,トライベスト,0
510,3011501031083,新規,0,2024-08-27,2024-08-27,ＬＡＸＭＩ株式会社,,株式会社,東京都,荒川区,南千住２丁目２８－５,,13,118,1160003,,,,,,,2024-08-27,1,,,,,ラクシミ,0
512,3011601028013,新規,0,2024-08-27,2024-08-27,大奔東京株式会社,,株式会社,東京都,練馬区,上石神井２丁目１３－１－３０１,,13,120,1770044,,,,,,,2024-08-27,1,,,,,ダイホントウキョウ,0
513,3012701018416,新規,0,2024-08-27,2024-08-27,ダンボール不動産株式会社,,株式会社,東京都,西東京市,向台町３丁目１番３３号,,13,229,1880013,,,,,,,2024-08-27,1,,,,,ダンボールフドウサン,0
522,3020001158592,新規,0,2024-08-27,2024-08-27,株式会社ＮＡＮＤＥＹＡＮＡＮ,,株式会社,神奈川県,横浜市港北区,下田町４丁目９番６号,,14,109,2230064,,,,,,,2024-08-27,1,,,,,ナンデヤナン,0
523,3020001158634,新規,0,2024-08-27,2024-08-27,アールホーム株式会社,,株式会社,神奈川県,横浜市中区,伊勢佐木町７丁目１５２番地サンヴェール伊勢佐木町１２０１号室,,14,104,2310045,,,,,,,2024-08-27,1,,,,,アールホーム,0
524,3020001158799,新規,0,2024-08-27,2024-08-27,株式会社三和総合リノベーション,,株式会社,神奈川県,横浜市保土ケ谷区,法泉３丁目３番１号１０５号室,,14,106,2400032,,,,,,,2024-08-27,1,,,,,サンワソウゴウリノベーション,0
525,3020001158808,新規,0,2024-08-27,2024-08-27,株式会社ＮＳ通信,,株式会社,神奈川県,川崎市多摩区,菅馬場２丁目２９番１－８号,,14,135,2140004,,,,,,,2024-08-27,1,,,,,エヌエスツウシン,0
526,3020001158816,新規,0,2024-08-27,2024-08-27,株式会社ＧｒｅｅｎＦｒｏｎｔｉｅｒ,,株式会社,神奈川県,横浜市磯子区,森６丁目１６番１－２０３号,,14,107,2350023,,,,,,,2024-08-27,1,,,,,グリーンフロンティア,0
529,3020003026780,新規,0,2024-08-27,2024-08-27,合同会社ＧＲＡＮＴ’ｓ４８,,合同会社,神奈川県,川崎市多摩区,登戸２４９９番地ＧＲＡＮＴ’ｓ４８、４０３号,,14,135,2140014,,,,,,,2024-08-27,1,,,,,グランツフォーティーエイト,0
549,3040001134947,新規,0,2024-08-27,2024-08-27,株式会社ＮＴコーポレーション,,株式会社,千葉県,松戸市,胡録台１番１号,,12,207,2710075,,,,,,,2024-08-27,1,,,,,エヌティーコーポレーション,0
550,3040001134996,新規,0,2024-08-27,2024-08-27,ロムル株式会社,,株式会社,千葉県,千葉市中央区,中央２丁目３－１６千葉センタースクエアビル５階１４号,,12,101,2600013,,,,,,,2024-08-27,1,,,,,ロムル,0
551,3040001135103,新規,0,2024-08-27,2024-08-27,株式会社ＴＥＮＷＡＹ,,株式会社,千葉県,旭市,飯岡１９２３番地,,12,215,2892705,,,,,,,2024-08-27,1,,,,,,0
552,3040001135111,新規,0,2024-08-27,2024-08-27,株式会社ＭＡ　ＥＮＴＥＲＰＲＩＳＥ,,株式会社,千葉県,松戸市,東松戸１丁目８番地の７レジーナレジデンス１００１号,,12,207,2702225,,,,,,,2024-08-27,1,,,,,エムエイエンタープライズ,0
560,3040003025657,新規,0,2024-08-27,2024-08-27,合同会社Ｇｏｏｄ　Ｗｏｒｋｓ,,合同会社,千葉県,野田市,堤台１０５番地の１サンフェルドＢ１０２,,12,208,2780044,,,,,,,2024-08-27,1,,,,,グッドワークス,0
561,3040003025681,新規,0,2024-08-27,2024-08-27,ビームス合同会社,,合同会社,千葉県,船橋市,高根台４丁目１６番７号,,12,204,2740065,,,,,,,2024-08-27,1,,,,,ビームス,0
562,3050001055317,新規,0,2024-08-27,2024-08-27,株式会社トラ,,株式会社,茨城県,石岡市,山崎３１１０番地,,08,205,3150125,,,,,,,2024-08-27,1,,,,,トラ,0
564,3050003008628,新規,0,2024-08-27,2024-08-27,合同会社ともす,,合同会社,茨城県,那珂郡東海村,舟石川駅東２丁目１３番１０－３０３号コモド・パレＳＡＴＯ,,08,341,3191118,,,,,,,2024-08-27,1,,,,,トモス,0
573,3080105006452,新規,0,2024-08-27,2024-08-27,農事組合法人森久,,その他の設立登記法人,静岡県,沼津市,西浦立保６１番地,,22,203,4100235,,,,,,,2024-08-27,1,,,,,モリキュウ,0
591,3120001268010,新規,0,2024-08-27,2024-08-27,株式会社ＲＥＳＯ　ＣＲＥＡＴＥ,,株式会社,大阪府,大阪市北区,本庄西１丁目１－３－１００１,,27,127,5310073,,,,,,,2024-08-27,1,,,,,レゾクリエイト,0
592,3120001268068,新規,0,2024-08-27,2024-08-27,白雲軒株式会社,,株式会社,大阪府,大阪市淀川区,新北野１丁目１２－１０－２０５室,,27,123,5320025,,,,,,,2024-08-27,1,,,,,ハクウンケン,0
596,3120101070183,新規,0,2024-08-27,2024-08-27,定久ホールディングス株式会社,,株式会社,大阪府,堺市堺区,宿屋町東１丁１番６－２,,27,141,5900936,,,,,,,2024-08-27,1,,,,,サダキュウホールディングス,0
601,3120901049575,新規,0,2024-08-27,2024-08-27,ＳＫＯＧ株式会社,,株式会社,大阪府,豊中市,豊南町西３丁目３番１４号ジュムレ１０１号室,,27,203,5610816,,,,,,,2024-08-27,1,,,,,スコーグ,0
603,3122001038392,新規,0,2024-08-27,2024-08-27,西田貿易株式会社,,株式会社,大阪府,八尾市,南本町７丁目６番１１号,,27,212,5810081,,,,,,,2024-08-27,1,,,,,ニシダボウエキ,0
628,3180301038990,新規,0,2024-08-27,2024-08-27,ＹＮ株式会社,,株式会社,愛知県,豊田市,今町２丁目２６番地,,23,211,4710823,,,,,,,2024-08-27,1,,,,,ワイエヌ,0
630,3190001031584,新規,0,2024-08-27,2024-08-27,株式会社ＩＮＧ,,株式会社,三重県,鈴鹿市,岸岡町２６２６番地の２４,,24,207,5100226,,,,,,,2024-08-27,1,,,,,イング,0
632,3190003004778,新規,0,2024-08-27,2024-08-27,ＮＡＴＩＶＥ　ＡＳＩＡＮ　ＤＹＮＡＭＩＳＭ合同会社,,合同会社,三重県,四日市市,別名１丁目１２番２０号メルツ別名２０２,,24,202,5100007,,,,,,,2024-08-27,1,,,,,ネイティブアジアンダイナミズム,0
636,3240003006827,新規,0,2024-08-27,2024-08-27,Ａ合同会社,,合同会社,広島県,広島市中区,大手町１丁目１番２６号大手町一番ビル３０５,,34,101,7300051,,,,,,,2024-08-27,1,,,,,エー,0
638,3260001039406,新規,0,2024-08-27,2024-08-27,きたうら株式会社,,株式会社,岡山県,岡山市東区,西大寺松崎２３６番地３,,33,103,7048183,,,,,,,2024-08-27,1,,,,,キタウラ,0
646,3290001106913,新規,0,2024-08-27,2024-08-27,株式会社ジーケン,,株式会社,福岡県,糟屋郡志免町,田富４丁目９番１３号,,40,343,8112204,,,,,,,2024-08-27,1,,,,,ジーケン,0
647,3290001106946,新規,0,2024-08-27,2024-08-27,ホー・デザインスタジオ株式会社,,株式会社,福岡県,福岡市中央区,赤坂３丁目１３番３号,,40,133,8100042,,,,,,,2024-08-27,1,,,,,ホーデザインスタジオ,0
648,3290001107011,新規,0,2024-08-27,2024-08-27,リフェコホールディングス株式会社,,株式会社,福岡県,福岡市博多区,博多駅南１丁目３番１１号,,40,132,8120016,,,,,,,2024-08-27,1,,,,,リフェコホールディングス,0
649,3290001107028,新規,0,2024-08-27,2024-08-27,株式会社リレーションズ,,株式会社,福岡県,福岡市中央区,六本松２丁目３番３号,,40,133,8100044,,,,,,,2024-08-27,1,,,,,リレーションズ,0
650,3290001107069,新規,0,2024-08-27,2024-08-27,株式会社ＡＳＯＶＩＶＡ,,株式会社,福岡県,福岡市博多区,下呉服町２－１１,,40,132,8120034,,,,,,,2024-08-27,1,,,,,アソビバ,0
652,3290003015732,新規,0,2024-08-27,2024-08-27,合同会社アシスト,,合同会社,福岡県,福岡市中央区,天神２丁目２番１２号Ｔ＆Ｊビルディング７Ｆ,,40,133,8100001,,,,,,,2024-08-27,1,,,,,アシスト,0
653,3290003015740,新規,0,2024-08-27,2024-08-27,合同会社湯布郷,,合同会社,福岡県,福岡市中央区,警固２丁目１１番１６号ＡＲＴＴＹ警固本通り３０１号,,40,133,8100023,,,,,,,2024-08-27,1,,,,,ユフゴウ,0
654,3290003015749,新規,0,2024-08-27,2024-08-27,合同会社今福次郎商店,,合同会社,福岡県,柳川市,大和町中島１６３１番地１,,40,207,8390254,,,,,,,2024-08-27,1,,,,,イマフクジロウショウテン,0
661,3310003004848,新規,0,2024-08-27,2024-08-27,ＯＮＥ　ＳＫＹ合同会社,,合同会社,長崎県,大村市,荒瀬町１１４８番地６,,42,205,8560017,,,,,,,2024-08-27,1,,,,,ワンスカイ,0
662,3320001020680,新規,0,2024-08-27,2024-08-27,Ｂ‐ｃｏｎｓｕｌｔｉｎｇ株式会社,,株式会社,大分県,大分市,大字森４２８番地の１,,44,201,8700128,,,,,,,2024-08-27,1,,,,,ビーコンサルティング,0
663,3330001032403,新規,0,2024-08-27,2024-08-27,株式会社鉄華,,株式会社,熊本県,熊本市中央区,桜町３番３０号ザ・熊本ガーデンズ１１０１号室,,43,101,8600805,,,,,,,2024-08-27,1,,,,,テッカ,0
667,3340003004580,新規,0,2024-08-27,2024-08-27,合同会社ハレルヤ,,合同会社,鹿児島県,鹿児島市,城南町４番１１号ヴィラージュ２２５－４０２号,,46,201,8920835,,,,,,,2024-08-27,1,,,,,ハレルヤ,0
679,3380003005848,新規,0,2024-08-27,2024-08-27,合同会社創和エステート,,合同会社,福島県,福島市,三河北町１６番３号,,07,201,9608054,,,,,,,2024-08-27,1,,,,,ソウワエステート,0
680,3410003003971,新規,0,2024-08-27,2024-08-27,合同会社ＳＯＬＩＤ　ＥＮＴＥＲＴＡＩＮＭＥＮＴ,,合同会社,秋田県,横手市,鍛冶町９‐１９押切ビル１Ｆ,,05,203,0130031,,,,,,,2024-08-27,1,,,,,,0
686,3430003016724,新規,0,2024-08-27,2024-08-27,合同会社ＲＩＳＥ,,合同会社,北海道,札幌市中央区,南六条西８丁目８－２４グランスター２４　１０２号室,,01,101,0640806,,,,,,,2024-08-27,1,,,,,ライズ,0
689,3470005006579,新規,0,2024-08-27,2024-08-27,特定非営利活動法人スペシャルオリンピックス日本・香川,,その他の設立登記法人,香川県,高松市,丸亀町１３番地２丸亀町商店街ビル４階,,37,201,7600029,,,,,,,2024-08-27,1,,,,,スペシャルオリンピックスニッポンカガワ,0
691,3700150126851,新規,0,2024-08-27,2024-08-26,グリーンコーポ緑地公園第２管理組合,,その他,大阪府,豊中市,寺内２丁目９－５,,27,203,5610872,,,,,,,2024-08-26,1,,,,,グリーンコーポリヨクチコウエンダイニカンリクミアイ,0
697,4010001247775,新規,0,2024-08-27,2024-08-27,株式会社ルネディエーズ,,株式会社,東京都,中央区,八丁堀２丁目４番２号小川ビル１階,,13,102,1040032,,,,,,,2024-08-27,1,,,,,ルネディエーズ,0
702,4010003044717,新規,0,2024-08-27,2024-08-27,合同会社ミライ,,合同会社,東京都,千代田区,内神田１丁目１１番１０号コハラビル３０２号,,13,101,1010047,,,,,,,2024-08-27,1,,,,,ミライ,0
704,4010005038725,新規,0,2024-08-27,2024-08-27,一般社団法人大阪本町ホテル,,その他の設立登記法人,東京都,千代田区,内神田１丁目３番７号４０１あすな会計事務所内,,13,101,1010047,,,,,,,2024-08-27,1,,,,,オオサカホンマチホテル,0
718,4010405023517,新規,0,2024-08-27,2024-08-27,恵比寿ホールディング２一般社団法人,,その他の設立登記法人,東京都,港区,虎ノ門３丁目２２番１０－２０１号,,13,103,1050001,,,,,,,2024-08-27,1,,,,,エビスホールディングツー,0
720,4010603011018,新規,0,2024-08-27,2024-08-27,合同会社言問,,合同会社,東京都,墨田区,立花５丁目４０‐１０Ｋコーポ１階,,13,107,1310043,,,,,,,2024-08-27,1,,,,,コトトイ,0
726,4010701046452,新規,0,2024-08-27,2024-08-27,株式会社ＴＳＴＬ,,株式会社,東京都,品川区,西品川１丁目１番１号住友不動産大崎ガーデンタワー９Ｆ,,13,109,1410033,,,,,,,2024-08-27,1,,,,,ティーエスティーエル,0
731,4010901055872,新規,0,2024-08-27,2024-08-27,株式会社Ｐｒｏｚ　Ｃｏｎｓｕｌｔｉｎｇ,,株式会社,東京都,世田谷区,豪徳寺２丁目２５―６,,13,112,1540021,,,,,,,2024-08-27,1,,,,,プロズコンサルティング,0
743,4011001164250,新規,0,2024-08-27,2024-08-27,株式会社イービーシー,,株式会社,東京都,渋谷区,神宮前５丁目４７番８号,,13,113,1500001,,,,,,,2024-08-27,1,,,,,イービーシー,0
744,4011001164291,新規,0,2024-08-27,2024-08-27,食文化創造研究所株式会社,,株式会社,東京都,渋谷区,神宮前６丁目２３番４号桑野ビル２Ｆ,,13,113,1500001,,,,,,,2024-08-27,1,,,,,ショクブンカソウゾウケンキュウジョ,0
755,4011601028012,新規,0,2024-08-27,2024-08-27,株式会社京東明,,株式会社,東京都,練馬区,田柄２丁目３２番２２号,,13,120,1790073,,,,,,,2024-08-27,1,,,,,キョウトウメイ,0
758,4012303002040,新規,0,2024-08-27,2024-08-27,合同会社ｏｃｔａｇｏｎ,,合同会社,東京都,町田市,小川２丁目１００６番地２９,,13,209,1940003,,,,,,,2024-08-27,1,,,,,オクタゴン,0
770,4020001158591,新規,0,2024-08-27,2024-08-27,株式会社ＩＭＳ,,株式会社,神奈川県,横浜市戸塚区,戸塚町２８２０番地２７,,14,110,2440003,,,,,,,2024-08-27,1,,,,,アイエムエス,0
771,4020001158798,新規,0,2024-08-27,2024-08-27,株式会社ＬＹＭＯ,,株式会社,神奈川県,横浜市戸塚区,吉田町１０８３番地横浜元町ガーデン離宮Ａ－３０２号,,14,110,2440817,,,,,,,2024-08-27,1,,,,,リモ,0
772,4020001158831,新規,0,2024-08-27,2024-08-27,レインボウ電気株式会社,,株式会社,神奈川県,川崎市宮前区,南野川２丁目２０番４０号,,14,136,2160042,,,,,,,2024-08-27,1,,,,,レインボウデンキ,0
773,4020001158872,新規,0,2024-08-27,2024-08-27,株式会社ＬＵＫＥ,,株式会社,神奈川県,横浜市青葉区,梅が丘２５番地２１,,14,117,2270052,,,,,,,2024-08-27,1,,,,,ルーク,0
774,4020001158906,新規,0,2024-08-27,2024-08-27,ＹＥＡＲ　ＧＯＬＤ株式会社,,株式会社,神奈川県,川崎市中原区,小杉町２丁目２２８番地１Ｗ３１０１,,14,133,2110063,,,,,,,2024-08-27,1,,,,,イヤーゴールド,0
780,4020003026771,新規,0,2024-08-27,2024-08-27,合同会社サクライワイナリー,,合同会社,神奈川県,横浜市西区,西平沼町１番２２－４０１号,,14,103,2200024,,,,,,,2024-08-27,1,,,,,サクライワイナリー,0
781,4020003026788,新規,0,2024-08-27,2024-08-27,合同会社ＭｉｒａｉＰｌｕｓ,,合同会社,神奈川県,横浜市金沢区,柴町２０５番地２,,14,108,2360012,,,,,,,2024-08-27,1,,,,,ミライプラス,0
788,4030001162139,新規,0,2024-08-27,2024-08-27,株式会社Ｆｏｇｂｏｕｎｄ,,株式会社,埼玉県,東松山市,幸町９番５号,,11,212,3550025,,,,,,,2024-08-27,1,,,,,フォグバウンド,0
790,4040001135102,新規,0,2024-08-27,2024-08-27,Ｋｉｃｋ　Ｕｐ　Ｐｒｏｍｏｔｉｏｎ株式会社,,株式会社,千葉県,千葉市中央区,富士見２丁目７番９号富士見ビル６０９号,,12,101,2600015,,,,,,,2024-08-27,1,,,,,キックアッププロモーション,0
791,4040001135110,新規,0,2024-08-27,2024-08-27,利他株式会社,,株式会社,千葉県,船橋市,本町１丁目２２番１６号銀清ビル２０２,,12,204,2730005,,,,,,,2024-08-27,1,,,,,リタ,0
792,4040001135119,新規,0,2024-08-27,2024-08-27,峰澤株式会社,,株式会社,千葉県,市川市,大洲１丁目１－１４,,12,203,2720032,,,,,,,2024-08-27,1,,,,,ミネザワ,0
796,4040003025680,新規,0,2024-08-27,2024-08-27,合同会社Ａ＆Ｑ設備,,合同会社,千葉県,市川市,曽谷１丁目１２－６ホワイトハイツ１０５,,12,203,2720832,,,,,,,2024-08-27,1,,,,,アーアンドキューセツビ,0
799,4050001055316,新規,0,2024-08-27,2024-08-27,株式会社サクラ,,株式会社,茨城県,石岡市,山崎３１１０番地,,08,205,3150125,,,,,,,2024-08-27,1,,,,,サクラ,0
802,4050003008635,新規,0,2024-08-27,2024-08-27,合同会社スタベル,,合同会社,茨城県,龍ケ崎市,２番地１１６ビレッジハウス奈戸岡２号棟４０１号室,,08,208,3010000,,,,,,,2024-08-27,1,,,,,スタベル,0
807,4070001042114,新規,0,2024-08-27,2024-08-27,株式会社樺澤管工,,株式会社,群馬県,前橋市,富士見町原之郷１６３０番地１,,10,201,3710116,,,,,,,2024-08-27,1,,,,,,0
813,4080401027399,新規,0,2024-08-27,2024-08-27,ＡＬＬ’ＩＮ株式会社,,株式会社,静岡県,浜松市中央区,泉１丁目１７番１８号,,22,138,4338124,,,,,,,2024-08-27,1,,,,,オールイン,0
814,4090005007648,新規,0,2024-08-27,2024-08-27,一般社団法人縄文文化発信会議,,その他の設立登記法人,山梨県,笛吹市,石和町市部１０１６番地,,19,211,4060031,,,,,,,2024-08-27,1,,,,,ジョウモンブンカハッシンカイギ,0
816,4100001037770,新規,0,2024-08-27,2024-08-27,株式会社ＭＴＴ,,株式会社,長野県,佐久市,中込２３７８番地２、４号室,,20,217,3850051,,,,,,,2024-08-27,1,,,,,エムティーティー,0
826,4120001267936,新規,0,2024-08-27,2024-08-27,夢＿可株式会社,00136082,株式会社,大阪府,大阪市西淀川区,姫島２丁目４番１０号パークアベニュー２階Ａ室,,27,113,5550033,,,,,,,2024-08-27,1,,,,,ムニカ,0
827,4120001268034,新規,0,2024-08-27,2024-08-27,洪霖株式会社,,株式会社,大阪府,大阪市淀川区,宮原２丁目１２番１４－８１０号,,27,123,5320003,,,,,,,2024-08-27,1,,,,,コウリン,0
828,4120001268050,新規,0,2024-08-27,2024-08-27,株式会社Ｃｓｅｌｌａ,,株式会社,大阪府,大阪市北区,梅田１丁目１－３大阪駅前第３ビル２９階１－１－１号室,,27,127,5300001,,,,,,,2024-08-27,1,,,,,シセラ,0
834,4120101070199,新規,0,2024-08-27,2024-08-27,株式会社ｇｕｕ工務店,,株式会社,大阪府,堺市東区,日置荘田中町１９８番地１－ＪＩＮ３０５号,,27,143,5998113,,,,,,,2024-08-27,1,,,,,グウコウムテン,0
839,4120903005311,新規,0,2024-08-27,2024-08-27,ＧＳＷ合同会社,,合同会社,大阪府,池田市,旭丘１丁目２番２５号,,27,204,5630022,,,,,,,2024-08-27,1,,,,,ジイエスダブル,0
841,4122001038383,新規,0,2024-08-27,2024-08-27,株式会社ＭｅｒＣｒｅａｔｅ,,株式会社,大阪府,東大阪市,岸田堂南町１２番２０号ヴァローレ布施２０５号,,27,227,5770847,,,,,,,2024-08-27,1,,,,,メルクリエイト,0
846,4130003009815,新規,0,2024-08-27,2024-08-27,和知新聞総合販売合同会社,,合同会社,京都府,船井郡京丹波町,本庄馬森２０,,26,407,6291121,,,,,,,2024-08-27,1,,,,,ワチシンブンソウゴウハンバイ,0
852,4150001027494,新規,0,2024-08-27,2024-08-27,株式会社アイホーム,,株式会社,奈良県,奈良市,百楽園２丁目６番１号,,29,201,6310024,,,,,,,2024-08-27,1,,,,,アイホーム,0
859,4180001163015,新規,0,2024-08-27,2024-08-27,ＮＨ　ＴＲＡＤＩＮＧ株式会社,,株式会社,愛知県,名古屋市港区,東蟹田９１５番地,,23,111,4550886,,,,,,,2024-08-27,1,,,,,エヌエイチトレーディング,0
860,4180001163023,新規,0,2024-08-27,2024-08-27,ｔｒｉｖｅ株式会社,,株式会社,愛知県,名古屋市中区,大須２丁目１０番３３号イワツキビル５０２号,,23,106,4600011,,,,,,,2024-08-27,1,,,,,トライブ,0
863,4200001042868,新規,0,2024-08-27,2024-08-27,株式会社学舎,,株式会社,岐阜県,美濃加茂市,西町６丁目３００番地６,,21,211,5050046,,,,,,,2024-08-27,1,,,,,マナビヤ,0
867,4230003002280,新規,0,2024-08-27,2024-08-27,合同会社フォース,,合同会社,富山県,富山市,吉作４８６番地１３５,,16,201,9300142,,,,,,,2024-08-27,1,,,,,フォース,0
869,4240001063737,新規,0,2024-08-27,2024-08-27,株式会社Ｆａｉｒｙ　ｔａｌｅ,,株式会社,広島県,広島市西区,草津南２丁目１番１９号,,34,104,7330863,,,,,,,2024-08-27,1,,,,,フェアリーテイル,0
870,4240001063745,新規,0,2024-08-27,2024-08-27,株式会社ｓｋｙａｔ．ｆａｃｔｏｒｙ,,株式会社,広島県,広島市安佐北区,口田５丁目１番７－２号,,34,106,7391734,,,,,,,2024-08-27,1,,,,,スカイアットファクトリー,0
876,4290001106978,新規,0,2024-08-27,2024-08-27,株式会社ちとせ,,株式会社,福岡県,大野城市,下大利１丁目１３番８号,,40,219,8160952,,,,,,,2024-08-27,1,,,,,チトセ,0
877,4290001107035,新規,0,2024-08-27,2024-08-27,株式会社ＲＩＴＳ,,株式会社,福岡県,福岡市博多区,空港前３丁目２２番４９号,,40,132,8120002,,,,,,,2024-08-27,1,,,,,リッツ,0
878,4290001107051,新規,0,2024-08-27,2024-08-27,株式会社ＬＩＦＩＸ,,株式会社,福岡県,福岡市中央区,大手門１丁目８番９号,,40,133,8100074,,,,,,,2024-08-27,1,,,,,リフィックス,0
879,4290003015723,新規,0,2024-08-27,2024-08-27,合同会社ＦＹＢ,,合同会社,福岡県,福岡市中央区,赤坂１丁目８－２３,,40,133,8100042,,,,,,,2024-08-27,1,,,,,エフワイビー,0
880,4290801030832,新規,0,2024-08-27,2024-08-27,株式会社ケイ・デザインサービス,,株式会社,福岡県,田川郡福智町,上野４５６番地１,,40,610,8221102,,,,,,,2024-08-27,1,,,,,ケイデザインサービス,0
885,4350003004736,新規,0,2024-08-27,2024-08-27,Ｍ＆Ｋ合同会社,,合同会社,宮崎県,宮崎市,大塚町天神後２６８５番地３サンライズ長友２０１号,,45,201,8800951,,,,,,,2024-08-27,1,,,,,エムアンドケイ,0
896,4480003002173,新規,0,2024-08-27,2024-08-27,合同会社わんだほう,,合同会社,徳島県,板野郡板野町,大寺字岡山路８番地２２８,,36,404,7790105,,,,,,,2024-08-27,1,,,,,ワンダホウ,0
909,5010001247741,新規,0,2024-08-27,2024-08-27,株式会社ＥＹＥ＆ＡＩ,,株式会社,東京都,文京区,小石川３丁目２番７号,,13,105,1120002,,,,,,,2024-08-27,1,,,,,アイアンドアイ,0
913,5010003044724,新規,0,2024-08-27,2024-08-27,ｈａｓｈｉｍａｅ合同会社,,合同会社,東京都,中央区,銀座１丁目１２番４号Ｎ＆ＥＢＬＤ．６Ｆ,,13,102,1040061,,,,,,,2024-08-27,1,,,,,ハシマエ,0
915,5010005038699,新規,0,2024-08-27,2024-08-27,一般社団法人厚木金田ロジ,,その他の設立登記法人,東京都,中央区,日本橋１丁目４番１号,,13,102,1030027,,,,,,,2024-08-27,1,,,,,アツギカネダロジ,0
916,5010103002409,新規,0,2024-08-27,2024-08-27,ａｉどんぐり合同会社,,合同会社,東京都,八王子市,元八王子町２丁目３３０２－２,,13,201,1930826,,,,,,,2024-08-27,1,,,,,アイドングリ,0
921,5010401184510,新規,0,2024-08-27,2024-08-27,株式会社ＲＯＳＳＯ,,株式会社,東京都,港区,芝浦１丁目１４番８号,,13,103,1050023,,,,,,,2024-08-27,1,,,,,ロッソ,0
922,5010401184683,新規,0,2024-08-27,2024-08-27,Ｅｌｉｔｅ　Ｔｏｋｙｏ　Ｉｎｔｅｒｎａｔｉｏｎａｌ　Ｓｈｉｐｐｉｎｇ株式会社,,株式会社,東京都,港区,南青山３丁目１番３６号青山丸竹ビル６階,,13,103,1070062,,,,,,,2024-08-27,1,,,,,エリートトウキョーインターナショナルシッピング,0
923,5010403033285,新規,0,2024-08-27,2024-08-27,合同会社ＧＯＬＦ‐ＴＩＭＥＳ,,合同会社,東京都,港区,南青山３丁目１－３６青山丸竹ビル６Ｆ,,13,103,1070062,,,,,,,2024-08-27,1,,,,,ゴルフタイムズ,0
924,5010403033293,新規,0,2024-08-27,2024-08-27,ＥＳＲ３１・２Ａ合同会社,,合同会社,東京都,港区,浜松町１丁目２０番１０号ライオネス浜松町５０６号室,,13,103,1050013,,,,,,,2024-08-27,1,,,,,イーエスアールサンジュウイチニエー,0
926,5010405023516,新規,0,2024-08-27,2024-08-27,恵比寿ホールディング１一般社団法人,,その他の設立登記法人,東京都,港区,虎ノ門３丁目２２番１０－２０１号,,13,103,1050001,,,,,,,2024-08-27,1,,,,,エビスホールディングワン,0
927,5010405023532,新規,0,2024-08-27,2024-08-27,一般社団法人日本グリーフアカデミー,,その他の設立登記法人,東京都,港区,赤坂２丁目２１－１,,13,103,1070052,,,,,,,2024-08-27,1,,,,,ニホングリーフアカデミー,0
929,5010501052740,新規,0,2024-08-27,2024-08-27,佳苑株式会社,,株式会社,東京都,台東区,北上野２丁目３０－９鳳凰ビル中２階,,13,106,1100014,,,,,,,2024-08-27,1,,,,,,0
930,5010501052823,新規,0,2024-08-27,2024-08-27,株式会社プレフェイズ,,株式会社,東京都,台東区,元浅草１丁目５番８－８０４号グランドコンシェルジュ新御徒町アジールコート,,13,106,1110041,,,,,,,2024-08-27,1,,,,,プレフェイズ,0
931,5010601065725,新規,0,2024-08-27,2024-08-27,株式会社ＸＲ,,株式会社,東京都,墨田区,向島４丁目２番５号ＸＲ東京スカイツリー,,13,107,1310033,,,,,,,2024-08-27,1,,,,,エックスアール,0
932,5010601065808,新規,0,2024-08-27,2024-08-27,ＭＥＣＡＬ　ＨＴＳ　Ｊａｐａｎ株式会社,,株式会社,東京都,江東区,豊洲６丁目２番３１－１９１７号,,13,108,1350061,,,,,,,2024-08-27,1,,,,,メカルエイチティーエスジャパン,0
943,5010903009322,新規,0,2024-08-27,2024-08-27,合同会社稲田,,合同会社,東京都,世田谷区,岡本３丁目２５―３―Ｇ３０２,,13,112,1570076,,,,,,,2024-08-27,1,,,,,イナダ,0
953,5011001164200,新規,0,2024-08-27,2024-08-27,ＧＰバイアウトＯ株式会社,,株式会社,東京都,目黒区,自由が丘２丁目１６－１２ＲＪ３,,13,110,1520035,,,,,,,2024-08-27,1,,,,,ジーピーバイアウトオー,0
954,5011001164241,新規,0,2024-08-27,2024-08-27,株式会社朱李ＡＫＡＬＩ,,株式会社,東京都,渋谷区,幡ヶ谷２丁目２番１２号ライオンズマンション４０７号室,,13,113,1510072,,,,,,,2024-08-27,1,,,,,アカリ,0
955,5011001164266,新規,0,2024-08-27,2024-08-27,株式会社スナックテクノロジーズ,,株式会社,東京都,渋谷区,神宮前１丁目５番８号神宮前タワービルディング２１Ｆ,,13,113,1500001,,,,,,,2024-08-27,1,,,,,スナックテクノロジーズ,0
956,5011001164316,新規,0,2024-08-27,2024-08-27,株式会社Ｈパートナーズ,,株式会社,東京都,渋谷区,神宮前１丁目４番２０号パークコート神宮前２０６,,13,113,1500001,,,,,,,2024-08-27,1,,,,,エイチパートナーズ,0
959,5011003019864,新規,0,2024-08-27,2024-08-27,合同会社Ｙ’ｓＰｌａｎ,,合同会社,東京都,渋谷区,本町２丁目２９番７号,,13,113,1510071,,,,,,,2024-08-27,1,,,,,ワイズプラン,0
960,5011103014674,新規,0,2024-08-27,2024-08-27,ＣＢＳ合同会社,,合同会社,東京都,新宿区,新宿７丁目１８番４－４０１号,,13,104,1600022,,,,,,,2024-08-27,1,,,,,シービーエス,0
966,5011401026347,新規,0,2024-08-27,2024-08-27,株式会社ポエット,,株式会社,東京都,板橋区,大谷口上町４６番４号,,13,119,1730032,,,,,,,2024-08-27,1,,,,,ポエット,0
971,5011701027573,新規,0,2024-08-27,2024-08-27,オレンジ猫株式会社,,株式会社,東京都,江戸川区,平井４丁目５－４ハピネス平井６０２,,13,123,1320035,,,,,,,2024-08-27,1,,,,,オレンジネコ,0
973,5012701018422,新規,0,2024-08-27,2024-08-27,株式会社Ｍ‐ＳＴＯＲＥ,,株式会社,東京都,東村山市,廻田町２丁目９番地３１,,13,213,1890025,,,,,,,2024-08-27,1,,,,,エムストア,0
989,5020001158590,新規,0,2024-08-27,2024-08-27,アレス株式会社,,株式会社,神奈川県,横浜市旭区,今宿東町１４７８番地１１,,14,112,2410032,,,,,,,2024-08-27,1,,,,,アレス,0
990,5020001158780,新規,0,2024-08-27,2024-08-27,株式会社ｐｌａｔｉｎｕＭＡＴＥＳ,,株式会社,神奈川県,横浜市緑区,鴨居１丁目１０番１－４０８号,,14,113,2260003,,,,,,,2024-08-27,1,,,,,プラチナメイツ,0
991,5020001158814,新規,0,2024-08-27,2024-08-27,株式会社ＳＲＴ,,株式会社,神奈川県,横浜市港北区,新横浜３丁目２番地３,,14,109,2220033,,,,,,,2024-08-27,1,,,,,エスアールティー,0
992,5020001158847,新規,0,2024-08-27,2024-08-27,Ｃｈｉａｎｇｍａｙｌａｗ　ｂｒｏｓ株式会社,,株式会社,神奈川県,横浜市金沢区,福浦２丁目１１番３号,,14,108,2360004,,,,,,,2024-08-27,1,,,,,チャンメイロンブロス,0
993,5020001158888,新規,0,2024-08-27,2024-08-27,株式会社ＮＳＨＤ,,株式会社,神奈川県,横浜市中区,山手町１５４番地１ＧＳハイム山手２０８号室,,14,104,2310862,,,,,,,2024-08-27,1,,,,,エヌエスエイチディ,0
996,5020003026770,新規,0,2024-08-27,2024-08-27,合同会社ぶんちょう,,合同会社,神奈川県,横浜市中区,住吉町５丁目６４番地１,,14,104,2310013,,,,,,,2024-08-27,1,,,,,ブンチョウ,0
997,5021001083093,新規,0,2024-08-27,2024-08-27,株式会社相模ブルーライン,,株式会社,神奈川県,海老名市,上今泉３丁目１６番地,,14,215,2430431,,,,,,,2024-08-27,1,,,,,サガミブルーライン,0
1011,5040001135101,新規,0,2024-08-27,2024-08-27,株式会社ＡＨＣ都市開発,,株式会社,千葉県,八千代市,八千代台東１丁目２０番１８号,,12,221,2760032,,,,,,,2024-08-27,1,,,,,エーエイチシートシカイハツ,0
1015,5040003025671,新規,0,2024-08-27,2024-08-27,合同会社みずほ,,合同会社,千葉県,船橋市,古作３丁目６番１８号,,12,204,2730037,,,,,,,2024-08-27,1,,,,,ミズホ,0
1020,5050003008634,新規,0,2024-08-27,2024-08-27,ＤＳＴＮｙコンサルティング合同会社,,合同会社,茨城県,つくば市,島名１２８３香取台Ａ２６－３９,,08,220,3002655,,,,,,,2024-08-27,1,,,,,ディスティニコンサルティング,0
1022,5060001037436,新規,0,2024-08-27,2024-08-27,株式会社Ｌｉｍ,,株式会社,栃木県,矢板市,末広町６６番地１１,,09,211,3292162,,,,,,,2024-08-27,1,,,,,リム,0
1037,5120001268058,新規,0,2024-08-27,2024-08-27,株式会社Ｌｉｒｉｃ,,株式会社,大阪府,大阪市西区,江戸堀３丁目７－１４江戸堀西ビル３Ｆ４．５号,,27,106,5500002,,,,,,,2024-08-27,1,,,,,リリック,0
1038,5120001268066,新規,0,2024-08-27,2024-08-27,トータルモーゲージ株式会社,,株式会社,大阪府,大阪市東淀川区,西淡路１丁目１番９号ビジネス新大阪２２９号,,27,114,5330031,,,,,,,2024-08-27,1,,,,,トータルモーゲージ,0
1046,5120103006035,新規,0,2024-08-27,2024-08-27,合同会社ＫＪ,,合同会社,大阪府,和泉市,光明台１丁目８―８,,27,219,5941111,,,,,,,2024-08-27,1,,,,,ケージェー,0
1048,5120901049664,新規,0,2024-08-27,2024-08-27,株式会社隆源,,株式会社,大阪府,箕面市,粟生間谷西１丁目６番８－３０１号,,27,220,5620023,,,,,,,2024-08-27,1,,,,,タカゲン,0
1055,5130001077763,新規,0,2024-08-27,2024-08-27,株式会社Ｔｅｃｈ　Ｋｎｏｗｌｅｄｇｅ　Ｂａｓｅ,,株式会社,京都府,京都市中京区,大津町６６５サンマンションドゥーシェ御所前５０２号室,,26,104,6040885,,,,,,,2024-08-27,1,,,,,テックナレッジベース,0
1073,5180001163022,新規,0,2024-08-27,2024-08-27,株式会社Ｒｅｎａ’ｓ　Ｆａｃｔｏｒｙ,,株式会社,愛知県,名古屋市中村区,名駅３丁目４－１０アルティメイト名駅１ｓｔ２階,,23,105,4500002,,,,,,,2024-08-27,1,,,,,レナズファクトリー,0
1076,5180301038997,新規,0,2024-08-27,2024-08-27,スリーエス株式会社,,株式会社,愛知県,西尾市,西幡豆町市場６番地,,23,213,4440703,,,,,,,2024-08-27,1,,,,,スリーエス,0
1078,5200001042867,新規,0,2024-08-27,2024-08-27,株式会社中京,,株式会社,岐阜県,本巣市,三橋５１５番地１,,21,218,5010406,,,,,,,2024-08-27,1,,,,,チュウキョウ,0
1090,5290001106985,新規,0,2024-08-27,2024-08-27,０１ｍｉｒａｉ株式会社,,株式会社,福岡県,福岡市中央区,天神２丁目２番１２号Ｔ＆Ｊビルディング７Ｆ,,40,133,8100001,,,,,,,2024-08-27,1,,,,,ゼロイチミライ,0
1091,5290001107018,新規,0,2024-08-27,2024-08-27,株式会社未来,,株式会社,福岡県,福岡市中央区,平尾５丁目１４－２９－２０８,,40,133,8100014,,,,,,,2024-08-27,1,,,,,ミライ,0
1092,5290001107034,新規,0,2024-08-27,2024-08-27,株式会社ｆｅｌｌｏｗｆｅｌｌｏｗ,,株式会社,福岡県,福岡市中央区,大手門２丁目３番７－３０７号ラフィーネ大手門,,40,133,8100074,,,,,,,2024-08-27,1,,,,,フェローフェロー,0
1093,5290001107059,新規,0,2024-08-27,2024-08-27,株式会社ファースト,,株式会社,福岡県,福岡市中央区,天神４丁目６番地２８号天神ファーストビル７階,,40,133,8100001,,,,,,,2024-08-27,1,,,,,ファースト,0
1094,5290003015722,新規,0,2024-08-27,2024-08-27,石橋不動産合同会社,,合同会社,福岡県,福岡市早良区,室見４丁目１番２２－３０３号,,40,137,8140015,,,,,,,2024-08-27,1,,,,,,0
1095,5290003015730,新規,0,2024-08-27,2024-08-27,合同会社ＭＵＳＯＵ,,合同会社,福岡県,福岡市博多区,板付２丁目１２番９号,,40,132,8120888,,,,,,,2024-08-27,1,,,,,ムソウ,0
1096,5290801030823,新規,0,2024-08-27,2024-08-27,日本ナノプレシジョン株式会社,,株式会社,福岡県,北九州市若松区,ひびきの南２丁目２番１号,,40,103,8080137,,,,,,,2024-08-27,1,,,,,ニホンナノプレシジョン,0
1099,5320001020679,新規,0,2024-08-27,2024-08-27,エル株式会社,,株式会社,大分県,別府市,西野口町１２番５号,,44,202,8740931,,,,,,,2024-08-27,1,,,,,エル,0
1102,5330003010537,新規,0,2024-08-27,2024-08-27,合同会社ホワイトブルー北水,,合同会社,熊本県,玉名市,天水町小天１１５２番地１,,43,206,8615401,,,,,,,2024-08-27,1,,,,,ホワイトブルーホクスイ,0
1123,5430003016722,新規,0,2024-08-27,2024-08-27,合同会社Ｒｉｌｉｅ,,合同会社,北海道,札幌市厚別区,厚別中央四条５丁目５－３,,01,108,0040054,,,,,,,2024-08-27,1,,,,,リーリエ,0
1124,5440001009487,新規,0,2024-08-27,2024-08-27,株式会社ＡＳＫＡ,,株式会社,北海道,檜山郡厚沢部町,字当路２６９番地１,,01,363,0431366,,,,,,,2024-08-27,1,,,,,アスカ,0
1129,5700150126908,新規,0,2024-08-27,2024-08-27,Ｋａｉｐｉｎｇ　Ｌｖｙｕｅ　Ｔｒａｄｉｎｇ　Ｃｏ．，Ｌｔｄ,,外国会社等,,,,,,,,１ｓｔ　Ｆｌｏｏｒ，Ｂｕｉｄｉｎｇ　１，Ｎｏ．４５　Ｊｉｎｓｈａｎｄｏｎｇ　Ａｖｅｎｕｅ　Ｋａｉｐｉｎｇ　Ｓｈｕｉｋｏｕ　Ｇｕａｎｇｄｏｎｇ,,,,,,2024-08-27,1,,,,,カイピーンシールゥィユエマオイーヨウシエンゴーンスー,0
1133,6010001247716,新規,0,2024-08-27,2024-08-27,ＭＩＺＵＫＩ商事株式会社,,株式会社,東京都,中央区,晴海１丁目７番２号ガーデンプラザ１１１０,,13,102,1040053,,,,,,,2024-08-27,1,,,,,ミズキショウジ,0
1134,6010001247749,新規,0,2024-08-27,2024-08-27,Ｓｙｎｔｉａｎｔ　Ｊａｐａｎ株式会社,,株式会社,東京都,中央区,日本橋室町４丁目３番９号,,13,102,1030022,,,,,,,2024-08-27,1,,,,,シンティアントジャパン,0
1137,6010003044707,新規,0,2024-08-27,2024-08-27,サステナブルローンファンド２８号合同会社,,合同会社,東京都,中央区,京橋２丁目１２番６号ＡＯＪ税理士法人内,,13,102,1040031,,,,,,,2024-08-27,1,,,,,サステナブルローンファンドニジュウハチゴウ,0
1138,6010101016293,新規,0,2024-08-27,2024-08-27,株式会社全理研,,株式会社,東京都,八王子市,東町２－５ＴＭビル３Ｆ,,13,201,1920082,,,,,,,2024-08-27,1,,,,,ゼンリケン,0
1147,6010401184518,新規,0,2024-08-27,2024-08-27,株式会社ＷＡＬＬＭＡＴＥホールディングス,,株式会社,東京都,港区,赤坂２丁目３番５－１５Ｆ,,13,103,1070052,,,,,,,2024-08-27,1,,,,,ウォールメイトホールディングス,0
1150,6010405023481,新規,0,2024-08-27,2024-08-27,一般社団法人パドラー,,その他の設立登記法人,東京都,港区,北青山３丁目５番１４号７階,,13,103,1070061,,,,,,,2024-08-27,1,,,,,パドラー,0
1151,6010405023523,新規,0,2024-08-27,2024-08-27,ＥＳＲ３１・２Ａ一般社団法人,,その他の設立登記法人,東京都,港区,浜松町１丁目２０番１０号ライオネス浜松町５０６号室,,13,103,1050013,,,,,,,2024-08-27,1,,,,,イーエスアールサンジュウイチニエー,0
1154,6010601065815,新規,0,2024-08-27,2024-08-27,ワイケー株式会社,,株式会社,東京都,江東区,海辺１８番２号,,13,108,1350012,,,,,,,2024-08-27,1,,,,,ワイケー,0
1160,6010801035353,新規,0,2024-08-27,2024-08-27,株式会社エクストリクサ,,株式会社,東京都,大田区,田園調布３丁目２６番８号,,13,111,1450071,,,,,,,2024-08-27,1,,,,,エクストリクサ,0
1172,6011001164232,新規,0,2024-08-27,2024-08-27,ＬｉｍｉｔＦｒｅｅ株式会社,,株式会社,東京都,渋谷区,道玄坂１丁目１６－６二葉ビル８ｂ,,13,113,1500043,,,,,,,2024-08-27,1,,,,,リミットフリー,0
1173,6011001164323,新規,0,2024-08-27,2024-08-27,株式会社ウィステリアエンジニアリング,,株式会社,東京都,渋谷区,道玄坂１丁目１６－６二葉ビル８ｂ,,13,113,1500043,,,,,,,2024-08-27,1,,,,,ウィステリアエンジニアリング,0
1178,6011003019863,新規,0,2024-08-27,2024-08-27,ＮＳＧＰプロパティ合同会社,,合同会社,東京都,渋谷区,道玄坂１丁目１２－１渋谷マークシティＷ２２階,,13,113,1500043,,,,,,,2024-08-27,1,,,,,エヌエスジーピープロパティ,0
1192,6011101108460,新規,0,2024-08-27,2024-08-27,ＢＧ＆ＳＪ株式会社,,株式会社,東京都,新宿区,西新宿４丁目２１番２３号－３０３号室,,13,104,1600023,,,,,,,2024-08-27,1,,,,,ビージーアンドエスジェイ,0
1200,6011603004439,新規,0,2024-08-27,2024-08-27,合同会社バンブー,,合同会社,東京都,練馬区,桜台４丁目２０番９号ＨＲＹｖｉｌ３０２,,13,120,1760002,,,,,,,2024-08-27,1,,,,,バンブー,0
1203,6011801044757,新規,0,2024-08-27,2024-08-27,ＡＨ株式会社,,株式会社,東京都,足立区,舎人２丁目１４番２４号,,13,121,1210831,,,,,,,2024-08-27,1,,,,,,0
1205,6012303002039,新規,0,2024-08-27,2024-08-27,合同会社ｚａｂｂｉｏｎ,,合同会社,東京都,町田市,金井ヶ丘１丁目１７－７,,13,209,1950076,,,,,,,2024-08-27,1,,,,,ザビオン,0
1206,6012801023420,新規,0,2024-08-27,2024-08-27,株式会社Ｂｏｏｋ　Ｏｒａｃｌｅ,,株式会社,東京都,国分寺市,西恋ヶ窪２丁目１２－１５,,13,214,1850013,,,,,,,2024-08-27,1,,,,,ブックオラクル,0
1207,6013101009498,新規,0,2024-08-27,2024-08-27,ケアプライドジャパン株式会社,,株式会社,東京都,青梅市,河辺町６丁目２番地２５,,13,205,1980036,,,,,,,2024-08-27,1,,,,,ケアプライドジャパン,0
1219,6020001158607,新規,0,2024-08-27,2024-08-27,株式会社ＧＭＳ,,株式会社,神奈川県,川崎市高津区,梶ケ谷２丁目８－２４,,14,134,2130015,,,,,,,2024-08-27,1,,,,,ジーエムエス,0
1220,6020001158615,新規,0,2024-08-27,2024-08-27,ＢＬＡＤＥ株式会社,,株式会社,神奈川県,横浜市都筑区,すみれが丘６番地５９,,14,118,2240013,,,,,,,2024-08-27,1,,,,,ブレイド,0
1221,6020001158714,新規,0,2024-08-27,2024-08-27,高和ホールディングス株式会社,,株式会社,神奈川県,川崎市多摩区,登戸８３４番地の１,,14,135,2140014,,,,,,,2024-08-27,1,,,,,コウワホールディングス,0
1222,6020001158788,新規,0,2024-08-27,2024-08-27,株式会社Ｓａｉｔｏ,,株式会社,神奈川県,横浜市神奈川区,西寺尾１丁目１３番１４号１階,,14,102,2210001,,,,,,,2024-08-27,1,,,,,サイトウ,0
1223,6020001158862,新規,0,2024-08-27,2024-08-27,株式会社萬吉,,株式会社,神奈川県,横浜市西区,北軽井沢５５番地３６,,14,103,2200001,,,,,,,2024-08-27,1,,,,,マンキチ,0
1224,6020001158879,新規,0,2024-08-27,2024-08-27,株式会社ｅ防災支援,,株式会社,神奈川県,横浜市南区,中里４丁目２９番２５号,,14,105,2320063,,,,,,,2024-08-27,1,,,,,イーボウサイシエン,0
1225,6020003026745,新規,0,2024-08-27,2024-08-27,ＧＲＡＮＤ・Ｋ合同会社,,合同会社,神奈川県,横浜市中区,不老町３丁目１４番地２ライオンズマンション伊勢佐木長者町１０１,,14,104,2310032,,,,,,,2024-08-27,1,,,,,,0
1226,6020003026786,新規,0,2024-08-27,2024-08-27,合同会社ＲＩＮＧＯＯＤ,,合同会社,神奈川県,横浜市戸塚区,平戸町６８６番地２,,14,110,2440803,,,,,,,2024-08-27,1,,,,,リングッド,0
1227,6020005016505,新規,0,2024-08-27,2024-08-27,一般社団法人日本こどもホスピス協議会,,その他の設立登記法人,神奈川県,横浜市中区,北仲通３丁目３３番地関内フューチャーセンター１６４,,14,104,2310003,,,,,,,2024-08-27,1,,,,,ニホンコドモホスピスキョウギカイ,0
1238,6030001162070,新規,0,2024-08-27,2024-08-27,株式会社ザラインターナショナル,,株式会社,埼玉県,坂戸市,にっさい花みず木２丁目１１番地１０,,11,239,3500269,,,,,,,2024-08-27,1,,,,,ザラインターナショナル,0
1240,6030003024995,新規,0,2024-08-27,2024-08-27,合同会社からふるらいふ,,合同会社,埼玉県,深谷市,原郷１７０６番地,,11,218,3660035,,,,,,,2024-08-27,1,,,,,カラフルライフ,0
1241,6030005021826,新規,0,2024-08-27,2024-08-27,税理士法人ＴＯＭＯＮＥＡ,,その他の設立登記法人,埼玉県,幸手市,東４丁目５番４号関口ビル２階Ｂ号室,,11,240,3400114,,,,,,,2024-08-27,1,,,,,トモニア,0
1245,6040001134993,新規,0,2024-08-27,2024-08-27,株式会社Ｃｏｓｍｉｃ,,株式会社,千葉県,成田市,並木町１３９番地５,,12,211,2860045,,,,,,,2024-08-27,1,,,,,コズミック,0
1246,6040001135042,新規,0,2024-08-27,2024-08-27,株式会社南陽インターナショナル,,株式会社,千葉県,成田市,囲護台２丁目７番７－１０１号,,12,211,2860035,,,,,,,2024-08-27,1,,,,,ナンヨウインターナショナル,0
1247,6040001135091,新規,0,2024-08-27,2024-08-27,株式会社ＭＨＳ,,株式会社,千葉県,千葉市中央区,中央港１丁目２２番３０－２０１号,,12,101,2600024,,,,,,,2024-08-27,1,,,,,エムエイチエス,0
1248,6040001135100,新規,0,2024-08-27,2024-08-27,株式会社インフィニティ,,株式会社,千葉県,松戸市,常盤平１丁目１９番地の２３,,12,207,2702261,,,,,,,2024-08-27,1,,,,,インフィニティ,0
1249,6040001135109,新規,0,2024-08-27,2024-08-27,株式会社ＫＴＫＮ,,株式会社,千葉県,印旛郡酒々井町,篠山新田１番地９,,12,322,2850901,,,,,,,2024-08-27,1,,,,,ケーティーケーエヌ,0
1250,6040001135117,新規,0,2024-08-27,2024-08-27,ヒロシ企画株式会社,,株式会社,千葉県,八千代市,高津４７８番地５,,12,221,2760036,,,,,,,2024-08-27,1,,,,,ヒロシキカク,0
1253,6040003025679,新規,0,2024-08-27,2024-08-27,合同会社Ｏｎｅ‐ｓｔｅｌｌａ,,合同会社,千葉県,千葉市中央区,蘇我５丁目３８－２,,12,101,2600822,,,,,,,2024-08-27,1,,,,,ワンステラ,0
1262,6060001037427,新規,0,2024-08-27,2024-08-27,キョウリツ株式会社,,株式会社,栃木県,鹿沼市,上日向３４０番地,,09,205,3220076,,,,,,,2024-08-27,1,,,,,キョウリツ,0
1268,6080001026460,新規,0,2024-08-27,2024-08-27,株式会社ＪＩＣ　ＧＬＯＢＡＬ　ＪＡＰＡＮ,,株式会社,静岡県,牧之原市,大沢１３４番地３,,22,226,4210526,,,,,,,2024-08-27,1,,,,,ジェイアイシーグローバルジャパン,0
1269,6080003003284,新規,0,2024-08-27,2024-08-27,合同会社ＡＫＩＲＡ,,合同会社,静岡県,静岡市清水区,草薙３５０番地の４０,,22,103,4240886,,,,,,,2024-08-27,1,,,,,アキラ,0
1275,6100001037777,新規,0,2024-08-27,2024-08-27,株式会社永昇,,株式会社,長野県,上田市,上野２８２番地４,,20,203,3860003,,,,,,,2024-08-27,1,,,,,エイショウ,0
1276,6100001037793,新規,0,2024-08-27,2024-08-27,株式会社Ｂｅｅｆｒｅｅ,,株式会社,長野県,安曇野市,穂高８１０８番地５,,20,220,3998303,,,,,,,2024-08-27,1,,,,,ビーフリー,0
1279,6100003007704,新規,0,2024-08-27,2024-08-27,アルテ合同会社,,合同会社,長野県,北佐久郡軽井沢町,大字軽井沢１１４８番地７３,,20,321,3890102,,,,,,,2024-08-27,1,,,,,アルテ,0
1280,6100003007729,新規,0,2024-08-27,2024-08-27,合同会社堀内精機,,合同会社,長野県,上高井郡高山村,大字高井５９０４番地１,,20,543,3820800,,,,,,,2024-08-27,1,,,,,ホリウチセイキ,0
1282,6110001038659,新規,0,2024-08-27,2024-08-27,株式会社エフエービー,,株式会社,新潟県,柏崎市,赤坂町１２８３番地２４,,15,205,9450847,,,,,,,2024-08-27,1,,,,,エフエービー,0
1295,6120001268008,新規,0,2024-08-27,2024-08-27,株式会社みやこフードサービス,,株式会社,大阪府,大阪市都島区,東野田町４丁目１９－３Ｈｉｄａマンション１階中央店舗,,27,102,5340024,,,,,,,2024-08-27,1,,,,,ミヤコフードサービス,0
1296,6120001268024,新規,0,2024-08-27,2024-08-27,株式会社ＫＬＴ　ＭＡＮＯＲ,,株式会社,大阪府,大阪市中央区,瓦屋町１丁目１４番１７号ＳａｋｕｒａＳｕｎｓｈｉｎｅＴｏｗｅｒ３０３,,27,128,5420066,,,,,,,2024-08-27,1,,,,,ケーエルティマナー,0
1297,6120001268073,新規,0,2024-08-27,2024-08-27,株式会社Ｌｕｃａ　ＧｌａｎＺ,,株式会社,大阪府,大阪市平野区,喜連２丁目７番１９号,,27,126,5470027,,,,,,,2024-08-27,1,,,,,ルカグランツ,0
1303,6130001077762,新規,0,2024-08-27,2024-08-27,株式会社城成,,株式会社,京都府,城陽市,枇杷庄西ノ口５番地の８,,26,207,6100117,,,,,,,2024-08-27,1,,,,,ジョウセイ,0
1304,6130001077812,新規,0,2024-08-27,2024-08-27,株式会社アイディアル,,株式会社,京都府,京都市下京区,西側町４８６,,26,106,6000000,,,,,,,2024-08-27,1,,,,,アイディアル,0
1307,6130003009813,新規,0,2024-08-27,2024-08-27,合同会社ＮＯＮＯＴＡＫ　ＪＰ,,合同会社,京都府,京都市東山区,弁財天町１９大和ビル２階,,26,105,6050086,,,,,,,2024-08-27,1,,,,,ノノタックジャパン,0
1311,6140001135610,新規,0,2024-08-27,2024-08-27,株式会社ＭＤＦ,,株式会社,兵庫県,明石市,沢野２丁目１２番２３号,,28,203,6730008,,,,,,,2024-08-27,1,,,,,エムディーエフ,0
1314,6140003021008,新規,0,2024-08-27,2024-08-27,合同会社Ｒｅｖｅｇｒａｎｔ,,合同会社,兵庫県,川西市,花屋敷山手町１２－７,,28,217,6660036,,,,,,,2024-08-27,1,,,,,レブグラント,0
1317,6170001018283,新規,0,2024-08-27,2024-08-27,株式会社雑賀電気工事,,株式会社,和歌山県,和歌山市,小雑賀７２０番地１５,,30,201,6410007,,,,,,,2024-08-27,1,,,,,サイカデンキコウジ,0
1321,6180001162989,新規,0,2024-08-27,2024-08-27,株式会社ひとめ,,株式会社,愛知県,名古屋市緑区,有松町大字有松字長坂南２７１番第４番地,,23,114,4580901,,,,,,,2024-08-27,1,,,,,ヒトメ,0
1334,6200003006480,新規,0,2024-08-27,2024-08-27,サンベルグリーン合同会社,,合同会社,岐阜県,加茂郡八百津町,福地１０５０番地,,21,505,5050421,,,,,,,2024-08-27,1,,,,,サンベルグリーン,0
1341,6240001063743,新規,0,2024-08-27,2024-08-27,株式会社ＡＳＡ,,株式会社,広島県,安芸郡府中町,浜田４丁目５番３８号,,34,302,7350013,,,,,,,2024-08-27,1,,,,,アサ,0
1355,6290001106828,新規,0,2024-08-27,2024-08-27,株式会社エム・ジェイ・ケイ,,株式会社,福岡県,嘉麻市,平１４１６番地４７,,40,227,8200203,,,,,,,2024-08-27,1,,,,,エムジェイケイ,0
1356,6290001107009,新規,0,2024-08-27,2024-08-27,いろはリアルティ株式会社,,株式会社,福岡県,大牟田市,大字白銀６０８番地３,,40,202,8370912,,,,,,,2024-08-27,1,,,,,イロハリアルティ,0
1357,6290001107017,新規,0,2024-08-27,2024-08-27,株式会社ジサン,,株式会社,福岡県,古賀市,天神１丁目１２－２５くまやびる３０１,,40,223,8113101,,,,,,,2024-08-27,1,,,,,ジサン,0
1358,6290001107033,新規,0,2024-08-27,2024-08-27,株式会社おまけ,,株式会社,福岡県,福岡市中央区,舞鶴３丁目２番２７－３０２号サン舞鶴,,40,133,8100073,,,,,,,2024-08-27,1,,,,,オマケ,0
1359,6290001107066,新規,0,2024-08-27,2024-08-27,株式会社ＡｋｉＺｏｓ,,株式会社,福岡県,福岡市中央区,天神２丁目２番１２号Ｔ＆Ｊビルディング７Ｆ,,40,133,8100001,,,,,,,2024-08-27,1,,,,,アキゾス,0
1360,6290003015721,新規,0,2024-08-27,2024-08-27,合同会社未来ノート,,合同会社,福岡県,福岡市中央区,地行１丁目６番３号スカイハイツ５０１号,,40,133,8100064,,,,,,,2024-08-27,1,,,,,ミライノート,0
1365,6330001032400,新規,0,2024-08-27,2024-08-27,株式会社秀工業,,株式会社,熊本県,熊本市南区,畠口町１９７１番地,,43,104,8615265,,,,,,,2024-08-27,1,,,,,ヒデコウギョウ,0
1369,6340003004586,新規,0,2024-08-27,2024-08-27,ロック・パイン合同会社,,合同会社,鹿児島県,鹿屋市,大姶良町７７９,,46,203,8930051,,,,,,,2024-08-27,1,,,,,ロックパイン,0
1372,6350001019156,新規,0,2024-08-27,2024-08-27,ドローバーワン株式会社,,株式会社,宮崎県,西都市,大字岡富５３０番地４,,45,208,8810001,,,,,,,2024-08-27,1,,,,,ドローバーワン,0
1380,6430003016721,新規,0,2024-08-27,2024-08-27,合同会社セパルティ,,合同会社,北海道,沙流郡日高町,富川北１丁目１番３０号,,01,601,0550001,,,,,,,2024-08-27,1,,,,,セパルティ,0
1381,6460101007594,新規,0,2024-08-27,2024-08-27,株式会社建築澪,,株式会社,北海道,帯広市,東一条南１９丁目４番地１,,01,207,0800801,,,,,,,2024-08-27,1,,,,,ケンチクミオ,0
1391,6700150117897,新規,0,2024-08-27,2024-08-27,江蘇嘉華進出口有限公司,,外国会社等,,,,,,,,Ｎｏ．２０，Ｙｕｈａｎｇ　Ｒｏａｄ，Ｅｃｏｎｏｍｉｃ　Ｄｅｖｅｌｏｐｍｅｎｔ　Ｚｏｎｅ，Ｍｕｙａｎｇ　Ｃｏｕｎｔｙ，Ｓｕｑｉａｎ　Ｃｉｔｙ，ＣＮ,,,,,,2024-08-27,1,,,,,コウソカガシンシュツグチユウゲンコウシ,0
1392,6700150126907,新規,0,2024-08-27,2024-08-27,Ｓｈｅｎｚｈｅｎ　Ｈａｉｌｅｇｅ　Ｔｅｃｈｎｏｌｏｇｙ　Ｃｏ．Ｌｔｄ,,外国会社等,,,,,,,,Ａ５１３，Ｎｏ．２　Ｂｕｉｌｄｉｎｇ，Ｈｕａｎａｎ　Ｇｕｏｊｉ　Ｙｉｎｓｈｕａ　Ｚｈｉｐｉｎ，Ｂａｏｚｈｕａｎｇｑｕ，Ｈｕａｎａｎｄａｄａｏ　Ｎｏ．１，Ｐｉｎｇｈｕ，Ｌｏｎｇｇａｎｇ，Ｓｈｅｎｚｈｅｎ，Ｇｕａｎｇｄｏｎｇ,,,,,,2024-08-27,1,,,,,シェンジェンシーハイローァゴーァコーァジーヨウシエンゴーンスー,0
1400,7010003044680,新規,0,2024-08-27,2024-08-27,合同会社セルフディフェンスパートナーズ,,合同会社,東京都,中央区,日本橋室町１丁目１１番１２号日本橋水野ビル７階,,13,102,1030022,,,,,,,2024-08-27,1,,,,,セルフディフェンスパートナーズ,0
1401,7010003044730,新規,0,2024-08-27,2024-08-27,合同会社イトウ,,合同会社,東京都,文京区,湯島２丁目１５番１－７０２号,,13,105,1130034,,,,,,,2024-08-27,1,,,,,イトウ,0
1404,7010005038697,新規,0,2024-08-27,2024-08-27,一般社団法人サヱグサ＆エクスペリエンス,,その他の設立登記法人,東京都,中央区,銀座３丁目５番１２号,,13,102,1040061,,,,,,,2024-08-27,1,,,,,サヱグサアンドエクスペリエンス,0
1405,7010005038706,新規,0,2024-08-27,2024-08-27,一般社団法人日本がん免疫学会,,その他の設立登記法人,東京都,千代田区,一ツ橋１丁目１番１号,,13,101,1000003,,,,,,,2024-08-27,1,,,,,ニホンガンメンエキガッカイ,0
1406,7010005038722,新規,0,2024-08-27,2024-08-27,一般社団法人ＩＭＰＡＣＴ　ＳＨＩＦＴ,,その他の設立登記法人,東京都,中央区,日本橋３丁目１番３号,,13,102,1030027,,,,,,,2024-08-27,1,,,,,インパクトシフト,0
1410,7010401184665,新規,0,2024-08-27,2024-08-27,株式会社Ｄｅｌｉｇｈｔ　Ｈｕｂ,,株式会社,東京都,港区,南青山３丁目１番３６号青山丸竹ビル６Ｆ,,13,103,1070062,,,,,,,2024-08-27,1,,,,,ディライトハブ,0
1411,7010401184681,新規,0,2024-08-27,2024-08-27,株式会社Ｃｈａｎｇｅｕｐ,,株式会社,東京都,港区,南青山２丁目２番１５号,,13,103,1070062,,,,,,,2024-08-27,1,,,,,チェンジアップ,0
1412,7010401184715,新規,0,2024-08-27,2024-08-27,株式会社ＬＮＢ　Ｊａｐａｎ,,株式会社,東京都,港区,麻布十番１丁目３番２号麻布十番アネックス４階,,13,103,1060045,,,,,,,2024-08-27,1,,,,,エルエヌビージャパン,0
1413,7010401184723,新規,0,2024-08-27,2024-08-27,株式会社大野屋,,株式会社,東京都,港区,新橋５丁目３１番８号ル・グラシエル６０３,,13,103,1050004,,,,,,,2024-08-27,1,,,,,オオノヤ,0
1417,7010403033275,新規,0,2024-08-27,2024-08-27,合同会社ｐｅｔｉｔｅ　ｊｏｉｅ,,合同会社,東京都,港区,南青山２丁目２番１５号ウィン青山９４２,,13,103,1070062,,,,,,,2024-08-27,1,,,,,プチジョア,0
1418,7010501052821,新規,0,2024-08-27,2024-08-27,株式会社Ｌｅｇｉｏｎ,,株式会社,東京都,台東区,橋場１丁目３６番１１,,13,106,1110023,,,,,,,2024-08-27,1,,,,,リージョン,0
1419,7010601065830,新規,0,2024-08-27,2024-08-27,株式会社ｓｔｕｄｉｏ　ＮＡＮＡＭＩ,,株式会社,東京都,墨田区,太平１丁目２２番５－９０１号,,13,107,1300012,,,,,,,2024-08-27,1,,,,,スタジオナナミ,0
1425,7010801035352,新規,0,2024-08-27,2024-08-27,株式会社猫綱プロジェクト,,株式会社,東京都,大田区,北嶺町４７番１０号,,13,111,1450073,,,,,,,2024-08-27,1,,,,,ネコヅナプロジェクト,0
1426,7010803005064,新規,0,2024-08-27,2024-08-27,合同会社Ｍｅｄムービー,,合同会社,東京都,大田区,蒲田５丁目６番９号シーズンフラッツ蒲田２０３,,13,111,1440052,,,,,,,2024-08-27,1,,,,,メドムービー,0
1433,7011001164248,新規,0,2024-08-27,2024-08-27,Ｂｙｔｅｂｏｘ株式会社,,株式会社,東京都,渋谷区,渋谷２丁目１９－１５宮益坂ビルディング６０９,,13,113,1500002,,,,,,,2024-08-27,1,,,,,バイトボックス,0
1434,7011001164289,新規,0,2024-08-27,2024-08-27,株式会社ｙ２ｒａｍ,,株式会社,東京都,目黒区,下目黒１丁目１番１４号コノトラビル７Ｔ,,13,110,1530064,,,,,,,2024-08-27,1,,,,,ワイツーラム,0
1435,7011001164314,新規,0,2024-08-27,2024-08-27,株式会社Ｈｉ　ＮＥＸＴ,,株式会社,東京都,渋谷区,上原１丁目３番９号,,13,113,1510064,,,,,,,2024-08-27,1,,,,,ハイネクスト,0
1436,7011001164339,新規,0,2024-08-27,2024-08-27,株式会社未来集団,,株式会社,東京都,渋谷区,神宮前６丁目２３番４号桑野ビル２Ｆ,,13,113,1500001,,,,,,,2024-08-27,1,,,,,ミライシュウダン,0
1439,7011003019862,新規,0,2024-08-27,2024-08-27,合同会社ＳＩＧＱ,,合同会社,東京都,渋谷区,道玄坂１丁目１０番８号渋谷道玄坂東急ビル２Ｆ－Ｃ,,13,113,1500043,,,,,,,2024-08-27,1,,,,,シグキュー,0
1440,7011003019870,新規,0,2024-08-27,2024-08-27,Ｐｒｅｓｅｎｃｅ合同会社,,合同会社,東京都,渋谷区,渋谷２丁目１９－１５宮益坂ビルディング６０９,,13,113,1500002,,,,,,,2024-08-27,1,,,,,,0
1447,7011101108518,新規,0,2024-08-27,2024-08-27,森陽商事株式会社,,株式会社,東京都,新宿区,新宿１丁目２４－７ルネ御苑プラザ１３２６号,,13,104,1600022,,,,,,,2024-08-27,1,,,,,シンヨウショウジ,0
1454,7011503006195,新規,0,2024-08-27,2024-08-27,Ｌｉｎｏｌｉｎｅ合同会社,,合同会社,東京都,北区,豊島８丁目２７－１８パークタワー王子リバーグレイス１１０８,,13,117,1140003,,,,,,,2024-08-27,1,,,,,リノライン,0
1456,7011701027563,新規,0,2024-08-27,2024-08-27,株式会社Ｊ＆Ｋ,,株式会社,東京都,江戸川区,平井６丁目５番５号,,13,123,1320035,,,,,,,2024-08-27,1,,,,,ジェイアンドケー,0
1474,7020001158606,新規,0,2024-08-27,2024-08-27,宏福商事株式会社,,株式会社,神奈川県,川崎市川崎区,日進町４番地５ルイシャトレ川崎３０４,,14,131,2100024,,,,,,,2024-08-27,1,,,,,コウフクショウジ,0
1475,7020001158614,新規,0,2024-08-27,2024-08-27,Ａ．ｏｎｅ株式会社,,株式会社,神奈川県,川崎市川崎区,元木２丁目３番２３号スカイコーポ元木１０２号,,14,131,2100021,,,,,,,2024-08-27,1,,,,,エイワン,0
1476,7020001158696,新規,0,2024-08-27,2024-08-27,Ｅｓｓｅｘ　Ｊａｐａｎ株式会社,,株式会社,神奈川県,横浜市戸塚区,川上町８７番地１ウェルストン１ビル１階,,14,110,2440805,,,,,,,2024-08-27,1,,,,,エセックスジャパン,0
1477,7020001158770,新規,0,2024-08-27,2024-08-27,正隆株式会社,,株式会社,神奈川県,横浜市中区,山下町１９１番地１０－３Ｆ,,14,104,2310023,,,,,,,2024-08-27,1,,,,,ショウリュウ,0
1478,7020001158837,新規,0,2024-08-27,2024-08-27,バトンパステクノロジー株式会社,,株式会社,神奈川県,横浜市都筑区,茅ケ崎中央５０番９号ＣＭＫビル２Ｆ,,14,118,2240032,,,,,,,2024-08-27,1,,,,,バトンパステクノロジー,0
1479,7020001158861,新規,0,2024-08-27,2024-08-27,株式会社みどり書房,,株式会社,神奈川県,横浜市港北区,綱島西４丁目８番１５号,,14,109,2230053,,,,,,,2024-08-27,1,,,,,ミドリショボウ,0
1481,7020003026777,新規,0,2024-08-27,2024-08-27,デヴァイン・ストリーム合同会社,,合同会社,神奈川県,川崎市宮前区,土橋１丁目８番２号Ｂ２１３,,14,136,2160005,,,,,,,2024-08-27,1,,,,,デヴァインストリーム,0
1484,7021001083091,新規,0,2024-08-27,2024-08-27,株式会社ほほえみ,,株式会社,神奈川県,大和市,下鶴間２９９８番地１９５,,14,213,2420001,,,,,,,2024-08-27,1,,,,,ホホエミ,0
1486,7021003014945,新規,0,2024-08-27,2024-08-27,合同会社ミザンプラス,,合同会社,神奈川県,横須賀市,長沢１丁目２９番８号,,14,201,2390842,,,,,,,2024-08-27,1,,,,,ミザンプラス,0
1498,7030003024994,新規,0,2024-08-27,2024-08-27,Ｍ＆Ａ合同会社,,合同会社,埼玉県,大里郡寄居町,大字赤浜１７６３番地,,11,408,3691211,,,,,,,2024-08-27,1,,,,,エムアンドエイ,0
1503,7040001135058,新規,0,2024-08-27,2024-08-27,ともつね株式会社,,株式会社,千葉県,千葉市緑区,あすみが丘７丁目５２番地４,,12,105,2670066,,,,,,,2024-08-27,1,,,,,トモツネ,0
1504,7040001135082,新規,0,2024-08-27,2024-08-27,株式会社ワンダー,,株式会社,千葉県,八千代市,村上１９４１番地１４－５３０号,,12,221,2760028,,,,,,,2024-08-27,1,,,,,ワンダー,0
1505,7040001135099,新規,0,2024-08-27,2024-08-27,株式会社新栄,,株式会社,千葉県,市原市,南国分寺台５丁目７番地２３,,12,219,2900075,,,,,,,2024-08-27,1,,,,,シンエイ,0
1506,7040001135108,新規,0,2024-08-27,2024-08-27,株式会社リトリル,,株式会社,千葉県,松戸市,馬橋３１９２番地,,12,207,2710051,,,,,,,2024-08-27,1,,,,,リトリル,0
1512,7060001037434,新規,0,2024-08-27,2024-08-27,株式会社住まいるハウジング,,株式会社,栃木県,矢板市,上太田１５０番地１,,09,211,3292513,,,,,,,2024-08-27,1,,,,,スマイルハウジング,0
1515,7070001042111,新規,0,2024-08-27,2024-08-27,株式会社アイス工房,,株式会社,群馬県,前橋市,岩神町２丁目１２番１号,,10,201,3710035,,,,,,,2024-08-27,1,,,,,アイスコウボウ,0
1517,7080101024974,新規,0,2024-08-27,2024-08-27,ラークヒルズ株式会社,,株式会社,静岡県,熱海市,西熱海町２丁目１７番５１号,,22,205,4130038,,,,,,,2024-08-27,1,,,,,ラークヒルズ,0
1519,7080401027396,新規,0,2024-08-27,2024-08-27,株式会社ＷＹＭ,,株式会社,静岡県,浜松市浜名区,東美薗４７０番地,,22,139,4340026,,,,,,,2024-08-27,1,,,,,ワイム,0
1529,7120001268015,新規,0,2024-08-27,2024-08-27,ＨＨＰ株式会社,,株式会社,大阪府,大阪市西成区,鶴見橋１丁目１５番１６号,,27,122,5570031,,,,,,,2024-08-27,1,,,,,エイチエイチピー,0
1530,7120001268048,新規,0,2024-08-27,2024-08-27,グリーンハウス株式会社,,株式会社,大阪府,大阪市港区,市岡元町２丁目６－１１－３０１号,,27,107,5520002,,,,,,,2024-08-27,1,,,,,グリーンハウス,0
1531,7120001268056,新規,0,2024-08-27,2024-08-27,パナソニックメディアエンターテインメント株式会社,,株式会社,大阪府,門真市,松葉町２番１５号,,27,223,5710056,,,,,,,2024-08-27,1,,,,,パナソニックメディアエンターテインメント,0
1532,7120001268064,新規,0,2024-08-27,2024-08-27,株式会社Ｍ＆Ｃｏ．,,株式会社,大阪府,大阪市東住吉区,中野４丁目４番４７号ラソアメゾン中野１０６,,27,121,5460012,,,,,,,2024-08-27,1,,,,,エムアンドカンパニー,0
1533,7120001268072,新規,0,2024-08-27,2024-08-27,株式会社ＺＥＲＯ,,株式会社,大阪府,大阪市阿倍野区,帝塚山１丁目８番１０号,00136084,27,119,5450037,,,,,,,2024-08-27,1,,,,,ゼロ,0
1535,7120003027385,新規,0,2024-08-27,2024-08-27,ＧｒａｃｅＲＥＩ合同会社,,合同会社,大阪府,大阪市中央区,南船場３丁目２番２２号おおきに南船場ビル２０５,,27,128,5420081,,,,,,,2024-08-27,1,,,,,グレースアールイーアイ,0
1538,7120103006033,新規,0,2024-08-27,2024-08-27,合同会社ＫＯＳＭＥＲ．ｍｉ,,合同会社,大阪府,堺市堺区,南三国ヶ丘町４丁７番１６号,,27,141,5900023,,,,,,,2024-08-27,1,,,,,コスメルミー,0
1550,7140003021007,新規,0,2024-08-27,2024-08-27,オフィスＭＭ法務合同会社,,合同会社,兵庫県,神戸市北区,星和台１丁目４番地の２０,,28,109,6511121,,,,,,,2024-08-27,1,,,,,オフィスエムエムホウム,0
1551,7150003003350,新規,0,2024-08-27,2024-08-27,Ｅｃｏｎｏｍｉｃ　ｆｏｒｔｕｎｅ合同会社,,合同会社,奈良県,磯城郡田原本町,大字三笠２５４番地の１コスモ２００１－２０３号室,,29,363,6360342,,,,,,,2024-08-27,1,,,,,エコノミックフォーチュン,0
1568,7180001162996,新規,0,2024-08-27,2024-08-27,株式会社ネクスビー,,株式会社,愛知県,名古屋市西区,新福寺町１丁目５９番地の１,,23,104,4510083,,,,,,,2024-08-27,1,,,,,ネクスビー,0
1569,7180001163004,新規,0,2024-08-27,2024-08-27,ニューアップ工業株式会社,,株式会社,愛知県,名古屋市南区,西又兵ヱ町４丁目５４番地の１プレサンスロジェ大江１００１号,,23,112,4570835,,,,,,,2024-08-27,1,,,,,ニューアップコウギョウ,0
1572,7180003027264,新規,0,2024-08-27,2024-08-27,合同会社ＴＭＫ,,合同会社,愛知県,名古屋市東区,泉３丁目２１番２２号－４０３,,23,102,4610001,,,,,,,2024-08-27,1,,,,,ティーエムケー,0
1573,7180005020746,新規,0,2024-08-27,2024-08-27,一般社団法人日米交流推進機構,,その他の設立登記法人,愛知県,名古屋市天白区,平針５丁目１０４番地,,23,116,4680011,,,,,,,2024-08-27,1,,,,,ニチベイコウリュウスイシンキコウ,0
1575,7180301038987,新規,0,2024-08-27,2024-08-27,株式会社結,,株式会社,愛知県,豊橋市,牛川町字田ノ上５番地１,,23,201,4400016,,,,,,,2024-08-27,1,,,,,ムスビ,0
1576,7180301038995,新規,0,2024-08-27,2024-08-27,株式会社ＡＬＡＭ,,株式会社,愛知県,豊橋市,花中町１８２番地の２,,23,201,4418032,,,,,,,2024-08-27,1,,,,,アラム,0
1588,7260001039393,新規,0,2024-08-27,2024-08-27,株式会社Ａｔ　Ｈｏｒｉｚｏｎ,,株式会社,岡山県,勝田郡勝央町,黒土８５６番地２,,33,622,7094312,,,,,,,2024-08-27,1,,,,,アットホライズン,0
1589,7260001039402,新規,0,2024-08-27,2024-08-27,株式会社シンセイ,,株式会社,岡山県,総社市,東阿曽４０５番地１,,33,208,7191102,,,,,,,2024-08-27,1,,,,,シンセイ,0
1592,7260003004874,新規,0,2024-08-27,2024-08-27,合同会社ＲＩＳＥ,,合同会社,岡山県,和気郡和気町,益原３９番地１,,33,346,7090452,,,,,,,2024-08-27,1,,,,,ライズ,0
1596,7290001106991,新規,0,2024-08-27,2024-08-27,株式会社かなで,,株式会社,福岡県,大野城市,中３丁目５番６号,,40,219,8160906,,,,,,,2024-08-27,1,,,,,カナデ,0
1597,7290001107016,新規,0,2024-08-27,2024-08-27,株式会社スポビーイング,,株式会社,福岡県,福岡市博多区,博多駅東１丁目１番３３号はかた近代ビル７Ｆ,,40,132,8120013,,,,,,,2024-08-27,1,,,,,スポビーイング,0
1598,7290003015720,新規,0,2024-08-27,2024-08-27,合同会社ＣＲＭ,,合同会社,福岡県,福岡市南区,井尻３丁目１１番１８号つぼねハイツ２Ｆ,,40,134,8111302,,,,,,,2024-08-27,1,,,,,シーアールエム,0
1599,7290003015745,新規,0,2024-08-27,2024-08-27,合同会社ＥＬＴＲＥＮ,,合同会社,福岡県,筑紫野市,光が丘２丁目１２番１８号,,40,217,8180036,,,,,,,2024-08-27,1,,,,,エルトレン,0
1600,7290003015753,新規,0,2024-08-27,2024-08-27,合同会社ハッピーロード,,合同会社,福岡県,福岡市博多区,三筑１丁目１番２５号,,40,132,8120887,,,,,,,2024-08-27,1,,,,,ハッピーロード,0
1601,7290803004823,新規,0,2024-08-27,2024-08-27,ｂｏｔｔｏｍ　ｎｅｃｋ　ｈａｎｇｅｒｓ合同会社,,合同会社,福岡県,田川市,大字猪国２５５９番地いいかねＰａｌｅｔｔｅ,,40,206,8260045,,,,,,,2024-08-27,1,,,,,ボトムネックハンガーズ,0
1606,7330001032399,新規,0,2024-08-27,2024-08-27,株式会社ｂｅｒｒｙ,,株式会社,熊本県,熊本市北区,清水亀井町５５番６３号,,43,105,8618066,,,,,,,2024-08-27,1,,,,,ベリー,0
1607,7340001026755,新規,0,2024-08-27,2024-08-27,株式会社プロベスト,,株式会社,鹿児島県,霧島市,隼人町小田２４７１番地２,,46,218,8995105,,,,,,,2024-08-27,1,,,,,プロベスト,0
1609,7340003004585,新規,0,2024-08-27,2024-08-27,奥方合同会社,,合同会社,鹿児島県,出水市,野田町下名６４７２－１,,46,208,8990502,,,,,,,2024-08-27,1,,,,,オクガタ,0
1620,7400001016766,新規,0,2024-08-27,2024-08-27,株式会社ＲｅｖＡｒｃｓ,,株式会社,岩手県,一関市,真柴字原下３２－４０,,03,209,0210901,,,,,,,2024-08-27,1,,,,,リブアークス,0
1623,7430003016737,新規,0,2024-08-27,2024-08-27,Ｓｔｅｐｓ合同会社,,合同会社,北海道,札幌市中央区,南五条西１５丁目２－３－５０３,,01,101,0640805,,,,,,,2024-08-27,1,,,,,ステップス,0
1625,7460101007593,新規,0,2024-08-27,2024-08-27,株式会社サニーキングダム,,株式会社,北海道,帯広市,西二十五条南３丁目４番地１１６,,01,207,0802475,,,,,,,2024-08-27,1,,,,,サニーキングダム,0
1630,7700150126906,新規,0,2024-08-27,2024-08-27,ｇｕａｎｇｚｈｏｕｓｈｉｓｈａｎｇｑｉｎｄａｍａｏｙｉｙｏｕｘｉａｎｇｏｎｇｓｉ,,外国会社等,,,,,,,,Ｇｕａｎｇｚｈｏｕｓｈｉ，Ｂａｉｙｕｎｑｕ，ｓｏｎｇｚｈｏｕｊｉｅｃｈａｌｏｎｇｔｉａｎｓｈｕｊｉｅ６５ｈａｏ２０３ｆａｎｇ,,,,,,2024-08-27,1,,,,,グワーンジョウシーシャーンチンダーマオイーヨウシエンゴーンスー,0
1640,8010001247714,新規,0,2024-08-27,2024-08-27,株式会社ａｓｓｅｔｓｃａｒｅ,,株式会社,東京都,文京区,小石川３丁目２４番３－５２６号,,13,105,1120002,,,,,,,2024-08-27,1,,,,,アセッツケア,0
1643,8010003044688,新規,0,2024-08-27,2024-08-27,合同会社Ｅｌａｔｉｏｎ　Ｌｉｎｋ,,合同会社,東京都,千代田区,神田和泉町１番地６－１６ヤマトビル４０５,,13,101,1010024,,,,,,,2024-08-27,1,,,,,イレーションリンク,0
1646,8010005038705,新規,0,2024-08-27,2024-08-27,四谷一般社団法人,,その他の設立登記法人,東京都,千代田区,神田小川町３丁目２６番８号神田小川町三丁目ビル６階,,13,101,1010052,,,,,,,2024-08-27,1,,,,,ヨツヤ,0
1647,8010101016291,新規,0,2024-08-27,2024-08-27,株式会社ＵＫホールディングス,,株式会社,東京都,八王子市,打越町６４５番地５,,13,201,1920911,,,,,,,2024-08-27,1,,,,,ユーケイホールディングス,0
1650,8010401184524,新規,0,2024-08-27,2024-08-27,株式会社ＰＥＲＡ,,株式会社,東京都,港区,西麻布２丁目２５－１５ユニマットミストラルポイントビル５階,,13,103,1060031,,,,,,,2024-08-27,1,,,,,ペラ,0
1651,8010401184664,新規,0,2024-08-27,2024-08-27,Ｅｘｔｒａ　Ｓｐａｃｅ　Ｊａｐａｎ２株式会社,,株式会社,東京都,港区,新橋５丁目２３番７号,,13,103,1050004,,,,,,,2024-08-27,1,,,,,エクストラスペースジャパンツー,0
1652,8010401184680,新規,0,2024-08-27,2024-08-27,株式会社ｅｎｕ,,株式会社,東京都,港区,白金台４丁目８番１４－３Ｆ,,13,103,1080071,,,,,,,2024-08-27,1,,,,,エヌ,0
1653,8010401184697,新規,0,2024-08-27,2024-08-27,ビー・ピー・グループ株式会社,,株式会社,東京都,港区,南青山１丁目１５番２２号,,13,103,1070062,,,,,,,2024-08-27,1,,,,,ビーピーグループ,0
1654,8010401184706,新規,0,2024-08-27,2024-08-27,株式会社トゥルーアプリシエーション,,株式会社,東京都,港区,新橋６丁目４番３号,,13,103,1050004,,,,,,,2024-08-27,1,,,,,トゥルーアプリシエーション,0
1655,8010401184722,新規,0,2024-08-27,2024-08-27,株式会社はくはつちゅーん,,株式会社,東京都,港区,西新橋１丁目１６番２号山水ビル７Ｆ,,13,103,1050003,,,,,,,2024-08-27,1,,,,,ハクハツチューン,0
1656,8010401184730,新規,0,2024-08-27,2024-08-27,株式会社影響力,,株式会社,東京都,港区,六本木５丁目１６番５号インペリアル六本木１号館５０８号室,,13,103,1060032,,,,,,,2024-08-27,1,,,,,エイキョウリョク,0
1657,8010401184771,新規,0,2024-08-27,2024-08-27,株式会社ＨＡＪＩＭＵ,,株式会社,東京都,港区,南青山６丁目４番５号,,13,103,1070062,,,,,,,2024-08-27,1,,,,,ハジム,0
1659,8010403033282,新規,0,2024-08-27,2024-08-27,Ｂａｌａｏｒｏ　Ｈｏｌｄｉｎｇｓ合同会社,,合同会社,東京都,港区,六本木７丁目７番７号,,13,103,1060032,,,,,,,2024-08-27,1,,,,,バラオロホールディングス,0
1663,8010601065821,新規,0,2024-08-27,2024-08-27,株式会社ユーメディカル,,株式会社,東京都,墨田区,業平３丁目１２－５プラッツ・Ｋ１階,,13,107,1300002,,,,,,,2024-08-27,1,,,,,ユーメディカル,0
1666,8010603011047,新規,0,2024-08-27,2024-08-27,合同会社ＢＡＹ,,合同会社,東京都,江東区,亀戸３丁目５０番４号,,13,108,1360071,,,,,,,2024-08-27,1,,,,,,0
1671,8010703007317,新規,0,2024-08-27,2024-08-27,エアコジャック合同会社,,合同会社,東京都,品川区,大崎１丁目１９番１３－２００３号,,13,109,1410032,,,,,,,2024-08-27,1,,,,,エアコジャック,0
1674,8010801035351,新規,0,2024-08-27,2024-08-27,株式会社ジェイエスディー,,株式会社,東京都,大田区,蒲田５丁目１９番１５号,,13,111,1440052,,,,,,,2024-08-27,1,,,,,ジェイエスディー,0
1683,8011001164239,新規,0,2024-08-27,2024-08-27,ボイリク株式会社,,株式会社,東京都,渋谷区,宇田川町３７番１０号麻仁ビル渋谷６０１,,13,113,1500042,,,,,,,2024-08-27,1,,,,,ボイリク,0
1684,8011001164247,新規,0,2024-08-27,2024-08-27,株式会社Ｐｌａｎｅｔ,,株式会社,東京都,渋谷区,西原３丁目２３番６号,,13,113,1510066,,,,,,,2024-08-27,1,,,,,プラネット,0
1685,8011001164255,新規,0,2024-08-27,2024-08-27,イーモラボ株式会社,,株式会社,東京都,渋谷区,渋谷３丁目２６番１７号ＶＯＲＴ渋谷３Ｆ,,13,113,1500002,,,,,,,2024-08-27,1,,,,,イーモラボ,0
1686,8011001164263,新規,0,2024-08-27,2024-08-27,株式会社ＰＩＥＣＥＳ　ＴＯＫＹＯ,,株式会社,東京都,渋谷区,円山町２０番５号グランドネス渋谷２階,,13,113,1500044,,,,,,,2024-08-27,1,,,,,,0
1687,8011003019853,新規,0,2024-08-27,2024-08-27,合同会社藍湛,,合同会社,東京都,渋谷区,恵比寿西２丁目４番８号ウィンド恵比寿ビル８Ｆ,,13,113,1500021,,,,,,,2024-08-27,1,,,,,アイジン,0
1692,8011201025703,新規,0,2024-08-27,2024-08-27,株式会社Ｋ２,,株式会社,東京都,中野区,中央１丁目４６－５シャングリラ・ベル新宿４０２,,13,114,1640011,,,,,,,2024-08-27,1,,,,,ケーツー,0
1694,8011501031013,新規,0,2024-08-27,2024-08-27,Ｋｏｉｎｂｅｒｙｌ株式会社,,株式会社,東京都,北区,浮間３丁目１４番３号,,13,117,1150051,,,,,,,2024-08-27,1,,,,,コイノボリ,0
1695,8011501031087,新規,0,2024-08-27,2024-08-27,株式会社ＭＣ　ＬＩＮＫヘルスケア,,株式会社,東京都,北区,王子１丁目１９番８号,,13,117,1140002,,,,,,,2024-08-27,1,,,,,エムシーリンクヘルスケア,0
1696,8011603004429,新規,0,2024-08-27,2024-08-27,合同会社こはるカンパニー,,合同会社,東京都,練馬区,石神井町４丁目１１番３３－１１０号,,13,120,1770041,,,,,,,2024-08-27,1,,,,,コハルカンパニー,0
1698,8011701027570,新規,0,2024-08-27,2024-08-27,株式会社ＢＬＯＳＳＯＭ,,株式会社,東京都,江戸川区,平井７丁目２５番２０号,,13,123,1320035,,,,,,,2024-08-27,1,,,,,ブラッサム,0
1701,8012301014059,新規,0,2024-08-27,2024-08-27,株式会社ティップ,,株式会社,東京都,町田市,玉川学園７丁目４番６号,,13,209,1940041,,,,,,,2024-08-27,1,,,,,ティップ,0
1703,8012403006722,新規,0,2024-08-27,2024-08-27,合同会社Ａ‐ｒｏｕｎｄ,,合同会社,東京都,三鷹市,野崎３丁目１３番１６号,,13,204,1810014,,,,,,,2024-08-27,1,,,,,アラウンド,0
1708,8020001158605,新規,0,2024-08-27,2024-08-27,株式会社相模緑心,,株式会社,神奈川県,横浜市瀬谷区,上瀬谷町４２番地６２,,14,114,2460006,,,,,,,2024-08-27,1,,,,,サガミリョクシン,0
1709,8020001158613,新規,0,2024-08-27,2024-08-27,株式会社Ｒｕｂｒｉｃｋｓ,,株式会社,神奈川県,横浜市中区,新山下１丁目１４－１－３３６,,14,104,2310801,,,,,,,2024-08-27,1,,,,,ルブリックス,0
1710,8020001158621,新規,0,2024-08-27,2024-08-27,株式会社楽久縁,,株式会社,神奈川県,川崎市幸区,東小倉２番１３号,,14,132,2120033,,,,,,,2024-08-27,1,,,,,ラクエン,0
1711,8020001158720,新規,0,2024-08-27,2024-08-27,株式会社ハレクラ,,株式会社,神奈川県,横浜市青葉区,青葉台２丁目３４番地９青葉台コートテラス１００３,,14,117,2270062,,,,,,,2024-08-27,1,,,,,ハレクラ,0
1712,8020001158729,新規,0,2024-08-27,2024-08-27,株式会社ＹＹＫ,,株式会社,神奈川県,横浜市栄区,上郷町１９６４番地１,,14,115,2470013,,,,,,,2024-08-27,1,,,,,ワイワイケー,0
1713,8020001158828,新規,0,2024-08-27,2024-08-27,株式会社コロネット,,株式会社,神奈川県,川崎市高津区,新作５丁目１９番２号,,14,134,2130014,,,,,,,2024-08-27,1,,,,,コロネット,0
1717,8020003026776,新規,0,2024-08-27,2024-08-27,合同会社ＬＴＳテクノロジーズ,,合同会社,神奈川県,川崎市宮前区,宮前平３丁目４番地２９,,14,136,2160006,,,,,,,2024-08-27,1,,,,,エルティーエステクノロジーズ,0
1718,8020005016511,新規,0,2024-08-27,2024-08-27,税理士法人サンライズ横浜,,その他の設立登記法人,神奈川県,横浜市神奈川区,沢渡１番地２Ｊプロ高島台サウスビル７－Ａ,,14,102,2210844,,,,,,,2024-08-27,1,,,,,サンライズヨコハマ,0
1739,8030001162143,新規,0,2024-08-27,2024-08-27,株式会社プライムセキュリティー,,株式会社,埼玉県,さいたま市浦和区,高砂３丁目１０番４号埼玉建設会館ビル１階,,11,107,3300063,,,,,,,2024-08-27,1,,,,,プライムセキュリティー,0
1745,8040001135098,新規,0,2024-08-27,2024-08-27,株式会社エコ・フレンドリー,,株式会社,千葉県,市原市,辰巳台東３丁目１番地３３,,12,219,2900003,,,,,,,2024-08-27,1,,,,,エコフレンドリー,0
1746,8040001135107,新規,0,2024-08-27,2024-08-27,株式会社ヤマテック,,株式会社,千葉県,松戸市,八ケ崎５丁目１８番地の３７,,12,207,2700023,,,,,,,2024-08-27,1,,,,,ヤマテック,0
1750,8040003025669,新規,0,2024-08-27,2024-08-27,合同会社ネモトクリーンスタッフ,,合同会社,千葉県,市川市,大洲１丁目１６番６号,,12,203,2720032,,,,,,,2024-08-27,1,,,,,ネモトクリーンスタッフ,0
1751,8040003025677,新規,0,2024-08-27,2024-08-27,清野数理合同会社,,合同会社,千葉県,白井市,桜台１丁目７番１２号,,12,232,2701412,,,,,,,2024-08-27,1,,,,,セイノスウリ,0
1752,8040003025693,新規,0,2024-08-27,2024-08-27,合同会社ＡｄＭｏａｔ,,合同会社,千葉県,市原市,ちはら台東４丁目８－１,,12,219,2900141,,,,,,,2024-08-27,1,,,,,アドモート,0
1762,8070003005560,新規,0,2024-08-27,2024-08-27,瑞歩合同会社,,合同会社,群馬県,伊勢崎市,境下武士２３４８－４,,10,204,3700126,,,,,,,2024-08-27,1,,,,,ミズホ,0
1763,8070005010311,新規,0,2024-08-27,2024-08-27,一般社団法人ＢＧＦＣ,,その他の設立登記法人,群馬県,前橋市,大渡町１丁目１番地５８,,10,201,3710854,,,,,,,2024-08-27,1,,,,,ビージーエフシー,0
1773,8100001037783,新規,0,2024-08-27,2024-08-27,株式会社Ｇステラ,,株式会社,長野県,岡谷市,神明町４丁目１９番２９号,,20,204,3940004,,,,,,,2024-08-27,1,,,,,ジーステラ,0
1776,8100003007719,新規,0,2024-08-27,2024-08-27,ＯＨＡＮＡ合同会社,,合同会社,長野県,上田市,上丸子２９３番地１,,20,203,3860404,,,,,,,2024-08-27,1,,,,,オハナ,0
1778,8110001038665,新規,0,2024-08-27,2024-08-27,株式会社ｃａｒ　ｌｉｆｅ　ｓｔｕｄｉｏ　ＣｏｎＳｅｎｓｅ,,株式会社,新潟県,三条市,西本成寺２丁目４番１４号ＮＫタウン・センター,,15,204,9550845,,,,,,,2024-08-27,1,,,,,カーライフスタジオコンセンス,0
1788,8120001267940,新規,0,2024-08-27,2024-08-27,Ｂｅａｔ株式会社,,株式会社,大阪府,大阪市城東区,中央２丁目５番２４－１０６号,,27,118,5360005,,,,,,,2024-08-27,1,,,,,ビート,0
1789,8120001267998,新規,0,2024-08-27,2024-08-27,置誠株式会社,,株式会社,大阪府,大阪市城東区,諏訪１丁目２番２２－５０２号,,27,118,5360021,,,,,,,2024-08-27,1,,,,,チセイ,0
1790,8120001268022,新規,0,2024-08-27,2024-08-27,仟佳株式会社,,株式会社,大阪府,大阪市中央区,博労町１丁目６番１３－３１０号,,27,128,5410059,,,,,,,2024-08-27,1,,,,,センカ,0
1796,8120003027384,新規,0,2024-08-27,2024-08-27,合同会社いちふく,,合同会社,大阪府,寝屋川市,高宮栄町２５－１６,,27,215,5720846,,,,,,,2024-08-27,1,,,,,イチフク,0
1802,8130001077810,新規,0,2024-08-27,2024-08-27,株式会社一心,,株式会社,京都府,京都市南区,吉祥院石原長田町１－１,,26,107,6018383,,,,,,,2024-08-27,1,,,,,イッシン,0
1806,8130005017168,新規,0,2024-08-27,2024-08-27,特定非営利活動法人アビヤント京都,,その他の設立登記法人,京都府,京都市北区,大将軍坂田町７番地１８,,26,101,6038335,,,,,,,2024-08-27,1,,,,,アビヤントキョウト,0
1814,8140003021006,新規,0,2024-08-27,2024-08-27,シーエス合同会社,,合同会社,兵庫県,加古川市,志方町横大路９２６番地１,,28,210,6750332,,,,,,,2024-08-27,1,,,,,シーエス,0
1827,8170001018281,新規,0,2024-08-27,2024-08-27,株式会社セラピストライフ,,株式会社,和歌山県,和歌山市,田中町５丁目３番地３東新ビル５－Ａ,,30,201,6408329,,,,,,,2024-08-27,1,,,,,セラピストライフ,0
1848,8200001042864,新規,0,2024-08-27,2024-08-27,株式会社ＳＯＵＫＩ,,株式会社,岐阜県,大垣市,室町１丁目２５番地,,21,202,5030906,,,,,,,2024-08-27,1,,,,,ソウキ,0
1851,8240001063741,新規,0,2024-08-27,2024-08-27,新時代高光産業株式会社,,株式会社,広島県,広島市中区,基町１９番１－２０８号,,34,101,7300011,,,,,,,2024-08-27,1,,,,,シンジダイタカヒカリサンギョウ,0
1856,8250003003554,新規,0,2024-08-27,2024-08-27,合同会社ｃＫ．ｓｔｕｄｉｏ,,合同会社,山口県,下関市,竹崎町４丁目４番２－４０２号,,35,201,7500025,,,,,,,2024-08-27,1,,,,,シーケースタジオ,0
1858,8260001039401,新規,0,2024-08-27,2024-08-27,ラミカルド株式会社,,株式会社,岡山県,岡山市北区,奉還町３丁目１番３０号,,33,101,7000026,,,,,,,2024-08-27,1,,,,,ラミカルド,0
1862,8290001106751,新規,0,2024-08-27,2024-08-27,株式会社Ｌｅａｒｎｅｒ’ｓ　Ｌｅａｒｎｅｒ,,株式会社,福岡県,糸島市,二丈福井３１１９番地４,,40,230,8191631,,,,,,,2024-08-27,1,,,,,ラーナーズラーナー,0
1864,8290803004830,新規,0,2024-08-27,2024-08-27,合同会社ＮＳＫ,,合同会社,福岡県,直方市,新知町６－１６アリエスカーサ２０５,,40,204,8220021,,,,,,,2024-08-27,1,,,,,エヌエスケー,0
1869,8340003004584,新規,0,2024-08-27,2024-08-27,合同会社菊忠商事,,合同会社,鹿児島県,南九州市,知覧町塩屋２４９８６番地１,,46,223,8910911,,,,,,,2024-08-27,1,,,,,キクチュウショウジ,0
1871,8350003004732,新規,0,2024-08-27,2024-08-27,合同会社フローエナジー,,合同会社,宮崎県,宮崎市,橘通東４丁目２番３１号－８０６号,,45,201,8800805,,,,,,,2024-08-27,1,,,,,フローエナジー,0
1872,8360001034111,新規,0,2024-08-27,2024-08-27,株式会社Ｓｕｎｒｉｓｅ,,株式会社,沖縄県,那覇市,牧志２丁目１７番２７‐４０１号室,,47,201,9000013,,,,,,,2024-08-27,1,,,,,サンライズ,0
1875,8390005009081,新規,0,2024-08-27,2024-08-27,一般社団法人短鎖脂肪酸普及協会,,その他の設立登記法人,山形県,鶴岡市,覚岸寺字水上２４６番地２,,06,203,9970052,,,,,,,2024-08-27,1,,,,,タンサシボウサンフキュウキョウカイ,0
1877,8430001092548,新規,0,2024-08-27,2024-08-27,株式会社ＡＡＡ,,株式会社,北海道,小樽市,住吉町３３５番地１,,01,203,0470015,,,,,,,2024-08-27,1,,,,,トリプルエー,0
1878,8430001092556,新規,0,2024-08-27,2024-08-27,小藤コンサルティング株式会社,,株式会社,北海道,札幌市南区,真駒内南町４丁目６番地１真駒内レックスハイツ４０５号,,01,106,0050016,,,,,,,2024-08-27,1,,,,,コフジコンサルティング,0
1886,8460003001009,新規,0,2024-08-27,2024-08-27,合同会社きたいち,,合同会社,北海道,釧路市,南大通６丁目１番１４３号リバーサイドＫＩＴＡＨＡＲＡＩＩ４０４,00136085,01,206,0850841,,,,,,,2024-08-27,1,,,,,キタイチ,0
1888,8500003003314,新規,0,2024-08-27,2024-08-27,合同会社ＦＯＲＴＵＮＡ,,合同会社,愛媛県,松山市,立花３丁目４番１７号ＭＨＴ立花Ａ１０１号,,38,201,7900966,,,,,,,2024-08-27,1,,,,,フォルトゥナ,0
1890,9010001247738,新規,0,2024-08-27,2024-08-27,Ｑ＆Ｊ株式会社,,株式会社,東京都,文京区,本郷４丁目１６番６号９０６－Ｇ号室,,13,105,1130033,,,,,,,2024-08-27,1,,,,,キューアンドジェイ,0
1891,9010001247746,新規,0,2024-08-27,2024-08-27,エクスカバリー株式会社,,株式会社,東京都,千代田区,神田錦町１丁目１７番地１神田高木ビル４Ｆ,00136080,13,101,1010054,,,,,,,2024-08-27,1,,,,,エクスカバリー,0
1892,9010001247754,新規,0,2024-08-27,2024-08-27,株式会社Ｂｍｅｄｉ,,株式会社,東京都,中央区,日本橋２丁目１番１７号丹生ビル２階,,13,102,1030027,,,,,,,2024-08-27,1,,,,,ビーメディ,0
1902,9010401184705,新規,0,2024-08-27,2024-08-27,ＰＡＲＴＮＥＲＳ　ＦＵＮＤ株式会社,,株式会社,東京都,港区,虎ノ門５丁目９番１号,,13,103,1050001,,,,,,,2024-08-27,1,,,,,パートナーズファンド,0
1904,9010403033281,新規,0,2024-08-27,2024-08-27,ＣＳ　ＴＲＡＤＩＮＧ合同会社,,合同会社,東京都,港区,浜松町２丁目７番１７号イーグル浜松町天翔オフィス浜松町大門１０階１０２０号室,,13,103,1050013,,,,,,,2024-08-27,1,,,,,シーエストレーディング,0
1905,9010403033307,新規,0,2024-08-27,2024-08-27,みつばち３０１合同会社,,合同会社,東京都,港区,浜松町２丁目２番１５号,,13,103,1050013,,,,,,,2024-08-27,1,,,,,ミツバチスリーゼロワン,0
1907,9010405023504,新規,0,2024-08-27,2024-08-27,Ａｌｂｉ一般社団法人,,その他の設立登記法人,東京都,港区,西新橋１丁目１番１号ＥＰコンサルティングサービス内,,13,103,1050003,,,,,,,2024-08-27,1,,,,,アルビ,0
1908,9010601065820,新規,0,2024-08-27,2024-08-27,株式会社Ｋ　Ｃｏｍｐａｎｙ,,株式会社,東京都,江東区,豊洲１丁目３番１８－２３０４号,,13,108,1350061,,,,,,,2024-08-27,1,,,,,ケーカンパニー,0
1909,9010601065829,新規,0,2024-08-27,2024-08-27,訪看ＤＸ株式会社,,株式会社,東京都,墨田区,錦糸３丁目７－１１－３０６,,13,107,1300013,,,,,,,2024-08-27,1,,,,,ホウカンディーエックス,0
1915,9010701046448,新規,0,2024-08-27,2024-08-27,株式会社フロンティア,,株式会社,東京都,品川区,北品川５丁目３番１－３３０５号,,13,109,1410001,,,,,,,2024-08-27,1,,,,,フロンティア,0
1919,9010903009319,新規,0,2024-08-27,2024-08-27,合同会社Ｔｉｄｙ　Ｂｅａｒ,,合同会社,東京都,世田谷区,等々力８丁目２１番３号プラザ・リー等々力１０７,,13,112,1580082,,,,,,,2024-08-27,1,,,,,タイディベア,0
1925,9011001164221,新規,0,2024-08-27,2024-08-27,株式会社パドルズ,,株式会社,東京都,渋谷区,渋谷２丁目１９－１５宮益坂ビルディング６０９,,13,113,1500002,,,,,,,2024-08-27,1,,,,,パドルズ,0
1926,9011001164270,新規,0,2024-08-27,2024-08-27,株式会社エピソードマーケット,,株式会社,東京都,渋谷区,道玄坂１丁目１６番６号,,13,113,1500043,,,,,,,2024-08-27,1,,,,,エピソードマーケット,0
1927,9011001164287,新規,0,2024-08-27,2024-08-27,株式会社ｓａｋｕ,,株式会社,東京都,渋谷区,恵比寿西２丁目４番８号ウィンド恵比寿ビル８Ｆ,,13,113,1500021,,,,,,,2024-08-27,1,,,,,サク,0
1928,9011001164304,新規,0,2024-08-27,2024-08-27,ＣＵＲＵＴＯ株式会社,,株式会社,東京都,渋谷区,神泉町１０番１５号アネックス神泉３０１,,13,113,1500045,,,,,,,2024-08-27,1,,,,,クルト,0
1932,9011101108160,新規,0,2024-08-27,2024-08-27,ＡＬＬ　ＩＮ株式会社,,株式会社,東京都,新宿区,山吹町３３７番地５都住創山吹町ビル６０４Ｈ,,13,104,1620801,,,,,,,2024-08-27,1,,,,,オールイン,0
1934,9011201025743,新規,0,2024-08-27,2024-08-27,株式会社空,,株式会社,東京都,中野区,東中野２丁目１５番１４号,,13,114,1640003,,,,,,,2024-08-27,1,,,,,ソラ,0
1942,9011701027561,新規,0,2024-08-27,2024-08-27,東宇株式会社,,株式会社,東京都,江戸川区,江戸川１丁目２０番１２号,,13,123,1320013,,,,,,,2024-08-27,1,,,,,トウウ,0
1945,9012801023384,新規,0,2024-08-27,2024-08-27,Ｋａｎａｆｕ株式会社,,株式会社,東京都,立川市,錦町１丁目４番４号サニービル２階ＣＳ－２１３,,13,202,1900022,,,,,,,2024-08-27,1,,,,,カナフ,0
1960,9020001158604,新規,0,2024-08-27,2024-08-27,株式会社加藤実装研究所,,株式会社,神奈川県,横浜市磯子区,田中１丁目２１番１１号,,14,107,2350035,,,,,,,2024-08-27,1,,,,,カトウジッソウケンキュウジョ,0
1961,9020001158620,新規,0,2024-08-27,2024-08-27,株式会社Ｋａ・ｋｅｒｕ,,株式会社,神奈川県,横浜市栄区,公田町１０１９番地２９２,,14,115,2470014,,,,,,,2024-08-27,1,,,,,カケル,0
1963,9020001158777,新規,0,2024-08-27,2024-08-27,株式会社エスティーサン,,株式会社,神奈川県,川崎市川崎区,川中島１丁目７番７号１－Ｂ,,14,131,2100803,,,,,,,2024-08-27,1,,,,,エスティーサン,0
1964,9020001158785,新規,0,2024-08-27,2024-08-27,あおば青果株式会社,,株式会社,神奈川県,横浜市青葉区,すすき野３丁目５番地５７,,14,117,2250021,,,,,,,2024-08-27,1,,,,,アオバセイカ,0
1965,9020001158819,新規,0,2024-08-27,2024-08-27,株式会社笑人,,株式会社,神奈川県,横浜市青葉区,新石川３丁目２番地５ＦＵＪＩＫＹＵ８－４０５号室,,14,117,2250003,,,,,,,2024-08-27,1,,,,,ショウニン,0
1966,9020001158827,新規,0,2024-08-27,2024-08-27,株式会社インキート,,株式会社,神奈川県,川崎市幸区,下平間１２０番地,,14,132,2120053,,,,,,,2024-08-27,1,,,,,インキート,0
1967,9020001158934,新規,0,2024-08-27,2024-08-27,ＤＹＣ株式会社,,株式会社,神奈川県,横浜市鶴見区,佃野町２３－１９－４０２,,14,101,2300061,,,,,,,2024-08-27,1,,,,,ディーワイシー,0
1970,9020003026635,新規,0,2024-08-27,2024-08-27,合同会社Ｃｏｎｆｅｔｔｏ,,合同会社,神奈川県,横浜市磯子区,上中里町３３０,,14,107,2350042,,,,,,,2024-08-27,1,,,,,コンフェット,0
1976,9021003014951,新規,0,2024-08-27,2024-08-27,合同会社ボンタビ,,合同会社,神奈川県,横須賀市,富士見町１丁目１３－３アップルハウス２０１号室,,14,201,2380021,,,,,,,2024-08-27,1,,,,,ボンタビ,0
1982,9040001135106,新規,0,2024-08-27,2024-08-27,株式会社ＫＮＫ,,株式会社,千葉県,市原市,五井東１丁目１４－２５，１Ｂ,,12,219,2900055,,,,,,,2024-08-27,1,,,,,ケイエヌケイ,0
1983,9040001135114,新規,0,2024-08-27,2024-08-27,松林株式会社,,株式会社,千葉県,柏市,藤ケ谷新田１１１番地３,,12,217,2770932,,,,,,,2024-08-27,1,,,,,ショウリン,0
1987,9040003025684,新規,0,2024-08-27,2024-08-27,合同会社ＢＢＧ　ＤＥＳＬＡＤＩ　ＨＯＬＤＩＮＧＳ,,合同会社,千葉県,柏市,花野井１１４番地１ブリーズ・ベル２０１号,,12,217,2770812,,,,,,,2024-08-27,1,,,,,ビービージーデスラディホールディングス,0
1997,9080101024972,新規,0,2024-08-27,2024-08-27,株式会社ＳＴ,,株式会社,静岡県,富士市,今泉５丁目１３番２５号,,22,210,4170001,,,,,,,2024-08-27,1,,,,,エスティー,0
2001,9100003007734,新規,0,2024-08-27,2024-08-27,合同会社コンシャスビジョン,,合同会社,長野県,北佐久郡御代田町,大字御代田２５６５番地４,,20,323,3890206,,,,,,,2024-08-27,1,,,,,コンシャスビジョン,0
2002,9110003005497,新規,0,2024-08-27,2024-08-27,合同会社Ｓ‐ＡＫＥ,,合同会社,新潟県,上越市,大字丸山新田１７２番地２,,15,222,9430844,,,,,,,2024-08-27,1,,,,,セイク,0
2012,9120001267997,新規,0,2024-08-27,2024-08-27,暮光株式会社,,株式会社,大阪府,大阪市西成区,橘１丁目１１－２８オフィスポート橘４０６号室,,27,122,5570051,,,,,,,2024-08-27,1,,,,,トワイライト,0
2013,9120001268013,新規,0,2024-08-27,2024-08-27,株式会社ダイコー,,株式会社,大阪府,大阪市西成区,花園南２丁目５番１３号,,27,122,5570015,,,,,,,2024-08-27,1,,,,,ダイコー,0
2014,9120001268021,新規,0,2024-08-27,2024-08-27,株式会社花海,,株式会社,大阪府,大阪市中央区,博労町１丁目６番１３－３０８号,,27,128,5410059,,,,,,,2024-08-27,1,,,,,ハナミ,0
2023,9130001077751,新規,0,2024-08-27,2024-08-27,宮喜株式会社,,株式会社,京都府,京都市東山区,清水４丁目１５６番地２０,,26,105,6050862,,,,,,,2024-08-27,1,,,,,ミヤキ,0
2035,9150001027498,新規,0,2024-08-27,2024-08-27,株式会社Ｒｕｕｕｕクリエイト,,株式会社,奈良県,大和高田市,西三倉堂１丁目４番２０号エスリード高田市駅南１００５,,29,202,6350046,,,,,,,2024-08-27,1,,,,,ルークリエイト,0
2036,9150001027523,新規,0,2024-08-27,2024-08-27,株式会社ＹＫＪ準備会社,,株式会社,奈良県,吉野郡吉野町,大字橋屋５８番地,,29,441,6393118,,,,,,,2024-08-27,1,,,,,ワイケイジェイジュンビガイシャ,0
2039,9160003003273,新規,0,2024-08-27,2024-08-27,ケーティーリペア合同会社,,合同会社,滋賀県,東近江市,建部南町１５５番地３,,25,213,5270005,,,,,,,2024-08-27,1,,,,,ケーティーリペア,0
2049,9180001163027,新規,0,2024-08-27,2024-08-27,ＳＮＳ　ＴＲＡＤＩＮＧ株式会社,,株式会社,愛知県,弥富市,鯏浦町下本田７２番地エスポア２１・Ｂ－１０１,,23,235,4980021,,,,,,,2024-08-27,1,,,,,エスエヌエストレーディング,0
2050,9180301038993,新規,0,2024-08-27,2024-08-27,ＡＲＣＯ株式会社,,株式会社,愛知県,みよし市,三好丘旭４丁目１９番地５３,,23,236,4700203,,,,,,,2024-08-27,1,,,,,アルコ,0
2055,9200003006478,新規,0,2024-08-27,2024-08-27,８６ＭＴ合同会社,,合同会社,岐阜県,海津市,南濃町松山６３７－５３,,21,221,5030535,,,,,,,2024-08-27,1,,,,,ハチロクエムティー,0
2063,9240001063740,新規,0,2024-08-27,2024-08-27,株式会社ＴＯＭＯ,,株式会社,広島県,東広島市,黒瀬町宗近柳国７３０番地８,,34,212,7392504,,,,,,,2024-08-27,1,,,,,トモ,0
2066,9260003004872,新規,0,2024-08-27,2024-08-27,金川産業合同会社,,合同会社,岡山県,津山市,河原町３０番地,,33,203,7080033,,,,,,,2024-08-27,1,,,,,カナガワサンギョウ,0
2070,9290001107006,新規,0,2024-08-27,2024-08-27,株式会社リリピュア,,株式会社,福岡県,糟屋郡粕屋町,花ヶ浦３丁目３５３番地８,,40,349,8112310,,,,,,,2024-08-27,1,,,,,リリピュア,0
2071,9290001107022,新規,0,2024-08-27,2024-08-27,ｐｉｎｅ　ｔｒｅｅ株式会社,,株式会社,福岡県,宗像市,桜１丁目２８０番地７６,,40,220,8114166,,,,,,,2024-08-27,1,,,,,パインツリー,0
2072,9290001107030,新規,0,2024-08-27,2024-08-27,株式会社安達農園,,株式会社,福岡県,みやま市,瀬高町高柳６４１番地１,,40,229,8350018,,,,,,,2024-08-27,1,,,,,アダチノウエン,0
2073,9290001107047,新規,0,2024-08-27,2024-08-27,ワイエス株式会社,,株式会社,福岡県,福岡市南区,的場２丁目１６番１６－３０１号,,40,134,8111314,,,,,,,2024-08-27,1,,,,,ワイエス,0
2074,9290001107055,新規,0,2024-08-27,2024-08-27,株式会社小湊冷設,,株式会社,福岡県,糟屋郡須惠町,大字須惠８２４番地５,,40,344,8112113,,,,,,,2024-08-27,1,,,,,コミナトレイセツ,0
2075,9290003015611,新規,0,2024-08-27,2024-08-27,合同会社九州ＤＸ推進事業協議会,,合同会社,福岡県,福岡市博多区,博多駅前１丁目１５番２０号ＮＭＦ博多駅前ビル２階,,40,132,8120011,,,,,,,2024-08-27,1,,,,,キュウシュウディーエックススイシンジギョウキョウギカイ,0
2078,9290801030794,新規,0,2024-08-27,2024-08-27,株式会社Ｇｌｏｗ　ｕｐ,,株式会社,福岡県,田川郡川崎町,大字川崎８０８番地の６,,40,605,8270003,,,,,,,2024-08-27,1,,,,,グローアップ,0
2079,9290801030828,新規,0,2024-08-27,2024-08-27,株式会社寄添い,,株式会社,福岡県,北九州市小倉南区,沼緑町３丁目１４番１６号,,40,107,8000207,,,,,,,2024-08-27,1,,,,,ヨリソイ,0
2085,9340003004583,新規,0,2024-08-27,2024-08-27,合同会社西垂水デザイン研究所,,合同会社,鹿児島県,南九州市,知覧町西元１２８９８番地１,,46,223,8970306,,,,,,,2024-08-27,1,,,,,ニシタルミズデザインケンキュウジョ,0
2094,9430003016719,新規,0,2024-08-27,2024-08-27,合同会社Ｍｏｍｏ’ｓ　ｃｏｍｐａｎｙ,,合同会社,北海道,札幌市北区,北三十五条西６丁目１番５－５０４号,,01,102,0010035,,,,,,,2024-08-27,1,,,,,モモズカンパニー,0
2095,9460003001008,新規,0,2024-08-27,2024-08-27,合同会社アイオン,,合同会社,北海道,釧路市,新橋大通４丁目２番１３号,,01,206,0850046,,,,,,,2024-08-27,1,,,,,アイオン,0
