sequenceNumber,corporateNumber,process,correct,updateDate,changeDate,name,nameImageId,kind,prefectureName,cityName,streetNumber,addressImageId,prefectureCode,cityCode,postCode,addressOutside,addressOutsideImageId,closeDate,closeCause,successorCorporateNumber,changeCause,assignmentDate,latest,enName,enPrefectureName,enCityName,enAddressOutside,furigana,hihyoji
12,1010001235329,新規,0,2023-05-17,2023-05-17,Ｆａｂ　Ｌｉｖｉｎｇ株式会社,,株式会社,東京都,千代田区,麹町３丁目４番３号シエルブルー麹町２０２,,13,101,1020083,,,,,,,2023-05-17,1,,,,,ファブリビング,0
13,1010001235337,新規,0,2023-05-17,2023-05-17,株式会社ナースタイム,,株式会社,東京都,中央区,日本橋茅場町２丁目８－１ＢＲＩＣＫＧＡＴＥ茅場町８階,,13,102,1030025,,,,,,,2023-05-17,1,,,,,ナースタイム,0
15,1010005036698,新規,0,2023-05-17,2023-05-17,一般社団法人ＡＫ１,,その他の設立登記法人,東京都,中央区,八丁堀４丁目２番１０号ＡＯＪ税理士法人内,,13,102,1040032,,,,,,,2023-05-17,1,,,,,エーケーワン,0
23,1010401174283,新規,0,2023-05-17,2023-05-17,株式会社ＧＯＯＤＢＯＹ,,株式会社,東京都,港区,南青山３丁目１番３６号青山丸竹ビル６Ｆ,,13,103,1070062,,,,,,,2023-05-17,1,,,,,グッボーイ,0
27,1010501050459,新規,0,2023-05-17,2023-05-17,株式会社Ｆｕｔｕｒｅ　Ｓｔａｒ,,株式会社,東京都,台東区,上野７丁目１３番１０－４１４号クレストフォルム上野グランステージ,,13,106,1100005,,,,,,,2023-05-17,1,,,,,フューチャースター,0
33,1010705003510,新規,0,2023-05-17,2023-05-17,一般社団法人ＰＶ　Ｈｏｌｄｉｎｇｓ,,その他の設立登記法人,東京都,品川区,東五反田１丁目５番１－４１３号海老原国際税務事務所内,,13,109,1410022,,,,,,,2023-05-17,1,,,,,ピーブイホールディングス,0
39,1010903008179,新規,0,2023-05-17,2023-05-17,合同会社アッカーマン,,合同会社,東京都,世田谷区,成城３丁目１０番１３号,,13,112,1570066,,,,,,,2023-05-17,1,,,,,アッカーマン,0
43,1011001154460,新規,0,2023-05-17,2023-05-17,Ｌａ　Ｂｏｔｔｅｇａ　Ｊａｐａｎ株式会社,,株式会社,東京都,渋谷区,神宮前３丁目１番３０号,,13,113,1500001,,,,,,,2023-05-17,1,,,,,ラボッテガジャパン,0
44,1011001154502,新規,0,2023-05-17,2023-05-17,株式会社ふくすけ,,株式会社,東京都,渋谷区,神宮前６丁目１０番９号原宿董友ビル,,13,113,1500001,,,,,,,2023-05-17,1,,,,,フクスケ,0
47,1011003016824,新規,0,2023-05-17,2023-05-17,Ａｋｉ‐Ｎｉｓｈｉｋａｗａ‐Ｃｏｎｓｕｌｔｉｎｇ合同会社,,合同会社,東京都,渋谷区,道玄坂１丁目２１－１Ｗ２２Ｆ,,13,113,1500043,,,,,,,2023-05-17,1,,,,,アキニシカワコンサルティング,0
48,1011101102872,新規,0,2023-05-17,2023-05-17,株式会社Ｎｏｌｉｍｉｔ,,株式会社,東京都,新宿区,西新宿７丁目５番９－１９１３号,,13,104,1600023,,,,,,,2023-05-17,1,,,,,ノーリミット,0
49,1011101102880,新規,0,2023-05-17,2023-05-17,株式会社クラフト,,株式会社,東京都,新宿区,歌舞伎町２丁目９番１８－１００１号,,13,104,1600021,,,,,,,2023-05-17,1,,,,,クラフト,0
53,1011103013044,新規,0,2023-05-17,2023-05-17,合同会社居場所ホームロベ,,合同会社,東京都,新宿区,新宿５丁目１４－１２天翔オフィス新宿三丁目２１０号,,13,104,1600022,,,,,,,2023-05-17,1,,,,,イバショホームロベ,0
54,1011201024645,新規,0,2023-05-17,2023-05-17,如意株式会社,,株式会社,東京都,中野区,新井３丁目２５番５号,,13,114,1650026,,,,,,,2023-05-17,1,,,,,ジョイ,0
56,1011203004083,新規,0,2023-05-17,2023-05-17,インフィニティ・ライフ合同会社,,合同会社,東京都,中野区,中野４丁目１０番２号中野セントラルパークサウス,,13,114,1640001,,,,,,,2023-05-17,1,,,,,インフィニティライフ,0
62,1011501029286,新規,0,2023-05-17,2023-05-17,龍星旗株式会社,,株式会社,東京都,北区,王子本町１丁目２２－１ＫＳＧビル２０３号室,,13,117,1140022,,,,,,,2023-05-17,1,,,,,リュウセイキ,0
63,1011501029303,新規,0,2023-05-17,2023-05-17,日本東木工業株式会社,,株式会社,東京都,荒川区,南千住３丁目２７－２浅草ビル５０８,,13,118,1160003,,,,,,,2023-05-17,1,,,,,ニホンヒガシモクコウギョウ,0
65,1011503005608,新規,0,2023-05-17,2023-05-17,合同会社ウィステリアエステート,,合同会社,東京都,荒川区,荒川４丁目８番１３号,,13,118,1160002,,,,,,,2023-05-17,1,,,,,ウィステリアエステート,0
77,1012301013447,新規,0,2023-05-17,2023-05-17,株式会社フィボナッチラボ,,株式会社,東京都,町田市,成瀬８丁目１７番１０号,,13,209,1940044,,,,,,,2023-05-17,1,,,,,フィボナッチラボ,0
89,1013301050769,新規,0,2023-05-17,2023-05-17,株式会社アイビー,,株式会社,東京都,豊島区,南池袋２丁目９番９号,,13,116,1710022,,,,,,,2023-05-17,1,,,,,アイビー,0
102,1020001151640,新規,0,2023-05-17,2023-05-17,株式会社ＨＡＲＵ,,株式会社,神奈川県,横浜市西区,浅間町１丁目４番３号ウィザードビル４０２,,14,103,2200072,,,,,,,2023-05-17,1,,,,,ハル,0
103,1020001151649,新規,0,2023-05-17,2023-05-17,ＣｒｏｓｓＵＳ株式会社,,株式会社,神奈川県,横浜市中区,北仲通３丁目３３,,14,104,2310003,,,,,,,2023-05-17,1,,,,,クロスアス,0
105,1020003023862,新規,0,2023-05-17,2023-05-17,合同会社ａｒｃｍｉｒｒｏｒ,,合同会社,神奈川県,横浜市中区,麦田町３丁目８５―２,,14,104,2310849,,,,,,,2023-05-17,1,,,,,アークミラー,0
106,1020005015998,新規,0,2023-05-17,2023-05-17,一般社団法人ＣＴＳ,,その他の設立登記法人,神奈川県,横浜市西区,みなとみらい４丁目４番２号横浜ブルーアベニュー１２階,,14,103,2200012,,,,,,,2023-05-17,1,,,,,シーティーエス,0
109,1021001079062,新規,0,2023-05-17,2023-05-17,株式会社アクタム,,株式会社,神奈川県,相模原市中央区,矢部１丁目１１番１６－８１０号,,14,152,2520232,,,,,,,2023-05-17,1,,,,,アクタム,0
110,1021001079079,新規,0,2023-05-17,2023-05-17,株式会社古今Ｄｅｓｉｇｎ＆Ｃｒａｆｔｓ,,株式会社,神奈川県,平塚市,四之宮５丁目８－２６,,14,203,2540014,,,,,,,2023-05-17,1,,,,,ココンデザインアンドクラフト,0
113,1021003013085,新規,0,2023-05-17,2023-05-17,合同会社ｔｏｎｔｏｎ,,合同会社,神奈川県,愛甲郡愛川町,半原５７８０,,14,401,2430307,,,,,,,2023-05-17,1,,,,,トントン,0
114,1021003013093,新規,0,2023-05-17,2023-05-17,ＡＴＭ日本商会合同会社,,合同会社,神奈川県,高座郡寒川町,大蔵３４７５－１,,14,321,2530104,,,,,,,2023-05-17,1,,,,,エティエムニホンショウカイ,0
115,1021003013102,新規,0,2023-05-17,2023-05-17,合同会社ビックルーフ,,合同会社,神奈川県,藤沢市,片瀬海岸１丁目１２番１６号,,14,205,2510035,,,,,,,2023-05-17,1,,,,,ビックルーフ,0
124,1030001153875,新規,0,2023-05-17,2023-05-17,株式会社ライジング・サン,,株式会社,埼玉県,川口市,金山町１２番１号Ｍｉｏ川口,,11,203,3320014,,,,,,,2023-05-17,1,,,,,ライジングサン,0
125,1030001153925,新規,0,2023-05-17,2023-05-17,株式会社ＡＵリフォーム,,株式会社,埼玉県,戸田市,笹目１丁目１３番２３号２Ｆ,,11,224,3350034,,,,,,,2023-05-17,1,,,,,エーユーリフォーム,0
133,1040001128364,新規,0,2023-05-17,2023-05-17,株式会社ＮＳＫ,,株式会社,千葉県,柏市,旭町３丁目３番２０号,,12,217,2770852,,,,,,,2023-05-17,1,,,,,エヌエスケイ,0
134,1040001128447,新規,0,2023-05-17,2023-05-17,株式会社エンドランサービス,,株式会社,千葉県,八千代市,緑が丘１丁目４番１号,,12,221,2760049,,,,,,,2023-05-17,1,,,,,エンドランサービス,0
135,1040001128455,新規,0,2023-05-17,2023-05-17,株式会社ＴＯ‐ＢＥ,,株式会社,千葉県,千葉市美浜区,真砂３丁目２－１,,12,106,2610011,,,,,,,2023-05-17,1,,,,,トゥービー,0
137,1040003022598,新規,0,2023-05-17,2023-05-17,合同会社シュプラス,,合同会社,千葉県,成田市,不動ケ岡１９６４番地２Ｍ．Ｆｅｌｉｃｅ１０３号,,12,211,2860044,,,,,,,2023-05-17,1,,,,,シュプラス,0
138,1040003022623,新規,0,2023-05-17,2023-05-17,合同会社ダンケア,,合同会社,千葉県,柏市,末広町４－５金子ビル２階,,12,217,2770842,,,,,,,2023-05-17,1,,,,,ダンケア,0
141,1050001052844,新規,0,2023-05-17,2023-05-17,株式会社東洋資材,,株式会社,茨城県,つくばみらい市,小絹１２４８番地２０,,08,235,3002445,,,,,,,2023-05-17,1,,,,,トウヨウシザイ,0
142,1050001052852,新規,0,2023-05-17,2023-05-17,釜谷食品株式会社,,株式会社,茨城県,潮来市,延方西１６３４番地１,,08,223,3112410,,,,,,,2023-05-17,1,,,,,カマヤショクヒン,0
143,1050001052860,新規,0,2023-05-17,2023-05-17,Ｙ’ｓ　Ｆｏｏｄ　Ｌａｂ株式会社,,株式会社,茨城県,東茨城郡大洗町,磯浜町３６６６番地３,,08,309,3111301,,,,,,,2023-05-17,1,,,,,ワイズフードラボ,0
145,1050003007490,新規,0,2023-05-17,2023-05-17,ＫＨＡＮＨ　ＤＩＥＭ合同会社,,合同会社,茨城県,土浦市,川口１丁目３番１１４号－Ｂ１０５,,08,203,3000033,,,,,,,2023-05-17,1,,,,,カインジエム,0
151,1080001025624,新規,0,2023-05-17,2023-05-17,株式会社ＢＡＳＩＣ,,株式会社,静岡県,焼津市,五ケ堀之内２２１番地の３,,22,212,4250077,,,,,,,2023-05-17,1,,,,,ベイシック,0
153,1090001018131,新規,0,2023-05-17,2023-05-17,株式会社ＮＫテクノ,,株式会社,山梨県,甲府市,国母７丁目５番１７号サンライン甲府ビル３－Ａ,,19,201,4000043,,,,,,,2023-05-17,1,,,,,エヌケイテクノ,0
157,1110001037541,新規,0,2023-05-17,2023-05-17,イコア株式会社,,株式会社,新潟県,上越市,頸城区城野腰２６９番地３,,15,222,9420157,,,,,,,2023-05-17,1,,,,,イコア,0
163,1120001254796,新規,0,2023-05-17,2023-05-17,吉拓株式会社,,株式会社,大阪府,大阪市港区,弁天２丁目１４番２５号中野ビル４階Ｃ－１号室,,27,107,5520007,,,,,,,2023-05-17,1,,,,,キチタク,0
164,1120001254887,新規,0,2023-05-17,2023-05-17,ＣＯＣＯ株式会社,,株式会社,大阪府,大阪市北区,大淀中３丁目３番２５号西梅田第一マンション,,27,127,5310076,,,,,,,2023-05-17,1,,,,,ココ,0
165,1120001254937,新規,0,2023-05-17,2023-05-17,株式会社ＵＴＳＵＴＳＵ,,株式会社,大阪府,大阪市中央区,南本町１丁目６－７－３１０７,,27,128,5410054,,,,,,,2023-05-17,1,,,,,ウツツ,0
166,1120001254978,新規,0,2023-05-17,2023-05-17,ＡＳＫＡ株式会社,,株式会社,大阪府,大阪市福島区,福島２丁目１０番１９号メガロコープ福島１００５号室,,27,103,5530003,,,,,,,2023-05-17,1,,,,,アスカ,0
167,1120001254994,新規,0,2023-05-17,2023-05-17,株式会社エーマイム,,株式会社,大阪府,大阪市城東区,蒲生４丁目１９番３号ロイヤルアシュリー蒲生８０５号,,27,118,5360016,,,,,,,2023-05-17,1,,,,,エーマイム,0
174,1120101067537,新規,0,2023-05-17,2023-05-17,株式会社ＳＵＩＶＥＵＲ,,株式会社,大阪府,富田林市,金剛伏山台１４番７号,,27,214,5840065,,,,,,,2023-05-17,1,,,,,スウィーバー,0
175,1120101067545,新規,0,2023-05-17,2023-05-17,株式会社ＣｏＰａｒｅｎｔｓ,,株式会社,大阪府,堺市中区,深井東町３０３７番地１,,27,142,5998235,,,,,,,2023-05-17,1,,,,,コーペアレンツ,0
178,1122001036984,新規,0,2023-05-17,2023-05-17,株式会社一蓮,,株式会社,大阪府,大東市,深野北１丁目７番２号,,27,218,5740071,,,,,,,2023-05-17,1,,,,,イチレン,0
187,1130003008720,新規,0,2023-05-17,2023-05-17,合同会社Ｏｆｆｉｃｅ　Ｓ,,合同会社,京都府,京都市左京区,松ケ崎海尻町２番地１９,,26,103,6060953,,,,,,,2023-05-17,1,,,,,オフィスエス,0
188,1130003008729,新規,0,2023-05-17,2023-05-17,合同会社Ｑｒｅａｌ,,合同会社,京都府,京都市東山区,本町１９丁目４２５番地ＳＴＡＲＴ１０３,,26,105,6050981,,,,,,,2023-05-17,1,,,,,クリール,0
196,1140001130194,新規,0,2023-05-17,2023-05-17,株式会社ａＫａｌａ,,株式会社,兵庫県,神戸市東灘区,魚崎中町２丁目５番３－１号,,28,101,6580083,,,,,,,2023-05-17,1,,,,,アカラ,0
198,1150005009483,新規,0,2023-05-17,2023-05-17,ＮＰＯ法人ねこのわＮａｒａ,,その他の設立登記法人,奈良県,生駒市,俵口町９５番地８セントポリアＨ－２１０,,29,209,6300243,,,,,,,2023-05-17,1,,,,,ネコノワナラ,0
207,1180005020223,新規,0,2023-05-17,2023-05-17,東山協同組合,,その他の設立登記法人,愛知県,名古屋市緑区,大高町字二番割２３番地１,,23,114,4598001,,,,,,,2023-05-17,1,,,,,トウザン,0
210,1190001030415,新規,0,2023-05-17,2023-05-17,エンライト株式会社,,株式会社,三重県,四日市市,智積町１９４１番地１,,24,202,5121212,,,,,,,2023-05-17,1,,,,,エンライト,0
215,1200001041328,新規,0,2023-05-17,2023-05-17,あおば株式会社,,株式会社,岐阜県,岐阜市,五坪１丁目７番１１号,,21,201,5008157,,,,,,,2023-05-17,1,,,,,アオバ,0
220,1230001019841,新規,0,2023-05-17,2023-05-17,株式会社ＳＵＮＲＩＳＥ,,株式会社,富山県,富山市,花園町３丁目８番３号,,16,201,9398201,,,,,,,2023-05-17,1,,,,,サンライズ,0
222,1240001061504,新規,0,2023-05-17,2023-05-17,株式会社Ａｃｃｅｓｓ,,株式会社,広島県,広島市佐伯区,美鈴が丘西１丁目１番７－４２０１号,,34,108,7315114,,,,,,,2023-05-17,1,,,,,アクセス,0
223,1240001061520,新規,0,2023-05-17,2023-05-17,株式会社ＭＡＲＴ,,株式会社,広島県,広島市中区,三川町７番７号,,34,101,7300029,,,,,,,2023-05-17,1,,,,,マート,0
233,1290001101478,新規,0,2023-05-17,2023-05-17,株式会社ＮＥＷ　ＳＩＤＥ,,株式会社,福岡県,福岡市中央区,舞鶴１丁目８番２６号,,40,133,8100073,,,,,,,2023-05-17,1,,,,,ニューサイド,0
235,1290003013928,新規,0,2023-05-17,2023-05-17,合同会社アエラ,,合同会社,福岡県,福岡市中央区,鳥飼１丁目５－３３－２０１,,40,133,8100053,,,,,,,2023-05-17,1,,,,,アエラ,0
237,1290803004416,新規,0,2023-05-17,2023-05-17,合同会社エポ８,,合同会社,福岡県,北九州市小倉南区,舞ケ丘５丁目１３番１号,,40,107,8020823,,,,,,,2023-05-17,1,,,,,エポエイト,0
248,1330001030862,新規,0,2023-05-17,2023-05-17,株式会社ネオクリア,,株式会社,熊本県,熊本市西区,上代１丁目２１番１９号,,43,103,8600068,,,,,,,2023-05-17,1,,,,,ネオクリア,0
251,1340001025589,新規,0,2023-05-17,2023-05-17,株式会社Ａ・ｔｅｃｈ,,株式会社,鹿児島県,曽於市,末吉町南之郷１１４番地２,,46,217,8998608,,,,,,,2023-05-17,1,,,,,エーテック,0
253,1350001018360,新規,0,2023-05-17,2023-05-17,株式会社本部葬儀社,,株式会社,宮崎県,西都市,大字清水１８番地,,45,208,8810004,,,,,,,2023-05-17,1,,,,,ホンブソウギシャ,0
258,1370003006130,新規,0,2023-05-17,2023-05-17,合同会社ルミエール,,合同会社,宮城県,仙台市青葉区,五橋１丁目１番４５－８０８号,,04,101,9800022,,,,,,,2023-05-17,1,,,,,ルミエール,0
265,1380001033695,新規,0,2023-05-17,2023-05-17,株式会社ｃａｒｅｆｕｌｌｙ,,株式会社,福島県,いわき市,平中神谷字前河原２０番地の１日新ビル１階,,07,204,9708021,,,,,,,2023-05-17,1,,,,,ケアフリー,0
266,1380003005461,新規,0,2023-05-17,2023-05-17,正友産業合同会社,,合同会社,福島県,双葉郡浪江町,大字高瀬字堀内７番地,,07,547,9791525,,,,,,,2023-05-17,1,,,,,マサトモサンギョウ,0
268,1380005012712,新規,0,2023-05-17,2023-05-17,一般社団法人東北伝統食研究所,,その他の設立登記法人,福島県,いわき市,平字六人町２６番地の５,,07,204,9708026,,,,,,,2023-05-17,1,,,,,トウホクデントウショクケンキュウショ,0
281,1430001089096,新規,0,2023-05-17,2023-05-17,株式会社ダックブルック,,株式会社,北海道,札幌市中央区,南十四条西５丁目１番３－１４０５号,,01,101,0640914,,,,,,,2023-05-17,1,,,,,ダックブルック,0
284,1430003015018,新規,0,2023-05-17,2023-05-17,合同会社りあｐｌｕｓ,,合同会社,北海道,石狩市,花川南八条３丁目１４６番地１２,,01,235,0613208,,,,,,,2023-05-17,1,,,,,リアプラス,0
298,1700150116227,新規,0,2023-05-17,2023-05-17,Ｌｕｍｅｎｉｓ　Ｌｔｄ．,,外国会社等,,,,,,,,６　Ｈａｋｉｄｍａ　Ｙｏｋｎｅａｍ　Ｉｌｌｉｔ　２０６９２０４,,,,,,2023-05-17,1,,,,,ルミナスリミテツド,0
308,2010001235261,新規,0,2023-05-17,2023-05-17,株式会社ベストマッチング,,株式会社,東京都,中央区,晴海３丁目１３番１－４８１０号,,13,102,1040053,,,,,,,2023-05-17,1,,,,,ベストマッチング,0
309,2010001235328,新規,0,2023-05-17,2023-05-17,株式会社Ｘ‐Ｒｅｇｕｌａｔｉｏｎ,,株式会社,東京都,中央区,日本橋茅場町２丁目１２－１０ＰＭＯＥＸ日本橋茅場町,,13,102,1030025,,,,,,,2023-05-17,1,,,,,クロスレギュレーション,0
310,2010001235352,新規,0,2023-05-17,2023-05-17,アルファ・キャピタル株式会社,,株式会社,東京都,千代田区,平河町１丁目６番１５号,,13,101,1020093,,,,,,,2023-05-17,1,,,,,アルファキャピタル,0
311,2010001235360,新規,0,2023-05-17,2023-05-17,株式会社ＢＬＴ,,株式会社,東京都,千代田区,内神田３丁目２４番４号９ＳＴＡＧＥｋａｎｄａ４Ｆ,,13,101,1010047,,,,,,,2023-05-17,1,,,,,ビーエルティー,0
316,2010003040552,新規,0,2023-05-17,2023-05-17,東京ＧＴ合同会社,,合同会社,東京都,中央区,日本橋蛎殻町１丁目３３－６ビューハイツ日本橋４０１号,,13,102,1030014,,,,,,,2023-05-17,1,,,,,トウキョウジーティー,0
321,2010401174381,新規,0,2023-05-17,2023-05-17,ｙｏｕｍｅ．株式会社,,株式会社,東京都,港区,南青山３丁目１番３６号青山丸竹ビル６Ｆ,,13,103,1070062,,,,,,,2023-05-17,1,,,,,ユーミー,0
330,2010601063120,新規,0,2023-05-17,2023-05-17,株式会社ロジポイント,,株式会社,東京都,江東区,北砂３丁目４番３３－１１０１号,,13,108,1360073,,,,,,,2023-05-17,1,,,,,ロジポイント,0
339,2010901053060,新規,0,2023-05-17,2023-05-17,まちの株式会社,,株式会社,東京都,世田谷区,松原６丁目３－７－１０２,,13,112,1560043,,,,,,,2023-05-17,1,,,,,マチノ,0
348,2011001154402,新規,0,2023-05-17,2023-05-17,Ｇｅｎｅｓｉｓ　Ａｓｓｅｔ株式会社,,株式会社,東京都,渋谷区,代々木１丁目６番４号,,13,113,1510053,,,,,,,2023-05-17,1,,,,,ジェネシスアセット,0
349,2011001154451,新規,0,2023-05-17,2023-05-17,株式会社Ｒｅｇａｍｅ,,株式会社,東京都,渋谷区,神宮前６丁目２３番４号桑野ビル２階,,13,113,1500001,,,,,,,2023-05-17,1,,,,,リゲーム,0
350,2011003016798,新規,0,2023-05-17,2023-05-17,合同会社コラール,,合同会社,東京都,渋谷区,初台２丁目１７番１９号,,13,113,1510061,,,,,,,2023-05-17,1,,,,,コラール,0
352,2011005010072,新規,0,2023-05-17,2023-05-17,一般社団法人日本労災対策センター,,その他の設立登記法人,東京都,目黒区,大橋１丁目３番８号ＢＮＤｂｌｄｇ．８Ｆ,,13,110,1530044,,,,,,,2023-05-17,1,,,,,ニホンロウサイタイサクセンター,0
360,2011101102847,新規,0,2023-05-17,2023-05-17,幸和ベトナム人材職業紹介株式会社,,株式会社,東京都,新宿区,百人町１丁目２３番１７号,,13,104,1690073,,,,,,,2023-05-17,1,,,,,コウワベトナムジンザイショクギョウショウカイ,0
361,2011101102871,新規,0,2023-05-17,2023-05-17,トライオン株式会社,,株式会社,東京都,新宿区,西新宿７丁目２１番１０号,,13,104,1600023,,,,,,,2023-05-17,1,,,,,トライオン,0
362,2011101102888,新規,0,2023-05-17,2023-05-17,株式会社Ｄｉｇｉｔａｌ　Ｅｖａｎｇｅｌｉｓｔ,,株式会社,東京都,新宿区,西新宿１丁目２６－２新宿野村ビル３２階,,13,104,1600023,,,,,,,2023-05-17,1,,,,,デジタルエヴァンジェリスト,0
363,2011201024644,新規,0,2023-05-17,2023-05-17,キリンオフィスソリューション株式会社,,株式会社,東京都,中野区,本町１丁目１０番６号,,13,114,1640012,,,,,,,2023-05-17,1,,,,,キリンオフィスソリューション,0
366,2011303004759,新規,0,2023-05-17,2023-05-17,合同会社ＬｅＲｅＶｅ,,合同会社,東京都,杉並区,天沼３丁目１番９号エフテビル３階,,13,115,1670032,,,,,,,2023-05-17,1,,,,,ルレーヴ,0
374,2011501029302,新規,0,2023-05-17,2023-05-17,株式会社はじめました,,株式会社,東京都,荒川区,荒川１丁目３９番１１号,,13,118,1160002,,,,,,,2023-05-17,1,,,,,ハジメマシタ,0
383,2012301013446,新規,0,2023-05-17,2023-05-17,株式会社Ｍ．Ｉ．Ｋ,,株式会社,東京都,町田市,小山町７６６番地４２,,13,209,1940212,,,,,,,2023-05-17,1,,,,,ミック,0
384,2012401040539,新規,0,2023-05-17,2023-05-17,株式会社ブリサテック,,株式会社,東京都,稲城市,百村１６２３－１－１００２,,13,225,2060804,,,,,,,2023-05-17,1,,,,,ブリサテック,0
387,2012703002708,新規,0,2023-05-17,2023-05-17,合同会社Ａ＆Ｅ　ＪＡＰＡＮ,,合同会社,東京都,小平市,学園東町３丁目８番９号,,13,211,1870043,,,,,,,2023-05-17,1,,,,,エーアンドイージャパン,0
395,2020001151623,新規,0,2023-05-17,2023-05-17,株式会社ライト,,株式会社,神奈川県,横浜市港北区,下田町５丁目４番１２号,,14,109,2230064,,,,,,,2023-05-17,1,,,,,ライト,0
396,2020001151648,新規,0,2023-05-17,2023-05-17,株式会社Ｓｉｎｃｅｒｉｔｅ,,株式会社,神奈川県,横浜市栄区,飯島町１３４４番地２,,14,115,2440842,,,,,,,2023-05-17,1,,,,,サンセリテ,0
397,2020001151656,新規,0,2023-05-17,2023-05-17,株式会社ＴｈｉｎｋＦｕｌｌ,,株式会社,神奈川県,川崎市高津区,久本１丁目６番８号,,14,134,2130011,,,,,,,2023-05-17,1,,,,,シンクフル,0
405,2020005015997,新規,0,2023-05-17,2023-05-17,一般社団法人日本チームモチベーション協会,,その他の設立登記法人,神奈川県,横浜市戸塚区,川上町５３３番地２,,14,110,2440805,,,,,,,2023-05-17,1,,,,,ニホンチームモチベーションキョウカイ,0
408,2021001079053,新規,0,2023-05-17,2023-05-17,株式会社ＡＮＣＨＯＲ,,株式会社,神奈川県,海老名市,国分寺台１丁目１３番１０号,,14,215,2430413,,,,,,,2023-05-17,1,,,,,アンカー,0
410,2021003013084,新規,0,2023-05-17,2023-05-17,リオモータース合同会社,,合同会社,神奈川県,厚木市,下依知２丁目２２－３０ハイツ山富士１０３,,14,212,2430806,,,,,,,2023-05-17,1,,,,,リオモータース,0
411,2021003013101,新規,0,2023-05-17,2023-05-17,合同会社金澤プランニング,,合同会社,神奈川県,鎌倉市,台２丁目１１－１７,,14,204,2470061,,,,,,,2023-05-17,1,,,,,カナザワプランニング,0
412,2021005012811,新規,0,2023-05-17,2023-05-17,労働者協同組合プラスチックフリー普及協会,,その他の設立登記法人,神奈川県,藤沢市,鵠沼石上１丁目３番６号,00130516,14,205,2510025,,,,,,,2023-05-17,1,,,,,プラスチックフリーフキュウキョウカイ,0
424,2030001153767,新規,0,2023-05-17,2023-05-17,株式会社ストラットン・オークモント,,株式会社,埼玉県,越谷市,南越谷４丁目５番１号－４Ｇ,,11,222,3430845,,,,,,,2023-05-17,1,,,,,ストラットンオークモント,0
425,2030003021708,新規,0,2023-05-17,2023-05-17,合同会社程遠,,合同会社,埼玉県,八潮市,大字古新田１０５０番地１,,11,234,3400823,,,,,,,2023-05-17,1,,,,,コーエン,0
429,2040001128396,新規,0,2023-05-17,2023-05-17,株式会社オンサイト,,株式会社,千葉県,市川市,曽谷２丁目２４番２号,,12,203,2720832,,,,,,,2023-05-17,1,,,,,オンサイト,0
430,2040001128413,新規,0,2023-05-17,2023-05-17,株式会社ＳＵＧＩＹＡＭＡ工業,,株式会社,千葉県,松戸市,高塚新田４３１番地３,,12,207,2702222,,,,,,,2023-05-17,1,,,,,スギヤマコウギョウ,0
431,2040001128438,新規,0,2023-05-17,2023-05-17,株式会社Ｔｒａｎｓｍｉｔ　Ｓｔｕｄｉｏ,,株式会社,千葉県,四街道市,鷹の台２丁目３０番１号,,12,228,2840033,,,,,,,2023-05-17,1,,,,,トランズミットストゥディオ,0
432,2040001128446,新規,0,2023-05-17,2023-05-17,株式会社秋山興業,,株式会社,千葉県,市原市,八幡石塚２丁目５番地１８,,12,219,2900061,,,,,,,2023-05-17,1,,,,,アキヤマコウギョウ,0
433,2040001128454,新規,0,2023-05-17,2023-05-17,ウルトラ株式会社,,株式会社,千葉県,袖ケ浦市,川原井２０３９－６,,12,229,2990201,,,,,,,2023-05-17,1,,,,,ウルトラ,0
435,2040003022614,新規,0,2023-05-17,2023-05-17,合同会社健実,,合同会社,千葉県,千葉市稲毛区,黒砂２丁目５番１０号,,12,103,2630042,,,,,,,2023-05-17,1,,,,,ケンジツ,0
437,2050001052851,新規,0,2023-05-17,2023-05-17,株式会社クドウサクセン,,株式会社,茨城県,北相馬郡利根町,大字大房７８７番地３,,08,564,3001601,,,,,,,2023-05-17,1,,,,,クドウサクセン,0
453,2070001040466,新規,0,2023-05-17,2023-05-17,株式会社須田,,株式会社,群馬県,前橋市,昭和町１丁目１０番１４号,,10,201,3710034,,,,,,,2023-05-17,1,,,,,スダ,0
458,2080001025623,新規,0,2023-05-17,2023-05-17,株式会社スマイル,,株式会社,静岡県,静岡市駿河区,八幡１丁目２－５,,22,102,4228076,,,,,,,2023-05-17,1,,,,,スマイル,0
460,2080401026493,新規,0,2023-05-17,2023-05-17,株式会社三智,,株式会社,静岡県,菊川市,下平川２５２１番地の１,,22,224,4371514,,,,,,,2023-05-17,1,,,,,ミノリ,0
468,2110001037549,新規,0,2023-05-17,2023-05-17,新潟サンケン株式会社,,株式会社,新潟県,小千谷市,大字千谷甲３０００番地,,15,208,9470052,,,,,,,2023-05-17,1,,,,,ニイガタサンケン,0
475,2120001254853,新規,0,2023-05-17,2023-05-17,金蓋亜株式会社,,株式会社,大阪府,大阪市中央区,島之内１丁目４－２８ＫＯＮＯＵビル６０３号室,,27,128,5420082,,,,,,,2023-05-17,1,,,,,キンガイヤ,0
476,2120001254928,新規,0,2023-05-17,2023-05-17,株式会社ジョレックス,,株式会社,大阪府,大阪市東淀川区,下新庄２丁目８番１６号,,27,114,5330021,,,,,,,2023-05-17,1,,,,,ジョレックス,0
477,2120001255001,新規,0,2023-05-17,2023-05-17,株式会社ひふみ,,株式会社,大阪府,大阪市北区,梅田１丁目２番２号,,27,127,5300001,,,,,,,2023-05-17,1,,,,,ヒフミ,0
480,2120003024081,新規,0,2023-05-17,2023-05-17,合同会社イニョン,,合同会社,大阪府,大阪市北区,梅田１丁目２番２号大阪駅前第２ビル１２‐１２,,27,127,5300001,,,,,,,2023-05-17,1,,,,,イニョン,0
481,2120003024098,新規,0,2023-05-17,2023-05-17,合同会社ランドワークス,,合同会社,大阪府,大阪市北区,角田町１番１０号,,27,127,5300017,,,,,,,2023-05-17,1,,,,,ランドワークス,0
482,2120003024107,新規,0,2023-05-17,2023-05-17,合同会社ライトグリーン,,合同会社,大阪府,大阪市淀川区,十三本町２丁目１番３号,,27,123,5320024,,,,,,,2023-05-17,1,,,,,ライトグリーン,0
490,2130001074326,新規,0,2023-05-17,2023-05-17,株式会社アメカン,,株式会社,京都府,京都市北区,平野鳥居前町３,,26,101,6038321,,,,,,,2023-05-17,1,,,,,アメカン,0
494,2130003008728,新規,0,2023-05-17,2023-05-17,合同会社Ｅｖｉｓ,,合同会社,京都府,京都市下京区,朱雀宝蔵町４４番地協栄ビル２階京都朱雀スタジオ,,26,106,6008846,,,,,,,2023-05-17,1,,,,,エヴィス,0
512,2150001026408,新規,0,2023-05-17,2023-05-17,Ｓ＆Ｂインターナショナル株式会社,,株式会社,奈良県,香芝市,真美ヶ丘４丁目１０番７号,,29,210,6390223,,,,,,,2023-05-17,1,,,,,エスアンドビーインターナショナル,0
513,2150005009482,新規,0,2023-05-17,2023-05-17,医療法人三歩会,,その他の設立登記法人,奈良県,大和郡山市,九条平野町３番２５－１,,29,203,6391002,,,,,,,2023-05-17,1,,,,,サンポカイ,0
528,2220005008758,新規,0,2023-05-17,2023-05-17,一般社団法人慈空,,その他の設立登記法人,石川県,金沢市,東長江町伊１番地１３,,17,201,9200822,,,,,,,2023-05-17,1,,,,,ジクウ,0
533,2240001061544,新規,0,2023-05-17,2023-05-17,Ｂｏｒｎ　ＬＡＢＯ株式会社,,株式会社,広島県,広島市中区,昭和町６番１８－８０１号,,34,101,7300046,,,,,,,2023-05-17,1,,,,,ボーンラボ,0
535,2240005015579,新規,0,2023-05-17,2023-05-17,一般社団法人広島観光開発推進協会,,その他の設立登記法人,広島県,広島市東区,上大須賀町５番１８号,,34,102,7320056,,,,,,,2023-05-17,1,,,,,ヒロシマカンコウカイハツスイシンキョウカイ,0
544,2290001101477,新規,0,2023-05-17,2023-05-17,株式会社ＳＥＬＥＣＴ,,株式会社,福岡県,福岡市博多区,築港本町５番１９号,,40,132,8120021,,,,,,,2023-05-17,1,,,,,セレクト,0
551,2290003013778,新規,0,2023-05-17,2023-05-17,Ｚデベロッパー合同会社,,合同会社,福岡県,福岡市中央区,小笹３丁目１３番２７号,,40,133,8100033,,,,,,,2023-05-17,1,,,,,ゼットデベロッパー,0
552,2290803004415,新規,0,2023-05-17,2023-05-17,ＮＨＴ合同会社,,合同会社,福岡県,北九州市小倉北区,大田町１３‐１杜ビル３０１号,,40,106,8020015,,,,,,,2023-05-17,1,,,,,エヌエイチティ,0
553,2300001013299,新規,0,2023-05-17,2023-05-17,株式会社ダイリン,,株式会社,佐賀県,伊万里市,波多津町内野１２８,,41,205,8480103,,,,,,,2023-05-17,1,,,,,ダイリン,0
557,2310003004576,新規,0,2023-05-17,2023-05-17,合同会社ｆｅｅｌ　ｓａｆｅ,,合同会社,長崎県,東彼杵郡波佐見町,折敷瀬郷１９４５番地７,,42,323,8593701,,,,,,,2023-05-17,1,,,,,フィールセーフ,0
563,2340001025588,新規,0,2023-05-17,2023-05-17,株式会社一刀両段,,株式会社,鹿児島県,鹿児島市,田上７丁目１４番８号,,46,201,8900034,,,,,,,2023-05-17,1,,,,,イットウリョウダン,0
566,2360001032005,新規,0,2023-05-17,2023-05-17,株式会社ＳＨスクウェアウィズライフ,,株式会社,沖縄県,那覇市,西１丁目７番７号,,47,201,9000036,,,,,,,2023-05-17,1,,,,,エスエイチスクウェアウィズライフ,0
568,2370001049956,新規,0,2023-05-17,2023-05-17,株式会社カネショウ大芳丸,,株式会社,宮城県,石巻市,鹿妻南１丁目１５番１０号,,04,202,9860042,,,,,,,2023-05-17,1,,,,,カネショウダイヨシマル,0
569,2370001049964,新規,0,2023-05-17,2023-05-17,プラムポート株式会社,,株式会社,宮城県,仙台市青葉区,五橋１丁目６番２号ＫＪビル,,04,101,9800022,,,,,,,2023-05-17,1,,,,,プラムポート,0
572,2410003003799,新規,0,2023-05-17,2023-05-17,合同会社輝,,合同会社,秋田県,横手市,駅西２丁目７番２８号,,05,203,0130049,,,,,,,2023-05-17,1,,,,,カガヤキ,0
574,2430001089095,新規,0,2023-05-17,2023-05-17,株式会社ＲｅｐｌａｎＢｏｄｙ,,株式会社,北海道,札幌市中央区,大通東３丁目１番地２７,,01,101,0600041,,,,,,,2023-05-17,1,,,,,リプランボディ,0
575,2430001089137,新規,0,2023-05-17,2023-05-17,株式会社プロダクトＨＡＲＵ,,株式会社,北海道,江別市,文京台６６番地の１サーム森林公園壱番館９１６号室,,01,217,0690833,,,,,,,2023-05-17,1,,,,,プロダクトハル,0
576,2430005014719,新規,0,2023-05-17,2023-05-17,一般社団法人北海道卸売市場協会,,その他の設立登記法人,北海道,札幌市中央区,北三条西７丁目１番地,,01,101,0600003,,,,,,,2023-05-17,1,,,,,ホッカイドウオロシウリシジョウキョウカイ,0
581,2700150116234,新規,0,2023-05-17,2023-05-17,Ｓｈａｎｇｈａｉ　ｆｅｉｓｕｏ　Ｓｐｏｒｔｓ　Ｃｏ．，Ｌｔｄ,,外国会社等,,,,,,,,Ｓｏｎｇｊｉａｎｇ　ｑｕ，Ｄｏｎｇｊｉｎｇ　Ｚｈｅｎ，Ｓｈｅｎｚｈｕａｎ　ｇｏｎｇ　ｌｕ　５５９９　ｈａｏ　８　ｄｏｎｇ　３１６　Ｓｈｉ，ｓｈａｎｇｈａｉ，ｓｈａｎｇｈａｉ，２０１８１２，ＣＮ,,,,,,2023-05-17,1,,,,,ヒサシヤンハイタイイクヨウヒンユウゲンコウシ,0
583,3010001235335,新規,0,2023-05-17,2023-05-17,裳恩株式会社,,株式会社,東京都,千代田区,神田平河町１番地第３東ビル６Ｆ,,13,101,1010027,,,,,,,2023-05-17,1,,,,,ショウオン,0
584,3010003040618,新規,0,2023-05-17,2023-05-17,ＳＫＭＴ合同会社,,合同会社,東京都,中央区,晴海３丁目１６番１－２８０９号,,13,102,1040053,,,,,,,2023-05-17,1,,,,,エスケーエムティー,0
585,3010005036696,新規,0,2023-05-17,2023-05-17,一般社団法人デジタルノマド推進協会,,その他の設立登記法人,東京都,中央区,日本橋室町１丁目１１番１２号日本橋水野ビル７階,,13,102,1030022,,,,,,,2023-05-17,1,,,,,デジタルノマドスイシンキョウカイ,0
586,3010101015645,新規,0,2023-05-17,2023-05-17,Ｋｈａｋｉ株式会社,,株式会社,東京都,八王子市,椚田町５３３－２,,13,201,1930942,,,,,,,2023-05-17,1,,,,,カーキ,0
597,3010403030111,新規,0,2023-05-17,2023-05-17,合同会社ＩＭＩ,,合同会社,東京都,港区,北青山２丁目７－１３プラセオ青山ビル３Ｆ,,13,103,1070061,,,,,,,2023-05-17,1,,,,,アイエムアイ,0
599,3010601063053,新規,0,2023-05-17,2023-05-17,Ｃ＆ＩＳＣＳ株式会社,,株式会社,東京都,江東区,有明１丁目４番２０－２９１０号,,13,108,1350063,,,,,,,2023-05-17,1,,,,,シーアンドアイエスシーエス,0
602,3010603010152,新規,0,2023-05-17,2023-05-17,合同会社ＭＳＢ,,合同会社,東京都,江東区,深川１丁目１番２号２階,,13,108,1350033,,,,,,,2023-05-17,1,,,,,エムエスビー,0
604,3010701044267,新規,0,2023-05-17,2023-05-17,株式会社Ｍｉｙｕ’ｓ,,株式会社,東京都,品川区,東五反田５丁目２番３７号,,13,109,1410022,,,,,,,2023-05-17,1,,,,,ミユーズ,0
605,3010801033946,新規,0,2023-05-17,2023-05-17,株式会社ゴールド,,株式会社,東京都,大田区,蒲田４丁目１番１－９０３号,,13,111,1440052,,,,,,,2023-05-17,1,,,,,ゴールド,0
622,3011001154426,新規,0,2023-05-17,2023-05-17,株式会社ｍｅｌａ　ｇｙｍ,,株式会社,東京都,渋谷区,恵比寿南３丁目１－１いちご恵比寿グリーングラス８Ｆ,,13,113,1500022,,,,,,,2023-05-17,1,,,,,メラジム,0
623,3011001154434,新規,0,2023-05-17,2023-05-17,株式会社ヒトカラ工務店,,株式会社,東京都,目黒区,上目黒２丁目４１番１０号,,13,110,1530051,,,,,,,2023-05-17,1,,,,,ヒトカラコウムテン,0
624,3011001154442,新規,0,2023-05-17,2023-05-17,ＫＡＫＵＪＩＫＵ　ＤＥＳＩＧＮ　ＣＯＮＳＵＬＴＩＮＧ株式会社,,株式会社,東京都,渋谷区,渋谷２丁目２１－１ヒカリエ８ＦＣｒｅａｔｉｖｅＬｏｕｎｇｅＭＯＶ,,13,113,1500002,,,,,,,2023-05-17,1,,,,,カクジクデザインコンサルティング,0
631,3011101102887,新規,0,2023-05-17,2023-05-17,株式会社ＶＯＧＵＥ　ｐｌｕｓ,,株式会社,東京都,新宿区,新宿６丁目２２番５号,,13,104,1600022,,,,,,,2023-05-17,1,,,,,ヴォーグプラス,0
635,3011103013042,新規,0,2023-05-17,2023-05-17,合同会社ＹＳＫ,,合同会社,東京都,新宿区,西新宿３丁目３番１３号,,13,104,1600023,,,,,,,2023-05-17,1,,,,,ワイエスケー,0
638,3011301028692,新規,0,2023-05-17,2023-05-17,株式会社Ｐｉｘｐｉｌ,,株式会社,東京都,杉並区,桃井１丁目１番８号野崎ビル２－Ｃ,,13,115,1670034,,,,,,,2023-05-17,1,,,,,ピックスピル,0
641,3011501029301,新規,0,2023-05-17,2023-05-17,金翔興業株式会社,,株式会社,東京都,荒川区,南千住８丁目８番１－１２１７号,,13,118,1160003,,,,,,,2023-05-17,1,,,,,カネショウコウギョウ,0
646,3011801042409,新規,0,2023-05-17,2023-05-17,株式会社アスカホーム,,株式会社,東京都,足立区,足立４丁目７番２号,,13,121,1200015,,,,,,,2023-05-17,1,,,,,アスカホーム,0
647,3012301013445,新規,0,2023-05-17,2023-05-17,株式会社ＹＵＴＯＲＩ,,株式会社,東京都,町田市,中町１丁目２－５ＳＨＥＬＬＭＩＹＡＫＯＶ３Ｆ,,13,209,1940021,,,,,,,2023-05-17,1,,,,,ユトリ,0
666,3020001151614,新規,0,2023-05-17,2023-05-17,株式会社ｅＬＵＣ,,株式会社,神奈川県,横浜市西区,浅間町１丁目４番３号ウィザードビル４０２,,14,103,2200072,,,,,,,2023-05-17,1,,,,,イーラック,0
667,3020001151630,新規,0,2023-05-17,2023-05-17,株式会社Ｊ‐Ｆａｃｉｌｉｔｙ,,株式会社,神奈川県,横浜市保土ケ谷区,新井町３４０番地千丸台アパート１２１８,,14,106,2400053,,,,,,,2023-05-17,1,,,,,ジェーファシリティー,0
668,3020001151639,新規,0,2023-05-17,2023-05-17,ウェブフック株式会社,,株式会社,神奈川県,横浜市西区,北幸２丁目１０番地２８むつみビル３Ｆ,,14,103,2200004,,,,,,,2023-05-17,1,,,,,ウェブフック,0
675,3020003023910,新規,0,2023-05-17,2023-05-17,ＪＡＭ　ＩＮＴＥＲＡＣＴＩＶＥ合同会社,,合同会社,神奈川県,横浜市中区,桜木町１丁目１０１番地１クロスゲート７階,,14,104,2310062,,,,,,,2023-05-17,1,,,,,ジャムインタラクティブ,0
680,3021003013100,新規,0,2023-05-17,2023-05-17,アトナク合同会社,,合同会社,神奈川県,鎌倉市,腰越３丁目２０番１０号ヴィラジュール３０１,,14,204,2480033,,,,,,,2023-05-17,1,,,,,アトナク,0
686,3030001153659,新規,0,2023-05-17,2023-05-17,株式会社ＢｌｕｅＤｏｏｒｓ,,株式会社,埼玉県,朝霞市,本町３丁目２番１０－４０３号,,11,227,3510011,,,,,,,2023-05-17,1,,,,,ブルードアーズ,0
687,3030001153849,新規,0,2023-05-17,2023-05-17,株式会社ＹＯＣＯ,,株式会社,埼玉県,飯能市,柳町２３番５号,,11,209,3570035,,,,,,,2023-05-17,1,,,,,ヨコ,0
693,3030005021267,新規,0,2023-05-17,2023-05-17,医療法人社団晃葉会,,その他の設立登記法人,埼玉県,川口市,栄町３丁目１０番８号青木ビル２階,,11,203,3320017,,,,,,,2023-05-17,1,,,,,コウヨウカイ,0
697,3040001128379,新規,0,2023-05-17,2023-05-17,株式会社リフレーミング,,株式会社,千葉県,流山市,大字東深井８８５番地の２０２,,12,220,2700101,,,,,,,2023-05-17,1,,,,,リフレーミング,0
698,3040001128412,新規,0,2023-05-17,2023-05-17,ＮＯＣＯｂｏｎｂｏｎ株式会社,,株式会社,千葉県,千葉市稲毛区,小深町２８０番地６５,,12,103,2630003,,,,,,,2023-05-17,1,,,,,ノコボンボン,0
699,3040001128429,新規,0,2023-05-17,2023-05-17,ＭＴＭ株式会社,,株式会社,千葉県,船橋市,習志野台３丁目８番２４号,,12,204,2740063,,,,,,,2023-05-17,1,,,,,エムティーエム,0
700,3040001128437,新規,0,2023-05-17,2023-05-17,株式会社ＲＥＬＩＥＶＥＲ,,株式会社,千葉県,千葉市花見川区,千種町３３８番地１２,,12,102,2620012,,,,,,,2023-05-17,1,,,,,リリーバー,0
701,3040001128445,新規,0,2023-05-17,2023-05-17,ライロハイヤー株式会社,,株式会社,千葉県,市川市,北方１丁目２番３号,,12,203,2720815,,,,,,,2023-05-17,1,,,,,ライロハイヤー,0
702,3040001128461,新規,0,2023-05-17,2023-05-17,株式会社グレイスリレーションズ,,株式会社,千葉県,習志野市,鷺沼台１丁目７番１５－２号,,12,216,2750015,,,,,,,2023-05-17,1,,,,,グレイスリレーションズ,0
706,3040003022596,新規,0,2023-05-17,2023-05-17,ＮＥＸＴ　ＫＩＤＳ合同会社,,合同会社,千葉県,市川市,田尻４丁目３番２０号,,12,203,2720014,,,,,,,2023-05-17,1,,,,,ネクストキッズ,0
707,3040003022605,新規,0,2023-05-17,2023-05-17,シグネット合同会社,,合同会社,千葉県,千葉市美浜区,打瀬２丁目１２番地パティオス５番街６０５号,,12,106,2610013,,,,,,,2023-05-17,1,,,,,シグネット,0
708,3050001052859,新規,0,2023-05-17,2023-05-17,株式会社川上工業,,株式会社,茨城県,龍ケ崎市,佐貫町４２５番地３７,,08,208,3010033,,,,,,,2023-05-17,1,,,,,カワカミコウギョウ,0
709,3050001052867,新規,0,2023-05-17,2023-05-17,株式会社アトレイユ,,株式会社,茨城県,水戸市,見川町２１３１番地の２２０８,,08,201,3100913,,,,,,,2023-05-17,1,,,,,アトレイユ,0
713,3050003007514,新規,0,2023-05-17,2023-05-17,アースシフトグローバル・アジア合同会社,,合同会社,茨城県,つくば市,梅園２丁目５番地２３ニューライフ梅園第二５０３号,,08,220,3050045,,,,,,,2023-05-17,1,,,,,アースシフトグローバルアジア,0
714,3050005013270,新規,0,2023-05-17,2023-05-17,一般社団法人茨城県公認心理師協会,,その他の設立登記法人,茨城県,つくば市,榎戸７８３－１２,,08,220,3050853,,,,,,,2023-05-17,1,,,,,イバラキケンコウニンシンリシキョウカイ,0
722,3070003004947,新規,0,2023-05-17,2023-05-17,Ｔサービス合同会社,,合同会社,群馬県,沼田市,井土上町２２８番地３,,10,206,3780035,,,,,,,2023-05-17,1,,,,,ティサービス,0
743,3120001254919,新規,0,2023-05-17,2023-05-17,株式会社ＣＡＳＴＩＮＧ,,株式会社,大阪府,大阪市中央区,森ノ宮中央１丁目１６番１５号,,27,128,5400003,,,,,,,2023-05-17,1,,,,,キャスティング,0
745,3120003024089,新規,0,2023-05-17,2023-05-17,Ｗｅｂ　Ａｑｕａ合同会社,,合同会社,大阪府,大阪市西区,西本町１丁目４番１号オリックス本町ビル４Ｆ,,27,106,5500005,,,,,,,2023-05-17,1,,,,,ウェブアクア,0
747,3120101067519,新規,0,2023-05-17,2023-05-17,株式会社ベアーズ,,株式会社,大阪府,堺市堺区,北丸保園６番３３号,,27,141,5900037,,,,,,,2023-05-17,1,,,,,ベアーズ,0
754,3122001036982,新規,0,2023-05-17,2023-05-17,株式会社ＡＬＬ　ＨＥＲＯ,,株式会社,大阪府,柏原市,玉手町２１－１６,,27,221,5820028,,,,,,,2023-05-17,1,,,,,オールヒーロー,0
763,3130001074317,新規,0,2023-05-17,2023-05-17,株式会社ＳＵＮＮＹ　ＹＡＭＡＴＯ,,株式会社,京都府,京都市北区,小山中溝町３１番地アーバン紫園４０３,00130515,26,101,6038156,,,,,,,2023-05-17,1,,,,,サニーヤマト,0
764,3130001074341,新規,0,2023-05-17,2023-05-17,株式会社藝舟,,株式会社,京都府,京都市上京区,仁和寺街道御前通西入下横町５９４番地１,,26,102,6028373,,,,,,,2023-05-17,1,,,,,ゲイシュウ,0
767,3130003008727,新規,0,2023-05-17,2023-05-17,ＭＩＮＨ　ＴＡＭ合同会社,,合同会社,京都府,亀岡市,大井町並河２丁目１１番２号,,26,206,6210013,,,,,,,2023-05-17,1,,,,,ミンタム,0
776,3150005009481,新規,0,2023-05-17,2023-05-17,医療法人誠援会,,その他の設立登記法人,奈良県,橿原市,小綱町５番地の４４,,29,205,6340811,,,,,,,2023-05-17,1,,,,,セイエンカイ,0
777,3160001025052,新規,0,2023-05-17,2023-05-17,株式会社拓昇,,株式会社,滋賀県,野洲市,西河原２３２２番地５,,25,210,5202423,,,,,,,2023-05-17,1,,,,,タクショウ,0
788,3180001155946,新規,0,2023-05-17,2023-05-17,Ｌｅａｐ　Ｍ＆Ｓ株式会社,,株式会社,愛知県,名古屋市名東区,勢子坊３丁目２０５番地アイリス勢子坊３０３号,,23,115,4650055,,,,,,,2023-05-17,1,,,,,リープエムアンドエス,0
789,3180001156242,新規,0,2023-05-17,2023-05-17,株式会社トラベディア,,株式会社,愛知県,名古屋市瑞穂区,市丘町１丁目４０番地の２アンソレイエ市丘２０１号,,23,108,4670063,,,,,,,2023-05-17,1,,,,,トラベディア,0
790,3180001156333,新規,0,2023-05-17,2023-05-17,ＳＰ株式会社,,株式会社,愛知県,名古屋市中区,新栄１丁目２番２９号ウエストビルＢ１,,23,106,4600007,,,,,,,2023-05-17,1,,,,,エスピー,0
791,3180001156341,新規,0,2023-05-17,2023-05-17,株式会社ラビッツ不動産,,株式会社,愛知県,名古屋市中川区,牛立町４丁目４２番地の３,,23,110,4540043,,,,,,,2023-05-17,1,,,,,ラビッツフドウサン,0
801,3180005020221,新規,0,2023-05-17,2023-05-17,医療法人Ｌｉｂｅｒｔｙ,,その他の設立登記法人,愛知県,名古屋市緑区,相川２丁目１０５番地,,23,114,4580011,,,,,,,2023-05-17,1,,,,,リバティ,0
804,3190001030413,新規,0,2023-05-17,2023-05-17,株式会社カンブリ,,株式会社,三重県,三重郡朝日町,大字縄生１９８０番地２五福ガーデンＡ１０１号室,,24,343,5108101,,,,,,,2023-05-17,1,,,,,カンブリ,0
806,3200001041326,新規,0,2023-05-17,2023-05-17,株式会社ＧＲＥＥＮ‐Ｌｅａｆ,,株式会社,岐阜県,羽島郡笠松町,長池１０８番地の６,,21,303,5016063,,,,,,,2023-05-17,1,,,,,グリーンリーフ,0
811,3240005015578,新規,0,2023-05-17,2023-05-17,一般社団法人ｓｉｇｎｐｏｓｔ,,その他の設立登記法人,広島県,広島市佐伯区,五日市６丁目１番３号,,34,108,7315127,,,,,,,2023-05-17,1,,,,,サインポスト,0
813,3260001037962,新規,0,2023-05-17,2023-05-17,株式会社フェリーチェ,,株式会社,岡山県,岡山市北区,柳町１丁目１４番１２号西川１００ビル３階,,33,101,7000904,,,,,,,2023-05-17,1,,,,,フェリーチェ,0
814,3260003004309,新規,0,2023-05-17,2023-05-17,合同会社ＭａｃＲ,,合同会社,岡山県,岡山市北区,東花尻５９番地１９,,33,101,7010135,,,,,,,2023-05-17,1,,,,,マックアール,0
819,3290001101534,新規,0,2023-05-17,2023-05-17,株式会社ＬＩＦＩＸ,,株式会社,福岡県,大野城市,仲畑１丁目３４番２０号,,40,219,8160921,,,,,,,2023-05-17,1,,,,,リフィックス,0
820,3290001101567,新規,0,2023-05-17,2023-05-17,わくわく株式会社,,株式会社,福岡県,福岡市中央区,荒戸１丁目１５－１１,,40,133,8100062,,,,,,,2023-05-17,1,,,,,ワクワク,0
825,3300001013298,新規,0,2023-05-17,2023-05-17,株式会社原一建設,,株式会社,佐賀県,鳥栖市,元町１２７０番地１５,,41,203,8410051,,,,,,,2023-05-17,1,,,,,ハライチケンセツ,0
826,3310001018420,新規,0,2023-05-17,2023-05-17,輝機械設備株式会社,,株式会社,長崎県,長崎市,戸石町５００番地６３９,,42,201,8510113,,,,,,,2023-05-17,1,,,,,,0
828,3330001030877,新規,0,2023-05-17,2023-05-17,株式会社ＢＨ・モリシン,,株式会社,熊本県,熊本市北区,植木町富応１３６４番地７,,43,105,8610162,,,,,,,2023-05-17,1,,,,,ビーエイチモリシン,0
835,3360001031963,新規,0,2023-05-17,2023-05-17,株式会社万遊,,株式会社,沖縄県,那覇市,樋川１丁目９番１４号,00130518,47,201,9000022,,,,,,,2023-05-17,1,,,,,マンユウ,0
843,3380001033702,新規,0,2023-05-17,2023-05-17,ワールド・リンク株式会社,,株式会社,福島県,郡山市,田村町下行合字石山田１１６番地,,07,203,9630726,,,,,,,2023-05-17,1,,,,,ワールドリンク,0
852,3430001089020,新規,0,2023-05-17,2023-05-17,株式会社カウンセリングオフィス静律,,株式会社,北海道,札幌市中央区,南一条西２丁目４番地１,,01,101,0600061,,,,,,,2023-05-17,1,,,,,カウンセリングオフィスセイリツ,0
857,3430005014718,新規,0,2023-05-17,2023-05-17,一般社団法人国際人材育成支援協会,,その他の設立登記法人,北海道,札幌市白石区,菊水元町一条５丁目４番１３号,,01,104,0030821,,,,,,,2023-05-17,1,,,,,コクサイジンザイイクセイシエンキョウカイ,0
873,3700150116225,新規,0,2023-05-17,2023-05-17,Ａｎａｓ　Ｉｎｔｅｒｎａｔｉｏｎａｌ　Ｃｏ．，Ｌｉｍｉｔｅｄ,,外国会社等,,,,,,,,ＦＬＡＴ　１５１２，１５／Ｆ，ＬＵＣＫＹ　ＣＥＮＴＲＥ，ＮＯ．１６５－１７１　ＷＡＮ　ＣＨＡＩ　ＲＯＡＤ，ＷＡＮ　ＣＨＡＩ，ＨＯＮＧ　ＫＯＮＧ,,,,,,2023-05-17,1,,,,,アナスインターナシヨナルカンパニーリミテツド,0
874,3700150116233,新規,0,2023-05-17,2023-05-17,Ｄａｎｙａｎｇ　Ｓｅａｐｌｕｓ　ｏｕｔｄｏｏｒ　ｃｏ．，Ｌｔｄ,,外国会社等,,,,,,,,７＃　Ｂｉｎｈｅ　Ｒｏａｄ，Ｄｅｖｅｌｏｐｍｅｎｔ　Ｄｉｓｔｒｉｃｔ，Ｄａｎｙａｎｇ　Ｃｉｔｙ，Ｊｉａｎｇｓｕ　Ｐｒｏｖｉｎｃｅ，２１２３００，ＣＮ,,,,,,2023-05-17,1,,,,,タンヨウカイカコガイヨウヒンユウゲンコウシ,0
887,4010001235235,新規,0,2023-05-17,2023-05-17,株式会社ＥＮ　ＥＤＵＣＡＴＩＯＮ,,株式会社,東京都,千代田区,永田町２丁目４番１１号フレンドビル３階,,13,101,1000014,,,,,,,2023-05-17,1,,,,,エンエデュケーション,0
888,4010001235375,新規,0,2023-05-17,2023-05-17,株式会社ＳＵＡ,,株式会社,東京都,中央区,月島１丁目５番１号キャピタルゲートプレイスザ・タワー８０７号室,,13,102,1040052,,,,,,,2023-05-17,1,,,,,エスユーエー,0
889,4010001235391,新規,0,2023-05-17,2023-05-17,ワークワーク株式会社,,株式会社,東京都,千代田区,岩本町１丁目４－５ＮＳ岩本町ビル８０３,,13,101,1010032,,,,,,,2023-05-17,1,,,,,ワークワーク,0
892,4010003040526,新規,0,2023-05-17,2023-05-17,ベーカーズサポート合同会社,,合同会社,東京都,千代田区,内神田２丁目１４番９号,,13,101,1010047,,,,,,,2023-05-17,1,,,,,ベーカーズサポート,0
893,4010003040609,新規,0,2023-05-17,2023-05-17,合同会社ｄｏｕｔｄｅｓ,,合同会社,東京都,文京区,本郷３丁目２８番４－１２０３号,,13,105,1130033,,,,,,,2023-05-17,1,,,,,ドウトデス,0
913,4010501050464,新規,0,2023-05-17,2023-05-17,株式会社アッドシャイン,,株式会社,東京都,台東区,西浅草３丁目２２番３－３２１号,,13,106,1110035,,,,,,,2023-05-17,1,,,,,アッドシャイン,0
914,4010501050472,新規,0,2023-05-17,2023-05-17,Ｍａｙｆｌｏｗｅｒ株式会社,,株式会社,東京都,台東区,浅草橋２丁目１７－９－５０２号,,13,106,1110053,,,,,,,2023-05-17,1,,,,,メイフラワー,0
922,4010701044266,新規,0,2023-05-17,2023-05-17,世運サーキットテクノロジー日本株式会社,,株式会社,東京都,品川区,南大井３丁目２７番１４号,,13,109,1400013,,,,,,,2023-05-17,1,,,,,セウンサーキットテクノロジーニホン,0
925,4010801033953,新規,0,2023-05-17,2023-05-17,株式会社ＳＡＮＺＥＮ,,株式会社,東京都,大田区,東雪谷１丁目１２番１３号,,13,111,1450065,,,,,,,2023-05-17,1,,,,,サンゼン,0
931,4010903008151,新規,0,2023-05-17,2023-05-17,合同会社下総自然農園,,合同会社,東京都,世田谷区,奥沢６丁目１９番１９号キャッスル自由が丘４階,,13,112,1580083,,,,,,,2023-05-17,1,,,,,シモフサシゼンノウエン,0
932,4010903008168,新規,0,2023-05-17,2023-05-17,和合同会社,,合同会社,東京都,世田谷区,経堂１丁目４－１１,,13,112,1560052,,,,,,,2023-05-17,1,,,,,ナゴミ,0
936,4011001154400,新規,0,2023-05-17,2023-05-17,株式会社トライアンドオン,,株式会社,東京都,渋谷区,恵比寿西１丁目３３番３１号代官山ローヤルコーポ１０８,,13,113,1500021,,,,,,,2023-05-17,1,,,,,トライアンドオン,0
937,4011001154474,新規,0,2023-05-17,2023-05-17,インバート株式会社,,株式会社,東京都,渋谷区,神宮前６丁目２３番４号桑野ビル２階,,13,113,1500001,,,,,,,2023-05-17,1,,,,,インバート,0
945,4011101102837,新規,0,2023-05-17,2023-05-17,株式会社ランドキイチ,,株式会社,東京都,新宿区,百人町２丁目２２番１２号,,13,104,1690073,,,,,,,2023-05-17,1,,,,,ランドキイチ,0
949,4011301028709,新規,0,2023-05-17,2023-05-17,株式会社リタブル,,株式会社,東京都,杉並区,上高井戸１丁目２０番２－６０３号サンパレス芦花公園,,13,115,1680074,,,,,,,2023-05-17,1,,,,,リタブル,0
958,4012401040529,新規,0,2023-05-17,2023-05-17,株式会社ＪＫｐａｒｔｎｅｒ’ｓ,,株式会社,東京都,府中市,白糸台２丁目５５番地の６,,13,206,1830011,,,,,,,2023-05-17,1,,,,,ジェイケイパートナーズ,0
961,4012703002706,新規,0,2023-05-17,2023-05-17,合同会社ｅｍｕ,,合同会社,東京都,小平市,花小金井１丁目１７－１３Ｒ－ｃｏｕｒｔ２０２,,13,211,1870002,,,,,,,2023-05-17,1,,,,,エム,0
965,4013301050774,新規,0,2023-05-17,2023-05-17,株式会社Ｎｏ　ｂｏｕｎｄａｒｉｅｓ,,株式会社,東京都,豊島区,池袋２丁目１７－８－２０３－Ｊ,,13,116,1710014,,,,,,,2023-05-17,1,,,,,ノーバウンダリーズ,0
966,4013301050790,新規,0,2023-05-17,2023-05-17,マキ工業投資株式会社,,株式会社,東京都,豊島区,池袋４丁目２９番１１号,,13,116,1710014,,,,,,,2023-05-17,1,,,,,マキコウギョウトウシ,0
970,4020001151646,新規,0,2023-05-17,2023-05-17,株式会社ＲｅＦｉｎｅ,,株式会社,神奈川県,横浜市中区,不老町１丁目２番１号,,14,104,2310032,,,,,,,2023-05-17,1,,,,,リファイン,0
971,4020001151654,新規,0,2023-05-17,2023-05-17,リヴァイ株式会社,,株式会社,神奈川県,横浜市西区,北幸２丁目１０番２８号むつみビル３階,,14,103,2200004,,,,,,,2023-05-17,1,,,,,リヴァイ,0
972,4020001151662,新規,0,2023-05-17,2023-05-17,ＡｒｍｓＬｕａｎａ株式会社,,株式会社,神奈川県,横浜市金沢区,谷津町３４０番地金沢文庫シンコービル３階,,14,108,2360016,,,,,,,2023-05-17,1,,,,,アームスルアナ,0
977,4020003023926,新規,0,2023-05-17,2023-05-17,東升合同会社,,合同会社,神奈川県,横浜市神奈川区,入江２丁目７番２８号,,14,102,2210014,,,,,,,2023-05-17,1,,,,,トウショウ,0
978,4020003023934,新規,0,2023-05-17,2023-05-17,合同会社ＲＡＢＢＩＴ　ＰＡＮＤＡ,,合同会社,神奈川県,横浜市港南区,笹下７丁目１８番２７号,,14,111,2340052,,,,,,,2023-05-17,1,,,,,,0
979,4021001079068,新規,0,2023-05-17,2023-05-17,株式会社池田建装,,株式会社,神奈川県,三浦郡葉山町,堀内５３２番地,,14,301,2400112,,,,,,,2023-05-17,1,,,,,イケダケンソウ,0
980,4021001079076,新規,0,2023-05-17,2023-05-17,ＭＫＤ株式会社,,株式会社,神奈川県,平塚市,中原１丁目２０番７号,,14,203,2540075,,,,,,,2023-05-17,1,,,,,エムケーディ,0
984,4021003013099,新規,0,2023-05-17,2023-05-17,合同会社関和,,合同会社,神奈川県,三浦市,三崎町諸磯８５１番地２,,14,210,2380224,,,,,,,2023-05-17,1,,,,,セキワ,0
988,4030001153765,新規,0,2023-05-17,2023-05-17,Ｎｕｔｒｉｂｏｔ株式会社,,株式会社,埼玉県,越谷市,北越谷２丁目２番２０号ドルチェ北越谷２１０,,11,222,3430026,,,,,,,2023-05-17,1,,,,,ニュートリボット,0
989,4030001153880,新規,0,2023-05-17,2023-05-17,株式会社ウエスト管理,,株式会社,埼玉県,入間市,大字仏子８３６番地５,,11,225,3580053,,,,,,,2023-05-17,1,,,,,ウエストカンリ,0
1003,4040001128353,新規,0,2023-05-17,2023-05-17,株式会社Ｃｉｅｌ　Ｂｌａｕ,,株式会社,千葉県,山武郡横芝光町,栗山４４４９－１,,12,410,2891733,,,,,,,2023-05-17,1,,,,,シエルブラウ,0
1004,4040001128452,新規,0,2023-05-17,2023-05-17,株式会社ａｎｙｔｈｉｎｇ　ｂｉｚ,,株式会社,千葉県,柏市,柏１１４７番地１５,,12,217,2770005,,,,,,,2023-05-17,1,,,,,エニシングビズ,0
1005,4040001128460,新規,0,2023-05-17,2023-05-17,株式会社細貝建装,,株式会社,千葉県,茂原市,木崎１７０番地６（プライムフィールドＤ１０２号室）,,12,210,2970016,,,,,,,2023-05-17,1,,,,,ホソガイケンソウ,0
1012,4050001052841,新規,0,2023-05-17,2023-05-17,株式会社Ｐｉｒａｔｅ　ｋｉｎｇ,,株式会社,茨城県,下妻市,本宗道２３番地３,,08,210,3040813,,,,,,,2023-05-17,1,,,,,パイレートキング,0
1013,4050001052858,新規,0,2023-05-17,2023-05-17,株式会社明鈴プラント,,株式会社,茨城県,神栖市,土合本町４丁目９８０９番地３２４,,08,232,3140343,,,,,,,2023-05-17,1,,,,,メイリンプラント,0
1024,4080101024011,新規,0,2023-05-17,2023-05-17,株式会社アイティーエー,,株式会社,静岡県,伊豆の国市,田京２６４番地の３１,,22,225,4102315,,,,,,,2023-05-17,1,,,,,アイティーエー,0
1025,4080401026491,新規,0,2023-05-17,2023-05-17,株式会社リコウ産業,,株式会社,静岡県,浜松市東区,常光町２１６番地の１,,22,132,4313103,,,,,,,2023-05-17,1,,,,,リコウサンギョウ,0
1030,4100001036401,新規,0,2023-05-17,2023-05-17,株式会社ＷｅｌｌａｒｓＦａｒｍ,,株式会社,長野県,北安曇郡小谷村,大字千国乙５７１８番地のロ,,20,486,3999422,,,,,,,2023-05-17,1,,,,,ウェラーズファーム,0
1043,4120001254975,新規,0,2023-05-17,2023-05-17,株式会社Ｆｅｌｎａ,,株式会社,大阪府,大阪市中央区,平野町３丁目１－６ＢｉｚＭｉｉＸＹｏｄｏｙａｂａｓｈｉ１０１,,27,128,5410046,,,,,,,2023-05-17,1,,,,,フェルナ,0
1047,4120003024088,新規,0,2023-05-17,2023-05-17,合同会社チェルキオ,,合同会社,大阪府,大阪市淀川区,木川東２丁目１８－１５,,27,123,5320012,,,,,,,2023-05-17,1,,,,,チェルキオ,0
1048,4120003024105,新規,0,2023-05-17,2023-05-17,クラウドコンサルティング合同会社,,合同会社,大阪府,大阪市中央区,心斎橋筋１丁目４－２９フェリチタ心斎橋店３Ｆ,,27,128,5420085,,,,,,,2023-05-17,1,,,,,クラウドコンサルティング,0
1052,4120101067542,新規,0,2023-05-17,2023-05-17,株式会社宮脇不動産,,株式会社,大阪府,泉南市,男里６丁目１５番２－Ａ８１５号,,27,228,5900526,,,,,,,2023-05-17,1,,,,,ミヤワキフドウサン,0
1053,4120101067559,新規,0,2023-05-17,2023-05-17,株式会社トモナガ製作所,,株式会社,大阪府,羽曳野市,野４番地１－２,,27,222,5830884,,,,,,,2023-05-17,1,,,,,トモナガセイサクショ,0
1054,4120901047545,新規,0,2023-05-17,2023-05-17,株式会社桜,,株式会社,大阪府,高槻市,芥川町２丁目９－１１－１階,,27,207,5691123,,,,,,,2023-05-17,1,,,,,サクラ,0
1074,4130003008726,新規,0,2023-05-17,2023-05-17,合同会社デッド鴨リバー,,合同会社,京都府,京都市下京区,朱雀宝蔵町４４番地協栄ビル２階京都朱雀スタジオ,,26,106,6008846,,,,,,,2023-05-17,1,,,,,デッドカモリバー,0
1077,4130005016776,新規,0,2023-05-17,2023-05-17,社会保険労務士法人ユナイテッドグローバル,,その他の設立登記法人,京都府,木津川市,南加茂台１４丁目４番地２,,26,214,6191127,,,,,,,2023-05-17,1,,,,,ユナイテッドグローバル,0
1084,4160001025051,新規,0,2023-05-17,2023-05-17,株式会社創,,株式会社,滋賀県,草津市,木川町９１８番地６３,,25,206,5250051,,,,,,,2023-05-17,1,,,,,ソウ,0
1085,4160003002882,新規,0,2023-05-17,2023-05-17,シンシアンクス合同会社,,合同会社,滋賀県,草津市,上笠２丁目１７番６－３０２号アーバス草津,,25,206,5250028,,,,,,,2023-05-17,1,,,,,シンシアンクス,0
1089,4180001156150,新規,0,2023-05-17,2023-05-17,株式会社ｌｉｎｔ,,株式会社,愛知県,名古屋市名東区,照が丘５４番地,,23,115,4650042,,,,,,,2023-05-17,1,,,,,リント,0
1090,4180001156258,新規,0,2023-05-17,2023-05-17,株式会社ネオライフホールディングス,,株式会社,愛知県,名古屋市中区,栄４丁目６番１５号フォーティーンヒルズセンタービル９階,,23,106,4600008,,,,,,,2023-05-17,1,,,,,ネオライフホールディングス,0
1091,4180001156266,新規,0,2023-05-17,2023-05-17,株式会社一華,,株式会社,愛知県,東海市,富木島町新長口１番地の１,,23,222,4760011,,,,,,,2023-05-17,1,,,,,イチカ,0
1092,4180001156274,新規,0,2023-05-17,2023-05-17,株式会社鼎豊実業,,株式会社,愛知県,東海市,高横須賀町葭山２番地の１,,23,222,4770037,,,,,,,2023-05-17,1,,,,,テイホウジツギョウ,0
1095,4180003025238,新規,0,2023-05-17,2023-05-17,きぶき合同会社,,合同会社,愛知県,春日井市,気噴町北１丁目３４番地,,23,206,4870015,,,,,,,2023-05-17,1,,,,,キブキ,0
1096,4180005020220,新規,0,2023-05-17,2023-05-17,弁護士法人片岡法律事務所,,その他の設立登記法人,愛知県,名古屋市中区,丸の内２丁目１９番２５号ＭＳ桜通ビル７階,,23,106,4600002,,,,,,,2023-05-17,1,,,,,カタオカホウリツジムショ,0
1098,4190001030412,新規,0,2023-05-17,2023-05-17,株式会社ＴＡＫＫＥＮ,,株式会社,三重県,鈴鹿市,池田町９２８番地の１６,,24,207,5130032,,,,,,,2023-05-17,1,,,,,タッケン,0
1101,4190003004323,新規,0,2023-05-17,2023-05-17,合同会社一歩ｏｎｅ‐ｓｔｅｐ,,合同会社,三重県,桑名市,大字芳ケ崎１２６６番地１４,,24,205,5110944,,,,,,,2023-05-17,1,,,,,イッポワンステップ,0
1104,4200001041317,新規,0,2023-05-17,2023-05-17,株式会社マイライフ,,株式会社,岐阜県,岐阜市,六条大溝２丁目５番１号,,21,201,5008357,,,,,,,2023-05-17,1,,,,,マイライフ,0
1107,4210001019320,新規,0,2023-05-17,2023-05-17,株式会社Ｅ．Ｎｅｘｔ,,株式会社,福井県,福井市,和田東１丁目２３０５番地,,18,201,9188237,,,,,,,2023-05-17,1,,,,,イーネクスト,0
1113,4240001061492,新規,0,2023-05-17,2023-05-17,株式会社瑞雪,,株式会社,広島県,三原市,鷺浦町向田野浦２２７－３,,34,204,7230022,,,,,,,2023-05-17,1,,,,,ミズユキ,0
1120,4260001037961,新規,0,2023-05-17,2023-05-17,株式会社祐設,,株式会社,岡山県,岡山市北区,平田１３０番地１１１,,33,101,7000952,,,,,,,2023-05-17,1,,,,,ユウセツ,0
1127,4290801029536,新規,0,2023-05-17,2023-05-17,株式会社アリビオ,,株式会社,福岡県,北九州市八幡西区,黒崎２丁目３番１５－１１０５号,,40,109,8060021,,,,,,,2023-05-17,1,,,,,アリビオ,0
1129,4300001013297,新規,0,2023-05-17,2023-05-17,株式会社Ｃｒｏｓｓ　Ｌｉｎｅ,,株式会社,佐賀県,佐賀市,巨勢町牛島５９８番地４,,41,201,8490000,,,,,,,2023-05-17,1,,,,,クロスライン,0
1130,4300001013306,新規,0,2023-05-17,2023-05-17,Ｍａｃカンパニー株式会社,,株式会社,佐賀県,伊万里市,新天町２２５番地,,41,205,8480041,,,,,,,2023-05-17,1,,,,,マックカンパニー,0
1140,4330003009852,新規,0,2023-05-17,2023-05-17,合同会社ＹＳＫ,,合同会社,熊本県,熊本市中央区,南坪井町４番３０－８０１号,,43,101,8600848,,,,,,,2023-05-17,1,,,,,ワイエスケイ,0
1146,4360003012952,新規,0,2023-05-17,2023-05-17,合同会社亀前門,,合同会社,沖縄県,沖縄市,照屋３丁目１３番５号,,47,211,9040011,,,,,,,2023-05-17,1,,,,,カミメージョー,0
1147,4360003012960,新規,0,2023-05-17,2023-05-17,ＴＯＬＢＡＩ合同会社,,合同会社,沖縄県,中頭郡北谷町,字浜川１２１番地８,,47,326,9040112,,,,,,,2023-05-17,1,,,,,トゥルバイ,0
1148,4360003012969,新規,0,2023-05-17,2023-05-17,合同会社亀公,,合同会社,沖縄県,糸満市,字糸満１３９６番地,,47,210,9010361,,,,,,,2023-05-17,1,,,,,カメコウ,0
1153,4370001049946,新規,0,2023-05-17,2023-05-17,Ｒ＆Ｓ株式会社,,株式会社,宮城県,東松島市,宮戸字里３６番地２Ａ－２号,,04,214,9810412,,,,,,,2023-05-17,1,,,,,アールアンドエス,0
1154,4370001049962,新規,0,2023-05-17,2023-05-17,アースデザイン株式会社,,株式会社,宮城県,仙台市太白区,中田町字清水４０番地の３,,04,104,9811103,,,,,,,2023-05-17,1,,,,,アースデザイン,0
1159,4380001033701,新規,0,2023-05-17,2023-05-17,株式会社Ｍｅｔプランニング,,株式会社,福島県,郡山市,三穂田町駒屋字谷地ノ台１５－１,,07,203,9630128,,,,,,,2023-05-17,1,,,,,メットプランニング,0
1162,4390001017257,新規,0,2023-05-17,2023-05-17,株式会社大沼製材所,,株式会社,山形県,山形市,大字長谷堂２５４３番地の３,,06,201,9902363,,,,,,,2023-05-17,1,,,,,オオヌマセイザイショ,0
1164,4430001089085,新規,0,2023-05-17,2023-05-17,株式会社青葉建設,,株式会社,北海道,札幌市北区,拓北五条３丁目１１番１３号,,01,102,0028065,,,,,,,2023-05-17,1,,,,,アオバケンセツ,0
1165,4430001089093,新規,0,2023-05-17,2023-05-17,株式会社Ａ．Ｌ．Ａ,,株式会社,北海道,札幌市中央区,南三条西３丁目５番１号もりにビル２Ｆ,,01,101,0600063,,,,,,,2023-05-17,1,,,,,エーエルエー,0
1168,4430003015031,新規,0,2023-05-17,2023-05-17,合同会社メイディア,,合同会社,北海道,札幌市中央区,南三条西７丁目６－１エステラ南３条館Ａ,,01,101,0600063,,,,,,,2023-05-17,1,,,,,メイディア,0
1172,4480003001984,新規,0,2023-05-17,2023-05-17,ＫＯＮＧＯ‐Ａ合同会社,,合同会社,徳島県,徳島市,住吉２丁目７番３６号,,36,201,7700861,,,,,,,2023-05-17,1,,,,,コンゴウエー,0
1174,4490003001777,新規,0,2023-05-17,2023-05-17,合同会社ＩＷＫワークス,,合同会社,高知県,幡多郡黒潮町,入野２０５１番地,,39,428,7891931,,,,,,,2023-05-17,1,,,,,アイダブリューケイワークス,0
1180,4700150116224,新規,0,2023-05-17,2023-05-17,Ｓｈｅｎｚｈｅｎ　Ｒｉｔｏｎｇ　Ｅｍｅｒｇｅｎｃｙ　Ｌｏｇｉｓｔｉｃｓ　Ｃｏ．，ＬＴＤ．,,外国会社等,,,,,,,,Ｒｏｏｍ　７０３Ｂ，７ｔｈ　Ｆｌｏｏｒ，Ｋｏｒｄａ　Ｂｕｉｌｄｉｎｇ，Ｎｏ．２，Ｚｈｏｎｇｈａｏ　Ｆｉｒｓｔ　Ｒｏａｄ，Ｘｉａｎｇｊｉａｏｔａｎｇ　Ｃｏｍｍｕｎｉｔｙ，Ｂａｎｔｉａｎ　Ｓｔｒｅｅｔ，Ｌｏｎｇｇａｎｇ　Ｄｉｓｔｒｉｃｔ，Ｓｈｅｎｚｈｅｎ，Ｃｈｉｎａ,,,,,,2023-05-17,1,,,,,シンセンリトンエマージエンシーロジステイクスカンパニーリミテツド,0
1181,4700150116232,新規,0,2023-05-17,2023-05-17,中強光電股斌有限公司,00130527,外国会社等,東京都,港区,虎ノ門１丁目１３－５ＶＯＲＴ虎ノ門ＩＩ　９０１,00130528,13,103,1050001,新竹科学園区新竹市力行路１１號,,,,,,2023-05-17,1,,,,,コアトロニツクコーポレーシヨン,0
1195,5010001235242,新規,0,2023-05-17,2023-05-17,株式会社エアー・イスタンブール,,株式会社,東京都,千代田区,丸の内１丁目１番１号,,13,101,1000005,,,,,,,2023-05-17,1,,,,,エアーイスタンブール,0
1196,5010001235399,新規,0,2023-05-17,2023-05-17,株式会社Ｋ＆Ｃｏｍｐａｎｙ,,株式会社,東京都,千代田区,三番町３番地９、番町千鳥ケ淵アビタシオン２０１号,,13,101,1020075,,,,,,,2023-05-17,1,,,,,ケーアンドカンパニー,0
1198,5010003040582,新規,0,2023-05-17,2023-05-17,合同会社Ｉｓｈｉｆｙ,,合同会社,東京都,千代田区,神田東松下町２５アルファグランデ千桜タワー１４０７号室,,13,101,1010042,,,,,,,2023-05-17,1,,,,,イシファイ,0
1199,5010003040616,新規,0,2023-05-17,2023-05-17,東京レジ３９合同会社,,合同会社,東京都,千代田区,丸の内３丁目１番１号東京共同会計事務所内,,13,101,1000005,,,,,,,2023-05-17,1,,,,,トウキョウレジサーティナイン,0
1210,5010401174239,新規,0,2023-05-17,2023-05-17,株式会社ＳＫチェーン,,株式会社,東京都,港区,西麻布４丁目６番５号,,13,103,1060031,,,,,,,2023-05-17,1,,,,,エスケーチェーン,0
1211,5010401174370,新規,0,2023-05-17,2023-05-17,株式会社ＭｅｄｉＬｉｅｂｅ,,株式会社,東京都,港区,麻布台１丁目５－９－３Ｆ,,13,103,1060041,,,,,,,2023-05-17,1,,,,,メディリーベ,0
1214,5010405022096,新規,0,2023-05-17,2023-05-17,ＮＰＯ法人Ｇｒｅｅｎｅｃｔｉｏｎ,,その他の設立登記法人,東京都,港区,南麻布３丁目２１番１７号ＢＣｉｔｙＴｏｗｅｒＡｚａｂｕＴｏｋｙｏ１１Ｆ,,13,103,1060047,,,,,,,2023-05-17,1,,,,,グリーンネクション,0
1220,5010601063092,新規,0,2023-05-17,2023-05-17,株式会社ライジングスター,,株式会社,東京都,墨田区,両国４丁目８番１０号ＭＹＳビル２階,,13,107,1300026,,,,,,,2023-05-17,1,,,,,ライジングスター,0
1221,5010601063101,新規,0,2023-05-17,2023-05-17,株式会社Ａｎｄ　ｒｉｎｇｓ,,株式会社,東京都,江東区,有明２丁目１－３,,13,108,1350063,,,,,,,2023-05-17,1,,,,,アンドリングス,0
1230,5010803004547,新規,0,2023-05-17,2023-05-17,ＧＲＡＣＥ１１合同会社,,合同会社,東京都,大田区,南馬込１丁目２１番９号,,13,111,1430025,,,,,,,2023-05-17,1,,,,,グレイスイレブン,0
1252,5011103013049,新規,0,2023-05-17,2023-05-17,Ｒナイン合同会社,,合同会社,東京都,新宿区,余丁町６番４－２０１号,,13,104,1620055,,,,,,,2023-05-17,1,,,,,アールナイン,0
1253,5011103013057,新規,0,2023-05-17,2023-05-17,合同会社和田オフィス,,合同会社,東京都,新宿区,西新宿７丁目１８番１８号新宿税理士ビル４０３Ｂ,,13,104,1600023,,,,,,,2023-05-17,1,,,,,ワダオフィス,0
1254,5011105010655,新規,0,2023-05-17,2023-05-17,大成建設プライベート投資法人,,その他の設立登記法人,東京都,新宿区,西新宿２丁目１番１号,,13,104,1600023,,,,,,,2023-05-17,1,,,,,タイセイケンセツプライベート,0
1256,5011301028699,新規,0,2023-05-17,2023-05-17,株式会社ふうけい,,株式会社,東京都,杉並区,西荻北２丁目３番９号コメットビル６階,,13,115,1670042,,,,,,,2023-05-17,1,,,,,フウケイ,0
1257,5011301028708,新規,0,2023-05-17,2023-05-17,株式会社ウイングラード,,株式会社,東京都,杉並区,井草２丁目２８番１４－２０３,,13,115,1670021,,,,,,,2023-05-17,1,,,,,ウイングラード,0
1258,5011801042407,新規,0,2023-05-17,2023-05-17,株式会社ネクステージ,,株式会社,東京都,足立区,千住関屋町５番１９号,,13,121,1200024,,,,,,,2023-05-17,1,,,,,ネクステージ,0
1268,5012801022349,新規,0,2023-05-17,2023-05-17,株式会社ＴＥＣ　ＳＵＰＰＯＲＴ,,株式会社,東京都,昭島市,郷地町２丁目２８番５号,,13,207,1960032,,,,,,,2023-05-17,1,,,,,テックサポート,0
1280,5020001151645,新規,0,2023-05-17,2023-05-17,エルアルコ株式会社,,株式会社,神奈川県,横浜市保土ケ谷区,保土ケ谷町１丁目２５番地コスモ横浜保土ケ谷７０８号,,14,106,2400021,,,,,,,2023-05-17,1,,,,,エルアルコ,0
1281,5020001151653,新規,0,2023-05-17,2023-05-17,株式会社アシストワン,,株式会社,神奈川県,横浜市緑区,霧が丘６丁目２番地２６,,14,113,2260016,,,,,,,2023-05-17,1,,,,,アシストワン,0
1287,5020003023925,新規,0,2023-05-17,2023-05-17,合同会社Ｔａｄｄｙ,,合同会社,神奈川県,横浜市都筑区,仲町台１丁目７番１８号３０４,,14,118,2240041,,,,,,,2023-05-17,1,,,,,タディー,0
1292,5021001078977,新規,0,2023-05-17,2023-05-17,湘南ＪＡＭ’Ｓ株式会社,,株式会社,神奈川県,中郡二宮町,中里６９６番地の２３,,14,342,2590131,,,,,,,2023-05-17,1,,,,,ショウナンジャムズ,0
1293,5021001079067,新規,0,2023-05-17,2023-05-17,株式会社ＷＩＭ,,株式会社,神奈川県,横須賀市,野比２丁目４３番９号,,14,201,2390841,,,,,,,2023-05-17,1,,,,,ワイム,0
1299,5030001153764,新規,0,2023-05-17,2023-05-17,株式会社ＣＲＡＭ,,株式会社,埼玉県,川越市,新富町２丁目１９番４,,11,201,3500043,,,,,,,2023-05-17,1,,,,,クラム,0
1300,5030001153863,新規,0,2023-05-17,2023-05-17,ｗｈｉｔｅ　ｗａｌｌ　ｃｏｍｐａｎｙ株式会社,,株式会社,埼玉県,朝霞市,朝志ケ丘３丁目９番２４号,,11,227,3510035,,,,,,,2023-05-17,1,,,,,ホワイトウォールカンパニー,0
1305,5040001128377,新規,0,2023-05-17,2023-05-17,株式会社楓商会,,株式会社,千葉県,茂原市,茂原１５９１番地６４,,12,210,2970026,,,,,,,2023-05-17,1,,,,,カエデショウカイ,0
1306,5040001128402,新規,0,2023-05-17,2023-05-17,株式会社Ｏｎｅ　Ｆｏｒ　Ａｌｌ,,株式会社,千葉県,習志野市,東習志野８丁目３１番１８－３１３号,,12,216,2750001,,,,,,,2023-05-17,1,,,,,ワンフォーオール,0
1307,5040001128427,新規,0,2023-05-17,2023-05-17,タイヨユー株式会社,,株式会社,千葉県,我孫子市,新木野１丁目１１番１６号新木野ハイツ１０２,,12,222,2701114,,,,,,,2023-05-17,1,,,,,タイヨユー,0
1308,5040001128451,新規,0,2023-05-17,2023-05-17,ファイトワーク株式会社,,株式会社,千葉県,柏市,松ケ崎１２０２番地の３４,,12,217,2770835,,,,,,,2023-05-17,1,,,,,ファイトワーク,0
1310,5040003022628,新規,0,2023-05-17,2023-05-17,合同会社ｍｉｎａ　ｃａｒｅ,,合同会社,千葉県,習志野市,大久保２丁目１７番１１号,,12,216,2750011,,,,,,,2023-05-17,1,,,,,ミーナケア,0
1312,5050001052849,新規,0,2023-05-17,2023-05-17,株式会社やまと商店,,株式会社,茨城県,取手市,寺田５０５５番地７,,08,217,3020021,,,,,,,2023-05-17,1,,,,,ヤマトショウテン,0
1322,5100001036417,新規,0,2023-05-17,2023-05-17,ＩＺＵＭＩＹＡ株式会社,,株式会社,長野県,小諸市,大字和田８８３番地１０,,20,208,3840093,,,,,,,2023-05-17,1,,,,,イズミヤ,0
1334,5120001254768,新規,0,2023-05-17,2023-05-17,シンソウ株式会社,,株式会社,大阪府,大阪市北区,天神橋１丁目２０番１３号,,27,127,5300041,,,,,,,2023-05-17,1,,,,,シンソウ,0
1335,5120001254925,新規,0,2023-05-17,2023-05-17,株式会社ボーイズホールディングス,,株式会社,大阪府,大阪市北区,天神橋４丁目７番１３号,,27,127,5300041,,,,,,,2023-05-17,1,,,,,ボーイズホールディングス,0
1336,5120001254941,新規,0,2023-05-17,2023-05-17,リアル株式会社,,株式会社,大阪府,大阪市淀川区,三津屋南２丁目５番１５号,,27,123,5320035,,,,,,,2023-05-17,1,,,,,リアル,0
1337,5120001254966,新規,0,2023-05-17,2023-05-17,株式会社ＭＩＮＥ不動産,,株式会社,大阪府,大阪市港区,弁天４丁目１２番９号第一長谷ビル２Ｆ,,27,107,5520007,,,,,,,2023-05-17,1,,,,,マインフドウサン,0
1338,5120001254974,新規,0,2023-05-17,2023-05-17,株式会社ＯＳＡＫＡクラブ,,株式会社,大阪府,大阪市中央区,安土町２丁目５番５号,,27,128,5410052,,,,,,,2023-05-17,1,,,,,オオサカクラブ,0
1339,5120001254982,新規,0,2023-05-17,2023-05-17,さくやリユース株式会社,,株式会社,大阪府,大阪市中央区,島之内１丁目２２－２０堺筋ビルディング１０Ｆ,,27,128,5420082,,,,,,,2023-05-17,1,,,,,サクヤリユース,0
1342,5120003024095,新規,0,2023-05-17,2023-05-17,合同会社Ｄｕｒａｃｌｅ,,合同会社,大阪府,大阪市中央区,西心斎橋１丁目１３－２５ＳＵＲＥ西心斎橋ビル８階,,27,128,5420086,,,,,,,2023-05-17,1,,,,,デュラクル,0
1350,5122003002584,新規,0,2023-05-17,2023-05-17,合同会社ヒュッゲ企画,,合同会社,大阪府,大東市,大東町８番６６号,,27,218,5740061,,,,,,,2023-05-17,1,,,,,ヒュッゲキカク,0
1354,5130001074323,新規,0,2023-05-17,2023-05-17,株式会社アトリエサガエ,,株式会社,京都府,京都市北区,大宮玄琢北町２８－２３,,26,101,6038462,,,,,,,2023-05-17,1,,,,,アトリエサガエ,0
1356,5130003008691,新規,0,2023-05-17,2023-05-17,合同会社パルフェスモーク,,合同会社,京都府,京都市左京区,上高野薩田町１６,,26,103,6060047,,,,,,,2023-05-17,1,,,,,パルフェスモーク,0
1359,5140001130216,新規,0,2023-05-17,2023-05-17,ビジネスアシスト株式会社,,株式会社,兵庫県,神戸市中央区,八幡通４丁目２番１４号トロア神戸ビル４階,,28,110,6510085,,,,,,,2023-05-17,1,,,,,ビジネスアシスト,0
1363,5150001026405,新規,0,2023-05-17,2023-05-17,株式会社ＩＭＡＳＨＯＨ,,株式会社,奈良県,橿原市,葛本町２１８番地の４ガーデンハイツ明日香１階,,29,205,6340007,,,,,,,2023-05-17,1,,,,,イマショウ,0
1364,5150003002965,新規,0,2023-05-17,2023-05-17,合同会社ＮＥＯ,,合同会社,奈良県,奈良市,朱雀４丁目１１番１７号,,29,201,6310806,,,,,,,2023-05-17,1,,,,,ネオ,0
1369,5180001156331,新規,0,2023-05-17,2023-05-17,株式会社吼将,,株式会社,愛知県,名古屋市瑞穂区,妙音通４丁目４４番地,,23,108,4670842,,,,,,,2023-05-17,1,,,,,コウショウ,0
1370,5180001156348,新規,0,2023-05-17,2023-05-17,株式会社マツダ,,株式会社,愛知県,海部郡飛島村,竹之郷８丁目１６番地の１,,23,427,4901436,,,,,,,2023-05-17,1,,,,,マツダ,0
1382,5200001041316,新規,0,2023-05-17,2023-05-17,サンヨーテック株式会社,,株式会社,岐阜県,多治見市,池田町６丁目１番地の６,,21,204,5070048,,,,,,,2023-05-17,1,,,,,サンヨーテック,0
1383,5200001041324,新規,0,2023-05-17,2023-05-17,株式会社日置建築,,株式会社,岐阜県,本巣市,仏生寺８番地５,,21,218,5010407,,,,,,,2023-05-17,1,,,,,ヒオキケンチク,0
1390,5230001019838,新規,0,2023-05-17,2023-05-17,株式会社北新ＯＳ,,株式会社,富山県,高岡市,向野町５丁目８番３号,,16,202,9330902,,,,,,,2023-05-17,1,,,,,キタシンオーエス,0
1392,5240001061533,新規,0,2023-05-17,2023-05-17,パンファインド株式会社,,株式会社,広島県,福山市,吉津町６番１６－２０１号,,34,207,7200072,,,,,,,2023-05-17,1,,,,,パンファインド,0
1396,5250001020100,新規,0,2023-05-17,2023-05-17,株式会社Ｔ’ｓ‐ｍｉｓｓｉｏｎ,,株式会社,山口県,山口市,朝田６４９番地１（サンシャイン朝田２０３）,,35,203,7530871,,,,,,,2023-05-17,1,,,,,ティーズミッション,0
1403,5260001037960,新規,0,2023-05-17,2023-05-17,株式会社とり福,,株式会社,岡山県,岡山市南区,浜野４丁目２番１０１号,,33,104,7000845,,,,,,,2023-05-17,1,,,,,トリフク,0
1404,5260003004315,新規,0,2023-05-17,2023-05-17,合同会社ＳＴＰ,,合同会社,岡山県,総社市,真壁１８１番地１,,33,208,7191134,,,,,,,2023-05-17,1,,,,,ステップ,0
1409,5270003001526,新規,0,2023-05-17,2023-05-17,ＧａＴｗｏｒｋ合同会社,,合同会社,鳥取県,鳥取市,里仁４０８番地,,31,201,6800935,,,,,,,2023-05-17,1,,,,,ガットワーク,0
1412,5290003013924,新規,0,2023-05-17,2023-05-17,合同会社システムクラフトワークス,,合同会社,福岡県,宗像市,栄町２番地１赤間駅第二自転車駐車場２階,,40,220,8114173,,,,,,,2023-05-17,1,,,,,システムクラフトワークス,0
1413,5290003013932,新規,0,2023-05-17,2023-05-17,合同会社Ｍａｔｉｃ,,合同会社,福岡県,飯塚市,佐與２５２１番地１,,40,205,8201113,,,,,,,2023-05-17,1,,,,,マティック,0
1415,5290801029535,新規,0,2023-05-17,2023-05-17,株式会社サンハウス,,株式会社,福岡県,遠賀郡遠賀町,蓮角１６番５号,,40,384,8114334,,,,,,,2023-05-17,1,,,,,サンハウス,0
1420,5370001049945,新規,0,2023-05-17,2023-05-17,スペアエフォート株式会社,,株式会社,宮城県,仙台市青葉区,旭ケ丘４丁目３２番１０号,,04,101,9810904,,,,,,,2023-05-17,1,,,,,スペアエフォート,0
1421,5370001049953,新規,0,2023-05-17,2023-05-17,株式会社仙台工機,,株式会社,宮城県,仙台市青葉区,高野原３丁目９番地の３５,,04,101,9893216,,,,,,,2023-05-17,1,,,,,センダイコウキ,0
1431,5400001016256,新規,0,2023-05-17,2023-05-17,ＴＫＧ株式会社,,株式会社,岩手県,盛岡市,本宮３丁目３０番２７号,,03,201,0200866,,,,,,,2023-05-17,1,,,,,ティーケージー,0
1435,5430001089068,新規,0,2023-05-17,2023-05-17,株式会社ｒｅｍｉｒｕ,,株式会社,北海道,札幌市西区,西町南１９丁目２番３号,,01,107,0630062,,,,,,,2023-05-17,1,,,,,レミル,0
1436,5430001089092,新規,0,2023-05-17,2023-05-17,ａｏｓａ　ｅｎｔｅｒｔａｉｎｍｅｎｔ株式会社,,株式会社,北海道,札幌市豊平区,平岸四条７丁目１１番１３号メープルコート平岸１０２号,,01,105,0620934,,,,,,,2023-05-17,1,,,,,アオサエンターテイメント,0
1441,5430003015039,新規,0,2023-05-17,2023-05-17,合同会社エーレ,,合同会社,北海道,札幌市中央区,北四条西１５丁目１番地３５山京ガーデンハイツ西１５－８０２号,,01,101,0600004,,,,,,,2023-05-17,1,,,,,エーレ,0
1445,5500001024934,新規,0,2023-05-17,2023-05-17,株式会社ＢＥＥＦ．ＥＡＴＥＲ,,株式会社,愛媛県,松山市,一番町２丁目５番地２５グッドウィンビル４階,,38,201,7900001,,,,,,,2023-05-17,1,,,,,ビーフイーター,0
1449,5700150116223,新規,0,2023-05-17,2023-05-17,ＡＳＫＨ　ＩＮＴ’　Ｌ　ＦＲＥＩＧＨＴ　ＳＥＲＶＩＣＥＳ　ＬＴＤ,,外国会社等,,,,,,,,１／Ｆ，Ｆａｃｔｏｒｙ　Ｂｕｉｌｄｉｎｇ　Ｄ，Ｎａｎｃｈａｎｇ　Ｚｈｕａｎｇｂｉａｎ　Ｉｎｄｕｓｔｒｉａｌ　Ｐａｒｋ，Ｓａｎｗｅｉ　Ｃｏｍｍｕｎｉｔｙ，Ｈａｎｇｃｈｅｎｇ　Ｓｔｒｅｅｔ，Ｂａｏ’ａｎ　Ｄｉｓｔｒｉｃｔ，Ｓｈｅｎｚｈｅｎ，Ｃｈｉｎａ,,,,,,2023-05-17,1,,,,,アスキングインターナシヨナルフレイトサービスリミテツド,0
1450,5700150116231,新規,0,2023-05-17,2023-05-17,ｓｈｅｎｚｈｅｎｓｈｉ　ｍｉｎｇｈａｏｑｉｍａｏｙｉｙｏｕｘｉａｎｇｏｎｇｓｉ,,外国会社等,,,,,,,,Ｂｕｉｌｄｉｎｇ　１０１，Ｂｕｉｌｄｉｎｇ　２９，Ｌｉａｎｃｈｕａｎｇ　Ｔｅｃｈｎｏｌｏｇｙ　Ｐａｒｋ，２１　Ｂｕｌａｎ　Ｒｏａｄ，Ｘｉａｌｉｌａｎｇ　Ｃｏｍｍｕｎｉｔｙ，Ｎａｎｗａｎ　Ｓｔｒｅｅｔ，Ｌｏｎｇｇａｎｇ　Ｄｉｓｔｒｉｃｔ，Ｓｈｅｎｚｈｅｎ,,,,,,2023-05-17,1,,,,,シンセンシメイコウキボウエキユウゲンコウシ,0
1461,6010001235274,新規,0,2023-05-17,2023-05-17,株式会社ＳＭＥカタリスト,,株式会社,東京都,中央区,銀座７丁目１３番２０号銀座ＴＨビル９階,,13,102,1040061,,,,,,,2023-05-17,1,,,,,エスエムイーカタリスト,0
1462,6010001235398,新規,0,2023-05-17,2023-05-17,株式会社フォワードテクノロジー,,株式会社,東京都,中央区,日本橋室町１丁目１１番１２号日本橋水野ビル７階,,13,102,1030022,,,,,,,2023-05-17,1,,,,,フォワードテクノロジー,0
1467,6010003040598,新規,0,2023-05-17,2023-05-17,トミュタ合同会社,,合同会社,東京都,中央区,銀座１丁目１２‐４Ｎ＆Ｅ‐ＢＬＤ．７階,,13,102,1040061,,,,,,,2023-05-17,1,,,,,トミュタ,0
1468,6010003040607,新規,0,2023-05-17,2023-05-17,合同会社Ｌｕｎａ８,,合同会社,東京都,中央区,日本橋堀留町２丁目５番１０－１００３号（パークウッドレジデンス日本橋）,,13,102,1030012,,,,,,,2023-05-17,1,,,,,ルナエイト,0
1469,6010003040615,新規,0,2023-05-17,2023-05-17,東京レジ３８合同会社,,合同会社,東京都,千代田区,丸の内３丁目１番１号東京共同会計事務所内,,13,101,1000005,,,,,,,2023-05-17,1,,,,,トウキョウレジサーティエイト,0
1470,6010003040623,新規,0,2023-05-17,2023-05-17,ＰＰＰ合同会社,,合同会社,東京都,中央区,銀座７丁目１３番２０号銀座ＴＨビル９階,,13,102,1040061,,,,,,,2023-05-17,1,,,,,ピースリー,0
1473,6010005036677,新規,0,2023-05-17,2023-05-17,一般社団法人日本母乳ジュエリー協会,,その他の設立登記法人,東京都,中央区,日本橋室町１丁目１１番１２号日本橋水野ビル７階,,13,102,1030022,,,,,,,2023-05-17,1,,,,,ニホンボニュウジュエリーキョウカイ,0
1480,6010401174345,新規,0,2023-05-17,2023-05-17,株式会社Ｒｅｖｅｍｕ,,株式会社,東京都,港区,南青山５丁目４番４４号ラポール南青山５４－２０４,,13,103,1070062,,,,,,,2023-05-17,1,,,,,レビューム,0
1481,6010401174411,新規,0,2023-05-17,2023-05-17,日本奇潔株式会社,,株式会社,東京都,港区,虎ノ門１丁目１番１８号ヒューリック虎ノ門ビル９階Ｌ＆Ｐ司法書士法人内,,13,103,1050001,,,,,,,2023-05-17,1,,,,,ニホンキケツ,0
1489,6010403030125,新規,0,2023-05-17,2023-05-17,合同会社ＴＥＳインベストメント,,合同会社,東京都,港区,海岸１丁目１番１－４３０４号,,13,103,1050022,,,,,,,2023-05-17,1,,,,,ティーイーエスインベストメント,0
1491,6010501050454,新規,0,2023-05-17,2023-05-17,株式会社ＳＥＮＫＡ,,株式会社,東京都,台東区,上野５丁目２６番４号オフィスＲビル５階,,13,106,1100005,,,,,,,2023-05-17,1,,,,,センカ,0
1502,6010801033968,新規,0,2023-05-17,2023-05-17,株式会社みらいＮａｖｉ,,株式会社,東京都,大田区,南馬込２丁目１４番７号,,13,111,1430025,,,,,,,2023-05-17,1,,,,,ミライナビ,0
1506,6010901053032,新規,0,2023-05-17,2023-05-17,株式会社Ｓ・Ｈ・Ｎコンサルティング,,株式会社,東京都,世田谷区,砧２丁目３番３号,,13,112,1570073,,,,,,,2023-05-17,1,,,,,エスエイチエヌコンサルティング,0
1512,6011001154489,新規,0,2023-05-17,2023-05-17,イーツパートナー株式会社,,株式会社,東京都,渋谷区,神宮前１丁目７番３－１０１号,,13,113,1500001,,,,,,,2023-05-17,1,,,,,イーツパートナー,0
1525,6011101102868,新規,0,2023-05-17,2023-05-17,株式会社Ｔａｍｅｓｙ,,株式会社,東京都,新宿区,西新宿３丁目３番１３号西新宿水間ビル６階,,13,104,1600023,,,,,,,2023-05-17,1,,,,,タメシー,0
1526,6011101102884,新規,0,2023-05-17,2023-05-17,ＪＡＰＡＮ　ＥＺＡＫＩ　ＴＥＮＫＡ株式会社,,株式会社,東京都,新宿区,百人町２丁目１番４５号赤煉瓦２３８,,13,104,1690073,,,,,,,2023-05-17,1,,,,,ジャパンエザキテンカ,0
1527,6011101102892,新規,0,2023-05-17,2023-05-17,株式会社Ｒａｉｎｂｏｗ　Ｔａｓｔｅ,,株式会社,東京都,新宿区,西新宿３丁目３番１３号西新宿水間ビル２Ｆ,,13,104,1600023,,,,,,,2023-05-17,1,,,,,レインボーテイスト,0
1530,6011103013048,新規,0,2023-05-17,2023-05-17,合同会社ＭＩＲＡＩＲＩＳ,,合同会社,東京都,新宿区,西新宿６丁目１２番７号ストーク新宿Ａ－２０,,13,104,1600023,,,,,,,2023-05-17,1,,,,,ミライリス,0
1533,6011301028698,新規,0,2023-05-17,2023-05-17,ＷＩＳＥ　ｌａｎｄ＆ａｒｃｈｉｔｅｃｔｕｒｅ株式会社,,株式会社,東京都,杉並区,下高井戸５丁目１０番２号アルカイックＢＦ１０３,,13,115,1680073,,,,,,,2023-05-17,1,,,,,ワイズランドアンドアーキテクチュアー,0
1534,6011301028715,新規,0,2023-05-17,2023-05-17,株式会社Ｆ＆Ｚ,,株式会社,東京都,杉並区,上高井戸１丁目３番１４号,,13,115,1680074,,,,,,,2023-05-17,1,,,,,エフアンドゼット,0
1541,6011503005611,新規,0,2023-05-17,2023-05-17,ネコチンジャパン合同会社,,合同会社,東京都,北区,滝野川３丁目３番３－１４０１号,,13,117,1140023,,,,,,,2023-05-17,1,,,,,ネコチンジャパン,0
1551,6013103001230,新規,0,2023-05-17,2023-05-17,グランブルー合同会社,,合同会社,東京都,あきる野市,秋川６丁目１５番地２０,,13,228,1970804,,,,,,,2023-05-17,1,,,,,グランブルー,0
1552,6013301050764,新規,0,2023-05-17,2023-05-17,株式会社ＫＩＢＩＤＡＮＧＯ,,株式会社,東京都,豊島区,南池袋３丁目１８－３９久保田ビル２０１,,13,116,1710022,,,,,,,2023-05-17,1,,,,,キビダンゴ,0
1553,6013301050772,新規,0,2023-05-17,2023-05-17,株式会社ＴＧＶコミットメント,,株式会社,東京都,豊島区,南池袋１丁目１６－２０ぬかりやビル６Ｆ,,13,116,1710022,,,,,,,2023-05-17,1,,,,,テジェヴェコミットメント,0
1555,6013303006632,新規,0,2023-05-17,2023-05-17,合同会社石田商店,,合同会社,東京都,豊島区,北大塚２丁目２７番９号オリトＳ・Ｓビル１０１号室,,13,116,1700004,,,,,,,2023-05-17,1,,,,,イシダショウテン,0
1564,6020001151413,新規,0,2023-05-17,2023-05-17,株式会社双葉商事,,株式会社,神奈川県,川崎市川崎区,駅前本町１１番地２川崎フロンティアビル４階,,14,131,2100007,,,,,,,2023-05-17,1,,,,,フタバショウジ,0
1565,6020001151636,新規,0,2023-05-17,2023-05-17,株式会社ミートドア,,株式会社,神奈川県,横浜市港南区,笹下３丁目１０－３１－４０８,,14,111,2340052,,,,,,,2023-05-17,1,,,,,ミートドア,0
1566,6020001151644,新規,0,2023-05-17,2023-05-17,株式会社ステラ,,株式会社,神奈川県,横浜市青葉区,市ケ尾町５２９番地３,,14,117,2250024,,,,,,,2023-05-17,1,,,,,ステラ,0
1567,6020001151652,新規,0,2023-05-17,2023-05-17,エネとも株式会社,,株式会社,神奈川県,横浜市港北区,新羽町５７４番地５,,14,109,2230057,,,,,,,2023-05-17,1,,,,,エネトモ,0
1568,6020001151677,新規,0,2023-05-17,2023-05-17,レイトラスト株式会社,,株式会社,神奈川県,横浜市西区,楠町１番地３,,14,103,2200003,,,,,,,2023-05-17,1,,,,,レイトラスト,0
1573,6020003023874,新規,0,2023-05-17,2023-05-17,合同会社中丸屋,,合同会社,神奈川県,横浜市緑区,霧が丘２丁目５－２０,,14,113,2260016,,,,,,,2023-05-17,1,,,,,ナカマルヤ,0
1574,6020003023924,新規,0,2023-05-17,2023-05-17,合同会社ベイ・マックス,,合同会社,神奈川県,横浜市中区,桜木町１丁目１番７号ヒューリックみなとみらい１０階,,14,104,2310062,,,,,,,2023-05-17,1,,,,,ベイマックス,0
1575,6021001079074,新規,0,2023-05-17,2023-05-17,株式会社アズユーアー,,株式会社,神奈川県,鎌倉市,佐助１丁目８番１８号,,14,204,2480017,,,,,,,2023-05-17,1,,,,,アズユーアー,0
1586,6030001153945,新規,0,2023-05-17,2023-05-17,株式会社Ｍｙ　Ｅｆｆｅｃｔ,,株式会社,埼玉県,さいたま市南区,辻８丁目１６番１８ヴェレーナ浦和南ザ・テラス３０８号室,00130529,11,108,3360026,,,,,,,2023-05-17,1,,,,,マイエフェクト,0
1591,6030005021264,新規,0,2023-05-17,2023-05-17,医療法人駿美会,,その他の設立登記法人,埼玉県,春日部市,中央４丁目８番地１２ＡＹＡＫＡビル１Ｆ,,11,214,3440067,,,,,,,2023-05-17,1,,,,,シュンビカイ,0
1593,6040001128401,新規,0,2023-05-17,2023-05-17,株式会社エンノメ,,株式会社,千葉県,四街道市,大日９番地２２,,12,228,2840001,,,,,,,2023-05-17,1,,,,,エンノメ,0
1596,6040003022627,新規,0,2023-05-17,2023-05-17,合同会社ＬＹｃｏｍｐａｎｙ,,合同会社,千葉県,船橋市,飯山満町２丁目９９８番地１１街区１画地,,12,204,2740822,,,,,,,2023-05-17,1,,,,,エルワイカンパニー,0
1600,6050001052848,新規,0,2023-05-17,2023-05-17,しのざき畳株式会社,,株式会社,茨城県,筑西市,海老ヶ島１３０８番１,,08,227,3004517,,,,,,,2023-05-17,1,,,,,シノザキタタミ,0
1604,6050003007503,新規,0,2023-05-17,2023-05-17,合同会社花,,合同会社,茨城県,神栖市,奥野谷１８００番地２,,08,232,3140116,,,,,,,2023-05-17,1,,,,,ハル,0
1605,6050003007511,新規,0,2023-05-17,2023-05-17,合同会社ＡＳＫホールディングス,,合同会社,茨城県,神栖市,神栖２丁目１７番２４号,,08,232,3140143,,,,,,,2023-05-17,1,,,,,エーエスケーホールディングス,0
1612,6080001025628,新規,0,2023-05-17,2023-05-17,Ｐｒｅｆｅｒｅｎｔｉａｌ株式会社,,株式会社,静岡県,静岡市葵区,紺屋町１７－１葵タワー１階,,22,101,4200852,,,,,,,2023-05-17,1,,,,,プレファレンシャル,0
1615,6080103002806,新規,0,2023-05-17,2023-05-17,合同会社デルタ,,合同会社,静岡県,沼津市,大手町３丁目３番２号,,22,203,4100801,,,,,,,2023-05-17,1,,,,,デルタ,0
1616,6090001018127,新規,0,2023-05-17,2023-05-17,株式会社ＯＫ　ＪＥＷＥＬＲＹ,,株式会社,山梨県,甲府市,徳行５丁目２番５号,,19,201,4000047,,,,,,,2023-05-17,1,,,,,オーケージュエリー,0
1623,6110003005054,新規,0,2023-05-17,2023-05-17,合同会社ＪＣ‐Ｎｅｔ,,合同会社,新潟県,新潟市江南区,亀田新明町１丁目５－４,,15,104,9500125,,,,,,,2023-05-17,1,,,,,ジェーシーネット,0
1634,6120001254940,新規,0,2023-05-17,2023-05-17,ＫＳＫ株式会社,,株式会社,大阪府,大阪市東住吉区,矢田３丁目１５番１４号,,27,121,5460023,,,,,,,2023-05-17,1,,,,,ケイエスケイ,0
1635,6120001254949,新規,0,2023-05-17,2023-05-17,ＮＮメタルズ株式会社,,株式会社,大阪府,大阪市阿倍野区,阿倍野筋１丁目あべのハルカス３１階,,27,119,5450052,,,,,,,2023-05-17,1,,,,,エヌエヌメタルズ,0
1636,6120001254981,新規,0,2023-05-17,2023-05-17,株式会社結,,株式会社,大阪府,大阪市中央区,南船場３丁目２番２８号５階７号室,,27,128,5420081,,,,,,,2023-05-17,1,,,,,ムスビ,0
1643,6120103005226,新規,0,2023-05-17,2023-05-17,合同会社ｗｅｂ３の農村,,合同会社,大阪府,泉南郡熊取町,大宮３丁目７０７番地の１－２０１,,27,361,5900450,,,,,,,2023-05-17,1,,,,,ウェブスリーノノウソン,0
1647,6120903004633,新規,0,2023-05-17,2023-05-17,ＭＩＮＥ合同会社,,合同会社,大阪府,豊中市,庄本町３丁目１番５７号,,27,203,5610835,,,,,,,2023-05-17,1,,,,,マイン,0
1648,6122003002583,新規,0,2023-05-17,2023-05-17,ウェルネス合同会社,,合同会社,大阪府,柏原市,大県３丁目８番１９号シティライフ柏原１２５号,,27,221,5820018,,,,,,,2023-05-17,1,,,,,ウェルネス,0
1652,6130001074322,新規,0,2023-05-17,2023-05-17,ＩＲＣホールディングス株式会社,,株式会社,京都府,京都市中京区,間之町通御池下る綿屋町５２８番地烏丸エルビル６０１,,26,104,6048181,,,,,,,2023-05-17,1,,,,,アイアールシーホールディングス,0
1660,6140001130215,新規,0,2023-05-17,2023-05-17,株式会社ＭＴＣＨＥ,,株式会社,兵庫県,神戸市兵庫区,荒田町３丁目１４番７－３０１号,,28,105,6520032,,,,,,,2023-05-17,1,,,,,エムティチエ,0
1665,6170003001873,新規,0,2023-05-17,2023-05-17,合同会社ドローンスカイ,,合同会社,和歌山県,海草郡紀美野町,小畑４１１番地３,,30,304,6401141,,,,,,,2023-05-17,1,,,,,ドローンスカイ,0
1671,6180001156289,新規,0,2023-05-17,2023-05-17,株式会社ＴＲＡＤＩＴＩＯＮ,,株式会社,愛知県,名古屋市名東区,牧の里２丁目２２０７番地１,,23,115,4650068,,,,,,,2023-05-17,1,,,,,トラディション,0
1672,6180001156322,新規,0,2023-05-17,2023-05-17,株式会社Ａｎｙｗｅｌ,,株式会社,愛知県,名古屋市中区,丸の内２丁目１７－１３ＮＫ丸の内ビル２Ｆ,,23,106,4600002,,,,,,,2023-05-17,1,,,,,エニウェル,0
1673,6180001156339,新規,0,2023-05-17,2023-05-17,株式会社ＡＢＣ整体スタジオ名古屋,,株式会社,愛知県,名古屋市中区,栄２丁目１０番３号清水ビル４Ｆ,,23,106,4600008,,,,,,,2023-05-17,1,,,,,エービーシーセイタイスタジオナゴヤ,0
1674,6180001156347,新規,0,2023-05-17,2023-05-17,株式会社ステラ,,株式会社,愛知県,日進市,赤池４丁目３０２番地４,,23,230,4700125,,,,,,,2023-05-17,1,,,,,ステラ,0
1675,6180001156363,新規,0,2023-05-17,2023-05-17,株式会社謳歌,,株式会社,愛知県,名古屋市守山区,瀬古東１丁目５１８番地,,23,113,4630090,,,,,,,2023-05-17,1,,,,,オウカ,0
1676,6180003025236,新規,0,2023-05-17,2023-05-17,合同会社ＳＥＨｏｌｄｉｎｇｓ,,合同会社,愛知県,東海市,名和町出崎３２番地ＮＨオランジュ（１０３号）,,23,222,4760002,,,,,,,2023-05-17,1,,,,,エスイーホールディングス,0
1681,6180303005706,新規,0,2023-05-17,2023-05-17,合同会社きいちご,,合同会社,愛知県,刈谷市,元町５丁目２５番地,,23,210,4480825,,,,,,,2023-05-17,1,,,,,キイチゴ,0
1683,6190001030419,新規,0,2023-05-17,2023-05-17,株式会社ＣＳＢコーポレーション,,株式会社,三重県,伊勢市,小俣町湯田７３０番地１,,24,203,5190506,,,,,,,2023-05-17,1,,,,,シーエスビーコーポレーション,0
1685,6200001041323,新規,0,2023-05-17,2023-05-17,株式会社ＡＮＩ＆ＣＯ．,,株式会社,岐阜県,岐阜市,薬師町６番地（ライオンズマンション加納城南２０３号室）,,21,201,5008253,,,,,,,2023-05-17,1,,,,,アニアンドシーオー,0
1687,6210001019319,新規,0,2023-05-17,2023-05-17,グランシード株式会社,,株式会社,福井県,福井市,経田１丁目１４１３,,18,201,9100011,,,,,,,2023-05-17,1,,,,,グランシード,0
1688,6230003002015,新規,0,2023-05-17,2023-05-17,ＬｉＭｏＭｉ合同会社,,合同会社,富山県,高岡市,佐野８８９番地６,,16,202,9330826,,,,,,,2023-05-17,1,,,,,リモミ,0
1695,6260003004314,新規,0,2023-05-17,2023-05-17,合同会社ＢＥＲＡＴＥＲ,,合同会社,岡山県,岡山市北区,今２丁目７―１ＫＵＩＩビル２階,00130519,33,101,7000975,,,,,,,2023-05-17,1,,,,,ベラーター,0
1696,6280001008942,新規,0,2023-05-17,2023-05-17,株式会社ポピー,,株式会社,島根県,大田市,静間町１４５８番地,,32,205,6940031,,,,,,,2023-05-17,1,,,,,ポピー,0
1708,6290001101548,新規,0,2023-05-17,2023-05-17,株式会社ＯＮＥＳＴＡＮＤ,,株式会社,福岡県,福岡市中央区,天神２丁目３番１０－７１６号,,40,133,8100001,,,,,,,2023-05-17,1,,,,,ワンスタンド,0
1714,6290003013923,新規,0,2023-05-17,2023-05-17,合同会社Ｃｌｕｂ　Ａｒｉｅ,,合同会社,福岡県,福岡市中央区,草香江２丁目１０番２７号レコルト大濠３０１号,,40,133,8100045,,,,,,,2023-05-17,1,,,,,クラブアーリエ,0
1716,6290801029534,新規,0,2023-05-17,2023-05-17,株式会社翔輝,,株式会社,福岡県,北九州市門司区,白野江４丁目１８６２番１,,40,101,8010802,,,,,,,2023-05-17,1,,,,,ショウキ,0
1719,6290805009656,新規,0,2023-05-17,2023-05-17,医療法人やなぎだ歯科,,その他の設立登記法人,福岡県,北九州市戸畑区,境川１丁目７番２３号,,40,105,8040013,,,,,,,2023-05-17,1,,,,,ヤナギダシカ,0
1722,6310001018418,新規,0,2023-05-17,2023-05-17,アスレグループ株式会社,,株式会社,長崎県,長崎市,鳴見町５０番地１,,42,201,8512214,,,,,,,2023-05-17,1,,,,,アスレグループ,0
1726,6330001030841,新規,0,2023-05-17,2023-05-17,株式会社みらい不動産,,株式会社,熊本県,熊本市中央区,帯山４丁目４５番１－３０２号,,43,101,8620924,,,,,,,2023-05-17,1,,,,,ミライフドウサン,0
1728,6330003009850,新規,0,2023-05-17,2023-05-17,宮原製餅店合同会社,,合同会社,熊本県,玉名市,宮原６３５番地,,43,206,8650042,,,,,,,2023-05-17,1,,,,,ミヤバルセイモチテン,0
1729,6330005010666,新規,0,2023-05-17,2023-05-17,一般社団法人ワンサウザン,,その他の設立登記法人,熊本県,熊本市中央区,九品寺５丁目１番３５号,,43,101,8620976,,,,,,,2023-05-17,1,,,,,ワンサウザン,0
1741,6370001049952,新規,0,2023-05-17,2023-05-17,株式会社匠,,株式会社,宮城県,仙台市泉区,松森字内町８１番地の７,,04,105,9813111,,,,,,,2023-05-17,1,,,,,タクミ,0
1743,6400001016255,新規,0,2023-05-17,2023-05-17,株式会社アイ・ホールディングス,,株式会社,岩手県,一関市,藤沢町黄海字箕ノ輪４６番地,,03,209,0293311,,,,,,,2023-05-17,1,,,,,アイホールディングス,0
1745,6420003002722,新規,0,2023-05-17,2023-05-17,合同会社ＳＳ　ＪＡＰＡＮ,,合同会社,青森県,平川市,大坊竹原１４８番地１,,02,210,0360146,,,,,,,2023-05-17,1,,,,,エスエスジャパン,0
1751,6450001013990,新規,0,2023-05-17,2023-05-17,株式会社ネオプロジェクト,,株式会社,北海道,旭川市,四条通６丁目４０３番地１ライオンビル河内館５階,,01,204,0700034,,,,,,,2023-05-17,1,,,,,ネオプロジェクト,0
1753,6480001012107,新規,0,2023-05-17,2023-05-17,株式会社詩,,株式会社,徳島県,三好市,池田町ハヤシ１０３５番地１,,36,208,7780011,,,,,,,2023-05-17,1,,,,,ウタ,0
1756,6500001024933,新規,0,2023-05-17,2023-05-17,ゆう不動産株式会社,,株式会社,愛媛県,松山市,中村５丁目１番１６－１０１号,,38,201,7900964,,,,,,,2023-05-17,1,,,,,ユウフドウサン,0
1760,6700150116222,新規,0,2023-05-17,2023-05-17,Ｊｉａｎｇｍｅｎ　Ｓｈｉ　Ｋｅｌｉｎｇ　Ｚｈｉｌｅｎｇ　Ｓｈｅｂｅｉ　Ｙｏｕｘｉａｎ　Ｇｏｎｇｓｉ,,外国会社等,,,,,,,,Ｓａｎｊｉａｏ　ｄｉ，＃４　Ｘｉａｏｚｕ，Ｄｏｎｇｈｏｎｇ　Ｌｕｄｕａｎ，Ｌｉｙｕｅ　Ｈｕａｎｚｈｅｎ　Ｌｕ　Ｊｉａｎｇｈａｉ　Ｑｕ，Ｇｕａｎｇｄｏｎｇ，Ｃｈｉｎａ　Ｊｉａｎｇｍｅｎ　Ｇｕａｎｇｄｏｎｇ,,,,,,2023-05-17,1,,,,,ジヤンメンシケリンジレンシエベイユウゲンコウシ,0
1761,6700150116230,新規,0,2023-05-17,2023-05-17,包昇數位文化有限公司,,外国会社等,東京都,中野区,本町４丁目１１－３Ｓａｇｉｔｔａｉｒｅ・松,,13,114,1640012,台湾台北市松川區民生東路３段１１３巷６弄２１號１樓,,,,,,2023-05-17,1,,,,,ホウシヨウスウイブンカユウゲンコウシ,0
1765,7010001235091,新規,0,2023-05-17,2023-05-17,ＡＤＶＡＮＣＥｃｒｅａｔｉｏｎ株式会社,,株式会社,東京都,中央区,晴海３丁目１３番２,,13,102,1040053,,,,,,,2023-05-17,1,,,,,アドバンスクリエイション,0
1766,7010001235240,新規,0,2023-05-17,2023-05-17,マジラ株式会社,,株式会社,東京都,中央区,日本橋小伝馬町１－１日本橋末広ビル５０６,,13,102,1030001,,,,,,,2023-05-17,1,,,,,マジラ,0
1767,7010001235356,新規,0,2023-05-17,2023-05-17,株式会社ハピネスファンデーション,,株式会社,東京都,千代田区,内幸町２丁目１－１飯野ビルディング９階,,13,101,1000011,,,,,,,2023-05-17,1,,,,,ハピネスファンデーション,0
1768,7010001235364,新規,0,2023-05-17,2023-05-17,株式会社Ａｉｒ,,株式会社,東京都,中央区,銀座６丁目１４番８号銀座石井ビル４階,,13,102,1040061,,,,,,,2023-05-17,1,,,,,エアー,0
1769,7010001235389,新規,0,2023-05-17,2023-05-17,株式会社Ｎ‐ＢＲＩＤＧＥ,,株式会社,東京都,中央区,銀座１丁目２２番１１号銀座大竹ビジデンス２Ｆ,,13,102,1040061,,,,,,,2023-05-17,1,,,,,エヌブリッジ,0
1770,7010001235397,新規,0,2023-05-17,2023-05-17,ＪＫコーポレーション株式会社,,株式会社,東京都,千代田区,神田錦町３丁目２番地千代田印刷会館４階,,13,101,1010054,,,,,,,2023-05-17,1,,,,,ジェイケーコーポレーション,0
1774,7010003040606,新規,0,2023-05-17,2023-05-17,合同会社プログラマーの種,,合同会社,東京都,中央区,銀座１丁目２２番１１号銀座大竹ビジデンス２階,,13,102,1040061,,,,,,,2023-05-17,1,,,,,プログラマーノタネ,0
1783,7010405022103,新規,0,2023-05-17,2023-05-17,一般社団法人ＩＲシステム協議会,,その他の設立登記法人,東京都,港区,赤坂９丁目７番１号ミッドタウン・タワー,,13,103,1070052,,,,,,,2023-05-17,1,,,,,アイアールシステムキョウギカイ,0
1784,7010601063116,新規,0,2023-05-17,2023-05-17,株式会社ｅｒａｂｌｅ,,株式会社,東京都,墨田区,菊川３丁目２１番１１号レジデンス須賀菊川３０４号室,,13,107,1300024,,,,,,,2023-05-17,1,,,,,エラブル,0
1789,7010801033967,新規,0,2023-05-17,2023-05-17,株式会社ケーズエステート,,株式会社,東京都,大田区,南馬込５丁目３５番１２号,,13,111,1430025,,,,,,,2023-05-17,1,,,,,ケーズエステート,0
1793,7010803004545,新規,0,2023-05-17,2023-05-17,友愛フード合同会社,,合同会社,東京都,大田区,大森北１丁目２９番１１号大森エリメントビル２Ｆ,,13,111,1430016,,,,,,,2023-05-17,1,,,,,ユウアイフード,0
1796,7010901053056,新規,0,2023-05-17,2023-05-17,２ｎｄ‐Ｈｉ株式会社,,株式会社,東京都,世田谷区,千歳台４丁目２６番２号芦花公園スカイハイツ９１３号室,,13,112,1570071,,,,,,,2023-05-17,1,,,,,セカンドハイ,0
1803,7011003016851,新規,0,2023-05-17,2023-05-17,合同会社若草,,合同会社,東京都,渋谷区,代々木２丁目４４－９,,13,113,1510053,,,,,,,2023-05-17,1,,,,,ワカクサ,0
1804,7011005010084,新規,0,2023-05-17,2023-05-17,司法書士法人窪田事務所,,その他の設立登記法人,東京都,渋谷区,千駄ヶ谷４丁目２７番１３号,,13,113,1510051,,,,,,,2023-05-17,1,,,,,クボタジムショ,0
1808,7011103013047,新規,0,2023-05-17,2023-05-17,合同会社ぷらいあ,,合同会社,東京都,新宿区,新小川町４番１１号飯田橋ガーデンフラッツ５０６,,13,104,1620814,,,,,,,2023-05-17,1,,,,,プライア,0
1811,7011501029306,新規,0,2023-05-17,2023-05-17,Ｓｐａｃｅ　Ｔｅｃｈ　Ａｃｃｅｌｅｒａｔｏｒ株式会社,,株式会社,東京都,荒川区,南千住５丁目４４－１６－２０５,,13,118,1160003,,,,,,,2023-05-17,1,,,,,スペーステックアクセラレーター,0
1819,7012701017653,新規,0,2023-05-17,2023-05-17,株式会社ＤＥＢＵＴＩ,,株式会社,東京都,東村山市,本町３丁目３１番地４,,13,213,1890014,,,,,,,2023-05-17,1,,,,,デブチ,0
1821,7012801022355,新規,0,2023-05-17,2023-05-17,株式会社アイサイト,,株式会社,東京都,立川市,曙町２丁目３２番１号,,13,202,1900012,,,,,,,2023-05-17,1,,,,,アイサイト,0
1828,7020001151651,新規,0,2023-05-17,2023-05-17,金亥ジャパン株式会社,,株式会社,神奈川県,横浜市西区,中央１丁目３７番１７号,,14,103,2200051,,,,,,,2023-05-17,1,,,,,キンイジャパン,0
1829,7020003023931,新規,0,2023-05-17,2023-05-17,エルエスライブ商店合同会社,,合同会社,神奈川県,横浜市磯子区,汐見台２丁目２番２レーベン横浜汐見台ソラノテ１０５号,,14,107,2350022,,,,,,,2023-05-17,1,,,,,エルエスライブショウテン,0
1832,7021001079073,新規,0,2023-05-17,2023-05-17,あらい建設株式会社,,株式会社,神奈川県,藤沢市,菖蒲沢８２４－４,,14,205,2520823,,,,,,,2023-05-17,1,,,,,アライケンセツ,0
1835,7021003013096,新規,0,2023-05-17,2023-05-17,合同会社ドアノブ,,合同会社,神奈川県,鎌倉市,腰越４丁目９番４ケイ湘南ＩＩＩ３０３,00130517,14,204,2480033,,,,,,,2023-05-17,1,,,,,ドアノブ,0
1838,7030001153886,新規,0,2023-05-17,2023-05-17,株式会社ハイエストステージ,,株式会社,埼玉県,さいたま市西区,大字指扇５０５番地１０１,,11,101,3310047,,,,,,,2023-05-17,1,,,,,ハイエストステージ,0
1839,7030001153960,新規,0,2023-05-17,2023-05-17,ネオエスト株式会社,,株式会社,埼玉県,川口市,川口５丁目１１番３２号,,11,203,3320015,,,,,,,2023-05-17,1,,,,,ネオエスト,0
1841,7030005021255,新規,0,2023-05-17,2023-05-17,一般社団法人ｄｉｐｌｏ,,その他の設立登記法人,埼玉県,鶴ヶ島市,脚折町４丁目１４番４号,,11,241,3502211,,,,,,,2023-05-17,1,,,,,ディプロ,0
1843,7040001128342,新規,0,2023-05-17,2023-05-17,株式会社スキップ,,株式会社,千葉県,千葉市美浜区,幕張西２丁目７７７６番地６,,12,106,2610026,,,,,,,2023-05-17,1,,,,,スキップ,0
1844,7040003022618,新規,0,2023-05-17,2023-05-17,合同会社テーエムシー,,合同会社,千葉県,印西市,舞姫２丁目２番地Ｃ棟８０２号,,12,231,2701608,,,,,,,2023-05-17,1,,,,,テーエムシー,0
1845,7040003022626,新規,0,2023-05-17,2023-05-17,合同会社パパス,,合同会社,千葉県,山武郡横芝光町,尾垂イ３５１３番地２２７,,12,410,2891725,,,,,,,2023-05-17,1,,,,,パパス,0
1854,7050003007502,新規,0,2023-05-17,2023-05-17,育成企画合同会社,,合同会社,茨城県,つくば市,みどりの南６６番地５,,08,220,3050884,,,,,,,2023-05-17,1,,,,,イクセイキカク,0
1861,7080101024009,新規,0,2023-05-17,2023-05-17,Ｘｓｉｔｅ株式会社,,株式会社,静岡県,伊東市,八幡野１１０３番地１３３,,22,208,4130232,,,,,,,2023-05-17,1,,,,,クロスサイト,0
1869,7100003007018,新規,0,2023-05-17,2023-05-17,合同会社信越システムプランニング,,合同会社,長野県,上田市,常磐城２丁目８番２号,,20,203,3860027,,,,,,,2023-05-17,1,,,,,シンエツシステムプランニング,0
1878,7120001254881,新規,0,2023-05-17,2023-05-17,株式会社Ｔｏｐ　Ｌｉｖｉｎｇ,,株式会社,大阪府,大阪市北区,天神橋３丁目２番１０号スリージェ南森町９Ｆ,,27,127,5300041,,,,,,,2023-05-17,1,,,,,トップリビング,0
1879,7120001254972,新規,0,2023-05-17,2023-05-17,易＿貿易株式会社,00130520,株式会社,大阪府,大阪市中央区,内本町１丁目４番３－６０３号,,27,128,5400026,,,,,,,2023-05-17,1,,,,,エキケイボウエキ,0
1882,7120003024052,新規,0,2023-05-17,2023-05-17,合同会社日乃出十貨店,,合同会社,大阪府,寝屋川市,木屋町４番２６号,,27,215,5720087,,,,,,,2023-05-17,1,,,,,ヒノデジュッカテン,0
1888,7120103005225,新規,0,2023-05-17,2023-05-17,合同会社ロハスライフ,,合同会社,大阪府,岸和田市,春木泉町１６番２０号,,27,202,5960035,,,,,,,2023-05-17,1,,,,,ロハスライフ,0
1897,7130001074338,新規,0,2023-05-17,2023-05-17,株式会社きよみず川かみ,,株式会社,京都府,京都市東山区,五条橋東６丁目５８３番地５９,,26,105,6050846,,,,,,,2023-05-17,1,,,,,キヨミズカワカミ,0
1898,7130001074346,新規,0,2023-05-17,2023-05-17,株式会社ＺＥＲＯ,,株式会社,京都府,京都市伏見区,西大手町３０７－５６サンセリテ伏見１・２階,,26,109,6128362,,,,,,,2023-05-17,1,,,,,ゼロ,0
1899,7130003008715,新規,0,2023-05-17,2023-05-17,合同会社わたげ,,合同会社,京都府,向日市,寺戸町二ノ坪２０番地の６２,,26,208,6170002,,,,,,,2023-05-17,1,,,,,ワタゲ,0
1900,7130003008723,新規,0,2023-05-17,2023-05-17,合同会社花信風,,合同会社,京都府,京都市上京区,松屋町３７９－３０５,,26,102,6028465,,,,,,,2023-05-17,1,,,,,カシンフウ,0
1901,7130003008731,新規,0,2023-05-17,2023-05-17,合同会社プティ・トワゾ,,合同会社,京都府,京都市上京区,竪社北半町２０３番地,,26,102,6020098,,,,,,,2023-05-17,1,,,,,プティトワゾ,0
1903,7140001130214,新規,0,2023-05-17,2023-05-17,ミカミグループ株式会社,,株式会社,兵庫県,西宮市,老松町３番１１号,,28,204,6620085,,,,,,,2023-05-17,1,,,,,ミカミグループ,0
1909,7160005011193,新規,0,2023-05-17,2023-05-17,特定非営利活動法人ハニカムファーマーズカンパニー,,その他の設立登記法人,滋賀県,彦根市,地蔵町７３番地２,,25,202,5220029,,,,,,,2023-05-17,1,,,,,ハニカムファーマーズカンパニー,0
1918,7180001156346,新規,0,2023-05-17,2023-05-17,株式会社Ｒｅｌａｔｉｏｎｓ,,株式会社,愛知県,一宮市,中島通１丁目２１番地,,23,203,4910072,,,,,,,2023-05-17,1,,,,,リレーションズ,0
1921,7180003025243,新規,0,2023-05-17,2023-05-17,クールケイマックス合同会社,,合同会社,愛知県,愛知郡東郷町,大字春木字市場屋敷１２４６番地３,,23,302,4700162,,,,,,,2023-05-17,1,,,,,クールケイマックス,0
1925,7200001041306,新規,0,2023-05-17,2023-05-17,株式会社グリーンアート,,株式会社,岐阜県,大垣市,島里１丁目１１４番地３,,21,202,5030935,,,,,,,2023-05-17,1,,,,,グリーンアート,0
1927,7200003005960,新規,0,2023-05-17,2023-05-17,合同会社さつきプロジェクト,,合同会社,岐阜県,土岐市,土岐津町土岐口１８５７番地の１,,21,212,5095122,,,,,,,2023-05-17,1,,,,,サツキプロジェクト,0
1934,7240005015574,新規,0,2023-05-17,2023-05-17,社会保険労務士法人藤井事務所,,その他の設立登記法人,広島県,福山市,千田町４丁目１５番９号,,34,207,7200017,,,,,,,2023-05-17,1,,,,,フジイジムショ,0
1945,7260001037967,新規,0,2023-05-17,2023-05-17,株式会社ケーディーケー,,株式会社,岡山県,瀬戸内市,牛窓町牛窓４５６４番地７,,33,212,7014302,,,,,,,2023-05-17,1,,,,,ケーディーケー,0
1949,7290001101555,新規,0,2023-05-17,2023-05-17,ギフト株式会社,,株式会社,福岡県,福岡市中央区,平尾３丁目７番２１号圓ビルディング一本木,,40,133,8100014,,,,,,,2023-05-17,1,,,,,ギフト,0
1950,7290001101563,新規,0,2023-05-17,2023-05-17,株式会社チェリーベルファーム,,株式会社,福岡県,福津市,西福間２丁目８－２４,,40,224,8113219,,,,,,,2023-05-17,1,,,,,チェリーベルファーム,0
1951,7290001101571,新規,0,2023-05-17,2023-05-17,株式会社ｉｎｂｅｔｗｅｅｎ,,株式会社,福岡県,福岡市中央区,高砂１丁目２１番２７－１０３号,,40,133,8100011,,,,,,,2023-05-17,1,,,,,インヴィトゥイーン,0
1953,7290003013922,新規,0,2023-05-17,2023-05-17,２ｄｅｓｉｇｎｆｕｋｕｏｋａ合同会社,,合同会社,福岡県,糸島市,伊都の杜３丁目１―２５,,40,230,8191130,,,,,,,2023-05-17,1,,,,,ツーデザインフクオカ,0
1957,7330001030873,新規,0,2023-05-17,2023-05-17,株式会社前原工業,,株式会社,熊本県,熊本市中央区,国府本町１２番３１－３号,,43,101,8620948,,,,,,,2023-05-17,1,,,,,マエハラコウギョウ,0
1967,7370001049951,新規,0,2023-05-17,2023-05-17,株式会社成電気設備,,株式会社,宮城県,仙台市宮城野区,宮千代２丁目１番２号アイランドビル３０６,,04,102,9830044,,,,,,,2023-05-17,1,,,,,ナルデンキセツビ,0
1968,7370003006133,新規,0,2023-05-17,2023-05-17,農作物資源化合同会社,,合同会社,宮城県,仙台市青葉区,落合１丁目１８番７号,,04,101,9893126,,,,,,,2023-05-17,1,,,,,ノウサクモツシゲンカ,0
1975,7420003002721,新規,0,2023-05-17,2023-05-17,合同会社戸舘建設工業,,合同会社,青森県,上北郡野辺地町,字寺ノ沢９３番地６０,,02,401,0393118,,,,,,,2023-05-17,1,,,,,トダテケンセツコウギョウ,0
1980,7430001089058,新規,0,2023-05-17,2023-05-17,株式会社王生工業,,株式会社,北海道,虻田郡倶知安町,字琴平３９５番地,,01,400,0440066,,,,,,,2023-05-17,1,,,,,イクルミコウギョウ,0
1981,7430001089090,新規,0,2023-05-17,2023-05-17,株式会社ペンキ屋ささはら,,株式会社,北海道,虻田郡倶知安町,北六条西３丁目４番地９,,01,400,0440056,,,,,,,2023-05-17,1,,,,,ペンキヤササハラ,0
1982,7430001089149,新規,0,2023-05-17,2023-05-17,麗工業株式会社,,株式会社,北海道,札幌市西区,発寒四条５丁目１番１８号アーバンサイド１０３号,,01,107,0630824,,,,,,,2023-05-17,1,,,,,レイコウギョウ,0
1984,7430003015029,新規,0,2023-05-17,2023-05-17,合同会社長谷川技建,,合同会社,北海道,石狩郡当別町,西町１１番地１４,,01,303,0610234,,,,,,,2023-05-17,1,,,,,ハセガワギケン,0
1985,7440001009262,新規,0,2023-05-17,2023-05-17,株式会社Ｌ．Ｊｏｕｒｎｅｙ　ＪＡＰＡＮ,,株式会社,北海道,函館市,豊川町２２番１６号,,01,202,0400065,,,,,,,2023-05-17,1,,,,,エルジャーニージャパン,0
1987,7462501000954,新規,0,2023-05-17,2023-05-17,株式会社田代産業,,株式会社,北海道,標津郡中標津町,西町２丁目２８番地,,01,692,0861157,,,,,,,2023-05-17,1,,,,,,0
1988,7480001012106,新規,0,2023-05-17,2023-05-17,株式会社美上,,株式会社,徳島県,徳島市,秋田町２丁目３７番地の２,,36,201,7700934,,,,,,,2023-05-17,1,,,,,ミカミ,0
1989,7480005006962,新規,0,2023-05-17,2023-05-17,ＮＰＯ法人しおん,,その他の設立登記法人,徳島県,徳島市,北常三島町１丁目５番地の１栄ビル（光洋建築事務所）４階,,36,201,7700812,,,,,,,2023-05-17,1,,,,,シオン,0
1991,7500001024932,新規,0,2023-05-17,2023-05-17,株式会社エルカミーノ,,株式会社,愛媛県,新居浜市,宮原町９番４号,,38,205,7920833,,,,,,,2023-05-17,1,,,,,エルカミーノ,0
2001,7700150116221,新規,0,2023-05-17,2023-05-17,ＭＡＧＷＡＹ　ＴＲＡＤＩＮＧ　ＩＮＣ．,,外国会社等,,,,,,,,６１０　Ａｌｄｅｎ　Ｒｏａｄ　Ｓｕｉｔｅ　２０　Ｍａｒｋｈａｍ　ＯＮ　Ｌ３Ｒ　９Ｚ１　ＣＡＮＡＤＡ,,,,,,2023-05-17,1,,,,,マグウエイトレーデイングインク,0
2010,8010001235339,新規,0,2023-05-17,2023-05-17,エルダンク株式会社,,株式会社,東京都,中央区,日本橋箱崎町１６－１Ｔｏｈｍａｓｕビル６階,,13,102,1030015,,,,,,,2023-05-17,1,,,,,エルダンク,0
2011,8010001235363,新規,0,2023-05-17,2023-05-17,株式会社ゆずはる不動産,,株式会社,東京都,千代田区,神田紺屋町２９－１栄第二ビル５０２,,13,101,1010035,,,,,,,2023-05-17,1,,,,,ユズハルフドウサン,0
2012,8010001235371,新規,0,2023-05-17,2023-05-17,株式会社イロドリ,,株式会社,東京都,千代田区,岩本町１丁目１１－８メインステージ神田岩本町２－２０４,,13,101,1010032,,,,,,,2023-05-17,1,,,,,イロドリ,0
2013,8010001235413,新規,0,2023-05-17,2023-05-17,株式会社エムイーディア,,株式会社,東京都,千代田区,丸の内１丁目８－３丸の内トラストタワー本館２０階,,13,101,1000005,,,,,,,2023-05-17,1,,,,,エムイーディア,0
2016,8010003040613,新規,0,2023-05-17,2023-05-17,東京レジ３６合同会社,,合同会社,東京都,千代田区,丸の内３丁目１番１号東京共同会計事務所内,,13,101,1000005,,,,,,,2023-05-17,1,,,,,トウキョウレジサーティシックス,0
2018,8010005036683,新規,0,2023-05-17,2023-05-17,Ｒ．Ｊｕｌｉｕｓ一般財団法人,,その他の設立登記法人,東京都,中央区,佃１丁目１１番７－２５０４号,,13,102,1040051,,,,,,,2023-05-17,1,,,,,アールジュリアス,0
2019,8010005036700,新規,0,2023-05-17,2023-05-17,一般社団法人ＰｅｎｅＰ,,その他の設立登記法人,東京都,文京区,本郷３丁目４０番５号,,13,105,1130033,,,,,,,2023-05-17,1,,,,,ペネッペ,0
2020,8010101015649,新規,0,2023-05-17,2023-05-17,株式会社トゥバース,,株式会社,東京都,八王子市,横山町３番１１号,,13,201,1920081,,,,,,,2023-05-17,1,,,,,トゥバース,0
2031,8010403030098,新規,0,2023-05-17,2023-05-17,合同会社フレンズ,,合同会社,東京都,港区,六本木３丁目１５－１１ホーマットウエスト９３０,,13,103,1060032,,,,,,,2023-05-17,1,,,,,フレンズ,0
2032,8010403030123,新規,0,2023-05-17,2023-05-17,グラマー合同会社,,合同会社,東京都,港区,港南１丁目６－３３－１５０３,,13,103,1080075,,,,,,,2023-05-17,1,,,,,グラマー,0
2033,8010405022102,新規,0,2023-05-17,2023-05-17,一般社団法人新潟森林整備機構,,その他の設立登記法人,東京都,港区,浜松町１丁目１番１０号立川ビル６０２,,13,103,1050013,,,,,,,2023-05-17,1,,,,,ニイガタシンリンセイビキコウ,0
2038,8010503006997,新規,0,2023-05-17,2023-05-17,合同会社ＲｅＺＡＲＤ,,合同会社,東京都,台東区,寿２丁目１番６号アイステージ寿２０３,,13,106,1110042,,,,,,,2023-05-17,1,,,,,リザード,0
2040,8010601063081,新規,0,2023-05-17,2023-05-17,ＤＳＧ株式会社,,株式会社,東京都,墨田区,太平３丁目４番１号ＹＳビル３Ｆ,,13,107,1300012,,,,,,,2023-05-17,1,,,,,ディーエスジー,0
2054,8011001154454,新規,0,2023-05-17,2023-05-17,ＣＫＡ株式会社,,株式会社,東京都,目黒区,目黒４丁目１５番３号,,13,110,1530063,,,,,,,2023-05-17,1,,,,,シーケーエー,0
2055,8011001154479,新規,0,2023-05-17,2023-05-17,株式会社７５ｋｍｈ,,株式会社,東京都,渋谷区,神宮前６丁目２３番２号第８ＳＹビル６Ｆ,,13,113,1500001,,,,,,,2023-05-17,1,,,,,ジソクナナジュウゴキロメートル,0
2058,8011003016842,新規,0,2023-05-17,2023-05-17,合同会社ＳＨＩＫＵＭＩＫＡ,,合同会社,東京都,目黒区,大岡山１丁目３６番６号,,13,110,1520033,,,,,,,2023-05-17,1,,,,,シクミカ,0
2059,8011101102841,新規,0,2023-05-17,2023-05-17,株式会社Ｒｏｌｅｓｎｕｏｃ．,,株式会社,東京都,新宿区,高田馬場４丁目２０番１１号,,13,104,1690075,,,,,,,2023-05-17,1,,,,,ロールスズック,0
2060,8011101102882,新規,0,2023-05-17,2023-05-17,株式会社パートナープロップ,,株式会社,東京都,新宿区,西新宿３丁目３番１３号西新宿水間ビル２Ｆ,,13,104,1600023,,,,,,,2023-05-17,1,,,,,パートナープロップ,0
2061,8011101102890,新規,0,2023-05-17,2023-05-17,アケルコンサルティング株式会社,,株式会社,東京都,新宿区,西新宿３丁目３番１３号西新宿水間ビル６階,,13,104,1600023,,,,,,,2023-05-17,1,,,,,アケルコンサルティング,0
2062,8011103013046,新規,0,2023-05-17,2023-05-17,合同会社ひまわりプラス,,合同会社,東京都,新宿区,下宮比町２番２８号,,13,104,1620822,,,,,,,2023-05-17,1,,,,,ヒマワリプラス,0
2064,8011301028688,新規,0,2023-05-17,2023-05-17,株式会社Ｏｒｃａカンパニー,,株式会社,東京都,杉並区,桃井４丁目４番７－８０２号,,13,115,1670034,,,,,,,2023-05-17,1,,,,,オルカカンパニー,0
2065,8011301028705,新規,0,2023-05-17,2023-05-17,株式会社トラスハウス,,株式会社,東京都,杉並区,阿佐谷南１丁目６番２４号木村ハイツ１０２,,13,115,1660004,,,,,,,2023-05-17,1,,,,,トラスハウス,0
2068,8011401025115,新規,0,2023-05-17,2023-05-17,ワールドワイド商事株式会社,,株式会社,東京都,板橋区,若木１丁目６番１１号,,13,119,1740065,,,,,,,2023-05-17,1,,,,,ワールドワイドショウジ,0
2071,8011501029305,新規,0,2023-05-17,2023-05-17,株式会社Ｈｉｒｏ,,株式会社,東京都,荒川区,町屋１丁目２番１３号,,13,118,1160001,,,,,,,2023-05-17,1,,,,,ヒロ,0
2073,8011603003901,新規,0,2023-05-17,2023-05-17,合同会社Ｔｉｎｋ,,合同会社,東京都,練馬区,北町３丁目１６番１８号ロワール北町３０１,,13,120,1790081,,,,,,,2023-05-17,1,,,,,ティンク,0
2085,8013301050770,新規,0,2023-05-17,2023-05-17,ＡＧＡＩＮ株式会社,,株式会社,東京都,豊島区,西池袋１丁目１０番８号サン・グロウビル７階,,13,116,1710021,,,,,,,2023-05-17,1,,,,,アゲイン,0
2086,8013301050779,新規,0,2023-05-17,2023-05-17,株式会社ＯＮＰｕ．ＡＲＴ,,株式会社,東京都,豊島区,東池袋１丁目３４番５号,,13,116,1700013,,,,,,,2023-05-17,1,,,,,オンプアート,0
2091,8020001151568,新規,0,2023-05-17,2023-05-17,株式会社ＥＦｖｉｓｔａ,,株式会社,神奈川県,横浜市中区,池袋５８番地３レーベン横浜山手６１１号,,14,104,2310834,,,,,,,2023-05-17,1,,,,,エフビスタ,0
2092,8020001151634,新規,0,2023-05-17,2023-05-17,株式会社ＯＡコンサルティング,,株式会社,神奈川県,横浜市西区,浅間町１丁目４番３号ウィザードビル４０２,,14,103,2200072,,,,,,,2023-05-17,1,,,,,オーエーコンサルティング,0
2093,8020001151642,新規,0,2023-05-17,2023-05-17,株式会社武田,,株式会社,神奈川県,横浜市港北区,大曽根３丁目７番１９号,,14,109,2220003,,,,,,,2023-05-17,1,,,,,タケダ,0
2094,8020001151650,新規,0,2023-05-17,2023-05-17,株式会社エム・プラス,,株式会社,神奈川県,川崎市高津区,溝口３丁目７番２１号,,14,134,2130001,,,,,,,2023-05-17,1,,,,,エムプラス,0
2096,8020003023922,新規,0,2023-05-17,2023-05-17,ＧｌｏｂｅＬｉｎｘ　Ｔｒａｄｉｎｇ合同会社,,合同会社,神奈川県,横浜市港北区,高田西２丁目１６－２７,,14,109,2230066,,,,,,,2023-05-17,1,,,,,グローバルリンクストレーディング,0
2097,8020003023930,新規,0,2023-05-17,2023-05-17,合同会社エインズワース,,合同会社,神奈川県,川崎市幸区,下平間１８５番地レジデンス正和２０２,,14,132,2120053,,,,,,,2023-05-17,1,,,,,エインズワース,0
2098,8020005015991,新規,0,2023-05-17,2023-05-17,一般社団法人日本ペアルック協会,,その他の設立登記法人,神奈川県,横浜市保土ケ谷区,星川２丁目１６番１－３１２号,,14,106,2400006,,,,,,,2023-05-17,1,,,,,ニホンペアルックキョウカイ,0
2110,8030001153910,新規,0,2023-05-17,2023-05-17,コミナタ株式会社,,株式会社,埼玉県,越谷市,大字平方３０９４番地１０,,11,222,3430002,,,,,,,2023-05-17,1,,,,,コミナタ,0
2120,8040001128424,新規,0,2023-05-17,2023-05-17,株式会社ＭＯＴ,,株式会社,千葉県,船橋市,本中山２丁目１８番１号フローラ中山３０２,,12,204,2730035,,,,,,,2023-05-17,1,,,,,エムオーティ,0
2121,8040001128449,新規,0,2023-05-17,2023-05-17,株式会社雅設備工業,,株式会社,千葉県,野田市,東宝珠花５４２番地の３,,12,208,2700226,,,,,,,2023-05-17,1,,,,,ミヤビセツビコウギョウ,0
2124,8040003022600,新規,0,2023-05-17,2023-05-17,Ｇｉｎｚａ　Ｌａｎｋａ　Ｉｎｔｅｒｎａｔｉｏｎａｌ合同会社,,合同会社,千葉県,富里市,十倉５８９番地１,,12,233,2860212,,,,,,,2023-05-17,1,,,,,ギンザランカインターナショナル,0
2125,8040003022609,新規,0,2023-05-17,2023-05-17,合同会社ｉｒｏｄｏｒｉ,,合同会社,千葉県,船橋市,前原西２丁目２９番６号,,12,204,2740825,,,,,,,2023-05-17,1,,,,,イロドリ,0
2126,8040003022625,新規,0,2023-05-17,2023-05-17,ＷＡＤＡ合同会社,,合同会社,千葉県,茂原市,上林６６－１４,,12,210,2970019,,,,,,,2023-05-17,1,,,,,ワダ,0
2130,8050001052854,新規,0,2023-05-17,2023-05-17,株式会社大和クリーン社,,株式会社,茨城県,桜川市,真壁町田３８番地１,,08,231,3004411,,,,,,,2023-05-17,1,,,,,ヤマトクリーンシャ,0
2131,8050001052862,新規,0,2023-05-17,2023-05-17,株式会社Ｂｏｎｄ　Ｂｒｉｄｇｅ,,株式会社,茨城県,水戸市,見川２丁目２０１番地の１グランドメゾン高貫６号,,08,201,3100912,,,,,,,2023-05-17,1,,,,,ボンドブリッジ,0
2136,8070001040469,新規,0,2023-05-17,2023-05-17,株式会社リアン,,株式会社,群馬県,前橋市,下大島町１０５５番地１５３,,10,201,3792152,,,,,,,2023-05-17,1,,,,,リアン,0
2138,8070003004950,新規,0,2023-05-17,2023-05-17,合同会社Ｃｒｏｓｓ　ｒｏａｄｓ,,合同会社,群馬県,前橋市,元総社町２２４６－２,,10,201,3710846,,,,,,,2023-05-17,1,,,,,クロスロード,0
2139,8080001025626,新規,0,2023-05-17,2023-05-17,ＹＭＯ株式会社,,株式会社,静岡県,静岡市駿河区,中島１３６７番地,,22,102,4228046,,,,,,,2023-05-17,1,,,,,ワイエムオー,0
2141,8080403004789,新規,0,2023-05-17,2023-05-17,合同会社ＮＯＺＡＫＩ,,合同会社,静岡県,磐田市,長森６５番地,,22,211,4380836,,,,,,,2023-05-17,1,,,,,ノザキ,0
2150,8120001254914,新規,0,2023-05-17,2023-05-17,株式会社Ｆ‐ｃｒｅｗｓ,,株式会社,大阪府,大阪市西成区,旭１丁目４番１号,,27,122,5570032,,,,,,,2023-05-17,1,,,,,エフクルーズ,0
2151,8120001254922,新規,0,2023-05-17,2023-05-17,株式会社グッドミナ,,株式会社,大阪府,大阪市天王寺区,大道２丁目７番２５号,,27,109,5430052,,,,,,,2023-05-17,1,,,,,グッドミナ,0
2152,8120001254930,新規,0,2023-05-17,2023-05-17,株式会社ＳＣｌｉｍｉｔｅｄ,,株式会社,大阪府,大阪市西区,境川２丁目５番２３号,,27,106,5500024,,,,,,,2023-05-17,1,,,,,エスシーリミテッド,0
2153,8120001254939,新規,0,2023-05-17,2023-05-17,株式会社エムケー,,株式会社,大阪府,大阪市生野区,新今里２丁目５番２５号,,27,116,5440001,,,,,,,2023-05-17,1,,,,,エムケー,0
2154,8120001254996,新規,0,2023-05-17,2023-05-17,株式会社ＪＬＬホールディングス,,株式会社,大阪府,大阪市中央区,北久宝寺町３丁目６－１本町南ガーデンシティ７階,,27,128,5410057,,,,,,,2023-05-17,1,,,,,ジェーエルエルホールディングス,0
2159,8120003024092,新規,0,2023-05-17,2023-05-17,六紗堂合同会社,,合同会社,大阪府,大阪市住吉区,南住吉２丁目２－２５クレール・長居４０１号室,,27,120,5580041,,,,,,,2023-05-17,1,,,,,ロクサドウ,0
2164,8120101067555,新規,0,2023-05-17,2023-05-17,株式会社エスクリアス,,株式会社,大阪府,堺市中区,陶器北１８７６－２,,27,142,5998242,,,,,,,2023-05-17,1,,,,,エスクリアス,0
2166,8120903004648,新規,0,2023-05-17,2023-05-17,ｅＢｏｚｕ合同会社,,合同会社,大阪府,茨木市,春日５丁目２番３２号の７,,27,211,5670031,,,,,,,2023-05-17,1,,,,,イーボウズ,0
2175,8130001074345,新規,0,2023-05-17,2023-05-17,株式会社ヘリテージハブ京都,,株式会社,京都府,京都市下京区,御幸町通高辻下る桝屋町４５８番地,,26,106,6008046,,,,,,,2023-05-17,1,,,,,ヘリテージハブキョウト,0
2179,8140001130155,新規,0,2023-05-17,2023-05-17,株式会社あるきだす,,株式会社,兵庫県,西宮市,門戸東町２番３９－２０１号,,28,204,6620824,,,,,,,2023-05-17,1,,,,,アルキダス,0
2180,8140003019099,新規,0,2023-05-17,2023-05-17,合同会社太和商事,,合同会社,兵庫県,赤穂市,板屋町２８５番地ジュネス塩屋Ｂ１１６,,28,212,6780248,,,,,,,2023-05-17,1,,,,,タイワショウジ,0
2210,8240001061514,新規,0,2023-05-17,2023-05-17,株式会社Ｓｒ‐ＳＥＥＤ,,株式会社,広島県,東広島市,高屋町白市１００３番地２,,34,212,7392114,,,,,,,2023-05-17,1,,,,,シライチリージョンシード,0
2211,8240001061530,新規,0,2023-05-17,2023-05-17,株式会社勇進工業,,株式会社,広島県,広島市東区,山根町２５番１－６０８号,,34,102,7320048,,,,,,,2023-05-17,1,,,,,ユウシンコウギョウ,0
2213,8240003006145,新規,0,2023-05-17,2023-05-17,合同会社ＡＬＬ‐ＯＮＥ,,合同会社,広島県,東広島市,西条町吉行６０５番５号,,34,212,7390002,,,,,,,2023-05-17,1,,,,,オールワン,0
2217,8240005015573,新規,0,2023-05-17,2023-05-17,一般社団法人ＰＰＭＷｏｎｅ,,その他の設立登記法人,広島県,広島市中区,猫屋町２番１７号１Ｆ,,34,101,7300852,,,,,,,2023-05-17,1,,,,,ピーピーエムダブリューワン,0
2222,8260003004312,新規,0,2023-05-17,2023-05-17,合同会社ＩＲＯＮ　ＳＴＥＥＬＯ,,合同会社,岡山県,岡山市南区,藤田４８８番地９,,33,104,7010221,,,,,,,2023-05-17,1,,,,,アイアンスティーロ,0
2230,8290003013913,新規,0,2023-05-17,2023-05-17,合同会社ライフサポートＳｈｉｎ,,合同会社,福岡県,久留米市,原古賀町２５番地４ヒューマンズ六ッ門１１０２号,,40,203,8300046,,,,,,,2023-05-17,1,,,,,ライフサポートシン,0
2231,8290003013921,新規,0,2023-05-17,2023-05-17,合同会社ＲＩＴＡｃｌｕｂ,,合同会社,福岡県,福岡市博多区,竹下４丁目３－２３,,40,132,8120895,,,,,,,2023-05-17,1,,,,,リタクラブ,0
2235,8300001013302,新規,0,2023-05-17,2023-05-17,株式会社みらい都市開発,,株式会社,佐賀県,佐賀市,神野東３丁目２番１号２０２号,,41,201,8400804,,,,,,,2023-05-17,1,,,,,ミライトシカイハツ,0
2243,8330003009849,新規,0,2023-05-17,2023-05-17,合同会社こんぺき,,合同会社,熊本県,熊本市北区,鶴羽田１丁目１１番３３号サンビレッジ長田２－２０１号室,,43,105,8615517,,,,,,,2023-05-17,1,,,,,コンペキ,0
2246,8350001018362,新規,0,2023-05-17,2023-05-17,株式会社ＴＯＳ,,株式会社,宮崎県,宮崎市,神宮１丁目２４１番地,,45,201,8800053,,,,,,,2023-05-17,1,,,,,ティーオーエス,0
2250,8370001049950,新規,0,2023-05-17,2023-05-17,株式会社ＹＯＫＵＮＡＲＵ,,株式会社,宮城県,仙台市若林区,五橋３丁目１番３－６０７号,,04,103,9840022,,,,,,,2023-05-17,1,,,,,ヨクナル,0
2251,8370001049959,新規,0,2023-05-17,2023-05-17,株式会社二松,,株式会社,宮城県,栗原市,若柳字川北元町５２番地１,,04,213,9895501,,,,,,,2023-05-17,1,,,,,フタマツ,0
2252,8370001049967,新規,0,2023-05-17,2023-05-17,株式会社付箋企画,,株式会社,宮城県,仙台市若林区,清水小路６番地１,,04,103,9840075,,,,,,,2023-05-17,1,,,,,フセンキカク,0
2262,8430003015028,新規,0,2023-05-17,2023-05-17,合同会社奥野,,合同会社,北海道,苫小牧市,拓勇西町６丁目１６番１１号,,01,213,0591302,,,,,,,2023-05-17,1,,,,,オクノ,0
2263,8440001009261,新規,0,2023-05-17,2023-05-17,株式会社ｄｏｒｕｍａｒｉ,,株式会社,北海道,函館市,富岡町２丁目２番６号,,01,202,0410811,,,,,,,2023-05-17,1,,,,,ドルマリ,0
2268,8480001012105,新規,0,2023-05-17,2023-05-17,也丑工業株式会社,,株式会社,徳島県,阿南市,新野町大歳１０９番地,,36,204,7791510,,,,,,,2023-05-17,1,,,,,ヤチュウコウギョウ,0
2269,8480003001980,新規,0,2023-05-17,2023-05-17,合同会社陽昭,,合同会社,徳島県,徳島市,丈六町長尾７６－５,,36,201,7714262,,,,,,,2023-05-17,1,,,,,ヨウショウ,0
2271,8500001024931,新規,0,2023-05-17,2023-05-17,株式会社道後ゆの里,,株式会社,愛媛県,松山市,道後湯月町２番３６号,,38,201,7900837,,,,,,,2023-05-17,1,,,,,ドウゴユノサト,0
2275,8700150116220,新規,0,2023-05-17,2023-05-17,Ｂｏｓｔｏｎ　Ｓｃｉｅｎｔｉｆｉｃ　Ｉｎｔｅｒｎａｔｉｏｎａｌ　Ｓｄｎ．Ｂｈｄ．,,外国会社等,,,,,,,,Ｔａｍａｎ　Ｐｅｒｉｎｄｕｓｔｒｉａｎ　Ｂａｔｕ　Ｋａｗａｎ，１４１１０　Ｂａｎｄａｒ　Ｃａｓｓｉａ，Ｐｕｌａｕ　Ｐｉｎａｎｇ，Ｍａｌａｙｓｉａ,,,,,,2023-05-17,1,,,,,ボストンサイエンテイフイツクインターナシヨナルスンデイリアンブルハド,0
2293,9010001235338,新規,0,2023-05-17,2023-05-17,株式会社ＷｅｌｎｉＸ,,株式会社,東京都,文京区,本郷６丁目２５番１４号,,13,105,1130033,,,,,,,2023-05-17,1,,,,,ウェルニクス,0
2294,9010001235370,新規,0,2023-05-17,2023-05-17,ＳｍａｒｔＲｏｐｐｏ株式会社,,株式会社,東京都,千代田区,神田和泉町１－６－１６ヤマトビル４０５,,13,101,1010024,,,,,,,2023-05-17,1,,,,,スマートロッポー,0
2295,9010001235395,新規,0,2023-05-17,2023-05-17,ゼノンデスク株式会社,,株式会社,東京都,中央区,銀座７丁目２－１２,,13,102,1040061,,,,,,,2023-05-17,1,,,,,ゼノンデスク,0
2296,9010001235437,新規,0,2023-05-17,2023-05-17,株式会社リーズンワークス,,株式会社,東京都,千代田区,神田佐久間町１丁目８番４号アルテール秋葉原７０８,,13,101,1010025,,,,,,,2023-05-17,1,,,,,リーズンワークス,0
2306,9010401174152,新規,0,2023-05-17,2023-05-17,株式会社ＣＡＳＩＣＡ,,株式会社,東京都,港区,浜松町２丁目２番１５号浜松町ダイヤビル２Ｆ,,13,103,1050013,,,,,,,2023-05-17,1,,,,,カシカ,0
2307,9010403030106,新規,0,2023-05-17,2023-05-17,エムディアス合同会社,,合同会社,東京都,港区,高輪１丁目１４番１５－４０２号,,13,103,1080074,,,,,,,2023-05-17,1,,,,,エムディアス,0
2308,9010405022142,新規,0,2023-05-17,2023-05-17,エスエルピーシー一般社団法人,,その他の設立登記法人,東京都,港区,元赤坂１丁目１番８号株式会社赤坂国際会計内,,13,103,1070051,,,,,,,2023-05-17,1,,,,,エスエルピーシー,0
2312,9010501050468,新規,0,2023-05-17,2023-05-17,株式会社ＰＵＮＣＨＬＩＮＥ　ＴＯＫＹＯ,,株式会社,東京都,台東区,浅草６丁目９番２－８０１号,,13,106,1110032,,,,,,,2023-05-17,1,,,,,パンチライントウキョウ,0
2313,9010501050476,新規,0,2023-05-17,2023-05-17,株式会社オリンボス,,株式会社,東京都,台東区,上野３丁目１６－２天翔上野末広町ビル５０３号,,13,106,1100005,,,,,,,2023-05-17,1,,,,,オリンボス,0
2315,9010601063122,新規,0,2023-05-17,2023-05-17,Ｋ．ＯＲＩＥＮＴ株式会社,,株式会社,東京都,江東区,南砂５丁目４番８－４０２号,,13,108,1360076,,,,,,,2023-05-17,1,,,,,ケーオリエント,0
2323,9011001154271,新規,0,2023-05-17,2023-05-17,ｂｉｚｍｏｔｅ株式会社,,株式会社,東京都,渋谷区,道玄坂１丁目１０番８号渋谷道玄坂東急ビル２Ｆ－Ｃ,,13,113,1500043,,,,,,,2023-05-17,1,,,,,ビズモート,0
2324,9011001154395,新規,0,2023-05-17,2023-05-17,株式会社ＺＥＲＯ‐ＴＥＸ,,株式会社,東京都,渋谷区,神宮前６丁目１８－３,,13,113,1500001,,,,,,,2023-05-17,1,,,,,ゼロテックス,0
2325,9011003016825,新規,0,2023-05-17,2023-05-17,Ｊｉｎ‐Ｐｈｏｅｎｉｘ　Ｃａｐｉｔａｌ　Ａｄｖｉｓｏｒｙ合同会社,,合同会社,東京都,渋谷区,元代々木町１７番１３－２０７号,,13,113,1510062,,,,,,,2023-05-17,1,,,,,ジンフェニックスキャピタルアドバイザリー,0
2330,9011101102808,新規,0,2023-05-17,2023-05-17,株式会社ＯＮＥＣＲＥＷ,,株式会社,東京都,新宿区,西新宿３丁目３番１３号西新宿水間ビル６Ｆ,,13,104,1600023,,,,,,,2023-05-17,1,,,,,ワンクルー,0
2331,9011101102898,新規,0,2023-05-17,2023-05-17,デジタル・ヤード株式会社,,株式会社,東京都,新宿区,西新宿３丁目３番１３号西新宿水間ビル６階,,13,104,1600023,,,,,,,2023-05-17,1,,,,,デジタルヤード,0
2337,9011501029304,新規,0,2023-05-17,2023-05-17,済高国際日本投資発展株式会社,,株式会社,東京都,荒川区,南千住３丁目２７－２浅草ビル５０８,,13,118,1160003,,,,,,,2023-05-17,1,,,,,サイコウコクサイニホントウシハッテン,0
2339,9011503005609,新規,0,2023-05-17,2023-05-17,合同会社Ｘ‐ａｓｓｉｓｔ,,合同会社,東京都,荒川区,西日暮里５丁目２７番４－１３０４号,,13,118,1160013,,,,,,,2023-05-17,1,,,,,エックスアシスト,0
2344,9011803005655,新規,0,2023-05-17,2023-05-17,ＤＦ　ＩＮＴＬ合同会社,,合同会社,東京都,葛飾区,西新小岩４丁目１９番１５号第２ユネックスマンション３０１,,13,122,1240025,,,,,,,2023-05-17,1,,,,,ディーエフインテル,0
2346,9012301013448,新規,0,2023-05-17,2023-05-17,株式会社ＦＡＢＬＯ,,株式会社,東京都,町田市,玉川学園４丁目１２番１６号,,13,209,1940041,,,,,,,2023-05-17,1,,,,,ファブロ,0
2347,9012305002050,新規,0,2023-05-17,2023-05-17,一般社団法人東医宝鑑アカデミー,,その他の設立登記法人,東京都,町田市,小川２丁目３番地５,,13,209,1940003,,,,,,,2023-05-17,1,,,,,トウイホウカンアカデミー,0
2356,9020001151641,新規,0,2023-05-17,2023-05-17,株式会社ＭＩＰホールディングス,,株式会社,神奈川県,川崎市宮前区,鷺沼２丁目１４番地１３０,,14,136,2160004,,,,,,,2023-05-17,1,,,,,エムアイピーホールディングス,0
2357,9020001151658,新規,0,2023-05-17,2023-05-17,株式会社グリーンベアーズ,,株式会社,神奈川県,横浜市港北区,高田東３丁目３９番１８－１号,,14,109,2230065,,,,,,,2023-05-17,1,,,,,グリーンベアーズ,0
2358,9020001151666,新規,0,2023-05-17,2023-05-17,株式会社ＬＩＧＨＴ　ＨＯＵＳＥ歯科研修会,,株式会社,神奈川県,横浜市青葉区,あざみ野４丁目２６番地８,,14,117,2250011,,,,,,,2023-05-17,1,,,,,ライトハウスシカケンシュウカイ,0
2359,9020001151674,新規,0,2023-05-17,2023-05-17,株式会社舟津,,株式会社,神奈川県,横浜市金沢区,能見台５丁目１８番地２,,14,108,2360057,,,,,,,2023-05-17,1,,,,,フナヅ,0
2363,9020005015999,新規,0,2023-05-17,2023-05-17,一般社団法人ＳＨＵＲＯＭ協会,,その他の設立登記法人,神奈川県,横浜市西区,西戸部町２丁目２２９番地１１,,14,103,2200046,,,,,,,2023-05-17,1,,,,,シュウロンキョウカイ,0
2367,9021001078981,新規,0,2023-05-17,2023-05-17,株式会社ペンデュラム,,株式会社,神奈川県,海老名市,中央１丁目１６番３１号,,14,215,2430432,,,,,,,2023-05-17,1,,,,,ペンデュラム,0
2368,9021001079047,新規,0,2023-05-17,2023-05-17,日翔ホールディングス株式会社,,株式会社,神奈川県,伊勢原市,田中１４１番地１,,14,214,2591142,,,,,,,2023-05-17,1,,,,,ニッショウホールディングス,0
2369,9021001079055,新規,0,2023-05-17,2023-05-17,株式会社アトリエフォーシーズンズ,,株式会社,神奈川県,三浦市,南下浦町上宮田３０５４番地,,14,210,2380101,,,,,,,2023-05-17,1,,,,,アトリエフォーシーズンズ,0
2370,9021001079063,新規,0,2023-05-17,2023-05-17,株式会社ＨＥＹＨＯ,,株式会社,神奈川県,平塚市,袖ケ浜１－２稲元ビル２０２,,14,203,2540813,,,,,,,2023-05-17,1,,,,,ヘイホー,0
2371,9021001079071,新規,0,2023-05-17,2023-05-17,内海測量設計株式会社,,株式会社,神奈川県,藤沢市,辻堂新町２丁目３番１３号,,14,205,2510042,,,,,,,2023-05-17,1,,,,,ウツミソクリョウセッケイ,0
2382,9030003021610,新規,0,2023-05-17,2023-05-17,Ｌｉｇｈｔ合同会社,,合同会社,埼玉県,和光市,新倉１丁目２番７号,,11,229,3510115,,,,,,,2023-05-17,1,,,,,ライト,0
2387,9040001128423,新規,0,2023-05-17,2023-05-17,株式会社アスク,,株式会社,千葉県,船橋市,中野木１丁目２４番１－６０３号,,12,204,2740826,,,,,,,2023-05-17,1,,,,,アスク,0
2388,9040001128448,新規,0,2023-05-17,2023-05-17,株式会社ｍｊｕｋ,,株式会社,千葉県,千葉市中央区,矢作町８４０番地３シャトーＭ＆Ｎ２０１号室,,12,101,2600851,,,,,,,2023-05-17,1,,,,,ミューク,0
2390,9040003022509,新規,0,2023-05-17,2023-05-17,２４ｎｅｗ　ａｒｃ商事合同会社,,合同会社,千葉県,浦安市,東野２丁目９－１１,,12,227,2790042,,,,,,,2023-05-17,1,,,,,ニジュウヨンニューアークショウジ,0
2391,9040005021995,新規,0,2023-05-17,2023-05-17,ＷＨＲＤ事業協同組合,,その他の設立登記法人,千葉県,袖ケ浦市,蔵波２９３９番地１,,12,229,2990243,,,,,,,2023-05-17,1,,,,,ワードジギョウ,0
2393,9050001052837,新規,0,2023-05-17,2023-05-17,株式会社パワーテクノロジー,,株式会社,茨城県,古河市,女沼３９７－１,,08,204,3060226,,,,,,,2023-05-17,1,,,,,,0
2396,9050003007500,新規,0,2023-05-17,2023-05-17,Ｋｉｎａｒａ　Ｈｏｌｄｉｎｇｓ合同会社,,合同会社,茨城県,潮来市,堀之内１４７３番地Ａ,,08,223,3112433,,,,,,,2023-05-17,1,,,,,キナラホールディングス,0
2401,9070001040468,新規,0,2023-05-17,2023-05-17,株式会社ＪｉＢ‐Ｐｌａｎｔ,,株式会社,群馬県,利根郡みなかみ町,羽場７６０番地４,,10,449,3791412,,,,,,,2023-05-17,1,,,,,ジェイアイビープラント,0
2406,9090001018124,新規,0,2023-05-17,2023-05-17,三輝矢株式会社,,株式会社,山梨県,都留市,井倉８２０番地３３,,19,204,4020011,,,,,,,2023-05-17,1,,,,,ミキヤ,0
2408,9110001037550,新規,0,2023-05-17,2023-05-17,せきかわふるさとエネルギー株式会社,,株式会社,新潟県,岩船郡関川村,大字下関１８番地５２,,15,581,9593265,,,,,,,2023-05-17,1,,,,,セキカワフルサトエネルギー,0
2418,9120001254888,新規,0,2023-05-17,2023-05-17,ケイトラスト株式会社,,株式会社,大阪府,大阪市平野区,瓜破西２丁目１３番３８号,,27,126,5470025,,,,,,,2023-05-17,1,,,,,ケイトラスト,0
2419,9120001254921,新規,0,2023-05-17,2023-05-17,株式会社Ｐｒｏｔｅｃｔ　Ｇｏｏｄ　Ｌｉｆｅ,,株式会社,大阪府,大阪市淀川区,西中島６丁目３番２４号Ｋ４２３,,27,123,5320011,,,,,,,2023-05-17,1,,,,,プロテクトグッドライフ,0
2420,9120001254946,新規,0,2023-05-17,2023-05-17,株式会社ＴＲＵＳＴ,,株式会社,大阪府,大阪市北区,大淀南２丁目２番９－８１５号,,27,127,5310075,,,,,,,2023-05-17,1,,,,,トラスト,0
2421,9120001254954,新規,0,2023-05-17,2023-05-17,株式会社原田巧建,,株式会社,大阪府,守口市,大日東町３０番３号,,27,209,5700016,,,,,,,2023-05-17,1,,,,,ハラダタクケン,0
2422,9120001254962,新規,0,2023-05-17,2023-05-17,株式会社Ｌｅａｐ　Ｆｏｒｗａｒｄ,,株式会社,大阪府,大阪市西成区,天下茶屋東２丁目１４－３９,,27,122,5570011,,,,,,,2023-05-17,1,,,,,リープフォワード,0
2428,9120005023620,新規,0,2023-05-17,2023-05-17,一般社団法人後見適正運用研究所,,その他の設立登記法人,大阪府,大阪市平野区,喜連西５丁目４番１４号安住荘内,,27,126,5470026,,,,,,,2023-05-17,1,,,,,コウケンテキセイウンヨウケンキュウショ,0
2435,9120103005215,新規,0,2023-05-17,2023-05-17,ＫＭＹ合同会社,,合同会社,大阪府,堺市東区,菩提町３丁１９４番地３２,,27,143,5998103,,,,,,,2023-05-17,1,,,,,ケーエムワイ,0
2438,9122005003676,新規,0,2023-05-17,2023-05-17,一般社団法人イイネットワイド,,その他の設立登記法人,大阪府,柏原市,平野１丁目１１番８号パレ・デ・アルシオン３０５号,,27,221,5820019,,,,,,,2023-05-17,1,,,,,イイネットワイド,0
2443,9130001074328,新規,0,2023-05-17,2023-05-17,株式会社京都ビューティー,,株式会社,京都府,京都市左京区,岩倉上蔵町１６番地４,,26,103,6060017,,,,,,,2023-05-17,1,,,,,キョウトビューティー,0
2446,9130003008738,新規,0,2023-05-17,2023-05-17,合同会社わらい,,合同会社,京都府,城陽市,寺田深谷８番地７６,,26,207,6100121,,,,,,,2023-05-17,1,,,,,ワライ,0
2449,9140001130113,新規,0,2023-05-17,2023-05-17,株式会社ウェールズ,,株式会社,兵庫県,尼崎市,南城内１１６－７サニーハイツ２０３号,,28,202,6600825,,,,,,,2023-05-17,1,,,,,ウェールズ,0
2455,9190001030408,新規,0,2023-05-17,2023-05-17,株式会社ＣｏＣｏ,,株式会社,三重県,四日市市,諏訪栄町９番１４号らく天ビル２Ｆ,,24,202,5100086,,,,,,,2023-05-17,1,,,,,ココ,0
2458,9190003004319,新規,0,2023-05-17,2023-05-17,合同会社シンシアーズ,,合同会社,三重県,津市,豊が丘５丁目６番２５号,,24,201,5142222,,,,,,,2023-05-17,1,,,,,シンシアーズ,0
2459,9200001041320,新規,0,2023-05-17,2023-05-17,株式会社グランツ,,株式会社,岐阜県,大垣市,和合本町１丁目６１４番地４,,21,202,5030005,,,,,,,2023-05-17,1,,,,,グランツ,0
2463,9230001019842,新規,0,2023-05-17,2023-05-17,株式会社ＭＵＭＩＮＯＶ　ＴＲＡＤＩＮＧ,,株式会社,富山県,高岡市,伏木古府１丁目３番２３号,,16,202,9330114,,,,,,,2023-05-17,1,,,,,ムミノフトレイディング,0
2466,9240001061546,新規,0,2023-05-17,2023-05-17,株式会社オフィア,,株式会社,広島県,安芸郡府中町,鶴江２丁目２０番１５号,,34,302,7350008,,,,,,,2023-05-17,1,,,,,オフィア,0
2475,9260003004311,新規,0,2023-05-17,2023-05-17,合同会社ＴＲＹＡＲＴ,,合同会社,岡山県,井原市,西江原町４６９４番地１,,33,207,7150006,,,,,,,2023-05-17,1,,,,,トリアート,0
2485,9290003013920,新規,0,2023-05-17,2023-05-17,合同会社リヒト,,合同会社,福岡県,福岡市博多区,中呉服町２－１７,,40,132,8120035,,,,,,,2023-05-17,1,,,,,リヒト,0
2493,9330001030871,新規,0,2023-05-17,2023-05-17,株式会社クローバー,,株式会社,熊本県,合志市,須屋６７４番地,,43,216,8611102,,,,,,,2023-05-17,1,,,,,クローバー,0
2508,9360003012964,新規,0,2023-05-17,2023-05-17,合同会社福冨,,合同会社,沖縄県,沖縄市,中央１丁目３２－１９伊野波アパート３０１,,47,211,9040004,,,,,,,2023-05-17,1,,,,,フクトミ,0
2510,9370001049966,新規,0,2023-05-17,2023-05-17,株式会社佐伸建設,,株式会社,宮城県,仙台市太白区,茂庭字大沢１５番地の５,,04,104,9820251,,,,,,,2023-05-17,1,,,,,サシンケンセツ,0
2511,9370003006131,新規,0,2023-05-17,2023-05-17,合同会社ノイソート,,合同会社,宮城県,仙台市青葉区,本町１丁目５番２８号カーニープレイス仙台駅前通６０３号室,,04,101,9800014,,,,,,,2023-05-17,1,,,,,ノイソート,0
2527,9430001089089,新規,0,2023-05-17,2023-05-17,株式会社Ｋ,,株式会社,北海道,札幌市北区,南あいの里５丁目１番地,,01,102,0028091,,,,,,,2023-05-17,1,,,,,ケイ,0
2528,9430001089147,新規,0,2023-05-17,2023-05-17,株式会社緑工舎,,株式会社,北海道,岩見沢市,上幌向北一条６丁目７７０番地８４,,01,210,0690361,,,,,,,2023-05-17,1,,,,,リョクコウシャ,0
2530,9430003015035,新規,0,2023-05-17,2023-05-17,合同会社笑顔,,合同会社,北海道,江別市,東野幌町１９－７－２０２,,01,217,0690821,,,,,,,2023-05-17,1,,,,,エガオ,0
2540,9500001024914,新規,0,2023-05-17,2023-05-17,ＳＬＯＷ　ＴＯＷＥＬ株式会社,,株式会社,愛媛県,松山市,吉藤３丁目７番３４号２ラフィネタウン吉藤Ｂ棟,,38,201,7918011,,,,,,,2023-05-17,1,,,,,スロウタオル,0
2544,9700150116228,新規,0,2023-05-17,2023-05-17,Ｉｎｔｕｉｔ　Ｌｉｍｉｔｅｄ,,外国会社等,,,,,,,,５ｔｈ　Ｆｌｏｏｒ　Ｃａｒｄｉｎａｌ　Ｐｌａｃｅ，８０　Ｖｉｃｔｏｒｉａ　Ｓｔｒｅｅｔ，Ｌｏｎｄｏｎ，ＳＷ１Ｅ　５ＪＬ,,,,,,2023-05-17,1,,,,,イントウイートリミテツド,0
