sequenceNumber,corporateNumber,process,correct,updateDate,changeDate,name,nameImageId,kind,prefectureName,cityName,streetNumber,addressImageId,prefectureCode,cityCode,postCode,addressOutside,addressOutsideImageId,closeDate,closeCause,successorCorporateNumber,changeCause,assignmentDate,latest,enName,enPrefectureName,enCityName,enAddressOutside,furigana,hihyoji
16,1010401170456,新規,0,2022-10-27,2022-10-27,株式会社チケットマーケット,,株式会社,東京都,港区,西麻布２丁目１７番６号ＫＬビル１階,,13,103,1060031,,,,,,,2022-10-27,1,,,,,チケットマーケット,0
17,1010401170472,新規,0,2022-10-27,2022-10-27,株式会社ｓｇｍｘ,,株式会社,東京都,港区,港南４丁目６番１－９０８号,,13,103,1080075,,,,,,,2022-10-27,1,,,,,エスジーエムエックス,0
18,1010401170522,新規,0,2022-10-27,2022-10-27,リンケージ株式会社,,株式会社,東京都,港区,六本木６丁目１番２０号六本木電気ビル７階,,13,103,1060032,,,,,,,2022-10-27,1,,,,,リンケージ,0
24,1010601062032,新規,0,2022-10-27,2022-10-27,ラウンドワークス株式会社,,株式会社,東京都,江東区,豊洲３丁目４番１－８１３号,,13,108,1350061,,,,,,,2022-10-27,1,,,,,ラウンドワークス,0
26,1010701043386,新規,0,2022-10-27,2022-10-27,Ｋａｉｋｅｔｓｕ株式会社,,株式会社,東京都,品川区,大崎１丁目１１番２号,,13,109,1410032,,,,,,,2022-10-27,1,,,,,カイケツ,0
29,1010901051817,新規,0,2022-10-27,2022-10-27,８２ー株式会社,,株式会社,東京都,世田谷区,上馬２丁目３４－１０ジェイパーク三軒茶屋４０７,,13,112,1540011,,,,,,,2022-10-27,1,,,,,ハニー,0
30,1010901051841,新規,0,2022-10-27,2022-10-27,株式会社ＭａｒｕＣａｂ,,株式会社,東京都,世田谷区,下馬６丁目４６番６－２０６号,,13,112,1540002,,,,,,,2022-10-27,1,,,,,マルカブ,0
45,1011101100653,新規,0,2022-10-27,2022-10-27,株式会社ＭａＹ‐Ｗ,,株式会社,東京都,新宿区,西新宿７丁目５番９号ファーストリアルタワー新宿１１０６室,,13,104,1600023,,,,,,,2022-10-27,1,,,,,メイダブリュー,0
47,1011103012302,新規,0,2022-10-27,2022-10-27,合同会社ケイエフ,,合同会社,東京都,新宿区,西落合２丁目５番１号山田ビル３０６,,13,104,1610031,,,,,,,2022-10-27,1,,,,,ケイエフ,0
49,1011201024190,新規,0,2022-10-27,2022-10-27,株式会社ＬＩＥＲＡ,,株式会社,東京都,中野区,中央１丁目３０番１４－３０１号,,13,114,1640011,,,,,,,2022-10-27,1,,,,,リエラ,0
50,1011305002869,新規,0,2022-10-27,2022-10-27,特定非営利活動法人ハンド・ミー・ダウン,,その他の設立登記法人,東京都,杉並区,高円寺南３丁目５５番２号,,13,115,1660003,,,,,,,2022-10-27,1,,,,,ハンドミーダウン,0
53,1011401024635,新規,0,2022-10-27,2022-10-27,株式会社浅川塗装店,,株式会社,東京都,板橋区,熊野町１６番７号,,13,119,1730025,,,,,,,2022-10-27,1,,,,,アサカワトソウテン,0
54,1011601026332,新規,0,2022-10-27,2022-10-27,一方株式会社,,株式会社,東京都,練馬区,豊玉上２丁目２３－４アークス練馬３０５室,,13,120,1760011,,,,,,,2022-10-27,1,,,,,イッポウ,0
58,1012301013182,新規,0,2022-10-27,2022-10-27,株式会社太耀企画,,株式会社,東京都,町田市,図師町１６４０番地５,,13,209,1940203,,,,,,,2022-10-27,1,,,,,タイヨウキカク,0
89,1021003012285,新規,0,2022-10-27,2022-10-27,合同会社南モータース,,合同会社,神奈川県,三浦市,三崎２丁目９番３号,,14,210,2380243,,,,,,,2022-10-27,1,,,,,ミナミモータース,0
96,1030001150740,新規,0,2022-10-27,2022-10-27,株式会社アリ,,株式会社,埼玉県,さいたま市南区,大字円正寺９２番地１－１０２,,11,108,3360043,,,,,,,2022-10-27,1,,,,,アリ,0
97,1030001150757,新規,0,2022-10-27,2022-10-27,株式会社足利シーリング,,株式会社,埼玉県,蕨市,塚越７丁目３番１８号,,11,223,3350002,,,,,,,2022-10-27,1,,,,,アシカガシーリング,0
104,1030003020462,新規,0,2022-10-27,2022-10-27,Ｔａｋａ合同会社,,合同会社,埼玉県,川口市,大字里１４１５番地の１,,11,203,3340005,,,,,,,2022-10-27,1,,,,,タカ,0
108,1040001125592,新規,0,2022-10-27,2022-10-27,株式会社リードシステムズ,,株式会社,千葉県,八千代市,勝田台南２丁目２１－８,,12,221,2760025,,,,,,,2022-10-27,1,,,,,リードシステムズ,0
113,1040003021063,新規,0,2022-10-27,2022-10-27,シラーンオート合同会社,,合同会社,千葉県,流山市,おおたかの森東４丁目７番地の４,,12,220,2700138,,,,,,,2022-10-27,1,,,,,シラーンオート,0
114,1040003021146,新規,0,2022-10-27,2022-10-27,合同会社Ｍ．ＲＵＷＩＮＩ　ＩＮＴＥＲＮＡＴＩＯＮＡＬ,,合同会社,千葉県,柏市,藤ケ谷２１５番地６（Ｆ）,,12,217,2770931,,,,,,,2022-10-27,1,,,,,エムルウィニインターナショナル,0
116,1050001051862,新規,0,2022-10-27,2022-10-27,株式会社上竹保温,,株式会社,茨城県,古河市,高野４１５番地,,08,204,3060214,,,,,,,2022-10-27,1,,,,,ウエタケホオン,0
121,1050003006963,新規,0,2022-10-27,2022-10-27,合同会社ＫＯＮＯ,,合同会社,茨城県,笠間市,笠間４３６１－２４,,08,216,3091611,,,,,,,2022-10-27,1,,,,,コノ,0
141,1120001249788,新規,0,2022-10-27,2022-10-27,佳誠株式会社,,株式会社,大阪府,大阪市中央区,松屋町９番２０号ローレルステート松屋町１３０６Ａ,,27,128,5420067,,,,,,,2022-10-27,1,,,,,カセイ,0
142,1120001249796,新規,0,2022-10-27,2022-10-27,高軒株式会社,,株式会社,大阪府,大阪市中央区,松屋町９番２０号ローレルステート松屋町７０９Ａ,,27,128,5420067,,,,,,,2022-10-27,1,,,,,コウケン,0
143,1120001249838,新規,0,2022-10-27,2022-10-27,株式会社ＡＺＵＭＡ工業,,株式会社,大阪府,大阪市西成区,北津守２丁目５番５－２７号,,27,122,5570061,,,,,,,2022-10-27,1,,,,,アズマコウギョウ,0
145,1120005023256,新規,0,2022-10-27,2022-10-27,一般社団法人アスロン協会,,その他の設立登記法人,大阪府,大阪市中央区,本町３丁目３番８号,,27,128,5410053,,,,,,,2022-10-27,1,,,,,アスロンキョウカイ,0
179,1180001153489,新規,0,2022-10-27,2022-10-27,ニワケン株式会社,,株式会社,愛知県,名古屋市守山区,村前町４７番地３,,23,113,4630082,,,,,,,2022-10-27,1,,,,,ニワケン,0
180,1180001153522,新規,0,2022-10-27,2022-10-27,株式会社ＳＨａＲＡＫＵ,,株式会社,愛知県,名古屋市中区,栄２丁目２番２３号アーク白川公園ビルディング本館０７０１,,23,106,4600008,,,,,,,2022-10-27,1,,,,,シャラク,0
181,1180001153539,新規,0,2022-10-27,2022-10-27,ｌｉｇｈｔ　ｆｏｏｄｓ株式会社,,株式会社,愛知県,名古屋市中村区,名駅４丁目２４番５号第２森ビル４０１,,23,105,4500002,,,,,,,2022-10-27,1,,,,,ライトフーズ,0
182,1180001153547,新規,0,2022-10-27,2022-10-27,株式会社ＮＯＷＷ,,株式会社,愛知県,名古屋市熱田区,金山町１丁目１５番１９号－１,,23,109,4560002,,,,,,,2022-10-27,1,,,,,ナウ,0
184,1180003024390,新規,0,2022-10-27,2022-10-27,合同会社ｅｌａ,,合同会社,愛知県,あま市,七宝町安松上屋敷２００９番地ウィルステージ１０３号,,23,237,4970011,,,,,,,2022-10-27,1,,,,,エラ,0
185,1180003024399,新規,0,2022-10-27,2022-10-27,紬生合同会社,,合同会社,愛知県,名古屋市名東区,平和が丘１丁目１１０番地２サンパークマンションＡ棟６０３,,23,115,4650097,,,,,,,2022-10-27,1,,,,,ツムギ,0
187,1180301036757,新規,0,2022-10-27,2022-10-27,株式会社キノコの森,,株式会社,愛知県,刈谷市,幸町２丁目７－１４,,23,210,4480025,,,,,,,2022-10-27,1,,,,,キノコノモリ,0
199,1260001037345,新規,0,2022-10-27,2022-10-27,株式会社アルバーノ,,株式会社,岡山県,倉敷市,新田２９４７番地１６,,33,202,7100038,,,,,,,2022-10-27,1,,,,,アルバーノ,0
200,1260001037353,新規,0,2022-10-27,2022-10-27,ｎａｙｕｔａ株式会社,,株式会社,岡山県,岡山市中区,浜３丁目８番１３－４号,,33,102,7038256,,,,,,,2022-10-27,1,,,,,ナユタ,0
203,1270003001455,新規,0,2022-10-27,2022-10-27,ＧＥＡＲＴＥＣＨ　ＪＡＰＡＮ合同会社,,合同会社,鳥取県,鳥取市,瓦町５１３番地,,31,201,6800821,,,,,,,2022-10-27,1,,,,,ギアテックジャパン,0
213,1290001099325,新規,0,2022-10-27,2022-10-27,株式会社ＣＫアセットマネジメント,,株式会社,福岡県,福岡市中央区,渡辺通２丁目９－２０エイルマンション天神ロゼア４１１号,,40,133,8100004,,,,,,,2022-10-27,1,,,,,シーケーアセットマネジメント,0
224,1330003009558,新規,0,2022-10-27,2022-10-27,合同会社ＰＯＡＴ,,合同会社,熊本県,熊本市北区,植木町岩野４８番地１,,43,105,8610136,,,,,,,2022-10-27,1,,,,,ピーオーエーティー,0
231,1380001033191,新規,0,2022-10-27,2022-10-27,株式会社アクセスフロント,,株式会社,福島県,白河市,大手町１７番地６,,07,205,9610908,,,,,,,2022-10-27,1,,,,,,0
232,1380003005305,新規,0,2022-10-27,2022-10-27,合同会社フエルテ,,合同会社,福島県,郡山市,田村町徳定字下河原１９７－４プリンスオーロラ２－４２６,,07,203,9631165,,,,,,,2022-10-27,1,,,,,,0
233,1420001018048,新規,0,2022-10-27,2022-10-27,株式会社シグナル,,株式会社,青森県,青森市,富田４丁目９番３９号,,02,201,0380004,,,,,,,2022-10-27,1,,,,,シグナル,0
238,1450003002261,新規,0,2022-10-27,2022-10-27,合同会社ＴＭＭＫ,,合同会社,北海道,旭川市,春光二条８丁目３番２１号,,01,204,0700872,,,,,,,2022-10-27,1,,,,,ティーエムエムケー,0
239,1470001019306,新規,0,2022-10-27,2022-10-27,株式会社慧慶堂商事,,株式会社,香川県,綾歌郡綾川町,牛川７９６番地,,37,387,7612208,,,,,,,2022-10-27,1,,,,,エイケイドウショウジ,0
242,1480001011897,新規,0,2022-10-27,2022-10-27,株式会社亜砂香,,株式会社,徳島県,板野郡松茂町,中喜来字稲本１１５番地５７,,36,401,7710212,,,,,,,2022-10-27,1,,,,,アスカ,0
244,1490005006868,新規,0,2022-10-27,2022-10-27,特定非営利活動法人北街ふれあい会,,その他の設立登記法人,高知県,高知市,はりまや町３丁目１７番２３号,,39,201,7800822,,,,,,,2022-10-27,1,,,,,キタマチフレアイカイ,0
247,1700150112341,新規,0,2022-10-27,2022-10-27,ＡＹＡＡＮ　ＥＮＴＥＲＰＲＩＳＥＳ,,外国会社等,千葉県,佐倉市,大篠塚１３５０－１－Ａ,,12,212,2850806,スリランカ民主社会主義共和国、ライディガマ、ポーラロード、Ｎｏ．４／２８Ａ,,,,,,2022-10-27,1,,,,,アヤーンエンタープライセス,0
253,2010005035708,新規,0,2022-10-27,2022-10-27,つくば中央特定目的会社,,その他の設立登記法人,東京都,千代田区,飯田橋４丁目７番１号結和税理士法人内,,13,101,1020072,,,,,,,2022-10-27,1,,,,,ツクバチュウオウ,0
259,2010401170463,新規,0,2022-10-27,2022-10-27,株式会社ペコジャパン,,株式会社,東京都,港区,新橋５丁目２８番７号,,13,103,1050004,,,,,,,2022-10-27,1,,,,,ペコジャパン,0
260,2010401170471,新規,0,2022-10-27,2022-10-27,株式会社アストロパレス,,株式会社,東京都,港区,赤坂２丁目１７番５０－３５０５号,,13,103,1070052,,,,,,,2022-10-27,1,,,,,アストロパレス,0
261,2010401170496,新規,0,2022-10-27,2022-10-27,株式会社ＹＵＳＩＮ,,株式会社,東京都,港区,三田１丁目２番１８号ＴＴＤビル,,13,103,1080073,,,,,,,2022-10-27,1,,,,,ユーシン,0
262,2010401170505,新規,0,2022-10-27,2022-10-27,株式会社ＦＯＵＲＳ　ＧＲＯＵＰ,,株式会社,東京都,港区,海岸３丁目２番９号１０１３,,13,103,1080022,,,,,,,2022-10-27,1,,,,,フォーズグループ,0
265,2010403028783,新規,0,2022-10-27,2022-10-27,ヴァイパー２合同会社,,合同会社,東京都,港区,浜松町１丁目２０番１０号ライオネス浜松町５０６号室,,13,103,1050013,,,,,,,2022-10-27,1,,,,,ヴァイパーニ,0
267,2010601062056,新規,0,2022-10-27,2022-10-27,松浦株式会社,,株式会社,東京都,墨田区,両国２丁目１７番１７号両国ダイヤハイツ２０２－Ｂ,,13,107,1300026,,,,,,,2022-10-27,1,,,,,マツウラ,0
271,2010803004327,新規,0,2022-10-27,2022-10-27,ｍプレミアム合同会社,,合同会社,東京都,大田区,東矢口３丁目７番１７号,,13,111,1460094,,,,,,,2022-10-27,1,,,,,エムプレミアム,0
273,2010901051849,新規,0,2022-10-27,2022-10-27,株式会社ｅｇｇ　ｆｏｒ,,株式会社,東京都,世田谷区,太子堂５丁目５番１７号,,13,112,1540004,,,,,,,2022-10-27,1,,,,,エッグフォー,0
274,2010901051865,新規,0,2022-10-27,2022-10-27,株式会社セピア,,株式会社,東京都,世田谷区,三軒茶屋１丁目３９－７ベルアージュ１Ｆ,,13,112,1540024,,,,,,,2022-10-27,1,,,,,セピア,0
275,2010903007741,新規,0,2022-10-27,2022-10-27,ラブリット合同会社,,合同会社,東京都,世田谷区,松原１丁目２０－３シャーメゾンＭ１０２号室,,13,112,1560043,,,,,,,2022-10-27,1,,,,,ラブリット,0
285,2011003015593,新規,0,2022-10-27,2022-10-27,合同会社楽,,合同会社,東京都,渋谷区,西原３丁目２番４号フロンティア代々木上原３Ｆ,,13,113,1510066,,,,,,,2022-10-27,1,,,,,ラク,0
290,2011101100652,新規,0,2022-10-27,2022-10-27,手井視覚ファクトリー株式会社,,株式会社,東京都,新宿区,百人町１丁目２２－３－１００６,,13,104,1690073,,,,,,,2022-10-27,1,,,,,テイシカクファクトリー,0
296,2011401024626,新規,0,2022-10-27,2022-10-27,株式会社ｆｒｅｅ　Ｓｔｙｌｅ,,株式会社,東京都,板橋区,成増１丁目４番１４号,,13,119,1750094,,,,,,,2022-10-27,1,,,,,フリースタイル,0
302,2013301049843,新規,0,2022-10-27,2022-10-27,株式会社Ｂｅｙｏｎｄ　Ｔｏｋｙｏ,,株式会社,東京都,豊島区,西池袋３丁目３０番１１号泰共フラットビル６０７号室,,13,116,1710021,,,,,,,2022-10-27,1,,,,,ビヨンドトウキョウ,0
309,2020001148693,新規,0,2022-10-27,2022-10-27,ＰｌｕｓＣ株式会社,,株式会社,神奈川県,川崎市川崎区,大島１丁目４番５－７０１号,,14,131,2100834,,,,,,,2022-10-27,1,,,,,プラスシー,0
311,2020003022624,新規,0,2022-10-27,2022-10-27,合同会社和幸大工,,合同会社,神奈川県,横浜市青葉区,つつじが丘３６－７,,14,117,2270055,,,,,,,2022-10-27,1,,,,,ワコウダイク,0
315,2021001077296,新規,0,2022-10-27,2022-10-27,株式会社けんぽむ,,株式会社,神奈川県,大和市,上草柳６丁目１８番１１号Ｆｓ・ｈｉｄｅ１０１,,14,213,2420029,,,,,,,2022-10-27,1,,,,,,0
339,2040001125575,新規,0,2022-10-27,2022-10-27,Ｗｏｒｌｄ　Ｓａｌｖａｇｅ株式会社,,株式会社,千葉県,木更津市,金田東６丁目３１番地８フレラックス木更津１号棟１号室,,12,206,2920009,,,,,,,2022-10-27,1,,,,,ワールドサルベージ,0
340,2040001125583,新規,0,2022-10-27,2022-10-27,リアルティーホールディングス株式会社,,株式会社,千葉県,千葉市中央区,要町６番３号,,12,101,2600017,,,,,,,2022-10-27,1,,,,,リアルティーホールディングス,0
341,2040001125591,新規,0,2022-10-27,2022-10-27,株式会社ＲＪ,,株式会社,千葉県,船橋市,南三咲４丁目２０番１２号,,12,204,2740813,,,,,,,2022-10-27,1,,,,,アールジェイ,0
347,2040003021137,新規,0,2022-10-27,2022-10-27,合同会社カルディア,,合同会社,千葉県,柏市,南増尾７丁目１１番２７号,,12,217,2770054,,,,,,,2022-10-27,1,,,,,カルディア,0
348,2040003021145,新規,0,2022-10-27,2022-10-27,ＨＡＣＨＩＹＡ　ＴＯＫＹＯ　ＩＮＴＥＲＮＡＴＩＯＮＡＬ合同会社,,合同会社,千葉県,千葉市若葉区,北谷津町３０５番地２－２,,12,104,2650067,,,,,,,2022-10-27,1,,,,,ハチヤトウキョウインターナショナル,0
356,2060001035368,新規,0,2022-10-27,2022-10-27,株式会社コンフォートファーム,,株式会社,栃木県,佐野市,下彦間町１２２,,09,204,3270325,,,,,,,2022-10-27,1,,,,,コンフォートファーム,0
363,2080401026122,新規,0,2022-10-27,2022-10-27,Ｎｅｏ　ｍｏｍｉｎｏｏｋａ株式会社,,株式会社,静岡県,浜松市中区,佐鳴台１丁目２１番６号,,22,131,4328021,,,,,,,2022-10-27,1,,,,,ネオモミノオカ,0
368,2100003006742,新規,0,2022-10-27,2022-10-27,合同会社ヒバナ,,合同会社,長野県,千曲市,大字八幡４７５１番地,,20,218,3870023,,,,,,,2022-10-27,1,,,,,ヒバナ,0
378,2120001249746,新規,0,2022-10-27,2022-10-27,株式会社結,,株式会社,大阪府,大阪市北区,松ケ枝町５－１６奥鉄ビル２階,,27,127,5300037,,,,,,,2022-10-27,1,,,,,ユイ,0
379,2120001249837,新規,0,2022-10-27,2022-10-27,株式会社メディカルグロース,,株式会社,大阪府,大阪市淀川区,十三東１丁目１１番２８号光第８ビル５０７号,,27,123,5320023,,,,,,,2022-10-27,1,,,,,メディカルグロース,0
382,2120005023263,新規,0,2022-10-27,2022-10-27,一般社団法人保護猫サロン・グー,,その他の設立登記法人,大阪府,大阪市城東区,関目３丁目２番１１号,,27,118,5360008,,,,,,,2022-10-27,1,,,,,ホゴネコサロングー,0
383,2120101066430,新規,0,2022-10-27,2022-10-27,祥亜商事株式会社,,株式会社,大阪府,羽曳野市,郡戸２５２番地の１１,,27,222,5830874,,,,,,,2022-10-27,1,,,,,ショウアショウジ,0
384,2120103004900,新規,0,2022-10-27,2022-10-27,合同会社モッカ,,合同会社,大阪府,堺市北区,北花田町４丁８９番地６７号第２ファンタジービル３０１,,27,146,5918002,,,,,,,2022-10-27,1,,,,,モッカ,0
406,2180001153496,新規,0,2022-10-27,2022-10-27,株式会社エバープラス,,株式会社,愛知県,名古屋市中区,丸の内３丁目５番３３号,,23,106,4600002,,,,,,,2022-10-27,1,,,,,エバープラス,0
407,2180001153521,新規,0,2022-10-27,2022-10-27,ＩＮＣＲＥＡＳＥ株式会社,,株式会社,愛知県,名古屋市中区,千代田２丁目１７番１４号,,23,106,4600012,,,,,,,2022-10-27,1,,,,,インクリース,0
411,2180301036756,新規,0,2022-10-27,2022-10-27,株式会社ＳＰｉＣａ,,株式会社,愛知県,碧南市,港本町一丁目１番地,,23,209,4470844,,,,,,,2022-10-27,1,,,,,スピカ,0
414,2190001029860,新規,0,2022-10-27,2022-10-27,株式会社翔,,株式会社,三重県,松阪市,内五曲町２８番地８,,24,204,5150072,,,,,,,2022-10-27,1,,,,,カケル,0
424,2240001060538,新規,0,2022-10-27,2022-10-27,ＥＬＩＴＥ　ＡＧＯ株式会社,,株式会社,広島県,福山市,沖野上町４丁目１５番７号３１３号屋,,34,207,7200825,,,,,,,2022-10-27,1,,,,,エリートアゴー,0
430,2260003004078,新規,0,2022-10-27,2022-10-27,合同会社フォレスト９号,,合同会社,岡山県,岡山市北区,西古松５３番地１（８０２）,,33,101,7000927,,,,,,,2022-10-27,1,,,,,フォレストキュウゴウ,0
435,2290801028993,新規,0,2022-10-27,2022-10-27,株式会社ＢＡＲＣＥＬＬ,,株式会社,福岡県,北九州市小倉南区,北方１丁目２番１１号,,40,107,8020841,,,,,,,2022-10-27,1,,,,,バーセル,0
439,2320003003932,新規,0,2022-10-27,2022-10-27,合同会社ヒナタアートファクトリー,,合同会社,大分県,別府市,大字鶴見１６６６番地の１９,,44,202,8740840,,,,,,,2022-10-27,1,,,,,ヒナタアートファクトリー,0
449,2340003003939,新規,0,2022-10-27,2022-10-27,錦江アセット合同会社,,合同会社,鹿児島県,鹿児島市,下荒田１丁目４４番６号,,46,201,8900056,,,,,,,2022-10-27,1,,,,,キンコウアセット,0
451,2360001031114,新規,0,2022-10-27,2022-10-27,とある株式会社,,株式会社,沖縄県,沖縄市,宮里２丁目３番４３号エンズガーデン宮里ヒルズ１４０１,,47,211,9042165,,,,,,,2022-10-27,1,,,,,トアル,0
454,2360003012392,新規,0,2022-10-27,2022-10-27,合同会社メイカーズ,,合同会社,沖縄県,那覇市,辻１丁目１６番９号サングリーンビル１階,00128260,47,201,9000037,,,,,,,2022-10-27,1,,,,,メイカーズ,0
455,2370003005874,新規,0,2022-10-27,2022-10-27,合同会社ＨＫサポートコミュニケーションズ,,合同会社,宮城県,岩沼市,あさひ野２丁目４－４,,04,211,9892478,,,,,,,2022-10-27,1,,,,,エイチケーサポートコミュニケーションズ,0
460,2380001033208,新規,0,2022-10-27,2022-10-27,株式会社エコープロジェクト,,株式会社,福島県,白河市,関辺谷中６０番地１７７,,07,205,9610021,,,,,,,2022-10-27,1,,,,,エコープロジェクト,0
465,2430001087693,新規,0,2022-10-27,2022-10-27,株式会社北海道エナジーソリューション,,株式会社,北海道,札幌市豊平区,平岸三条８丁目６番１号信和リッチ２階,,01,105,0620933,,,,,,,2022-10-27,1,,,,,ホッカイドウエナジーソリューション,0
466,2430001087735,新規,0,2022-10-27,2022-10-27,Ｄ．Ａ．Ｎ工業株式会社,,株式会社,北海道,小樽市,入船５丁目９番７号,,01,203,0470021,,,,,,,2022-10-27,1,,,,,ディーエーエヌコウギョウ,0
468,2430003014407,新規,0,2022-10-27,2022-10-27,合同会社よつば,,合同会社,北海道,北広島市,稲穂町東１丁目３番地１３,,01,234,0611125,,,,,,,2022-10-27,1,,,,,ヨツバ,0
469,2430003014415,新規,0,2022-10-27,2022-10-27,合同会社Ｌｉｅｎ,,合同会社,北海道,札幌市東区,北二十一条東２３丁目１番２１－１０２号,,01,103,0650021,,,,,,,2022-10-27,1,,,,,リアン,0
481,3010001230261,新規,0,2022-10-27,2022-10-27,ＩＫＩＧＡＩＤＯ株式会社,,株式会社,東京都,千代田区,大手町１丁目７番２号東京サンケイビル２７階,,13,101,1000004,,,,,,,2022-10-27,1,,,,,イキガイドウ,0
482,3010005035715,新規,0,2022-10-27,2022-10-27,一般社団法人優心会,,その他の設立登記法人,東京都,千代田区,永田町２丁目９－６,,13,101,1000014,,,,,,,2022-10-27,1,,,,,ユウシンカイ,0
493,3010401170520,新規,0,2022-10-27,2022-10-27,株式会社Ｌａｃｈｅ,,株式会社,東京都,港区,南青山２丁目２番１５号,,13,103,1070062,,,,,,,2022-10-27,1,,,,,ラシュ,0
497,3010403028782,新規,0,2022-10-27,2022-10-27,オフィスＫＡＴＯ合同会社,,合同会社,東京都,港区,赤坂２丁目２０番１６号,,13,103,1070052,,,,,,,2022-10-27,1,,,,,オフィスカトウ,0
508,3010601062055,新規,0,2022-10-27,2022-10-27,株式会社西子湖畔,,株式会社,東京都,墨田区,両国２丁目１７番１７号両国ダイヤハイツ２０２－Ｃ,,13,107,1300026,,,,,,,2022-10-27,1,,,,,ニシココハン,0
512,3010705003442,新規,0,2022-10-27,2022-10-27,ＮＰＯ法人Ｋｏｄｏｍｏｉｓ,,その他の設立登記法人,東京都,品川区,南品川５丁目１２番１３－５１０号,,13,109,1400004,,,,,,,2022-10-27,1,,,,,コドモワ,0
513,3010803004318,新規,0,2022-10-27,2022-10-27,合同会社ＳＴ,,合同会社,東京都,大田区,蒲田２丁目２０番１８号,,13,111,1440052,,,,,,,2022-10-27,1,,,,,エスティー,0
514,3010901051856,新規,0,2022-10-27,2022-10-27,株式会社エクレート,,株式会社,東京都,世田谷区,太子堂３丁目３８番１号,,13,112,1540004,,,,,,,2022-10-27,1,,,,,エクレート,0
515,3010901051864,新規,0,2022-10-27,2022-10-27,株式会社ＦＯＮＴＡＮＡＮＴ,,株式会社,東京都,世田谷区,松原１丁目２８番１０号ライフステージ明大前２０３,,13,112,1560043,,,,,,,2022-10-27,1,,,,,フォンタナント,0
525,3011101100643,新規,0,2022-10-27,2022-10-27,株式会社Ｍ３ｐｒｏｄｕｃｅ,,株式会社,東京都,新宿区,新宿６丁目３番１０号クレストビル地下１階,,13,104,1600022,,,,,,,2022-10-27,1,,,,,エムスリープロデュース,0
526,3011103012300,新規,0,2022-10-27,2022-10-27,みやま合同会社,,合同会社,東京都,新宿区,市谷左内町５番地、３Ｆ,,13,104,1620846,,,,,,,2022-10-27,1,,,,,ミヤマ,0
532,3011401024625,新規,0,2022-10-27,2022-10-27,ｎｓａａａ株式会社,,株式会社,東京都,板橋区,大和町６番１２号３０３,,13,119,1730012,,,,,,,2022-10-27,1,,,,,エヌエスエイエイエイ,0
533,3011401024633,新規,0,2022-10-27,2022-10-27,株式会社トゥルーエイム,,株式会社,東京都,板橋区,若木２丁目１８番３号,,13,119,1740065,,,,,,,2022-10-27,1,,,,,,0
536,3011603003732,新規,0,2022-10-27,2022-10-27,合同会社ロックフィールド,,合同会社,東京都,練馬区,下石神井６丁目５番１０号グリーンフィールズ２０２,,13,120,1770042,,,,,,,2022-10-27,1,,,,,ロックフィールド,0
544,3011803005330,新規,0,2022-10-27,2022-10-27,松永堂合同会社,,合同会社,東京都,葛飾区,亀有３丁目１３番２鞠子ビル６Ｆ６０９号室,,13,122,1250061,,,,,,,2022-10-27,1,,,,,マツナガドウ,0
566,3021001077287,新規,0,2022-10-27,2022-10-27,小田原電子工業株式会社,,株式会社,神奈川県,小田原市,飯泉２１番地の４夏目ビル１Ｆ南,,14,206,2500863,,,,,,,2022-10-27,1,,,,,オダワラデンシコウギョウ,0
583,3030003020460,新規,0,2022-10-27,2022-10-27,合同会社桜商事,,合同会社,埼玉県,川口市,大字東本郷１２８４番地の５,,11,203,3340063,,,,,,,2022-10-27,1,,,,,サクラショウジ,0
584,3030003020469,新規,0,2022-10-27,2022-10-27,紅新合同会社,,合同会社,埼玉県,草加市,住吉１丁目１０番３５号グローリア初穂草加４１１号室,,11,221,3400014,,,,,,,2022-10-27,1,,,,,コウシン,0
589,3040003021144,新規,0,2022-10-27,2022-10-27,合同会社ＨＫなずな,,合同会社,千葉県,市川市,八幡５丁目６番１３号,,12,203,2720021,,,,,,,2022-10-27,1,,,,,エイチケイナズナ,0
594,3080101023591,新規,0,2022-10-27,2022-10-27,株式会社アビックス,,株式会社,静岡県,伊東市,宇佐美３６２９番地の２伊豆ビューグランドハイツ２号棟８５６号,,22,208,4140001,,,,,,,2022-10-27,1,,,,,アビックス,0
595,3080103002676,新規,0,2022-10-27,2022-10-27,合同会社ＨｉｒｏＫｏｋｏ．Ｈ＆Ｋ,,合同会社,静岡県,沼津市,香貫が丘２番１号,,22,203,4100824,,,,,,,2022-10-27,1,,,,,ヒロココエイチアンドケイ,0
597,3080405007497,新規,0,2022-10-27,2022-10-27,ロジスティックアシスト協同組合,,その他の設立登記法人,静岡県,浜松市東区,原島町３６５番地の１,,22,132,4350047,,,,,,,2022-10-27,1,,,,,ロジスティックアシスト,0
607,3120001249778,新規,0,2022-10-27,2022-10-27,株式会社Ｇａｌｅｗｅｓｔ,,株式会社,大阪府,大阪市西区,南堀江１丁目２４番１８号,,27,106,5500015,,,,,,,2022-10-27,1,,,,,ゲールウェスト,0
608,3120001249794,新規,0,2022-10-27,2022-10-27,熙＿株式会社,00128261,株式会社,大阪府,大阪市阿倍野区,北畠３丁目４番１２号,,27,119,5450035,,,,,,,2022-10-27,1,,,,,キギョク,0
609,3120001249844,新規,0,2022-10-27,2022-10-27,株式会社床山きよ多,,株式会社,大阪府,大阪市浪速区,難波中１丁目３番１５号シャトー中山,,27,111,5560011,,,,,,,2022-10-27,1,,,,,トコヤマキヨタ,0
610,3120003022729,新規,0,2022-10-27,2022-10-27,合同会社ｔｗｏ‐ｒｉｎｇｓ,,合同会社,大阪府,大阪市北区,梅田１丁目２番２号大阪駅前第２ビル１２―１２,,27,127,5300001,,,,,,,2022-10-27,1,,,,,トゥーリングス,0
624,3130001072915,新規,0,2022-10-27,2022-10-27,株式会社ＴＫインベストメント,,株式会社,京都府,京都市西京区,下津林佃８番地１,,26,111,6158055,,,,,,,2022-10-27,1,,,,,ティーケーインベストメント,0
627,3140001127783,新規,0,2022-10-27,2022-10-27,株式会社ＧＩＦＴ,,株式会社,兵庫県,神戸市東灘区,御影２丁目４番１０号,,28,101,6580047,,,,,,,2022-10-27,1,,,,,ギフト,0
628,3140001127809,新規,0,2022-10-27,2022-10-27,森岡レッカー株式会社,,株式会社,兵庫県,三田市,大原７１２番地８,,28,219,6691515,,,,,,,2022-10-27,1,,,,,モリオカレッカー,0
634,3170001017346,新規,0,2022-10-27,2022-10-27,株式会社肉匠,,株式会社,和歌山県,和歌山市,木ノ本１１８番地２,,30,201,6408453,,,,,,,2022-10-27,1,,,,,ニクショウ,0
641,3180001153504,新規,0,2022-10-27,2022-10-27,株式会社ｎｅｏ,,株式会社,愛知県,名古屋市中区,丸の内２丁目１７番２６号アップルパレス丸の内８０５号,,23,106,4600002,,,,,,,2022-10-27,1,,,,,ネオ,0
642,3180001153512,新規,0,2022-10-27,2022-10-27,株式会社ＡＣＴ．１,,株式会社,愛知県,名古屋市西区,城西５丁目６番２７号,,23,104,4510031,,,,,,,2022-10-27,1,,,,,アクトワン,0
643,3180001153529,新規,0,2022-10-27,2022-10-27,株式会社エッジ,,株式会社,愛知県,名古屋市中区,正木４丁目６番６号,,23,106,4600024,,,,,,,2022-10-27,1,,,,,エッジ,0
644,3180001153545,新規,0,2022-10-27,2022-10-27,株式会社オーヨー,,株式会社,愛知県,北名古屋市,徳重土部５６番地,,23,234,4810038,,,,,,,2022-10-27,1,,,,,オーヨー,0
649,3180003024406,新規,0,2022-10-27,2022-10-27,合同会社ｃｏｃｏｒｏ,,合同会社,愛知県,長久手市,東浦１００３番地,,23,238,4801174,,,,,,,2022-10-27,1,,,,,ココロ,0
660,3210003001574,新規,0,2022-10-27,2022-10-27,合同会社トウシヤ,,合同会社,福井県,敦賀市,新松島町２番３号,,18,202,9140803,,,,,,,2022-10-27,1,,,,,トウシヤ,0
661,3220001025104,新規,0,2022-10-27,2022-10-27,ＵＰ株式会社,,株式会社,石川県,金沢市,池田町一番丁５番地,,17,201,9200983,,,,,,,2022-10-27,1,,,,,ユーピー,0
663,3230001019559,新規,0,2022-10-27,2022-10-27,株式会社豊田物産,,株式会社,富山県,射水市,八幡町１丁目１５番９号,,16,211,9340025,,,,,,,2022-10-27,1,,,,,トヨタブッサン,0
678,3290001099348,新規,0,2022-10-27,2022-10-27,モンキー前田株式会社,,株式会社,福岡県,福岡市城南区,干隈１丁目２番１６号,,40,136,8140132,,,,,,,2022-10-27,1,,,,,モンキーマエダ,0
681,3290003013109,新規,0,2022-10-27,2022-10-27,日本改良めだか合同会社,,合同会社,福岡県,福岡市中央区,大手門２丁目７番１１号ＢＭＳビル６Ｆ,,40,133,8100074,,,,,,,2022-10-27,1,,,,,ニホンカイリョウメダカ,0
683,3290801028992,新規,0,2022-10-27,2022-10-27,株式会社ＡＮＴＳ　Ｇａｒｄｅｎ,,株式会社,福岡県,北九州市若松区,白山２丁目１０番２３－４１２号,,40,103,8080035,,,,,,,2022-10-27,1,,,,,アンツガーデン,0
684,3300005007107,新規,0,2022-10-27,2022-10-27,一般社団法人さがクリエイション,,その他の設立登記法人,佐賀県,佐賀市,城内１丁目６番１０号,,41,201,8400041,,,,,,,2022-10-27,1,,,,,サガクリエイション,0
685,3310005008640,新規,0,2022-10-27,2022-10-27,一般社団法人長崎ウーマンズ・ウォークラリー,,その他の設立登記法人,長崎県,長崎市,江戸町５番８号,,42,201,8500861,,,,,,,2022-10-27,1,,,,,ナガサキウーマンズウォークラリー,0
693,3340005009520,新規,0,2022-10-27,2022-10-27,一般社団法人Ｓｕｎａｏ,,その他の設立登記法人,鹿児島県,鹿児島市,春日町５－２８,,46,201,8920804,,,,,,,2022-10-27,1,,,,,スナオ,0
695,3360001031105,新規,0,2022-10-27,2022-10-27,株式会社Ａｓｉａｎ　Ｔａｓｔｅ,,株式会社,沖縄県,宜野湾市,真栄原１丁目１２番２７号,,47,205,9012215,,,,,,,2022-10-27,1,,,,,アジアンテイスト,0
699,3370001049179,新規,0,2022-10-27,2022-10-27,株式会社ルビア,,株式会社,宮城県,仙台市青葉区,二日町３番２８－１００４号,,04,101,9800802,,,,,,,2022-10-27,1,,,,,ルビア,0
711,3430001087692,新規,0,2022-10-27,2022-10-27,北海道エナジー開発株式会社,,株式会社,北海道,札幌市中央区,南三条西４丁目１２番地アルシュビル８階,,01,101,0600063,,,,,,,2022-10-27,1,,,,,ホッカイドウエナジーカイハツ,0
712,3430001087734,新規,0,2022-10-27,2022-10-27,Ｄ．Ｌｉｎｋ株式会社,,株式会社,北海道,札幌市白石区,菊水元町一条２丁目２番１号第１０大光ハイツ１０１号,,01,104,0030821,,,,,,,2022-10-27,1,,,,,ディーリンク,0
717,3480001011895,新規,0,2022-10-27,2022-10-27,株式会社徳島新聞ビジネス,,株式会社,徳島県,徳島市,中徳島町２丁目５番地２,,36,201,7700853,,,,,,,2022-10-27,1,,,,,トクシマシンブンビジネス,0
720,3500001024556,新規,0,2022-10-27,2022-10-27,株式会社しげのぶ農園,,株式会社,愛媛県,東温市,田窪１２８番地１,,38,215,7910212,,,,,,,2022-10-27,1,,,,,シゲノブノウエン,0
722,3700150112348,新規,0,2022-10-27,2022-10-27,ＷＡＴＳＯＮ　ＦＡＲＬＥＹ　＆　ＷＩＬＬＩＡＭＳ（ＪＡＰＡＮ）　ＬＬＰ,,外国会社等,東京都,千代田区,大手町２丁目６番４号常盤橋タワー８階１０６号,,13,101,1000004,１５　Ａｐｐｏｌｄ　Ｓｔｒｅｅｔ，Ｌｏｎｄｏｎ，ＥＣ２Ａ　２ＨＢ,,,,,,2022-10-27,1,,,,,ワトソンフアーリーアンドウイリアムズジヤパンエルエルピー,0
723,3700150112356,新規,0,2022-10-27,2022-10-27,ＴＯＤＡＹＮＣＯ　ＩＮＴＥＲＮＡＴＩＯＮＡＬ　ＰＲＩＶＡＴＥ　ＬＩＭＩＴＥＤ,,外国会社等,千葉県,佐倉市,大篠塚１３２８番地２,,12,212,2850806,スリランカ民主社会主義共和国、アクラナ、ドゥヌウィラロード、７６－Ｂ,,,,,,2022-10-27,1,,,,,トウデインコインターナシヨナルプライベートリミテツド,0
728,4010001230434,新規,0,2022-10-27,2022-10-27,株式会社ノルマレ,,株式会社,東京都,中央区,日本橋蛎殻町１丁目２１番７号,,13,102,1030014,,,,,,,2022-10-27,1,,,,,ノルマレ,0
729,4010003038933,新規,0,2022-10-27,2022-10-27,ＣＳＤ合同会社,,合同会社,東京都,千代田区,飯田橋２丁目１６－４九段下コート２Ｆ－２１４号室,,13,101,1020072,,,,,,,2022-10-27,1,,,,,シーエスディー,0
730,4010003038941,新規,0,2022-10-27,2022-10-27,冷えたサイダー合同会社,,合同会社,東京都,中央区,銀座８丁目１０番５号電算ビルＧ－５２２６９,,13,102,1040061,,,,,,,2022-10-27,1,,,,,ヒエタサイダー,0
737,4010401170478,新規,0,2022-10-27,2022-10-27,株式会社プレディアル,,株式会社,東京都,港区,白金６丁目１６番４１－５０１号,,13,103,1080072,,,,,,,2022-10-27,1,,,,,プレディアル,0
738,4010401170486,新規,0,2022-10-27,2022-10-27,株式会社ａｎｄＣＥＢ,,株式会社,東京都,港区,南青山３丁目１番３６号青山丸竹ビル６Ｆ,,13,103,1070062,,,,,,,2022-10-27,1,,,,,アンドセブ,0
739,4010405021529,新規,0,2022-10-27,2022-10-27,ヴァイパー２一般社団法人,,その他の設立登記法人,東京都,港区,浜松町１丁目２０番１０号ライオネス浜松町５０６号室,,13,103,1050013,,,,,,,2022-10-27,1,,,,,ヴァイパーニ,0
747,4010601062054,新規,0,2022-10-27,2022-10-27,株式会社瑞匯,,株式会社,東京都,墨田区,両国２丁目１７番１７号両国ダイヤハイツ２０２－Ａ,,13,107,1300026,,,,,,,2022-10-27,1,,,,,ズイカイ,0
752,4010801033383,新規,0,2022-10-27,2022-10-27,ＰｗＲ株式会社,,株式会社,東京都,大田区,西糀谷１丁目１３番１２号,,13,111,1440034,,,,,,,2022-10-27,1,,,,,プゥル,0
755,4010901051847,新規,0,2022-10-27,2022-10-27,株式会社トラスト・ミズ,,株式会社,東京都,世田谷区,奥沢６丁目１３番８号,,13,112,1580083,,,,,,,2022-10-27,1,,,,,トラストミズ,0
763,4011103012308,新規,0,2022-10-27,2022-10-27,合同会社ＳＲＳ,,合同会社,東京都,新宿区,新宿２丁目８番１号新宿セブンビル２０５,,13,104,1600022,,,,,,,2022-10-27,1,,,,,エスアールエス,0
770,4011301028205,新規,0,2022-10-27,2022-10-27,株式会社アンダーパレス,,株式会社,東京都,杉並区,下井草３丁目６番１９号,,13,115,1670022,,,,,,,2022-10-27,1,,,,,,0
774,4011501028599,新規,0,2022-10-27,2022-10-27,株式会社ＲＭ５Ｓ,,株式会社,東京都,荒川区,東尾久２丁目２番９号三祥ビル２２６,,13,118,1160012,,,,,,,2022-10-27,1,,,,,アールエムゴエス,0
796,4020001148700,新規,0,2022-10-27,2022-10-27,株式会社ＮＡＪＡＲＩＫＯ,,株式会社,神奈川県,横浜市西区,高島２丁目１１－２,,14,103,2200011,,,,,,,2022-10-27,1,,,,,ナジャリコ,0
817,4030001150746,新規,0,2022-10-27,2022-10-27,日越サービス株式会社,,株式会社,埼玉県,富士見市,鶴瀬西３丁目３番１８号木野ハイツＡ－１０１,,11,235,3540026,,,,,,,2022-10-27,1,,,,,ニチエツサービス,0
818,4030001150762,新規,0,2022-10-27,2022-10-27,株式会社ＫＥＮＮＺＯ,,株式会社,埼玉県,草加市,住吉１丁目１３番１４－４０１号,,11,221,3400014,,,,,,,2022-10-27,1,,,,,ケンゾー,0
821,4030003020468,新規,0,2022-10-27,2022-10-27,合同会社ＯＳＶ,,合同会社,埼玉県,和光市,本町３１－１６－１５０３号ＣＩハイツ１５０３号,,11,229,3510114,,,,,,,2022-10-27,1,,,,,オーエスブイ,0
826,4040001125573,新規,0,2022-10-27,2022-10-27,株式会社Ｊｉｎｊｉｔｅｃｈ,,株式会社,千葉県,大網白里市,みどりが丘４丁目４７番地９,,12,239,2993255,,,,,,,2022-10-27,1,,,,,ジンジテック,0
827,4040001125581,新規,0,2022-10-27,2022-10-27,株式会社ＹＵ‐ＯＮＥ,,株式会社,千葉県,千葉市若葉区,若松町７９４－４,,12,104,2640021,,,,,,,2022-10-27,1,,,,,ユーワン,0
830,4040005021793,新規,0,2022-10-27,2022-10-27,特定非営利活動法人チームテクノロジー,,その他の設立登記法人,千葉県,千葉市中央区,中央３丁目１７番１－２４１２号,,12,101,2600013,,,,,,,2022-10-27,1,,,,,チームテクノロジー,0
841,4080103002675,新規,0,2022-10-27,2022-10-27,ＳＡＫＵＲＡ合同会社,,合同会社,静岡県,賀茂郡河津町,峰４６９番地の１,,22,302,4130511,,,,,,,2022-10-27,1,,,,,サクラ,0
842,4080401026120,新規,0,2022-10-27,2022-10-27,株式会社Ｓ‐ＬＩＮＥ,,株式会社,静岡県,浜松市南区,三島町４８１番地の１,,22,134,4300853,,,,,,,2022-10-27,1,,,,,エスライン,0
847,4110001037068,新規,0,2022-10-27,2022-10-27,株式会社ＷＡＳ,,株式会社,新潟県,新潟市中央区,紫竹山２丁目５番３号紫鳥線ビル１階Ａ室,,15,103,9500914,,,,,,,2022-10-27,1,,,,,ワズ,0
858,4120001249793,新規,0,2022-10-27,2022-10-27,瑾逸株式会社,,株式会社,大阪府,大阪市中央区,松屋町９番２０号ローレルステート松屋町７０２Ｂ,,27,128,5420067,,,,,,,2022-10-27,1,,,,,キンイツ,0
859,4120001249835,新規,0,2022-10-27,2022-10-27,株式会社ＡＮＤＭＯＲＥＦＩＮＥ,,株式会社,大阪府,枚方市,宮之阪２丁目２２番１号,,27,210,5730022,,,,,,,2022-10-27,1,,,,,アンドモアファイン,0
865,4120003022736,新規,0,2022-10-27,2022-10-27,合同会社コンフォート会計社,,合同会社,大阪府,大阪市西区,新町１丁目５番７号四ツ橋ビルディング,,27,106,5500013,,,,,,,2022-10-27,1,,,,,コンフォートカイケイヤシャ,0
872,4122001036338,新規,0,2022-10-27,2022-10-27,株式会社健清,,株式会社,大阪府,大東市,南郷町４－４４,,27,218,5740063,,,,,,,2022-10-27,1,,,,,ケンセイ,0
896,4180001153486,新規,0,2022-10-27,2022-10-27,株式会社稲垣,,株式会社,愛知県,名古屋市千種区,朝岡町３丁目７３番地,,23,101,4640811,,,,,,,2022-10-27,1,,,,,イナガキ,0
897,4180001153494,新規,0,2022-10-27,2022-10-27,株式会社タナト,,株式会社,愛知県,海部郡飛島村,大字渚１丁目１５８番地,,23,427,4901433,,,,,,,2022-10-27,1,,,,,タナト,0
898,4180001153536,新規,0,2022-10-27,2022-10-27,株式会社柘植工業,,株式会社,愛知県,春日井市,穴橋町１丁目４番地１２,,23,206,4860853,,,,,,,2022-10-27,1,,,,,ツゲコウギョウ,0
899,4180001153544,新規,0,2022-10-27,2022-10-27,株式会社愛正,,株式会社,愛知県,稲沢市,井堀中郷町１１５番地,,23,220,4928463,,,,,,,2022-10-27,1,,,,,アイセイ,0
904,4180003024388,新規,0,2022-10-27,2022-10-27,合同会社Ｙｕｚｕｒｉｈａ,,合同会社,愛知県,日進市,東山１丁目１４０２番地,,23,230,4700116,,,,,,,2022-10-27,1,,,,,ユズリハ,0
905,4180003024405,新規,0,2022-10-27,2022-10-27,合同会社Ｒｅ‐ＨａＲｕ,,合同会社,愛知県,弥富市,前ケ須町東勘助９１番地１１,,23,235,4980017,,,,,,,2022-10-27,1,,,,,リーハル,0
908,4180303005492,新規,0,2022-10-27,2022-10-27,合同会社ダブルスクエアド,,合同会社,愛知県,安城市,東端町神子塚２８番地,00128262,23,212,4441213,,,,,,,2022-10-27,1,,,,,ダブルスクエアド,0
909,4190001029859,新規,0,2022-10-27,2022-10-27,株式会社ｓｈｉｎｅｔｗｏ,,株式会社,三重県,桑名市,蓮見町４１番地１,,24,205,5110008,,,,,,,2022-10-27,1,,,,,シャイントゥ,0
912,4200003005716,新規,0,2022-10-27,2022-10-27,ユアミィ合同会社,,合同会社,岐阜県,可児市,今５９６番地１１,,21,214,5090246,,,,,,,2022-10-27,1,,,,,ユアミィ,0
914,4210003001573,新規,0,2022-10-27,2022-10-27,合同会社ｓｗｅｅｔ　ｓｍｉｌｅ,,合同会社,福井県,福井市,二の宮５丁目１３番２０号,,18,201,9100015,,,,,,,2022-10-27,1,,,,,スイートスマイル,0
915,4220003003387,新規,0,2022-10-27,2022-10-27,ハナノサービス合同会社,,合同会社,石川県,能美市,赤井町ハ７３番地,,17,211,9290101,,,,,,,2022-10-27,1,,,,,ハナノサービス,0
918,4240001060560,新規,0,2022-10-27,2022-10-27,深江ファーム株式会社,,株式会社,広島県,江田島市,大柿町深江１４５３番地２０,,34,215,7372214,,,,,,,2022-10-27,1,,,,,フカエファーム,0
919,4240003005860,新規,0,2022-10-27,2022-10-27,アルカド合同会社,,合同会社,広島県,広島市中区,猫屋町２番２４－４０５号,,34,101,7300852,,,,,,,2022-10-27,1,,,,,アルカド,0
922,4260001037350,新規,0,2022-10-27,2022-10-27,株式会社陶庵,,株式会社,岡山県,倉敷市,真備町辻田８４８番地１２,,33,202,7101312,,,,,,,2022-10-27,1,,,,,トウアン,0
923,4260003004076,新規,0,2022-10-27,2022-10-27,合同会社フォレスト３号,,合同会社,岡山県,岡山市北区,西古松５３番地１（８０２）,,33,101,7000927,,,,,,,2022-10-27,1,,,,,フォレストサンゴウ,0
931,4290001099347,新規,0,2022-10-27,2022-10-27,株式会社ＯＬＵ　ＳＰＡＣＥ,,株式会社,福岡県,宗像市,栄町２番地１赤間駅第二自転車駐車場２階ｆａｂｂｉｔ宗像,,40,220,8114173,,,,,,,2022-10-27,1,,,,,オルスペース,0
935,4290003013108,新規,0,2022-10-27,2022-10-27,ＧＢ合同会社,,合同会社,福岡県,福岡市博多区,須崎町１２番３－１０２号シティベール須崎,,40,132,8120028,,,,,,,2022-10-27,1,,,,,ジービー,0
939,4340001025116,新規,0,2022-10-27,2022-10-27,株式会社サウス企画,,株式会社,鹿児島県,鹿児島市,伊敷台５丁目８番２１号,,46,201,8900007,,,,,,,2022-10-27,1,,,,,サウスキカク,0
941,4360001031112,新規,0,2022-10-27,2022-10-27,株式会社エオン,,株式会社,沖縄県,那覇市,おもろまち１丁目１番２５－２４０８号,,47,201,9000006,,,,,,,2022-10-27,1,,,,,エオン,0
944,4370003005872,新規,0,2022-10-27,2022-10-27,合同会社幸の樹,,合同会社,宮城県,柴田郡大河原町,字新桜町２番地５,,04,321,9891274,,,,,,,2022-10-27,1,,,,,コウノキ,0
955,4430003014405,新規,0,2022-10-27,2022-10-27,合同会社左京,,合同会社,北海道,札幌市北区,麻生町６丁目１０番７号パブリック麻生２０７号室,,01,102,0010045,,,,,,,2022-10-27,1,,,,,サキョウ,0
958,4460003000922,新規,0,2022-10-27,2022-10-27,合同会社ホースタウンリンク,,合同会社,北海道,川上郡標茶町,字阿歴内原野基線１３５番地１９,,01,664,0882272,,,,,,,2022-10-27,1,,,,,ホースタウンリンク,0
959,4470001019311,新規,0,2022-10-27,2022-10-27,株式会社ネプチューン・さぬき,,株式会社,香川県,さぬき市,志度１８８３番地１,,37,206,7692101,,,,,,,2022-10-27,1,,,,,ネプチューンサヌキ,0
962,4480003001885,新規,0,2022-10-27,2022-10-27,サングレイス合同会社,,合同会社,徳島県,阿南市,中大野町南傍示１４１番地,,36,204,7740048,,,,,,,2022-10-27,1,,,,,サングレイス,0
965,4700150112355,新規,0,2022-10-27,2022-10-27,無錫先導智能装備股分有限公司,,外国会社等,大阪府,大阪市淀川区,宮原４丁目２番１０号ＰＭＯＥＸ新大阪,,27,123,5320003,中華人民共和国江蘇省無錫市新呉区新錫路２０号,,,,,,2022-10-27,1,,,,,ムシヤクセンドウチノウソウビコブンユウゲンコウシ,0
968,5010001230409,新規,0,2022-10-27,2022-10-27,芯栄商事株式会社,,株式会社,東京都,中央区,勝どき２丁目８番１２東京ビュック中銀１２２６号,,13,102,1040054,,,,,,,2022-10-27,1,,,,,シンエイショウジ,0
969,5010003038932,新規,0,2022-10-27,2022-10-27,達川合同会社,,合同会社,東京都,千代田区,飯田橋２丁目１６－４九段下コート２Ｆ－２１３号室,,13,101,1020072,,,,,,,2022-10-27,1,,,,,タツカワ,0
973,5010401170485,新規,0,2022-10-27,2022-10-27,新今宮・ホテル・オペレーションズ株式会社,,株式会社,東京都,港区,愛宕２丁目５番１号,,13,103,1050002,,,,,,,2022-10-27,1,,,,,シンイマミヤホテルオペレーションズ,0
974,5010403028772,新規,0,2022-10-27,2022-10-27,キャラメルエカカオ合同会社,,合同会社,東京都,港区,西麻布１丁目１３番１４号シャロム西麻布５Ｆ,,13,103,1060031,,,,,,,2022-10-27,1,,,,,キャラメルエカカオ,0
977,5010503006769,新規,0,2022-10-27,2022-10-27,ＡＳＫ計画合同会社,,合同会社,東京都,台東区,東上野３丁目２２－２クレアツィオーネ上野４０１号,,13,106,1100015,,,,,,,2022-10-27,1,,,,,エーエスケーケイカク,0
987,5010903007739,新規,0,2022-10-27,2022-10-27,合同会社オオヒラ,,合同会社,東京都,世田谷区,用賀４丁目１１番１３号近藤ビル３０２,,13,112,1580097,,,,,,,2022-10-27,1,,,,,オオヒラ,0
998,5011101100674,新規,0,2022-10-27,2022-10-27,株式会社ネクスト,,株式会社,東京都,新宿区,西新宿７丁目４－７イマス浜田ビル３Ｆ,,13,104,1600023,,,,,,,2022-10-27,1,,,,,ネクスト,0
999,5011201024187,新規,0,2022-10-27,2022-10-27,申徳株式会社,,株式会社,東京都,中野区,弥生町６丁目１２番３号,,13,114,1640013,,,,,,,2022-10-27,1,,,,,シントク,0
1000,5011301028212,新規,0,2022-10-27,2022-10-27,株式会社８ｔｈＣｏｌｏｒ,,株式会社,東京都,杉並区,和田１丁目１９番１３－３０６号,,13,115,1660012,,,,,,,2022-10-27,1,,,,,エイスカラー,0
1001,5011303004558,新規,0,2022-10-27,2022-10-27,合同会社Ｌｅａｆ,,合同会社,東京都,杉並区,上荻２丁目４０番９号ハイロード荻窪６０３,,13,115,1670043,,,,,,,2022-10-27,1,,,,,リーフ,0
1019,5012301013179,新規,0,2022-10-27,2022-10-27,株式会社Ａｊｉｓａｉ,,株式会社,東京都,町田市,南町田５丁目４番１号１Ｆ,,13,209,1940005,,,,,,,2022-10-27,1,,,,,アジサイ,0
1021,5012401039784,新規,0,2022-10-27,2022-10-27,株式会社ＲＥＯ,,株式会社,東京都,小金井市,本町６丁目２番１０－２４０３号プラウドタワー武蔵小金井クロス,,13,210,1840004,,,,,,,2022-10-27,1,,,,,レオ,0
1033,5020001148716,新規,0,2022-10-27,2022-10-27,清泉設備株式会社,,株式会社,神奈川県,横浜市西区,戸部本町４２番１０－７０２号,,14,103,2200041,,,,,,,2022-10-27,1,,,,,セイセンセツビ,0
1034,5020001148732,新規,0,2022-10-27,2022-10-27,ウェルビーイングフードサービス株式会社,,株式会社,神奈川県,川崎市宮前区,土橋２丁目１－１９クレールテラス４０３,,14,136,2160005,,,,,,,2022-10-27,1,,,,,ウェルビーイングフードサービス,0
1043,5020003022621,新規,0,2022-10-27,2022-10-27,合同会社ＮＥｘＳＴ,,合同会社,神奈川県,横浜市戸塚区,柏尾町９７４南山ハイム５０１,,14,110,2440812,,,,,,,2022-10-27,1,,,,,ネクスト,0
1058,5030001150737,新規,0,2022-10-27,2022-10-27,株式会社ＡＯＢＡＴＯ,,株式会社,埼玉県,川口市,大字里６７２番地１,,11,203,3340005,,,,,,,2022-10-27,1,,,,,アオバト,0
1068,5040001125589,新規,0,2022-10-27,2022-10-27,高沢工業株式会社,,株式会社,千葉県,千葉市稲毛区,宮野木町１７２２番地８７,,12,103,2630054,,,,,,,2022-10-27,1,,,,,タカサワコウギョウ,0
1069,5040001125597,新規,0,2022-10-27,2022-10-27,株式会社スリーエス,,株式会社,千葉県,白井市,冨士２７９番地の５９,,12,232,2701432,,,,,,,2022-10-27,1,,,,,スリーエス,0
1073,5040003021142,新規,0,2022-10-27,2022-10-27,ＪＣＦ合同会社,,合同会社,千葉県,我孫子市,中峠台３４番地の７中峠ハイツＣ２０１号,,12,222,2701128,,,,,,,2022-10-27,1,,,,,ジェイシーエフ,0
1088,5080403004643,新規,0,2022-10-27,2022-10-27,ＳＵＮＡＯ合同会社,,合同会社,静岡県,浜松市中区,高丘東３丁目２番７号,,22,131,4338117,,,,,,,2022-10-27,1,,,,,スナオ,0
1090,5090005007523,新規,0,2022-10-27,2022-10-27,特定非営利活動法人ユースフルスペース,,その他の設立登記法人,山梨県,甲斐市,下今井５３８番地１,,19,210,4000105,,,,,,,2022-10-27,1,,,,,ユースフルスペース,0
1091,5100001035815,新規,0,2022-10-27,2022-10-27,株式会社ＴＩＥＳＯＮＡＬ,,株式会社,長野県,諏訪郡富士見町,富士見３７８５番地３富士見森のオフィス,,20,362,3990211,,,,,,,2022-10-27,1,,,,,タイゾナル,0
1111,5120103004897,新規,0,2022-10-27,2022-10-27,合同会社マエダ,,合同会社,大阪府,堺市堺区,向陵西町１丁５番５号,,27,141,5900026,,,,,,,2022-10-27,1,,,,,マエダ,0
1116,5120901046661,新規,0,2022-10-27,2022-10-27,ＬＵＣＩＡＺ株式会社,,株式会社,大阪府,箕面市,瀬川３丁目４番１４号マテリアル瀬川５０６号,,27,220,5620045,,,,,,,2022-10-27,1,,,,,ルシアス,0
1119,5122001036337,新規,0,2022-10-27,2022-10-27,株式会社アップライト,,株式会社,大阪府,東大阪市,西石切町３丁目６番１８号竹中ビル３０６号室,,27,227,5798013,,,,,,,2022-10-27,1,,,,,アップライト,0
1125,5130005016619,新規,0,2022-10-27,2022-10-27,一般財団法人孟宗山保存会,,その他の設立登記法人,京都府,京都市中京区,烏丸通四条上る笋町６８６番地,,26,104,6048153,,,,,,,2022-10-27,1,,,,,モウソウヤマホゾンカイ,0
1138,5160003002717,新規,0,2022-10-27,2022-10-27,合同会社Ｌａｎ　Ｄｏｍ,,合同会社,滋賀県,湖南市,石部南８丁目４番１８－１０３号,,25,211,5203108,,,,,,,2022-10-27,1,,,,,ランダム,0
1143,5180001153502,新規,0,2022-10-27,2022-10-27,株式会社ＡＲＯ,,株式会社,愛知県,名古屋市中区,栄２丁目１２番２８号,,23,106,4600008,,,,,,,2022-10-27,1,,,,,エーアールオー,0
1144,5180001153527,新規,0,2022-10-27,2022-10-27,株式会社ＲＥＧＡＬＯ,,株式会社,愛知県,一宮市,浅井町河端字広畑６７番地４,,23,203,4910111,,,,,,,2022-10-27,1,,,,,レガロ,0
1149,5180003024395,新規,0,2022-10-27,2022-10-27,合同会社Ｒ．Ｓ．Ｔ,,合同会社,愛知県,名古屋市熱田区,伝馬１丁目７番１２号,,23,109,4560034,,,,,,,2022-10-27,1,,,,,アールエスティー,0
1154,5180303005491,新規,0,2022-10-27,2022-10-27,合同会社トランルージュ,,合同会社,愛知県,豊川市,国府町清水９番地の７,,23,207,4420854,,,,,,,2022-10-27,1,,,,,トランルージュ,0
1161,5190005011754,新規,0,2022-10-27,2022-10-27,特定非営利活動法人地域資源ネットワークみえ,,その他の設立登記法人,三重県,桑名市,筒尾６丁目１１番地７,,24,205,5110901,,,,,,,2022-10-27,1,,,,,チイキシゲンネットワークミエ,0
1165,5200001040573,新規,0,2022-10-27,2022-10-27,株式会社Ｒｏｏｏエンターテイメント,,株式会社,岐阜県,岐阜市,茜部大野２丁目６７番地,,21,201,5008261,,,,,,,2022-10-27,1,,,,,ルーエンターテイメント,0
1170,5240001060543,新規,0,2022-10-27,2022-10-27,ＮＴ‐Ｑ株式会社,,株式会社,広島県,広島市南区,上東雲町３１番３６号,,34,103,7340021,,,,,,,2022-10-27,1,,,,,エヌティーキュー,0
1183,5290001099338,新規,0,2022-10-27,2022-10-27,株式会社ＨＥＡＲＴＳモビリティ,,株式会社,福岡県,福岡市博多区,博多駅前３丁目４番８号,,40,132,8120011,,,,,,,2022-10-27,1,,,,,ハーツモビリティ,0
1184,5290003013065,新規,0,2022-10-27,2022-10-27,合同会社ＮＷＯ,,合同会社,福岡県,福岡市博多区,博多駅前２丁目１２番１６号２Ｆ,,40,132,8120011,,,,,,,2022-10-27,1,,,,,エヌダブリューオー,0
1186,5290801028990,新規,0,2022-10-27,2022-10-27,山王通商株式会社,,株式会社,福岡県,北九州市小倉南区,津田新町１丁目４番３－１２０５号,,40,107,8000227,,,,,,,2022-10-27,1,,,,,サンノウツウショウ,0
1188,5300003001893,新規,0,2022-10-27,2022-10-27,合同会社こでまり,,合同会社,佐賀県,鳥栖市,立石町２０６９番地２２,,41,203,8410075,,,,,,,2022-10-27,1,,,,,コデマリ,0
1195,5330003009562,新規,0,2022-10-27,2022-10-27,合同会社フラワーカンパニー,,合同会社,熊本県,熊本市中央区,帯山１丁目３２番６号,,43,101,8620924,,,,,,,2022-10-27,1,,,,,フラワーカンパニー,0
1196,5340001025115,新規,0,2022-10-27,2022-10-27,株式会社ＪＧＴ,,株式会社,鹿児島県,鹿児島市,上之園町２５番地１５,,46,201,8900052,,,,,,,2022-10-27,1,,,,,ジェイジーティ,0
1204,5370001049177,新規,0,2022-10-27,2022-10-27,株式会社ｅ‐デザイン空間,,株式会社,宮城県,仙台市泉区,泉中央１丁目１４番６－１０１号,,04,105,9813133,,,,,,,2022-10-27,1,,,,,イーデザインクウカン,0
1211,5400001016041,新規,0,2022-10-27,2022-10-27,株式会社陸前高田アメイジングトリップ・ビューロー,,株式会社,岩手県,陸前高田市,高田町字本丸３２３番地４,,03,210,0292205,,,,,,,2022-10-27,1,,,,,リクゼンタカタアメイジングトリップビューロー,0
1212,5420003002590,新規,0,2022-10-27,2022-10-27,合同会社ＴＡＣＨＩＢＡＮＡ,,合同会社,青森県,五所川原市,大字唐笠柳字藤巻４２３,,02,205,0370004,,,,,,,2022-10-27,1,,,,,タチバナ,0
1213,5430003014404,新規,0,2022-10-27,2022-10-27,合同会社マーベリックプラス,,合同会社,北海道,小樽市,稲穂３丁目７番４号,,01,203,0470032,,,,,,,2022-10-27,1,,,,,マーベリックプラス,0
1214,5450001013827,新規,0,2022-10-27,2022-10-27,株式会社サトー電工,,株式会社,北海道,旭川市,春光台四条２丁目７番１８号,,01,204,0718144,,,,,,,2022-10-27,1,,,,,サトーデンコウ,0
1215,5460303000778,新規,0,2022-10-27,2022-10-27,合同会社Ｏｆｆｉｃｅ　ＺＥＲＯ,,合同会社,北海道,網走郡美幌町,字元町５番地の５４,,01,543,0920063,,,,,,,2022-10-27,1,,,,,オフィスゼロ,0
1217,5462503000203,新規,0,2022-10-27,2022-10-27,合同会社ｎａｎｍｏ,,合同会社,北海道,野付郡別海町,上春別栄町１１番地,,01,691,0882724,,,,,,,2022-10-27,1,,,,,ナンモ,0
1218,5500003002913,新規,0,2022-10-27,2022-10-27,リスポーン合同会社,,合同会社,愛媛県,松山市,松末２丁目１５番７号,,38,201,7900915,,,,,,,2022-10-27,1,,,,,リスポーン,0
1231,6010001230399,新規,0,2022-10-27,2022-10-27,株式会社Ｂｅ　ｒｅａｌ,,株式会社,東京都,中央区,日本橋富沢町７番１６号ＴＨＥＧＡＴＥ日本橋人形町４階,,13,102,1030006,,,,,,,2022-10-27,1,,,,,ビーリアル,0
1239,6010401170427,新規,0,2022-10-27,2022-10-27,秩父宮ラグビー場株式会社,,株式会社,東京都,港区,赤坂６丁目５番１１号,,13,103,1070052,,,,,,,2022-10-27,1,,,,,チチブノミヤラグビージョウ,0
1240,6010401170534,新規,0,2022-10-27,2022-10-27,株式会社ままのて,,株式会社,東京都,港区,虎ノ門３丁目１８番１２号,,13,103,1050001,,,,,,,2022-10-27,1,,,,,ママノテ,0
1242,6010403028763,新規,0,2022-10-27,2022-10-27,合同会社ＢＴＯＫ,,合同会社,東京都,港区,白金台４丁目１５－６エヴァーグリーン白金台２０１号,,13,103,1080071,,,,,,,2022-10-27,1,,,,,ビトク,0
1249,6010603009803,新規,0,2022-10-27,2022-10-27,合同会社テラーズ,,合同会社,東京都,江東区,有明１丁目４番２０－１７１６号,,13,108,1350063,,,,,,,2022-10-27,1,,,,,テラーズ,0
1252,6010901051845,新規,0,2022-10-27,2022-10-27,株式会社ＡＬＣＯ,,株式会社,東京都,世田谷区,太子堂３丁目１４番４号Ｂ１Ｆ,,13,112,1540004,,,,,,,2022-10-27,1,,,,,エーエルシーオー,0
1254,6011003015607,新規,0,2022-10-27,2022-10-27,ＬｉｇｈｔＣｌｏｕｄ合同会社,,合同会社,東京都,渋谷区,道玄坂１丁目１０番８号渋谷道玄坂東急ビル２Ｆ－Ｃ,,13,113,1500043,,,,,,,2022-10-27,1,,,,,ライトクラウド,0
1256,6011101100649,新規,0,2022-10-27,2022-10-27,株式会社Ｎｕｔｒｉｏｎｅ　Ｊａｐａｎ,,株式会社,東京都,新宿区,大久保２丁目７番１号大久保フジビル７０１,,13,104,1690072,,,,,,,2022-10-27,1,,,,,ニュートリワンジャパン,0
1257,6011101100673,新規,0,2022-10-27,2022-10-27,株式会社ブラックロック・リサーチ研究所,,株式会社,東京都,新宿区,西新宿３丁目７番１号,,13,104,1600023,,,,,,,2022-10-27,1,,,,,ブラックロックリサーチケンキュウショ,0
1258,6011103012306,新規,0,2022-10-27,2022-10-27,ＣＲＥＡ　ＮＥＸＴ　ＩＮＮＯＶＡＴＩＯＮ合同会社,,合同会社,東京都,新宿区,西新宿７丁目２番６号西新宿Ｋ‐１ビル４階,,13,104,1600023,,,,,,,2022-10-27,1,,,,,クレアネクストイノベーション,0
1263,6011401024630,新規,0,2022-10-27,2022-10-27,株式会社グローブレスキュー,,株式会社,東京都,板橋区,前野町５丁目１５番５号,,13,119,1740063,,,,,,,2022-10-27,1,,,,,グローブレスキュー,0
1267,6011701025733,新規,0,2022-10-27,2022-10-27,株式会社ＫＺＭ・ＷＯＲＬＤ,,株式会社,東京都,江戸川区,瑞江１丁目６２－２－１０２,,13,123,1320011,,,,,,,2022-10-27,1,,,,,ケイゼットエムワールド,0
1287,6020001148698,新規,0,2022-10-27,2022-10-27,株式会社Ｍ＆Ｒ,,株式会社,神奈川県,横浜市青葉区,あかね台１丁目２９番地６,,14,117,2270066,,,,,,,2022-10-27,1,,,,,エムアンドアール,0
1288,6020001148723,新規,0,2022-10-27,2022-10-27,Ｐｒｉｍｕｓ　Ｐａｒｔｎｅｒｓ株式会社,,株式会社,神奈川県,横浜市中区,元町５丁目２０２－１リードシー元町ビル５Ｆ,,14,104,2310861,,,,,,,2022-10-27,1,,,,,プリムスパートナーズ,0
1291,6020003022629,新規,0,2022-10-27,2022-10-27,合同会社つづらぎ,,合同会社,神奈川県,横浜市港北区,菊名２丁目２３番７号,,14,109,2220011,,,,,,,2022-10-27,1,,,,,ツヅラギ,0
1296,6021001077292,新規,0,2022-10-27,2022-10-27,株式会社Ｎｉｃｅ,,株式会社,神奈川県,三浦郡葉山町,長柄６９３番地の１８,,14,301,2400113,,,,,,,2022-10-27,1,,,,,ナイス,0
1299,6021003012297,新規,0,2022-10-27,2022-10-27,合同会社ＡＲＴＥＭＩＳ,,合同会社,神奈川県,大和市,渋谷５丁目２５番地１０ツインリーフ渋谷３０２,,14,213,2420023,,,,,,,2022-10-27,1,,,,,アルテミス,0
1309,6030003020466,新規,0,2022-10-27,2022-10-27,ラポール合同会社,,合同会社,埼玉県,川越市,大字府川９８番地３,,11,201,3500831,,,,,,,2022-10-27,1,,,,,ラポール,0
1322,6040001125588,新規,0,2022-10-27,2022-10-27,中央マネジメントコンサルティング株式会社,,株式会社,千葉県,船橋市,飯山満町２丁目５１７番地１,,12,204,2740822,,,,,,,2022-10-27,1,,,,,チュウオウマネジメントコンサルティング,0
1323,6040001125596,新規,0,2022-10-27,2022-10-27,ＨＹＳ株式会社,,株式会社,千葉県,浦安市,富士見１丁目１４－４７,,12,227,2790043,,,,,,,2022-10-27,1,,,,,エイチワイエス,0
1328,6060001035389,新規,0,2022-10-27,2022-10-27,ＧｕｓｔｏＤｅｖｅｌｏｐｍｅｎｔ株式会社,,株式会社,栃木県,栃木市,片柳町１丁目１５番３２号,,09,203,3280053,,,,,,,2022-10-27,1,,,,,グストデベロップメント,0
1334,6080001025264,新規,0,2022-10-27,2022-10-27,株式会社Ｈｏｃｅｅ,,株式会社,静岡県,静岡市葵区,伝馬町９番地の４,,22,101,4200858,,,,,,,2022-10-27,1,,,,,フォース,0
1339,6080403004642,新規,0,2022-10-27,2022-10-27,合同会社ＩＮＤＥＸ,,合同会社,静岡県,磐田市,豊島１４０３番地１,,22,211,4380047,,,,,,,2022-10-27,1,,,,,インデックス,0
1340,6090001017822,新規,0,2022-10-27,2022-10-27,株式会社魚宝,,株式会社,山梨県,甲斐市,万才１５０番地３,,19,210,4000114,,,,,,,2022-10-27,1,,,,,ウオホウ,0
1341,6110001037066,新規,0,2022-10-27,2022-10-27,株式会社グラス,,株式会社,新潟県,新潟市中央区,女池神明２丁目３番地８,,15,103,9500943,,,,,,,2022-10-27,1,,,,,グラス,0
1351,6120101066427,新規,0,2022-10-27,2022-10-27,株式会社ｔ．ｔ．ｏ,,株式会社,大阪府,堺市東区,大美野１５８番地３７,,27,143,5998126,,,,,,,2022-10-27,1,,,,,ティーティーオー,0
1356,6120905006388,新規,0,2022-10-27,2022-10-27,特定非営利活動法人日本重症患者ジェット機搬送ネットワーク,,その他の設立登記法人,大阪府,吹田市,岸部新町６－１国立研究開発法人国立循環器病センター内,,27,205,5640018,,,,,,,2022-10-27,1,,,,,ニホンジュウショウカンジャジェットキハンソウネットワーク,0
1366,6140001127822,新規,0,2022-10-27,2022-10-27,株式会社泰工業,,株式会社,兵庫県,神戸市垂水区,潮見が丘１丁目２番２８－６０２号,,28,108,6550005,,,,,,,2022-10-27,1,,,,,ヤスコウギョウ,0
1380,6180001153526,新規,0,2022-10-27,2022-10-27,笑和技研株式会社,,株式会社,愛知県,春日井市,牛山町１７５８番地１３,,23,206,4860901,,,,,,,2022-10-27,1,,,,,ショウワギケン,0
1385,6180003024386,新規,0,2022-10-27,2022-10-27,合同会社グレープツリー,,合同会社,愛知県,名古屋市東区,泉１丁目３番４３号,,23,102,4610001,,,,,,,2022-10-27,1,,,,,グレープツリー,0
1388,6180301036752,新規,0,2022-10-27,2022-10-27,運成株式会社,,株式会社,愛知県,岡崎市,宇頭町字長合８番地１,,23,202,4440905,,,,,,,2022-10-27,1,,,,,ウンセイ,0
1394,6190003004123,新規,0,2022-10-27,2022-10-27,音乃家合同会社,,合同会社,三重県,三重郡川越町,大字豊田１６３０番地,,24,344,5108122,,,,,,,2022-10-27,1,,,,,オトノイエ,0
1395,6200001040597,新規,0,2022-10-27,2022-10-27,株式会社Ｆａｓｃｉａウェルネス,,株式会社,岐阜県,岐阜市,鷺山１５６６,,21,201,5020851,,,,,,,2022-10-27,1,,,,,ファシアウェルネス,0
1396,6210001019137,新規,0,2022-10-27,2022-10-27,株式会社ふらふ,,株式会社,福井県,今立郡池田町,東俣第１４号１６番地,,18,382,9102533,,,,,,,2022-10-27,1,,,,,フラフ,0
1403,6240001060559,新規,0,2022-10-27,2022-10-27,かなわ海産株式会社,,株式会社,広島県,江田島市,大柿町深江１４５３番地２０,,34,215,7372214,,,,,,,2022-10-27,1,,,,,カナワカイサン,0
1406,6260001037349,新規,0,2022-10-27,2022-10-27,株式会社共進工業,,株式会社,岡山県,倉敷市,連島町西之浦９４７－１,,33,202,7128001,,,,,,,2022-10-27,1,,,,,キョウシンコウギョウ,0
1407,6270001008654,新規,0,2022-10-27,2022-10-27,株式会社ｃｒａｙｂｅａｔｓ,,株式会社,鳥取県,鳥取市,吉成９３番地２１,,31,201,6800864,,,,,,,2022-10-27,1,,,,,クレイビーツ,0
1413,6290001099329,新規,0,2022-10-27,2022-10-27,株式会社小島,,株式会社,福岡県,福岡市城南区,七隈１丁目７番１５号グリンヒルズ城南ＩＩ１０９号,00128270,40,136,8140133,,,,,,,2022-10-27,1,,,,,コジマ,0
1414,6290001099345,新規,0,2022-10-27,2022-10-27,株式会社昭工業,,株式会社,福岡県,糟屋郡須惠町,大字植木１６８－１,,40,344,8112112,,,,,,,2022-10-27,1,,,,,アキコウギョウ,0
1415,6290003013106,新規,0,2022-10-27,2022-10-27,合同会社マイスタイル,,合同会社,福岡県,福岡市早良区,有田２丁目１０番５０号,,40,137,8140033,,,,,,,2022-10-27,1,,,,,マイスタイル,0
1435,6430001087748,新規,0,2022-10-27,2022-10-27,株式会社コンラッド,,株式会社,北海道,札幌市豊平区,西岡二条１４丁目６番１０号,,01,105,0620032,,,,,,,2022-10-27,1,,,,,コンラッド,0
1439,6450001013826,新規,0,2022-10-27,2022-10-27,株式会社セキュアスタッフ,,株式会社,北海道,旭川市,一条通８丁目５４２番地４,,01,204,0700031,,,,,,,2022-10-27,1,,,,,セキュアスタッフ,0
1446,6500001024553,新規,0,2022-10-27,2022-10-27,三愛ネクスト株式会社,,株式会社,愛媛県,松山市,高井町７６４番地１,,38,201,7911111,,,,,,,2022-10-27,1,,,,,サンアイネクスト,0
1447,6700150112337,新規,0,2022-10-27,2022-10-27,Ｍ　Ａ　Ｍ　ＢＲＯＴＨＥＲＳ　ＰＶＴ　ＬＴＤ,,外国会社等,千葉県,野田市,大殿井４３８番地,,12,208,2780017,スリランカ民主社会主義共和国、キャンディ、アクラナ、マタレロード、２８９－１Ａ,,,,,,2022-10-27,1,,,,,エムエーエムブラザーズプライベートリミテツド,0
1463,7010401170426,新規,0,2022-10-27,2022-10-27,株式会社今井隆志事務所,,株式会社,東京都,港区,赤坂４丁目１４番１４－４１０６号,,13,103,1070052,,,,,,,2022-10-27,1,,,,,イマイタカシジムショ,0
1464,7010401170442,新規,0,2022-10-27,2022-10-27,株式会社市野,,株式会社,東京都,港区,高輪２丁目１番４号,,13,103,1080074,,,,,,,2022-10-27,1,,,,,イチノ,0
1465,7010401170467,新規,0,2022-10-27,2022-10-27,株式会社Ｒｉｎスタイル,,株式会社,東京都,港区,南青山２丁目２番１５号,,13,103,1070062,,,,,,,2022-10-27,1,,,,,リンスタイル,0
1466,7010401170475,新規,0,2022-10-27,2022-10-27,アルファ・マネジメント株式会社,,株式会社,東京都,港区,三田３丁目１番１号エトワール三田３階,,13,103,1080073,,,,,,,2022-10-27,1,,,,,アルファマネジメント,0
1471,7010603009802,新規,0,2022-10-27,2022-10-27,合同会社ＷＡＫＡＡＡＮ,,合同会社,東京都,江東区,平野４丁目１３番２４－６０１号,,13,108,1350023,,,,,,,2022-10-27,1,,,,,ワカーン,0
1479,7011003015556,新規,0,2022-10-27,2022-10-27,ＣａｐＣａｔ合同会社,,合同会社,東京都,渋谷区,道玄坂１丁目１０番８号渋谷道玄坂東急ビル２Ｆ－Ｃ,,13,113,1500043,,,,,,,2022-10-27,1,,,,,キャップキャット,0
1487,7011103012305,新規,0,2022-10-27,2022-10-27,合同会社Ｈｙｄｒａ８８,,合同会社,東京都,新宿区,新宿２丁目１２番１３号新宿アントレサロンビル２階,,13,104,1600022,,,,,,,2022-10-27,1,,,,,ハイドラエイティーンエイト,0
1491,7011403003805,新規,0,2022-10-27,2022-10-27,合同会社エアコンサポート工房,,合同会社,東京都,板橋区,大山町３７番２,,13,119,1730023,,,,,,,2022-10-27,1,,,,,エアコンサポートコウボウ,0
1495,7011701025732,新規,0,2022-10-27,2022-10-27,Ｆｓ’ａｃｔｉｏｎ株式会社,,株式会社,東京都,江戸川区,南葛西６丁目５番１６号,,13,123,1340085,,,,,,,2022-10-27,1,,,,,エフズアクション,0
1498,7012401039790,新規,0,2022-10-27,2022-10-27,株式会社ＴＹ来福,,株式会社,東京都,三鷹市,中原３丁目１番１９号,,13,204,1810005,,,,,,,2022-10-27,1,,,,,ティワイライフク,0
1515,7020001148706,新規,0,2022-10-27,2022-10-27,株式会社ＡＹＫ,,株式会社,神奈川県,横浜市中区,寿町１丁目１番地８プレシエ横浜石川町１１０２号室,,14,104,2310026,,,,,,,2022-10-27,1,,,,,エーワイケー,0
1522,7021001077275,新規,0,2022-10-27,2022-10-27,株式会社ミリオンネット,,株式会社,神奈川県,相模原市南区,相模台５丁目６番１号,,14,153,2520321,,,,,,,2022-10-27,1,,,,,ミリオンネット,0
1533,7030003020465,新規,0,2022-10-27,2022-10-27,合同会社Ｂブロック,,合同会社,埼玉県,さいたま市浦和区,常盤４丁目１４番１２号７０４号,,11,107,3300061,,,,,,,2022-10-27,1,,,,,ビーブロック,0
1540,7040001125570,新規,0,2022-10-27,2022-10-27,クレス株式会社,,株式会社,千葉県,市原市,新巻３７７番地,,12,219,2900212,,,,,,,2022-10-27,1,,,,,クレス,0
1541,7040001125595,新規,0,2022-10-27,2022-10-27,株式会社アシスト・ワン,,株式会社,千葉県,千葉市若葉区,みつわ台５丁目１８－１－１１０,,12,104,2640032,,,,,,,2022-10-27,1,,,,,アシストワン,0
1548,7040003021132,新規,0,2022-10-27,2022-10-27,ＨＢフォワード合同会社,,合同会社,千葉県,市原市,平田９１３番地７斉藤ハイツ１０３,,12,219,2900053,,,,,,,2022-10-27,1,,,,,エイチビーフォワード,0
1549,7040003021140,新規,0,2022-10-27,2022-10-27,合同会社Ｔｈｅ　Ｋａｚｕｓａ,,合同会社,千葉県,長生郡一宮町,船頭給１１０－１１,,12,421,2994313,,,,,,,2022-10-27,1,,,,,ザカズサ,0
1550,7040003021149,新規,0,2022-10-27,2022-10-27,合同会社日本レイズ,,合同会社,千葉県,山武市,雨坪６５番地３３,,12,237,2891213,,,,,,,2022-10-27,1,,,,,ニホンレイズ,0
1551,7040003021157,新規,0,2022-10-27,2022-10-27,ＫＹＯＴＯ　ＭＯＴＯＲＳ合同会社,,合同会社,千葉県,大網白里市,みどりが丘１丁目８番地１８,,12,239,2993255,,,,,,,2022-10-27,1,,,,,キョウトモータース,0
1562,7080005007489,新規,0,2022-10-27,2022-10-27,一般社団法人静岡ＵＰ,,その他の設立登記法人,静岡県,静岡市駿河区,栗原１８番６５号,,22,102,4228008,,,,,,,2022-10-27,1,,,,,シズオカアップ,0
1568,7100003006738,新規,0,2022-10-27,2022-10-27,美世源サービス合同会社,,合同会社,長野県,長野市,大字北堀８１４番地,,20,201,3810005,,,,,,,2022-10-27,1,,,,,ミヨゲンサービス,0
1572,7110001037065,新規,0,2022-10-27,2022-10-27,株式会社Ｓｍａｌｌｏｕｔ,,株式会社,新潟県,新潟市中央区,堀之内南１丁目１番２２号坂木ビル１Ｆ,,15,103,9500982,,,,,,,2022-10-27,1,,,,,スモールアウト,0
1583,7120001249717,新規,0,2022-10-27,2022-10-27,Ａｔｔａ　ＡＴ株式会社,,株式会社,大阪府,大阪市中央区,船場中央２丁目１番４号船場センタービル４号館地下一階Ｂ１０８ＲＯＹＡＬＯＦＦＩＣＥ内,,27,128,5410055,,,,,,,2022-10-27,1,,,,,アッタエーティー,0
1584,7120001249790,新規,0,2022-10-27,2022-10-27,羽蕎株式会社,,株式会社,大阪府,大阪市中央区,松屋町９番２０号ローレルステート松屋町１３０２Ｂ,,27,128,5420067,,,,,,,2022-10-27,1,,,,,ウキョウ,0
1585,7120001249808,新規,0,2022-10-27,2022-10-27,株式会社ＴＡＰｍｅｔａｌ,,株式会社,大阪府,大阪市福島区,海老江３丁目１０番１３号,,27,103,5530001,,,,,,,2022-10-27,1,,,,,タップメタル,0
1593,7120101066426,新規,0,2022-10-27,2022-10-27,株式会社米建,,株式会社,大阪府,大阪狭山市,山本北１２９４番地の２,,27,231,5890035,,,,,,,2022-10-27,1,,,,,ヨネケン,0
1596,7120901046651,新規,0,2022-10-27,2022-10-27,株式会社ＱＵＡＮＴＵＭ,,株式会社,大阪府,吹田市,豊津町１２番２４－２０４号,,27,205,5640051,,,,,,,2022-10-27,1,,,,,カンタム,0
1597,7120903004343,新規,0,2022-10-27,2022-10-27,合同会社Ｒｅｖｅ,,合同会社,大阪府,箕面市,桜３丁目１１番２６号,,27,220,5620041,,,,,,,2022-10-27,1,,,,,レイヴ,0
1598,7122001036335,新規,0,2022-10-27,2022-10-27,株式会社大喜,,株式会社,大阪府,東大阪市,若江北町２丁目６番１号,,27,227,5780945,,,,,,,2022-10-27,1,,,,,ダイキ,0
1615,7140001127813,新規,0,2022-10-27,2022-10-27,株式会社坂田商事,,株式会社,兵庫県,尼崎市,東桜木町３７番地,,28,202,6600864,,,,,,,2022-10-27,1,,,,,サカタショウジ,0
1630,7180001153500,新規,0,2022-10-27,2022-10-27,株式会社ＲＧＨｏｍｅ,,株式会社,愛知県,稲沢市,小沢１丁目３番１１号,,23,220,4928212,,,,,,,2022-10-27,1,,,,,アールジーホーム,0
1631,7180001153517,新規,0,2022-10-27,2022-10-27,株式会社イングリッシュバズ,,株式会社,愛知県,東海市,富木島町道才２８番地の１０,,23,222,4760011,,,,,,,2022-10-27,1,,,,,イングリッシュバズ,0
1634,7180301036751,新規,0,2022-10-27,2022-10-27,株式会社明成商会,,株式会社,愛知県,刈谷市,西境町本郷１１０番地１,,23,210,4480006,,,,,,,2022-10-27,1,,,,,メイセイショウカイ,0
1638,7190001029864,新規,0,2022-10-27,2022-10-27,ＦＦコネクションサービス株式会社,,株式会社,三重県,鈴鹿市,神戸地子町２７７番地２,,24,207,5130801,,,,,,,2022-10-27,1,,,,,エフエフコネクションサービス,0
1641,7190003004122,新規,0,2022-10-27,2022-10-27,ＡＮＷ　ＴＲＡＤＩＮＧ合同会社,,合同会社,三重県,亀山市,南崎町７４８番地１,,24,210,5190154,,,,,,,2022-10-27,1,,,,,エーエヌダブリュトレーディング,0
1642,7200001040588,新規,0,2022-10-27,2022-10-27,株式会社柳原板金,,株式会社,岐阜県,瑞穂市,生津天王町２丁目５２番地１,,21,216,5010216,,,,,,,2022-10-27,1,,,,,ヤナギハラバンキン,0
1643,7200001040596,新規,0,2022-10-27,2022-10-27,株式会社山口工業,,株式会社,岐阜県,可児市,土田字富士ノ井１８２８番４８,,21,214,5090206,,,,,,,2022-10-27,1,,,,,ヤマグチコウギョウ,0
1647,7210001019128,新規,0,2022-10-27,2022-10-27,ＤＩＮＯＲＥＸ株式会社,,株式会社,福井県,坂井市,春江町江留下屋敷７２－１,,18,210,9190414,,,,,,,2022-10-27,1,,,,,ディノレックス,0
1648,7210001019136,新規,0,2022-10-27,2022-10-27,株式会社北野左官工業,,株式会社,福井県,越前市,妙法寺町第３６号６番地,,18,209,9150844,,,,,,,2022-10-27,1,,,,,キタノサカンコウギョウ,0
1652,7240001060558,新規,0,2022-10-27,2022-10-27,株式会社毛利電器,,株式会社,広島県,広島市安佐南区,伴東４丁目９番５号,,34,105,7313164,,,,,,,2022-10-27,1,,,,,モウリデンキ,0
1656,7270001008653,新規,0,2022-10-27,2022-10-27,株式会社石装,,株式会社,鳥取県,鳥取市,福部町湯山２８７番地,,31,201,6890105,,,,,,,2022-10-27,1,,,,,セキソウ,0
1665,7290001099336,新規,0,2022-10-27,2022-10-27,株式会社エーネット,,株式会社,福岡県,太宰府市,高雄６丁目２１番８号,,40,221,8180122,,,,,,,2022-10-27,1,,,,,エーネット,0
1678,7350001018009,新規,0,2022-10-27,2022-10-27,株式会社中村ガス電器,,株式会社,宮崎県,延岡市,北浦町古江２５３５番地１,,45,203,8890301,,,,,,,2022-10-27,1,,,,,ナカムラガスデンキ,0
1679,7350003004205,新規,0,2022-10-27,2022-10-27,ＴＳＦ合同会社,,合同会社,宮崎県,小林市,堤３５９６番地,,45,205,8860003,,,,,,,2022-10-27,1,,,,,ティエスエフ,0
1685,7410001013309,新規,0,2022-10-27,2022-10-27,株式会社秋田アグリホープ,,株式会社,秋田県,能代市,河戸川字中西山１１番地１８,,05,202,0160171,,,,,,,2022-10-27,1,,,,,アキタアグリホープ,0
1688,7410003003712,新規,0,2022-10-27,2022-10-27,秋田東京情報システムズ合同会社,,合同会社,秋田県,横手市,朝日が丘４丁目８番１７号,,05,203,0130055,,,,,,,2022-10-27,1,,,,,アキタトウキョウジョウホウシステムズ,0
1692,7430001087739,新規,0,2022-10-27,2022-10-27,株式会社ヘルスギア,,株式会社,北海道,札幌市西区,山の手一条４丁目６番２４号,,01,107,0630001,,,,,,,2022-10-27,1,,,,,ヘルスギア,0
1702,7500001024552,新規,0,2022-10-27,2022-10-27,株式会社ｗｉｔｈ　ｉｎｔｅｇｒｉｔｙ,,株式会社,愛媛県,松山市,南町１丁目１番１号翠松ハイツ２０１号,,38,201,7900856,,,,,,,2022-10-27,1,,,,,ウィズインテグリティー,0
1712,8010001230372,新規,0,2022-10-27,2022-10-27,株式会社Ｔａｍｙ,,株式会社,東京都,中央区,銀座６丁目６番１号,,13,102,1040061,,,,,,,2022-10-27,1,,,,,タミー,0
1713,8010001230397,新規,0,2022-10-27,2022-10-27,株式会社ｓｉｎｓコスメティクス,,株式会社,東京都,中央区,銀座７丁目３番７号ブランエスパ銀座１１階ＴＨＥＳＡＬＯＮＳ内Ｂ区画,,13,102,1040061,,,,,,,2022-10-27,1,,,,,シンズコスメティクス,0
1714,8010003038938,新規,0,2022-10-27,2022-10-27,合同会社ｃａｎｏｐｙ,,合同会社,東京都,中央区,銀座１丁目２２番１１号銀座大竹ビジデンス２階,,13,102,1040061,,,,,,,2022-10-27,1,,,,,キャノピー,0
1724,8010403028786,新規,0,2022-10-27,2022-10-27,合同会社ｋｏｔｏｎ,,合同会社,東京都,港区,南青山２丁目２番１５号,,13,103,1070062,,,,,,,2022-10-27,1,,,,,コトン,0
1727,8010601062059,新規,0,2022-10-27,2022-10-27,友羽株式会社,,株式会社,東京都,江東区,亀戸７丁目３９－５カーサ第一亀戸１０２,,13,108,1360071,,,,,,,2022-10-27,1,,,,,トモハネ,0
1747,8011101100639,新規,0,2022-10-27,2022-10-27,株式会社ｈｉｍｅｙｕｒｉ．,,株式会社,東京都,新宿区,高田馬場１丁目５番２０－１１６号,,13,104,1690075,,,,,,,2022-10-27,1,,,,,ヒメユリ,0
1748,8011101100663,新規,0,2022-10-27,2022-10-27,株式会社ヴィノテック,,株式会社,東京都,新宿区,四谷三栄町１１番４４,,13,104,1600008,,,,,,,2022-10-27,1,,,,,ヴィノテック,0
1753,8011503005337,新規,0,2022-10-27,2022-10-27,合同会社荒川１０２,,合同会社,東京都,荒川区,荒川６丁目１４番７号,,13,118,1160002,,,,,,,2022-10-27,1,,,,,アラカワイチマルニ,0
1756,8011801041455,新規,0,2022-10-27,2022-10-27,株式会社ＴＤＭ　Ｔｒａｄｉｎｇ,,株式会社,東京都,葛飾区,白鳥４丁目８番１８号,,13,122,1250063,,,,,,,2022-10-27,1,,,,,ティーディーエムトレーディング,0
1758,8011803005334,新規,0,2022-10-27,2022-10-27,合同会社ＲｅＭｏｔｅＬｉｆｅ,,合同会社,東京都,足立区,千住関屋町１０番１４―１２０２号,,13,121,1200024,,,,,,,2022-10-27,1,,,,,リモートライフ,0
1773,8020001148688,新規,0,2022-10-27,2022-10-27,株式会社常本興業,,株式会社,神奈川県,川崎市川崎区,渡田新町２丁目８番４号,,14,131,2100844,,,,,,,2022-10-27,1,,,,,ツネモトコウギョウ,0
1774,8020001148696,新規,0,2022-10-27,2022-10-27,株式会社武田空調,,株式会社,神奈川県,横浜市戸塚区,汲沢１丁目２９番１７－４０２号,,14,110,2450061,,,,,,,2022-10-27,1,,,,,タケダクウチョウ,0
1775,8020001148713,新規,0,2022-10-27,2022-10-27,サードリンク株式会社,,株式会社,神奈川県,横浜市瀬谷区,北町３０番地２４,,14,114,2460002,,,,,,,2022-10-27,1,,,,,サードリンク,0
1777,8020003022635,新規,0,2022-10-27,2022-10-27,合同会社ＳｉｌｖｅｒＳｔｒｅａｍ,,合同会社,神奈川県,横浜市西区,北幸１丁目１１番１号水信ビル７階,,14,103,2200004,,,,,,,2022-10-27,1,,,,,シルバーストリーム,0
1806,8030003020464,新規,0,2022-10-27,2022-10-27,合同会社リッジパートナーズ,,合同会社,埼玉県,さいたま市南区,鹿手袋６丁目１４番１１－３０６号,,11,108,3360031,,,,,,,2022-10-27,1,,,,,リッジパートナーズ,0
1811,8040001125594,新規,0,2022-10-27,2022-10-27,株式会社関東エスシーシステム,,株式会社,千葉県,船橋市,駿河台２丁目２９番２０号,,12,204,2730862,,,,,,,2022-10-27,1,,,,,カントウエスシーシステム,0
1815,8050001051864,新規,0,2022-10-27,2022-10-27,株式会社ウイング,,株式会社,茨城県,取手市,新町２丁目２－１７－６０３,,08,217,3020024,,,,,,,2022-10-27,1,,,,,ウイング,0
1833,8120001249807,新規,0,2022-10-27,2022-10-27,ＨＬＤｅｓｉｇｎ株式会社,,株式会社,大阪府,大阪市平野区,加美東２丁目２番９号,,27,126,5470002,,,,,,,2022-10-27,1,,,,,エイチエルデザイン,0
1836,8120101066433,新規,0,2022-10-27,2022-10-27,株式会社Ｍｙ,,株式会社,大阪府,堺市中区,深井沢町２６９１番地１,,27,142,5998236,,,,,,,2022-10-27,1,,,,,マイ,0
1840,8130001072893,新規,0,2022-10-27,2022-10-27,株式会社松籟,,株式会社,京都府,京都市東山区,慈法院庵町５８０－８,,26,105,6050871,,,,,,,2022-10-27,1,,,,,ショウライ,0
1851,8140001127812,新規,0,2022-10-27,2022-10-27,株式会社神戸垂水学校給食サービス,,株式会社,兵庫県,神戸市兵庫区,水木通４丁目１番１号,,28,105,6520802,,,,,,,2022-10-27,1,,,,,コウベタルミガッコウキュウショクサービス,0
1852,8140001127820,新規,0,2022-10-27,2022-10-27,株式会社丹農食品,,株式会社,兵庫県,丹波市,市島町市島３９９－６,,28,223,6694324,,,,,,,2022-10-27,1,,,,,タンノウショクヒン,0
1853,8140001127853,新規,0,2022-10-27,2022-10-27,株式会社アンカサンク,,株式会社,兵庫県,姫路市,井ノ口４４３番地１７,,28,201,6700983,,,,,,,2022-10-27,1,,,,,アンカサンク,0
1859,8160003002714,新規,0,2022-10-27,2022-10-27,合同会社ビズリンク,,合同会社,滋賀県,大津市,長等１丁目２番４３号２０２号室,,25,201,5200046,,,,,,,2022-10-27,1,,,,,ビズリンク,0
1862,8180001153499,新規,0,2022-10-27,2022-10-27,光洋国際貿易株式会社,,株式会社,愛知県,長久手市,五合池１１６クロンド藤が丘４Ｆ,,23,238,4801156,,,,,,,2022-10-27,1,,,,,コウヨウコクサイボウエキ,0
1863,8180001153508,新規,0,2022-10-27,2022-10-27,ＳＨＮ株式会社,,株式会社,愛知県,名古屋市中区,錦３丁目５番３０号,,23,106,4600003,,,,,,,2022-10-27,1,,,,,エスエイチエヌ,0
1864,8180001153516,新規,0,2022-10-27,2022-10-27,Ｘ‐ＰＲＯＳＰＥＣＴ株式会社,,株式会社,愛知県,名古屋市中川区,尾頭橋４丁目１３番７号,,23,110,4540012,,,,,,,2022-10-27,1,,,,,エクスプロスペクト,0
1865,8180001153532,新規,0,2022-10-27,2022-10-27,ＡＮＯ株式会社,,株式会社,愛知県,名古屋市中区,栄２丁目２番１号広小路伏見中駒ビル５Ｆ,,23,106,4600008,,,,,,,2022-10-27,1,,,,,アノ,0
1866,8180001153540,新規,0,2022-10-27,2022-10-27,株式会社ＧＯ,,株式会社,愛知県,名古屋市中区,栄３丁目４番１５号,,23,106,4600008,,,,,,,2022-10-27,1,,,,,ゴー,0
1877,8200001040595,新規,0,2022-10-27,2022-10-27,株式会社メーティス,,株式会社,岐阜県,岐阜市,池田町１丁目４番地,,21,201,5008884,,,,,,,2022-10-27,1,,,,,メーティス,0
1880,8200003005720,新規,0,2022-10-27,2022-10-27,合同会社エヌキャッツ,,合同会社,岐阜県,岐阜市,上土居７４３番地６１,,21,201,5020803,,,,,,,2022-10-27,1,,,,,エヌキャッツ,0
1881,8210001019135,新規,0,2022-10-27,2022-10-27,株式会社ＵＭＩＴＯＭＡ,,株式会社,福井県,福井市,二の宮５丁目１３番２０号,,18,201,9100015,,,,,,,2022-10-27,1,,,,,ウミトマ,0
1886,8240001060549,新規,0,2022-10-27,2022-10-27,株式会社ＫＯＬＯＲ,,株式会社,広島県,広島市佐伯区,五日市中央２丁目９番１号,,34,108,7315128,,,,,,,2022-10-27,1,,,,,コロル,0
1889,8260001037347,新規,0,2022-10-27,2022-10-27,株式会社ｙｋｓｅａ７,,株式会社,岡山県,瀬戸内市,邑久町尾張６４２番地１,,33,212,7014221,,,,,,,2022-10-27,1,,,,,ワイケーシーセブン,0
1890,8260003004080,新規,0,2022-10-27,2022-10-27,吉備中央バイオマス合同会社,,合同会社,岡山県,加賀郡吉備中央町,北９９３番地２,,33,681,7161551,,,,,,,2022-10-27,1,,,,,キビチュウオウバイオマス,0
1891,8270001008652,新規,0,2022-10-27,2022-10-27,マキタハウス株式会社,,株式会社,鳥取県,鳥取市,富安１丁目１４３番地,,31,201,6800845,,,,,,,2022-10-27,1,,,,,マキタハウス,0
1900,8290001099335,新規,0,2022-10-27,2022-10-27,ｂａｓａｌｓｈｏｏｔ株式会社,,株式会社,福岡県,福岡市博多区,比恵町２番３２,,40,132,8120014,,,,,,,2022-10-27,1,,,,,バサルシュート,0
1905,8290003013079,新規,0,2022-10-27,2022-10-27,ＳＯＰＪａｐａｎ合同会社,,合同会社,福岡県,福岡市中央区,天神４丁目６－２８天神ファーストビル７階,,40,133,8100001,,,,,,,2022-10-27,1,,,,,ソップジャパン,0
1906,8290003013104,新規,0,2022-10-27,2022-10-27,合同会社ＳＡＧＡＲ,,合同会社,福岡県,福岡市博多区,美野島２丁目１番３８号,,40,132,8120017,,,,,,,2022-10-27,1,,,,,サーガル,0
1908,8290801028988,新規,0,2022-10-27,2022-10-27,株式会社アンジェリーク,,株式会社,福岡県,北九州市門司区,下馬寄１４番２２－１０２号,,40,101,8000051,,,,,,,2022-10-27,1,,,,,アンジェリーク,0
1909,8290801028996,新規,0,2022-10-27,2022-10-27,株式会社ＮＶＰ,,株式会社,福岡県,京都郡みやこ町,犀川大坂１１９４番地１,,40,625,8240225,,,,,,,2022-10-27,1,,,,,エヌブイピー,0
1910,8290803004236,新規,0,2022-10-27,2022-10-27,合同会社ＮａｋａｍａＥｎｅｒｇｙ,,合同会社,福岡県,中間市,上蓮花寺１丁目２番１号,,40,215,8090013,,,,,,,2022-10-27,1,,,,,ナカマエナジー,0
1912,8310001018093,新規,0,2022-10-27,2022-10-27,株式会社ＯＫＵＭＵＲＡ,,株式会社,長崎県,長崎市,元町３番２３号,,42,201,8500913,,,,,,,2022-10-27,1,,,,,オクムラ,0
1922,8350001018008,新規,0,2022-10-27,2022-10-27,株式会社中村電器,,株式会社,宮崎県,延岡市,北浦町古江２５３５番地１,,45,203,8890301,,,,,,,2022-10-27,1,,,,,ナカムラデンキ,0
1925,8360001031117,新規,0,2022-10-27,2022-10-27,株式会社オレンジキッチン,,株式会社,沖縄県,那覇市,安里２丁目４－１１,,47,201,9020067,,,,,,,2022-10-27,1,,,,,オレンジキッチン,0
1927,8360005006734,新規,0,2022-10-27,2022-10-27,一般社団法人ＲＭコンソーシアム,,その他の設立登記法人,沖縄県,那覇市,銘苅１丁目１７番１３号ＦＬＡＩＲ、ＮＯ．５、２０４,,47,201,9000004,,,,,,,2022-10-27,1,,,,,アールエムコンソーシアム,0
1946,8480001011899,新規,0,2022-10-27,2022-10-27,一将建設株式会社,,株式会社,徳島県,徳島市,佐古二番町１８－２,,36,201,7700022,,,,,,,2022-10-27,1,,,,,イッショウケンセツ,0
1948,8700150112351,新規,0,2022-10-27,2022-10-27,ＸＤ　ＥＮＴＥＲＴＡＩＮＭＥＮＴ　ＰＴＥ．ＬＴＤ．,,外国会社等,東京都,港区,新橋２丁目２０－１５新橋駅前ビル１号館６階ビステーション新橋内,,13,103,1050004,シンガポール共和国、シンガポール市、２３８１６４、サマセットロード１１１、１１１サマセットロード＃０５－０９,,,,,,2022-10-27,1,,,,,エックスディーエンターテインメントピーティーイーリミテッド,0
1954,9010001230405,新規,0,2022-10-27,2022-10-27,株式会社ヴィンセント,,株式会社,東京都,中央区,銀座８丁目５番５号１ＦＡ,,13,102,1040061,,,,,,,2022-10-27,1,,,,,ヴィンセント,0
1956,9010003038904,新規,0,2022-10-27,2022-10-27,キキグループ合同会社,,合同会社,東京都,中央区,銀座１丁目１２番４号Ｎ＆ＥＢＬＤ．６Ｆ,,13,102,1040061,,,,,,,2022-10-27,1,,,,,キキグループ,0
1962,9010401170416,新規,0,2022-10-27,2022-10-27,株式会社ＶＯＩＳＩＮＧ,,株式会社,東京都,港区,浜松町２丁目２番１５号,,13,103,1050013,,,,,,,2022-10-27,1,,,,,ヴォイシング,0
1968,9010701043387,新規,0,2022-10-27,2022-10-27,株式会社ＭＳＹ,,株式会社,東京都,品川区,東品川２丁目３番１２号,,13,109,1400002,,,,,,,2022-10-27,1,,,,,エムエスワイ,0
1980,9011001150452,新規,0,2022-10-27,2022-10-27,株式会社Ｂｒｉｄｇｅ　ｈｏｐｅ,,株式会社,東京都,渋谷区,神宮前６丁目２３－４桑野ビル２階,,13,113,1500001,,,,,,,2022-10-27,1,,,,,ブリッジホープ,0
1981,9011001150519,新規,0,2022-10-27,2022-10-27,ＭａｒｋｅＬｏｎ株式会社,,株式会社,東京都,渋谷区,道玄坂１丁目２番３号渋谷フクラス１７Ｆ,,13,113,1500043,,,,,,,2022-10-27,1,,,,,マケロン,0
1988,9011101100654,新規,0,2022-10-27,2022-10-27,ブライトサイド株式会社,,株式会社,東京都,新宿区,西新宿３丁目３番１３号西新宿水間ビル６階,,13,104,1600023,,,,,,,2022-10-27,1,,,,,ブライトサイド,0
1990,9011103012311,新規,0,2022-10-27,2022-10-27,合同会社オフィスエフ,,合同会社,東京都,新宿区,西新宿６丁目２１－１アイタウンレピア４０３,,13,104,1600023,,,,,,,2022-10-27,1,,,,,オフィスエフ,0
2013,9013101009041,新規,0,2022-10-27,2022-10-27,株式会社Ｇｒｏｏｖｅ　Ｗｏｒｋｓ,,株式会社,東京都,あきる野市,小川東１丁目２０番地４０,,13,228,1970822,,,,,,,2022-10-27,1,,,,,グルーヴワークス,0
2042,9030001150717,新規,0,2022-10-27,2022-10-27,榮順株式会社,,株式会社,埼玉県,川口市,西川口１丁目２６番２５号４０１室,,11,203,3320021,,,,,,,2022-10-27,1,,,,,エイジュン,0
2043,9030001150725,新規,0,2022-10-27,2022-10-27,ブラックエレベーター株式会社,,株式会社,埼玉県,川口市,原町４番１４－４０４号,,11,203,3320025,,,,,,,2022-10-27,1,,,,,ブラックエレベーター,0
2044,9030001150758,新規,0,2022-10-27,2022-10-27,株式会社誠南不動産,,株式会社,埼玉県,さいたま市南区,南浦和３丁目８番８号,,11,108,3360017,,,,,,,2022-10-27,1,,,,,セイナンフドウサン,0
2048,9030003020471,新規,0,2022-10-27,2022-10-27,合同会社ブルーサマー,,合同会社,埼玉県,所沢市,くすのき台２丁目９番地の４エクセレンスくすのき台Ｂ－１０２,,11,208,3590037,,,,,,,2022-10-27,1,,,,,ブルーサマー,0
2050,9030005021047,新規,0,2022-10-27,2022-10-27,医療法人松喜会,,その他の設立登記法人,埼玉県,久喜市,久喜中央４丁目９番１１号イトーヨーカドー久喜店５階,,11,232,3460003,,,,,,,2022-10-27,1,,,,,マツキカイ,0
2054,9040001125593,新規,0,2022-10-27,2022-10-27,株式会社盛弘,,株式会社,千葉県,印西市,武西学園台１丁目３番地１－６１０号,,12,231,2701355,,,,,,,2022-10-27,1,,,,,モリヒロ,0
2055,9040003020990,新規,0,2022-10-27,2022-10-27,合同会社ＡＫ,,合同会社,千葉県,市川市,田尻４丁目１番２６号,,12,203,2720014,,,,,,,2022-10-27,1,,,,,エーケー,0
2056,9040003021139,新規,0,2022-10-27,2022-10-27,合同会社さんたく堂,,合同会社,千葉県,松戸市,新松戸３丁目２８９番地ＳＢＣ第一ビル２階,,12,207,2700034,,,,,,,2022-10-27,1,,,,,サンタクドウ,0
2073,9110003004895,新規,0,2022-10-27,2022-10-27,合同会社エスバイジー,,合同会社,新潟県,燕市,燕６５番地１,,15,213,9591288,,,,,,,2022-10-27,1,,,,,エスバイジー,0
2082,9120001249772,新規,0,2022-10-27,2022-10-27,マルユキ株式会社,,株式会社,大阪府,大阪市鶴見区,横堤１丁目１１番４５号アットニーズＧＳＹビル１Ｆ,,27,124,5380052,,,,,,,2022-10-27,1,,,,,マルユキ,0
2083,9120001249789,新規,0,2022-10-27,2022-10-27,日本和昶株式会社,,株式会社,大阪府,大阪市中央区,松屋町９番２０号ローレルステート松屋町１３０７Ａ,,27,128,5420067,,,,,,,2022-10-27,1,,,,,ニホンワチョウ,0
2084,9120001249822,新規,0,2022-10-27,2022-10-27,株式会社ＢＭＰ,,株式会社,大阪府,大阪市北区,梅田２丁目５番２５号,,27,127,5300001,,,,,,,2022-10-27,1,,,,,ビーエムピー,0
2088,9120101066432,新規,0,2022-10-27,2022-10-27,株式会社唯電設,,株式会社,大阪府,岸和田市,南上町１丁目４９番３６号,,27,202,5960078,,,,,,,2022-10-27,1,,,,,ユイデンセツ,0
2101,9130003008267,新規,0,2022-10-27,2022-10-27,合同会社ＨＩＴ,,合同会社,京都府,向日市,上植野町下川原２９番地の１４,,26,208,6170006,,,,,,,2022-10-27,1,,,,,ヒット,0
2124,9180001153498,新規,0,2022-10-27,2022-10-27,豊山インダストリー株式会社,,株式会社,愛知県,西春日井郡豊山町,大字豊場字野田９６番地８,,23,342,4800202,,,,,,,2022-10-27,1,,,,,トヨヤマインダストリー,0
2125,9180001153507,新規,0,2022-10-27,2022-10-27,株式会社Ｒｅ　Ｆｉｎｅ,,株式会社,愛知県,名古屋市守山区,川宮町２７４番地,,23,113,4630081,,,,,,,2022-10-27,1,,,,,リファイン,0
2126,9180001153531,新規,0,2022-10-27,2022-10-27,株式会社ＹＫ,,株式会社,愛知県,春日井市,長塚町１丁目１２８番地１,,23,206,4860934,,,,,,,2022-10-27,1,,,,,ワイケー,0
2127,9180001153548,新規,0,2022-10-27,2022-10-27,株式会社ｐｕｂｌｉｃ　ｇａｒｄｅｎ,,株式会社,愛知県,名古屋市南区,三条１丁目１番２２号Ｈ棟,,23,112,4570866,,,,,,,2022-10-27,1,,,,,パブリックガーデン,0
2131,9180003024391,新規,0,2022-10-27,2022-10-27,合同会社Ｔｏｒｒａ　Ｔｏｒｒａ,,合同会社,愛知県,小牧市,大字村中池之面１３６８－１（ＶＩＬＬＡＮＯＶＡ小牧１階）,,23,219,4850082,,,,,,,2022-10-27,1,,,,,トハトハ,0
2141,9200001040586,新規,0,2022-10-27,2022-10-27,株式会社Ｈｅｒｅｔｉｃ,,株式会社,岐阜県,各務原市,鵜沼羽場町３丁目７０番地,,21,213,5090135,,,,,,,2022-10-27,1,,,,,ヘレティック,0
2147,9220001025107,新規,0,2022-10-27,2022-10-27,Ｃａｒｌｏｃａｔｅ株式会社,,株式会社,石川県,金沢市,高尾台４丁目１１８番地,,17,201,9218155,,,,,,,2022-10-27,1,,,,,カーロケート,0
2156,9290001099202,新規,0,2022-10-27,2022-10-27,株式会社テイクアクション,,株式会社,福岡県,福岡市博多区,博多駅東３丁目６－３３－１４０５,,40,132,8120013,,,,,,,2022-10-27,1,,,,,テイクアクション,0
2157,9290001099342,新規,0,2022-10-27,2022-10-27,株式会社上津保険サービス,,株式会社,福岡県,久留米市,上津町２５３８番地６,,40,203,8300052,,,,,,,2022-10-27,1,,,,,カミツホケンサービス,0
2158,9290001099350,新規,0,2022-10-27,2022-10-27,株式会社トムズ,,株式会社,福岡県,大野城市,御笠川４丁目３番１６号,,40,219,8160912,,,,,,,2022-10-27,1,,,,,トムズ,0
2162,9290003013111,新規,0,2022-10-27,2022-10-27,合同会社ＪＤＭ　ＩＮＴＥＲＮＡＴＩＯＮＡＬ,,合同会社,福岡県,福津市,奴山９６３番地,,40,224,8113522,,,,,,,2022-10-27,1,,,,,ジェイディーエムインターナショナル,0
2163,9290005018835,新規,0,2022-10-27,2022-10-27,一般社団法人サンパワー,,その他の設立登記法人,福岡県,福岡市城南区,片江５丁目１番４５号,,40,136,8140142,,,,,,,2022-10-27,1,,,,,サンパワー,0
2164,9290801028987,新規,0,2022-10-27,2022-10-27,株式会社ＰｒｏｖｉｃＢｉｚ,,株式会社,福岡県,北九州市八幡西区,藤田１丁目１番２２－１１０２号,,40,109,8060022,,,,,,,2022-10-27,1,,,,,プロビックビズ,0
2166,9310001018092,新規,0,2022-10-27,2022-10-27,株式会社さら事務所,,株式会社,長崎県,佐世保市,日宇町６９１番地ロイヤルリバーサイド４０２号,,42,202,8571151,,,,,,,2022-10-27,1,,,,,サラジムショ,0
2172,9350001018007,新規,0,2022-10-27,2022-10-27,株式会社ＳＯＬ,,株式会社,宮崎県,宮崎市,大字小松９９１－１－２０３号室,,45,201,8802112,,,,,,,2022-10-27,1,,,,,ソル,0
2173,9350005006107,新規,0,2022-10-27,2022-10-27,特定非営利活動法人ぼくんちへおいでよ,,その他の設立登記法人,宮崎県,宮崎市,大島町原ノ島１６３３番地５,,45,201,8800824,,,,,,,2022-10-27,1,,,,,ボクンチヘオイデヨ,0
2189,9390001017054,新規,0,2022-10-27,2022-10-27,株式会社ライブエイド,,株式会社,山形県,新庄市,若葉町１番１７号,,06,205,9960025,,,,,,,2022-10-27,1,,,,,ライブエイド,0
2194,9430001087737,新規,0,2022-10-27,2022-10-27,株式会社ＴＭＳ,,株式会社,北海道,苫小牧市,ときわ町４丁目２１－１１,,01,213,0591261,,,,,,,2022-10-27,1,,,,,ティーエムエス,0
2195,9430001087745,新規,0,2022-10-27,2022-10-27,アーバン管財株式会社,,株式会社,北海道,札幌市中央区,南六条東２丁目４番１号プリエ南６条６階,,01,101,0600056,,,,,,,2022-10-27,1,,,,,アーバンカンザイ,0
2198,9480001011898,新規,0,2022-10-27,2022-10-27,ヨシミ建設株式会社,,株式会社,徳島県,徳島市,川内町沖島５番地８,,36,201,7710142,,,,,,,2022-10-27,1,,,,,ヨシミケンセツ,0
