sequenceNumber,corporateNumber,process,correct,updateDate,changeDate,name,nameImageId,kind,prefectureName,cityName,streetNumber,addressImageId,prefectureCode,cityCode,postCode,addressOutside,addressOutsideImageId,closeDate,closeCause,successorCorporateNumber,changeCause,assignmentDate,latest,enName,enPrefectureName,enCityName,enAddressOutside,furigana,hihyoji
17,1010401093764,登記記録の閉鎖等,0,2025-04-07,2025-03-12,ビヨンド株式会社,,株式会社,東京都,港区,赤坂４丁目２番６号,,13,103,1070052,,,2025-03-12,清算の結了等,,,2015-10-05,1,,,,,ビヨンド,0
23,1010403020717,登記記録の閉鎖等,0,2025-04-07,2025-03-11,合同会社事業人,,合同会社,東京都,港区,六本木７丁目２－２９ＶＯＲＴ乃木坂Ｉ５０１号室,00130184,13,103,1060032,,,2025-03-11,合併による解散等,1011001149584,令和７年３月１日東京都港区六本木七丁目２－２９ＶＯＲＴ乃木坂Ｉ５０１号室株式会社事業人（1011001149584）に合併し解散,2019-05-24,1,,,,,ジギョウジン,0
39,1011001133844,登記記録の閉鎖等,0,2025-04-07,2025-03-06,株式会社ゼロエディット,,株式会社,東京都,目黒区,中町２丁目５０番１３号ザ・ピーク３Ａ,,13,110,1530065,,,2025-03-06,清算の結了等,,,2020-05-26,1,,,,,ゼロエディット,0
55,1011201021824,登記記録の閉鎖等,0,2025-04-07,2025-03-21,Ｍａｘｗｅｌｌ　Ｊａｐａｎ株式会社,,株式会社,東京都,立川市,錦町３丁目１番１６号中野ＬＫビル２０２,,13,202,1900022,,,2025-03-21,清算の結了等,,,2019-12-02,1,,,,,マックスウェルジャパン,0
107,1040001063215,登記記録の閉鎖等,0,2025-04-07,2025-03-26,株式会社マルミフーズ,,株式会社,千葉県,銚子市,川口町１丁目２０８１番地,,12,202,2880001,,,2025-03-26,清算の結了等,,,2015-10-05,1,,,,,マルミフーズ,0
132,1080005007263,登記記録の閉鎖等,0,2025-04-07,2025-03-31,特定非営利活動法人まつおか,,その他の設立登記法人,静岡県,榛原郡川根本町,徳山８３３番３,,22,429,4280301,,,2025-03-31,清算の結了等,,,2020-01-28,1,,,,,マツオカ,0
135,1080401006067,登記記録の閉鎖等,0,2025-04-07,2025-04-01,富士協同運輸株式会社,,株式会社,静岡県,湖西市,鷲津２４１８番地,,22,221,4310431,,,2025-04-01,合併による解散等,2080401005943,令和７年４月１日静岡県湖西市鷲津２４１８番地株式会社ウエストレイク（2080401005943）に合併し解散,2015-10-05,1,,,,,フジキョウドウウンユ,0
141,1100002034349,登記記録の閉鎖等,0,2025-04-07,2025-03-31,有限会社羽場下建設,,有限会社,長野県,上伊那郡宮田村,３７７４番地,,20,388,3994301,,,2025-03-31,清算の結了等,,,2015-10-05,1,,,,,ハバシタケンセツ,0
178,1140001099257,登記記録の閉鎖等,0,2025-04-07,2025-04-01,テンダーバンク株式会社,,株式会社,兵庫県,神戸市東灘区,深江北町３丁目９番１１号,,28,101,6580013,,,2025-04-01,合併による解散等,4140001099519,令和７年４月１日神戸市東灘区深江北町三丁目９番１１号ＫＬ＆Ｂ株式会社（4140001099519）に合併し解散,2015-10-05,1,,,,,テンダーバンク,0
183,1140001108950,登記記録の閉鎖等,0,2025-04-07,2025-03-31,株式会社Ｄホールディングス,,株式会社,兵庫県,明石市,野々上３丁目８番地７,,28,203,6730017,,,2025-03-31,清算の結了等,,,2018-01-26,1,,,,,ディーホルディングス,0
191,1140003017299,登記記録の閉鎖等,0,2025-04-07,2025-04-01,合同会社ジェベナ,,合同会社,兵庫県,神戸市灘区,烏帽子町３丁目１番１６号,,28,102,6570042,,,2025-04-01,清算の結了等,,,2022-02-02,1,,,,,ジェベナ,0
219,1190001024581,登記記録の閉鎖等,0,2025-04-07,2025-03-27,株式会社Ｋ２,,株式会社,三重県,四日市市,大字末永１０８２番地１,,24,202,5100813,,,2025-03-27,合併による解散等,5190001024561,令和７年３月２７日三重県三重郡菰野町大字千草３９８９株式会社Ｋ２工事（5190001024561）に合併し解散,2017-04-20,1,,,,,ケイツー,0
238,1250005005068,登記記録の閉鎖等,0,2025-04-07,2025-04-02,ツルガハマ商業協同組合,,その他の設立登記法人,山口県,周南市,大字櫛ヶ浜４５７番地の１,,35,215,7450805,,,2025-04-02,清算の結了等,,,2015-10-05,1,,,,,ツルガハマショウギョウ,0
239,1260001000039,登記記録の閉鎖等,0,2025-04-07,2025-03-31,旭車輛工業株式会社,,株式会社,岡山県,岡山市北区,西古松西町５番５号,,33,101,7000926,,,2025-03-31,合併による解散等,9260001000048,令和７年３月３１日岡山市北区西古松西町５番５号旭タクシー株式会社（9260001000048）に合併し解散,2015-10-05,1,,,,,アサヒシャリョウコウギョウ,0
246,1280002001182,登記記録の閉鎖等,0,2025-04-07,2025-04-01,有限会社伸洋工業,,有限会社,島根県,松江市,黒田町８７番地４,,32,201,6900876,,,2025-04-01,合併による解散等,2280001000143,令和７年４月１日島根県松江市島根町加賀１１５２番地３株式会社ヨムラ（2280001000143）に合併し解散,2015-10-05,1,,,,,シンヨウコウギョウ,0
248,1280003001611,登記記録の閉鎖等,0,2025-04-07,2025-04-04,合同会社アーチブック,,合同会社,島根県,松江市,学園南２丁目２－３ポレスター松江学園通り５０２号室,,32,201,6900826,,,2025-04-04,清算の結了等,,,2022-05-10,1,,,,,アーチブック,0
268,1320001010997,登記記録の閉鎖等,0,2025-04-07,2025-04-01,雄一商事相互株式会社,,株式会社,大分県,中津市,大字永添２７６５番地６０,,44,203,8710162,,,2025-04-01,清算の結了等,,,2015-10-05,1,,,,,,0
269,1320002000956,登記記録の閉鎖等,0,2025-04-07,2025-04-04,有限会社インテグラ,,有限会社,大分県,大分市,大字津守１０１番地の６プレミールＫＩＺＵ,,44,201,8700945,,,2025-04-04,清算の結了等,,,2015-10-05,1,,,,,,0
286,1360005003069,登記記録の閉鎖等,0,2025-04-07,2025-03-31,一般社団法人トラムで未来をつくる会,,その他の設立登記法人,沖縄県,那覇市,銘苅２丁目４番４６ＹＹマリンデンタル内,,47,201,9000004,,,2025-03-31,清算の結了等,,,2015-10-05,1,,,,,トラムデミライヲツクルカイ,0
310,2010001146070,登記記録の閉鎖等,0,2025-04-07,2025-03-26,株式会社自由メディア,,株式会社,東京都,千代田区,神田猿楽町１丁目４番８号松村ビル４階,,13,101,1010064,,,2025-03-26,清算の結了等,,,2015-10-05,1,,,,,ジユウメディア,0
322,2010002050718,登記記録の閉鎖等,0,2025-04-07,2025-04-01,有限会社エム・ケー・ケー・リアルティ,,有限会社,東京都,品川区,上大崎３丁目１番１号目黒セントラルスクエア１５階,,13,109,1410021,,,2025-04-01,合併による解散等,1010703007406,令和７年４月１日東京都品川区上大崎三丁目１番１号目黒セントラルスクエア１５階ふじろく合同会社（1010703007406）に合併し解散,2015-10-05,1,,,,,エムケーケーリアルティ,0
323,2010003030470,登記記録の閉鎖等,0,2025-04-07,2025-03-26,合同会社ＬＩＧＮＵＭ,,合同会社,東京都,中央区,日本橋１丁目４番１号,,13,102,1030027,,,2025-03-26,清算の結了等,,,2019-08-27,1,,,,,リグナム,0
339,2010405018238,登記記録の閉鎖等,0,2025-04-07,2025-04-03,ＪＤＰ３ロジスティック特定目的会社,,その他の設立登記法人,東京都,中央区,八重洲２丁目２番１号,,13,102,1040028,,,2025-04-03,清算の結了等,,,2019-11-13,1,,,,,ジェーディーピースリーロジスティック,0
343,2010701039524,登記記録の閉鎖等,0,2025-04-07,2025-03-26,Ｖｉｒｏｎ　Ｊａｐａｎ株式会社,,株式会社,東京都,品川区,西五反田３丁目１３番６号,,13,109,1410031,,,2025-03-26,合併による解散等,5010701039166,令和７年３月１日東京都品川区西五反田三丁目１３番６号ＫＪホールディングス株式会社（5010701039166）に合併し解散,2020-07-14,1,,,,,バイロンジャパン,0
389,2020002100067,登記記録の閉鎖等,0,2025-04-07,2025-03-25,有限会社和実,,有限会社,神奈川県,川崎市多摩区,登戸２６９８番地,,14,135,2140014,,,2025-03-25,清算の結了等,,,2015-10-05,1,,,,,カズミ,0
396,2021001041525,登記記録の閉鎖等,0,2025-04-07,2025-04-02,株式会社ジーティ商会,,株式会社,神奈川県,逗子市,小坪２丁目４番１５号,,14,208,2490008,,,2025-04-02,清算の結了等,,,2015-10-05,1,,,,,ジーティショウカイ,0
401,2021002026442,登記記録の閉鎖等,0,2025-04-07,2025-04-01,有限会社ツインファーマシー,,有限会社,東京都,北区,王子１丁目１３番１４号,,13,117,1140002,,,2025-04-01,清算の結了等,,,2015-10-05,1,,,,,ツインファーマシー,0
404,2021005010443,登記記録の閉鎖等,0,2025-04-07,2025-04-02,ＮＰＯ法人神奈川空家管理組合,,その他の設立登記法人,神奈川県,藤沢市,湘南台２丁目１８番地１,,14,205,2520804,,,2025-04-02,清算の結了等,,,2015-11-18,1,,,,,カナガワアキヤカンリクミアイ,0
409,2030001144634,登記記録の閉鎖等,0,2025-04-07,2025-03-31,株式会社エステック,,株式会社,埼玉県,川口市,本蓮２丁目６番７号,,11,203,3340076,,,2025-03-31,清算の結了等,,,2021-10-06,1,,,,,エステック,0
426,2040001006197,登記記録の閉鎖等,0,2025-04-07,2025-03-28,花澤綜合企画株式会社,,株式会社,千葉県,千葉市緑区,土気町４０１番地,,12,105,2670061,,,2025-03-28,清算の結了等,,,2015-10-05,1,,,,,,0
427,2040001006874,登記記録の閉鎖等,0,2025-04-07,2025-03-27,株式会社峯徳建設,,株式会社,千葉県,千葉市花見川区,幕張本郷２丁目２７番９号,,12,102,2620033,,,2025-03-27,清算の結了等,,,2015-10-05,1,,,,,,0
429,2040001030065,登記記録の閉鎖等,0,2025-04-07,2025-03-25,株式会社モビック,,株式会社,千葉県,浦安市,北栄３丁目３４番２５－４０１号,,12,227,2790002,,,2025-03-25,清算の結了等,,,2015-10-05,1,,,,,モビック,0
434,2040001102632,登記記録の閉鎖等,0,2025-04-07,2025-03-31,株式会社フォックスビット,,株式会社,埼玉県,三郷市,早稲田７丁目３５番地３２,,11,237,3410018,,,2025-03-31,清算の結了等,,,2017-12-04,1,,,,,フォックスビット,0
451,2080101006358,登記記録の閉鎖等,0,2025-04-07,2025-04-01,株式会社ゆう企画,,株式会社,静岡県,三島市,八反畑１１７番地の１,,22,206,4110817,,,2025-04-01,合併による解散等,9080101015609,令和７年４月１日静岡県三島市八反畑１１７番地の１株式会社鈴木工務店（9080101015609）に合併し解散,2015-10-05,1,,,,,ユウキカク,0
461,2120001109891,登記記録の閉鎖等,0,2025-04-07,2025-04-01,株式会社ベスタイル,,株式会社,大阪府,大阪市中央区,本町橋８番７号フジタビル３０１号,,27,128,5400029,,,2025-04-01,清算の結了等,,,2015-10-05,1,,,,,ベスタイル,0
475,2120002065069,登記記録の閉鎖等,0,2025-04-07,2025-03-26,有限会社三木総合研究所,,有限会社,大阪府,大阪市中央区,久太郎町２丁目３番８号,,27,128,5410056,,,2025-03-26,清算の結了等,,,2015-10-05,1,,,,,ミキソウゴウケンキュウショ,0
489,2130002024973,登記記録の閉鎖等,0,2025-04-07,2025-04-03,有限会社三河屋,,有限会社,京都府,長岡京市,柴の里１番地の１３８,,26,209,6170818,,,2025-04-03,清算の結了等,,,2015-10-05,1,,,,,ミカワヤ,0
530,2220001017630,登記記録の閉鎖等,0,2025-04-07,2025-03-31,株式会社ツバタオート,,株式会社,石川県,河北郡津幡町,字加茂い３８番地,,17,361,9290321,,,2025-03-31,清算の結了等,,,2015-10-05,1,,,,,ツバタオート,0
567,2330001012100,登記記録の閉鎖等,0,2025-04-07,2025-03-31,株式会社ＧＳＲＥ,,株式会社,熊本県,玉名郡長洲町,大字清源寺３８０番地,,43,368,8690105,,,2025-03-31,清算の結了等,,,2015-10-05,1,,,,,ジーエスアールイー,0
575,2350002004689,登記記録の閉鎖等,0,2025-04-07,2025-04-01,有限会社宮崎給湯プラン,,有限会社,宮崎県,宮崎市,大字本郷北方２４８８番地１４,,45,201,8800925,,,2025-04-01,合併による解散等,6350001004694,令和７年４月１日宮崎市大字本郷北方２４８８番地１４株式会社ＭＫプラント（6350001004694）に合併し解散,2015-10-05,1,,,,,ミヤザキキュウトウプラン,0
590,2400005005282,登記記録の閉鎖等,0,2025-04-07,2025-04-01,一般財団法人みちのく愛隣協会,,その他の設立登記法人,岩手県,盛岡市,大沢川原３丁目２番３７号,,03,201,0200025,,,2025-04-01,合併による解散等,9400005008460,令和７年４月１日岩手県盛岡市大沢川原三丁目２番３７号一般社団法人みちのく愛隣協会（9400005008460）に合併し解散,2015-10-05,1,,,,,ミチノクアイリンキョウカイ,0
607,2460105002216,登記記録の閉鎖等,0,2025-04-07,2025-03-31,一般社団法人十勝しみず物産振興機構,,その他の設立登記法人,北海道,上川郡清水町,字御影４９９番地８,,01,636,0890357,,,2025-03-31,清算の結了等,,,2021-04-27,1,,,,,トカチシミズブッサンシンコウキコウ,0
610,2490001001599,登記記録の閉鎖等,0,2025-04-07,2025-04-01,東洋興産株式会社,,株式会社,高知県,高知市,潮新町２丁目１２番５号,,39,201,7818008,,,2025-04-01,合併による解散等,1490001004272,令和７年４月１日高知市萩町二丁目２番２５号株式会社東洋ビジネスソリューションズ（1490001004272）に合併し解散,2015-10-05,1,,,,,トウヨウコウサン,0
626,3010003036863,登記記録の閉鎖等,0,2025-04-07,2025-03-25,名古屋マネージメント合同会社,,合同会社,東京都,千代田区,丸の内１丁目１１番１号,,13,101,1000005,,,2025-03-25,清算の結了等,,,2022-01-27,1,,,,,ナゴヤマネージメント,0
638,3010401149647,登記記録の閉鎖等,0,2025-04-07,2025-03-14,株式会社ヒナタオエナジー,,株式会社,東京都,港区,海岸１丁目５番２０号,,13,103,1050022,,,2025-03-14,清算の結了等,,,2019-12-09,1,,,,,ヒナタオエナジー,0
650,3010405017783,登記記録の閉鎖等,0,2025-04-07,2025-04-03,平塚ツインシティ３特定目的会社,,その他の設立登記法人,東京都,中央区,八重洲２丁目２番１号,,13,102,1040028,,,2025-04-03,清算の結了等,,,2019-06-19,1,,,,,ヒラツカツインシティスリー,0
673,3011103008488,登記記録の閉鎖等,0,2025-04-07,2025-03-27,合同会社ＫＫコンサルティング,,合同会社,東京都,調布市,入間町１丁目３８番地９３,,13,208,1820004,,,2025-03-27,清算の結了等,,,2019-01-11,1,,,,,ケーケーコンサルティング,0
681,3011401023057,登記記録の閉鎖等,0,2025-04-07,2025-03-21,株式会社ｐａｐａｒ’ｓ,,株式会社,東京都,板橋区,弥生町１０番９号,,13,119,1730021,,,2025-03-21,清算の結了等,,,2020-12-23,1,,,,,パパーズ,0
687,3011503005283,登記記録の閉鎖等,0,2025-04-07,2025-03-31,ＳＥＣ合同会社,,合同会社,埼玉県,川口市,西川口１丁目４－１西川口パークハウス３０６号室,,11,203,3320021,,,2025-03-31,清算の結了等,,,2022-09-09,1,,,,,エスイーシー,0
688,3011505001132,登記記録の閉鎖等,0,2025-04-07,2025-03-31,特定非営利活動法人ＭＪ－Ｍｕｓｉｃ,,その他の設立登記法人,東京都,北区,滝野川１丁目１番１２－１０２号,,13,117,1140023,,,2025-03-31,清算の結了等,,,2015-10-05,1,,,,,,0
721,3030002041053,登記記録の閉鎖等,0,2025-04-07,2025-03-31,有限会社清見屋,,有限会社,埼玉県,加須市,不動岡２丁目６番４５号,,11,210,3470054,,,2025-03-31,清算の結了等,,,2015-10-05,1,,,,,キヨミヤ,0
726,3040001025031,登記記録の閉鎖等,0,2025-04-07,2025-03-28,株式会社長野技業,,株式会社,千葉県,船橋市,飯山満町２丁目５１７番地２－５０２号,,12,204,2740822,,,2025-03-28,清算の結了等,,,2015-10-05,1,,,,,ナガノギギョウ,0
728,3040001104330,登記記録の閉鎖等,0,2025-04-07,2025-03-27,株式会社若葉物産,,株式会社,千葉県,千葉市若葉区,中田町１１０９番地４,,12,104,2650043,,,2025-03-27,清算の結了等,,,2018-04-17,1,,,,,,0
730,3040001132975,登記記録の閉鎖等,0,2025-04-07,2025-03-27,ＫＨキャリングズ株式会社,,株式会社,千葉県,印西市,中央南２丁目２番地２－８１２号,,12,231,2701340,,,2025-03-27,清算の結了等,,,2024-04-09,1,,,,,ケーエイチキャリングズ,0
765,3110005016382,登記記録の閉鎖等,0,2025-04-07,2025-03-31,一般社団法人からし種の会後援会,,その他の設立登記法人,新潟県,新潟市西区,西有明町２番５号,,15,107,9502071,,,2025-03-31,清算の結了等,,,2019-04-10,1,,,,,カラシダネノカイコウエンカイ,0
784,3120003010576,登記記録の閉鎖等,0,2025-04-07,2025-03-31,京合同会社,,合同会社,長野県,松本市,蟻ケ崎台２０番２－２３３号,,20,202,3900867,,,2025-03-31,清算の結了等,,,2015-10-05,1,,,,,ケイ,0
785,3120101005949,登記記録の閉鎖等,0,2025-04-07,2025-03-31,日本建託株式会社,,株式会社,大阪府,堺市中区,東山１１１４番地,,27,142,5998247,,,2025-03-31,清算の結了等,,,2015-10-05,1,,,,,ニホンケンタク,0
823,3180005018018,登記記録の閉鎖等,0,2025-04-07,2025-03-31,一般社団法人セルフプロデュース協会,,その他の設立登記法人,愛知県,名古屋市中村区,名駅３丁目２０番２０号名駅錦ビル６Ｆ,,23,105,4500002,,,2025-03-31,清算の結了等,,,2018-10-31,1,,,,,セルフプロデュースキョウカイ,0
835,3220001024642,登記記録の閉鎖等,0,2025-04-07,2025-04-01,株式会社インテグラルウェルネス,,株式会社,石川県,金沢市,二口町ハ１５番地８,,17,201,9200051,,,2025-04-01,合併による解散等,9220001023151,令和７年４月１日石川県金沢市二口町ハ１５番地８株式会社インテグラルウェルフェア（9220001023151）に合併し解散,2022-01-13,1,,,,,インテグラルウェルネス,0
852,3260002031452,登記記録の閉鎖等,0,2025-04-07,2025-03-28,有限会社野崎建設,,有限会社,岡山県,瀬戸内市,邑久町尾張８４５番地,,33,212,7014221,,,2025-03-28,清算の結了等,,,2015-10-05,1,,,,,ノザキケンセツ,0
853,3270002000324,登記記録の閉鎖等,0,2025-04-07,2025-04-01,有限会社エムエイ,,有限会社,鳥取県,鳥取市,栄町７０８番地,,31,201,6800831,,,2025-04-01,合併による解散等,1270001000822,令和７年４月１日鳥取市戎町４１３番地株式会社吉田一陽堂薬局（1270001000822）に合併し解散,2015-10-05,1,,,,,エムエイ,0
856,3290001026509,登記記録の閉鎖等,0,2025-04-07,2025-03-25,株式会社ステップ,,株式会社,福岡県,福岡市博多区,博多駅東１丁目１番１６号第２高田ビル,,40,132,8120013,,,2025-03-25,清算の結了等,,,2015-10-05,1,,,,,,0
909,3460301005062,登記記録の閉鎖等,0,2025-04-07,2025-04-04,株式会社スマイルサポートゆたか,,株式会社,北海道,北見市,東陵町１４０番地２７,,01,208,0900061,,,2025-04-04,清算の結了等,,,2022-05-09,1,,,,,スマイルサポートユタカ,0
918,4010001007717,登記記録の閉鎖等,0,2025-04-07,2025-03-13,株式会社宮田・田中建築研究所,,株式会社,東京都,港区,新橋２丁目２０番１５号新橋駅前ビル１号館９２１号室,,13,103,1050004,,,2025-03-13,清算の結了等,,,2015-10-05,1,,,,,ミヤタタナカケンチクケンキュウジョ,0
927,4010001164839,登記記録の閉鎖等,0,2025-04-07,2025-03-31,株式会社ＴＳＳマリン,,株式会社,東京都,江東区,豊洲６丁目６番２号,,13,108,1350061,,,2025-03-31,清算の結了等,,,2015-10-05,1,,,,,ティーエスエスマリン,0
957,4010403027412,登記記録の閉鎖等,0,2025-04-07,2025-03-13,ＲＢソーラーヒル合同会社,,合同会社,東京都,港区,虎ノ門３丁目２２番１０－２０１号,,13,103,1050001,,,2025-03-13,清算の結了等,,,2022-04-07,1,,,,,アールビーソーラーヒル,0
961,4010405017403,登記記録の閉鎖等,0,2025-04-07,2025-03-13,一般社団法人ＣＲＥＭＬファンド１,,その他の設立登記法人,東京都,港区,虎ノ門３丁目２２番１０－２０１号,,13,103,1050001,,,2025-03-13,清算の結了等,,,2019-01-28,1,,,,,シーアールイーエムエルファンドワン,0
962,4010505002040,登記記録の閉鎖等,0,2025-04-07,2025-03-26,特定非営利活動法人リサイクル羅針盤,,その他の設立登記法人,東京都,台東区,竜泉３丁目３９番６号,,13,106,1100012,,,2025-03-26,清算の結了等,,,2015-10-05,1,,,,,,0
966,4010601064777,登記記録の閉鎖等,0,2025-04-07,2025-03-31,株式会社ＰＲＯＶＩＥ,,株式会社,秋田県,秋田市,外旭川字神田８６８,,05,201,0100802,,,2025-03-31,清算の結了等,,,2024-03-08,1,,,,,プロヴィー,0
971,4010902017707,登記記録の閉鎖等,0,2025-04-07,2025-04-02,有限会社岸コンサルティング,,有限会社,東京都,世田谷区,宮坂３丁目３番１１号,,13,112,1560051,,,2025-04-02,清算の結了等,,,2015-10-05,1,,,,,,0
976,4011001161751,登記記録の閉鎖等,0,2025-04-07,2025-03-06,株式会社ＧＥＪ,,株式会社,東京都,渋谷区,恵比寿４丁目７番１５号,,13,113,1500013,,,2025-03-06,清算の結了等,,,2024-05-09,1,,,,,ジーイージェー,0
1000,4012405000520,登記記録の閉鎖等,0,2025-04-07,2025-02-25,医療法人社団芦谷医院,00059644,その他の設立登記法人,東京都,国分寺市,西恋ヶ窪２丁目１７番地１４（１階）,,13,214,1850013,,,2025-02-25,清算の結了等,,,2015-10-05,1,,,,,アシヤイイン,0
1019,4020002105675,登記記録の閉鎖等,0,2025-04-07,2025-03-28,有限会社アベイユプロダクト,,有限会社,神奈川県,川崎市麻生区,高石４丁目１７番１号,,14,137,2150003,,,2025-03-28,清算の結了等,,,2015-10-05,1,,,,,アベイユプロダクト,0
1027,4021002045201,登記記録の閉鎖等,0,2025-04-07,2025-04-01,諏訪警備保障有限会社,,有限会社,神奈川県,海老名市,国分南１丁目３番８号,,14,215,2430405,,,2025-04-01,清算の結了等,,,2015-10-05,1,,,,,スワケイビホショウ,0
1028,4021002051612,登記記録の閉鎖等,0,2025-04-07,2025-04-02,有限会社熊井商事,,有限会社,神奈川県,小田原市,桑原８５６番地１,,14,206,2500861,,,2025-04-02,清算の結了等,,,2015-10-05,1,,,,,クマイショウジ,0
1043,4030003017200,登記記録の閉鎖等,0,2025-04-07,2025-03-31,合同会社佐藤,,合同会社,埼玉県,幸手市,北２丁目４番６号,,11,240,3400111,,,2025-03-31,清算の結了等,,,2021-04-28,1,,,,,サトウ,0
1044,4030003018454,登記記録の閉鎖等,0,2025-04-07,2025-03-31,合同会社ＵＵＧＡ,,合同会社,埼玉県,深谷市,黒田８９５,,11,218,3691244,,,2025-03-31,清算の結了等,,,2021-12-08,1,,,,,ウーガ,0
1050,4040001099256,登記記録の閉鎖等,0,2025-04-07,2025-03-27,株式会社元気リフォーム,,株式会社,千葉県,船橋市,習志野台１丁目６－７－２１６号室,,12,204,2740063,,,2025-03-27,清算の結了等,,,2017-03-10,1,,,,,ゲンキリフォーム,0
1056,4040002065802,登記記録の閉鎖等,0,2025-04-07,2025-03-26,エムクリックジャパン有限会社,,有限会社,千葉県,四街道市,池花２丁目１９番５号,,12,228,2840014,,,2025-03-26,清算の結了等,,,2015-10-05,1,,,,,エムクリックジャパン,0
1062,4040005013832,登記記録の閉鎖等,0,2025-04-07,2025-03-27,学校法人エーデル学園,,その他の設立登記法人,千葉県,我孫子市,泉２４番３２号,,12,222,2701142,,,2025-03-27,清算の結了等,,,2015-10-05,1,,,,,エーデルガクエン,0
1066,4060001029145,登記記録の閉鎖等,0,2025-04-07,2025-03-31,株式会社譜久寅,,株式会社,栃木県,栃木市,城内町１丁目８番１２号,,09,203,3280033,,,2025-03-31,清算の結了等,,,2017-03-03,1,,,,,フクトラ,0
1078,4100002014769,登記記録の閉鎖等,0,2025-04-07,2025-03-31,有限会社丸山造花店,,有限会社,長野県,上田市,中央６丁目１２番８号,,20,203,3860012,,,2025-03-31,清算の結了等,,,2015-10-05,1,,,,,マルヤマゾウカテン,0
1098,4120002039194,登記記録の閉鎖等,0,2025-04-07,2025-04-01,有限会社ユニバーサル・ランゲージ,,有限会社,大阪府,大阪市西区,南堀江２丁目４－７朝日プラザ西道頓堀３０７号,,27,106,5500015,,,2025-04-01,清算の結了等,,,2015-10-05,1,,,,,ユニバーサルランゲージ,0
1099,4120002054565,登記記録の閉鎖等,0,2025-04-07,2025-04-01,有限会社アクシス,,有限会社,大阪府,大阪市中央区,本町橋８番７号フジタビル３０１号,,27,128,5400029,,,2025-04-01,清算の結了等,,,2015-10-05,1,,,,,アクシス,0
1133,4140001121694,登記記録の閉鎖等,0,2025-04-07,2025-04-01,株式会社ポテトスタイル,,株式会社,兵庫県,宝塚市,栄町３丁目１０番１２－１１１４号,,28,214,6650845,,,2025-04-01,清算の結了等,,,2021-05-25,1,,,,,ポテトスタイル,0
1153,4180001099275,登記記録の閉鎖等,0,2025-04-07,2025-03-17,株式会社Ｔ．Ｐ．マテリアル,,株式会社,愛知県,海部郡飛島村,木場１丁目７４番地,,23,427,4901444,,,2025-03-17,合併による解散等,8180301016967,令和７年３月１日愛知県刈谷市野田町馬池３番地１東海トレーディング株式会社（8180301016967）に合併し解散,2015-10-05,1,,,,,ティーピーマテリアル,0
1163,4180301015700,登記記録の閉鎖等,0,2025-04-07,2025-03-31,株式会社加藤白地,,株式会社,愛知県,高浜市,二池町３丁目２番地１,,23,227,4441322,,,2025-03-31,清算の結了等,,,2015-10-05,1,,,,,カトウシラジ,0
1177,4210001012928,登記記録の閉鎖等,0,2025-04-07,2025-04-03,サンアイ技研株式会社,,株式会社,福井県,鯖江市,神中町２丁目３番１２号,,18,207,9160016,,,2025-04-03,清算の結了等,,,2015-10-05,1,,,,,サンアイギケン,0
1189,4240005000265,登記記録の閉鎖等,0,2025-04-07,2025-04-04,正覚寺,,その他の設立登記法人,広島県,広島市西区,天満町３番１３号,,34,104,7330022,,,2025-04-04,清算の結了等,,,2015-10-05,1,,,,,,0
1239,4430005014568,登記記録の閉鎖等,0,2025-04-07,2025-04-01,特定非営利活動法人愛犬本舗,,その他の設立登記法人,北海道,札幌市白石区,川下２７２７番地１７,,01,104,0030869,,,2025-04-01,清算の結了等,,,2022-09-29,1,,,,,アイケンホンポ,0
1247,5010001168161,登記記録の閉鎖等,0,2025-04-07,2025-03-31,株式会社ＯＲＢ,,株式会社,埼玉県,さいたま市岩槻区,美園東１丁目２０番地９,,11,110,3390028,,,2025-03-31,清算の結了等,,,2015-10-05,1,,,,,オーブ,0
1248,5010001189050,登記記録の閉鎖等,0,2025-04-07,2025-04-01,佐保管財株式会社,,株式会社,兵庫県,加東市,佐保３５番,,28,228,6731447,,,2025-04-01,清算の結了等,,,2018-01-18,1,,,,,,0
1261,5010005023924,登記記録の閉鎖等,0,2025-04-07,2025-03-28,司法書士法人いたばし事務所,,その他の設立登記法人,東京都,板橋区,徳丸３丁目１番３号第二石井ビル２階,,13,119,1750083,,,2025-03-28,清算の結了等,,,2015-10-05,1,,,,,イタバシジムショ,0
1262,5010101001890,登記記録の閉鎖等,0,2025-04-07,2025-04-03,株式会社スポーツライフ連盟,,株式会社,東京都,八王子市,椚田町５１２番地の１２,,13,201,1930942,,,2025-04-03,清算の結了等,,,2015-10-05,1,,,,,,0
1272,5010405017955,登記記録の閉鎖等,0,2025-04-07,2025-03-28,一般社団法人日本ラオス友好協会,,その他の設立登記法人,東京都,港区,浜松町１丁目２－１２Ｆ－１ビル５Ｆ,,13,103,1050013,,,2025-03-28,清算の結了等,,,2019-08-23,1,,,,,ニホンラオスユウコウキョウカイ,0
1273,5010405019621,登記記録の閉鎖等,0,2025-04-07,2025-04-03,八尾１ロジスティック特定目的会社,,その他の設立登記法人,東京都,中央区,八重洲２丁目２番１号,,13,102,1040028,,,2025-04-03,清算の結了等,,,2021-03-24,1,,,,,ヤオワンロジスティック,0
1274,5010405020901,登記記録の閉鎖等,0,2025-04-07,2025-03-13,ＲＢソーラーヒルホールディングス一般社団法人,,その他の設立登記法人,東京都,港区,虎ノ門３丁目２２番１０－２０１号,,13,103,1050001,,,2025-03-13,清算の結了等,,,2022-04-06,1,,,,,アールビーソーラーヒルホールディングス,0
1279,5010701014763,登記記録の閉鎖等,0,2025-04-07,2025-03-26,株式会社ティアンドティ,,株式会社,東京都,大田区,大森北１丁目２１番７－５０２号,,13,111,1430016,,,2025-03-26,清算の結了等,,,2015-10-05,1,,,,,ティアンドティ,0
1305,5011501025026,登記記録の閉鎖等,0,2025-04-07,2025-03-31,株式会社恒希,,株式会社,東京都,荒川区,町屋７丁目１番１１号,,13,118,1160001,,,2025-03-31,清算の結了等,,,2019-08-08,1,,,,,コウキ,0
1306,5011502003328,登記記録の閉鎖等,0,2025-04-07,2025-04-01,有限会社関元商店,,有限会社,東京都,北区,赤羽台３丁目１番１８号,,13,117,1150053,,,2025-04-01,清算の結了等,,,2015-10-05,1,,,,,セキモトショウテン,0
1311,5011701020966,登記記録の閉鎖等,0,2025-04-07,2025-04-01,株式会社ＺＡＧＡＢＩ,,株式会社,東京都,江戸川区,船堀２丁目１５番１３号,,13,123,1340091,,,2025-04-01,合併による解散等,2011701016752,令和７年４月１日東京都江戸川区船堀二丁目１５番１３号株式会社エス・エス・ビー（2011701016752）に合併し解散,2017-06-23,1,,,,,ザガビ,0
1314,5011703003440,登記記録の閉鎖等,0,2025-04-07,2025-03-24,合同会社エンゲージ,,合同会社,東京都,新宿区,西新宿３丁目３－１３西新宿水間ビル６Ｆ,,13,104,1600023,,,2025-03-24,清算の結了等,,,2023-04-13,1,,,,,エンゲージ,0
1330,5013303000479,登記記録の閉鎖等,0,2025-04-07,2025-03-31,株式会社大和瓦商事,,株式会社,東京都,板橋区,大谷口２丁目６５番９号,,13,119,1730035,,,2025-03-31,清算の結了等,,,2015-10-05,1,,,,,ヤマトカワラショウジ,0
1334,5020001084606,登記記録の閉鎖等,0,2025-04-07,2025-03-26,株式会社ミートファーム,,株式会社,東京都,大田区,蒲田１丁目２４番１６－１０１号,,13,111,1440052,,,2025-03-26,清算の結了等,,,2015-10-05,1,,,,,ミートファーム,0
1339,5020001141076,登記記録の閉鎖等,0,2025-04-07,2025-03-31,株式会社横浜プランニング,,株式会社,神奈川県,横浜市中区,長者町４丁目１１－７齋藤ビル５０１,,14,104,2310033,,,2025-03-31,清算の結了等,,,2021-04-30,1,,,,,ヨコハマプランニング,0
1356,5030001095627,登記記録の閉鎖等,0,2025-04-07,2025-04-01,株式会社タキザワ製薬,,株式会社,埼玉県,さいたま市見沼区,大字片柳８６４番地１,,11,104,3370024,,,2025-04-01,合併による解散等,2030001005002,令和７年４月１日埼玉県さいたま市見沼区片柳８６４番地１ＴＫ製薬株式会社（2030001005002）に合併し解散,2015-10-05,1,,,,,タキザワセイヤク,0
1371,5040001108296,登記記録の閉鎖等,0,2025-04-07,2025-03-26,株式会社湯浅建設工業,,株式会社,千葉県,松戸市,串崎新田９番地３,,12,207,2702216,,,2025-03-26,清算の結了等,,,2019-03-11,1,,,,,ユアサケンセツコウギョウ,0
1386,5080401001907,登記記録の閉鎖等,0,2025-04-07,2025-04-01,株式会社イシイプランニング,,株式会社,静岡県,浜松市中央区,新橋町３９７番地,,22,138,4328058,,,2025-04-01,合併による解散等,9080401000426,令和７年４月１日浜松市中央区新橋町３９７番地株式会社イシイ（9080401000426）に合併し解散,2015-10-05,1,,,,,イシイプランニング,0
1389,5080401024684,登記記録の閉鎖等,0,2025-04-07,2025-04-01,アルハウス株式会社,,株式会社,静岡県,浜松市中央区,飯田町５０７番地,,22,138,4350028,,,2025-04-01,合併による解散等,3080401002717,令和７年４月１日静岡県浜松市中央区砂山町３２５番地の２０しずなび株式会社（3080401002717）に合併し解散,2020-11-18,1,,,,,アルハウス,0
1393,5100001029825,登記記録の閉鎖等,0,2025-04-07,2025-03-31,株式会社ＫＡＫＵＲＥＧＡ,,株式会社,長野県,長野市,大字栗田２１７２番地長野東口Ｓビル２－Ｂ,,20,201,3800921,,,2025-03-31,清算の結了等,,,2016-12-02,1,,,,,カクレガ,0
1396,5120001022729,登記記録の閉鎖等,0,2025-04-07,2025-04-01,株式会社おか,,株式会社,大阪府,大東市,明美の里町１番７１号,,27,218,5740003,,,2025-04-01,合併による解散等,9122001015015,令和７年４月１日大阪府大東市明美の里町１番７１号株式会社アカカベ（9122001015015）に合併し解散,2015-10-05,1,,,,,オカ,0
1398,5120001111548,登記記録の閉鎖等,0,2025-04-07,2025-04-01,株式会社平成コーポレーション,,株式会社,大阪府,大阪市中央区,南本町２丁目２番９号,,27,128,5410054,,,2025-04-01,清算の結了等,,,2015-10-05,1,,,,,ヘイセイコーポレーション,0
1399,5120001168803,登記記録の閉鎖等,0,2025-04-07,2025-04-01,株式会社ケーティアドバンス,,株式会社,大阪府,大阪市淀川区,新高６丁目１４番７－１１０３号,,27,123,5320033,,,2025-04-01,清算の結了等,,,2015-10-05,1,,,,,ケーティアドバンス,0
1409,5120002054564,登記記録の閉鎖等,0,2025-04-07,2025-04-01,株式会社リベロ,,株式会社,大阪府,大阪市中央区,本町橋８番７号フジタビル３０１号,,27,128,5400029,,,2025-04-01,清算の結了等,,,2015-10-05,1,,,,,リベロ,0
1422,5130003005425,登記記録の閉鎖等,0,2025-04-07,2025-04-02,合同会社はなまる,,合同会社,京都府,京都市上京区,衣棚通下立売下る門跡町２８７番地２,,26,102,6028028,,,2025-04-02,清算の結了等,,,2018-03-05,1,,,,,ハナマル,0
1423,5130003009310,登記記録の閉鎖等,0,2025-04-07,2025-04-01,合同会社ＣＲＯＷＮ,,合同会社,京都府,京都市上京区,東堀川通中立売下る一町目１７番地３,,26,102,6028064,,,2025-04-01,合併による解散等,6130001068803,令和７年４月１日京都市上京区東堀川通下立売上る四町目１９７番地株式会社ＮＩＸ（6130001068803）に合併し解散,2024-02-19,1,,,,,クラウン,0
1454,5190001005470,登記記録の閉鎖等,0,2025-04-07,2025-04-01,柳河産業株式会社,,株式会社,三重県,亀山市,和田町１０１２番地,,24,210,5190102,,,2025-04-01,合併による解散等,6012401000670,令和７年４月１日三重県亀山市和田町１０１２番地柳河物流株式会社（6012401000670）に合併し解散,2015-10-05,1,,,,,ヤナガワサンギョウ,0
1464,5220001020128,登記記録の閉鎖等,0,2025-04-07,2025-04-01,シンコールアイル株式会社,,株式会社,石川県,金沢市,直江町イ１２番地,,17,201,9208216,,,2025-04-01,合併による解散等,2220001003250,令和７年４月１日石川県金沢市直江町イ１２番地シンコール株式会社（2220001003250）に合併し解散,2015-10-05,1,,,,,シンコールアイル,0
1501,5320001010944,登記記録の閉鎖等,0,2025-04-07,2025-03-28,フジホーム株式会社,,株式会社,大分県,中津市,大字蛎瀬８１５番地の１,,44,203,8710007,,,2025-03-28,清算の結了等,,,2015-10-05,1,,,,,フジホーム,0
1506,5330002002304,登記記録の閉鎖等,0,2025-04-07,2025-03-31,有限会社カマノ商会,,有限会社,熊本県,熊本市北区,鶴羽田４丁目１２番５６号,,43,105,8615517,,,2025-03-31,清算の結了等,,,2015-10-05,1,,,,,カマノショウカイ,0
1525,5390002003726,登記記録の閉鎖等,0,2025-04-07,2025-03-28,有限会社山形チャイルド社,00084866,有限会社,山形県,米沢市,東２丁目７番６号,,06,202,9920026,,,2025-03-28,清算の結了等,,,2015-10-05,1,,,,,ヤマガタチャイルドシャ,0
1526,5400002002800,登記記録の閉鎖等,0,2025-04-07,2025-03-26,株式会社ヒバリ,,株式会社,東京都,千代田区,丸の内３丁目４番１号,,13,101,1000005,,,2025-03-26,清算の結了等,,,2015-10-05,1,,,,,ヒバリ,0
1540,5460005000250,登記記録の閉鎖等,0,2025-04-07,2025-04-01,釧路魚商業協同組合,,その他の設立登記法人,北海道,釧路市,新富士町６丁目１番３号,,01,206,0840904,,,2025-04-01,清算の結了等,,,2015-10-05,1,,,,,クシロサカナ,0
1548,6000020409413,登記記録の閉鎖等,0,2025-04-07,2025-03-31,田川地区清掃施設組合,,地方公共団体,福岡県,田川郡川崎町,大字川崎３４１９－３,,40,605,8270003,,,2025-03-31,その他の清算の結了等,,,2015-10-05,1,Tagawa Area Cleaning Institution Association,Fukuoka,"3419-3, Oaza Kawasaki, kawasaki machi, Tagawa gun",,タガワチクセイソウシセツクミアイ,0
1561,6010003001641,登記記録の閉鎖等,0,2025-04-07,2025-03-27,株式会社太田商店,,株式会社,東京都,文京区,湯島２丁目２９番３号,,13,105,1130034,,,2025-03-27,清算の結了等,,,2015-10-05,1,,,,,オオタショウテン,0
1573,6010403015506,登記記録の閉鎖等,0,2025-04-07,2025-03-14,Ｐｒｉｎｃｅ　Ｌｉｏｎｈｅａｒｔ　Ｊａｐａｎ合同会社,,合同会社,東京都,港区,赤坂２丁目１４番５号Ｄａｉｗａ赤坂ビル４階,,13,103,1070052,,,2025-03-14,清算の結了等,,,2016-10-24,1,,,,,プリンスライオンハートジャパン,0
1576,6010405018795,登記記録の閉鎖等,0,2025-04-07,2025-04-03,ＪＤＰ３ロジスティック４特定目的会社,,その他の設立登記法人,東京都,中央区,八重洲２丁目２番１号,,13,102,1040028,,,2025-04-03,清算の結了等,,,2020-06-03,1,,,,,ジェイディーピースリーロジスティックフォー,0
1577,6010405019620,登記記録の閉鎖等,0,2025-04-07,2025-04-03,八尾２ロジスティック特定目的会社,,その他の設立登記法人,東京都,中央区,八重洲２丁目２番１号,,13,102,1040028,,,2025-04-03,清算の結了等,,,2021-03-24,1,,,,,ヤオツーロジスティック,0
1589,6010801010331,登記記録の閉鎖等,0,2025-04-07,2025-03-25,株式会社フィールドセントラル,,株式会社,東京都,大田区,下丸子１丁目３番９号,,13,111,1460092,,,2025-03-25,合併による解散等,9010801010361,令和６年１１月１日東京都大田区下丸子一丁目３番８号ＪＭＳ株式会社（9010801010361）に合併し解散,2015-10-05,1,,,,,フィールドセントラル,0
1602,6011001109154,登記記録の閉鎖等,0,2025-04-07,2025-03-28,株式会社さわやかリサーチ,,株式会社,東京都,中央区,日本橋茅場町３丁目１０番９号,,13,102,1030025,,,2025-03-28,清算の結了等,,,2016-01-20,1,,,,,サワヤカリサーチ,0
1603,6011001110541,登記記録の閉鎖等,0,2025-04-07,2025-03-04,株式会社ＡＤＶＥＮＴ　ＭＵＳＥ,,株式会社,東京都,目黒区,上目黒５丁目３番７号,,13,110,1530051,,,2025-03-04,清算の結了等,,,2016-04-20,1,,,,,アドベントミューズ,0
1632,6012801021341,登記記録の閉鎖等,0,2025-04-07,2025-03-21,ＦＤＤ株式会社,,株式会社,東京都,立川市,錦町３丁目１番１６号中野ＬＫビル２０２,,13,202,1900022,,,2025-03-21,清算の結了等,,,2022-01-19,1,,,,,エフディーディー,0
1634,6012803002414,登記記録の閉鎖等,0,2025-04-07,2025-03-21,合同会社永田さん家,,合同会社,東京都,日野市,豊田４丁目２４番地の１５,,13,212,1910053,,,2025-03-21,清算の結了等,,,2020-12-21,1,,,,,ナガタサンチ,0
1635,6013301044931,登記記録の閉鎖等,0,2025-04-07,2025-03-05,株式会社アクセル,,株式会社,東京都,豊島区,西池袋１丁目４番１０号,,13,116,1710021,,,2025-03-05,合併による解散等,3010001109761,令和７年３月１日東京都豊島区西池袋一丁目４番１０号株式会社ハイホー（3010001109761）に合併し解散,2019-12-10,1,,,,,アクセル,0
1638,6020001090652,登記記録の閉鎖等,0,2025-04-07,2025-03-27,カールスジュニアジャパン株式会社,,株式会社,東京都,中央区,京橋３丁目１－１,,13,102,1040031,,,2025-03-27,清算の結了等,,,2015-10-05,1,,,,,カールスジュニアジャパン,0
1641,6020001155562,登記記録の閉鎖等,0,2025-04-07,2025-03-28,株式会社Ｍｙ　Ｌｉｔｔｌｅ　Ｆａｒｍ,,株式会社,神奈川県,横浜市西区,浅間町１丁目４番地３ウィザードビル４０２,,14,103,2200072,,,2025-03-28,清算の結了等,,,2024-01-30,1,,,,,マイリトルファーム,0
1647,6020002060695,登記記録の閉鎖等,0,2025-04-07,2025-03-28,有限会社立花計装,,有限会社,神奈川県,横浜市旭区,今宿南町１７５０番地の４５,,14,112,2410034,,,2025-03-28,清算の結了等,,,2015-10-05,1,,,,,タチバナケイソウ,0
1662,6030001071453,登記記録の閉鎖等,0,2025-04-07,2025-03-31,株式会社アロー,,株式会社,埼玉県,比企郡小川町,大字青山１１８５番地の３,,11,343,3550324,,,2025-03-31,清算の結了等,,,2015-10-05,1,,,,,アロー,0
1663,6030001096863,登記記録の閉鎖等,0,2025-04-07,2025-04-01,歯科技工情報センター株式会社,,株式会社,埼玉県,さいたま市岩槻区,大字浮谷１０００番地,,11,110,3390037,,,2025-04-01,合併による解散等,6030001018041,令和７年４月１日埼玉県さいたま市岩槻区大字浮谷１０００番地株式会社テクニカルセンター（6030001018041）に合併し解散,2015-10-05,1,,,,,シカギコウジョウホウセンター,0
1685,6040002014170,登記記録の閉鎖等,0,2025-04-07,2025-03-28,有限会社スチール工業,,有限会社,千葉県,千葉市花見川区,三角町４８７番１６６,,12,102,2620011,,,2025-03-28,清算の結了等,,,2015-10-05,1,,,,,,0
1686,6040002060330,登記記録の閉鎖等,0,2025-04-07,2025-03-26,有限会社植田総業,,有限会社,千葉県,佐倉市,上志津１１５９番地,,12,212,2850846,,,2025-03-26,清算の結了等,,,2015-10-05,1,,,,,ウエダソウギョウ,0
1698,6080001001298,登記記録の閉鎖等,0,2025-04-07,2025-03-31,株式会社クローバートラベル,,株式会社,静岡県,静岡市葵区,春日２丁目１１番８号,,22,101,4200823,,,2025-03-31,清算の結了等,,,2015-10-05,1,,,,,クローバートラベル,0
1709,6120001000576,登記記録の閉鎖等,0,2025-04-07,2025-04-01,株式会社シルバーケミカル,,株式会社,大阪府,大阪市旭区,新森７丁目６番１９号,,27,117,5350022,,,2025-04-01,清算の結了等,,,2025-01-28,1,,,,,シルバーケミカル,0
1713,6120001258792,登記記録の閉鎖等,0,2025-04-07,2025-04-02,株式会社ＴＫカンパニー,,株式会社,大阪府,大阪市北区,豊崎１丁目１１番１９号,,27,127,5310072,,,2025-04-02,清算の結了等,,,2023-10-17,1,,,,,ティーケイカンパニー,0
1721,6120002016712,登記記録の閉鎖等,0,2025-04-07,2025-04-01,有限会社東英製作所,,有限会社,大阪府,大阪市住之江区,北加賀屋１丁目５番１５号,,27,125,5590011,,,2025-04-01,清算の結了等,,,2015-10-05,1,,,,,トウエイセイサクショ,0
1722,6120003008279,登記記録の閉鎖等,0,2025-04-07,2025-03-31,Ａ＆Ｈ合同会社,,合同会社,大阪府,大阪市鶴見区,今津北５丁目１７番８号,,27,124,5380041,,,2025-03-31,清算の結了等,,,2015-10-05,1,,,,,エーアンドエイチ,0
1745,6140005025023,登記記録の閉鎖等,0,2025-04-07,2025-04-01,特定非営利活動法人神戸楽友協会,,その他の設立登記法人,兵庫県,神戸市北区,道場町道場１３２番地,,28,109,6511501,,,2025-04-01,清算の結了等,,,2020-02-21,1,,,,,コウベガクユウキョウカイ,0
1761,6180301005187,登記記録の閉鎖等,0,2025-04-07,2025-03-28,株式会社ヱスヱス商会,,株式会社,愛知県,豊橋市,西新町６２番地,,23,201,4400811,,,2025-03-28,清算の結了等,,,2015-10-05,1,,,,,エスエスショウカイ,0
1771,6240003004381,登記記録の閉鎖等,0,2025-04-07,2025-03-31,合同会社ＢＩＮＧＯエンタープライズ,,合同会社,広島県,福山市,沖野上町４丁目２２番３０－５０１号レジデンスマサノＩ,00117685,34,207,7200825,,,2025-03-31,清算の結了等,,,2019-09-13,1,,,,,ビンゴエンタープライズ,0
1775,6270002000916,登記記録の閉鎖等,0,2025-04-07,2025-04-03,有限会社高垣時計店,,有限会社,鳥取県,鳥取市,吉方町１丁目２４７番地,,31,201,6800062,,,2025-04-03,清算の結了等,,,2015-10-05,1,,,,,タカガキトケイテン,0
1780,6290001088612,登記記録の閉鎖等,0,2025-04-07,2025-03-21,アスカマネージメント株式会社,,株式会社,福岡県,福岡市博多区,博多駅前２丁目１９番１７号トーカン博多第５ビル３１２号室,,40,132,8120011,,,2025-03-21,清算の結了等,,,2020-04-10,1,,,,,アスカマネージメント,0
1799,6330005009114,登記記録の閉鎖等,0,2025-04-07,2025-02-17,一般社団法人熊本県テコンドー協会,,その他の設立登記法人,熊本県,阿蘇市,内牧２５２番地,,43,214,8692301,,,2025-02-17,清算の結了等,,,2015-10-05,1,,,,,,0
1816,6370005001199,登記記録の閉鎖等,0,2025-04-07,2025-03-28,医療法人社団喜晴会,,その他の設立登記法人,宮城県,仙台市泉区,八乙女２丁目８番地の８,,04,105,9813112,,,2025-03-28,清算の結了等,,,2015-10-05,1,,,,,キセイカイ,0
1820,6390002002017,登記記録の閉鎖等,0,2025-04-07,2025-03-28,有限会社内装タケダ,,有限会社,山形県,山形市,双月町２丁目７番２３号,,06,201,9900065,,,2025-03-28,清算の結了等,,,2015-10-05,1,,,,,ナイソウタケダ,0
1840,6500002004232,登記記録の閉鎖等,0,2025-04-07,2025-04-02,有限会社高橋通信工業,,有限会社,愛媛県,松山市,北土居４丁目２６番４号,,38,201,7911104,,,2025-04-02,清算の結了等,,,2015-10-05,1,,,,,タカハシツウシンコウギョウ,0
1855,7010003025094,登記記録の閉鎖等,0,2025-04-07,2025-03-28,合同会社加美青木原太陽光発電,,合同会社,東京都,千代田区,九段北３丁目２番４号,,13,101,1020073,,,2025-03-28,清算の結了等,,,2017-03-28,1,,,,,カミアオキハラタイヨウコウハツデン,0
1862,7010005037492,登記記録の閉鎖等,0,2025-04-07,2025-03-28,一般社団法人ジャパンレジデンス１,,その他の設立登記法人,東京都,千代田区,内神田２丁目２番６号５階あすな会計事務所内,,13,101,1010047,,,2025-03-28,清算の結了等,,,2023-11-15,1,,,,,ジャパンレジデンスワン,0
1866,7010401171358,登記記録の閉鎖等,0,2025-04-07,2025-03-12,株式会社ＮＡＥＣＯ,,株式会社,東京都,港区,芝大門２丁目２番１１号泉芝大門ビル２階,,13,103,1050012,,,2025-03-12,清算の結了等,,,2022-12-14,1,NAECO INC.,Tokyo,"Izumi Shiba Daimon BLDG 2F, 2-2-11 Shibadaimon, Minato ku",,ネイコ,0
1892,7011001013207,登記記録の閉鎖等,0,2025-04-07,2025-03-04,ダイセン建設工業株式会社,,株式会社,東京都,渋谷区,西原１丁目３１番１１号,,13,113,1510066,,,2025-03-04,清算の結了等,,,2015-10-05,1,,,,,ダイセンケンセツコウギョウ,0
1906,7011101018782,登記記録の閉鎖等,0,2025-04-07,2025-03-31,株式会社プルーフシステム,,株式会社,東京都,北区,神谷２丁目３９番３号,,13,117,1150043,,,2025-03-31,清算の結了等,,,2015-10-05,1,,,,,プルーフシステム,0
1908,7011401017492,登記記録の閉鎖等,0,2025-04-07,2025-03-21,株式会社ＰＡＰＡ,,株式会社,東京都,板橋区,弥生町１０番９号,,13,119,1730021,,,2025-03-21,清算の結了等,,,2015-10-05,1,,,,,パパ,0
1913,7011501004449,登記記録の閉鎖等,0,2025-04-07,2025-03-31,株式会社丸富,,株式会社,埼玉県,川口市,坂下町２丁目３番１８号,,11,203,3340003,,,2025-03-31,清算の結了等,,,2015-10-05,1,,,,,マルトミ,0
1923,7011802016671,登記記録の閉鎖等,0,2025-04-07,2025-04-01,有限会社長坂無線,,有限会社,東京都,足立区,千住龍田町２０番９号,,13,121,1200042,,,2025-04-01,清算の結了等,,,2015-10-05,1,,,,,ナガサカムセン,0
1928,7013301049913,登記記録の閉鎖等,0,2025-04-07,2025-03-25,株式会社ｃｏｌｌｅｃｔｏｒ’ｓ　ｉｎｖｅｓｔｍｅｎｔ,,株式会社,東京都,豊島区,東池袋２丁目４９－９第２尾形ビル３階３３号室,,13,116,1700013,,,2025-03-25,清算の結了等,,,2022-11-09,1,,,,,コレクターズインベストメント,0
1930,7020001134994,登記記録の閉鎖等,0,2025-04-07,2025-03-25,株式会社オプソック,,株式会社,神奈川県,横浜市港北区,新横浜２丁目５番１４号,,14,109,2220033,,,2025-03-25,清算の結了等,,,2020-02-18,1,,,,,オプソック,0
1941,7021001043351,登記記録の閉鎖等,0,2025-04-07,2025-04-03,ナナイロ合同会社,,合同会社,神奈川県,逗子市,新宿２丁目４番２１号,,14,208,2490007,,,2025-04-03,清算の結了等,,,2015-10-05,1,,,,,ナナイロ,0
1950,7030001042197,登記記録の閉鎖等,0,2025-04-07,2025-04-03,株式会社ハウジング神田屋,,株式会社,埼玉県,桶川市,大字川田谷７３４１番地の２,,11,231,3630027,,,2025-04-03,清算の結了等,,,2015-10-05,1,,,,,ハウジングカンダヤ,0
1951,7030001053194,登記記録の閉鎖等,0,2025-04-07,2025-03-31,マリフィー株式会社,,株式会社,埼玉県,春日部市,中央１丁目５２－２石沢ビル３０３,,11,214,3440067,,,2025-03-31,清算の結了等,,,2015-10-05,1,,,,,マリフィー,0
1987,7100001025269,登記記録の閉鎖等,0,2025-04-07,2025-03-31,株式会社ウィスコン,,株式会社,長野県,長野市,中御所４丁目１１番４号,,20,201,3800935,,,2025-03-31,清算の結了等,,,2015-10-05,1,,,,,ウィスコン,0
2008,7120005000885,登記記録の閉鎖等,0,2025-04-07,2025-04-03,行進寺,,その他の設立登記法人,大阪府,大阪市阿倍野区,松虫通２丁目６番１３号,,27,119,5450043,,,2025-04-03,清算の結了等,,,2015-10-05,1,,,,,ギョウシンジ,0
2030,7150005004693,登記記録の閉鎖等,0,2025-04-07,2025-04-01,社会福祉法人常盤福祉会,,その他の設立登記法人,奈良県,橿原市,常盤町３３３番地の１,,29,205,6340003,,,2025-04-01,清算の結了等,,,2015-10-05,1,,,,,トキワフクシカイ,0
2036,7180001064730,登記記録の閉鎖等,0,2025-04-07,2025-03-26,ＭＳＪ資産管理株式会社,,株式会社,東京都,千代田区,丸の内３丁目２番３号,,13,101,1000005,,,2025-03-26,清算の結了等,,,2015-10-05,1,,,,,エムエスジェイシサンカンリ,0
2052,7200001015813,登記記録の閉鎖等,0,2025-04-07,2025-04-01,株式会社カンキョー,,株式会社,岐阜県,大垣市,本今町５８番地,,21,202,5030932,,,2025-04-01,合併による解散等,8200001013840,令和７年４月１日岐阜県大垣市本今町５８番地株式会社大合商会（8200001013840）に合併し解散,2015-10-05,1,,,,,カンキョー,0
2069,7240001022590,登記記録の閉鎖等,0,2025-04-07,2025-04-01,株式会社伯和商事,,株式会社,広島県,東広島市,八本松西１丁目３番４号,,34,212,7390147,,,2025-04-01,合併による解散等,4240002028152,令和７年４月１日広島県東広島市八本松西一丁目３番４号株式会社伯和ビクトリー（4240002028152）に合併し解散,2015-10-05,1,,,,,ハクワショウジ,0
2073,7260001001130,登記記録の閉鎖等,0,2025-04-07,2025-04-02,岡山スバル自動車株式会社,,株式会社,岡山県,岡山市北区,久米３３３番地１,,33,101,7010144,,,2025-04-02,合併による解散等,4240001009368,令和７年４月１日広島市西区中広町一丁目３番１７号スバル中四国株式会社（4240001009368）に合併し解散,2015-10-05,1,,,,,オカヤマスバルジドウシャ,0
2074,7260001003028,登記記録の閉鎖等,0,2025-04-07,2025-03-28,株式会社サンビルド,,株式会社,岡山県,岡山市北区,青江５丁目１８番２３号,,33,101,7000941,,,2025-03-28,清算の結了等,,,2022-08-15,1,,,,,サンビルド,0
2078,7260003004189,登記記録の閉鎖等,0,2025-04-07,2025-04-03,合同会社ツインリンク,,合同会社,岡山県,倉敷市,昭和１丁目１‐３８,,33,202,7100057,,,2025-04-03,清算の結了等,,,2023-02-02,1,,,,,ツインリンク,0
2100,7330002000719,登記記録の閉鎖等,0,2025-04-07,2025-03-28,有限会社泉技研,,有限会社,熊本県,熊本市中央区,国府本町６番４１号,,43,101,8620948,,,2025-03-28,清算の結了等,,,2015-10-05,1,,,,,イズミギケン,0
2120,7400001001611,登記記録の閉鎖等,0,2025-04-07,2025-03-26,株式会社セキレイ,,株式会社,東京都,千代田区,丸の内３丁目４番１号,,13,101,1000005,,,2025-03-26,清算の結了等,,,2015-10-05,1,,,,,セキレイ,0
2134,7480002008053,登記記録の閉鎖等,0,2025-04-07,2025-03-31,有限会社美容室ボブ,,有限会社,徳島県,小松島市,横須町８番５２号,,36,203,7730006,,,2025-03-31,清算の結了等,,,2015-10-05,1,,,,,ビヨウシツボブ,0
2135,7480002014704,登記記録の閉鎖等,0,2025-04-07,2025-03-31,有限会社建材センター篠原,,有限会社,徳島県,美馬市,脇町字西赤谷５５８番地,,36,207,7793742,,,2025-03-31,清算の結了等,,,2015-10-05,1,,,,,,0
2141,8010001196853,登記記録の閉鎖等,0,2025-04-07,2025-03-25,株式会社カデナ,,株式会社,東京都,千代田区,神田神保町１丁目３４番地,,13,101,1010051,,,2025-03-25,清算の結了等,,,2018-12-07,1,,,,,カデナ,0
2159,8010402036014,登記記録の閉鎖等,0,2025-04-07,2025-03-24,有限会社マノレジアツーワン,,有限会社,神奈川県,横浜市青葉区,桜台３８番地９青葉台パークホームズ弐番館１０６,,14,117,2270061,,,2025-03-24,清算の結了等,,,2015-10-05,1,,,,,マノレジアツーワン,0
2163,8010405015238,登記記録の閉鎖等,0,2025-04-07,2025-04-03,相模原３ロジスティック特定目的会社,,その他の設立登記法人,東京都,中央区,八重洲２丁目２番１号,,13,102,1040028,,,2025-04-03,清算の結了等,,,2016-11-01,1,,,,,サガミハラスリーロジスティック,0
2164,8010505001930,登記記録の閉鎖等,0,2025-04-07,2025-03-26,特定非営利活動法人ＣＶＳ　Ｌｅａｄｅｒｓｈｉｐ　Ｉｎｓｔｉｔｕｔｅ,,その他の設立登記法人,東京都,台東区,橋場１丁目２５番５号,,13,106,1110023,,,2025-03-26,清算の結了等,,,2015-10-05,1,,,,,シーブイーエスリーダシップシンスティチュート,0
2165,8010601014472,登記記録の閉鎖等,0,2025-04-07,2025-03-31,東邦木材商事株式会社,,株式会社,東京都,墨田区,江東橋５丁目２番２号,,13,107,1300022,,,2025-03-31,清算の結了等,,,2015-10-05,1,,,,,トウホウモクザイショウジ,0
2185,8011401017921,登記記録の閉鎖等,0,2025-04-07,2025-03-26,Ｃｏａｉｄｏ株式会社,,株式会社,東京都,文京区,本郷３丁目４０番１０号三翔ビル本郷７階,,13,105,1130033,,,2025-03-26,清算の結了等,,,2015-10-05,1,,,,,コエイド,0
2203,8020001073944,登記記録の閉鎖等,0,2025-04-07,2025-04-02,株式会社東京ナンチク,,株式会社,神奈川県,川崎市川崎区,東扇島２４番地Ｃ棟－１３号,,14,131,2100869,,,2025-04-02,合併による解散等,7340001014982,令和７年４月１日鹿児島県曽於市末吉町二之方１８２８番地株式会社ナンチク（7340001014982）に合併し解散,2015-10-05,1,,,,,トウキョウナンチク,0
2212,8021001022024,登記記録の閉鎖等,0,2025-04-07,2025-04-02,株式会社桂建設,,株式会社,神奈川県,伊勢原市,串橋６１番２号,,14,214,2591136,,,2025-04-02,清算の結了等,,,2015-10-05,1,,,,,カツラケンセツ,0
2218,8021005009950,登記記録の閉鎖等,0,2025-04-07,2025-04-01,一般財団法人鎌倉交通安全協会,,その他の設立登記法人,神奈川県,鎌倉市,由比ガ浜２丁目７番２１号,,14,204,2480014,,,2025-04-01,清算の結了等,,,2015-10-05,1,,,,,カマクラコウツウアンゼンキョウカイ,0
2222,8030001060578,登記記録の閉鎖等,0,2025-04-07,2025-03-31,株式会社アイ・エス・シー,,株式会社,埼玉県,本庄市,児玉町蛭川１０５１番地６,,11,211,3670204,,,2025-03-31,清算の結了等,,,2015-10-05,1,,,,,アイエスシー,0
2234,8030003018178,登記記録の閉鎖等,0,2025-04-07,2025-04-01,合同会社エンド・アシスト,,合同会社,埼玉県,さいたま市緑区,大字大門１７６４番地３,,11,109,3360963,,,2025-04-01,清算の結了等,,,2021-10-22,1,,,,,エンドアシスト,0
2246,8040001131139,登記記録の閉鎖等,0,2025-04-07,2025-03-24,株式会社ａｇａｐｅ,,株式会社,千葉県,松戸市,中根１０－１－５０９,,12,207,2710053,,,2025-03-24,清算の結了等,,,2023-11-29,1,,,,,アガペー,0
2252,8040002099879,登記記録の閉鎖等,0,2025-04-07,2025-03-21,有限会社家城工務店,,有限会社,千葉県,館山市,大神宮６０９番地,,12,205,2940233,,,2025-03-21,清算の結了等,,,2015-10-05,1,,,,,ヤシロコウムテン,0
2253,8040003003443,登記記録の閉鎖等,0,2025-04-07,2025-03-28,合名会社成川憲嗣商会,00021250,合名会社,千葉県,銚子市,松本町２丁目９８０番地の２０,,12,202,2880802,,,2025-03-28,清算の結了等,,,2015-10-05,1,,,,,ナリカワケンジショウカイ,0
2262,8080001010735,登記記録の閉鎖等,0,2025-04-07,2025-04-01,株式会社サンハーツ,,株式会社,静岡県,静岡市駿河区,東新田１丁目３番６２号,,22,102,4210112,,,2025-04-01,合併による解散等,7080001004011,令和７年４月１日静岡市駿河区東新田一丁目３番６２号日進電機株式会社（7080001004011）に合併し解散,2015-10-05,1,,,,,サンハーツ,0
2285,8120001163330,登記記録の閉鎖等,0,2025-04-07,2025-04-01,ランテック株式会社,,株式会社,大阪府,大阪市西淀川区,千舟２丁目４番１７号,,27,113,5550013,,,2025-04-01,合併による解散等,1120001005679,令和７年４月１日大阪市天王寺区大道二丁目８番２０号宝シール工業株式会社（1120001005679）に合併し解散,2015-10-05,1,,,,,ランテック,0
2319,8130001023384,登記記録の閉鎖等,0,2025-04-07,2025-04-01,京都薬品ヘルスケア株式会社,,株式会社,京都府,京都市中京区,西ノ京月輪町３８番地,,26,104,6048444,,,2025-04-01,合併による解散等,9130001023400,令和７年４月１日京都市中京区西ノ京月輪町３８番地京都薬品工業株式会社（9130001023400）に合併し解散,2015-10-05,1,,,,,キョウトヤクヒンヘルスケア,0
2325,8140001059163,登記記録の閉鎖等,0,2025-04-07,2025-03-27,株式会社サンライフ,,株式会社,兵庫県,姫路市,保城２３３－６,,28,201,6700804,,,2025-03-27,合併による解散等,2140001060845,令和７年３月１日兵庫県姫路市安田一丁目５８番地４株式会社播磨リビング新聞社（2140001060845）に合併し解散,2015-10-05,1,,,,,サンライフ,0
2365,8240005007240,登記記録の閉鎖等,0,2025-04-07,2025-04-03,一般社団法人弘法吟詩文化協会広島海竹会,,その他の設立登記法人,広島県,広島市西区,三篠町２丁目１番１２号,,34,104,7330003,,,2025-04-03,清算の結了等,,,2015-10-05,1,,,,,コウボウギンシブンカキョウカイヒロシマカイチクカイ,0
2371,8280001007505,登記記録の閉鎖等,0,2025-04-07,2025-04-01,株式会社雲州泉源管理,,株式会社,島根県,出雲市,平田町７１７８番地,,32,203,6910001,,,2025-04-01,合併による解散等,1280001007503,令和７年４月１日島根県出雲市平田町７１７８番地株式会社ゆらり（1280001007503）に合併し解散,2017-06-09,1,,,,,ウンシュウセンゲンカンリ,0
2372,8280005000365,登記記録の閉鎖等,0,2025-04-07,2025-04-01,内陸駐車場協同組合,,その他の設立登記法人,島根県,松江市,矢田町２５０番地３６,,32,201,6900021,,,2025-04-01,合併による解散等,3280005000312,令和７年４月１日島根県松江市矢田町２５０番地３６松江内陸鉄工団地協同組合（3280005000312）に合併し解散,2015-10-05,1,,,,,ナイリクチュウシャジョウ,0
2373,8290001011860,登記記録の閉鎖等,0,2025-04-07,2025-03-26,株式会社エスティ,,株式会社,福岡県,福岡市博多区,井相田１丁目５番６号,,40,132,8120881,,,2025-03-26,清算の結了等,,,2015-10-05,1,,,,,エスティ,0
2377,8290003014341,登記記録の閉鎖等,0,2025-04-07,2025-03-24,産直苺農家合同会社,,合同会社,福岡県,福岡市中央区,天神２丁目３番１０号天神パインクレスト７１９号,,40,133,8100001,,,2025-03-24,清算の結了等,,,2023-09-08,1,,,,,サンチョクイチゴノウカ,0
2402,8360005005959,登記記録の閉鎖等,0,2025-04-07,2025-03-31,特定非営利活動法人シニアネットＮＡＨＡ,,その他の設立登記法人,沖縄県,那覇市,西１丁目９番７号２階,,47,201,9000036,,,2025-03-31,清算の結了等,,,2018-12-26,1,,,,,シニアネットナハ,0
2403,8360005006998,登記記録の閉鎖等,0,2025-04-07,2025-03-28,一般社団法人Ｗｉｌｌ　ＧＲＯＵＰ．,,その他の設立登記法人,沖縄県,中頭郡北谷町,字上勢頭７０３－８,,47,326,9040101,,,2025-03-28,清算の結了等,,,2024-03-12,1,,,,,ウィルグループ,0
2415,8430002041586,登記記録の閉鎖等,0,2025-04-07,2025-03-31,有限会社合田防水工業,,有限会社,北海道,札幌市東区,伏古十四条４丁目４番１７号,,01,103,0070874,,,2025-03-31,清算の結了等,,,2015-10-05,1,,,,,ゴウダボウスイコウギョウ,0
2425,8500001022167,登記記録の閉鎖等,0,2025-04-07,2025-04-01,廣見水産株式会社,,株式会社,愛媛県,宇和島市,日振島３３４９番地,,38,203,7980099,,,2025-04-01,合併による解散等,7500001022168,令和７年４月１日愛媛県宇和島市日振島３２１１番地若松水産株式会社（7500001022168）に合併し解散,2019-08-20,1,,,,,ヒロミスイサン,0
2429,9010001132865,登記記録の閉鎖等,0,2025-04-07,2025-03-28,株式会社アイモコジャパン,,株式会社,埼玉県,所沢市,小手指町３丁目１３番地小手指ハイツＭ－５０２,,11,208,3591141,,,2025-03-28,合併による解散等,6012403001411,令和７年３月１３日東京都新宿区新宿四丁目３番１５号株式会社エスアイコーポレーション（6012403001411）に合併し解散,2015-10-05,1,,,,,アイモコジャパン,0
2432,9010001194757,登記記録の閉鎖等,0,2025-04-07,2025-04-02,Ａｇｇｒｅｋｏ　Ｅｖｅｎｔｓ　Ｓｅｒｖｉｃｅｓ　Ｊａｐａｎ株式会社,,株式会社,東京都,港区,元赤坂１丁目２番７号赤坂Ｋタワー１９階,,13,103,1070051,,,2025-04-02,清算の結了等,,,2018-09-12,1,,,,,アグレコイベンツサービシズジャパン,0
2442,9010002053284,登記記録の閉鎖等,0,2025-04-07,2025-03-26,有限会社興和エージエンシー,,有限会社,東京都,中央区,日本橋中洲６番６－９０３号,,13,102,1030008,,,2025-03-26,清算の結了等,,,2015-10-05,1,,,,,,0
2448,9010102001770,登記記録の閉鎖等,0,2025-04-07,2025-04-01,有限会社カトウインテリア,,有限会社,東京都,八王子市,大塚１６９６番地,,13,201,1920352,,,2025-04-01,清算の結了等,,,2015-10-05,1,,,,,カトウイテンテリア,0
2450,9010401009069,登記記録の閉鎖等,0,2025-04-07,2025-03-28,株式会社ケイ・エム・エイインターフェイス,,株式会社,千葉県,市川市,稲越１丁目２７番１７号,,12,203,2720831,,,2025-03-28,清算の結了等,,,2015-10-05,1,,,,,ケイエムエイインターフェイス,0
2461,9010405015237,登記記録の閉鎖等,0,2025-04-07,2025-04-03,相模原２ロジスティック特定目的会社,,その他の設立登記法人,東京都,中央区,八重洲２丁目２番１号,,13,102,1040028,,,2025-04-03,清算の結了等,,,2016-11-01,1,,,,,サガミハラツーロジスティック,0
2474,9010801020798,登記記録の閉鎖等,0,2025-04-07,2025-03-27,ボトムラインジャパン株式会社,,株式会社,神奈川県,横浜市保土ケ谷区,星川３丁目８番５号,,14,106,2400006,,,2025-03-27,清算の結了等,,,2015-10-05,1,,,,,ボトムラインジャパン,0
2482,9011001064644,登記記録の閉鎖等,0,2025-04-07,2025-03-26,株式会社ワッフル,,株式会社,東京都,中央区,銀座８丁目１０番３号,,13,102,1040061,,,2025-03-26,清算の結了等,,,2015-10-05,1,,,,,ワッフル,0
2485,9011001125438,登記記録の閉鎖等,0,2025-04-07,2025-03-12,株式会社ＫＩＴＥＲＥＴＳＵ　ＳＴＵＤＩＯＳ,,株式会社,東京都,港区,南青山１丁目３番１号パークアクシス青山一丁目タワー２２０９,,13,103,1070062,,,2025-03-12,清算の結了等,,,2018-11-30,1,,,,,キテレツスタジオズ,0
2493,9011003009622,登記記録の閉鎖等,0,2025-04-07,2025-03-21,合同会社Ｂｌｏｃｋ　Ｃｈａｉｎ　Ｇａｍｉｎｇ,,合同会社,東京都,渋谷区,代官山町１番１号ＧＲＡＶＡ代官山１階,,13,113,1500034,,,2025-03-21,清算の結了等,,,2019-02-01,1,,,,,ブロックチェーンゲーミング,0
2500,9011402000355,登記記録の閉鎖等,0,2025-04-07,2025-03-28,赤羽通商有限会社,,有限会社,東京都,板橋区,舟渡１丁目９番１９号,,13,119,1740041,,,2025-03-28,清算の結了等,,,2015-10-05,1,,,,,アカバネツウショウ,0
2539,9030001045339,登記記録の閉鎖等,0,2025-04-07,2025-03-31,新富士理工株式会社,,株式会社,埼玉県,所沢市,大字松郷１５１番地４７,,11,208,3590027,,,2025-03-31,合併による解散等,8030001025135,令和７年３月３１日埼玉県所沢市大字松郷１５１番地４７宮電機工業株式会社（8030001025135）に合併し解散,2015-10-05,1,,,,,シンフジリコウ,0
2544,9030001147829,登記記録の閉鎖等,0,2025-04-07,2025-03-31,ＴＡＳＯ株式会社,,株式会社,埼玉県,草加市,吉町５丁目６番１５号グリーンビレッジ弐番館１０１,,11,221,3400017,,,2025-03-31,清算の結了等,,,2022-04-20,1,,,,,タソ,0
2557,9030002036345,登記記録の閉鎖等,0,2025-04-07,2025-03-31,有限会社サンフーズ,,有限会社,埼玉県,狭山市,大字水野４３１番地の４,,11,215,3501317,,,2025-03-31,清算の結了等,,,2015-10-05,1,,,,,サンフーズ,0
2559,9030002105950,登記記録の閉鎖等,0,2025-04-07,2025-03-31,有限会社野崎印刷,,有限会社,埼玉県,川口市,領家３丁目１９番２６号,,11,203,3320004,,,2025-03-31,清算の結了等,,,2015-10-05,1,,,,,ノザキインサツ,0
2569,9040001001274,登記記録の閉鎖等,0,2025-04-07,2025-03-28,株式会社オフィス花澤,,株式会社,千葉県,千葉市緑区,土気町４０１番地,,12,105,2670061,,,2025-03-28,清算の結了等,,,2015-10-05,1,,,,,オフィスハナザワ,0
2572,9040001053869,登記記録の閉鎖等,0,2025-04-07,2025-03-27,株式会社ケンズエージェンシー,,株式会社,千葉県,千葉市中央区,末広２丁目１３番１号,,12,101,2600843,,,2025-03-27,清算の結了等,,,2015-10-05,1,,,,,ケンズエージェンシー,0
2595,9080401011002,登記記録の閉鎖等,0,2025-04-07,2025-03-26,株式会社ノア・アシスト,,株式会社,静岡県,掛川市,大坂６７１１番地の１,,22,213,4371421,,,2025-03-26,清算の結了等,,,2015-10-05,1,,,,,ノアアシスト,0
2598,9090002009733,登記記録の閉鎖等,0,2025-04-07,2025-03-26,有限会社中野電機,,有限会社,山梨県,上野原市,上野原８１５４番地５１,,19,212,4090112,,,2025-03-26,清算の結了等,,,2015-10-05,1,,,,,ナカノデンキ,0
2600,9100001025325,登記記録の閉鎖等,0,2025-04-07,2025-03-31,株式会社あたご,,株式会社,長野県,長野市,三輪１０丁目４番１８号,,20,201,3800803,,,2025-03-31,合併による解散等,4100001000134,令和７年３月３１日長野市三輪十丁目４番１８号アタゴ学園株式会社（4100001000134）に合併し解散,2015-10-05,1,,,,,アタゴ,0
2614,9120001249723,登記記録の閉鎖等,0,2025-04-07,2025-04-01,ゲーミングメモリー株式会社,,株式会社,大阪府,大阪市北区,大深町４番２０号グランフロント大阪タワーＡ,,27,127,5300011,,,2025-04-01,清算の結了等,,,2022-10-24,1,,,,,ゲーミングメモリー,0
2632,9130001011289,登記記録の閉鎖等,0,2025-04-07,2025-04-01,ネッツトヨタ京華株式会社,,株式会社,京都府,京都市南区,吉祥院池田町２８番地,00035370,26,107,6018349,,,2025-04-01,合併による解散等,3130001012169,令和７年４月１日京都市下京区朱雀正会町１番地２京都トヨペット株式会社（3130001012169）に合併し解散,2015-10-05,1,,,,,ネッツトヨタキョウカ,0
2643,9140002023893,登記記録の閉鎖等,0,2025-04-07,2025-03-28,有限会社ＦＵＮ,,有限会社,兵庫県,神戸市兵庫区,上三条町４番３号,,28,105,6520013,,,2025-03-28,清算の結了等,,,2015-10-05,1,,,,,ファン,0
2655,9180301022155,登記記録の閉鎖等,0,2025-04-07,2025-03-31,株式会社ＩＷＡＴＡ,,株式会社,愛知県,岡崎市,六供町字西茶臼５９番地,,23,202,4440072,,,2025-03-31,清算の結了等,,,2015-10-05,1,,,,,イワタ,0
2667,9220001024752,登記記録の閉鎖等,0,2025-04-07,2025-03-28,株式会社海老ＭＡＲＯ,,株式会社,石川県,七尾市,つつじが浜３番地９０,,17,202,9260851,,,2025-03-28,清算の結了等,,,2022-03-24,1,,,,,エビマロ,0
2672,9240001024874,登記記録の閉鎖等,0,2025-04-07,2025-04-01,株式会社プラス・ワン,,株式会社,広島県,三次市,粟屋町２３２３－２,,34,209,7280025,,,2025-04-01,清算の結了等,,,2015-10-05,1,,,,,プラスワン,0
2673,9240001025633,登記記録の閉鎖等,0,2025-04-07,2025-03-26,株式会社クレサービス,,株式会社,東京都,千代田区,丸の内１丁目９番２号,,13,101,1000005,,,2025-03-26,清算の結了等,,,2015-10-05,1,,,,,クレサービス,0
2679,9270002009558,登記記録の閉鎖等,0,2025-04-07,2025-04-02,有限会社丸信鉄工所,,有限会社,鳥取県,東伯郡琴浦町,大字下伊勢３３９番地７,,31,371,6892316,,,2025-04-02,清算の結了等,,,2015-10-05,1,,,,,マルシンテッコウショ,0
2707,9340001018825,登記記録の閉鎖等,0,2025-04-07,2025-04-01,補修技術株式会社,,株式会社,鹿児島県,姶良市,加治木町木田５６１番地１,,46,225,8995241,,,2025-04-01,合併による解散等,3340001004624,令和７年４月１日鹿児島市伊敷五丁目１６番１６号ロードエンタープライズ株式会社（3340001004624）に合併し解散,2015-10-23,1,,,,,ホシュウギジュツ,0
2736,9430003007957,登記記録の閉鎖等,0,2025-04-07,2025-04-01,合同会社Ｗ,,合同会社,北海道,札幌市中央区,南九条西１５丁目３番１４号,,01,101,0640809,,,2025-04-01,合併による解散等,9430002026462,令和７年４月１日札幌市中央区北二条西二十四丁目２－２７イビザ北円山１Ｆ株式会社漢祥院（9430002026462）に合併し解散,2016-10-21,1,,,,,ダブルヴィ,0
2743,9500001022166,登記記録の閉鎖等,0,2025-04-07,2025-04-01,山下水産株式会社,,株式会社,愛媛県,宇和島市,日振島３３３４番地,,38,203,7980099,,,2025-04-01,合併による解散等,7500001022168,令和７年４月１日愛媛県宇和島市日振島３２１１番地若松水産株式会社（7500001022168）に合併し解散,2019-08-20,1,,,,,ヤマシタスイサン,0
